EVENT_NAME: 202302060117
EVENT_ID: 13194
EVENT_DATE_YYYYMMDD: 2023/02/06
EVENT_TIME_HHMMSS: 01:17:32.00000
EVENT_LATITUDE_DEGREE: 37.288
EVENT_LONGITUDE_DEGREE: 37.043
EVENT_DEPTH_KM: 8.6
HYPOCENTER_REFERENCE: AFAD
MAGNITUDE_W: 7.7
MAGNITUDE_W_REFERENCE: AFAD
MAGNITUDE_L: 
MAGNITUDE_L_REFERENCE: 
FOCAL_MECHANISM: 
NETWORK: TK
STATION_CODE: 2717
STATION_NAME: 
STATION_LATITUDE_DEGREE: 36.85548
STATION_LONGITUDE_DEGREE: 36.690996
STATION_ELEVATION_M: 41.0
LOCATION: Kahramanmaras_Pazarck_Turkiye
SENSOR_DEPTH_M: 
VS30_M/S: None
SITE_CLASSIFICATION_EC8: unknown
MORPHOLOGIC_CLASSIFICATION: 
EPICENTRAL_DISTANCE_KM: 57.34
EARTHQUAKE_BACKAZIMUTH_DEGREE: 
DATE_TIME_FIRST_SAMPLE_YYYYMMDD_HHMMSS: 2023/02/06 01:17:16.9908280
DATE_TIME_FIRST_SAMPLE_PRECISION: millisecond
SAMPLING_INTERVAL_S: 0.01
NDATA: 10501
DURATION_S: 
STREAM: HNE
UNITS: cm/s^2
INSTRUMENT: sensor = ACEBOX/SARA | digitizer = 
INSTRUMENT_ANALOG/DIGITAL: 
INSTRUMENTAL_FREQUENCY_HZ: 
INSTRUMENTAL_DAMPING: 
FULL_SCALE_G: 
N_BIT_DIGITAL_CONVERTER: 
PGA_CM/S^2: 180.240
TIME_PGA_S: 
BASELINE_CORRECTION: BASELINE REMOVED
FILTER_TYPE: BUTTERWORTH
FILTER_ORDER: 
LOW_CUT_FREQUENCY_HZ: 
HIGH_CUT_FREQUENCY_HZ: 
LATE/NORMAL_TRIGGERED: 
DATABASE_VERSION: 
HEADER_FORMAT: DYNA 1.2
DATA_TYPE: Acceleration
PROCESSING: Automatic Paolucci et al., 2011
DATA_TIMESTAMP_YYYYMMDD_HHMMSS: 
DATA_LICENSE: U (unknown license)
DATA_CITATION: Turkish Accelerometric Archive v 1.0 - Disaster And Emergency Management Presidency, Earthquake Department
DATA_CREATOR: AFAD
ORIGINAL_DATA_MEDIATOR_CITATION: : AFAD - Disaster And Emergency Management Presidency
ORIGINAL_DATA_MEDIATOR: AFAD PROCESS SERVICE
ORIGINAL_DATA_CREATOR_CITATION: AFAD PROCESS SERVICE
ORIGINAL_DATA_CREATOR: network: TK
USER1: GuestUser
USER2: 
USER3: 
USER4: 
USER5: 
[...]
-5.360475
-6.888808
-4.468072
-1.724228
-0.868765
-3.736757
-4.123458
-2.995855
-6.126869
-1.295916
7.113537
5.714493
4.216553
4.263312
3.032368
1.403970
-3.854833
-4.485853
-5.130432
-12.457639
-9.397234
-3.251406
-6.715581
-5.409590
-1.917829
-2.297750
1.500286
6.632369
10.310466
13.370872
13.825139
11.221806
5.195447
0.162492
-2.264324
-4.676411
-4.626379
-3.572188
-0.830682
5.047681
5.079010
1.226264
-0.407512
-4.950428
-6.979555
-3.068829
-1.620222
-0.785099
-0.205516
-2.825683
-2.402043
-0.489582
-5.084635
-14.844736
-20.670497
-16.918987
-11.763290
-11.131571
-7.913118
-2.491361
-2.134353
-3.685365
-0.654418
3.256308
0.976550
-4.964239
-7.649401
-3.629492
4.517407
5.813578
1.428476
5.079687
8.533339
4.792816
10.166879
19.941007
19.865490
18.693463
18.992957
16.562399
14.593826
12.195766
8.126290
1.714867
-3.420724
-1.142838
-1.885145
-8.608922
-4.816497
3.487280
0.149589
-4.516304
-2.008595
-1.632884
-2.596830
1.112830
3.053580
1.502802
-0.259796
-6.836514
-13.866565
-14.248356
-12.821960
-7.520842
0.294065
-1.782991
-5.936634
-0.713370
2.683002
-0.024371
-1.167173
-3.371648
-7.763530
-9.440325
-10.602064
-12.633530
-13.692632
-14.391687
-14.211430
-15.425773
-16.457288
-11.372198
-9.678805
-17.249395
-20.024570
-13.578078
-6.843549
-4.439646
-3.575766
-0.303307
0.232790
-3.907994
-4.018114
0.174104
1.336777
-0.625016
-1.123707
-1.422500
-3.302231
-1.143348
4.341535
5.482231
2.937113
3.444687
10.003167
16.710576
17.757519
15.843888
13.375923
11.512090
11.896920
12.249252
11.559315
12.170226
13.844682
15.067908
16.469054
16.927998
14.525496
11.869559
11.311951
13.208280
15.131963
10.641185
2.817392
-1.345837
-3.074768
-1.695365
-0.909339
-3.663472
-4.163331
-6.262598
-7.274239
-3.514546
-9.514954
-17.350436
-15.529390
-18.835284
-25.241330
-25.240863
-19.087320
-7.453335
-5.266162
-14.732614
-16.531685
-11.949259
-14.223406
-19.155594
-17.757721
-15.119787
-15.805515
-13.741788
-9.650804
-8.457270
-10.280188
-12.575376
-11.120457
-9.458159
-11.073231
-11.745165
-13.251756
-17.790229
-20.979926
-19.843906
-14.661089
-9.808627
-8.726380
-8.905236
-9.682379
-12.101246
-13.347854
-12.364270
-9.873395
-7.139370
-6.799663
-5.237431
-1.340265
-0.587906
-2.426489
-5.408106
-5.441072
-1.486392
-4.112872
-8.692727
-5.420735
-1.296552
2.530708
7.101912
7.760986
6.824861
6.410805
7.284504
11.890310
17.190493
17.758853
15.190122
16.880943
21.540756
22.988661
23.377465
22.975099
21.028035
20.679910
19.928017
17.282834
14.261004
14.766473
21.058892
22.500251
17.095325
17.538370
20.937782
17.206610
11.930974
13.328380
15.195016
9.625263
2.933751
2.349023
2.901953
-1.137129
-6.855578
-11.280425
-12.146177
-9.342481
-10.213143
-10.841825
-9.338977
-15.627189
-15.580664
-6.185054
-10.251724
-18.716589
-20.083602
-22.935462
-23.410071
-22.783729
-24.500503
-20.692414
-16.820031
-22.087952
-29.041083
-28.847266
-24.263204
-22.283176
-25.515657
-28.701380
-23.665387
-16.751068
-16.763694
-13.905990
-9.704421
-14.448168
-15.831547
-12.794054
-16.613600
-17.346789
-13.787461
-17.104109
-21.369741
-18.404491
-11.599823
-8.118115
-8.093333
-7.165860
-6.936739
-2.780292
8.717622
13.054327
8.574303
8.717386
10.555032
10.655798
11.702508
9.410592
9.220280
14.774134
14.463884
13.160230
21.182748
26.370007
23.472791
22.871931
26.177122
29.707460
30.457247
27.747536
27.083317
29.508963
28.900622
23.481668
23.524686
30.402767
26.172438
18.329942
22.545774
20.678200
13.957697
17.339574
15.328683
4.675944
-2.720468
-8.012002
-12.508392
-16.551215
-18.470925
-17.777950
-19.261395
-16.953583
-8.328101
-4.220752
-2.652440
1.801397
2.193474
-2.320684
-5.573740
-7.776579
-14.042814
-23.222163
-30.321651
-35.983053
-35.391781
-30.634241
-35.924840
-38.204130
-28.518144
-29.616992
-30.755352
-14.367567
-6.864546
-11.713969
-10.767793
-10.055179
-10.627048
-12.666229
-19.629881
-23.583861
-27.392887
-32.498553
-31.059765
-26.624164
-25.899627
-29.506418
-28.234328
-20.422227
-18.205596
-17.555640
-13.574775
-11.294084
-4.776752
3.739547
3.392824
-1.728739
-5.174912
-6.522052
-6.016350
-5.314491
-3.915449
-4.141298
-6.866206
-2.334047
6.108138
7.333936
8.478139
11.171249
9.001610
6.629502
6.048048
6.896029
7.344218
1.774933
-2.154031
1.743836
6.317611
6.286048
-0.762239
-2.914110
7.408506
15.743845
22.027146
23.089988
11.961237
7.985046
10.501639
8.028531
7.476535
6.002676
3.255557
2.392611
0.970188
2.062721
6.030728
6.227584
0.311811
2.368993
8.031796
-4.391257
-12.331948
-1.580548
0.536954
-0.238319
8.481617
7.212798
-2.728262
-1.186604
9.310425
17.774119
23.509867
25.258202
25.261240
26.129563
20.603763
13.769167
12.418753
6.491758
1.353361
6.537347
14.133887
22.235195
27.374994
26.360780
27.477161
25.951634
16.677597
7.070399
-3.998032
-11.818318
-9.844602
-12.781798
-20.472793
-18.496272
-16.991788
-17.342017
-10.819074
-8.532537
-10.388187
-10.722518
-12.751177
-13.626281
-14.841326
-15.207921
-9.789437
-0.643289
1.987164
-8.121529
-7.621204
6.484953
5.558180
-0.237421
0.977389
-3.533029
-8.684986
-11.498036
-13.296405
-8.629345
-6.200893
-10.547887
-12.019875
-8.313955
-3.139088
0.374885
3.767516
4.876883
-0.483855
1.324566
9.009247
8.558252
10.711758
13.708336
10.734902
12.688979
14.715533
13.137634
15.297219
18.330036
18.028437
14.242089
5.431672
-7.360078
-15.319941
-14.556593
-14.734981
-23.620213
-26.727847
-14.563377
-12.233821
-17.627525
-9.542816
-5.983254
-6.613806
-3.019875
-9.914323
-16.341879
-17.472055
-21.364313
-18.837199
-17.704686
-22.999026
-17.377839
-3.990608
0.397766
-2.450120
-0.660402
5.582218
8.030308
10.070188
12.969507
11.861074
11.155707
6.082072
-2.414356
-1.139694
-1.903744
-7.992995
-6.561922
-7.606529
-10.143698
-0.946114
6.905732
-0.226955
-11.187840
-15.407881
-16.547877
-17.950662
-20.591870
-19.307623
-10.533680
-5.567125
-4.022193
1.345323
4.401053
6.885616
7.570407
2.183483
6.492834
16.587965
13.059029
11.076193
17.449973
16.429681
15.526522
17.134345
13.174753
12.052760
9.848752
-0.475502
-6.357842
-5.040863
-3.408257
-0.035031
4.911884
7.234192
3.091537
-3.088660
-1.738950
-3.965636
-15.756968
-17.646752
-13.154338
-13.254170
-7.755493
0.859234
7.618780
13.362710
13.979934
16.130401
17.513778
8.310348
1.536773
1.308118
-3.193882
-7.397792
-9.719399
-10.189567
-3.721566
-1.586063
-6.650813
-4.841691
0.292730
-2.420488
-3.768330
6.961795
13.409221
7.697319
4.979425
2.262466
-1.878318
-2.082190
-7.086855
-10.095592
-6.357876
-4.671030
0.415229
4.672442
1.033153
2.038715
6.791111
3.583879
-0.072711
2.897683
1.715135
-6.654574
-13.591339
-15.647821
-13.058751
-12.358295
-14.033453
-11.568997
-8.505552
-3.124007
-2.944452
-13.628520
-10.212977
-0.609287
-3.140377
-0.504080
-1.223475
-3.925704
10.288467
13.014075
2.466544
13.022256
25.732410
19.663967
16.976935
19.056093
14.619789
9.233567
2.467707
0.852401
7.049197
8.792856
6.815164
2.591148
0.054915
1.252190
-1.860120
-5.145440
-9.300720
-13.583419
-15.540537
-24.308870
-28.718521
-26.244713
-28.361514
-25.019383
-16.965068
-11.167130
-5.948542
-2.931390
4.070604
7.961691
-3.280919
-11.933756
-14.124204
-21.862660
-21.004157
-13.284640
-14.912805
-19.773217
-27.529442
-31.595645
-26.150274
-27.240471
-29.388134
-27.901885
-30.489086
-27.247488
-25.409609
-32.356661
-32.185289
-28.625258
-33.098035
-37.708284
-35.731762
-32.527338
-32.218960
-33.183842
-34.054270
-33.727890
-33.820474
-36.135302
-37.268051
-32.956830
-28.346582
-33.920777
-37.844364
-30.786960
-34.780452
-48.766205
-53.112030
-51.697323
-46.084319
-40.587045
-43.020174
-43.006381
-37.256605
-28.185974
-16.965108
-15.127463
-20.320568
-19.850870
-15.214905
-13.197703
-12.869920
-5.504138
5.037312
13.230736
29.931108
41.369171
38.194905
47.467303
58.030965
49.980856
45.762919
51.290821
54.020871
42.245437
28.144422
37.835785
37.623263
18.842561
24.007376
23.796724
9.203799
17.792809
24.162147
25.300271
32.770560
22.786247
10.667365
-2.414995
-16.358197
-8.507520
-12.631938
-27.259231
-26.314457
-31.589859
-34.997689
-33.033091
-27.943793
-19.232742
-28.435938
-30.049841
-24.664790
-38.071193
-41.034340
-36.700441
-29.865379
-6.958391
3.287539
0.559592
19.447605
45.149405
33.915679
17.084379
37.650355
45.201772
32.283304
33.552354
17.790210
8.399742
26.102870
1.217020
-20.943454
14.333747
9.673231
-17.936824
1.363841
-2.408946
-19.823102
2.017069
12.870404
7.778533
24.696804
43.968244
34.164422
13.528774
12.229795
9.055997
-9.616223
-15.749193
-10.046645
-11.757808
-8.988948
0.904650
-5.664586
-13.473182
1.896883
14.622000
15.909521
24.381632
32.183446
34.796831
36.950103
30.199206
19.899734
16.309776
8.187659
-6.212383
-15.130347
-22.965128
-31.008222
-31.554139
-28.292201
-23.091148
-16.744722
-15.735186
-17.909034
-8.693214
12.241226
13.405302
-0.615988
1.273794
0.797315
-6.613826
-15.334932
-27.815264
-18.371025
-15.231830
-32.396758
-26.100365
-18.504059
-27.285017
-33.589829
-29.073801
-11.751997
-9.941238
-17.735572
-14.176477
-6.406927
6.980304
4.690259
-1.440140
9.567035
2.116850
-12.700520
-15.315309
-17.100820
-11.504649
-10.626040
-5.691516
8.359933
0.103849
-7.707084
-5.080606
-9.727562
-5.273257
-10.002041
-16.170315
1.888185
5.603924
4.064368
17.421205
20.105431
19.707273
15.714483
-0.201033
-8.645323
1.160601
7.615275
-14.870412
-30.013695
-14.136056
-14.377102
-27.051019
-17.984595
-19.359558
-34.006022
-21.818873
-13.966559
-25.908456
-20.457240
-16.748982
-23.195007
-23.702582
-31.343311
-33.160150
-24.016574
-21.753417
-25.668119
-32.399377
-30.552146
-25.513582
-39.518506
-50.399666
-41.311499
-44.857269
-53.946840
-44.116133
-44.749491
-49.384990
-33.762424
-25.957103
-22.903945
-5.528133
3.802247
-8.816260
-18.233147
-9.686688
-11.667887
-18.888015
-18.449880
-30.039211
-27.205823
-18.945065
-36.279964
-35.622527
-25.481571
-33.672191
-31.123568
-28.615392
-30.056285
-12.481512
-4.923548
-19.526994
-18.122107
-7.852095
-17.993052
-23.866508
-16.248225
-14.385095
1.719327
9.727818
-11.756749
27.997436
88.910975
46.116021
21.797130
78.287692
78.297745
60.793810
90.594310
94.639937
86.612040
104.126961
114.917172
116.088262
113.437701
108.887070
117.890602
112.990445
92.479410
95.836504
100.910138
106.458380
119.399525
109.879534
112.783529
114.200807
74.210719
59.311286
78.216600
87.381920
91.267396
87.673229
87.495776
95.509878
90.976549
88.141055
104.932140
120.418636
120.156782
114.663247
114.081091
116.090812
105.846282
91.736149
86.594011
70.223292
52.553829
57.461934
68.432403
63.937182
47.335237
47.719833
64.315230
67.807926
65.173264
70.952030
75.348120
71.698543
73.804588
74.723411
54.746135
34.186237
16.692122
-12.667906
-30.956931
-18.126138
-0.164430
-12.055126
-26.984485
-19.315468
-12.375197
-1.985715
4.662543
-10.464374
-17.046236
-7.783423
-9.977377
-23.647971
-24.714088
-9.924307
-4.548841
-11.407285
-12.612744
-14.828909
-26.607383
-26.772912
-9.968734
0.928789
16.260979
47.529025
55.753778
40.201116
45.122547
55.294832
51.979118
51.538410
48.457195
56.727772
72.803437
65.440459
68.454105
94.663479
103.466881
91.043127
77.937855
74.201072
67.885973
59.978481
58.055732
40.811079
14.727252
8.005113
21.792838
38.625773
48.771404
57.067465
54.755677
45.227035
45.079275
53.498547
58.916564
40.557633
30.235249
45.363334
35.399596
30.155288
43.645624
36.735745
46.309976
54.064095
36.627728
39.571936
42.542797
37.028688
37.208711
26.425279
25.007064
46.260871
55.888876
53.401973
81.960075
98.033870
75.441572
73.206703
49.510180
27.258992
55.978648
47.580649
30.483522
15.304935
-29.445499
-20.553021
-10.121689
-32.323779
-11.399626
-7.911839
-34.520073
-4.911053
30.006568
14.413926
24.457856
41.336381
13.664837
14.613819
31.465458
23.405063
15.120222
-3.809174
-22.666561
-26.338114
-9.300373
-1.553735
-21.844066
-8.615116
14.936685
31.226742
58.169071
68.107090
102.812657
110.809224
65.755789
80.267818
98.823839
74.914327
58.691134
38.087515
21.490480
19.234336
40.430395
40.684065
2.823402
14.517239
25.908309
-4.882558
-11.484993
-0.547257
20.071557
12.256415
-15.261758
10.898519
21.058880
-10.549108
-20.617588
-26.080262
-13.373382
15.476031
9.190391
0.445671
-4.936109
-21.994660
11.882096
45.176228
10.327342
8.515179
38.000286
22.620634
21.876924
28.979684
-1.276722
3.501158
35.281453
29.796101
10.319853
-11.135723
-27.957203
-41.094740
-58.135522
-59.117705
-44.125456
-7.120727
-3.836811
-18.611630
28.783517
27.082641
-3.938984
-6.021417
-37.352355
-16.891822
-14.961593
-46.600910
-39.500254
-66.732493
-31.661501
-30.184838
-92.335400
-3.751253
25.970457
-45.334203
-23.940117
19.029481
5.228428
-53.462635
-9.295060
31.888562
-62.695993
-51.372257
-2.968742
-35.867759
-52.399097
-38.170664
31.611974
1.855426
-78.505838
-14.705838
7.930880
-26.808823
-22.705214
-14.558549
19.056353
-3.558155
-37.147108
18.570988
71.415014
74.232738
16.704816
-28.394210
-44.402777
-142.501538
-149.198662
-15.651794
-18.218422
-57.145433
6.872466
32.910700
118.426959
180.240383
-21.397134
-107.643075
35.962686
-14.249019
-96.140252
-56.430021
-122.593713
-147.661690
-77.818265
-57.098217
-33.777642
-35.431992
-27.774431
25.710667
18.859705
0.484642
-11.381038
-50.047132
-41.487814
-18.597894
-45.275799
-65.206315
-47.932205
-60.954480
-100.661907
-92.167352
-79.341702
-94.958893
-88.989582
-76.874442
-77.914139
-76.549465
-81.888928
-88.661568
-79.897211
-78.859385
-89.921036
-85.667563
-76.420648
-71.132155
-68.942878
-61.291162
-41.646348
-51.428894
-68.246399
-44.319822
-23.553949
-27.016020
-28.394723
-17.109564
-15.449838
-17.944222
10.122905
10.242375
-29.930308
-35.021245
-25.389967
-25.213217
-16.122011
-3.669034
7.122813
10.431745
5.375177
-2.890493
5.823131
16.142473
-2.510107
-6.719160
-8.492980
-43.837049
-65.633267
-72.574241
-75.627868
-67.022961
-67.823249
-58.658164
-32.979276
-21.567164
-10.837507
10.926679
18.870642
5.915701
-12.334047
-25.738346
-34.370843
-42.471218
-49.035778
-55.290791
-56.204004
-41.652463
-36.690117
-51.378898
-47.031439
-21.296673
-17.830630
-44.876766
-55.100019
-45.269780
-61.148590
-77.350975
-74.518288
-81.712698
-72.500853
-51.035693
-47.499277
-39.955575
-48.590878
-62.311271
-38.001733
-26.134419
-36.395548
-44.785130
-61.229261
-53.945776
-39.275933
-49.927270
-54.831870
-43.508134
-31.265574
-39.167689
-50.934005
-42.531799
-28.571765
-10.535009
-10.748700
-17.887700
-3.486491
-3.614379
0.029117
11.803614
0.232753
-2.336914
-3.952687
-10.359668
-5.881516
-13.209191
-14.465618
-15.264271
-41.304844
-53.283916
-44.644406
-34.985541
-16.095657
-2.986646
2.370584
14.699648
20.665686
28.480593
36.079237
25.869310
27.728465
32.269041
23.540219
28.276016
29.356158
35.942694
44.754044
21.966759
14.655217
17.178122
1.404054
-7.635017
-15.622234
-2.121611
8.612254
8.408148
43.264047
48.090557
38.747082
54.100080
46.609215
63.946684
68.795639
26.950369
23.678376
32.709496
27.338704
14.969659
-3.693676
-5.565457
-2.826757
10.160213
8.484821
-0.063743
24.263797
29.189437
48.275475
74.407696
33.318995
32.412329
69.094885
36.525055
6.838413
15.435605
8.707386
-11.619182
-16.094530
-0.880642
-4.456338
-8.783926
15.692075
1.777630
-23.623742
-4.206880
-17.575175
-29.052517
8.509585
5.110639
-4.794650
22.343600
28.141538
12.455143
0.374604
18.003852
24.310533
-8.299744
14.130297
48.659814
12.402066
-10.643331
4.578039
14.999084
32.219654
49.954111
35.879281
28.200209
59.627003
52.855298
19.073463
18.376980
-7.562360
-27.061987
-6.530614
-34.085493
-62.712800
-32.683412
-29.309251
-53.187200
-39.361366
-14.339915
-13.463410
-14.986834
-5.398575
-6.428453
-9.294574
1.221860
-5.964835
-10.877618
7.426603
-5.701816
-26.860937
-5.747875
11.479475
11.215050
27.069543
36.576440
21.978840
20.952937
28.808056
10.367998
-5.621866
-1.442039
-5.538869
-9.566262
-9.880018
-26.249568
-18.924935
14.570030
8.860700
0.729932
28.199707
37.600694
27.727668
32.052917
49.992882
41.190882
6.161738
6.863597
4.162068
-32.410137
-35.037785
-19.768487
-18.466704
-5.489788
-2.022575
-12.238114
-1.203585
-7.257532
-19.314458
21.664824
36.833123
22.514676
35.333779
26.396177
28.876063
29.690846
-3.249553
3.195769
4.369197
-15.688271
-14.851511
-16.296847
-8.946963
-2.921073
11.677695
41.838944
43.074796
25.002968
16.264327
20.042957
0.241030
-4.278974
36.879865
19.071527
-9.390486
9.192889
-1.706506
-5.988738
14.024307
25.638887
22.626409
4.658854
8.473957
11.236505
7.456704
27.651409
31.389359
16.674392
6.875013
4.122985
17.983888
34.690806
34.010689
14.091162
14.466405
36.306810
18.229371
-9.090542
-9.296284
-20.696707
-22.504896
-8.068383
-12.311103
-12.284451
-5.395381
-12.173399
-10.220257
12.291847
23.648782
7.340253
-1.941265
-6.023600
-13.767200
8.347215
18.765454
-1.892172
-2.857054
-3.019310
-11.852639
-15.647871
-20.845652
-9.698433
1.398987
-4.899045
-1.771773
1.640497
-3.029838
19.392956
43.920392
31.051021
21.296765
9.027083
-18.921978
-19.327617
-9.202559
-0.899718
-7.048119
-30.734822
-5.622191
14.087853
-19.627350
-10.334845
15.471930
-7.491638
-6.113170
27.630087
22.035084
5.167546
3.244562
-12.814973
-5.487767
11.844559
-14.085897
-26.276555
-14.462780
-22.343619
-28.597930
-29.120701
-28.726520
-17.388055
-1.354941
8.527435
2.229170
-0.551849
2.723883
-2.144712
1.554194
-0.011079
11.334400
48.957990
43.511682
16.484951
22.456133
42.646630
39.591600
-14.146001
-41.381980
-19.093620
-10.350071
4.943777
-12.588681
-52.288860
-42.289819
-33.440828
-23.012769
-28.741036
-50.384118
-15.347962
-12.551280
-24.535261
4.217126
-20.668957
-36.013773
-22.094186
-22.839767
15.996764
33.211256
-2.431840
-26.867395
-12.105437
10.980406
-10.704291
-26.276593
-30.903441
-42.525738
-13.377299
0.573150
-2.504324
15.854137
21.967234
19.348236
-7.620513
-25.423007
-20.049645
-34.187366
-9.256863
12.445835
-12.514830
-7.323830
-9.829670
-13.907095
-2.769695
-24.403658
2.351866
33.800871
-20.257734
-39.333487
-26.184028
-29.159801
0.492706
-5.622964
-20.242074
12.071279
-18.669555
-40.881699
15.420189
15.484015
-5.166130
13.941886
23.063018
40.144479
28.434275
7.452139
49.612097
48.913978
-1.116767
4.615707
7.729886
-19.858894
-17.841224
0.106690
4.616171
-4.941462
-22.307222
-13.870883
15.199468
13.087109
0.885463
9.589735
16.457528
7.915277
0.199265
23.382601
19.596955
-11.279014
15.192213
4.510015
-34.819128
3.488086
3.968071
-28.985888
5.607689
24.968674
-9.879277
-19.174589
8.675340
11.533745
1.199671
-7.447321
-28.284504
-16.419293
1.792344
-6.888315
-12.283422
-18.701859
-9.137915
2.427334
-11.876851
-20.922001
-27.090275
