EVENT_NAME: 202302060117
EVENT_ID: 13194
EVENT_DATE_YYYYMMDD: 2023/02/06
EVENT_TIME_HHMMSS: 01:17:32.00000
EVENT_LATITUDE_DEGREE: 37.288
EVENT_LONGITUDE_DEGREE: 37.043
EVENT_DEPTH_KM: 8.6
HYPOCENTER_REFERENCE: AFAD
MAGNITUDE_W: 7.7
MAGNITUDE_W_REFERENCE: AFAD
MAGNITUDE_L: 
MAGNITUDE_L_REFERENCE: 
FOCAL_MECHANISM: 
NETWORK: TK
STATION_CODE: 5601
STATION_NAME: 
STATION_LATITUDE_DEGREE: 37.912
STATION_LONGITUDE_DEGREE: 41.931
STATION_ELEVATION_M: 890.0
LOCATION: Kahramanmaras_Pazarck_Turkiye
SENSOR_DEPTH_M: 
VS30_M/S: None
SITE_CLASSIFICATION_EC8: unknown
MORPHOLOGIC_CLASSIFICATION: 
EPICENTRAL_DISTANCE_KM: 436.13
EARTHQUAKE_BACKAZIMUTH_DEGREE: 
DATE_TIME_FIRST_SAMPLE_YYYYMMDD_HHMMSS: 2023/02/06 01:18:07.4259060
DATE_TIME_FIRST_SAMPLE_PRECISION: millisecond
SAMPLING_INTERVAL_S: 0.01
NDATA: 21001
DURATION_S: 
STREAM: HNN
UNITS: cm/s^2
INSTRUMENT: sensor = CMG-5T/GURALP | digitizer = 
INSTRUMENT_ANALOG/DIGITAL: 
INSTRUMENTAL_FREQUENCY_HZ: 
INSTRUMENTAL_DAMPING: 
FULL_SCALE_G: 
N_BIT_DIGITAL_CONVERTER: 
PGA_CM/S^2: 18.134
TIME_PGA_S: 
BASELINE_CORRECTION: BASELINE REMOVED
FILTER_TYPE: BUTTERWORTH
FILTER_ORDER: 
LOW_CUT_FREQUENCY_HZ: 
HIGH_CUT_FREQUENCY_HZ: 
LATE/NORMAL_TRIGGERED: 
DATABASE_VERSION: 
HEADER_FORMAT: DYNA 1.2
DATA_TYPE: Acceleration
PROCESSING: Automatic Paolucci et al., 2011
DATA_TIMESTAMP_YYYYMMDD_HHMMSS: 
DATA_LICENSE: U (unknown license)
DATA_CITATION: Turkish Accelerometric Archive v 1.0 - Disaster And Emergency Management Presidency, Earthquake Department
DATA_CREATOR: AFAD
ORIGINAL_DATA_MEDIATOR_CITATION: : AFAD - Disaster And Emergency Management Presidency
ORIGINAL_DATA_MEDIATOR: AFAD PROCESS SERVICE
ORIGINAL_DATA_CREATOR_CITATION: AFAD PROCESS SERVICE
ORIGINAL_DATA_CREATOR: network: TK
USER1: GuestUser
USER2: 
USER3: 
USER4: 
USER5: 
[...]
-5.214268
-4.524664
-4.373667
-3.876157
-2.655730
-1.611206
-1.313260
-1.005351
0.376346
2.594908
4.339310
5.025800
5.438939
6.493114
8.280168
9.855204
10.018343
9.099286
8.768650
9.344928
9.803211
9.631977
9.064727
8.848039
9.496858
10.332788
10.273323
9.634778
9.560680
10.478491
12.001535
13.382610
14.267419
14.836537
15.219788
15.180560
14.867047
15.004656
15.296375
14.426198
12.018656
9.248722
7.504943
6.761167
5.858923
4.331521
2.600818
1.487178
1.674600
2.570929
3.086497
3.149386
3.326535
3.736561
3.750882
3.100506
2.395336
2.406232
3.181764
3.843347
3.548203
2.537926
1.922731
2.185496
2.887864
3.284191
3.157479
2.560341
1.483750
0.280757
-0.846893
-2.040546
-3.216453
-4.062346
-4.726420
-5.323247
-5.876486
-6.652952
-7.504449
-7.908872
-7.848473
-7.990130
-8.768153
-9.701219
-9.902652
-9.235153
-8.516285
-8.418215
-8.393931
-7.713667
-7.217713
-8.079796
-9.670399
-10.411684
-9.798668
-8.674132
-7.781228
-6.780602
-5.110610
-2.932210
-1.063586
-0.030271
0.587103
1.281688
2.029511
2.774221
3.384434
3.953552
4.936431
6.056609
6.413085
5.919622
5.451687
5.356730
5.540417
5.718811
5.390043
4.569679
3.604545
2.980944
3.026087
3.511456
3.897198
3.917434
3.818119
3.947011
4.340536
4.866378
5.388173
5.828087
6.004924
5.769867
5.307537
4.889727
4.518617
4.539476
5.090225
5.615756
6.046641
6.818437
7.985626
8.916824
8.882889
8.230956
8.016136
8.496835
8.606735
7.638799
6.539481
6.282630
6.701685
6.978460
6.751498
6.098009
5.533872
4.836485
4.342710
4.580569
5.033248
4.949187
4.013941
3.221598
3.123839
3.215682
2.747436
1.635664
0.250541
-0.665091
-0.921318
-0.939687
-1.298032
-1.841309
-2.253515
-2.203390
-2.014722
-2.832595
-4.601904
-6.453715
-7.382112
-7.940333
-8.855031
-9.679754
-9.864063
-9.452169
-9.237038
-9.709331
-10.573593
-11.515377
-12.454670
-13.406105
-14.149258
-14.511339
-14.202808
-13.148944
-12.054607
-11.257283
-10.596010
-10.040903
-9.699682
-9.396132
-9.151112
-9.115932
-9.032495
-8.497313
-7.559576
-6.551167
-5.870904
-5.629932
-5.194377
-4.290264
-3.357510
-3.056139
-3.608756
-4.255084
-4.295558
-4.155147
-4.525634
-5.328874
-5.986722
-5.983298
-5.827631
-6.368729
-7.240463
-7.622780
-7.342892
-6.878694
-6.619976
-6.686912
-7.053975
-7.410452
-7.722408
-8.108773
-8.359397
-8.363444
-8.189098
-7.918238
-7.638972
-7.376518
-7.174774
-6.945010
-6.337910
-5.128691
-3.845374
-3.013491
-2.156079
-0.769400
0.758313
1.929238
2.770772
3.562804
4.570902
5.740893
6.596126
6.568728
5.879747
5.187342
4.708199
4.343939
3.847673
3.297858
3.186712
3.477497
3.560000
3.313735
2.968778
2.887520
3.143124
3.330235
3.283847
3.081168
2.827431
2.714417
2.961927
3.477184
3.974694
4.356078
4.739018
5.062182
5.214424
5.107325
4.823389
4.792566
5.108570
5.386279
5.471584
5.782295
6.355460
6.781675
7.115424
7.641889
8.316548
9.012690
9.517984
9.583053
9.507087
9.338344
8.692950
8.003034
8.029186
8.531367
8.696374
8.202599
7.460691
7.054400
7.014550
6.866355
6.478122
6.328370
6.382231
6.208506
5.748667
5.333348
5.370707
5.518591
5.100781
4.301588
3.645297
3.072443
2.491806
2.082714
1.875677
1.787258
1.896536
2.074618
2.010795
1.684517
1.241178
0.859172
0.456617
-0.304905
-1.510077
-2.729259
-3.515998
-4.020048
-4.630261
-5.465569
-6.012271
-5.931636
-5.866256
-6.329832
-6.835749
-6.963395
-7.271304
-7.950323
-8.195654
-7.582950
-6.789984
-6.827032
-7.575790
-8.046526
-8.111906
-8.381521
-9.064587
-9.629035
-9.504813
-8.864400
-8.445034
-8.305557
-7.832953
-6.818940
-5.661713
-5.028461
-5.178524
-5.511340
-5.194403
-4.474911
-3.915756
-3.609404
-3.558034
-3.647387
-3.616254
-3.648322
-4.001063
-4.295273
-4.533443
-5.392412
-6.656115
-7.250451
-7.161410
-7.062095
-7.259480
-7.781586
-8.256059
-8.416084
-8.816148
-9.768206
-10.410798
-9.938817
-8.902077
-8.177293
-7.789371
-7.166705
-5.672615
-3.705611
-2.476155
-2.073601
-1.572666
-0.646137
0.404613
1.409909
2.349824
3.066514
3.471870
3.668632
3.786628
3.792543
3.774797
3.668943
3.239925
2.656175
2.055924
1.360716
0.507351
-0.269115
-0.482690
-0.070485
0.142156
-0.411395
-1.233938
-1.693778
-1.761960
-1.705609
-1.842907
-2.452498
-3.082638
-3.314581
-3.596338
-4.084198
-4.144597
-3.649888
-3.069251
-2.582948
-2.294654
-2.074541
-1.394589
-0.325470
0.606039
1.501746
2.447577
2.832073
2.628772
2.689171
3.258911
4.005177
4.440110
4.045028
3.210654
2.934812
3.164576
2.935434
2.254237
1.742715
1.275092
0.346073
-1.154866
-2.673239
-3.541548
-4.001388
-4.917331
-6.431657
-7.874066
-8.593246
-8.872512
-9.537832
-10.603838
-11.110067
-10.649916
-10.072392
-10.066166
-10.397114
-10.368471
-9.647734
-8.756075
-8.132786
-7.245486
-5.675120
-3.744541
-1.834199
-0.160782
1.064627
2.021665
3.192279
4.653056
6.068377
7.186687
8.042854
8.973430
10.178913
11.273872
12.004572
12.688883
13.230914
13.026056
12.421758
12.264846
12.529168
12.619143
12.157124
11.316212
10.780096
10.816210
10.525424
9.221560
7.539736
6.312148
5.538484
4.753924
3.953174
3.479947
3.427643
3.579262
3.483371
2.921725
2.245197
1.800924
1.442579
1.110698
0.922652
0.720597
0.465303
0.310881
0.289399
0.412376
0.525390
0.337655
-0.345099
-1.453446
-2.774123
-4.285025
-5.739886
-6.693812
-6.962493
-6.804958
-6.813676
-7.269468
-7.592944
-7.091386
-6.230549
-5.935094
-6.002031
-5.572391
-4.598228
-3.680729
-3.240192
-2.957190
-2.173875
-0.864407
0.153031
0.279743
-0.088564
-0.309611
-0.084206
0.456580
1.019471
1.605089
2.351044
3.130934
3.795008
4.252357
4.489593
4.668298
4.833616
4.815870
4.510763
4.139964
3.913625
3.516363
2.700669
1.911128
1.833605
2.370655
2.540955
1.768847
0.514485
-0.337012
-0.335767
0.051531
0.091071
-0.245792
-0.606628
-0.683528
-0.376242
-0.149280
-0.384959
-0.651461
-0.584836
-0.448783
-0.359431
-0.151149
-0.115968
-0.290626
-0.026616
0.587956
0.917347
0.715291
0.038452
-0.573318
-0.407378
0.330482
0.827682
0.736461
0.327991
0.185089
0.514168
0.658004
0.054017
-0.616907
-0.842935
-0.884031
-0.806821
-0.606945
-0.383719
0.049969
0.709062
0.912673
0.501402
-0.075811
-0.595426
-1.244557
-2.164547
-3.026941
-3.400542
-3.401476
-3.317416
-3.131239
-2.695061
-1.970277
-1.206264
-0.703461
-0.594806
-0.469650
0.144300
1.096357
1.956883
2.858504
3.852903
4.287836
3.821147
2.970272
2.460308
2.425750
2.339822
1.684776
0.746728
-0.035965
-0.842630
-1.930429
-2.943197
-3.462190
-3.560260
-3.557770
-3.717173
-3.743014
-3.216860
-2.436036
-1.967168
-1.866296
-1.608201
-0.971524
-0.672021
-1.006394
-1.478064
-1.736160
-1.640269
-1.361315
-1.279745
-1.178873
-0.655522
0.078291
0.762290
1.345106
1.852891
2.356940
2.782532
3.240504
4.339200
6.091695
7.809322
8.915178
9.231493
8.858515
8.217168
7.774763
7.364737
6.834224
6.502031
6.597611
6.813676
6.633725
5.876873
4.852586
4.030354
3.506380
2.923252
2.000148
0.574552
-1.177944
-2.635919
-3.284427
-3.163630
-2.932932
-3.423594
-4.865068
-6.465633
-7.469995
-8.052812
-8.611967
-9.081458
-9.423302
-9.629716
-9.636566
-9.762656
-10.028224
-9.851075
-9.347649
-9.284449
-9.549393
-9.624736
-9.615397
-9.708797
-9.828660
-9.749893
-9.446032
-9.071186
-8.791298
-8.425481
-7.746152
-6.927033
-6.122859
-5.572422
-5.400877
-5.300939
-4.989917
-4.749879
-4.858535
-5.017315
-4.952247
-4.587987
-3.760774
-2.833623
-2.545017
-3.035367
-3.449441
-3.313700
-3.264821
-3.844212
-4.834253
-5.462835
-5.300942
-4.843282
-4.950692
-5.527282
-5.671741
-5.116634
-4.443220
-4.300940
-4.823358
-5.270744
-4.721864
-3.482445
-2.682007
-2.327398
-1.730261
-0.897755
-0.257031
-0.068675
-0.257343
-0.489287
-0.277580
0.367191
0.988613
1.602874
2.264146
2.775355
3.040923
3.072367
2.837621
2.493286
2.417010
2.430085
2.374357
2.397395
2.744843
3.242042
3.434446
3.380586
3.266949
2.884008
1.832012
0.302431
-0.830201
-0.905543
-0.271357
0.253551
0.462144
0.881510
1.894278
3.153933
3.738928
3.231766
2.234876
1.531262
1.233316
0.972107
0.586053
0.303673
0.413263
0.919179
1.582008
2.333567
3.322051
4.526911
5.820813
7.031589
7.865028
8.049026
7.782836
7.383706
6.841674
6.275047
5.761969
4.987683
4.057418
3.552124
3.478960
3.487055
3.516943
3.647703
3.933195
4.394903
4.809599
4.842600
4.588240
4.592287
5.124045
5.728032
5.918879
5.683511
5.294344
4.792785
4.053368
3.143029
2.186301
1.605041
1.779388
2.618431
3.715882
4.714328
5.525974
6.265702
6.794035
6.816139
6.457483
5.930084
5.265076
4.658909
4.203117
3.577025
2.813012
2.120607
1.301488
0.311448
-0.637497
-1.482768
-1.903379
-1.373801
-0.192914
0.670725
0.756342
0.333240
-0.216576
-0.939492
-2.040990
-3.387507
-4.509242
-5.175807
-5.630043
-6.218463
-7.113236
-7.809689
-7.820586
-7.770461
-8.409318
-9.337714
-9.709758
-9.210379
-8.200102
-7.490262
-7.473762
-7.759566
-7.855768
-7.819654
-8.027002
-8.539146
-8.946681
-9.127566
-9.368539
-9.616049
-9.627257
-9.522960
-10.069351
-10.959765
-11.296939
-10.825892
-9.692949
-8.754902
-8.118848
-7.042568
-5.582414
-4.521701
-4.264851
-4.740569
-5.248665
-5.364170
-5.415852
-5.522328
-5.317782
-4.450719
-3.162732
-1.857622
-0.679225
0.445622
1.639897
2.767858
3.670103
4.338535
4.770977
4.999807
4.646132
3.529068
2.482053
2.381492
2.853474
2.987347
2.751979
2.602538
2.521903
2.505091
2.818603
3.378692
4.034049
4.858460
5.780007
6.523471
6.824219
6.611578
6.340717
6.529697
7.061143
7.382127
7.341031
7.383684
7.899875
8.730823
9.521299
10.157042
10.595088
10.908600
11.222113
11.385874
11.089173
10.471488
9.998883
9.687861
9.051184
7.837606
6.446879
5.180997
4.050856
3.199670
2.697801
2.573267
2.944376
3.659198
4.289337
4.706835
4.980185
5.112190
5.130248
4.815178
3.907329
2.711497
1.795243
1.300845
0.698103
-0.503021
-1.936401
-2.763925
-2.706329
-2.140947
-1.566849
-1.350783
-1.244308
-0.785713
-0.157131
0.237951
0.531849
0.559558
-0.221889
-1.645929
-3.039769
-3.840519
-4.014243
-4.060943
-4.240272
-4.119474
-3.486845
-2.828063
-2.475323
-2.388772
-2.429557
-2.596121
-3.047554
-3.543197
-3.373209
-2.419284
-1.462245
-1.176130
-1.697613
-2.732797
-3.832116
-4.688283
-5.523591
-6.470356
-7.095825
-7.300372
-7.436113
-7.380696
-6.762699
-5.626021
-4.325893
-3.311880
-3.039152
-3.648743
-4.471597
-5.093330
-5.759273
-6.401243
-6.610770
-6.534805
-6.722228
-7.291657
-8.111710
-8.582446
-8.178335
-7.588047
-7.705420
-8.292906
-8.694838
-8.921800
-9.435189
-10.447335
-11.559729
-12.133206
-12.120441
-12.154688
-12.331214
-12.046656
-11.206678
-10.306302
-9.469126
-8.188612
-6.311583
-4.425525
-3.281374
-2.860452
-2.371347
-1.483735
-0.849861
-0.892513
-1.171468
-1.206961
-0.831804
-0.437033
-0.402787
-0.374456
0.194662
1.251950
2.225178
2.756625
3.213662
4.053017
5.050218
5.624316
5.253518
4.143303
3.188754
2.832589
2.642052
2.098464
1.042421
-0.383798
-1.868548
-3.232811
-4.096450
-3.963822
-3.048502
-2.164627
-1.834925
-1.704165
-1.291648
-0.899368
-0.745258
-0.716616
-0.632867
-0.277013
0.001941
-0.169292
-0.342705
-0.089280
0.331020
0.606550
0.912902
1.403252
1.826666
2.005994
1.774050
1.300512
1.108419
1.231084
1.306426
1.120249
0.652314
0.335065
0.698703
1.529029
2.317948
3.132396
4.135824
4.877108
5.167271
5.226736
5.199961
5.406686
6.119951
6.935333
7.373068
7.561113
7.521574
7.048658
6.387385
6.112789
6.246040
6.317957
6.066711
5.576049
5.468951
6.173498
7.111857
7.488882
7.283401
7.070760
6.946538
6.428791
5.250393
3.760662
2.472676
1.352186
0.107475
-1.008656
-1.759281
-2.457291
-3.073420
-3.055985
-2.308163
-1.505856
-1.145332
-1.154984
-1.138795
-0.825282
-0.720674
-1.324350
-1.966942
-1.749320
-0.921174
-0.418681
-0.551310
-0.907164
-1.083068
-1.179892
-1.505859
-1.786370
-1.485000
-0.623852
-0.047885
-0.318434
-1.007415
-1.570617
-2.155613
-3.257734
-4.773305
-5.963222
-6.308180
-6.195788
-6.164033
-5.860171
-4.780156
-3.389118
-2.614520
-2.861097
-3.608608
-4.074052
-4.087128
-4.035758
-4.084327
-4.075298
-3.844289
-3.360788
-3.007113
-3.127600
-3.682085
-4.426172
-5.355191
-6.652829
-8.299161
-9.716974
-10.230985
-9.924633
-9.469464
-9.119837
-8.404081
-7.033903
-5.637261
-5.084333
-5.238132
-5.369515
-5.170573
-5.028605
-5.377298
-6.292619
-7.448600
-8.342750
-8.609875
-8.279861
-7.792936
-7.259933
-6.483156
-5.442057
-4.430846
-3.589312
-2.809111
-1.891922
-0.624173
0.778384
2.051116
3.392963
4.761584
5.274350
4.370861
2.642026
0.860264
-0.692045
-2.129472
-3.458243
-4.263663
-4.070636
-2.916212
-1.473804
-0.254623
0.879254
1.933117
2.663817
3.004727
2.851239
2.269668
1.708334
1.748184
2.160078
2.387974
2.593143
3.136731
4.030569
4.962701
5.653550
5.854049
5.664447
5.344396
4.898255
4.276833
3.668798
3.554850
4.079758
4.956473
6.023413
6.834436
6.726092
6.101246
5.692776
5.202114
3.919420
1.775266
-0.598651
-2.451708
-3.386643
-3.686769
-3.720704
-3.080291
-1.547597
0.002844
0.728250
0.850916
0.995686
1.515924
2.274954
2.786475
3.267797
4.562632
6.750061
8.855921
10.009411
10.211466
10.082885
10.063271
9.865886
9.053928
7.591906
5.989472
5.141088
5.166929
5.388909
5.590342
6.173158
7.532751
9.371798
10.596583
10.538675
10.120243
10.925040
13.034324
15.131777
16.437510
17.300837
18.029357
18.134277
17.191247
15.476111
13.820751
12.949951
12.867759
12.988556
12.887684
12.445279
11.721428
10.750690
9.332878
7.644516
6.355595
5.929379
6.439655
7.700555
9.217683
10.828834
12.625539
14.238869
14.895471
14.293041
12.798328
10.986679
9.167246
7.378012
5.989153
5.369600
5.439338
5.555777
5.281492
4.997555
5.144816
5.273708
4.620841
3.452718
2.910064
3.363365
3.745682
3.047673
1.531167
0.605572
1.001900
1.639822
1.367405
0.284898
-0.722266
-1.121707
-1.302280
-1.917787
-3.146309
-4.405964
-5.348993
-6.283928
-7.440843
-8.359900
-8.034245
-6.263381
-3.966674
-2.429309
-1.812869
-0.950476
0.665034
2.024004
1.977304
0.695855
-0.698608
-1.461997
-1.592446
-1.097115
0.304820
2.869896
5.900104
7.910696
8.188405
7.333483
6.151661
4.746924
3.005013
1.213289
0.391057
1.388881
3.634840
5.536154
6.044561
5.193064
3.869274
2.691810
1.375181
-0.178373
-1.933049
-3.554162
-4.194575
-3.517425
-1.807271
0.602450
2.901025
4.134839
4.408813
4.686211
5.594682
7.235720
9.089711
10.311695
10.864311
11.165371
10.966428
9.753473
7.484474
4.593743
2.097782
0.595910
-0.229747
-0.919039
-1.385106
-1.045130
-0.091204
0.431213
0.080340
-0.923710
-2.504662
-4.655665
-7.036432
-8.856177
-9.661597
-9.648521
-9.108980
-8.244718
-7.270867
-6.421550
-5.825658
-5.507164
-5.147263
-4.207036
-2.915313
-1.902857
-1.588099
-1.513379
-1.095570
-0.270847
0.957363
2.348712
3.314157
3.304817
2.890432
2.769323
2.698961
2.199894
1.075046
-0.457649
-1.715437
-2.619549
-3.374533
-3.294209
-1.849622
0.042663
1.198644
2.084699
3.646036
5.324434
5.543924
3.426234
0.127656
-1.940844
-2.031442
-1.424654
-1.205475
-1.422475
-1.642588
-1.784244
-2.059152
-2.217310
-1.732252
-0.541713
0.849013
1.814769
1.972615
1.617072
1.624856
2.589366
4.298898
6.025865
6.646664
6.007185
5.615216
6.530225
8.189009
9.609624
10.143560
9.116782
7.014036
5.204254
4.345908
4.438374
5.282710
6.324120
7.063226
7.560114
8.069455
8.208932
7.515281
6.409425
5.739123
6.103695
7.158804
8.240687
9.014351
9.651650
10.564169
11.751906
12.473265
11.722017
9.299531
6.599959
5.377975
5.452694
4.964835
3.103683
1.349007
1.187425
2.141039
2.889174
3.003122
3.067567
3.898516
5.315083
5.981337
4.800760
2.313517
-0.141659
-1.827841
-3.140735
-4.800765
-6.577545
-7.683402
-7.706129
-6.922815
-5.680905
-4.134201
-2.414395
-0.809160
0.461703
1.501557
2.392904
2.859593
2.729767
2.393838
2.500003
3.137302
3.494713
2.927774
1.710460
0.232249
-1.329712
-2.691796
-3.890741
-4.742861
-4.606497
-3.458922
-2.208296
-1.792666
-2.117698
-2.705496
-3.278349
-3.704876
-4.102761
-4.624244
-5.158182
-5.509677
-5.702704
-5.626739
-5.428420
-5.429977
-5.351209
-4.536138
-3.167828
-2.039244
-1.248769
-0.252813
1.170603
2.389785
2.737233
2.254355
1.092458
-0.597149
-2.408799
-4.069452
-5.316654
-5.570702
-4.859928
-4.251894
-4.420948
-5.511238
-7.253460
-8.477935
-8.159752
-6.725128
-5.140441
-3.663475
-2.110855
-0.435258
0.973837
1.436478
0.577509
-1.405997
-3.768707
-5.564790
-6.363360
-6.376748
-5.744429
-4.232594
-2.026174
-0.042046
0.929937
1.051979
0.866113
0.700172
0.552600
0.407518
0.522089
1.185852
2.235045
3.022096
3.083740
2.768982
2.902232
3.864875
5.322539
6.562580
7.355546
8.168749
9.160346
9.879214
10.103686
10.031767
9.919065
9.603061
9.170619
9.174354
9.864269
11.030213
12.199893
12.775237
12.264961
10.587496
8.198011
5.927768
4.193329
2.919352
2.201728
2.528005
3.821907
5.301986
6.338727
6.731007
6.423720
5.365498
3.963874
2.886038
2.479747
2.463869
2.097741
1.243130
0.642879
0.746864
1.172146
1.471337
1.510876
1.399730
1.413740
1.413740
1.164361
1.193315
1.852097
2.597740
2.707018
1.857077
1.010562
1.485968
3.062249
4.334669
4.600547
4.441144
4.691456
5.560388
6.662197
7.711702
8.536113
9.003424
9.297945
9.923725
10.754674
11.083131
10.740353
10.082505
9.629514
9.593711
9.407222
8.401615
6.842145
5.388218
4.391639
3.587153
2.577810
1.534843
0.931478
1.000905
0.971017
0.041064
-1.502527
-2.588147
-2.549231
-1.941508
-1.835655
-2.406329
-2.993816
-3.084103
-2.703031
-2.247239
-2.072581
-2.046740
-1.861808
-1.717661
-2.068534
-3.325076
-5.005032
-6.322906
-6.845324
-7.096570
-7.317306
-7.698690
-8.376774
-8.514384
-8.609963
-8.857162
-9.195271
-10.058598
-11.058602
-11.642975
-11.923486
-12.168506
-12.092230
-11.713648
-11.227034
-10.896398
-11.031517
-11.151381
-10.821679
-10.181888
-9.746333
-9.656981
-9.687180
-9.568251
-9.141724
-8.635496
-8.067935
-7.490412
-7.066687
-6.980759
-6.876151
-6.213323
-4.820417
-3.105904
-1.705215
-0.615236
0.298839
0.838068
0.951082
1.050086
1.336201
1.685829
1.910300
1.991246
1.836825
1.255876
0.182087
-1.163185
-2.284920
-2.969854
-3.264687
-3.310453
-3.419108
-3.909147
-4.380818
-4.240718
-3.532123
-2.739779
-2.169728
-1.862442
-1.945880
-2.238845
-2.632370
-3.096257
-3.417554
-3.505350
-3.295823
-2.712072
-1.888596
-1.332554
-1.269976
-1.391708
-1.500986
-1.585669
-1.566055
-1.340650
-1.136415
-1.317611
-1.968299
-2.895761
-3.767806
-4.309215
-4.661645
-5.116192
-5.299256
-5.029953
-4.678146
-4.573850
-4.687487
-4.707101
-4.436864
-3.950561
-3.593150
-3.304544
-2.812949
-2.020605
-1.069793
-0.319480
0.177720
0.697024
1.331833
1.694225
1.348956
0.362651
-0.802982
-1.505350
-1.296757
-0.672845
-0.424712
-0.699620
-1.301428
-2.334432
-3.588795
-4.402932
-4.769372
-4.926595
-5.073545
-5.533073
-6.257546
-6.894846
-7.627414
-8.570443
-9.125862
-8.855936
-8.131775
-7.430652
-7.063279
-7.195284
-7.427228
-7.563904
-7.840679
-8.420694
-9.045851
-9.327920
-9.128044
-8.543671
-7.848775
-7.150765
-6.302382
-5.489179
-4.984508
