EVENT_NAME: 202302060117
EVENT_ID: 13194
EVENT_DATE_YYYYMMDD: 2023/02/06
EVENT_TIME_HHMMSS: 01:17:32.00000
EVENT_LATITUDE_DEGREE: 37.288
EVENT_LONGITUDE_DEGREE: 37.043
EVENT_DEPTH_KM: 8.6
HYPOCENTER_REFERENCE: AFAD
MAGNITUDE_W: 7.7
MAGNITUDE_W_REFERENCE: AFAD
MAGNITUDE_L: 
MAGNITUDE_L_REFERENCE: 
FOCAL_MECHANISM: 
NETWORK: TK
STATION_CODE: 2704
STATION_NAME: 
STATION_LATITUDE_DEGREE: 37.00879
STATION_LONGITUDE_DEGREE: 37.80215
STATION_ELEVATION_M: 524.0
LOCATION: Kahramanmaras_Pazarck_Turkiye
SENSOR_DEPTH_M: 
VS30_M/S: 721
SITE_CLASSIFICATION_EC8: B
MORPHOLOGIC_CLASSIFICATION: 
EPICENTRAL_DISTANCE_KM: 74.10
EARTHQUAKE_BACKAZIMUTH_DEGREE: 
DATE_TIME_FIRST_SAMPLE_YYYYMMDD_HHMMSS: 2023/02/06 01:17:19.8531720
DATE_TIME_FIRST_SAMPLE_PRECISION: millisecond
SAMPLING_INTERVAL_S: 0.01
NDATA: 10501
DURATION_S: 
STREAM: HNE
UNITS: cm/s^2
INSTRUMENT: sensor = CMG-5T/GURALP | digitizer = 
INSTRUMENT_ANALOG/DIGITAL: 
INSTRUMENTAL_FREQUENCY_HZ: 
INSTRUMENTAL_DAMPING: 
FULL_SCALE_G: 
N_BIT_DIGITAL_CONVERTER: 
PGA_CM/S^2: 160.640
TIME_PGA_S: 
BASELINE_CORRECTION: BASELINE REMOVED
FILTER_TYPE: BUTTERWORTH
FILTER_ORDER: 
LOW_CUT_FREQUENCY_HZ: 
HIGH_CUT_FREQUENCY_HZ: 
LATE/NORMAL_TRIGGERED: 
DATABASE_VERSION: 
HEADER_FORMAT: DYNA 1.2
DATA_TYPE: Acceleration
PROCESSING: Automatic Paolucci et al., 2011
DATA_TIMESTAMP_YYYYMMDD_HHMMSS: 
DATA_LICENSE: U (unknown license)
DATA_CITATION: Turkish Accelerometric Archive v 1.0 - Disaster And Emergency Management Presidency, Earthquake Department
DATA_CREATOR: AFAD
ORIGINAL_DATA_MEDIATOR_CITATION: : AFAD - Disaster And Emergency Management Presidency
ORIGINAL_DATA_MEDIATOR: AFAD PROCESS SERVICE
ORIGINAL_DATA_CREATOR_CITATION: AFAD PROCESS SERVICE
ORIGINAL_DATA_CREATOR: network: TK
USER1: GuestUser
USER2: 
USER3: 
USER4: 
USER5: 
[...]
-19.073725
-26.216872
-30.774879
-13.879482
-39.391159
-57.840304
-46.419933
-41.692042
-26.311797
-24.046717
-18.310463
-5.824090
-12.341800
-28.233092
-42.174186
-39.331191
-32.488772
-14.375919
9.935197
21.328589
35.704456
48.328181
43.042949
44.555358
25.950467
-7.545034
-28.456684
-38.929056
-20.732505
-7.238381
-2.632818
19.484977
39.633872
35.643356
26.431975
19.051530
9.803665
6.250035
-9.352146
-47.620589
-36.062560
-18.068969
-18.000890
15.730103
37.919946
38.081840
28.711034
26.250386
20.745332
9.772304
8.669834
-6.810632
-13.944888
0.963214
-3.610429
-12.099186
-4.327809
-4.172046
-25.895231
-33.290392
-11.749900
-5.746915
0.433889
20.590449
-8.736392
-42.454169
-23.362385
-35.595178
-50.147299
-35.418550
-24.872564
-22.473813
-17.625434
-10.492064
-13.473603
-1.745725
10.136366
-13.619182
-24.922711
-13.232236
-19.854492
-19.422495
-10.674640
-32.852799
-42.922929
-27.358732
-29.884990
-32.801839
-25.310683
-8.211712
12.821686
16.586894
10.430343
-1.936735
5.107418
23.305502
28.737622
29.772982
15.199399
7.201488
-2.096350
12.375786
33.625327
20.787945
17.981467
31.082547
25.295126
7.246690
-4.316824
-0.959376
-6.734840
-35.514118
-40.119033
-26.137130
-26.344672
-23.982405
-28.064590
-30.855126
-24.095486
-19.328352
-24.495548
-38.108901
-41.111594
-40.212665
-49.099984
-45.652400
-27.405875
-35.286670
-45.061557
-16.736608
7.817938
11.462964
3.933518
-5.722720
-12.000066
-13.067585
-17.843269
-21.280703
-13.970739
10.616919
20.668381
7.283128
25.113615
67.348403
72.741587
40.601199
30.546091
44.681288
32.117995
-6.626271
-15.120239
-11.848942
-30.947131
-27.409104
-4.920339
14.709505
31.119575
41.063119
66.405593
86.056591
67.180064
43.929771
12.490547
-13.797407
8.139502
11.070181
2.950249
-3.512582
-22.173272
-14.259640
1.270527
-3.098010
-19.856943
-28.972362
1.430938
21.163795
16.687340
17.585349
20.080368
11.962582
12.425851
-3.016905
-22.942571
-17.155117
-29.077645
-48.107772
-52.511566
-56.268463
-44.243196
-23.887048
-1.233340
31.664657
65.933097
99.547280
111.469841
97.809273
68.184430
70.698151
68.510671
35.713268
25.660613
5.887014
-37.923597
-40.926291
-24.534003
-33.244727
-35.962602
-15.828116
8.220868
22.264396
31.056400
28.822012
33.057831
42.918289
21.182228
-11.389220
-15.106568
-13.007352
-18.404794
-30.377295
-20.291189
-8.898410
-19.920492
-1.831553
21.269772
31.241215
43.785227
42.869163
38.483150
49.524274
58.563080
49.502539
43.474755
30.010710
-4.193927
-9.231129
-22.838351
-57.518809
-65.646713
-85.758784
-101.078292
-47.283959
-8.811602
-2.073423
19.826389
29.710455
36.009909
16.067993
-14.799140
-28.574984
-57.335867
-70.177848
-80.122584
-122.194542
-145.794650
-126.655345
-97.360662
-79.395890
-49.601164
-15.183110
11.500374
24.131763
26.479621
17.985040
-5.849914
-23.214968
-44.932635
-44.394865
-47.860198
-47.166069
-15.851592
-13.625756
-26.770338
-25.627366
-23.995695
-26.062072
-11.331178
11.262747
19.601002
21.917281
30.435503
31.972132
26.620678
36.696667
37.417469
34.107882
40.994449
27.025456
10.406634
5.091663
-16.104806
-26.466806
-2.209956
10.138760
13.591556
20.876686
13.644936
-12.702190
-14.633669
-1.263406
-16.777290
-18.429469
-0.254992
7.817759
7.390700
-14.372647
-26.798896
-12.978257
6.344387
27.014479
47.795863
37.711323
22.418488
13.771840
-8.019407
-31.511904
-34.807694
-28.829543
-14.154447
-6.670342
-15.886322
-24.348098
-15.288138
-1.039197
5.520242
14.253994
18.288079
29.692508
26.262739
-4.200313
-32.539945
-22.994045
-26.250899
-24.933172
-9.143940
-4.876543
-5.238912
-12.427434
-24.030497
-17.393798
-15.394530
3.424699
23.754174
17.353580
14.598302
-0.600411
-18.465509
0.896992
4.274674
6.434594
45.926045
75.073873
85.978259
91.288971
98.158369
93.825396
54.847818
10.195320
-12.221670
-36.894525
-61.539788
-71.610838
-58.518649
-24.833338
5.763726
16.340371
14.741845
6.796360
19.937910
26.696017
17.366907
24.416578
29.517278
16.255580
-18.220385
-59.244736
-89.261398
-92.177634
-77.851127
-56.719621
-42.870776
-39.727633
-20.359307
-7.383008
-5.782302
-9.504555
-7.636812
-1.534800
-14.975238
-8.711042
8.571268
-5.024303
-8.304764
-4.701434
-8.367888
-7.502990
-12.393338
-10.854869
-12.216097
-10.786467
-5.474835
4.658179
35.982466
40.528550
20.011171
21.184802
27.250943
29.677594
30.326348
41.217857
32.156397
16.613081
28.912130
21.915225
32.333671
31.781832
16.629107
25.769700
36.638215
22.354051
17.893537
4.496941
-2.012491
16.992222
11.612562
-1.510559
-2.061785
-12.726694
-32.422420
-27.312216
-33.151757
-31.210739
-26.057613
-33.599323
-8.870942
16.921601
30.273162
49.745421
47.353141
26.959623
13.564253
-2.667350
-30.101325
-38.798867
-38.944479
-68.185170
-102.503243
-104.694095
-52.821753
-15.754790
-20.763174
-4.230162
11.240833
-7.512140
-23.935666
-33.326400
-33.053522
-16.830163
-26.633256
-34.111502
-31.824349
-20.786904
9.147932
7.022077
-5.195693
19.139337
30.604777
21.562938
38.986277
57.872648
58.102299
71.137156
78.173644
71.565797
49.588759
28.148247
25.447542
22.603967
7.645924
-14.231780
-24.214226
-23.547997
-54.603068
-85.292994
-69.236418
-52.077663
-45.178832
-39.979411
-56.106469
-46.592147
-23.055775
-0.959748
41.137384
61.827404
63.314060
78.327321
91.559007
70.302754
24.487066
-10.870336
-16.444985
-18.505538
-26.756076
-13.056539
12.946323
0.237094
-14.217226
-16.862133
-35.115369
-47.942021
-42.091410
-32.822051
-25.207033
-15.196654
-0.096322
21.801037
29.649060
32.899509
44.113241
52.939276
61.448300
55.156545
30.546846
0.054055
-34.359366
-70.577664
-79.161462
-75.674941
-61.578374
-50.086261
-41.328902
-12.939876
23.176669
26.510816
18.383219
35.311114
22.148750
-25.456791
-62.009881
-44.745660
-50.801651
-60.303063
-29.566502
-6.847184
-9.575483
-17.492455
-16.656683
-11.739628
-11.925096
-9.713363
6.191759
19.745361
9.456327
-5.447142
-2.823663
25.567509
47.552859
49.277425
67.392424
82.631027
81.425238
57.110476
15.058753
-17.440648
-22.590368
-29.020701
-55.872775
-81.962980
-59.811154
-28.534388
-26.625562
-15.892251
-6.380689
2.618568
24.523592
42.346107
61.703089
78.054601
57.742022
22.896313
5.529112
-0.911951
7.597993
10.077069
2.256059
10.005055
34.952339
52.282169
54.083996
32.831729
17.727444
15.161637
3.782688
-10.580270
-24.360406
-55.112875
-91.413032
-104.141269
-85.655300
-44.381354
-18.648289
-5.604847
-4.695494
4.497218
12.267982
-6.457398
-16.150427
3.344826
6.862005
2.374206
6.568635
-5.476220
-20.504777
-14.405525
-3.429704
18.533265
45.663446
45.150543
34.230861
29.432182
40.884439
27.744763
34.212226
61.747102
68.585535
79.842189
94.106459
63.007546
23.749748
5.797887
-7.304080
-31.545261
-33.484099
-10.618845
-22.660022
-34.358127
-6.425302
39.142390
73.963912
83.152026
89.928529
90.855970
62.905397
35.251292
3.107532
-26.705556
-38.533961
-42.576904
-44.779099
-38.808000
-27.930900
-6.728266
8.768482
9.688566
16.169825
36.811712
44.041656
46.834985
52.199656
37.175391
20.081359
17.166349
11.359613
12.841977
34.697640
40.149075
31.474528
30.454530
30.011836
15.378775
-7.556960
-28.278525
-36.883784
-34.133072
-40.296981
-43.966501
-21.405075
3.818137
14.475108
17.199148
20.391345
38.523819
66.551380
75.810928
49.580306
12.973870
-22.672950
-58.472450
-67.869930
-38.783725
-23.410225
-26.461665
-23.758167
-20.909040
-28.101854
-47.919296
-40.533299
-21.426492
7.383478
24.782290
26.901434
54.343108
63.341138
47.669055
18.431430
3.362403
-6.407885
-24.270223
-28.544945
-27.284550
-17.141419
-10.418262
-11.299989
3.895078
11.336567
-6.904099
-26.512448
-26.323268
-17.492021
-9.191476
-22.791032
-48.250895
-47.294635
-58.619011
-76.025455
-62.443954
-27.586255
7.813796
26.305897
28.505367
34.506512
42.680743
17.647035
-32.866787
-36.696652
-31.366012
-54.627036
-63.743988
-74.037007
-69.787392
-50.965404
-12.138633
32.261271
52.809648
59.545682
52.379234
14.714154
-19.826808
-29.460972
-12.488622
-9.832338
-9.445102
8.445169
12.947718
19.069658
27.486706
42.761486
60.572351
64.423097
43.987883
49.093795
40.015779
-16.071484
-23.577936
-14.381238
-41.857828
-43.236226
-42.439697
-42.161912
-47.507848
-46.223233
-20.715815
-25.712856
-35.921563
-32.313634
-40.037150
-37.901143
-23.365544
-25.105101
-26.859066
-7.093711
20.682141
23.950679
7.045811
-4.751015
-20.681244
-43.233133
-45.199563
-57.928720
-87.671293
-104.517296
-60.814877
-12.446822
-4.018123
13.837197
38.866033
65.222389
98.357991
126.925757
144.618279
137.765163
113.933582
79.716069
29.342050
-20.650575
-42.693223
-37.008476
-31.409572
-1.540959
31.226126
38.105028
43.384161
39.633396
18.626092
-0.570205
-7.664298
-2.533860
-22.674444
-43.981283
-32.438277
-33.815755
-58.560658
-74.509282
-49.738898
6.473178
21.349089
17.420810
33.118372
44.770830
31.359825
-11.976497
-45.822120
-65.381109
-71.204707
-67.389525
-82.740611
-54.447853
15.243614
31.004027
16.306891
36.314756
66.581319
65.433782
40.497568
30.176037
34.045178
22.218919
-23.764779
-41.662374
-28.842741
-14.945455
-14.894852
2.160277
34.681172
33.878238
37.303135
40.297584
30.351008
13.006802
13.803944
25.919654
-0.794762
-12.390468
20.150662
20.909787
16.106817
26.802111
28.439914
46.140101
58.351773
57.650625
46.375609
23.369053
16.224066
20.624215
25.563037
27.253880
25.526893
21.208330
18.954321
4.165515
-20.792466
-22.462121
-19.318057
-11.764357
7.684294
25.487494
57.596030
71.116827
56.478555
50.223283
25.398974
10.345277
3.530484
-0.460032
-4.444416
-37.795822
-65.489476
-66.241210
-71.466657
-71.937251
-50.304782
-14.224415
-2.408240
-6.495638
1.910067
-1.268608
-15.331110
-37.298644
-48.346786
-49.602855
-59.950140
-94.093152
-96.246294
-44.947269
-6.554625
-5.638221
0.874004
10.418678
29.988431
45.750990
34.811993
9.434908
-14.882920
-42.475094
-55.295614
-53.954280
-49.395932
-30.853245
-10.124594
-9.202978
-14.221786
-8.874590
4.932559
30.815545
38.555957
36.440832
28.548080
15.049391
4.698427
1.908198
-1.984210
-4.589261
-9.424116
-13.429962
-13.565763
-28.523192
-35.664193
-23.565652
-21.538484
-24.352013
-14.390688
-22.899065
-50.543666
-50.412123
-48.339274
-57.818612
-51.872346
-42.632112
-45.558466
-47.443957
-30.856680
-3.655677
14.899580
41.934106
74.080353
85.931479
91.517505
100.496833
75.319030
39.157144
-0.287059
-18.729766
-9.886562
-27.606950
-24.961704
-28.856258
-26.269262
11.106740
26.856729
37.824885
42.229020
17.523053
15.665768
17.554358
-13.424066
-21.477469
-34.078779
-79.575003
-93.515484
-81.958682
-88.814250
-71.311812
-40.024315
-34.866896
-27.254332
-7.378299
6.190632
0.496108
-11.393002
-9.199970
-9.370109
-8.845523
-1.112163
-1.121344
-14.188053
-23.854715
9.770199
47.441444
53.913813
39.167929
15.386628
5.558394
19.135910
30.392258
46.925576
80.944147
103.360251
115.901810
140.455130
152.032781
147.172478
145.143504
132.948728
107.722177
66.982645
32.706881
6.936139
-39.100292
-91.535187
-110.199249
-106.493519
-98.322047
-68.939679
-23.940399
0.107053
10.951348
23.539509
10.344647
29.464330
47.285619
27.568125
24.163496
3.470749
-32.714130
-52.832946
-49.755719
-39.917948
-20.171908
-0.147793
14.856577
27.306160
26.790191
21.549415
18.199665
21.452567
3.556811
-13.471612
-2.454095
18.063317
36.230743
23.506491
-5.009428
-3.944023
-3.536246
-30.680190
-39.130623
-15.031665
-27.910742
-53.717968
-57.873428
-66.466730
-62.859414
-41.565724
-2.975025
34.733010
52.298299
61.433067
44.738518
9.799913
-8.208360
-11.303337
-10.903224
-19.628359
-0.430802
15.621788
-7.058867
-39.580648
-49.056920
-12.818661
19.660845
7.985426
7.169309
23.586125
45.032495
46.879390
39.784070
45.931150
45.312475
39.311364
31.882784
17.290807
-4.787712
-20.220964
-21.879888
-18.079729
-22.159155
-3.488314
41.010311
69.637555
76.336491
101.022869
129.415268
136.322377
127.660399
110.971368
70.377465
21.994114
-8.578083
-26.877614
-47.257949
-87.903665
-124.689455
-115.921365
-87.385790
-47.924385
16.727411
85.479190
129.497700
147.267483
146.073344
114.591505
74.170823
67.653726
69.297047
38.302374
4.035501
-28.319804
-74.038917
-106.863606
-106.043164
-108.008981
-131.839336
-121.672904
-70.986440
-25.204750
12.796690
60.405330
88.218280
76.242406
65.977593
52.508949
20.549141
-11.317158
-27.129964
-39.398014
-79.292287
-113.637646
-99.721659
-77.086345
-39.894602
-27.971121
-44.287036
-54.037703
-57.417498
-56.946564
-27.938846
-9.121764
-11.526613
20.884218
56.133428
75.002630
74.703725
68.153516
65.097170
52.215946
33.937877
11.356556
-7.363918
-14.531592
-29.568734
-32.736371
-29.794655
-31.930935
-12.181522
11.325724
6.276258
2.861205
-6.332394
-7.065426
-5.572639
-28.970706
-49.571170
-67.281442
-76.493129
-79.680081
-69.087494
-53.640106
-57.992087
-44.500723
-9.715685
10.628813
39.554059
60.686791
53.458413
66.906549
95.754842
105.545399
94.705429
69.256910
19.150541
-31.261189
-53.669594
-65.166886
-93.136162
-108.601605
-100.959301
-97.945537
-102.397160
-68.237252
-8.899217
31.084612
75.507203
132.503528
154.056897
160.639637
157.299085
117.439764
70.914634
46.297578
29.208145
-13.990212
-29.038085
-7.202043
-19.839224
-34.497731
-6.652589
8.351781
-29.113405
-46.992605
-21.477523
-18.221862
-21.596752
0.390131
-10.248105
-16.567760
-7.772997
-1.516465
9.786484
8.416364
13.207105
20.656259
18.147783
-1.172375
-21.055426
-35.439231
-40.444243
-41.389126
-28.001388
-2.974085
25.607478
27.835154
12.184838
10.110489
6.232491
-6.249864
4.369397
11.319428
-28.733657
-72.959999
-92.113374
-114.039212
-126.327497
-86.316995
-29.914222
-5.149664
10.257868
4.049810
-1.131182
1.827703
-5.411405
-25.130739
-44.857125
-51.460679
-64.159790
-60.585892
-23.857708
8.479849
2.381856
6.370565
27.653831
42.944860
45.246423
28.575788
3.287613
-9.875058
-29.561587
-41.638634
-26.062173
-17.350801
-8.912598
6.253956
7.799170
11.796464
28.401830
36.530380
26.454118
21.201691
28.056680
25.715601
6.844286
-2.842611
2.672594
7.773600
18.190207
52.440251
82.102225
76.715820
72.240284
64.887738
52.495520
45.799683
18.805966
0.878632
1.752727
-14.425837
-21.171034
-9.165082
-2.480862
-11.687951
-20.803370
-11.923069
1.317201
12.255925
28.631351
48.930780
52.474326
30.036488
25.141235
23.068418
0.553014
-4.400798
14.973660
13.843598
1.373200
5.204631
10.707572
-0.951597
-12.960582
-21.365946
-7.868143
21.719331
22.389546
8.130828
10.589057
9.006166
-7.852714
-31.562273
-48.992324
-64.882084
-95.663066
-111.619968
-88.870604
-30.694226
9.889593
17.146823
30.608143
49.479798
48.237832
32.463656
28.500119
30.521769
19.716750
9.321331
2.400459
-9.376133
-25.368292
-32.194428
-27.987122
-31.302841
-51.495544
-59.374806
-60.192456
-76.794723
-84.531422
-78.934971
-68.266964
-44.481337
-28.747903
-20.943722
13.598806
45.781843
65.406168
81.211956
90.191897
79.581868
39.881358
15.317035
-7.221977
-29.126968
-28.774376
-49.828282
-56.418960
-36.786050
-37.156697
-37.661015
-31.071530
-11.314453
-8.668286
-3.680717
3.998070
-5.618618
-12.604180
-22.146368
-23.848827
-16.066107
-5.389515
7.793117
7.717407
3.939969
18.305719
33.806453
30.289001
25.017259
19.011242
6.261237
-6.685596
-33.483404
-55.440208
-50.448653
-46.136801
-16.220666
21.234742
30.701543
31.269052
13.947226
-8.645438
2.304016
26.597350
26.166000
30.338355
41.467162
48.726539
35.035620
13.559544
-1.657257
-17.375941
-25.028022
-13.556451
0.696476
21.672848
30.730049
23.427171
20.676185
8.054333
-2.584209
-6.934657
-31.578080
-26.640178
-5.943106
-11.459504
-17.934905
-24.409693
-22.414717
-22.207754
-26.403683
-19.150131
-20.565932
-37.364721
-34.137266
-21.903213
-20.560653
-33.680095
-54.397369
-65.772639
-65.920090
-52.073391
-46.606014
-42.769984
-31.790791
-38.498585
-32.415581
-12.951601
-6.066567
5.305978
7.892053
-10.993671
-18.811003
-25.933608
-21.166168
2.401169
11.075750
22.294081
23.725857
0.367339
6.143756
40.788071
69.617969
83.883158
98.899179
104.288377
105.300129
106.626747
104.305289
100.892689
98.800251
88.439477
82.832023
78.430680
59.864726
34.976340
15.252101
3.248635
-2.142369
-7.652636
-5.299566
19.219110
32.559940
22.373307
4.227683
6.020925
14.937710
11.704156
-0.721480
-0.229698
3.662744
3.478502
10.262976
14.719230
19.613291
20.011563
9.969026
4.631061
5.033013
-2.336701
-12.540810
-15.970579
-29.048325
-52.154522
-68.157719
-71.635315
-68.919860
-60.715276
-32.798087
-20.495665
-25.562301
-5.399609
2.696443
-15.125732
-28.372714
-33.688298
-36.068007
-13.515166
-8.544459
-9.566602
-5.861178
-12.349150
-5.571727
-2.594754
-13.717396
-19.862910
-24.171663
-50.478319
-52.577808
-44.174863
-57.245864
-61.964523
-55.776667
-31.235917
-3.414383
-16.306951
-28.069746
-17.291674
-6.610483
-16.141020
-46.995890
-65.288063
-67.256333
-68.358495
-64.841009
-49.166441
-13.481570
14.927384
35.167029
53.751412
63.985293
70.841815
76.392584
83.587577
83.519532
72.255859
54.484577
37.238172
23.358089
17.513643
26.404368
28.344465
15.851380
7.243361
12.524641
18.740090
18.603982
15.702156
14.450685
3.864876
-5.435722
-10.221523
-20.642082
-19.198962
-2.369788
14.797245
35.104339
51.511957
51.290924
54.534935
58.234533
59.397127
56.702553
47.150861
33.305728
12.383348
-10.191228
-15.749015
-14.721933
-32.234455
-51.349507
-39.504513
-33.550582
-44.369091
-43.573175
-32.212894
-22.217231
16.520629
44.156985
34.226045
39.896383
55.120269
56.031155
58.819271
64.449140
59.588531
44.301214
13.867595
-17.490997
-36.673191
-53.211994
-66.262147
-60.621855
-49.910618
-26.027804
-2.401602
-6.013483
-17.190392
-18.633172
-0.529823
6.181683
-14.016233
-15.942807
-3.996026
6.390229
0.687426
-24.183484
-36.498749
-19.218586
-2.733402
-4.113332
-19.079039
-25.123379
-1.208373
3.401788
-13.664038
-12.093684
-4.700942
11.058858
31.205914
35.083946
34.969912
36.455035
48.239018
67.629725
61.694529
30.743391
5.916629
3.843813
11.877322
9.748094
2.555586
16.466361
37.338495
25.027522
10.231971
12.576149
16.980591
9.028975
4.627939
6.533086
3.040773
0.234295
-1.250181
0.708925
9.615285
11.698252
-3.508432
-20.803278
-22.850954
-13.782409
-21.941891
-33.898143
-15.387341
15.051831
36.394881
48.920805
37.096078
15.285210
-0.770413
-8.370680
-10.849111
-20.483888
-35.423535
-40.467789
-24.633796
-4.753777
-15.794561
-36.813516
-24.604910
0.023524
8.626364
23.054657
35.013395
22.992454
1.468244
-1.453204
0.466965
-12.880271
-21.537956
-16.388202
-12.768930
-15.852869
-10.431479
11.739355
23.984139
14.472303
0.946020
-11.000114
-18.781881
-12.731989
-14.130621
-30.437951
-35.909587
-31.322727
-36.131829
-30.307279
-2.577414
17.887879
26.538546
28.253915
24.512348
