EVENT_NAME: 202302060117
EVENT_ID: 13194
EVENT_DATE_YYYYMMDD: 2023/02/06
EVENT_TIME_HHMMSS: 01:17:32.00000
EVENT_LATITUDE_DEGREE: 37.288
EVENT_LONGITUDE_DEGREE: 37.043
EVENT_DEPTH_KM: 8.6
HYPOCENTER_REFERENCE: AFAD
MAGNITUDE_W: 7.7
MAGNITUDE_W_REFERENCE: AFAD
MAGNITUDE_L: 
MAGNITUDE_L_REFERENCE: 
FOCAL_MECHANISM: 
NETWORK: TK
STATION_CODE: 2718
STATION_NAME: 
STATION_LATITUDE_DEGREE: 37.00777
STATION_LONGITUDE_DEGREE: 36.6266
STATION_ELEVATION_M: 527.0
LOCATION: Kahramanmaras_Pazarck_Turkiye
SENSOR_DEPTH_M: 
VS30_M/S: None
SITE_CLASSIFICATION_EC8: unknown
MORPHOLOGIC_CLASSIFICATION: 
EPICENTRAL_DISTANCE_KM: 48.30
EARTHQUAKE_BACKAZIMUTH_DEGREE: 
DATE_TIME_FIRST_SAMPLE_YYYYMMDD_HHMMSS: 2023/02/06 01:17:10.4534030
DATE_TIME_FIRST_SAMPLE_PRECISION: millisecond
SAMPLING_INTERVAL_S: 0.01
NDATA: 10501
DURATION_S: 
STREAM: HNE
UNITS: cm/s^2
INSTRUMENT: sensor = GMS+/GEOSIG | digitizer = 
INSTRUMENT_ANALOG/DIGITAL: 
INSTRUMENTAL_FREQUENCY_HZ: 
INSTRUMENTAL_DAMPING: 
FULL_SCALE_G: 
N_BIT_DIGITAL_CONVERTER: 
PGA_CM/S^2: 644.970
TIME_PGA_S: 
BASELINE_CORRECTION: BASELINE REMOVED
FILTER_TYPE: BUTTERWORTH
FILTER_ORDER: 
LOW_CUT_FREQUENCY_HZ: 
HIGH_CUT_FREQUENCY_HZ: 
LATE/NORMAL_TRIGGERED: 
DATABASE_VERSION: 
HEADER_FORMAT: DYNA 1.2
DATA_TYPE: Acceleration
PROCESSING: Automatic Paolucci et al., 2011
DATA_TIMESTAMP_YYYYMMDD_HHMMSS: 
DATA_LICENSE: U (unknown license)
DATA_CITATION: Turkish Accelerometric Archive v 1.0 - Disaster And Emergency Management Presidency, Earthquake Department
DATA_CREATOR: AFAD
ORIGINAL_DATA_MEDIATOR_CITATION: : AFAD - Disaster And Emergency Management Presidency
ORIGINAL_DATA_MEDIATOR: AFAD PROCESS SERVICE
ORIGINAL_DATA_CREATOR_CITATION: AFAD PROCESS SERVICE
ORIGINAL_DATA_CREATOR: network: TK
USER1: GuestUser
USER2: 
USER3: 
USER4: 
USER5: 
[...]
4.081393
12.684200
15.762522
14.280618
11.977848
6.775548
-2.631355
-10.045319
-13.125835
-17.169830
-15.904688
-6.231377
-1.673936
-8.121044
-16.204430
-19.204937
-18.576486
-17.724635
-24.986115
-33.506431
-29.881037
-22.951136
-17.837012
-15.154576
-16.180328
-13.643102
-3.427916
11.199428
17.343532
12.164611
6.417058
3.676839
4.820929
7.062798
-0.165951
-16.180311
-19.034569
-4.072384
2.642170
-4.774652
-8.068177
-2.392695
5.677847
9.848494
7.433763
2.547341
-1.708884
-4.084649
1.064543
9.980630
6.154061
-11.427739
-23.199050
-14.814189
4.750045
15.188632
14.380046
17.729566
27.514057
33.729337
32.792946
19.650580
0.794618
-8.834647
-9.336966
-6.625176
-9.973512
-20.826803
-26.519285
-17.565013
-3.597998
0.359898
2.223026
8.490779
12.695195
14.619888
15.031173
12.920631
6.830184
-1.261514
-3.891332
-2.825432
-8.029551
-13.872698
-10.722680
-10.086176
-18.692734
-19.770439
-12.109291
-13.083868
-19.231464
-17.439512
-8.124941
1.411731
12.533247
22.667646
19.487639
11.692855
15.912858
29.390469
36.324007
27.910456
15.646885
11.604449
12.320701
9.126927
3.885922
5.114177
8.148858
6.939451
7.078759
5.000428
-7.686305
-20.203670
-17.121971
-5.870570
-1.438078
-1.868701
-0.361195
0.679508
-3.560872
-6.269919
-2.100052
-3.245296
-14.583834
-22.658388
-19.216910
-16.083517
-21.309456
-25.448526
-18.527976
2.370945
15.968050
7.380714
-3.330224
-2.860491
7.592382
14.030023
7.176639
3.928053
8.850987
13.691835
16.488309
14.158003
11.151522
11.953757
9.137945
-2.525042
-11.496835
-9.350300
-6.016106
-4.829674
-0.315355
6.067735
7.071291
6.737042
10.232552
10.105078
10.406481
14.677657
16.435320
16.200302
15.655901
12.735402
6.629110
1.410705
2.467773
9.711993
13.176590
3.540312
-5.894387
-1.432021
4.034088
2.871958
0.601659
-1.147026
-3.210031
-6.126373
-5.173991
-0.090001
3.460839
2.793567
0.582755
6.139003
18.758602
22.803001
18.435855
18.967412
18.396255
10.727459
-0.706934
-11.790379
-11.665618
-6.403687
-8.975057
-15.066023
-13.163930
-4.673343
-5.753905
-14.809343
-15.728329
-3.996878
5.292495
-5.022817
-22.198080
-19.214833
-1.221156
5.013087
-1.896668
-8.945138
-7.346714
1.372729
2.302251
-4.655821
-9.707195
-7.443765
2.081737
11.410336
16.747080
13.491221
5.320034
1.462812
-0.811643
-3.202735
-7.767824
-16.849238
-23.541307
-20.374923
-13.273316
-14.284520
-21.498982
-27.132237
-29.523328
-26.683993
-16.178905
-4.688778
0.256496
4.465588
12.116865
14.675651
10.664647
10.551460
14.397137
13.619724
9.038789
-0.098995
-16.343510
-27.717895
-31.748902
-38.130548
-43.641192
-44.322491
-42.102962
-39.195047
-31.867701
-15.410292
3.189424
15.760445
21.631273
27.400531
37.195153
49.407434
58.358590
59.605289
59.178043
59.076805
58.656314
58.881605
57.678951
53.973175
46.538429
36.193504
25.483085
16.617538
4.331626
-11.793395
-20.918710
-22.601414
-27.858785
-39.159657
-37.703065
-23.055199
-17.006171
-19.686644
-21.081526
-17.693040
-11.272804
-7.013577
-9.501821
-13.792855
-11.661127
-5.790819
-5.249131
-9.708495
-7.488186
0.961617
7.393803
10.578371
11.318522
7.742629
1.951435
0.013379
-0.360614
-2.401539
-5.079154
-9.676195
-16.434764
-19.866486
-19.276481
-15.350016
-5.616959
6.669097
17.261206
18.952887
8.363780
-7.240667
-18.094218
-20.816253
-16.215691
-5.360177
1.320087
-1.133089
-9.443772
-15.913739
-4.590123
14.516659
19.661176
18.427091
18.802008
15.728247
4.129941
-14.504699
-27.126230
-32.797411
-39.831594
-48.825727
-55.135677
-55.161062
-55.191123
-54.393043
-45.501634
-30.471130
-12.724752
5.650524
16.386285
12.246695
7.297929
17.243995
33.615941
35.598043
19.514324
3.998459
-4.136621
-6.840473
-4.048935
-1.519502
-5.687146
-18.413884
-30.547311
-32.490043
-26.275803
-24.363059
-27.449809
-25.457057
-20.508406
-12.395781
-5.378338
-7.094293
-8.756995
-2.573667
10.358692
20.955477
20.402504
11.561115
1.335423
-0.177653
8.286438
14.511069
7.934857
-7.248506
-12.880462
-11.646492
-15.629961
-20.522098
-24.817288
-26.750409
-26.726698
-27.754527
-24.057178
-16.377067
-9.838376
-4.435910
-1.586443
-0.260516
2.554402
4.576248
3.425548
3.143253
6.344705
11.751847
17.725023
21.152993
18.426021
10.856976
8.768514
18.528587
30.649431
32.066017
21.917476
9.865096
7.269568
9.291414
-1.348868
-19.005741
-21.312408
-11.805089
-8.284122
-4.068276
2.580296
-1.725544
-11.684195
-12.907630
-7.292414
-9.132018
-13.194976
-10.338236
-7.836858
-4.764251
2.687005
9.186211
12.547161
13.760869
9.788570
6.455300
8.836925
9.844377
7.189102
6.145946
3.939290
-6.365371
-12.938207
-9.499846
-9.392749
-16.473951
-22.732467
-24.566096
-23.802306
-21.382756
-18.199487
-12.781955
-12.436651
-20.215849
-21.706844
-11.892999
-0.852531
-3.201540
-11.660810
-8.940188
-2.578659
4.902989
20.009086
30.134652
26.097152
21.421402
25.635169
31.049325
31.902215
26.127387
12.533024
4.719797
8.959542
10.296899
6.960772
3.710369
-0.574691
-3.067351
-8.352517
-14.973150
-14.263911
-13.468689
-19.825917
-25.332665
-20.320371
-14.075737
-19.632620
-30.710611
-38.963625
-37.324417
-23.406240
-6.689322
-2.853776
-14.098018
-19.557229
-11.717880
-4.797850
-7.874209
-9.421055
-1.270764
6.087495
4.581173
-1.717867
-2.471641
1.116865
1.758564
-4.876096
-17.107456
-27.800211
-29.151971
-19.905199
-14.008915
-20.471868
-30.598329
-27.324661
-14.606092
-6.157068
-0.112196
6.763934
13.486020
9.686727
1.990915
5.987257
18.215904
25.554421
15.799948
-4.555914
-16.795587
-8.764789
5.228722
12.500997
16.065864
13.961817
10.489831
5.125176
6.052360
16.745000
17.193431
11.180136
13.135222
20.451658
26.693434
22.461107
6.597153
-8.677129
-19.020496
-26.135986
-28.387842
-26.294560
-23.066092
-24.956091
-26.924540
-24.131443
-27.947881
-33.088876
-20.866203
4.213943
22.672604
27.168740
16.583010
0.390708
0.289991
8.921372
2.800013
-8.487610
-4.324757
11.361142
24.858236
27.536775
23.175344
21.939960
17.448385
3.747258
-4.637978
-2.617431
-8.481619
-29.257266
-44.995233
-42.113036
-33.947938
-32.240671
-33.493200
-35.804802
-32.396315
-11.758200
10.688678
13.802329
10.829877
13.597516
17.262135
18.850168
9.146870
-5.012748
-4.289741
2.025549
2.718942
0.166535
-7.053123
-11.977471
-12.946333
-14.612412
-13.991494
-12.381381
-15.831026
-21.191005
-18.712747
-17.773094
-22.523917
-21.883517
-14.350954
-6.633177
-10.762375
-17.855526
-16.530118
-15.691515
-20.534555
-24.690510
-25.584819
-28.855484
-28.808913
-25.206120
-16.332635
-6.427352
-10.856323
-15.593118
-13.697000
-2.883309
13.302124
13.070223
9.344444
14.102686
20.705279
25.640423
24.107345
22.284626
26.916100
34.153567
32.476058
18.920141
1.911649
-6.843757
-5.567445
-5.824023
-9.366406
-13.055558
-17.184756
-17.263134
-9.246623
-4.809715
-12.761658
-24.670646
-29.654741
-24.139016
-16.524367
-8.648131
-2.032289
-0.433865
4.324636
14.293822
22.343843
23.821994
24.380828
31.757010
38.416233
31.791444
5.316749
-27.682277
-42.080621
-44.742911
-51.417575
-62.134488
-73.368859
-75.628768
-70.861174
-68.490200
-63.961074
-46.542524
-23.694823
-7.131169
6.448791
15.477617
17.557651
18.176231
17.260621
11.480858
8.885589
13.057014
14.224743
12.494761
11.673707
5.432076
-4.477738
2.514247
19.754597
19.272800
6.449169
-2.993322
2.371217
14.011750
15.918519
14.945501
10.950862
7.887231
8.838054
4.208543
-4.368662
-8.130549
-0.951530
13.363313
18.205979
7.069281
-5.638753
-14.851350
-21.747597
-23.766700
-30.096133
-43.494371
-49.906930
-54.177702
-67.439042
-75.447614
-71.153578
-55.646140
-44.825175
-53.906070
-61.216386
-53.333916
-35.062288
-24.758521
-35.486864
-47.380785
-46.491527
-33.686195
-10.681335
7.810576
12.084610
9.199440
2.021086
-1.924197
-3.053336
-4.944634
1.911234
6.912878
3.128651
0.791072
0.403830
-2.489393
-6.548714
-2.827466
5.608570
10.032230
15.415993
22.306929
26.277034
24.656934
14.651525
0.965724
-5.635945
-2.314480
-3.594544
-3.624605
9.044609
14.917514
10.415029
1.745607
-7.283594
-15.360746
-26.017912
-22.852048
-7.128483
1.569139
-5.045000
-25.945595
-47.552499
-51.151511
-33.336814
-23.657010
-35.513265
-44.080858
-37.775699
-21.425054
8.975398
42.641913
51.646581
46.804060
51.683353
59.963008
63.177709
65.277485
68.548555
62.852956
50.234801
39.658423
37.724003
44.504018
47.254773
42.863209
32.209420
29.771050
42.589371
53.806482
57.695800
57.507021
59.296374
67.880478
80.825565
86.365188
86.028861
98.085023
116.994641
132.632483
141.563636
131.869429
114.210738
101.724805
91.970073
84.541302
64.199727
23.529235
-20.437973
-53.256980
-69.532147
-56.777470
-26.971626
-19.691817
-16.615313
8.031020
18.765742
0.340735
-8.345832
14.745011
34.252096
21.210520
2.740314
2.279038
-2.142399
-12.712284
-14.669823
-15.290855
-10.581710
-3.015118
3.177302
15.039417
27.024662
41.302878
47.683890
46.536307
52.378041
44.534940
29.399375
15.382110
-21.973224
-68.125859
-75.053018
-50.187440
-43.283776
-50.490705
-58.577468
-54.286808
-13.147810
22.716861
14.128746
-3.464224
-4.519329
7.970126
22.313544
21.971502
15.191371
-0.493603
-24.054741
-29.532915
-26.020261
-33.942850
-45.789754
-58.998101
-80.065467
-113.519087
-134.920775
-120.613724
-109.170355
-113.132523
-112.091041
-92.617466
-45.299887
-8.990494
-16.773588
-39.770770
-32.608376
0.522757
42.403393
66.174308
47.153654
11.158464
-13.957125
-11.714736
-13.402376
-42.971946
-75.723933
-88.584191
-80.887455
-84.964960
-89.085326
-80.151056
-57.445449
-29.474605
-43.451086
-55.966373
-32.466915
-13.299866
-9.758638
-21.274337
-14.500297
17.803476
27.352617
-6.835367
-23.988550
13.215484
41.852892
28.956006
-18.621975
-44.063833
-27.531091
-24.761113
-25.102896
-20.026698
-13.645946
-15.463730
-39.170598
-64.345674
-80.119749
-72.071807
-58.043487
-58.128359
-65.267488
-74.111994
-65.381642
-40.857919
-27.723980
-42.460282
-48.404999
-33.293967
-22.168034
-19.263757
-32.545618
-37.629464
-28.772864
-30.719752
-39.370471
-46.798203
-57.790470
-72.888369
-79.317033
-65.463018
-40.385990
-41.302119
-74.813667
-80.386136
-42.413449
4.938939
42.508986
25.502053
-6.809108
1.325077
21.141805
43.388403
37.484989
4.853015
-8.880063
2.519664
26.090559
30.255230
-3.542842
-32.256737
-24.748852
0.178031
30.863709
44.146494
37.253625
26.742967
19.612410
28.770341
44.659118
51.948798
42.693599
30.475747
13.531677
-17.681705
-43.983394
-59.641353
-52.243610
-36.443933
-48.194462
-75.593931
-74.732209
-39.912584
-7.986774
6.351708
-18.506711
-50.209495
-24.982321
21.229166
38.371583
17.773358
-4.598562
-16.548594
-35.590289
-30.487856
-20.655048
-23.768814
-35.932894
-54.412712
-37.459665
3.822726
47.821250
45.915924
0.454272
4.738437
40.119420
61.944414
50.340134
-2.106938
-24.031018
2.140672
9.826239
-19.612928
-61.726691
-88.369196
-98.944796
-119.392356
-135.153702
-139.183409
-136.784121
-117.263788
-89.590638
-64.925602
-44.757408
-33.284165
-36.957471
-33.738355
2.563246
39.295801
34.171172
9.607070
-15.628792
-46.422129
-56.704970
-49.030054
-40.065131
-24.030884
-2.346164
16.606836
24.909870
47.021648
89.527286
123.363429
142.603992
163.437451
188.544613
172.635978
117.660326
84.839500
88.467492
101.839378
99.339963
86.244874
74.335886
60.181724
41.759835
36.055403
49.969944
59.842497
43.068835
-0.903308
-38.601536
-53.905171
-52.307786
-26.518214
20.265022
42.697613
22.119130
5.274811
2.325219
17.584059
45.495935
56.451460
59.692137
75.608450
122.927587
158.545738
150.121017
116.218778
60.770608
38.158662
46.472866
51.989630
78.139500
99.762135
88.035764
72.793693
92.191676
102.537525
73.430861
57.149719
76.982553
109.573888
110.285984
77.333716
37.275757
10.506485
-0.939077
-7.815841
2.509746
3.994132
-23.828239
-39.051346
-31.258496
-29.010911
13.616038
95.409756
106.617256
73.454835
66.930577
51.108444
7.089024
-36.219152
-46.543816
-32.266119
-20.620391
-12.069538
-11.240027
-30.623057
-62.408188
-79.058720
-74.238914
-68.541611
-70.048713
-83.139125
-110.763813
-137.786878
-151.873761
-166.561226
-194.405678
-221.675263
-223.190417
-210.719406
-223.253655
-246.247460
-258.412060
-272.039153
-282.995313
-287.431817
-275.137708
-230.816552
-200.933037
-207.917865
-208.257569
-207.475335
-202.224314
-183.739936
-186.531849
-200.827845
-207.987496
-218.656352
-217.880612
-184.116945
-137.976634
-113.876333
-135.824052
-169.586017
-162.613773
-131.438693
-87.197546
-41.304274
-16.123338
-6.467692
-11.021352
-2.885088
65.208210
131.055814
158.239041
196.447597
162.251301
60.468066
-19.420888
-120.587694
-235.767420
-274.668373
-248.981409
-269.741470
-315.201823
-329.878898
-343.685491
-339.070902
-294.185789
-241.715974
-229.301073
-221.511080
-175.541697
-108.474222
-5.898811
85.744528
147.899790
193.883721
224.039472
297.964040
336.085835
323.094653
359.929038
399.893626
391.772833
229.051421
-17.880517
77.774157
256.722377
72.191889
-113.199730
-200.567143
-377.335506
-415.442609
-157.157368
-76.461430
-272.079332
-348.771063
-360.622123
-211.580984
80.528637
282.966372
445.071240
497.063342
400.051006
409.541439
526.341483
579.495008
644.969845
606.779097
442.864311
229.643495
149.786491
336.644125
315.072809
149.211842
85.196525
-25.663780
-105.325178
-111.783196
-3.756294
101.010519
63.200591
-5.137523
-41.793043
-46.044852
19.547920
123.325797
205.831019
265.630707
297.566388
320.810234
280.611740
221.634622
210.544423
187.954037
128.948346
18.152463
23.445307
105.235388
28.196087
-67.141266
-20.718588
59.485870
84.862151
72.260102
7.129343
-58.572647
-101.334531
-136.114786
-142.198738
-163.592632
-196.775574
-194.158600
-129.625162
-55.586296
-14.274032
-19.445419
-84.756718
-118.531151
-70.431151
14.417178
95.830336
170.554989
192.529349
168.964315
198.249324
269.381127
346.065730
336.386849
256.730646
223.512376
156.720920
103.172692
131.830362
181.220369
231.455921
253.488729
262.157257
200.774429
55.373563
-24.945828
-22.289368
-40.441879
-119.964041
-218.616812
-203.413303
-21.230193
93.495084
-7.966817
-167.984825
-293.324074
-323.950900
-211.049194
-83.747513
6.153302
131.564652
222.854966
215.006150
135.448140
47.335192
108.408002
224.934770
274.856262
286.061943
186.546483
90.649330
31.776119
-35.621895
-5.343014
33.877080
-6.006836
-71.963398
-81.052605
-79.062710
-108.836198
7.720962
202.310068
332.258525
293.161187
81.431179
15.183157
78.393597
138.078727
242.354060
251.708375
71.799938
-162.557155
-313.371845
-379.574927
-341.308182
-152.314476
5.260818
28.303604
131.180606
330.981956
481.589755
561.688228
591.916974
573.745501
491.776844
379.442875
280.345901
190.638758
96.795330
71.549337
57.942246
-64.639047
-241.331298
-400.174375
-438.946744
-334.518408
-105.476801
171.607325
338.665447
384.571447
304.066842
179.112309
106.721036
28.652795
-61.308921
-66.729166
78.244786
229.054945
309.341489
357.117039
266.716575
93.895126
-12.141288
-38.069951
-42.901303
-106.858691
-197.182523
-277.064984
-188.709008
13.512080
23.536077
21.530221
120.243403
202.801618
262.461550
251.248480
231.000682
234.224215
205.883866
153.939186
124.058674
117.837304
112.659163
133.326111
181.833427
237.965711
288.749114
257.902784
158.831267
90.626414
73.885482
143.002526
237.292639
271.945752
257.646899
210.375444
130.616373
40.258771
43.633489
143.805268
230.448853
180.032907
44.420095
-29.149745
-50.247763
23.473926
112.641156
69.027753
-15.932911
-99.473943
-145.928428
-33.197909
91.610520
93.781992
98.892738
104.367420
81.617017
48.945558
-17.480404
-37.464798
2.104164
5.020651
-28.015003
-52.342976
-69.971275
-91.601298
-88.578306
-66.152729
-70.124508
-83.717312
-75.913292
-61.474798
-70.925343
-118.501766
-197.852222
-267.408388
-291.677653
-298.459082
-303.951023
-283.371617
-252.172637
-253.064089
-296.580339
-335.092420
-367.046919
-351.587798
-188.897673
-75.098988
-80.428834
-68.248763
-72.319774
-56.661671
-13.747678
36.248888
92.858885
184.096206
194.365164
-15.648298
-197.114563
-266.062613
-274.569680
-197.338266
-178.861940
-228.731854
-246.131557
-208.944408
-157.925136
-164.719034
-167.596151
-147.035707
-154.798280
-148.870303
-164.568007
-202.672772
-207.838444
-238.884016
-259.611345
-190.793295
-111.393598
-60.300293
-54.594678
-100.434812
-92.479347
-46.535940
7.661592
82.194797
138.953900
183.092699
129.682149
17.443515
-19.540871
-59.143198
-99.717316
-90.338583
-39.835210
8.598072
-40.300310
-118.068000
-174.213127
-240.229956
-271.210325
-252.368506
-266.452791
-274.463702
-158.977824
-68.661900
-3.681142
124.231514
198.177383
224.663912
184.276307
93.348774
20.896455
-8.770528
60.774613
95.481238
11.922802
-64.744771
-126.032524
-152.494231
-55.656573
42.771384
85.749539
153.902584
177.854038
145.764979
90.855567
28.916836
14.814887
12.384311
-6.164865
-20.370461
-26.477793
-25.256551
-18.113121
1.774264
10.818936
-10.622756
-45.744346
-79.900378
-106.748100
-97.551724
-51.473238
-37.001754
-59.945943
-78.924256
-110.728090
-99.884525
-9.407025
58.940845
114.766083
155.736752
168.621314
169.189499
78.974249
23.150455
10.883247
-60.646896
-162.417402
-263.997498
-141.239417
74.229315
114.255988
78.691234
-24.702302
-131.702975
-176.375453
-110.111181
52.485428
85.000132
-9.372443
-109.592135
-145.874368
-130.620723
-159.895716
-189.143174
-189.627050
-166.175908
-127.255587
-120.965495
-122.909006
-126.752460
-165.429493
-225.239946
-270.063349
-284.551832
-253.632363
-195.506880
-163.872270
-124.529047
-74.941356
-94.787293
-150.928784
-194.286316
-205.162207
-164.636001
-159.244965
-204.474125
-233.277639
-225.527911
-153.567188
-52.299968
14.795821
32.712347
35.846260
53.777592
64.704542
62.867536
21.692055
-42.717070
-83.022848
-111.931829
-106.450393
-62.552919
-16.495474
-25.084109
-102.317976
-105.901142
-18.680093
30.251164
62.178273
92.182320
67.373257
31.350272
18.844077
-0.067215
-25.925740
-59.507426
-52.249178
27.044793
77.064737
46.922379
-48.061690
-91.896156
-14.286780
3.512591
-54.672494
-62.902649
-27.686619
22.226821
27.635781
2.402517
20.420352
63.660094
95.145338
111.506633
98.247891
40.256852
-27.784867
-57.932161
-39.723916
2.188153
35.327079
22.513838
-22.481271
-30.359440
-19.160772
-17.395837
-8.377401
-41.576189
-93.660625
-91.400571
-79.959281
-109.882135
-127.757992
-75.957858
-0.391817
77.071830
135.933495
144.787757
120.983217
61.178738
59.635789
119.405603
149.662144
178.110441
138.607605
54.099977
43.158624
53.262110
43.410744
31.175227
62.989077
125.541785
147.495104
144.449917
115.606399
90.757331
107.708819
118.578620
107.228393
85.263269
80.542319
104.364149
123.941371
126.623028
112.542120
98.347434
100.651388
100.419228
87.995120
