EVENT_NAME: 202302060117
EVENT_ID: 13194
EVENT_DATE_YYYYMMDD: 2023/02/06
EVENT_TIME_HHMMSS: 01:17:32.00000
EVENT_LATITUDE_DEGREE: 37.288
EVENT_LONGITUDE_DEGREE: 37.043
EVENT_DEPTH_KM: 8.6
HYPOCENTER_REFERENCE: AFAD
MAGNITUDE_W: 7.7
MAGNITUDE_W_REFERENCE: AFAD
MAGNITUDE_L: 
MAGNITUDE_L_REFERENCE: 
FOCAL_MECHANISM: 
NETWORK: TK
STATION_CODE: 0123
STATION_NAME: 
STATION_LATITUDE_DEGREE: 37.00338
STATION_LONGITUDE_DEGREE: 35.34376
STATION_ELEVATION_M: 23.0
LOCATION: Kahramanmaras_Pazarck_Turkiye
SENSOR_DEPTH_M: 
VS30_M/S: 519
SITE_CLASSIFICATION_EC8: B
MORPHOLOGIC_CLASSIFICATION: 
EPICENTRAL_DISTANCE_KM: 153.90
EARTHQUAKE_BACKAZIMUTH_DEGREE: 
DATE_TIME_FIRST_SAMPLE_YYYYMMDD_HHMMSS: 2023/02/06 01:17:38.5568280
DATE_TIME_FIRST_SAMPLE_PRECISION: millisecond
SAMPLING_INTERVAL_S: 0.01
NDATA: 13501
DURATION_S: 
STREAM: HNN
UNITS: cm/s^2
INSTRUMENT: sensor = CMG-5T/GURALP | digitizer = 
INSTRUMENT_ANALOG/DIGITAL: 
INSTRUMENTAL_FREQUENCY_HZ: 
INSTRUMENTAL_DAMPING: 
FULL_SCALE_G: 
N_BIT_DIGITAL_CONVERTER: 
PGA_CM/S^2: 41.933
TIME_PGA_S: 
BASELINE_CORRECTION: BASELINE REMOVED
FILTER_TYPE: BUTTERWORTH
FILTER_ORDER: 
LOW_CUT_FREQUENCY_HZ: 
HIGH_CUT_FREQUENCY_HZ: 
LATE/NORMAL_TRIGGERED: 
DATABASE_VERSION: 
HEADER_FORMAT: DYNA 1.2
DATA_TYPE: Acceleration
PROCESSING: Automatic Paolucci et al., 2011
DATA_TIMESTAMP_YYYYMMDD_HHMMSS: 
DATA_LICENSE: U (unknown license)
DATA_CITATION: Turkish Accelerometric Archive v 1.0 - Disaster And Emergency Management Presidency, Earthquake Department
DATA_CREATOR: AFAD
ORIGINAL_DATA_MEDIATOR_CITATION: : AFAD - Disaster And Emergency Management Presidency
ORIGINAL_DATA_MEDIATOR: AFAD PROCESS SERVICE
ORIGINAL_DATA_CREATOR_CITATION: AFAD PROCESS SERVICE
ORIGINAL_DATA_CREATOR: network: TK
USER1: GuestUser
USER2: 
USER3: 
USER4: 
USER5: 
[...]
8.236259
9.612647
10.434081
10.576106
9.956387
9.077222
7.877339
6.624163
5.034633
3.118003
1.637612
-0.002339
-0.936393
-2.105321
-2.638558
-2.710665
-1.781367
0.321342
2.948049
6.144388
8.954590
11.885419
14.099821
15.828519
16.045218
15.672180
14.127645
12.012841
9.664120
6.948409
4.871580
2.429037
0.907160
-0.813529
-1.673547
-1.903618
-1.156858
0.249208
1.820260
3.996047
6.348628
9.354771
11.873614
14.345866
16.212744
17.779009
18.673203
18.723959
18.858005
17.580895
16.519193
14.309290
11.888128
9.611209
7.179198
6.072499
4.799218
4.656905
3.989318
3.292690
2.323533
0.732088
-0.916161
-2.764499
-3.462084
-3.817570
-2.877103
-2.091410
-1.145518
-0.853187
-0.390445
-0.750080
-1.879117
-3.040067
-4.832878
-5.231765
-5.922010
-4.997499
-3.966082
-1.539784
1.491889
4.895657
8.698965
12.024549
15.166637
17.241263
19.231641
20.356561
21.116086
21.429798
21.525869
20.948593
20.311641
18.837633
17.040035
15.154041
13.230071
11.712981
9.664873
7.933334
5.168797
2.702320
-0.347831
-3.237463
-6.430261
-9.383079
-11.824665
-13.568331
-13.713516
-12.794111
-10.417915
-7.394859
-3.550384
-0.493820
2.257983
3.410027
4.082752
4.339022
5.003129
6.226977
7.178294
8.659034
9.535677
10.689637
11.773071
12.947454
14.326076
15.177508
15.841935
15.277104
14.130515
12.351107
9.956433
7.933535
5.778840
4.430247
3.133032
2.244932
1.508095
0.700413
0.075907
-1.659462
-3.888831
-7.037910
-10.121568
-13.059388
-15.224614
-16.700218
-17.934884
-19.110195
-20.366243
-21.777703
-22.878019
-23.491037
-23.112224
-21.573085
-18.744693
-14.724062
-10.353355
-5.991902
-2.740994
-0.368627
0.565139
0.491437
-0.810884
-2.683156
-4.938693
-7.163595
-9.192237
-11.320445
-12.889551
-14.265589
-14.685219
-14.683608
-14.376278
-13.591542
-12.527575
-10.036495
-6.975464
-3.134180
0.448297
3.768774
6.542915
8.702427
10.335389
11.055662
11.283530
11.071011
11.234416
11.399417
11.504424
10.958103
9.825555
8.617375
7.535248
6.982864
6.977773
7.646030
8.918384
10.537304
12.231536
13.668876
14.823155
15.597360
16.326249
17.080349
18.118149
18.637694
18.024677
15.899660
11.519091
6.162009
-0.271790
-6.196590
-11.330605
-14.876352
-16.620337
-17.378236
-16.997828
-16.677095
-15.907996
-15.451956
-14.382244
-13.163822
-11.363641
-9.532824
-7.891246
-6.481032
-5.670447
-5.520764
-7.110932
-9.804943
-13.942980
-18.236429
-22.875168
-26.931828
-30.312270
-32.211667
-32.456099
-31.226189
-28.481726
-24.792025
-20.233674
-15.595224
-10.583082
-6.616383
-2.847539
0.190515
3.067413
5.492435
7.014661
8.194151
8.335537
8.562129
8.175688
7.439808
6.192696
4.139481
1.626094
-1.916143
-5.430616
-8.628520
-10.819594
-11.764499
-12.624836
-13.546444
-14.899505
-16.229908
-17.440960
-18.411394
-19.087598
-19.500526
-19.495086
-19.469222
-19.857578
-20.562183
-20.793531
-19.989010
-17.476230
-13.833758
-9.288811
-4.419635
0.664947
5.282017
9.008098
11.808407
13.259469
13.962190
13.625851
12.639780
10.229469
6.674467
2.265815
-2.797994
-7.194519
-11.291070
-14.653960
-17.716237
-20.409929
-22.574197
-24.411685
-25.493174
-26.195226
-25.989696
-25.384945
-23.951116
-22.097960
-19.526462
-16.115992
-11.836235
-6.783883
-1.177856
4.731976
10.178442
15.202073
19.299931
22.757950
25.059471
26.462346
26.552673
25.227375
22.401886
18.695941
14.046352
9.343788
4.888864
0.957618
-1.988499
-4.954721
-7.162709
-10.176799
-12.636255
-15.355157
-17.429753
-18.617828
-18.804818
-17.700641
-15.918650
-12.646041
-9.379176
-5.579696
-2.612168
0.348340
2.554445
5.044567
7.609364
9.773344
11.292698
11.342816
10.433653
7.840166
4.613222
-0.172951
-5.182510
-10.504488
-14.993878
-18.403360
-20.296056
-20.644202
-20.424631
-18.814008
-17.635157
-15.639993
-14.321047
-12.961573
-11.693687
-10.316661
-8.295647
-6.931706
-5.446817
-4.858022
-4.135834
-3.650753
-2.761026
-1.663232
-0.077820
2.266464
4.888384
7.994092
10.506872
12.925193
14.563579
16.262918
17.453577
18.600196
18.891889
18.133033
16.690937
14.755479
12.804702
10.087077
6.880556
2.573066
-1.773996
-6.445604
-10.494925
-14.644131
-17.883840
-20.189160
-21.497225
-21.392538
-20.615142
-18.660506
-16.892237
-14.672091
-13.217838
-11.848152
-10.651749
-9.242492
-7.536771
-6.098793
-4.889625
-4.518790
-3.979778
-3.960934
-3.976875
-4.814874
-5.782436
-7.076459
-8.301233
-9.419421
-10.531545
-11.257531
-11.661524
-11.040817
-10.073863
-8.337825
-6.916122
-5.115303
-3.575206
-2.052979
-0.929975
0.105591
1.274230
2.224271
3.155484
3.953623
4.622517
5.018882
5.248346
4.037294
3.105154
1.231287
0.039063
-1.305063
-2.170825
-2.433127
-3.022211
-2.350444
-1.975142
-0.391006
0.202576
0.411935
-0.855601
-2.445770
-4.298575
-6.271690
-7.872070
-9.676051
-10.725946
-12.089857
-12.355989
-12.639354
-11.688037
-10.850327
-9.216408
-7.307087
-5.183955
-3.463235
-2.385226
-1.088619
-0.539714
0.315867
0.494909
0.770646
-0.671131
-3.003258
-6.896847
-11.100304
-15.075269
-18.717072
-21.435336
-23.636622
-24.364524
-24.911483
-24.134406
-23.067567
-20.582231
-17.659699
-13.845540
-9.710983
-5.082106
0.137465
5.014618
9.935172
13.291072
15.502921
15.233597
13.663852
10.629020
7.752152
5.132497
3.063646
1.186268
-0.718874
-2.271705
-3.725609
-4.444894
-4.403393
-3.667483
-3.197720
-1.756551
-1.204455
-0.170166
-0.026227
0.007935
-0.772622
-2.323538
-3.661282
-5.902778
-7.068195
-8.439446
-8.487937
-8.713860
-7.850620
-7.438619
-6.727919
-5.980202
-5.111218
-3.892476
-3.050299
-1.495203
-0.480380
1.654241
3.007013
5.051961
6.623651
8.159918
9.043901
8.837125
8.915006
8.301031
8.230840
6.990748
4.812438
0.689400
-4.368984
-9.480342
-14.505856
-17.605471
-19.524654
-19.209346
-17.537452
-14.874365
-11.864074
-9.092806
-5.890403
-3.132538
-0.088739
2.582007
5.093510
7.275680
9.377432
11.334940
12.757919
13.832737
14.061882
14.063812
13.530255
12.620135
10.658828
8.213094
5.822568
4.230485
3.058366
2.772129
2.480786
2.753651
3.116189
3.366714
3.782865
3.546092
3.811616
3.249020
2.648129
0.828512
-1.399262
-4.150076
-6.777710
-9.083349
-11.304422
-12.821830
-14.309561
-14.835458
-15.425180
-15.018284
-14.729145
-13.603268
-12.265175
-10.400212
-8.529824
-6.886012
-5.050089
-3.389045
-0.859990
1.431001
4.285880
6.799298
10.447194
13.558966
16.967521
20.201836
22.658451
24.868065
24.738517
23.621606
19.617600
14.707608
8.855249
2.943853
-1.379275
-4.824817
-6.345417
-7.325106
-6.924593
-5.970084
-4.823783
-2.979244
-1.279905
1.114481
3.689809
6.437463
8.828019
11.295484
13.629875
15.817470
17.503406
17.968382
17.848407
16.595550
15.685111
14.109622
13.081427
12.475111
12.001231
11.856684
10.913694
9.982193
8.364580
7.482543
6.350314
5.174047
3.998737
2.888846
2.965451
3.319691
4.301325
4.251558
3.789804
3.053286
1.897123
1.472387
1.011591
1.923018
3.568425
6.327567
9.299564
11.708948
13.925584
15.149112
16.097557
15.712712
14.545060
12.227294
9.313409
5.837869
1.239020
-4.370168
-10.938956
-17.554016
-23.363931
-27.985757
-31.182065
-32.468110
-31.661994
-28.758927
-24.503742
-19.277151
-13.824621
-8.234230
-3.354204
0.450381
2.857532
4.209347
4.639857
4.290115
3.117039
1.115203
-1.147036
-3.091429
-4.018782
-3.707304
-1.945736
1.050194
4.826059
8.719040
11.805282
14.211795
15.219278
16.302712
16.310705
16.029893
15.617922
14.243480
13.460051
11.036018
8.687616
4.480968
-0.080224
-5.361993
-10.989691
-15.355261
-19.231299
-21.081552
-22.337281
-21.457447
-20.174562
-17.449246
-14.790628
-11.677899
-8.867697
-6.126106
-3.298353
-1.371480
0.735377
1.695311
3.068826
3.417003
4.183868
4.016345
4.139860
3.736505
2.430355
0.669776
-1.959772
-4.039793
-5.714848
-6.208514
-5.607911
-4.366193
-2.460383
-0.539573
0.444933
0.932247
-0.320929
-2.017365
-4.801049
-7.062969
-8.970663
-10.691353
-11.962718
-13.127179
-13.171521
-13.276178
-12.518248
-12.093163
-10.863252
-9.666849
-7.966553
-6.606760
-5.185376
-3.800691
-2.696196
-1.651695
-1.053326
-0.083500
0.499232
1.247588
0.355658
-1.327375
-4.600273
-8.272073
-12.158003
-16.407413
-19.143867
-21.752353
-22.738424
-23.281235
-22.627978
-21.522524
-19.819994
-17.392739
-14.621789
-10.986339
-7.537255
-4.217416
-1.688041
0.640925
1.908811
2.713013
2.761535
2.753572
2.852515
3.150271
3.389309
3.294864
3.147126
2.233496
1.153603
-0.960245
-2.735823
-5.213469
-7.051914
-8.367000
-9.017674
-8.425687
-8.053257
-7.140873
-6.735573
-5.579379
-4.362233
-2.872558
-1.664347
-0.893334
-0.663870
-1.127538
-2.122864
-4.149272
-6.682764
-10.052994
-13.090699
-16.124255
-18.423512
-20.497789
-21.901590
-22.159106
-21.322034
-18.881375
-15.831513
-12.122984
-8.514978
-5.201840
-2.559177
-0.455830
1.383284
3.009544
4.498900
5.535742
5.960190
6.092002
6.317956
6.482319
6.869429
6.954011
7.272829
7.643983
8.072898
8.673820
8.467683
8.559924
7.981372
7.581846
7.168599
6.809602
6.843125
6.958663
7.646386
7.775964
7.854165
7.140943
5.517266
2.520409
-2.035996
-7.412864
-14.104513
-20.041439
-25.727855
-30.052578
-32.837538
-34.781932
-35.326019
-35.556410
-34.630941
-33.684411
-31.677439
-29.079134
-25.864924
-22.090975
-18.268838
-14.624133
-12.041784
-10.140760
-9.851940
-10.121582
-11.193497
-12.191056
-13.464656
-14.362968
-14.887589
-15.240842
-15.256144
-15.502491
-15.271432
-14.967612
-13.552611
-12.070913
-9.871511
-7.715509
-5.551848
-3.841340
-2.933742
-2.628965
-3.175287
-3.506200
-3.921682
-3.486384
-2.912907
-1.599706
-0.215021
1.605903
3.282584
4.546960
5.333930
5.774971
6.186016
6.238048
5.615456
4.621407
3.247603
1.454154
0.400749
-1.048687
-1.292481
-2.140372
-2.589999
-4.217505
-6.672813
-9.309701
-12.988521
-15.453402
-18.209004
-18.918715
-19.191230
-17.181705
-14.773596
-11.564492
-8.255503
-5.175325
-2.184819
-0.307411
1.698604
2.316439
3.662191
4.236945
5.760128
7.067267
9.163593
11.061425
12.832567
14.736143
15.680121
16.539212
16.155643
16.242459
15.041619
14.762403
14.059712
13.508604
13.282681
12.621157
13.033797
12.777558
13.795571
13.886217
13.533922
11.888865
8.620435
4.359855
-1.312200
-6.937982
-12.926287
-17.496096
-21.295863
-23.467153
-24.090701
-23.057051
-20.601074
-17.092315
-12.316961
-7.734357
-2.691260
1.832944
6.525645
10.474793
14.540100
17.735801
20.167844
21.666136
22.002186
21.630425
21.758408
21.847777
22.194359
22.339894
21.538594
20.338392
17.490246
15.120782
11.677793
9.223761
6.727925
4.929689
3.815012
3.018181
3.110422
2.941941
3.830072
3.841257
4.791298
5.299036
6.285776
6.467052
6.471216
6.498357
6.147019
6.550404
6.499679
6.942636
7.091042
7.525383
7.650174
8.210249
8.645865
8.524933
8.014992
6.972756
6.184540
4.972850
3.771691
2.628293
1.078972
0.553713
-0.170040
-0.256188
-0.883246
-2.230244
-3.847857
-5.488447
-5.892440
-6.269945
-5.688809
-5.230854
-4.361232
-3.501822
-2.545080
-2.042767
-2.254010
-2.205169
-2.433006
-2.353849
-2.833155
-3.578927
-4.371291
-4.597852
-3.935340
-2.369075
0.342199
3.955311
8.168053
12.957129
17.835240
22.620167
26.925773
30.201254
32.120149
32.325041
31.578630
29.056307
25.500348
20.833207
15.274441
9.974801
4.609741
0.577014
-3.333489
-6.315028
-8.542802
-9.613121
-8.844023
-7.567520
-5.493851
-4.031939
-1.895723
0.130397
3.313333
6.531372
9.678566
12.647052
15.608518
18.826876
21.330083
23.271316
23.088474
21.873274
19.577846
17.039248
14.871150
12.399248
10.596863
8.670341
7.388763
7.156138
7.652707
9.976886
12.534982
15.818760
18.201977
19.876105
20.906884
20.730744
19.882853
17.101083
13.728939
8.999889
4.800261
0.425436
-2.837888
-5.023857
-6.876024
-6.843139
-6.853336
-4.679463
-1.876920
2.013190
5.951487
9.096447
11.385204
12.041653
12.099748
10.550108
8.058421
4.525758
1.156805
-2.251401
-5.316869
-7.879721
-9.906448
-10.263849
-9.672182
-8.296752
-7.957191
-7.226706
-6.550790
-4.709442
-2.717469
-0.525087
0.872682
1.294257
0.235107
-2.514112
-4.889001
-7.774165
-8.982026
-10.503902
-10.764290
-10.787890
-9.759984
-7.479524
-4.993231
-1.981344
-0.235733
1.971010
3.719493
6.386409
8.018413
9.004196
8.939429
8.686700
8.855212
8.572485
8.284334
6.558219
5.060915
1.887903
-1.134804
-5.836409
-9.485232
-13.323295
-16.660974
-18.608240
-21.894541
-23.208031
-25.581324
-26.431768
-27.270724
-26.698523
-24.908873
-22.593948
-18.809149
-15.281561
-10.817671
-7.557188
-4.611998
-3.960336
-4.005955
-5.668883
-7.372340
-8.751250
-9.483300
-9.369358
-9.404765
-8.805758
-9.363887
-9.488329
-10.195488
-9.843481
-9.707201
-8.583558
-7.314076
-5.373162
-2.717734
-0.288883
1.875097
2.399429
2.356363
0.722475
-1.032041
-3.452245
-5.662787
-7.836948
-9.368079
-10.189164
-10.380303
-9.498235
-8.007282
-5.010714
-1.390900
2.956192
6.942996
10.779493
13.464599
15.479230
16.516710
16.935414
17.219447
17.970675
19.555449
21.323080
22.997847
23.626213
24.065659
23.827290
25.056243
25.556642
26.534446
26.839542
26.657658
26.641398
25.356629
25.010397
23.618722
23.829996
23.571204
23.853323
24.007793
24.011638
24.304288
23.912741
24.903310
24.906836
26.365876
27.701416
29.673604
31.751740
33.087918
34.852996
35.389774
36.714783
37.387507
38.577847
40.242720
41.062240
41.932501
41.332567
41.206529
40.226841
39.308104
38.115881
36.445294
36.230540
36.134819
37.313989
37.552388
37.413267
35.787356
32.637002
29.168482
24.591653
20.363624
15.548092
10.849358
6.128286
1.644959
-1.995248
-5.038058
-6.966815
-8.140530
-7.631515
-6.258000
-3.302278
0.224990
3.832677
7.298674
9.435209
11.019664
11.238597
10.913747
9.364107
7.653629
5.973149
4.169807
2.638038
0.559613
-1.291916
-3.362682
-5.008058
-6.233790
-6.925950
-7.135916
-7.451193
-7.846251
-8.621382
-9.159725
-9.187155
-8.593254
-7.573644
-6.255018
-5.144459
-4.676292
-4.950402
-5.838822
-7.067744
-8.754288
-9.789503
-10.869077
-11.013943
-10.523437
-9.289059
-7.399524
-5.074387
-1.733486
1.703471
5.775480
9.674844
13.275511
15.907004
17.704632
18.435118
17.852417
16.477655
13.862148
11.661181
9.190875
7.443379
6.142335
4.932240
3.912342
1.772008
-0.152281
-2.471962
-3.637060
-3.405681
-1.003956
3.550566
8.721949
14.441584
19.166517
23.258630
25.906718
27.535850
27.403749
25.855067
23.279131
20.072291
17.955891
14.651720
12.056956
8.092521
4.278712
0.608508
-3.184239
-5.464349
-8.007415
-8.382049
-8.844441
-7.990775
-6.990951
-5.832204
-4.208817
-2.535965
0.294022
2.153879
4.767183
6.427908
8.436157
9.202703
10.240502
10.635590
11.005787
11.335774
11.132189
11.468878
11.383688
12.109705
12.494582
12.884245
12.814053
12.551750
12.495281
13.052164
13.670318
14.870231
16.051635
17.715233
19.158955
20.618952
21.843438
22.132897
22.032389
20.585506
18.596435
15.355450
12.385079
8.888477
6.081178
3.935419
2.063466
1.817438
2.128597
4.066320
5.742682
7.452233
8.456844
9.019471
9.359031
9.243844
8.951224
8.516915
8.552034
9.214546
10.646780
12.300165
13.955146
15.157931
15.936604
16.511357
16.244906
16.226093
14.711556
13.080859
11.214651
9.049105
7.906027
6.406170
6.681906
6.792018
8.057352
9.437569
10.571424
11.773890
11.933466
12.409611
11.970515
12.261250
12.281051
12.864102
13.843821
15.273821
17.595447
20.016958
23.114370
25.332601
27.402440
28.616075
29.665682
30.509136
30.667436
30.490339
29.512884
28.308215
26.600928
24.243591
21.379488
17.992026
14.819971
11.656532
9.017729
6.766022
5.183831
4.340727
4.114166
4.601480
5.243249
6.383806
7.408202
8.472807
8.979588
8.840466
8.226491
7.787076
7.529241
7.619568
7.982105
8.623555
8.875039
9.168965
9.006228
8.465332
8.008046
6.853798
6.600431
6.086341
6.951176
8.078649
9.560985
11.483709
12.950408
14.704635
15.673185
16.680349
17.064587
17.599131
18.159843
19.105097
19.820265
20.414166
20.266747
19.484914
18.143979
16.121082
13.917561
11.095582
8.620489
5.914352
3.957513
2.201401
0.794727
-0.654389
-1.981602
-2.914060
-3.144132
-2.360034
-1.251709
0.801536
3.073379
5.917727
8.367640
10.141973
10.876925
10.083604
8.720331
6.394268
4.171919
1.813305
-0.247249
-2.197706
-4.285704
-6.119363
-8.714765
-11.281446
-14.402441
-17.240057
-19.493680
-20.999600
-21.475714
-21.328584
-20.390989
-19.070767
-17.038265
-14.591862
-11.653692
-8.431824
-5.367282
-3.079483
-1.937969
-1.996991
-2.981466
-4.317614
-5.238903
-5.774693
-5.912538
-6.025492
-6.528732
-7.135367
-8.045168
-8.456182
-8.954315
-8.802079
-8.448477
-7.938824
-7.195255
-6.520935
-5.696628
-5.308242
-4.743700
-4.707624
-4.553792
-4.594624
-4.707578
-4.700223
-4.846684
-4.674662
-4.793360
-4.879827
-5.282863
-6.106820
-6.987261
-7.817601
-8.028844
-7.606631
-6.675737
-6.023756
-5.673345
-5.393460
-5.402699
-5.266738
-4.888883
-3.792046
-2.325985
-0.474744
1.110349
2.131554
2.222519
1.234533
-0.605827
-2.873491
-4.521739
-6.083825
-6.857680
-7.815349
-8.990659
-10.653588
-12.685740
-14.431959
-16.156158
-17.282324
-18.209038
-18.701747
-19.138609
-19.392934
-19.483868
-19.361310
-19.211308
-19.074708
-18.881624
-18.870121
-18.811387
-18.895301
-18.591801
-18.038428
-17.066687
-15.874752
-14.560274
-13.560450
-13.105048
-12.795804
-12.262217
-11.363235
-10.642005
-10.037892
-10.080320
-10.333687
-11.063503
-11.608867
-12.441121
-13.452084
-14.214770
-15.069682
-15.348579
-15.744913
-15.973388
-16.423335
-16.655959
-17.152817
-18.049853
-19.191336
-20.911706
-22.994918
-25.669462
-28.202954
-30.467427
-31.602847
-31.906317
-31.391239
-30.419817
-29.179694
-27.943720
-26.798696
-25.403480
-23.874233
-21.767695
-19.547231
-17.266133
-15.836452
-15.130858
-15.663776
-17.093108
-18.978145
-20.936899
-22.892781
-25.103641
-27.035908
-28.693411
-29.275474
-28.888045
-27.400603
-25.310340
-22.627149
-20.137665
-18.401627
-17.412334
-17.307647
-17.802270
-18.996409
-20.500733
-22.339817
-23.678517
-24.378336
-24.167062
-23.242232
-21.491834
-19.052771
-16.370537
-13.677453
-11.693457
-10.439932
-10.146324
-10.180136
-10.378933
-10.156171
-9.665027
-8.760302
-7.498160
-6.058905
-4.414775
-2.845637
-1.275224
-0.453151
-0.212199
-1.033603
-2.363368
-3.907902
-5.225221
-6.341494
-7.420110
-8.153756
-8.581364
-8.285523
-7.801080
-7.078573
-6.633064
-6.287121
-5.903202
-5.361637
-4.663064
-4.309143
-3.980432
-3.975311
-3.995719
-3.919434
-4.033983
-3.873769
-3.829715
-2.982112
-1.810281
-0.433256
1.178963
2.288246
3.574641
4.259172
5.046142
5.205080
5.056385
4.905136
4.370622
4.081194
3.419989
3.035144
2.914850
3.117827
3.488024
3.661960
3.913763
3.552532
2.621988
1.023523
-0.798328
-2.040973
-2.670904
-2.462502
-2.140812
-1.334057
-0.460286
0.272113
0.557743
0.059928
-0.822428
-1.782012
-2.346842
-2.771897
-2.680932
-2.354774
-1.418775
-0.194928
1.148271
2.160541
2.573181
2.918167
3.154332
3.701641
4.377237
5.115700
5.876502
6.265527
6.229800
5.207988
3.780571
2.499951
1.603872
1.395820
1.491891
2.378427
