EVENT_NAME: 202302060117
EVENT_ID: 13194
EVENT_DATE_YYYYMMDD: 2023/02/06
EVENT_TIME_HHMMSS: 01:17:32.00000
EVENT_LATITUDE_DEGREE: 37.288
EVENT_LONGITUDE_DEGREE: 37.043
EVENT_DEPTH_KM: 8.6
HYPOCENTER_REFERENCE: AFAD
MAGNITUDE_W: 7.7
MAGNITUDE_W_REFERENCE: AFAD
MAGNITUDE_L: 
MAGNITUDE_L_REFERENCE: 
FOCAL_MECHANISM: 
NETWORK: TK
STATION_CODE: 5507
STATION_NAME: 
STATION_LATITUDE_DEGREE: 41.2056
STATION_LONGITUDE_DEGREE: 36.96417
STATION_ELEVATION_M: 4.0
LOCATION: Kahramanmaras_Pazarck_Turkiye
SENSOR_DEPTH_M: 
VS30_M/S: None
SITE_CLASSIFICATION_EC8: unknown
MORPHOLOGIC_CLASSIFICATION: 
EPICENTRAL_DISTANCE_KM: 435.67
EARTHQUAKE_BACKAZIMUTH_DEGREE: 
DATE_TIME_FIRST_SAMPLE_YYYYMMDD_HHMMSS: 2023/02/06 01:18:07.3695130
DATE_TIME_FIRST_SAMPLE_PRECISION: millisecond
SAMPLING_INTERVAL_S: 0.01
NDATA: 21001
DURATION_S: 
STREAM: HNZ
UNITS: cm/s^2
INSTRUMENT: sensor = ACEBOX/SARA | digitizer = 
INSTRUMENT_ANALOG/DIGITAL: 
INSTRUMENTAL_FREQUENCY_HZ: 
INSTRUMENTAL_DAMPING: 
FULL_SCALE_G: 
N_BIT_DIGITAL_CONVERTER: 
PGA_CM/S^2: 6.221
TIME_PGA_S: 
BASELINE_CORRECTION: BASELINE REMOVED
FILTER_TYPE: BUTTERWORTH
FILTER_ORDER: 
LOW_CUT_FREQUENCY_HZ: 
HIGH_CUT_FREQUENCY_HZ: 
LATE/NORMAL_TRIGGERED: 
DATABASE_VERSION: 
HEADER_FORMAT: DYNA 1.2
DATA_TYPE: Acceleration
PROCESSING: Automatic Paolucci et al., 2011
DATA_TIMESTAMP_YYYYMMDD_HHMMSS: 
DATA_LICENSE: U (unknown license)
DATA_CITATION: Turkish Accelerometric Archive v 1.0 - Disaster And Emergency Management Presidency, Earthquake Department
DATA_CREATOR: AFAD
ORIGINAL_DATA_MEDIATOR_CITATION: : AFAD - Disaster And Emergency Management Presidency
ORIGINAL_DATA_MEDIATOR: AFAD PROCESS SERVICE
ORIGINAL_DATA_CREATOR_CITATION: AFAD PROCESS SERVICE
ORIGINAL_DATA_CREATOR: network: TK
USER1: GuestUser
USER2: 
USER3: 
USER4: 
USER5: 
[...]
-1.958821
-2.032701
-2.100970
-2.164329
-2.226052
-2.281228
-2.326351
-2.362356
-2.395789
-2.426183
-2.452369
-2.477619
-2.500298
-2.517131
-2.526016
-2.526016
-2.523678
-2.517366
-2.506378
-2.499130
-2.492117
-2.476452
-2.452371
-2.426654
-2.394858
-2.345994
-2.292455
-2.240318
-2.179531
-2.119212
-2.065205
-2.010263
-1.954853
-1.897339
-1.833980
-1.766881
-1.696040
-1.621927
-1.551087
-1.487260
-1.427642
-1.378779
-1.343476
-1.309575
-1.282221
-1.261413
-1.232423
-1.199224
-1.164388
-1.120902
-1.076715
-1.038606
-0.995120
-0.942983
-0.891548
-0.830995
-0.762025
-0.693756
-0.616136
-0.536177
-0.455751
-0.369948
-0.290925
-0.208161
-0.124695
-0.049179
0.028442
0.100685
0.171291
0.246574
0.316479
0.385449
0.450210
0.510530
0.572018
0.626025
0.671148
0.704581
0.728895
0.745495
0.751106
0.758587
0.773082
0.788045
0.805813
0.830362
0.861223
0.896994
0.943052
0.998695
1.051065
1.102501
1.156741
1.204903
1.247220
1.292577
1.334660
1.369730
1.404565
1.437764
1.470262
1.507669
1.549519
1.598382
1.650285
1.702655
1.766949
1.841063
1.914475
1.984146
2.049375
2.111799
2.163702
2.202979
2.241088
2.270780
2.286678
2.303511
2.317773
2.324319
2.326657
2.322214
2.314265
2.298834
2.271713
2.240618
2.204146
2.161360
2.118108
2.075556
2.034875
1.991155
1.949539
1.917509
1.884777
1.846901
1.816274
1.792426
1.765773
1.734912
1.701712
1.669915
1.635313
1.597905
1.568681
1.536650
1.489657
1.440559
1.389123
1.329739
1.266613
1.198110
1.126568
1.060871
0.994940
0.929944
0.867520
0.796445
0.719292
0.645412
0.567791
0.480584
0.391741
0.310379
0.232057
0.152800
0.074477
0.000130
-0.068139
-0.132668
-0.186909
-0.226187
-0.252606
-0.263127
-0.265232
-0.258686
-0.242554
-0.225955
-0.203744
-0.185976
-0.178962
-0.158388
-0.134541
-0.124722
-0.110928
-0.097602
-0.093160
-0.086146
-0.080769
-0.082406
-0.083809
-0.084978
-0.085446
-0.083342
-0.075861
-0.060196
-0.039389
-0.005254
0.031685
0.064651
0.108370
0.143907
0.171495
0.207266
0.238828
0.280210
0.330009
0.376534
0.437555
0.496472
0.552115
0.614305
0.662467
0.710395
0.758324
0.789185
0.809759
0.809291
0.795497
0.776091
0.741723
0.707121
0.666907
0.618277
0.572453
0.514471
0.448306
0.380504
0.305455
0.228770
0.152785
0.082880
0.020689
-0.043605
-0.110004
-0.173831
-0.244204
-0.328605
-0.416045
-0.505356
-0.602148
-0.698239
-0.795967
-0.899773
-1.006151
-1.114166
-1.223349
-1.335338
-1.444522
-1.543886
-1.648160
-1.755707
-1.852265
-1.943680
-2.032523
-2.114586
-2.188233
-2.253696
-2.319627
-2.383922
-2.445878
-2.515316
-2.570025
-2.605328
-2.646243
-2.681313
-2.708901
-2.735087
-2.749349
-2.763377
-2.775067
-2.783484
-2.799850
-2.806396
-2.807332
-2.807332
-2.793538
-2.782550
-2.769925
-2.744675
-2.721062
-2.689266
-2.648351
-2.604398
-2.545949
-2.484694
-2.423673
-2.347689
-2.266562
-2.195955
-2.129323
-2.063159
-2.002372
-1.946494
-1.892955
-1.848534
-1.813231
-1.778863
-1.748937
-1.728129
-1.713634
-1.701009
-1.685813
-1.672720
-1.661498
-1.645834
-1.629468
-1.607725
-1.573357
-1.533846
-1.483813
-1.425598
-1.362941
-1.291399
-1.222663
-1.155563
-1.079112
-0.996114
-0.900959
-0.794581
-0.684463
-0.568032
-0.444587
-0.317636
-0.196061
-0.088047
0.012018
0.111615
0.209810
0.306368
0.413914
0.526371
0.626670
0.727670
0.834281
0.926397
1.002381
1.077196
1.150374
1.218409
1.285041
1.349569
1.415032
1.479793
1.537307
1.593886
1.648361
1.693717
1.741411
1.789340
1.834462
1.885196
1.941775
2.003497
2.067557
2.130448
2.194509
2.257166
2.315615
2.373597
2.426435
2.467349
2.505925
2.547775
2.579805
2.603652
2.630071
2.649008
2.661633
2.673089
2.682908
2.698572
2.713535
2.730368
2.752813
2.764970
2.775023
2.786479
2.782504
2.775724
2.764969
2.742992
2.721014
2.688984
2.646666
2.607622
2.561096
2.504985
2.449574
2.391359
2.331506
2.281006
2.234714
2.183980
2.139090
2.096773
2.044636
1.989927
1.934517
1.872326
1.810136
1.749349
1.686223
1.634086
1.596211
1.562778
1.535423
1.509705
1.484689
1.465517
1.439332
1.404963
1.367322
1.320094
1.272633
1.231485
1.196649
1.171164
1.144511
1.116455
1.094245
1.064318
1.023871
0.984593
0.940405
0.888034
0.843846
0.806439
0.768797
0.735831
0.703333
0.672939
0.648390
0.624777
0.610047
0.608644
0.614255
0.623139
0.627815
0.628282
0.621736
0.603032
0.580587
0.552064
0.514422
0.481690
0.454336
0.431657
0.410148
0.384663
0.363388
0.338605
0.308211
0.287637
0.267062
0.252800
0.260983
0.271036
0.281557
0.301429
0.318029
0.335797
0.360579
0.379283
0.388868
0.399857
0.413650
0.418326
0.421365
0.423002
0.409207
0.398686
0.394244
0.376008
0.354966
0.339067
0.321766
0.297918
0.271499
0.253029
0.231753
0.197618
0.166289
0.137065
0.098020
0.059677
0.025776
-0.021217
-0.070315
-0.111697
-0.161262
-0.212932
-0.265303
-0.328896
-0.395996
-0.460056
-0.518038
-0.579527
-0.648264
-0.710220
-0.771475
-0.833432
-0.880425
-0.914560
-0.944720
-0.974413
-0.995221
-1.002001
-1.012522
-1.026083
-1.028888
-1.030291
-1.035903
-1.045255
-1.061855
-1.079857
-1.103939
-1.143217
-1.182027
-1.221072
-1.264558
-1.298459
-1.331425
-1.366728
-1.390576
-1.416294
-1.447155
-1.473107
-1.499760
-1.529453
-1.558677
-1.588136
-1.619699
-1.653132
-1.689839
-1.727013
-1.756705
-1.782423
-1.812583
-1.837132
-1.850926
-1.863785
-1.876644
-1.887166
-1.894647
-1.890673
-1.878750
-1.869632
-1.855370
-1.834796
-1.821704
-1.810949
-1.797389
-1.788973
-1.782193
-1.770270
-1.755307
-1.738941
-1.725849
-1.707379
-1.683766
-1.660386
-1.633734
-1.619238
-1.614563
-1.598197
-1.587676
-1.579494
-1.557049
-1.532735
-1.499769
-1.459557
-1.424020
-1.392223
-1.373987
-1.361363
-1.350374
-1.358090
-1.377261
-1.402746
-1.433841
-1.465871
-1.507487
-1.553546
-1.598903
-1.652442
-1.709022
-1.760925
-1.815634
-1.874317
-1.922479
-1.963628
-2.012258
-2.055511
-2.084736
-2.103673
-2.111623
-2.117702
-2.120975
-2.111857
-2.098999
-2.076554
-2.043121
-2.017872
-1.985374
-1.938381
-1.898636
-1.859592
-1.819145
-1.785245
-1.768411
-1.766307
-1.757190
-1.761866
-1.767711
-1.743630
-1.738487
-1.736850
-1.703184
-1.688922
-1.675362
-1.630941
-1.591196
-1.542566
-1.479909
-1.424967
-1.350385
-1.269726
-1.201925
-1.123837
-1.055802
-1.003431
-0.943580
-0.889105
-0.837436
-0.777818
-0.719135
-0.659751
-0.599431
-0.539112
-0.479728
-0.422915
-0.368207
-0.309991
-0.241489
-0.167609
-0.090690
-0.011433
0.063148
0.134222
0.200620
0.259771
0.309803
0.351185
0.389060
0.426000
0.472993
0.527467
0.579136
0.635481
0.690189
0.740222
0.797502
0.850808
0.897801
0.943157
0.981967
1.018673
1.051171
1.074083
1.091150
1.101670
1.101436
1.097695
1.100501
1.103306
1.107748
1.121542
1.134166
1.148896
1.172976
1.198226
1.222073
1.241712
1.255038
1.268365
1.280522
1.285198
1.285197
1.286600
1.285197
1.274910
1.264155
1.250828
1.230254
1.206640
1.182559
1.160348
1.138838
1.116159
1.095351
1.078518
1.072205
1.077348
1.090207
1.115457
1.149357
1.186063
1.231653
1.279114
1.328211
1.383153
1.433887
1.483218
1.530211
1.567151
1.602454
1.635653
1.657630
1.670956
1.681944
1.690127
1.694803
1.697374
1.692932
1.673760
1.642431
1.605257
1.567616
1.525766
1.486020
1.455392
1.424531
1.397410
1.377303
1.351819
1.328673
1.321893
1.318853
1.316982
1.325399
1.333815
1.349246
1.381276
1.410500
1.439725
1.470586
1.492562
1.523891
1.555453
1.571351
1.593094
1.614136
1.624890
1.637048
1.639151
1.630267
1.619512
1.601977
1.584676
1.573921
1.556853
1.536045
1.517108
1.485077
1.446500
1.413535
1.374256
1.328900
1.286348
1.242394
1.202882
1.170384
1.138354
1.110064
1.085983
1.060265
1.032676
1.003218
0.969785
0.930506
0.891228
0.860834
0.832545
0.801917
0.771523
0.742532
0.713775
0.676835
0.638959
0.605994
0.562507
0.508967
0.456596
0.403992
0.346945
0.281248
0.217421
0.157335
0.094443
0.037864
-0.016377
-0.074125
-0.126029
-0.168112
-0.199441
-0.225393
-0.251345
-0.270283
-0.284778
-0.307924
-0.338552
-0.371985
-0.412900
-0.458023
-0.503380
-0.553647
-0.597835
-0.628228
-0.654180
-0.674287
-0.685276
-0.686912
-0.681068
-0.670313
-0.651843
-0.630334
-0.605552
-0.573054
-0.538453
-0.505488
-0.483978
-0.471587
-0.454287
-0.440259
-0.428569
-0.414776
-0.411503
-0.410568
-0.404723
-0.403320
-0.398177
-0.385318
-0.368018
-0.340897
-0.313543
-0.285722
-0.251120
-0.223298
-0.195710
-0.157134
-0.119961
-0.083956
-0.048419
-0.018493
0.015407
0.050009
0.076662
0.104250
0.135344
0.159893
0.177194
0.188182
0.181635
0.162230
0.132304
0.085544
0.031303
-0.024575
-0.086531
-0.153164
-0.222836
-0.295313
-0.368726
-0.444476
-0.526072
-0.603693
-0.672429
-0.739529
-0.800551
-0.853857
-0.903656
-0.945739
-0.978237
-1.001851
-1.021023
-1.041831
-1.060301
-1.072459
-1.083214
-1.094436
-1.096774
-1.097008
-1.106828
-1.110335
-1.113609
-1.127169
-1.139093
-1.157563
-1.172994
-1.175566
-1.182814
-1.181645
-1.173463
-1.173229
-1.166215
-1.156396
-1.147746
-1.133251
-1.115248
-1.092570
-1.071529
-1.053293
-1.033888
-1.025939
-1.025705
-1.026173
-1.034590
-1.045111
-1.054697
-1.071998
-1.091404
-1.108471
-1.126474
-1.141437
-1.155465
-1.175572
-1.192405
-1.201056
-1.209707
-1.212279
-1.207603
-1.203161
-1.192641
-1.173469
-1.154298
-1.132555
-1.106370
-1.080653
-1.053533
-1.023139
-0.988771
-0.951130
-0.915359
-0.883329
-0.853170
-0.825582
-0.804073
-0.783733
-0.761756
-0.739311
-0.713360
-0.684136
-0.646728
-0.600671
-0.554145
-0.506685
-0.457587
-0.411763
-0.368745
-0.326895
-0.288553
-0.253016
-0.214439
-0.175629
-0.137988
-0.094970
-0.055224
-0.017583
0.032215
0.084118
0.134384
0.196340
0.262505
0.325630
0.389924
0.444165
0.486248
0.526227
0.556620
0.579298
0.603146
0.624888
0.646164
0.672583
0.702742
0.737812
0.780830
0.825953
0.871075
0.922511
0.972543
1.028654
1.099494
1.165191
1.231356
1.299390
1.353397
1.403430
1.451358
1.491337
1.525237
1.547916
1.560073
1.567554
1.572464
1.572230
1.569658
1.562877
1.547446
1.536692
1.529210
1.510740
1.482450
1.450419
1.424468
1.402257
1.376773
1.357367
1.341235
1.328844
1.325103
1.327440
1.336792
1.345208
1.348248
1.348014
1.343571
1.334921
1.319490
1.302188
1.285121
1.267820
1.259403
1.249583
1.238594
1.238828
1.234386
1.226436
1.226202
1.223630
1.222929
1.226435
1.229475
1.238592
1.242801
1.232981
1.218719
1.199314
1.166582
1.123797
1.077505
1.030511
0.983985
0.933719
0.881815
0.827808
0.770995
0.716520
0.667656
0.622767
0.586061
0.562914
0.545613
0.524104
0.504231
0.483656
0.460744
0.443910
0.426843
0.406268
0.388733
0.375407
0.359742
0.342675
0.325140
0.294512
0.258039
0.224139
0.183224
0.139737
0.091809
0.041074
-0.003113
-0.051744
-0.099672
-0.144094
-0.195529
-0.243224
-0.292556
-0.347732
-0.398466
-0.449201
-0.497129
-0.536875
-0.570542
-0.602806
-0.642318
-0.687909
-0.737007
-0.796391
-0.856945
-0.910017
-0.967064
-1.026683
-1.085132
-1.147322
-1.208344
-1.262819
-1.312852
-1.355870
-1.391875
-1.425776
-1.461547
-1.493812
-1.524206
-1.554366
-1.587331
-1.629181
-1.670797
-1.710076
-1.755432
-1.800789
-1.846380
-1.890100
-1.931015
-1.974268
-2.018689
-2.069657
-2.129042
-2.184452
-2.231212
-2.269321
-2.293403
-2.298079
-2.288026
-2.270024
-2.251788
-2.232616
-2.205496
-2.179077
-2.150554
-2.111978
-2.077844
-2.040436
-1.993210
-1.951594
-1.908575
-1.858075
-1.811082
-1.760816
-1.702835
-1.644152
-1.584300
-1.520707
-1.455478
-1.394691
-1.343022
-1.293223
-1.246464
-1.202277
-1.150608
-1.102680
-1.061765
-1.014071
-0.966844
-0.922423
-0.875664
-0.831008
-0.780742
-0.721358
-0.655895
-0.581781
-0.511643
-0.447115
-0.377911
-0.313617
-0.246517
-0.169131
-0.098992
-0.028151
0.044326
0.104177
0.162159
0.214529
0.265029
0.325115
0.378654
0.436636
0.508178
0.577615
0.653365
0.729349
0.799021
0.872666
0.938129
0.994942
1.048949
1.095708
1.142467
1.183849
1.218919
1.253754
1.276432
1.296772
1.325062
1.345869
1.361767
1.381172
1.398707
1.419748
1.442427
1.455987
1.465338
1.475391
1.480535
1.491523
1.518643
1.550439
1.587847
1.638814
1.687444
1.726722
1.768337
1.809953
1.849932
1.891314
1.940879
1.999795
2.059647
2.125110
2.199925
2.269363
2.335761
2.399821
2.458738
2.518590
2.571194
2.617486
2.658868
2.682013
2.692066
2.690196
2.678739
2.674063
2.666348
2.649748
2.632680
2.608599
2.574932
2.538226
2.499649
2.455461
2.407532
2.363111
2.313779
2.258603
2.201556
2.133521
2.059641
1.989735
1.914218
1.832857
1.753132
1.675277
1.595552
1.517463
1.448493
1.385134
1.315462
1.242049
1.167468
1.087275
1.005212
0.925253
0.845294
0.758321
0.666673
0.575491
0.477063
0.377465
0.279036
0.174528
0.074697
-0.025603
-0.126136
-0.223629
-0.328605
-0.430540
-0.536451
-0.645868
-0.737049
-0.827295
-0.922919
-1.014567
-1.110658
-1.212360
-1.318504
-1.425116
-1.530559
-1.642314
-1.756875
-1.874475
-1.995115
-2.114352
-2.235927
-2.356333
-2.473231
-2.592234
-2.718485
-2.850113
-2.981741
-3.121318
-3.270715
-3.417306
-3.566703
-3.716801
-3.865730
-4.019569
-4.161718
-4.299658
-4.446483
-4.584658
-4.724469
-4.869423
-5.004325
-5.135485
-5.260099
-5.373959
-5.481272
-5.581337
-5.678831
-5.772350
-5.854647
-5.924085
-5.987444
-6.047530
-6.096394
-6.140816
-6.181731
-6.205344
-6.217035
-6.221477
-6.209553
-6.188278
-6.165600
-6.129829
-6.080732
-6.031401
-5.975056
-5.911931
-5.848806
-5.771653
-5.682577
-5.593734
-5.487590
-5.358067
-5.218958
-5.071432
-4.917126
-4.758611
-4.596356
-4.434803
-4.273717
-4.116839
-3.961364
-3.798174
-3.634282
-3.468286
-3.297147
-3.133489
-2.967025
-2.794016
-2.626383
-2.459920
-2.290651
-2.118109
-1.940189
-1.759698
-1.574764
-1.390299
-1.206300
-1.021835
-0.841343
-0.667165
-0.504208
-0.344525
-0.180399
-0.022586
0.131018
0.279245
0.421160
0.561672
0.699612
0.835682
0.970115
1.106419
1.245996
1.381832
1.523279
1.669402
1.815291
1.964921
2.111979
2.262311
2.420124
2.574663
2.729203
2.873923
3.008590
3.144894
3.269975
3.387108
3.501902
3.603370
3.703201
3.805136
3.895849
3.979315
4.060442
4.133153
4.194875
4.251688
4.301019
4.335854
4.361104
4.375365
4.376300
4.369520
4.353855
4.327670
4.292600
4.252153
4.209835
4.157465
4.091767
4.022563
3.952891
3.875270
3.792038
3.718626
3.650357
3.575541
3.504701
3.435964
3.361149
3.286567
3.210817
3.131325
3.050197
2.971875
2.900801
2.828557
2.754443
2.686875
2.617671
2.542388
2.465001
2.383639
2.299005
2.216240
2.130670
2.041593
1.958829
1.878870
1.789559
1.696741
1.606028
1.512742
1.422029
1.337160
1.253227
1.174437
1.103128
1.036028
0.974306
0.915622
0.857640
0.803867
0.751730
0.698891
0.651430
0.605372
0.560950
0.522374
0.482628
0.448493
0.419502
0.387004
0.362923
0.330892
0.293718
0.267533
0.226150
0.179391
0.141282
0.095223
0.056179
0.019239
-0.020741
-0.039445
-0.049966
-0.066098
-0.079425
-0.092985
-0.111455
-0.133199
-0.147227
-0.154007
-0.162190
-0.168035
-0.173413
-0.181362
-0.191650
-0.203574
-0.213393
-0.219472
-0.221109
-0.218771
-0.215966
-0.208017
-0.196094
-0.183936
-0.164999
-0.143022
-0.122215
-0.100238
-0.079430
-0.060727
-0.041789
-0.021683
0.004268
0.034194
0.062016
0.092176
0.125375
0.152729
0.181018
0.216555
0.250455
0.278277
0.302825
0.325270
0.345376
0.361742
0.375769
0.383017
0.385588
0.386289
0.373430
0.350752
0.327839
0.296277
0.265415
0.241100
0.208134
0.171428
0.134488
0.088429
0.041904
0.001690
-0.037588
-0.075463
-0.110533
-0.147240
-0.184414
-0.213171
-0.240759
-0.269984
-0.292195
-0.315809
-0.337786
-0.349476
-0.366310
-0.386183
-0.399743
-0.414239
-0.424526
-0.432709
-0.447672
-0.461233
-0.471988
-0.488120
-0.508928
-0.528100
-0.549142
-0.575561
-0.599409
-0.620918
-0.643363
-0.657859
-0.665574
-0.674692
-0.686850
-0.696904
-0.706022
-0.718413
-0.723791
-0.722388
-0.725428
-0.724727
-0.716310
-0.706725
-0.691061
-0.670019
-0.646873
-0.611336
-0.566681
-0.525299
-0.478073
-0.423364
-0.370526
-0.310207
-0.243341
-0.178346
-0.110545
-0.042978
0.019212
0.078830
0.137747
0.194793
0.250203
0.305847
0.357282
0.405210
0.456645
0.503872
0.538240
0.567932
0.600897
0.627550
0.644617
0.665658
0.682492
0.688336
0.695818
0.704936
0.713118
0.723639
0.731822
0.738134
0.743979
0.749589
0.756369
0.761980
0.772033
0.793309
0.819026
0.848484
0.887528
0.931014
0.974267
1.017753
1.053290
1.082046
1.111505
1.131611
1.144002
1.158731
1.166446
1.173927
1.187955
1.195203
1.194969
1.191929
1.187253
1.180940
1.173692
1.171354
1.169016
1.169016
1.178601
1.187485
1.194966
1.205721
1.209695
1.210864
1.216942
1.218579
1.218579
1.220215
1.217877
1.214136
1.212265
1.204316
1.192158
1.183274
1.176961
1.166674
1.159192
1.160127
1.162465
1.169946
1.180700
1.183739
1.186779
1.190051
1.186544
1.181634
1.169944
1.153578
1.137680
1.117573
1.097934
1.075489
1.047199
1.013299
0.971215
0.931001
0.885411
0.828130
0.773188
0.717310
0.657691
0.598307
0.536116
0.475095
0.418983
0.362170
0.299513
0.242933
0.185653
0.119488
0.063844
0.007265
-0.053523
-0.096074
-0.140028
-0.186788
-0.221624
-0.261136
-0.302986
-0.340160
-0.378035
-0.416846
-0.461033
-0.504988
-0.537252
-0.567646
-0.596169
-0.611600
-0.619082
-0.620952
-0.614172
-0.602483
-0.589624
-0.578168
-0.561101
-0.538891
-0.522291
-0.502185
-0.474831
-0.446308
-0.411940
-0.370558
-0.326371
-0.283118
-0.240568
-0.195445
-0.150088
-0.100524
-0.045114
0.009594
0.064303
0.124856
0.193358
0.265134
0.336442
0.407048
0.470407
0.530493
0.591981
0.646924
0.705373
0.773875
0.837701
0.900125
0.967225
1.035493
1.104229
1.165250
1.220894
1.276537
1.324933
1.372394
1.421023
1.459834
1.493500
1.525296
1.555222
1.583745
1.606423
1.630738
1.654585
1.668145
1.681705
1.695733
1.701344
1.703681
1.704850
1.704616
1.705084
1.703447
1.702278
1.703446
1.705550
1.703913
1.702978
1.702510
1.688482
1.675155
1.671648
1.665569
1.666504
1.671648
1.668374
1.671413
1.676089
1.675154
1.671413
1.664866
1.660424
1.655280
1.648032
1.641953
1.632835
1.628860
1.626288
1.616468
1.605012
1.597063
1.597063
1.603375
1.613662
1.633768
1.662057
1.699231
1.745289
1.792749
1.843015
1.896087
1.951263
2.010881
2.071668
2.128481
2.185527
2.243976
2.300087
2.353860
2.403191
2.440599
2.472863
2.495775
2.505828
2.511205
2.508633
2.503255
2.498813
2.488993
2.483849
2.475666
2.454157
2.437323
2.412073
2.367417
2.320657
2.259402
2.186925
2.123566
2.051790
1.970194
1.891638
1.806068
1.721200
1.642176
1.559645
1.482726
1.412352
1.341979
1.276048
1.206610
1.132496
1.057213
0.974449
0.882566
0.783670
0.678695
0.562731
0.436013
0.307190
0.171821
0.035050
-0.094240
-0.223764
-0.350483
-0.467148
-0.580306
-0.696971
-0.808492
-0.908792
-1.011897
-1.113365
-1.202442
-1.288947
-1.377323
-1.461022
-1.540513
-1.617901
-1.688508
-1.748126
-1.805407
-1.857777
-1.899394
-1.941945
-1.984730
-2.027749
-2.079185
-2.137167
-2.197954
-2.260846
-2.327011
-2.396449
-2.464250
-2.532753
-2.602425
-2.672564
-2.742937
