EVENT_NAME: 202302060117
EVENT_ID: 13194
EVENT_DATE_YYYYMMDD: 2023/02/06
EVENT_TIME_HHMMSS: 01:17:32.00000
EVENT_LATITUDE_DEGREE: 37.288
EVENT_LONGITUDE_DEGREE: 37.043
EVENT_DEPTH_KM: 8.6
HYPOCENTER_REFERENCE: AFAD
MAGNITUDE_W: 7.7
MAGNITUDE_W_REFERENCE: AFAD
MAGNITUDE_L: 
MAGNITUDE_L_REFERENCE: 
FOCAL_MECHANISM: 
NETWORK: TK
STATION_CODE: 6102
STATION_NAME: 
STATION_LATITUDE_DEGREE: 41.03928
STATION_LONGITUDE_DEGREE: 39.27829
STATION_ELEVATION_M: 14.0
LOCATION: Kahramanmaras_Pazarck_Turkiye
SENSOR_DEPTH_M: 
VS30_M/S: None
SITE_CLASSIFICATION_EC8: unknown
MORPHOLOGIC_CLASSIFICATION: 
EPICENTRAL_DISTANCE_KM: 459.44
EARTHQUAKE_BACKAZIMUTH_DEGREE: 
DATE_TIME_FIRST_SAMPLE_YYYYMMDD_HHMMSS: 2023/02/06 01:18:10.3087560
DATE_TIME_FIRST_SAMPLE_PRECISION: millisecond
SAMPLING_INTERVAL_S: 0.01
NDATA: 24501
DURATION_S: 
STREAM: HNE
UNITS: cm/s^2
INSTRUMENT: sensor = ACEBOX/SARA | digitizer = 
INSTRUMENT_ANALOG/DIGITAL: 
INSTRUMENTAL_FREQUENCY_HZ: 
INSTRUMENTAL_DAMPING: 
FULL_SCALE_G: 
N_BIT_DIGITAL_CONVERTER: 
PGA_CM/S^2: 2.015
TIME_PGA_S: 
BASELINE_CORRECTION: BASELINE REMOVED
FILTER_TYPE: BUTTERWORTH
FILTER_ORDER: 
LOW_CUT_FREQUENCY_HZ: 
HIGH_CUT_FREQUENCY_HZ: 
LATE/NORMAL_TRIGGERED: 
DATABASE_VERSION: 
HEADER_FORMAT: DYNA 1.2
DATA_TYPE: Acceleration
PROCESSING: Automatic Paolucci et al., 2011
DATA_TIMESTAMP_YYYYMMDD_HHMMSS: 
DATA_LICENSE: U (unknown license)
DATA_CITATION: Turkish Accelerometric Archive v 1.0 - Disaster And Emergency Management Presidency, Earthquake Department
DATA_CREATOR: AFAD
ORIGINAL_DATA_MEDIATOR_CITATION: : AFAD - Disaster And Emergency Management Presidency
ORIGINAL_DATA_MEDIATOR: AFAD PROCESS SERVICE
ORIGINAL_DATA_CREATOR_CITATION: AFAD PROCESS SERVICE
ORIGINAL_DATA_CREATOR: network: TK
USER1: GuestUser
USER2: 
USER3: 
USER4: 
USER5: 
[...]
-1.168100
-1.195646
-1.217347
-1.120280
-1.054307
-1.033925
-0.913243
-0.808694
-0.703677
-0.537405
-0.416023
-0.312175
-0.218848
-0.164565
-0.124544
-0.116085
-0.091027
-0.081399
-0.167862
-0.254326
-0.311096
-0.398495
-0.531250
-0.682942
-0.787174
-0.893510
-1.038188
-1.150837
-1.216024
-1.254091
-1.309927
-1.311054
-1.243912
-1.244338
-1.202680
-1.092052
-1.009480
-0.886695
-0.783080
-0.673855
-0.521144
-0.443481
-0.378677
-0.321355
-0.295362
-0.225648
-0.191706
-0.197976
-0.165437
-0.178487
-0.279680
-0.347907
-0.373115
-0.453733
-0.539962
-0.590187
-0.656777
-0.744175
-0.806791
-0.843222
-0.922203
-0.985520
-1.009560
-1.082930
-1.110009
-1.083782
-1.072985
-1.035769
-1.013984
-0.963910
-0.859127
-0.800636
-0.724610
-0.606734
-0.562738
-0.576724
-0.533897
-0.459742
-0.442632
-0.415470
-0.357680
-0.329816
-0.327203
-0.378129
-0.401467
-0.350223
-0.369820
-0.412096
-0.402936
-0.448250
-0.512035
-0.547764
-0.576713
-0.559370
-0.575460
-0.640414
-0.621902
-0.604326
-0.645666
-0.632297
-0.653999
-0.735552
-0.725223
-0.723311
-0.787563
-0.780507
-0.767139
-0.789074
-0.781083
-0.826398
-0.915900
-0.939706
-0.943638
-1.015606
-1.107914
-1.133590
-1.178437
-1.259757
-1.276548
-1.319057
-1.346370
-1.289515
-1.304202
-1.296679
-1.218315
-1.205414
-1.146222
-1.059675
-1.018718
-0.921183
-0.863393
-0.838803
-0.754828
-0.749876
-0.749133
-0.667262
-0.650153
-0.626030
-0.549302
-0.526816
-0.522566
-0.508262
-0.495127
-0.479655
-0.467456
-0.461569
-0.480932
-0.469434
-0.457235
-0.513070
-0.520042
-0.516260
-0.592202
-0.615774
-0.607081
-0.654033
-0.658199
-0.629400
-0.667000
-0.698988
-0.665981
-0.644196
-0.591783
-0.520199
-0.549382
-0.558224
-0.509085
-0.505069
-0.499182
-0.553848
-0.614126
-0.571066
-0.614744
-0.716871
-0.779253
-0.872029
-0.906823
-0.957749
-1.108506
-1.173460
-1.171080
-1.226682
-1.282517
-1.278501
-1.274485
-1.302265
-1.265049
-1.184581
-1.159756
-1.096823
-1.007704
-1.017950
-1.003646
-0.928088
-0.930617
-0.937590
-0.922351
-0.947559
-0.940971
-0.920822
-0.893426
-0.829324
-0.826944
-0.823395
-0.751344
-0.716232
-0.674107
-0.585456
-0.531640
-0.489749
-0.434531
-0.392172
-0.353787
-0.312597
-0.254807
-0.208707
-0.237890
-0.267306
-0.241313
-0.259975
-0.332644
-0.393623
-0.440107
-0.491968
-0.552713
-0.575584
-0.590505
-0.635118
-0.655183
-0.696289
-0.744643
-0.747173
-0.775421
-0.782159
-0.762244
-0.776230
-0.767070
-0.759313
-0.742204
-0.706625
-0.736977
-0.750027
-0.767053
-0.865907
-0.864696
-0.806205
-0.855728
-0.895899
-0.875049
-0.834794
-0.824933
-0.868845
-0.840747
-0.815222
-0.866381
-0.856286
-0.828189
-0.789570
-0.728040
-0.733141
-0.722812
-0.687233
-0.686724
-0.677330
-0.636607
-0.596119
-0.611975
-0.616141
-0.626387
-0.673805
-0.629108
-0.633275
-0.710854
-0.706369
-0.743268
-0.764034
-0.758614
-0.846013
-0.862804
-0.859957
-0.887971
-0.810542
-0.804889
-0.925252
-0.961683
-0.945743
-0.995266
-1.038944
-1.024874
-1.043770
-1.080668
-1.062156
-1.071232
-1.105091
-1.048237
-0.993486
-0.978247
-0.855696
-0.774994
-0.802306
-0.687470
-0.563048
-0.579839
-0.555249
-0.501667
-0.460945
-0.403389
-0.390488
-0.390680
-0.389703
-0.440161
-0.469344
-0.424413
-0.409875
-0.471088
-0.505649
-0.473810
-0.499954
-0.596704
-0.632433
-0.680086
-0.757664
-0.734710
-0.747761
-0.787699
-0.756094
-0.834140
-0.881326
-0.771165
-0.766447
-0.792357
-0.697627
-0.628849
-0.611740
-0.575459
-0.521410
-0.515290
-0.590530
-0.638651
-0.600500
-0.556504
-0.554358
-0.580268
-0.607580
-0.600992
-0.598846
-0.647901
-0.642482
-0.591706
-0.624162
-0.626926
-0.549263
-0.505034
-0.465246
-0.416107
-0.377021
-0.311516
-0.264714
-0.270751
-0.260890
-0.215024
-0.184822
-0.160699
-0.141018
-0.167395
-0.211073
-0.263168
-0.332798
-0.423002
-0.553185
-0.625153
-0.690574
-0.865880
-0.946031
-0.983630
-1.144207
-1.149075
-1.087778
-1.173306
-1.144741
-1.076196
-1.126888
-1.127548
-1.066953
-0.997940
-0.949503
-0.855708
-0.706036
-0.697110
-0.692626
-0.632965
-0.705634
-0.697410
-0.630268
-0.705976
-0.699622
-0.653054
-0.710527
-0.707212
-0.659241
-0.634651
-0.604683
-0.570740
-0.478348
-0.368188
-0.309463
-0.246296
-0.173543
-0.119728
-0.092565
-0.086211
-0.043852
0.031707
0.073598
0.052131
0.003075
-0.040369
-0.103686
-0.147832
-0.168364
-0.226772
-0.250343
-0.258251
-0.315723
-0.336021
-0.369412
-0.430859
-0.413984
-0.394303
-0.425122
-0.444486
-0.463148
-0.524828
-0.565233
-0.538772
-0.560941
-0.596203
-0.581899
-0.659244
-0.725367
-0.662433
-0.633401
-0.603900
-0.506365
-0.451848
-0.403410
-0.321773
-0.256034
-0.203856
-0.166406
-0.113760
-0.075141
-0.086322
-0.080903
-0.098395
-0.147451
-0.185518
-0.249069
-0.278486
-0.289432
-0.346203
-0.359721
-0.369967
-0.442402
-0.470416
-0.472712
-0.525040
-0.564510
-0.600707
-0.627318
-0.583556
-0.589827
-0.629764
-0.571740
-0.549955
-0.600647
-0.573251
-0.505174
-0.553295
-0.649343
-0.622882
-0.617229
-0.671896
-0.630472
-0.640483
-0.650261
-0.554362
-0.606457
-0.683568
-0.610582
-0.582952
-0.596704
-0.573516
-0.520636
-0.468457
-0.482677
-0.490351
-0.477216
-0.502892
-0.510565
-0.518940
-0.559813
-0.612843
-0.675692
-0.706979
-0.743644
-0.799245
-0.815335
-0.862988
-0.921863
-0.920886
-0.949368
-0.955171
-0.891068
-0.904353
-0.928392
-0.846521
-0.816553
-0.860699
-0.831900
-0.746522
-0.637998
-0.544437
-0.482673
-0.341885
-0.220736
-0.213447
-0.106326
0.098990
0.192785
0.195165
0.228172
0.279649
0.278288
0.224791
0.149082
0.069165
-0.007244
-0.070795
-0.148140
-0.265231
-0.353331
-0.433949
-0.537011
-0.565960
-0.561243
-0.564708
-0.549936
-0.561117
-0.533487
-0.446239
-0.384240
-0.290913
-0.176545
-0.145642
-0.105153
-0.027256
-0.024175
-0.007300
0.047918
0.041648
0.019479
-0.026537
-0.077931
-0.079759
-0.101928
-0.125500
-0.152812
-0.215662
-0.248118
-0.273326
-0.320745
-0.377282
-0.403192
-0.368548
-0.340918
-0.292012
-0.241236
-0.232076
-0.168208
-0.117432
-0.073670
-0.009567
-0.060727
-0.088741
-0.059241
-0.072759
-0.031101
-0.019603
-0.024003
0.029578
0.014423
-0.004005
-0.037396
-0.124794
-0.138547
-0.155338
-0.193639
-0.238954
-0.360486
-0.424505
-0.440361
-0.502509
-0.501766
-0.465719
-0.458664
-0.417006
-0.360853
-0.315220
-0.244338
-0.165974
-0.086675
0.014134
0.111202
0.200788
0.264423
0.285740
0.337451
0.354794
0.270903
0.236109
0.213940
0.085627
-0.028892
-0.135227
-0.284114
-0.359121
-0.424075
-0.535788
-0.606821
-0.707779
-0.794710
-0.779939
-0.799536
-0.796922
-0.680683
-0.595305
-0.516240
-0.383869
-0.310415
-0.236960
-0.091964
0.010013
0.096794
0.177496
0.158834
0.167760
0.241448
0.270013
0.274497
0.249289
0.199532
0.125227
0.021696
-0.059389
-0.184663
-0.280712
-0.294931
-0.430726
-0.596446
-0.685715
-0.791583
-0.869863
-0.948377
-0.984340
-0.951099
-0.956434
-0.926934
-0.882237
-0.796391
-0.632224
-0.587527
-0.536751
-0.394092
-0.334432
-0.255367
-0.134218
-0.048139
0.048929
0.131268
0.186953
0.215051
0.241979
0.282702
0.309397
0.378409
0.400194
0.287779
0.218383
0.239233
0.213557
0.116340
0.042969
-0.039519
-0.209448
-0.293106
-0.313638
-0.415765
-0.434661
-0.425267
-0.447436
-0.343822
-0.258210
-0.246946
-0.202249
-0.181399
-0.155406
-0.095044
-0.042632
-0.003312
0.000237
-0.002059
0.006400
-0.011327
-0.034197
-0.057068
-0.072690
-0.049502
-0.058579
-0.126104
-0.177030
-0.227255
-0.249190
-0.220624
-0.257990
-0.299330
-0.276142
-0.289427
-0.277461
-0.222711
-0.214252
-0.224264
-0.241757
-0.227219
-0.200525
-0.225265
-0.209793
-0.180760
-0.175107
-0.155894
-0.159593
-0.143419
-0.178680
-0.260935
-0.233305
-0.243784
-0.301724
-0.307994
-0.396795
-0.434395
-0.385489
-0.439221
-0.423047
-0.333928
-0.358669
-0.363303
-0.364430
-0.445983
-0.463242
-0.429534
-0.397929
-0.345049
-0.345709
-0.382139
-0.352405
-0.286900
-0.251555
-0.219950
-0.191385
-0.163054
-0.091704
-0.060099
-0.074786
-0.052300
-0.057635
-0.099677
-0.131899
-0.154769
-0.162910
-0.189054
-0.238811
-0.291841
-0.342065
-0.360026
-0.334734
-0.312247
-0.309634
-0.283874
-0.238008
-0.174139
-0.132949
-0.139687
-0.068104
0.008624
0.000717
0.022969
0.018335
0.031236
0.111003
0.131853
0.181693
0.183138
0.091765
0.145814
0.174379
0.089787
0.098479
0.092910
0.066533
0.086213
0.070825
0.104767
0.160219
0.118411
0.045041
0.038770
0.096794
0.059896
-0.034283
-0.015771
-0.008247
-0.054030
-0.087187
-0.153544
-0.202132
-0.221261
-0.268914
-0.307215
-0.306705
-0.342434
-0.415337
-0.408047
-0.408707
-0.464776
-0.446732
-0.446924
-0.495980
-0.474428
-0.408689
-0.383865
-0.403696
-0.384015
-0.389584
-0.415026
-0.364484
-0.406993
-0.436878
-0.315729
-0.276876
-0.285719
-0.288249
-0.312522
-0.249588
-0.222894
-0.285042
-0.316095
-0.317690
-0.257094
-0.161663
-0.156711
-0.177711
-0.118519
-0.107956
-0.162623
-0.136162
-0.145705
-0.225622
-0.245687
-0.291703
-0.368814
-0.399867
-0.425076
-0.424800
-0.412834
-0.434068
-0.480552
-0.525866
-0.531436
-0.521808
-0.483657
-0.425166
-0.420214
-0.392117
-0.349290
-0.337091
-0.271118
-0.239280
-0.240173
-0.187293
-0.211332
-0.257348
-0.236031
-0.241600
-0.219815
-0.200134
-0.251528
-0.254058
-0.237884
-0.297460
-0.335060
-0.333147
-0.373552
-0.364626
-0.305200
-0.361269
-0.403778
-0.342248
-0.357870
-0.364842
-0.307988
-0.331326
-0.342038
-0.306693
-0.337045
-0.381658
-0.419959
-0.454052
-0.417771
-0.412586
-0.464447
-0.435648
-0.411759
-0.420367
-0.379645
-0.380538
-0.375586
-0.336500
-0.360773
-0.372655
-0.349233
-0.340307
-0.326237
-0.304452
-0.302306
-0.324709
-0.318121
-0.303817
-0.305646
-0.281523
-0.272363
-0.273490
-0.230429
-0.188771
-0.224267
-0.264204
-0.211792
-0.197722
-0.255428
-0.258425
-0.228691
-0.228649
-0.285420
-0.319747
-0.291883
-0.303531
-0.323362
-0.334542
-0.337072
-0.273671
-0.253523
-0.282939
-0.237541
-0.215522
-0.304790
-0.356885
-0.360116
-0.446346
-0.526730
-0.552640
-0.641207
-0.752920
-0.819277
-0.896154
-0.990333
-1.014138
-1.009654
-1.054501
-1.017052
-0.899877
-0.865467
-0.823576
-0.678579
-0.575433
-0.552947
-0.477856
-0.346420
-0.224336
-0.132645
-0.075557
0.026888
0.127931
0.130544
0.137132
0.134603
0.092795
0.087693
0.061082
0.008987
-0.061578
-0.173992
-0.230062
-0.230487
-0.257332
-0.345900
-0.432830
-0.443543
-0.494469
-0.539784
-0.484799
-0.471197
-0.482144
-0.467607
-0.452602
-0.415386
-0.388457
-0.325524
-0.270072
-0.295514
-0.297109
-0.291222
-0.315729
-0.336495
-0.341363
-0.327059
-0.343617
-0.328378
-0.287889
-0.314267
-0.324746
-0.334991
-0.363005
-0.362963
-0.363388
-0.355631
-0.421988
-0.483902
-0.446219
-0.499249
-0.541291
-0.524181
-0.582589
-0.557063
-0.541824
-0.605375
-0.565120
-0.540997
-0.547736
-0.500934
-0.451561
-0.363144
-0.274493
-0.252240
-0.251731
-0.190901
-0.110433
-0.120445
-0.122741
-0.090669
-0.065610
0.024677
0.098833
0.095602
0.081849
0.065292
0.023250
-0.009673
0.003695
-0.034606
-0.109847
-0.132717
-0.209828
-0.321775
-0.338801
-0.331277
-0.413064
-0.482694
-0.470962
-0.503418
-0.495661
-0.439274
-0.471028
-0.433111
-0.368074
-0.363824
-0.296682
-0.258531
-0.202612
-0.102738
-0.121400
-0.159935
-0.162932
-0.174814
-0.203529
-0.249078
-0.235476
-0.254839
-0.328443
-0.344066
-0.431464
-0.565856
-0.586622
-0.634274
-0.781992
-0.901888
-0.986949
-1.080660
-1.150991
-1.177835
-1.181300
-1.168166
-1.113415
-1.058197
-1.070313
-1.079857
-1.023704
-0.956562
-0.907890
-0.877221
-0.846785
-0.801387
-0.762768
-0.732567
-0.750761
-0.808467
-0.822219
-0.855844
-0.916356
-0.907897
-0.896633
-0.939142
-0.978612
-0.981609
-1.031600
-1.140274
-1.149818
-1.154685
-1.223146
-1.217727
-1.235454
-1.253180
-1.205444
-1.218962
-1.246275
-1.272184
-1.288508
-1.277244
-1.317181
-1.332102
-1.347491
-1.388130
-1.371956
-1.414465
-1.472171
-1.473766
-1.513470
-1.510388
-1.512451
-1.593303
-1.584376
-1.538043
-1.549457
-1.521593
-1.495834
-1.512859
-1.506037
-1.486356
-1.479534
-1.464763
-1.424508
-1.412542
-1.434945
-1.411523
-1.378048
-1.383618
-1.398305
-1.418603
-1.446851
-1.436990
-1.385746
-1.392952
-1.398287
-1.357097
-1.417843
-1.452169
-1.375208
-1.345240
-1.322520
-1.297695
-1.287132
-1.246877
-1.248004
-1.278356
-1.261948
-1.202054
-1.189388
-1.205010
-1.131556
-1.101120
-1.109027
-1.019909
-1.009580
-1.062844
-1.001547
-0.941887
-0.959146
-0.944842
-0.888455
-0.850071
-0.795086
-0.758572
-0.769986
-0.727393
-0.701634
-0.696682
-0.610837
-0.617107
-0.690478
-0.659107
-0.651350
-0.679130
-0.684231
-0.705933
-0.727166
-0.808486
-0.890741
-0.885555
-0.895800
-0.916800
-0.934293
-0.935420
-0.909661
-0.932998
-0.899524
-0.856697
-0.907389
-0.908048
-0.956403
-1.044268
-1.061294
-1.151731
-1.195176
-1.202849
-1.337007
-1.381620
-1.386021
-1.484641
-1.513590
-1.533187
-1.596504
-1.617972
-1.630087
-1.619525
-1.572022
-1.529896
-1.525412
-1.510641
-1.402351
-1.324221
-1.320205
-1.275741
-1.220757
-1.137249
-1.045559
-1.027749
-1.024901
-1.048473
-1.118336
-1.180017
-1.205459
-1.229030
-1.309181
-1.378343
-1.468079
-1.619304
-1.682388
-1.706427
-1.811594
-1.914423
-1.894040
-1.832744
-1.913829
-1.997253
-1.989028
-2.014938
-1.975384
-1.896553
-1.920358
-1.918446
-1.831665
-1.763121
-1.726139
-1.680039
-1.608689
-1.493852
-1.391174
-1.331280
-1.216911
-1.098801
-1.045454
-0.975506
-0.926601
-0.918376
-0.901267
-0.869195
-0.816315
-0.839653
-0.910218
-0.870196
-0.796742
-0.802077
-0.852536
-0.871665
-0.866947
-0.889350
-0.871306
-0.824972
-0.842699
-0.868141
-0.830458
-0.790904
-0.842999
-0.885742
-0.814626
-0.709141
-0.631946
-0.639386
-0.662256
-0.586931
-0.505060
-0.470650
-0.462192
-0.413286
-0.329077
-0.331607
-0.286209
-0.181426
-0.183488
-0.108631
0.007375
-0.044019
-0.045847
0.024567
-0.036412
-0.062088
0.016978
0.012811
-0.016371
0.020377
0.027432
-0.011102
-0.016204
-0.000965
-0.080648
-0.179970
-0.159354
-0.163754
-0.223097
-0.214638
-0.244990
-0.300826
-0.247244
-0.219147
-0.279191
-0.267693
-0.211072
-0.222018
-0.257981
-0.294646
-0.324296
-0.320280
-0.321874
-0.358305
-0.446638
-0.539180
-0.567661
-0.609002
-0.723053
-0.835234
-0.870963
-0.898976
-0.981699
-1.013219
-1.040766
-1.136581
-1.176752
-1.188400
-1.198177
-1.216606
-1.314992
-1.320795
-1.227936
-1.208956
-1.200965
-1.201859
-1.208363
-1.175823
-1.160351
-1.139267
-1.129406
-1.132871
-1.094019
-1.079014
-1.087622
-1.101608
-1.140611
-1.171664
-1.231708
-1.277023
-1.274643
-1.328842
-1.361298
-1.349800
-1.402128
-1.397177
-1.323956
-1.318537
-1.289504
-1.195242
-1.123191
-1.053711
-0.945187
-0.810244
-0.720892
-0.682975
-0.618405
-0.564356
-0.519191
-0.444802
-0.435875
-0.481658
-0.472498
-0.445335
-0.495560
-0.575944
-0.622662
-0.704215
-0.779456
-0.804197
-0.860266
-0.901606
-0.921905
-0.973065
-1.033810
-1.114428
-1.173537
-1.191497
-1.192858
-1.161254
-1.137832
-1.150415
-1.136579
-1.044188
-0.964421
-0.922295
-0.816811
-0.758320
-0.720870
-0.553897
-0.434619
-0.374491
-0.253342
-0.191578
-0.160207
-0.108963
-0.096998
-0.077785
-0.084055
-0.133345
-0.161358
-0.184229
-0.231414
-0.338919
-0.433097
-0.443342
-0.489592
-0.599201
-0.678884
-0.678375
-0.691425
-0.794254
-0.826476
-0.804458
-0.822418
-0.809283
-0.832154
-0.857596
-0.856151
-0.931158
-0.961977
-0.951181
-0.968440
-0.929354
-0.910374
-0.905423
-0.861427
-0.866529
-0.862278
-0.864107
-0.945660
-0.995417
-0.998415
-1.052380
-1.166665
-1.243309
-1.263373
-1.325288
-1.395151
-1.425035
-1.475494
-1.571075
-1.652161
-1.684383
-1.721982
-1.733396
-1.751123
-1.845535
-1.860456
-1.822305
-1.846111
-1.834379
-1.798332
-1.756675
-1.677843
-1.647641
-1.681032
-1.665560
-1.629046
-1.672724
-1.690451
-1.666561
-1.716786
-1.752047
-1.721846
-1.719232
-1.763378
-1.741125
-1.644759
-1.647522
-1.661275
-1.585950
-1.581934
-1.606908
-1.579278
-1.540192
-1.464400
-1.404740
-1.408906
-1.408396
-1.368843
-1.329055
-1.320597
-1.291798
-1.255517
-1.309483
-1.346147
-1.313140
-1.345362
-1.321239
-1.250824
-1.296840
-1.250740
-1.166531
-1.220730
-1.227702
-1.218542
-1.207980
-1.135694
-1.172359
-1.213231
-1.140478
-1.122200
-1.131043
-1.132170
-1.190577
-1.186093
-1.135317
-1.166604
-1.174044
-1.157169
-1.185650
-1.185374
-1.199594
-1.230179
-1.214941
-1.194792
-1.186801
-1.215049
-1.236049
-1.229461
-1.246018
-1.248782
-1.285446
-1.323513
-1.305001
-1.374397
-1.448469
-1.447024
-1.481585
-1.468918
-1.464434
-1.554404
-1.563246
-1.513172
-1.501674
-1.479655
-1.490601
-1.523759
-1.481399
-1.423142
-1.410475
-1.405757
-1.451072
-1.503167
-1.454963
-1.422657
-1.450203
-1.459981
-1.481448
-1.458494
-1.400003
-1.421003
-1.447146
-1.436116
-1.442854
-1.453099
-1.458201
-1.454886
-1.456714
-1.487066
-1.521860
-1.559693
-1.586772
-1.573403
-1.551852
-1.529132
-1.472277
-1.415189
-1.397846
-1.362033
-1.307049
-1.317995
-1.294574
-1.201481
-1.205647
-1.220802
-1.146880
-1.086519
-1.035976
-0.995721
-0.986094
-0.990962
-1.005883
-0.982227
-0.992473
-1.035449
-1.005715
-1.027884
-1.095410
-1.102148
-1.152139
-1.199791
-1.182448
-1.196668
-1.231228
-1.246851
-1.252420
-1.279966
-1.317800
-1.329447
-1.355825
-1.332637
-1.268067
-1.271298
-1.226367
-1.156420
-1.177420
-1.151660
-1.070023
-1.015740
-0.953508
-0.861584
-0.750956
-0.641263
-0.519413
-0.444556
-0.422771
-0.348849
-0.294566
-0.270209
-0.239774
-0.275269
-0.264706
-0.223049
-0.262986
-0.272530
-0.227599
-0.214230
-0.284094
-0.327538
-0.276061
-0.294022
-0.306137
-0.288794
-0.337382
-0.280761
-0.223439
-0.244439
-0.200911
-0.209753
-0.222804
-0.201019
-0.211498
-0.142486
-0.093113
-0.076471
-0.043464
-0.056281
0.014134
0.044803
-0.019215
0.003037
-0.033159
-0.063511
0.014853
0.020272
0.017509
0.026668
0.016891
0.071174
0.100908
0.104223
0.149855
0.164159
0.123754
0.066048
0.021201
0.006747
0.022220
0.032081
-0.000141
-0.027454
-0.055935
-0.132812
-0.159423
-0.116597
-0.137129
-0.184314
-0.184038
-0.211117
-0.259705
-0.268080
-0.241151
-0.219834
-0.237093
-0.266743
-0.300836
-0.322069
-0.342134
-0.405919
-0.421074
-0.405133
-0.435018
-0.454147
-0.476082
-0.471364
-0.466646
-0.511026
-0.498827
-0.478211
-0.453152
-0.392557
-0.408647
-0.453027
-0.453686
-0.401741
-0.400063
-0.476239
-0.457259
-0.460725
-0.457877
-0.371330
-0.422490
-0.415434
-0.357644
-0.422598
-0.360600
-0.344894
-0.409146
-0.347382
-0.418648
-0.503474
-0.442645
-0.460606
-0.484879
-0.473614
-0.510513
-0.567751
-0.649538
-0.696489
-0.688966
-0.691730
-0.724653
-0.789139
-0.826505
-0.813604
-0.853776
-0.958007
-1.027169
-1.050273
-1.030359
-0.989169
-1.000349
-1.011529
-0.996992
-0.997651
-0.964644
-0.934442
-0.923412
-0.886196
-0.863476
-0.823455
-0.780628
-0.795783
-0.767218
-0.689322
-0.676187
-0.686666
-0.629811
-0.553552
-0.546963
-0.562586
-0.507134
-0.459631
