EVENT_NAME: 202302060117
EVENT_ID: 13194
EVENT_DATE_YYYYMMDD: 2023/02/06
EVENT_TIME_HHMMSS: 01:17:32.00000
EVENT_LATITUDE_DEGREE: 37.288
EVENT_LONGITUDE_DEGREE: 37.043
EVENT_DEPTH_KM: 8.6
HYPOCENTER_REFERENCE: AFAD
MAGNITUDE_W: 7.7
MAGNITUDE_W_REFERENCE: AFAD
MAGNITUDE_L: 
MAGNITUDE_L_REFERENCE: 
FOCAL_MECHANISM: 
NETWORK: TK
STATION_CODE: 0138
STATION_NAME: 
STATION_LATITUDE_DEGREE: 37.704858
STATION_LONGITUDE_DEGREE: 35.723358
STATION_ELEVATION_M: 477.0
LOCATION: Kahramanmaras_Pazarck_Turkiye
SENSOR_DEPTH_M: 
VS30_M/S: None
SITE_CLASSIFICATION_EC8: unknown
MORPHOLOGIC_CLASSIFICATION: 
EPICENTRAL_DISTANCE_KM: 125.31
EARTHQUAKE_BACKAZIMUTH_DEGREE: 
DATE_TIME_FIRST_SAMPLE_YYYYMMDD_HHMMSS: 2023/02/06 01:17:33.6406190
DATE_TIME_FIRST_SAMPLE_PRECISION: millisecond
SAMPLING_INTERVAL_S: 0.01
NDATA: 12501
DURATION_S: 
STREAM: HNE
UNITS: cm/s^2
INSTRUMENT: sensor = ACEBOX/SARA | digitizer = 
INSTRUMENT_ANALOG/DIGITAL: 
INSTRUMENTAL_FREQUENCY_HZ: 
INSTRUMENTAL_DAMPING: 
FULL_SCALE_G: 
N_BIT_DIGITAL_CONVERTER: 
PGA_CM/S^2: 20.874
TIME_PGA_S: 
BASELINE_CORRECTION: BASELINE REMOVED
FILTER_TYPE: BUTTERWORTH
FILTER_ORDER: 
LOW_CUT_FREQUENCY_HZ: 
HIGH_CUT_FREQUENCY_HZ: 
LATE/NORMAL_TRIGGERED: 
DATABASE_VERSION: 
HEADER_FORMAT: DYNA 1.2
DATA_TYPE: Acceleration
PROCESSING: Automatic Paolucci et al., 2011
DATA_TIMESTAMP_YYYYMMDD_HHMMSS: 
DATA_LICENSE: U (unknown license)
DATA_CITATION: Turkish Accelerometric Archive v 1.0 - Disaster And Emergency Management Presidency, Earthquake Department
DATA_CREATOR: AFAD
ORIGINAL_DATA_MEDIATOR_CITATION: : AFAD - Disaster And Emergency Management Presidency
ORIGINAL_DATA_MEDIATOR: AFAD PROCESS SERVICE
ORIGINAL_DATA_CREATOR_CITATION: AFAD PROCESS SERVICE
ORIGINAL_DATA_CREATOR: network: TK
USER1: GuestUser
USER2: 
USER3: 
USER4: 
USER5: 
[...]
3.774541
4.043877
4.153296
3.620240
2.713575
1.546929
-0.107419
-1.980368
-3.395541
-4.134339
-4.647756
-5.207232
-5.536183
-5.533610
-5.171690
-4.200962
-2.783916
-1.468103
-0.647239
-0.363174
-0.363874
-0.321555
-0.050115
0.167785
0.044108
-0.159294
-0.371347
-0.755474
-1.168593
-1.432081
-1.299048
-0.762950
-0.433528
-0.589002
-0.917018
-1.105223
-0.951851
-0.711973
-0.521894
0.189552
1.299857
1.986287
2.072560
1.755532
1.256844
0.785043
0.517113
0.745300
1.609183
3.107591
4.685022
5.410263
5.540256
5.723320
5.649208
5.174367
4.526984
3.850377
3.517684
3.387695
2.698929
1.198420
-0.848006
-2.889522
-4.418789
-5.495657
-6.082019
-6.108671
-6.114280
-6.409799
-6.547971
-5.866918
-4.512062
-3.541334
-3.399418
-3.718783
-4.246696
-4.998586
-5.919279
-6.301068
-5.800039
-5.142366
-4.413384
-3.079102
-1.290318
0.539381
2.289121
3.880113
4.736748
4.388859
3.427019
2.461905
1.542850
0.996467
1.059360
1.428995
1.865028
2.200529
2.101400
1.562967
1.177670
1.400013
1.811264
1.845400
1.549180
0.890107
-0.172033
-1.399701
-2.998872
-4.762404
-5.509151
-4.899640
-3.905532
-3.172109
-2.352180
-1.263151
-0.414699
-0.095565
0.008009
0.445913
1.124160
1.368012
1.263974
1.111306
0.812047
0.619867
0.597190
0.531495
0.485204
0.585739
0.993249
1.355636
1.180289
0.910956
0.940650
1.004478
0.914468
0.893194
1.430695
2.393708
3.118714
3.435511
3.410263
3.146307
2.875337
2.470870
1.694430
0.867491
0.329057
-0.473100
-1.929187
-3.159427
-3.450737
-3.111963
-2.528871
-2.057067
-2.190096
-3.074550
-4.476864
-5.984855
-7.020576
-7.234499
-6.818338
-6.230336
-5.765546
-5.337228
-4.857241
-4.530390
-4.378655
-4.109085
-3.602445
-2.945005
-2.189137
-1.625684
-1.645789
-1.999523
-2.081585
-1.645084
-0.642793
0.961525
2.886379
4.619520
5.890911
6.585524
6.840599
6.988828
6.926405
6.821432
7.123733
7.233385
6.221045
4.065202
1.622256
-0.257941
-1.634304
-2.702756
-3.487144
-4.203497
-4.582715
-4.556528
-4.584582
-4.360136
-3.682122
-3.171507
-3.089677
-3.426811
-3.933448
-4.062736
-4.049876
-4.181736
-3.947704
-3.275535
-2.460984
-1.633808
-1.268615
-1.310697
-1.010266
-0.380882
0.228862
0.803070
1.249858
1.572500
1.654798
1.575776
2.002224
2.922217
3.585502
3.376722
2.187631
0.833479
-0.305113
-1.865942
-3.640228
-4.725981
-5.010978
-5.036460
-5.049552
-4.817857
-4.418062
-4.065494
-3.757114
-3.563061
-3.095699
-1.983056
-0.808691
-0.306727
-0.474124
-0.593126
-0.407489
-0.469444
-0.840712
-1.018864
-0.468037
0.496612
0.831412
0.880277
1.375928
2.020275
2.820331
3.651949
4.019012
3.858161
3.354564
2.919702
2.500973
1.798881
1.317494
1.422237
1.740904
1.842139
1.516695
0.752881
-0.290789
-1.394544
-2.450605
-3.335993
-3.873258
-3.870685
-3.213479
-2.135439
-0.913145
0.273845
1.400750
2.572075
3.200056
2.663025
1.616083
1.153867
1.459442
1.896878
2.154991
2.634979
3.496991
4.113516
3.904268
3.026595
1.813890
0.528007
-0.455811
-1.080983
-1.656357
-2.161591
-2.376216
-2.839366
-3.867605
-4.593077
-4.583022
-3.937974
-2.752153
-1.794518
-1.529858
-1.714322
-2.244105
-2.878396
-3.075252
-2.677561
-2.323123
-2.449606
-2.847527
-3.524836
-4.350139
-4.917564
-5.046384
-4.649161
-3.884877
-2.822968
-1.428132
-0.219399
0.368603
0.564059
0.939773
1.839192
2.917233
3.821796
4.587484
4.925088
4.401384
3.241517
2.032085
0.937916
-0.067411
-0.842915
-1.556463
-2.435539
-3.202860
-3.682845
-4.069076
-4.444553
-4.650761
-4.589738
-4.675306
-5.274060
-6.000233
-6.357941
-6.191008
-5.800098
-5.735568
-6.085795
-6.919047
-8.362744
-9.725546
-10.088632
-9.394486
-8.276700
-6.988943
-5.218395
-3.122401
-1.297612
0.064492
1.274161
2.557242
3.615643
4.245261
4.692750
5.031992
5.124577
5.096289
5.179288
5.307177
5.359549
5.334768
5.150771
4.658863
3.730923
2.700814
2.089202
1.655743
1.009529
0.375940
0.086267
-0.144957
-0.999953
-2.228322
-3.080979
-3.835909
-4.917921
-5.995024
-6.866385
-7.790817
-8.731382
-9.369881
-9.800534
-9.826017
-8.939690
-7.757142
-6.847903
-5.812413
-4.672182
-3.358708
-1.727503
-0.291752
1.244063
3.205156
4.687432
5.324765
5.404024
5.138899
5.112949
5.628941
6.373587
6.889813
6.925586
6.916235
7.258282
7.683795
8.197449
8.833379
9.130069
9.106691
8.920823
8.232759
7.177634
6.311884
5.659357
4.563317
2.450961
-0.229056
-2.627814
-4.383397
-5.519884
-6.349161
-6.925937
-6.818155
-5.842986
-4.424068
-3.222817
-2.478638
-1.827278
-0.668577
1.043522
2.604120
3.983993
5.783298
7.768940
9.321355
10.155779
10.366900
10.369005
10.168409
9.282786
7.628204
5.780740
4.301038
3.269760
2.458251
1.838924
1.657031
1.507870
0.686074
-0.661766
-1.978277
-2.676628
-2.468547
-1.601625
-0.535274
-0.118880
-0.522880
-0.999825
-1.644402
-2.751665
-3.842561
-4.375851
-4.124985
-3.526697
-3.181844
-3.225797
-3.742955
-4.516588
-5.082610
-5.518874
-5.996754
-6.319159
-6.486089
-6.780906
-7.273281
-7.508012
-6.983604
-5.731852
-3.804659
-1.487259
0.264819
1.220584
1.962190
2.648387
3.447039
4.516196
5.596575
6.703138
7.660072
7.769491
7.049163
6.167515
5.466592
4.789751
3.807336
2.453417
0.755817
-1.117599
-2.732903
-4.048245
-5.098694
-5.592239
-5.567221
-5.275207
-4.623379
-3.204228
-1.049551
0.936091
2.148565
2.804836
3.029049
2.876848
2.551871
1.907761
0.756078
-0.791659
-2.555892
-4.072533
-5.078093
-5.910878
-6.521087
-6.486484
-5.796079
-4.929157
-4.407788
-3.957493
-2.967594
-1.273263
1.261334
4.408247
7.272499
9.299289
10.634506
11.425678
11.804431
12.196043
12.668081
12.988618
13.358955
14.001431
14.690901
14.736727
13.495966
11.296637
9.047508
7.082210
5.086986
2.984916
1.156389
0.004939
-0.194956
0.234998
0.451496
-0.076183
-1.288186
-2.570095
-3.385345
-3.559055
-3.022255
-2.387494
-2.285089
-2.470956
-2.866773
-3.347927
-3.251601
-2.643493
-2.002887
-1.110481
0.126776
1.048172
1.070618
0.313350
-0.752530
-1.438723
-1.101119
-0.287737
0.178457
0.756873
1.742797
2.757946
3.608502
3.972994
3.951720
3.863112
3.483661
2.893792
1.973801
0.241832
-1.798749
-3.625172
-5.520798
-7.482824
-9.038509
-9.717922
-9.488566
-8.923944
-8.329864
-7.407064
-6.365496
-5.743126
-5.230407
-4.614350
-4.123374
-3.570442
-3.195430
-2.940122
-1.863952
-0.156529
1.636230
3.481594
4.978599
6.256536
7.369647
7.972377
8.781785
10.190181
11.339530
11.468354
10.469106
9.018395
8.054918
7.925630
8.093732
7.691134
6.556517
5.008547
3.515987
2.505517
1.622700
0.628361
0.037090
0.138092
0.815638
1.631825
2.366418
3.427157
4.611108
5.242362
5.412334
5.238391
4.253404
2.309382
-0.185935
-2.947547
-5.733707
-7.927659
-9.038896
-9.141766
-8.770962
-8.609640
-8.630680
-8.327444
-8.106972
-8.333286
-7.836933
-6.029912
-4.193433
-3.020938
-2.090424
-1.457533
-1.306031
-1.645503
-2.806773
-4.691645
-6.377555
-7.344072
-8.100171
-9.018057
-9.637618
-9.316847
-7.895826
-6.080155
-4.390267
-2.436421
-0.548039
0.584944
1.151670
1.160322
0.695067
0.181649
-0.434639
-1.179983
-2.065839
-2.841110
-2.824509
-2.236273
-1.429905
-0.212755
1.033854
1.973954
2.705741
3.205367
3.425606
3.406903
3.598385
4.512300
6.208734
8.190635
9.634101
10.739496
12.044086
12.790368
12.146258
10.341579
8.512351
7.415843
6.385032
4.866520
3.099716
1.428768
0.313089
-0.062855
0.220976
1.268156
3.050861
4.940880
6.213440
6.682439
6.260436
5.258149
4.420221
3.655238
2.727532
1.920231
1.010995
0.001928
-0.481330
-0.615528
-0.960611
-1.543934
-2.365496
-3.222362
-3.615841
-3.274495
-2.237603
-0.914075
0.431663
1.975662
3.630480
4.774686
4.750840
3.881583
3.134602
2.725926
2.604353
2.938919
3.713023
4.708767
5.274324
5.102952
4.756232
4.546751
4.449025
4.522439
4.700594
4.782892
4.455344
3.642900
2.494489
1.070198
-0.106502
-0.614542
-1.048702
-1.776979
-2.352821
-2.444468
-2.179574
-1.913745
-1.544110
-0.746392
0.166354
0.860032
1.259827
1.225226
0.843203
0.132461
-0.885491
-1.783972
-2.368464
-2.652760
-2.550823
-2.414518
-2.628207
-3.001112
-3.226959
-3.164767
-2.804718
-2.115248
-1.210218
-0.592991
-0.266141
0.251254
0.951712
1.902567
3.405651
5.169419
6.550928
7.313576
7.523995
6.998421
5.841360
4.601300
3.295076
1.886449
0.704606
-0.125607
-0.498044
-0.648842
-1.094224
-1.597822
-1.704666
-1.620965
-1.686193
-1.772229
-1.746042
-1.916479
-2.356718
-2.901464
-3.660836
-4.560954
-5.522561
-6.627719
-7.460036
-7.560099
-7.100686
-6.565757
-6.081093
-5.362399
-4.481917
-3.315969
-1.396959
0.575356
1.922965
2.912630
3.092422
2.141804
0.675195
-0.863190
-2.218277
-3.489198
-4.833063
-6.111465
-7.502323
-8.691882
-8.882659
-8.144092
-7.003628
-5.994323
-5.489086
-5.093499
-4.385560
-3.587375
-2.742897
-1.596822
-0.402350
0.278469
0.278237
-0.236583
-1.154704
-2.462096
-3.626639
-3.611908
-2.176392
-0.010492
2.014661
3.094105
3.179676
2.683793
1.692261
0.690207
0.386272
0.525850
0.322682
-0.230481
-0.597775
-1.017673
-1.847418
-2.503452
-2.601879
-2.237387
-1.307340
-0.090658
1.011230
2.100727
3.110499
3.975082
4.862812
5.260736
4.661516
3.739654
3.443902
3.830137
4.167508
3.957092
3.468691
3.122906
3.026116
3.080826
3.420535
4.210771
5.090318
5.850160
6.445410
6.691366
7.121554
8.083631
8.893507
9.003860
8.085272
6.010089
3.420319
1.295804
0.212857
-0.119134
-0.322536
-0.739161
-1.749865
-3.562260
-5.811856
-7.887039
-9.606383
-10.914711
-11.041427
-9.979752
-8.982138
-8.335219
-7.654868
-7.023614
-6.378566
-5.429815
-3.892129
-1.825126
0.455568
2.396788
2.915586
2.192920
1.775126
1.980168
2.233372
2.267274
1.950012
1.322502
0.182975
-1.401233
-2.329407
-1.663083
0.364876
2.677834
4.557331
6.382822
8.420600
10.280693
11.721821
12.521175
12.580795
12.210695
11.571962
10.648932
9.288701
7.239002
4.807045
2.560021
0.486474
-1.832560
-4.536891
-7.240521
-9.495494
-11.147738
-12.148856
-12.419592
-12.216421
-12.143007
-12.264346
-12.284919
-12.256394
-11.747416
-10.243631
-8.667836
-7.973456
-7.745035
-7.645903
-7.753448
-7.735678
-7.482474
-7.363470
-7.448337
-7.346634
-6.663944
-5.244793
-3.274582
-1.230024
0.714703
2.441531
3.347731
3.365267
3.066242
2.641200
2.099026
1.353448
0.111986
-1.547506
-3.244171
-4.699791
-5.739720
-6.515458
-7.200950
-7.372088
-6.636794
-5.101446
-3.193659
-1.456777
0.281741
2.294970
4.029046
5.393021
6.885350
8.702892
10.726876
12.350833
13.371360
14.291587
14.791681
14.280134
13.350558
12.598667
11.599419
10.062671
8.236716
6.288953
4.526123
3.104403
1.685723
0.257223
-1.190214
-3.045394
-5.141619
-7.377187
-10.216887
-13.318908
-15.807912
-17.469274
-18.488161
-19.039921
-19.107720
-18.512471
-17.106179
-14.773582
-11.771858
-8.792812
-6.259149
-3.858050
-1.245130
1.131888
3.118699
5.373207
7.877178
10.122568
11.961385
13.144167
13.248442
11.899433
9.498804
7.085083
4.839696
2.737860
1.372953
0.993735
1.297673
1.603949
1.430473
1.091468
0.815589
0.286273
-0.540900
-1.066708
-0.648444
0.784969
2.629865
4.128039
5.138980
5.768831
5.766495
5.023021
3.902666
2.892196
2.032758
1.184309
0.538329
-0.033771
-0.869361
-2.006783
-3.657624
-5.815806
-8.046230
-10.044494
-11.561603
-12.560149
-13.260838
-13.858656
-14.460449
-15.005429
-15.571217
-16.265593
-16.900351
-17.141862
-16.389267
-14.173803
-10.745866
-6.920941
-3.535088
-0.859043
1.070020
2.149697
2.554635
2.573574
2.302839
1.663171
0.730087
-0.404997
-1.802168
-3.305716
-4.976430
-6.547780
-6.880472
-5.885663
-4.569851
-3.279990
-1.875101
-0.303046
1.338212
2.860234
4.034131
4.573503
4.454034
3.849903
2.920795
1.919209
0.989165
0.357212
0.553136
1.482949
2.336077
2.949328
3.813912
5.095356
6.817509
9.018711
11.266907
13.059900
14.133031
13.909055
12.304739
10.227920
7.993053
5.525558
3.341192
1.578596
0.104973
-0.882351
-1.422889
-1.886040
-2.508641
-2.898613
-2.675335
-2.174072
-1.500033
-0.688521
-0.240798
-0.244070
-0.424326
-0.703946
-1.377047
-2.620847
-3.935020
-5.333827
-7.165861
-8.933835
-10.325862
-11.207744
-11.352931
-11.319496
-11.583218
-11.794803
-11.555159
-11.110242
-10.799056
-10.177388
-9.148444
-8.267728
-7.484974
-6.496244
-5.199135
-3.555772
-1.502797
0.918409
3.176658
5.045869
6.582853
7.442527
7.681470
7.371924
6.263025
4.686765
2.897516
0.878444
-0.843705
-1.920574
-2.620094
-2.869787
-2.343508
-1.450401
-0.945164
-0.998468
-1.347760
-1.893909
-2.622653
-3.050735
-2.723183
-1.990929
-1.402927
-1.081221
-1.004300
-1.322964
-1.995363
-2.451267
-2.484231
-2.537535
-2.559978
-2.152000
-1.528929
-1.036550
-0.631846
-0.440598
-0.714841
-1.098501
-1.066937
-0.804381
-0.555385
-0.117248
0.544166
1.447093
2.689727
4.127815
5.838511
7.757053
9.253591
10.170078
10.711787
10.740546
10.358289
9.739897
8.736206
7.627541
6.827255
5.961271
4.539785
2.772981
1.138506
-0.176602
-1.248094
-2.168552
-2.815234
-2.840015
-2.103552
-0.974777
0.195613
1.486643
2.695143
3.344867
3.654416
3.750040
3.167887
2.001474
0.571104
-0.841732
-1.613963
-1.586139
-0.959094
0.224857
2.036086
4.602246
7.500165
10.225541
12.618691
14.323776
15.382879
16.001041
16.103446
16.055051
15.928334
15.222736
13.913706
12.183374
9.938454
7.265686
4.641780
2.290249
-0.168829
-2.988656
-5.874181
-8.576642
-11.352749
-14.334130
-17.094807
-19.258833
-20.592411
-20.873668
-19.997628
-17.811622
-14.578672
-10.865035
-6.838811
-3.062282
-0.435100
1.146773
2.292849
3.257030
4.073218
4.656076
5.128114
5.575136
5.944304
6.617407
7.669497
8.802480
9.875611
10.224438
9.818333
9.630596
9.598333
9.325259
9.025766
8.705933
8.708974
9.477233
10.422945
10.882358
10.866695
10.187515
8.563561
6.462660
4.881257
4.500403
5.001900
5.610709
6.242197
7.193052
8.250518
8.916375
9.259123
9.658450
9.850399
9.303783
7.821977
5.487279
2.790897
0.427442
-1.084290
-1.531309
-0.882754
0.912577
3.432445
5.631076
6.844953
7.373103
7.800252
8.202151
8.533209
9.068606
9.786599
10.276172
10.265887
9.501605
7.673312
5.074657
2.613007
0.539928
-1.557700
-3.705828
-5.848812
-7.685054
-8.547764
-8.696926
-8.816862
-8.914120
-8.919029
-8.931418
-9.000855
-9.081046
-9.150716
-9.417944
-9.967600
-10.593942
-11.066912
-11.090524
-10.293742
-8.735014
-7.070610
-5.760408
-4.898864
-4.515201
-4.251944
-3.704857
-2.703268
-1.130746
0.772599
2.705636
4.518970
6.081906
7.648583
9.421936
10.993056
11.990904
12.700480
13.410758
13.863157
14.110983
14.471734
14.801623
14.943774
14.763751
14.220408
13.596404
13.060075
12.695820
12.300704
11.471895
10.402040
9.390634
8.281268
6.977616
5.685887
4.431567
2.990676
1.528275
0.263667
-0.952311
-2.148650
-3.472175
-5.165099
-6.809394
-7.743880
-7.997783
-7.966452
-7.556137
-6.611127
-5.419694
-4.156486
-2.890940
-1.755619
-0.758940
-0.062690
0.126687
-0.109914
-0.568857
-1.019382
-1.289417
-1.398599
-1.315132
-0.852211
-0.151052
0.368915
0.676126
1.128525
2.052727
3.315701
4.588729
6.106776
7.897898
9.397709
10.363060
10.576986
10.021017
9.126277
7.730041
5.677770
3.658932
2.252643
1.428275
0.975645
0.712625
0.360060
-0.129510
-0.749539
-1.638902
-2.154657
-1.918287
-1.630013
-1.400423
-1.117059
-0.956439
-0.650397
-0.209921
0.178885
0.657703
1.097244
1.322158
1.623290
2.419839
3.737990
5.318227
6.855679
8.010639
8.747803
9.177057
9.215869
8.928767
8.437327
7.819402
7.396230
7.329366
7.482505
7.821512
8.085704
7.918775
7.459598
6.720567
5.443801
3.900741
2.497257
1.198749
0.016671
-0.748312
-0.888589
-0.623695
-0.468920
-0.649877
-1.091519
-1.814418
-2.604652
-3.075752
-3.100065
-2.669643
-1.964041
-1.270831
-0.915458
-1.010378
-1.159773
-1.422559
-1.921949
-2.392114
-3.298778
-4.521770
-5.160503
-5.231809
-4.752757
-3.774548
-2.818316
-1.809947
-0.555623
0.812327
2.203656
3.738536
5.598395
7.237549
8.037838
8.150063
7.583106
6.379519
4.963177
3.331741
1.479834
-0.438471
-2.439306
-3.861026
-4.227385
-4.272039
-4.353399
-4.274608
-4.227145
-4.336561
-4.644938
-5.074188
-5.153210
-4.760196
-4.301250
-4.080076
-4.044538
-3.740132
-2.926282
-2.100509
-1.616313
-1.244808
-0.767626
-0.053140
0.841136
1.677664
2.527986
3.467619
4.298302
4.942882
5.526442
6.216379
6.767441
6.707824
6.142737
5.204978
3.742344
1.930650
0.174367
-1.034130
-1.830442
-3.151629
-4.963088
-6.345530
-6.950128
-6.742749
-5.862968
-4.735363
-3.531071
-2.134599
-0.756362
-0.025277
0.036681
0.051645
0.110330
0.042063
-0.106163
-0.406825
-0.806851
-1.104707
-1.280521
-1.409576
-1.520160
-1.577673
-1.599181
-1.665811
-1.792528
-1.802346
-1.345739
-0.223510
1.365611
2.932990
4.095899
4.637609
4.236414
2.909850
1.189805
-0.568817
-2.272496
-3.853665
-5.316767
-6.744332
-8.173533
-9.365898
-10.124334
-10.599409
-10.851909
-10.782235
-10.406054
-9.860136
-9.371966
-9.079952
-8.928216
-8.858776
-8.801962
-8.428820
-7.482641
-6.186935
-4.807062
-3.595290
-2.753618
-2.001023
-1.271574
-0.799302
-0.587948
-0.917367
-1.781714
-2.533838
-3.053568
-3.652088
-4.434138
-5.346647
-6.107656
-6.539244
-6.835698
-7.037697
-7.020862
-6.838966
-6.420234
-5.754845
-4.998743
-3.979620
-2.846637
-2.136593
-1.839201
-1.823769
-2.263073
-3.195455
-4.285884
-5.152802
-5.688197
-5.751554
-5.408338
-4.944951
-4.247532
-3.271193
-2.224014
-1.252351
-0.442709
0.473310
1.535686
2.198269
2.213701
1.745640
1.037470
0.240457
-0.784743
-2.178641
-3.696451
-4.737081
-4.988178
-4.875252
-4.967601
-5.452027
-6.213270
-6.958146
-7.367758
-7.444675
-7.555728
-7.834880
-8.039217
-7.833708
-6.944809
-5.601643
-4.301728
-3.249873
-2.547311
-1.980818
-1.196895
-0.424661
0.130609
0.496971
0.329807
-0.269647
-0.600001
-0.709885
-0.904870
-0.823741
-0.354742
0.226713
0.637263
0.489504
0.172009
0.352502
0.722371
1.016723
1.206802
1.002698
0.508218
0.004854
-0.124668
0.264840
0.468713
0.492094
1.084304
1.971566
2.444539
2.239968
1.567802
0.855424
0.032693
-0.873738
-1.300416
-1.208065
-1.014479
-0.920959
-1.091863
-1.503111
-1.901033
-2.241674
-2.590030
-2.956857
-3.275521
-3.355946
-3.102975
-2.444133
-1.367262
-0.196871
0.750477
1.386173
1.769135
2.204467
2.967349
3.911657
4.701893
5.399780
6.217137
6.858912
7.063953
6.982126
6.609454
5.967916
5.206674
4.190592
2.976952
2.006929
1.322606
0.606720
-0.232143
-1.164993
-2.153252
-3.139408
-4.268647
-5.613681
-6.773314
-7.263118
-6.909147
-5.835081
-4.463625
-3.071828
-1.572251
-0.262284
0.288544
0.112496
-0.332185
-0.653187
-0.861265
-1.299399
-1.861213
-2.205828
-2.475629
-2.878694
-3.316829
-3.667289
-3.933349
-4.078536
-3.994835
-3.639695
-3.044212
-2.403840
-1.853480
-1.373492
-1.172191
-1.232510
-1.379567
-1.993517
-3.162034
-4.341072
-5.114004
-5.383571
-5.609885
-6.073972
-6.099220
-5.253340
-3.896146
-2.427196
-1.018566
0.272698
1.341621
2.176278
2.798648
3.062840
3.085988
3.098848
2.960442
2.468768
1.522358
0.224551
-0.864008
-1.401974
-1.882660
-2.641798
-3.283570
-3.682894
-4.110975
-4.692662
-5.398962
-5.870529
-5.841069
-5.550224
-5.133362
-4.478027
