EVENT_NAME: 202302060117
EVENT_ID: 13194
EVENT_DATE_YYYYMMDD: 2023/02/06
EVENT_TIME_HHMMSS: 01:17:32.00000
EVENT_LATITUDE_DEGREE: 37.288
EVENT_LONGITUDE_DEGREE: 37.043
EVENT_DEPTH_KM: 8.6
HYPOCENTER_REFERENCE: AFAD
MAGNITUDE_W: 7.7
MAGNITUDE_W_REFERENCE: AFAD
MAGNITUDE_L: 
MAGNITUDE_L_REFERENCE: 
FOCAL_MECHANISM: 
NETWORK: TK
STATION_CODE: 6011
STATION_NAME: 
STATION_LATITUDE_DEGREE: 40.11287
STATION_LONGITUDE_DEGREE: 36.30716
STATION_ELEVATION_M: 1172.0
LOCATION: Kahramanmaras_Pazarck_Turkiye
SENSOR_DEPTH_M: 
VS30_M/S: None
SITE_CLASSIFICATION_EC8: unknown
MORPHOLOGIC_CLASSIFICATION: 
EPICENTRAL_DISTANCE_KM: 320.53
EARTHQUAKE_BACKAZIMUTH_DEGREE: 
DATE_TIME_FIRST_SAMPLE_YYYYMMDD_HHMMSS: 2023/02/06 01:18:04.7409610
DATE_TIME_FIRST_SAMPLE_PRECISION: millisecond
SAMPLING_INTERVAL_S: 0.01
NDATA: 18251
DURATION_S: 
STREAM: HNZ
UNITS: cm/s^2
INSTRUMENT: sensor = ACEBOX/SARA | digitizer = 
INSTRUMENT_ANALOG/DIGITAL: 
INSTRUMENTAL_FREQUENCY_HZ: 
INSTRUMENTAL_DAMPING: 
FULL_SCALE_G: 
N_BIT_DIGITAL_CONVERTER: 
PGA_CM/S^2: 3.257
TIME_PGA_S: 
BASELINE_CORRECTION: BASELINE REMOVED
FILTER_TYPE: BUTTERWORTH
FILTER_ORDER: 
LOW_CUT_FREQUENCY_HZ: 
HIGH_CUT_FREQUENCY_HZ: 
LATE/NORMAL_TRIGGERED: 
DATABASE_VERSION: 
HEADER_FORMAT: DYNA 1.2
DATA_TYPE: Acceleration
PROCESSING: Automatic Paolucci et al., 2011
DATA_TIMESTAMP_YYYYMMDD_HHMMSS: 
DATA_LICENSE: U (unknown license)
DATA_CITATION: Turkish Accelerometric Archive v 1.0 - Disaster And Emergency Management Presidency, Earthquake Department
DATA_CREATOR: AFAD
ORIGINAL_DATA_MEDIATOR_CITATION: : AFAD - Disaster And Emergency Management Presidency
ORIGINAL_DATA_MEDIATOR: AFAD PROCESS SERVICE
ORIGINAL_DATA_CREATOR_CITATION: AFAD PROCESS SERVICE
ORIGINAL_DATA_CREATOR: network: TK
USER1: GuestUser
USER2: 
USER3: 
USER4: 
USER5: 
[...]
-1.241427
-1.213838
-1.195368
-1.188354
-1.175028
-1.140192
-1.084548
-1.021656
-0.957829
-0.894938
-0.844437
-0.803289
-0.758400
-0.709536
-0.658101
-0.598950
-0.530213
-0.456801
-0.385492
-0.318626
-0.258540
-0.202195
-0.143746
-0.076879
-0.009546
0.051008
0.110393
0.166738
0.212095
0.245294
0.271246
0.283637
0.271480
0.235007
0.174688
0.092625
-0.004167
-0.115220
-0.231417
-0.340601
-0.433184
-0.515948
-0.599414
-0.677970
-0.750680
-0.822456
-0.897505
-0.979801
-1.057889
-1.124288
-1.175723
-1.212195
-1.250070
-1.297297
-1.351538
-1.412793
-1.479893
-1.549330
-1.619235
-1.681659
-1.734731
-1.790608
-1.845083
-1.882491
-1.897921
-1.884361
-1.851395
-1.810247
-1.751096
-1.687269
-1.632327
-1.581592
-1.544185
-1.520571
-1.505374
-1.505140
-1.521038
-1.554939
-1.601698
-1.647756
-1.686332
-1.712518
-1.726078
-1.731221
-1.722103
-1.694748
-1.658042
-1.618297
-1.570134
-1.511217
-1.447390
-1.370237
-1.281394
-1.202838
-1.134335
-1.071911
-1.016969
-0.957584
-0.897264
-0.843023
-0.790185
-0.730099
-0.658557
-0.596834
-0.548438
-0.500977
-0.464037
-0.428733
-0.381272
-0.328434
-0.273492
-0.226265
-0.185350
-0.137655
-0.079907
-0.013976
0.055929
0.126303
0.187324
0.233382
0.275933
0.320822
0.378337
0.453386
0.528435
0.608160
0.703315
0.797068
0.880300
0.961662
1.050505
1.162260
1.284302
1.395356
1.501033
1.594084
1.663522
1.717763
1.755872
1.775044
1.777382
1.773407
1.768498
1.760081
1.750028
1.732026
1.697190
1.658614
1.631026
1.613959
1.599230
1.583565
1.570005
1.559251
1.551068
1.538443
1.513894
1.487475
1.460355
1.419207
1.367304
1.315635
1.262095
1.207153
1.146600
1.074590
1.007725
0.952081
0.897139
0.848977
0.798243
0.732546
0.664745
0.603490
0.533819
0.436793
0.328311
0.228012
0.125609
0.027882
-0.067040
-0.168040
-0.251272
-0.310188
-0.344323
-0.351337
-0.346894
-0.334970
-0.323280
-0.308084
-0.281898
-0.259921
-0.233736
-0.206147
-0.201004
-0.206615
-0.218304
-0.244723
-0.280728
-0.320473
-0.356011
-0.381728
-0.401601
-0.419369
-0.438073
-0.461686
-0.498860
-0.556841
-0.629085
-0.697821
-0.751828
-0.787599
-0.799055
-0.796951
-0.800224
-0.798587
-0.785728
-0.768661
-0.748554
-0.729382
-0.708808
-0.685428
-0.671400
-0.668828
-0.669296
-0.668828
-0.677011
-0.698520
-0.726809
-0.755800
-0.774504
-0.775673
-0.766788
-0.752293
-0.742941
-0.740603
-0.729614
-0.702961
-0.660176
-0.594479
-0.495816
-0.373540
-0.247523
-0.118467
0.006615
0.120240
0.226384
0.324579
0.418098
0.506474
0.587602
0.656338
0.696785
0.719931
0.733492
0.726010
0.709177
0.696318
0.687902
0.683460
0.675277
0.660080
0.646520
0.644884
0.643247
0.629453
0.620569
0.617296
0.623141
0.642546
0.663588
0.695151
0.737001
0.771603
0.798724
0.817194
0.828650
0.832625
0.826546
0.816025
0.800829
0.776046
0.739340
0.693048
0.638106
0.569604
0.483800
0.369240
0.224286
0.075591
-0.054868
-0.173403
-0.290302
-0.398783
-0.494173
-0.572962
-0.638893
-0.702018
-0.749479
-0.770287
-0.778002
-0.785249
-0.793900
-0.800212
-0.798809
-0.779638
-0.743867
-0.708797
-0.678403
-0.651049
-0.630474
-0.611537
-0.584650
-0.540228
-0.475232
-0.405795
-0.343371
-0.279076
-0.216185
-0.165450
-0.125471
-0.106066
-0.101623
-0.099987
-0.112612
-0.133653
-0.164748
-0.211274
-0.260371
-0.317651
-0.378205
-0.436888
-0.494869
-0.535784
-0.569918
-0.603584
-0.621353
-0.629302
-0.631874
-0.626028
-0.612468
-0.586984
-0.547005
-0.508428
-0.487386
-0.467279
-0.439224
-0.410466
-0.383112
-0.367447
-0.355757
-0.337521
-0.334014
-0.345938
-0.366512
-0.408829
-0.461667
-0.519648
-0.586281
-0.634676
-0.668577
-0.704815
-0.735209
-0.769343
-0.802075
-0.810024
-0.798567
-0.768407
-0.720479
-0.662965
-0.587214
-0.498371
-0.406489
-0.305956
-0.203319
-0.100915
0.005930
0.102021
0.188292
0.275499
0.356159
0.435650
0.513505
0.575228
0.632040
0.686515
0.724624
0.754784
0.777697
0.791958
0.809259
0.821885
0.829366
0.843394
0.853214
0.848304
0.826327
0.795233
0.762735
0.717378
0.662904
0.608195
0.554890
0.517716
0.494336
0.474464
0.458799
0.449214
0.455059
0.471659
0.497377
0.529407
0.548578
0.560736
0.570088
0.567283
0.561672
0.546709
0.513977
0.464412
0.402222
0.333018
0.247683
0.145046
0.033525
-0.082673
-0.187414
-0.283037
-0.382868
-0.477088
-0.548162
-0.589077
-0.616898
-0.648695
-0.679322
-0.702234
-0.716963
-0.723743
-0.729354
-0.740576
-0.745953
-0.734965
-0.705273
-0.657344
-0.593985
-0.511688
-0.414428
-0.308284
-0.182267
-0.045963
0.089172
0.223138
0.330918
0.411111
0.477743
0.528244
0.566353
0.583654
0.584823
0.582485
0.570094
0.560041
0.542506
0.511645
0.489201
0.458807
0.417659
0.386330
0.351261
0.314087
0.284161
0.261951
0.255171
0.257509
0.270601
0.304268
0.357340
0.434961
0.525207
0.610777
0.694477
0.770928
0.827508
0.867253
0.896010
0.911441
0.918689
0.926171
0.927340
0.916118
0.894608
0.866085
0.829145
0.789868
0.761111
0.737731
0.715053
0.697284
0.680217
0.661747
0.636264
0.603766
0.583426
0.564021
0.523574
0.466761
0.401064
0.336069
0.279958
0.223613
0.171008
0.121444
0.053876
-0.026550
-0.103001
-0.175479
-0.237435
-0.293312
-0.365088
-0.452995
-0.544410
-0.642605
-0.745475
-0.853256
-0.970154
-1.086819
-1.189923
-1.272688
-1.332539
-1.378597
-1.416940
-1.450841
-1.488248
-1.521213
-1.553477
-1.597898
-1.643021
-1.679961
-1.708484
-1.725317
-1.737007
-1.736539
-1.705444
-1.652372
-1.593689
-1.526355
-1.453177
-1.378128
-1.302611
-1.238083
-1.171450
-1.095232
-1.030237
-0.964539
-0.900011
-0.855122
-0.821455
-0.800413
-0.783346
-0.764408
-0.749445
-0.723493
-0.694970
-0.671824
-0.650782
-0.638391
-0.616180
-0.580642
-0.542533
-0.502788
-0.476135
-0.454158
-0.429375
-0.412541
-0.391967
-0.362275
-0.331180
-0.295642
-0.251922
-0.201889
-0.153259
-0.104629
-0.044310
0.033779
0.127532
0.223856
0.312933
0.402478
0.490853
0.570110
0.643991
0.710623
0.763929
0.805545
0.840615
0.879893
0.931328
0.991882
1.068334
1.163489
1.260749
1.360347
1.461347
1.548554
1.617758
1.664985
1.694444
1.713849
1.716889
1.715720
1.722734
1.728579
1.731852
1.726241
1.706602
1.686028
1.667325
1.640672
1.606771
1.568896
1.528683
1.497822
1.473975
1.448959
1.427450
1.411318
1.401732
1.404304
1.416228
1.415994
1.395420
1.373210
1.345855
1.309383
1.279925
1.253038
1.231997
1.226152
1.233633
1.259117
1.290680
1.312424
1.319905
1.314528
1.309385
1.300968
1.278757
1.244623
1.198331
1.144558
1.082836
1.022282
0.970380
0.910060
0.849740
0.799942
0.748273
0.709696
0.685381
0.660599
0.644467
0.641896
0.657560
0.683979
0.713905
0.759028
0.807191
0.847872
0.890657
0.927363
0.956120
0.984410
1.008491
1.028832
1.054549
1.087047
1.114869
1.126092
1.129599
1.138249
1.143627
1.138951
1.130067
1.119079
1.098738
1.062266
1.028599
1.021819
1.037250
1.075125
1.135211
1.196233
1.252812
1.302611
1.336278
1.365269
1.395896
1.427225
1.465100
1.503911
1.531967
1.557451
1.580597
1.594391
1.611225
1.621512
1.604912
1.585507
1.578026
1.574051
1.568440
1.558621
1.557686
1.568908
1.577793
1.580365
1.575923
1.560258
1.534775
1.503212
1.471416
1.442425
1.418344
1.402212
1.381171
1.341425
1.293731
1.243932
1.189224
1.134048
1.072559
1.002186
0.924098
0.838528
0.747347
0.645412
0.543009
0.450659
0.366258
0.293548
0.211251
0.116563
0.030526
-0.057615
-0.138743
-0.198127
-0.247692
-0.294451
-0.349627
-0.410415
-0.463253
-0.510012
-0.555135
-0.608207
-0.667825
-0.731418
-0.803661
-0.874969
-0.947680
-1.017819
-1.071358
-1.111571
-1.128872
-1.112974
-1.075566
-1.015947
-0.937391
-0.851354
-0.750821
-0.637429
-0.527077
-0.418829
-0.315022
-0.223608
-0.140609
-0.072574
-0.020905
0.018139
0.036376
0.039649
0.033337
0.017438
0.010658
0.014399
0.013698
0.008788
-0.006174
-0.040309
-0.087302
-0.132892
-0.175443
-0.220332
-0.261013
-0.298654
-0.337698
-0.364584
-0.370195
-0.349855
-0.307070
-0.254699
-0.189703
-0.106004
-0.008277
0.102310
0.217806
0.334003
0.453474
0.573646
0.688440
0.794117
0.887636
0.976011
1.069530
1.161880
1.246983
1.325071
1.389833
1.443606
1.491535
1.539230
1.589964
1.629242
1.661974
1.696576
1.719722
1.742868
1.765313
1.768352
1.773262
1.777003
1.759702
1.735387
1.701487
1.646778
1.576639
1.494810
1.406435
1.309176
1.206539
1.110448
1.019735
0.933464
0.845089
0.757181
0.679327
0.604979
0.534139
0.463065
0.388016
0.305018
0.203316
0.097874
-0.009439
-0.126338
-0.234118
-0.336755
-0.438690
-0.525429
-0.602582
-0.664538
-0.710128
-0.752913
-0.791022
-0.822585
-0.847601
-0.872617
-0.905816
-0.939249
-0.966603
-0.983904
-0.987177
-0.986943
-0.994191
-0.995126
-0.976656
-0.944391
-0.894359
-0.829597
-0.755015
-0.666874
-0.580135
-0.493162
-0.394733
-0.302149
-0.216112
-0.136854
-0.079574
-0.043803
-0.027904
-0.022995
-0.026501
-0.046140
-0.074430
-0.114876
-0.165376
-0.207927
-0.239958
-0.262636
-0.287652
-0.319682
-0.344464
-0.368312
-0.399640
-0.426994
-0.451543
-0.478663
-0.506719
-0.533839
-0.556050
-0.575221
-0.600003
-0.632267
-0.663362
-0.692821
-0.729994
-0.764830
-0.788210
-0.801770
-0.795223
-0.775818
-0.761790
-0.747528
-0.729993
-0.715030
-0.703574
-0.690715
-0.665932
-0.633902
-0.603742
-0.574517
-0.547397
-0.518873
-0.491285
-0.474919
-0.462761
-0.454578
-0.460891
-0.484504
-0.527523
-0.580361
-0.635537
-0.694454
-0.749162
-0.792648
-0.834732
-0.876581
-0.913053
-0.946720
-0.975711
-0.992310
-1.005169
-1.023639
-1.050292
-1.091907
-1.139368
-1.179581
-1.215820
-1.239667
-1.248551
-1.257435
-1.263747
-1.272398
-1.285257
-1.285256
-1.286893
-1.297180
-1.296946
-1.290166
-1.285957
-1.281047
-1.280112
-1.292737
-1.325235
-1.368955
-1.417117
-1.468084
-1.517415
-1.565110
-1.609298
-1.644367
-1.671955
-1.696270
-1.714038
-1.732040
-1.756121
-1.769214
-1.772955
-1.779033
-1.772253
-1.760563
-1.746535
-1.719181
-1.693697
-1.667277
-1.632909
-1.599710
-1.567913
-1.542429
-1.524193
-1.513906
-1.514841
-1.515542
-1.516711
-1.523023
-1.531440
-1.538220
-1.532141
-1.526763
-1.531673
-1.532842
-1.533309
-1.534478
-1.528633
-1.524425
-1.522320
-1.517410
-1.507123
-1.489588
-1.476963
-1.473924
-1.468780
-1.460363
-1.452882
-1.436749
-1.409863
-1.383677
-1.352582
-1.314940
-1.283144
-1.254153
-1.233345
-1.229838
-1.233578
-1.231708
-1.227266
-1.241761
-1.276830
-1.305821
-1.321018
-1.335981
-1.356087
-1.377363
-1.401911
-1.421316
-1.431603
-1.447267
-1.459191
-1.460827
-1.474621
-1.507820
-1.555047
-1.610223
-1.663061
-1.717068
-1.775751
-1.834902
-1.895923
-1.950631
-1.990611
-2.034097
-2.078986
-2.111250
-2.139305
-2.165724
-2.197988
-2.235162
-2.266958
-2.293143
-2.303664
-2.306002
-2.311613
-2.312548
-2.315587
-2.312080
-2.310443
-2.340603
-2.378244
-2.413080
-2.453760
-2.482284
-2.500052
-2.501221
-2.488596
-2.479010
-2.457500
-2.425470
-2.394375
-2.354162
-2.310909
-2.264149
-2.203362
-2.131820
-2.050225
-1.958342
-1.861550
-1.760783
-1.659549
-1.562990
-1.461990
-1.347195
-1.223750
-1.104981
-0.992291
-0.881237
-0.777197
-0.683444
-0.604187
-0.545036
-0.482846
-0.408966
-0.341632
-0.274064
-0.199483
-0.120459
-0.029746
0.071489
0.180906
0.296168
0.409326
0.527861
0.644526
0.745995
0.832967
0.901704
0.954542
0.992184
1.014628
1.038242
1.065596
1.087106
1.099731
1.099030
1.091081
1.074715
1.041750
1.001069
0.951738
0.896328
0.840918
0.774286
0.693860
0.610395
0.527631
0.442061
0.343632
0.235618
0.126669
0.017252
-0.097543
-0.213272
-0.324559
-0.432574
-0.536847
-0.634808
-0.725287
-0.801739
-0.866968
-0.936874
-1.012624
-1.089309
-1.175814
-1.272840
-1.370333
-1.468060
-1.565086
-1.660943
-1.753994
-1.830679
-1.890531
-1.941031
-1.987557
-2.041096
-2.089492
-2.117548
-2.138823
-2.153552
-2.166645
-2.197740
-2.233510
-2.257358
-2.281439
-2.304117
-2.314170
-2.320015
-2.323989
-2.314170
-2.297336
-2.276294
-2.237250
-2.190958
-2.150745
-2.110064
-2.070552
-2.021221
-1.949445
-1.882345
-1.831377
-1.782981
-1.735286
-1.674499
-1.604359
-1.537961
-1.452858
-1.344844
-1.227010
-1.100058
-0.972638
-0.845686
-0.724345
-0.619136
-0.516499
-0.415031
-0.324084
-0.244826
-0.170011
-0.088650
-0.002378
0.085296
0.175542
0.259709
0.339200
0.427576
0.522264
0.613678
0.703924
0.789027
0.863374
0.935384
0.993366
1.028903
1.048308
1.054153
1.050880
1.035684
1.016045
0.997809
0.972559
0.946374
0.916682
0.879040
0.832047
0.771260
0.726605
0.703927
0.676339
0.650855
0.635425
0.641503
0.663013
0.656934
0.631450
0.623268
0.618592
0.591939
0.544478
0.503330
0.475041
0.434594
0.385731
0.349492
0.322839
0.290108
0.255740
0.239608
0.232828
0.220671
0.216462
0.229088
0.254805
0.285667
0.331024
0.398591
0.467094
0.541441
0.639403
0.750456
0.868992
0.992437
1.120558
1.251485
1.371656
1.479437
1.582074
1.691024
1.803481
1.902844
1.998234
2.089649
2.170075
2.251437
2.326486
2.386104
2.435903
2.466297
2.478922
2.495054
2.515862
2.535268
2.557712
2.580157
2.600731
2.619435
2.627384
2.624813
2.618033
2.609382
2.599563
2.587406
2.580392
2.578989
2.576418
2.576885
2.568936
2.543686
2.528490
2.525217
2.517501
2.524048
2.549064
2.579926
2.625984
2.681862
2.741246
2.806008
2.869134
2.940442
3.014322
3.073239
3.122337
3.158108
3.188501
3.221467
3.242743
3.256069
3.257472
3.238769
3.216324
3.190373
3.165357
3.142211
3.100361
3.040977
2.970136
2.894854
2.823780
2.741249
2.649601
2.566369
2.491554
2.422584
2.362498
2.317843
2.291658
2.289788
2.306387
2.323455
2.340990
2.361564
2.371851
2.368812
2.358759
2.342627
2.315974
2.279970
2.236016
2.192530
2.167981
2.154655
2.135717
2.123092
2.124028
2.130808
2.144368
2.150681
2.137121
2.127301
2.110468
2.070723
2.026535
1.965982
1.890699
1.816118
1.721898
1.630483
1.564319
1.495349
1.418430
1.342679
1.274177
1.214091
1.162656
1.128054
1.094621
1.063059
1.037575
0.994089
0.939380
0.875554
0.800973
0.733171
0.657655
0.576294
0.494231
0.395569
0.296673
0.207128
0.125066
0.056563
-0.011472
-0.070856
-0.109666
-0.135150
-0.147307
-0.146840
-0.135617
-0.111536
-0.074596
-0.032746
0.003259
0.035055
0.067553
0.108234
0.165047
0.229341
0.295506
0.367048
0.440695
0.510600
0.571855
0.617913
0.650645
0.676129
0.694833
0.711433
0.732241
0.750243
0.758426
0.757491
0.750010
0.738554
0.726630
0.722656
0.731307
0.744633
0.750712
0.745569
0.746738
0.758895
0.758895
0.744166
0.715176
0.666312
0.610201
0.547076
0.473196
0.401420
0.333853
0.267922
0.203628
0.140971
0.086262
0.031554
-0.023622
-0.065706
-0.099840
-0.134442
-0.168342
-0.205516
-0.240118
-0.270979
-0.303710
-0.327090
-0.341819
-0.358418
-0.372446
-0.383902
-0.392552
-0.399800
-0.413828
-0.432298
-0.456846
-0.489811
-0.527687
-0.568601
-0.608346
-0.649728
-0.695786
-0.738103
-0.775043
-0.808009
-0.843312
-0.887266
-0.925842
-0.952261
-0.981953
-1.022400
-1.070094
-1.129479
-1.197981
-1.270224
-1.344806
-1.414477
-1.474095
-1.513139
-1.530440
-1.543533
-1.543299
-1.520386
-1.489525
-1.447675
-1.383381
-1.300617
-1.209202
-1.104694
-0.986626
-0.869026
-0.751192
-0.631956
-0.519967
-0.413822
-0.313991
-0.223979
-0.148696
-0.092585
-0.052371
-0.029693
-0.022679
-0.028056
-0.052137
-0.093519
-0.138408
-0.183998
-0.225614
-0.254371
-0.277049
-0.283595
-0.256241
-0.209248
-0.148928
-0.071775
0.010756
0.104509
0.212056
0.322408
0.432994
0.538905
0.631021
0.706070
0.768962
0.821332
0.863884
0.901759
0.921164
0.912514
0.880016
0.825308
0.754467
0.667027
0.559247
0.436270
0.300433
0.158285
0.019409
-0.120869
-0.260913
-0.384826
-0.493541
-0.601556
-0.706297
-0.800751
-0.880709
-0.942431
-0.993867
-1.043198
-1.083645
-1.107959
-1.130871
-1.151913
-1.161265
-1.169681
-1.167109
-1.146535
-1.132741
-1.120116
-1.097671
-1.082708
-1.072421
-1.069615
-1.088085
-1.121284
-1.168745
-1.238884
-1.321414
-1.409088
-1.503776
-1.599632
-1.688008
-1.767966
-1.843716
-1.915960
-1.987268
-2.059745
-2.127780
-2.190671
-2.256368
-2.330014
-2.407167
-2.487125
-2.569889
-2.649614
-2.731209
-2.813506
-2.889957
-2.968046
-3.038418
-3.094062
-3.142224
-3.172618
-3.182905
-3.184307
-3.183138
-3.176124
-3.145496
-3.094762
-3.040989
-2.986046
-2.932740
-2.875694
-2.810230
-2.741728
-2.671355
-2.603787
-2.537388
-2.470756
-2.411138
-2.354792
-2.297044
-2.229944
-2.151856
-2.067923
-1.975806
-1.876910
-1.771701
-1.659478
-1.550762
-1.455139
-1.378454
-1.319069
-1.272309
-1.242383
-1.228121
-1.219705
-1.209651
-1.191883
-1.178322
-1.181361
-1.182296
-1.177387
-1.178555
-1.170139
-1.153071
-1.136238
-1.108650
-1.082230
-1.056746
-1.009987
-0.953174
-0.895426
-0.831365
-0.770344
-0.717739
-0.670980
-0.624454
-0.576292
-0.535377
-0.499372
-0.457289
-0.420816
-0.395332
-0.371718
-0.352781
-0.337116
-0.320984
-0.312333
-0.306255
-0.304618
-0.319347
-0.333375
-0.335011
-0.338985
-0.344363
-0.341089
-0.330101
-0.313735
-0.292927
-0.269313
-0.241024
-0.210162
-0.189354
-0.177898
-0.165273
-0.158492
-0.152647
-0.143763
-0.136281
-0.124591
-0.110563
-0.099107
-0.090457
-0.082040
-0.071519
-0.067310
-0.076194
-0.092794
-0.123187
-0.168544
-0.214602
-0.260426
-0.300639
-0.325188
-0.342956
-0.365167
-0.386442
-0.400002
-0.410289
-0.423382
-0.431097
-0.433435
-0.441851
-0.451671
-0.468504
-0.498196
-0.522745
-0.541682
-0.560386
-0.577920
-0.600599
-0.619302
-0.631693
-0.652267
-0.676348
-0.698325
-0.721237
-0.743448
-0.763788
-0.777348
-0.786466
-0.790908
-0.779452
-0.757241
-0.730354
-0.694817
-0.653902
-0.609247
-0.562253
-0.509649
-0.450498
-0.393685
-0.339210
-0.291282
-0.257381
-0.225117
-0.190982
-0.158952
-0.124116
-0.088813
-0.050937
-0.009321
0.031593
0.073677
0.119969
0.174210
0.231958
0.281523
0.325243
0.368262
0.408709
0.449858
0.486330
0.515555
0.545949
0.575641
0.604398
0.635727
0.663549
0.688098
0.712881
0.734858
0.753328
0.766655
0.779747
0.795646
0.803361
0.797049
0.780216
0.756602
0.729014
0.697686
0.666123
0.640405
0.621936
0.604635
0.589906
0.584061
0.572371
0.554603
0.542679
0.529353
0.511584
0.489140
0.462020
0.437237
0.404038
0.357045
0.312624
0.270306
0.223547
0.188244
0.168371
0.157149
0.165332
0.188244
0.218872
0.258618
0.294856
0.330394
0.373412
0.419704
0.473712
0.533798
0.594118
0.659113
0.721537
0.771804
0.817628
0.860413
0.892444
0.920266
0.948789
0.972870
0.991808
1.009811
1.032489
1.059376
1.087899
1.115955
1.137464
1.159208
1.188900
1.225840
1.265352
1.300422
1.339934
1.381082
1.416853
1.468756
1.527440
1.578174
1.638260
1.704425
1.773862
1.851717
1.918349
1.973292
2.027299
2.067279
2.089490
2.103751
2.111700
2.108661
2.091127
2.068215
2.046705
2.019819
1.986620
1.954356
1.927235
1.906661
1.889127
1.877203
1.875801
1.882347
1.893102
1.906662
1.925600
1.952019
1.977971
1.996207
2.013041
2.037823
2.062138
2.074530
2.077102
2.068685
2.049514
2.029174
2.003924
1.971893
1.939863
1.903625
1.858970
1.814315
1.767322
1.720095
1.681518
1.641305
1.595013
1.551060
1.507340
