EVENT_NAME: 202302060117
EVENT_ID: 13194
EVENT_DATE_YYYYMMDD: 2023/02/06
EVENT_TIME_HHMMSS: 01:17:32.00000
EVENT_LATITUDE_DEGREE: 37.288
EVENT_LONGITUDE_DEGREE: 37.043
EVENT_DEPTH_KM: 8.6
HYPOCENTER_REFERENCE: AFAD
MAGNITUDE_W: 7.7
MAGNITUDE_W_REFERENCE: AFAD
MAGNITUDE_L: 
MAGNITUDE_L_REFERENCE: 
FOCAL_MECHANISM: 
NETWORK: TK
STATION_CODE: 6306
STATION_NAME: 
STATION_LATITUDE_DEGREE: 36.727695
STATION_LONGITUDE_DEGREE: 38.947
STATION_ELEVATION_M: 362.0
LOCATION: Kahramanmaras_Pazarck_Turkiye
SENSOR_DEPTH_M: 
VS30_M/S: None
SITE_CLASSIFICATION_EC8: unknown
MORPHOLOGIC_CLASSIFICATION: 
EPICENTRAL_DISTANCE_KM: 180.18
EARTHQUAKE_BACKAZIMUTH_DEGREE: 
DATE_TIME_FIRST_SAMPLE_YYYYMMDD_HHMMSS: 2023/02/06 01:17:43.0781870
DATE_TIME_FIRST_SAMPLE_PRECISION: millisecond
SAMPLING_INTERVAL_S: 0.005
NDATA: 27001
DURATION_S: 
STREAM: HNN
UNITS: cm/s^2
INSTRUMENT: sensor = GEO-A200,/GEObit | digitizer = 
INSTRUMENT_ANALOG/DIGITAL: 
INSTRUMENTAL_FREQUENCY_HZ: 
INSTRUMENTAL_DAMPING: 
FULL_SCALE_G: 
N_BIT_DIGITAL_CONVERTER: 
PGA_CM/S^2: 65.897
TIME_PGA_S: 
BASELINE_CORRECTION: BASELINE REMOVED
FILTER_TYPE: BUTTERWORTH
FILTER_ORDER: 
LOW_CUT_FREQUENCY_HZ: 
HIGH_CUT_FREQUENCY_HZ: 
LATE/NORMAL_TRIGGERED: 
DATABASE_VERSION: 
HEADER_FORMAT: DYNA 1.2
DATA_TYPE: Acceleration
PROCESSING: Automatic Paolucci et al., 2011
DATA_TIMESTAMP_YYYYMMDD_HHMMSS: 
DATA_LICENSE: U (unknown license)
DATA_CITATION: Turkish Accelerometric Archive v 1.0 - Disaster And Emergency Management Presidency, Earthquake Department
DATA_CREATOR: AFAD
ORIGINAL_DATA_MEDIATOR_CITATION: : AFAD - Disaster And Emergency Management Presidency
ORIGINAL_DATA_MEDIATOR: AFAD PROCESS SERVICE
ORIGINAL_DATA_CREATOR_CITATION: AFAD PROCESS SERVICE
ORIGINAL_DATA_CREATOR: network: TK
USER1: GuestUser
USER2: 
USER3: 
USER4: 
USER5: 
[...]
0.076072
1.496335
3.114818
4.588049
5.711688
6.798602
8.166838
10.104781
12.331344
14.525419
16.231477
17.425034
18.065364
17.614305
16.303978
13.823634
10.164091
6.424035
3.070062
0.737088
-0.318989
-0.836200
-1.493248
-3.133157
-5.923780
-9.401817
-12.895392
-15.572073
-17.339578
-17.779808
-16.724910
-14.736353
-12.373720
-10.457671
-9.230449
-8.259360
-7.580657
-6.766591
-5.212376
-3.357535
-0.703457
2.277614
5.001375
7.531624
8.894446
9.024394
7.564813
5.192995
2.374358
-0.566224
-2.820570
-4.543581
-4.740861
-3.135090
0.466302
5.645922
11.085207
15.758448
18.646294
19.711550
19.022485
17.081244
14.415156
11.579804
8.994700
6.654192
4.743790
2.688842
0.329973
-2.086810
-4.475106
-6.048628
-6.575726
-6.025796
-4.512073
-3.131831
-2.498093
-2.673009
-3.432698
-3.938137
-3.851035
-3.493675
-3.244607
-3.345367
-3.291929
-2.547310
-1.434736
-0.454465
0.231065
0.767105
1.590824
2.774494
3.705562
4.041028
3.580553
2.547075
1.853067
1.984663
2.938803
4.237120
5.406900
6.134099
6.250392
5.573805
3.745328
0.845707
-2.916242
-6.584024
-9.132404
-10.270877
-10.129158
-9.227988
-7.723681
-5.593875
-2.950155
-0.466989
1.163265
1.587248
1.007887
0.268444
-0.065848
0.697133
2.584226
5.013011
7.385767
9.019788
9.705317
9.246255
7.784791
5.267015
1.954475
-0.977633
-2.712179
-2.171666
0.716416
4.643624
8.292570
10.497003
11.033044
10.396477
9.291433
8.132243
7.015428
5.907323
4.828881
3.856847
3.065141
2.802886
3.192498
4.331674
6.147200
8.538319
11.226532
13.485818
15.046153
15.719677
15.426111
14.149920
11.740435
8.652247
5.680354
3.624935
2.926925
3.575965
5.457173
7.475628
8.921316
9.858505
9.820601
9.277260
8.435646
7.198533
6.287707
5.721295
5.572510
5.797095
5.981660
6.186705
6.572551
6.974639
6.960277
6.139851
3.911402
0.371685
-3.980452
-8.646163
-12.685902
-15.660150
-17.583735
-19.087103
-20.899102
-23.349548
-26.405014
-29.115831
-30.726078
-30.755977
-29.065928
-26.389956
-23.402529
-20.904767
-19.191411
-17.795160
-16.553107
-15.232661
-13.862071
-12.692761
-11.584424
-10.420529
-9.094197
-7.830486
-6.816551
-5.811091
-4.792448
-3.265777
-1.315828
0.318899
1.745989
2.696126
3.589999
4.859125
5.803377
6.290686
5.891419
4.413947
2.001166
-1.330207
-5.213866
-9.708665
-14.603435
-19.374848
-23.706739
-27.526601
-31.179552
-34.981522
-38.831987
-42.370997
-45.150791
-46.772102
-47.179609
-46.525154
-45.318414
-43.812930
-42.309095
-41.076929
-39.634066
-38.302320
-37.209049
-36.256087
-35.937100
-36.019262
-36.259153
-36.596270
-36.950102
-37.224599
-37.273567
-36.661958
-34.817946
-31.659371
-27.442838
-22.918379
-18.644639
-14.887873
-11.571805
-8.726334
-6.944472
-6.709764
-8.087891
-10.455235
-13.022448
-14.807374
-15.428874
-15.108474
-13.885725
-11.982389
-9.255567
-6.021895
-2.654506
0.701347
3.708549
6.755065
9.916465
13.181447
16.355089
18.715132
20.099612
20.934866
21.746343
22.989338
24.552498
25.740170
26.297634
25.629286
23.637901
20.921434
17.334164
13.048179
8.967006
5.274504
1.973029
-0.126412
-1.737366
-2.834877
-3.246621
-3.935685
-4.288340
-4.862286
-5.109239
-4.843456
-5.428466
-6.835314
-9.910319
-13.587518
-16.279266
-17.378896
-16.175686
-13.446511
-10.194947
-7.705189
-6.429472
-6.486208
-8.377778
-11.539887
-15.505235
-19.328157
-22.110775
-23.713489
-24.226462
-24.509434
-25.070432
-26.124626
-27.662600
-29.258016
-30.913934
-32.711572
-35.199450
-38.603566
-42.501821
-46.445747
-49.521223
-51.286844
-51.377481
-49.960514
-47.353048
-43.398297
-38.393355
-32.286195
-25.456544
-18.598407
-12.307858
-7.288556
-3.252351
-0.231259
1.329547
1.798494
1.005611
-0.975651
-3.583826
-6.847635
-10.194075
-13.243420
-16.357740
-18.583835
-19.093277
-18.462834
-16.963942
-15.655031
-15.219042
-15.055901
-14.863332
-13.748639
-11.817524
-9.421461
-6.829298
-4.963392
-3.948045
-4.808727
-7.867018
-12.785330
-18.924981
-24.494218
-28.572566
-30.214830
-29.462913
-27.402318
-24.428781
-21.449829
-18.614716
-15.394698
-12.127832
-8.202978
-3.650270
0.958467
5.356036
8.458346
10.403586
11.493796
12.184740
12.999042
13.659853
14.610932
15.630988
16.734381
18.189721
19.511345
20.960799
22.292075
23.230441
23.492929
22.749012
21.202092
18.822506
16.075906
13.039509
9.979571
7.409768
5.183202
3.824144
3.203115
2.681902
2.180229
1.021745
-0.740345
-2.816245
-4.933342
-6.652351
-8.377246
-9.545382
-9.732539
-8.945074
-6.850580
-4.748081
-3.514268
-2.984584
-2.994944
-2.234316
-0.640552
1.321639
3.179305
4.116023
4.646649
4.823916
4.978111
5.171857
5.041906
4.603560
3.729458
2.794620
1.860958
0.840193
-0.558886
-2.555450
-5.204823
-8.356339
-11.512798
-14.612993
-17.047666
-18.546562
-19.300130
-19.181246
-18.746435
-18.129647
-17.674118
-17.821490
-18.313276
-18.900170
-18.866507
-17.914251
-16.065060
-13.987751
-12.497805
-11.606993
-11.731529
-12.483450
-13.144499
-13.218422
-11.898681
-9.181512
-5.138479
-0.188625
5.098346
10.383197
15.094811
19.404099
23.390632
27.072771
30.387662
32.411296
32.491807
30.403195
26.512473
21.231620
14.895633
8.038905
0.569861
-6.810432
-12.582127
-15.915148
-16.396340
-14.677334
-12.445357
-10.226328
-8.296625
-6.590802
-4.356235
-2.148741
-0.174780
1.175800
1.543282
1.178151
-0.025298
-1.324089
-2.298948
-2.321315
-1.006047
1.156012
3.908258
6.674865
9.512332
12.380168
14.952321
17.092251
18.528051
19.557995
19.867565
19.018182
16.775373
12.725275
7.791660
2.919725
-1.160742
-3.704178
-5.160698
-5.982537
-6.520464
-7.520513
-9.099214
-11.081183
-13.477249
-15.607529
-17.046864
-18.018899
-18.664411
-19.291796
-19.785465
-19.748271
-18.936794
-17.628589
-16.572044
-16.356404
-17.223914
-18.691734
-20.185215
-21.278253
-22.004513
-22.439799
-22.217803
-21.067327
-18.778850
-15.972693
-13.098972
-10.318240
-7.683937
-4.900615
-1.959094
1.363330
4.708589
7.626098
9.662444
10.491813
10.423776
9.885849
9.576040
9.807923
10.662482
11.537756
11.642986
10.114664
6.603197
1.869451
-3.405517
-7.794849
-10.425389
-11.265355
-10.592538
-9.125192
-6.895333
-3.781017
0.036723
3.994064
7.143457
8.796311
8.849513
7.597805
5.906810
4.399204
2.802612
0.827941
-1.837912
-4.939283
-7.748504
-9.903268
-11.224895
-11.860755
-11.568135
-10.086899
-7.512627
-4.126170
-1.067176
0.919733
1.671415
1.445649
1.004949
0.757760
0.800369
0.973398
1.034840
0.660527
-0.115171
-1.510954
-3.505635
-5.868036
-8.514113
-10.623442
-12.159298
-12.656733
-11.651979
-9.772420
-7.577874
-6.097815
-5.671949
-5.937971
-6.450238
-6.602083
-6.293925
-5.685847
-5.151690
-5.255510
-6.163511
-8.096984
-11.265450
-15.247513
-19.668862
-24.030886
-27.547532
-29.837896
-30.869725
-31.017333
-30.751550
-29.857206
-28.174219
-25.643970
-22.234913
-18.727452
-15.755091
-13.789605
-13.182233
-13.594213
-14.647466
-15.799829
-16.173671
-15.288273
-13.469451
-11.349767
-9.426891
-8.090907
-7.255888
-6.741741
-6.348598
-5.737225
-5.072647
-4.595225
-4.410896
-4.243046
-3.573760
-2.212351
-0.367868
1.675541
4.059832
7.194629
11.655996
17.551752
24.430841
31.304515
37.063965
41.147960
43.343919
43.878782
42.790923
40.281152
36.776748
32.829056
29.030146
25.550932
22.689920
20.436516
18.709974
17.297476
15.730310
13.866756
12.115966
11.080369
11.475866
13.767639
17.373975
21.982476
26.505287
29.898100
32.127959
32.425993
31.501042
30.318546
29.498826
30.215431
32.079688
34.561442
37.086041
38.833532
39.651837
39.647833
38.632247
36.222762
33.268055
30.062394
26.567406
23.180475
19.294933
14.911485
10.257310
5.732613
2.076366
-0.614205
-2.059896
-2.521784
-2.209860
-1.060090
0.387952
1.786793
2.733634
2.962692
2.627223
1.933685
0.576511
-1.655705
-4.843239
-8.908404
-13.035954
-16.621341
-18.671345
-18.740088
-17.166805
-14.309092
-10.838121
-6.959879
-3.092938
0.529877
3.548143
5.578134
6.918120
7.646966
8.074244
7.781385
6.233523
3.111435
-1.307560
-5.885932
-10.425931
-14.152332
-17.081144
-19.251681
-20.016784
-19.872947
-18.592050
-16.929073
-15.441952
-14.048762
-13.092975
-11.801955
-10.298120
-9.047356
-8.294498
-8.055317
-7.766227
-7.084229
-5.907622
-4.758793
-4.096099
-4.307269
-5.589346
-7.955043
-11.118093
-14.288442
-17.141215
-19.334822
-20.794874
-21.417315
-20.780752
-19.059628
-16.321742
-12.758252
-8.500755
-3.520061
1.575987
6.391184
10.669868
14.191454
16.897559
18.970395
20.926700
22.770476
24.238058
25.113568
25.393711
25.705165
26.705681
28.326754
30.071656
31.506514
32.260786
32.262432
31.957566
31.707553
31.700489
31.814193
31.723556
31.610790
31.084399
29.750295
27.696524
24.741345
21.300033
17.743602
14.144796
11.054725
8.923502
7.302661
5.604369
3.499042
0.738317
-2.050187
-4.077826
-4.783840
-3.893263
-1.698482
1.558732
5.395775
9.254948
13.108235
16.299297
18.208754
18.915471
18.124943
16.704441
15.616347
14.828879
14.467749
14.337327
14.389352
14.517887
14.551079
14.356153
13.680979
12.802640
12.016584
11.536569
11.442637
11.130238
10.233772
9.008195
7.584162
6.327510
5.305568
4.389092
3.618338
2.312955
0.228109
-2.558041
-6.144134
-10.109953
-14.201014
-17.766626
-19.376167
-18.858959
-16.543880
-13.019940
-9.763668
-7.226827
-5.527596
-4.495299
-3.717957
-3.031250
-1.829689
-0.114920
1.854804
4.277703
6.615618
8.549794
10.217479
11.131833
11.738969
12.436034
13.119680
13.787318
13.623232
12.221799
9.382680
5.368836
0.960670
-3.479041
-7.211799
-9.600802
-10.376028
-9.529239
-7.267834
-4.143866
-0.718565
2.584555
5.124221
6.520707
6.744821
6.116494
4.904571
3.421213
1.728100
-0.154523
-2.209471
-4.173313
-5.758370
-7.225955
-8.481430
-9.964082
-11.362925
-11.959236
-11.375406
-9.047849
-5.721188
-2.113204
1.064910
2.979076
3.450141
2.350982
0.335114
-1.544214
-2.621008
-2.722710
-2.542853
-2.593234
-3.071130
-4.079654
-5.020613
-5.399870
-5.145622
-4.067419
-2.388905
-0.816092
0.603700
1.837043
2.577189
2.846738
2.419221
1.512397
0.569084
-0.142580
-0.256994
0.143918
1.137136
2.396374
3.755429
5.578253
7.799402
10.483613
13.323670
15.732680
17.348809
17.932403
17.607292
16.897747
16.172664
15.828719
15.685114
15.125764
13.990351
12.128915
10.096567
8.692780
8.235836
8.486082
8.945141
9.128999
8.805772
8.321048
7.681892
7.076872
6.985999
7.190810
7.189866
6.825676
5.791963
3.902042
1.705609
-1.019568
-4.302446
-7.477267
-10.528731
-12.570966
-12.981062
-12.181827
-10.595125
-9.362253
-8.996183
-9.204292
-9.708084
-10.032489
-10.074159
-10.016248
-9.640997
-8.395648
-6.176148
-2.998740
0.664095
4.132242
7.525055
11.069477
14.875916
18.857976
22.268916
24.754907
26.391518
27.091408
27.382380
27.083871
26.070639
24.485111
22.064797
19.243100
16.058155
12.843077
10.190409
8.575924
8.145347
8.648193
9.773480
10.563064
10.729972
9.984879
8.475625
6.980261
5.249010
3.420533
1.286485
-1.463175
-4.168106
-6.796056
-8.858538
-9.570437
-9.241563
-8.140995
-6.481784
-5.153569
-4.658726
-5.380043
-8.030593
-11.897067
-16.164218
-20.027632
-22.372847
-22.807662
-20.912801
-17.268328
-12.472435
-7.497626
-3.189044
0.424589
2.874326
4.261866
4.117555
2.505189
0.074282
-2.237034
-3.373624
-3.464025
-2.847237
-2.223857
-1.593179
-1.031479
-0.699544
-0.384559
-0.298869
0.145830
1.223327
2.772363
4.552812
5.937527
6.327375
5.713408
4.779040
3.987570
3.805592
3.916942
3.767687
3.381603
3.082623
3.203154
3.412908
3.136528
1.538287
-1.122621
-3.977277
-6.265522
-7.083594
-7.136329
-7.412003
-8.386627
-10.115994
-11.534848
-11.699170
-10.499256
-8.473503
-6.259182
-4.224248
-2.534905
-1.266721
-0.662880
-1.298034
-3.078958
-5.245022
-7.175670
-8.450214
-9.080660
-9.472629
-10.303413
-11.645992
-13.331337
-15.031278
-16.303938
-16.742284
-15.564971
-12.630983
-8.181623
-3.015891
1.578250
4.951759
6.810367
7.566286
8.729945
11.361659
15.672359
20.886821
25.766758
29.709738
32.188902
33.475920
33.687557
32.776496
31.043126
28.675310
26.856249
26.135875
26.575630
27.933273
29.292798
30.611832
31.425899
31.463329
30.621009
28.382907
25.104032
21.501930
18.595718
16.832686
15.953877
15.342735
14.382943
12.840260
10.833102
8.399134
5.164046
1.187633
-3.678417
-8.712083
-12.454728
-14.389849
-14.524508
-13.560482
-12.206841
-11.150532
-10.337171
-9.036264
-7.406481
-5.077512
-2.050064
1.245522
4.967212
9.126540
13.307761
16.960709
20.281015
22.896249
24.935656
26.831224
28.437230
30.204496
32.003073
33.870861
35.410716
35.921802
35.297242
33.434629
30.958757
28.209568
25.650359
23.397191
21.103767
18.687456
15.754642
12.660097
9.929976
7.800637
6.328815
5.191518
3.850587
2.569452
1.836129
1.691582
2.412424
3.310770
3.857875
3.872234
2.930333
1.424611
-0.276036
-1.821544
-2.810763
-3.254995
-3.285601
-2.751679
-1.599790
-0.032863
2.066810
4.078674
5.396295
5.746828
4.739246
2.800829
0.385224
-1.827923
-3.732676
-5.223567
-5.742661
-5.922285
-5.915695
-5.696524
-5.894040
-6.715879
-8.501040
-11.561214
-15.662162
-20.633913
-25.983037
-31.240819
-36.060963
-39.967457
-43.017744
-45.287862
-47.051129
-48.533074
-50.018551
-51.834081
-53.845006
-55.984939
-58.045301
-60.067997
-62.063384
-63.731308
-64.893323
-65.540012
-65.897375
-65.680794
-64.963954
-64.308323
-63.589835
-63.070509
-62.671480
-61.801620
-60.617950
-58.958034
-56.843058
-54.493608
-51.659437
-48.121607
-43.709443
-38.768534
-33.857993
-29.864163
-27.207966
-25.618439
-24.814495
-24.160040
-23.551492
-22.748254
-21.611432
-20.173513
-18.161414
-15.907543
-13.864370
-12.388784
-11.415340
-10.569728
-9.270704
-7.428576
-5.424246
-3.573172
-2.391150
-1.709151
-1.285640
-1.249623
-2.006957
-3.947493
-7.007432
-10.391303
-13.211117
-15.244877
-16.445500
-17.211546
-17.515469
-17.299595
-16.669623
-15.535626
-14.147144
-12.480401
-10.738324
-9.138910
-7.521368
-5.902649
-4.109017
-1.767571
1.261760
5.000870
9.037311
12.705561
15.747370
17.772181
18.675706
19.018705
19.334632
20.458506
22.825141
26.314946
30.515472
34.629364
38.307502
40.974528
42.633973
43.539852
43.448745
42.324867
39.508819
35.464607
30.934495
26.321518
22.798987
20.200228
18.538425
17.871490
17.754957
18.654244
20.279084
22.227856
24.176628
25.696001
26.957358
27.925622
28.238488
27.162636
24.335994
19.968555
14.640619
9.449695
4.764209
1.010735
-1.201235
-2.334765
-2.585014
-2.134194
-1.523526
-0.661199
0.456319
1.223538
1.311817
0.360970
-1.650661
-4.112643
-6.559323
-8.483144
-9.757923
-10.214867
-10.129884
-10.019004
-10.203572
-11.085913
-12.392709
-13.725165
-14.837742
-15.681475
-16.032953
-15.759872
-15.009603
-13.904797
-12.958426
-12.183910
-11.539578
-10.962104
-10.140504
-9.338443
-8.564868
-8.136883
-8.102279
-8.078504
-7.641338
-5.878074
-2.643931
2.005533
7.380785
12.545810
17.262838
20.883534
23.201674
24.177942
23.412367
21.351064
18.637893
16.130240
15.010835
15.214704
16.581527
18.655305
20.314986
21.185788
20.524974
18.094538
14.322466
9.914064
5.936239
2.794140
1.152347
0.962836
1.743003
3.178568
4.838013
6.923797
9.205918
11.476974
13.878216
16.416705
19.331859
22.636862
25.817095
28.585115
30.451255
31.008013
30.717743
29.709925
28.234336
26.640098
24.894251
23.272940
21.925888
20.689246
19.599504
18.519649
17.049945
15.091989
12.122450
7.714284
1.755198
-5.679947
-13.980716
-22.454280
-29.792669
-35.159919
-38.011044
-38.319441
-36.976630
-34.455091
-31.538759
-28.617719
-25.858410
-23.845841
-22.540225
-21.987706
-21.867410
-21.498985
-21.391167
-21.420595
-21.407414
-21.140218
-19.353648
-16.144459
-11.801271
-7.053403
-3.106656
-0.371360
0.550292
-0.451404
-3.057461
-6.611773
-10.367366
-14.079407
-17.629481
-20.539695
-22.176544
-22.179842
-20.557121
-17.963309
-15.067224
-12.237055
-9.727522
-7.516967
-5.867409
-5.191296
-5.409293
-6.606620
-8.349407
-9.818875
-10.964411
-11.608981
-11.802024
-11.921382
-11.887248
-11.631588
-11.147810
-10.148235
-8.526692
-6.395001
-3.844271
-1.568036
-0.237937
0.239250
-0.007468
-0.721722
-1.281543
-1.858313
-2.855537
-4.104891
-5.763399
-7.518897
-8.884312
-9.646119
-9.282639
-7.707943
-5.164746
-2.032302
1.089783
3.798948
6.319545
8.967267
11.769893
14.653737
16.998949
18.664751
19.749546
20.326784
20.930154
21.186991
20.928503
19.969416
17.960375
15.582201
12.946246
10.131847
7.297907
4.068705
0.686246
-2.380284
-4.673708
-5.986860
-6.883326
-7.935401
-9.613684
-11.962195
-14.468200
-16.700887
-18.287357
-19.165695
-19.759887
-20.823969
-22.569815
-25.117724
-28.769263
-32.537568
-35.807969
-37.614788
-36.809196
-34.008454
-29.696106
-25.663667
-22.881287
-21.155219
-20.500058
-19.579112
-18.300099
-16.363333
-13.922307
-11.486695
-8.435941
-4.959555
-1.107445
2.389187
4.709446
5.613912
5.103764
3.717398
1.647854
-0.753155
-3.157696
-5.180627
-6.285200
-6.315100
-5.376027
-4.011322
-3.123806
-3.221505
-4.208371
-5.928557
-8.189258
-11.030966
-14.410129
-18.006345
-21.650821
-25.244212
-28.858556
-32.337770
-35.297657
-37.451009
-37.923255
-36.611754
-34.272192
-31.304775
-29.289380
-28.379264
-27.635115
-27.125442
-26.050063
-24.637333
-22.992719
-20.849964
-18.366327
-15.213403
-11.959249
-8.932508
-6.405554
-4.186290
-1.750678
0.836542
3.857869
6.889084
9.404267
11.370224
12.320126
12.120962
11.007678
9.015586
6.831631
4.852487
2.927253
1.153392
-0.700275
-2.533225
-4.146297
-5.830700
-7.718267
-9.765682
-11.997662
-14.060850
-15.597411
-16.475279
-16.558147
-16.282948
-15.959017
-15.691351
-15.589417
-15.237707
-14.405043
-13.353441
-12.289833
-11.451519
-10.907474
-10.541875
-10.736330
-11.419744
-12.170723
-13.062009
-14.073829
-14.616935
-14.583037
-13.648202
-10.925618
-7.115412
-2.456060
2.159975
5.650015
8.422272
10.121738
11.328949
12.193395
12.735086
13.106100
12.944132
12.363359
10.802314
8.223095
4.534125
-0.113930
-5.060728
-9.955028
-14.451474
-18.691553
-22.313430
-24.823908
-26.086681
-25.657048
-23.546781
-20.175626
-15.952500
-11.366363
-6.566233
-1.613553
3.207058
7.520584
11.542193
15.651377
19.809057
23.651515
26.112081
26.236615
23.690825
19.003455
13.404556
8.175023
3.999684
1.512042
1.160564
2.391317
4.467684
5.846514
5.696081
4.491221
2.736193
1.693769
1.717074
2.370822
3.566263
5.072217
7.054418
9.856573
13.417003
16.896920
19.605379
21.059777
21.106624
20.118346
18.278568
15.941121
13.378852
11.433373
10.555269
10.639547
11.972941
13.830842
15.667321
17.210706
17.972982
18.396964
18.766565
19.576159
21.108009
22.736851
24.021985
24.263285
23.062191
20.935912
18.641546
16.664050
15.078287
13.507825
11.833780
10.169152
8.571382
7.126868
5.625854
4.184871
2.860184
1.887208
1.758198
2.263870
3.360907
4.857209
6.492643
8.577485
10.998030
13.475076
15.462926
16.679319
17.541175
18.477188
20.057533
21.944155
23.437868
24.511834
25.151458
25.737877
26.667533
27.470300
