EVENT_NAME: 202302060117
EVENT_ID: 13194
EVENT_DATE_YYYYMMDD: 2023/02/06
EVENT_TIME_HHMMSS: 01:17:32.00000
EVENT_LATITUDE_DEGREE: 37.288
EVENT_LONGITUDE_DEGREE: 37.043
EVENT_DEPTH_KM: 8.6
HYPOCENTER_REFERENCE: AFAD
MAGNITUDE_W: 7.7
MAGNITUDE_W_REFERENCE: AFAD
MAGNITUDE_L: 
MAGNITUDE_L_REFERENCE: 
FOCAL_MECHANISM: 
NETWORK: TK
STATION_CODE: 2501
STATION_NAME: 
STATION_LATITUDE_DEGREE: 39.90316
STATION_LONGITUDE_DEGREE: 41.26196
STATION_ELEVATION_M: 1908.0
LOCATION: Kahramanmaras_Pazarck_Turkiye
SENSOR_DEPTH_M: 
VS30_M/S: 375
SITE_CLASSIFICATION_EC8: B
MORPHOLOGIC_CLASSIFICATION: 
EPICENTRAL_DISTANCE_KM: 467.87
EARTHQUAKE_BACKAZIMUTH_DEGREE: 
DATE_TIME_FIRST_SAMPLE_YYYYMMDD_HHMMSS: 2023/02/06 01:18:11.3506670
DATE_TIME_FIRST_SAMPLE_PRECISION: millisecond
SAMPLING_INTERVAL_S: 0.01
NDATA: 24501
DURATION_S: 
STREAM: HNZ
UNITS: cm/s^2
INSTRUMENT: sensor = CMG-5T/GURALP | digitizer = 
INSTRUMENT_ANALOG/DIGITAL: 
INSTRUMENTAL_FREQUENCY_HZ: 
INSTRUMENTAL_DAMPING: 
FULL_SCALE_G: 
N_BIT_DIGITAL_CONVERTER: 
PGA_CM/S^2: 3.580
TIME_PGA_S: 
BASELINE_CORRECTION: BASELINE REMOVED
FILTER_TYPE: BUTTERWORTH
FILTER_ORDER: 
LOW_CUT_FREQUENCY_HZ: 
HIGH_CUT_FREQUENCY_HZ: 
LATE/NORMAL_TRIGGERED: 
DATABASE_VERSION: 
HEADER_FORMAT: DYNA 1.2
DATA_TYPE: Acceleration
PROCESSING: Automatic Paolucci et al., 2011
DATA_TIMESTAMP_YYYYMMDD_HHMMSS: 
DATA_LICENSE: U (unknown license)
DATA_CITATION: Turkish Accelerometric Archive v 1.0 - Disaster And Emergency Management Presidency, Earthquake Department
DATA_CREATOR: AFAD
ORIGINAL_DATA_MEDIATOR_CITATION: : AFAD - Disaster And Emergency Management Presidency
ORIGINAL_DATA_MEDIATOR: AFAD PROCESS SERVICE
ORIGINAL_DATA_CREATOR_CITATION: AFAD PROCESS SERVICE
ORIGINAL_DATA_CREATOR: network: TK
USER1: GuestUser
USER2: 
USER3: 
USER4: 
USER5: 
[...]
-0.316917
-0.546942
-0.969069
-1.476989
-1.876114
-2.016615
-1.898494
-1.638627
-1.274317
-0.987096
-0.834782
-0.860893
-1.013206
-1.130705
-1.209038
-1.210281
-1.150599
-0.986472
-0.756447
-0.524556
-0.349861
-0.296396
-0.269041
-0.278988
-0.329344
-0.373484
-0.404568
-0.383431
-0.344886
-0.261579
-0.153405
-0.182002
-0.318774
-0.458032
-0.591695
-0.656972
-0.655106
-0.620292
-0.546932
-0.518334
-0.530767
-0.501548
-0.416376
-0.255358
-0.164591
-0.161482
-0.183241
-0.168942
-0.075688
0.038081
0.135065
0.175475
0.201586
0.171745
0.130714
0.105225
0.113929
0.169881
0.235159
0.348929
0.488809
0.665369
0.847524
1.004812
1.110500
1.159613
1.165831
1.113609
1.002327
0.896640
0.942645
1.186969
1.524547
1.824823
2.031225
2.142507
2.200325
2.209029
2.158050
2.061689
1.952893
1.886373
1.840990
1.788146
1.724113
1.614696
1.531390
1.482898
1.479790
1.576774
1.735927
1.900675
2.013822
2.057963
2.061071
2.066045
2.075992
2.092157
2.141892
2.257527
2.407354
2.508068
2.454603
2.260636
1.939223
1.541964
1.118593
0.747445
0.496904
0.337130
0.228957
0.109593
-0.034639
-0.251608
-0.517070
-0.758285
-0.878892
-0.857133
-0.702332
-0.461116
-0.221144
-0.096184
-0.137837
-0.311288
-0.500281
-0.693005
-0.906866
-1.133160
-1.363807
-1.595697
-1.817018
-1.974927
-2.054503
-2.102372
-2.180705
-2.281418
-2.354156
-2.306907
-2.181947
-1.992332
-1.796499
-1.612479
-1.471977
-1.391157
-1.358207
-1.359450
-1.392399
-1.450838
-1.531036
-1.588852
-1.565850
-1.464514
-1.296036
-1.128801
-0.992029
-0.918048
-0.829768
-0.730297
-0.637043
-0.662532
-0.816089
-0.988297
-1.062900
-1.002595
-0.906855
-0.842199
-0.847172
-0.908097
-1.062276
-1.267433
-1.447723
-1.489998
-1.413530
-1.296652
-1.179774
-1.103927
-1.098332
-1.152419
-1.204640
-1.263079
-1.345763
-1.412284
-1.436529
-1.401714
-1.308461
-1.208990
-1.103303
-1.006319
-0.908713
-0.779402
-0.649468
-0.559945
-0.535077
-0.581081
-0.671848
-0.802402
-0.887574
-0.922388
-0.941660
-0.958445
-0.957202
-0.922387
-0.837215
-0.668737
-0.428143
-0.175737
-0.034613
-0.025287
-0.071914
-0.060723
-0.049532
-0.109214
-0.208684
-0.244742
-0.146515
0.054913
0.295507
0.497557
0.606974
0.602001
0.503153
0.338405
0.141330
-0.088073
-0.329910
-0.499631
-0.523877
-0.418811
-0.249089
-0.104857
-0.022172
0.010156
0.025077
0.036889
-0.055742
-0.181323
-0.319338
-0.549363
-0.644481
-0.547497
-0.426268
-0.362233
-0.324310
-0.209297
-0.054496
0.058030
0.103413
0.012025
-0.222973
-0.504598
-0.760734
-0.936672
-0.990758
-0.957809
-0.892531
-0.778761
-0.637638
-0.493405
-0.435588
-0.425019
-0.425640
-0.458590
-0.454859
-0.506459
-0.597847
-0.605307
-0.618984
-0.623957
-0.589764
-0.540650
-0.489672
-0.465425
-0.399526
-0.316219
-0.240373
-0.174474
-0.093654
-0.016564
0.094097
0.271279
0.481410
0.634968
0.631238
0.490115
0.330962
0.258225
0.279984
0.368265
0.560989
0.822099
1.027256
1.113672
1.074505
0.993064
0.837021
0.598292
0.319154
0.106536
0.015148
0.031312
0.173679
0.394380
0.665436
0.904166
0.994932
0.961361
0.911005
0.882407
0.851945
0.788533
0.697767
0.597053
0.533019
0.511261
0.514369
0.549806
0.638086
0.799726
0.999910
1.107462
1.067675
0.947067
0.819621
0.702744
0.546078
0.376357
0.233991
0.135764
0.087894
0.052458
-0.035821
-0.160159
-0.291957
-0.401996
-0.451731
-0.409455
-0.270197
-0.066282
0.138254
0.295542
0.378227
0.366415
0.303003
0.207884
0.086034
-0.074362
-0.197456
-0.188131
-0.024004
0.238971
0.540490
0.876825
1.220619
1.541411
1.741596
1.719837
1.464323
1.068307
0.705240
0.492623
0.471486
0.628773
0.889261
1.169644
1.404021
1.576851
1.692485
1.721083
1.642129
1.482977
1.335637
1.283415
1.346206
1.440703
1.463706
1.366101
1.185190
0.996818
0.837044
0.722032
0.621940
0.521227
0.457815
0.405593
0.325395
0.260118
0.248306
0.260740
0.235873
0.164379
0.107806
0.104697
0.047502
-0.115380
-0.346648
-0.522586
-0.614596
-0.655005
-0.621434
-0.535641
-0.411302
-0.246554
-0.001608
0.307372
0.556669
0.624434
0.629408
0.702767
0.822132
0.893626
0.940875
1.036616
1.173388
1.283427
1.294618
1.205095
1.026048
0.807835
0.604543
0.428605
0.344056
0.309242
0.313594
0.359599
0.424877
0.518752
0.671066
0.919121
1.070813
1.228723
1.277215
1.298974
1.358657
1.221885
0.986887
0.710857
0.528702
0.479589
0.408717
0.293083
0.115280
-0.150803
-0.405695
-0.633234
-0.711566
-0.643180
-0.618312
-0.679237
-0.750110
-0.833416
-0.871960
-0.903666
-0.909261
-0.877555
-0.847713
-0.788653
-0.718401
-0.618309
-0.610227
-0.677369
-0.684829
-0.577898
-0.484023
-0.550543
-0.622037
-0.512620
-0.374604
-0.274512
-0.173176
-0.145822
-0.145200
-0.110385
-0.079300
-0.058784
-0.012779
-0.124683
-0.247155
-0.212962
-0.056296
0.138293
0.340964
0.526850
0.535554
0.464060
0.329775
0.178705
0.141404
0.145134
0.065558
0.076749
0.165651
0.273203
0.156326
0.087940
0.068668
-0.073077
-0.144571
-0.186224
0.004635
0.077995
0.127730
0.191143
0.201712
0.247717
0.253313
0.194874
0.089187
0.040074
0.060590
0.090432
0.066186
0.040697
0.024533
0.084216
0.266371
0.477124
0.567891
0.526860
0.403766
0.253317
0.087948
-0.010901
-0.040741
-0.035146
-0.012765
0.073650
0.204827
0.263888
0.227830
0.106601
-0.108503
-0.373343
-0.595286
-0.649372
-0.479651
-0.202377
0.077384
0.258917
0.360875
0.362740
0.197371
-0.108500
-0.405667
-0.573523
-0.594661
-0.523166
-0.420587
-0.311169
-0.218537
-0.098551
-0.044464
-0.184343
-0.433019
-0.697858
-0.954616
-1.172207
-1.326386
-1.368039
-1.267325
-0.995646
-0.612685
-0.310544
-0.221020
-0.314273
-0.530621
-0.788000
-0.998131
-1.090762
-1.034188
-0.919175
-0.804784
-0.684176
-0.576624
-0.511346
-0.489587
-0.554242
-0.711529
-0.901766
-1.031699
-1.053458
-1.040402
-1.072108
-1.154170
-1.187741
-1.095109
-0.949012
-0.750693
-0.437361
-0.101648
0.124025
0.179356
0.105375
-0.036992
-0.227850
-0.423682
-0.607702
-0.738256
-0.760015
-0.641272
-0.472794
-0.423059
-0.473415
-0.549261
-0.621377
-0.724577
-0.820317
-0.801044
-0.574127
-0.252092
0.038859
0.256451
0.352813
0.316755
0.195526
0.078027
-0.043824
-0.216653
-0.402538
-0.493304
-0.486466
-0.451651
-0.447299
-0.373939
-0.227842
-0.076771
0.056893
0.125279
0.106007
0.052542
-0.011492
-0.089825
-0.141425
-0.021438
0.260809
0.505755
0.626985
0.671125
0.659313
0.501404
0.224753
-0.193022
-0.676075
-1.061522
-1.269166
-1.356824
-1.432670
-1.575036
-1.681967
-1.676371
-1.587469
-1.468105
-1.387285
-1.319520
-1.254864
-1.170936
-1.126174
-1.139229
-1.193316
-1.207614
-1.257349
-1.448829
-1.658339
-1.775216
-1.859765
-2.036325
-2.285000
-2.522486
-2.665474
-2.708370
-2.636254
-2.470263
-2.323544
-2.191123
-2.060568
-1.918823
-1.846707
-1.907010
-2.065541
-2.232775
-2.357113
-2.413064
-2.362707
-2.329757
-2.357733
-2.450986
-2.511912
-2.631276
-2.682876
-2.612624
-2.542995
-2.445389
-2.395654
-2.180549
-1.896437
-1.616676
-1.312048
-1.036018
-0.825265
-0.781124
-0.669220
-0.590887
-0.618241
-0.730145
-0.894892
-0.939653
-0.899243
-0.815315
-0.738847
-0.659270
-0.646836
-0.546122
-0.416811
-0.331639
-0.266983
-0.283147
-0.236520
-0.039444
0.196799
0.382684
0.697259
0.940340
1.138659
1.276053
1.388579
1.509187
1.599332
1.712480
1.742321
1.776515
1.793301
1.869147
1.854227
1.826251
1.747297
1.683885
1.684507
1.642232
1.549601
1.479972
1.504839
1.526599
1.521626
1.474378
1.511057
1.478730
1.487434
1.509193
1.742949
2.026439
2.037630
2.014628
2.040739
1.973597
1.915158
1.856720
1.650319
1.568257
1.553958
1.609289
1.614262
1.649077
1.696326
1.712490
1.715599
1.764091
1.879725
1.941273
1.924488
1.828748
1.718709
1.533446
1.334505
1.106346
0.963357
0.861401
0.791150
0.788663
0.797367
0.785556
0.717170
0.666813
0.649406
0.700385
0.837779
0.978281
1.052884
1.097024
1.166032
1.238770
1.259286
1.274829
1.326429
1.338241
1.327673
1.406628
1.539048
1.668360
1.673334
1.458229
1.098893
0.799861
0.700391
0.720907
0.788049
0.934768
1.126871
1.309648
1.494290
1.662146
1.760995
1.808865
1.831247
1.798919
1.710018
1.522889
1.357520
1.299082
1.296595
1.222614
1.028026
0.849601
0.812300
0.823491
0.799245
0.835925
1.016837
1.336386
1.619255
1.759135
1.849281
1.959942
2.035166
1.969268
1.757272
1.595011
1.494919
1.301574
1.049168
0.881934
0.791168
0.737703
0.702267
0.721539
0.765058
0.853338
0.976433
1.033007
1.008140
0.949080
0.868260
0.764438
0.741436
0.782468
0.883804
1.070311
1.294119
1.374939
1.249980
1.057878
0.881318
0.579178
0.208029
-0.074839
-0.264454
-0.370763
-0.376358
-0.375736
-0.555404
-0.793511
-0.846976
-0.682228
-0.481422
-0.340298
-0.257613
-0.271290
-0.438524
-0.732583
-1.026642
-1.186416
-1.186415
-1.026641
-0.784803
-0.560373
-0.334078
-0.099701
0.023394
-0.000851
-0.105917
-0.275638
-0.406814
-0.418004
-0.376972
-0.396244
-0.430437
-0.370754
-0.252011
-0.290556
-0.494470
-0.655487
-0.746254
-0.823343
-0.929651
-1.037825
-1.080721
-1.105589
-1.200085
-1.344939
-1.384726
-1.257901
-0.926541
-0.426702
-0.008926
0.229181
0.374035
0.571111
0.848385
0.991373
0.975831
1.019972
1.236942
1.502403
1.597522
1.528515
1.434018
1.355686
1.238808
1.087738
0.975834
1.007541
1.140583
1.263677
1.235080
1.095822
1.034275
0.998839
0.889422
0.674317
0.502110
0.439941
0.438076
0.456105
0.424400
0.333633
0.296954
0.365962
0.425644
0.337364
0.099258
-0.141958
-0.296136
-0.359548
-0.372604
-0.465235
-0.703342
-1.027242
-1.243589
-1.195097
-1.079463
-1.159661
-1.367305
-1.449367
-1.367304
-1.191366
-0.975017
-0.805296
-0.710799
-0.660442
-0.658576
-0.727584
-0.881762
-1.059565
-1.247315
-1.466150
-1.650791
-1.780102
-1.834811
-1.836054
-1.810564
-1.811807
-1.667575
-1.313833
-0.973147
-0.799074
-0.700847
-0.631217
-0.606971
-0.561587
-0.549153
-0.570912
-0.705819
-0.905381
-1.048369
-1.096860
-1.088156
-1.049611
-0.984955
-0.912217
-0.821451
-0.686544
-0.458383
-0.172406
0.214907
0.712259
1.174796
1.491858
1.662201
1.616818
1.417256
1.133766
0.781890
0.492805
0.384009
0.473533
0.661283
0.907473
1.104549
1.146824
1.117605
1.131282
1.136878
0.982699
0.526379
-0.087228
-0.426670
-0.299846
0.039597
0.329927
0.629581
0.949752
1.075955
0.978350
0.867068
0.740865
0.380285
-0.227105
-0.670369
-0.572764
-0.131364
0.177616
0.158344
0.017221
-0.138823
-0.443451
-0.912826
-1.247916
-1.198803
-0.850035
-0.352683
0.044577
0.181349
0.074419
-0.051162
-0.077273
-0.153740
-0.227099
-0.085354
0.241655
0.679325
1.117616
1.540987
1.746145
1.597561
1.290447
0.932976
0.745847
0.998875
1.596941
2.106105
2.231686
2.088076
1.992958
1.633622
1.232011
1.083427
1.319048
1.539748
1.629272
1.624298
1.602539
1.588241
1.101458
0.648247
0.278964
0.229850
0.288290
0.499664
0.523910
0.550022
0.273370
-0.183571
-0.265012
-0.248848
-0.430381
-0.487576
-0.048663
-0.685895
-1.096210
-1.375970
-1.338046
-1.070720
-1.265930
-1.124806
-0.745575
-0.187919
0.326840
0.434392
0.122305
0.149038
-0.028144
-0.247600
-0.447784
-0.404887
0.060137
0.246023
0.022837
-0.128234
-0.105853
0.016620
-0.129476
-0.319713
-0.233920
-0.118285
-0.046169
0.003567
0.298869
0.400827
0.259704
0.183236
0.375338
0.412018
0.379069
0.238568
-0.118904
-0.336495
-0.317222
-0.091548
-0.019432
-0.192883
-0.207804
0.071335
0.297009
0.180753
-0.254429
-0.823275
-1.372226
-1.722237
-1.854657
-1.803056
-1.635200
-1.323111
-1.151525
-1.385902
-1.788756
-1.947908
-1.881387
-1.880144
-2.123224
-2.364439
-2.478830
-2.718180
-3.078138
-3.221126
-2.966233
-2.440284
-1.901900
-1.381546
-0.814565
-0.613137
-0.914034
-1.369111
-1.635194
-1.784399
-1.801184
-1.525776
-1.066968
-0.680277
-0.405490
-0.235147
-0.317210
-0.694575
-1.126649
-1.347348
-1.342375
-1.226118
-1.068831
-0.896001
-0.843157
-0.876106
-0.838804
-0.774148
-0.897243
-1.161460
-1.349832
-1.372834
-1.400810
-1.674975
-2.026851
-2.170461
-2.210870
-2.222061
-1.972141
-1.394591
-0.825123
-0.544119
-0.373155
-0.131317
-0.038063
-0.264358
-0.601935
-0.849367
-1.014115
-1.174510
-1.279576
-1.259681
-1.135965
-1.046441
-1.103636
-1.181969
-1.017843
-0.561522
-0.158046
-0.151828
-0.416046
-0.656018
-0.696427
-0.504947
-0.276165
-0.247567
-0.351389
-0.340820
-0.240727
-0.266838
-0.433451
-0.588251
-0.868011
-1.364119
-1.863957
-1.968401
-1.679315
-1.476644
-1.510836
-1.534460
-1.502754
-1.521404
-1.516430
-1.501510
-1.612170
-1.941665
-2.264322
-2.275512
-1.944773
-1.462341
-1.241641
-1.254697
-1.218017
-1.068189
-0.755479
-0.506181
-0.408576
-0.434065
-0.343919
-0.108299
0.069505
0.095616
-0.081565
-0.387436
-0.751746
-0.898465
-0.795886
-0.450848
-0.104566
0.015420
-0.006960
0.012312
0.143489
0.191359
0.120487
-0.057316
-0.238227
-0.330237
-0.342671
-0.325885
-0.399865
-0.706358
-1.232307
-1.620241
-1.612159
-1.411975
-1.297583
-1.168272
-0.890376
-0.569584
-0.243197
-0.063528
-0.081557
-0.315934
-0.566474
-0.572069
-0.297282
0.271564
0.878955
1.303569
1.508105
1.605089
1.516809
1.238293
0.978427
0.837304
0.869632
1.019459
1.214048
1.435992
1.552248
1.457130
1.184208
0.644582
0.073872
-0.089011
0.240485
0.836064
1.324090
1.641774
1.983082
2.310712
2.383450
2.113637
1.728190
1.602609
1.843203
2.247302
2.640210
3.008872
3.355153
3.579583
3.474518
2.949812
2.216841
1.667268
1.406158
1.312283
1.370101
1.636184
2.081314
2.461167
2.555664
2.232386
1.767984
1.468951
1.427920
1.499415
1.559097
1.682814
1.878025
2.085047
2.073857
1.799071
1.447195
1.255093
1.289286
1.297368
1.078534
0.837319
0.760230
0.763338
0.704278
0.541396
0.392191
0.390947
0.456225
0.614756
0.896382
1.147545
1.178629
0.970364
0.670710
0.383489
0.234284
0.350540
0.530209
0.533318
0.486691
0.581188
0.895763
1.247640
1.454663
1.436634
1.226503
0.834218
0.549484
0.452501
0.293349
0.054620
-0.241304
-0.300986
-0.092098
-0.080285
-0.038010
-0.042983
-0.343881
-0.734302
-1.071879
-0.943189
-0.636074
-0.432159
-0.222650
0.109954
0.448154
0.456858
0.198857
-0.177265
-0.549657
-0.695754
-0.603122
-0.345742
0.016703
0.386609
0.694346
0.786978
0.717970
0.595498
0.405883
0.114932
-0.131878
-0.202750
-0.119444
0.064577
0.215026
0.124259
-0.271757
-0.677720
-0.918313
-1.005971
-1.047002
-1.037677
-1.007214
-0.933854
-0.754807
-0.676474
-0.806407
-0.870440
-0.565812
-0.177878
-0.001939
-0.071568
-0.210826
-0.287916
-0.407280
-0.611194
-0.761021
-0.553376
-0.111976
0.227467
0.409000
0.399053
0.201356
-0.076538
-0.407277
-0.684550
-0.750449
-0.600622
-0.325213
0.064587
0.306424
0.292126
0.310777
0.399057
0.586807
0.733526
0.880245
0.954848
0.974121
0.809374
0.442577
0.213174
0.125516
0.410250
0.809375
0.963554
0.773939
0.560078
0.540184
0.765236
0.966664
0.925633
0.683174
0.473665
0.533969
0.534591
0.488586
0.279699
-0.018712
-0.192163
-0.197758
0.042837
0.309542
0.328814
0.141686
-0.115693
-0.315255
-0.522899
-0.718731
-0.790225
-0.617395
-0.414102
-0.314632
-0.146775
0.120551
0.359902
0.318249
0.054653
-0.237541
-0.198996
0.130500
0.431398
0.577495
0.557602
0.372338
0.142314
0.031031
0.100039
0.335660
0.639666
0.913210
1.026979
1.036305
1.123964
1.181781
1.111530
0.936214
0.724840
0.682565
0.711163
0.670132
0.635318
0.718624
0.933729
1.193596
1.357722
1.250170
1.030714
1.040040
1.286851
1.418649
1.255145
1.038797
1.005848
1.180543
1.429219
1.611375
1.656136
1.572209
1.324155
1.001498
0.795098
0.662678
0.446330
0.219414
0.155380
0.316398
0.599267
0.752825
0.520935
-0.105106
-0.788343
-1.112243
-1.122189
-1.183115
-1.536234
-2.038559
-2.255528
-2.022394
-1.479038
-0.986659
-0.644730
-0.346940
-0.069666
0.047212
-0.090182
-0.392322
-0.741712
-1.129646
-1.533743
-1.830911
-1.947166
-1.863238
-1.586586
-1.237818
-0.963031
-0.828124
-0.825637
-0.799526
-0.744195
-0.680161
-0.682025
-0.458839
-0.134316
0.112495
0.454424
0.710560
1.135175
1.674180
2.078900
2.144178
1.709617
1.149475
0.815628
0.844848
1.211645
1.721430
2.130502
2.352446
2.288412
2.094445
1.942132
1.822146
1.572848
1.209782
1.024519
1.260140
1.845771
2.337528
2.498546
2.234950
1.906698
1.518142
1.526846
1.879344
2.018603
2.156619
2.218166
2.281579
2.445705
2.631590
2.867211
2.961708
2.755308
2.479278
2.050934
1.582802
1.118400
0.893971
0.744765
0.444490
0.236846
0.205761
0.457546
0.826208
1.165029
1.256418
1.002769
0.619187
0.428328
0.489876
0.603023
0.540855
0.332589
0.249283
0.514123
0.930655
1.220363
1.178088
0.789533
0.211362
-0.320183
-0.594347
-0.631027
-0.591238
-0.758473
-0.977307
-1.051288
-0.843022
-0.370537
0.088270
0.480556
0.795753
0.932525
0.875330
0.647170
0.581893
0.704366
0.887143
1.071785
1.056243
0.876575
0.428337
-0.097612
-0.667701
-0.952434
-0.576312
0.121224
0.563246
0.502942
0.110035
-0.356854
-0.560146
-0.588122
-0.326390
0.006836
0.124957
0.115010
0.193965
0.540246
0.870985
1.004649
1.004027
0.991594
1.076766
1.285654
1.452267
1.424291
1.011489
0.490514
0.149828
0.120609
0.202051
0.131800
-0.184639
-0.643446
-1.002161
-1.162556
-1.104117
-1.082979
-1.099143
-1.144526
-0.878443
-0.284729
0.470002
0.954299
0.839908
0.461921
-0.018644
-0.831814
-1.628198
-2.169068
-2.532134
-2.585599
-2.489859
-2.131143
-1.699691
-1.360870
-1.318594
-1.588407
-1.919768
-2.022346
-1.955825
-1.782373
-1.658657
-1.572863
-1.524993
-1.496395
-1.385734
-1.204200
-1.022667
-0.939982
-0.749123
-0.700631
-0.646544
-0.511637
-0.389785
-0.419626
-0.690061
-1.190521
-1.578455
-1.948981
-2.129893
-1.767447
-1.212278
-0.721765
-0.491118
-0.409676
-0.448842
-0.703735
-1.030743
-1.242739
-1.462817
-1.663001
-1.808476
-1.629429
-1.121508
-0.391644
0.308378
0.670823
0.517888
-0.049092
-0.670160
-1.030118
-0.920079
-0.480544
0.132442
0.717452
1.198019
1.295002
1.178125
0.999079
0.719319
0.450749
0.134310
-0.144829
-0.179643
0.079602
0.511676
0.869148
1.065602
1.189940
1.190562
1.101039
1.000948
0.958673
0.943131
0.921994
0.899613
0.903965
0.908317
0.873503
0.769060
0.673320
0.599339
0.558929
0.529710
0.493653
0.483084
0.594367
0.754141
0.797660
0.739221
0.598098
0.440189
0.144265
-0.179635
-0.335678
-0.249263
-0.083272
0.116912
0.229438
0.260523
0.343830
0.387348
0.389214
0.275445
0.037960
-0.268533
-0.434524
-0.346244
-0.032912
0.301557
0.524744
0.628567
0.583805
0.457603
0.290368
0.143028
0.032368
-0.108755
-0.267908
-0.415248
-0.467469
-0.358673
-0.196412
-0.050315
0.120650
0.373056
0.670846
0.834350
0.808240
0.700066
0.565781
0.463203
0.392952
0.378654
0.316485
0.162928
0.148629
0.336380
0.601842
0.693852
0.525374
0.311513
0.192771
0.131224
0.024294
-0.165321
-0.315770
-0.428295
-0.530874
-0.525278
-0.379181
-0.154751
-0.154751
-0.358664
-0.616665
-0.757789
-0.643397
-0.393478
-0.061495
0.151123
0.221995
0.270488
0.402908
0.621743
0.841821
0.951860
1.005948
0.943157
0.713132
0.440211
0.349445
0.445185
0.671480
0.956836
1.142100
1.390776
1.362179
1.189971
0.995382
0.843069
0.797064
0.818823
0.964921
