EVENT_NAME: 202302060117
EVENT_ID: 13194
EVENT_DATE_YYYYMMDD: 2023/02/06
EVENT_TIME_HHMMSS: 01:17:32.00000
EVENT_LATITUDE_DEGREE: 37.288
EVENT_LONGITUDE_DEGREE: 37.043
EVENT_DEPTH_KM: 8.6
HYPOCENTER_REFERENCE: AFAD
MAGNITUDE_W: 7.7
MAGNITUDE_W_REFERENCE: AFAD
MAGNITUDE_L: 
MAGNITUDE_L_REFERENCE: 
FOCAL_MECHANISM: 
NETWORK: TK
STATION_CODE: 5102
STATION_NAME: 
STATION_LATITUDE_DEGREE: 37.96789
STATION_LONGITUDE_DEGREE: 34.673
STATION_ELEVATION_M: 1229.0
LOCATION: Kahramanmaras_Pazarck_Turkiye
SENSOR_DEPTH_M: 
VS30_M/S: 678
SITE_CLASSIFICATION_EC8: unknown
MORPHOLOGIC_CLASSIFICATION: 
EPICENTRAL_DISTANCE_KM: 221.98
EARTHQUAKE_BACKAZIMUTH_DEGREE: 
DATE_TIME_FIRST_SAMPLE_YYYYMMDD_HHMMSS: 2023/02/06 01:17:50.2729220
DATE_TIME_FIRST_SAMPLE_PRECISION: millisecond
SAMPLING_INTERVAL_S: 0.01
NDATA: 14501
DURATION_S: 
STREAM: HNN
UNITS: cm/s^2
INSTRUMENT: sensor = CMG-5T/GURALP | digitizer = 
INSTRUMENT_ANALOG/DIGITAL: 
INSTRUMENTAL_FREQUENCY_HZ: 
INSTRUMENTAL_DAMPING: 
FULL_SCALE_G: 
N_BIT_DIGITAL_CONVERTER: 
PGA_CM/S^2: 23.879
TIME_PGA_S: 
BASELINE_CORRECTION: BASELINE REMOVED
FILTER_TYPE: BUTTERWORTH
FILTER_ORDER: 
LOW_CUT_FREQUENCY_HZ: 
HIGH_CUT_FREQUENCY_HZ: 
LATE/NORMAL_TRIGGERED: 
DATABASE_VERSION: 
HEADER_FORMAT: DYNA 1.2
DATA_TYPE: Acceleration
PROCESSING: Automatic Paolucci et al., 2011
DATA_TIMESTAMP_YYYYMMDD_HHMMSS: 
DATA_LICENSE: U (unknown license)
DATA_CITATION: Turkish Accelerometric Archive v 1.0 - Disaster And Emergency Management Presidency, Earthquake Department
DATA_CREATOR: AFAD
ORIGINAL_DATA_MEDIATOR_CITATION: : AFAD - Disaster And Emergency Management Presidency
ORIGINAL_DATA_MEDIATOR: AFAD PROCESS SERVICE
ORIGINAL_DATA_CREATOR_CITATION: AFAD PROCESS SERVICE
ORIGINAL_DATA_CREATOR: network: TK
USER1: GuestUser
USER2: 
USER3: 
USER4: 
USER5: 
[...]
9.252983
9.246011
9.252665
9.278650
9.270727
9.168367
8.943683
8.631218
8.315584
7.978718
7.729633
7.339210
6.798576
6.050372
5.166852
4.311535
3.526254
2.768860
2.064071
1.357698
0.695691
0.144917
-0.396668
-0.993076
-1.645576
-2.288886
-2.820013
-3.083041
-3.077021
-2.879275
-2.627340
-2.398221
-2.209666
-2.160864
-2.132661
-2.161182
-2.203331
-2.313930
-2.498050
-2.804178
-3.036467
-3.326432
-3.715270
-4.119003
-4.711608
-5.306749
-5.964953
-6.449812
-6.807594
-6.973334
-7.054779
-6.812984
-6.256823
-5.466790
-4.514820
-3.545421
-2.660634
-1.962819
-1.480497
-1.290991
-1.078668
-1.163598
-1.110359
-1.072332
-0.808037
-0.671771
-0.294026
-0.009449
0.370197
0.669034
0.842061
1.445123
1.390298
1.784522
1.958817
2.571386
3.152582
3.753742
4.318459
4.575781
5.049231
5.358842
5.562926
5.601587
5.629473
5.472607
5.424754
5.267253
5.103098
4.724400
4.083626
3.130704
2.119155
1.031867
0.039650
-0.845139
-1.536934
-2.213519
-2.761124
-3.139822
-3.550526
-4.012885
-4.573484
-5.120456
-5.727639
-6.255280
-6.955314
-7.837251
-8.963517
-10.149995
-11.526297
-12.910838
-14.313443
-15.659322
-16.855307
-17.811715
-18.526327
-19.025447
-19.260905
-19.268828
-19.075203
-18.606824
-17.914396
-17.131017
-16.149576
-15.106656
-13.914792
-12.698844
-11.326346
-9.948779
-8.647584
-7.548255
-6.659666
-5.946639
-5.229493
-4.584601
-4.212877
-4.027490
-4.132385
-4.481928
-5.033336
-5.589181
-6.287315
-7.013653
-7.600237
-8.057209
-8.407385
-8.566787
-8.609570
-8.471085
-7.987495
-7.144222
-6.018274
-4.797255
-3.523314
-2.247788
-0.925995
0.296291
1.352204
2.251885
3.028609
3.720720
4.308570
4.809907
5.155011
5.275116
5.111594
4.879622
4.706593
4.808318
5.089725
5.406942
5.880708
6.384897
6.968945
7.618908
8.268871
8.682426
8.939115
8.972389
8.759431
8.362670
8.056226
7.804289
7.748830
7.898724
8.282807
8.795552
9.352663
9.906922
10.256146
10.573363
10.673820
10.895967
11.113360
11.451176
11.775048
12.170857
12.504236
12.746030
12.671875
12.704198
12.471592
11.949338
11.081979
10.184832
9.075044
8.094552
7.159059
6.149412
5.343215
4.127266
3.667758
2.052197
0.962056
-0.340724
-1.427695
-2.076075
-2.788469
-2.840759
-3.078435
-2.957063
-2.838226
-2.583121
-1.681856
-1.357033
-1.251823
-0.138867
0.189441
0.750672
0.869826
0.763663
0.185002
-0.649083
-1.791511
-3.015067
-4.035172
-5.219114
-6.120381
-7.305909
-8.342809
-9.232985
-9.851893
-10.196682
-10.118726
-9.721016
-8.785842
-7.618062
-6.216410
-4.667716
-3.112050
-1.676489
-0.425048
0.413788
0.924315
1.265616
1.373045
1.328995
1.275121
1.189874
1.180683
1.413604
1.628779
1.903849
2.134235
2.291734
2.246416
2.299021
2.370006
2.631132
3.004757
3.369826
3.764367
4.147183
4.606372
5.073166
5.682566
6.211790
6.915943
7.570976
8.229496
8.687734
9.078789
9.387766
9.659984
9.929349
10.145157
10.493748
10.797021
11.198534
11.509413
11.843743
11.918531
12.041804
12.152085
12.451556
12.758632
12.967786
13.016588
12.769087
12.229721
11.337961
10.261131
9.128843
8.316625
7.862188
7.819723
8.016201
8.322326
8.501375
8.704507
8.788802
8.803062
8.712111
8.600561
8.243096
7.795631
7.292708
6.761898
6.262779
5.715807
5.014821
4.249504
3.420808
2.516688
1.474083
0.312958
-0.897605
-2.124646
-3.260420
-4.574609
-5.129186
-6.443692
-7.576614
-8.336860
-9.363620
-10.156824
-10.964288
-11.300838
-11.581613
-11.471966
-11.253939
-11.040349
-10.887286
-10.804576
-10.904400
-11.262816
-11.878872
-12.656231
-13.586336
-14.512955
-15.253237
-15.631934
-15.647463
-15.275422
-14.612466
-13.825602
-12.895815
-12.077895
-11.451065
-10.998848
-10.785575
-10.712054
-10.686703
-10.766880
-10.854345
-10.998853
-11.118642
-11.177270
-11.306249
-11.347130
-11.202941
-10.922801
-10.582767
-10.098226
-9.632383
-9.388687
-9.182385
-9.186189
-9.212175
-9.475521
-9.813655
-10.295345
-10.854359
-11.605732
-12.361225
-13.149358
-13.927034
-14.431224
-14.841612
-14.865697
-14.714219
-14.030664
-13.269469
-12.056690
-10.646164
-9.313913
-7.891980
-6.599341
-5.164731
-3.885720
-2.545547
-1.010479
0.440293
1.901206
3.206520
4.302679
5.270811
6.100774
6.954188
7.758798
8.433163
8.922140
9.211153
9.385131
9.382912
9.241256
9.057453
8.918967
8.958895
9.084704
9.398119
9.595864
9.749877
9.644665
9.420299
9.184840
8.942093
8.892022
9.070437
9.370224
9.572090
9.756525
9.690926
9.338531
8.695538
7.844342
6.718392
5.393428
3.857725
2.393325
1.056636
-0.142518
-1.205721
-2.106355
-2.938854
-3.756776
-4.378854
-4.916319
-5.358079
-5.837868
-6.209594
-6.587657
-6.959383
-7.382130
-7.832447
-8.182940
-8.697271
-9.107341
-9.546250
-9.978504
-10.477624
-10.851884
-11.048681
-11.201111
-11.091147
-10.791993
-10.228861
-9.636257
-8.938442
-8.298936
-7.578621
-6.776546
-5.861970
-4.890353
-3.836341
-2.861554
-1.985641
-1.175326
-0.597299
-0.113392
0.284952
0.669986
0.984034
1.365899
1.700228
2.107762
2.513395
2.878464
3.175399
3.581032
3.910925
4.205959
4.508598
4.860992
5.232716
5.631376
5.992643
6.282606
6.474964
6.541830
6.673977
6.667321
6.649574
6.419503
6.149819
5.646897
5.076791
4.446791
4.023411
3.565171
3.237812
2.772600
2.187284
1.625101
1.091122
0.725100
0.304572
0.048198
-0.177753
-0.062085
-0.020888
0.222174
0.192068
0.849319
1.415621
2.013295
2.844526
3.519841
4.407163
4.730401
5.022266
5.171525
5.386700
5.581277
5.748283
5.724198
5.687119
5.293211
4.454373
3.291980
1.886206
0.472827
-0.795728
-2.066502
-3.170902
-4.062979
-4.782028
-5.130620
-5.137910
-4.775059
-3.790765
-2.367881
-0.728553
1.013768
2.672110
4.405241
6.044568
7.678826
9.066851
10.486567
11.669874
12.805330
13.776314
14.596136
15.380782
16.008562
16.472504
16.787820
17.011234
16.917114
16.481374
15.787360
14.912713
13.959791
13.192573
12.428207
11.808031
11.287362
10.955566
10.743558
10.645952
10.576233
10.498275
10.317007
9.982041
9.502253
8.899189
8.238133
7.385035
6.378240
5.277642
4.125073
2.865390
1.604441
0.551061
-0.560628
-1.251790
-2.428127
-3.410521
-3.869711
-4.484500
-4.977598
-5.698866
-6.107035
-6.706612
-7.029218
-7.342317
-7.176896
-6.899608
-6.519011
-6.013238
-5.536302
-5.168698
-4.831199
-4.566588
-4.574194
-4.554230
-4.834688
-5.326519
-5.905815
-6.309231
-6.759865
-7.014337
-7.208915
-7.232683
-7.093881
-6.673038
-6.162511
-5.395294
-4.817268
-3.986671
-3.307236
-2.235478
-1.748719
-0.867418
0.100714
0.391311
1.041274
1.193069
1.760638
1.760003
2.116199
2.184332
2.262606
2.404894
2.659047
2.752532
3.123940
3.696579
4.187141
4.831083
5.329250
6.002347
6.514141
7.124492
7.752906
8.631038
9.351353
10.190189
10.586314
10.808778
10.825890
10.627192
10.135678
9.406805
8.593953
7.872686
7.324763
6.832932
6.511911
6.182650
5.852438
5.261101
4.652650
3.855326
3.167650
2.533214
2.029658
1.653812
1.529269
1.582508
1.861063
2.311696
2.800039
3.282679
3.753910
4.306267
4.673238
4.853554
4.696687
4.277109
3.477567
2.637462
1.524822
0.669823
-0.153487
-1.011972
-1.990563
-3.004330
-4.221865
-5.432744
-6.467743
-7.336053
-7.784468
-8.005983
-7.806653
-7.362992
-6.564719
-6.081129
-5.368420
-4.987823
-4.490289
-4.416452
-4.009869
-4.215538
-3.784870
-3.949343
-4.263709
-3.321880
-3.686951
-3.075967
-3.046179
-2.822448
-3.274032
-3.963609
-5.140263
-6.592304
-7.891282
-9.370577
-10.483851
-11.333780
-11.714062
-11.879168
-11.493500
-11.149980
-10.500334
-9.978716
-9.474210
-9.166500
-8.846431
-8.824882
-9.001080
-9.427630
-10.086151
-10.780798
-11.362946
-11.699179
-11.887419
-11.972349
-11.944462
-11.851611
-11.721366
-11.622176
-11.521720
-11.293235
-10.951616
-10.440456
-9.873521
-9.179191
-8.514968
-7.620357
-6.919373
-6.272262
-5.550045
-5.003709
-4.809449
-4.695366
-4.760965
-5.019240
-5.328536
-5.687903
-6.012727
-6.262446
-6.466214
-6.629102
-6.623715
-6.423434
-5.933506
-5.349142
-4.670974
-4.111962
-3.545344
-3.084254
-2.563903
-2.084750
-1.509258
-0.869119
-0.241022
0.367744
1.023411
1.796966
2.523936
3.305096
3.967101
4.818296
5.641288
6.521321
7.461248
8.316246
9.169026
9.954623
10.536769
11.001979
11.204161
11.112259
10.987082
10.710744
10.370708
9.980602
9.597785
9.076482
8.676870
8.316869
8.113418
7.973030
7.842149
7.770212
7.637113
7.469472
7.213732
6.673732
6.030739
5.591197
4.330247
3.426761
2.561938
1.553558
0.806939
0.093277
-0.553519
-1.092885
-1.595490
-2.199188
-2.845032
-3.566300
-4.163659
-4.820278
-5.511440
-6.316369
-6.932109
-7.648939
-8.207320
-8.834784
-9.199538
-9.631475
-9.757919
-10.000032
-9.926195
-10.060245
-9.734788
-9.865669
-9.719896
-8.674757
-8.708983
-7.682542
-7.001205
-5.816630
-4.796527
-3.699417
-2.854876
-1.903223
-0.995937
-0.371326
0.583496
1.318706
2.142647
2.766941
3.615285
4.368240
5.520175
6.635982
7.994219
9.448160
11.045340
12.462203
13.688926
14.772410
15.763041
16.483357
17.061700
17.586487
18.000359
18.411062
18.575533
18.707046
18.624651
18.530531
18.189861
17.883734
17.495213
17.150424
16.659227
16.116375
15.433452
14.628840
13.859087
13.029439
12.163665
11.271588
10.437504
9.680744
9.104617
8.484758
7.961554
7.309688
6.582716
5.708702
5.271061
4.362506
3.686238
3.503703
3.128491
3.003948
2.823314
2.969721
2.877185
2.784967
2.681339
2.415142
2.152113
1.718909
1.155775
0.577113
-0.068415
-0.628380
-1.071091
-1.494789
-1.836409
-2.090564
-2.485740
-2.815635
-3.168030
-3.432009
-3.498242
-3.563524
-3.233314
-2.588105
-1.789832
-0.826454
0.262100
1.198225
2.045301
2.659771
3.000439
3.168078
3.060648
3.038147
3.075858
3.219730
3.418426
3.701418
4.072825
4.388775
4.564337
4.536132
4.328878
3.983138
3.829441
3.498278
3.379123
3.396552
3.525530
3.441550
3.384507
2.925317
2.520000
2.026901
1.149719
0.805246
0.178099
-0.336549
-0.859437
-1.295493
-1.663416
-1.892853
-2.238276
-2.582431
-3.036551
-3.557854
-4.384649
-5.401902
-6.667605
-7.964048
-9.214223
-10.204222
-10.996792
-11.501933
-11.913588
-12.226687
-12.565455
-12.917533
-13.268026
-13.717392
-13.994048
-14.725456
-14.240281
-14.498556
-14.117642
-13.892326
-13.614088
-13.196413
-13.315252
-13.067436
-13.246486
-13.030043
-12.998671
-12.561982
-12.117688
-11.282021
-10.577234
-9.693081
-8.700548
-7.626571
-6.589672
-5.507773
-4.623937
-3.739150
-2.982074
-2.623977
-2.054507
-1.661550
-1.270812
-0.970074
-0.451942
0.065240
0.809323
1.684919
2.578896
3.547345
4.655546
5.765967
6.781000
7.654378
8.309728
8.770818
9.052226
9.172014
9.014830
8.693175
8.140182
7.526661
6.807929
6.141485
5.403739
4.743000
3.892754
3.071979
2.406803
1.872508
1.900394
1.339162
1.408879
1.690603
1.792011
2.063911
2.341199
2.733205
2.852359
3.096055
3.003836
2.842532
2.360525
1.658589
0.631512
-0.657325
-2.014613
-3.310104
-4.532709
-5.419399
-6.064293
-6.525702
-6.582111
-6.679400
-6.616338
-6.588451
-6.442677
-6.399580
-6.462327
-6.436659
-6.153667
-6.057963
-5.928986
-5.572473
-5.213742
-4.794482
-4.459202
-4.095400
-3.761704
-3.376987
-2.910827
-2.256427
-1.655267
-0.829741
0.046490
0.840960
1.631944
2.317083
2.930286
3.261763
3.454438
3.640458
3.695598
3.664541
3.674048
3.659469
3.719680
3.893024
4.157952
4.407986
4.658337
4.862104
5.083300
5.257278
5.446467
5.634388
5.792521
6.145231
6.381322
6.597447
6.990721
7.503783
8.202232
8.872159
9.431489
9.740467
9.747438
9.568071
9.075289
8.470641
7.814022
7.274339
6.598071
5.846698
5.018635
4.076488
3.096629
2.117722
1.164800
0.196983
-0.605411
-1.192312
-1.531714
-1.593510
-1.488300
-1.225590
-0.878267
-0.588620
-0.276157
-0.062883
0.258771
0.595952
1.158134
1.920280
3.044010
4.196895
5.444216
6.504566
7.662839
8.626534
9.465053
10.177762
10.845472
11.309731
11.560716
11.670046
11.593038
11.648812
11.657368
11.863986
12.034161
12.512681
12.580814
13.035883
12.891692
13.297325
12.536445
12.886936
12.644506
11.742605
11.454859
10.050353
9.466937
7.948664
7.064193
5.614370
4.384477
2.902330
1.989338
0.125959
-1.224673
-2.186152
-3.774143
-4.916889
-6.149951
-7.290162
-8.883224
-10.424314
-12.181530
-13.970754
-15.637337
-17.064660
-18.285363
-19.111841
-20.509692
-20.959375
-21.357087
-21.924974
-22.341066
-21.506983
-22.182617
-22.801525
-23.098462
-23.349449
-21.888853
-22.820542
-23.760471
-23.238853
-22.772693
-22.584137
-21.460407
-20.862416
-20.288826
-19.054181
-17.984324
-17.399008
-16.372884
-15.364823
-14.646726
-13.363595
-12.255393
-10.873388
-9.486314
-8.315682
-7.112093
-6.178821
-5.667660
-5.132098
-4.735022
-4.296115
-3.871469
-3.414181
-2.954359
-2.529395
-2.290770
-2.222954
-2.184609
-2.158941
-2.096512
-1.954225
-1.786268
-1.506762
-1.182256
-0.901483
-0.664125
-0.589020
-0.786133
-1.206344
-1.746978
-2.405182
-3.158457
-3.958632
-4.651062
-5.299442
-5.633773
-5.911696
-5.958281
-5.849268
-5.617614
-5.287404
-4.887476
-4.522407
-4.171281
-3.686107
-3.144524
-2.489490
-1.797062
-0.942381
0.071701
1.172931
2.455429
3.888137
5.221972
6.476900
7.617742
8.698691
9.644322
10.645095
11.554283
12.448577
13.307061
14.091707
14.907726
15.756386
16.503638
17.249305
17.987366
18.744442
19.409933
20.059262
20.704155
20.996020
21.314188
21.761651
22.154608
22.472459
23.010239
23.410801
23.620272
23.732771
23.879495
23.830058
23.702346
23.710902
23.395901
22.945267
22.433471
21.326536
20.665479
19.406114
17.999707
17.282243
16.324567
15.640694
14.685871
13.778899
12.657069
11.411331
9.869607
8.461615
7.142356
5.824997
4.725984
3.824400
3.258414
2.587534
1.819682
1.333239
1.104752
0.769153
0.579012
0.198096
-0.293418
-0.684791
-1.079968
-1.619017
-1.819299
-1.967926
-2.116871
-2.053808
-2.101661
-2.123211
-2.307965
-2.569092
-3.192120
-3.854761
-4.659690
-5.281450
-5.924443
-6.275253
-6.655535
-6.926803
-7.148952
-7.336241
-7.362228
-7.468073
-7.206631
-7.165434
-6.706246
-6.699908
-6.112692
-6.215368
-5.412976
-4.696464
-4.510443
-3.760656
-3.680481
-2.932596
-2.690484
-2.135908
-1.808233
-1.304362
-0.836300
-0.441759
0.094120
0.376161
0.933272
1.197250
1.791755
2.037353
2.606823
3.007702
3.308757
3.810728
4.148860
4.373859
4.371640
4.629913
3.998329
4.086110
3.715018
5.396811
2.851778
1.994244
4.213817
1.805686
1.306566
0.499102
-0.380616
-1.471707
-2.343185
-4.498113
-5.646246
-6.870118
-8.393778
-9.625890
-10.945466
-11.841980
-12.822789
-13.669866
-14.608528
-14.790430
-15.528493
-15.618177
-15.816874
-15.685995
-15.336137
-14.858568
-14.319203
-13.622656
-12.925474
-12.325582
-11.691464
-11.210092
-10.852628
-10.446996
-10.128511
-9.871505
-9.828407
-9.918091
-9.829993
-9.936473
-9.926333
-10.100629
-10.087637
-9.975138
-9.959927
-9.919048
-9.787852
-9.533064
-9.122044
-8.642574
-8.170709
-7.544514
-6.825783
-6.174552
-5.610153
-4.907584
-4.285191
-3.815228
-3.344314
-3.040406
-2.881323
-2.842345
-2.825867
-2.780551
-2.856608
-3.052453
-3.300904
-3.724285
-4.073194
-4.547912
-4.656293
-5.137032
-5.472314
-5.228935
-5.394041
-5.322739
-5.195029
-4.901896
-4.552355
-4.042146
-3.541126
-2.957078
-2.315988
-1.759194
-1.200815
-0.715007
-0.331558
-0.025432
0.077243
0.080728
-0.061561
-0.475751
-1.103850
-1.832723
-2.675046
-3.521490
-4.156877
-4.597370
-4.896525
-5.209941
-5.370927
-5.521456
-5.577548
-5.625084
-5.581353
-5.629523
-5.597833
-5.527799
-5.336075
-4.953576
-4.420866
-3.828262
-3.072771
-2.338195
-1.632458
-0.957459
-0.444714
0.193840
0.904965
1.716548
2.543342
3.520981
4.348091
5.172033
5.562454
5.771925
5.609988
5.316537
4.959072
4.512241
4.253015
4.142099
4.274880
4.498294
5.046215
5.641671
6.509662
7.460998
8.497897
9.589620
10.611308
11.549651
12.455036
13.208626
13.926089
14.539292
15.129044
15.724817
16.102562
16.444180
16.577912
16.688509
17.005410
17.011747
17.071007
17.272238
17.326110
17.352729
17.408186
17.505791
17.422445
17.376177
16.856459
16.297444
15.635121
14.757938
13.768889
12.796636
11.990757
11.202623
10.559313
9.998715
9.490405
8.987165
8.591038
8.103327
7.646038
7.119031
6.544172
5.828926
5.181813
4.391778
3.587166
2.714420
1.878118
1.173963
0.357308
-0.320860
-0.954346
-1.627128
-2.525226
-3.375789
-4.241246
-5.220788
-5.894203
-6.608815
-7.088921
-7.154520
-7.780401
-7.751880
-7.711951
-7.689769
-7.797516
-8.072270
-8.168292
-8.587870
-8.984947
-9.597834
-9.968926
-10.526673
-10.981743
-11.563891
-11.931497
-12.543433
-12.588751
-12.860653
-13.478294
-13.820864
-14.145055
-13.516958
-13.967592
-14.188472
-13.646573
-13.315095
-12.853054
-12.122915
-11.593374
-11.099326
-10.351441
-9.811759
-9.502148
-9.161480
-9.157361
-9.311059
-9.330391
-9.353842
-9.078139
-8.987189
-8.895923
-8.715290
-8.734305
-8.955502
-9.102545
-9.422299
-9.711947
-10.055468
-10.543497
-10.919342
-11.271420
-11.532547
-11.734414
-11.861809
-11.940718
-11.977479
-11.908078
-11.860544
-11.904911
-11.944524
-12.176497
-12.416391
-12.631885
-12.762766
-12.860372
-12.827098
-12.692733
-12.520339
-12.237665
-11.940412
-11.660589
-11.399464
-11.152282
-10.990980
-10.956439
-10.882601
-10.704821
-10.453836
-9.935704
-9.445142
-8.770143
-8.098948
-7.609337
-7.082331
-6.627896
-6.228918
-6.031173
-5.901561
-5.869555
-5.822654
-5.745331
-5.636952
-5.501953
-5.434771
-5.291215
-5.102026
-4.812380
-4.451747
-3.790376
-3.024744
-2.119041
-1.011473
0.278313
1.730669
3.248307
4.795734
6.234463
7.507137
8.674916
9.684879
10.481884
11.234206
11.793219
12.330682
12.752793
13.200890
13.494023
13.835641
14.028633
14.326203
14.451695
14.422222
14.394334
14.128136
13.805847
13.270918
12.810143
12.235284
11.882889
11.528593
11.465529
11.324508
11.347007
11.263661
11.265245
11.111230
11.080173
11.228482
10.736968
10.630805
10.565840
10.375698
10.162423
10.108866
9.992563
10.023301
9.967843
9.818582
9.479497
9.152455
8.792771
8.552559
8.466045
8.556361
8.709423
8.815901
8.962309
9.031075
8.919209
8.594701
8.364947
8.154524
7.841108
7.598678
7.487129
7.293818
7.174029
6.832092
6.704697
6.465436
6.377654
5.913710
5.666526
5.120822
4.946526
4.539624
4.444236
4.283567
4.110855
4.250924
3.750220
4.686979
4.300676
4.364055
4.593491
4.384652
4.709158
4.684439
4.973135
5.934612
6.529751
6.839362
8.187775
8.464429
9.334321
10.125622
9.774495
10.523014
9.495621
11.769384
10.010266
8.552838
11.321284
9.191075
9.425264
9.400862
8.734419
8.233080
7.887975
6.375089
5.353716
4.647026
3.191816
1.734388
0.484213
-0.394237
-1.645363
-2.644870
-3.546137
-3.938778
-4.406207
-4.542476
-4.623286
-4.198640
-4.081704
-3.933078
-3.859558
-3.781284
-3.970475
-4.278186
-4.718046
-5.045088
-5.426955
-6.003081
-6.664771
-7.072307
-7.601849
-8.034103
-7.933963
-7.988154
-7.738753
-7.222839
-7.011467
-6.783933
-6.034146
-6.063302
-5.981542
-4.889819
-4.109926
-4.301969
-3.415598
-2.323558
-1.860250
-0.927611
0.068725
0.682878
1.284039
1.757805
1.867135
2.021782
2.296851
2.216991
2.052519
2.458785
2.481284
2.184981
