EVENT_NAME: 202302060117
EVENT_ID: 13194
EVENT_DATE_YYYYMMDD: 2023/02/06
EVENT_TIME_HHMMSS: 01:17:32.00000
EVENT_LATITUDE_DEGREE: 37.288
EVENT_LONGITUDE_DEGREE: 37.043
EVENT_DEPTH_KM: 8.6
HYPOCENTER_REFERENCE: AFAD
MAGNITUDE_W: 7.7
MAGNITUDE_W_REFERENCE: AFAD
MAGNITUDE_L: 
MAGNITUDE_L_REFERENCE: 
FOCAL_MECHANISM: 
NETWORK: TK
STATION_CODE: 2508
STATION_NAME: 
STATION_LATITUDE_DEGREE: 39.94292
STATION_LONGITUDE_DEGREE: 41.11017
STATION_ELEVATION_M: 1755.0
LOCATION: Kahramanmaras_Pazarck_Turkiye
SENSOR_DEPTH_M: 
VS30_M/S: 195
SITE_CLASSIFICATION_EC8: C
MORPHOLOGIC_CLASSIFICATION: 
EPICENTRAL_DISTANCE_KM: 460.36
EARTHQUAKE_BACKAZIMUTH_DEGREE: 
DATE_TIME_FIRST_SAMPLE_YYYYMMDD_HHMMSS: 2023/02/06 01:18:10.4221370
DATE_TIME_FIRST_SAMPLE_PRECISION: millisecond
SAMPLING_INTERVAL_S: 0.01
NDATA: 24501
DURATION_S: 
STREAM: HNN
UNITS: cm/s^2
INSTRUMENT: sensor = CMG-5T/GURALP | digitizer = 
INSTRUMENT_ANALOG/DIGITAL: 
INSTRUMENTAL_FREQUENCY_HZ: 
INSTRUMENTAL_DAMPING: 
FULL_SCALE_G: 
N_BIT_DIGITAL_CONVERTER: 
PGA_CM/S^2: 9.594
TIME_PGA_S: 
BASELINE_CORRECTION: BASELINE REMOVED
FILTER_TYPE: BUTTERWORTH
FILTER_ORDER: 
LOW_CUT_FREQUENCY_HZ: 
HIGH_CUT_FREQUENCY_HZ: 
LATE/NORMAL_TRIGGERED: 
DATABASE_VERSION: 
HEADER_FORMAT: DYNA 1.2
DATA_TYPE: Acceleration
PROCESSING: Automatic Paolucci et al., 2011
DATA_TIMESTAMP_YYYYMMDD_HHMMSS: 
DATA_LICENSE: U (unknown license)
DATA_CITATION: Turkish Accelerometric Archive v 1.0 - Disaster And Emergency Management Presidency, Earthquake Department
DATA_CREATOR: AFAD
ORIGINAL_DATA_MEDIATOR_CITATION: : AFAD - Disaster And Emergency Management Presidency
ORIGINAL_DATA_MEDIATOR: AFAD PROCESS SERVICE
ORIGINAL_DATA_CREATOR_CITATION: AFAD PROCESS SERVICE
ORIGINAL_DATA_CREATOR: network: TK
USER1: GuestUser
USER2: 
USER3: 
USER4: 
USER5: 
[...]
-0.231010
-0.162055
-0.098208
-0.054473
-0.020954
0.002989
0.021185
0.023419
0.016077
0.001073
-0.018720
-0.045217
-0.076502
-0.111618
-0.143222
-0.178977
-0.217285
-0.266767
-0.326464
-0.399888
-0.472354
-0.553440
-0.635484
-0.722316
-0.810105
-0.896618
-0.974192
-1.046020
-1.109548
-1.170203
-1.218408
-1.264058
-1.286086
-1.306836
-1.310348
-1.313540
-1.293429
-1.257674
-1.215536
-1.168927
-1.130300
-1.085288
-1.025591
-0.860866
-0.926948
-0.855121
-0.698376
-0.589517
-0.557275
-0.396700
-0.277945
-0.181536
-0.055438
0.037778
0.192288
0.300827
0.387340
0.482153
0.598673
0.714874
0.815433
0.896200
0.976647
1.031236
1.112640
1.174572
1.246080
1.318866
1.387501
1.447517
1.518387
1.575849
1.646081
1.715674
1.785586
1.848475
1.908810
1.953822
1.995961
2.044485
2.108651
2.175690
2.241771
2.291572
2.336265
2.368188
2.386703
2.377126
2.353183
2.311364
2.268267
2.211762
2.152384
2.065552
1.975209
1.859965
1.740571
1.619261
1.503060
1.378877
1.240967
1.110400
0.974087
0.837773
0.700183
0.576001
0.470972
0.382863
0.283262
0.183660
0.079909
-0.010754
-0.094713
-0.181545
-0.253692
-0.326478
-0.403094
-0.499184
-0.603255
-0.705091
-0.803416
-0.900782
-1.004853
-1.103816
-1.196713
-1.261199
-1.289611
-1.294081
-1.289292
-1.288015
-1.312277
-1.339732
-1.363036
-1.383786
-1.406133
-1.432630
-1.471257
-1.514673
-1.560324
-1.611083
-1.660883
-1.711003
-1.772297
-1.822736
-1.853702
-1.861683
-1.858171
-1.861364
-1.875410
-1.892968
-1.917550
-1.952027
-1.992570
-2.016832
-2.023536
-2.017790
-2.014917
-2.013960
-1.996083
-1.955221
-1.888181
-1.802627
-1.722818
-1.655140
-1.617790
-1.617471
-1.630241
-1.632795
-1.625772
-1.628326
-1.643011
-1.665357
-1.683554
-1.690577
-1.686108
-1.681000
-1.690577
-1.712286
-1.740059
-1.757936
-1.768152
-1.789860
-1.817315
-1.845088
-1.853708
-1.828169
-1.772942
-1.697283
-1.609494
-1.518512
-1.418272
-1.312286
-1.199597
-1.088822
-0.979963
-0.871104
-0.778846
-0.690418
-0.600394
-0.520904
-0.454504
-0.410769
-0.377888
-0.353626
-0.318191
-0.280521
-0.242213
-0.202948
-0.170386
-0.136547
-0.096324
-0.046523
0.017962
0.088194
0.168002
0.261857
0.366885
0.475106
0.571195
0.633765
0.659942
0.637915
0.594818
0.539910
0.513413
0.506390
0.572152
0.637914
0.723150
0.838393
0.955552
1.073031
1.173270
1.308945
1.434404
1.577102
1.696496
1.810143
1.916767
2.012857
2.105754
2.202801
2.272394
2.315172
2.319641
2.304956
2.292825
2.303040
2.319640
2.341987
2.370718
2.420199
2.478299
2.540231
2.601843
2.637916
2.618762
2.554915
2.479256
2.420836
2.401682
2.416366
2.450844
2.498729
2.548210
2.598649
2.638872
2.659942
2.667284
2.637914
2.566725
2.468081
2.368799
2.291225
2.242382
2.218439
2.197369
2.152676
2.053075
1.897607
1.694893
1.476536
1.288187
1.167516
1.122504
1.141977
1.192736
1.244451
1.290102
1.309256
1.292017
1.223701
1.116118
0.991936
0.871265
0.761767
0.672701
0.595765
0.543729
0.510529
0.498078
0.468389
0.432635
0.359530
0.283233
0.202147
0.149792
0.068387
-0.029618
-0.172955
-0.317568
-0.480378
-0.598176
-0.711504
-0.771521
-0.855160
-0.915496
-1.041913
-1.061386
-1.170246
-1.305282
-1.286447
-1.289002
-1.302410
-1.366895
-1.454366
-1.659953
-1.809674
-1.981742
-2.093155
-2.086132
-2.072405
-2.061551
-2.041120
-2.047186
-2.027074
-2.039525
-2.029948
-2.018456
-1.996748
-1.992279
-2.022287
-2.091880
-2.181905
-2.301618
-2.422927
-2.550621
-2.629153
-2.716304
-2.789409
-2.874326
-2.965946
-3.042563
-3.072890
-3.033944
-2.932108
-2.808564
-2.705452
-2.693640
-2.783026
-2.954775
-3.161000
-3.351265
-3.470659
-3.512159
-3.473213
-3.358927
-3.156532
-2.875925
-2.560202
-2.266825
-2.064430
-1.972491
-1.995795
-2.096035
-2.246395
-2.379835
-2.483267
-2.540410
-2.578400
-2.573611
-2.547115
-2.489333
-2.419740
-2.331632
-2.225007
-2.101144
-1.978239
-1.843841
-1.717744
-1.591646
-1.462037
-1.330832
-1.207607
-1.082148
-0.954135
-0.813352
-0.670974
-0.549984
-0.452937
-0.361636
-0.234900
-0.065067
0.126793
0.314184
0.487528
0.640442
0.780266
0.908279
1.016819
1.083858
1.119293
1.144832
1.207082
1.327753
1.492797
1.650818
1.761593
1.803412
1.801178
1.797347
1.827674
1.891840
1.980268
2.097746
2.243636
2.420492
2.618737
2.816982
2.992880
3.117701
3.174524
3.169736
3.128554
3.080988
3.033103
3.011075
3.035337
3.087372
3.165904
3.233262
3.284978
3.308282
3.298066
3.270612
3.231027
3.185695
3.145791
3.134937
3.163348
3.218257
3.277315
3.327115
3.369254
3.429909
3.518656
3.623365
3.730947
3.824163
3.880668
3.903972
3.886733
3.833101
3.741800
3.615383
3.453530
3.265501
3.065979
2.887846
2.759833
2.691835
2.679385
2.719289
2.783136
2.845706
2.901891
2.935411
2.946264
2.940199
2.910191
2.867094
2.801970
2.723119
2.639160
2.582336
2.571162
2.581058
2.594147
2.565096
2.501249
2.399733
2.279381
2.157752
2.052724
1.963976
1.894702
1.834047
1.777862
1.699011
1.605156
1.509066
1.455753
1.432449
1.434045
1.423510
1.410102
1.371794
1.331570
1.290389
1.276981
1.287515
1.344977
1.414251
1.487037
1.532049
1.575145
1.612815
1.673150
1.733485
1.797651
1.823828
1.818082
1.757427
1.685280
1.583763
1.490866
1.383603
1.282724
1.156626
1.044256
0.939866
0.891342
0.892938
0.946569
0.979769
0.971150
1.055108
0.749601
0.614564
0.542736
0.450158
0.289263
0.251593
0.188066
0.189662
0.217754
0.229246
0.376733
0.448560
0.404506
0.288624
0.144329
-0.086478
-0.402840
-0.634604
-0.802841
-0.984486
-1.112819
-1.170919
-1.137719
-1.060145
-0.927663
-0.806354
-0.672275
-0.595659
-0.540751
-0.482650
-0.438596
-0.389753
-0.350807
-0.356553
-0.381454
-0.418485
-0.453601
-0.458390
-0.397735
-0.302603
-0.159905
-0.000927
0.145921
0.241372
0.281277
0.261484
0.193167
0.090374
-0.003482
-0.089994
-0.142349
-0.151288
-0.097976
0.023653
0.215193
0.423973
0.589975
0.692130
0.719903
0.678403
0.588378
0.479200
0.399072
0.360763
0.359805
0.381513
0.399071
0.369701
0.312558
0.254776
0.196356
0.141128
0.088135
-0.001570
-0.104364
-0.178426
-0.256639
-0.311228
-0.367733
-0.349856
-0.316017
-0.270047
-0.173958
-0.041476
0.124526
0.312875
0.518462
0.663394
0.702022
0.697552
0.658605
0.661159
0.724687
0.788214
0.827480
0.858126
0.931870
1.029874
1.124687
1.221415
1.291966
1.301224
1.239930
1.085101
0.875683
0.655411
0.469616
0.324364
0.210716
0.118138
0.049502
-0.022964
-0.100858
-0.155447
-0.211313
-0.303572
-0.431266
-0.579072
-0.714747
-0.824883
-0.913631
-0.988970
-1.047071
-1.070695
-1.078995
-1.098788
-1.134223
-1.184024
-1.259363
-1.370457
-1.538375
-1.776205
-2.056174
-2.331355
-2.553861
-2.688898
-2.741253
-2.729760
-2.651229
-2.504381
-2.287940
-2.040852
-1.784826
-1.536461
-1.312359
-1.140610
-1.050586
-1.044202
-1.088895
-1.155296
-1.220420
-1.273094
-1.303102
-1.294164
-1.237021
-1.111561
-0.912678
-0.675168
-0.426165
-0.196954
0.006398
0.194427
0.391714
0.593790
0.786288
0.967294
1.120527
1.240878
1.350376
1.460512
1.586290
1.757719
1.988845
2.289245
2.609756
2.921330
3.220133
3.465625
3.617261
3.691004
3.744955
3.775601
3.806248
3.864348
3.949264
4.056527
4.166663
4.264987
4.368419
4.470255
4.573368
4.689888
4.800024
4.898348
4.984861
5.096274
5.254933
5.469140
5.701862
5.924049
6.104736
6.228280
6.289573
6.306811
6.300107
6.284145
6.252221
6.210082
6.155174
6.087815
6.020137
5.947351
5.897870
5.876162
5.893720
5.953097
6.048229
6.178477
6.316705
6.452061
6.569858
6.669778
6.729156
6.755652
6.743840
6.708725
6.617742
6.519418
6.421413
6.348946
6.254453
6.107604
5.942879
5.785496
5.611194
5.405606
5.245350
5.070729
4.899619
4.696266
4.460351
4.223798
3.967452
3.718130
3.506158
3.316532
3.162341
3.010705
2.899292
2.844383
2.865452
2.912699
2.945580
3.000488
3.037200
3.031135
3.013576
2.939195
2.834166
2.653798
2.460342
2.292105
2.065767
1.835280
1.611815
1.390266
1.195852
0.971429
0.745730
0.578770
0.432561
0.268154
0.038305
-0.247729
-0.568880
-0.854276
-1.096895
-1.298332
-1.436241
-1.564255
-1.715253
-1.916690
-2.129939
-2.348615
-2.572399
-2.785010
-3.030821
-3.212466
-3.372083
-3.509354
-3.549259
-3.540640
-3.548940
-3.574798
-3.639284
-3.717816
-3.790282
-3.806882
-3.788367
-3.733778
-3.681104
-3.683977
-3.740801
-3.810714
-3.833061
-3.845511
-3.868177
-3.927555
-3.991402
-3.998744
-3.963309
-3.901059
-3.822208
-3.763469
-3.781985
-3.839128
-3.867859
-3.833701
-3.737611
-3.638330
-3.547986
-3.504890
-3.449343
-3.361234
-3.250460
-3.114147
-2.946229
-2.863229
-2.738727
-2.565702
-2.411192
-2.264345
-2.120370
-1.996826
-1.976714
-2.034496
-2.114943
-2.232741
-2.357562
-2.470891
-2.536015
-2.556765
-2.558042
-2.536334
-2.506646
-2.442160
-2.367779
-2.293078
-2.232743
-2.179750
-2.142719
-2.096111
-2.028433
-1.920532
-1.797946
-1.644713
-1.480946
-1.314305
-1.157561
-1.006563
-0.861312
-0.689244
-0.464503
-0.199219
0.085219
0.352099
0.576521
0.726881
0.761039
0.681230
0.514270
0.309002
0.126719
0.008921
-0.022684
0.027755
0.138530
0.301020
0.492561
0.700063
0.933105
1.189769
1.467503
1.731830
1.937417
2.087457
2.187058
2.236220
2.236539
2.195677
2.138215
2.079156
2.028398
1.970935
1.892084
1.774286
1.634780
1.494636
1.392481
1.348746
1.367580
1.412592
1.456647
1.491443
1.544436
1.636375
1.761515
1.885378
2.003814
2.083942
2.120335
2.098946
2.017541
1.897508
1.755768
1.625520
1.538049
1.519853
1.581784
1.707563
1.859838
2.003493
2.100221
2.137252
2.117459
2.042120
1.948584
1.858560
1.796628
1.762150
1.749700
1.744273
1.712349
1.648183
1.536131
1.393752
1.246266
1.127829
1.061109
1.055682
1.103248
1.173799
1.243711
1.312346
1.398859
1.504525
1.608596
1.694470
1.764382
1.817056
1.872922
1.934534
2.002850
2.052650
2.049139
1.969649
1.807797
1.577628
1.312025
1.024075
0.722717
0.415294
0.127663
-0.128683
-0.352467
-0.510169
-0.616793
-0.678406
-0.694368
-0.682556
-0.642652
-0.592532
-0.523897
-0.427488
-0.293410
-0.125173
0.031571
0.208108
0.385283
0.512658
0.612259
0.682810
0.726225
0.760703
0.790391
0.824549
0.874350
0.962139
1.063975
1.161341
1.259346
1.356074
1.444822
1.535484
1.584008
1.597735
1.605077
1.633808
1.724470
1.864934
2.060944
2.295581
2.534688
2.733571
2.889996
3.055998
3.199654
3.314259
3.384490
3.411306
3.387682
3.285846
3.144106
2.994704
2.888398
2.828063
2.814016
2.843705
2.899890
2.972676
3.043226
3.115054
3.199651
3.310106
3.431735
3.512182
3.520801
3.501327
3.440034
3.356714
3.311701
3.300528
3.306593
3.256473
3.186561
3.133568
3.037478
2.885841
2.707708
2.540429
2.431569
2.361018
2.230770
2.119996
2.094138
2.067322
2.001559
1.886315
1.726698
1.494614
1.267957
1.061412
0.882959
0.759096
0.662687
0.581601
0.504346
0.433795
0.327171
0.180642
-0.024627
-0.356631
-0.773871
-1.197177
-1.600690
-2.012822
-2.430701
-2.810590
-3.149937
-3.413306
-3.626874
-3.817457
-3.983779
-4.114665
-4.192240
-4.205648
-4.157124
-4.047307
-3.889286
-3.687211
-3.454489
-3.239005
-3.080346
-2.965102
-2.889124
-2.840601
-2.825916
-2.830066
-2.856882
-2.902214
-2.940522
-2.955526
-2.953611
-2.950738
-2.962231
-2.973085
-2.976916
-2.963508
-2.921369
-2.850499
-2.742598
-2.598623
-2.433579
-2.256723
-2.108279
-2.011232
-1.960473
-1.948343
-1.967497
-2.005805
-2.063268
-2.140203
-2.228632
-2.340364
-2.449223
-2.530309
-2.555848
-2.531586
-2.460397
-2.361434
-2.250979
-2.130309
-1.998784
-1.878433
-1.777874
-1.712431
-1.676996
-1.627195
-1.535256
-1.389366
-1.212190
-1.035335
-0.881144
-0.756643
-0.660553
-0.577552
-0.499340
-0.405166
-0.280345
-0.097424
0.150302
0.436017
0.724925
0.982547
1.183346
1.319659
1.408725
1.469380
1.533227
1.617824
1.729237
1.900346
2.122853
2.372814
2.651825
2.958609
3.280398
3.607294
3.914717
4.183513
4.420704
4.620864
4.775055
4.891256
4.982876
5.056300
5.106101
5.133555
5.146324
5.160370
5.204105
5.259971
5.312325
5.349995
5.360849
5.345206
5.311048
5.252308
5.185588
5.134191
5.108333
5.082794
5.054382
4.985427
4.854541
4.653742
4.399950
4.142647
3.906413
3.717745
3.581112
3.474487
3.379355
3.285500
3.191645
3.119178
3.040647
2.949984
2.856448
2.761316
2.703215
2.674483
2.637133
2.590205
2.515504
2.411753
2.276078
2.130187
2.003131
1.893953
1.774878
1.652292
1.554925
1.515978
1.518532
1.562267
1.621645
1.699538
1.758277
1.776792
1.768173
1.751892
1.685172
1.597063
1.532258
1.441276
1.387963
1.306877
1.189399
1.036804
0.910068
0.787801
0.671280
0.578702
0.491551
0.363537
0.215093
0.110384
0.034086
0.000886
-0.029122
-0.043488
-0.002945
0.079098
0.155076
0.184126
0.167206
0.121236
0.036958
-0.119467
-0.249077
-0.349955
-0.475095
-0.652590
-0.809654
-0.909255
-0.995768
-1.048442
-1.112608
-1.192098
-1.305107
-1.457382
-1.624661
-1.790664
-2.010936
-2.241424
-2.460419
-2.700803
-2.972791
-3.240629
-3.449409
-3.624669
-3.798971
-3.917408
-3.964974
-3.975190
-3.959547
-3.955717
-3.961144
-3.990513
-4.071599
-4.228663
-4.426269
-4.633453
-4.828506
-4.975673
-5.073678
-5.149337
-5.232019
-5.321724
-5.429626
-5.505604
-5.513585
-5.501135
-5.511989
-5.549340
-5.616379
-5.710234
-5.836332
-6.007123
-6.248784
-6.558442
-6.902896
-7.263313
-7.643841
-8.027561
-8.372335
-8.668904
-8.938339
-9.179680
-9.381756
-9.517431
-9.589259
-9.593729
-9.547759
-9.481039
-9.409531
-9.320464
-9.242571
-9.197240
-9.219267
-9.285668
-9.339938
-9.416236
-9.485190
-9.505941
-9.468910
-9.429006
-9.357497
-9.236507
-9.119987
-9.021024
-8.923338
-8.822460
-8.729882
-8.634431
-8.544407
-8.485668
-8.463002
-8.492372
-8.505461
-8.518550
-8.530681
-8.467473
-8.355102
-8.203785
-8.005859
-7.761964
-7.432833
-7.161484
-6.934189
-6.622615
-6.301785
-6.025966
-5.768024
-5.430274
-5.039211
-4.672091
-4.311995
-3.979671
-3.684698
-3.411114
-3.183500
-2.995471
-2.848942
-2.726356
-2.627713
-2.526196
-2.408399
-2.270489
-2.068414
-1.781103
-1.437925
-1.102729
-0.801052
-0.545345
-0.342950
-0.197699
-0.119805
-0.108313
-0.143748
-0.214299
-0.313262
-0.436168
-0.568970
-0.688364
-0.769449
-0.781261
-0.710391
-0.543751
-0.289002
0.026722
0.385861
0.757769
1.128401
1.475728
1.810286
2.127605
2.390016
2.577407
2.668069
2.669346
2.599114
2.489936
2.353942
2.216990
2.103981
2.009487
1.914355
1.797834
1.651305
1.477322
1.304616
1.151702
1.038373
0.941326
0.868540
0.805012
0.758085
0.722649
0.685937
0.639010
0.568458
0.497907
0.425760
0.344994
0.259758
0.195272
0.172287
0.217618
0.343716
0.537491
0.768937
1.009959
1.226081
1.397190
1.514349
1.579473
1.568619
1.520095
1.431667
1.342281
1.286415
1.280030
1.347069
1.465186
1.605968
1.768778
1.935738
2.088012
2.201979
2.260718
2.295515
2.331269
2.330949
2.305091
2.247629
2.156647
2.068857
2.003414
1.975640
1.988729
2.031187
2.103653
2.221450
2.339567
2.412672
2.435976
2.475880
2.525042
2.610597
2.716583
2.868219
3.067421
3.252578
3.412195
3.574047
3.723448
3.888812
4.036298
4.122492
4.136219
4.121214
4.079394
4.006290
3.913073
3.764948
3.574045
3.389208
3.227675
3.084658
2.959837
2.842677
2.711791
2.568454
2.443314
2.367974
2.373082
2.387767
2.338924
2.200056
2.000215
1.756639
1.460070
1.112742
0.759349
0.455756
0.232611
0.070759
-0.023097
0.007869
0.151844
0.341150
0.547056
0.752005
0.928542
1.070601
1.175948
1.249053
1.258949
1.209148
1.117528
0.972595
0.789993
0.598452
0.385841
0.118641
-0.206978
-0.516956
-0.755105
-0.923661
-1.039544
-1.114245
-1.134676
-1.111372
-1.101476
-1.112968
-1.142657
-1.182881
-1.225339
-1.278013
-1.319195
-1.375380
-1.455189
-1.546490
-1.645134
-1.730051
-1.772828
-1.779852
-1.775383
-1.779852
-1.811456
-1.864769
-1.930851
-2.010659
-2.096853
-2.167723
-2.216247
-2.255513
-2.300525
-2.352242
-2.376504
-2.358627
-2.302122
-2.204756
-2.080254
-1.926064
-1.768043
-1.593421
-1.413054
-1.228856
-1.073069
-0.983045
-0.981449
-1.085520
-1.291107
-1.606831
-2.034925
-2.519523
-3.012103
-3.495105
-3.973000
-4.425037
-4.822484
-5.135015
-5.344114
-5.476278
-5.552256
-5.591203
-5.603972
-5.623765
-5.642281
-5.684420
-5.744436
-5.869895
-5.956408
-6.205731
-6.446753
-6.637017
-6.767585
-6.883786
-6.961360
-6.941887
-6.863036
-6.722892
-6.542525
-6.235102
-5.854893
-5.468939
-5.067980
-4.691921
-4.355767
-4.073244
-3.863826
-3.657282
-3.531184
-3.526715
-3.471168
-3.418175
-3.405725
-3.444034
-3.445949
-3.469892
-3.540762
-3.711872
-3.941402
-4.231906
-4.533583
-4.836537
-5.105972
-5.381471
-5.629517
-5.902144
-6.150828
-6.391850
-6.535506
-6.573815
-6.749394
-6.719386
-6.586584
-6.423456
-6.317150
-6.132952
-5.980996
-5.798713
-5.582272
-5.308688
-5.045958
-4.419619
-4.001741
-3.278355
-2.802057
-2.298624
-1.614504
-1.219291
-0.550175
-0.073877
0.230673
0.411679
0.549589
0.805615
0.936501
1.052702
1.237220
1.459727
1.783750
1.861324
2.087342
2.399873
2.541932
2.624614
2.723257
2.784231
2.615355
2.404979
2.207054
1.878561
1.620938
1.311280
1.036738
0.861478
0.706330
0.554693
0.517023
0.532666
0.513831
0.419656
0.270893
0.147029
0.067859
0.035616
0.092440
0.209599
0.377197
0.608004
0.863072
1.149106
1.450145
1.727240
1.996674
2.260043
2.458607
2.518623
2.398271
2.097552
1.723089
1.306807
0.916063
0.584697
0.334417
0.170330
0.122445
0.192038
0.317497
0.478072
0.652693
0.778472
0.876796
0.974801
1.042478
1.056525
1.050140
1.038647
0.951496
0.775917
0.568095
0.340161
0.084453
-0.234462
-0.639891
-1.094801
-1.585145
-2.096241
-2.583074
-2.982437
-3.241975
-3.334234
-3.348600
-3.387866
-3.500875
-3.662408
-3.762329
-3.775098
-3.750836
-3.702632
-3.595050
-3.398082
-3.165680
-2.991058
-2.874218
-2.800156
-2.747482
-2.624577
-2.418671
-2.158175
-1.942373
-1.865118
-1.978447
-2.234792
-2.544770
-2.757061
-2.777173
-2.601913
-2.369191
-2.201593
-2.207658
-2.364403
-2.579887
-2.708538
-2.769512
-2.743016
-2.696408
-2.705027
-2.714285
-2.812610
-2.891142
-3.103752
-3.145891
-3.137911
-2.872946
-2.517957
-2.184995
-1.915561
-1.777971
-1.835433
-1.988028
-2.271189
-2.608621
-2.891463
-3.422031
-3.815967
-4.141906
-4.418364
-4.668006
-4.831454
-4.913817
-5.113019
-5.315734
-5.583253
-5.808952
-6.166814
-6.539042
-6.785492
-6.850935
-6.718133
-6.444549
-6.153727
-5.938243
-5.739041
-5.637205
-5.480142
-5.317970
-5.036725
-4.985009
-4.807195
-4.771441
-4.893389
-4.918289
-4.953086
-4.751330
-4.630978
-4.205438
-4.079660
-4.357075
-3.693705
-3.612620
-3.622836
-3.528661
-2.947016
-2.723551
-3.295940
-3.361383
-2.591389
-2.822834
-3.252524
-3.380538
-3.285725
-2.948613
-3.011503
-3.039276
-3.374792
-3.513979
-3.805759
-4.332497
-4.925636
-5.103130
-5.767139
-6.209279
-7.158365
-7.074406
-7.665949
-7.570178
-7.402261
-7.395876
-7.137296
-7.125485
-6.585339
-6.249185
-5.763629
-5.196030
-4.283018
-3.646783
-3.026510
-2.510307
-1.908869
-1.543665
-1.227622
-1.072155
-0.977662
-1.154518
-1.311901
-1.555158
-1.854600
-2.273117
-2.753247
-3.320527
-3.726594
-4.059556
-4.290363
-4.516062
-4.763789
