EVENT_NAME: 202302060117
EVENT_ID: 13194
EVENT_DATE_YYYYMMDD: 2023/02/06
EVENT_TIME_HHMMSS: 01:17:32.00000
EVENT_LATITUDE_DEGREE: 37.288
EVENT_LONGITUDE_DEGREE: 37.043
EVENT_DEPTH_KM: 8.6
HYPOCENTER_REFERENCE: AFAD
MAGNITUDE_W: 7.7
MAGNITUDE_W_REFERENCE: AFAD
MAGNITUDE_L: 
MAGNITUDE_L_REFERENCE: 
FOCAL_MECHANISM: 
NETWORK: TK
STATION_CODE: 5813
STATION_NAME: 
STATION_LATITUDE_DEGREE: 40.213954
STATION_LONGITUDE_DEGREE: 37.540207
STATION_ELEVATION_M: 1303.0
LOCATION: Kahramanmaras_Pazarck_Turkiye
SENSOR_DEPTH_M: 
VS30_M/S: 978
SITE_CLASSIFICATION_EC8: A
MORPHOLOGIC_CLASSIFICATION: 
EPICENTRAL_DISTANCE_KM: 328.19
EARTHQUAKE_BACKAZIMUTH_DEGREE: 
DATE_TIME_FIRST_SAMPLE_YYYYMMDD_HHMMSS: 2023/02/06 01:18:06.0601540
DATE_TIME_FIRST_SAMPLE_PRECISION: millisecond
SAMPLING_INTERVAL_S: 0.01
NDATA: 18251
DURATION_S: 
STREAM: HNE
UNITS: cm/s^2
INSTRUMENT: sensor = ACEBOX/SARA | digitizer = 
INSTRUMENT_ANALOG/DIGITAL: 
INSTRUMENTAL_FREQUENCY_HZ: 
INSTRUMENTAL_DAMPING: 
FULL_SCALE_G: 
N_BIT_DIGITAL_CONVERTER: 
PGA_CM/S^2: 4.803
TIME_PGA_S: 
BASELINE_CORRECTION: BASELINE REMOVED
FILTER_TYPE: BUTTERWORTH
FILTER_ORDER: 
LOW_CUT_FREQUENCY_HZ: 
HIGH_CUT_FREQUENCY_HZ: 
LATE/NORMAL_TRIGGERED: 
DATABASE_VERSION: 
HEADER_FORMAT: DYNA 1.2
DATA_TYPE: Acceleration
PROCESSING: Automatic Paolucci et al., 2011
DATA_TIMESTAMP_YYYYMMDD_HHMMSS: 
DATA_LICENSE: U (unknown license)
DATA_CITATION: Turkish Accelerometric Archive v 1.0 - Disaster And Emergency Management Presidency, Earthquake Department
DATA_CREATOR: AFAD
ORIGINAL_DATA_MEDIATOR_CITATION: : AFAD - Disaster And Emergency Management Presidency
ORIGINAL_DATA_MEDIATOR: AFAD PROCESS SERVICE
ORIGINAL_DATA_CREATOR_CITATION: AFAD PROCESS SERVICE
ORIGINAL_DATA_CREATOR: network: TK
USER1: GuestUser
USER2: 
USER3: 
USER4: 
USER5: 
[...]
1.072982
1.066203
1.054747
1.039551
1.027160
1.010327
0.966140
0.900210
0.816277
0.714576
0.618485
0.528006
0.435891
0.341437
0.234592
0.124007
0.028852
-0.045495
-0.098567
-0.130363
-0.145793
-0.159119
-0.160989
-0.149298
-0.138075
-0.114461
-0.080327
-0.039879
0.016233
0.060187
0.091750
0.129860
0.151837
0.158852
0.158385
0.135473
0.091052
0.023719
-0.061617
-0.140406
-0.208674
-0.267123
-0.305699
-0.328377
-0.339832
-0.344040
-0.358301
-0.380979
-0.407632
-0.436622
-0.453455
-0.465144
-0.471456
-0.462805
-0.444335
-0.397107
-0.319486
-0.220589
-0.095273
0.030744
0.142032
0.244436
0.326031
0.398041
0.471454
0.543464
0.622021
0.708760
0.797370
0.888084
0.991890
1.097567
1.187346
1.283671
1.388646
1.488010
1.592051
1.691883
1.779557
1.864426
1.939242
2.006810
2.063389
2.090276
2.087004
2.061286
2.015463
1.950701
1.861625
1.747299
1.620347
1.482641
1.331609
1.181979
1.028842
0.869861
0.724205
0.584863
0.452300
0.330726
0.201203
0.074953
-0.054570
-0.206538
-0.358272
-0.504161
-0.650050
-0.786587
-0.913772
-1.037217
-1.166038
-1.290418
-1.401004
-1.510654
-1.608147
-1.680857
-1.736033
-1.771570
-1.785129
-1.784194
-1.777881
-1.765723
-1.742109
-1.713585
-1.673839
-1.623338
-1.577747
-1.534728
-1.483292
-1.421101
-1.349325
-1.271236
-1.197824
-1.147323
-1.122774
-1.113889
-1.117863
-1.132825
-1.147788
-1.156672
-1.171400
-1.177712
-1.162983
-1.149422
-1.144044
-1.158305
-1.198284
-1.246913
-1.305830
-1.361005
-1.409167
-1.462005
-1.505491
-1.550379
-1.601580
-1.654418
-1.713101
-1.763133
-1.815035
-1.870211
-1.917905
-1.972145
-2.011657
-2.031061
-2.035503
-2.011187
-1.984300
-1.969103
-1.965128
-1.985702
-2.023810
-2.077583
-2.140708
-2.198455
-2.247786
-2.287765
-2.323535
-2.349954
-2.358837
-2.361409
-2.353693
-2.334521
-2.324000
-2.317920
-2.308568
-2.310672
-2.312775
-2.296643
-2.280043
-2.258767
-2.218787
-2.174599
-2.120591
-2.055127
-1.990131
-1.921160
-1.864113
-1.833485
-1.823899
-1.837926
-1.873697
-1.918352
-1.953421
-1.972124
-1.974695
-1.950614
-1.917414
-1.897541
-1.879304
-1.858963
-1.845636
-1.841895
-1.840024
-1.839556
-1.837451
-1.815941
-1.785080
-1.753516
-1.710965
-1.670050
-1.621887
-1.557358
-1.491895
-1.418716
-1.337588
-1.250381
-1.156394
-1.062874
-0.963276
-0.862977
-0.758702
-0.643206
-0.537062
-0.437230
-0.333423
-0.230318
-0.126044
-0.022939
0.074321
0.161762
0.244293
0.320044
0.381065
0.434138
0.471546
0.489783
0.499369
0.481834
0.439284
0.388784
0.334310
0.286382
0.235181
0.169017
0.081577
-0.024566
-0.132580
-0.237321
-0.332008
-0.420617
-0.502212
-0.553880
-0.592223
-0.623551
-0.649736
-0.703508
-0.771075
-0.853839
-0.969334
-1.094649
-1.225575
-1.348786
-1.444876
-1.523665
-1.587024
-1.651318
-1.720989
-1.779437
-1.829002
-1.860798
-1.865239
-1.851679
-1.830169
-1.800009
-1.751144
-1.691526
-1.621853
-1.540024
-1.472690
-1.423826
-1.381274
-1.352283
-1.332643
-1.305990
-1.265542
-1.191896
-1.066112
-0.902220
-0.717052
-0.523234
-0.338299
-0.160847
0.002344
0.140519
0.266069
0.380630
0.485138
0.582398
0.674514
0.761721
0.837706
0.913223
0.991312
1.052100
1.092781
1.106809
1.085067
1.033865
0.963025
0.882833
0.788380
0.678028
0.560662
0.435114
0.308396
0.182380
0.042336
-0.108697
-0.258560
-0.405384
-0.546831
-0.672847
-0.782030
-0.878822
-0.948493
-0.994083
-1.027048
-1.035698
-1.031723
-1.032424
-1.031722
-1.036865
-1.056269
-1.094144
-1.158438
-1.246813
-1.359736
-1.492299
-1.645903
-1.818679
-1.998468
-2.192753
-2.398728
-2.603300
-2.811847
-3.014081
-3.203924
-3.386285
-3.552515
-3.704482
-3.844760
-3.966568
-4.070374
-4.154306
-4.207378
-4.223977
-4.213222
-4.179788
-4.116195
-4.022675
-3.898061
-3.741182
-3.560223
-3.366638
-3.159026
-2.932242
-2.699145
-2.465348
-2.238798
-2.031653
-1.844848
-1.687035
-1.545821
-1.405542
-1.278122
-1.148831
-1.019073
-0.903577
-0.792523
-0.702978
-0.642190
-0.601041
-0.584207
-0.578128
-0.570178
-0.553578
-0.528094
-0.504012
-0.476891
-0.451407
-0.428494
-0.406984
-0.390618
-0.380798
-0.381499
-0.378459
-0.372380
-0.368405
-0.348064
-0.320475
-0.282132
-0.217604
-0.137411
-0.038981
0.073476
0.194349
0.324809
0.457138
0.595781
0.729513
0.856232
0.973131
1.049817
1.093070
1.105228
1.076004
1.017555
0.930583
0.833558
0.743079
0.654002
0.579422
0.509984
0.434702
0.354276
0.268006
0.195061
0.136379
0.086347
0.051745
0.020417
-0.012080
-0.034057
-0.039668
-0.028211
-0.001791
0.041695
0.102483
0.165609
0.228033
0.297238
0.360831
0.412735
0.458793
0.492694
0.521218
0.545534
0.560263
0.581072
0.596035
0.603284
0.618481
0.629236
0.642797
0.661735
0.665944
0.665009
0.659165
0.636487
0.594871
0.542969
0.481948
0.407601
0.337463
0.264051
0.182456
0.108811
0.020202
-0.074018
-0.156548
-0.245157
-0.314594
-0.358080
-0.390811
-0.401565
-0.399226
-0.385198
-0.351765
-0.306407
-0.245620
-0.178285
-0.109315
-0.037305
0.026289
0.080296
0.119107
0.137578
0.150671
0.163530
0.171714
0.174052
0.175222
0.180833
0.193225
0.210293
0.231803
0.260093
0.299137
0.350807
0.414868
0.490619
0.578059
0.671111
0.761591
0.842252
0.908885
0.964763
1.016199
1.071609
1.128656
1.167701
1.197393
1.225917
1.235270
1.239245
1.246727
1.247896
1.251170
1.251170
1.245326
1.242755
1.238313
1.236209
1.236210
1.236444
1.241121
1.240654
1.238550
1.236914
1.231537
1.230369
1.221485
1.195768
1.164439
1.126097
1.083780
1.052686
1.031644
1.024163
1.047310
1.093368
1.150182
1.216814
1.285084
1.355223
1.425597
1.485449
1.537119
1.573358
1.594401
1.603285
1.598610
1.585752
1.553722
1.510236
1.469322
1.422096
1.387962
1.373701
1.366453
1.376741
1.383054
1.373936
1.367157
1.350324
1.327880
1.311748
1.286265
1.253534
1.222439
1.188773
1.154873
1.127052
1.106478
1.100400
1.114896
1.137574
1.163760
1.191115
1.213092
1.235771
1.250735
1.260087
1.275752
1.281130
1.280897
1.280196
1.277157
1.285574
1.298667
1.319943
1.352208
1.375588
1.396864
1.417673
1.427960
1.433806
1.435443
1.428663
1.423754
1.433340
1.449706
1.469580
1.491090
1.491090
1.475660
1.456957
1.432642
1.416277
1.409965
1.415343
1.431475
1.449478
1.473794
1.491563
1.503721
1.531076
1.567782
1.609632
1.655457
1.691930
1.718116
1.735651
1.745471
1.757395
1.771891
1.781945
1.791999
1.810002
1.839695
1.881545
1.932279
1.987222
2.037489
2.080041
2.131477
2.204422
2.300981
2.417646
2.544598
2.678565
2.812765
2.952342
3.108519
3.267970
3.427654
3.583129
3.724577
3.857842
3.974274
4.080652
4.192174
4.286161
4.363782
4.438364
4.502425
4.556666
4.600387
4.627508
4.639666
4.640602
4.627743
4.602260
4.569529
4.524874
4.465958
4.391844
4.297157
4.183298
4.056347
3.921446
3.779298
3.647437
3.534747
3.427902
3.334851
3.256997
3.188262
3.141035
3.099653
3.059908
3.032555
2.999122
2.975275
2.970132
2.961482
2.957976
2.955872
2.939507
2.913790
2.874746
2.831728
2.792450
2.755979
2.726053
2.687009
2.639783
2.592790
2.548603
2.514703
2.485713
2.460463
2.433811
2.406223
2.388689
2.361101
2.321824
2.280442
2.215681
2.136892
2.045711
1.928345
1.801394
1.656206
1.477118
1.280729
1.074520
0.858258
0.648777
0.453790
0.257401
0.063584
-0.111530
-0.266537
-0.403776
-0.526753
-0.630090
-0.711685
-0.781122
-0.823673
-0.831855
-0.815022
-0.773873
-0.716826
-0.651362
-0.594315
-0.559245
-0.531189
-0.512952
-0.499625
-0.478816
-0.463385
-0.439538
-0.400493
-0.363552
-0.317026
-0.262785
-0.207140
-0.138170
-0.071771
-0.014490
0.041622
0.076224
0.086746
0.088850
0.086981
0.088851
0.098905
0.109894
0.116675
0.119247
0.122755
0.126496
0.132575
0.155254
0.184947
0.208327
0.233811
0.252516
0.260699
0.285716
0.324293
0.369416
0.426697
0.483043
0.543363
0.614438
0.682707
0.751678
0.818311
0.878865
0.939419
0.988283
1.031068
1.074789
1.114067
1.148436
1.171582
1.184442
1.183039
1.163167
1.139087
1.109161
1.063805
1.002550
0.926099
0.832113
0.718722
0.605565
0.499187
0.385329
0.276614
0.180290
0.092850
0.021776
-0.031529
-0.072209
-0.107279
-0.137672
-0.169935
-0.203368
-0.220902
-0.227915
-0.222538
-0.194481
-0.161983
-0.126679
-0.087401
-0.051395
-0.011883
0.028097
0.062933
0.098471
0.135177
0.167676
0.202746
0.248337
0.292993
0.330401
0.360093
0.373187
0.372252
0.359394
0.332975
0.297438
0.243198
0.172124
0.096842
0.006830
-0.094637
-0.188623
-0.278868
-0.354384
-0.400676
-0.428497
-0.437147
-0.431769
-0.423820
-0.403245
-0.372383
-0.339184
-0.304347
-0.268342
-0.223452
-0.167107
-0.094395
-0.007656
0.076979
0.160679
0.238534
0.308206
0.381619
0.449421
0.515118
0.587362
0.649319
0.697715
0.737228
0.767622
0.792872
0.804797
0.804563
0.808538
0.812747
0.817891
0.833790
0.852261
0.870030
0.885227
0.895982
0.909075
0.924740
0.947419
0.980619
1.017092
1.063150
1.127445
1.205300
1.291805
1.382286
1.472766
1.555764
1.631983
1.709370
1.781146
1.846844
1.911139
1.964445
2.009101
2.049314
2.073396
2.090697
2.111272
2.124599
2.140030
2.156396
2.156163
2.145175
2.122030
2.080181
2.031317
1.979883
1.919096
1.845918
1.759881
1.662622
1.556712
1.444957
1.331800
1.222617
1.111798
0.994666
0.881742
0.772560
0.661740
0.562143
0.475872
0.390537
0.300993
0.207475
0.109514
0.011787
-0.082432
-0.174314
-0.259416
-0.335633
-0.402966
-0.459545
-0.515422
-0.571767
-0.625072
-0.673467
-0.709238
-0.744307
-0.784987
-0.827304
-0.878973
-0.928537
-0.974828
-1.027432
-1.077932
-1.128432
-1.170281
-1.202544
-1.234340
-1.260525
-1.292789
-1.332300
-1.376487
-1.433299
-1.486137
-1.537572
-1.589474
-1.621972
-1.643481
-1.653300
-1.647922
-1.641141
-1.627814
-1.607707
-1.587366
-1.563051
-1.536631
-1.504600
-1.471634
-1.448254
-1.434693
-1.433524
-1.444980
-1.474671
-1.512312
-1.544576
-1.588061
-1.636223
-1.680644
-1.732547
-1.776032
-1.812037
-1.850613
-1.889656
-1.939455
-1.989721
-2.021516
-2.038349
-2.028997
-1.989952
-1.930100
-1.841490
-1.733241
-1.618680
-1.495235
-1.374127
-1.270087
-1.183815
-1.116014
-1.059434
-1.009401
-0.951185
-0.883383
-0.824933
-0.769055
-0.722997
-0.692369
-0.661273
-0.644439
-0.644673
-0.656596
-0.692133
-0.739827
-0.795470
-0.863271
-0.934812
-1.005652
-1.069712
-1.129564
-1.180999
-1.214899
-1.238745
-1.241550
-1.221677
-1.190582
-1.141718
-1.083969
-1.022948
-0.949301
-0.867939
-0.772783
-0.668041
-0.563066
-0.448505
-0.331605
-0.216810
-0.100613
0.009506
0.106766
0.186959
0.248916
0.306898
0.368855
0.424733
0.471259
0.509603
0.532515
0.537426
0.526438
0.507267
0.490901
0.476407
0.465652
0.459574
0.446716
0.434091
0.424039
0.401127
0.373306
0.335197
0.278852
0.223911
0.157513
0.079191
0.011390
-0.056410
-0.122574
-0.181023
-0.241576
-0.298155
-0.345381
-0.379749
-0.396114
-0.401725
-0.397048
-0.381383
-0.366654
-0.358470
-0.358236
-0.364080
-0.369925
-0.382316
-0.401253
-0.420657
-0.451518
-0.487990
-0.518383
-0.549010
-0.568648
-0.575428
-0.571687
-0.546904
-0.508327
-0.460164
-0.399610
-0.334614
-0.261902
-0.183112
-0.108296
-0.040261
0.028242
0.108201
0.200318
0.302254
0.412139
0.519920
0.623493
0.724494
0.822222
0.912234
0.987517
1.057657
1.120315
1.168010
1.212900
1.254984
1.280468
1.283041
1.268078
1.231606
1.166845
1.085952
0.986588
0.864547
0.730581
0.589368
0.446051
0.300863
0.155676
0.015632
-0.122776
-0.249961
-0.359611
-0.447285
-0.516722
-0.588731
-0.658402
-0.722462
-0.784184
-0.832580
-0.878871
-0.917681
-0.935916
-0.948541
-0.950411
-0.935915
-0.918613
-0.902481
-0.895700
-0.892660
-0.889621
-0.894764
-0.899205
-0.908089
-0.934508
-0.966303
-0.994826
-1.021011
-1.035038
-1.037142
-1.036206
-1.020308
-0.989913
-0.957883
-0.915799
-0.873013
-0.837943
-0.803808
-0.784403
-0.772011
-0.753307
-0.729225
-0.697194
-0.670307
-0.648797
-0.637808
-0.653472
-0.682696
-0.733430
-0.806374
-0.880721
-0.968628
-1.060744
-1.144209
-1.234454
-1.322128
-1.398345
-1.465444
-1.519217
-1.559196
-1.589589
-1.615540
-1.633542
-1.634944
-1.624891
-1.605952
-1.568544
-1.505185
-1.424524
-1.332408
-1.237252
-1.156357
-1.089023
-1.026833
-0.974695
-0.930741
-0.890293
-0.862471
-0.851950
-0.852884
-0.862937
-0.887252
-0.919515
-0.955753
-0.994797
-1.020748
-1.028696
-1.024020
-1.007186
-0.980299
-0.940085
-0.895429
-0.858255
-0.815470
-0.764735
-0.714702
-0.664201
-0.610427
-0.559459
-0.522051
-0.492826
-0.475524
-0.482304
-0.510125
-0.556884
-0.610891
-0.666300
-0.728490
-0.784835
-0.832996
-0.873443
-0.894718
-0.905238
-0.921837
-0.945684
-0.969998
-1.000859
-1.034525
-1.066088
-1.104430
-1.137862
-1.160774
-1.179945
-1.190465
-1.193270
-1.189529
-1.188593
-1.196776
-1.211271
-1.247976
-1.302217
-1.360198
-1.433376
-1.515672
-1.597033
-1.663665
-1.710424
-1.748766
-1.763261
-1.756948
-1.751570
-1.741984
-1.733567
-1.733098
-1.734033
-1.735202
-1.739176
-1.745488
-1.745721
-1.738239
-1.734030
-1.736368
-1.742446
-1.755070
-1.777047
-1.806972
-1.846016
-1.898152
-1.957770
-2.020661
-2.095008
-2.179876
-2.265913
-2.357561
-2.457392
-2.557690
-2.665470
-2.780966
-2.899734
-3.035102
-3.182394
-3.328517
-3.478380
-3.618658
-3.746311
-3.877237
-3.992732
-4.094200
-4.198005
-4.285445
-4.363065
-4.437646
-4.496562
-4.553375
-4.605277
-4.647360
-4.694587
-4.731994
-4.757243
-4.785532
-4.802833
-4.799793
-4.785998
-4.762852
-4.730587
-4.702064
-4.672605
-4.639405
-4.616492
-4.595918
-4.570199
-4.538402
-4.486966
-4.418230
-4.326347
-4.207577
-4.083664
-3.957881
-3.824382
-3.698131
-3.578192
-3.455916
-3.341355
-3.222118
-3.097737
-3.001646
-2.922856
-2.848508
-2.795435
-2.745402
-2.695603
-2.660065
-2.626631
-2.585483
-2.535683
-2.483546
-2.422057
-2.341630
-2.254657
-2.157631
-2.054058
-1.963344
-1.881748
-1.804361
-1.737494
-1.690501
-1.658704
-1.621529
-1.583888
-1.559338
-1.553259
-1.574768
-1.610071
-1.660103
-1.736788
-1.803653
-1.857660
-1.922889
-1.978766
-2.027863
-2.087013
-2.131200
-2.165334
-2.201105
-2.216535
-2.221444
-2.229159
-2.230561
-2.227989
-2.220273
-2.212323
-2.212790
-2.212089
-2.214192
-2.218166
-2.213490
-2.209982
-2.208111
-2.206942
-2.208110
-2.209279
-2.223774
-2.243880
-2.267961
-2.307238
-2.341138
-2.376441
-2.418524
-2.442371
-2.465049
-2.490532
-2.496610
-2.490297
-2.479542
-2.456863
-2.420858
-2.380644
-2.335287
-2.295307
-2.274733
-2.263042
-2.265613
-2.279875
-2.293902
-2.315411
-2.327334
-2.325229
-2.320319
-2.310265
-2.307693
-2.302081
-2.290625
-2.290390
-2.281272
-2.274023
-2.274958
-2.248071
-2.207624
-2.161799
-2.090490
-2.014739
-1.946938
-1.881474
-1.825830
-1.779070
-1.744701
-1.725529
-1.709630
-1.697005
-1.679236
-1.642763
-1.603484
-1.560699
-1.502717
-1.445202
-1.381842
-1.306559
-1.233380
-1.163474
-1.095906
-1.027403
-0.954224
-0.881045
-0.809503
-0.750819
-0.697747
-0.643973
-0.604694
-0.569390
-0.534086
-0.508134
-0.474000
-0.438696
-0.410639
-0.376505
-0.344240
-0.318756
-0.292570
-0.261474
-0.216818
-0.160005
-0.095477
-0.017622
0.069819
0.156558
0.243999
0.334011
0.418880
0.497671
0.587449
0.694763
0.807921
0.925522
1.041953
1.145760
1.249566
1.353373
1.446424
1.539710
1.630891
1.706642
1.771405
1.830322
1.887603
1.950729
2.019466
2.089605
2.149692
2.189438
2.218663
2.240173
2.249291
2.249759
2.235966
2.210249
2.190844
2.174245
2.143150
2.102470
2.064128
2.021811
1.969441
1.907719
1.825189
1.724423
1.621319
1.514474
1.399446
1.283016
1.167754
1.048752
0.940037
0.843011
0.740609
0.637739
0.534167
0.425919
0.321880
0.222750
0.131570
0.043897
-0.049856
-0.143608
-0.239230
-0.325034
-0.382313
-0.420889
-0.446139
-0.461102
-0.473960
-0.480506
-0.482609
-0.485181
-0.482375
-0.481673
-0.496168
-0.522586
-0.553914
-0.585009
-0.609557
-0.632703
-0.664499
-0.705646
-0.749600
-0.782565
-0.797761
-0.800800
-0.796591
-0.792616
-0.790979
-0.790744
-0.790744
-0.791445
-0.801731
-0.822305
-0.847555
-0.878415
-0.902730
-0.918160
-0.935694
-0.952527
-0.973335
-1.003026
-1.038095
-1.069424
-1.093037
-1.120157
-1.148679
-1.165980
-1.175799
-1.166213
-1.138858
-1.112438
-1.075498
-1.033180
-1.007696
-1.001616
-1.022658
-1.071521
-1.139088
-1.226527
-1.329398
-1.437645
-1.546594
-1.650867
-1.747425
-1.838606
-1.923941
-1.997353
-2.061647
-2.130149
-2.203327
-2.273933
-2.342903
-2.408365
-2.478270
-2.569217
-2.664138
-2.741992
-2.810027
-2.867306
-2.918507
-2.969475
-3.008752
-3.038210
-3.055978
-3.060420
-3.057848
-3.042416
-3.024180
-3.007112
-2.979290
-2.953104
-2.929256
-2.896758
-2.864961
-2.824513
-2.769103
-2.709250
-2.637708
-2.550735
-2.461424
-2.373048
-2.290984
-2.219442
-2.148835
-2.077292
-2.005516
-1.929064
-1.849338
-1.758391
-1.652246
-1.544231
-1.444867
-1.353452
-1.269050
-1.196105
-1.133681
-1.076634
-1.027770
-0.979841
-0.926067
-0.871825
-0.810102
-0.742768
-0.676837
-0.605294
-0.541000
-0.488395
-0.439998
-0.397680
-0.356999
-0.325202
-0.303692
-0.270493
-0.229811
-0.190533
-0.144474
-0.099117
-0.058670
-0.011676
0.042332
0.099379
0.160868
0.216045
0.262804
0.315409
0.362403
0.400045
0.439557
0.471120
0.501047
0.539624
0.572356
0.598776
0.617012
0.628001
0.645069
0.669385
0.700480
0.747708
0.805222
0.861334
0.924927
0.989924
1.047204
1.114772
1.177898
1.223489
1.273055
1.321919
1.361431
1.401177
1.439754
1.472954
1.501010
1.530235
1.570916
1.626327
1.684309
1.747201
1.825524
1.891923
1.950840
2.021681
2.084106
2.149102
2.217839
2.276756
2.348298
2.419841
2.483668
2.551937
2.609920
2.664629
2.725884
2.787841
2.857513
2.934667
3.010417
3.082427
3.153035
3.217797
3.280455
3.351296
3.425177
3.499992
3.566859
3.624374
3.684460
3.734259
3.779617
3.832455
3.879683
3.919429
3.945381
3.964786
3.990738
4.011547
4.029550
4.050826
4.066725
4.083559
4.097587
4.104134
4.114889
4.128216
4.138737
4.154168
4.172873
4.185966
4.198591
4.219634
4.247924
4.278084
4.308712
4.336067
4.357109
4.374878
4.381191
4.364358
4.334666
4.300065
4.247695
4.179894
4.119809
4.064399
4.008522
3.955918
3.897703
3.845801
3.812368
3.789691
3.776832
3.772624
3.779873
3.802785
3.836219
3.886252
3.955223
4.023492
4.084981
4.146237
4.195101
4.223858
4.242563
4.255890
4.272957
4.296805
4.322757
4.360165
4.404120
4.446671
4.490392
4.525696
4.546504
4.556558
4.556325
4.543700
4.526633
4.512840
4.490630
4.456028
4.406931
4.337260
4.256133
4.171966
4.092008
4.015557
3.938638
3.877150
3.826183
3.769838
3.715364
3.659721
3.606182
3.563397
3.512664
3.452111
3.387817
3.310664
3.237253
3.171790
3.094637
3.026603
2.972362
2.905731
2.835826
2.759375
2.664921
2.561349
2.454504
2.358882
2.275183
2.192653
2.115033
2.042089
1.978029
1.917008
1.855754
1.805722
1.754754
1.712438
1.693267
1.671056
1.655159
1.657263
1.662407
1.684385
1.722962
1.765747
1.825600
1.886622
1.939460
1.995806
2.046073
2.096807
2.149178
2.185651
2.214409
2.235451
2.248544
2.270288
2.291330
2.310502
2.339260
2.357263
2.361471
2.375967
2.398646
2.423429
2.448446
2.471125
2.498480
