EVENT_NAME: 202302060117
EVENT_ID: 13194
EVENT_DATE_YYYYMMDD: 2023/02/06
EVENT_TIME_HHMMSS: 01:17:32.00000
EVENT_LATITUDE_DEGREE: 37.288
EVENT_LONGITUDE_DEGREE: 37.043
EVENT_DEPTH_KM: 8.6
HYPOCENTER_REFERENCE: AFAD
MAGNITUDE_W: 7.7
MAGNITUDE_W_REFERENCE: AFAD
MAGNITUDE_L: 
MAGNITUDE_L_REFERENCE: 
FOCAL_MECHANISM: 
NETWORK: TK
STATION_CODE: 0144
STATION_NAME: 
STATION_LATITUDE_DEGREE: 37.731023
STATION_LONGITUDE_DEGREE: 35.45968
STATION_ELEVATION_M: 649.0
LOCATION: Kahramanmaras_Pazarck_Turkiye
SENSOR_DEPTH_M: 
VS30_M/S: None
SITE_CLASSIFICATION_EC8: unknown
MORPHOLOGIC_CLASSIFICATION: 
EPICENTRAL_DISTANCE_KM: 148.09
EARTHQUAKE_BACKAZIMUTH_DEGREE: 
DATE_TIME_FIRST_SAMPLE_YYYYMMDD_HHMMSS: 2023/02/06 01:17:37.5577960
DATE_TIME_FIRST_SAMPLE_PRECISION: millisecond
SAMPLING_INTERVAL_S: 0.01
NDATA: 12501
DURATION_S: 
STREAM: HNE
UNITS: cm/s^2
INSTRUMENT: sensor = ACEBOX/SARA | digitizer = 
INSTRUMENT_ANALOG/DIGITAL: 
INSTRUMENTAL_FREQUENCY_HZ: 
INSTRUMENTAL_DAMPING: 
FULL_SCALE_G: 
N_BIT_DIGITAL_CONVERTER: 
PGA_CM/S^2: 14.786
TIME_PGA_S: 
BASELINE_CORRECTION: BASELINE REMOVED
FILTER_TYPE: BUTTERWORTH
FILTER_ORDER: 
LOW_CUT_FREQUENCY_HZ: 
HIGH_CUT_FREQUENCY_HZ: 
LATE/NORMAL_TRIGGERED: 
DATABASE_VERSION: 
HEADER_FORMAT: DYNA 1.2
DATA_TYPE: Acceleration
PROCESSING: Automatic Paolucci et al., 2011
DATA_TIMESTAMP_YYYYMMDD_HHMMSS: 
DATA_LICENSE: U (unknown license)
DATA_CITATION: Turkish Accelerometric Archive v 1.0 - Disaster And Emergency Management Presidency, Earthquake Department
DATA_CREATOR: AFAD
ORIGINAL_DATA_MEDIATOR_CITATION: : AFAD - Disaster And Emergency Management Presidency
ORIGINAL_DATA_MEDIATOR: AFAD PROCESS SERVICE
ORIGINAL_DATA_CREATOR_CITATION: AFAD PROCESS SERVICE
ORIGINAL_DATA_CREATOR: network: TK
USER1: GuestUser
USER2: 
USER3: 
USER4: 
USER5: 
[...]
0.795678
-0.323980
-1.368120
-1.956590
-2.113002
-2.161634
-2.282509
-2.283213
-1.896047
-1.161925
-0.421257
0.007525
-0.063785
-0.563412
-1.156792
-1.491825
-1.468915
-1.427769
-1.713237
-2.289316
-2.946288
-3.381153
-3.241344
-2.541357
-1.757905
-1.348060
-1.407213
-1.742013
-2.231118
-2.872660
-3.531737
-3.934571
-3.775124
-3.012713
-1.903581
-0.664223
0.516919
1.441117
2.188799
2.967108
3.650495
4.059405
4.243167
4.103588
3.442408
2.328829
1.012549
-0.236632
-1.150548
-1.635212
-1.905717
-2.192588
-2.391084
-2.364667
-2.142328
-1.710506
-1.260682
-1.118536
-1.217902
-1.212526
-0.798707
0.083875
1.225506
2.420441
3.558564
4.546356
5.142771
5.025402
4.212487
3.056124
1.882693
0.844164
-0.076064
-0.891317
-1.559512
-2.119458
-2.377105
-1.865792
-0.654257
0.510285
1.032586
0.949353
0.707604
0.610109
0.615250
0.686556
0.855590
1.065772
1.173784
1.046830
0.747567
0.592792
0.694725
0.867967
1.038871
0.998422
0.466999
-0.502561
-1.665003
-2.676646
-3.180714
-3.119462
-2.651869
-1.859766
-0.890912
0.032585
0.600710
0.493162
-0.009738
-0.301519
-0.272297
-0.194912
-0.433387
-1.198607
-2.153204
-2.701694
-2.447091
-1.274132
0.480748
2.254566
3.817499
5.231269
6.368924
6.829737
6.217653
4.454586
1.999479
-0.358602
-1.959648
-2.575706
-2.484994
-2.218467
-2.107416
-2.136642
-2.096899
-1.778002
-1.281184
-0.909916
-0.800969
-0.868304
-0.878126
-0.680569
-0.256229
0.421313
1.216456
1.903116
2.417234
2.669266
2.509580
1.946127
0.983815
-0.249467
-1.256200
-1.644540
-1.493976
-1.158012
-0.968170
-1.041585
-1.311622
-1.599896
-1.649697
-1.296198
-0.633618
0.172279
1.064681
1.851874
2.124246
1.703877
0.836019
-0.123955
-0.827219
-1.109648
-1.118534
-0.947397
-0.512068
0.176697
0.962020
1.768384
2.510689
2.945316
2.919596
2.434932
1.630902
0.951251
0.804658
1.128699
1.565430
1.717864
1.395689
0.736613
0.149312
0.078470
0.511928
1.066727
1.438930
1.606093
1.664540
1.604686
1.491526
1.473755
1.516772
1.377661
0.747575
-0.401541
-1.656099
-2.485613
-2.541727
-1.804098
-0.658728
0.255651
0.476120
-0.005738
-0.901885
-1.860222
-2.654199
-3.184454
-3.234956
-2.578455
-1.327642
0.166321
1.560218
2.472727
2.564139
1.711713
0.055023
-1.923371
-3.684802
-4.897277
-5.328635
-4.822933
-3.385783
-1.510030
0.063891
1.116912
1.858515
2.530914
3.245630
3.851163
4.152760
3.978111
3.370002
2.600573
1.878372
1.401189
1.207603
1.170428
1.019392
0.772501
0.773434
0.885888
0.880275
0.739293
0.580309
0.694634
1.149601
1.747419
2.280709
2.614569
2.739181
2.783367
2.916395
3.334890
4.019213
4.529123
4.337407
3.419283
2.341242
1.703207
1.821974
2.581112
3.480294
4.092373
4.396775
4.589422
4.602980
4.243632
3.542238
2.596994
1.552853
0.652030
0.098864
0.011188
0.339437
0.761206
0.928602
0.992661
1.445057
2.462774
3.873505
5.279092
6.086859
5.910808
4.669576
2.433303
-0.309374
-2.692472
-4.046394
-4.204443
-3.468919
-2.492349
-1.895467
-1.683415
-1.411745
-0.882663
-0.261232
0.169888
0.282576
0.139023
-0.187360
-0.574531
-0.925462
-1.246702
-1.520480
-1.662397
-1.532876
-0.964750
-0.022549
0.868684
1.440316
1.778385
1.906504
1.795916
1.348893
0.492726
-0.483614
-1.174487
-1.445460
-1.486376
-1.559557
-1.848532
-2.481424
-3.250852
-3.570221
-2.923774
-1.327876
0.674128
2.434619
3.475015
3.598458
2.742758
0.803174
-1.920099
-4.574869
-6.517258
-7.581973
-7.840087
-7.445439
-6.414863
-4.700430
-2.484267
-0.275587
1.309557
1.837936
1.318905
0.159268
-1.203071
-2.654486
-4.270729
-5.826651
-6.854660
-6.899785
-5.687782
-3.516275
-1.171992
0.596916
1.475524
1.719607
1.751401
1.802835
1.858009
1.677048
1.064731
-0.099582
-1.779651
-3.667332
-5.521580
-7.056695
-7.719512
-7.259869
-5.867608
-3.679502
-0.870663
2.116562
4.722698
6.460745
7.218948
7.063237
6.009043
4.220258
1.794609
-1.093724
-3.837805
-5.797729
-6.668392
-6.370303
-4.996746
-2.907769
-0.625676
1.481537
3.297204
4.698817
5.587478
5.955707
5.680759
4.593132
2.714335
0.386648
-1.894514
-3.836436
-5.258393
-5.951604
-5.813900
-4.720432
-2.802595
-0.626646
1.424923
3.152449
4.346918
4.949879
4.976997
4.462641
3.558779
2.454552
1.301228
0.326058
-0.332551
-0.736788
-1.144065
-1.852005
-2.711680
-3.240765
-3.191202
-2.633598
-1.780240
-0.807178
0.145778
0.958222
1.692577
2.351649
2.800538
3.093952
3.369363
3.595676
3.395310
2.189148
-0.110016
-2.906000
-5.398047
-6.957944
-7.276612
-6.536879
-5.040579
-2.879593
-0.298941
2.407728
4.643530
5.653298
5.371336
4.144366
2.496795
0.995113
-0.068433
-0.506337
-0.374945
-0.136240
-0.207316
-0.713256
-1.457902
-2.124928
-2.562832
-2.510229
-1.741272
-0.324697
1.517390
3.170568
3.872426
3.321597
1.793263
-0.051166
-1.583943
-2.546956
-2.934594
-2.798760
-2.063235
-0.623280
1.105883
2.489493
3.307314
3.577114
3.587399
3.774434
4.112737
4.092161
3.295612
1.839053
0.081129
-1.683341
-3.023235
-3.526135
-3.325305
-2.891613
-2.503980
-2.161001
-1.635427
-0.822749
-0.031114
0.352545
0.249673
-0.150357
-0.607198
-0.942700
-1.097709
-1.043470
-0.747251
-0.314027
0.135797
0.607364
1.201207
2.042174
3.061996
3.914886
4.415444
4.840252
5.347122
5.677709
5.605230
4.935633
3.394907
1.247009
-0.685561
-1.975890
-2.711184
-2.880923
-2.366571
-1.251360
0.255227
1.873102
3.098198
3.592209
3.545682
3.310012
3.026414
2.652336
2.229629
1.919378
1.658224
1.288823
0.974130
0.884817
0.898141
0.908660
0.808593
0.445036
-0.114676
-0.657556
-1.010592
-1.001943
-0.580876
-0.019999
0.277623
0.193454
-0.027720
-0.068637
0.207242
0.773497
1.538714
2.248988
2.533751
2.195678
1.310987
0.181277
-0.768410
-1.296560
-1.531996
-1.663392
-1.650068
-1.516571
-1.287686
-0.843473
-0.293116
0.090777
0.115791
-0.236076
-0.809349
-1.402962
-1.892068
-2.269886
-2.513037
-2.516079
-1.998454
-1.138316
-0.477607
0.052176
0.646954
1.359099
2.328888
3.252151
3.391492
2.413516
0.671725
-1.332621
-3.060619
-3.882418
-3.434231
-1.972766
-0.182583
1.399054
2.573415
3.271766
3.379077
2.921066
2.283265
1.870377
1.706483
1.660891
1.636340
1.354145
0.650413
-0.172088
-0.777157
-1.141182
-1.443717
-1.890974
-2.512643
-3.141559
-3.532236
-3.471451
-2.917354
-2.095091
-1.287089
-0.517431
0.286596
1.047838
1.761385
2.492701
3.018275
3.033236
2.535480
1.727007
0.849797
0.126193
-0.335793
-0.496881
-0.306572
0.173178
0.640303
0.725871
0.480849
0.336127
0.491366
0.842995
1.303574
1.771166
2.169555
2.590622
3.120170
3.621430
3.673564
2.956740
1.606091
0.007851
-1.320587
-1.924254
-1.857623
-1.391200
-0.611254
0.308268
1.135909
1.632025
1.524943
0.818640
-0.113746
-0.756924
-0.760667
-0.078682
0.883392
1.386989
1.049851
0.150665
-0.761146
-1.218456
-1.073270
-0.611288
-0.076830
0.621988
1.486101
2.297609
2.825521
2.986839
2.901501
2.787172
2.706978
2.479725
2.018675
1.350480
0.478648
-0.412823
-0.930452
-0.706710
0.257468
1.420607
2.060041
1.880950
1.232394
0.719207
0.754041
1.309308
1.995267
2.455378
2.590744
2.473142
2.208482
1.894490
1.644559
1.551505
1.579793
1.576518
1.415196
1.076655
0.708189
0.454750
0.249942
-0.035059
-0.264884
-0.026413
0.780887
1.814036
2.705736
3.130778
2.861207
1.935134
0.843065
0.165519
-0.002116
0.097480
0.054927
-0.463638
-1.400699
-2.533215
-3.589279
-4.187335
-4.041213
-3.031679
-1.285917
0.755599
2.634392
3.930796
4.283594
3.706112
2.563309
1.385904
0.654818
0.354854
-0.001922
-0.597172
-1.114801
-1.206218
-0.652588
0.468234
1.697304
2.518164
2.744946
2.538033
1.969202
0.911501
-0.478659
-1.600187
-1.776004
-0.740752
0.993554
2.478399
3.174411
3.197087
2.863457
2.368272
1.736783
0.766523
-0.680450
-2.284068
-3.541665
-4.078700
-3.793469
-3.017264
-2.199677
-1.614485
-1.295120
-0.931099
-0.276703
0.543222
1.261212
1.562340
1.386523
1.090534
1.101520
1.672451
2.725238
3.849099
4.597950
4.852553
4.870320
4.846938
4.553053
3.642644
2.173928
0.576857
-0.604289
-0.935816
-0.499786
0.093122
0.308447
0.112991
-0.168503
-0.338476
-0.429425
-0.422881
-0.304815
-0.115207
0.082115
0.166748
0.003789
-0.480173
-1.137847
-1.743617
-2.149959
-2.125412
-1.476861
-0.364455
0.885189
1.979592
2.534157
2.194214
0.978466
-0.578860
-1.703660
-1.899818
-1.236070
-0.181179
0.761022
1.271634
1.289868
0.975175
0.588472
0.324045
0.220471
0.213923
0.284527
0.452626
0.529777
0.126474
-0.927486
-2.298007
-3.303805
-3.401301
-2.525498
-1.009091
0.441619
1.133189
0.897052
-0.089341
-1.399075
-2.529019
-3.301955
-3.872189
-4.499235
-5.239907
-5.943638
-6.316079
-5.903429
-4.468384
-2.219256
0.411195
2.888275
4.685005
5.557067
5.432918
4.144693
1.693561
-1.469718
-4.679523
-7.443242
-9.492711
-10.549944
-10.354258
-8.876428
-6.281280
-2.904548
0.687979
3.784855
5.865883
6.841517
6.845022
6.141056
4.981420
3.374295
1.258194
-1.154362
-3.388297
-5.048493
-5.823767
-5.647252
-4.756253
-3.361186
-1.720399
-0.266182
0.538780
0.488511
-0.150926
-0.858165
-1.302382
-1.505787
-1.566577
-1.530574
-1.515379
-1.538761
-1.488964
-1.257741
-0.716034
0.251650
1.687397
3.364891
4.823550
5.565153
5.130288
3.471728
0.978278
-1.848333
-4.497492
-6.661521
-8.233576
-9.057713
-9.018437
-8.166950
-6.618980
-4.528133
-2.215413
-0.082482
1.670060
3.014626
3.932746
4.153682
3.338663
1.748606
0.017335
-1.467981
-2.605874
-3.497813
-4.147537
-4.407990
-4.180273
-3.303769
-1.819392
-0.312805
0.375492
-0.224667
-1.790176
-3.462296
-4.400526
-4.280824
-3.531974
-2.789903
-2.365095
-2.270877
-2.387076
-2.633267
-2.843920
-2.651507
-1.926036
-0.967236
-0.115982
0.520412
1.078952
1.667418
2.226425
2.700564
2.943711
2.774673
2.196023
1.269716
0.051397
-1.266754
-2.313467
-2.798832
-2.699002
-2.165713
-1.480455
-0.840086
-0.266116
0.151911
0.276523
0.005550
-0.662410
-1.554817
-2.471304
-3.181348
-3.629306
-4.214736
-5.299558
-6.688082
-7.739002
-7.784595
-6.674995
-4.957756
-3.452805
-2.642933
-2.577238
-3.092763
-3.789715
-4.143218
-3.845597
-2.960208
-1.932438
-1.327840
-1.314515
-1.616817
-1.884985
-1.873063
-1.451295
-0.709458
0.103219
0.775150
1.221935
1.534052
1.662171
1.308668
0.376516
-0.945843
-2.348863
-3.531645
-4.261329
-4.400907
-4.107962
-3.604130
-2.851539
-1.792907
-0.539522
0.710590
1.612812
1.934982
1.818082
1.445874
0.922634
0.340009
-0.227886
-0.622772
-0.685665
-0.329594
0.545507
1.938235
3.502337
4.648409
4.834276
3.821932
1.956695
-0.057704
-1.811419
-3.327597
-4.569530
-5.186990
-4.910176
-3.877028
-2.316434
-0.364696
1.543789
2.810033
3.234373
3.010627
2.462604
1.756301
0.843554
-0.248281
-1.294994
-2.067696
-2.590702
-2.969456
-3.138727
-3.053159
-2.806271
-2.487608
-2.178997
-1.938188
-1.790430
-1.823398
-1.936558
-1.802360
-1.314193
-0.757758
-0.642498
-1.290352
-2.390838
-3.174294
-3.164945
-2.415860
-1.157799
0.370532
1.860052
2.928504
3.167209
2.371127
0.959924
-0.257460
-0.863698
-1.014733
-0.992758
-1.004450
-1.197335
-1.522783
-1.736476
-1.496134
-0.358478
1.892052
4.833687
7.761996
9.978392
10.753194
9.764230
7.253245
3.644348
-0.490358
-4.343105
-7.219983
-8.703428
-8.451865
-6.385566
-2.965816
1.035622
4.721200
7.195709
7.920712
6.931981
4.712074
1.863954
-1.071607
-3.630520
-5.399432
-6.137064
-5.875213
-4.809801
-3.303681
-1.567271
0.334668
1.717577
2.230058
2.052838
0.809268
-1.220094
-3.138870
-4.634941
-5.467963
-5.574109
-5.297528
-4.731507
-3.810816
-2.562107
-1.014604
0.694685
2.494221
4.289782
5.710098
6.425983
6.234501
5.040263
3.231839
1.542886
0.443803
-0.007896
0.101519
0.377164
0.194333
-0.601047
-1.603338
-2.161882
-1.642153
-0.021706
1.938215
3.429372
4.033735
3.691922
2.623233
1.056321
-0.707915
-2.232743
-3.182663
-3.409215
-3.048701
-2.395941
-1.684264
-0.967912
-0.072003
1.084824
2.195126
2.806737
2.803696
2.369532
1.634004
0.645040
-0.494023
-1.562244
-2.427998
-3.166565
-3.756905
-4.007071
-3.820269
-3.120515
-1.874144
-0.477909
0.533496
0.988931
1.034520
0.897980
0.677507
0.384557
0.093711
-0.051011
0.119425
0.675627
1.435466
1.990031
1.839230
0.793219
-0.714308
-2.154034
-3.182510
-3.532273
-3.136924
-1.998099
-0.141985
2.043550
3.891248
4.897276
4.822458
3.741378
2.032318
0.093435
-1.735095
-3.247532
-4.439199
-5.170051
-5.126567
-4.248660
-2.868790
-1.451747
-0.329990
0.299157
0.406467
0.216388
0.124971
0.375366
0.854649
1.429554
2.097979
2.725488
3.067298
2.877920
1.964472
0.443385
-1.159765
-2.297658
-2.782789
-2.687168
-2.271713
-2.017343
-2.287615
-3.099361
-4.221590
-5.259184
-5.865656
-5.890441
-5.277894
-4.009780
-2.297684
-0.655494
0.425816
0.811346
0.808304
0.697950
0.621730
0.702622
0.764342
0.576134
0.165350
-0.381270
-1.005511
-1.508645
-1.507712
-0.767511
0.532867
1.985214
3.140871
3.663406
3.641427
3.404355
2.998481
2.271603
1.364935
0.654423
0.397946
0.552484
0.875122
1.216464
1.423139
1.333826
1.116860
1.048823
1.213882
1.682410
2.342651
2.730285
2.494615
1.659490
0.421999
-1.060746
-2.785470
-4.582204
-5.914617
-6.270692
-5.516932
-3.955636
-2.004132
0.115706
2.409255
4.863891
7.112083
8.715697
9.437894
9.081585
7.616376
5.305054
2.572897
-0.097537
-2.274426
-3.709241
-4.371357
-4.442200
-4.078647
-3.204247
-1.686438
0.557780
3.488661
6.904437
10.453711
13.392774
14.785737
14.233505
12.007520
8.726641
5.173855
2.057570
-0.207928
-1.548757
-2.002092
-1.532629
-0.237161
1.420460
2.830957
3.686653
3.951075
3.790922
3.501947
3.006061
2.183092
1.366203
0.880370
0.803215
1.040985
1.374845
1.528214
1.278751
0.673447
-0.008074
-0.445277
-0.390570
0.301468
1.538955
2.941736
4.164026
5.078639
5.705682
6.084197
6.161816
5.869100
5.218908
4.246309
2.905012
1.220033
-0.469388
-1.586006
-1.650068
-0.667654
0.789602
2.013061
2.550559
2.315825
1.667737
1.230534
1.345326
1.897086
2.629337
3.249131
3.436401
3.087573
2.385946
1.590332
0.961415
0.631291
0.497090
0.462018
0.559743
0.810138
1.181406
1.593589
2.005537
2.426838
2.754854
2.824757
2.552615
1.996877
1.339203
0.790946
0.595022
0.361457
1.158937
1.316047
0.583792
1.410030
0.805662
-0.668666
-1.145614
-1.451423
-0.940344
-0.197339
0.710494
1.183464
1.128987
0.869236
-0.117858
-1.495160
-2.905894
-3.884104
-3.777261
-2.763518
-1.159671
0.654828
2.194849
3.058494
3.088184
2.381413
1.194188
0.083883
-0.676662
-0.846167
-0.169559
1.178280
2.863956
4.319576
5.228811
5.326770
4.383630
2.728811
1.108594
0.173637
-0.270580
-0.502509
-0.577092
-0.509761
-0.072094
0.814229
1.884317
3.068265
4.441822
5.856527
7.019432
7.447747
6.891775
5.671585
4.333328
3.162001
2.285026
1.690010
1.255378
0.983938
0.915667
1.261451
2.063374
3.008380
3.796041
4.174791
4.185310
4.155615
3.960159
3.576963
3.230474
2.812442
2.483721
2.385524
2.499381
2.709797
2.706756
2.523690
2.114075
1.468793
0.951398
0.557213
0.479357
1.016855
1.593631
2.036441
2.520867
2.863144
3.301278
3.817968
4.108342
4.128213
3.867994
3.559380
3.362521
3.182027
3.204937
3.517756
3.604960
3.099489
1.900340
0.242248
-1.202153
-1.891390
-1.552386
-0.180232
1.637774
3.064870
3.918228
4.126774
3.777245
3.358979
3.144118
3.266392
3.633919
3.827267
3.751047
3.414845
2.657573
1.695729
0.963942
0.742300
0.876965
1.165235
1.743414
2.314579
2.720449
3.266363
3.829579
4.188222
4.299040
4.272151
4.199672
3.504591
2.770933
2.275047
1.543259
1.124059
0.847942
0.373565
-0.286914
-0.706114
-0.752642
-0.996962
-0.944827
-0.766442
-1.058223
-1.285944
-1.458254
-1.769674
-1.968638
-2.042987
-1.746067
-1.179110
-0.587372
0.032189
0.384286
0.484817
0.442497
0.013244
-0.721817
-1.738136
-2.761936
-3.470110
-3.975114
-4.086637
-3.880664
-3.399745
-2.443750
-1.194106
0.261982
1.671777
2.778805
3.618837
4.091105
3.984258
3.312322
2.459662
1.452929
0.306619
-0.554692
-0.923393
-1.119317
-1.463936
-2.029494
-2.784661
-3.191938
-2.946686
-2.098238
-0.659218
1.000507
2.605757
3.791107
4.174065
3.976504
3.453030
2.645960
1.805223
1.001660
0.352870
0.440308
0.711745
0.827239
1.570946
2.305535
2.257137
2.034794
1.648325
0.552047
-0.300380
-0.527866
-0.473394
0.176795
1.024308
1.656026
1.695068
1.249448
0.677812
0.166262
-0.287775
-1.352957
-2.088485
-1.688460
-1.313919
-0.849833
0.171625
1.130425
1.763313
1.977001
1.971154
2.113067
2.096232
1.647339
1.161740
0.551293
-0.173013
-0.734596
-1.220662
-1.654592
-2.387081
-2.972044
-2.907050
-2.996596
-3.336539
-3.365299
-3.099239
-2.738726
-2.250559
-1.288018
-0.094251
0.824570
1.762563
2.343547
2.046389
1.611757
1.334706
0.805620
0.275132
-0.205791
-0.681102
-0.966805
-1.560184
-2.679608
-3.903772
-4.814181
-5.185686
-4.969426
-4.355009
-3.681675
-2.993378
-2.375220
-1.952750
-1.898511
-2.201982
-2.674254
-3.247060
-3.320007
-2.703485
-1.833294
-1.043295
-0.473533
0.052041
0.366263
0.314825
-0.177787
-1.285287
-2.470641
-3.629343
-4.797629
-5.465824
-5.844110
-5.793144
-5.222447
-4.506094
-3.349034
-2.006806
-1.115105
-0.575035
-0.333525
-0.647516
-1.404086
-2.373178
-3.270494
-3.565548
-3.375239
-3.088372
-2.930327
-2.963294
-3.044190
-3.073417
-2.702617
-2.001227
-1.218709
-0.317423
0.573343
1.081850
1.018489
0.577545
-0.193988
-1.070262
-1.805790
-2.389584
-2.770442
-3.144520
-3.568396
-3.717795
-3.453839
-2.914471
-2.158373
-1.233941
-0.330316
0.328990
0.663084
0.696515
0.558807
0.282456
-0.431095
-1.399953
-2.305452
-3.191545
-3.819059
-3.997215
-3.754769
-3.204412
-2.450418
-1.746924
-1.416103
-1.180671
-0.899649
-0.369632
0.654164
1.640319
2.125680
2.038004
1.534402
0.807291
-0.080673
-1.098862
-2.059303
-2.613639
-2.792963
-2.706460
-2.343375
-1.854975
-1.319815
-0.678277
-0.028557
0.477145
0.701121
0.417055
-0.440749
-1.607867
-2.764464
-3.510513
-3.484330
-2.731271
-1.487705
-0.076741
1.242341
2.101077
2.328559
2.278992
2.113929
1.741956
0.910805
-0.589475
-2.569038
-4.633704
-6.439088
-7.819897
-8.743398
-9.024191
-8.304097
-6.585455
-4.135262
-1.412227
0.844850
2.307951
3.008405
2.883789
2.216530
1.230839
-0.271311
-2.015674
-3.685690
-5.306842
-6.678065
-7.489110
-7.739041
-7.505480
-6.725534
-5.718805
-4.779176
-3.799567
-2.849885
-2.136338
-1.782371
-1.900207
-2.451269
-3.293642
-4.284477
-5.226916
-5.934155
-6.293737
-6.357098
-6.148553
-5.694287
-5.041527
-4.146787
-3.286882
-2.681116
-2.293248
-2.130527
-2.120943
-2.278992
-2.606077
-3.068764
-3.644141
-4.211569
-4.744395
-5.273246
-5.590511
-5.471978
-4.842831
-3.545259
-1.675818
0.501300
2.794850
4.667330
5.557862
5.218854
3.685141
1.329632
-1.304564
-3.594376
-5.262522
-6.402753
-7.100172
-7.386576
-7.121218
-6.189070
-4.736490
-2.907964
-0.879073
0.858039
2.000370
2.450662
2.084767
1.122689
-0.230298
-1.811237
-3.198124
-4.002623
-3.993507
-3.230862
-2.128276
-1.097700
-0.435588
-0.214184
-0.230552
-0.384860
-0.555066
-0.613518
-0.600193
-0.444019
-0.045630
0.467553
0.917143
0.995697
0.485783
-0.389790
-1.265129
-1.723841
-1.487006
-0.657496
0.213865
0.560584
