EVENT_NAME: 202302060117
EVENT_ID: 13194
EVENT_DATE_YYYYMMDD: 2023/02/06
EVENT_TIME_HHMMSS: 01:17:32.00000
EVENT_LATITUDE_DEGREE: 37.288
EVENT_LONGITUDE_DEGREE: 37.043
EVENT_DEPTH_KM: 8.6
HYPOCENTER_REFERENCE: AFAD
MAGNITUDE_W: 7.7
MAGNITUDE_W_REFERENCE: AFAD
MAGNITUDE_L: 
MAGNITUDE_L_REFERENCE: 
FOCAL_MECHANISM: 
NETWORK: TK
STATION_CODE: 99007
STATION_NAME: 
STATION_LATITUDE_DEGREE: 35.52514
STATION_LONGITUDE_DEGREE: 34.17501
STATION_ELEVATION_M: 122.0
LOCATION: Kahramanmaras_Pazarck_Turkiye
SENSOR_DEPTH_M: 
VS30_M/S: 575
SITE_CLASSIFICATION_EC8: B
MORPHOLOGIC_CLASSIFICATION: 
EPICENTRAL_DISTANCE_KM: 322.93
EARTHQUAKE_BACKAZIMUTH_DEGREE: 
DATE_TIME_FIRST_SAMPLE_YYYYMMDD_HHMMSS: 2023/02/06 01:18:05.1533200
DATE_TIME_FIRST_SAMPLE_PRECISION: millisecond
SAMPLING_INTERVAL_S: 0.01
NDATA: 18251
DURATION_S: 
STREAM: HNE
UNITS: cm/s^2
INSTRUMENT: sensor = CMG-5T/GURALP | digitizer = 
INSTRUMENT_ANALOG/DIGITAL: 
INSTRUMENTAL_FREQUENCY_HZ: 
INSTRUMENTAL_DAMPING: 
FULL_SCALE_G: 
N_BIT_DIGITAL_CONVERTER: 
PGA_CM/S^2: 8.184
TIME_PGA_S: 
BASELINE_CORRECTION: BASELINE REMOVED
FILTER_TYPE: BUTTERWORTH
FILTER_ORDER: 
LOW_CUT_FREQUENCY_HZ: 
HIGH_CUT_FREQUENCY_HZ: 
LATE/NORMAL_TRIGGERED: 
DATABASE_VERSION: 
HEADER_FORMAT: DYNA 1.2
DATA_TYPE: Acceleration
PROCESSING: Automatic Paolucci et al., 2011
DATA_TIMESTAMP_YYYYMMDD_HHMMSS: 
DATA_LICENSE: U (unknown license)
DATA_CITATION: Turkish Accelerometric Archive v 1.0 - Disaster And Emergency Management Presidency, Earthquake Department
DATA_CREATOR: AFAD
ORIGINAL_DATA_MEDIATOR_CITATION: : AFAD - Disaster And Emergency Management Presidency
ORIGINAL_DATA_MEDIATOR: AFAD PROCESS SERVICE
ORIGINAL_DATA_CREATOR_CITATION: AFAD PROCESS SERVICE
ORIGINAL_DATA_CREATOR: network: TK
USER1: GuestUser
USER2: 
USER3: 
USER4: 
USER5: 
[...]
0.516967
0.238970
-0.071910
-0.370832
-0.658993
-0.945659
-1.264609
-1.595816
-1.976645
-2.343125
-2.676125
-2.939773
-3.131679
-3.211786
-3.187865
-3.064999
-2.887429
-2.742442
-2.643789
-2.612096
-2.592959
-2.558874
-2.446172
-2.272787
-2.056954
-1.845007
-1.596591
-1.330837
-1.069866
-0.861506
-0.728776
-0.645667
-0.615768
-0.635491
-0.726359
-0.814835
-0.917959
-0.983418
-1.034528
-1.045283
-1.025847
-0.973528
-0.896099
-0.798941
-0.663519
-0.505679
-0.300607
-0.068931
0.193833
0.459288
0.718167
0.890954
0.989607
1.004261
0.942090
0.856304
0.766034
0.701173
0.662618
0.676076
0.717932
0.843788
1.049457
1.313118
1.572595
1.797694
1.960318
2.072722
2.164798
2.247309
2.350445
2.445511
2.525929
2.556427
2.563906
2.516981
2.465272
2.435984
2.463193
2.550785
2.647943
2.679038
2.602220
2.415695
2.111691
1.764342
1.390987
1.010457
0.591366
0.172573
-0.257579
-0.669795
-1.090082
-1.528903
-1.961148
-2.356624
-2.654350
-2.876448
-2.994518
-3.050710
-3.013039
-2.950258
-2.871633
-2.801677
-2.696149
-2.544885
-2.356553
-2.132649
-1.840590
-1.448987
-1.017029
-0.584771
-0.241296
0.038508
0.228932
0.385278
0.460913
0.474072
0.407717
0.292635
0.168885
0.025705
-0.109703
-0.215817
-0.194885
-0.046909
0.199414
0.443048
0.668446
0.841831
0.966192
1.034354
1.060666
1.037057
0.932738
0.756077
0.521425
0.293050
0.066468
-0.129324
-0.357699
-0.617461
-0.904128
-1.169570
-1.376123
-1.523787
-1.641858
-1.785636
-1.969471
-2.215483
-2.475245
-2.732915
-2.920636
-3.049169
-3.085632
-3.061711
-2.963058
-2.814783
-2.621370
-2.400755
-2.200167
-2.030967
-1.896144
-1.749662
-1.579566
-1.329954
-1.028328
-0.667814
-0.296538
0.079819
0.447209
0.767368
1.023556
1.240286
1.425927
1.579583
1.704242
1.791835
1.886303
1.943703
1.978386
1.987360
1.986768
1.974220
1.949415
1.922219
1.874696
1.799671
1.678013
1.519289
1.327981
1.158794
1.006047
0.889472
0.766618
0.633602
0.463817
0.303597
0.128132
-0.067062
-0.237743
-0.406931
-0.597940
-0.847240
-1.085479
-1.289043
-1.441491
-1.599916
-1.689290
-1.681212
-1.562830
-1.376292
-1.188260
-1.063002
-1.032505
-1.048940
-1.102442
-1.128741
-1.149958
-1.104515
-1.016026
-0.856092
-0.630096
-0.330862
0.018891
0.323506
0.535751
0.624241
0.640090
0.553108
0.374356
0.078722
-0.277894
-0.676060
-1.044035
-1.376437
-1.664598
-1.888489
-2.024794
-2.051094
-2.000270
-1.842429
-1.568006
-1.158467
-0.693627
-0.221313
0.175372
0.513765
0.807319
1.081144
1.334642
1.533735
1.653014
1.689191
1.683219
1.676051
1.722989
1.798923
1.886815
1.933753
1.981289
2.029423
2.093998
2.187569
2.291005
2.397430
2.458119
2.461413
2.402531
2.312560
2.216311
2.198382
2.233064
2.288671
2.310200
2.294662
2.258498
2.227416
2.197231
2.117124
1.967068
1.711790
1.388654
0.987499
0.557944
0.065615
-0.442557
-0.960295
-1.467570
-1.960796
-2.442065
-2.877299
-3.259921
-3.565420
-3.821595
-4.005729
-4.121707
-4.128576
-4.056826
-3.906758
-3.697501
-3.416502
-3.093952
-2.741508
-2.389663
-2.098500
-1.866824
-1.688357
-1.502417
-1.320064
-1.146081
-1.042646
-0.964918
-0.952057
-1.010342
-1.093438
-1.188192
-1.305664
-1.455122
-1.565421
-1.581556
-1.505921
-1.409660
-1.268559
-1.118789
-0.957660
-0.797129
-0.609097
-0.359186
-0.035739
0.348989
0.762712
1.213204
1.644266
2.063071
2.444212
2.811601
3.145212
3.449229
3.679709
3.838746
3.939491
3.994201
3.998991
3.932635
3.845055
3.726088
3.635220
3.559598
3.495932
3.421505
3.377569
3.344395
3.346792
3.365930
3.398819
3.464888
3.513919
3.538139
3.501078
3.420075
3.299015
3.179151
3.024611
2.843168
2.635718
2.410631
2.143395
1.796943
1.391304
0.927074
0.442218
-0.041442
-0.460833
-0.820437
-1.111288
-1.406026
-1.692393
-1.977863
-2.257056
-2.555680
-2.849819
-3.077895
-3.208521
-3.212998
-3.167853
-3.076375
-2.961879
-2.750829
-2.467737
-2.131137
-1.810081
-1.503075
-1.194275
-0.913874
-0.708504
-0.585040
-0.465462
-0.350368
-0.210463
-0.076835
0.055895
0.127645
0.150071
0.129451
0.085216
-0.019403
-0.186497
-0.354788
-0.510523
-0.622316
-0.714380
-0.748750
-0.757114
-0.704496
-0.598669
-0.417512
-0.163715
0.182451
0.608132
1.093598
1.597001
2.017898
2.310556
2.423856
2.402938
2.259458
2.054101
1.786865
1.512455
1.233561
0.968119
0.721210
0.495525
0.286880
0.082120
-0.110683
-0.301692
-0.483434
-0.711809
-0.982931
-1.290223
-1.569117
-1.821407
-2.056059
-2.297288
-2.539713
-2.777355
-2.978527
-3.133366
-3.252931
-3.284611
-3.246641
-3.127362
-2.956069
-2.742927
-2.531877
-2.295717
-2.061051
-1.860464
-1.706509
-1.625194
-1.593501
-1.552542
-1.423697
-1.218327
-0.965726
-0.765736
-0.572921
-0.379507
-0.174137
0.044386
0.278753
0.505945
0.713109
0.930137
1.141187
1.377049
1.570761
1.729199
1.841902
1.939060
1.987493
1.964183
1.831764
1.574692
1.246773
0.900919
0.590339
0.293210
0.070515
-0.072666
-0.105541
-0.083115
-0.006583
0.097450
0.204174
0.268151
0.286990
0.288491
0.303444
0.385058
0.537518
0.765607
1.031361
1.356004
1.700376
2.104534
2.527225
2.980408
3.439270
3.844623
4.188099
4.435917
4.589274
4.635315
4.628446
4.581820
4.555221
4.521449
4.459876
4.308027
4.066499
3.764288
3.445338
3.153590
2.884560
2.703416
2.594015
2.555160
2.551579
2.620937
2.708829
2.808976
2.872356
2.893287
2.848454
2.721117
2.513966
2.247627
1.960064
1.611818
1.204385
0.710262
0.211357
-0.264830
-0.648648
-0.956837
-1.225269
-1.498782
-1.751071
-1.937596
-2.036535
-2.048785
-2.004836
-1.894226
-1.752229
-1.580637
-1.438042
-1.290963
-1.190516
-1.115778
-1.082291
-1.067936
-1.052385
-1.057760
-1.081967
-1.135767
-1.208401
-1.345304
-1.499245
-1.677400
-1.807727
-1.871093
-1.848667
-1.777516
-1.690521
-1.639398
-1.627435
-1.633407
-1.695578
-1.784951
-1.870438
-1.864453
-1.806156
-1.704214
-1.567299
-1.385245
-1.175689
-0.938334
-0.688722
-0.441203
-0.201455
-0.020896
0.146809
0.335141
0.609863
0.908200
1.193384
1.401744
1.545535
1.604729
1.561690
1.415819
1.163231
0.840095
0.502910
0.229397
0.008794
-0.122728
-0.178622
-0.112253
0.044990
0.284737
0.555872
0.854508
1.139692
1.361504
1.548639
1.668815
1.740863
1.740870
1.714271
1.659574
1.625502
1.585751
1.554669
1.526875
1.483537
1.378619
1.205247
0.984644
0.711729
0.453162
0.228972
0.089677
-0.007468
-0.039148
-0.045718
-0.034651
-0.024780
-0.025372
-0.018191
0.032035
0.140254
0.290920
0.532162
0.852919
1.261860
1.685149
2.120994
2.541891
2.959800
3.336756
3.649740
3.910113
4.103527
4.252101
4.329828
4.357934
4.300247
4.157366
3.931083
3.691947
3.466860
3.287210
3.098294
2.877093
2.612249
2.292401
1.960597
1.633276
1.368432
1.162776
1.036036
0.942777
0.894058
0.854905
0.818442
0.729666
0.586785
0.405342
0.196397
-0.020021
-0.240026
-0.415491
-0.561063
-0.632201
-0.656707
-0.628601
-0.585848
-0.491081
-0.364927
-0.207684
-0.034299
0.104709
0.138195
0.032680
-0.144578
-0.402547
-0.735547
-1.137899
-1.537261
-1.939314
-2.308484
-2.661812
-2.986143
-3.276097
-3.519120
-3.704150
-3.876626
-4.024589
-4.131599
-4.151023
-4.105579
-3.980920
-3.811720
-3.566293
-3.250917
-2.856922
-2.412110
-1.946672
-1.492294
-1.095609
-0.759009
-0.527333
-0.333023
-0.165617
-0.044245
-0.027798
-0.081598
-0.188011
-0.289939
-0.366159
-0.412487
-0.426530
-0.455819
-0.481520
-0.510211
-0.495557
-0.471337
-0.397197
-0.280907
-0.093173
0.109805
0.291262
0.461657
0.661049
0.902291
1.124999
1.343821
1.533946
1.744697
1.960829
2.203566
2.407740
2.578734
2.686654
2.730304
2.698624
2.594005
2.445743
2.300171
2.243680
2.271188
2.351606
2.404821
2.457140
2.501388
2.563273
2.594069
2.581520
2.480190
2.242548
1.837805
1.263570
0.577236
-0.192798
-0.966718
-1.721506
-2.365093
-2.883728
-3.271133
-3.568860
-3.767043
-3.911120
-4.033973
-4.165197
-4.364576
-4.557378
-4.682922
-4.707129
-4.637472
-4.429112
-4.106861
-3.633949
-3.076441
-2.508769
-1.972784
-1.471474
-1.017694
-0.646119
-0.333134
-0.074854
0.165192
0.369965
0.558296
0.718827
0.885636
1.043178
1.225232
1.432396
1.636869
1.813543
1.961220
2.097239
2.233556
2.418301
2.591985
2.759690
2.870300
2.932783
2.933088
2.904995
2.841927
2.736711
2.558257
2.288929
2.002263
1.689590
1.377514
1.077098
0.873235
0.698667
0.537252
0.374940
0.278093
0.284975
0.390802
0.554920
0.719935
0.887940
1.052357
1.237101
1.402116
1.528270
1.551593
1.500782
1.379722
1.236542
1.024010
0.732860
0.383120
-0.018036
-0.396772
-0.738441
-1.022716
-1.274408
-1.461232
-1.590960
-1.609487
-1.554478
-1.466587
-1.354482
-1.219360
-1.101277
-1.043876
-0.998731
-0.932961
-0.787675
-0.582604
-0.293533
0.029914
0.345290
0.628681
0.965580
1.361966
1.800799
2.239932
2.608218
2.851553
2.913138
2.778029
2.444132
2.013681
1.527630
1.069976
0.644906
0.288889
0.020158
-0.106581
-0.039017
0.190268
0.551081
0.981844
1.450869
1.885219
2.267256
2.576952
2.840614
3.040903
3.220565
3.420854
3.653128
3.890782
4.122159
4.347857
4.548146
4.749331
4.932581
5.090421
5.143039
5.077879
4.822003
4.386769
3.787722
3.030841
2.131371
1.148501
0.176690
-0.792729
-1.725380
-2.602729
-3.331212
-3.924878
-4.377748
-4.702379
-4.884121
-4.914605
-4.781575
-4.522697
-4.192972
-3.786124
-3.332344
-2.848073
-2.410435
-2.002690
-1.682830
-1.435311
-1.293911
-1.227841
-1.220063
-1.236497
-1.280135
-1.347088
-1.379964
-1.363815
-1.313589
-1.304914
-1.315968
-1.345555
-1.370958
-1.438509
-1.524295
-1.610380
-1.658203
-1.693171
-1.742488
-1.838138
-2.015098
-2.252142
-2.571690
-2.948334
-3.397916
-3.858559
-4.312924
-4.661169
-4.829161
-4.798664
-4.622588
-4.346671
-3.996021
-3.558981
-3.001772
-2.375809
-1.690359
-0.996539
-0.290164
0.383328
1.023939
1.581447
2.063326
2.430118
2.654022
2.757757
2.778987
2.772417
2.703969
2.616688
2.522233
2.461258
2.402674
2.321372
2.183274
2.039495
1.933980
1.878984
1.859560
1.832662
1.827587
1.797701
1.775885
1.749586
1.748098
1.740631
1.736751
1.710153
1.637520
1.482382
1.258491
1.009789
0.762581
0.584127
0.471437
0.454106
0.457699
0.484609
0.487904
0.492095
0.479248
0.402729
0.245499
0.063756
-0.025019
0.009065
0.125056
0.256890
0.420709
0.579746
0.714569
0.776154
0.781840
0.752552
0.781255
0.871239
1.039842
1.236543
1.420988
1.593775
1.718734
1.810512
1.802746
1.774952
1.710988
1.699635
1.754943
1.870336
2.044617
2.263739
2.521421
2.765354
3.012873
3.231695
3.383258
3.487890
3.594614
3.673537
3.770695
3.831982
3.842750
3.752181
3.590467
3.425764
3.258370
3.130734
3.009973
2.954080
2.947809
2.948413
2.833033
2.566395
2.137738
1.653779
1.161450
0.679284
0.220136
-0.233332
-0.711910
-1.236524
-1.735429
-2.215203
-2.573015
-2.789134
-2.847119
-2.850999
-2.827676
-2.832154
-2.891036
-2.962474
-3.037199
-3.105947
-3.223419
-3.365404
-3.498720
-3.577929
-3.629040
-3.609304
-3.555192
-3.461621
-3.293616
-3.058951
-2.764799
-2.479017
-2.215056
-1.974412
-1.767547
-1.682047
-1.703265
-1.845847
-2.055689
-2.315451
-2.623341
-2.954249
-3.240317
-3.446572
-3.587959
-3.702143
-3.825594
-3.913174
-3.982818
-3.961587
-3.874294
-3.703898
-3.480293
-3.159237
-2.772716
-2.357199
-1.937796
-1.570406
-1.247557
-0.997646
-0.818282
-0.716640
-0.612308
-0.502296
-0.336683
-0.122942
0.137431
0.393918
0.618420
0.849797
1.090441
1.301192
1.437809
1.536163
1.595357
1.649470
1.653960
1.614209
1.481192
1.277030
0.940144
0.500127
-0.018507
-0.558964
-0.991208
-1.274885
-1.352600
-1.274574
-1.015097
-0.664148
-0.263279
0.137591
0.492725
0.716927
0.794057
0.665525
0.289479
-0.289241
-1.028186
-1.815558
-2.563172
-3.091372
-3.355320
-3.308382
-3.022599
-2.525774
-1.901903
-1.205393
-0.540569
0.017836
0.522434
0.934962
1.266181
1.491281
1.658388
1.717582
1.683212
1.523890
1.313151
1.024990
0.673158
0.318934
-0.014066
-0.300135
-0.522232
-0.645384
-0.695000
-0.629827
-0.484841
-0.196966
0.234395
0.822394
1.489908
2.197179
2.855128
3.395597
3.819484
4.043388
4.049672
3.827275
3.456610
3.017491
2.569403
2.071095
1.526155
0.924717
0.331649
-0.184894
-0.598604
-0.938181
-1.182100
-1.301366
-1.297474
-1.165341
-0.985679
-0.774629
-0.629343
-0.532185
-0.489132
-0.481354
-0.522002
-0.636186
-0.767708
-0.886078
-0.971266
-1.090233
-1.258822
-1.499753
-1.708697
-1.816903
-1.787901
-1.616010
-1.312591
-0.944305
-0.530282
-0.114466
0.199415
0.382067
0.378486
0.196146
-0.135658
-0.509013
-0.844106
-1.018375
-1.037799
-0.907161
-0.612411
-0.195399
0.284986
0.800943
1.274452
1.626298
1.858273
1.913581
1.777276
1.452347
1.083475
0.789934
0.598327
0.478762
0.393873
0.317353
0.231567
0.169695
0.141304
0.216042
0.332033
0.467454
0.582249
0.654297
0.693762
0.689583
0.661790
0.619946
0.509947
0.310568
0.048414
-0.276217
-0.577231
-0.838190
-0.972103
-0.987940
-0.865373
-0.639376
-0.327587
0.034123
0.421242
0.825400
1.205344
1.555396
1.856424
2.137124
2.373583
2.578057
2.727826
2.867731
2.976847
3.072510
3.149341
3.250983
3.378931
3.464730
3.453975
3.322752
3.123672
2.829532
2.429273
1.860717
1.170199
0.428563
-0.284076
-0.964133
-1.580816
-2.132333
-2.621075
-3.012067
-3.371074
-3.698395
-4.057401
-4.394587
-4.756284
-5.159233
-5.628545
-6.100248
-6.495126
-6.780597
-6.999406
-7.243325
-7.525209
-7.822636
-8.038456
-8.181637
-8.184022
-8.070721
-7.775971
-7.326974
-6.752726
-6.091190
-5.349542
-4.502970
-3.616042
-2.733000
-1.965046
-1.371965
-1.018924
-0.847931
-0.774388
-0.666169
-0.415362
-0.030634
0.353197
0.637783
0.787553
0.831203
0.889799
0.987256
1.162136
1.420417
1.802753
2.260419
2.779664
3.356603
4.031291
4.762776
5.426703
5.936084
6.310349
6.649041
6.901344
7.074729
7.196698
7.310596
7.380851
7.412245
7.339611
7.147407
6.818592
6.369906
5.796268
5.094390
4.315389
3.487662
2.714639
1.952676
1.222699
0.489134
-0.240245
-0.914323
-1.493939
-1.991051
-2.374869
-2.645094
-2.873469
-3.140705
-3.520936
-3.917608
-4.233868
-4.356721
-4.279591
-3.949568
-3.431518
-2.798381
-2.128774
-1.529117
-1.031394
-0.735448
-0.633208
-0.699265
-0.837065
-1.054978
-1.359878
-1.775084
-2.172653
-2.476059
-2.626413
-2.606379
-2.456609
-2.262897
-2.107149
-2.025236
-2.041073
-2.025223
-1.982470
-1.896970
-1.807285
-1.699664
-1.577396
-1.409990
-1.175922
-0.867421
-0.426495
0.180934
1.009870
1.970633
2.931695
3.748972
4.378821
4.824530
5.125857
5.216737
5.147691
4.932170
4.640422
4.425499
4.279927
4.161558
4.032427
3.932292
3.864741
3.822299
3.735616
3.608877
3.459419
3.376323
3.423262
3.596049
3.846258
4.130845
4.416029
4.738580
5.071592
5.459608
5.700850
5.850022
5.853018
5.714620
5.540052
5.305698
5.027701
4.629834
4.113889
3.494216
2.837178
2.208238
1.572124
1.003569
0.527083
0.179435
-0.057011
-0.197800
-0.228583
-0.206755
-0.153240
-0.056082
0.137331
0.369904
0.616227
0.823989
0.984520
1.037138
0.978555
0.740016
0.354105
-0.122679
-0.598567
-1.025730
-1.402673
-1.746434
-2.074053
-2.360421
-2.693421
-3.090691
-3.592884
-4.120487
-4.569770
-4.822658
-4.894394
-4.832509
-4.665402
-4.442395
-4.157210
-3.871727
-3.594016
-3.336034
-3.051448
-2.746833
-2.373166
-1.989933
-1.621945
-1.295210
-1.007335
-0.770278
-0.639939
-0.580147
-0.573564
-0.575351
-0.606732
-0.591481
-0.518237
-0.369663
-0.160705
0.098173
0.369308
0.625496
0.881087
1.148933
1.470886
1.764440
2.020329
2.227194
2.444821
2.706091
3.034022
3.338338
3.532947
3.544013
3.356591
2.988318
2.516316
2.034150
1.537636
1.105691
0.751168
0.591546
0.643865
0.878531
1.171786
1.475504
1.732290
1.929589
2.027345
2.040206
2.067116
2.149029
2.317033
2.450361
2.520616
2.506573
2.471903
2.339186
2.137714
1.861211
1.508781
1.063982
0.543852
-0.004675
-0.549018
-1.042543
-1.516338
-1.888498
-2.149755
-2.274402
-2.338666
-2.342844
-2.304575
-2.169154
-1.951527
-1.719552
-1.490567
-1.278620
-1.064879
-0.864890
-0.643676
-0.542931
-0.502270
-0.459816
-0.325292
-0.091523
0.184694
0.452241
0.716500
0.946682
1.030986
0.997214
0.867784
0.779905
0.782602
0.890522
0.985886
0.996355
0.860648
0.597298
0.270576
-0.044788
-0.283625
-0.441453
-0.503624
-0.522749
-0.443825
-0.324248
-0.172086
0.003391
0.189331
0.291272
0.300246
0.215058
0.044974
-0.156198
-0.388161
-0.667055
-1.014104
-1.357866
-1.644233
-1.803556
-1.912359
-1.953904
-1.979008
-1.957179
-1.893202
-1.764657
-1.555101
-1.293233
-0.904620
-0.408093
0.169145
0.720077
1.175351
1.462329
1.626149
1.680560
1.662033
1.617200
1.639626
1.801652
2.152899
2.649127
3.157013
3.632017
4.008375
4.304321
4.514175
4.744057
5.037612
5.416959
5.823508
6.157418
6.327514
6.276703
6.019332
5.580511
5.058887
4.478972
3.919683
3.411809
2.986739
2.580203
2.155730
1.739030
1.300508
0.833289
0.312263
-0.270342
-0.876264
-1.392807
-1.827144
-2.146393
-2.428276
-2.664424
-2.841682
-2.928066
-2.972899
-3.013248
-3.035661
-3.033562
-2.998581
-2.986617
-3.018895
-3.175826
-3.379689
-3.626000
-3.834347
-3.993670
-4.048666
-3.958981
-3.767660
-3.522233
-3.280095
-3.048419
-2.820330
-2.617650
-2.476848
-2.377597
-2.347399
-2.355763
-2.466360
-2.662152
-2.912947
-3.156268
-3.337711
-3.427682
-3.363107
-3.159531
-2.769422
-2.265721
-1.721067
-1.213779
-0.737579
-0.346873
-0.044052
0.152949
0.273423
0.359222
0.441434
0.566393
0.723636
0.940365
1.159187
1.388472
1.591451
1.803996
2.006676
2.137015
2.083812
1.851252
1.502110
1.078534
0.631941
0.198202
-0.180534
-0.532068
-0.837267
-1.098226
-1.291327
-1.444671
-1.572905
-1.721466
-1.868234
-2.035926
-2.214081
-2.375198
-2.547673
-2.725529
-2.959883
-3.202308
-3.437857
-3.708381
-4.031815
-4.374082
-4.759993
-5.080438
-5.253810
-5.264864
-5.160233
-5.000598
-4.758759
-4.443681
-3.983624
-3.410571
-2.738274
-2.083614
-1.554205
-1.194887
-1.004463
-0.971275
-1.068122
-1.201138
-1.332063
-1.367629
-1.303353
-1.153882
-0.996639
-0.881844
-0.856728
-0.870472
-0.918892
-1.009162
-1.120656
-1.210926
-1.252471
-1.289532
-1.352599
-1.507737
-1.667657
-1.791407
-1.855969
-1.900204
-1.906476
-1.869103
-1.730693
-1.498120
-1.175271
-0.777091
-0.365161
0.039595
0.362743
0.645835
0.885582
1.090354
1.210829
1.268529
1.249105
1.192315
1.149275
1.168712
1.287393
1.487981
1.757621
2.075089
2.482536
2.884302
3.250795
3.555709
3.815783
4.017267
4.140731
4.133264
3.947636
3.612842
3.152798
2.639842
2.093407
1.556837
1.003825
0.469646
-0.057060
-0.557161
-1.007042
-1.360071
-1.636573
-1.858970
-2.024271
-2.170142
-2.256526
-2.331550
-2.366220
-2.349772
-2.202394
-1.961152
-1.674473
-1.446085
-1.355204
-1.396151
-1.529766
-1.688491
-1.880695
-2.121028
-2.431907
-2.736808
-3.062036
-3.364844
-3.658087
-3.956411
-4.284628
-4.674126
-5.083652
-5.407983
-5.604373
-5.676707
-5.601669
-5.456085
-5.292863
-5.219321
-5.214531
-5.265642
-5.352325
-5.507163
-5.710727
-5.902334
-6.039835
-6.063444
-6.022185
-5.919049
-5.764496
-5.521461
-5.225814
-4.869484
-4.470109
-4.057880
-3.702448
-3.397235
-3.167951
-3.060928
-3.044480
-3.137740
