EVENT_NAME: 202302060117
EVENT_ID: 13194
EVENT_DATE_YYYYMMDD: 2023/02/06
EVENT_TIME_HHMMSS: 01:17:32.00000
EVENT_LATITUDE_DEGREE: 37.288
EVENT_LONGITUDE_DEGREE: 37.043
EVENT_DEPTH_KM: 8.6
HYPOCENTER_REFERENCE: AFAD
MAGNITUDE_W: 7.7
MAGNITUDE_W_REFERENCE: AFAD
MAGNITUDE_L: 
MAGNITUDE_L_REFERENCE: 
FOCAL_MECHANISM: 
NETWORK: TK
STATION_CODE: 4414
STATION_NAME: 
STATION_LATITUDE_DEGREE: 38.406947
STATION_LONGITUDE_DEGREE: 38.754133
STATION_ELEVATION_M: 725.0
LOCATION: Kahramanmaras_Pazarck_Turkiye
SENSOR_DEPTH_M: 
VS30_M/S: None
SITE_CLASSIFICATION_EC8: unknown
MORPHOLOGIC_CLASSIFICATION: 
EPICENTRAL_DISTANCE_KM: 195.07
EARTHQUAKE_BACKAZIMUTH_DEGREE: 
DATE_TIME_FIRST_SAMPLE_YYYYMMDD_HHMMSS: 2023/02/06 01:17:45.6412470
DATE_TIME_FIRST_SAMPLE_PRECISION: millisecond
SAMPLING_INTERVAL_S: 0.005
NDATA: 10657
DURATION_S: 
STREAM: HNN
UNITS: cm/s^2
INSTRUMENT: sensor = GEO-A200,/GEObit | digitizer = 
INSTRUMENT_ANALOG/DIGITAL: 
INSTRUMENTAL_FREQUENCY_HZ: 
INSTRUMENTAL_DAMPING: 
FULL_SCALE_G: 
N_BIT_DIGITAL_CONVERTER: 
PGA_CM/S^2: 106.618
TIME_PGA_S: 
BASELINE_CORRECTION: BASELINE REMOVED
FILTER_TYPE: BUTTERWORTH
FILTER_ORDER: 
LOW_CUT_FREQUENCY_HZ: 
HIGH_CUT_FREQUENCY_HZ: 
LATE/NORMAL_TRIGGERED: 
DATABASE_VERSION: 
HEADER_FORMAT: DYNA 1.2
DATA_TYPE: Acceleration
PROCESSING: Automatic Paolucci et al., 2011
DATA_TIMESTAMP_YYYYMMDD_HHMMSS: 
DATA_LICENSE: U (unknown license)
DATA_CITATION: Turkish Accelerometric Archive v 1.0 - Disaster And Emergency Management Presidency, Earthquake Department
DATA_CREATOR: AFAD
ORIGINAL_DATA_MEDIATOR_CITATION: : AFAD - Disaster And Emergency Management Presidency
ORIGINAL_DATA_MEDIATOR: AFAD PROCESS SERVICE
ORIGINAL_DATA_CREATOR_CITATION: AFAD PROCESS SERVICE
ORIGINAL_DATA_CREATOR: network: TK
USER1: GuestUser
USER2: 
USER3: 
USER4: 
USER5: 
[...]
-9.344703
-9.379128
-8.308981
-5.264872
-1.064870
4.080798
10.132111
15.168311
18.794604
20.889046
20.045496
16.495133
11.480718
5.444833
-0.335861
-4.395193
-6.195238
-4.532314
0.526721
6.741884
12.505283
17.018388
18.713800
17.580453
15.172093
12.084322
9.517998
8.164302
8.019937
9.065130
10.414480
11.234144
10.279948
7.588383
3.718560
-1.514320
-5.846500
-8.192004
-9.630921
-9.105527
-7.613515
-7.139441
-7.302875
-8.761331
-11.261268
-13.889036
-16.347068
-17.526086
-17.594176
-17.140113
-15.728848
-14.084287
-13.326067
-13.065516
-13.624212
-15.069015
-16.211543
-16.911254
-16.272154
-13.559039
-10.199707
-7.293081
-5.525397
-5.274498
-5.891342
-6.474757
-5.777981
-3.874226
-1.516354
1.709732
4.244401
5.067361
5.425374
4.938480
3.819493
2.461794
0.821832
-0.449704
-1.759142
-2.279701
-1.203434
0.629696
2.768866
4.707698
5.833402
5.786265
5.049123
3.829614
2.119027
0.837132
-0.443821
-1.664743
-1.807695
-1.743716
-1.176653
-0.169127
-0.209438
-0.688799
-1.596383
-2.609197
-3.012519
-3.948587
-5.091822
-6.392078
-8.895076
-12.306543
-16.228157
-19.960496
-22.927499
-24.463642
-24.294197
-23.140243
-20.502932
-17.221523
-14.470271
-11.564822
-8.547785
-5.551936
-2.327733
1.529739
5.479494
9.032102
12.550104
15.383751
17.077280
17.587607
16.712511
14.916233
13.412106
12.967115
13.980055
16.281663
18.385050
18.771313
16.311397
11.006244
3.725715
-4.272598
-11.072172
-15.253685
-16.443532
-15.101951
-10.880055
-3.836228
3.671368
10.318519
15.712080
18.758544
20.663711
22.717426
24.363400
26.080234
27.030554
26.621346
26.329611
26.014335
25.506724
24.837852
23.541362
21.661040
19.213366
16.223293
12.179263
7.369660
2.771225
-1.683135
-5.923267
-8.961836
-11.143726
-13.758074
-16.128297
-18.076183
-19.321824
-18.952746
-17.281582
-14.185446
-10.763494
-7.885588
-5.227325
-3.176200
-1.663943
-1.002949
-1.712076
-4.030037
-8.411653
-14.276155
-20.416565
-25.950778
-29.768809
-31.083191
-29.671691
-26.240793
-22.303751
-18.574345
-15.522703
-12.937419
-9.718160
-6.035602
-2.723354
0.256723
2.889796
4.401818
4.628469
4.345210
4.012983
4.101916
5.626651
8.599665
12.209008
16.376522
20.786045
25.095044
29.069753
32.110567
34.491980
36.046849
36.316816
35.462908
33.343168
30.292593
26.652066
23.162440
20.093268
17.069060
15.701945
16.109160
17.020871
18.659077
19.481566
18.333387
16.274149
13.382716
10.403237
7.885644
4.522672
0.352223
-3.556207
-6.629618
-7.952239
-6.797343
-4.188988
-1.156414
1.614378
2.854495
2.352533
0.490809
-2.290921
-5.659072
-8.574047
-10.678955
-12.638613
-13.687210
-14.089119
-14.828145
-16.590759
-19.579419
-22.475561
-24.700296
-25.751954
-24.390833
-20.550547
-15.218900
-9.100023
-3.017399
1.386238
3.879945
6.002636
8.906909
13.022632
18.621005
25.391043
32.229587
38.009701
40.742826
39.458107
34.688760
26.890316
18.682012
12.214374
7.691744
5.335175
4.582496
4.758062
5.097948
5.089889
4.893498
4.101975
2.570775
1.157753
0.108685
-0.277216
0.999626
3.358204
5.960438
8.903083
10.794831
10.439299
8.738835
5.354675
-0.146344
-5.266696
-8.664274
-11.440825
-13.366817
-13.834173
-13.933102
-13.565907
-12.243630
-11.711645
-12.159460
-12.906725
-14.537742
-15.130338
-12.955149
-9.456922
-6.114070
-3.481938
-1.559586
-0.461189
0.408854
1.311620
1.208453
0.654465
-0.198502
-2.866526
-6.738231
-10.353805
-13.851434
-16.278863
-16.401334
-14.613639
-11.110704
-6.530270
-2.321322
-0.206635
-2.115207
-8.136496
-16.248514
-24.071441
-29.845308
-32.362195
-31.418231
-27.911294
-22.121763
-14.717514
-7.659092
-2.777089
-0.933131
-1.986672
-4.698954
-6.765725
-7.226724
-5.031289
1.052512
10.084897
21.027684
31.198306
38.466014
43.075875
44.134486
42.150817
38.577148
33.861711
29.353205
26.862920
26.561533
26.823497
27.026842
27.190166
26.477036
24.862735
22.233790
17.742234
12.550551
7.717406
4.131025
4.084593
6.029075
8.101387
11.332417
15.111260
18.831719
22.405986
24.830010
24.952842
22.644534
18.622162
12.921980
6.052488
-1.026054
-7.814329
-12.898662
-15.343041
-15.522011
-13.895106
-11.771002
-10.508050
-10.735516
-12.905400
-16.921651
-22.230807
-27.758664
-31.922992
-33.355788
-31.386117
-26.484340
-19.895336
-12.389623
-5.459502
-0.858822
1.219847
0.268241
-2.135646
-2.958009
-1.356058
3.177058
9.199415
15.658704
23.093557
29.551434
33.388425
34.244578
30.969416
22.960746
11.266167
-2.622018
-16.113998
-25.832259
-30.247070
-28.521054
-20.952014
-11.619237
-4.191918
1.093352
1.809904
-3.052197
-9.449445
-16.403452
-22.484537
-24.306711
-21.846198
-15.835376
-9.367141
-5.131356
-2.338200
-0.346400
1.278151
2.422689
2.712197
1.255623
-1.128724
-2.610016
-2.712241
-0.004541
4.089288
7.645663
11.656155
14.439659
13.754074
9.983361
4.647839
-0.344918
-3.628554
-4.651256
-4.490521
-3.826232
-3.177951
-3.924980
-5.388851
-6.931351
-7.812332
-7.678670
-7.352203
-6.275229
-5.508534
-6.113372
-6.298934
-4.408363
-0.479560
3.780708
6.482994
6.752255
4.272564
-0.366362
-5.253888
-9.515678
-14.113171
-18.714666
-22.088232
-24.296017
-25.177705
-25.185528
-25.916314
-26.483014
-25.907006
-24.467492
-20.934894
-15.910701
-11.023755
-6.848236
-3.402978
-0.071190
2.221001
3.737496
4.744787
4.687526
5.328039
7.867181
12.650073
19.008133
25.597372
31.241416
35.075346
37.139654
36.176513
32.129893
26.642527
20.134163
13.659933
9.182031
6.066717
1.768202
-1.534974
-2.235862
-3.845690
-5.397607
-4.630676
-2.912900
-1.072944
1.030914
3.858912
6.893370
9.168611
9.650217
7.655719
3.020088
-4.102242
-11.893388
-19.606376
-27.178586
-32.792840
-35.918748
-37.017489
-35.740412
-32.762925
-29.348742
-26.553938
-26.015831
-28.636772
-33.495341
-39.041090
-42.991425
-42.286644
-36.155524
-27.160570
-16.838811
-4.960010
6.093422
13.661049
17.914726
19.358243
17.940042
15.468120
14.559124
13.981830
12.593763
11.555053
9.179887
5.294998
3.064848
2.580778
3.571354
7.698377
14.185916
20.985852
27.474097
33.428184
37.642075
38.501289
36.980918
33.800629
28.842008
24.903915
21.742695
19.385420
18.865096
16.884252
13.723502
8.937676
1.427617
-6.384482
-14.058862
-20.493541
-25.422500
-27.767533
-25.743952
-21.744054
-16.578846
-10.494104
-8.049363
-9.961466
-12.141473
-15.834733
-20.604080
-22.019220
-19.669352
-13.915840
-6.279000
1.857392
9.723528
14.423553
15.175888
12.516810
6.434548
-1.071509
-8.330616
-14.854989
-18.902315
-19.535638
-17.924506
-15.666685
-11.140868
-4.077736
-0.188719
0.124094
1.152101
2.713561
4.305860
8.453365
17.014448
27.201549
36.028887
43.326493
47.063667
46.234948
42.145954
33.430564
20.166702
6.144095
-5.778131
-14.544606
-19.147749
-17.362879
-10.430169
-2.251166
5.820723
11.493252
13.861482
14.959879
15.474914
15.373631
16.127849
17.742984
17.331187
16.897261
15.955778
11.278478
8.648827
9.900715
11.993744
15.844860
22.241764
29.044525
33.145181
36.301113
37.455303
33.248601
25.963128
15.640553
3.383801
-6.838486
-13.834397
-16.899097
-14.274734
-6.032875
1.853506
7.436577
12.376727
12.406570
7.798483
1.587920
-6.355541
-14.261570
-20.766168
-24.730628
-25.547576
-25.476535
-25.465760
-24.488838
-24.278666
-25.823285
-26.491921
-25.396349
-24.033110
-23.989848
-23.410779
-21.321752
-20.633921
-20.406328
-20.760919
-23.240139
-26.247633
-27.998241
-27.186581
-25.187954
-19.790155
-9.623300
2.272215
17.233788
32.022094
42.267814
46.750786
42.593521
32.553446
18.452680
1.489963
-12.607272
-21.135270
-22.352660
-17.263963
-8.176490
3.949733
12.697030
15.689112
16.195438
13.305417
6.795169
1.184210
-0.197972
-0.767262
2.175383
10.816507
16.740461
20.116742
22.167867
19.719015
11.590283
0.741789
-6.461288
-11.993148
-15.678168
-14.728790
-12.995006
-13.603140
-15.907917
-17.882876
-21.864756
-27.274906
-30.700027
-32.730074
-32.057780
-28.685501
-22.752366
-14.599495
-7.607930
-3.493855
-2.685726
-3.991868
-6.802319
-10.496050
-13.639614
-16.220534
-16.883755
-14.612987
-10.572127
-5.868805
-0.088927
6.194036
10.941616
14.915618
17.569879
15.521705
9.538318
1.934092
-5.039925
-8.210327
-8.682861
-8.421133
-8.180357
-9.252731
-11.467344
-15.247473
-20.392073
-25.946532
-31.650951
-35.932987
-37.646634
-36.694195
-33.050011
-27.357471
-20.799543
-14.807790
-10.171562
-6.421440
-3.595796
-1.659084
0.540824
2.187975
2.444054
2.438349
2.527988
2.895182
3.643751
4.379371
4.507618
3.275632
1.072319
-0.634736
-1.592698
-1.958589
0.426591
5.575084
11.028441
16.254621
20.053709
21.670256
21.282236
19.533277
18.730218
19.414989
21.262479
23.154933
23.585690
22.504841
19.632947
14.907623
8.724603
1.938683
-4.702692
-9.867302
-13.072310
-15.298458
-16.908993
-18.569436
-18.803494
-16.464220
-13.272269
-10.397424
-9.308679
-10.827873
-14.186372
-17.908118
-20.551894
-21.487021
-19.781957
-16.066912
-11.777452
-7.716581
-5.169905
-3.906247
-3.678889
-4.681345
-5.801273
-5.466566
-2.288505
3.421455
9.675697
14.621026
17.960112
19.728973
19.777414
18.796616
17.577343
17.067377
17.479301
18.142177
17.561352
14.708997
11.176055
8.061683
5.396484
3.624689
2.364217
1.155066
1.413969
4.968931
10.645933
15.147032
17.106110
16.728448
13.663748
8.794114
3.378315
-1.096291
-2.508841
-0.589785
3.887537
9.331242
14.176754
17.117752
16.888402
14.684619
12.030484
9.331150
7.830790
8.215876
9.321570
9.697946
8.527874
5.573113
1.475879
-3.173876
-8.217247
-12.058820
-13.922192
-14.603540
-13.262430
-10.672438
-7.655872
-3.415849
0.467048
4.194805
7.692561
9.258729
9.836386
10.198872
11.490545
13.051063
13.242872
13.039418
12.145725
10.620646
9.193499
7.346842
4.604662
1.096439
-2.920283
-7.873961
-13.337785
-19.452769
-25.425092
-28.529812
-29.734961
-30.260935
-28.906877
-26.542884
-24.661729
-23.255409
-22.728131
-23.754129
-25.888935
-28.441370
-28.929913
-25.925117
-21.538195
-15.399072
-8.308162
-3.151900
0.008034
1.128325
-0.206539
-5.125139
-11.787230
-16.663456
-19.431296
-18.796434
-15.104695
-9.943725
-3.536934
2.102637
6.545824
10.545722
13.354651
15.662144
18.739447
21.821694
24.000886
26.206914
28.821625
30.706782
30.619623
28.022224
23.915809
18.803696
13.529853
9.594585
5.814927
1.446494
-2.243706
-3.740300
-1.929770
2.210200
6.858670
10.852683
12.912754
12.626433
11.211764
8.791634
4.499239
-1.199059
-7.254719
-13.121339
-18.656259
-23.500703
-27.537907
-31.178669
-34.252315
-36.393007
-38.395980
-40.233692
-41.047109
-41.460554
-41.714622
-41.743397
-41.798775
-41.990928
-42.421088
-42.130404
-41.115344
-39.893590
-37.544899
-34.196868
-30.025116
-24.115994
-17.347603
-11.183997
-6.219128
-4.354923
-5.990884
-9.172114
-13.303248
-17.110685
-19.717266
-22.242627
-24.086695
-23.363552
-20.189728
-15.542200
-9.721124
-4.773676
-1.377149
1.561259
3.795302
6.115507
8.657239
10.847260
12.465925
12.579812
12.103511
11.251722
8.975430
6.938792
5.549548
4.644554
6.038869
9.568877
13.997468
18.756818
23.162809
25.949138
26.150364
24.360207
20.175869
13.023170
5.010027
-2.387975
-7.528102
-8.612482
-6.776528
-2.648328
2.886248
7.622998
11.243877
13.892958
14.680606
13.235097
9.892842
4.697392
-1.704800
-7.900061
-13.407437
-18.065197
-21.581189
-23.843827
-24.260567
-23.060707
-21.150831
-18.982705
-16.832469
-14.906115
-13.299926
-11.754475
-10.310488
-8.892632
-7.477836
-6.617445
-6.859272
-8.956647
-12.892386
-17.857599
-22.625534
-26.158947
-27.969821
-27.477620
-25.704993
-23.692947
-21.775067
-21.243552
-21.079757
-19.592925
-17.616897
-15.161092
-12.182899
-10.138366
-8.941330
-7.257219
-5.071907
-3.809425
-3.506029
-3.422275
-4.289367
-5.139273
-4.587983
-3.022521
0.421325
5.893985
11.192438
15.080750
16.977442
16.760098
15.663241
13.644494
10.246916
6.087532
2.063512
-0.676313
-2.182795
-2.665452
-1.740557
-0.404626
0.559113
1.770509
2.758024
2.692995
2.196684
1.566656
0.663075
-0.923448
-3.413026
-5.569020
-7.378011
-8.970890
-9.738165
-11.054901
-12.730647
-13.883298
-14.954495
-15.414317
-14.894808
-12.524695
-8.282553
-3.634555
0.309785
2.884946
4.471360
5.580586
6.964071
8.869473
10.822430
13.240568
16.305159
19.243096
20.982295
21.001309
19.160537
15.510358
10.844829
5.863137
1.131457
-2.934702
-6.272014
-8.684140
-10.375188
-10.782512
-9.362773
-7.256325
-4.784747
-2.657583
-2.741445
-4.948996
-8.191670
-11.522860
-13.937341
-14.968753
-15.170559
-15.350471
-15.999332
-18.122133
-21.079012
-23.475601
-25.333794
-25.873186
-24.906858
-23.469698
-22.501958
-22.634551
-23.348622
-24.448305
-26.028942
-27.639007
-29.047555
-29.219699
-26.835460
-21.793375
-13.859205
-3.992976
5.506240
14.519322
21.622238
25.415912
27.340619
26.483650
23.234855
19.111961
14.242797
10.442894
8.182610
8.457522
12.258729
17.620509
23.710195
30.063547
35.235581
38.518638
40.122002
39.832621
37.391068
33.732413
29.694975
26.134254
24.087022
23.574938
23.972736
25.866839
29.113170
31.584513
33.291224
33.781541
31.678987
27.716646
22.219628
16.253426
10.522641
5.507990
2.383731
0.373694
-0.804146
-1.751279
-3.848184
-7.473409
-12.888502
-19.110601
-24.874345
-29.881932
-33.642757
-35.395955
-34.947306
-33.064975
-30.750419
-28.641146
-27.565821
-28.031293
-29.732228
-32.736661
-36.802820
-40.691476
-42.613231
-40.496896
-34.137894
-25.182018
-15.004569
-5.264994
2.169389
6.500988
7.125728
3.941437
-1.060266
-5.451770
-7.008630
-4.463367
0.665351
6.862857
13.033056
17.965908
21.624688
23.614134
23.945310
23.183450
22.174402
21.779790
21.863779
23.065053
25.603489
28.040696
28.927453
27.804229
24.308247
18.984025
12.823134
6.254268
1.677727
0.004335
0.959599
5.276838
12.002618
19.021020
24.010608
26.372952
25.940203
22.570169
16.722852
8.667334
-0.349623
-8.666218
-14.599697
-18.802868
-22.458462
-24.887774
-27.436442
-31.976965
-37.155700
-42.700036
-49.923124
-56.209020
-60.959298
-65.625533
-68.314980
-68.420501
-66.104768
-62.164430
-57.438509
-50.851153
-43.340496
-35.952020
-27.578799
-18.970162
-11.911975
-5.736362
-0.865424
1.399223
2.671827
2.528169
0.655616
-0.719268
-1.588714
-1.457641
0.338293
3.634062
7.601002
11.176210
15.113488
18.947183
22.357835
25.534719
27.344543
27.733631
26.841820
24.528333
21.328505
17.784498
14.539705
11.932654
9.711685
7.442221
5.342962
4.167475
3.822536
4.732835
6.530182
7.696614
8.349603
8.072229
6.442389
4.589611
3.198013
2.442508
2.745199
4.491695
7.272139
10.346853
13.282435
14.652502
12.970636
8.664352
2.046990
-6.461704
-14.444009
-20.069563
-23.338133
-24.304570
-22.948864
-20.256231
-17.465664
-15.083309
-13.930531
-14.198489
-15.159041
-16.393146
-17.075436
-16.525323
-14.626983
-12.221557
-9.744565
-6.785676
-4.404969
-2.762761
-0.846059
1.342549
3.604842
5.718588
7.105839
7.392757
6.462103
4.037264
0.778111
-2.479865
-5.452047
-7.568962
-8.876987
-9.085150
-7.658819
-5.687500
-3.611421
-0.647588
2.536123
5.536916
9.393211
13.982826
18.784081
23.913740
28.400715
31.048384
31.998233
31.458605
29.359581
26.835397
25.082199
24.037133
24.252249
25.647034
26.625369
27.212912
27.335274
26.684765
26.323347
26.071869
25.805559
25.434959
24.397897
23.185451
21.406593
18.559888
15.354410
12.082309
8.833985
6.615841
5.657643
5.658766
6.789885
8.595942
10.721223
12.616032
14.092271
14.936418
14.603485
13.860458
12.989835
11.604593
9.910250
8.352683
6.763335
3.874727
-0.887793
-7.320118
-15.720050
-25.032219
-33.614834
-41.132663
-46.964677
-50.349072
-50.688832
-48.257981
-44.348953
-39.910474
-36.608820
-35.795277
-37.412404
-41.005377
-45.720813
-50.498870
-54.181537
-56.143784
-56.157022
-54.132499
-51.045543
-47.859949
-45.230642
-44.296331
-44.915765
-46.320546
-48.486192
-50.419248
-51.371795
-52.223820
-52.970143
-52.385895
-50.308168
-46.757914
-41.235345
-34.170095
-26.230746
-17.760298
-8.996522
0.121791
9.457628
18.469532
26.630173
33.582894
38.588019
41.072073
41.811931
41.197206
39.101714
37.192671
37.074908
39.258573
44.614938
52.739560
62.410865
73.509496
85.094027
95.448273
103.065574
106.617946
106.356109
102.495939
94.932911
85.336595
76.319873
69.186479
62.959436
57.867098
54.107686
49.353406
43.346713
36.258519
26.322497
13.256150
-0.545638
-12.304249
-22.122563
-29.612612
-32.570433
-31.822571
-29.244350
-25.993545
-24.349925
-26.185282
-30.793840
-36.400797
-41.754682
-44.900129
-46.053016
-47.213200
-47.516941
-46.306722
-45.652320
-46.712217
-47.902771
-48.782575
-50.417358
-52.238119
-52.794226
-50.845037
-46.493662
-40.343945
-33.289053
-25.679993
-18.993292
-16.006388
-14.576290
-13.081454
-12.914363
-13.200683
-12.636681
-11.345949
-9.532830
-6.676347
-2.635251
3.041045
10.314638
18.616528
28.036644
38.342865
47.919768
55.392523
61.641115
65.756603
67.325125
67.270925
64.219879
59.102823
53.793197
49.292930
46.240708
44.145922
43.176424
41.477373
36.958273
30.949696
23.513793
14.274838
5.429970
-1.776168
-6.481011
-8.331906
-8.362564
-6.679159
-4.257489
-3.062808
-4.179440
-7.578195
-12.748220
-19.498357
-25.631468
-28.504540
-27.665572
-22.575226
-12.996205
-0.903882
10.701365
20.135135
26.874334
30.317709
29.594457
26.027850
22.120597
19.383125
19.402139
22.312533
28.476846
36.229275
42.429842
47.112446
49.851457
49.969110
46.648278
39.748181
30.899311
20.795202
11.763414
6.755120
6.338850
10.323211
17.878597
28.036742
38.347437
46.052076
51.721545
54.754825
53.700343
50.614220
46.314528
39.536141
31.690143
24.163369
16.016744
8.099179
1.413547
-4.520874
-8.517350
-10.381899
-11.950766
-12.717335
-11.559613
-11.023390
-11.794668
-11.748816
-12.123888
-13.207798
-13.244577
-12.302497
-11.120292
-10.208816
-10.283733
-12.413360
-15.919700
-19.079744
-21.549547
-22.186402
-20.009565
-16.490150
-12.537571
-8.444683
-4.788021
-2.908279
-2.457747
-0.770575
1.394020
3.218910
4.886543
6.037908
6.678420
5.767306
4.347693
2.932553
0.950060
0.080850
0.379774
0.933889
1.874792
2.408425
2.041122
1.031368
0.089885
0.455667
2.150137
6.054927
13.021773
20.444620
25.990025
29.290737
29.223354
24.726619
16.937591
7.571747
-2.255276
-11.084372
-17.834273
-22.260854
-24.453102
-24.959066
-25.580383
-26.588489
-27.002405
-28.382703
-29.978407
-30.700247
-32.284886
-33.915432
-35.462640
-37.443956
-39.283080
-41.750529
-43.828365
-44.535374
-44.457035
-43.069312
-40.104538
-35.285863
-28.410593
-19.499682
-8.401992
3.504588
14.840283
24.756892
31.793892
35.343910
36.357557
36.343377
36.261398
36.523126
37.119616
37.893609
38.709036
39.253263
39.726394
40.072166
40.467610
42.326871
45.841813
50.136452
54.164600
56.894900
58.272971
58.819552
58.493447
57.281706
56.714535
56.698236
56.511733
56.378197
55.516049
53.707765
50.400116
45.375813
39.431270
33.594547
28.580838
24.491138
22.664961
23.270397
25.247836
28.458620
32.857784
0.000000
