EVENT_NAME: 202302060117
EVENT_ID: 13194
EVENT_DATE_YYYYMMDD: 2023/02/06
EVENT_TIME_HHMMSS: 01:17:32.00000
EVENT_LATITUDE_DEGREE: 37.288
EVENT_LONGITUDE_DEGREE: 37.043
EVENT_DEPTH_KM: 8.6
HYPOCENTER_REFERENCE: AFAD
MAGNITUDE_W: 7.7
MAGNITUDE_W_REFERENCE: AFAD
MAGNITUDE_L: 
MAGNITUDE_L_REFERENCE: 
FOCAL_MECHANISM: 
NETWORK: TK
STATION_CODE: 3136
STATION_NAME: 
STATION_LATITUDE_DEGREE: 36.11593
STATION_LONGITUDE_DEGREE: 36.24722
STATION_ELEVATION_M: 269.0
LOCATION: Kahramanmaras_Pazarck_Turkiye
SENSOR_DEPTH_M: 
VS30_M/S: 344
SITE_CLASSIFICATION_EC8: C
MORPHOLOGIC_CLASSIFICATION: 
EPICENTRAL_DISTANCE_KM: 148.38
EARTHQUAKE_BACKAZIMUTH_DEGREE: 
DATE_TIME_FIRST_SAMPLE_YYYYMMDD_HHMMSS: 2023/02/06 01:17:37.6087370
DATE_TIME_FIRST_SAMPLE_PRECISION: millisecond
SAMPLING_INTERVAL_S: 0.01
NDATA: 12501
DURATION_S: 
STREAM: HNE
UNITS: cm/s^2
INSTRUMENT: sensor = GMS+/GEOSIG | digitizer = 
INSTRUMENT_ANALOG/DIGITAL: 
INSTRUMENTAL_FREQUENCY_HZ: 
INSTRUMENTAL_DAMPING: 
FULL_SCALE_G: 
N_BIT_DIGITAL_CONVERTER: 
PGA_CM/S^2: 401.969
TIME_PGA_S: 
BASELINE_CORRECTION: BASELINE REMOVED
FILTER_TYPE: BUTTERWORTH
FILTER_ORDER: 
LOW_CUT_FREQUENCY_HZ: 
HIGH_CUT_FREQUENCY_HZ: 
LATE/NORMAL_TRIGGERED: 
DATABASE_VERSION: 
HEADER_FORMAT: DYNA 1.2
DATA_TYPE: Acceleration
PROCESSING: Automatic Paolucci et al., 2011
DATA_TIMESTAMP_YYYYMMDD_HHMMSS: 
DATA_LICENSE: U (unknown license)
DATA_CITATION: Turkish Accelerometric Archive v 1.0 - Disaster And Emergency Management Presidency, Earthquake Department
DATA_CREATOR: AFAD
ORIGINAL_DATA_MEDIATOR_CITATION: : AFAD - Disaster And Emergency Management Presidency
ORIGINAL_DATA_MEDIATOR: AFAD PROCESS SERVICE
ORIGINAL_DATA_CREATOR_CITATION: AFAD PROCESS SERVICE
ORIGINAL_DATA_CREATOR: network: TK
USER1: GuestUser
USER2: 
USER3: 
USER4: 
USER5: 
[...]
21.846950
16.244290
15.779059
21.049765
24.615354
20.130215
12.649173
9.269606
7.506576
2.197713
-3.770961
-5.533472
0.848521
11.134566
16.965850
13.956713
8.292487
6.162924
-2.863217
-14.517691
-18.310808
-16.372665
-7.227521
4.049798
9.036577
4.389083
-3.671761
-8.201320
-6.077703
3.170049
5.801512
0.772420
-0.563293
7.051299
24.698647
39.197608
36.145868
21.576539
11.674719
10.017934
19.247502
44.122633
70.225167
79.502014
66.505059
36.150672
7.428667
0.826939
19.268657
41.215165
44.556574
34.981283
20.655875
8.418223
11.553895
17.217630
11.797067
1.861477
-8.015664
-14.093960
-21.623059
-29.946269
-32.151944
-35.599829
-44.737671
-52.534331
-48.615978
-37.364376
-32.808292
-41.934964
-61.348186
-75.948947
-78.170728
-70.761873
-59.317263
-52.531332
-48.793257
-38.881018
-23.890576
-16.778896
-24.702842
-35.304996
-35.823738
-26.985900
-15.379715
-12.700194
-19.879646
-25.327484
-22.899679
-11.114774
2.518381
8.583457
6.342453
-0.547617
-2.987084
1.751357
6.243798
4.227753
-5.824731
-16.796795
-18.603207
-14.125573
-12.956863
-16.932337
-23.055832
-26.360585
-22.814998
-11.856934
0.438935
4.476522
-5.089937
-23.841790
-39.893874
-45.791631
-42.268904
-35.152288
-25.153546
-10.816941
6.432443
20.160153
20.487735
5.821512
-18.963191
-38.804771
-36.193310
-10.796045
20.618743
38.572358
36.167440
20.384995
8.175657
11.038314
22.006769
30.970854
30.201696
23.122514
25.838402
37.167415
42.185107
33.372494
11.568628
-12.217527
-24.959649
-29.089685
-27.089198
-21.105949
-19.347306
-21.838207
-30.021142
-42.946400
-51.594060
-42.833632
-20.595146
1.555539
23.791428
39.125542
48.107552
47.854293
31.914428
16.661649
6.651766
6.432016
14.960471
8.056374
-13.669302
-29.880105
-26.118392
-0.389923
28.885416
46.310143
47.783301
36.812017
28.604145
30.060678
33.888632
29.745348
17.236497
2.579366
-11.414577
-14.024191
-3.418113
6.477761
5.957200
-6.829862
-23.331605
-34.218464
-32.230446
-18.956551
-10.321851
-11.303240
-21.410536
-32.738741
-27.151898
-9.820687
0.522766
-3.758974
-14.978077
-18.670404
-2.796492
31.708496
56.749878
52.910782
31.300703
6.650820
-11.156257
-21.066649
-23.646650
-16.382226
-10.673032
-18.571262
-34.807262
-46.069486
-45.316145
-44.281995
-56.870334
-69.401524
-67.053728
-54.927227
-39.262428
-26.197646
-20.208942
-20.253607
-11.978946
3.148394
4.101756
-9.380445
-29.741300
-37.420285
-24.056770
-7.982057
1.794583
-1.157665
-16.456683
-36.458799
-48.532538
-37.338344
-10.636266
15.752273
29.637402
10.399783
-37.086558
-71.375130
-67.762004
-32.284965
11.397104
36.798524
38.381824
25.802576
19.066808
27.740474
36.388162
33.703215
23.076124
12.472931
7.031846
8.631251
14.468511
14.421247
1.399875
-16.327194
-27.541101
-30.862999
-25.442407
-12.564918
1.325407
10.453406
16.972037
27.177293
38.896997
46.411578
49.292678
47.507308
34.430864
12.691421
-1.500466
0.334808
10.919586
12.478208
1.150003
-8.240593
-5.831751
9.942151
28.108515
25.733731
-1.921148
-30.954875
-35.637697
-15.083805
9.474149
19.428470
9.331305
-15.453918
-39.214356
-42.972404
-24.211431
-0.940367
8.760161
1.912433
-11.787454
-20.863990
-19.637612
-5.767549
15.655786
27.699420
18.152184
-15.335264
-57.930955
-80.341899
-65.181309
-25.472391
5.783420
9.007414
-12.854381
-33.441494
-29.207263
0.117952
34.450973
39.956769
13.227703
-20.349885
-41.356004
-51.087155
-59.649092
-61.536811
-53.396190
-39.017501
-21.376648
-0.123721
22.408044
37.803983
47.459831
48.991437
44.648391
44.991039
46.461340
42.592111
38.940048
49.059322
69.874020
79.654556
63.305037
30.304914
7.097522
12.236784
35.157681
45.459312
35.786868
15.527322
-5.527114
-18.559656
-26.305402
-25.844040
-20.383964
-19.031078
-15.346516
-8.816456
-7.133924
-10.897688
-10.998983
-6.223915
-3.520496
-1.489096
-0.507159
0.109544
-1.975599
-10.541692
-26.291147
-45.847241
-51.317939
-32.062108
4.739747
37.131003
48.794337
41.962455
26.775138
24.843258
41.330742
57.110879
61.127424
54.415036
42.393770
33.557258
28.266320
15.980090
-6.607755
-29.155597
-36.781330
-25.238268
-13.850288
-24.507253
-49.893059
-67.266583
-62.429171
-39.631923
-22.299154
-23.037400
-29.834474
-32.696582
-35.771441
-36.040546
-24.897008
-9.735119
-2.364710
-4.003831
-12.159490
-21.649058
-28.304558
-32.802165
-25.556445
-8.914139
3.361469
10.784092
7.352831
5.054938
16.366547
30.711725
45.429930
47.204939
41.830095
51.543611
63.637640
68.195802
64.653881
48.971966
21.220973
-12.630410
-40.701697
-65.097528
-85.535534
-93.129575
-79.957509
-55.742708
-50.065206
-65.800894
-92.729721
-116.759279
-123.166960
-112.119276
-82.584428
-47.615495
-29.726563
-39.016889
-63.934593
-79.590532
-69.318514
-28.481684
26.239483
67.715342
81.662816
72.071159
62.221034
67.618246
81.912250
88.849626
76.339477
54.031142
33.671066
22.945262
24.709361
27.246009
23.587971
12.514338
-1.023712
-8.521640
-11.419596
-14.743572
-19.814228
-24.537574
-27.678673
-26.488143
-21.323682
-19.779348
-20.744631
-16.516634
-8.259377
-15.644565
-45.726715
-65.655836
-63.952004
-55.276521
-37.500068
-19.842069
-17.136053
-22.059160
-20.320779
-15.520253
-13.195056
-2.266865
13.504439
24.899952
28.660627
14.435230
-10.651583
-28.808568
-30.147657
-14.713012
-2.154258
-11.036228
-31.655293
-35.664277
-11.273354
23.283847
40.047205
25.735305
-6.966604
-40.493018
-61.167932
-55.318984
-38.652259
-37.939962
-52.618134
-69.782545
-72.300201
-55.610358
-31.293988
-14.716104
-16.542518
-25.138484
-28.222435
-14.949059
15.644863
33.441317
24.369457
14.444777
21.403974
34.031567
46.152093
60.326604
69.922185
67.996020
56.223872
30.898072
-9.822354
-42.013820
-44.771242
-22.137649
13.453428
41.606311
45.959776
19.361373
-24.242737
-43.587640
-25.508038
13.098685
49.117600
50.371774
18.909477
-10.001380
-15.471039
-3.309990
2.843667
-9.392687
-30.690525
-46.678967
-41.698942
-18.064463
-10.446494
-29.768018
-51.281464
-64.052940
-70.174356
-75.261377
-76.072099
-64.166401
-49.312078
-45.443340
-49.569739
-49.426333
-48.540510
-57.128943
-70.809606
-84.848750
-97.366952
-104.384827
-91.145481
-53.211038
-21.375945
-3.871989
5.564875
-0.996329
-23.851996
-54.971659
-79.330862
-98.663297
-99.368552
-76.746648
-59.580390
-51.509647
-45.278319
-30.212285
-7.730396
13.538117
25.982313
16.697962
7.987438
28.528601
75.523230
130.892258
175.148154
176.473244
126.724065
76.877472
49.522625
44.938774
80.822350
125.774684
141.238943
127.260325
104.235810
91.574995
72.495315
50.504676
45.478441
43.875427
43.205500
44.573452
35.650178
13.032199
-10.882021
-32.785119
-50.318401
-48.095292
-42.790557
-33.515270
-3.062402
21.565430
29.488106
32.304004
35.379931
42.722545
57.284889
67.470664
50.466789
13.896155
-24.242177
-53.257721
-71.436526
-76.164807
-45.785713
-6.836876
6.456242
21.971675
55.166393
93.807665
115.087868
107.769960
85.731783
56.265282
42.249259
54.514995
88.268474
129.777843
141.798099
139.036780
129.421484
98.639260
64.773070
27.920588
-0.763751
-9.099949
2.028783
33.431102
45.932448
43.654817
60.438696
48.329109
9.298993
-2.077009
23.421045
81.239944
144.430583
185.091032
191.055577
163.182753
123.173831
108.909209
109.829841
79.431553
7.479749
-88.855950
-162.938111
-184.008652
-154.583946
-80.950116
-19.353412
-4.226592
5.200919
5.664879
2.430783
14.385836
12.323033
-11.699770
-49.993964
-73.048873
-56.899866
-5.645043
69.954451
131.013175
130.204013
73.043914
31.272726
32.890315
65.450940
118.851966
148.476433
124.725347
47.694820
-24.109695
-32.948285
-10.240657
11.700395
16.344800
5.849151
-0.892332
-8.090747
-10.282654
-16.365106
-27.342365
-25.590476
-36.807240
-66.758987
-93.790423
-86.754335
-24.852664
49.468772
101.467830
106.211986
59.813553
3.097917
-47.895292
-74.730863
-70.658467
-59.121120
-34.880342
-11.874501
-5.074282
6.738938
12.196416
15.749796
17.548184
-3.516903
-27.050044
-35.661856
-4.827129
43.254629
71.162031
62.054841
-8.620463
-68.580081
-73.763216
-40.400688
17.857478
67.304577
80.585486
26.218931
-27.562367
-35.065749
-34.618154
-21.095661
-24.502763
-51.352881
-76.379168
-81.969360
-64.548010
-82.066744
-131.256124
-185.148342
-250.504899
-302.396125
-316.728546
-265.442291
-154.190169
-56.899015
-12.368544
-1.114344
-8.168848
15.137025
70.856480
121.880369
174.567033
182.520362
145.470716
101.490203
47.667862
-5.184506
-59.057241
-79.015716
-58.242581
-47.138787
-27.241589
-7.532203
-13.919362
-32.923969
-82.587426
-134.587494
-178.499949
-211.926092
-195.564855
-170.282927
-164.532950
-153.461107
-115.224554
-56.820917
-9.667829
16.979958
31.229541
55.532923
86.805618
128.681261
194.803122
233.012140
226.463925
191.791935
134.634433
81.555289
41.435446
42.219180
89.092238
141.780461
167.745318
153.132867
112.884699
74.498807
77.803069
109.994304
135.942796
155.793495
152.893201
106.725701
16.039694
-84.499570
-164.394817
-193.899503
-153.412840
-76.689590
-0.639919
39.119654
53.558868
70.521988
108.100290
162.316727
171.807362
144.228855
116.221731
97.596645
101.471098
103.325335
82.518459
47.778669
35.388013
73.575990
141.241912
198.037585
192.294390
119.828765
37.747571
-34.937038
-103.187150
-132.675990
-123.781002
-137.122929
-174.936292
-211.700972
-248.835302
-267.528187
-266.616128
-258.041694
-254.160747
-249.219947
-212.249502
-164.339711
-109.965854
-47.479185
9.767445
50.906905
35.708418
18.933139
25.924028
21.206397
47.157226
101.446658
142.689506
175.724207
223.426444
267.828070
267.647806
203.794267
87.737246
-54.008744
-181.040180
-246.229445
-252.113694
-233.686782
-220.472374
-196.939464
-175.685498
-186.274144
-183.411487
-165.120954
-112.529884
25.633155
188.719109
288.881478
323.585188
296.322299
206.175830
107.899664
6.894636
-71.788534
-96.196574
-80.768163
-44.160095
-20.789280
16.644331
56.601847
90.179723
51.397426
-119.750397
-281.101072
-335.973654
-296.595421
-201.890776
-81.239731
22.929039
88.375763
103.023831
37.685199
-29.492850
-26.005711
30.457718
108.583715
122.358443
60.827749
-3.021115
-91.050215
-155.632923
-157.658579
-164.188611
-162.434384
-160.108407
-167.423977
-125.043865
-56.288737
-12.413141
17.070273
16.106288
-27.117522
-57.160967
-56.516728
-7.508897
63.330609
78.808116
75.051626
57.987485
53.189326
75.092452
100.003691
151.906375
145.869123
78.044512
23.858236
16.177692
78.863083
160.759871
245.747118
307.914272
302.878425
262.739100
197.377868
120.274087
67.151820
52.865898
70.879778
88.961718
99.091902
99.752766
82.158179
53.729971
24.916527
6.971773
25.295297
71.110061
112.932711
151.246935
141.396030
75.524094
19.278898
-11.843103
-30.985128
-41.356088
-30.487124
-4.154955
17.328646
36.871780
74.490606
125.591646
146.144759
131.119277
92.283726
41.659908
14.976042
0.991969
-15.292088
-29.547099
-41.879567
-46.223911
-70.728325
-102.361030
-112.085687
-120.332785
-104.934508
-48.515758
18.433983
66.681733
92.532552
122.172606
139.735010
107.071806
52.557183
14.258054
-22.361416
-56.610763
-78.549449
-111.062248
-125.343755
-90.403136
-32.941938
28.782832
58.890468
-3.849187
-131.181953
-242.527563
-311.169404
-301.840344
-243.070435
-170.259030
-92.271750
-62.191390
-37.218066
8.111450
78.908874
138.456788
96.135932
10.079249
-101.563794
-224.503886
-291.071480
-286.262382
-192.006616
-74.593059
35.361522
81.163557
-3.166968
-58.065008
-4.182892
102.993990
246.893485
307.641007
204.565369
64.472283
-47.400916
-104.897933
-72.825932
-30.889764
7.964258
14.485746
-42.057144
-84.026534
-82.255423
-6.037162
97.548429
130.452467
98.661304
-23.647292
-207.490492
-335.835055
-359.431060
-270.355586
-108.125048
78.197406
221.916361
209.409070
51.127812
-116.581202
-189.234379
-149.131913
-43.291796
60.194044
88.440183
50.299252
29.725387
30.786294
26.942782
21.893427
4.078298
-40.169777
-114.516381
-168.796693
-188.770235
-199.388234
-162.973952
-80.429044
-7.278382
-16.205812
-96.594359
-134.667750
-125.309337
-96.999035
-15.161214
68.854760
88.751179
43.016972
-43.639775
-129.654894
-196.122738
-211.592163
-170.773257
-140.711859
-165.203284
-210.296384
-247.690482
-268.022243
-229.785949
-133.010434
-18.755655
63.762498
101.594073
108.043605
81.418446
64.898779
90.596595
144.666783
224.230595
305.860861
349.832831
365.169283
344.899087
279.164309
210.951344
169.098850
170.354842
207.633371
255.144419
291.868344
291.771985
254.595053
183.069268
81.391441
-16.417662
-92.975930
-122.848448
-82.179687
-21.904163
20.798061
42.348942
12.021570
-45.339589
-65.274944
-40.721666
24.815457
89.849410
96.696907
43.091992
-35.082293
-50.185705
-8.406696
40.967407
61.009296
-7.124959
-100.750240
-177.273440
-209.296576
-160.769835
-82.912179
-6.085022
27.189964
1.805976
-35.203665
-33.914422
33.875408
137.124340
240.595893
294.050171
260.099297
173.622569
87.884102
61.068014
101.759635
140.045025
122.704491
57.644849
-27.765790
-110.033498
-169.947137
-195.557383
-196.853091
-198.757695
-192.057227
-171.577110
-140.268826
-62.815629
72.744536
223.446573
350.121116
401.969250
328.612880
188.765275
33.746702
-116.866466
-173.036849
-127.681615
-42.411741
35.561253
60.068292
65.317697
63.244763
47.077861
63.240375
88.635302
132.118908
206.855452
261.424654
294.600410
283.500281
253.132386
262.097510
267.413675
236.871995
163.536148
57.663589
-48.323009
-132.071134
-169.451464
-174.438734
-166.988576
-153.099031
-136.149159
-118.399722
-97.294863
-48.873069
10.178688
49.683949
67.011003
62.073868
55.497338
25.955245
-46.085919
-114.276543
-169.952848
-189.896776
-166.583630
-127.619206
-69.601325
-15.194218
27.572428
38.848189
56.901035
114.145846
140.552569
155.816287
172.687708
155.148192
125.554925
98.202416
86.560671
117.286814
166.346599
200.511810
225.673464
230.421257
195.567689
147.967310
128.926335
136.033860
148.350251
147.209364
111.041111
53.398623
-1.648004
-36.840309
-29.553025
-9.341248
-7.793017
-31.304598
-83.746012
-111.645592
-93.480787
-38.404777
48.411495
116.496682
170.141890
202.064784
179.514345
142.198957
107.017562
85.941046
72.368187
43.449277
28.561212
31.152411
24.467558
-2.817411
-30.629450
-58.096517
-105.059166
-136.214937
-143.637272
-176.323076
-226.357221
-260.221333
-262.468051
-215.718383
-133.786267
-52.957645
-16.109811
-33.569578
-89.296277
-142.403477
-169.812875
-176.813347
-129.833265
-79.634398
-33.002405
16.258180
-24.877875
-113.993585
-184.851246
-219.189434
-179.089045
-84.991478
-1.210334
57.146285
68.695581
29.969653
5.475630
-3.105529
6.658901
30.359881
46.524993
60.732495
68.448655
91.298116
143.448879
210.147165
256.970087
275.742231
263.923584
218.037932
172.650256
139.117868
114.774770
81.906089
38.593959
-3.739886
-38.979988
-43.637353
-47.184470
-71.739538
-97.134696
-119.408742
-133.995216
-141.581724
-136.039821
-104.646594
-46.486879
19.002707
44.841057
9.668494
-63.700863
-123.916093
-124.682394
-72.427724
5.216143
81.654947
131.078147
140.592161
110.783806
55.384414
2.918062
-21.335416
-24.335721
-22.525384
-29.679898
-57.741573
-104.574599
-154.300139
-181.743307
-184.088998
-166.231757
-119.020222
-67.830081
-38.300948
-23.412854
-38.611342
-82.374430
-124.883358
-155.898595
-170.286087
-172.782962
-168.806160
-152.414011
-122.758111
-87.205739
-66.897329
-73.349430
-92.775381
-114.850185
-139.430970
-153.272690
-136.103834
-96.228145
-54.858010
-22.265175
-13.667621
-41.742545
-89.401892
-137.080202
-178.791383
-193.219399
-166.295738
-99.237673
-18.631413
43.481190
81.923220
77.294690
38.113388
8.795995
8.662229
37.399069
74.938666
95.751286
96.402538
93.682003
113.642065
168.016441
229.079582
271.145894
283.603599
247.578478
180.451083
108.107030
42.132746
-6.743614
-44.060821
-52.932920
-35.362983
-10.585005
26.343098
55.454004
71.199072
83.775490
97.400332
116.182606
117.267152
83.474476
30.278696
-24.335158
-62.847037
-64.501225
-47.276000
-28.280197
-34.414602
-86.194647
-138.116266
-177.809051
-185.415561
-134.685469
-54.774087
28.093193
80.656468
110.182743
138.047543
159.689083
178.876855
172.025490
132.418689
87.545353
46.598669
16.010231
12.724700
23.876292
48.789608
93.994437
134.979335
182.499994
194.507781
135.460728
57.840788
-30.944757
-99.073297
-109.866120
-72.310418
-18.189835
5.897939
16.667672
11.237757
-12.169137
-26.719504
-34.692027
-30.666389
-12.752259
20.049690
45.594243
34.615685
-15.268574
-88.428559
-165.417003
-233.611784
-251.705904
-200.333666
-111.598747
-13.298135
61.378923
85.814007
59.094812
4.398612
-32.023175
-42.722222
-46.261286
-39.347808
-29.089039
-34.732743
-78.056823
-133.839372
-153.561978
-157.614863
-142.041761
-86.678708
-25.631414
19.293644
22.513742
-16.238683
-75.768644
-133.533743
-143.680264
-126.558686
-105.378494
-82.726197
-71.328346
-65.722540
-62.670512
-32.718997
9.141320
56.263235
117.124536
141.690543
107.887477
29.651367
-48.071701
-98.693181
-100.001878
-58.514328
-20.641969
12.906033
26.699724
29.386778
47.840186
69.577060
87.272985
77.986036
34.075140
-11.553860
-31.850553
-6.389905
62.881901
146.693698
214.109983
250.808451
247.174052
193.278716
115.783724
49.113002
15.606072
17.938023
44.696990
71.472324
70.535355
61.293866
55.259211
46.171504
34.566127
23.307020
11.948162
2.131547
11.329424
29.719188
43.050492
54.378726
67.424545
76.940378
65.088481
22.718788
-18.658331
-31.962591
-8.426044
44.849254
53.096899
0.346361
-70.760678
-137.482834
-158.412841
-122.538097
-58.721936
-16.833045
-21.265191
-51.755177
-93.977841
-107.308078
-69.393117
-20.547641
18.035703
25.388188
-27.132975
-104.709014
-160.725355
-190.292905
-206.585275
-223.568368
-217.028177
-196.729638
-194.122333
-187.937504
-173.970548
-158.348091
-142.612115
-116.894817
-89.645407
-72.703069
-58.744685
-56.816933
-61.551969
-80.944669
-94.730279
-85.132099
-69.219741
-34.529020
-0.216001
32.039916
68.605123
104.422978
145.690504
144.882120
129.549333
126.483306
97.233192
65.827005
33.447467
7.191958
-2.639464
-1.497510
21.458455
42.946991
48.571760
33.775134
7.060355
-11.718773
-18.128273
-8.751416
11.180851
37.170126
47.858292
36.782062
15.073790
-17.096635
-27.939593
-15.724252
-0.172712
12.748679
1.018353
-32.017878
-67.082637
-86.358962
-83.483836
-66.401223
-51.855504
-53.253821
-63.914942
-77.371426
-79.977923
-76.239069
-75.762380
-67.316272
-50.282496
-20.661665
18.098581
43.867833
33.840806
-6.596214
-56.690105
-108.604711
-140.310151
-138.532285
-115.123804
-95.179847
-101.126960
-135.484111
-176.824084
-196.966734
-190.395111
-150.699701
-87.058883
-33.893986
-10.789434
-18.331521
-39.322833
-56.289561
-69.791244
-80.426389
