EVENT_NAME: 202302060117
EVENT_ID: 13194
EVENT_DATE_YYYYMMDD: 2023/02/06
EVENT_TIME_HHMMSS: 01:17:32.00000
EVENT_LATITUDE_DEGREE: 37.288
EVENT_LONGITUDE_DEGREE: 37.043
EVENT_DEPTH_KM: 8.6
HYPOCENTER_REFERENCE: AFAD
MAGNITUDE_W: 7.7
MAGNITUDE_W_REFERENCE: AFAD
MAGNITUDE_L: 
MAGNITUDE_L_REFERENCE: 
FOCAL_MECHANISM: 
NETWORK: TK
STATION_CODE: 3112
STATION_NAME: 
STATION_LATITUDE_DEGREE: 36.58801
STATION_LONGITUDE_DEGREE: 36.14766
STATION_ELEVATION_M: 1.0
LOCATION: Kahramanmaras_Pazarck_Turkiye
SENSOR_DEPTH_M: 
VS30_M/S: 233
SITE_CLASSIFICATION_EC8: C
MORPHOLOGIC_CLASSIFICATION: 
EPICENTRAL_DISTANCE_KM: 111.31
EARTHQUAKE_BACKAZIMUTH_DEGREE: 
DATE_TIME_FIRST_SAMPLE_YYYYMMDD_HHMMSS: 2023/02/06 01:17:31.2356490
DATE_TIME_FIRST_SAMPLE_PRECISION: millisecond
SAMPLING_INTERVAL_S: 0.01
NDATA: 6576
DURATION_S: 
STREAM: HNE
UNITS: cm/s^2
INSTRUMENT: sensor = CMG-5T/GURALP | digitizer = 
INSTRUMENT_ANALOG/DIGITAL: 
INSTRUMENTAL_FREQUENCY_HZ: 
INSTRUMENTAL_DAMPING: 
FULL_SCALE_G: 
N_BIT_DIGITAL_CONVERTER: 
PGA_CM/S^2: 83.637
TIME_PGA_S: 
BASELINE_CORRECTION: BASELINE REMOVED
FILTER_TYPE: BUTTERWORTH
FILTER_ORDER: 
LOW_CUT_FREQUENCY_HZ: 
HIGH_CUT_FREQUENCY_HZ: 
LATE/NORMAL_TRIGGERED: 
DATABASE_VERSION: 
HEADER_FORMAT: DYNA 1.2
DATA_TYPE: Acceleration
PROCESSING: Automatic Paolucci et al., 2011
DATA_TIMESTAMP_YYYYMMDD_HHMMSS: 
DATA_LICENSE: U (unknown license)
DATA_CITATION: Turkish Accelerometric Archive v 1.0 - Disaster And Emergency Management Presidency, Earthquake Department
DATA_CREATOR: AFAD
ORIGINAL_DATA_MEDIATOR_CITATION: : AFAD - Disaster And Emergency Management Presidency
ORIGINAL_DATA_MEDIATOR: AFAD PROCESS SERVICE
ORIGINAL_DATA_CREATOR_CITATION: AFAD PROCESS SERVICE
ORIGINAL_DATA_CREATOR: network: TK
USER1: GuestUser
USER2: 
USER3: 
USER4: 
USER5: 
[...]
-0.189277
-2.943972
-7.969591
-13.799178
-18.409644
-21.021265
-21.509226
-20.394938
-18.587730
-16.230674
-13.425241
-10.649440
-7.878128
-6.007165
-5.489418
-5.351804
-5.744881
-6.206203
-5.609436
-4.393679
-3.381459
-1.823283
0.582561
2.433470
3.961415
5.201417
5.040910
4.617901
4.649556
3.520755
1.529022
-1.117021
-4.137510
-5.817654
-6.554946
-7.074934
-6.217461
-4.330634
-1.760764
0.447531
0.641715
-0.806756
-3.022679
-3.977875
-2.151211
0.784426
4.246264
6.962201
6.365887
4.350208
1.215978
-4.378944
-10.370761
-15.260191
-18.765575
-18.781212
-16.762685
-13.900980
-9.973105
-7.328405
-7.498191
-9.616835
-12.614576
-14.700595
-13.824564
-10.605473
-5.626693
0.752297
6.869982
11.654804
14.345898
14.498478
12.778824
9.786471
6.368787
3.308488
1.583447
2.044324
3.451943
4.724869
5.476683
4.796560
2.403740
-1.867897
-7.059638
-11.698838
-13.923142
-13.606237
-10.735852
-5.540964
0.093024
4.660841
8.021808
10.066975
10.482654
9.482860
7.875451
6.881343
7.328751
9.384692
12.379894
15.819282
18.348446
19.749779
19.684156
18.220119
16.416357
14.844567
12.716943
9.424972
3.876145
-1.770260
-5.517792
-8.414663
-9.826917
-9.687208
-10.508908
-11.450934
-12.210975
-15.099465
-17.463849
-18.541466
-19.785205
-20.229166
-19.767990
-19.139196
-17.059308
-14.643287
-12.145253
-8.904911
-6.160837
-4.969026
-4.124424
-2.861375
-1.113133
1.606696
4.609081
7.432773
10.659347
13.283094
13.734991
13.247031
12.269985
10.672752
9.628958
9.487008
9.211264
9.153124
10.188691
12.778316
16.306602
19.748086
23.389515
27.449689
30.375448
31.058119
29.513567
26.259310
23.242712
20.972912
19.713909
20.809938
23.074504
24.895182
26.972076
28.304566
27.684307
25.604873
21.292828
15.632654
10.540586
6.969652
5.413725
4.882662
4.682944
4.982788
5.734303
5.429524
3.847557
2.650811
1.366665
-0.972876
-3.037942
-4.470850
-5.325475
-4.975944
-3.571019
-1.460302
1.457376
4.129014
5.950291
6.158543
3.779193
-0.213181
-4.752110
-9.361079
-12.150195
-11.756366
-9.380753
-5.692032
-1.759667
-0.597788
-3.229762
-8.096743
-13.555775
-17.203036
-17.090265
-14.810733
-11.399780
-7.457836
-4.930469
-3.495013
-2.213108
-2.459220
-3.720917
-3.931709
-3.367269
-2.849521
-2.928315
-3.929007
-4.363390
-2.638194
0.015784
2.527288
5.734107
9.222584
11.563775
13.186604
14.943826
16.833647
17.959308
18.004732
17.593097
17.605895
17.648326
16.769156
15.007897
13.392107
12.076532
11.289254
11.515166
12.634841
14.148419
15.926594
18.213609
19.740057
19.922569
19.619586
18.044802
14.776179
10.637438
7.067701
5.351938
4.071982
2.418178
0.783830
-0.519772
-0.335465
0.240350
-0.065326
-0.260554
0.479886
1.626799
3.455858
6.387903
9.553715
12.082878
12.697305
11.151555
8.628532
4.892673
-0.051232
-4.599440
-7.941396
-9.973538
-10.635402
-9.186178
-5.548940
-0.930538
3.652843
6.712697
6.894610
5.605974
3.481044
0.380038
-3.125646
-7.030320
-10.714396
-12.894102
-13.642469
-13.277374
-13.143053
-14.371227
-15.863399
-17.106838
-17.932130
-18.153698
-17.411163
-16.267841
-15.170016
-13.446018
-11.910590
-11.078858
-10.207318
-9.438443
-9.184694
-8.007849
-5.546032
-3.562525
-2.788562
-2.413589
-1.791979
-1.481060
-1.676288
-2.458778
-3.821645
-4.661005
-4.307882
-3.421675
-2.186163
-1.472363
-1.550258
-2.191170
-3.235563
-4.006679
-3.554183
-2.059163
-0.184907
1.976694
3.862324
3.989760
2.429045
0.853363
-0.986018
-1.678413
-0.446793
1.422374
3.175406
2.599147
-0.935870
-3.770782
-6.056445
-9.234675
-11.188994
-12.538092
-14.073965
-14.135398
-13.919363
-14.053231
-12.296906
-10.190978
-9.137752
-7.812744
-6.477859
-6.421959
-7.073048
-8.372161
-10.027760
-10.110145
-8.389140
-6.650476
-5.415862
-4.393764
-4.049322
-5.010205
-6.738839
-8.829646
-10.413410
-10.205756
-9.062734
-8.225315
-7.911104
-7.015917
-6.305708
-6.588636
-6.628818
-6.610632
-7.012988
-6.270453
-5.553959
-4.968266
-3.220323
-1.353849
-0.079726
1.177037
2.293420
3.150594
4.012556
4.919118
5.679013
6.072543
6.028471
5.404021
5.163596
5.081510
4.508543
4.773966
6.125912
7.410811
8.785804
9.737562
10.154439
11.020892
12.356076
13.543397
14.295810
14.596851
13.437819
11.148863
9.929669
8.963099
8.450893
8.607364
7.781772
6.675122
6.511921
5.572289
4.522210
5.870863
8.503890
11.327582
14.445802
16.149746
15.656098
15.055295
14.895087
14.286501
14.284333
15.348036
16.034299
16.530496
16.950366
16.849124
16.128593
15.620279
15.347228
14.512657
12.930989
11.559741
9.876904
7.574478
6.138877
4.952009
2.797147
0.976923
-0.024368
-0.522207
-0.439967
-0.639984
-0.541581
0.075839
0.521151
1.606106
3.668333
5.907158
8.112160
8.644873
6.905464
4.431230
1.712753
-0.849481
-2.120158
-2.920606
-3.477410
-3.307470
-3.622126
-5.586921
-8.848361
-11.040638
-11.541170
-11.130279
-9.183588
-6.358999
-3.717591
-1.503011
-1.385452
-3.880638
-7.135792
-10.780060
-13.550619
-14.715038
-14.822266
-13.948032
-12.409311
-11.066943
-10.565359
-10.985375
-13.165379
-17.056884
-21.218372
-24.722559
-26.024665
-23.725976
-21.113004
-19.914608
-17.398016
-14.298952
-12.753347
-12.568441
-13.460780
-13.487792
-11.377673
-7.789224
-3.655119
1.142275
5.848377
8.490084
8.267319
7.174137
5.936385
3.330451
0.594314
-2.104708
-5.434991
-7.440194
-7.566579
-7.381972
-6.442187
-4.844800
-4.285149
-4.440867
-5.431083
-8.517721
-11.724985
-14.647297
-18.368789
-20.681691
-21.089434
-20.580068
-18.342740
-13.835086
-8.137344
-2.873014
0.604688
1.868335
1.410905
0.254567
-1.480053
-2.592091
-1.524796
0.596097
3.052227
5.916327
8.714876
11.739710
15.239860
17.303883
17.033227
15.679041
13.548723
10.964639
8.850484
7.924023
8.167894
9.851784
11.915807
12.791538
12.587331
10.402837
6.556829
2.127151
-1.943644
-5.439450
-7.401551
-6.983477
-5.817707
-5.110791
-3.730409
-3.218349
-5.763821
-9.099791
-11.527032
-13.024293
-13.289860
-12.465612
-10.242651
-6.894554
-5.015509
-4.263695
-4.024014
-5.451534
-7.343595
-7.956670
-8.051028
-7.070236
-4.785017
-4.426208
-5.144643
-5.974425
-7.169374
-7.185012
-5.536442
-3.382623
0.129799
5.647053
10.328311
12.497395
12.766708
11.152415
7.280067
1.909334
-3.658949
-7.287652
-7.098556
-4.005478
-0.255098
3.471038
7.003215
9.271074
10.201880
10.396962
10.789594
11.244485
11.006754
10.872287
11.888399
13.336127
16.020636
20.620779
24.902449
26.267864
24.492836
19.965880
13.939342
9.798805
7.726855
7.032963
7.641404
8.447693
9.913380
12.537128
13.522409
12.346317
12.395033
13.097160
12.578070
12.102382
11.170832
9.407777
7.691416
5.784688
4.346693
4.759678
6.309773
7.890997
10.274991
13.841889
17.193278
18.932242
19.637961
20.303272
19.252294
16.875638
14.621103
12.054080
10.985144
11.468469
11.398955
11.743098
12.461987
12.326024
11.834172
12.253443
13.477581
14.481719
15.305669
16.621996
18.218784
19.123849
19.091749
17.383469
14.696719
11.980637
8.876039
4.815720
1.130745
-1.204905
-2.636016
-3.593008
-4.230329
-4.050810
-2.538729
-0.970676
-2.413461
-6.230734
-8.866001
-11.084318
-13.111371
-12.296701
-9.402071
-6.094980
-3.456267
-2.270143
-1.813756
-1.903923
-4.643053
-10.236778
-15.169908
-17.459763
-16.769309
-13.171282
-8.428364
-6.048261
-4.288045
-3.782271
-7.795597
-13.251935
-18.974965
-24.708172
-26.101569
-25.221348
-22.905000
-15.997715
-8.423848
-3.064036
-0.003883
-1.090180
-4.645850
-7.760025
-12.245975
-15.700774
-16.355455
-16.820667
-15.786597
-13.411582
-12.975848
-12.993281
-12.366283
-13.430431
-13.561605
-10.910021
-9.333586
-9.176218
-9.581267
-11.433818
-12.035520
-10.541398
-8.308559
-4.969741
-1.597100
0.619575
2.034079
2.588043
4.097730
6.444010
7.300585
7.838686
7.034047
3.160801
-0.630432
-2.102849
-1.601265
0.646839
1.287606
-0.067180
-1.192987
-2.352318
-2.775626
0.340201
4.602414
8.244740
12.001107
14.028913
14.419450
15.140733
15.878180
17.484845
18.399189
17.423040
17.182915
16.375881
12.686716
9.689873
8.019307
4.988941
3.784712
5.040577
6.617311
7.729803
7.411256
6.426128
4.945929
1.356436
-3.303417
-7.320934
-10.931079
-12.547767
-12.441582
-10.708006
-4.816007
0.786852
5.845550
11.232301
13.493275
13.773663
12.087832
7.571951
3.090192
-2.074610
-9.128706
-12.132733
-10.497932
-7.497044
-1.688255
2.526966
2.312881
1.254720
-1.650831
-6.067938
-6.156908
-4.516120
-2.583796
3.286053
8.458792
10.767956
14.764675
19.015515
22.680589
27.373222
30.917072
32.981694
33.830188
30.737563
27.163934
26.147079
22.552498
19.053100
21.010267
22.983597
22.151421
18.398501
10.849632
1.576991
-7.159870
-15.141852
-20.741563
-21.894608
-20.464839
-15.342386
-7.137857
-0.352095
3.192953
3.459573
-0.482816
-6.779937
-12.107269
-14.199574
-13.727023
-13.065304
-12.073138
-8.101562
-4.337713
-3.644865
-5.013119
-8.068629
-11.667999
-12.884499
-13.418256
-12.387477
-10.103456
-9.145113
-10.080554
-11.151585
-13.435753
-15.488547
-15.344049
-16.430646
-19.302075
-20.641295
-21.978122
-25.718470
-27.283676
-26.866799
-25.966524
-24.212294
-21.226671
-20.094425
-18.156115
-13.025281
-8.740618
-6.065388
-1.922902
0.381474
-1.654559
-5.183290
-7.535103
-6.860214
-3.839271
-0.788996
2.886256
7.214319
9.116112
9.394106
9.667011
8.914154
9.075413
12.305579
13.868843
12.629595
11.053314
8.490482
6.499347
6.841694
6.434549
5.173151
5.698381
6.117054
4.610515
5.014222
7.940580
10.294941
12.039592
13.555565
15.203237
17.288512
18.732049
18.369802
15.900357
12.085179
8.662406
4.547312
1.719583
3.708478
7.420545
6.584478
4.658594
1.857205
-3.264495
-3.967965
-1.634256
0.871261
3.578818
4.445869
3.533176
5.646886
3.163373
-2.198081
-2.655212
-4.343437
-7.037071
-10.431409
-16.740204
-18.844780
-16.026476
-12.338653
-7.342512
-5.073157
-6.346827
-6.286438
-7.023132
-9.582073
-9.515996
-6.895242
-3.921891
-4.159023
-6.509040
-4.171141
-1.676400
-1.176911
2.177472
5.583636
9.391485
13.895248
12.995127
8.425069
6.782639
6.649370
8.594265
13.162681
16.218943
19.768481
22.789124
21.176326
19.450088
17.764556
13.495912
8.777093
4.415959
-2.176889
-6.760416
-5.832304
-3.328882
-0.281899
5.719052
13.081301
19.803309
23.163378
23.286924
20.118571
15.956484
16.028846
17.380194
18.096987
22.469350
25.481911
27.159515
31.704584
32.896395
28.322147
25.005034
23.766085
18.512385
14.652609
12.969472
8.495196
2.622806
-3.944001
-12.094499
-16.122791
-13.985735
-13.711033
-14.464190
-9.877516
-4.424017
-1.140872
0.763914
-0.014984
-1.434122
-2.215714
-1.885340
2.009910
8.163214
12.461944
15.514016
18.326034
21.464309
24.879154
24.777014
22.731403
21.441869
15.808934
9.152331
3.603205
-1.842657
-1.358134
3.891829
6.256666
7.246737
7.378963
3.493146
0.076958
-1.279323
-4.122018
-6.772550
-8.580802
-13.416953
-17.639802
-14.194128
-4.723783
4.190728
11.252461
15.591899
14.421194
9.732606
5.487907
-0.264755
-8.960012
-14.797381
-18.760422
-19.890719
-13.768245
-5.162930
2.023919
11.181775
16.465561
13.595928
5.507089
-7.432494
-17.069405
-18.889929
-17.510146
-13.838187
-6.845895
-1.196344
4.762404
5.912011
2.236614
-1.756059
-6.274634
-16.295569
-27.204281
-33.677402
-32.868419
-20.347726
-5.669550
-0.325303
-0.558843
-2.568237
-12.245256
-29.728484
-44.907564
-50.037047
-44.752064
-35.719921
-27.978138
-21.554250
-20.267256
-22.359262
-25.004406
-28.093738
-28.425455
-22.220968
-15.044895
-11.102652
-13.827715
-18.498044
-21.838803
-29.328407
-34.726677
-36.878247
-37.332684
-29.453214
-19.040019
-11.819348
-5.622044
-3.084799
-5.440503
-5.936845
-3.348716
-0.432236
-1.193773
-3.149888
-1.664147
1.806670
3.778204
7.084995
11.216706
11.905963
9.709795
6.154125
2.817856
-2.430456
-8.198683
-9.218831
-5.829728
-1.344822
4.514253
8.499897
14.329937
22.692805
26.403077
23.227242
15.757692
8.014266
4.708228
5.803359
5.778443
4.560147
7.948951
11.607440
13.046787
15.774099
16.004202
15.806879
18.815549
21.415950
20.159041
15.487515
10.074279
6.978960
6.263518
4.529198
4.782647
9.773400
14.760861
16.154412
16.222285
16.431735
15.897080
13.989156
11.138080
13.607081
16.843233
19.168560
22.663922
26.024291
27.523501
27.099594
25.603232
24.048801
20.833756
12.149275
3.861689
-2.631486
-7.842682
-11.779084
-15.549963
-16.299827
-13.277687
-14.777642
-17.880144
-17.828435
-19.999759
-20.322197
-16.528416
-13.832832
-8.494870
-1.336457
-2.822343
-7.760263
-12.414129
-19.361070
-18.634698
-9.285578
-5.208343
-1.082917
11.008553
17.764982
19.837087
25.097227
29.433372
28.849330
24.472033
13.266398
3.487311
1.018764
-1.425239
-2.239755
-0.685770
2.723089
6.359129
10.835655
10.055260
0.676063
-3.494106
-3.004495
-4.621184
-2.409597
5.791939
13.852496
21.678089
24.764582
21.366055
18.905888
12.521366
1.437553
-4.227110
-6.964445
-6.627785
0.005026
0.787670
0.901039
7.531455
7.249724
0.771815
4.608099
8.893659
6.876484
9.374518
17.505714
18.311405
8.952262
1.368971
-1.087304
-5.448438
-4.842691
2.791937
12.716346
31.285354
51.065702
49.180226
38.002128
32.218337
19.813335
3.375324
1.419509
6.085203
5.396699
5.712407
4.588695
5.870601
10.719776
21.589432
26.512838
22.580627
16.553789
18.569323
20.103554
12.276319
10.523441
16.272666
20.285847
25.141009
27.138883
25.073817
23.688501
21.489939
11.325930
-0.225118
-5.967006
-8.232316
-18.422365
-28.648333
-24.026340
-19.217272
-15.327710
-2.665440
0.864044
-8.339454
-7.199425
-8.646101
-19.402161
-20.924564
-22.227268
-26.904182
-21.287256
-19.281600
-19.343332
-2.569932
18.796202
25.829800
22.116988
4.934874
-23.099609
-36.551624
-31.072983
-23.968447
-15.657361
-7.046358
1.040838
11.944017
10.033399
12.401529
25.057513
22.153159
6.193758
-12.286499
-29.781101
-35.935149
-31.205401
-27.102125
-5.121791
28.128159
34.535883
17.534257
-8.841705
-33.099395
-29.485803
-23.083167
-16.428805
7.366293
23.374936
22.004287
14.337188
5.706285
4.083011
9.403912
15.175586
11.111375
-7.931000
-18.620911
-12.314057
-15.687442
-21.166229
-13.237970
-0.602040
15.927716
21.955007
10.533563
5.048491
-0.999598
-18.763886
-46.021639
-70.099139
-66.329004
-58.801831
-57.443899
-33.633535
-5.408234
6.733223
26.184022
43.585691
43.427877
45.122542
44.970117
31.864412
7.053882
-24.489503
-39.434217
-31.886691
-19.377372
-13.244721
-1.774634
10.660453
17.560256
15.914533
6.757130
0.417805
-6.788345
-24.822019
-33.881246
-31.745087
-30.079157
-17.917047
-3.460367
10.351583
33.618086
51.448078
56.727673
62.084792
54.079762
28.628094
8.802404
-7.332997
-24.956905
-28.397636
-18.664191
-18.093166
-17.723281
-8.068857
-3.671351
-7.177634
-12.743222
-26.268571
-39.217134
-36.784052
-32.470056
-28.391325
-25.472749
-18.931230
-3.893274
9.819601
16.455405
23.334854
30.286140
32.988308
20.301649
-0.752143
-4.909740
1.653629
2.854719
4.646363
6.450578
4.504041
2.952006
-6.648987
-22.009752
-34.195055
-47.096026
-56.087607
-53.481519
-41.834536
-24.679206
-2.297187
14.970986
13.929586
2.026241
-4.099072
6.242886
13.261518
16.057672
26.382270
30.721109
21.226374
11.851666
1.868745
-10.092967
-13.577100
-18.245633
-34.007784
-39.031009
-33.604449
-26.955774
-11.748105
-2.140075
-3.551731
-5.692525
-19.905706
-45.032016
-58.761798
-53.671671
-31.369571
-3.940155
10.701504
14.400401
11.907011
-1.366612
-13.437276
-16.568812
-18.602749
-21.085065
-19.649310
-15.039588
0.547017
14.958800
16.454718
13.815260
12.566434
-1.959834
-21.241663
-23.203465
-4.582974
12.177256
13.752493
15.000876
20.748903
30.293777
33.908267
21.422449
8.908197
12.201219
18.203367
12.909858
1.570129
-3.269016
8.659027
27.191519
38.903455
53.136245
72.030911
71.537862
55.403959
37.426856
17.775069
6.454496
1.276224
-8.192769
-6.758510
10.639267
31.697702
40.895069
41.474775
38.956840
39.095651
35.431030
15.095302
-14.226845
-31.165914
-48.345934
-70.927743
-82.310275
-70.846474
-56.072816
-46.456404
-35.556817
-32.877396
-34.433922
-36.816565
-41.410568
-53.732958
-63.781131
-59.095383
-52.290763
-54.735664
-43.614881
-21.910219
-15.121463
-22.849325
-26.341838
-28.571230
-34.849794
-42.316949
-41.286471
-37.002706
-36.278130
-32.626525
-23.525838
-17.275556
-1.351320
11.788661
20.383800
36.075167
47.364166
34.792145
22.422163
22.648076
19.093005
19.346155
28.352856
42.880175
55.735805
58.242220
56.088256
59.694963
54.315550
44.437689
47.775309
52.104570
49.527969
48.818813
39.534798
15.090334
-6.266666
-13.663781
-12.521058
-4.902294
3.492601
16.869343
32.559512
31.699799
19.345980
8.581539
-4.686097
-19.692769
-23.657905
-22.642093
-28.409722
-23.233391
-10.061383
-0.614087
12.670764
24.900520
30.263625
27.037205
13.229001
0.572871
-0.742105
-10.607993
-17.258909
-11.845818
-12.396037
-4.379180
7.092403
6.871434
4.402288
2.286637
-6.453517
-8.978336
-9.012231
-17.637747
-11.346457
0.602239
-5.147730
-2.966075
8.148123
4.309898
-6.037892
-7.235237
-10.471235
-15.627357
-18.446704
-16.021704
-8.980324
-7.270693
-12.438189
-16.487134
-22.186818
-28.216349
-30.222151
-29.749600
-22.030565
-7.987841
5.980951
16.018503
21.339703
24.424400
23.454537
14.151067
-0.576342
-16.454329
-23.015449
-24.897333
-23.537305
-18.398988
-16.394230
-19.049551
-10.123367
-14.440800
-36.033962
-48.760432
-46.816435
-50.182636
-44.307997
-29.849820
-32.265089
-45.266332
-45.531600
-48.857992
-51.326838
-37.320332
-27.201366
-21.035491
-15.441912
-15.084898
-19.707636
-18.000100
-23.595321
-27.606553
-19.587900
-17.689699
-13.373608
-3.117854
-1.589909
2.121859
7.637017
9.587599
13.622032
15.951550
17.847656
22.969810
19.110632
8.196532
6.782183
16.035522
19.486883
28.845283
35.282639
30.841887
32.795162
29.446621
20.402060
23.692389
28.315879
21.692800
27.347441
30.905958
17.669152
12.772239
10.159720
5.808164
4.360890
12.439406
19.715152
39.572723
53.975527
51.629401
50.546695
54.530244
54.230255
56.424182
68.195682
76.473843
82.143749
83.636973
79.106425
75.718972
62.111311
41.546605
35.192014
28.815574
13.519760
9.501644
9.550061
2.949730
-3.761947
-4.205908
-5.722025
-7.512019
-8.899430
-5.336123
-2.133196
-1.632210
7.770488
11.566963
10.557890
24.105243
34.678873
32.142381
37.266031
45.273908
37.695706
28.253053
30.942950
31.074278
40.914878
47.293568
42.645987
34.889392
24.423371
7.501064
-5.220616
-11.622798
-15.091067
-18.178005
-18.571980
-23.943012
-31.770546
-39.965343
-47.916495
-54.888279
-56.218221
-60.883761
-66.370330
-63.869901
-62.847504
-61.329138
-56.554492
-58.556702
-60.110833
-54.574124
-54.799283
-62.117079
-62.345531
-64.480638
-64.982367
-64.784890
-69.962264
-73.151568
-70.760091
-69.028910
-62.237759
-57.892335
-60.553045
-54.552692
-50.670612
-49.425822
-44.346471
-33.590556
-27.734176
-17.608625
-9.009595
-4.644117
0.598363
4.119166
6.275679
0.066856
-8.570034
-14.835727
-18.013657
-20.874311
-25.351281
-20.591601
-6.572822
