EVENT_NAME: 202302060117
EVENT_ID: 13194
EVENT_DATE_YYYYMMDD: 2023/02/06
EVENT_TIME_HHMMSS: 01:17:32.00000
EVENT_LATITUDE_DEGREE: 37.288
EVENT_LONGITUDE_DEGREE: 37.043
EVENT_DEPTH_KM: 8.6
HYPOCENTER_REFERENCE: AFAD
MAGNITUDE_W: 7.7
MAGNITUDE_W_REFERENCE: AFAD
MAGNITUDE_L: 
MAGNITUDE_L_REFERENCE: 
FOCAL_MECHANISM: 
NETWORK: TK
STATION_CODE: 7302
STATION_NAME: 
STATION_LATITUDE_DEGREE: 37.33154
STATION_LONGITUDE_DEGREE: 42.21043
STATION_ELEVATION_M: 407.0
LOCATION: Kahramanmaras_Pazarck_Turkiye
SENSOR_DEPTH_M: 
VS30_M/S: None
SITE_CLASSIFICATION_EC8: unknown
MORPHOLOGIC_CLASSIFICATION: 
EPICENTRAL_DISTANCE_KM: 456.98
EARTHQUAKE_BACKAZIMUTH_DEGREE: 
DATE_TIME_FIRST_SAMPLE_YYYYMMDD_HHMMSS: 2023/02/06 01:18:10.0043420
DATE_TIME_FIRST_SAMPLE_PRECISION: millisecond
SAMPLING_INTERVAL_S: 0.01
NDATA: 24501
DURATION_S: 
STREAM: HNN
UNITS: cm/s^2
INSTRUMENT: sensor = GMS+/GEOSIG | digitizer = 
INSTRUMENT_ANALOG/DIGITAL: 
INSTRUMENTAL_FREQUENCY_HZ: 
INSTRUMENTAL_DAMPING: 
FULL_SCALE_G: 
N_BIT_DIGITAL_CONVERTER: 
PGA_CM/S^2: 20.782
TIME_PGA_S: 
BASELINE_CORRECTION: BASELINE REMOVED
FILTER_TYPE: BUTTERWORTH
FILTER_ORDER: 
LOW_CUT_FREQUENCY_HZ: 
HIGH_CUT_FREQUENCY_HZ: 
LATE/NORMAL_TRIGGERED: 
DATABASE_VERSION: 
HEADER_FORMAT: DYNA 1.2
DATA_TYPE: Acceleration
PROCESSING: Automatic Paolucci et al., 2011
DATA_TIMESTAMP_YYYYMMDD_HHMMSS: 
DATA_LICENSE: U (unknown license)
DATA_CITATION: Turkish Accelerometric Archive v 1.0 - Disaster And Emergency Management Presidency, Earthquake Department
DATA_CREATOR: AFAD
ORIGINAL_DATA_MEDIATOR_CITATION: : AFAD - Disaster And Emergency Management Presidency
ORIGINAL_DATA_MEDIATOR: AFAD PROCESS SERVICE
ORIGINAL_DATA_CREATOR_CITATION: AFAD PROCESS SERVICE
ORIGINAL_DATA_CREATOR: network: TK
USER1: GuestUser
USER2: 
USER3: 
USER4: 
USER5: 
[...]
2.922633
4.197053
5.135594
5.325224
5.069092
4.436816
3.812853
3.484246
3.346568
3.434109
3.758298
3.945330
3.710240
3.049130
2.011616
1.108142
0.343904
-0.212260
0.030103
0.769661
1.895754
3.035875
3.686333
4.001431
3.768938
3.450461
3.275897
3.234593
3.367333
3.125229
2.688818
1.817296
0.603919
-0.448921
-1.464095
-1.904143
-1.812705
-1.574239
-1.108995
-0.700381
-0.455940
-0.301899
-0.261895
-0.331254
-0.533874
-0.723505
-0.755977
-0.544267
-0.096688
0.555069
1.382169
2.201477
2.905966
3.422644
3.814633
4.005821
4.014393
3.946073
3.630454
3.114814
2.291609
1.291761
0.380495
-0.383224
-0.666631
-0.463234
0.252686
1.216164
1.946371
2.318877
2.138078
1.581135
0.895866
0.395033
0.358145
0.769097
1.602172
2.550584
3.223122
3.473018
3.494578
3.385475
3.209871
2.956856
2.488754
2.049226
1.656975
1.343694
1.013009
0.496590
-0.111008
-0.655743
-1.010067
-1.389069
-1.630654
-1.876395
-2.261372
-2.760907
-3.537354
-4.390692
-5.329234
-6.148543
-6.989413
-7.892886
-8.648292
-9.160815
-9.127566
-9.000540
-8.764671
-8.439183
-8.074989
-7.402451
-6.994876
-6.666270
-6.324157
-6.085431
-5.562778
-5.124291
-4.659827
-4.091455
-3.647253
-2.870028
-2.021367
-1.165433
-0.586151
-0.488998
-0.364311
-0.730844
-1.423646
-2.396218
-3.441005
-3.950411
-4.182644
-3.984182
-3.677917
-3.479974
-3.437373
-3.643370
-3.799491
-3.838977
-3.697664
-3.337886
-2.770294
-2.276736
-1.818246
-1.278189
-0.842040
-0.507200
-0.334195
-0.335495
-0.607732
-0.984656
-1.129088
-0.878153
-0.286922
0.391591
1.006201
1.299738
1.279735
1.089844
0.925930
0.939956
0.963075
1.009573
1.065941
0.963072
0.540429
-0.279919
-1.321069
-2.662252
-4.302947
-5.785183
-6.889198
-7.458350
-7.672660
-7.702014
-7.487706
-7.215990
-6.831015
-6.607355
-6.576703
-6.423181
-6.220303
-5.853252
-5.467757
-5.087718
-4.716510
-4.774439
-5.177080
-5.637390
-6.047045
-6.404746
-6.479560
-5.972753
-4.954724
-3.761091
-2.674742
-1.662947
-0.909361
-0.493993
-0.322287
-0.202795
0.162179
0.647944
1.329055
2.260582
3.256791
4.177407
4.832541
5.478843
6.310879
7.304231
8.610083
10.135959
11.424407
12.087075
12.091490
11.603645
10.669778
9.373016
7.837527
6.143060
4.511717
2.821666
1.321246
0.379846
-0.069553
-0.136834
0.116179
0.617271
0.974191
1.327215
1.942085
2.863481
3.830336
4.670944
5.546102
6.230589
6.832990
7.617748
8.620712
9.758235
11.071101
12.456962
13.722031
14.795131
15.506635
15.754712
15.414935
14.842666
14.250134
13.678904
13.135209
12.457214
11.742332
10.788463
9.765756
8.691874
7.587600
6.691660
5.654146
4.662092
3.625357
2.381328
1.234971
0.263438
-0.250903
-0.343901
-0.242073
-0.144141
-0.268571
-0.656405
-1.282446
-1.761979
-1.951870
-2.098640
-2.410622
-2.906519
-3.273572
-3.341892
-3.191747
-3.040563
-3.121092
-3.507367
-3.993913
-4.705159
-5.731243
-6.856299
-8.037724
-8.991852
-9.699721
-9.906497
-9.630104
-9.222529
-8.624285
-8.059810
-7.384933
-6.906961
-7.011649
-7.292978
-7.519756
-7.496118
-7.089063
-6.186370
-4.953252
-3.786635
-2.912517
-2.357654
-1.769020
-0.762940
0.608634
2.054761
3.424776
4.453716
4.929351
4.812454
4.203557
3.507898
3.267352
3.560370
3.995220
4.467997
4.782316
4.895054
4.950124
5.152483
5.678252
6.301694
6.969037
7.503119
7.848870
7.910953
7.516365
7.079175
6.725890
6.491319
6.299349
5.858262
5.327816
4.655016
3.962993
3.557495
3.208366
2.991199
2.968599
2.877419
2.864170
2.812476
2.836374
3.104713
3.137962
2.929108
2.448277
1.813663
0.941102
-0.235907
-1.398370
-2.705523
-3.998648
-5.239300
-6.211093
-6.834797
-7.190679
-7.167821
-7.229906
-7.540849
-8.071556
-8.787217
-9.760568
-10.813928
-11.825725
-12.880903
-13.668260
-14.286509
-14.967102
-15.841481
-16.773010
-17.502179
-17.819876
-17.816500
-17.722465
-17.375415
-16.937188
-16.377389
-15.620686
-14.778779
-13.508514
-11.746509
-9.748115
-7.736993
-5.833674
-3.790860
-1.809091
0.015258
2.078334
4.338055
6.738569
9.069726
11.196445
13.058201
14.476013
15.622368
16.684039
17.505944
17.881048
17.869877
17.434765
16.741184
15.993831
15.461566
15.308042
14.874748
14.136747
13.618769
13.105986
12.482802
12.068472
11.832342
11.448664
10.511420
9.148417
7.740734
6.193815
4.530261
2.847223
1.213542
-0.343248
-1.599486
-2.408664
-2.951320
-3.352403
-3.830896
-4.619292
-5.649533
-6.734065
-7.739107
-8.475031
-9.150688
-9.721659
-10.066112
-10.459141
-10.598897
-10.464079
-10.373161
-10.370564
-10.632930
-11.106748
-11.742660
-12.385327
-12.596519
-12.446634
-12.159591
-11.683957
-11.122599
-10.498897
-9.666601
-8.696109
-7.455718
-5.957637
-4.637497
-3.723895
-3.391912
-3.493482
-3.824167
-4.500864
-5.400181
-6.267547
-6.980351
-7.444297
-7.498589
-7.242978
-6.760590
-6.075323
-5.352909
-4.476973
-3.480504
-2.607684
-1.916183
-1.281311
-0.453691
0.533686
1.604189
2.552860
2.992387
3.063563
3.156559
3.631933
4.628402
5.930878
7.180361
8.186441
8.663894
8.593496
8.200206
7.465062
6.870193
6.504958
6.267790
6.039193
5.387694
4.509678
3.219410
1.451169
-0.188487
-1.575649
-2.744086
-3.677692
-4.118519
-4.033056
-3.634054
-3.064903
-2.613687
-2.437045
-2.716037
-3.322596
-3.979290
-4.277764
-4.215421
-3.983708
-3.683677
-3.555613
-3.547560
-3.735633
-4.186591
-4.871340
-5.480757
-5.848848
-5.677662
-5.130852
-4.613654
-4.140358
-4.037231
-4.057234
-4.191535
-4.410260
-4.457279
-4.356490
-3.928913
-2.991411
-1.743487
-0.483873
0.893676
2.351493
3.975561
5.815237
7.798824
9.789424
11.463888
12.726099
13.733219
14.544473
15.223246
16.115808
16.955637
17.636747
18.227718
18.730888
19.128852
18.911945
18.255510
17.317747
16.274519
15.403516
14.468610
13.517599
12.561653
11.511930
10.566374
9.842400
9.460020
9.516129
9.770701
9.841098
9.564444
9.148035
8.556803
7.876470
7.150158
6.145115
5.067597
3.776290
2.152739
0.491523
-1.040330
-2.289035
-3.025997
-3.095616
-2.534778
-1.603511
-0.877720
-0.380784
0.179794
0.675950
1.085603
1.301210
1.465642
1.906467
2.412494
3.248946
3.995519
4.072149
3.772117
2.830977
1.963091
1.454205
1.093127
1.196254
1.362764
1.387441
1.148974
0.388372
-0.927872
-2.478688
-3.817273
-4.632945
-5.307303
-6.011275
-6.761745
-7.799519
-8.839630
-9.726479
-10.003652
-9.818958
-9.220713
-8.101893
-7.105165
-6.117528
-5.437456
-5.107812
-4.828822
-4.963382
-5.280819
-5.846854
-6.715259
-7.534828
-8.255685
-8.790288
-9.101491
-9.205918
-9.493482
-10.099521
-10.975200
-11.755803
-11.898677
-11.643845
-10.850774
-9.661298
-8.421686
-7.282604
-6.517069
-5.981688
-5.816996
-6.007147
-6.183011
-6.322507
-6.531881
-6.755282
-6.990373
-7.199227
-7.197669
-6.948293
-6.476035
-5.577759
-4.417116
-3.150489
-1.564606
-0.292004
0.445216
0.578736
-0.042629
-0.808686
-1.717874
-2.254036
-2.139739
-1.487463
-0.213821
1.168403
2.527248
3.436435
3.871546
4.117805
4.246909
4.241193
4.012337
3.694380
3.104446
2.330857
1.490247
0.917458
0.731983
1.016688
1.728451
2.125375
2.121218
1.587395
0.704183
-0.300860
-1.320450
-1.910903
-2.417452
-3.029466
-3.949824
-5.122677
-6.020436
-6.736877
-7.258491
-7.260830
-6.794807
-6.072913
-5.049428
-3.755005
-2.237442
-0.801446
0.344650
1.514644
2.542804
3.212485
3.394582
3.164686
3.080001
3.050647
3.088572
3.136888
3.154551
3.433022
3.771239
4.205050
4.485599
4.431826
3.906835
2.913221
1.894411
0.973793
0.371650
-0.075671
-0.411812
-1.042529
-2.208109
-3.519158
-5.311298
-7.105776
-8.677632
-9.996994
-10.765388
-11.310902
-11.736403
-12.358028
-13.275269
-14.404741
-15.567203
-16.574844
-16.931506
-16.316896
-15.149759
-13.629858
-12.024753
-10.243785
-8.354753
-6.588592
-4.848667
-3.457870
-2.238261
-0.880455
0.464623
1.785282
2.799675
3.522349
4.086304
4.327368
4.348148
4.058247
3.431426
2.838115
2.347413
1.964254
1.929185
2.117776
2.287143
2.152583
1.900607
1.696948
1.403670
1.287553
1.205725
1.369378
1.702400
1.798253
1.467827
0.671378
-0.415232
-1.687576
-2.610272
-3.158643
-3.149552
-2.984860
-3.031100
-3.247747
-3.926002
-4.571785
-5.246404
-5.806984
-6.095067
-6.131955
-5.791140
-5.048205
-4.005237
-3.207750
-2.518067
-1.976452
-1.657977
-1.124415
-0.515260
0.000638
0.623561
1.183360
1.556126
1.789657
1.924476
2.193335
2.412058
2.678320
3.230586
4.028072
5.087665
5.999190
6.792260
7.363749
7.617542
7.741970
7.537791
7.495448
7.805870
8.427234
9.144972
9.564497
9.971812
10.410559
10.938147
11.347540
11.522104
11.801873
11.979034
11.959550
11.962407
12.154375
12.462459
12.775998
13.328264
13.991710
14.589955
14.949473
14.949472
14.666324
13.814025
12.674422
11.398182
10.026087
8.931684
8.029509
7.728957
7.941966
8.329538
8.864660
9.055848
9.069875
8.888816
8.570599
8.175751
7.657513
7.446841
7.327606
7.497494
7.775445
7.795706
7.666341
7.193043
6.551415
5.800945
5.133081
4.609648
3.846708
2.724770
1.347739
-0.099429
-1.441390
-2.457863
-3.101309
-3.394848
-3.480572
-3.698258
-4.108952
-4.988007
-6.329450
-7.681543
-8.693340
-9.301717
-10.001792
-10.299227
-9.902043
-9.481479
-8.514884
-7.292676
-6.412843
-5.352731
-4.437829
-3.627354
-2.779213
-2.270328
-1.999651
-1.865871
-1.850026
-2.033423
-2.345405
-2.453210
-2.330080
-2.035764
-1.576495
-1.101900
-0.643670
-0.473003
-0.479498
-0.168297
0.485798
1.553183
2.614854
3.265572
3.808486
4.133455
4.537913
5.281887
6.052098
6.913488
7.511733
7.855405
8.294672
8.836287
9.393748
9.705209
9.711702
9.143589
8.131792
6.873995
5.456441
4.333983
3.311795
2.554052
2.135565
1.769551
1.589011
1.340932
1.089736
0.822953
0.598773
0.589420
0.633580
0.944781
1.127397
0.966340
0.658515
0.166513
-0.283925
-0.653056
-0.844506
-0.527070
0.158716
0.847360
1.478336
1.612895
1.210254
0.453809
-0.455639
-1.212084
-2.211672
-3.265811
-4.308001
-5.251219
-6.092608
-7.087780
-7.849680
-8.505335
-8.955773
-9.215282
-9.364390
-9.206192
-9.089037
-8.925904
-8.594181
-8.355715
-7.961388
-7.334569
-6.618909
-5.827917
-5.340333
-4.987049
-4.515571
-4.106957
-3.655222
-3.125036
-2.611476
-2.056872
-1.505126
-0.968186
-0.314871
0.135566
0.393255
0.648346
0.821611
0.899540
0.972275
1.268929
1.699883
2.247213
2.744149
3.027814
3.120291
3.175621
3.299269
3.484743
3.793087
3.887901
3.538512
2.711151
1.500372
-0.006023
-1.620482
-3.182987
-4.462085
-5.432059
-6.269811
-6.834288
-7.653856
-8.642793
-9.739794
-11.071625
-12.026793
-12.621662
-12.540615
-11.953281
-11.351399
-10.669769
-10.081655
-9.613554
-9.065185
-8.504347
-7.721927
-6.578689
-5.614950
-4.658746
-3.941527
-3.489791
-2.912068
-2.368894
-1.790652
-1.077849
-0.186327
0.588560
1.099523
1.313571
1.301880
0.962623
0.674539
0.869105
1.305254
2.072868
2.887239
3.547309
4.141397
4.529230
4.598068
4.697818
4.699116
4.468701
4.573906
4.884848
5.538683
6.343443
6.849990
7.345626
7.707222
7.765929
7.573180
7.082218
6.509689
5.621022
4.027605
2.122985
0.061466
-1.791719
-3.222261
-4.159765
-4.555132
-4.823733
-4.968684
-5.163771
-5.192346
-4.935956
-4.606831
-3.914550
-2.918081
-1.793806
-0.503020
0.716849
1.697992
2.556264
3.012676
3.275560
3.567019
3.795873
4.146040
4.512052
4.603490
4.319043
4.346577
4.540623
4.804287
5.384348
5.763608
6.146505
6.373022
6.230669
6.197677
6.092730
5.488769
4.721154
3.608308
2.175427
0.850090
-0.428488
-1.288061
-2.021387
-2.726917
-3.300486
-3.950426
-4.601145
-5.005085
-4.956509
-4.883256
-4.703497
-4.597253
-4.674924
-4.642714
-4.703760
-4.756494
-4.626351
-4.165004
-3.501297
-2.421963
-0.999214
0.279363
1.399481
1.992011
2.085007
1.993568
1.418701
0.672906
0.033876
-0.884924
-1.633576
-2.450806
-3.390388
-4.080852
-4.805345
-4.969519
-4.609482
-4.070724
-3.483909
-3.155563
-3.234793
-3.799789
-4.481161
-5.275013
-5.792211
-5.479452
-4.704565
-3.505477
-2.212613
-1.063400
0.088150
0.879922
1.771705
2.962740
4.162347
5.375722
6.350890
6.936666
7.000568
6.675598
6.310883
6.293478
6.729108
7.545298
8.648791
9.564212
10.173108
10.396507
10.127387
9.696951
9.067272
8.506433
8.152108
7.889742
7.791549
7.673354
7.838565
8.002998
8.191329
8.439666
8.321990
8.303806
8.084041
7.594898
7.069906
6.183057
5.218538
4.371174
3.854236
3.860989
3.988274
4.181800
4.101012
3.579137
2.698523
1.125108
-0.501040
-2.026658
-3.181587
-3.665535
-4.088698
-4.293655
-4.580960
-4.978405
-5.187519
-5.274283
-4.886969
-4.173128
-3.160034
-1.967700
-0.934084
-0.011909
0.566074
0.833115
0.742974
0.312278
-0.038929
-0.388837
-0.451701
-0.336625
-0.185701
0.392282
0.902466
1.531103
1.986995
2.055054
2.127268
1.812429
1.559154
1.282760
1.090791
1.107675
1.077541
1.319904
1.745403
2.539253
3.592351
4.469067
5.344484
6.492138
7.572253
8.539108
9.163329
9.311137
9.101763
8.382984
7.473536
6.077283
4.613749
3.365564
2.249340
1.525366
1.084279
1.146623
1.386128
1.776299
2.225437
2.526507
2.591188
2.303624
1.619914
0.541877
-0.775407
-2.268814
-3.505570
-4.670370
-5.650735
-6.405361
-7.026207
-7.440798
-7.701865
-7.727843
-7.754600
-7.498989
-7.063619
-6.618897
-6.483299
-6.736833
-7.132980
-7.770711
-8.675484
-10.063944
-11.535010
-12.921393
-14.182826
-15.248915
-15.875995
-16.186159
-16.491387
-16.480218
-16.895588
-17.524746
-18.217548
-19.184665
-19.809667
-20.507665
-20.782500
-20.595987
-20.252055
-19.278446
-18.243791
-17.203162
-16.000437
-14.666789
-13.214687
-11.612699
-9.824977
-7.826583
-5.590502
-3.573665
-1.598910
0.045680
1.137744
1.998614
2.370081
2.662839
3.018980
3.356678
4.006097
4.760202
5.307532
5.819794
6.557014
7.246697
8.041327
9.191838
10.317931
11.595469
12.990422
14.018842
14.644363
14.610852
13.878825
12.930412
11.886923
10.870191
10.013216
9.258329
8.714374
7.827266
6.605317
5.448310
4.237271
3.764493
3.875672
4.634973
6.005508
7.250575
8.478497
9.211302
9.410543
9.300400
9.230262
9.337286
9.479378
9.736548
10.079960
10.414021
10.537150
10.572997
10.372975
9.983063
9.540677
8.973863
8.286776
7.118599
5.602332
3.806296
1.776469
-0.066585
-1.798459
-3.124835
-4.041816
-4.611228
-5.021662
-5.451579
-5.739922
-6.054762
-5.939686
-5.695504
-5.349494
-4.602922
-3.853233
-2.961190
-2.387104
-2.105517
-1.983167
-2.355934
-2.724026
-3.089001
-3.267203
-3.296297
-3.248241
-3.039908
-3.221487
-3.492425
-3.973516
-4.631250
-5.159099
-5.627721
-5.713965
-5.597589
-5.314443
-4.730226
-4.184714
-3.644657
-3.002512
-2.659099
-2.529736
-2.482719
-2.537011
-2.514412
-2.483760
-2.392842
-2.503244
-2.572084
-2.350243
-2.146066
-1.616400
-1.076343
-0.583304
-0.012075
0.437322
0.971664
1.436128
1.770189
1.892799
1.991770
2.183218
2.581961
3.159164
3.719223
4.677246
5.676053
6.658495
7.553135
7.984089
8.371402
8.643898
8.861583
9.015624
8.981594
8.916911
8.740787
8.524660
8.282295
7.873680
7.523771
7.315437
7.034107
6.960852
6.805250
6.530155
6.287791
5.797868
5.554984
5.449777
5.619145
5.960479
6.209596
6.801347
7.319063
7.907956
8.579975
9.052492
9.401100
9.304465
8.896369
8.515808
7.871843
7.002139
6.107757
4.922955
3.791925
2.562442
1.266979
0.294667
-0.660501
-1.358238
-2.018569
-2.696824
-3.181811
-3.780837
-4.362458
-5.066949
-5.784169
-6.452293
-7.134964
-7.497082
-7.838417
-8.135852
-8.578498
-9.414172
-10.355572
-11.494135
-12.684652
-13.743987
-14.491860
-14.902553
-15.059454
-15.065689
-14.983863
-14.565118
-13.934143
-13.120031
-12.129796
-11.119819
-10.047758
-9.124803
-8.603190
-8.379531
-8.372518
-8.669953
-8.897770
-8.936216
-8.954661
-8.760355
-8.556958
-8.297450
-7.895850
-7.577375
-7.063815
-6.478299
-6.103454
-5.911487
-5.884212
-5.938764
-6.033840
-6.161906
-6.408427
-6.544026
-6.652610
-6.510778
-6.135154
-5.726540
-4.924637
-4.290804
-3.371746
-2.253186
-1.348675
-0.098413
0.985338
1.962844
2.847353
3.546128
4.258671
4.851720
5.356189
5.594135
5.672324
5.491006
4.861068
4.273212
3.605867
2.852540
2.329886
1.844119
1.654747
1.709038
1.592661
1.448749
1.038575
0.317718
-0.327027
-1.056456
-1.700941
-2.391405
-3.125770
-3.769216
-4.686717
-5.670199
-6.867989
-7.982654
-8.697796
-9.061472
-8.870284
-8.250998
-7.426755
-6.630048
-5.896464
-5.389917
-5.008319
-4.841029
-4.838432
-4.974811
-5.358749
-5.463696
-5.516949
-5.620857
-5.693853
-5.719830
-5.481364
-5.243158
-4.942347
-4.425410
-3.864572
-3.392314
-2.917719
-2.540797
-2.237908
-1.731621
-1.182473
-0.302899
0.795399
1.638085
2.392190
2.694040
2.495057
1.950063
1.250507
0.923459
0.734866
0.734866
0.952810
1.052300
1.260893
1.327133
1.279855
1.562222
1.829522
2.186702
2.710134
3.196678
3.609968
3.741670
3.834146
4.053390
4.176259
4.218081
4.127421
3.966104
4.030266
4.107157
4.065074
3.639833
2.649077
1.243212
-0.582957
-2.441078
-3.946434
-5.170721
-6.139916
-6.666985
-6.965200
-7.256660
-7.653327
-8.031809
-8.406915
-8.671100
-8.515240
-8.316258
-8.064804
-7.967132
-8.226381
-8.735527
-9.361309
-9.752000
-9.926046
-9.796682
-9.370923
-8.774757
-7.898041
-7.010155
-6.342032
-5.657285
-5.202172
-4.916948
-4.649128
-4.267010
-3.760983
-3.445106
-2.984538
-2.686585
-2.484487
-2.323951
-2.391751
-2.361359
-2.517740
-2.543718
-2.395911
-2.395652
-2.485792
-3.004289
-3.766969
-4.754348
-5.924863
-6.780279
-7.579586
-7.915207
-7.839875
-8.096007
-8.340709
-8.650613
-8.934280
-9.078193
-9.023902
-8.472415
-7.735974
-6.723659
-5.621725
-4.721889
-3.995319
-3.608785
-3.265373
-2.760904
-2.201105
-1.406476
-0.267654
1.014040
2.464583
3.834598
5.022257
6.060288
6.747893
7.300419
7.572915
7.577070
7.501477
7.235214
6.806336
6.372523
5.908057
5.440994
5.129531
4.740658
4.415428
4.200859
4.016163
3.970962
3.808347
3.741326
3.671188
3.349594
3.037872
2.540156
2.101667
1.753057
1.429646
1.264692
0.944398
0.633714
0.267181
-0.022981
-0.206378
-0.484590
-0.644088
-0.823589
-1.128037
-1.505221
-1.892536
-2.017485
-1.971247
-2.029176
-1.975925
-2.129448
-2.461692
-2.968500
-3.772483
-4.578803
-5.836600
-7.197785
-8.383626
-9.416984
-10.198107
-10.856100
-11.190941
-11.396159
-11.367066
-10.895068
-10.056798
-9.023182
-8.027492
-6.984785
-6.146255
-5.479951
-4.588948
-3.559748
-2.288444
-0.732435
0.897608
2.554147
3.784407
4.481623
4.932839
4.944788
4.964010
5.233648
5.826438
6.488326
6.963960
7.520642
7.480117
7.190995
6.635350
5.718109
4.953351
3.925189
2.994180
2.044987
0.957858
0.001132
-1.049371
-1.925828
-2.485109
-2.592654
-2.217810
-1.584237
-0.735056
-0.143046
0.433638
0.907454
1.224890
2.004712
2.584773
3.579943
4.649667
5.604053
6.806518
7.270723
7.866110
7.977550
7.658294
7.592053
7.324231
7.241624
6.906003
6.523884
6.136049
5.484810
5.137500
4.947349
4.930463
5.208414
5.339336
5.565334
5.628457
5.255169
4.734853
4.022829
3.352367
2.794644
2.505522
2.425512
2.149378
1.684393
1.038090
0.098248
-0.896404
-1.826374
-2.490861
-2.797907
-2.976628
-2.861552
-2.799468
-2.765439
-2.819732
-3.190421
-3.422395
-3.758276
-4.030773
-4.253655
-4.606161
-4.863851
-5.410923
-5.959554
