EVENT_NAME: 202302060117
EVENT_ID: 13194
EVENT_DATE_YYYYMMDD: 2023/02/06
EVENT_TIME_HHMMSS: 01:17:32.00000
EVENT_LATITUDE_DEGREE: 37.288
EVENT_LONGITUDE_DEGREE: 37.043
EVENT_DEPTH_KM: 8.6
HYPOCENTER_REFERENCE: AFAD
MAGNITUDE_W: 7.7
MAGNITUDE_W_REFERENCE: AFAD
MAGNITUDE_L: 
MAGNITUDE_L_REFERENCE: 
FOCAL_MECHANISM: 
NETWORK: TK
STATION_CODE: 2903
STATION_NAME: 
STATION_LATITUDE_DEGREE: 40.208409
STATION_LONGITUDE_DEGREE: 39.65864
STATION_ELEVATION_M: 1594.0
LOCATION: Kahramanmaras_Pazarck_Turkiye
SENSOR_DEPTH_M: 
VS30_M/S: 367
SITE_CLASSIFICATION_EC8: B
MORPHOLOGIC_CLASSIFICATION: 
EPICENTRAL_DISTANCE_KM: 396.07
EARTHQUAKE_BACKAZIMUTH_DEGREE: 
DATE_TIME_FIRST_SAMPLE_YYYYMMDD_HHMMSS: 2023/02/06 01:18:02.4729380
DATE_TIME_FIRST_SAMPLE_PRECISION: millisecond
SAMPLING_INTERVAL_S: 0.01
NDATA: 21001
DURATION_S: 
STREAM: HNN
UNITS: cm/s^2
INSTRUMENT: sensor = ACEBOX/SARA | digitizer = 
INSTRUMENT_ANALOG/DIGITAL: 
INSTRUMENTAL_FREQUENCY_HZ: 
INSTRUMENTAL_DAMPING: 
FULL_SCALE_G: 
N_BIT_DIGITAL_CONVERTER: 
PGA_CM/S^2: 10.996
TIME_PGA_S: 
BASELINE_CORRECTION: BASELINE REMOVED
FILTER_TYPE: BUTTERWORTH
FILTER_ORDER: 
LOW_CUT_FREQUENCY_HZ: 
HIGH_CUT_FREQUENCY_HZ: 
LATE/NORMAL_TRIGGERED: 
DATABASE_VERSION: 
HEADER_FORMAT: DYNA 1.2
DATA_TYPE: Acceleration
PROCESSING: Automatic Paolucci et al., 2011
DATA_TIMESTAMP_YYYYMMDD_HHMMSS: 
DATA_LICENSE: U (unknown license)
DATA_CITATION: Turkish Accelerometric Archive v 1.0 - Disaster And Emergency Management Presidency, Earthquake Department
DATA_CREATOR: AFAD
ORIGINAL_DATA_MEDIATOR_CITATION: : AFAD - Disaster And Emergency Management Presidency
ORIGINAL_DATA_MEDIATOR: AFAD PROCESS SERVICE
ORIGINAL_DATA_CREATOR_CITATION: AFAD PROCESS SERVICE
ORIGINAL_DATA_CREATOR: network: TK
USER1: GuestUser
USER2: 
USER3: 
USER4: 
USER5: 
[...]
-0.289251
-0.148505
-0.040725
0.005334
0.048118
0.104931
0.150755
0.207568
0.231883
0.214582
0.196346
0.147716
0.102827
0.088098
0.027311
-0.085613
-0.170482
-0.226827
-0.322450
-0.439582
-0.551337
-0.671275
-0.777186
-0.887538
-1.004203
-1.104969
-1.205970
-1.300658
-1.407737
-1.495878
-1.545911
-1.618388
-1.672161
-1.719155
-1.771058
-1.747912
-1.728039
-1.704893
-1.631247
-1.602490
-1.572797
-1.530013
-1.516686
-1.482084
-1.468290
-1.462445
-1.413348
-1.374070
-1.337831
-1.301592
-1.285460
-1.258808
-1.216724
-1.196851
-1.227011
-1.260678
-1.254599
-1.248520
-1.247351
-1.243143
-1.260912
-1.251092
-1.163184
-1.071068
-1.033427
-0.980121
-0.871639
-0.766196
-0.673379
-0.555545
-0.432568
-0.303745
-0.130268
0.059576
0.238197
0.411674
0.556629
0.696907
0.858695
0.979568
1.031237
1.055786
1.056487
1.026094
0.996869
0.965540
0.895401
0.792296
0.688023
0.596608
0.525066
0.478307
0.442536
0.416818
0.417286
0.428274
0.447212
0.481814
0.503791
0.548212
0.634483
0.693868
0.760266
0.862670
0.924626
0.981439
1.062333
1.109560
1.168243
1.222250
1.197000
1.175257
1.189051
1.165671
1.100442
0.993830
0.854721
0.751382
0.694336
0.624430
0.548446
0.523898
0.529041
0.523664
0.530912
0.529976
0.516182
0.559435
0.605025
0.569722
0.531613
0.518287
0.467786
0.395309
0.326807
0.254096
0.176709
0.095114
0.022169
-0.044931
-0.088183
-0.093093
-0.098003
-0.075792
-0.001211
0.067058
0.126910
0.214584
0.319793
0.430847
0.545407
0.643602
0.738290
0.855890
0.952449
1.040356
1.134577
1.169880
1.191389
1.232070
1.221783
1.172919
1.123121
1.088752
1.048539
0.971386
0.903118
0.858696
0.807962
0.748344
0.691765
0.651552
0.625600
0.604792
0.567619
0.525535
0.501454
0.473165
0.447681
0.397180
0.309273
0.245680
0.151460
0.048823
0.002765
-0.096599
-0.211861
-0.268674
-0.335540
-0.396094
-0.483066
-0.616798
-0.718266
-0.823241
-0.963987
-1.116890
-1.295512
-1.472964
-1.625633
-1.804488
-2.040390
-2.281201
-2.512894
-2.769136
-3.010648
-3.233223
-3.491335
-3.768619
-4.037018
-4.314302
-4.606548
-4.890378
-5.158310
-5.414551
-5.650687
-5.879574
-6.106358
-6.309527
-6.484408
-6.635441
-6.742987
-6.794890
-6.827154
-6.818504
-6.721244
-6.590785
-6.426426
-6.202448
-5.971223
-5.694407
-5.370597
-5.063388
-4.712926
-4.325991
-3.976932
-3.625534
-3.260343
-2.922272
-2.607815
-2.303411
-1.978433
-1.674029
-1.456363
-1.253194
-1.053063
-0.917928
-0.797990
-0.700263
-0.672909
-0.684832
-0.709849
-0.746555
-0.824877
-0.926345
-0.999991
-1.083457
-1.201057
-1.331983
-1.446076
-1.517618
-1.569989
-1.613007
-1.635919
-1.632646
-1.620021
-1.623762
-1.613007
-1.581444
-1.532581
-1.470625
-1.444439
-1.401187
-1.293172
-1.172299
-1.040204
-0.909979
-0.799159
-0.682260
-0.556711
-0.414095
-0.258386
-0.108288
0.022639
0.137667
0.253397
0.334524
0.396247
0.461710
0.479479
0.514315
0.598715
0.642435
0.663477
0.683818
0.697144
0.714913
0.715380
0.722862
0.723329
0.669556
0.578843
0.445345
0.305066
0.211781
0.115924
0.001597
-0.078829
-0.121146
-0.121146
-0.049838
0.073373
0.201494
0.328212
0.482518
0.649450
0.794638
0.975363
1.221785
1.467273
1.666935
1.793186
1.851168
1.887874
1.935101
2.020905
2.158144
2.332790
2.496916
2.595111
2.596981
2.491071
2.345415
2.270834
2.337466
2.569861
2.897645
3.195970
3.368746
3.424156
3.453848
3.454082
3.429066
3.469045
3.534275
3.574955
3.628261
3.676423
3.741653
3.875852
4.061020
4.274711
4.469230
4.586362
4.630550
4.614184
4.520198
4.362619
4.211118
4.122743
4.113624
4.169736
4.197558
4.126483
3.996492
3.805714
3.556953
3.325728
3.083981
2.757600
2.401995
2.087070
1.808150
1.590485
1.491588
1.460493
1.379833
1.224826
1.029371
0.808900
0.576038
0.337098
0.111951
-0.081633
-0.274282
-0.496156
-0.763386
-1.062179
-1.307900
-1.487690
-1.663973
-1.829735
-2.010227
-2.270677
-2.546558
-2.771471
-2.970666
-3.102761
-3.167289
-3.254496
-3.350820
-3.441066
-3.525233
-3.513075
-3.416050
-3.286292
-3.144377
-3.083824
-3.087564
-3.079615
-3.081953
-3.080317
-3.068159
-3.073536
-3.085928
-3.111879
-3.173134
-3.279746
-3.397813
-3.475434
-3.527571
-3.537624
-3.479876
-3.432181
-3.396410
-3.315516
-3.219426
-3.092006
-2.927647
-2.761651
-2.591446
-2.471508
-2.395524
-2.326554
-2.306915
-2.256648
-2.150271
-2.071481
-1.964869
-1.817110
-1.683845
-1.554088
-1.419420
-1.291066
-1.174167
-1.035058
-0.863684
-0.671035
-0.440277
-0.209052
0.011653
0.202899
0.305302
0.425006
0.623267
0.818253
1.063273
1.360429
1.589784
1.779862
1.965029
2.067432
2.109282
2.144352
2.104372
1.977187
1.838311
1.691019
1.528764
1.367677
1.172690
0.913175
0.632385
0.350425
0.022174
-0.298128
-0.538472
-0.764086
-0.980582
-1.182349
-1.412640
-1.588455
-1.681506
-1.769648
-1.847736
-1.894963
-1.894028
-1.846801
-1.768245
-1.669349
-1.580506
-1.475765
-1.358399
-1.235187
-1.070360
-0.911378
-0.711715
-0.443082
-0.229158
-0.062694
0.070337
0.181624
0.335463
0.470598
0.616020
0.817553
0.987056
1.141830
1.313203
1.477796
1.663431
1.854444
2.022778
2.184098
2.304971
2.383059
2.513285
2.680216
2.826339
2.984854
3.095206
3.093336
3.062007
3.056863
3.077905
3.102220
3.064111
2.928509
2.730015
2.516090
2.302633
2.089177
1.886474
1.732402
1.597969
1.445533
1.362067
1.309930
1.151883
0.918320
0.672131
0.484158
0.365389
0.242178
0.166896
0.103303
-0.036508
-0.125585
-0.124182
-0.144756
-0.208115
-0.225650
-0.197828
-0.277319
-0.496855
-0.730652
-0.897116
-1.094440
-1.439291
-1.790221
-2.064231
-2.294522
-2.387339
-2.397159
-2.430825
-2.526215
-2.708109
-2.882054
-3.044076
-3.182951
-3.252155
-3.374431
-3.521723
-3.634881
-3.756923
-3.787317
-3.688655
-3.492966
-3.296810
-3.215215
-3.081717
-2.846751
-2.632125
-2.361855
-2.133201
-2.127123
-2.240748
-2.342917
-2.352737
-2.276986
-2.202873
-2.143021
-2.137409
-2.154009
-2.069141
-1.918341
-1.697637
-1.378270
-1.104727
-0.914650
-0.768526
-0.722468
-0.826508
-1.054694
-1.265112
-1.506390
-1.926057
-2.254542
-2.284702
-2.197261
-2.059789
-1.859190
-1.731771
-1.770347
-1.870880
-1.934006
-1.948033
-1.917406
-1.987077
-2.186506
-2.370271
-2.540943
-2.649425
-2.628383
-2.567362
-2.514992
-2.486702
-2.472908
-2.406042
-2.237474
-2.050436
-2.025888
-2.050904
-1.937512
-1.902676
-2.004144
-2.024952
-2.055814
-2.159853
-2.238409
-2.321641
-2.392014
-2.519200
-2.681689
-2.679818
-2.708575
-2.864518
-2.825708
-2.511484
-2.161490
-1.993623
-2.000403
-2.197027
-2.526915
-2.635631
-2.457945
-2.083401
-1.587050
-1.339926
-1.469683
-1.778530
-1.985908
-1.815002
-1.530704
-1.511767
-1.565306
-1.499376
-1.450278
-1.437186
-1.399077
-1.451447
-1.549174
-1.481139
-1.295270
-1.081814
-0.722701
-0.257912
0.069404
0.260650
0.399292
0.522270
0.770328
0.903827
0.788097
0.773368
0.768692
0.688967
0.709074
0.735960
0.897748
1.154691
1.166849
1.046677
1.081513
1.352484
1.683775
1.957317
2.169839
2.208649
2.238576
2.334199
2.369502
2.448526
2.472607
2.474711
2.673906
2.902326
3.135422
3.380675
3.411303
3.384884
3.535917
3.675026
3.711499
3.794029
3.826761
3.739554
3.761297
3.839620
3.826059
3.978963
4.288277
4.467131
4.663755
4.874173
4.819932
4.695084
4.611384
4.398629
4.187276
4.044192
3.942023
3.919578
3.772052
3.446607
3.223330
3.185455
3.164180
2.978311
2.626446
2.339343
2.212157
2.081932
1.871748
1.682373
1.634912
1.713468
1.848369
2.040784
2.126821
2.008520
1.917105
1.898869
1.888816
2.013196
2.172879
2.073048
1.731704
1.391529
1.076838
0.706971
0.436467
0.347624
0.203839
-0.110385
-0.388603
-0.570030
-0.857367
-1.186787
-1.180007
-0.773200
-0.405670
-0.372471
-0.411515
-0.216528
0.132765
0.378252
0.505671
0.723103
0.896113
0.878111
0.954562
1.025169
0.837897
0.627714
0.445586
0.234934
0.108216
0.139311
0.415192
0.567628
0.235402
-0.094486
-0.095889
-0.108981
-0.294616
-0.428816
-0.408008
-0.353533
-0.256274
-0.223074
-0.438869
-0.629414
-0.618659
-0.667523
-0.878642
-1.154289
-1.480670
-1.899634
-2.355773
-2.817289
-3.417914
-4.109954
-4.622203
-4.948351
-5.329206
-5.747236
-5.939183
-5.935910
-5.999503
-6.082501
-6.019142
-5.915570
-5.796567
-5.511802
-5.186356
-5.024101
-4.920996
-4.762248
-4.703097
-4.835193
-4.988797
-5.140298
-5.361003
-5.502684
-5.594332
-5.792592
-6.002542
-6.147029
-6.218571
-6.206647
-6.198464
-6.347393
-6.721001
-6.997583
-6.928613
-6.831120
-6.858006
-6.817325
-6.550329
-6.001607
-5.531440
-5.432544
-5.391162
-5.054728
-4.366662
-3.670180
-3.311769
-2.976036
-2.418664
-1.906648
-1.470616
-0.984083
-0.527010
-0.107344
0.241248
0.394385
0.557108
0.907336
1.240731
1.440862
1.536017
1.761632
2.337241
2.861648
3.135658
3.465312
3.741661
3.808527
3.807592
3.829101
4.034609
4.453574
4.803101
5.009544
5.278177
5.663708
6.131770
6.569439
6.778921
6.938839
7.180585
7.156972
6.863088
6.574115
6.408820
6.511457
6.671375
6.639111
6.648696
6.670673
6.520809
6.454879
6.580194
6.740579
6.927617
7.068129
7.072103
7.023474
6.891846
6.647294
6.413263
6.191857
5.996168
5.872256
5.707195
5.578840
5.666514
5.746005
5.556630
5.229547
4.926546
4.729689
4.697425
4.648094
4.501970
4.324752
3.952079
3.489628
3.263079
3.194342
3.125138
3.028112
2.911214
2.883626
2.939971
2.992575
3.051025
3.108305
3.130282
3.041205
2.773507
2.513525
2.438476
2.467467
2.608213
2.796887
2.862584
2.841309
2.585768
2.074454
1.694533
1.520588
1.485986
1.587220
1.717679
1.877596
2.007120
2.001041
1.873856
1.775661
1.876194
1.860763
1.406495
0.835562
0.474813
0.309752
0.263694
0.188879
-0.140541
-0.744206
-1.371016
-1.753742
-1.754210
-1.524621
-1.407722
-1.489551
-1.638246
-1.772212
-1.851703
-1.878824
-1.847027
-1.683603
-1.456586
-1.353715
-1.367977
-1.400475
-1.459625
-1.577459
-1.738779
-1.854509
-1.828323
-1.710256
-1.738545
-2.074044
-2.431520
-2.408374
-2.118700
-1.959016
-2.016998
-2.136702
-2.262719
-2.396451
-2.424272
-2.287033
-2.081292
-1.887240
-1.807749
-1.818270
-1.615801
-1.232374
-1.060065
-1.204084
-1.615100
-2.178084
-2.589333
-2.796010
-3.003622
-3.167514
-3.191829
-3.218482
-3.171722
-2.832950
-2.206373
-1.241726
-0.115057
0.672606
1.068191
1.293338
1.372595
1.319524
1.125939
0.924406
0.990805
1.284220
1.617615
1.878299
1.906355
1.752750
1.583481
1.367218
1.114484
0.875777
0.579322
0.198700
-0.227279
-0.543139
-0.666818
-0.885418
-1.207357
-1.269079
-1.075495
-0.778573
-0.504329
-0.362881
-0.213719
0.060058
0.551032
1.200521
1.691963
2.145997
2.875912
3.624999
3.960732
3.934780
3.885449
3.947172
4.142392
4.331768
4.339483
4.407285
4.767332
5.288934
5.612042
5.349488
4.578658
3.722726
3.195747
3.237129
3.645339
3.990424
3.925896
3.367588
2.620840
2.123787
2.088016
2.292121
2.410890
2.472379
2.594421
2.698461
2.591849
2.267339
2.077028
2.227125
2.597460
3.111581
3.589696
3.761537
3.563277
3.043779
2.367404
1.681209
1.003665
0.560151
0.464996
0.425952
0.276555
-0.071335
-0.814109
-1.866898
-2.926701
-3.844122
-4.598819
-5.134215
-5.398172
-5.380403
-5.119953
-4.792403
-4.505768
-4.238070
-4.047759
-3.973411
-4.048694
-4.289505
-4.509976
-4.491974
-4.089609
-3.372786
-2.753457
-2.547014
-2.800684
-3.380501
-3.880126
-4.076282
-4.197389
-4.262385
-4.004740
-3.456018
-2.839962
-2.314152
-2.003202
-1.915528
-1.976782
-2.172237
-2.393175
-2.400423
-2.175978
-1.902435
-1.795356
-2.040141
-2.321399
-2.166392
-1.668404
-1.094899
-0.732981
-0.821122
-1.122253
-1.320046
-1.385976
-1.435308
-1.563429
-1.760052
-1.984731
-2.152130
-2.293110
-2.430115
-2.240973
-1.665364
-1.106589
-0.791664
-0.694872
-0.603223
-0.212782
0.529291
1.435723
2.287213
2.907009
3.210010
3.171200
2.856977
2.630661
2.871004
3.412245
3.799413
3.793569
3.399153
2.778187
2.108124
1.550518
1.303394
1.349686
1.327241
0.911784
0.137213
-0.710769
-1.386210
-1.897057
-2.313917
-2.450922
-2.120801
-1.488145
-0.844268
-0.278946
0.377089
1.228813
1.932543
2.184342
2.160729
1.944934
1.549583
1.230683
0.929552
0.346462
-0.402624
-0.900145
-0.862737
-0.336927
0.389247
0.916928
0.908745
0.522979
0.281700
0.384337
0.679390
1.000393
1.281184
1.615981
2.013203
2.315503
2.434740
2.281369
1.834348
1.156804
0.272349
-0.487492
-0.717549
-0.562541
-0.397480
-0.465749
-0.763607
-0.912068
-0.746773
-0.591532
-0.541032
-0.562541
-0.959529
-1.776650
-2.740129
-3.766733
-4.602324
-4.838459
-4.471164
-3.670174
-2.619256
-1.751400
-1.392288
-1.558050
-2.132022
-2.725867
-2.902150
-2.682615
-2.485991
-2.717918
-3.421648
-4.368059
-5.400508
-6.500524
-7.590487
-8.389138
-8.719727
-8.685593
-8.456705
-8.271772
-8.238105
-8.227350
-8.210049
-8.181994
-7.973446
-7.355988
-6.238904
-4.882179
-3.645859
-2.638427
-1.911317
-1.568570
-1.586339
-1.933060
-2.590498
-3.268276
-3.661523
-3.702438
-3.259860
-2.307136
-1.186078
-0.260474
0.225824
0.130201
-0.335991
-0.703286
-0.721756
-0.490297
-0.321729
-0.494038
-0.873724
-1.154281
-1.317705
-1.293390
-0.870217
-0.138900
0.719604
1.589797
2.264069
2.662226
2.839210
2.866331
2.838275
2.785203
2.771409
2.858382
3.077917
3.493609
4.047474
4.614433
5.031293
5.245218
5.451661
5.650856
5.746479
5.810072
5.946610
6.415373
7.268032
8.185920
8.947632
9.496354
9.967923
10.485082
10.908723
10.996397
10.499344
9.567428
8.750307
8.306793
8.222860
8.418315
8.601846
8.484947
8.022496
7.221507
6.099981
4.978222
4.304184
4.192429
4.488417
5.014928
5.648519
6.265042
6.671382
6.753445
6.526661
6.050416
5.477613
4.937074
4.437449
3.967049
3.450357
2.895556
2.455316
2.135481
1.925064
1.828505
1.727973
1.759301
2.085215
2.478228
2.774683
2.867033
2.591152
2.218012
2.091761
2.068615
1.981409
1.804191
1.417256
0.842115
0.262765
-0.181917
-0.480944
-0.780906
-1.201741
-1.721238
-2.018628
-1.731759
-1.166203
-0.796336
-0.668683
-0.836549
-1.358619
-2.163583
-3.040556
-3.580160
-3.575250
-3.203513
-2.882041
-2.896537
-3.087315
-3.235075
-3.229230
-3.064403
-2.918748
-2.853986
-2.959194
-3.309423
-3.631595
-3.798760
-3.902800
-3.892981
-3.813022
-3.777719
-3.798526
-3.921036
-4.130051
-4.202528
-3.935532
-3.497863
-3.260325
-3.286043
-3.354779
-3.280432
-2.967143
-2.524331
-2.143475
-1.857775
-1.695520
-1.590779
-1.386907
-1.068709
-0.539860
0.188185
0.849597
1.409542
1.898879
2.245835
2.449238
2.413935
2.062070
1.453028
0.667469
-0.150587
-0.855954
-1.316534
-1.536771
-1.716094
-1.911081
-2.086429
-2.277207
-2.458634
-2.566414
-2.467050
-2.045982
-1.291518
-0.224233
1.013723
2.268981
3.461581
4.467377
5.171808
5.540974
5.802359
6.263407
6.835042
7.347058
7.799689
8.148281
8.361972
8.411537
8.309835
8.115315
7.708274
7.010156
6.087826
5.027321
4.040931
3.219835
2.470982
1.803023
1.187201
0.622815
0.270248
0.114539
0.018916
0.009564
0.139790
0.322619
0.362832
0.188186
-0.060808
-0.305127
-0.656056
-1.266735
-2.108405
-2.917343
-3.513526
-3.944882
-4.225205
-4.303060
-4.288097
-4.311944
-4.353794
-4.419958
-4.538260
-4.693033
-4.921453
-5.295061
-5.885166
-6.595675
-7.275324
-7.990042
-8.661742
-9.048910
-9.145235
-9.054755
-8.892500
-8.756430
-8.576640
-8.221735
-7.691717
-7.074960
-6.383387
-5.707947
-5.262563
-5.039521
-4.899710
-4.716880
-4.410840
-4.146181
-4.028815
-3.979484
-4.023905
-4.089135
-3.989537
-3.690978
-3.295393
-3.006887
-3.026292
-3.391250
-3.885263
-4.211644
-4.281082
-4.114151
-3.788939
-3.444088
-3.053880
-2.562672
-2.053462
-1.568098
-1.032937
-0.377837
0.301111
0.917868
1.536729
2.081944
2.478698
2.765802
2.854878
2.793156
2.746630
2.672516
2.549539
2.394999
2.143901
1.842069
1.573903
1.384294
1.406504
1.684723
2.003155
2.153720
2.089660
1.861474
1.666721
1.618091
1.592140
1.542107
1.491139
1.437600
1.449757
1.478047
1.335664
0.962524
0.484642
0.078069
-0.233817
-0.455223
-0.485383
-0.397475
-0.368952
-0.394669
-0.423426
-0.423894
-0.349079
-0.205527
-0.018256
0.176965
0.328232
0.430167
0.437181
0.291760
0.117347
0.062404
0.086252
0.151481
0.270016
0.371017
0.442091
0.567874
0.763329
0.972811
1.169435
1.399257
1.693608
2.068853
2.557255
3.042151
3.345853
3.431423
3.331826
3.096158
2.714133
2.124964
1.345250
0.441624
-0.498475
-1.410284
-2.300350
-3.145761
-3.809512
-4.166988
-4.222398
-4.015955
-3.726280
-3.633930
-3.708511
-3.780754
-3.782157
-3.663388
-3.540645
-3.508848
-3.539242
-3.667363
-3.816525
-3.878949
-3.839437
-3.645620
-3.297028
-2.793195
-2.179477
-1.633794
-1.240547
-1.017738
-0.967706
-0.972615
-0.951340
-0.850573
-0.541025
-0.020125
0.610660
1.327249
2.052955
2.647969
3.116967
3.615656
4.197578
4.632908
4.740923
4.599709
4.370354
4.253689
4.249247
4.156429
3.995577
3.888965
3.848986
3.821164
3.689303
3.439841
3.155543
2.808588
2.356191
1.918990
1.643109
1.528548
1.498622
1.450460
1.305740
1.098595
0.872981
0.653913
0.490255
0.381773
0.302282
0.273057
0.262303
0.191930
0.133948
0.190059
0.241728
0.123427
-0.152454
-0.472522
-0.748169
-0.921880
-1.031765
-1.188877
-1.381526
-1.566693
-1.745782
-1.869227
-1.983086
-2.101621
-2.136223
-2.160772
-2.244471
-2.346173
-2.433613
-2.471956
-2.458863
-2.350849
-2.086424
-1.638936
-1.020075
-0.361468
0.285449
0.859655
1.194686
1.336601
1.347824
1.254772
1.199363
1.173645
1.110987
0.991751
0.816870
0.649471
0.377799
-0.054025
-0.459429
-0.777159
-1.007450
-1.160587
-1.322842
-1.435065
-1.408178
-1.244520
-0.975186
-0.744661
-0.699539
-0.824153
-0.999968
-1.143753
-1.187707
-1.091617
-0.978459
-0.854078
-0.573288
-0.269819
-0.094004
-0.037425
-0.142867
-0.269819
-0.260233
-0.214643
-0.180976
-0.148011
-0.161337
-0.267715
-0.524424
-0.893356
-1.328687
-1.838365
-2.321156
-2.731938
-3.116067
-3.464191
-3.731187
-3.826577
-3.746150
-3.576180
-3.397559
-3.295155
-3.239044
-3.212391
-3.222444
-3.193687
-3.125652
-3.028860
-2.977425
-3.049668
-3.113729
-3.142719
-3.165398
-3.148564
-3.129393
-2.989115
-2.667877
-2.362304
-2.194204
-2.111440
-1.959471
-1.630051
-1.124347
-0.509694
0.147744
0.880230
1.661347
2.374896
2.955649
3.443116
3.916088
4.295541
4.547574
4.742094
4.862266
4.992491
5.207818
5.456578
5.726146
5.998988
6.293806
6.580676
6.775195
6.947971
7.152544
7.346829
7.496226
7.560286
7.538309
7.425853
7.212162
6.923890
6.572727
6.198183
5.837434
5.474347
5.105181
4.702816
4.232884
3.754067
3.347961
3.003811
2.695667
2.459531
2.318318
2.318552
2.519851
2.803915
3.033270
3.209086
3.335804
3.481927
3.681590
3.817426
3.850625
3.809477
3.706372
3.651196
3.758977
3.969862
4.144275
4.215817
4.148016
3.971265
3.754535
3.473978
3.156715
2.850441
2.553285
2.324865
2.150218
2.001991
1.932319
1.857738
1.713952
1.580220
1.478986
1.414224
1.387805
1.318368
1.175050
1.013028
0.853111
0.694597
0.551513
0.434848
0.318651
0.193569
0.036224
-0.323123
-0.930996
-1.617892
-2.300814
-2.898166
-3.376047
-3.812547
-4.168153
-4.470452
-4.778831
-4.941788
-4.915135
-4.830033
-4.743294
-4.671284
-4.593196
-4.406158
