EVENT_NAME: 202302060117
EVENT_ID: 13194
EVENT_DATE_YYYYMMDD: 2023/02/06
EVENT_TIME_HHMMSS: 01:17:32.00000
EVENT_LATITUDE_DEGREE: 37.288
EVENT_LONGITUDE_DEGREE: 37.043
EVENT_DEPTH_KM: 8.6
HYPOCENTER_REFERENCE: AFAD
MAGNITUDE_W: 7.7
MAGNITUDE_W_REFERENCE: AFAD
MAGNITUDE_L: 
MAGNITUDE_L_REFERENCE: 
FOCAL_MECHANISM: 
NETWORK: TK
STATION_CODE: 6102
STATION_NAME: 
STATION_LATITUDE_DEGREE: 41.03928
STATION_LONGITUDE_DEGREE: 39.27829
STATION_ELEVATION_M: 14.0
LOCATION: Kahramanmaras_Pazarck_Turkiye
SENSOR_DEPTH_M: 
VS30_M/S: None
SITE_CLASSIFICATION_EC8: unknown
MORPHOLOGIC_CLASSIFICATION: 
EPICENTRAL_DISTANCE_KM: 459.44
EARTHQUAKE_BACKAZIMUTH_DEGREE: 
DATE_TIME_FIRST_SAMPLE_YYYYMMDD_HHMMSS: 2023/02/06 01:18:10.3087560
DATE_TIME_FIRST_SAMPLE_PRECISION: millisecond
SAMPLING_INTERVAL_S: 0.01
NDATA: 24501
DURATION_S: 
STREAM: HNZ
UNITS: cm/s^2
INSTRUMENT: sensor = ACEBOX/SARA | digitizer = 
INSTRUMENT_ANALOG/DIGITAL: 
INSTRUMENTAL_FREQUENCY_HZ: 
INSTRUMENTAL_DAMPING: 
FULL_SCALE_G: 
N_BIT_DIGITAL_CONVERTER: 
PGA_CM/S^2: 2.511
TIME_PGA_S: 
BASELINE_CORRECTION: BASELINE REMOVED
FILTER_TYPE: BUTTERWORTH
FILTER_ORDER: 
LOW_CUT_FREQUENCY_HZ: 
HIGH_CUT_FREQUENCY_HZ: 
LATE/NORMAL_TRIGGERED: 
DATABASE_VERSION: 
HEADER_FORMAT: DYNA 1.2
DATA_TYPE: Acceleration
PROCESSING: Automatic Paolucci et al., 2011
DATA_TIMESTAMP_YYYYMMDD_HHMMSS: 
DATA_LICENSE: U (unknown license)
DATA_CITATION: Turkish Accelerometric Archive v 1.0 - Disaster And Emergency Management Presidency, Earthquake Department
DATA_CREATOR: AFAD
ORIGINAL_DATA_MEDIATOR_CITATION: : AFAD - Disaster And Emergency Management Presidency
ORIGINAL_DATA_MEDIATOR: AFAD PROCESS SERVICE
ORIGINAL_DATA_CREATOR_CITATION: AFAD PROCESS SERVICE
ORIGINAL_DATA_CREATOR: network: TK
USER1: GuestUser
USER2: 
USER3: 
USER4: 
USER5: 
[...]
-1.043706
-0.914884
-0.742342
-0.629651
-0.589438
-0.563721
-0.558110
-0.559512
-0.510415
-0.428586
-0.338808
-0.233366
-0.152004
-0.115298
-0.058486
0.028487
0.047424
-0.006583
-0.051472
-0.076722
-0.044458
0.060750
0.135332
0.162218
0.213420
0.290573
0.376143
0.495613
0.654829
0.772896
0.767285
0.653426
0.486261
0.344579
0.295716
0.323537
0.407471
0.521564
0.594041
0.621862
0.644073
0.641969
0.585156
0.485091
0.376375
0.272335
0.186298
0.144915
0.122237
0.103065
0.133693
0.230719
0.348085
0.414016
0.395312
0.320730
0.238667
0.183023
0.148421
0.086933
-0.018744
-0.089584
-0.047735
0.069164
0.184660
0.267190
0.288699
0.231419
0.138134
0.074541
0.058408
0.078515
0.117325
0.161747
0.219027
0.281451
0.349719
0.417988
0.454227
0.504493
0.602220
0.670723
0.713274
0.790193
0.868515
0.899376
0.893531
0.888154
0.886751
0.883711
0.919950
0.987517
1.032640
1.049239
1.025860
0.992193
1.024924
1.091556
1.142524
1.207987
1.262228
1.291219
1.346395
1.372113
1.297999
1.206116
1.178061
1.193725
1.211260
1.178060
1.076125
0.991724
0.980735
1.021650
1.097166
1.143692
1.117039
1.072383
1.034976
1.000140
0.969045
0.893294
0.768446
0.682409
0.653886
0.633078
0.623024
0.629337
0.644066
0.661367
0.640325
0.557794
0.421491
0.265314
0.175302
0.165248
0.172262
0.169223
0.142570
0.090199
0.052792
0.050921
0.048115
0.018189
-0.015945
-0.043533
-0.071589
-0.097774
-0.132377
-0.161134
-0.146405
-0.092164
-0.032312
-0.017115
-0.065979
-0.120220
-0.147106
-0.157394
-0.122324
-0.071590
-0.072058
-0.083514
-0.100347
-0.196204
-0.332041
-0.439588
-0.518143
-0.530301
-0.441926
-0.300011
-0.180541
-0.122793
-0.134716
-0.208596
-0.270319
-0.263071
-0.242497
-0.244835
-0.249745
-0.254655
-0.245069
-0.184516
-0.087490
-0.032548
-0.060136
-0.148512
-0.266345
-0.347239
-0.333212
-0.247642
-0.145706
-0.061306
-0.014546
0.007664
0.059100
0.136019
0.178570
0.192598
0.185116
0.163840
0.169218
0.181843
0.175530
0.148176
0.102819
0.100948
0.148175
0.184414
0.190726
0.165242
0.139057
0.143967
0.145136
0.097908
0.012572
-0.043305
-0.023900
0.063774
0.184179
0.253383
0.236316
0.174126
0.074060
-0.036526
-0.099885
-0.120693
-0.118121
-0.062244
0.042497
0.109597
0.107259
0.089724
0.056291
-0.006133
-0.082351
-0.217486
-0.419721
-0.588522
-0.669884
-0.683210
-0.636685
-0.555323
-0.500615
-0.506694
-0.549011
-0.597407
-0.678067
-0.788654
-0.854585
-0.869314
-0.881471
-0.887083
-0.902513
-0.933141
-0.933608
-0.911164
-0.913034
-0.982706
-1.119244
-1.253911
-1.360055
-1.472979
-1.604140
-1.732261
-1.818532
-1.862018
-1.893581
-1.911350
-1.912753
-1.911116
-1.911350
-1.927248
-1.971904
-2.031522
-2.072203
-2.077814
-2.032925
-1.943381
-1.876749
-1.860617
-1.858980
-1.865059
-1.859916
-1.828119
-1.816196
-1.829990
-1.826717
-1.816663
-1.815027
-1.809182
-1.833965
-1.904338
-1.981257
-2.060281
-2.121769
-2.134628
-2.137668
-2.172971
-2.231421
-2.276544
-2.305067
-2.329850
-2.322602
-2.289169
-2.233292
-2.122238
-1.993182
-1.883297
-1.805209
-1.793753
-1.838175
-1.930525
-2.048592
-2.132993
-2.201028
-2.262283
-2.255270
-2.178350
-2.076181
-1.971674
-1.902937
-1.896625
-1.927252
-1.948061
-1.934734
-1.909484
-1.900132
-1.899665
-1.901301
-1.898964
-1.892651
-1.912992
-1.953906
-1.994587
-2.011654
-1.954374
-1.850802
-1.749100
-1.643424
-1.575389
-1.526058
-1.424356
-1.318680
-1.267946
-1.255789
-1.256022
-1.237786
-1.180506
-1.079506
-0.956762
-0.848748
-0.759204
-0.681349
-0.615652
-0.565854
-0.533823
-0.499222
-0.429082
-0.315691
-0.195052
-0.088908
0.020509
0.139512
0.274413
0.427316
0.558009
0.644280
0.715121
0.799755
0.898885
0.996846
1.081480
1.137592
1.179441
1.263842
1.377701
1.461634
1.513537
1.514005
1.454854
1.421655
1.465375
1.542060
1.599107
1.613368
1.590690
1.568245
1.572687
1.588819
1.619213
1.662231
1.691456
1.738683
1.826123
1.908186
1.969674
2.031163
2.084702
2.098263
2.079559
2.054309
2.006380
1.969440
1.999834
2.051970
2.086806
2.102704
2.088910
2.073012
2.079558
2.112991
2.148762
2.119771
2.054775
2.049164
2.100599
2.164893
2.223343
2.256308
2.249060
2.218666
2.183129
2.126082
2.058515
1.998429
1.939980
1.926653
1.997961
2.115093
2.203235
2.218198
2.219834
2.259814
2.292311
2.313587
2.326679
2.296987
2.267529
2.294415
2.359411
2.412483
2.419730
2.394246
2.359878
2.332290
2.316625
2.293246
2.276412
2.280620
2.283660
2.271034
2.228016
2.162085
2.080957
1.986737
1.918468
1.855810
1.757615
1.666434
1.607517
1.583903
1.594658
1.593723
1.565667
1.529195
1.506750
1.525220
1.558653
1.568940
1.569407
1.573148
1.554912
1.496229
1.429362
1.380031
1.348235
1.362496
1.399436
1.403177
1.395228
1.392188
1.370912
1.331634
1.267808
1.163768
1.038920
0.933945
0.898408
0.946102
1.009695
1.043128
1.081704
1.114670
1.118644
1.149973
1.211929
1.265936
1.347298
1.450636
1.513060
1.535037
1.533166
1.492251
1.422112
1.357584
1.315968
1.286042
1.255414
1.227592
1.207018
1.200939
1.214733
1.230164
1.205849
1.106251
0.966674
0.848373
0.765608
0.733812
0.745034
0.752048
0.762101
0.792962
0.816342
0.824525
0.807925
0.744098
0.664140
0.593766
0.506560
0.404624
0.325835
0.276737
0.240966
0.231380
0.257332
0.291466
0.321626
0.339862
0.327704
0.294973
0.246343
0.166618
0.067020
-0.032344
-0.134747
-0.216343
-0.236449
-0.216577
-0.177766
-0.123993
-0.093366
-0.083079
-0.066245
-0.051049
-0.030474
-0.003354
-0.009667
-0.062271
-0.123760
-0.155556
-0.131709
-0.070688
-0.042866
-0.068818
-0.116279
-0.175663
-0.221955
-0.243231
-0.279937
-0.338621
-0.378132
-0.371586
-0.313838
-0.236685
-0.195537
-0.203954
-0.258662
-0.333945
-0.342830
-0.287654
-0.248142
-0.212137
-0.159767
-0.110903
-0.045908
0.034051
0.086655
0.082447
0.024465
-0.038660
-0.091732
-0.153455
-0.192967
-0.214242
-0.245104
-0.251884
-0.253988
-0.306359
-0.379070
-0.438688
-0.482408
-0.488487
-0.456223
-0.424895
-0.407360
-0.392864
-0.402684
-0.438221
-0.473525
-0.524960
-0.584345
-0.623857
-0.664537
-0.705686
-0.728598
-0.739353
-0.743795
-0.763434
-0.819779
-0.907687
-1.003310
-1.067137
-1.096829
-1.118573
-1.139147
-1.157149
-1.168138
-1.166735
-1.153409
-1.117872
-1.046330
-0.944862
-0.845966
-0.784243
-0.766475
-0.787283
-0.840121
-0.917742
-0.993025
-1.039550
-1.087245
-1.162060
-1.224718
-1.256281
-1.258385
-1.221679
-1.188948
-1.179830
-1.160892
-1.153878
-1.166737
-1.162529
-1.138915
-1.094962
-1.046332
-1.007755
-0.951878
-0.899274
-0.886181
-0.890156
-0.884077
-0.844565
-0.789857
-0.774193
-0.792429
-0.823524
-0.869348
-0.920082
-0.965907
-1.009393
-1.061530
-1.119746
-1.166739
-1.186144
-1.158790
-1.092392
-1.021317
-0.950243
-0.885949
-0.824227
-0.737020
-0.649580
-0.580610
-0.534084
-0.550217
-0.598379
-0.604691
-0.566349
-0.497846
-0.425369
-0.379779
-0.351489
-0.328811
-0.321330
-0.322031
-0.304263
-0.274337
-0.272934
-0.311277
-0.379546
-0.466518
-0.521695
-0.524968
-0.516317
-0.505563
-0.505095
-0.549751
-0.607031
-0.627605
-0.620124
-0.595575
-0.543906
-0.478209
-0.423735
-0.389133
-0.368792
-0.329047
-0.245114
-0.158609
-0.113486
-0.111148
-0.128917
-0.120266
-0.075611
-0.046387
-0.052232
-0.093146
-0.166559
-0.230152
-0.266624
-0.280652
-0.271300
-0.274106
-0.298187
-0.314319
-0.303331
-0.257273
-0.213085
-0.192044
-0.170768
-0.164923
-0.179419
-0.175678
-0.150896
-0.132893
-0.120035
-0.112553
-0.124009
-0.134296
-0.148091
-0.188538
-0.218464
-0.214255
-0.188304
-0.165392
-0.182927
-0.245351
-0.324141
-0.378849
-0.379785
-0.335831
-0.267094
-0.211685
-0.184798
-0.150897
-0.101099
-0.064159
-0.039376
0.001538
0.064663
0.148363
0.254039
0.351532
0.423542
0.474977
0.480822
0.443180
0.390576
0.325113
0.268534
0.241881
0.236036
0.239543
0.235100
0.224112
0.221072
0.225514
0.248193
0.266896
0.235801
0.190678
0.177586
0.197224
0.253336
0.316695
0.377949
0.467026
0.562883
0.662480
0.790835
0.896278
0.948180
0.975067
0.992368
1.010838
1.015981
0.986757
0.954960
0.944205
0.941400
0.932282
0.900719
0.844140
0.774702
0.701991
0.646581
0.609641
0.567557
0.517525
0.456270
0.366024
0.261282
0.175011
0.104404
0.064425
0.070504
0.068633
0.033096
-0.005013
-0.044759
-0.080997
-0.090583
-0.078893
-0.070711
-0.081699
-0.116769
-0.175686
-0.223614
-0.235304
-0.233902
-0.218237
-0.188779
-0.172179
-0.157450
-0.142487
-0.154879
-0.189247
-0.223615
-0.243020
-0.231331
-0.176388
-0.091052
-0.019043
0.015559
0.050628
0.103233
0.138770
0.158409
0.175476
0.182723
0.200960
0.241406
0.282087
0.318326
0.359240
0.397816
0.417689
0.419326
0.406934
0.378879
0.350355
0.323001
0.290971
0.294244
0.329781
0.337496
0.314584
0.273669
0.203764
0.124740
0.062784
0.020233
-0.030034
-0.092925
-0.113500
-0.100173
-0.109525
-0.121683
-0.125424
-0.147635
-0.167040
-0.139452
-0.067676
0.010880
0.088033
0.147885
0.162614
0.181084
0.240234
0.308269
0.359938
0.384019
0.396878
0.432182
0.496008
0.591631
0.696372
0.768615
0.801113
0.798308
0.795736
0.833377
0.878500
0.901646
0.921986
0.936014
0.932039
0.929233
0.945365
0.974356
0.980201
0.949573
0.910529
0.874057
0.839688
0.820517
0.804619
0.775394
0.745702
0.731674
0.723023
0.713905
0.725361
0.742428
0.729803
0.699877
0.673458
0.637920
0.581809
0.543466
0.564508
0.599343
0.601915
0.588589
0.564741
0.550479
0.572456
0.599343
0.616176
0.617345
0.568248
0.502317
0.449712
0.399446
0.388223
0.402251
0.391730
0.379339
0.359934
0.316447
0.294470
0.316915
0.355024
0.390093
0.431709
0.475663
0.507459
0.546503
0.597471
0.620149
0.589755
0.521019
0.464674
0.457426
0.463504
0.446437
0.414875
0.365543
0.306392
0.264309
0.249813
0.247475
0.230174
0.206794
0.186454
0.149280
0.114444
0.091766
0.048981
0.012976
0.022094
0.044071
0.047811
0.046175
0.042902
0.024665
0.001987
-0.005261
-0.001520
0.015079
0.047109
0.084049
0.138758
0.202117
0.241161
0.260098
0.258228
0.249577
0.274827
0.334446
0.406221
0.461163
0.497402
0.545097
0.603780
0.681400
0.759488
0.781231
0.766268
0.752942
0.721847
0.664800
0.608689
0.558188
0.494829
0.447836
0.426560
0.393595
0.358993
0.292828
0.165175
0.041730
-0.075169
-0.175001
-0.205394
-0.218020
-0.230645
-0.215916
-0.213344
-0.240231
-0.276703
-0.300550
-0.312240
-0.326035
-0.322294
-0.320657
-0.351051
-0.375132
-0.376068
-0.356662
-0.303357
-0.256130
-0.259169
-0.301253
-0.363911
-0.407163
-0.391499
-0.369288
-0.390564
-0.434050
-0.491097
-0.532713
-0.511671
-0.455560
-0.399682
-0.349650
-0.312242
-0.275303
-0.218724
-0.138064
-0.054131
0.007592
0.047805
0.066742
0.063937
0.047805
0.010631
-0.040805
-0.077745
-0.101592
-0.116321
-0.111879
-0.120764
-0.161211
-0.192072
-0.203528
-0.211711
-0.226674
-0.264316
-0.300554
-0.308036
-0.313180
-0.326039
-0.327208
-0.323467
-0.345912
-0.374201
-0.366720
-0.341937
-0.316453
-0.263615
-0.186930
-0.129884
-0.096451
-0.053198
-0.013920
0.002679
0.008758
-0.008309
-0.054601
-0.101829
-0.110947
-0.078917
-0.045951
-0.028884
-0.031222
-0.045718
-0.021870
0.046398
0.109523
0.138047
0.129162
0.096197
0.070245
0.074921
0.083805
0.070713
0.062062
0.077960
0.111861
0.153476
0.202106
0.242553
0.246995
0.251671
0.266868
0.228759
0.154645
0.076323
0.003378
0.003378
0.037746
0.025121
-0.003169
-0.033329
-0.055306
-0.032160
0.019743
0.074919
0.108118
0.110222
0.100403
0.071879
0.028861
-0.002936
-0.011586
-0.025381
-0.078219
-0.143682
-0.202599
-0.254736
-0.261049
-0.220836
-0.187169
-0.197456
-0.226447
-0.230188
-0.220135
-0.202366
-0.185299
-0.208211
-0.259647
-0.296353
-0.289573
-0.248658
-0.229253
-0.248425
-0.290508
-0.321604
-0.280923
-0.170804
-0.081962
-0.089209
-0.152101
-0.187404
-0.186469
-0.167064
-0.147659
-0.165895
-0.196991
-0.171273
-0.105810
-0.087106
-0.154674
-0.288406
-0.438036
-0.554701
-0.615488
-0.632322
-0.672769
-0.747818
-0.806735
-0.902124
-1.039129
-1.115114
-1.159535
-1.221258
-1.245807
-1.244404
-1.240897
-1.201151
-1.133117
-1.041702
-0.924102
-0.841338
-0.819127
-0.805801
-0.786630
-0.784525
-0.794813
-0.807204
-0.815153
-0.795280
-0.704567
-0.555405
-0.429154
-0.328855
-0.244688
-0.224816
-0.259184
-0.363925
-0.564757
-0.786163
-0.959641
-1.036560
-0.996347
-0.899789
-0.769330
-0.592112
-0.393151
-0.198865
-0.033571
0.062286
0.085198
0.068131
0.039374
0.046154
0.105305
0.191342
0.307773
0.417657
0.456935
0.429113
0.340972
0.203733
0.056674
-0.061394
-0.096697
-0.040352
0.059479
0.170299
0.270598
0.335827
0.357804
0.354765
0.346816
0.333723
0.318292
0.300524
0.265454
0.220565
0.198821
0.234592
0.323201
0.417422
0.480079
0.505096
0.507433
0.495276
0.455063
0.411810
0.406433
0.437995
0.504160
0.581079
0.612641
0.598847
0.591833
0.616382
0.659634
0.702185
0.744269
0.771155
0.749178
0.703822
0.676234
0.674129
0.749880
0.924292
1.078131
1.105017
1.031137
0.920785
0.795002
0.703821
0.694001
0.705925
0.726265
0.842696
1.053581
1.276624
1.437944
1.501536
1.486106
1.426487
1.378559
1.378091
1.400302
1.458517
1.572376
1.690444
1.772039
1.838671
1.930554
2.033892
2.097251
2.108941
2.077845
2.008875
1.940840
1.904835
1.864154
1.772272
1.630357
1.459217
1.306080
1.245760
1.298832
1.428823
1.617030
1.848957
2.091638
2.312811
2.468052
2.510837
2.438827
2.292704
2.136059
2.026876
1.990871
2.002795
2.000924
1.985494
1.997183
2.028980
2.081818
2.135825
2.120160
2.036695
1.950423
1.890337
1.848721
1.790272
1.691609
1.587336
1.509014
1.466696
1.473710
1.473242
1.388608
1.251836
1.139380
1.094257
1.112025
1.159486
1.217000
1.255343
1.279891
1.329924
1.388373
1.428119
1.430690
1.406141
1.397725
1.357979
1.224481
1.037677
0.844092
0.654717
0.466276
0.268951
0.068119
-0.104190
-0.203086
-0.236285
-0.231142
-0.177836
-0.089461
-0.017685
0.005694
-0.007632
-0.017919
-0.008801
0.020423
0.062039
0.078171
0.030710
-0.060471
-0.139728
-0.196541
-0.257328
-0.327935
-0.428001
-0.584645
-0.748537
-0.846732
-0.896764
-0.953577
-0.995427
-0.985374
-0.951473
-0.923885
-0.914066
-0.941888
-1.013898
-1.098065
-1.146461
-1.156748
-1.148565
-1.150669
-1.196026
-1.251436
-1.272010
-1.269906
-1.254710
-1.217068
-1.141084
-1.038915
-0.937681
-0.849072
-0.807690
-0.819380
-0.840421
-0.852813
-0.857021
-0.864737
-0.891390
-0.940019
-1.010860
-1.067907
-1.080064
-1.067439
-1.056451
-1.085909
-1.192989
-1.348230
-1.475416
-1.521240
-1.478689
-1.390548
-1.322279
-1.299133
-1.331164
-1.441048
-1.604005
-1.744517
-1.802499
-1.762988
-1.634165
-1.450868
-1.280430
-1.179196
-1.152777
-1.150673
-1.106018
-1.002212
-0.872221
-0.766778
-0.731475
-0.770052
-0.854686
-0.946569
-1.016474
-1.062065
-1.052713
-0.966676
-0.863571
-0.805122
-0.803251
-0.846036
-0.922254
-1.021852
-1.113968
-1.197902
-1.285810
-1.337011
-1.338882
-1.309657
-1.218242
-1.061365
-0.911734
-0.817748
-0.769586
-0.734049
-0.665079
-0.573664
-0.501888
-0.451154
-0.459571
-0.539296
-0.622060
-0.681211
-0.692200
-0.633049
-0.571327
-0.550519
-0.556598
-0.578341
-0.579510
-0.544674
-0.508903
-0.503059
-0.564313
-0.704124
-0.843935
-0.917815
-0.933947
-0.885318
-0.776836
-0.650585
-0.512645
-0.398318
-0.397149
-0.533453
-0.755561
-1.000814
-1.192294
-1.270382
-1.253783
-1.182475
-1.048509
-0.835052
-0.547482
-0.221568
0.045428
0.133569
0.015736
-0.224374
-0.475473
-0.644742
-0.705062
-0.718622
-0.739430
-0.761875
-0.774967
-0.787125
-0.817051
-0.843003
-0.784086
-0.597048
-0.312985
0.010123
0.303772
0.546688
0.772302
0.975939
1.104762
1.143104
1.114347
1.025972
0.897149
0.754299
0.613787
0.529152
0.520735
0.553701
0.616826
0.682289
0.724372
0.764352
0.796148
0.793810
0.745180
0.655402
0.539672
0.424410
0.382794
0.447790
0.585028
0.792407
1.046778
1.292733
1.510164
1.662366
1.717776
1.730634
1.747468
1.742792
1.722451
1.695565
1.611865
1.474158
1.319151
1.162039
1.037659
0.946945
0.871662
0.799185
0.701925
0.598119
0.505769
0.412952
0.338137
0.297222
0.292312
0.317562
0.357541
0.409210
0.457840
0.508574
0.601392
0.746580
0.922161
1.055893
1.074831
1.002821
0.886624
0.749385
0.647683
0.606534
0.575907
0.511379
0.395181
0.219600
0.019235
-0.146995
-0.253139
-0.295690
-0.276519
-0.223681
-0.163595
-0.098833
-0.037111
0.019001
0.080256
0.136834
0.159746
0.135665
0.079788
0.017364
-0.022382
-0.004847
0.065993
0.131690
0.148991
0.138704
0.120234
0.096386
0.094048
0.111583
0.115324
0.101763
0.079553
0.068798
0.071837
0.056640
0.018297
-0.024721
-0.040620
-0.006719
0.043313
0.069031
0.053367
-0.000875
-0.068676
-0.154012
-0.266001
-0.395992
-0.544687
-0.672107
-0.729621
-0.740142
-0.733830
-0.709281
-0.687304
-0.684966
-0.698059
-0.728219
-0.756742
-0.759548
-0.721673
-0.634934
-0.545156
-0.492786
-0.458418
-0.415866
-0.356014
-0.295227
-0.244260
-0.205215
-0.182537
-0.142558
-0.082940
-0.055352
-0.076627
-0.150741
-0.260860
-0.363263
-0.440416
-0.490215
-0.524583
-0.553107
-0.568304
-0.563862
-0.523415
-0.455380
-0.406049
-0.391787
-0.395294
-0.384072
-0.343158
-0.299204
-0.274421
-0.286813
-0.361160
-0.472915
-0.591685
-0.729625
-0.844653
-0.871540
-0.839978
-0.816364
-0.823846
-0.851668
-0.876450
-0.886737
-0.883698
-0.886738
-0.912222
-0.943784
-0.957345
-0.945655
-0.908949
-0.852838
-0.802104
-0.782465
-0.771944
-0.752539
-0.739914
-0.733835
-0.724250
-0.732199
-0.782699
-0.864294
-0.954774
-1.040578
-1.083830
-1.068400
-1.025849
-0.978388
-0.949163
-0.939812
-0.921809
-0.911756
-0.922511
-0.920641
-0.902171
-0.878791
-0.841150
-0.797664
-0.761659
-0.721680
-0.659490
-0.579531
-0.491390
-0.407924
-0.367945
-0.364672
-0.355086
-0.344331
-0.332642
-0.313003
-0.296169
-0.247540
-0.140928
-0.025666
0.045408
0.063878
0.043070
0.002857
-0.044838
-0.097209
-0.149579
-0.214809
-0.305990
-0.410264
-0.515940
-0.604549
-0.642425
-0.609693
-0.512433
-0.368648
-0.183948
0.031613
0.259097
0.478165
0.641356
0.703078
0.666606
0.596934
0.559994
0.558357
0.587114
0.638316
0.674087
0.691855
0.695362
0.667774
0.610260
0.543627
0.486347
0.430002
0.360330
0.276630
0.166512
0.043301
-0.047413
-0.086925
-0.089964
-0.070091
-0.028476
0.013842
0.027168
0.008932
-0.043205
-0.113111
-0.155194
-0.143504
-0.071027
0.039325
0.134247
0.190592
0.216543
0.236182
0.274758
0.336481
0.403347
0.444027
0.458756
0.474421
0.479330
0.466939
0.439117
0.375057
0.286681
0.180303
0.047740
-0.073834
-0.170627
-0.254794
-0.318387
-0.371225
-0.430142
-0.494436
-0.536520
-0.541196
-0.524363
-0.466848
-0.372862
-0.277940
-0.174602
-0.082720
-0.035025
-0.025907
-0.047651
-0.075239
-0.095345
-0.120829
-0.165485
-0.254094
-0.377773
-0.510804
-0.645938
-0.771955
-0.891893
-1.008324
-1.095531
-1.133640
-1.122885
-1.094362
-1.084309
-1.094129
-1.100207
-1.057656
-0.964137
-0.867346
-0.770554
-0.705558
-0.727067
-0.792063
-0.871788
-0.980971
-1.080102
-1.150241
-1.215704
-1.287246
-1.354580
-1.411159
-1.462594
-1.483169
-1.470076
