EVENT_NAME: 202302060117
EVENT_ID: 13194
EVENT_DATE_YYYYMMDD: 2023/02/06
EVENT_TIME_HHMMSS: 01:17:32.00000
EVENT_LATITUDE_DEGREE: 37.288
EVENT_LONGITUDE_DEGREE: 37.043
EVENT_DEPTH_KM: 8.6
HYPOCENTER_REFERENCE: AFAD
MAGNITUDE_W: 7.7
MAGNITUDE_W_REFERENCE: AFAD
MAGNITUDE_L: 
MAGNITUDE_L_REFERENCE: 
FOCAL_MECHANISM: 
NETWORK: TK
STATION_CODE: 6202
STATION_NAME: 
STATION_LATITUDE_DEGREE: 39.486
STATION_LONGITUDE_DEGREE: 39.8998
STATION_ELEVATION_M: 1525.0
LOCATION: Kahramanmaras_Pazarck_Turkiye
SENSOR_DEPTH_M: 
VS30_M/S: None
SITE_CLASSIFICATION_EC8: unknown
MORPHOLOGIC_CLASSIFICATION: 
EPICENTRAL_DISTANCE_KM: 348.86
EARTHQUAKE_BACKAZIMUTH_DEGREE: 
DATE_TIME_FIRST_SAMPLE_YYYYMMDD_HHMMSS: 2023/02/06 01:17:59.1360170
DATE_TIME_FIRST_SAMPLE_PRECISION: millisecond
SAMPLING_INTERVAL_S: 0.01
NDATA: 18251
DURATION_S: 
STREAM: HNN
UNITS: cm/s^2
INSTRUMENT: sensor = GMS+/GEOSIG | digitizer = 
INSTRUMENT_ANALOG/DIGITAL: 
INSTRUMENTAL_FREQUENCY_HZ: 
INSTRUMENTAL_DAMPING: 
FULL_SCALE_G: 
N_BIT_DIGITAL_CONVERTER: 
PGA_CM/S^2: 32.720
TIME_PGA_S: 
BASELINE_CORRECTION: BASELINE REMOVED
FILTER_TYPE: BUTTERWORTH
FILTER_ORDER: 
LOW_CUT_FREQUENCY_HZ: 
HIGH_CUT_FREQUENCY_HZ: 
LATE/NORMAL_TRIGGERED: 
DATABASE_VERSION: 
HEADER_FORMAT: DYNA 1.2
DATA_TYPE: Acceleration
PROCESSING: Automatic Paolucci et al., 2011
DATA_TIMESTAMP_YYYYMMDD_HHMMSS: 
DATA_LICENSE: U (unknown license)
DATA_CITATION: Turkish Accelerometric Archive v 1.0 - Disaster And Emergency Management Presidency, Earthquake Department
DATA_CREATOR: AFAD
ORIGINAL_DATA_MEDIATOR_CITATION: : AFAD - Disaster And Emergency Management Presidency
ORIGINAL_DATA_MEDIATOR: AFAD PROCESS SERVICE
ORIGINAL_DATA_CREATOR_CITATION: AFAD PROCESS SERVICE
ORIGINAL_DATA_CREATOR: network: TK
USER1: GuestUser
USER2: 
USER3: 
USER4: 
USER5: 
[...]
-10.483152
-10.324434
-10.695383
-10.964243
-11.029445
-11.321424
-11.400134
-11.241936
-11.402992
-11.303501
-10.748637
-10.604985
-10.523418
-9.774767
-8.661662
-7.804688
-7.480498
-7.390618
-6.993953
-6.256472
-5.490416
-4.573695
-4.023507
-4.100918
-3.805043
-3.084446
-2.342809
-1.801193
-1.872370
-2.575302
-3.643208
-4.459139
-4.803072
-5.066217
-5.623679
-6.482472
-7.273206
-7.907040
-8.040821
-7.633505
-7.343864
-7.279701
-7.137089
-6.608461
-6.098017
-5.997487
-5.610173
-4.960754
-4.775799
-4.632667
-4.186386
-4.183269
-4.350560
-3.767641
-3.104194
-3.195632
-3.631003
-3.972079
-4.444597
-5.463407
-6.938109
-8.085764
-8.444504
-8.380601
-8.033811
-7.745988
-7.909123
-8.336701
-8.848444
-9.231602
-9.822574
-10.428613
-10.602657
-10.708643
-10.686563
-10.373023
-9.741527
-9.172116
-8.835977
-7.972508
-6.410524
-4.676833
-3.140046
-2.298918
-2.398929
-3.081859
-4.087161
-5.088566
-5.712789
-5.919824
-5.832802
-5.048043
-3.142905
-0.903966
0.682697
1.199895
1.146902
1.464857
2.397684
3.753153
4.756117
4.756896
4.175535
3.703277
3.444028
3.582484
4.359450
5.076669
5.579320
5.808435
5.113556
4.428547
4.702343
5.263701
5.597503
5.605555
4.953018
4.263074
4.577653
5.481905
6.439929
7.453284
7.942167
7.535889
6.786719
6.296017
6.421744
6.979466
7.559527
8.214922
8.783034
9.061505
9.183596
9.405957
9.469340
9.066960
8.592623
8.035161
7.314565
6.722553
6.269518
5.751021
5.040036
4.491926
4.570116
5.080040
5.741409
6.251593
5.981434
5.279541
5.008083
4.959247
4.944700
5.186543
5.373057
5.349677
5.137707
4.749613
4.560242
4.780525
5.130692
5.159526
4.932489
4.445424
3.567928
2.947342
3.009686
3.419600
3.873414
4.125908
3.590007
2.412998
1.545373
1.151305
0.931541
0.591505
-0.024145
-0.696684
-1.229988
-1.574181
-1.878629
-2.244382
-2.542336
-2.696898
-2.902895
-3.359826
-4.135494
-5.258730
-6.351834
-7.028789
-7.332718
-7.239721
-7.044376
-7.205172
-7.637167
-8.229438
-8.733388
-9.116286
-9.440736
-9.319684
-8.996014
-8.773912
-8.663771
-8.753651
-8.888730
-9.186424
-9.467493
-9.320465
-8.960686
-8.577529
-8.283732
-8.158524
-8.072281
-8.072021
-8.226064
-8.283992
-8.160862
-7.996429
-7.761859
-7.660290
-7.799526
-8.050722
-8.149174
-7.918760
-7.753807
-7.700555
-7.578984
-7.404939
-7.091919
-6.529782
-5.940888
-5.605008
-5.197692
-4.879477
-4.783363
-4.504892
-4.058870
-3.476731
-2.773019
-2.040734
-1.621469
-1.663032
-1.805904
-1.826686
-1.671604
-1.272601
-0.647600
-0.243661
-0.194045
-0.131701
-0.170147
-0.412251
-0.605258
-0.607337
-0.502650
-0.352764
-0.078969
0.196385
0.371728
0.589933
0.849700
1.102455
1.366379
1.454180
1.342480
1.169214
0.741896
0.047796
-0.479014
-0.778526
-0.971015
-0.841131
-0.492003
-0.110923
0.275871
0.577721
0.825280
0.886325
0.661626
0.478489
0.628375
0.975944
1.300134
1.659913
2.085413
2.424669
2.789124
3.234366
3.549204
3.766370
3.919373
3.883265
3.711818
3.594663
3.689478
3.948726
4.078090
4.081987
4.091078
4.252914
4.941039
5.902959
6.627712
6.991127
6.942810
6.524843
5.901140
5.282373
4.739198
4.334479
4.191607
4.318633
4.458128
4.346688
4.072373
3.600634
2.900559
2.234254
1.640944
0.988407
0.348079
0.074803
0.399253
0.944765
1.414166
1.839146
1.932402
1.748746
1.799141
2.160478
2.534804
2.680273
2.580003
2.118915
1.408709
0.902941
0.787604
1.024512
1.281162
1.402214
1.565868
1.758615
1.993705
2.286983
2.606757
2.896658
3.160322
3.491266
3.958589
4.686978
5.519534
6.223505
6.754990
6.998132
7.003068
6.898901
6.723297
6.566917
6.635236
6.863572
6.838114
6.673161
6.601205
6.546394
6.419368
6.037249
5.399259
4.695547
4.263813
4.042750
3.666866
3.152525
2.349842
1.413898
0.879555
0.660571
0.399244
-0.036647
-0.621384
-1.307951
-1.918666
-2.398198
-2.708101
-2.752002
-2.735117
-2.604454
-2.114272
-1.198850
-0.010672
1.221407
2.272428
2.958215
3.422421
3.816748
4.144575
4.338621
4.362000
4.269003
4.090802
3.849478
3.666861
3.612569
3.494894
3.277988
2.954577
2.341005
1.641709
1.056712
0.470935
0.042577
-0.018209
0.122326
0.362871
0.815126
1.257511
1.465845
1.594690
1.702493
1.813414
2.013695
2.185921
2.152930
1.858873
1.272576
0.643938
0.310395
0.192720
0.204929
0.258961
0.150897
-0.087310
-0.331752
-0.596715
-0.790243
-0.771020
-0.781151
-0.938051
-1.064558
-1.184052
-1.371085
-1.634749
-2.042325
-2.620049
-3.301940
-4.164370
-5.132265
-5.877280
-6.338368
-6.598916
-6.752698
-7.004673
-7.476152
-8.094920
-8.666409
-8.948777
-8.747197
-8.262730
-7.994390
-8.171552
-8.747977
-9.469873
-9.957457
-9.995124
-9.686260
-9.277385
-8.931374
-8.802530
-8.843054
-8.820454
-8.671607
-8.459897
-8.210260
-7.911527
-7.731768
-7.839052
-8.123238
-8.493927
-8.883579
-9.072690
-8.955275
-8.649789
-8.273904
-7.884253
-7.616432
-7.533307
-7.433296
-7.260810
-7.257953
-7.414074
-7.575130
-7.686051
-7.535905
-7.025462
-6.243041
-5.240077
-4.250361
-3.623542
-3.503009
-3.860450
-4.496362
-5.131755
-5.683242
-6.169008
-6.686726
-7.407842
-8.376257
-9.383377
-10.003184
-10.063970
-9.703672
-9.026197
-8.181952
-7.417714
-6.749592
-5.923010
-4.880821
-3.777068
-2.707603
-1.837381
-1.405387
-1.489032
-2.049872
-2.954643
-3.875261
-4.455063
-4.551957
-4.165422
-3.321696
-2.252232
-1.048208
0.371424
1.739621
2.907797
3.847638
4.252356
4.003758
3.243937
2.226685
1.167092
0.104641
-0.821952
-1.528521
-1.886741
-1.467216
-0.246826
1.231253
2.512688
3.381871
3.727103
3.727103
3.666317
3.489675
3.193799
2.707513
1.593108
-0.261115
-2.544216
-4.702368
-6.056278
-6.294486
-5.589216
-4.361033
-2.924777
-1.353441
0.231663
1.529983
2.244345
2.236811
1.569987
0.446231
-0.857805
-2.144435
-3.394958
-4.699773
-6.104857
-7.293556
-7.859071
-7.731525
-6.767786
-4.948631
-2.789700
-0.781435
0.760807
1.667138
1.885342
1.633367
1.428410
1.095647
0.452202
-0.115910
-0.833390
-1.601783
-1.920778
-1.987539
-1.838692
-1.493201
-1.190831
-1.071858
-1.172388
-1.357083
-1.602824
-1.927794
-2.351475
-2.789444
-3.119609
-3.403276
-3.617065
-3.556799
-3.189228
-2.614621
-1.701537
-0.650257
0.021243
0.235292
0.129047
-0.256709
-0.879373
-1.495802
-1.818954
-1.907275
-1.846489
-1.509051
-0.976267
-0.571029
-0.306066
0.123070
0.825742
1.799352
2.995583
4.121677
4.867990
5.024890
4.638615
4.060891
3.495895
3.096632
3.089618
3.385753
3.751506
4.051538
4.336244
4.634197
4.877859
5.254003
5.711195
5.971742
6.034346
6.026033
5.914333
5.675086
5.364144
5.007222
4.793953
4.625623
4.298575
3.915417
3.539013
3.071691
2.529295
2.160684
1.951051
1.917801
2.243030
2.969861
4.011530
4.900975
5.341801
5.382844
5.046185
4.527948
4.052053
3.713835
3.549401
3.469912
3.303920
3.217158
3.474328
3.788127
3.857745
3.710976
3.149358
2.022744
0.842618
0.027466
-0.405827
-0.260877
0.339966
0.971982
1.497752
1.668159
1.222657
0.602331
0.368020
0.413220
0.534012
0.778194
1.000295
0.817158
0.141502
-0.557014
-0.874191
-0.769505
-0.196197
0.588042
1.080042
1.110435
0.920545
0.924181
1.290973
2.123270
3.393794
4.362988
4.251028
3.324176
2.250295
1.263696
0.557387
0.021226
-0.648715
-1.324372
-1.924436
-2.376952
-2.460857
-2.242912
-1.885991
-1.362819
-0.720932
-0.032807
0.648044
1.194596
1.660100
1.829728
1.532813
1.196673
1.049385
1.310711
2.269514
3.532246
4.554952
5.374780
5.881587
5.633768
4.944084
4.200888
3.178181
1.995198
0.925214
0.117855
-0.201919
-0.206336
-0.095415
-0.041903
-0.736782
-2.311236
-4.050902
-5.194660
-4.995418
-3.340697
-0.820948
1.803227
3.454312
3.371965
1.964283
0.583356
0.311639
0.962358
1.793095
2.034419
1.120036
-0.328949
-1.091109
-0.546895
1.062107
2.716829
3.800580
4.693403
5.706757
6.963514
8.798515
11.033558
12.734518
13.154043
12.415782
11.038233
9.690557
9.298047
9.765110
9.924347
9.323244
8.167796
6.714914
5.603367
5.301517
5.687532
6.321105
6.544246
5.955092
4.778603
3.638222
3.304160
3.905522
4.817567
5.794035
6.490473
6.261357
5.358144
5.122534
6.148098
7.246916
7.948029
8.446264
8.087784
6.845574
5.704933
5.332425
5.406459
5.568554
5.750911
5.578685
4.951865
4.139310
3.254800
2.496018
1.983496
1.760355
2.219884
3.089847
3.592238
3.837978
3.967862
3.675623
3.135046
2.585636
1.965570
1.463958
1.241856
1.231725
1.520587
2.028433
2.332362
2.392887
2.242741
1.521106
0.732710
0.749335
1.296926
1.809448
2.141431
2.274432
2.018041
1.206266
0.525674
0.884933
1.862959
2.250532
1.754375
0.718161
-0.790312
-2.396976
-3.374223
-3.423320
-2.799098
-1.867310
-0.684847
0.755306
2.329760
4.102935
6.102369
7.848788
8.625754
8.175057
6.877775
5.052386
2.878388
1.004682
0.032370
-0.092059
0.266161
0.665424
0.719456
0.591910
0.359158
-0.049198
-0.318058
-0.552628
-0.828762
-1.073204
-1.123079
-0.634716
0.343310
1.475639
2.439377
3.277648
3.898234
4.409197
4.929772
5.276302
5.733234
6.107819
6.009107
5.596595
4.988738
4.293080
3.700809
3.563651
4.067081
4.719618
4.924315
4.510245
3.678208
2.796815
2.054918
1.511483
1.319774
1.445242
1.500053
1.341075
1.231712
1.466023
1.938540
2.062969
1.228335
-0.922804
-3.866754
-6.445990
-8.069020
-8.888328
-9.434360
-9.893370
-9.798815
-8.982624
-7.632091
-5.939703
-4.459026
-3.596077
-3.182527
-2.999910
-3.030303
-3.090310
-3.038357
-2.927176
-2.831582
-3.036798
-3.476845
-3.699207
-3.967288
-5.030518
-6.563149
-7.690022
-8.444388
-8.658957
-7.856794
-6.454567
-5.068185
-4.050415
-3.540750
-3.713756
-4.741138
-5.824630
-6.141028
-5.825150
-5.060653
-3.929884
-2.823273
-2.207883
-2.174113
-2.435440
-2.652086
-2.867174
-3.339173
-4.009894
-4.758545
-5.311331
-5.451087
-5.339646
-4.891807
-4.385779
-4.474620
-5.006365
-5.353934
-5.137808
-3.939239
-1.324934
2.072051
5.031067
6.642667
6.339258
4.503218
1.911253
-0.689803
-2.518569
-3.345670
-3.196564
-2.191782
-0.656553
0.873220
1.439773
0.976607
0.466423
-0.084285
-0.539139
0.325628
2.334673
3.940039
4.361382
3.773007
2.532615
0.902831
-0.939443
-2.783536
-4.026006
-4.040293
-2.896016
-1.287793
0.164570
1.449901
2.486895
3.151900
4.074596
5.572677
6.950746
7.682252
7.793433
7.246881
6.086497
4.666086
2.920705
0.376019
-2.623522
-5.207174
-6.964244
-7.464557
-6.656679
-5.329525
-4.020555
-2.991874
-2.574427
-2.793671
-3.312168
-3.836120
-4.432547
-4.909481
-4.786352
-3.995359
-2.786659
-1.342089
0.357053
1.902931
2.723798
3.346202
4.221100
4.625039
4.181874
3.166701
1.718235
-0.096504
-2.076195
-3.643375
-4.688162
-5.606442
-6.032202
-5.757627
-5.404343
-4.927149
-3.630648
-1.987876
-0.616821
1.119988
3.218393
5.065083
6.438735
6.554851
4.861684
2.339597
0.193134
-1.020501
-1.124669
-0.887501
-1.098952
-1.555364
-1.965798
-2.019830
-1.339757
-0.183531
0.946720
1.829151
2.122689
1.575098
0.312106
-1.840591
-5.050543
-8.596895
-11.616698
-13.866548
-15.129020
-15.178376
-14.508175
-13.645746
-12.254169
-9.931844
-7.453918
-5.897389
-5.261477
-5.473448
-6.193005
-6.724231
-7.132326
-7.127131
-6.740077
-6.993091
-7.777071
-8.501564
-9.014606
-9.224498
-9.291259
-8.932779
-7.807984
-6.196904
-4.720903
-3.576885
-2.582234
-2.013082
-1.811243
-1.643173
-1.632782
-1.627587
-1.238195
-0.583580
-0.230556
-0.360180
-0.544616
-0.540719
-0.289524
0.570048
2.169699
3.677392
4.545796
5.147158
5.211581
4.584241
4.144713
3.887543
2.871590
1.044123
-0.743340
-1.700585
-1.608108
-0.756069
0.004271
-0.110546
-1.223912
-2.767713
-3.874065
-3.811461
-2.133100
0.361711
2.922503
5.105332
6.840842
8.045645
8.556868
8.918725
8.768579
8.517383
8.319440
8.358665
8.925478
8.310088
6.520546
4.747630
2.941204
1.813551
1.906288
3.146160
5.404063
7.298550
8.644667
9.026526
8.066943
6.197913
2.575709
-0.930119
-2.568216
-3.866277
-4.767152
-3.880824
-1.991792
-0.597098
0.149735
0.316765
0.302218
0.200129
-0.932459
-2.941504
-5.285391
-7.835013
-9.836005
-11.220828
-11.777771
-10.945994
-8.893568
-6.395640
-4.629997
-3.141787
-1.474337
0.154408
2.287362
4.819839
6.938766
7.474407
6.024123
3.298638
0.260132
-2.016474
-2.689273
-1.940622
-0.708024
0.456256
1.013458
1.055021
0.984104
0.794993
0.451060
-0.363053
-1.550452
-2.561209
-3.176080
-3.540015
-3.871220
-4.956011
-6.868682
-8.262857
-8.383649
-7.107409
-4.961467
-3.322331
-3.115816
-4.137223
-5.472171
-6.130943
-5.572701
-4.076698
-2.320667
-1.003124
-0.478393
-0.313441
0.057508
0.883050
2.047070
2.560891
1.525975
-0.599706
-3.086205
-5.231109
-5.839226
-5.000955
-4.282696
-4.350756
-4.555713
-4.434661
-4.016175
-3.018926
-1.649170
-0.741022
-0.257854
0.031528
-0.464110
-2.126625
-4.105537
-5.667262
-6.936748
-7.634484
-7.719429
-7.055462
-5.805719
-4.895752
-3.967341
-2.845144
-1.419798
0.873693
3.328240
5.095181
5.232339
3.280182
0.213622
-2.910607
-5.456852
-6.940647
-6.880381
-5.954049
-5.263326
-4.400117
-3.212978
-1.920113
0.154133
3.017295
5.985403
9.034559
12.274904
15.415758
18.352694
21.296384
23.954069
25.777640
26.547852
25.714516
23.207496
19.553340
15.185602
11.121273
7.789230
4.907884
2.547632
0.535989
-1.162114
-2.505894
-3.724205
-4.689503
-5.592716
-6.869476
-8.280795
-9.234403
-9.309217
-8.378988
-6.362669
-3.216620
1.222554
6.678459
12.351791
17.972908
23.002795
26.751246
29.547647
31.662937
32.695514
32.720192
32.176238
30.585419
27.487946
23.452451
18.958726
14.548646
10.609525
6.828862
2.898314
-1.463450
-6.235646
-11.169419
-15.748088
-19.460951
-22.079412
-23.240055
-22.516342
-19.889050
-16.472582
-12.896357
-9.328705
-6.212269
-3.396645
-0.801563
2.083939
5.642499
9.712543
14.115089
17.743008
19.442670
19.237972
17.368942
13.712968
8.909080
4.297160
0.594947
-2.418881
-4.934993
-6.297476
-5.922111
-4.114127
-0.982365
3.064560
6.736119
9.548626
11.057878
10.858895
9.383673
6.598182
2.358509
-2.711381
-7.706979
-12.066924
-15.037889
-15.876940
-14.524588
-11.034087
-5.755083
0.308419
5.893170
9.998022
12.288396
12.914177
12.345804
10.779923
7.945595
3.986992
-0.980810
-6.743502
-12.287210
-16.469733
-18.522939
-18.479298
-16.622737
-13.015859
-8.251456
-2.626961
4.345210
12.386845
20.297817
26.513804
29.325012
28.245416
24.450207
19.667879
15.070247
10.851356
6.880543
3.135988
-0.445952
-4.173881
-8.375108
-12.619456
-16.135675
-18.609705
-19.793208
-19.826199
-19.163531
-17.710389
-15.213500
-11.803267
-7.943116
-3.928403
-0.244114
2.065482
2.293818
0.325556
-3.364967
-7.552166
-10.719776
-11.369976
-8.612280
-3.035582
3.705915
9.906835
14.574345
17.170465
17.270995
15.137261
10.987469
4.662639
-2.945184
-10.585998
-17.672987
-23.022907
-25.029874
-23.507635
-19.793213
-14.799695
-9.098049
-3.597723
1.397095
5.449994
7.947143
8.917116
8.609551
7.718287
6.830140
5.798342
4.649388
3.405879
1.969362
0.644286
0.121632
1.224607
4.136086
8.006368
11.502584
13.605145
13.707754
11.943410
9.071156
5.780935
2.977259
1.341760
0.614410
0.367371
0.415687
0.486864
0.584017
1.133166
2.637222
5.303999
8.757614
11.916391
13.845168
14.020252
11.999257
8.132092
3.381456
-1.005245
-3.818532
-4.122980
-1.674148
2.665794
7.921159
13.429538
18.722049
23.489050
27.414663
29.745301
29.953894
28.314239
25.122470
21.279463
18.222514
16.373746
14.830984
12.965330
10.610534
7.420844
3.853191
0.482182
-2.534243
-5.158419
-7.390085
-9.117282
-10.635106
-11.962261
-12.886256
-13.422417
-13.539053
-13.508400
-13.795184
-14.697878
-15.989964
-17.015008
-17.152166
-15.728638
-12.230343
-7.066936
-1.315415
3.703301
7.045475
8.924376
9.876426
10.309978
10.217501
9.232461
6.945723
3.067908
-1.659089
-6.280361
-9.816062
-10.889683
-9.215739
-5.627305
-1.124488
3.395214
6.933253
8.625641
8.370808
6.541263
4.211664
2.179239
0.295142
-1.247620
-2.692968
-4.484068
-6.328161
-8.047825
-9.586950
-10.786299
-11.070745
-9.983097
-7.945477
-5.458199
-2.984689
-0.664442
1.935055
4.727820
7.273805
9.205959
10.254901
10.175412
8.418861
5.042398
0.806882
-3.248356
-6.147885
-7.795334
-8.489174
-8.621916
-8.614123
-8.917272
-10.058692
-11.812905
-13.758567
-15.662926
-16.660435
-15.850739
-13.010177
-8.938055
-4.737608
-1.541683
0.042901
0.943516
1.254199
0.901953
0.751547
0.321112
-1.046307
-2.816365
-4.889314
-7.593498
-10.500561
-13.088889
-15.270160
-16.833963
-17.146984
-15.878018
-13.460877
-10.531474
-7.446731
-4.469271
-1.513372
2.111949
6.358635
10.433874
13.964899
16.757924
18.358873
18.360432
16.538160
12.516692
6.415263
-0.857459
-8.118233
-14.166410
-18.373871
-20.358238
-20.089898
-18.422188
-16.236241
-14.329545
-13.386847
-13.329958
-13.656227
-13.910280
-13.722728
-12.946541
-11.526131
-9.316545
-6.479360
-3.647110
-1.337514
0.532555
2.472762
4.753005
7.341072
10.138773
12.563706
14.111923
14.762122
14.318698
12.854386
11.086405
9.858742
9.758471
10.718313
11.877398
12.263932
11.312662
8.826423
5.047319
0.753095
-3.280321
-7.047476
-10.607076
-13.752346
-16.743574
-19.841566
-22.902412
-25.857532
-28.296753
-29.164118
-27.881904
-24.351658
-18.762751
-12.005928
-5.164420
1.270291
7.498746
13.387165
18.635776
22.847133
25.179329
25.201410
22.577753
17.069894
9.280233
0.606322
-7.580524
-14.664136
-20.148356
-23.329474
-24.066436
-22.907611
-20.312790
-16.845408
-13.714945
-11.955796
-11.982033
-13.618052
-15.748928
-16.770855
-15.632033
-12.445200
-7.979270
-3.507106
-0.362096
1.438356
2.660563
3.787696
4.656360
4.823910
4.031618
2.145962
-0.378203
-3.066801
-6.055171
-9.271358
-12.290900
-14.723887
-15.945576
-15.247579
-12.433514
-8.018239
-3.253835
0.582677
3.035925
4.203322
4.496080
4.589856
4.949895
5.598535
6.513178
7.774351
9.073450
9.910942
10.101351
9.845480
9.503365
9.239441
9.009027
8.520403
7.335342
5.067567
1.699157
-2.243601
-5.999845
-8.943016
-10.895952
-11.974768
-12.371953
-12.291685
-11.702012
-10.376676
-8.419585
-6.455999
-4.821020
-3.281376
-1.905126
-0.822153
0.243674
1.381198
2.509889
3.472070
3.739111
2.819792
1.017522
-0.957494
-2.761322
-3.979894
-4.138093
-3.468671
-2.411935
-0.953598
0.727620
2.117118
3.126836
3.967445
4.708303
5.751530
7.616404
9.888594
11.629818
12.157147
11.058588
8.631576
5.623723
2.461568
-0.408348
-2.285950
-2.972517
-2.959529
-2.452722
-1.327667
0.085210
1.445355
2.856414
4.166424
4.842599
4.672451
3.745339
1.995023
-0.387569
-2.895109
-5.521882
-8.332052
-10.968696
-13.018525
-13.824845
-12.833571
-10.186276
-6.532121
-2.489872
1.595758
5.137174
7.860061
9.884952
11.156775
12.077393
12.753568
12.789416
12.127008
10.772578
8.787431
6.809558
5.673333
5.326023
5.339531
5.296669
4.698163
3.667664
2.698470
2.087495
1.840716
1.940466
2.250889
2.389085
2.401294
2.698988
3.349447
4.189796
5.249389
6.182475
6.134158
4.682575
1.946439
-1.621214
-5.392005
-8.852374
-11.389787
-12.650441
-12.941901
-12.923197
-13.339086
-14.632730
-16.689573
-18.863571
-20.546607
-21.553728
-21.516321
-20.061621
-17.624998
-14.690660
-11.039882
-6.556288
-1.722007
2.561306
