EVENT_NAME: 202302060117
EVENT_ID: 13194
EVENT_DATE_YYYYMMDD: 2023/02/06
EVENT_TIME_HHMMSS: 01:17:32.00000
EVENT_LATITUDE_DEGREE: 37.288
EVENT_LONGITUDE_DEGREE: 37.043
EVENT_DEPTH_KM: 8.6
HYPOCENTER_REFERENCE: AFAD
MAGNITUDE_W: 7.7
MAGNITUDE_W_REFERENCE: AFAD
MAGNITUDE_L: 
MAGNITUDE_L_REFERENCE: 
FOCAL_MECHANISM: 
NETWORK: TK
STATION_CODE: 5204
STATION_NAME: 
STATION_LATITUDE_DEGREE: 41.02264
STATION_LONGITUDE_DEGREE: 37.56312
STATION_ELEVATION_M: 42.0
LOCATION: Kahramanmaras_Pazarck_Turkiye
SENSOR_DEPTH_M: 
VS30_M/S: None
SITE_CLASSIFICATION_EC8: unknown
MORPHOLOGIC_CLASSIFICATION: 
EPICENTRAL_DISTANCE_KM: 417.69
EARTHQUAKE_BACKAZIMUTH_DEGREE: 
DATE_TIME_FIRST_SAMPLE_YYYYMMDD_HHMMSS: 2023/02/06 01:18:05.1458790
DATE_TIME_FIRST_SAMPLE_PRECISION: millisecond
SAMPLING_INTERVAL_S: 0.01
NDATA: 21001
DURATION_S: 
STREAM: HNZ
UNITS: cm/s^2
INSTRUMENT: sensor = ACEBOX/SARA | digitizer = 
INSTRUMENT_ANALOG/DIGITAL: 
INSTRUMENTAL_FREQUENCY_HZ: 
INSTRUMENTAL_DAMPING: 
FULL_SCALE_G: 
N_BIT_DIGITAL_CONVERTER: 
PGA_CM/S^2: 2.793
TIME_PGA_S: 
BASELINE_CORRECTION: BASELINE REMOVED
FILTER_TYPE: BUTTERWORTH
FILTER_ORDER: 
LOW_CUT_FREQUENCY_HZ: 
HIGH_CUT_FREQUENCY_HZ: 
LATE/NORMAL_TRIGGERED: 
DATABASE_VERSION: 
HEADER_FORMAT: DYNA 1.2
DATA_TYPE: Acceleration
PROCESSING: Automatic Paolucci et al., 2011
DATA_TIMESTAMP_YYYYMMDD_HHMMSS: 
DATA_LICENSE: U (unknown license)
DATA_CITATION: Turkish Accelerometric Archive v 1.0 - Disaster And Emergency Management Presidency, Earthquake Department
DATA_CREATOR: AFAD
ORIGINAL_DATA_MEDIATOR_CITATION: : AFAD - Disaster And Emergency Management Presidency
ORIGINAL_DATA_MEDIATOR: AFAD PROCESS SERVICE
ORIGINAL_DATA_CREATOR_CITATION: AFAD PROCESS SERVICE
ORIGINAL_DATA_CREATOR: network: TK
USER1: GuestUser
USER2: 
USER3: 
USER4: 
USER5: 
[...]
0.263689
0.237269
0.212019
0.184899
0.151933
0.122943
0.086236
0.036438
-0.011725
-0.062693
-0.126285
-0.193385
-0.262823
-0.343249
-0.427884
-0.512986
-0.602998
-0.689035
-0.770163
-0.849888
-0.919793
-0.988764
-1.061007
-1.127873
-1.195674
-1.269087
-1.335485
-1.395103
-1.450279
-1.483245
-1.497740
-1.512002
-1.520886
-1.523926
-1.527199
-1.524159
-1.513639
-1.501949
-1.484414
-1.454020
-1.419886
-1.388557
-1.353955
-1.318418
-1.290129
-1.269321
-1.255994
-1.250383
-1.244772
-1.234952
-1.225601
-1.209001
-1.183751
-1.155929
-1.114781
-1.063111
-1.012377
-0.960942
-0.913481
-0.866956
-0.817858
-0.772502
-0.724106
-0.669163
-0.621235
-0.577281
-0.528417
-0.487970
-0.455940
-0.422741
-0.394451
-0.368500
-0.343951
-0.328988
-0.317298
-0.301166
-0.284567
-0.270071
-0.256511
-0.236171
-0.215129
-0.205777
-0.204141
-0.207881
-0.213493
-0.214428
-0.217935
-0.220974
-0.216064
-0.208115
-0.198296
-0.190814
-0.190814
-0.181930
-0.161823
-0.144289
-0.125585
-0.097062
-0.069941
-0.044223
-0.008219
0.027318
0.060751
0.096990
0.124344
0.150062
0.164090
0.160583
0.161986
0.147724
0.119434
0.099094
0.063323
0.021473
-0.014298
-0.055446
-0.092620
-0.131664
-0.174683
-0.210454
-0.243185
-0.270072
-0.294153
-0.322209
-0.355876
-0.390945
-0.414792
-0.437003
-0.456876
-0.459915
-0.464825
-0.475346
-0.478385
-0.479087
-0.477918
-0.470436
-0.454772
-0.427885
-0.392348
-0.355876
-0.319871
-0.276151
-0.233132
-0.192685
-0.139613
-0.089581
-0.042821
0.015394
0.068466
0.117564
0.165258
0.204302
0.246152
0.289405
0.331722
0.376845
0.423137
0.468026
0.502628
0.535593
0.575572
0.607603
0.635658
0.662311
0.677742
0.690367
0.702758
0.704161
0.697147
0.693640
0.694809
0.690834
0.690601
0.698082
0.702290
0.709070
0.716318
0.717253
0.725202
0.732216
0.728242
0.729411
0.736191
0.740165
0.746010
0.748816
0.738295
0.722163
0.707901
0.693874
0.677742
0.659038
0.643607
0.632151
0.617656
0.601757
0.585625
0.566688
0.545412
0.520863
0.501692
0.494678
0.483456
0.457972
0.425708
0.384326
0.333826
0.291274
0.256672
0.223707
0.195885
0.171570
0.144917
0.117563
0.089975
0.054672
0.024044
0.006977
-0.012428
-0.023183
-0.020377
-0.016637
-0.008921
-0.004479
-0.001674
0.000664
-0.004245
-0.001206
0.004171
0.005106
0.012120
0.019836
0.028018
0.031759
0.027317
0.017965
0.001366
-0.017806
-0.040017
-0.061526
-0.079295
-0.106415
-0.133769
-0.156448
-0.182633
-0.207883
-0.238744
-0.273580
-0.301168
-0.320807
-0.332030
-0.339277
-0.342550
-0.339511
-0.333432
-0.321976
-0.311923
-0.309117
-0.301168
-0.285270
-0.267502
-0.244122
-0.215131
-0.186140
-0.152707
-0.114832
-0.073216
-0.025755
0.017030
0.056308
0.101664
0.147255
0.196352
0.253632
0.317225
0.384325
0.448619
0.511277
0.575104
0.636125
0.691535
0.739463
0.782949
0.821292
0.856829
0.892366
0.926501
0.953621
0.969519
0.986587
1.006693
1.016513
1.029138
1.043399
1.051582
1.068182
1.084781
1.099744
1.122657
1.140893
1.158895
1.183210
1.207525
1.237685
1.267377
1.290757
1.319981
1.346167
1.361597
1.380067
1.399005
1.413500
1.424021
1.426593
1.426593
1.421917
1.407655
1.391757
1.372586
1.355051
1.343829
1.327697
1.307824
1.289588
1.266208
1.236983
1.203550
1.167779
1.137853
1.110265
1.080105
1.057427
1.037554
1.016512
1.003653
0.992665
0.984014
0.978169
0.971623
0.974896
0.984950
0.999211
1.017447
1.029605
1.045971
1.066311
1.082677
1.105355
1.136450
1.172221
1.206823
1.238853
1.275793
1.309226
1.342192
1.379132
1.411396
1.442724
1.474287
1.501641
1.520579
1.525722
1.521514
1.504914
1.465403
1.412331
1.359960
1.303615
1.240490
1.176897
1.112135
1.045035
0.981676
0.925097
0.875298
0.826902
0.776636
0.721460
0.670726
0.633786
0.590533
0.536760
0.475972
0.405833
0.344111
0.288233
0.230251
0.183492
0.139538
0.097455
0.059813
0.013054
-0.046798
-0.119042
-0.195026
-0.264697
-0.331096
-0.392117
-0.446592
-0.498495
-0.556243
-0.626616
-0.693716
-0.756607
-0.824642
-0.881455
-0.930318
-0.985027
-1.026643
-1.059141
-1.096081
-1.131384
-1.172065
-1.210875
-1.239398
-1.268389
-1.290132
-1.302758
-1.304628
-1.290366
-1.276338
-1.253660
-1.220695
-1.199185
-1.179546
-1.154530
-1.134190
-1.117123
-1.097016
-1.074338
-1.054933
-1.029215
-0.999756
-0.972870
-0.938034
-0.907407
-0.884027
-0.851997
-0.816693
-0.776480
-0.728318
-0.675480
-0.617498
-0.563023
-0.509951
-0.458516
-0.413861
-0.364062
-0.314731
-0.267971
-0.213263
-0.162061
-0.118809
-0.077660
-0.044461
-0.014067
0.012118
0.033627
0.061215
0.088102
0.112884
0.145148
0.175776
0.198220
0.216924
0.229549
0.232121
0.223003
0.206871
0.190973
0.167827
0.141408
0.118495
0.085764
0.052798
0.032458
0.016326
0.005338
-0.002845
-0.015003
-0.026459
-0.037915
-0.048670
-0.053112
-0.056151
-0.056853
-0.052410
-0.051242
-0.049839
-0.048904
-0.058255
-0.069010
-0.081168
-0.103612
-0.125122
-0.147332
-0.175154
-0.208120
-0.250203
-0.292053
-0.333201
-0.383701
-0.432097
-0.477454
-0.525616
-0.566998
-0.601367
-0.639476
-0.677117
-0.710784
-0.743983
-0.770636
-0.795652
-0.827916
-0.858544
-0.891042
-0.929384
-0.966558
-1.004433
-1.044413
-1.079482
-1.107304
-1.129281
-1.147985
-1.165052
-1.185860
-1.204798
-1.209707
-1.207837
-1.204330
-1.192874
-1.174404
-1.150557
-1.124371
-1.100290
-1.076677
-1.054700
-1.031554
-1.003732
-0.978248
-0.954401
-0.928917
-0.905771
-0.878183
-0.840542
-0.808511
-0.783495
-0.761051
-0.750530
-0.744217
-0.733696
-0.730189
-0.725747
-0.715226
-0.711953
-0.712655
-0.716395
-0.728553
-0.731592
-0.723176
-0.714993
-0.699095
-0.675949
-0.650465
-0.617733
-0.585469
-0.558816
-0.521876
-0.473948
-0.428591
-0.373649
-0.306549
-0.239449
-0.166271
-0.092157
-0.027161
0.039237
0.108441
0.174138
0.236094
0.301324
0.365618
0.425236
0.486725
0.541667
0.590063
0.641733
0.687791
0.734316
0.780608
0.811002
0.836719
0.857294
0.873192
0.895636
0.911301
0.931173
0.957593
0.969750
0.979569
0.988688
0.985181
0.975361
0.966477
0.964606
0.964840
0.962736
0.956190
0.940759
0.922055
0.902182
0.887687
0.877400
0.860800
0.850513
0.847708
0.839992
0.829471
0.817080
0.805156
0.792531
0.778036
0.764709
0.748344
0.731276
0.714677
0.699948
0.684517
0.665579
0.655760
0.645005
0.629107
0.625366
0.624431
0.615313
0.601519
0.580945
0.557331
0.527639
0.494440
0.468956
0.443706
0.422898
0.408168
0.385490
0.355798
0.321196
0.280281
0.241705
0.203830
0.161045
0.126209
0.099088
0.061447
0.020299
-0.016875
-0.062232
-0.113200
-0.167441
-0.229163
-0.292522
-0.359388
-0.427657
-0.496627
-0.567234
-0.632931
-0.693952
-0.754506
-0.816462
-0.883796
-0.953935
-1.028516
-1.099590
-1.157338
-1.214151
-1.268392
-1.306969
-1.342038
-1.370562
-1.388564
-1.413346
-1.436492
-1.451455
-1.472030
-1.489331
-1.497747
-1.503125
-1.503592
-1.508502
-1.517153
-1.515984
-1.515048
-1.520426
-1.520893
-1.520426
-1.513178
-1.493539
-1.472264
-1.439766
-1.399085
-1.368224
-1.338064
-1.305800
-1.275874
-1.250390
-1.229582
-1.198955
-1.162482
-1.129984
-1.092343
-1.054936
-1.026880
-1.000461
-0.973340
-0.953701
-0.935465
-0.916294
-0.904136
-0.890810
-0.870236
-0.849428
-0.823944
-0.793550
-0.758715
-0.717800
-0.673379
-0.624515
-0.579860
-0.540348
-0.495459
-0.453609
-0.415500
-0.372014
-0.326190
-0.276859
-0.231502
-0.203212
-0.178664
-0.150842
-0.131670
-0.112967
-0.091457
-0.078131
-0.069714
-0.069714
-0.077897
-0.083742
-0.089353
-0.091224
-0.092159
-0.097536
-0.101745
-0.112733
-0.133541
-0.164636
-0.207655
-0.246699
-0.282704
-0.317539
-0.338815
-0.360091
-0.389315
-0.417137
-0.443556
-0.469040
-0.491952
-0.510189
-0.521177
-0.525152
-0.524918
-0.529594
-0.538712
-0.544557
-0.548298
-0.550168
-0.552740
-0.561624
-0.570976
-0.579393
-0.590147
-0.598096
-0.604409
-0.610722
-0.613527
-0.621242
-0.631763
-0.634101
-0.636907
-0.641349
-0.646726
-0.655611
-0.659118
-0.660988
-0.662625
-0.663560
-0.670340
-0.675016
-0.683199
-0.692551
-0.695356
-0.708215
-0.722944
-0.726451
-0.725984
-0.714528
-0.697461
-0.681796
-0.661690
-0.645791
-0.632465
-0.617034
-0.606513
-0.597863
-0.592953
-0.594122
-0.598331
-0.605111
-0.613761
-0.627088
-0.642285
-0.656780
-0.676185
-0.696759
-0.715229
-0.734868
-0.752637
-0.769470
-0.782329
-0.788642
-0.790746
-0.783498
-0.770172
-0.758716
-0.746792
-0.727854
-0.705644
-0.689746
-0.675250
-0.665431
-0.667769
-0.668938
-0.671977
-0.682732
-0.689979
-0.702137
-0.726218
-0.753105
-0.784434
-0.821374
-0.853170
-0.875381
-0.898059
-0.914191
-0.918633
-0.934531
-0.954404
-0.968666
-0.988305
-1.001631
-1.010749
-1.023141
-1.025011
-1.018932
-1.008879
-0.994384
-0.974511
-0.949027
-0.923076
-0.891045
-0.853170
-0.816230
-0.776251
-0.736272
-0.689980
-0.637609
-0.587810
-0.532167
-0.470210
-0.407787
-0.348636
-0.289485
-0.217709
-0.144998
-0.077899
0.002528
0.083655
0.160107
0.241235
0.310205
0.373798
0.443703
0.508699
0.582579
0.662070
0.736183
0.827364
0.920182
1.000842
1.086879
1.165669
1.237912
1.316702
1.389413
1.459318
1.527119
1.590011
1.658513
1.729588
1.795519
1.860514
1.925510
1.984894
2.038200
2.086362
2.131018
2.172400
2.199988
2.223367
2.253294
2.272699
2.284856
2.297715
2.299819
2.303326
2.309639
2.308703
2.313146
2.321562
2.333720
2.354294
2.369724
2.384220
2.392637
2.385623
2.378842
2.371361
2.360139
2.348215
2.332784
2.324601
2.319926
2.311509
2.300520
2.283921
2.271296
2.259840
2.245344
2.236927
2.225004
2.213080
2.203027
2.184557
2.173802
2.164918
2.145279
2.129147
2.113950
2.096649
2.084258
2.070697
2.054098
2.038200
2.024639
2.009443
1.985595
1.957072
1.932056
1.906572
1.879919
1.860280
1.841576
1.821002
1.805104
1.786166
1.757877
1.727249
1.697323
1.665059
1.636068
1.615260
1.596089
1.581126
1.568968
1.551200
1.535535
1.521507
1.505609
1.490646
1.472176
1.455577
1.441782
1.428456
1.422143
1.417701
1.411389
1.404141
1.392217
1.379592
1.364629
1.353407
1.350835
1.341717
1.327689
1.319740
1.305479
1.286541
1.273214
1.259187
1.246562
1.239781
1.237443
1.240015
1.233001
1.218038
1.210323
1.206816
1.198867
1.187411
1.179929
1.172214
1.156783
1.134105
1.104880
1.077526
1.053445
1.027260
1.006685
0.986579
0.963199
0.939118
0.906620
0.868511
0.831805
0.796034
0.761432
0.722154
0.684980
0.648274
0.604554
0.568082
0.531843
0.494202
0.469653
0.447442
0.427336
0.412606
0.386655
0.360937
0.341766
0.324932
0.319087
0.321425
0.332414
0.343402
0.345273
0.352988
0.363275
0.368652
0.377303
0.388525
0.402553
0.416814
0.433414
0.450247
0.460535
0.473627
0.480875
0.482745
0.494201
0.501917
0.511502
0.526933
0.533479
0.541195
0.545637
0.546572
0.559431
0.567847
0.575796
0.590993
0.595669
0.596604
0.600345
0.597306
0.593331
0.589824
0.587720
0.593565
0.590759
0.578836
0.566912
0.541428
0.509632
0.473861
0.430608
0.396941
0.364444
0.327270
0.291499
0.248246
0.199149
0.147713
0.094641
0.039465
-0.013841
-0.056625
-0.106190
-0.153885
-0.190124
-0.236416
-0.271719
-0.294631
-0.331103
-0.355652
-0.371083
-0.397268
-0.418076
-0.436312
-0.464368
-0.495697
-0.522817
-0.550405
-0.580331
-0.600672
-0.622649
-0.649068
-0.660524
-0.670811
-0.688112
-0.705881
-0.733469
-0.759186
-0.771578
-0.781865
-0.784437
-0.776721
-0.762226
-0.736274
-0.708453
-0.693490
-0.675487
-0.644626
-0.612830
-0.575422
-0.532871
-0.493359
-0.447301
-0.403113
-0.363602
-0.320349
-0.282240
-0.240858
-0.196203
-0.155756
-0.109464
-0.066212
-0.031843
-0.003554
0.014215
0.036192
0.056999
0.066819
0.084120
0.098148
0.100486
0.104226
0.096044
0.082016
0.075703
0.071261
0.075236
0.088796
0.107500
0.131347
0.156129
0.182081
0.193069
0.188160
0.181847
0.168053
0.152389
0.148180
0.149817
0.152388
0.156129
0.165715
0.176470
0.182548
0.190030
0.188393
0.172729
0.149115
0.116851
0.087393
0.064013
0.036425
0.015149
0.010240
0.017487
0.029177
0.041101
0.050219
0.045075
0.022163
-0.007295
-0.035351
-0.054055
-0.056860
-0.040495
-0.002853
0.043672
0.094406
0.159636
0.230476
0.291264
0.329840
0.332646
0.291030
0.205226
0.096978
-0.003321
-0.073928
-0.088423
-0.052886
-0.008464
0.025202
0.022864
-0.037923
-0.126065
-0.199711
-0.245067
-0.254653
-0.239924
-0.232209
-0.240625
-0.265408
-0.306322
-0.331806
-0.333910
-0.329936
-0.318947
-0.324559
-0.352848
-0.375293
-0.382073
-0.362434
-0.324559
-0.309596
-0.342561
-0.419013
-0.516974
-0.614467
-0.694426
-0.744225
-0.757084
-0.739549
-0.713597
-0.691854
-0.687412
-0.707051
-0.730197
-0.759422
-0.806649
-0.865799
-0.947395
-1.044421
-1.132562
-1.196623
-1.213222
-1.172542
-1.084166
-0.977555
-0.896193
-0.861124
-0.873982
-0.911156
-0.938043
-0.940381
-0.912325
-0.872580
-0.842186
-0.812260
-0.786542
-0.771112
-0.747031
-0.696764
-0.617975
-0.538717
-0.503648
-0.521183
-0.580567
-0.675723
-0.793790
-0.924015
-1.045590
-1.131861
-1.185868
-1.220003
-1.241044
-1.250630
-1.247123
-1.248526
-1.273542
-1.328485
-1.404469
-1.483258
-1.565789
-1.656502
-1.743709
-1.818758
-1.852424
-1.823901
-1.771998
-1.735526
-1.730850
-1.758438
-1.797248
-1.847515
-1.899885
-1.940566
-2.000418
-2.081780
-2.161738
-2.239827
-2.301082
-2.343399
-2.377767
-2.399978
-2.419149
-2.449309
-2.497237
-2.562701
-2.648972
-2.741556
-2.793459
-2.785276
-2.736412
-2.675391
-2.629801
-2.597770
-2.566442
-2.543997
-2.540022
-2.558960
-2.587951
-2.615071
-2.641724
-2.662299
-2.687315
-2.721917
-2.744829
-2.758155
-2.758155
-2.727762
-2.682639
-2.634243
-2.582808
-2.540958
-2.520851
-2.535113
-2.568546
-2.596835
-2.616241
-2.605720
-2.562000
-2.508460
-2.443464
-2.378703
-2.329138
-2.287288
-2.256894
-2.237255
-2.212707
-2.174364
-2.123630
-2.071727
-2.028708
-2.005095
-2.016317
-2.049750
-2.081780
-2.105861
-2.099081
-2.042502
-1.953893
-1.859907
-1.782987
-1.720096
-1.657906
-1.611146
-1.584260
-1.578181
-1.609510
-1.652061
-1.665855
-1.643878
-1.585896
-1.507341
-1.436266
-1.382493
-1.353736
-1.351164
-1.357944
-1.362620
-1.340176
-1.277050
-1.209483
-1.152436
-1.096559
-1.045357
-0.994156
-0.937811
-0.882401
-0.835407
-0.805949
-0.797532
-0.804312
-0.820211
-0.846162
-0.869074
-0.870009
-0.856449
-0.831433
-0.790986
-0.751942
-0.718743
-0.692324
-0.685777
-0.698636
-0.722951
-0.733004
-0.705884
-0.656553
-0.585478
-0.501545
-0.449876
-0.439589
-0.451980
-0.473256
-0.488920
-0.505520
-0.526795
-0.533108
-0.525159
-0.516742
-0.507156
-0.502714
-0.509728
-0.521652
-0.542694
-0.580569
-0.646032
-0.750072
-0.870477
-0.977557
-1.055177
-1.077856
-1.040448
-0.964464
-0.866035
-0.765035
-0.676893
-0.614469
-0.583608
-0.581037
-0.605118
-0.635511
-0.651176
-0.652111
-0.624523
-0.574023
-0.531939
-0.496636
-0.471386
-0.470918
-0.477231
-0.487752
-0.513235
-0.539655
-0.574724
-0.617275
-0.639954
-0.644396
-0.634342
-0.596000
-0.548071
-0.510898
-0.469515
-0.418548
-0.361735
-0.304221
-0.253019
-0.197375
-0.132847
-0.069488
-0.005428
0.048112
0.081545
0.099781
0.097677
0.087623
0.090896
0.110068
0.148177
0.201483
0.261802
0.327733
0.388988
0.421486
0.410731
0.379870
0.356022
0.346437
0.365374
0.414939
0.474324
0.520148
0.541424
0.547970
0.558023
0.587482
0.625357
0.661829
0.718876
0.773350
0.780131
0.745295
0.684741
0.626759
0.601042
0.596600
0.608523
0.629097
0.637047
0.634475
0.621148
0.585377
0.532071
0.471284
0.410497
0.356724
0.312068
0.277700
0.246371
0.212704
0.197508
0.209197
0.230239
0.258996
0.295469
0.322823
0.327031
0.309730
0.283311
0.259464
0.247306
0.250346
0.263906
0.290559
0.331941
0.370050
0.376362
0.344332
0.283311
0.193299
0.093468
0.016081
-0.031848
-0.047746
-0.036056
-0.023431
-0.018989
-0.003792
0.032446
0.086921
0.153086
0.227199
0.298040
0.345968
0.367244
0.364438
0.346202
0.336850
0.340357
0.350177
0.369816
0.390624
0.412834
0.438318
0.453515
0.455385
0.452346
0.450709
0.441825
0.419614
0.397637
0.380336
0.366542
0.357424
0.349008
0.352982
0.369348
0.380570
0.395066
0.415172
0.430369
0.451878
0.486948
0.529265
0.576492
0.620446
0.655516
0.674453
0.673050
0.664166
0.655282
0.652242
0.657854
0.662530
0.665569
0.664166
0.660191
0.662529
0.672349
0.702743
0.755113
0.804444
0.831799
0.829461
0.808886
0.780363
0.736877
0.703444
0.700405
0.712796
0.739682
0.769842
0.776856
0.769375
0.762127
0.762828
0.777324
0.793923
0.808886
0.821745
0.823148
0.821979
0.830162
0.846060
0.874817
0.914095
0.950801
0.976051
0.983065
0.973713
0.968336
0.985637
1.022343
1.071674
1.124045
1.157010
1.160517
1.148126
1.132929
1.128487
1.148126
1.188807
1.231825
1.257075
1.258712
1.239541
1.200496
1.156309
1.121239
1.106042
1.113991
1.129422
1.147424
1.165894
1.177117
1.193482
1.218499
1.248892
1.285131
1.322071
1.347555
1.357608
1.366960
1.373974
1.380286
1.413486
1.465856
1.522669
1.583690
1.627644
1.651959
1.662246
1.654297
1.631618
1.598185
1.565921
1.543711
1.521967
1.498354
1.481520
1.477078
1.486898
1.504666
1.524071
1.548620
1.585093
1.634190
1.680482
1.711109
1.728176
1.722799
1.701524
1.683755
1.662713
1.644477
1.645880
1.659908
1.677442
1.696847
1.709473
1.708070
1.690535
1.659440
1.619694
1.583456
1.560544
1.562882
1.598185
1.641905
1.676039
1.703861
1.716019
1.705030
1.671363
1.633488
1.607303
1.578546
1.539969
1.492742
1.431721
1.371635
1.318096
1.270869
1.236033
1.199560
1.155139
1.106977
1.048060
0.986103
0.926018
0.879492
0.859385
0.844422
0.838344
0.858684
0.888142
0.926485
0.975115
1.017432
1.052736
1.072842
1.072141
1.066296
1.063958
1.070504
1.086870
1.109782
1.133863
1.152099
1.161919
1.148359
1.119368
1.103703
1.103002
1.123810
1.172673
1.232526
1.297989
1.368595
1.422836
1.448554
1.451126
1.433825
1.409042
1.393378
1.390572
1.404600
1.424005
1.439904
1.464218
1.477545
1.461413
1.424239
1.371167
1.322303
1.281389
1.242345
1.213354
1.175713
1.126148
1.086636
1.049930
1.016497
0.991948
0.961554
0.917366
0.853306
0.773815
0.699000
0.635875
0.584673
0.556851
0.541888
0.513599
0.470580
0.412130
0.334510
0.243563
0.159396
0.099544
0.056525
0.030807
0.016312
-0.001925
-0.011510
-0.020395
-0.035825
-0.049619
-0.071129
-0.086092
-0.084455
-0.079545
-0.068557
-0.052892
-0.041203
-0.046814
-0.065751
-0.079312
-0.093807
-0.100821
-0.089131
-0.073934
-0.053594
-0.034189
-0.021564
0.002985
0.034080
0.061200
0.082242
0.089957
0.087386
0.075930
0.056524
0.043899
0.042497
0.055122
0.090893
0.134846
0.172254
0.206622
0.235145
0.263435
0.294764
0.314169
0.316039
0.304817
0.283074
0.258525
0.235379
0.220650
0.228131
0.255252
0.293828
0.345965
0.408857
0.467306
0.510792
0.537211
0.542121
0.533003
0.521313
0.510792
0.506116
0.509623
0.515936
0.517339
0.512896
0.498635
0.473618
0.456551
0.455382
0.466137
0.488815
0.509389
0.525989
0.541186
0.549369
0.555915
0.565501
0.584204
0.612728
0.638913
0.661825
0.671645
0.666735
0.663695
0.657149
0.647563
0.637510
0.621144
0.603376
0.580463
0.547498
0.512195
0.475956
0.447199
