EVENT_NAME: 202302060117
EVENT_ID: 13194
EVENT_DATE_YYYYMMDD: 2023/02/06
EVENT_TIME_HHMMSS: 01:17:32.00000
EVENT_LATITUDE_DEGREE: 37.288
EVENT_LONGITUDE_DEGREE: 37.043
EVENT_DEPTH_KM: 8.6
HYPOCENTER_REFERENCE: AFAD
MAGNITUDE_W: 7.7
MAGNITUDE_W_REFERENCE: AFAD
MAGNITUDE_L: 
MAGNITUDE_L_REFERENCE: 
FOCAL_MECHANISM: 
NETWORK: TK
STATION_CODE: 99002
STATION_NAME: 
STATION_LATITUDE_DEGREE: 35.19023
STATION_LONGITUDE_DEGREE: 32.99283
STATION_ELEVATION_M: 0.0
LOCATION: Kahramanmaras_Pazarck_Turkiye
SENSOR_DEPTH_M: 
VS30_M/S: None
SITE_CLASSIFICATION_EC8: unknown
MORPHOLOGIC_CLASSIFICATION: 
EPICENTRAL_DISTANCE_KM: 431.62
EARTHQUAKE_BACKAZIMUTH_DEGREE: 
DATE_TIME_FIRST_SAMPLE_YYYYMMDD_HHMMSS: 2023/02/06 01:18:06.8688350
DATE_TIME_FIRST_SAMPLE_PRECISION: millisecond
SAMPLING_INTERVAL_S: 0.01
NDATA: 21001
DURATION_S: 
STREAM: HNN
UNITS: cm/s^2
INSTRUMENT: sensor = CMG-5T/GURALP | digitizer = 
INSTRUMENT_ANALOG/DIGITAL: 
INSTRUMENTAL_FREQUENCY_HZ: 
INSTRUMENTAL_DAMPING: 
FULL_SCALE_G: 
N_BIT_DIGITAL_CONVERTER: 
PGA_CM/S^2: 6.179
TIME_PGA_S: 
BASELINE_CORRECTION: BASELINE REMOVED
FILTER_TYPE: BUTTERWORTH
FILTER_ORDER: 
LOW_CUT_FREQUENCY_HZ: 
HIGH_CUT_FREQUENCY_HZ: 
LATE/NORMAL_TRIGGERED: 
DATABASE_VERSION: 
HEADER_FORMAT: DYNA 1.2
DATA_TYPE: Acceleration
PROCESSING: Automatic Paolucci et al., 2011
DATA_TIMESTAMP_YYYYMMDD_HHMMSS: 
DATA_LICENSE: U (unknown license)
DATA_CITATION: Turkish Accelerometric Archive v 1.0 - Disaster And Emergency Management Presidency, Earthquake Department
DATA_CREATOR: AFAD
ORIGINAL_DATA_MEDIATOR_CITATION: : AFAD - Disaster And Emergency Management Presidency
ORIGINAL_DATA_MEDIATOR: AFAD PROCESS SERVICE
ORIGINAL_DATA_CREATOR_CITATION: AFAD PROCESS SERVICE
ORIGINAL_DATA_CREATOR: network: TK
USER1: GuestUser
USER2: 
USER3: 
USER4: 
USER5: 
[...]
-0.489382
-0.583347
-0.643798
-0.688902
-0.748100
-0.820454
-0.897505
-0.929141
-0.952319
-0.985834
-0.993352
-0.967669
-0.941673
-0.935723
-0.906908
-0.855228
-0.803235
-0.771915
-0.741534
-0.692360
-0.647884
-0.602782
-0.537634
-0.469354
-0.406085
-0.331854
-0.213460
-0.099137
-0.021148
0.081899
0.178995
0.271392
0.373499
0.436455
0.499097
0.577087
0.612479
0.615297
0.662905
0.706754
0.703622
0.731497
0.791007
0.835169
0.862418
0.925687
1.021843
1.078847
1.119251
1.206637
1.283687
1.299974
1.340691
1.428703
1.467854
1.451253
1.497295
1.568707
1.552732
1.524856
1.552731
1.588437
1.579979
1.563691
1.609420
1.684277
1.723741
1.759447
1.847460
1.945182
1.978695
2.007510
2.060756
2.075789
2.045407
2.013771
2.015336
1.973678
1.918865
1.891928
1.850583
1.786060
1.707442
1.600635
1.452797
1.293370
1.129871
0.957916
0.797236
0.693248
0.633737
0.577044
0.546348
0.559189
0.566706
0.525361
0.486208
0.453006
0.388484
0.316130
0.229995
0.191156
0.149811
0.084975
0.004791
-0.024652
-0.025905
-0.113919
-0.158710
-0.184707
-0.225113
-0.248918
-0.253617
-0.222923
-0.149631
-0.068823
-0.002109
0.065545
0.117224
0.166398
0.197093
0.214945
0.263806
0.288549
0.308281
0.374368
0.421350
0.429806
0.454862
0.487749
0.499650
0.502782
0.530031
0.605828
0.677553
0.731112
0.799705
0.877068
0.902751
0.898366
0.902437
0.909013
0.904314
0.895857
0.903373
0.936260
0.973845
0.989192
1.004538
0.999839
0.986370
0.970396
0.905560
0.821617
0.788416
0.743939
0.673151
0.664381
0.684426
0.665319
0.669390
0.708541
0.707600
0.699143
0.717935
0.732655
0.699767
0.644640
0.610499
0.605800
0.555685
0.461407
0.446372
0.423193
0.285691
0.149129
0.048273
-0.108961
-0.305661
-0.475737
-0.640489
-0.828731
-0.990038
-1.111879
-1.253766
-1.412566
-1.517494
-1.601123
-1.707303
-1.780283
-1.772140
-1.741759
-1.724220
-1.660012
-1.550388
-1.445148
-1.367785
-1.287290
-1.167956
-1.044863
-0.955598
-0.875416
-0.756708
-0.656793
-0.622027
-0.590080
-0.580371
-0.646147
-0.762037
-0.883878
-1.037981
-1.219959
-1.385964
-1.512503
-1.619623
-1.690724
-1.688219
-1.670993
-1.669114
-1.649382
-1.638107
-1.628085
-1.541952
-1.483695
-1.466782
-1.365928
-1.235005
-1.117550
-0.995397
-0.855391
-0.712879
-0.613278
-0.559093
-0.518689
-0.468262
-0.454794
-0.483924
-0.523077
-0.559097
-0.561290
-0.546883
-0.577266
-0.601697
-0.583845
-0.643043
-0.760813
-0.808735
-0.848514
-0.965031
-1.042082
-1.046155
-1.086560
-1.160793
-1.182405
-1.189610
-1.267601
-1.369397
-1.452086
-1.519115
-1.629054
-1.774386
-1.876182
-1.972026
-2.086977
-2.202867
-2.297145
-2.358536
-2.425565
-2.472547
-2.494473
-2.519218
-2.496041
-2.427134
-2.409282
-2.382973
-2.268650
-2.157147
-2.074772
-1.979242
-1.854270
-1.734936
-1.648490
-1.578331
-1.503786
-1.468707
-1.423292
-1.345615
-1.314608
-1.275144
-1.184312
-1.110081
-1.086591
-1.062474
-1.031780
-0.998893
-0.951912
-0.919025
-0.901799
-0.835398
-0.747699
-0.651229
-0.529703
-0.372783
-0.162617
0.030322
0.191627
0.379868
0.597238
0.773891
0.903247
1.013498
1.071755
1.112159
1.160393
1.173235
1.198291
1.242140
1.240573
1.218648
1.203299
1.146293
1.055147
0.922970
0.754460
0.567157
0.345713
0.111428
-0.109076
-0.318304
-0.520954
-0.671298
-0.792826
-0.910909
-1.017402
-1.132353
-1.258892
-1.362254
-1.428343
-1.476265
-1.517610
-1.508528
-1.477521
-1.443694
-1.376980
-1.273933
-1.162430
-1.074730
-0.997680
-0.923449
-0.830739
-0.739594
-0.640619
-0.527863
-0.392555
-0.282304
-0.170174
-0.041443
0.059098
0.125812
0.170914
0.224473
0.249529
0.255166
0.292438
0.364163
0.404880
0.434322
0.499783
0.578712
0.644173
0.736571
0.857784
0.947989
1.009378
1.090500
1.170056
1.209833
1.222361
1.194171
1.129961
1.060740
0.989640
0.932634
0.906010
0.897866
0.884397
0.843365
0.816741
0.807657
0.783225
0.728725
0.690825
0.671719
0.621604
0.575873
0.566476
0.571800
0.574932
0.578376
0.580568
0.596541
0.619718
0.596226
0.521054
0.485973
0.488165
0.435857
0.359119
0.334374
0.335940
0.315580
0.312760
0.342515
0.360681
0.352849
0.348777
0.382603
0.423634
0.457773
0.516030
0.601224
0.681406
0.742482
0.795415
0.845528
0.893136
0.928842
0.954525
0.935105
0.907854
0.898770
0.882796
0.838631
0.779120
0.735896
0.669493
0.599959
0.510692
0.384466
0.269515
0.168346
0.059660
-0.061555
-0.194985
-0.311188
-0.396696
-0.470303
-0.509455
-0.494735
-0.486592
-0.494423
-0.474065
-0.432408
-0.383861
-0.352227
-0.315582
-0.263589
-0.215354
-0.137991
-0.032439
0.052442
0.138888
0.245380
0.360016
0.455233
0.542932
0.660387
0.789430
0.899994
0.980803
1.064743
1.167477
1.254550
1.307482
1.346633
1.390796
1.440596
1.479434
1.524849
1.580914
1.622258
1.624136
1.599391
1.557420
1.488512
1.392354
1.275525
1.126434
0.984234
0.854249
0.729275
0.646899
0.591146
0.548235
0.533513
0.550426
0.607744
0.702020
0.784395
0.860819
0.934737
0.999571
1.029952
1.099798
1.135191
1.159621
1.247007
1.310275
1.356630
1.463123
1.605321
1.676420
1.843989
2.027845
2.093933
2.179126
2.297208
2.324770
2.306289
2.308794
2.307227
2.286241
2.232681
2.191022
2.145292
2.068554
1.966759
1.842412
1.694574
1.534520
1.368516
1.167431
0.934712
0.732688
0.538494
0.330832
0.129121
-0.059748
-0.242353
-0.419946
-0.591902
-0.765423
-0.930488
-1.085843
-1.218334
-1.320756
-1.401566
-1.466715
-1.514638
-1.540009
-1.558802
-1.606725
-1.660599
-1.688162
-1.720424
-1.781188
-1.842579
-1.858554
-1.860434
-1.890503
-1.882361
-1.819092
-1.766786
-1.715733
-1.639936
-1.569463
-1.494919
-1.388113
-1.280055
-1.174503
-1.035436
-0.889792
-0.757303
-0.616984
-0.461943
-0.321311
-0.211060
-0.110832
-0.021254
0.055170
0.125956
0.208330
0.288513
0.345830
0.408785
0.451695
0.453574
0.456392
0.447308
0.418178
0.381531
0.328284
0.256870
0.197985
0.157580
0.089298
-0.004041
-0.067937
-0.112727
-0.163156
-0.199176
-0.230498
-0.281240
-0.354533
-0.427199
-0.481386
-0.539332
-0.645825
-0.752946
-0.827805
-0.919577
-1.021686
-1.100304
-1.159815
-1.222772
-1.292933
-1.354637
-1.418220
-1.487441
-1.564493
-1.658145
-1.733943
-1.823210
-1.925632
-2.013333
-2.094770
-2.176519
-2.250752
-2.312456
-2.384496
-2.475642
-2.551128
-2.615964
-2.690823
-2.762863
-2.837409
-2.896294
-2.951734
-3.011245
-3.058228
-3.070444
-3.067626
-3.066687
-3.040691
-2.995276
-2.932947
-2.837730
-2.765065
-2.713073
-2.634143
-2.579958
-2.550830
-2.494452
-2.454361
-2.439954
-2.400490
-2.375120
-2.375121
-2.342547
-2.289928
-2.268004
-2.230732
-2.167150
-2.107640
-2.060346
-2.013991
-1.936314
-1.838592
-1.762168
-1.661941
-1.506587
-1.373158
-1.262281
-1.133864
-0.997616
-0.891751
-0.806244
-0.693174
-0.560685
-0.478311
-0.423812
-0.329848
-0.237138
-0.181699
-0.135971
-0.085231
-0.049212
-0.066753
-0.107785
-0.139420
-0.188909
-0.251552
-0.296656
-0.330797
-0.376840
-0.424450
-0.474565
-0.551616
-0.669386
-0.783084
-0.918080
-1.094733
-1.296444
-1.474664
-1.640042
-1.826406
-1.987399
-2.109866
-2.242983
-2.372655
-2.456910
-2.547117
-2.641395
-2.708424
-2.751022
-2.814918
-2.845927
-2.839037
-2.827449
-2.829329
-2.779842
-2.674290
-2.563412
-2.455041
-2.304699
-2.117397
-1.978957
-1.800739
-1.630664
-1.513836
-1.406091
-1.309308
-1.258882
-1.218791
-1.188097
-1.150512
-1.068450
-0.991713
-0.883655
-0.740830
-0.606775
-0.465829
-0.295128
-0.120982
0.059116
0.248610
0.431213
0.613817
0.797360
0.997503
1.180419
1.320739
1.472334
1.616725
1.730734
1.837853
1.944658
2.024214
2.078086
2.143860
2.219658
2.284492
2.340244
2.380648
2.422618
2.461769
2.487765
2.516580
2.538504
2.553537
2.563560
2.579220
2.575147
2.551968
2.524405
2.506864
2.496840
2.504043
2.530353
2.560421
2.603957
2.648432
2.690715
2.735504
2.784365
2.805037
2.824142
2.852017
2.867364
2.901504
2.927813
2.945665
2.962578
2.956626
2.933134
2.874249
2.794379
2.709497
2.625555
2.534095
2.429481
2.340840
2.263476
2.182666
2.104674
2.028562
1.946813
1.860991
1.767339
1.680891
1.611044
1.545268
1.481998
1.445977
1.441278
1.453180
1.479176
1.502666
1.519892
1.546828
1.568126
1.574076
1.593808
1.633272
1.654257
1.687770
1.765133
1.817126
1.851266
1.916727
1.981874
2.010689
2.026663
2.050779
2.059235
2.021962
1.990953
1.994084
2.001288
2.001287
1.986252
1.979360
1.959627
1.920161
1.872552
1.821184
1.766057
1.682428
1.598173
1.521435
1.463489
1.445322
1.426528
1.398651
1.389568
1.402409
1.394264
1.372652
1.377349
1.374843
1.346966
1.325353
1.327858
1.329110
1.316268
1.308750
1.321904
1.324409
1.309687
1.300290
1.284002
1.262703
1.237645
1.216659
1.196612
1.174060
1.153387
1.137099
1.149940
1.172178
1.196608
1.261755
1.357598
1.448743
1.524227
1.597832
1.684591
1.764147
1.801732
1.797033
1.783564
1.764457
1.694609
1.629773
1.597198
1.551468
1.491957
1.428060
1.366983
1.311230
1.258922
1.189388
1.114215
1.020877
0.899975
0.781892
0.665063
0.549173
0.420754
0.298913
0.195864
0.101273
0.006994
-0.075382
-0.131448
-0.188454
-0.261747
-0.350387
-0.431510
-0.514826
-0.604093
-0.699311
-0.783253
-0.838693
-0.887869
-0.926395
-0.935792
-0.921698
-0.925144
-0.962417
-0.994993
-1.028507
-1.089898
-1.157240
-1.215499
-1.263108
-1.305706
-1.341413
-1.372735
-1.383385
-1.376182
-1.363028
-1.339224
-1.312289
-1.291617
-1.273765
-1.248395
-1.215822
-1.186067
-1.148795
-1.113403
-1.086467
-1.057339
-1.041992
-1.006600
-0.955547
-0.917962
-0.873173
-0.792677
-0.683993
-0.568104
-0.432796
-0.286212
-0.143074
-0.013091
0.095594
0.189244
0.266294
0.325491
0.361823
0.387193
0.421332
0.449521
0.474264
0.473950
0.451085
0.411619
0.333628
0.202390
0.042650
-0.122728
-0.309092
-0.506418
-0.703430
-0.867555
-1.028235
-1.187036
-1.335813
-1.497746
-1.671268
-1.856065
-2.034285
-2.216263
-2.404819
-2.553910
-2.686087
-2.814506
-2.917868
-2.991474
-3.035951
-3.082307
-3.131170
-3.171888
-3.192561
-3.211042
-3.240485
-3.261784
-3.250822
-3.216369
-3.191939
-3.172834
-3.121468
-3.073233
-3.038154
-3.007773
-2.957973
-2.884994
-2.828617
-2.791345
-2.738412
-2.666061
-2.616260
-2.581494
-2.565834
-2.550174
-2.551115
-2.572101
-2.606868
-2.646334
-2.686426
-2.731530
-2.767864
-2.794174
-2.806704
-2.812969
-2.806392
-2.774758
-2.737800
-2.705853
-2.636946
-2.547054
-2.478774
-2.413626
-2.322169
-2.216929
-2.143011
-2.100102
-2.042471
-1.977010
-1.935353
-1.909984
-1.865508
-1.822285
-1.791278
-1.774678
-1.750561
-1.689798
-1.631541
-1.591451
-1.528808
-1.447687
-1.382852
-1.328353
-1.273855
-1.215284
-1.168929
-1.132911
-1.117251
-1.088436
-1.054609
-1.042081
-1.028614
-0.985704
-0.936217
-0.919304
-0.909909
-0.869818
-0.835992
-0.840377
-0.833174
-0.810310
-0.814696
-0.822527
-0.791520
-0.749863
-0.698496
-0.628337
-0.528423
-0.412847
-0.301030
-0.202369
-0.097756
-0.012249
0.065741
0.127443
0.172232
0.222972
0.258678
0.264315
0.253978
0.245834
0.203549
0.129003
0.036917
-0.064878
-0.180768
-0.301356
-0.439172
-0.551303
-0.666880
-0.765543
-0.843535
-0.913695
-1.007034
-1.074063
-1.137959
-1.287363
-1.369426
-1.469969
-1.651321
-1.808555
-1.937287
-2.124590
-2.313460
-2.456913
-2.582826
-2.710618
-2.830267
-2.887899
-2.931436
-3.001597
-3.050146
-3.052966
-3.077711
-3.142234
-3.181073
-3.192976
-3.248729
-3.302916
-3.302916
-3.292268
-3.297906
-3.271284
-3.225555
-3.202378
-3.193922
-3.183900
-3.200501
-3.256881
-3.330174
-3.429150
-3.548799
-3.653413
-3.745186
-3.837898
-3.905553
-3.957234
-3.996387
-4.046502
-4.070620
-4.074380
-4.091294
-4.115726
-4.142036
-4.144856
-4.143604
-4.155820
-4.163025
-4.142980
-4.133584
-4.137343
-4.133586
-4.120118
-4.096628
-4.071258
-4.061863
-4.047455
-4.017388
-3.998282
-3.969154
-3.923426
-3.871120
-3.827897
-3.786866
-3.727670
-3.664401
-3.575136
-3.471149
-3.365910
-3.250334
-3.127868
-2.992874
-2.865709
-2.743870
-2.622030
-2.506455
-2.396204
-2.269353
-2.124648
-1.973680
-1.820519
-1.658901
-1.478490
-1.302777
-1.136774
-0.980168
-0.834837
-0.720201
-0.620600
-0.513794
-0.433925
-0.376921
-0.326181
-0.277007
-0.235351
-0.212173
-0.189623
-0.172083
-0.167073
-0.182421
-0.207792
-0.222201
-0.239742
-0.267305
-0.273884
-0.250393
-0.205291
-0.143902
-0.068418
0.032436
0.150831
0.279874
0.411737
0.553309
0.705217
0.845224
0.969256
1.085458
1.192263
1.278709
1.354193
1.430304
1.481983
1.529278
1.581897
1.626060
1.673354
1.713445
1.750090
1.780785
1.808347
1.828079
1.833716
1.848436
1.861590
1.847182
1.823377
1.811787
1.803956
1.769188
1.721892
1.691823
1.655489
1.591906
1.530202
1.478834
1.416816
1.351354
1.291216
1.238282
1.187227
1.143690
1.104850
1.070709
1.047530
1.021533
0.993656
0.963273
0.933831
0.897497
0.848635
0.806663
0.759993
0.710818
0.671352
0.638464
0.610900
0.587722
0.577698
0.567988
0.556085
0.560156
0.559842
0.558588
0.574874
0.600871
0.633757
0.671029
0.735237
0.827008
0.922225
1.022453
1.149617
1.292755
1.410210
1.535495
1.674562
1.801413
1.918867
2.046658
2.182906
2.306625
2.441933
2.590395
2.755459
2.929292
3.099367
3.275079
3.462694
3.632456
3.797832
3.988579
4.164918
4.334680
4.507886
4.687044
4.869961
5.043168
5.211050
5.384257
5.556211
5.698409
5.825887
5.939896
6.030415
6.095249
6.143797
6.172925
6.179188
6.172610
6.149431
6.108086
6.064862
6.026649
5.999085
5.975280
5.959306
5.967135
5.968074
5.974024
5.979662
5.974649
5.974335
5.974961
5.956167
5.938313
5.944890
5.953033
5.946768
5.953658
5.969631
5.969004
5.953342
5.936741
5.913249
5.903226
5.875349
5.818343
5.783262
5.749748
5.684911
5.607860
5.584055
5.494162
5.409593
5.363863
5.277728
5.213205
5.160271
5.107024
5.073196
5.050957
5.010865
5.007732
5.003033
4.967326
4.928486
4.886828
4.830135
4.760601
4.680417
4.602113
4.531952
4.447070
4.365007
4.282944
4.202447
4.116313
4.010132
3.907084
3.803096
3.688459
3.569123
3.456052
3.351437
3.237740
3.124042
3.023186
2.932667
2.834943
2.718113
2.593766
2.466600
2.320955
2.176875
2.049709
1.927555
1.807280
1.708617
1.633758
1.566416
1.510663
1.455849
1.399157
1.336200
1.253824
1.169568
1.075603
0.971928
0.867314
0.747352
0.628643
0.509308
0.380889
0.230545
0.084273
-0.060746
-0.216414
-0.376468
-0.529317
-0.673083
-0.808706
-0.926475
-1.042052
-1.152618
-1.251281
-1.314551
-1.385965
-1.473979
-1.546332
-1.602085
-1.667548
-1.745539
-1.797220
-1.839505
-1.884922
-1.931905
-1.986092
-2.038712
-2.096031
-2.167758
-2.243870
-2.313718
-2.407683
-2.523260
-2.626935
-2.721839
-2.831778
-2.950174
-3.056355
-3.145308
-3.232696
-3.335118
-3.430023
-3.514591
-3.599160
-3.694065
-3.779260
-3.849734
-3.918642
-3.982225
-4.031714
-4.058651
-4.068675
-4.073061
-4.059280
-4.029838
-3.994446
-3.940261
-3.880751
-3.819048
-3.759538
-3.710677
-3.676538
-3.640206
-3.601055
-3.570674
-3.548436
-3.519934
-3.488614
-3.467942
-3.451029
-3.422841
-3.394966
-3.384630
-3.383065
-3.394968
-3.402173
-3.411257
-3.424412
-3.429425
-3.420968
-3.400297
-3.373048
-3.337969
-3.303203
-3.280026
-3.244007
-3.191388
-3.140961
-3.089281
-3.021941
-2.939879
-2.858444
-2.777636
-2.693695
-2.593467
-2.515164
-2.453149
-2.400529
-2.353548
-2.334129
-2.326300
-2.305002
-2.298425
-2.277754
-2.257709
-2.242362
-2.215740
-2.189744
-2.190997
-2.201021
-2.198829
-2.207913
-2.227333
-2.239862
-2.233286
-2.222324
-2.232034
-2.230469
-2.215122
-2.213870
-2.217630
-2.222015
-2.222016
-2.233293
-2.253965
-2.264302
-2.257099
-2.245824
-2.234549
-2.196338
-2.150922
-2.108013
-2.057586
-2.005906
-1.944517
-1.878743
-1.830195
-1.788852
-1.741870
-1.691757
-1.649787
-1.612202
-1.557390
-1.502578
-1.452152
-1.402351
-1.336577
-1.271116
-1.215051
-1.132677
-1.032449
-0.930655
-0.822910
-0.707334
-0.587061
-0.470546
-0.365933
-0.270716
-0.192413
-0.128518
-0.084982
-0.062118
-0.023594
0.026833
0.075067
0.120483
0.172475
0.232925
0.260174
0.272702
0.286169
0.283663
0.249835
0.202539
0.166205
0.112958
0.056892
0.005837
-0.059312
-0.131353
-0.199321
-0.277312
-0.360315
-0.449268
-0.543233
-0.649414
-0.752462
-0.842042
-0.946344
-1.034358
-1.088545
-1.142418
-1.200677
-1.247033
-1.285873
-1.321893
-1.350710
-1.372949
-1.386418
-1.369818
-1.345388
-1.324403
-1.298721
-1.258317
-1.210396
-1.175003
-1.149634
-1.114241
-1.076030
-1.054105
-1.034060
-1.015895
-0.996476
-0.999609
-1.015897
-1.030619
-1.038137
-1.073844
-1.106419
-1.114563
-1.132731
-1.160921
-1.184413
-1.181594
-1.183474
-1.178151
-1.159358
-1.124906
-1.075418
-1.031256
-0.987720
-0.913802
-0.840511
-0.805745
-0.781941
-0.746549
-0.737466
-0.785389
-0.841768
-0.891570
-0.963297
-1.065719
-1.165635
-1.235169
-1.305643
-1.382382
-1.435629
-1.473529
-1.504224
-1.536173
-1.559038
-1.555594
-1.539934
-1.537116
-1.534298
-1.527408
-1.523963
-1.550900
-1.592872
-1.617303
-1.656769
-1.716594
-1.780803
-1.828726
-1.859422
-1.885106
-1.899202
-1.876651
-1.837813
-1.804926
-1.773606
-1.727564
-1.665235
-1.611050
-1.569080
-1.505811
-1.435965
-1.372383
-1.309115
-1.244906
-1.166604
-1.101769
-1.050089
-1.003421
-0.953307
-0.896303
-0.856526
-0.824579
-0.771020
-0.730929
-0.706186
-0.679563
-0.647929
-0.632896
-0.637595
-0.637282
-0.635717
-0.639790
-0.656078
-0.667041
-0.660151
-0.649502
-0.646684
-0.634783
-0.599390
-0.557107
-0.528605
-0.491020
-0.441533
-0.412405
-0.396119
-0.367304
-0.337862
-0.318131
-0.309361
-0.304037
-0.299340
-0.294016
-0.297462
-0.305920
-0.294645
-0.295585
-0.316571
-0.335365
-0.344762
-0.360424
-0.382349
-0.402083
-0.417431
-0.434032
-0.451260
-0.470680
-0.470367
-0.471621
-0.491041
-0.497619
-0.492295
-0.484466
-0.483840
-0.465048
-0.425584
-0.377976
-0.325670
-0.268665
-0.198193
-0.120203
-0.057874
-0.003689
0.053315
0.095912
0.104054
0.104680
0.107498
0.086199
0.050492
0.036083
0.034516
0.035455
0.058945
0.102795
0.157920
0.213984
0.288529
0.358062
0.425402
0.504018
0.578562
0.647155
0.719507
0.793738
0.875800
0.955982
1.025828
1.103818
1.182434
1.234427
1.280155
1.341231
1.376311
1.400427
1.429869
1.459310
1.484680
1.497834
1.510362
1.515372
1.504409
1.485302
1.466822
1.457111
1.445522
1.436125
1.436750
1.444893
1.453349
1.451782
1.452095
1.467441
1.466188
1.439564
1.418891
1.398218
1.364077
1.322732
1.289217
1.248812
1.201829
1.152653
1.096274
1.036136
0.975998
0.920558
0.874515
0.831917
0.774911
0.720411
0.681885
0.643046
0.592304
0.531540
0.465137
0.409698
0.354884
0.290361
0.244631
0.224585
0.211116
0.179794
0.161626
0.174468
0.163504
0.150662
0.167261
0.182295
0.182607
0.179788
0.186051
0.175401
0.154102
0.129670
0.100227
0.057003
0.007514
-0.042601
-0.094282
-0.140952
-0.174780
-0.201090
-0.208922
-0.191695
-0.160062
-0.119658
-0.074556
-0.015359
0.047910
0.110239
0.162545
0.227379
0.285950
0.335124
0.377094
0.430026
0.461660
0.488596
0.511460
0.541528
0.575041
0.589135
0.640814
0.652402
0.700010
0.752943
0.791781
0.865072
0.921450
0.962793
