EVENT_NAME: 202302060117
EVENT_ID: 13194
EVENT_DATE_YYYYMMDD: 2023/02/06
EVENT_TIME_HHMMSS: 01:17:32.00000
EVENT_LATITUDE_DEGREE: 37.288
EVENT_LONGITUDE_DEGREE: 37.043
EVENT_DEPTH_KM: 8.6
HYPOCENTER_REFERENCE: AFAD
MAGNITUDE_W: 7.7
MAGNITUDE_W_REFERENCE: AFAD
MAGNITUDE_L: 
MAGNITUDE_L_REFERENCE: 
FOCAL_MECHANISM: 
NETWORK: TK
STATION_CODE: 2413
STATION_NAME: 
STATION_LATITUDE_DEGREE: 39.80771
STATION_LONGITUDE_DEGREE: 40.03856
STATION_ELEVATION_M: 1522.0
LOCATION: Kahramanmaras_Pazarck_Turkiye
SENSOR_DEPTH_M: 
VS30_M/S: 435
SITE_CLASSIFICATION_EC8: B
MORPHOLOGIC_CLASSIFICATION: 
EPICENTRAL_DISTANCE_KM: 382.53
EARTHQUAKE_BACKAZIMUTH_DEGREE: 
DATE_TIME_FIRST_SAMPLE_YYYYMMDD_HHMMSS: 2023/02/06 01:18:00.7985860
DATE_TIME_FIRST_SAMPLE_PRECISION: millisecond
SAMPLING_INTERVAL_S: 0.01
NDATA: 21001
DURATION_S: 
STREAM: HNZ
UNITS: cm/s^2
INSTRUMENT: sensor = ACEBOX/SARA | digitizer = 
INSTRUMENT_ANALOG/DIGITAL: 
INSTRUMENTAL_FREQUENCY_HZ: 
INSTRUMENTAL_DAMPING: 
FULL_SCALE_G: 
N_BIT_DIGITAL_CONVERTER: 
PGA_CM/S^2: 19.351
TIME_PGA_S: 
BASELINE_CORRECTION: BASELINE REMOVED
FILTER_TYPE: BUTTERWORTH
FILTER_ORDER: 
LOW_CUT_FREQUENCY_HZ: 
HIGH_CUT_FREQUENCY_HZ: 
LATE/NORMAL_TRIGGERED: 
DATABASE_VERSION: 
HEADER_FORMAT: DYNA 1.2
DATA_TYPE: Acceleration
PROCESSING: Automatic Paolucci et al., 2011
DATA_TIMESTAMP_YYYYMMDD_HHMMSS: 
DATA_LICENSE: U (unknown license)
DATA_CITATION: Turkish Accelerometric Archive v 1.0 - Disaster And Emergency Management Presidency, Earthquake Department
DATA_CREATOR: AFAD
ORIGINAL_DATA_MEDIATOR_CITATION: : AFAD - Disaster And Emergency Management Presidency
ORIGINAL_DATA_MEDIATOR: AFAD PROCESS SERVICE
ORIGINAL_DATA_CREATOR_CITATION: AFAD PROCESS SERVICE
ORIGINAL_DATA_CREATOR: network: TK
USER1: GuestUser
USER2: 
USER3: 
USER4: 
USER5: 
[...]
-0.242536
-0.298180
-0.368786
-0.457161
-0.538522
-0.611233
-0.681138
-0.735145
-0.785645
-0.831235
-0.863966
-0.892021
-0.896463
-0.888514
-0.868407
-0.803878
-0.736544
-0.672484
-0.587849
-0.525892
-0.456922
-0.356155
-0.264272
-0.170753
-0.095002
-0.039592
0.052291
0.149317
0.243304
0.372828
0.475933
0.518251
0.555191
0.626032
0.749711
0.908694
1.022553
1.040790
1.042660
1.098772
1.117710
1.089655
1.118178
1.130804
1.068146
1.005255
0.921556
0.833181
0.792968
0.713945
0.585123
0.474538
0.351327
0.208243
0.066796
-0.086575
-0.211656
-0.275716
-0.318968
-0.357778
-0.395185
-0.455738
-0.514889
-0.530319
-0.516992
-0.502263
-0.487065
-0.487299
-0.498521
-0.468127
-0.398922
-0.343045
-0.322470
-0.329717
-0.349356
-0.361513
-0.342341
-0.317325
-0.328547
-0.366655
-0.433755
-0.531715
-0.620091
-0.667551
-0.691398
-0.718986
-0.737222
-0.762238
-0.795203
-0.789591
-0.769017
-0.744234
-0.705657
-0.689758
-0.689057
-0.689758
-0.676898
-0.647907
-0.639958
-0.628969
-0.602316
-0.595535
-0.577766
-0.534747
-0.511601
-0.496638
-0.457593
-0.422056
-0.393298
-0.355890
-0.344668
-0.356123
-0.348875
-0.334613
-0.346069
-0.385113
-0.434677
-0.483541
-0.512531
-0.511362
-0.502010
-0.491956
-0.472083
-0.446365
-0.414101
-0.373186
-0.321984
-0.255585
-0.172587
-0.092160
-0.028567
0.032455
0.084358
0.113115
0.124806
0.110311
0.094413
0.099089
0.074073
0.010013
-0.065036
-0.156450
-0.240149
-0.297663
-0.368503
-0.475348
-0.599494
-0.722004
-0.835161
-0.933356
-1.021263
-1.115483
-1.229576
-1.350682
-1.444201
-1.508027
-1.575828
-1.653916
-1.728965
-1.807053
-1.869710
-1.891686
-1.906182
-1.931899
-1.944991
-1.953641
-1.958551
-1.927455
-1.870876
-1.836508
-1.823181
-1.784604
-1.723115
-1.662327
-1.606215
-1.575821
-1.579796
-1.592888
-1.594524
-1.573482
-1.531164
-1.476689
-1.415434
-1.348568
-1.288248
-1.235643
-1.171582
-1.115471
-1.085778
-1.065437
-1.038784
-0.998571
-0.967241
-0.937783
-0.890088
-0.868812
-0.851978
-0.804984
-0.767343
-0.713803
-0.637818
-0.592929
-0.589889
-0.605787
-0.593395
-0.551078
-0.495434
-0.434646
-0.420618
-0.418279
-0.350244
-0.238489
-0.125798
-0.029941
0.065449
0.179308
0.318184
0.497040
0.679168
0.838852
1.002043
1.176222
1.371209
1.578354
1.776848
1.986799
2.199788
2.377708
2.530144
2.683516
2.837822
2.981140
3.107391
3.205586
3.278999
3.349606
3.405952
3.429799
3.420915
3.389587
3.376962
3.401044
3.441959
3.485913
3.505552
3.502046
3.502747
3.502981
3.509294
3.513503
3.492228
3.480538
3.472590
3.429104
3.399645
3.383981
3.351718
3.347276
3.309869
3.196945
3.124001
3.074670
2.969461
2.866357
2.767227
2.660382
2.607311
2.569670
2.489945
2.377723
2.226924
2.064435
1.915740
1.768916
1.634717
1.513610
1.400453
1.288230
1.146783
1.001128
0.894751
0.817130
0.749096
0.647394
0.494023
0.349771
0.252044
0.196634
0.165774
0.119482
0.060799
-0.001858
-0.080180
-0.136525
-0.147279
-0.139330
-0.103792
-0.073398
-0.118521
-0.194738
-0.253421
-0.309298
-0.339458
-0.370085
-0.423390
-0.462668
-0.509894
-0.570681
-0.636612
-0.693892
-0.684306
-0.635442
-0.586110
-0.531869
-0.515503
-0.517373
-0.489551
-0.414034
-0.303915
-0.230736
-0.177430
-0.110330
-0.072688
-0.031773
0.014987
0.011480
0.002596
0.011013
0.002597
-0.006053
-0.010027
-0.020314
-0.031069
-0.055383
-0.078295
-0.069410
-0.050472
-0.035977
-0.024286
-0.032001
-0.046029
-0.046496
-0.037378
-0.022180
-0.002074
0.040478
0.120671
0.204371
0.248559
0.252300
0.220504
0.185201
0.232194
0.350496
0.427649
0.423909
0.366629
0.320571
0.336236
0.357746
0.334366
0.290179
0.231730
0.167436
0.104545
-0.003937
-0.136499
-0.224173
-0.316523
-0.457034
-0.571828
-0.628875
-0.643837
-0.606196
-0.570190
-0.569956
-0.532081
-0.473164
-0.443705
-0.392737
-0.333819
-0.292203
-0.244274
-0.216218
-0.189799
-0.121764
-0.002527
0.159729
0.292292
0.401710
0.560459
0.707284
0.789113
0.832600
0.834938
0.834471
0.845226
0.805714
0.747967
0.726692
0.728562
0.738616
0.688116
0.579167
0.522822
0.514873
0.510899
0.480506
0.387221
0.304925
0.270557
0.222161
0.125837
-0.029170
-0.174358
-0.258057
-0.324455
-0.374721
-0.426858
-0.506582
-0.579293
-0.636339
-0.669538
-0.671875
-0.674447
-0.713958
-0.809113
-0.869900
-0.830622
-0.788304
-0.793681
-0.815658
-0.847922
-0.886498
-0.943778
-1.032620
-1.157000
-1.282315
-1.352688
-1.421891
-1.529672
-1.628801
-1.728632
-1.844128
-1.966871
-2.086107
-2.172378
-2.226385
-2.238075
-2.194822
-2.137073
-2.041918
-1.872414
-1.728629
-1.650072
-1.544629
-1.432406
-1.323924
-1.160733
-1.033080
-0.953588
-0.812140
-0.649183
-0.503761
-0.374471
-0.297785
-0.210345
-0.066559
0.084708
0.218207
0.304478
0.334639
0.389815
0.517936
0.631562
0.671074
0.696792
0.696793
0.653774
0.642552
0.619407
0.541553
0.497599
0.500171
0.505549
0.498068
0.449906
0.357556
0.289288
0.317578
0.356856
0.274326
0.137789
0.076534
0.098278
0.139426
0.148077
0.140596
0.168418
0.233414
0.266847
0.246507
0.261471
0.340261
0.394970
0.376032
0.307998
0.284151
0.397075
0.598843
0.771619
0.861865
0.927095
1.025524
1.090286
1.098469
1.105250
1.127929
1.226358
1.356817
1.363597
1.290419
1.265871
1.310293
1.397499
1.444493
1.410593
1.389785
1.444026
1.571914
1.708218
1.720843
1.686943
1.771110
1.877956
1.907883
1.909519
1.946226
2.052838
2.114561
2.024315
1.900169
1.882167
2.019874
2.233565
2.258348
2.042787
1.929864
2.100302
2.289678
2.187977
1.855050
1.675728
1.812499
1.943660
1.811331
1.567247
1.440062
1.485886
1.538024
1.430477
1.272898
1.139166
1.005201
0.937868
0.823074
0.667599
0.732127
0.824010
0.650533
0.342856
0.030971
-0.110009
0.096201
0.410191
0.504645
0.292358
-0.098785
-0.302889
-0.111643
0.236481
0.435443
0.416038
0.305920
0.227832
0.162837
0.161668
0.297973
0.456020
0.517743
0.371620
0.067684
0.005260
0.208664
0.250514
0.041500
-0.225496
-0.324392
-0.134315
0.081714
-0.002219
-0.294699
-0.439653
-0.317376
-0.169850
-0.163537
-0.191592
-0.144131
-0.097605
-0.185513
-0.388448
-0.538779
-0.502307
-0.366704
-0.337011
-0.412060
-0.433803
-0.355948
-0.304746
-0.385406
-0.462091
-0.371845
-0.257985
-0.310823
-0.506745
-0.773273
-0.959843
-0.878949
-0.659179
-0.594885
-0.752697
-1.052659
-1.308900
-1.273363
-1.057334
-1.030213
-1.265880
-1.516277
-1.542929
-1.425563
-1.389324
-1.454553
-1.580336
-1.728329
-1.895026
-2.071309
-2.137941
-2.162957
-2.216730
-2.374309
-2.836292
-3.188858
-3.112406
-3.097910
-3.211067
-3.220185
-3.309261
-3.560359
-3.859853
-4.055775
-4.025849
-3.817067
-3.649201
-3.809351
-4.224575
-4.496247
-4.406702
-4.060682
-3.834600
-3.987269
-4.322066
-4.541368
-4.590933
-4.632081
-4.768384
-4.879437
-4.873124
-4.856992
-4.970150
-5.165370
-5.205817
-5.007322
-4.832909
-4.908425
-5.102944
-5.213764
-5.181032
-4.955651
-4.624828
-4.416748
-4.322293
-4.256362
-4.305693
-4.312473
-4.008536
-3.580219
-3.327718
-3.256643
-3.265527
-3.258279
-3.126417
-2.825519
-2.487682
-2.269783
-2.149143
-2.104253
-2.058429
-1.787457
-1.433254
-1.346515
-1.364751
-1.226109
-1.050994
-0.927549
-0.829354
-0.731860
-0.659382
-0.694452
-0.679021
-0.482865
-0.266835
-0.095462
-0.027193
-0.091486
-0.062729
0.165691
0.413049
0.506334
0.501191
0.475006
0.416791
0.452563
0.572033
0.605233
0.601960
0.617391
0.575775
0.484595
0.475243
0.596818
0.746916
0.817056
0.684259
0.535097
0.666959
0.832956
0.883456
0.977443
1.037997
1.071664
1.109306
1.102760
1.189031
1.337025
1.416984
1.471693
1.547210
1.704322
1.838522
1.743367
1.618987
1.783815
2.146902
2.390753
2.373920
2.313367
2.474687
2.753140
2.903940
2.833099
2.665000
2.703576
2.891316
2.881263
2.763196
2.748934
2.860924
3.166965
3.409179
3.201100
2.748702
2.503449
2.562601
2.723220
2.727662
2.399177
1.910074
1.729349
1.857470
1.822401
1.563120
1.378654
1.348495
1.360886
1.286773
1.050171
0.801644
0.720751
0.701814
0.659730
0.606893
0.437624
0.183954
-0.053350
-0.270080
-0.335309
-0.247401
-0.260259
-0.437945
-0.658883
-0.883328
-1.015189
-0.890107
-0.658414
-0.673376
-0.942710
-1.193575
-1.225371
-1.043944
-0.892676
-0.997651
-1.315147
-1.603887
-1.665141
-1.565076
-1.528603
-1.566945
-1.512938
-1.426900
-1.489090
-1.742058
-2.121978
-2.318601
-2.160788
-2.014664
-2.127588
-2.422640
-2.763750
-2.900521
-2.773335
-2.598922
-2.596583
-2.937693
-3.467244
-3.759724
-3.669478
-3.326263
-3.060669
-3.235783
-3.637212
-3.862359
-3.834536
-3.572917
-3.453212
-3.712493
-3.898128
-3.822143
-3.663628
-3.529195
-3.556782
-3.623648
-3.463730
-3.138050
-3.084978
-3.434505
-3.527556
-3.171716
-2.839256
-2.511238
-2.228343
-2.141838
-2.015587
-2.024003
-2.253124
-2.020729
-1.167836
-0.514840
-0.642493
-1.194956
-1.450262
-1.022413
-0.202018
0.204322
-0.088158
-0.527696
-0.599004
-0.362869
-0.267947
-0.381104
-0.375025
-0.178869
0.117353
0.192636
-0.176062
-0.485376
-0.362866
-0.057760
0.184922
0.226538
0.017524
-0.208324
-0.129066
0.148218
0.187028
-0.030636
-0.140988
0.075508
0.544506
0.832544
0.647611
0.349754
0.307904
0.491669
0.771993
0.851718
0.654160
0.693672
1.030574
1.120820
1.006493
1.059800
1.302248
1.586779
1.584442
1.102352
0.582621
0.636395
1.134617
1.436917
1.288690
0.775038
0.404937
0.610913
0.847049
0.788366
0.543814
0.155711
0.119239
0.339476
0.349530
0.343685
0.276586
0.082768
0.056116
0.122748
-0.066627
-0.387163
-0.453327
-0.432986
-0.444676
-0.451923
-0.675433
-0.968147
-1.190254
-1.301541
-1.229765
-1.295462
-1.486240
-1.621842
-1.774745
-1.838805
-1.897722
-1.950560
-1.740375
-1.410721
-1.216201
-1.285405
-1.590042
-1.684730
-1.270675
-0.780635
-0.716341
-0.879531
-0.916237
-0.851942
-0.689219
-0.407493
-0.108466
0.223527
0.510864
0.465975
0.147778
0.132347
0.602046
0.955782
0.921648
0.834909
0.800542
0.825792
0.954147
0.991789
0.970046
1.138147
1.275152
1.044395
0.640159
0.403557
0.407999
0.567216
0.701649
0.606962
0.259072
-0.077128
-0.239851
-0.438578
-0.680792
-0.771271
-0.850294
-0.995482
-1.113549
-1.316718
-1.494638
-1.442968
-1.445540
-1.620654
-1.711133
-1.773322
-1.849306
-1.760463
-1.641460
-1.620184
-1.587452
-1.585114
-1.604285
-1.529235
-1.427299
-1.354588
-1.245638
-1.113776
-1.095072
-1.178304
-1.070055
-0.803526
-0.749986
-0.833451
-0.873898
-0.944504
-0.872962
-0.556634
-0.278415
-0.192845
-0.231187
-0.359308
-0.454930
-0.249188
0.144527
0.226122
-0.014455
-0.176242
-0.158941
-0.046250
0.079299
0.062232
-0.127143
-0.205231
0.048907
0.382068
0.522347
0.474653
0.262833
0.123958
0.303748
0.600905
0.819038
0.914428
0.719207
0.376461
0.373422
0.781866
1.252734
1.490740
1.288739
0.737446
0.332743
0.441693
0.920042
1.295287
1.288040
1.055412
0.928461
1.122279
1.452869
1.556909
1.505941
1.631023
1.992708
2.327272
2.369356
2.225805
2.291502
2.682178
3.008559
3.098337
3.253345
3.489247
3.594456
3.577857
3.548633
3.686807
4.016462
4.200227
3.981159
3.602174
3.501408
3.748999
4.071172
4.082161
3.690551
3.465171
3.707619
3.949833
3.840417
3.366744
2.875770
2.882316
3.219219
3.417713
3.396671
3.241430
3.167083
3.322793
3.554018
3.686348
3.767008
3.939551
4.104612
4.194391
4.333968
4.300769
3.975090
3.707860
3.622291
3.611069
3.527837
3.287494
3.038968
2.861750
2.841644
2.897522
2.628187
2.214367
2.180700
2.578156
3.113552
3.205668
2.659752
2.208524
2.454011
3.156105
3.719089
3.696411
3.138337
2.661625
2.591720
2.566003
2.436713
2.300643
2.068951
1.828607
1.450324
0.577091
-0.349447
-0.671619
-0.470553
-0.060472
0.137320
-0.325832
-1.224314
-1.914717
-1.923367
-1.169838
-0.325596
-0.252651
-0.952172
-1.730483
-1.954226
-1.470032
-0.682836
-0.072859
0.159770
-0.219215
-1.276680
-2.424858
-2.871878
-2.325961
-1.261014
-0.611525
-0.901433
-1.770457
-2.336948
-1.964976
-0.893015
0.010144
0.210275
-0.059761
-0.338680
-0.451137
-0.522211
-0.742681
-0.898390
-0.549564
0.054569
0.034930
-0.944213
-2.004717
-1.956554
-0.808843
0.398720
0.813477
0.284394
-0.354106
-0.218269
0.198825
0.177083
-0.192551
-0.696617
-0.826374
-0.300798
0.133130
-0.033800
-0.600758
-1.115112
-0.870326
-0.046658
0.218469
-0.405302
-1.422320
-2.326180
-2.674771
-2.558807
-2.342545
-1.975015
-1.514902
-1.406186
-1.948595
-2.916983
-3.691553
-3.874616
-3.479498
-3.045336
-3.487446
-4.803491
-5.914261
-6.012222
-4.913141
-2.841463
-0.857225
-0.113749
-0.624128
-1.837068
-2.227977
-0.727466
0.536910
0.121219
-1.699126
-4.454427
-4.741529
-1.691644
1.301195
3.606203
4.874554
5.005714
6.653284
9.487608
10.109510
8.580008
8.096048
9.001545
11.069482
13.221820
9.667869
2.893593
2.444703
8.356267
13.783403
10.435427
-2.274961
-11.663791
-9.275084
-0.832431
3.426888
-0.761824
-10.157200
-16.368024
-14.825196
-10.745667
-3.132994
8.825737
11.937111
4.922726
-2.772477
-10.430038
-12.884208
-6.529832
-2.780425
-4.725851
-0.088482
8.445118
8.340611
4.377514
1.109730
-3.830172
-4.977415
-4.850930
-10.881029
-15.268234
-10.329734
-0.648891
9.817746
18.749035
17.397454
6.119074
0.489938
2.444483
2.109920
-0.592543
-6.531460
-12.584705
-6.698391
5.439194
7.039303
0.045492
-0.346352
7.213951
10.620377
7.843801
-1.613298
-16.854307
-18.368378
-2.942200
7.615149
5.108375
-7.087659
-19.351494
-15.812972
2.265636
14.070762
8.033181
-0.803420
2.142192
9.138108
12.165549
11.687200
7.873967
1.834517
-4.304064
-8.785723
-10.578013
-6.484222
2.262835
4.595431
-1.171880
-4.668084
-1.118106
7.862048
16.634823
17.383208
9.237478
1.408309
1.743341
6.404791
7.909978
4.036192
-1.739769
-4.983706
-5.952795
-4.402018
-2.401414
-5.046128
-7.319105
-5.240881
-2.176967
3.401202
8.556666
7.644389
3.907140
1.341917
2.413878
4.874828
2.873290
-0.171919
-0.306819
0.805354
4.545176
9.232578
9.767740
6.853457
4.995938
6.140844
7.247641
6.225479
4.785055
2.963540
-0.105516
-4.679993
-11.162723
-16.894730
-16.530941
-8.668339
1.170084
7.605120
10.005050
8.288744
3.491926
0.366525
1.769075
4.996179
6.519134
3.929830
-3.077541
-9.267090
-10.041426
-6.698826
-2.251066
0.030094
0.180893
2.618464
7.389098
8.809884
3.448913
-4.661514
-7.322828
-1.816434
6.982760
11.606335
6.842950
-2.064959
-4.942536
-2.037137
3.040239
8.043968
5.686123
-2.115457
-4.064391
-0.023439
4.314436
8.009368
9.743209
7.363855
2.484974
-1.548964
-5.038622
-6.633119
-1.806607
5.108181
6.139928
2.528462
-1.551299
-3.749695
-1.978914
1.114692
0.617873
-0.812498
0.883000
0.657386
-3.144625
-4.772321
-4.410403
-1.438372
5.645920
9.339917
8.708431
10.036633
10.026347
5.230931
1.788968
4.180948
7.124924
6.027246
3.854802
0.997099
-1.637329
1.117505
5.597295
5.461225
3.065505
0.734079
-2.785037
-6.893556
-7.672802
-3.206105
1.885298
3.150142
0.425703
-4.670142
-7.473371
-5.201095
-2.052313
-2.169445
-4.845021
-6.027333
-3.589996
-1.520656
-1.825294
-2.180432
-2.237945
-0.700494
2.081927
1.868003
-1.689923
-6.645723
-9.108076
-5.068059
-0.441678
-0.364057
-1.394168
-4.092889
-8.246063
-8.108356
-3.955649
-0.653262
-0.631051
-2.639603
-3.172661
-1.954343
-1.073394
-2.361383
-6.582125
-9.020396
-5.454286
-0.220968
0.871333
-2.216427
-5.537283
-5.213473
-0.419226
4.165071
1.609667
-6.403967
-10.438840
-7.163340
-2.008344
-0.668685
-3.516336
-6.233060
-4.996973
-1.320511
-0.566047
-4.171901
-7.267143
-6.159178
-2.710901
-0.627300
-1.348096
-3.878484
-5.866462
-4.539662
-0.601580
1.378917
0.309061
-1.084604
-2.287491
-2.979063
-2.110973
-0.994357
-0.568145
-0.851506
-1.731987
-1.623504
-1.073847
-2.217582
-4.564439
-5.859909
-3.602129
0.996664
3.571006
3.810414
4.664476
8.724834
15.423126
18.754503
15.391798
9.018718
3.512092
1.033373
1.506579
2.103230
2.139937
2.974126
4.176779
3.457152
-0.315634
-2.940242
-0.434637
3.765298
5.493294
3.754076
-0.498696
-2.684232
-1.664876
-1.273265
-0.330594
3.630400
7.776794
9.478605
8.494319
5.556423
2.662481
2.165428
5.701612
10.863388
12.352677
10.865493
10.824111
11.781044
12.043599
11.467756
10.183041
10.092562
10.966262
9.956960
6.700632
2.948654
1.177640
0.505239
-2.881548
-7.035657
-7.873119
-5.841420
-3.136853
-2.562179
-3.997694
-3.979925
-2.546280
-1.161498
0.561121
1.428743
0.700932
0.341820
1.257370
2.568973
3.876602
5.338302
6.701575
7.062324
6.147943
4.756616
3.427479
2.836440
4.131911
7.060456
9.991573
12.114218
13.207688
12.201192
9.099871
6.656924
7.023986
8.483349
7.619234
3.009688
-4.188929
-10.270230
-10.889558
-6.491364
-1.911509
-0.537248
-2.979027
-8.124203
-13.438414
-16.885988
-17.811591
-15.693154
-11.767931
-8.675261
-6.041768
-3.694677
-3.484259
-3.570997
-1.334726
2.573897
5.876751
6.400691
5.893819
6.824332
8.459978
9.762931
8.541808
5.312133
4.643006
6.093484
6.615788
5.807785
2.983748
-1.507965
-5.884415
-8.981995
-9.270267
-6.182506
-2.936932
-3.681342
-8.218645
-13.222140
-14.896362
-10.822211
-3.880302
1.538652
3.425863
0.196188
-4.673808
-5.293838
-3.491261
-3.449177
-4.476716
-4.795615
-3.959088
-1.832234
0.892673
1.798171
-0.155205
-1.911256
-0.758869
1.887249
4.256317
7.562678
11.764483
12.809791
8.605883
2.709282
0.009625
1.015889
1.760768
-0.179048
-3.480733
-4.768721
-1.236746
3.258475
2.486944
-1.741513
-4.341104
-3.304915
0.958846
3.412549
-0.787618
-8.374573
-12.993238
-12.273843
-8.309810
-5.836235
-7.347032
-10.885086
-13.838179
-15.016751
-14.205941
-11.685607
-7.531496
-2.021830
3.626011
7.498396
8.441300
8.018595
9.429328
13.253317
16.790670
18.119807
17.500011
15.961626
14.148294
11.527427
7.777086
3.347563
-1.127316
-4.106127
-4.721481
-3.864380
-2.722280
-2.855076
-5.691504
-10.288893
-13.617465
-13.845650
-10.836913
-5.394580
-0.939807
-0.335908
-2.126093
-2.646759
1.609053
9.696334
15.654892
15.330849
9.279007
1.877687
-2.063667
-1.401319
1.997626
4.492010
3.620648
0.660073
-2.021113
-2.862082
-2.039816
-0.120107
3.089930
4.849489
2.898685
-0.651760
-5.481310
-11.468624
-14.440187
-12.784668
-8.591046
-3.553182
0.181729
1.760563
2.371709
2.523210
3.137863
4.961249
7.153332
9.673199
11.863412
11.238005
8.055323
5.561408
5.153432
5.984348
7.746011
9.652394
8.517776
3.144648
-2.282721
-3.816665
-1.726751
1.376441
2.177898
0.159760
-1.319007
-0.215717
1.822761
2.055156
-0.157267
-3.239884
-6.379313
-8.841665
-8.859667
-7.014773
-6.069998
-6.537358
-6.110678
-2.924722
2.192633
6.277539
7.269541
6.676164
7.523446
10.487060
13.268313
12.377545
7.026862
0.589488
-3.947348
-5.585097
-3.798418
-0.745493
-0.092731
-1.823999
-3.623536
-4.902407
-5.759507
-5.803461
-4.718174
-2.671980
-1.520294
-2.545261
-4.130406
-5.017199
-4.598234
-2.377159
-0.139018
0.827968
0.462076
-1.639761
-3.433687
-2.965625
-1.350553
0.844336
2.769189
2.596180
1.800100
2.877205
5.072328
7.096077
8.796485
9.807658
9.909361
9.486655
9.478707
10.015272
9.713440
8.289381
6.682025
5.428171
4.718129
3.606891
1.727395
0.677412
0.382126
-0.722098
-2.681085
-5.683977
