EVENT_NAME: 202302060117
EVENT_ID: 13194
EVENT_DATE_YYYYMMDD: 2023/02/06
EVENT_TIME_HHMMSS: 01:17:32.00000
EVENT_LATITUDE_DEGREE: 37.288
EVENT_LONGITUDE_DEGREE: 37.043
EVENT_DEPTH_KM: 8.6
HYPOCENTER_REFERENCE: AFAD
MAGNITUDE_W: 7.7
MAGNITUDE_W_REFERENCE: AFAD
MAGNITUDE_L: 
MAGNITUDE_L_REFERENCE: 
FOCAL_MECHANISM: 
NETWORK: TK
STATION_CODE: 3805
STATION_NAME: 
STATION_LATITUDE_DEGREE: 38.1057
STATION_LONGITUDE_DEGREE: 35.357183
STATION_ELEVATION_M: 1183.0
LOCATION: Kahramanmaras_Pazarck_Turkiye
SENSOR_DEPTH_M: 
VS30_M/S: 384
SITE_CLASSIFICATION_EC8: B
MORPHOLOGIC_CLASSIFICATION: 
EPICENTRAL_DISTANCE_KM: 173.97
EARTHQUAKE_BACKAZIMUTH_DEGREE: 
DATE_TIME_FIRST_SAMPLE_YYYYMMDD_HHMMSS: 2023/02/06 01:17:42.0103810
DATE_TIME_FIRST_SAMPLE_PRECISION: millisecond
SAMPLING_INTERVAL_S: 0.01
NDATA: 13501
DURATION_S: 
STREAM: HNZ
UNITS: cm/s^2
INSTRUMENT: sensor = ACEBOX/SARA | digitizer = 
INSTRUMENT_ANALOG/DIGITAL: 
INSTRUMENTAL_FREQUENCY_HZ: 
INSTRUMENTAL_DAMPING: 
FULL_SCALE_G: 
N_BIT_DIGITAL_CONVERTER: 
PGA_CM/S^2: 16.001
TIME_PGA_S: 
BASELINE_CORRECTION: BASELINE REMOVED
FILTER_TYPE: BUTTERWORTH
FILTER_ORDER: 
LOW_CUT_FREQUENCY_HZ: 
HIGH_CUT_FREQUENCY_HZ: 
LATE/NORMAL_TRIGGERED: 
DATABASE_VERSION: 
HEADER_FORMAT: DYNA 1.2
DATA_TYPE: Acceleration
PROCESSING: Automatic Paolucci et al., 2011
DATA_TIMESTAMP_YYYYMMDD_HHMMSS: 
DATA_LICENSE: U (unknown license)
DATA_CITATION: Turkish Accelerometric Archive v 1.0 - Disaster And Emergency Management Presidency, Earthquake Department
DATA_CREATOR: AFAD
ORIGINAL_DATA_MEDIATOR_CITATION: : AFAD - Disaster And Emergency Management Presidency
ORIGINAL_DATA_MEDIATOR: AFAD PROCESS SERVICE
ORIGINAL_DATA_CREATOR_CITATION: AFAD PROCESS SERVICE
ORIGINAL_DATA_CREATOR: network: TK
USER1: GuestUser
USER2: 
USER3: 
USER4: 
USER5: 
[...]
-1.784224
-1.849921
-0.931097
0.560764
1.944377
2.341832
1.263326
-0.613364
-1.806899
-1.633187
-0.716935
0.331646
1.546223
2.693467
2.984779
2.056370
0.433584
-1.203932
-2.618872
-3.705094
-4.174091
-3.809600
-2.473682
-0.219175
2.202731
3.865498
4.553564
4.612481
4.228587
2.986656
0.796677
-1.227773
-1.839853
-0.745214
1.296772
2.991101
3.562736
2.991569
1.717375
0.354805
-0.914714
-2.034836
-2.533058
-2.109417
-1.105491
-0.392876
-0.730245
-1.765032
-2.426677
-2.331522
-1.785604
-0.883848
0.398530
1.733279
2.672444
2.905540
2.327827
1.127513
-0.375102
-1.761286
-2.560872
-2.540297
-1.729722
-0.546473
0.301744
0.566870
0.612929
0.865664
1.422570
1.995373
2.238757
2.114611
1.914481
1.901155
1.942771
1.654500
0.685644
-1.057080
-2.952942
-3.918992
-3.553800
-2.322389
-0.744023
0.855384
2.155297
2.655858
1.913084
0.168723
-1.861104
-3.584190
-4.441524
-4.003855
-2.507786
-0.706377
0.788523
1.623647
1.782396
1.603542
1.064406
-0.126090
-1.642732
-2.804003
-3.231384
-2.900092
-2.006986
-0.927076
-0.190615
-0.197862
-0.716658
-0.968691
-0.765520
-0.733957
-0.905096
-0.663116
0.118937
1.082883
1.803447
1.891589
1.129644
-0.097324
-0.816484
-0.641135
-0.213987
-0.075579
0.034774
0.397394
0.356012
-0.884749
-2.913642
-4.493877
-4.796878
-3.938140
-2.436693
-0.614945
0.929988
1.431250
0.979788
0.176461
-0.757325
-1.634999
-1.972135
-1.509917
-0.585248
0.260864
0.818939
1.105809
0.979325
0.560594
0.670246
1.745012
3.018272
3.683660
3.718964
3.321509
2.639756
1.967824
1.548859
1.243053
0.794396
0.261573
-0.187084
-0.561860
-0.848729
-0.774615
-0.110864
0.853550
1.472646
1.324185
0.590763
-0.174455
-0.787704
-1.426672
-2.011398
-2.215269
-1.769651
-0.857374
-0.339279
-0.856438
-1.958090
-2.653636
-2.308084
-1.036460
0.288470
0.772431
0.433191
0.039711
0.082730
0.357910
0.668861
1.373526
2.615458
3.650478
3.811098
3.167922
1.848838
0.003477
-1.895190
-3.341226
-3.791987
-2.845809
-0.875833
0.909911
1.421460
0.768933
-0.134226
-0.626135
-0.512041
-0.070164
0.330331
0.778521
1.392473
1.913607
2.001983
1.397618
0.120150
-1.331964
-2.496742
-3.358518
-3.720436
-3.057620
-1.336872
0.756549
2.200482
2.360166
1.477114
-0.082314
-2.029611
-3.517730
-3.753397
-2.614804
-0.455686
1.966688
3.938535
4.761502
3.719935
1.301771
-1.093949
-2.634673
-2.956378
-2.070753
-0.459422
1.271380
2.281852
2.112583
1.109827
-0.356315
-1.746239
-2.224354
-1.661838
-0.703736
0.126712
0.772461
1.371917
1.983064
2.441073
2.366025
1.520380
0.061486
-1.590993
-2.790840
-2.903062
-1.856117
-0.004443
2.206345
4.007052
4.635967
3.977594
2.620635
1.403020
0.511551
-0.233560
-0.359810
0.523242
1.841626
2.613157
2.246563
0.935896
-0.616985
-1.750433
-2.146252
-1.845120
-1.060964
-0.135126
0.610220
1.005571
0.765930
-0.332683
-1.861951
-3.063201
-3.753136
-4.285726
-4.817614
-5.143761
-4.933343
-3.930118
-2.146712
0.007262
1.784122
2.626026
2.547471
1.873200
1.061690
0.530036
0.375029
0.498708
0.741857
0.955782
1.107751
1.152641
1.051407
0.904115
0.773657
0.598075
0.357264
0.007037
-0.571377
-1.135530
-1.209877
-0.793483
-0.081804
0.768751
1.266973
1.193327
0.910901
0.570025
0.186832
0.092846
0.554829
1.477394
2.338703
2.303167
1.096773
-0.589138
-1.996597
-2.723707
-2.333265
-0.724973
1.310233
2.705302
3.069792
2.608744
1.613703
0.415493
-0.768690
-1.854911
-2.556069
-2.408309
-0.984015
1.501951
3.716012
4.416703
3.684918
2.291954
0.843581
-0.250824
-0.917613
-1.520342
-2.264986
-2.827969
-2.726735
-1.786168
-0.466148
0.444960
0.608619
0.224023
-0.503086
-1.552134
-2.715977
-3.317770
-2.708728
-0.905683
1.622133
4.181045
5.599260
4.997700
2.753714
-0.121524
-2.665939
-4.075737
-3.879346
-1.976938
0.782338
2.768446
3.380294
3.267838
2.785749
1.793280
0.445205
-0.777554
-1.581349
-1.991896
-1.988623
-1.268527
0.424400
2.671426
4.407605
4.763678
3.736841
2.193546
0.990893
0.095918
-0.904033
-2.043092
-2.815792
-2.341183
-0.602666
1.047709
1.589418
1.319850
0.977104
0.796846
0.441007
-0.275113
-1.068153
-1.637449
-1.742423
-1.308963
-0.780113
-0.456069
0.082366
1.085357
2.029197
2.278191
1.725495
0.831455
0.282499
0.407114
0.985061
1.793298
2.678455
3.017929
2.213200
0.567735
-1.163533
-2.394475
-2.683916
-2.020399
-0.759530
0.875649
2.445598
3.222039
2.798632
1.200395
-0.996130
-2.960027
-4.333819
-4.845367
-4.167121
-2.556257
-0.662031
0.869809
1.555303
1.128857
-0.511698
-2.627329
-3.824838
-3.649957
-2.598103
-1.062288
0.598842
1.894079
2.464311
2.055167
0.559800
-1.429347
-2.570979
-1.989057
-0.186479
1.600200
2.519491
2.311646
1.090289
-0.479425
-1.676934
-2.339515
-2.145463
-0.795985
0.929907
1.903439
1.700504
0.530349
-1.159771
-3.006535
-4.426152
-4.592381
-3.264646
-0.923868
1.553215
3.164312
3.529972
3.158702
2.648323
1.820214
0.105545
-2.092850
-3.325897
-2.484927
0.212860
3.322364
5.401757
6.016410
5.254466
3.166423
0.073285
-2.978938
-4.626974
-4.350391
-2.562777
0.119112
2.738577
4.147673
4.104421
3.256907
2.140291
1.034431
0.094332
-0.848805
-1.881955
-2.363109
-1.443818
0.521015
2.043269
2.196173
1.192949
-0.336786
-1.742141
-2.436752
-2.160871
-1.081662
0.632306
2.866473
5.043360
6.317789
6.264016
5.137582
3.543085
1.868395
0.275301
-1.037236
-1.825834
-1.847343
-0.999593
0.664576
2.971220
5.310830
6.528447
5.640485
2.875131
-0.471676
-3.348785
-5.255167
-5.807630
-4.925746
-2.764056
0.228082
2.954860
4.392713
4.229991
2.754029
0.809772
-0.893675
-2.202004
-2.674274
-1.643227
0.540907
2.466462
2.891038
1.464875
-1.265175
-3.833905
-4.688668
-3.683806
-1.790282
0.406244
2.820201
4.908712
5.497648
4.029869
1.293039
-1.649533
-4.045019
-4.937657
-3.633068
-0.774662
2.104552
4.013040
4.637045
3.972360
2.543391
0.852804
-1.125121
-3.399266
-5.557448
-6.672895
-5.690244
-2.552451
1.422337
4.529269
5.457445
3.700926
0.253586
-3.182064
-5.891073
-7.681492
-7.870399
-6.016387
-2.587983
1.287908
4.367019
6.001964
6.411343
6.113720
5.174323
3.371746
0.776363
-2.322385
-5.125848
-6.221889
-5.004974
-2.424085
0.134592
2.035832
3.528862
4.637061
4.380586
2.194115
-0.675746
-2.549397
-2.929084
-2.053980
-0.504839
0.831781
1.474724
1.586245
1.535979
1.469348
0.957800
-0.533593
-2.603633
-4.117470
-4.303339
-2.943106
-0.577077
1.294237
1.705721
0.950790
-0.772530
-3.314373
-5.669880
-6.921864
-6.810108
-5.108999
-2.132526
1.022569
3.216757
3.397249
1.353627
-1.741381
-4.379782
-5.008463
-2.742031
1.077749
4.145637
5.486465
5.215962
3.411047
0.461929
-2.269056
-3.554240
-3.281865
-1.828581
0.233044
2.136154
3.392113
3.958604
3.861579
2.776760
0.773819
-0.983634
-1.912744
-2.883002
-4.101553
-4.553015
-3.802058
-2.245435
-0.277563
1.650096
2.820719
2.728369
1.609650
0.022868
-1.595008
-2.612026
-2.569241
-1.547079
0.239367
2.111382
3.125127
3.342793
3.307256
2.646546
0.974428
-0.898054
-1.971417
-2.003213
-1.178609
0.146788
1.745962
3.339057
3.929161
2.629249
-0.176785
-3.428437
-6.119209
-7.422161
-7.304794
-6.450733
-5.219322
-3.683507
-2.399960
-2.205206
-3.194870
-4.340242
-4.624305
-3.990247
-2.770993
-1.189354
0.393687
1.597510
2.284874
2.390083
1.906825
0.934930
-0.475802
-2.032891
-2.827802
-1.830656
0.812656
3.368061
4.354920
3.919823
2.712495
1.095553
-0.391864
-1.325884
-1.963683
-2.569451
-2.789921
-2.579737
-2.517313
-2.688686
-2.579502
-1.895411
-0.942920
-0.193366
0.500545
1.419603
2.130814
2.012046
1.150737
0.447475
0.540761
0.974455
1.107720
0.863169
0.373130
-0.077864
-0.197334
-0.144262
-0.071551
0.354195
1.548899
3.544125
5.415205
5.815934
4.628712
2.608237
0.391138
-1.237260
-1.940288
-1.977695
-1.150987
0.407272
1.424291
1.345735
1.142566
1.357660
1.212004
-0.187038
-2.699891
-5.236123
-6.508681
-5.294337
-1.435747
3.069994
6.036648
7.038704
6.248236
3.659399
-0.021738
-3.269650
-4.983383
-5.147976
-3.945556
-1.436210
1.694336
4.329466
5.581918
4.914427
2.500471
-0.587757
-3.080503
-4.125810
-3.446862
-1.463326
0.955541
3.057379
4.382309
4.630368
3.750589
1.875536
-0.925589
-4.341133
-7.358987
-8.570758
-7.405746
-4.831404
-2.046878
0.519515
2.351785
2.827796
1.923001
-0.299241
-3.747984
-7.139213
-8.323396
-6.672319
-3.610276
-0.379665
2.754622
5.359358
6.589833
5.981961
4.045418
1.662791
-0.849828
-3.129117
-4.065007
-3.004035
-0.794416
1.141426
1.876017
1.137920
-0.484165
-1.863569
-2.479858
-2.659414
-2.457880
-1.175502
1.433442
4.382094
6.241016
6.132769
4.295590
1.629601
-1.084318
-3.069490
-3.767140
-3.197142
-1.621348
0.658643
3.304995
5.627771
6.412161
5.072737
2.599163
0.327589
-1.283040
-1.928788
-1.349905
-0.182321
0.661220
1.017761
1.255300
1.435558
1.350222
1.355834
1.874864
2.546097
3.121004
3.769792
3.841101
2.478297
0.311698
-1.763486
-3.867193
-5.691279
-6.282318
-5.369105
-3.660982
-2.290930
-1.694746
-1.507007
-1.561481
-1.718125
-1.441074
-0.343162
1.300667
2.787618
3.593985
3.266436
1.442350
-1.250059
-3.432556
-4.287085
-3.757300
-2.021121
0.437726
2.697143
3.869637
3.454881
1.456148
-1.312712
-3.547112
-4.392289
-3.841228
-2.582230
-1.555859
-1.217086
-1.224334
-1.327905
-2.043325
-3.383216
-4.117105
-3.490996
-2.250000
-1.450880
-1.285117
-1.179908
-0.681218
0.158348
1.109202
1.650677
1.048182
-0.487164
-1.997027
-3.268182
-4.058884
-3.265843
-0.655964
2.565529
5.105971
6.166242
5.513948
3.648480
1.458268
-0.438061
-1.691916
-1.867497
-0.810967
0.975479
2.767067
3.976267
3.845809
1.669157
-1.733762
-4.266721
-5.115171
-4.743667
-3.092122
-0.421222
2.096308
4.022096
5.511151
5.681356
3.284701
-1.211454
-5.610349
-7.994847
-7.833994
-5.540676
-1.931314
2.029446
5.372046
7.332437
7.574417
6.106405
3.284472
0.036327
-2.357522
-3.066395
-2.391188
-1.300524
-0.323251
0.373933
0.493404
0.144111
-0.186010
-0.398063
-0.623210
-0.759747
-0.509817
0.193445
0.877770
1.283409
1.635041
1.578930
0.410879
-1.762266
-4.096731
-5.533181
-5.384018
-3.922785
-2.042119
-0.625307
0.009687
0.408078
1.071595
1.758959
2.065468
1.701212
0.590208
-0.702691
-1.609590
-2.265624
-2.498018
-1.560257
0.347295
2.314466
4.171752
5.670860
5.595578
3.216925
-0.447379
-3.439048
-4.481082
-3.438346
-0.844599
2.289220
5.015998
6.836110
7.172545
5.581789
2.416174
-1.516997
-5.663625
-9.569441
-12.115961
-11.822778
-8.014220
-1.658675
4.688921
8.738524
9.594456
6.871654
1.120241
-5.661749
-11.150373
-13.383838
-11.590145
-6.922149
-1.617054
2.484218
4.905423
5.775383
4.639830
1.132637
-3.649218
-6.935238
-6.646965
-3.522030
0.422364
3.147271
3.327296
1.987170
0.525236
-1.273132
-3.294075
-4.622978
-4.644020
-3.497010
-2.094693
-0.810912
0.798783
2.545249
3.389023
2.523740
0.258946
-2.307913
-4.254041
-5.206531
-5.162109
-4.071444
-2.009352
0.351299
1.951175
2.024821
1.028845
0.256613
0.196060
0.536002
1.059007
1.776531
2.695822
3.025711
1.614745
-0.867247
-2.404697
-2.192175
-0.629006
1.174273
1.587627
0.500236
-0.585985
-0.712235
-0.045913
0.595394
0.700837
0.546297
0.456519
0.546064
0.844624
1.332325
1.932249
2.438889
2.718043
2.527966
1.737966
0.936275
0.338222
-0.966132
-3.348292
-5.556974
-5.865586
-3.860073
-0.917734
1.286975
2.202759
2.162546
1.554674
0.484818
-0.874011
-1.836788
-1.460841
0.526202
3.045602
4.600354
4.630514
3.230069
0.753923
-1.925627
-3.818216
-4.233439
-3.108172
-1.339729
0.271836
2.069971
4.265094
5.556356
4.442313
1.183180
-2.526949
-5.179846
-6.235674
-5.704954
-3.522923
0.222977
4.799091
8.923275
11.071171
10.104186
6.118878
0.512187
-4.714351
-7.883472
-8.563822
-7.285418
-4.449924
-0.772527
2.012934
2.493622
1.095749
-0.498514
-1.306985
-1.497295
-1.283604
-1.101242
-1.713089
-3.085712
-4.437995
-5.107123
-4.631345
-2.735248
-0.136825
1.785223
2.936441
4.017754
4.863866
4.995027
4.197077
2.882202
2.318517
3.234068
4.697639
5.165936
4.512239
3.776713
3.330862
3.421342
4.632646
6.506532
7.832396
7.885235
6.649851
4.606931
2.361308
0.471993
-0.722009
-1.359106
-1.683850
-1.664678
-1.440232
-1.296680
-0.924709
0.034562
1.313200
2.508138
2.862341
1.384042
-1.897069
-5.654892
-8.193462
-8.571512
-6.613693
-2.720033
1.356457
3.648372
4.003276
3.225200
1.660161
-0.236636
-1.705116
-2.561047
-2.877374
-2.366293
-0.721529
1.992624
4.672642
5.783414
5.269528
4.121817
2.765092
1.287260
0.208988
0.065670
0.917161
2.727921
5.047658
6.647533
6.724453
5.553362
3.784920
1.965511
0.371247
-0.951811
-1.619769
-0.892192
0.905476
2.188088
2.205857
1.279787
-0.655820
-3.576415
-6.760500
-9.264001
-10.008177
-8.449216
-5.332464
-2.277435
-0.673585
-0.323590
-0.044436
0.086257
-0.951335
-3.020674
-4.955112
-5.835592
-5.133031
-3.132427
-1.045085
0.379910
1.179497
1.556846
1.413061
0.057272
-2.326057
-4.274991
-5.119700
-5.214387
-4.763860
-3.645373
-1.869916
0.119465
2.001300
3.700071
4.716155
4.438638
2.984419
1.083882
-0.511317
-1.134386
-0.393950
1.317447
3.141533
4.707274
6.335439
8.076294
8.894351
7.673462
4.822772
1.858925
-0.296452
-1.626524
-2.255438
-2.187403
-1.324690
0.322879
2.344992
4.307020
5.916247
6.465203
5.314687
3.218929
1.953151
2.504913
4.263303
5.854060
6.220888
4.661928
0.869269
-4.417821
-9.815031
-14.112224
-16.001306
-14.176050
-8.746809
-2.152791
2.542560
4.391195
4.062009
1.762847
-1.942605
-5.434133
-7.705707
-8.407566
-6.956385
-3.481223
0.519283
2.967141
2.605223
0.004229
-3.246254
-6.043170
-7.892974
-8.307262
-6.993087
-4.411731
-1.623932
0.251356
0.536122
-0.754205
-3.164888
-5.802822
-7.376745
-6.850934
-4.060564
-0.282633
2.282825
2.626039
1.680330
0.678042
-0.025454
-0.495386
-0.851459
-1.199583
-1.321390
-1.186489
-1.068655
-0.802827
-0.456806
-0.511982
-0.796279
-0.858703
-0.682419
-0.562714
-0.620696
-0.708369
-0.919488
-1.091796
-1.018851
-1.297069
-2.176380
-3.407322
-4.776672
-5.435512
-4.880244
-3.665432
-2.191107
-0.733380
-0.022168
-0.447211
-1.491350
-2.602354
-3.552038
-3.761987
-2.867712
-1.539276
-0.765640
-0.832038
-1.132000
-1.148131
-1.089214
-0.999201
-0.583042
0.097075
1.098897
2.803513
4.791959
5.896885
5.688573
4.743798
3.654303
2.631675
1.847285
1.668898
2.264848
3.350135
4.718551
6.213451
7.238653
7.364670
6.798413
5.574251
3.401808
0.455495
-2.501806
-4.097940
-2.853904
0.853186
4.622466
6.440240
5.899234
3.660625
0.676671
-2.331130
-4.776182
-6.026061
-5.676768
-3.923054
-1.699875
-0.373777
-0.754164
-2.122813
-2.949052
-2.711748
-1.943022
-1.021393
-0.245185
0.105745
0.358013
0.602565
0.149466
-1.165409
-2.612614
-3.178403
-2.066930
0.306347
2.781325
4.938573
6.573985
6.881429
5.299791
2.508486
0.010362
-1.292122
-1.326490
-0.292638
1.195950
2.491889
3.401127
3.990764
4.227601
3.485997
1.434894
-0.773321
-1.731890
-1.193688
0.238321
1.955796
3.723304
5.319438
6.492867
7.158956
7.326355
7.259957
7.129966
6.822524
6.494974
6.167658
5.330898
3.764691
1.932188
0.417650
-0.588847
-1.099226
-0.872909
0.444305
2.607164
4.541369
5.455283
5.556985
4.947476
3.372618
1.490784
0.395679
0.125409
0.361311
1.415504
3.021224
3.977221
3.765635
2.923498
2.166696
1.656317
0.736793
-1.104360
-3.434617
-5.218256
-5.515412
-4.306679
-2.332261
-0.169636
1.883806
3.460535
4.014168
3.411205
2.290849
1.374364
1.059206
0.930384
-0.054837
-1.676688
-2.555064
-2.148958
-0.916846
0.627152
2.222818
3.418926
3.710705
3.270699
2.441421
1.472565
0.701502
-0.164482
-1.458550
-2.673828
-3.171114
-2.718248
-1.763653
-1.132634
-1.155312
-1.842442
-3.084372
-4.396442
-5.151139
-5.066972
-4.535316
-4.175034
-4.384283
-5.343552
-6.470922
-6.660298
-5.546019
-3.704865
-1.724836
0.480574
2.721521
3.678454
2.642031
0.493201
-1.718521
-3.304835
-3.807498
-3.217628
-1.755693
0.233221
2.253464
3.655780
3.845390
2.956961
1.701470
0.626471
-0.068842
-0.368336
0.098558
1.695861
3.661161
4.841604
4.988897
4.566893
4.508912
5.554220
6.932689
6.979449
4.890705
1.314542
-2.022212
-3.727529
-3.829698
-2.800989
-0.784955
1.595569
3.026643
2.632227
0.611752
-2.060083
-3.979558
-4.194417
-2.899881
-0.877301
0.782894
0.799260
-1.108993
-3.624183
-5.248372
-5.707550
-5.275258
-4.126144
-2.788356
-1.840074
-1.741177
-2.646907
-3.538142
-3.370976
-2.441164
-1.150135
0.338219
1.268732
1.314557
1.174045
1.142015
0.615738
-0.716672
-2.183048
-2.905715
-2.762630
-2.010037
-0.688614
0.976491
2.520488
3.811751
4.865242
5.097403
3.732495
0.936748
-2.259027
-4.845525
-6.512499
-7.508475
-7.530218
-5.926602
-3.126412
-0.428157
1.014840
0.549350
-1.591063
-4.345662
-6.671477
-7.985651
-8.040827
-6.805208
-4.507214
-1.842860
0.228818
0.975333
0.243782
-1.234985
-2.439742
-2.933989
-2.827377
-2.551730
-2.220439
-1.439321
-0.457840
-0.069502
-0.376244
-0.887091
-1.278934
-1.638748
-2.145152
-2.502862
-2.081325
-0.967514
0.028463
0.632595
1.063718
1.673929
3.369895
6.208428
8.164844
7.255139
3.806396
-0.149453
-2.918547
-4.040072
-3.728654
-2.540964
-1.513424
-1.519970
-1.998786
-1.677782
-0.725058
0.013742
0.718641
1.744544
2.922649
3.875373
4.160606
3.433030
1.495318
-0.984803
-2.244502
-1.041848
2.248147
6.097620
8.964676
9.903606
8.296250
4.649481
1.092490
-0.648364
-0.687408
-0.098472
0.416818
0.867813
1.214769
1.311094
1.606380
2.436127
2.997007
2.263352
0.382219
-1.867845
-3.983476
-5.366620
-5.625901
-5.106637
-4.013167
-2.097665
0.326579
2.167967
2.726041
2.249563
1.569681
1.598438
1.896764
0.930481
-1.243366
-3.159334
-3.868675
-3.079842
-1.369849
0.226987
1.568283
2.933425
3.991358
4.315402
3.989723
3.401022
2.997956
2.837337
2.248636
1.004134
0.347398
1.472431
3.850851
5.980978
6.910323
6.619479
5.331958
3.093116
0.373587
-1.947085
-3.338879
-3.681859
-3.186209
-2.231848
-1.213427
-0.944559
-1.870162
-3.092220
-3.818862
-4.366882
-4.835645
-4.561634
-3.304038
-1.573938
0.395103
2.431244
3.369940
2.114917
-0.922109
-4.425093
-6.950337
-7.266898
-5.017066
-0.867632
3.853670
7.708520
9.662131
9.170689
6.547718
2.846474
-0.815960
-2.930188
-2.296129
0.468991
4.076717
7.975989
11.405094
12.953066
11.887184
8.681357
4.091449
-0.992004
-4.977546
-6.169444
-4.338811
-1.029410
2.143219
4.278724
4.483297
2.211490
-1.709290
-5.484414
-7.983473
-8.803867
-7.446206
-4.557874
-1.952203
-0.447249
0.087445
-0.432753
-2.095519
-4.271937
-5.896828
-6.522469
-5.967200
-3.979689
-1.019815
2.016511
4.258861
5.234731
5.208078
4.339522
2.614566
0.338083
-1.765157
-2.334219
-0.963465
0.893821
2.322322
3.512818
4.048916
3.440810
2.153055
1.158248
1.365860
2.926224
5.200136
7.340551
8.387963
8.013888
6.738758
4.855288
2.546306
0.547106
0.026440
1.765191
4.858797
7.316007
8.191344
7.633972
5.768036
2.836687
-0.592417
-3.583385
-4.887272
-4.175593
-2.289784
-0.101441
1.787641
3.224326
4.361984
4.657037
3.189492
0.242945
-2.804602
-5.268825
-7.203263
-8.052648
-7.025810
-4.351402
-1.355758
0.476045
0.428818
-1.179941
-3.286921
