EVENT_NAME: 202302060117
EVENT_ID: 13194
EVENT_DATE_YYYYMMDD: 2023/02/06
EVENT_TIME_HHMMSS: 01:17:32.00000
EVENT_LATITUDE_DEGREE: 37.288
EVENT_LONGITUDE_DEGREE: 37.043
EVENT_DEPTH_KM: 8.6
HYPOCENTER_REFERENCE: AFAD
MAGNITUDE_W: 7.7
MAGNITUDE_W_REFERENCE: AFAD
MAGNITUDE_L: 
MAGNITUDE_L_REFERENCE: 
FOCAL_MECHANISM: 
NETWORK: TK
STATION_CODE: 1210
STATION_NAME: 
STATION_LATITUDE_DEGREE: 38.75008
STATION_LONGITUDE_DEGREE: 40.55931
STATION_ELEVATION_M: 1018.0
LOCATION: Kahramanmaras_Pazarck_Turkiye
SENSOR_DEPTH_M: 
VS30_M/S: None
SITE_CLASSIFICATION_EC8: unknown
MORPHOLOGIC_CLASSIFICATION: 
EPICENTRAL_DISTANCE_KM: 348.26
EARTHQUAKE_BACKAZIMUTH_DEGREE: 
DATE_TIME_FIRST_SAMPLE_YYYYMMDD_HHMMSS: 2023/02/06 01:17:59.0617130
DATE_TIME_FIRST_SAMPLE_PRECISION: millisecond
SAMPLING_INTERVAL_S: 0.01
NDATA: 18251
DURATION_S: 
STREAM: HNZ
UNITS: cm/s^2
INSTRUMENT: sensor = CMG-5T/GURALP | digitizer = 
INSTRUMENT_ANALOG/DIGITAL: 
INSTRUMENTAL_FREQUENCY_HZ: 
INSTRUMENTAL_DAMPING: 
FULL_SCALE_G: 
N_BIT_DIGITAL_CONVERTER: 
PGA_CM/S^2: 48.932
TIME_PGA_S: 
BASELINE_CORRECTION: BASELINE REMOVED
FILTER_TYPE: BUTTERWORTH
FILTER_ORDER: 
LOW_CUT_FREQUENCY_HZ: 
HIGH_CUT_FREQUENCY_HZ: 
LATE/NORMAL_TRIGGERED: 
DATABASE_VERSION: 
HEADER_FORMAT: DYNA 1.2
DATA_TYPE: Acceleration
PROCESSING: Automatic Paolucci et al., 2011
DATA_TIMESTAMP_YYYYMMDD_HHMMSS: 
DATA_LICENSE: U (unknown license)
DATA_CITATION: Turkish Accelerometric Archive v 1.0 - Disaster And Emergency Management Presidency, Earthquake Department
DATA_CREATOR: AFAD
ORIGINAL_DATA_MEDIATOR_CITATION: : AFAD - Disaster And Emergency Management Presidency
ORIGINAL_DATA_MEDIATOR: AFAD PROCESS SERVICE
ORIGINAL_DATA_CREATOR_CITATION: AFAD PROCESS SERVICE
ORIGINAL_DATA_CREATOR: network: TK
USER1: GuestUser
USER2: 
USER3: 
USER4: 
USER5: 
[...]
2.822015
3.131781
3.508819
3.837671
4.210642
4.672787
5.008836
4.972853
4.479730
3.820147
3.466888
3.562008
3.863325
4.147746
4.208448
3.970334
3.606750
3.324518
3.150235
3.059808
2.847352
2.378009
1.873309
1.811355
2.530075
3.482214
4.076714
4.075462
3.553553
2.898037
2.520686
2.544152
2.678697
2.807296
2.903667
2.890838
2.769748
2.525063
2.230942
1.934004
1.512534
1.108586
0.935242
1.208086
1.766916
2.038508
1.781934
1.112338
0.267208
-0.562590
-0.975612
-0.780991
-0.526608
-0.602329
-0.877677
-1.276931
-1.582004
-1.309786
-0.446196
0.361698
0.542238
-0.139560
-1.292266
-2.233768
-2.439027
-1.999410
-1.418990
-0.978434
-0.871738
-1.166485
-1.888647
-2.643037
-3.114884
-3.216575
-2.928712
-2.356114
-1.673065
-1.125812
-1.034760
-1.244400
-1.519748
-1.926825
-2.358620
-2.529774
-2.484405
-2.694671
-3.250998
-3.541678
-3.037918
-2.198734
-1.372691
-0.879569
-1.044465
-1.757553
-2.565449
-2.952500
-2.483158
-1.480017
-0.553222
-0.240015
-0.571684
-1.193094
-1.518192
-0.972504
0.016557
0.699294
1.020011
1.161126
0.928019
0.148597
-0.231258
0.729955
2.050059
3.412090
4.613294
3.828240
-0.068242
-4.263539
-4.932196
-0.448724
4.569799
7.112384
6.608623
3.505329
-0.143340
-4.726314
-7.471343
-5.687215
-0.425260
3.931177
6.060740
4.649270
0.582260
-3.194383
-4.660297
-3.557029
-2.399631
-1.216575
0.399214
1.693974
2.178335
2.198047
0.647338
-1.485667
-3.111470
-4.078316
-1.980981
2.137030
4.253138
3.282851
1.254977
-0.833910
-3.231938
-3.959419
-3.840833
-3.424057
-2.218160
-0.985667
-0.167447
-0.542921
-1.985993
-3.414672
-3.952852
-4.156547
-3.490707
-2.249453
-1.465651
-0.799498
0.193943
0.345384
-0.720337
-1.965659
-2.519484
-2.350521
-1.672478
-0.932169
-0.308569
0.416095
1.014037
1.316606
0.014962
-1.984437
-3.738840
-4.492917
-3.144653
-0.484420
2.121682
3.164248
2.069115
-0.230351
-2.043891
-2.399027
-1.222229
0.192682
0.514650
0.335048
0.369779
-0.173720
-0.490370
-0.294185
0.030286
0.486800
0.338174
0.359451
0.604760
1.076292
1.765287
1.502142
0.317208
-0.625858
-0.504455
-0.061709
0.737111
1.347882
0.385104
-0.539189
-0.850519
-0.795137
-0.080173
0.933607
1.616656
0.920464
0.186725
0.361633
0.277777
0.428592
1.041553
1.241179
0.668581
0.127898
0.092228
0.381968
0.704250
1.090675
1.444246
0.949245
0.229586
0.153552
1.044990
1.872597
2.352265
2.605396
2.116341
0.687975
-0.674058
-0.894023
-0.549839
0.237404
0.766509
0.376642
-0.616488
-1.296722
-1.494785
-1.524197
-1.411555
-0.625563
0.010552
-0.307663
-0.741023
-1.035145
-1.275761
-1.372759
-0.608670
0.021813
-0.201907
-0.051718
0.571881
1.053739
1.229586
1.003988
0.392591
-0.113048
-0.327694
-0.210046
0.645096
1.067504
1.100983
0.828138
0.246466
0.025874
-0.016367
-0.126506
-0.298599
0.218303
1.261495
2.351934
2.826595
3.419531
3.607580
2.645428
1.395725
0.826568
1.143217
1.617879
2.261503
3.123216
3.264018
2.478651
1.798104
1.184517
1.394782
2.317196
2.426083
1.463618
0.822182
1.155415
2.144163
2.836912
3.079093
2.997740
2.119443
1.461111
2.079704
4.161082
6.084760
6.351659
5.528745
4.630423
3.249616
2.424825
2.478955
3.008686
3.861325
4.921413
5.303457
3.752436
2.325947
1.351279
1.018045
0.851897
0.518351
0.831246
1.608164
1.804348
1.632256
2.120059
1.858791
0.509274
-0.112449
-0.242300
-0.266081
0.381611
1.663855
2.578134
2.302160
2.166989
1.753341
1.671675
1.121293
0.779611
1.039313
1.104395
1.231430
0.855330
0.933866
0.707955
0.148812
-0.484801
-0.969476
-1.797710
-2.733579
-3.206364
-3.192910
-2.354977
-1.717923
-1.463227
-1.497646
-2.090895
-2.369372
-2.080571
-1.306469
-0.596197
-0.791444
-1.436634
-1.594334
-1.774249
-2.043026
-1.697590
-1.769244
-1.659105
-1.257661
-0.698831
-0.070538
-0.221980
-1.121866
-2.366250
-2.749234
-2.839035
-2.742977
-1.813053
-1.489833
-1.591524
-1.686019
-1.598096
-1.084636
-0.623742
-0.060531
-0.106527
-0.871556
-1.860930
-2.208870
-1.997666
-1.948542
-2.273640
-2.642857
-2.511129
-1.675386
-1.098095
-1.421003
-1.980773
-3.020837
-3.098435
-2.284595
-1.648480
-1.194783
-1.384398
-2.055245
-2.581222
-2.351557
-1.588094
-0.427254
0.354358
0.015805
-0.592463
-0.999227
-1.573390
-2.145988
-1.679462
-0.561489
0.704171
1.231712
0.720441
0.155352
-0.262050
-0.378135
-0.754548
-1.125329
-1.780844
-2.570905
-2.957330
-2.752697
-2.342180
-2.148185
-2.808394
-4.641646
-6.108811
-6.624463
-7.060326
-6.400431
-3.496452
-1.049614
-1.347803
-2.842190
-3.300895
-3.397893
-3.421986
-2.537119
-0.938539
-0.969203
-2.354702
-2.981745
-2.620664
-1.773970
-1.165077
-0.551490
-0.439787
-1.517085
-2.030234
-1.607200
-1.036480
-0.192915
0.261408
1.095273
0.995459
-0.816516
-1.468903
0.173483
0.883128
0.073981
-0.416639
-0.680097
-0.374399
0.108711
0.447263
0.567101
0.239187
0.437249
0.579616
0.696638
1.485446
1.891271
1.407535
0.179734
0.134364
-0.008942
-0.637236
-0.400062
0.293000
0.746072
0.884684
1.724494
2.486080
2.454164
2.167865
1.957286
0.964470
0.949450
2.102781
2.760799
3.216999
3.090902
3.021439
2.113730
1.211966
1.604024
2.556476
2.489516
1.196633
1.363719
2.066793
2.591831
2.869994
2.573056
1.582117
1.513593
1.498261
0.402189
0.614644
1.731679
2.576808
2.026426
0.879352
-0.029609
-1.298398
-1.472994
-0.471418
0.343987
1.305200
1.454137
0.481033
-0.094694
0.416263
0.861200
1.215709
1.567090
2.043316
2.515787
2.304895
1.545186
0.843988
0.070511
-0.645706
0.100235
1.330225
1.700066
1.375281
0.950995
0.698488
0.878715
0.644982
0.756060
1.189106
1.616833
1.791741
1.076463
0.487594
0.243848
-0.270865
-0.580631
-0.637578
-1.626953
-2.960199
-3.157636
-1.447978
0.596165
1.581784
1.457564
0.151227
-1.416378
-2.168265
-2.061568
-0.802479
0.397160
0.316120
-0.623191
-1.406368
-1.462376
-0.270560
1.222262
1.966639
1.591790
0.518873
-0.514933
-1.217382
-0.454545
0.931580
2.407193
2.175963
0.307353
-1.805002
-2.620406
-2.050938
-1.082215
-0.476764
-0.465500
0.314860
0.246961
-0.592224
-1.355062
-1.268078
-0.656368
0.017920
0.821434
1.039834
1.006667
1.283892
1.180010
0.881821
1.501040
2.547673
3.243864
3.425969
3.606196
3.417833
3.445367
2.835221
2.818325
2.289219
1.408732
2.426579
2.615880
2.110554
1.813616
2.939099
4.196311
5.062717
5.762350
5.715728
4.346186
2.576452
1.247273
0.437813
1.208786
3.360565
6.531130
8.115943
7.293029
5.006704
2.377760
0.967229
1.537949
2.331763
3.767012
4.869654
3.911882
1.644644
-0.298122
-0.459263
-0.619153
-0.771220
-0.748066
0.207202
1.010716
0.806395
-0.349127
-1.506839
-2.644526
-2.833515
-1.761224
-0.549695
1.453772
1.465036
0.399941
-1.183621
-2.801602
-3.229643
-2.823505
-1.496831
-0.228042
0.585172
0.661518
-0.660777
-2.096653
-2.285642
-1.947403
-0.722732
1.308582
1.938440
1.947200
-0.089434
-3.711194
-4.735300
-3.325395
-0.635124
0.687482
1.591436
0.786357
-0.489943
-0.107272
0.065445
0.184345
0.114882
0.473459
0.116133
-1.008725
-1.547218
-1.622001
-1.813806
-1.413613
-0.626370
-0.578497
-1.019367
-1.272186
-0.832256
1.003186
2.105514
1.352689
-0.219296
-2.009369
-2.953374
-2.382967
-1.218059
-0.795338
-1.614498
-3.127033
-4.316973
-4.611720
-4.098260
-3.651759
-3.978735
-5.461858
-6.641785
-6.070439
-2.265636
1.631471
2.510706
0.094530
-2.474652
-3.686495
-5.065111
-3.230294
-0.205226
0.272565
-1.225264
-3.095438
-3.787563
-3.921795
-4.699027
-5.679640
-6.507248
-5.907115
-5.293216
-3.816665
-0.738404
0.526943
0.066674
-1.808193
-3.261278
-3.996269
-4.338263
-3.457777
-1.401118
0.644589
0.279127
-1.817896
-3.969675
-5.014432
-3.605779
-1.437730
-0.132958
0.383318
-0.819138
-2.462463
-3.766610
-2.690564
-0.041595
2.806688
5.724121
5.439073
2.206867
-1.131098
-2.357334
-1.552568
1.318243
3.805759
3.720025
1.412737
0.064472
-0.242479
-1.086357
-2.250327
-4.348289
-6.960963
-7.501333
-4.519131
-0.742175
0.782875
0.287562
-0.792239
-3.663678
-5.298867
-4.190594
-0.836359
0.904275
0.312278
-0.131095
-0.655820
0.400513
2.444030
5.148068
7.262613
5.961907
1.505656
-3.604859
-5.541367
-1.307271
6.133998
10.673478
7.911554
1.620173
-2.593272
-3.786028
-0.122967
5.194997
9.000113
7.906857
1.813226
-1.361094
-2.777257
-2.186512
-0.939939
0.760958
1.894577
-0.204011
-0.525980
-1.232185
-3.715946
-3.887100
-1.685571
0.348247
0.997816
-1.837326
-4.802945
-7.353979
-7.868692
-5.595823
-4.692808
-7.684711
-11.057407
-6.701908
-3.785727
-7.991036
-13.109061
-15.667917
-13.701372
-8.818333
-1.448090
4.082329
6.739746
4.418064
-0.530371
3.997846
10.237598
14.074316
14.320564
9.369000
3.476560
-4.165901
-6.988215
-3.577346
1.920219
6.077342
4.905550
-0.571365
-3.536046
-3.239422
-0.989081
6.544492
14.267992
10.821140
-1.919633
-7.037344
0.998738
11.282033
16.177901
13.160967
7.003818
6.770398
9.240704
12.101503
10.468190
2.831361
0.156421
-0.839837
0.095406
10.542657
20.790908
16.421954
4.154278
-4.088629
-5.928765
-0.130507
2.681167
4.732193
12.702881
10.752919
0.258419
-13.509901
-26.511629
-23.771607
-5.888718
18.770226
27.355126
20.484577
4.403024
-19.978071
-31.451932
-27.560769
-13.908534
0.071616
13.682549
23.503072
21.917633
7.772274
-1.854881
-0.022568
1.024378
3.588240
-1.800439
1.417999
8.369900
6.975014
5.927128
-9.512678
-22.612654
-26.883046
-20.528774
-9.244215
0.101020
6.716872
2.792230
-6.905014
-18.045016
-13.272115
-0.010686
5.748460
10.756970
12.246976
0.832565
-7.097447
-7.209777
-3.894342
6.875818
18.732349
17.612184
1.182379
-19.110429
-19.229642
-8.492650
0.595386
21.522744
29.591681
17.181325
-8.322750
-28.207855
-28.787024
-24.607686
-6.707900
14.275779
12.307356
5.484679
2.913933
8.459997
7.552601
-7.794587
-22.184630
-28.225069
-21.339189
0.751826
18.578707
17.254848
8.177450
-16.688632
-28.644351
-18.360431
3.369190
23.701735
22.740834
15.487301
5.169899
-7.217302
-11.288067
-8.376579
2.133877
13.171875
14.106805
14.885600
17.475432
8.923698
-2.732269
-10.054638
-20.050071
-17.540966
-4.403130
0.766835
7.994709
11.316403
0.178904
-11.184193
0.033407
18.204472
17.247639
10.890237
-6.022052
-20.218726
-17.763439
2.961476
20.651621
21.506137
11.887431
-2.679711
-11.647595
-13.637608
4.759993
16.795813
13.901534
3.441140
-12.293413
-14.282800
-0.118981
14.794221
22.328420
17.758901
0.415755
-17.045666
-20.216857
-6.421629
4.622001
4.109479
-9.640068
-29.049260
-44.335747
-37.636665
-8.418215
22.720786
39.596466
23.682937
-2.339291
-17.530346
-29.679121
-24.900902
-6.441034
5.258111
5.695851
2.288423
2.719592
-3.691940
-9.223299
-7.903508
-2.053310
-5.585895
-8.432302
0.006790
-0.093337
3.310334
9.336379
10.618623
3.583491
-10.758679
-18.614535
-9.395396
15.688459
32.367641
32.797871
16.063932
-8.374109
-19.533511
-25.397477
-14.320054
-1.805818
0.526501
1.813438
5.123867
8.695250
4.832248
7.239349
8.075717
5.430189
0.064039
2.620704
0.961734
-2.249195
-2.892821
-16.563205
-28.497648
-27.549576
-6.904449
9.629549
8.253749
-2.808029
-19.347973
-25.275457
-14.692722
7.708684
30.721801
35.056961
24.222031
0.553712
-18.157098
-12.699896
4.764652
23.000174
36.722185
36.881449
23.935729
5.885753
-8.442962
-12.754030
-5.763956
17.882460
39.976290
41.508537
21.512354
4.220523
-12.185190
-21.045439
-11.501828
-10.584420
-6.057768
6.645144
17.921567
18.021068
9.588233
8.327579
-0.095243
-8.590030
-9.519329
-3.645038
2.431696
4.294985
14.851437
18.987596
16.960662
9.660821
-5.714842
-18.804806
-18.150230
-8.529334
-1.111844
6.509027
21.355270
24.557750
9.132337
-7.873195
-26.162223
-31.629438
-21.303590
-0.534870
18.522628
27.944835
28.925448
15.598309
-3.590604
-9.107883
-8.509941
-6.240514
10.760950
30.106937
34.275637
26.909462
27.706405
28.181379
8.172367
-13.772526
-17.734090
-6.432009
4.876955
18.976944
25.050549
16.833299
13.588890
10.075391
1.401628
-2.028954
-2.574956
-1.271123
6.226468
5.622893
-1.551791
-13.041610
-16.669941
-16.444031
-14.189623
-6.153227
-3.807140
-6.629767
-5.658228
0.822766
1.877222
-0.395335
-1.760809
-7.309064
-17.505688
-12.389229
-0.808984
9.584137
20.552046
13.628930
-10.866684
-24.814606
-19.181557
-2.940741
14.322303
21.522956
11.549427
-9.309095
-25.848727
-27.728913
-18.899016
-14.178995
-5.529951
-3.577799
-9.142951
-7.859768
-0.048032
8.659211
11.413626
8.145749
4.052769
-5.634461
-17.538553
-12.318839
-6.555626
1.236712
8.271218
11.909873
6.707993
-7.150754
-7.406077
-3.358780
0.523308
-1.416015
-3.462975
-3.005836
-3.428870
-8.518108
-10.413940
-6.928915
-12.949329
-21.332413
-10.742168
7.274014
16.448409
23.373714
22.853370
11.202410
-12.020660
-25.933538
-22.041124
-9.063490
3.001116
13.324462
13.823529
3.649434
-3.676691
-12.327613
-9.688344
4.158199
14.791311
12.663624
-5.640423
-28.009602
-35.641112
-27.021793
-14.401172
-4.147915
-10.041607
-24.963884
-25.700439
-19.845861
-9.111058
2.859679
9.620715
19.311386
16.748463
2.553666
-8.004038
-18.144966
-20.270776
-12.444333
0.017963
12.472436
11.813166
13.346977
17.266613
15.187425
14.687418
10.661711
3.885030
0.281417
0.858082
2.886893
3.408802
2.975442
4.383469
5.319338
7.733948
7.252402
9.771520
14.797239
18.706549
16.314467
5.830292
-3.316881
-6.354154
1.169720
17.036626
38.792530
48.931893
42.921492
22.152771
-1.303092
-14.904639
-16.251027
-10.725614
-6.815365
-4.013704
-2.687655
3.880324
10.321894
18.631447
18.960612
6.953578
1.512020
-2.177952
-8.813830
-15.117414
-20.030492
-14.401511
0.774837
8.448274
8.932635
9.008042
3.910669
-9.145815
-18.360261
-15.307032
-6.004350
8.863483
16.174587
9.584705
-2.682032
-12.125205
-16.069560
-17.842111
-13.915904
-1.932964
16.289730
30.443849
34.007723
16.940863
-7.636103
-19.013906
-19.716668
-14.322046
-4.848523
7.071213
8.921048
4.987018
-0.277754
-3.757147
-2.749626
1.283904
7.491428
3.202888
-6.938666
-12.722844
-11.860818
-8.170848
-3.760906
1.032646
0.784520
-3.423919
-10.121750
-13.417787
-8.821672
-6.425210
-9.785703
-8.988134
-3.327550
-4.196147
-10.978773
-11.704064
-7.524100
-3.026860
5.522058
15.063478
13.517777
2.226020
-3.236501
-0.827836
1.346471
2.583971
3.190048
-0.563128
-9.613305
-18.170358
-22.565595
-21.024587
-8.472178
9.271786
16.101971
12.326579
4.610275
-10.231589
-23.711733
-31.827917
-32.227798
-23.670432
-8.031939
9.315900
16.800975
12.682337
3.617142
-6.563837
-12.883066
-13.544526
-19.506741
-18.383761
-13.200030
-10.323899
-6.638622
-1.990567
3.902811
2.608677
-2.703030
-12.249457
-19.856562
-17.769865
-9.068255
1.244765
3.825836
-3.459926
-5.945564
-2.487762
1.853657
2.952856
-2.133878
-6.535060
-10.895253
-12.888708
-9.820459
-4.362006
2.516991
1.638068
-5.105446
-11.988198
-17.774566
-19.175398
-16.710724
-9.064196
1.716289
8.394095
5.856516
-1.110718
-8.728148
-14.502627
-16.359659
-13.810816
-8.610189
-1.838202
8.183513
16.792193
16.107891
14.202986
11.292436
3.621814
-1.958982
-0.995266
4.246351
10.661638
17.284686
19.273134
17.366038
12.471108
9.596854
5.590233
5.068949
4.806743
0.037596
-1.814743
-1.904231
-1.963994
-2.771264
-2.275951
-0.101957
0.802935
-0.989954
-2.592290
-4.611715
-2.266254
-0.007152
-0.496208
0.163062
1.082660
1.656822
-0.903599
-3.556323
-6.802297
-9.032926
-6.152101
-2.663322
4.865245
11.646305
9.973568
1.182156
-13.430355
-21.625076
-21.941101
-17.910700
-8.143995
1.868958
7.721034
6.327086
-1.836972
-10.295776
-14.787385
-13.765470
-8.107077
-0.744657
0.634584
-2.588235
-3.590751
-5.136766
-6.330148
-4.590139
-0.730893
1.183086
-0.657363
-1.476523
-2.164579
-2.993126
-4.337636
-5.584836
-1.904252
1.168690
1.974081
1.930275
-0.882651
-5.365186
-8.466602
-8.699083
-6.796682
-5.176512
-2.507518
1.640218
3.788868
3.875853
1.293842
-3.199643
-6.943120
-9.052033
-7.839878
-3.167730
-0.026577
-2.370787
-7.223476
-9.940031
-10.568012
-5.745987
3.072020
8.261071
7.368068
6.250720
4.121781
0.308216
-3.117359
-6.932801
-7.687504
-7.568605
-6.495062
-3.059788
3.052929
8.854002
10.193193
4.843626
-6.087362
-16.142557
-17.793705
-9.691289
1.413981
9.676600
13.233278
8.385907
-1.487496
-8.518560
-5.155878
-1.580114
-6.753521
-6.001321
1.863608
6.943771
1.938702
-0.409576
2.541650
5.125849
6.480371
4.477217
-1.221541
-7.162792
-6.475049
-6.628055
-2.954355
5.830486
6.605213
-2.950601
-9.095860
-7.592713
-8.190968
-4.112382
10.879044
19.828467
17.972687
12.451028
5.243490
-5.357081
-12.835273
-9.114325
-1.701217
4.760378
7.008216
8.280759
7.455655
2.704969
1.278168
5.593615
9.707246
11.190368
11.121531
11.747946
11.656580
9.716944
9.065183
8.123056
5.975657
4.041652
4.520068
4.456863
4.613310
6.896192
10.299864
10.196921
4.790407
-2.751615
-8.346492
-9.919102
-8.895623
-5.628687
0.514068
5.943422
9.343339
9.116490
5.815760
0.583529
-7.209122
-9.749830
-8.171901
-2.023514
6.385227
8.458156
3.511598
-4.098635
-11.528954
-13.852826
-10.803351
-5.303909
0.451795
2.142367
0.910498
-4.491635
-8.827422
-7.530785
-3.048877
2.159573
5.803861
6.581092
1.623896
-4.129931
-6.128705
-4.192824
0.020933
3.840442
8.512278
6.443415
-3.526360
-11.725461
-12.809956
-8.869982
-4.229749
2.501874
6.742227
4.170230
-1.381154
-6.083967
-6.578655
-5.312056
-4.381194
-2.850824
-0.615816
-1.287602
-3.574239
-1.148051
0.448965
-1.921841
-6.208504
-9.505792
-10.119692
-6.756697
-0.065437
4.804461
5.702156
3.314767
1.032197
0.657036
-0.494731
-2.294817
-1.126154
1.240270
0.916111
-0.815764
-1.372404
0.506217
2.654554
3.240293
3.707758
2.183020
-0.336098
-1.531984
-0.568267
2.047535
4.446500
5.774427
5.122040
2.469316
0.046256
-1.502888
-1.761339
-0.134911
2.968694
8.050109
11.556410
9.723471
2.028756
-4.128080
-4.423766
-2.673432
-0.938116
3.900179
8.223449
6.689012
4.021894
2.890465
1.272485
-4.202553
-7.612171
-3.904365
3.665817
6.213721
4.127336
4.858259
5.294747
2.915806
2.271554
4.788482
4.442419
-0.155886
-6.089315
-9.671025
-6.982319
2.154842
9.326395
9.834224
3.925514
-5.874359
-13.190471
-14.009631
-8.420074
-0.457835
8.225628
12.537946
7.888639
-0.777302
-6.747340
-8.077457
-5.467287
2.287816
12.221920
14.125886
5.227151
-5.459467
-7.170377
-4.280166
-2.697856
1.106947
4.715252
5.423959
2.797830
-0.975371
-4.190681
-5.890014
-4.445691
-2.085837
-0.477244
1.437360
2.528737
3.355719
3.147017
0.866951
-0.360850
0.156365
1.496494
3.751841
7.472789
6.224650
0.722390
-0.352404
3.797522
7.116086
7.157075
4.315049
1.208940
-1.461933
-1.655615
4.018423
8.272544
9.342644
3.797831
-5.354662
-9.850964
-8.403512
-3.051130
0.792472
3.932999
6.471203
4.149835
0.271500
-4.474492
-7.842807
-3.985751
2.611328
9.123299
10.868627
10.164300
7.712141
2.299369
-1.465697
-4.665675
-6.342167
-6.774275
-4.698843
-0.255108
2.441108
4.594764
9.162405
10.881763
7.166760
3.252130
-0.655303
-0.928461
4.306585
11.273505
14.741946
12.572332
5.674873
-1.742304
-2.661277
1.767752
5.581316
4.510902
4.166717
