EVENT_NAME: 202302060117
EVENT_ID: 13194
EVENT_DATE_YYYYMMDD: 2023/02/06
EVENT_TIME_HHMMSS: 01:17:32.00000
EVENT_LATITUDE_DEGREE: 37.288
EVENT_LONGITUDE_DEGREE: 37.043
EVENT_DEPTH_KM: 8.6
HYPOCENTER_REFERENCE: AFAD
MAGNITUDE_W: 7.7
MAGNITUDE_W_REFERENCE: AFAD
MAGNITUDE_L: 
MAGNITUDE_L_REFERENCE: 
FOCAL_MECHANISM: 
NETWORK: TK
STATION_CODE: 1908
STATION_NAME: 
STATION_LATITUDE_DEGREE: 40.157013
STATION_LONGITUDE_DEGREE: 34.382448
STATION_ELEVATION_M: 762.0
LOCATION: Kahramanmaras_Pazarck_Turkiye
SENSOR_DEPTH_M: 
VS30_M/S: None
SITE_CLASSIFICATION_EC8: unknown
MORPHOLOGIC_CLASSIFICATION: 
EPICENTRAL_DISTANCE_KM: 393.71
EARTHQUAKE_BACKAZIMUTH_DEGREE: 
DATE_TIME_FIRST_SAMPLE_YYYYMMDD_HHMMSS: 2023/02/06 01:18:02.1819270
DATE_TIME_FIRST_SAMPLE_PRECISION: millisecond
SAMPLING_INTERVAL_S: 0.01
NDATA: 21001
DURATION_S: 
STREAM: HNN
UNITS: cm/s^2
INSTRUMENT: sensor = GMS+/GEOSIG | digitizer = 
INSTRUMENT_ANALOG/DIGITAL: 
INSTRUMENTAL_FREQUENCY_HZ: 
INSTRUMENTAL_DAMPING: 
FULL_SCALE_G: 
N_BIT_DIGITAL_CONVERTER: 
PGA_CM/S^2: 3.471
TIME_PGA_S: 
BASELINE_CORRECTION: BASELINE REMOVED
FILTER_TYPE: BUTTERWORTH
FILTER_ORDER: 
LOW_CUT_FREQUENCY_HZ: 
HIGH_CUT_FREQUENCY_HZ: 
LATE/NORMAL_TRIGGERED: 
DATABASE_VERSION: 
HEADER_FORMAT: DYNA 1.2
DATA_TYPE: Acceleration
PROCESSING: Automatic Paolucci et al., 2011
DATA_TIMESTAMP_YYYYMMDD_HHMMSS: 
DATA_LICENSE: U (unknown license)
DATA_CITATION: Turkish Accelerometric Archive v 1.0 - Disaster And Emergency Management Presidency, Earthquake Department
DATA_CREATOR: AFAD
ORIGINAL_DATA_MEDIATOR_CITATION: : AFAD - Disaster And Emergency Management Presidency
ORIGINAL_DATA_MEDIATOR: AFAD PROCESS SERVICE
ORIGINAL_DATA_CREATOR_CITATION: AFAD PROCESS SERVICE
ORIGINAL_DATA_CREATOR: network: TK
USER1: GuestUser
USER2: 
USER3: 
USER4: 
USER5: 
[...]
0.876735
0.863746
0.832313
0.794386
0.760876
0.723209
0.667098
0.624755
0.583192
0.515652
0.463957
0.417458
0.346281
0.297704
0.263154
0.216915
0.194314
0.190937
0.178207
0.170414
0.185999
0.191973
0.181842
0.195869
0.217688
0.208856
0.233273
0.279511
0.285745
0.327827
0.377182
0.395625
0.424978
0.461605
0.483425
0.484203
0.506543
0.525505
0.527842
0.549662
0.582392
0.605251
0.632007
0.679804
0.708637
0.729938
0.773318
0.801892
0.816438
0.858260
0.893328
0.918785
0.967881
1.012040
1.041653
1.073085
1.109711
1.119062
1.118023
1.119581
1.100877
1.072042
1.047623
1.026321
0.983979
0.956702
0.934362
0.890460
0.864743
0.847857
0.812528
0.789927
0.788368
0.770184
0.757714
0.761091
0.757973
0.739788
0.733294
0.730955
0.703939
0.688871
0.681857
0.664452
0.652502
0.652501
0.646266
0.646006
0.664449
0.675618
0.683151
0.709127
0.738480
0.745753
0.771729
0.815889
0.836150
0.865763
0.913300
0.943173
0.972266
1.017725
1.039025
1.045519
1.063962
1.072014
1.058246
1.056167
1.052010
1.022656
1.007588
0.996418
0.972259
0.945242
0.928357
0.905756
0.869648
0.852503
0.828863
0.794053
0.771453
0.754308
0.714822
0.680013
0.661828
0.611173
0.557920
0.524150
0.468559
0.400759
0.359455
0.303085
0.226712
0.176836
0.128778
0.053185
-0.006042
-0.043450
-0.106054
-0.155411
-0.190220
-0.231784
-0.272308
-0.298286
-0.320107
-0.356995
-0.371802
-0.388428
-0.425056
-0.453631
-0.477530
-0.523769
-0.566372
-0.587674
-0.638848
-0.677035
-0.693401
-0.735484
-0.771592
-0.787958
-0.823287
-0.866929
-0.893946
-0.933431
-0.991879
-1.031884
-1.064356
-1.118908
-1.160471
-1.188787
-1.227233
-1.265419
-1.290098
-1.303087
-1.338676
-1.359198
-1.351666
-1.376344
-1.384138
-1.358681
-1.362578
-1.360761
-1.336863
-1.331668
-1.330110
-1.311407
-1.299978
-1.306473
-1.287510
-1.264392
-1.265691
-1.247508
-1.210622
-1.193997
-1.173736
-1.130355
-1.112172
-1.096587
-1.066454
-1.055025
-1.056065
-1.045934
-1.031128
-1.029570
-1.010348
-0.984372
-0.968267
-0.940992
-0.904365
-0.879168
-0.863323
-0.837347
-0.815267
-0.808514
-0.800982
-0.785656
-0.803840
-0.819167
-0.807998
-0.826702
-0.838392
-0.827742
-0.839952
-0.857097
-0.848266
-0.858137
-0.882296
-0.876322
-0.871907
-0.874246
-0.846711
-0.805928
-0.776055
-0.723323
-0.660200
-0.606169
-0.544345
-0.474728
-0.414722
-0.365107
-0.301724
-0.247953
-0.208728
-0.151840
-0.090016
-0.045076
0.020384
0.101431
0.161957
0.233912
0.321973
0.397824
0.455232
0.525888
0.588492
0.618624
0.659667
0.694216
0.704865
0.719672
0.745128
0.757077
0.767467
0.789806
0.792663
0.791364
0.803572
0.801753
0.796297
0.799154
0.803570
0.802530
0.795775
0.811101
0.804087
0.793176
0.797591
0.773952
0.757586
0.734206
0.704592
0.667185
0.624582
0.592370
0.533922
0.483266
0.448976
0.384813
0.327404
0.299868
0.238042
0.184789
0.160370
0.108676
0.058800
0.035940
0.009183
-0.037576
-0.059657
-0.070828
-0.097065
-0.111353
-0.100183
-0.098625
-0.103561
-0.072650
-0.057844
-0.053948
-0.029011
-0.003814
0.001381
0.018265
0.059048
0.056450
0.061645
0.091777
0.086321
0.072293
0.073591
0.059304
0.031768
0.019558
0.010465
-0.010317
-0.027202
-0.016552
-0.020190
-0.026944
-0.005125
-0.002787
0.002407
0.027864
0.033578
0.034617
0.044747
0.048383
0.039291
0.021366
0.008637
-0.029030
-0.078906
-0.112157
-0.163852
-0.212689
-0.248537
-0.282048
-0.316598
-0.335821
-0.344394
-0.365955
-0.369593
-0.370892
-0.388817
-0.398948
-0.401807
-0.423628
-0.443890
-0.444670
-0.468050
-0.491949
-0.493249
-0.508056
-0.531696
-0.531956
-0.530918
-0.552998
-0.557155
-0.551181
-0.575600
-0.584433
-0.578978
-0.595344
-0.607035
-0.605217
-0.599762
-0.608076
-0.595607
-0.574567
-0.591972
-0.590154
-0.575088
-0.597169
-0.615094
-0.606522
-0.630681
-0.656139
-0.646788
-0.658478
-0.681858
-0.681599
-0.674326
-0.691731
-0.697187
-0.686797
-0.701864
-0.715892
-0.710437
-0.732258
-0.763431
-0.761873
-0.790968
-0.829414
-0.841884
-0.875394
-0.911243
-0.929947
-0.950729
-0.977226
-0.995670
-0.994372
-0.995412
-1.008401
-0.997751
-0.995933
-1.009961
-1.001130
-1.001130
-1.013080
-1.018276
-1.022173
-1.050489
-1.078804
-1.102963
-1.155697
-1.205053
-1.251552
-1.308442
-1.382996
-1.442484
-1.494698
-1.571849
-1.620426
-1.662510
-1.723815
-1.756807
-1.780186
-1.816035
-1.829803
-1.833441
-1.838637
-1.831364
-1.803050
-1.772657
-1.754215
-1.711873
-1.669531
-1.649530
-1.618618
-1.580433
-1.571342
-1.557055
-1.527702
-1.533158
-1.540951
-1.532120
-1.537576
-1.552383
-1.547188
-1.547708
-1.565893
-1.565894
-1.559660
-1.574467
-1.590054
-1.590834
-1.615253
-1.649023
-1.670065
-1.709031
-1.760465
-1.791119
-1.830084
-1.881519
-1.907497
-1.933474
-1.961270
-1.988026
-2.002314
-2.021278
-2.058945
-2.072194
-2.101548
-2.145450
-2.162595
-2.199742
-2.244163
-2.265984
-2.302872
-2.342877
-2.376128
-2.397170
-2.436395
-2.484973
-2.488870
-2.529654
-2.578751
-2.593558
-2.632524
-2.682920
-2.715131
-2.749941
-2.812286
-2.854109
-2.890997
-2.948406
-2.997763
-3.031533
-3.069460
-3.115439
-3.128169
-3.140638
-3.167655
-3.164019
-3.150771
-3.156227
-3.143499
-3.118042
-3.114406
-3.101159
-3.064272
-3.042972
-3.025048
-2.979330
-2.951795
-2.933352
-2.900622
-2.871009
-2.858281
-2.848670
-2.816200
-2.813863
-2.816201
-2.795680
-2.798279
-2.807631
-2.793344
-2.791267
-2.809971
-2.794385
-2.785294
-2.792828
-2.776983
-2.755163
-2.743474
-2.721914
-2.676455
-2.640088
-2.598266
-2.531247
-2.471241
-2.422665
-2.349931
-2.280313
-2.236933
-2.177706
-2.111726
-2.072242
-2.034836
-1.974570
-1.932229
-1.901577
-1.848065
-1.799749
-1.771954
-1.723898
-1.673763
-1.646488
-1.597653
-1.549337
-1.515308
-1.471927
-1.426988
-1.402570
-1.380491
-1.357372
-1.358671
-1.363867
-1.379714
-1.405951
-1.447514
-1.489078
-1.521290
-1.583635
-1.642603
-1.671957
-1.725210
-1.791452
-1.817429
-1.859512
-1.917960
-1.946536
-1.975370
-2.017194
-2.043431
-2.047588
-2.077722
-2.102140
-2.097985
-2.116689
-2.134094
-2.128899
-2.132536
-2.138771
-2.123705
-2.107341
-2.107082
-2.082144
-2.046817
-2.050194
-2.036427
-2.012529
-2.020063
-2.018765
-2.000842
-1.983438
-1.983958
-1.960579
-1.916679
-1.904211
-1.876936
-1.830698
-1.815632
-1.799787
-1.752510
-1.734327
-1.730690
-1.691986
-1.669906
-1.663672
-1.639255
-1.611200
-1.596914
-1.589641
-1.556911
-1.534052
-1.542625
-1.516649
-1.497167
-1.503662
-1.480283
-1.462100
-1.461321
-1.451710
-1.427812
-1.419760
-1.428073
-1.407033
-1.396643
-1.413009
-1.397423
-1.387553
-1.413011
-1.411713
-1.407817
-1.438470
-1.450680
-1.441848
-1.444187
-1.441330
-1.412236
-1.375870
-1.355089
-1.307292
-1.250144
-1.230402
-1.180787
-1.125977
-1.104157
-1.059737
-1.001030
-0.955052
-0.917386
-0.854003
-0.789322
-0.753734
-0.690871
-0.619176
-0.574756
-0.515530
-0.438899
-0.380452
-0.317329
-0.234203
-0.173159
-0.127700
-0.070032
-0.019897
-0.001974
0.012053
0.043484
0.041145
0.033871
0.063744
0.063484
0.061924
0.088940
0.097511
0.103485
0.127643
0.144527
0.147644
0.173360
0.214143
0.239080
0.277006
0.352078
0.411564
0.465336
0.562488
0.652367
0.720946
0.804590
0.902003
0.966684
1.027729
1.121245
1.172678
1.216578
1.287235
1.337889
1.368021
1.414259
1.468810
1.486473
1.516346
1.570637
1.590119
1.608302
1.658696
1.685712
1.694543
1.727013
1.752730
1.753249
1.766756
1.790914
1.781302
1.779223
1.792730
1.777663
1.748049
1.729865
1.698172
1.629073
1.585172
1.541530
1.459703
1.408268
1.372420
1.303321
1.239937
1.209543
1.162005
1.101478
1.077060
1.044328
0.979645
0.949771
0.920417
0.849240
0.801962
0.771568
0.708444
0.649216
0.615705
0.559855
0.500887
0.462960
0.421397
0.362948
0.309955
0.280600
0.222931
0.159288
0.134869
0.091747
0.023687
-0.002550
-0.039698
-0.112434
-0.151140
-0.191924
-0.268036
-0.337135
-0.380777
-0.457149
-0.548328
-0.596646
-0.667563
-0.764717
-0.819529
-0.872002
-0.964740
-1.019292
-1.050465
-1.124499
-1.173336
-1.187365
-1.235422
-1.273609
-1.280104
-1.305302
-1.332318
-1.343749
-1.345827
-1.370506
-1.384794
-1.373365
-1.403239
-1.421423
-1.413111
-1.427659
-1.450779
-1.446363
-1.437792
-1.459093
-1.453898
-1.428182
-1.431560
-1.427404
-1.390258
-1.374153
-1.367919
-1.329994
-1.292847
-1.277522
-1.240375
-1.180629
-1.156472
-1.114650
-1.047370
-1.018537
-0.983988
-0.923983
-0.888395
-0.871770
-0.829169
-0.790205
-0.782412
-0.756176
-0.716173
-0.709419
-0.694353
-0.656168
-0.634868
-0.620581
-0.584994
-0.548367
-0.535379
-0.493038
-0.445761
-0.431734
-0.404718
-0.363416
-0.344973
-0.337700
-0.302113
-0.289385
-0.299776
-0.288607
-0.288088
-0.310948
-0.320560
-0.314066
-0.329393
-0.353293
-0.342643
-0.338747
-0.370699
-0.367582
-0.374077
-0.411484
-0.420057
-0.437462
-0.471752
-0.495132
-0.488639
-0.497731
-0.518513
-0.499551
-0.491499
-0.508644
-0.503709
-0.499553
-0.533843
-0.547612
-0.544235
-0.581643
-0.620868
-0.627623
-0.664770
-0.727115
-0.751534
-0.793877
-0.865314
-0.909215
-0.948441
-1.017280
-1.075988
-1.119889
-1.181974
-1.250554
-1.306145
-1.350825
-1.419405
-1.474476
-1.506169
-1.566695
-1.608778
-1.621767
-1.669825
-1.718402
-1.727495
-1.770357
-1.829325
-1.852964
-1.883877
-1.939728
-1.974797
-1.979734
-2.017141
-2.048054
-2.034027
-2.056368
-2.094035
-2.097412
-2.119493
-2.159498
-2.184177
-2.200802
-2.238469
-2.268603
-2.267825
-2.290425
-2.310687
-2.301077
-2.305234
-2.331990
-2.330952
-2.335888
-2.377192
-2.386544
-2.398494
-2.427589
-2.448631
-2.454606
-2.464218
-2.490975
-2.485001
-2.476429
-2.488898
-2.473313
-2.434348
-2.420581
-2.387332
-2.314857
-2.266541
-2.215627
-2.126008
-2.045740
-1.980279
-1.877152
-1.772986
-1.695316
-1.599722
-1.489581
-1.406975
-1.333981
-1.234231
-1.160197
-1.111621
-1.031614
-0.962516
-0.930305
-0.875495
-0.815749
-0.788734
-0.752367
-0.704051
-0.665606
-0.640669
-0.596768
-0.543517
-0.523775
-0.474679
-0.411297
-0.391295
-0.351032
-0.288948
-0.263231
-0.240892
-0.189718
-0.154131
-0.144260
-0.092567
-0.041134
-0.036199
0.012897
0.056277
0.058875
0.069784
0.091344
0.098098
0.075757
0.098356
0.119656
0.108486
0.148489
0.202261
0.212911
0.250317
0.321492
0.354222
0.382277
0.438126
0.485663
0.513458
0.564112
0.616324
0.647236
0.688798
0.735556
0.757116
0.764649
0.789066
0.786728
0.765166
0.753736
0.730876
0.687754
0.658140
0.636838
0.586962
0.551893
0.533968
0.501756
0.464089
0.443567
0.426681
0.393171
0.382000
0.387195
0.362516
0.346150
0.372386
0.354721
0.327705
0.354720
0.344329
0.321209
0.339651
0.340430
0.323804
0.338870
0.357053
0.358871
0.376275
0.406927
0.425889
0.440436
0.474205
0.505896
0.509013
0.530053
0.568758
0.569277
0.587979
0.630841
0.635776
0.644867
0.692663
0.723315
0.733186
0.778904
0.825662
0.848781
0.879173
0.934243
0.958401
0.968791
1.025939
1.052695
1.059188
1.100231
1.141534
1.149326
1.175822
1.222579
1.226995
1.245957
1.287519
1.291155
1.290376
1.325963
1.325703
1.309596
1.325182
1.317388
1.297385
1.276344
1.276343
1.257639
1.224908
1.242052
1.237635
1.214255
1.236075
1.249063
1.216332
1.221007
1.226981
1.180482
1.155284
1.149308
1.118655
1.080728
1.087222
1.084624
1.040203
1.044358
1.041500
0.990845
0.974998
0.956294
0.916030
0.878623
0.852905
0.828746
0.780688
0.763803
0.743021
0.693144
0.663271
0.643528
0.599626
0.551828
0.546632
0.517278
0.477013
0.486884
0.484285
0.457529
0.475712
0.499350
0.495193
0.522468
0.558835
0.587149
0.609748
0.652869
0.698588
0.708198
0.735993
0.776256
0.773398
0.774177
0.816518
0.812102
0.811322
0.859378
0.877561
0.894965
0.938086
0.978090
0.994974
1.029522
1.080436
1.086670
1.103554
1.155248
1.165638
1.175508
1.228241
1.256295
1.261230
1.297856
1.335522
1.318117
1.329806
1.353704
1.325129
1.319154
1.327725
1.327725
1.313956
1.321229
1.342010
1.323306
1.325643
1.348243
1.328500
1.321225
1.346163
1.329537
1.314989
1.326418
1.319144
1.297583
1.289010
1.290828
1.262772
1.241730
1.246146
1.220168
1.189255
1.203542
1.193670
1.162757
1.177044
1.177043
1.147429
1.147168
1.158857
1.139634
1.135996
1.154699
1.147944
1.140411
1.158334
1.164048
1.143526
1.133135
1.128198
1.099104
1.053124
1.040395
1.007923
0.948955
0.942201
0.903495
0.838552
0.817510
0.775687
0.706588
0.662427
0.624760
0.562415
0.512279
0.493835
0.457727
0.421099
0.424475
0.422136
0.409407
0.413823
0.438500
0.453566
0.464476
0.508895
0.543184
0.569939
0.633582
0.692549
0.730994
0.805027
0.879839
0.933091
1.008943
1.088431
1.155451
1.214677
1.300660
1.373134
1.413657
1.484573
1.544839
1.573153
1.616793
1.666668
1.680435
1.706671
1.758624
1.778885
1.795510
1.839410
1.870062
1.879673
1.918637
1.951887
1.951107
1.971628
2.000981
2.002280
2.010332
2.046958
2.071895
2.079428
2.118652
2.173463
2.193464
2.233208
2.298669
2.328022
2.361272
2.423096
2.470113
2.494011
2.541029
2.592722
2.605710
2.632725
2.683379
2.697666
2.713771
2.764944
2.789102
2.802869
2.842873
2.874824
2.881317
2.905994
2.937166
2.927034
2.938723
2.969116
2.963400
2.960282
2.988077
3.003662
2.994570
3.019507
3.055874
3.049639
3.067302
3.110163
3.106266
3.120293
3.158998
3.169128
3.186012
3.225237
3.264980
3.288099
3.335117
3.388888
3.405512
3.434866
3.471232
3.470193
3.452788
3.453826
3.435642
3.386805
3.374075
3.353553
3.303417
3.288870
3.273543
3.233278
3.201846
3.180544
3.141318
3.088585
3.057672
3.016628
2.958179
2.927266
2.900250
2.845958
2.815824
2.805692
2.763609
2.737112
2.734774
2.718148
2.689054
2.684377
2.682558
2.645151
2.628006
2.624888
2.590078
2.548515
2.533188
2.500197
2.449281
2.431617
2.407977
2.363296
2.339657
2.331863
2.293936
2.264842
2.256788
2.218342
2.176779
2.163790
2.133656
2.075207
2.047931
2.016239
1.959869
1.913110
1.881677
1.833100
1.764521
1.731270
1.680095
1.601904
1.559561
1.520595
1.451756
1.402400
1.373565
1.312519
1.260824
1.242380
1.207311
1.154577
1.138991
1.126261
1.082100
1.070150
1.070150
1.037158
1.025208
1.037677
1.020012
1.007802
1.024686
1.034297
1.015593
1.021048
1.040270
1.005460
0.990913
0.992731
0.952726
0.915318
0.897654
0.869598
0.825437
0.801538
0.780755
0.735555
0.712955
0.702823
0.656064
0.625671
0.618656
0.594757
0.564104
0.562545
0.572675
0.549555
0.568258
0.604365
0.595013
0.613975
0.649303
0.656576
0.665407
0.688786
0.708008
0.710605
0.724891
0.753206
0.750867
0.759439
0.789311
0.788012
0.795804
0.827236
0.836846
0.834508
0.859705
0.870874
0.853729
0.864379
0.875288
0.854246
0.852687
0.866974
0.848530
0.836060
0.840476
0.825928
0.800210
0.788780
0.782285
0.755269
0.733707
0.734746
0.719419
0.691103
0.689025
0.667723
0.622782
0.600961
0.573425
0.524329
0.491078
0.491597
0.457566
0.428731
0.445616
0.426132
0.395479
0.388984
0.378593
0.338069
0.311831
0.307675
0.266890
0.248446
0.254160
0.220650
0.206362
0.209738
0.188956
0.172850
0.161679
0.161938
0.146092
0.141415
0.162976
0.147908
0.145050
0.172585
0.177260
0.160375
0.173103
0.182973
0.152840
0.152319
0.162710
0.131797
0.116729
0.128418
0.104519
0.073346
0.068410
0.045030
-0.006404
-0.028226
-0.045371
-0.103040
-0.130057
-0.141747
-0.183050
-0.209028
-0.205651
-0.220978
-0.245137
-0.231111
-0.217084
-0.224618
-0.213968
-0.188251
-0.192928
-0.188512
-0.164355
-0.169031
-0.175266
-0.169552
-0.170592
-0.190335
-0.193452
-0.181764
-0.196571
-0.202806
-0.192935
-0.205665
-0.217615
-0.210602
-0.227487
-0.261258
-0.281001
-0.297886
-0.347243
-0.391404
-0.415303
-0.475310
-0.527524
-0.557398
-0.604157
-0.661047
-0.688583
-0.710664
-0.764696
-0.785478
-0.790155
-0.828081
-0.848604
-0.839772
-0.865230
-0.885493
-0.866790
-0.881338
-0.909393
-0.891729
-0.884716
-0.916409
-0.904200
-0.888355
-0.903162
-0.895630
-0.874849
-0.866537
-0.873032
-0.853030
-0.837705
-0.860045
-0.852253
-0.844980
-0.884465
-0.898234
-0.910703
-0.954605
-0.995129
-1.034614
-1.074619
-1.139822
-1.189958
-1.234898
-1.321142
-1.382448
-1.429726
-1.516749
-1.590524
-1.638581
-1.718071
-1.794703
-1.842501
-1.903807
-1.978621
-2.023301
-2.063046
-2.126171
-2.163058
-2.194231
-2.240990
-2.276319
-2.289568
-2.310869
-2.346198
-2.349576
-2.357630
-2.394777
-2.402051
-2.404390
-2.444395
-2.458942
-2.457904
-2.478946
-2.485700
-2.476869
-2.477649
-2.473233
-2.453491
-2.443621
-2.446479
-2.445960
-2.437648
-2.455313
-2.473238
-2.474018
-2.500774
-2.520777
-2.525973
-2.544937
-2.571434
-2.580007
-2.594035
-2.627286
-2.635079
-2.640275
-2.660278
-2.660019
-2.643914
-2.638979
-2.627810
-2.597158
-2.574818
-2.559493
-2.521048
-2.488058
-2.467017
-2.422338
-2.379996
-2.344149
-2.291157
-2.226215
-2.175821
-2.117114
-2.041263
-1.991128
-1.939175
-1.881507
-1.828775
-1.787732
-1.744871
-1.689801
-1.660967
-1.617067
-1.555763
-1.519915
-1.474197
-1.407697
-1.364316
-1.327949
-1.265086
-1.212354
-1.180143
-1.123255
-1.059612
-1.017271
-0.954667
-0.882972
-0.825044
-0.765038
-0.695162
-0.633857
-0.589957
-0.529172
-0.472543
-0.435916
-0.381106
-0.321879
-0.295124
-0.250445
-0.190699
-0.164722
-0.125758
-0.080819
-0.059778
-0.038218
-0.001332
0.017371
0.021527
0.045165
0.058672
0.060230
0.072179
0.085686
0.077893
0.076853
0.084905
0.070617
0.049316
0.038924
0.015545
-0.023161
-0.038488
-0.073038
-0.131227
-0.164218
-0.201885
-0.272802
-0.327874
-0.362164
-0.429704
-0.478021
-0.501401
-0.544004
-0.582710
-0.599336
-0.623235
-0.666357
-0.693114
-0.721429
-0.770786
-0.813648
-0.836248
-0.878331
-0.913660
-0.920415
-0.947172
-0.972110
-0.978345
-0.993153
-1.031339
-1.055758
-1.075761
-1.120182
-1.152393
-1.169539
-1.201491
-1.235002
-1.241496
-1.273189
-1.316051
-1.327741
-1.361512
-1.406712
-1.429312
-1.450094
-1.473734
-1.483606
-1.473216
-1.471398
-1.464904
-1.425940
-1.416069
-1.406458
-1.370611
-1.348012
-1.328270
-1.298138
-1.254238
-1.229820
-1.192154
-1.135266
-1.108510
-1.071624
-1.015515
-0.983824
-0.955510
-0.906414
-0.872645
-0.845370
-0.802509
-0.765103
-0.749517
-0.718086
-0.681979
-0.677564
-0.663277
-0.645613
-0.646653
-0.650031
-0.638342
-0.638862
-0.646656
-0.630551
-0.620940
-0.621720
-0.604056
-0.567170
-0.560676
-0.540155
-0.497554
-0.492879
-0.473656
-0.445602
-0.440667
-0.432615
-0.408717
-0.399366
-0.412095
-0.400666
-0.390536
-0.410539
-0.411838
-0.404305
-0.418333
-0.415736
-0.403268
-0.403269
-0.411322
-0.406128
-0.395737
-0.412623
-0.417299
-0.412365
-0.422756
-0.429770
-0.431329
-0.441461
-0.449255
-0.440163
-0.444840
-0.459388
-0.449517
-0.440945
-0.448479
-0.434452
-0.416529
-0.404061
-0.381202
-0.354706
-0.334705
-0.325094
-0.300417
-0.291325
-0.301976
-0.298340
-0.303017
-0.324578
-0.340944
-0.353933
-0.385106
-0.411863
-0.427709
-0.465896
-0.500186
-0.505122
-0.533957
-0.560454
-0.555778
-0.571625
-0.586173
-0.584615
-0.587473
-0.607216
-0.615009
-0.604619
-0.624622
-0.637871
-0.627221
-0.639431
-0.653459
-0.656317
-0.669566
-0.691647
