EVENT_NAME: 202302060117
EVENT_ID: 13194
EVENT_DATE_YYYYMMDD: 2023/02/06
EVENT_TIME_HHMMSS: 01:17:32.00000
EVENT_LATITUDE_DEGREE: 37.288
EVENT_LONGITUDE_DEGREE: 37.043
EVENT_DEPTH_KM: 8.6
HYPOCENTER_REFERENCE: AFAD
MAGNITUDE_W: 7.7
MAGNITUDE_W_REFERENCE: AFAD
MAGNITUDE_L: 
MAGNITUDE_L_REFERENCE: 
FOCAL_MECHANISM: 
NETWORK: TK
STATION_CODE: 3147
STATION_NAME: 
STATION_LATITUDE_DEGREE: 35.902362
STATION_LONGITUDE_DEGREE: 36.064358
STATION_ELEVATION_M: 419.0
LOCATION: Kahramanmaras_Pazarck_Turkiye
SENSOR_DEPTH_M: 
VS30_M/S: None
SITE_CLASSIFICATION_EC8: unknown
MORPHOLOGIC_CLASSIFICATION: 
EPICENTRAL_DISTANCE_KM: 177.12
EARTHQUAKE_BACKAZIMUTH_DEGREE: 
DATE_TIME_FIRST_SAMPLE_YYYYMMDD_HHMMSS: 2023/02/06 01:17:42.5523440
DATE_TIME_FIRST_SAMPLE_PRECISION: millisecond
SAMPLING_INTERVAL_S: 0.01
NDATA: 13501
DURATION_S: 
STREAM: HNE
UNITS: cm/s^2
INSTRUMENT: sensor = ACEBOX/SARA | digitizer = 
INSTRUMENT_ANALOG/DIGITAL: 
INSTRUMENTAL_FREQUENCY_HZ: 
INSTRUMENTAL_DAMPING: 
FULL_SCALE_G: 
N_BIT_DIGITAL_CONVERTER: 
PGA_CM/S^2: 47.512
TIME_PGA_S: 
BASELINE_CORRECTION: BASELINE REMOVED
FILTER_TYPE: BUTTERWORTH
FILTER_ORDER: 
LOW_CUT_FREQUENCY_HZ: 
HIGH_CUT_FREQUENCY_HZ: 
LATE/NORMAL_TRIGGERED: 
DATABASE_VERSION: 
HEADER_FORMAT: DYNA 1.2
DATA_TYPE: Acceleration
PROCESSING: Automatic Paolucci et al., 2011
DATA_TIMESTAMP_YYYYMMDD_HHMMSS: 
DATA_LICENSE: U (unknown license)
DATA_CITATION: Turkish Accelerometric Archive v 1.0 - Disaster And Emergency Management Presidency, Earthquake Department
DATA_CREATOR: AFAD
ORIGINAL_DATA_MEDIATOR_CITATION: : AFAD - Disaster And Emergency Management Presidency
ORIGINAL_DATA_MEDIATOR: AFAD PROCESS SERVICE
ORIGINAL_DATA_CREATOR_CITATION: AFAD PROCESS SERVICE
ORIGINAL_DATA_CREATOR: network: TK
USER1: GuestUser
USER2: 
USER3: 
USER4: 
USER5: 
[...]
2.145443
1.812510
0.462794
-1.569845
-0.975304
-0.426353
-2.381604
-2.527966
-0.770284
-0.453727
0.187807
0.273372
-1.022103
0.588755
2.307393
1.597346
2.836233
3.842959
2.039675
1.277491
2.863333
4.285750
3.542036
3.406429
6.390144
7.946294
6.486459
6.437122
7.191815
6.654778
7.473063
9.006768
8.855964
8.885417
9.160358
8.459195
7.909298
8.629155
9.880901
8.410544
5.831522
6.654249
7.878641
8.228162
9.343370
7.873716
5.239751
5.536434
7.080193
7.801686
5.759462
2.894271
4.408103
6.020598
3.796480
3.713009
5.395175
4.470970
4.349624
5.123488
3.883889
4.128203
5.384858
3.646102
2.035234
1.819668
0.939416
1.350661
1.034562
-2.544412
-4.949256
-6.113337
-7.370938
-5.695552
-5.032040
-7.997997
-8.813020
-7.532751
-7.293815
-8.038698
-9.478894
-9.785408
-9.692128
-10.890110
-11.287336
-9.206312
-5.650494
-4.952147
-7.602010
-8.067038
-5.563308
-3.659970
-5.485230
-7.878384
-5.725350
-5.505118
-8.304378
-6.492922
-4.316742
-3.716823
-2.111810
-3.927718
-5.790152
-4.214598
-4.046502
-3.828842
-2.564706
-2.216119
-1.939074
-3.427433
-4.377824
-2.173588
-1.697348
-3.084706
-2.807895
-0.709102
0.905964
-1.087396
-2.620644
-0.185183
0.869004
0.225121
0.832288
0.016097
-1.488628
-1.081826
-1.712616
-2.836484
-0.457602
1.988848
1.385646
1.153246
1.548826
0.737544
-0.220094
-1.097541
-1.597404
-0.584833
0.265015
-0.030744
1.140342
2.768501
1.588053
1.333911
4.013690
4.186461
2.543796
2.753274
2.843982
3.465410
5.462735
5.660990
4.505091
5.458044
7.845109
6.633333
2.761411
2.908698
5.798194
6.458666
4.838446
3.009211
3.339327
4.025050
2.314350
1.965520
4.091433
3.938758
2.528488
2.674373
1.754609
0.430376
0.818942
1.313886
1.979034
2.194123
2.167231
3.180737
2.022500
0.605684
1.229918
-1.452444
-3.851442
-2.128829
-3.802589
-7.566028
-7.494492
-6.112053
-4.568061
-4.146764
-7.644843
-11.139650
-11.263801
-11.650273
-12.910212
-12.809918
-14.163142
-14.138130
-8.864604
-8.007275
-12.252103
-12.364798
-11.296116
-9.189841
-5.231659
-6.779402
-9.438149
-7.094103
-4.691607
-4.815057
-7.139007
-7.708075
-3.957037
-1.749528
-1.841181
-1.219753
-0.083738
2.142241
2.273630
0.200311
1.632782
3.317052
0.633288
-1.537057
-1.371767
-1.446120
0.461895
2.771807
0.640506
-0.426316
2.708666
2.846134
-0.023733
-0.522895
0.760881
1.111572
-0.086177
-1.967081
-3.927476
-3.054248
1.392337
1.364744
-3.229611
-2.566100
1.601565
2.451647
1.664213
1.915540
0.702595
-3.118359
-4.821577
-1.688933
3.297724
2.710888
-2.826138
-0.912045
1.998726
-3.351262
-2.617143
2.445030
0.942878
-0.435362
-1.269790
-2.430131
-1.174878
-0.538955
-0.129815
-0.710572
-1.061507
1.301243
-0.269646
-2.199647
2.816001
5.229485
1.461369
-0.934590
-1.385356
-1.321067
0.072827
0.239286
-2.516254
-2.519298
3.838345
8.789699
5.281800
-1.373478
-2.046118
0.710814
0.263087
1.979154
6.710972
5.896417
2.470815
1.217189
-1.064911
-2.749192
0.072502
3.872404
2.389891
-1.663692
-2.018367
-1.206394
-1.445808
-2.317643
-6.085992
-6.619055
0.565296
3.834011
-0.804298
-3.004803
-0.508555
0.441358
-2.506596
-3.589317
0.065631
0.460276
-2.431568
-0.306122
2.713832
0.873609
0.254743
3.396271
3.079237
0.005733
2.262106
5.863981
5.722295
7.286160
8.478287
4.216626
0.060407
0.046607
2.564599
4.853937
3.931601
1.236849
-0.353211
-1.009719
-1.647055
-2.587159
-3.569347
-4.417100
-5.454932
-8.366414
-10.913406
-7.927119
-5.454484
-7.618751
-5.934480
-2.247269
-2.553080
-2.548409
-1.193793
-1.051650
-2.885327
-5.056139
-5.021308
-5.078360
-5.554143
-5.036520
-5.340696
-4.701031
-2.409823
-0.954674
-0.745898
-1.356582
-0.629244
-0.209115
-1.695369
0.073536
2.304658
0.129871
-1.411560
0.393818
4.320672
5.804344
3.531830
6.838419
10.725995
3.300589
-1.890651
3.962693
6.783452
5.375519
7.246126
7.667891
5.960465
7.055099
8.009454
5.675451
2.821249
2.140894
2.790144
2.174317
0.868320
2.152797
3.654472
1.442511
-0.043276
-0.873495
-6.697857
-9.842903
-4.951168
-2.549608
-5.716864
-6.990831
-5.336486
-5.576601
-8.276497
-9.155813
-7.949191
-6.856194
-6.089344
-5.947668
-3.910130
-1.585956
-3.988228
-5.291185
-2.853620
-2.118099
-2.626145
-5.139237
-7.133533
-4.220190
-3.622609
-5.010669
-2.309614
-2.054780
-5.963642
-7.296057
-4.712836
-2.343540
-4.128120
-4.861547
0.126513
2.924126
2.145576
4.839617
6.223224
3.766477
5.380375
7.567076
6.643337
8.298617
7.969425
3.469291
1.472891
1.192797
2.790328
4.417786
0.748333
-0.911867
1.588824
0.161253
-0.564693
0.815875
-3.138110
-3.842546
2.934531
3.117121
-2.792577
-4.889978
-5.020909
-2.838417
1.650486
-0.330951
-6.112763
-4.790878
-2.346299
-5.288876
-5.241187
-2.952784
-4.455170
-3.753082
0.340001
-0.245666
-4.800275
-5.189787
-3.326895
-6.087812
-8.891046
-6.507255
-2.351046
-0.504520
-1.933260
-3.359428
-3.244405
-2.870335
-1.897509
-1.868056
-3.020681
-5.190793
-7.133653
-4.707076
-5.729477
-12.782678
-12.517089
-10.480486
-14.866528
-15.305604
-13.434997
-15.101042
-15.053586
-13.783838
-14.441749
-14.602840
-13.893972
-15.208151
-15.879388
-15.001718
-16.530290
-15.475869
-13.104235
-15.673672
-15.639309
-13.386443
-14.062824
-14.451400
-15.300557
-15.710642
-16.668748
-18.824832
-17.582906
-16.736799
-14.532329
-8.936397
-9.423869
-11.163560
-9.158052
-10.127380
-10.441843
-7.748737
-5.452619
-3.023237
-1.542838
-1.679380
-2.618783
-1.581195
1.779168
2.515390
2.861405
4.602956
3.462254
2.358959
4.912722
6.196731
1.052953
-3.580680
-1.074379
-0.636949
-3.950329
-3.526693
-3.533011
-5.479612
-3.891666
-0.717406
-0.925490
-3.927452
-7.389995
-10.220349
-9.143718
-6.282278
-6.933876
-8.703259
-11.280879
-12.637610
-9.323305
-11.529888
-19.387118
-18.201070
-12.048232
-13.331083
-16.367413
-13.957436
-14.514346
-19.255292
-19.298082
-19.936120
-21.331661
-15.728013
-12.392198
-12.531547
-9.860886
-11.435749
-12.846954
-9.522596
-8.923145
-5.844741
-1.847982
-4.586688
-3.110498
1.216617
-2.471540
-5.591336
-5.767156
-7.540513
-4.329547
-0.013888
-1.809690
-1.602785
-0.280666
-5.335836
-8.797443
-6.543409
-5.202820
-4.473378
-2.175156
-0.212900
1.218168
2.878591
4.438247
5.930103
7.519919
8.384262
9.436345
12.083393
13.210992
10.976353
9.051728
10.400266
14.792610
16.980714
13.144329
11.289844
13.391910
10.450970
6.056044
5.190755
4.425999
6.212205
9.804729
12.448737
16.043832
17.063417
16.165631
17.570981
17.720372
16.186423
14.669542
13.333619
14.299431
12.274975
5.342180
3.898944
6.571242
5.147411
4.355769
6.944133
8.799309
9.488773
10.911891
13.660407
15.459939
16.348832
17.697603
18.353633
21.252948
25.287582
22.471723
16.836035
18.586002
21.615308
17.524319
15.862950
17.174548
10.901528
8.116297
13.509527
11.862654
6.371452
5.343908
2.848585
-0.996450
-0.299271
2.770482
3.309379
3.114387
3.887550
3.079308
1.219679
-0.351210
-2.417749
-5.848261
-10.349331
-13.021639
-12.763999
-11.051206
-9.874042
-10.242277
-10.253505
-12.116172
-14.222925
-9.541607
-7.503601
-12.864110
-12.873467
-9.260369
-7.969346
-7.452893
-7.803594
-4.885107
-2.669182
-3.978919
2.042057
11.931676
16.270247
18.996084
22.777516
26.568533
31.405794
37.929901
42.330662
41.556788
38.951814
37.630854
37.603028
35.509134
31.017416
29.234473
27.208615
21.655925
17.999330
16.365316
12.077937
7.273164
6.588133
5.515934
1.875004
4.010503
10.067718
11.589265
6.486167
-3.068197
-7.262525
-6.309806
-9.817939
-12.509652
-10.853671
-11.379486
-14.056938
-15.001951
-13.237722
-10.183400
-7.491697
-6.827250
-6.489886
-4.776390
-6.870751
-11.476095
-12.591781
-11.178014
-8.783467
-10.782673
-17.042132
-14.751157
-4.017530
5.779505
16.219951
26.966905
32.845498
37.014800
41.239511
41.292812
39.825729
38.877209
34.959930
29.500058
24.536771
20.583254
16.360636
9.196382
5.293131
5.828288
2.097346
-1.934726
-2.057943
-3.884372
-5.366184
-5.184528
-6.410800
-6.599480
-6.906928
-8.126654
-6.885429
-7.563212
-10.766006
-12.430180
-18.246126
-24.821445
-22.304623
-18.851442
-17.577252
-9.955232
-3.792575
-5.496963
-5.626024
-3.922114
-4.594053
-5.495346
-9.589843
-16.085905
-19.104700
-21.350094
-24.480177
-28.325679
-35.994001
-42.417352
-42.652323
-40.504199
-36.046392
-27.801303
-20.980740
-18.508573
-14.382290
-7.396666
-2.348989
5.035025
13.583350
16.203043
18.461520
19.054191
13.839338
10.323022
6.504873
2.835186
5.689145
7.034409
8.284284
17.079966
20.128677
12.390450
8.010020
8.514082
8.318154
10.463006
13.835760
14.428665
13.726800
10.428851
4.349416
1.877004
0.771138
-6.066034
-11.124009
-8.575390
-8.988047
-15.351780
-18.837001
-17.713376
-15.416090
-12.986473
-9.574909
-6.172930
-3.017607
6.212003
19.053780
23.431862
21.816786
19.423866
11.560090
2.598869
-1.981926
-6.087644
-7.317657
-4.598366
-6.032717
-10.417122
-11.873918
-15.089103
-22.633980
-28.587165
-30.765225
-28.527557
-20.506445
-15.916075
-19.397087
-18.591193
-12.128574
-8.623023
-4.437122
4.529934
13.469167
16.404720
14.103449
9.999133
8.071002
13.140656
14.509534
6.864593
2.991970
1.208325
-1.405299
-5.201705
-15.234418
-19.561075
-14.709553
-7.958896
2.708333
8.840830
7.661084
7.510748
7.502560
10.130436
16.969001
24.410061
33.633592
38.523223
34.514764
32.154342
31.384208
23.554099
18.457547
22.259787
22.761511
20.659435
26.445678
30.196717
22.168581
15.910291
13.166909
5.456270
6.857646
15.296787
11.350050
7.560893
10.611942
4.167549
-5.357123
-10.369040
-17.968157
-20.314786
-15.791281
-15.453449
-12.426014
-5.353184
-5.766309
-8.143330
-8.339258
-10.812136
-9.444427
-2.500654
2.407915
4.165598
5.642256
5.513195
5.604137
12.386123
18.248818
14.297406
13.841496
20.829925
22.258421
22.938299
27.623591
25.500473
18.880966
16.897892
17.471158
18.036709
19.370283
20.137367
17.330859
13.816414
14.370976
13.689686
10.644237
11.655639
11.147827
7.224703
8.012128
7.303717
2.761498
0.990245
-5.615468
-11.093109
-6.180566
-7.842402
-12.960229
-8.390666
-6.929205
-10.268069
-10.558684
-8.998092
-5.748783
-4.092100
-4.445841
-6.336330
-10.869431
-12.242995
-13.061524
-16.820521
-14.233092
-8.681347
-13.521189
-20.494432
-15.022646
-7.326746
-6.449544
-4.105731
-2.970417
-5.835374
-5.319622
-2.273015
1.281166
3.537539
3.100333
3.832581
3.361708
1.320653
0.920620
-1.046789
-0.907450
2.421350
-1.226360
-6.052408
-2.705372
-3.801886
-12.310942
-15.039362
-13.591460
-12.489345
-9.942129
-6.570076
-0.370713
4.461872
3.112389
-0.594706
-5.639588
-5.402289
0.142442
-5.662515
-17.311469
-18.813855
-20.140426
-27.876783
-32.210688
-32.493587
-31.500889
-30.042935
-31.645620
-31.672979
-28.842635
-27.207695
-20.818255
-15.246404
-19.496609
-20.779927
-14.862524
-11.985887
-12.141134
-12.964105
-14.892704
-14.572640
-13.336325
-15.725972
-17.136944
-17.581398
-21.621887
-20.519304
-15.189900
-15.299790
-16.215112
-18.428242
-21.132346
-18.039447
-18.717932
-23.624406
-21.503402
-16.376000
-15.801565
-16.278750
-7.114604
7.343414
9.444311
4.043356
3.726789
1.284538
-6.539493
-9.912725
-6.858636
-2.102971
1.736209
2.612476
5.480462
12.950513
17.561458
18.238530
16.798334
17.500889
25.895141
32.044939
31.134060
32.167673
35.898605
38.701595
38.861273
37.393957
39.051340
41.608142
38.876918
36.112494
35.633906
27.791639
19.728901
20.268500
18.705794
17.201304
20.376967
20.751505
21.875598
25.551119
27.290566
29.388190
31.655083
31.773847
31.059825
31.098163
31.412381
31.320728
31.450013
29.332038
24.012444
22.745491
27.052733
28.144094
24.433726
21.474315
23.257716
29.422945
30.329372
23.575197
21.134817
26.221305
31.340992
30.079885
24.277733
23.166957
26.576885
28.487004
27.091463
19.526947
9.949905
5.719338
6.332817
12.061547
17.678287
16.111139
14.833899
16.593686
15.017888
11.466268
8.896831
9.016531
10.996087
11.876095
12.653933
12.658604
11.860883
9.218033
2.289680
-0.812113
0.804824
-1.117930
-1.242315
1.982913
3.134593
5.179145
5.359164
2.269061
1.944311
-0.151219
-3.729257
-0.717486
4.734194
8.617561
8.586929
2.481308
-0.163645
2.566400
2.271811
1.435045
5.374290
7.708985
1.512884
-2.562441
0.653202
-2.535097
-9.718523
-13.182234
-16.425007
-13.450877
-7.708354
-9.819782
-11.921858
-11.947114
-12.620221
-7.123652
-1.386273
-1.226126
1.818844
5.050151
4.145351
6.149689
6.963299
2.754242
5.673663
13.687059
12.522510
8.655732
10.715715
11.396527
8.110969
2.369137
-2.119542
0.095682
1.401201
-0.256894
2.420080
4.996988
7.759765
14.396563
17.168458
15.793258
16.926234
17.563327
15.308347
15.338268
14.589411
9.185649
7.570339
7.645383
2.024658
-2.560112
-3.788488
-5.921191
-9.347495
-12.281656
-13.716475
-15.750282
-15.979876
-10.835406
-4.396635
-4.380975
-12.238439
-17.006505
-13.337062
-8.261796
-6.341391
-5.913079
-2.612334
-0.935312
-3.545429
-4.176220
-7.716617
-13.466164
-13.882562
-15.124498
-17.055902
-15.716483
-14.601041
-14.476199
-14.851448
-10.342439
-1.426118
1.812904
3.123099
6.585865
6.865014
8.291640
13.443358
15.087883
13.156245
14.126264
16.396665
13.816473
10.494443
14.407035
22.957697
27.142429
25.663189
24.954544
25.310846
26.255850
31.038869
33.565511
31.071591
34.178985
42.805865
45.387917
44.141539
46.421525
47.511716
45.848244
44.897385
42.873865
40.989454
42.291933
45.311186
45.877438
41.712335
37.335411
36.053729
35.326615
35.285228
38.499234
41.261076
39.162740
37.272017
36.187894
31.617152
29.161107
28.351462
23.715023
21.007412
21.426839
18.556038
13.276423
11.851657
12.823781
9.197580
6.170368
9.030873
9.058222
4.273322
2.832425
5.730804
5.472219
2.914940
8.222133
14.958061
11.504169
7.523298
10.353175
12.513690
14.073814
19.837379
23.356023
21.702370
24.457432
29.811618
29.203506
28.262467
28.207520
21.941514
15.237139
15.651890
17.880207
17.050455
14.764147
9.896249
3.259207
1.582642
1.362867
-4.854976
-9.874842
-10.569225
-13.033220
-13.803820
-11.868686
-11.775873
-11.956837
-12.187133
-11.027269
-8.283664
-8.986229
-9.556466
-9.035337
-12.124973
-13.971743
-14.458747
-15.815244
-14.103853
-14.295806
-18.122371
-19.434212
-19.497810
-18.652872
-17.050430
-15.257912
-9.502530
-6.332945
-11.175593
-15.679702
-16.569540
-16.220252
-14.824253
-12.383181
-11.579859
-13.206625
-11.799405
-11.939220
-16.536615
-15.065100
-12.285723
-13.284276
-12.975435
-16.654942
-19.397388
-15.380523
-15.722339
-19.519212
-17.611198
-10.447654
-5.848166
-8.113900
-8.340221
-5.995240
-6.447175
-3.277590
-0.349752
-1.127367
2.352700
3.025096
-1.262283
1.141615
5.520399
3.242274
-1.265810
-1.194741
1.795755
-0.224259
-4.646539
-6.301595
-10.149202
-13.764180
-10.893622
-5.926838
-2.497739
-1.090752
-3.363500
-4.921998
-1.719214
-0.170780
-4.560328
-8.421495
-8.539100
-10.247930
-13.570661
-12.170922
-7.888463
-8.154295
-10.573635
-7.914430
-3.905980
-4.986597
-7.684388
-9.380359
-9.913889
-6.823796
-6.058115
-10.536273
-9.438833
-4.084180
-6.483178
-11.567105
-8.570530
-3.591355
-6.209422
-10.447938
-10.350683
-11.768902
-14.787698
-15.302524
-13.437762
-11.671195
-15.809178
-19.265408
-16.566224
-19.037700
-20.523486
-13.835487
-11.973530
-14.228276
-16.021740
-17.391096
-13.881336
-13.008109
-15.700055
-12.102856
-11.131667
-18.568529
-20.601635
-15.806926
-14.141593
-12.616071
-10.282078
-12.626602
-14.328651
-15.132451
-19.658538
-20.774457
-17.773440
-15.969933
-14.256672
-15.561733
-19.492104
-18.646465
-14.868773
-12.829833
-11.095763
-9.825548
-8.200428
-6.081762
-8.938069
-13.139411
-10.001389
-4.237824
-3.620136
-6.800719
-7.287490
-3.980901
-4.220080
-6.955513
-4.292568
-0.416448
-0.837054
-1.686678
-2.906871
-5.582452
-7.362356
-11.472283
-17.240534
-18.878055
-18.318817
-17.094660
-12.901511
-8.781775
-10.151364
-11.763401
-8.512923
-9.794604
-13.184670
-11.469071
-13.290824
-15.934375
-14.749963
-14.485076
-12.875620
-10.211973
-6.932971
-5.655742
-10.315560
-11.029816
-6.275320
-4.382502
-4.280338
-6.218522
-9.133278
-9.333180
-9.448447
-6.502373
1.187448
2.185758
-3.129395
-3.433336
-1.791149
-2.138109
0.720759
2.637657
-3.731687
-7.675150
-3.286781
-3.361367
-4.479391
-1.170930
-2.163639
-0.671783
3.201063
0.396660
2.203674
9.205429
9.092500
4.765375
1.029524
-3.411694
-5.752244
-3.927929
-4.020050
-7.149197
-8.557363
-8.670760
-6.066965
-2.093118
-2.753366
-4.458689
-3.006345
-3.359150
-5.602440
-3.294632
1.160369
4.148995
7.629997
6.684984
2.101851
2.495794
4.844283
6.350867
8.317798
5.124357
0.035053
4.120889
11.495551
11.988624
10.848390
13.027843
17.026940
20.766522
21.203718
19.410254
19.316263
21.102469
19.603355
15.990481
18.309745
19.585572
13.756533
12.156653
15.398247
12.548020
4.298478
1.881945
8.514768
13.587229
10.998854
6.807799
6.818549
8.876193
10.981299
12.715836
9.697274
7.347607
9.863728
7.660885
5.282928
7.578812
3.838285
-1.883207
-1.816346
-1.477345
-2.417449
-3.941812
-6.735929
-6.927881
-5.190539
-9.605571
-14.940596
-7.220382
2.837805
1.344771
-1.269321
-1.025008
0.758626
4.774323
2.866064
3.879337
10.785937
5.593996
-0.107389
2.209303
-3.654104
-8.154239
-4.143452
-4.398296
-5.067195
-2.739748
-3.611583
-4.506097
-5.322756
-11.529143
-15.835460
-11.445453
-7.397025
-6.708030
-4.894703
-6.276216
-10.631864
-13.727345
-15.662256
-12.137768
-6.658266
-9.586582
-15.146286
-15.420068
-16.265951
-20.301297
-24.018445
-27.138942
-26.650077
-22.896701
-23.375289
-24.606236
-22.113495
-22.114435
-23.622433
-23.922400
-24.169295
-20.769654
-16.644072
-16.380120
-16.190749
-16.532800
-17.627210
-16.742526
-16.822490
-14.138268
-7.247567
-9.317847
-15.439833
-11.389300
-9.178519
-13.146063
-10.246982
-8.054670
-10.539473
-6.335803
-6.343289
-15.623643
-15.340052
-11.039590
-14.547490
-14.324218
-12.088186
-15.103708
-14.090904
-9.678453
-9.878822
-12.730920
-14.206186
-12.300042
-11.100667
-15.209893
-18.909506
-18.776480
-18.637142
-20.003225
-22.211211
-23.870008
-24.289913
-23.891060
-23.944137
-25.342015
-24.911366
-22.091776
-20.862943
-21.746935
-22.286778
-20.595260
-18.806716
-19.381161
-18.835483
-15.810152
-14.110684
-13.701076
-12.031068
-10.558851
-9.665049
-8.751141
-10.724863
-11.995790
-9.903075
-12.057756
-15.753628
-14.845565
-14.811435
-14.813077
-12.422037
-11.703583
-9.504491
-5.777067
-7.860439
-12.700281
-13.779728
-11.648905
-7.203021
-3.142669
-2.356414
-1.700852
-0.954108
-3.202776
-4.933582
-3.888045
-4.180531
-5.785788
-4.932199
-3.199299
-2.644503
-0.008912
2.438239
-0.988766
-5.006577
-4.571485
-4.417418
-6.036703
-4.474475
0.781283
2.633653
-0.369244
-3.632123
-9.204219
-14.899759
-15.134730
-16.063144
-19.334441
-17.784604
-13.205923
-11.577063
-12.657211
-13.345983
-14.412805
-17.139353
-18.341310
-17.131882
-14.668132
-11.546476
-11.835922
-15.566630
-16.731646
-16.611480
-20.153046
-22.980127
-21.650995
-20.825696
