EVENT_NAME: 202302060117
EVENT_ID: 13194
EVENT_DATE_YYYYMMDD: 2023/02/06
EVENT_TIME_HHMMSS: 01:17:32.00000
EVENT_LATITUDE_DEGREE: 37.288
EVENT_LONGITUDE_DEGREE: 37.043
EVENT_DEPTH_KM: 8.6
HYPOCENTER_REFERENCE: AFAD
MAGNITUDE_W: 7.7
MAGNITUDE_W_REFERENCE: AFAD
MAGNITUDE_L: 
MAGNITUDE_L_REFERENCE: 
FOCAL_MECHANISM: 
NETWORK: TK
STATION_CODE: 2709
STATION_NAME: 
STATION_LATITUDE_DEGREE: 37.128525
STATION_LONGITUDE_DEGREE: 36.670482
STATION_ELEVATION_M: 531.0
LOCATION: Kahramanmaras_Pazarck_Turkiye
SENSOR_DEPTH_M: 
VS30_M/S: 555
SITE_CLASSIFICATION_EC8: B
MORPHOLOGIC_CLASSIFICATION: 
EPICENTRAL_DISTANCE_KM: 37.45
EARTHQUAKE_BACKAZIMUTH_DEGREE: 
DATE_TIME_FIRST_SAMPLE_YYYYMMDD_HHMMSS: 2023/02/06 01:17:08.6216750
DATE_TIME_FIRST_SAMPLE_PRECISION: millisecond
SAMPLING_INTERVAL_S: 0.01
NDATA: 6196
DURATION_S: 
STREAM: HNE
UNITS: cm/s^2
INSTRUMENT: sensor = ACEBOX/SARA | digitizer = 
INSTRUMENT_ANALOG/DIGITAL: 
INSTRUMENTAL_FREQUENCY_HZ: 
INSTRUMENTAL_DAMPING: 
FULL_SCALE_G: 
N_BIT_DIGITAL_CONVERTER: 
PGA_CM/S^2: 127.007
TIME_PGA_S: 
BASELINE_CORRECTION: BASELINE REMOVED
FILTER_TYPE: BUTTERWORTH
FILTER_ORDER: 
LOW_CUT_FREQUENCY_HZ: 
HIGH_CUT_FREQUENCY_HZ: 
LATE/NORMAL_TRIGGERED: 
DATABASE_VERSION: 
HEADER_FORMAT: DYNA 1.2
DATA_TYPE: Acceleration
PROCESSING: Automatic Paolucci et al., 2011
DATA_TIMESTAMP_YYYYMMDD_HHMMSS: 
DATA_LICENSE: U (unknown license)
DATA_CITATION: Turkish Accelerometric Archive v 1.0 - Disaster And Emergency Management Presidency, Earthquake Department
DATA_CREATOR: AFAD
ORIGINAL_DATA_MEDIATOR_CITATION: : AFAD - Disaster And Emergency Management Presidency
ORIGINAL_DATA_MEDIATOR: AFAD PROCESS SERVICE
ORIGINAL_DATA_CREATOR_CITATION: AFAD PROCESS SERVICE
ORIGINAL_DATA_CREATOR: network: TK
USER1: GuestUser
USER2: 
USER3: 
USER4: 
USER5: 
[...]
-0.421393
-0.820055
-0.585126
0.195719
1.394828
0.740625
-0.741921
-0.526163
-1.010863
-0.379881
2.584864
1.907282
0.337062
2.961165
4.411138
2.343865
-0.120629
-1.419644
-0.109248
2.136103
1.594825
-0.404647
-0.400710
0.720311
0.391788
-0.475637
0.050836
0.993236
0.687859
-0.310493
-0.850135
-1.816924
-3.354646
-2.679711
-0.951753
-2.112594
-2.704606
-0.414366
-1.266828
-3.926309
-2.000325
0.540546
-0.086769
-0.832854
-0.983223
-0.371881
0.360802
-0.775490
-0.566045
1.571058
1.533145
1.663567
2.991965
1.920668
0.805886
0.629331
-1.419238
-1.825849
1.146846
1.890751
-0.546389
-1.554327
-0.321785
0.546734
-0.494870
-2.585523
-2.781015
-0.651627
0.343377
-1.081421
-2.678061
-2.356627
-0.801211
-0.551553
-0.741902
0.635828
1.280136
0.441701
0.122530
-0.071559
0.262967
1.329747
1.682042
2.680552
3.452046
1.442988
-0.040025
0.579266
0.507219
0.410389
1.306263
1.771014
2.269199
3.657216
3.304144
-0.246105
-1.943978
0.607648
1.733578
0.125249
-1.059206
-2.278730
-2.291860
-0.944758
-1.103310
-0.742130
0.829183
0.849252
-0.655972
-2.964290
-3.283227
-1.039044
-1.100103
-2.534019
-2.072073
-1.730767
-1.129712
0.125041
-0.220783
0.395001
2.323791
1.398384
0.744650
2.774674
2.813446
1.770673
2.312344
1.411719
-0.446773
0.053983
1.182485
0.876407
0.412516
0.237130
0.551550
1.132265
-0.229174
-2.135361
-2.110850
-2.502264
-3.762001
-3.295847
-1.486995
-0.648402
-1.299097
-1.107888
0.532630
0.754232
-0.236171
0.202395
1.370876
1.995545
2.708122
3.273406
3.545976
3.747472
2.437936
0.556064
1.256015
3.737736
4.803580
3.097524
1.233654
1.867909
1.542192
-0.639642
-0.597830
0.012811
-0.174498
1.386295
2.490248
0.927510
-0.923267
-1.471559
-1.647178
-2.148477
-1.830083
-0.976527
-0.789293
-0.362416
-0.216331
-0.926878
-0.972974
-0.720978
-0.421521
0.161064
-0.302359
-0.560042
0.300295
0.274773
-0.022420
-0.291091
-1.173947
-0.859995
-0.441068
-1.119351
-0.865485
0.140507
1.425419
1.945347
0.510729
0.248138
1.788824
2.006218
0.516892
-0.956770
-0.343090
1.048434
0.247407
-0.078778
2.035881
2.219842
-0.549290
-1.859060
-0.720973
0.425999
0.620715
0.316507
0.198402
0.741242
1.515073
1.229335
0.080184
-0.099176
0.872916
1.422302
0.303778
-0.896341
0.123445
0.784586
-0.527522
-0.136650
1.841939
1.560877
-0.313747
-1.122489
-0.215861
1.814397
1.789810
-1.040343
-2.225733
-2.233719
-3.530163
-3.288688
-1.774420
-1.176404
-0.600366
-0.887740
-1.570699
-0.470721
0.015072
-1.325792
-1.807452
-2.021648
-2.608751
-1.767118
-1.069037
-2.154829
-3.155753
-2.897912
-2.467061
-2.756306
-2.014271
0.404091
1.435800
-0.094206
-1.559685
-0.930107
-0.230623
-1.382580
-2.697025
-3.256072
-2.498840
-1.700694
-2.827868
-1.333474
1.760328
-0.209685
-2.851398
-2.913626
-2.303219
1.164659
2.740415
-1.546062
-5.140265
-5.881440
-3.198887
2.047252
0.805985
-4.561337
-4.976364
-4.974999
-6.260220
-4.885997
-2.288547
1.703270
1.854265
-4.723191
-5.201811
-1.831895
-6.657976
-9.836020
-7.742636
-7.370936
-3.245855
0.525024
-3.373116
-5.744325
-3.676426
-2.861914
-7.288669
-14.483350
-12.744637
-6.332784
-6.891364
-5.829026
-0.935220
1.217782
4.197724
3.363031
-2.722984
-4.670552
-9.041664
-16.807277
-16.408223
-14.172223
-10.356690
3.568004
11.633505
5.857272
3.582153
2.006322
-12.277793
-19.560382
-3.937151
8.113424
3.164132
3.293151
11.326153
8.950034
-7.451583
-21.672105
-13.147894
2.524902
-5.071209
-10.379146
0.490285
-8.492945
-13.886919
7.159239
7.916237
-0.814024
7.031941
-0.181677
-8.248188
0.953333
0.299131
-3.112944
-6.399002
-25.322824
-33.451758
-19.885242
-8.122472
11.449595
38.730659
30.973696
-6.026863
-17.645456
0.761833
16.909004
23.536183
15.452138
-12.141121
-24.558131
-8.671644
-2.213032
-4.468512
6.031052
22.471638
34.501639
18.799543
-6.900893
5.613068
15.658832
-10.998770
-23.707793
-14.613585
-9.765836
1.250186
19.427652
28.708431
20.393160
-1.360311
-6.767144
13.015574
16.744369
-5.166680
-11.288699
13.703256
40.677578
32.316015
-1.942336
-5.826915
14.569287
4.667234
-6.532394
12.010731
12.545621
0.938017
10.829474
13.506415
3.731080
-1.929890
-9.376838
-15.514522
-14.522090
-0.931259
10.996105
-3.539576
-20.071886
-20.035685
-25.561521
-27.995621
-17.535335
-19.109296
-25.456228
-19.265080
-19.087198
-21.609207
-12.712791
-5.684649
-6.758985
-11.779819
-4.366846
15.927420
11.715759
-5.048712
0.964984
9.203027
11.351119
12.626913
3.246695
2.641824
15.226860
13.595151
1.997834
0.734823
8.710078
8.880011
-0.855812
1.075082
12.448113
12.726060
0.986828
-14.921243
-22.146785
-20.604462
-19.459361
-7.434036
6.498607
10.711596
26.277313
34.848283
17.752990
10.427616
14.823669
14.611109
16.395646
11.343717
7.521562
21.460518
31.683967
27.436534
25.763444
29.972926
30.140989
23.034917
14.010773
7.099688
-5.339066
-26.710277
-36.997395
-32.108731
-33.848688
-37.490352
-35.531636
-33.741722
-15.118872
11.816640
17.461637
14.498219
9.008154
-9.166347
-22.893557
-22.576800
-16.554220
-9.453133
-5.077187
-2.478334
2.323356
9.119104
13.496219
17.561214
29.278628
36.982678
28.736845
21.492599
19.501310
7.662948
-3.059266
-0.508575
2.501761
0.695406
-2.988575
-8.379510
-8.763911
-0.985513
5.582516
3.075237
-2.546456
-0.452605
10.595213
14.173910
-2.015653
-16.104781
-18.327529
-27.382769
-35.181114
-33.368288
-25.247377
-3.531156
6.307229
-9.693191
-16.139020
-14.266341
-19.291149
-11.907402
0.715509
3.444119
10.418488
19.011669
17.539410
13.119435
8.356012
1.880258
4.176109
13.365240
8.076942
1.035632
17.372178
20.603920
-5.964838
-10.379904
8.913477
12.426711
8.052794
15.015707
32.016471
41.434489
26.900444
7.403351
-4.271586
-21.830734
-36.450114
-38.957628
-32.627137
-11.821555
4.186973
0.043113
1.222115
11.916432
13.189187
6.770479
0.994714
1.823955
5.607927
-1.666012
-11.643114
-8.747104
-5.652134
-11.794727
-17.369426
-15.644274
-1.989616
14.149606
18.422681
19.067222
14.167261
-4.193810
-14.573979
-9.437724
-8.530629
-12.974451
-16.061314
-21.722752
-21.422828
-9.896426
2.123521
17.782056
28.477074
12.046232
-10.732673
-15.772444
-13.207492
-6.781378
-0.569890
-3.892420
-6.490413
-0.279392
2.710603
-3.188373
-8.249654
-9.391557
-9.677295
-11.077310
-17.923166
-23.061833
-18.493472
-15.784267
-18.985457
-15.239361
-6.006744
-0.416689
9.647544
22.079208
19.210478
9.878423
6.206599
-2.062614
-11.790254
-12.909947
-11.568923
-12.037490
-8.711762
-0.068782
10.571995
23.552382
32.459085
30.843742
24.283587
11.070965
-1.902950
1.409919
7.740878
7.078726
9.596685
16.917074
32.389038
44.024857
34.281318
26.052786
31.522201
28.357718
13.782993
0.822871
-2.174213
-0.422408
-10.894693
-27.491998
-30.811723
-21.807059
-13.234920
-13.017993
-14.218580
-6.355080
2.257038
0.306430
-1.858804
4.220355
0.738843
-14.299503
-13.644206
0.744575
9.822418
18.827783
21.143741
4.688585
-7.484809
-2.644308
-2.318900
-10.712025
-13.159453
-8.853646
-4.374595
-4.859996
-6.743037
-1.057826
-1.757385
-17.799890
-24.087905
-16.488362
-10.406164
-1.275951
2.214605
-7.084952
-9.887284
-13.859303
-33.000323
-40.836310
-29.326742
-26.077699
-31.204676
-26.978127
-21.061223
-20.639724
-19.751566
-23.244067
-29.749514
-30.622083
-31.988431
-30.135859
-15.312683
1.172793
13.031186
23.226112
24.613427
15.735874
3.678911
-7.145472
-10.764925
-4.910913
0.825499
1.309890
5.228295
12.800717
14.972656
14.665175
20.032655
31.515570
42.836230
46.942374
39.424819
21.238160
4.747699
-4.318061
-15.296750
-23.117306
-18.481612
-16.582280
-23.003560
-15.494263
6.213542
20.130053
25.627758
25.214133
19.819457
26.750106
40.887789
41.597092
38.007332
39.857332
38.713792
33.624222
33.007193
44.520268
58.070652
51.809992
28.356348
8.740252
4.135811
2.825807
-9.912206
-11.517496
10.640368
20.922033
9.501467
1.319928
1.992993
5.003562
6.935158
6.792504
5.396229
1.856969
-0.952844
1.546177
6.026163
11.822427
21.701960
24.512400
17.486053
17.854012
26.288445
31.633948
37.737890
49.949317
57.888567
53.517690
49.842827
49.941919
43.215534
36.279667
25.817436
-0.597952
-28.137437
-44.652446
-57.470652
-64.701805
-55.968814
-36.039037
-26.194573
-38.241950
-60.550689
-72.414067
-72.497804
-78.678039
-90.508452
-92.248175
-80.520707
-66.220302
-65.142066
-70.841380
-66.603608
-61.407034
-63.768424
-67.715193
-69.245667
-61.080101
-41.297383
-16.437290
9.304920
26.398268
30.344962
35.805494
49.588974
59.602473
61.992311
60.607960
55.750317
52.425449
48.469795
38.885005
35.206401
33.447039
14.381536
-12.193769
-31.857092
-48.423536
-59.578509
-64.766274
-65.172885
-49.980308
-22.067057
1.888709
20.296231
38.738590
53.823152
57.828997
53.175224
52.761132
61.110930
74.786863
88.111633
90.814058
78.897374
55.828794
33.671322
28.453398
34.373107
39.298944
48.367902
64.476496
78.022672
70.829160
35.894902
-5.942923
-34.759642
-53.214701
-73.547385
-94.931455
-103.498526
-97.575544
-82.233103
-59.992709
-37.903347
-20.893932
-12.416481
-9.526316
-5.768297
-2.389262
3.780610
11.192413
8.711085
-3.501820
-15.013100
-19.837777
-26.622378
-37.572778
-36.341873
-17.577809
7.037498
18.006293
13.287058
16.093756
18.633225
-0.015184
-18.522613
-16.673081
1.654016
25.688805
33.786569
20.848425
7.533399
6.093404
10.962429
13.306442
20.505256
39.552682
48.963920
40.172637
33.212221
30.191991
26.740170
28.756868
29.558755
28.256934
36.808266
49.356829
53.133085
49.787876
43.621669
33.356997
20.881303
12.466434
5.705915
-6.618745
-18.981047
-18.863952
-6.921859
5.552824
20.102458
37.456490
35.678424
11.441092
-10.232887
-24.639512
-43.633240
-68.080990
-88.746601
-97.732637
-98.663889
-93.543299
-75.463560
-43.523618
-7.614032
14.891255
18.098448
16.161401
17.209710
19.174271
19.462272
11.782929
-0.585451
-8.067703
-20.437019
-49.195522
-77.042918
-83.259391
-72.343668
-54.642214
-31.960410
-1.676687
37.341934
70.745214
84.233642
86.137649
86.675579
83.605316
70.846260
46.918943
21.455344
4.826943
-2.759114
-11.978012
-32.131841
-47.096072
-38.894970
-24.844727
-23.772102
-28.176647
-33.011144
-38.996625
-39.086675
-34.512235
-30.563437
-23.537866
-16.524921
-13.840732
-5.918082
14.503838
37.234505
45.056623
36.096305
22.621830
10.191493
-7.242339
-34.754002
-61.628334
-72.359666
-67.014163
-53.016524
-34.171801
-11.461707
12.668939
33.397367
50.406080
62.451278
61.942965
46.740260
28.274447
20.390532
20.045877
16.997591
14.857841
21.092709
34.060237
45.432566
49.219342
46.106060
37.831938
30.060947
24.501444
10.663414
-14.319264
-42.640801
-63.999388
-69.288621
-66.667323
-66.364360
-56.696179
-34.592555
-23.340164
-28.371753
-29.875341
-25.932154
-23.370942
-19.253342
-18.720088
-24.663486
-28.370379
-27.452762
-25.116230
-17.835119
-5.634447
-4.163899
-15.058890
-18.165625
-14.620829
-18.967157
-28.273495
-34.525271
-31.671579
-22.831976
-24.565854
-36.072926
-36.448675
-24.249172
-17.051527
-16.039456
-12.404180
-10.625955
-12.299513
-14.007206
-21.366480
-28.203685
-22.028669
-10.139414
0.536666
13.950981
29.603202
45.466543
61.690165
75.523678
82.391669
84.895834
87.371008
77.499816
45.563774
13.082750
1.633193
-0.671385
-10.363488
-18.993684
-11.470827
7.221461
21.072742
29.941103
38.397045
35.098595
16.912404
-2.268128
-18.897230
-34.953294
-38.676553
-22.754062
-1.712579
11.984863
26.272177
48.130781
65.557757
60.907960
37.733937
19.907326
16.247660
12.763108
0.787507
-9.214378
-4.512285
4.583093
1.884100
-7.340643
-14.298487
-14.584225
-6.149091
0.138849
-2.654598
-7.205733
-6.023224
2.549850
12.164725
15.342928
11.869832
5.723498
-0.723499
-8.983360
-17.034440
-19.534472
-17.275093
-14.561212
-12.330356
-6.131259
5.837253
18.258630
31.149940
46.213461
54.514629
48.788662
32.154651
8.626425
-16.505883
-31.381505
-33.640960
-37.335929
-44.159340
-39.999890
-26.194667
-14.772071
-4.957534
8.627453
23.814418
36.409741
43.865264
43.819636
35.556735
21.991079
5.864174
-10.688242
-16.116117
-3.820523
5.884364
-2.246909
-15.925723
-29.120576
-45.262211
-53.546855
-46.266913
-36.824814
-33.663679
-22.319639
3.849719
28.698590
43.417960
51.120841
50.251312
42.319468
32.721118
19.844462
1.624370
-16.344157
-29.420008
-41.509702
-54.584851
-60.093854
-48.029017
-18.853494
11.686002
25.979161
26.578813
26.101128
24.426167
19.867550
18.890474
19.233183
10.976127
-4.145917
-12.787569
-7.620220
5.222694
17.436693
25.748382
31.229020
37.307945
45.116035
55.005622
60.753256
50.842085
30.734781
15.673524
7.150875
-3.126891
-13.520152
-11.517482
-7.456695
-19.482095
-28.495718
-21.256925
-11.702370
2.634976
16.919718
9.028321
-11.830641
-26.501223
-40.205287
-52.309009
-54.648656
-53.645002
-54.706479
-56.679531
-57.049904
-43.808366
-14.670484
11.547972
27.338134
37.425747
34.730494
19.210527
6.584969
3.321122
6.476412
13.313074
20.482196
27.609936
35.307673
39.405634
34.359316
23.622373
16.194363
11.012910
2.742528
-5.843948
-9.440956
-4.831213
6.799930
19.101135
30.804755
44.465024
56.969166
66.786977
73.675308
72.069083
60.759337
46.107692
33.895254
20.309959
-3.883419
-35.223045
-66.378672
-97.670603
-121.432860
-127.006858
-114.399378
-87.810588
-53.704280
-21.450115
0.731129
9.895010
8.029971
-0.639970
-6.684369
-5.289104
-2.797564
-3.328555
-7.820773
-12.150503
-10.075823
-7.453357
-5.616449
2.615515
14.810343
28.308123
44.506261
62.146461
74.145367
71.446374
60.079347
49.905387
37.779455
23.030083
12.684049
8.582272
-0.077382
-21.721903
-47.120974
-65.881372
-77.666428
-89.536353
-106.459104
-114.830019
-101.131173
-74.309521
-49.146193
-29.013013
-10.391098
2.645868
6.023733
8.032248
9.707835
3.643798
-5.053498
-8.702175
-8.997967
-7.715626
-7.945019
-14.991004
-24.644765
-30.487864
-34.176287
-39.835153
-49.887772
-55.724558
-46.048428
-27.532424
-11.207567
4.493518
24.495304
41.939582
45.262505
38.180748
29.136965
18.897776
11.120472
12.327764
19.800121
24.051920
28.837011
38.432481
41.187978
38.860957
38.094298
29.270050
14.373854
2.820958
-7.257144
-14.451124
-13.269550
-4.028283
11.036172
27.369446
36.993906
41.068955
42.124980
32.821214
15.434141
-1.689676
-16.283105
-26.602953
-37.143741
-47.222311
-48.111245
-44.501687
-44.121336
-42.669259
-34.462545
-20.481039
-4.677082
4.006110
-3.006910
-15.375057
-20.080965
-17.108972
-7.785876
-1.259931
-1.700208
1.974813
7.909953
8.193979
9.193893
15.951531
24.089743
33.531608
45.878404
51.080121
46.203541
45.080107
50.318999
52.624436
51.276323
49.422507
44.240120
33.466938
21.730745
13.515539
11.067177
16.130019
21.475756
16.106564
1.733606
-11.399058
-19.533837
-28.342888
-41.260224
-52.615094
-60.140130
-68.540036
-75.545107
-71.903051
-56.919255
-42.071764
-31.927338
-18.114867
-1.285944
8.930726
13.215023
16.889109
22.619443
34.661367
48.026350
50.252297
44.017120
37.883411
28.095217
15.110313
8.333428
2.244842
-16.991099
-40.798478
-52.449569
-56.612367
-61.369711
-60.478513
-50.946402
-39.740069
-29.801152
-20.763288
-15.444204
-11.342970
-4.749223
-0.193721
2.712107
10.965113
21.468418
28.474115
36.883999
45.812212
47.372771
46.848326
49.696641
50.335571
46.259278
39.843844
36.505883
40.609221
48.083214
50.688380
45.806188
41.605515
40.303226
31.502826
15.851932
0.404441
-15.467157
-29.581536
-40.842185
-52.613447
-62.039489
-62.877690
-56.420480
-50.150075
-44.394024
-36.533096
-30.300099
-26.765823
-26.744351
-28.891817
-24.741719
-15.554225
-7.329509
-1.162442
-1.300888
-6.362402
-8.156834
-2.760129
8.129876
20.451422
32.772500
44.172184
54.971709
63.437237
63.685726
62.237314
63.739658
57.693857
45.177483
33.921977
24.682506
17.366250
5.667933
-12.175044
-28.998198
-44.387707
-55.884257
-57.292222
-53.803303
-49.627487
-38.924754
-23.471493
-9.848398
3.417923
13.918889
15.724000
13.159675
9.200280
-1.243949
-12.772529
-16.088514
-19.407537
-27.993312
-31.521116
-29.434513
-28.378488
-28.366368
-32.118384
-39.097036
-39.291827
-31.859917
-24.583483
-19.054682
-17.347065
-18.253067
-14.945808
-13.904980
-20.623650
-25.900492
-29.580498
-35.228142
-33.162113
-21.188224
-11.656815
-7.114405
-2.300323
0.468266
2.738167
8.499595
13.153993
16.485801
23.013149
29.923691
33.128780
33.973452
34.625943
35.895658
40.206608
46.821397
50.246957
49.210496
43.419534
31.897734
20.666777
13.552288
6.697315
-1.338101
-8.856123
-15.882002
-24.284713
-32.860435
-37.556992
-37.112113
-29.762967
-17.494727
-8.664943
-4.031587
0.235410
4.823176
11.398920
18.270418
19.611208
13.672252
6.501185
3.337870
2.723647
5.491302
11.466421
19.496618
34.457969
51.173734
60.295297
64.778556
65.248919
60.774703
52.859225
37.772718
20.178033
11.080242
7.462426
1.181659
-6.761875
-15.159676
-24.771821
-30.620063
-33.388494
-37.189374
-31.789396
-15.418014
-5.456885
-4.176882
0.197427
7.023802
10.922334
15.477836
21.014351
20.546018
14.097384
4.288382
-7.415780
-16.090865
-23.550204
-31.649914
-34.528464
-33.132732
-34.012548
-38.681985
-42.614259
-41.454194
-36.134175
-29.964303
-26.235741
-22.841744
-17.339597
-15.166956
-15.829108
-12.281272
-5.342440
-2.345197
-3.250497
4.514106
20.729545
28.745247
27.751805
27.851131
31.590213
39.106057
48.634660
56.476884
61.955886
68.283337
76.941046
83.241611
80.867830
66.534618
45.218114
25.837920
9.850124
-2.742702
-11.766145
-18.383814
-18.020998
-12.062011
-5.656705
6.483882
22.292280
32.253175
36.047200
32.626708
19.933350
4.016394
-9.616362
-22.551934
-34.392634
-40.493378
-43.614375
-48.755381
-52.926829
-51.072854
-41.077591
-28.164772
-19.605258
-13.913968
-8.649593
-6.733194
-8.557318
-9.346421
-7.675744
-7.397563
-8.614982
-7.036888
0.407647
13.070536
26.381980
35.556849
39.657147
39.412558
31.886820
17.432968
5.266355
-0.495616
-4.294859
-6.446299
-4.408092
-1.075350
1.397252
6.327999
12.400612
14.813596
14.392957
12.573509
10.258645
8.874527
5.860376
2.791281
4.583066
4.912683
-1.971048
-10.196774
-18.590368
-28.061065
-30.936575
-26.447004
-22.542627
-21.007785
-22.050325
-25.347371
-23.209333
-14.636025
-8.740864
-7.021791
-6.260350
-7.687019
-12.423555
-17.297331
-14.903518
-7.415964
-7.494558
-13.321291
-15.303929
-16.333142
-18.088062
-16.542232
-14.390166
-13.363599
-7.285609
4.807984
16.336957
23.829655
24.951143
19.113187
11.901907
6.406932
0.446467
-5.480799
-6.210284
-1.561029
1.717473
2.009448
0.343137
-1.889664
-1.921030
-4.149624
-8.271273
-9.747974
-13.712512
-17.309053
-14.034760
-11.636972
-14.298792
-15.943126
-13.276471
-8.417267
-4.154479
-0.843947
2.630009
8.301893
16.173108
23.473624
28.346389
28.972227
26.568753
24.989182
22.278498
17.945496
18.277451
22.719561
25.993387
28.936857
31.909318
34.143681
36.077147
31.526479
17.926688
7.190914
4.341356
-0.736759
-8.876915
-10.990480
