EVENT_NAME: 202302060117
EVENT_ID: 13194
EVENT_DATE_YYYYMMDD: 2023/02/06
EVENT_TIME_HHMMSS: 01:17:32.00000
EVENT_LATITUDE_DEGREE: 37.288
EVENT_LONGITUDE_DEGREE: 37.043
EVENT_DEPTH_KM: 8.6
HYPOCENTER_REFERENCE: AFAD
MAGNITUDE_W: 7.7
MAGNITUDE_W_REFERENCE: AFAD
MAGNITUDE_L: 
MAGNITUDE_L_REFERENCE: 
FOCAL_MECHANISM: 
NETWORK: TK
STATION_CODE: 3125
STATION_NAME: 
STATION_LATITUDE_DEGREE: 36.23808
STATION_LONGITUDE_DEGREE: 36.13264
STATION_ELEVATION_M: 156.0
LOCATION: Kahramanmaras_Pazarck_Turkiye
SENSOR_DEPTH_M: 
VS30_M/S: 448
SITE_CLASSIFICATION_EC8: B
MORPHOLOGIC_CLASSIFICATION: 
EPICENTRAL_DISTANCE_KM: 142.15
EARTHQUAKE_BACKAZIMUTH_DEGREE: 
DATE_TIME_FIRST_SAMPLE_YYYYMMDD_HHMMSS: 2023/02/06 01:17:36.5357130
DATE_TIME_FIRST_SAMPLE_PRECISION: millisecond
SAMPLING_INTERVAL_S: 0.01
NDATA: 12501
DURATION_S: 
STREAM: HNN
UNITS: cm/s^2
INSTRUMENT: sensor = GMS+/GEOSIG | digitizer = 
INSTRUMENT_ANALOG/DIGITAL: 
INSTRUMENTAL_FREQUENCY_HZ: 
INSTRUMENTAL_DAMPING: 
FULL_SCALE_G: 
N_BIT_DIGITAL_CONVERTER: 
PGA_CM/S^2: 822.616
TIME_PGA_S: 
BASELINE_CORRECTION: BASELINE REMOVED
FILTER_TYPE: BUTTERWORTH
FILTER_ORDER: 
LOW_CUT_FREQUENCY_HZ: 
HIGH_CUT_FREQUENCY_HZ: 
LATE/NORMAL_TRIGGERED: 
DATABASE_VERSION: 
HEADER_FORMAT: DYNA 1.2
DATA_TYPE: Acceleration
PROCESSING: Automatic Paolucci et al., 2011
DATA_TIMESTAMP_YYYYMMDD_HHMMSS: 
DATA_LICENSE: U (unknown license)
DATA_CITATION: Turkish Accelerometric Archive v 1.0 - Disaster And Emergency Management Presidency, Earthquake Department
DATA_CREATOR: AFAD
ORIGINAL_DATA_MEDIATOR_CITATION: : AFAD - Disaster And Emergency Management Presidency
ORIGINAL_DATA_MEDIATOR: AFAD PROCESS SERVICE
ORIGINAL_DATA_CREATOR_CITATION: AFAD PROCESS SERVICE
ORIGINAL_DATA_CREATOR: network: TK
USER1: GuestUser
USER2: 
USER3: 
USER4: 
USER5: 
[...]
-7.929885
-11.505422
-17.481474
-19.863377
-15.898891
-13.024909
-13.321915
-15.143759
-16.819613
-17.551471
-14.063658
-5.303336
5.401869
15.099434
19.558259
16.000386
6.787106
0.244240
-0.541649
2.328695
7.888936
9.712935
8.774043
5.190973
-2.312775
2.042663
18.609271
27.610138
25.586714
28.150013
35.190672
33.072173
32.477473
36.697831
35.934542
31.524370
20.738975
10.466621
7.766502
8.924975
6.235247
-1.327468
2.013836
14.368826
19.708005
18.572208
19.987073
17.118105
3.024305
-8.521431
-13.233193
-15.383643
-17.697747
-22.245076
-21.358839
-19.990213
-28.772798
-36.958436
-38.464922
-41.597035
-44.822145
-39.642464
-27.160447
-19.554793
-22.427917
-25.023350
-20.645572
-9.832044
3.174964
3.642715
-1.734053
-0.265676
-2.196623
-8.970682
-13.701926
-15.352583
-16.032227
-10.307813
-2.984786
-6.469405
-12.403374
-15.114664
-16.680116
-21.024826
-24.717518
-22.371126
-19.550917
-14.417474
-6.787662
0.740321
4.634670
5.526882
11.986180
15.790650
11.227735
8.130431
6.888909
0.692833
-9.932026
-18.569141
-22.057656
-18.013161
-9.427662
-7.686269
-13.368784
-19.046623
-20.195667
-11.134274
5.967456
14.760249
8.148804
-0.629105
-6.013666
-11.054034
-13.936250
-16.490120
-16.240314
-12.550662
-7.414882
3.743878
7.148305
-1.368018
-8.057133
-17.457966
-26.373552
-25.610965
-14.700803
-8.004077
-13.340321
-8.823828
-2.941994
-6.521167
-2.104684
-2.002687
-11.831617
-11.645714
-0.675287
8.450269
9.750057
13.185656
26.212406
34.589311
26.946588
16.587991
13.665511
9.325217
8.739089
12.370813
8.757610
-3.347147
-17.121432
-14.110034
-5.516743
-7.158567
-3.433327
11.387641
22.388721
12.928142
-1.376070
-0.221753
14.950421
33.798311
42.139368
40.088149
31.964076
27.938621
32.727871
32.114727
26.608076
25.377204
26.435667
26.705215
23.206569
12.858363
2.202332
0.052401
0.746929
-6.396260
-20.030790
-31.185576
-30.823031
-20.019894
-13.350444
-10.642195
-1.283887
7.552547
10.586805
11.706573
7.824251
6.373096
11.437440
6.272643
-12.074597
-24.311836
-19.389325
-19.528132
-26.751590
-24.163354
-28.846541
-32.575081
-10.746874
17.288748
23.197597
19.086419
17.414202
8.164814
2.061475
5.068977
11.097060
14.877891
17.790577
27.217724
31.220137
28.044123
21.521779
9.820182
1.382828
2.264909
14.287137
27.558329
32.787106
27.370074
15.769527
4.506678
-5.683849
-6.866144
-1.974286
8.026168
11.427998
-4.726801
-14.493127
-14.500232
-17.995501
-20.387795
-15.734403
-11.214533
-20.087517
-28.610853
-31.729718
-40.214350
-50.504368
-46.024242
-29.915085
-30.228197
-34.055449
-27.678497
-23.677903
-22.247452
-24.298151
-23.593232
-16.987685
-7.495337
1.542677
-3.553281
-23.790592
-30.762075
-7.572944
17.803693
23.884249
14.750199
-1.081189
-11.115855
-11.669512
0.079700
17.103499
24.177928
27.505204
30.329829
24.417939
18.099773
25.539435
34.005959
20.687827
-4.251024
-21.037838
-23.542352
-15.232987
-16.673751
-27.325107
-21.885398
0.037625
16.250429
21.359453
24.500476
16.372506
3.221923
10.746530
24.094093
27.296161
36.048171
46.370738
42.706879
26.634687
17.311785
21.716838
20.967057
18.994547
18.392314
14.435438
19.821375
21.399114
15.674517
19.567308
19.131586
-0.203292
-11.190267
4.010741
15.068970
17.974902
20.681853
20.847753
33.925938
48.499606
46.939349
36.568023
30.357141
28.263060
26.148978
21.810762
14.393517
10.264675
-0.542801
-17.615879
-30.571376
-37.315822
-29.560802
-15.360160
-14.255718
-26.350604
-40.802624
-46.805692
-26.508037
-11.113502
-26.912678
-25.130502
-4.084715
11.543091
29.272421
38.840102
34.451491
23.674927
17.422222
16.197325
15.943960
16.905010
1.769801
-18.193715
-20.758495
-24.027766
-28.485474
-30.829711
-38.953785
-32.816599
-12.225147
-8.610308
-20.472961
-12.640789
7.927024
13.695339
10.198512
-1.313455
-12.855294
-19.244897
-31.372774
-39.228766
-39.797749
-42.264857
-41.133139
-41.028544
-44.684089
-40.578029
-40.578899
-45.091679
-38.038811
-28.193698
-23.029863
-12.711972
-2.168084
-12.210803
-25.944305
-22.506367
-14.656012
-18.322468
-40.700007
-60.359335
-63.273503
-57.444142
-46.185632
-41.384173
-38.549157
-32.648879
-27.998865
-12.171297
-4.123778
-10.888226
3.222796
31.239195
41.984144
40.280495
47.401162
59.325977
69.034712
87.079659
104.125020
99.843174
82.813217
75.586642
75.700848
65.901012
48.103441
41.236905
44.037371
43.935191
46.067015
41.817900
25.431129
13.825646
2.356541
-11.214086
-1.600686
23.687110
26.843979
17.672781
16.206819
4.062318
-2.814350
14.798863
30.301981
32.917233
23.323133
10.155146
6.195932
9.659586
28.552416
50.250740
50.002310
42.672348
34.228760
12.147096
4.059650
17.447218
19.008073
6.366895
-2.756506
-3.285225
-15.969264
-39.611354
-47.550212
-41.478488
-24.971886
-7.116829
4.103495
12.541445
6.321471
-7.537499
-16.961451
-26.681019
-34.865358
-38.043710
-23.286126
-16.129611
-40.174340
-50.422017
-37.334740
-22.832767
-11.318645
-6.343402
-10.967102
-27.397774
-43.366839
-52.747929
-51.629200
-44.233698
-35.187112
-21.559258
-11.709470
0.701631
5.887027
-3.540821
-5.645033
0.476047
1.213697
1.308421
9.626878
13.986731
16.370530
19.035918
19.750968
30.915962
37.723089
39.201077
38.322191
25.286685
18.746417
15.130356
10.122199
9.133691
1.854123
1.260203
6.509761
0.471105
-3.476160
1.399333
5.607742
12.346290
20.922177
21.158735
11.284085
4.191031
13.307495
23.988541
26.078543
39.732893
57.938117
62.846340
59.937628
50.112334
40.246257
42.617587
49.226771
35.074783
8.644085
4.614474
5.377061
-8.938321
-12.993649
-4.697012
3.937582
17.415290
29.110990
24.451961
15.941093
24.558283
38.147691
43.713647
43.258962
44.533032
53.925110
67.018361
77.043493
54.606987
10.854964
-8.379903
-20.324124
-34.780040
-41.914657
-51.842559
-58.851708
-48.393543
-30.956972
-32.912596
-36.032760
-25.239754
-15.679347
-6.229600
-10.624705
-22.844539
-26.013280
-28.391027
-21.023840
-14.458816
-22.271947
-30.100665
-33.727376
-37.999610
-45.033178
-40.667869
-33.856066
-39.751850
-38.945622
-35.142191
-37.137300
-38.980445
-39.996748
-37.145886
-40.266310
-49.542714
-44.040401
-25.203681
-3.841497
11.713315
17.627620
25.739301
31.815701
48.825733
69.283145
62.704431
54.430992
40.940892
18.993788
9.274740
1.532266
6.603624
29.792496
51.458348
51.552033
26.112349
1.311176
3.505604
14.137554
4.146788
5.998582
21.193876
18.178398
24.550414
43.315178
45.704692
22.816709
-6.722372
-18.022368
-15.097992
4.154097
20.798376
16.077002
8.733012
5.294373
-2.300813
-23.477964
-32.445764
-21.104388
-8.044647
-4.972982
-17.276721
-5.837932
10.038992
4.241400
-12.142514
-42.733395
-53.375918
-44.307511
-29.149884
-13.894065
-19.580736
-41.822157
-70.766629
-88.073759
-76.189987
-40.613302
-12.649636
-3.706178
24.031490
36.723400
-9.226000
-24.999720
11.409261
15.844707
-20.429117
-31.573772
-27.065850
-65.461199
-75.969682
-28.945545
-21.937877
-62.221739
-55.129127
-4.215224
-3.218586
-41.295979
-55.882559
-12.975743
40.972768
28.359645
5.396329
2.189663
-5.309928
18.315873
57.574508
47.432817
21.275915
36.551996
20.789706
8.646244
45.062498
37.637461
28.297154
32.953662
11.662732
27.294176
70.092409
65.589760
44.895517
37.461387
10.958733
-18.841934
-16.134204
29.899178
63.643979
31.117307
-8.880810
4.410904
2.344878
-35.639518
-54.917506
-38.609887
6.893829
-17.764732
-36.542408
45.495069
66.515138
6.242914
-55.829242
-70.864441
-25.370077
-4.832916
11.401189
12.259371
-98.050390
-193.357514
-150.322892
-29.630390
64.793860
133.123902
206.872184
84.706616
-120.896150
-126.439689
-64.961545
20.281728
21.659705
-85.611810
-53.917876
-14.919269
-49.521747
-45.132799
-59.654177
-84.437167
-75.543324
-75.156881
-103.994589
-88.366782
-16.241270
9.249665
-19.783648
19.094167
51.654686
-24.742372
-8.285126
54.763835
3.951839
-63.497253
-85.690617
-34.849450
-26.117183
-40.439838
63.413728
64.186706
-12.495837
49.908899
53.143957
-1.221664
8.122097
-14.406107
14.541559
82.000600
70.130673
0.852555
43.324779
205.767961
161.416653
47.544695
97.474077
132.490182
35.500541
-67.323747
-9.268565
-17.670590
-119.417880
-93.470013
-31.293613
-12.471440
-62.043044
-59.721329
16.864657
1.157439
-14.710056
2.888090
-5.140129
-71.472998
-102.796685
-4.210693
-27.975653
-94.475553
-48.683495
-59.228086
-70.672773
-63.524570
-93.191717
-32.723031
44.770845
-63.215032
-107.141100
3.840238
85.411691
122.893773
-70.644591
-181.216458
76.200735
199.790688
108.149928
25.883414
70.560029
151.561031
-4.619848
-72.299095
63.546709
140.987852
116.616594
36.279376
156.734450
177.818422
-40.194756
-64.992034
26.276815
6.305766
-65.219345
-38.774542
-38.904517
-50.984076
155.563283
334.749806
94.198903
-135.733207
-18.354045
-15.508898
-19.947384
-33.564250
-45.371832
184.687122
62.694039
-88.313562
72.715963
67.929128
104.669573
115.903925
62.642577
99.237811
115.775066
110.926146
118.989771
131.798576
96.813461
27.163614
-85.780712
-23.101921
97.736571
74.395552
28.778395
-117.299590
-97.964635
111.949057
107.616816
-26.957867
-91.837335
-147.505432
-177.242197
-194.526986
-222.829312
-166.444957
-100.410743
-73.571872
-38.424065
-67.804947
-160.140326
-35.581179
150.540629
38.691484
21.768291
141.038824
110.792395
10.071447
-108.585955
-89.485571
-54.965882
-58.183459
-31.507203
-100.619589
-38.818034
113.033111
120.453550
176.557356
222.716206
172.925877
208.985211
278.240027
340.084704
276.811900
239.911516
333.772069
322.368686
328.295459
112.790600
-134.983670
-9.940055
48.350737
-11.534173
-32.902774
-50.807369
33.909873
147.030659
238.205473
280.595350
174.401872
281.039111
416.360444
229.407976
193.893713
268.630931
301.865548
258.548376
64.067834
81.708063
243.860564
236.692957
60.029636
-188.776951
-195.411775
52.866002
117.895693
106.590502
98.968820
-118.918631
-112.016948
107.928461
116.072354
86.051923
71.269998
54.241340
37.164106
-156.889378
-394.985994
-370.830006
-55.973451
231.186390
196.507281
-19.584394
-170.695643
-140.785017
1.737862
21.879656
-57.774372
-121.923633
-253.873100
-397.404321
-357.855265
-189.633286
-59.299757
-6.882318
-15.858431
-54.243389
-60.102805
-33.582670
12.445517
177.267654
62.778747
-314.333452
-150.969653
155.943719
167.222232
88.777423
-180.851901
-434.375874
-481.533195
-324.161203
-207.793057
-218.132172
-93.069594
-24.314052
-153.051749
-290.408545
-381.539380
-364.321534
-257.368937
-239.925093
-219.237786
-79.170234
32.361552
137.617346
210.309931
10.437386
-187.011785
-183.203938
-224.084487
-254.984752
-248.416871
-322.951912
-387.883074
-336.911244
-264.863143
-293.974646
-411.541024
-343.345541
-301.499098
-385.992862
-22.457616
364.065533
353.673166
193.994771
-75.473497
-429.549217
-613.961155
-393.833128
-82.951282
190.489175
332.940878
113.745495
-198.562140
-334.775698
-318.215325
-283.392487
-288.945637
-282.279564
-195.853828
-89.633516
-91.110388
-93.861941
-6.439736
38.610685
51.403385
34.011831
-48.013619
-27.446845
60.816230
142.517307
186.660358
186.950428
238.236837
237.867096
270.814929
286.713154
90.512948
-39.821542
-39.982690
-79.659214
-60.769242
0.590448
-10.948274
-109.410280
-174.912152
-204.645279
-389.075141
-395.543194
-249.977394
-88.093492
33.966948
-251.508999
-285.504139
-20.146361
124.279837
151.657466
-95.802484
-192.177514
-88.257707
-7.512317
35.576077
-38.145112
-102.374641
-80.792693
-36.605481
-26.561906
-52.824794
-59.345060
-53.874179
-33.734723
83.121526
148.064455
64.488191
-59.265079
-101.589158
-24.342582
-22.919145
-40.624238
46.099971
45.430198
-156.668039
-406.663844
-470.927922
-422.330890
-199.920023
191.241282
230.309248
-50.947809
-149.131083
-60.943601
27.207513
158.017976
253.720804
364.927101
478.536511
413.644574
367.128880
327.667443
223.993454
114.028406
-22.886526
-112.061568
-169.930160
-215.038431
-181.280642
-91.756134
-51.527526
-47.733447
-2.144527
120.293096
288.324925
368.367903
254.857801
116.556748
193.164036
313.737564
281.175564
278.040593
348.487744
226.658835
-49.892006
-194.945206
-154.803361
10.107357
100.900051
2.392587
-114.486965
-175.444716
-190.428741
-211.386908
-199.321299
-92.132053
15.319299
115.547284
176.074937
160.225885
136.687443
129.254872
57.453888
-50.156884
-69.432535
-10.075136
67.742410
48.001775
4.445098
82.666843
124.550693
104.562499
139.503531
148.011099
116.636758
130.669849
142.031228
64.288571
0.514936
33.332105
45.460319
79.956109
53.277592
-121.091977
-94.551060
92.386158
180.831850
211.970919
146.160962
63.735470
53.953038
70.929560
130.085119
172.338878
181.567302
215.891386
259.649980
273.765678
260.370914
251.937716
275.199323
304.581842
307.582330
297.461680
312.085484
332.889686
274.853544
209.297121
155.037225
128.668092
168.285986
65.696269
-0.080957
80.662096
60.480634
46.250456
-18.765130
-152.256580
-127.429352
10.979062
260.313576
538.412451
527.923710
235.071133
-9.503575
-36.363150
100.235202
178.972067
47.942697
4.435895
136.842371
212.330319
294.844729
398.425279
480.150255
345.386202
-7.870210
-282.554878
-534.328016
-698.767956
-822.616042
-720.371998
-385.130934
-109.471279
252.989567
169.298485
-55.076929
-87.402281
-328.663909
-391.148317
-367.058310
-248.914911
-76.023603
-0.739054
115.193980
149.096720
175.831164
151.989573
53.908907
-51.428896
-108.946281
-49.636160
-30.327961
-35.910465
-104.070282
-255.824197
-296.490437
-372.858661
-394.681076
-276.141011
-42.172290
389.926881
580.228874
581.021075
558.771342
283.659875
-2.414578
-85.527935
-71.726037
-106.432162
-103.498435
-163.912232
-429.189665
-653.967200
-690.661588
-547.355250
-440.955438
-273.399764
-43.966331
-11.594144
82.464873
212.878670
198.823315
144.490165
88.644646
-7.609851
-120.384290
-177.906611
-143.397832
11.321410
137.912462
113.035956
27.848091
-20.110094
-41.896921
-5.050231
155.702381
271.808940
302.981259
346.714916
258.623885
77.763495
-71.854867
-192.347531
-294.980630
-411.434941
-392.095570
-280.639376
-191.854428
-127.457791
-153.208677
-209.669066
-254.662001
-291.994379
-305.873611
-201.304385
-87.390267
-64.710540
-35.111635
-58.625140
-71.596222
-35.112948
-34.710659
-49.848466
-68.783820
-64.283952
-72.047467
-94.796475
-84.981495
-105.756006
-67.115099
-46.716655
-45.383877
60.478475
107.457153
165.602734
231.810473
321.369010
468.905409
485.267580
389.142967
275.918090
207.065991
206.655207
235.089573
181.622748
82.469501
6.953835
-64.170454
-59.865671
-56.594765
-101.171032
-105.838893
-38.515451
72.999970
219.533925
302.831276
195.292460
57.341574
-32.898257
-59.039314
29.080888
131.250638
163.192910
85.779120
85.420549
165.855517
136.604778
104.562314
56.509313
-17.333447
-3.967180
52.564723
80.074055
41.427770
-73.767186
-193.375599
-246.314835
-301.401831
-319.257590
-318.888032
-273.790853
-107.927307
-18.994291
72.351709
225.502993
329.669059
393.229243
347.186846
166.448027
-40.344216
-141.759523
-203.511645
-248.559391
-199.443602
-138.131709
-99.985141
-81.407929
-104.849218
-138.536273
-188.604034
-250.547865
-232.681378
-151.483472
-152.620307
-213.881987
-249.740703
-281.622111
-303.164237
-259.073139
-120.470678
-1.340680
42.308033
61.693643
23.311282
-42.096034
-70.930885
-74.089234
-80.711589
-83.263381
-98.851625
-154.277619
-215.144972
-267.149562
-254.175285
-148.975601
0.246952
134.022406
228.221177
291.157399
298.189744
266.279242
161.489550
3.339630
-100.006013
-124.565083
-102.831691
-86.501991
-50.035602
42.213871
179.468916
291.890408
307.480808
267.778826
222.235703
171.625807
143.884060
118.223574
10.228865
-73.300641
-93.663680
-152.342488
-181.505165
-188.664980
-200.703496
-174.445726
-127.823190
-56.657001
10.499150
63.103622
128.081879
141.941965
81.899636
6.708420
-102.834246
-237.095388
-314.820120
-306.237220
-199.389828
-67.601859
-3.914649
24.581022
53.659612
74.086631
73.230864
30.412707
-35.634678
-89.094748
-133.026011
-154.570994
-162.544922
-146.690078
-92.285674
-40.272953
20.661496
78.348587
140.697733
212.063164
224.531414
185.282987
120.233631
83.295060
95.351058
102.893329
109.136759
116.955942
146.840592
189.383473
262.008259
337.987947
245.968446
99.573024
69.744302
74.448088
53.722673
4.173149
-45.413002
-70.443551
-74.455498
-84.304690
-56.310112
47.909727
133.654351
158.201809
100.177617
-20.117363
-119.688577
-200.048135
-228.602177
-160.957921
-54.775536
52.177061
163.315819
219.345071
159.727981
57.524798
0.043261
-3.482660
59.328872
83.813726
0.167585
-79.343831
-137.369582
-190.824197
-213.945712
-219.493147
-221.494231
-196.848321
-126.986427
-66.143415
-24.307103
4.630952
-2.253508
-10.668262
-3.142617
3.497739
12.363008
19.395354
-4.356877
-69.605735
-147.449441
-210.844595
-242.250369
-240.904602
-188.848760
-82.425830
-24.364933
-28.544690
-48.908768
-83.531248
-98.542028
-117.449847
-103.969542
-49.037550
-18.324500
6.583516
18.808623
32.597532
52.844792
58.339312
44.099263
-14.304451
-84.128861
-134.930466
-139.425581
-84.544244
-29.004394
10.534011
40.692456
40.474159
38.980922
55.654814
42.143934
-7.167643
-22.513004
18.033560
44.254703
56.678272
100.938738
161.443013
209.824437
205.834830
171.170788
118.390271
54.315304
60.165186
80.450112
31.672359
-18.394622
-52.519906
-115.646460
-180.907527
-215.603002
-177.278492
-59.743729
34.746242
101.458450
166.531263
160.218551
96.571682
31.386207
-27.314681
-60.311792
-66.682692
-78.821998
-110.258943
-152.772913
-170.290454
-139.397905
-90.572537
-47.582855
3.281951
47.479294
53.000570
63.340021
138.426368
269.111882
359.358025
362.414623
338.548353
310.649967
234.047951
94.889145
-4.375803
-47.187727
-84.988986
-104.667017
-128.521337
-135.220064
-117.547624
-106.898789
-103.533327
-107.808938
-107.051286
-84.185826
-39.858339
7.191515
84.137800
164.698236
198.478365
209.258383
183.058879
155.946030
140.908493
104.059543
92.858778
80.585432
42.116568
27.965100
13.723232
-29.488993
-71.459268
-103.033891
-127.070308
-116.205606
-65.524456
-18.096120
18.814473
63.809823
82.167531
65.191346
51.236002
36.850223
26.664372
44.525923
57.876864
55.907213
62.335858
72.500226
84.994452
71.744638
49.261893
71.125948
85.881454
44.130423
-8.937137
-37.106982
-46.946562
-23.211399
13.141472
32.895173
73.853469
105.473629
100.083093
83.860235
39.957807
21.112072
57.442343
94.496588
128.311786
120.248498
78.271209
80.053905
61.699132
-25.155144
-115.177289
-192.998915
-245.270546
-229.495191
-158.168726
-80.459243
-12.710041
33.487255
30.694658
-27.164322
-126.865160
-164.711360
-102.052311
-16.611095
104.729268
275.695176
418.724602
347.187022
86.796863
-98.545823
-190.196454
-253.250792
-279.483547
