EVENT_NAME: 202302060117
EVENT_ID: 13194
EVENT_DATE_YYYYMMDD: 2023/02/06
EVENT_TIME_HHMMSS: 01:17:32.00000
EVENT_LATITUDE_DEGREE: 37.288
EVENT_LONGITUDE_DEGREE: 37.043
EVENT_DEPTH_KM: 8.6
HYPOCENTER_REFERENCE: AFAD
MAGNITUDE_W: 7.7
MAGNITUDE_W_REFERENCE: AFAD
MAGNITUDE_L: 
MAGNITUDE_L_REFERENCE: 
FOCAL_MECHANISM: 
NETWORK: TK
STATION_CODE: 0210
STATION_NAME: 
STATION_LATITUDE_DEGREE: 37.7672
STATION_LONGITUDE_DEGREE: 38.2866
STATION_ELEVATION_M: 741.0
LOCATION: Kahramanmaras_Pazarck_Turkiye
SENSOR_DEPTH_M: 
VS30_M/S: None
SITE_CLASSIFICATION_EC8: unknown
MORPHOLOGIC_CLASSIFICATION: 
EPICENTRAL_DISTANCE_KM: 121.92
EARTHQUAKE_BACKAZIMUTH_DEGREE: 
DATE_TIME_FIRST_SAMPLE_YYYYMMDD_HHMMSS: 2023/02/06 01:17:33.0591560
DATE_TIME_FIRST_SAMPLE_PRECISION: millisecond
SAMPLING_INTERVAL_S: 0.01
NDATA: 3540
DURATION_S: 
STREAM: HNN
UNITS: cm/s^2
INSTRUMENT: sensor = ACEBOX/SARA | digitizer = 
INSTRUMENT_ANALOG/DIGITAL: 
INSTRUMENTAL_FREQUENCY_HZ: 
INSTRUMENTAL_DAMPING: 
FULL_SCALE_G: 
N_BIT_DIGITAL_CONVERTER: 
PGA_CM/S^2: 65.910
TIME_PGA_S: 
BASELINE_CORRECTION: BASELINE REMOVED
FILTER_TYPE: BUTTERWORTH
FILTER_ORDER: 
LOW_CUT_FREQUENCY_HZ: 
HIGH_CUT_FREQUENCY_HZ: 
LATE/NORMAL_TRIGGERED: 
DATABASE_VERSION: 
HEADER_FORMAT: DYNA 1.2
DATA_TYPE: Acceleration
PROCESSING: Automatic Paolucci et al., 2011
DATA_TIMESTAMP_YYYYMMDD_HHMMSS: 
DATA_LICENSE: U (unknown license)
DATA_CITATION: Turkish Accelerometric Archive v 1.0 - Disaster And Emergency Management Presidency, Earthquake Department
DATA_CREATOR: AFAD
ORIGINAL_DATA_MEDIATOR_CITATION: : AFAD - Disaster And Emergency Management Presidency
ORIGINAL_DATA_MEDIATOR: AFAD PROCESS SERVICE
ORIGINAL_DATA_CREATOR_CITATION: AFAD PROCESS SERVICE
ORIGINAL_DATA_CREATOR: network: TK
USER1: GuestUser
USER2: 
USER3: 
USER4: 
USER5: 
[...]
-0.034447
-0.032163
-0.030815
-0.035545
-0.032560
-0.032147
-0.035475
-0.031555
-0.031375
-0.033300
-0.032419
-0.035045
-0.034398
-0.030946
-0.033104
-0.034562
-0.032746
-0.033735
-0.032621
-0.031740
-0.034600
-0.033018
-0.032137
-0.035932
-0.031778
-0.031131
-0.038433
-0.034045
-0.030125
-0.036258
-0.033741
-0.032159
-0.035720
-0.034138
-0.034894
-0.036819
-0.035236
-0.033420
-0.032540
-0.035166
-0.034051
-0.032937
-0.040005
-0.036552
-0.030528
-0.036661
-0.034144
-0.031627
-0.039630
-0.036879
-0.032491
-0.036052
-0.033535
-0.034525
-0.039021
-0.034633
-0.034454
-0.037314
-0.033628
-0.034851
-0.036308
-0.034259
-0.038287
-0.035770
-0.031616
-0.037749
-0.036401
-0.033182
-0.041186
-0.037733
-0.031709
-0.039011
-0.037195
-0.032106
-0.037771
-0.037592
-0.036945
-0.037701
-0.033313
-0.036874
-0.039734
-0.034879
-0.038440
-0.039196
-0.033406
-0.036266
-0.039359
-0.036842
-0.036195
-0.036951
-0.039343
-0.037995
-0.034542
-0.037636
-0.039327
-0.035874
-0.036864
-0.036918
-0.036271
-0.038664
-0.036614
-0.037604
-0.039762
-0.035842
-0.038468
-0.038990
-0.036005
-0.041203
-0.038686
-0.034532
-0.039028
-0.037212
-0.037501
-0.042699
-0.040649
-0.037196
-0.037718
-0.037773
-0.039464
-0.041388
-0.041209
-0.037523
-0.036642
-0.039969
-0.039089
-0.038208
-0.040600
-0.039719
-0.037903
-0.037023
-0.038714
-0.041807
-0.037653
-0.039344
-0.044075
-0.037349
-0.037170
-0.040497
-0.038214
-0.041775
-0.042531
-0.037909
-0.039600
-0.041057
-0.036670
-0.038828
-0.044728
-0.040807
-0.038758
-0.041384
-0.038165
-0.039388
-0.042482
-0.041134
-0.041422
-0.039606
-0.040128
-0.041819
-0.039068
-0.040993
-0.043385
-0.042270
-0.039519
-0.039807
-0.043603
-0.040851
-0.038334
-0.042597
-0.043353
-0.040602
-0.040188
-0.042347
-0.043103
-0.041521
-0.042510
-0.041162
-0.041918
-0.043375
-0.039922
-0.043016
-0.046110
-0.040787
-0.041543
-0.043000
-0.039781
-0.043576
-0.045033
-0.041581
-0.044908
-0.041923
-0.039874
-0.046240
-0.042788
-0.042375
-0.045469
-0.038977
-0.043473
-0.045398
-0.040309
-0.046910
-0.044626
-0.039537
-0.044735
-0.043386
-0.044142
-0.046067
-0.042614
-0.042201
-0.042723
-0.045817
-0.046573
-0.041250
-0.045045
-0.045801
-0.041179
-0.047079
-0.046198
-0.040173
-0.045138
-0.045192
-0.042441
-0.046937
-0.044420
-0.041669
-0.046867
-0.046220
-0.042300
-0.046796
-0.044746
-0.041060
-0.047193
-0.044910
-0.043327
-0.049928
-0.043436
-0.043958
-0.051260
-0.042898
-0.043186
-0.048852
-0.043295
-0.045921
-0.047378
-0.042523
-0.046552
-0.046840
-0.043621
-0.048819
-0.048406
-0.042849
-0.045709
-0.047634
-0.043948
-0.045405
-0.048265
-0.046215
-0.045568
-0.047259
-0.046145
-0.046900
-0.047890
-0.044905
-0.044726
-0.048521
-0.049043
-0.045824
-0.046814
-0.048972
-0.045286
-0.047912
-0.050772
-0.043813
-0.046205
-0.049766
-0.046080
-0.049174
-0.047591
-0.045776
-0.052376
-0.046586
-0.042198
-0.052072
-0.048152
-0.042829
-0.052469
-0.046445
-0.043927
-0.054035
-0.045439
-0.046195
-0.052795
-0.043030
-0.049397
-0.054127
-0.043895
-0.048859
-0.050550
-0.046630
-0.051828
-0.050713
-0.047962
-0.048718
-0.047136
-0.049996
-0.050284
-0.047065
-0.049457
-0.048577
-0.048163
-0.053127
-0.050610
-0.046924
-0.049784
-0.049838
-0.048022
-0.049012
-0.050469
-0.051459
-0.050578
-0.046190
-0.048115
-0.054014
-0.047288
-0.046875
-0.056515
-0.050023
-0.045636
-0.052470
-0.050420
-0.050709
-0.051231
-0.048246
-0.052742
-0.051861
-0.047474
-0.052905
-0.052726
-0.048338
-0.052367
-0.051486
-0.048034
-0.052063
-0.051883
-0.049600
-0.051992
-0.051813
-0.051400
-0.050519
-0.049638
-0.053667
-0.054657
-0.052139
-0.052427
-0.050378
-0.049964
-0.052591
-0.050307
-0.050829
-0.053455
-0.049769
-0.050525
-0.053852
-0.052036
-0.055130
-0.055418
-0.049628
-0.050851
-0.054880
-0.054233
-0.051248
-0.051536
-0.053227
-0.050242
-0.051466
-0.053858
-0.053912
-0.053967
-0.051449
-0.053842
-0.053896
-0.050210
-0.055174
-0.055930
-0.051776
-0.053233
-0.052820
-0.051004
-0.054565
-0.057893
-0.054440
-0.053559
-0.053614
-0.048525
-0.053255
-0.059388
-0.055234
-0.052951
-0.052304
-0.053293
-0.054984
-0.054103
-0.055327
-0.054212
-0.054734
-0.055490
-0.052739
-0.054898
-0.057991
-0.054539
-0.053892
-0.056050
-0.054001
-0.054523
-0.055045
-0.054398
-0.059362
-0.055675
-0.049417
-0.055317
-0.057241
-0.054958
-0.056649
-0.057171
-0.056524
-0.052370
-0.056399
-0.060428
-0.052533
-0.054224
-0.058019
-0.052930
-0.056024
-0.059585
-0.055899
-0.055953
-0.057644
-0.056530
-0.056116
-0.055703
-0.055290
-0.059085
-0.057269
-0.052648
-0.056443
-0.056731
-0.053045
-0.058009
-0.059466
-0.054377
-0.056769
-0.059395
-0.054774
-0.055530
-0.059091
-0.056807
-0.057797
-0.056916
-0.054399
-0.059831
-0.058482
-0.054562
-0.061163
-0.057476
-0.053322
-0.060858
-0.058341
-0.056759
-0.061022
-0.055231
-0.055052
-0.060016
-0.056563
-0.058020
-0.060413
-0.057428
-0.057716
-0.057303
-0.057123
-0.060919
-0.062142
-0.058689
-0.057107
-0.058564
-0.057450
-0.059842
-0.061299
-0.057379
-0.058603
-0.058423
-0.056140
-0.059467
-0.059755
-0.060044
-0.061735
-0.057814
-0.057167
-0.062365
-0.061485
-0.058500
-0.061360
-0.060713
-0.058663
-0.061055
-0.059239
-0.058826
-0.062154
-0.060338
-0.058522
-0.059277
-0.059566
-0.061958
-0.061779
-0.059028
-0.061654
-0.060072
-0.057087
-0.063220
-0.061637
-0.057717
-0.063149
-0.061567
-0.058816
-0.059338
-0.059392
-0.062486
-0.060436
-0.059322
-0.060779
-0.060132
-0.062992
-0.062345
-0.061698
-0.061051
-0.057131
-0.061627
-0.063552
-0.060801
-0.065064
-0.062079
-0.059094
-0.062187
-0.061774
-0.062764
-0.061649
-0.061470
-0.062927
-0.059241
-0.059529
-0.060986
-0.059638
-0.062030
-0.062084
-0.059099
-0.059388
-0.061780
-0.062770
-0.059317
-0.057033
-0.054984
-0.046621
-0.041065
-0.043223
-0.046551
-0.050580
-0.054842
-0.053027
-0.045599
-0.042147
-0.042669
-0.043191
-0.042076
-0.034415
-0.031197
-0.040603
-0.058426
-0.081159
-0.092669
-0.081501
-0.054435
-0.020355
0.004373
-0.002462
-0.029870
-0.045589
-0.043072
-0.022786
-0.001565
-0.008165
-0.013831
-0.004533
-0.002250
0.008918
0.021956
0.017694
0.022315
0.040731
0.070836
0.112631
0.118656
0.082363
0.045602
0.010712
0.023984
0.098043
0.123473
0.094428
0.038496
-0.064196
-0.110542
-0.074592
-0.034900
-0.012510
-0.037347
-0.056339
-0.033014
-0.014131
0.042861
0.076474
0.007683
-0.066251
-0.081970
0.066437
0.358161
0.473603
0.401539
0.265414
-0.100533
-0.423695
-0.282770
0.001240
0.091899
0.019367
-0.266388
-0.610358
-0.731285
-0.568851
-0.143862
0.264995
0.294166
0.070367
-0.067861
-0.016247
0.118366
0.181203
0.181850
0.091784
-0.193269
-0.441383
-0.381585
-0.066481
0.003370
-0.563642
-0.909717
-0.487299
0.050847
0.736053
1.317686
1.155844
0.712744
-0.063284
-1.069134
-1.163175
-0.484516
0.042876
0.000738
-0.357961
-0.193656
0.119812
-0.147473
-0.224213
0.114037
0.245611
0.348661
0.392794
0.233992
0.374917
0.404321
-0.098397
0.010965
0.683779
0.486868
-0.004395
0.052597
-0.178916
-0.259397
0.509742
1.022405
1.176890
1.068588
-0.298246
-1.728905
-1.663497
-1.217466
-0.742210
0.422513
1.144191
1.243033
1.659839
1.251107
-0.077150
-1.133266
-2.718700
-4.349490
-4.383913
-3.086159
-0.938084
0.774193
0.477450
-0.923518
-2.241020
-3.223257
-2.958185
-1.331946
0.318843
1.632963
2.519935
2.300111
1.612459
0.787334
-0.362535
-0.793712
-0.460138
0.247512
1.207663
1.291075
0.548480
-0.446849
-1.837296
-2.764357
-2.862372
-2.762361
-2.205277
-1.089183
0.160643
2.190650
5.139948
7.099816
6.438817
3.305412
-0.258882
-1.681827
-0.873644
0.249931
0.053721
-1.745170
-4.029189
-5.606908
-5.380646
-3.242859
-0.746660
0.944342
0.756314
-0.932925
-1.061802
0.830265
3.324360
5.818922
5.635570
2.387371
-0.548476
-1.977032
-1.301646
1.681553
4.370868
4.664697
2.072065
-2.464124
-5.689879
-5.016831
-1.599004
1.405237
2.016329
0.063833
-2.496535
-3.256431
-2.281784
0.045613
2.649827
2.408260
-0.527821
-3.415038
-4.580805
-2.959476
-0.043143
2.016557
2.257781
-0.120225
-2.771307
-2.879843
-0.827158
2.617323
6.387249
8.067964
5.388592
-0.417116
-5.056877
-6.253038
-4.084389
-0.218839
2.496194
2.724559
0.409211
-3.366670
-5.586863
-3.966001
0.149011
3.866566
5.501223
3.652767
-0.093889
-1.327224
0.179545
2.316866
4.458160
5.112271
3.156970
-0.685309
-4.229964
-5.118681
-3.591338
-1.347407
-0.294438
-1.302626
-1.836907
-0.847298
-0.397059
-0.077045
0.446840
-0.305340
-1.543585
-2.136315
-1.457890
1.382926
4.312586
4.864760
3.436438
0.554833
-2.065621
-1.946439
-0.493444
0.407089
0.931676
-0.306101
-2.347674
-1.139697
2.515668
5.057458
5.537623
3.576711
-0.417068
-3.640486
-3.758841
-1.248147
2.463798
5.219746
4.078994
-0.232282
-3.796809
-4.342780
-1.812914
1.661259
2.769169
0.478369
-3.604720
-7.572548
-8.768242
-4.364491
3.530554
9.018891
9.176650
4.509067
-2.183201
-5.896657
-4.908450
-1.716237
2.417244
4.567423
1.506028
-2.733940
-3.971484
-2.601486
0.343136
2.251335
2.117549
1.013503
-0.589465
-1.217499
-0.682158
0.884931
3.292287
4.090884
3.123844
1.094430
-1.243364
-0.942988
0.909567
1.774328
2.098785
0.503064
-3.128564
-5.062589
-3.652846
-1.135371
1.012002
3.467754
4.036061
1.863329
1.165389
0.791727
-1.782202
-3.041254
-2.708147
-1.869571
-0.453282
-1.233518
-2.948942
-2.329434
0.304471
3.499724
4.558070
4.015138
3.316030
0.631983
-1.112433
0.731238
3.040166
5.036272
5.585174
1.838752
-2.829532
-3.251825
-1.214336
-0.100346
0.782184
1.388132
1.417302
2.063230
1.679748
-0.335639
-1.178299
-1.528114
-3.411873
-4.476640
-3.334828
-1.940984
-0.117419
1.638578
0.654003
-1.258981
-1.294105
-0.921720
-1.641402
-2.394050
-1.310221
1.129400
3.654356
6.573728
7.813033
6.211934
4.378910
1.922347
-1.703669
-4.587145
-5.885709
-3.844480
-0.128561
1.925528
5.133873
8.982589
8.294703
4.331318
1.369520
-0.859558
-3.227511
-2.393844
0.741556
0.953556
1.027849
4.359640
5.439962
-0.067420
-6.625254
-7.465576
-5.919529
-6.903169
-8.920426
-8.957654
-5.712602
-0.792393
5.789413
13.006680
15.772915
14.100041
8.386449
-1.110918
-8.383236
-12.325112
-12.824324
-7.388358
-1.738935
-0.156416
0.383835
0.925956
-0.714420
-5.999929
-10.131648
-7.899173
-1.220107
8.565891
19.744619
26.124190
22.872250
10.206696
-5.346020
-16.788112
-20.312427
-14.506828
-5.770346
-2.345036
-5.446178
-11.638586
-13.430931
-8.173586
-2.181650
6.374106
18.235055
18.501062
6.945344
-1.671309
-4.595700
-1.155661
7.945544
15.847136
14.276899
0.668675
-12.316947
-19.431920
-21.917707
-15.506572
-4.952317
8.228417
12.535376
-0.599409
-6.416573
-0.664280
7.233805
18.405519
22.020205
21.539697
13.584223
-8.810103
-19.475287
-16.827821
-15.547368
-9.988425
-6.734021
-10.521124
-14.214473
-12.739033
-3.628008
8.547631
19.206394
17.591034
4.032142
-1.246588
-3.477535
-7.586811
1.818799
13.813947
15.712093
12.187311
1.357767
-13.046771
-19.844013
-16.181399
-9.398761
-2.918657
3.260083
4.221870
2.696756
-1.311285
-5.096283
3.179384
10.726072
5.703585
-2.355228
-13.201839
-21.563652
-15.250713
-3.135159
10.055862
32.976122
37.516645
4.486414
-26.281127
-36.651492
-28.607284
-5.094815
8.977855
22.954903
33.910822
16.344176
-0.360225
-4.734860
-7.784566
1.061333
6.721978
-2.328603
-13.407608
-18.047837
-9.895848
8.257520
24.351134
33.128764
32.760713
14.580349
-13.700757
-29.934992
-31.372900
-23.730589
-8.913742
12.539674
29.113274
24.634833
15.500320
14.259503
6.529176
-4.357648
-12.744478
-23.506454
-28.507900
-25.004268
-20.600518
-10.266265
9.129268
30.643939
40.108699
18.528222
-10.702335
-18.622272
-25.295368
-20.865899
5.800261
17.978940
18.939091
15.297410
-3.284150
-7.485541
-3.183024
-7.988781
1.878812
11.298215
5.205170
-0.063505
-10.875047
-20.265101
-14.532914
-3.775722
6.790223
18.242260
27.524191
18.371208
-6.575015
-14.614188
-10.634312
-11.811068
-3.613956
12.046899
19.677286
15.630668
3.502615
-7.769975
-18.399622
-28.100392
-27.604329
-17.414797
-3.186652
9.726618
13.641265
6.008432
-3.991366
-1.835342
6.683709
8.100700
8.172655
2.781002
-11.467359
-15.281115
-10.359035
0.504534
23.648538
32.568551
24.638561
15.138388
-9.792871
-32.237463
-37.236337
-36.596956
-17.567082
9.874584
30.902957
47.710354
40.666924
13.620734
-15.671780
-32.499860
-15.347612
11.003624
15.962877
8.695468
-2.740779
-13.580376
-15.710791
-6.006155
5.331789
9.516939
9.685686
2.140527
-6.632770
-7.079611
-5.140317
-2.486071
-1.069548
-1.785022
-2.778949
-4.082423
-7.922363
-15.821258
-12.203300
0.370029
6.252313
12.509609
8.697256
-6.162017
-6.354253
3.210573
5.240580
-1.215786
-9.185755
-13.933765
-13.275212
-6.381287
5.121718
22.963668
26.018643
0.396512
-23.428886
-30.521648
-23.200809
1.680076
29.586063
29.873345
-1.620136
-24.503332
-29.586840
-26.626086
-4.689644
18.631579
35.820767
30.894838
-7.428329
-20.610808
-18.438419
-26.632366
0.208675
30.184469
46.207476
63.678858
25.307061
-29.634182
-28.401189
-20.389011
-19.447798
4.603106
24.531697
23.783725
18.238935
0.701747
-30.386797
-39.990074
-19.628023
6.026262
33.611714
54.133915
34.326323
-8.688454
-11.339535
6.858722
-6.978624
-12.184174
11.293459
15.362412
-7.697066
-30.465000
-38.124486
-31.750058
-13.337877
7.171466
17.368012
17.255033
2.946820
-10.107071
-16.193803
-20.221249
0.919580
25.448132
41.678752
50.040456
7.834151
-29.632149
-28.014093
-38.538765
-18.191210
26.311578
29.481581
17.362177
4.418639
-7.585502
-6.251510
-6.844240
-7.092587
4.316899
21.259197
21.929439
1.294672
-13.227933
-14.920680
-13.390765
-5.933856
8.157753
14.002864
2.219427
-8.635133
-16.130260
-29.906818
-35.220383
-22.502100
0.466556
14.684649
16.848388
12.822345
-7.054452
-17.328961
0.223548
6.813537
-6.662124
-2.238266
26.157760
28.561843
-1.029230
-13.304576
-17.901552
-20.500029
1.586978
13.791842
12.287068
26.718384
25.424262
-8.992854
-28.278144
-5.839973
20.619744
37.391838
57.130819
35.611129
-21.484789
-41.492980
-32.168732
-17.905049
2.506567
9.168799
13.944288
17.731516
-2.375805
-30.192123
-49.829979
-46.498422
-23.519245
-4.329453
30.225962
52.741753
14.417183
-31.794069
-44.670976
-31.625610
-4.611560
6.259959
17.493863
29.470775
1.716179
-20.331892
-0.646217
7.398693
-5.550691
7.183256
31.137602
11.645636
-22.038292
-16.168866
-0.975137
-3.856509
-0.113469
14.634408
15.199441
5.201748
2.509518
-8.405128
-21.058056
-13.837750
-5.659108
5.370925
24.173080
21.320465
3.929869
-6.068292
-10.152317
-6.372337
-5.663284
-18.579235
-26.262335
-21.774417
-14.882595
4.579803
21.893606
3.647311
-16.592806
-8.846924
-4.905156
-8.023598
-1.680032
9.522778
22.626592
32.263427
29.709605
10.527888
-2.425002
9.922478
16.460798
10.106602
2.004771
-15.491736
-18.746716
-16.447608
-29.498927
-24.351233
-3.943592
16.821292
26.276934
2.593684
-19.610564
-25.742186
-15.255965
19.668148
44.430497
54.692273
26.298709
-29.355849
-35.939400
-34.480092
-34.916880
-1.194952
13.787424
12.536788
4.113953
-19.369634
-23.676935
-17.357917
-9.340830
3.745450
7.232716
-5.042396
-22.055176
-17.364089
-0.296943
7.168150
15.212592
27.128716
20.881833
-1.644354
-2.207626
-2.656104
-16.767694
7.471651
32.779449
16.169969
-0.683829
-13.344239
-27.895133
-28.238402
-14.793010
-3.091043
6.532699
45.201777
65.909848
5.187033
-45.390618
-32.074749
-26.662163
-21.340524
15.623470
46.190070
47.601450
25.212970
-0.726424
-18.208669
-32.797672
-30.464898
-12.075161
4.715637
15.885013
7.233525
-10.324470
-9.739096
-10.597421
-20.531988
-6.540679
27.527736
35.903703
13.475710
-5.725178
-19.350703
-20.693923
-2.491224
8.857709
24.175583
29.469868
-4.990734
-24.116574
-26.188773
-32.142943
-1.443780
30.860635
25.397206
12.762280
11.191576
6.191767
-20.332587
-30.327942
-11.010731
5.872884
34.157622
46.863982
21.780286
1.176147
-16.636220
-38.644780
-48.536095
-35.793497
-2.372934
14.362453
10.673546
18.856630
26.087691
16.028743
12.960333
14.560855
-6.910439
-25.900676
-18.415477
-5.941513
4.078516
13.971359
19.954411
12.323681
-5.013609
-9.812820
-10.068883
-17.701950
-22.112590
-14.514233
3.212221
11.817542
2.548829
-5.152507
9.734713
32.971769
48.344586
51.528617
5.910274
-39.643541
-22.938781
-23.789624
-35.079047
-13.576767
-11.125690
5.465678
19.323723
-15.641882
-21.301233
-9.567002
-12.088326
11.641808
37.189248
42.509718
19.894454
-16.486793
-20.831969
-13.634107
-11.455405
4.726117
26.252478
29.164836
7.618494
-6.503383
-13.316056
-26.475390
-23.764097
-14.519340
-0.839215
18.758553
7.485495
-17.329099
-17.701593
-14.464023
-10.242867
3.664041
4.095810
25.774607
54.249657
0.766841
-40.033641
-6.534756
-16.262413
-34.651792
-5.619369
11.724827
21.030137
20.388309
-3.456728
-23.894404
-30.832159
-18.107096
0.095370
2.363616
10.002654
32.322757
30.025177
0.681695
-13.714893
-15.981379
-7.812089
17.402892
28.217597
26.662090
19.941533
-1.582599
-15.073457
-11.450823
2.051616
12.192518
14.697134
15.692354
-7.452226
-30.706692
-26.588408
-22.045080
-6.500188
16.818697
35.677198
40.341165
-0.249602
-28.099119
-20.507776
-29.020389
-20.798027
5.700033
18.133083
31.794037
28.173866
-1.221051
-24.257150
-26.985385
-16.382266
-3.621198
4.560483
3.446618
2.191307
7.532117
3.653366
-7.129652
-10.666825
-8.400449
4.896716
16.038972
0.316519
-14.729559
-13.190058
-15.253607
-7.144403
1.262892
-6.421845
1.659303
16.164732
19.523877
16.539868
-8.704913
-17.719489
11.498568
17.118065
3.229518
5.071085
-0.509243
-12.366092
-12.970980
-5.430605
4.291800
4.454469
4.031475
11.206659
6.056752
-7.204985
-12.874857
-15.654994
-11.916163
4.419431
26.098696
33.204676
11.614145
-6.439734
2.647210
6.489146
-0.197978
-6.091126
-15.836084
-11.720372
-8.777152
-11.911025
5.758149
17.254841
27.782677
23.267764
-26.979531
-29.482619
3.014445
-8.066431
6.554027
46.376427
50.717520
18.081238
-25.061426
-24.145696
-13.303636
-22.260698
8.223138
46.711257
48.136431
30.104762
-7.865371
-26.257087
-6.895221
-3.693188
-11.561456
-11.072172
-10.027387
8.160350
6.717766
-27.862307
-24.557403
5.102298
14.077486
26.889522
37.788629
0.000000
0.000000
0.000000
0.000000
0.000000
0.000000
0.000000
0.000000
0.000000
0.000000
0.000000
0.000000
0.000000
0.000000
0.000000
0.000000
0.000000
0.000000
0.000000
0.000000
0.000000
0.000000
0.000000
0.000000
0.000000
0.000000
0.000000
0.000000
0.000000
0.000000
0.000000
0.000000
0.000000
0.000000
0.000000
0.000000
0.000000
0.000000
0.000000
0.000000
0.000000
0.000000
0.000000
0.000000
0.000000
0.000000
0.000000
0.000000
0.000000
0.000000
0.000000
0.000000
0.000000
0.000000
0.000000
0.000000
0.000000
0.000000
0.000000
0.000000
0.000000
0.000000
0.000000
0.000000
0.000000
0.000000
0.000000
0.000000
0.000000
0.000000
0.000000
0.000000
0.000000
0.000000
0.000000
0.000000
