EVENT_NAME: 202302060117
EVENT_ID: 13194
EVENT_DATE_YYYYMMDD: 2023/02/06
EVENT_TIME_HHMMSS: 01:17:32.00000
EVENT_LATITUDE_DEGREE: 37.288
EVENT_LONGITUDE_DEGREE: 37.043
EVENT_DEPTH_KM: 8.6
HYPOCENTER_REFERENCE: AFAD
MAGNITUDE_W: 7.7
MAGNITUDE_W_REFERENCE: AFAD
MAGNITUDE_L: 
MAGNITUDE_L_REFERENCE: 
FOCAL_MECHANISM: 
NETWORK: TK
STATION_CODE: 1909
STATION_NAME: 
STATION_LATITUDE_DEGREE: 40.725295
STATION_LONGITUDE_DEGREE: 34.467468
STATION_ELEVATION_M: 1080.0
LOCATION: Kahramanmaras_Pazarck_Turkiye
SENSOR_DEPTH_M: 
VS30_M/S: None
SITE_CLASSIFICATION_EC8: unknown
MORPHOLOGIC_CLASSIFICATION: 
EPICENTRAL_DISTANCE_KM: 442.22
EARTHQUAKE_BACKAZIMUTH_DEGREE: 
DATE_TIME_FIRST_SAMPLE_YYYYMMDD_HHMMSS: 2023/02/06 01:18:08.1798270
DATE_TIME_FIRST_SAMPLE_PRECISION: millisecond
SAMPLING_INTERVAL_S: 0.01
NDATA: 21001
DURATION_S: 
STREAM: HNZ
UNITS: cm/s^2
INSTRUMENT: sensor = ACEBOX/SARA | digitizer = 
INSTRUMENT_ANALOG/DIGITAL: 
INSTRUMENTAL_FREQUENCY_HZ: 
INSTRUMENTAL_DAMPING: 
FULL_SCALE_G: 
N_BIT_DIGITAL_CONVERTER: 
PGA_CM/S^2: 1.466
TIME_PGA_S: 
BASELINE_CORRECTION: BASELINE REMOVED
FILTER_TYPE: BUTTERWORTH
FILTER_ORDER: 
LOW_CUT_FREQUENCY_HZ: 
HIGH_CUT_FREQUENCY_HZ: 
LATE/NORMAL_TRIGGERED: 
DATABASE_VERSION: 
HEADER_FORMAT: DYNA 1.2
DATA_TYPE: Acceleration
PROCESSING: Automatic Paolucci et al., 2011
DATA_TIMESTAMP_YYYYMMDD_HHMMSS: 
DATA_LICENSE: U (unknown license)
DATA_CITATION: Turkish Accelerometric Archive v 1.0 - Disaster And Emergency Management Presidency, Earthquake Department
DATA_CREATOR: AFAD
ORIGINAL_DATA_MEDIATOR_CITATION: : AFAD - Disaster And Emergency Management Presidency
ORIGINAL_DATA_MEDIATOR: AFAD PROCESS SERVICE
ORIGINAL_DATA_CREATOR_CITATION: AFAD PROCESS SERVICE
ORIGINAL_DATA_CREATOR: network: TK
USER1: GuestUser
USER2: 
USER3: 
USER4: 
USER5: 
[...]
0.694273
0.724667
0.753190
0.782414
0.815379
0.841330
0.864943
0.896739
0.925964
0.940926
0.955889
0.966643
0.964305
0.961967
0.951212
0.927364
0.909595
0.887384
0.856522
0.829402
0.803917
0.782408
0.759729
0.734946
0.718580
0.704552
0.694966
0.685380
0.668078
0.656154
0.637918
0.609160
0.584845
0.550009
0.510263
0.471920
0.427966
0.393597
0.358293
0.318781
0.291894
0.267345
0.246537
0.231340
0.215207
0.202114
0.181540
0.163070
0.156289
0.139222
0.116777
0.096670
0.072588
0.046169
0.017879
-0.014619
-0.056235
-0.105567
-0.151859
-0.198619
-0.248886
-0.297282
-0.335391
-0.366954
-0.405531
-0.441069
-0.470528
-0.497181
-0.515885
-0.539031
-0.559840
-0.567555
-0.581116
-0.597950
-0.610809
-0.618758
-0.622967
-0.637229
-0.651257
-0.665285
-0.690302
-0.706201
-0.715787
-0.727243
-0.731218
-0.730283
-0.718594
-0.697786
-0.679316
-0.652664
-0.616893
-0.591410
-0.570836
-0.546288
-0.532026
-0.521272
-0.507011
-0.505608
-0.508648
-0.510519
-0.520338
-0.537640
-0.563358
-0.593518
-0.628120
-0.671373
-0.715561
-0.753904
-0.788741
-0.825213
-0.853737
-0.874078
-0.897925
-0.917097
-0.930190
-0.940945
-0.948427
-0.961286
-0.972509
-0.980458
-0.988875
-0.998461
-1.013191
-1.023011
-1.037506
-1.063926
-1.083565
-1.103205
-1.125883
-1.149497
-1.175449
-1.184567
-1.187607
-1.194388
-1.187374
-1.174749
-1.159787
-1.139914
-1.124250
-1.111859
-1.107651
-1.112094
-1.117238
-1.124252
-1.133604
-1.150204
-1.171480
-1.185274
-1.199069
-1.214967
-1.226190
-1.233204
-1.233438
-1.233439
-1.228997
-1.210527
-1.195565
-1.181303
-1.155118
-1.124725
-1.088721
-1.053418
-1.020453
-0.978603
-0.936286
-0.889761
-0.839261
-0.790398
-0.730546
-0.672565
-0.625104
-0.568993
-0.513350
-0.467058
-0.423105
-0.383126
-0.346186
-0.315559
-0.289140
-0.265293
-0.250331
-0.234433
-0.221574
-0.218769
-0.214561
-0.215964
-0.221810
-0.218303
-0.212225
-0.210822
-0.205679
-0.194925
-0.183235
-0.166636
-0.148634
-0.133437
-0.114734
-0.093459
-0.074755
-0.058156
-0.036179
-0.013268
0.000292
0.013618
0.031387
0.046349
0.060377
0.074170
0.088665
0.100355
0.111811
0.130280
0.141736
0.141034
0.144073
0.145943
0.137059
0.122797
0.110873
0.092870
0.061541
0.040031
0.024600
-0.002053
-0.016315
-0.022862
-0.034318
-0.034085
-0.028942
-0.014914
0.015713
0.042132
0.074162
0.118349
0.159497
0.200879
0.247404
0.295800
0.337883
0.381369
0.433739
0.481901
0.531933
0.589213
0.638778
0.684602
0.732296
0.777185
0.816462
0.847323
0.868365
0.888471
0.909746
0.919098
0.922838
0.934995
0.944113
0.952997
0.966557
0.973103
0.980350
0.992741
1.006301
1.017756
1.024536
1.033186
1.033186
1.028744
1.031081
1.025703
1.020560
1.021962
1.016117
1.010973
1.010037
1.006530
1.004893
1.001152
0.987358
0.977070
0.978940
0.973095
0.961171
0.960703
0.958598
0.952753
0.952987
0.950414
0.947375
0.946205
0.933814
0.920721
0.913239
0.901081
0.883546
0.866245
0.849878
0.828369
0.806158
0.788622
0.762203
0.731809
0.709130
0.675697
0.638757
0.614441
0.581709
0.540093
0.510868
0.483280
0.448677
0.417816
0.392799
0.365678
0.335986
0.310034
0.283147
0.252753
0.221424
0.185185
0.150349
0.116214
0.071091
0.029474
-0.005362
-0.039497
-0.068955
-0.101454
-0.125301
-0.140031
-0.155228
-0.154995
-0.156631
-0.166919
-0.158269
-0.149151
-0.144008
-0.126006
-0.111043
-0.100289
-0.087196
-0.077611
-0.068727
-0.065221
-0.064286
-0.057506
-0.057974
-0.061014
-0.057507
-0.063820
-0.073172
-0.078082
-0.089539
-0.103567
-0.122271
-0.148690
-0.175344
-0.200594
-0.229352
-0.263954
-0.292244
-0.320534
-0.356305
-0.383192
-0.413586
-0.448890
-0.476244
-0.509678
-0.539604
-0.567192
-0.605302
-0.630786
-0.652296
-0.682924
-0.710044
-0.735762
-0.757272
-0.773638
-0.793979
-0.811047
-0.821802
-0.829517
-0.833492
-0.838636
-0.843312
-0.846118
-0.854535
-0.860848
-0.863186
-0.868330
-0.873007
-0.878151
-0.888672
-0.901063
-0.912052
-0.919534
-0.927250
-0.940109
-0.956008
-0.965126
-0.970504
-0.976583
-0.975882
-0.976350
-0.980325
-0.972843
-0.969337
-0.974948
-0.970506
-0.967701
-0.969338
-0.962091
-0.951336
-0.944791
-0.944791
-0.941986
-0.927958
-0.916736
-0.907151
-0.894292
-0.882135
-0.867173
-0.846365
-0.824388
-0.808491
-0.799373
-0.783943
-0.770616
-0.769915
-0.765941
-0.762668
-0.767111
-0.765942
-0.764072
-0.762436
-0.755656
-0.752150
-0.744668
-0.737421
-0.738357
-0.729707
-0.720121
-0.720823
-0.712874
-0.702821
-0.699548
-0.700952
-0.707264
-0.708434
-0.712876
-0.724566
-0.732750
-0.744206
-0.757065
-0.765249
-0.775536
-0.783953
-0.784889
-0.776940
-0.765718
-0.751690
-0.725506
-0.691138
-0.656302
-0.615154
-0.566992
-0.518831
-0.468331
-0.415025
-0.366863
-0.322208
-0.275917
-0.233834
-0.198063
-0.162760
-0.126989
-0.094492
-0.058721
-0.024120
0.003000
0.030354
0.055137
0.078983
0.103532
0.117793
0.134860
0.155901
0.173202
0.193308
0.206868
0.218090
0.234222
0.251522
0.261341
0.256899
0.261341
0.261808
0.252690
0.255261
0.246143
0.239830
0.228373
0.219489
0.227204
0.197277
0.213643
0.204758
0.096276
0.158933
0.242164
0.138358
0.115446
0.120823
0.070790
0.080141
0.060268
0.028471
0.020989
-0.007067
-0.018757
-0.040033
-0.063647
-0.062244
-0.075103
-0.084456
-0.078845
-0.070428
-0.051491
-0.031853
-0.011980
0.015140
0.035480
0.051612
0.075692
0.096032
0.107722
0.121516
0.136478
0.156351
0.177158
0.183938
0.193757
0.218539
0.232099
0.238879
0.263194
0.287742
0.302705
0.327487
0.348996
0.361387
0.384298
0.400430
0.406976
0.424277
0.433628
0.432225
0.431290
0.423808
0.417261
0.408143
0.393647
0.382658
0.364889
0.347354
0.336599
0.323740
0.319063
0.320700
0.322102
0.328882
0.339169
0.355534
0.374705
0.393642
0.411878
0.420762
0.430347
0.441102
0.439465
0.433619
0.425670
0.411876
0.402523
0.393171
0.377506
0.361374
0.351320
0.342436
0.324433
0.306898
0.288661
0.256397
0.222964
0.195141
0.162176
0.124768
0.093205
0.070058
0.049951
0.034521
0.026571
0.024467
0.028908
0.037792
0.049482
0.065613
0.086889
0.113541
0.139726
0.166379
0.201916
0.233478
0.254285
0.277431
0.296602
0.301979
0.305953
0.305251
0.293561
0.278364
0.260829
0.248905
0.243995
0.231603
0.220848
0.214068
0.207989
0.215704
0.224354
0.232536
0.250538
0.264332
0.285373
0.312494
0.333067
0.357148
0.374683
0.388242
0.404842
0.405777
0.398528
0.394086
0.384968
0.368368
0.345923
0.323945
0.300799
0.274847
0.248428
0.219904
0.196758
0.173845
0.147660
0.131060
0.117265
0.105341
0.101367
0.100197
0.105340
0.116562
0.129187
0.143214
0.152098
0.153267
0.147889
0.144148
0.133627
0.106740
0.085698
0.070735
0.052966
0.044315
0.032157
0.014856
0.010179
0.003866
-0.010162
-0.022787
-0.037984
-0.056922
-0.074224
-0.085446
-0.100176
-0.124491
-0.142961
-0.155821
-0.168680
-0.176629
-0.182241
-0.187852
-0.185748
-0.180138
-0.174761
-0.158863
-0.132678
-0.105324
-0.078204
-0.048278
-0.015313
0.015548
0.042200
0.070489
0.096207
0.118183
0.147642
0.174528
0.188555
0.208194
0.230638
0.246770
0.269448
0.286515
0.294230
0.309192
0.318076
0.323687
0.336312
0.346131
0.362496
0.379563
0.389850
0.408787
0.422347
0.428425
0.445258
0.461156
0.469806
0.474716
0.475651
0.481963
0.491314
0.493184
0.498328
0.511887
0.527084
0.542280
0.554204
0.563321
0.575712
0.588805
0.596753
0.610079
0.628549
0.636030
0.646317
0.664787
0.672268
0.679749
0.688399
0.682086
0.668058
0.648185
0.621999
0.591138
0.553496
0.516789
0.472368
0.420932
0.381186
0.341440
0.297252
0.262182
0.232723
0.202563
0.178248
0.167259
0.159543
0.158374
0.171700
0.190404
0.217056
0.250956
0.283921
0.327407
0.370659
0.404560
0.445942
0.486154
0.515612
0.543902
0.574061
0.608663
0.641628
0.664072
0.684646
0.712935
0.744731
0.771851
0.796399
0.823753
0.844093
0.857887
0.876123
0.886877
0.893891
0.904645
0.898566
0.882434
0.870977
0.848299
0.817437
0.787277
0.751272
0.709889
0.666402
0.628293
0.593223
0.559088
0.536176
0.519342
0.504846
0.498300
0.494792
0.498065
0.504144
0.507884
0.519574
0.535004
0.547862
0.560253
0.572878
0.583866
0.590646
0.598595
0.593217
0.578721
0.571941
0.547158
0.514660
0.488942
0.450365
0.415061
0.377887
0.333231
0.298395
0.258649
0.219371
0.183600
0.145724
0.115096
0.074181
0.032565
0.001236
-0.043186
-0.079425
-0.100701
-0.132731
-0.161956
-0.179491
-0.197027
-0.209652
-0.216199
-0.226019
-0.238176
-0.244957
-0.246594
-0.245191
-0.238879
-0.226956
-0.213630
-0.202875
-0.190251
-0.176925
-0.168274
-0.158689
-0.153546
-0.155650
-0.154716
-0.157054
-0.164770
-0.165939
-0.172018
-0.184410
-0.188385
-0.194697
-0.204283
-0.212467
-0.221819
-0.224157
-0.229067
-0.236315
-0.234679
-0.236316
-0.241226
-0.246838
-0.250579
-0.247306
-0.254320
-0.260399
-0.254555
-0.258062
-0.261102
-0.260167
-0.261336
-0.256193
-0.256661
-0.263442
-0.265780
-0.267651
-0.273028
-0.282147
-0.290564
-0.300150
-0.311139
-0.322127
-0.338494
-0.352989
-0.364680
-0.382215
-0.403023
-0.422896
-0.434119
-0.443471
-0.462877
-0.478074
-0.488127
-0.503792
-0.518288
-0.531615
-0.544240
-0.551956
-0.557100
-0.564348
-0.571596
-0.568323
-0.562245
-0.556868
-0.543308
-0.528111
-0.508473
-0.478547
-0.446751
-0.414721
-0.385029
-0.354168
-0.315592
-0.283328
-0.257377
-0.225114
-0.190980
-0.159651
-0.131128
-0.098864
-0.064730
-0.035740
-0.006516
0.027852
0.059882
0.090275
0.119500
0.143347
0.164622
0.185897
0.204367
0.223538
0.240605
0.252528
0.268192
0.283155
0.297416
0.319159
0.331550
0.342772
0.356799
0.355864
0.361007
0.369891
0.367085
0.368721
0.367318
0.366148
0.370123
0.368720
0.373863
0.379006
0.380876
0.387890
0.391396
0.400046
0.411502
0.409865
0.407293
0.411501
0.416177
0.417579
0.414773
0.412902
0.415240
0.415707
0.411732
0.412200
0.416174
0.412900
0.405418
0.399573
0.393728
0.387415
0.376660
0.359359
0.340421
0.321483
0.295297
0.266773
0.241991
0.204583
0.160628
0.125325
0.083475
0.042092
0.007724
-0.036464
-0.079250
-0.114320
-0.151260
-0.181654
-0.202930
-0.221868
-0.239871
-0.251795
-0.259043
-0.266291
-0.267694
-0.263486
-0.265824
-0.269799
-0.266059
-0.258577
-0.256006
-0.258344
-0.252734
-0.242447
-0.239875
-0.236836
-0.230992
-0.222576
-0.212289
-0.203872
-0.192651
-0.184936
-0.177221
-0.160621
-0.151737
-0.149867
-0.142620
-0.134905
-0.132567
-0.134672
-0.135608
-0.139582
-0.151974
-0.168106
-0.183537
-0.195929
-0.214867
-0.234039
-0.247833
-0.268174
-0.284774
-0.296698
-0.308154
-0.309323
-0.308856
-0.308857
-0.297868
-0.279399
-0.261864
-0.240355
-0.210663
-0.183777
-0.153618
-0.124861
-0.107326
-0.078570
-0.047475
-0.029941
-0.009601
0.007700
0.021260
0.041132
0.059134
0.073396
0.085787
0.098879
0.114309
0.125531
0.133480
0.143767
0.157560
0.169484
0.173692
0.175094
0.177665
0.175561
0.168780
0.161298
0.149374
0.138386
0.129501
0.116408
0.110095
0.114069
0.122252
0.136747
0.158022
0.182337
0.212964
0.250137
0.286609
0.323549
0.364463
0.404208
0.446759
0.486504
0.517365
0.551967
0.581892
0.603635
0.626079
0.634262
0.633093
0.632625
0.622337
0.606439
0.589137
0.568329
0.545884
0.523205
0.503566
0.483927
0.471068
0.459377
0.440673
0.431321
0.422670
0.409110
0.408174
0.404199
0.391807
0.381988
0.370765
0.368661
0.370764
0.364218
0.358372
0.354164
0.349955
0.343174
0.334757
0.330783
0.320261
0.304129
0.287997
0.266721
0.243107
0.214583
0.188865
0.168758
0.139299
0.110542
0.091370
0.072432
0.051156
0.037596
0.035258
0.031283
0.028243
0.036192
0.054194
0.077105
0.105628
0.142334
0.176001
0.211537
0.256426
0.293600
0.329136
0.372856
0.409796
0.441826
0.468011
0.489520
0.520614
0.539785
0.545630
0.561060
0.566203
0.559891
0.564332
0.564332
0.556382
0.548901
0.542822
0.542587
0.541886
0.540015
0.542353
0.540248
0.539312
0.543053
0.541416
0.536973
0.532531
0.522711
0.510320
0.499331
0.494888
0.486471
0.466130
0.455609
0.448829
0.428254
0.418668
0.410485
0.388741
0.375181
0.357412
0.335668
0.319770
0.291480
0.265996
0.241680
0.205909
0.175048
0.130626
0.081762
0.045990
-0.002874
-0.055245
-0.100134
-0.149933
-0.194589
-0.233399
-0.270106
-0.298396
-0.321542
-0.347260
-0.368770
-0.377888
-0.387474
-0.396827
-0.391917
-0.379059
-0.366902
-0.354043
-0.333937
-0.309155
-0.286944
-0.265435
-0.249070
-0.231535
-0.205584
-0.186881
-0.172152
-0.152280
-0.132407
-0.114639
-0.097806
-0.082142
-0.074894
-0.071388
-0.065076
-0.066713
-0.070921
-0.076299
-0.087288
-0.093601
-0.104356
-0.113708
-0.116514
-0.126801
-0.131010
-0.135686
-0.148545
-0.150416
-0.154391
-0.163042
-0.164913
-0.173563
-0.180578
-0.177305
-0.181981
-0.188528
-0.185723
-0.187827
-0.188295
-0.181983
-0.176372
-0.170761
-0.170996
-0.173334
-0.172633
-0.184557
-0.202092
-0.216822
-0.234123
-0.262647
-0.299587
-0.330448
-0.364349
-0.402225
-0.427008
-0.452258
-0.477743
-0.494810
-0.516086
-0.531283
-0.540869
-0.553027
-0.563314
-0.578979
-0.592306
-0.600255
-0.615453
-0.627610
-0.638599
-0.651692
-0.657771
-0.668526
-0.679515
-0.686763
-0.707572
-0.731653
-0.750123
-0.778881
-0.812782
-0.840604
-0.875674
-0.917992
-0.956335
-0.993976
-1.031150
-1.072299
-1.118591
-1.159039
-1.199252
-1.243206
-1.282952
-1.324335
-1.362444
-1.393072
-1.422063
-1.441469
-1.449418
-1.459238
-1.465551
-1.458303
-1.451991
-1.446614
-1.433522
-1.428613
-1.423236
-1.404766
-1.395414
-1.390505
-1.383024
-1.384427
-1.380453
-1.371101
-1.364789
-1.356840
-1.360348
-1.359880
-1.342346
-1.330656
-1.321305
-1.309615
-1.298861
-1.283431
-1.270105
-1.251401
-1.224281
-1.206279
-1.185939
-1.156949
-1.125854
-1.088680
-1.056651
-1.030933
-0.998670
-0.965237
-0.937883
-0.910763
-0.882240
-0.865407
-0.847639
-0.821220
-0.807426
-0.795737
-0.781475
-0.772124
-0.752719
-0.742199
-0.737757
-0.722560
-0.719521
-0.719054
-0.716249
-0.715314
-0.704560
-0.708301
-0.714380
-0.707834
-0.712510
-0.712510
-0.712511
-0.725604
-0.730982
-0.737294
-0.740568
-0.737295
-0.739633
-0.733321
-0.719060
-0.704799
-0.684926
-0.660845
-0.627647
-0.597487
-0.573874
-0.536467
-0.497891
-0.470069
-0.441312
-0.417465
-0.400632
-0.381461
-0.362758
-0.352705
-0.346159
-0.336340
-0.329560
-0.321845
-0.306415
-0.294491
-0.283036
-0.266670
-0.251941
-0.230432
-0.202143
-0.173387
-0.135278
-0.092026
-0.053450
-0.009730
0.037731
0.082152
0.120494
0.154394
0.191334
0.219155
0.238560
0.260537
0.273629
0.288124
0.306126
0.320154
0.341897
0.363406
0.383278
0.409463
0.431206
0.459027
0.490356
0.510930
0.530568
0.547635
0.563065
0.578028
0.586912
0.598368
0.601173
0.593223
0.592989
0.594158
0.585975
0.573583
0.560958
0.545994
0.536408
0.529394
0.513963
0.500870
0.498999
0.495024
0.491985
0.497829
0.506012
0.516766
0.533131
0.550198
0.566330
0.582462
0.597424
0.610283
0.622206
0.633428
0.647222
0.654937
0.656807
0.665457
0.674808
0.683459
0.694447
0.707071
0.722735
0.733022
0.744478
0.760376
0.766220
0.771130
0.779078
0.780481
0.776506
0.772999
0.771128
0.768088
0.763412
0.754761
0.746578
0.740031
0.727640
0.713611
0.695141
0.679710
0.676437
0.660772
0.646510
0.647912
0.639495
0.632013
0.632948
0.627103
0.621024
0.612607
0.599046
0.588291
0.580342
0.569587
0.552987
0.535452
0.519553
0.498277
0.472091
0.446373
0.422993
0.398912
0.380208
0.361504
0.335318
0.324329
0.328070
0.330641
0.338590
0.344434
0.350513
0.361501
0.360098
0.357058
0.354953
0.341627
0.332742
0.325026
0.306556
0.284579
0.263069
0.238987
0.213971
0.193864
0.165574
0.131206
0.113670
0.096603
0.072521
0.060364
0.052648
0.044465
0.046101
0.053114
0.057790
0.064102
0.078831
0.092625
0.096131
0.099872
0.105950
0.104313
0.100806
0.098701
0.087479
0.077659
0.077892
0.069008
0.053343
0.042354
0.033002
0.026689
0.020142
0.008686
0.002841
0.002139
-0.006746
-0.013994
-0.014228
-0.022879
-0.033400
-0.040181
-0.047896
-0.053508
-0.069406
-0.092319
-0.107983
-0.125051
-0.145158
-0.173214
-0.201036
-0.219740
-0.247095
-0.279359
-0.302272
-0.324015
-0.347162
-0.368905
-0.388778
-0.405846
-0.417302
-0.428525
-0.445359
-0.463127
-0.486274
-0.513628
-0.538177
-0.566935
-0.598965
-0.629827
-0.657883
-0.681497
-0.705111
-0.731063
-0.751637
-0.764964
-0.785305
-0.805879
-0.810789
-0.816635
-0.831832
-0.841184
-0.847731
-0.852641
-0.848900
-0.849135
-0.851940
-0.845862
-0.841888
-0.836277
-0.832537
-0.839317
-0.836746
-0.837681
-0.847969
-0.847969
-0.855918
-0.869479
-0.873922
-0.883741
-0.892626
-0.894497
-0.896601
-0.898706
-0.903148
-0.908994
-0.905253
-0.897071
-0.894032
-0.888888
-0.881641
-0.874160
-0.859665
-0.847742
-0.835584
-0.819687
-0.815479
-0.811271
-0.798880
-0.792100
-0.788827
-0.783684
-0.780645
-0.782983
-0.784153
-0.782049
-0.784153
-0.784387
-0.780413
-0.780881
-0.771062
-0.749553
-0.735759
-0.710977
-0.671700
-0.645515
-0.614888
-0.570233
-0.532825
-0.493782
-0.447490
-0.406342
-0.361220
-0.313525
-0.267701
-0.214396
-0.162026
-0.111526
-0.047700
0.013555
0.065224
0.123205
0.175575
0.223737
0.274237
0.312579
0.342271
0.365417
0.382951
0.403525
0.418955
0.430411
0.439997
0.450049
0.470156
0.484885
0.493769
0.509900
0.522525
0.539826
0.562036
0.576531
0.593832
0.613938
0.628901
0.642694
0.657891
0.671217
0.676594
0.684776
0.695764
0.698570
0.703947
0.703946
0.700439
0.703712
0.694593
0.683838
0.674018
0.651807
0.638247
0.624219
0.602475
0.588681
0.564599
0.542388
0.530230
0.503343
0.480898
0.471312
0.458921
0.446763
0.436008
0.430163
0.432500
0.433435
0.432733
0.431096
0.427589
0.430161
0.432264
0.425951
0.423847
0.423379
0.415663
0.408415
0.401869
0.395556
0.386905
0.378722
0.378254
0.377084
0.378954
0.389709
0.393683
0.394852
0.395553
0.394383
0.400228
0.400461
0.389940
0.384095
0.378483
0.365156
0.352297
0.338035
0.315357
0.294782
0.276546
0.250828
0.227681
0.202898
0.165490
0.139772
0.119665
0.083894
0.055137
0.033393
0.006506
-0.013601
-0.039319
-0.070414
-0.092859
-0.124890
-0.158791
-0.183340
-0.217474
-0.250440
-0.274989
-0.301175
-0.323152
-0.340687
-0.355183
-0.368977
-0.382772
-0.389786
-0.398671
-0.409893
-0.420648
-0.438417
-0.451978
-0.462265
-0.478398
-0.491491
-0.506922
-0.524691
-0.540122
-0.556020
-0.570516
-0.584077
-0.594832
-0.598339
-0.601145
-0.597638
-0.587118
-0.577065
-0.566544
-0.555322
-0.542230
-0.532411
-0.521423
-0.505057
-0.493602
-0.476301
-0.456195
-0.447077
-0.431647
-0.412943
-0.401721
-0.394006
-0.392604
-0.392371
-0.394709
-0.402425
-0.410140
-0.419726
-0.420896
-0.414350
-0.407804
-0.389802
-0.367825
-0.343744
-0.307506
-0.273606
-0.248824
-0.221703
-0.188972
-0.163255
-0.142915
-0.120938
-0.106677
-0.097559
-0.086805
-0.077921
-0.071843
-0.071609
-0.073246
-0.072077
-0.080027
-0.089613
-0.096393
-0.109019
-0.118605
-0.118839
-0.116268
-0.116034
-0.113229
-0.100838
-0.088681
-0.083538
-0.070679
-0.053846
-0.047066
-0.040053
-0.027428
-0.020648
-0.012466
0.001094
0.009744
0.016056
0.023304
0.027746
0.033356
