EVENT_NAME: 202302060117
EVENT_ID: 13194
EVENT_DATE_YYYYMMDD: 2023/02/06
EVENT_TIME_HHMMSS: 01:17:32.00000
EVENT_LATITUDE_DEGREE: 37.288
EVENT_LONGITUDE_DEGREE: 37.043
EVENT_DEPTH_KM: 8.6
HYPOCENTER_REFERENCE: AFAD
MAGNITUDE_W: 7.7
MAGNITUDE_W_REFERENCE: AFAD
MAGNITUDE_L: 
MAGNITUDE_L_REFERENCE: 
FOCAL_MECHANISM: 
NETWORK: TK
STATION_CODE: 6201
STATION_NAME: 
STATION_LATITUDE_DEGREE: 39.07473
STATION_LONGITUDE_DEGREE: 39.53469
STATION_ELEVATION_M: 901.0
LOCATION: Kahramanmaras_Pazarck_Turkiye
SENSOR_DEPTH_M: 
VS30_M/S: None
SITE_CLASSIFICATION_EC8: unknown
MORPHOLOGIC_CLASSIFICATION: 
EPICENTRAL_DISTANCE_KM: 294.77
EARTHQUAKE_BACKAZIMUTH_DEGREE: 
DATE_TIME_FIRST_SAMPLE_YYYYMMDD_HHMMSS: 2023/02/06 01:18:00.3052840
DATE_TIME_FIRST_SAMPLE_PRECISION: millisecond
SAMPLING_INTERVAL_S: 0.01
NDATA: 18251
DURATION_S: 
STREAM: HNE
UNITS: cm/s^2
INSTRUMENT: sensor = GMS+/GEOSIG | digitizer = 
INSTRUMENT_ANALOG/DIGITAL: 
INSTRUMENTAL_FREQUENCY_HZ: 
INSTRUMENTAL_DAMPING: 
FULL_SCALE_G: 
N_BIT_DIGITAL_CONVERTER: 
PGA_CM/S^2: 20.661
TIME_PGA_S: 
BASELINE_CORRECTION: BASELINE REMOVED
FILTER_TYPE: BUTTERWORTH
FILTER_ORDER: 
LOW_CUT_FREQUENCY_HZ: 
HIGH_CUT_FREQUENCY_HZ: 
LATE/NORMAL_TRIGGERED: 
DATABASE_VERSION: 
HEADER_FORMAT: DYNA 1.2
DATA_TYPE: Acceleration
PROCESSING: Automatic Paolucci et al., 2011
DATA_TIMESTAMP_YYYYMMDD_HHMMSS: 
DATA_LICENSE: U (unknown license)
DATA_CITATION: Turkish Accelerometric Archive v 1.0 - Disaster And Emergency Management Presidency, Earthquake Department
DATA_CREATOR: AFAD
ORIGINAL_DATA_MEDIATOR_CITATION: : AFAD - Disaster And Emergency Management Presidency
ORIGINAL_DATA_MEDIATOR: AFAD PROCESS SERVICE
ORIGINAL_DATA_CREATOR_CITATION: AFAD PROCESS SERVICE
ORIGINAL_DATA_CREATOR: network: TK
USER1: GuestUser
USER2: 
USER3: 
USER4: 
USER5: 
[...]
7.242727
6.322370
4.031737
1.947100
0.900495
1.278718
2.863822
4.335148
5.138351
5.947789
6.572531
6.350170
6.044684
6.522657
6.559545
5.682049
5.061205
3.846530
2.053613
1.058702
0.931416
1.600059
1.741114
0.714771
-0.166881
0.048987
2.262990
5.926497
8.886293
9.906662
8.750436
6.054045
3.509359
2.192596
2.087131
2.805390
3.372204
3.465461
2.829030
1.547855
0.888565
1.277178
2.769545
4.176449
4.724560
4.826389
3.977728
3.190632
2.952945
2.557319
2.443801
2.740456
2.944374
2.756303
2.908787
3.348055
3.095821
2.685908
2.514981
2.558103
2.731888
2.535245
1.861927
0.540488
-0.470009
-0.813681
-1.269314
-0.867972
0.382811
1.362656
1.380581
0.699210
0.864943
1.352268
1.273039
0.817407
-0.014110
-0.715223
-1.836381
-2.989490
-3.088721
-2.899090
-2.461380
-2.108615
-2.301103
-1.679997
-0.438046
0.148511
0.130587
-0.243478
-0.750285
-1.903394
-3.199376
-3.268214
-2.724779
-1.558161
-0.036180
0.824951
1.370205
1.131738
-0.379071
-2.554367
-4.619782
-6.042790
-6.974577
-7.878309
-8.657352
-8.131322
-5.990574
-3.998673
-3.020646
-2.166529
-1.251626
-0.771314
-0.580644
0.013186
1.062649
1.815717
1.838837
0.931208
-0.746373
-2.472011
-3.641226
-3.897616
-3.199619
-2.133271
-1.524894
-1.672442
-2.345500
-2.679041
-2.382646
-2.577731
-3.560692
-4.168289
-3.729021
-2.702677
-1.545151
-0.848713
-0.788186
-1.227453
-2.472001
-3.538088
-3.946183
-3.612380
-2.052214
-0.925600
-1.013920
-1.383569
-1.881284
-2.529665
-2.895417
-2.815928
-3.012572
-3.087124
-2.397440
-1.570858
-0.773110
0.194526
1.692088
2.760774
2.435286
2.143826
1.752876
0.660293
-0.194343
-0.735959
-1.233933
-2.175591
-3.197778
-3.660424
-3.992667
-4.126706
-3.973962
-3.723545
-3.750561
-3.691853
-2.721359
-1.326405
0.472229
2.051618
2.615315
2.724418
2.017590
1.624042
2.320481
2.770399
3.503465
4.580463
5.447309
6.057505
5.830728
5.253004
4.690088
3.755703
2.632987
1.977333
2.024871
2.677928
3.501653
3.484768
2.770667
1.734453
0.732269
0.229878
-0.446037
-0.337454
0.792277
0.640573
-0.734637
-2.799532
-5.242909
-6.414981
-6.240676
-5.244206
-4.032908
-3.499604
-3.649489
-4.209029
-4.438663
-3.918607
-2.934346
-1.784613
-0.997256
-1.038818
-1.537832
-2.265701
-3.326333
-3.450241
-2.687562
-2.411428
-2.156855
-1.870331
-2.050090
-2.456886
-2.865240
-3.326068
-4.022505
-4.883116
-5.968945
-6.658109
-6.468738
-5.769702
-4.554507
-3.645059
-4.098094
-5.304975
-5.636698
-4.713223
-3.242156
-1.191028
1.293393
2.789397
2.490924
2.045422
2.068542
1.790331
2.035812
2.588339
2.435856
1.602521
0.154315
-1.294410
-2.507006
-3.125513
-2.475053
-2.499211
-4.271348
-6.102971
-7.140743
-6.660691
-5.031946
-3.716740
-2.951204
-2.654808
-3.008611
-3.957803
-4.414215
-3.534900
-1.631060
0.339020
1.522004
1.353415
-0.335336
-2.129552
-3.100045
-2.958471
-1.661449
-0.176355
0.882200
1.050270
1.130799
1.798922
2.187016
2.366257
2.470164
2.036352
0.745826
-1.070991
-2.814033
-4.276526
-5.101808
-5.567052
-5.857472
-5.711741
-5.330661
-4.844115
-4.086632
-2.785194
-1.308153
-0.277134
-0.036588
-0.485207
-1.223726
-1.959129
-2.465676
-2.967807
-3.238224
-3.288879
-3.637746
-3.618783
-2.738948
-1.708189
-0.903947
-0.169063
0.102915
-0.450131
-1.331523
-2.184080
-2.757648
-2.255775
-1.436727
-1.293334
-0.847312
-0.189839
0.068631
0.516211
1.211870
2.004682
2.928418
3.067654
2.028583
0.798322
-0.240489
-0.720280
-0.316860
0.631034
1.858438
2.384209
2.107816
1.679459
1.163561
1.287990
2.151719
2.996745
3.464847
3.637853
3.278854
2.158476
0.936008
-0.535836
-2.123797
-2.691649
-2.239912
-1.702452
-1.707387
-1.613091
-1.248636
-1.013286
-0.244112
1.113695
2.113802
2.490726
2.535407
1.686226
0.619619
0.401934
-0.177348
-1.194079
-1.905063
-2.363813
-2.438106
-1.997539
-0.811438
0.620143
1.520500
1.920802
2.554637
3.763337
4.629664
4.715648
4.889693
5.277007
5.016201
4.036616
3.279653
3.264327
3.484351
4.063375
4.394319
3.910632
4.003629
4.305740
4.691756
5.793952
6.554033
6.464414
5.236491
4.033247
4.149883
4.696955
5.123234
5.201165
5.364560
5.371574
4.400302
3.782575
3.996105
4.670463
5.419114
5.411322
5.181947
4.200544
2.655965
2.101621
1.665731
1.370635
1.907835
2.294630
2.030447
1.238675
-0.038863
-1.161060
-1.206259
-0.880510
-0.796085
-0.404614
-0.169004
-0.350841
-0.147962
1.089833
2.989257
4.220297
4.406032
4.188347
4.042618
4.410190
4.608133
3.955857
2.668447
0.309495
-2.475996
-4.549722
-5.276293
-4.553878
-3.613257
-2.828238
-2.375462
-2.327924
-1.801634
-0.866209
0.033628
0.711363
0.713181
-0.351087
-1.990482
-3.339976
-4.209419
-4.418012
-3.831195
-2.145301
0.650322
3.115520
4.898308
6.530690
7.800696
8.891202
9.137462
8.146708
6.623949
5.035729
3.830406
2.561180
1.380795
1.072192
1.425736
2.335964
3.645194
5.143536
6.385228
6.467834
5.620991
4.785838
3.915356
3.189565
3.353220
4.103690
4.634396
3.604157
0.809314
-1.670949
-3.142534
-3.660251
-3.079150
-2.693394
-2.521687
-1.680817
-1.103353
-1.570155
-2.486616
-2.687156
-2.030462
-1.289344
-0.134415
1.219236
1.880606
2.136737
2.834994
4.337752
5.731667
5.892204
4.526605
2.494960
1.070394
0.170298
-1.410909
-3.682579
-4.945310
-4.812828
-3.942345
-2.353344
-0.357547
1.489144
2.759929
3.214784
2.598615
0.575802
-2.213066
-4.748140
-7.008380
-8.713237
-9.602682
-10.008179
-9.995969
-9.372266
-7.540382
-4.926856
-2.236440
0.819471
3.593533
4.983811
4.815223
3.792777
2.622003
1.433306
0.743362
0.720503
1.148861
2.080130
2.597328
2.343535
1.934921
1.748928
2.479396
3.334033
3.086474
2.369515
1.401361
0.349561
0.052907
0.745968
2.255480
3.835649
4.981485
5.099161
2.581231
-1.753776
-4.255600
-3.896860
-2.123684
0.991454
4.035934
4.644052
3.513282
1.970521
1.193036
1.403189
2.247176
4.016455
5.104624
4.893433
3.559265
1.523205
0.176049
-0.867698
-1.464384
-1.520753
-1.558159
-1.531922
-1.677132
-1.984697
-2.849204
-3.769821
-4.241819
-5.025278
-5.773150
-5.146589
-2.326548
1.630497
4.705371
5.869132
5.153731
2.658401
-0.398807
-2.201856
-3.842030
-5.772365
-6.824684
-7.508652
-7.380586
-5.743269
-2.426291
2.589828
7.465932
10.587044
11.041119
9.017008
6.711308
5.551445
5.978244
8.233290
10.681084
11.565854
10.790967
8.497476
5.590154
2.971954
1.120069
0.233221
-0.414639
-0.658561
-0.159286
0.764709
1.668182
2.139661
2.508273
2.234478
1.302171
1.273337
1.988999
2.645952
2.625951
1.209696
-0.589456
-1.715809
-2.517192
-3.607438
-5.077204
-6.325908
-7.440832
-8.562509
-8.783571
-8.272087
-7.070400
-4.982126
-3.024254
-1.356803
-0.454889
-0.544508
-0.414104
0.399230
1.359852
1.703526
1.642221
1.628713
1.227632
-0.221353
-2.721099
-5.546334
-8.089721
-8.877078
-6.579170
-1.935038
3.466836
7.719237
10.171447
10.529148
8.007841
4.779186
2.650908
1.701717
2.143582
2.477125
1.790559
-0.260308
-3.252315
-5.074327
-4.872746
-2.367544
1.052561
2.530381
1.325578
-2.281558
-6.097549
-7.709408
-8.079317
-7.146490
-4.919759
-3.331797
-2.337665
-1.464844
-0.680864
-0.161847
-0.094307
0.337947
0.673828
-0.710994
-3.684297
-6.337307
-7.526264
-7.830452
-8.220103
-8.794709
-9.473742
-9.932492
-9.033694
-6.930613
-4.253963
-1.731097
-0.353807
0.421601
0.584216
0.122349
0.065461
0.459270
0.719298
0.390432
-0.315617
-0.887885
-0.925810
-0.368088
0.079492
0.444207
0.668387
-0.393543
-2.340763
-3.846897
-3.971585
-2.213475
0.252502
2.537681
4.464120
5.276415
5.147051
4.463602
3.675467
3.784310
3.890556
2.570935
0.282121
-2.074753
-4.147181
-6.252340
-8.092275
-8.313597
-7.093726
-6.048939
-5.104682
-2.762614
-0.013490
2.255324
4.810921
6.046118
5.710239
4.518424
2.404173
0.170429
-1.487928
-1.506371
-0.577701
0.115621
-0.054267
-0.885004
-1.946156
-3.103162
-2.631942
-1.003197
0.792839
2.423403
2.783702
2.004658
1.082482
1.199379
2.354827
3.580672
3.391562
2.143117
0.722967
-1.474410
-2.991713
-2.958982
-1.795221
-0.358704
0.034325
-0.219727
-1.109432
-2.169025
-2.247474
-1.250744
0.479830
1.821013
3.022959
4.324917
4.352972
3.519118
2.290416
0.673101
-0.570407
-1.697280
-2.515548
-3.083141
-4.748772
-6.885623
-8.133288
-8.371234
-7.196563
-5.381564
-4.319113
-3.646054
-2.945459
-1.939637
-0.290630
1.731144
3.882023
5.374390
5.448425
4.662368
3.130517
0.575700
-1.199814
-0.913809
0.250472
1.415272
2.039235
1.683353
0.759619
-0.236071
-0.476615
-0.065662
0.389192
1.663354
3.324571
4.172713
4.094264
3.075974
1.421773
0.133584
0.132286
0.691826
0.480636
-0.064097
-0.197098
-0.344126
-1.029913
-2.439673
-4.212588
-5.484931
-5.206719
-3.358730
-1.037962
0.959913
1.523610
0.206327
-1.866101
-3.735130
-4.985653
-4.937335
-3.615116
-1.842459
0.131258
0.868480
-0.892226
-3.048819
-3.979567
-4.366101
-3.886829
-1.952077
1.218391
5.045033
8.373440
10.772657
11.564950
10.550816
9.129886
7.866375
7.390481
7.655705
6.962125
5.771869
5.664585
5.842527
5.308185
4.344186
2.986640
1.859507
1.581816
0.909797
-0.069788
-0.691672
-1.827636
-2.849303
-3.437157
-3.210899
-1.129897
1.406217
3.125362
3.175757
1.449081
-0.033674
-0.887791
-1.665275
-1.574616
-0.929352
-1.177170
-2.676810
-5.131876
-7.447706
-7.608502
-5.555036
-2.601734
0.024520
0.832659
0.121934
-0.826998
-1.402643
-1.059229
0.380665
2.082665
2.132281
0.108430
-2.640434
-5.342539
-7.217803
-7.727727
-6.808928
-4.938598
-3.337648
-2.432876
-2.185057
-1.954642
-0.817377
0.888519
2.310749
3.120446
3.373720
2.401150
0.124284
-2.119071
-3.165675
-2.979161
-2.862265
-2.816286
-2.327922
-2.076466
-1.650706
-1.002584
-0.889065
-0.789573
-0.233929
-0.098590
-0.494475
-0.661765
-0.735539
-0.776582
-1.038427
-1.163635
-1.216627
-2.606905
-4.521653
-6.131435
-7.118552
-6.348340
-4.377220
-1.903710
0.250806
0.313670
-1.452751
-3.477901
-5.215229
-6.122338
-5.377842
-3.090585
-0.417053
1.324951
1.632517
1.047000
0.294453
0.042219
0.335757
0.267439
-0.373148
-1.913052
-4.637497
-7.338044
-9.527887
-10.390316
-8.701564
-5.730858
-3.154479
-1.467286
-0.273652
0.250820
-0.233647
-0.458086
-0.620959
-1.065162
-1.295576
-2.502197
-4.381098
-5.501736
-5.820731
-5.722798
-5.628502
-5.408218
-4.886084
-3.612701
-1.149321
1.342893
3.086196
3.977720
3.568586
2.395215
1.329907
0.843362
0.645679
0.527745
1.148591
1.768658
1.551752
1.012214
0.646462
1.326015
3.243882
5.286957
6.466824
6.674379
6.346552
5.562314
4.581171
4.231264
4.811586
5.840267
7.391342
9.145555
10.248011
11.383717
12.296022
12.427206
12.771918
13.165987
13.074289
12.557871
11.758046
10.809894
10.025395
9.807450
9.334933
8.340802
7.647741
6.824278
5.286192
3.636666
2.677344
2.151574
1.670225
1.447604
0.672198
-1.157867
-3.634754
-7.170195
-11.422855
-15.231312
-17.713394
-18.321250
-17.903283
-16.770954
-14.922965
-13.473719
-12.572583
-11.746001
-10.546392
-8.360964
-5.531052
-2.935710
-0.714954
0.189818
0.017333
0.343862
1.065238
2.321736
3.958274
5.844709
7.523071
8.057154
7.863108
7.063023
5.925500
4.690304
3.001813
1.075634
-0.754950
-2.284723
-3.270022
-3.956588
-4.686535
-5.922510
-7.777772
-9.270398
-10.271284
-10.580407
-8.924126
-5.763270
-2.484998
0.812237
3.953351
6.512585
8.579299
9.990619
10.453266
10.034001
9.106890
7.908581
6.733392
5.733545
5.116857
5.186215
5.498457
5.892785
6.492070
7.530104
9.117546
10.774866
11.472863
9.986731
7.000959
3.807373
0.449093
-2.667082
-5.410750
-7.788146
-8.770068
-9.026199
-9.361818
-9.072696
-8.445096
-7.563444
-6.781542
-6.103807
-4.898223
-3.640946
-2.116627
-0.079786
2.112396
4.357830
6.955770
9.765680
11.692119
12.186198
11.367410
9.981029
8.846364
8.171227
7.858987
7.527524
6.630805
5.095577
3.465274
1.866663
0.599775
0.594321
2.013953
4.066899
5.777472
6.364548
6.147902
5.591739
4.705412
4.480713
4.969597
5.901125
7.142816
7.204901
6.130761
4.417592
1.860957
-1.090785
-4.055776
-6.041182
-6.386413
-5.568403
-4.289565
-3.128662
-2.297144
-2.394816
-3.319849
-3.680147
-2.239993
0.948919
4.458384
7.408569
8.911327
8.996531
8.507908
7.192184
5.814635
4.309281
2.352969
0.749422
-1.121686
-3.465571
-5.767894
-7.413783
-7.742389
-7.093748
-5.376941
-2.671458
-0.150150
1.667967
2.720287
2.481041
0.777484
-1.556790
-3.659611
-5.221076
-6.185593
-6.426657
-5.750741
-4.760765
-3.984578
-3.579859
-3.839107
-4.379943
-4.710367
-4.391372
-3.189165
-1.651598
-0.148061
1.271571
2.016067
1.996844
1.471334
0.198472
-1.005552
-1.346627
-0.850469
0.564747
2.526774
4.724931
7.215846
9.536873
11.037553
11.753993
11.595795
10.411254
8.950320
7.717202
7.124412
7.616413
8.162965
7.952814
6.996608
5.021334
2.366246
-0.501591
-3.170187
-4.855041
-5.356392
-5.306776
-5.299242
-5.342363
-5.219233
-5.100259
-4.643326
-3.299806
-2.341522
-2.576351
-3.409946
-5.115322
-7.258407
-8.178764
-7.311398
-5.168572
-2.443606
0.255123
2.398729
3.483520
3.458063
2.576671
1.904392
1.667225
0.957799
0.612828
0.928187
1.665928
3.511580
5.942229
7.850744
8.367943
7.412257
5.535694
3.213889
1.149254
-0.418705
-1.823010
-3.027553
-3.873097
-5.291170
-7.556605
-9.327183
-10.020763
-9.454208
-7.404899
-4.492900
-1.284246
1.207189
2.088062
2.153524
1.721531
1.032107
0.879884
0.741168
-0.095803
-2.118096
-5.664707
-9.950358
-14.329525
-18.382943
-20.661107
-20.282885
-17.794048
-14.771388
-12.710648
-12.135002
-12.796890
-13.661917
-13.360326
-10.652504
-6.437769
-2.273429
1.120439
3.314700
4.820834
5.299068
5.317512
5.886664
5.991351
4.838501
2.122368
-1.724794
-5.545980
-8.421091
-9.574979
-9.012581
-7.352663
-5.547276
-4.737319
-5.121515
-6.439837
-7.745430
-7.569826
-5.862631
-2.926993
-0.127474
1.183316
2.154069
2.688932
1.888587
0.610789
-0.290605
-0.631160
-0.010834
1.591675
3.251073
4.709930
5.314670
4.844231
3.931667
2.852851
3.239906
4.479000
5.607432
7.142141
7.195654
5.458067
2.898314
0.042167
-1.743997
-2.127414
-1.267062
0.867192
3.494745
5.458850
5.939422
4.951785
3.290309
1.352441
-0.702323
-2.413673
-3.218174
-3.136866
-2.433674
-1.588388
-1.443437
-1.391483
-1.348361
-2.305865
-2.900733
-1.784510
-0.027959
1.732749
3.124326
3.834013
4.707613
5.399115
5.124022
3.708806
0.902015
-2.523544
-5.862341
-8.688875
-9.476491
-7.713186
-4.377246
-0.108999
3.803626
6.832521
8.939239
9.902719
11.022839
12.076198
12.087629
11.162855
9.063152
5.679675
1.949148
-0.931937
-3.179189
-4.770267
-5.402022
-5.249538
-4.306060
-3.331930
-3.245686
-4.148379
-5.278889
-5.820504
-5.780240
-5.385392
-4.637779
-3.605721
-2.736797
-2.168424
-1.914890
-1.916968
-1.456918
-0.752167
-0.189250
0.154424
-0.024556
-0.768531
-2.340645
-3.781578
-4.253056
-3.739754
-2.190757
-0.522267
0.583565
0.447707
-0.783592
-2.023464
-2.624047
-1.854094
-0.041693
2.367655
4.773106
5.571114
4.318773
1.274554
-2.222182
-4.234084
-4.604253
-3.725457
-2.356740
-1.185705
-0.161700
0.181195
-0.229238
-0.686429
-0.972173
-0.629799
0.067679
-0.196245
-0.875278
-1.311688
-1.859018
-2.470771
-2.680923
-1.563660
-0.028172
0.678398
0.743860
0.536046
0.817115
1.876190
3.279716
4.632848
5.370589
5.479173
5.113680
3.812763
2.556006
2.104530
1.594086
0.714513
-0.608745
-2.731568
-5.203519
-6.895646
-7.311534
-6.046983
-3.269285
-0.297799
1.493561
1.481353
0.105363
-1.640018
-2.619082
-2.383213
-1.373494
-0.862270
-1.179446
-1.499220
-1.758988
-1.392974
-0.459887
0.334224
0.953771
0.966760
-0.203494
-2.337487
-4.462128
-6.394022
-7.265023
-6.585989
-5.533929
-4.436669
-3.404350
-2.147073
-0.923046
-0.328956
0.027706
-0.120362
-0.934214
-2.068360
-3.200688
-3.669828
-3.734250
-4.068571
-4.064414
-3.714506
-3.671644
-3.467206
-2.647638
-1.161765
0.685445
2.384068
3.718497
3.953847
3.300271
2.426672
0.823125
-0.906929
-2.252526
-3.246657
-3.595005
-3.737877
-3.403036
-2.754395
-2.252003
-1.503611
-0.915496
0.099418
1.938315
3.594596
4.970847
5.406738
4.509241
3.101559
1.410990
-0.038255
-0.325558
1.055629
3.598238
5.664692
6.474129
5.722881
3.528622
1.290462
-0.303474
-0.438552
0.891200
2.229525
2.983372
2.471110
1.229420
-0.314640
-1.228763
-0.002138
1.964046
4.721223
7.218373
7.838699
7.499702
5.844202
4.032841
2.699972
1.537771
0.906016
0.015532
-0.825596
-1.504369
-1.593989
-0.302422
1.426854
3.466292
5.423124
6.370239
6.719887
6.327638
5.088545
3.594361
2.355788
1.625061
0.583133
-1.093149
-2.710983
-4.157630
-5.321650
-5.796765
-5.256447
-3.695501
-1.981812
-0.863510
-0.212791
0.287003
0.694319
0.892263
1.280357
2.070831
2.543609
2.459965
1.794180
0.877460
0.485730
0.595872
1.339848
2.094994
1.793144
0.750436
-0.246553
-0.811288
-0.948964
-0.467614
0.158687
0.152973
-0.913893
-3.167639
-5.306048
-6.150553
-5.363716
-2.982163
-0.293305
1.336740
1.642747
0.810711
-0.247843
-0.236413
0.833312
2.172416
3.106802
2.934057
1.459095
-0.511504
-1.719944
-1.552133
-0.280569
1.369478
2.845999
3.802465
4.120162
4.237837
4.746463
5.819046
7.043852
7.916413
8.057727
7.451429
6.406903
4.811409
2.731967
0.746561
-1.051292
-2.759265
-4.008229
-4.471135
-4.265658
-3.523501
-2.102050
-0.284713
1.464045
3.073308
4.409035
5.436158
5.799574
4.857136
3.186829
1.646146
0.517975
-0.276135
-1.193635
-2.011904
-2.705484
-3.195146
-3.539338
-4.181743
-4.106670
-3.087859
-1.763562
-0.275351
1.085054
2.236346
2.552484
2.210370
2.250895
2.311681
2.093736
1.945669
1.977101
2.270640
2.806022
3.766384
4.690639
4.978722
4.854294
4.465682
4.372166
4.785977
5.396692
6.324323
7.052453
6.826196
5.726339
4.134482
2.474046
0.997525
-0.218188
-0.987620
-1.309472
-1.360646
-1.682757
-2.575060
-3.606078
-4.217311
-4.187957
-3.879872
-3.295394
-2.092148
-0.561075
0.661653
1.061696
0.665550
-0.046473
-1.049696
-2.275800
-3.075885
-3.183169
-2.925219
-2.845469
-3.064713
-3.383967
-3.870772
-4.340691
-4.491616
-4.120667
-3.098999
-1.921730
-1.176196
-1.093589
-1.600396
-2.457630
-3.213813
-2.834032
-1.226068
0.468918
1.219648
0.699853
-0.633276
-2.349562
-3.596707
-3.630217
-2.696351
-1.122416
0.537242
1.787505
2.418482
2.543950
2.876194
3.748495
4.891734
5.612071
5.455692
5.003956
4.849914
4.934339
4.922650
4.556637
3.657062
2.045982
-0.144381
-2.148230
-3.362385
-3.819316
-3.392777
-2.581521
-1.958857
-1.446594
-1.128118
-0.626765
0.363990
1.466705
2.152493
2.314069
2.001829
1.372931
0.712861
-0.090860
-0.670142
-0.624163
-0.139435
0.366074
0.454915
0.585059
1.144080
1.674007
2.399540
3.512906
4.568343
5.740157
6.684414
6.569857
5.488443
3.725918
1.482563
-0.917692
-2.945440
-4.070494
-4.532361
-4.630553
-4.187388
-3.491210
-3.132729
-3.101297
-2.969075
-2.381999
-1.282141
-0.016031
1.109284
1.864690
2.083934
1.826245
1.235273
0.748209
0.540395
0.381937
0.183215
-0.310863
-1.110947
-1.879860
-2.657604
-3.245459
-3.092455
-2.518367
-2.290031
-2.460698
-2.706178
-2.673447
-2.065589
-1.090939
-0.135772
0.518064
0.692629
0.659639
0.415717
-0.186944
-0.567763
-0.465674
-0.063293
0.407927
0.493391
0.384029
