EVENT_NAME: 202302060117
EVENT_ID: 13194
EVENT_DATE_YYYYMMDD: 2023/02/06
EVENT_TIME_HHMMSS: 01:17:32.00000
EVENT_LATITUDE_DEGREE: 37.288
EVENT_LONGITUDE_DEGREE: 37.043
EVENT_DEPTH_KM: 8.6
HYPOCENTER_REFERENCE: AFAD
MAGNITUDE_W: 7.7
MAGNITUDE_W_REFERENCE: AFAD
MAGNITUDE_L: 
MAGNITUDE_L_REFERENCE: 
FOCAL_MECHANISM: 
NETWORK: TK
STATION_CODE: 4211
STATION_NAME: 
STATION_LATITUDE_DEGREE: 37.1856
STATION_LONGITUDE_DEGREE: 32.24991
STATION_ELEVATION_M: 1138.0
LOCATION: Kahramanmaras_Pazarck_Turkiye
SENSOR_DEPTH_M: 
VS30_M/S: None
SITE_CLASSIFICATION_EC8: unknown
MORPHOLOGIC_CLASSIFICATION: 
EPICENTRAL_DISTANCE_KM: 424.42
EARTHQUAKE_BACKAZIMUTH_DEGREE: 
DATE_TIME_FIRST_SAMPLE_YYYYMMDD_HHMMSS: 2023/02/06 01:18:05.9791560
DATE_TIME_FIRST_SAMPLE_PRECISION: millisecond
SAMPLING_INTERVAL_S: 0.01
NDATA: 21001
DURATION_S: 
STREAM: HNN
UNITS: cm/s^2
INSTRUMENT: sensor = ACEBOX/SARA | digitizer = 
INSTRUMENT_ANALOG/DIGITAL: 
INSTRUMENTAL_FREQUENCY_HZ: 
INSTRUMENTAL_DAMPING: 
FULL_SCALE_G: 
N_BIT_DIGITAL_CONVERTER: 
PGA_CM/S^2: 6.088
TIME_PGA_S: 
BASELINE_CORRECTION: BASELINE REMOVED
FILTER_TYPE: BUTTERWORTH
FILTER_ORDER: 
LOW_CUT_FREQUENCY_HZ: 
HIGH_CUT_FREQUENCY_HZ: 
LATE/NORMAL_TRIGGERED: 
DATABASE_VERSION: 
HEADER_FORMAT: DYNA 1.2
DATA_TYPE: Acceleration
PROCESSING: Automatic Paolucci et al., 2011
DATA_TIMESTAMP_YYYYMMDD_HHMMSS: 
DATA_LICENSE: U (unknown license)
DATA_CITATION: Turkish Accelerometric Archive v 1.0 - Disaster And Emergency Management Presidency, Earthquake Department
DATA_CREATOR: AFAD
ORIGINAL_DATA_MEDIATOR_CITATION: : AFAD - Disaster And Emergency Management Presidency
ORIGINAL_DATA_MEDIATOR: AFAD PROCESS SERVICE
ORIGINAL_DATA_CREATOR_CITATION: AFAD PROCESS SERVICE
ORIGINAL_DATA_CREATOR: network: TK
USER1: GuestUser
USER2: 
USER3: 
USER4: 
USER5: 
[...]
2.950371
3.321641
3.661114
3.994742
4.324863
4.629033
4.891119
5.066934
5.097327
4.935539
4.543461
3.938627
3.177148
2.322619
1.451957
0.613560
-0.157270
-0.839959
-1.479161
-2.090775
-2.643005
-3.134214
-3.552244
-3.866234
-4.080626
-4.192148
-4.187005
-4.079459
-3.866704
-3.548740
-3.161339
-2.718527
-2.212591
-1.649607
-1.051554
-0.448592
0.147825
0.738630
1.289456
1.744424
2.071506
2.244282
2.255504
2.116160
1.827420
1.445862
1.053784
0.676434
0.346078
0.074405
-0.177862
-0.433871
-0.713259
-1.016261
-1.303365
-1.539267
-1.708536
-1.789898
-1.730514
-1.500926
-1.137839
-0.689417
-0.187688
0.352617
0.924017
1.486299
1.998314
2.445100
2.810758
3.074715
3.214993
3.214291
3.067933
2.771945
2.342927
1.852420
1.393475
0.995786
0.637841
0.328995
0.092391
-0.046952
-0.071268
-0.014689
0.082102
0.183803
0.237342
0.209286
0.094257
-0.098392
-0.365857
-0.716319
-1.112372
-1.492293
-1.823351
-2.104376
-2.357345
-2.587636
-2.768829
-2.881286
-2.917759
-2.863752
-2.716694
-2.512590
-2.308719
-2.131969
-1.954284
-1.734281
-1.459102
-1.128513
-0.741346
-0.299002
0.195713
0.731576
1.288714
1.823174
2.271830
2.586053
2.756959
2.806523
2.770518
2.675362
2.532979
2.368853
2.216650
2.070526
1.885826
1.620232
1.255507
0.788847
0.237787
-0.339693
-0.858723
-1.288210
-1.650596
-1.955702
-2.222933
-2.491566
-2.768383
-3.031639
-3.246733
-3.365970
-3.339552
-3.153449
-2.823796
-2.362047
-1.822443
-1.307856
-0.880008
-0.548250
-0.292476
-0.074110
0.123682
0.295289
0.461518
0.650192
0.857803
1.084820
1.327735
1.552180
1.705784
1.755816
1.699938
1.512432
1.176932
0.725236
0.180487
-0.391849
-0.910646
-1.368655
-1.756759
-2.029601
-2.142759
-2.094130
-1.924160
-1.658800
-1.318626
-0.933329
-0.534003
-0.169280
0.129746
0.349515
0.484415
0.558996
0.615107
0.683375
0.757021
0.833706
0.932602
1.044122
1.153773
1.226015
1.216195
1.132028
0.968136
0.713997
0.425491
0.158026
-0.059639
-0.217687
-0.346042
-0.475800
-0.626366
-0.801013
-0.981038
-1.151009
-1.298769
-1.411460
-1.489081
-1.525788
-1.521580
-1.487914
-1.441389
-1.394630
-1.330570
-1.216010
-1.034817
-0.795643
-0.523971
-0.239674
0.027789
0.243116
0.410047
0.530452
0.601526
0.645946
0.701356
0.806097
0.975599
1.214539
1.496031
1.751804
1.944687
2.036802
1.978586
1.807212
1.587442
1.350839
1.125692
0.927197
0.770319
0.662538
0.596372
0.588423
0.646638
0.750443
0.885110
1.025622
1.158418
1.286772
1.397825
1.491344
1.557975
1.590239
1.640037
1.735192
1.857234
1.982081
2.066247
2.093835
2.070689
1.993301
1.856062
1.639331
1.327445
0.909415
0.392722
-0.189433
-0.837286
-1.548030
-2.289870
-3.033579
-3.726087
-4.318998
-4.784956
-5.097544
-5.256760
-5.276400
-5.173062
-4.975737
-4.689570
-4.304273
-3.831769
-3.284918
-2.686397
-2.077122
-1.468782
-0.871664
-0.295588
0.283527
0.860538
1.408324
1.928055
2.418795
2.869790
3.277765
3.632201
3.901302
4.046255
4.052801
3.931927
3.695558
3.349771
2.919350
2.438662
1.937634
1.450400
0.985143
0.548877
0.171294
-0.149009
-0.430268
-0.681600
-0.895525
-1.042584
-1.113192
-1.115063
-1.028558
-0.839651
-0.576162
-0.274096
0.045504
0.366975
0.664598
0.904474
1.071405
1.177548
1.236698
1.256103
1.248387
1.229916
1.210043
1.189702
1.152528
1.084259
1.013184
0.983257
1.015521
1.123067
1.295375
1.471190
1.577100
1.573125
1.447341
1.221726
0.933220
0.599591
0.237906
-0.145055
-0.551161
-0.958203
-1.363841
-1.770415
-2.135607
-2.430894
-2.663289
-2.841209
-2.974240
-3.068929
-3.123872
-3.126678
-3.080386
-3.022405
-2.967697
-2.885167
-2.742551
-2.520211
-2.191960
-1.747278
-1.211181
-0.611726
0.022566
0.660364
1.292785
1.897151
2.442132
2.939885
3.400699
3.796751
4.103960
4.294505
4.353421
4.313675
4.226702
4.129208
4.034519
3.922296
3.755598
3.496316
3.119669
2.632668
2.061033
1.443808
0.820972
0.215670
-0.349185
-0.844602
-1.244162
-1.536175
-1.747528
-1.917733
-2.088172
-2.299525
-2.543142
-2.786526
-3.017752
-3.224663
-3.389023
-3.491661
-3.506624
-3.418015
-3.232381
-2.987362
-2.746318
-2.555306
-2.399130
-2.232900
-2.023185
-1.745902
-1.402220
-1.016923
-0.609649
-0.190918
0.235060
0.633918
0.954921
1.200875
1.393991
1.535438
1.648127
1.763389
1.881924
1.986430
2.054933
2.075740
2.057503
2.021498
1.987831
1.951825
1.886362
1.765254
1.586165
1.380423
1.167199
0.934103
0.670846
0.382106
0.091262
-0.151654
-0.316248
-0.409767
-0.446240
-0.442266
-0.401820
-0.323031
-0.226239
-0.138566
-0.089936
-0.132020
-0.297082
-0.562676
-0.878069
-1.198372
-1.507218
-1.814896
-2.104338
-2.325744
-2.432356
-2.419732
-2.324577
-2.185702
-2.022278
-1.822616
-1.582974
-1.334916
-1.093404
-0.869660
-0.683324
-0.534162
-0.425915
-0.374246
-0.401133
-0.521305
-0.716527
-0.953130
-1.183888
-1.360406
-1.456030
-1.455796
-1.377942
-1.262213
-1.134327
-1.008077
-0.880658
-0.762123
-0.679359
-0.646161
-0.652474
-0.675854
-0.696662
-0.695962
-0.661594
-0.597768
-0.508925
-0.397405
-0.261335
-0.103756
0.049848
0.194568
0.350276
0.519078
0.696763
0.880293
1.045821
1.147756
1.165057
1.119466
1.033895
0.932193
0.830491
0.732529
0.654908
0.613759
0.622409
0.675247
0.740476
0.798457
0.840540
0.881220
0.945748
1.031784
1.130212
1.211573
1.249916
1.242667
1.168086
1.024066
0.826273
0.577044
0.303267
0.043518
-0.185136
-0.380124
-0.569266
-0.792543
-1.055799
-1.334720
-1.600314
-1.809797
-1.954284
-2.049674
-2.091758
-2.088719
-2.045701
-1.982343
-1.949845
-1.965744
-2.055990
-2.236716
-2.467708
-2.714599
-2.933434
-3.084935
-3.155308
-3.127487
-3.044723
-2.949802
-2.846230
-2.763467
-2.696134
-2.627164
-2.563338
-2.478938
-2.364377
-2.232516
-2.083354
-1.929750
-1.750428
-1.486004
-1.128061
-0.714006
-0.281716
0.136080
0.522546
0.873241
1.187698
1.462409
1.673995
1.812870
1.907090
1.971150
1.990555
1.952679
1.854016
1.700177
1.527166
1.387355
1.300616
1.261104
1.262740
1.285184
1.320019
1.374493
1.414238
1.398106
1.312769
1.145603
0.937757
0.759369
0.627273
0.539365
0.496580
0.479044
0.478810
0.493071
0.512008
0.536322
0.554324
0.530009
0.456596
0.353023
0.224434
0.072232
-0.109663
-0.346734
-0.645060
-0.983365
-1.340608
-1.689200
-1.991968
-2.224831
-2.389424
-2.484347
-2.493231
-2.434783
-2.345005
-2.230913
-2.113781
-2.020028
-1.937031
-1.855436
-1.778284
-1.698326
-1.601768
-1.467101
-1.294559
-1.100040
-0.899443
-0.730408
-0.627772
-0.581013
-0.556464
-0.541034
-0.532852
-0.540568
-0.583119
-0.654428
-0.726672
-0.787694
-0.827440
-0.830480
-0.768758
-0.605802
-0.332961
0.041582
0.504734
1.024231
1.561029
2.067433
2.487566
2.806699
3.031845
3.149679
3.155991
3.059666
2.871458
2.626906
2.363416
2.082157
1.756477
1.366035
0.913637
0.421493
-0.086549
-0.609320
-1.158744
-1.733418
-2.322120
-2.899133
-3.433828
-3.901890
-4.287422
-4.588554
-4.785178
-4.871216
-4.854850
-4.718781
-4.498311
-4.253292
-3.979048
-3.666929
-3.293556
-2.817545
-2.248249
-1.612321
-0.920282
-0.199018
0.527390
1.244913
1.927601
2.535707
3.035799
3.410341
3.657231
3.769921
3.741163
3.593870
3.343005
3.003297
2.630624
2.266133
1.928763
1.643296
1.414175
1.233449
1.092001
0.967153
0.826640
0.647784
0.424975
0.150497
-0.197160
-0.614255
-1.067822
-1.539158
-2.014235
-2.473413
-2.917862
-3.321397
-3.631413
-3.820088
-3.864510
-3.777070
-3.620193
-3.425908
-3.200060
-2.958080
-2.706749
-2.439285
-2.146338
-1.812943
-1.405201
-0.912357
-0.360830
0.222961
0.789451
1.275515
1.654500
1.923366
2.098714
2.199012
2.229873
2.213974
2.168851
2.101984
2.040261
1.977136
1.887357
1.789863
1.696577
1.610072
1.543907
1.470026
1.373234
1.273402
1.184792
1.145981
1.166321
1.225003
1.325302
1.454358
1.587855
1.705221
1.783776
1.824456
1.834977
1.800141
1.701244
1.537819
1.316179
1.037492
0.722800
0.385664
0.030759
-0.315963
-0.643747
-0.940904
-1.177975
-1.361039
-1.499915
-1.592265
-1.649780
-1.660301
-1.603255
-1.510906
-1.425804
-1.353094
-1.298620
-1.288567
-1.324572
-1.395647
-1.517690
-1.696779
-1.923095
-2.196171
-2.510161
-2.856182
-3.211086
-3.526480
-3.770798
-3.915052
-3.940770
-3.870164
-3.722638
-3.517598
-3.296427
-3.079697
-2.869748
-2.677333
-2.502220
-2.333652
-2.167189
-2.000726
-1.837302
-1.685335
-1.527989
-1.349603
-1.175658
-0.997271
-0.774229
-0.514247
-0.231353
0.043826
0.243021
0.346592
0.377921
0.373945
0.388440
0.452500
0.579685
0.788466
1.080946
1.431875
1.796364
2.135370
2.406107
2.580051
2.684324
2.752826
2.806365
2.858969
2.905261
2.960436
3.033848
3.102818
3.141627
3.107960
2.970019
2.724765
2.379680
1.983861
1.587574
1.205549
0.837785
0.466281
0.096647
-0.254985
-0.604513
-0.961521
-1.330922
-1.714350
-2.100350
-2.488921
-2.874453
-3.247828
-3.607409
-3.947584
-4.279343
-4.601049
-4.892361
-5.154448
-5.381933
-5.548397
-5.613861
-5.538111
-5.312264
-4.949879
-4.482518
-3.949227
-3.366371
-2.751719
-2.123740
-1.484071
-0.839960
-0.208474
0.399632
0.979682
1.513207
1.985945
2.406779
2.775243
3.107235
3.429875
3.744098
4.059723
4.384935
4.696820
4.976441
5.203691
5.352386
5.401483
5.346072
5.195506
4.958903
4.662915
4.327415
3.966666
3.617606
3.289588
2.978169
2.702288
2.475504
2.306001
2.185361
2.081554
1.965590
1.819466
1.633363
1.383667
1.057519
0.684145
0.283182
-0.133212
-0.537214
-0.916434
-1.279989
-1.636530
-1.979745
-2.314076
-2.645133
-2.949070
-3.216769
-3.436772
-3.575648
-3.638073
-3.641814
-3.590613
-3.490081
-3.351206
-3.207888
-3.086081
-2.971053
-2.845972
-2.714578
-2.584821
-2.462078
-2.347752
-2.236699
-2.107176
-1.934166
-1.702941
-1.412799
-1.073560
-0.685925
-0.247789
0.225416
0.709610
1.170423
1.593362
1.970243
2.286336
2.555670
2.778712
2.954761
3.096442
3.176400
3.181777
3.101116
2.903557
2.618791
2.291708
1.974679
1.739478
1.611357
1.595224
1.678923
1.833229
2.040372
2.249387
2.425903
2.561271
2.622292
2.622525
2.596339
2.557061
2.553319
2.601949
2.665073
2.737082
2.813767
2.861462
2.866371
2.825923
2.738716
2.634442
2.528999
2.397137
2.207059
1.937958
1.595678
1.198924
0.759618
0.298570
-0.186326
-0.709799
-1.260392
-1.819402
-2.354798
-2.855125
-3.333708
-3.773014
-4.182861
-4.560210
-4.850120
-5.046276
-5.153823
-5.146342
-5.017754
-4.766657
-4.396088
-3.926858
-3.394736
-2.857704
-2.331661
-1.798837
-1.245674
-0.645283
-0.005614
0.641536
1.299909
1.956645
2.565686
3.096172
3.523553
3.823514
3.982963
4.007511
3.906277
3.697729
3.421614
3.114404
2.812571
2.543002
2.309204
2.127076
1.984693
1.856805
1.757441
1.688470
1.661349
1.679818
1.717693
1.780116
1.848618
1.878778
1.867321
1.800922
1.664852
1.470332
1.238638
1.005542
0.793253
0.620243
0.488614
0.363766
0.240555
0.125993
0.003015
-0.123703
-0.238498
-0.332719
-0.390935
-0.408237
-0.403094
-0.390001
-0.366155
-0.350491
-0.365221
-0.395615
-0.433023
-0.479081
-0.526075
-0.578212
-0.624037
-0.629649
-0.587332
-0.513920
-0.417830
-0.303971
-0.197127
-0.127923
-0.106648
-0.130262
-0.210455
-0.361021
-0.559282
-0.768297
-0.958141
-1.125540
-1.291771
-1.430179
-1.496344
-1.471796
-1.355366
-1.183993
-1.001631
-0.840078
-0.723881
-0.649768
-0.628259
-0.669876
-0.750303
-0.833769
-0.887776
-0.877724
-0.786076
-0.624289
-0.420652
-0.195739
0.022627
0.200780
0.333109
0.429900
0.503312
0.574620
0.667670
0.797194
0.959682
1.121236
1.255201
1.357837
1.417455
1.425871
1.387762
1.304997
1.179214
1.005735
0.786199
0.532996
0.251971
-0.039340
-0.307506
-0.531952
-0.711743
-0.848515
-0.949282
-1.020825
-1.059402
-1.061740
-1.052389
-1.072730
-1.148714
-1.298111
-1.529805
-1.820415
-2.138614
-2.460787
-2.775713
-3.092508
-3.392003
-3.642167
-3.837154
-3.958262
-4.010165
-4.026766
-4.008062
-3.939560
-3.813544
-3.635157
-3.434092
-3.210349
-2.934001
-2.590086
-2.173927
-1.695812
-1.173042
-0.619878
-0.044504
0.541392
1.113259
1.658942
2.158800
2.584778
2.941318
3.243851
3.513653
3.742540
3.894507
3.958334
3.911106
3.732017
3.429716
3.030390
2.612360
2.245298
1.939724
1.698445
1.516784
1.362477
1.208638
1.058540
0.914988
0.772371
0.640742
0.524545
0.430090
0.370705
0.339376
0.324412
0.328386
0.358545
0.428216
0.539737
0.682821
0.841101
0.977170
1.062038
1.099211
1.085183
1.030708
0.955425
0.836655
0.670191
0.487361
0.315519
0.193477
0.140872
0.158640
0.236961
0.329545
0.411373
0.486889
0.533648
0.531076
0.463508
0.325099
0.150920
-0.033547
-0.219416
-0.373022
-0.471217
-0.501144
-0.451813
-0.337253
-0.164009
0.054357
0.260799
0.416040
0.534808
0.641419
0.745926
0.869605
1.019000
1.169332
1.299322
1.387463
1.410843
1.365485
1.269160
1.142208
1.010580
0.906305
0.818163
0.716227
0.603069
0.483598
0.362724
0.241850
0.119106
0.002207
-0.110016
-0.230188
-0.371636
-0.532489
-0.719761
-0.948649
-1.179174
-1.387956
-1.594165
-1.793595
-1.988349
-2.173049
-2.328057
-2.441215
-2.486339
-2.467402
-2.399835
-2.272416
-2.080469
-1.819318
-1.501822
-1.151594
-0.764894
-0.341721
0.102727
0.555825
1.001910
1.439578
1.870700
2.277506
2.633813
2.934242
3.181131
3.359752
3.481793
3.586768
3.670934
3.715589
3.718628
3.683090
3.641240
3.622536
3.639602
3.727276
3.905195
4.153955
4.447837
4.760658
5.076049
5.378349
5.648150
5.865114
6.009600
6.083012
6.088155
6.022691
5.886620
5.655628
5.323636
4.911450
4.432867
3.919214
3.407899
2.922301
2.482060
2.094892
1.764302
1.487953
1.234750
0.973364
0.699821
0.414821
0.120938
-0.172712
-0.446957
-0.654803
-0.760948
-0.767962
-0.695719
-0.585368
-0.467301
-0.366768
-0.320945
-0.315334
-0.323751
-0.337780
-0.324220
-0.273720
-0.209193
-0.157524
-0.154251
-0.197972
-0.254084
-0.293830
-0.297104
-0.243565
-0.110067
0.104325
0.369450
0.636446
0.848500
0.989947
1.091648
1.177685
1.272372
1.398155
1.556669
1.736926
1.915546
2.090192
2.269047
2.421248
2.525287
2.575553
2.550770
2.450471
2.268342
1.989889
1.638959
1.252725
0.859712
0.497559
0.206013
0.003077
-0.120135
-0.189339
-0.228384
-0.259012
-0.317228
-0.433660
-0.618594
-0.858470
-1.117518
-1.359499
-1.543966
-1.620652
-1.556358
-1.357397
-1.064216
-0.721002
-0.364228
-0.014935
0.309107
0.585689
0.821590
1.020317
1.168544
1.267907
1.317706
1.318173
1.279829
1.216937
1.153812
1.116871
1.111259
1.111025
1.085307
1.017739
0.899905
0.721517
0.471821
0.157830
-0.208063
-0.612766
-1.020042
-1.377752
-1.644282
-1.810512
-1.886263
-1.882990
-1.835997
-1.763053
-1.650130
-1.506345
-1.322113
-1.068210
-0.749311
-0.379444
0.010062
0.393255
0.780890
1.159641
1.507531
1.822689
2.080567
2.271579
2.388243
2.411622
2.359251
2.255211
2.129895
2.035674
2.001539
2.013462
2.025386
2.008552
1.971377
1.916668
1.855413
1.795326
1.735006
1.680998
1.629095
1.570411
1.491387
1.373787
1.197737
0.938689
0.605995
0.242907
-0.117842
-0.442354
-0.706545
-0.915560
-1.076881
-1.211315
-1.340372
-1.472000
-1.624436
-1.800486
-1.986823
-2.175498
-2.340793
-2.477799
-2.599374
-2.689387
-2.745265
-2.766307
-2.735914
-2.660164
-2.535317
-2.357865
-2.130849
-1.846785
-1.524146
-1.180932
-0.818079
-0.457330
-0.099621
0.270479
0.650867
1.050426
1.463078
1.877600
2.296096
2.686537
3.005436
3.233622
3.339999
3.312177
3.164650
2.899757
2.525447
2.067204
1.565007
1.064914
0.591708
0.151701
-0.248794
-0.605102
-0.921898
-1.193103
-1.423628
-1.655555
-1.892626
-2.107720
-2.300136
-2.461456
-2.581161
-2.672576
-2.758848
-2.844652
-2.910350
-2.954070
-2.981893
-2.994518
-3.014626
-3.038240
-3.031460
-2.994988
-2.924382
-2.793924
-2.611095
-2.408627
-2.214108
-2.048580
-1.934254
-1.879078
-1.872298
-1.911343
-1.978443
-2.047882
-2.132517
-2.233050
-2.328674
-2.408165
-2.461472
-2.500283
-2.525066
-2.502855
-2.412143
-2.245680
-2.031522
-1.803102
-1.572111
-1.371747
-1.228430
-1.139822
-1.120417
-1.161332
-1.214872
-1.234979
-1.203885
-1.129538
-1.024563
-0.901820
-0.770661
-0.634357
-0.506704
-0.369700
-0.178688
0.078488
0.384529
0.709740
1.030042
1.330705
1.597467
1.840849
2.078620
2.310079
2.534056
2.747747
2.954423
3.161099
3.354215
3.515535
3.624717
3.662826
3.617702
3.487243
3.293425
3.071317
2.856924
2.652351
2.424398
2.157167
1.843645
1.490844
1.141550
0.839484
0.615973
0.488787
0.455587
0.505619
0.611529
0.731232
0.813762
0.802540
0.687043
0.513799
0.340555
0.193963
0.054619
-0.110910
-0.331147
-0.628772
-1.000510
-1.420644
-1.871172
-2.344378
-2.811739
-3.232341
-3.587713
-3.869907
-4.065128
-4.163324
-4.153505
-4.029593
-3.807252
-3.488821
-3.062609
-2.542177
-1.953008
-1.339525
-0.766722
-0.271072
0.158880
0.537164
0.843905
1.076299
1.261700
1.415772
1.578494
1.775585
1.985067
2.186365
2.345815
2.450555
2.523266
2.556231
2.557633
2.576336
2.624732
2.690896
2.768983
2.842863
2.897337
2.932874
2.960929
2.987815
3.006752
3.024754
3.049536
3.066369
3.067537
3.028726
2.910191
2.707020
2.421553
2.060804
1.644176
1.199260
0.781230
0.436612
0.162133
-0.068859
-0.270159
-0.458132
-0.634650
-0.761836
-0.825663
-0.826833
-0.754122
-0.630678
-0.468891
-0.281620
-0.108610
0.044994
0.156281
0.192753
0.160956
0.054811
-0.124512
-0.349659
-0.608005
-0.872664
-1.108566
-1.298878
-1.439624
-1.536885
-1.600244
-1.644900
-1.668514
-1.642095
-1.539693
-1.342836
-1.056669
-0.725612
-0.396894
-0.110493
0.119096
0.286962
0.371128
0.384454
0.376738
0.382115
0.426302
0.520989
0.656124
0.821652
1.026925
1.276153
1.547357
1.831654
2.109171
2.347643
2.544032
2.680102
2.762398
2.802377
2.756084
2.627262
2.424325
2.137455
1.824166
1.499655
1.146855
0.817200
0.541319
0.325757
0.191089
0.130535
0.105285
0.075592
0.024390
-0.058141
-0.192575
-0.383822
-0.620659
-0.890228
-1.166810
-1.434275
-1.696596
-1.941382
-2.166763
-2.393314
-2.616824
-2.825606
-3.006332
-3.122062
-3.148014
-3.073901
-2.890136
-2.613087
-2.270341
-1.868444
-1.402954
-0.876443
-0.307381
0.262616
0.801752
1.298337
1.742785
2.150293
2.523900
2.848177
3.154684
3.453944
3.716732
3.950763
4.140372
4.254464
4.314082
4.336526
4.319458
4.265684
4.157903
3.969462
3.708544
3.401801
3.070042
2.730334
2.371689
1.971427
1.528381
1.041848
0.522350
-0.006967
-0.538155
-1.042222
-1.484801
-1.854903
-2.140604
-2.348917
-2.497613
-2.578274
-2.592770
-2.562844
-2.504395
-2.431451
-2.353597
-2.283225
-2.215190
-2.116294
-1.971341
-1.787109
-1.570613
-1.336817
-1.105825
-0.883251
-0.653429
-0.405370
-0.145856
0.103138
0.311918
0.474173
0.583823
0.620996
0.594109
0.522567
0.426242
0.347919
0.322902
0.368960
0.486326
0.650217
0.843333
1.049775
1.237982
1.398366
1.524850
1.603639
1.646657
1.667932
1.674712
1.665593
1.617430
1.520638
1.378255
1.195892
0.992956
0.794929
0.627997
0.501980
0.414305
0.363571
0.336917
0.309796
0.275194
0.237786
0.187519
0.130939
0.079503
0.020820
-0.047449
-0.124369
-0.207368
-0.268623
-0.277976
-0.226775
-0.122969
0.041390
0.268874
0.526986
0.790475
1.033623
1.214114
1.315348
1.345507
1.322828
1.278173
1.243102
1.218086
