EVENT_NAME: 202302060117
EVENT_ID: 13194
EVENT_DATE_YYYYMMDD: 2023/02/06
EVENT_TIME_HHMMSS: 01:17:32.00000
EVENT_LATITUDE_DEGREE: 37.288
EVENT_LONGITUDE_DEGREE: 37.043
EVENT_DEPTH_KM: 8.6
HYPOCENTER_REFERENCE: AFAD
MAGNITUDE_W: 7.7
MAGNITUDE_W_REFERENCE: AFAD
MAGNITUDE_L: 
MAGNITUDE_L_REFERENCE: 
FOCAL_MECHANISM: 
NETWORK: TU
STATION_CODE: AMSY
STATION_NAME: 
STATION_LATITUDE_DEGREE: 40.6371
STATION_LONGITUDE_DEGREE: 35.8347
STATION_ELEVATION_M: 951.0
LOCATION: Kahramanmaras_Pazarck_Turkiye
SENSOR_DEPTH_M: 
VS30_M/S: 942
SITE_CLASSIFICATION_EC8: A
MORPHOLOGIC_CLASSIFICATION: 
EPICENTRAL_DISTANCE_KM: 386.77
EARTHQUAKE_BACKAZIMUTH_DEGREE: 
DATE_TIME_FIRST_SAMPLE_YYYYMMDD_HHMMSS: 2023/02/06 01:18:01.3229710
DATE_TIME_FIRST_SAMPLE_PRECISION: millisecond
SAMPLING_INTERVAL_S: 0.01
NDATA: 21001
DURATION_S: 
STREAM: HNN
UNITS: cm/s^2
INSTRUMENT: sensor = CMG-5T/GURALP | digitizer = 
INSTRUMENT_ANALOG/DIGITAL: 
INSTRUMENTAL_FREQUENCY_HZ: 
INSTRUMENTAL_DAMPING: 
FULL_SCALE_G: 
N_BIT_DIGITAL_CONVERTER: 
PGA_CM/S^2: 4.241
TIME_PGA_S: 
BASELINE_CORRECTION: BASELINE REMOVED
FILTER_TYPE: BUTTERWORTH
FILTER_ORDER: 
LOW_CUT_FREQUENCY_HZ: 
HIGH_CUT_FREQUENCY_HZ: 
LATE/NORMAL_TRIGGERED: 
DATABASE_VERSION: 
HEADER_FORMAT: DYNA 1.2
DATA_TYPE: Acceleration
PROCESSING: Automatic Paolucci et al., 2011
DATA_TIMESTAMP_YYYYMMDD_HHMMSS: 
DATA_LICENSE: U (unknown license)
DATA_CITATION: Turkish Accelerometric Archive v 1.0 - Disaster And Emergency Management Presidency, Earthquake Department
DATA_CREATOR: AFAD
ORIGINAL_DATA_MEDIATOR_CITATION: : AFAD - Disaster And Emergency Management Presidency
ORIGINAL_DATA_MEDIATOR: AFAD PROCESS SERVICE
ORIGINAL_DATA_CREATOR_CITATION: AFAD PROCESS SERVICE
ORIGINAL_DATA_CREATOR: network: TK
USER1: GuestUser
USER2: 
USER3: 
USER4: 
USER5: 
[...]
1.858089
1.873364
1.887441
1.903314
1.923980
1.945246
1.969805
1.994066
2.017727
2.046779
2.067146
2.091107
2.115067
2.140526
2.164486
2.183056
2.200128
2.208214
2.208214
2.194735
2.166580
2.127942
2.072831
2.009932
1.931459
1.840705
1.743662
1.634938
1.524416
1.396523
1.262939
1.117374
0.960427
0.794496
0.615984
0.422796
0.216730
-0.001318
-0.233143
-0.478746
-0.730639
-0.991217
-1.251197
-1.511775
-1.767861
-2.011367
-2.250980
-2.468728
-2.673896
-2.864688
-3.036610
-3.195054
-3.334329
-3.459227
-3.565256
-3.654212
-3.724000
-3.769527
-3.796783
-3.801576
-3.787199
-3.751857
-3.696148
-3.622767
-3.532314
-3.426286
-3.310674
-3.190269
-3.059082
-2.930590
-2.804195
-2.681095
-2.570575
-2.468740
-2.382181
-2.301611
-2.229429
-2.168628
-2.105730
-2.055412
-1.997306
-1.947887
-1.898168
-1.847251
-1.799029
-1.745117
-1.694200
-1.633998
-1.573197
-1.503111
-1.421943
-1.337779
-1.242534
-1.142796
-1.031976
-0.915465
-0.792065
-0.664772
-0.529990
-0.395209
-0.261626
-0.128642
0.001946
0.131337
0.255934
0.380532
0.494048
0.611158
0.713292
0.817223
0.910671
1.003820
1.095471
1.183528
1.276378
1.363835
1.452791
1.533959
1.614528
1.689706
1.755599
1.822690
1.884090
1.946089
2.008687
2.068590
2.128193
2.183004
2.239612
2.285736
2.327369
2.362411
2.392961
2.417521
2.430400
2.440882
2.433095
2.420814
2.394157
2.359412
2.314784
2.256678
2.194079
2.119199
2.041026
1.952668
1.863712
1.769364
1.669026
1.568987
1.466253
1.362920
1.252998
1.141278
1.031056
0.919336
0.810013
0.703984
0.603047
0.508100
0.416748
0.336178
0.258603
0.190013
0.125917
0.069308
0.017192
-0.031630
-0.078953
-0.124181
-0.167611
-0.208645
-0.243689
-0.273341
-0.300298
-0.320665
-0.331748
-0.340135
-0.338937
-0.338039
-0.327257
-0.323364
-0.311384
-0.304795
-0.301800
-0.299105
-0.302101
-0.300304
-0.308391
-0.307194
-0.305996
-0.301803
-0.289524
-0.276046
-0.258375
-0.238308
-0.217043
-0.192184
-0.171817
-0.149054
-0.128089
-0.108920
-0.093945
-0.084960
-0.075076
-0.075376
-0.071783
-0.070286
-0.069687
-0.071185
-0.069089
-0.064597
-0.060404
-0.049622
-0.034946
-0.018773
0.001594
0.027951
0.054607
0.083959
0.112712
0.145958
0.173812
0.205261
0.232516
0.263665
0.288525
0.315780
0.351422
0.385866
0.429894
0.479014
0.532627
0.589833
0.650934
0.714730
0.778227
0.839028
0.891742
0.939964
0.972311
0.991180
0.997469
0.979498
0.948348
0.892937
0.818657
0.726106
0.617681
0.500870
0.371779
0.235199
0.094427
-0.047544
-0.192809
-0.337775
-0.477649
-0.616624
-0.747513
-0.876604
-0.998208
-1.113821
-1.224043
-1.329174
-1.431009
-1.522961
-1.610719
-1.693086
-1.765869
-1.838053
-1.900652
-1.962352
-2.018063
-2.065087
-2.112411
-2.147454
-2.179204
-2.197774
-2.208557
-2.202567
-2.174413
-2.133081
-2.068086
-1.991111
-1.893769
-1.789239
-1.675424
-1.553821
-1.431919
-1.299833
-1.170144
-1.036860
-0.907170
-0.781974
-0.659173
-0.545657
-0.434238
-0.330906
-0.233863
-0.140715
-0.055353
0.027612
0.101891
0.176770
0.247455
0.313347
0.379540
0.440640
0.510427
0.583209
0.658686
0.736859
0.816230
0.901591
0.986653
1.075309
1.159173
1.240940
1.314920
1.377518
1.432329
1.467072
1.488936
1.497023
1.489534
1.472761
1.444307
1.408664
1.367031
1.321804
1.273282
1.223262
1.175938
1.126817
1.081590
1.038160
0.994730
0.952198
0.905174
0.854855
0.798546
0.736845
0.669154
0.596072
0.523888
0.449908
0.379821
0.310632
0.250130
0.198912
0.155782
0.126129
0.098274
0.087491
0.079403
0.078205
0.077605
0.081199
0.091382
0.103362
0.126424
0.153081
0.185128
0.225563
0.270190
0.326199
0.381009
0.434622
0.493327
0.546041
0.601451
0.653566
0.708676
0.759593
0.813206
0.868017
0.923127
0.981233
1.036043
1.092352
1.148660
1.206167
1.265470
1.321179
1.378686
1.431100
1.484114
1.532935
1.575166
1.616498
1.649744
1.681492
1.704854
1.720728
1.730012
1.727915
1.719229
1.701258
1.675499
1.638358
1.591334
1.535923
1.468232
1.397846
1.311885
1.216039
1.111808
1.002484
0.897354
0.786233
0.678108
0.566688
0.460060
0.357026
0.253993
0.162041
0.074283
0.001201
-0.065592
-0.117708
-0.159640
-0.194984
-0.218047
-0.232124
-0.233922
-0.223439
-0.199179
-0.160842
-0.110823
-0.046727
0.028750
0.117106
0.210854
0.305800
0.404939
0.495692
0.590637
0.675999
0.749379
0.815272
0.872479
0.923696
0.964429
0.999772
1.031520
1.055181
1.078842
1.091421
1.103102
1.110590
1.118077
1.123767
1.120472
1.113283
1.094713
1.073447
1.035408
0.988683
0.923388
0.847910
0.766442
0.663707
0.555882
0.437273
0.311476
0.189573
0.061081
-0.059325
-0.181827
-0.292348
-0.394783
-0.494522
-0.579585
-0.661952
-0.729044
-0.787150
-0.832078
-0.866822
-0.893180
-0.906958
-0.914446
-0.913249
-0.904863
-0.885395
-0.857840
-0.823396
-0.781764
-0.737736
-0.688616
-0.641592
-0.598762
-0.554135
-0.516696
-0.479856
-0.449905
-0.422949
-0.398689
-0.379820
-0.359753
-0.347174
-0.331599
-0.322315
-0.312731
-0.306442
-0.300152
-0.288172
-0.278888
-0.266608
-0.246541
-0.222580
-0.193228
-0.157586
-0.115954
-0.068332
-0.018613
0.039493
0.104487
0.176071
0.252447
0.337508
0.432454
0.534289
0.642713
0.751736
0.863754
0.970980
1.079105
1.178843
1.276484
1.367836
1.452897
1.533167
1.606548
1.681726
1.751213
1.818304
1.882998
1.943200
1.999209
2.049527
2.096850
2.136086
2.163042
2.182510
2.184007
2.177118
2.150461
2.109427
2.051021
1.975842
1.894074
1.793736
1.692200
1.575688
1.459476
1.333379
1.206684
1.077293
0.946105
0.818212
0.694511
0.573507
0.456995
0.348570
0.250029
0.158976
0.077208
0.009218
-0.048589
-0.091420
-0.124967
-0.142339
-0.150127
-0.145934
-0.130060
-0.106399
-0.072554
-0.035714
0.014304
0.063724
0.113143
0.163461
0.212881
0.263798
0.303034
0.339574
0.368028
0.390191
0.402771
0.396480
0.383601
0.365030
0.333880
0.295542
0.245522
0.196102
0.136498
0.082585
0.026275
-0.026140
-0.077358
-0.121387
-0.159126
-0.191774
-0.212740
-0.228915
-0.230113
-0.223524
-0.208849
-0.181294
-0.148647
-0.108213
-0.061789
-0.008775
0.052326
0.116122
0.188005
0.261685
0.342854
0.412940
0.482427
0.547121
0.603130
0.649255
0.684897
0.713650
0.733417
0.744799
0.746296
0.738807
0.721435
0.697174
0.663628
0.624391
0.576468
0.520159
0.460555
0.392564
0.324274
0.253588
0.183801
0.111018
0.043327
-0.023465
-0.086963
-0.141774
-0.192692
-0.233727
-0.270867
-0.297225
-0.311003
-0.318791
-0.317893
-0.307410
-0.284947
-0.248706
-0.199885
-0.138485
-0.066902
0.013667
0.099628
0.197569
0.300002
0.410523
0.527333
0.652530
0.786114
0.912209
1.047589
1.183269
1.317152
1.451634
1.579826
1.703824
1.823630
1.937146
2.043473
2.144110
2.231568
2.309142
2.377431
2.436135
2.480762
2.513709
2.527785
2.526587
2.503823
2.462490
2.394200
2.296557
2.172857
2.009920
1.818230
1.588202
1.341401
1.082620
0.814553
0.536303
0.252063
-0.025588
-0.297847
-0.556329
-0.804328
-1.044240
-1.274568
-1.492915
-1.695687
-1.883783
-2.060198
-2.213550
-2.348931
-2.463347
-2.564583
-2.649646
-2.713443
-2.760467
-2.777840
-2.780536
-2.759870
-2.717339
-2.649649
-2.555602
-2.433400
-2.288136
-2.116514
-1.922129
-1.710972
-1.486036
-1.247922
-0.999325
-0.748033
-0.497339
-0.254433
-0.017217
0.217902
0.442538
0.648603
0.846882
1.030484
1.197613
1.346472
1.475562
1.590276
1.682227
1.759202
1.812215
1.849654
1.875712
1.885895
1.889788
1.884396
1.873014
1.856241
1.828685
1.800231
1.771177
1.744220
1.710674
1.680423
1.654664
1.627707
1.600750
1.568702
1.535156
1.492025
1.445001
1.384498
1.314711
1.239232
1.152372
1.069706
0.987039
0.908566
0.836083
0.767493
0.708189
0.652179
0.603957
0.560227
0.521289
0.489241
0.457192
0.434429
0.412564
0.390100
0.371829
0.350263
0.329896
0.303837
0.275682
0.239441
0.197508
0.153778
0.107653
0.058532
0.005218
-0.050193
-0.106203
-0.166106
-0.223913
-0.294000
-0.361691
-0.434773
-0.507856
-0.591421
-0.679778
-0.768435
-0.869073
-0.973903
-1.085623
-1.194647
-1.309961
-1.426772
-1.539989
-1.654704
-1.763129
-1.870356
-1.970394
-2.068336
-2.161785
-2.245051
-2.323824
-2.397505
-2.467592
-2.530790
-2.592191
-2.649399
-2.704510
-2.756626
-2.803651
-2.850376
-2.894704
-2.930946
-2.966888
-2.995942
-3.020203
-3.042667
-3.053450
-3.057644
-3.053451
-3.039374
-3.010921
-2.971086
-2.921067
-2.857271
-2.784789
-2.700925
-2.610771
-2.505942
-2.402609
-2.290292
-2.175278
-2.057869
-1.938662
-1.822451
-1.701148
-1.584637
-1.473218
-1.365992
-1.273742
-1.181192
-1.101821
-1.026643
-0.961649
-0.907737
-0.857419
-0.815187
-0.777449
-0.746300
-0.723537
-0.699876
-0.684002
-0.672022
-0.661240
-0.656149
-0.651057
-0.651956
-0.642372
-0.637581
-0.627098
-0.608229
-0.581573
-0.547728
-0.512086
-0.465662
-0.420735
-0.371615
-0.326988
-0.282959
-0.242825
-0.208980
-0.179329
-0.159861
-0.146682
-0.138296
-0.142490
-0.148780
-0.167051
-0.190114
-0.217670
-0.249719
-0.282366
-0.323400
-0.358145
-0.395285
-0.425536
-0.457585
-0.482445
-0.505808
-0.529770
-0.553731
-0.580089
-0.603152
-0.632805
-0.665452
-0.695704
-0.731946
-0.766690
-0.804729
-0.842468
-0.881106
-0.916449
-0.949396
-0.979648
-1.000315
-1.018885
-1.028770
-1.032664
-1.032664
-1.020684
-1.007206
-0.983845
-0.955092
-0.925740
-0.887402
-0.850263
-0.804437
-0.766100
-0.724468
-0.679841
-0.639107
-0.595977
-0.556142
-0.514510
-0.476472
-0.439333
-0.400396
-0.365354
-0.334204
-0.305451
-0.276099
-0.250641
-0.233270
-0.215000
-0.201822
-0.185349
-0.176963
-0.165282
-0.147911
-0.135332
-0.118559
-0.105081
-0.088609
-0.075730
-0.059557
-0.045779
-0.034698
-0.030505
-0.029008
-0.032303
-0.043685
-0.060159
-0.081425
-0.110478
-0.141329
-0.178469
-0.217107
-0.257842
-0.302470
-0.343803
-0.388132
-0.425572
-0.468403
-0.500452
-0.536394
-0.566945
-0.594800
-0.620859
-0.643922
-0.676569
-0.714009
-0.758038
-0.800869
-0.848493
-0.896715
-0.947034
-0.992561
-1.034494
-1.069537
-1.096794
-1.115064
-1.122852
-1.117761
-1.101887
-1.083018
-1.044381
-1.001851
-0.936856
-0.865872
-0.775718
-0.676280
-0.566657
-0.433673
-0.302187
-0.148536
-0.004170
0.148882
0.295943
0.441507
0.581081
0.709872
0.829078
0.937802
1.031250
1.111220
1.173818
1.227730
1.266367
1.290927
1.296917
1.287033
1.268163
1.236114
1.198974
1.151051
1.095041
1.035437
0.964751
0.893765
0.814094
0.733524
0.650558
0.560403
0.465457
0.361524
0.260887
0.147969
0.040742
-0.065286
-0.170117
-0.270455
-0.363904
-0.448368
-0.525943
-0.597827
-0.657431
-0.720629
-0.770948
-0.829354
-0.882968
-0.943770
-1.001577
-1.064475
-1.134862
-1.207944
-1.284321
-1.362495
-1.448456
-1.537712
-1.632060
-1.727605
-1.827644
-1.931277
-2.038803
-2.146928
-2.260445
-2.369469
-2.483585
-2.590213
-2.698039
-2.797778
-2.897816
-2.981381
-3.060154
-3.127246
-3.185652
-3.230580
-3.262029
-3.277005
-3.281499
-3.266224
-3.243461
-3.207220
-3.160796
-3.111376
-3.047880
-2.985581
-2.914297
-2.844510
-2.767835
-2.692358
-2.612088
-2.529123
-2.451549
-2.365289
-2.282024
-2.194566
-2.108905
-2.028037
-1.937284
-1.854619
-1.768958
-1.689886
-1.612013
-1.535637
-1.467348
-1.402354
-1.343949
-1.290036
-1.239419
-1.204076
-1.172628
-1.154957
-1.136387
-1.130697
-1.128002
-1.125007
-1.123211
-1.114226
-1.107038
-1.085473
-1.063010
-1.027069
-0.984837
-0.931824
-0.868027
-0.797642
-0.721266
-0.640996
-0.554437
-0.463684
-0.373231
-0.282479
-0.200113
-0.122838
-0.052153
0.005054
0.050879
0.080531
0.102694
0.110481
0.106288
0.088915
0.058963
0.023021
-0.029395
-0.086902
-0.156090
-0.235462
-0.318428
-0.406486
-0.494844
-0.584399
-0.669462
-0.753327
-0.831201
-0.906380
-0.977964
-1.039665
-1.096873
-1.144496
-1.182535
-1.215183
-1.236748
-1.251125
-1.249329
-1.241242
-1.216982
-1.173553
-1.119042
-1.043864
-0.963295
-0.866552
-0.758427
-0.637723
-0.508932
-0.369658
-0.222597
-0.073439
0.075719
0.224578
0.372238
0.524691
0.679240
0.837084
0.989238
1.144685
1.293844
1.436113
1.571493
1.696989
1.811703
1.911741
2.001595
2.079169
2.144463
2.195979
2.234316
2.257678
2.271455
2.273551
2.275048
2.263966
2.244197
2.220835
2.186091
2.152544
2.103723
2.055800
1.997694
1.936892
1.869500
1.797916
1.725732
1.646959
1.572379
1.493008
1.420824
1.351635
1.289635
1.233326
1.179712
1.134785
1.099441
1.073683
1.057808
1.045527
1.046126
1.050019
1.063197
1.079670
1.102133
1.130287
1.156944
1.191088
1.220440
1.249492
1.272854
1.289926
1.300708
1.300109
1.297113
1.280639
1.259373
1.224329
1.184493
1.135672
1.079063
1.021256
0.952966
0.884077
0.806802
0.726532
0.638773
0.546522
0.452474
0.348242
0.243411
0.134687
0.018175
-0.097738
-0.220240
-0.342143
-0.464645
-0.587447
-0.710548
-0.831552
-0.947465
-1.058586
-1.163117
-1.260759
-1.351812
-1.436276
-1.506064
-1.574054
-1.631262
-1.682779
-1.721716
-1.754663
-1.780422
-1.797795
-1.813070
-1.816365
-1.825651
-1.822057
-1.825652
-1.819063
-1.816368
-1.810977
-1.805586
-1.806485
-1.798399
-1.804689
-1.804689
-1.811878
-1.820265
-1.831647
-1.854411
-1.876276
-1.904431
-1.939475
-1.978412
-2.026934
-2.076654
-2.139552
-2.203350
-2.280026
-2.363591
-2.453746
-2.553485
-2.659813
-2.778421
-2.897030
-3.029715
-3.161503
-3.294787
-3.428371
-3.558661
-3.688951
-3.807559
-3.918979
-4.015423
-4.100486
-4.167578
-4.214303
-4.238564
-4.241260
-4.217599
-4.166382
-4.089108
-3.986974
-3.853989
-3.693749
-3.511944
-3.300786
-3.080943
-2.844626
-2.598125
-2.348330
-2.104226
-1.867610
-1.636085
-1.419236
-1.211074
-1.023278
-0.849560
-0.692914
-0.562326
-0.440723
-0.340985
-0.255325
-0.184939
-0.123239
-0.069028
-0.027695
0.012440
0.040594
0.059463
0.072940
0.071143
0.066949
0.054369
0.035799
0.007045
-0.031593
-0.076521
-0.126540
-0.180154
-0.237062
-0.293072
-0.344290
-0.396705
-0.440735
-0.481469
-0.517411
-0.545866
-0.566533
-0.572823
-0.570427
-0.552757
-0.528197
-0.494652
-0.447928
-0.397610
-0.331417
-0.264626
-0.186153
-0.106183
-0.016329
0.077718
0.172065
0.271204
0.362855
0.456902
0.545858
0.630620
0.715682
0.794154
0.874424
0.951998
1.022983
1.100557
1.164652
1.238033
1.296438
1.363828
1.413847
1.476146
1.521971
1.576183
1.614520
1.654954
1.685804
1.712161
1.733725
1.753193
1.768169
1.781047
1.797520
1.811896
1.831664
1.857721
1.890068
1.926908
1.976627
2.028443
2.094336
2.162924
2.244692
2.329154
2.420206
2.515751
2.620581
2.727508
2.840424
2.949148
3.069253
3.176778
3.296284
3.405607
3.518823
3.625151
3.721294
3.814743
3.899804
3.974383
4.036981
4.086101
4.125038
4.137917
4.144505
4.123239
4.096882
4.035780
3.968688
3.878234
3.772205
3.656293
3.520312
3.383733
3.230081
3.086913
2.929068
2.775116
2.608885
2.442354
2.269234
2.097312
1.930781
1.761555
1.595623
1.429990
1.266455
1.104716
0.951963
0.809992
0.673413
0.551210
0.438892
0.333162
0.233423
0.142071
0.050718
-0.032248
-0.111021
-0.187997
-0.266470
-0.337755
-0.404547
-0.465050
-0.526451
-0.574973
-0.629485
-0.669621
-0.713650
-0.747196
-0.783438
-0.818481
-0.840047
-0.875690
-0.899052
-0.932599
-0.957159
-0.991005
-1.023952
-1.059894
-1.099730
-1.137769
-1.184793
-1.233315
-1.286929
-1.345335
-1.403142
-1.468736
-1.533432
-1.598727
-1.666118
-1.727220
-1.787123
-1.838341
-1.885065
-1.923404
-1.948563
-1.966235
-1.967733
-1.958449
-1.927300
-1.879078
-1.812586
-1.726027
-1.613110
-1.481624
-1.324678
-1.162342
-0.972150
-0.779862
-0.561216
-0.343469
-0.104457
0.137851
0.384651
0.643431
0.897120
1.162490
1.411686
1.670467
1.913672
2.151786
2.374326
2.588179
2.783462
2.962272
3.117421
3.260888
3.371109
3.465755
3.529252
3.580768
3.596642
3.594245
3.560400
3.513076
3.442090
3.364815
3.265975
3.150361
3.026961
2.890381
2.749908
2.597455
2.441706
2.279069
2.118229
1.948703
1.783370
1.610849
1.443719
1.276889
1.115450
0.949817
0.789277
0.624543
0.474186
0.315443
0.169578
0.018622
-0.114962
-0.252440
-0.371348
-0.485464
-0.582207
-0.667570
-0.740652
-0.795763
-0.838894
-0.863155
-0.871242
-0.865851
-0.836499
-0.794568
-0.731371
-0.658589
-0.567836
-0.462108
-0.347993
-0.223695
-0.095503
0.040477
0.171364
0.306745
0.438531
0.573911
0.700905
0.819812
0.926738
1.025578
1.105248
1.177132
1.223556
1.263691
1.278366
1.284356
1.272974
1.246916
1.210974
1.164848
1.114529
1.057920
0.992925
0.929727
0.858442
0.797939
0.727852
0.667949
0.604451
0.551736
0.511301
0.475358
0.445706
0.427136
0.413058
0.418748
0.415453
0.430428
0.442109
0.468765
0.496919
0.535257
0.587971
0.637990
0.711670
0.772770
0.860228
0.944392
1.044429
1.145665
1.254388
1.362213
1.476628
1.587747
1.708451
1.818073
1.929493
2.030429
2.121780
2.201151
2.265547
2.315266
2.349410
2.368578
2.366481
2.346114
2.317060
2.265843
2.206838
2.137350
2.054983
1.964529
1.865389
1.769244
1.659022
1.551496
1.431689
1.314878
1.188782
1.062086
0.931797
0.794319
0.657440
0.520861
0.376194
0.240513
0.102137
-0.024558
-0.156645
-0.276751
-0.388471
-0.498693
-0.595436
-0.697571
-0.783233
-0.877281
-0.953359
-1.032431
-1.097426
-1.164219
-1.219929
-1.274441
-1.316374
-1.355311
-1.382268
-1.410423
-1.421805
-1.441873
-1.442173
-1.451159
-1.444271
-1.442773
-1.426001
-1.413122
-1.389761
-1.361008
-1.322371
-1.274149
-1.219638
-1.149851
-1.076471
-0.984520
-0.898260
-0.786242
-0.688900
-0.566099
-0.454381
-0.317203
-0.199195
-0.059921
0.066774
0.218627
0.358501
0.518741
0.664904
0.830834
0.979094
1.139334
1.278009
1.417583
1.546673
1.669174
1.783888
1.873443
1.959403
2.021402
2.078909
2.099874
2.114850
2.092984
2.069921
2.018105
1.960897
1.877931
1.802752
1.706308
1.620346
1.516414
1.426859
1.323825
1.240260
1.148608
1.067738
0.983874
0.915883
0.848791
0.790385
0.729284
0.680762
0.626549
0.582520
0.531902
0.478587
0.430065
0.372558
0.312056
0.238674
0.173679
0.102094
0.026316
-0.065036
-0.146804
-0.242350
-0.334302
-0.448417
-0.547857
-0.675451
-0.788668
-0.924049
-1.051344
-1.196609
-1.331391
-1.473961
-1.621023
-1.769284
-1.910655
-2.051128
-2.188007
-2.322190
-2.447987
-2.568992
-2.679813
-2.781948
-2.875397
-2.962856
-3.035638
-3.093445
-3.141368
-3.178209
-3.200374
-3.201273
-3.194384
-3.162636
-3.123999
-3.062300
-2.996107
-2.894872
-2.792438
-2.658555
-2.529764
-2.377611
-2.224559
-2.062222
-1.896591
-1.720177
-1.550352
-1.373340
-1.204713
-1.032193
-0.860871
-0.688350
-0.517028
-0.345107
-0.172886
-0.002762
0.170657
0.323708
0.489040
0.629512
0.779569
0.899374
1.026069
1.125507
1.224646
1.299525
1.365717
1.409446
1.443590
1.448082
1.445386
1.415434
1.380091
1.314796
1.245907
1.150362
1.032053
0.923927
0.800826
0.680420
0.551928
0.443803
0.328189
0.223059
0.119426
0.036760
-0.038119
-0.095028
-0.142352
-0.161821
-0.182787
-0.164817
-0.142653
-0.096828
-0.044713
0.027470
0.109237
0.192202
0.280259
0.377601
0.485726
0.589058
0.692690
0.789433
0.881683
0.952967
1.020058
1.055700
1.100926
1.127882
1.166819
1.187485
1.217735
1.241396
1.274343
1.313279
1.339336
1.372283
1.403432
1.433083
1.452252
1.472918
1.472318
