EVENT_NAME: 202302060117
EVENT_ID: 13194
EVENT_DATE_YYYYMMDD: 2023/02/06
EVENT_TIME_HHMMSS: 01:17:32.00000
EVENT_LATITUDE_DEGREE: 37.288
EVENT_LONGITUDE_DEGREE: 37.043
EVENT_DEPTH_KM: 8.6
HYPOCENTER_REFERENCE: AFAD
MAGNITUDE_W: 7.7
MAGNITUDE_W_REFERENCE: AFAD
MAGNITUDE_L: 
MAGNITUDE_L_REFERENCE: 
FOCAL_MECHANISM: 
NETWORK: TK
STATION_CODE: 99006
STATION_NAME: 
STATION_LATITUDE_DEGREE: 35.35109
STATION_LONGITUDE_DEGREE: 33.58497
STATION_ELEVATION_M: 15.0
LOCATION: Kahramanmaras_Pazarck_Turkiye
SENSOR_DEPTH_M: 
VS30_M/S: 679
SITE_CLASSIFICATION_EC8: B
MORPHOLOGIC_CLASSIFICATION: 
EPICENTRAL_DISTANCE_KM: 377.28
EARTHQUAKE_BACKAZIMUTH_DEGREE: 
DATE_TIME_FIRST_SAMPLE_YYYYMMDD_HHMMSS: 2023/02/06 01:18:00.1493580
DATE_TIME_FIRST_SAMPLE_PRECISION: millisecond
SAMPLING_INTERVAL_S: 0.01
NDATA: 21001
DURATION_S: 
STREAM: HNN
UNITS: cm/s^2
INSTRUMENT: sensor = CMG-5T/GURALP | digitizer = 
INSTRUMENT_ANALOG/DIGITAL: 
INSTRUMENTAL_FREQUENCY_HZ: 
INSTRUMENTAL_DAMPING: 
FULL_SCALE_G: 
N_BIT_DIGITAL_CONVERTER: 
PGA_CM/S^2: 7.301
TIME_PGA_S: 
BASELINE_CORRECTION: BASELINE REMOVED
FILTER_TYPE: BUTTERWORTH
FILTER_ORDER: 
LOW_CUT_FREQUENCY_HZ: 
HIGH_CUT_FREQUENCY_HZ: 
LATE/NORMAL_TRIGGERED: 
DATABASE_VERSION: 
HEADER_FORMAT: DYNA 1.2
DATA_TYPE: Acceleration
PROCESSING: Automatic Paolucci et al., 2011
DATA_TIMESTAMP_YYYYMMDD_HHMMSS: 
DATA_LICENSE: U (unknown license)
DATA_CITATION: Turkish Accelerometric Archive v 1.0 - Disaster And Emergency Management Presidency, Earthquake Department
DATA_CREATOR: AFAD
ORIGINAL_DATA_MEDIATOR_CITATION: : AFAD - Disaster And Emergency Management Presidency
ORIGINAL_DATA_MEDIATOR: AFAD PROCESS SERVICE
ORIGINAL_DATA_CREATOR_CITATION: AFAD PROCESS SERVICE
ORIGINAL_DATA_CREATOR: network: TK
USER1: GuestUser
USER2: 
USER3: 
USER4: 
USER5: 
[...]
-0.226276
0.140868
0.342001
0.497203
0.703439
0.763777
0.660806
0.456367
0.345291
0.401126
0.520304
0.702824
0.864330
1.048652
1.286709
1.562592
1.772731
1.963056
2.131467
2.177096
2.164185
1.971754
1.488728
0.922547
0.486053
0.170839
-0.007482
-0.009586
0.108692
0.272299
0.410390
0.451815
0.362654
0.246174
0.180127
0.054041
-0.346129
-0.938428
-1.594370
-2.158450
-2.456251
-2.609956
-2.827904
-3.058461
-3.214267
-3.336451
-3.403698
-3.265908
-2.985522
-2.769680
-2.604271
-2.299569
-1.948035
-1.626222
-1.259078
-0.855009
-0.365983
0.096925
0.313968
0.262031
0.254224
0.436444
0.668197
0.891245
1.085773
1.203750
1.131700
0.950676
0.802075
0.726122
0.807474
0.987293
1.063242
1.050931
1.060836
1.049126
0.984581
0.955159
1.026905
1.056623
1.019096
0.907719
0.748610
0.631830
0.486531
0.462212
0.510843
0.651335
0.966844
1.430053
1.754568
1.828115
1.622175
1.258630
0.936812
0.790612
0.796014
0.796912
0.823028
0.773793
0.755478
1.021154
1.344469
1.572019
1.715814
1.795965
1.705302
1.514373
1.450428
1.340252
1.300323
1.343550
1.370266
1.211157
1.029233
0.785168
0.448040
-0.040690
-0.623382
-1.177556
-1.586732
-1.841004
-2.003115
-2.117193
-2.285308
-2.410794
-2.387380
-2.316235
-2.204262
-2.011234
-1.767773
-1.639590
-1.584054
-1.698133
-1.984827
-2.297038
-2.535700
-2.559418
-2.552515
-2.581337
-2.610458
-2.509893
-2.318667
-2.026273
-1.693652
-1.496722
-1.309699
-1.108566
-0.940456
-0.801465
-0.730319
-0.566411
-0.564012
-0.727023
-0.789467
-0.587734
-0.384500
-0.347577
-0.300147
-0.209488
-0.032372
0.251316
0.538307
0.796778
0.997910
1.151611
1.107180
0.937864
0.969383
1.197234
1.321515
1.277984
1.204132
1.007799
0.610030
0.253389
0.014727
-0.279772
-0.507927
-0.632513
-0.811735
-0.987955
-1.102033
-1.215511
-1.238929
-1.132360
-0.997271
-0.970255
-0.963353
-0.913521
-0.711488
-0.355451
0.069932
0.434974
0.662224
0.685638
0.542740
0.412751
0.328092
0.309478
0.340397
0.513611
0.858239
1.228385
1.430119
1.572112
1.786453
1.936552
1.802360
1.407893
0.794881
0.147645
-0.345588
-0.699226
-0.942091
-1.067277
-1.089794
-1.070583
-0.952006
-0.867952
-0.822924
-0.634399
-0.303280
0.018534
0.234377
0.425002
0.696982
1.122966
1.567862
1.824232
1.833236
1.798110
1.935300
2.073691
2.162548
2.170351
2.109709
1.948198
1.850931
1.756366
1.601160
1.560330
1.635679
1.707425
1.761159
1.787274
1.688506
1.484968
1.114517
0.602072
-0.010941
-0.501171
-0.875224
-1.210551
-1.514957
-1.668061
-1.756923
-2.038213
-2.481913
-2.817840
-2.957135
-2.981153
-3.013877
-3.062812
-3.121053
-3.001875
-2.705278
-2.387668
-2.170624
-1.864121
-1.426430
-1.048479
-0.612288
-0.196212
0.067063
0.259189
0.582504
0.910021
1.172395
1.358518
1.440771
1.463884
1.606178
1.796503
1.913279
1.838527
1.554535
1.248328
0.954429
0.694753
0.490013
0.296982
0.198514
0.029499
-0.318136
-0.705998
-1.041925
-1.272782
-1.365546
-1.472420
-1.548373
-1.397674
-1.065353
-0.758850
-0.418724
-0.072294
0.233909
0.476170
0.627169
0.630769
0.513388
0.294540
-0.039286
-0.288455
-0.446063
-0.546032
-0.635494
-0.702140
-0.743270
-0.822525
-0.804815
-0.593776
-0.344311
-0.231137
-0.270766
-0.451188
-0.564066
-0.547557
-0.570374
-0.628916
-0.655335
-0.605804
-0.570383
-0.613313
-0.672455
-0.563184
-0.328729
-0.104180
0.148587
0.429273
0.750186
1.008657
1.150350
1.235305
1.159352
0.755579
0.219118
-0.234488
-0.596232
-0.758943
-0.732228
-0.820189
-1.013820
-1.092175
-1.100282
-1.169030
-1.153122
-0.955892
-0.518801
-0.003658
0.360184
0.584732
0.683496
0.872321
0.999304
1.052137
1.031421
0.938957
0.670876
0.469139
0.403993
0.268600
0.102587
0.026634
0.023930
-0.053524
-0.046321
-0.019905
-0.043623
0.066548
0.266180
0.283890
0.163507
0.195327
0.241556
0.182414
0.191118
0.155392
0.056924
-0.174533
-0.491848
-0.873106
-1.168505
-1.294892
-1.355235
-1.313509
-1.100968
-0.847901
-0.791165
-0.823889
-0.729328
-0.557915
-0.458850
-0.399413
-0.353184
-0.442646
-0.648886
-0.842217
-0.915168
-0.744656
-0.373610
-0.036486
0.209077
0.511077
0.529988
0.367277
0.400297
0.507466
0.293721
-0.025395
-0.285671
-0.528236
-0.673235
-0.661229
-0.530343
-0.373640
-0.256864
-0.161402
-0.038922
0.152904
0.465112
0.860775
1.280454
1.530519
1.624180
1.719642
1.823510
1.863734
1.982612
2.154325
2.245884
2.118297
1.878734
1.541006
1.159749
0.844836
0.659910
0.446765
0.193393
0.071809
-0.077092
-0.278229
-0.354783
-0.313657
-0.229603
-0.072600
0.058887
0.099412
0.042371
-0.157565
-0.442157
-0.885556
-1.268915
-1.489865
-1.496472
-1.500677
-1.611753
-1.673296
-1.638775
-1.471565
-1.254822
-0.925804
-0.687746
-0.609696
-0.676043
-0.739987
-0.681150
-0.527149
-0.341627
-0.291495
-0.302004
-0.089464
0.273778
0.537052
0.691653
0.751692
0.748688
0.818032
0.991246
1.137742
1.179768
1.218492
1.360785
1.461051
1.443337
1.357477
1.284826
1.250601
1.286323
1.334954
1.321443
1.159933
0.791584
0.401320
0.201384
0.156652
0.089105
-0.052292
-0.139052
-0.187687
-0.270244
-0.374716
-0.532924
-0.604074
-0.604376
-0.635299
-0.722960
-0.828032
-0.926800
-0.862559
-0.632007
-0.405657
-0.242050
-0.188616
-0.138784
-0.086551
-0.076347
-0.171212
-0.228853
-0.247768
-0.229758
-0.201241
-0.198841
-0.143906
-0.158018
-0.172129
-0.099483
0.034705
0.153883
0.276964
0.486202
0.674426
0.900775
1.148139
1.199772
1.064079
1.025651
1.020846
0.992925
1.049661
0.911566
0.634779
0.416531
0.225000
-0.019666
-0.251123
-0.508397
-0.878247
-1.190759
-1.425518
-1.620651
-1.709812
-1.699608
-1.784567
-1.993809
-2.186840
-2.284107
-2.167031
-1.832909
-1.452256
-1.089915
-0.759096
-0.542052
-0.377244
-0.164704
0.190132
0.563280
0.816948
0.878187
0.876384
0.959838
1.030383
1.095524
1.243822
1.375608
1.450656
1.580641
1.742448
1.936376
1.940877
1.661687
1.335367
1.099707
0.864047
0.661109
0.587257
0.619977
0.580349
0.400826
0.235414
0.148954
0.140846
0.178069
0.243811
0.290040
0.432333
0.571625
0.603144
0.557811
0.607943
0.786861
1.142297
1.601302
2.102036
2.428652
2.534021
2.556834
2.319373
1.946521
1.509426
0.975967
0.391473
-0.189718
-0.708168
-1.057003
-1.261442
-1.402539
-1.431060
-1.322689
-1.207414
-1.221526
-1.440374
-1.642412
-1.598585
-1.365330
-1.027006
-0.622937
-0.282811
-0.127909
-0.052261
-0.012636
-0.046561
-0.199065
-0.467447
-0.853508
-1.126092
-1.111385
-0.971193
-0.907552
-1.056154
-1.288812
-1.538881
-1.849291
-2.394458
-2.903301
-3.104138
-2.960644
-2.652039
-2.373455
-2.148606
-1.930662
-1.727128
-1.608850
-1.527798
-1.304751
-1.060089
-0.986542
-1.003055
-1.045085
-1.073906
-0.953828
-0.575576
-0.105464
0.215149
0.354140
0.455906
0.635425
0.867778
0.922113
0.668141
0.273374
0.039215
0.035611
0.080939
0.143679
0.228033
0.221127
0.170091
0.184798
0.244536
0.244234
0.240630
0.212108
0.119344
0.171877
0.305465
0.395223
0.649792
1.064367
1.358562
1.453424
1.489146
1.521265
1.526667
1.371761
1.061051
0.799874
0.641666
0.555206
0.350767
-0.019683
-0.391635
-0.695440
-0.977631
-1.256821
-1.434542
-1.586746
-1.783379
-1.913369
-1.747059
-1.433351
-0.990857
-0.536954
-0.098963
0.434192
0.783024
0.823249
0.583986
0.483717
0.575877
0.813634
0.930110
0.914197
0.968532
0.926802
0.828334
0.760186
0.693840
0.573457
0.551540
0.538930
0.520916
0.620280
0.825916
1.171746
1.618443
1.980183
2.157000
2.269873
2.272273
2.084045
1.834876
1.741511
1.754718
1.807551
1.924327
2.124860
2.313684
2.434663
2.531926
2.689230
2.806006
2.674516
2.378515
1.811734
1.080442
0.352452
-0.162695
-0.533446
-0.806931
-1.148562
-1.465276
-1.540028
-1.499503
-1.307977
-1.129359
-0.924024
-0.718688
-0.411585
-0.235369
-0.251882
-0.273198
-0.308324
-0.423903
-0.554493
-0.578511
-0.506765
-0.378581
-0.336855
-0.442528
-0.405605
-0.183458
0.008969
0.082816
0.147357
0.366502
0.459262
0.239813
-0.167562
-0.618466
-1.103893
-1.556899
-1.908436
-2.042928
-2.048935
-2.023720
-1.989499
-1.923156
-1.754445
-1.420924
-1.080798
-0.836136
-0.647612
-0.369328
-0.115960
0.006520
-0.017798
-0.158594
-0.283180
-0.390654
-0.490923
-0.599898
-0.690561
-0.868883
-1.135463
-1.419155
-1.561753
-1.515224
-1.310789
-1.046013
-0.728403
-0.430005
-0.187745
0.035003
0.122960
0.194706
0.266752
0.243334
0.157775
0.086625
-0.208175
-0.678292
-1.203946
-1.627832
-1.900717
-2.072134
-2.138480
-2.151391
-2.100058
-2.129780
-2.189522
-2.169711
-2.054736
-2.007607
-2.155908
-2.351041
-2.415886
-2.433900
-2.492141
-2.471129
-2.382572
-2.288311
-2.059560
-1.771069
-1.523104
-1.248422
-0.971039
-0.781914
-0.602996
-0.321409
0.058943
0.432692
0.747901
0.988360
1.093128
1.109637
1.125246
1.004262
0.651224
0.329706
0.087442
-0.205556
-0.467034
-0.663367
-0.768440
-0.700596
-0.375480
-0.125415
-0.046764
-0.045265
0.005167
0.167273
0.428446
0.737951
0.979011
1.070270
0.987112
0.843914
0.737641
0.669493
0.686002
0.636167
0.261514
-0.382119
-0.957007
-1.288431
-1.429527
-1.289636
-0.981031
-0.751979
-0.550547
-0.419661
-0.401951
-0.384842
-0.223636
-0.072336
0.079263
0.292104
0.369253
0.359945
0.338629
0.400768
0.466811
0.459904
0.236853
-0.050142
-0.213453
-0.217058
-0.103284
-0.050750
-0.045349
-0.015631
0.034801
0.123959
0.252443
0.256944
0.128756
-0.006637
-0.133324
-0.242599
-0.331761
-0.402010
-0.443740
-0.564723
-0.883539
-1.311328
-1.681478
-1.935750
-2.200229
-2.530753
-2.937227
-3.172287
-3.189400
-3.144372
-2.984367
-2.631632
-2.088270
-1.589338
-1.230000
-0.927399
-0.589374
-0.361524
-0.228236
0.017026
0.302215
0.515055
0.625527
0.745005
0.826958
0.810145
0.669048
0.536658
0.453200
0.429182
0.488920
0.556763
0.602992
0.503623
0.202219
-0.173635
-0.423704
-0.657863
-1.130081
-1.664442
-2.049602
-2.332093
-2.658714
-2.961619
-3.189774
-3.329669
-3.314361
-3.070300
-2.584276
-1.974870
-1.390080
-0.842815
-0.283243
0.313255
0.981501
1.594509
2.085336
2.509518
2.872159
3.047775
2.978426
2.882060
2.968216
3.217080
3.312842
3.096996
2.733150
2.360298
2.054091
1.640111
1.236639
0.980265
0.810650
0.670153
0.606509
0.790530
1.093131
1.332689
1.447664
1.428149
1.330582
1.316770
1.369003
1.257326
1.045082
0.835840
0.641608
0.545241
0.656614
0.911783
1.079893
1.093100
0.972117
0.785990
0.595661
0.471075
0.427844
0.437749
0.548821
0.683609
0.662593
0.603151
0.682703
0.882635
1.129998
1.403780
1.691070
1.884698
1.937831
1.878690
1.745398
1.571280
1.446694
1.316105
1.152193
1.070236
1.124570
1.264762
1.328403
1.319695
1.252448
1.047108
0.673956
0.136294
-0.517246
-1.137464
-1.663718
-2.161454
-2.564926
-2.869932
-3.201657
-3.514468
-3.557699
-3.322344
-3.050964
-2.918277
-2.949500
-3.045566
-3.213081
-3.498874
-3.866322
-4.186339
-4.361658
-4.380273
-4.336145
-4.342151
-4.234381
-3.835716
-3.362001
-3.084017
-2.848961
-2.603999
-2.392059
-2.245263
-2.018013
-1.564111
-0.927986
-0.270248
0.322347
0.893328
1.325015
1.604500
1.765106
2.022376
2.502095
3.196459
3.825678
4.206031
4.486117
4.809431
5.032479
5.038781
4.898285
4.658122
4.462989
4.230931
3.769820
2.962878
1.952999
0.879178
-0.031034
-0.653353
-1.115365
-1.582180
-2.003064
-2.295762
-2.373516
-2.298468
-2.075721
-1.650037
-1.127990
-0.562713
0.037987
0.648895
1.076379
1.288319
1.386183
1.423105
1.471135
1.426403
1.167028
0.717024
0.186266
-0.324077
-0.778284
-1.147233
-1.478957
-1.774357
-1.963486
-2.014222
-1.996512
-2.003119
-1.935876
-1.778873
-1.741049
-1.750057
-1.800493
-1.824812
-1.792092
-1.813108
-1.912476
-1.977922
-1.953308
-1.944004
-1.881864
-1.614387
-1.171292
-0.699078
-0.204348
0.349821
0.896785
1.429340
1.908459
2.373769
2.821067
3.106556
3.070530
2.739106
2.320623
2.009012
1.821985
1.720815
1.649966
1.553599
1.365371
1.138117
0.918668
0.674002
0.553619
0.580335
0.717825
0.827997
0.824692
0.614249
0.320651
0.016545
-0.349703
-0.665216
-0.844138
-0.925495
-1.026064
-1.241911
-1.535509
-1.723137
-1.830011
-1.886751
-1.867240
-1.757668
-1.596162
-1.419346
-1.250635
-1.260243
-1.515716
-1.982231
-2.385703
-2.648081
-2.888845
-3.092383
-3.264700
-3.376077
-3.422911
-3.367976
-3.211273
-2.932988
-2.536125
-2.016779
-1.461409
-0.989194
-0.702204
-0.515781
-0.318851
-0.148639
-0.072991
-0.066989
0.009561
0.063595
0.038976
-0.132441
-0.382510
-0.609764
-0.738853
-0.839723
-0.846929
-0.722048
-0.459374
-0.234225
-0.046601
0.228081
0.533984
0.838986
1.116670
1.264367
1.237347
1.003188
0.529168
0.134402
0.012518
-0.091654
-0.417975
-0.767111
-0.931323
-0.776721
-0.426689
0.047327
0.742891
1.530316
2.188656
2.803165
3.263672
3.478614
3.463602
3.226140
2.810360
2.430904
2.223763
2.114187
2.151110
2.323724
2.491534
2.503240
2.461810
2.308405
1.978182
1.516771
0.996820
0.433641
-0.058391
-0.365198
-0.662700
-0.982716
-1.244193
-1.513476
-1.766848
-1.905242
-1.925658
-1.892338
-1.805282
-1.512587
-1.046978
-0.622795
-0.226532
0.428205
1.293382
1.945117
2.339279
2.585442
2.711524
2.781769
2.922261
3.041139
2.921657
2.701608
2.334460
1.750866
1.137253
0.638317
0.173604
-0.299515
-0.654355
-0.800855
-0.699690
-0.481746
-0.087884
0.383730
0.670720
0.587863
0.142362
-0.536695
-1.351443
-2.253249
-3.290446
-4.362166
-5.405067
-6.177486
-6.618184
-6.934297
-7.250111
-7.300847
-7.049881
-6.642810
-6.160089
-5.505052
-4.804385
-4.188674
-3.550148
-2.919428
-2.438207
-1.968094
-1.403718
-0.861257
-0.356021
0.202952
0.722898
1.144679
1.410055
1.502515
1.577863
1.800910
2.144338
2.369187
2.431627
2.385394
2.308240
2.238591
2.326548
2.526180
2.820675
3.056631
3.228344
3.448690
3.834747
3.962930
3.761493
3.540543
3.263155
2.710783
1.986996
1.373984
0.957603
0.597059
0.214901
-0.174762
-0.583338
-1.038145
-1.492651
-1.984083
-2.573980
-2.950734
-3.006574
-2.913814
-2.643635
-2.177424
-1.616050
-0.963115
-0.342001
0.023942
0.253894
0.675375
1.191118
1.557662
1.674438
1.804423
1.994148
2.206088
2.532405
3.083872
3.764726
4.339609
4.718761
4.873963
4.826530
4.719656
4.501708
4.293066
4.069414
3.747897
3.217139
2.680978
1.958091
1.041275
0.185099
-0.512870
-1.107571
-1.614913
-1.756309
-1.794137
-1.868589
-1.921126
-1.832869
-1.578000
-1.268195
-0.968296
-0.696015
-0.516197
-0.477773
-0.482879
-0.505096
-0.469073
-0.378715
-0.518311
-0.942497
-1.506577
-2.023225
-2.515857
-2.900117
-2.944248
-2.682175
-2.285311
-1.803190
-1.207293
-0.833244
-0.714366
-0.488017
0.028027
0.755112
1.509215
2.237501
2.767054
2.922856
2.789865
2.488461
2.094295
1.800096
1.614570
1.302659
0.874870
0.335106
-0.287813
-0.830579
-1.133784
-1.337623
-1.647132
-1.915814
-2.128659
-2.355313
-2.533334
-2.561255
-2.534239
-2.417162
-2.182407
-1.925437
-1.742016
-1.463131
-1.158729
-1.079778
-0.993322
-0.848928
-0.918877
-1.145531
-1.268915
-1.499772
-1.640869
-1.518088
-1.264721
-0.932100
-0.501013
-0.138672
-0.000582
0.165127
0.440710
0.611822
0.624429
0.832466
0.828862
0.537364
0.471018
0.463211
0.375550
0.536155
0.794026
0.679047
0.494121
0.471904
0.352422
0.069931
-0.302321
-0.856194
-1.458099
-2.146462
-2.952504
-3.728226
-4.275195
-4.496145
-4.555587
-4.577203
-4.524370
-4.242183
-3.739648
-2.988847
-2.214030
-1.537379
-1.052856
-0.865833
-1.003027
-1.326946
-1.587522
-1.663475
-1.605539
-1.429623
-1.155241
-0.892567
-0.691434
-0.512817
-0.225526
0.131411
0.549289
0.904125
1.151188
1.195616
1.028102
0.833269
0.795742
0.980063
1.181496
1.293469
1.442067
1.748570
2.105507
2.309041
2.393696
2.594228
2.762939
2.644658
2.375976
2.046653
1.608358
1.143044
0.867157
0.757582
0.661815
0.474488
0.109441
-0.217780
-0.341165
-0.397004
-0.423124
-0.255614
-0.033767
0.018766
-0.030169
-0.064394
-0.263429
-0.493085
-0.622774
-0.711635
-0.769576
-0.974616
-1.404206
-1.889333
-2.212051
-2.425796
-2.614925
-2.526668
-2.005821
-1.209689
-0.408755
0.235475
0.791445
1.241745
1.586374
1.848147
2.108419
2.333268
2.431432
2.425426
2.367785
2.279824
2.188861
2.089192
1.789590
1.307765
0.836147
0.402054
0.103051
0.027399
0.067624
0.060717
0.213817
0.411948
0.465682
0.543432
0.799502
1.133323
1.474350
1.818078
2.090358
2.291791
2.392957
2.465904
2.495322
2.502524
2.368633
2.006288
1.531968
1.146508
0.855010
0.498069
-0.030287
-0.527122
-0.839333
-0.916787
-0.977430
-1.151248
-1.416628
-1.664596
-1.803291
-1.902660
-1.929380
-1.809601
-1.535520
-1.353600
-1.256637
-1.142863
-1.027888
-0.924921
-0.628925
-0.169319
0.300794
0.556564
0.545154
0.490515
0.516631
0.481805
0.326299
0.136870
0.066621
0.184298
0.431962
0.801507
1.343368
1.962681
2.515650
2.790632
2.813145
2.688860
2.537556
2.483218
2.683150
3.000460
3.365803
3.790586
4.094687
4.334846
4.488247
4.651254
4.596916
4.487941
4.387071
4.082065
3.578925
2.977921
2.375115
1.711968
1.053625
0.448118
-0.061326
-0.464798
-0.724474
-0.902796
-1.097928
-1.288558
-1.478888
-1.533226
-1.481594
-1.286465
-1.106646
-1.000978
-1.000680
-1.067927
-1.210224
-1.405057
-1.525740
-1.607396
-1.731381
-1.869776
-1.798330
-1.586691
-1.287092
-0.957173
-0.539895
-0.098301
0.181184
0.317173
0.524910
0.673207
0.676808
0.652489
0.690012
0.673800
0.605952
0.606250
0.675595
0.772858
0.867419
0.914849
0.800470
0.653670
0.727217
0.951465
1.342025
1.910003
2.362104
2.529915
2.537117
2.623573
2.722337
2.645184
2.422132
2.157653
1.861953
1.549742
1.209312
0.916914
0.815444
0.826549
0.865273
1.007566
1.235417
1.562934
1.772473
1.751456
1.652688
1.747250
1.774866
1.736738
1.750245
1.789270
1.806979
1.781160
1.704006
1.541595
1.506770
1.431718
1.237486
0.953493
0.794685
0.758058
0.837910
0.977201
1.106285
1.100880
1.002112
0.856512
0.667984
0.386093
-0.028487
-0.361412
-0.478192
-0.604279
-0.813521
-1.005952
-1.224501
-1.361695
-1.340983
-1.259930
-1.226010
-1.352697
-1.555635
-1.696731
-1.672117
-1.470083
-1.063613
-0.557476
0.016206
0.465305
0.597392
0.519938
0.262663
-0.108087
-0.456923
-0.564997
-0.678175
-0.888618
-1.221243
-1.524148
-1.800936
-2.147670
-2.556546
-3.012854
-3.403418
-3.558624
-3.467965
-3.274938
-2.972337
-2.597988
-2.170804
-1.688983
-1.134514
-0.641886
-0.294255
-0.238720
-0.261237
-0.251032
-0.274149
-0.150168
0.057569
0.087587
-0.113550
-0.267555
-0.502615
-0.834939
-1.167865
-1.528108
-1.911167
-2.193058
-2.437423
-2.518780
-2.441630
-2.191865
-1.840331
-1.587864
-1.454877
-1.357314
-1.325495
-1.364223
-1.405352
-1.313493
-0.903720
-0.263994
0.254452
0.645612
0.981835
1.285036
1.508684
1.640770
1.654277
1.650673
1.723320
1.711310
1.702902
1.831086
2.251065
2.878784
3.710939
4.385189
4.761339
4.906034
4.926445
4.661666
4.077172
3.484573
2.974229
2.463885
1.857177
1.167913
0.557902
0.058966
-0.485601
-1.087807
-1.534508
-1.812196
-2.118703
-2.321041
-2.195859
-1.882151
-1.571145
-1.230118
-0.855769
-0.490727
-0.001401
0.441994
0.745795
0.929216
0.902797
0.604995
0.354925
0.219833
0.086241
-0.082174
-0.133810
0.092539
0.468689
0.699842
0.832229
0.960113
