EVENT_NAME: 202302060117
EVENT_ID: 13194
EVENT_DATE_YYYYMMDD: 2023/02/06
EVENT_TIME_HHMMSS: 01:17:32.00000
EVENT_LATITUDE_DEGREE: 37.288
EVENT_LONGITUDE_DEGREE: 37.043
EVENT_DEPTH_KM: 8.6
HYPOCENTER_REFERENCE: AFAD
MAGNITUDE_W: 7.7
MAGNITUDE_W_REFERENCE: AFAD
MAGNITUDE_L: 
MAGNITUDE_L_REFERENCE: 
FOCAL_MECHANISM: 
NETWORK: TK
STATION_CODE: 3132
STATION_NAME: 
STATION_LATITUDE_DEGREE: 36.20673
STATION_LONGITUDE_DEGREE: 36.17159
STATION_ELEVATION_M: 104.0
LOCATION: Kahramanmaras_Pazarck_Turkiye
SENSOR_DEPTH_M: 
VS30_M/S: 377
SITE_CLASSIFICATION_EC8: B
MORPHOLOGIC_CLASSIFICATION: 
EPICENTRAL_DISTANCE_KM: 143.12
EARTHQUAKE_BACKAZIMUTH_DEGREE: 
DATE_TIME_FIRST_SAMPLE_YYYYMMDD_HHMMSS: 2023/02/06 01:17:36.7032280
DATE_TIME_FIRST_SAMPLE_PRECISION: millisecond
SAMPLING_INTERVAL_S: 0.01
NDATA: 12501
DURATION_S: 
STREAM: HNN
UNITS: cm/s^2
INSTRUMENT: sensor = GMS+/GEOSIG | digitizer = 
INSTRUMENT_ANALOG/DIGITAL: 
INSTRUMENTAL_FREQUENCY_HZ: 
INSTRUMENTAL_DAMPING: 
FULL_SCALE_G: 
N_BIT_DIGITAL_CONVERTER: 
PGA_CM/S^2: 515.309
TIME_PGA_S: 
BASELINE_CORRECTION: BASELINE REMOVED
FILTER_TYPE: BUTTERWORTH
FILTER_ORDER: 
LOW_CUT_FREQUENCY_HZ: 
HIGH_CUT_FREQUENCY_HZ: 
LATE/NORMAL_TRIGGERED: 
DATABASE_VERSION: 
HEADER_FORMAT: DYNA 1.2
DATA_TYPE: Acceleration
PROCESSING: Automatic Paolucci et al., 2011
DATA_TIMESTAMP_YYYYMMDD_HHMMSS: 
DATA_LICENSE: U (unknown license)
DATA_CITATION: Turkish Accelerometric Archive v 1.0 - Disaster And Emergency Management Presidency, Earthquake Department
DATA_CREATOR: AFAD
ORIGINAL_DATA_MEDIATOR_CITATION: : AFAD - Disaster And Emergency Management Presidency
ORIGINAL_DATA_MEDIATOR: AFAD PROCESS SERVICE
ORIGINAL_DATA_CREATOR_CITATION: AFAD PROCESS SERVICE
ORIGINAL_DATA_CREATOR: network: TK
USER1: GuestUser
USER2: 
USER3: 
USER4: 
USER5: 
[...]
-2.782474
-3.425603
-1.405072
-0.428808
-0.132357
1.786085
4.578646
6.686200
10.345866
17.634751
23.476728
21.124845
14.287030
12.140883
13.375097
11.971887
7.736427
-0.811960
-9.097461
-14.542141
-21.795325
-23.711577
-22.203308
-23.474296
-26.213233
-32.089127
-33.545330
-32.491656
-33.693026
-29.519279
-19.582320
-11.651030
-14.044216
-21.440791
-24.841617
-22.349607
-13.817474
-4.437717
3.138470
6.295486
1.564389
-2.990326
4.264529
16.535502
19.030629
18.077077
24.757325
33.909005
33.202233
25.091295
24.298280
23.092753
13.471265
3.868740
0.250749
6.240274
5.379719
-7.450942
-13.778053
-13.034801
-9.753357
-9.678487
-9.925730
-0.142814
6.428851
0.598416
-2.215854
9.731709
24.808175
27.009505
24.302260
26.897657
23.003792
8.524124
-7.947703
-20.459110
-20.450741
-8.209381
1.537687
-2.597503
-8.607437
-6.145041
-5.921325
-12.594706
-20.115711
-19.283618
-11.300374
-8.925780
-10.196508
-2.483163
7.042583
3.387964
-3.765729
2.961797
16.339122
19.364176
20.164057
30.014773
34.942107
23.458602
9.424696
12.964870
26.988497
28.418316
15.229175
7.266565
16.341614
25.667598
19.535832
11.680247
9.570727
6.372781
4.977883
1.094149
-8.815422
-19.912392
-30.686730
-38.804161
-44.787600
-41.342761
-28.376909
-23.375021
-25.099564
-17.680017
-5.009520
-9.487863
-25.712392
-27.250941
-22.703388
-29.159604
-34.598828
-21.065643
0.515153
7.154098
3.471424
-2.074045
-9.260988
-16.174655
-20.313741
-20.565920
-16.933269
-3.168890
11.974597
15.747522
11.926652
7.377133
6.797907
-0.857658
-13.436863
-4.902132
13.721725
19.967641
18.281804
16.748969
25.165766
25.284796
2.847138
-9.974172
-5.900695
-3.636761
-5.804208
-11.626331
-11.999561
-0.235135
6.533953
-1.066021
-6.646039
-1.436597
9.794785
17.006258
10.044014
-0.443540
4.497562
20.754154
26.530410
21.550975
27.332686
35.923007
24.570945
16.104645
32.506968
48.117257
43.625926
29.757492
26.413816
24.774477
8.541895
-3.108381
3.802022
18.362590
19.759158
7.386988
-1.371292
-6.159278
-11.753324
-20.272876
-23.468226
-8.639058
8.899749
5.313449
-10.618581
-7.049054
10.348180
9.173825
2.626171
4.959463
2.290403
-5.383345
-17.185325
-32.921230
-41.565471
-34.998222
-27.070569
-26.898027
-24.673058
-18.170492
-10.017359
-11.252500
-13.429818
0.917999
13.395748
12.939132
12.711891
15.193510
9.981063
-1.726101
-2.817330
11.761161
22.245451
22.511509
21.606015
16.745293
14.293660
14.638168
11.222276
10.499138
15.479465
21.215197
17.039224
6.677397
2.569743
-1.572980
-10.102923
-10.327826
0.504813
3.538439
-8.666182
-17.545772
-14.865171
-14.998895
-25.973515
-31.120500
-17.381319
-0.368282
9.580626
12.287464
9.952466
9.525204
4.973607
-3.980538
-9.839287
-9.824684
-6.854182
-10.131098
-13.068757
-9.810692
-6.822006
-8.388091
-16.373560
-22.509482
-24.435346
-25.480336
-23.686842
-24.120338
-28.682327
-33.958677
-36.923871
-27.826743
-8.709066
1.330760
2.217405
1.565703
-4.566323
-11.972770
-17.079491
-21.146102
-24.701229
-25.617894
-13.667734
6.597337
13.682044
4.961950
-4.326775
-8.041660
-11.592891
-14.559644
-15.738155
-16.583384
-7.771481
0.713375
-2.818114
-5.351054
-6.478651
-6.579385
-7.180691
-5.776070
10.716651
23.909022
21.227493
23.335047
33.085492
29.852217
16.261475
13.645148
22.678374
29.020404
25.336172
23.403295
22.407920
12.175978
2.836858
1.081402
6.079393
7.980950
7.022463
5.958769
-7.192965
-16.499614
-10.356047
-6.185157
-7.498487
-0.144141
20.287181
34.596034
30.662684
24.319987
34.826876
45.195569
27.364376
5.842140
4.195787
5.023723
-3.867817
-17.656502
-19.076078
-4.147678
9.889197
9.510512
-0.576480
-7.421309
-6.269702
-0.281216
0.850389
4.446153
19.989683
34.392052
31.681689
9.627189
-9.053965
-16.069201
-25.112966
-36.567116
-40.189004
-27.981414
-18.068095
-20.604672
-15.875022
-0.975976
8.930329
7.256181
2.809011
5.953298
13.383755
13.749825
10.299124
8.273250
4.529790
7.005954
12.577253
18.415074
28.893388
36.249553
34.461366
22.845900
24.851884
34.982369
19.820811
-4.319886
-15.215795
-16.421582
-21.086958
-23.198815
-17.653752
-15.590100
-19.410970
-22.807899
-9.603060
4.152487
4.864307
5.056332
-0.692536
-13.369155
-11.563452
3.745767
-1.097810
-17.315844
-15.604957
-6.083886
-7.906102
-7.035304
6.716346
8.647777
-5.839684
-15.079833
-9.044588
-2.796334
4.422153
17.584390
17.168038
8.424566
6.395315
8.509622
8.250949
0.801381
-7.593223
0.706678
22.784929
35.505561
32.967424
21.592503
19.342449
27.968619
18.246860
-7.329054
-20.163352
-20.079650
-22.951588
-26.306175
-19.971678
2.186062
22.757660
13.312814
-5.822934
-9.578343
-6.389376
-6.755852
-14.373490
-21.008946
-18.693578
-5.591607
7.749869
7.882927
-0.134494
-9.046296
-12.161377
-11.261225
-13.820403
-13.496416
-13.052676
-12.569192
-4.621796
0.215658
9.298240
23.026252
23.001110
25.163475
28.079166
19.329979
11.172023
5.943990
8.508475
22.940198
39.872706
51.428279
56.078700
42.991908
14.725578
-6.502861
-15.950304
-15.304985
-9.608738
-3.585183
-2.577747
-10.695438
-18.732342
-20.856928
-16.349119
-11.331126
-5.191455
1.595038
-5.691915
-16.064652
-14.965258
-7.362834
1.093967
1.611481
8.604489
24.288034
22.503744
13.815342
13.791500
21.371065
30.249469
32.327928
36.676239
32.526503
15.821144
7.827102
5.652121
1.187286
-4.816674
-1.984368
12.085238
20.237331
19.817083
14.829855
9.647801
9.087277
4.359038
-6.198394
-12.963474
-13.720901
-8.174800
0.074966
8.511505
15.782725
13.251083
10.703855
18.801916
27.235857
24.267805
11.148023
0.517077
-4.630688
-7.980859
-9.413423
-9.380117
-7.720663
-4.859004
-11.663828
-25.154559
-29.431062
-33.921355
-45.951671
-52.533095
-52.485501
-54.079121
-47.256260
-25.065529
-5.378961
-11.273299
-35.785204
-37.127369
-15.894662
-11.084223
-17.278333
-12.190982
-3.281925
-1.960690
-5.397623
-10.246395
-9.927603
-3.880150
-0.443624
-6.680336
-15.653963
4.042476
29.667599
23.413742
13.654058
26.661214
50.213128
51.684250
44.409246
47.088548
35.541401
14.951212
8.915301
22.692149
36.188188
37.013007
38.300733
45.944720
53.647674
46.545155
27.814126
13.136255
-0.106138
-1.204900
11.458842
17.847631
10.229733
-10.949090
-22.255952
-17.952581
-15.904254
-21.350233
-21.086512
1.468154
6.200402
-18.532825
-14.039044
13.168065
9.066646
-19.374249
-29.905964
-26.111218
-44.772889
-57.054141
-35.407364
-30.105964
-37.678663
-28.669076
-10.678792
4.082836
-2.353378
1.713086
20.725816
1.109497
-17.343840
0.446162
1.753630
-17.089100
-28.517273
-18.782674
-9.165230
-20.028149
-17.013746
-2.857117
-1.679793
-6.448297
-7.860599
-2.761818
6.201790
13.669135
14.985695
12.268319
11.297103
2.229700
-20.990899
-34.190430
-23.732118
-4.176472
-2.615211
-9.578234
9.130827
34.193293
44.373394
42.681841
40.410227
60.991696
73.471263
43.915704
19.730847
37.053267
57.959445
36.828680
-3.518678
-7.393839
18.561968
14.803442
-31.296736
-50.784729
-16.625191
15.121622
25.617601
30.554027
30.288601
36.639982
50.114460
53.794649
37.298403
23.007067
39.351721
27.640400
-24.250525
-22.716279
10.295344
5.902725
-20.509902
-43.274348
-26.408860
6.047900
11.690115
8.499442
-15.521762
-23.110306
2.008010
-1.266828
-21.380862
-52.060177
-66.639076
-30.884044
-9.189210
-15.579445
-12.944043
-2.548074
5.005773
-3.867583
-20.858687
-28.705960
-16.594225
-4.930589
-27.278627
-36.000798
-19.135570
-26.436031
-39.686737
-45.283121
-45.784157
-55.505916
-88.870971
-84.733332
-35.421271
1.782228
9.285161
-1.055625
7.770826
22.216836
0.096874
-38.681225
-43.867436
-2.989780
25.286794
3.241905
-22.702360
-8.729127
29.979726
45.591835
22.937011
8.290832
5.749838
-0.574676
-5.806605
-33.282722
-47.151935
-41.046813
-40.948045
-23.515224
4.767585
13.787043
-23.288797
-45.610859
-38.400944
-30.716693
2.335455
-10.862258
-36.818733
-8.681914
-14.373633
-21.903210
-14.253248
-20.096671
9.263135
-8.853024
-50.810683
-30.560678
-3.668667
19.329163
6.157426
-32.742245
-41.400513
-0.556367
32.358103
-0.360650
-9.381814
22.759068
54.979178
61.089495
32.270638
48.593991
93.901989
68.243988
2.601729
2.446184
55.653725
87.070373
78.612906
48.373637
48.561506
88.257997
145.826781
153.211780
69.783471
48.062772
84.343055
99.821124
130.655113
99.956575
29.013232
16.627813
27.262248
8.053506
-4.615320
-18.623509
-48.940447
-44.697602
-47.442254
-57.243501
-66.878237
-97.452346
-102.234617
-87.798738
-76.543717
-62.994686
-55.124181
-88.148161
-129.395875
-125.753353
-109.185558
-58.394119
19.398637
42.806381
10.792898
-44.272651
-53.601380
-43.601038
-114.367479
-161.073696
-155.636957
-108.973490
-15.813123
-48.346402
-113.779548
-93.093133
-113.282240
-135.453635
-151.492690
-201.122075
-175.252251
-98.542207
-48.709312
-50.409957
-80.439852
-36.362634
10.130165
4.672757
-9.719109
-36.955460
-44.291769
-4.564885
72.531953
53.463225
-44.362202
-42.507403
0.170965
18.371141
9.999916
-18.793744
23.498349
71.026583
45.462878
32.973812
96.391271
130.213370
25.856339
-2.319852
74.913364
116.538372
195.601134
155.343396
52.436389
125.002095
189.306662
147.108717
115.054451
126.403248
134.272194
137.058781
153.060021
162.848133
144.464673
129.249862
160.758468
121.644229
53.135691
86.566580
113.651858
103.615780
115.072121
124.394209
159.770240
229.472265
219.549966
176.890674
204.297285
230.788214
198.187136
175.891831
219.293911
220.852575
168.361846
176.578881
234.625119
239.928078
188.530193
158.426004
139.260902
151.653707
186.392787
154.428919
103.436532
108.177872
142.918771
146.000454
112.775154
82.119737
61.356803
46.483847
40.682246
69.906194
93.961539
52.066224
1.925356
-1.523786
35.742836
61.350554
49.007997
24.294253
-9.825688
4.054287
91.300778
145.103187
85.494557
-0.395313
-7.294952
-11.836679
-53.255319
-41.470372
-29.336816
-96.884992
-170.833590
-192.207758
-191.875199
-199.709744
-207.797302
-225.103245
-251.720049
-291.826861
-348.650519
-399.369630
-419.130380
-413.958864
-423.974160
-420.090054
-405.198282
-406.325879
-412.529340
-428.954670
-443.115083
-425.818379
-352.639102
-321.741989
-316.414872
-236.231472
-190.183655
-187.271860
-147.279493
-92.410217
-72.708323
-84.626419
-93.636153
-78.418892
-45.965510
-79.841269
-151.007753
-161.354253
-116.050671
-49.099070
-15.713640
-42.130683
-94.977553
-130.664155
-116.590132
-37.453597
80.896725
138.608382
99.463750
42.386039
20.695474
30.311619
26.395414
-3.896847
-27.803493
-24.352420
12.876536
50.686333
57.860660
70.046169
118.739982
134.249223
62.688151
-10.996263
14.429098
126.688642
224.115177
236.063259
189.374966
157.158605
170.173294
223.504224
290.131635
270.429853
177.665744
117.992433
82.026581
63.960038
103.455209
140.146445
71.859748
-17.300600
-53.453744
-77.552878
-96.267282
-97.448651
-44.337484
-1.817835
-24.605660
-38.942196
-3.314190
42.296438
92.858242
170.143932
195.728790
124.065890
-9.523605
-112.358396
-124.154921
-123.110338
-94.756094
13.646156
138.695113
165.245529
70.548228
22.659028
66.575190
139.036209
214.041915
239.411946
200.962973
90.105509
-33.090412
-78.391284
-49.015112
4.877696
53.402660
87.684549
88.308827
25.244765
-57.381901
-86.225695
-76.261461
-76.404537
-147.979116
-232.878491
-230.390897
-193.164279
-216.286945
-245.030989
-140.918288
-32.302768
-47.786699
-69.959653
-38.319085
-22.865695
-69.608539
-81.288168
-30.761173
-3.789153
-24.642487
-60.411435
-78.653321
-97.834528
-115.751965
-114.829473
-126.744712
-159.649199
-188.122824
-202.086333
-203.086124
-210.733895
-179.830288
-96.171712
-47.710132
-40.495022
-61.871787
-89.301925
-92.505587
-115.993746
-157.137293
-192.548280
-215.082312
-207.619643
-153.764241
-37.275936
75.874871
107.677015
103.276863
107.802596
126.100704
200.854695
301.432475
396.044685
365.294193
159.658844
106.002277
208.798475
200.814045
165.876874
183.154614
184.705225
168.286909
154.016095
159.043959
190.270977
220.004070
235.533052
245.085035
265.047476
295.680145
331.681957
359.747600
363.842897
353.022580
353.879091
358.460934
288.135319
189.762561
172.084891
229.713162
295.421774
277.216515
202.403409
176.450571
216.214083
253.553700
276.538022
277.751454
227.210543
185.165862
137.647091
84.250032
53.170415
32.621789
44.525451
24.006439
-38.742785
-96.306521
-150.186229
-168.439545
-173.405732
-180.706973
-171.523082
-151.041364
-110.554139
-106.311034
-124.639423
-96.298946
-50.729622
-26.144091
-65.501992
-143.020581
-185.732086
-189.299163
-216.622796
-264.946587
-280.172568
-268.462174
-248.159956
-287.773469
-347.887867
-369.196054
-382.362595
-373.835397
-386.345764
-403.424929
-356.673661
-284.599176
-260.084561
-284.382937
-299.485528
-288.160370
-278.774119
-282.013109
-291.735387
-301.006968
-307.807116
-302.161004
-260.656009
-230.123870
-218.974055
-168.074033
-98.069379
-73.923375
-95.484836
-105.085283
-84.822809
-64.739835
-73.419664
-86.072904
-98.241676
-119.822100
-143.651594
-170.925612
-198.530573
-218.800987
-183.817725
-114.979429
-45.129077
15.144930
33.894775
44.307369
55.244693
88.569857
176.309646
264.390511
319.866605
377.369408
460.831859
515.309405
492.280775
399.040771
265.983281
228.761191
310.533073
355.987320
348.532296
318.770482
280.314495
234.842435
159.492649
105.391879
77.293099
38.863608
-9.044815
-53.260117
-109.211474
-138.563634
-142.134868
-202.512150
-265.523740
-277.558991
-191.272084
-47.987418
41.268117
83.473187
81.170141
85.765232
108.588498
99.926593
51.660729
13.102653
7.972553
5.422727
26.734923
33.460630
36.037584
45.189524
13.784937
-19.474133
-47.767220
-34.684732
3.232869
-19.456764
-80.808956
-138.090844
-159.409941
-151.949610
-156.486921
-168.408134
-161.337195
-150.846671
-154.120470
-170.859339
-202.420826
-225.392307
-218.123425
-150.334332
-36.599306
84.732632
199.267482
228.883679
164.836136
102.692171
82.893496
122.313854
175.652057
197.702773
248.277306
267.429532
225.226652
242.567776
271.006705
268.008260
275.496386
258.194080
243.926383
183.358690
73.977747
33.321006
-13.311436
-40.321010
-41.883977
-119.213974
-171.538711
-202.803543
-233.635861
-218.783315
-186.464232
-136.264285
-87.279532
-40.208229
-17.440294
-27.359476
-35.276107
-41.866103
-6.066910
49.163443
89.124638
116.992597
97.562272
68.271157
48.156604
32.280424
42.575342
74.917804
115.363985
124.393574
75.080847
-6.574806
-62.003770
-57.048381
-37.696134
-53.787921
-86.383804
-106.829302
-102.518916
-84.992578
-51.310754
-11.313451
-4.447729
-20.579261
-18.969942
22.827552
70.516843
100.148626
115.014421
116.587632
116.430268
105.695675
65.958512
11.095843
-13.718952
-14.873824
-19.144352
-30.385493
-29.268435
36.506937
136.621551
177.513754
146.488948
92.014112
38.102453
4.461004
-20.411719
-42.632211
-0.338819
54.647612
33.323839
-33.013819
-109.712840
-156.269170
-161.657220
-175.212894
-181.649887
-130.488798
-42.012566
15.876512
16.797445
33.656180
84.483467
117.067512
141.574854
128.915120
103.970961
108.937001
111.712417
100.486343
50.096098
-3.579173
-43.296333
-69.998601
-70.085567
-72.902954
-66.164518
-61.601119
-68.265928
-72.244218
-82.070663
-83.759618
-78.589660
-72.046310
-52.589896
-33.496638
-14.525471
15.735730
36.080550
45.475633
30.585272
-35.768491
-92.149505
-94.794665
-76.245101
-58.363920
-51.652760
-66.276339
-105.070544
-131.639291
-129.401334
-132.191705
-131.897072
-105.863335
-71.515465
-29.172458
1.585159
-8.593791
-17.885893
-17.153291
-9.616588
31.683450
74.576905
78.327491
46.451165
11.942611
14.957794
25.252712
0.556113
-21.576838
-26.922805
-32.952223
-44.215444
-64.176215
-83.519517
-101.948697
-111.133515
-104.736933
-107.633809
-132.856958
-154.190083
-146.269184
-129.208350
-107.109057
-99.365319
-137.803642
-165.038954
-168.211443
-138.138055
-57.389659
19.098802
68.749860
67.584078
52.048973
51.302716
52.863977
86.231483
150.888294
215.075965
223.236111
184.083946
122.277940
78.843240
63.389443
30.807847
23.786636
17.209109
-25.496682
-78.100149
-123.197883
-127.410224
-115.899851
-115.721074
-105.015982
-89.804955
-77.056009
-66.706799
-58.810058
-37.522280
-16.293210
6.137287
35.531382
47.861323
43.172048
35.878081
59.638070
110.177794
155.843233
170.456014
119.273996
54.902522
25.041735
34.571118
84.063458
137.518297
170.144165
145.125973
82.088407
44.034281
48.647295
101.076311
154.931973
166.867066
148.584396
119.726314
112.950324
130.548618
147.592047
140.126373
94.454033
51.049727
45.997557
66.468884
65.420776
13.826247
-39.175185
-61.446332
-63.117103
-51.619719
-52.420008
-50.993826
-40.783591
-46.071111
-63.636043
-81.784673
-57.761798
-14.519735
-2.794274
1.102561
2.158054
-12.969995
-45.583022
-67.514392
-76.273711
-84.618699
-82.814815
-96.594927
-124.309251
-138.072479
-118.032626
-78.074549
-58.970120
-52.673290
-56.233093
-68.589418
-63.258924
-33.842748
20.511408
70.712914
84.688744
88.738842
94.949170
90.526937
88.360269
95.500306
104.007502
91.124887
48.601714
26.435513
46.396656
84.271135
116.292263
115.350401
89.908787
61.813383
55.214815
76.972772
92.142756
84.434978
67.600514
57.741858
38.440638
18.811590
4.136318
-45.846871
-105.304835
-154.490277
-180.249328
-170.080656
-167.113531
-159.112623
-130.259364
-115.091719
-106.463471
-73.548481
-29.786362
-1.316261
6.018862
29.516485
58.851354
48.955031
53.176836
60.575342
61.698894
81.456639
95.308300
115.117738
113.245128
124.486381
169.025466
199.451879
229.748928
253.350718
245.442919
173.098907
91.973701
35.832194
-16.330188
-26.942691
-38.065637
-57.215932
-80.249238
-138.749698
-184.619981
-177.006647
-139.944202
-124.201431
-130.469574
-139.162132
-136.523354
-139.762084
-152.162569
-148.887359
-141.427548
-106.957067
-39.517881
16.185509
9.442510
-32.835183
-64.196129
-72.522674
-38.986579
-26.009297
-47.235657
-62.850251
-61.846971
-42.376530
-22.362914
-16.065823
-28.735428
-50.206490
-93.387136
-120.716744
-104.708749
-78.596042
-57.743635
-54.213073
-52.366587
-43.057487
-21.197960
20.736431
72.035197
100.604789
80.147342
52.452241
57.049151
88.079264
112.022130
89.985034
51.088221
28.560423
29.263152
48.491749
57.563940
70.290806
81.474650
80.059491
78.275201
67.481121
58.394235
51.691759
52.006654
77.517998
107.505664
120.069655
109.523913
70.416168
21.964051
-17.657775
-35.176207
-43.219865
-67.215351
-80.067313
-81.899660
-85.017339
-71.835879
-47.820538
-26.886824
-9.007201
7.468635
17.704846
27.658430
40.184236
53.387256
58.640339
56.705644
55.438033
39.591206
11.701020
-4.833932
5.880772
31.363282
56.469128
65.505471
40.791987
11.793110
11.211027
42.416484
73.945612
66.603847
30.630462
10.404988
29.698527
60.514072
69.138943
50.873937
25.566623
12.814152
22.624863
