EVENT_NAME: 202302060117
EVENT_ID: 13194
EVENT_DATE_YYYYMMDD: 2023/02/06
EVENT_TIME_HHMMSS: 01:17:32.00000
EVENT_LATITUDE_DEGREE: 37.288
EVENT_LONGITUDE_DEGREE: 37.043
EVENT_DEPTH_KM: 8.6
HYPOCENTER_REFERENCE: AFAD
MAGNITUDE_W: 7.7
MAGNITUDE_W_REFERENCE: AFAD
MAGNITUDE_L: 
MAGNITUDE_L_REFERENCE: 
FOCAL_MECHANISM: 
NETWORK: TK
STATION_CODE: 99005
STATION_NAME: 
STATION_LATITUDE_DEGREE: 35.3404
STATION_LONGITUDE_DEGREE: 33.32231
STATION_ELEVATION_M: 23.0
LOCATION: Kahramanmaras_Pazarck_Turkiye
SENSOR_DEPTH_M: 
VS30_M/S: 457
SITE_CLASSIFICATION_EC8: B
MORPHOLOGIC_CLASSIFICATION: 
EPICENTRAL_DISTANCE_KM: 397.48
EARTHQUAKE_BACKAZIMUTH_DEGREE: 
DATE_TIME_FIRST_SAMPLE_YYYYMMDD_HHMMSS: 2023/02/06 01:18:02.6480630
DATE_TIME_FIRST_SAMPLE_PRECISION: millisecond
SAMPLING_INTERVAL_S: 0.01
NDATA: 21001
DURATION_S: 
STREAM: HNN
UNITS: cm/s^2
INSTRUMENT: sensor = CMG-5T/GURALP | digitizer = 
INSTRUMENT_ANALOG/DIGITAL: 
INSTRUMENTAL_FREQUENCY_HZ: 
INSTRUMENTAL_DAMPING: 
FULL_SCALE_G: 
N_BIT_DIGITAL_CONVERTER: 
PGA_CM/S^2: 6.992
TIME_PGA_S: 
BASELINE_CORRECTION: BASELINE REMOVED
FILTER_TYPE: BUTTERWORTH
FILTER_ORDER: 
LOW_CUT_FREQUENCY_HZ: 
HIGH_CUT_FREQUENCY_HZ: 
LATE/NORMAL_TRIGGERED: 
DATABASE_VERSION: 
HEADER_FORMAT: DYNA 1.2
DATA_TYPE: Acceleration
PROCESSING: Automatic Paolucci et al., 2011
DATA_TIMESTAMP_YYYYMMDD_HHMMSS: 
DATA_LICENSE: U (unknown license)
DATA_CITATION: Turkish Accelerometric Archive v 1.0 - Disaster And Emergency Management Presidency, Earthquake Department
DATA_CREATOR: AFAD
ORIGINAL_DATA_MEDIATOR_CITATION: : AFAD - Disaster And Emergency Management Presidency
ORIGINAL_DATA_MEDIATOR: AFAD PROCESS SERVICE
ORIGINAL_DATA_CREATOR_CITATION: AFAD PROCESS SERVICE
ORIGINAL_DATA_CREATOR: network: TK
USER1: GuestUser
USER2: 
USER3: 
USER4: 
USER5: 
[...]
-0.899846
-0.865865
-0.867666
-0.870069
-0.787676
-0.595532
-0.470743
-0.583198
-0.928688
-1.360176
-1.707771
-1.933888
-2.129634
-2.332597
-2.434528
-2.400247
-2.293198
-2.317852
-2.575240
-3.028678
-3.447837
-3.587956
-3.308612
-2.558988
-1.445228
-0.096929
1.375254
2.678750
3.578118
3.985255
3.910687
3.468074
2.794229
2.021759
1.249288
0.505684
-0.209054
-0.863354
-1.418726
-1.794285
-1.854420
-1.622285
-1.173952
-0.616770
0.003557
0.634108
1.227974
1.773129
2.177260
2.422025
2.450292
2.191100
1.522969
0.401096
-0.919232
-2.051028
-2.809667
-3.250777
-3.544849
-3.803741
-3.960097
-3.945059
-3.762236
-3.331344
-2.630733
-1.631536
-0.441400
0.701226
1.499863
1.905798
2.070579
2.195068
2.331885
2.299413
1.972265
1.539875
1.109289
0.613755
-0.044754
-0.859622
-1.553312
-1.884670
-1.922554
-1.961641
-2.186855
-2.572939
-2.914219
-3.090722
-3.087712
-2.940972
-2.668844
-2.225924
-1.603793
-0.874015
-0.117775
0.669134
1.468372
2.249569
3.015430
3.670638
4.192639
4.609098
4.938958
5.224617
5.446830
5.547264
5.499758
5.359940
5.238163
5.232453
5.309132
5.189460
4.658744
3.873945
3.104181
2.451084
1.722214
0.739260
-0.317063
-1.059164
-1.256113
-1.100954
-0.968346
-0.950603
-0.819198
-0.384397
0.142416
0.315316
-0.045811
-0.648993
-1.095214
-1.309904
-1.496630
-1.855651
-2.394486
-2.859049
-2.980525
-2.687049
-2.171061
-1.572083
-0.900939
-0.223180
0.354750
0.712875
0.876153
0.911337
0.972079
1.121826
1.349752
1.579783
1.763207
1.863941
1.838085
1.568369
0.991347
0.229400
-0.476317
-0.944790
-1.130914
-1.104751
-0.996199
-0.907192
-0.846450
-0.736995
-0.633254
-0.615511
-0.634752
-0.595058
-0.459143
-0.285942
-0.239934
-0.447407
-0.923698
-1.469748
-1.767730
-1.638129
-1.206034
-0.683131
-0.200520
0.229170
0.619168
0.998642
1.299035
1.362183
1.144787
0.744270
0.338040
0.095987
0.061411
0.237618
0.601757
1.050390
1.428060
1.589233
1.546538
1.447013
1.412436
1.418754
1.465063
1.603383
1.831911
1.998196
2.045708
2.006020
1.943780
1.790430
1.437724
0.884757
0.288190
-0.269588
-0.854127
-1.464525
-1.931194
-2.085145
-1.941412
-1.819028
-1.954335
-2.249009
-2.410778
-2.271555
-1.887270
-1.404659
-0.940991
-0.522427
-0.186553
-0.062967
-0.297201
-0.855581
-1.543557
-2.110356
-2.433294
-2.475689
-2.352403
-2.179202
-2.014120
-1.851744
-1.704704
-1.537818
-1.324325
-1.059413
-0.853438
-0.815247
-0.900039
-1.026626
-1.133369
-1.311074
-1.629803
-2.128344
-2.659962
-3.138658
-3.502190
-3.626071
-3.353342
-2.662353
-1.746748
-0.964649
-0.626069
-0.673575
-0.736116
-0.564719
-0.200580
0.134392
0.301579
0.405921
0.540032
0.747812
0.914097
0.957399
0.866894
0.710538
0.444129
0.015648
-0.520780
-1.021728
-1.436377
-1.693765
-1.738565
-1.528981
-1.052684
-0.355681
0.445061
1.188972
1.679100
1.760590
1.413897
0.825749
0.251133
-0.145775
-0.334305
-0.358959
-0.202597
0.188303
0.777058
1.432867
2.019216
2.515057
2.953467
3.315200
3.512155
3.520878
3.512763
3.604476
3.821277
4.023644
4.076268
3.985462
3.854665
3.741909
3.671851
3.625548
3.542861
3.366659
2.991701
2.314249
1.287995
0.061482
-1.068810
-1.801289
-2.069802
-2.024696
-1.786246
-1.437742
-1.138553
-0.991512
-1.085926
-1.377292
-1.736313
-2.247484
-2.921629
-3.738301
-4.439508
-4.738391
-4.500242
-3.869390
-3.184415
-2.633547
-2.239339
-1.925415
-1.666518
-1.546540
-1.546537
-1.509549
-1.268392
-0.844717
-0.392776
-0.033749
0.267847
0.618154
0.977783
1.170227
1.008760
0.522546
-0.085146
-0.630295
-1.152892
-1.864322
-2.802774
-3.799861
-4.570828
-4.935262
-4.889253
-4.549771
-4.040098
-3.447434
-2.795534
-2.065154
-1.348306
-0.821794
-0.604993
-0.603787
-0.662118
-0.689779
-0.700300
-0.764645
-0.877401
-0.905964
-0.745392
-0.314500
0.364161
1.264131
2.311137
3.408360
4.490848
5.419683
6.060758
6.409562
6.519317
6.457678
6.268848
5.877953
5.292512
4.618968
4.012178
3.501909
3.082750
2.737560
2.457921
2.159038
1.670118
0.833300
-0.413059
-1.915606
-3.395601
-4.632338
-5.562370
-6.123455
-6.233806
-5.814039
-4.876784
-3.683642
-2.523275
-1.451311
-0.366417
0.748546
1.743233
2.394231
2.622157
2.571343
2.418896
2.312755
2.349743
2.500091
2.661264
2.819129
2.881375
2.775535
2.544307
2.228285
1.939023
1.798003
1.804320
1.862957
1.833493
1.702094
1.570996
1.597159
1.809149
2.248159
2.936443
3.746506
4.482598
4.936644
5.096313
5.192838
5.400317
5.721458
5.920217
5.710639
5.117680
4.359342
3.582361
2.906111
2.428918
2.146573
2.084934
2.165222
2.321884
2.540489
2.667684
2.568158
2.219661
1.715106
1.162740
0.625710
0.087477
-0.380995
-0.640488
-0.718063
-0.766171
-0.891856
-1.050618
-1.088201
-0.912896
-0.721053
-0.737588
-0.999185
-1.373241
-1.651978
-1.768042
-1.732558
-1.535602
-1.114032
-0.508739
0.007549
0.169925
0.003947
-0.221267
-0.308765
-0.287413
-0.359877
-0.643124
-1.038529
-1.324783
-1.324179
-0.990109
-0.389627
0.295048
0.860348
1.209453
1.366717
1.298764
0.975224
0.438494
-0.225126
-0.835826
-1.163274
-1.135608
-0.825293
-0.346591
0.093623
0.432504
0.641487
0.751242
0.736210
0.576546
0.466497
0.522428
0.658343
0.737127
0.758178
0.897401
1.239589
1.646426
1.773321
1.480451
0.968980
0.471641
0.142388
-0.087337
-0.313453
-0.495669
-0.564223
-0.489348
-0.316749
-0.155576
-0.114078
-0.234952
-0.480914
-0.861886
-1.323443
-1.757637
-2.039681
-2.190324
-2.256473
-2.179494
-1.841515
-1.256068
-0.536813
0.053144
0.315950
0.282877
0.030300
-0.337140
-0.684435
-1.005268
-1.327906
-1.723913
-2.160211
-2.538477
-2.796166
-2.795862
-2.550797
-2.217328
-1.912726
-1.701638
-1.532647
-1.375082
-1.272243
-1.285471
-1.460470
-1.717858
-1.940967
-2.061541
-2.161969
-2.247963
-2.263295
-2.135800
-1.812555
-1.387977
-1.041579
-0.801926
-0.647668
-0.533403
-0.365615
-0.144304
-0.001774
0.042130
0.028000
-0.006576
-0.030929
0.014177
0.184972
0.466121
0.805002
1.160722
1.440968
1.622287
1.720315
1.753995
1.774746
1.772043
1.786479
1.764832
1.679439
1.446106
0.980340
0.231623
-0.713744
-1.622428
-2.371144
-2.955082
-3.432876
-3.876090
-4.279915
-4.479570
-4.284720
-3.659882
-2.811331
-1.939927
-1.133774
-0.271691
0.647222
1.490360
2.158798
2.636297
3.043736
3.479138
3.858612
4.108489
4.167427
4.041441
3.752781
3.275889
2.661582
2.027729
1.495811
1.111832
0.860759
0.664711
0.608485
0.780784
1.205061
1.796822
2.416849
2.966815
3.319227
3.460253
3.485214
3.430491
3.112965
2.364850
1.225236
-0.118546
-1.294543
-2.187290
-2.845498
-3.313971
-3.646532
-3.777630
-3.599017
-3.131140
-2.426318
-1.588893
-0.666372
0.304260
1.173258
1.858835
2.226281
2.265976
2.088571
1.869371
1.649569
1.432474
1.163960
0.826588
0.530110
0.310309
0.202965
0.147040
0.085100
-0.010516
-0.128985
-0.352395
-0.709913
-1.124562
-1.507940
-1.859745
-2.223276
-2.650254
-3.151201
-3.613660
-3.829553
-3.831654
-3.707166
-3.445863
-2.980091
-2.146273
-1.057470
0.045766
1.009481
1.712799
2.079343
2.155421
1.988240
1.563368
0.917187
0.157044
-0.501164
-0.939567
-1.138020
-1.127794
-0.901371
-0.432291
0.216602
0.897067
1.504464
1.953398
2.192751
2.342197
2.347612
2.180431
1.865010
1.513806
1.352339
1.449765
1.581170
1.552306
1.354455
1.150891
1.134957
1.251026
1.343642
1.296136
1.134367
0.999962
0.947344
0.987940
1.058304
1.064622
0.938335
0.652080
0.261487
-0.120688
-0.464073
-0.771075
-1.086196
-1.473182
-1.959996
-2.557465
-3.230708
-3.860050
-4.303265
-4.414517
-4.216660
-3.829669
-3.363295
-2.926690
-2.596228
-2.379127
-2.360782
-2.492481
-2.583587
-2.538180
-2.318372
-1.962352
-1.598514
-1.331799
-1.198590
-1.127023
-0.952920
-0.664254
-0.300115
0.150623
0.668114
1.206352
1.709110
2.081969
2.290049
2.284339
2.093704
1.797828
1.459554
1.174803
1.033181
1.026268
1.195259
1.583754
2.281058
3.266724
4.285466
5.052831
5.394418
5.280459
4.782218
3.979378
2.983795
1.841174
0.649541
-0.410089
-1.189175
-1.530455
-1.392435
-0.945005
-0.340915
0.279412
0.819755
1.208852
1.443694
1.573896
1.600059
1.547742
1.470166
1.444611
1.582029
1.905274
2.430884
3.108342
3.821583
4.464462
4.955793
5.275430
5.332864
5.051120
4.411856
3.520311
2.569832
1.732412
1.043233
0.456890
-0.019100
-0.322795
-0.430740
-0.462009
-0.599120
-0.879662
-1.174636
-1.348733
-1.358352
-1.304225
-1.297607
-1.358644
-1.461176
-1.571527
-1.752840
-1.978956
-2.256190
-2.573716
-2.896053
-3.108338
-3.111943
-2.901156
-2.562275
-2.208961
-1.956980
-1.871881
-1.951862
-2.081156
-2.155424
-2.152113
-2.158124
-2.268174
-2.500905
-2.830459
-3.151293
-3.354256
-3.332002
-3.091146
-2.599213
-1.931978
-1.187165
-0.425814
0.244127
0.765827
1.159434
1.446897
1.677529
1.762327
1.568986
1.106828
0.553561
0.213783
0.284449
0.677153
1.196749
1.646885
1.971634
2.168589
2.120482
1.696511
0.889762
-0.143408
-1.213261
-2.215158
-3.054082
-3.649145
-3.917358
-3.752276
-3.186073
-2.419009
-1.612254
-0.898412
-0.259742
0.322096
0.860936
1.397672
1.898324
2.346656
2.702376
3.023817
3.294742
3.480872
3.559055
3.495612
3.336550
3.122762
2.902359
2.711122
2.458846
2.162970
1.887841
1.645487
1.372764
0.985779
0.481524
-0.041374
-0.501127
-0.926601
-1.437170
-2.030730
-2.647443
-3.241905
-3.807801
-4.238387
-4.376100
-4.136146
-3.569943
-2.815208
-2.051752
-1.388125
-0.846879
-0.430420
-0.207907
-0.302922
-0.714865
-1.287677
-1.790729
-2.048117
-2.038492
-1.791322
-1.443721
-1.126189
-0.874508
-0.671840
-0.484206
-0.176296
0.356230
1.129007
2.044612
2.903988
3.535140
3.869511
3.914918
3.738716
3.508090
3.291295
3.079010
2.861013
2.617757
2.249715
1.712384
1.106195
0.567963
0.120538
-0.321474
-0.888272
-1.489349
-1.989996
-2.245279
-2.262416
-2.224225
-2.245270
-2.300895
-2.290669
-2.162271
-1.942463
-1.698901
-1.462556
-1.205463
-0.879211
-0.483800
-0.076662
0.304616
0.716264
1.255104
1.895578
2.536352
3.023774
3.290189
3.286283
3.026489
2.524940
1.784944
0.894603
-0.002654
-0.841277
-1.529855
-1.995020
-2.244289
-2.329983
-2.281870
-2.056950
-1.608919
-0.950103
-0.231149
0.402107
0.883215
1.179097
1.367934
1.539330
1.644274
1.650291
1.551968
1.433499
1.333372
1.297292
1.265422
1.184238
1.147256
1.192062
1.310537
1.368573
1.269950
1.063378
0.845982
0.699549
0.558829
0.374508
0.087051
-0.274376
-0.533267
-0.566641
-0.339617
0.077744
0.510742
0.811435
0.892324
0.699885
0.250957
-0.382294
-1.060348
-1.707130
-2.242055
-2.685571
-3.034669
-3.242744
-3.286041
-3.214474
-3.138997
-3.093891
-2.997667
-2.741175
-2.288032
-1.718521
-1.316796
-1.082856
-0.883195
-0.574383
-0.101394
0.514724
1.196693
1.801083
2.325490
2.755781
3.136759
3.489171
3.772424
3.863536
3.686733
3.260658
2.720621
2.235009
1.784277
1.322118
0.818465
0.322930
-0.112767
-0.549667
-0.998295
-1.436698
-1.792111
-1.920804
-1.756624
-1.443602
-1.101414
-0.772756
-0.396890
0.095643
0.669664
1.284880
1.871530
2.404055
2.892981
3.333796
3.677187
3.890380
4.063580
4.304135
4.614150
4.872446
5.002347
4.984008
4.830057
4.555530
4.090365
3.336236
2.304270
1.238927
0.338362
-0.346608
-0.873414
-1.336174
-1.738194
-2.066244
-2.278228
-2.426466
-2.497125
-2.465249
-2.343767
-2.141399
-1.941738
-1.681638
-1.322611
-0.842104
-0.324313
0.147473
0.551905
0.880563
1.122020
1.203209
1.119921
0.836373
0.399473
-0.056973
-0.453881
-0.768400
-1.030299
-1.241380
-1.404652
-1.468696
-1.509587
-1.628958
-1.886346
-2.195153
-2.413752
-2.442014
-2.261296
-1.965714
-1.624127
-1.318923
-0.988462
-0.610791
-0.249960
0.011042
0.163495
0.276257
0.352635
0.312045
0.130431
-0.110720
-0.307068
-0.329617
-0.212044
-0.059290
-0.014785
-0.123031
-0.332308
-0.513020
-0.643818
-0.801376
-0.999829
-1.170017
-1.148665
-0.904502
-0.451960
0.072748
0.610385
1.166666
1.757525
2.302980
2.662609
2.778979
2.688775
2.515279
2.321939
2.059439
1.635769
1.021161
0.365659
-0.176483
-0.577902
-0.910162
-1.175067
-1.374723
-1.443578
-1.393360
-1.252634
-1.012379
-0.677407
-0.172846
0.492585
1.201015
1.857425
2.425131
2.865645
3.180170
3.372314
3.471245
3.451402
3.287529
2.910165
2.283830
1.567288
0.916597
0.475487
0.252077
0.130601
-0.042895
-0.337869
-0.716435
-1.075757
-1.319614
-1.393281
-1.344566
-1.348472
-1.408908
-1.437170
-1.300052
-0.945836
-0.421729
0.194989
0.834862
1.439553
2.003651
2.439956
2.667280
2.650445
2.458908
2.248728
2.030129
1.752896
1.346365
0.852635
0.400700
0.112942
-0.023869
-0.103249
-0.129706
-0.082796
0.032372
0.120778
0.073271
-0.151943
-0.476084
-0.781282
-1.069641
-1.447606
-1.955168
-2.476262
-2.812130
-2.846105
-2.664485
-2.377624
-2.081140
-1.744364
-1.322793
-0.835972
-0.355166
0.039042
0.357477
0.673505
0.938116
1.008179
0.827467
0.510543
0.232106
0.046283
-0.048432
-0.117889
-0.109166
0.037875
0.340673
0.764349
1.180808
1.372952
1.311614
1.124888
0.869906
0.549072
0.171708
-0.319316
-0.888520
-1.445095
-1.968594
-2.416920
-2.732041
-2.824951
-2.756090
-2.646636
-2.674597
-2.940405
-3.247407
-3.505095
-3.669269
-3.862610
-4.168410
-4.565919
-4.852474
-4.860891
-4.627853
-4.286867
-3.984670
-3.751933
-3.646688
-3.563394
-3.454842
-3.180610
-2.770465
-2.231926
-1.688876
-1.087191
-0.298177
0.707635
1.861989
2.981161
4.025462
4.938962
5.731284
6.412050
6.888948
6.992088
6.740714
6.222326
5.632074
5.067681
4.528546
3.979489
3.405173
2.924973
2.543701
2.243915
1.994345
1.843702
1.763722
1.708999
1.538510
1.320513
1.150626
1.233018
1.629631
2.218687
2.780379
3.224803
3.580522
3.781988
3.783193
3.484911
2.986670
2.439417
2.036194
1.706640
1.384303
0.991905
0.586577
0.251010
0.030907
-0.122141
-0.251736
-0.394861
-0.525358
-0.607143
-0.718997
-0.803187
-0.820624
-0.664563
-0.392736
-0.015066
0.410714
0.906857
1.406306
1.849527
2.232609
2.508045
2.692371
2.748903
2.665916
2.412136
2.132497
1.911192
1.856168
1.889849
1.935857
1.871512
1.695912
1.455363
1.331782
1.405153
1.598500
1.724793
1.716677
1.611138
1.508305
1.503797
1.518835
1.506509
1.389844
1.299640
1.284308
1.425034
1.611164
1.779854
1.898329
2.057698
2.149111
2.034852
1.746492
1.414533
1.138502
0.931330
0.708822
0.408134
0.182920
0.121883
0.195856
0.311324
0.400030
0.442731
0.581653
0.850173
1.143950
1.329178
1.386613
1.335198
1.245294
1.159300
1.064886
1.001744
1.006558
1.090453
1.143378
1.067306
0.816233
0.548020
0.356784
0.348969
0.414522
0.479173
0.616892
0.907362
1.335248
1.788992
2.195829
2.475174
2.691072
2.883818
3.069046
3.192633
3.280136
3.333362
3.430187
3.509873
3.554979
3.554982
3.547768
3.472298
3.370668
3.208599
2.994209
2.707053
2.357353
1.957438
1.464008
0.951333
0.420918
-0.090854
-0.697343
-1.295413
-1.695629
-1.778316
-1.594291
-1.327275
-1.104460
-0.915023
-0.642293
-0.239365
0.241141
0.674138
1.069849
1.402115
1.685368
1.841730
1.900969
1.880225
1.956603
2.178816
2.543556
2.954002
3.352419
3.689496
3.846159
3.749941
3.381297
2.796157
2.116599
1.511914
0.985107
0.527159
0.051169
-0.432038
-0.917048
-1.224952
-1.346729
-1.249302
-1.104066
-0.958529
-0.832537
-0.632274
-0.371572
-0.121395
0.060826
0.128484
0.142920
0.150140
0.141122
0.016940
-0.158360
-0.328848
-0.446716
-0.621715
-0.951870
-1.470558
-2.023825
-2.458320
-2.676017
-2.653462
-2.455605
-2.150702
-1.882483
-1.740855
-1.829856
-2.043945
-2.179253
-2.076113
-1.846984
-1.598611
-1.450969
-1.381507
-1.289492
-1.121704
-0.897687
-0.621350
-0.287580
0.179395
0.799121
1.502438
2.186512
2.730764
3.167069
3.447015
3.639760
3.714334
3.748015
3.765758
3.808760
3.802448
3.664134
3.380886
3.068171
2.946695
3.111477
3.476217
3.824720
4.090834
4.317858
4.604419
4.839562
4.934884
4.839868
4.593907
4.267961
3.948029
3.632909
3.299145
2.883294
2.424443
1.993857
1.627319
1.330239
1.091494
0.889433
0.715036
0.583336
0.432092
0.260701
0.047815
-0.101925
-0.265799
-0.435385
-0.738177
-1.268592
-1.995358
-2.781661
-3.465127
-3.930593
-4.146185
-4.213837
-4.150389
-3.985908
-3.667775
-3.275070
-2.944308
-2.733220
-2.580166
-2.407567
-2.186857
-2.002230
-1.945998
-2.006434
-2.112274
-2.178724
-2.119184
-1.954703
-1.722267
-1.469383
-1.282351
-1.153953
-1.124182
-1.132899
-1.184915
-1.145522
-0.984951
-0.669223
-0.271707
0.119494
0.437026
0.719377
1.008945
1.260024
1.425407
1.479534
1.499683
1.503595
1.499689
1.520440
1.626286
1.832262
2.123032
2.374112
2.544305
2.559944
2.516046
2.369914
2.074037
1.599851
0.993663
0.385068
-0.088516
-0.310122
-0.314930
-0.160974
0.045904
0.296081
0.577230
0.858679
1.003915
1.009631
0.923336
0.909207
0.993704
1.064669
1.003031
0.807886
0.534260
0.194784
-0.247228
-0.824250
-1.447879
-2.039635
-2.448571
-2.724602
-2.842770
-2.852990
-2.756165
-2.626264
-2.510796
-2.435320
-2.416373
-2.414867
-2.379984
-2.321346
-2.342693
-2.485818
-2.705019
-2.910989
-3.095309
-3.227309
-3.332548
-3.339761
-3.270600
-3.141300
-2.950960
-2.735963
-2.515254
-2.407904
-2.473151
-2.613571
-2.652657
-2.525462
-2.279194
-2.070211
-1.886186
-1.702762
-1.445067
-1.173842
-0.934790
-0.741744
-0.585682
-0.441649
-0.316559
-0.230258
-0.089532
0.217476
0.652277
1.093995
1.340864
1.414536
1.422357
1.521588
1.698397
1.852955
1.852356
1.744111
1.610908
1.545059
1.500259
1.416370
1.226637
0.996011
0.847773
0.859503
0.976474
1.020077
0.907923
0.640311
0.334211
0.072313
-0.118021
-0.260545
-0.287003
-0.236484
-0.118310
0.065715
0.268384
0.364908
0.310787
0.194122
0.093093
0.057915
0.036268
0.018531
0.054616
0.206468
0.404325
0.613909
0.746517
0.785008
0.743516
0.700820
0.688495
0.767880
0.944388
1.112778
1.142249
0.933572
0.582068
0.190572
-0.106206
-0.268576
-0.234896
-0.075527
0.126841
0.247721
0.251032
0.139779
-0.031612
-0.261035
-0.613141
-1.169415
-1.882650
-2.561606
-3.129607
-3.576129
-3.926130
-4.116163
-4.077973
-3.820579
-3.514172
-3.283841
-3.186715
-3.088386
-2.961191
-2.900449
-2.972010
-3.121450
-3.224283
-3.220973
-3.171356
-3.221568
-3.361988
-3.481058
-3.416708
-3.212837
-2.948226
-2.712783
-2.476437
-2.247609
-2.000138
-1.818217
-1.704854
-1.577358
-1.352740
-1.072794
-0.865315
-0.817201
-0.976264
-1.268532
-1.657321
-2.082194
-2.502256
-2.840529
-3.152042
-3.395297
-3.595253
-3.691772
-3.562773
-3.084071
-2.403906
-1.680743
-1.082968
-0.584721
-0.096998
0.413878
0.980081
1.478929
1.843068
2.079414
2.388526
2.831145
3.445760
4.086233
4.709868
5.220142
5.543688
5.695239
5.672089
5.505810
5.204822
4.784760
4.258555
3.699274
3.109924
2.559362
1.985047
1.423360
0.867086
0.336370
-0.132403
-0.440307
-0.609292
-0.724454
-0.906369
-1.196231
-1.498121
-1.747090
-1.847818
-1.879989
-1.890210
-2.025217
-2.282605
-2.633809
-3.009368
-3.403570
-3.782437
-4.046741
-4.066283
-3.879852
-3.512706
-3.110379
-2.687606
-2.216421
-1.688706
-1.134832
-0.669661
-0.319654
-0.070980
0.147324
0.230017
0.168378
-0.030676
-0.223416
-0.377066
-0.564994
-0.913491
-1.314609
-1.634541
-1.774059
-1.851032
-2.022423
-2.294845
