EVENT_NAME: 202302060117
EVENT_ID: 13194
EVENT_DATE_YYYYMMDD: 2023/02/06
EVENT_TIME_HHMMSS: 01:17:32.00000
EVENT_LATITUDE_DEGREE: 37.288
EVENT_LONGITUDE_DEGREE: 37.043
EVENT_DEPTH_KM: 8.6
HYPOCENTER_REFERENCE: AFAD
MAGNITUDE_W: 7.7
MAGNITUDE_W_REFERENCE: AFAD
MAGNITUDE_L: 
MAGNITUDE_L_REFERENCE: 
FOCAL_MECHANISM: 
NETWORK: TK
STATION_CODE: 99001
STATION_NAME: 
STATION_LATITUDE_DEGREE: 35.12931
STATION_LONGITUDE_DEGREE: 32.83189
STATION_ELEVATION_M: 54.0
LOCATION: Kahramanmaras_Pazarck_Turkiye
SENSOR_DEPTH_M: 
VS30_M/S: 473
SITE_CLASSIFICATION_EC8: unknown
MORPHOLOGIC_CLASSIFICATION: 
EPICENTRAL_DISTANCE_KM: 447.55
EARTHQUAKE_BACKAZIMUTH_DEGREE: 
DATE_TIME_FIRST_SAMPLE_YYYYMMDD_HHMMSS: 2023/02/06 01:18:08.8379860
DATE_TIME_FIRST_SAMPLE_PRECISION: millisecond
SAMPLING_INTERVAL_S: 0.01
NDATA: 21001
DURATION_S: 
STREAM: HNN
UNITS: cm/s^2
INSTRUMENT: sensor = CMG-5T/GURALP | digitizer = 
INSTRUMENT_ANALOG/DIGITAL: 
INSTRUMENTAL_FREQUENCY_HZ: 
INSTRUMENTAL_DAMPING: 
FULL_SCALE_G: 
N_BIT_DIGITAL_CONVERTER: 
PGA_CM/S^2: 6.073
TIME_PGA_S: 
BASELINE_CORRECTION: BASELINE REMOVED
FILTER_TYPE: BUTTERWORTH
FILTER_ORDER: 
LOW_CUT_FREQUENCY_HZ: 
HIGH_CUT_FREQUENCY_HZ: 
LATE/NORMAL_TRIGGERED: 
DATABASE_VERSION: 
HEADER_FORMAT: DYNA 1.2
DATA_TYPE: Acceleration
PROCESSING: Automatic Paolucci et al., 2011
DATA_TIMESTAMP_YYYYMMDD_HHMMSS: 
DATA_LICENSE: U (unknown license)
DATA_CITATION: Turkish Accelerometric Archive v 1.0 - Disaster And Emergency Management Presidency, Earthquake Department
DATA_CREATOR: AFAD
ORIGINAL_DATA_MEDIATOR_CITATION: : AFAD - Disaster And Emergency Management Presidency
ORIGINAL_DATA_MEDIATOR: AFAD PROCESS SERVICE
ORIGINAL_DATA_CREATOR_CITATION: AFAD PROCESS SERVICE
ORIGINAL_DATA_CREATOR: network: TK
USER1: GuestUser
USER2: 
USER3: 
USER4: 
USER5: 
[...]
-2.270087
-2.481497
-2.517833
-2.409125
-2.213331
-1.942161
-1.619340
-1.238862
-0.913638
-0.563791
-0.214543
0.203172
0.595662
1.015179
1.498960
1.985444
2.451507
2.886339
3.379730
3.809457
4.200746
4.521164
4.763505
4.866508
4.880321
4.778821
4.555098
4.249995
3.798947
3.192044
2.564420
2.041300
1.632293
1.231095
0.819385
0.370139
-0.012441
-0.379706
-0.664389
-0.887511
-1.079702
-1.267989
-1.411832
-1.589909
-1.781800
-1.998015
-2.214229
-2.466180
-2.765577
-3.116326
-3.504011
-3.766172
-3.858964
-3.797103
-3.680587
-3.518726
-3.358066
-3.112722
-2.731043
-2.188704
-1.632551
-1.072194
-0.507933
0.019392
0.507377
0.962029
1.415780
1.828390
2.126286
2.270429
2.286345
2.242802
2.134695
1.996858
1.853315
1.686049
1.481546
1.199565
0.964432
0.846114
0.819087
0.762031
0.639809
0.596566
0.710379
0.968936
1.234400
1.416682
1.404970
1.173440
0.750019
0.317289
-0.017844
-0.219645
-0.257182
-0.162588
0.065639
0.290563
0.476147
0.531402
0.504676
0.509180
0.547318
0.553925
0.476748
0.339812
0.086660
-0.267091
-0.613936
-0.887207
-1.064384
-1.140659
-1.223241
-1.367985
-1.520837
-1.547564
-1.389006
-1.204623
-0.994714
-0.787808
-0.519942
-0.250274
0.014590
0.289363
0.464136
0.530502
0.457230
0.318792
0.162637
-0.040064
-0.232556
-0.454476
-0.603124
-0.620541
-0.647868
-0.810630
-1.038557
-1.231048
-1.219336
-1.018136
-0.821140
-0.698919
-0.719339
-0.775195
-0.806426
-0.807627
-0.750270
-0.692913
-0.660480
-0.659279
-0.698018
-0.654174
-0.629850
-0.771290
-1.034652
-1.243960
-1.336452
-1.384800
-1.509123
-1.617531
-1.664978
-1.665278
-1.596510
-1.521435
-1.414529
-1.268284
-1.149365
-1.020237
-0.797415
-0.589008
-0.358079
-0.093816
0.107684
0.273149
0.459935
0.666540
0.905277
1.118790
1.296867
1.563232
1.819086
2.022388
2.081547
2.070736
2.070436
2.065331
2.065932
2.104069
2.079745
1.957224
1.877044
1.905272
2.059626
2.253018
2.353017
2.398963
2.387552
2.193859
1.892960
1.525395
1.154827
0.819693
0.539515
0.338916
0.210989
0.031410
-0.228949
-0.510629
-0.785402
-1.059274
-1.294107
-1.440052
-1.443656
-1.369182
-1.353866
-1.431343
-1.667979
-1.952061
-2.208215
-2.464670
-2.677882
-2.875178
-3.060162
-3.202203
-3.245747
-3.217518
-3.148149
-2.999802
-2.712416
-2.284791
-1.828938
-1.448460
-1.213026
-0.985099
-0.829845
-0.641557
-0.424141
-0.266485
-0.120239
0.072853
0.405884
0.821197
1.262035
1.626898
1.894464
2.132901
2.459325
2.932296
3.431392
3.826284
4.064421
4.173429
4.250306
4.244600
4.209165
4.060217
3.776435
3.384846
2.960224
2.504971
2.000470
1.513085
1.058133
0.695072
0.366246
0.101683
-0.130748
-0.282699
-0.386602
-0.450866
-0.526541
-0.655069
-0.884497
-1.173384
-1.437947
-1.682390
-1.879987
-1.924431
-1.828335
-1.657465
-1.524133
-1.459869
-1.394404
-1.308218
-1.145156
-0.937950
-0.658071
-0.364380
-0.152669
-0.060477
-0.065883
-0.107024
-0.159275
-0.173089
-0.192608
-0.221137
-0.255971
-0.233749
-0.133750
-0.004321
0.054237
0.001385
-0.104020
-0.209725
-0.279995
-0.344859
-0.420534
-0.471585
-0.491405
-0.500414
-0.438552
-0.270986
0.035319
0.352434
0.822101
1.303780
1.932605
2.556926
3.064730
3.348813
3.478242
3.513977
3.518181
3.483647
3.201967
2.658127
2.002875
1.411287
0.881261
0.362345
-0.193808
-0.682994
-1.156265
-1.565571
-1.964368
-2.282684
-2.472172
-2.580880
-2.564364
-2.497998
-2.348149
-2.143345
-1.912716
-1.688393
-1.495301
-1.233441
-0.958667
-0.707318
-0.585697
-0.564676
-0.632243
-0.792902
-1.070078
-1.359866
-1.486892
-1.483289
-1.394700
-1.342448
-1.386592
-1.422628
-1.275482
-0.944252
-0.560171
-0.193206
0.136222
0.385469
0.572555
0.706188
0.782464
0.893274
1.107387
1.398377
1.708285
1.957232
2.074649
2.008884
1.747924
1.437416
1.189669
1.072553
1.038619
0.986968
0.855137
0.688171
0.496281
0.256342
0.058145
-0.100412
-0.162274
-0.097109
0.052740
0.225412
0.241628
0.138926
-0.022935
-0.113625
-0.199511
-0.308819
-0.403413
-0.431341
-0.322633
-0.108220
0.121809
0.280967
0.295682
0.204992
0.168055
0.217004
0.265352
0.151239
-0.099811
-0.407016
-0.591399
-0.618426
-0.516325
-0.458067
-0.526835
-0.671579
-0.816623
-0.891998
-0.808515
-0.657164
-0.488697
-0.346055
-0.311521
-0.287797
-0.295605
-0.294103
-0.235245
-0.088999
0.097186
0.347635
0.621808
0.983067
1.443424
2.005883
2.538613
2.851224
2.924196
2.856930
2.722996
2.489965
2.098376
1.625105
1.202886
0.919404
0.694480
0.411599
0.149739
-0.022933
-0.060770
-0.068278
-0.065275
0.044034
0.277967
0.573160
0.789976
0.956641
1.033518
0.932017
0.718805
0.499587
0.342231
0.268358
0.306496
0.426615
0.535323
0.583071
0.568656
0.545533
0.526014
0.474963
0.396586
0.351240
0.242833
0.056347
-0.222330
-0.476983
-0.778182
-1.158360
-1.494093
-1.733131
-1.911508
-2.154750
-2.510303
-2.899790
-3.203693
-3.427115
-3.534321
-3.579066
-3.539726
-3.397085
-3.129218
-2.685978
-2.199194
-1.759557
-1.446045
-1.184785
-0.911213
-0.595599
-0.346352
-0.206112
-0.162869
-0.117224
0.008601
0.200192
0.380972
0.464154
0.474965
0.446136
0.473464
0.509800
0.586676
0.757246
1.021509
1.347933
1.676460
1.943725
2.104685
2.185166
2.303183
2.494773
2.720898
2.811588
2.737715
2.572251
2.398978
2.184265
1.984266
1.772256
1.458444
1.078866
0.643133
0.204397
-0.184189
-0.537340
-0.825326
-1.044544
-1.246945
-1.497694
-1.722618
-1.825920
-1.742437
-1.528625
-1.198597
-0.852653
-0.463166
-0.024429
0.401394
0.772563
0.998988
1.127215
1.153041
1.141029
1.104993
1.070759
0.961451
0.732924
0.417610
0.030526
-0.415117
-0.993792
-1.701296
-2.319010
-2.758346
-3.112098
-3.427711
-3.704887
-3.932213
-4.084164
-4.083263
-3.925006
-3.545128
-3.023509
-2.436125
-1.839432
-1.281478
-0.728928
-0.202505
0.240435
0.570463
0.785777
0.905597
0.950341
0.880372
0.665058
0.356651
0.037134
-0.227129
-0.333735
-0.304306
-0.219621
-0.163766
-0.035238
0.234130
0.628722
1.119410
1.591779
2.005591
2.407991
2.790871
3.044023
3.102882
2.957237
2.793574
2.726908
2.760542
2.708890
2.505288
2.280665
2.173758
2.153338
2.141026
2.136822
2.137723
2.117303
2.089075
2.051537
1.978565
1.875562
1.728717
1.460250
1.091183
0.731726
0.397493
0.107705
-0.153254
-0.377577
-0.534933
-0.614512
-0.616614
-0.619017
-0.754751
-1.048443
-1.387480
-1.598290
-1.681773
-1.691382
-1.681172
-1.634626
-1.581173
-1.447239
-1.230124
-0.854750
-0.428026
0.011911
0.382780
0.745841
1.062956
1.274667
1.272264
1.091785
0.843138
0.493290
0.041941
-0.541538
-1.212105
-1.873362
-2.480566
-2.986569
-3.338518
-3.546625
-3.624703
-3.606084
-3.369149
-3.031313
-2.663147
-2.339125
-1.975763
-1.535526
-1.013907
-0.447244
0.143143
0.707104
1.200794
1.598990
1.780070
1.820010
1.815505
1.817007
1.720912
1.530222
1.394487
1.339232
1.363857
1.421514
1.545838
1.768059
2.074363
2.380668
2.693879
2.947031
3.083667
3.113697
3.102586
3.076159
2.977361
2.776161
2.494782
2.132622
1.628721
0.975271
0.265966
-0.437933
-1.117509
-1.703391
-2.137923
-2.494077
-2.868549
-3.160139
-3.313892
-3.401278
-3.539115
-3.686562
-3.707583
-3.645721
-3.579656
-3.600376
-3.626802
-3.648123
-3.604880
-3.473950
-3.309086
-3.095874
-2.828609
-2.489271
-2.106691
-1.669757
-1.295885
-0.998589
-0.794086
-0.753245
-0.887779
-1.116006
-1.237927
-1.237627
-1.182372
-1.191681
-1.323812
-1.462850
-1.474862
-1.279368
-0.999790
-0.646639
-0.306701
0.041946
0.462664
0.989388
1.636831
2.273764
2.878866
3.432917
3.921803
4.277656
4.463241
4.548826
4.513691
4.381560
4.070451
3.629312
3.053039
2.337728
1.490887
0.632033
-0.059554
-0.573966
-1.028317
-1.459546
-1.821706
-2.007891
-1.927411
-1.630415
-1.250838
-0.938227
-0.658950
-0.455347
-0.284778
-0.075169
0.133839
0.316120
0.417020
0.455458
0.399903
0.272276
0.091196
-0.164658
-0.519911
-0.940629
-1.442428
-2.087469
-2.772750
-3.331005
-3.625297
-3.624096
-3.382956
-3.075150
-2.710588
-2.167648
-1.326212
-0.326518
0.675878
1.547345
2.174068
2.554246
2.723614
2.804394
2.903793
3.087576
3.273160
3.491177
3.762947
3.987871
4.126008
4.111294
4.040123
3.993877
4.081865
4.207690
4.184267
3.954238
3.653639
3.280068
2.904995
2.572865
2.343737
2.125420
1.794191
1.374674
1.023926
0.829032
0.766570
0.681586
0.434140
0.012821
-0.489578
-0.887774
-1.190175
-1.411495
-1.618701
-1.797979
-1.953233
-2.060740
-2.163442
-2.267946
-2.376954
-2.337014
-2.180859
-2.041220
-1.945425
-1.826807
-1.662544
-1.536719
-1.542124
-1.658039
-1.833113
-1.883563
-1.778158
-1.565547
-1.383566
-1.284167
-1.237921
-1.190774
-1.157441
-1.128612
-1.058943
-0.917202
-0.691378
-0.389878
0.000510
0.460568
0.845250
1.094798
1.368971
1.708909
2.026624
2.206503
2.329926
2.448244
2.503799
2.468664
2.358455
2.146744
1.854854
1.489091
1.201104
0.983088
0.762068
0.446454
0.162973
0.052763
0.145856
0.383092
0.630538
0.863870
1.093298
1.271074
1.295098
1.110415
0.813119
0.522731
0.323032
0.068079
-0.400687
-1.000383
-1.555935
-1.997074
-2.292267
-2.435209
-2.549022
-2.679352
-2.775147
-2.723495
-2.592565
-2.380554
-2.145721
-1.950527
-1.890467
-1.970647
-2.139114
-2.363737
-2.517791
-2.550823
-2.486259
-2.427100
-2.353827
-2.207282
-1.928004
-1.580258
-1.266446
-0.951733
-0.563447
-0.148435
0.137149
0.293605
0.405616
0.562972
0.933841
1.660263
2.548246
3.360854
3.981871
4.427814
4.738623
4.929914
4.965049
4.888472
4.706191
4.438926
4.078267
3.666558
3.149144
2.502001
1.681885
0.760570
-0.103689
-0.866748
-1.455933
-1.907883
-2.219893
-2.495567
-2.713583
-2.877546
-2.927996
-2.886855
-2.788057
-2.654725
-2.400972
-1.974548
-1.433410
-0.891071
-0.434017
-0.108193
0.126941
0.306519
0.441353
0.536248
0.646157
0.735646
0.860570
0.978888
1.060869
1.226935
1.591497
2.094197
2.462663
2.618218
2.607707
2.569269
2.523924
2.490891
2.445847
2.437739
2.499000
2.598999
2.686986
2.649149
2.499300
2.288190
2.102906
1.964769
1.814620
1.614321
1.362370
1.150059
1.099909
1.192702
1.199308
0.985195
0.722134
0.526339
0.327242
0.018235
-0.382063
-0.704284
-0.956534
-1.237313
-1.600374
-2.023495
-2.436705
-2.845111
-3.229193
-3.598260
-3.891351
-4.035494
-3.971230
-3.739100
-3.369132
-2.981747
-2.641208
-2.387456
-2.133403
-1.747820
-1.220496
-0.704283
-0.436416
-0.309390
-0.124706
0.129947
0.278595
0.292108
0.206823
0.065082
-0.106388
-0.135517
-0.101883
-0.092274
-0.230411
-0.509088
-0.796173
-1.101277
-1.351725
-1.483256
-1.487160
-1.487460
-1.566439
-1.703375
-1.837908
-1.915085
-1.985355
-1.943013
-1.762533
-1.459832
-1.122297
-0.774251
-0.315395
0.241959
0.823037
1.250962
1.496306
1.496907
1.393604
1.237149
0.948262
0.538655
0.060279
-0.384763
-0.650828
-0.706082
-0.674251
-0.568546
-0.441820
-0.259538
-0.034014
0.147667
0.219738
0.156375
0.124544
0.138958
0.283702
0.463581
0.621538
0.722138
0.795711
0.993908
1.328140
1.754264
2.122730
2.443149
2.674078
2.853357
3.051554
3.198700
3.229331
3.112815
2.887891
2.548854
1.966275
1.142256
0.137458
-0.846921
-1.683552
-2.267333
-2.587751
-2.670033
-2.521085
-2.191958
-1.659228
-1.011484
-0.312689
0.335955
0.841658
1.120335
1.242256
1.303818
1.383997
1.586699
1.885496
2.145254
2.216725
2.101110
1.862673
1.562976
1.319734
1.135050
1.050967
0.957574
0.741659
0.416436
0.106528
-0.097675
-0.165242
-0.153830
-0.239115
-0.439715
-0.800373
-1.245115
-1.626794
-1.848114
-1.858925
-1.793760
-1.700968
-1.590758
-1.442411
-1.279949
-1.226196
-1.285655
-1.400969
-1.495263
-1.609376
-1.831898
-2.106370
-2.235499
-2.097361
-1.809976
-1.488656
-1.152622
-0.905777
-0.631604
-0.184760
0.425747
1.050668
1.513128
1.824838
1.995407
2.096308
2.104116
1.872285
1.287604
0.549470
-0.049025
-0.494067
-0.970040
-1.456824
-1.773639
-1.861326
-1.790455
-1.650816
-1.491058
-1.364031
-1.307875
-1.266734
-1.199167
-1.176945
-1.271539
-1.561027
-1.919283
-2.343004
-2.695554
-2.843301
-2.825884
-2.796454
-2.759518
-2.676936
-2.528288
-2.369730
-2.142104
-1.802466
-1.360727
-0.904574
-0.646317
-0.631902
-0.770040
-0.902471
-0.926495
-0.927997
-0.979047
-1.027696
-1.055023
-1.140307
-1.320186
-1.518083
-1.621085
-1.551116
-1.382047
-1.176343
-0.936705
-0.628298
-0.192265
0.313138
0.875597
1.351870
1.820937
2.154268
2.379192
2.574386
2.722433
2.774084
2.727538
2.710421
2.740151
2.732043
2.609521
2.381294
2.032347
1.641058
1.138059
0.624848
0.056984
-0.477247
-1.019286
-1.557421
-2.051712
-2.419878
-2.758614
-3.046000
-3.127981
-3.067321
-2.846602
-2.456814
-1.956817
-1.404868
-0.904571
-0.679948
-0.704873
-0.823490
-0.776944
-0.420790
0.014643
0.441667
0.714038
0.829953
0.883407
1.071994
1.386407
1.620640
1.727246
1.776795
1.933551
2.192708
2.463578
2.584298
2.528743
2.459073
2.457872
2.487301
2.401716
2.173490
1.732651
1.156979
0.589115
0.124553
-0.328897
-0.845411
-1.433696
-2.035794
-2.648403
-3.312063
-3.946293
-4.426770
-4.735477
-5.015956
-5.312050
-5.448986
-5.242081
-4.853494
-4.443887
-4.176321
-3.902749
-3.534283
-3.009061
-2.494649
-2.075733
-1.751410
-1.452013
-1.149612
-0.834599
-0.589856
-0.476943
-0.382950
-0.279647
-0.164933
-0.025595
0.141972
0.343172
0.578606
0.832058
1.146471
1.504427
1.812833
2.059378
2.358175
2.780095
3.280993
3.861470
4.511316
5.138639
5.652450
5.988184
6.072868
5.952448
5.778275
5.641640
5.489989
5.235035
4.942545
4.685189
4.457263
4.201408
3.860569
3.443755
2.977692
2.544962
2.252171
1.978599
1.633856
1.211937
0.879507
0.633863
0.352783
0.060893
-0.170937
-0.315681
-0.368534
-0.489854
-0.818381
-1.331290
-1.907863
-2.453506
-2.992542
-3.440587
-3.795840
-3.915058
-3.849293
-3.704849
-3.550796
-3.418965
-3.285933
-3.154702
-2.993442
-2.836986
-2.630081
-2.387740
-2.149002
-1.956811
-1.725281
-1.475733
-1.206666
-0.843905
-0.468532
-0.040606
0.408040
0.996625
1.628153
2.120642
2.502622
2.889707
3.380695
3.959971
4.526634
4.897803
5.019124
5.008313
4.887893
4.730537
4.618826
4.558166
4.397506
4.062373
3.608922
3.034751
2.428749
1.733258
0.947977
0.106241
-0.717778
-1.488344
-2.158010
-2.611761
-2.825273
-2.874522
-2.834282
-2.664313
-2.297949
-1.773928
-1.125583
-0.485347
0.002038
0.345579
0.529062
0.631464
0.730262
0.720052
0.588521
0.433867
0.218854
0.038975
-0.061024
-0.157721
-0.326488
-0.613574
-0.895854
-1.152910
-1.360416
-1.510865
-1.639393
-1.627681
-1.479934
-1.268825
-1.167624
-1.200356
-1.134291
-0.840599
-0.349310
0.146483
0.637771
1.128759
1.570498
1.942268
2.272596
2.476499
2.606228
2.708029
2.732053
2.571393
2.120645
1.480409
0.855788
0.360896
-0.043606
-0.416877
-0.735193
-0.922880
-0.980537
-0.875432
-0.649908
-0.447807
-0.199460
0.002340
0.120358
0.161499
0.193030
0.274111
0.317954
0.341378
0.351588
0.366903
0.302339
0.169307
-0.132793
-0.610869
-1.292846
-2.064613
-2.772417
-3.354395
-3.820459
-4.178715
-4.485620
-4.703636
-4.805438
-4.736669
-4.463698
-4.091027
-3.694934
-3.338179
-2.956499
-2.462508
-1.830380
-1.066120
-0.323482
0.396334
1.169602
1.999627
2.883106
3.626645
4.185800
4.412526
4.394808
4.266581
4.062979
3.689708
3.267488
2.780704
2.246173
1.714645
1.204437
0.760897
0.395734
0.018859
-0.429486
-0.838793
-1.021375
-0.934588
-0.706962
-0.403661
-0.052011
0.296936
0.538376
0.650387
0.626964
0.535673
0.357596
0.174114
-0.016275
-0.193751
-0.435492
-0.783538
-1.276928
-1.720169
-2.064311
-2.423167
-2.764607
-3.044785
-3.254093
-3.369408
-3.354993
-3.256195
-3.159499
-3.122862
-3.141481
-3.124364
-3.045986
-2.980220
-2.866707
-2.701243
-2.398542
-2.002148
-1.527376
-1.002454
-0.448403
0.026669
0.358499
0.497837
0.508348
0.459699
0.434775
0.404144
0.194536
-0.112970
-0.488042
-0.919872
-1.461910
-1.983829
-2.307250
-2.366409
-2.141786
-1.670017
-1.019871
-0.283839
0.435076
1.092129
1.734467
2.326055
2.770798
3.095120
3.347971
3.553376
3.673795
3.689111
3.627249
3.516439
3.404128
3.251576
3.129354
3.001127
2.807735
2.623652
2.523953
2.515545
2.399629
2.140472
1.815549
1.602938
1.496632
1.431467
1.327864
1.084322
0.871110
0.784925
0.754294
0.713154
0.657899
0.699941
0.935975
1.325162
1.826961
2.307439
2.683112
2.893321
3.006233
3.133260
3.282208
3.342267
3.271397
3.020047
2.635065
2.210443
1.702638
1.184623
0.704146
0.341085
0.057303
-0.224377
-0.512664
-0.747797
-0.982631
-1.254401
-1.536081
-1.818361
-2.110252
-2.409949
-2.662200
-2.900637
-3.063098
-3.041777
-2.888625
-2.595534
-2.279620
-1.878421
-1.473018
-1.151098
-0.939387
-0.783532
-0.685935
-0.627977
-0.543894
-0.440591
-0.299751
-0.147199
-0.076029
-0.136989
-0.189241
-0.261913
-0.339690
-0.490741
-0.580229
-0.589539
-0.509960
-0.460110
-0.544794
-0.611460
-0.526175
-0.333684
-0.173925
-0.173024
-0.295546
-0.472722
-0.597947
-0.636385
-0.725573
-0.903650
-1.066712
-1.023169
-0.787735
-0.419869
0.012861
0.365411
0.591236
0.742586
0.873817
0.910453
0.780124
0.499045
0.152500
-0.223474
-0.651399
-1.104549
-1.478421
-1.836076
-2.284122
-2.747782
-3.142074
-3.370301
-3.515946
-3.501531
-3.346878
-3.215347
-3.155888
-3.036369
-2.837872
-2.670005
-2.550786
-2.413550
-2.259797
-2.154092
-2.084723
-2.043582
-2.079317
-2.152890
-2.068206
-1.762202
-1.418060
-1.214157
-1.064008
-0.811757
-0.490738
-0.295844
-0.307255
-0.398546
-0.564311
-0.747192
-0.916561
-1.122866
-1.307850
-1.419561
-1.278721
-0.926470
-0.491037
-0.023172
0.521269
1.154598
1.814655
2.430867
2.915249
3.204736
3.256988
3.120653
2.902336
2.617353
2.304141
1.968108
1.632674
1.312856
1.007152
0.747695
0.587035
0.583131
0.731178
0.895141
1.033579
1.171716
1.257001
1.286430
1.292737
1.253097
1.123969
1.011357
0.947394
0.881628
0.708356
0.467217
0.293944
0.215266
0.251903
0.381331
0.545294
0.613462
0.600850
0.608958
0.681330
0.729678
0.778627
0.880728
1.046793
1.224870
1.353999
1.418863
1.378023
1.319465
1.320065
1.367512
1.370215
1.333879
1.229075
1.151898
1.095142
1.133280
1.180126
1.239886
1.300546
1.316162
1.208955
0.844693
0.287940
-0.390134
-1.100640
-1.771207
-2.451983
-3.180808
-3.812336
-4.295516
-4.669087
-5.028544
-5.319233
-5.591604
-5.756768
-5.817128
-5.684096
-5.234248
-4.612330
-3.997019
-3.486811
-2.909638
-2.240272
-1.483520
-0.766107
-0.206050
0.181936
0.540192
1.023973
1.539886
2.003246
2.318860
2.504144
2.687627
2.941379
3.216452
3.430866
3.545580
3.558192
3.498133
3.454589
3.463899
3.502037
3.482217
3.395431
3.222759
2.999037
2.662102
2.208651
1.691838
1.118568
0.580433
0.099655
-0.300943
-0.546287
-0.601241
-0.535176
-0.416858
-0.198841
0.182538
0.632385
0.984935
1.181030
1.312862
1.512560
1.757604
1.864510
1.731177
1.477425
1.240490
0.995747
0.649803
0.220977
-0.218961
-0.571211
-0.770309
-0.844182
-0.889227
-0.898536
-0.834873
-0.629769
-0.403944
-0.200041
-0.049592
0.106263
0.348604
0.651906
0.865418
0.879532
0.766920
0.641996
0.436291
0.008666
-0.569408
-1.082918
-1.399133
-1.509643
-1.458291
-1.399133
-1.298232
-1.104540
-0.832169
-0.502141
-0.159500
