EVENT_NAME: 202302060117
EVENT_ID: 13194
EVENT_DATE_YYYYMMDD: 2023/02/06
EVENT_TIME_HHMMSS: 01:17:32.00000
EVENT_LATITUDE_DEGREE: 37.288
EVENT_LONGITUDE_DEGREE: 37.043
EVENT_DEPTH_KM: 8.6
HYPOCENTER_REFERENCE: AFAD
MAGNITUDE_W: 7.7
MAGNITUDE_W_REFERENCE: AFAD
MAGNITUDE_L: 
MAGNITUDE_L_REFERENCE: 
FOCAL_MECHANISM: 
NETWORK: TK
STATION_CODE: 4616
STATION_NAME: 
STATION_LATITUDE_DEGREE: 37.37547
STATION_LONGITUDE_DEGREE: 36.83836
STATION_ELEVATION_M: 499.0
LOCATION: Kahramanmaras_Pazarck_Turkiye
SENSOR_DEPTH_M: 
VS30_M/S: 390
SITE_CLASSIFICATION_EC8: B
MORPHOLOGIC_CLASSIFICATION: 
EPICENTRAL_DISTANCE_KM: 20.54
EARTHQUAKE_BACKAZIMUTH_DEGREE: 
DATE_TIME_FIRST_SAMPLE_YYYYMMDD_HHMMSS: 2023/02/06 01:17:05.8373470
DATE_TIME_FIRST_SAMPLE_PRECISION: millisecond
SAMPLING_INTERVAL_S: 0.01
NDATA: 10501
DURATION_S: 
STREAM: HNN
UNITS: cm/s^2
INSTRUMENT: sensor = GMS+/GEOSIG | digitizer = 
INSTRUMENT_ANALOG/DIGITAL: 
INSTRUMENTAL_FREQUENCY_HZ: 
INSTRUMENTAL_DAMPING: 
FULL_SCALE_G: 
N_BIT_DIGITAL_CONVERTER: 
PGA_CM/S^2: 652.757
TIME_PGA_S: 
BASELINE_CORRECTION: BASELINE REMOVED
FILTER_TYPE: BUTTERWORTH
FILTER_ORDER: 
LOW_CUT_FREQUENCY_HZ: 
HIGH_CUT_FREQUENCY_HZ: 
LATE/NORMAL_TRIGGERED: 
DATABASE_VERSION: 
HEADER_FORMAT: DYNA 1.2
DATA_TYPE: Acceleration
PROCESSING: Automatic Paolucci et al., 2011
DATA_TIMESTAMP_YYYYMMDD_HHMMSS: 
DATA_LICENSE: U (unknown license)
DATA_CITATION: Turkish Accelerometric Archive v 1.0 - Disaster And Emergency Management Presidency, Earthquake Department
DATA_CREATOR: AFAD
ORIGINAL_DATA_MEDIATOR_CITATION: : AFAD - Disaster And Emergency Management Presidency
ORIGINAL_DATA_MEDIATOR: AFAD PROCESS SERVICE
ORIGINAL_DATA_CREATOR_CITATION: AFAD PROCESS SERVICE
ORIGINAL_DATA_CREATOR: network: TK
USER1: GuestUser
USER2: 
USER3: 
USER4: 
USER5: 
[...]
25.788919
11.931079
-7.316427
-32.287659
-53.917497
-59.857871
-52.119127
-43.081282
-36.365764
-33.004888
-28.819768
-22.127628
-18.968592
-20.622276
-26.995944
-33.461828
-28.687555
-10.990867
4.766914
11.538023
9.826670
-3.546184
-18.955879
-25.251875
-26.076380
-24.630773
-24.513359
-31.507872
-35.011104
-28.374814
-17.990853
-3.256558
10.168507
8.980327
-6.504181
-23.233496
-32.214454
-34.410014
-32.954017
-26.499564
-16.586562
-5.354978
9.603497
19.909528
18.480803
15.863639
19.484803
30.842374
47.021758
60.407857
70.246046
76.955591
81.613748
77.069626
56.139343
25.703373
-9.964063
-39.019626
-45.699300
-37.524405
-32.518159
-32.678178
-35.674342
-42.922908
-44.259156
-33.957281
-22.987802
-21.109422
-28.654123
-42.967077
-63.728511
-81.656395
-84.720879
-77.737020
-61.376578
-30.317687
11.151143
49.413398
70.208078
73.875740
61.050996
37.383280
19.810757
15.334175
9.248850
-13.036641
-39.400749
-53.151306
-41.696841
-9.811369
22.556492
46.664253
52.330829
40.289545
20.936314
-1.209942
-19.122760
-31.689555
-42.055855
-47.758282
-40.189425
-17.042546
12.536706
44.936778
75.132200
92.528597
97.669143
89.988323
69.019595
46.821645
24.576937
-0.294284
-23.984341
-47.453595
-66.998535
-79.444278
-78.834344
-63.560771
-43.894522
-29.279980
-26.097825
-25.183703
-23.366628
-27.267305
-26.951428
-19.422576
-13.480906
-6.398854
9.892749
34.380550
59.391524
80.782632
90.378457
80.391418
58.720018
34.083886
12.637965
-1.857347
-11.908808
-21.124596
-31.321788
-33.720746
-23.539663
-12.450432
-5.629967
-2.190381
-6.918938
-15.032531
-17.547086
-15.951333
-15.694944
-20.021900
-28.440979
-37.232826
-42.684837
-45.183027
-44.322936
-33.706483
-10.502195
17.922909
43.759685
65.057276
73.047476
63.127976
46.320471
28.351802
15.818258
11.935506
8.082367
3.294842
-2.035077
-9.315854
-18.024835
-24.703470
-31.665252
-44.249970
-48.370670
-46.735692
-47.510062
-35.247979
-11.444146
12.567760
31.983333
42.719280
37.291947
24.517338
19.922821
17.053943
15.945771
12.281743
-3.459675
-21.452501
-30.075239
-29.081629
-27.415998
-26.218989
-25.002238
-28.655096
-29.632084
-25.523337
-24.325548
-26.247313
-30.667006
-34.816280
-34.054382
-27.534988
-19.182672
-18.109832
-20.639713
-15.098605
0.921801
23.681886
44.766467
60.850516
68.470547
68.436256
68.905655
64.868341
53.997571
40.526784
26.559062
14.511284
7.144524
6.658496
5.236525
-3.358677
-14.597278
-20.311655
-16.620614
-7.207405
1.712245
3.032124
-1.365229
-3.515329
-3.163086
-0.789847
-0.814007
-11.324219
-30.968650
-52.267283
-60.878851
-49.981848
-30.648102
-9.091263
10.770851
23.082031
31.446037
41.297214
51.841452
56.633390
53.424995
43.645250
27.747452
10.076737
-6.620627
-18.749712
-23.306043
-21.606902
-18.388120
-22.016300
-28.938597
-30.127296
-26.391315
-22.650399
-22.825484
-27.559496
-34.742860
-39.721054
-36.313160
-24.211873
-12.355028
-4.764610
0.606090
-0.003067
-6.288154
-12.069290
-11.490789
-1.620648
12.956227
25.697583
30.249235
27.550245
24.502386
23.797115
26.736907
25.981500
16.058624
5.912607
0.739587
0.152770
0.098736
-5.085973
-8.931319
-6.784079
-4.108211
-1.384026
0.329921
-2.180997
-6.683037
-10.677749
-13.233348
-14.734288
-14.475041
-10.818030
-7.635875
-9.065119
-10.194592
-10.611521
-14.948607
-15.359042
-7.920070
3.130456
19.448816
39.602649
51.679518
46.134251
29.306743
11.008949
-7.003361
-23.750860
-33.984419
-36.392729
-36.085425
-33.156283
-20.583777
0.863441
18.419595
29.827821
36.358645
32.391727
24.237091
17.075288
7.845472
-2.515373
-12.786858
-21.048258
-17.996766
-4.627811
4.025836
11.890568
18.047846
14.680473
15.482375
21.384560
25.249905
25.048324
15.739019
-0.777286
-22.455960
-43.021528
-52.845953
-53.414327
-50.017083
-45.072402
-30.384086
-1.114477
28.106295
48.168430
54.968114
46.964923
35.174055
30.295612
35.876724
42.990727
38.948737
25.495874
10.908345
2.298855
4.792886
11.851818
15.936667
14.430531
7.264571
0.508526
-5.829813
-13.950939
-22.449508
-28.500024
-27.072860
-20.193948
-13.859508
-10.812432
-12.512615
-16.042343
-17.227405
-15.700231
-11.840861
-11.574081
-18.514302
-24.734186
-24.863033
-16.502404
0.676567
18.168039
25.131636
20.035507
12.369495
5.962837
2.429212
3.567254
2.107617
-1.261835
-4.901964
-11.434090
-17.915041
-22.280962
-17.594750
-2.661733
18.680279
39.772653
45.114779
37.576312
27.853977
22.009457
23.276603
26.685277
32.499920
34.926411
29.846388
25.999743
26.447841
28.244395
23.394786
7.838063
-10.242566
-23.879604
-33.741954
-38.912636
-37.986565
-35.291734
-33.704034
-34.389563
-35.316936
-32.880574
-29.681794
-25.778263
-17.687532
-7.990917
0.011233
8.234445
14.443156
14.947104
13.222244
12.749205
14.848648
21.961871
31.624198
35.706709
31.507559
22.786629
15.903037
14.838247
19.550955
26.171918
25.978130
18.901271
8.854745
-3.744001
-12.582606
-16.210526
-21.316786
-29.188795
-34.081525
-32.361603
-29.607545
-26.874528
-19.741562
-13.566620
-11.443798
-11.109738
-11.105584
-8.713382
-1.197259
11.864131
23.394188
27.707633
21.721280
6.376008
-7.862393
-14.659742
-15.524511
-9.172667
0.707085
0.814108
-6.441731
-13.185308
-13.162190
3.203707
25.499846
42.047061
49.262633
45.282728
37.991041
32.873351
30.637787
29.229584
27.839304
25.029393
18.912636
14.636335
11.099593
3.338765
-11.379427
-30.227929
-45.122244
-53.758490
-53.079718
-43.588579
-30.605120
-17.812590
-7.566306
-1.207968
2.735568
11.801986
23.581941
31.438100
35.156937
30.975970
23.637525
21.883311
19.983107
12.787794
6.060842
-1.375796
-12.542181
-19.812307
-20.879436
-19.178736
-18.235521
-17.720662
-12.720910
-1.122534
18.562158
39.653494
48.892398
39.607772
15.483383
-16.300783
-46.463477
-63.313325
-67.422595
-68.740659
-72.175831
-76.894517
-81.612164
-79.412191
-62.638198
-37.498380
-11.393004
12.899452
26.685334
25.291418
16.900393
10.055766
8.360520
11.397984
14.412849
20.617145
31.595196
38.755957
48.407113
58.522994
51.301184
34.705909
16.527608
-1.263639
-8.154244
-8.368035
-5.859198
-5.360185
-12.272351
-18.421059
-23.522383
-30.286742
-37.460754
-45.366532
-48.086823
-41.228432
-29.862028
-16.563211
2.212553
25.731160
50.783177
73.725099
88.174429
88.895803
77.395875
58.425802
32.516288
-3.071659
-39.284608
-61.491390
-68.928547
-58.858126
-34.418901
-7.542534
14.813352
27.045302
28.384924
19.233039
10.151031
5.791085
-6.899100
-25.687595
-42.724476
-57.177186
-56.608295
-39.790402
-22.803400
-11.901461
-6.813128
-5.523642
-3.832814
3.959963
20.380151
39.086298
47.690329
43.813032
35.664630
25.028950
15.965906
13.925687
13.924127
9.373771
1.488774
-3.148605
-2.537892
0.359818
4.920822
3.550544
-10.269370
-25.601135
-34.000212
-34.446755
-26.634756
-17.863953
-10.883731
-0.898513
8.555999
14.184909
13.795515
1.991919
-15.261608
-29.033986
-32.241342
-24.390377
-16.682545
-15.362666
-20.937287
-30.566885
-39.062337
-39.780337
-32.257459
-23.477045
-7.514568
16.286147
37.536980
54.218496
55.504345
36.075781
10.132498
-9.337629
-14.787042
-12.060000
-12.293273
-12.422639
-10.054337
-9.188791
-5.323706
0.544710
3.736477
7.118654
7.959261
5.449642
-0.490733
-10.069936
-17.422669
-25.620426
-32.343222
-26.079439
-14.000232
-1.543842
13.578286
20.472525
22.869662
27.985790
24.138106
14.895821
5.422863
-10.499873
-17.790781
-9.511199
-4.123874
-3.864627
-5.639363
-14.215343
-23.011346
-20.360156
-10.296488
-7.220837
-8.528251
-9.103119
-11.834061
-12.261120
-10.262208
-8.793481
-6.397124
-2.155375
1.890769
3.034006
3.330659
2.081434
-3.482017
-10.293653
-13.950668
-12.815743
-6.457665
1.260039
2.248454
-1.243088
-1.256338
-0.103749
-2.173841
-6.883954
-13.515311
-21.667350
-30.801311
-34.295711
-28.018420
-20.776871
-16.063644
-16.109884
-21.596444
-24.392587
-23.724725
-18.145172
-8.214765
-1.283119
0.003770
-3.199690
-6.273785
-6.747863
-5.751395
-4.591273
-2.448449
-2.208944
-7.387159
-14.123722
-21.525291
-23.283662
-13.001789
1.214528
16.520313
31.055625
34.442478
30.359185
26.303686
18.866529
7.422971
-3.184134
-10.235276
-13.496144
-5.901830
7.893663
16.075053
14.737766
1.625978
-13.394844
-24.021691
-25.941897
-20.491188
-14.800714
-3.752266
5.691596
7.454379
8.548001
10.240647
10.588475
10.786157
11.211655
6.203068
-3.757734
-9.408987
-10.284406
-12.231888
-9.494975
2.742431
14.494330
16.474280
11.360227
1.585419
-11.636251
-22.637683
-30.891551
-31.778140
-18.802994
-3.901149
0.960926
2.945811
1.122758
-2.582053
6.001976
17.942207
26.021768
30.766687
24.571740
10.421920
-1.718335
-1.918878
8.801483
20.155938
25.305576
20.116970
6.180679
-5.919572
-4.981552
2.930718
8.666392
8.917846
-3.929238
-20.673880
-27.263674
-28.510302
-25.342174
-19.064364
-20.494907
-24.546249
-20.699348
-12.945536
-6.468225
0.498230
9.027708
14.346455
21.028723
33.686174
39.820852
36.043305
29.803158
19.649089
11.267675
13.279836
12.185952
3.809474
-5.894159
-18.560444
-19.593802
-9.072424
-2.956189
-2.884235
-11.316044
-25.478852
-33.658946
-30.008948
-19.190654
-10.114105
-8.241959
-13.258339
-21.173729
-30.372112
-40.882584
-45.013675
-40.015482
-35.703336
-28.493478
-15.749266
-4.865770
4.594716
12.179418
19.230558
25.869185
27.745228
24.859984
16.779122
4.894218
-5.382982
-14.687351
-22.172305
-28.333482
-34.962761
-35.278640
-35.580492
-36.070676
-26.027790
-14.754123
-6.831982
-1.265417
-3.358628
-10.731623
-18.361528
-19.632574
-16.105966
-10.589795
-1.724178
-0.701732
-6.538979
-10.120141
-10.205606
-3.958709
6.315631
17.052357
23.308866
22.658665
21.066287
22.045610
21.335663
17.782815
17.631629
23.184686
32.572438
37.047199
30.312974
12.885142
-12.246107
-30.057096
-33.658520
-24.890315
-7.998388
6.151169
11.997764
8.192942
2.889519
-1.528875
-9.531807
-12.292103
-9.532070
-8.289082
-4.929765
-4.622461
-11.486570
-18.208326
-19.100111
-16.104728
-12.191066
5.702526
26.029624
31.117437
20.901543
-4.501424
-27.818194
-47.250135
-52.766568
-35.025200
-20.279735
-19.705390
-19.011551
-2.376015
23.752221
55.131405
78.002671
57.971185
7.937804
-33.214892
-40.914675
-23.695700
3.373415
31.953081
28.165143
9.664211
0.913667
-7.408260
-6.584277
-2.395261
-0.350110
-2.991692
-11.586634
-25.600076
-42.366798
-58.106398
-66.041271
-56.065924
-43.357819
-23.206064
3.410535
12.290440
10.426344
-1.128394
-19.173174
-24.383861
-19.852471
-17.438968
-12.695088
2.252736
14.092177
21.065386
33.028217
39.209913
38.767526
32.974440
27.402417
27.215123
14.965505
-2.755604
-8.320095
-6.205585
-4.781539
-16.052871
-34.607316
-43.166930
-31.577126
-1.451841
6.303788
-17.468875
-43.701800
-66.080288
-75.090600
-70.479980
-50.490840
-10.635688
21.805167
14.043820
2.065660
32.920373
50.702525
42.514378
55.730849
57.006049
43.561498
52.979643
74.075654
102.615835
133.898645
140.994464
113.642979
67.921485
35.538554
32.155075
31.003003
11.392342
-17.547105
-62.107436
-105.025255
-115.238812
-116.211644
-108.275736
-77.613511
-60.085152
-49.976025
-17.812342
6.623246
28.631562
88.301552
146.373968
167.185793
153.999712
115.650432
75.314187
35.953890
37.294811
83.562074
109.687192
97.268466
56.596600
6.838053
-31.605263
-38.935656
-25.083273
-4.734874
20.419492
27.935356
28.852595
35.770992
41.738899
47.085961
58.091287
83.509837
106.644247
122.632441
135.629149
132.471668
121.021616
102.646931
74.742918
56.090281
40.729423
21.781690
15.505695
18.356387
15.961585
8.853554
-5.866197
-32.703862
-60.373304
-81.992231
-88.326413
-70.786105
-34.360150
-2.009953
19.178795
55.490453
70.450486
43.927141
30.879516
58.354908
89.572257
93.468255
103.928068
107.803804
85.507403
76.419680
93.939986
111.974632
100.872150
70.588923
45.066204
9.915446
-23.683199
-9.351024
32.778396
61.956047
75.475927
77.327551
46.244239
-3.822912
-21.374653
-14.429759
10.155715
43.952299
74.586469
82.823968
45.851458
31.393553
14.174316
-38.450251
-36.605121
-4.450530
12.479064
33.949141
63.204723
60.371692
40.082517
58.521103
94.171391
140.027182
184.168764
218.809335
243.856157
258.911265
265.084129
234.747650
199.807044
146.730222
49.435183
-56.377645
-167.857830
-228.255172
-241.550616
-229.368801
-175.326683
-160.427436
-189.688475
-227.634596
-200.069064
-128.424553
-76.415639
37.402454
136.311427
184.039366
181.256470
112.722417
108.934480
140.351330
140.568235
141.212718
98.695981
12.805534
-66.750212
-87.178883
-25.742991
11.293419
30.398569
86.961474
73.294303
18.605880
22.042608
9.684407
-1.850849
35.382725
35.564042
27.237959
35.236991
13.632611
-15.354374
-34.198460
-31.768852
-18.931382
2.215284
47.946126
81.175118
124.151901
210.143655
269.788187
298.105486
267.608731
154.199509
79.650789
71.302366
117.658730
206.732110
247.590746
232.135592
177.195194
137.660853
158.764657
190.944446
274.735965
354.537709
335.169931
259.554604
82.224289
-132.402205
-257.507218
-305.031761
-302.555914
-351.999882
-382.901616
-293.090755
-284.694278
-348.334043
-362.920014
-395.183191
-413.518652
-399.946559
-389.747033
-326.094281
-136.734897
67.611799
205.358154
418.993371
652.756706
649.321793
466.441277
371.144633
331.056726
276.388306
296.433815
270.904862
134.693991
-104.244963
-441.199289
-581.938954
-535.779234
-354.791910
-145.501052
-20.345647
22.642566
-253.023416
-61.336251
307.322228
-8.522318
-84.563404
23.600581
34.412380
152.682896
144.362268
263.887722
425.071379
357.439240
339.695271
361.942314
355.692296
364.848335
325.842881
337.862601
356.810591
302.426097
185.394671
-33.596703
-266.646458
-358.397789
-459.919511
-594.701398
-499.090698
-403.942126
-428.595142
-476.797939
-546.059343
-497.436764
-471.540501
-539.551381
-578.891676
-575.614186
-535.398216
-528.049383
-552.680839
-570.981231
-572.579844
-509.305055
-468.409793
-513.990233
-533.109673
-506.763232
-472.568943
-448.600678
-408.813325
-306.267341
-152.548375
2.092247
100.026571
160.938251
226.173509
347.171587
365.338456
276.457041
306.525956
283.916274
124.441107
-13.201085
-79.419307
-155.454938
-161.271143
-65.556536
-49.900845
-1.923789
54.045027
54.681197
85.347838
82.028522
74.088974
76.939406
63.731504
25.797593
-32.000252
-80.361507
-127.979047
-131.028465
-79.151513
-21.566681
23.806721
50.528007
51.724496
25.182707
-4.181720
-23.803551
-2.808330
41.969684
70.078910
80.886033
45.820739
-4.540470
-62.396763
-122.062858
-141.946796
-126.135503
-101.171807
-89.864371
-83.481095
-88.108602
-105.163667
-139.290939
-154.670241
-117.660067
-73.011937
-53.309061
-43.102521
16.809572
98.400597
172.682792
252.237756
287.250834
300.383659
285.324132
190.862642
39.152199
-100.016389
-107.423673
-24.324435
-4.980299
-4.231390
81.435134
126.818667
40.880683
-48.042295
-112.427854
-158.913066
-116.927038
-69.462504
-97.537443
-76.131009
-26.431692
-53.828897
-85.669952
-93.834459
-101.518915
-121.973822
-157.306418
-197.786055
-222.867688
-236.944773
-246.638794
-221.834076
-173.568418
-110.966169
-66.447144
-26.435352
38.966157
89.242938
126.007631
156.048491
183.327499
199.510260
207.947261
213.835678
192.058033
178.049786
157.544744
124.733976
117.569315
101.655671
70.912655
36.541201
30.377946
56.273949
81.809654
114.617042
157.958020
219.313643
252.419505
249.142531
257.595897
243.256447
194.756995
153.880173
142.803667
123.458229
86.937195
83.680223
79.951773
50.946604
29.484837
30.333497
31.818329
14.732092
4.389951
-16.287578
-48.335408
-45.231182
-24.590804
-9.957559
25.680521
65.931299
93.181472
119.948477
119.509208
97.273592
71.602285
43.488381
19.934442
-5.658674
-21.906380
-26.597790
-28.895439
-24.269493
-30.321568
-52.254035
-78.590348
-123.756977
-168.186645
-181.589892
-196.053512
-210.984714
-208.513803
-219.804617
-197.755518
-110.402320
-30.912818
25.125356
74.058358
124.976506
143.471721
86.037551
8.129513
-32.850697
-43.400653
-100.318924
-136.929837
-103.797999
-112.782593
-115.702646
-151.772463
-159.241831
-31.918663
30.247176
60.308038
153.116882
233.450370
261.979641
237.631332
197.019733
159.669780
128.417359
41.820863
-79.922493
-175.052885
-214.330576
-241.602053
-302.548285
-260.506407
-186.757256
-155.294686
-140.891595
-158.062776
-151.360246
-186.026536
-208.872347
-186.440090
-133.481724
-24.019939
75.118409
171.591279
242.271012
290.130133
298.163195
249.599840
219.344669
206.259637
169.305311
128.543306
106.622529
66.340315
65.227728
83.235878
60.960517
55.540718
-13.316227
-78.758263
-60.828303
-148.719482
-254.579329
-259.649740
-182.635566
-10.704531
135.346086
177.145861
193.477468
333.506925
318.964076
107.371151
10.882693
-91.753434
-158.953059
-248.881079
-328.205372
-229.150150
-189.190311
-165.368035
-86.612377
-32.885618
-22.917805
-70.324673
-96.246136
-135.349003
-166.601424
-151.427342
-140.605152
-82.785230
-8.479916
9.655521
5.204396
-8.938151
-40.869085
-100.968214
-146.877520
-152.156266
-170.453281
-163.582161
-141.440324
-139.859378
-144.781722
-147.497857
-116.049314
-63.571260
2.403817
43.670288
94.413093
158.186896
151.967530
149.557142
168.551112
178.615299
211.569976
241.119615
249.905484
242.089585
202.099610
130.837475
43.799892
-46.879636
-92.756731
-77.737730
-50.457164
-4.839840
19.884350
2.420930
6.920888
-11.825006
-72.780849
-86.568813
-52.112158
-31.608677
-11.859303
-8.655846
-28.601868
-45.517697
-70.683755
-67.424448
-39.016749
-7.965392
10.337335
11.950492
12.593416
-5.706716
-20.601290
-23.751498
-15.536598
15.031591
46.261149
84.752779
145.194798
195.740439
233.243133
274.810155
275.275918
236.520620
183.423276
89.014000
-4.751572
-50.444231
-118.355881
-199.174099
-185.969837
-125.578732
-123.113276
-142.229859
-142.765502
-161.927284
-177.351266
-190.972458
-183.919501
-140.157180
-117.210582
-97.463285
-95.050562
-101.265771
-112.123293
-140.712573
-135.238485
-120.587835
-101.678810
-70.533417
-35.149390
17.605317
54.395727
85.914667
125.179366
122.426344
93.185826
61.231513
6.373721
-51.851962
-105.557682
-129.679993
-121.511852
-112.212941
-36.614762
55.713251
80.924505
117.640881
156.276423
154.912900
140.299913
129.715668
140.376282
156.577487
152.450033
125.758877
81.920441
23.493698
-29.925239
-65.316283
-70.143551
-35.355952
6.211330
49.822207
111.804131
176.126563
202.289868
202.931753
213.831613
218.144798
227.159783
236.087745
228.039614
230.820168
239.878534
242.129421
240.900718
235.555472
229.947340
205.422390
183.197684
192.143830
186.930286
162.593926
142.886891
126.598402
96.831594
39.287283
-21.210330
-69.102965
-107.798515
-150.848296
-189.954540
-173.735152
-116.883125
-69.645629
-25.209469
26.154700
70.371356
70.026382
22.132969
-25.559125
-54.230231
-79.690347
