EVENT_NAME: 202302060117
EVENT_ID: 13194
EVENT_DATE_YYYYMMDD: 2023/02/06
EVENT_TIME_HHMMSS: 01:17:32.00000
EVENT_LATITUDE_DEGREE: 37.288
EVENT_LONGITUDE_DEGREE: 37.043
EVENT_DEPTH_KM: 8.6
HYPOCENTER_REFERENCE: AFAD
MAGNITUDE_W: 7.7
MAGNITUDE_W_REFERENCE: AFAD
MAGNITUDE_L: 
MAGNITUDE_L_REFERENCE: 
FOCAL_MECHANISM: 
NETWORK: TK
STATION_CODE: 0603
STATION_NAME: 
STATION_LATITUDE_DEGREE: 39.55831
STATION_LONGITUDE_DEGREE: 33.11857
STATION_ELEVATION_M: 1305.0
LOCATION: Kahramanmaras_Pazarck_Turkiye
SENSOR_DEPTH_M: 
VS30_M/S: 450
SITE_CLASSIFICATION_EC8: B
MORPHOLOGIC_CLASSIFICATION: 
EPICENTRAL_DISTANCE_KM: 424.91
EARTHQUAKE_BACKAZIMUTH_DEGREE: 
DATE_TIME_FIRST_SAMPLE_YYYYMMDD_HHMMSS: 2023/02/06 01:18:06.0389260
DATE_TIME_FIRST_SAMPLE_PRECISION: millisecond
SAMPLING_INTERVAL_S: 0.01
NDATA: 21001
DURATION_S: 
STREAM: HNN
UNITS: cm/s^2
INSTRUMENT: sensor = CMG-5T/GURALP | digitizer = 
INSTRUMENT_ANALOG/DIGITAL: 
INSTRUMENTAL_FREQUENCY_HZ: 
INSTRUMENTAL_DAMPING: 
FULL_SCALE_G: 
N_BIT_DIGITAL_CONVERTER: 
PGA_CM/S^2: 3.408
TIME_PGA_S: 
BASELINE_CORRECTION: BASELINE REMOVED
FILTER_TYPE: BUTTERWORTH
FILTER_ORDER: 
LOW_CUT_FREQUENCY_HZ: 
HIGH_CUT_FREQUENCY_HZ: 
LATE/NORMAL_TRIGGERED: 
DATABASE_VERSION: 
HEADER_FORMAT: DYNA 1.2
DATA_TYPE: Acceleration
PROCESSING: Automatic Paolucci et al., 2011
DATA_TIMESTAMP_YYYYMMDD_HHMMSS: 
DATA_LICENSE: U (unknown license)
DATA_CITATION: Turkish Accelerometric Archive v 1.0 - Disaster And Emergency Management Presidency, Earthquake Department
DATA_CREATOR: AFAD
ORIGINAL_DATA_MEDIATOR_CITATION: : AFAD - Disaster And Emergency Management Presidency
ORIGINAL_DATA_MEDIATOR: AFAD PROCESS SERVICE
ORIGINAL_DATA_CREATOR_CITATION: AFAD PROCESS SERVICE
ORIGINAL_DATA_CREATOR: network: TK
USER1: GuestUser
USER2: 
USER3: 
USER4: 
USER5: 
[...]
-1.625062
-1.636396
-1.643322
-1.647730
-1.647729
-1.639543
-1.634191
-1.621912
-1.603651
-1.589168
-1.566499
-1.548553
-1.527774
-1.505735
-1.488104
-1.474250
-1.462286
-1.449692
-1.442136
-1.439932
-1.442136
-1.448117
-1.460081
-1.480230
-1.501324
-1.518955
-1.539104
-1.559883
-1.580348
-1.596719
-1.613720
-1.634184
-1.653074
-1.677946
-1.706911
-1.737136
-1.773342
-1.813641
-1.855829
-1.907147
-1.955632
-2.006006
-2.062992
-2.117774
-2.171611
-2.226077
-2.284008
-2.333437
-2.379403
-2.422536
-2.455908
-2.486448
-2.512894
-2.529265
-2.541858
-2.549414
-2.554451
-2.555396
-2.554136
-2.551932
-2.548783
-2.539338
-2.526114
-2.513521
-2.496204
-2.476369
-2.454015
-2.434810
-2.415290
-2.403011
-2.396399
-2.392621
-2.390731
-2.386953
-2.389786
-2.394509
-2.392304
-2.381285
-2.370265
-2.361449
-2.337207
-2.304463
-2.272349
-2.230790
-2.178212
-2.120911
-2.062981
-1.999068
-1.926655
-1.861168
-1.790959
-1.720435
-1.650855
-1.580016
-1.508863
-1.439913
-1.374111
-1.307050
-1.245656
-1.180170
-1.123499
-1.064623
-1.009841
-0.961356
-0.905944
-0.859348
-0.820937
-0.782841
-0.746635
-0.709798
-0.683666
-0.655016
-0.623217
-0.594881
-0.564342
-0.534746
-0.503262
-0.473982
-0.442183
-0.410069
-0.379530
-0.346471
-0.317506
-0.286966
-0.249815
-0.219276
-0.184013
-0.149381
-0.118212
-0.093339
-0.061540
-0.037612
-0.024074
-0.008332
0.003318
0.014967
0.018116
0.024727
0.034803
0.040470
0.038896
0.039211
0.037322
0.027877
0.014654
0.002061
-0.016199
-0.036664
-0.058387
-0.082000
-0.111909
-0.142133
-0.169524
-0.205416
-0.241622
-0.271846
-0.305848
-0.340795
-0.373853
-0.401873
-0.423912
-0.451932
-0.470193
-0.483101
-0.495379
-0.499157
-0.493490
-0.487822
-0.481525
-0.471135
-0.462005
-0.459171
-0.450670
-0.440280
-0.445947
-0.452558
-0.446576
-0.446576
-0.453502
-0.453187
-0.451927
-0.455075
-0.453186
-0.447204
-0.444055
-0.432406
-0.419497
-0.406589
-0.392736
-0.370382
-0.351806
-0.340786
-0.329452
-0.312450
-0.304894
-0.307727
-0.305208
-0.305523
-0.310245
-0.325043
-0.339840
-0.351488
-0.371323
-0.392732
-0.410048
-0.423271
-0.435234
-0.448142
-0.447512
-0.443104
-0.433659
-0.415083
-0.388637
-0.359986
-0.326928
-0.291351
-0.256718
-0.222086
-0.189027
-0.157858
-0.133300
-0.111576
-0.090167
-0.072851
-0.064035
-0.051441
-0.039792
-0.031606
-0.027198
-0.024994
-0.018067
-0.016492
-0.021844
-0.024678
-0.024363
-0.026566
-0.036326
-0.037270
-0.034751
-0.032862
-0.028769
-0.020583
-0.000118
0.017198
0.039552
0.068203
0.097483
0.128023
0.160766
0.192880
0.218697
0.241995
0.266238
0.283869
0.296778
0.310631
0.326373
0.336763
0.346838
0.360691
0.376748
0.396269
0.412955
0.438143
0.459552
0.480646
0.508667
0.537318
0.566283
0.591785
0.621066
0.652865
0.678997
0.699776
0.724019
0.747632
0.765893
0.784469
0.809656
0.834529
0.854679
0.881125
0.906313
0.931815
0.957632
0.983134
1.004543
1.020600
1.036657
1.048307
1.054604
1.057752
1.063105
1.062790
1.064365
1.072866
1.085774
1.096479
1.110332
1.126704
1.145595
1.164170
1.182116
1.202266
1.216749
1.233751
1.246659
1.262716
1.276884
1.292626
1.306794
1.319388
1.337019
1.352762
1.367874
1.380468
1.393691
1.407230
1.420453
1.431473
1.439344
1.445641
1.449419
1.446901
1.447531
1.445327
1.441549
1.437457
1.434938
1.431161
1.424234
1.420771
1.416049
1.410382
1.404086
1.396845
1.387400
1.375436
1.358120
1.337656
1.315303
1.294209
1.270911
1.245094
1.223056
1.206370
1.187795
1.170794
1.155996
1.140884
1.126402
1.104364
1.084214
1.066898
1.047379
1.027859
1.012747
0.997005
0.978430
0.959855
0.942539
0.922075
0.897517
0.876738
0.848403
0.817234
0.787325
0.756786
0.727191
0.696967
0.673984
0.656038
0.639982
0.632111
0.632741
0.634630
0.645335
0.660448
0.680913
0.705155
0.727824
0.755530
0.782606
0.813146
0.839278
0.865410
0.892171
0.915155
0.940027
0.966474
0.988828
1.009607
1.032591
1.055574
1.077928
1.101226
1.123895
1.144045
1.168603
1.190012
1.217403
1.245109
1.280686
1.319097
1.354359
1.402844
1.450070
1.492259
1.540430
1.587026
1.631104
1.673922
1.713277
1.756095
1.794506
1.830713
1.871642
1.910997
1.942796
1.979003
2.010172
2.039452
2.068733
2.098013
2.128238
2.156573
2.190891
2.220486
2.251026
2.282510
2.311475
2.338237
2.363109
2.384518
2.404039
2.416947
2.426393
2.430801
2.425764
2.419782
2.403096
2.381687
2.363427
2.336980
2.313683
2.293848
2.272124
2.257327
2.243789
2.234974
2.232141
2.235604
2.247254
2.260477
2.279997
2.307074
2.334150
2.365949
2.404675
2.441826
2.481810
2.523999
2.568077
2.612784
2.656862
2.707236
2.756981
2.801059
2.845766
2.884806
2.925421
2.963202
2.997519
3.034041
3.061747
3.089768
3.114325
3.136994
3.155885
3.173516
3.187054
3.191777
3.195240
3.196500
3.191778
3.186426
3.177925
3.164388
3.149905
3.131960
3.114644
3.087568
3.066159
3.037824
3.005396
2.973597
2.945262
2.916297
2.882925
2.858053
2.831921
2.807994
2.780918
2.760139
2.739360
2.715117
2.689616
2.668522
2.646798
2.617204
2.592017
2.561792
2.527475
2.489380
2.446877
2.401541
2.350222
2.294811
2.234362
2.166672
2.093315
2.013976
1.934951
1.854668
1.769347
1.695675
1.626725
1.561239
1.509291
1.462695
1.423970
1.389653
1.359429
1.341169
1.324797
1.307796
1.295203
1.286388
1.280091
1.282925
1.282925
1.288278
1.294260
1.295834
1.303706
1.311577
1.322596
1.332986
1.346525
1.361322
1.378324
1.393436
1.415790
1.438459
1.461127
1.486944
1.515910
1.549598
1.587064
1.632086
1.680886
1.733150
1.787302
1.849326
1.904738
1.973688
2.030674
2.088604
2.144331
2.190298
2.231542
2.266489
2.295454
2.317808
2.336384
2.347089
2.354330
2.354331
2.352757
2.345830
2.341423
2.324107
2.313718
2.284123
2.261770
2.244139
2.214230
2.159763
2.138984
2.101203
2.039180
2.017142
1.961731
1.924895
1.889003
1.849334
1.812498
1.786052
1.756142
1.735678
1.716788
1.703565
1.698528
1.687509
1.686565
1.683731
1.683102
1.677750
1.675861
1.674917
1.673658
1.669250
1.669251
1.663584
1.653194
1.643120
1.634619
1.622026
1.606284
1.592432
1.585820
1.576375
1.565356
1.566301
1.566616
1.569135
1.576377
1.591489
1.601564
1.610380
1.625178
1.633679
1.639976
1.641235
1.639976
1.636513
1.629272
1.620457
1.609438
1.598734
1.588974
1.573547
1.562528
1.552138
1.538915
1.530100
1.517507
1.509007
1.500821
1.495784
1.488858
1.487284
1.489488
1.492322
1.498304
1.507120
1.518454
1.534196
1.550253
1.566625
1.585516
1.597480
1.608499
1.616685
1.623927
1.622983
1.616686
1.605352
1.589296
1.565683
1.536089
1.503975
1.470603
1.427785
1.381189
1.337427
1.291460
1.247068
1.202047
1.161433
1.125541
1.091224
1.055963
1.026683
1.001181
0.976309
0.951752
0.931288
0.911453
0.889730
0.871469
0.855098
0.840616
0.829282
0.817948
0.810707
0.803466
0.794650
0.786465
0.777020
0.769149
0.755297
0.741129
0.723813
0.704293
0.677532
0.652346
0.624955
0.589378
0.555376
0.517281
0.481704
0.438886
0.396698
0.350732
0.302247
0.260689
0.214723
0.170960
0.127198
0.089732
0.057304
0.022672
-0.003774
-0.021090
-0.037461
-0.054147
-0.066426
-0.071463
-0.076815
-0.083741
-0.091612
-0.093815
-0.102631
-0.120261
-0.127817
-0.137892
-0.155523
-0.173153
-0.180079
-0.189839
-0.205266
-0.212192
-0.210933
-0.207469
-0.204321
-0.190153
-0.172521
-0.159613
-0.149223
-0.129073
-0.109867
-0.099163
-0.081531
-0.061067
-0.046584
-0.039972
-0.031156
-0.015729
-0.007858
-0.003135
0.010404
0.021108
0.026461
0.035591
0.054482
0.068650
0.074632
0.090689
0.104542
0.110524
0.121229
0.135082
0.145158
0.152084
0.161530
0.167827
0.168771
0.167197
0.163420
0.153660
0.133825
0.115565
0.091323
0.057005
0.024892
-0.003758
-0.034612
-0.072392
-0.104820
-0.132841
-0.169047
-0.207142
-0.248701
-0.293093
-0.341892
-0.395100
-0.452715
-0.509386
-0.564482
-0.624616
-0.684435
-0.741421
-0.793054
-0.846262
-0.895691
-0.943546
-0.984790
-1.025719
-1.059721
-1.087741
-1.112928
-1.132763
-1.151653
-1.165505
-1.180932
-1.191007
-1.203285
-1.215249
-1.228157
-1.238861
-1.248621
-1.258696
-1.270030
-1.273178
-1.273177
-1.275066
-1.274436
-1.268139
-1.262787
-1.256175
-1.249248
-1.245785
-1.239173
-1.237284
-1.230357
-1.227523
-1.226263
-1.226263
-1.225004
-1.233189
-1.241060
-1.247042
-1.262154
-1.283247
-1.304656
-1.323546
-1.349363
-1.378643
-1.404144
-1.428387
-1.462704
-1.488205
-1.512763
-1.538894
-1.559988
-1.574470
-1.583600
-1.590841
-1.590211
-1.582655
-1.574784
-1.562190
-1.547077
-1.531965
-1.510556
-1.487572
-1.468052
-1.453254
-1.427122
-1.407602
-1.397527
-1.383674
-1.368247
-1.356597
-1.353134
-1.348096
-1.345262
-1.350299
-1.362893
-1.368874
-1.384616
-1.408544
-1.428063
-1.449157
-1.472770
-1.502679
-1.527236
-1.553683
-1.582648
-1.610983
-1.633021
-1.649393
-1.668912
-1.690006
-1.696303
-1.698821
-1.710470
-1.711729
-1.714562
-1.720544
-1.726211
-1.729674
-1.735970
-1.745415
-1.747934
-1.756434
-1.765879
-1.767138
-1.772490
-1.780991
-1.786972
-1.786028
-1.792639
-1.802713
-1.801139
-1.805861
-1.813732
-1.822547
-1.829473
-1.837344
-1.852141
-1.868198
-1.888662
-1.916997
-1.946907
-1.982483
-2.022782
-2.071897
-2.125419
-2.177367
-2.234353
-2.294487
-2.356195
-2.409088
-2.458832
-2.508891
-2.558635
-2.596101
-2.627270
-2.665365
-2.694330
-2.716683
-2.741870
-2.765797
-2.781539
-2.795706
-2.815856
-2.830968
-2.842302
-2.856154
-2.868433
-2.876933
-2.879452
-2.879766
-2.879451
-2.874728
-2.863079
-2.855208
-2.848596
-2.834428
-2.823408
-2.815852
-2.809870
-2.804517
-2.799480
-2.798220
-2.795701
-2.792552
-2.795071
-2.797589
-2.802312
-2.809553
-2.816479
-2.819942
-2.821201
-2.827183
-2.828127
-2.828127
-2.826552
-2.823089
-2.818996
-2.816791
-2.813958
-2.805457
-2.799789
-2.793807
-2.789084
-2.786251
-2.779954
-2.774286
-2.776490
-2.777749
-2.777119
-2.779952
-2.781526
-2.786878
-2.789082
-2.786878
-2.780266
-2.771765
-2.760745
-2.739966
-2.716353
-2.688961
-2.656848
-2.615603
-2.573730
-2.533115
-2.489667
-2.442126
-2.398364
-2.355230
-2.312727
-2.274946
-2.238110
-2.203162
-2.168215
-2.141453
-2.119414
-2.094542
-2.079744
-2.069040
-2.057075
-2.053612
-2.051723
-2.048889
-2.047314
-2.048573
-2.047314
-2.045425
-2.042906
-2.037868
-2.030941
-2.020236
-2.002920
-1.988122
-1.965769
-1.943415
-1.913820
-1.879817
-1.854944
-1.828183
-1.800162
-1.773086
-1.756714
-1.734990
-1.712636
-1.689967
-1.675799
-1.657538
-1.637073
-1.624165
-1.615349
-1.610626
-1.604329
-1.604329
-1.610626
-1.615033
-1.626052
-1.643683
-1.659739
-1.678629
-1.697834
-1.727114
-1.755134
-1.781266
-1.809286
-1.839510
-1.864697
-1.885162
-1.907200
-1.923571
-1.930498
-1.934590
-1.941831
-1.941516
-1.926089
-1.913810
-1.908142
-1.889567
-1.865324
-1.836988
-1.813375
-1.784095
-1.750407
-1.716089
-1.673900
-1.639268
-1.603061
-1.563391
-1.524981
-1.481848
-1.442493
-1.400304
-1.354652
-1.310260
-1.258626
-1.210455
-1.156303
-1.093650
-1.032885
-0.966769
-0.898764
-0.830129
-0.761493
-0.694747
-0.628316
-0.566293
-0.501751
-0.435319
-0.379278
-0.331422
-0.267195
-0.199504
-0.162668
-0.119849
-0.051214
-0.000525
0.030644
0.082278
0.142412
0.181768
0.218919
0.274331
0.325650
0.359338
0.395544
0.443715
0.475514
0.497868
0.522740
0.544779
0.558317
0.552336
0.551391
0.556744
0.549818
0.535650
0.526205
0.518020
0.508575
0.503853
0.505112
0.502909
0.510465
0.527466
0.541634
0.553284
0.571230
0.595473
0.610900
0.626642
0.643329
0.657497
0.669461
0.671665
0.680166
0.684259
0.676388
0.679852
0.671037
0.666000
0.655925
0.646165
0.642073
0.633572
0.629480
0.626331
0.622868
0.621924
0.624758
0.622554
0.627277
0.632315
0.640186
0.646798
0.660021
0.672300
0.682375
0.694340
0.711341
0.719527
0.724250
0.739992
0.745974
0.746604
0.750068
0.751642
0.752902
0.749754
0.745976
0.752273
0.746291
0.737476
0.736532
0.733698
0.721735
0.709771
0.706308
0.697808
0.678288
0.667584
0.662862
0.653417
0.637675
0.626026
0.618470
0.604933
0.588246
0.581320
0.577542
0.567153
0.561801
0.564950
0.569672
0.567784
0.583526
0.593601
0.598009
0.608084
0.621307
0.628549
0.624141
0.622568
0.631698
0.614067
0.578806
0.578176
0.558027
0.501986
0.472706
0.461687
0.416665
0.371014
0.359995
0.348976
0.305213
0.292935
0.308048
0.297028
0.286324
0.305530
0.327254
0.336699
0.358423
0.385500
0.410372
0.438078
0.467988
0.491286
0.521511
0.538513
0.550792
0.563700
0.572516
0.568738
0.560238
0.550793
0.532533
0.507031
0.488141
0.471769
0.444694
0.426118
0.411636
0.398413
0.383931
0.385190
0.384561
0.395895
0.415416
0.423917
0.446585
0.486885
0.515535
0.538834
0.579133
0.620377
0.642416
0.660048
0.698143
0.717978
0.717349
0.730887
0.747889
0.748834
0.746000
0.761428
0.786930
0.794171
0.811488
0.856510
0.895865
0.927034
0.978983
1.044155
1.101141
1.147422
1.216372
1.293508
1.341993
1.398035
1.478004
1.540657
1.579698
1.638888
1.709097
1.756323
1.786548
1.846052
1.911854
1.949950
1.992768
2.052588
2.111778
2.158374
2.204026
2.268883
2.329332
2.376873
2.436693
2.501235
2.553498
2.600095
2.656136
2.712807
2.757830
2.794981
2.841577
2.888803
2.918083
2.957124
3.003090
3.041816
3.078967
3.122415
3.169011
3.202385
3.244258
3.285502
3.318246
3.342489
3.365472
3.385307
3.392234
3.395383
3.401995
3.407662
3.396328
3.389402
3.391291
3.382476
3.366419
3.351937
3.344696
3.331158
3.309434
3.299045
3.286452
3.264728
3.251820
3.246468
3.225374
3.210892
3.198928
3.183816
3.167445
3.143517
3.122109
3.094403
3.056937
3.020102
2.983581
2.935725
2.886611
2.837811
2.790585
2.739897
2.686060
2.635686
2.584682
2.535882
2.485823
2.437653
2.394206
2.350443
2.308885
2.272679
2.243714
2.210656
2.186414
2.163746
2.143596
2.129743
2.108020
2.095427
2.079370
2.068351
2.058906
2.052295
2.049147
2.043795
2.045999
2.051666
2.053555
2.065519
2.079058
2.089133
2.102671
2.118413
2.139193
2.150842
2.168788
2.187049
2.204995
2.220737
2.244351
2.264815
2.288114
2.311412
2.331877
2.358009
2.372491
2.389808
2.404605
2.412162
2.417829
2.415940
2.414052
2.405866
2.387606
2.377216
2.352344
2.327787
2.301341
2.274580
2.243411
2.207835
2.180759
2.147701
2.111810
2.080326
2.052935
2.023656
1.997839
1.970448
1.944002
1.919130
1.893943
1.863719
1.834124
1.802326
1.766120
1.727395
1.686466
1.644908
1.595478
1.541011
1.490637
1.439004
1.382333
1.322514
1.266159
1.209488
1.152502
1.103073
1.051754
1.001695
0.956988
0.917004
0.882057
0.852148
0.828220
0.809016
0.792959
0.786348
0.788237
0.791386
0.791386
0.803980
0.818148
0.832001
0.845224
0.860337
0.885524
0.909452
0.932121
0.942196
0.961716
0.988793
1.000127
1.000757
1.022166
1.049243
1.049558
1.057744
1.091432
1.108748
1.108434
1.131732
1.162586
1.172032
1.179903
1.206979
1.228389
1.231222
1.243186
1.260503
1.262077
1.259559
1.263652
1.265856
1.263967
1.247281
1.237521
1.234058
1.207297
1.188407
1.170147
1.150312
1.121033
1.089234
1.064992
1.036342
0.997302
0.958577
0.924890
0.880498
0.834846
0.786047
0.742914
0.690336
0.638388
0.590848
0.534492
0.481914
0.436577
0.376444
0.316939
0.272862
0.217451
0.154168
0.102850
0.065384
0.004936
-0.056458
-0.093608
-0.137685
-0.200338
-0.248823
-0.286918
-0.330995
-0.392703
-0.443077
-0.472357
-0.525565
-0.580031
-0.627257
-0.663778
-0.711004
-0.776490
-0.831271
-0.872200
-0.932649
-1.014192
-1.078104
-1.126589
-1.193334
-1.282748
-1.344142
-1.388848
-1.461891
-1.533359
-1.580270
-1.623087
-1.680073
-1.739262
-1.774209
-1.807267
-1.853548
-1.904237
-1.938554
-1.968463
-2.006244
-2.050006
-2.083379
-2.100380
-2.131549
-2.171218
-2.184126
-2.187274
-2.207424
-2.218443
-2.211831
-2.200182
-2.194829
-2.180976
-2.156103
-2.135324
-2.117063
-2.088412
-2.055669
-2.031426
-2.000572
-1.966254
-1.938233
-1.910527
-1.880617
-1.852911
-1.830557
-1.808833
-1.785850
-1.759403
-1.737994
-1.710288
-1.679748
-1.652042
-1.619613
-1.581203
-1.543422
-1.503122
-1.459359
-1.412448
-1.360814
-1.311699
-1.255028
-1.198672
-1.135074
-1.079977
-1.017954
-0.952467
-0.897685
-0.836291
-0.779620
-0.725152
-0.673833
-0.626607
-0.578437
-0.538767
-0.506023
-0.469817
-0.440222
-0.415664
-0.395199
-0.374734
-0.355529
-0.344194
-0.334434
-0.318377
-0.316488
-0.316488
-0.309561
-0.303894
-0.302004
-0.300430
-0.288151
-0.281539
-0.280279
-0.272408
-0.258870
-0.256351
-0.249739
-0.240294
-0.226755
-0.216995
-0.206605
-0.187085
-0.172917
-0.161268
-0.147729
-0.132302
-0.121912
-0.114356
-0.110892
-0.104280
-0.107743
-0.116244
-0.120966
-0.132300
-0.154024
-0.175117
-0.203768
-0.242178
-0.287514
-0.335684
-0.385743
-0.445247
-0.496566
-0.548829
-0.600777
-0.648947
-0.694598
-0.741194
-0.784012
-0.825571
-0.861777
-0.892001
-0.921910
-0.948671
-0.972284
-0.990230
-1.003767
-1.016990
-1.022028
-1.020138
-1.020453
-1.013841
-1.002192
-0.991802
-0.984875
-0.974485
-0.968503
-0.967243
-0.968188
-0.970706
-0.984559
-0.998097
-1.010375
-1.037766
-1.065786
-1.090973
-1.121827
-1.163385
-1.205259
-1.244928
-1.291209
-1.343472
-1.389438
-1.437293
-1.489871
-1.536782
-1.584007
-1.628085
-1.670588
-1.710257
-1.742685
-1.769446
-1.791799
-1.814782
-1.828005
-1.840599
-1.851618
-1.853821
-1.855710
-1.849098
-1.845320
-1.836504
-1.824540
-1.814465
-1.799667
-1.780147
-1.757164
-1.739847
-1.716234
-1.692936
-1.667119
-1.646654
-1.626504
-1.601632
-1.580852
-1.562591
-1.540552
-1.525125
-1.508438
-1.493011
-1.478843
-1.460582
-1.455544
-1.449877
-1.443265
-1.443265
-1.453024
-1.459636
-1.477896
-1.495842
-1.528270
-1.554401
-1.581792
-1.628703
-1.678132
-1.715283
-1.766601
-1.827994
-1.867349
-1.924335
-1.968412
-2.009970
-2.043973
-2.079549
-2.105995
-2.128034
-2.146294
-2.163610
-2.179037
-2.186278
-2.196038
-2.200445
-2.207686
-2.209890
-2.223428
-2.233187
-2.242002
-2.247040
-2.254281
-2.259633
-2.264985
-2.274115
-2.278522
-2.282930
-2.285763
-2.285763
-2.287337
-2.284503
-2.282614
-2.278206
-2.268760
-2.257741
-2.249240
-2.241054
-2.230034
-2.225626
-2.216181
-2.213032
-2.207050
-2.207679
-2.205475
-2.204845
-2.204215
-2.209882
-2.211771
-2.205159
-2.206418
-2.205788
-2.200121
-2.188786
-2.189416
-2.181230
-2.168636
-2.147541
-2.124873
-2.098111
-2.068201
-2.039236
-2.012160
-1.986343
-1.956747
-1.936598
-1.915188
-1.904169
-1.897872
-1.890630
-1.887796
-1.887796
-1.887166
-1.887166
-1.885277
-1.882758
-1.877090
-1.867330
-1.859774
-1.846865
-1.827030
-1.815066
-1.799324
-1.776655
-1.758394
-1.741707
-1.726280
-1.707389
-1.691962
-1.679368
-1.666145
-1.659218
-1.655755
-1.654495
-1.653865
-1.654180
-1.661421
-1.666773
-1.671810
-1.681570
-1.690385
-1.697311
-1.700459
-1.702978
-1.708015
-1.708329
-1.704551
-1.703606
-1.700772
-1.695105
-1.685975
-1.678733
-1.674010
-1.664880
-1.660472
-1.656378
-1.652285
-1.645673
-1.642525
-1.638432
-1.632764
-1.620170
-1.615133
-1.605687
-1.589316
-1.576722
-1.552164
-1.532644
-1.498011
-1.469046
-1.427802
-1.375853
-1.323590
