EVENT_NAME: 202302060117
EVENT_ID: 13194
EVENT_DATE_YYYYMMDD: 2023/02/06
EVENT_TIME_HHMMSS: 01:17:32.00000
EVENT_LATITUDE_DEGREE: 37.288
EVENT_LONGITUDE_DEGREE: 37.043
EVENT_DEPTH_KM: 8.6
HYPOCENTER_REFERENCE: AFAD
MAGNITUDE_W: 7.7
MAGNITUDE_W_REFERENCE: AFAD
MAGNITUDE_L: 
MAGNITUDE_L_REFERENCE: 
FOCAL_MECHANISM: 
NETWORK: TK
STATION_CODE: 0137
STATION_NAME: 
STATION_LATITUDE_DEGREE: 37.704858
STATION_LONGITUDE_DEGREE: 35.723258
STATION_ELEVATION_M: 500.0
LOCATION: Kahramanmaras_Pazarck_Turkiye
SENSOR_DEPTH_M: 
VS30_M/S: None
SITE_CLASSIFICATION_EC8: unknown
MORPHOLOGIC_CLASSIFICATION: 
EPICENTRAL_DISTANCE_KM: 125.32
EARTHQUAKE_BACKAZIMUTH_DEGREE: 
DATE_TIME_FIRST_SAMPLE_YYYYMMDD_HHMMSS: 2023/02/06 01:17:33.6420280
DATE_TIME_FIRST_SAMPLE_PRECISION: millisecond
SAMPLING_INTERVAL_S: 0.01
NDATA: 12501
DURATION_S: 
STREAM: HNE
UNITS: cm/s^2
INSTRUMENT: sensor = ACEBOX/SARA | digitizer = 
INSTRUMENT_ANALOG/DIGITAL: 
INSTRUMENTAL_FREQUENCY_HZ: 
INSTRUMENTAL_DAMPING: 
FULL_SCALE_G: 
N_BIT_DIGITAL_CONVERTER: 
PGA_CM/S^2: 49.591
TIME_PGA_S: 
BASELINE_CORRECTION: BASELINE REMOVED
FILTER_TYPE: BUTTERWORTH
FILTER_ORDER: 
LOW_CUT_FREQUENCY_HZ: 
HIGH_CUT_FREQUENCY_HZ: 
LATE/NORMAL_TRIGGERED: 
DATABASE_VERSION: 
HEADER_FORMAT: DYNA 1.2
DATA_TYPE: Acceleration
PROCESSING: Automatic Paolucci et al., 2011
DATA_TIMESTAMP_YYYYMMDD_HHMMSS: 
DATA_LICENSE: U (unknown license)
DATA_CITATION: Turkish Accelerometric Archive v 1.0 - Disaster And Emergency Management Presidency, Earthquake Department
DATA_CREATOR: AFAD
ORIGINAL_DATA_MEDIATOR_CITATION: : AFAD - Disaster And Emergency Management Presidency
ORIGINAL_DATA_MEDIATOR: AFAD PROCESS SERVICE
ORIGINAL_DATA_CREATOR_CITATION: AFAD PROCESS SERVICE
ORIGINAL_DATA_CREATOR: network: TK
USER1: GuestUser
USER2: 
USER3: 
USER4: 
USER5: 
[...]
1.398819
4.959086
5.254373
3.076086
-0.123428
-2.197208
-2.845526
-2.947694
-2.585541
-1.837154
-1.294509
-1.001326
-0.493750
-0.388540
-1.366980
-3.314042
-5.716775
-6.921998
-6.947948
-7.366911
-7.461129
-6.488531
-4.410773
-1.083135
2.463337
5.144993
5.752166
4.018561
0.241802
-5.632119
-10.256861
-11.072812
-9.321903
-4.964154
0.921226
5.572858
8.231836
8.564298
7.118497
6.147772
6.404249
6.889614
7.316062
7.161056
6.161341
5.888267
6.033690
5.251640
3.854469
0.913068
-3.132091
-5.897911
-8.070587
-10.303584
-11.159280
-9.996137
-6.694217
-2.554601
0.188778
0.902329
-0.292607
-2.284558
-3.856376
-6.167226
-9.970171
-13.940514
-16.260016
-15.043099
-10.616380
-5.452265
-0.646093
3.923009
8.268133
11.975925
14.151177
14.527124
13.468024
11.733016
9.632817
6.229666
1.701949
-2.655562
-5.881262
-6.917683
-5.775348
-2.670753
2.389557
7.553205
10.908899
11.719242
10.145320
7.429766
4.195884
0.858664
-1.758695
-3.268790
-3.248916
-1.901073
-0.004040
1.602850
1.820517
0.753000
-0.485890
-0.854587
0.129000
1.706899
3.383695
5.496055
8.405430
11.931328
14.739001
15.865671
15.174101
13.290865
11.220826
8.319637
4.355840
-0.449627
-6.503104
-12.143228
-16.771009
-21.136938
-24.036490
-25.301799
-24.444463
-19.401221
-10.032261
1.832250
12.866080
20.350400
24.227227
25.282590
23.915579
20.507985
15.978165
11.108871
6.588636
2.772365
-1.399745
-6.198667
-10.903367
-15.068698
-17.684186
-17.757129
-14.633830
-8.565620
-0.699276
7.157483
13.128433
18.211888
22.586003
23.822558
22.430998
19.161813
13.768813
7.799970
1.496330
-4.543587
-8.068313
-9.057507
-7.807158
-4.670065
-2.481721
-2.467925
-3.219114
-3.777888
-3.051010
-1.315766
-0.587719
-1.344987
-3.230327
-5.339644
-5.870128
-4.450276
-1.880609
1.157121
3.855611
5.262137
4.884322
2.990799
-0.062591
-3.676394
-6.856503
-9.051156
-10.024686
-9.729866
-8.950852
-8.211350
-6.895304
-5.203545
-3.906670
-3.014732
-2.612599
-1.888761
0.396141
4.476607
10.206746
15.291370
16.818769
15.572631
13.260612
9.805090
5.955619
3.333351
2.121114
1.582213
0.849961
-0.814674
-2.543369
-2.970281
-1.945312
0.640487
4.384518
7.938004
10.401995
10.598854
7.422720
1.360358
-6.424621
-14.001521
-19.481728
-22.789256
-23.552135
-21.574208
-18.280237
-13.746673
-8.412587
-4.786156
-3.120348
-1.868830
0.237685
4.432009
9.035479
10.898611
9.902636
7.191291
4.211547
3.242692
4.924865
9.035257
15.145316
20.799704
23.740174
22.905753
17.740472
10.420749
3.999275
-0.734884
-3.689613
-5.177029
-6.150793
-6.951313
-7.944249
-9.697025
-11.693886
-12.551920
-11.385504
-8.170323
-3.391973
1.843451
6.471002
10.037581
12.429329
13.569326
12.387014
8.290420
2.800161
-2.532519
-6.431555
-8.517960
-9.964228
-10.581218
-9.671745
-7.492986
-4.244605
-1.174378
0.721719
2.107905
3.520276
4.877704
6.150498
7.207731
6.528318
3.416945
-0.018470
-2.910774
-4.894543
-4.496852
-2.963374
-2.058577
-2.139937
-4.040006
-6.814944
-8.827001
-10.206871
-10.844902
-10.674930
-10.245443
-9.449128
-8.331575
-7.321336
-6.231137
-4.807310
-2.875910
-0.449326
1.319118
1.933773
2.160324
1.889120
1.688290
2.550069
3.282557
2.784804
0.523285
-4.102626
-9.256685
-12.669189
-13.856643
-12.460171
-9.237507
-5.604998
-1.526403
2.522500
5.182179
6.090483
5.226370
2.596620
-0.636093
-2.609107
-2.450357
-0.244712
3.459106
7.400930
10.683912
12.873659
13.795290
14.271770
14.704297
15.105261
15.801510
16.350702
16.967928
17.689662
16.613495
13.367455
8.766794
3.013279
-1.538051
-2.959770
-2.267028
-0.026079
2.700232
3.929306
3.767520
3.013993
2.179105
2.070858
2.720349
3.501701
3.396260
1.670370
-1.165823
-4.580664
-8.109365
-10.387951
-10.543191
-9.056707
-6.559750
-3.168987
1.211440
6.072789
10.585779
14.663672
17.509922
17.090959
12.781142
6.013881
-1.536366
-8.802550
-14.443608
-17.089257
-16.447949
-12.629337
-6.549437
0.017462
5.973215
10.470541
13.004203
13.437665
11.458339
7.540132
2.733496
-1.602974
-4.694707
-7.021456
-8.278115
-8.105337
-6.790694
-4.121896
-1.034602
0.465443
-0.911153
-4.885472
-9.451998
-12.628600
-13.441278
-12.048546
-8.963355
-4.425115
0.160586
3.568417
5.649214
5.999210
5.340371
4.618640
3.661476
2.641888
0.701138
-3.576181
-9.042360
-13.519108
-16.097890
-16.789461
-16.079183
-14.153861
-10.641991
-6.236314
-3.044044
-2.184136
-3.034455
-4.359616
-4.733690
-3.601643
-1.247770
2.002949
4.817636
5.460346
3.230155
-1.387105
-6.715811
-11.254048
-14.484189
-16.445279
-17.550203
-17.402208
-15.369339
-11.579484
-5.905924
0.580783
6.301102
11.195415
13.821428
13.513285
12.599840
11.277952
8.937877
6.504283
3.835723
0.791216
-2.288126
-5.550999
-9.300872
-13.249005
-15.986535
-16.530112
-14.497711
-9.962744
-3.838423
2.788328
8.160056
11.703489
14.091963
14.793824
14.084719
12.520149
9.493412
4.706180
-1.711319
-8.145652
-13.244067
-17.040466
-18.282395
-16.590169
-12.604859
-6.388422
0.122833
5.217745
8.460982
9.079611
8.012095
6.147329
2.921630
-0.917553
-4.135070
-6.247894
-7.361235
-8.328219
-9.706920
-10.834055
-9.861456
-5.528490
1.418797
8.979802
14.658272
17.108937
16.754268
14.254509
9.959421
3.937039
-2.649964
-7.473433
-9.522197
-8.684032
-5.377202
-0.926636
3.936349
8.834169
13.650628
18.197052
20.809738
19.744793
14.790864
7.823707
1.202103
-4.272493
-7.612285
-8.481775
-8.468447
-8.267146
-7.741802
-6.788141
-5.106202
-2.919027
0.103505
4.352772
8.061266
9.771728
10.444365
9.420568
5.333794
0.787841
-2.773357
-6.565547
-9.657982
-12.463781
-15.841683
-17.866599
-17.879223
-15.563225
-10.864834
-4.951164
1.952871
7.488490
9.923256
11.198155
11.510042
11.045254
10.750204
10.059802
10.237957
11.872202
12.724161
12.280883
11.415834
9.862721
7.235542
3.914220
0.334084
-3.229920
-6.576492
-10.054225
-13.823737
-16.854215
-18.025070
-17.319702
-14.840047
-10.824110
-6.746450
-3.503680
-0.781343
1.300389
2.626255
3.405971
4.229406
5.754000
7.364397
8.475871
9.136583
8.785421
7.682835
6.941466
6.796279
6.971161
6.635430
5.008904
2.640072
0.395853
-1.301513
-2.483824
-3.474656
-4.121337
-4.370563
-4.914374
-6.669956
-10.136701
-14.619762
-18.267465
-19.474325
-17.948562
-13.929586
-7.919124
-0.998957
6.501261
13.868682
18.832901
20.754482
20.622622
18.566377
14.269886
7.486728
-1.005021
-9.307394
-16.055249
-19.895602
-19.572960
-16.004744
-11.688378
-8.450050
-6.697504
-5.371171
-2.709153
2.092810
8.628848
15.247884
19.467693
20.515574
18.624623
13.148157
5.154864
-2.564185
-8.101905
-10.266165
-9.545834
-7.312834
-2.962333
2.899901
7.259988
9.221315
9.592352
9.436879
9.688446
9.159832
7.398639
5.813963
4.354134
2.845442
0.929943
-2.965352
-7.880938
-11.520692
-13.730308
-14.553273
-14.389380
-14.713889
-15.767611
-16.482562
-14.709909
-8.877133
-1.065965
5.266669
8.193813
7.395397
3.863657
-1.080452
-5.879841
-9.298891
-10.743990
-9.371598
-5.040736
0.925771
6.535037
10.565470
13.045125
13.839336
12.135189
7.236437
0.359526
-5.858077
-10.339735
-12.394578
-10.996235
-6.707924
-0.581732
5.570878
9.104258
9.814535
8.957203
6.609178
2.985556
-0.285968
-1.353484
-0.594577
0.091620
0.024522
-0.941059
-2.693135
-4.778605
-7.599367
-10.498218
-11.721443
-11.128999
-8.901377
-4.595532
1.203811
6.998712
11.220858
12.860480
12.038918
9.346510
5.402118
1.106329
-2.289575
-3.796864
-3.726256
-2.775868
-1.560588
-0.790459
0.204117
1.998512
4.165347
6.610868
8.241138
8.123773
6.801651
4.953719
3.645391
3.119115
2.586293
1.559925
-0.315128
-2.475179
-4.351868
-6.182499
-7.892491
-9.924889
-12.624544
-14.286374
-12.899253
-8.953221
-3.917460
1.719160
6.472727
8.764176
8.726069
6.134661
1.093994
-4.853807
-9.499357
-10.482005
-7.947174
-4.202909
-0.855865
0.939933
0.459247
-2.117431
-5.415373
-7.927056
-9.535345
-9.424290
-7.081874
-4.436222
-2.189429
-0.133648
1.060356
2.530475
5.235043
8.490204
12.367967
15.475602
15.889659
15.081657
14.154419
12.285679
10.168646
8.470111
6.286446
2.380163
-4.035934
-11.792858
-18.616697
-23.067962
-24.230166
-22.356747
-18.722601
-14.211014
-9.458147
-4.435713
1.294192
7.166713
12.073184
15.034696
15.127515
11.925196
6.152977
-0.562381
-6.466695
-10.026023
-10.958873
-10.158817
-8.193282
-5.604443
-2.977963
-0.531740
1.486399
3.513189
6.024407
7.840780
7.914895
6.900684
5.472185
4.268364
3.939413
3.189861
0.849552
-2.211554
-5.956284
-10.640176
-15.057774
-18.426791
-19.938756
-18.534335
-15.165782
-11.173225
-6.745103
-2.670482
0.510097
3.498496
6.785920
10.339407
13.471356
14.746021
13.701884
11.202359
7.426067
2.635329
-1.882802
-5.992956
-9.096613
-9.988314
-10.244554
-10.471336
-9.222156
-6.598481
-2.114716
4.530506
11.650803
17.887347
22.103882
23.665883
22.217043
17.161646
10.161290
3.439854
-2.424013
-6.221815
-7.550483
-8.379760
-9.695569
-11.293105
-13.370625
-15.029182
-15.094409
-13.592027
-10.752557
-7.350572
-4.100087
-0.576059
4.061078
10.803325
18.584567
23.855528
24.543127
20.808451
14.093094
6.254809
-1.955448
-9.226542
-12.959581
-11.721857
-6.606605
-0.301558
4.961687
7.636797
7.312054
5.209050
2.100015
-1.715087
-6.222930
-11.913087
-17.001449
-18.734586
-16.834280
-11.776776
-3.874427
5.218184
12.912220
16.671915
15.361483
10.334142
3.806290
-2.236900
-6.346119
-8.891702
-10.699888
-12.036506
-13.386216
-14.239340
-13.861289
-12.884014
-11.628755
-9.493250
-6.347038
-2.667068
1.268911
5.294200
9.540428
14.376526
18.881333
21.232634
19.988366
14.830333
7.405167
-0.449718
-7.896393
-14.277187
-19.001293
-21.118325
-20.383499
-17.831600
-14.046654
-9.598426
-5.169603
-0.521945
4.273238
8.564588
11.696071
12.322181
10.071417
6.723208
3.051657
-1.719910
-7.203857
-12.388076
-17.040406
-21.117595
-24.382572
-26.255520
-25.689729
-22.402071
-17.118017
-9.894381
-1.179119
7.726922
16.788672
25.654032
32.798410
36.727609
35.931297
30.976199
23.237745
12.812259
1.524529
-8.330726
-15.562541
-19.159744
-20.512260
-20.919767
-19.524697
-16.598956
-12.461445
-7.257116
-2.320719
1.729587
4.646677
6.645411
8.590606
9.822953
9.635917
8.649528
6.786165
3.245775
-1.889113
-7.793428
-13.660334
-18.325290
-20.925815
-21.441804
-19.741629
-16.019575
-10.965811
-5.608112
-0.988276
3.222181
7.410426
11.103957
14.085575
16.426589
18.473486
19.487934
18.080242
14.412432
9.164620
3.292102
-2.221537
-7.043370
-10.143988
-11.002958
-10.107045
-7.234610
-2.497642
3.337472
9.964924
16.973934
23.134961
26.658288
26.170822
21.720960
14.973806
8.123081
1.884202
-4.480927
-11.664112
-19.783188
-27.142657
-31.567502
-32.465048
-28.968375
-21.331620
-10.888829
1.570462
12.585822
20.411720
26.649666
30.102386
30.784608
29.981749
26.858453
23.026050
19.404766
14.547629
10.029031
6.889837
3.475463
-0.617390
-5.422623
-10.759278
-15.290034
-18.821072
-21.385359
-21.851549
-19.212444
-13.245235
-5.469604
2.449579
9.600737
14.077723
15.074636
13.221327
9.050619
3.990312
-0.933690
-5.040571
-7.250422
-8.416601
-9.905654
-11.606761
-13.300621
-13.397879
-9.985372
-5.101112
-1.207685
2.069921
4.269020
5.661050
7.488411
7.705377
4.894200
-0.304982
-7.505469
-14.470054
-19.993512
-23.820071
-24.159075
-20.855752
-13.168029
-1.283177
10.851604
20.253529
24.483858
24.673937
24.768393
23.100485
18.699019
13.630764
8.099122
4.370291
2.855520
-0.058995
-4.035184
-7.280522
-10.691155
-14.111841
-17.295924
-20.728768
-23.381664
-24.533114
-23.041719
-18.070486
-10.958840
-0.729740
11.803665
21.895058
29.217356
33.905227
34.037792
30.736810
24.607348
15.692193
5.247535
-6.151249
-16.723793
-24.891733
-30.535130
-33.120926
-32.947447
-30.269765
-24.558564
-16.373788
-7.342431
1.366051
9.910173
17.438681
22.926839
27.563976
30.849297
31.012956
29.153335
27.443811
25.809803
22.364334
17.222900
12.246060
8.124449
5.605051
5.300181
5.633344
5.077610
4.819499
5.218359
4.545492
3.176143
1.537460
-1.193525
-3.949525
-6.268091
-8.851315
-10.876466
-12.274104
-14.623298
-17.741684
-19.627257
-19.222319
-16.295175
-10.889781
-4.190085
1.454718
4.420438
5.695570
6.891912
8.710622
11.758639
15.640377
18.909565
20.025247
17.893953
11.731059
1.618394
-9.551503
-19.059101
-26.125855
-29.250320
-27.751912
-21.471415
-10.700607
1.661659
13.251692
22.420989
28.945571
35.161774
39.460372
38.215403
30.751661
17.347832
0.577556
-16.602333
-32.227003
-43.241424
-48.590938
-48.268296
-42.670720
-34.728626
-25.755251
-15.344725
-4.887673
4.114225
12.483467
21.703497
29.776986
32.387802
27.840914
19.058555
10.836609
4.649399
-0.484553
-4.467288
-6.309141
-5.150440
-2.032285
1.483560
5.511889
10.154636
15.161874
19.368356
20.963089
20.188754
18.406987
16.190356
13.460775
10.501604
7.629173
3.635450
-2.156175
-8.911979
-16.011933
-22.366073
-25.696513
-23.907495
-17.912464
-10.272903
-2.776192
2.641593
7.564197
14.317666
20.438948
25.087540
27.164129
23.348559
15.233458
4.024517
-9.948609
-22.164046
-30.717752
-35.741586
-36.256406
-33.802935
-30.363075
-26.023328
-20.365900
-13.797365
-6.495407
2.476799
12.915848
23.588227
31.285302
32.858058
30.276938
25.305942
17.035366
5.614838
-8.242090
-22.406228
-34.477413
-43.603454
-49.115223
-49.590765
-43.687850
-32.424431
-16.889537
1.352964
18.769927
34.262972
45.407855
48.996879
47.128606
40.882013
29.962981
16.344291
1.753473
-11.654331
-22.900445
-31.868205
-37.234552
-37.812497
-32.594375
-23.336235
-12.541112
-1.122452
8.414841
15.375221
20.176250
23.408031
28.912555
36.356194
40.560104
38.868115
32.141302
23.112754
13.073735
2.554497
-7.785653
-17.107850
-23.192890
-26.254464
-27.621475
-27.267738
-24.986576
-19.634488
-11.707122
-1.590947
10.562304
21.525527
29.628241
33.781183
33.827710
33.313358
31.796015
26.824786
19.350055
9.806219
-0.778717
-11.261951
-22.073904
-31.149912
-35.681603
-35.545532
-31.160662
-22.900369
-12.140550
-0.306666
11.273548
20.070873
25.263746
29.702388
33.950252
34.382078
28.400844
17.090669
4.058577
-7.631986
-16.411305
-21.983862
-24.641433
-23.239350
-17.796782
-10.233672
-1.603045
7.057743
15.178459
21.553878
24.235300
23.488086
19.198375
12.813374
8.180682
4.325133
-0.107427
-3.567859
-7.329188
-11.181464
-13.310186
-15.053143
-15.838467
-14.215444
-10.704509
-4.678383
2.815990
9.609672
14.380775
14.552851
10.620616
5.319966
-0.386789
-5.076059
-8.214552
-9.235076
-7.775712
-6.566277
-6.365210
-6.182378
-5.757333
-4.234376
-3.063518
-2.997819
-2.068240
-0.295821
1.802277
4.729654
8.469243
12.109468
14.955250
17.599966
18.892633
17.217945
14.134394
11.298201
8.959529
6.516115
3.090285
-1.303465
-6.692257
-11.791607
-15.089082
-17.784529
-19.861115
-19.900859
-18.568680
-16.237720
-12.129667
-5.755884
2.515163
10.253387
14.836516
16.105102
14.967446
11.457216
5.699258
-1.139077
-8.247447
-14.700951
-19.271219
-22.308243
-23.637145
-22.239738
-18.411072
-12.450409
-4.764322
4.403104
14.347672
22.450385
27.177534
28.171875
25.949634
22.183863
16.490434
7.551431
-4.786049
-18.819261
-31.316425
-40.606825
-45.266870
-43.767527
-37.823464
-29.670016
-19.125758
-7.273638
3.543696
12.161231
17.013694
19.615626
21.511723
18.932006
13.487337
9.017836
3.590936
-1.591179
-4.646674
-5.935597
-4.946399
-2.837312
0.295573
4.115588
6.579345
8.199328
9.815336
10.574945
9.294907
6.756571
4.486635
1.436518
-3.674289
-11.132654
-18.966731
-24.333779
-26.307962
-22.499870
-13.044873
-0.916639
12.245214
21.786482
26.718670
30.335048
30.508761
25.584057
16.865993
6.661211
-1.307533
-6.538512
-10.973878
-16.152018
-20.801075
-21.256511
-16.938040
-9.438757
-1.470010
3.814512
5.933184
5.612182
5.409248
8.678670
14.451828
19.298680
21.750280
22.506382
22.112435
19.229483
11.855986
0.181789
-12.257627
-21.697891
-26.890527
-27.747626
-24.966606
-20.246939
-14.644219
-8.775906
-3.589814
0.580430
3.850320
5.683759
5.557744
4.682175
4.740860
5.534603
6.291407
6.773732
6.943938
7.335550
7.970077
7.857623
6.396391
4.190048
2.451533
1.707826
2.134975
3.420394
3.697913
1.155369
-4.505796
-11.890515
-18.570803
-22.218974
-20.308381
-12.734517
-3.065829
5.779191
12.546454
17.956992
24.233047
30.580411
34.283761
33.852407
29.356721
22.201357
12.962158
2.661754
-6.246855
-12.276953
-14.871400
-15.559697
-17.781237
-23.123035
-30.348538
-37.042152
-39.999219
-36.332574
-27.519585
-17.393590
-9.057313
-5.394877
-4.626852
-4.738605
-6.160091
-4.597856
0.395588
4.740945
8.943219
11.089947
9.588736
7.143452
2.830596
-3.628052
-9.956709
-16.403433
-20.322107
-17.316174
-9.386704
1.448398
14.694651
23.923566
27.774442
31.694756
33.022025
28.369227
19.688103
6.598964
-8.658644
-20.841818
-29.819865
-36.657498
-39.677222
-39.180869
-36.462039
-31.196923
-24.196096
-15.822879
-6.102054
3.786402
13.633945
21.535125
26.664872
31.633066
36.262020
39.516245
40.602937
38.520506
35.302055
30.989432
23.251913
12.907087
2.068481
-7.660990
-15.138761
-20.746386
-25.367622
-27.979837
-27.170429
-23.630035
-18.273738
-11.911646
-6.100847
-1.538525
1.753576
2.953892
1.572620
-1.443831
-5.732840
-10.811383
-14.938137
-17.926064
-19.299154
-17.647842
-14.213359
-9.583236
-2.753783
4.918978
12.025481
17.606223
19.828000
20.178230
21.253699
22.083681
22.770579
24.268286
24.487589
22.207834
17.392781
9.477576
-0.344947
-10.520036
-19.468157
-25.633623
-29.780250
-31.687333
-30.182846
-26.531632
-21.814069
-16.267228
-10.176573
-4.054824
1.932258
9.182079
16.807846
23.281694
28.374969
29.249138
27.064538
24.287964
16.921715
6.941145
-1.075528
-10.528417
-19.638092
-24.068315
-27.199093
-28.774651
-26.187683
-22.906336
-19.393765
-13.118177
-6.753512
-2.540718
0.729172
2.310813
1.113538
-2.350634
-8.188784
-14.862291
-19.263290
-20.446068
-18.539918
-14.189183
-8.243015
-1.209223
4.925151
9.862951
13.796124
15.024964
17.173095
22.875646
27.502495
28.977991
25.737797
16.103481
3.751505
-8.816265
-20.792996
-31.132445
-39.549612
-43.379210
-41.223831
-34.615082
-25.023314
-14.311657
-3.075125
8.222662
17.946058
25.586554
30.514534
31.416760
26.646829
15.633811
2.623930
-7.662447
-14.143072
-15.709979
-12.970107
-7.960532
-0.647586
6.720303
11.645712
15.647153
19.479560
22.560776
24.432792
24.816922
24.089815
20.873233
14.375541
6.276104
-2.941819
-12.545274
-20.533189
-26.181730
-29.312741
-29.337522
-25.758786
-19.497693
-11.872160
-2.742843
6.985697
16.205260
23.961719
27.240026
26.055611
22.710909
17.526690
12.159875
7.432496
2.362838
-2.636447
-7.926577
-14.106772
-20.756900
-27.455190
-33.253126
-36.701401
-36.737170
-33.516611
-26.755426
-17.267230
-8.098635
0.704301
7.799582
9.472637
8.239124
6.402414
3.518527
2.482573
3.754899
6.281080
11.016879
16.176319
20.087515
21.955790
18.913856
11.729267
4.141613
-3.565513
-10.352879
-13.754160
-15.565386
-17.111486
-17.703459
