EVENT_NAME: 202302060117
EVENT_ID: 13194
EVENT_DATE_YYYYMMDD: 2023/02/06
EVENT_TIME_HHMMSS: 01:17:32.00000
EVENT_LATITUDE_DEGREE: 37.288
EVENT_LONGITUDE_DEGREE: 37.043
EVENT_DEPTH_KM: 8.6
HYPOCENTER_REFERENCE: AFAD
MAGNITUDE_W: 7.7
MAGNITUDE_W_REFERENCE: AFAD
MAGNITUDE_L: 
MAGNITUDE_L_REFERENCE: 
FOCAL_MECHANISM: 
NETWORK: TK
STATION_CODE: 5816
STATION_NAME: 
STATION_LATITUDE_DEGREE: 39.86868
STATION_LONGITUDE_DEGREE: 38.11835
STATION_ELEVATION_M: 1269.0
LOCATION: Kahramanmaras_Pazarck_Turkiye
SENSOR_DEPTH_M: 
VS30_M/S: None
SITE_CLASSIFICATION_EC8: unknown
MORPHOLOGIC_CLASSIFICATION: 
EPICENTRAL_DISTANCE_KM: 301.79
EARTHQUAKE_BACKAZIMUTH_DEGREE: 
DATE_TIME_FIRST_SAMPLE_YYYYMMDD_HHMMSS: 2023/02/06 01:18:01.5143650
DATE_TIME_FIRST_SAMPLE_PRECISION: millisecond
SAMPLING_INTERVAL_S: 0.01
NDATA: 18251
DURATION_S: 
STREAM: HNZ
UNITS: cm/s^2
INSTRUMENT: sensor = ACEBOX/SARA | digitizer = 
INSTRUMENT_ANALOG/DIGITAL: 
INSTRUMENTAL_FREQUENCY_HZ: 
INSTRUMENTAL_DAMPING: 
FULL_SCALE_G: 
N_BIT_DIGITAL_CONVERTER: 
PGA_CM/S^2: 5.717
TIME_PGA_S: 
BASELINE_CORRECTION: BASELINE REMOVED
FILTER_TYPE: BUTTERWORTH
FILTER_ORDER: 
LOW_CUT_FREQUENCY_HZ: 
HIGH_CUT_FREQUENCY_HZ: 
LATE/NORMAL_TRIGGERED: 
DATABASE_VERSION: 
HEADER_FORMAT: DYNA 1.2
DATA_TYPE: Acceleration
PROCESSING: Automatic Paolucci et al., 2011
DATA_TIMESTAMP_YYYYMMDD_HHMMSS: 
DATA_LICENSE: U (unknown license)
DATA_CITATION: Turkish Accelerometric Archive v 1.0 - Disaster And Emergency Management Presidency, Earthquake Department
DATA_CREATOR: AFAD
ORIGINAL_DATA_MEDIATOR_CITATION: : AFAD - Disaster And Emergency Management Presidency
ORIGINAL_DATA_MEDIATOR: AFAD PROCESS SERVICE
ORIGINAL_DATA_CREATOR_CITATION: AFAD PROCESS SERVICE
ORIGINAL_DATA_CREATOR: network: TK
USER1: GuestUser
USER2: 
USER3: 
USER4: 
USER5: 
[...]
2.298313
2.050489
1.621004
1.032069
0.443368
-0.093430
-0.445294
-0.657815
-0.905874
-1.188066
-1.478910
-1.755959
-1.996536
-2.228228
-2.479560
-2.766896
-2.999991
-3.091639
-3.115720
-3.103795
-3.034591
-2.952294
-2.861814
-2.783958
-2.753097
-2.709610
-2.611181
-2.458277
-2.254872
-2.026452
-1.786341
-1.556051
-1.379066
-1.286014
-1.253983
-1.237616
-1.260294
-1.329264
-1.376490
-1.361059
-1.296297
-1.229898
-1.199270
-1.193658
-1.181266
-1.165134
-1.202541
-1.295124
-1.365262
-1.362456
-1.242985
-1.010123
-0.759725
-0.510497
-0.211937
0.141098
0.535046
0.937646
1.310319
1.636233
1.862783
1.944145
1.916090
1.875878
1.917027
2.021067
2.095883
2.149423
2.258373
2.435826
2.664246
2.916514
3.137687
3.282642
3.329168
3.282409
3.202451
3.130208
3.023831
2.883319
2.768292
2.660278
2.531456
2.427183
2.369904
2.323612
2.210455
1.975957
1.689556
1.467449
1.351252
1.337225
1.369957
1.351488
1.245578
1.077245
0.888571
0.712288
0.504677
0.229264
-0.070931
-0.361073
-0.615210
-0.808326
-0.932471
-0.946499
-0.876359
-0.834976
-0.844327
-0.840586
-0.769511
-0.622218
-0.483576
-0.447571
-0.489420
-0.527762
-0.519812
-0.449205
-0.322252
-0.201379
-0.164672
-0.233174
-0.381635
-0.534304
-0.594857
-0.567034
-0.528925
-0.534769
-0.610285
-0.717597
-0.793581
-0.854368
-0.926377
-1.010075
-1.122999
-1.263978
-1.426233
-1.601814
-1.707490
-1.687850
-1.612333
-1.572353
-1.619580
-1.724788
-1.793991
-1.810590
-1.804043
-1.774351
-1.724317
-1.661192
-1.610691
-1.551539
-1.400506
-1.137717
-0.819986
-0.502489
-0.160910
0.242624
0.649432
0.997323
1.235329
1.323939
1.311314
1.243280
1.148593
1.104405
1.156309
1.259648
1.341010
1.408812
1.514021
1.620867
1.657340
1.587201
1.449729
1.375148
1.425649
1.544886
1.687737
1.828250
1.958476
2.085662
2.160945
2.132890
2.032825
1.929955
1.868233
1.838775
1.782197
1.640049
1.456986
1.336114
1.283744
1.224126
1.121489
1.015346
0.960170
0.994539
1.114945
1.199113
1.148847
1.032417
0.966019
1.010207
1.114014
1.188128
1.269958
1.395507
1.497677
1.544905
1.549114
1.522929
1.432216
1.170832
0.749529
0.318642
-0.051693
-0.365448
-0.625898
-0.843095
-1.026859
-1.234470
-1.484633
-1.672839
-1.707674
-1.589372
-1.446521
-1.468732
-1.681019
-1.973499
-2.239326
-2.411867
-2.540222
-2.749470
-3.101568
-3.542743
-3.927105
-4.132378
-4.173292
-4.170018
-4.230337
-4.368043
-4.533805
-4.683902
-4.794020
-4.859717
-4.885200
-4.899929
-4.928218
-4.910215
-4.802434
-4.629423
-4.390014
-4.120445
-3.883842
-3.682308
-3.527066
-3.410634
-3.273395
-3.096410
-2.892772
-2.698018
-2.573871
-2.504433
-2.426344
-2.356438
-2.306639
-2.222705
-2.092947
-1.930223
-1.742717
-1.566901
-1.403009
-1.243792
-1.134141
-1.081068
-1.035945
-0.954816
-0.819213
-0.666543
-0.551281
-0.502183
-0.530004
-0.587050
-0.613936
-0.613000
-0.592192
-0.547770
-0.475526
-0.364471
-0.219984
-0.040895
0.171394
0.418752
0.700244
0.985945
1.292454
1.666764
2.117058
2.626269
3.160964
3.683034
4.132393
4.456904
4.689766
4.906030
5.125332
5.282444
5.299044
5.175600
4.972898
4.801292
4.735362
4.724374
4.711515
4.674108
4.571940
4.394722
4.180096
3.982305
3.837585
3.727934
3.625765
3.502321
3.318557
3.124038
2.993814
2.908712
2.842080
2.799764
2.807480
2.925314
3.120535
3.282090
3.399457
3.517525
3.647283
3.775171
3.875003
3.959872
4.083785
4.228038
4.293502
4.214011
4.012011
3.807205
3.692879
3.604270
3.475449
3.305479
3.056953
2.725896
2.338729
1.936364
1.596424
1.317972
1.051210
0.758262
0.387460
-0.052312
-0.495825
-0.881122
-1.181785
-1.416984
-1.587422
-1.702917
-1.761833
-1.710865
-1.569885
-1.420955
-1.317850
-1.298444
-1.355958
-1.456958
-1.583442
-1.745229
-1.961257
-2.229188
-2.541774
-2.863011
-3.154088
-3.422019
-3.667272
-3.885638
-4.067766
-4.203134
-4.302263
-4.342242
-4.327980
-4.327979
-4.396481
-4.542604
-4.702754
-4.845370
-5.038486
-5.279998
-5.472413
-5.540447
-5.470307
-5.315533
-5.133404
-4.945664
-4.783876
-4.657391
-4.533244
-4.391563
-4.220189
-4.027305
-3.859205
-3.719861
-3.569061
-3.393011
-3.181658
-2.931962
-2.672680
-2.455482
-2.334842
-2.293927
-2.235243
-2.110628
-1.968245
-1.890390
-1.922654
-2.029732
-2.147799
-2.230095
-2.231264
-2.152941
-2.046797
-1.956550
-1.894360
-1.800373
-1.612633
-1.371120
-1.141530
-0.933684
-0.705497
-0.416289
-0.099260
0.182934
0.411355
0.593016
0.717630
0.775846
0.807877
0.880121
1.008710
1.159744
1.301893
1.420195
1.490335
1.498752
1.459709
1.370165
1.209547
0.993986
0.782166
0.604949
0.442460
0.274360
0.091064
-0.082881
-0.223158
-0.357825
-0.453214
-0.446199
-0.347536
-0.169382
0.076573
0.382380
0.771186
1.201841
1.618235
1.984595
2.230785
2.325005
2.306302
2.256972
2.242243
2.214422
2.112487
1.976885
1.859753
1.777691
1.719709
1.634842
1.505085
1.366210
1.231309
1.069055
0.860742
0.616658
0.355507
0.133634
0.020710
0.036142
0.159821
0.336105
0.504673
0.649862
0.784763
0.940473
1.122602
1.309406
1.514213
1.753856
1.986952
2.146403
2.193630
2.110867
1.898346
1.595111
1.257742
0.958248
0.765600
0.707151
0.794124
0.981163
1.170072
1.312455
1.405039
1.441044
1.404806
1.312925
1.181297
1.002677
0.858892
0.798573
0.722356
0.609198
0.507497
0.437125
0.432917
0.462142
0.460272
0.385458
0.190705
-0.085175
-0.349131
-0.558146
-0.716893
-0.871433
-1.053560
-1.260003
-1.466211
-1.623556
-1.668445
-1.544766
-1.277768
-0.960973
-0.670128
-0.452462
-0.302832
-0.177048
-0.068566
0.006952
0.042489
0.020747
-0.031156
-0.037701
0.053012
0.260157
0.534870
0.785501
0.968097
1.089439
1.213118
1.388934
1.593741
1.809303
2.006862
2.127034
2.163273
2.180809
2.273159
2.455054
2.660095
2.817675
2.839886
2.716909
2.563773
2.443602
2.349148
2.287894
2.266151
2.281349
2.301222
2.276908
2.203262
2.144346
2.161647
2.206069
2.191574
2.086132
1.922709
1.808616
1.737075
1.622515
1.493693
1.305253
0.988458
0.617656
0.242179
-0.099165
-0.395853
-0.704231
-0.988996
-1.234482
-1.472721
-1.650640
-1.768006
-1.900101
-2.064693
-2.250094
-2.455134
-2.668590
-2.861472
-3.020921
-3.153951
-3.288150
-3.457887
-3.632065
-3.757847
-3.800164
-3.722543
-3.562157
-3.403642
-3.285808
-3.203978
-3.130799
-3.053178
-2.973920
-2.906820
-2.842992
-2.734744
-2.582775
-2.397841
-2.171290
-1.947780
-1.747181
-1.578379
-1.476443
-1.441840
-1.477611
-1.572298
-1.677506
-1.765413
-1.823394
-1.856125
-1.875530
-1.919016
-2.014171
-2.102078
-2.136913
-2.131769
-2.113766
-2.120312
-2.150705
-2.174552
-2.178292
-2.186942
-2.237441
-2.298696
-2.337505
-2.385667
-2.474276
-2.614320
-2.774236
-2.887394
-2.914046
-2.860038
-2.760440
-2.630214
-2.501158
-2.398286
-2.240940
-1.964591
-1.608050
-1.242390
-0.951312
-0.757727
-0.595238
-0.406563
-0.190767
0.036484
0.258358
0.445397
0.574687
0.621681
0.584040
0.503848
0.422721
0.392796
0.408461
0.415008
0.449610
0.539389
0.676161
0.885878
1.114766
1.310221
1.487206
1.624913
1.700664
1.703003
1.623278
1.474116
1.262764
1.028266
0.830708
0.669856
0.495911
0.300691
0.131422
0.001899
-0.095594
-0.147730
-0.146560
-0.066601
0.117866
0.383694
0.697216
1.014012
1.266982
1.432511
1.515042
1.481609
1.326602
1.098417
0.825108
0.523744
0.225419
-0.052799
-0.305299
-0.542369
-0.779205
-1.010430
-1.204014
-1.349435
-1.451136
-1.478958
-1.440848
-1.376086
-1.272279
-1.114699
-0.885811
-0.582575
-0.236789
0.138690
0.494530
0.784206
1.014497
1.155009
1.196626
1.156413
1.037645
0.887314
0.761765
0.712435
0.758961
0.845934
0.933842
1.004450
1.071316
1.169512
1.227260
1.163902
0.982008
0.672929
0.273837
-0.161960
-0.667196
-1.249584
-1.858392
-2.438676
-2.904166
-3.189631
-3.289696
-3.253223
-3.173264
-3.099383
-3.053792
-3.094005
-3.222125
-3.390692
-3.576093
-3.753311
-3.912059
-4.049063
-4.140010
-4.146088
-4.011888
-3.760088
-3.457787
-3.097505
-2.690463
-2.270329
-1.827517
-1.384704
-0.961530
-0.540695
-0.112144
0.326694
0.746829
1.116463
1.430453
1.712647
1.977540
2.183983
2.331276
2.449111
2.544267
2.661400
2.764972
2.817577
2.850543
2.827632
2.844232
2.962300
3.013502
3.036181
3.116374
3.140690
3.126662
3.126897
3.087853
3.038055
3.063072
3.185582
3.333577
3.437383
3.537215
3.673519
3.784106
3.843725
3.882302
3.874587
3.820815
3.782005
3.754184
3.672823
3.521323
3.348547
3.178343
3.013049
2.878850
2.793982
2.772707
2.786969
2.769435
2.689477
2.537276
2.331067
2.093530
1.830041
1.596478
1.439367
1.354733
1.331353
1.326444
1.331355
1.382323
1.488935
1.631084
1.737463
1.776741
1.809707
1.843608
1.858806
1.863950
1.858106
1.874940
1.915621
1.900658
1.797087
1.663355
1.544587
1.430494
1.348432
1.361058
1.411325
1.355682
1.180802
0.994232
0.809065
0.565215
0.256370
-0.130798
-0.579922
-1.000523
-1.373663
-1.731138
-2.037646
-2.300199
-2.579587
-2.836062
-2.998316
-3.064247
-3.021929
-2.899652
-2.767556
-2.666088
-2.669594
-2.811742
-3.022159
-3.233277
-3.388051
-3.457488
-3.488115
-3.541654
-3.616234
-3.655278
-3.630963
-3.561758
-3.491618
-3.456548
-3.424050
-3.370743
-3.295928
-3.184873
-3.096497
-3.058622
-3.038514
-3.082234
-3.163829
-3.192585
-3.152138
-3.029160
-2.870878
-2.725924
-2.530001
-2.304853
-2.138155
-2.043467
-2.021957
-2.061936
-2.167845
-2.351142
-2.574184
-2.819437
-3.056974
-3.213618
-3.271131
-3.249621
-3.155167
-2.973973
-2.711185
-2.419639
-2.105648
-1.742795
-1.337857
-0.899954
-0.480288
-0.140813
0.102336
0.258981
0.350630
0.391078
0.419835
0.497223
0.634930
0.826644
1.045713
1.225737
1.337025
1.395943
1.392203
1.318791
1.237196
1.155835
1.009713
0.817766
0.634235
0.503777
0.454914
0.436211
0.446031
0.523652
0.618341
0.698534
0.773349
0.822447
0.810524
0.733138
0.666974
0.638685
0.587250
0.523424
0.474561
0.426633
0.348312
0.181849
-0.054987
-0.261664
-0.379029
-0.410591
-0.381366
-0.306784
-0.194327
-0.064101
0.075242
0.234693
0.383388
0.470128
0.521330
0.574870
0.641035
0.745076
0.896109
1.112372
1.400645
1.717908
2.052473
2.382829
2.679051
2.948619
3.147815
3.253960
3.319190
3.370626
3.435622
3.510905
3.511140
3.388163
3.132857
2.753872
2.301241
1.793200
1.254532
0.758415
0.320980
-0.083021
-0.485151
-0.901310
-1.296193
-1.628886
-1.876710
-2.036393
-2.098349
-2.040834
-1.874604
-1.635195
-1.383395
-1.208748
-1.167599
-1.266962
-1.454934
-1.616721
-1.678677
-1.639866
-1.499821
-1.307405
-1.083427
-0.766865
-0.396997
-0.001645
0.433920
0.813373
1.132974
1.421481
1.630496
1.818002
2.045020
2.317161
2.663882
3.059936
3.440091
3.737014
3.940652
4.126521
4.320340
4.473477
4.541045
4.493585
4.347228
4.145228
3.904885
3.629473
3.325537
3.016224
2.741980
2.514730
2.316236
2.129667
1.938889
1.751150
1.579543
1.417522
1.275842
1.190974
1.203132
1.310913
1.452829
1.581885
1.689900
1.750221
1.741103
1.671198
1.544948
1.360950
1.122945
0.856885
0.597604
0.356326
0.142168
-0.069184
-0.290589
-0.464768
-0.585874
-0.677756
-0.749064
-0.834165
-0.902200
-0.936333
-0.988002
-1.034995
-1.042943
-1.025174
-0.959944
-0.828549
-0.686400
-0.570904
-0.431092
-0.267434
-0.158016
-0.118738
-0.130661
-0.205008
-0.321672
-0.427348
-0.496785
-0.519229
-0.518527
-0.532554
-0.521097
-0.481585
-0.491638
-0.544709
-0.628876
-0.760737
-0.877869
-0.914808
-0.867113
-0.781309
-0.710234
-0.664175
-0.648744
-0.659966
-0.658095
-0.624661
-0.545871
-0.425698
-0.332179
-0.310201
-0.360935
-0.491159
-0.703680
-0.990783
-1.312955
-1.636764
-1.951220
-2.189693
-2.287420
-2.244634
-2.106459
-1.954958
-1.835955
-1.721160
-1.578777
-1.434056
-1.312247
-1.193477
-1.080085
-0.987501
-0.910113
-0.826413
-0.732192
-0.662520
-0.610850
-0.588171
-0.659947
-0.780118
-0.866388
-0.875506
-0.801158
-0.713016
-0.613418
-0.454902
-0.248926
-0.014895
0.213526
0.437036
0.649559
0.766458
0.786331
0.762251
0.737469
0.762720
0.822338
0.898089
0.993713
1.083024
1.161347
1.230318
1.284793
1.323370
1.314720
1.242945
1.137035
1.033697
0.930827
0.792186
0.630165
0.495732
0.383744
0.240193
0.056429
-0.106060
-0.197941
-0.253351
-0.341258
-0.487848
-0.693823
-0.935101
-1.137569
-1.269430
-1.363182
-1.429113
-1.468390
-1.520292
-1.616149
-1.728605
-1.807861
-1.847139
-1.867011
-1.865841
-1.820016
-1.734212
-1.651214
-1.579437
-1.482645
-1.351250
-1.199983
-1.026738
-0.830582
-0.631152
-0.427514
-0.215459
-0.064192
-0.027485
-0.069568
-0.149526
-0.219197
-0.236498
-0.232990
-0.245615
-0.286529
-0.369526
-0.507232
-0.719286
-0.988152
-1.282268
-1.605843
-1.958409
-2.324301
-2.668684
-2.964203
-3.235407
-3.485336
-3.700663
-3.892610
-4.052760
-4.152123
-4.119625
-3.913883
-3.583994
-3.157548
-2.677094
-2.213239
-1.758503
-1.313119
-0.914026
-0.591853
-0.371382
-0.225725
-0.107190
0.009008
0.094345
0.158172
0.293775
0.469357
0.624366
0.793635
0.958463
1.171687
1.464869
1.709422
1.863962
1.948831
1.968938
1.959821
1.930363
1.918206
1.932702
1.932469
1.915402
1.879866
1.872618
1.913300
1.904650
1.847370
1.803884
1.734447
1.644436
1.599080
1.600249
1.629007
1.651686
1.636489
1.618020
1.627606
1.672262
1.795941
2.010334
2.266109
2.522819
2.772047
3.025250
3.291078
3.561816
3.826242
4.090199
4.356027
4.600346
4.810530
5.011597
5.229730
5.435238
5.590013
5.691949
5.717433
5.666700
5.593054
5.505381
5.384275
5.241893
5.100680
4.971157
4.826904
4.628411
4.395082
4.167831
3.952505
3.781366
3.682002
3.615371
3.546635
3.459195
3.344869
3.215580
3.056832
2.875873
2.730920
2.647455
2.603501
2.615659
2.733728
2.942743
3.174904
3.365216
3.471360
3.510873
3.521628
3.502457
3.451022
3.378546
3.287599
3.182625
3.069935
2.928722
2.762259
2.597432
2.399641
2.140594
1.854193
1.555167
1.268298
1.036372
0.868038
0.755582
0.641256
0.478300
0.306226
0.154959
0.062142
0.068222
0.121528
0.188395
0.284486
0.411906
0.604555
0.847004
1.060227
1.221081
1.334239
1.408353
1.457451
1.469843
1.453010
1.417006
1.341724
1.213370
1.013240
0.733151
0.408408
0.051867
-0.345354
-0.752628
-1.137224
-1.467813
-1.703713
-1.884204
-2.063994
-2.199596
-2.283996
-2.351563
-2.366525
-2.302464
-2.177382
-2.020036
-1.856144
-1.698797
-1.586808
-1.535138
-1.511290
-1.497262
-1.460321
-1.390883
-1.308118
-1.189816
-1.041120
-0.887983
-0.728532
-0.595034
-0.501748
-0.409865
-0.323359
-0.260467
-0.204355
-0.144737
-0.071324
0.022663
0.102389
0.149383
0.185388
0.227238
0.280778
0.346476
0.404692
0.428072
0.400017
0.320761
0.219527
0.128113
0.025009
-0.109892
-0.256248
-0.411021
-0.535167
-0.589408
-0.616995
-0.624476
-0.625878
-0.665623
-0.711681
-0.780183
-0.893340
-1.002990
-1.107263
-1.147943
-1.030577
-0.793272
-0.508039
-0.218129
0.050738
0.306279
0.550832
0.767562
0.950626
1.120831
1.291737
1.443472
1.565749
1.661139
1.739461
1.841164
1.992899
2.153051
2.247739
2.242362
2.131075
1.949415
1.752559
1.520165
1.250129
1.017034
0.826490
0.668210
0.566742
0.501280
0.461769
0.428570
0.344170
0.205295
0.008438
-0.250609
-0.539114
-0.852168
-1.160312
-1.413280
-1.612943
-1.800447
-2.023256
-2.245129
-2.417670
-2.592550
-2.771638
-2.916592
-3.051726
-3.182418
-3.303525
-3.396342
-3.427202
-3.395172
-3.294171
-3.147345
-2.973867
-2.753396
-2.510012
-2.276448
-2.077019
-1.947494
-1.887174
-1.890681
-1.953104
-2.073743
-2.231088
-2.338868
-2.372534
-2.354765
-2.261947
-2.109510
-1.932525
-1.761151
-1.664592
-1.677684
-1.756473
-1.840172
-1.911480
-1.967357
-2.001491
-2.018324
-2.004295
-1.972966
-1.973433
-2.000319
-2.023698
-2.043336
-2.065780
-2.096875
-2.138958
-2.163506
-2.132644
-2.065544
-2.008263
-1.949111
-1.862840
-1.738459
-1.547914
-1.271798
-0.927181
-0.551468
-0.164767
0.222870
0.597647
0.949279
1.260931
1.521382
1.711226
1.809188
1.825554
1.779964
1.721983
1.696733
1.667743
1.605320
1.504086
1.361237
1.215815
1.095177
1.046547
1.115752
1.260005
1.438393
1.627770
1.817380
2.024525
2.221149
2.392523
2.541686
2.640349
2.706280
2.783902
2.886305
3.011621
3.172708
3.350629
3.448590
3.428484
3.307144
3.127121
2.984505
2.827627
2.578868
2.306495
2.009806
1.725743
1.520704
1.336706
1.186141
1.044928
0.809027
0.547876
0.322730
0.088232
-0.146266
-0.338681
-0.446227
-0.494389
-0.525483
-0.486672
-0.388009
-0.277890
-0.138780
-0.002710
0.079821
0.100630
0.066496
0.039610
0.088942
0.177552
0.217064
0.240210
0.317130
0.387971
0.439875
0.512119
0.551397
0.539942
0.485702
0.404107
0.343320
0.290716
0.251673
0.233203
0.166104
0.055051
-0.044078
-0.103462
-0.123802
-0.175003
-0.295408
-0.440128
-0.592096
-0.791290
-1.053844
-1.339778
-1.601864
-1.837531
-2.086992
-2.307462
-2.416645
-2.469483
-2.484679
-2.420618
-2.342061
-2.285014
-2.230773
-2.139124
-1.960268
-1.722028
-1.448485
-1.188034
-0.986033
-0.824946
-0.752000
-0.752000
-0.758779
-0.777950
-0.763688
-0.730488
-0.724643
-0.688637
-0.665958
-0.723238
-0.789169
-0.844344
-0.955631
-1.120458
-1.294168
-1.455254
-1.579634
-1.678763
-1.776957
-1.845226
-1.904843
-1.989711
-2.059382
-2.071071
-1.989242
-1.844287
-1.719439
-1.621477
-1.550636
-1.524216
-1.514396
-1.512993
-1.527488
-1.570973
-1.681793
-1.841242
-1.981753
-2.084156
-2.164816
-2.229343
-2.291299
-2.362840
-2.447474
-2.559696
-2.687583
-2.825055
-2.991752
-3.173879
-3.364190
-3.576945
-3.789933
-3.993103
-4.219885
-4.462566
-4.674854
-4.862826
-5.025549
-5.127016
-5.171904
-5.153901
-5.070201
-4.959849
-4.826584
-4.655210
-4.466067
-4.308721
-4.207019
-4.145295
-4.119110
-4.113498
-4.103678
-4.078895
-4.040318
-3.992389
-3.919443
-3.817507
-3.667642
-3.492528
-3.355054
-3.195370
-3.024230
-2.933049
-2.822930
-2.659037
-2.537696
-2.413315
-2.219496
-2.016794
-1.848927
-1.679657
-1.525350
-1.408918
-1.273082
-1.135842
-1.043258
-0.961896
-0.877261
-0.788183
-0.677129
-0.541760
-0.395870
-0.262371
-0.166981
-0.116247
-0.079540
-0.062940
-0.095203
-0.127233
-0.123959
-0.134012
-0.188018
-0.253013
-0.292291
-0.321982
-0.358922
-0.380898
-0.384405
-0.380663
-0.392119
-0.434202
-0.482129
-0.535902
-0.626147
-0.758009
-0.895247
-0.981284
-1.017522
-1.033419
-1.012845
-0.959772
-0.878878
-0.745846
-0.568394
-0.350027
-0.094719
0.152873
0.392282
0.650394
0.915287
1.194208
1.513108
1.846503
2.174288
2.521945
2.874745
3.205569
3.497349
3.711508
3.872361
4.021290
4.134916
4.207861
4.262571
4.332477
4.437686
4.533310
4.576796
4.578434
4.534714
4.429973
4.264913
4.022934
3.726479
3.441949
3.154612
2.849040
2.577836
2.335388
2.081018
1.812385
1.566899
1.402306
1.305748
1.213633
1.112867
1.012802
0.906892
0.819920
0.758900
0.701620
0.676838
0.696478
0.741133
0.826470
0.946175
1.110769
1.366310
1.691522
2.049466
2.407878
2.726311
3.012011
3.266617
3.497610
3.742630
3.986247
4.225188
4.465065
4.653272
4.781861
4.883330
4.972641
5.048158
5.078552
5.062655
5.016363
4.937808
4.870241
4.838445
4.804078
4.756384
4.685778
4.551812
4.364074
4.171425
3.981583
3.793143
3.617094
3.454138
3.323212
