EVENT_NAME: 202302060117
EVENT_ID: 13194
EVENT_DATE_YYYYMMDD: 2023/02/06
EVENT_TIME_HHMMSS: 01:17:32.00000
EVENT_LATITUDE_DEGREE: 37.288
EVENT_LONGITUDE_DEGREE: 37.043
EVENT_DEPTH_KM: 8.6
HYPOCENTER_REFERENCE: AFAD
MAGNITUDE_W: 7.7
MAGNITUDE_W_REFERENCE: AFAD
MAGNITUDE_L: 
MAGNITUDE_L_REFERENCE: 
FOCAL_MECHANISM: 
NETWORK: TK
STATION_CODE: 8002
STATION_NAME: 
STATION_LATITUDE_DEGREE: 37.19156
STATION_LONGITUDE_DEGREE: 36.56195
STATION_ELEVATION_M: 593.0
LOCATION: Kahramanmaras_Pazarck_Turkiye
SENSOR_DEPTH_M: 
VS30_M/S: 430
SITE_CLASSIFICATION_EC8: unknown
MORPHOLOGIC_CLASSIFICATION: 
EPICENTRAL_DISTANCE_KM: 43.91
EARTHQUAKE_BACKAZIMUTH_DEGREE: 
DATE_TIME_FIRST_SAMPLE_YYYYMMDD_HHMMSS: 2023/02/06 01:17:09.7103280
DATE_TIME_FIRST_SAMPLE_PRECISION: millisecond
SAMPLING_INTERVAL_S: 0.01
NDATA: 10501
DURATION_S: 
STREAM: HNN
UNITS: cm/s^2
INSTRUMENT: sensor = CMG-5T/GURALP | digitizer = 
INSTRUMENT_ANALOG/DIGITAL: 
INSTRUMENTAL_FREQUENCY_HZ: 
INSTRUMENTAL_DAMPING: 
FULL_SCALE_G: 
N_BIT_DIGITAL_CONVERTER: 
PGA_CM/S^2: 242.951
TIME_PGA_S: 
BASELINE_CORRECTION: BASELINE REMOVED
FILTER_TYPE: BUTTERWORTH
FILTER_ORDER: 
LOW_CUT_FREQUENCY_HZ: 
HIGH_CUT_FREQUENCY_HZ: 
LATE/NORMAL_TRIGGERED: 
DATABASE_VERSION: 
HEADER_FORMAT: DYNA 1.2
DATA_TYPE: Acceleration
PROCESSING: Automatic Paolucci et al., 2011
DATA_TIMESTAMP_YYYYMMDD_HHMMSS: 
DATA_LICENSE: U (unknown license)
DATA_CITATION: Turkish Accelerometric Archive v 1.0 - Disaster And Emergency Management Presidency, Earthquake Department
DATA_CREATOR: AFAD
ORIGINAL_DATA_MEDIATOR_CITATION: : AFAD - Disaster And Emergency Management Presidency
ORIGINAL_DATA_MEDIATOR: AFAD PROCESS SERVICE
ORIGINAL_DATA_CREATOR_CITATION: AFAD PROCESS SERVICE
ORIGINAL_DATA_CREATOR: network: TK
USER1: GuestUser
USER2: 
USER3: 
USER4: 
USER5: 
[...]
-2.223429
0.285725
-4.896825
1.814842
10.674308
10.922210
7.442729
-17.375263
-21.910936
8.900384
35.379752
32.238440
24.060318
23.151738
12.108736
-8.417421
-29.624305
-32.337812
-18.271355
-11.188924
-15.233170
-15.086185
-13.708127
-22.976602
-35.162609
-38.279788
-12.014793
15.082933
17.718392
22.320184
30.658762
32.004539
19.756163
14.824968
22.779932
36.348381
41.335354
30.750244
13.501414
-0.616452
7.086531
15.397842
1.030816
-16.610404
-18.566713
-13.540877
-18.228240
-34.631177
-39.876096
-21.291836
-2.374421
-12.064433
-27.799807
-29.398202
-22.621972
-9.434630
-7.080926
-19.571568
-30.617390
-32.598772
-20.780405
-0.762294
4.635246
-4.232065
-16.753734
-13.700813
6.877987
18.310548
13.951011
18.062944
23.302525
23.559830
32.593238
32.664064
24.650168
15.486059
5.068624
9.524994
12.608315
2.491753
9.392093
25.732966
26.086801
10.529130
2.075207
-15.040111
-34.159058
-24.708501
-9.416298
0.782054
10.804897
10.251097
5.250324
9.713902
13.724290
12.060079
5.180414
4.129546
3.875679
7.046442
8.262467
4.484620
-7.196798
-28.161415
-22.859465
-7.445973
-11.312829
-17.429654
-17.846807
-5.778652
8.330742
13.651183
19.527927
10.556565
6.746123
19.259320
12.353642
-6.764678
-11.865742
-12.505103
-4.976689
3.769008
9.410381
8.102517
-8.373445
-24.152069
-30.794796
-18.138057
-2.243167
-1.381608
-11.558031
-17.315689
-10.373352
4.943924
5.296818
-2.202144
-1.313946
-1.798482
-3.718749
-11.768060
-23.884803
-23.256108
2.683882
27.364904
34.582415
31.274996
19.363222
0.209173
-21.228067
-25.724876
-10.320786
-2.026399
2.316517
7.100714
-0.108032
1.436447
3.517798
-1.049529
-9.161835
-20.980840
-14.456278
3.101878
14.671085
5.834176
-5.928415
4.891429
24.658498
31.732781
26.196077
15.839130
7.485812
2.696278
-1.173399
-3.223104
-10.164824
-19.914383
-18.658555
1.554183
9.281298
4.389906
-0.656938
-8.876744
-18.520997
-28.811501
-36.206725
-29.317981
-17.064287
-2.648065
18.886009
20.002370
5.920546
-9.352235
-7.854767
0.931987
-4.581838
-12.279816
-13.251391
-3.294991
9.568285
11.967433
21.694103
25.571605
17.538592
9.916773
8.374164
12.371389
7.001106
-1.261637
-17.175654
-25.572850
-15.647791
-4.509836
-3.870484
-10.043097
-23.887356
-24.751745
-10.215487
2.922023
3.839056
-8.030094
-3.978963
18.280655
16.114674
-7.857738
-12.605276
-8.430034
13.439702
21.790816
11.757308
12.942619
14.860056
15.233009
9.222743
7.636571
6.267278
3.938951
1.054635
-2.333957
-3.959619
-7.837131
-6.336842
2.945726
5.104175
-1.694943
-3.772542
-0.747515
5.256473
16.067855
26.334844
23.240544
-0.448860
-6.343477
6.131798
8.698306
7.331834
4.691665
4.146954
-4.208245
-17.138601
-25.312335
-25.633585
-25.127433
-17.708713
-28.312313
-36.489809
-22.315225
-13.643806
-9.479847
-18.270372
-9.330987
6.369589
12.357279
13.805541
-6.545420
-29.217494
-34.405686
-33.554783
-18.941113
-3.829121
6.978500
-1.188025
-9.471766
5.009959
18.524814
34.501191
29.367532
13.733389
6.636218
11.676784
25.364955
29.644876
21.497781
15.379076
5.939166
6.131594
17.955290
40.994985
52.341044
34.658768
2.949520
-35.892310
-43.601884
-17.099951
1.253953
-3.658752
-7.094982
-15.286894
-2.674346
15.746941
19.135837
19.297552
11.197783
7.507690
-0.051448
-24.273961
-41.600830
-34.820839
-18.908712
12.046463
37.834762
34.432379
26.688017
26.946575
31.358754
28.132822
1.616462
-32.412646
-53.190472
-51.049261
-35.548954
-5.890983
32.261963
51.270580
39.553747
25.283878
26.759406
11.539905
-18.922599
-28.025907
-19.723057
-12.136349
-6.594641
-6.184706
-5.175844
-2.064002
-6.149618
-8.499570
-1.883493
13.006605
18.399444
-4.065780
-9.900223
0.622508
-1.815825
-32.702059
-69.134708
-55.196749
-23.708151
-1.577972
-3.752727
-20.413287
-10.756821
7.262675
3.733675
-6.654927
-20.341227
-36.824084
-40.632646
-38.319999
-20.908832
-2.875860
5.488731
14.241637
26.530747
29.267437
21.146982
8.219761
-6.725194
-10.710832
-16.659670
-11.363988
-3.013187
-0.334164
5.433200
0.444650
1.182412
2.038643
-1.616035
-7.088176
-6.639064
10.857037
15.742465
16.767624
9.354535
-8.564679
1.416481
7.576547
4.695365
10.876116
7.522626
0.632305
-14.069130
-36.036033
-37.263037
-14.899994
4.700654
5.831119
-6.617840
-11.076100
-6.091007
7.230474
17.980428
40.559097
63.284128
46.671206
14.942527
-7.427734
-11.953691
-15.640650
-11.126925
10.304350
37.959005
48.483930
28.479600
7.621855
11.272762
24.145127
25.425715
6.552482
-16.970814
-19.695291
-1.489003
18.315048
9.401040
-8.338277
-21.722764
-30.614207
-33.610723
-20.797906
-5.903107
1.904869
12.042419
20.899064
34.685959
38.042574
38.468180
32.556325
26.499047
25.773185
29.442896
14.774996
-6.990384
-13.485808
-11.708465
-2.859343
-5.960225
-0.805264
1.076757
1.360388
-15.424909
-46.799435
-56.430525
-35.197012
0.219552
21.802518
34.048064
38.786189
34.956316
17.228595
13.296237
6.364232
-12.214083
-10.599086
-0.160976
-7.160050
-17.660225
-12.124785
-1.220947
16.532463
11.779598
-14.628949
-34.786537
-39.482988
-24.768400
-6.734174
2.141275
-5.811819
-13.639548
-4.424990
10.024768
5.280991
-3.198631
2.852682
17.911081
22.487173
8.389366
-0.540940
-12.832253
-0.949636
23.536759
21.419043
-2.702865
-30.780007
-31.947150
-18.986716
-8.247419
-1.417596
-11.954127
-25.003265
-24.576406
-22.086056
-9.261329
-3.193092
-8.064426
-18.722874
-25.629492
-24.400303
-17.567346
-7.230153
-9.992553
-7.175943
-7.373709
-11.434566
-10.306295
-6.529398
7.696585
9.484270
-6.163976
-5.953056
14.280053
22.466001
4.529862
-7.903425
-3.298186
-4.715430
-8.490143
-4.077650
-7.063198
-11.314607
-22.694211
-27.829437
-22.360439
-25.005310
-16.450479
-8.886337
-0.450288
-4.931114
-11.241627
-5.666697
-1.423132
4.713429
16.580062
20.477308
18.410992
27.077711
14.217559
-4.826170
-6.285098
4.830605
13.515188
13.471932
16.581894
27.974337
29.067820
17.406774
3.286714
-5.209519
0.826750
-1.948185
-9.465013
-22.684646
-34.662235
-37.198666
-33.494166
-33.707603
-28.110735
-10.049869
1.945575
9.751670
9.583051
0.273519
-19.277934
-22.309552
-16.804199
-4.012380
-8.957366
-30.079316
-34.125442
-33.920790
-22.670948
-17.288765
-6.519066
3.925626
3.754186
6.704308
16.981013
13.701801
16.914247
22.219331
5.100566
10.225126
24.902418
31.227652
32.380368
24.735043
16.753429
18.973620
22.076999
12.868072
-9.869818
-27.725097
-12.890159
1.868620
0.100670
8.292573
10.057065
4.917452
-10.708542
-18.201550
-1.791727
16.816038
14.602106
-7.540306
-7.665048
-9.904053
-14.515570
-10.338448
-7.955285
-1.701822
-2.481904
7.290524
28.509621
39.759150
35.213135
27.886234
22.318816
10.396700
13.630145
22.735950
25.983812
18.816123
-1.601594
5.595232
24.688469
27.526391
23.529157
-0.787693
-16.703591
-10.349838
-0.947233
12.726521
12.167393
-2.056405
-9.864703
-7.796830
-2.512431
5.487978
1.294549
5.169857
1.344998
-13.891427
-12.703295
-18.693190
-25.244401
-23.945635
-10.207945
-0.971448
-10.144646
-20.424808
-24.157525
-25.081462
-31.673103
-46.525601
-37.327340
-8.522784
17.885126
22.004268
13.368254
15.705660
4.382156
-10.898460
-7.287043
12.856431
15.660505
10.619615
2.765246
-14.167041
-11.429724
-5.893343
-22.317906
-26.186015
-9.293855
-3.766563
0.610514
1.834375
8.845035
17.470070
19.605013
27.668731
29.917442
28.459768
19.254915
6.966109
1.477671
-3.483612
-10.755980
-13.159838
-13.658478
-6.376718
4.335313
10.948570
25.617087
28.450621
12.627805
-8.305158
-28.729144
-48.738802
-48.638202
-38.820956
-28.514477
-22.348456
-22.882825
-8.341239
1.758076
2.844036
-6.116670
-16.159267
-21.143116
-2.424090
8.641781
-6.538857
-9.486482
-31.311723
-35.311778
-12.844997
-3.525759
11.775533
19.668128
18.051869
26.599805
35.966681
48.213166
42.452061
15.410426
2.859610
-1.044542
-9.359310
-26.239257
-29.023909
-19.989247
6.077360
31.582964
20.540589
8.608130
-2.480943
-3.497022
-4.547891
-12.453973
-10.109358
-26.227406
-53.346453
-55.661617
-29.620396
5.861358
27.708841
18.395235
7.346906
10.990917
13.180081
14.072980
10.344338
4.471033
9.215740
7.383854
-3.040476
2.964452
11.195844
14.021542
18.061077
1.884736
-10.423815
-6.215039
-2.836172
7.217072
8.544985
-4.053784
-6.021376
12.265772
6.477400
-5.499876
-13.814958
-25.293599
-34.235188
-35.627359
-19.418433
-15.046056
-11.996897
-24.416081
-21.349370
-1.543438
7.967919
8.312352
10.086561
22.609160
10.790469
-6.590307
-25.486419
-32.891359
-32.999177
-27.771192
-14.432472
-4.796377
9.683154
15.610670
1.708743
-2.562098
25.353628
38.591429
32.744449
8.092878
-3.266668
8.359894
0.823635
-7.028854
-12.614450
-20.178602
-19.687807
-17.305583
-5.416385
2.037751
1.533470
12.255216
7.734588
5.788621
8.814275
-1.816279
-8.680274
12.976657
30.065012
33.064653
36.343855
16.553898
2.674223
2.872920
4.315855
4.662794
0.541136
3.161238
5.200591
-9.545975
-26.761897
-41.991114
-31.640131
-18.564990
-23.845324
-33.873191
-38.072261
-31.902793
-25.118414
-8.932680
-8.766891
-26.112252
-36.215650
-24.694395
7.973878
46.416100
45.992052
26.268851
19.999082
24.274301
38.906776
42.295045
45.344205
58.925817
42.882674
17.753779
27.817365
23.800386
25.219188
33.933231
55.991013
93.745614
81.464957
49.269297
29.445491
17.869693
24.476681
32.301581
25.734072
20.063229
5.345810
-13.838640
-16.130297
-6.405507
-18.326997
-37.162935
-46.805934
-49.102607
-30.439994
-19.078265
-5.020583
-4.675524
-0.669210
17.852681
12.687055
2.929034
-2.029428
-3.324129
0.419547
11.689134
28.284495
53.215932
66.620780
58.713444
53.128476
50.822088
38.503508
24.376867
22.843347
44.885145
66.243709
68.031708
62.076289
43.958373
14.871425
-7.514193
-6.879543
4.577150
5.316792
-5.306553
-24.933538
-36.933693
-32.730558
-51.402583
-80.414626
-93.499806
-72.415475
-51.405736
-47.450195
-48.409861
-63.855331
-64.379357
-76.061088
-85.928489
-64.834129
-40.730095
-30.488805
-20.560612
-5.631025
18.786420
38.249168
28.340083
14.977849
26.431721
41.384501
40.883667
33.591555
34.826698
58.763999
71.982995
59.151050
43.067478
38.270735
48.743008
46.190906
27.068512
18.590770
20.271269
20.857340
12.167107
-1.446169
-8.033736
-12.088638
-24.709971
-20.641289
-10.166510
-2.064243
2.335400
-6.833724
-13.364563
-12.707034
-5.573830
-3.154938
5.941152
17.913717
35.578433
64.933337
96.962567
117.604362
123.972219
127.117596
120.483331
112.270421
103.789545
72.638793
33.348160
-5.932131
-40.247382
-46.503361
-52.235319
-57.921832
-59.126898
-51.683732
-28.071124
-8.053954
-0.958360
-3.197678
-12.582741
-28.723668
-44.057564
-53.651671
-43.861379
-36.749800
-37.483184
-43.909658
-63.288109
-80.674840
-91.086320
-87.854756
-81.071944
-69.261412
-53.946643
-28.897365
-9.221498
-4.149591
1.823370
3.949224
12.818091
28.453792
51.600359
74.135464
83.399855
82.491588
79.512309
70.671012
51.388778
31.384762
18.682569
10.412304
11.785975
7.791561
2.933076
3.216394
0.980523
10.282523
17.655486
26.510877
32.048824
29.641831
30.190607
44.410635
56.731085
55.536362
39.755544
17.596208
21.535451
38.592779
50.905394
48.686761
39.223658
39.169747
36.100206
31.533506
18.172211
-9.475558
-29.827146
-52.481984
-57.269638
-31.874981
-5.055877
19.166940
33.503243
34.669436
39.826904
54.033142
65.832705
72.409920
72.697939
75.964605
74.162180
58.996898
39.336379
10.005285
-25.721878
-54.176678
-71.844851
-84.532627
-65.908877
-35.417863
-18.947239
-7.031401
-5.512621
13.384735
28.633687
19.020462
14.116846
20.056272
17.281336
9.463635
-10.062745
-22.356565
-16.763144
-24.825931
-29.204585
-30.074929
-44.229464
-60.414895
-63.949536
-67.817332
-73.474071
-88.000937
-82.505927
-61.854102
-53.918882
-44.126082
-45.212052
-40.312834
-11.163527
11.750490
26.844305
37.959381
43.078299
61.351030
79.646640
100.180622
104.620695
100.437922
106.326262
120.249804
117.254854
86.304685
65.558514
55.515603
46.398505
31.811778
6.356624
3.673831
-6.637359
-38.067045
-51.172911
-58.305497
-42.524375
-54.792182
-103.410833
-140.670570
-159.572951
-164.042494
-166.778254
-161.985281
-143.520430
-115.641687
-56.689609
11.985383
59.871585
84.028586
74.219793
47.259017
14.776587
18.420912
26.888615
-3.902029
-29.181047
-13.126631
33.018893
87.610499
102.626901
85.724702
71.895800
64.821821
62.480645
42.751489
8.937067
-21.801238
-47.621828
-62.074729
-48.431062
-24.313864
4.296378
33.906083
35.562763
23.804247
29.033486
39.558098
51.312530
37.243556
6.293700
-11.772817
-18.421185
0.415370
12.513926
-0.714796
-9.374942
-3.554926
-0.945167
-6.553954
-4.193983
-16.776767
-14.624900
-22.614662
-67.919631
-85.965776
-77.139845
-65.561863
-57.573990
-48.514256
-70.697412
-88.606283
-114.964371
-145.304645
-142.777626
-145.730579
-137.140333
-130.890631
-127.485438
-94.080025
-40.501046
12.245517
53.204107
90.364484
121.550641
142.095593
152.212146
145.765927
141.867103
148.112417
154.060304
172.419223
202.081895
207.050063
202.134851
183.084541
154.956941
126.717453
94.199294
86.747970
63.646837
69.218319
89.795553
88.080882
62.002356
-7.673050
-55.580574
-92.900173
-114.521384
-117.616938
-143.903882
-187.369135
-200.619482
-242.951444
-240.286211
-191.217514
-175.040241
-144.444235
-137.308524
-142.416796
-140.888301
-133.853821
-160.299351
-173.069241
-162.055396
-125.144807
-60.487729
14.054609
56.514433
63.775194
75.636186
66.506552
65.015029
80.639133
101.948492
103.506448
118.833126
149.305649
157.794977
174.180040
158.794431
123.295118
133.374688
132.674212
122.138934
109.315765
86.644003
65.297966
45.901651
33.131448
19.464265
-1.620075
-6.310885
-5.115232
-16.499223
-35.992068
-84.647701
-75.352283
-67.324607
-70.744854
-42.358073
-70.264406
-60.490411
-18.455258
-14.027408
-14.742614
3.373098
25.459714
62.360587
121.591599
143.401787
123.669811
104.481287
76.654246
45.726016
42.692830
39.894702
53.479134
46.867748
36.495130
30.270179
-14.373808
-16.299090
-9.612495
-28.534621
-30.538882
-74.217880
-80.944287
-53.654754
-87.619300
-92.995224
-79.571258
-58.602262
-43.246437
-53.174326
-56.113175
-52.893834
-49.046106
-32.699906
-8.500594
-3.451880
-7.157956
3.465067
6.849261
2.408866
11.446034
15.602471
31.335328
14.711751
-12.850772
-56.105413
-76.814288
-77.468066
-59.462987
-30.500786
-81.802852
-92.272314
-94.306035
-85.679747
-55.289024
-31.589914
-39.873029
-60.776845
-65.682968
-56.350254
-36.999706
-12.867778
-24.998939
-53.790028
-31.010150
-38.470876
-27.427885
-50.306183
-77.570339
-93.938174
-99.934964
-102.554135
-112.299933
-131.720067
-136.204653
-116.903311
-125.113715
-131.454628
-138.470626
-105.090913
-76.152844
-34.142137
-12.175557
33.223424
1.049389
-80.693864
-128.047593
-161.205421
-60.508403
34.869110
87.649208
111.212297
116.271354
116.730495
130.594802
143.557116
108.419477
88.586269
88.609143
58.485436
44.224655
73.300937
92.641769
112.610047
144.017472
156.512491
136.446106
110.482601
74.906815
48.035049
-6.480096
-54.998769
-47.570960
-41.056740
-13.611130
-1.543601
-6.445023
21.721744
43.254251
64.283421
99.810305
100.933875
90.443415
69.234651
44.432956
29.479853
55.210485
83.062588
59.587558
46.450038
35.987472
7.433634
-26.862186
-20.890793
-9.031368
47.352316
83.321735
69.765500
54.717433
9.183049
0.856684
14.280964
14.298510
19.672231
58.289337
83.057173
112.601690
108.480659
88.662181
91.539279
100.642577
83.678636
23.775036
-39.929599
-78.763907
-75.843559
-82.874914
-61.589374
-91.677040
-111.324709
-70.242322
-97.539072
-160.711851
-171.886484
-149.301861
-143.387821
-169.305255
-177.376191
-154.127452
-159.796101
-159.283054
-170.110116
-177.181274
-170.966988
-140.667467
-129.357137
-156.447350
-170.534502
-186.015387
-152.267418
-95.867750
-81.716359
-101.615069
-144.994134
-155.975394
-125.720377
-69.965707
-24.283403
-42.870806
-48.578632
-66.756096
-87.465911
-93.420390
-81.909791
-57.485764
-88.696691
-90.207018
-73.435207
-32.656514
-10.202896
-42.174781
-65.634142
-98.296783
-87.989991
-57.401819
-44.571764
-49.874977
-75.878599
-58.965440
9.051391
56.145293
20.913632
-24.965190
-47.731601
-8.169878
72.579229
98.041582
131.003520
122.666499
85.903830
59.499357
39.806243
60.620728
66.647595
74.870525
107.556662
136.405722
150.002691
126.236503
109.770257
127.198348
162.587332
179.099952
117.538414
32.806798
-12.864547
-13.956785
-8.079414
13.450899
75.761163
119.571470
103.816665
109.702497
127.647088
120.755200
142.247590
127.759901
120.679027
156.056728
148.358123
79.934476
9.533839
-46.113968
-88.922627
-90.733828
-110.434777
-120.412498
-124.944410
-152.191955
-183.788062
-178.431892
-157.563188
-150.842745
-139.433690
-172.436381
-210.723789
-233.815833
-227.395637
-179.600010
-184.864047
-183.599756
-144.900224
-160.867208
-123.301279
-143.416243
-175.492807
-129.660380
-129.493651
-129.097819
-90.509547
17.688937
114.985145
119.608249
96.005661
122.194498
124.275534
96.242897
-10.234976
-95.155579
-48.714196
-20.945146
33.915679
79.773806
69.226933
113.593542
136.659877
123.696300
119.158120
87.308777
134.051661
169.886000
121.039813
103.888454
69.350368
45.514916
90.459140
160.938432
213.599747
208.720891
187.466369
128.633064
88.347668
82.908749
56.073964
32.645945
-16.893818
-11.066906
15.525289
34.658957
94.512402
160.073980
164.090636
96.040260
8.769711
-43.822664
-22.754317
5.046387
-16.029491
-40.872243
-17.969508
-0.134611
28.073526
74.145085
126.427487
153.139719
142.440528
119.152603
74.125943
27.226972
35.062840
59.412589
25.724157
37.546286
88.378541
113.014432
96.305294
61.885677
28.853839
25.992402
43.599763
51.109999
72.838701
64.070428
56.865757
24.173029
-6.707251
6.978413
18.174349
41.292083
57.013971
19.793410
-35.014772
-11.288083
29.744472
34.222781
21.556943
1.641935
-3.993179
47.011451
59.204031
23.583114
1.967544
0.155716
13.437082
-22.464337
-62.926810
-89.014425
-87.010801
-82.057989
-55.610902
-37.616793
-51.581715
-91.601653
-103.712441
-101.073222
-93.513154
-113.130736
-112.311174
-96.101620
-175.821186
-179.800556
-186.877042
-209.550684
-138.457108
-113.278391
-154.179950
-141.208234
-174.038236
-143.801397
-163.138791
-212.155159
-124.072887
-84.012216
-46.194933
-51.788050
-83.501999
-72.072260
10.376156
71.949908
60.307040
58.219412
71.410828
61.329368
-4.951183
-24.222447
-36.793321
-58.349657
47.323370
143.561507
152.801138
91.688716
53.738224
103.525257
88.976453
29.036184
-13.511404
-92.602583
-112.364021
-50.324229
-16.373169
-46.688370
-28.560435
65.703533
80.692355
13.086394
-48.536573
-71.381650
-90.275255
-102.135943
-119.649604
-41.341960
9.798690
-8.814100
49.127231
86.586287
111.948976
151.078193
179.796875
197.056038
209.806487
162.366571
115.058600
86.846379
74.711771
147.895791
