EVENT_NAME: 202302060117
EVENT_ID: 13194
EVENT_DATE_YYYYMMDD: 2023/02/06
EVENT_TIME_HHMMSS: 01:17:32.00000
EVENT_LATITUDE_DEGREE: 37.288
EVENT_LONGITUDE_DEGREE: 37.043
EVENT_DEPTH_KM: 8.6
HYPOCENTER_REFERENCE: AFAD
MAGNITUDE_W: 7.7
MAGNITUDE_W_REFERENCE: AFAD
MAGNITUDE_L: 
MAGNITUDE_L_REFERENCE: 
FOCAL_MECHANISM: 
NETWORK: TK
STATION_CODE: 4407
STATION_NAME: 
STATION_LATITUDE_DEGREE: 38.78066
STATION_LONGITUDE_DEGREE: 38.26406
STATION_ELEVATION_M: 1165.0
LOCATION: Kahramanmaras_Pazarck_Turkiye
SENSOR_DEPTH_M: 
VS30_M/S: 735
SITE_CLASSIFICATION_EC8: B
MORPHOLOGIC_CLASSIFICATION: 
EPICENTRAL_DISTANCE_KM: 197.44
EARTHQUAKE_BACKAZIMUTH_DEGREE: 
DATE_TIME_FIRST_SAMPLE_YYYYMMDD_HHMMSS: 2023/02/06 01:17:46.0495340
DATE_TIME_FIRST_SAMPLE_PRECISION: millisecond
SAMPLING_INTERVAL_S: 0.01
NDATA: 13501
DURATION_S: 
STREAM: HNZ
UNITS: cm/s^2
INSTRUMENT: sensor = CMG-5T/GURALP | digitizer = 
INSTRUMENT_ANALOG/DIGITAL: 
INSTRUMENTAL_FREQUENCY_HZ: 
INSTRUMENTAL_DAMPING: 
FULL_SCALE_G: 
N_BIT_DIGITAL_CONVERTER: 
PGA_CM/S^2: 19.275
TIME_PGA_S: 
BASELINE_CORRECTION: BASELINE REMOVED
FILTER_TYPE: BUTTERWORTH
FILTER_ORDER: 
LOW_CUT_FREQUENCY_HZ: 
HIGH_CUT_FREQUENCY_HZ: 
LATE/NORMAL_TRIGGERED: 
DATABASE_VERSION: 
HEADER_FORMAT: DYNA 1.2
DATA_TYPE: Acceleration
PROCESSING: Automatic Paolucci et al., 2011
DATA_TIMESTAMP_YYYYMMDD_HHMMSS: 
DATA_LICENSE: U (unknown license)
DATA_CITATION: Turkish Accelerometric Archive v 1.0 - Disaster And Emergency Management Presidency, Earthquake Department
DATA_CREATOR: AFAD
ORIGINAL_DATA_MEDIATOR_CITATION: : AFAD - Disaster And Emergency Management Presidency
ORIGINAL_DATA_MEDIATOR: AFAD PROCESS SERVICE
ORIGINAL_DATA_CREATOR_CITATION: AFAD PROCESS SERVICE
ORIGINAL_DATA_CREATOR: network: TK
USER1: GuestUser
USER2: 
USER3: 
USER4: 
USER5: 
[...]
0.227967
0.242430
0.906833
1.289016
1.178442
0.659968
0.294175
-0.058118
-0.624165
-1.282462
-1.825687
-1.909904
-1.208215
0.513062
2.133408
2.602700
1.691434
0.421448
-0.469568
-0.515856
0.217655
0.829985
0.911628
0.910341
1.107057
1.232415
1.196413
0.516579
-0.561833
-1.396920
-1.234918
-0.514586
0.211531
0.922220
1.272582
1.762124
2.614887
3.405934
3.494006
3.183499
3.126283
3.434215
3.589788
3.510071
3.601999
3.790037
3.791964
2.994807
2.312723
2.214684
2.491438
2.537723
2.146536
1.394701
0.398898
-0.202828
-0.309545
-0.391191
-0.801342
-0.756664
0.033098
1.329761
2.106665
2.187987
1.991911
1.716119
1.710653
1.826690
1.890975
1.881009
1.927616
1.630288
1.382140
1.405282
1.389530
1.315920
1.610353
2.446401
2.804798
2.617401
2.522576
2.832759
3.171870
3.312014
2.907327
2.176385
1.932737
2.201455
2.286633
2.219452
2.313952
2.134270
1.860728
1.789368
2.233589
2.657880
2.473054
1.731505
1.170280
1.513892
2.325832
2.887054
2.775194
2.531546
2.232290
1.756245
1.062911
0.628652
0.822797
1.168337
1.237444
0.579467
-0.411193
-1.223458
-1.496678
-1.863114
-2.526876
-3.175852
-3.670540
-4.247837
-4.743811
-4.820956
-4.837351
-4.422059
-3.959839
-3.981055
-4.383170
-4.615889
-4.160740
-3.398622
-3.094868
-3.401839
-3.357161
-2.897834
-2.584437
-2.654832
-2.817479
-2.713336
-2.420190
-2.074649
-1.733288
-1.210959
-0.833276
-0.821706
-1.147319
-1.334717
-1.083357
-0.478098
-0.048342
-0.246990
-0.892430
-1.075328
-0.704716
-0.281067
-0.362070
-1.080476
-1.802418
-2.319928
-2.710150
-3.539772
-4.325357
-4.753187
-4.457469
-3.750316
-3.537850
-3.508922
-3.463923
-3.125776
-2.644590
-2.100083
-1.548825
-0.921066
-0.310665
0.262129
0.601241
0.554310
0.516701
0.658130
0.945812
0.918168
0.804057
1.241527
1.960574
2.293578
2.606010
2.774119
2.708545
2.570970
1.678990
-0.014647
-1.783177
-3.140272
-4.180434
-4.353366
-3.559426
-2.641091
-2.517340
-3.179495
-3.794721
-3.774151
-3.172106
-2.816280
-2.715351
-2.705388
-2.264061
-1.573944
-1.293333
-1.212333
-1.179549
-0.979618
-0.678757
0.048968
1.083019
1.620455
1.507630
1.075301
0.752258
0.832615
1.072082
1.516945
2.233420
2.896858
3.102575
3.167503
3.717475
4.092908
3.833510
2.807813
1.720080
0.824563
0.204516
0.240194
0.640056
1.105813
1.404745
1.725856
2.025752
2.026394
1.683423
1.676350
1.968532
2.342358
3.118941
4.046919
5.017327
5.928912
6.567921
5.980017
4.856926
4.330416
3.976837
3.222752
2.068803
1.801690
1.989728
1.935726
1.756043
1.627789
1.514322
1.469320
1.549034
1.834787
2.264864
2.368365
2.252326
1.663136
0.920944
0.492150
0.522685
0.753152
1.132764
1.681450
2.052705
2.137562
2.284456
2.839571
3.337149
4.101196
5.231356
6.250621
6.410051
6.547302
7.323242
7.684854
7.440241
7.297845
7.539883
8.017533
8.686114
8.932652
8.901472
8.831398
8.612500
7.351192
5.501982
4.042671
3.223656
2.998330
3.025972
3.049435
2.462495
1.352904
-0.143372
-1.054638
-1.185141
-1.464147
-1.983907
-2.545132
-2.413988
-2.186414
-2.134344
-1.999343
-2.016059
-1.660875
-0.790434
-0.320820
-0.543575
-1.212802
-1.587917
-1.316306
-0.803299
-0.233077
0.388253
1.546700
3.136510
4.904395
6.167629
6.288165
5.491008
4.718279
4.190484
3.571079
2.947818
1.961336
0.608419
-0.875963
-1.757979
-1.905519
-2.276133
-2.533925
-2.000989
-0.698540
0.620302
1.423564
1.034627
-0.024177
-1.148554
-2.041177
-2.476721
-2.985874
-3.641922
-4.243326
-4.520403
-4.524905
-4.601407
-4.632909
-4.822878
-5.672750
-6.581445
-7.145884
-7.094456
-6.644772
-6.208909
-5.596257
-5.074250
-5.204753
-5.639012
-5.511725
-4.992290
-4.458389
-3.958882
-3.490233
-3.190980
-3.618488
-4.306679
-4.681794
-4.586651
-4.305397
-3.066271
-1.497997
-1.005240
-1.471963
-1.854471
-2.227336
-2.935134
-3.208676
-3.121247
-2.467131
-1.703405
-0.826535
-0.564889
-0.703428
-0.860289
-1.400943
-1.765450
-2.058277
-2.060207
-2.061816
-2.197784
-2.819438
-3.252732
-3.002658
-2.832621
-2.819122
-2.408331
-1.651034
-0.477480
0.969613
1.880877
2.059914
1.219042
0.271775
-0.263414
-0.415453
-0.059949
0.295234
-0.175346
-1.878625
-3.976947
-4.843855
-3.470370
-1.783808
-0.693184
0.574550
1.491278
2.130930
2.398361
2.253072
2.141855
2.174961
2.228639
2.235066
2.196172
2.346601
2.276527
2.177846
2.149558
2.180093
2.168199
1.487079
0.672886
0.813672
1.951868
2.893990
3.190672
2.997810
2.115794
1.861217
3.008092
4.139538
4.746082
4.987156
4.987798
5.044369
5.065582
4.920936
4.839933
4.900682
4.645784
3.425298
2.376780
2.491852
3.372579
4.556097
5.264536
5.515575
5.588539
5.578895
5.733503
5.299887
4.537445
4.664731
5.036308
4.924447
3.889750
2.395724
1.149203
0.271044
-0.524185
-1.960031
-4.457573
-7.374587
-9.018401
-9.399623
-9.201942
-8.722043
-8.272037
-7.592206
-6.083397
-4.414192
-3.040064
-2.075763
-0.881316
1.363898
3.407894
4.366087
4.256798
4.680768
6.155505
8.286932
10.263749
11.159905
10.808255
9.712164
10.065419
11.574549
11.133219
8.167026
5.220120
3.682379
3.136904
2.394712
1.196405
0.044706
-1.178351
-1.427785
-0.668881
0.480887
1.137896
0.649637
0.185485
0.429131
1.004817
1.133068
1.276105
1.272246
0.925418
1.761466
3.998001
5.922424
6.335787
5.259947
4.349323
4.686506
5.552769
6.257993
6.099204
5.320047
4.808323
3.853341
1.854664
0.337495
-1.286711
-4.450586
-7.410672
-8.130042
-7.682286
-7.509999
-8.038438
-9.182422
-9.543715
-8.997279
-8.456950
-8.739491
-8.812137
-8.005339
-7.450867
-7.059684
-5.611625
-3.277053
-1.722600
-1.507883
-1.811640
-1.619745
-1.058523
-0.899736
-1.555462
-2.790734
-3.787180
-4.361584
-4.263869
-3.945330
-3.543860
-3.278679
-3.076177
-2.128591
-1.331436
-0.946038
-1.737088
-3.639335
-4.992895
-5.261293
-4.345851
-2.745112
-1.704632
-1.128945
-0.647117
0.052322
0.414255
0.222358
0.015996
-0.272010
-0.694697
-1.052454
-1.026420
-0.647129
-0.291946
-0.130266
-0.208376
-0.703385
-0.947033
-0.960535
-1.399936
-1.936089
-2.442349
-2.989431
-3.720051
-4.063665
-4.301528
-5.436191
-7.066826
-8.272847
-9.066147
-9.687159
-9.465371
-9.062937
-9.974846
-11.753662
-12.760716
-12.932042
-12.462749
-12.304605
-12.331607
-11.840458
-11.224592
-10.809300
-10.949125
-11.076736
-11.049415
-11.159026
-11.026275
-10.747915
-10.651486
-10.555378
-10.273804
-9.651509
-8.659244
-8.158773
-7.636766
-6.472212
-4.398965
-2.239252
-0.717586
0.599649
1.597699
2.106206
1.888594
1.554623
2.241848
4.123520
6.086515
7.534252
8.437801
9.358708
9.833464
9.251025
8.000646
6.833518
6.769551
7.186450
7.255557
6.605295
6.093249
6.448111
7.328195
7.819024
7.572804
7.004829
7.085829
7.876876
8.377990
8.182879
7.055287
6.710387
7.452898
7.634186
6.941173
6.842813
7.941794
9.020846
9.124346
9.089309
9.887106
10.700333
10.307218
8.558295
7.147199
6.666654
6.225645
5.192877
3.613671
1.980143
0.713692
-0.579438
-2.396183
-3.721135
-4.076963
-3.679351
-3.811140
-4.379437
-4.300365
-3.927182
-3.389424
-2.637592
-1.972225
-1.501969
-1.169929
-1.704153
-2.604812
-2.306845
-0.315242
2.118333
3.741572
3.617176
2.280974
1.607569
1.364885
0.977556
-0.014712
-1.076409
-1.654670
-1.864568
-1.940427
-2.302685
-2.565619
-2.671050
-3.324848
-4.230329
-4.366618
-4.176652
-4.332227
-4.627305
-5.133243
-5.694468
-5.914009
-6.204586
-6.452092
-6.629846
-6.761314
-6.654920
-6.535027
-6.674531
-6.673889
-5.377869
-3.305908
-1.693918
-1.249698
-1.473739
-1.155199
-0.120826
1.323053
1.891347
1.567983
1.397943
1.867235
2.413993
2.589816
2.046913
0.605602
-0.462845
-0.495633
0.075875
0.633240
0.156874
-1.372831
-2.171274
-1.571480
-0.911899
-0.905150
-1.645735
-2.497536
-3.043654
-3.662094
-4.754970
-5.995064
-6.825650
-7.334160
-7.989565
-9.067655
-9.577772
-9.268554
-8.321933
-7.202380
-6.351867
-5.872932
-5.366354
-4.965206
-4.979993
-4.586238
-3.924085
-3.150395
-2.233024
-1.587265
-0.895219
-0.631324
-0.613325
0.724482
2.791943
4.399754
4.802830
4.475609
4.405536
4.604502
4.800254
5.189509
5.529584
5.217792
4.757819
4.924642
5.985372
6.721133
6.949028
6.716630
6.202335
6.148654
5.958364
5.345709
4.451158
3.730180
2.782592
1.925648
1.226528
0.703232
0.236188
-0.650971
-1.885600
-3.282874
-3.593381
-3.696562
-4.306324
-5.110552
-5.509775
-5.248129
-5.070699
-4.952412
-4.520407
-3.402140
-2.347838
-1.781473
-1.594400
-1.141179
-0.542028
0.108231
1.155783
2.121690
2.426408
2.032651
1.205600
0.300441
0.679410
1.037165
0.314259
-0.651652
-0.754512
-0.253398
-0.490296
-2.009715
-3.713316
-3.564172
-2.307045
-1.920683
-3.082025
-4.598551
-5.504032
-6.053363
-6.895843
-7.788145
-8.182867
-8.851451
-9.528392
-9.828934
-9.108602
-7.927334
-7.276753
-7.188681
-7.192218
-6.754427
-6.035702
-5.366157
-4.812649
-3.997173
-3.266233
-3.043481
-3.479668
-3.917784
-4.002322
-3.764462
-3.548139
-3.399316
-3.045098
-2.541733
-2.352089
-2.942564
-3.975654
-4.928707
-4.952815
-4.428558
-4.404452
-5.023213
-5.573510
-5.262042
-5.088147
-4.510532
-3.483873
-2.595110
-2.007209
-1.262448
-0.237397
0.866727
1.912350
3.021617
4.000060
4.730035
5.525261
5.677619
5.282897
4.944748
5.838654
6.964957
7.673396
7.792968
7.404031
7.525532
8.603298
9.759495
10.281823
10.830188
11.209157
11.811523
12.213635
11.590052
9.840808
8.017312
6.793934
5.988419
5.659913
4.852148
3.353943
2.255924
2.315067
2.808466
3.366474
4.076199
5.010605
6.192195
7.638967
8.536088
8.716411
8.786804
8.536405
7.914751
6.961698
5.970395
4.728373
2.914521
1.309600
0.045721
-1.069335
-2.080245
-3.300410
-4.702827
-5.459484
-5.843598
-6.622434
-5.853244
-4.116217
-3.324527
-4.234507
-5.078915
-4.743982
-4.203011
-3.937829
-4.412910
-4.903419
-5.185961
-5.193034
-5.077319
-4.697385
-4.846210
-5.336077
-5.399722
-5.262471
-4.852323
-4.474961
-4.493606
-4.224888
-2.560184
-0.536759
0.285146
0.215715
0.182606
0.476717
1.575376
2.483426
3.205043
4.391133
5.335183
5.272180
4.310127
3.294074
2.907709
2.823813
2.536772
2.536127
2.295694
1.842792
1.299889
0.651877
0.226940
0.016399
-0.118283
-0.466076
-0.616508
-0.413363
-0.141753
0.416576
0.940191
0.828973
0.602040
0.434250
0.222424
0.297959
1.260652
2.375384
3.161288
3.590080
3.629615
3.739222
3.405251
3.087352
2.425839
1.486608
0.103799
-1.152688
-1.738020
-2.246530
-3.658911
-5.768483
-7.350903
-8.578782
-9.305545
-9.756840
-9.401657
-9.165404
-9.612199
-10.453392
-11.362730
-10.881223
-10.069926
-9.315200
-9.048412
-8.787730
-8.343510
-7.970969
-7.441891
-6.708058
-5.665971
-5.861726
-6.299199
-6.251628
-6.454454
-7.210789
-8.025625
-7.876160
-8.235524
-8.623818
-8.339350
-8.257707
-7.559233
-6.097031
-4.942121
-4.020571
-3.526207
-2.896198
-1.955363
-0.578663
1.837554
4.949675
7.697612
9.492497
10.467405
11.990678
13.937923
14.854651
15.004117
14.675610
13.741522
12.720647
11.531983
9.858275
8.390286
7.282302
6.399965
5.789239
5.661628
5.266906
4.935828
4.720466
4.895968
4.950931
5.710800
6.078840
6.656777
7.924832
8.653200
9.177457
9.030561
9.261027
10.416259
11.598813
12.952691
14.116602
14.170601
14.204029
13.902201
13.200510
12.293744
11.532265
10.521998
8.760860
7.479623
6.090064
4.900757
3.717558
2.249568
0.916902
-0.749734
-2.690874
-4.383225
-6.160434
-6.697873
-7.217633
-7.754107
-7.387031
-6.245621
-6.215086
-6.773096
-6.450700
-6.166875
-5.209003
-4.486421
-4.876643
-5.994270
-7.531047
-8.228560
-7.994879
-7.618481
-7.025758
-6.841578
-5.933850
-4.248574
-3.349525
-3.165666
-3.136417
-2.708911
-1.176958
-0.258945
0.614390
1.565511
3.081070
4.389626
5.183245
5.208959
4.848630
5.077489
5.295099
5.532637
5.794604
4.960161
3.243381
1.687319
0.759659
0.495439
-0.414220
-2.150286
-3.717920
-5.112623
-5.335699
-5.503489
-5.627885
-5.891784
-6.569689
-6.716264
-6.537548
-5.617284
-5.516998
-5.716610
-5.717254
-5.142532
-4.151553
-3.317112
-2.766818
-2.607389
-2.315849
-2.014346
-1.496517
-1.720558
-1.734060
-1.708025
-1.581381
-1.610633
-2.315217
-2.888335
-4.754581
-6.337002
-7.195874
-7.089481
-5.984393
-5.442457
-5.147703
-4.391692
-3.179888
-2.138765
-2.040086
-2.199197
-1.045894
0.623311
0.491200
-0.547032
-1.968736
-2.533818
-2.011489
-0.657932
1.797499
2.637083
1.740924
1.273237
0.015786
-1.408167
-0.734122
-0.122434
-0.675945
-0.248439
0.424963
-1.088991
-1.431641
0.081990
-0.051085
0.191274
1.603011
1.495650
-0.242665
-0.165201
2.089013
2.315944
2.563125
4.453798
7.487168
8.650114
7.944566
6.549863
5.470808
4.999585
6.707361
10.745212
11.813657
9.946125
7.632443
4.260922
3.893200
7.342827
9.608934
11.232174
14.883661
12.945413
8.240585
8.046759
7.813718
6.101438
7.545639
6.948414
4.391406
4.478835
3.364101
-1.406943
-3.319154
0.143008
1.322669
1.038521
2.390791
5.115263
5.527340
4.584252
4.122350
5.063829
3.681340
1.164833
2.019203
4.067378
5.593545
3.742727
0.160989
1.135896
4.429628
5.176960
2.650810
4.755557
6.074399
3.191779
-1.265545
-4.391170
-4.977466
-5.051076
-5.961378
-8.674602
-7.713517
-5.162297
-4.426537
-6.001885
-8.969685
-9.764271
-7.136229
-6.646366
-7.688134
-7.041410
-9.513881
-11.979923
-9.977391
-8.216899
-5.897434
-6.428444
-9.267349
-9.629928
-11.229063
-9.345140
-8.235552
-8.507808
-10.330018
-12.860346
-9.900263
-4.962076
-8.278953
-16.486768
-19.274565
-16.337626
-11.157078
-11.193401
-11.556622
-11.192761
-12.538284
-9.076764
-4.679551
-3.259457
0.759108
2.210059
1.383972
0.546314
1.512222
4.264658
2.916564
-0.057665
-0.824608
2.756485
5.883714
4.043825
0.383014
-0.268534
0.037148
4.484184
9.665375
8.603356
7.132474
8.621676
9.098682
9.495009
12.304339
16.857770
18.613762
14.414870
12.751448
14.517726
10.840521
5.939940
6.608199
8.836056
8.130507
8.718408
8.555119
5.226670
4.236009
6.041181
7.451309
8.576005
5.916782
1.205203
-0.726937
-0.883477
-2.392289
-1.714708
-1.469133
-1.717603
-3.161807
-3.330240
-1.596748
-2.770626
-1.499356
-3.507998
-2.667128
-1.359215
-1.745901
-1.839761
-1.308433
3.066602
8.081933
8.860123
5.054345
0.313194
-1.627303
-0.327747
-0.505502
0.019077
-0.394288
-0.138750
-1.466273
-6.066314
-8.102920
-7.341445
-7.472912
-8.425322
-8.492825
-10.447787
-9.678918
-4.964771
-1.049065
-1.642112
-4.658448
-1.846868
-1.067713
-1.605474
1.291930
-0.304634
-1.407796
-0.008596
1.695324
2.071079
3.175203
0.138937
-7.670942
-6.964111
-4.148994
-2.242250
-1.197270
-2.972229
-4.725331
-3.592921
-4.418364
-7.331199
-8.745188
-6.826872
-3.035882
-1.190853
-1.717363
-5.601250
-5.233531
0.109341
0.703028
-2.622206
-2.911177
-0.322671
3.326244
8.909549
11.354695
10.663611
11.870594
15.206754
17.163964
11.812410
9.639195
8.735000
8.467244
9.315185
5.239081
1.067190
-0.827342
-1.100241
-2.860414
-3.226850
-0.727382
-2.686201
-4.426124
-2.621917
-0.699101
2.143337
2.170658
3.478571
4.862985
2.885201
2.436478
3.567281
4.448330
5.665599
7.087942
3.295343
-1.292484
1.100268
7.335119
5.480766
0.230143
0.801329
1.495304
-0.735449
-0.117654
2.432601
2.368313
0.500138
-1.184177
2.116947
2.390808
-0.926070
-4.012157
-3.232360
-2.404669
-4.205986
-4.063592
-1.089366
-0.586323
-0.317285
3.688423
4.855548
3.328093
1.857853
2.025319
1.711598
1.842099
2.578181
-1.029273
-4.376365
-3.792642
0.061670
7.103320
10.377122
9.267210
8.311907
10.350439
11.586994
10.722979
8.902376
5.086955
4.217153
7.368490
9.600525
4.952590
0.428729
-1.429160
-1.224408
0.920197
2.066429
4.278857
5.641092
4.586145
4.458856
1.919205
-1.380636
-4.432330
-4.692372
-3.267778
-4.966236
-6.310474
-9.375347
-14.699578
-18.071742
-18.092958
-17.592808
-13.491314
-9.835648
-8.188944
-6.979389
-5.692370
-6.011233
-4.240777
-1.079798
-2.049565
-3.431732
-0.704689
3.729169
3.401305
0.794153
1.041978
-1.276848
-4.151432
-7.666634
-9.132052
-11.404591
-12.525110
-12.077033
-13.324841
-12.511936
-10.925661
-9.323315
-8.467338
-10.348691
-9.250996
-5.678903
-5.856014
-8.398557
-10.216267
-10.518738
-8.983250
-6.845716
-8.190275
-9.243294
-6.805541
-1.594135
2.904331
5.947022
3.224155
1.889881
4.674783
7.097428
9.652505
11.377960
12.388547
12.149399
12.772336
12.560510
13.611276
14.594220
13.050050
11.273484
10.636079
11.054263
12.078029
14.120739
11.557946
9.317551
10.554427
12.843677
13.888657
15.070247
15.330286
13.848796
11.204037
10.350307
10.805456
10.842098
9.956546
7.358717
8.044655
10.052330
12.078005
10.115971
9.671748
13.450845
12.665259
8.972625
7.962036
8.998337
9.615811
8.753402
5.002268
2.709800
4.313754
7.393089
10.565961
10.513887
9.412975
6.844074
6.072632
6.962038
5.721945
3.876270
1.054080
-2.283369
-2.371444
1.993627
5.438754
2.173627
-5.341176
-4.870920
-2.374344
-0.911500
-3.258290
-4.669065
-4.927820
-5.741371
-5.251185
-6.597352
-6.103309
-5.971523
-6.623070
-7.909129
-7.247298
-6.129031
-6.834901
-6.915261
-6.949655
-4.338971
-2.656909
-3.776786
-2.940738
0.228920
-2.345445
-5.211350
-5.388783
-3.776151
-7.884720
-11.687605
-10.416014
-9.493500
-9.238283
-9.857045
-7.503829
-2.218815
-0.731542
-2.511965
-5.263440
-4.477857
-2.805760
-5.361803
-4.825974
-7.199121
-10.703073
-9.467483
-8.880546
-8.433111
-8.583222
-8.692190
-6.408725
-9.471991
-10.547188
-5.330961
-1.790369
-8.330263
-5.173463
1.938903
7.788998
5.215597
8.918835
18.578242
10.356284
2.167434
8.078601
6.987011
0.743478
1.199270
1.299556
-3.555061
-5.113052
-6.274394
-6.078320
-5.619636
-4.764944
-2.152331
-2.059438
-1.146889
-4.757878
-1.732866
2.639919
2.968102
0.355486
-1.215684
-1.319830
-0.274528
2.951059
5.617030
4.738229
4.741120
8.364964
7.089835
5.312626
3.695812
0.491758
2.502968
2.620290
5.123294
3.208190
2.159350
6.006269
3.817303
-0.393481
-4.737661
-8.422580
-10.346042
-10.358579
-10.202364
-13.117127
-12.078254
-11.732071
-10.752664
-11.914006
-13.417996
-10.667488
-12.694451
-13.158924
-11.660722
-12.047409
-11.948408
-13.149929
-13.060572
-10.089239
-9.054223
-9.939132
-10.983150
-9.836919
-8.063891
-4.561870
-2.203512
-3.290281
-2.301552
-0.350771
-2.260411
-2.238876
0.634098
2.927528
2.822739
1.512573
-0.035132
2.414835
5.092378
4.702477
3.266631
2.883159
6.770900
8.618822
7.316692
7.143438
7.301582
7.346582
9.546473
11.788152
11.617148
10.569915
7.228287
2.859357
0.994718
1.683871
1.440865
0.033305
1.957407
3.156032
0.028480
-2.077878
-1.397082
0.371446
1.009812
1.040668
2.342152
3.441776
4.051856
3.213234
3.857065
6.129922
6.451355
4.721075
6.970468
9.666011
10.409807
11.329750
14.386584
17.358239
17.061876
15.007269
11.947860
10.966843
12.640548
13.513882
11.630600
9.328811
5.997469
4.539122
5.052451
6.179718
7.264556
4.656119
2.294221
0.634014
-1.598345
-1.704098
-1.674206
-3.143803
-4.521470
-3.284273
-1.139667
-1.526032
-3.047058
-2.788627
-0.603521
0.629498
0.188489
-0.846207
-3.879259
-4.896277
-3.043855
-3.212287
-3.407399
-4.617599
-6.146340
-6.133162
-5.530796
-4.356921
-4.447889
-5.579337
-6.313172
-8.125739
-9.361653
-8.328566
-7.726522
