EVENT_NAME: 202302060117
EVENT_ID: 13194
EVENT_DATE_YYYYMMDD: 2023/02/06
EVENT_TIME_HHMMSS: 01:17:32.00000
EVENT_LATITUDE_DEGREE: 37.288
EVENT_LONGITUDE_DEGREE: 37.043
EVENT_DEPTH_KM: 8.6
HYPOCENTER_REFERENCE: AFAD
MAGNITUDE_W: 7.7
MAGNITUDE_W_REFERENCE: AFAD
MAGNITUDE_L: 
MAGNITUDE_L_REFERENCE: 
FOCAL_MECHANISM: 
NETWORK: TK
STATION_CODE: 2508
STATION_NAME: 
STATION_LATITUDE_DEGREE: 39.94292
STATION_LONGITUDE_DEGREE: 41.11017
STATION_ELEVATION_M: 1755.0
LOCATION: Kahramanmaras_Pazarck_Turkiye
SENSOR_DEPTH_M: 
VS30_M/S: 195
SITE_CLASSIFICATION_EC8: C
MORPHOLOGIC_CLASSIFICATION: 
EPICENTRAL_DISTANCE_KM: 460.36
EARTHQUAKE_BACKAZIMUTH_DEGREE: 
DATE_TIME_FIRST_SAMPLE_YYYYMMDD_HHMMSS: 2023/02/06 01:18:10.4221370
DATE_TIME_FIRST_SAMPLE_PRECISION: millisecond
SAMPLING_INTERVAL_S: 0.01
NDATA: 24501
DURATION_S: 
STREAM: HNZ
UNITS: cm/s^2
INSTRUMENT: sensor = CMG-5T/GURALP | digitizer = 
INSTRUMENT_ANALOG/DIGITAL: 
INSTRUMENTAL_FREQUENCY_HZ: 
INSTRUMENTAL_DAMPING: 
FULL_SCALE_G: 
N_BIT_DIGITAL_CONVERTER: 
PGA_CM/S^2: 4.969
TIME_PGA_S: 
BASELINE_CORRECTION: BASELINE REMOVED
FILTER_TYPE: BUTTERWORTH
FILTER_ORDER: 
LOW_CUT_FREQUENCY_HZ: 
HIGH_CUT_FREQUENCY_HZ: 
LATE/NORMAL_TRIGGERED: 
DATABASE_VERSION: 
HEADER_FORMAT: DYNA 1.2
DATA_TYPE: Acceleration
PROCESSING: Automatic Paolucci et al., 2011
DATA_TIMESTAMP_YYYYMMDD_HHMMSS: 
DATA_LICENSE: U (unknown license)
DATA_CITATION: Turkish Accelerometric Archive v 1.0 - Disaster And Emergency Management Presidency, Earthquake Department
DATA_CREATOR: AFAD
ORIGINAL_DATA_MEDIATOR_CITATION: : AFAD - Disaster And Emergency Management Presidency
ORIGINAL_DATA_MEDIATOR: AFAD PROCESS SERVICE
ORIGINAL_DATA_CREATOR_CITATION: AFAD PROCESS SERVICE
ORIGINAL_DATA_CREATOR: network: TK
USER1: GuestUser
USER2: 
USER3: 
USER4: 
USER5: 
[...]
-0.992456
-1.038227
-1.188666
-1.388398
-1.505229
-1.504588
-1.414644
-1.281809
-1.118886
-1.093599
-1.390316
-1.856678
-2.047768
-1.859558
-1.478338
-1.183860
-1.002052
-0.758788
-0.376287
-0.069326
-0.069646
-0.347158
-0.635554
-0.784392
-0.876256
-0.974201
-1.183216
-1.584921
-1.923569
-1.851230
-1.356380
-0.877854
-0.691564
-0.596179
-0.376921
-0.064839
0.196670
0.307420
0.264209
0.184828
0.327586
0.696003
1.143161
1.522781
1.826541
2.157188
2.395651
2.452946
2.433742
2.528167
2.757027
2.950038
3.132167
3.400397
3.783218
4.233577
4.625680
4.793404
4.582470
4.207011
3.925978
3.799865
3.740970
3.739370
3.740971
3.682716
3.653269
3.766259
3.955749
4.139477
4.319045
4.440037
4.364818
4.058818
3.697763
3.435935
3.211557
2.882511
2.417749
1.935703
1.505831
1.254885
1.177425
1.297777
1.276652
1.252646
1.015464
0.585912
0.213014
-0.022247
0.138436
0.537261
0.928084
1.106691
0.968095
0.534061
0.236704
0.209817
0.650573
0.951132
1.103173
1.241449
1.214883
1.173272
1.151507
1.293304
1.449826
1.447586
1.282423
0.988586
0.777971
0.741802
0.756846
0.700512
0.545912
0.183897
-0.219088
-0.392253
-0.447627
-0.281823
-0.389371
-0.916869
-0.872057
-0.738582
-0.767709
-1.062826
-1.221267
-1.513184
-1.517024
-1.739482
-1.970902
-2.163593
-1.712274
-2.623553
-3.185940
-2.333876
-1.799015
-0.729294
-1.115315
-1.520861
-1.532063
-1.199176
-0.847723
-0.738894
-0.574051
-0.433213
-0.246284
-0.300698
-0.581091
-0.540760
-0.803228
-0.873967
-0.780502
-0.562204
-0.371434
-0.207870
-0.309016
-0.098401
-0.317018
0.444462
1.277321
1.317012
1.074389
1.179057
1.045582
0.831766
1.067669
1.057426
1.002052
0.875619
0.834009
0.819605
0.953401
0.938037
0.716540
0.245376
-0.014531
-0.010690
0.206327
0.274506
0.233215
-0.005887
-0.185454
-0.287881
-0.279558
-0.375583
-0.592599
-0.910442
-1.057040
-0.979900
-0.746238
-0.628127
-0.754560
-1.084566
-1.223162
-1.057038
-0.698223
-0.444716
-0.414628
-0.577870
-0.703023
-0.664933
-0.365334
0.085985
0.530262
0.801694
0.881075
0.877555
0.953095
1.170752
1.383608
1.406975
1.212044
1.003350
0.957898
1.057765
1.164993
1.123063
0.865075
0.519385
0.343019
0.440965
0.688391
0.867638
0.906049
0.823787
0.696394
0.703757
0.885885
1.122107
1.231256
1.192526
1.077297
1.020642
1.077297
1.193808
1.382658
1.640326
1.871747
1.974495
1.989219
2.031470
2.094527
2.168147
2.286258
2.457824
2.610504
2.626189
2.553210
2.535286
2.616907
2.708132
2.710693
2.561534
2.282421
2.016752
1.920087
1.943133
1.985705
1.996588
1.937373
1.901524
1.962340
2.140948
2.332998
2.442467
2.520888
2.571462
2.607952
2.631959
2.647963
2.678052
2.757113
2.858580
2.847697
2.684455
2.445352
2.320520
2.300355
2.199529
1.913054
1.544318
1.344586
1.391959
1.563204
1.673953
1.609937
1.322502
0.986414
0.849099
1.000819
1.266809
1.396123
1.317703
1.113490
0.948327
0.977775
1.189991
1.395485
1.451821
1.338511
1.138779
0.983219
0.977458
1.118935
1.293061
1.300103
1.133340
0.901600
0.750520
0.789251
0.931048
0.997946
0.876315
0.657058
0.475250
0.381146
0.338895
0.266877
0.095312
-0.206206
-0.569501
-0.854696
-1.001934
-1.048666
-1.125486
-1.295130
-1.528791
-1.736845
-1.831590
-1.785497
-1.660024
-1.577442
-1.575841
-1.531029
-1.328095
-1.045140
-0.759625
-0.573976
-0.494915
-0.475710
-0.484992
-0.449782
-0.320788
-0.158825
-0.105050
-0.146021
-0.182830
-0.106650
0.083481
0.359073
0.682999
0.996041
1.209538
1.301722
1.330850
1.410552
1.598121
1.760404
1.690626
1.388467
1.047898
0.893618
0.974600
1.115437
1.134002
0.995727
0.814559
0.756945
0.899062
1.209224
1.527708
1.708236
1.738644
1.721680
1.831469
2.115064
2.429707
2.679373
2.853819
2.943763
2.941203
2.858301
2.754915
2.723547
2.751715
2.686418
2.429071
1.945744
1.404163
1.017501
0.878905
0.868983
0.849459
0.749273
0.595313
0.519773
0.572908
0.656770
0.594674
0.324844
0.028126
-0.166805
-0.185369
-0.173526
-0.241383
-0.389262
-0.518575
-0.611719
-0.673175
-0.653329
-0.561145
-0.427669
-0.345407
-0.290673
-0.200729
-0.027563
0.251551
0.569075
0.794094
0.867394
0.804658
0.686547
0.532907
0.328694
0.054702
-0.227291
-0.397576
-0.379971
-0.275623
-0.264740
-0.408137
-0.627074
-0.760869
-0.688529
-0.473432
-0.300907
-0.292904
-0.376446
-0.423818
-0.355320
-0.228566
-0.126459
-0.077806
-0.098291
-0.232085
-0.436299
-0.573934
-0.554409
-0.438218
-0.339312
-0.295140
-0.291938
-0.337390
-0.444618
-0.497751
-0.370037
-0.099246
0.122573
0.159383
0.072960
-0.009301
0.014066
0.183711
0.439458
0.687524
0.797953
0.752822
0.652636
0.630550
0.682084
0.678244
0.525884
0.299585
0.160349
0.134102
0.140824
0.105616
0.031036
-0.066269
-0.165174
-0.280724
-0.426042
-0.561437
-0.630895
-0.637616
-0.678907
-0.825185
-1.101737
-1.455109
-1.787996
-1.970124
-1.939395
-1.776792
-1.604907
-1.530007
-1.635634
-1.878577
-2.097835
-2.145847
-2.061344
-1.980683
-1.984523
-2.043738
-2.099113
-2.175612
-2.274518
-2.362861
-2.399670
-2.383345
-2.393908
-2.488012
-2.625007
-2.684543
-2.594599
-2.375021
-2.100068
-1.912179
-1.910258
-2.065818
-2.224579
-2.246345
-2.139116
-2.011082
-1.980674
-2.076058
-2.171123
-2.136874
-1.964028
-1.716283
-1.422125
-1.111323
-0.833170
-0.630236
-0.484277
-0.297348
-0.015354
0.275603
0.451650
0.553117
0.710919
0.970507
1.285790
1.529375
1.591791
1.457997
1.172802
0.896250
0.765016
0.853039
1.008601
1.060134
1.033568
0.944905
0.757976
0.459658
0.144056
-0.066239
-0.017266
0.234321
0.446217
0.491669
0.283615
-0.173785
-0.687199
-1.032249
-1.084423
-0.835397
-0.400722
0.042594
0.214800
-0.016620
-0.605254
-1.193568
-1.339526
-0.917975
-0.272366
-0.024300
-0.436248
-1.180123
-1.658968
-1.625039
-1.345605
-1.230054
-1.424025
-1.834692
-2.265205
-2.573445
-2.694757
-2.669790
-2.640021
-2.699237
-2.923615
-3.285630
-3.624278
-3.679332
-3.326599
-2.787898
-2.446048
-2.548154
-2.911769
-3.141589
-2.986668
-2.562236
-2.195419
-2.085630
-2.109956
-2.052341
-1.803315
-1.443220
-1.120255
-0.928524
-0.840821
-0.776164
-0.660613
-0.457999
-0.095344
0.410069
0.922524
1.202918
1.097611
0.712550
0.484011
0.741679
1.382167
1.978164
2.123482
1.677286
0.923488
0.349578
0.299005
0.621970
0.928611
0.920609
0.677346
0.458089
0.455528
0.558916
0.601167
0.523707
0.371668
0.307331
0.462253
0.732404
1.002235
1.113304
1.159397
1.162918
1.200368
1.093461
0.931499
0.802185
0.503867
0.762175
0.812749
0.804747
0.784903
0.567886
0.313100
0.019583
-0.274894
-0.472706
-0.604260
-0.768142
-0.970755
-1.147441
-1.232583
-1.199614
-1.155122
-1.208576
-1.385582
-1.587234
-1.623403
-1.533779
-1.444155
-1.411827
-1.478404
-1.577629
-1.613478
-1.575708
-1.540819
-1.582749
-1.599073
-1.484163
-1.306516
-1.088858
-0.928496
-0.834390
-0.775815
-0.579283
-0.319054
-0.087633
0.012874
0.141868
0.321115
0.459392
0.335840
0.063129
0.041684
0.129067
0.227333
0.396978
0.486282
0.516050
0.458755
0.414584
0.795485
1.066276
1.370356
1.705805
2.026529
2.301482
2.341813
2.232024
2.206738
2.421515
2.795053
3.011430
2.904202
2.639493
2.553071
2.728798
3.062646
3.306550
3.405136
3.378250
3.393614
3.492840
3.577023
3.574783
3.541174
3.543735
3.591428
3.609993
3.499565
3.233255
2.893967
2.679511
2.670869
2.743528
2.732646
2.555320
2.255401
1.904590
1.556659
1.263462
1.111743
1.117825
1.175760
1.100541
0.876163
0.625857
0.530793
0.639622
0.849917
1.063734
1.218015
1.271469
1.221856
1.110467
1.038129
1.079420
1.201052
1.379020
1.475045
1.476006
1.421592
1.426073
1.503854
1.598920
1.577794
1.365579
1.079424
0.911701
0.941149
1.047737
1.049978
0.810236
0.398288
0.054198
-0.059431
-0.002776
0.061241
-0.073834
-0.456974
-0.910533
-1.202449
-1.292712
-1.300394
-1.318638
-1.342964
-1.351286
-1.344244
-1.315756
-1.233494
-1.128186
-1.038562
-0.973265
-0.943817
-0.993749
-1.095216
-1.201483
-1.231250
-1.183558
-1.116980
-1.113458
-1.176194
-1.220046
-1.150587
-0.978702
-0.849387
-0.926207
-1.179393
-1.487954
-1.696648
-1.700169
-1.536285
-1.324069
-1.195715
-1.218120
-1.368880
-1.559649
-1.734415
-1.925184
-2.186373
-2.460684
-2.684743
-2.806374
-2.885755
-2.970897
-3.111413
-3.270815
-3.381563
-3.399167
-3.388604
-3.368759
-3.394685
-3.429894
-3.467663
-3.455820
-3.426372
-3.360754
-3.340909
-3.377398
-3.544161
-3.681157
-3.703882
-3.433091
-3.094122
-2.789401
-2.744909
-2.788440
-2.909432
-2.886385
-2.905910
-2.702656
-2.647601
-2.525649
-2.341600
-2.392493
-2.367206
-2.347361
-2.161392
-2.264138
-2.177075
-1.975742
-1.802576
-1.711672
-1.635171
-1.622687
-1.603162
-1.668139
-1.671339
-1.662376
-1.463284
-1.300681
-1.113751
-1.006843
-0.955629
-0.906656
-0.797827
-0.748213
-0.843598
-1.036928
-1.168803
-1.193449
-1.176804
-1.181285
-1.259705
-1.354449
-1.404702
-1.358930
-1.254582
-1.248820
-1.420705
-1.627159
-1.772156
-1.756152
-1.635160
-1.597069
-1.771835
-2.064711
-2.335182
-2.424805
-2.327499
-2.196264
-2.165856
-2.199144
-2.222510
-2.190821
-2.114321
-1.985326
-1.862414
-1.777591
-1.747183
-1.759986
-1.768308
-1.734378
-1.693087
-1.659478
-1.673561
-1.759023
-1.863690
-1.874253
-1.738537
-1.520239
-1.324987
-1.245926
-1.277934
-1.300020
-1.202074
-0.994979
-0.811891
-0.769959
-0.897032
-1.115009
-1.314421
-1.394762
-1.387399
-1.346108
-1.330103
-1.334584
-1.339705
-1.380035
-1.456535
-1.560242
-1.703639
-1.876484
-1.987233
-1.989153
-1.896328
-1.794221
-1.758051
-1.799021
-1.828789
-1.743006
-1.551595
-1.363066
-1.264159
-1.247514
-1.304489
-1.409476
-1.540070
-1.651139
-1.715795
-1.735960
-1.752284
-1.808619
-1.890240
-1.944013
-1.981783
-2.063724
-2.196559
-2.344437
-2.474071
-2.585459
-2.678924
-2.742940
-2.757023
-2.735257
-2.723094
-2.741978
-2.812716
-2.940109
-3.108793
-3.279398
-3.342454
-3.279717
-3.211539
-3.240346
-3.388864
-3.568431
-3.660295
-3.585395
-3.360375
-3.106869
-2.903615
-2.780702
-2.678915
-2.522074
-2.318820
-2.131570
-2.026582
-1.993293
-1.994573
-1.990092
-1.941759
-1.852775
-1.741385
-1.647600
-1.586464
-1.541332
-1.476674
-1.396333
-1.336797
-1.292305
-1.228288
-1.159469
-1.134502
-1.180274
-1.247811
-1.251332
-1.128739
-0.902439
-0.654694
-0.455921
-0.309323
-0.198573
-0.110870
-0.014524
0.113190
0.287956
0.475846
0.668537
0.827939
0.974858
1.137461
1.332072
1.550050
1.770588
1.926469
2.012572
2.061866
2.141887
2.265760
2.410118
2.458451
2.358265
2.140929
1.926793
1.728661
1.529890
1.277984
1.003352
0.761689
0.620853
0.568039
0.560037
0.518107
0.397756
0.259160
0.200905
0.254679
0.271964
0.217230
0.167938
0.139771
0.155455
0.172100
0.213071
0.166019
0.122488
0.125049
0.266206
0.432971
0.607097
0.587572
0.663752
0.727449
0.813872
1.193172
1.244066
1.455002
1.678421
1.898639
1.905041
2.093891
2.285622
2.363723
2.368524
2.485675
2.619791
2.732781
2.910428
3.054466
3.294530
3.577484
3.717681
3.828431
3.960946
4.047369
4.089300
4.092822
4.095063
4.087381
4.060494
4.009921
3.952947
3.858523
3.812751
3.774341
3.753536
3.702963
3.579411
3.355353
3.124253
2.920359
2.780483
2.650849
2.516735
2.385821
2.323725
2.322445
2.384221
2.436716
2.465524
2.463924
2.451761
2.422954
2.360538
2.268674
2.195695
2.162087
2.144802
2.100311
2.079186
2.106073
2.192817
2.284681
2.279240
2.156328
1.970040
1.830483
1.828243
1.932911
2.009732
1.941874
1.766469
1.627232
1.621791
1.746624
1.874338
1.929713
1.907308
1.892904
1.950520
2.033422
2.091998
2.067672
1.981890
1.917873
1.917874
1.948602
1.948923
1.900270
1.817689
1.727426
1.638443
1.540817
1.431989
1.322521
1.222655
1.134632
1.064214
1.015242
0.964349
0.891050
0.782222
0.674034
0.577369
0.472382
0.327384
0.184947
0.006341
-0.156262
-0.278213
-0.358874
-0.416169
-0.517315
-0.659752
-0.858204
-1.031369
-1.156521
-1.240383
-1.317843
-1.393062
-1.450997
-1.454197
-1.429230
-1.416747
-1.437872
-1.483003
-1.537417
-1.587990
-1.620318
-1.633441
-1.665769
-1.712181
-1.769796
-1.823570
-1.859739
-1.884385
-1.903590
-1.907430
-1.888865
-1.858777
-1.798921
-1.716018
-1.629275
-1.533250
-1.425381
-1.299908
-1.143066
-0.940773
-0.715433
-0.519541
-0.364620
-0.249390
-0.167128
-0.100550
-0.016047
0.102704
0.230738
0.328684
0.371256
0.372537
0.386941
0.432073
0.499291
0.537381
0.509534
0.404227
0.271393
0.169606
0.082544
-0.023083
-0.160399
-0.335805
-0.548340
-0.778800
-1.016302
-1.224356
-1.377036
-1.470820
-1.538678
-1.630861
-1.759535
-1.901652
-2.018482
-2.076737
-2.093701
-2.097862
-2.109064
-2.131150
-2.147794
-2.141071
-2.119625
-2.100740
-2.103621
-2.150032
-2.218530
-2.248937
-2.214368
-2.132746
-2.019756
-1.927572
-1.889801
-1.908366
-1.957018
-2.000549
-2.030957
-2.063285
-2.123780
-2.218525
-2.318711
-2.409294
-2.469790
-2.517482
-2.558772
-2.593341
-2.601983
-2.566773
-2.530603
-2.485151
-2.438098
-2.407050
-2.371520
-2.303022
-2.184270
-2.034150
-1.945807
-1.852662
-1.751195
-1.582830
-1.401983
-1.242580
-1.081258
-0.902971
-0.702598
-0.494543
-0.250318
-0.038422
0.191078
0.433703
0.696492
0.978166
1.247997
1.477498
1.684273
1.901290
2.167920
2.459837
2.745353
2.981575
3.179707
3.385522
3.619183
3.863408
4.080105
4.270235
4.450443
4.617527
4.743641
4.819501
4.851830
4.871035
4.888640
4.920009
4.953298
4.968662
4.922891
4.842550
4.767011
4.743645
4.755809
4.749727
4.679629
4.586485
4.494301
4.413641
4.374591
4.337461
4.266723
4.188623
4.122046
4.068272
3.984411
3.888706
3.783079
3.698577
3.621117
3.557101
3.464597
3.352568
3.208850
3.093941
3.028964
3.007839
3.040808
3.116028
2.997277
2.900292
2.948305
2.909255
3.059375
3.021285
2.900614
2.765539
2.739613
2.812912
2.731931
2.640388
2.558447
2.489629
2.417290
2.326067
2.258209
2.175308
2.038953
1.908359
1.774564
1.672137
1.590836
1.517858
1.464724
1.383743
1.299562
1.200976
1.131838
1.080945
1.026531
0.966356
0.924746
0.930187
0.954834
0.979161
0.966998
0.922187
0.884097
0.890819
0.936592
0.998688
1.035498
1.042541
1.030058
1.018535
1.008613
0.980446
0.910668
0.811122
0.709336
0.636037
0.616512
0.628036
0.616833
0.561459
0.469915
0.384133
0.315316
0.270184
0.227613
0.180561
0.129989
0.104702
0.107903
0.129670
0.129030
0.081338
-0.013727
-0.121595
-0.184651
-0.198094
-0.170887
-0.136317
-0.117752
-0.115191
-0.116791
-0.130554
-0.174725
-0.279392
-0.415428
-0.552103
-0.680456
-0.810410
-0.942284
-1.080240
-1.216276
-1.343348
-1.454417
-1.556204
-1.650308
-1.740891
-1.832755
-1.918857
-2.003679
-2.065775
-2.110266
-2.162440
-2.225176
-2.298795
-2.360890
-2.417545
-2.471319
-2.526693
-2.579826
-2.624958
-2.653125
-2.683853
-2.699856
-2.678410
-2.594228
-2.492121
-2.405698
-2.328877
-2.231891
-2.137786
-2.022556
-1.927170
-1.815460
-1.748883
-1.569315
-1.445762
-1.419835
-1.270035
-1.214340
-1.151924
-1.222342
-1.090467
-0.973636
-0.964673
-0.917940
-0.750216
-0.629224
-0.478464
-0.446775
-0.314900
-0.259525
-0.013060
0.280137
0.261893
0.617186
0.579097
0.666480
0.847968
1.043540
1.245513
1.330016
1.358183
1.441406
1.467973
1.512465
1.547355
1.489420
1.419642
1.389234
1.363628
1.363628
1.326819
1.207108
1.173500
1.182462
1.226634
1.258323
1.252882
1.237198
1.248722
1.271128
1.283932
1.250003
1.194309
1.107887
1.030747
0.938243
0.829415
0.709384
0.593834
0.454277
0.334566
0.239502
0.167803
0.083942
-0.012723
-0.120271
-0.196451
-0.196770
-0.160601
-0.119629
-0.083460
-0.053051
-0.039287
-0.038006
-0.039606
-0.048248
-0.043767
-0.083777
-0.143632
-0.182362
-0.193244
-0.186522
-0.170198
-0.155153
-0.195163
-0.288628
-0.377931
-0.442587
-0.467553
-0.425622
-0.362885
-0.335358
-0.333437
-0.332796
-0.300787
-0.251814
-0.198680
-0.192918
-0.233888
-0.279020
-0.311668
-0.329912
-0.317109
-0.324150
-0.339834
-0.350396
-0.348475
-0.353916
-0.370880
-0.391045
-0.415691
-0.446739
-0.474266
-0.509475
-0.596857
-0.688721
-0.759779
-0.781545
-0.783145
-0.780264
-0.792106
-0.813872
-0.832116
-0.827314
-0.786663
-0.736090
-0.705361
-0.685196
-0.649346
-0.589490
-0.507868
-0.428807
-0.377913
-0.366710
-0.362228
-0.351665
-0.349104
-0.354225
-0.359346
-0.368308
-0.390393
-0.421441
-0.436805
-0.413758
-0.371507
-0.335337
-0.311330
-0.284763
-0.235149
-0.168892
-0.106795
-0.051740
0.002675
0.087497
0.184163
0.269946
0.321800
0.355409
0.395100
0.459757
0.542979
0.606677
0.652769
0.697581
0.754236
0.807371
0.859865
0.907238
0.944368
0.974136
1.009346
1.038154
1.074003
1.113054
1.148904
1.164908
1.187315
1.210681
1.217723
1.177073
1.099933
1.001028
0.909484
0.843547
0.804817
0.745282
0.660460
0.542990
0.425839
0.328854
0.266438
0.195380
0.120161
0.026697
-0.049483
-0.124382
-0.186798
-0.282503
-0.391651
-0.501760
-0.542090
-0.542730
-0.505280
-0.514241
-0.544009
-0.619868
-0.597462
-0.573456
-0.512319
-0.465907
-0.424295
-0.372121
-0.329550
-0.248568
-0.124375
-0.049475
-0.063238
0.006220
0.115690
0.191870
0.196351
0.210756
0.079522
0.228361
0.104169
0.026389
0.089446
0.140019
0.136179
-0.083078
-0.109965
-0.075396
-0.194146
-0.296893
-0.407001
-0.485102
-0.580166
-0.701798
-0.832392
-0.914653
-0.992753
-1.069893
-1.112143
-1.164317
-1.198565
-1.271224
-1.323077
-1.354125
-1.340681
-1.305792
-1.256178
-1.242094
-1.194081
-1.149589
-1.083651
-1.026356
-0.933211
-0.841667
-0.743721
-0.689626
-0.659538
-0.661778
-0.640332
-0.630409
-0.618245
-0.581435
-0.567671
-0.561589
-0.591997
-0.548785
-0.748837
-0.593596
-0.523177
-0.715227
-0.796208
-0.598076
-0.625283
-0.725469
-0.788525
-0.849340
-0.896712
-0.982494
-1.053233
-1.162701
-1.187027
-1.163020
-1.190867
-1.260005
-1.314739
-1.381636
-1.421966
-1.436050
-1.424846
-1.404040
-1.356668
-1.380674
-1.352186
-1.355386
-1.370110
-1.376831
-1.320816
-1.257759
-1.199823
-1.165254
-1.157572
-1.148929
-1.105717
-1.063146
-0.980884
-0.906944
-0.874615
-0.866613
-0.818600
-0.703369
-0.540766
-0.365680
-0.206277
-0.053277
0.113807
0.299777
0.525436
0.756217
0.978036
1.149601
1.303882
1.452721
1.623327
1.798413
1.956535
2.081048
2.177394
2.258695
2.338076
2.422579
2.510602
2.600226
2.674166
2.725700
2.751627
2.771153
2.805082
2.855016
2.891506
2.891506
2.849575
2.778517
2.702017
2.641522
2.617516
2.595110
2.565663
2.508689
2.424827
2.352808
2.268947
2.170361
2.074657
1.972870
1.864682
1.756174
1.645425
1.550041
1.459778
1.382958
1.313180
1.230919
1.139695
1.069597
1.046551
1.066717
1.100006
1.131695
1.137457
1.124974
1.122734
1.137138
1.164986
1.183231
1.180990
1.184832
1.203717
1.235726
1.247890
1.246610
1.259733
1.280219
1.296864
1.316069
1.326633
1.328233
1.302307
1.267098
1.251734
1.257816
1.276382
1.264539
1.200843
1.106738
1.005912
0.911808
0.826986
0.742804
0.649020
0.544353
0.413119
0.269082
0.125364
-0.033717
-0.192158
-0.347079
-0.485034
-0.618189
-0.727337
-0.832324
-0.930590
-1.036217
-1.143765
-1.235949
-1.307327
-1.372304
-1.428958
-1.501937
-1.588039
-1.681183
-1.761844
-1.805055
-1.832582
-1.866830
