EVENT_NAME: 202302060117
EVENT_ID: 13194
EVENT_DATE_YYYYMMDD: 2023/02/06
EVENT_TIME_HHMMSS: 01:17:32.00000
EVENT_LATITUDE_DEGREE: 37.288
EVENT_LONGITUDE_DEGREE: 37.043
EVENT_DEPTH_KM: 8.6
HYPOCENTER_REFERENCE: AFAD
MAGNITUDE_W: 7.7
MAGNITUDE_W_REFERENCE: AFAD
MAGNITUDE_L: 
MAGNITUDE_L_REFERENCE: 
FOCAL_MECHANISM: 
NETWORK: TK
STATION_CODE: 3306
STATION_NAME: 
STATION_LATITUDE_DEGREE: 36.64169
STATION_LONGITUDE_DEGREE: 33.43956
STATION_ELEVATION_M: 317.0
LOCATION: Kahramanmaras_Pazarck_Turkiye
SENSOR_DEPTH_M: 
VS30_M/S: 490
SITE_CLASSIFICATION_EC8: B
MORPHOLOGIC_CLASSIFICATION: 
EPICENTRAL_DISTANCE_KM: 328.09
EARTHQUAKE_BACKAZIMUTH_DEGREE: 
DATE_TIME_FIRST_SAMPLE_YYYYMMDD_HHMMSS: 2023/02/06 01:18:06.0426890
DATE_TIME_FIRST_SAMPLE_PRECISION: millisecond
SAMPLING_INTERVAL_S: 0.01
NDATA: 18251
DURATION_S: 
STREAM: HNE
UNITS: cm/s^2
INSTRUMENT: sensor = GMS+/GEOSIG | digitizer = 
INSTRUMENT_ANALOG/DIGITAL: 
INSTRUMENTAL_FREQUENCY_HZ: 
INSTRUMENTAL_DAMPING: 
FULL_SCALE_G: 
N_BIT_DIGITAL_CONVERTER: 
PGA_CM/S^2: 8.861
TIME_PGA_S: 
BASELINE_CORRECTION: BASELINE REMOVED
FILTER_TYPE: BUTTERWORTH
FILTER_ORDER: 
LOW_CUT_FREQUENCY_HZ: 
HIGH_CUT_FREQUENCY_HZ: 
LATE/NORMAL_TRIGGERED: 
DATABASE_VERSION: 
HEADER_FORMAT: DYNA 1.2
DATA_TYPE: Acceleration
PROCESSING: Automatic Paolucci et al., 2011
DATA_TIMESTAMP_YYYYMMDD_HHMMSS: 
DATA_LICENSE: U (unknown license)
DATA_CITATION: Turkish Accelerometric Archive v 1.0 - Disaster And Emergency Management Presidency, Earthquake Department
DATA_CREATOR: AFAD
ORIGINAL_DATA_MEDIATOR_CITATION: : AFAD - Disaster And Emergency Management Presidency
ORIGINAL_DATA_MEDIATOR: AFAD PROCESS SERVICE
ORIGINAL_DATA_CREATOR_CITATION: AFAD PROCESS SERVICE
ORIGINAL_DATA_CREATOR: network: TK
USER1: GuestUser
USER2: 
USER3: 
USER4: 
USER5: 
[...]
-0.005739
-0.390205
-0.852342
-1.220703
-1.515289
-1.785717
-2.043157
-2.209418
-2.299568
-2.440631
-2.628973
-2.768738
-2.744849
-2.538863
-2.217280
-1.808415
-1.328893
-0.807289
-0.306206
0.092009
0.283967
0.271748
0.270959
0.404730
0.576687
0.680844
0.663430
0.548862
0.380003
0.124122
-0.174621
-0.352052
-0.302186
0.024332
0.681536
1.589155
2.560937
3.457127
4.125759
4.541638
4.804254
4.901397
4.833848
4.735906
4.725505
4.772773
4.750943
4.643649
4.546746
4.494003
4.441780
4.298638
4.049771
3.802462
3.576194
3.292258
2.939744
2.571123
2.302254
2.234704
2.299117
2.332098
2.243767
2.092312
1.979044
1.901623
1.820046
1.795618
1.826521
1.777155
1.693241
1.713753
1.844406
2.053510
2.287031
2.483666
2.577952
2.532223
2.383626
2.163852
1.889008
1.585070
1.273858
0.971739
0.690140
0.465172
0.251113
-0.080620
-0.550550
-1.060225
-1.455601
-1.646281
-1.629665
-1.451214
-1.187560
-0.881043
-0.608037
-0.476344
-0.504409
-0.577933
-0.584697
-0.445731
-0.160775
0.128077
0.375107
0.561610
0.695121
0.822917
0.848105
0.741591
0.569355
0.417641
0.381004
0.424375
0.492944
0.606453
0.720741
0.734239
0.577070
0.262221
-0.126141
-0.516842
-0.881566
-1.206805
-1.445022
-1.566603
-1.588434
-1.551037
-1.537798
-1.575474
-1.652375
-1.815000
-2.080492
-2.391704
-2.660314
-2.860605
-3.044530
-3.264044
-3.560968
-3.913743
-4.314574
-4.769957
-5.241706
-5.736573
-6.268588
-6.834372
-7.365867
-7.722798
-7.830871
-7.725415
-7.446954
-6.994707
-6.407642
-5.800574
-5.296634
-4.903614
-4.545664
-4.159918
-3.793915
-3.497270
-3.149970
-2.704997
-2.250933
-1.957664
-1.928840
-1.958463
-1.906260
-1.814311
-1.730936
-1.712242
-1.632243
-1.383655
-1.063111
-0.766986
-0.538140
-0.332933
-0.158119
-0.110591
-0.213729
-0.418695
-0.581839
-0.581589
-0.463924
-0.373015
-0.428096
-0.611242
-0.877514
-1.232626
-1.615274
-1.829852
-1.702056
-1.310855
-0.881728
-0.554950
-0.323766
-0.150511
-0.002973
0.154697
0.314185
0.506923
0.667450
0.712120
0.694706
0.683006
0.764564
0.905608
0.956773
0.797785
0.438256
0.095353
-0.050906
-0.003638
0.188840
0.488343
0.769142
0.841088
0.580791
0.074234
-0.419075
-0.801204
-1.060462
-1.103853
-0.896568
-0.484066
-0.032599
0.246901
0.244034
-0.057826
-0.491908
-0.775584
-0.778451
-0.518693
-0.109568
0.328131
0.737515
0.987143
1.038567
1.011022
1.001660
1.139068
1.486368
1.974982
2.489832
2.853757
2.985190
2.885949
2.471609
1.768927
0.955324
0.306414
0.032609
-0.003249
0.054410
0.225068
0.419105
0.475205
0.282967
-0.094486
-0.393488
-0.443373
-0.300771
-0.068807
0.229396
0.529159
0.718260
0.755397
0.597708
0.274807
-0.144988
-0.543222
-0.790530
-0.996536
-1.262548
-1.594801
-1.987060
-2.408674
-2.918348
-3.550113
-4.227598
-4.800396
-5.173173
-5.405934
-5.534269
-5.497912
-5.295562
-5.005671
-4.719936
-4.524081
-4.401480
-4.221471
-3.887159
-3.479073
-3.228147
-3.230495
-3.369480
-3.523273
-3.671350
-3.813193
-3.859961
-3.710604
-3.450586
-3.311880
-3.379430
-3.516597
-3.556351
-3.469338
-3.315566
-3.170885
-3.045946
-2.845415
-2.610594
-2.409804
-2.184075
-1.917563
-1.601955
-1.226340
-0.779289
-0.262361
0.321068
0.968660
1.531567
1.832629
1.842230
1.641940
1.334365
0.993280
0.681548
0.410860
0.260965
0.385903
0.783079
1.287538
1.669387
1.843162
1.865493
1.755601
1.522579
1.204094
1.016272
1.181475
1.657100
2.211955
2.560294
2.648086
2.596382
2.487530
2.375300
2.232158
2.094472
2.027701
1.972101
1.796229
1.429427
0.888580
0.232137
-0.308710
-0.683565
-0.949836
-0.980759
-0.903877
-0.918174
-1.032741
-1.157440
-1.266032
-1.438009
-1.647651
-1.824043
-1.944845
-2.106950
-2.413226
-2.819253
-3.153324
-3.259060
-3.139316
-2.927615
-2.798780
-2.809440
-2.972325
-3.280419
-3.616828
-3.837901
-3.827779
-3.646471
-3.426198
-3.235018
-3.094234
-2.903314
-2.584848
-2.190790
-1.814396
-1.515673
-1.251498
-0.930175
-0.551703
-0.237394
-0.045175
0.133276
0.387579
0.677470
0.901640
1.031254
1.112292
1.190473
1.280083
1.276177
1.163947
1.104970
1.146523
1.198207
1.180533
1.131687
1.119728
1.119459
1.088017
0.960981
0.765885
0.647162
0.632865
0.652078
0.642456
0.637251
0.725043
0.856996
0.904004
0.831259
0.682922
0.526532
0.404951
0.308567
0.323624
0.517661
0.823658
1.192259
1.602422
2.035186
2.464313
2.844344
3.074488
3.120717
3.103303
3.066926
2.959892
2.794150
2.628668
2.500333
2.389922
2.266522
2.142084
2.069339
2.107515
2.171668
2.124380
2.039946
2.039677
2.097595
2.173957
2.226680
2.157832
2.003001
1.889472
1.828157
1.854124
2.045564
2.343508
2.582484
2.582215
2.314384
1.921865
1.562597
1.329056
1.177861
1.101479
1.147968
1.274985
1.373947
1.359650
1.298854
1.284038
1.349749
1.503522
1.728212
2.044339
2.451646
2.867005
3.169625
3.270405
3.149084
2.854757
2.488474
2.121932
1.780328
1.491975
1.239471
1.021776
0.854476
0.685097
0.473636
0.198013
-0.091898
-0.391680
-0.751468
-0.997218
-1.008398
-0.839039
-0.534601
-0.249385
-0.134578
-0.265251
-0.636209
-1.163807
-1.789079
-2.337199
-2.646592
-2.745833
-2.741686
-2.753905
-2.821974
-2.931866
-3.081502
-3.224904
-3.251669
-3.092182
-2.786185
-2.427974
-2.118081
-1.919628
-1.817030
-1.809766
-1.991094
-2.405953
-2.961346
-3.503232
-3.910298
-4.123317
-4.149044
-4.055278
-3.852928
-3.565894
-3.357570
-3.293417
-3.290829
-3.341754
-3.498403
-3.741556
-3.936132
-3.938999
-3.758990
-3.617166
-3.641854
-3.677971
-3.729155
-3.897235
-4.063756
-4.184298
-4.261978
-4.148989
-3.770257
-3.211506
-2.535859
-1.778126
-1.097024
-0.678548
-0.488408
-0.292812
0.102805
0.695066
1.388377
2.146630
2.903843
3.563125
4.008357
4.129659
3.946513
3.504638
2.868456
2.103690
1.280476
0.568962
0.021101
-0.475065
-1.010197
-1.639624
-2.324642
-2.915364
-3.297492
-3.402448
-3.229453
-2.851240
-2.329896
-1.722568
-1.038609
-0.321919
0.304631
0.761034
1.055081
1.271718
1.451987
1.568354
1.667835
1.764719
1.834327
1.876140
1.638183
1.343336
1.435284
1.476058
1.520728
1.848546
2.139736
2.562369
3.096701
3.496215
3.793380
3.944035
4.016501
3.988436
3.783989
3.491221
3.241054
3.148308
3.139726
3.017105
2.694983
2.229989
1.695637
1.071145
0.317289
-0.407214
-0.954295
-1.330968
-1.512815
-1.592574
-1.702465
-1.853920
-2.065900
-2.418155
-2.936142
-3.460364
-3.749235
-3.721710
-3.534427
-3.280124
-2.918017
-2.414337
-1.855326
-1.498674
-1.243592
-0.919671
-0.661212
-0.326381
0.196003
0.782809
1.424166
2.078772
2.615183
2.864550
2.789467
2.590735
2.424734
2.302114
2.272750
2.390415
2.545747
2.527553
2.235824
1.794988
1.411301
1.135678
0.934348
0.825495
0.933029
1.362676
1.986369
2.598372
3.080752
3.428831
3.686771
3.801838
3.723379
3.550883
3.447226
3.422538
3.321479
3.098068
2.899596
2.804251
2.713583
2.501862
2.165972
1.789559
1.434187
1.219349
1.090494
0.870981
0.705499
0.642625
0.501302
0.300491
0.302560
0.682331
1.275111
1.890492
2.431059
2.839664
3.118126
3.238648
3.201492
2.975224
2.570236
2.141090
1.777405
1.497625
1.353444
1.385386
1.571370
1.719428
1.683051
1.630828
1.710047
1.891875
2.090328
2.262285
2.470089
2.765695
3.144167
3.537706
3.881369
4.152298
4.302434
4.277226
4.116680
3.977435
4.036392
4.323426
4.644490
4.769428
4.619792
4.297930
3.867485
3.347679
2.959057
2.797471
2.829413
3.143723
3.634674
4.089778
4.417595
4.526428
4.338606
3.884263
3.311464
2.757889
2.317573
2.036235
1.901405
1.890745
1.930740
1.966838
1.931499
1.781084
1.607809
1.458952
1.288275
1.074996
0.909514
0.891580
0.990022
1.101193
1.087156
0.835691
0.355370
-0.313022
-1.151043
-2.029328
-2.785782
-3.336500
-3.677325
-3.883331
-3.988547
-3.991414
-3.955316
-3.978445
-4.112235
-4.338243
-4.486320
-4.401386
-4.112274
-3.558718
-2.788516
-2.053383
-1.405272
-0.771448
-0.126194
0.472821
0.948966
1.235740
1.296776
1.199613
1.016207
0.853323
0.704466
0.423907
-0.037710
-0.686620
-1.447750
-2.201347
-2.864544
-3.299405
-3.382541
-3.134472
-2.761455
-2.505074
-2.400397
-2.352610
-2.316252
-2.318340
-2.441479
-2.624366
-2.649573
-2.421766
-1.998094
-1.532340
-1.072301
-0.571478
-0.085462
0.344184
0.649921
0.790706
0.791735
0.626253
0.268543
-0.186840
-0.511560
-0.678600
-0.766152
-0.773695
-0.813968
-0.893727
-1.051156
-1.388085
-1.725793
-1.845815
-1.648921
-1.230704
-0.876131
-0.796652
-1.051753
-1.608965
-2.357626
-3.092520
-3.581932
-3.661431
-3.287115
-2.570944
-1.680470
-0.764278
-0.020053
0.386474
0.464135
0.372168
0.272667
0.314480
0.629309
1.221570
1.989954
2.653131
2.895225
2.653631
2.034335
1.179169
0.226850
-0.621302
-1.163967
-1.317759
-1.089173
-0.637966
-0.283652
-0.420560
-1.077003
-1.868006
-2.616927
-3.163228
-3.321437
-3.163248
-2.744771
-2.138483
-1.436340
-0.736795
-0.070759
0.681259
1.491206
2.247380
2.871593
3.285134
3.438647
3.340185
3.117294
2.839852
2.501625
2.144174
1.815039
1.528245
1.233399
0.883482
0.416669
-0.197692
-0.856473
-1.483822
-2.047269
-2.483948
-2.720866
-2.687626
-2.370459
-1.869636
-1.257633
-0.516005
0.254977
0.961795
1.516130
1.825504
2.070975
2.462695
3.013394
3.541492
3.875804
4.066983
4.065415
3.819665
3.521441
3.281926
3.193595
3.381657
3.678302
3.892081
3.986367
3.842706
3.455902
2.996103
2.642549
2.545386
2.697081
3.024119
3.509615
4.124736
4.761417
5.229510
5.395751
5.265338
4.954646
4.597455
4.258189
3.982825
3.870855
3.859675
3.690557
3.290245
2.745501
2.171405
1.669783
1.296747
1.104509
1.093069
1.241647
1.426332
1.522696
1.479565
1.243426
0.903640
0.642044
0.573715
0.654493
0.681499
0.480949
0.112848
-0.261488
-0.633745
-0.989637
-1.210709
-1.176949
-0.832766
-0.311421
0.187323
0.591512
0.914394
1.260655
1.716798
2.206191
2.669347
3.137699
3.565527
3.776709
3.643178
3.152467
2.390558
1.546822
0.715295
0.007937
-0.406922
-0.500708
-0.345636
-0.016780
0.420919
0.808224
1.073697
1.274747
1.488527
1.769326
2.148577
2.681092
3.319592
3.899904
4.203822
4.150041
3.758301
3.016654
2.049008
1.258005
0.817949
0.504659
0.466463
0.775058
1.027543
1.011687
0.856336
0.786189
0.806181
0.821238
0.819929
0.949544
1.301260
1.668822
1.930139
2.052220
2.021298
1.778924
1.261197
0.572803
-0.182353
-0.914648
-1.651360
-2.396384
-3.055944
-3.585881
-3.974763
-4.247269
-4.300791
-4.037656
-3.537612
-3.049259
-2.806126
-2.730543
-2.582745
-2.318311
-2.036992
-1.714889
-1.301089
-0.927033
-0.785988
-0.882372
-1.234627
-1.958870
-2.949634
-4.003782
-4.945970
-5.554616
-5.739841
-5.581392
-5.184216
-4.617672
-3.899164
-3.141950
-2.581641
-2.341625
-2.347090
-2.473606
-2.674157
-2.901204
-3.044605
-3.020976
-2.908766
-2.843055
-2.869041
-3.078424
-3.525235
-4.153363
-4.856045
-5.463652
-5.874874
-6.016717
-5.908664
-5.655400
-5.229910
-4.676354
-4.158646
-3.803293
-3.628739
-3.521724
-3.421983
-3.337828
-3.264583
-3.135489
-2.901188
-2.677537
-2.625593
-2.778606
-2.989288
-3.155549
-3.241023
-3.131670
-2.887498
-2.620206
-2.314210
-2.063803
-1.986402
-2.026935
-2.028764
-1.848754
-1.410795
-0.784764
-0.101584
0.537435
0.952534
1.102411
1.133313
1.130966
1.171999
1.289405
1.451490
1.626564
1.793066
2.005806
2.255173
2.426350
2.487126
2.520367
2.585819
2.655427
2.702695
2.750482
2.801647
2.809950
2.826565
2.976961
3.323742
3.820148
4.336557
4.806987
5.197149
5.441581
5.497161
5.413246
5.275560
5.028251
4.646123
4.195935
3.602096
2.820704
1.979826
1.227268
0.676550
0.326374
0.093352
-0.111355
-0.404123
-0.870416
-1.499064
-2.206162
-2.908844
-3.502424
-3.847665
-3.889757
-3.721437
-3.419597
-2.949946
-2.337423
-1.666972
-1.062242
-0.688705
-0.504020
-0.366613
-0.285575
-0.300391
-0.418595
-0.558360
-0.636300
-0.756583
-1.136113
-1.867889
-2.799687
-3.766553
-4.626914
-5.199452
-5.437409
-5.377672
-5.128564
-4.686709
-4.042494
-3.378537
-2.571708
-1.659672
-0.976752
-0.461123
0.047493
0.547796
0.971208
1.348382
1.742959
2.085843
2.213639
1.987372
1.567577
1.229350
1.012434
0.780191
0.452095
0.061914
-0.314240
-0.554016
-0.635073
-0.571959
-0.230114
0.456962
1.440694
2.637435
3.920159
5.122355
5.945810
6.150237
5.778500
5.011135
4.036996
3.042335
2.248994
1.795689
1.552277
1.276653
0.788280
0.144046
-0.435766
-0.883875
-1.251976
-1.544745
-1.659572
-1.708418
-1.743236
-1.596737
-1.484787
-1.568961
-1.797047
-2.088257
-2.170094
-1.948521
-1.545111
-1.112088
-0.737772
-0.408916
-0.086294
0.215807
0.438937
0.632195
0.854547
1.157946
1.609153
2.151539
2.711589
3.218646
3.545684
3.632437
3.516311
3.340958
3.284059
3.437831
3.786171
4.187502
4.544414
4.804951
4.924435
4.945206
4.830379
4.572420
4.232374
3.866871
3.625277
3.510969
3.391466
3.143378
2.706439
2.184815
1.720340
1.486279
1.400027
1.356636
1.554309
1.757178
1.729893
1.646498
1.513227
1.409050
1.459695
1.564632
1.572156
1.437586
1.271844
1.166888
1.070245
0.899308
0.637712
0.383130
0.253496
0.189323
0.115280
0.145403
0.325932
0.535035
0.536584
0.153936
-0.466919
-1.161028
-1.844488
-2.410532
-2.745122
-2.696556
-2.362504
-1.959094
-1.609716
-1.370220
-1.207874
-1.115666
-1.108922
-1.215956
-1.366372
-1.503799
-1.731885
-2.131937
-2.689409
-3.274156
-3.713693
-3.991395
-4.205453
-4.395094
-4.564732
-4.748657
-5.250539
-6.120511
-6.970482
-7.808503
-8.545474
-8.860582
-8.741358
-8.233782
-7.385649
-6.300608
-5.219983
-4.436533
-4.060399
-3.991051
-4.034701
-4.101212
-4.125899
-3.961996
-3.549494
-2.999575
-2.523950
-2.229123
-2.141591
-2.400849
-2.937799
-3.452669
-3.754529
-3.752460
-3.524913
-3.175275
-2.774983
-2.533149
-2.535756
-2.682794
-2.814766
-2.737625
-2.350321
-1.693637
-0.940839
-0.242593
0.262386
0.475386
0.467324
0.224691
-0.133279
-0.359027
-0.289939
0.065933
0.321795
0.602854
1.134070
1.539298
1.770222
1.941659
2.015943
1.991775
1.928122
1.845246
1.768085
1.884452
2.239285
2.699584
3.075978
3.257546
3.343260
3.426116
3.535988
3.662745
3.836260
4.147452
4.540472
4.864652
5.022322
5.076603
5.175046
5.261019
5.183598
4.914469
4.570267
4.306333
4.086560
3.834575
3.631167
3.551928
3.610626
3.678935
3.588006
3.345893
2.982728
2.534099
2.105212
1.822315
1.822046
2.046216
2.258177
2.278948
2.156848
2.065400
2.042530
2.135517
2.374754
2.758681
3.180275
3.389118
3.480287
3.537946
3.438965
3.371675
3.492977
3.712991
3.982880
4.266277
4.470964
4.484462
4.254818
3.864117
3.482768
3.187402
2.959576
2.786561
2.619520
2.428061
2.120746
1.571587
0.781104
-0.147057
-1.038590
-1.809591
-2.437460
-2.859593
-3.101446
-3.285631
-3.545149
-3.927278
-4.395389
-4.886620
-5.290049
-5.507225
-5.506456
-5.247996
-4.750031
-4.100881
-3.420818
-2.857391
-2.477880
-2.296312
-2.265409
-2.361793
-2.596633
-2.857449
-2.957989
-2.881887
-2.873325
-2.986333
-3.111032
-3.254953
-3.286135
-3.110022
-2.838834
-2.482182
-2.028118
-1.619512
-1.394563
-1.407561
-1.539273
-1.661634
-1.787891
-1.875183
-1.842981
-1.644009
-1.394641
-1.312304
-1.423495
-1.593133
-1.733937
-1.850583
-1.805912
-1.413932
-0.709971
0.137123
0.909663
1.513873
2.006903
2.478892
2.958413
3.231420
3.153739
2.902534
2.680163
2.489224
2.151776
1.569626
0.856293
0.085292
-0.773250
-1.621922
-2.351879
-2.905195
-3.335900
-3.725042
-3.882211
-3.805070
-3.680651
-3.536489
-3.353622
-3.041131
-2.506799
-1.758157
-0.959640
-0.248405
0.379963
0.848056
1.015336
0.986233
1.111691
1.521595
2.081645
2.609224
2.938340
3.007169
2.822724
2.497225
2.255111
2.235879
2.433812
2.755135
3.035935
3.165809
3.135146
2.950442
2.630138
2.218136
1.828215
1.504794
1.153838
0.714041
0.201250
-0.327648
-0.865377
-1.395054
-1.903429
-2.396478
-2.824326
-3.073453
-3.057097
-3.012687
-3.088549
-3.169606
-3.287551
-3.444200
-3.540324
-3.512279
-3.389938
-3.236165
-3.100836
-2.953297
-2.692760
-2.298961
-1.804113
-1.289003
-0.847667
-0.526604
-0.373351
-0.445836
-0.663011
-0.875251
-1.029563
-1.116336
-1.217915
-1.381578
-1.590701
-1.884508
-2.165067
-2.343018
-2.450052
-2.446425
-2.279144
-1.940677
-1.474403
-0.992283
-0.605239
-0.401071
-0.418485
-0.632544
-0.985578
-1.386150
-1.727495
-1.859986
-1.764661
-1.538413
-1.265147
-1.050588
-0.840446
-0.728236
-0.907485
-1.256883
-1.599007
-1.821638
-1.852560
-1.698268
-1.439549
-1.199533
-1.106805
-1.205267
-1.433353
-1.694689
-1.814972
-1.648990
-1.216486
-0.710987
-0.305499
-0.060288
-0.058999
-0.380082
-0.949763
-1.506715
-1.914041
-2.169402
-2.206299
-2.108117
-1.990971
-1.966562
-2.219326
-2.718610
-3.328035
-3.953047
-4.414924
-4.546636
-4.348183
-3.969191
-3.567860
-3.215364
-2.948333
-2.829888
-2.878475
-3.114354
-3.507392
-3.991609
-4.508557
-4.939522
-5.388930
-5.740146
-5.771588
-5.748478
-5.734980
-5.620172
-5.423538
-5.223266
-5.084560
-4.873638
-4.584267
-4.269438
-3.812256
-3.188823
-2.453429
-1.680370
-0.967316
-0.300502
0.257989
0.562168
0.623983
0.519027
0.316138
0.080779
-0.133280
-0.268109
-0.257208
-0.042650
0.336602
0.705462
0.892745
0.897152
0.736086
0.426952
0.029238
-0.419651
-0.793727
-1.032723
-1.163136
-1.164704
-1.078471
-1.010941
-1.058489
-1.249947
-1.521934
-1.836263
-2.222548
-2.467259
-2.358166
-2.079185
-1.809036
-1.613441
-1.575524
-1.584366
-1.428255
-1.111348
-0.699366
-0.143213
0.582050
1.416415
2.154665
2.538073
2.465068
2.023713
1.400520
0.755247
0.236740
-0.004854
0.095927
0.515182
1.139655
1.776336
2.295602
2.673555
2.945522
3.140338
3.230468
3.274359
3.415663
3.659576
3.908683
4.111033
4.167393
3.989442
3.574583
2.948532
2.230004
1.610188
1.296379
1.323645
1.545997
1.887582
2.309435
2.699597
2.885061
2.796211
2.553578
2.399786
2.496150
2.761103
3.111261
3.500643
3.855216
4.163292
4.348237
4.282765
4.015195
3.738532
3.486807
3.226510
3.032454
2.865153
2.628755
2.288709
1.850730
1.389892
1.082058
1.131404
1.500784
1.953809
2.319813
2.511252
2.518256
2.466812
2.451216
2.495627
2.643165
2.852529
3.102416
3.328144
3.367100
3.194344
2.798708
2.213181
1.664542
1.285011
1.051730
0.972231
1.027292
1.117941
1.068316
0.766715
0.300682
-0.200420
-0.621514
-0.867523
-0.940268
-0.865984
-0.639217
-0.354001
-0.100997
0.112782
0.259282
0.352009
0.405771
0.484211
0.731760
1.211542
1.785100
2.270337
2.599193
2.792710
2.919467
2.931667
2.920747
3.037113
3.129321
3.151392
3.149304
2.991355
2.555714
1.851993
1.051119
0.386883
0.009690
-0.031883
0.208913
0.574656
0.949491
1.283543
1.460695
1.367169
0.976728
0.416918
-0.053011
-0.212259
-0.047576
0.332715
0.835096
1.248637
1.418515
1.340056
1.088850
0.838944
0.636575
0.546686
0.788779
1.303630
1.741069
1.940301
1.840801
1.466206
0.944322
0.231249
-0.564949
-1.248408
-1.738081
-1.939151
-1.979424
-2.030608
-2.113484
-2.246495
-2.443928
-2.658766
-2.797232
-2.826596
-2.709450
-2.409168
-2.008356
-1.582346
-1.303365
-1.352991
-1.702648
-2.266095
-2.810058
-3.177380
-3.443132
-3.681349
-3.912812
-4.103492
-4.337552
-4.721239
-5.297154
-5.934375
-6.377549
-6.532120
-6.372633
-5.950260
-5.309422
