EVENT_NAME: 202302060117
EVENT_ID: 13194
EVENT_DATE_YYYYMMDD: 2023/02/06
EVENT_TIME_HHMMSS: 01:17:32.00000
EVENT_LATITUDE_DEGREE: 37.288
EVENT_LONGITUDE_DEGREE: 37.043
EVENT_DEPTH_KM: 8.6
HYPOCENTER_REFERENCE: AFAD
MAGNITUDE_W: 7.7
MAGNITUDE_W_REFERENCE: AFAD
MAGNITUDE_L: 
MAGNITUDE_L_REFERENCE: 
FOCAL_MECHANISM: 
NETWORK: TK
STATION_CODE: 6901
STATION_NAME: 
STATION_LATITUDE_DEGREE: 40.2623
STATION_LONGITUDE_DEGREE: 40.2101
STATION_ELEVATION_M: 1614.0
LOCATION: Kahramanmaras_Pazarck_Turkiye
SENSOR_DEPTH_M: 
VS30_M/S: 519
SITE_CLASSIFICATION_EC8: B
MORPHOLOGIC_CLASSIFICATION: 
EPICENTRAL_DISTANCE_KM: 429.77
EARTHQUAKE_BACKAZIMUTH_DEGREE: 
DATE_TIME_FIRST_SAMPLE_YYYYMMDD_HHMMSS: 2023/02/06 01:18:06.6399770
DATE_TIME_FIRST_SAMPLE_PRECISION: millisecond
SAMPLING_INTERVAL_S: 0.01
NDATA: 18236
DURATION_S: 
STREAM: HNE
UNITS: cm/s^2
INSTRUMENT: sensor = CMG-5T/GURALP | digitizer = 
INSTRUMENT_ANALOG/DIGITAL: 
INSTRUMENTAL_FREQUENCY_HZ: 
INSTRUMENTAL_DAMPING: 
FULL_SCALE_G: 
N_BIT_DIGITAL_CONVERTER: 
PGA_CM/S^2: 13.691
TIME_PGA_S: 
BASELINE_CORRECTION: BASELINE REMOVED
FILTER_TYPE: BUTTERWORTH
FILTER_ORDER: 
LOW_CUT_FREQUENCY_HZ: 
HIGH_CUT_FREQUENCY_HZ: 
LATE/NORMAL_TRIGGERED: 
DATABASE_VERSION: 
HEADER_FORMAT: DYNA 1.2
DATA_TYPE: Acceleration
PROCESSING: Automatic Paolucci et al., 2011
DATA_TIMESTAMP_YYYYMMDD_HHMMSS: 
DATA_LICENSE: U (unknown license)
DATA_CITATION: Turkish Accelerometric Archive v 1.0 - Disaster And Emergency Management Presidency, Earthquake Department
DATA_CREATOR: AFAD
ORIGINAL_DATA_MEDIATOR_CITATION: : AFAD - Disaster And Emergency Management Presidency
ORIGINAL_DATA_MEDIATOR: AFAD PROCESS SERVICE
ORIGINAL_DATA_CREATOR_CITATION: AFAD PROCESS SERVICE
ORIGINAL_DATA_CREATOR: network: TK
USER1: GuestUser
USER2: 
USER3: 
USER4: 
USER5: 
[...]
-0.868759
-0.838915
-0.797447
-0.754722
-0.708542
-0.670844
-0.632832
-0.599532
-0.561833
-0.520680
-0.477641
-0.436173
-0.397847
-0.356064
-0.315225
-0.278469
-0.245797
-0.213754
-0.182967
-0.152494
-0.125477
-0.099717
-0.077726
-0.053223
-0.027148
-0.000445
0.027200
0.053903
0.065841
0.073066
0.068983
0.061757
0.039767
0.014007
-0.019922
-0.058248
-0.097202
-0.140555
-0.181709
-0.228831
-0.269670
-0.310824
-0.353862
-0.391560
-0.427373
-0.460045
-0.490203
-0.515963
-0.534812
-0.548321
-0.548007
-0.538896
-0.514706
-0.483920
-0.434912
-0.384020
-0.324959
-0.267470
-0.198985
-0.128615
-0.054790
0.016523
0.082494
0.148152
0.205641
0.268157
0.322506
0.366801
0.396017
0.420835
0.437171
0.455706
0.465444
0.467958
0.449423
0.424605
0.386593
0.333188
0.267216
0.202501
0.131504
0.075585
0.024064
-0.025571
-0.079919
-0.133639
-0.171651
-0.208720
-0.235423
-0.264011
-0.277833
-0.292284
-0.295425
-0.297939
-0.288828
-0.282545
-0.264010
-0.249873
-0.234480
-0.225055
-0.222228
-0.217829
-0.212803
-0.206520
-0.206206
-0.206205
-0.205263
-0.197409
-0.196152
-0.198037
-0.203063
-0.211545
-0.229452
-0.241389
-0.266521
-0.289768
-0.312701
-0.326524
-0.346943
-0.359509
-0.367991
-0.371761
-0.373646
-0.372703
-0.363907
-0.357938
-0.344744
-0.328722
-0.302333
-0.282856
-0.264321
-0.253639
-0.230706
-0.201490
-0.173845
-0.150284
-0.120753
-0.085568
-0.052897
-0.018026
0.012761
0.048574
0.082188
0.115174
0.132767
0.146589
0.178947
0.203765
0.222300
0.233924
0.249003
0.259056
0.260312
0.256229
0.235809
0.220416
0.217903
0.205965
0.185545
0.162927
0.142193
0.117375
0.078421
0.037895
-0.002316
-0.028704
-0.045354
-0.066088
-0.091534
-0.111954
-0.127347
-0.133316
-0.149652
-0.173841
-0.201800
-0.232587
-0.254263
-0.265573
-0.274997
-0.287877
-0.289762
-0.280965
-0.269028
-0.249236
-0.231015
-0.212480
-0.192060
-0.159389
-0.123261
-0.094359
-0.070484
-0.061373
-0.048807
-0.023047
0.016536
0.042297
0.072455
0.103242
0.127432
0.153192
0.177696
0.200629
0.223562
0.250893
0.278224
0.303356
0.330688
0.343254
0.348594
0.356134
0.369014
0.377497
0.378439
0.369643
0.366502
0.379068
0.390691
0.405142
0.403258
0.418337
0.426819
0.437500
0.442841
0.440956
0.437501
0.437187
0.427134
0.413311
0.402944
0.380326
0.356136
0.333518
0.298333
0.249011
0.200632
0.153196
0.111100
0.062406
0.007116
-0.057599
-0.101580
-0.156242
-0.208391
-0.258969
-0.299494
-0.327139
-0.340019
-0.364209
-0.386513
-0.405048
-0.424211
-0.428923
-0.433321
-0.435206
-0.436777
-0.429237
-0.433321
-0.426409
-0.403790
-0.362008
-0.335934
-0.311116
-0.287240
-0.248600
-0.200535
-0.163779
-0.126395
-0.094037
-0.063250
-0.038118
-0.019898
-0.006703
0.009633
0.031309
0.049216
0.076861
0.105135
0.116759
0.128696
0.122413
0.117387
0.118330
0.122100
0.116131
0.099167
0.084088
0.057385
0.016860
-0.037802
-0.092464
-0.134560
-0.172258
-0.200218
-0.216553
-0.234146
-0.256764
-0.260848
-0.255508
-0.240428
-0.232574
-0.228176
-0.231318
-0.228804
-0.212782
-0.213725
-0.217180
-0.214353
-0.194561
-0.181681
-0.171314
-0.158434
-0.155920
-0.160318
-0.153721
-0.139270
-0.125447
-0.121992
-0.120421
-0.128903
-0.126390
-0.108483
-0.088377
-0.094346
-0.106283
-0.088063
-0.062302
-0.042825
-0.040312
-0.035599
-0.021462
-0.005441
-0.004812
-0.012666
-0.032457
-0.034342
-0.028059
-0.026174
-0.026802
-0.024917
-0.026174
-0.047850
-0.064186
-0.064500
-0.071725
-0.079264
-0.073610
-0.064813
-0.061358
-0.059787
-0.070468
-0.080206
-0.085547
-0.088060
-0.104396
-0.135810
-0.157487
-0.179477
-0.192357
-0.208693
-0.222201
-0.227542
-0.221573
-0.226599
-0.220630
-0.218745
-0.221258
-0.236337
-0.257699
-0.260841
-0.247018
-0.229740
-0.228797
-0.235080
-0.241677
-0.220001
-0.207120
-0.218744
-0.225655
-0.221257
-0.212146
-0.195496
-0.184815
-0.187642
-0.189841
-0.174448
-0.168165
-0.162196
-0.161882
-0.167222
-0.173191
-0.174133
-0.168478
-0.153399
-0.142404
-0.132351
-0.108475
-0.106904
-0.114130
-0.114758
-0.110046
-0.099364
-0.074232
-0.049728
-0.024910
0.004620
0.040747
0.076875
0.106091
0.126825
0.169549
0.228924
0.275732
0.314059
0.357097
0.394795
0.434064
0.474590
0.499408
0.520142
0.534593
0.541190
0.539934
0.546845
0.558783
0.560668
0.567893
0.590198
0.603393
0.595539
0.590513
0.584544
0.574805
0.578261
0.576690
0.569151
0.555328
0.554700
0.547161
0.538365
0.518573
0.502866
0.484959
0.464540
0.459199
0.437209
0.414276
0.393542
0.364955
0.318460
0.275736
0.236153
0.189659
0.146935
0.111436
0.081278
0.054261
0.024417
-0.005428
-0.040927
-0.071399
-0.100615
-0.123548
-0.161246
-0.188577
-0.217478
-0.263972
-0.306383
-0.358217
-0.410995
-0.461258
-0.503669
-0.552990
-0.603254
-0.657602
-0.709437
-0.765355
-0.816562
-0.864312
-0.897612
-0.903581
-0.912377
-0.925885
-0.933111
-0.917089
-0.896983
-0.886616
-0.874364
-0.878762
-0.868081
-0.839493
-0.811848
-0.804622
-0.803366
-0.803994
-0.813733
-0.821900
-0.829126
-0.828183
-0.834466
-0.835094
-0.827240
-0.813418
-0.803365
-0.794568
-0.792683
-0.786714
-0.770693
-0.764410
-0.766923
-0.760325
-0.756870
-0.742105
-0.738649
-0.731737
-0.721370
-0.705349
-0.689641
-0.676132
-0.654770
-0.649429
-0.636235
-0.625240
-0.636863
-0.652570
-0.653199
-0.658225
-0.660738
-0.682728
-0.712259
-0.739275
-0.745244
-0.758438
-0.774460
-0.791110
-0.794251
-0.791738
-0.791738
-0.800534
-0.802104
-0.792994
-0.783884
-0.766605
-0.760950
-0.752782
-0.750269
-0.732677
-0.730163
-0.710372
-0.688381
-0.662935
-0.648170
-0.633404
-0.621467
-0.601361
-0.581569
-0.574658
-0.561149
-0.547013
-0.521566
-0.507429
-0.495806
-0.489523
-0.465333
-0.436745
-0.421666
-0.409100
-0.376742
-0.345641
-0.321452
-0.295691
-0.263019
-0.238516
-0.214954
-0.192964
-0.168460
-0.138615
-0.098718
-0.061334
-0.044998
-0.029919
-0.004473
0.010292
0.024429
0.055216
0.077521
0.110821
0.140037
0.155745
0.173023
0.196899
0.222031
0.251561
0.271667
0.293029
0.310621
0.332298
0.361828
0.384761
0.394186
0.395128
0.391987
0.383191
0.393244
0.395757
0.382249
0.370625
0.355546
0.326644
0.307796
0.278266
0.238683
0.222347
0.223604
0.237741
0.258160
0.247165
0.258789
0.254705
0.151978
0.169256
0.308425
0.292718
0.255020
0.298058
0.223291
0.094803
0.003700
-0.211807
-0.467839
-0.444592
-0.390558
-0.399040
-0.400925
-0.402810
-0.361028
-0.252017
-0.186360
-0.389929
-0.504280
-0.103424
0.440999
0.408955
0.201616
0.248739
0.074700
-0.314218
-0.476634
-0.483231
-0.569622
-0.377362
-0.202066
-0.728896
-0.881259
-0.507420
-0.360712
0.022552
0.284867
-0.017345
-0.057556
0.357122
0.677556
0.884267
0.820180
0.125908
0.018469
0.361521
-0.045618
-0.608575
-1.104618
-0.944401
-0.498936
-0.100908
-0.030224
-0.653498
-0.834762
-0.206147
0.013758
-0.143946
-0.009489
0.394194
0.726879
0.646771
0.366863
-0.235048
0.028838
0.176803
-0.141431
0.069049
0.021927
-0.282485
-0.563335
-0.587210
-0.527521
-0.489509
-0.253896
0.017215
0.185286
0.113031
-0.003518
-0.259551
-0.792978
-0.819052
-0.814968
-0.732975
-0.514012
-0.691821
-1.277711
-1.354049
-0.977069
-0.901987
-1.193518
-1.428817
-1.305356
-1.549764
-1.311638
-1.188177
-1.534371
-1.460231
-1.063459
-1.327031
-1.894072
-1.618248
-1.630186
-1.963813
-1.788203
-1.807995
-1.951875
-1.601598
-1.505468
-1.663171
-1.663799
-1.617933
-1.746106
-2.034182
-2.123715
-1.888730
-1.749876
-1.685161
-1.827471
-2.202880
-2.348332
-2.201623
-2.187172
-2.171779
-1.544735
-1.062828
-1.122517
-1.327971
-1.194143
-1.041780
-0.983662
-0.896642
-0.765013
-0.510865
-0.496414
-0.364471
-0.562386
-0.737367
-0.387718
-0.264885
-0.731084
-0.992771
-0.411593
-0.104668
-0.234412
-0.130114
0.102671
0.313152
0.489391
0.392947
-0.001940
-0.096185
0.191262
0.088221
-0.368867
-0.829097
-0.732339
-0.656314
-0.998110
-1.347131
-1.430380
-0.969522
-0.451802
-0.301638
-0.416303
-0.297868
-0.720086
-1.217072
-0.916430
-0.297554
0.166446
0.138173
-0.014818
0.032619
0.037331
0.289280
0.459235
0.095763
-0.424155
-0.431381
-0.360068
-1.079158
-1.601904
-1.858251
-2.090408
-2.103288
-2.103602
-2.253137
-2.441313
-2.400159
-2.194391
-2.041400
-1.860763
-1.547241
-1.414984
-1.500747
-1.729134
-2.057106
-1.805472
-1.470274
-1.686095
-1.724107
-1.510484
-1.918566
-2.336385
-2.126847
-2.160775
-2.394817
-2.419635
-2.263502
-2.177739
-2.127161
-2.404555
-2.677237
-2.321933
-2.156376
-2.194074
-1.885578
-1.829974
-1.956262
-2.112709
-2.090090
-2.067785
-1.977310
-1.485036
-1.298745
-1.251936
-1.191934
-1.209526
-0.994961
-0.504258
-0.220581
-0.121309
-0.042457
0.267923
0.269494
0.205408
0.270437
-0.093977
-0.497346
-0.600073
-0.479125
-0.429175
-0.115025
0.120902
0.308764
0.526785
0.663754
0.748889
0.904708
1.153829
1.393840
1.250901
1.063982
0.959999
0.557572
0.684175
0.895598
0.902509
0.858529
1.055187
1.213833
1.159799
1.077806
0.871409
1.026600
1.283260
1.363369
1.415204
1.324729
1.241165
1.265354
0.957173
0.738525
0.832141
0.997070
1.057702
0.824602
0.448250
-0.047793
-0.437968
-0.439224
-0.446135
-0.525929
-0.503310
-0.393672
-0.115963
0.118393
0.180909
0.160490
0.273584
0.370342
0.288349
-0.076693
-0.384875
-0.609492
-0.866467
-0.909819
-0.913589
-1.132238
-1.493196
-1.469949
-1.214545
-1.321042
-1.509217
-1.478431
-1.607860
-1.712472
-1.565764
-1.665350
-2.017512
-2.267576
-2.420252
-2.385068
-2.389151
-2.098248
-1.915727
-2.040444
-1.861379
-1.780328
-1.705246
-1.579585
-1.385440
-1.207631
-1.121240
-1.036733
-0.972961
-1.157995
-1.534661
-1.833732
-2.057093
-2.048925
-1.799804
-1.818024
-2.204429
-2.355221
-2.142855
-1.912897
-1.874571
-1.847868
-1.683253
-1.538744
-1.663147
-1.784095
-1.780639
-1.780639
-1.893733
-2.103271
-2.214480
-2.256576
-2.181180
-2.212281
-2.249351
-2.179609
-2.112067
-2.079395
-2.044838
-2.009025
-1.968186
-1.786292
-1.753621
-1.766815
-1.490677
-1.218308
-1.420307
-1.801057
-2.019077
-2.023161
-1.978866
-2.110809
-2.070283
-1.790061
-1.591832
-1.652149
-1.703984
-1.637069
-1.732885
-1.669741
-1.419677
-1.543138
-1.641467
-1.535284
-1.698956
-2.101383
-2.364641
-2.457629
-2.428727
-2.342336
-2.385688
-2.369352
-2.200025
-1.808908
-1.509837
-1.391716
-1.095787
-0.777552
-0.691789
-0.677024
-0.531886
-0.593146
-0.622047
-0.349993
-0.293760
-0.535970
-0.614507
-0.483192
-0.439525
-0.387691
-0.243495
-0.089562
-0.101499
-0.337112
-0.602569
-0.777865
-0.816191
-0.711579
-0.706552
-0.798912
-0.851375
-1.030127
-1.171180
-1.162070
-1.181547
-1.300610
-1.373492
-1.199139
-0.962584
-0.727285
-0.579634
-0.717860
-0.733882
-0.491986
-0.188517
-0.125687
-0.445806
-0.738279
-0.872107
-0.967295
-1.023528
-0.944047
-0.817445
-0.759641
-0.865824
-0.951587
-0.802365
-0.673563
-0.696182
-0.800166
-0.790427
-0.689899
-0.616702
-0.548845
-0.453029
-0.234066
0.213598
0.485024
0.528691
0.671001
0.829333
0.959391
1.013111
0.983267
0.722208
0.466490
0.312556
0.194750
0.088253
0.048356
0.066263
-0.040548
-0.234693
-0.392396
-0.477217
-0.600678
-0.625810
-0.530936
-0.315743
-0.120970
0.055269
0.288682
0.585554
0.838131
0.938660
0.930492
0.822424
0.731635
0.599692
0.469320
0.482200
0.540946
0.418742
0.147002
0.103021
0.256012
0.310046
0.428795
0.613515
0.632050
0.572048
0.689540
0.750799
0.634564
0.464923
0.246589
0.229939
0.386700
0.495396
0.542204
0.623569
0.671949
0.755827
0.899708
1.000864
1.120242
1.162966
1.304648
1.435963
1.446016
1.377845
1.229566
1.015630
0.794468
0.908191
1.199408
1.561310
1.774618
1.751371
1.651157
1.470835
1.345489
1.177733
1.027255
1.066524
1.135009
1.156371
1.152601
1.279518
1.245904
0.951860
0.794784
0.841907
0.929555
0.878035
0.896570
1.049875
1.252188
1.474292
1.521415
1.506650
1.342349
0.987360
0.986417
1.097941
1.273237
1.545291
1.871693
2.017145
2.093169
2.246789
2.107935
2.004265
1.977877
2.016203
1.955886
1.795041
1.843735
2.011177
2.145319
2.318102
2.321558
2.231711
2.100710
2.157886
2.259671
2.173594
2.282918
2.271923
2.164798
2.177678
2.086574
1.934840
1.871068
1.810751
1.591474
1.393245
1.393874
1.331358
1.308739
1.312195
1.285492
1.291147
1.297430
1.239627
1.141612
1.000558
0.806100
0.651538
0.665046
0.673843
0.544099
0.397391
0.294978
0.246913
0.110258
0.070361
0.051826
0.136961
0.213299
0.182513
0.247228
0.379171
0.421895
0.398334
0.508601
0.603789
0.636146
0.615727
0.608815
0.729449
0.869560
1.076586
1.436916
1.784680
1.981653
2.010555
2.080296
2.280410
2.553092
2.988191
3.691259
4.387730
4.978019
5.398038
5.573020
5.595324
5.599408
5.713445
5.770935
5.914187
5.984557
5.973876
5.952828
5.880574
5.871463
5.773763
5.765909
5.662240
5.300024
4.841365
4.335898
3.926560
3.678067
3.449052
3.158149
2.925363
2.758550
2.735617
2.812584
2.942014
3.093748
3.238886
3.302973
3.161291
2.870074
2.358009
1.606876
0.521487
-0.606313
-1.523317
-2.197798
-2.514775
-2.755728
-3.081188
-3.577860
-3.939132
-4.095265
-4.415698
-5.002531
-5.545382
-6.057761
-6.580507
-6.959058
-7.210064
-7.347662
-7.393842
-7.289230
-6.914448
-6.334213
-5.757433
-4.505544
-3.078045
-1.613790
0.149221
1.702694
3.022126
3.998819
4.724820
5.201701
5.752092
6.536211
7.711133
9.267120
11.030445
12.585803
13.470451
13.690984
13.411705
12.862570
12.093216
11.377582
10.807085
10.368846
10.027993
9.460637
8.175763
6.347408
4.263964
2.112035
0.259176
-1.306234
-2.778971
-4.037771
-4.689318
-4.905139
-4.899799
-4.590989
-4.091804
-4.029602
-4.272440
-4.553919
-4.664814
-4.441139
-3.952949
-3.271871
-2.730276
-2.266904
-1.872960
-1.596193
-1.269791
-0.539391
0.432590
1.155450
1.279853
0.926434
0.339916
-0.022928
-0.053086
0.175615
0.609771
1.024764
1.413054
1.910982
2.409853
2.523261
2.398543
2.194660
2.148166
2.241154
2.254977
2.070885
1.623535
1.179641
1.110528
1.315983
1.766788
2.452893
2.999514
3.089990
2.405142
1.050212
-0.423153
-1.479954
-1.962489
-2.014323
-1.743212
-1.511997
-1.392620
-1.209784
-1.184024
-1.525819
-2.200614
-2.830171
-3.116048
-3.047249
-2.673095
-1.826775
-0.335189
1.428451
2.879197
3.906468
4.697813
5.176578
5.127885
4.780121
4.243238
3.630959
3.355764
3.352936
3.440584
3.489278
3.420165
3.387807
3.556192
4.012967
4.611737
5.157416
5.627385
6.199453
7.107347
8.076187
8.893606
9.454050
9.278754
8.403532
7.153842
5.603511
4.069201
2.697621
1.531495
0.979847
1.092313
1.376934
1.421229
1.053359
0.352804
-0.517706
-1.328842
-2.152858
-3.155626
-3.951368
-4.428562
-4.700302
-4.552652
-3.957023
-3.201177
-2.628481
-2.521670
-2.683143
-2.870062
-2.819170
-2.329409
-1.519216
-0.627657
0.555747
2.132781
3.551170
4.605773
5.228104
5.507384
5.467801
5.163704
4.611428
3.879458
3.150629
2.655843
2.651131
3.029053
3.526668
3.873490
4.114129
4.105333
3.680602
2.723700
1.321333
-0.065954
-1.246845
-2.344800
-3.430189
-4.271483
-4.761558
-4.922088
-4.936539
-4.812764
-4.671082
-4.668569
-4.596314
-4.434527
-4.353162
-4.288761
-3.953876
-3.504956
-2.890792
-2.038816
-1.162651
-0.316016
0.415640
1.231803
2.277295
3.444049
4.726097
5.784155
6.419053
6.862005
7.088507
7.053322
6.877398
6.669117
6.368789
5.834420
5.126953
4.526298
4.171623
4.069210
3.954231
3.657045
3.412636
3.186448
3.055447
3.021519
2.909996
2.731873
2.546524
2.357092
2.031632
1.521766
0.935562
0.355012
-0.108673
-0.197578
-0.003119
0.223070
0.443289
0.604134
0.467165
0.155528
-0.101447
-0.294021
-0.346484
-0.317268
-0.326064
-0.364704
-0.323551
-0.166475
-0.173072
-0.586180
-1.115837
-1.576381
-1.776495
-1.447894
-0.722521
-0.102388
0.178148
0.260142
0.161499
-0.161134
-0.613196
-1.017193
-1.330401
-1.659002
-2.101953
-2.554958
-2.758213
-2.592656
-2.251174
-1.821417
-1.341081
-0.954362
-0.525547
-0.178725
-0.243754
-0.518635
-0.730058
-0.856346
-0.867342
-0.904097
-1.153846
-1.364013
-1.387888
-1.313434
-1.163270
-0.983576
-0.780635
-0.516435
-0.233699
-0.039554
0.069456
0.225903
0.407168
0.535027
0.558588
0.431986
0.140140
-0.233384
-0.680734
-1.083475
-1.245890
-1.202223
-1.031326
-0.736024
-0.288674
0.144539
0.667600
1.125002
1.544079
2.026614
2.517317
3.031895
3.601450
4.179486
4.537303
4.706631
4.646314
4.466620
4.329022
4.171319
3.774861
3.174206
2.635124
2.126201
1.532457
0.965416
0.522464
0.272715
0.124750
-0.134738
-0.514231
-0.770264
-0.918228
-0.905348
-0.786285
-0.601250
-0.350558
-0.139449
0.081398
0.348426
0.671687
0.971701
1.442612
2.094474
2.778693
3.320603
3.717060
3.879790
3.782718
3.554959
3.295471
3.071168
2.857860
2.690104
2.541511
2.444753
2.476168
2.485592
2.473969
2.316266
1.931432
1.488166
1.005631
0.418798
-0.214528
-0.565748
-0.720624
-0.770260
-0.737588
-0.590880
-0.340502
-0.072846
0.014488
-0.157352
-0.484697
-0.877070
-1.240228
-1.520136
-1.691033
-1.800358
-1.879837
-2.018378
-2.143723
-2.160687
-2.019320
-1.779309
-1.482123
-1.215723
-1.076240
-0.918537
-0.637372
-0.273272
0.154601
0.550116
0.970135
1.487855
1.998035
2.616283
3.274428
3.725862
4.091847
4.357932
4.445266
4.449350
4.405369
4.137399
3.701673
3.285424
2.849069
2.410202
1.906305
1.434451
1.009092
0.538181
0.065699
-0.268243
-0.526474
-0.729730
-0.719362
-0.611295
-0.490975
-0.419035
-0.413066
-0.429087
-0.442281
-0.379137
-0.465842
-0.667841
-0.869525
-1.167026
-1.500967
-1.777419
-1.931667
-2.009576
-1.970936
-1.864438
-1.744747
-1.735637
-1.827683
-1.992611
-2.202150
-2.261524
-2.300164
-2.392524
-2.466978
-2.362052
-2.026225
-1.582330
-1.041678
-0.440394
0.044026
0.337128
0.549808
0.561118
0.426033
0.267701
0.196389
0.188536
0.220893
0.337757
0.270215
0.120994
0.060363
0.085809
0.133874
0.112826
0.098061
0.181311
0.234089
0.138901
-0.032939
-0.167709
-0.251587
-0.406463
-0.700194
-0.993924
-1.277287
-1.430907
-1.493109
-1.653953
-1.797520
-1.970931
-2.099418
-2.146541
-2.049782
-1.833018
-1.562535
-1.212571
-0.884598
-0.646158
-0.517671
-0.428452
-0.347087
-0.294624
-0.292110
-0.286770
-0.245302
-0.086970
0.211473
0.511487
0.781656
0.993079
1.266390
1.567346
1.781597
1.961919
2.183081
2.344868
2.342983
2.220779
2.108313
2.131561
2.099203
2.018467
1.942128
1.894063
1.759607
1.400534
0.901977
0.289384
-0.377242
-0.971929
-1.501272
-1.880137
-2.092188
-2.209680
-2.239839
-2.255232
-2.202455
-2.079936
-1.957731
-1.844009
-1.791546
-1.795630
-1.781807
-1.834270
-1.871654
-1.820761
-1.659288
-1.430901
-1.283250
-1.265343
-1.262516
-1.107011
-0.835271
-0.606255
-0.454207
-0.348024
-0.266973
-0.226447
-0.276083
-0.373470
-0.429702
-0.412738
-0.416508
-0.487192
-0.500700
-0.338284
-0.012510
0.410965
0.831926
1.104609
1.131311
1.044606
0.920203
0.777893
0.748677
0.840723
0.904496
0.955074
1.035182
1.064084
0.985547
0.822817
0.631185
0.413165
0.196087
-0.040153
-0.400484
-0.850661
-1.337280
-1.798766
-2.161924
-2.408846
-2.553355
-2.610844
-2.620269
-2.574403
-2.494608
-2.477016
-2.344759
-2.125167
-1.952385
-1.918770
-1.842118
