EVENT_NAME: 202302060117
EVENT_ID: 13194
EVENT_DATE_YYYYMMDD: 2023/02/06
EVENT_TIME_HHMMSS: 01:17:32.00000
EVENT_LATITUDE_DEGREE: 37.288
EVENT_LONGITUDE_DEGREE: 37.043
EVENT_DEPTH_KM: 8.6
HYPOCENTER_REFERENCE: AFAD
MAGNITUDE_W: 7.7
MAGNITUDE_W_REFERENCE: AFAD
MAGNITUDE_L: 
MAGNITUDE_L_REFERENCE: 
FOCAL_MECHANISM: 
NETWORK: TK
STATION_CODE: 6302
STATION_NAME: 
STATION_LATITUDE_DEGREE: 37.2342
STATION_LONGITUDE_DEGREE: 39.7509
STATION_ELEVATION_M: 550.0
LOCATION: Kahramanmaras_Pazarck_Turkiye
SENSOR_DEPTH_M: 
VS30_M/S: 936
SITE_CLASSIFICATION_EC8: A
MORPHOLOGIC_CLASSIFICATION: 
EPICENTRAL_DISTANCE_KM: 239.71
EARTHQUAKE_BACKAZIMUTH_DEGREE: 
DATE_TIME_FIRST_SAMPLE_YYYYMMDD_HHMMSS: 2023/02/06 01:17:53.3258450
DATE_TIME_FIRST_SAMPLE_PRECISION: millisecond
SAMPLING_INTERVAL_S: 0.01
NDATA: 14501
DURATION_S: 
STREAM: HNZ
UNITS: cm/s^2
INSTRUMENT: sensor = CMG-5T/GURALP | digitizer = 
INSTRUMENT_ANALOG/DIGITAL: 
INSTRUMENTAL_FREQUENCY_HZ: 
INSTRUMENTAL_DAMPING: 
FULL_SCALE_G: 
N_BIT_DIGITAL_CONVERTER: 
PGA_CM/S^2: 29.551
TIME_PGA_S: 
BASELINE_CORRECTION: BASELINE REMOVED
FILTER_TYPE: BUTTERWORTH
FILTER_ORDER: 
LOW_CUT_FREQUENCY_HZ: 
HIGH_CUT_FREQUENCY_HZ: 
LATE/NORMAL_TRIGGERED: 
DATABASE_VERSION: 
HEADER_FORMAT: DYNA 1.2
DATA_TYPE: Acceleration
PROCESSING: Automatic Paolucci et al., 2011
DATA_TIMESTAMP_YYYYMMDD_HHMMSS: 
DATA_LICENSE: U (unknown license)
DATA_CITATION: Turkish Accelerometric Archive v 1.0 - Disaster And Emergency Management Presidency, Earthquake Department
DATA_CREATOR: AFAD
ORIGINAL_DATA_MEDIATOR_CITATION: : AFAD - Disaster And Emergency Management Presidency
ORIGINAL_DATA_MEDIATOR: AFAD PROCESS SERVICE
ORIGINAL_DATA_CREATOR_CITATION: AFAD PROCESS SERVICE
ORIGINAL_DATA_CREATOR: network: TK
USER1: GuestUser
USER2: 
USER3: 
USER4: 
USER5: 
[...]
10.672092
14.067210
12.440530
7.047658
3.381640
2.623426
2.148716
0.982572
1.169371
2.825665
3.111375
2.679821
3.453473
4.113409
1.887905
-0.875626
-4.218135
-8.970288
-11.422910
-9.676840
-7.356517
-6.426307
-5.051627
-2.157366
2.331446
8.908737
14.552356
14.566848
10.570390
4.444818
-1.122566
-3.303654
-4.435148
-5.726979
-6.135853
-6.761450
-8.134237
-8.358519
-7.942396
-8.410491
-8.027760
-5.672786
-3.348368
-1.553472
-0.214072
-0.120829
-0.221944
0.954284
2.086725
4.199776
9.358602
14.399303
18.574056
20.946985
21.009357
18.663837
14.355525
8.604178
1.835683
-2.946396
-3.640664
-0.252476
4.337138
10.572964
17.361623
21.915327
23.434594
22.520453
19.931119
15.606427
10.228675
4.366762
-1.239997
-6.170758
-10.623972
-14.161468
-15.878240
-16.183478
-16.518956
-16.576915
-14.517415
-10.598761
-5.374728
-0.144080
3.952867
8.038474
11.970989
15.952015
18.980468
18.174688
14.216661
10.589703
9.478055
9.545152
9.192034
9.656982
9.767550
7.361234
5.651392
3.464319
1.427818
2.993705
4.463832
5.375771
7.285958
8.251448
7.937390
4.386979
-1.904285
-4.576465
-4.387776
-4.678208
-2.348435
1.592900
4.215942
7.324091
9.742696
10.121962
6.832689
2.687864
0.689479
-0.060860
0.817373
1.873269
2.084954
4.232655
7.009419
6.612515
5.912262
5.624665
3.484212
-1.452218
-6.467715
-11.780261
-18.799185
-24.723469
-26.291558
-23.336187
-18.464014
-13.646652
-8.316148
-4.133519
-4.010351
-4.722259
-4.765098
-4.861488
-3.899463
-1.152309
0.469964
2.084363
4.355230
3.991717
2.522853
0.632199
-1.461948
-0.375181
2.531050
1.792996
-0.042847
0.623073
1.629199
-0.820273
-5.285772
-6.333160
-5.952318
-6.158959
-3.352585
0.329502
-1.940417
-7.687354
-11.557180
-12.086071
-9.044703
-3.053320
1.908314
2.136064
3.365842
6.592433
7.093606
5.784135
6.585507
7.566747
6.464234
5.925578
6.709310
5.927786
3.936961
3.063140
2.525114
3.417208
5.076337
5.579086
3.047713
0.256461
-0.802581
-2.548964
-4.499469
-3.545004
-0.468671
2.936527
6.270219
7.685535
7.016782
4.214821
2.562310
4.000936
4.928940
2.908504
0.993595
0.169545
-1.031880
-2.167154
-2.566892
-2.875910
-4.230742
-5.647630
-5.274033
-3.413931
-3.944397
-5.911282
-7.648214
-8.190650
-4.484938
-1.229997
-3.357219
-7.863039
-10.340231
-10.765486
-8.814032
-2.912426
0.889678
2.309404
6.346185
9.643966
11.384997
13.301484
15.040309
15.489507
15.489194
15.572356
13.951661
13.713834
15.088514
12.628963
6.629393
1.343937
-2.368702
-6.462496
-9.895411
-11.033835
-11.846859
-13.835480
-14.464227
-13.448652
-12.777691
-8.056405
-0.148851
5.133772
6.906933
6.871969
6.004764
5.003367
4.754200
2.892841
-0.161754
-2.799598
-5.569429
-7.479299
-5.553676
-1.844814
-2.091461
-2.663822
1.462106
5.727895
8.096099
11.285204
13.396049
13.688690
14.238689
12.764155
7.818590
3.335135
0.947404
0.026018
0.139422
1.127592
1.398812
-1.167212
-4.518541
-6.307133
-7.215919
-9.001047
-11.609596
-12.850396
-12.440889
-13.102081
-14.215935
-12.985527
-9.883678
-7.150699
-5.040799
-2.579354
-1.573859
-2.978146
-3.394895
-1.713086
-0.620020
-0.950142
-0.461884
1.173305
2.318032
3.427793
4.720572
5.599751
6.386633
7.898340
8.525200
8.070336
8.899429
10.701885
11.976394
12.260529
12.560415
13.452193
14.242856
13.290599
10.106222
8.689020
9.898953
8.900076
5.118766
0.792184
-5.258102
-11.122535
-11.785933
-9.394734
-7.195372
-4.704002
-3.343812
-4.300793
-4.068633
0.463020
4.672739
4.386716
1.873299
-0.971504
-5.458738
-10.268852
-11.147712
-8.467339
-6.519036
-8.403075
-10.981069
-9.987859
-7.174554
-6.777017
-10.008329
-11.843858
-10.638650
-9.431867
-8.326830
-7.959849
-9.640710
-11.365042
-9.991622
-7.232498
-5.937828
-5.428150
-4.925402
-5.722361
-8.176558
-8.856335
-8.265701
-8.708910
-8.322713
-6.720285
-4.987760
-4.880972
-6.517103
-8.094643
-8.897587
-6.801862
-1.219354
3.814101
6.377292
8.328115
9.248244
8.399624
7.395707
7.879555
8.915921
8.525632
9.383390
10.266034
9.314723
9.801721
8.494455
3.922169
0.144639
-0.223914
-0.987168
-2.537933
-0.176659
0.362000
-2.329080
-3.660602
-3.016101
-0.954397
2.226203
6.321260
9.760479
12.464792
12.725617
10.050917
6.466800
1.363732
-4.860121
-10.922377
-14.916630
-16.634346
-16.936749
-15.593254
-13.421613
-11.657272
-12.541803
-14.629020
-15.803984
-18.659181
-23.016634
-25.355539
-25.522805
-24.032518
-19.848945
-14.769184
-13.209281
-14.544268
-15.615596
-15.983519
-15.570862
-14.735784
-14.517485
-12.875681
-7.771035
-2.852557
1.302667
6.047578
8.743071
7.594882
4.445470
0.078568
-4.096813
-4.752965
-4.451819
-5.896742
-6.537460
-5.570710
-4.804618
-6.065893
-6.605494
-3.187066
0.267587
1.837255
3.688537
5.416337
5.731658
6.322923
6.872922
5.807894
3.845733
2.539412
3.221083
4.291469
5.353665
7.695094
9.695057
8.744061
3.741165
-2.090193
-6.213913
-9.975377
-11.886192
-11.769639
-12.746780
-14.985829
-14.358024
-10.128460
-6.615531
-5.437728
-3.914051
-2.810589
-4.081945
-7.125200
-12.810396
-18.223743
-20.413966
-19.926338
-18.004180
-14.758689
-8.770141
-2.599836
1.452696
6.196662
12.198125
16.630552
18.951820
21.818991
23.572306
22.524603
22.807794
24.310681
24.680182
24.587573
25.179152
25.210654
24.994878
23.001217
18.560288
14.939631
12.228705
11.072011
11.347011
11.305432
9.931385
9.958477
13.130572
16.507734
17.440464
16.308340
12.570186
5.911627
-1.417262
-6.643181
-8.438074
-9.641704
-10.382277
-8.026044
-4.095734
-2.699318
-1.171231
2.197742
1.900379
-2.765778
-7.185916
-9.820296
-12.546971
-15.494780
-16.867882
-16.113130
-13.717206
-10.529991
-6.840344
-3.512637
-1.112933
1.886224
5.599181
8.336570
8.986425
8.198286
6.947406
5.878598
3.140267
-1.409968
-5.658429
-7.925199
-6.772281
-3.139965
-0.338946
0.212943
0.957930
2.435302
3.551678
5.108116
7.879840
9.859644
10.280176
9.929578
8.113265
4.178548
-0.177330
-3.005122
-3.396041
-1.483333
1.095924
1.497871
-1.797073
-5.596653
-6.605295
-4.301352
-1.441112
-0.760701
-0.847010
-0.669346
-3.206704
-8.570911
-14.262407
-19.719854
-23.190255
-22.905489
-18.989985
-14.451086
-11.408773
-8.417176
-4.651298
-1.573390
0.332072
3.210268
8.366575
13.284738
16.822553
20.452664
22.027372
18.522951
12.369659
7.936290
5.165199
1.451615
-1.050463
-0.444393
-0.500147
-5.038412
-12.141442
-14.741801
-12.707502
-8.880198
-4.634569
-1.572096
0.091128
1.007477
3.143208
8.047826
12.829593
13.869424
12.256603
8.800693
4.555697
1.584263
1.251305
3.146057
6.694582
8.872523
8.307092
8.838191
11.607080
13.702175
13.579955
12.000525
10.343289
11.453366
15.885163
20.840181
22.984732
22.639174
22.070593
21.388610
20.121980
18.923075
18.568381
17.378927
14.743603
11.575921
9.330572
10.636581
13.953893
17.001876
20.342498
22.746297
21.713715
19.730764
20.359830
20.043882
16.161141
11.499079
6.851507
1.669058
-2.242349
-5.358369
-8.877596
-11.619076
-12.097251
-9.294342
-4.508480
1.823738
8.830065
11.902303
9.110106
3.117467
-2.643330
-5.923783
-6.029308
-4.301823
-2.978489
-2.165461
-0.491842
2.312328
4.265041
3.476272
-0.615317
-4.058942
-3.458543
-2.854363
-2.810891
-1.019460
0.903328
1.642329
2.261629
4.596443
8.406736
11.968806
14.264559
15.333055
16.595909
18.123366
17.914205
16.302329
14.586503
11.658539
7.647906
3.991338
0.221369
-3.644362
-6.750303
-8.579531
-8.975805
-8.878467
-8.022914
-6.350870
-5.120462
-5.969397
-9.912619
-15.206894
-19.701374
-22.357173
-24.006849
-24.888230
-24.855468
-25.519180
-26.229198
-24.737966
-21.551696
-17.816689
-13.882284
-9.556014
-2.977148
5.205720
9.824945
8.429477
3.909167
-1.339433
-5.844937
-6.088749
-1.191376
3.954536
6.125862
7.635994
10.114449
11.333202
8.815690
3.084188
-3.259682
-9.558821
-14.173317
-15.082418
-13.074579
-10.467287
-9.169783
-9.004089
-8.660418
-7.525141
-6.003983
-4.494796
-3.116021
-2.289763
-2.431198
-3.155077
-5.596988
-10.411827
-16.216410
-20.147977
-19.287698
-14.048861
-9.468697
-8.982959
-10.459697
-11.054739
-12.223403
-15.341314
-17.875837
-17.174006
-13.067293
-7.759784
-3.476670
-0.814567
0.796997
3.122360
6.838152
9.071849
9.496476
8.496024
4.779290
-1.761457
-7.635971
-11.778275
-14.718524
-16.434036
-15.565882
-11.396169
-7.940885
-4.478987
0.306560
2.718549
0.966497
-0.773270
-2.538238
-4.628919
-3.846447
-0.952186
0.137730
-1.294908
-2.618554
-3.417404
-3.477883
-3.255803
-3.862815
-3.662786
-1.375538
1.718436
5.531564
9.299017
11.706911
12.090273
9.819093
4.554113
-1.808657
-6.824468
-9.944269
-11.653796
-13.453099
-16.173789
-18.163985
-19.051980
-19.418644
-17.026815
-12.974913
-10.486377
-8.544374
-4.999630
-0.355520
3.170640
6.116561
9.397017
11.125132
10.790599
10.701455
12.470520
13.555397
12.238365
11.622218
10.962916
7.744519
4.149692
2.007664
2.435126
4.878301
9.129285
13.605183
17.266164
19.217302
18.866704
16.713336
10.124393
1.263639
-7.037037
-13.990125
-18.793309
-20.949511
-19.787144
-18.281422
-18.054302
-17.672201
-17.699289
-17.898056
-15.833831
-11.645532
-10.302668
-11.378091
-11.291778
-11.376513
-12.693229
-12.910265
-9.324570
-4.885528
-1.520966
1.513157
2.664499
2.963125
4.736286
7.022273
8.306547
7.977684
6.501891
5.754702
6.586000
7.260741
5.782427
3.704661
3.373908
3.996358
4.255608
4.563053
5.578944
6.767457
7.190194
5.316550
2.784232
0.554948
-2.378370
-4.469052
-6.028637
-8.271151
-9.198207
-7.539707
-5.608730
-2.937492
1.649917
7.225180
10.498391
9.336341
6.845289
5.231839
3.715725
1.969657
1.484237
3.345599
5.427464
7.280006
10.302159
12.601376
13.427634
13.815721
13.467643
12.620283
12.963324
13.826752
14.228069
15.351061
17.824476
19.910121
20.673378
20.387986
17.114778
10.939751
5.572709
3.268769
3.564875
4.687552
5.917645
6.900460
6.636488
4.364679
0.188038
-2.781505
-3.692181
-3.827002
-5.710096
-9.306498
-10.488707
-8.988341
-7.094218
-4.828391
-1.757413
1.807493
7.206038
12.186257
13.124971
10.796146
6.993101
2.312769
-1.753620
-3.392901
-3.415264
-3.558905
-2.399373
0.796032
4.001203
5.805234
6.190801
5.085767
2.068658
-1.303462
-3.035984
-4.179133
-6.722161
-9.046576
-9.262037
-6.169324
-1.000417
3.599907
5.878335
5.348184
4.468379
6.662385
10.613486
13.808891
16.594790
19.570637
23.055531
26.634611
29.070541
28.247121
25.930266
22.383635
18.533339
15.273676
13.198429
12.217508
9.588168
5.580370
1.564067
-1.230964
-3.220845
-5.276561
-7.680987
-9.821755
-11.125556
-11.786433
-10.555395
-6.647765
-5.583679
-8.329255
-9.307657
-7.727594
-7.921005
-10.672566
-13.438302
-14.687922
-12.945002
-9.426402
-5.995374
-3.531724
-2.225715
-2.081441
-2.060965
0.699105
4.204474
4.365443
1.635617
-3.627788
-8.162273
-10.620250
-12.597530
-13.795175
-13.067829
-11.662593
-11.900420
-12.584292
-11.802450
-11.862614
-15.157243
-16.198960
-13.321080
-11.408687
-9.947696
-6.145277
-2.731889
-3.514673
-8.409523
-10.442560
-11.381271
-14.915932
-14.290017
-9.410284
-6.959234
-7.867705
-9.406500
-12.769484
-15.641061
-16.850676
-16.272327
-14.812280
-13.513201
-12.804440
-9.920889
-7.093409
-7.295325
-2.749182
4.419372
8.732097
10.595034
10.939335
9.129007
6.583459
7.487523
10.918866
12.404428
13.844629
15.056452
13.915193
13.399533
14.018518
13.599879
13.511679
12.738975
10.172637
9.341342
9.189197
8.434448
7.060086
5.010669
1.244480
-2.767728
-5.259411
-6.194657
-6.452014
-5.892564
-4.634751
-4.577103
-5.387923
-5.885628
-5.027870
-3.779506
-4.840754
-7.501279
-9.900350
-14.779765
-17.806954
-15.840381
-12.843429
-11.215800
-8.920992
-4.503371
-1.794017
-0.516673
2.520285
7.999471
11.813544
14.423986
17.607421
19.508788
20.075798
19.434450
18.530075
16.422383
12.745339
10.597326
12.207000
15.080786
16.845756
18.211616
20.397748
23.083161
25.082809
25.861502
25.242835
24.132761
23.241301
22.204623
22.210295
22.976387
21.288595
18.507739
16.172929
13.288121
11.244375
9.821502
8.059370
7.662781
8.843103
8.493450
5.197877
1.154799
-1.768125
-3.181547
-4.027332
-5.075035
-5.477294
-3.335893
1.514859
5.211121
5.344055
3.342834
0.608913
-1.643366
-4.447847
-8.191672
-10.077286
-9.227403
-6.454418
-3.201683
-1.395132
-1.098711
-1.122650
-0.619586
0.362914
2.453914
4.742736
2.537393
-4.197712
-11.377918
-16.083136
-17.998360
-18.434640
-18.600645
-18.592454
-18.945257
-20.260398
-21.261795
-21.335505
-21.050424
-19.396335
-15.119835
-10.761435
-7.603200
-4.187607
-0.035849
2.223048
0.352869
-4.221936
-6.135271
-3.406387
0.415876
4.532039
9.247655
10.298195
7.549155
5.483673
2.643596
-0.676233
-2.076110
-3.793827
-6.269444
-6.224082
-2.909605
1.871531
4.899984
7.269448
8.956612
7.186290
6.072751
8.076495
9.239808
8.372287
5.312967
3.181650
2.038816
-2.672387
-4.202046
-1.819667
-0.683445
-0.040835
2.021500
2.854373
0.128327
-2.452186
-3.271196
-3.037146
-2.247114
-0.572234
-0.471116
-2.483992
-4.748872
-5.615762
-2.908298
1.283150
5.032018
9.344743
11.630416
10.458601
9.751103
10.150845
8.734272
4.604883
0.905789
-0.763417
-1.723234
-1.621486
0.282402
2.595795
3.620820
4.525199
6.370496
8.051360
7.798098
5.579525
2.878680
1.228689
3.025790
7.218183
8.076886
4.924640
-0.209928
-6.691770
-13.468770
-19.661123
-24.676620
-28.199311
-29.550678
-28.363425
-24.783085
-21.435218
-18.203902
-14.932266
-11.332396
-6.896819
-5.360856
-6.311223
-5.466695
-2.382171
-0.566800
-0.415596
1.148087
2.787370
2.243675
1.740929
2.527496
3.885797
3.450462
1.085097
-1.539203
-5.027243
-8.305491
-8.844777
-6.470588
-3.368425
-1.328455
-0.831692
-1.581401
-2.153447
-0.632605
2.203380
3.472534
2.678410
0.847292
-1.370022
-2.490491
-2.286996
-3.015285
-5.251183
-7.599224
-9.325761
-11.025207
-12.525571
-13.519408
-14.079799
-13.392458
-12.849389
-12.244895
-10.389203
-8.211262
-8.405618
-9.961737
-9.895270
-8.191725
-4.878508
-2.019843
-0.777780
-0.455529
0.691718
2.818944
4.347346
5.040357
3.071897
-2.498637
-7.703451
-11.157787
-13.116167
-12.727450
-10.344126
-6.664244
-3.372133
-0.487952
1.788900
2.811091
2.545229
2.342052
3.008288
3.099641
2.332607
0.166009
-3.670427
-6.977655
-8.203020
-9.141731
-11.756580
-13.596834
-13.103851
-12.827590
-13.157713
-12.710090
-10.816283
-8.775054
-7.661197
-5.236923
-0.411370
4.006881
6.395875
7.654004
6.932961
4.528535
2.041262
0.369221
-0.106749
0.293623
0.331740
-0.175100
1.284631
4.790316
7.605825
9.385286
11.998878
14.064048
13.721325
11.385885
7.894694
4.477844
1.634617
-0.387709
-1.310355
-1.831371
-2.255680
-2.473346
-2.314583
-2.721567
-4.679002
-6.011153
-6.493423
-7.105160
-7.442843
-6.315126
-3.721694
-1.852142
0.762080
5.307908
8.855803
10.530052
11.001930
8.708386
2.848362
-2.810373
-6.875817
-11.200509
-13.869224
-12.978390
-10.188396
-8.885221
-8.894670
-7.272711
-3.783407
-0.935767
-0.630841
-3.498639
-8.086675
-11.958706
-13.800849
-13.808408
-13.210843
-12.744635
-13.459063
-13.788556
-12.583978
-10.529519
-7.537921
-3.818349
-0.479617
1.497981
2.385665
2.957714
3.435892
4.755762
7.930376
11.126096
12.394935
12.301380
12.014413
11.620974
12.099782
13.653070
14.995620
13.895311
10.280954
5.859555
1.341135
-2.001373
-2.900709
-1.895844
-1.656754
-2.150364
-2.667915
-3.279337
-3.806652
-3.576697
-1.272440
2.268840
5.461410
7.420423
8.159425
7.443107
5.112077
2.489983
0.241799
-2.058046
-4.904423
-8.296073
-11.053934
-11.730562
-9.678937
-6.449512
-3.636522
-1.811385
-1.565680
-2.189387
-2.623462
-2.203875
-1.456368
-1.252243
-1.737348
-2.556043
-3.377573
-3.653830
-2.762051
-0.763662
1.861900
3.659631
3.768624
3.072466
2.878425
3.155630
3.856831
5.329793
7.267386
8.005757
7.160917
5.452651
3.001289
1.383114
1.067796
1.370831
1.282002
0.920063
1.264680
2.011241
1.989193
0.811393
-0.276630
0.253209
2.154576
3.443575
2.982411
2.223882
2.469902
2.844758
3.327976
5.005376
8.493105
12.308753
14.295487
13.414421
11.269559
9.650753
8.899470
8.437360
7.899964
6.865492
4.604708
3.670091
4.582975
4.788675
5.229997
8.634880
13.092822
14.855273
14.550035
13.979249
12.126395
9.193077
7.090425
6.817003
7.254860
7.030894
5.722683
4.157428
3.816280
3.644919
3.407722
4.173499
6.339785
8.102866
7.470654
5.945720
4.986218
4.500483
4.583016
4.713429
4.001521
3.015874
2.858689
2.140165
0.191235
-0.700540
-1.160760
-2.266108
-2.018828
-0.186762
0.996396
1.686257
4.210703
6.670258
6.372895
4.080295
1.301959
-1.838002
-4.552077
-5.646401
-6.250892
-7.579264
-9.945889
-12.281330
-13.668607
-13.686246
-12.689885
-10.887744
-8.859745
-7.985922
-7.213530
-5.814279
-4.479604
-3.120989
-2.882215
-4.182866
-6.360804
-8.417150
-8.840829
-9.060701
-9.313963
-8.600477
-8.428483
-9.397749
-8.545346
-4.942326
-2.579477
-3.106162
-3.686399
-3.906585
-5.005634
-5.203455
-3.155295
-0.020056
2.966501
5.084276
5.412197
5.896361
7.286476
7.462250
6.840433
5.802496
3.229227
-0.624534
-4.187231
-6.259327
-7.342310
-7.863326
-6.596062
-2.941381
1.152101
2.367389
1.597520
2.037268
3.648516
5.278980
8.319718
10.856449
9.861667
7.583873
5.775750
5.108887
5.247806
4.334295
2.113831
0.010549
-1.011953
-0.548580
1.349322
3.172253
4.154123
5.481868
6.359786
6.031553
5.611654
5.849169
5.309253
3.817710
3.113047
2.418779
1.319730
1.097654
1.798855
2.538802
2.890663
2.996506
3.713457
4.737223
5.414798
5.467721
4.313862
1.842970
-0.787315
-3.255372
-5.710514
-7.453746
-9.241393
-11.104642
-10.835312
-8.353392
-5.051830
-1.171921
3.165690
7.039614
9.666436
10.871959
11.682467
13.366796
14.735176
15.982280
18.334733
20.056863
19.385591
17.099606
14.873473
13.529036
12.827208
11.900467
9.009044
4.656316
0.590558
-1.346402
-0.728047
0.588987
2.602181
4.833043
7.039335
8.408345
7.839764
6.818836
5.703408
4.764067
4.037038
3.449557
3.016742
1.740032
2.077403
4.362760
5.709090
5.949125
5.859665
4.697931
1.579390
-1.792099
-3.300653
-2.723878
-1.715863
-0.810224
0.628402
1.298732
1.270699
2.746180
4.986492
6.569390
7.529210
7.326034
5.977502
4.530374
3.868551
3.780037
3.500315
2.199663
0.073386
-0.981562
-1.139377
-2.234331
-3.292113
-2.694549
-1.437050
-0.468095
1.402717
3.549787
4.238073
4.044032
4.019148
4.077426
3.627286
3.156356
3.417811
4.468667
6.432406
8.966932
11.258274
12.274165
11.913486
11.103612
10.129305
9.075302
8.236763
7.911995
6.769476
4.413560
2.499911
0.616187
-2.251296
-4.559961
-5.158467
-5.546236
-5.664046
-4.886299
-4.703595
-5.181770
-5.350610
-4.906768
-4.234862
-3.950412
-3.488614
-2.708347
-2.160868
-2.731969
-3.202899
-1.449898
1.764722
4.578342
6.081544
6.621148
5.892859
4.699310
4.689231
5.981695
7.415281
7.540024
6.486652
5.926576
6.863085
8.470238
8.749019
7.233850
5.133088
2.748507
0.892818
0.169255
0.782570
2.379328
3.384193
2.661575
0.929053
-0.935771
-2.432985
-2.738222
-2.896668
-3.638501
-3.635035
-2.869258
-2.233578
-0.993404
-0.205577
-1.523553
-3.314036
-4.006729
-4.563340
-4.740371
