EVENT_NAME: 202302060117
EVENT_ID: 13194
EVENT_DATE_YYYYMMDD: 2023/02/06
EVENT_TIME_HHMMSS: 01:17:32.00000
EVENT_LATITUDE_DEGREE: 37.288
EVENT_LONGITUDE_DEGREE: 37.043
EVENT_DEPTH_KM: 8.6
HYPOCENTER_REFERENCE: AFAD
MAGNITUDE_W: 7.7
MAGNITUDE_W_REFERENCE: AFAD
MAGNITUDE_L: 
MAGNITUDE_L_REFERENCE: 
FOCAL_MECHANISM: 
NETWORK: TK
STATION_CODE: 6802
STATION_NAME: 
STATION_LATITUDE_DEGREE: 38.3709
STATION_LONGITUDE_DEGREE: 34.027
STATION_ELEVATION_M: 980.0
LOCATION: Kahramanmaras_Pazarck_Turkiye
SENSOR_DEPTH_M: 
VS30_M/S: 214
SITE_CLASSIFICATION_EC8: C
MORPHOLOGIC_CLASSIFICATION: 
EPICENTRAL_DISTANCE_KM: 290.95
EARTHQUAKE_BACKAZIMUTH_DEGREE: 
DATE_TIME_FIRST_SAMPLE_YYYYMMDD_HHMMSS: 2023/02/06 01:17:59.6471600
DATE_TIME_FIRST_SAMPLE_PRECISION: millisecond
SAMPLING_INTERVAL_S: 0.01
NDATA: 18251
DURATION_S: 
STREAM: HNE
UNITS: cm/s^2
INSTRUMENT: sensor = CMG-5T/GURALP | digitizer = 
INSTRUMENT_ANALOG/DIGITAL: 
INSTRUMENTAL_FREQUENCY_HZ: 
INSTRUMENTAL_DAMPING: 
FULL_SCALE_G: 
N_BIT_DIGITAL_CONVERTER: 
PGA_CM/S^2: 14.623
TIME_PGA_S: 
BASELINE_CORRECTION: BASELINE REMOVED
FILTER_TYPE: BUTTERWORTH
FILTER_ORDER: 
LOW_CUT_FREQUENCY_HZ: 
HIGH_CUT_FREQUENCY_HZ: 
LATE/NORMAL_TRIGGERED: 
DATABASE_VERSION: 
HEADER_FORMAT: DYNA 1.2
DATA_TYPE: Acceleration
PROCESSING: Automatic Paolucci et al., 2011
DATA_TIMESTAMP_YYYYMMDD_HHMMSS: 
DATA_LICENSE: U (unknown license)
DATA_CITATION: Turkish Accelerometric Archive v 1.0 - Disaster And Emergency Management Presidency, Earthquake Department
DATA_CREATOR: AFAD
ORIGINAL_DATA_MEDIATOR_CITATION: : AFAD - Disaster And Emergency Management Presidency
ORIGINAL_DATA_MEDIATOR: AFAD PROCESS SERVICE
ORIGINAL_DATA_CREATOR_CITATION: AFAD PROCESS SERVICE
ORIGINAL_DATA_CREATOR: network: TK
USER1: GuestUser
USER2: 
USER3: 
USER4: 
USER5: 
[...]
1.246062
1.575090
1.883083
2.115726
2.291230
2.376943
2.369098
2.300974
2.142431
1.926121
1.667426
1.393034
1.117386
0.867483
0.659021
0.483525
0.359517
0.282602
0.255291
0.269737
0.311497
0.353884
0.401923
0.428299
0.440233
0.418260
0.354531
0.256267
0.119387
-0.046377
-0.230036
-0.398626
-0.549634
-0.657630
-0.706289
-0.692471
-0.597654
-0.427487
-0.180715
0.134185
0.491782
0.876693
1.280442
1.692353
2.089195
2.513979
2.918355
3.301383
3.680643
4.019717
4.347803
4.650458
4.931137
5.182932
5.404273
5.603010
5.791386
5.969716
6.152754
6.353061
6.580681
6.856337
7.158050
7.516276
7.916885
8.333191
8.757975
9.184328
9.592158
9.980523
10.323993
10.633555
10.869966
11.034168
11.086602
11.028210
10.948784
10.659322
10.254325
9.771782
9.191284
8.548938
7.853534
7.155932
6.462097
5.779251
5.098289
4.469757
3.879841
3.358995
2.889324
2.484327
2.130190
1.800228
1.499150
1.221933
0.950994
0.679428
0.423245
0.169888
-0.057411
-0.251117
-0.407462
-0.525819
-0.613722
-0.692835
-0.762215
-0.825630
-0.887161
-0.951204
-1.020270
-1.109743
-1.230926
-1.386329
-1.575326
-1.786613
-2.015168
-2.242781
-2.451556
-2.620774
-2.733165
-2.792499
-2.804739
-2.770201
-2.709918
-2.618867
-2.512119
-2.401290
-2.297681
-2.194386
-2.100196
-2.018251
-1.957654
-1.924371
-1.923111
-1.947910
-1.997825
-2.066263
-2.108329
-2.095453
-2.041135
-1.945375
-1.783999
-1.655274
-1.456224
-1.255603
-1.044309
-0.788118
-0.585928
-0.344808
-0.158315
0.008084
0.140890
0.207139
0.232259
0.184541
0.105743
-0.027056
-0.193762
-0.396886
-0.616336
-0.858391
-1.110178
-1.348466
-1.582986
-1.796471
-1.987979
-2.146208
-2.295646
-2.400189
-2.527651
-2.625914
-2.716329
-2.810198
-2.895903
-2.989144
-3.071396
-3.185672
-3.303401
-3.456920
-3.637754
-3.857518
-4.106480
-4.390604
-4.672217
-4.959796
-5.230106
-5.438882
-5.586436
-5.670572
-5.682499
-5.627553
-5.542154
-5.399615
-5.238239
-5.082828
-4.893510
-4.770436
-4.695083
-4.633230
-4.627262
-4.648921
-4.658963
-4.636041
-4.629758
-4.555033
-4.449855
-4.270897
-4.054893
-3.796505
-3.421013
-3.061217
-2.639260
-2.192499
-1.745111
-1.303060
-0.867288
-0.439993
-0.044093
0.338935
0.717567
1.077362
1.424285
1.751743
2.023003
2.263809
2.424557
2.572120
2.671333
2.741662
2.756108
2.791275
2.750778
2.695212
2.635251
2.444998
2.314711
2.116296
1.902183
1.667977
1.405202
1.132379
0.875569
0.611223
0.369169
0.142184
-0.051208
-0.203472
-0.332817
-0.440500
-0.499519
-0.553516
-0.572035
-0.583020
-0.583958
-0.567315
-0.562288
-0.534342
-0.530885
-0.449253
-0.497598
-0.399013
-0.388020
-0.378284
-0.256152
-0.247044
-0.139354
-0.032606
0.017631
0.088588
0.166139
0.136003
0.169914
0.135068
0.069770
0.009494
-0.092537
-0.197394
-0.273367
-0.311351
-0.306638
-0.222181
-0.094712
0.092095
0.320343
0.609184
0.913096
1.248716
1.587162
1.911795
2.230148
2.483512
2.714272
2.845509
2.969524
3.015993
3.001241
2.994652
2.886028
2.776462
2.628279
2.424841
2.223286
2.016708
1.761153
1.553006
1.340776
1.141419
0.987900
0.848508
0.739884
0.644445
0.575065
0.507569
0.493445
0.536460
0.588894
0.692503
0.801135
0.910395
1.026875
1.117612
1.215255
1.283387
1.385740
1.471139
1.541469
1.654496
1.746802
1.843504
1.896566
1.888093
1.933306
1.943984
1.868953
1.828143
1.777600
1.714185
1.655479
1.617809
1.568208
1.542467
1.518296
1.518614
1.549385
1.471215
1.589579
1.661792
1.649552
1.743114
1.798374
1.887854
1.972312
2.070269
2.150331
2.194916
2.187699
2.145947
2.052707
1.898559
1.679737
1.435170
1.135976
0.786549
0.433668
0.074823
-0.291558
-0.668299
-1.040958
-1.415816
-1.773092
-2.116867
-2.421713
-2.719652
-3.010369
-3.313645
-3.643293
-3.997115
-4.367263
-4.769435
-5.153710
-5.516951
-5.837181
-6.066363
-6.227418
-6.316577
-6.351422
-6.330070
-6.275752
-6.164294
-6.048442
-5.888007
-5.702457
-5.481743
-5.225239
-4.924153
-4.575033
-4.168145
-3.675861
-3.113252
-2.490049
-1.837021
-1.137528
-0.449023
0.233517
0.870533
1.462968
1.974403
2.436547
2.807331
3.132905
3.386583
3.611692
3.764278
3.891747
3.964902
4.020475
4.051247
4.060355
4.060045
4.027711
4.026773
3.796649
3.938246
3.936366
3.776567
3.733559
3.602330
3.507206
3.298430
3.118852
2.892495
2.662999
2.394886
2.139959
1.868392
1.617233
1.341585
1.058402
0.781185
0.487014
0.171180
-0.162236
-0.487174
-0.795473
-1.085877
-1.364978
-1.605777
-1.820832
-1.992561
-2.153302
-2.287984
-2.431457
-2.583093
-2.752939
-2.930633
-3.121199
-3.320556
-3.520541
-3.705456
-3.867139
-3.991775
-4.073713
-4.106674
-4.095682
-4.053609
-3.985163
-3.889403
-3.766015
-3.579837
-3.339030
-3.081584
-2.808754
-2.595262
-2.459002
-2.378312
-2.342204
-2.338119
-2.325243
-2.322727
-2.286619
-2.218487
-2.108913
-1.976735
-1.833882
-1.658378
-1.485072
-1.306114
-1.135633
-0.952908
-0.774579
-0.604726
-0.435815
-0.280404
-0.146027
-0.042105
0.031050
0.096356
0.150988
0.200597
0.269984
0.342511
0.433876
0.549729
0.667779
0.831667
1.000578
1.211559
1.467749
1.772602
2.116385
2.519506
2.939580
3.373469
3.817089
4.243757
4.673250
5.080138
5.469758
5.809146
6.125930
6.323411
6.515240
6.575837
6.625446
6.589659
6.486686
6.397840
6.224228
6.112150
5.953293
5.830855
5.695544
5.586606
5.459772
5.339846
5.203279
5.044422
4.869240
4.683069
4.490305
4.277762
4.074637
3.856129
3.657714
3.445485
3.249581
3.048655
2.857774
2.668150
2.481351
2.267238
2.039939
1.781245
1.491155
1.187880
0.853522
0.537374
0.232529
-0.014235
-0.205115
-0.338856
-0.394736
-0.422674
-0.418903
-0.392527
-0.358616
-0.336636
-0.341341
-0.367710
-0.432066
-0.530016
-0.632989
-0.730625
-0.831715
-0.936886
-1.045196
-1.145344
-1.244863
-1.328371
-1.386449
-1.433852
-1.457709
-1.462414
-1.438864
-1.404325
-1.357228
-1.275597
-1.163825
-1.009042
-0.773887
-0.494464
-0.160099
0.216963
0.613491
1.038275
1.479384
1.939016
2.348102
2.814327
3.292169
3.747406
4.219597
4.687078
5.126618
5.498971
5.806963
6.044002
6.202553
6.259068
6.230816
6.125332
5.954230
5.723792
5.460388
5.176578
4.889628
4.600480
4.341471
4.097847
3.864269
3.630063
3.399625
3.172954
2.964178
2.767333
2.605336
2.474735
2.381494
2.322789
2.297990
2.330017
2.365498
2.400037
2.496738
2.581824
2.682920
2.834564
2.881033
3.092956
3.267832
3.399382
3.576456
3.749763
3.931232
4.087899
4.291031
4.481291
4.674062
4.825078
4.917384
4.949411
4.918019
4.753511
4.660271
4.453693
4.163603
3.876025
3.520319
3.204485
2.853174
2.517561
2.149925
1.678684
1.162547
0.570434
-0.057157
-0.684747
-1.367279
-2.038823
-2.714448
-3.402632
-4.119071
-4.825464
-5.518670
-6.196807
-6.860816
-7.470825
-8.031229
-8.542656
-9.022060
-9.468499
-9.866903
-10.248039
-10.570466
-10.874684
-11.136204
-11.365700
-11.574162
-11.713868
-11.811190
-11.889675
-11.945869
-11.985423
-12.008652
-11.994520
-11.947109
-11.850408
-11.708183
-11.528283
-11.274605
-10.956879
-10.575736
-10.130545
-9.633552
-9.108617
-8.579287
-8.059375
-7.552964
-7.083913
-6.623652
-6.202008
-5.768120
-5.340197
-4.945239
-4.539607
-4.163800
-3.815307
-3.482198
-3.150031
-2.826655
-2.504848
-2.189007
-1.861863
-1.563917
-1.291715
-1.076025
-0.903032
-0.807273
-0.779955
-0.809149
-0.897994
-1.041153
-1.227952
-1.404390
-1.634829
-1.843605
-2.055520
-2.285016
-2.504780
-2.734277
-2.949018
-3.151828
-3.348988
-3.501879
-3.595748
-3.618977
-3.619287
-3.536399
-3.406732
-3.333577
-3.180364
-3.038767
-2.924484
-2.812399
-2.756825
-2.731391
-2.759329
-2.835616
-2.937647
-3.077039
-3.219570
-3.384393
-3.573389
-3.760502
-3.950440
-4.171774
-4.442713
-4.726523
-5.070927
-5.415331
-5.793955
-6.178545
-6.597984
-6.975981
-7.363710
-7.741707
-8.086425
-8.454375
-8.725314
-8.998136
-9.149458
-9.356036
-9.423218
-9.401866
-9.389304
-9.280672
-9.133110
-8.907373
-8.726532
-8.524970
-8.326233
-8.127810
-7.950736
-7.754825
-7.543217
-7.324073
-7.101790
-6.838378
-6.543258
-6.206068
-5.829319
-5.414268
-4.964996
-4.480247
-3.966929
-3.442936
-2.890059
-2.334357
-1.763271
-1.204115
-0.640249
-0.100245
0.426260
0.915718
1.391676
1.834355
2.262592
2.680468
3.050938
3.417012
3.784656
4.153556
4.528734
4.937820
5.348790
5.774829
6.205578
6.627850
7.033796
7.404580
7.723875
7.994507
8.226209
8.391980
8.519763
8.611127
8.622120
8.572519
8.503767
8.395456
8.335809
8.359673
8.314781
8.254506
8.214010
8.156874
8.061749
7.921416
7.787675
7.626935
7.453636
7.265267
7.079096
6.873460
6.659347
6.453397
6.260633
6.109311
5.989698
5.913411
5.895520
5.931942
6.006981
6.119380
6.226442
6.328795
6.398183
6.423303
6.400074
6.311857
6.151116
5.950189
5.704367
5.429347
5.180385
4.940214
4.753416
4.629721
4.555004
4.482485
4.423151
4.373236
4.305740
4.248290
4.173887
4.096344
4.005301
3.889770
3.784913
3.709568
3.669071
3.668133
3.712091
3.783676
3.884145
3.979905
4.055571
4.130296
4.195916
4.233281
4.235482
4.217591
4.171443
4.105203
4.012590
3.914640
3.818260
3.721880
3.618279
3.514050
3.419239
3.339185
3.281421
3.245948
3.232138
3.232142
3.261971
3.323196
3.416444
3.527588
3.662278
3.792886
3.900890
3.983150
4.015177
3.990378
3.901847
3.735141
3.504389
3.199857
2.840384
2.427224
1.993971
1.531521
1.058082
0.598771
0.156414
-0.247013
-0.644475
-1.070507
-1.508783
-1.936699
-2.333847
-2.692378
-3.103340
-3.371453
-3.664369
-4.018819
-4.292897
-4.505754
-4.717355
-4.928642
-5.029732
-5.131135
-5.172573
-5.198628
-5.195171
-5.177271
-5.185430
-5.201438
-5.263911
-5.358094
-5.491206
-5.667331
-5.865746
-6.084254
-6.303704
-6.521271
-6.727535
-6.935054
-7.091400
-7.234559
-7.351974
-7.447412
-7.519932
-7.551951
-7.564506
-7.529025
-7.453986
-7.295436
-7.113339
-6.907381
-6.636749
-6.313687
-5.981833
-5.602573
-5.209185
-4.780948
-4.352083
-3.880834
-3.376621
-2.913221
-2.468972
-2.016247
-1.590521
-1.199645
-0.836082
-0.476287
-0.120887
0.213163
0.558203
0.880637
1.206211
1.430378
1.654545
1.853596
1.971960
2.071801
2.134910
2.114821
2.106034
2.102270
2.062088
2.068057
2.087526
2.151890
2.267743
2.405886
2.584216
2.764115
2.959712
3.174775
3.398628
3.626562
3.853241
4.062652
4.258877
4.486183
4.738920
4.970308
5.155858
5.348630
5.526646
5.684882
5.819886
5.936995
5.971220
6.088642
6.113134
6.099638
6.314700
6.644042
6.747337
6.717515
6.790356
6.828034
6.872933
6.913437
7.091139
7.228341
7.299612
7.323476
7.334154
7.341379
7.325999
7.271689
7.191948
7.049731
6.817723
6.721029
6.547730
6.357163
6.224993
6.042275
5.873372
5.659259
5.454879
5.263998
5.075002
4.923366
4.786172
4.659024
4.541923
4.432985
4.314314
4.206318
4.141019
4.075720
3.994410
3.941983
3.842464
3.741374
3.605122
3.409532
3.197617
2.934214
2.648205
2.337709
2.027526
1.762866
1.512335
1.281269
1.085051
0.956020
0.900768
0.874713
0.937822
0.986174
1.095120
1.237345
1.366070
1.497307
1.602799
1.717710
1.736237
1.757590
1.681931
1.536260
1.361077
1.092022
0.854049
0.618901
0.389405
0.203548
0.103400
0.054427
0.073582
0.167458
0.297125
0.495861
0.712807
0.922846
1.117188
1.323459
1.531301
1.686712
1.836471
2.000359
2.129084
2.227355
2.308359
2.339131
2.304913
2.200998
2.058153
1.871668
1.653474
1.401059
1.158062
0.952112
0.776302
0.641305
0.524832
0.412126
0.318258
0.219680
0.117335
0.046699
-0.054076
-0.134759
-0.212302
-0.281996
-0.351690
-0.434256
-0.518078
-0.634865
-0.764838
-0.937195
-1.126506
-1.351921
-1.594603
-1.855181
-2.124236
-2.356244
-2.597671
-2.807389
-2.998583
-3.192289
-3.397611
-3.589433
-3.777802
-4.023624
-4.282946
-4.573978
-4.892323
-5.238297
-5.562922
-5.867767
-6.130229
-6.326132
-6.443861
-6.495032
-6.496912
-6.430350
-6.300369
-6.093470
-5.842617
-5.552833
-5.241073
-4.911732
-4.577367
-4.241432
-3.920254
-3.621680
-3.356071
-3.106160
-2.910563
-2.768024
-2.677601
-2.647772
-2.678849
-2.738811
-2.849005
-3.058095
-3.280998
-3.552251
-3.914550
-4.270884
-4.660183
-5.113843
-5.583828
-6.096197
-6.583136
-7.070703
-7.475386
-7.796243
-8.018833
-8.124631
-8.147546
-8.121798
-8.102329
-8.059628
-8.024147
-7.951934
-7.856174
-7.706414
-7.523061
-7.290732
-6.987134
-6.632677
-6.209777
-5.758621
-5.282663
-4.788182
-4.258851
-3.743963
-3.225307
-2.686245
-2.220647
-1.751596
-1.320847
-0.939075
-0.549769
-0.239578
0.032937
0.300744
0.503562
0.651124
0.804651
0.891934
0.976078
1.084082
1.171679
1.300090
1.428815
1.565388
1.685009
1.790501
1.894424
1.998974
2.117652
2.244494
2.393626
2.544327
2.693459
2.835684
2.970060
3.082773
3.175080
3.246665
3.300041
3.348708
3.393921
3.417157
3.446045
3.485921
3.509471
3.535219
3.516699
3.446378
3.339951
3.205582
3.029458
2.816601
2.591500
2.358550
2.161390
2.009126
1.896107
1.789052
1.722184
1.679804
1.669133
1.669137
1.660978
1.692691
1.714044
1.797559
1.894575
2.032404
2.211362
2.338517
2.434277
2.523129
2.598796
2.633963
2.626746
2.608540
2.578404
2.465071
2.323167
2.110624
1.860407
1.523538
1.101587
0.650125
0.139954
-0.381834
-0.931564
-1.497305
-2.099465
-2.730195
-3.388239
-4.059155
-4.752675
-5.487324
-6.248658
-7.010621
-7.792363
-8.571593
-9.337637
-10.105564
-10.821062
-11.478478
-12.051126
-12.519228
-12.960015
-13.351512
-13.699369
-14.043773
-14.302781
-14.501824
-14.622693
-14.614840
-14.498988
-14.258495
-13.888653
-13.401079
-12.792005
-12.077128
-11.280936
-10.415675
-9.514310
-8.612316
-7.689915
-6.789178
-5.915440
-5.087225
-4.316779
-3.593111
-2.945734
-2.365857
-1.860701
-1.427441
-1.069844
-0.764991
-0.496870
-0.234401
0.013941
0.261968
0.509682
0.757081
0.996946
1.220485
1.435233
1.621726
1.784358
1.929094
2.064412
2.185602
2.298315
2.415424
2.561102
2.720595
2.894843
3.084475
3.274735
3.469390
3.665301
3.855247
4.047391
4.231686
4.402480
4.583008
4.756628
4.907330
5.042020
5.150024
5.221923
5.259601
5.255524
5.166364
5.047066
4.862151
4.590270
4.329064
4.012602
3.658780
3.351423
3.034647
2.753034
2.520084
2.280541
2.133300
2.044141
2.016203
2.063928
2.207094
2.401436
2.644440
2.961851
3.288053
3.642197
3.981899
4.326624
4.646547
5.002261
5.344475
5.661572
6.013518
6.271278
6.608468
6.979566
7.266838
7.570749
7.854881
8.092548
8.298506
8.442614
8.506037
8.538692
8.452986
8.276548
7.999016
7.627926
7.190278
6.688897
6.124726
5.511577
4.862638
4.177594
3.543725
2.849263
2.199696
1.550756
0.909980
0.304367
-0.287747
-0.811418
-1.340113
-1.786238
-2.178363
-2.529673
-2.860891
-3.129004
-3.375140
-3.611230
-3.755645
-3.853595
-3.935847
-3.996436
-4.021549
-4.046661
-4.069576
-4.118549
-4.169720
-4.221205
-4.273317
-4.346779
-4.415531
-4.468899
-4.561198
-4.607032
-4.643446
-4.637164
-4.580020
-4.477667
-4.323198
-4.153973
-3.926353
-3.667651
-3.402984
-3.138003
-2.866115
-2.566285
-2.240397
-1.911056
-1.568842
-1.243896
-0.923659
-0.585841
-0.261209
0.076610
0.390254
0.736863
1.101367
1.457081
1.830376
2.180438
2.534268
2.865807
3.213672
3.530142
3.824634
4.036243
4.161200
4.197623
4.144254
3.970956
3.712889
3.392032
3.037896
2.664608
2.238576
1.837975
1.446164
1.103330
0.755787
0.448116
0.137305
-0.090308
-0.331735
-0.491848
-0.614914
-0.670794
-0.645988
-0.497484
-0.322608
-0.098127
0.213006
0.439056
0.764002
1.055355
1.454081
1.780911
2.239601
2.614152
2.971750
3.341277
3.648956
3.941879
4.172325
4.509829
4.805891
5.049838
5.251400
5.527369
5.734269
5.962517
6.153091
6.321688
6.441308
6.577568
6.662339
6.761552
6.879603
6.971281
7.125750
7.295917
7.517573
7.743309
7.986313
8.212678
8.409845
8.493361
8.631818
8.716903
8.738256
8.760237
8.752391
8.718802
8.647852
8.572193
8.478639
8.371898
8.231878
8.089033
7.963769
7.846354
7.754369
7.685931
7.647005
7.631939
7.644501
7.671191
7.713892
7.769466
7.782028
7.812171
7.692244
7.693818
7.677810
7.480965
7.339061
7.131227
6.915231
6.686048
6.477273
6.222660
5.973384
5.750480
5.549240
5.331987
5.122898
4.967180
4.796393
4.670187
4.535191
4.349020
4.202407
4.131771
4.040728
3.986418
3.931794
3.888472
3.854883
3.837619
3.837623
3.802150
3.781747
3.757262
3.788033
3.840781
3.918646
4.000591
4.115816
4.216913
4.325545
4.428840
4.506076
4.628836
4.728363
4.856460
4.970115
5.056771
5.128984
5.166348
5.166666
5.130565
5.027592
4.903898
4.725575
4.487916
4.215722
3.882306
3.504623
3.072313
2.603897
2.118842
1.617147
1.084371
0.564781
0.054609
-0.453364
-0.944071
-1.409347
-1.825960
-2.195794
-2.535802
-2.829032
-3.091807
-3.324443
-3.523173
-3.689250
-3.827386
-3.946685
-4.063786
-4.163620
-4.267535
-4.385264
-4.493574
-4.614443
-4.705800
-4.800610
-4.877211
-4.925870
-4.993366
-5.055839
-5.107324
-5.178902
-5.257386
-5.361929
-5.456426
-5.530515
-5.611825
-5.696903
-5.780411
-5.865175
-5.970660
-6.044749
-6.138932
-6.208312
-6.267645
-6.297781
-6.271719
-6.202645
-6.098095
-5.980044
-5.831540
-5.683350
-5.502509
-5.314761
-5.094361
-4.858892
-4.583237
-4.293767
-4.003984
-3.724875
-3.479987
-3.252053
-3.086909
-2.952533
-2.882832
-2.837932
-2.802452
-2.795227
-2.799933
-2.816254
-2.799297
-2.817189
-2.843557
-2.853600
-2.953747
-3.084348
-3.241322
-3.452923
-3.709106
-4.015835
-4.326959
-4.650956
-4.992534
-5.311194
-5.585900
-5.875362
-6.138137
-6.323367
-6.553805
-6.701360
-6.847344
-6.993329
-7.083744
-7.230671
-7.289063
-7.327361
-7.357497
-7.334889
-7.283710
-7.240381
-7.126098
-7.027512
-6.822183
-6.611516
-6.427535
-6.167891
-5.974806
-5.760685
-5.608728
-5.434480
-5.352220
-5.263053
-5.213759
-5.225371
-5.250484
-5.344980
-5.462709
-5.632240
-5.826260
-6.040059
-6.225602
-6.427785
-6.604537
-6.781917
-6.940460
-7.080480
-7.187535
-7.299926
-7.357376
-7.405721
-7.350462
-7.258783
-7.102744
-6.926612
-6.674190
-6.437778
-6.249716
-5.948944
-5.790080
-5.530750
-5.367176
-5.130765
-4.967819
-4.785408
-4.505672
-4.256702
-3.995803
-3.679019
-3.388294
-3.000871
-2.515180
-2.268095
-1.848649
-1.515540
-1.147896
-0.745089
-0.319050
0.119234
0.595820
1.105057
1.662957
2.216776
2.757408
3.404471
4.010092
4.631411
5.189939
5.794304
6.268065
6.744023
7.146515
7.397682
7.754338
8.021203
8.159974
8.353374
8.449761
8.454474
8.470490
8.422458
8.355276
8.244768
8.069899
7.852019
7.603999
7.341851
7.011576
6.641114
6.247733
5.782771
5.294576
4.755521
4.178791
3.555596
2.905402
2.272474
1.653361
1.071921
0.543541
0.064765
-0.353418
-0.730787
-1.061691
-1.361513
-1.641870
-1.894600
-2.141050
-2.362697
-2.540706
-2.683865
-2.803478
-2.908962
-3.002517
-3.090734
-3.196219
-3.306413
-3.423200
-3.536534
-3.657716
-3.775445
-3.907930
-4.049205
-4.180748
-4.282152
-4.355299
-4.382610
-4.384489
-4.333939
-4.250738
-4.138966
-4.024369
-3.975075
-3.946815
-3.953404
-3.916982
-3.919176
-3.906300
-3.865168
-3.856060
-3.845067
-3.827168
-3.781955
-3.693102
-3.607389
-3.490280
-3.329846
-3.161249
-2.965966
-2.779787
-2.568807
-2.352175
-2.110112
-1.870562
-1.622220
-1.361635
-1.086607
-0.832301
-0.583017
-0.331222
