EVENT_NAME: 202302060117
EVENT_ID: 13194
EVENT_DATE_YYYYMMDD: 2023/02/06
EVENT_TIME_HHMMSS: 01:17:32.00000
EVENT_LATITUDE_DEGREE: 37.288
EVENT_LONGITUDE_DEGREE: 37.043
EVENT_DEPTH_KM: 8.6
HYPOCENTER_REFERENCE: AFAD
MAGNITUDE_W: 7.7
MAGNITUDE_W_REFERENCE: AFAD
MAGNITUDE_L: 
MAGNITUDE_L_REFERENCE: 
FOCAL_MECHANISM: 
NETWORK: TK
STATION_CODE: 0633
STATION_NAME: 
STATION_LATITUDE_DEGREE: 39.921437
STATION_LONGITUDE_DEGREE: 33.224367
STATION_ELEVATION_M: 1099.0
LOCATION: Kahramanmaras_Pazarck_Turkiye
SENSOR_DEPTH_M: 
VS30_M/S: None
SITE_CLASSIFICATION_EC8: unknown
MORPHOLOGIC_CLASSIFICATION: 
EPICENTRAL_DISTANCE_KM: 442.47
EARTHQUAKE_BACKAZIMUTH_DEGREE: 
DATE_TIME_FIRST_SAMPLE_YYYYMMDD_HHMMSS: 2023/02/06 01:18:08.2102090
DATE_TIME_FIRST_SAMPLE_PRECISION: millisecond
SAMPLING_INTERVAL_S: 0.01
NDATA: 21001
DURATION_S: 
STREAM: HNE
UNITS: cm/s^2
INSTRUMENT: sensor = ACEBOX/SARA | digitizer = 
INSTRUMENT_ANALOG/DIGITAL: 
INSTRUMENTAL_FREQUENCY_HZ: 
INSTRUMENTAL_DAMPING: 
FULL_SCALE_G: 
N_BIT_DIGITAL_CONVERTER: 
PGA_CM/S^2: 2.914
TIME_PGA_S: 
BASELINE_CORRECTION: BASELINE REMOVED
FILTER_TYPE: BUTTERWORTH
FILTER_ORDER: 
LOW_CUT_FREQUENCY_HZ: 
HIGH_CUT_FREQUENCY_HZ: 
LATE/NORMAL_TRIGGERED: 
DATABASE_VERSION: 
HEADER_FORMAT: DYNA 1.2
DATA_TYPE: Acceleration
PROCESSING: Automatic Paolucci et al., 2011
DATA_TIMESTAMP_YYYYMMDD_HHMMSS: 
DATA_LICENSE: U (unknown license)
DATA_CITATION: Turkish Accelerometric Archive v 1.0 - Disaster And Emergency Management Presidency, Earthquake Department
DATA_CREATOR: AFAD
ORIGINAL_DATA_MEDIATOR_CITATION: : AFAD - Disaster And Emergency Management Presidency
ORIGINAL_DATA_MEDIATOR: AFAD PROCESS SERVICE
ORIGINAL_DATA_CREATOR_CITATION: AFAD PROCESS SERVICE
ORIGINAL_DATA_CREATOR: network: TK
USER1: GuestUser
USER2: 
USER3: 
USER4: 
USER5: 
[...]
0.332556
0.349156
0.352195
0.360846
0.380017
0.390304
0.401293
0.410177
0.423270
0.437298
0.435193
0.442441
0.456703
0.457404
0.454832
0.456703
0.465587
0.466522
0.464418
0.475173
0.475407
0.477745
0.492006
0.489668
0.489902
0.501592
0.502995
0.498787
0.502761
0.513282
0.509308
0.506268
0.521465
0.523803
0.527076
0.553729
0.568926
0.571965
0.585759
0.607736
0.630648
0.644910
0.651223
0.662445
0.678109
0.689332
0.697515
0.705931
0.707100
0.712478
0.726506
0.717621
0.711075
0.726506
0.723232
0.724635
0.737728
0.727908
0.730480
0.743807
0.741235
0.744976
0.751054
0.755964
0.759237
0.755964
0.764147
0.767654
0.767187
0.784488
0.794073
0.799451
0.815583
0.827506
0.838962
0.848314
0.862108
0.885021
0.891333
0.898113
0.915414
0.917518
0.927806
0.945574
0.946977
0.954692
0.968253
0.961239
0.940664
0.934352
0.930144
0.893671
0.857900
0.840599
0.805530
0.774902
0.754796
0.716921
0.689333
0.674603
0.648418
0.622934
0.607504
0.600724
0.590203
0.577344
0.577578
0.575240
0.569395
0.567291
0.562848
0.562147
0.560744
0.556302
0.552328
0.554198
0.560744
0.555601
0.557939
0.573603
0.577812
0.588800
0.603529
0.615687
0.629247
0.626442
0.628546
0.628078
0.606335
0.595347
0.573136
0.529883
0.503464
0.473305
0.424207
0.381656
0.350093
0.310582
0.261952
0.224544
0.192748
0.152535
0.114660
0.083331
0.051067
0.016699
-0.012292
-0.036607
-0.066767
-0.097862
-0.124982
-0.151401
-0.181094
-0.211020
-0.237906
-0.266663
-0.292147
-0.307578
-0.324177
-0.342881
-0.345453
-0.342647
-0.355039
-0.353870
-0.337504
-0.339374
-0.338205
-0.323242
-0.316462
-0.304071
-0.283730
-0.268300
-0.253570
-0.231827
-0.210786
-0.201434
-0.186471
-0.165663
-0.158649
-0.153973
-0.153038
-0.155375
-0.151635
-0.158181
-0.165195
-0.162623
-0.173378
-0.179223
-0.168000
-0.174547
-0.182028
-0.162389
-0.153972
-0.159350
-0.142049
-0.130827
-0.131995
-0.108850
-0.088042
-0.086639
-0.070507
-0.051803
-0.044789
-0.023513
-0.007615
-0.009252
0.007348
0.019973
0.010387
0.017635
0.029792
0.028857
0.029325
0.027221
0.032131
0.040781
0.039378
0.045691
0.065797
0.087307
0.104842
0.130559
0.156745
0.169136
0.196023
0.220805
0.223143
0.240444
0.259616
0.256810
0.254472
0.259148
0.249328
0.226650
0.218000
0.194854
0.148796
0.124715
0.089879
0.039145
0.001036
-0.052971
-0.103471
-0.139476
-0.198159
-0.252634
-0.286067
-0.330956
-0.378183
-0.419799
-0.464688
-0.492042
-0.513552
-0.548621
-0.565221
-0.567793
-0.591640
-0.617591
-0.625307
-0.638633
-0.668793
-0.689835
-0.700589
-0.721865
-0.734256
-0.735659
-0.752726
-0.770261
-0.777041
-0.793640
-0.806733
-0.802291
-0.806032
-0.815384
-0.809071
-0.798316
-0.790367
-0.785691
-0.781483
-0.768390
-0.760441
-0.757168
-0.742439
-0.725605
-0.713915
-0.702459
-0.689367
-0.679781
-0.665987
-0.650322
-0.647984
-0.628813
-0.593743
-0.581118
-0.557972
-0.512849
-0.477780
-0.439905
-0.393847
-0.351763
-0.312485
-0.280221
-0.249827
-0.219668
-0.196522
-0.172908
-0.157244
-0.146021
-0.122642
-0.109081
-0.103003
-0.085935
-0.074713
-0.062088
-0.052502
-0.045255
-0.016731
-0.007379
-0.016731
-0.004808
0.000336
-0.006678
-0.015796
-0.032629
-0.048294
-0.069336
-0.098794
-0.139007
-0.181324
-0.217563
-0.272739
-0.325577
-0.363452
-0.419330
-0.474974
-0.518460
-0.564518
-0.602159
-0.639801
-0.674636
-0.695912
-0.714616
-0.728644
-0.742438
-0.752958
-0.749919
-0.752257
-0.757634
-0.758569
-0.759505
-0.748750
-0.752491
-0.763479
-0.740567
-0.732150
-0.739866
-0.716252
-0.698951
-0.693807
-0.669025
-0.644944
-0.631617
-0.606601
-0.572934
-0.559140
-0.540203
-0.499756
-0.479181
-0.457204
-0.421200
-0.400392
-0.373037
-0.343813
-0.323472
-0.300326
-0.285831
-0.270868
-0.255203
-0.248891
-0.239539
-0.235798
-0.236032
-0.239305
-0.245384
-0.245851
-0.259178
-0.266659
-0.263386
-0.286065
-0.294247
-0.280453
-0.291909
-0.299858
-0.286064
-0.277180
-0.271569
-0.252164
-0.228784
-0.215458
-0.186467
-0.153034
-0.145786
-0.123108
-0.085466
-0.077517
-0.068867
-0.044785
-0.032394
-0.025848
-0.016963
-0.006209
0.003143
0.007819
0.017405
0.030264
0.040317
0.051072
0.063229
0.077958
0.091752
0.104611
0.115834
0.121679
0.132433
0.138278
0.129394
0.132433
0.137109
0.122380
0.114899
0.113262
0.099702
0.088479
0.080530
0.069074
0.053410
0.040317
0.033537
0.012262
-0.004572
-0.004104
-0.019535
-0.033329
-0.033563
-0.040343
-0.044317
-0.051097
-0.057410
-0.057877
-0.071438
-0.080088
-0.080088
-0.093414
-0.113755
-0.126146
-0.132692
-0.155604
-0.177581
-0.184595
-0.214288
-0.233459
-0.230419
-0.263151
-0.287700
-0.284660
-0.311313
-0.348721
-0.370698
-0.400624
-0.446916
-0.495312
-0.545812
-0.606599
-0.665984
-0.727706
-0.793637
-0.846007
-0.899313
-0.956126
-1.000547
-1.042397
-1.078402
-1.106457
-1.140124
-1.164439
-1.172388
-1.184312
-1.198106
-1.200444
-1.198573
-1.205587
-1.210030
-1.211666
-1.228733
-1.242761
-1.259594
-1.301678
-1.332539
-1.365738
-1.428864
-1.475857
-1.512797
-1.568908
-1.614732
-1.647464
-1.676689
-1.692587
-1.703809
-1.708017
-1.688145
-1.662427
-1.645827
-1.612160
-1.567038
-1.528695
-1.479130
-1.426058
-1.378597
-1.318277
-1.254918
-1.203249
-1.141994
-1.067880
-1.009431
-0.953086
-0.876634
-0.803923
-0.747110
-0.682816
-0.613144
-0.562644
-0.513313
-0.452759
-0.413014
-0.377477
-0.330717
-0.307337
-0.292608
-0.266657
-0.255434
-0.258006
-0.255668
-0.252629
-0.259643
-0.277177
-0.292140
-0.298219
-0.317157
-0.345914
-0.356201
-0.367657
-0.394310
-0.403428
-0.406935
-0.423768
-0.421664
-0.413949
-0.421898
-0.404597
-0.375372
-0.362513
-0.333990
-0.296115
-0.265721
-0.229482
-0.189503
-0.149056
-0.109077
-0.070968
-0.037769
-0.007375
0.027695
0.049204
0.060660
0.076091
0.086144
0.092223
0.085209
0.071882
0.068375
0.053646
0.022551
-0.004335
-0.022338
-0.051329
-0.095049
-0.124741
-0.154901
-0.204933
-0.237665
-0.270397
-0.323702
-0.356434
-0.389633
-0.442939
-0.472397
-0.497881
-0.541134
-0.570826
-0.592803
-0.613143
-0.636990
-0.667384
-0.680477
-0.695674
-0.725132
-0.744303
-0.759968
-0.780542
-0.804389
-0.823794
-0.835952
-0.853487
-0.862838
-0.871957
-0.888790
-0.883179
-0.873359
-0.880841
-0.876866
-0.853486
-0.834315
-0.824496
-0.798778
-0.767449
-0.748979
-0.720456
-0.687958
-0.667150
-0.639328
-0.609168
-0.599349
-0.585788
-0.556564
-0.546978
-0.543939
-0.521026
-0.508635
-0.502556
-0.483619
-0.470292
-0.459070
-0.445042
-0.440600
-0.431950
-0.424702
-0.432417
-0.430547
-0.435223
-0.460239
-0.466551
-0.480579
-0.517285
-0.533885
-0.550017
-0.591399
-0.623663
-0.635821
-0.664344
-0.710636
-0.732145
-0.749914
-0.785451
-0.806492
-0.828002
-0.855122
-0.865877
-0.885282
-0.906791
-0.917780
-0.936484
-0.944666
-0.947238
-0.960798
-0.960097
-0.961967
-0.975060
-0.966643
-0.951446
-0.957993
-0.959396
-0.937419
-0.929002
-0.929703
-0.907960
-0.891360
-0.884346
-0.863539
-0.848342
-0.837119
-0.817714
-0.795971
-0.783346
-0.774695
-0.748510
-0.728170
-0.720922
-0.695204
-0.669487
-0.651017
-0.626935
-0.603088
-0.571292
-0.546042
-0.526403
-0.491333
-0.464212
-0.437560
-0.396879
-0.373031
-0.354328
-0.316453
-0.279746
-0.260341
-0.239767
-0.208672
-0.197216
-0.187396
-0.153729
-0.150223
-0.169628
-0.162380
-0.161445
-0.175473
-0.180148
-0.194878
-0.217322
-0.227375
-0.240234
-0.265952
-0.286059
-0.297982
-0.314348
-0.335156
-0.352457
-0.361809
-0.365082
-0.377941
-0.395242
-0.395709
-0.398982
-0.412543
-0.414647
-0.419089
-0.432649
-0.439663
-0.446443
-0.457198
-0.469355
-0.482682
-0.497411
-0.506763
-0.504892
-0.510503
-0.524765
-0.523596
-0.524064
-0.542066
-0.553288
-0.551652
-0.563809
-0.586721
-0.593969
-0.600749
-0.625064
-0.645171
-0.670654
-0.709932
-0.744534
-0.784514
-0.831273
-0.881539
-0.927597
-0.966174
-1.020649
-1.073019
-1.110427
-1.161395
-1.216805
-1.257719
-1.289749
-1.328092
-1.360824
-1.372981
-1.387476
-1.395893
-1.395659
-1.405011
-1.402206
-1.393088
-1.396127
-1.399400
-1.395659
-1.390048
-1.396828
-1.403141
-1.401270
-1.411090
-1.424650
-1.427222
-1.424650
-1.422780
-1.413895
-1.397296
-1.380228
-1.351238
-1.314765
-1.284371
-1.253510
-1.218674
-1.174954
-1.145963
-1.121181
-1.068343
-1.037014
-1.022051
-0.981370
-0.953081
-0.937650
-0.912400
-0.895800
-0.884812
-0.872187
-0.863069
-0.865407
-0.869615
-0.862601
-0.866809
-0.876862
-0.879902
-0.887851
-0.889721
-0.897670
-0.907022
-0.895332
-0.900008
-0.905386
-0.884110
-0.877330
-0.875693
-0.859561
-0.844131
-0.831038
-0.819348
-0.800644
-0.787318
-0.771653
-0.738220
-0.726531
-0.723491
-0.701982
-0.696137
-0.696371
-0.695435
-0.704553
-0.709463
-0.719049
-0.726063
-0.718114
-0.720685
-0.725595
-0.713905
-0.694032
-0.671354
-0.655222
-0.637220
-0.607294
-0.586719
-0.574094
-0.556560
-0.547441
-0.544168
-0.544636
-0.549546
-0.554923
-0.565444
-0.575731
-0.585316
-0.599110
-0.604955
-0.611268
-0.624594
-0.635115
-0.643064
-0.646805
-0.660599
-0.676731
-0.673925
-0.682108
-0.699409
-0.698708
-0.705722
-0.712502
-0.704787
-0.709696
-0.712736
-0.703618
-0.707124
-0.706891
-0.693097
-0.688421
-0.684446
-0.677198
-0.675796
-0.665742
-0.656858
-0.657559
-0.647038
-0.628101
-0.606825
-0.590226
-0.569184
-0.529438
-0.502084
-0.473093
-0.427503
-0.404123
-0.370690
-0.331178
-0.321359
-0.295173
-0.275301
-0.283951
-0.273664
-0.272962
-0.295875
-0.309669
-0.327203
-0.358766
-0.395706
-0.443868
-0.494135
-0.536218
-0.583913
-0.635582
-0.680003
-0.713203
-0.732608
-0.753182
-0.770015
-0.769548
-0.765807
-0.755520
-0.742661
-0.728867
-0.703383
-0.693096
-0.685848
-0.662702
-0.655922
-0.650311
-0.633711
-0.632075
-0.628100
-0.622723
-0.636984
-0.648440
-0.652415
-0.672288
-0.710163
-0.741959
-0.747570
-0.736582
-0.731204
-0.735880
-0.742660
-0.737517
-0.724658
-0.729100
-0.745466
-0.769079
-0.808591
-0.831036
-0.828932
-0.832672
-0.818644
-0.785679
-0.799005
-0.864936
-0.936478
-0.996096
-1.027191
-1.030231
-1.055247
-1.110657
-1.155780
-1.185238
-1.205345
-1.232699
-1.274549
-1.286706
-1.286472
-1.312424
-1.321074
-1.311723
-1.316632
-1.323412
-1.326919
-1.322243
-1.325750
-1.348896
-1.360820
-1.371574
-1.393084
-1.407579
-1.423711
-1.428153
-1.424646
-1.434232
-1.418568
-1.393551
-1.392616
-1.367600
-1.335102
-1.319905
-1.283199
-1.251402
-1.231997
-1.194122
-1.158351
-1.128893
-1.098733
-1.071378
-1.039816
-1.017605
-1.000070
-0.969677
-0.946998
-0.933204
-0.912162
-0.895797
-0.886445
-0.872183
-0.864701
-0.863065
-0.851609
-0.840620
-0.841088
-0.845062
-0.842023
-0.842724
-0.859792
-0.874755
-0.876391
-0.888782
-0.908655
-0.915201
-0.928528
-0.952843
-0.968040
-0.993757
-1.029996
-1.055246
-1.085172
-1.121878
-1.148297
-1.167235
-1.190848
-1.220774
-1.235036
-1.239712
-1.258416
-1.267534
-1.263325
-1.264728
-1.256545
-1.243452
-1.232932
-1.203941
-1.176353
-1.155545
-1.115331
-1.076521
-1.040049
-0.993757
-0.958921
-0.913564
-0.857687
-0.821448
-0.770013
-0.705718
-0.666207
-0.618278
-0.555387
-0.506056
-0.452516
-0.389624
-0.335617
-0.278805
-0.212172
-0.152320
-0.095975
-0.031915
0.034718
0.091297
0.147174
0.218482
0.278334
0.328367
0.389622
0.437550
0.488986
0.538317
0.560294
0.599572
0.631602
0.636512
0.660827
0.671582
0.665971
0.677660
0.674387
0.662230
0.664334
0.660593
0.648670
0.646799
0.654281
0.655684
0.654281
0.669010
0.690286
0.702677
0.721848
0.749436
0.768842
0.795962
0.831266
0.854645
0.883169
0.921979
0.951671
0.977623
1.007783
1.038176
1.062491
1.075350
1.088209
1.106445
1.106211
1.098730
1.108316
1.102938
1.085170
1.084702
1.076285
1.062959
1.059452
1.045892
1.033968
1.034436
1.033734
1.025552
1.020408
1.032799
1.032098
1.013862
1.019239
1.018538
0.996561
0.981130
0.959387
0.932033
0.905146
0.867505
0.831968
0.793859
0.750372
0.717173
0.680233
0.639553
0.614770
0.587650
0.551411
0.531071
0.516341
0.490390
0.463737
0.446436
0.435681
0.414172
0.392195
0.383077
0.364373
0.342163
0.325563
0.296806
0.272257
0.254021
0.222459
0.191597
0.167516
0.144370
0.113509
0.079141
0.068620
0.057632
0.027706
0.015314
0.012275
-0.002220
-0.015079
-0.023028
-0.027237
-0.034718
-0.047343
-0.061839
-0.078906
-0.088959
-0.099714
-0.123327
-0.138290
-0.144369
-0.165177
-0.188557
-0.198376
-0.208897
-0.228068
-0.243966
-0.257760
-0.275763
-0.290960
-0.305221
-0.320184
-0.330939
-0.343798
-0.352916
-0.358761
-0.372321
-0.378166
-0.387752
-0.408326
-0.411833
-0.414872
-0.433342
-0.444330
-0.444564
-0.447136
-0.456254
-0.454150
-0.448539
-0.458826
-0.452046
-0.439654
-0.442927
-0.424691
-0.412300
-0.414638
-0.391726
-0.370450
-0.355020
-0.338186
-0.319482
-0.285348
-0.263605
-0.243732
-0.204454
-0.171021
-0.136419
-0.096206
-0.049213
0.005262
0.053424
0.108133
0.165647
0.225499
0.289794
0.350581
0.413472
0.474026
0.544633
0.607524
0.655686
0.731670
0.800173
0.851842
0.921514
0.989783
1.060390
1.129594
1.195291
1.271041
1.343986
1.416229
1.480991
1.550663
1.631556
1.694682
1.763418
1.835194
1.901826
1.979213
2.036260
2.095176
2.169758
2.227038
2.287124
2.349548
2.405192
2.466447
2.522792
2.576331
2.627767
2.678033
2.724793
2.760096
2.804050
2.846835
2.866006
2.882372
2.904817
2.914169
2.909726
2.900608
2.885645
2.861564
2.831872
2.794231
2.747705
2.701413
2.649043
2.586853
2.528871
2.469486
2.402854
2.339028
2.279176
2.223064
2.169525
2.110842
2.057770
2.015218
1.969394
1.921933
1.886630
1.856236
1.822102
1.796151
1.773706
1.747755
1.737234
1.728349
1.704502
1.692345
1.688136
1.667562
1.646053
1.637402
1.623842
1.598826
1.577784
1.561418
1.543182
1.524478
1.501332
1.482161
1.470004
1.442649
1.417399
1.410385
1.389110
1.365964
1.361288
1.347728
1.338142
1.344221
1.343052
1.352404
1.378122
1.396124
1.417166
1.450833
1.482161
1.515594
1.559081
1.598359
1.635299
1.680188
1.721336
1.760614
1.804802
1.848288
1.895749
1.939937
1.983891
2.039534
2.086528
2.135625
2.203660
2.259538
2.310973
2.374800
2.434886
2.492634
2.545472
2.594569
2.643433
2.676165
2.709130
2.742797
2.751213
2.760565
2.777633
2.769450
2.749811
2.744433
2.728535
2.692530
2.673593
2.655591
2.609766
2.577502
2.555525
2.512273
2.477671
2.448680
2.406597
2.374800
2.345809
2.309805
2.281048
2.248082
2.215818
2.192205
2.158070
2.130482
2.117623
2.088866
2.064551
2.062915
2.051693
2.030885
2.022936
2.026443
2.021533
2.003998
1.995114
1.983891
1.963317
1.939236
1.901127
1.873305
1.849458
1.805738
1.769032
1.740041
1.703335
1.657744
1.616830
1.589242
1.544119
1.494788
1.455276
1.409452
1.376954
1.335338
1.289514
1.271278
1.236676
1.203009
1.190852
1.159990
1.136844
1.128194
1.107620
1.084006
1.067641
1.057120
1.034208
1.015270
1.018543
1.002411
0.975758
0.972485
0.974589
0.972251
0.974122
0.979499
0.988383
1.003814
1.022518
1.043793
1.069044
1.090319
1.117440
1.150873
1.174954
1.208621
1.247665
1.278760
1.327624
1.376253
1.409686
1.460187
1.515363
1.553706
1.594386
1.641380
1.681125
1.718533
1.757811
1.789139
1.820468
1.858110
1.882892
1.897621
1.923573
1.949992
1.963552
1.986231
2.021300
2.042810
2.064787
2.094947
2.120898
2.157370
2.196415
2.224003
2.260007
2.294610
2.316353
2.342772
2.364749
2.371529
2.386726
2.402156
2.392804
2.387895
2.385557
2.354929
2.332952
2.326874
2.307702
2.286193
2.261177
2.233355
2.208806
2.173035
2.133290
2.102428
2.077880
2.044914
2.008442
1.982958
1.945551
1.902532
1.873307
1.837303
1.806909
1.786335
1.744719
1.698895
1.661721
1.613559
1.564227
1.514896
1.455979
1.399634
1.344458
1.287178
1.234573
1.171682
1.109960
1.068811
1.021117
0.967811
0.933209
0.893463
0.846236
0.819583
0.795035
0.765576
0.752016
0.741261
0.736819
0.743599
0.729805
0.712037
0.736118
0.788021
0.813739
0.805088
0.819350
0.864005
0.892061
0.900010
0.912635
0.952381
0.989087
1.001712
1.042860
1.085879
1.093127
1.127495
1.181736
1.215403
1.238549
1.273852
1.339783
1.377658
1.374385
1.392621
1.412494
1.416468
1.413195
1.408519
1.388179
1.353811
1.348434
1.319910
1.292322
1.267072
1.186646
1.168877
1.084944
0.994932
1.157421
1.136146
0.879670
0.798543
0.701049
0.543470
0.544873
0.579708
0.411141
0.240936
0.455562
0.685151
0.546042
0.368356
0.303828
0.256367
0.234156
0.251925
0.225506
0.047820
-0.028632
0.219895
0.448782
0.365083
0.222700
0.283955
0.333286
0.200723
0.157003
0.271798
0.286293
0.229714
0.254731
0.272032
0.238599
0.243742
0.304062
0.377474
0.416285
0.422831
0.444107
0.463979
0.480579
0.541600
0.595841
0.604492
0.640730
0.693802
0.709233
0.733314
0.790594
0.836419
0.850446
0.874995
0.924093
0.945134
0.938120
0.942563
0.954720
0.960097
0.952148
0.950979
0.959396
0.950512
0.944433
0.950278
0.943264
0.921989
0.890192
0.853486
0.806960
0.745939
0.692166
0.644004
0.595140
0.543471
0.482216
0.413246
0.328378
0.249822
0.189034
0.110011
0.032390
-0.026059
-0.090587
-0.144594
-0.190652
-0.246997
-0.293523
-0.338412
-0.389847
-0.428658
-0.461389
-0.493887
-0.529191
-0.564494
-0.584367
-0.604006
-0.632763
-0.658948
-0.689809
-0.715293
-0.729321
-0.757376
-0.784029
-0.798759
-0.818398
-0.832192
-0.840608
-0.855104
-0.863053
-0.862118
-0.859312
-0.849259
-0.834529
-0.828217
-0.823775
-0.805538
-0.779821
-0.756909
-0.735633
-0.708279
-0.673677
-0.640945
-0.607746
-0.573378
-0.541347
-0.508382
-0.480093
-0.451335
-0.415798
-0.398263
-0.389613
-0.369039
-0.357349
-0.351971
-0.344490
-0.348932
-0.352907
-0.355245
-0.370909
-0.381897
-0.387041
-0.398731
-0.412525
-0.430761
-0.440347
-0.441516
-0.455076
-0.467935
-0.470506
-0.469337
-0.469571
-0.470039
-0.466766
-0.471208
-0.474715
-0.464428
-0.463259
-0.465597
-0.463259
-0.467467
-0.467701
-0.459518
-0.458816
-0.467701
-0.471675
-0.464194
-0.465830
-0.475416
-0.481495
-0.498094
-0.521941
-0.542749
-0.573377
-0.605407
-0.639775
-0.684898
-0.719968
-0.753167
-0.792445
-0.820267
-0.853700
-0.886197
-0.897887
-0.914253
-0.932255
-0.932255
-0.940438
-0.957272
-0.957739
-0.959610
-0.982288
-1.001693
-1.017124
-1.040737
-1.062948
-1.090068
-1.129814
-1.166286
-1.197147
-1.231516
-1.266118
-1.300252
-1.339998
-1.377171
-1.407331
-1.438192
-1.472794
-1.512306
-1.551116
-1.583848
-1.615878
-1.653052
-1.693733
-1.729036
-1.760599
-1.789589
-1.815307
-1.851546
-1.884745
-1.902046
-1.928699
-1.955819
-1.962132
-1.967743
-1.986213
-1.992525
-1.971951
-1.963534
-1.968912
-1.946467
-1.924958
-1.912333
-1.880069
-1.857624
-1.841726
-1.809696
-1.782341
-1.756624
-1.725295
-1.693265
-1.668716
-1.650012
-1.617280
-1.585250
-1.564676
-1.538023
-1.517215
-1.500148
-1.475599
-1.453155
-1.433749
-1.419722
-1.408265
-1.390497
-1.377872
-1.371793
-1.366883
-1.371559
-1.381846
-1.387224
-1.395173
-1.416682
-1.440997
-1.459233
-1.481210
-1.501083
-1.515812
-1.542932
-1.570053
-1.589458
-1.616111
-1.640893
-1.672222
-1.712669
-1.747037
-1.783977
-1.815306
-1.843362
-1.885913
