EVENT_NAME: 202302060117
EVENT_ID: 13194
EVENT_DATE_YYYYMMDD: 2023/02/06
EVENT_TIME_HHMMSS: 01:17:32.00000
EVENT_LATITUDE_DEGREE: 37.288
EVENT_LONGITUDE_DEGREE: 37.043
EVENT_DEPTH_KM: 8.6
HYPOCENTER_REFERENCE: AFAD
MAGNITUDE_W: 7.7
MAGNITUDE_W_REFERENCE: AFAD
MAGNITUDE_L: 
MAGNITUDE_L_REFERENCE: 
FOCAL_MECHANISM: 
NETWORK: TK
STATION_CODE: 2509
STATION_NAME: 
STATION_LATITUDE_DEGREE: 39.87333
STATION_LONGITUDE_DEGREE: 41.22269
STATION_ELEVATION_M: 1930.0
LOCATION: Kahramanmaras_Pazarck_Turkiye
SENSOR_DEPTH_M: 
VS30_M/S: 495
SITE_CLASSIFICATION_EC8: B
MORPHOLOGIC_CLASSIFICATION: 
EPICENTRAL_DISTANCE_KM: 463.20
EARTHQUAKE_BACKAZIMUTH_DEGREE: 
DATE_TIME_FIRST_SAMPLE_YYYYMMDD_HHMMSS: 2023/02/06 01:18:10.7730080
DATE_TIME_FIRST_SAMPLE_PRECISION: millisecond
SAMPLING_INTERVAL_S: 0.01
NDATA: 24501
DURATION_S: 
STREAM: HNZ
UNITS: cm/s^2
INSTRUMENT: sensor = CMG-5T/GURALP | digitizer = 
INSTRUMENT_ANALOG/DIGITAL: 
INSTRUMENTAL_FREQUENCY_HZ: 
INSTRUMENTAL_DAMPING: 
FULL_SCALE_G: 
N_BIT_DIGITAL_CONVERTER: 
PGA_CM/S^2: 4.724
TIME_PGA_S: 
BASELINE_CORRECTION: BASELINE REMOVED
FILTER_TYPE: BUTTERWORTH
FILTER_ORDER: 
LOW_CUT_FREQUENCY_HZ: 
HIGH_CUT_FREQUENCY_HZ: 
LATE/NORMAL_TRIGGERED: 
DATABASE_VERSION: 
HEADER_FORMAT: DYNA 1.2
DATA_TYPE: Acceleration
PROCESSING: Automatic Paolucci et al., 2011
DATA_TIMESTAMP_YYYYMMDD_HHMMSS: 
DATA_LICENSE: U (unknown license)
DATA_CITATION: Turkish Accelerometric Archive v 1.0 - Disaster And Emergency Management Presidency, Earthquake Department
DATA_CREATOR: AFAD
ORIGINAL_DATA_MEDIATOR_CITATION: : AFAD - Disaster And Emergency Management Presidency
ORIGINAL_DATA_MEDIATOR: AFAD PROCESS SERVICE
ORIGINAL_DATA_CREATOR_CITATION: AFAD PROCESS SERVICE
ORIGINAL_DATA_CREATOR: network: TK
USER1: GuestUser
USER2: 
USER3: 
USER4: 
USER5: 
[...]
-0.594973
-0.936161
-1.227456
-1.156491
-0.761382
-0.463268
-0.663146
-1.097300
-1.427642
-1.573909
-1.462658
-1.180039
-0.988837
-1.045856
-1.250073
-1.449021
-1.463895
-1.181896
-0.828312
-0.554989
-0.389818
-0.418637
-0.468529
-0.471318
-0.599921
-0.832957
-1.040273
-1.117745
-1.032525
-0.955362
-1.051737
-1.330327
-1.633398
-1.853419
-1.896183
-1.689177
-1.402529
-1.277643
-1.372159
-1.574826
-1.892152
-2.118681
-1.929958
-1.426388
-0.973949
-0.711163
-0.440319
-0.125781
0.085874
0.141034
-0.010191
-0.314192
-0.554046
-0.705581
-0.819000
-0.737189
-0.543508
-0.441244
-0.492375
-0.631205
-0.693493
-0.473781
-0.074023
0.279251
0.528712
0.449381
0.135154
-0.052329
-0.237022
-0.513443
-0.526458
-0.287843
-0.051707
0.212009
0.543281
0.886949
1.126803
1.125874
0.969380
0.838917
0.901516
1.199629
1.382464
1.017415
0.414991
0.183194
0.195590
0.222551
0.176378
0.005940
0.080313
0.427080
0.445674
0.150969
-0.003045
-0.141565
-0.222446
-0.037751
0.159029
0.169875
-0.157367
-0.423252
-0.564251
-0.627158
-0.426659
0.068544
0.662912
0.955138
1.113801
1.258210
1.343120
1.520067
1.397042
0.760220
0.346828
0.320798
0.438246
0.651141
0.674693
0.344661
-0.071830
-0.251875
0.000375
0.398583
0.699176
1.067015
1.318336
1.428657
1.592898
1.559121
1.434546
1.565939
1.618931
1.304084
0.892241
0.666643
0.675630
0.842660
1.014030
1.100489
1.131169
1.174863
1.327949
1.558197
1.829351
1.890089
1.422777
0.772010
0.434851
0.235593
-0.035560
-0.371479
-0.966156
-1.623121
-1.765670
-1.484600
-1.134115
-0.798504
-0.611021
-0.704297
-0.923698
-0.947249
-0.672997
-0.336147
-0.151453
0.001323
0.245516
0.565322
0.919836
1.203695
1.324862
1.381882
1.290155
1.148846
1.143888
1.109801
1.028300
1.026132
0.947420
0.603444
0.138300
-0.129753
-0.027489
0.303163
0.596008
0.608404
0.356775
0.221044
0.522566
0.944326
1.020869
0.763661
0.496847
0.355848
0.395514
0.570292
0.731745
1.011575
1.458746
1.707587
1.707588
1.715955
1.644991
1.452240
1.282421
1.283971
1.455650
1.628879
1.451932
0.796517
0.147920
0.171162
0.912107
1.569383
1.466190
0.942787
0.587345
0.506154
0.509254
0.387158
0.094933
-0.065280
0.061775
0.298531
0.450067
0.474549
0.427136
0.301942
0.156604
0.221991
0.567828
0.931638
1.123150
1.194735
1.326438
1.554517
1.796231
1.742621
1.282436
0.771429
0.468667
0.324879
0.162498
0.024288
0.008174
-0.068059
-0.138403
-0.023124
0.021811
-0.115780
-0.091918
0.096495
0.153205
0.143289
0.246483
0.385623
0.574656
0.759661
0.779184
0.682189
0.573418
0.535612
0.569701
0.523837
0.305986
-0.037991
-0.395912
-0.680390
-0.951853
-1.117333
-0.897931
-0.551165
-0.394051
-0.388472
-0.537528
-0.751661
-0.872208
-0.974471
-1.187054
-1.369579
-1.451389
-1.504380
-1.372057
-0.925196
-0.561386
-0.502506
-0.474306
-0.406750
-0.330826
-0.104607
0.231623
0.449786
0.490382
0.394316
0.365807
0.444519
0.434913
0.392459
0.381303
0.456916
0.553912
0.436465
0.122857
-0.148295
-0.410151
-0.700517
-0.811147
-0.651864
-0.514272
-0.465000
-0.517061
-0.535963
-0.280924
0.182980
0.642546
0.855131
0.667338
0.205914
-0.139302
-0.115440
0.307559
0.978779
1.434936
1.377607
0.938185
0.528822
0.361172
0.457238
0.757521
1.126600
1.414797
1.361187
0.899142
0.326157
0.032073
-0.039201
-0.105827
-0.484201
-1.099950
-1.352820
-1.012251
-0.381006
0.264493
0.561058
0.385041
0.047572
-0.161603
-0.160673
0.096846
0.460966
0.593599
0.331743
-0.064295
-0.214901
0.147670
0.947495
1.639477
1.933563
1.852062
1.765914
2.132203
2.732769
3.153599
3.171882
2.832554
2.339831
1.999883
1.921171
1.959598
1.984080
1.870351
1.667684
1.526375
1.649091
1.920864
2.064344
2.103390
2.244700
2.478357
2.724719
2.919950
3.067147
3.285000
3.632076
3.986590
4.037412
3.669264
3.186457
2.808083
2.697453
2.692495
2.565441
2.639505
3.146484
3.689720
3.693129
3.059407
2.328378
1.981923
2.224876
2.725967
2.990923
2.716362
1.975727
1.340145
1.072091
1.141197
1.267322
1.377023
1.598284
1.918400
1.923669
1.696211
1.579383
1.409564
1.068996
0.907235
0.993694
1.067138
1.082013
1.074886
1.214027
1.368662
1.411737
1.300797
1.010122
0.854867
1.169405
1.696217
1.790424
1.347283
0.787624
0.367414
0.096572
-0.023975
0.126012
0.582479
1.040496
1.149267
0.871297
0.372066
0.014454
-0.119417
-0.175507
-0.080061
0.227660
0.521125
0.651899
0.694044
0.606036
0.372070
0.048856
-0.027686
0.356577
0.802508
1.014163
1.022220
0.920887
0.781437
0.751378
0.847134
0.940102
0.918100
0.734956
0.410812
-0.005988
-0.436424
-0.556970
-0.155973
0.468144
0.980391
1.207230
0.926161
0.315060
-0.038833
0.062811
0.309483
0.390985
0.152371
-0.283643
-0.728644
-1.035743
-1.056196
-0.672862
-0.107624
-0.036659
-0.610883
-1.361124
-1.933489
-2.179851
-2.188837
-2.227573
-2.305355
-2.276225
-2.116012
-1.948051
-1.793726
-1.691772
-1.694561
-1.713463
-1.583310
-1.391798
-1.265982
-1.229415
-1.428673
-1.780707
-2.063325
-2.088736
-1.787833
-1.463379
-1.355227
-1.400780
-1.431459
-1.470195
-1.622040
-1.749404
-1.600037
-1.315248
-1.238395
-1.385592
-1.552002
-1.573384
-1.393958
-1.029838
-0.710032
-0.717159
-1.078489
-1.521320
-1.718719
-1.614286
-1.452214
-1.466468
-1.702603
-2.153802
-2.684951
-3.120345
-3.276839
-2.994220
-2.496537
-2.124980
-2.013109
-2.086552
-2.230341
-2.376298
-2.358014
-2.107623
-1.866839
-1.744742
-1.613039
-1.456234
-1.374733
-1.453445
-1.563455
-1.520690
-1.355518
-1.121242
-0.917954
-0.902149
-1.094590
-1.312442
-1.323287
-1.150989
-0.970323
-0.844507
-0.785318
-0.830561
-0.866508
-0.764864
-0.652374
-0.710633
-0.939330
-1.174226
-1.114107
-0.626651
-0.012450
0.408690
0.592454
0.566734
0.409001
0.360349
0.560537
0.847495
1.025682
1.108733
1.142201
1.064729
0.803493
0.399398
-0.062646
-0.476658
-0.652055
-0.519732
-0.224407
0.015758
0.050776
-0.126171
-0.473866
-0.809785
-0.975266
-0.945206
-0.796149
-0.647712
-0.574268
-0.658557
-0.841701
-0.939006
-0.905847
-0.796766
-0.581393
-0.326043
-0.185973
-0.175746
-0.230906
-0.282967
-0.282347
-0.221918
-0.023589
0.303035
0.528325
0.584415
0.636167
0.673974
0.603010
0.459532
0.432262
0.683582
1.100074
1.400977
1.523693
1.617590
1.785550
2.030673
2.174772
1.998755
1.702502
1.662836
1.823979
1.901142
1.731323
1.337144
0.933049
0.758272
0.857127
0.983563
0.915387
0.788953
0.852171
1.020131
1.126733
1.163301
1.155554
1.038416
0.751459
0.394777
0.158642
0.141599
0.258427
0.402836
0.545076
0.608913
0.509439
0.214425
-0.143496
-0.271170
-0.233363
-0.148144
-0.043401
0.073428
0.239839
0.474735
0.748988
1.048651
1.256587
1.271772
1.121786
0.901455
0.773781
0.757048
0.778740
0.852495
0.934925
1.004651
1.144721
1.392013
1.642094
1.786813
1.770699
1.652012
1.611107
1.691679
1.808197
1.879472
1.808198
1.664410
1.571754
1.443770
1.190591
0.957245
0.909212
1.133263
1.447491
1.554403
1.520625
1.464226
1.352356
1.126447
0.872339
0.644881
0.398829
0.166722
0.080264
0.207938
0.439736
0.552846
0.391084
0.086464
-0.146883
-0.238919
-0.152770
0.020149
0.148753
0.223437
0.314545
0.492732
0.712753
0.892490
0.974301
0.948580
0.926889
0.951990
1.001263
1.132036
1.390794
1.630339
1.740970
1.679302
1.511653
1.387078
1.317043
1.233064
1.148154
1.029777
0.869565
0.720199
0.581369
0.437581
0.295652
0.193389
0.106000
-0.070016
-0.326294
-0.548484
-0.671820
-0.709626
-0.715513
-0.663761
-0.504478
-0.249129
0.019236
0.160855
0.150010
0.153729
0.183169
0.118402
-0.008652
-0.051106
0.046199
0.170775
0.184411
0.060146
-0.067218
-0.097587
-0.033130
0.046822
0.021722
-0.141280
-0.393529
-0.562728
-0.590618
-0.592787
-0.660342
-0.704346
-0.646706
-0.582559
-0.689780
-0.920027
-1.140358
-1.221239
-1.061955
-0.761982
-0.456121
-0.200152
0.057056
0.260344
0.335958
0.284516
0.239583
0.204256
0.157153
0.229978
0.286378
0.161183
0.179157
0.446282
0.643372
0.651739
0.563111
0.463018
0.323878
0.177610
0.019258
-0.150871
-0.368103
-0.543500
-0.615704
-0.671174
-0.746166
-0.779634
-0.750504
-0.733460
-0.753292
-0.708048
-0.593388
-0.525522
-0.499491
-0.490814
-0.507238
-0.575723
-0.687902
-0.685732
-0.592455
-0.569523
-0.525518
-0.431622
-0.292171
-0.079277
0.071330
0.094882
-0.008931
-0.127618
-0.254052
-0.460128
-0.640173
-0.706489
-0.764438
-0.833233
-0.840360
-0.757929
-0.676738
-0.828583
-0.901097
-0.997472
-1.065337
-1.123906
-1.091367
-0.888079
-0.715780
-0.536974
-0.471897
-0.499786
-0.611346
-0.835395
-1.175343
-1.461991
-1.534504
-1.461680
-1.348570
-1.273886
-1.299916
-1.415505
-1.493906
-1.475003
-1.417983
-1.335552
-1.318817
-1.358483
-1.362511
-1.398148
-1.488015
-1.548753
-1.540075
-1.710824
-1.903885
-2.111200
-2.138470
-2.069984
-1.913180
-1.787984
-1.770320
-1.655041
-1.512491
-1.407128
-1.447723
-1.531703
-1.543788
-1.444004
-1.246604
-1.076474
-1.015116
-0.978238
-0.935783
-0.841576
-1.021622
-1.270462
-1.447718
-1.405883
-1.101881
-0.776187
-0.601719
-0.654710
-0.562672
-0.481481
-0.297406
-0.135954
-0.151448
-0.203199
-0.085441
0.110100
0.182614
0.136131
-0.052281
-0.250609
-0.337378
-0.352562
-0.400285
-0.394396
-0.473108
-0.651913
-0.746119
-0.728145
-0.633629
-0.565762
-0.578777
-0.634557
-0.678871
-0.783923
-0.895792
-0.981941
-1.034002
-0.966756
-0.902298
-0.898579
-0.961176
-1.006110
-1.123248
-1.286249
-1.370229
-1.367749
-1.270443
-1.124175
-1.045153
-0.967370
-0.908801
-0.973877
-1.165079
-1.374563
-1.416708
-1.290582
-1.157020
-1.073039
-1.116423
-1.254014
-1.372701
-1.475274
-1.563902
-1.555534
-1.466906
-1.453890
-1.503472
-1.631765
-1.774624
-1.865421
-1.970783
-2.042677
-2.100935
-2.134403
-2.166321
-2.176547
-2.208775
-2.228918
-2.191730
-2.171277
-2.205985
-2.289654
-2.386649
-2.419807
-2.414848
-2.459472
-2.516491
-2.518350
-2.494798
-2.476204
-2.492938
-2.506882
-2.467526
-2.466286
-2.578775
-2.718225
-2.820488
-2.850857
-2.750762
-2.566997
-2.380754
-2.287167
-2.312267
-2.342326
-2.294603
-2.209383
-2.064354
-1.828218
-1.607577
-1.518328
-1.496326
-1.443644
-1.339831
-1.278162
-1.323406
-1.451700
-1.580613
-1.654676
-1.676988
-1.669860
-1.639180
-1.590218
-1.586498
-1.677915
-1.785756
-1.830380
-1.862918
-1.954955
-2.072092
-2.171566
-2.248728
-2.282506
-2.266391
-2.234472
-2.204722
-2.191087
-2.244387
-2.403360
-2.633917
-2.838753
-2.924282
-2.899491
-2.833484
-2.716346
-2.563260
-2.449840
-2.354704
-2.229818
-2.102763
-2.047602
-2.057518
-2.070533
-2.025599
-1.888008
-1.697425
-1.520168
-1.388465
-1.274425
-1.189205
-1.197572
-1.240026
-1.193233
-1.061839
-0.871877
-0.667659
-0.529758
-0.463442
-0.457553
-0.471498
-0.472737
-0.460961
-0.411378
-0.318101
-0.206850
-0.096839
-0.016268
0.026188
0.046021
0.063995
0.089716
0.109240
0.098704
0.060898
-0.005108
-0.090018
-0.113259
-0.085368
-0.074832
-0.103651
-0.167178
-0.204984
-0.167797
-0.074210
0.060592
0.172153
0.227314
0.254274
0.282165
0.305097
0.339495
0.393726
0.420067
0.420378
0.415420
0.431534
0.462214
0.454157
0.347246
0.160693
-0.011915
-0.096514
-0.129672
-0.176465
-0.227286
-0.196607
-0.067073
0.106776
0.305725
0.503744
0.649393
0.734923
0.780787
0.797831
0.823862
0.905363
0.986245
0.976949
0.931395
0.915591
0.944721
0.998642
1.017546
0.993995
0.938215
0.881506
0.886465
0.914665
0.905679
0.838743
0.736480
0.656839
0.597960
0.507163
0.437129
0.436199
0.461301
0.438060
0.390957
0.395606
0.459443
0.579681
0.711384
0.784828
0.798464
0.769954
0.689693
0.542497
0.361832
0.209366
0.091919
0.009179
-0.020880
-0.056827
-0.143905
-0.231603
-0.279016
-0.276227
-0.268169
-0.259492
-0.237489
-0.245546
-0.254842
-0.240587
-0.210837
-0.102375
0.071473
0.221150
0.322484
0.391900
0.430326
0.425678
0.380745
0.350996
0.360913
0.336122
0.207209
-0.005065
-0.222297
-0.368874
-0.464320
-0.550158
-0.623912
-0.685269
-0.775447
-0.937828
-1.133988
-1.279635
-1.372292
-1.426832
-1.454411
-1.474244
-1.494696
-1.529093
-1.585183
-1.651499
-1.751902
-1.883915
-1.998264
-2.088131
-2.160335
-2.191633
-2.170250
-2.123147
-2.126245
-2.230058
-2.370747
-2.465573
-2.481067
-2.411961
-2.343785
-2.364547
-2.459993
-2.569383
-2.634459
-2.652432
-2.646234
-2.636627
-2.622992
-2.592002
-2.535602
-2.481991
-2.484779
-2.554194
-2.670402
-2.809542
-2.933187
-3.020576
-3.060861
-3.060551
-3.062100
-3.048464
-3.019644
-3.013756
-3.022432
-3.029249
-3.001359
-2.905293
-2.784126
-2.671635
-2.567202
-2.480433
-2.427442
-2.380028
-2.330445
-2.287680
-2.186966
-1.971592
-1.723061
-1.526591
-1.377844
-1.280228
-1.222278
-1.138608
-1.016821
-0.877061
-0.740089
-0.650221
-0.621711
-0.624809
-0.669433
-0.708478
-0.711887
-0.713746
-0.718703
-0.726450
-0.761777
-0.781610
-0.743803
-0.670668
-0.597224
-0.508286
-0.351171
-0.129600
0.101578
0.302386
0.478713
0.655041
0.872893
1.107790
1.295893
1.437203
1.565807
1.716104
1.877557
2.020416
2.151809
2.304275
2.464179
2.575739
2.634928
2.688540
2.736883
2.768492
2.790184
2.788326
2.780269
2.787087
2.806610
2.802582
2.784919
2.768805
2.749282
2.748663
2.810951
2.934597
3.093261
3.268039
3.433210
3.576999
3.696307
3.797951
3.878523
3.925936
3.954137
3.998761
4.039357
4.079333
4.149368
4.226221
4.309582
4.413085
4.495516
4.561833
4.632488
4.699425
4.723597
4.677733
4.603050
4.531157
4.459573
4.407512
4.385820
4.364128
4.319504
4.248230
4.147827
4.047423
3.993193
3.967472
3.914792
3.832981
3.778751
3.779991
3.845068
3.934317
4.045877
4.176961
4.308974
4.416506
4.511952
4.594073
4.633430
4.602441
4.514123
4.357010
4.184712
4.034416
3.924406
3.871105
3.844765
3.800451
3.695709
3.547273
3.397287
3.258767
3.182224
3.189042
3.264036
3.273953
3.175409
3.049594
2.904256
2.782470
2.746214
2.760469
2.786190
2.769767
2.710888
2.611414
2.524336
2.448103
2.370631
2.302146
2.198334
2.109086
1.990399
1.920365
1.876051
1.829568
1.756125
1.687330
1.605519
1.498608
1.335916
1.250078
1.192749
1.181283
1.171057
1.093895
0.999689
0.912611
0.855901
0.793924
0.770993
0.752400
0.762936
0.790517
0.806322
0.860243
0.903628
0.891852
0.807563
0.678650
0.527424
0.352337
0.213817
0.137275
0.073128
-0.035333
-0.170134
-0.302146
-0.405339
-0.474444
-0.467006
-0.420832
-0.368770
-0.318568
-0.243574
-0.208557
-0.169820
-0.151226
-0.175707
-0.235825
-0.344286
-0.440041
-0.499849
-0.560277
-0.605521
-0.650764
-0.678964
-0.627832
-0.512242
-0.376820
-0.303686
-0.333435
-0.411527
-0.452432
-0.420823
-0.336842
-0.273315
-0.280442
-0.352955
-0.423610
-0.450260
-0.430426
-0.365349
-0.280439
-0.238294
-0.271451
-0.339937
-0.372474
-0.339936
-0.241700
-0.157410
-0.114955
-0.108137
-0.115574
-0.123011
-0.122391
-0.060412
0.033794
0.121803
0.169527
0.137299
0.101352
0.072223
0.008696
-0.086440
-0.197070
-0.295304
-0.366578
-0.408103
-0.438472
-0.481546
-0.518112
-0.545382
-0.562426
-0.551579
-0.501067
-0.443737
-0.396013
-0.320710
-0.249125
-0.208839
-0.188076
-0.155537
-0.094799
-0.000592
0.097333
0.169228
0.225628
0.288846
0.360121
0.416212
0.425819
0.383674
0.330374
0.267157
0.181628
0.093929
0.031332
0.002203
0.007162
0.013670
0.003444
-0.027235
-0.070619
-0.108115
-0.127328
-0.145611
-0.156766
-0.157076
-0.152427
-0.139101
-0.121437
-0.096956
-0.060388
0.010887
0.123377
0.226880
0.268716
0.242685
0.162115
0.042808
-0.091064
-0.226485
-0.336186
-0.404361
-0.402811
-0.355397
-0.303336
-0.241357
-0.175660
-0.098188
0.015852
0.146626
0.288555
0.445360
0.590078
0.738826
0.902757
1.071647
1.245496
1.369452
1.390525
1.346521
1.289502
1.258513
1.241470
1.212030
1.168027
1.119994
1.058017
0.995420
0.922596
0.854421
0.803909
0.774160
0.760216
0.723649
0.684914
0.685844
0.733877
0.785939
0.814139
0.808561
0.780672
0.763938
0.777884
0.823438
0.894713
0.975904
1.051827
1.103269
1.143246
1.187250
1.248609
1.316165
1.357381
1.373495
1.373806
1.372567
1.363270
1.326704
1.280531
1.237147
1.197481
1.195312
1.243965
1.306254
1.366682
1.430210
1.481342
1.512951
1.552308
1.621104
1.695477
1.745060
1.759935
1.759316
1.797742
1.868088
1.942771
2.004750
2.041007
2.074166
2.106085
2.110424
2.118791
2.119101
2.099579
2.080986
2.079747
2.072310
2.084396
2.137697
2.193788
2.226326
2.227566
2.211762
2.230976
2.291715
2.345946
2.372906
2.375696
2.381274
2.410094
2.417532
2.392122
2.363922
2.358964
2.366712
2.388095
2.432099
2.478893
2.509882
2.526927
2.537463
2.517321
2.458443
2.362067
2.235633
2.123763
2.046602
1.978736
1.899095
1.788155
1.659552
1.530948
1.406993
1.284587
1.143898
0.991123
0.855392
0.745381
0.647767
0.541165
0.439212
0.342217
0.247392
0.172709
0.105773
0.073545
0.067038
0.052783
0.031711
0.027063
0.006301
-0.068692
-0.179631
-0.305756
-0.418245
-0.493548
-0.549637
-0.606967
-0.674212
-0.768418
-0.885246
-0.994016
-1.085743
-1.151439
-1.226122
-1.324357
-1.409266
-1.492316
-1.565759
-1.651598
-1.706448
-1.759439
-1.813669
-1.872237
-1.956527
-2.055381
-2.172209
-2.296164
-2.432515
-2.516804
-2.619377
-2.691891
-2.729697
-2.790435
-2.855821
-2.907262
-2.930194
-2.923066
-2.873173
-2.804687
-2.720087
-2.643544
-2.590553
-2.569790
-2.587453
-2.624329
-2.626498
-2.638583
-2.536319
-2.479609
-2.414532
-2.407404
-2.405544
-2.380443
-2.364638
-2.333339
-2.294602
-2.227046
-2.176844
-2.125402
-2.093483
-2.103709
-2.118893
-2.122611
-2.107116
-2.057843
-2.045757
-2.039869
-2.070548
-2.117340
-2.178078
-2.218363
-2.226420
-2.194191
-2.152046
-2.112070
-2.111450
-2.112379
-2.084178
-2.004227
-1.931712
-1.900103
-1.891116
-1.927063
-1.966728
-2.010112
-2.015380
-2.007632
-2.002673
-1.981291
-1.951231
-1.910015
-1.898239
-1.879955
-1.878095
-1.906295
-1.962694
-2.017854
-2.048533
-2.020642
-1.983455
-1.958354
-1.936351
-1.943478
-1.957423
-1.943787
-1.896684
-1.837495
-1.787602
-1.769008
-1.778924
-1.767768
-1.727172
-1.676660
-1.608483
-1.515206
-1.421000
-1.338879
-1.275661
-1.225148
-1.184862
-1.145506
-1.093444
-1.041383
-1.002336
-0.968868
-0.944696
-0.920524
-0.877449
-0.837783
-0.797807
-0.755661
-0.709487
-0.657735
-0.592658
-0.525102
-0.470871
-0.441741
-0.431204
-0.433063
-0.432443
-0.394016
-0.304458
-0.188249
-0.077618
-0.004174
0.041070
0.093752
0.169055
0.245288
0.306027
0.326790
0.326481
0.313775
0.301070
0.287436
0.279689
0.284957
0.274112
0.245292
0.222051
0.190133
0.137762
0.086011
0.044177
-0.000757
-0.052818
-0.110767
-0.160039
-0.181111
-0.176462
-0.175532
-0.179560
-0.163136
-0.110764
-0.023375
0.072381
0.137149
0.172477
0.209044
0.242202
0.260486
0.255838
0.231358
0.202228
0.181776
0.166902
0.186735
0.204399
0.210288
0.205020
0.165974
0.081995
-0.032974
-0.160648
-0.283053
-0.406699
-0.493777
-0.557304
-0.608745
-0.646241
-0.697373
-0.736728
-0.758420
-0.773914
-0.792197
-0.812959
-0.847667
-0.883613
-0.913672
-0.933814
-0.947139
-0.958605
-0.985565
-1.036696
-1.087207
-1.140198
-1.202176
-1.289564
-1.387179
-1.477666
-1.588606
-1.682812
-1.783215
