EVENT_NAME: 202302060117
EVENT_ID: 13194
EVENT_DATE_YYYYMMDD: 2023/02/06
EVENT_TIME_HHMMSS: 01:17:32.00000
EVENT_LATITUDE_DEGREE: 37.288
EVENT_LONGITUDE_DEGREE: 37.043
EVENT_DEPTH_KM: 8.6
HYPOCENTER_REFERENCE: AFAD
MAGNITUDE_W: 7.7
MAGNITUDE_W_REFERENCE: AFAD
MAGNITUDE_L: 
MAGNITUDE_L_REFERENCE: 
FOCAL_MECHANISM: 
NETWORK: TK
STATION_CODE: 6007
STATION_NAME: 
STATION_LATITUDE_DEGREE: 40.38395
STATION_LONGITUDE_DEGREE: 36.07173
STATION_ELEVATION_M: 550.0
LOCATION: Kahramanmaras_Pazarck_Turkiye
SENSOR_DEPTH_M: 
VS30_M/S: 313
SITE_CLASSIFICATION_EC8: C
MORPHOLOGIC_CLASSIFICATION: 
EPICENTRAL_DISTANCE_KM: 354.38
EARTHQUAKE_BACKAZIMUTH_DEGREE: 
DATE_TIME_FIRST_SAMPLE_YYYYMMDD_HHMMSS: 2023/02/06 01:17:57.3177830
DATE_TIME_FIRST_SAMPLE_PRECISION: millisecond
SAMPLING_INTERVAL_S: 0.01
NDATA: 21001
DURATION_S: 
STREAM: HNE
UNITS: cm/s^2
INSTRUMENT: sensor = CMG-5T/GURALP | digitizer = 
INSTRUMENT_ANALOG/DIGITAL: 
INSTRUMENTAL_FREQUENCY_HZ: 
INSTRUMENTAL_DAMPING: 
FULL_SCALE_G: 
N_BIT_DIGITAL_CONVERTER: 
PGA_CM/S^2: 5.527
TIME_PGA_S: 
BASELINE_CORRECTION: BASELINE REMOVED
FILTER_TYPE: BUTTERWORTH
FILTER_ORDER: 
LOW_CUT_FREQUENCY_HZ: 
HIGH_CUT_FREQUENCY_HZ: 
LATE/NORMAL_TRIGGERED: 
DATABASE_VERSION: 
HEADER_FORMAT: DYNA 1.2
DATA_TYPE: Acceleration
PROCESSING: Automatic Paolucci et al., 2011
DATA_TIMESTAMP_YYYYMMDD_HHMMSS: 
DATA_LICENSE: U (unknown license)
DATA_CITATION: Turkish Accelerometric Archive v 1.0 - Disaster And Emergency Management Presidency, Earthquake Department
DATA_CREATOR: AFAD
ORIGINAL_DATA_MEDIATOR_CITATION: : AFAD - Disaster And Emergency Management Presidency
ORIGINAL_DATA_MEDIATOR: AFAD PROCESS SERVICE
ORIGINAL_DATA_CREATOR_CITATION: AFAD PROCESS SERVICE
ORIGINAL_DATA_CREATOR: network: TK
USER1: GuestUser
USER2: 
USER3: 
USER4: 
USER5: 
[...]
-0.864007
-0.900400
-0.930518
-0.963459
-0.995774
-1.035617
-1.078912
-1.127854
-1.177737
-1.224796
-1.259306
-1.294444
-1.324876
-1.366915
-1.412092
-1.453505
-1.485819
-1.505584
-1.501505
-1.480799
-1.448798
-1.406758
-1.361895
-1.302913
-1.235775
-1.147930
-1.031850
-0.895063
-0.743217
-0.577254
-0.404388
-0.229013
-0.057402
0.100404
0.234367
0.342291
0.421037
0.469038
0.479391
0.453666
0.392488
0.292095
0.160014
0.004404
-0.165010
-0.335993
-0.495682
-0.643135
-0.781803
-0.909178
-1.036239
-1.166437
-1.306360
-1.445343
-1.589031
-1.723621
-1.850682
-1.960487
-2.050528
-2.113901
-2.158451
-2.181039
-2.184804
-2.174137
-2.160019
-2.149666
-2.148724
-2.152489
-2.153744
-2.147783
-2.130841
-2.110449
-2.075938
-2.030761
-1.969897
-1.914053
-1.862287
-1.819620
-1.779776
-1.749030
-1.719853
-1.685029
-1.645499
-1.590282
-1.528791
-1.466358
-1.398279
-1.330826
-1.264943
-1.199373
-1.125960
-1.037488
-0.926114
-0.789327
-0.625560
-0.438576
-0.229318
-0.006883
0.226219
0.460262
0.696815
0.939329
1.169607
1.405532
1.631418
1.843500
2.045543
2.220604
2.369940
2.499511
2.600532
2.671749
2.721946
2.756143
2.779673
2.803517
2.822341
2.850890
2.880381
2.913950
2.954735
2.999285
3.045717
3.091836
3.135445
3.177798
3.219838
3.263447
3.303605
3.342194
3.375763
3.409018
3.428470
3.441019
3.441961
3.424392
3.394901
3.350665
3.304861
3.259684
3.217330
3.182506
3.149251
3.121643
3.088388
3.055132
3.012465
2.963837
2.910817
2.842737
2.774972
2.693088
2.604616
2.499517
2.385005
2.258886
2.118335
1.964607
1.791428
1.591268
1.380441
1.150477
0.912670
0.682078
0.449290
0.235954
0.033284
-0.143346
-0.295505
-0.419429
-0.512606
-0.574098
-0.600137
-0.588529
-0.547116
-0.474644
-0.374878
-0.259425
-0.136756
-0.015970
0.100738
0.205210
0.302153
0.389998
0.466862
0.527098
0.579805
0.613688
0.642865
0.662630
0.684278
0.704043
0.720671
0.747652
0.781221
0.826085
0.883184
0.961303
1.054167
1.153620
1.269073
1.400526
1.551744
1.720217
1.915358
2.127126
2.356463
2.599290
2.853098
3.111299
3.371381
3.621111
3.856095
4.065040
4.245435
4.402928
4.530302
4.628186
4.684344
4.698776
4.665207
4.579245
4.448106
4.264260
4.034609
3.764801
3.460169
3.128243
2.785649
2.439605
2.094188
1.761633
1.424060
1.086486
0.749540
0.426397
0.130236
-0.140827
-0.378321
-0.583814
-0.759503
-0.899740
-1.019899
-1.124057
-1.211588
-1.289707
-1.360610
-1.426493
-1.497082
-1.555122
-1.611593
-1.656143
-1.703516
-1.744928
-1.779439
-1.810812
-1.831831
-1.837792
-1.834341
-1.822419
-1.803281
-1.773477
-1.732692
-1.682181
-1.619749
-1.543826
-1.462569
-1.366254
-1.267115
-1.162329
-1.054719
-0.951188
-0.847657
-0.732518
-0.609849
-0.467415
-0.300824
-0.120743
0.071260
0.265773
0.454953
0.635348
0.808214
0.965393
1.110650
1.239907
1.345007
1.424694
1.472382
1.489323
1.467990
1.414969
1.330890
1.211986
1.068611
0.897628
0.707508
0.496995
0.274874
0.036753
-0.210467
-0.469294
-0.738475
-1.019577
-1.307268
-1.598723
-1.884845
-2.165634
-2.437010
-2.707446
-2.960940
-3.215375
-3.464163
-3.715775
-3.968014
-4.206763
-4.433276
-4.628102
-4.791869
-4.901048
-4.964421
-4.976343
-4.932734
-4.842693
-4.700573
-4.517982
-4.297429
-4.051778
-3.768166
-3.466357
-3.136626
-2.789954
-2.427595
-2.063668
-1.698172
-1.337068
-0.981611
-0.638076
-0.301757
0.018562
0.325704
0.622493
0.897948
1.161482
1.403682
1.628000
1.828787
2.014202
2.174832
2.320717
2.445895
2.557897
2.655154
2.734842
2.803549
2.855942
2.902374
2.949120
3.004337
3.061436
3.115084
3.166222
3.207634
3.240576
3.253753
3.254694
3.226459
3.169674
3.081202
2.966690
2.826139
2.659549
2.470997
2.264876
2.046206
1.817497
1.591297
1.365098
1.142663
0.919915
0.687127
0.450888
0.204296
-0.047316
-0.303320
-0.565598
-0.830386
-1.107097
-1.379728
-1.666791
-1.958247
-2.241545
-2.535824
-2.796848
-3.048459
-3.260855
-3.452230
-3.597487
-3.713567
-3.793882
-3.821804
-3.820235
-3.776940
-3.710116
-3.614741
-3.505877
-3.390738
-3.264304
-3.138184
-3.012065
-2.881239
-2.760139
-2.650961
-2.547116
-2.466173
-2.399035
-2.346955
-2.305229
-2.249385
-2.204208
-2.143030
-2.076833
-2.002478
-1.909614
-1.819887
-1.714160
-1.622864
-1.533765
-1.454077
-1.376585
-1.307251
-1.243877
-1.188347
-1.145366
-1.103953
-1.080109
-1.048422
-1.028030
-0.993519
-0.960264
-0.924185
-0.880890
-0.833203
-0.776103
-0.713985
-0.644336
-0.564649
-0.478059
-0.382371
-0.295154
-0.206054
-0.132955
-0.067699
-0.014992
0.025793
0.056539
0.080382
0.099834
0.105167
0.105795
0.090108
0.072540
0.045559
0.023284
-0.002755
-0.023461
-0.025657
-0.018441
0.009481
0.058737
0.127757
0.217798
0.325408
0.445880
0.585491
0.741101
0.906437
1.078362
1.255619
1.431622
1.612331
1.783942
1.952101
2.104575
2.248891
2.370618
2.465679
2.535641
2.582700
2.614387
2.623486
2.615642
2.588662
2.547877
2.492661
2.424581
2.340188
2.243873
2.131557
2.007948
1.869279
1.719943
1.570608
1.421586
1.264721
1.104405
0.929343
0.746753
0.554436
0.367766
0.187685
0.023918
-0.106594
-0.214517
-0.299224
-0.364480
-0.411853
-0.435382
-0.435382
-0.420950
-0.389891
-0.353498
-0.315850
-0.287301
-0.265340
-0.244947
-0.228005
-0.204162
-0.186906
-0.165259
-0.149886
-0.136709
-0.121336
-0.113179
-0.098120
-0.082433
-0.063609
-0.046354
-0.037883
-0.043844
-0.062668
-0.095609
-0.148316
-0.205101
-0.260317
-0.310514
-0.346593
-0.370122
-0.384240
-0.397417
-0.409025
-0.420946
-0.439770
-0.467064
-0.493418
-0.524477
-0.561810
-0.606988
-0.656243
-0.703930
-0.757891
-0.812167
-0.863932
-0.910678
-0.940482
-0.959933
-0.967463
-0.955227
-0.926050
-0.884637
-0.827538
-0.755380
-0.671614
-0.571220
-0.452630
-0.307373
-0.149566
0.027064
0.203381
0.379698
0.550995
0.711625
0.863470
0.999002
1.121357
1.220182
1.290458
1.341910
1.363871
1.369205
1.351008
1.320577
1.270066
1.211712
1.131398
1.039161
0.938454
0.832413
0.723549
0.614684
0.516801
0.420172
0.335465
0.255777
0.184247
0.116168
0.048716
-0.011521
-0.068933
-0.119130
-0.157405
-0.178738
-0.185013
-0.178738
-0.167444
-0.155835
-0.149874
-0.151757
-0.169012
-0.203836
-0.246189
-0.307994
-0.370426
-0.448859
-0.532938
-0.622665
-0.715215
-0.798354
-0.874590
-0.927924
-0.967768
-0.981258
-0.964630
-0.925100
-0.855138
-0.761960
-0.648076
-0.515681
-0.371679
-0.221088
-0.057321
0.100486
0.251390
0.396020
0.529669
0.650456
0.757752
0.847479
0.926539
0.986775
1.032580
1.060502
1.077130
1.073679
1.057679
1.021914
0.963874
0.880108
0.769989
0.634144
0.478220
0.301903
0.120567
-0.064533
-0.243046
-0.402421
-0.534501
-0.644307
-0.736230
-0.819682
-0.893408
-0.974664
-1.054352
-1.145020
-1.241962
-1.340160
-1.444632
-1.548790
-1.652949
-1.753028
-1.847461
-1.939698
-2.019699
-2.090288
-2.143622
-2.174681
-2.189113
-2.190368
-2.190054
-2.176563
-2.169661
-2.142680
-2.114130
-2.060169
-1.993658
-1.905185
-1.801654
-1.683692
-1.561964
-1.428315
-1.294038
-1.158193
-1.015445
-0.878659
-0.736539
-0.589399
-0.445396
-0.298257
-0.158647
-0.019350
0.115240
0.260184
0.411716
0.578934
0.757447
0.951960
1.147414
1.346633
1.542087
1.726247
1.896289
2.049390
2.175196
2.276531
2.359983
2.424612
2.478260
2.526888
2.572066
2.617243
2.665558
2.704147
2.735833
2.754344
2.750579
2.730187
2.690971
2.638891
2.575832
2.510262
2.444379
2.375986
2.315436
2.257396
2.204062
2.143198
2.086727
2.019589
1.949627
1.870254
1.784919
1.702094
1.620525
1.542719
1.473385
1.413463
1.358874
1.318717
1.271971
1.236833
1.196048
1.159342
1.127969
1.092831
1.068047
1.037929
1.021929
1.001223
0.983968
0.969850
0.963575
0.957928
0.955105
0.953536
0.945693
0.940360
0.927811
0.915889
0.902085
0.891105
0.882634
0.870713
0.855026
0.824595
0.791653
0.745849
0.707574
0.668357
0.630396
0.597768
0.564199
0.538160
0.511493
0.496120
0.481061
0.471649
0.462865
0.441218
0.418316
0.386629
0.360276
0.327021
0.304746
0.278079
0.258941
0.238235
0.219725
0.207804
0.199020
0.199647
0.206863
0.230393
0.263021
0.300983
0.346160
0.390082
0.445926
0.500202
0.563262
0.622557
0.686872
0.758403
0.841228
0.941308
1.052682
1.180684
1.314334
1.468062
1.619280
1.777400
1.926422
2.081405
2.226662
2.357802
2.471686
2.567374
2.641728
2.690670
2.721730
2.729573
2.722044
2.703534
2.665573
2.622592
2.578042
2.525335
2.474198
2.410197
2.327686
2.224155
2.101800
1.959680
1.806266
1.649087
1.494419
1.359828
1.244689
1.151825
1.080922
1.035118
1.011588
1.004373
1.013157
1.042334
1.080296
1.128610
1.178807
1.227122
1.262887
1.277005
1.269162
1.234025
1.162808
1.064610
0.933471
0.781626
0.600917
0.411424
0.209696
-0.002386
-0.219173
-0.444746
-0.674710
-0.914086
-1.155658
-1.399113
-1.630960
-1.856218
-2.062966
-2.248067
-2.402108
-2.523522
-2.619210
-2.691054
-2.747211
-2.782349
-2.803996
-2.804624
-2.790506
-2.752858
-2.686974
-2.594737
-2.477716
-2.338106
-2.177789
-1.999904
-1.794410
-1.571348
-1.331344
-1.077536
-0.820904
-0.549527
-0.287876
-0.022774
0.229152
0.474175
0.702571
0.904928
1.087832
1.235913
1.365798
1.460231
1.528938
1.566899
1.584469
1.579763
1.557174
1.525488
1.484075
1.437016
1.384937
1.334740
1.283602
1.239680
1.205170
1.179758
1.173483
1.178189
1.184778
1.197955
1.207680
1.228073
1.251917
1.279211
1.310585
1.336624
1.367056
1.394351
1.408155
1.428234
1.439529
1.463058
1.492549
1.526119
1.562511
1.590120
1.613963
1.634042
1.650356
1.658514
1.652239
1.625886
1.584474
1.514198
1.434197
1.331607
1.221802
1.110428
0.999681
0.888621
0.786031
0.696931
0.636695
0.596538
0.583989
0.592774
0.634814
0.695991
0.787914
0.898034
1.026350
1.173803
1.332551
1.498201
1.664792
1.835775
1.996405
2.153898
2.299782
2.426216
2.538845
2.624808
2.696652
2.744653
2.773830
2.786693
2.790458
2.779791
2.764105
2.737752
2.707320
2.673751
2.637672
2.604730
2.573357
2.548573
2.526298
2.507161
2.487082
2.462925
2.431238
2.390767
2.343394
2.280962
2.199392
2.098685
1.974134
1.835465
1.684561
1.533029
1.383380
1.244711
1.114200
1.006277
0.909648
0.835921
0.783528
0.762822
0.771607
0.811765
0.876393
0.966748
1.074985
1.205497
1.350127
1.514835
1.695230
1.888802
2.091158
2.309829
2.525989
2.746228
2.957369
3.153137
3.333218
3.485064
3.606791
3.702165
3.765225
3.800677
3.811344
3.797226
3.762088
3.714088
3.651342
3.575106
3.494163
3.406946
3.317847
3.217767
3.119256
3.014470
2.900900
2.787957
2.662779
2.552659
2.433128
2.326460
2.222302
2.131320
2.045358
1.968181
1.904493
1.844571
1.800021
1.759237
1.732256
1.705589
1.680177
1.652569
1.619313
1.584176
1.542136
1.500410
1.457429
1.408174
1.358291
1.307780
1.259152
1.215230
1.187308
1.155935
1.135229
1.113268
1.109503
1.108562
1.106366
1.102602
1.093190
1.075621
1.040797
0.984640
0.902129
0.799853
0.677184
0.535378
0.384474
0.212864
0.040626
-0.146671
-0.335537
-0.535069
-0.728327
-0.928800
-1.113588
-1.294924
-1.478770
-1.641909
-1.804108
-1.957208
-2.104975
-2.247408
-2.380744
-2.506863
-2.619806
-2.725847
-2.823730
-2.911889
-2.982791
-3.043969
-3.086322
-3.110166
-3.116126
-3.102636
-3.076910
-3.027968
-2.961143
-2.873298
-2.769453
-2.648353
-2.506233
-2.343721
-2.154855
-1.936812
-1.699318
-1.432961
-1.153427
-0.862285
-0.563927
-0.264001
0.034984
0.335852
0.631700
0.926607
1.209278
1.481910
1.746071
1.998938
2.223569
2.448827
2.653380
2.860442
3.059975
3.249782
3.431118
3.605866
3.774025
3.937793
4.095913
4.249327
4.396467
4.527293
4.647452
4.750669
4.835690
4.909417
4.970908
5.016713
5.056871
5.086362
5.097970
5.098597
5.069107
5.029891
4.960243
4.869888
4.757573
4.624551
4.479608
4.298586
4.114426
3.891678
3.648537
3.384690
3.096058
2.790798
2.467970
2.128200
1.777763
1.421366
1.062144
0.717668
0.383546
0.072953
-0.226660
-0.510272
-0.776001
-1.034515
-1.263852
-1.487542
-1.674838
-1.846763
-1.983863
-2.083629
-2.147630
-2.172728
-2.172100
-2.139472
-2.089589
-2.019313
-1.943390
-1.858369
-1.763936
-1.658523
-1.540874
-1.416636
-1.272634
-1.122984
-0.965805
-0.794822
-0.625721
-0.450346
-0.274343
-0.094889
0.079232
0.257117
0.430296
0.595632
0.759713
0.915010
1.059954
1.186073
1.307173
1.412587
1.504510
1.586394
1.658866
1.721612
1.770240
1.807888
1.829222
1.836438
1.823261
1.794398
1.744829
1.680201
1.598003
1.496355
1.380902
1.241920
1.081604
0.908111
0.723638
0.528811
0.326141
0.128805
-0.068845
-0.261475
-0.446262
-0.623206
-0.795444
-0.957015
-1.107606
-1.255372
-1.378668
-1.493494
-1.587613
-1.662280
-1.727850
-1.776478
-1.822910
-1.860871
-1.904166
-1.939303
-1.976637
-2.009265
-2.037814
-2.070128
-2.087697
-2.107148
-2.118443
-2.122207
-2.123462
-2.120011
-2.106207
-2.089579
-2.067304
-2.030597
-1.994518
-1.947145
-1.903222
-1.861182
-1.827613
-1.802828
-1.788083
-1.790592
-1.805651
-1.838279
-1.887848
-1.943065
-2.007066
-2.072008
-2.146362
-2.217265
-2.300089
-2.396091
-2.493974
-2.602525
-2.716095
-2.831234
-2.938844
-3.038610
-3.127082
-3.214926
-3.293358
-3.365202
-3.434851
-3.504185
-3.584186
-3.662932
-3.754541
-3.855249
-3.954074
-4.059487
-4.172116
-4.280039
-4.383256
-4.482081
-4.589377
-4.693849
-4.797380
-4.901852
-5.006010
-5.108600
-5.204601
-5.292132
-5.367741
-5.435507
-5.483507
-5.515508
-5.527429
-5.523978
-5.497311
-5.456212
-5.395976
-5.319739
-5.228130
-5.126481
-5.006008
-4.876751
-4.732435
-4.573687
-4.406783
-4.218230
-4.017757
-3.809753
-3.594220
-3.372413
-3.147468
-2.921268
-2.695068
-2.469496
-2.239845
-2.010194
-1.773955
-1.528618
-1.296457
-1.064297
-0.846568
-0.644525
-0.469463
-0.315108
-0.185851
-0.077927
0.005211
0.079252
0.140116
0.188116
0.234862
0.277216
0.319570
0.358473
0.397375
0.423729
0.446945
0.461690
0.468279
0.465142
0.456671
0.427494
0.388906
0.330552
0.251492
0.157373
0.036587
-0.105533
-0.263967
-0.445616
-0.634796
-0.835583
-1.041390
-1.240922
-1.438886
-1.633399
-1.818813
-1.999522
-2.173956
-2.341174
-2.500235
-2.659924
-2.806436
-2.946360
-3.077185
-3.197971
-3.305267
-3.400013
-3.474053
-3.534290
-3.575702
-3.598918
-3.606133
-3.601114
-3.580094
-3.541818
-3.488170
-3.416012
-3.329736
-3.231225
-3.122046
-3.008789
-2.885180
-2.763138
-2.638273
-2.508389
-2.377249
-2.249247
-2.122500
-2.002028
-1.887202
-1.784926
-1.682650
-1.584766
-1.490333
-1.393076
-1.297702
-1.206092
-1.115738
-1.027266
-0.942245
-0.857851
-0.774399
-0.692515
-0.615023
-0.540983
-0.476041
-0.412039
-0.353999
-0.292194
-0.225369
-0.151643
-0.066622
0.033145
0.145460
0.271580
0.403975
0.536369
0.663116
0.778569
0.881787
0.983749
1.074104
1.166027
1.253558
1.338579
1.421717
1.496385
1.557563
1.603368
1.628466
1.638820
1.619682
1.582662
1.522112
1.447758
1.355522
1.255128
1.139989
1.022340
0.896848
0.770729
0.638021
0.506568
0.363193
0.207583
0.037228
-0.141285
-0.338621
-0.542859
-0.759647
-0.984278
-1.218948
-1.467422
-1.722485
-1.980371
-2.235748
-2.482026
-2.712618
-2.930974
-3.132702
-3.327529
-3.502590
-3.665103
-3.812556
-3.941499
-4.047853
-4.140404
-4.215385
-4.268719
-4.305425
-4.323935
-4.324563
-4.311072
-4.284091
-4.251149
-4.209423
-4.161108
-4.100558
-4.034989
-3.959693
-3.883143
-3.809730
-3.729728
-3.647531
-3.552784
-3.446429
-3.326270
-3.186033
-3.034187
-2.861949
-2.679358
-2.477315
-2.269626
-2.042171
-1.812520
-1.577850
-1.351022
-1.140509
-0.945683
-0.770935
-0.620971
-0.497675
-0.396967
-0.320731
-0.258612
-0.205592
-0.173591
-0.140649
-0.124335
-0.115550
-0.125590
-0.142845
-0.181747
-0.225983
-0.282768
-0.332651
-0.382848
-0.444652
-0.509595
-0.580184
-0.665205
-0.773755
-0.902071
-1.062701
-1.254076
-1.484040
-1.735024
-2.017382
-2.316053
-2.631038
-2.950102
-3.267283
-3.580700
-3.885959
-4.175846
-4.449419
-4.693501
-4.906837
-5.082526
-5.219626
-5.322216
-5.389354
-5.420100
-5.422923
-5.400334
-5.352647
-5.287705
-5.202684
-5.101035
-4.981817
-4.847541
-4.702283
-4.548242
-4.386670
-4.225726
-4.067920
-3.921094
-3.786503
-3.662580
-3.549009
-3.448929
-3.358888
-3.275750
-3.194493
-3.118884
-3.051118
-2.982725
-2.916528
-2.850644
-2.784447
-2.708838
-2.628209
-2.535345
-2.438088
-2.326400
-2.207496
-2.071023
-1.916981
-1.741292
-1.546779
-1.338776
-1.120733
-0.900808
-0.684334
-0.484801
-0.302524
-0.136560
0.006815
0.138268
0.245250
0.337801
0.408077
0.452313
0.469254
0.464549
0.430666
0.367920
0.283213
0.177486
0.052307
-0.083851
-0.217814
-0.347698
-0.476014
-0.590212
-0.691860
-0.774999
-0.839313
-0.886686
-0.911471
-0.917432
-0.909588
-0.879156
-0.831783
-0.767782
-0.691545
-0.600563
-0.501111
-0.395697
-0.290283
-0.183929
-0.076633
0.021879
0.117253
0.207607
0.303295
0.384865
0.463612
0.528868
0.581261
0.623615
0.649968
0.662204
0.657184
0.633341
0.594752
0.548320
0.496241
0.439142
0.387063
0.328709
0.267846
0.205100
0.138275
0.072392
0.008705
-0.051845
-0.110512
-0.167297
-0.220631
-0.278044
-0.328868
-0.383457
-0.437732
-0.490439
-0.549420
-0.611225
-0.678049
-0.759619
-0.837424
-0.915229
-0.994916
-1.068329
-1.137036
-1.192566
-1.235861
-1.260645
-1.264096
-1.247782
-1.211076
-1.157428
-1.091858
-1.008405
-0.911462
-0.798519
-0.671458
-0.532162
-0.393493
-0.257020
-0.132155
-0.021408
0.060475
0.115378
0.148320
0.148007
0.124477
0.071143
-0.004780
-0.098899
-0.216547
-0.345804
-0.490434
-0.638201
-0.788791
-0.936558
-1.074286
-1.201033
-1.310838
-1.403388
-1.467389
-1.515076
-1.526684
-1.516958
-1.474918
-1.406839
-1.316170
-1.209188
-1.088088
-0.961341
-0.823299
-0.677101
-0.533412
-0.379057
-0.219995
-0.057169
0.102206
0.267542
0.422525
0.569037
0.710844
0.841042
0.961828
1.071948
1.165126
1.241049
1.301285
1.342384
1.359325
1.365600
1.360581
1.338620
1.314776
1.284031
1.255795
1.232266
1.220344
1.211246
1.221285
1.232894
1.257051
1.282463
1.310072
1.343327
1.369053
1.395093
1.412035
1.414545
1.399799
1.370936
1.328269
1.269288
1.196189
1.112737
1.014539
0.913204
0.809987
0.706456
0.609828
0.514140
0.425982
0.342530
0.262842
0.186292
0.112252
0.035074
-0.047750
-0.135595
-0.233478
-0.331990
-0.439599
-0.546581
-0.657955
-0.769957
-0.886351
-1.003058
-1.133256
-1.269101
-1.422829
-1.580322
-1.747854
-1.915385
-2.077898
-2.239782
-2.391000
-2.534375
-2.674299
-2.801987
-2.919008
-3.029441
-3.138619
-3.239640
-3.340975
-3.441369
-3.538625
-3.642783
-3.743491
-3.847335
-3.950866
-4.049377
-4.144437
-4.238243
-4.321067
-4.394480
-4.458481
-4.503972
-4.534717
-4.548521
-4.541933
-4.519344
-4.475108
-4.414872
-4.344910
-4.262085
-4.167965
-4.072591
-3.973766
-3.872431
-3.769527
-3.663172
-3.555877
-3.444188
-3.332814
-3.224577
-3.119477
-3.018769
-2.920885
-2.838688
-2.762138
-2.703156
-2.656096
-2.630684
-2.619703
-2.616252
-2.624095
-2.632880
-2.637585
-2.638213
-2.631624
-2.615624
-2.593035
-2.558211
-2.514916
-2.464405
-2.396326
-2.319775
-2.231931
-2.138439
-2.023927
-1.907847
-1.782041
-1.644940
-1.497487
-1.344386
