EVENT_NAME: 202302060117
EVENT_ID: 13194
EVENT_DATE_YYYYMMDD: 2023/02/06
EVENT_TIME_HHMMSS: 01:17:32.00000
EVENT_LATITUDE_DEGREE: 37.288
EVENT_LONGITUDE_DEGREE: 37.043
EVENT_DEPTH_KM: 8.6
HYPOCENTER_REFERENCE: AFAD
MAGNITUDE_W: 7.7
MAGNITUDE_W_REFERENCE: AFAD
MAGNITUDE_L: 
MAGNITUDE_L_REFERENCE: 
FOCAL_MECHANISM: 
NETWORK: TK
STATION_CODE: 6305
STATION_NAME: 
STATION_LATITUDE_DEGREE: 37.16045
STATION_LONGITUDE_DEGREE: 38.786937
STATION_ELEVATION_M: 547.0
LOCATION: Kahramanmaras_Pazarck_Turkiye
SENSOR_DEPTH_M: 
VS30_M/S: None
SITE_CLASSIFICATION_EC8: unknown
MORPHOLOGIC_CLASSIFICATION: 
EPICENTRAL_DISTANCE_KM: 155.06
EARTHQUAKE_BACKAZIMUTH_DEGREE: 
DATE_TIME_FIRST_SAMPLE_YYYYMMDD_HHMMSS: 2023/02/06 01:17:38.7566880
DATE_TIME_FIRST_SAMPLE_PRECISION: millisecond
SAMPLING_INTERVAL_S: 0.005
NDATA: 27001
DURATION_S: 
STREAM: HNN
UNITS: cm/s^2
INSTRUMENT: sensor = GEO-A200,/GEObit | digitizer = 
INSTRUMENT_ANALOG/DIGITAL: 
INSTRUMENTAL_FREQUENCY_HZ: 
INSTRUMENTAL_DAMPING: 
FULL_SCALE_G: 
N_BIT_DIGITAL_CONVERTER: 
PGA_CM/S^2: 126.659
TIME_PGA_S: 
BASELINE_CORRECTION: BASELINE REMOVED
FILTER_TYPE: BUTTERWORTH
FILTER_ORDER: 
LOW_CUT_FREQUENCY_HZ: 
HIGH_CUT_FREQUENCY_HZ: 
LATE/NORMAL_TRIGGERED: 
DATABASE_VERSION: 
HEADER_FORMAT: DYNA 1.2
DATA_TYPE: Acceleration
PROCESSING: Automatic Paolucci et al., 2011
DATA_TIMESTAMP_YYYYMMDD_HHMMSS: 
DATA_LICENSE: U (unknown license)
DATA_CITATION: Turkish Accelerometric Archive v 1.0 - Disaster And Emergency Management Presidency, Earthquake Department
DATA_CREATOR: AFAD
ORIGINAL_DATA_MEDIATOR_CITATION: : AFAD - Disaster And Emergency Management Presidency
ORIGINAL_DATA_MEDIATOR: AFAD PROCESS SERVICE
ORIGINAL_DATA_CREATOR_CITATION: AFAD PROCESS SERVICE
ORIGINAL_DATA_CREATOR: network: TK
USER1: GuestUser
USER2: 
USER3: 
USER4: 
USER5: 
[...]
7.012151
11.022934
15.471591
17.398001
19.501914
20.861442
20.865445
19.813607
19.995820
18.754708
15.237358
11.237406
6.857022
1.571228
-4.179042
-7.411303
-9.323115
-7.913679
-2.626471
2.275832
5.800952
6.011886
1.360302
-6.387237
-14.315340
-20.839187
-23.771763
-23.209354
-22.374568
-19.421744
-17.246735
-18.115890
-18.671707
-21.235151
-25.123986
-28.467834
-30.641194
-31.640534
-32.501214
-31.484687
-28.126006
-23.639683
-18.906879
-13.927595
-10.518536
-7.861865
-5.005798
-2.860451
0.299538
3.101460
5.472806
8.102403
9.281132
9.261122
9.309383
10.279062
12.882999
15.822169
18.299923
21.545839
23.729794
24.814356
24.827069
23.168800
20.295313
14.383313
8.431291
5.229164
3.274506
3.045682
5.146771
8.133023
10.755558
12.974354
15.001757
15.669869
14.850151
15.276019
16.442742
17.906795
19.355781
19.299046
18.673076
16.146592
11.470761
7.160060
4.709145
4.728921
7.002569
8.749827
8.269815
6.451933
2.516014
-1.724298
-4.504559
-6.881318
-9.030195
-13.098888
-19.807301
-27.656776
-36.866012
-44.494902
-47.847225
-47.440660
-44.091632
-39.400497
-34.322338
-30.618773
-28.590193
-26.161170
-21.766659
-16.505817
-11.068884
-5.952117
-3.573473
-2.928904
-5.511181
-9.610479
-11.393048
-10.997312
-5.655017
2.119832
10.444613
19.409725
26.056225
28.950194
25.263816
14.188202
-1.062516
-15.406175
-25.909964
-30.607925
-27.427690
-18.071787
-7.223582
-0.329425
1.849586
-0.069759
-6.721672
-14.557963
-19.690973
-20.223954
-14.495340
-5.660649
4.102053
12.643181
15.791399
15.614367
12.784433
9.795828
7.666962
5.200980
4.637160
3.864054
2.077719
-0.740681
-2.654141
-3.577677
-5.119415
-3.442782
1.054135
5.761749
10.815660
14.684016
16.361120
16.229288
14.033564
11.882098
9.716037
7.737602
7.279718
6.663165
6.591363
6.495079
5.228542
2.667923
-2.344082
-7.605158
-11.496112
-14.516499
-15.236635
-13.787885
-12.315828
-11.466917
-9.197506
-4.638675
2.540807
13.573107
26.714499
38.528615
45.789551
45.936922
39.496648
30.507996
22.563413
20.666432
24.456395
29.583756
35.244805
36.162457
31.440013
24.305968
16.008733
9.074556
5.137460
3.483192
1.812917
-0.285816
-5.346788
-12.525562
-19.630651
-27.310861
-33.419199
-36.228181
-34.440902
-29.461854
-22.429978
-15.896477
-11.960086
-7.349934
-1.735026
3.795602
10.212336
16.151882
19.116241
21.331977
20.630673
15.532977
11.287486
6.697817
1.279248
-2.753427
-4.802016
-4.604972
-2.853477
-1.161777
-0.760156
-0.859501
-2.279765
-1.955125
2.141584
9.529880
20.516274
30.073693
37.246583
37.010226
24.605453
7.052603
-11.081019
-25.497657
-32.111433
-27.990946
-12.813442
6.440997
21.578480
28.661206
28.620951
21.260200
8.916635
-1.175647
-4.864144
-2.380740
3.308323
10.000494
14.450563
15.677787
14.376644
8.296321
1.191468
-4.587994
-7.577541
-8.710597
-11.641761
-12.080104
-13.153600
-15.434781
-14.421549
-12.436286
-6.369615
2.792069
10.853655
19.354998
25.228156
25.006160
19.696118
10.495827
1.166292
-4.432134
-6.435288
-4.627764
0.290077
4.605253
6.160882
5.876030
3.647583
1.520130
0.136591
-1.621260
-1.476007
-1.359476
-1.125471
-0.129190
0.061968
-0.205934
0.227703
1.522256
3.792138
9.422347
14.892709
17.777733
16.998742
10.250308
1.019178
-9.686834
-19.713906
-26.325092
-31.077434
-31.093441
-28.538942
-27.117499
-26.169007
-27.789375
-30.745963
-33.941499
-37.833866
-42.983119
-48.634750
-54.040371
-58.610029
-59.897048
-57.972757
-50.335155
-38.007361
-27.004724
-18.048793
-10.609647
-6.401115
-3.795059
0.925267
5.214312
6.858222
9.786092
13.003994
13.617018
14.856248
16.236257
15.343325
15.277174
18.124767
21.954515
27.454068
33.964027
38.278261
38.588305
32.644758
22.773532
9.753381
-5.583499
-19.358393
-30.278398
-35.422707
-35.334661
-34.259986
-32.254241
-30.978521
-31.551287
-29.752944
-27.109693
-24.438898
-19.838398
-16.616965
-12.977904
-7.618658
-3.307955
1.833295
6.568688
8.151155
7.363454
6.829767
8.399522
10.292267
13.881891
18.565257
20.769928
21.153422
19.155447
16.882036
16.420386
15.974273
19.864759
25.757457
29.497747
34.258800
35.133842
32.619365
29.460319
24.081064
17.697525
10.837505
5.772060
1.887932
-1.405066
-4.913705
-9.008294
-13.125719
-14.824244
-12.368855
-9.245826
-4.832246
-0.801217
1.245254
0.728046
-1.906964
-5.924101
-12.442769
-17.252788
-22.758460
-26.991239
-25.114267
-20.200899
-11.931441
-3.368184
1.371682
2.112537
0.262168
-1.312999
0.689215
6.810502
15.589164
25.081137
34.713889
41.325548
43.101527
43.869690
40.760081
34.865737
28.412279
20.771854
15.028647
12.000727
9.998515
6.611822
2.995833
-2.199797
-8.751894
-13.623591
-17.088443
-20.462895
-24.592090
-28.996958
-36.554752
-45.163207
-51.443869
-56.112638
-55.976567
-52.313023
-47.634835
-41.901985
-39.121250
-40.551637
-46.245878
-56.219040
-66.366645
-75.327753
-81.590759
-81.932818
-76.442210
-67.162347
-57.198600
-49.265552
-44.088518
-41.625831
-40.181788
-37.241206
-32.323366
-25.666037
-19.815242
-14.703184
-8.180277
-2.533824
2.419800
8.809226
15.554836
21.185516
26.750280
30.894308
31.746280
31.402102
28.297437
23.063905
19.188724
16.181521
15.371926
17.362840
22.048325
29.388360
37.195226
43.688235
47.866634
50.238921
49.711355
46.080535
40.993903
37.605797
37.647937
37.967397
39.334223
42.754583
46.908028
49.095514
47.464082
42.347081
32.535179
20.653971
8.005071
-5.483087
-17.371122
-26.052086
-29.561431
-26.628147
-18.311841
-9.462554
-1.751267
4.528455
8.649412
12.674791
14.450064
15.457174
17.397238
16.684399
13.895662
10.764866
7.828759
4.816377
3.114084
2.574747
0.659168
-1.874378
-5.411267
-10.342289
-17.325668
-26.284422
-34.549877
-42.170056
-47.480333
-49.180036
-46.512066
-36.136576
-18.526519
3.542318
24.745765
40.354552
47.642325
46.875811
43.521605
39.447968
37.800057
40.895072
43.826237
45.073707
45.747468
43.302909
37.281676
29.626655
20.911556
11.384272
2.920127
-0.425133
0.986657
6.866878
16.059873
22.878933
25.929219
24.560040
18.204045
7.730624
-1.682483
-5.367684
-4.708754
0.482640
5.043119
5.093028
0.126458
-12.275726
-27.184854
-40.143797
-48.608178
-50.514811
-45.805784
-36.176328
-25.429588
-15.767880
-9.471208
-6.551343
-7.423087
-12.507601
-20.259848
-28.581332
-33.107909
-32.705583
-27.099621
-16.879036
-6.169962
2.563501
7.309252
7.312549
5.830135
5.469008
6.913521
11.712241
19.700142
27.007219
31.350645
32.250170
26.942482
17.074551
6.599247
-1.223860
-4.621854
-5.514080
-2.772660
0.585550
2.909107
5.575664
5.619688
5.328008
2.994566
-1.392410
-2.411761
-3.613088
-3.973038
-0.195552
5.017265
11.525105
18.660093
25.465028
30.152632
31.004132
30.514939
27.315636
20.225614
12.703133
4.213091
-2.943554
-5.215317
-6.927732
-8.067145
-5.897550
-2.738973
1.947218
7.351193
10.889731
12.495269
10.783560
8.743446
8.653047
8.252841
7.786953
5.153826
1.617408
1.067007
2.566607
7.314242
15.482236
23.418815
28.432941
29.774107
25.809467
15.531912
3.374326
-6.723136
-13.817866
-15.125601
-10.583485
-4.638053
1.514309
5.838901
4.647226
0.538041
-5.489784
-12.705048
-17.493644
-20.273199
-21.456635
-20.695299
-18.245324
-14.697604
-12.359452
-12.757539
-16.570100
-21.590345
-21.781032
-17.600514
-12.829102
-8.090177
-6.021341
-7.382045
-10.652207
-13.053449
-12.277282
-9.472065
-4.863560
0.298171
3.447331
4.298126
5.076882
8.080085
13.945475
21.269973
25.965581
24.887377
18.238759
8.581290
-0.596636
-6.640941
-7.352603
-2.561651
4.335567
10.698155
13.115878
11.558132
9.324506
6.574141
4.651971
1.997186
-3.184084
-9.747481
-16.411165
-21.160446
-22.581887
-20.773656
-18.716590
-17.356120
-13.262942
-6.724027
-2.219106
1.847000
4.555461
1.547081
-6.363130
-18.849828
-32.259828
-41.962497
-46.051672
-42.772091
-35.411810
-28.808861
-25.298573
-28.968001
-36.771569
-43.685265
-48.913147
-47.519483
-41.410673
-30.104349
-12.929576
2.235216
16.832420
31.645501
43.755535
52.688395
60.226180
65.399212
64.683784
63.562969
62.126461
56.634914
47.735249
37.906868
31.144544
27.538443
29.288291
35.290458
41.064271
44.736290
41.458829
30.753289
16.104059
-1.262577
-17.488623
-31.391819
-41.572382
-44.090626
-40.370111
-32.091236
-25.234745
-23.375664
-24.007756
-28.873332
-33.333758
-33.250891
-29.923991
-21.585086
-12.008834
-2.098762
10.016687
20.754011
29.246878
34.379889
34.535735
30.457390
24.800344
20.039999
16.621289
13.500851
8.994990
5.415255
5.002807
5.295430
7.299056
10.963306
13.520396
15.438566
16.605994
19.168498
23.190110
27.109787
31.931343
35.991092
38.219776
38.448130
36.045946
33.306882
31.781858
30.903286
30.283908
29.668767
29.428172
28.893543
28.262394
28.183060
28.020388
28.408119
28.246153
25.418808
20.952497
15.536047
8.786201
3.341736
0.497206
-1.793156
-3.005782
-3.167748
-5.098864
-7.959639
-9.894286
-11.091847
-10.084265
-9.461119
-10.443038
-12.170049
-17.632640
-23.595020
-27.953040
-30.102387
-28.558764
-26.815272
-25.589460
-26.126443
-29.291846
-32.503625
-33.251541
-30.674441
-25.984248
-18.430455
-9.389303
0.450379
11.418411
19.350047
21.641116
19.522137
15.307721
10.758073
9.010581
10.956530
12.136436
11.081773
9.297791
4.872207
-1.815960
-7.843315
-13.320031
-19.534071
-25.920905
-31.634921
-37.066203
-38.461277
-36.371959
-32.896983
-24.660954
-15.461839
-4.907433
7.370688
16.547674
24.970388
29.142431
29.302985
27.037343
20.695708
13.966814
7.682620
2.871425
-0.576241
-1.377361
-2.751248
-4.458249
-4.480848
-5.921593
-7.130453
-7.911798
-6.666682
-5.571291
-2.434843
4.808908
12.623777
21.379605
28.919509
35.090704
37.539737
35.243490
31.039904
24.878362
17.791400
11.777464
8.673976
10.108837
14.659429
19.820690
24.733587
25.656183
21.070045
12.697241
0.627229
-10.714877
-18.098698
-21.921618
-18.953963
-11.247620
-3.088337
5.775311
13.842076
22.620738
31.461786
35.309661
33.833368
27.394507
17.931727
9.379065
3.008239
-1.570366
-4.897028
-6.705493
-6.837796
-5.299587
-4.036580
-4.203254
-5.168458
-6.406981
-5.650118
-3.880731
-1.527747
0.254353
-0.834916
-1.835669
-3.343507
-3.438144
2.457379
12.226202
24.649810
36.552443
44.598491
49.310578
49.393681
47.530835
44.681125
40.087454
39.336478
42.386999
46.167074
51.374947
55.695302
56.235112
55.055443
52.274710
46.296322
39.667009
31.923472
24.170989
19.834392
17.739426
19.509755
24.385927
28.650253
31.426514
30.291104
26.835198
24.224200
22.713301
23.747013
25.109367
22.094159
15.159512
5.205654
-6.739587
-16.147515
-21.185887
-21.324782
-17.193937
-11.319131
-6.710862
-5.909741
-7.398746
-11.607041
-17.979280
-23.155135
-26.962752
-27.764343
-25.634769
-21.925319
-15.871596
-9.103621
-5.083657
-5.008323
-6.263090
-9.495115
-12.876158
-13.430091
-14.617764
-14.609053
-12.391669
-9.177769
-3.056953
5.266180
14.196921
22.479562
29.522503
34.624439
37.626229
38.051626
35.720538
32.185297
28.398161
24.633860
19.499909
12.700861
6.205735
-0.959856
-8.752124
-14.144562
-19.144561
-24.776652
-29.446362
-33.991538
-37.070072
-37.976423
-37.296541
-33.689967
-26.976373
-21.008577
-19.328648
-21.817936
-28.310943
-37.527714
-44.892702
-47.743353
-47.506288
-45.530912
-42.504168
-38.296577
-33.259145
-27.233202
-20.487121
-14.208105
-7.478032
-2.217897
0.536471
2.726782
4.056412
1.948499
-1.235266
-0.974660
0.287641
1.589963
3.611716
5.071767
5.049874
4.640016
5.876186
7.473013
8.278372
7.966211
6.012730
2.816959
-1.624163
-5.736408
-8.517141
-11.832739
-14.101677
-13.024177
-11.625806
-10.054168
-8.090327
-9.574859
-11.799069
-11.333180
-7.565582
-0.648118
6.513944
11.839760
14.003704
12.429008
7.413471
2.888306
0.975081
2.381222
9.016422
17.711276
25.583823
29.920657
29.516919
23.568429
12.070478
1.694755
-5.411040
-9.416172
-7.464102
-0.818543
6.654738
11.131880
10.184567
6.794342
3.575029
0.028018
-1.676629
-0.847022
2.394421
5.922837
5.616797
2.680690
-4.141900
-15.056255
-25.196562
-33.300521
-35.805346
-32.049048
-25.550154
-18.422934
-14.326460
-13.408572
-15.786037
-21.113971
-26.836697
-32.456076
-33.970977
-29.322217
-22.070933
-13.769694
-7.101536
-3.891873
-2.592847
-4.496185
-7.792243
-9.021584
-10.277057
-8.993568
-4.399660
-0.485162
2.495676
4.355933
4.909162
4.334512
3.433576
1.364270
0.413190
1.985535
2.890474
2.005782
-2.050905
-7.474889
-14.774431
-23.830648
-29.804328
-32.291732
-29.225674
-19.731582
-7.681108
2.533592
7.713216
9.060738
6.507652
1.780500
-0.513157
-1.031778
-0.612266
0.234291
0.747499
2.001560
2.239802
1.527905
2.834229
1.906926
-2.731709
-7.473457
-13.517997
-19.352546
-23.973526
-27.153288
-27.684857
-29.381970
-33.432537
-38.686079
-47.020981
-54.102763
-57.488986
-60.118346
-61.977661
-65.176257
-71.017162
-79.332760
-88.759521
-99.509085
-108.852509
-113.837206
-116.298009
-114.642798
-110.237929
-103.471602
-93.156379
-82.835036
-73.990221
-66.653717
-63.194514
-63.099405
-64.732014
-69.016113
-74.491653
-77.875756
-77.689071
-73.844021
-65.747123
-55.499700
-46.034564
-35.518061
-23.989268
-12.318285
0.723996
13.574178
25.503649
34.998211
41.596216
48.340884
56.443903
65.420315
76.656015
91.291356
104.964317
116.126331
124.407089
126.659079
120.583935
106.175536
91.743831
81.664497
74.763513
74.341413
79.381906
87.294708
95.184676
98.483325
97.609462
91.359639
78.845162
63.579614
49.554001
39.008072
33.595389
36.292315
42.151820
46.265950
48.773837
46.099277
40.567709
34.220424
24.895598
20.614088
22.960244
31.291381
46.282907
59.325424
71.521620
78.781615
81.248069
81.203340
74.853937
70.448363
66.894053
66.831904
70.931439
72.206688
70.490977
65.764531
58.546914
48.291253
39.771549
31.119777
23.426619
22.764866
21.285983
19.278357
18.352937
13.930649
9.263999
2.959089
-5.596398
-14.620598
-24.454394
-32.237716
-36.539236
-34.896738
-29.428259
-26.296284
-26.805488
-29.890143
-37.294446
-47.637917
-55.790607
-61.235071
-64.182008
-65.482210
-66.222827
-67.781045
-68.464221
-66.245896
-59.793614
-48.012220
-36.128656
-22.770917
-11.734145
-7.437096
-4.562666
-5.590491
-5.920308
-4.018617
-1.344762
7.305835
15.576234
21.677746
25.760802
25.090573
20.774222
11.614423
0.051732
-9.593495
-12.925572
-8.039277
5.837083
25.278206
41.942833
53.890901
58.726817
54.705913
44.681195
31.850554
20.608029
12.284192
8.739770
12.295494
20.298931
30.024202
39.233911
48.087672
54.125386
54.680027
54.560201
52.235704
47.508081
41.574422
32.065265
19.803860
5.435953
-8.468891
-23.110823
-35.861657
-45.166709
-48.291149
-41.869471
-31.085064
-19.109923
-11.739519
-9.892680
-12.964858
-18.202156
-21.620395
-21.608624
-17.261902
-11.749401
-5.308654
0.665969
7.558714
14.414263
19.838484
23.389735
21.075832
17.117784
11.925685
5.307436
1.914858
-0.284869
0.396897
6.192604
11.705576
15.292139
20.092036
22.234323
21.838589
26.200377
30.256124
32.166526
34.054798
32.334615
30.707185
27.189364
20.092044
13.744289
6.911576
1.353876
-0.481191
3.641180
9.261266
13.094545
16.339049
14.413112
12.207265
8.195306
3.340088
3.639302
3.162115
3.014275
2.256707
0.633044
0.711909
2.155480
8.484640
20.231427
32.224224
42.465762
50.572076
52.240235
46.086226
35.601270
22.802881
9.943990
2.879393
0.400228
2.842199
10.675667
17.462239
21.889237
20.502167
10.052053
-3.533803
-16.962400
-28.646801
-34.523489
-35.217730
-30.588509
-23.635498
-16.793131
-9.433321
-5.918795
-3.112165
-1.079582
0.847063
9.123819
19.124526
31.769425
44.820652
51.296005
49.807471
42.183996
30.864490
16.589101
8.383207
3.571776
0.011581
-0.487500
-3.893498
-7.383774
-9.330899
-10.740569
-11.481658
-9.929089
-8.175945
-8.795088
-8.895610
-8.446671
-8.369925
-6.466115
-4.310175
-2.642252
1.105572
3.132504
4.311233
4.451306
4.181520
6.347583
3.371926
-1.502126
-3.332720
-6.340393
-10.227346
-15.351880
-17.815743
-17.067119
-16.613472
-12.373629
-5.611069
1.798414
10.917018
17.975731
23.109448
27.426743
28.811931
28.576987
25.464082
17.731610
6.900592
-1.118382
-2.392688
-1.291646
6.272741
17.575533
24.915334
29.287245
27.434051
20.296239
8.810765
-3.923120
-15.246863
-26.166633
-28.836249
-24.116629
-17.315460
-7.502144
-1.535761
-0.981120
-1.479730
-4.934930
-7.965439
-10.415177
-14.970240
-18.885442
-25.735340
-31.207584
-29.957053
-28.100327
-23.141759
-19.047875
-16.580008
-8.785384
-0.924608
9.637801
17.120028
19.008771
19.359542
11.540907
1.967246
-10.606320
-21.373540
-24.065757
-22.922811
-13.487103
-1.293496
9.175689
16.583995
21.698173
24.515397
26.547273
31.695350
34.128140
36.232053
37.972955
34.450897
30.165150
27.382534
23.345622
17.210447
10.720264
4.419121
-2.906553
-9.546224
-13.564303
-17.961167
-23.308640
-30.660209
-40.611242
-50.133347
-59.387548
-67.482091
-71.146810
-69.963844
-65.666089
-57.222894
-47.792365
-43.383964
-44.154716
-47.656292
-54.716652
-63.099343
-66.724984
-67.340596
-66.061109
-65.277880
-67.437821
-69.270062
-73.035776
-77.146844
-75.679966
-72.035726
-67.852619
-58.714240
-45.653832
-33.327921
-22.629206
-14.476985
-8.446804
-1.655523
5.464163
12.087593
13.763284
11.888903
9.635502
2.045221
-8.252344
-16.527686
-19.658482
-18.309312
-16.696241
-15.751752
-17.640964
-22.556684
-28.849588
-32.523254
-34.247439
-38.487987
-42.089615
-43.511056
-42.495941
-36.732957
-29.959333
-23.427480
-17.836350
-15.297388
-13.574848
-16.790394
-21.781918
-27.828106
-37.563027
-43.059519
-44.417633
-42.349738
-36.661852
-30.670985
-29.155141
-32.409766
-37.415415
-42.349969
-40.071847
-28.931727
-14.171380
2.563637
16.263906
19.779845
14.618350
0.292347
-22.294403
-45.484995
-63.588248
-73.296802
-74.706237
-68.275378
-58.652042
-52.203056
-49.337101
-45.660609
-42.074046
-38.768569
-32.434702
-27.787119
-20.925684
-10.871302
2.161563
18.795822
30.663142
42.078934
50.350511
54.732074
60.255405
59.791636
56.393172
53.340298
49.399200
49.063497
51.372694
53.049327
54.308568
55.496242
54.028895
48.436119
43.364082
36.549261
28.925551
25.106163
23.175046
26.034645
32.312719
38.159511
42.012094
43.370445
42.137573
37.600401
31.324683
24.615093
21.230047
21.209331
24.047036
30.536043
35.306043
36.327043
33.082305
22.476580
5.314285
-13.358438
-28.583731
-38.884356
-41.268884
-34.615086
-25.416676
-18.041328
-13.413049
-16.436731
-28.665414
-42.175936
-54.375191
-65.749785
-70.167600
-66.289356
-56.445672
-43.587486
-33.737209
-28.362191
-26.033455
-26.140569
-24.515727
-21.262748
-16.873652
-7.427585
3.410732
11.639934
16.638287
18.709242
20.654485
24.279892
26.473970
27.219298
29.413611
30.704162
29.616541
27.062749
23.635093
16.863824
11.128150
2.672951
-6.037205
-6.010131
-7.140598
-5.592031
-3.989789
-4.347149
-2.901694
-8.537552
-17.487125
-29.238149
-44.876831
-58.265173
-66.969678
-67.059135
-58.211495
-46.456704
-34.598565
-23.861947
