EVENT_NAME: 202302060117
EVENT_ID: 13194
EVENT_DATE_YYYYMMDD: 2023/02/06
EVENT_TIME_HHMMSS: 01:17:32.00000
EVENT_LATITUDE_DEGREE: 37.288
EVENT_LONGITUDE_DEGREE: 37.043
EVENT_DEPTH_KM: 8.6
HYPOCENTER_REFERENCE: AFAD
MAGNITUDE_W: 7.7
MAGNITUDE_W_REFERENCE: AFAD
MAGNITUDE_L: 
MAGNITUDE_L_REFERENCE: 
FOCAL_MECHANISM: 
NETWORK: TK
STATION_CODE: 1215
STATION_NAME: 
STATION_LATITUDE_DEGREE: 38.83498
STATION_LONGITUDE_DEGREE: 40.55687
STATION_ELEVATION_M: 1045.0
LOCATION: Kahramanmaras_Pazarck_Turkiye
SENSOR_DEPTH_M: 
VS30_M/S: None
SITE_CLASSIFICATION_EC8: unknown
MORPHOLOGIC_CLASSIFICATION: 
EPICENTRAL_DISTANCE_KM: 352.42
EARTHQUAKE_BACKAZIMUTH_DEGREE: 
DATE_TIME_FIRST_SAMPLE_YYYYMMDD_HHMMSS: 2023/02/06 01:17:57.0762650
DATE_TIME_FIRST_SAMPLE_PRECISION: millisecond
SAMPLING_INTERVAL_S: 0.01
NDATA: 21001
DURATION_S: 
STREAM: HNZ
UNITS: cm/s^2
INSTRUMENT: sensor = ACEBOX/SARA | digitizer = 
INSTRUMENT_ANALOG/DIGITAL: 
INSTRUMENTAL_FREQUENCY_HZ: 
INSTRUMENTAL_DAMPING: 
FULL_SCALE_G: 
N_BIT_DIGITAL_CONVERTER: 
PGA_CM/S^2: 62.406
TIME_PGA_S: 
BASELINE_CORRECTION: BASELINE REMOVED
FILTER_TYPE: BUTTERWORTH
FILTER_ORDER: 
LOW_CUT_FREQUENCY_HZ: 
HIGH_CUT_FREQUENCY_HZ: 
LATE/NORMAL_TRIGGERED: 
DATABASE_VERSION: 
HEADER_FORMAT: DYNA 1.2
DATA_TYPE: Acceleration
PROCESSING: Automatic Paolucci et al., 2011
DATA_TIMESTAMP_YYYYMMDD_HHMMSS: 
DATA_LICENSE: U (unknown license)
DATA_CITATION: Turkish Accelerometric Archive v 1.0 - Disaster And Emergency Management Presidency, Earthquake Department
DATA_CREATOR: AFAD
ORIGINAL_DATA_MEDIATOR_CITATION: : AFAD - Disaster And Emergency Management Presidency
ORIGINAL_DATA_MEDIATOR: AFAD PROCESS SERVICE
ORIGINAL_DATA_CREATOR_CITATION: AFAD PROCESS SERVICE
ORIGINAL_DATA_CREATOR: network: TK
USER1: GuestUser
USER2: 
USER3: 
USER4: 
USER5: 
[...]
2.654361
2.489300
2.017731
1.403078
0.909766
0.511843
0.102697
-0.299668
-0.726114
-1.249820
-1.795971
-2.228262
-2.564229
-2.836602
-2.923809
-2.760151
-2.415534
-1.959863
-1.504426
-1.104399
-0.623010
0.002163
0.715713
1.562526
2.535824
3.435242
4.003603
4.115592
3.853739
3.335410
2.626771
1.894050
1.310258
0.899710
0.590630
0.304930
0.039804
-0.221816
-0.539079
-0.829689
-1.013687
-1.149523
-1.275540
-1.376073
-1.375839
-1.274605
-1.192543
-1.092477
-0.877618
-0.595191
-0.286578
0.067390
0.436089
0.707060
0.836817
0.904151
0.967977
1.056586
1.163432
1.278460
1.443754
1.640378
1.755172
1.625648
1.165769
0.479340
-0.282839
-0.962955
-1.407638
-1.590701
-1.572699
-1.508872
-1.512145
-1.505833
-1.477544
-1.425874
-1.280920
-1.146019
-0.991713
-0.619274
-0.124326
0.370389
0.875391
1.256013
1.438375
1.503137
1.439778
1.215800
0.918643
0.599043
0.164180
-0.400207
-0.968568
-1.478013
-1.908901
-2.203486
-2.363871
-2.477262
-2.476561
-2.189458
-1.727007
-1.318330
-0.978155
-0.628628
-0.226964
0.234084
0.761297
1.243854
1.461285
1.474612
1.463389
1.443984
1.593381
2.175302
3.216167
4.520756
5.822773
6.885615
7.406515
7.225089
6.542400
5.546658
4.305662
2.946832
1.663051
0.635512
-0.226966
-1.122410
-1.872431
-2.169120
-2.063678
-1.787563
-1.374444
-0.780131
-0.053489
0.841019
1.877676
2.806319
3.605204
4.336288
4.640224
4.354290
3.856302
3.368601
2.812397
2.166415
1.585896
1.204105
0.835875
0.302349
-0.197743
-0.507992
-0.728931
-0.931867
-1.087108
-1.141349
-1.118905
-1.178757
-1.465626
-1.980448
-2.541795
-2.892959
-2.925223
-2.720417
-2.451316
-2.193672
-1.947717
-1.791073
-1.548158
-0.926491
-0.201953
0.191060
0.373422
0.620779
0.718740
0.243664
-0.691058
-1.681423
-2.662202
-3.552736
-3.996484
-3.859946
-3.464127
-3.150138
-2.934577
-2.750578
-2.649110
-2.635550
-2.599779
-2.506494
-2.475867
-2.468619
-2.317586
-2.093609
-1.918962
-1.742679
-1.460252
-1.078929
-0.800243
-0.721453
-0.723090
-0.832741
-1.225520
-1.923873
-2.719952
-3.336710
-3.717098
-3.991108
-4.100993
-3.860182
-3.401238
-3.036514
-2.795703
-2.653555
-2.787754
-3.078364
-3.060830
-2.733046
-2.523096
-2.439397
-2.188766
-1.753436
-1.196531
-0.564343
-0.053730
0.232906
0.399135
0.514163
0.507383
0.289484
-0.094879
-0.575098
-1.150240
-1.716497
-2.185728
-2.643035
-3.050310
-3.196434
-3.101278
-3.002148
-2.868183
-2.395912
-1.489480
-0.282619
1.091174
2.368642
3.351292
4.264270
5.265390
6.173926
6.904776
7.402530
7.585360
7.464253
6.976552
6.121087
5.006809
3.681646
2.262731
0.971235
0.096833
-0.161513
0.091221
0.745386
1.775497
3.003868
4.248370
5.363817
6.173691
6.584472
6.612528
6.388083
6.156623
6.050245
5.974963
5.872092
5.848946
5.924696
5.883548
5.474870
4.671542
3.787789
3.229481
3.106971
3.299853
3.659434
3.929469
3.810934
3.159809
2.007656
0.553437
-0.935151
-2.228050
-3.078838
-3.314740
-2.940664
-2.076316
-1.016045
-0.120368
0.450565
0.652332
0.467632
-0.017965
-0.677975
-1.322320
-1.687511
-1.657118
-1.331906
-0.902420
-0.514551
-0.152165
0.229158
0.551097
0.756371
0.848954
0.815755
0.613754
0.263058
-0.032929
-0.081325
0.175384
0.757072
1.443266
1.808691
1.611600
0.930315
0.039314
-0.929075
-1.923415
-2.642341
-2.809039
-2.385632
-1.478265
-0.362584
0.619598
1.254825
1.544266
1.538655
1.249915
0.753563
-0.006979
-1.150248
-2.527314
-3.849204
-4.792342
-5.158001
-5.076640
-4.699291
-4.119006
-3.559763
-3.120692
-2.606338
-1.921546
-1.365576
-1.233481
-1.455121
-1.802310
-1.985139
-1.788048
-1.446938
-1.396438
-1.568981
-1.406024
-0.646884
0.209047
0.585695
0.679214
0.964212
1.378969
1.602245
1.529300
1.188891
0.637130
0.101968
-0.206879
-0.499359
-0.886995
-0.921130
-0.343884
0.577978
1.544964
2.403701
3.075868
3.532942
3.822383
3.982066
3.985105
3.886209
3.701042
3.319718
2.787595
2.275346
1.847497
1.589852
1.642924
1.915765
2.143250
2.262019
2.471969
2.979542
3.798534
4.820228
5.891487
6.795347
7.373762
7.480607
6.973267
5.974952
4.729047
3.425627
2.333326
1.544494
0.928204
0.563013
0.595277
0.785588
0.777171
0.581015
0.280118
-0.362825
-1.354827
-2.090587
-2.091522
-1.458165
-0.402337
0.966780
2.436195
3.659189
4.268932
4.074179
3.291659
2.334493
1.374522
0.445879
-0.159189
-0.047901
0.779507
1.935401
3.133144
4.197389
4.738864
4.528680
3.847161
3.022791
2.239570
1.772210
1.764027
2.020268
2.387798
2.829441
3.033312
2.801151
2.510775
2.411645
2.227178
1.759116
1.183507
0.716614
0.310274
-0.160593
-0.640579
-1.095549
-1.658766
-2.308489
-2.730961
-2.787072
-2.642352
-2.355717
-1.930439
-1.460039
-0.955037
-0.345996
0.413845
1.258555
2.011148
2.466351
2.425904
1.868532
1.005586
0.060811
-0.894718
-1.882512
-2.823312
-3.621496
-4.311432
-4.870441
-5.144452
-5.158713
-5.213422
-5.487666
-5.980511
-6.544196
-6.770512
-6.463069
-5.679614
-4.481170
-3.033497
-1.407203
0.016622
0.744900
0.989452
0.911364
0.618182
0.493568
0.543600
0.871150
1.541915
2.203327
2.905186
3.725113
4.361276
4.302125
3.014369
1.079463
-0.611826
-2.367410
-4.155959
-5.172977
-5.330323
-4.908553
-4.072728
-3.064126
-2.011104
-1.081993
-0.448870
-0.090927
0.129544
0.480473
1.254109
2.689390
4.370860
5.431598
6.052797
6.386426
5.631728
4.138231
2.637720
0.593864
-1.874567
-3.769728
-5.141650
-6.641694
-7.950491
-8.321995
-8.036295
-7.545788
-6.707157
-5.602465
-4.271925
-2.967570
-2.466309
-2.920110
-4.014982
-5.431560
-6.687753
-7.250503
-6.725394
-5.473410
-4.061976
-2.865168
-2.644463
-3.601863
-5.363292
-7.463025
-8.808295
-8.699112
-7.283703
-5.010960
-2.520551
-0.333612
0.765001
0.544297
-0.096308
-0.746031
-1.096493
-0.674723
0.221890
1.449092
2.748069
3.369035
3.142251
2.076136
0.340892
-1.503067
-3.135673
-4.064550
-3.644884
-1.800457
0.742789
2.718610
3.604935
3.450395
1.644311
-1.560582
-4.530742
-6.500484
-7.180601
-6.034059
-3.795216
-1.507043
0.614200
1.893772
1.487199
-0.609028
-3.454340
-5.981221
-8.049392
-9.191024
-8.584554
-6.709968
-4.218157
-1.401133
1.334996
3.782386
5.174648
4.909522
3.462083
1.107511
-2.092005
-5.741580
-8.788660
-9.459191
-7.244897
-3.127727
2.088991
7.054845
9.875609
9.908340
7.763952
4.379503
0.671244
-2.749678
-6.266690
-10.188873
-12.536198
-11.512399
-7.989308
-2.865174
3.434961
9.646487
14.035796
15.028499
12.756925
8.321791
2.597031
-2.204931
-4.277310
-4.330616
-3.520976
-2.112815
0.056356
2.235346
2.833633
1.976299
1.164788
0.611390
-0.355829
-1.126659
-0.357700
1.702755
3.619659
4.859018
5.955995
7.338906
8.805048
9.249263
6.582104
0.354913
-6.857031
-12.732824
-16.200972
-16.186010
-12.102039
-4.700485
2.945620
7.600758
8.798501
7.009250
3.109512
-0.282185
-1.330298
-0.908762
-0.178379
0.734365
1.610637
2.818200
4.762692
6.136485
6.132510
5.717052
5.523935
4.539883
0.597593
-6.930679
-15.409804
-21.245618
-22.922880
-20.743422
-15.522027
-9.276835
-3.967065
-0.140739
1.257134
-0.019399
-2.137836
-3.578962
-3.887575
-3.247204
-2.395013
-1.773112
-1.812157
-2.448553
-2.108378
-0.074108
2.650098
5.555262
7.742436
7.612444
6.179735
6.127130
6.968099
6.200309
4.317071
3.269426
2.954735
3.085661
3.886183
4.518137
4.018044
2.106518
-1.253383
-5.691089
-10.010493
-12.311058
-11.262712
-7.186690
-1.618575
3.114417
5.312579
6.289618
8.023692
9.378547
9.094016
8.836605
9.552726
9.512279
8.163268
6.545157
3.465112
-2.414889
-8.357548
-10.665127
-9.123936
-5.416379
-0.077852
6.645923
13.597885
19.539141
22.892729
21.679789
14.790251
3.146679
-10.296897
-22.394971
-30.330050
-32.102701
-28.215588
-19.890067
-7.924557
6.065170
19.924438
30.662513
35.628600
34.391579
27.803406
17.887830
7.263614
-2.305942
-9.463177
-13.017364
-12.219180
-8.015739
-2.973433
2.018138
7.380512
12.107893
14.780897
14.995757
13.463683
11.688460
10.132306
7.403190
3.396139
0.642474
-0.229122
-1.670716
-4.743280
-8.283672
-11.068197
-12.510493
-12.431937
-10.774548
-8.037016
-4.373881
1.348775
9.053096
16.488551
22.098750
25.879953
27.375554
25.758378
21.369536
14.635239
6.056282
-2.351301
-9.551556
-16.108166
-20.597775
-20.495138
-15.641273
-7.828003
0.876737
8.158119
11.841361
11.084092
6.508679
-0.341113
-8.142928
-15.986593
-21.207286
-20.433884
-13.934320
-5.400253
2.178052
7.873353
11.124772
11.785716
10.856138
8.965654
6.565491
5.010739
4.557640
4.019204
3.543427
4.300696
5.610662
5.538653
3.536413
0.196151
-4.130735
-8.975014
-12.834540
-13.723905
-11.463085
-8.168414
-5.029218
-1.154029
3.450141
7.649373
11.392468
14.345561
14.721740
11.979766
7.927124
4.345116
1.895388
0.988255
1.527625
2.748281
4.443778
7.217783
11.432446
16.373517
20.753709
23.901789
25.468231
24.696232
20.864061
13.865340
4.582419
-4.946690
-12.312706
-16.042241
-15.913418
-12.773054
-8.637648
-5.365187
-3.529177
-3.468858
-4.765264
-5.182826
-3.277144
-0.245495
2.517521
4.793771
5.742286
4.656532
2.584386
-0.454510
-4.949263
-8.148779
-7.482457
-3.311046
3.834500
12.448526
19.466185
23.104772
23.168832
19.566718
11.997063
1.020749
-11.161023
-21.496499
-27.602349
-28.906236
-25.680302
-18.663110
-10.399546
-3.744273
0.201757
2.363680
4.481416
5.795590
4.407302
1.559885
-0.688310
-1.916447
-1.304132
1.787603
5.952234
9.291326
11.342429
12.252134
11.443897
8.432121
4.122536
0.509666
-1.058178
-1.105873
-0.907379
-1.160114
-2.644025
-6.741089
-13.582230
-20.514319
-24.860377
-26.676982
-26.797855
-24.894511
-20.548220
-14.593872
-8.301686
-2.020723
3.305880
6.013954
6.689862
7.162132
7.609854
7.481032
6.925295
6.202862
5.089753
3.589008
1.991939
-0.070620
-2.632571
-4.724823
-6.104694
-7.181565
-7.630455
-7.309686
-6.995228
-6.976057
-7.007620
-7.580891
-8.956788
-10.836050
-13.846190
-18.079090
-21.219455
-20.435065
-14.964209
-6.348312
3.666627
13.709856
21.013449
23.157604
20.867559
16.118669
10.534188
6.272531
4.972852
6.475467
10.293376
15.781066
20.177155
20.639606
17.345870
11.656414
4.932638
-0.916969
-5.000940
-7.397128
-8.072569
-7.547226
-6.627000
-5.428789
-3.548592
-0.915333
2.281143
6.349916
10.941461
14.381320
15.727992
15.006961
11.957310
7.398731
3.851325
2.887378
3.960040
6.032887
8.507397
10.826666
12.054569
11.141123
7.711784
2.632772
-2.307831
-5.593384
-6.243107
-3.862583
0.335013
4.387654
6.926926
7.172180
5.535131
2.912159
0.081810
-1.339444
-0.882370
-0.365679
-1.086709
-3.141787
-6.293608
-9.658185
-12.278351
-13.731167
-13.448039
-10.553863
-5.631963
-1.116402
1.751121
3.448022
3.950919
3.462049
2.931329
2.727926
2.925718
3.676441
4.867404
6.131078
6.905882
6.992154
6.388255
4.394198
0.451909
-4.751250
-9.875618
-13.702412
-15.658360
-16.114265
-15.539591
-13.349145
-8.631350
-2.464012
2.610792
5.577913
6.717908
6.073797
3.816718
0.109394
-4.988789
-10.530018
-14.380191
-14.754501
-11.776391
-6.357906
0.870404
8.724355
15.587942
20.207074
21.838745
20.151898
15.130400
7.383995
-1.597794
-9.855981
-15.948037
-19.200858
-18.939005
-15.587755
-11.526229
-8.294918
-5.663296
-2.758131
1.715112
5.376377
3.217026
-2.725867
-6.315357
-7.168483
-7.399709
-7.065612
-6.446751
-6.588432
-7.435714
-8.190411
-8.825171
-8.403401
-5.790483
-2.800917
-1.010498
0.268841
0.897755
-0.026913
-2.165924
-4.156240
-5.424123
-5.916734
-4.718990
-1.951766
0.455177
1.073570
0.189115
-1.101446
-2.576473
-4.479816
-6.494214
-7.895361
-7.357160
-4.212119
0.428055
4.742316
7.739597
10.056060
11.436633
10.152151
6.821709
3.053598
-1.032243
-4.424408
-5.846129
-5.710293
-4.222875
-0.534489
5.085530
10.683337
14.711430
16.325567
14.696935
10.019587
2.992810
-5.920945
-15.227245
-22.730033
-26.834812
-26.995431
-23.804098
-18.216110
-11.195412
-3.901171
2.280896
6.003884
7.261012
6.776116
4.502671
0.819663
-3.440357
-7.971816
-12.106754
-14.783499
-15.289436
-13.362246
-9.310539
-3.850438
1.678400
5.044379
4.966758
2.305911
-1.944289
-7.207299
-12.211964
-15.754460
-16.942384
-15.188437
-11.348317
-7.265048
-3.988379
-1.654147
-1.053522
-2.520366
-4.218670
-5.043507
-5.470654
-5.257198
-4.264261
-2.773336
-0.634558
2.242551
5.553120
8.040957
8.259557
5.926962
1.465642
-3.886211
-8.076326
-9.838924
-9.659133
-8.636738
-6.387609
-2.213626
1.866838
3.004027
0.996176
-3.238594
-9.405932
-16.325629
-22.211476
-26.255233
-28.224741
-28.128885
-25.912954
-21.014668
-13.727207
-5.905052
1.178771
8.259789
15.835522
21.992806
24.221362
22.044008
16.726523
9.197783
0.035736
-8.728155
-14.732303
-17.232531
-16.515942
-13.531052
-9.474202
-5.265852
-2.026591
-0.843577
-2.273247
-5.852683
-9.969619
-13.261952
-15.269570
-15.824604
-14.433511
-10.225394
-3.100422
5.842089
14.888874
22.087960
26.395674
27.993445
26.964269
23.599693
19.307408
15.267625
11.587890
8.649994
7.529170
8.227756
8.904832
8.092621
6.301266
4.156644
0.465218
-6.189353
-14.791456
-23.070217
-30.555704
-37.824929
-43.933116
-46.992354
-45.705066
-38.832362
-26.250562
-11.259949
1.377261
9.377569
13.966542
17.324104
19.739698
20.590018
19.708369
17.677839
16.494124
17.333923
18.909951
19.338033
17.809233
14.984261
11.258467
5.913862
-1.266520
-9.903225
-19.296965
-28.971730
-39.292710
-49.457982
-57.198542
-61.422791
-62.406376
-59.334280
-50.318590
-35.777335
-18.491768
-1.088835
13.273097
21.732583
24.674220
24.746230
23.932148
22.640418
21.189004
20.566636
21.142479
22.591788
23.946877
23.754929
21.158844
15.324433
6.244215
-4.217044
-14.177743
-21.980960
-26.262256
-26.352268
-21.590753
-13.385170
-5.250428
0.776865
4.641768
7.277832
9.422220
10.234432
9.711427
9.972579
10.716054
9.445366
7.043333
5.752070
5.564799
6.221535
7.529631
9.472018
12.301199
14.570435
14.876943
14.110088
13.642260
13.209501
11.390792
8.476275
6.700351
6.969218
7.999796
8.698616
9.126231
8.058011
3.264933
-3.985821
-9.450365
-11.231432
-10.787919
-8.814670
-3.574572
5.460523
16.000104
25.080322
30.296105
30.798769
27.238504
20.437809
11.626692
2.869581
-3.495316
-6.358631
-7.033604
-7.577416
-9.235506
-12.914540
-18.481955
-24.120677
-27.749445
-27.859563
-23.625495
-15.599001
-5.588504
4.261609
12.184531
16.725341
16.546954
12.068801
5.950560
0.930699
-0.926820
1.126621
5.416333
9.767534
13.530968
16.259148
16.281359
12.381621
5.426386
-2.862429
-10.505028
-15.296936
-16.505435
-14.691869
-10.154332
-4.109036
1.426815
6.391968
11.128934
13.928189
13.945256
12.727406
11.171017
8.136329
3.495921
-0.319183
-1.909005
-2.018422
-1.509679
-1.215095
-1.694613
-3.511218
-6.756792
-9.915626
-11.832297
-12.325843
-11.423385
-10.059880
-9.341421
-9.601403
-10.267258
-10.336696
-9.341655
-7.269042
-4.734212
-2.695033
-1.171610
0.493260
2.659158
4.869945
6.283250
7.068107
8.139132
9.722173
11.151610
11.566132
11.520775
12.635287
14.014924
13.385308
11.437309
9.311625
5.687533
0.209196
-5.318941
-9.538514
-12.197023
-13.768374
-14.687431
-14.023447
-10.601824
-5.442854
-1.280094
0.476659
1.130824
2.723450
5.978376
10.150956
13.861786
16.442206
17.888710
17.838677
16.146920
13.339716
10.262243
8.217452
7.857638
8.305125
8.942690
9.864553
10.127341
8.708192
6.583910
5.241679
4.498672
3.833051
3.951586
5.327483
7.156712
7.891537
5.580919
-0.267052
-7.525522
-14.131932
-19.184525
-20.985699
-18.036346
-11.388789
-3.588377
3.189406
7.416226
8.412203
6.850671
3.932647
-0.194342
-4.886420
-7.363268
-5.761757
-1.207386
3.862975
8.016149
11.825408
15.156552
16.192741
15.051810
13.277990
11.291649
9.987527
10.288892
10.690556
9.459847
6.465839
1.148821
-6.061019
-12.060490
-15.323833
-16.666998
-15.515547
-11.256930
-5.386982
0.307852
4.955508
8.335281
10.428468
11.510014
12.752179
14.654587
15.994713
16.390531
16.368554
15.404842
13.215798
10.357627
7.875401
6.942316
6.851135
6.298204
5.429647
4.125994
1.890658
-0.975930
-4.040311
-7.441360
-10.845448
-12.506578
-11.524863
-8.637000
-3.985603
1.963602
7.264487
10.949600
13.700692
15.572941
16.322962
16.837550
17.318938
16.722054
14.882303
12.824887
11.352899
9.880444
7.310311
3.493804
-1.209729
-6.211822
-11.011212
-15.832112
-20.566740
-23.921965
-24.562336
-21.959939
-16.036685
-7.809593
0.374948
6.636272
10.200979
11.150663
10.676523
10.665066
12.381372
14.907084
16.249080
15.766289
13.697884
10.342192
6.035646
0.678883
-5.654451
-11.844935
-16.431570
-19.178922
-20.710060
-20.536115
-18.168684
-15.372235
-13.929004
-12.914324
-10.797758
-7.935612
-5.291131
-2.836026
-0.133797
2.543415
4.077359
3.624961
1.645166
-0.421836
-1.714033
-2.811945
-3.768176
-3.295672
-1.446803
0.441343
2.338140
4.650863
6.627619
7.796137
8.541950
8.476020
7.054766
4.985894
2.883355
1.082882
0.488803
0.856099
0.868256
0.835057
1.724889
2.381625
1.146474
-1.466210
-4.025355
-5.925426
-7.126910
-7.609234
-6.979618
-4.922436
-1.903645
1.479167
4.625611
6.553503
6.993977
6.467933
5.392232
4.760511
5.641226
7.831204
10.602170
13.493774
16.566571
19.816353
21.855767
21.361753
18.876488
15.703392
12.722243
9.928365
6.448059
1.503714
-4.510487
-9.893201
-13.088041
-13.694979
-12.284012
-10.005190
-7.302494
-4.003381
-0.635531
1.844356
2.151566
-0.014098
-2.430159
-3.119861
-2.418002
-1.286657
0.373303
3.664000
8.055180
10.939537
11.556294
11.200220
9.962731
7.227303
3.468311
-0.098033
-2.149370
-2.237979
-1.416182
-0.861849
-0.814622
-1.360772
-2.971635
-5.261446
-6.769906
-7.344813
-7.215524
-4.791046
-0.355678
3.108496
4.787861
5.513802
4.826672
2.016896
-2.233305
-6.029471
-8.405085
-9.674838
-9.778644
-8.690318
-6.153618
-1.853151
2.871658
6.843640
9.888148
11.375098
11.294438
9.848402
6.628078
1.782864
-4.074459
-9.289074
-11.868559
-12.117319
-11.566259
-11.024551
-10.285752
-8.582539
-6.718006
-6.561128
-7.908034
-9.148562
-10.046110
-11.201302
-12.140934
-12.171561
-11.482327
-10.383714
-9.272008
-8.589787
-8.122193
-7.610411
-7.239842
-6.773417
-5.425809
-2.701370
1.499032
6.798280
12.036508
16.217271
18.956673
19.608734
17.800078
14.312290
10.124514
5.483170
0.382181
-4.775620
-9.441980
-13.295660
-15.912787
-16.836988
-15.881926
-13.087347
-9.244655
-5.564920
-2.015878
2.348182
7.221218
11.069989
13.482776
14.989366
15.121227
14.076153
13.545434
13.614871
12.930780
11.337920
9.612963
8.288502
6.995135
4.457733
0.388726
-3.727509
-6.998800
-9.816759
-11.840274
-11.994347
-10.116487
-7.189813
-3.900987
0.037562
4.242873
7.423685
9.243095
10.270868
10.831513
10.845541
10.415354
10.095987
10.076582
9.958748
9.214571
7.676886
6.234825
5.464930
4.493736
2.885211
1.283232
0.330274
0.046678
-0.607019
-2.624456
-5.556507
-7.996649
-9.301238
-10.541767
-12.350189
-13.409290
-12.471296
-9.399200
-5.106682
-1.288305
1.410650
3.739739
6.425134
9.147703
10.777504
11.147605
10.752955
9.797192
9.079901
8.306500
5.823105
2.034187
-1.517661
-4.623658
-7.542149
-10.230350
-12.078985
-12.451658
-11.523483
