EVENT_NAME: 202302060117
EVENT_ID: 13194
EVENT_DATE_YYYYMMDD: 2023/02/06
EVENT_TIME_HHMMSS: 01:17:32.00000
EVENT_LATITUDE_DEGREE: 37.288
EVENT_LONGITUDE_DEGREE: 37.043
EVENT_DEPTH_KM: 8.6
HYPOCENTER_REFERENCE: AFAD
MAGNITUDE_W: 7.7
MAGNITUDE_W_REFERENCE: AFAD
MAGNITUDE_L: 
MAGNITUDE_L_REFERENCE: 
FOCAL_MECHANISM: 
NETWORK: TK
STATION_CODE: 6607
STATION_NAME: 
STATION_LATITUDE_DEGREE: 39.49301
STATION_LONGITUDE_DEGREE: 34.75947
STATION_ELEVATION_M: 903.0
LOCATION: Kahramanmaras_Pazarck_Turkiye
SENSOR_DEPTH_M: 
VS30_M/S: None
SITE_CLASSIFICATION_EC8: unknown
MORPHOLOGIC_CLASSIFICATION: 
EPICENTRAL_DISTANCE_KM: 315.77
EARTHQUAKE_BACKAZIMUTH_DEGREE: 
DATE_TIME_FIRST_SAMPLE_YYYYMMDD_HHMMSS: 2023/02/06 01:18:03.9204260
DATE_TIME_FIRST_SAMPLE_PRECISION: millisecond
SAMPLING_INTERVAL_S: 0.01
NDATA: 18251
DURATION_S: 
STREAM: HNE
UNITS: cm/s^2
INSTRUMENT: sensor = ACEBOX/SARA | digitizer = 
INSTRUMENT_ANALOG/DIGITAL: 
INSTRUMENTAL_FREQUENCY_HZ: 
INSTRUMENTAL_DAMPING: 
FULL_SCALE_G: 
N_BIT_DIGITAL_CONVERTER: 
PGA_CM/S^2: 3.409
TIME_PGA_S: 
BASELINE_CORRECTION: BASELINE REMOVED
FILTER_TYPE: BUTTERWORTH
FILTER_ORDER: 
LOW_CUT_FREQUENCY_HZ: 
HIGH_CUT_FREQUENCY_HZ: 
LATE/NORMAL_TRIGGERED: 
DATABASE_VERSION: 
HEADER_FORMAT: DYNA 1.2
DATA_TYPE: Acceleration
PROCESSING: Automatic Paolucci et al., 2011
DATA_TIMESTAMP_YYYYMMDD_HHMMSS: 
DATA_LICENSE: U (unknown license)
DATA_CITATION: Turkish Accelerometric Archive v 1.0 - Disaster And Emergency Management Presidency, Earthquake Department
DATA_CREATOR: AFAD
ORIGINAL_DATA_MEDIATOR_CITATION: : AFAD - Disaster And Emergency Management Presidency
ORIGINAL_DATA_MEDIATOR: AFAD PROCESS SERVICE
ORIGINAL_DATA_CREATOR_CITATION: AFAD PROCESS SERVICE
ORIGINAL_DATA_CREATOR: network: TK
USER1: GuestUser
USER2: 
USER3: 
USER4: 
USER5: 
[...]
-0.615533
-0.612494
-0.605947
-0.592153
-0.559889
-0.508453
-0.429430
-0.311596
-0.169213
-0.017946
0.136828
0.278743
0.395876
0.491265
0.570055
0.637857
0.704489
0.772290
0.804788
0.769485
0.671524
0.523297
0.357769
0.215152
0.109944
0.043312
-0.006954
-0.069612
-0.150739
-0.260156
-0.396226
-0.537673
-0.686135
-0.835765
-0.946117
-1.000825
-1.012281
-0.990538
-0.952896
-0.907072
-0.841141
-0.759779
-0.676080
-0.582327
-0.465662
-0.328423
-0.179260
-0.011159
0.171203
0.351227
0.513950
0.639032
0.726238
0.794273
0.843605
0.869089
0.866050
0.830279
0.755698
0.631318
0.470933
0.293481
0.100832
-0.084803
-0.243317
-0.359280
-0.403468
-0.382426
-0.327250
-0.257344
-0.189543
-0.125950
-0.058382
0.024148
0.145957
0.318266
0.520968
0.718059
0.875639
0.970561
0.996279
0.970327
0.911411
0.822100
0.701929
0.543648
0.344687
0.120242
-0.129921
-0.400658
-0.668122
-0.920857
-1.154187
-1.350108
-1.492491
-1.582035
-1.620845
-1.592322
-1.487580
-1.316908
-1.081240
-0.798112
-0.495578
-0.186732
0.102476
0.358952
0.592048
0.795451
0.976878
1.134458
1.244576
1.299285
1.283153
1.182854
1.021067
0.825145
0.605376
0.366201
0.125624
-0.109342
-0.344776
-0.570857
-0.774027
-0.956623
-1.119345
-1.239985
-1.306850
-1.330230
-1.306149
-1.235308
-1.144594
-1.048504
-0.938151
-0.798340
-0.625096
-0.425901
-0.216652
-0.019561
0.157424
0.298170
0.388182
0.451308
0.518408
0.600471
0.686742
0.768337
0.838009
0.863026
0.831229
0.768104
0.689548
0.605615
0.518175
0.420916
0.308226
0.176131
0.038424
-0.099750
-0.248679
-0.398309
-0.536716
-0.653849
-0.727027
-0.754147
-0.763733
-0.775423
-0.790386
-0.807920
-0.811427
-0.774721
-0.704114
-0.613166
-0.513101
-0.435480
-0.382876
-0.340090
-0.301046
-0.252884
-0.206124
-0.174561
-0.157962
-0.168482
-0.193265
-0.203552
-0.181808
-0.108162
0.011542
0.150886
0.291866
0.427936
0.541562
0.611701
0.647940
0.638120
0.562838
0.436354
0.254226
0.012713
-0.274156
-0.592354
-0.904473
-1.180821
-1.408306
-1.570795
-1.667586
-1.708501
-1.708501
-1.681380
-1.623398
-1.527775
-1.403862
-1.248153
-1.047087
-0.815861
-0.586039
-0.381232
-0.231835
-0.140421
-0.072619
-0.002012
0.084493
0.187130
0.294209
0.410641
0.540398
0.690496
0.864675
1.029035
1.162300
1.259793
1.300942
1.279433
1.206254
1.114138
1.034180
0.962638
0.903955
0.846207
0.756663
0.639998
0.504864
0.349389
0.191810
0.046388
-0.059522
-0.099267
-0.086876
-0.052274
-0.020477
-0.000137
0.012956
0.026984
0.054806
0.085901
0.117230
0.172173
0.241611
0.316192
0.385864
0.418128
0.414855
0.372772
0.278084
0.162822
0.040079
-0.092718
-0.214058
-0.325813
-0.438036
-0.542777
-0.621099
-0.653596
-0.637698
-0.558908
-0.412083
-0.222006
0.000569
0.236938
0.446187
0.612183
0.733992
0.811145
0.856268
0.885493
0.907003
0.913081
0.893910
0.855801
0.797820
0.726044
0.655905
0.571738
0.476349
0.388442
0.299833
0.213094
0.122381
0.018575
-0.079386
-0.177814
-0.283958
-0.374905
-0.430782
-0.458838
-0.470060
-0.440368
-0.362279
-0.262915
-0.142276
-0.000828
0.145763
0.290250
0.423982
0.531061
0.589277
0.599331
0.575250
0.513060
0.427022
0.343323
0.254247
0.145063
0.022320
-0.107905
-0.249820
-0.390565
-0.495306
-0.542533
-0.531545
-0.460236
-0.320192
-0.122399
0.090123
0.286279
0.455782
0.594892
0.727455
0.870305
1.016429
1.181256
1.356137
1.499221
1.603962
1.657034
1.655865
1.642305
1.638097
1.642539
1.655165
1.662179
1.642072
1.565153
1.418796
1.208379
0.931563
0.614768
0.305220
0.017884
-0.234617
-0.426331
-0.549775
-0.611498
-0.611498
-0.543229
-0.409496
-0.234616
-0.027705
0.220354
0.504418
0.809056
1.114395
1.390744
1.611682
1.775574
1.899019
1.992071
2.051923
2.069692
2.017789
1.876342
1.660313
1.397058
1.120710
0.861663
0.635581
0.452751
0.301017
0.166584
0.044776
-0.071655
-0.169148
-0.247470
-0.296334
-0.287216
-0.260562
-0.244664
-0.218245
-0.195333
-0.167744
-0.120049
-0.083577
-0.058794
-0.039155
-0.034479
-0.014372
0.048987
0.153261
0.302190
0.482214
0.675798
0.884345
1.097335
1.294426
1.477723
1.640213
1.749864
1.778387
1.712457
1.552072
1.328094
1.082841
0.836185
0.601219
0.381683
0.154667
-0.079364
-0.308486
-0.528489
-0.705239
-0.826580
-0.911682
-0.944881
-0.890640
-0.763921
-0.602134
-0.420239
-0.241618
-0.074920
0.096921
0.261514
0.411145
0.558437
0.707834
0.859101
0.994236
1.095003
1.156959
1.179404
1.155557
1.075598
0.945373
0.762310
0.533657
0.276012
-0.023248
-0.340511
-0.641642
-0.927575
-1.163711
-1.332512
-1.488922
-1.643696
-1.750307
-1.815069
-1.855282
-1.834474
-1.743994
-1.594364
-1.373191
-1.096843
-0.796413
-0.488034
-0.200230
0.045725
0.245856
0.402968
0.519165
0.590006
0.611983
0.575745
0.467497
0.289343
0.033803
-0.308476
-0.704061
-1.120687
-1.565136
-2.019637
-2.432056
-2.775036
-3.029174
-3.186519
-3.263438
-3.270686
-3.216211
-3.108898
-2.941732
-2.716118
-2.461512
-2.205504
-1.959549
-1.733467
-1.530063
-1.340687
-1.175626
-1.056156
-0.988121
-0.971989
-1.000044
-1.062234
-1.152012
-1.240621
-1.290653
-1.294160
-1.268676
-1.224021
-1.170247
-1.133307
-1.119045
-1.119980
-1.154582
-1.217006
-1.281767
-1.359622
-1.456881
-1.576819
-1.726449
-1.882859
-2.030385
-2.150557
-2.229814
-2.299719
-2.357233
-2.369390
-2.343906
-2.278209
-2.180949
-2.093977
-2.014719
-1.924473
-1.825109
-1.694416
-1.527953
-1.358216
-1.195960
-1.058487
-0.965436
-0.886880
-0.816974
-0.767409
-0.729533
-0.726260
-0.765772
-0.838015
-0.963096
-1.137275
-1.346757
-1.578684
-1.795180
-1.970762
-2.084855
-2.148213
-2.187725
-2.197544
-2.198246
-2.190296
-2.135120
-2.050719
-1.949017
-1.817155
-1.667992
-1.494748
-1.300930
-1.106177
-0.915164
-0.746129
-0.617540
-0.531269
-0.481470
-0.465805
-0.482405
-0.519111
-0.570078
-0.624553
-0.672247
-0.733035
-0.803641
-0.861155
-0.906979
-0.935035
-0.948361
-0.970338
-0.998861
-1.033229
-1.087002
-1.145217
-1.196419
-1.245282
-1.274273
-1.274039
-1.255569
-1.225643
-1.194080
-1.170700
-1.162049
-1.158542
-1.142410
-1.111782
-1.062919
-0.991376
-0.899494
-0.788440
-0.678789
-0.583867
-0.499232
-0.441017
-0.403141
-0.359421
-0.322247
-0.290918
-0.255848
-0.232936
-0.226156
-0.242288
-0.288112
-0.342119
-0.390047
-0.426052
-0.449899
-0.473278
-0.510218
-0.579188
-0.681591
-0.799425
-0.906504
-0.982254
-1.039534
-1.082319
-1.106166
-1.133754
-1.159939
-1.171629
-1.183552
-1.194541
-1.193839
-1.173966
-1.136792
-1.075537
-0.968458
-0.828413
-0.677146
-0.520736
-0.381158
-0.258882
-0.137541
-0.025085
0.063758
0.118935
0.142549
0.133197
0.081995
-0.004977
-0.119538
-0.259582
-0.419265
-0.596951
-0.778611
-0.952790
-1.130008
-1.312136
-1.497771
-1.691823
-1.874418
-2.018905
-2.122477
-2.187005
-2.214125
-2.216930
-2.202902
-2.169703
-2.115696
-2.043686
-1.954375
-1.847062
-1.717304
-1.565570
-1.410328
-1.230070
-0.987622
-0.728341
-0.476074
-0.186866
0.130631
0.446023
0.750427
1.021632
1.253560
1.449248
1.588825
1.653120
1.624596
1.489696
1.273667
0.999657
0.667431
0.310657
-0.040273
-0.387228
-0.716414
-1.013804
-1.270747
-1.469942
-1.608818
-1.681996
-1.668669
-1.574215
-1.418272
-1.208790
-0.960964
-0.686486
-0.396578
-0.121632
0.125492
0.341755
0.520142
0.662993
0.756044
0.797660
0.806545
0.785503
0.740848
0.676320
0.588179
0.486477
0.370981
0.234678
0.085048
-0.076272
-0.246710
-0.408264
-0.550880
-0.679936
-0.792860
-0.877027
-0.936411
-0.975455
-0.976157
-0.930566
-0.846165
-0.731838
-0.599742
-0.451047
-0.305859
-0.201819
-0.151552
-0.164879
-0.224730
-0.284816
-0.341629
-0.388154
-0.399844
-0.389089
-0.375061
-0.353785
-0.320118
-0.288322
-0.271488
-0.265877
-0.276631
-0.300479
-0.324326
-0.348407
-0.377397
-0.411765
-0.450576
-0.495465
-0.530768
-0.534976
-0.513700
-0.474422
-0.427195
-0.385345
-0.346768
-0.319414
-0.314504
-0.336948
-0.382539
-0.422752
-0.445663
-0.463432
-0.480265
-0.508554
-0.548767
-0.578460
-0.593656
-0.614932
-0.644857
-0.667302
-0.672445
-0.645091
-0.588979
-0.521645
-0.434439
-0.327126
-0.208824
-0.082807
0.024506
0.095814
0.126442
0.109141
0.054900
-0.034176
-0.144061
-0.247867
-0.346529
-0.414330
-0.420876
-0.385573
-0.300938
-0.165335
-0.031369
0.086932
0.217157
0.370762
0.556398
0.770322
0.980272
1.153750
1.270649
1.323254
1.319747
1.265740
1.172221
1.059063
0.919954
0.748815
0.555464
0.333825
0.100028
-0.113663
-0.296960
-0.418066
-0.455006
-0.429522
-0.337640
-0.178424
0.023344
0.258076
0.511746
0.775002
1.047844
1.317178
1.574122
1.793891
1.954744
2.058550
2.096192
2.068136
1.989581
1.874319
1.739885
1.597737
1.450912
1.292398
1.115180
0.928376
0.746248
0.592176
0.486967
0.431324
0.425245
0.461951
0.516894
0.566693
0.597087
0.591710
0.552666
0.504737
0.476916
0.491177
0.546821
0.625611
0.723572
0.842342
0.972567
1.108871
1.254527
1.416315
1.585350
1.733344
1.838319
1.888118
1.875961
1.820083
1.738488
1.633046
1.517784
1.402288
1.289832
1.184624
1.075440
0.955035
0.817796
0.658347
0.496559
0.362593
0.278894
0.261359
0.312327
0.415666
0.536306
0.646658
0.735034
0.794652
0.827618
0.847958
0.864792
0.868065
0.845855
0.796523
0.722176
0.631229
0.528826
0.431333
0.355583
0.293860
0.246400
0.216474
0.193328
0.188886
0.210396
0.240322
0.279366
0.312799
0.313033
0.292225
0.268144
0.248739
0.245934
0.251312
0.250143
0.227231
0.177900
0.124360
0.066145
-0.002124
-0.063378
-0.123464
-0.181212
-0.225867
-0.262105
-0.281277
-0.289693
-0.306059
-0.314475
-0.306994
-0.286653
-0.241998
-0.194537
-0.178171
-0.182379
-0.204122
-0.247608
-0.282911
-0.298809
-0.304888
-0.296237
-0.279403
-0.265843
-0.258128
-0.250646
-0.239190
-0.227032
-0.204587
-0.179103
-0.166010
-0.158763
-0.160165
-0.163204
-0.156190
-0.150345
-0.135616
-0.122289
-0.132810
-0.152215
-0.182842
-0.225627
-0.264203
-0.308391
-0.350474
-0.389051
-0.429731
-0.442824
-0.426458
-0.383439
-0.305350
-0.222352
-0.139120
-0.042328
0.069427
0.206433
0.363077
0.540997
0.733646
0.903617
1.054183
1.187213
1.296163
1.411659
1.525285
1.607348
1.655978
1.662758
1.619973
1.532299
1.417271
1.287046
1.147470
1.010231
0.881409
0.768485
0.668887
0.582149
0.538195
0.545209
0.588228
0.650652
0.725233
0.812206
0.896373
0.978203
1.055823
1.111234
1.152850
1.176463
1.179503
1.189323
1.210131
1.231874
1.254786
1.274192
1.276062
1.258761
1.233511
1.201014
1.171789
1.154021
1.135317
1.120121
1.112639
1.104690
1.088325
1.047177
0.977038
0.885857
0.783688
0.693442
0.629849
0.590338
0.571634
0.561815
0.551294
0.543813
0.530720
0.512952
0.519031
0.554100
0.610680
0.687833
0.782287
0.897082
1.020994
1.134152
1.235153
1.326802
1.416580
1.498877
1.554287
1.578602
1.564808
1.510100
1.432012
1.344338
1.262977
1.199618
1.139064
1.068224
0.966522
0.817594
0.650896
0.500799
0.389745
0.340882
0.353273
0.408683
0.494955
0.593617
0.688072
0.776681
0.859211
0.939170
1.023805
1.119195
1.226975
1.334288
1.436926
1.526002
1.583049
1.620924
1.646409
1.657865
1.663242
1.639629
1.582349
1.501923
1.369126
1.172503
0.934965
0.670774
0.398868
0.155485
-0.036930
-0.175805
-0.251322
-0.266986
-0.232150
-0.140735
0.002583
0.196635
0.442356
0.725251
1.024979
1.309511
1.554998
1.745075
1.869222
1.936322
1.940296
1.883484
1.783185
1.634256
1.438334
1.206174
0.942685
0.667973
0.397703
0.149177
-0.059136
-0.223963
-0.338991
-0.386452
-0.356526
-0.254122
-0.086489
0.144502
0.419916
0.710760
0.996226
1.266730
1.517595
1.737598
1.912245
2.044340
2.140899
2.205661
2.257096
2.301752
2.335653
2.355993
2.339628
2.268320
2.134588
1.939133
1.689906
1.387372
1.060991
0.735312
0.416179
0.152456
-0.055858
-0.253884
-0.419646
-0.530699
-0.602942
-0.640584
-0.642921
-0.613229
-0.532335
-0.376392
-0.153817
0.124636
0.460369
0.833509
1.221613
1.607379
1.969297
2.300822
2.586990
2.814475
2.988888
3.094798
3.117243
3.055754
2.897474
2.656896
2.362546
2.034061
1.692483
1.344359
1.018680
0.720822
0.417587
0.157839
-0.027562
-0.197065
-0.355580
-0.469205
-0.529992
-0.522744
-0.441616
-0.300169
-0.096297
0.166023
0.455464
0.747477
1.035983
1.317709
1.591018
1.853105
2.097657
2.302230
2.448588
2.540704
2.568058
2.527144
2.432924
2.293347
2.134833
1.978656
1.827390
1.695996
1.588683
1.513868
1.471317
1.439755
1.426428
1.425727
1.425961
1.439989
1.449107
1.454017
1.489321
1.527664
1.536782
1.533976
1.528132
1.503817
1.449576
1.372189
1.289659
1.210168
1.145640
1.104960
1.082515
1.072462
1.072229
1.078074
1.086725
1.096077
1.121093
1.171360
1.230744
1.295506
1.367282
1.445137
1.531408
1.612770
1.689456
1.772921
1.841190
1.886781
1.920448
1.912733
1.840723
1.717980
1.544503
1.313277
1.049788
0.780687
0.501767
0.213963
-0.059112
-0.313249
-0.545176
-0.713510
-0.804924
-0.834383
-0.798845
-0.706963
-0.568555
-0.386193
-0.173905
0.062465
0.317771
0.585002
0.849894
1.079951
1.262079
1.393707
1.457300
1.464548
1.419192
1.310944
1.163418
0.999526
0.816229
0.613527
0.415969
0.225424
0.012902
-0.190969
-0.349249
-0.495606
-0.635417
-0.756290
-0.876461
-0.983774
-1.044795
-1.071448
-1.067239
-0.973954
-0.771719
-0.488590
-0.126438
0.293228
0.739547
1.203401
1.645746
2.047409
2.415173
2.731033
2.989847
3.196991
3.344050
3.409046
3.370937
3.229256
2.982834
2.630502
2.196106
1.717290
1.237304
0.773918
0.317312
-0.109368
-0.460531
-0.749037
-0.998732
-1.181094
-1.285133
-1.319034
-1.267598
-1.139009
-0.961090
-0.740385
-0.481571
-0.192364
0.137291
0.501079
0.856919
1.184469
1.481392
1.722437
1.907838
2.056767
2.156131
2.207567
2.234454
2.224868
2.159405
2.053963
1.915321
1.734596
1.521139
1.285238
1.047466
0.823956
0.600914
0.394705
0.203927
-0.008361
-0.189086
-0.307621
-0.415635
-0.485774
-0.480397
-0.441353
-0.390385
-0.320479
-0.239118
-0.143027
-0.014672
0.142440
0.312177
0.509035
0.731376
0.943664
1.129533
1.278228
1.369176
1.395829
1.378294
1.333639
1.260694
1.181671
1.110597
1.006090
0.863941
0.719688
0.565382
0.409673
0.307504
0.265655
0.255602
0.281787
0.349822
0.443575
0.561409
0.699817
0.844070
0.985518
1.112002
1.212301
1.283610
1.329434
1.353048
1.350944
1.328500
1.293196
1.237553
1.173492
1.120888
1.078805
1.053555
1.051919
1.058465
1.049347
1.014979
0.959336
0.879611
0.776740
0.652126
0.527513
0.418329
0.303301
0.199729
0.128188
0.069738
0.045891
0.083065
0.162790
0.278052
0.418799
0.572170
0.743076
0.917021
1.077640
1.230076
1.368952
1.484915
1.577499
1.647171
1.686917
1.684813
1.638053
1.544768
1.408231
1.251587
1.094475
0.943676
0.805502
0.689305
0.589942
0.483096
0.373446
0.285772
0.224517
0.199267
0.211191
0.232934
0.253509
0.282266
0.303308
0.296995
0.280630
0.252574
0.186877
0.108322
0.035377
-0.052530
-0.154933
-0.263415
-0.378677
-0.504694
-0.640764
-0.774028
-0.890926
-0.979535
-1.033776
-1.048038
-1.029100
-1.019748
-1.035178
-1.047335
-1.043361
-1.015539
-0.950075
-0.859128
-0.753919
-0.634448
-0.526668
-0.449281
-0.401118
-0.381479
-0.385687
-0.407898
-0.443435
-0.484349
-0.533447
-0.591194
-0.653852
-0.714873
-0.757424
-0.780803
-0.784778
-0.764203
-0.730302
-0.679335
-0.612936
-0.557058
-0.500479
-0.421923
-0.316948
-0.170357
0.007329
0.187821
0.361532
0.509760
0.615670
0.679731
0.711294
0.730699
0.741922
0.736077
0.709658
0.654950
0.572887
0.470951
0.339558
0.181511
0.011540
-0.165444
-0.331206
-0.458626
-0.549339
-0.610360
-0.633973
-0.617607
-0.555183
-0.437349
-0.275327
-0.082211
0.134987
0.359199
0.582008
0.797335
0.986945
1.141018
1.242954
1.282232
1.276153
1.247396
1.190116
1.086544
0.945564
0.762735
0.535017
0.296076
0.063682
-0.145800
-0.324188
-0.474285
-0.595158
-0.706212
-0.798328
-0.871506
-0.947022
-1.006173
-1.056907
-1.084495
-1.087066
-1.103198
-1.080286
-1.004535
-0.906808
-0.779388
-0.638175
-0.460488
-0.265268
-0.075190
0.135227
0.302860
0.438697
0.576170
0.662909
0.726502
0.777236
0.816981
0.860702
0.850649
0.812306
0.779575
0.721359
0.643271
0.542505
0.430984
0.314319
0.183626
0.044517
-0.116803
-0.272512
-0.419102
-0.574811
-0.695217
-0.784761
-0.853497
-0.872434
-0.860277
-0.818193
-0.733558
-0.626011
-0.499761
-0.327218
-0.103942
0.113256
0.298190
0.450392
0.539703
0.585527
0.591606
0.516090
0.396152
0.284865
0.164459
0.015998
-0.118903
-0.223644
-0.332125
-0.420267
-0.479183
-0.538100
-0.588834
-0.657804
-0.769325
-0.904694
-1.068118
-1.271989
-1.485679
-1.655416
-1.786576
-1.871444
-1.877289
-1.852740
-1.782601
-1.648869
-1.526826
-1.389821
-1.219616
-1.051282
-0.860503
-0.666685
-0.477309
-0.283959
-0.124275
-0.010182
0.034707
0.025589
-0.023274
-0.152564
-0.314585
-0.474736
-0.656864
-0.835017
-1.022990
-1.231537
-1.416471
-1.578492
-1.730460
-1.830525
-1.850631
-1.830291
-1.791013
-1.745890
-1.725315
-1.709885
-1.697961
-1.684868
-1.626419
-1.538511
-1.425353
-1.294660
-1.185476
-1.089385
-1.039353
-1.058056
-1.114635
-1.207219
-1.312895
-1.427455
-1.555108
-1.682995
-1.823274
-1.936899
-2.032054
-2.150823
-2.231015
-2.254629
-2.227508
-2.133521
-2.003530
-1.819531
-1.591579
-1.354976
-1.083303
-0.821216
-0.583912
-0.334216
-0.122863
0.065577
0.260565
0.399206
0.479867
0.504416
0.472619
0.429835
0.351279
0.247005
0.164709
0.081010
-0.012041
-0.129641
-0.276933
-0.441526
-0.639319
-0.810458
-0.932734
-1.042852
-1.112991
-1.169804
-1.230591
-1.254906
-1.242514
-1.188273
-1.082363
-0.919172
-0.733303
-0.564034
-0.380737
-0.196270
-0.018117
0.164713
0.321123
0.492965
0.652648
0.725359
0.788952
0.861897
0.876159
0.837817
0.756455
0.642830
0.513540
0.362741
0.187160
-0.030973
-0.288617
-0.529896
-0.764628
-1.045419
-1.305167
-1.481216
-1.639965
-1.810403
-1.953954
-2.055889
-2.128834
-2.191258
-2.220716
-2.175125
-2.076930
-1.982476
-1.865577
-1.697009
-1.529377
-1.376473
-1.246014
-1.153430
-1.055001
-0.967327
-0.916125
-0.862819
-0.795719
-0.726281
-0.724411
-0.798057
-0.855337
-0.947219
-1.130516
-1.347246
-1.546441
-1.678770
-1.804319
-1.995097
-2.162964
-2.248767
-2.285473
-2.301605
-2.256014
-2.130699
-2.019411
-1.899473
-1.715241
-1.523293
-1.291833
-1.033955
-0.787532
-0.496455
-0.254474
-0.097129
0.083363
0.209614
0.239540
0.237436
0.147892
-0.028157
-0.204440
-0.381658
-0.617560
-0.959605
-1.347474
-1.672920
-1.960724
-2.243385
-2.448893
-2.580520
-2.699055
-2.785093
-2.807771
-2.754699
-2.622837
-2.464088
-2.292949
-2.065230
-1.775321
-1.465540
-1.199244
-0.972928
-0.725805
-0.513750
-0.393344
-0.294448
-0.205839
-0.181524
-0.233193
-0.353598
-0.510008
-0.685122
-0.918452
-1.199476
-1.483539
-1.798698
-2.137704
-2.440705
-2.702324
-2.912507
-3.058631
-3.161034
-3.200545
-3.157994
-3.027535
-2.814312
-2.554563
-2.248756
-1.883798
-1.477224
-1.056623
-0.648647
-0.273168
0.053213
0.350603
0.623211
0.823342
0.940942
0.979285
0.941176
0.844151
0.695456
0.520342
0.306651
0.049240
-0.204429
-0.466984
-0.727901
-0.935747
-1.101743
