EVENT_NAME: 202302060117
EVENT_ID: 13194
EVENT_DATE_YYYYMMDD: 2023/02/06
EVENT_TIME_HHMMSS: 01:17:32.00000
EVENT_LATITUDE_DEGREE: 37.288
EVENT_LONGITUDE_DEGREE: 37.043
EVENT_DEPTH_KM: 8.6
HYPOCENTER_REFERENCE: AFAD
MAGNITUDE_W: 7.7
MAGNITUDE_W_REFERENCE: AFAD
MAGNITUDE_L: 
MAGNITUDE_L_REFERENCE: 
FOCAL_MECHANISM: 
NETWORK: TK
STATION_CODE: 3302
STATION_NAME: 
STATION_LATITUDE_DEGREE: 36.1613
STATION_LONGITUDE_DEGREE: 33.57584
STATION_ELEVATION_M: 17.0
LOCATION: Kahramanmaras_Pazarck_Turkiye
SENSOR_DEPTH_M: 
VS30_M/S: 1007
SITE_CLASSIFICATION_EC8: A
MORPHOLOGIC_CLASSIFICATION: 
EPICENTRAL_DISTANCE_KM: 333.41
EARTHQUAKE_BACKAZIMUTH_DEGREE: 
DATE_TIME_FIRST_SAMPLE_YYYYMMDD_HHMMSS: 2023/02/06 01:17:57.2254070
DATE_TIME_FIRST_SAMPLE_PRECISION: millisecond
SAMPLING_INTERVAL_S: 0.01
NDATA: 18251
DURATION_S: 
STREAM: HNZ
UNITS: cm/s^2
INSTRUMENT: sensor = CMG-5T/GURALP | digitizer = 
INSTRUMENT_ANALOG/DIGITAL: 
INSTRUMENTAL_FREQUENCY_HZ: 
INSTRUMENTAL_DAMPING: 
FULL_SCALE_G: 
N_BIT_DIGITAL_CONVERTER: 
PGA_CM/S^2: 6.152
TIME_PGA_S: 
BASELINE_CORRECTION: BASELINE REMOVED
FILTER_TYPE: BUTTERWORTH
FILTER_ORDER: 
LOW_CUT_FREQUENCY_HZ: 
HIGH_CUT_FREQUENCY_HZ: 
LATE/NORMAL_TRIGGERED: 
DATABASE_VERSION: 
HEADER_FORMAT: DYNA 1.2
DATA_TYPE: Acceleration
PROCESSING: Automatic Paolucci et al., 2011
DATA_TIMESTAMP_YYYYMMDD_HHMMSS: 
DATA_LICENSE: U (unknown license)
DATA_CITATION: Turkish Accelerometric Archive v 1.0 - Disaster And Emergency Management Presidency, Earthquake Department
DATA_CREATOR: AFAD
ORIGINAL_DATA_MEDIATOR_CITATION: : AFAD - Disaster And Emergency Management Presidency
ORIGINAL_DATA_MEDIATOR: AFAD PROCESS SERVICE
ORIGINAL_DATA_CREATOR_CITATION: AFAD PROCESS SERVICE
ORIGINAL_DATA_CREATOR: network: TK
USER1: GuestUser
USER2: 
USER3: 
USER4: 
USER5: 
[...]
0.145242
-0.013523
-0.069952
-0.149335
-0.108529
0.290295
0.793686
1.167324
1.554989
1.733519
1.443725
1.043625
0.732790
0.384336
0.153202
0.210905
0.345759
0.234814
-0.026925
-0.206413
-0.247220
-0.240526
-0.339994
-0.639033
-1.024150
-1.292902
-1.290034
-0.965492
-0.554554
-0.318958
-0.290585
-0.386227
-0.527458
-0.538617
-0.150633
0.466253
0.875916
0.963267
0.988133
1.162837
1.478453
1.867712
2.190023
2.386724
2.457498
2.416053
2.233696
1.967175
1.786731
1.541888
1.153265
0.754759
0.413319
0.289941
0.358483
0.367728
0.196210
0.019911
-0.112394
-0.331095
-0.498468
-0.637786
-0.972850
-1.431291
-1.664657
-1.485808
-1.145326
-0.812495
-0.492416
-0.345448
-0.503895
-0.739810
-0.700598
-0.447150
-0.214423
-0.034937
0.047951
0.145186
0.332642
0.415849
0.391301
0.525517
0.825511
0.911906
0.642197
0.329768
0.162395
-0.079578
-0.351200
-0.373517
-0.462783
-0.936527
-1.393375
-1.523129
-1.539070
-1.428127
-1.142479
-0.824950
-0.457051
-0.063328
0.407545
0.796805
0.846856
0.695104
0.534108
0.393514
0.286714
0.186290
-0.048032
-0.374170
-0.642604
-0.910081
-1.285634
-1.554705
-1.425271
-1.084470
-0.726454
-0.430604
-0.415940
-0.595746
-0.670985
-0.516365
-0.322533
-0.243789
-0.153887
-0.085982
-0.098098
-0.165685
-0.211593
-0.080247
0.213690
0.435258
0.557997
0.758843
0.983919
1.139494
1.323444
1.423866
1.317066
1.071905
0.694440
0.269792
-0.050289
-0.294812
-0.549857
-0.789279
-1.012762
-1.121475
-1.205640
-1.469292
-1.856002
-2.191066
-2.467471
-2.650465
-2.580010
-2.200952
-1.692460
-1.428172
-1.488108
-1.494804
-1.304797
-1.088011
-0.783872
-0.321607
0.198044
0.763921
1.500677
2.130952
2.349652
2.213840
1.890572
1.521396
1.008439
0.449574
0.206644
0.155316
0.018867
-0.113438
-0.251162
-0.525972
-0.987282
-1.585360
-2.074726
-2.350492
-2.407878
-2.156023
-1.740622
-1.409385
-1.164544
-0.793456
-0.275718
0.258597
0.796738
1.201300
1.309693
1.273986
1.325313
1.231583
0.843917
0.398227
-0.098152
-0.548304
-0.566796
-0.247673
0.149875
0.674626
1.307771
1.853245
2.047396
1.960043
1.766209
1.492355
1.268873
1.170042
0.958993
0.676851
0.602887
0.560167
0.199280
-0.244497
-0.460009
-0.746934
-1.144484
-1.361590
-1.483374
-1.671788
-1.895909
-2.057224
-2.210251
-2.312907
-2.074761
-1.548097
-1.048850
-0.615595
-0.239726
0.054849
0.335715
0.655156
0.991494
1.168748
1.261838
1.461409
1.556731
1.387764
1.188192
1.029426
0.741864
0.299363
0.003512
-0.021356
-0.145053
-0.442498
-0.500521
-0.281184
0.102018
0.685748
1.332601
1.738757
1.841730
1.924619
2.047358
2.024722
1.881897
1.784023
1.615056
1.216231
0.664699
0.261092
0.076184
-0.142197
-0.416370
-0.472161
-0.236884
0.013695
0.147273
0.289141
0.471815
0.548327
0.536849
0.617825
0.744708
0.673295
0.357997
0.038873
-0.057725
0.058638
0.285945
0.535886
0.703577
0.717285
0.707401
0.612397
0.304112
-0.039241
-0.407461
-0.914360
-1.318286
-1.541131
-1.665785
-1.560580
-1.181841
-0.576751
0.202087
0.877633
1.134907
1.102389
1.139369
1.267847
1.295582
1.272627
1.080387
0.719181
0.463818
0.298677
0.037894
-0.257000
-0.557953
-0.791318
-0.805984
-0.716719
-0.591111
-0.358703
-0.124702
-0.043089
-0.128210
-0.267847
-0.444147
-0.686120
-0.922355
-1.041588
-1.053385
-1.100250
-1.225859
-1.408535
-1.524262
-1.546579
-1.701518
-1.881644
-1.799393
-1.620225
-1.629790
-1.638718
-1.369010
-0.933205
-0.458506
0.028945
0.480690
0.970373
1.342098
1.402989
1.352298
1.326793
1.282479
1.141885
0.903100
0.747523
0.779402
0.933384
1.082265
1.080989
0.853681
0.389501
-0.036103
-0.167133
-0.124414
-0.099229
0.150713
0.780032
1.343359
1.626137
1.648134
1.502440
1.400103
1.428794
1.456849
1.293939
1.023592
0.689484
0.202032
-0.511453
-1.333332
-2.055424
-2.588147
-2.826295
-2.538415
-1.846291
-1.187961
-0.715813
-0.280327
0.118178
0.385335
0.578849
0.738569
0.695849
0.337193
0.022851
-0.073428
-0.106585
-0.029435
0.042614
0.082145
0.341970
0.710188
0.772992
0.563537
0.244732
-0.272370
-0.748027
-0.847175
-0.649199
-0.355262
-0.191078
-0.280663
-0.471946
-0.663230
-0.622742
-0.364511
-0.116801
0.076075
0.120707
-0.031364
-0.185666
-0.298205
-0.433060
-0.497459
-0.559626
-0.793629
-1.026039
-0.847509
-0.498100
-0.228073
0.177126
0.587745
0.795605
0.942892
1.076789
1.059254
0.820150
0.479029
0.178077
-0.058796
-0.171016
-0.155076
-0.066130
-0.043177
-0.067088
0.043536
0.376367
0.908132
1.468271
1.873151
2.088344
2.239456
2.262409
2.166767
2.061561
1.968470
1.896419
1.878884
2.008318
2.020750
1.675166
1.325118
1.140848
1.001530
1.140847
1.594186
2.018195
2.198956
2.182059
2.105545
1.854964
1.377076
1.025434
0.803864
0.401532
-0.108556
-0.283261
-0.124497
-0.063287
-0.213764
-0.261266
-0.018338
0.277511
0.338084
0.294725
0.213748
0.019277
-0.011329
0.229049
0.351788
0.303329
0.346685
0.369001
0.193977
-0.069675
-0.177432
-0.053418
0.225854
0.715218
1.352507
1.712437
1.685975
1.530717
1.343578
0.873341
0.341893
0.191417
0.143595
-0.004331
0.132117
0.515638
0.761116
0.931357
0.931994
0.613827
0.145183
-0.354702
-0.696461
-0.788278
-0.810914
-0.820797
-0.987533
-1.475623
-2.016635
-2.374972
-2.525448
-2.465513
-2.257654
-1.980613
-1.767334
-1.589123
-1.437373
-1.429085
-1.483601
-1.582750
-1.640454
-1.394338
-0.876601
-0.265772
0.322421
0.703073
0.884791
1.014543
1.075434
1.255558
1.551408
1.681160
1.516656
1.070967
0.665128
0.580326
0.578093
0.450252
0.393823
0.361623
0.122519
-0.297028
-0.632730
-0.838041
-0.937508
-0.932408
-1.023587
-1.147921
-1.185222
-1.187136
-0.992985
-0.635925
-0.066859
0.689663
1.133756
1.289970
1.536086
1.842456
2.109932
2.373583
2.554344
2.543823
2.309182
2.014606
1.703771
1.121634
0.257992
-0.424250
-0.773342
-0.932745
-0.925732
-0.980885
-1.114465
-1.073659
-0.985032
-1.008306
-1.038593
-1.072387
-1.023292
-0.889394
-0.761873
-0.628614
-0.515758
-0.520860
-0.687595
-1.044657
-1.374939
-1.329669
-1.124041
-1.048166
-0.985681
-0.953164
-0.917778
-0.759014
-0.587179
-0.465715
-0.327355
-0.150738
-0.013653
-0.022261
-0.220558
-0.395583
-0.356689
-0.125557
0.088041
0.246486
0.353604
0.292712
0.136178
0.093457
0.269118
0.537232
0.832125
1.281319
1.748686
1.907131
1.617337
1.152838
0.768678
0.469958
0.344030
0.243924
-0.097197
-0.426842
-0.497617
-0.653194
-0.970724
-0.964986
-0.800803
-0.827583
-0.847350
-0.913343
-1.058400
-1.072428
-1.129813
-1.326835
-1.284754
-1.039913
-0.682215
-0.260119
-0.051940
-0.077126
-0.107414
-0.041741
0.035728
0.014049
-0.332492
-0.938859
-1.489116
-2.012912
-2.449356
-2.728948
-2.801318
-2.513119
-2.079546
-1.886351
-1.926521
-1.837576
-1.471270
-1.164581
-1.121862
-1.250660
-1.570740
-2.088160
-2.715249
-3.022577
-2.807385
-2.596656
-2.586774
-2.568284
-2.564778
-2.619613
-2.590921
-2.477747
-2.144916
-1.519103
-0.927722
-0.489367
-0.105527
0.287239
0.561091
0.752054
1.116766
1.579350
1.757561
1.642472
1.485938
1.215910
0.770221
0.410928
0.191271
-0.123390
-0.440282
-0.348786
0.090207
0.436109
0.690833
1.039285
1.279026
1.363189
1.677211
2.087192
2.182195
2.054992
2.049571
2.147125
2.038093
1.819711
1.756268
1.669234
1.563709
1.475718
1.364455
1.187837
0.897405
0.510376
0.094017
0.007620
0.416645
0.942990
1.202815
1.290805
1.498664
1.771560
1.988027
2.056251
2.043817
2.108215
1.856996
1.362211
1.082619
1.107485
1.296216
1.500569
1.457849
0.895158
0.008244
-0.765814
-1.175160
-1.111399
-0.768367
-0.535640
-0.542017
-0.617256
-0.700145
-0.696321
-0.337985
0.149466
0.369121
0.362107
0.431924
0.478150
0.266145
0.080600
0.223105
0.672937
1.261768
1.883117
2.289273
2.395753
2.539214
2.622740
2.406271
2.178963
2.245592
2.341552
2.205740
2.042512
1.888210
1.364413
0.782276
0.645827
0.680576
0.749437
1.081311
1.528593
1.504044
0.999058
0.435092
0.180685
0.337536
0.554004
0.863243
1.099795
1.011486
0.825303
0.532959
0.375788
0.601182
0.916160
1.196707
1.519017
1.729109
1.851210
2.029740
2.257365
2.439402
2.335790
1.972990
1.810399
1.700729
1.206582
0.651861
0.380558
0.230401
0.157712
0.248571
0.312331
0.388206
0.430925
0.247293
0.151651
0.101279
-0.298184
-0.858961
-1.175216
-1.311665
-1.427073
-1.297320
-1.076071
-0.902323
-0.678523
-0.409453
-0.055581
0.193086
0.495312
0.912307
1.062782
0.982761
0.917087
0.879148
0.821444
0.519854
-0.050169
-0.598832
-0.907116
-1.050260
-1.147496
-1.164712
-1.077679
-0.902657
-0.666423
-0.398628
-0.292148
-0.252299
0.001788
0.565752
1.022917
1.131628
1.164464
0.888698
0.214745
-0.421590
-0.857077
-1.189272
-1.487355
-1.583316
-1.531989
-1.632732
-1.697768
-1.585550
-1.402876
-1.179076
-0.894384
-0.484084
-0.090999
-0.106302
-0.258373
-0.181223
-0.281966
-0.524895
-0.777070
-1.119786
-1.260060
-1.222761
-0.979195
-0.845298
-1.249543
-1.474938
-1.166017
-0.730850
-0.252326
0.151280
0.392933
0.716519
0.814391
0.429274
0.068387
-0.117477
-0.186977
0.009087
0.383363
0.597918
0.372522
-0.233526
-0.785058
-1.152321
-1.556247
-1.864213
-1.983446
-1.971970
-1.804280
-1.647110
-1.441482
-1.077089
-0.788572
-0.570192
-0.290920
-0.143952
-0.073497
0.172938
0.445515
0.485046
0.330744
0.208004
0.303644
0.533183
0.778024
0.993535
0.993853
0.869518
0.618300
0.312247
0.184724
0.064216
-0.152891
-0.263198
-0.198163
-0.297311
-0.608146
-0.826847
-1.040447
-1.448198
-1.832358
-2.054884
-2.125341
-2.014398
-1.705477
-1.066594
-0.476806
-0.220807
-0.044509
0.005861
-0.099664
-0.087550
0.026900
0.214675
0.500004
0.758235
0.871729
0.794259
0.602656
0.534750
0.560892
0.546863
0.466524
0.431136
0.398936
0.224231
-0.026988
-0.217953
-0.271512
-0.257486
-0.246647
-0.160252
0.142293
0.410725
0.557056
0.743237
0.975644
1.104441
1.278826
1.713355
2.145653
2.293578
2.078384
1.844381
1.781576
1.651184
1.495288
1.433758
1.449698
1.330783
0.760122
0.088720
-0.262285
-0.418181
-0.519880
-0.442411
-0.378970
-0.670039
-0.891928
-0.711166
-0.373872
-0.028289
0.538226
1.122593
1.279444
1.014836
0.717072
0.748633
0.816856
0.699217
0.628760
0.780829
1.152554
1.483791
1.502281
1.295377
1.070619
0.905159
0.750219
0.575832
0.422487
0.196135
-0.124583
-0.359543
-0.459648
-0.749442
-1.249965
-1.527645
-1.472811
-1.438062
-1.402676
-1.318512
-1.328396
-1.307037
-1.146998
-0.758057
-0.104190
0.513333
0.923315
1.290896
1.512464
1.442645
1.175486
0.892706
0.566887
0.075609
-0.333736
-0.572840
-0.692074
-0.549569
-0.124604
0.342444
0.582184
0.545202
0.432026
0.573574
0.876756
1.050185
1.269203
1.556764
1.723817
1.950805
2.164722
2.123276
1.812123
1.328177
0.901297
0.717027
0.659961
0.535626
0.434246
0.435520
0.432013
0.371439
0.367613
0.393754
0.300981
0.277389
0.310225
0.190991
-0.007943
-0.228557
-0.434824
-0.545450
-0.537799
-0.416973
-0.343649
-0.470533
-0.545453
-0.419845
-0.332493
-0.233984
0.061547
0.411913
0.611165
0.722745
0.719875
0.445703
0.204048
0.342728
0.590119
0.679384
0.691816
0.687671
0.494156
-0.027409
-0.618154
-0.912411
-0.990200
-1.244607
-1.769040
-2.277534
-2.427373
-2.238960
-2.077008
-1.961283
-1.762669
-1.596891
-1.457256
-1.284146
-1.065765
-0.667261
-0.232093
0.136125
0.628677
1.077234
1.295295
1.416121
1.523239
1.369893
0.764802
0.103282
-0.404893
-0.929327
-1.492655
-2.085313
-2.491151
-2.639396
-2.553001
-2.194666
-1.731444
-1.193940
-0.441563
0.486476
1.356174
2.025343
2.362956
2.480276
2.371882
1.889211
1.440653
1.328114
1.303565
1.084865
0.754583
0.458413
0.171488
-0.188762
-0.508523
-0.555388
-0.604804
-1.001078
-1.441666
-1.723809
-1.718709
-1.362286
-1.010646
-0.804380
-0.665701
-0.697582
-0.939237
-1.230943
-1.492045
-1.664838
-1.736250
-1.650174
-1.391943
-1.091311
-0.817140
-0.691213
-0.694083
-0.630004
-0.343719
0.325132
0.991751
1.202799
1.221608
1.197059
1.227345
1.379414
1.513629
1.549335
1.521917
1.380686
1.063475
0.883031
0.870915
0.756783
0.615871
0.653170
0.888447
1.134882
1.254752
1.301296
1.271647
1.035731
0.561349
-0.045974
-0.642139
-1.046065
-1.444890
-2.020651
-2.370699
-2.234570
-2.115019
-2.293869
-2.455185
-2.579201
-2.638180
-2.471765
-2.071348
-1.421944
-0.627165
0.073885
0.743373
1.391183
1.882779
2.279052
2.554817
2.604549
2.580001
2.530267
2.334520
2.141324
2.025278
1.832082
1.558228
1.290113
1.091179
1.002869
0.846335
0.381518
-0.191374
-0.504441
-0.540148
-0.489777
-0.528991
-0.658108
-0.676280
-0.449930
-0.150254
0.179070
0.674810
1.140582
1.284043
1.269059
1.343021
1.445037
1.426865
1.365016
1.222191
1.013373
0.997432
1.164804
1.136749
0.860663
0.481923
-0.046655
-0.675020
-1.202960
-1.551733
-1.839933
-2.011450
-2.004119
-1.855556
-1.465341
-0.908071
-0.285766
0.134099
0.020603
-0.248468
-0.353355
-0.405321
-0.448679
-0.497457
-0.661642
-1.120084
-1.663646
-1.714018
-1.412748
-1.293835
-1.248565
-1.077368
-0.795865
-0.487582
-0.273983
-0.024042
0.469467
0.961381
1.253086
1.489001
1.557224
1.506215
1.636605
1.936599
1.999084
1.794411
1.528528
1.127790
0.744586
0.752874
0.850109
0.589964
0.183806
-0.090047
-0.358800
-0.645725
-0.807678
-0.756989
-0.544347
-0.447431
-0.481225
-0.564434
-0.486009
-0.118747
0.346069
0.647976
0.656583
0.743297
1.283032
2.004486
2.790975
3.690640
4.627925
5.525039
6.094742
6.152445
5.784225
5.136414
4.510281
4.065549
3.688402
3.320182
2.776301
1.986622
1.201407
0.621182
0.233834
-0.164035
-0.695801
-1.249246
-1.608539
-1.749771
-1.799505
-1.884945
-2.119586
-2.392802
-2.553161
-2.559219
-2.445726
-2.274847
-2.105244
-1.910136
-1.791542
-1.895792
-2.049775
-2.078787
-2.171878
-2.396955
-2.378465
-2.253813
-2.382930
-2.439359
-2.221935
-1.751699
-0.994859
-0.264479
0.229349
0.615420
0.958134
1.292878
1.426456
1.287457
1.025399
0.671525
0.350170
0.028814
-0.425483
-0.822076
-0.968727
-0.887433
-0.737914
-0.740465
-0.735046
-0.631117
-0.564806
-0.422301
-0.185112
-0.027623
0.111694
0.123808
-0.254295
-0.919959
-1.459377
-1.772125
-2.019518
-2.172863
-2.051400
-1.802414
-1.793807
-1.895507
-1.823776
-1.663100
-1.485845
-1.194140
-0.912955
-0.794998
-0.555577
0.149618
0.944077
1.421327
1.511866
1.176802
0.604229
0.150888
0.031336
0.138772
0.283509
0.493919
0.915696
1.290610
1.150654
0.766812
0.506349
0.301675
0.141316
-0.031477
-0.403203
-0.870571
-1.411583
-2.082348
-2.553860
-2.725378
-2.898489
-3.010390
-2.834730
-2.636115
-2.530911
-2.382667
-2.209876
-1.980338
-1.529549
-1.079398
-1.036042
-1.333806
-1.505642
-1.391511
-1.248687
-1.048479
-0.687274
-0.370064
-0.145946
0.317276
1.009081
1.639675
2.095565
2.344232
2.501401
2.631473
2.686625
2.806495
2.988213
3.037627
3.005427
2.998731
2.750063
2.119786
1.357205
0.826714
0.578684
0.282195
-0.006962
-0.180711
-0.576348
-1.474420
-2.716802
-3.743671
-4.196055
-3.976400
-3.350587
-2.917014
-2.762076
-2.665479
-2.693535
-2.999906
-3.238373
-3.000545
-2.486952
-2.168149
-2.076015
-1.821929
-1.217795
-0.355111
0.551886
1.259631
1.683003
1.771630
1.528062
1.060057
0.411927
-0.351929
-0.940761
-1.141928
-1.237889
-1.359354
-1.375932
-1.394743
-1.387411
-1.121847
-0.650655
-0.112833
0.423076
1.004575
1.408180
1.587985
1.759182
1.939944
2.202000
2.245038
2.041003
2.020279
1.936114
1.514336
1.043142
0.675879
0.371739
0.041456
-0.254076
-0.336009
-0.194461
0.013399
0.261109
0.454941
0.745053
1.299771
1.819422
1.835361
1.260237
0.391814
-0.731972
-2.254902
-3.617153
-4.145732
-3.836173
-3.011108
-1.910915
-0.670130
0.528255
1.357465
1.420268
0.799556
-0.028061
-0.645267
-0.820929
-0.815191
-0.813917
-0.502446
0.012423
0.230484
0.125278
0.065023
-0.007665
-0.356438
-0.722107
-0.988628
-1.325286
-1.519439
-1.503181
-1.540800
-1.614764
-1.478316
-1.176409
-0.948465
-0.825088
-0.826045
-1.060048
-1.346336
-1.370565
-1.134332
-0.756550
-0.375898
-0.258579
-0.251885
-0.146680
-0.200877
-0.361874
-0.256032
0.236520
0.787094
1.121201
1.250953
1.155311
0.937248
0.618443
0.087315
-0.646255
-1.449643
-2.124552
-2.495960
-2.634641
-2.595429
-2.280769
-1.799057
-1.397364
-1.081430
-0.821605
-0.525755
-0.173796
0.136400
0.513545
0.796961
0.661150
0.270614
-0.074333
-0.515240
-1.063585
-1.644447
-2.384392
-3.186824
-3.706794
-3.779801
-3.503080
-3.005108
-2.295450
-1.387815
-0.523856
0.048716
0.283674
0.292918
0.243503
0.215766
0.211940
0.265180
0.279525
0.254976
0.325113
0.433505
0.470805
0.388552
0.196950
-0.017925
-0.193587
-0.314733
-0.456602
-0.604209
-0.650755
-0.635772
-0.402089
0.045512
0.360171
0.522123
0.586520
0.475895
0.097473
-0.576161
-1.194005
-1.501333
-1.672213
-1.862859
-2.116946
-2.402596
-2.733515
-3.148918
-3.565596
-3.827654
-3.828930
-3.539775
-3.011836
-2.375503
-1.826523
-1.685931
-1.910370
-2.141823
-2.263607
-2.159677
-1.742682
-1.205816
-0.711032
-0.382983
-0.144518
0.062066
0.257174
0.483843
0.491493
0.297978
0.251113
0.293514
0.176193
0.004038
-0.030394
0.085331
0.308494
0.761514
1.531107
2.333218
2.808873
3.079538
3.255836
3.289947
3.013862
2.216212
1.061502
-0.033591
-0.822633
-1.164711
-1.096806
-0.929435
-0.836663
-0.851329
-0.857706
-0.728910
-0.513399
-0.445175
-0.491403
-0.452509
-0.446771
-0.518184
-0.464307
-0.120318
0.262884
0.420692
0.404751
0.263838
0.145880
0.157038
-0.002684
-0.484717
-0.993848
-1.251762
-1.073551
-0.646035
-0.208636
0.074780
0.217604
0.396452
0.616745
0.852022
1.181028
1.665609
2.143815
2.484298
2.799594
3.107559
3.485341
3.977893
4.231979
4.181926
3.935490
3.527420
3.171633
2.752724
2.095986
1.407687
0.792393
0.305260
0.010684
-0.145531
-0.145851
-0.057543
0.182516
0.596642
0.697384
0.457005
0.351161
0.249461
-0.184432
-0.730545
-1.182291
-1.664324
-2.222551
-2.496086
-2.360914
-1.974842
-1.496318
-0.936817
-0.393894
-0.192091
-0.311644
-0.477423
-0.536402
-0.497828
-0.426416
-0.054691
0.711076
1.345496
1.732524
2.245798
3.031331
3.864685
4.681461
5.392076
5.775915
5.696532
5.035012
3.915690
2.570972
0.974080
-0.449382
-1.373915
-2.201851
-3.063261
-3.372821
-3.088448
-3.054655
-3.279094
-3.222029
-2.818105
-2.388995
-2.380069
-2.633519
-2.793879
-2.898447
-2.828311
-2.576775
-2.336078
-2.058082
-1.686038
-1.319095
-1.063414
-0.974150
-1.053214
-0.987860
-0.704125
-0.588400
-0.689780
-0.859385
-1.052262
-1.038554
-0.666510
-0.264180
-0.063015
-0.056959
-0.298613
-0.987869
-1.968512
-2.749583
-3.416841
-4.004717
-4.331174
-4.280485
-3.802916
-3.161164
-2.563088
-2.088707
-1.858850
-1.679364
-1.516775
-1.624850
-1.789991
-1.865868
-1.868738
-1.721132
-1.590423
-1.539096
-1.305732
-1.042400
-1.047183
-1.244205
-1.397869
-1.295534
-0.874075
-0.358569
0.045036
0.265648
0.214320
0.035151
0.126966
0.506980
0.579029
0.372762
0.302305
0.107515
-0.351564
-0.699699
-0.685991
-0.302470
0.166172
0.679446
1.428317
2.022567
2.227876
2.343920
2.342645
2.016507
1.505463
1.141069
0.929382
0.482736
-0.207476
-0.741155
-0.993011
-1.184295
-1.375897
-1.511389
-1.713831
-1.969194
