EVENT_NAME: 202302060117
EVENT_ID: 13194
EVENT_DATE_YYYYMMDD: 2023/02/06
EVENT_TIME_HHMMSS: 01:17:32.00000
EVENT_LATITUDE_DEGREE: 37.288
EVENT_LONGITUDE_DEGREE: 37.043
EVENT_DEPTH_KM: 8.6
HYPOCENTER_REFERENCE: AFAD
MAGNITUDE_W: 7.7
MAGNITUDE_W_REFERENCE: AFAD
MAGNITUDE_L: 
MAGNITUDE_L_REFERENCE: 
FOCAL_MECHANISM: 
NETWORK: TK
STATION_CODE: 2305
STATION_NAME: 
STATION_LATITUDE_DEGREE: 38.72778
STATION_LONGITUDE_DEGREE: 40.13103
STATION_ELEVATION_M: 600.0
LOCATION: Kahramanmaras_Pazarck_Turkiye
SENSOR_DEPTH_M: 
VS30_M/S: 907
SITE_CLASSIFICATION_EC8: A
MORPHOLOGIC_CLASSIFICATION: 
EPICENTRAL_DISTANCE_KM: 314.34
EARTHQUAKE_BACKAZIMUTH_DEGREE: 
DATE_TIME_FIRST_SAMPLE_YYYYMMDD_HHMMSS: 2023/02/06 01:18:03.6753960
DATE_TIME_FIRST_SAMPLE_PRECISION: millisecond
SAMPLING_INTERVAL_S: 0.01
NDATA: 18251
DURATION_S: 
STREAM: HNE
UNITS: cm/s^2
INSTRUMENT: sensor = CMG-5T/GURALP | digitizer = 
INSTRUMENT_ANALOG/DIGITAL: 
INSTRUMENTAL_FREQUENCY_HZ: 
INSTRUMENTAL_DAMPING: 
FULL_SCALE_G: 
N_BIT_DIGITAL_CONVERTER: 
PGA_CM/S^2: 53.675
TIME_PGA_S: 
BASELINE_CORRECTION: BASELINE REMOVED
FILTER_TYPE: BUTTERWORTH
FILTER_ORDER: 
LOW_CUT_FREQUENCY_HZ: 
HIGH_CUT_FREQUENCY_HZ: 
LATE/NORMAL_TRIGGERED: 
DATABASE_VERSION: 
HEADER_FORMAT: DYNA 1.2
DATA_TYPE: Acceleration
PROCESSING: Automatic Paolucci et al., 2011
DATA_TIMESTAMP_YYYYMMDD_HHMMSS: 
DATA_LICENSE: U (unknown license)
DATA_CITATION: Turkish Accelerometric Archive v 1.0 - Disaster And Emergency Management Presidency, Earthquake Department
DATA_CREATOR: AFAD
ORIGINAL_DATA_MEDIATOR_CITATION: : AFAD - Disaster And Emergency Management Presidency
ORIGINAL_DATA_MEDIATOR: AFAD PROCESS SERVICE
ORIGINAL_DATA_CREATOR_CITATION: AFAD PROCESS SERVICE
ORIGINAL_DATA_CREATOR: network: TK
USER1: GuestUser
USER2: 
USER3: 
USER4: 
USER5: 
[...]
1.152126
1.313382
1.356593
1.315889
1.253893
1.225713
1.262662
1.341568
1.408576
1.456171
1.553551
1.734220
1.964049
2.176969
2.328205
2.416505
2.408052
2.287503
2.120926
1.992862
1.901746
1.747694
1.488434
1.184712
0.873476
0.530301
0.121998
-0.383371
-0.907527
-1.333364
-1.617673
-1.791452
-1.976189
-2.243590
-2.557332
-2.871073
-3.121879
-3.265285
-3.305989
-3.219881
-3.032637
-2.785587
-2.494388
-2.195674
-1.929524
-1.755743
-1.727875
-1.818677
-1.945489
-2.095784
-2.311207
-2.559507
-2.794344
-2.954032
-2.929295
-2.695709
-2.240124
-1.619213
-0.992353
-0.510152
-0.268112
-0.230537
-0.299422
-0.408699
-0.491987
-0.552104
-0.601262
-0.639775
-0.776919
-1.065924
-1.408473
-1.682762
-1.828360
-1.815834
-1.671487
-1.410347
-1.043060
-0.621291
-0.232087
0.047214
0.225692
0.337788
0.390080
0.398848
0.412626
0.412314
0.370357
0.285190
0.144915
0.014660
0.015287
0.144918
0.285508
0.369738
0.437685
0.540701
0.632132
0.649668
0.591742
0.443952
0.270173
0.169038
0.190957
0.379767
0.663764
0.945883
1.172894
1.297515
1.331646
1.379867
1.512316
1.704570
1.894946
2.055576
2.221215
2.432570
2.639228
2.707801
2.570031
2.242825
1.811665
1.373616
0.950283
0.539789
0.185029
-0.087069
-0.247070
-0.246443
-0.074228
0.197558
0.490636
0.754281
0.951232
1.081490
1.128771
1.117500
1.111865
1.122199
1.109049
1.058951
1.025762
1.039227
1.064590
1.063965
1.010736
0.895823
0.746781
0.559225
0.317187
0.052917
-0.210726
-0.454955
-0.692610
-0.958758
-1.215512
-1.328233
-1.196410
-0.860436
-0.480937
-0.222928
-0.135255
-0.207271
-0.400150
-0.587705
-0.646570
-0.567038
-0.403590
-0.227931
-0.086714
0.006909
0.092390
0.167852
0.209811
0.258971
0.338504
0.448095
0.590877
0.771860
0.975073
1.205528
1.484203
1.813289
2.139870
2.428252
2.681251
2.910766
3.087991
3.123061
2.989361
2.715072
2.340586
1.907233
1.494234
1.183623
1.012663
0.952232
0.950667
0.963193
0.944720
0.918419
0.921865
0.937521
0.974470
1.068093
1.174240
1.227471
1.257531
1.339256
1.486108
1.623254
1.685878
1.686192
1.657387
1.619814
1.570342
1.524002
1.493944
1.415979
1.222787
0.925327
0.627241
0.437494
0.351388
0.321329
0.350137
0.423407
0.477264
0.465680
0.382392
0.238046
0.073661
-0.071311
-0.205637
-0.344973
-0.471158
-0.516872
-0.433895
-0.254791
-0.041871
0.173241
0.341698
0.375829
0.228039
-0.087582
-0.502460
-0.917338
-1.263957
-1.539812
-1.775274
-1.959386
-2.031089
-1.971596
-1.855428
-1.748968
-1.633427
-1.495968
-1.336277
-1.140579
-0.932668
-0.715365
-0.465184
-0.153006
0.238078
0.634797
0.919734
1.036528
0.992066
0.856174
0.731868
0.639500
0.543061
0.413745
0.247481
0.094055
-0.044655
-0.233776
-0.503055
-0.797071
-1.051947
-1.244199
-1.360051
-1.349091
-1.122081
-0.645517
-0.055917
0.421899
0.660808
0.668324
0.492980
0.166713
-0.234388
-0.565977
-0.697485
-0.609812
-0.379044
-0.052463
0.384649
0.886889
1.332454
1.602362
1.653088
1.536609
1.330893
1.136448
1.006193
0.920400
0.876878
0.887838
0.936372
1.018722
1.176221
1.370980
1.504369
1.517834
1.394154
1.177791
0.988670
0.903503
0.907888
0.960492
1.016228
1.073529
1.130830
1.133963
1.007464
0.732862
0.317358
-0.185506
-0.673341
-1.072563
-1.296441
-1.329004
-1.287985
-1.262621
-1.208138
-1.046569
-0.751299
-0.364599
0.064684
0.521209
0.974289
1.359111
1.644987
1.814384
1.862918
1.848202
1.836618
1.858850
1.905505
1.941828
1.965000
2.034512
2.156316
2.285947
2.400235
2.478202
2.493546
2.437812
2.319142
2.132839
1.912719
1.697609
1.546687
1.511933
1.543558
1.568295
1.552327
1.450252
1.203205
0.818698
0.391295
0.048434
-0.128163
-0.117203
0.101353
0.507780
0.983404
1.407678
1.725179
1.928080
2.031096
2.072741
2.075247
2.051138
2.022646
1.981628
1.899906
1.782488
1.712664
1.761511
1.940928
2.208644
2.496085
2.722470
2.884665
3.018053
3.112929
3.171169
3.186200
3.148627
3.071601
2.977041
2.874653
2.778840
2.679583
2.541187
2.393397
2.309169
2.357077
2.569684
2.895013
3.254472
3.536904
3.610800
3.375651
2.833647
2.052109
1.156910
0.306487
-0.406165
-0.890868
-1.089696
-1.024254
-0.778770
-0.444047
-0.077074
0.281445
0.602704
0.869480
1.027292
1.006940
0.783376
0.428616
0.067594
-0.235189
-0.514175
-0.801928
-1.022674
-1.042086
-0.829792
-0.481293
-0.131228
0.100166
0.168114
0.098603
-0.061086
-0.266176
-0.449348
-0.521051
-0.423045
-0.147501
0.257673
0.684138
1.051425
1.293778
1.373310
1.298790
1.091821
0.778392
0.411107
0.073256
-0.188196
-0.397983
-0.599003
-0.722683
-0.675401
-0.443068
-0.082357
0.325009
0.719850
1.009483
1.048311
0.760245
0.252684
-0.294330
-0.743025
-1.026707
-1.181386
-1.283148
-1.324165
-1.281580
-1.211128
-1.134413
-1.027953
-0.918048
-0.842586
-0.776517
-0.690096
-0.580192
-0.466842
-0.358816
-0.276153
-0.277091
-0.359127
-0.533845
-0.860424
-1.350763
-1.914998
-2.459194
-2.926363
-3.214116
-3.234467
-2.972388
-2.522438
-2.055894
-1.717414
-1.543320
-1.508250
-1.602184
-1.833263
-2.149510
-2.449162
-2.666777
-2.722197
-2.591000
-2.338941
-2.011733
-1.672001
-1.397084
-1.222050
-1.139700
-1.151284
-1.299387
-1.570858
-1.892115
-2.167970
-2.355212
-2.479832
-2.572513
-2.637640
-2.683668
-2.705585
-2.701826
-2.713411
-2.771963
-2.881552
-2.997091
-3.057209
-3.016189
-2.826440
-2.500798
-2.133824
-1.806930
-1.506337
-1.153454
-0.681900
-0.095432
0.548337
1.128229
1.503031
1.622329
1.558454
1.409099
1.244400
1.178021
1.303268
1.570671
1.844648
2.026570
2.082619
2.068530
1.958940
1.682146
1.283863
0.859278
0.433753
0.008229
-0.376277
-0.677181
-0.852838
-0.921097
-0.961801
-1.061058
-1.196949
-1.301529
-1.345365
-1.341919
-1.335656
-1.384501
-1.512252
-1.707636
-1.908029
-2.062395
-2.152571
-2.161964
-2.120631
-2.082430
-2.103721
-2.175737
-2.280317
-2.374564
-2.397420
-2.330100
-2.202973
-2.034829
-1.776820
-1.402645
-0.973987
-0.573510
-0.267282
-0.117924
-0.081289
-0.098196
-0.135769
-0.192442
-0.327707
-0.538434
-0.732565
-0.853114
-0.908535
-0.893191
-0.798942
-0.637686
-0.487076
-0.381868
-0.334586
-0.397209
-0.516818
-0.620772
-0.704373
-0.818346
-0.981479
-1.143046
-1.225708
-1.172164
-0.967072
-0.586321
-0.019893
0.686812
1.394456
1.978106
2.318152
2.365120
2.196351
1.889185
1.511881
1.132071
0.853399
0.709366
0.677742
0.740993
0.906945
1.195640
1.603318
2.054520
2.403333
2.564276
2.479735
2.148146
1.657493
1.102965
0.596657
0.284794
0.225929
0.367458
0.657092
1.035338
1.481216
2.003496
2.563975
3.061205
3.458551
3.709984
3.774487
3.681492
3.394052
2.949428
2.432161
1.892349
1.367253
0.869712
0.460783
0.203403
0.016473
-0.138832
-0.212726
-0.206463
-0.130375
0.019922
0.234721
0.522789
0.856572
1.171255
1.374782
1.403276
1.362259
1.309656
1.247034
1.171261
1.053843
0.891963
0.697832
0.407887
0.001149
-0.494826
-1.036203
-1.558794
-2.056648
-2.507535
-2.906444
-3.222378
-3.410560
-3.568996
-3.710836
-3.723986
-3.639757
-3.393020
-3.012896
-2.612419
-2.258910
-2.077301
-2.063210
-2.219141
-2.524116
-2.877310
-3.271836
-3.682017
-3.991375
-4.120065
-4.074349
-3.782211
-3.258053
-2.665949
-1.979596
-1.154220
-0.287200
0.498097
1.139047
1.606218
1.906498
2.078086
2.247483
2.441303
2.561854
2.548704
2.330776
2.027367
1.770926
1.598713
1.530141
1.475973
1.394251
1.283408
0.995655
0.529113
0.040652
-0.365459
-0.563974
-0.533288
-0.268077
0.137410
0.452719
0.592996
0.470569
0.040348
-0.580874
-1.413137
-2.362505
-3.190071
-3.828201
-4.164487
-4.243079
-4.186404
-3.944051
-3.562048
-3.152177
-2.786456
-2.459875
-2.149575
-1.906909
-1.788237
-1.733754
-1.678958
-1.748468
-1.972659
-2.279199
-2.676856
-3.079210
-3.421132
-3.695734
-3.727984
-3.452127
-3.009380
-2.424790
-1.805132
-1.292872
-0.999168
-1.090597
-1.491385
-2.081609
-2.779231
-3.386676
-3.787778
-3.939012
-3.926486
-3.874195
-3.753644
-3.540411
-3.389175
-3.430505
-3.567962
-3.642796
-3.652502
-3.665965
-3.734223
-3.924597
-4.103699
-4.082719
-3.892656
-3.647172
-3.432060
-3.297106
-3.241370
-3.231350
-3.175614
-3.035337
-2.865000
-2.710946
-2.612314
-2.597283
-2.605110
-2.586635
-2.550626
-2.504597
-2.577239
-2.832115
-3.144604
-3.334978
-3.351572
-3.288008
-3.225071
-3.202526
-3.121114
-2.861853
-2.418166
-1.806335
-1.087732
-0.255155
0.674802
1.579397
2.444538
3.311872
4.147894
4.811075
5.126071
5.094134
4.822037
4.341091
3.701708
3.038842
2.475546
2.074445
1.841487
1.801723
1.959534
2.299580
2.757357
3.254587
3.784694
4.186423
4.380870
4.576255
4.831759
4.972036
4.933837
4.791370
4.681467
4.653288
4.529608
4.153556
3.727092
3.437773
3.229552
3.157849
3.258361
3.489128
3.828861
4.245933
4.646723
4.948255
5.188729
5.272332
5.125168
4.861212
4.485787
4.125704
3.843587
3.559278
3.274030
2.993478
2.678484
2.373823
2.301807
2.376643
2.450852
2.663773
2.887026
2.892663
2.788083
2.580801
2.276765
1.978680
1.664938
1.334288
1.213113
1.234406
1.086302
0.988924
1.012409
1.100082
1.426351
1.740408
1.849686
1.768590
1.405376
0.968266
0.512683
0.143519
-0.102902
-0.311750
-0.391281
-0.408501
-0.407874
-0.270728
0.007007
0.364900
0.889371
1.325544
1.597017
2.106458
2.615586
2.715784
2.772460
2.982875
3.367070
3.808878
3.989547
3.922854
3.790407
3.601912
3.230870
3.141946
3.501404
3.573735
3.292244
2.983512
2.620611
2.320647
2.196341
2.163151
2.131841
2.117438
2.048553
2.151257
2.644729
2.857962
2.891467
3.242158
3.385880
3.155427
2.787829
2.409272
1.796191
0.765100
-0.281334
-1.015905
-1.647773
-2.349466
-3.042391
-3.535862
-3.989254
-4.215323
-3.870894
-3.355190
-3.010135
-2.608718
-1.953052
-1.672498
-1.869448
-1.831873
-1.130804
-0.766336
-1.508421
-2.448395
-3.220852
-4.241298
-5.529458
-6.596558
-7.272262
-7.583499
-7.400951
-7.177072
-6.641016
-5.376024
-3.980463
-2.794690
-2.152801
-2.017533
-1.919527
-2.071701
-2.813786
-3.619120
-3.778496
-3.512346
-3.413400
-3.681113
-4.275721
-4.782655
-5.039723
-5.142424
-5.417339
-5.503759
-5.071344
-4.749459
-4.539357
-4.520256
-4.765425
-4.521820
-4.043064
-4.045881
-4.104433
-4.165176
-4.384044
-4.751641
-5.123623
-5.343430
-5.215364
-5.262330
-5.793062
-6.018192
-5.775525
-5.258256
-4.398750
-3.215796
-2.153390
-1.480815
-1.089419
-0.993604
-1.091296
-1.226874
-1.325505
-1.261315
-1.351178
-1.775763
-2.378199
-2.870103
-3.610310
-4.377131
-4.580656
-4.733769
-4.655489
-3.741501
-2.665945
-1.609489
-0.208292
0.942412
1.868298
2.344549
2.041454
1.515106
1.201364
0.793061
0.356578
0.204717
0.340611
0.546329
0.676900
0.874164
0.898588
0.675024
0.056933
-0.953180
-1.690255
-2.027793
-2.287053
-2.282668
-2.218165
-2.463961
-2.725412
-2.795549
-2.911088
-2.705683
-2.284540
-2.354051
-2.620825
-2.763292
-3.011906
-3.354454
-3.728941
-4.160101
-4.741557
-5.042774
-4.957919
-4.819520
-4.492939
-4.143500
-3.831009
-3.339728
-2.512474
-1.889684
-1.924126
-2.121388
-1.933204
-1.714022
-1.573119
-1.643569
-1.843962
-1.572489
-0.655370
0.538544
1.405251
1.824202
2.271959
2.567855
1.887767
1.091826
0.841021
0.652839
0.538552
0.593662
0.745211
1.324791
2.061868
2.507746
2.444498
2.504930
2.928891
2.936720
2.837776
2.774527
3.068545
3.472153
3.537282
3.541980
3.324678
2.761382
2.467993
1.959806
1.438781
1.750020
2.085995
2.420717
2.657747
2.742603
2.830590
2.703778
3.145274
4.214254
4.893092
5.174584
5.058732
4.766282
3.453699
2.098845
1.361144
0.364808
0.100539
0.361992
-0.039109
0.147509
0.630023
1.408118
2.779882
2.533147
1.829262
1.358336
0.902127
0.508227
-0.503451
-1.409296
-2.212126
-1.826052
-1.469725
-2.814872
-2.876868
-2.964853
-2.735964
-2.760699
-2.829271
-2.696821
-2.601007
-3.128294
-3.914528
-4.321892
-3.827793
-4.828199
-5.843009
-5.704610
-6.109469
-5.001975
-3.426685
-3.579798
-4.351316
-1.847636
-2.861819
-4.849169
-2.362710
-0.982805
-3.457050
-1.823207
-2.082780
-6.077832
-2.640125
2.094196
-3.935486
-2.886858
0.924083
-1.019117
-0.609246
-0.214405
1.135754
-2.056781
-4.588326
3.758107
0.965735
-5.202658
6.981957
-0.995310
-2.210827
5.219740
-0.263867
1.802389
7.408427
3.848294
-1.092056
-3.870651
6.240506
10.215521
-8.310952
-5.542689
6.062660
2.822219
4.137622
7.932281
2.672239
-0.028389
-0.635208
4.802999
-1.367585
-3.682454
1.074099
-2.643845
-6.636392
-2.300041
1.709416
0.474485
4.541243
-9.210518
-1.905197
11.511218
3.327920
0.823929
-2.996404
-0.708461
-0.109781
-2.551149
-5.946896
-1.302126
2.270221
-5.512601
-4.956818
2.358209
1.787086
-4.762057
2.345061
3.230869
-4.081965
-1.379143
-2.475363
-5.504450
-2.486320
-5.546719
-7.640841
2.556110
-0.351175
-8.907707
-0.217472
2.146558
1.240713
-1.027815
-7.502436
-9.744975
-8.242641
-5.797514
-1.148360
-2.302506
-3.695560
-0.468268
-4.472713
-3.954191
5.496290
4.938004
-2.813192
-0.351470
-2.583363
-2.003470
3.641394
5.630624
-0.256904
-5.180033
-1.770820
3.408440
-4.339312
-2.735216
-1.493395
-10.399052
-3.620706
7.657123
6.681766
-1.468654
0.880347
-2.682291
-6.839224
-3.598468
-0.281625
-1.011185
3.952025
5.384847
8.367282
0.157683
-7.189594
-4.488337
2.251495
11.903311
10.806152
4.879484
-1.375642
2.099952
14.835338
29.973267
-2.407983
-42.409861
-39.282453
-13.471950
-3.525179
-11.789886
-25.593311
-24.206517
22.596252
53.674626
11.059478
-43.724001
-30.884347
-18.561022
-23.115613
-9.912431
4.751440
31.473425
27.639002
0.727896
-13.426532
-32.435517
-24.449168
-7.451014
-10.335755
-5.343113
-0.450667
-19.913358
-33.834828
-20.520176
-11.176467
10.734483
29.471686
24.347849
13.117616
-15.482127
-31.830249
-20.745299
-5.595472
3.807729
-1.790479
-11.264756
-6.889892
0.175895
-9.551379
-20.765331
-19.607112
-20.069584
-18.250064
-22.092001
-27.896553
-14.173598
11.076740
25.798850
26.610136
10.737951
-11.287599
-21.072800
-19.353476
-12.131445
-8.907284
-7.233049
-7.704288
-7.774425
-7.732780
-4.247167
-3.275565
0.065075
2.175168
-4.487010
-9.060075
-7.253392
-8.967077
-8.995570
-5.175235
-4.952295
-3.119937
-8.119779
-11.077476
-9.744226
-5.973050
-2.094163
-4.000728
-6.226672
-2.794288
-2.176195
-5.808032
-7.901214
-4.095596
0.155587
2.273821
1.639761
1.407429
2.665219
1.948496
4.595271
7.228268
3.884185
-2.952085
-6.096087
-9.838767
-10.425233
-7.500098
-9.845339
-6.902357
1.759698
5.658625
7.639713
2.357753
-2.871917
-1.499527
-1.780704
-2.882560
1.097151
-6.015914
-4.673270
3.929292
2.882232
6.271405
4.384879
-2.280116
-2.521841
-6.251370
-12.726304
-2.472679
1.319162
0.444003
1.974204
-2.539369
-8.903460
-7.826025
-3.311511
0.517904
6.381010
6.533499
-3.054439
-4.992316
-5.588488
-12.957370
-10.961878
-12.096611
-15.901914
-15.540264
-11.348886
-7.597750
-1.405245
1.565292
2.193091
4.567454
-0.521626
-7.385764
-4.010055
-5.573131
-2.952972
4.894667
6.309641
0.199801
-10.242319
-12.116320
-11.351062
-2.609790
5.203093
7.269349
3.696379
4.487312
4.747512
-2.688689
-5.053344
-3.074760
-4.245188
-1.572738
5.492109
9.506889
11.612598
7.508895
5.937678
7.297230
1.258467
0.039193
4.846158
2.920492
3.355099
11.885644
13.837926
7.333559
6.964083
7.822649
2.928953
3.959420
10.093686
8.856251
14.414695
15.583246
8.403174
7.894674
8.373743
5.437338
4.752866
5.797737
5.288297
7.378037
11.243774
13.974150
7.941650
6.294032
6.384837
3.378920
6.253017
10.819821
10.789763
11.457954
9.954683
6.714242
10.273438
11.807083
8.189023
4.575974
6.899925
8.258851
7.346118
8.929549
9.387326
9.415194
6.576168
3.136272
2.697284
5.183116
8.119836
11.427599
17.857760
17.186126
12.613061
8.536599
0.695538
-3.560653
-2.033583
-1.559837
1.735401
1.659002
1.098211
8.006814
9.931854
13.541149
17.790766
16.146593
9.773421
6.443742
4.372791
0.367719
2.866703
7.559380
13.084947
19.139680
17.262548
7.864985
0.509881
-0.323947
-1.020630
0.237159
2.741153
0.111288
5.361000
8.368171
5.117397
2.683544
3.448801
5.230435
4.152063
4.479271
4.998732
6.058945
5.121788
2.752124
-2.579622
-4.179646
-0.953293
0.707791
1.897634
3.481065
4.515290
3.083722
1.157118
1.199389
0.283211
1.083225
4.375019
6.177945
5.863890
6.147574
6.460379
7.278866
7.030565
2.673551
-0.554992
-3.194875
-3.414995
-3.511434
-2.698270
-0.447588
-0.793894
-2.968173
-5.614946
-6.917822
-6.034520
-3.707124
-0.457914
0.665549
-0.242801
1.779306
2.708636
3.318588
6.677389
7.375327
1.711051
-1.747945
-1.836556
-2.472182
-3.132230
-2.809406
-2.604940
-6.681715
-8.548515
-8.795876
-8.682526
-4.239403
0.065010
1.431764
4.816241
6.786057
5.465646
4.562306
2.271234
0.613596
-1.823388
-4.328945
-4.207768
-4.596971
-4.668673
-2.575176
-1.355899
-1.790817
-1.719426
-1.541575
-3.143164
-2.973767
-0.292237
1.863571
5.443119
9.443182
13.675578
15.814478
13.095376
10.538781
7.324954
1.387015
-2.939940
-1.964895
1.498174
4.625896
8.083328
9.032072
8.325682
8.771561
10.493703
11.838852
9.309811
3.474261
0.129552
-0.857077
-2.413891
-0.337928
3.018055
3.109173
1.686686
0.896068
0.728865
0.480251
0.189054
0.321190
0.727929
1.981961
2.920999
2.579703
3.972445
4.869525
4.299341
2.384635
1.535464
1.902751
2.758186
4.155625
6.206539
8.108409
8.308492
9.543111
8.234911
7.782459
8.587482
9.514621
10.763330
9.553762
8.603142
8.516410
8.171982
7.025664
5.026103
2.702154
1.269021
0.464000
0.739856
0.360047
-0.363877
-0.323171
-0.543917
-1.044276
-1.086233
-1.611328
-1.550270
-1.025486
-0.459057
1.243045
1.621604
1.476632
1.609081
2.009871
2.143573
2.078759
1.507635
0.266129
-1.553076
-2.070970
-2.189640
-2.398801
-0.520414
0.225117
0.494398
3.227592
5.750059
6.567607
7.359480
6.699118
4.465973
2.547822
0.423641
-2.415698
-2.833394
-1.868368
-0.524158
1.603782
1.512979
0.773086
0.890506
0.972543
1.756901
2.504311
2.663688
2.393782
0.822878
-1.835793
-3.618364
-3.973124
-4.305026
-4.419626
-4.097741
-3.641843
-4.491013
-3.641527
-2.015200
-3.351893
-4.504160
-4.867688
-5.135714
-3.056933
-0.256419
-0.171250
-0.559514
-0.281465
0.215765
2.241316
4.384912
4.418416
3.968156
2.870997
1.846794
1.932589
1.785112
-0.187834
-1.639128
-1.011641
-0.681302
1.994592
6.877330
8.603229
7.902789
8.443542
7.392724
5.439191
4.116902
2.470536
1.241242
1.862779
5.173987
7.607215
5.493367
2.747337
1.326416
0.679205
0.471610
-1.171625
-3.025899
-5.079942
-5.586251
-5.097162
-5.010741
-5.816388
-4.935591
-2.984561
-2.602558
-2.015464
-1.404886
-0.889808
-1.002216
-2.617583
-4.510058
-5.164157
-4.695734
-3.157079
-2.221799
-2.769752
-3.152692
-1.714234
-0.104189
1.187731
4.440386
8.589493
11.170825
13.582762
14.473580
13.128432
12.639972
12.669092
11.220617
9.215107
6.641917
2.744557
-0.105114
-3.297649
-6.515546
-8.078935
-10.072546
-12.260290
-13.351187
-15.597483
-17.894505
-17.590781
-16.489236
-15.668557
-13.496780
-10.951456
-8.118064
-4.491548
-1.145585
3.824513
10.284420
16.266824
19.754002
19.587112
19.069532
19.320339
17.345828
15.775236
14.701561
12.926818
11.784257
10.975791
12.299962
14.209973
16.442494
