EVENT_NAME: 202302060117
EVENT_ID: 13194
EVENT_DATE_YYYYMMDD: 2023/02/06
EVENT_TIME_HHMMSS: 01:17:32.00000
EVENT_LATITUDE_DEGREE: 37.288
EVENT_LONGITUDE_DEGREE: 37.043
EVENT_DEPTH_KM: 8.6
HYPOCENTER_REFERENCE: AFAD
MAGNITUDE_W: 7.7
MAGNITUDE_W_REFERENCE: AFAD
MAGNITUDE_L: 
MAGNITUDE_L_REFERENCE: 
FOCAL_MECHANISM: 
NETWORK: TK
STATION_CODE: 2309
STATION_NAME: 
STATION_LATITUDE_DEGREE: 38.79913
STATION_LONGITUDE_DEGREE: 38.72728
STATION_ELEVATION_M: 751.0
LOCATION: Kahramanmaras_Pazarck_Turkiye
SENSOR_DEPTH_M: 
VS30_M/S: 860
SITE_CLASSIFICATION_EC8: A
MORPHOLOGIC_CLASSIFICATION: 
EPICENTRAL_DISTANCE_KM: 223.57
EARTHQUAKE_BACKAZIMUTH_DEGREE: 
DATE_TIME_FIRST_SAMPLE_YYYYMMDD_HHMMSS: 2023/02/06 01:17:50.5474540
DATE_TIME_FIRST_SAMPLE_PRECISION: millisecond
SAMPLING_INTERVAL_S: 0.01
NDATA: 14501
DURATION_S: 
STREAM: HNE
UNITS: cm/s^2
INSTRUMENT: sensor = CMG-5T/GURALP | digitizer = 
INSTRUMENT_ANALOG/DIGITAL: 
INSTRUMENTAL_FREQUENCY_HZ: 
INSTRUMENTAL_DAMPING: 
FULL_SCALE_G: 
N_BIT_DIGITAL_CONVERTER: 
PGA_CM/S^2: 35.339
TIME_PGA_S: 
BASELINE_CORRECTION: BASELINE REMOVED
FILTER_TYPE: BUTTERWORTH
FILTER_ORDER: 
LOW_CUT_FREQUENCY_HZ: 
HIGH_CUT_FREQUENCY_HZ: 
LATE/NORMAL_TRIGGERED: 
DATABASE_VERSION: 
HEADER_FORMAT: DYNA 1.2
DATA_TYPE: Acceleration
PROCESSING: Automatic Paolucci et al., 2011
DATA_TIMESTAMP_YYYYMMDD_HHMMSS: 
DATA_LICENSE: U (unknown license)
DATA_CITATION: Turkish Accelerometric Archive v 1.0 - Disaster And Emergency Management Presidency, Earthquake Department
DATA_CREATOR: AFAD
ORIGINAL_DATA_MEDIATOR_CITATION: : AFAD - Disaster And Emergency Management Presidency
ORIGINAL_DATA_MEDIATOR: AFAD PROCESS SERVICE
ORIGINAL_DATA_CREATOR_CITATION: AFAD PROCESS SERVICE
ORIGINAL_DATA_CREATOR: network: TK
USER1: GuestUser
USER2: 
USER3: 
USER4: 
USER5: 
[...]
-1.580851
-1.501041
0.725713
-1.237758
-4.073645
-3.136097
1.954370
7.236872
8.240777
6.078848
2.961024
0.478018
0.585349
3.213604
6.018299
8.237102
8.783852
6.679718
3.048168
-1.501665
-4.077631
-2.462149
0.145617
5.070041
9.050494
7.123106
4.148697
1.104874
-1.155518
-1.745080
1.890443
4.646518
2.949695
0.181081
-0.474531
-0.919148
-2.105610
-2.489987
1.137586
7.775650
10.693181
9.211633
6.342721
7.713572
10.080683
9.499684
5.196316
-0.069369
-2.593657
-2.005626
-3.478918
-5.776310
-4.784638
0.474319
2.837149
-0.580960
-5.092264
-4.884634
-1.383658
0.888047
1.577600
0.149566
-0.340309
-0.328078
-1.424943
-4.377642
-7.426052
-7.247472
-3.061223
5.412187
8.982271
3.930638
-1.377858
0.053845
4.764522
5.765369
3.905866
3.994850
8.195777
9.581306
6.205090
4.285958
6.466538
6.666829
-0.620427
-4.455938
-1.954585
5.449481
6.417607
4.333044
1.320411
1.081283
0.901173
-1.717604
-2.561276
-2.522747
-0.733271
-0.695354
0.219566
2.694314
4.512840
2.745380
1.918832
4.118065
5.696240
5.781249
4.089624
0.639102
-2.971043
-4.390821
-0.365111
3.721757
4.784678
1.361982
-0.009787
2.599814
6.092534
5.596850
3.862415
1.207861
1.217034
2.420924
2.513271
-0.125688
-4.253227
-1.025931
4.529946
3.132796
-1.111860
-2.564358
-1.988253
0.203030
2.615398
3.973100
6.479345
5.457703
1.052508
-3.320580
-3.210496
2.510202
5.165366
5.612734
9.249787
9.375465
3.263968
-0.231200
0.887069
3.150212
5.798343
5.505091
2.136826
1.875375
2.427324
0.013120
-5.912152
-8.495152
-7.898558
-8.707982
-10.176381
-8.941606
-3.001352
3.388718
2.470433
-4.705516
-6.322222
1.635321
8.856525
6.608976
-0.022056
-4.429698
-2.132919
1.259503
2.219679
1.293750
0.500227
2.700377
2.537697
-1.345823
-6.449440
-7.232872
-3.461578
1.090700
3.693880
4.638156
4.116785
1.375081
-3.000147
-6.839021
-5.536056
2.634011
8.257162
6.982022
-0.736090
-9.201245
-8.900349
-4.113531
0.006057
0.897125
0.332638
-2.431694
-6.958288
-10.530820
-11.273888
-8.729725
-6.881232
-4.265515
0.121638
2.953854
3.829633
3.908220
4.847602
7.554139
8.146452
4.536919
0.253122
-0.995415
1.770750
2.072869
0.808126
5.114550
10.877752
10.010229
2.407399
-2.309090
-4.932759
-4.925421
0.698342
4.558926
5.139007
1.639864
-1.585292
-3.581177
-1.404573
1.359758
4.298389
8.039409
6.417505
3.595378
2.133401
2.052060
1.062832
-0.708603
-2.123183
0.324350
-0.007431
-3.822149
-6.280080
-6.895022
-3.219746
0.853361
-0.008047
-1.641878
0.561636
3.709426
3.245238
0.311193
-2.449470
-0.993304
2.529995
0.942033
-1.767258
-2.109436
-1.185343
-1.599993
-1.547092
-0.200399
1.456976
2.760248
4.211521
7.608835
9.062249
7.593544
4.487952
3.911539
7.679775
12.217069
12.891945
8.515188
3.724698
0.450922
-1.569426
-0.679887
-0.825137
-3.520056
-5.329409
-4.322753
-0.801900
3.189867
4.700158
3.447646
2.543733
0.479658
-1.426019
-2.267551
-0.409884
1.992087
2.893857
3.548245
7.542153
12.632008
9.901313
2.648305
-0.238648
4.634709
12.018898
15.472477
13.859746
7.756810
2.607325
1.671610
1.085412
0.432246
1.872511
3.608474
3.773294
1.008350
-1.292406
-0.255477
1.537363
4.193444
5.602213
4.184881
1.089991
-1.179575
-0.271689
2.034570
5.537993
9.126425
8.003262
1.495156
-4.278750
-7.065405
-6.733931
-2.520161
0.135921
0.394006
-1.116286
-3.399306
-5.848065
-5.266455
0.316026
5.601587
6.527821
3.078521
-0.175073
0.062218
3.711196
8.312095
10.248350
8.765273
7.119822
3.539645
-1.861505
-5.831868
-3.749752
1.797869
4.192195
5.723585
7.769924
8.889416
8.122803
4.468625
0.349954
-0.758532
1.357221
4.147544
7.225920
8.862501
8.393726
5.911943
4.368014
3.129874
0.591826
-1.969463
-3.077948
-1.023353
0.878653
2.492300
0.932165
-2.956859
-4.805660
-2.437325
0.829111
1.969091
1.176486
-1.367679
-2.158449
2.969324
7.927384
7.027753
1.512544
-2.050509
-2.368225
-2.912530
-4.961927
-4.367474
1.770014
8.407161
9.640712
4.286348
-0.649391
-2.530605
-2.626317
-2.509507
-2.832726
-2.110759
-0.320978
2.011579
3.942635
4.339854
5.408280
7.272368
7.557975
3.397104
0.128221
1.314987
4.515372
4.568885
2.371791
0.279277
-1.459134
-3.754692
-4.972344
-3.344630
-0.465934
2.130824
1.423228
-3.100308
-5.979311
-3.467867
-1.162220
-1.261296
-2.029744
-2.220251
-2.285385
-4.050093
-10.148748
-15.648973
-16.251990
-13.945119
-12.546441
-12.726857
-9.776607
-5.379058
-2.123935
-0.295624
-1.337754
-2.867922
-4.772987
-5.987276
-7.805497
-9.475105
-8.775155
-7.199426
-7.327552
-7.000970
-5.024046
-3.359637
-4.232054
-4.413082
-2.223328
-0.817006
-0.339670
-1.167441
-1.629795
1.052891
5.519242
7.388529
5.852245
2.578163
0.804892
-0.171798
-0.352826
2.899238
7.203216
8.507099
7.461912
5.726254
3.175668
-1.084583
-3.877660
-2.727894
-0.820384
0.565451
1.373038
0.834238
0.910073
0.252014
-2.477764
-7.319014
-12.012263
-12.141001
-7.074385
-1.251860
0.771851
2.137809
1.273954
-1.767117
-3.818044
-4.580070
-5.331700
-3.383825
0.695704
3.184213
3.371966
0.554427
-3.401259
-4.450727
-1.831340
0.450762
0.871527
0.020515
-2.433441
-5.270551
-9.245807
-14.767744
-18.432319
-16.865151
-12.362411
-8.990171
-9.038793
-12.807947
-16.563953
-18.781534
-17.769680
-14.290414
-9.757706
-6.364062
-5.170263
-6.846292
-10.425858
-12.573720
-12.121153
-10.636549
-9.167845
-7.071663
-6.185182
-7.883840
-10.291928
-13.666309
-14.512428
-12.919880
-10.418222
-10.591910
-12.667606
-15.184861
-17.518337
-18.092303
-17.079837
-15.764945
-15.695226
-15.194344
-12.271003
-8.892343
-6.178467
-5.558328
-7.408045
-8.959007
-9.530833
-7.689373
-4.225397
-0.711272
-0.358393
-0.721059
0.965366
3.410148
5.537826
6.506565
5.759216
4.150766
3.479864
3.580162
3.996340
6.775960
10.220060
13.296295
14.908108
15.826086
16.052369
15.102588
12.914056
8.958982
4.979444
0.875451
-2.015478
-4.393599
-5.117096
-4.379840
-4.645877
-6.952443
-9.863554
-12.079912
-9.857745
-4.536408
-0.390828
1.322506
-0.192984
-1.350396
-2.113034
-3.654517
-7.168949
-11.197413
-13.326010
-12.704647
-10.518258
-8.935189
-7.353038
-5.338196
-3.927287
-4.067033
-4.745273
-1.615525
5.382759
12.511309
16.959313
14.400471
8.370008
2.490910
-0.926281
-1.302097
0.998352
4.813068
6.266788
6.689693
4.914282
3.959303
3.970005
4.476085
6.972239
10.996114
14.005993
13.392580
12.311921
12.617098
11.474364
9.208774
9.925236
12.098477
14.138700
14.709301
12.076153
6.743194
1.540501
-0.644973
-0.592684
1.220949
2.596387
1.405950
0.128058
0.362903
-0.444992
-2.295016
-4.156353
-5.458403
-5.025407
-3.705928
-3.751797
-3.702872
-2.570230
-0.011695
1.519083
0.377572
-2.045499
-3.412682
-5.243135
-5.322029
-4.056982
-4.007750
-4.489980
-6.469658
-8.775307
-11.430473
-12.287294
-10.754375
-11.265654
-13.790248
-14.280734
-13.204358
-11.687034
-10.424433
-9.062450
-9.228188
-9.594218
-8.299508
-7.750924
-8.622117
-9.317482
-7.736860
-4.952041
-3.027406
-2.618567
-4.526385
-6.828059
-6.829894
-5.962066
-4.156995
-2.870542
0.036287
4.125907
6.315049
3.902068
0.904419
0.608415
2.879202
5.395844
4.402641
2.681660
-1.051105
-3.085214
-5.037676
-7.274829
-7.686727
-9.129440
-10.793238
-11.719167
-10.329663
-7.496530
-4.767976
-3.417613
-2.970856
-3.019783
-5.078355
-6.867220
-7.238143
-4.450878
-3.586719
-5.469462
-7.467487
-8.846290
-8.258870
-6.632686
-5.622666
-2.034234
2.096973
6.338876
10.345321
10.438892
9.041742
8.203574
7.838155
8.176969
4.496799
-0.634339
-2.237591
0.548451
6.220528
11.021719
11.789248
11.584369
12.930451
14.806159
12.827093
9.460968
8.808414
12.216125
17.137490
17.893400
16.830783
15.890481
16.219509
15.623526
14.762424
14.425444
13.635590
13.030433
13.263138
14.288753
14.183867
11.110688
5.568569
-0.756063
-4.893693
-6.013187
-4.731320
-4.960051
-6.341912
-8.514237
-8.889441
-6.019918
-2.235782
2.542475
6.216528
9.304077
6.949502
6.025102
8.440833
7.767180
10.243763
11.379463
12.619436
11.805425
9.456966
3.164747
-3.267217
-8.734112
-10.129121
-10.042890
-7.501479
-10.185694
-10.001916
-9.337437
-7.841213
-6.825689
-8.359221
-5.073826
-3.461401
-1.337087
-2.849519
-0.059196
2.237583
4.703158
6.915235
6.960491
4.695817
2.282531
-0.592497
-0.051557
2.015881
2.677607
4.032557
8.265286
15.506061
24.161109
27.830269
26.989654
22.005295
20.311530
17.376261
13.324252
12.392207
12.470488
15.869637
19.254107
23.327520
21.808972
20.518848
18.828752
17.393073
16.092246
16.023137
17.534039
15.198117
10.885576
6.862922
4.273807
3.069610
3.414539
7.108774
7.446364
5.046532
-1.737089
-9.845694
-13.768660
-13.702305
-10.140477
-7.476750
-2.775858
1.409474
3.766494
-0.477245
-6.032207
-10.959384
-15.339199
-18.091300
-22.880260
-29.360845
-34.214021
-31.948126
-25.516163
-15.755688
-6.359714
0.387517
1.836650
-0.172689
-7.857471
-15.877702
-25.261447
-29.420176
-30.378519
-29.826571
-28.670384
-28.650203
-24.587186
-20.444359
-11.793592
-5.426762
-2.855996
-2.256039
-2.570696
-7.443137
-15.846522
-23.671966
-27.560684
-32.212957
-33.881342
-30.580046
-22.404781
-10.919045
-5.309960
-6.009606
-11.623279
-14.645391
-10.390645
-8.944570
-8.402101
-7.722639
-3.513762
1.835708
5.648589
5.911567
0.813148
0.443143
4.191503
8.502514
12.006242
15.266562
13.959009
10.207590
7.388215
2.565007
-1.044832
0.133984
6.731990
11.648157
16.504695
19.556162
14.849459
7.564344
0.886525
-1.079698
-0.585544
3.695806
8.472227
7.489727
4.643443
2.239330
3.357294
7.127059
10.746069
12.135879
10.384320
6.711489
5.774245
3.116633
-1.594657
-7.327282
-8.276757
-3.490550
2.480283
4.523258
1.823447
-2.490012
-6.706841
-5.604473
-2.889986
4.497262
7.358528
8.597889
7.761250
8.028203
6.527696
1.553428
-4.730535
-10.379679
-10.882091
-8.121124
-5.439356
-8.286251
-11.762766
-9.162949
-3.049619
-0.240031
-0.220767
0.764484
8.029416
15.824891
18.455592
16.971904
12.077446
8.834249
3.628498
-0.468157
1.476354
3.910433
1.449749
-10.627384
-21.089645
-22.239412
-18.289232
-16.821752
-20.238638
-19.929486
-16.423005
-9.314332
-6.219443
-11.091272
-9.996549
-10.060154
-12.498209
-15.513900
-10.973241
1.217644
10.687925
12.071313
5.939939
-5.140016
-12.416875
-13.420169
-13.721677
-14.362306
-14.895602
-10.256786
-11.690630
-21.259989
-26.211017
-23.450050
-17.079245
-10.403874
-2.967701
3.308921
5.595916
3.541320
-4.574012
-14.755866
-22.398142
-22.286836
-15.134740
-11.487903
-7.084543
-2.978105
-0.252609
0.275181
-4.011062
-10.033881
-6.708427
-0.891100
4.016505
3.469754
-3.878048
-6.452791
-13.986819
-16.088812
-15.901976
-12.046284
-10.127460
-11.879325
-11.990327
-18.333613
-23.277302
-25.339543
-23.197798
-20.707454
-16.778068
-5.969349
-0.018392
3.715901
-1.812151
-5.977302
-9.007059
-7.043283
-4.167645
-0.174349
3.563919
2.389384
-2.717292
-9.028469
-3.097694
-7.180894
-3.748109
-1.610033
-0.865438
-4.719908
-7.236245
-8.053008
-10.894093
-9.637302
-10.963815
-9.539757
-9.603973
-13.507063
-12.024293
-1.835102
7.801222
12.574280
2.867011
-8.928490
-18.318962
-14.994731
-9.206454
-1.551336
7.041331
18.556728
17.186488
11.036461
0.776326
-9.700002
-12.770735
-8.071678
-0.943740
-1.440953
0.226513
2.649278
4.877561
7.269746
3.809439
5.692180
15.455713
22.342384
27.392792
24.322365
13.661035
2.574047
-1.127529
-1.288068
-3.587602
-0.199767
1.673189
2.354180
4.807524
8.415526
7.192370
5.756385
11.890815
20.526598
26.325884
26.892816
26.991279
19.072875
10.855104
8.642415
7.791403
11.839436
12.445509
11.591440
16.833884
25.317996
28.066426
17.916986
9.538064
1.778976
3.804521
2.973080
-3.222203
-10.418334
-15.123202
-15.550696
-16.872316
-19.324744
-19.757436
-13.909530
-10.481637
-4.168932
2.078640
5.527327
12.894698
-1.741277
-12.360102
-19.559291
-15.436646
-5.555690
-10.025101
-8.359164
-6.498745
-6.703930
-7.785200
-12.260116
-10.746767
-3.577853
4.703521
15.955940
19.884715
22.198924
17.832870
14.657863
12.271792
8.883650
10.124235
7.522277
8.931045
9.886635
7.210370
5.376859
12.056817
20.007633
24.960495
20.183154
10.049310
7.254399
2.983139
2.689886
-0.222142
-0.893349
4.931011
13.156426
22.667683
23.576792
13.805613
5.748993
-0.082096
5.131910
6.228162
0.124615
-10.185975
-8.959457
-9.350562
-8.677827
-13.190048
-17.692790
-19.368514
-21.812991
-9.474410
-1.289360
2.491719
-4.971059
-7.579745
-10.401871
-7.144609
-5.104080
-9.532516
-13.239595
-7.560790
5.863341
19.137330
18.062176
7.943315
-0.497070
-0.524286
-0.558841
-10.141348
-13.145725
-10.466403
-1.869455
2.429019
-3.519493
-11.903920
-18.221213
-18.405299
-16.879107
-6.032776
0.118779
-1.678955
-5.698856
-10.404337
-12.395940
-6.158153
1.434890
12.409347
15.312506
11.032989
9.538293
1.536408
0.146903
-4.639917
-5.986306
-13.145131
-8.047325
-0.429513
4.557598
3.852754
-1.286641
0.751441
3.997695
11.383414
17.001978
13.041400
1.986825
-8.515495
-12.667803
-2.119616
6.323214
3.742355
4.273510
7.460441
8.742307
0.689356
-1.574705
-7.398150
-1.196140
2.725908
2.868099
1.915871
2.824369
7.076058
4.942262
2.757094
6.859863
17.548101
19.199972
21.309915
12.892463
2.847297
-0.316089
-2.142567
-4.546068
5.144075
8.340791
18.719571
22.131257
25.524902
21.737706
10.953142
3.636225
0.035560
5.910681
17.649305
30.195822
35.338885
27.620772
12.950550
3.220041
-1.003516
2.203597
8.250572
12.930058
16.915404
17.865796
15.158952
1.908507
-3.221714
-5.078159
1.984952
9.776146
14.142505
15.143046
8.733404
5.117450
-0.498364
-3.680404
-7.630891
-0.496225
-3.997203
-9.724324
-10.142950
-8.387111
-5.497406
-1.622144
1.934486
-2.231277
-12.582843
-15.472243
-12.530249
-3.957458
-0.058039
2.236600
-3.253840
-7.648945
-12.540650
-16.069455
-11.865164
-9.817602
-8.716763
-13.614278
-13.742405
-6.583276
-1.786060
-1.815417
-0.351606
-3.262411
2.627082
10.366598
13.532430
-0.445487
-6.378403
-5.498344
0.188717
2.725541
3.860017
0.042242
-5.243625
-4.785554
-6.414492
1.404835
2.243307
0.943398
-1.191009
5.621355
7.827621
11.373548
10.335089
8.026076
10.365360
15.368372
12.636147
6.583667
4.104636
8.297612
6.784874
3.517519
-2.051815
-5.243946
-9.567801
-15.877144
-21.039473
-25.089341
-23.922146
-22.018305
-22.102092
-21.753799
-16.388122
-12.251105
-8.152923
-8.564515
-8.078312
-11.779581
-9.408189
-12.511641
-3.538267
5.334503
0.396623
-5.383093
-4.083491
-3.337979
0.099699
2.314833
-0.339109
-7.100102
-8.036428
-3.861188
-6.531031
-7.674682
-7.476226
-0.749177
7.219987
15.559766
19.495574
17.252918
11.550566
14.350980
13.603631
10.186134
10.150968
10.948159
9.713994
5.762895
7.745935
6.586995
10.320676
11.429466
12.297906
13.969347
11.676236
9.692582
4.369715
2.212373
3.912559
2.294017
2.771965
2.343554
3.926928
3.546526
3.759354
6.070200
3.378034
1.138741
3.293635
7.836740
11.619959
13.463866
14.903825
12.566680
5.237225
1.099901
1.009386
6.474751
12.472493
16.200671
11.231295
5.925857
0.487706
-1.714586
1.536867
6.019425
8.935428
7.441342
3.180479
-3.205311
-2.521873
-3.755121
-6.705984
-4.426634
-3.754205
0.725601
0.012195
-1.768414
0.209427
5.408755
2.665217
-4.419913
-8.004676
-15.087359
-15.218544
-9.357183
-6.184318
-9.724742
-7.781149
-5.484064
-9.530874
-9.798135
-7.685746
-6.117049
-3.828832
-4.093034
-12.044463
-18.563577
-15.384597
-6.372693
-4.117806
-3.992128
-6.994670
-8.893314
-11.751523
-12.763379
-9.061805
-9.060277
-7.114543
-6.021960
-3.393400
-3.149075
-6.505414
-8.408339
-8.893015
-7.057977
-2.431392
2.331881
3.819543
2.984433
3.636069
3.600596
1.242657
0.514573
4.047963
6.316916
5.955167
8.733259
9.099593
4.814573
1.074468
-4.015083
-8.406212
-8.673778
-3.229819
4.940553
9.457666
5.193440
-2.818230
-8.054254
-6.506963
-6.433268
-5.958379
-4.930317
-2.694696
-3.070205
-5.548930
-9.979812
-12.239593
-4.874974
2.737334
6.363072
8.098424
8.390145
5.824576
-0.870367
-5.864512
-5.989886
-2.574530
0.265025
2.868511
4.604168
8.248559
9.015171
5.420928
4.325591
2.427253
5.605928
4.355862
2.593294
1.792738
5.757596
6.625119
6.576498
6.950477
10.186334
13.518515
13.031087
11.028169
5.894890
2.832719
-0.750210
1.538314
8.021955
10.335247
8.835658
5.381771
2.809780
-1.067318
-3.317619
-4.377790
-7.435985
-10.750431
-11.594715
-10.102160
-9.767934
-8.296173
-10.096964
-12.510862
-14.954728
-16.096850
-14.560261
-12.957928
-11.727129
-10.882235
-6.171252
-0.693962
2.765733
0.908676
-2.276727
-5.182028
-8.762511
-9.239542
-4.116662
2.718942
4.265928
3.636613
0.558847
-1.646197
-3.071785
-7.376682
-6.585607
-4.031353
-3.358618
-2.123843
-1.468233
-0.513255
1.032507
0.492484
-1.837628
-0.935858
1.651727
1.286003
-0.793974
-2.981588
-4.793388
-2.505782
3.689194
7.357437
7.614911
9.794573
10.554458
5.585694
1.530932
1.772505
5.556947
8.459189
6.080762
4.013323
0.965830
4.994904
8.359193
4.526128
2.599352
4.672600
9.090331
9.773768
8.360717
7.723147
7.121048
8.466824
8.804414
7.319503
4.996424
4.703172
6.373390
7.880317
9.540138
9.579278
8.329519
4.396767
0.597951
-0.400451
1.645888
5.667011
5.409230
3.169326
-0.732541
-2.076178
-2.994157
-5.409278
-4.542367
-2.267299
2.869954
5.797270
5.247155
0.338020
-1.134354
-1.172884
-1.825439
-6.575258
-12.987958
-12.762592
-4.486722
3.859785
5.574037
2.930797
-1.791196
-1.543508
-1.005014
-0.049424
0.462465
2.369364
4.445059
5.969416
6.007027
4.244765
2.323798
2.549164
4.777141
6.930812
5.865748
2.147966
-1.116637
1.477676
5.102496
4.215402
0.225774
-3.268477
-1.709871
-1.159452
-2.985012
-4.572057
-2.251732
1.235178
3.585165
1.339451
-3.789547
-7.140077
-5.830995
-3.904832
-5.099855
-6.500369
-5.350909
-0.507520
4.234348
4.442284
-1.920878
-4.265974
-1.203193
0.386908
-1.175368
-4.198092
-3.732070
1.634219
7.629821
10.247067
9.441924
7.698009
9.133382
10.736632
11.353714
10.250732
9.282604
8.298880
7.678434
10.295375
9.170071
7.109359
3.088234
1.383155
1.364807
1.445229
3.228894
0.285370
-0.781528
-1.526125
-1.273238
-2.311392
-2.565809
0.952597
5.442800
7.291294
2.354943
-1.809597
-6.089419
-9.412122
-13.062630
-15.692721
-15.849897
-13.091070
-10.808051
-13.253140
-14.096506
-14.202616
-11.272242
-8.451340
-5.874763
-4.123205
-2.269819
-0.828026
-3.886527
-8.852233
-10.671678
-6.741068
-4.721027
-3.580436
-4.617061
-3.648628
1.796248
8.158797
12.142308
10.181283
8.192432
8.045958
7.228890
5.562645
6.034783
7.924557
9.696603
6.001755
-4.601475
-14.478457
-15.919641
-7.591481
4.495742
12.214158
17.505223
19.473891
17.835168
12.638285
7.540783
5.173365
4.656887
8.319625
8.053894
3.898528
-3.477712
-9.022888
-11.367067
-11.230074
-6.444173
1.856466
12.821749
21.840686
24.063465
16.711687
9.491094
5.875445
4.233970
6.452162
10.568691
14.492267
14.146725
7.814448
-1.894655
-10.202635
-11.715067
-5.461073
0.256261
7.805270
16.832158
19.841120
17.114705
10.726163
5.904789
4.556565
5.687066
5.258655
0.908502
-1.876624
-6.042693
-10.099595
-10.881192
-5.870536
