EVENT_NAME: 202302060117
EVENT_ID: 13194
EVENT_DATE_YYYYMMDD: 2023/02/06
EVENT_TIME_HHMMSS: 01:17:32.00000
EVENT_LATITUDE_DEGREE: 37.288
EVENT_LONGITUDE_DEGREE: 37.043
EVENT_DEPTH_KM: 8.6
HYPOCENTER_REFERENCE: AFAD
MAGNITUDE_W: 7.7
MAGNITUDE_W_REFERENCE: AFAD
MAGNITUDE_L: 
MAGNITUDE_L_REFERENCE: 
FOCAL_MECHANISM: 
NETWORK: TK
STATION_CODE: 2902
STATION_NAME: 
STATION_LATITUDE_DEGREE: 40.12439
STATION_LONGITUDE_DEGREE: 39.43658
STATION_ELEVATION_M: 1416.0
LOCATION: Kahramanmaras_Pazarck_Turkiye
SENSOR_DEPTH_M: 
VS30_M/S: 594
SITE_CLASSIFICATION_EC8: B
MORPHOLOGIC_CLASSIFICATION: 
EPICENTRAL_DISTANCE_KM: 377.60
EARTHQUAKE_BACKAZIMUTH_DEGREE: 
DATE_TIME_FIRST_SAMPLE_YYYYMMDD_HHMMSS: 2023/02/06 01:18:00.1894990
DATE_TIME_FIRST_SAMPLE_PRECISION: millisecond
SAMPLING_INTERVAL_S: 0.01
NDATA: 21001
DURATION_S: 
STREAM: HNN
UNITS: cm/s^2
INSTRUMENT: sensor = CMG-5T/GURALP | digitizer = 
INSTRUMENT_ANALOG/DIGITAL: 
INSTRUMENTAL_FREQUENCY_HZ: 
INSTRUMENTAL_DAMPING: 
FULL_SCALE_G: 
N_BIT_DIGITAL_CONVERTER: 
PGA_CM/S^2: 11.666
TIME_PGA_S: 
BASELINE_CORRECTION: BASELINE REMOVED
FILTER_TYPE: BUTTERWORTH
FILTER_ORDER: 
LOW_CUT_FREQUENCY_HZ: 
HIGH_CUT_FREQUENCY_HZ: 
LATE/NORMAL_TRIGGERED: 
DATABASE_VERSION: 
HEADER_FORMAT: DYNA 1.2
DATA_TYPE: Acceleration
PROCESSING: Automatic Paolucci et al., 2011
DATA_TIMESTAMP_YYYYMMDD_HHMMSS: 
DATA_LICENSE: U (unknown license)
DATA_CITATION: Turkish Accelerometric Archive v 1.0 - Disaster And Emergency Management Presidency, Earthquake Department
DATA_CREATOR: AFAD
ORIGINAL_DATA_MEDIATOR_CITATION: : AFAD - Disaster And Emergency Management Presidency
ORIGINAL_DATA_MEDIATOR: AFAD PROCESS SERVICE
ORIGINAL_DATA_CREATOR_CITATION: AFAD PROCESS SERVICE
ORIGINAL_DATA_CREATOR: network: TK
USER1: GuestUser
USER2: 
USER3: 
USER4: 
USER5: 
[...]
-3.155915
-2.897457
-2.360708
-1.874013
-1.772015
-1.688591
-1.216692
-0.606908
-0.434707
-0.651925
-0.559057
-0.009401
0.495868
0.615810
0.661457
1.088968
1.574718
1.676086
1.744400
2.034968
2.192373
2.123115
2.159947
2.207168
2.159317
2.162780
2.211890
2.215668
2.149558
2.065189
2.064560
2.080300
1.822471
1.473978
1.343017
1.238815
1.105651
1.139651
1.114781
0.963357
0.911099
1.017819
1.293907
1.335776
1.074170
1.030726
1.165779
1.121391
1.006486
1.122650
1.275018
1.282258
1.190334
1.187186
1.494124
1.668214
1.497272
1.419515
1.487198
1.566215
1.757304
1.844821
1.721731
1.694342
1.878820
2.048188
2.051021
2.095094
2.236128
2.202129
2.083446
2.118075
2.103593
2.126574
2.451142
2.609806
2.317034
2.081242
2.104538
2.236128
2.353551
2.249979
2.007261
1.860560
1.777136
1.804839
1.962558
1.876615
1.459179
1.092111
0.895041
0.751173
0.452734
0.079056
-0.020424
-0.062923
-0.445101
-0.985943
-1.302011
-1.529618
-1.804131
-1.916833
-1.867093
-1.942333
-2.158921
-2.106663
-1.969406
-2.297122
-2.612246
-2.293975
-1.911482
-2.058812
-2.396602
-2.455472
-2.115478
-1.804132
-1.729523
-1.450287
-1.155941
-1.209144
-1.381344
-1.341363
-1.099590
-0.964537
-1.096442
-1.209773
-0.892446
-0.580785
-0.690969
-0.729690
-0.464306
-0.191052
-0.192311
-0.312569
-0.233237
0.059850
0.293439
0.288716
0.288401
0.429121
0.679709
0.796503
0.584007
0.436991
0.616747
0.799966
0.619265
0.380955
0.574562
0.669634
0.123756
-0.404494
-0.355069
-0.278255
-0.650674
-1.024668
-0.920781
-0.809653
-1.200646
-1.587231
-1.529307
-1.388587
-1.728581
-2.244867
-2.374569
-2.410457
-2.573528
-2.672693
-2.776895
-2.992224
-3.124444
-3.215424
-3.468215
-3.712822
-3.712507
-3.532122
-3.321829
-3.216369
-3.049520
-2.813413
-2.887708
-3.118148
-3.137667
-3.000410
-2.887394
-2.887394
-2.884875
-2.709527
-2.588011
-2.737230
-2.923912
-2.940597
-2.892116
-2.873543
-2.780989
-2.548030
-2.379922
-2.317590
-2.286739
-2.195130
-1.854821
-1.540327
-1.487439
-1.478625
-1.430144
-1.315554
-1.022152
-0.750472
-0.699473
-0.645326
-0.347832
-0.114873
-0.097873
0.058587
0.292175
0.443913
0.538040
0.595965
0.739833
0.930292
1.122326
1.312155
1.355914
1.164825
1.024420
1.223694
1.433986
1.327266
1.117288
1.174583
1.393690
1.364728
1.114140
0.993568
1.063141
0.959254
0.692296
0.494596
0.330895
0.309488
0.269507
0.035604
0.023326
0.278951
0.198045
-0.187596
-0.192948
0.048511
-0.191688
-0.650995
-0.626754
-0.344371
-0.335556
-0.621403
-0.758030
-0.609755
-0.667680
-0.957934
-1.131708
-1.252910
-1.289428
-1.230244
-1.240947
-1.325316
-1.351760
-1.423222
-1.583775
-1.599515
-1.539072
-1.468240
-1.506647
-1.627848
-1.505387
-1.313984
-1.376946
-1.429519
-1.265188
-1.106840
-1.187431
-1.320280
-1.170746
-0.955732
-0.963602
-1.086063
-1.192153
-1.224579
-1.178617
-1.149339
-1.237801
-1.292892
-1.268967
-1.291948
-1.248505
-1.240005
-1.430464
-1.680423
-1.579054
-1.320281
-1.555444
-1.980750
-1.762903
-1.218913
-1.382299
-1.912752
-1.744959
-1.195303
-1.189321
-1.411262
-1.211043
-0.803366
-0.659813
-0.695701
-0.480372
-0.176896
-0.085287
0.058896
0.310743
0.600367
0.859455
0.872362
0.809400
0.984748
1.108783
0.928083
0.841510
0.998285
0.998600
0.732901
0.538979
0.447999
0.292483
0.121227
-0.028307
-0.106695
-0.042474
-0.025159
-0.209952
-0.418356
-0.389708
-0.346580
-0.578909
-0.759609
-0.677129
-0.553724
-0.579224
-0.729073
-0.744499
-0.552150
-0.446060
-0.548688
-0.585520
-0.343747
-0.149825
-0.240805
-0.263471
-0.054753
-0.004698
-0.259379
-0.441338
-0.315100
-0.102604
-0.169973
-0.437876
-0.424654
-0.153603
-0.016976
-0.038068
-0.070179
-0.050976
-0.069864
-0.176585
-0.075846
0.261000
0.387553
0.207482
0.058577
0.062040
-0.010995
-0.181307
-0.202714
-0.141956
-0.245843
-0.384989
-0.409544
-0.479117
-0.634003
-0.702631
-0.614800
-0.464006
-0.454562
-0.493284
-0.325805
-0.210270
-0.333676
-0.360434
-0.208697
-0.186660
-0.278899
-0.197049
0.091631
0.367718
0.516308
0.658916
0.925874
1.170166
1.304275
1.497252
1.655916
1.677953
1.677323
1.735248
1.907763
2.017316
2.022983
2.263497
2.655434
2.764358
2.685655
2.788913
3.024705
3.181479
3.330069
3.504158
3.624730
3.760728
3.938595
3.986445
3.942057
3.980149
3.967872
3.925687
3.904280
3.848874
3.926002
4.115831
4.081517
3.851707
3.747505
3.757894
3.772060
3.716339
3.557360
3.472676
3.570267
3.613396
3.424510
3.272143
3.360289
3.333845
3.001407
2.831725
2.990074
3.032258
2.862576
2.784503
2.822910
2.783244
2.600655
2.405158
2.356048
2.414603
2.414602
2.354159
2.369585
2.423732
2.390047
2.253420
2.143237
2.125293
2.149848
2.112385
1.951203
1.828742
1.746577
1.499767
1.175829
0.999536
0.918000
0.777595
0.610432
0.551877
0.589654
0.510952
0.239901
0.151440
0.280826
0.301918
0.218809
0.114607
0.134755
0.224475
0.219123
0.170643
0.237382
0.366454
0.347250
0.294048
0.361102
0.444841
0.468452
0.541172
0.621134
0.586820
0.559116
0.677799
0.776020
0.696373
0.583671
0.539598
0.583671
0.646948
0.646318
0.640022
0.687558
0.667410
0.510635
0.442636
0.547782
0.649151
0.628373
0.557856
0.463099
0.401711
0.381248
0.284602
0.246825
0.360156
0.468765
0.428154
0.379359
0.520708
0.655446
0.597521
0.568244
0.780425
0.982218
0.900052
0.766888
0.757129
0.798054
0.724389
0.570132
0.600039
0.724074
0.688186
0.517244
0.429098
0.443894
0.388802
0.251860
0.175362
0.111455
0.002846
-0.038394
-0.068616
-0.210280
-0.301889
-0.345648
-0.579236
-0.900971
-0.974006
-0.874842
-1.075690
-1.491238
-1.574347
-1.374129
-1.451887
-1.855472
-2.117708
-2.131245
-2.254020
-2.525071
-2.645328
-2.613847
-2.673346
-2.798010
-2.777548
-2.774085
-2.964544
-3.114079
-3.156578
-3.267705
-3.345778
-3.325630
-3.326890
-3.382296
-3.449980
-3.412203
-3.342001
-3.340742
-3.251021
-3.045766
-2.871362
-2.726550
-2.503035
-2.196412
-1.834381
-1.478962
-1.234985
-1.042322
-0.767179
-0.477240
-0.314799
-0.209338
0.000639
0.280819
0.479149
0.540537
0.544944
0.651664
0.785773
0.859123
1.029120
1.278134
1.454112
1.531869
1.627257
1.739643
1.777420
1.822123
1.941121
2.090970
2.234208
2.412704
2.632126
2.745772
2.743254
2.828567
2.981879
3.107802
3.216411
3.349890
3.514535
3.611496
3.632588
3.714124
3.892935
3.954323
3.890731
3.935119
4.073635
4.168393
4.168708
4.071746
3.999025
4.016655
3.943619
3.727660
3.697438
3.864916
3.808251
3.524923
3.378222
3.401203
3.340445
3.098671
2.835176
2.680920
2.562237
2.384370
2.161170
2.048153
1.971025
1.788751
1.657790
1.578458
1.345814
1.078227
0.953562
0.849675
0.693215
0.519756
0.321426
0.204002
0.171892
0.025191
-0.101992
-0.050049
-0.085937
-0.230435
-0.333377
-0.416802
-0.380599
-0.339988
-0.468116
-0.585539
-0.470005
-0.434116
-0.523207
-0.499912
-0.596873
-0.703908
-0.655113
-0.563503
-0.493301
-0.494245
-0.497708
-0.373674
-0.228862
-0.232954
-0.251843
-0.232639
-0.278287
-0.195807
-0.099161
-0.180067
-0.196122
0.076503
0.462773
0.457736
0.305368
0.590270
0.794267
0.569178
0.433810
0.345664
0.322997
0.590900
0.932782
1.144649
1.044539
0.779155
0.904449
1.125130
0.781044
0.339052
0.041872
-0.381231
-0.167161
0.407051
-0.068626
-0.926165
-0.871703
-0.075552
0.489216
0.239887
-0.032108
0.548085
1.054927
0.437272
-0.576728
-0.957017
-0.362343
0.906337
1.404994
0.306941
-0.625838
-0.237994
-0.688800
-2.075219
-1.406250
0.215646
-0.325826
-1.760095
-1.638264
-0.885241
-1.024387
-1.745614
-1.514545
0.001575
0.509991
-0.805280
-2.033665
-1.911834
-1.278438
-1.107497
-1.780559
-1.813299
0.310087
1.089554
-1.739004
-3.622506
-1.406251
1.362493
0.671802
-1.224607
0.405474
3.531212
3.091738
-0.224774
-1.362178
1.102461
2.507138
0.576415
-0.654803
1.050202
2.269772
0.926167
-0.939076
-0.812837
0.593414
0.485749
-0.104517
1.036350
1.899241
1.156922
0.619858
0.541470
-0.266330
-0.661415
0.135052
0.659209
0.069571
-0.114277
1.079478
1.312122
0.677782
1.129533
2.143217
2.396639
1.224920
0.287104
1.266789
2.105125
1.160698
0.832667
2.289288
3.125421
2.140698
0.588690
-0.000002
0.560043
0.634967
-0.123093
-0.426884
-0.129074
0.475044
0.796464
0.076496
-0.606955
-0.046280
1.080736
1.318102
0.032737
-0.984726
0.005978
1.042959
0.207456
-0.633399
0.277658
0.933720
-0.110816
-0.565401
0.612300
1.236566
0.321416
0.368322
1.851387
2.055698
1.195011
1.516430
2.267564
1.256713
-0.537068
-1.136465
-0.639381
-0.590271
-2.055707
-3.448422
-3.173279
-2.425922
-2.989745
-4.366090
-4.220019
-2.720269
-2.975264
-4.614789
-4.500199
-3.516106
-3.627863
-4.071429
-4.449830
-5.358998
-5.563309
-4.153595
-3.397738
-4.546476
-5.171687
-3.984228
-3.372554
-4.339017
-4.791083
-3.365628
-2.060745
-2.579550
-3.616216
-3.413479
-2.476608
-3.085763
-4.756454
-5.125411
-3.757566
-2.745140
-3.932600
-5.150910
-4.073634
-2.817547
-3.277797
-4.225058
-3.934489
-2.174392
-1.044228
-1.715401
-2.280168
-1.245077
0.172193
-0.070839
-1.563349
-1.902398
-0.919250
-0.634348
-1.458517
-1.575626
0.043436
0.967400
-0.297502
-0.740753
0.426243
0.640628
-0.118061
-0.263188
0.352893
0.949770
1.219876
1.100564
0.838328
1.129526
1.901437
1.913085
1.122915
1.324078
2.256227
2.276689
1.660293
1.626924
2.063878
1.852641
1.415372
1.319040
0.742940
0.071138
0.128118
0.417742
0.232320
-0.463408
-0.771606
-0.238950
0.274818
-0.062027
-0.962066
-1.014954
-0.296875
0.019823
0.253096
0.326762
0.308817
0.337465
0.055711
-0.000640
0.386890
0.902547
1.328168
1.516109
1.297002
1.233096
1.897028
2.412370
2.017914
1.081358
0.807474
1.765123
2.289909
1.451573
0.911361
1.411277
1.382315
0.383741
0.225392
0.864454
0.600329
0.150467
0.428128
0.194855
-0.927439
-1.318746
-0.621760
-0.658592
-1.515817
-1.565557
-1.164176
-1.274044
-1.418226
-1.128917
-1.137732
-1.816775
-1.751609
-0.964272
-1.147176
-2.174398
-2.734443
-2.583335
-2.231064
-1.867774
-1.984568
-2.446393
-2.322044
-2.109233
-2.408616
-2.694463
-2.584595
-2.176917
-1.746888
-1.565558
-1.931681
-2.491097
-2.495819
-2.354470
-2.772851
-3.725463
-4.344377
-3.866182
-3.318100
-3.541300
-4.090956
-3.880979
-2.808110
-2.184159
-2.655742
-2.935608
-1.811110
-1.213603
-2.050995
-2.357619
-1.488746
-0.476950
-0.396359
-1.138993
-1.278139
-0.597207
-0.635929
-1.524949
-1.729261
-1.088310
-0.773816
-1.033848
-1.169216
-1.167956
-1.288214
-1.506061
-2.033996
-2.520061
-2.531079
-2.193290
-2.232326
-2.679984
-2.207456
-1.302380
-1.611208
-2.364861
-1.866833
-0.591227
0.086556
0.028317
-0.184180
-0.131292
0.266627
0.732859
0.789524
0.497067
0.260645
0.414901
0.681859
0.498326
-0.061405
-0.441064
-0.076830
0.274496
-0.204328
-0.529526
-0.056998
0.682174
0.906003
0.545546
0.611341
1.091110
1.100240
0.599064
0.228219
0.115832
0.349105
1.162257
1.760708
1.386086
0.564749
0.359808
0.656044
0.535472
0.216570
0.647544
1.419770
1.571193
1.157219
0.567267
0.471880
0.799596
0.653210
0.263161
0.100720
0.471880
1.351456
1.795021
1.328789
0.660450
0.661394
1.223013
1.855150
1.869001
1.591340
1.950537
2.364196
2.517193
2.701671
3.014591
3.486489
3.826483
3.825853
3.414398
2.888037
2.837982
3.021831
2.667041
2.179402
2.332399
2.973980
3.417860
3.041663
2.456748
2.739447
3.572116
3.704336
3.006090
3.016164
4.085569
4.009386
2.491692
2.018219
2.924554
3.285010
2.224104
1.379786
2.435026
3.879999
3.802241
2.841129
2.656336
3.641373
4.206140
3.293194
2.288954
2.704502
3.643577
3.273361
1.849795
1.638244
2.793907
3.019940
1.883480
1.141160
1.808555
2.412988
1.536245
0.430006
0.541134
1.324379
1.478005
0.841147
0.638095
1.101179
1.033495
0.012884
-0.937209
-0.898488
-0.509069
-0.527958
-0.621456
-0.322388
0.267879
0.524133
0.110789
-0.484829
-0.637826
-0.474441
-1.207631
-2.498347
-2.842748
-2.761843
-3.115688
-3.419164
-3.091133
-2.821971
-3.297333
-3.882563
-4.075855
-4.093485
-3.971339
-3.358091
-2.477571
-1.932007
-1.651197
-1.568403
-1.750677
-2.133800
-2.340314
-2.262557
-2.237057
-2.209984
-2.038413
-1.964433
-2.286797
-2.801195
-3.192817
-3.034469
-2.421221
-1.993710
-1.863065
-1.805140
-1.694957
-1.776492
-2.268854
-2.661420
-2.443573
-1.589496
-0.672143
-0.446110
-0.215041
1.015862
2.222525
2.111082
1.502242
1.676331
2.109508
2.210562
2.419280
2.557166
2.448242
2.117378
1.640757
1.200340
0.620776
0.178155
0.513426
1.086064
1.206006
1.538444
1.972251
1.785254
1.370651
1.080712
0.639349
0.086545
-0.045360
0.373965
0.899381
1.288800
1.537814
1.900474
2.549610
3.256041
3.851974
4.390612
4.957898
5.198097
5.015508
4.902806
4.871955
4.586423
3.749661
2.744161
2.070785
1.128561
-0.081564
-0.953585
-1.560537
-2.150489
-2.619239
-2.725960
-2.623647
-2.746737
-3.326615
-3.674794
-3.300171
-2.796792
-2.517242
-2.371170
-2.109879
-1.776496
-1.653721
-1.532205
-1.233451
-0.787052
-0.276117
-0.081565
-0.092269
0.165874
0.580478
1.202540
2.312871
3.713456
4.864397
5.331259
4.979617
4.536681
4.588624
4.393443
3.298537
2.149799
1.692382
0.590236
-2.578001
-6.682165
-9.191192
-9.693313
-9.570222
-9.197489
-7.588815
-4.848404
-1.973569
0.404183
1.826490
2.338369
2.158928
1.190891
-0.472245
-2.204953
-3.660315
-4.953865
-5.818016
-5.355561
-3.621279
-0.853794
2.510254
5.329053
6.881061
8.509883
10.623824
11.666157
10.717952
7.940708
5.032188
3.421311
3.074706
2.662306
2.261554
1.781786
0.798637
0.037744
-0.773519
-2.284916
-4.285842
-5.728611
-5.468264
-4.314490
-4.050995
-4.311342
-3.274046
-1.351508
-0.427229
-0.066144
1.237480
3.074705
4.179999
5.448994
7.671860
10.066296
10.897707
9.496492
7.762839
6.874763
5.720673
4.302774
3.777043
3.930355
3.650805
3.021187
3.140499
3.875578
3.633175
2.220942
1.527103
1.914948
2.235423
1.748414
1.703396
2.416438
2.602490
2.433123
2.818449
3.746820
4.874151
5.897910
6.939298
7.981630
8.242292
7.817300
6.918520
5.453714
3.844411
2.333013
0.921410
0.304699
0.344365
0.804615
1.927854
3.069351
3.228329
2.297439
1.333809
1.246292
1.330976
1.156257
1.343568
1.910224
2.277291
2.404159
2.599970
2.420214
1.684191
1.102109
1.231181
1.168219
0.312883
-0.639414
-1.101239
-1.453825
-2.193941
-2.867002
-2.697321
-1.936427
-1.785004
-2.420604
-2.799948
-2.707709
-2.779486
-3.426418
-4.250273
-4.640951
-4.793634
-5.297328
-6.008167
-6.215311
-5.980464
-5.634803
-5.378864
-5.304884
-4.994167
-3.974816
-3.042352
-2.848430
-2.952947
-2.567935
-1.855208
-1.720470
-2.157110
-3.008668
-3.862430
-4.354162
-4.900670
-5.413494
-5.416012
-5.107185
-4.745469
-4.994483
-5.747821
-5.743099
-5.018094
-4.566658
-4.702970
-4.521011
-3.834413
-3.380773
-3.270275
-3.380144
-3.494734
-3.743748
-4.374310
-5.034780
-5.204776
-5.086408
-4.821339
-4.031799
-2.395422
-0.232055
1.594781
2.851813
3.723834
4.157011
3.676612
2.190085
0.550245
-0.713083
-1.792878
-2.744860
-3.423588
-3.578789
-3.064392
-2.301924
-1.853951
-1.684584
-1.448478
-1.331998
-1.604623
-2.025208
-2.015449
-1.668215
-1.688677
-1.900544
-1.859933
-1.576605
-1.643660
-2.273592
-2.750843
-2.237704
-1.146262
-0.621475
-0.605420
-0.273926
0.767776
1.390468
0.946588
0.582039
0.780998
0.543632
-0.219465
-0.234576
0.819404
2.005604
2.405726
2.421152
2.742572
2.749183
2.123028
1.934142
2.244859
2.237618
1.781775
1.024030
0.582982
0.531039
0.538909
0.572908
0.934309
1.402115
1.066214
-0.173504
-1.339871
-1.631069
-1.594552
-1.934860
-2.124375
-1.510498
-0.674680
-0.657681
-1.831603
-3.190633
-3.905250
-4.322686
-5.102153
-5.688013
-5.064062
-3.887935
-3.464832
-3.943657
-4.123098
-3.394945
-2.780438
-2.995767
-3.253596
-2.850641
-2.404556
-3.090525
-4.302539
-4.515350
-3.888251
-3.591071
-3.766420
-3.450352
-2.426908
-1.536314
-1.152877
-0.605424
0.190098
0.297133
-0.261023
-0.806902
-0.932196
-0.754644
-0.836809
-1.029157
-0.983510
-0.420317
0.316021
0.448241
0.512462
1.465074
2.792308
3.317724
3.178264
3.308909
3.337872
2.341186
0.721180
-0.340356
-0.492724
-0.485483
-0.670906
-0.848773
-0.793996
-0.176341
0.766512
1.154986
0.784456
0.479406
0.461776
-0.001308
-0.886235
-1.417003
-1.509557
-1.885754
-2.673091
-3.397781
-3.791922
-3.994344
-4.187322
-3.879124
-3.128935
-2.781071
-2.782645
-2.464688
-1.857422
-1.563390
-1.805164
-2.183879
-2.120917
-1.526873
-0.977531
-0.720962
-0.366802
0.458942
1.244705
1.233686
0.719603
0.547718
0.674271
0.136577
-0.882774
-1.259286
-0.850034
-0.534911
-0.970606
-1.515855
-1.491615
-1.319730
-1.494449
-1.818072
-1.595817
-0.980366
-0.640687
-0.633761
-0.641317
-0.449598
-0.161548
0.028911
0.134372
0.404478
0.558420
0.225667
-0.224825
-0.472580
-0.662724
-0.919923
-1.122660
-1.194751
-1.224973
-1.233473
-1.281639
-1.482802
-1.696242
-1.543245
-1.146901
-1.081421
-1.367582
-1.442507
-1.105032
-0.859795
-1.026644
-1.190345
-0.852240
-0.491469
-0.762205
-1.116050
-0.801556
-0.173198
0.005614
-0.131328
0.048113
0.365125
0.269109
-0.357361
-0.962424
-0.880259
-0.740484
-1.091496
-1.357195
-1.145643
-0.782983
-0.837760
-1.042701
-1.020349
-0.844371
-0.336270
0.406994
1.123184
1.640415
2.029519
2.414845
2.536676
2.602786
2.806153
2.614749
2.005279
1.864874
2.308754
2.576657
2.366679
2.137813
2.305606
2.334883
1.844096
1.197478
0.725580
0.401641
-0.160922
-0.860743
-1.135886
-1.100312
-0.974704
-0.575526
-0.042555
0.291143
0.707635
1.265162
1.513231
1.689839
2.228162
2.845502
2.973944
2.726504
2.659135
2.704782
2.511175
2.361011
2.146311
1.669690
1.413121
1.246272
0.699449
-0.067111
-0.471955
-0.673748
-1.210497
-1.778412
-2.103610
-2.316106
-2.352309
-2.057333
-1.575676
-1.270941
-1.214275
-1.307144
-1.445345
-1.552065
-1.723636
-1.980520
-2.101407
-1.890170
-1.508307
-1.173350
-0.742377
-0.134481
0.357880
0.597449
0.916666
1.347009
1.573672
1.549117
1.315843
0.988442
0.796723
1.051404
1.527395
1.883129
2.252399
2.479377
2.422396
2.162364
1.863610
1.723835
1.628448
1.423507
1.132624
0.859369
0.610355
0.454210
0.544245
0.726520
0.916979
1.096420
1.260436
1.408081
1.479857
1.509449
1.506301
1.536838
1.614910
1.805999
2.269083
2.955996
3.541540
3.765684
3.624650
3.430413
3.177936
2.567836
1.987958
1.673464
1.358340
1.161270
1.091382
0.947514
0.702593
0.243916
-0.341943
-0.714677
-0.798416
-0.876804
-0.906396
-0.615512
-0.253797
-0.200280
-0.445201
-0.578995
-0.457794
-0.454645
-0.530829
-0.297556
0.165843
0.357247
0.083363
-0.301334
-0.539959
-0.503756
-0.212243
-0.035321
0.083048
0.331117
0.255563
-0.330612
-0.869564
-0.971563
-0.798733
-0.741437
-0.710901
-0.255058
0.298376
0.459873
0.429337
0.459243
0.395022
0.024492
-0.359260
-0.260410
0.125861
0.074861
-0.361464
-0.648570
-0.930953
-1.367593
-1.624477
-1.526257
-1.182801
-0.656755
-0.086321
0.282320
0.258080
0.051250
-0.005730
-0.064600
-0.164394
-0.167857
-0.114025
-0.083174
0.114526
0.500167
0.775940
1.024954
1.207857
1.253819
1.222653
1.100507
1.122859
1.204394
1.189598
1.175432
1.018342
0.683070
0.528184
0.647497
0.399427
