EVENT_NAME: 202302060117
EVENT_ID: 13194
EVENT_DATE_YYYYMMDD: 2023/02/06
EVENT_TIME_HHMMSS: 01:17:32.00000
EVENT_LATITUDE_DEGREE: 37.288
EVENT_LONGITUDE_DEGREE: 37.043
EVENT_DEPTH_KM: 8.6
HYPOCENTER_REFERENCE: AFAD
MAGNITUDE_W: 7.7
MAGNITUDE_W_REFERENCE: AFAD
MAGNITUDE_L: 
MAGNITUDE_L_REFERENCE: 
FOCAL_MECHANISM: 
NETWORK: TK
STATION_CODE: 5502
STATION_NAME: 
STATION_LATITUDE_DEGREE: 40.90938
STATION_LONGITUDE_DEGREE: 35.90253
STATION_ELEVATION_M: 916.0
LOCATION: Kahramanmaras_Pazarck_Turkiye
SENSOR_DEPTH_M: 
VS30_M/S: 422
SITE_CLASSIFICATION_EC8: unknown
MORPHOLOGIC_CLASSIFICATION: 
EPICENTRAL_DISTANCE_KM: 414.52
EARTHQUAKE_BACKAZIMUTH_DEGREE: 
DATE_TIME_FIRST_SAMPLE_YYYYMMDD_HHMMSS: 2023/02/06 01:18:04.7544750
DATE_TIME_FIRST_SAMPLE_PRECISION: millisecond
SAMPLING_INTERVAL_S: 0.01
NDATA: 21001
DURATION_S: 
STREAM: HNE
UNITS: cm/s^2
INSTRUMENT: sensor = CMG-5T/GURALP | digitizer = 
INSTRUMENT_ANALOG/DIGITAL: 
INSTRUMENTAL_FREQUENCY_HZ: 
INSTRUMENTAL_DAMPING: 
FULL_SCALE_G: 
N_BIT_DIGITAL_CONVERTER: 
PGA_CM/S^2: 3.449
TIME_PGA_S: 
BASELINE_CORRECTION: BASELINE REMOVED
FILTER_TYPE: BUTTERWORTH
FILTER_ORDER: 
LOW_CUT_FREQUENCY_HZ: 
HIGH_CUT_FREQUENCY_HZ: 
LATE/NORMAL_TRIGGERED: 
DATABASE_VERSION: 
HEADER_FORMAT: DYNA 1.2
DATA_TYPE: Acceleration
PROCESSING: Automatic Paolucci et al., 2011
DATA_TIMESTAMP_YYYYMMDD_HHMMSS: 
DATA_LICENSE: U (unknown license)
DATA_CITATION: Turkish Accelerometric Archive v 1.0 - Disaster And Emergency Management Presidency, Earthquake Department
DATA_CREATOR: AFAD
ORIGINAL_DATA_MEDIATOR_CITATION: : AFAD - Disaster And Emergency Management Presidency
ORIGINAL_DATA_MEDIATOR: AFAD PROCESS SERVICE
ORIGINAL_DATA_CREATOR_CITATION: AFAD PROCESS SERVICE
ORIGINAL_DATA_CREATOR: network: TK
USER1: GuestUser
USER2: 
USER3: 
USER4: 
USER5: 
[...]
-0.330934
-0.217041
-0.100951
0.013570
0.129033
0.237906
0.343642
0.448123
0.545074
0.639515
0.726111
0.811139
0.888010
0.959860
1.029514
1.094461
1.155644
1.212434
1.266400
1.316601
1.359899
1.398491
1.433004
1.461869
1.485715
1.506423
1.524307
1.534033
1.539367
1.540308
1.538425
1.533091
1.524933
1.514579
1.499832
1.483831
1.466260
1.447748
1.427981
1.409156
1.389075
1.366798
1.344522
1.323500
1.301223
1.281770
1.262630
1.245374
1.230627
1.215880
1.205212
1.189524
1.174777
1.160031
1.144657
1.130537
1.111398
1.097593
1.081591
1.065275
1.049901
1.033585
1.018839
1.001896
0.985266
0.968951
0.949184
0.929417
0.907454
0.883295
0.856311
0.823053
0.786343
0.742103
0.689392
0.628837
0.560438
0.482940
0.397598
0.301274
0.199303
0.089488
-0.027858
-0.150850
-0.279491
-0.409386
-0.543988
-0.678904
-0.814133
-0.951245
-1.085220
-1.217625
-1.344697
-1.463297
-1.577819
-1.681359
-1.776114
-1.861769
-1.938012
-2.003588
-2.061947
-2.112776
-2.152623
-2.184940
-2.210041
-2.224474
-2.232004
-2.232945
-2.227925
-2.216944
-2.197491
-2.177411
-2.152311
-2.119680
-2.083598
-2.045006
-2.002022
-1.955586
-1.905699
-1.853929
-1.799649
-1.744742
-1.687952
-1.630534
-1.573745
-1.515700
-1.455145
-1.396472
-1.335917
-1.274735
-1.213552
-1.154880
-1.097776
-1.039104
-0.986079
-0.935564
-0.888187
-0.840183
-0.793119
-0.747938
-0.705268
-0.664793
-0.625887
-0.588550
-0.553410
-0.517328
-0.482815
-0.448302
-0.414730
-0.378962
-0.343194
-0.309622
-0.271343
-0.235889
-0.200435
-0.164980
-0.130153
-0.094072
-0.057990
-0.023163
0.012292
0.048060
0.084769
0.120224
0.155992
0.191132
0.224390
0.256080
0.282121
0.306594
0.328557
0.346127
0.364325
0.385033
0.404800
0.424252
0.447156
0.475708
0.505515
0.540656
0.581444
0.625056
0.669923
0.719496
0.766560
0.812682
0.861000
0.904612
0.944459
0.979914
1.012231
1.039214
1.064628
1.086904
1.106043
1.122359
1.135223
1.147773
1.154675
1.160636
1.166598
1.168480
1.168166
1.164715
1.155302
1.141810
1.125181
1.102590
1.078431
1.049879
1.018503
0.983676
0.946652
0.908687
0.870409
0.833385
0.796362
0.763417
0.730786
0.701293
0.673369
0.646699
0.625050
0.603714
0.583634
0.563867
0.545982
0.526843
0.505194
0.483544
0.459385
0.429264
0.396947
0.362434
0.320704
0.275523
0.228773
0.178258
0.124605
0.068756
0.015417
-0.039490
-0.095653
-0.150247
-0.202958
-0.253160
-0.302733
-0.347287
-0.389958
-0.432943
-0.476241
-0.519226
-0.559701
-0.600490
-0.640023
-0.678302
-0.716580
-0.752035
-0.784352
-0.819493
-0.851183
-0.879735
-0.907345
-0.931819
-0.955978
-0.977314
-0.997394
-1.015279
-1.030339
-1.042262
-1.053871
-1.067049
-1.076462
-1.081796
-1.083365
-1.085875
-1.086816
-1.086503
-1.084620
-1.080856
-1.076149
-1.068933
-1.058893
-1.047912
-1.035362
-1.018419
-0.999907
-0.974807
-0.947196
-0.917703
-0.889152
-0.862482
-0.834558
-0.805379
-0.774631
-0.736980
-0.695565
-0.651325
-0.601751
-0.551864
-0.499781
-0.444246
-0.385260
-0.327215
-0.266660
-0.204536
-0.140530
-0.076837
-0.013459
0.051175
0.113299
0.179501
0.246332
0.314730
0.379050
0.442743
0.504867
0.566049
0.628487
0.685904
0.742066
0.792267
0.834938
0.865686
0.883884
0.893297
0.891414
0.880432
0.856587
0.823642
0.787246
0.744889
0.700962
0.654213
0.611855
0.572322
0.534043
0.503922
0.475057
0.451838
0.436778
0.427051
0.425482
0.431444
0.438974
0.454034
0.470349
0.489174
0.513647
0.536237
0.563220
0.590203
0.619069
0.645424
0.669897
0.695625
0.717274
0.736099
0.753356
0.771867
0.782535
0.791006
0.799478
0.805125
0.810145
0.814538
0.817989
0.820185
0.820498
0.816733
0.808889
0.797908
0.782220
0.763394
0.744255
0.721978
0.700642
0.676169
0.650441
0.625967
0.605259
0.587061
0.572315
0.560078
0.552234
0.547214
0.541566
0.536232
0.529329
0.526191
0.523367
0.518661
0.512072
0.507679
0.505169
0.501404
0.498580
0.500462
0.505482
0.510188
0.518973
0.530268
0.542505
0.553800
0.562899
0.575135
0.585803
0.595529
0.605255
0.617492
0.630669
0.642906
0.658907
0.677732
0.702519
0.731698
0.764956
0.803234
0.846533
0.893596
0.946621
1.003725
1.064593
1.127658
1.187586
1.249709
1.309009
1.362348
1.415059
1.463377
1.510755
1.550602
1.587311
1.621824
1.647866
1.673280
1.690850
1.707479
1.719402
1.729756
1.731324
1.728814
1.723166
1.710930
1.693987
1.668572
1.642844
1.613351
1.582288
1.552795
1.522361
1.490985
1.464943
1.443607
1.423213
1.405642
1.391523
1.379286
1.368932
1.361716
1.356382
1.350106
1.348537
1.351361
1.354812
1.360146
1.365793
1.375520
1.384932
1.394972
1.408778
1.419759
1.426661
1.431054
1.432622
1.431054
1.423523
1.404070
1.379911
1.351986
1.316218
1.280449
1.237464
1.191656
1.145847
1.100038
1.056426
1.012814
0.970456
0.931864
0.897351
0.865975
0.840247
0.812322
0.786908
0.760238
0.736706
0.718508
0.698114
0.682739
0.669875
0.662031
0.655442
0.650422
0.650422
0.655442
0.662030
0.674581
0.690268
0.708780
0.730115
0.749254
0.770589
0.792552
0.814829
0.837106
0.857186
0.876325
0.894836
0.909269
0.923074
0.932801
0.944409
0.954449
0.960411
0.966999
0.972333
0.977667
0.984883
0.993982
1.006218
1.022220
1.036339
1.055791
1.075244
1.097521
1.122307
1.149918
1.180666
1.210787
1.243417
1.275734
1.307423
1.339426
1.371116
1.401236
1.428847
1.455202
1.480302
1.503207
1.524856
1.542426
1.564075
1.583841
1.601412
1.621806
1.638748
1.654750
1.669183
1.679536
1.692087
1.701813
1.711225
1.721893
1.732874
1.744797
1.756092
1.772721
1.784957
1.799390
1.813509
1.826687
1.841747
1.851473
1.860572
1.864964
1.864337
1.864023
1.859630
1.853982
1.847080
1.840177
1.832646
1.823861
1.817900
1.806918
1.795622
1.784013
1.770835
1.756402
1.736322
1.712790
1.686120
1.654431
1.616780
1.577560
1.535830
1.495983
1.450802
1.410013
1.368911
1.323416
1.281372
1.233995
1.187245
1.137671
1.088725
1.038837
0.989264
0.938121
0.886665
0.833640
0.781242
0.730413
0.680526
0.630011
0.578241
0.531805
0.483800
0.437991
0.391241
0.342295
0.295545
0.248167
0.199849
0.150902
0.102898
0.057089
0.010025
-0.033587
-0.075317
-0.111713
-0.146540
-0.176661
-0.202075
-0.228745
-0.247257
-0.265769
-0.282398
-0.300910
-0.317539
-0.337933
-0.358955
-0.381232
-0.412294
-0.443356
-0.481007
-0.518344
-0.556309
-0.594588
-0.631611
-0.668321
-0.703776
-0.737348
-0.764959
-0.786608
-0.801668
-0.811395
-0.812650
-0.812337
-0.805120
-0.797590
-0.785354
-0.770607
-0.753979
-0.736095
-0.722603
-0.705660
-0.692169
-0.674285
-0.657342
-0.645106
-0.631301
-0.615299
-0.597415
-0.577649
-0.557255
-0.531841
-0.500465
-0.464069
-0.421712
-0.377473
-0.329782
-0.278012
-0.226242
-0.178238
-0.127095
-0.072188
-0.021360
0.026959
0.075277
0.120458
0.160933
0.197015
0.230900
0.260393
0.281101
0.300240
0.313418
0.319379
0.325340
0.324712
0.319065
0.306828
0.289571
0.268863
0.249724
0.227447
0.202032
0.177873
0.153086
0.127358
0.100688
0.080294
0.056135
0.032289
0.011581
-0.008500
-0.022619
-0.034542
-0.043955
-0.051799
-0.059957
-0.065291
-0.072507
-0.078155
-0.085372
-0.093530
-0.101374
-0.110786
-0.117375
-0.127730
-0.142163
-0.159419
-0.179186
-0.199581
-0.218406
-0.236290
-0.255116
-0.270490
-0.283668
-0.294336
-0.303435
-0.311593
-0.317241
-0.323516
-0.330105
-0.337949
-0.344538
-0.352069
-0.359599
-0.367757
-0.372149
-0.371208
-0.375287
-0.376229
-0.375601
-0.374033
-0.371837
-0.367444
-0.364934
-0.366503
-0.366190
-0.368072
-0.371524
-0.377172
-0.383447
-0.390036
-0.399449
-0.408862
-0.420784
-0.436472
-0.455298
-0.480085
-0.507696
-0.538444
-0.575154
-0.618766
-0.671791
-0.733602
-0.796981
-0.865066
-0.933465
-1.001237
-1.071832
-1.142428
-1.216161
-1.290208
-1.364568
-1.440498
-1.516741
-1.592670
-1.672051
-1.754569
-1.838656
-1.920547
-2.001182
-2.084014
-2.163709
-2.244972
-2.324353
-2.404988
-2.481859
-2.554023
-2.621795
-2.676075
-2.725649
-2.769261
-2.811305
-2.849583
-2.883469
-2.916414
-2.943711
-2.963791
-2.978224
-2.991402
-3.004266
-3.018386
-3.031250
-3.039721
-3.044428
-3.048193
-3.050076
-3.050390
-3.054155
-3.055096
-3.055097
-3.055097
-3.049763
-3.048194
-3.045057
-3.045057
-3.046312
-3.047567
-3.051646
-3.055412
-3.061373
-3.066080
-3.072669
-3.078630
-3.083651
-3.086161
-3.088043
-3.091181
-3.089299
-3.088358
-3.092123
-3.100281
-3.110949
-3.119734
-3.126323
-3.131657
-3.134167
-3.134481
-3.130089
-3.122245
-3.113774
-3.099027
-3.081457
-3.061377
-3.042238
-3.024981
-3.006470
-2.993292
-2.978859
-2.963485
-2.952190
-2.946543
-2.948425
-2.949681
-2.956270
-2.968506
-2.983881
-3.003647
-3.018708
-3.031886
-3.041299
-3.053222
-3.063576
-3.072361
-3.075185
-3.075813
-3.071734
-3.061067
-3.051968
-3.034711
-3.017455
-3.000198
-2.981687
-2.965999
-2.955645
-2.949370
-2.946233
-2.946547
-2.945292
-2.945919
-2.949371
-2.954391
-2.963804
-2.972276
-2.980747
-2.988591
-2.988905
-2.986082
-2.982317
-2.971649
-2.960354
-2.946235
-2.927410
-2.908271
-2.886622
-2.865914
-2.845834
-2.826067
-2.804732
-2.782455
-2.757982
-2.734137
-2.710291
-2.689897
-2.676406
-2.668562
-2.656953
-2.644403
-2.631539
-2.618675
-2.610518
-2.605184
-2.603616
-2.600478
-2.597027
-2.593890
-2.588556
-2.579457
-2.571927
-2.562514
-2.555612
-2.546827
-2.536787
-2.527688
-2.516079
-2.509177
-2.499764
-2.490038
-2.480311
-2.470585
-2.457721
-2.443602
-2.434817
-2.425091
-2.414737
-2.406580
-2.400932
-2.395912
-2.391833
-2.389324
-2.390579
-2.397482
-2.409404
-2.421014
-2.431054
-2.443291
-2.457724
-2.472470
-2.487531
-2.504788
-2.523927
-2.542125
-2.561264
-2.581659
-2.600171
-2.619624
-2.635312
-2.651000
-2.663550
-2.675159
-2.688965
-2.698064
-2.706535
-2.713752
-2.720341
-2.722537
-2.723479
-2.723165
-2.721597
-2.717204
-2.712184
-2.709361
-2.706223
-2.707478
-2.707478
-2.706537
-2.704341
-2.697752
-2.689281
-2.674535
-2.660416
-2.645356
-2.628413
-2.603940
-2.576957
-2.549033
-2.517343
-2.487223
-2.456161
-2.428864
-2.398744
-2.370506
-2.345719
-2.318736
-2.289871
-2.261005
-2.233709
-2.206412
-2.175036
-2.140837
-2.104755
-2.065536
-2.026944
-1.987410
-1.945681
-1.903951
-1.861908
-1.820492
-1.779704
-1.739543
-1.700638
-1.662987
-1.627533
-1.591764
-1.557565
-1.524307
-1.481950
-1.441789
-1.422023
-1.392216
-1.345780
-1.309071
-1.293069
-1.272989
-1.227808
-1.184196
-1.159095
-1.142780
-1.125524
-1.107640
-1.089442
-1.074382
-1.064969
-1.058694
-1.047399
-1.035477
-1.024181
-1.012259
-1.000964
-0.985904
-0.969902
-0.951391
-0.933820
-0.913740
-0.890836
-0.868873
-0.844086
-0.819614
-0.794199
-0.770668
-0.752784
-0.735527
-0.722977
-0.713565
-0.704152
-0.699446
-0.696622
-0.697250
-0.698819
-0.694740
-0.691916
-0.684700
-0.679366
-0.677798
-0.670582
-0.662738
-0.651443
-0.637638
-0.615047
-0.603438
-0.594653
-0.586182
-0.583358
-0.569553
-0.550100
-0.538492
-0.538178
-0.544453
-0.551356
-0.540688
-0.530335
-0.536610
-0.545081
-0.538493
-0.528139
-0.516216
-0.502725
-0.489233
-0.470094
-0.447190
-0.427424
-0.412050
-0.398558
-0.392283
-0.384753
-0.378165
-0.376282
-0.380675
-0.389147
-0.403893
-0.422091
-0.448447
-0.477313
-0.503355
-0.530338
-0.567989
-0.608464
-0.642664
-0.677805
-0.709180
-0.746204
-0.778835
-0.813348
-0.852254
-0.891788
-0.929125
-0.956422
-0.986543
-1.016664
-1.043333
-1.066551
-1.090397
-1.110478
-1.124283
-1.134010
-1.144050
-1.155345
-1.161934
-1.162876
-1.163504
-1.166014
-1.161308
-1.150326
-1.134011
-1.110793
-1.081300
-1.046159
-1.003802
-0.956739
-0.906224
-0.853827
-0.798292
-0.740247
-0.680320
-0.620706
-0.562975
-0.502734
-0.444061
-0.383820
-0.325148
-0.268044
-0.207803
-0.149131
-0.089517
-0.029590
0.030965
0.089324
0.149565
0.207924
0.263459
0.318680
0.372332
0.418768
0.460811
0.500658
0.535485
0.569998
0.602315
0.630239
0.651575
0.670714
0.685774
0.697383
0.704913
0.707109
0.705226
0.698323
0.688283
0.675419
0.660672
0.643102
0.625845
0.607333
0.585997
0.561210
0.537365
0.512264
0.486222
0.458611
0.431314
0.400252
0.371073
0.343462
0.313027
0.284161
0.254041
0.227057
0.201015
0.178739
0.159913
0.144539
0.133243
0.122575
0.114731
0.110025
0.104691
0.103436
0.101239
0.098101
0.092140
0.083982
0.076452
0.067353
0.056685
0.046958
0.036918
0.026564
0.016837
0.004914
-0.002930
-0.008264
-0.010774
-0.010774
-0.007009
-0.002303
0.008051
0.022797
0.040995
0.065782
0.093078
0.124768
0.158653
0.195676
0.238975
0.284469
0.332788
0.386754
0.439778
0.490607
0.546142
0.598539
0.651878
0.705844
0.758241
0.812834
0.865232
0.919512
0.975674
1.031209
1.089254
1.148240
1.205657
1.266212
1.327708
1.388577
1.450073
1.513452
1.575890
1.639896
1.704530
1.768850
1.833170
1.895607
1.960868
2.024247
2.085743
2.147553
2.209677
2.270232
2.330160
2.387263
2.443112
2.496137
2.546338
2.594970
2.637954
2.679370
2.717648
2.753730
2.789812
2.824325
2.858211
2.888331
2.917824
2.948259
2.973045
2.999087
3.024187
3.044581
3.065289
3.087880
3.110470
3.131805
3.155964
3.178555
3.201773
3.224990
3.249777
3.274250
3.296527
3.317548
3.335118
3.351120
3.367121
3.381868
3.393477
3.404772
3.413243
3.421714
3.425479
3.426734
3.427989
3.427361
3.428302
3.430499
3.432067
3.434891
3.435518
3.434891
3.437714
3.438028
3.439283
3.439596
3.442734
3.446812
3.448695
3.447753
3.445557
3.440850
3.436144
3.430182
3.422025
3.413553
3.401944
3.392217
3.378412
3.364920
3.352370
3.337937
3.320994
3.304364
3.288990
3.272047
3.255418
3.237220
3.216825
3.195804
3.174782
3.151877
3.128345
3.103872
3.076889
3.047082
3.013510
2.977114
2.937266
2.893027
2.849100
2.798272
2.745874
2.691280
2.633235
2.573621
2.508359
2.444667
2.375640
2.306299
2.236332
2.165109
2.093258
2.020466
1.949557
1.877393
1.811817
1.746870
1.683177
1.621053
1.560811
1.504021
1.450996
1.395775
1.343063
1.296313
1.246426
1.200931
1.153553
1.110255
1.068211
1.026481
0.989772
0.952434
0.916980
0.884663
0.851718
0.820656
0.790849
0.763552
0.737196
0.711154
0.688563
0.664404
0.644637
0.623615
0.605731
0.588788
0.573728
0.561177
0.549882
0.540469
0.532939
0.524781
0.517564
0.512544
0.507210
0.503758
0.498424
0.494973
0.486501
0.477716
0.468617
0.458576
0.447595
0.438182
0.430024
0.420925
0.413081
0.405864
0.403982
0.401785
0.403354
0.404295
0.406491
0.414021
0.421865
0.434415
0.449475
0.466418
0.483361
0.498421
0.516619
0.533248
0.551445
0.570271
0.587841
0.606039
0.622354
0.637414
0.649337
0.660632
0.671613
0.679457
0.685418
0.688556
0.691693
0.693889
0.692634
0.692634
0.692947
0.692633
0.691378
0.689496
0.690437
0.692947
0.693888
0.698280
0.703300
0.708948
0.720243
0.731538
0.746912
0.763227
0.782366
0.802760
0.823782
0.846058
0.867707
0.888101
0.909750
0.931713
0.953990
0.975639
0.997602
1.018623
1.038390
1.059411
1.078551
1.098945
1.115887
1.131889
1.147263
1.158244
1.169539
1.178010
1.183972
1.188050
1.189619
1.192129
1.191187
1.188364
1.185540
1.181461
1.177382
1.172361
1.166400
1.155732
1.140985
1.124042
1.105844
1.080430
1.057211
1.033680
1.005127
0.979086
0.953671
0.929825
0.904411
0.878683
0.855778
0.830364
0.802439
0.774201
0.745649
0.715528
0.680387
0.643991
0.606968
0.567748
0.526959
0.485857
0.445069
0.403025
0.364433
0.324272
0.285993
0.250852
0.215398
0.181512
0.149508
0.121270
0.092090
0.062911
0.031849
0.001728
-0.030589
-0.059769
-0.090831
-0.120952
-0.150445
-0.181193
-0.209118
-0.239239
-0.266222
-0.295088
-0.324895
-0.353760
-0.383881
-0.416512
-0.447261
-0.478323
-0.509698
-0.541074
-0.568685
-0.592531
-0.616063
-0.634888
-0.651204
-0.663127
-0.673167
-0.677874
-0.677874
-0.675991
-0.670971
-0.663755
-0.656539
-0.648381
-0.642106
-0.634576
-0.629556
-0.626419
-0.625478
-0.627047
-0.627674
-0.628930
-0.629871
-0.635833
-0.639598
-0.646187
-0.651521
-0.656227
-0.663130
-0.669719
-0.676308
-0.681642
-0.688231
-0.692624
-0.696703
-0.697331
-0.696703
-0.695135
-0.688860
-0.684153
-0.677565
-0.668152
-0.659995
-0.649013
-0.637404
-0.624541
-0.613873
-0.603205
-0.593479
-0.588773
-0.584067
-0.580302
-0.579047
-0.581557
-0.584695
-0.591284
-0.598814
-0.607913
-0.617954
-0.629249
-0.638976
-0.645878
-0.650585
-0.654350
-0.654978
-0.651527
-0.645565
-0.636467
-0.623603
-0.607915
-0.592855
-0.574657
-0.557401
-0.542027
-0.526025
-0.509396
-0.494650
-0.480845
-0.467667
-0.454176
-0.441625
-0.427507
-0.414329
-0.401151
-0.387346
-0.374482
-0.362246
-0.350951
-0.339028
-0.329302
-0.318634
-0.309222
-0.298240
-0.286945
-0.275023
-0.261217
-0.243020
-0.221057
-0.196270
-0.168032
-0.136970
-0.103399
-0.070454
-0.035941
-0.000801
0.034026
0.065402
0.093326
0.118740
0.140703
0.160783
0.178040
0.192159
0.204709
0.213808
0.224162
0.234202
0.242987
0.253027
0.262753
0.274048
0.285030
0.296638
0.307620
0.316091
0.322366
0.326131
0.326131
0.324876
0.321738
0.316718
0.309815
0.301657
0.291617
0.284714
0.276870
0.269339
0.265888
0.263378
0.260240
0.259299
0.260867
0.260240
0.260239
0.258984
0.257415
0.253023
0.248944
0.243610
0.236079
0.230745
0.227294
0.224470
0.224783
0.228235
0.232313
0.239216
0.251766
0.266199
0.282514
0.304477
0.326126
0.347461
0.369424
0.392014
0.412722
0.434999
0.455079
0.471708
0.485513
0.498691
0.507790
0.513123
0.521595
0.523477
0.526614
0.526614
0.524418
0.522221
0.517515
0.514377
0.511867
0.509670
0.506219
0.503709
0.498688
0.495551
0.492413
0.488020
0.483000
0.476097
0.468567
0.458213
0.447859
0.434053
0.420875
0.409266
0.395461
0.384479
0.372242
0.360947
0.354044
0.345886
0.341180
0.336159
0.333336
0.333649
0.329884
0.331766
0.333021
0.333962
0.336786
0.339923
0.346198
0.350277
0.353101
0.357807
0.363768
0.368788
0.374122
0.381338
0.388554
0.395143
0.402987
0.412086
0.419302
0.427773
0.438755
0.447853
0.456325
0.468875
0.483307
0.496171
0.514997
0.530057
0.546372
0.568335
0.590298
0.616026
0.641126
0.669678
0.699798
0.732429
0.764118
0.796749
0.831262
0.867344
0.906249
0.940763
0.974334
1.008534
1.043674
1.079443
1.116466
1.150038
1.182668
1.211847
1.238203
1.261107
1.278677
1.294992
1.307229
1.317269
1.323544
1.326368
1.327309
1.327622
1.326053
1.327308
1.329191
1.333583
1.341741
1.351467
1.362762
1.374685
1.390059
1.404491
1.420179
1.437749
1.455319
1.472576
1.487950
1.499872
1.511481
1.521521
1.533130
1.544425
1.554152
1.568584
1.583331
1.599960
1.618471
1.638865
1.663024
1.690321
1.716049
1.741149
1.762485
1.782879
1.801077
1.817392
1.828687
1.834021
1.835589
1.828373
1.820529
1.806723
1.790094
1.770955
1.749305
1.726401
1.702241
1.679023
1.656433
1.635724
1.615016
1.595249
1.573600
1.556343
1.536263
1.519633
1.501749
1.480727
1.456882
1.425192
1.404798
1.367147
1.326986
1.308160
1.265175
1.214033
1.186422
1.160380
1.117395
1.061546
1.005697
0.964281
0.928199
0.888352
0.841288
0.798617
0.766614
0.726766
0.688174
0.652719
0.626677
0.604087
0.571770
0.539452
0.511842
0.488623
0.469798
0.447835
0.422107
0.399202
0.377867
0.352766
0.326096
