EVENT_NAME: 202302060117
EVENT_ID: 13194
EVENT_DATE_YYYYMMDD: 2023/02/06
EVENT_TIME_HHMMSS: 01:17:32.00000
EVENT_LATITUDE_DEGREE: 37.288
EVENT_LONGITUDE_DEGREE: 37.043
EVENT_DEPTH_KM: 8.6
HYPOCENTER_REFERENCE: AFAD
MAGNITUDE_W: 7.7
MAGNITUDE_W_REFERENCE: AFAD
MAGNITUDE_L: 
MAGNITUDE_L_REFERENCE: 
FOCAL_MECHANISM: 
NETWORK: TK
STATION_CODE: 5817
STATION_NAME: 
STATION_LATITUDE_DEGREE: 39.45554
STATION_LONGITUDE_DEGREE: 37.04523
STATION_ELEVATION_M: 1389.0
LOCATION: Kahramanmaras_Pazarck_Turkiye
SENSOR_DEPTH_M: 
VS30_M/S: None
SITE_CLASSIFICATION_EC8: unknown
MORPHOLOGIC_CLASSIFICATION: 
EPICENTRAL_DISTANCE_KM: 241.02
EARTHQUAKE_BACKAZIMUTH_DEGREE: 
DATE_TIME_FIRST_SAMPLE_YYYYMMDD_HHMMSS: 2023/02/06 01:17:53.5510940
DATE_TIME_FIRST_SAMPLE_PRECISION: millisecond
SAMPLING_INTERVAL_S: 0.01
NDATA: 14501
DURATION_S: 
STREAM: HNZ
UNITS: cm/s^2
INSTRUMENT: sensor = ACEBOX/SARA | digitizer = 
INSTRUMENT_ANALOG/DIGITAL: 
INSTRUMENTAL_FREQUENCY_HZ: 
INSTRUMENTAL_DAMPING: 
FULL_SCALE_G: 
N_BIT_DIGITAL_CONVERTER: 
PGA_CM/S^2: 6.825
TIME_PGA_S: 
BASELINE_CORRECTION: BASELINE REMOVED
FILTER_TYPE: BUTTERWORTH
FILTER_ORDER: 
LOW_CUT_FREQUENCY_HZ: 
HIGH_CUT_FREQUENCY_HZ: 
LATE/NORMAL_TRIGGERED: 
DATABASE_VERSION: 
HEADER_FORMAT: DYNA 1.2
DATA_TYPE: Acceleration
PROCESSING: Automatic Paolucci et al., 2011
DATA_TIMESTAMP_YYYYMMDD_HHMMSS: 
DATA_LICENSE: U (unknown license)
DATA_CITATION: Turkish Accelerometric Archive v 1.0 - Disaster And Emergency Management Presidency, Earthquake Department
DATA_CREATOR: AFAD
ORIGINAL_DATA_MEDIATOR_CITATION: : AFAD - Disaster And Emergency Management Presidency
ORIGINAL_DATA_MEDIATOR: AFAD PROCESS SERVICE
ORIGINAL_DATA_CREATOR_CITATION: AFAD PROCESS SERVICE
ORIGINAL_DATA_CREATOR: network: TK
USER1: GuestUser
USER2: 
USER3: 
USER4: 
USER5: 
[...]
-1.189939
-1.090808
-0.998224
-0.871271
-0.691480
-0.500701
-0.317636
-0.162862
-0.042222
0.108111
0.286499
0.429116
0.574071
0.770929
0.976672
1.175868
1.375064
1.499211
1.516513
1.551116
1.626165
1.592265
1.462509
1.383019
1.344209
1.252561
1.094749
0.947691
0.889243
0.876852
0.833601
0.780763
0.735641
0.686311
0.662932
0.665972
0.698003
0.799706
0.937179
1.062495
1.179161
1.271979
1.333936
1.381866
1.427924
1.500870
1.615431
1.750567
1.918434
2.155038
2.426945
2.681317
2.914648
3.121325
3.305792
3.457294
3.496806
3.431811
3.366115
3.291768
3.151257
2.967026
2.741646
2.473014
2.210460
1.958661
1.679742
1.381184
1.098523
0.853505
0.630930
0.419111
0.264104
0.187186
0.172925
0.238155
0.316712
0.316713
0.308998
0.351550
0.369319
0.350383
0.363008
0.410938
0.432682
0.425201
0.462376
0.554960
0.649181
0.719321
0.736389
0.703892
0.681215
0.723767
0.874333
1.067216
1.187389
1.272258
1.341697
1.285820
1.092237
0.857037
0.635398
0.429891
0.249401
0.087146
-0.071601
-0.151092
-0.086563
0.041325
0.155653
0.255251
0.307856
0.265540
0.140459
0.000649
-0.118820
-0.250915
-0.406156
-0.550408
-0.686009
-0.812025
-0.856913
-0.818102
-0.766900
-0.678056
-0.520710
-0.314500
-0.060361
0.160578
0.280049
0.377076
0.454463
0.434591
0.348789
0.223942
0.031761
-0.146859
-0.208581
-0.227050
-0.301864
-0.364755
-0.381821
-0.447518
-0.544075
-0.566051
-0.515550
-0.402625
-0.180517
0.134409
0.461024
0.789978
1.159846
1.488098
1.695243
1.871060
2.054591
2.166815
2.207964
2.233916
2.228306
2.166584
2.087094
1.980951
1.784796
1.535802
1.293355
1.002980
0.617449
0.205967
-0.130233
-0.386240
-0.641780
-0.879317
-0.995981
-1.013983
-0.983121
-0.842608
-0.627981
-0.440942
-0.240110
-0.009351
0.165764
0.306277
0.491913
0.697655
0.848689
0.862250
0.742079
0.649029
0.657446
0.689945
0.729691
0.790245
0.862489
0.962322
1.075714
1.187003
1.318164
1.467561
1.606671
1.724038
1.820130
1.879515
1.894245
1.881621
1.877647
1.913886
1.952230
1.967194
2.016292
2.100927
2.193278
2.329816
2.468459
2.503997
2.456069
2.412350
2.366293
2.296388
2.282595
2.348994
2.359750
2.287741
2.244723
2.199367
2.103745
2.032905
2.021684
2.086213
2.208022
2.318609
2.447198
2.590283
2.687777
2.803040
2.939578
2.969271
2.901471
2.839048
2.770312
2.642660
2.483912
2.354857
2.234452
2.055832
1.885862
1.778784
1.645754
1.505944
1.408919
1.299035
1.198737
1.061732
0.809933
0.600686
0.497348
0.351226
0.189906
0.074879
-0.080829
-0.215963
-0.231861
-0.224379
-0.198894
-0.129455
-0.169434
-0.316258
-0.433155
-0.533220
-0.623699
-0.671860
-0.726334
-0.831542
-0.963169
-1.075858
-1.183872
-1.305446
-1.383066
-1.395222
-1.399897
-1.458112
-1.565892
-1.636965
-1.630185
-1.573371
-1.499256
-1.464420
-1.494345
-1.529648
-1.491304
-1.471898
-1.608201
-1.723229
-1.718786
-1.797575
-1.901146
-1.903951
-1.958425
-2.061762
-2.081868
-2.076256
-2.082568
-1.974085
-1.692359
-1.297708
-0.806032
-0.285598
0.124483
0.455307
0.813719
1.165585
1.452689
1.717816
2.020818
2.341121
2.601104
2.743020
2.749099
2.672415
2.614434
2.634073
2.765468
2.966535
3.091851
3.125285
3.117103
3.041119
3.015402
3.157084
3.352306
3.516666
3.633566
3.712824
3.890510
4.143947
4.254768
4.270200
4.323974
4.317662
4.323508
4.477347
4.589103
4.611782
4.670700
4.612719
4.375883
4.118707
3.834410
3.454724
3.015888
2.572375
2.153411
1.791260
1.468854
1.069997
0.560086
0.036615
-0.412743
-0.768348
-1.069244
-1.337876
-1.596689
-1.731121
-1.658410
-1.655603
-1.694647
-1.565356
-1.502698
-1.480720
-1.363820
-1.322905
-1.357740
-1.467858
-1.562779
-1.444476
-1.257204
-1.090272
-0.925210
-0.879151
-0.883593
-0.796386
-0.657509
-0.540610
-0.412020
-0.163727
0.189074
0.476412
0.622068
0.728914
0.864050
0.943074
0.902160
0.823372
0.759780
0.605240
0.309955
0.011631
-0.237363
-0.561171
-0.945767
-1.170445
-1.213931
-1.349065
-1.647389
-1.910644
-2.122230
-2.396006
-2.697603
-2.956884
-3.165664
-3.347791
-3.534127
-3.709941
-3.866351
-4.052686
-4.226631
-4.243697
-4.109497
-3.962671
-3.832445
-3.702921
-3.608232
-3.549548
-3.505126
-3.434986
-3.258702
-2.958506
-2.659712
-2.522706
-2.526680
-2.493947
-2.357409
-2.162187
-1.899398
-1.641753
-1.532569
-1.463832
-1.264869
-1.051412
-1.019381
-1.222082
-1.498430
-1.590545
-1.544954
-1.551032
-1.560850
-1.548926
-1.577215
-1.529051
-1.352066
-1.161521
-0.925385
-0.627760
-0.418978
-0.255787
-0.032510
0.084624
0.018694
-0.045600
-0.091657
-0.208087
-0.302307
-0.374316
-0.513424
-0.583796
-0.519034
-0.501498
-0.594081
-0.724773
-0.827643
-0.778077
-0.540538
-0.311884
-0.284996
-0.358875
-0.338768
-0.313049
-0.340870
-0.236362
-0.087199
-0.173235
-0.383886
-0.468754
-0.510602
-0.676831
-0.843294
-0.876727
-0.890052
-0.899403
-0.845863
-0.850538
-0.939146
-0.951303
-0.797230
-0.573485
-0.471081
-0.522048
-0.660689
-0.863390
-0.971872
-0.939607
-1.020967
-1.254530
-1.431280
-1.507030
-1.488559
-1.357865
-1.245174
-1.293569
-1.471488
-1.662032
-1.772384
-1.785476
-1.809790
-1.979058
-2.221973
-2.295384
-2.214723
-2.280420
-2.524036
-2.786121
-3.099409
-3.418541
-3.646259
-3.900630
-4.188667
-4.358637
-4.426437
-4.495407
-4.588457
-4.683612
-4.803549
-4.941489
-5.002977
-4.970478
-4.836979
-4.591725
-4.391827
-4.300412
-4.267679
-4.262769
-4.052117
-3.614681
-3.313316
-3.137266
-2.838706
-2.539912
-2.325052
-2.098034
-1.965236
-1.908890
-1.691925
-1.395937
-1.189260
-0.928107
-0.552394
-0.263888
-0.126882
0.018073
0.167003
0.221946
0.301204
0.391685
0.363396
0.428393
0.663827
0.825616
1.021772
1.425775
1.780914
1.954860
2.174864
2.457525
2.585180
2.645266
2.824122
2.987313
3.131333
3.437141
3.706242
3.736637
3.746925
3.839977
3.835535
3.693154
3.488816
3.210831
2.863643
2.533756
2.295751
2.178620
2.183530
2.311184
2.499158
2.627514
2.730853
2.805903
2.741142
2.766860
3.040404
3.248484
3.294543
3.331484
3.297818
3.124575
2.881426
2.640148
2.493558
2.520913
2.610225
2.671247
2.797732
2.920242
2.933570
2.841454
2.599943
2.432311
2.421557
2.241534
2.062446
2.073435
1.920532
1.647224
1.438444
1.186645
1.092893
1.271749
1.470711
1.655178
1.906043
2.180055
2.433959
2.601593
2.663082
2.686463
2.686931
2.683191
2.726445
2.752631
2.667062
2.520939
2.401937
2.311225
2.202977
2.065973
1.990925
1.996069
1.905357
1.726035
1.630880
1.499955
1.217061
0.997760
0.877822
0.605449
0.240726
0.060470
-0.068819
-0.357091
-0.577795
-0.624553
-0.712928
-0.836138
-0.831228
-0.645358
-0.383738
-0.259591
-0.184775
0.008810
0.110045
0.089004
0.061417
-0.134738
-0.441246
-0.707072
-1.101020
-1.613269
-1.940584
-1.970977
-1.945259
-2.092784
-2.309513
-2.445349
-2.480184
-2.377546
-2.215991
-2.109846
-1.985232
-1.880957
-1.930989
-2.011648
-2.028948
-2.067290
-2.101190
-2.029881
-1.851025
-1.757272
-1.841204
-1.844944
-1.764050
-1.797014
-1.747682
-1.622132
-1.685491
-1.719390
-1.616753
-1.682683
-1.814076
-1.712373
-1.491668
-1.337127
-1.173702
-0.881221
-0.523043
-0.213260
0.053036
0.219266
0.184665
0.048596
-0.097059
-0.292045
-0.497085
-0.745377
-1.035518
-1.151715
-1.224425
-1.513631
-1.777120
-1.917397
-2.150960
-2.393173
-2.551687
-2.737087
-2.916175
-2.946334
-2.830838
-2.785714
-2.858424
-2.782673
-2.545602
-2.346172
-2.082682
-1.728946
-1.520398
-1.394614
-1.182559
-1.080856
-1.187233
-1.328212
-1.547046
-1.923926
-2.287246
-2.591649
-2.968997
-3.356399
-3.632512
-3.847839
-4.021316
-4.131433
-4.190817
-4.152006
-4.047498
-3.850406
-3.417179
-2.952857
-2.661077
-2.397586
-2.203534
-2.102299
-1.845355
-1.466602
-1.176459
-1.053949
-1.173652
-1.414229
-1.472677
-1.368403
-1.415161
-1.642879
-1.775675
-1.793911
-1.853996
-1.899118
-1.940265
-2.039628
-2.090829
-2.091296
-2.070955
-1.994970
-1.912439
-1.873160
-1.893967
-1.834582
-1.617851
-1.508433
-1.536020
-1.534850
-1.639825
-1.887415
-2.055514
-2.036342
-1.976022
-2.006415
-2.048264
-2.107881
-2.240209
-2.296554
-2.246754
-2.255638
-2.276445
-2.181289
-2.110213
-2.160011
-2.246282
-2.395210
-2.508835
-2.433317
-2.375335
-2.458332
-2.546005
-2.632977
-2.753382
-2.919143
-3.075085
-3.086073
-3.111088
-3.278486
-3.317530
-3.216762
-3.238505
-3.305136
-3.248556
-3.080689
-2.837773
-2.676919
-2.714560
-2.729288
-2.552771
-2.322012
-2.169575
-2.096162
-2.015735
-1.881067
-1.754348
-1.659660
-1.559360
-1.357592
-0.979775
-0.607802
-0.393643
-0.166158
0.136377
0.398230
0.646290
0.866294
0.963555
0.988104
1.032526
1.152699
1.308175
1.350493
1.306072
1.324309
1.422505
1.601361
1.835860
2.021029
2.147747
2.256230
2.393938
2.620722
2.822957
2.932375
3.108893
3.316038
3.396231
3.469411
3.619743
3.678427
3.589117
3.551009
3.662064
3.741088
3.729399
3.759092
3.749273
3.590759
3.386188
3.189331
2.959275
2.673576
2.360055
2.119946
1.979201
1.914206
1.960031
2.049576
2.147304
2.327329
2.459893
2.537514
2.779495
3.055143
3.247559
3.479019
3.654368
3.762850
3.907338
3.976776
3.933992
3.902898
3.985196
4.104433
4.099290
4.083627
4.173639
4.189305
4.087837
4.061419
4.114024
4.067032
3.964162
4.003207
4.125250
4.169438
4.168971
4.148164
4.040618
3.867609
3.691327
3.552218
3.388327
3.096315
2.827917
2.713824
2.617735
2.554376
2.586641
2.601137
2.678525
2.949263
3.167864
3.119002
3.065229
3.178855
3.147060
2.935942
2.874454
2.842424
2.664038
2.618682
2.737218
2.745869
2.713840
2.805022
2.877733
2.831208
2.816714
2.882178
2.957228
3.106859
3.248774
3.224694
3.246204
3.389990
3.430438
3.456858
3.541493
3.482577
3.324297
3.142871
2.837533
2.517465
2.301905
2.125389
2.008959
1.940925
1.818416
1.706661
1.682347
1.660839
1.625302
1.624134
1.586260
1.459075
1.315056
1.215927
1.143918
1.061856
0.951505
0.804447
0.683809
0.637751
0.562470
0.485083
0.535117
0.534650
0.360939
0.166655
-0.099172
-0.527955
-0.970767
-1.380612
-1.790692
-2.064468
-2.174819
-2.296159
-2.447191
-2.544684
-2.589339
-2.516393
-2.335667
-2.217598
-2.189776
-2.210583
-2.295684
-2.417960
-2.565952
-2.691267
-2.749482
-2.852118
-3.017879
-3.076328
-2.990056
-2.890925
-2.780806
-2.569218
-2.321392
-2.057435
-1.672136
-1.234233
-0.946427
-0.839348
-0.682703
-0.382740
-0.185882
-0.126029
-0.056356
-0.050511
-0.072253
0.003030
0.103564
0.162248
0.136063
-0.002577
-0.162260
-0.268637
-0.344387
-0.436034
-0.582624
-0.721967
-0.720096
-0.674037
-0.813847
-1.064009
-1.204053
-1.256890
-1.349941
-1.405817
-1.245198
-0.923492
-0.614645
-0.371729
-0.219994
-0.122499
-0.000456
0.113871
0.261398
0.507587
0.698834
0.815266
1.055377
1.340610
1.548924
1.816389
2.053461
2.067489
2.041305
2.108639
2.149788
2.230449
2.452557
2.697344
2.978369
3.341925
3.605181
3.748266
3.885038
4.010354
4.167233
4.282963
4.241816
4.198330
4.170977
3.995396
3.761132
3.599579
3.446910
3.255197
3.074473
2.939806
2.854237
2.824779
2.833898
2.899596
3.024679
3.050397
2.935136
2.870375
2.868505
2.878325
3.028658
3.260118
3.434999
3.687735
4.004765
4.166319
4.170061
4.113950
4.068828
4.086832
4.108342
4.053634
3.903069
3.781729
3.756246
3.598200
3.348973
3.281640
3.228569
3.044104
2.884889
2.782253
2.696450
2.543781
2.271174
2.049769
1.959056
1.885411
1.770617
1.614909
1.439094
1.303960
1.219093
1.102429
0.924276
0.673179
0.325523
0.039823
-0.132484
-0.409767
-0.718379
-0.853279
-1.020443
-1.323444
-1.462318
-1.391477
-1.366694
-1.377915
-1.312919
-1.256573
-1.211683
-1.121436
-1.068130
-1.031890
-0.903301
-0.769101
-0.756709
-0.849759
-0.997986
-1.121430
-1.111376
-0.955432
-0.743845
-0.548390
-0.396654
-0.355973
-0.411850
-0.434761
-0.424473
-0.420498
-0.393610
-0.383322
-0.410208
-0.435925
-0.417688
-0.363680
-0.362978
-0.347780
-0.231115
-0.118657
0.032377
0.285112
0.478463
0.639317
0.898832
1.138475
1.301433
1.460416
1.501799
1.422075
1.474680
1.639742
1.728352
1.773709
1.737705
1.558617
1.448733
1.517704
1.642553
1.798964
1.982729
2.101032
2.218866
2.458275
2.657238
2.684827
2.688334
2.623573
2.333666
1.977359
1.646303
1.178709
0.631391
0.193957
-0.195315
-0.622929
-1.007291
-1.337880
-1.709616
-2.068728
-2.251791
-2.316552
-2.462440
-2.674494
-2.836514
-2.984273
-3.129928
-3.138344
-3.030095
-2.985439
-2.935640
-2.759823
-2.612530
-2.535844
-2.399072
-2.220683
-2.044400
-1.851750
-1.633616
-1.400286
-1.226106
-1.197582
-1.316818
-1.427637
-1.376668
-1.283616
-1.304891
-1.397240
-1.461066
-1.443296
-1.414071
-1.436281
-1.447736
-1.453580
-1.482336
-1.529329
-1.592453
-1.594791
-1.521377
-1.391152
-1.216504
-1.136311
-1.141220
-1.098902
-1.041153
-0.962830
-0.860660
-0.811562
-0.724354
-0.537783
-0.415740
-0.381839
-0.265641
-0.155755
-0.230570
-0.321282
-0.336478
-0.453142
-0.653038
-0.844284
-1.080418
-1.326606
-1.546608
-1.759129
-1.838853
-1.757491
-1.646203
-1.493065
-1.337589
-1.267449
-1.160135
-1.013309
-0.906931
-0.750987
-0.624970
-0.646011
-0.651387
-0.568622
-0.502457
-0.507599
-0.577738
-0.542901
-0.296011
0.007693
0.327996
0.703943
1.048795
1.363019
1.665553
1.900053
2.072830
2.256128
2.485016
2.676497
2.821452
2.999840
3.137781
3.256785
3.529159
3.878687
4.133059
4.346985
4.650922
5.027102
5.399075
5.771047
6.100001
6.335201
6.559414
6.771469
6.824541
6.675380
6.451403
6.222282
5.926062
5.588226
5.263482
4.933361
4.641349
4.405682
4.169314
3.917048
3.688628
3.506501
3.266626
2.859118
2.324658
1.759104
1.291744
0.956245
0.599004
0.250179
0.149180
0.240595
0.293200
0.305125
0.308633
0.303490
0.396542
0.559266
0.701883
0.925861
1.208757
1.331034
1.254583
1.091393
0.857363
0.559038
0.278716
0.089341
-0.013061
-0.136973
-0.321204
-0.481822
-0.684757
-0.959702
-1.097408
-1.099044
-1.096471
-0.950581
-0.692234
-0.566918
-0.413780
-0.104699
0.008459
-0.094411
-0.137662
-0.269523
-0.525063
-0.655287
-0.754416
-0.954078
-1.157949
-1.351532
-1.535062
-1.659675
-1.637697
-1.424474
-1.218965
-1.157709
-1.108611
-0.993348
-0.866395
-0.742015
-0.564094
-0.385706
-0.312760
-0.295692
-0.281430
-0.287742
-0.358348
-0.423342
-0.392948
-0.442512
-0.558475
-0.546784
-0.438769
-0.398555
-0.534858
-0.374239
0.064834
-0.046921
-0.153064
0.227091
0.235509
0.124923
0.303078
0.210261
0.008261
-0.051824
-0.316482
-0.713936
-0.993323
-1.149031
-1.201869
-1.375579
-1.541107
-1.263121
-1.106710
-1.328115
-1.090109
-0.681197
-0.666233
-0.542086
-0.323952
-0.267372
-0.183204
-0.159123
-0.250536
-0.357147
-0.463992
-0.565459
-0.817024
-1.182215
-1.347275
-1.394033
-1.545065
-1.642558
-1.619879
-1.594628
-1.545062
-1.555582
-1.706147
-1.940177
-2.284794
-2.627773
-2.909031
-3.320981
-3.757012
-3.989405
-4.146516
-4.403225
-4.723760
-5.006420
-5.257518
-5.543685
-5.774442
-5.835462
-5.851360
-5.878713
-5.781686
-5.620132
-5.522871
-5.483359
-5.431689
-5.169835
-4.716501
-4.407654
-4.256153
-4.023758
-3.759332
-3.560837
-3.306231
-2.970965
-2.700227
-2.587770
-2.662584
-2.737632
-2.522538
-2.191013
-1.995557
-1.728326
-1.383241
-1.197605
-1.076497
-0.983679
-1.024593
-1.100810
-1.162531
-1.191755
-1.167907
-1.297196
-1.631058
-1.889871
-1.941071
-1.904131
-1.917690
-2.009805
-2.142368
-2.326131
-2.527430
-2.673786
-2.795828
-2.864797
-2.812893
-2.814763
-2.996189
-3.163353
-3.221334
-3.272067
-3.325606
-3.396913
-3.550284
-3.764207
-3.992393
-4.123552
-4.155581
-4.329292
-4.549528
-4.578284
-4.689571
-4.905365
-4.879647
-4.885491
-5.136355
-5.179139
-4.976669
-4.930143
-4.959601
-4.832414
-4.619658
-4.334658
-4.045216
-4.028850
-4.217757
-4.289766
-4.223367
-4.153928
-4.104128
-3.952861
-3.719296
-3.673705
-3.746415
-3.679315
-3.638867
-3.712980
-3.691236
-3.544878
-3.394546
-3.406468
-3.647279
-3.915677
-4.091726
-4.217274
-4.231769
-4.180333
-4.286710
-4.466265
-4.342585
-3.991421
-3.846232
-3.914968
-3.972247
-3.975052
-3.940449
-3.905847
-3.842019
-3.771879
-3.798999
-3.776553
-3.652640
-3.584137
-3.444091
-3.219411
-3.156051
-3.102277
-2.864972
-2.691728
-2.669282
-2.636550
-2.673957
-2.797868
-2.799972
-2.704816
-2.615270
-2.418178
-2.142531
-1.987288
-1.908966
-1.807731
-1.720523
-1.522496
-1.180918
-0.984995
-0.934026
-0.673575
-0.171144
0.271201
0.575606
0.890765
1.251282
1.689652
2.207748
2.626947
2.903063
3.112078
3.151357
2.939537
2.624379
2.356682
2.124289
1.857527
1.531848
1.188634
0.864826
0.534939
0.228432
0.065709
0.101949
0.175362
0.137254
0.158296
0.330138
0.460832
0.549909
0.676862
0.778565
0.902478
1.085776
1.240784
1.356748
1.438111
1.526019
1.732697
1.906643
1.876250
1.918334
2.184396
2.375877
2.442043
2.632120
2.844175
2.869193
2.941437
3.175702
3.318553
3.501851
3.911699
4.171682
4.181970
4.350538
4.641617
4.740748
4.753607
4.864662
5.006110
5.045389
4.942986
4.836142
4.757119
4.573589
4.383279
4.270823
4.106932
3.956601
3.915220
3.817727
3.595387
3.335639
3.018844
2.664876
2.413311
2.313714
2.293842
2.258072
2.189103
2.088805
1.902469
1.722680
1.714264
1.773181
1.699302
1.519513
1.337620
1.109200
0.828645
0.622436
0.466027
0.243452
0.009422
-0.173173
-0.342207
-0.502591
-0.613878
-0.663676
-0.701784
-0.709499
-0.604055
-0.523628
-0.643799
-0.840890
-1.001040
-1.221978
-1.591610
-2.042371
-2.360334
-2.462970
-2.480270
-2.441927
-2.383711
-2.415740
-2.385346
-2.174226
-2.014775
-1.962404
-1.844335
-1.679274
-1.499249
-1.312210
-1.252358
-1.296077
-1.329977
-1.417182
-1.523793
-1.493866
-1.401983
-1.339325
-1.213775
-1.105058
-1.128671
-1.101316
-0.933682
-0.820991
-0.850916
-0.903754
-0.938121
-1.021352
-1.080970
-1.061798
-1.140353
-1.316167
-1.343521
-1.251638
-1.263093
-1.321775
-1.254908
-1.111824
-0.953075
-0.725121
-0.481270
-0.276229
-0.115610
-0.036819
0.106032
0.348247
0.398748
0.337260
0.477305
0.693802
0.817716
0.912638
1.004755
1.110900
1.232943
1.334178
1.465573
1.672718
1.949535
2.332495
2.759644
3.043241
3.123434
3.069428
2.975909
2.958609
3.026411
3.090239
3.144714
3.234961
3.320765
3.318428
3.275176
3.335964
3.549890
3.842137
4.081313
4.240763
4.487654
4.834610
5.016505
4.986580
4.960395
4.979100
4.937251
4.777802
4.540732
4.375205
4.263450
4.036668
3.809184
3.738578
3.674051
3.483974
3.207860
2.917251
2.665686
2.437267
2.269168
2.229423
2.219838
2.194822
2.275016
2.432362
2.455275
2.278291
2.116504
2.103413
2.111596
2.128431
2.190855
2.103883
1.826367
1.540901
1.261047
0.954539
0.686608
0.482738
0.322588
0.190493
0.100248
0.006029
-0.173995
-0.324793
-0.289021
-0.095904
0.161508
0.425232
0.642430
0.721922
0.650381
0.468721
0.085996
-0.481195
-1.051192
-1.574663
-1.991289
-2.262493
-2.521306
-2.764455
-2.921799
-3.106031
-3.308966
-3.365076
-3.314809
-3.366945
-3.595131
-3.856048
-4.004508
-4.073010
-4.104805
-4.069969
-4.022741
-3.980189
-3.832195
-3.670640
-3.644921
-3.510721
-3.148568
-2.977662
-3.094092
-3.062528
-2.899103
-2.964332
-3.092218
-3.002439
-2.881098
-2.859120
-2.828725
-2.791317
