EVENT_NAME: 202302060117
EVENT_ID: 13194
EVENT_DATE_YYYYMMDD: 2023/02/06
EVENT_TIME_HHMMSS: 01:17:32.00000
EVENT_LATITUDE_DEGREE: 37.288
EVENT_LONGITUDE_DEGREE: 37.043
EVENT_DEPTH_KM: 8.6
HYPOCENTER_REFERENCE: AFAD
MAGNITUDE_W: 7.7
MAGNITUDE_W_REFERENCE: AFAD
MAGNITUDE_L: 
MAGNITUDE_L_REFERENCE: 
FOCAL_MECHANISM: 
NETWORK: TK
STATION_CODE: 2902
STATION_NAME: 
STATION_LATITUDE_DEGREE: 40.12439
STATION_LONGITUDE_DEGREE: 39.43658
STATION_ELEVATION_M: 1416.0
LOCATION: Kahramanmaras_Pazarck_Turkiye
SENSOR_DEPTH_M: 
VS30_M/S: 594
SITE_CLASSIFICATION_EC8: B
MORPHOLOGIC_CLASSIFICATION: 
EPICENTRAL_DISTANCE_KM: 377.60
EARTHQUAKE_BACKAZIMUTH_DEGREE: 
DATE_TIME_FIRST_SAMPLE_YYYYMMDD_HHMMSS: 2023/02/06 01:18:00.1894990
DATE_TIME_FIRST_SAMPLE_PRECISION: millisecond
SAMPLING_INTERVAL_S: 0.01
NDATA: 21001
DURATION_S: 
STREAM: HNZ
UNITS: cm/s^2
INSTRUMENT: sensor = CMG-5T/GURALP | digitizer = 
INSTRUMENT_ANALOG/DIGITAL: 
INSTRUMENTAL_FREQUENCY_HZ: 
INSTRUMENTAL_DAMPING: 
FULL_SCALE_G: 
N_BIT_DIGITAL_CONVERTER: 
PGA_CM/S^2: 4.924
TIME_PGA_S: 
BASELINE_CORRECTION: BASELINE REMOVED
FILTER_TYPE: BUTTERWORTH
FILTER_ORDER: 
LOW_CUT_FREQUENCY_HZ: 
HIGH_CUT_FREQUENCY_HZ: 
LATE/NORMAL_TRIGGERED: 
DATABASE_VERSION: 
HEADER_FORMAT: DYNA 1.2
DATA_TYPE: Acceleration
PROCESSING: Automatic Paolucci et al., 2011
DATA_TIMESTAMP_YYYYMMDD_HHMMSS: 
DATA_LICENSE: U (unknown license)
DATA_CITATION: Turkish Accelerometric Archive v 1.0 - Disaster And Emergency Management Presidency, Earthquake Department
DATA_CREATOR: AFAD
ORIGINAL_DATA_MEDIATOR_CITATION: : AFAD - Disaster And Emergency Management Presidency
ORIGINAL_DATA_MEDIATOR: AFAD PROCESS SERVICE
ORIGINAL_DATA_CREATOR_CITATION: AFAD PROCESS SERVICE
ORIGINAL_DATA_CREATOR: network: TK
USER1: GuestUser
USER2: 
USER3: 
USER4: 
USER5: 
[...]
-0.021288
0.052395
-0.126503
-0.136494
-0.257007
-0.458384
-0.252324
-0.180827
-0.449330
-0.521763
-0.380955
-0.337245
-0.512396
-0.566721
-0.377520
-0.530504
-0.178953
-0.269807
-0.196437
0.166354
0.156675
0.184150
0.278126
0.404260
0.367419
0.569108
0.737703
0.665270
0.674012
0.712726
0.747382
0.949696
0.770486
0.587530
0.649972
0.694306
0.528834
0.512599
0.568485
0.504482
0.526025
0.702425
0.675574
0.890376
0.802645
0.628743
0.860092
0.501673
0.576292
0.605327
0.398643
0.281564
0.219746
0.253152
0.182905
0.184154
-0.081226
-0.345046
-0.238581
-0.449949
-0.650701
-0.740306
-0.951986
-0.844897
-0.724383
-0.884235
-0.824915
-0.786513
-0.818670
-0.782141
-0.895474
-0.707835
-0.645704
-0.871121
-0.827099
-0.712517
-0.986327
-0.677862
-0.462123
-0.598872
-0.414979
-0.190498
-0.237642
-0.146164
0.029300
-0.159276
0.026178
0.218188
0.247536
0.435800
0.762999
0.758628
0.887884
1.025570
1.139839
1.416459
1.312805
1.273467
1.474843
1.360574
1.318113
1.327792
1.232255
1.140777
1.132347
1.143899
1.072715
0.963441
0.747078
1.085516
0.981862
0.835434
1.023386
1.187610
1.130787
1.042744
0.987170
0.923479
1.162946
0.749265
0.532902
0.664343
0.597842
0.519477
0.336833
0.251911
0.436429
0.450791
0.100176
0.097991
0.306237
0.043042
-0.058739
-0.106508
-0.308821
-0.299142
-0.272916
-0.404045
-0.510510
-0.483659
-0.477727
-0.541106
-0.519251
-0.404981
-0.216093
-0.145533
-0.212658
-0.011906
-0.108691
0.064274
0.050849
0.097993
0.406771
0.462033
0.552887
0.670279
0.915053
0.919112
1.027450
1.187303
1.526053
1.473289
1.426770
1.604106
1.761773
1.895713
1.679974
1.773326
1.979698
1.902894
2.050570
2.017788
1.912573
2.036209
1.983445
1.935989
1.971269
2.031214
1.902895
1.943170
1.930994
1.873859
1.831086
1.763337
1.566331
1.587873
1.542915
1.376506
1.344036
1.205726
1.275662
1.292834
1.331548
1.191989
1.161705
1.185745
1.220713
1.162954
1.133918
1.211035
1.190741
1.186370
0.977188
0.940347
0.958768
1.008722
1.142973
1.163892
1.068355
1.105820
1.213534
1.176068
1.081156
0.982809
1.083342
1.042442
1.142350
1.235702
1.072415
1.340917
1.352469
1.222277
1.260991
1.117998
1.149219
1.195427
1.090836
0.761452
0.687146
0.835135
0.801104
0.685585
0.557578
0.487018
0.388984
0.444558
0.324981
0.353392
0.308121
0.162631
0.304375
0.348709
0.381804
0.372750
0.192916
0.153577
0.488581
0.453613
0.288141
0.184486
0.303127
0.319675
0.195102
0.189170
0.232255
0.441126
0.649996
0.729298
0.830454
1.113943
1.019343
1.274420
1.328121
1.265991
1.437083
1.430527
1.476110
1.541362
1.649700
1.746174
1.983767
2.035907
1.870435
1.963162
1.942868
1.970343
2.123327
1.994696
1.916955
1.943493
1.948489
1.990637
1.950674
1.699968
1.874182
1.744302
1.832034
1.749298
1.555726
1.579455
1.556976
1.567903
1.314075
1.418354
1.130806
1.125187
1.251008
1.119255
0.930367
0.905702
1.119567
1.101147
0.893838
0.779256
0.867300
0.821093
0.619404
0.549781
0.503261
0.438634
0.302509
0.168570
0.056486
-0.073394
-0.211392
-0.380611
-0.315358
-0.574494
-0.707496
-0.746211
-0.811775
-0.683768
-0.922298
-1.213904
-1.123050
-1.000975
-1.135539
-1.216089
-1.204225
-1.281653
-1.442443
-1.471166
-1.444316
-1.482406
-1.363765
-1.255739
-1.348778
-1.203287
-1.028136
-1.129917
-1.084959
-0.921047
-0.832691
-0.885767
-0.847989
-0.687200
-0.635997
-0.508614
-0.330653
-0.236677
0.013717
0.087399
0.073350
0.231954
0.393367
0.659997
0.647821
0.806737
1.048389
1.169215
1.233843
1.261006
1.385891
1.547305
1.779278
1.745247
1.763044
1.911657
2.098984
2.171105
2.223245
2.227616
2.280068
2.278507
2.188277
2.308791
2.207635
2.011878
1.911033
1.847030
1.737756
1.543872
1.448960
1.516086
1.398069
1.194819
1.096473
0.950982
0.844830
0.796125
0.611920
0.457999
0.370580
0.176384
0.084594
0.060866
-0.093991
-0.189840
-0.212944
-0.406515
-0.463650
-0.537644
-0.642235
-0.651602
-0.706239
-0.885760
-1.020324
-1.073400
-1.269469
-1.323481
-1.374996
-1.473031
-1.487393
-1.512057
-1.622268
-1.608218
-1.746840
-1.714683
-1.470845
-1.579807
-1.564508
-1.481147
-1.397474
-1.282268
-1.139899
-1.139275
-1.148329
-1.050294
-0.863279
-0.790533
-0.890129
-0.809578
-0.807392
-0.749945
-0.536704
-0.494868
-0.489560
-0.276943
-0.261957
-0.275070
-0.149873
-0.124583
-0.049028
0.103956
0.135490
0.103956
0.349667
0.495158
0.437712
0.415232
0.562597
0.770218
0.780833
0.821109
0.994386
1.047463
1.014368
1.120833
1.088051
1.143624
1.264451
1.202945
1.183900
1.238850
1.288491
1.261329
1.230108
1.172661
1.094296
1.104287
1.100540
1.055582
1.028420
1.005316
1.039659
1.011560
1.003755
1.006565
0.999384
1.073691
1.162672
1.105537
1.047465
1.064637
1.115216
1.268512
1.240725
1.073380
1.189210
1.241662
1.315657
1.407447
1.340322
1.489559
1.507043
1.499238
1.472700
1.515785
1.552314
1.553875
1.582911
1.540451
1.530460
1.516410
1.577604
1.516098
1.469891
1.442104
1.436797
1.404639
1.366862
1.354373
1.210756
1.294429
1.275696
1.124273
1.076505
1.003447
0.802071
0.622236
0.650960
0.511714
0.344680
0.167656
0.118639
0.061192
-0.020296
-0.182021
-0.440533
-0.468944
-0.662516
-0.879503
-1.180163
-1.263524
-1.281007
-1.511420
-1.711860
-1.853916
-1.781795
-1.837057
-1.842052
-1.955073
-2.063098
-2.004090
-1.991914
-1.986606
-1.975054
-2.091821
-2.133657
-1.975990
-1.867028
-1.796156
-1.906054
-1.883263
-1.787726
-1.756817
-1.721537
-1.574797
-1.623814
-1.605705
-1.387157
-1.428057
-1.467395
-1.427744
-1.340949
-1.340637
-1.319718
-1.413070
-1.433676
-1.318781
-1.301610
-1.258836
-1.248221
-1.225430
-1.236669
-1.157992
-1.106164
-1.102730
-1.118652
-1.026550
-0.890425
-0.990333
-0.951306
-0.881995
-0.835475
-0.754612
-0.594760
-0.610058
-0.547303
-0.348424
-0.318764
-0.152354
-0.159223
-0.191069
-0.149232
-0.081482
-0.034650
-0.031528
-0.119571
-0.175769
-0.078047
-0.092409
-0.158285
-0.165778
-0.154539
-0.212922
-0.219791
-0.317201
-0.417421
-0.466750
-0.504528
-0.614426
-0.768659
-0.852644
-0.991891
-1.041532
-1.104911
-1.238538
-1.326894
-1.358739
-1.360300
-1.458647
-1.611943
-1.694055
-1.860776
-1.967240
-2.047479
-2.097432
-2.141142
-2.232620
-2.269149
-2.253850
-2.289442
-2.327220
-2.335025
-2.385291
-2.334088
-2.420883
-2.424317
-2.313794
-2.205769
-2.275704
-2.293188
-2.234180
-2.240424
-2.132398
-2.116788
-2.060589
-1.931021
-1.772417
-1.867330
-1.807385
-1.618184
-1.659708
-1.712784
-1.617872
-1.487055
-1.404631
-1.270691
-1.276623
-1.141748
-1.008121
-0.868562
-0.943805
-1.155172
-1.073685
-1.072124
-1.016238
-0.914768
-1.034033
-1.225107
-1.006871
-0.802372
-0.764594
-0.785824
-0.946613
-1.034657
-0.822040
-0.606926
-0.848266
-0.859818
-0.873867
-0.847641
-0.676237
-0.657816
-0.744299
-0.757099
-0.839523
-0.875740
-0.727751
-0.671553
-0.728375
-0.796125
-0.658127
-0.881047
-0.714638
-0.802681
-0.874178
-0.775206
-0.895720
-0.617227
-0.334675
-0.175446
-0.295024
-0.517631
-0.947235
-0.926941
-1.031219
-1.357169
-1.369345
-0.797372
-0.160459
0.251661
-0.326244
-1.128941
-1.089290
-0.876986
0.503617
1.764642
1.371255
0.679705
-0.151404
-1.268811
-1.458948
-1.464256
-0.398363
2.291032
4.393469
4.028806
2.279481
-1.020602
-4.138977
-3.770566
-2.802709
-2.937272
-2.117403
-2.074317
-2.269450
-2.199514
-3.849868
-4.473043
-3.810841
-2.735270
-1.875750
0.077762
1.242001
2.219226
2.418417
0.515484
-1.338120
-0.942234
0.308488
-0.183246
1.518934
1.728741
0.920736
0.682518
1.668485
2.019411
1.744977
2.072175
1.404978
2.627601
3.937643
2.839281
0.323788
0.154569
0.485826
-0.314062
-1.441148
-2.808949
-3.635687
-2.266948
-2.655965
-3.593538
-0.615970
0.809903
0.538591
-1.103333
-2.437103
-0.445190
0.478022
0.314735
0.385607
1.052181
3.618565
3.566113
1.648818
1.380316
1.547350
0.685956
1.151465
2.100902
1.885788
1.709388
2.050012
3.134013
3.133388
2.862700
2.840533
3.702864
1.903897
-0.479531
-0.540724
-1.206985
-1.409298
-3.236988
-3.429623
-1.735559
-2.160792
-1.935063
-1.963786
-3.197649
-3.621321
-3.876086
-2.370911
-0.506067
-1.773648
-3.516105
-3.031551
-1.683731
-1.817046
-1.565090
-1.645016
-1.441454
0.504252
1.387189
2.319454
2.020980
0.291012
0.195787
0.939165
0.853306
1.840521
2.912658
2.257325
1.483975
-0.562263
-1.406172
-0.963768
-1.398055
-1.695593
-1.502021
-0.870728
-1.186687
-1.024024
-0.216643
-0.693703
-1.842332
-2.514837
-1.921321
-1.769586
-1.260368
-0.025569
1.131490
2.331009
2.289173
1.844895
1.986952
3.114038
2.317272
0.631951
1.218910
3.280135
3.906745
3.383790
2.762175
2.848034
3.529905
2.795895
3.734092
3.538960
2.089983
2.961055
3.966378
2.929834
1.843648
2.067192
1.375954
0.084957
-0.503563
0.127106
0.994432
1.500528
1.431841
1.389068
2.954188
3.590476
2.814317
2.124953
2.422179
3.051599
1.638214
0.941669
0.715003
1.216728
2.070941
0.698144
0.064978
0.629457
0.394362
0.885159
1.431843
0.932928
1.682550
1.974780
1.632596
1.395939
1.056877
0.925748
0.138661
0.158330
0.185805
-0.042422
0.068726
0.087146
-0.036802
0.466484
0.653500
0.258864
1.889236
2.258583
2.235167
2.157426
0.925125
0.433079
0.540792
0.641637
-0.549141
-0.961885
-0.745834
0.112750
0.943546
1.382829
1.628540
1.325694
2.238915
2.764993
3.382861
3.087820
2.055022
1.882369
1.453702
1.272619
1.692545
2.136510
1.750616
1.483675
0.594183
1.231720
1.916714
1.546118
1.494915
1.215798
2.507732
2.837740
2.970118
2.265143
0.656002
1.085293
1.170527
0.822411
0.809923
0.060614
0.304451
1.312585
0.979766
0.197675
0.515507
1.036902
0.799620
0.732495
0.651008
1.916716
3.353517
2.553005
1.305717
0.869869
0.833340
0.568272
0.545793
0.581698
0.045005
0.009101
0.793065
0.830531
0.166768
-0.078006
0.559531
1.228290
1.309465
1.905166
2.450913
2.253283
2.845237
3.057854
2.392842
1.967609
1.015986
0.650074
0.684730
1.022231
0.667870
0.793380
1.819933
2.667277
3.087827
2.510235
2.914550
3.260169
2.663844
1.963864
1.481496
0.731251
0.973215
1.083738
0.956668
0.387193
0.332868
0.749672
0.617606
1.314776
1.020672
1.627613
2.854919
2.942338
2.060339
1.124952
0.948552
0.622915
-0.263143
-1.237558
-1.234748
0.026278
0.551419
0.801501
0.826478
0.617920
0.963539
0.751547
0.393128
0.848333
1.407505
1.359737
1.450591
1.049086
-0.163234
-0.924095
-0.481378
0.325066
1.407506
2.495878
1.956687
0.888610
1.157424
1.168352
1.335073
1.156488
1.017554
1.654779
1.884567
2.092188
2.602343
2.287009
1.479629
1.361612
0.759043
0.586078
1.244845
2.595475
3.662304
3.314500
2.162125
1.754064
2.622326
3.144969
2.367249
1.716287
1.651347
3.003538
3.344161
2.638250
2.438122
1.846168
2.282328
1.951071
1.257336
0.807126
0.285419
0.343803
1.274196
1.336950
1.172415
1.937335
2.502751
2.055351
1.448411
1.336327
1.425307
2.114672
1.793718
0.662885
0.127129
0.391573
0.855208
1.038789
0.298846
0.836476
1.505547
1.237044
1.023179
0.071869
-0.326202
-0.247524
-0.159168
-0.905355
-1.256281
-0.941571
-0.905355
-0.693362
-1.537584
-1.968749
-1.413011
-0.769230
-0.349929
-0.731764
-0.812002
-0.081738
0.607939
0.575469
-0.088294
-0.409873
0.297288
0.378463
0.293230
0.344433
0.074994
-0.078615
-0.194758
-0.779219
-0.884434
-0.125134
0.181146
0.009117
-0.302782
0.170531
0.574846
0.006932
-0.379898
0.084673
0.380651
0.422487
-0.630292
-1.249721
-0.383644
-0.275931
-0.969979
-1.433614
-0.679309
0.648842
1.209263
0.295418
-0.287170
0.217990
0.868640
1.124342
1.099677
1.512422
1.415324
1.254222
0.776538
-0.342118
-0.508527
-0.826359
-0.999325
-0.587517
-0.585019
-0.120135
0.091233
0.433105
1.215821
1.336960
1.216758
1.335399
1.419072
1.356317
1.027246
0.559864
0.075311
-0.504779
-0.527570
-0.263126
0.337882
0.907669
1.440303
1.722231
1.210516
1.351011
1.342581
0.713162
0.939204
1.090314
1.041297
0.609820
0.528957
0.764990
0.316653
-0.038332
-0.496347
-0.887237
-1.356804
-1.164793
-0.992140
-0.826043
-0.441709
-0.268432
-0.164153
-0.174768
-0.052068
0.227362
0.683504
0.578601
0.286370
0.319465
0.389713
0.639483
0.658215
0.211128
0.006629
-0.143233
-0.156034
-0.188191
-0.461377
-0.691789
-0.449513
0.043471
-0.126685
-1.232228
-1.555992
-1.465763
-1.852281
-2.044292
-2.092997
-2.202895
-2.585043
-2.735529
-2.968751
-2.990294
-2.516356
-2.249102
-1.964677
-1.671822
-2.254409
-2.235989
-1.425486
-1.320895
-1.044275
-0.146977
-0.433275
-0.265305
0.539578
0.046283
-0.757039
-1.186643
-1.427358
-1.837917
-1.648092
-1.634354
-1.763922
-1.612812
-1.162289
-1.056137
-0.933437
-0.770150
-1.059883
-1.341186
-1.425171
-1.166659
-1.189451
-0.853823
-0.760159
-0.496964
-0.386128
-0.802307
-0.672739
-0.753602
-1.134188
-1.198192
-0.896595
-0.787320
-0.723317
-1.166658
-2.111724
-2.616883
-3.087699
-3.372749
-3.298754
-3.164503
-2.362118
-1.100156
-0.172573
0.627626
0.787167
0.501493
0.108730
-0.538486
-0.861001
-1.554736
-2.313412
-2.895375
-3.477026
-4.029954
-4.283470
-4.015592
-3.477338
-2.658405
-1.580024
-1.038336
-1.221917
-0.917822
-0.773580
-0.799181
-1.332752
-2.009003
-2.114218
-1.860078
-1.991831
-2.548193
-3.338402
-4.017463
-3.501064
-3.519173
-3.544462
-2.515722
-0.760465
0.604839
1.609850
2.670435
2.736624
2.603934
2.496220
1.474975
0.195841
-0.131669
-0.567205
-0.796056
-0.859123
-1.835098
-3.066775
-3.921612
-4.342786
-4.924125
-4.902270
-4.822968
-4.344035
-3.390226
-2.792652
-1.804501
-1.228157
-0.900958
-1.003676
-0.640573
0.029434
-0.026764
0.403153
0.349452
-0.319931
-0.549094
-0.667423
-1.146044
-1.644959
-1.849145
-2.267197
-1.967161
-1.735500
-1.745491
-1.500092
-1.119505
-0.742977
-1.199431
-1.021158
-1.023655
-1.452323
-1.647767
-1.773901
-2.053018
-2.542879
-2.794834
-2.513843
-2.038344
-2.151677
-1.844148
-1.368961
-1.359907
-1.304333
-1.403304
-1.409548
-1.244075
-1.545360
-1.875993
-1.848830
-2.014615
-2.041153
-2.065505
-1.780767
-1.286848
-1.314010
-0.606225
-0.127604
0.178052
0.530852
0.573938
0.653240
0.652615
-0.055170
-0.499135
-0.354581
-0.727050
-0.992742
-1.238453
-0.786058
0.088136
0.563636
0.367879
0.321671
0.399725
0.449054
0.811533
0.910816
0.583930
0.688209
0.483398
0.592673
1.042258
1.174948
1.298585
1.392873
1.413479
0.839321
0.493390
0.277651
0.218643
-0.207526
-0.298068
-0.320547
0.506816
0.731296
0.333850
0.358203
-0.060161
-0.082328
-0.712997
-0.964015
-0.673658
-0.946531
-1.043941
-0.759516
-0.687083
-0.166625
0.395357
0.693520
0.792179
0.895834
1.133739
1.504960
1.825290
1.939872
1.710708
2.193388
2.747253
2.179651
2.185271
2.259578
1.985455
1.976401
1.646393
0.989187
0.992621
0.873356
0.234570
-0.279643
-0.501314
-0.580303
-0.299312
-0.176925
-0.552204
-0.413269
0.071908
0.361017
0.494644
0.483404
0.124985
-0.056098
-0.134151
-0.160377
-0.182231
-0.326161
-0.562506
-1.296516
-1.757966
-1.791997
-1.464486
-0.732036
-0.362377
-0.137896
0.130918
0.394738
0.821532
0.725058
-0.005206
-0.686765
-0.411394
-0.212826
-0.540337
-0.759822
-1.152585
-1.373007
-1.823841
-2.448265
-2.691790
-2.392691
-1.776696
-1.131666
-1.047681
-1.006156
-0.477581
-0.052036
0.137477
0.404106
0.593307
0.644822
0.599864
0.342289
0.260177
-0.201272
-0.719857
-0.812584
-0.957762
-1.017707
-0.956201
-0.999286
-0.511298
-0.014256
-0.486321
-0.628690
-0.067957
0.272667
0.440637
0.103760
-0.281821
0.114064
-0.062648
-0.327716
0.184624
0.609857
0.688222
0.821225
1.087230
1.295475
2.047907
1.954868
1.539938
1.665135
1.393198
1.188387
1.183392
0.967653
0.752227
1.223668
1.228975
0.918949
1.232410
1.551179
1.628607
1.924272
1.993896
2.238670
2.467522
2.010756
1.924897
1.994833
1.839664
1.427231
1.025415
0.894286
0.695406
0.725379
0.928941
1.123762
1.627048
1.933640
2.103484
2.098801
2.332336
2.440361
2.224935
2.175918
1.994835
2.212759
2.003577
1.230227
0.657318
0.456566
0.646391
0.337926
-0.417940
-0.308978
0.194620
0.070672
-0.274010
-0.324900
0.048193
0.524317
0.899596
0.796566
0.863068
1.185895
1.006998
1.006373
0.667935
0.373207
0.399745
0.630470
0.933941
1.232416
1.333260
0.849331
0.768469
0.813427
0.776586
0.403493
-0.053586
-0.415752
-0.899368
-1.253729
-1.639311
-1.795729
-1.014262
-0.331454
-0.101041
0.187131
0.285166
0.206176
0.048197
-0.175035
-0.380470
-0.091986
0.286727
0.164652
-0.268074
-0.349873
-0.357366
-0.456337
-0.656465
-0.868457
-0.873765
-0.890312
-0.989595
-0.654591
-0.393582
-0.252774
0.009172
0.106895
0.462192
0.473432
0.525259
0.479989
0.030715
-0.479751
-1.038611
-1.254974
-1.410768
-1.223753
-0.901237
-0.607446
-0.176280
-0.038907
0.131561
-0.056391
-0.052020
-0.099164
-0.340191
-0.170660
-0.143810
-0.213745
-0.381091
-0.312404
-0.363919
-0.457582
-0.870014
-0.994587
-0.631484
-0.270567
0.010737
0.034465
0.339184
0.553986
0.668256
0.438156
0.447210
0.691360
0.350736
-0.308343
-0.580280
-0.602447
-0.589022
-0.697047
-1.025182
-1.071702
-0.980535
-0.675816
-0.547809
-0.256827
0.044770
-0.234348
0.046331
0.202749
0.171841
0.308590
-0.139747
-0.155982
-0.172841
-0.324889
-0.304595
-0.183768
0.005120
-0.218736
-0.235283
-0.372344
-0.416678
0.064753
-0.081986
-0.855648
-1.037043
-1.135078
-1.514416
-1.505986
-1.614635
-1.820071
-1.759189
-1.760750
-1.696122
-1.641485
-1.362992
-0.928080
-0.806317
-0.420423
0.026977
0.442532
0.841851
0.997645
0.615185
0.619244
0.909290
0.733202
0.688868
0.611752
0.537133
0.340127
0.340440
0.476564
0.908978
1.024185
1.125029
1.492191
1.289253
1.253661
1.319538
1.234928
1.242734
1.187785
0.831863
0.433168
0.389146
0.603012
0.518090
0.547126
0.627052
0.524022
0.440662
0.209000
-0.053570
-0.430098
-0.595570
-0.532815
-0.519078
-0.317389
0.078496
0.393519
0.384152
0.363859
0.418496
0.734143
1.092250
1.232121
1.439430
1.301120
1.440367
1.796601
1.760697
1.562130
1.381047
1.250855
0.818129
0.708855
0.734144
0.548378
0.682941
0.700425
0.812510
1.068836
1.110360
1.161563
1.045108
0.709792
0.381033
0.374477
0.455964
0.253651
0.068509
-0.169397
-0.116945
-0.173767
-0.492848
-0.604620
-0.562783
-0.174079
0.019493
0.000448
0.063515
0.063203
-0.226530
-0.406677
-0.576520
-0.881863
-1.208749
-1.306159
-1.094792
-1.239034
-1.249649
-1.173781
-1.525020
-1.875946
-2.249352
-2.836310
-3.039560
-2.842242
-2.797284
-3.041433
-2.874088
-2.540020
-2.364557
-2.092308
-2.293685
-2.453225
-2.412637
-2.546576
-2.425750
-2.103859
-1.744191
-1.456019
-1.174715
-0.992383
-1.047645
-0.764468
-0.373891
-0.277729
-0.146288
0.022619
0.089745
0.587099
0.941772
0.790037
0.542141
0.217752
0.343574
0.576172
0.544327
0.487816
0.662967
0.877457
0.951139
0.831250
0.579295
0.716981
0.772242
0.488442
0.234301
0.122217
0.193089
0.347010
0.369489
0.120344
0.171235
0.285192
0.202144
0.253035
0.246166
0.150629
-0.035449
-0.221528
-0.435081
-0.633960
-0.654878
-0.726374
-0.592123
-0.633647
-0.869055
-0.927438
-1.111331
-0.972085
-1.086666
-1.388263
-1.421670
-1.530632
-1.572156
-1.521890
-1.537812
-1.571219
-1.462257
-1.292101
-1.260567
-1.336747
-1.224663
-1.022037
-0.830339
