EVENT_NAME: 202302060117
EVENT_ID: 13194
EVENT_DATE_YYYYMMDD: 2023/02/06
EVENT_TIME_HHMMSS: 01:17:32.00000
EVENT_LATITUDE_DEGREE: 37.288
EVENT_LONGITUDE_DEGREE: 37.043
EVENT_DEPTH_KM: 8.6
HYPOCENTER_REFERENCE: AFAD
MAGNITUDE_W: 7.7
MAGNITUDE_W_REFERENCE: AFAD
MAGNITUDE_L: 
MAGNITUDE_L_REFERENCE: 
FOCAL_MECHANISM: 
NETWORK: TK
STATION_CODE: 1211
STATION_NAME: 
STATION_LATITUDE_DEGREE: 38.96616
STATION_LONGITUDE_DEGREE: 41.0504
STATION_ELEVATION_M: 1383.0
LOCATION: Kahramanmaras_Pazarck_Turkiye
SENSOR_DEPTH_M: 
VS30_M/S: 463
SITE_CLASSIFICATION_EC8: B
MORPHOLOGIC_CLASSIFICATION: 
EPICENTRAL_DISTANCE_KM: 397.05
EARTHQUAKE_BACKAZIMUTH_DEGREE: 
DATE_TIME_FIRST_SAMPLE_YYYYMMDD_HHMMSS: 2023/02/06 01:18:02.5943590
DATE_TIME_FIRST_SAMPLE_PRECISION: millisecond
SAMPLING_INTERVAL_S: 0.01
NDATA: 21001
DURATION_S: 
STREAM: HNZ
UNITS: cm/s^2
INSTRUMENT: sensor = CMG-5T/GURALP | digitizer = 
INSTRUMENT_ANALOG/DIGITAL: 
INSTRUMENTAL_FREQUENCY_HZ: 
INSTRUMENTAL_DAMPING: 
FULL_SCALE_G: 
N_BIT_DIGITAL_CONVERTER: 
PGA_CM/S^2: 8.577
TIME_PGA_S: 
BASELINE_CORRECTION: BASELINE REMOVED
FILTER_TYPE: BUTTERWORTH
FILTER_ORDER: 
LOW_CUT_FREQUENCY_HZ: 
HIGH_CUT_FREQUENCY_HZ: 
LATE/NORMAL_TRIGGERED: 
DATABASE_VERSION: 
HEADER_FORMAT: DYNA 1.2
DATA_TYPE: Acceleration
PROCESSING: Automatic Paolucci et al., 2011
DATA_TIMESTAMP_YYYYMMDD_HHMMSS: 
DATA_LICENSE: U (unknown license)
DATA_CITATION: Turkish Accelerometric Archive v 1.0 - Disaster And Emergency Management Presidency, Earthquake Department
DATA_CREATOR: AFAD
ORIGINAL_DATA_MEDIATOR_CITATION: : AFAD - Disaster And Emergency Management Presidency
ORIGINAL_DATA_MEDIATOR: AFAD PROCESS SERVICE
ORIGINAL_DATA_CREATOR_CITATION: AFAD PROCESS SERVICE
ORIGINAL_DATA_CREATOR: network: TK
USER1: GuestUser
USER2: 
USER3: 
USER4: 
USER5: 
[...]
0.222377
0.263559
0.285804
0.275885
0.231097
0.170078
0.113868
0.084410
0.081706
0.100944
0.125293
0.146636
0.175794
0.224190
0.294529
0.374187
0.450839
0.501339
0.507051
0.462264
0.368780
0.251850
0.143036
0.058570
0.005667
-0.030704
-0.062567
-0.109458
-0.170177
-0.242920
-0.306044
-0.337305
-0.320471
-0.264861
-0.200533
-0.152137
-0.138910
-0.150633
-0.173176
-0.180991
-0.177083
-0.174076
-0.194215
-0.253732
-0.337597
-0.407033
-0.410639
-0.317755
-0.125676
0.130430
0.390143
0.608674
0.747248
0.810373
0.824502
0.825705
0.846747
0.902357
0.990732
1.089929
1.186119
1.268182
1.322289
1.343932
1.331909
1.284717
1.211072
1.112479
0.992242
0.854872
0.718704
0.615902
0.572918
0.603579
0.705481
0.839546
0.974212
1.086334
1.178617
1.250760
1.319897
1.380617
1.427510
1.437130
1.424806
1.416992
1.425709
1.438636
1.434127
1.404369
1.328020
1.202372
1.009693
0.760202
0.483657
0.232362
0.046897
-0.059512
-0.091675
-0.070031
-0.019832
0.013835
0.004818
-0.057103
-0.162310
-0.281344
-0.393464
-0.486046
-0.544962
-0.573517
-0.591853
-0.612593
-0.618604
-0.596059
-0.541651
-0.464999
-0.364901
-0.241657
-0.124726
-0.031542
0.031283
0.083286
0.110641
0.121162
0.110041
0.082688
0.035796
-0.030634
-0.082336
-0.068808
0.037001
0.237196
0.509835
0.809827
1.078257
1.273042
1.371336
1.373141
1.287472
1.139581
0.965238
0.813740
0.716650
0.667353
0.621062
0.534793
0.412753
0.284401
0.189715
0.149736
0.185808
0.300335
0.470772
0.667961
0.853728
1.005228
1.080978
1.095106
1.079777
1.069257
1.061442
1.018157
0.907540
0.728988
0.528193
0.349942
0.225497
0.141332
0.095943
0.076405
0.061978
0.047550
0.026810
-0.005654
-0.059459
-0.126791
-0.188713
-0.227488
-0.218169
-0.154142
-0.023384
0.167493
0.396245
0.624696
0.805954
0.918076
0.974288
0.995931
1.002845
0.991424
0.960163
0.908161
0.831210
0.721795
0.600957
0.498756
0.432326
0.399863
0.378521
0.363492
0.339445
0.292854
0.199671
0.059295
-0.136390
-0.374459
-0.631465
-0.881558
-1.094076
-1.259101
-1.361302
-1.408795
-1.413303
-1.399775
-1.382942
-1.361298
-1.319515
-1.247372
-1.154488
-1.081744
-1.067616
-1.109698
-1.164706
-1.204984
-1.196567
-1.134344
-1.007493
-0.833148
-0.645277
-0.485361
-0.361817
-0.263222
-0.178153
-0.118335
-0.092483
-0.112321
-0.183561
-0.294179
-0.429745
-0.564410
-0.680739
-0.759494
-0.798570
-0.800072
-0.772718
-0.721316
-0.656086
-0.576128
-0.487152
-0.380441
-0.268319
-0.171227
-0.097280
-0.052191
-0.063312
-0.143569
-0.281240
-0.441756
-0.593254
-0.717398
-0.806072
-0.869196
-0.921799
-0.961477
-0.989131
-1.018588
-1.060069
-1.120788
-1.197739
-1.276494
-1.339317
-1.370578
-1.389214
-1.388612
-1.377189
-1.348331
-1.329694
-1.341116
-1.401835
-1.508244
-1.649522
-1.803425
-1.947107
-2.076662
-2.178563
-2.251305
-2.306614
-2.345690
-2.362523
-2.351400
-2.304507
-2.220941
-2.071546
-1.862032
-1.607730
-1.348618
-1.105438
-0.915162
-0.793722
-0.737510
-0.722180
-0.706849
-0.673783
-0.630196
-0.587812
-0.566770
-0.590516
-0.668369
-0.794316
-0.932588
-1.070259
-1.204623
-1.340491
-1.474254
-1.606213
-1.738173
-1.870132
-1.998785
-2.097379
-2.146074
-2.121726
-2.000286
-1.776043
-1.469738
-1.107523
-0.732984
-0.375578
-0.049735
0.253864
0.540631
0.805754
1.039917
1.233800
1.372374
1.432793
1.417464
1.357647
1.293922
1.258753
1.248533
1.231400
1.176994
1.062469
0.903456
0.727610
0.563787
0.424613
0.322112
0.264399
0.233439
0.200975
0.136649
0.045269
-0.043405
-0.104424
-0.138391
-0.167247
-0.216243
-0.276962
-0.332270
-0.356317
-0.338581
-0.257421
-0.102013
0.119825
0.376532
0.617908
0.826821
0.996356
1.128918
1.215790
1.265389
1.267493
1.205572
1.084133
0.917305
0.714405
0.487759
0.280952
0.117731
0.011622
-0.050900
-0.059617
-0.023244
0.006214
-0.024746
-0.146185
-0.360206
-0.631340
-0.912093
-1.162186
-1.353963
-1.489530
-1.557764
-1.552052
-1.471191
-1.334421
-1.140538
-0.877519
-0.554681
-0.215913
0.092496
0.328162
0.469742
0.506114
0.485374
0.446598
0.411730
0.361231
0.286083
0.201918
0.109336
-0.017513
-0.205082
-0.427220
-0.626813
-0.771698
-0.845042
-0.848047
-0.796044
-0.713681
-0.607571
-0.472904
-0.280825
-0.031332
0.263851
0.594503
0.944394
1.283463
1.587664
1.829642
2.003986
2.136849
2.272718
2.437142
2.609984
2.744350
2.794249
2.734131
2.551071
2.281740
1.958904
1.631559
1.338482
1.116044
0.969957
0.889098
0.844611
0.817859
0.815755
0.836798
0.880084
0.942006
1.001524
1.041504
1.046615
1.018059
0.963051
0.896922
0.838307
0.813959
0.840112
0.914359
1.035498
1.187900
1.368857
1.572660
1.780069
1.964333
2.082467
2.124250
2.087278
1.981771
1.820954
1.637894
1.479783
1.376079
1.344517
1.370369
1.434095
1.507140
1.547420
1.530888
1.471372
1.403739
1.332499
1.231200
1.064672
0.829008
0.559077
0.279225
0.033041
-0.160841
-0.288893
-0.361636
-0.395301
-0.422053
-0.446401
-0.473453
-0.510726
-0.558820
-0.607215
-0.652604
-0.704005
-0.796887
-0.930350
-1.091767
-1.248075
-1.359293
-1.410694
-1.406184
-1.358690
-1.284744
-1.220717
-1.190356
-1.206888
-1.271815
-1.374317
-1.486137
-1.597355
-1.697151
-1.779513
-1.812878
-1.774402
-1.653863
-1.473808
-1.266698
-1.060491
-0.880736
-0.755087
-0.673326
-0.590061
-0.465013
-0.294577
-0.095283
0.119341
0.343584
0.544080
0.685960
0.755398
0.782452
0.780048
0.752995
0.694380
0.604504
0.505910
0.434370
0.413630
0.431966
0.480663
0.523649
0.523048
0.440085
0.270251
0.045709
-0.189354
-0.396161
-0.560885
-0.671503
-0.735528
-0.779414
-0.816386
-0.865683
-0.904459
-0.942333
-0.987120
-1.044232
-1.110963
-1.181602
-1.256148
-1.350233
-1.460550
-1.564254
-1.636395
-1.670061
-1.678176
-1.669759
-1.638797
-1.575672
-1.477678
-1.359845
-1.236601
-1.109149
-0.989513
-0.886409
-0.841920
-0.878592
-0.993418
-1.152431
-1.298819
-1.377273
-1.351421
-1.229680
-1.029184
-0.790813
-0.556050
-0.360363
-0.228102
-0.154155
-0.134315
-0.167680
-0.247337
-0.346532
-0.436108
-0.492318
-0.518168
-0.519670
-0.504039
-0.494119
-0.505541
-0.548825
-0.606538
-0.658540
-0.682587
-0.657637
-0.573470
-0.431891
-0.233799
0.006375
0.257671
0.488227
0.649946
0.720887
0.699245
0.619288
0.529111
0.474704
0.460577
0.471399
0.475307
0.455168
0.414589
0.369501
0.312088
0.267000
0.270608
0.348462
0.493950
0.667092
0.851055
1.036221
1.235815
1.425490
1.583302
1.690915
1.728189
1.669574
1.524088
1.335617
1.183518
1.127608
1.154662
1.163079
1.083122
0.943348
0.790948
0.604881
0.319620
-0.055520
-0.445388
-0.796179
-1.116309
-1.395259
-1.582828
-1.642345
-1.568398
-1.399164
-1.191754
-1.019514
-0.932040
-0.906790
-0.848174
-0.697275
-0.501589
-0.306804
-0.141778
-0.024246
0.029561
0.030764
0.040985
0.107417
0.251401
0.467829
0.691170
0.841167
0.927437
0.993568
1.049780
1.064209
1.036555
0.964113
0.870028
0.778048
0.719733
0.743481
0.890471
1.151687
1.439355
1.649470
1.743556
1.733036
1.623020
1.449879
1.228944
1.018831
0.863425
0.770242
0.704413
0.613033
0.461836
0.288394
0.123069
-0.024221
-0.167603
-0.304672
-0.415891
-0.483223
-0.540636
-0.607968
-0.647345
-0.647044
-0.597445
-0.494642
-0.354264
-0.252362
-0.240939
-0.319694
-0.393639
-0.393939
-0.341334
-0.261677
-0.152861
-0.063284
-0.037733
-0.058774
-0.088532
-0.133019
-0.226803
-0.300448
-0.318483
-0.301649
-0.251750
-0.157363
-0.053357
-0.010372
-0.101150
-0.313969
-0.592918
-0.925073
-1.306524
-1.653708
-1.848191
-1.829253
-1.642284
-1.369946
-1.091897
-0.860139
-0.680384
-0.575777
-0.582389
-0.670763
-0.767553
-0.861938
-0.989690
-1.164333
-1.344688
-1.452300
-1.423142
-1.238878
-0.967442
-0.709532
-0.539396
-0.431783
-0.322367
-0.182290
0.040751
0.399659
0.867382
1.328793
1.698522
1.932685
1.997012
1.882487
1.712954
1.429796
1.316173
1.366072
1.369078
1.483605
1.667869
1.850930
2.013852
2.158739
2.235391
2.207436
2.087500
1.921273
1.735508
1.550644
1.405158
1.303858
1.221497
1.128314
1.005673
0.834937
0.647969
0.500679
0.480239
0.641358
0.937442
1.253666
1.513980
1.718685
1.859363
1.934211
1.962468
1.982608
2.010263
2.037317
2.067377
2.177996
2.427489
2.806236
3.233680
3.628960
3.952699
4.195579
4.294174
4.122236
3.593494
2.721174
1.607178
0.386772
-0.825518
-1.904044
-2.744200
-3.254606
-3.392578
-3.235066
-2.936878
-2.651915
-2.501618
-2.518150
-2.606824
-2.611633
-2.409333
-1.966860
-1.408057
-0.990233
-0.909372
-1.199744
-1.741412
-2.365141
-2.885767
-3.175538
-3.206198
-3.006002
-2.582466
-1.911242
-1.014272
-0.054780
0.739087
1.198994
1.212221
0.731874
-0.134734
-1.176888
-2.196198
-3.038458
-3.551870
-3.622809
-3.276525
-2.661812
-1.958725
-1.304935
-0.784308
-0.384819
-0.036131
0.329090
0.697918
0.950116
0.979575
0.770062
0.358251
-0.174700
-0.722680
-1.189199
-1.576061
-1.925349
-2.261111
-2.558096
-2.807587
-3.039644
-3.302962
-3.633914
-4.011158
-4.349023
-4.563345
-4.656528
-4.698310
-4.707026
-4.646607
-4.454227
-4.049628
-3.378103
-2.453479
-1.399600
-0.401631
0.391934
0.905347
1.101635
1.018672
0.767678
0.535621
0.486024
0.685017
1.083604
1.554934
1.945104
2.155520
2.181672
2.094501
1.935788
1.747918
1.573275
1.425384
1.305749
1.238416
1.245932
1.335209
1.435006
1.345130
0.911976
0.132840
-0.911418
-2.047057
-3.009855
-3.534990
-3.603224
-3.452626
-3.355534
-3.398518
-3.526570
-3.661235
-3.715341
-3.633579
-3.363646
-2.938306
-2.453750
-2.045845
-1.754570
-1.447063
-0.933048
-0.137379
0.800772
1.619888
2.108953
2.260753
2.211457
2.053947
1.831509
1.604261
1.423606
1.280224
1.160588
1.089950
1.116703
1.227623
1.326218
1.368903
1.377320
1.311791
1.236043
1.249570
1.369507
1.605473
1.947248
2.392126
2.889608
3.209138
3.094613
2.522886
1.619906
0.519738
-0.642053
-1.788513
-2.882670
-3.890557
-4.720793
-5.233904
-5.247430
-4.680512
-3.656392
-2.382779
-1.034019
0.291596
1.463608
2.387030
3.091620
3.632988
3.976867
3.994302
3.607440
2.955755
2.277017
1.708597
1.264622
0.967938
0.930365
1.264324
1.873626
2.597153
3.363365
4.142202
4.773748
5.013922
4.673952
3.812755
2.717696
1.599191
0.514352
-0.445740
-1.110050
-1.373969
-1.280184
-1.009950
-0.667274
-0.232916
0.333401
0.961039
1.540583
1.997785
2.238861
2.143875
1.727855
1.142602
0.550735
0.043035
-0.349839
-0.605944
-0.665761
-0.469774
0.069190
0.869669
1.679466
2.296885
2.604993
2.567420
2.289372
1.976756
1.756122
1.653921
1.709832
1.926560
2.245189
2.570130
2.879140
3.262096
3.812182
4.531501
5.337391
6.060317
6.523231
6.639861
6.445679
6.011323
5.383386
4.685410
4.103162
3.833832
3.940844
4.418186
5.199126
6.077760
6.705098
6.823231
6.433964
5.698715
4.694435
3.465012
2.124368
0.819195
-0.313738
-1.190867
-1.795659
-2.149456
-2.318389
-2.426000
-2.585915
-2.785808
-2.947526
-2.986903
-2.910552
-2.804442
-2.550441
-1.904466
-0.889965
0.051793
0.417916
0.070131
-0.733053
-1.710580
-2.727785
-3.737175
-4.683139
-5.463177
-6.009053
-6.295517
-6.352930
-6.217362
-5.919173
-5.462872
-4.856275
-4.098480
-3.314534
-2.698919
-2.206547
-1.754155
-1.339937
-0.925118
-0.418318
0.074655
0.232466
-0.040772
-0.637448
-1.428006
-2.204436
-2.729872
-2.811632
-2.370963
-1.615572
-0.995449
-0.748361
-0.847556
-1.090134
-1.146644
-0.991237
-0.814187
-0.731223
-0.785028
-0.969592
-1.210666
-1.616466
-2.285885
-2.904505
-3.163615
-2.982958
-2.548300
-2.179172
-2.047211
-2.065245
-2.076066
-1.977170
-1.713850
-1.383498
-1.036614
-0.662976
-0.326011
-0.222606
-0.552356
-1.254841
-2.030369
-2.565424
-2.875033
-3.069516
-3.077331
-2.807999
-2.361318
-1.993993
-2.080563
-2.875029
-4.058462
-4.964448
-5.487779
-6.073333
-6.838942
-7.383916
-7.190033
-6.082649
-4.524976
-3.232427
-2.605991
-2.702480
-3.300659
-4.012763
-4.588397
-5.027562
-5.479653
-6.104886
-6.688035
-6.826607
-6.519100
-6.111195
-5.771525
-5.297790
-4.547810
-3.647234
-2.792047
-2.232342
-2.100982
-2.112404
-1.891167
-1.355510
-0.653024
-0.002841
0.314585
0.163388
-0.126082
-0.071674
0.234630
0.291443
0.026621
-0.113755
0.061492
0.340442
0.674101
1.157455
1.711749
2.134082
2.247707
2.010540
1.689508
1.548230
1.539814
1.336013
0.793744
0.271915
0.142661
0.309491
0.720101
1.545530
2.537487
3.072242
2.944491
2.592798
2.403425
2.360742
2.575967
3.458508
4.717090
5.311062
4.821698
3.764514
2.753320
2.085404
1.935108
2.202637
2.479784
2.520966
2.504434
2.463253
2.069177
1.359478
0.875825
0.725529
0.557799
0.295683
0.141780
0.202200
0.313420
0.374140
0.476343
0.513316
0.075954
-0.724824
-1.328414
-1.693633
-2.284898
-3.235673
-3.972124
-3.880443
-3.042991
-2.010754
-0.941545
0.448096
2.082119
3.291404
3.535787
3.081592
2.419387
1.717203
1.342064
1.804676
2.701947
3.256240
3.446516
3.938287
5.285845
6.984495
8.045889
8.008015
7.275170
6.524591
6.039736
5.608987
5.097078
4.613726
4.125564
3.715255
3.702631
4.088292
4.307425
3.941905
3.245733
2.778011
2.665590
2.561586
2.281734
2.100778
2.137752
2.266707
2.119116
1.295192
0.128292
-0.523092
-0.406461
-0.193941
-0.380910
-0.653546
-0.502648
-0.171394
-0.134721
-0.653243
-1.679466
-2.895664
-4.000041
-4.756632
-4.942097
-4.872359
-5.162130
-5.691172
-5.937658
-5.820727
-5.561014
-5.531555
-6.178129
-7.281003
-8.205626
-8.473153
-8.328868
-8.326763
-8.576855
-8.520945
-7.879779
-6.855960
-5.582047
-4.628265
-4.358934
-4.217053
-4.057738
-4.277170
-4.971539
-5.756085
-6.024815
-5.627430
-5.115220
-4.760219
-4.531166
-4.642986
-4.969129
-5.100487
-5.067722
-4.977243
-4.753000
-4.523346
-4.097706
-3.278891
-2.203069
-1.276340
-0.716937
-0.535077
-0.050822
1.002757
1.855840
2.214748
2.266150
2.182887
2.462138
2.955412
2.922948
2.604621
2.579071
2.797603
3.335965
4.151775
4.726810
4.972996
4.998847
4.955563
4.851859
4.380831
3.734858
3.147801
2.780777
3.225355
4.213103
4.537744
4.123829
3.506412
2.799118
2.223483
2.085211
2.488908
3.046508
3.155023
2.940400
2.847217
2.758243
2.680991
2.421881
2.126699
2.168783
2.198843
1.617197
0.533560
-0.716604
-1.851341
-2.530680
-2.645205
-2.125179
-1.116990
-0.216714
0.288883
0.697089
1.137157
1.305190
0.931553
0.454213
0.003925
-0.126832
0.088093
0.419347
0.848894
0.813726
0.082685
-0.547056
-0.596954
-0.427118
-0.229929
-0.011698
0.314747
0.856115
1.477441
2.096362
2.766985
3.272583
3.495323
3.543118
3.268377
2.755867
2.148971
1.772629
2.082842
2.731822
3.360062
3.939605
4.242904
3.732799
2.528925
1.603100
1.950586
2.783229
3.085626
3.295140
3.677194
3.689519
3.218491
2.882429
3.044749
3.674492
4.541703
5.353003
6.310392
7.352848
8.034894
8.156334
7.762859
7.204959
6.695756
5.984554
5.147404
4.374881
3.663980
2.941356
2.248490
1.736281
1.142010
0.581405
0.019898
-0.178192
0.040941
0.249854
0.338529
0.266087
0.368590
0.816774
1.399023
1.206645
0.097458
-1.336970
-2.670098
-3.332304
-3.170885
-2.967383
-2.982111
-3.123088
-3.904629
-4.724946
-4.703904
-4.348001
-4.085883
-3.774168
-3.113164
-2.168400
-1.940851
-2.618987
-3.596815
-4.130968
-3.462449
-1.634543
0.775009
3.487559
4.407975
3.110617
2.317654
2.410838
1.741118
0.630128
0.164511
-0.048609
-0.763117
-1.434641
-1.442155
-1.270816
-1.525117
-1.845548
-1.751462
-2.229404
-2.491220
-1.099474
0.231852
-0.286069
-1.677512
-0.901682
2.608641
4.177436
2.118075
-0.675032
-2.234206
-2.607541
-2.286207
-2.748217
-3.078869
-1.544943
0.063529
0.543276
0.985148
2.592418
5.074113
6.144525
6.011062
4.657794
2.267782
0.703798
-0.962988
-2.772856
-2.514947
0.241489
1.531333
1.032050
1.552677
2.503753
2.198051
1.426129
2.212481
4.383062
5.026932
3.292813
1.341366
0.966828
1.149288
1.725525
1.857486
0.705916
0.180481
1.084965
2.169204
2.690733
3.472575
4.347301
4.510824
3.783691
2.541041
2.329124
3.045137
2.651962
1.024253
0.633182
2.253679
3.319581
1.734556
-0.635317
-1.608936
-2.097098
-2.132266
-1.268062
-0.667777
-1.039009
-1.213953
-0.673186
0.369872
1.823840
2.792651
2.570814
2.224532
3.652649
5.127057
4.753120
3.333421
1.929955
1.527461
0.434206
-0.209062
0.819868
2.211613
3.351161
3.945133
3.925896
3.820389
3.958361
3.246859
2.282558
1.900505
1.915536
2.356205
2.654093
2.928535
2.521834
1.240107
0.520489
0.559266
0.089741
-0.812638
-0.938886
0.124612
0.667783
0.038944
-0.084599
1.025491
1.512151
1.318570
1.778778
1.314664
0.548754
0.269204
-0.249920
-0.807218
-2.070909
-3.309952
-3.184303
-2.045657
-0.622049
0.090056
-0.081582
-0.524956
-0.991776
-1.930827
-2.113586
-1.245474
-1.463704
-2.683809
-3.165057
-2.916166
-2.997325
-3.062854
-3.342705
-4.347285
-4.886247
-3.867538
-2.374192
-1.944644
-3.189098
-5.059085
-5.646142
-4.775925
-3.452414
-3.126270
-4.920809
-5.799741
-4.407996
-3.463232
-3.721140
-4.076139
-3.410326
-2.220579
-1.303470
-1.057584
-2.140920
-4.234548
-5.432710
-5.073501
-3.758106
-3.358016
-3.894273
-2.947706
-1.044051
0.459214
1.914084
2.232111
1.461693
1.095571
1.256089
2.080916
2.893419
2.225202
0.308623
-0.871503
-0.360796
0.253617
-0.199376
-0.185548
0.577958
1.013818
1.835339
2.910861
3.089414
1.334253
-1.154955
-1.084916
0.934166
1.219429
-0.478017
-2.051920
-1.701729
-0.291648
-0.539035
-1.381596
0.128282
1.897272
2.051777
1.873827
2.243256
3.009468
2.159392
0.490802
0.564749
1.159622
0.769754
0.032401
-1.208746
-2.485062
-2.594477
-1.647609
-1.142312
-2.005013
-3.030635
-2.624834
-0.973977
0.424982
0.324284
-0.334915
-0.405253
-0.489418
-1.242703
-2.837648
-3.809163
-3.323104
-3.348653
-4.004847
-3.648944
-3.342940
-4.489701
-5.419434
-4.991689
-4.427777
-4.136802
-2.826217
-0.557342
0.821778
0.777291
0.356763
0.418986
0.702446
0.772785
0.279814
-0.022582
-0.550723
-1.844774
-1.691772
-0.410043
-0.133497
-0.667951
-1.237874
-1.914207
-3.221484
-3.993706
-2.731216
-0.797502
-0.166858
-0.881667
-1.490366
-1.202698
-0.872647
-1.323535
-2.244250
-3.411752
-4.272949
-4.223050
-3.550624
-3.054044
-2.505161
-1.778928
-1.351484
-1.766001
-2.568282
-2.399649
-1.808082
-1.528229
-1.384545
-2.069896
-3.845196
-5.634023
-6.461855
-6.215068
-5.288039
-4.213118
-2.776885
-1.551669
-0.945072
0.462304
2.610942
4.742145
5.945118
5.615369
5.008773
4.695256
3.936560
3.250007
3.591481
4.464403
4.746661
4.278638
3.795286
3.083483
2.079203
1.719695
1.863980
2.024197
1.876005
1.193059
0.358314
-0.494467
-1.977591
-4.018616
-5.468975
-5.592217
-5.086319
-4.372411
-3.314624
-2.193112
-1.407061
-0.824211
-0.111505
0.533267
0.704907
0.382371
0.033684
0.641784
2.176010
3.816646
4.999780
5.270014
4.652898
3.585193
2.395447
1.359004
1.344276
2.329319
3.516060
4.507415
5.025638
5.436850
6.316685
7.025784
6.950637
6.391535
5.949965
5.597370
4.795991
3.843714
3.569574
4.041806
4.477065
4.193907
3.130711
2.275525
2.157393
2.369311
2.641048
2.644355
2.224728
1.692680
1.415233
1.015446
0.120582
-0.637212
-0.513968
-0.045945
0.346630
0.783693
0.833893
0.367373
0.179503
0.833594
1.521952
1.460632
1.217152
0.981789
0.584707
0.546532
1.229479
