EVENT_NAME: 202302060117
EVENT_ID: 13194
EVENT_DATE_YYYYMMDD: 2023/02/06
EVENT_TIME_HHMMSS: 01:17:32.00000
EVENT_LATITUDE_DEGREE: 37.288
EVENT_LONGITUDE_DEGREE: 37.043
EVENT_DEPTH_KM: 8.6
HYPOCENTER_REFERENCE: AFAD
MAGNITUDE_W: 7.7
MAGNITUDE_W_REFERENCE: AFAD
MAGNITUDE_L: 
MAGNITUDE_L_REFERENCE: 
FOCAL_MECHANISM: 
NETWORK: TK
STATION_CODE: 6201
STATION_NAME: 
STATION_LATITUDE_DEGREE: 39.07473
STATION_LONGITUDE_DEGREE: 39.53469
STATION_ELEVATION_M: 901.0
LOCATION: Kahramanmaras_Pazarck_Turkiye
SENSOR_DEPTH_M: 
VS30_M/S: None
SITE_CLASSIFICATION_EC8: unknown
MORPHOLOGIC_CLASSIFICATION: 
EPICENTRAL_DISTANCE_KM: 294.77
EARTHQUAKE_BACKAZIMUTH_DEGREE: 
DATE_TIME_FIRST_SAMPLE_YYYYMMDD_HHMMSS: 2023/02/06 01:18:00.3052840
DATE_TIME_FIRST_SAMPLE_PRECISION: millisecond
SAMPLING_INTERVAL_S: 0.01
NDATA: 18251
DURATION_S: 
STREAM: HNZ
UNITS: cm/s^2
INSTRUMENT: sensor = GMS+/GEOSIG | digitizer = 
INSTRUMENT_ANALOG/DIGITAL: 
INSTRUMENTAL_FREQUENCY_HZ: 
INSTRUMENTAL_DAMPING: 
FULL_SCALE_G: 
N_BIT_DIGITAL_CONVERTER: 
PGA_CM/S^2: 10.773
TIME_PGA_S: 
BASELINE_CORRECTION: BASELINE REMOVED
FILTER_TYPE: BUTTERWORTH
FILTER_ORDER: 
LOW_CUT_FREQUENCY_HZ: 
HIGH_CUT_FREQUENCY_HZ: 
LATE/NORMAL_TRIGGERED: 
DATABASE_VERSION: 
HEADER_FORMAT: DYNA 1.2
DATA_TYPE: Acceleration
PROCESSING: Automatic Paolucci et al., 2011
DATA_TIMESTAMP_YYYYMMDD_HHMMSS: 
DATA_LICENSE: U (unknown license)
DATA_CITATION: Turkish Accelerometric Archive v 1.0 - Disaster And Emergency Management Presidency, Earthquake Department
DATA_CREATOR: AFAD
ORIGINAL_DATA_MEDIATOR_CITATION: : AFAD - Disaster And Emergency Management Presidency
ORIGINAL_DATA_MEDIATOR: AFAD PROCESS SERVICE
ORIGINAL_DATA_CREATOR_CITATION: AFAD PROCESS SERVICE
ORIGINAL_DATA_CREATOR: network: TK
USER1: GuestUser
USER2: 
USER3: 
USER4: 
USER5: 
[...]
1.756235
2.355001
0.923939
-1.464627
-3.659406
-5.274643
-5.525319
-3.756559
-1.673220
-1.536582
-3.179614
-4.332464
-3.205591
-0.625056
1.197995
1.281380
0.484413
0.525975
1.730000
2.231871
0.801330
-1.370070
-2.950758
-3.999701
-4.859013
-5.321140
-5.113326
-5.185282
-6.162009
-5.983029
-3.025571
1.209166
4.244035
4.579914
3.009358
1.838324
1.554917
0.794577
-0.725066
-1.670361
-1.177581
-0.161369
-0.160850
-1.327727
-2.560586
-3.339889
-3.799938
-3.331836
-1.480730
0.258156
0.215035
-0.957817
-1.669321
-2.105991
-3.150778
-3.313392
-1.166151
0.915629
0.415836
-1.200700
-1.801023
-1.399942
-0.222414
0.673786
0.073982
-1.003276
-2.266527
-4.561057
-5.964064
-4.447019
-2.447845
-2.442909
-3.209484
-2.968160
-1.857133
-1.254731
-1.206674
-1.330843
-2.579287
-4.008270
-2.754111
0.467011
2.095497
1.634668
0.997977
1.017200
1.532320
1.759877
0.975637
-0.020832
0.029563
0.224908
-1.132379
-3.149737
-3.740189
-2.502395
-0.785069
-0.502701
-1.659708
-1.801801
-0.405808
0.291409
-0.051744
-0.253584
-0.564786
-0.959633
-0.618817
-0.596477
-1.777642
-2.423425
-2.017927
-2.238210
-3.393658
-4.464421
-4.824719
-4.290896
-3.522502
-3.494707
-3.475225
-2.058970
0.032422
1.208651
1.668960
1.867942
1.194624
-0.230723
-1.613467
-2.364716
-2.412254
-2.529409
-2.692803
-1.530861
1.089158
3.486037
4.251833
3.380052
2.196809
1.507645
0.723146
0.014499
0.354016
0.986291
0.716911
0.157112
-0.380348
-0.992621
-0.469448
1.621943
3.420057
3.245753
1.340615
-0.664534
-1.072889
-0.294365
0.048529
-0.666092
-2.206256
-3.573675
-3.715508
-2.326788
0.403113
3.283939
4.323271
3.651771
3.589686
4.166631
3.710998
2.266169
0.648074
-0.420611
-0.536727
0.064116
0.834848
1.032791
0.529101
-0.191236
-0.755451
-0.417493
1.632595
3.772304
3.447594
1.435172
-0.404505
-1.577876
-1.423314
-0.150192
0.379215
-0.382164
-0.734150
-0.117980
0.396620
0.992788
2.096541
2.741545
2.828048
2.964166
2.460217
0.822380
-0.584523
-0.640893
-0.296700
-0.383722
-0.578029
-0.223445
0.833810
1.959644
2.942347
4.357302
5.926301
5.787325
3.645279
1.486088
0.889401
1.466865
1.544536
1.205539
1.879377
3.208869
3.309919
1.775470
0.034245
-0.672323
-0.039788
1.584021
3.307321
3.735679
2.683359
1.353347
0.755881
1.036950
1.454137
1.511286
1.344256
1.273859
2.026666
3.666841
4.284569
3.162631
2.580751
3.203415
2.836103
1.483232
1.567657
2.770122
3.070934
2.519706
1.992118
1.898601
2.424631
3.039762
2.854288
1.944321
0.833293
-0.206818
-0.569194
0.021778
1.074618
1.363220
0.131401
-1.155749
-0.697259
1.027081
2.153175
2.417618
2.720768
3.421621
4.203263
4.426404
4.645129
4.986723
4.489008
3.145748
1.841194
1.518822
2.392421
3.634112
3.843745
3.186013
2.480743
1.243728
0.128025
0.154261
0.314538
0.029313
0.224139
0.758222
0.329605
-1.072882
-1.700221
-0.992354
-0.435152
-0.195905
0.641587
1.187099
0.796408
1.061631
2.488796
3.596966
3.339017
1.757550
-0.074593
-1.188738
-1.178607
0.030353
1.369457
1.580389
0.851480
0.557682
1.354131
2.043815
1.608703
0.835374
0.478713
0.335321
0.418187
0.684709
0.623144
0.184396
-0.013027
0.624443
1.568960
1.470508
0.528070
-0.121090
-0.479310
-1.320439
-2.800077
-3.623801
-3.073353
-1.980249
-0.879353
0.304929
1.793140
2.924169
1.997318
0.107246
0.982145
4.126635
5.327023
3.838033
2.402296
2.290856
2.302026
1.105275
-0.805318
-1.626704
-0.911043
-0.015623
0.296098
0.452219
0.167773
-0.652834
-0.813630
-0.436707
-0.159015
0.384420
0.632498
-0.062381
-0.754403
-0.728686
-0.641404
-1.119377
-2.606808
-4.742360
-6.040680
-6.245117
-5.956775
-5.121361
-3.777322
-2.385745
-1.410576
-1.172109
-1.543837
-1.626703
-1.016508
-0.128101
0.707832
0.946039
0.416113
-0.319290
-0.531521
-0.289677
-0.488139
-0.628934
0.459234
1.905882
2.026674
1.191001
1.080340
1.804573
2.027713
1.413362
0.536126
-0.373062
-0.987153
-1.203280
-1.110543
-0.283961
1.130995
2.278130
2.874557
2.609075
1.321145
0.357926
0.620032
0.979031
0.457937
-0.242917
-0.581914
-0.789209
-0.292273
1.219836
2.753246
3.420590
3.385002
3.293564
3.139002
2.652976
2.250596
2.259947
2.402300
2.618167
2.953788
2.841308
2.054211
1.384790
1.804575
3.199269
4.053386
3.607624
2.425940
0.883178
-0.716213
-1.629817
-1.587475
-1.347709
-1.424860
-1.702032
-1.820226
-1.784119
-2.250402
-2.823710
-2.106490
-0.226030
0.921365
0.054259
-2.059732
-3.714713
-4.474015
-4.912763
-4.575065
-3.124780
-2.161820
-2.614596
-3.304799
-3.399614
-2.919044
-2.214293
-1.641765
-0.788947
0.165181
0.164921
-0.054323
0.782909
1.614426
1.664562
1.399339
0.661338
-0.262137
-0.982473
-1.768791
-2.554069
-3.191280
-3.609246
-3.459360
-2.526014
-1.216004
-0.246810
-0.045750
-0.267072
-0.139785
0.389622
0.867595
0.662378
-0.520086
-1.855552
-2.485230
-1.850357
-0.032241
1.302966
0.618478
-1.143528
-1.833991
-1.142489
0.240515
2.213193
3.836223
3.398514
1.134117
-0.827650
-1.722291
-1.852434
-1.305363
-0.842457
-0.701922
0.042053
1.372325
2.062528
2.237092
2.691427
2.486730
1.003974
-0.441634
-1.005590
-1.494993
-2.388854
-3.005284
-2.511205
-1.407711
-1.558896
-2.957746
-3.213877
-1.373421
0.725504
1.241143
0.107256
-1.474990
-2.151426
-2.280271
-2.875918
-3.698084
-4.414784
-4.798201
-4.106179
-2.061806
0.237141
1.002677
0.028028
-0.954415
-0.746600
0.007766
0.051147
-0.592298
-1.169762
-1.678907
-2.441326
-2.881113
-2.145450
-1.393162
-2.180519
-3.293364
-2.915142
-1.083259
1.212051
2.370875
1.589234
0.305980
-0.402407
-0.734130
-0.744521
-1.454986
-3.362982
-4.365686
-3.178546
-1.270551
0.038939
0.496650
-0.371754
-2.009331
-2.463405
-1.005587
0.969688
1.784061
0.797202
-0.947399
-1.432905
-0.636197
-0.030678
0.346505
1.265045
2.343601
2.672208
2.395295
2.299700
2.783388
3.469176
3.549964
2.407504
0.491196
-1.227168
-2.912283
-4.353995
-4.606489
-3.835238
-2.752785
-1.652668
-0.513585
0.318451
0.400798
0.382354
1.031774
1.534685
0.891240
-0.200565
-0.708931
-0.745818
-0.577228
-0.308108
-0.310966
-0.268624
0.351442
0.869420
0.829156
1.351809
3.086020
4.720479
4.323554
1.679896
-0.844788
-1.649290
-1.670071
-1.369260
-0.656456
-0.022363
0.409891
0.423139
0.164410
0.299230
0.385733
-0.243165
-1.125077
-1.365363
-0.747375
-0.907911
-3.151786
-4.942627
-3.562479
-0.998050
-0.481372
-1.283016
-0.918561
0.593808
1.446366
1.115422
0.610433
0.217144
-0.417469
-0.881414
-0.134841
1.960707
3.939359
4.368496
3.843505
3.958842
4.190815
2.865479
0.467821
-1.172094
-1.338086
-0.666326
-0.396167
-0.888947
-1.411340
-1.494466
-1.286911
-1.215735
-1.197811
-0.813873
-0.239527
-0.224720
-0.825303
-1.121179
-1.296002
-2.582633
-4.455819
-5.052766
-4.071882
-2.391963
-0.862190
-0.286024
-0.507347
-0.308884
0.595888
1.275441
1.652624
1.915769
1.466630
0.167011
-1.669548
-3.664306
-4.769099
-4.404904
-3.175682
-1.936849
-1.406403
-1.291845
-0.884009
-0.388112
0.480032
2.590906
4.575533
4.011317
2.105920
2.425954
4.270306
3.906371
2.396860
2.657407
3.297995
2.551942
1.480139
1.205824
1.281937
1.398053
1.245309
0.317678
-0.572287
-0.960640
-0.978564
-0.364212
-0.032749
-0.674115
-1.105850
-0.908946
-1.062728
-1.022724
0.598488
3.046801
4.266151
3.129667
0.560562
-1.449262
-1.800469
-1.148191
-1.197028
-2.157909
-2.590423
-1.970616
-1.750853
-2.351696
-2.080498
-1.048180
-0.585534
-0.363172
0.003360
0.111944
0.537703
1.913954
3.499577
4.590862
4.595798
3.234354
2.248016
2.945233
3.828703
3.835457
3.544777
2.871199
1.483259
0.263649
0.090124
0.590437
0.918264
0.983726
1.476246
2.661826
3.986643
4.404350
3.479316
2.172424
1.378054
0.785004
0.180524
0.301056
1.195177
1.687438
1.306878
1.308696
2.558699
3.851824
3.947678
2.769631
0.766041
-1.118315
-2.354811
-2.962148
-2.289349
-0.495132
1.080361
2.661568
4.248490
4.117827
2.397904
0.977233
-0.055085
-1.743576
-3.305820
-3.817823
-3.833409
-3.775221
-3.825616
-4.175523
-4.728049
-4.807019
-3.675989
-1.650579
0.150392
1.275707
2.377643
3.122917
2.617668
2.242304
3.311768
4.332656
4.411626
5.045719
6.960209
8.769493
8.963020
7.502864
5.269380
3.453602
3.343461
4.800239
6.118302
6.029721
5.052734
4.904926
6.144538
7.818223
9.050043
9.180966
8.150986
6.826949
5.743197
4.947009
4.830113
5.368872
5.811776
5.568633
4.564630
3.245529
2.114500
1.265318
1.176218
2.588057
4.264859
3.766624
0.978275
-1.716817
-2.604444
-2.238691
-1.539655
-0.832047
-0.917771
-2.352209
-4.380997
-5.935708
-6.814502
-6.821256
-5.553069
-3.869513
-2.758486
-2.402864
-3.150216
-4.678690
-5.329149
-3.858603
-0.872311
1.852655
2.799509
2.203861
1.186610
-0.213279
-1.707464
-2.488327
-2.754329
-2.668865
-2.023082
-1.140391
-0.450967
-0.175612
-0.458240
-1.277028
-2.733547
-4.409310
-4.792727
-3.957833
-3.263993
-2.461050
-1.104282
0.163125
-0.041052
-1.886963
-3.380109
-4.127981
-5.118995
-5.559821
-4.604135
-3.636240
-4.441261
-6.607465
-8.600405
-8.933167
-7.433527
-6.046107
-6.030261
-6.561746
-6.640975
-6.743843
-6.627467
-5.349409
-4.173959
-4.225652
-4.267215
-3.528175
-3.377770
-4.175517
-4.411127
-3.466870
-2.314020
-2.102049
-2.063604
-0.832044
0.773842
1.505088
1.615230
1.583279
1.512622
1.744854
2.343100
2.599231
1.975528
0.801377
-0.296142
-1.002970
-1.147661
-0.503437
0.632009
1.283247
1.229735
1.169729
0.977760
0.381593
-0.199768
-0.972577
-2.203357
-3.436736
-3.951336
-3.096439
-1.508218
-0.643451
-0.791518
-1.131295
-0.779569
-0.033775
-0.294582
-1.476266
-1.748763
-0.476679
0.924249
1.140116
0.672015
0.573303
0.372502
-0.339262
0.118449
2.573256
5.046766
5.562925
4.082768
1.972933
0.218200
-1.034400
-1.235201
-0.121056
1.072318
0.919055
-0.308089
-1.276504
-1.246111
-0.368875
0.954383
1.875261
1.308447
-0.211975
-0.877760
-0.148591
0.355359
-1.005825
-3.471802
-5.196401
-5.448116
-4.483858
-3.369453
-3.183200
-3.782484
-4.036277
-3.030975
-1.244292
0.051691
0.351723
0.365750
0.601100
0.575643
0.522390
1.154925
1.970856
2.605989
2.907320
1.812918
0.287820
0.862427
2.803933
3.362953
2.240756
1.069203
0.740077
1.187137
1.767199
1.263769
-0.592792
-2.490397
-3.490503
-3.296717
-1.738369
0.134039
0.751767
0.261325
-0.493820
-1.484315
-1.864356
-1.080376
-0.284447
-0.121832
-0.051695
0.668382
1.793956
2.022032
1.049721
0.216905
0.287822
0.314838
-0.752549
-2.518970
-3.841189
-4.642053
-5.038459
-4.555291
-3.684809
-3.127347
-2.932001
-3.144751
-3.378542
-3.199042
-3.154362
-3.759621
-4.329292
-4.263051
-3.845864
-3.681431
-4.339943
-5.164446
-4.757649
-3.299312
-1.846170
-0.935684
-1.088687
-1.693946
-1.065827
0.654875
1.726158
1.787464
2.063078
2.998762
3.741958
3.393349
2.328301
1.707456
1.845133
2.368825
2.582874
2.396880
2.616903
3.445303
3.984841
3.809758
4.226166
5.901669
7.435599
7.893569
7.989943
7.959810
7.687314
8.219319
8.698850
7.330393
5.682166
5.433568
5.414864
4.406965
3.357243
3.462189
4.107712
4.282017
3.897041
3.465047
3.368933
3.357763
3.028637
2.657429
2.528324
2.286740
2.103344
2.381555
2.933562
3.651041
4.082516
3.715204
3.229957
3.227360
3.239309
2.900572
2.334538
1.417297
-0.028831
-1.035951
-0.970749
-0.974646
-1.722517
-2.759251
-3.666620
-4.298116
-4.734267
-5.444212
-6.540693
-7.129067
-7.161278
-7.348051
-7.276355
-6.641482
-6.248713
-6.457307
-6.693695
-6.379116
-4.971434
-3.044995
-2.270107
-2.545201
-2.644693
-2.588323
-2.453243
-1.588476
-0.481345
-0.023634
0.434077
1.444834
2.240244
1.860463
0.607083
-0.170143
0.278736
1.559912
2.462086
2.121790
1.301443
1.091291
1.096226
1.225591
2.240504
3.361143
3.172292
1.955019
1.097525
0.940626
0.596953
-0.436144
-1.523273
-1.347410
0.070144
1.182989
1.352618
0.981410
0.340043
-0.165985
0.215614
1.173378
1.893975
2.710685
3.693387
4.624395
5.775947
6.665392
6.643312
6.605905
7.238700
7.308837
6.275481
5.239267
4.966770
5.448640
6.313407
6.826449
6.634740
6.318343
5.751789
4.351640
3.036435
2.894862
3.399591
3.364522
2.504430
1.288457
-0.036359
-1.733163
-3.663239
-4.868302
-4.978704
-4.977405
-5.312765
-4.932984
-4.131341
-4.166669
-4.691660
-4.574505
-3.316968
-1.641465
-0.384448
0.290949
0.730736
1.164549
0.982971
-0.144941
-1.417544
-1.947471
-1.922273
-1.855513
-2.023583
-2.857438
-4.313177
-5.870226
-7.002554
-7.125165
-6.597057
-6.910337
-8.040587
-8.112023
-7.121788
-6.729798
-6.869033
-6.312091
-5.174567
-4.456828
-3.950281
-3.223710
-2.659494
-2.325432
-1.563273
0.272767
2.227780
2.721080
1.970870
1.101686
0.675667
0.804252
0.865298
-0.059216
-1.596263
-2.599227
-2.815873
-2.166453
-0.507835
0.854648
0.553057
-0.625770
-0.999835
-0.187541
0.584749
0.309915
-0.095064
0.594620
1.663565
1.937880
1.441464
0.546823
-0.518225
-1.711859
-2.674299
-2.797948
-2.168011
-1.041398
-0.130391
-0.827089
-3.113047
-4.586970
-3.332031
-0.863716
0.111453
-0.841376
-1.993966
-2.024619
-1.543528
-1.253368
-0.753054
0.113012
1.052592
1.909047
2.388579
2.054518
1.012329
0.579036
1.500952
2.660816
3.316990
3.805354
4.417886
5.393575
6.671373
7.716420
8.545599
9.514014
10.176162
10.066800
9.528301
9.357894
9.646496
9.013441
6.998681
5.097960
3.887441
2.263372
-0.135585
-2.021240
-2.981082
-4.335772
-6.459375
-8.197482
-8.987696
-9.318900
-9.660754
-10.328618
-10.772821
-10.061316
-8.556221
-7.004108
-5.847101
-5.223398
-4.736593
-4.042753
-3.084469
-1.984612
-1.228947
-1.494430
-2.409852
-2.552984
-1.326879
0.629433
2.471448
3.584293
3.812370
3.678589
3.816007
4.406199
5.084973
5.337987
5.164202
4.648044
3.662484
2.394297
1.176765
0.147824
-0.743439
-1.401432
-1.628988
-1.607427
-1.420135
-1.276223
-2.013964
-3.420348
-3.854939
-3.183699
-2.644680
-2.113455
-1.445851
-1.098801
-0.840592
-0.565238
-0.160000
0.570727
1.065845
0.962457
0.694897
0.456430
0.124446
-0.222084
-0.209615
0.584495
1.723058
2.309874
2.121802
1.484592
1.092862
1.497320
2.225969
2.562369
2.769144
2.891495
1.932951
-0.150907
-2.047213
-3.336181
-4.699963
-5.586550
-5.087276
-3.890785
-2.732740
-2.042017
-1.730555
-1.065030
-0.611994
-1.460916
-3.165513
-4.544621
-5.255346
-5.281582
-4.938689
-5.027529
-5.378476
-5.295869
-4.721782
-4.014174
-3.767395
-4.358107
-4.679440
-3.402940
-1.165039
0.710745
1.479918
1.437835
1.650326
2.498468
3.520135
3.981483
3.588194
3.138276
3.454154
4.167997
4.868850
5.549183
6.097033
6.437589
6.515260
6.812694
7.530173
8.015939
8.242457
8.598859
8.781735
8.161669
6.881533
5.545547
3.862510
1.725919
0.117696
-0.445481
-0.570689
-1.104772
-1.671845
-1.338822
-0.591210
-0.651476
-1.298039
-0.977745
0.171988
0.625543
0.446303
0.196406
-0.365472
-0.962418
-0.692779
0.400844
1.161964
1.047926
0.709968
0.912847
1.140144
0.613594
-0.053230
-0.498732
-1.063727
-1.884853
-3.061342
-4.400706
-5.540567
-5.789685
-4.497079
-2.328277
-0.800322
-0.355080
-0.399500
-0.446258
-0.177398
-0.475092
-1.872903
-2.798976
-2.248268
-0.598482
1.101699
1.943607
2.474573
3.210755
3.278814
1.844636
-0.304944
-1.849784
-2.716110
-3.008089
-2.097862
0.123933
2.284943
3.441689
4.311133
5.315136
6.151329
6.343817
6.009496
5.709723
5.405535
5.290458
5.167848
4.411144
3.395451
2.394046
1.026108
-0.717454
-1.928232
-1.752629
-0.689659
0.118479
0.093801
-0.230129
-0.534058
-1.179321
-1.703792
-1.981225
-2.143320
-1.764578
-1.049437
-0.156874
0.974415
1.641499
1.305360
0.736987
0.470725
0.100816
-0.172460
0.170434
0.855702
1.054164
0.481636
-0.277666
-0.548084
-0.156873
0.573074
0.916747
0.255638
-0.825256
-0.707321
1.220157
3.275960
3.963566
4.125661
4.618181
4.801837
4.150599
2.812794
1.012083
-0.724466
-1.884849
-2.463352
-2.218391
-1.341414
-1.375444
-2.782607
-3.721927
-3.236161
-2.551413
-2.228002
-1.605858
-0.689656
-0.168302
-0.463138
-1.099829
-1.227116
-0.596659
0.106013
0.181866
-0.066213
-0.224671
-0.330397
-0.462359
-0.288054
0.397993
1.092353
1.440701
1.365888
1.232368
1.688001
2.776948
4.175279
5.346832
5.643227
4.921332
3.750818
2.732268
1.919714
1.340691
0.901424
0.075102
-1.093074
-1.990312
-2.653240
-3.546062
-4.687483
-5.701876
-6.087372
-5.999570
-6.064252
-5.892546
-4.764374
-3.380850
-2.706232
-2.081750
-1.018000
-0.208044
-0.271687
-1.269196
-2.260210
-2.301254
-1.411808
-0.428587
0.180569
0.784270
0.859603
0.038736
-0.594838
-0.323121
0.393319
0.955197
1.413948
1.866204
1.723072
0.666336
0.003928
0.888437
2.038690
1.924132
0.923247
-0.088809
-1.037222
-1.745349
-1.570525
-0.835902
-0.483916
-0.995139
-2.055772
-2.420486
-1.686901
-1.024233
-1.317771
-1.728464
-1.090733
0.239798
1.148206
0.760892
-0.412999
-1.098007
-1.252309
-1.033844
-0.378969
-0.082574
-0.553533
-0.815379
-0.251682
0.704523
1.734243
2.652523
3.116469
2.989962
2.569138
2.470686
3.145823
4.128265
4.628318
4.812234
5.038232
4.768333
3.622757
2.416135
2.016352
2.345738
2.981650
3.550542
3.857068
4.020981
4.038646
3.572622
2.528875
1.374986
0.599838
0.632309
1.583839
2.657460
3.022174
2.617196
1.734505
0.740893
0.472552
1.411354
2.393796
2.195593
1.468763
1.402782
1.949073
2.157927
1.182758
-0.446246
-1.414921
-1.840161
-2.541794
-3.218230
-3.437474
-3.710490
-4.274706
-4.808009
-5.240782
-5.840587
-6.914207
-8.034586
-8.265260
-7.698187
-7.178651
-7.000970
-7.106435
-7.000450
-6.472861
-5.652254
-4.696568
-4.385886
-4.268470
-3.955710
-4.008702
-3.902717
-3.592554
-3.568915
-3.656457
-3.577228
-3.567876
-4.034679
-4.365104
-3.835696
-2.978982
-2.662065
-2.624918
-2.080704
-1.662738
-2.020698
-2.052909
-1.542984
-1.553895
-2.010826
-2.171103
-1.986928
-1.646631
-0.789397
0.613609
1.733729
2.079999
1.899720
1.492404
1.028979
0.515937
-0.072697
-0.479234
-0.643927
-1.028643
-1.805869
-2.417102
-2.578158
-2.635307
-2.535037
-2.046933
-1.661437
-1.969002
-2.924169
-3.773610
-4.091826
-4.238335
-4.125595
-3.454095
-2.345146
-1.388161
-1.058256
-0.775368
0.288122
1.970639
3.246878
3.274933
1.969340
0.313839
-0.401302
-0.073215
0.604000
0.970532
0.812853
0.640368
0.791033
0.989755
1.195492
1.427724
1.384603
1.203285
1.450324
2.257423
2.954121
2.696431
1.671127
0.915203
0.682191
0.473337
0.257211
0.039785
-0.260247
-0.270638
0.108624
0.362157
0.231754
0.214349
0.794151
1.869850
2.787870
2.774103
2.128060
1.814000
2.019737
2.232746
2.172740
2.024672
1.978174
1.857642
1.292647
0.647123
0.527630
0.727911
0.801426
0.930530
1.739448
2.876972
3.236490
2.412507
1.035996
0.092779
-0.212968
-0.554303
-1.448424
-2.281759
-2.411643
-2.308515
-2.339947
-2.286435
-2.270589
-2.644135
-2.987808
-2.793761
-2.471909
-2.481001
-2.780513
-3.370446
-3.944793
-3.690220
-2.716870
-2.065891
-2.082776
-2.010561
-1.227880
-0.103604
0.736226
1.060936
1.259658
1.804132
2.511999
2.878792
2.790211
2.776183
3.233115
3.849025
4.143342
4.141784
4.283097
4.702623
5.022917
5.168127
5.471276
5.691819
5.405815
4.935895
4.904723
5.446079
6.114981
6.432158
6.399687
6.372152
6.392673
6.392154
6.556327
6.703096
6.546976
