EVENT_NAME: 202302060117
EVENT_ID: 13194
EVENT_DATE_YYYYMMDD: 2023/02/06
EVENT_TIME_HHMMSS: 01:17:32.00000
EVENT_LATITUDE_DEGREE: 37.288
EVENT_LONGITUDE_DEGREE: 37.043
EVENT_DEPTH_KM: 8.6
HYPOCENTER_REFERENCE: AFAD
MAGNITUDE_W: 7.7
MAGNITUDE_W_REFERENCE: AFAD
MAGNITUDE_L: 
MAGNITUDE_L_REFERENCE: 
FOCAL_MECHANISM: 
NETWORK: TK
STATION_CODE: 0634
STATION_NAME: 
STATION_LATITUDE_DEGREE: 40.106133
STATION_LONGITUDE_DEGREE: 33.415955
STATION_ELEVATION_M: 710.0
LOCATION: Kahramanmaras_Pazarck_Turkiye
SENSOR_DEPTH_M: 
VS30_M/S: None
SITE_CLASSIFICATION_EC8: unknown
MORPHOLOGIC_CLASSIFICATION: 
EPICENTRAL_DISTANCE_KM: 444.08
EARTHQUAKE_BACKAZIMUTH_DEGREE: 
DATE_TIME_FIRST_SAMPLE_YYYYMMDD_HHMMSS: 2023/02/06 01:18:08.4087050
DATE_TIME_FIRST_SAMPLE_PRECISION: millisecond
SAMPLING_INTERVAL_S: 0.01
NDATA: 21001
DURATION_S: 
STREAM: HNE
UNITS: cm/s^2
INSTRUMENT: sensor = ACEBOX/SARA | digitizer = 
INSTRUMENT_ANALOG/DIGITAL: 
INSTRUMENTAL_FREQUENCY_HZ: 
INSTRUMENTAL_DAMPING: 
FULL_SCALE_G: 
N_BIT_DIGITAL_CONVERTER: 
PGA_CM/S^2: 5.256
TIME_PGA_S: 
BASELINE_CORRECTION: BASELINE REMOVED
FILTER_TYPE: BUTTERWORTH
FILTER_ORDER: 
LOW_CUT_FREQUENCY_HZ: 
HIGH_CUT_FREQUENCY_HZ: 
LATE/NORMAL_TRIGGERED: 
DATABASE_VERSION: 
HEADER_FORMAT: DYNA 1.2
DATA_TYPE: Acceleration
PROCESSING: Automatic Paolucci et al., 2011
DATA_TIMESTAMP_YYYYMMDD_HHMMSS: 
DATA_LICENSE: U (unknown license)
DATA_CITATION: Turkish Accelerometric Archive v 1.0 - Disaster And Emergency Management Presidency, Earthquake Department
DATA_CREATOR: AFAD
ORIGINAL_DATA_MEDIATOR_CITATION: : AFAD - Disaster And Emergency Management Presidency
ORIGINAL_DATA_MEDIATOR: AFAD PROCESS SERVICE
ORIGINAL_DATA_CREATOR_CITATION: AFAD PROCESS SERVICE
ORIGINAL_DATA_CREATOR: network: TK
USER1: GuestUser
USER2: 
USER3: 
USER4: 
USER5: 
[...]
-0.227232
-0.284279
-0.338754
-0.401411
-0.452379
-0.503580
-0.566472
-0.622817
-0.674720
-0.730363
-0.788812
-0.844456
-0.895891
-0.952704
-1.006945
-1.051834
-1.099061
-1.142547
-1.182292
-1.221570
-1.251730
-1.281656
-1.314621
-1.342911
-1.369330
-1.395749
-1.424506
-1.448587
-1.461445
-1.475941
-1.487630
-1.485994
-1.482720
-1.482253
-1.471732
-1.454197
-1.438299
-1.418893
-1.395747
-1.370497
-1.340103
-1.307372
-1.272769
-1.230686
-1.184628
-1.139037
-1.087835
-1.033828
-0.980288
-0.924878
-0.868533
-0.805174
-0.743218
-0.685236
-0.622110
-0.562960
-0.503809
-0.442086
-0.386442
-0.327993
-0.270479
-0.217173
-0.158256
-0.097936
-0.040422
0.017093
0.076243
0.134927
0.190337
0.246214
0.298585
0.350020
0.402625
0.448449
0.497079
0.550385
0.599716
0.652789
0.711004
0.768518
0.829540
0.895938
0.963506
1.032944
1.107759
1.181405
1.253882
1.333140
1.407721
1.477860
1.551039
1.622815
1.688980
1.744390
1.794890
1.844455
1.883499
1.912490
1.935870
1.956678
1.972810
1.977253
1.976785
1.979591
1.978422
1.971642
1.966966
1.962290
1.958316
1.956212
1.952471
1.954575
1.959251
1.959953
1.964395
1.966499
1.968136
1.978423
1.986372
1.991750
2.005076
2.015130
2.017702
2.026820
2.038744
2.042485
2.048096
2.053941
2.049031
2.043654
2.036640
2.014196
1.988478
1.960890
1.918807
1.872749
1.822716
1.755617
1.682906
1.609961
1.522755
1.427599
1.335717
1.235184
1.127404
1.022663
0.917688
0.808972
0.702361
0.593879
0.482358
0.378318
0.271239
0.154808
0.045859
-0.061220
-0.175079
-0.290341
-0.403031
-0.513851
-0.628879
-0.744141
-0.858234
-0.975367
-1.086888
-1.191161
-1.301046
-1.416308
-1.523621
-1.631167
-1.745962
-1.856781
-1.971576
-2.089409
-2.202801
-2.320401
-2.433325
-2.540872
-2.650756
-2.750821
-2.841768
-2.926169
-3.004023
-3.074864
-3.135885
-3.194100
-3.238755
-3.271955
-3.310297
-3.332508
-3.338353
-3.345133
-3.334378
-3.310063
-3.281773
-3.236884
-3.184280
-3.130272
-3.062939
-2.988825
-2.916815
-2.842234
-2.767185
-2.697513
-2.632751
-2.572197
-2.513047
-2.456935
-2.409942
-2.366923
-2.321800
-2.281821
-2.247920
-2.213084
-2.179417
-2.149959
-2.120032
-2.089405
-2.060648
-2.033293
-2.005471
-1.978818
-1.953802
-1.926915
-1.905873
-1.886936
-1.860984
-1.840410
-1.825213
-1.809782
-1.792481
-1.774011
-1.758346
-1.739642
-1.715327
-1.690779
-1.662489
-1.629757
-1.594921
-1.561021
-1.525016
-1.478958
-1.434770
-1.392920
-1.339848
-1.289114
-1.241419
-1.181333
-1.120780
-1.059525
-0.993360
-0.935846
-0.875760
-0.807724
-0.748340
-0.692228
-0.630272
-0.570186
-0.515010
-0.459833
-0.403254
-0.349949
-0.298513
-0.250585
-0.212242
-0.173899
-0.138595
-0.117086
-0.095576
-0.076639
-0.065650
-0.047881
-0.029178
-0.014682
0.008464
0.039559
0.076032
0.116245
0.157861
0.200412
0.245301
0.293931
0.343263
0.395867
0.451277
0.508791
0.576125
0.647433
0.719677
0.804311
0.892219
0.978257
1.077387
1.181894
1.284765
1.394884
1.504535
1.616524
1.732721
1.838865
1.947581
2.063545
2.166182
2.265546
2.367248
2.455156
2.534881
2.612735
2.684277
2.746234
2.800709
2.851443
2.892825
2.922985
2.951742
2.976758
2.994060
3.005282
3.010659
3.012530
3.011127
3.006451
3.003880
3.006452
3.007621
3.013466
3.031702
3.048302
3.068876
3.100906
3.136677
3.174085
3.208453
3.246796
3.295894
3.339146
3.378191
3.424482
3.462825
3.493687
3.525951
3.547226
3.557514
3.563592
3.555643
3.535303
3.502338
3.455345
3.399467
3.331199
3.251006
3.161228
3.060228
2.953149
2.836250
2.712338
2.590763
2.462876
2.334756
2.208973
2.078046
1.953666
1.834430
1.720571
1.615128
1.506880
1.406815
1.318206
1.227493
1.144495
1.065939
0.987383
0.916075
0.848274
0.785383
0.725765
0.663575
0.601151
0.543871
0.486590
0.417854
0.349118
0.284356
0.211412
0.136597
0.059210
-0.023087
-0.099538
-0.180432
-0.266002
-0.347363
-0.435505
-0.525283
-0.606878
-0.689408
-0.778251
-0.867328
-0.951027
-1.037064
-1.124738
-1.211243
-1.299618
-1.385889
-1.476836
-1.571290
-1.662004
-1.756925
-1.854419
-1.949340
-2.047769
-2.151575
-2.252107
-2.346328
-2.444288
-2.539911
-2.628287
-2.719468
-2.803868
-2.883359
-2.966357
-3.036029
-3.097050
-3.158538
-3.207168
-3.249251
-3.288763
-3.315649
-3.338094
-3.350953
-3.351654
-3.354226
-3.353290
-3.342302
-3.328274
-3.314012
-3.295542
-3.278475
-3.266551
-3.250419
-3.237092
-3.230312
-3.220726
-3.220492
-3.229143
-3.237559
-3.259536
-3.291566
-3.324532
-3.366147
-3.415011
-3.465979
-3.520453
-3.574460
-3.628935
-3.679435
-3.720116
-3.757056
-3.789319
-3.807322
-3.816206
-3.818544
-3.811062
-3.794930
-3.771316
-3.735545
-3.693462
-3.646001
-3.586850
-3.521153
-3.450546
-3.373393
-3.286420
-3.188459
-3.091901
-2.988562
-2.874703
-2.762714
-2.642074
-2.515590
-2.390041
-2.258646
-2.122109
-1.984870
-1.852073
-1.715067
-1.575256
-1.446200
-1.315741
-1.183412
-1.055992
-0.926936
-0.798815
-0.666252
-0.532754
-0.402295
-0.263887
-0.127816
0.006617
0.145259
0.278290
0.409684
0.539208
0.667329
0.797320
0.918661
1.037664
1.157836
1.275202
1.394205
1.506428
1.613273
1.720820
1.818548
1.917444
2.015171
2.095831
2.176258
2.254346
2.321914
2.391118
2.453776
2.508952
2.566232
2.622344
2.675416
2.723344
2.771039
2.818968
2.864558
2.911552
2.956207
2.998291
3.037101
3.073340
3.112384
3.145817
3.169431
3.189070
3.204968
3.213852
3.211047
3.197487
3.176913
3.142778
3.096721
3.050195
2.996889
2.933063
2.868535
2.798630
2.718905
2.639881
2.562261
2.476224
2.382003
2.291056
2.200343
2.101915
2.009331
1.920020
1.826969
1.744907
1.668221
1.599952
1.548283
1.497316
1.458973
1.441438
1.422735
1.411279
1.414318
1.422501
1.436295
1.452895
1.475340
1.504564
1.532854
1.561845
1.595979
1.630815
1.665651
1.707501
1.751455
1.783485
1.820192
1.866717
1.901320
1.933350
1.972628
1.999748
2.019621
2.041131
2.057964
2.071057
2.076435
2.071759
2.063342
2.046509
2.015414
1.974967
1.928441
1.866252
1.791670
1.713348
1.627077
1.532623
1.428817
1.318465
1.206710
1.086538
0.959353
0.831700
0.700306
0.564937
0.431673
0.297240
0.162339
0.032581
-0.094137
-0.218049
-0.335182
-0.445066
-0.548171
-0.640520
-0.729831
-0.817505
-0.883903
-0.936040
-0.992852
-1.043352
-1.079123
-1.107880
-1.137105
-1.162355
-1.180825
-1.202802
-1.222674
-1.236702
-1.252366
-1.271304
-1.294450
-1.312452
-1.330454
-1.357575
-1.380019
-1.407607
-1.439169
-1.467225
-1.502996
-1.532688
-1.561445
-1.598385
-1.628778
-1.660341
-1.688163
-1.710140
-1.736792
-1.753158
-1.769290
-1.785422
-1.792669
-1.803424
-1.811139
-1.814179
-1.816984
-1.817218
-1.819789
-1.818386
-1.816984
-1.813243
-1.806930
-1.806462
-1.802488
-1.800851
-1.802254
-1.798980
-1.800383
-1.799915
-1.794538
-1.787524
-1.777003
-1.760403
-1.730243
-1.697745
-1.658701
-1.599784
-1.538295
-1.474702
-1.398251
-1.313616
-1.227578
-1.142710
-1.054568
-0.964556
-0.870803
-0.774712
-0.687506
-0.602871
-0.518938
-0.434771
-0.351539
-0.285608
-0.220378
-0.146966
-0.082905
-0.015806
0.054568
0.121434
0.198353
0.283923
0.373467
0.469324
0.575702
0.686522
0.799446
0.921956
1.047038
1.176562
1.310294
1.442389
1.583369
1.726220
1.866498
2.014258
2.166694
2.320299
2.467825
2.611143
2.760773
2.900350
3.022860
3.147007
3.264139
3.365373
3.458425
3.540020
3.612965
3.676558
3.730332
3.778961
3.815902
3.839515
3.861025
3.879027
3.878092
3.867337
3.854713
3.826423
3.789717
3.740386
3.668377
3.591457
3.500510
3.391561
3.273260
3.139528
2.996210
2.840735
2.672635
2.501963
2.325680
2.142851
1.956514
1.768775
1.577061
1.383477
1.195972
1.007298
0.814649
0.624806
0.436833
0.249094
0.060653
-0.126618
-0.308980
-0.492043
-0.675340
-0.855364
-1.028140
-1.198110
-1.376965
-1.549975
-1.710126
-1.875187
-2.035572
-2.183565
-2.329455
-2.466927
-2.594347
-2.718727
-2.828611
-2.925637
-3.016350
-3.088126
-3.144004
-3.187957
-3.211103
-3.222092
-3.216480
-3.188658
-3.147510
-3.089996
-3.013544
-2.925168
-2.825337
-2.711477
-2.585694
-2.450092
-2.302332
-2.148727
-1.992784
-1.828425
-1.657285
-1.486613
-1.315473
-1.144801
-0.979740
-0.818420
-0.659905
-0.505599
-0.358306
-0.221769
-0.088504
0.034473
0.144124
0.254009
0.349866
0.434033
0.511888
0.567766
0.615460
0.656609
0.676014
0.681391
0.672975
0.653336
0.625748
0.580859
0.527553
0.472143
0.406680
0.334203
0.259388
0.183170
0.106251
0.032138
-0.039638
-0.112816
-0.178513
-0.232287
-0.281384
-0.324636
-0.356900
-0.373500
-0.381916
-0.386826
-0.374435
-0.349184
-0.323934
-0.292371
-0.252860
-0.207503
-0.161912
-0.121465
-0.077979
-0.036830
-0.006904
0.023489
0.045700
0.056455
0.066275
0.066742
0.060898
0.054351
0.037518
0.017412
-0.002461
-0.027711
-0.053896
-0.079146
-0.102058
-0.118892
-0.140167
-0.162144
-0.169391
-0.179912
-0.196979
-0.200720
-0.207734
-0.223164
-0.236958
-0.253792
-0.272261
-0.298447
-0.330243
-0.359701
-0.395940
-0.433113
-0.468183
-0.508162
-0.545803
-0.583211
-0.620151
-0.654285
-0.693563
-0.728866
-0.757623
-0.790355
-0.819579
-0.839919
-0.860493
-0.884107
-0.897901
-0.904447
-0.914266
-0.920111
-0.925722
-0.927826
-0.926891
-0.934372
-0.937412
-0.934606
-0.942321
-0.949335
-0.953076
-0.961258
-0.970376
-0.977390
-0.985573
-0.993288
-0.997497
-1.006848
-1.015499
-1.014096
-1.015499
-1.018304
-1.010355
-1.001704
-0.997262
-0.992118
-0.989546
-0.985104
-0.983701
-0.993988
-1.003574
-1.018771
-1.044021
-1.065062
-1.093585
-1.125849
-1.154606
-1.191780
-1.223810
-1.250463
-1.280856
-1.302833
-1.323407
-1.341877
-1.347956
-1.353333
-1.353567
-1.341877
-1.332758
-1.325744
-1.304936
-1.277582
-1.255605
-1.226614
-1.190141
-1.154137
-1.111118
-1.062955
-1.010585
-0.951668
-0.891348
-0.831496
-0.770475
-0.707583
-0.647029
-0.585073
-0.518908
-0.457887
-0.397567
-0.334442
-0.271083
-0.207724
-0.144832
-0.082876
-0.026063
0.034257
0.095044
0.149519
0.207969
0.262444
0.313178
0.365081
0.409035
0.453924
0.497644
0.532714
0.568017
0.595839
0.618518
0.646340
0.668784
0.685384
0.703387
0.719986
0.734014
0.744535
0.755991
0.768850
0.778904
0.790827
0.803453
0.814441
0.831509
0.851849
0.871254
0.899076
0.932509
0.965007
1.010832
1.066709
1.123756
1.193661
1.275491
1.362931
1.458554
1.559788
1.667569
1.777688
1.887572
2.000497
2.112018
2.216759
2.315188
2.408473
2.495446
2.570495
2.633387
2.685290
2.722697
2.749584
2.766651
2.765950
2.754494
2.733920
2.703760
2.671029
2.626140
2.576107
2.529816
2.474873
2.417126
2.361950
2.304903
2.243648
2.177250
2.114359
2.046791
1.971743
1.899265
1.818839
1.736309
1.656584
1.562598
1.470014
1.384445
1.289991
1.195303
1.104122
1.011772
0.917786
0.821695
0.731450
0.640502
0.547217
0.460946
0.376312
0.292379
0.212420
0.138307
0.064193
-0.012726
-0.078891
-0.139210
-0.202803
-0.260551
-0.311285
-0.361084
-0.406206
-0.439405
-0.473540
-0.502998
-0.518429
-0.533625
-0.540172
-0.537132
-0.531053
-0.510479
-0.486398
-0.459745
-0.415791
-0.369733
-0.320635
-0.256107
-0.193215
-0.130324
-0.052469
0.025152
0.103240
0.188342
0.265496
0.340778
0.416529
0.483161
0.544416
0.600060
0.649391
0.694514
0.732857
0.761614
0.787566
0.812115
0.826844
0.836664
0.848354
0.851159
0.845314
0.842041
0.832690
0.815389
0.802998
0.785463
0.758343
0.734729
0.711349
0.682359
0.650095
0.615727
0.582294
0.546055
0.504206
0.460252
0.414194
0.371643
0.327689
0.278592
0.238613
0.195360
0.148835
0.112362
0.073786
0.038015
0.007855
-0.025344
-0.053165
-0.080520
-0.105068
-0.125409
-0.150191
-0.170765
-0.186429
-0.200925
-0.214017
-0.226408
-0.231786
-0.240904
-0.252126
-0.252126
-0.258204
-0.266153
-0.265218
-0.274570
-0.283688
-0.282986
-0.291169
-0.297949
-0.296079
-0.298183
-0.305196
-0.310340
-0.314080
-0.317354
-0.319925
-0.326238
-0.329744
-0.331147
-0.340733
-0.346110
-0.348448
-0.352656
-0.354760
-0.360839
-0.358968
-0.352422
-0.356630
-0.354058
-0.348681
-0.347512
-0.337458
-0.329977
-0.323898
-0.312676
-0.306830
-0.295842
-0.282749
-0.275969
-0.265448
-0.261941
-0.262642
-0.259369
-0.269890
-0.282748
-0.294672
-0.321091
-0.351484
-0.382579
-0.419987
-0.460434
-0.507894
-0.556758
-0.604452
-0.658226
-0.708024
-0.754784
-0.812999
-0.869110
-0.920546
-0.977826
-1.033703
-1.088646
-1.144289
-1.198530
-1.254174
-1.308648
-1.364058
-1.422975
-1.480723
-1.541043
-1.609779
-1.683659
-1.764085
-1.849655
-1.942004
-2.049317
-2.163878
-2.285686
-2.419886
-2.555488
-2.699039
-2.852878
-3.004144
-3.160789
-3.320472
-3.474544
-3.629552
-3.779649
-3.922733
-4.065350
-4.199783
-4.325332
-4.443633
-4.553752
-4.656622
-4.744998
-4.827528
-4.903278
-4.958688
-5.007084
-5.042621
-5.062961
-5.077690
-5.074417
-5.062727
-5.045660
-5.010122
-4.968506
-4.919409
-4.850906
-4.772350
-4.682104
-4.572220
-4.448541
-4.315978
-4.167049
-3.999182
-3.816820
-3.617858
-3.402064
-3.176917
-2.937976
-2.681266
-2.415205
-2.140727
-1.851052
-1.551791
-1.249959
-0.942983
-0.628525
-0.315003
-0.005923
0.303157
0.609899
0.909160
1.199770
1.485003
1.763689
2.033725
2.297682
2.550651
2.789358
3.023623
3.247367
3.461525
3.668670
3.860851
4.043213
4.212249
4.368659
4.517355
4.645008
4.762842
4.871324
4.958063
5.036619
5.100679
5.152115
5.195835
5.219215
5.238386
5.254518
5.256389
5.253817
5.244933
5.233010
5.221320
5.198642
5.171989
5.151415
5.123359
5.084315
5.049012
5.009266
4.957597
4.903356
4.846076
4.781548
4.713046
4.640101
4.564585
4.485561
4.400927
4.313019
4.223241
4.130658
4.033866
3.930293
3.824383
3.716603
3.599003
3.483975
3.375493
3.259530
3.140761
3.029006
2.922628
2.818121
2.712445
2.615185
2.525407
2.434694
2.353566
2.275946
2.194584
2.123043
2.057112
1.998429
1.952605
1.914963
1.885505
1.858385
1.841318
1.833602
1.825653
1.829628
1.836642
1.837577
1.841786
1.841318
1.834772
1.820277
1.796430
1.769075
1.722784
1.658723
1.597702
1.522420
1.431005
1.338188
1.236720
1.126835
1.009001
0.881816
0.756734
0.630484
0.500025
0.365124
0.229054
0.097894
-0.030227
-0.155074
-0.279922
-0.402899
-0.516291
-0.626877
-0.736060
-0.841269
-0.941801
-1.031346
-1.116915
-1.204355
-1.288288
-1.364272
-1.436282
-1.504083
-1.567910
-1.634542
-1.699303
-1.756584
-1.815267
-1.880028
-1.945725
-2.004876
-2.054908
-2.104006
-2.154506
-2.200798
-2.240075
-2.272807
-2.300862
-2.327281
-2.348323
-2.362818
-2.379184
-2.396485
-2.407240
-2.415890
-2.426411
-2.433425
-2.436464
-2.439971
-2.444413
-2.442308
-2.439970
-2.441841
-2.435996
-2.432021
-2.435995
-2.435060
-2.439502
-2.447919
-2.452828
-2.464752
-2.479481
-2.494678
-2.514784
-2.537229
-2.563648
-2.592405
-2.622798
-2.655062
-2.686157
-2.720759
-2.753490
-2.775935
-2.800717
-2.820356
-2.823629
-2.828773
-2.830409
-2.812173
-2.786689
-2.756529
-2.716082
-2.666049
-2.610873
-2.550319
-2.483453
-2.411443
-2.327744
-2.245213
-2.165255
-2.070567
-1.974242
-1.883529
-1.789776
-1.696257
-1.600634
-1.509920
-1.428559
-1.346262
-1.268173
-1.198034
-1.132805
-1.075057
-1.018711
-0.963769
-0.913736
-0.861599
-0.806891
-0.754052
-0.700513
-0.633880
-0.559766
-0.491030
-0.409902
-0.316383
-0.224735
-0.121162
-0.008472
0.102816
0.226027
0.353680
0.478528
0.610858
0.740381
0.868736
0.995922
1.109548
1.222939
1.330252
1.417459
1.503029
1.579714
1.640969
1.700120
1.751556
1.791769
1.827306
1.862142
1.894406
1.914747
1.932749
1.956129
1.968287
1.974132
1.983250
1.983250
1.977639
1.965014
1.944674
1.924333
1.890199
1.846947
1.807903
1.758104
1.701525
1.647284
1.586497
1.522904
1.462117
1.399226
1.336568
1.280223
1.225982
1.173846
1.128957
1.087341
1.048531
1.018605
0.993121
0.970443
0.957116
0.951272
0.951505
0.957818
0.964832
0.978626
0.998733
1.016735
1.039648
1.066301
1.090382
1.114931
1.145792
1.178991
1.208918
1.239545
1.271108
1.300333
1.330960
1.354340
1.372810
1.396891
1.414660
1.426116
1.440144
1.451366
1.459082
1.464693
1.473110
1.480124
1.477786
1.470772
1.460485
1.446691
1.426351
1.395490
1.364629
1.329559
1.283268
1.232300
1.177124
1.116337
1.052043
0.981903
0.910362
0.840456
0.761433
0.681942
0.610400
0.533481
0.457965
0.381045
0.297112
0.222531
0.143274
0.053730
-0.031139
-0.120683
-0.215137
-0.305616
-0.396563
-0.491719
-0.586173
-0.674080
-0.758247
-0.838206
-0.907877
-0.970301
-1.028049
-1.076445
-1.113385
-1.147285
-1.176276
-1.192876
-1.205033
-1.215320
-1.217658
-1.216956
-1.214852
-1.207137
-1.201993
-1.203162
-1.202227
-1.199655
-1.205032
-1.219060
-1.233789
-1.255064
-1.288497
-1.321696
-1.357233
-1.402590
-1.447713
-1.495407
-1.550583
-1.596875
-1.643634
-1.696706
-1.739491
-1.784380
-1.831373
-1.865975
-1.902213
-1.937750
-1.965572
-1.995966
-2.018878
-2.033841
-2.053480
-2.070780
-2.085743
-2.098368
-2.110993
-2.136010
-2.161026
-2.180197
-2.209655
-2.241452
-2.275118
-2.319306
-2.369338
-2.422177
-2.473846
-2.529489
-2.593082
-2.656675
-2.718865
-2.781522
-2.849557
-2.909643
-2.962715
-3.026308
-3.081951
-3.134556
-3.196044
-3.244440
-3.293304
-3.344505
-3.382848
-3.423996
-3.459533
-3.487121
-3.513306
-3.526165
-3.534815
-3.540426
-3.532711
-3.519618
-3.495771
-3.463039
-3.425631
-3.378404
-3.323462
-3.259167
-3.192067
-3.123097
-3.044074
-2.961543
-2.879714
-2.799755
-2.714887
-2.621368
-2.534629
-2.453501
-2.362086
-2.271840
-2.189777
-2.105143
-2.021209
-1.937977
-1.851706
-1.770344
-1.687580
-1.597101
-1.511063
-1.425727
-1.331506
-1.236117
-1.142598
-1.043702
-0.941532
-0.838661
-0.736024
-0.634790
-0.529113
-0.429048
-0.333659
-0.227982
-0.129320
-0.038840
0.057952
0.148899
0.235171
0.318636
0.396023
0.469670
0.534665
0.596154
0.654604
0.701597
0.748824
0.795817
0.831822
0.867360
0.903598
0.932355
0.957606
0.984492
1.008340
1.027979
1.047618
1.063283
1.076375
1.090169
1.103028
1.115887
1.123603
1.132955
1.146983
1.153062
1.160076
1.170597
1.177377
1.183923
1.190703
1.199120
1.204732
1.212447
1.229280
1.244244
1.259908
1.282587
1.303862
1.326774
1.356701
1.385224
1.413046
1.441102
1.462144
1.479912
1.496746
1.504695
1.505864
1.508670
1.507968
1.497681
1.484121
1.473367
1.457702
1.435492
1.413983
1.389902
1.362080
1.336596
1.303631
1.265756
1.234661
1.200526
1.158209
1.115892
1.072640
1.025880
0.974679
0.920438
0.860820
0.794655
0.727088
0.653909
0.572081
0.490485
0.412397
0.326126
0.230737
0.138387
0.046271
-0.049586
-0.142637
-0.233350
-0.327103
-0.420388
-0.508062
-0.590592
-0.672421
-0.752847
-0.826025
-0.896866
-0.964433
-1.022649
-1.082033
-1.137910
-1.186774
-1.230260
-1.265797
-1.302971
-1.335001
-1.362121
-1.391346
-1.411686
-1.433195
-1.458913
-1.475045
-1.493982
-1.517830
-1.535364
-1.553367
-1.573473
-1.588436
-1.599892
-1.609945
-1.620466
-1.631922
-1.635429
-1.635896
-1.643144
-1.645715
-1.641741
-1.642208
-1.639636
-1.629115
-1.619530
-1.609242
-1.592643
-1.570432
-1.540973
-1.506371
-1.471535
-1.427815
-1.376847
-1.331490
-1.280756
-1.220904
-1.166196
-1.108681
