EVENT_NAME: 202302060117
EVENT_ID: 13194
EVENT_DATE_YYYYMMDD: 2023/02/06
EVENT_TIME_HHMMSS: 01:17:32.00000
EVENT_LATITUDE_DEGREE: 37.288
EVENT_LONGITUDE_DEGREE: 37.043
EVENT_DEPTH_KM: 8.6
HYPOCENTER_REFERENCE: AFAD
MAGNITUDE_W: 7.7
MAGNITUDE_W_REFERENCE: AFAD
MAGNITUDE_L: 
MAGNITUDE_L_REFERENCE: 
FOCAL_MECHANISM: 
NETWORK: TK
STATION_CODE: 3144
STATION_NAME: 
STATION_LATITUDE_DEGREE: 36.75691
STATION_LONGITUDE_DEGREE: 36.485742
STATION_ELEVATION_M: 843.0
LOCATION: Kahramanmaras_Pazarck_Turkiye
SENSOR_DEPTH_M: 
VS30_M/S: 485
SITE_CLASSIFICATION_EC8: B
MORPHOLOGIC_CLASSIFICATION: 
EPICENTRAL_DISTANCE_KM: 77.04
EARTHQUAKE_BACKAZIMUTH_DEGREE: 
DATE_TIME_FIRST_SAMPLE_YYYYMMDD_HHMMSS: 2023/02/06 01:17:22.8559990
DATE_TIME_FIRST_SAMPLE_PRECISION: millisecond
SAMPLING_INTERVAL_S: 0.01
NDATA: 11251
DURATION_S: 
STREAM: HNE
UNITS: cm/s^2
INSTRUMENT: sensor = ACEBOX/SARA | digitizer = 
INSTRUMENT_ANALOG/DIGITAL: 
INSTRUMENTAL_FREQUENCY_HZ: 
INSTRUMENTAL_DAMPING: 
FULL_SCALE_G: 
N_BIT_DIGITAL_CONVERTER: 
PGA_CM/S^2: 763.363
TIME_PGA_S: 
BASELINE_CORRECTION: BASELINE REMOVED
FILTER_TYPE: BUTTERWORTH
FILTER_ORDER: 
LOW_CUT_FREQUENCY_HZ: 
HIGH_CUT_FREQUENCY_HZ: 
LATE/NORMAL_TRIGGERED: 
DATABASE_VERSION: 
HEADER_FORMAT: DYNA 1.2
DATA_TYPE: Acceleration
PROCESSING: Manual Paolucci et al., 2011
DATA_TIMESTAMP_YYYYMMDD_HHMMSS: 
DATA_LICENSE: U (unknown license)
DATA_CITATION: Turkish Accelerometric Archive v 1.0 - Disaster And Emergency Management Presidency, Earthquake Department
DATA_CREATOR: AFAD
ORIGINAL_DATA_MEDIATOR_CITATION: : AFAD - Disaster And Emergency Management Presidency
ORIGINAL_DATA_MEDIATOR: AFAD PROCESS SERVICE
ORIGINAL_DATA_CREATOR_CITATION: AFAD PROCESS SERVICE
ORIGINAL_DATA_CREATOR: network: TK
USER1: GuestUser
USER2: 
USER3: 
USER4: 
USER5: 
[...]
-20.026355
-17.779095
-10.199853
-3.128420
0.880270
3.882228
6.377314
5.489587
-0.204310
-6.535304
-9.400722
-11.147420
-14.473652
-17.191777
-17.350290
-17.058276
-18.101010
-17.811100
-14.176720
-9.222788
-4.854051
-1.452066
2.329841
7.581396
11.733871
14.057350
17.424733
20.666334
20.676623
18.639315
16.500071
15.264220
16.550808
19.180328
20.598544
19.473980
12.397406
0.388645
-7.883335
-9.719811
-9.581635
-9.986336
-11.945322
-13.074094
-8.368688
1.027859
9.396166
13.873151
15.155531
15.085861
14.063467
11.753785
9.232050
7.880235
8.298266
8.780592
6.600434
3.831574
4.413497
6.866032
7.858971
6.844292
4.193734
0.924081
-1.869561
-4.417950
-5.859776
-5.300064
-4.400411
-3.791835
-2.255551
-0.322982
-0.241385
-2.088382
-4.033340
-7.273301
-11.935684
-14.212400
-13.540699
-10.610517
-5.145270
0.187647
3.847277
6.508359
8.391831
10.987450
15.190659
19.206362
21.785615
23.711639
24.535542
23.276545
22.004456
21.149461
17.136566
10.810949
7.810630
7.381614
2.545986
-7.326336
-16.381068
-22.371654
-25.670766
-25.565555
-23.330920
-20.367772
-16.756070
-14.766687
-14.504132
-11.457050
-4.515608
1.444120
2.144578
0.031987
-0.705642
-3.439899
-11.525776
-18.757124
-19.681557
-18.600476
-19.580553
-17.577610
-9.263778
-1.307422
1.833880
3.183593
4.670779
5.738533
5.280291
4.154092
5.967191
9.598999
10.668857
9.983832
11.494398
17.262880
23.742572
24.032249
17.305903
8.469771
2.192549
3.324831
13.792170
27.279234
36.502538
41.555132
45.141350
49.448365
56.685327
66.397033
72.545435
63.851685
40.826397
20.950592
11.115210
4.301424
-2.196034
-8.984103
-17.032572
-25.451376
-31.584111
-34.322343
-37.612102
-40.577118
-40.165399
-40.890871
-43.660198
-45.625262
-46.923069
-46.993207
-46.886126
-45.450843
-37.841208
-25.314817
-12.832379
-2.557222
5.235009
10.170704
11.873919
12.083637
13.549781
17.997775
24.461102
30.259977
34.797984
36.553335
33.662433
25.894053
9.884086
-11.223831
-25.526144
-31.491713
-34.270626
-35.439377
-39.640011
-47.519445
-53.114445
-55.879798
-56.652730
-55.128137
-54.680180
-55.108728
-52.606629
-48.109069
-43.692637
-37.118490
-26.031121
-12.664462
-0.809069
8.448369
17.973271
31.454491
45.929816
56.354838
63.704958
69.769193
75.681693
81.591856
84.210854
82.008953
75.376360
63.738869
45.494033
22.412634
4.417260
-3.178344
-7.288499
-15.903926
-29.787040
-42.258252
-48.888741
-50.046036
-46.436205
-42.985122
-42.443880
-40.916481
-35.114099
-24.886870
-15.319182
-9.467002
-3.876440
0.195375
-0.582701
-3.758368
-6.843555
-10.721081
-16.008638
-18.797838
-15.083499
-8.926681
-5.617045
-3.549341
-1.033213
0.817762
2.624548
4.759119
6.133147
6.834073
7.521672
8.574229
9.189819
8.277309
8.439800
12.570999
17.839155
19.946137
19.278414
19.639398
22.901339
25.834561
24.451886
18.815737
9.715413
-2.093685
-12.083373
-15.979369
-14.017575
-8.629248
-3.237647
-2.042942
-7.164737
-12.700353
-9.883095
-2.415141
0.014950
-1.396249
0.483015
5.732232
8.575443
8.836596
10.134172
10.095129
7.333284
6.761183
10.849832
16.585348
20.024975
17.961481
8.872848
-2.828002
-10.833453
-14.332929
-14.553866
-14.004207
-17.994891
-28.118311
-36.543427
-34.666268
-29.185824
-26.742875
-16.616880
0.189871
8.304976
10.911350
16.990548
22.344506
23.455980
20.489562
14.301184
7.783151
-0.255265
-10.840668
-18.569303
-21.665946
-24.704140
-28.816165
-28.346932
-19.194235
-6.828229
2.358603
8.980210
15.861567
24.468581
31.693385
34.335062
36.639837
42.586940
46.486446
38.695621
23.041025
15.061526
17.607113
21.157793
21.952004
21.580969
20.368264
19.236220
19.922884
20.905301
22.007423
24.985534
24.539451
17.614377
12.380359
13.274168
12.999925
4.910074
-5.914504
-10.773511
-10.760183
-11.386525
-11.797539
-8.278655
-3.521346
-4.286329
-9.733337
-12.189141
-10.093615
-10.313383
-15.577561
-20.105978
-21.566041
-23.162407
-26.397458
-30.433265
-29.940653
-21.977516
-13.796481
-9.378178
-4.794348
0.580419
3.661869
4.862887
8.781798
14.294505
15.496926
14.746438
17.300909
22.177688
26.621240
29.074009
29.681883
29.957298
31.209985
33.853065
36.055670
34.496945
28.348780
21.097793
17.147323
19.315794
26.340000
30.522635
26.410376
16.917274
7.000063
-0.053365
-4.539933
-10.448924
-19.292538
-26.945656
-28.181273
-23.701248
-19.943423
-22.954964
-31.713242
-36.048543
-31.363478
-25.851706
-23.527292
-20.667015
-16.392965
-12.844857
-10.760319
-7.367451
-3.012040
-2.857265
-4.762010
-1.977950
5.142814
12.103896
16.746176
20.569932
25.623227
31.875903
38.742062
43.872043
43.602009
35.355514
16.936031
-5.054003
-16.141836
-17.618498
-21.821704
-28.653259
-33.374091
-32.477010
-23.892908
-15.195882
-8.182664
3.448752
14.204129
18.168397
20.935155
26.076359
28.332738
21.301286
6.990791
-6.254991
-12.910964
-15.103981
-18.817615
-24.086235
-27.138457
-27.839847
-28.794440
-32.351664
-34.572269
-30.290971
-24.904047
-24.400914
-26.284383
-26.162807
-20.590248
-13.116215
-13.072260
-20.173850
-26.774179
-28.212031
-23.703483
-17.073225
-10.656423
-4.247337
0.902049
7.052321
13.849978
15.939894
13.946306
10.279899
6.537741
7.620692
13.428451
15.510885
8.723284
-0.008341
-2.444273
-1.207016
-1.456476
-3.698824
-7.898523
-14.275342
-20.113726
-22.235434
-23.830164
-27.646435
-28.045058
-22.434623
-16.643931
-12.737645
-5.926895
2.393249
4.667631
1.124201
-4.188139
-10.216600
-15.313145
-19.057173
-20.536874
-17.934008
-12.399791
-4.562671
4.674660
12.979140
20.426988
26.026901
26.405421
23.034533
20.482871
16.600903
7.840054
0.214991
0.475910
3.115015
-0.795710
-6.686230
-5.877290
-3.442056
-5.690016
-7.389019
-4.206101
-2.113848
-6.726199
-10.913506
-9.606812
-10.885448
-15.088186
-14.998172
-14.058773
-16.279144
-17.652702
-16.325433
-13.202134
-8.758348
-8.386842
-14.938074
-20.249479
-20.998798
-21.124813
-19.227079
-15.562773
-12.277920
-8.725135
-8.176411
-10.372233
-9.613092
-9.456914
-15.583804
-20.777842
-16.365385
-7.449758
-3.753422
-3.680710
1.169650
9.795835
13.514149
12.222654
13.081159
17.780953
23.204584
26.466291
27.270321
27.243202
25.101621
21.526161
21.954713
24.815925
23.225638
18.137276
14.557841
11.625557
6.275109
-0.390684
-8.280405
-18.911399
-25.522249
-21.404376
-15.865016
-20.945662
-31.456251
-36.187604
-36.159781
-36.398720
-35.539981
-32.567481
-31.422575
-36.511638
-41.468372
-33.924902
-19.853345
-14.914376
-19.599905
-26.817693
-31.559334
-29.796033
-22.239470
-14.840954
-12.912593
-16.395002
-22.220059
-25.577854
-22.992054
-18.358191
-14.995484
-12.270341
-10.558944
-6.630914
1.604362
9.537339
14.680880
18.654968
21.430610
20.702100
18.153477
19.472095
24.717105
28.745433
28.289764
24.721785
23.974571
30.374305
41.304796
49.952491
53.029264
54.203629
56.967348
59.697868
58.858771
52.170535
40.449110
28.373249
20.937563
17.238658
13.245168
8.945872
6.779975
9.626692
17.571593
24.487785
25.410584
22.183950
20.276166
21.817592
24.040071
25.751001
26.180955
26.544278
30.061526
30.894547
26.413122
24.461384
24.286505
21.563236
17.925119
15.807151
18.258517
20.977113
16.602534
10.757604
11.201586
14.164734
13.092542
8.411688
5.279508
5.775861
5.077276
-1.592023
-10.012932
-13.944465
-14.325085
-14.883392
-15.752414
-12.252702
-5.736770
-5.210491
-7.797456
-5.807840
-3.282828
-1.365455
2.770420
4.031056
0.869418
0.350623
5.288890
11.513744
17.514854
27.448200
39.500216
42.883966
36.458517
34.082905
43.573205
55.874216
59.786581
55.387453
46.006807
32.228668
22.477921
25.320429
30.083816
22.126528
5.267876
-11.588671
-28.761079
-46.223863
-60.056009
-69.765841
-81.006111
-98.987925
-116.573452
-126.525732
-138.571901
-154.392025
-158.927691
-154.208258
-154.431766
-154.321412
-141.085680
-122.447361
-113.878455
-109.826280
-99.470462
-90.835159
-90.299761
-92.593779
-95.238725
-94.475843
-86.160608
-73.657597
-60.727671
-49.773099
-42.258619
-35.407890
-27.331362
-17.783314
-5.432037
7.991668
18.753592
26.493686
33.099161
39.502636
45.803708
52.559281
61.357074
72.837690
84.039152
92.047412
97.938403
104.223810
112.459554
121.033836
126.982342
132.380021
139.902917
146.619213
149.272345
146.812800
138.621714
126.143020
112.100223
98.246334
86.506206
78.103534
69.952193
56.216606
37.117241
24.495230
30.159671
48.126291
58.487720
50.622080
35.624455
30.412414
35.679400
39.639927
35.235656
24.469995
10.374359
-14.468001
-57.994270
-92.589484
-72.445276
-10.431953
32.182510
36.151921
29.586662
22.934897
-3.803091
-50.533318
-78.691158
-71.742000
-59.640185
-63.523088
-70.410053
-67.572921
-66.961540
-72.312924
-67.406219
-60.796535
-66.597044
-68.757563
-57.406470
-40.370831
-22.104249
-5.893447
-1.953026
-18.463320
-48.726270
-80.654324
-95.207267
-77.935960
-55.179302
-53.279464
-54.197818
-42.071454
-24.454595
-4.182967
14.740117
16.209067
-0.722997
-23.137841
-52.056690
-73.196871
-56.401108
-21.773627
-18.750160
-42.855124
-48.031627
-27.359739
-11.211127
4.067526
37.270246
65.981019
58.252852
20.494362
-1.570487
23.954330
73.341199
109.963905
117.306310
100.359049
85.545656
82.593733
82.631376
87.030741
87.307792
70.796096
53.578565
49.232977
45.676221
50.585030
81.761195
112.850388
110.127820
82.390582
54.932731
39.791320
33.195200
23.458948
5.942858
-7.460503
-3.110470
2.641646
-17.556332
-43.870681
-40.924132
-25.835089
-29.979378
-47.390726
-53.309536
-36.809994
-12.914743
3.892243
10.633788
2.288396
-9.263291
-9.337871
-8.163038
-5.246416
9.707727
18.453382
14.326628
28.684821
64.781250
91.462196
104.727620
109.656536
94.999319
72.823182
67.713077
73.953362
76.622159
73.563157
67.271908
61.632018
42.351461
-3.368528
-38.539818
-34.360457
-18.763138
-11.781015
-18.142637
-44.048542
-59.267106
-44.269243
-32.208342
-34.275810
-25.708074
-4.454732
10.423192
13.385405
15.149875
20.630084
28.050110
33.119070
32.330707
38.570523
43.639016
24.292060
9.578264
11.808224
-12.950203
-55.845453
-59.784468
-16.692358
25.346730
33.057366
29.680633
40.453545
60.249395
81.397528
89.675356
78.846335
73.498458
89.336120
105.974304
95.310813
55.586788
11.226798
-17.029704
-23.025667
-8.512700
16.286411
37.507021
42.004581
34.012223
44.822776
80.331205
99.226935
84.255963
59.977755
36.240320
11.915119
-5.876150
-20.113701
-34.331144
-51.327503
-77.529862
-103.626779
-120.790068
-125.590392
-116.287364
-114.565679
-126.196390
-119.986733
-90.813743
-70.324918
-70.125487
-66.592575
-55.572306
-62.982976
-76.680221
-64.005602
-44.566060
-46.551231
-51.008574
-45.177201
-52.813720
-73.404477
-71.025588
-44.719186
-29.319426
-32.517304
-40.396738
-47.757375
-47.083570
-34.764323
-22.342205
-12.739916
-2.340612
-2.861044
-13.142744
-9.235523
4.611122
0.312994
-16.511757
-14.759912
8.556457
25.856287
25.892293
24.722841
33.011189
46.054740
53.605224
54.497864
62.512903
77.073798
79.706591
71.831833
75.313777
100.968353
131.731165
145.106474
149.534596
155.542953
144.716505
114.665375
86.090674
62.565761
42.314010
33.384593
36.195772
40.150922
39.594486
37.239214
28.086988
5.958078
-22.988359
-52.216757
-70.842916
-65.415077
-45.808603
-38.725479
-61.271249
-101.758388
-126.858393
-125.201237
-108.011525
-79.826562
-52.505012
-40.749684
-42.544544
-52.750962
-64.916133
-73.823574
-83.118884
-96.643119
-116.875699
-137.546883
-152.938223
-171.833950
-188.809968
-191.662994
-190.463847
-191.697126
-189.846619
-186.983302
-187.587433
-191.989834
-197.667365
-201.632097
-203.815061
-203.779288
-202.292804
-202.891323
-205.007187
-208.926563
-219.273727
-235.825403
-253.628361
-266.610654
-271.439969
-271.969518
-273.580380
-278.538050
-287.208186
-297.307291
-301.194637
-293.057555
-279.815276
-271.545632
-270.609974
-272.264789
-265.719633
-246.580754
-223.425705
-206.254463
-198.115979
-193.981506
-189.960192
-188.728313
-191.184585
-198.639677
-212.768979
-228.848618
-242.874115
-255.156653
-270.973504
-290.808161
-294.678673
-270.853093
-240.259317
-222.470383
-214.030066
-210.200466
-208.898213
-204.055569
-202.455225
-203.959475
-188.453805
-152.580419
-104.633742
-60.999923
-38.847397
-25.467412
-11.207647
3.392760
10.380026
-10.307757
-27.347602
-5.270826
22.411006
31.023865
27.702309
13.793010
-2.252963
-18.534603
-46.493715
-54.143326
2.348173
70.889116
86.767927
71.031268
31.088644
-15.658884
22.525822
154.147137
268.274105
307.634811
289.044189
201.121924
52.555219
-56.564743
-65.077533
-40.050002
-52.969638
-94.578535
-128.955382
-150.675147
-164.019592
-150.270908
-110.782782
-91.430212
-123.284620
-178.941694
-204.142466
-176.789354
-115.591983
-49.380362
3.009398
38.862444
69.100615
107.141302
144.487845
163.584407
174.511158
189.169312
206.467506
228.575143
238.085316
214.835115
180.557164
169.417427
174.959359
163.633987
135.318802
118.622406
119.668183
132.105263
152.365435
175.335316
202.116560
227.886164
247.128148
258.439963
248.638248
217.569398
182.998967
150.557027
114.024335
73.733353
40.311801
7.324411
-31.991169
-58.529729
-78.086401
-104.898737
-146.642536
-279.980622
-534.919003
-748.960865
-763.362541
-614.886781
-420.152595
-255.906742
-177.269264
-196.122908
-242.600166
-245.308004
-200.063790
-120.468678
-11.209837
112.042237
220.274708
287.448638
312.275104
299.999580
263.453095
237.422810
229.985954
227.000365
234.533314
260.071225
300.428609
346.583931
389.587199
420.954611
426.309037
399.183646
341.434320
266.278555
199.621085
148.530306
109.051769
81.861382
54.962541
20.198993
-9.001816
-16.478885
-0.746665
28.744289
59.788359
85.086160
117.118491
163.816925
207.574189
240.737865
263.228462
270.136003
272.642078
280.163571
288.024538
289.359288
277.108547
254.410808
228.158650
201.281084
180.950543
168.754978
159.294607
149.199009
136.972115
125.535923
115.857186
108.205237
109.636779
118.772642
125.666858
128.855620
132.119665
139.875423
156.261574
174.541950
179.269800
164.127687
135.615645
105.380049
81.424247
59.150851
30.839640
-1.234537
-29.482623
-50.596618
-66.129172
-75.342887
-82.250425
-94.823106
-105.896911
-102.729191
-80.127540
-38.635304
8.020812
42.032705
60.092843
70.337140
76.999896
77.138539
73.102265
71.012586
71.068933
73.344016
79.537073
86.691505
92.707577
101.207746
111.431234
118.560182
123.999711
127.951588
127.667292
130.648442
144.829651
162.536054
173.503953
176.572544
174.982724
174.146432
173.688425
166.978211
156.254166
148.556159
144.047146
141.837530
142.205061
142.148951
138.484648
129.121771
110.640800
82.463555
49.776595
20.618336
0.162948
-14.613038
-29.504052
-45.078221
-57.104985
-62.953422
-64.786625
-60.815343
-44.875278
-17.105538
14.821818
39.468259
48.318189
42.380675
29.617918
13.864893
-5.812184
-21.991655
-29.471997
-33.000230
-33.491670
-42.015917
-68.298703
-86.293141
-80.143570
-76.359326
-85.110824
-85.547088
-73.055766
-62.782245
-59.913318
-59.303105
-60.917474
-60.385584
-50.787737
-43.727525
-44.721162
-39.079165
-27.282922
-20.780318
-21.814869
-30.399435
-42.040667
-50.190137
-53.587210
-54.971989
-56.185162
-50.386287
-37.212043
-29.097640
-22.743730
-5.238158
16.111040
25.408458
25.832568
36.058160
58.363356
76.998636
91.778132
113.453244
139.287376
159.370328
169.546824
174.005573
176.040312
174.035969
172.087037
174.962511
179.750681
183.474371
185.728880
189.455844
200.005947
213.785959
221.359122
221.238484
215.174719
202.013571
181.055051
152.416057
118.797648
85.537651
57.454158
35.551097
15.015750
-7.703031
-27.862666
-37.922961
-39.918886
-39.028819
-28.453933
-4.911014
21.615391
42.958044
55.658380
61.044369
62.022579
51.295962
17.815260
-30.060574
-64.151019
-69.876713
-56.941877
-36.226971
-12.341539
5.866126
2.773691
-23.720915
-50.613911
-56.886223
-45.641040
-33.513741
-32.684227
-44.575855
-59.998758
-68.068737
-72.625912
-81.589931
-90.353820
-97.098168
-104.771627
-110.266562
-116.318403
-127.111184
-135.281930
-137.775376
-139.539609
-141.348029
-141.513556
-138.822548
-136.830594
-138.933598
-141.920825
-149.501465
-159.234678
-146.202817
-104.339545
-64.590969
-47.805726
-44.348798
-41.416511
-35.638444
-26.418180
-16.877380
-10.623068
-4.307968
5.034105
14.320066
21.474030
26.656615
30.015348
32.472325
35.239084
41.865601
53.848882
64.473332
69.339824
73.412340
80.422285
85.137276
82.685446
78.934638
78.983970
79.898119
82.688257
89.900203
98.740313
107.528286
116.454433
123.806190
127.796409
131.180393
137.873075
146.562619
157.747248
174.906566
193.355042
202.388035
198.281154
187.428052
173.562707
154.808427
136.919197
126.470565
119.246231
113.469336
112.247279
111.006051
109.203242
115.700236
126.404879
126.996621
113.424925
99.549293
103.822641
113.068389
101.004686
74.975103
51.675336
33.992783
21.203139
10.401005
-1.453450
-21.177520
-49.372300
-74.886594
-93.472774
-104.189571
-106.479146
-106.386327
-111.091262
-125.842231
-142.824328
-148.731448
-146.047688
-147.067276
-160.737868
-171.944471
-160.196391
-145.935691
-149.102941
-157.535539
-162.362516
-158.291637
-145.977299
-125.847119
-93.449831
-69.684805
-61.866857
-50.792112
-39.435643
-31.571636
-25.640198
-23.366050
-14.830812
-0.957982
9.541387
14.876876
14.353171
12.676613
14.575048
24.052489
37.454919
40.191518
17.834422
-30.413617
-63.248103
-53.718291
-41.150752
-40.152669
-30.084890
-19.465817
-14.240446
-5.874477
9.811217
32.453080
46.271202
43.067012
41.253682
53.605193
69.251842
75.485113
75.136756
74.472540
73.139897
71.911294
73.993260
76.792750
72.666931
63.416978
57.284711
52.427574
46.691594
44.496473
45.668734
48.654560
52.398357
55.808526
63.415121
72.436892
70.939188
61.586831
56.401911
54.495530
50.552307
47.825998
47.341104
43.974425
36.110422
24.392037
12.879160
7.425372
4.293192
-1.685470
-10.531890
-21.834817
-32.066953
-37.384904
-35.359516
-29.292008
-22.659412
-7.400398
10.208278
14.723606
17.547645
31.311525
47.476270
55.799220
58.977696
66.362184
71.632677
66.081396
57.450304
48.508495
33.545004
11.712550
-7.719508
-13.367815
-12.184332
-13.412467
-10.022405
-3.837531
-8.637855
-22.455739
-29.602686
-27.246008
-26.906299
-32.260957
-37.338096
-41.335794
-48.403484
-56.077878
-59.122618
-61.904103
-66.091644
-65.741882
-64.802716
-67.046701
-67.844650
-69.560019
-76.229318
-83.925688
-86.028927
-81.978622
-78.961700
-79.694419
-80.232619
-76.369585
-70.869269
-73.400825
-77.356205
-73.317823
-73.903250
-78.301677
-73.632042
-73.366681
-89.800523
-107.786077
-111.310102
-105.289353
-108.985453
-127.649019
-141.041627
-138.943061
-139.764155
-154.454103
-167.524304
-168.096171
-168.826786
-175.347156
-177.591141
-180.786213
-184.215082
-173.827468
-160.977267
-150.273559
-129.125426
