EVENT_NAME: 202302060117
EVENT_ID: 13194
EVENT_DATE_YYYYMMDD: 2023/02/06
EVENT_TIME_HHMMSS: 01:17:32.00000
EVENT_LATITUDE_DEGREE: 37.288
EVENT_LONGITUDE_DEGREE: 37.043
EVENT_DEPTH_KM: 8.6
HYPOCENTER_REFERENCE: AFAD
MAGNITUDE_W: 7.7
MAGNITUDE_W_REFERENCE: AFAD
MAGNITUDE_L: 
MAGNITUDE_L_REFERENCE: 
FOCAL_MECHANISM: 
NETWORK: TK
STATION_CODE: 6004
STATION_NAME: 
STATION_LATITUDE_DEGREE: 40.3944
STATION_LONGITUDE_DEGREE: 37.32909
STATION_ELEVATION_M: 485.0
LOCATION: Kahramanmaras_Pazarck_Turkiye
SENSOR_DEPTH_M: 
VS30_M/S: 376
SITE_CLASSIFICATION_EC8: unknown
MORPHOLOGIC_CLASSIFICATION: 
EPICENTRAL_DISTANCE_KM: 346.30
EARTHQUAKE_BACKAZIMUTH_DEGREE: 
DATE_TIME_FIRST_SAMPLE_YYYYMMDD_HHMMSS: 2023/02/06 01:17:58.8193680
DATE_TIME_FIRST_SAMPLE_PRECISION: millisecond
SAMPLING_INTERVAL_S: 0.01
NDATA: 18251
DURATION_S: 
STREAM: HNZ
UNITS: cm/s^2
INSTRUMENT: sensor = CMG-5T/GURALP | digitizer = 
INSTRUMENT_ANALOG/DIGITAL: 
INSTRUMENTAL_FREQUENCY_HZ: 
INSTRUMENTAL_DAMPING: 
FULL_SCALE_G: 
N_BIT_DIGITAL_CONVERTER: 
PGA_CM/S^2: 2.971
TIME_PGA_S: 
BASELINE_CORRECTION: BASELINE REMOVED
FILTER_TYPE: BUTTERWORTH
FILTER_ORDER: 
LOW_CUT_FREQUENCY_HZ: 
HIGH_CUT_FREQUENCY_HZ: 
LATE/NORMAL_TRIGGERED: 
DATABASE_VERSION: 
HEADER_FORMAT: DYNA 1.2
DATA_TYPE: Acceleration
PROCESSING: Automatic Paolucci et al., 2011
DATA_TIMESTAMP_YYYYMMDD_HHMMSS: 
DATA_LICENSE: U (unknown license)
DATA_CITATION: Turkish Accelerometric Archive v 1.0 - Disaster And Emergency Management Presidency, Earthquake Department
DATA_CREATOR: AFAD
ORIGINAL_DATA_MEDIATOR_CITATION: : AFAD - Disaster And Emergency Management Presidency
ORIGINAL_DATA_MEDIATOR: AFAD PROCESS SERVICE
ORIGINAL_DATA_CREATOR_CITATION: AFAD PROCESS SERVICE
ORIGINAL_DATA_CREATOR: network: TK
USER1: GuestUser
USER2: 
USER3: 
USER4: 
USER5: 
[...]
0.302060
0.365892
0.423979
0.483343
0.534728
0.575580
0.601432
0.610368
0.603028
0.582920
0.557707
0.518450
0.470576
0.417595
0.363976
0.309080
0.259610
0.213013
0.173118
0.128435
0.087263
0.043538
0.009707
-0.027954
-0.062104
-0.095935
-0.117638
-0.135511
-0.133915
-0.124660
-0.094978
-0.066253
-0.025401
0.010026
0.049921
0.091412
0.154605
0.220671
0.301738
0.373868
0.452701
0.516852
0.579727
0.628558
0.675794
0.708667
0.730370
0.735477
0.741540
0.749839
0.753668
0.758775
0.755583
0.755583
0.751753
0.746008
0.725901
0.703241
0.675793
0.644196
0.614514
0.580683
0.546213
0.507914
0.452380
0.393654
0.321843
0.252904
0.165135
0.084707
-0.002105
-0.071044
-0.128493
-0.162324
-0.187857
-0.194878
-0.198389
-0.184027
-0.174133
-0.154983
-0.144770
-0.132323
-0.129132
-0.129451
-0.131366
-0.124345
-0.120195
-0.104238
-0.087960
-0.060194
-0.042959
-0.018703
-0.012639
-0.010086
-0.025405
-0.052215
-0.091153
-0.131367
-0.175411
-0.216264
-0.258074
-0.304033
-0.355418
-0.409356
-0.463294
-0.520424
-0.577873
-0.642663
-0.701707
-0.771284
-0.822350
-0.879799
-0.922248
-0.968207
-1.010974
-1.062678
-1.112468
-1.180130
-1.239174
-1.311305
-1.370988
-1.438331
-1.500886
-1.573336
-1.634934
-1.698766
-1.744087
-1.794833
-1.831537
-1.856112
-1.851006
-1.839835
-1.799621
-1.747279
-1.672915
-1.593763
-1.505675
-1.412480
-1.314498
-1.219707
-1.130023
-1.039382
-0.959911
-0.887461
-0.827778
-0.779904
-0.740009
-0.715115
-0.698838
-0.681284
-0.659262
-0.633091
-0.610431
-0.576600
-0.546280
-0.504150
-0.468724
-0.419573
-0.366912
-0.305314
-0.244035
-0.173181
-0.108392
-0.043602
0.004272
0.051188
0.082785
0.119169
0.146936
0.195768
0.240450
0.291196
0.333006
0.390455
0.447585
0.505034
0.551312
0.610037
0.671316
0.743765
0.812704
0.894409
0.966539
1.040265
1.106650
1.186441
1.260167
1.327509
1.376341
1.411448
1.430279
1.423895
1.400597
1.356233
1.304529
1.234633
1.162503
1.079521
1.004518
0.927920
0.856428
0.779191
0.709933
0.631419
0.559927
0.469924
0.383750
0.291832
0.208850
0.127784
0.066185
0.002353
-0.046797
-0.098502
-0.137758
-0.177653
-0.198080
-0.218506
-0.218187
-0.219783
-0.205421
-0.183399
-0.147653
-0.106800
-0.057011
-0.007861
0.038737
0.076397
0.115654
0.151400
0.191614
0.230871
0.269170
0.303958
0.333002
0.350237
0.355343
0.347683
0.335874
0.322788
0.304915
0.277787
0.237253
0.204060
0.163208
0.120759
0.071928
0.034586
-0.001798
-0.026693
-0.042013
-0.042013
-0.034034
-0.013608
-0.001799
0.024691
0.036181
0.060756
0.067140
0.082778
0.080225
0.079587
0.068416
0.052777
0.027563
0.010009
-0.016162
-0.031162
-0.053823
-0.072015
-0.097867
-0.118932
-0.144465
-0.170955
-0.191701
-0.211808
-0.235107
-0.254576
-0.273087
-0.291279
-0.308195
-0.320642
-0.332451
-0.344579
-0.353197
-0.361814
-0.361495
-0.359899
-0.350005
-0.350963
-0.353516
-0.372666
-0.402029
-0.462669
-0.523310
-0.604696
-0.678422
-0.761404
-0.829385
-0.897366
-0.942368
-0.982263
-1.001732
-1.023754
-1.026946
-1.029499
-1.010030
-0.980668
-0.936624
-0.884281
-0.818215
-0.737468
-0.639486
-0.521396
-0.398200
-0.275643
-0.163618
-0.062763
0.027240
0.119797
0.208523
0.290867
0.361720
0.422361
0.481405
0.533109
0.579706
0.618963
0.639070
0.644496
0.644496
0.653751
0.668752
0.703859
0.738010
0.775990
0.806948
0.831204
0.852588
0.873972
0.882589
0.888972
0.876205
0.856737
0.821629
0.783649
0.733221
0.694922
0.652793
0.619919
0.579705
0.545235
0.505021
0.463849
0.411507
0.356611
0.296290
0.235330
0.163838
0.089474
0.012556
-0.062447
-0.140641
-0.217878
-0.289689
-0.354798
-0.420545
-0.486612
-0.547890
-0.608531
-0.655767
-0.697896
-0.717684
-0.717365
-0.695662
-0.660874
-0.604382
-0.549487
-0.479272
-0.422461
-0.371076
-0.340118
-0.309159
-0.287776
-0.265435
-0.246923
-0.227774
-0.212454
-0.178623
-0.132026
-0.073620
-0.005319
0.076067
0.160644
0.254158
0.345757
0.437675
0.522891
0.601085
0.651832
0.696514
0.732260
0.770878
0.801198
0.836625
0.878754
0.915139
0.952480
0.987588
1.021738
1.055250
1.076633
1.093868
1.100889
1.108230
1.116528
1.125145
1.138550
1.152912
1.179722
1.202063
1.227596
1.246745
1.267171
1.275469
1.282810
1.282491
1.287278
1.277703
1.266852
1.245787
1.237489
1.242595
1.254404
1.274511
1.316321
1.360365
1.419729
1.475901
1.541010
1.592395
1.647290
1.682398
1.720697
1.747187
1.771762
1.771762
1.758996
1.726441
1.674737
1.613139
1.534945
1.454197
1.369301
1.281212
1.192166
1.096418
1.001627
0.896624
0.786832
0.670977
0.551611
0.435756
0.321496
0.212662
0.110531
0.025315
-0.050965
-0.112243
-0.170012
-0.214056
-0.254589
-0.290654
-0.334379
-0.367253
-0.406829
-0.437469
-0.474810
-0.500024
-0.527791
-0.541196
-0.552048
-0.538643
-0.514068
-0.464279
-0.404596
-0.318103
-0.228738
-0.124692
-0.020965
0.098082
0.212022
0.332984
0.431604
0.525437
0.597568
0.651186
0.691081
0.714380
0.730976
0.734487
0.738955
0.728104
0.712784
0.689166
0.654377
0.614801
0.571715
0.528628
0.488414
0.452348
0.426177
0.396495
0.383090
0.368090
0.365536
0.352451
0.345429
0.332982
0.335216
0.322449
0.326918
0.318939
0.317343
0.307768
0.306172
0.309363
0.321491
0.337130
0.368408
0.393302
0.425218
0.448198
0.472773
0.498306
0.519051
0.527030
0.532775
0.540435
0.557669
0.577457
0.597245
0.620544
0.643842
0.670652
0.700334
0.736718
0.770549
0.810763
0.846509
0.885127
0.922469
0.967471
1.011515
1.048856
1.073112
1.094496
1.103752
1.111411
1.114922
1.119390
1.113645
1.104390
1.076303
1.039281
0.991407
0.937468
0.860551
0.775654
0.684374
0.599158
0.510431
0.435429
0.358830
0.290530
0.214888
0.153610
0.089458
0.037435
-0.018418
-0.062143
-0.102996
-0.145763
-0.186616
-0.221405
-0.256831
-0.273747
-0.290343
-0.289386
-0.286833
-0.275981
-0.253002
-0.221405
-0.180233
-0.130764
-0.072996
-0.014589
0.042540
0.092010
0.146267
0.188716
0.230206
0.258612
0.284463
0.303294
0.328188
0.343508
0.358828
0.355317
0.339359
0.293719
0.247440
0.188396
0.143075
0.092009
0.056263
0.022113
0.012857
0.004878
0.012857
0.016048
0.026900
0.035836
0.054028
0.077965
0.107966
0.146265
0.188394
0.230524
0.271376
0.303930
0.343187
0.379571
0.415636
0.449148
0.473404
0.496384
0.511703
0.531491
0.544258
0.552556
0.555428
0.547768
0.526384
0.498936
0.467659
0.431274
0.379570
0.331377
0.276481
0.223820
0.162222
0.090091
0.010301
-0.065340
-0.152790
-0.230346
-0.312370
-0.383862
-0.466206
-0.543443
-0.629297
-0.714194
-0.804197
-0.892605
-0.989630
-1.070696
-1.163891
-1.241128
-1.318684
-1.380601
-1.439008
-1.487840
-1.526139
-1.554225
-1.582311
-1.603695
-1.619972
-1.627632
-1.628271
-1.622207
-1.601461
-1.563481
-1.516246
-1.469010
-1.417306
-1.353793
-1.286450
-1.209214
-1.122083
-1.020909
-0.907926
-0.804199
-0.681003
-0.561957
-0.421526
-0.283330
-0.132686
0.018915
0.187432
0.353714
0.517125
0.661385
0.801496
0.915437
1.013738
1.085230
1.142998
1.180659
1.203957
1.199170
1.183212
1.139806
1.091613
1.022036
0.957246
0.883839
0.806921
0.722982
0.650852
0.584147
0.519038
0.459993
0.410523
0.364245
0.325627
0.292753
0.261156
0.233389
0.206899
0.182642
0.166046
0.156471
0.145300
0.133491
0.109235
0.081149
0.038062
0.003274
-0.041090
-0.068219
-0.110029
-0.149605
-0.194925
-0.232267
-0.275035
-0.308866
-0.350676
-0.377486
-0.410040
-0.436850
-0.475468
-0.504193
-0.537385
-0.559407
-0.580791
-0.585260
-0.585898
-0.574408
-0.557493
-0.523024
-0.479618
-0.422169
-0.357699
-0.291952
-0.217268
-0.132052
-0.041092
0.061359
0.166362
0.272004
0.379561
0.485204
0.586696
0.679572
0.765107
0.838833
0.908091
0.973519
1.034478
1.097672
1.160866
1.217357
1.273210
1.323956
1.375979
1.408534
1.442684
1.458323
1.477153
1.477791
1.479706
1.460557
1.441726
1.401512
1.356829
1.296189
1.232995
1.155758
1.081713
0.996816
0.923728
0.848725
0.780744
0.710209
0.653080
0.603290
0.563715
0.522862
0.486797
0.445306
0.401262
0.351472
0.302641
0.257639
0.210084
0.152316
0.089441
0.018588
-0.058011
-0.138120
-0.229719
-0.315574
-0.410684
-0.495580
-0.578881
-0.640798
-0.696652
-0.733674
-0.767505
-0.784102
-0.806443
-0.818890
-0.841551
-0.864211
-0.896766
-0.931554
-0.972088
-0.997621
-1.033367
-1.065283
-1.113795
-1.152733
-1.201245
-1.243056
-1.291568
-1.332740
-1.372635
-1.404232
-1.436467
-1.460723
-1.487852
-1.511151
-1.532535
-1.559344
-1.583920
-1.609133
-1.636262
-1.664668
-1.699775
-1.734245
-1.769991
-1.820737
-1.867654
-1.925741
-1.979679
-2.038724
-2.086918
-2.133196
-2.166069
-2.201815
-2.236285
-2.280648
-2.308415
-2.331076
-2.338097
-2.337140
-2.321501
-2.303309
-2.279691
-2.253201
-2.211391
-2.167347
-2.115643
-2.067769
-2.017342
-1.974255
-1.934360
-1.912338
-1.895742
-1.885529
-1.875954
-1.870848
-1.869890
-1.870848
-1.875316
-1.880423
-1.885529
-1.892232
-1.898296
-1.904679
-1.910105
-1.917127
-1.923829
-1.935319
-1.962128
-1.993087
-2.022769
-2.051494
-2.085644
-2.116922
-2.145965
-2.179477
-2.208840
-2.235969
-2.251927
-2.251927
-2.247778
-2.235650
-2.222564
-2.191287
-2.161605
-2.132242
-2.107029
-2.079900
-2.048303
-2.011919
-1.983514
-1.947130
-1.924150
-1.896383
-1.878191
-1.856488
-1.840211
-1.819147
-1.799040
-1.775422
-1.759783
-1.732974
-1.699462
-1.653822
-1.598607
-1.535413
-1.471901
-1.400728
-1.333385
-1.255510
-1.185933
-1.121144
-1.064333
-1.002097
-0.943052
-0.891029
-0.836134
-0.781876
-0.732087
-0.682299
-0.632510
-0.574422
-0.516335
-0.468461
-0.426970
-0.392182
-0.361543
-0.346542
-0.332818
-0.328989
-0.325797
-0.333138
-0.343670
-0.361543
-0.364416
-0.378459
-0.381651
-0.390587
-0.379736
-0.365374
-0.336330
-0.311116
-0.280477
-0.246965
-0.212815
-0.191112
-0.161111
-0.132706
-0.103982
-0.091215
-0.077172
-0.083237
-0.090577
-0.116749
-0.143558
-0.175474
-0.206752
-0.234519
-0.257180
-0.274733
-0.289734
-0.296436
-0.303458
-0.301543
-0.296437
-0.282394
-0.271223
-0.258457
-0.243137
-0.231328
-0.226860
-0.223669
-0.222073
-0.219200
-0.214094
-0.211541
-0.212498
-0.214733
-0.217924
-0.216648
-0.218882
-0.208669
-0.200371
-0.187923
-0.184732
-0.180264
-0.186328
-0.185370
-0.197818
-0.210265
-0.236756
-0.259416
-0.298673
-0.334738
-0.395379
-0.466871
-0.553363
-0.638898
-0.735285
-0.833586
-0.943697
-1.043913
-1.142853
-1.240197
-1.326051
-1.393713
-1.451481
-1.501271
-1.534144
-1.556485
-1.567018
-1.570529
-1.566699
-1.553613
-1.538294
-1.516272
-1.495845
-1.471270
-1.441588
-1.417013
-1.383501
-1.354139
-1.315201
-1.277859
-1.230943
-1.194878
-1.155302
-1.126258
-1.087640
-1.057958
-1.032745
-1.019340
-1.006574
-1.012957
-1.021574
-1.048065
-1.079342
-1.118918
-1.157537
-1.207326
-1.256796
-1.311692
-1.355736
-1.394035
-1.428505
-1.465527
-1.491698
-1.514359
-1.534147
-1.543084
-1.535424
-1.512125
-1.477337
-1.428505
-1.365311
-1.277862
-1.178284
-1.068173
-0.948807
-0.829122
-0.698905
-0.561985
-0.430172
-0.292295
-0.153779
-0.015902
0.107294
0.228575
0.341558
0.453902
0.549969
0.640611
0.716890
0.789978
0.846788
0.893386
0.923706
0.947643
0.943175
0.930727
0.901364
0.871363
0.826042
0.775615
0.718166
0.652419
0.578693
0.510073
0.436347
0.371557
0.295597
0.229212
0.164741
0.112718
0.069950
0.037715
0.013140
-0.006010
-0.020053
-0.029309
-0.030905
-0.019096
-0.003138
0.020161
0.055268
0.102823
0.156123
0.203359
0.252828
0.290808
0.322405
0.341555
0.359428
0.378258
0.399642
0.406344
0.413685
0.407621
0.406025
0.392301
0.393896
0.383045
0.378896
0.362299
0.359108
0.354958
0.365810
0.365810
0.380810
0.389108
0.407939
0.417194
0.430280
0.449429
0.466983
0.477835
0.481026
0.465387
0.446237
0.415279
0.392299
0.366447
0.349851
0.349212
0.357191
0.375383
0.398682
0.439215
0.482621
0.528580
0.567837
0.604221
0.629115
0.659436
0.679543
0.708586
0.730289
0.755822
0.768907
0.774333
0.771460
0.766992
0.747523
0.730608
0.712415
0.706032
0.684968
0.672839
0.659115
0.660711
0.662626
0.677946
0.692946
0.722947
0.746246
0.782630
0.814865
0.858271
0.901357
0.944763
0.985297
1.027745
1.074661
1.121259
1.161792
1.195623
1.225624
1.254348
1.280200
1.305414
1.327436
1.347862
1.362224
1.364139
1.366692
1.351373
1.331265
1.299988
1.271263
1.238709
1.209346
1.176791
1.156684
1.134662
1.127321
1.126364
1.145194
1.168812
1.206473
1.241900
1.300625
1.362861
1.424140
1.490206
1.566485
1.638616
1.714576
1.776493
1.824367
1.854687
1.873198
1.864900
1.845112
1.800429
1.753513
1.682659
1.611167
1.528504
1.442650
1.360945
1.283070
1.220195
1.152533
1.104659
1.074339
1.061253
1.057423
1.073381
1.104339
1.146788
1.186363
1.232961
1.284984
1.338603
1.392541
1.449990
1.504566
1.566483
1.619783
1.666699
1.699573
1.737553
1.765639
1.783512
1.780001
1.781278
1.765639
1.752872
1.733403
1.718083
1.688721
1.662230
1.626165
1.595845
1.560418
1.531374
1.498501
1.468180
1.447435
1.428604
1.404348
1.375304
1.348176
1.335090
1.314025
1.298067
1.282428
1.267108
1.239661
1.207744
1.175828
1.141040
1.103698
1.069867
1.039546
1.008269
0.973799
0.955607
0.958160
0.978586
1.023269
1.072739
1.140081
1.222425
1.335408
1.455093
1.592970
1.751273
1.910534
2.060859
2.224269
2.368530
2.500343
2.611091
2.719606
2.793332
2.858441
2.898016
2.942380
2.956742
2.970785
2.964401
2.965040
2.955784
2.944613
2.920038
2.910144
2.888122
2.865780
2.840886
2.810565
2.783756
2.762691
2.741627
2.722158
2.710668
2.703327
2.690880
2.677475
2.666943
2.656410
2.650665
2.620664
2.591620
2.564492
2.549172
2.527788
2.515341
2.512149
2.523958
2.520447
2.522681
2.522681
2.532575
2.517255
2.496829
2.461402
2.432678
2.385123
2.337248
2.289055
2.239585
2.176710
2.115751
2.057025
2.007236
1.953298
1.911488
1.872869
1.851485
1.823718
1.806803
1.780632
1.755737
1.721587
1.681373
1.641158
1.600944
1.561049
1.512855
1.467854
1.419980
1.371467
1.308912
1.255612
1.203908
1.160821
1.117415
1.074648
1.044008
1.028369
1.017198
1.018794
1.021347
1.042093
1.055497
1.076243
1.098584
1.132415
1.163373
1.193374
1.215716
1.239972
1.263909
1.290080
1.311463
1.337634
1.358699
1.390615
1.408169
1.434659
1.446468
1.447106
1.431148
1.416467
1.384550
1.354230
1.303164
1.246035
1.183798
1.131456
1.079433
1.019430
0.972833
0.934534
0.896234
0.848998
0.813571
0.782294
0.756442
0.720696
0.683354
0.646331
0.620160
0.599733
0.572286
0.535582
0.509411
0.492176
0.482920
0.462175
0.452281
0.446217
0.440153
0.433131
0.434727
0.429939
0.447493
0.453238
0.458663
0.456429
0.458344
0.447173
0.440152
0.421960
0.416534
0.401214
0.383341
0.365468
0.357170
0.337382
0.312806
0.285997
0.266847
0.250570
0.233335
0.220249
0.221207
0.224398
0.222164
0.233335
0.249931
0.278336
0.295571
0.312167
0.328763
0.335466
0.319827
0.292379
0.255994
0.216099
0.162799
0.110138
0.056519
0.001942
-0.060613
-0.114232
-0.165936
-0.207746
-0.257216
-0.292643
-0.329347
-0.357114
-0.399881
-0.437223
-0.471693
-0.495630
-0.524993
-0.545738
-0.565526
-0.575420
-0.580527
-0.575739
-0.564250
-0.543504
-0.525631
-0.503290
-0.473289
-0.435309
-0.407861
-0.378818
-0.337646
-0.294241
-0.256261
-0.213174
-0.175194
-0.127958
-0.087106
-0.057424
-0.025189
0.009281
0.038005
0.046303
0.059708
0.072155
0.092900
0.100241
0.103113
0.113326
0.133752
0.139497
0.152902
0.166945
0.191201
0.205563
0.228862
0.238117
0.261416
0.262373
0.260139
0.251841
0.242904
0.216095
0.200137
0.180349
0.165348
0.133432
0.111729
0.084600
0.058110
0.016300
-0.024234
-0.065724
-0.110088
-0.160196
-0.211262
-0.245412
-0.280839
-0.315947
-0.341480
-0.358714
-0.364459
-0.352331
-0.350416
-0.329671
-0.319777
-0.307330
-0.301266
-0.301904
-0.299032
-0.286585
-0.286904
-0.273819
-0.264244
-0.238711
-0.209987
-0.173922
-0.139133
-0.100515
-0.077854
-0.051683
-0.038279
-0.023278
-0.026470
-0.029981
-0.048811
-0.071791
-0.110729
-0.159560
-0.217009
-0.281480
-0.349142
-0.418080
-0.494998
-0.580533
-0.672132
-0.766285
-0.861076
-0.950760
-1.037571
-1.112893
-1.185981
-1.251409
-1.308220
-1.352583
-1.383542
-1.400457
-1.408117
-1.409075
-1.409394
-1.406841
-1.397266
-1.397905
-1.402054
-1.398862
-1.382585
-1.355456
-1.324498
-1.298965
-1.257794
-1.227154
-1.181834
-1.146088
-1.095980
-1.056723
-1.019381
-0.985550
-0.946932
-0.907675
-0.864589
-0.829481
-0.784160
-0.752563
-0.704370
-0.669901
-0.630644
-0.607027
-0.576706
-0.548301
-0.514470
-0.487023
-0.451277
-0.425106
-0.415531
-0.412658
-0.407871
-0.419042
-0.436915
-0.460852
-0.482874
-0.510322
-0.540004
-0.576707
-0.612134
-0.645008
-0.680116
-0.699904
-0.720968
-0.733416
-0.746501
-0.750970
-0.757991
-0.758310
-0.765651
-0.767247
-0.765332
-0.747778
-0.734693
-0.701819
-0.677244
-0.645328
-0.628094
-0.597454
-0.567453
-0.525962
-0.495642
-0.458939
-0.426385
-0.388724
-0.368936
-0.355531
-0.357127
-0.353936
-0.362872
-0.372447
-0.395107
-0.425747
-0.461174
-0.493090
-0.522453
-0.558837
-0.602562
-0.649798
-0.699587
-0.747780
-0.793101
-0.839060
-0.874168
-0.919170
-0.958427
-1.002152
-1.039813
-1.085134
-1.132050
-1.170350
-1.208968
-1.248863
-1.293227
-1.343973
-1.400784
-1.460467
-1.523342
-1.593238
-1.652921
-1.727605
-1.794628
-1.870269
-1.936017
-2.006551
-2.069426
-2.134535
-2.192941
-2.250071
-2.299860
-2.357309
-2.401991
-2.446674
-2.478271
-2.506038
-2.522315
-2.534763
-2.537635
-2.540827
-2.544018
-2.543699
-2.539231
-2.534125
-2.527103
-2.525188
-2.516252
-2.506996
-2.488166
-2.464548
-2.436781
-2.401993
-2.363374
-2.324118
-2.279435
-2.230285
-2.184645
-2.131026
-2.081556
-2.036235
-1.994745
-1.948466
-1.907933
-1.870272
-1.848250
-1.823994
-1.804525
-1.783780
-1.762077
-1.736864
-1.719948
-1.688351
-1.652925
-1.616221
-1.589093
-1.553666
-1.523984
-1.495579
-1.484727
-1.470365
-1.470365
-1.460791
-1.470365
-1.481536
-1.494303
-1.509303
-1.529410
-1.537709
-1.538985
-1.531645
-1.534517
-1.533879
-1.519198
-1.503240
-1.485367
-1.478665
-1.466217
-1.452494
-1.436536
-1.426642
-1.423131
-1.418982
-1.417067
-1.433025
-1.456324
-1.484410
-1.513454
-1.551753
-1.584946
-1.626756
-1.662183
-1.710057
-1.757931
-1.818572
-1.870276
-1.923895
-1.967939
-2.016452
-2.055070
-2.097518
-2.125285
-2.154648
-2.176990
-2.213055
-2.243375
-2.270504
-2.301143
-2.332102
-2.365614
-2.398807
-2.430723
-2.464873
-2.495193
-2.528067
-2.561898
-2.594772
-2.616475
-2.636582
-2.649029
-2.660200
-2.668179
-2.666264
-2.666902
-2.655732
-2.648072
-2.633072
-2.623816
-2.606901
-2.595411
-2.577538
-2.560942
-2.534451
-2.502855
-2.460087
-2.423065
-2.378382
-2.335934
-2.283273
-2.229973
-2.165502
-2.102628
-2.036243
-1.971772
-1.897727
-1.833257
-1.760169
-1.699529
-1.636016
-1.575695
-1.507394
-1.443881
-1.386752
-1.336644
-1.278876
-1.229087
-1.186000
-1.155361
-1.120891
-1.095040
-1.069188
-1.059932
-1.042697
-1.022910
-1.002803
-0.978866
-0.960354
-0.934502
-0.921098
-0.899395
-0.880245
-0.852478
-0.828541
-0.799817
-0.785455
