EVENT_NAME: 202302060117
EVENT_ID: 13194
EVENT_DATE_YYYYMMDD: 2023/02/06
EVENT_TIME_HHMMSS: 01:17:32.00000
EVENT_LATITUDE_DEGREE: 37.288
EVENT_LONGITUDE_DEGREE: 37.043
EVENT_DEPTH_KM: 8.6
HYPOCENTER_REFERENCE: AFAD
MAGNITUDE_W: 7.7
MAGNITUDE_W_REFERENCE: AFAD
MAGNITUDE_L: 
MAGNITUDE_L_REFERENCE: 
FOCAL_MECHANISM: 
NETWORK: TK
STATION_CODE: 5805
STATION_NAME: 
STATION_LATITUDE_DEGREE: 39.27298
STATION_LONGITUDE_DEGREE: 36.74701
STATION_ELEVATION_M: 1454.0
LOCATION: Kahramanmaras_Pazarck_Turkiye
SENSOR_DEPTH_M: 
VS30_M/S: 1072
SITE_CLASSIFICATION_EC8: A
MORPHOLOGIC_CLASSIFICATION: 
EPICENTRAL_DISTANCE_KM: 222.23
EARTHQUAKE_BACKAZIMUTH_DEGREE: 
DATE_TIME_FIRST_SAMPLE_YYYYMMDD_HHMMSS: 2023/02/06 01:17:50.3158540
DATE_TIME_FIRST_SAMPLE_PRECISION: millisecond
SAMPLING_INTERVAL_S: 0.01
NDATA: 14501
DURATION_S: 
STREAM: HNE
UNITS: cm/s^2
INSTRUMENT: sensor = CMG-5T/GURALP | digitizer = 
INSTRUMENT_ANALOG/DIGITAL: 
INSTRUMENTAL_FREQUENCY_HZ: 
INSTRUMENTAL_DAMPING: 
FULL_SCALE_G: 
N_BIT_DIGITAL_CONVERTER: 
PGA_CM/S^2: 14.844
TIME_PGA_S: 
BASELINE_CORRECTION: BASELINE REMOVED
FILTER_TYPE: BUTTERWORTH
FILTER_ORDER: 
LOW_CUT_FREQUENCY_HZ: 
HIGH_CUT_FREQUENCY_HZ: 
LATE/NORMAL_TRIGGERED: 
DATABASE_VERSION: 
HEADER_FORMAT: DYNA 1.2
DATA_TYPE: Acceleration
PROCESSING: Automatic Paolucci et al., 2011
DATA_TIMESTAMP_YYYYMMDD_HHMMSS: 
DATA_LICENSE: U (unknown license)
DATA_CITATION: Turkish Accelerometric Archive v 1.0 - Disaster And Emergency Management Presidency, Earthquake Department
DATA_CREATOR: AFAD
ORIGINAL_DATA_MEDIATOR_CITATION: : AFAD - Disaster And Emergency Management Presidency
ORIGINAL_DATA_MEDIATOR: AFAD PROCESS SERVICE
ORIGINAL_DATA_CREATOR_CITATION: AFAD PROCESS SERVICE
ORIGINAL_DATA_CREATOR: network: TK
USER1: GuestUser
USER2: 
USER3: 
USER4: 
USER5: 
[...]
1.688853
1.554860
1.474338
1.454289
1.383315
1.218132
0.991521
0.764593
0.514430
0.272542
0.122636
0.008377
-0.057505
-0.021219
0.028433
-0.033947
-0.247826
-0.560689
-0.917156
-1.322320
-1.693427
-1.999289
-2.224308
-2.449963
-2.665752
-2.777147
-2.869764
-2.933417
-3.035263
-3.196946
-3.320435
-3.347805
-3.287331
-3.161292
-3.007881
-2.764080
-2.362732
-1.806066
-1.163784
-0.511317
0.115369
0.722323
1.291402
1.733807
2.090596
2.499900
2.984954
3.457914
3.909867
4.313124
4.682644
4.993283
5.213531
5.356757
5.459562
5.518763
5.582102
5.672494
5.751746
5.781984
5.807766
5.880972
5.983458
6.079898
6.188431
6.286144
6.353302
6.306835
6.127330
5.896582
5.662332
5.372385
5.014327
4.648948
4.336085
4.037226
3.723089
3.431232
3.208759
3.093545
2.972921
2.781639
2.586537
2.371067
2.189651
2.015875
1.802313
1.541647
1.246926
0.909874
0.523807
0.160020
-0.116560
-0.317390
-0.418282
-0.437695
-0.460927
-0.490525
-0.601602
-0.760101
-0.936106
-1.185950
-1.485764
-1.857190
-2.164643
-2.391253
-2.610862
-2.809464
-3.027481
-3.157336
-3.241040
-3.261090
-3.202207
-3.144916
-3.026834
-2.824090
-2.620074
-2.370544
-2.049402
-1.640734
-1.176368
-0.648665
-0.141013
0.256196
0.615213
0.955133
1.332610
1.691627
2.003857
2.274712
2.404888
2.492734
2.472048
2.327553
2.212339
2.091077
2.000689
1.850146
1.656636
1.459626
1.299853
1.194187
1.074836
0.936388
0.740650
0.491442
0.205314
-0.132057
-0.454787
-0.792475
-1.088152
-1.259701
-1.367594
-1.410878
-1.435702
-1.390186
-1.320800
-1.338622
-1.388271
-1.438875
-1.511440
-1.618698
-1.773696
-1.946200
-2.052820
-1.991709
-1.799151
-1.574128
-1.363428
-1.197923
-1.111986
-1.116122
-1.226244
-1.452536
-1.689331
-1.949997
-2.278456
-2.635560
-3.054409
-3.461163
-3.894653
-4.373338
-4.809374
-5.186847
-5.511168
-5.814483
-6.043322
-6.110794
-5.979026
-5.752094
-5.470100
-5.154687
-4.852960
-4.588471
-4.329392
-4.066813
-3.738033
-3.337322
-2.913058
-2.496434
-2.127550
-1.904119
-1.839826
-1.908890
-2.079165
-2.243394
-2.490056
-2.760270
-3.107825
-3.463656
-3.780975
-4.134259
-4.387286
-4.638086
-4.820774
-4.872651
-4.825863
-4.604341
-4.341762
-4.000569
-3.675926
-3.436262
-3.172410
-3.028548
-2.949932
-2.940382
-2.946745
-2.868448
-2.862717
-2.816883
-2.850937
-2.918728
-2.941960
-2.966466
-2.984606
-3.032345
-3.073401
-3.118276
-3.172381
-3.174289
-3.196567
-3.226483
-3.308914
-3.368430
-3.426673
-3.548252
-3.535838
-3.496688
-3.397702
-3.270072
-3.153900
-2.968661
-2.740456
-2.498565
-2.380801
-2.393848
-2.482645
-2.780231
-3.142746
-3.447015
-3.681901
-3.871273
-4.001765
-4.057779
-3.962931
-3.710537
-3.411038
-3.118222
-2.773846
-2.477530
-2.226090
-2.078408
-1.971784
-1.812645
-1.686924
-1.583801
-1.570113
-1.632175
-1.723518
-1.759163
-1.755979
-1.806901
-1.894107
-2.007093
-2.100983
-2.063424
-1.908422
-1.701859
-1.488295
-1.248631
-0.889933
-0.430341
-0.022310
0.262231
0.494256
0.657533
0.689362
0.582105
0.379047
0.144798
-0.086587
-0.286144
-0.516892
-0.805885
-1.076735
-1.318623
-1.580244
-1.786803
-1.932572
-2.016595
-2.042691
-2.020729
-1.989218
-1.942111
-1.915374
-1.895321
-1.889908
-1.958018
-2.104423
-2.339945
-2.634348
-2.912201
-3.137220
-3.264529
-3.309085
-3.293488
-3.223147
-3.095199
-2.910279
-2.725359
-2.516886
-2.247305
-1.884469
-1.495534
-1.157205
-0.911813
-0.725620
-0.616768
-0.653049
-0.810276
-0.982461
-1.098630
-1.202068
-1.330331
-1.489467
-1.633644
-1.660378
-1.577306
-1.489142
-1.483729
-1.492321
-1.460491
-1.379648
-1.218598
-0.977025
-0.680391
-0.406353
-0.140910
0.177368
0.573305
0.992794
1.402735
1.768435
2.175512
2.673933
3.216913
3.761167
4.247176
4.620196
4.910466
5.181320
5.453129
5.711889
5.934048
6.113557
6.277789
6.461118
6.617074
6.724653
6.839553
6.959863
7.038160
7.020975
6.873934
6.657508
6.398433
6.082069
5.698867
5.290203
4.929916
4.691848
4.532712
4.378668
4.212212
4.006608
3.746260
3.460768
3.169230
2.873872
2.576604
2.317847
2.135796
2.006896
1.875131
1.694034
1.484292
1.304787
1.135466
0.912675
0.654555
0.431764
0.301272
0.266582
0.300321
0.414584
0.631331
0.877360
1.020904
1.039366
1.033003
1.043826
1.084567
1.121489
1.140269
1.178464
1.246258
1.250397
1.148551
0.942947
0.660638
0.348093
0.021862
-0.259810
-0.452365
-0.530023
-0.551663
-0.603859
-0.759494
-0.991515
-1.264912
-1.531625
-1.783061
-1.999487
-2.236601
-2.500131
-2.765253
-2.981997
-3.107078
-3.138267
-3.120760
-3.106436
-3.072060
-3.002674
-2.931379
-2.906233
-2.960020
-3.069187
-3.154483
-3.178352
-3.155116
-3.115966
-3.051672
-3.022708
-3.043075
-3.112776
-3.246132
-3.375350
-3.417997
-3.355931
-3.213660
-3.033196
-2.878512
-2.790030
-2.782708
-2.835540
-2.903967
-3.007405
-3.093338
-3.158901
-3.226373
-3.241967
-3.249922
-3.264879
-3.285247
-3.297658
-3.260418
-3.178938
-3.117509
-3.106049
-3.192618
-3.360984
-3.572318
-3.836485
-4.148393
-4.437704
-4.664633
-4.864190
-5.068203
-5.318366
-5.552615
-5.701884
-5.730846
-5.660187
-5.554517
-5.426569
-5.293209
-5.199953
-5.113698
-5.021396
-4.888355
-4.713620
-4.509604
-4.319273
-4.199600
-4.166815
-4.204688
-4.292212
-4.440527
-4.609848
-4.749251
-4.818315
-4.794442
-4.751155
-4.773433
-4.885146
-5.048419
-5.213603
-5.362554
-5.431936
-5.370507
-5.175084
-4.857125
-4.494607
-4.153732
-3.871420
-3.673769
-3.527360
-3.425510
-3.345621
-3.264777
-3.175976
-3.079219
-2.987872
-2.897161
-2.820137
-2.759981
-2.700143
-2.665450
-2.639349
-2.607201
-2.522538
-2.342711
-2.061672
-1.637726
-1.078196
-0.449281
0.146851
0.645591
1.040891
1.382721
1.700680
1.973444
2.178097
2.322278
2.411715
2.445136
2.403125
2.284092
2.101085
1.921261
1.779630
1.626860
1.451492
1.299358
1.174914
1.047605
0.852504
0.574333
0.260833
-0.005562
-0.212439
-0.413270
-0.603278
-0.710854
-0.658973
-0.456548
-0.173281
0.118898
0.376703
0.614139
0.815291
1.001166
1.208683
1.415564
1.646952
1.843330
2.001833
2.164792
2.342074
2.541953
2.770795
3.050879
3.418808
3.850391
4.302345
4.703692
5.036929
5.317013
5.537580
5.683989
5.683354
5.552226
5.349804
5.126695
4.858709
4.501605
4.094214
3.709420
3.347861
2.987893
2.639701
2.354846
2.173749
2.088771
2.094820
2.166116
2.311570
2.513358
2.709418
2.863147
2.962132
3.064619
3.203071
3.350116
3.477110
3.552861
3.611744
3.708183
3.875598
4.057972
4.150910
4.142318
4.090760
4.097445
4.219983
4.467922
4.827257
5.239744
5.636954
5.945365
6.135059
6.208264
6.219087
6.212724
6.169440
6.108014
6.101014
6.179948
6.306942
6.429162
6.529102
6.653231
6.773541
6.893852
6.952416
6.906586
6.807922
6.768776
6.833388
6.955926
7.089285
7.200047
7.286302
7.300944
7.164406
6.867138
6.454973
5.961329
5.420262
4.814903
4.157984
3.466691
2.744525
2.007082
1.284280
0.566252
-0.125996
-0.752361
-1.270512
-1.686178
-2.012727
-2.238701
-2.379059
-2.445259
-2.396879
-2.225963
-2.021947
-1.845938
-1.654653
-1.386981
-1.010459
-0.586514
-0.179120
0.216817
0.617846
1.035744
1.450141
1.789106
2.012538
2.131256
2.195550
2.220695
2.248069
2.294539
2.391933
2.577490
2.819381
3.042176
3.182219
3.228689
3.262110
3.281845
3.303489
3.360462
3.465177
3.634501
3.821649
3.979516
4.048583
4.050177
4.042222
4.052726
4.062276
4.054003
4.068646
4.158083
4.329954
4.564843
4.788592
4.985289
5.182303
5.379954
5.523816
5.563284
5.598615
5.713196
5.851329
5.955089
5.962093
5.887618
5.744714
5.549613
5.322048
5.085571
4.897471
4.820769
4.917845
5.144141
5.407356
5.673755
5.884137
6.071921
6.236153
6.382562
6.497143
6.527063
6.478368
6.352015
6.130815
5.830365
5.491721
5.202092
4.962750
4.766058
4.586870
4.445239
4.369810
4.281331
4.132380
3.943644
3.789919
3.722446
3.703351
3.731361
3.821753
3.903234
3.921059
3.842447
3.706227
3.535314
3.335439
3.123151
2.896540
2.683934
2.472282
2.252037
2.064257
1.931537
1.875841
1.860884
1.857066
1.875528
1.911813
1.944916
1.959558
1.990114
2.134932
2.427747
2.791220
3.111089
3.347569
3.509573
3.562727
3.482205
3.264825
2.975832
2.720577
2.479326
2.220888
1.901341
1.576383
1.264156
0.971981
0.716726
0.514941
0.389224
0.309020
0.231681
0.176939
0.187762
0.316666
0.571925
0.947810
1.442731
2.003216
2.599985
3.192934
3.761058
4.273165
4.657963
4.905265
5.026848
5.077137
5.061543
4.921504
4.641105
4.269042
3.920214
3.660184
3.498184
3.427847
3.481319
3.708251
4.074588
4.493441
4.932027
5.414853
5.937781
6.400874
6.742704
6.994462
7.205799
7.340750
7.330567
7.173977
6.950867
6.720438
6.516743
6.275810
5.954035
5.565422
5.151347
4.744911
4.327335
3.904667
3.526239
3.268756
3.132217
3.072701
3.074931
3.143999
3.289134
3.454958
3.540894
3.544397
3.508115
3.455601
3.353755
3.195892
3.076540
3.057127
3.120466
3.196217
3.223909
3.211498
3.155484
3.059684
2.874450
2.585457
2.243313
1.897985
1.577483
1.330503
1.242979
1.368382
1.623640
1.905953
2.183173
2.465803
2.745570
2.947358
3.011333
2.939087
2.790135
2.657416
2.583578
2.525654
2.384341
2.123993
1.768163
1.354088
0.878904
0.329244
-0.197183
-0.621442
-0.934624
-1.202928
-1.464867
-1.667926
-1.828335
-2.071177
-2.407593
-2.737643
-2.943884
-3.024724
-3.067053
-3.129433
-3.215048
-3.241781
-3.202313
-3.159026
-3.172073
-3.213129
-3.224585
-3.182889
-3.133873
-3.109364
-3.067350
-2.997009
-2.951176
-2.970270
-2.983636
-2.904702
-2.712143
-2.485529
-2.268782
-2.058400
-1.786272
-1.340684
-0.724501
-0.063759
0.550197
1.137418
1.737687
2.310904
2.872026
3.458291
4.034054
4.544888
5.005753
5.472347
5.966631
6.456141
6.882950
7.237830
7.533191
7.782721
8.021112
8.261093
8.499484
8.639845
8.638574
8.562189
8.525589
8.582244
8.652267
8.620123
8.459395
8.226101
7.931698
7.546586
7.041484
6.483549
5.956486
5.533499
5.207587
4.957742
4.759776
4.618464
4.460919
4.230489
3.942770
3.677011
3.527105
3.509284
3.519789
3.549708
3.660470
3.906499
4.280793
4.685005
5.039884
5.312648
5.532578
5.700948
5.762377
5.724186
5.599742
5.481982
5.392548
5.267467
5.115333
4.978477
4.870265
4.774784
4.617239
4.397631
4.116277
3.847336
3.658918
3.586990
3.662104
3.870895
4.187900
4.467029
4.764619
4.950812
4.972138
4.946041
4.918990
4.829874
4.781498
4.667557
4.481368
4.224521
3.944758
3.674862
3.347995
2.922144
2.450779
1.995965
1.596531
1.217148
0.846995
0.535723
0.216813
-0.105280
-0.431193
-0.706499
-0.886323
-1.014587
-1.185181
-1.351001
-1.466533
-1.511726
-1.535913
-1.554053
-1.587789
-1.585877
-1.526676
-1.522537
-1.645071
-1.937883
-2.371691
-2.823641
-3.245036
-3.648289
-3.974839
-4.246008
-4.498717
-4.717370
-4.919792
-5.008271
-4.951616
-4.789612
-4.611057
-4.482790
-4.311556
-4.107858
-3.948400
-3.856417
-3.857688
-3.890787
-3.942982
-4.079202
-4.288944
-4.566479
-4.811231
-4.997739
-5.171516
-5.354522
-5.539757
-5.669930
-5.785144
-5.923274
-6.095141
-6.258096
-6.345620
-6.347210
-6.288009
-6.179793
-6.034976
-5.886976
-5.751071
-5.646993
-5.581744
-5.500264
-5.335077
-5.079500
-4.727167
-4.334095
-3.926382
-3.473792
-2.964231
-2.420296
-1.950201
-1.571451
-1.289138
-1.072072
-0.902748
-0.787530
-0.669448
-0.474662
-0.180573
0.152663
0.485900
0.853510
1.240217
1.648885
2.068692
2.402247
2.634908
2.745352
2.754902
2.747583
2.766681
2.867577
3.033082
3.213228
3.375232
3.479628
3.562063
3.557609
3.413114
3.152129
2.790252
2.353898
1.846568
1.309002
0.815040
0.444569
0.221141
0.101471
0.024132
-0.044296
-0.113996
-0.200884
-0.279178
-0.325008
-0.354605
-0.353967
-0.356511
-0.376879
-0.415071
-0.508005
-0.646453
-0.869881
-1.211071
-1.659520
-2.181808
-2.701551
-3.182145
-3.583489
-3.895397
-4.113733
-4.213033
-4.226399
-4.229262
-4.240718
-4.262677
-4.255036
-4.196472
-4.044971
-3.782710
-3.461250
-3.146155
-2.837107
-2.512783
-2.189094
-1.890550
-1.655979
-1.534714
-1.500339
-1.496836
-1.502245
-1.524840
-1.561759
-1.492691
-1.249527
-0.841495
-0.368854
0.089783
0.539827
1.003874
1.458056
1.879136
2.212373
2.456810
2.655098
2.779864
2.812011
2.803101
2.855619
2.963834
3.073959
3.130933
3.132526
3.150987
3.189182
3.235652
3.241701
3.214332
3.217516
3.309500
3.482325
3.682841
3.893859
4.113153
4.311759
4.524369
4.697513
4.792360
4.863338
4.891984
4.790774
4.509739
4.143405
3.811446
3.567012
3.395781
3.250013
3.104562
2.948609
2.801567
2.717544
2.719138
2.793934
2.908515
3.008456
3.036466
2.989363
2.848050
2.595023
2.255106
1.907232
1.577182
1.278323
1.023704
0.821283
0.634775
0.448586
0.213382
-0.060970
-0.307950
-0.421255
-0.324815
-0.087698
0.190477
0.459103
0.712134
0.971212
1.245250
1.501782
1.720439
1.858254
1.854118
1.709304
1.431770
1.088034
0.787583
0.559382
0.384650
0.221058
0.021183
-0.195880
-0.442223
-0.734398
-1.044079
-1.317158
-1.511941
-1.678715
-1.912010
-2.264657
-2.705149
-3.175559
-3.616369
-4.011984
-4.387866
-4.723008
-4.997360
-5.233519
-5.472224
-5.797500
-6.206482
-6.628832
-6.980843
-7.247557
-7.449023
-7.616435
-7.798805
-8.056606
-8.365968
-8.720844
-9.092270
-9.490431
-9.880635
-10.214823
-10.529278
-10.915981
-11.370159
-11.850435
-12.263237
-12.625751
-13.002269
-13.364147
-13.701836
-13.962820
-14.182110
-14.390579
-14.577405
-14.712352
-14.776642
-14.821199
-14.844431
-14.740990
-14.528698
-14.258480
-13.941157
-13.606330
-13.223760
-12.766078
-12.280388
-11.800426
-11.401943
-11.111674
-10.876148
-10.631074
-10.359265
-10.074724
-9.790821
-9.543837
-9.298126
-9.047641
-8.787290
-8.520573
-8.278364
-8.044111
-7.752250
-7.404373
-7.016075
-6.597859
-6.161501
-5.711457
-5.247728
-4.765220
-4.257569
-3.734003
-3.245130
-2.803362
-2.422702
-2.122566
-1.903272
-1.719307
-1.531205
-1.333554
-1.115851
-0.854545
-0.577643
-0.374263
-0.278142
-0.200163
-0.094494
0.014358
0.117482
0.177319
0.302403
0.535701
0.775365
0.995932
1.136611
1.245782
1.343812
1.363865
1.341588
1.330768
1.357824
1.347641
1.240383
1.131535
0.973672
0.714279
0.346672
-0.145698
-0.632022
-1.080470
-1.581753
-2.092902
-2.592593
-3.068413
-3.475804
-3.845321
-4.189693
-4.472320
-4.674424
-4.869843
-5.113959
-5.373670
-5.667755
-5.951337
-6.207865
-6.399147
-6.529320
-6.636895
-6.708824
-6.755290
-6.749560
-6.713274
-6.723457
-6.813846
-6.964389
-7.108884
-7.197363
-7.334220
-7.487627
-7.598703
-7.633075
-7.603155
-7.580238
-7.585328
-7.627975
-7.731732
-7.934790
-8.200230
-8.470444
-8.701510
-8.893429
-9.120358
-9.394073
-9.590766
-9.683064
-9.743216
-9.864796
-10.101591
-10.317698
-10.518529
-10.808158
-11.098742
-11.369911
-11.495628
-11.473028
-11.445018
-11.344123
-11.139470
-10.860022
-10.516919
-10.169997
-9.812253
-9.347569
-8.745389
-8.207502
-7.793741
-7.355156
-6.868510
-6.302614
-5.705846
-5.196921
-4.640573
-3.931135
-3.224561
-2.576550
-2.029114
-1.633814
-1.250290
-0.877269
-0.589227
-0.372798
-0.222888
-0.069796
0.117988
0.257713
0.421309
0.602410
0.687391
0.728450
0.839849
0.977664
1.076331
1.161949
1.236109
1.397795
1.579214
1.787368
1.788006
1.813788
1.799150
1.390167
1.206524
0.895570
0.477358
0.290213
-0.272496
-0.642649
-0.765502
-0.954237
-0.995293
-1.208536
-1.437056
-1.375627
-1.412227
-1.648704
-1.952019
-2.107973
-2.139162
-2.312938
-2.471438
-2.512494
-2.499761
-2.601289
-2.644573
-2.480659
-2.282371
-2.007061
-1.755940
-1.526461
-1.297619
-1.114609
-0.988570
-0.981884
-0.833248
-0.679519
-0.630821
-0.593263
-0.668056
-0.701154
-0.871430
-1.334519
-1.732362
-2.008306
-2.259105
-2.535367
-2.851412
-3.092027
-3.239069
-3.476819
-3.871797
-4.265821
-4.519166
-4.630561
-4.640744
-4.763915
-4.844437
-4.845708
-4.874351
-4.802101
-4.775046
-4.714253
-4.442444
-4.061466
-3.641022
-3.275322
-2.979005
-2.620307
-2.147029
-1.658156
-1.169919
-0.583017
0.084091
0.811671
1.386479
1.712713
2.117243
2.493765
2.698737
2.741388
2.543104
2.431709
2.416752
2.344187
2.284989
2.202876
2.158637
2.242664
2.264627
2.129043
1.987730
1.868379
1.789448
1.717838
1.677737
1.841014
2.086725
2.354397
2.580692
2.644031
2.728376
2.847731
3.007826
3.260857
3.585818
4.004671
4.498318
4.985282
5.472564
5.990082
6.519694
7.064266
7.548365
7.974538
8.363473
8.586904
8.637830
8.619690
8.451960
8.288050
8.185885
8.063988
8.000971
7.936681
7.957371
8.091048
8.213586
8.334533
8.468847
8.783305
9.151870
9.273135
9.318014
9.381671
9.509619
9.745463
9.917971
10.024913
10.110213
10.100348
10.107988
10.090485
10.065343
10.020150
9.978457
9.981642
9.927219
9.847970
9.720661
9.554523
9.415438
9.302134
9.158275
8.911295
8.581882
8.353998
8.107654
7.900459
7.801795
7.726365
7.751829
7.787478
7.748332
7.793529
7.927843
7.998184
7.931348
7.789717
7.757254
7.768077
7.904620
8.163380
8.377581
8.706361
9.050101
9.232793
9.402436
9.566031
9.565397
9.500788
9.401488
9.282773
9.246173
9.190159
9.106454
8.917082
8.657052
8.338142
7.937434
7.601019
7.291020
6.931370
6.581905
6.292913
6.032247
5.797679
5.537650
5.212692
4.979080
4.777613
4.604791
4.500080
4.345718
4.155073
3.977477
3.881996
3.926238
4.001353
4.014722
4.009313
4.056102
4.112438
3.978764
3.784618
3.558007
3.300842
3.059591
2.795424
2.520754
2.238763
1.973642
1.769947
1.657597
1.594262
1.496872
1.315456
1.107942
0.871465
0.605070
0.297618
-0.092905
-0.511754
-0.923601
-1.344359
-1.746022
-2.065250
-2.391163
-2.810330
-3.198625
-3.545543
-3.865727
-4.191321
-4.564657
-4.944676
-5.286821
-5.656337
-6.072003
-6.464436
-6.835225
-7.181825
-7.481003
-7.720981
-7.787817
-7.746758
-7.678963
-7.560881
-7.455530
-7.358136
-7.229869
-7.186900
-7.225091
-7.245459
-7.151566
-6.920178
-6.719344
-6.728890
-6.922400
-7.018199
-6.910620
-6.733339
-6.569425
-6.438294
-6.256557
-5.951647
-5.557301
-5.085297
-4.704637
-4.434419
-4.251091
-4.119641
-3.930265
-3.653682
-3.327129
-2.990073
-2.604321
-2.138046
-1.651719
-1.099827
-0.535522
-0.000180
0.519566
1.016077
1.514817
1.932715
2.220756
2.480153
2.803205
3.159993
3.463312
3.655871
3.822012
4.047990
4.275559
4.428651
4.543551
4.647310
4.638719
4.436615
4.087469
3.672439
3.276187
2.878981
2.428305
2.034281
1.745607
1.558462
1.385004
1.162531
0.942923
0.817524
0.714404
0.662209
0.718545
0.824851
0.908878
0.961395
1.079477
1.299408
1.590313
1.852893
2.042905
2.295936
2.629172
2.895571
3.021292
3.106910
3.246634
3.442058
3.538815
3.477390
3.402597
3.463071
3.526410
3.519728
3.480900
3.446846
3.463080
3.389242
3.088155
2.718957
2.386042
2.197625
2.037852
1.851663
1.726900
1.689664
1.669296
1.583682
1.363118
1.095132
0.773994
0.437578
0.175639
-0.249257
-0.566258
-0.939276
-1.467930
-2.016317
-2.420844
-2.762988
-2.996601
-3.240716
-3.367388
-3.522705
-3.650332
-3.640145
-3.523973
-3.255028
-2.851771
-2.457426
-1.868295
-1.249566
-0.665528
-0.081172
0.498728
1.031205
1.818303
2.335821
2.972693
4.056423
5.276694
5.947621
6.016370
6.517020
7.538368
8.516431
8.638651
8.042522
7.643088
8.085493
8.365896
7.828648
