EVENT_NAME: 202302060117
EVENT_ID: 13194
EVENT_DATE_YYYYMMDD: 2023/02/06
EVENT_TIME_HHMMSS: 01:17:32.00000
EVENT_LATITUDE_DEGREE: 37.288
EVENT_LONGITUDE_DEGREE: 37.043
EVENT_DEPTH_KM: 8.6
HYPOCENTER_REFERENCE: AFAD
MAGNITUDE_W: 7.7
MAGNITUDE_W_REFERENCE: AFAD
MAGNITUDE_L: 
MAGNITUDE_L_REFERENCE: 
FOCAL_MECHANISM: 
NETWORK: TK
STATION_CODE: 3115
STATION_NAME: 
STATION_LATITUDE_DEGREE: 36.54634
STATION_LONGITUDE_DEGREE: 36.16459
STATION_ELEVATION_M: 180.0
LOCATION: Kahramanmaras_Pazarck_Turkiye
SENSOR_DEPTH_M: 
VS30_M/S: 424
SITE_CLASSIFICATION_EC8: B
MORPHOLOGIC_CLASSIFICATION: 
EPICENTRAL_DISTANCE_KM: 113.57
EARTHQUAKE_BACKAZIMUTH_DEGREE: 
DATE_TIME_FIRST_SAMPLE_YYYYMMDD_HHMMSS: 2023/02/06 01:17:31.6243800
DATE_TIME_FIRST_SAMPLE_PRECISION: millisecond
SAMPLING_INTERVAL_S: 0.01
NDATA: 12501
DURATION_S: 
STREAM: HNZ
UNITS: cm/s^2
INSTRUMENT: sensor = CMG-5T/GURALP | digitizer = 
INSTRUMENT_ANALOG/DIGITAL: 
INSTRUMENTAL_FREQUENCY_HZ: 
INSTRUMENTAL_DAMPING: 
FULL_SCALE_G: 
N_BIT_DIGITAL_CONVERTER: 
PGA_CM/S^2: 214.805
TIME_PGA_S: 
BASELINE_CORRECTION: BASELINE REMOVED
FILTER_TYPE: BUTTERWORTH
FILTER_ORDER: 
LOW_CUT_FREQUENCY_HZ: 
HIGH_CUT_FREQUENCY_HZ: 
LATE/NORMAL_TRIGGERED: 
DATABASE_VERSION: 
HEADER_FORMAT: DYNA 1.2
DATA_TYPE: Acceleration
PROCESSING: Automatic Paolucci et al., 2011
DATA_TIMESTAMP_YYYYMMDD_HHMMSS: 
DATA_LICENSE: U (unknown license)
DATA_CITATION: Turkish Accelerometric Archive v 1.0 - Disaster And Emergency Management Presidency, Earthquake Department
DATA_CREATOR: AFAD
ORIGINAL_DATA_MEDIATOR_CITATION: : AFAD - Disaster And Emergency Management Presidency
ORIGINAL_DATA_MEDIATOR: AFAD PROCESS SERVICE
ORIGINAL_DATA_CREATOR_CITATION: AFAD PROCESS SERVICE
ORIGINAL_DATA_CREATOR: network: TK
USER1: GuestUser
USER2: 
USER3: 
USER4: 
USER5: 
[...]
116.967784
81.017802
-53.308218
-85.671827
-45.038656
-9.584669
-60.079016
-111.232591
-66.302602
4.059360
13.530269
-16.437833
-22.844721
4.024915
32.720086
37.625215
14.432104
12.384331
-4.577106
-29.924916
-40.797848
-8.340491
-7.018739
-13.506197
-44.720274
-60.120648
-33.608630
-57.073400
-43.731281
-47.612674
-31.091221
4.171377
21.273886
35.440864
34.447978
29.504511
-8.209005
-27.792681
-37.367223
-57.307919
-47.790884
6.868794
29.256514
59.519037
70.677405
46.868494
8.565237
45.441613
82.825664
27.263552
-34.643449
-54.325965
-6.247792
-4.082610
-14.380476
0.933039
37.318213
80.154604
35.580736
36.405896
51.769130
38.616304
47.655615
3.270740
3.478602
-31.018739
-85.505299
-135.249365
-119.382049
-60.313236
1.786053
55.539104
12.942623
45.058834
68.184855
38.397060
45.973847
25.767782
4.782383
-20.141316
-37.245921
-1.176733
-28.305748
-48.762506
-14.544011
13.872612
3.607093
-36.232068
-19.560559
-31.025629
-77.692196
-79.390735
-18.826153
74.236520
71.295000
-0.561832
-63.892121
-50.396950
-22.257976
-53.788639
-107.311664
-113.903952
-12.707097
1.872012
-10.102828
-13.930009
-26.794105
-9.272278
-46.986393
-55.250264
-33.397774
-60.525592
-69.320200
-14.812376
-17.434914
-6.607808
41.665048
35.463925
45.306232
57.539253
48.018324
53.647078
36.685640
35.419298
32.382532
1.513794
24.278901
80.460106
142.565984
105.094475
34.597134
5.833974
44.769803
71.560967
-6.555693
-71.124469
-63.919976
9.850447
61.111847
64.989346
39.898519
8.730866
42.978713
76.959395
47.158421
-11.640830
-26.404439
14.570776
88.914767
68.770102
42.152955
48.327422
54.066995
114.253292
101.558721
40.330417
8.324726
-34.615297
-57.455881
-55.904102
-50.998075
-65.699685
-28.713088
37.607541
72.822517
68.530192
21.264898
-33.876997
-106.235813
-108.488153
-14.338247
-16.310842
-50.420014
-30.633268
-12.329711
34.100240
37.348761
28.707803
39.466919
18.100540
-43.081639
-62.089651
-56.792459
-56.145810
-35.563556
1.957672
13.037567
3.947039
-12.553148
-5.301332
38.179012
51.348312
46.724126
45.545541
33.931614
34.875380
-9.091074
5.063924
20.832999
-24.471980
-56.380629
-49.297439
6.099940
14.007990
5.429630
35.870064
63.742471
37.477552
-13.957566
-5.960262
28.603871
35.458532
30.958046
2.224538
20.422366
54.992490
61.663549
38.568978
24.175567
9.211584
-6.984897
-31.021737
15.650820
48.982755
65.134609
67.783205
2.430004
-37.050041
-37.927615
-33.539746
-17.002718
-18.918106
-16.634317
48.731464
76.965982
91.835919
85.287061
64.194736
25.684215
45.388895
63.778412
-8.371944
-48.520502
-35.237687
-21.141393
1.552429
-21.947384
-27.131959
-33.905452
-38.190888
-11.231697
-12.266815
-36.878121
-35.966702
-46.910618
-45.627803
-45.605040
-88.180255
-100.458503
-84.253037
-80.416571
-90.970821
-117.387893
-99.314962
-47.009458
-33.386096
-42.433494
-37.872805
-8.189540
-55.749555
-110.066291
-122.578458
-78.799799
-15.223011
-10.372393
-18.898638
-23.809159
-35.142442
-14.856107
-14.674303
-61.560712
-81.472057
-70.903431
-53.587669
-47.167601
-56.220091
-16.319230
14.506378
-28.674752
-73.640982
-44.088904
27.376464
40.357969
-18.596130
-40.631323
6.380882
42.529141
44.514315
27.347711
-8.477673
-7.595606
2.769950
-15.737875
14.002597
33.896270
29.750706
59.590017
65.860927
66.452765
72.680245
70.583053
64.725472
68.572720
46.135281
-12.380331
-53.432821
-52.524697
-50.388268
-54.041432
-8.407587
19.176689
10.090054
-22.128890
-11.050492
78.597430
106.098441
78.556995
55.846999
21.923525
39.348310
3.288706
-76.331511
-110.138474
-58.246898
3.970399
20.698515
-15.869362
-1.710470
64.423562
79.604992
37.811507
6.646250
35.106902
46.231424
8.537976
-92.503132
-76.377936
-30.319081
-22.209759
-21.655959
-52.422264
-53.973743
7.832023
41.868114
53.024086
48.664370
78.296718
93.343367
53.026782
38.395557
-31.426083
-96.310845
-116.054761
-103.009160
-86.442182
-32.431848
8.086010
-2.725222
-1.351354
-0.556146
4.349582
-18.641358
-78.627880
-123.366480
-125.861425
-128.067940
-125.637390
-103.501261
-103.038213
-77.724847
-39.967603
-38.797405
-29.522077
-18.422414
5.910645
42.641457
61.968750
78.480918
98.477623
109.538649
84.152801
41.349956
6.155946
2.952951
21.849244
2.061899
-5.974342
8.810233
-17.358243
-74.275054
-90.100138
-64.208412
-35.624062
-34.584751
-30.832448
-7.700737
16.826107
9.815100
-15.048397
-17.020093
-29.466368
-28.932336
-26.351729
-14.745589
6.720828
16.752127
34.579757
71.096118
112.927642
75.533108
31.259053
50.376387
88.468188
73.080393
-31.460827
-123.816649
-125.572096
-55.096919
15.885635
-4.624436
-69.020094
-49.370225
19.316260
33.804017
39.431572
12.325021
12.634717
42.122400
0.579906
-45.011707
-55.528218
-43.619869
-40.144317
-57.516687
-98.696170
-73.813205
2.742991
13.505103
-32.393512
-70.063299
-59.686661
-29.353153
-15.086137
-7.057383
6.032845
4.749431
-2.035744
5.498813
21.662647
31.705627
18.096342
9.794432
25.677023
45.143590
59.053586
66.749880
36.015024
36.322923
47.195855
42.658528
10.260475
-22.674007
-5.166556
38.406038
47.696042
88.457704
150.897839
153.079194
138.633069
141.709370
146.061298
150.846323
136.500535
99.555570
72.580205
42.359314
2.530636
-10.019570
-23.229604
-56.178762
-48.956598
-12.444131
16.902481
18.133181
3.521126
28.880617
85.470658
154.766951
169.644975
126.031047
140.446322
146.268861
114.202369
81.285259
11.204540
-53.386999
-61.888683
-50.438889
-45.813805
-58.740200
-83.394337
-108.088010
-53.286063
0.661373
-8.201525
-55.163712
-56.498343
-2.491304
17.228351
7.220115
-36.117063
-80.711297
-42.417025
28.500234
-7.738777
-72.843382
-70.041136
-37.088085
-17.081196
-24.417774
-71.684266
-85.129717
-77.156673
-65.331290
-66.801301
-93.091380
-93.006318
-64.425561
-7.565659
53.964854
81.388590
86.752574
87.310867
57.131608
51.312963
68.959687
57.786344
18.302106
-18.445779
-42.308302
-35.975992
-16.001451
2.789414
26.571368
48.305850
46.970919
15.319852
5.623409
2.562383
26.567175
39.929062
-11.574944
-21.935408
-14.613207
-21.539751
-3.090931
-24.104484
-29.857535
28.066239
58.809481
75.559462
48.965677
-2.584154
-36.360268
-29.506805
-19.199055
-79.995761
-86.969329
-31.837318
4.529286
67.313861
114.066388
125.863019
137.110941
116.708994
39.504052
-2.947165
-22.072286
-54.114218
-62.720733
-48.372848
-22.478427
-11.798681
-10.122605
-45.066221
-76.038591
2.369496
47.842801
-8.417775
-20.053567
19.222509
37.536249
49.690798
46.531233
46.788814
98.666313
137.162157
127.414797
73.352648
66.691472
99.578930
108.670955
67.408207
-12.789771
-20.953904
36.834190
42.301206
14.529435
38.683385
60.253434
76.671255
73.480839
94.095440
111.054182
77.723445
31.909892
37.736623
53.186717
5.995403
-9.531965
23.656504
42.328162
-1.736533
-44.645705
-27.550685
33.101655
55.273126
31.851187
0.732954
-1.074609
13.960060
45.249615
41.259199
-7.497372
-5.101565
38.795702
65.815395
71.920374
65.363130
42.257177
-10.367009
-32.696922
-46.824964
-54.248701
-83.382059
-56.678053
-8.559446
-57.639491
-89.178540
-78.670715
-20.921558
-2.851621
-46.646155
-24.979963
-1.426537
-6.815680
-20.990446
-29.215081
-52.562741
-28.630431
29.098360
7.848790
23.427076
5.839056
-5.033276
-3.951434
-23.279926
-107.004074
-79.615979
-69.272887
-119.975395
-132.241962
-62.464051
32.729958
-52.690034
-133.220472
-122.359521
-95.099319
-73.673935
-53.914145
-126.475433
-167.295800
-122.833651
-50.884568
-0.866448
-15.084344
-35.977492
22.520748
28.938719
-59.369181
-100.607069
-64.973674
-62.185205
-81.618526
-74.501491
-30.277455
12.569419
7.701729
-32.646006
-10.241214
138.705547
108.455903
143.956015
82.548902
-15.373075
28.503526
4.478067
81.237633
117.670130
58.920298
111.215019
137.144484
121.230145
83.342612
22.352421
3.079639
27.409104
55.444147
56.207007
80.899482
89.049239
106.106820
70.279040
69.022282
107.147329
125.098359
104.109066
36.137221
40.072226
129.985218
182.321870
98.490796
-93.695202
-172.508530
-111.089736
48.662567
49.508093
-46.521260
-46.805198
-7.444659
82.408130
39.589111
-49.499620
-125.594865
-167.518938
-95.689062
-24.735562
-9.066524
-44.970380
-43.316168
28.088999
117.984918
126.785816
69.270279
14.048115
21.378703
35.301278
-5.956078
-21.880601
-29.418153
2.198770
43.260245
40.393304
56.062342
34.496786
0.922244
-32.529497
-0.776296
58.918800
32.773686
0.599968
-35.046606
-7.490785
62.162828
70.196673
64.762603
58.822656
31.616366
-28.707108
-66.897149
-44.084720
5.450585
42.864588
54.334449
83.531005
76.402588
18.158934
-25.066524
-56.692732
-38.654544
-6.021672
16.027298
22.434187
-20.806247
-30.337359
-59.803477
-86.328674
-100.164091
-86.088464
-19.568060
-1.347468
-16.929348
-20.844885
-20.049078
-5.673938
-23.730396
-133.378019
-184.166487
-169.382811
-131.630059
-79.412313
-115.544398
-164.392919
-121.708681
-26.387378
37.224452
5.872599
-75.025941
-99.541703
-90.430508
-127.979591
-120.667274
-125.893182
-148.466300
-53.759599
28.379825
42.160731
32.655676
-41.945896
-52.242864
17.423029
48.211199
6.015167
-43.040318
-30.423919
-17.135713
37.071101
68.581097
14.519547
-15.168510
54.458447
146.964624
160.380124
76.395399
-16.399210
-50.756080
13.521269
58.291019
74.378476
100.649087
92.603860
70.400041
79.204534
91.008353
80.097683
83.657398
82.231715
86.565073
83.948225
21.564998
-16.643912
-3.036724
-9.671543
-35.615983
-41.294455
19.210824
27.801763
-38.054620
-80.316844
-51.853796
-5.734141
-7.377570
-51.356604
-47.878656
-30.131296
-40.069446
-37.080304
-39.853198
-36.036200
-3.629162
53.541636
72.463687
54.498581
40.927633
45.386787
32.637705
45.511984
77.828869
88.899479
56.273796
6.605806
-6.590749
17.187611
21.505394
-12.704714
-1.277384
-15.198462
-59.694456
-90.882176
-78.035152
-20.042191
20.968067
1.813294
-25.004527
-1.356455
94.465634
106.581545
55.321643
45.441298
28.279786
39.087423
64.791654
90.235008
105.404458
58.424301
-5.551139
18.835533
37.305619
22.329056
-12.618155
-52.501345
-43.500671
5.530853
-3.811566
-8.786781
-46.546122
-89.273490
-28.134142
5.518872
-26.317294
-47.147545
-75.471020
-98.498200
-50.603330
-31.030436
-51.139758
-58.201383
-97.750915
-69.145898
-11.038822
-49.236351
-18.666527
2.449160
-0.039796
2.341934
-29.861435
18.357209
6.203858
-51.912203
-108.159900
-134.702768
-107.077459
-102.862708
-100.897901
-101.065329
-73.682327
-89.137811
-121.172555
-138.389178
-161.901271
-127.090638
-54.553910
-43.856194
-24.714599
-18.630586
-11.359002
72.670949
85.803109
65.756685
53.111533
51.111084
47.991653
-23.595917
-9.181541
-23.857692
-34.813289
32.747325
18.867579
34.996670
17.047737
-53.388804
-30.036951
16.951892
-16.250654
-67.169710
-125.697303
-89.096479
-31.607898
-26.999287
-58.091762
-40.297977
39.317149
71.775104
77.034558
67.617860
79.477688
109.491915
87.584015
-26.730624
-102.643166
-60.891612
12.274393
56.641596
71.851181
41.614116
22.603708
21.894161
38.241297
39.969488
12.040173
-4.260837
8.375928
-8.902395
-42.293634
-42.743204
-59.721414
-63.689666
-31.515649
-10.390976
36.632611
67.614265
61.609024
118.878661
127.134445
43.110783
-3.939160
-5.511306
54.227818
117.154962
84.232161
70.451854
87.487571
91.916774
117.137590
105.451480
113.979222
130.323962
79.901199
43.841596
-7.820853
-36.540284
-34.033358
-49.132422
-34.635679
-6.037850
26.448859
29.202883
-28.598689
-59.037027
-62.838150
-99.930475
-119.584537
-124.229988
-79.907113
4.895283
50.414714
34.394048
43.148222
71.227893
38.514452
-11.679184
-60.876937
-78.505690
-44.390528
-58.925309
-78.861812
-75.820853
-64.822426
-51.905017
-77.963572
-73.836578
-54.240322
-29.348671
7.755036
35.541183
66.993074
44.347473
-5.247735
-18.762374
36.502621
75.380943
26.711232
-46.047136
-78.212467
-72.471996
-65.959079
-73.751816
-104.799064
-112.056870
-52.356983
24.570910
7.440247
-49.089293
-63.540809
-17.579596
45.348146
13.009696
-64.389630
-104.337514
-53.040772
21.205878
14.739386
-37.858443
-80.838600
-45.310933
3.989254
14.176600
-22.882479
-43.448859
-41.134819
-11.987983
-21.889892
-79.990678
-97.737440
-79.565369
-31.113404
19.302470
33.765668
53.210969
58.595918
28.860538
21.314301
24.283077
-7.413816
-57.549046
-49.943206
4.612242
56.953088
65.520366
68.534368
82.902919
65.331373
44.925533
22.944851
50.731298
108.775776
102.579744
92.960276
98.832534
114.598614
127.129950
114.860089
94.378172
71.551066
78.598614
105.248408
98.972406
88.853649
88.595768
88.316622
92.339984
42.421601
13.685397
24.801234
23.848183
49.610819
84.197715
123.859564
99.669673
10.191874
-63.412019
-79.139762
-66.627295
-25.461289
-37.365745
-25.684726
16.840470
18.697453
-6.457171
-48.199739
-9.947400
19.211118
55.440845
71.460612
40.277984
36.815910
50.440770
46.413214
6.723211
-35.536018
-62.605730
-67.282330
-71.603708
-97.205206
-122.976527
-118.007003
-81.494536
-82.329279
-112.871548
-81.739238
-20.955112
2.292211
32.403779
22.937961
6.938560
6.114300
-13.300751
-15.485401
3.850279
6.194270
-24.240474
-39.524937
-54.217861
-130.635083
-190.956760
-207.971810
-214.805206
-186.718347
-88.487273
16.741031
34.748070
6.130174
-27.348224
-0.457921
40.686819
-18.130702
-51.744181
4.987830
56.717669
62.207747
-37.132425
-100.157809
-43.958033
-4.401013
32.378620
10.846310
-25.349872
-29.131227
-50.250808
-44.705019
-42.959156
-41.718273
-0.073046
69.054621
86.268548
16.467875
-3.490793
42.610593
48.515797
51.283299
60.264205
80.339982
59.492959
-19.433586
-50.321792
-42.639277
-14.901051
37.737511
57.862109
50.894231
46.583636
45.153760
70.167013
96.715272
78.472816
94.258065
95.111378
69.249005
63.510031
23.972180
-16.246465
12.390001
33.244512
-20.215316
-49.575406
-42.486525
-11.329655
16.814111
-21.378625
-74.536843
-101.072223
-127.296709
-94.477240
-19.424900
-37.338191
-94.350846
-88.688547
-59.736095
-53.275294
-95.059195
-95.070876
-14.428420
42.769334
85.965440
77.012389
89.898948
105.105238
68.003628
45.203478
4.706885
12.203703
-13.782669
-43.264961
-26.771063
-12.167993
4.731445
-44.094313
-79.627072
-40.203336
17.950165
1.287042
-55.015167
-59.643246
-16.586413
54.334440
78.777121
101.390973
114.180790
97.830060
108.691610
75.289887
26.584234
40.519389
51.921261
47.074837
21.866001
-62.376006
-60.091917
-1.692217
28.776072
48.785357
0.705387
-31.231116
-31.817863
-41.208203
-55.384467
-73.078514
-54.387387
3.831707
48.451400
56.100071
18.518041
-13.588885
-23.173310
3.219801
50.979591
38.513549
15.222496
15.054769
33.333466
69.260385
91.612163
101.552410
85.347543
38.098423
25.748591
25.724031
14.366787
-29.579900
-72.035909
-48.412397
-17.220184
15.622646
40.810815
55.514522
43.309954
21.509580
15.589999
7.516319
11.460609
42.711826
44.754207
-4.613071
-52.760432
-93.654778
-84.520522
-75.790608
-72.696935
-84.864962
-50.676718
62.411414
116.862032
111.850575
84.673937
41.017179
4.014708
2.120586
7.677456
-7.756463
-34.068407
-32.371963
-13.824004
-18.424528
-10.880387
23.514222
31.248254
-17.963577
-81.586190
-72.716404
1.885768
-11.318575
-13.093191
37.140878
50.584832
72.755704
72.053645
37.754281
-19.999968
-30.315206
-11.853207
-22.724940
-30.392480
-16.741563
1.991496
21.311301
10.661806
11.037696
24.594266
14.203851
-17.598171
-43.427898
-61.718276
-82.146880
-85.207007
-84.001166
-92.515730
-87.760657
-40.273124
-34.628797
-49.912361
-29.606558
-36.937445
-48.378254
-49.286378
-31.187688
-25.108767
-2.905846
23.416879
3.818227
17.064202
9.303214
4.265101
8.368732
3.807744
-15.644147
-35.152646
-58.717153
-98.476045
-93.367546
-48.628647
-38.188213
-37.162380
-26.193005
-27.736697
-14.104050
-1.090796
-12.314757
-8.216517
25.951061
76.613434
116.504411
128.439417
101.657538
92.814108
90.818152
86.101716
101.697972
92.843460
75.633427
68.575396
52.527174
7.606171
-30.623406
-57.993230
-14.360433
-11.129883
-37.409479
-47.347030
-55.469831
-8.606783
21.083969
30.789098
51.953606
68.586478
54.716017
68.399881
71.487264
49.590147
42.294003
17.538331
-10.551224
-30.414047
-25.242051
-16.415095
42.223617
82.410513
101.311599
77.198383
41.865699
41.987601
15.700517
-6.175934
-67.589936
-115.512063
-91.938869
-46.004912
-34.421535
-32.424380
-56.428274
-98.899857
-114.689000
-110.307420
-80.869457
-67.748379
-80.261145
-42.463766
18.723804
55.152407
36.525376
-7.102329
-21.832392
10.998757
39.528297
3.597484
-16.324642
-11.052010
-14.606934
-32.717005
-59.899034
-71.079566
-92.282711
-92.950026
-38.083984
-26.396975
-40.105698
-30.190910
3.648401
37.597334
47.150910
57.381984
52.949187
35.622343
27.440239
44.388199
44.090183
18.525526
1.394264
5.916915
-0.191659
-33.778480
-28.823932
-9.003340
1.579663
8.542748
-6.647069
2.928670
17.508977
-5.545459
-2.737223
0.816503
-0.320450
7.776293
20.669142
9.847128
26.385653
40.559820
44.823990
66.663002
71.985054
55.216802
53.479625
62.007966
46.319161
46.984679
23.578614
3.338704
27.233275
40.120433
17.113919
-9.875224
-53.880315
-65.000046
-58.697987
-60.100008
-39.695067
-9.963580
-8.971293
-11.514760
1.917513
16.348063
25.114218
5.909726
13.334361
64.463975
85.176217
49.677004
5.126798
-36.505849
-42.868410
-21.044973
-31.291023
-1.669458
80.843159
95.918561
45.860905
-12.362383
-34.179230
-17.637411
7.829905
17.451769
16.371425
40.739826
34.046603
14.130766
-11.057104
-17.698511
24.269890
41.272061
10.159519
-9.606261
-23.477920
-35.710642
-54.983424
-69.742241
-55.892147
-25.984247
16.829980
11.280597
15.829605
6.498868
-65.708995
-91.881664
-77.204015
-60.832918
-27.242203
-29.679942
-17.680242
30.438066
61.494599
97.524251
100.902162
82.207740
51.713094
55.760118
39.840088
-11.291024
-24.714311
-5.681739
6.354801
18.922679
10.094225
-3.390762
37.128594
42.060979
13.996883
-3.986195
-18.596453
-33.265116
-34.306524
-44.522324
-50.187917
-36.244375
-18.220564
0.914442
-1.856056
-21.559239
-23.909819
20.876104
64.720956
88.559219
97.013281
58.830728
32.519084
16.442109
-5.876723
-35.680392
-59.457554
-66.106450
-53.931234
-39.917906
-24.668786
-6.938797
-40.666689
-91.963432
-129.536176
-152.470209
-131.712740
-76.581328
-32.950628
-21.837487
-37.834492
-38.845050
-7.471931
7.366556
3.595984
14.738178
21.086661
19.643007
23.184752
4.649372
7.117960
13.208264
19.662176
35.524999
30.543194
28.371423
27.377938
8.285463
15.455512
15.832000
18.348211
25.480521
13.842333
18.209836
13.977713
-0.750853
-28.373167
-53.579307
-54.360737
-25.748831
29.869888
50.370075
30.520131
11.187147
-15.043328
-15.164032
-26.314612
-40.955421
-34.624009
-23.056806
-10.808210
-0.700236
-13.277098
-27.088255
-47.934680
-62.398476
-52.732583
-40.136252
-37.170472
-50.650966
-46.029476
-13.142317
