EVENT_NAME: 202302060117
EVENT_ID: 13194
EVENT_DATE_YYYYMMDD: 2023/02/06
EVENT_TIME_HHMMSS: 01:17:32.00000
EVENT_LATITUDE_DEGREE: 37.288
EVENT_LONGITUDE_DEGREE: 37.043
EVENT_DEPTH_KM: 8.6
HYPOCENTER_REFERENCE: AFAD
MAGNITUDE_W: 7.7
MAGNITUDE_W_REFERENCE: AFAD
MAGNITUDE_L: 
MAGNITUDE_L_REFERENCE: 
FOCAL_MECHANISM: 
NETWORK: TK
STATION_CODE: 0718
STATION_NAME: 
STATION_LATITUDE_DEGREE: 36.26776
STATION_LONGITUDE_DEGREE: 32.316976
STATION_ELEVATION_M: 21.0
LOCATION: Kahramanmaras_Pazarck_Turkiye
SENSOR_DEPTH_M: 
VS30_M/S: 344
SITE_CLASSIFICATION_EC8: C
MORPHOLOGIC_CLASSIFICATION: 
EPICENTRAL_DISTANCE_KM: 435.88
EARTHQUAKE_BACKAZIMUTH_DEGREE: 
DATE_TIME_FIRST_SAMPLE_YYYYMMDD_HHMMSS: 2023/02/06 01:18:07.3952340
DATE_TIME_FIRST_SAMPLE_PRECISION: millisecond
SAMPLING_INTERVAL_S: 0.01
NDATA: 21001
DURATION_S: 
STREAM: HNN
UNITS: cm/s^2
INSTRUMENT: sensor = GMS+/GEOSIG | digitizer = 
INSTRUMENT_ANALOG/DIGITAL: 
INSTRUMENTAL_FREQUENCY_HZ: 
INSTRUMENTAL_DAMPING: 
FULL_SCALE_G: 
N_BIT_DIGITAL_CONVERTER: 
PGA_CM/S^2: 3.676
TIME_PGA_S: 
BASELINE_CORRECTION: BASELINE REMOVED
FILTER_TYPE: BUTTERWORTH
FILTER_ORDER: 
LOW_CUT_FREQUENCY_HZ: 
HIGH_CUT_FREQUENCY_HZ: 
LATE/NORMAL_TRIGGERED: 
DATABASE_VERSION: 
HEADER_FORMAT: DYNA 1.2
DATA_TYPE: Acceleration
PROCESSING: Automatic Paolucci et al., 2011
DATA_TIMESTAMP_YYYYMMDD_HHMMSS: 
DATA_LICENSE: U (unknown license)
DATA_CITATION: Turkish Accelerometric Archive v 1.0 - Disaster And Emergency Management Presidency, Earthquake Department
DATA_CREATOR: AFAD
ORIGINAL_DATA_MEDIATOR_CITATION: : AFAD - Disaster And Emergency Management Presidency
ORIGINAL_DATA_MEDIATOR: AFAD PROCESS SERVICE
ORIGINAL_DATA_CREATOR_CITATION: AFAD PROCESS SERVICE
ORIGINAL_DATA_CREATOR: network: TK
USER1: GuestUser
USER2: 
USER3: 
USER4: 
USER5: 
[...]
-0.062424
-0.020341
-0.016444
-0.029692
-0.018262
0.000961
-0.009170
-0.019301
-0.035406
-0.037744
0.022003
0.109805
0.198126
0.237611
0.232936
0.223324
0.183580
0.139939
0.123834
0.121496
0.139420
0.203064
0.281254
0.333208
0.390357
0.501278
0.655581
0.791439
0.880280
0.924701
0.906777
0.824171
0.735331
0.664414
0.575314
0.478421
0.397893
0.319443
0.242033
0.178390
0.107214
0.009021
-0.116446
-0.248928
-0.361926
-0.475445
-0.587664
-0.687675
-0.775216
-0.830027
-0.838080
-0.809765
-0.809765
-0.845872
-0.868472
-0.868212
-0.847430
-0.804308
-0.738587
-0.667670
-0.587142
-0.493365
-0.393874
-0.283213
-0.169174
-0.048382
0.056305
0.109297
0.098907
0.055526
0.040200
0.090595
0.236845
0.436606
0.648317
0.881329
1.094859
1.248642
1.332807
1.366837
1.363720
1.302415
1.168634
1.019268
0.932765
0.881851
0.821585
0.743915
0.655594
0.571689
0.499214
0.442845
0.405179
0.382059
0.309584
0.148009
-0.074612
-0.318794
-0.550247
-0.761178
-0.939119
-1.100694
-1.259672
-1.398128
-1.514764
-1.608540
-1.661012
-1.668546
-1.648543
-1.576847
-1.462289
-1.353706
-1.291881
-1.296037
-1.342016
-1.440468
-1.566715
-1.678674
-1.775568
-1.859992
-1.910387
-1.875837
-1.761279
-1.570869
-1.342014
-1.127185
-0.934437
-0.809229
-0.774680
-0.804293
-0.849752
-0.906381
-0.985350
-1.092375
-1.216284
-1.299149
-1.308501
-1.224855
-1.105622
-1.025873
-0.970282
-0.960671
-1.034964
-1.133156
-1.208489
-1.280964
-1.326942
-1.336294
-1.305641
-1.234464
-1.130297
-0.991321
-0.865593
-0.769998
-0.709472
-0.680898
-0.660635
-0.608162
-0.515944
-0.444248
-0.376448
-0.297739
-0.244226
-0.250980
-0.301375
-0.350730
-0.384760
-0.378785
-0.376966
-0.405281
-0.461910
-0.534385
-0.565817
-0.546594
-0.488665
-0.432036
-0.369691
-0.277473
-0.172007
-0.068879
-0.007833
0.008792
-0.030173
-0.123170
-0.242663
-0.360337
-0.435930
-0.487883
-0.533862
-0.575944
-0.614389
-0.643223
-0.662706
-0.678032
-0.695436
-0.703489
-0.699852
-0.671537
-0.631532
-0.629194
-0.660366
-0.679069
-0.668159
-0.627115
-0.571005
-0.525545
-0.474371
-0.411247
-0.348903
-0.301625
-0.269153
-0.199016
-0.075886
0.066727
0.192455
0.298960
0.377670
0.398711
0.379749
0.320522
0.209601
0.065950
-0.071208
-0.199013
-0.361368
-0.556973
-0.731017
-0.841678
-0.917530
-0.958833
-0.957015
-0.948182
-0.946104
-0.952338
-0.950260
-0.940388
-0.914411
-0.887655
-0.887135
-0.861418
-0.806607
-0.736210
-0.653603
-0.566321
-0.460335
-0.345518
-0.199788
-0.007559
0.191683
0.353259
0.473532
0.576920
0.684464
0.799022
0.908384
1.029176
1.149449
1.228419
1.247902
1.233874
1.225562
1.222705
1.232576
1.250241
1.265827
1.273880
1.245306
1.154387
1.008138
0.850199
0.710444
0.603680
0.501072
0.383397
0.271957
0.177921
0.116876
0.089600
0.101030
0.151426
0.237669
0.336381
0.395868
0.422105
0.453797
0.521596
0.604982
0.658235
0.670444
0.661872
0.668106
0.694343
0.714346
0.675381
0.550432
0.361062
0.145455
-0.066775
-0.283162
-0.497470
-0.694634
-0.839065
-0.907643
-0.911280
-0.848935
-0.749184
-0.625275
-0.477466
-0.347322
-0.275626
-0.252507
-0.247831
-0.247051
-0.242115
-0.226529
-0.186525
-0.126258
-0.037937
0.069088
0.181567
0.321323
0.466014
0.591742
0.697727
0.801894
0.928142
1.083223
1.274413
1.482487
1.666663
1.783299
1.822524
1.801743
1.770051
1.756024
1.737581
1.711604
1.669522
1.596268
1.455214
1.262207
1.064523
0.866840
0.690718
0.528103
0.361332
0.197939
0.038441
-0.153787
-0.399007
-0.645007
-0.843210
-0.959066
-1.010500
-1.032321
-1.029982
-1.003746
-0.922958
-0.805283
-0.717481
-0.691504
-0.726312
-0.813334
-0.926333
-1.024006
-1.097520
-1.144278
-1.184282
-1.237794
-1.301437
-1.376250
-1.438594
-1.480416
-1.520161
-1.548475
-1.547955
-1.519640
-1.474181
-1.466388
-1.521718
-1.572113
-1.573411
-1.532887
-1.466906
-1.390274
-1.331566
-1.288185
-1.188434
-1.019585
-0.881648
-0.843461
-0.866321
-0.891778
-0.895414
-0.881647
-0.888400
-0.918014
-0.893595
-0.733318
-0.468614
-0.185727
0.093784
0.362384
0.582667
0.701641
0.703200
0.595397
0.407585
0.225228
0.107553
0.063393
0.067289
0.101319
0.181588
0.282118
0.373816
0.460579
0.543445
0.612284
0.661640
0.702164
0.723206
0.719829
0.698268
0.676188
0.682163
0.709439
0.739832
0.741391
0.692814
0.605273
0.499807
0.397459
0.295890
0.200815
0.114572
0.014042
-0.112464
-0.270143
-0.451981
-0.639273
-0.821370
-0.964242
-1.033340
-1.043991
-0.993076
-0.872543
-0.719540
-0.573031
-0.478735
-0.453017
-0.467564
-0.496398
-0.505490
-0.488085
-0.469122
-0.464965
-0.460549
-0.430676
-0.365733
-0.255592
-0.121291
0.004177
0.118994
0.181858
0.162636
0.079510
-0.035307
-0.125186
-0.172204
-0.169606
-0.126744
-0.056866
0.066523
0.206798
0.317719
0.390455
0.423965
0.437213
0.442149
0.434876
0.417991
0.431499
0.477478
0.500079
0.461893
0.350972
0.196410
0.055876
-0.042316
-0.115830
-0.164406
-0.166484
-0.129857
-0.051666
0.040811
0.100298
0.134848
0.166799
0.195114
0.189140
0.109651
-0.030364
-0.156870
-0.235060
-0.281818
-0.292209
-0.261037
-0.185444
-0.074782
0.042893
0.149138
0.243174
0.336171
0.408127
0.417219
0.376436
0.337990
0.324483
0.336692
0.369423
0.394881
0.382412
0.332277
0.271491
0.207589
0.126801
0.041338
-0.023864
-0.075298
-0.120497
-0.148292
-0.195050
-0.282851
-0.368834
-0.425464
-0.450661
-0.469104
-0.481313
-0.473260
-0.463908
-0.447802
-0.439230
-0.468324
-0.544695
-0.648602
-0.733806
-0.800046
-0.859533
-0.913824
-0.942658
-0.942139
-0.916941
-0.831996
-0.680292
-0.500792
-0.336618
-0.178420
-0.047237
0.001081
-0.002816
-0.024636
-0.071394
-0.133219
-0.162572
-0.129322
-0.044897
0.070700
0.214092
0.383721
0.562441
0.752332
0.914687
0.983006
0.938326
0.812339
0.672844
0.564002
0.485552
0.409180
0.323977
0.239812
0.168636
0.109149
0.050442
0.017971
0.023167
0.053560
0.095902
0.152012
0.239814
0.390999
0.599333
0.800913
0.995739
1.166407
1.276809
1.331360
1.340452
1.333958
1.298890
1.252911
1.225636
1.203036
1.180696
1.170825
1.187191
1.182256
1.138355
1.084064
1.025097
0.957817
0.870795
0.730001
0.513874
0.270472
0.033564
-0.169834
-0.336345
-0.469866
-0.547536
-0.585722
-0.578188
-0.549614
-0.544678
-0.587280
-0.691966
-0.824187
-0.956149
-1.077980
-1.180588
-1.219034
-1.194356
-1.144220
-1.052262
-0.925755
-0.768855
-0.585978
-0.420766
-0.303610
-0.243084
-0.257371
-0.338418
-0.426999
-0.490902
-0.500773
-0.455313
-0.405957
-0.359458
-0.288541
-0.182036
-0.063062
0.046560
0.129166
0.176964
0.221644
0.268922
0.289964
0.236711
0.109945
-0.026433
-0.137873
-0.226454
-0.312697
-0.408811
-0.530642
-0.686762
-0.848597
-0.988352
-1.098234
-1.172787
-1.194087
-1.186034
-1.167331
-1.103428
-0.994065
-0.877429
-0.771704
-0.658185
-0.527261
-0.384649
-0.243854
-0.100462
0.040332
0.140343
0.214637
0.256200
0.250485
0.218015
0.184765
0.180089
0.171517
0.146579
0.125798
0.128396
0.141125
0.144502
0.169440
0.201651
0.217238
0.202431
0.140087
0.026569
-0.133968
-0.322299
-0.541024
-0.765723
-0.946001
-1.060039
-1.116928
-1.086535
-0.928596
-0.669867
-0.369055
-0.081232
0.187368
0.413366
0.574163
0.658068
0.648457
0.574423
0.455709
0.316474
0.148664
-0.034732
-0.184098
-0.291382
-0.348011
-0.382300
-0.391392
-0.366194
-0.333723
-0.303070
-0.265664
-0.191889
-0.092138
0.011250
0.084504
0.092298
0.081907
0.135420
0.257511
0.386356
0.506369
0.641968
0.807960
1.014995
1.259957
1.475304
1.619476
1.758192
1.915612
2.046015
2.103684
2.079526
1.978476
1.823915
1.662339
1.497906
1.330616
1.195537
1.118126
1.073966
1.056302
1.095787
1.189823
1.301783
1.399456
1.480504
1.514534
1.491674
1.431668
1.336853
1.247753
1.192942
1.176058
1.189046
1.258145
1.404134
1.581037
1.750665
1.864444
1.885745
1.798983
1.604157
1.328024
1.017861
0.730039
0.480662
0.259080
0.032303
-0.193695
-0.384365
-0.505157
-0.525678
-0.476322
-0.391637
-0.299160
-0.237075
-0.279417
-0.444110
-0.658158
-0.877662
-1.068331
-1.248090
-1.419277
-1.554097
-1.644496
-1.647093
-1.556174
-1.393040
-1.218735
-1.062355
-0.896623
-0.746476
-0.615034
-0.486968
-0.325132
-0.159920
-0.080950
-0.073936
-0.093938
-0.068221
0.032829
0.158557
0.280648
0.368970
0.427158
0.488723
0.555743
0.617049
0.681731
0.743037
0.796549
0.850581
0.906691
0.945137
0.944618
0.920459
0.884352
0.892925
0.993455
1.198412
1.449868
1.641057
1.778994
1.864718
1.901085
1.879785
1.800036
1.713793
1.621836
1.530657
1.419996
1.313492
1.238419
1.182829
1.135032
1.036320
0.911632
0.790061
0.710052
0.730315
0.809544
0.899943
0.975536
1.035543
1.093471
1.165947
1.250112
1.306482
1.308040
1.266218
1.209329
1.149583
1.088278
1.044117
1.045676
1.080485
1.142570
1.209850
1.252972
1.277390
1.254791
1.172704
1.028014
0.825395
0.583811
0.332356
0.093629
-0.151072
-0.395773
-0.625148
-0.800491
-0.926998
-1.022073
-1.048569
-1.054284
-1.052984
-1.043113
-1.035320
-1.024409
-1.038696
-1.038436
-1.019993
-0.969078
-0.850883
-0.676839
-0.435514
-0.168213
0.099349
0.344310
0.547189
0.726689
0.848001
0.898656
0.897357
0.853976
0.815790
0.830338
0.910346
1.053738
1.229082
1.380787
1.475342
1.524179
1.532751
1.494306
1.428325
1.371176
1.361565
1.372216
1.377931
1.375593
1.331433
1.236098
1.078679
0.875021
0.622787
0.324833
0.026360
-0.263540
-0.517593
-0.749306
-0.959198
-1.119735
-1.249099
-1.333523
-1.384438
-1.405738
-1.392750
-1.360019
-1.297414
-1.205197
-1.054531
-0.888279
-0.759954
-0.618900
-0.443296
-0.223273
0.034677
0.305356
0.567202
0.799694
1.014523
1.187009
1.338713
1.512498
1.670957
1.807595
1.910464
1.977484
1.995148
1.912802
1.754604
1.520033
1.221820
0.925165
0.672152
0.473949
0.304840
0.141446
0.001432
-0.053379
-0.027662
0.038060
0.130277
0.216780
0.299387
0.376019
0.418101
0.397320
0.305882
0.158594
-0.050779
-0.293662
-0.524595
-0.721239
-0.864112
-0.961784
-1.047767
-1.161805
-1.296884
-1.382088
-1.377152
-1.304417
-1.200769
-1.069326
-0.926194
-0.794751
-0.671621
-0.586417
-0.556024
-0.582520
-0.646942
-0.704610
-0.736562
-0.712923
-0.627199
-0.482508
-0.311321
-0.165850
-0.049214
0.054433
0.159899
0.260430
0.356284
0.427721
0.465907
0.495001
0.503054
0.480195
0.428761
0.370573
0.299137
0.190814
0.074178
-0.028170
-0.077266
-0.063238
-0.024792
0.029759
0.080154
0.124835
0.199908
0.310829
0.450065
0.619693
0.811402
1.000254
1.130398
1.165986
1.120267
1.015061
0.868553
0.724641
0.660739
0.690612
0.781271
0.889595
0.982332
1.068835
1.128062
1.138453
1.093774
0.991425
0.840240
0.660741
0.485398
0.338110
0.275506
0.329018
0.459162
0.605412
0.715294
0.793484
0.850114
0.906224
0.970127
1.005715
1.015587
0.992468
0.928305
0.840764
0.766470
0.717374
0.667239
0.635808
0.607233
0.565930
0.521770
0.460985
0.419942
0.425916
0.477870
0.551904
0.597104
0.609313
0.605417
0.595546
0.604898
0.666723
0.745693
0.774527
0.728548
0.609315
0.417087
0.153942
-0.128425
-0.340395
-0.435990
-0.450796
-0.411571
-0.330264
-0.259087
-0.237526
-0.281427
-0.398582
-0.609513
-0.862007
-1.049040
-1.123333
-1.063067
-0.869020
-0.605096
-0.328183
-0.036723
0.217330
0.408520
0.596332
0.797393
1.002350
1.171719
1.321605
1.484739
1.642678
1.792305
1.899330
1.987651
2.114678
2.314699
2.561998
2.778385
2.943338
3.040232
3.098680
3.143100
3.153491
3.119722
3.057378
3.038675
3.050884
3.029323
2.947756
2.806183
2.627203
2.420168
2.200665
1.972329
1.724251
1.439286
1.121590
0.783632
0.425152
0.067452
-0.273883
-0.574954
-0.800692
-0.939148
-1.014221
-1.037859
-0.991620
-0.855761
-0.659636
-0.451043
-0.241929
-0.042687
0.173960
0.386190
0.531401
0.563093
0.465680
0.326704
0.197600
0.112136
0.057845
-0.001122
-0.013591
0.020179
0.080186
0.124087
0.111878
0.036805
-0.108405
-0.294138
-0.496238
-0.665346
-0.767175
-0.795230
-0.753927
-0.644564
-0.452595
-0.228415
-0.015665
0.159419
0.288004
0.397366
0.509067
0.655057
0.817412
0.974831
1.115366
1.213039
1.269928
1.283696
1.240315
1.137447
1.007304
0.886772
0.802088
0.756109
0.766500
0.849366
0.970158
1.113550
1.300324
1.555416
1.801157
1.988190
2.115217
2.134440
2.106645
2.078070
2.042223
1.993127
1.908702
1.794924
1.658806
1.506323
1.334616
1.148103
0.931457
0.673767
0.378411
0.038895
-0.296465
-0.574677
-0.769502
-0.927701
-1.093692
-1.228771
-1.325665
-1.413985
-1.520230
-1.635567
-1.767009
-1.908063
-1.992488
-2.013528
-1.988071
-1.928064
-1.813766
-1.635306
-1.458663
-1.330338
-1.252407
-1.188504
-1.118107
-1.025369
-0.903018
-0.780148
-0.640912
-0.435176
-0.126571
0.246196
0.586752
0.835870
0.990172
1.078234
1.143955
1.232276
1.362940
1.527373
1.721420
1.920662
2.072367
2.171599
2.204330
2.156013
2.068731
1.933132
1.753633
1.534129
1.257737
0.979525
0.749631
0.603642
0.558702
0.570911
0.582081
0.525452
0.355304
0.114240
-0.150723
-0.453612
-0.785336
-1.116280
-1.405921
-1.641790
-1.835317
-1.950653
-2.007802
-2.033519
-2.023388
-2.014296
-2.019751
-2.038973
-2.037155
-1.999228
-1.955847
-1.896100
-1.796089
-1.595808
-1.240705
-0.769745
-0.286317
0.148794
0.554552
0.929917
1.242418
1.451272
1.551542
1.620381
1.698052
1.765592
1.826118
1.867681
1.902490
2.000942
2.214731
2.510867
2.812718
3.094826
3.319525
3.471490
3.583710
3.645015
3.675928
3.658524
3.565007
3.389924
3.079761
2.683356
2.290067
1.906130
1.500373
1.116436
0.823678
0.641062
0.569626
0.533778
0.470654
0.348564
0.160492
-0.071221
-0.349172
-0.662972
-0.994955
-1.312131
-1.598395
-1.814003
-1.962590
-2.134815
-2.331460
-2.485502
-2.547586
-2.508361
-2.397440
-2.243917
-2.039479
-1.769840
-1.513708
-1.346937
-1.263032
-1.248225
-1.274981
-1.282254
-1.249523
-1.236535
-1.258615
-1.285890
-1.313685
-1.300956
-1.211596
-1.067684
-0.901952
-0.708684
-0.478790
-0.248635
-0.049653
0.080232
0.103611
0.045423
-0.025493
-0.036403
0.017888
0.109327
0.240770
0.397410
0.564441
0.696403
0.749396
0.759527
0.738227
0.702639
0.680299
0.650426
0.609123
0.549376
0.490409
0.458198
0.426247
0.380788
0.340524
0.339485
0.390919
0.513011
0.696147
0.894870
1.098009
1.286341
1.470776
1.665342
1.855233
2.007457
2.101234
2.160980
2.187477
2.205921
2.201245
2.150591
2.079414
2.009797
1.983560
1.965896
1.939920
1.893162
1.795230
1.677815
1.567933
1.491562
1.445843
1.446362
1.482470
1.523774
1.560661
1.575987
1.610537
1.669764
1.746656
1.828742
1.879657
1.913427
1.948496
2.005905
2.082017
2.139686
2.125919
2.014219
1.839395
1.638075
1.442730
1.260373
1.102174
1.010477
0.987357
1.010997
1.068925
1.149973
1.241931
1.320381
1.353112
1.318823
1.230502
1.102956
0.953850
0.812016
0.690445
0.597189
0.544456
0.518220
0.503153
0.510167
0.532767
0.539262
0.510688
0.442109
0.350931
0.284171
0.286249
0.361842
0.469646
0.570176
0.653562
0.706035
0.707594
0.624209
0.438734
0.184162
-0.104440
-0.401095
-0.650731
-0.799059
-0.844258
-0.805552
-0.708139
-0.559552
-0.341866
-0.107815
0.076621
0.213778
0.313789
0.379770
0.401851
0.363405
0.273526
0.157150
0.041034
-0.066250
-0.179508
-0.323420
-0.490970
-0.643453
-0.732294
-0.744762
-0.716967
-0.660857
-0.605526
-0.572016
-0.577211
-0.655920
-0.761386
-0.858279
-0.933612
-0.956991
-0.913090
-0.813598
-0.681636
-0.546037
-0.453819
-0.397709
-0.366277
-0.371991
-0.406800
-0.470443
-0.547334
-0.600586
-0.596170
-0.547853
-0.488626
-0.424203
-0.367314
-0.320555
-0.288344
-0.268861
-0.246521
-0.197165
-0.111701
-0.004676
0.137417
0.285485
0.423682
0.561879
0.662149
0.693841
0.654357
0.613833
0.599806
0.575648
0.526032
0.442647
0.344714
0.233274
0.112223
-0.022856
-0.191705
-0.384713
-0.609672
-0.854373
-1.078033
-1.237270
-1.327929
-1.380662
-1.377804
-1.316758
-1.204538
-1.080109
-1.002698
-0.961915
-0.942951
-0.952303
-0.975422
-0.978799
-0.983474
-1.026336
-1.088420
-1.138815
-1.145309
-1.082185
-0.942430
-0.745265
-0.493810
-0.189362
0.115606
0.348099
0.478502
0.544743
0.564746
0.536951
0.459540
0.331215
0.184187
0.064953
-0.012717
-0.083634
-0.172474
-0.282096
-0.398212
-0.520822
-0.679800
-0.883458
-1.084258
-1.212064
-1.248951
-1.222714
-1.196737
-1.189463
-1.184267
-1.182968
-1.167382
-1.157251
-1.151796
-1.147379
-1.167381
-1.192319
-1.223231
-1.246350
-1.245830
-1.218814
-1.169458
-1.122959
-1.083474
-1.072824
-1.083214
-1.109710
-1.167379
-1.247387
-1.333630
-1.389220
-1.411819
-1.394155
-1.361944
-1.349994
-1.332849
-1.304015
-1.249983
-1.189457
-1.144776
-1.106330
-1.078535
-1.084509
-1.159063
-1.267645
-1.330249
-1.305311
-1.197507
-1.015929
-0.790710
-0.554062
-0.326245
-0.155058
-0.065957
-0.058164
-0.086738
-0.119209
-0.153758
-0.166226
-0.161550
-0.129599
-0.042576
0.092503
0.241351
0.379547
0.490209
0.557229
0.583206
0.575413
0.550995
0.494366
0.388121
0.254081
0.112248
-0.002569
-0.056341
-0.027247
0.068348
0.184205
0.275903
0.329935
0.348898
0.327857
0.274605
0.169659
0.011721
-0.165701
-0.311690
-0.401570
-0.457419
-0.482877
-0.490410
-0.465212
-0.397672
-0.300519
-0.184402
-0.093743
-0.022826
0.062378
0.167584
0.277726
0.363969
0.393843
0.336694
0.226812
0.107319
-0.045424
-0.239470
-0.408579
-0.500796
-0.525734
-0.515863
-0.482352
-0.435334
-0.439490
-0.514043
-0.631718
-0.819530
-1.089429
-1.393097
-1.674426
-1.915490
-2.090833
-2.170062
-2.133694
-1.994199
-1.812881
-1.604287
-1.371534
-1.132028
-0.906290
-0.744714
-0.683408
-0.725490
-0.822643
-0.934603
-1.026821
-1.077475
-1.087866
-1.061629
-1.047861
-1.052796
-1.059031
-1.050718
-1.021883
-0.986035
-0.919534
-0.824719
-0.711460
-0.581316
-0.442859
-0.317131
-0.210107
-0.090873
0.018489
0.101356
0.187079
0.284492
0.392037
0.516466
0.666092
0.825850
0.991842
1.144845
1.252389
1.329800
1.371363
1.335256
1.218360
1.029509
0.774677
0.512052
0.261376
0.029144
-0.152174
-0.290110
-0.364144
-0.407006
-0.449088
-0.469609
-0.481298
-0.482337
-0.481558
-0.479220
-0.480778
-0.500001
-0.546499
-0.640535
-0.764704
-0.896665
-1.034342
-1.149679
-1.191501
-1.184747
-1.157991
-1.108895
-1.052265
-0.977452
-0.905755
-0.841852
-0.773533
-0.696642
-0.588318
-0.478696
-0.376347
-0.267764
-0.162558
-0.075535
-0.013710
0.010968
-0.015009
-0.068261
-0.125669
-0.161517
-0.187234
-0.222302
-0.245162
-0.220743
-0.148528
-0.098392
-0.101509
-0.175023
-0.296335
-0.425439
-0.567272
-0.676115
-0.761059
-0.832754
-0.841586
-0.777943
-0.669879
-0.545710
-0.421281
-0.311659
-0.202816
-0.108520
-0.048253
-0.011106
-0.017340
-0.049811
-0.072671
-0.056305
0.010456
0.110986
0.226323
0.345037
0.474402
0.582206
0.623509
0.585324
0.489469
0.377510
0.258536
0.148135
0.079037
0.050982
0.036176
0.027344
0.014615
-0.015258
-0.049027
-0.093447
-0.165923
-0.245931
-0.290091
-0.279700
-0.207485
-0.064872
0.143203
0.398035
0.650270
0.855487
0.992125
1.038624
0.989008
0.844058
0.604552
0.304520
0.003450
-0.255539
-0.455560
-0.588301
-0.632202
-0.571156
-0.424647
-0.211896
0.058262
0.342708
0.595203
0.770547
