EVENT_NAME: 202302060117
EVENT_ID: 13194
EVENT_DATE_YYYYMMDD: 2023/02/06
EVENT_TIME_HHMMSS: 01:17:32.00000
EVENT_LATITUDE_DEGREE: 37.288
EVENT_LONGITUDE_DEGREE: 37.043
EVENT_DEPTH_KM: 8.6
HYPOCENTER_REFERENCE: AFAD
MAGNITUDE_W: 7.7
MAGNITUDE_W_REFERENCE: AFAD
MAGNITUDE_L: 
MAGNITUDE_L_REFERENCE: 
FOCAL_MECHANISM: 
NETWORK: TK
STATION_CODE: 99008
STATION_NAME: 
STATION_LATITUDE_DEGREE: 35.16455
STATION_LONGITUDE_DEGREE: 33.90496
STATION_ELEVATION_M: 4.0
LOCATION: Kahramanmaras_Pazarck_Turkiye
SENSOR_DEPTH_M: 
VS30_M/S: 263
SITE_CLASSIFICATION_EC8: unknown
MORPHOLOGIC_CLASSIFICATION: 
EPICENTRAL_DISTANCE_KM: 367.36
EARTHQUAKE_BACKAZIMUTH_DEGREE: 
DATE_TIME_FIRST_SAMPLE_YYYYMMDD_HHMMSS: 2023/02/06 01:17:58.9230960
DATE_TIME_FIRST_SAMPLE_PRECISION: millisecond
SAMPLING_INTERVAL_S: 0.01
NDATA: 21001
DURATION_S: 
STREAM: HNE
UNITS: cm/s^2
INSTRUMENT: sensor = CMG-5T/GURALP | digitizer = 
INSTRUMENT_ANALOG/DIGITAL: 
INSTRUMENTAL_FREQUENCY_HZ: 
INSTRUMENTAL_DAMPING: 
FULL_SCALE_G: 
N_BIT_DIGITAL_CONVERTER: 
PGA_CM/S^2: 19.089
TIME_PGA_S: 
BASELINE_CORRECTION: BASELINE REMOVED
FILTER_TYPE: BUTTERWORTH
FILTER_ORDER: 
LOW_CUT_FREQUENCY_HZ: 
HIGH_CUT_FREQUENCY_HZ: 
LATE/NORMAL_TRIGGERED: 
DATABASE_VERSION: 
HEADER_FORMAT: DYNA 1.2
DATA_TYPE: Acceleration
PROCESSING: Automatic Paolucci et al., 2011
DATA_TIMESTAMP_YYYYMMDD_HHMMSS: 
DATA_LICENSE: U (unknown license)
DATA_CITATION: Turkish Accelerometric Archive v 1.0 - Disaster And Emergency Management Presidency, Earthquake Department
DATA_CREATOR: AFAD
ORIGINAL_DATA_MEDIATOR_CITATION: : AFAD - Disaster And Emergency Management Presidency
ORIGINAL_DATA_MEDIATOR: AFAD PROCESS SERVICE
ORIGINAL_DATA_CREATOR_CITATION: AFAD PROCESS SERVICE
ORIGINAL_DATA_CREATOR: network: TK
USER1: GuestUser
USER2: 
USER3: 
USER4: 
USER5: 
[...]
1.784145
1.377642
0.998821
0.592319
0.120223
-0.436422
-1.037297
-1.643288
-2.236340
-2.742436
-3.162178
-3.557547
-3.964050
-4.441562
-4.985569
-5.551843
-6.134966
-6.641664
-6.963316
-7.088791
-7.006653
-6.721718
-6.282127
-5.686376
-5.038872
-4.398891
-3.734838
-3.040697
-2.332415
-1.621725
-0.959779
-0.396824
0.057209
0.429101
0.690567
0.855147
0.998966
1.195140
1.438252
1.671133
1.851059
1.996082
2.132379
2.303579
2.503664
2.728121
2.950171
3.141831
3.322358
3.514019
3.729750
3.908472
3.975565
3.948782
3.830829
3.608770
3.340375
2.969377
2.562874
2.182248
1.819675
1.434535
0.990723
0.472291
-0.051257
-0.503795
-0.899165
-1.243685
-1.524417
-1.785591
-2.051278
-2.283868
-2.459591
-2.601614
-2.668415
-2.679553
-2.660301
-2.623898
-2.601336
-2.544172
-2.484902
-2.453614
-2.453318
-2.450013
-2.436177
-2.379013
-2.236397
-1.972223
-1.631323
-1.314795
-0.980815
-0.647137
-0.360095
-0.158506
-0.057713
-0.047187
-0.160325
-0.445570
-0.870427
-1.381036
-1.935274
-2.472963
-2.914970
-3.269720
-3.513744
-3.617554
-3.601612
-3.445456
-3.225212
-3.033251
-2.908688
-2.864162
-2.873795
-2.902985
-2.970689
-3.049526
-3.109106
-3.185235
-3.266178
-3.361263
-3.513817
-3.650725
-3.767775
-3.867975
-3.975095
-4.105083
-4.235371
-4.275394
-4.211610
-4.053650
-3.885458
-3.711550
-3.430527
-3.050512
-2.590460
-2.075648
-1.544286
-1.033085
-0.553476
-0.069053
0.398220
0.864289
1.294552
1.692621
2.019981
2.211039
2.278734
2.279632
2.296176
2.356349
2.472487
2.569970
2.644585
2.680988
2.694222
2.721598
2.726709
2.705943
2.708044
2.724288
2.753469
2.782350
2.724876
2.558782
2.271731
1.824910
1.258636
0.601194
-0.095062
-0.844275
-1.602213
-2.305691
-2.923115
-3.424697
-3.867908
-4.304800
-4.751020
-5.141876
-5.526113
-5.958492
-6.440216
-6.870188
-7.152424
-7.267969
-7.241195
-7.040809
-6.685767
-6.257008
-5.821630
-5.395278
-4.963510
-4.468857
-3.947726
-3.417568
-2.820613
-2.163180
-1.466632
-0.783323
-0.145147
0.484303
1.072231
1.596372
2.059131
2.393411
2.642842
2.760785
2.761081
2.709324
2.675319
2.594978
2.492973
2.389162
2.261582
2.035611
1.657994
1.229827
0.825431
0.406592
0.024160
-0.363085
-0.689552
-0.919434
-1.148714
-1.408083
-1.677682
-1.948485
-2.198226
-2.411860
-2.556892
-2.646861
-2.698017
-2.689296
-2.687495
-2.677269
-2.605663
-2.462445
-2.299971
-2.118240
-1.879642
-1.621485
-1.312780
-0.945101
-0.511829
0.008400
0.604752
1.225778
1.773387
2.265332
2.718463
3.156851
3.593433
4.048068
4.543022
5.064153
5.623497
6.252947
6.947088
7.702008
8.414504
8.976555
9.311137
9.485346
9.553041
9.444717
9.161879
8.699712
8.125315
7.558741
6.938909
6.223396
5.460945
4.677130
3.849085
2.922951
1.898428
0.781531
-0.352816
-1.429092
-2.459634
-3.458883
-4.357637
-5.154389
-5.842522
-6.410901
-6.884502
-7.259110
-7.524196
-7.692095
-7.833517
-7.937026
-7.957792
-7.900628
-7.737853
-7.469768
-7.103292
-6.646250
-6.146181
-5.546217
-4.864112
-4.148908
-3.393086
-2.661334
-1.949440
-1.339247
-0.806682
-0.383640
-0.042740
0.329453
0.737751
1.202316
1.729465
2.222012
2.688382
3.128574
3.508890
3.775171
3.968937
4.137429
4.314045
4.420253
4.391364
4.238208
3.989069
3.736620
3.485074
3.213068
2.830336
2.320027
1.716444
1.052382
0.384710
-0.295599
-0.980723
-1.645988
-2.303129
-2.921155
-3.519623
-4.073259
-4.596506
-5.152549
-5.767265
-6.357610
-6.883865
-7.318350
-7.648427
-7.825955
-7.856049
-7.756460
-7.548251
-7.230519
-6.837264
-6.354948
-5.860896
-5.366544
-4.843006
-4.277945
-3.710778
-3.149027
-2.487984
-1.686426
-0.752779
0.239541
1.199365
2.043949
2.777205
3.398833
3.901309
4.246722
4.474188
4.606874
4.625525
4.576175
4.488913
4.416997
4.361930
4.289111
4.175070
4.017702
3.825731
3.542291
3.105700
2.521975
1.804356
0.938700
-0.043399
-1.067020
-2.047313
-2.949978
-3.840005
-4.795325
-5.772309
-6.727027
-7.617657
-8.396356
-9.087798
-9.704019
-10.261566
-10.769167
-11.267139
-11.735323
-12.149348
-12.536895
-12.900972
-13.200660
-13.426931
-13.579786
-13.644482
-13.619513
-13.477499
-13.193165
-12.729804
-12.081699
-11.262991
-10.247503
-9.038244
-7.717957
-6.262573
-4.723542
-3.188723
-1.702649
-0.380858
0.799516
1.844491
2.717359
3.463854
4.043658
4.477833
4.800078
5.065456
5.333541
5.661202
5.989164
6.288241
6.570468
6.856005
7.170126
7.459274
7.728563
8.033958
8.377566
8.738024
9.093066
9.368974
9.553714
9.699339
9.802237
9.887985
9.900016
9.755887
9.429420
8.925430
8.307405
7.538334
6.619722
5.576242
4.468373
3.355388
2.290545
1.298818
0.342897
-0.585344
-1.449495
-2.217362
-2.835990
-3.280404
-3.567455
-3.705566
-3.709182
-3.588230
-3.371596
-3.061687
-2.679566
-2.249302
-1.846720
-1.510033
-1.266921
-1.093615
-0.971459
-0.902260
-0.887822
-0.997951
-1.225426
-1.543468
-1.917475
-2.326685
-2.748533
-3.147814
-3.493839
-3.789916
-4.012576
-4.193113
-4.342357
-4.431424
-4.429022
-4.393823
-4.370659
-4.354115
-4.361040
-4.324938
-4.234677
-4.084840
-3.879339
-3.623890
-3.292619
-2.874090
-2.365897
-1.827615
-1.364254
-0.990858
-0.689074
-0.415572
-0.141770
0.139254
0.469021
0.851443
1.279300
1.667439
2.022782
2.337505
2.609201
2.890826
3.231726
3.688167
4.177103
4.607065
4.950373
5.223874
5.439304
5.620434
5.748005
5.743487
5.636969
5.457034
5.210603
4.923252
4.606112
4.387363
4.264296
4.239318
4.317243
4.389150
4.447217
4.504982
4.489332
4.437574
4.356030
4.187829
3.859858
3.352258
2.683683
1.861957
0.895805
-0.196419
-1.321439
-2.396511
-3.305796
-4.076371
-4.761796
-5.308511
-5.728554
-6.039374
-6.209982
-6.276482
-6.217814
-6.070685
-5.923556
-5.811631
-5.695794
-5.583267
-5.490297
-5.390408
-5.307668
-5.194840
-5.140986
-5.137380
-5.177102
-5.249921
-5.330262
-5.439790
-5.559848
-5.672986
-5.745504
-5.778306
-5.733779
-5.577924
-5.326087
-4.968337
-4.571171
-4.190855
-3.829495
-3.505745
-3.155818
-2.724953
-2.249256
-1.704054
-1.111312
-0.493295
0.142775
0.779748
1.404384
2.030825
2.662382
3.314700
3.927902
4.444520
4.848306
5.098639
5.228316
5.261710
5.182873
5.000531
4.808260
4.615989
4.456815
4.318403
4.209176
4.163738
4.151096
4.129428
4.053900
3.905258
3.760527
3.603158
3.425631
3.227643
3.050717
2.928251
2.857538
2.784719
2.656537
2.492549
2.259056
1.983740
1.640123
1.177355
0.661028
0.115817
-0.461589
-1.041703
-1.605870
-2.116480
-2.525690
-2.781449
-2.900303
-2.865706
-2.676152
-2.364438
-1.969679
-1.582142
-1.239737
-0.971050
-0.806770
-0.716509
-0.715912
-0.758943
-0.779709
-0.761660
-0.772798
-0.841705
-0.932879
-1.019539
-1.103190
-1.181124
-1.296669
-1.442002
-1.613512
-1.775695
-1.920125
-2.054626
-2.146702
-2.224335
-2.280906
-2.261052
-2.175906
-2.009821
-1.797099
-1.609651
-1.438752
-1.278685
-1.131255
-0.958550
-0.764483
-0.585159
-0.464508
-0.361610
-0.208162
-0.032750
0.138149
0.301225
0.507027
0.796175
1.158438
1.512276
1.762609
1.943738
2.100496
2.258758
2.475091
2.727831
3.000731
3.208338
3.293484
3.240223
3.062996
2.792494
2.463319
2.071259
1.658438
1.183333
0.599910
-0.104471
-0.835028
-1.583940
-2.285612
-2.956594
-3.556567
-4.057849
-4.501962
-4.933138
-5.397410
-5.843931
-6.228769
-6.572086
-6.893137
-7.224417
-7.520495
-7.787085
-8.040135
-8.289575
-8.518554
-8.668099
-8.724370
-8.702109
-8.604325
-8.396417
-8.097039
-7.706794
-7.186866
-6.542973
-5.880124
-5.232621
-4.599861
-3.921065
-3.239260
-2.571597
-1.956890
-1.375281
-0.769901
-0.160309
0.441459
1.031193
1.567970
2.033738
2.448957
2.859061
3.274280
3.712668
4.187161
4.690239
5.207760
5.732201
6.185934
6.592427
6.951681
7.228793
7.400896
7.439706
7.362674
7.250439
7.128575
7.000994
6.837909
6.604416
6.276746
5.892810
5.526626
5.183611
4.827657
4.399190
3.844651
3.216395
2.589945
1.996291
1.523292
1.209162
1.033439
0.980479
1.004244
1.066222
1.176342
1.338515
1.557857
1.789836
2.023922
2.276963
2.438534
2.510442
2.530296
2.455972
2.434604
2.497184
2.631676
2.835071
3.077882
3.295719
3.432016
3.431410
3.278856
2.979469
2.600648
2.190836
1.795767
1.400698
0.985470
0.542560
0.049101
-0.448269
-0.961887
-1.492957
-2.029744
-2.580973
-3.132803
-3.695767
-4.318607
-4.986580
-5.682235
-6.365553
-6.987190
-7.584454
-8.165170
-8.750701
-9.338337
-9.895584
-10.451025
-10.965847
-11.438845
-11.873932
-12.185355
-12.376723
-12.433896
-12.352661
-12.105337
-11.646790
-11.033889
-10.259411
-9.361870
-8.385498
-7.332700
-6.166768
-4.894323
-3.533417
-2.184245
-0.857640
0.396451
1.583143
2.696119
3.707094
4.644050
5.506086
6.293502
7.022847
7.689306
8.321164
8.933163
9.502737
10.097284
10.624734
11.064325
11.445243
11.696479
11.853838
11.932365
11.903174
11.849612
11.743093
11.587229
11.383524
11.122350
10.822963
10.470921
10.032224
9.568252
9.096457
8.601795
8.081858
7.496929
6.851523
6.176930
5.516178
4.915604
4.399278
3.965695
3.617264
3.343453
3.112969
2.902644
2.703152
2.507872
2.343583
2.230144
2.142281
2.085709
2.010483
1.860938
1.673180
1.449616
1.248018
1.048525
0.848732
0.632992
0.348348
-0.018136
-0.404480
-0.809478
-1.252087
-1.716660
-2.213730
-2.696958
-3.184700
-3.720584
-4.228786
-4.680422
-5.023437
-5.164859
-5.145607
-4.964778
-4.664799
-4.264925
-3.769670
-3.194078
-2.574256
-1.945709
-1.305426
-0.615498
0.108431
0.856130
1.645050
2.388537
3.005350
3.479844
3.794868
3.957643
4.048506
4.114696
4.152303
4.196829
4.335534
4.563902
4.826872
5.095861
5.365751
5.645872
5.935020
6.202804
6.464571
6.728143
6.967645
7.151482
7.229407
7.179756
6.994706
6.692009
6.281896
5.785128
5.198695
4.493713
3.718925
2.913447
2.126021
1.378313
0.675437
-0.025633
-0.733925
-1.415739
-2.082208
-2.727313
-3.351959
-3.944710
-4.524824
-5.091700
-5.619760
-6.107502
-6.514005
-6.838365
-7.087805
-7.300236
-7.478064
-7.599627
-7.638145
-7.611973
-7.531039
-7.425733
-7.330657
-7.243104
-7.132081
-6.966899
-6.701221
-6.380480
-6.080501
-5.779919
-5.453462
-5.083677
-4.674776
-4.233982
-3.764302
-3.251897
-2.708500
-2.112749
-1.470661
-0.804503
-0.151282
0.458310
0.993884
1.456643
1.837862
2.170036
2.515449
2.861464
3.184010
3.492415
3.726199
3.924479
4.072811
4.127869
4.127564
4.094461
4.013819
3.847725
3.579931
3.234509
2.838537
2.402247
1.920824
1.406303
0.840029
0.275261
-0.256712
-0.757091
-1.218957
-1.724752
-2.280193
-2.840449
-3.396793
-3.911314
-4.451109
-4.980674
-5.438328
-5.847839
-6.162571
-6.391250
-6.536884
-6.614216
-6.602787
-6.499286
-6.298901
-6.030213
-5.689313
-5.290041
-4.807423
-4.263124
-3.686329
-3.130596
-2.613978
-2.124440
-1.598494
-1.001840
-0.351629
0.324158
0.999343
1.609537
2.135181
2.563640
2.929212
3.226785
3.421153
3.484034
3.414223
3.261970
3.005008
2.641232
2.189897
1.734350
1.287529
0.803698
0.291584
-0.257539
-0.820803
-1.386475
-1.945226
-2.556933
-3.110569
-3.645550
-4.206408
-4.651424
-5.104263
-5.495420
-5.842648
-6.118265
-6.357174
-6.584348
-6.729380
-6.786553
-6.753159
-6.644243
-6.524494
-6.436941
-6.348786
-6.258524
-6.151112
-6.059045
-6.024147
-6.024754
-6.061767
-6.068090
-5.998289
-5.877337
-5.735624
-5.510265
-5.249100
-4.914819
-4.526981
-4.178859
-3.849995
-3.569874
-3.309912
-3.055668
-2.809547
-2.577869
-2.393731
-2.286921
-2.243597
-2.292647
-2.474988
-2.782800
-3.142364
-3.497114
-3.817864
-4.180136
-4.553541
-4.948309
-5.392122
-5.872643
-6.410031
-6.882428
-7.279603
-7.596441
-7.826925
-7.968948
-8.035448
-8.053506
-7.945492
-7.718929
-7.416242
-6.991094
-6.431148
-5.777025
-5.064530
-4.311415
-3.507751
-2.651432
-1.754192
-0.839802
0.115207
1.054571
1.928643
2.716359
3.429456
4.151279
4.925757
5.769739
6.664271
7.573245
8.430467
9.206148
9.868997
10.398553
10.817984
11.080052
11.213942
11.279832
11.278022
11.227769
11.110419
10.896785
10.598902
10.222187
9.764233
9.245199
8.688855
8.090989
7.447688
6.771892
6.093990
5.414583
4.742698
4.129787
3.585479
3.110976
2.719818
2.324148
1.938407
1.594488
1.288181
1.056193
0.858506
0.714376
0.597026
0.508561
0.453494
0.397223
0.329820
0.266629
0.253085
0.234425
0.174544
0.097513
-0.005997
-0.130268
-0.258450
-0.335782
-0.345415
-0.309615
-0.172415
0.062874
0.373986
0.743471
1.129203
1.519749
1.908791
2.253603
2.538839
2.768110
2.933593
3.019943
3.063567
3.048217
2.968477
2.854136
2.696166
2.515930
2.367287
2.236096
2.178923
2.150033
2.098878
1.986342
1.791664
1.574118
1.323174
1.044849
0.813763
0.655492
0.598620
0.645253
0.692488
0.636819
0.503822
0.359392
0.204431
0.104532
0.043748
-0.018841
-0.085341
-0.165984
-0.229174
-0.228577
-0.237909
-0.280038
-0.363388
-0.493677
-0.642921
-0.855051
-1.171889
-1.546197
-1.943673
-2.322795
-2.690182
-3.053658
-3.387346
-3.657847
-3.882012
-4.067363
-4.222625
-4.361038
-4.500052
-4.619810
-4.699549
-4.760333
-4.827736
-4.969157
-5.135853
-5.275770
-5.391917
-5.484896
-5.548989
-5.584197
-5.582397
-5.532454
-5.432865
-5.271895
-5.049244
-4.773636
-4.481480
-4.108385
-3.633289
-3.035131
-2.336778
-1.598406
-0.855221
-0.064194
0.835753
1.864781
2.985881
4.184308
5.421850
6.635924
7.862935
9.144106
10.417153
11.686891
12.906982
14.025072
15.089304
16.054544
16.917181
17.672102
18.262136
18.695107
18.977033
19.088959
19.073910
18.984241
18.815740
18.603008
18.339427
17.960004
17.518298
17.020627
16.502194
15.976541
15.432232
14.876189
14.269897
13.568225
12.780198
11.939817
11.074462
10.216630
9.384071
8.579797
7.816442
7.113867
6.451310
5.816134
5.223082
4.661321
4.134765
3.666280
3.263087
2.921877
2.642349
2.364626
2.066743
1.738471
1.428252
1.148423
0.883638
0.592375
0.289378
-0.016629
-0.329254
-0.660836
-1.013480
-1.377858
-1.744945
-2.123465
-2.513720
-2.855832
-3.142883
-3.396234
-3.661019
-3.936335
-4.217669
-4.461692
-4.673521
-4.875421
-5.097781
-5.369185
-5.740484
-6.197234
-6.734021
-7.278029
-7.851824
-8.464133
-9.065309
-9.594273
-9.998970
-10.285419
-10.459336
-10.480403
-10.346814
-10.037807
-9.569031
-8.982306
-8.217156
-7.298854
-6.258392
-5.107806
-3.957521
-2.859289
-1.764066
-0.721799
0.317760
1.371461
2.403798
3.451481
4.507890
5.539927
6.548795
7.505911
8.433541
9.304001
10.074267
10.731700
11.282619
11.677678
11.970135
12.154274
12.258978
12.360372
12.455748
12.538187
12.582412
12.559240
12.470172
12.292043
12.057949
11.725464
11.271121
10.705148
10.054025
9.329485
8.558608
7.769077
6.948254
6.114492
5.297580
4.506544
3.754323
3.059872
2.430412
1.868953
1.349919
0.826973
0.266116
-0.253520
-0.680483
-1.036437
-1.369222
-1.675830
-1.960173
-2.188550
-2.378414
-2.534278
-2.659151
-2.749121
-2.848719
-2.962759
-3.078605
-3.174894
-3.278102
-3.442391
-3.691530
-4.021006
-4.393508
-4.799409
-5.206212
-5.590750
-5.916916
-6.084815
-6.119121
-6.043603
-5.911819
-5.782442
-5.642835
-5.536025
-5.409657
-5.253502
-5.067558
-4.890341
-4.728468
-4.580136
-4.405024
-4.172443
-3.877278
-3.552626
-3.177124
-2.759197
-2.266048
-1.703395
-1.119077
-0.495344
0.138921
0.802673
1.471539
2.103998
2.735856
3.352067
3.989943
4.632331
5.261781
5.896046
6.489992
7.058964
7.642379
8.196608
8.659968
9.002072
9.212387
9.297534
9.296025
9.210869
9.059819
8.859123
8.663843
8.484510
8.244699
7.960958
7.630580
7.221670
6.737539
6.183602
5.573098
4.939727
4.307860
3.690135
3.051649
2.431216
1.807774
1.148527
0.479350
-0.190729
-0.841552
-1.458976
-2.041798
-2.613788
-3.212557
-3.818849
-4.426945
-5.036546
-5.604926
-6.107712
-6.560250
-6.902965
-7.173166
-7.418995
-7.615478
-7.756599
-7.846569
-7.868538
-7.774666
-7.575183
-7.290849
-6.943630
-6.578960
-6.188414
-5.777407
-5.349852
-4.924403
-4.498953
-4.062973
-3.654374
-3.253898
-2.862449
-2.473708
-2.083463
-1.761217
-1.497043
-1.274091
-1.077316
-0.910629
-0.779447
-0.682265
-0.615473
-0.570345
-0.564632
-0.589610
-0.690111
-0.833940
-1.012972
-1.214571
-1.392700
-1.568122
-1.727596
-1.901814
-2.033607
-2.094391
-2.100714
-2.086878
-2.078157
-2.073046
-2.048077
-2.046577
-2.092016
-2.165738
-2.242168
-2.275270
-2.251203
-2.220517
-2.185920
-2.163358
-2.159451
-2.152235
-2.102894
-2.024969
-1.949752
-1.880251
-1.842645
-1.761410
-1.663627
-1.563135
-1.471670
-1.405480
-1.363962
-1.376604
-1.447016
-1.555640
-1.658548
-1.708500
-1.732576
-1.754244
-1.752744
-1.730182
-1.701302
-1.670616
-1.659488
-1.702820
-1.802719
-1.932105
-2.120164
-2.340417
-2.563379
-2.760163
-2.918735
-3.046316
-3.149224
-3.211813
-3.250933
-3.240406
-3.246429
-3.305106
-3.408315
-3.524161
-3.636095
-3.722153
-3.771503
-3.772712
-3.667406
-3.479657
-3.207058
-2.938672
-2.692852
-2.441014
-2.217159
-2.014366
-1.866034
-1.752905
-1.675883
-1.656029
-1.647307
-1.684622
-1.707795
-1.726154
-1.758654
-1.846517
-1.974098
-2.160953
-2.409189
-2.689319
-3.006459
-3.364218
-3.743039
-4.091771
-4.364078
-4.519039
-4.553345
-4.519349
-4.464292
-4.406827
-4.392088
-4.414960
-4.466416
-4.510651
-4.536231
-4.546466
-4.525107
-4.489306
-4.465240
-4.445085
-4.458028
-4.484511
-4.488427
-4.480006
-4.464064
-4.418033
-4.311524
-4.174926
-4.034717
-3.891800
-3.735946
-3.572870
-3.406785
-3.226558
-3.004208
-2.719273
-2.364231
-1.979100
-1.553952
-1.094202
-0.562239
0.059389
0.752627
1.478662
2.187848
2.924113
3.620360
4.234766
4.753791
5.189470
5.586636
5.932952
6.219091
6.436327
6.575933
6.645735
6.655659
6.643920
6.654447
6.675805
6.718225
6.796451
6.952607
7.166533
7.399414
7.607624
7.774009
7.913616
7.996054
7.998457
7.868469
7.637384
7.351236
7.034999
6.699205
6.339942
5.946377
5.489326
4.957955
4.391983
3.780276
3.121329
2.470507
1.863012
1.313287
0.844200
0.413025
0.003513
-0.404493
-0.780606
-1.101055
-1.354106
-1.565634
-1.771746
-1.979964
-2.187580
-2.370825
-2.515857
-2.593791
-2.590185
-2.496915
-2.333839
-2.134055
-1.948111
-1.802787
-1.706207
-1.661982
-1.631898
-1.635212
-1.633411
-1.608743
-1.582571
-1.540451
-1.479977
-1.436053
-1.408376
-1.370167
-1.300366
-1.146919
-0.943223
-0.743138
-0.535531
-0.348384
-0.201857
-0.097153
-0.042396
0.042450
0.136623
0.234406
0.331889
0.407106
0.501279
0.652019
0.796440
0.951091
1.087689
1.140339
1.147857
1.069321
0.910749
0.725097
0.488295
0.210271
-0.064744
-0.307865
-0.455304
-0.532336
-0.533845
-0.437566
-0.266065
-0.048528
0.201203
0.499377
0.861038
1.282275
1.707725
2.119634
2.518003
2.899523
3.314140
3.727253
4.125322
4.510452
4.848644
5.107402
5.285523
5.416705
5.483196
5.543970
5.562019
5.523802
5.474452
5.435934
5.415469
5.420579
5.475637
5.580341
5.705505
5.803891
5.867674
5.921528
5.977789
5.993431
5.916098
5.716907
5.420830
5.040805
4.589471
4.068631
3.485809
2.868987
2.230199
1.586899
0.956537
0.354458
-0.211515
-0.780496
-1.325707
-1.845644
-2.346625
-2.790438
-3.184604
-3.510469
-3.787891
-4.031012
-4.258186
-4.459484
-4.634003
-4.811530
-4.986952
-5.169896
-5.335689
-5.470491
-5.557451
-5.578518
-5.549036
