EVENT_NAME: 202302060117
EVENT_ID: 13194
EVENT_DATE_YYYYMMDD: 2023/02/06
EVENT_TIME_HHMMSS: 01:17:32.00000
EVENT_LATITUDE_DEGREE: 37.288
EVENT_LONGITUDE_DEGREE: 37.043
EVENT_DEPTH_KM: 8.6
HYPOCENTER_REFERENCE: AFAD
MAGNITUDE_W: 7.7
MAGNITUDE_W_REFERENCE: AFAD
MAGNITUDE_L: 
MAGNITUDE_L_REFERENCE: 
FOCAL_MECHANISM: 
NETWORK: TK
STATION_CODE: 4621
STATION_NAME: 
STATION_LATITUDE_DEGREE: 37.59347
STATION_LONGITUDE_DEGREE: 36.92909
STATION_ELEVATION_M: 655.0
LOCATION: Kahramanmaras_Pazarck_Turkiye
SENSOR_DEPTH_M: 
VS30_M/S: 714
SITE_CLASSIFICATION_EC8: B
MORPHOLOGIC_CLASSIFICATION: 
EPICENTRAL_DISTANCE_KM: 35.42
EARTHQUAKE_BACKAZIMUTH_DEGREE: 
DATE_TIME_FIRST_SAMPLE_YYYYMMDD_HHMMSS: 2023/02/06 01:17:08.2811230
DATE_TIME_FIRST_SAMPLE_PRECISION: millisecond
SAMPLING_INTERVAL_S: 0.01
NDATA: 4639
DURATION_S: 
STREAM: HNN
UNITS: cm/s^2
INSTRUMENT: sensor = GMS+/GEOSIG | digitizer = 
INSTRUMENT_ANALOG/DIGITAL: 
INSTRUMENTAL_FREQUENCY_HZ: 
INSTRUMENTAL_DAMPING: 
FULL_SCALE_G: 
N_BIT_DIGITAL_CONVERTER: 
PGA_CM/S^2: 146.785
TIME_PGA_S: 
BASELINE_CORRECTION: BASELINE REMOVED
FILTER_TYPE: BUTTERWORTH
FILTER_ORDER: 
LOW_CUT_FREQUENCY_HZ: 
HIGH_CUT_FREQUENCY_HZ: 
LATE/NORMAL_TRIGGERED: 
DATABASE_VERSION: 
HEADER_FORMAT: DYNA 1.2
DATA_TYPE: Acceleration
PROCESSING: Automatic Paolucci et al., 2011
DATA_TIMESTAMP_YYYYMMDD_HHMMSS: 
DATA_LICENSE: U (unknown license)
DATA_CITATION: Turkish Accelerometric Archive v 1.0 - Disaster And Emergency Management Presidency, Earthquake Department
DATA_CREATOR: AFAD
ORIGINAL_DATA_MEDIATOR_CITATION: : AFAD - Disaster And Emergency Management Presidency
ORIGINAL_DATA_MEDIATOR: AFAD PROCESS SERVICE
ORIGINAL_DATA_CREATOR_CITATION: AFAD PROCESS SERVICE
ORIGINAL_DATA_CREATOR: network: TK
USER1: GuestUser
USER2: 
USER3: 
USER4: 
USER5: 
[...]
-0.029290
-0.028281
-0.031429
-0.036656
-0.030452
-0.031002
-0.030513
-0.030284
-0.035511
-0.028787
-0.028818
-0.035343
-0.030698
-0.031508
-0.033877
-0.032349
-0.031861
-0.033710
-0.034000
-0.032992
-0.035361
-0.029417
-0.028668
-0.038311
-0.033925
-0.028501
-0.035026
-0.034537
-0.029632
-0.033040
-0.035409
-0.032582
-0.030795
-0.030566
-0.032934
-0.034004
-0.030658
-0.035105
-0.035136
-0.028672
-0.033379
-0.034449
-0.036038
-0.033991
-0.028047
-0.033793
-0.032525
-0.032036
-0.037002
-0.034435
-0.032388
-0.030341
-0.030631
-0.035338
-0.034589
-0.032282
-0.034131
-0.034162
-0.034713
-0.032925
-0.031137
-0.035844
-0.036135
-0.033048
-0.028923
-0.032590
-0.036258
-0.031093
-0.034501
-0.033752
-0.033524
-0.034334
-0.034364
-0.034915
-0.032348
-0.036015
-0.031111
-0.034518
-0.035069
-0.031463
-0.041625
-0.034642
-0.029477
-0.033404
-0.036033
-0.033726
-0.031159
-0.039762
-0.031220
-0.030212
-0.043751
-0.031313
-0.029525
-0.035790
-0.032184
-0.040268
-0.029389
-0.028640
-0.042958
-0.030260
-0.035486
-0.034478
-0.024378
-0.045450
-0.033012
-0.026029
-0.044763
-0.028169
-0.037811
-0.042777
-0.019689
-0.036345
-0.039753
-0.030432
-0.037216
-0.039585
-0.035979
-0.028736
-0.033703
-0.036591
-0.033764
-0.035614
-0.039021
-0.033857
-0.028692
-0.038075
-0.037066
-0.036058
-0.036868
-0.031444
-0.036410
-0.037220
-0.035173
-0.037542
-0.035494
-0.031629
-0.030361
-0.035587
-0.039774
-0.039805
-0.038796
-0.032593
-0.031065
-0.037850
-0.034504
-0.033755
-0.038202
-0.034856
-0.036445
-0.032320
-0.032350
-0.042772
-0.037088
-0.034781
-0.032993
-0.031465
-0.039289
-0.035683
-0.035714
-0.037044
-0.031100
-0.036066
-0.041292
-0.035868
-0.034340
-0.037488
-0.035441
-0.035991
-0.034204
-0.039170
-0.036603
-0.027542
-0.039003
-0.036696
-0.034388
-0.040134
-0.033930
-0.035000
-0.033213
-0.038439
-0.043146
-0.027071
-0.031518
-0.043757
-0.038333
-0.036286
-0.035537
-0.036347
-0.040794
-0.034591
-0.032283
-0.040887
-0.038839
-0.035233
-0.037862
-0.034775
-0.036884
-0.041591
-0.036946
-0.033080
-0.034150
-0.039116
-0.042524
-0.036840
-0.037131
-0.042357
-0.040309
-0.033586
-0.034137
-0.041181
-0.036796
-0.033709
-0.039715
-0.040006
-0.038218
-0.040327
-0.041397
-0.036752
-0.032886
-0.036813
-0.039182
-0.036096
-0.038724
-0.040313
-0.035149
-0.041414
-0.041445
-0.032124
-0.038909
-0.042836
-0.040010
-0.038482
-0.034356
-0.036985
-0.039873
-0.037826
-0.037597
-0.041784
-0.038438
-0.034572
-0.042136
-0.042946
-0.038820
-0.034955
-0.038103
-0.042290
-0.039723
-0.041053
-0.034849
-0.033061
-0.044522
-0.044813
-0.040167
-0.035522
-0.033215
-0.043117
-0.046265
-0.040841
-0.037755
-0.036227
-0.036777
-0.043302
-0.047489
-0.039207
-0.032224
-0.035892
-0.046573
-0.044786
-0.037283
-0.041730
-0.036566
-0.033479
-0.044160
-0.046529
-0.041624
-0.037239
-0.034932
-0.042756
-0.047462
-0.039960
-0.038432
-0.037943
-0.035896
-0.040603
-0.044010
-0.044041
-0.039396
-0.041245
-0.042055
-0.035852
-0.045494
-0.044226
-0.040101
-0.044547
-0.037824
-0.036037
-0.037366
-0.044151
-0.046779
-0.040576
-0.036450
-0.034403
-0.043006
-0.046414
-0.043328
-0.042319
-0.035856
-0.036146
-0.042412
-0.046858
-0.044292
-0.038088
-0.037599
-0.038150
-0.039999
-0.044446
-0.045515
-0.042429
-0.038044
-0.039633
-0.040963
-0.040994
-0.045700
-0.043133
-0.039787
-0.042156
-0.041927
-0.044036
-0.041469
-0.038383
-0.044648
-0.044938
-0.039774
-0.040064
-0.043472
-0.043763
-0.041456
-0.044863
-0.043336
-0.037392
-0.043137
-0.046545
-0.040082
-0.039853
-0.045079
-0.045369
-0.039166
-0.039716
-0.045202
-0.041596
-0.040328
-0.045554
-0.043247
-0.039122
-0.043828
-0.046457
-0.042331
-0.043921
-0.045770
-0.041644
-0.042974
-0.043265
-0.041996
-0.047223
-0.039980
-0.039491
-0.044198
-0.039293
-0.044000
-0.045329
-0.040944
-0.039156
-0.044902
-0.047790
-0.041327
-0.042397
-0.043726
-0.042458
-0.040931
-0.043299
-0.044109
-0.039464
-0.043392
-0.042903
-0.040336
-0.045043
-0.045333
-0.044585
-0.040979
-0.041269
-0.047275
-0.046526
-0.041881
-0.040613
-0.045060
-0.042753
-0.038627
-0.045672
-0.048560
-0.043915
-0.040309
-0.043457
-0.046865
-0.043259
-0.045108
-0.046178
-0.039975
-0.041044
-0.047310
-0.041885
-0.041916
-0.051039
-0.042237
-0.039411
-0.047494
-0.043369
-0.043919
-0.045509
-0.045020
-0.044531
-0.043003
-0.048230
-0.046961
-0.045953
-0.047543
-0.047054
-0.049942
-0.047895
-0.046886
-0.048736
-0.051364
-0.049836
-0.051945
-0.060289
-0.057982
-0.059051
-0.060121
-0.057814
-0.062781
-0.062552
-0.065180
-0.067289
-0.066281
-0.066311
-0.065303
-0.071828
-0.075236
-0.075786
-0.076077
-0.078446
-0.087828
-0.087599
-0.083993
-0.082725
-0.084055
-0.086683
-0.091909
-0.104149
-0.102102
-0.110185
-0.123205
-0.120378
-0.131059
-0.137584
-0.143070
-0.150634
-0.150405
-0.161346
-0.168391
-0.172578
-0.179622
-0.177056
-0.173190
-0.166467
-0.156107
-0.142370
-0.130711
-0.134638
-0.142982
-0.138077
-0.121742
-0.118396
-0.108036
-0.080012
-0.074068
-0.090465
-0.123746
-0.148974
-0.146667
-0.135528
-0.106205
-0.054022
-0.000021
0.033718
0.048494
0.026383
-0.044305
-0.090315
-0.085150
-0.076349
-0.049623
0.011391
0.023310
-0.025038
-0.032602
-0.024580
-0.067213
-0.111144
-0.081302
-0.006519
0.022024
0.051607
0.123013
0.174156
0.182438
0.133051
0.067819
0.059475
0.043339
-0.081640
-0.207139
-0.197299
-0.169275
-0.115793
0.064455
0.095596
-0.101339
-0.142672
0.000429
0.058586
0.085311
0.209709
0.332549
0.287838
0.001023
-0.318262
-0.383754
-0.257019
-0.220942
-0.336309
-0.398425
-0.474308
-0.625264
-0.621658
-0.578827
-0.527164
-0.175988
0.240649
0.112812
-0.456370
-0.811504
-1.002204
-1.065878
-0.591573
-0.016737
-0.033133
-0.394501
-0.470904
-0.330920
-0.327054
-0.386572
-0.487392
-0.609514
-0.753456
-0.722315
-0.039936
0.759859
0.887894
0.611210
0.283352
-0.115942
-0.485622
-0.708794
-0.891441
-0.816140
-0.284945
-0.045729
-0.714143
-1.314498
-0.740441
0.144557
0.217261
-0.195541
-0.482095
-0.549666
-0.492807
-0.273854
0.043812
0.329266
0.414958
0.564294
1.252388
1.693963
1.106078
0.024633
-0.476490
0.125361
0.842030
1.002536
1.125895
0.986109
0.133780
-0.177973
1.052257
1.749703
0.946210
1.227508
2.658539
2.666561
1.711883
1.183744
0.182308
-1.218132
-1.204395
-0.177563
-0.022772
-0.615853
-1.594689
-2.050353
-0.019259
2.490329
1.974918
-0.522262
-2.337031
-3.563686
-4.738907
-3.848453
-0.925316
0.226984
-0.023203
1.369382
2.373094
1.359449
0.694672
-0.151163
-3.235418
-5.179812
-2.606582
1.674882
4.458265
4.919582
3.420950
2.084933
1.223511
-1.042735
-3.077528
-3.297842
-5.163785
-8.910709
-9.380400
-5.005160
-0.256113
0.819815
-0.206040
-1.374247
-2.289700
-1.972294
-2.217026
-3.341852
-2.089022
0.268860
-0.609446
-3.248199
-3.769844
-1.680821
2.572328
5.570539
4.859004
4.693501
4.542805
0.354795
-2.813105
-2.077473
-2.869796
-4.814190
-3.402642
-1.299072
-0.403423
4.002730
9.935019
9.831600
5.528254
2.698312
-0.138125
-3.291219
-3.309953
-2.086477
-1.291098
1.107308
4.119027
5.647470
5.030231
3.317550
1.719687
-1.268714
-4.856400
-5.455195
-2.957558
0.437838
2.392041
2.973371
3.523009
0.977253
-4.110852
-6.176038
-5.686926
-5.586686
-4.047852
-0.155001
1.239143
-0.285466
1.043996
3.712821
2.336799
-1.992264
-6.489917
-9.114383
-8.476943
-6.597033
-4.188496
-1.799961
-3.668243
-8.666728
-9.926893
-7.670320
-5.806256
-2.177329
4.037588
7.881084
6.673392
2.454210
-2.768714
-7.599130
-9.993961
-9.536541
-7.682088
-4.567242
1.133075
6.980680
9.103213
8.579749
5.934242
0.127099
-5.630168
-8.215669
-8.626912
-7.209649
-3.275755
-0.288195
-1.086232
-1.057169
1.013410
-1.050996
-4.810908
-3.551064
0.777158
3.745235
4.308901
4.001045
3.855804
4.488049
4.596601
1.008136
-3.034923
-2.226036
-0.364051
-2.714202
-6.333579
-5.302851
2.494053
10.102884
9.250035
3.364702
-2.383473
-7.129724
-9.271801
-9.300926
-6.826927
-1.445865
2.510629
1.160325
-2.004458
-0.295736
2.677277
-0.381521
-7.221761
-12.264146
-14.393755
-14.958521
-14.149894
-11.124928
-5.382269
-1.895954
-3.260286
-4.533699
-5.668916
-5.487369
-2.055346
-2.227083
-7.923565
-12.428491
-14.486923
-16.607699
-16.116509
-13.314423
-9.733293
-1.232419
5.895323
4.304213
3.986746
6.528285
1.850093
-6.533428
-10.964580
-12.552832
-10.941002
-3.805208
4.595136
8.954530
9.123349
6.946723
0.884488
-6.193180
-8.796085
-12.285579
-14.682748
-9.401437
-3.988684
-3.848440
-4.970408
-2.068312
4.257006
8.508078
8.297895
4.316920
-3.256644
-10.204688
-6.590308
3.686860
7.459179
5.923920
4.762207
3.702583
2.002890
1.289537
3.670019
4.594762
-0.235393
-5.629245
-11.393266
-17.056238
-15.443629
-7.668027
0.689975
2.931482
-0.254083
-3.670322
-11.480016
-18.426500
-17.938947
-18.252258
-17.976155
-17.507824
-21.465939
-16.806513
-3.780221
7.814749
17.922288
20.573189
16.739503
10.152537
0.569408
-6.180173
-11.342312
-19.075374
-26.077709
-27.874814
-17.832217
1.512929
14.023841
15.789973
10.492754
0.169027
-12.180111
-27.290323
-33.913656
-26.115194
-16.804104
-10.476448
0.324932
14.231836
14.782254
5.529290
1.644170
-4.322990
-10.520564
-5.949459
1.307647
2.449036
2.197031
3.959006
4.919077
4.528096
4.118151
7.333528
11.613433
15.701110
24.889071
25.320255
8.751187
-2.868523
-3.614607
-8.376444
-10.652301
1.028133
15.342873
19.113114
13.043865
8.762599
8.582809
4.697949
4.418928
1.547682
-14.708885
-21.571725
-8.867546
0.115718
-3.088810
-2.606711
4.136573
5.673070
1.565848
-3.086366
-12.757817
-18.420009
-7.338859
3.101442
-0.968373
-10.481105
-11.454226
-1.366689
14.982813
29.070776
32.228744
26.383935
10.736004
-8.266570
-23.733962
-35.192875
-30.835819
-6.864466
15.630107
10.878141
-10.206213
-19.235257
-13.878613
1.747955
15.155586
10.066442
3.827565
9.534375
7.628687
-3.195873
3.417008
22.745269
28.086846
21.870829
13.734607
7.493132
-0.639453
0.029419
16.604140
13.655484
-9.166718
-21.595085
-10.162470
12.406916
19.396720
13.057313
4.665220
4.102012
7.693013
5.973319
-1.761042
-13.634286
-14.764567
-3.428845
5.560653
3.560669
2.621577
15.184703
30.174580
36.378586
27.393962
7.914714
-3.640053
1.478902
12.720069
13.632083
4.060643
-2.494371
1.505245
4.197709
-6.636723
-14.977122
-1.919918
16.375765
15.991018
3.547844
-2.957295
2.562223
11.434046
7.288899
-5.946308
-8.036951
-5.540612
-11.509071
-12.748454
-0.295470
10.057549
5.624059
-1.288136
-3.379818
-2.271159
-0.934944
-11.754309
-26.650471
-25.062541
-16.280078
-20.746039
-28.871091
-24.165945
-17.807377
-22.558043
-25.744647
-17.453925
-13.192463
-18.537738
-19.177058
-13.907697
-12.293789
-11.494774
-6.174238
-0.950856
0.186118
0.875511
11.589089
28.055487
36.132940
39.422610
47.459799
50.472556
38.745303
30.601028
28.003318
18.248222
17.355109
38.784633
52.789471
35.231466
19.966433
24.743794
23.103848
4.579507
-11.946439
-13.844854
-5.422430
-1.485418
-17.220631
-23.131421
5.270534
34.433609
32.683522
14.954590
16.039869
36.362263
59.361564
72.725814
65.046524
55.594577
56.025501
50.768287
36.800276
12.075274
-25.205350
-54.603577
-55.978559
-52.937227
-63.989344
-75.673996
-85.168544
-81.862768
-58.470438
-35.990412
-33.091693
-30.418712
-10.896404
8.565898
19.307271
15.673346
-1.952458
-11.497401
-2.412828
3.105911
-22.052124
-60.152316
-63.894044
-36.014742
-17.167831
-18.279149
-30.298382
-32.970385
-18.499784
-16.886916
-37.113257
-54.144971
-56.410958
-41.314835
-19.577746
-14.234351
-8.083856
19.496453
41.770222
48.543900
49.986880
38.222999
12.652193
-11.026983
-14.475173
-3.830953
-6.303195
-18.110198
-14.843907
0.558742
10.125964
7.847768
7.413665
15.596584
10.284299
-6.540381
-6.357016
9.114731
17.335576
15.582631
18.697218
22.398360
16.519262
13.924669
16.761823
16.813487
30.709741
53.398620
51.833487
31.218794
22.572647
30.427219
24.082617
-4.678139
-17.057151
-1.101457
10.057104
1.229639
-13.892521
-18.605262
-15.517172
-16.323782
-15.254868
-17.156919
-19.665529
-7.994187
-2.482981
-17.504352
-37.264409
-44.311164
-34.981630
-32.938067
-41.973086
-43.472237
-45.708091
-44.707495
-39.933251
-44.741067
-37.678268
-11.841002
4.459405
-3.312622
-11.691727
-0.404322
14.320332
18.966510
18.846726
25.954985
36.375804
41.582042
42.108821
37.667797
36.588431
35.425419
29.017953
19.582372
10.356423
17.423119
41.753731
68.751900
91.641840
109.622165
110.166868
87.633268
68.928129
57.321667
32.270397
10.437911
0.485652
-16.185245
-34.916621
-52.405268
-63.513495
-58.301282
-56.018212
-61.900168
-67.522356
-71.021981
-65.166842
-55.075409
-47.874933
-41.539224
-30.270003
-12.003932
3.664978
0.079371
-18.934893
-27.884708
-22.726787
-13.431022
-8.682755
-6.653998
7.091331
18.759815
8.664943
-14.766934
-43.768495
-64.488914
-70.226958
-67.099903
-40.606723
-0.516510
24.414426
38.464203
61.235688
77.610388
73.398740
76.070163
75.296023
58.415234
41.966698
28.016870
24.293326
26.989167
28.825435
29.549897
26.082484
28.227617
35.283662
29.850845
27.357042
33.206206
21.323351
5.983765
3.187852
0.902902
-10.172074
-13.380499
2.745603
9.025982
8.354451
19.546001
21.002230
2.240720
-25.715534
-53.965327
-56.932427
-16.700121
28.060719
31.250898
11.620725
4.458373
2.593728
-2.620885
-2.465055
-2.466904
0.086844
21.376613
44.826872
44.187812
29.075003
22.357633
16.567375
5.288741
0.459365
-12.729603
-39.987342
-49.975969
-38.208513
-36.561615
-52.087975
-70.267344
-73.803855
-50.453088
-25.584496
-9.963383
8.966654
33.555736
68.975061
99.256697
111.946329
90.303214
39.736500
19.980858
39.018439
46.200472
24.517873
24.936847
50.831782
54.672940
61.107360
74.944907
72.782828
74.275164
79.490493
79.424741
81.231396
81.771943
85.311769
107.674899
131.325179
114.507513
69.748690
45.498544
47.908121
50.980365
35.300743
1.976903
-36.401240
-59.487626
-69.420143
-77.935366
-69.406177
-57.339468
-54.152666
-44.588302
-36.013394
-36.506724
-36.739247
-24.100269
-9.533814
-4.531753
10.858166
34.867446
47.095990
55.675834
63.499234
47.288905
19.626967
11.311765
-5.574479
-46.064536
-86.569920
-116.453912
-135.457005
-146.784996
-135.695274
-123.798454
-125.212661
-97.936800
-58.636542
-42.337434
-30.556990
-18.955525
-17.829462
-10.771598
-4.045718
-10.574496
-17.623849
-27.247502
-41.552693
-51.687569
-50.120940
-47.801762
-54.329241
-57.838477
-47.417658
-26.619889
-15.392491
-10.049355
1.488466
9.898162
23.929755
49.229042
52.897194
26.107817
8.015989
9.861869
19.758997
44.420553
77.111017
87.386366
83.263299
86.535564
64.731393
32.598590
28.546699
15.635423
-17.787128
-29.658813
-22.769279
-40.575102
-51.058587
-25.580320
-15.208597
-6.373401
33.838123
64.294323
59.979028
43.098498
23.081011
-0.823644
-18.909237
-46.421029
-79.283780
-73.636456
-41.385520
-12.256734
25.467252
40.132160
12.049918
2.889950
9.063564
-23.961023
-69.015982
-97.069909
-127.075473
-140.913860
-118.369153
-93.142081
-62.552621
-1.593952
50.439610
68.203809
82.101102
90.472093
60.094801
15.449756
-4.935822
-16.620734
-14.680298
7.751670
12.543059
7.785898
26.449153
39.428167
22.910014
-1.924610
-13.428723
5.235052
40.820369
57.885792
54.631908
50.061781
41.032996
27.328908
27.365245
31.677102
35.001841
48.889523
58.926405
61.670822
60.750694
41.098440
14.854316
17.051402
21.933709
-19.463717
-70.578802
-87.718580
-91.563955
-105.036070
-111.866438
-99.051079
-91.087404
-89.444143
-93.431352
-109.375158
-104.096445
-52.387073
24.502643
71.997800
75.163041
84.910542
102.220926
81.041237
54.540982
56.439595
53.486262
35.263512
14.382816
-12.084190
-51.911059
-87.866867
-98.485431
-85.423551
-62.786366
-46.338931
-28.213655
-8.309229
-4.431704
-2.973138
-0.327952
-6.736717
-11.393607
-25.100033
-51.938506
-64.082168
-52.471092
-37.211316
-29.329728
-20.828854
-20.660815
-34.283855
-46.815350
-50.028969
-52.634992
-69.092100
-89.689909
-112.888254
-126.913415
-106.134610
-71.241574
-41.642868
-23.867759
-11.008499
-11.845761
-24.520129
-5.232132
27.115698
40.323827
41.338190
40.834729
36.804918
43.336752
80.463272
112.509252
109.044436
79.805967
47.187138
24.990198
16.048176
8.966352
-1.999522
3.241785
7.857570
-14.306639
-33.459619
-19.500241
7.216340
27.016599
39.839752
42.785749
45.507827
43.282624
36.459269
39.401110
37.915207
24.461276
13.144715
21.528174
42.218139
51.916544
49.465083
46.143919
47.950574
51.219463
63.280457
70.256494
58.837325
55.230157
60.051938
63.096128
60.271900
57.926165
66.885530
64.576941
43.836520
16.121070
-14.912655
-35.264723
-41.615041
-45.904879
-49.345536
-52.314454
-49.237274
-25.991713
6.717194
26.065458
18.825435
3.732888
12.165703
27.169868
31.698631
34.240169
29.996310
26.902443
39.040328
45.512415
34.512252
35.193852
60.057508
85.469275
89.273285
65.675677
32.800197
27.143200
56.990763
86.898853
70.026635
18.016650
-10.623833
-6.668378
-8.092456
-47.121578
-98.245755
-121.332660
-119.829674
-105.427651
-94.175834
-81.511140
-55.693876
-37.955914
-26.500179
-11.870080
-16.143294
-42.262989
-74.750376
-95.083481
-96.851752
-93.127230
-85.417089
-76.324463
-59.824815
-26.548315
2.842836
5.451395
-20.758960
-44.791940
-36.745919
-16.645367
-8.224242
-12.356920
-18.434481
-6.643646
26.417246
57.187505
63.899358
54.462998
51.239507
65.197586
74.613623
69.501879
72.348385
63.090225
27.160134
-7.640486
-30.289941
-33.857365
-22.762188
-6.658686
3.347284
-2.275424
-6.916208
-11.389443
-23.026817
-37.812838
-49.248632
-45.576583
-29.089144
-10.514989
-1.184156
-1.643456
15.293641
57.938152
94.996093
106.851871
86.527857
47.484448
17.781254
6.919807
2.853628
-11.971877
-25.385804
-32.703757
-40.397075
-30.902588
-13.930162
-10.955590
-8.124930
-1.119539
6.347719
19.335045
25.656467
14.406147
-5.516525
-21.774651
-42.709638
-68.742571
-80.782846
-77.023775
-67.599685
-55.583111
-23.412184
19.406371
42.824938
47.302787
35.050023
23.814250
13.587676
-8.013617
-15.432879
-8.623094
2.597811
19.969760
36.145737
52.499396
75.244904
97.642584
93.039465
58.203777
8.911743
-28.422393
-18.165488
17.371513
32.197996
20.886890
20.158470
48.443789
72.356435
74.640544
54.560972
29.114855
13.279891
-1.524054
-19.319746
-33.899252
-20.154962
-4.574113
-2.020625
16.891229
16.335814
-23.154396
-47.805883
-24.847365
5.260485
15.847556
23.558217
27.682002
26.208307
21.462057
0.536161
-37.704306
-64.111045
-57.261515
-25.859760
3.934291
15.054665
11.375542
16.407995
36.836633
52.277208
61.022783
51.341722
10.100156
-24.144820
-16.089188
10.753900
20.719346
9.374210
-2.788674
0.380464
-8.510384
-44.739727
-74.235886
-74.253322
-43.341229
-17.553319
-28.086679
-51.436210
-68.959665
-61.868291
-35.784765
-33.084508
-52.183196
-59.903530
-45.991170
-28.918214
-18.181777
-0.766446
22.757586
35.244080
