EVENT_NAME: 202302060117
EVENT_ID: 13194
EVENT_DATE_YYYYMMDD: 2023/02/06
EVENT_TIME_HHMMSS: 01:17:32.00000
EVENT_LATITUDE_DEGREE: 37.288
EVENT_LONGITUDE_DEGREE: 37.043
EVENT_DEPTH_KM: 8.6
HYPOCENTER_REFERENCE: AFAD
MAGNITUDE_W: 7.7
MAGNITUDE_W_REFERENCE: AFAD
MAGNITUDE_L: 
MAGNITUDE_L_REFERENCE: 
FOCAL_MECHANISM: 
NETWORK: TK
STATION_CODE: 2801
STATION_NAME: 
STATION_LATITUDE_DEGREE: 40.906613
STATION_LONGITUDE_DEGREE: 38.36115
STATION_ELEVATION_M: 15.0
LOCATION: Kahramanmaras_Pazarck_Turkiye
SENSOR_DEPTH_M: 
VS30_M/S: None
SITE_CLASSIFICATION_EC8: unknown
MORPHOLOGIC_CLASSIFICATION: 
EPICENTRAL_DISTANCE_KM: 418.13
EARTHQUAKE_BACKAZIMUTH_DEGREE: 
DATE_TIME_FIRST_SAMPLE_YYYYMMDD_HHMMSS: 2023/02/06 01:18:05.2003330
DATE_TIME_FIRST_SAMPLE_PRECISION: millisecond
SAMPLING_INTERVAL_S: 0.01
NDATA: 21001
DURATION_S: 
STREAM: HNZ
UNITS: cm/s^2
INSTRUMENT: sensor = ACEBOX/SARA | digitizer = 
INSTRUMENT_ANALOG/DIGITAL: 
INSTRUMENTAL_FREQUENCY_HZ: 
INSTRUMENTAL_DAMPING: 
FULL_SCALE_G: 
N_BIT_DIGITAL_CONVERTER: 
PGA_CM/S^2: 3.112
TIME_PGA_S: 
BASELINE_CORRECTION: BASELINE REMOVED
FILTER_TYPE: BUTTERWORTH
FILTER_ORDER: 
LOW_CUT_FREQUENCY_HZ: 
HIGH_CUT_FREQUENCY_HZ: 
LATE/NORMAL_TRIGGERED: 
DATABASE_VERSION: 
HEADER_FORMAT: DYNA 1.2
DATA_TYPE: Acceleration
PROCESSING: Automatic Paolucci et al., 2011
DATA_TIMESTAMP_YYYYMMDD_HHMMSS: 
DATA_LICENSE: U (unknown license)
DATA_CITATION: Turkish Accelerometric Archive v 1.0 - Disaster And Emergency Management Presidency, Earthquake Department
DATA_CREATOR: AFAD
ORIGINAL_DATA_MEDIATOR_CITATION: : AFAD - Disaster And Emergency Management Presidency
ORIGINAL_DATA_MEDIATOR: AFAD PROCESS SERVICE
ORIGINAL_DATA_CREATOR_CITATION: AFAD PROCESS SERVICE
ORIGINAL_DATA_CREATOR: network: TK
USER1: GuestUser
USER2: 
USER3: 
USER4: 
USER5: 
[...]
-1.084325
-1.082220
-1.081051
-1.058138
-1.014184
-0.978646
-0.951759
-0.923937
-0.902661
-0.886528
-0.862680
-0.823168
-0.774070
-0.713516
-0.639870
-0.572068
-0.524607
-0.487666
-0.458909
-0.448621
-0.455401
-0.455634
-0.449087
-0.469427
-0.513614
-0.556632
-0.599884
-0.637759
-0.662074
-0.677504
-0.689427
-0.694570
-0.677970
-0.654122
-0.653888
-0.673059
-0.684047
-0.671187
-0.652016
-0.645936
-0.647572
-0.653183
-0.670484
-0.698539
-0.723321
-0.740388
-0.763533
-0.793692
-0.816370
-0.825955
-0.824786
-0.825955
-0.852607
-0.878324
-0.868270
-0.858217
-0.861256
-0.845123
-0.821509
-0.806546
-0.793686
-0.788075
-0.785035
-0.779189
-0.789008
-0.827351
-0.866628
-0.890475
-0.915725
-0.941208
-0.952897
-0.962716
-0.987498
-1.012047
-1.013449
-1.002460
-0.991237
-0.962480
-0.905900
-0.855867
-0.830617
-0.790169
-0.729148
-0.682154
-0.652461
-0.625574
-0.584659
-0.546082
-0.529482
-0.522468
-0.526442
-0.529714
-0.527376
-0.550755
-0.581616
-0.608970
-0.651754
-0.694539
-0.742233
-0.797876
-0.835751
-0.872924
-0.928333
-0.986782
-1.026527
-1.038217
-1.034008
-1.030968
-1.012498
-0.948670
-0.871517
-0.821016
-0.754617
-0.655253
-0.565241
-0.472656
-0.359264
-0.248444
-0.144637
-0.041065
0.058767
0.139194
0.188058
0.234350
0.283682
0.312440
0.332781
0.344938
0.344004
0.343537
0.336523
0.324834
0.317353
0.312443
0.320159
0.343539
0.365049
0.386325
0.430747
0.496679
0.561441
0.626905
0.699616
0.777237
0.863743
0.944403
1.015244
1.079773
1.118817
1.144769
1.170955
1.176099
1.179373
1.190362
1.177971
1.157163
1.142902
1.123731
1.103859
1.078843
1.045177
0.986494
0.888768
0.796652
0.725344
0.628319
0.501601
0.379560
0.265467
0.132203
-0.012517
-0.134091
-0.240702
-0.354093
-0.458133
-0.544403
-0.634181
-0.727232
-0.794799
-0.833375
-0.863768
-0.893694
-0.923385
-0.963598
-1.020177
-1.067403
-1.097329
-1.142685
-1.197627
-1.239242
-1.277351
-1.315459
-1.348658
-1.370634
-1.383025
-1.401027
-1.414821
-1.419262
-1.427445
-1.436095
-1.438666
-1.426742
-1.401024
-1.373903
-1.336962
-1.284357
-1.227778
-1.163250
-1.082121
-0.994681
-0.902330
-0.796186
-0.693782
-0.600263
-0.486169
-0.356411
-0.240915
-0.123782
0.009950
0.124745
0.222239
0.342645
0.476378
0.591173
0.689368
0.786161
0.886928
1.001489
1.130545
1.246509
1.346341
1.455525
1.573359
1.676231
1.752215
1.826329
1.914471
1.982273
2.013836
2.030203
2.046335
2.063637
2.066443
2.052883
2.029270
1.986485
1.942532
1.910502
1.877070
1.851352
1.831246
1.804126
1.792437
1.794074
1.790100
1.781684
1.771865
1.766488
1.759007
1.747084
1.745915
1.741941
1.732356
1.729551
1.712016
1.676246
1.640943
1.604705
1.556076
1.497159
1.429125
1.341217
1.233905
1.124722
1.016007
0.903551
0.789224
0.684717
0.584419
0.477106
0.381250
0.305734
0.242843
0.192577
0.154702
0.121737
0.081525
0.049261
0.034766
0.009750
-0.027189
-0.060154
-0.077221
-0.064595
-0.059451
-0.073712
-0.056878
-0.037940
-0.072308
-0.112053
-0.103402
-0.090075
-0.114390
-0.144315
-0.165357
-0.198322
-0.242509
-0.288566
-0.322700
-0.341404
-0.357301
-0.365484
-0.372965
-0.391668
-0.390031
-0.366651
-0.362676
-0.359168
-0.338360
-0.338827
-0.349581
-0.325733
-0.284351
-0.261438
-0.254658
-0.238291
-0.213976
-0.193167
-0.177503
-0.178204
-0.178904
-0.179138
-0.208830
-0.235950
-0.233845
-0.228701
-0.221453
-0.207658
-0.179368
-0.135648
-0.092628
-0.039088
0.024271
0.097450
0.197048
0.293607
0.372163
0.453291
0.533017
0.612275
0.684752
0.741799
0.808432
0.885118
0.946607
0.982846
0.996874
1.006461
1.011838
1.014411
1.024698
1.022127
1.011840
1.011373
1.002957
0.998048
1.007400
1.005063
0.998517
1.002959
1.001089
1.000389
1.027042
1.045045
1.014184
0.974907
0.949189
0.911548
0.865725
0.813588
0.755607
0.700198
0.629825
0.543788
0.463362
0.376157
0.281703
0.207823
0.143062
0.064974
-0.018958
-0.096812
-0.173965
-0.254858
-0.321724
-0.367314
-0.404955
-0.439790
-0.490758
-0.557389
-0.604616
-0.631034
-0.653946
-0.677793
-0.708420
-0.735306
-0.762660
-0.804042
-0.839812
-0.858048
-0.881661
-0.916262
-0.931926
-0.918599
-0.900597
-0.885399
-0.859915
-0.823676
-0.789073
-0.762654
-0.735767
-0.706074
-0.664691
-0.624010
-0.606007
-0.563689
-0.479990
-0.402368
-0.319604
-0.212524
-0.108718
-0.034136
0.022911
0.096090
0.160385
0.181193
0.197092
0.224447
0.243151
0.246659
0.234735
0.222111
0.220709
0.214396
0.195226
0.191485
0.210657
0.214165
0.203177
0.194760
0.178395
0.166706
0.158056
0.132338
0.122987
0.144964
0.158759
0.161097
0.173489
0.179335
0.167178
0.153618
0.133278
0.103586
0.081142
0.059633
0.023863
-0.037859
-0.112206
-0.169252
-0.223961
-0.287085
-0.336650
-0.391592
-0.460094
-0.522517
-0.585408
-0.642454
-0.692486
-0.737609
-0.761456
-0.765897
-0.745557
-0.715396
-0.711187
-0.707914
-0.681728
-0.650866
-0.635903
-0.633798
-0.598728
-0.535836
-0.491414
-0.461254
-0.438575
-0.413792
-0.375215
-0.347393
-0.335001
-0.303672
-0.241013
-0.179524
-0.137206
-0.099097
-0.076652
-0.068936
-0.043218
-0.018903
-0.012122
0.000503
0.018974
0.052641
0.107584
0.156448
0.195960
0.210924
0.192688
0.166971
0.131434
0.095897
0.073687
0.043762
0.001912
-0.046016
-0.091606
-0.134156
-0.184656
-0.228843
-0.253391
-0.273731
-0.300384
-0.329608
-0.363040
-0.396940
-0.402551
-0.389692
-0.392263
-0.397640
-0.397873
-0.395535
-0.371921
-0.334279
-0.311133
-0.310898
-0.314872
-0.323055
-0.363969
-0.418677
-0.439017
-0.422417
-0.393893
-0.388048
-0.406985
-0.416102
-0.427324
-0.467537
-0.525752
-0.578356
-0.607112
-0.618100
-0.625815
-0.631660
-0.624645
-0.587237
-0.541646
-0.513590
-0.474545
-0.407445
-0.350398
-0.334266
-0.324212
-0.273477
-0.215261
-0.194219
-0.183932
-0.160084
-0.126884
-0.097425
-0.096022
-0.107010
-0.086201
-0.036636
0.011994
0.034206
0.019009
-0.012085
-0.027048
-0.031022
-0.047387
-0.073806
-0.097887
-0.112615
-0.123136
-0.155399
-0.205431
-0.247514
-0.291000
-0.340799
-0.388960
-0.434317
-0.461437
-0.477802
-0.503753
-0.521521
-0.518949
-0.508194
-0.493698
-0.488554
-0.490190
-0.477798
-0.467744
-0.474524
-0.481537
-0.493461
-0.507020
-0.513099
-0.542557
-0.585809
-0.596329
-0.592120
-0.602874
-0.617136
-0.632098
-0.664829
-0.711121
-0.733331
-0.707145
-0.668100
-0.656644
-0.648928
-0.614793
-0.580425
-0.571072
-0.568032
-0.546990
-0.508179
-0.465862
-0.434298
-0.413958
-0.380524
-0.328153
-0.271340
-0.201434
-0.124748
-0.072845
-0.046659
-0.009718
0.048030
0.092920
0.124015
0.184569
0.266632
0.311756
0.319238
0.341683
0.383533
0.412057
0.423747
0.427488
0.428190
0.427489
0.438712
0.470041
0.471912
0.435674
0.430297
0.446430
0.441754
0.432637
0.431468
0.431001
0.417207
0.384710
0.357590
0.334912
0.297271
0.264540
0.234615
0.166814
0.093168
0.079608
0.107898
0.130343
0.137592
0.131747
0.124734
0.116084
0.099485
0.095510
0.095277
0.064416
0.015086
-0.017178
-0.020451
-0.006656
0.001995
-0.024657
-0.097368
-0.167507
-0.191587
-0.193457
-0.193457
-0.178493
-0.164465
-0.184805
-0.253073
-0.338175
-0.381427
-0.384933
-0.405975
-0.446187
-0.464189
-0.449693
-0.433327
-0.441743
-0.467928
-0.497386
-0.513985
-0.513517
-0.516088
-0.516789
-0.495046
-0.448753
-0.396616
-0.367391
-0.348920
-0.312681
-0.264519
-0.228747
-0.209575
-0.170297
-0.100625
-0.046617
-0.034459
-0.046383
-0.041940
-0.010377
0.023291
0.026798
-0.005466
-0.018558
0.018616
0.067247
0.109097
0.171288
0.270184
0.360898
0.406957
0.467043
0.575292
0.686813
0.792023
0.907753
1.024886
1.132199
1.226420
1.315965
1.416732
1.525214
1.629021
1.720903
1.790342
1.840375
1.894616
1.946753
1.954469
1.920335
1.885734
1.846456
1.793151
1.753874
1.730962
1.690749
1.625520
1.558187
1.490386
1.402245
1.282542
1.154421
1.065813
1.013442
0.962943
0.913144
0.858436
0.793909
0.731485
0.664620
0.575543
0.485298
0.435266
0.381727
0.266699
0.148398
0.067739
-0.028585
-0.145951
-0.242275
-0.322701
-0.435157
-0.567018
-0.637157
-0.641131
-0.667082
-0.735350
-0.783746
-0.788421
-0.792395
-0.826295
-0.863702
-0.872119
-0.852479
-0.818111
-0.784443
-0.741424
-0.656555
-0.557425
-0.510899
-0.490324
-0.398207
-0.270320
-0.204856
-0.150848
-0.059199
0.014213
0.066351
0.126905
0.194706
0.255494
0.298747
0.361639
0.446742
0.489995
0.505426
0.554290
0.618585
0.653888
0.667917
0.692466
0.708365
0.676803
0.633317
0.624433
0.627239
0.623966
0.615550
0.600587
0.598484
0.605498
0.614149
0.652492
0.707669
0.754663
0.807268
0.862678
0.914348
0.967888
1.026571
1.090165
1.155862
1.240731
1.341264
1.423328
1.485752
1.550748
1.637487
1.710199
1.724227
1.731943
1.769585
1.803252
1.819618
1.813540
1.791564
1.776835
1.772393
1.760236
1.723764
1.673498
1.622999
1.581383
1.554731
1.509842
1.441106
1.382891
1.337301
1.298491
1.243783
1.174580
1.122210
1.064462
0.990349
0.912027
0.817340
0.732706
0.663736
0.595935
0.545202
0.503119
0.466413
0.434383
0.382013
0.312576
0.235423
0.165051
0.096549
0.002095
-0.091657
-0.167641
-0.249703
-0.340182
-0.426453
-0.492617
-0.558080
-0.634765
-0.683862
-0.721503
-0.789070
-0.857104
-0.899187
-0.934958
-0.981249
-1.014682
-1.006498
-0.984521
-0.985689
-0.997612
-1.002756
-1.000417
-0.985220
-0.964879
-0.950149
-0.934017
-0.919521
-0.902687
-0.872994
-0.835820
-0.786488
-0.724765
-0.660003
-0.590097
-0.522763
-0.465716
-0.403526
-0.333853
-0.292471
-0.275403
-0.239632
-0.203159
-0.195911
-0.186792
-0.153125
-0.112677
-0.086258
-0.060540
-0.020560
-0.000453
0.003756
0.033916
0.059634
0.052855
0.049348
0.062441
0.068988
0.052623
0.036024
0.044207
0.043974
0.019659
0.003528
-0.001849
-0.002550
0.005400
0.006335
-0.007692
-0.027330
-0.057724
-0.114068
-0.184441
-0.244059
-0.297130
-0.349734
-0.389245
-0.408416
-0.414494
-0.420105
-0.416598
-0.407245
-0.422909
-0.448393
-0.454705
-0.459848
-0.493748
-0.565523
-0.645949
-0.725440
-0.815685
-0.874367
-0.894240
-0.914813
-0.933517
-0.939127
-0.920657
-0.894004
-0.884885
-0.864310
-0.842801
-0.864777
-0.906626
-0.942631
-0.985415
-1.026797
-1.036148
-1.016742
-1.000610
-0.958058
-0.850745
-0.730573
-0.638456
-0.543300
-0.448845
-0.382680
-0.313710
-0.229308
-0.172028
-0.138594
-0.100485
-0.063544
-0.028240
0.015948
0.069722
0.127938
0.184751
0.246941
0.319419
0.404989
0.507159
0.590625
0.638087
0.688587
0.736049
0.746102
0.735816
0.741895
0.775562
0.808996
0.829804
0.856224
0.869083
0.850614
0.836352
0.856693
0.897842
0.927067
0.949278
0.985985
1.010300
0.995572
0.981311
0.995573
0.985754
0.924499
0.855062
0.781182
0.694912
0.626643
0.590171
0.569832
0.556038
0.561650
0.577782
0.582926
0.587836
0.582693
0.556509
0.526817
0.488474
0.440546
0.412725
0.398464
0.368071
0.333002
0.308220
0.290919
0.295829
0.333004
0.385375
0.417172
0.420211
0.413666
0.394495
0.396132
0.452010
0.503679
0.508122
0.504148
0.530100
0.559793
0.558157
0.561430
0.590655
0.602346
0.592293
0.598606
0.610296
0.610998
0.621753
0.627599
0.607259
0.577567
0.547641
0.533146
0.536186
0.534316
0.528472
0.527537
0.526836
0.535955
0.579208
0.631111
0.662908
0.724865
0.808565
0.846207
0.877536
0.946273
1.017114
1.060367
1.085617
1.126065
1.173059
1.188723
1.186386
1.197375
1.210468
1.207195
1.206261
1.217951
1.224498
1.230109
1.226369
1.208835
1.199250
1.186625
1.177975
1.185457
1.164182
1.119293
1.090069
1.063183
1.025308
0.986031
0.968263
0.957742
0.908412
0.852301
0.830090
0.806244
0.776318
0.766967
0.772111
0.766500
0.735639
0.711559
0.718105
0.719742
0.702909
0.691220
0.704547
0.735643
0.752243
0.761361
0.793626
0.831735
0.847868
0.842491
0.840153
0.859793
0.870548
0.850909
0.837583
0.848806
0.864939
0.868914
0.860731
0.853952
0.845068
0.826598
0.820754
0.826599
0.820053
0.813507
0.820989
0.813041
0.786856
0.773764
0.774933
0.788728
0.817252
0.831280
0.834787
0.864246
0.898381
0.896511
0.888563
0.909371
0.927842
0.925972
0.916386
0.895345
0.868693
0.850925
0.841573
0.832222
0.809076
0.778216
0.752732
0.727249
0.714157
0.704104
0.668333
0.634667
0.611989
0.568036
0.490883
0.396196
0.332837
0.305016
0.264803
0.218278
0.175026
0.124760
0.070052
0.008330
-0.046612
-0.095008
-0.154158
-0.196475
-0.216113
-0.239259
-0.263106
-0.274561
-0.264040
-0.248375
-0.243465
-0.231774
-0.232241
-0.263804
-0.296535
-0.333474
-0.370414
-0.364568
-0.330200
-0.302377
-0.281335
-0.261228
-0.233639
-0.203245
-0.168877
-0.112297
-0.071850
-0.095229
-0.140819
-0.172381
-0.219374
-0.297929
-0.385369
-0.470705
-0.559781
-0.645584
-0.727179
-0.788667
-0.778146
-0.685094
-0.576144
-0.516291
-0.488937
-0.437968
-0.360815
-0.272906
-0.186635
-0.162086
-0.218898
-0.293946
-0.386997
-0.531483
-0.662409
-0.728573
-0.771358
-0.820455
-0.860200
-0.895503
-0.974993
-1.101477
-1.211829
-1.310257
-1.443287
-1.603672
-1.717531
-1.722206
-1.699527
-1.779953
-1.957405
-2.156600
-2.332648
-2.447442
-2.460067
-2.374263
-2.255260
-2.149817
-2.030579
-1.886326
-1.774571
-1.711211
-1.653930
-1.600858
-1.548954
-1.486764
-1.457772
-1.480450
-1.519961
-1.567889
-1.647614
-1.777605
-1.886787
-1.903620
-1.914842
-1.991293
-2.088085
-2.218777
-2.410491
-2.606412
-2.752769
-2.851898
-2.904035
-2.910580
-2.971367
-3.111645
-3.105800
-2.871301
-2.621838
-2.443918
-2.227188
-1.955515
-1.745798
-1.659994
-1.612065
-1.515506
-1.382008
-1.261602
-1.210400
-1.214140
-1.197306
-1.222556
-1.391824
-1.546598
-1.502176
-1.384575
-1.328931
-1.289419
-1.268377
-1.311862
-1.418240
-1.536073
-1.589378
-1.608549
-1.647125
-1.700664
-1.809146
-1.902664
-1.834863
-1.699727
-1.619067
-1.490712
-1.248965
-0.963030
-0.703982
-0.501513
-0.309565
-0.104759
0.037157
0.090229
0.072929
0.032249
0.074099
0.108467
-0.060100
-0.330369
-0.518575
-0.667504
-0.845423
-0.972842
-0.973075
-0.946890
-1.008378
-1.064021
-1.000662
-0.892647
-0.869968
-0.927715
-0.939405
-0.832793
-0.678486
-0.564392
-0.466899
-0.335270
-0.218839
-0.151037
-0.032501
0.180488
0.386932
0.524873
0.618392
0.694377
0.700924
0.564386
0.400963
0.349528
0.284533
0.091416
-0.106609
-0.180021
-0.177917
-0.205270
-0.222805
-0.144482
-0.056340
-0.025245
0.041388
0.158053
0.243624
0.276823
0.255081
0.215102
0.248769
0.361928
0.485607
0.567670
0.599233
0.616535
0.651839
0.714730
0.788377
0.853139
0.925383
0.969338
0.929359
0.839581
0.728995
0.589887
0.418514
0.231944
0.106161
0.058000
-0.006060
-0.106826
-0.180940
-0.205956
-0.230036
-0.306721
-0.368911
-0.317943
-0.216240
-0.181170
-0.235411
-0.281001
-0.193092
-0.023589
0.091674
0.134225
0.111080
0.022705
-0.060994
-0.062864
0.010315
0.074142
0.072272
0.027851
-0.044392
-0.170642
-0.312790
-0.380824
-0.399294
-0.444650
-0.484395
-0.482758
-0.500994
-0.569964
-0.619528
-0.617891
-0.652025
-0.765650
-0.864078
-0.910136
-0.976300
-1.060466
-1.091561
-1.070986
-1.050879
-1.028200
-0.985415
-0.980505
-1.033810
-1.061398
-1.046434
-1.033107
-0.998972
-0.926729
-0.858693
-0.842794
-0.884410
-0.943093
-0.994761
-1.040819
-1.068173
-1.079628
-1.083836
-1.043856
-0.975821
-1.000135
-1.126619
-1.211487
-1.220137
-1.227384
-1.226682
-1.187404
-1.141112
-1.116329
-1.092481
-1.064425
-1.096688
-1.176646
-1.189505
-1.144148
-1.107909
-1.044549
-0.932326
-0.822675
-0.784098
-0.848859
-0.947988
-0.986798
-0.960379
-0.936999
-0.946818
-0.940505
-0.913384
-0.931853
-1.012980
-1.092705
-1.113045
-1.082417
-1.040566
-0.992170
-0.904729
-0.792272
-0.732887
-0.720963
-0.666956
-0.583256
-0.552862
-0.560109
-0.513583
-0.387565
-0.247988
-0.172003
-0.182991
-0.235829
-0.268093
-0.252194
-0.188133
-0.119162
-0.105602
-0.117525
-0.085260
-0.039202
-0.027278
-0.025874
-0.011612
-0.000623
-0.011144
-0.023301
-0.017689
-0.022365
-0.046679
-0.069123
-0.090866
-0.111907
-0.146509
-0.226467
-0.324895
-0.393865
-0.449975
-0.493228
-0.463067
-0.366041
-0.297304
-0.274391
-0.229034
-0.178534
-0.171052
-0.141593
-0.039423
0.071398
0.148317
0.225939
0.293273
0.306600
0.314549
0.378376
0.462778
0.530579
0.592068
0.663611
0.716450
0.704994
0.692837
0.745676
0.814413
0.871460
0.914946
0.934820
0.946510
0.945341
0.939965
0.956565
1.000051
1.076737
1.168620
1.271024
1.412472
1.558829
1.648140
1.684847
1.713371
1.734647
1.710800
1.663573
1.632946
1.606761
1.578005
1.527505
1.409906
1.261211
1.185929
1.202061
1.219830
1.210011
1.231521
1.259343
1.224508
1.157175
1.131925
1.178218
1.261684
1.332525
1.382324
1.418329
1.449893
1.489171
1.515123
1.516526
1.506707
1.494083
1.484965
1.456910
1.390044
1.326218
1.290214
1.238779
1.150638
1.055717
0.951210
0.797138
0.613841
0.461406
0.348248
0.254730
0.178045
0.114686
0.056705
0.016960
0.022805
0.075177
0.128483
0.162150
0.220132
0.300793
0.344280
0.388234
0.493209
0.590703
0.617591
0.622501
0.645180
0.665988
0.669729
0.705501
0.806735
0.893475
0.915920
0.922233
0.907270
0.840872
0.769564
0.735431
0.721871
0.714624
0.720001
0.701532
0.621574
0.549097
0.555878
0.588376
0.602170
0.627655
0.682598
0.750165
0.799030
0.827553
0.860987
0.880159
0.868703
0.861222
0.875017
0.897462
0.932532
0.969472
0.979760
0.967369
0.942119
0.907985
0.894659
0.910792
0.925288
0.918508
0.907053
0.887882
0.821016
0.725393
0.663204
0.641695
0.626732
0.576467
0.511705
0.471492
0.433384
0.420058
0.469857
0.549816
0.630243
0.684718
0.725633
0.805125
0.908931
0.998009
1.054121
1.083346
1.106492
1.110701
1.091296
1.085218
1.124496
1.157228
1.103689
1.014847
0.947981
0.875505
0.809341
0.767959
0.752763
0.749022
0.731488
0.731722
0.746218
0.759779
0.804902
0.870833
0.935596
0.969029
0.959912
0.956405
0.963653
0.974642
0.997321
1.029819
1.074709
1.078918
1.040108
1.048058
1.106975
1.154202
1.156073
1.119835
1.078687
1.046658
1.017901
0.974181
0.944490
0.970675
0.986808
0.949868
0.899602
0.867105
0.886745
0.951974
1.024218
1.080564
1.090384
1.076357
1.061394
1.024454
0.992659
0.976527
0.937250
0.857759
0.749044
0.669787
0.642901
0.632848
0.646175
0.682648
0.712574
0.720524
0.692469
0.652490
0.641268
0.629812
0.561778
0.447451
0.354167
0.295250
0.235399
0.179989
0.126450
0.066131
0.034803
0.062391
0.148663
0.256678
0.347158
0.433663
0.538639
0.655538
0.770099
0.877412
0.991973
1.101391
1.160542
1.181818
1.214550
1.246815
1.252426
1.247517
1.246115
1.256636
1.275107
1.275341
1.258742
1.237467
1.182759
1.087136
1.016062
1.003905
0.996424
0.971174
0.952237
0.938210
0.944055
0.983334
1.035237
1.085738
1.125250
1.173413
1.248696
1.327019
1.398795
1.465194
1.506109
1.501667
1.446725
1.364429
1.269040
1.164767
1.050441
0.915073
0.783445
0.672158
0.576769
0.504760
0.442337
0.383421
0.318659
0.239870
0.185396
0.157808
0.141910
0.128818
0.102633
0.083229
0.052368
0.003505
-0.011692
-0.015432
-0.017536
0.017301
0.048630
0.041149
0.003976
-0.040913
-0.066630
-0.068266
-0.043951
-0.012855
0.006317
0.009123
-0.026180
-0.070134
-0.076913
-0.054235
