EVENT_NAME: 202302060117
EVENT_ID: 13194
EVENT_DATE_YYYYMMDD: 2023/02/06
EVENT_TIME_HHMMSS: 01:17:32.00000
EVENT_LATITUDE_DEGREE: 37.288
EVENT_LONGITUDE_DEGREE: 37.043
EVENT_DEPTH_KM: 8.6
HYPOCENTER_REFERENCE: AFAD
MAGNITUDE_W: 7.7
MAGNITUDE_W_REFERENCE: AFAD
MAGNITUDE_L: 
MAGNITUDE_L_REFERENCE: 
FOCAL_MECHANISM: 
NETWORK: TK
STATION_CODE: 0713
STATION_NAME: 
STATION_LATITUDE_DEGREE: 36.54286
STATION_LONGITUDE_DEGREE: 32.00434
STATION_ELEVATION_M: 1.0
LOCATION: Kahramanmaras_Pazarck_Turkiye
SENSOR_DEPTH_M: 
VS30_M/S: 540
SITE_CLASSIFICATION_EC8: B
MORPHOLOGIC_CLASSIFICATION: 
EPICENTRAL_DISTANCE_KM: 455.49
EARTHQUAKE_BACKAZIMUTH_DEGREE: 
DATE_TIME_FIRST_SAMPLE_YYYYMMDD_HHMMSS: 2023/02/06 01:18:09.8199100
DATE_TIME_FIRST_SAMPLE_PRECISION: millisecond
SAMPLING_INTERVAL_S: 0.01
NDATA: 24501
DURATION_S: 
STREAM: HNZ
UNITS: cm/s^2
INSTRUMENT: sensor = GMS+/GEOSIG | digitizer = 
INSTRUMENT_ANALOG/DIGITAL: 
INSTRUMENTAL_FREQUENCY_HZ: 
INSTRUMENTAL_DAMPING: 
FULL_SCALE_G: 
N_BIT_DIGITAL_CONVERTER: 
PGA_CM/S^2: 1.949
TIME_PGA_S: 
BASELINE_CORRECTION: BASELINE REMOVED
FILTER_TYPE: BUTTERWORTH
FILTER_ORDER: 
LOW_CUT_FREQUENCY_HZ: 
HIGH_CUT_FREQUENCY_HZ: 
LATE/NORMAL_TRIGGERED: 
DATABASE_VERSION: 
HEADER_FORMAT: DYNA 1.2
DATA_TYPE: Acceleration
PROCESSING: Automatic Paolucci et al., 2011
DATA_TIMESTAMP_YYYYMMDD_HHMMSS: 
DATA_LICENSE: U (unknown license)
DATA_CITATION: Turkish Accelerometric Archive v 1.0 - Disaster And Emergency Management Presidency, Earthquake Department
DATA_CREATOR: AFAD
ORIGINAL_DATA_MEDIATOR_CITATION: : AFAD - Disaster And Emergency Management Presidency
ORIGINAL_DATA_MEDIATOR: AFAD PROCESS SERVICE
ORIGINAL_DATA_CREATOR_CITATION: AFAD PROCESS SERVICE
ORIGINAL_DATA_CREATOR: network: TK
USER1: GuestUser
USER2: 
USER3: 
USER4: 
USER5: 
[...]
-0.240323
-0.188629
-0.176940
-0.276431
-0.375143
-0.404237
-0.408134
-0.472037
-0.558020
-0.587114
-0.618287
-0.682449
-0.721674
-0.681411
-0.610494
-0.615949
-0.665825
-0.688425
-0.744015
-0.864028
-0.952609
-0.966117
-0.947674
-0.936764
-0.912605
-0.805581
-0.642187
-0.554126
-0.541397
-0.494899
-0.455414
-0.455674
-0.434633
-0.405539
-0.399305
-0.423983
-0.447882
-0.434114
-0.445544
-0.529190
-0.621148
-0.666088
-0.661672
-0.638033
-0.648164
-0.645826
-0.571273
-0.511786
-0.499317
-0.446585
-0.378006
-0.354627
-0.340859
-0.275918
-0.179544
-0.159282
-0.173050
-0.113303
-0.028359
-0.010955
-0.071481
-0.088886
-0.014073
0.070092
0.114512
0.115811
0.138411
0.211925
0.248292
0.248292
0.290115
0.311156
0.251669
0.190363
0.174777
0.177375
0.168283
0.150099
0.166204
0.226730
0.273748
0.291672
0.320246
0.347522
0.302582
0.199454
0.212962
0.358172
0.456104
0.518708
0.634045
0.794841
0.931479
0.982913
1.056947
1.201377
1.275151
1.242680
1.233069
1.286581
1.291257
1.247096
1.220340
1.211248
1.201636
1.130719
1.074090
1.054347
0.950960
0.858222
0.868613
0.915891
0.915371
0.822374
0.697166
0.572737
0.434020
0.313228
0.254780
0.290628
0.347777
0.361285
0.370896
0.434539
0.546499
0.569878
0.495844
0.453242
0.472984
0.512729
0.534029
0.574813
0.661315
0.739246
0.767560
0.773795
0.788342
0.745220
0.638455
0.584943
0.578968
0.517143
0.422588
0.377388
0.350632
0.274519
0.186458
0.161780
0.173729
0.126192
0.031376
-0.020837
0.002801
0.039429
0.024881
0.029557
0.104110
0.165935
0.149310
0.128009
0.168013
0.187236
0.157882
0.139698
0.156842
0.152166
0.093718
0.044362
0.024620
0.016827
-0.034088
-0.136437
-0.219303
-0.291518
-0.390750
-0.474915
-0.497774
-0.512841
-0.565574
-0.628957
-0.647661
-0.598565
-0.559860
-0.571289
-0.530766
-0.415948
-0.341395
-0.313600
-0.276713
-0.243723
-0.281649
-0.402441
-0.492841
-0.515960
-0.564537
-0.654676
-0.671821
-0.589994
-0.537781
-0.551029
-0.540639
-0.477256
-0.424523
-0.427121
-0.411275
-0.338540
-0.346073
-0.464268
-0.517521
-0.449461
-0.396988
-0.414133
-0.419069
-0.362440
-0.299056
-0.333865
-0.406341
-0.398548
-0.399068
-0.461672
-0.477777
-0.393353
-0.315683
-0.340101
-0.375429
-0.378807
-0.420110
-0.513107
-0.577529
-0.526875
-0.456737
-0.494144
-0.569477
-0.563762
-0.525057
-0.566360
-0.610781
-0.548956
-0.442451
-0.399070
-0.422709
-0.404785
-0.328414
-0.318283
-0.354391
-0.310750
-0.247366
-0.291527
-0.398811
-0.436738
-0.452584
-0.581948
-0.770800
-0.873408
-0.863537
-0.877824
-0.939130
-0.927700
-0.872889
-0.847432
-0.817299
-0.741707
-0.675726
-0.671829
-0.687675
-0.661179
-0.553376
-0.426349
-0.375694
-0.334911
-0.212560
-0.073845
0.011619
0.100460
0.217095
0.274504
0.247228
0.200989
0.208003
0.258398
0.297363
0.348017
0.435299
0.507515
0.527776
0.530634
0.554013
0.607005
0.635320
0.608304
0.655322
0.813520
0.929636
0.946261
0.969640
1.014320
0.988084
0.937169
0.937689
0.961327
0.946780
0.892748
0.859498
0.828066
0.758708
0.645449
0.512707
0.437894
0.379186
0.260732
0.199686
0.253458
0.304113
0.300216
0.273460
0.259952
0.270602
0.263329
0.241248
0.256834
0.271641
0.209556
0.098375
0.020964
-0.018261
-0.116713
-0.245038
-0.244259
-0.167628
-0.132559
-0.058525
0.102011
0.251118
0.313722
0.368273
0.477895
0.538940
0.508807
0.486207
0.555045
0.675578
0.722595
0.664407
0.601543
0.595049
0.560500
0.454255
0.369570
0.329826
0.262286
0.163834
0.118634
0.134739
0.130323
0.116296
0.140714
0.178899
0.212669
0.258128
0.292158
0.256570
0.147727
0.022518
-0.077752
-0.151526
-0.248160
-0.404800
-0.533126
-0.596509
-0.691584
-0.821728
-0.920440
-0.969277
-1.034998
-1.162025
-1.228526
-1.172156
-1.127476
-1.172156
-1.199952
-1.153713
-1.106695
-1.092148
-1.093187
-1.054742
-0.989021
-1.000451
-1.024869
-0.955771
-0.859137
-0.793156
-0.707953
-0.568457
-0.426624
-0.348174
-0.321678
-0.279596
-0.232578
-0.242969
-0.262451
-0.189976
-0.005022
0.203052
0.409827
0.638943
0.794803
0.841821
0.839483
0.815065
0.755318
0.588287
0.380473
0.274227
0.203311
0.106677
0.071348
0.123302
0.148759
0.100442
0.065633
0.054203
0.052385
0.071607
0.059918
-0.010739
-0.095943
-0.173874
-0.267910
-0.322202
-0.305057
-0.279860
-0.263494
-0.263495
-0.238557
-0.182707
-0.175693
-0.181408
-0.129974
-0.088931
-0.158030
-0.299084
-0.431046
-0.561190
-0.756016
-0.995522
-1.132420
-1.165930
-1.188010
-1.230612
-1.285164
-1.292957
-1.288801
-1.277371
-1.167749
-0.991627
-0.824336
-0.677048
-0.502744
-0.306619
-0.201933
-0.161409
-0.085037
-0.002431
0.021987
-0.051008
-0.135952
-0.152578
-0.162969
-0.193362
-0.210506
-0.179854
-0.127121
-0.083740
-0.022175
0.044845
0.057573
-0.024773
-0.145565
-0.202455
-0.208170
-0.245317
-0.293114
-0.285321
-0.288958
-0.333378
-0.316753
-0.236745
-0.174401
-0.168946
-0.173622
-0.127643
-0.103744
-0.154399
-0.164530
-0.091016
-0.064780
-0.090757
-0.016723
0.152126
0.250318
0.237849
0.250838
0.339159
0.412413
0.446442
0.482031
0.540478
0.573209
0.506968
0.417867
0.413971
0.419166
0.309544
0.163554
0.110042
0.096534
0.036267
-0.062704
-0.104267
-0.084785
-0.143233
-0.247400
-0.275195
-0.274676
-0.326629
-0.407937
-0.442746
-0.419627
-0.404300
-0.419887
-0.431316
-0.426641
-0.435733
-0.491063
-0.545615
-0.519378
-0.477296
-0.475997
-0.405341
-0.223503
-0.054135
0.003534
0.046655
0.184072
0.312657
0.336556
0.352661
0.447217
0.531122
0.549825
0.589309
0.701269
0.809592
0.803877
0.730882
0.681267
0.593465
0.431370
0.277587
0.218100
0.219918
0.182771
0.140169
0.168743
0.213164
0.192122
0.138350
0.124582
0.145104
0.143545
0.110035
0.119906
0.217319
0.346164
0.441239
0.520728
0.584111
0.574239
0.525923
0.495270
0.480463
0.439679
0.360710
0.335772
0.378893
0.388504
0.341227
0.324342
0.345383
0.283038
0.154713
0.092109
0.109253
0.107694
0.033401
-0.038815
-0.066610
-0.086353
-0.098822
-0.066091
0.032101
0.144061
0.226667
0.307195
0.389801
0.428506
0.441754
0.482278
0.569040
0.676584
0.703340
0.673207
0.704119
0.742565
0.714769
0.708015
0.753994
0.756851
0.731654
0.710093
0.651905
0.593717
0.581767
0.610861
0.695545
0.776853
0.759968
0.701000
0.688531
0.704377
0.669568
0.609302
0.628524
0.684115
0.674243
0.598910
0.531890
0.523577
0.510069
0.420449
0.344077
0.359404
0.370054
0.329270
0.311866
0.349012
0.392134
0.369534
0.301475
0.296279
0.314463
0.254976
0.218868
0.306669
0.401744
0.399406
0.441489
0.634496
0.814775
0.870105
0.884392
0.944658
1.006483
0.987780
0.933488
0.927773
0.955568
0.894263
0.736324
0.626182
0.562798
0.469022
0.340956
0.211852
0.103528
-0.060645
-0.296774
-0.473936
-0.568752
-0.661749
-0.748251
-0.793971
-0.815532
-0.880214
-0.990096
-1.042829
-1.059974
-1.128033
-1.205964
-1.229343
-1.201548
-1.200769
-1.244669
-1.246748
-1.184144
-1.118163
-1.115825
-1.149335
-1.143361
-1.127255
-1.168299
-1.242592
-1.269608
-1.294286
-1.406766
-1.518726
-1.530416
-1.467812
-1.394557
-1.300262
-1.113749
-0.862293
-0.628502
-0.409778
-0.180922
-0.009995
0.052089
0.065597
0.081183
0.082741
0.064298
0.064298
0.109237
0.186908
0.238342
0.257305
0.259902
0.216781
0.136512
0.048711
0.015460
0.075207
0.154955
0.174438
0.167943
0.221196
0.316011
0.370562
0.396799
0.480184
0.584611
0.603833
0.577597
0.596040
0.635784
0.633446
0.618639
0.672151
0.770344
0.829311
0.877108
0.977119
1.094014
1.185972
1.280008
1.360276
1.346248
1.226235
1.093753
1.009329
0.894251
0.725662
0.606688
0.548500
0.475765
0.373156
0.281978
0.217815
0.120921
-0.044811
-0.189761
-0.245612
-0.278342
-0.338609
-0.360170
-0.321204
-0.283798
-0.282240
-0.323543
-0.359131
-0.371081
-0.398356
-0.433165
-0.434204
-0.412124
-0.448232
-0.516032
-0.548763
-0.590845
-0.655268
-0.708780
-0.717612
-0.683583
-0.659165
-0.651112
-0.605393
-0.541230
-0.544088
-0.571624
-0.535516
-0.480445
-0.477328
-0.512916
-0.520710
-0.471873
-0.452131
-0.509540
-0.525646
-0.440442
-0.359654
-0.358615
-0.354719
-0.315754
-0.346926
-0.424077
-0.442261
-0.375761
-0.292895
-0.281205
-0.287440
-0.237045
-0.167168
-0.139113
-0.115994
-0.052091
0.017267
0.062986
0.090781
0.166114
0.269761
0.274177
0.225600
0.261968
0.337820
0.343015
0.290802
0.255473
0.180140
0.005316
-0.165871
-0.293417
-0.399143
-0.500193
-0.593709
-0.595268
-0.518896
-0.503051
-0.533184
-0.471879
-0.377323
-0.323811
-0.244063
-0.140415
-0.030274
0.057268
0.105065
0.186632
0.312100
0.400681
0.427696
0.482767
0.588492
0.656811
0.690581
0.767212
0.857871
0.864885
0.782798
0.722792
0.713700
0.669539
0.583556
0.528485
0.596024
0.698113
0.702529
0.723570
0.805916
0.843323
0.786433
0.738636
0.793187
0.832412
0.764353
0.692397
0.698371
0.716295
0.699670
0.680187
0.709281
0.777340
0.811889
0.819422
0.827475
0.829813
0.789029
0.703565
0.672653
0.692135
0.644857
0.552380
0.552640
0.619400
0.616542
0.562510
0.542508
0.558614
0.564069
0.552119
0.572121
0.615243
0.584590
0.509777
0.509517
0.546144
0.503802
0.378593
0.319626
0.349759
0.358331
0.343524
0.325860
0.347420
0.405089
0.439118
0.465355
0.505099
0.533673
0.513152
0.468212
0.474186
0.493669
0.429766
0.317026
0.228445
0.146358
0.005045
-0.192379
-0.362267
-0.531377
-0.736334
-0.881024
-0.937654
-0.982854
-1.066759
-1.131961
-1.079228
-0.961813
-0.914795
-0.908301
-0.839463
-0.761532
-0.740491
-0.737114
-0.730361
-0.725685
-0.732958
-0.747246
-0.728802
-0.678408
-0.669316
-0.708541
-0.650093
-0.470594
-0.379675
-0.440980
-0.473711
-0.385131
-0.283821
-0.243817
-0.207709
-0.124064
-0.057564
-0.037822
0.014651
0.119078
0.190254
0.118039
0.022184
0.025561
-0.022496
-0.167966
-0.331620
-0.440203
-0.500729
-0.582037
-0.642563
-0.650876
-0.662305
-0.724910
-0.750627
-0.696855
-0.658929
-0.690881
-0.759200
-0.718676
-0.616847
-0.639447
-0.705948
-0.721274
-0.730626
-0.759980
-0.809855
-0.776865
-0.654514
-0.635292
-0.679193
-0.623083
-0.577883
-0.638669
-0.654775
-0.565155
-0.495537
-0.512422
-0.583859
-0.605939
-0.565156
-0.588275
-0.607758
-0.529048
-0.433714
-0.385137
-0.420206
-0.452157
-0.443585
-0.492422
-0.545415
-0.549831
-0.506969
-0.431637
-0.406959
-0.399945
-0.333185
-0.294999
-0.367734
-0.449301
-0.487487
-0.590096
-0.754010
-0.849085
-0.891947
-0.983905
-1.102878
-1.159508
-1.123920
-1.074824
-1.060796
-1.037158
-0.984685
-0.913249
-0.830902
-0.756609
-0.676081
-0.583084
-0.544639
-0.542561
-0.457357
-0.352151
-0.384622
-0.470605
-0.489309
-0.513208
-0.593476
-0.661016
-0.676862
-0.670887
-0.666471
-0.699722
-0.737388
-0.704657
-0.665692
-0.682837
-0.670109
-0.578670
-0.531912
-0.578151
-0.565163
-0.478920
-0.469828
-0.550097
-0.570878
-0.509054
-0.502300
-0.552435
-0.533212
-0.421512
-0.346440
-0.360207
-0.378131
-0.356571
-0.317346
-0.340985
-0.379171
-0.316567
-0.239416
-0.257600
-0.299423
-0.238897
-0.134470
-0.115248
-0.147979
-0.160707
-0.151616
-0.140186
-0.131873
-0.101221
-0.080180
-0.165903
-0.304879
-0.357872
-0.380992
-0.476846
-0.580494
-0.609588
-0.618680
-0.707261
-0.839483
-0.890138
-0.858186
-0.844159
-0.865720
-0.851952
-0.778178
-0.744149
-0.781815
-0.775061
-0.716873
-0.683623
-0.676869
-0.651932
-0.591666
-0.584133
-0.670895
-0.742591
-0.724927
-0.704406
-0.755061
-0.779479
-0.739215
-0.707523
-0.717654
-0.720772
-0.654012
-0.596863
-0.614787
-0.639725
-0.596863
-0.521790
-0.501009
-0.488021
-0.431911
-0.382815
-0.372424
-0.392427
-0.403337
-0.411909
-0.460486
-0.503088
-0.492698
-0.494776
-0.551405
-0.610633
-0.620504
-0.585955
-0.565433
-0.518415
-0.380479
-0.252154
-0.206175
-0.177860
-0.090838
0.025278
0.090480
0.133082
0.205557
0.285825
0.326349
0.312581
0.319854
0.370509
0.408954
0.440906
0.484287
0.546631
0.577803
0.570270
0.611832
0.671839
0.677553
0.622742
0.542734
0.468180
0.379079
0.290758
0.229713
0.220361
0.220361
0.136975
0.045277
0.033068
0.043978
0.013065
0.003714
0.078786
0.156717
0.209969
0.310759
0.465840
0.580138
0.591827
0.564032
0.559876
0.559876
0.500648
0.391805
0.306601
0.206591
0.018519
-0.200726
-0.343338
-0.433998
-0.578169
-0.747018
-0.834300
-0.871967
-0.930155
-0.978472
-1.020295
-1.078223
-1.149659
-1.233564
-1.284479
-1.304741
-1.343187
-1.386049
-1.358254
-1.263958
-1.221356
-1.242138
-1.217460
-1.149661
-1.125762
-1.130958
-1.112774
-1.052508
-0.978214
-0.943406
-0.893790
-0.782090
-0.709875
-0.727799
-0.721045
-0.645972
-0.576095
-0.532454
-0.483877
-0.384126
-0.289311
-0.266452
-0.254762
-0.188522
-0.084095
-0.015516
0.057218
0.199052
0.328935
0.373615
0.375174
0.413879
0.428426
0.354392
0.293347
0.303218
0.306594
0.258018
0.227105
0.253861
0.276721
0.209181
0.118002
0.150733
0.209180
0.178268
0.132029
0.150473
0.226325
0.254120
0.246327
0.307112
0.399330
0.434138
0.448166
0.535188
0.639874
0.683255
0.695724
0.789240
0.955752
1.041475
1.078622
1.143823
1.216818
1.226689
1.188763
1.212142
1.243314
1.264615
1.296566
1.348519
1.441776
1.487235
1.490093
1.508536
1.562048
1.608806
1.564905
1.512432
1.538668
1.584907
1.605688
1.638419
1.699464
1.747521
1.748300
1.730116
1.764146
1.840777
1.856104
1.810125
1.809605
1.834802
1.835581
1.814021
1.797136
1.836620
1.857142
1.838958
1.880261
1.945462
1.949099
1.890391
1.802849
1.710632
1.591658
1.432160
1.326435
1.289288
1.197070
1.078356
1.032637
1.014972
0.958343
0.886647
0.872619
0.889764
0.856773
0.772089
0.672857
0.606616
0.568690
0.504008
0.469458
0.533621
0.558818
0.492318
0.474913
0.514917
0.529204
0.499071
0.461145
0.438805
0.404255
0.333858
0.280865
0.324766
0.373083
0.329701
0.300347
0.345807
0.372822
0.347625
0.356717
0.434387
0.521669
0.579078
0.644539
0.737016
0.794685
0.805854
0.817804
0.846378
0.866900
0.833130
0.751043
0.704544
0.706882
0.660124
0.576738
0.572841
0.625834
0.619340
0.556995
0.561671
0.629990
0.630249
0.564528
0.527641
0.552578
0.564528
0.481662
0.399575
0.399315
0.381391
0.304499
0.266573
0.283718
0.255143
0.162666
0.105776
0.151236
0.225010
0.231244
0.239556
0.339047
0.442175
0.486335
0.553096
0.662977
0.745583
0.749480
0.717528
0.747142
0.818318
0.831566
0.781950
0.761169
0.772858
0.722463
0.619335
0.557510
0.554393
0.528676
0.477242
0.486333
0.537767
0.552834
0.493347
0.457758
0.508413
0.518024
0.482696
0.475682
0.471525
0.457758
0.446068
0.471006
0.540883
0.568418
0.489708
0.390997
0.357746
0.315144
0.200586
0.082392
0.013293
-0.080223
-0.270373
-0.456108
-0.561833
-0.689379
-0.873815
-1.024480
-1.103190
-1.182679
-1.318538
-1.427641
-1.440889
-1.411535
-1.418809
-1.427381
-1.339580
-1.229698
-1.195149
-1.167354
-1.065006
-0.917458
-0.833293
-0.811213
-0.763416
-0.705228
-0.707046
-0.754844
-0.768871
-0.760559
-0.796926
-0.861349
-0.881351
-0.838490
-0.818228
-0.843685
-0.820046
-0.755884
-0.749650
-0.826021
-0.887587
-0.847323
-0.779004
-0.760560
-0.734064
-0.656134
-0.592751
-0.575866
-0.561319
-0.531446
-0.535862
-0.578984
-0.580023
-0.548072
-0.550410
-0.580803
-0.571451
-0.484948
-0.412473
-0.423643
-0.426761
-0.366235
-0.370391
-0.477676
-0.568595
-0.584440
-0.568335
-0.588597
-0.613015
-0.609119
-0.618211
-0.674581
-0.773293
-0.839274
-0.855380
-0.888370
-0.934609
-0.935648
-0.908892
-0.922920
-0.949416
-0.911490
-0.830962
-0.802648
-0.871486
-0.956171
-0.992538
-1.068910
-1.205289
-1.289454
-1.312313
-1.372839
-1.490254
-1.565847
-1.583511
-1.622477
-1.678067
-1.637284
-1.477267
-1.353098
-1.314133
-1.244775
-1.115670
-1.023713
-1.021894
-1.063977
-1.098266
-1.123984
-1.185289
-1.263219
-1.281403
-1.295431
-1.360892
-1.413366
-1.425055
-1.431809
-1.464540
-1.472593
-1.424017
-1.381675
-1.396222
-1.432849
-1.418562
-1.403496
-1.453631
-1.509481
-1.495714
-1.433629
-1.411549
-1.399860
-1.318293
-1.196721
-1.110219
-1.049433
-0.941889
-0.824994
-0.742648
-0.680044
-0.608867
-0.512494
-0.487816
-0.547822
-0.563149
-0.525223
-0.558733
-0.622636
-0.576397
-0.531198
-0.571982
-0.610427
-0.620818
-0.625754
-0.671993
-0.752261
-0.781096
-0.770965
-0.783693
-0.789408
-0.736156
-0.617442
-0.516133
-0.500027
-0.463400
-0.378197
-0.348583
-0.362871
-0.352740
-0.314294
-0.321048
-0.376379
-0.413786
-0.449374
-0.506263
-0.554320
-0.536397
-0.460544
-0.413007
-0.417423
-0.435088
-0.430931
-0.402617
-0.406254
-0.425217
-0.344429
-0.199739
-0.116873
-0.094013
-0.050372
0.034312
0.066523
0.008075
-0.006992
0.042104
-0.010369
-0.129083
-0.164931
-0.150124
-0.153242
-0.179738
-0.226237
-0.284685
-0.362355
-0.474575
-0.578223
-0.644983
-0.741617
-0.859292
-0.906310
-0.910466
-0.979305
-1.081394
-1.083732
-1.014114
-1.006581
-1.055418
-1.059314
-1.007880
-1.006322
-1.102436
-1.164781
-1.142960
-1.177769
-1.257258
-1.261934
-1.222190
-1.224008
-1.271806
-1.270247
-1.186342
-1.148157
-1.188421
-1.160106
-1.046068
-0.995154
-1.030223
-1.018533
-0.927615
-0.870985
-0.871765
-0.828903
-0.703695
-0.573551
-0.518221
-0.469125
-0.366517
-0.305212
-0.333527
-0.371713
-0.354828
-0.363400
-0.459514
-0.549654
-0.543420
-0.476919
-0.460554
-0.468347
-0.384182
-0.267547
-0.253260
-0.274821
-0.186240
-0.055836
0.010924
0.049369
0.121065
0.206788
0.229908
0.226531
0.247312
0.292252
0.335373
0.310435
0.268353
0.240557
0.179772
0.087294
0.013780
-0.002066
-0.051682
-0.130392
-0.144160
-0.147537
-0.185723
-0.275863
-0.402629
-0.456661
-0.441595
-0.450947
-0.480560
-0.474326
-0.466013
-0.476145
-0.431724
-0.319245
-0.179750
-0.127796
-0.126757
-0.006225
0.113788
0.129114
0.151713
0.236398
0.348877
0.415118
0.432782
0.497724
0.596955
0.573056
0.460836
0.446029
0.489930
0.434340
0.295364
0.216134
0.200808
0.139762
0.038972
-0.056103
-0.141567
-0.221316
-0.328600
-0.404712
-0.420818
-0.489137
-0.569405
-0.608371
-0.650453
-0.676690
-0.717993
-0.749945
-0.705265
-0.706564
-0.814367
-0.835149
-0.699810
-0.576940
-0.545248
-0.531481
-0.448355
-0.334577
-0.300288
-0.298989
-0.226254
-0.125204
-0.094812
-0.130660
-0.165988
-0.205733
-0.305224
-0.398221
-0.402637
-0.390688
-0.439265
-0.496414
-0.486543
-0.435109
-0.405236
-0.397962
-0.342112
-0.281846
-0.298991
-0.308862
-0.323669
-0.360557
-0.391469
-0.484986
-0.571229
-0.584737
-0.585776
-0.628638
-0.679552
-0.663187
-0.686826
-0.816191
-0.898277
-0.904772
-0.942178
-0.946335
-0.827881
-0.680073
-0.630717
-0.686308
-0.678515
-0.576686
-0.560580
-0.639550
-0.670982
-0.546553
-0.388874
-0.368612
-0.354585
-0.244703
-0.155343
-0.136900
-0.098454
0.015064
0.140532
0.176380
0.161573
0.233528
0.329642
0.335617
0.333279
0.423938
0.507323
0.476930
0.443940
0.488360
0.559276
0.599280
0.597981
0.611229
0.661365
0.686042
0.685263
0.743970
0.834370
0.840344
0.801379
0.815146
0.816185
0.767089
0.707602
0.678508
0.721370
0.733059
0.654869
0.603954
0.593044
0.564729
0.539271
0.541869
0.570703
0.583432
0.588887
0.653829
0.749683
0.773841
0.737733
0.747344
0.814624
0.878008
0.878787
