EVENT_NAME: 202302060117
EVENT_ID: 13194
EVENT_DATE_YYYYMMDD: 2023/02/06
EVENT_TIME_HHMMSS: 01:17:32.00000
EVENT_LATITUDE_DEGREE: 37.288
EVENT_LONGITUDE_DEGREE: 37.043
EVENT_DEPTH_KM: 8.6
HYPOCENTER_REFERENCE: AFAD
MAGNITUDE_W: 7.7
MAGNITUDE_W_REFERENCE: AFAD
MAGNITUDE_L: 
MAGNITUDE_L_REFERENCE: 
FOCAL_MECHANISM: 
NETWORK: TK
STATION_CODE: 6005
STATION_NAME: 
STATION_LATITUDE_DEGREE: 40.69804
STATION_LONGITUDE_DEGREE: 36.56921
STATION_ELEVATION_M: 198.0
LOCATION: Kahramanmaras_Pazarck_Turkiye
SENSOR_DEPTH_M: 
VS30_M/S: 327
SITE_CLASSIFICATION_EC8: unknown
MORPHOLOGIC_CLASSIFICATION: 
EPICENTRAL_DISTANCE_KM: 381.38
EARTHQUAKE_BACKAZIMUTH_DEGREE: 
DATE_TIME_FIRST_SAMPLE_YYYYMMDD_HHMMSS: 2023/02/06 01:18:00.6570890
DATE_TIME_FIRST_SAMPLE_PRECISION: millisecond
SAMPLING_INTERVAL_S: 0.01
NDATA: 21001
DURATION_S: 
STREAM: HNN
UNITS: cm/s^2
INSTRUMENT: sensor = CMG-5T/GURALP | digitizer = 
INSTRUMENT_ANALOG/DIGITAL: 
INSTRUMENTAL_FREQUENCY_HZ: 
INSTRUMENTAL_DAMPING: 
FULL_SCALE_G: 
N_BIT_DIGITAL_CONVERTER: 
PGA_CM/S^2: 8.434
TIME_PGA_S: 
BASELINE_CORRECTION: BASELINE REMOVED
FILTER_TYPE: BUTTERWORTH
FILTER_ORDER: 
LOW_CUT_FREQUENCY_HZ: 
HIGH_CUT_FREQUENCY_HZ: 
LATE/NORMAL_TRIGGERED: 
DATABASE_VERSION: 
HEADER_FORMAT: DYNA 1.2
DATA_TYPE: Acceleration
PROCESSING: Automatic Paolucci et al., 2011
DATA_TIMESTAMP_YYYYMMDD_HHMMSS: 
DATA_LICENSE: U (unknown license)
DATA_CITATION: Turkish Accelerometric Archive v 1.0 - Disaster And Emergency Management Presidency, Earthquake Department
DATA_CREATOR: AFAD
ORIGINAL_DATA_MEDIATOR_CITATION: : AFAD - Disaster And Emergency Management Presidency
ORIGINAL_DATA_MEDIATOR: AFAD PROCESS SERVICE
ORIGINAL_DATA_CREATOR_CITATION: AFAD PROCESS SERVICE
ORIGINAL_DATA_CREATOR: network: TK
USER1: GuestUser
USER2: 
USER3: 
USER4: 
USER5: 
[...]
0.431711
0.553247
0.675097
0.795694
0.914411
1.046911
1.181290
1.314730
1.456314
1.610114
1.754517
1.913329
2.069322
2.235338
2.396030
2.551710
2.699872
2.827360
2.943258
3.026266
3.103009
3.154693
3.195414
3.219846
3.227989
3.222664
3.194785
3.154376
3.103317
3.045994
2.975514
2.898143
2.809809
2.713017
2.606201
2.494374
2.379728
2.270719
2.161711
2.060534
1.964682
1.877601
1.793025
1.704065
1.615730
1.527083
1.436869
1.358558
1.283693
1.220731
1.175624
1.137721
1.115794
1.076952
1.040615
0.992376
0.941004
0.882114
0.824790
0.772479
0.726432
0.677566
0.618363
0.550389
0.464560
0.377479
0.282254
0.189534
0.087417
-0.011881
-0.118383
-0.230837
-0.358639
-0.488635
-0.616124
-0.727638
-0.816286
-0.888958
-0.942523
-0.988256
-1.023026
-1.040569
-1.055918
-1.061870
-1.056546
-1.035872
-1.007682
-0.969467
-0.933132
-0.896796
-0.844173
-0.793428
-0.706975
-0.615509
-0.488961
-0.355521
-0.196083
-0.028813
0.134697
0.304473
0.463285
0.626796
0.778090
0.923746
1.050921
1.168698
1.259850
1.343485
1.404566
1.463141
1.512633
1.556799
1.602531
1.640433
1.671443
1.693369
1.720307
1.756016
1.803001
1.868781
1.958367
2.071446
2.202693
2.330807
2.461115
2.581085
2.687586
2.785316
2.874589
2.951332
3.028075
3.103252
3.169659
3.226668
3.259557
3.270207
3.248279
3.219774
3.177486
3.125174
3.088524
3.051561
3.032140
3.008646
2.985779
2.954768
2.918118
2.870818
2.823205
2.773086
2.711377
2.654367
2.584827
2.517793
2.427266
2.322643
2.197660
2.053255
1.896321
1.713702
1.511661
1.303983
1.069679
0.822218
0.573818
0.314768
0.061043
-0.179526
-0.402240
-0.598642
-0.779382
-0.940075
-1.086046
-1.229197
-1.356373
-1.485115
-1.600388
-1.716601
-1.821224
-1.917389
-2.004157
-2.083408
-2.142297
-2.183019
-2.196176
-2.178948
-2.135722
-2.059918
-1.971899
-1.863518
-1.755138
-1.646444
-1.536497
-1.428117
-1.322556
-1.215428
-1.116132
-1.017775
-0.936960
-0.863975
-0.807593
-0.768439
-0.740248
-0.724273
-0.718948
-0.721455
-0.733046
-0.755913
-0.789430
-0.834537
-0.875886
-0.924125
-0.964534
-1.010267
-1.046604
-1.087639
-1.138071
-1.194142
-1.255851
-1.309729
-1.351703
-1.374884
-1.380210
-1.355777
-1.311611
-1.253662
-1.184750
-1.113332
-1.030324
-0.936040
-0.839876
-0.737760
-0.639716
-0.561407
-0.483724
-0.410427
-0.344960
-0.277614
-0.218412
-0.161090
-0.117237
-0.077456
-0.043940
-0.018882
0.009309
0.045645
0.084172
0.127086
0.167180
0.206334
0.246428
0.279318
0.312207
0.336640
0.351988
0.354180
0.341336
0.317843
0.284325
0.247989
0.209460
0.166232
0.137413
0.106402
0.095125
0.113292
0.161530
0.247044
0.357617
0.486671
0.615099
0.735696
0.833426
0.915181
0.975636
1.019802
1.044234
1.053004
1.041414
1.008836
0.954332
0.884792
0.813686
0.746965
0.698099
0.667088
0.660509
0.675231
0.709060
0.752286
0.797706
0.834354
0.855654
0.865990
0.857845
0.825894
0.782040
0.714693
0.634189
0.544289
0.446870
0.348826
0.251407
0.161507
0.073173
-0.007644
-0.088461
-0.168651
-0.244142
-0.309297
-0.368500
-0.413920
-0.446184
-0.462474
-0.468739
-0.463101
-0.447753
-0.430526
-0.416744
-0.416118
-0.421757
-0.440865
-0.464985
-0.491924
-0.516984
-0.535779
-0.539226
-0.525444
-0.497253
-0.455592
-0.403282
-0.343767
-0.282686
-0.223797
-0.170547
-0.124815
-0.081588
-0.037422
0.002985
0.040260
0.079101
0.116063
0.156470
0.195938
0.234153
0.274247
0.310269
0.343158
0.363832
0.385131
0.405805
0.431490
0.466259
0.501967
0.547386
0.576830
0.589046
0.583094
0.553649
0.511047
0.451218
0.387630
0.323102
0.258260
0.195298
0.143926
0.096313
0.051206
0.007352
-0.033057
-0.075971
-0.128283
-0.188426
-0.256086
-0.317482
-0.391720
-0.459068
-0.530487
-0.603472
-0.669254
-0.750070
-0.829947
-0.919847
-1.026663
-1.142249
-1.281328
-1.438262
-1.598642
-1.769985
-1.941641
-2.105153
-2.259267
-2.403985
-2.534607
-2.652386
-2.767659
-2.870402
-2.962182
-3.039866
-3.107527
-3.162657
-3.198681
-3.220608
-3.232825
-3.234705
-3.231573
-3.223430
-3.206515
-3.194613
-3.183650
-3.163603
-3.142304
-3.121317
-3.103150
-3.095320
-3.103151
-3.130090
-3.168620
-3.218425
-3.278881
-3.349988
-3.424853
-3.501597
-3.580221
-3.668242
-3.753131
-3.825176
-3.870910
-3.884693
-3.874670
-3.840214
-3.787904
-3.723690
-3.648513
-3.556108
-3.452113
-3.325565
-3.183355
-3.009507
-2.818118
-2.626729
-2.433774
-2.250529
-2.073862
-1.906906
-1.754045
-1.609642
-1.464926
-1.323342
-1.183638
-1.053331
-0.933360
-0.840642
-0.772983
-0.720672
-0.704698
-0.707204
-0.720674
-0.741035
-0.757011
-0.769541
-0.780819
-0.785518
-0.780193
-0.773303
-0.761087
-0.744173
-0.718488
-0.681213
-0.637673
-0.580664
-0.520522
-0.451924
-0.373927
-0.294678
-0.199141
-0.106109
-0.013704
0.090291
0.203370
0.325220
0.449576
0.584581
0.726479
0.875580
1.035645
1.196963
1.376449
1.561260
1.753902
1.949363
2.131355
2.298311
2.443341
2.579600
2.692679
2.787277
2.867779
2.937944
2.999965
3.057600
3.113356
3.174751
3.249928
3.329177
3.416883
3.497699
3.561912
3.612343
3.633643
3.641787
3.640533
3.633641
3.624870
3.613279
3.600749
3.576002
3.546244
3.501450
3.461355
3.417814
3.371453
3.342321
3.317262
3.312562
3.326971
3.363933
3.428146
3.518045
3.626113
3.753287
3.892679
4.033323
4.165509
4.297696
4.426437
4.544528
4.653222
4.733724
4.793239
4.811406
4.799815
4.760033
4.687361
4.597774
4.487199
4.362842
4.251955
4.128851
4.003867
3.900184
3.802453
3.710360
3.637687
3.557497
3.470416
3.391479
3.294687
3.194763
3.079803
2.966723
2.826704
2.682613
2.531004
2.357782
2.187378
2.010710
1.830284
1.646098
1.450635
1.257052
1.059084
0.853911
0.669099
0.482721
0.314823
0.160082
0.008160
-0.142196
-0.286287
-0.429751
-0.570084
-0.708850
-0.839785
-0.967587
-1.086619
-1.205964
-1.315285
-1.418029
-1.530483
-1.629780
-1.739728
-1.850929
-1.955239
-2.049838
-2.135353
-2.206146
-2.264409
-2.320166
-2.380309
-2.446403
-2.527533
-2.626831
-2.734586
-2.844847
-2.957927
-3.078526
-3.208521
-3.360443
-3.535545
-3.730067
-3.955288
-4.202748
-4.464304
-4.737450
-5.006210
-5.264634
-5.511155
-5.730423
-5.929958
-6.110071
-6.256355
-6.388543
-6.507262
-6.616896
-6.716194
-6.822696
-6.920741
-7.020978
-7.119336
-7.203285
-7.280970
-7.342365
-7.384027
-7.409087
-7.417858
-7.404076
-7.390607
-7.362730
-7.335792
-7.306661
-7.270326
-7.225846
-7.171343
-7.099925
-7.005014
-6.898826
-6.774470
-6.633826
-6.481592
-6.314949
-6.118548
-5.909618
-5.678134
-5.417519
-5.144374
-4.854628
-4.556424
-4.254775
-3.951246
-3.643331
-3.335104
-3.024370
-2.718022
-2.411674
-2.107519
-1.805556
-1.499208
-1.211341
-0.929112
-0.647823
-0.373739
-0.118136
0.133082
0.386493
0.628000
0.865122
1.098799
1.328716
1.563646
1.784793
2.007506
2.220821
2.418789
2.610178
2.766484
2.911513
3.026158
3.113865
3.194367
3.256075
3.293976
3.323420
3.335949
3.321226
3.293660
3.268287
3.227252
3.189663
3.154579
3.117930
3.069377
3.022077
2.975403
2.918706
2.876732
2.846347
2.834443
2.836322
2.868585
2.902727
2.957544
3.020504
3.080333
3.153630
3.222542
3.276106
3.356295
3.395449
3.460915
3.509780
3.564910
3.620979
3.672663
3.738756
3.775718
3.874388
3.909157
3.993731
4.054499
4.125604
4.187311
4.252465
4.323883
4.373374
4.448864
4.517777
4.611121
4.683166
4.800317
4.894602
5.002669
5.113242
5.207527
5.302751
5.370724
5.424600
5.475658
5.512619
5.564930
5.620373
5.680514
5.750992
5.794219
5.849975
5.872841
5.890069
5.899778
5.870646
5.854671
5.811756
5.753493
5.684266
5.594679
5.502899
5.409553
5.329989
5.240715
5.142044
5.053396
4.962556
4.889257
4.818464
4.746105
4.691914
4.640229
4.595122
4.544689
4.510232
4.456041
4.416572
4.381489
4.344526
4.316334
4.286262
4.262768
4.238022
4.212649
4.185083
4.164408
4.127132
4.090796
4.015618
3.940439
3.818588
3.674184
3.507540
3.316149
3.111603
2.888262
2.657404
2.399920
2.140870
1.870856
1.603035
1.341792
1.103416
0.869738
0.660180
0.443731
0.244823
0.039650
-0.151114
-0.334986
-0.512594
-0.690828
-0.849642
-1.032575
-1.212375
-1.402825
-1.594216
-1.781534
-1.947239
-2.093522
-2.219759
-2.285540
-2.400813
-2.366983
-2.409898
-2.348503
-2.290868
-2.218510
-2.108250
-2.055313
-1.904019
-1.830408
-1.688511
-1.538157
-1.389681
-1.229930
-1.039794
-0.901342
-0.743783
-0.599380
-0.463121
-0.318405
-0.165544
-0.019262
0.129840
0.249184
0.352552
0.439319
0.482545
0.553964
0.585913
0.638224
0.667041
0.702750
0.698991
0.708074
0.711206
0.679881
0.672676
0.649182
0.634773
0.624748
0.598749
0.568677
0.527015
0.487860
0.445885
0.389501
0.330611
0.268903
0.196543
0.120426
0.046500
-0.048412
-0.133927
-0.224454
-0.321246
-0.414592
-0.517962
-0.607549
-0.685860
-0.771062
-0.828072
-0.884456
-0.933322
-0.956189
-0.979683
-0.998165
-0.993467
-1.005997
-1.009130
-1.020407
-1.039516
-1.063636
-1.095274
-1.109996
-1.132550
-1.130672
-1.120335
-1.094337
-1.064580
-1.011330
-0.965910
-0.908275
-0.852206
-0.793317
-0.723465
-0.660505
-0.587207
-0.515789
-0.433407
-0.358544
-0.263946
-0.194720
-0.120483
-0.061281
-0.003019
0.043339
0.073410
0.117263
0.137310
0.168007
0.189306
0.218750
0.220942
0.228459
0.230025
0.211856
0.204651
0.182724
0.166748
0.140748
0.110363
0.087183
0.044582
0.013884
-0.009297
-0.042501
-0.055344
-0.086356
-0.101392
-0.116115
-0.126452
-0.120815
-0.104840
-0.087299
-0.065373
-0.035929
-0.018075
0.001345
0.001345
-0.007740
-0.034053
-0.086678
-0.157157
-0.253636
-0.381125
-0.519265
-0.678391
-0.842530
-1.025149
-1.204323
-1.399786
-1.601826
-1.808565
-2.020003
-2.220790
-2.420325
-2.598246
-2.773034
-2.925270
-3.064036
-3.196224
-3.297087
-3.388867
-3.490984
-3.550814
-3.628498
-3.710254
-3.796396
-3.880971
-3.967426
-4.072049
-4.157877
-4.249971
-4.318884
-4.376834
-4.433531
-4.488662
-4.530950
-4.571359
-4.606755
-4.644345
-4.688825
-4.724222
-4.736126
-4.770270
-4.809425
-4.817570
-4.839498
-4.825403
-4.822271
-4.814440
-4.789695
-4.770588
-4.742084
-4.716399
-4.669413
-4.602694
-4.520312
-4.424775
-4.307937
-4.188906
-4.052334
-3.911064
-3.735963
-3.557417
-3.344101
-3.103847
-2.867038
-2.604230
-2.350193
-2.068278
-1.781664
-1.471870
-1.148294
-0.801851
-0.455408
-0.111784
0.236225
0.561994
0.882751
1.190979
1.489182
1.771411
2.042676
2.287943
2.519426
2.728357
2.915674
3.079498
3.222648
3.355774
3.455071
3.538705
3.597280
3.643952
3.672770
3.678721
3.672769
3.641444
3.591012
3.524604
3.446294
3.362345
3.280275
3.197579
3.115823
3.021850
2.923805
2.814797
2.689187
2.566397
2.449557
2.349007
2.261925
2.197084
2.137881
2.088389
2.052052
2.014463
2.002559
2.007257
2.041086
2.083060
2.144767
2.209607
2.264737
2.339288
2.402248
2.476799
2.549470
2.618069
2.680403
2.730521
2.786590
2.832009
2.879934
2.941329
2.981736
3.021830
3.050647
3.052213
3.049706
3.041562
3.022453
3.003658
2.986116
2.946021
2.892143
2.821037
2.742100
2.629019
2.512180
2.399726
2.258455
2.120942
1.975911
1.813652
1.658284
1.517952
1.363211
1.238227
1.119822
0.995152
0.889276
0.775256
0.661236
0.550035
0.454810
0.358018
0.278768
0.190746
0.115881
0.051353
-0.029463
-0.078642
-0.154760
-0.217409
-0.266902
-0.346778
-0.421017
-0.508098
-0.590481
-0.668478
-0.747102
-0.802860
-0.857051
-0.889315
-0.915315
-0.940688
-0.934424
-0.928160
-0.919703
-0.907800
-0.896211
-0.890260
-0.903730
-0.929103
-0.975776
-1.016185
-1.071003
-1.140856
-1.194734
-1.275237
-1.350729
-1.424967
-1.505784
-1.572191
-1.637972
-1.702187
-1.757631
-1.820906
-1.888253
-1.965624
-2.035164
-2.114415
-2.199617
-2.271036
-2.361250
-2.426404
-2.501896
-2.570496
-2.626880
-2.672613
-2.723672
-2.774104
-2.805116
-2.879354
-2.929160
-2.976147
-3.062288
-3.116793
-3.201681
-3.283438
-3.346400
-3.428156
-3.477962
-3.532466
-3.560345
-3.579140
-3.595116
-3.590731
-3.602635
-3.591672
-3.570059
-3.543435
-3.479847
-3.416887
-3.330120
-3.244919
-3.168176
-3.092373
-3.043195
-2.991824
-2.966765
-2.939827
-2.922286
-2.915396
-2.903493
-2.904434
-2.902868
-2.901929
-2.907255
-2.913833
-2.918846
-2.922292
-2.921666
-2.914776
-2.909451
-2.897549
-2.891285
-2.889406
-2.880636
-2.876877
-2.883769
-2.891288
-2.892228
-2.922613
-2.963022
-3.021598
-3.093957
-3.179786
-3.275951
-3.384333
-3.500545
-3.613312
-3.748633
-3.881134
-4.040260
-4.206905
-4.389211
-4.570578
-4.767293
-4.956804
-5.123761
-5.320790
-5.450472
-5.606153
-5.752437
-5.841084
-5.965128
-6.033102
-6.086353
-6.133966
-6.127702
-6.122691
-6.087295
-6.030286
-5.973904
-5.906558
-5.845476
-5.775311
-5.718615
-5.685413
-5.630596
-5.609923
-5.577973
-5.530675
-5.496532
-5.424174
-5.332082
-5.222762
-5.115635
-4.935836
-4.766687
-4.579370
-4.329718
-4.101680
-3.846390
-3.579823
-3.308558
-3.031028
-2.750679
-2.470956
-2.189980
-1.903993
-1.624270
-1.354884
-1.082366
-0.809221
-0.539836
-0.256041
0.034019
0.317187
0.622596
0.923619
1.221196
1.521906
1.823869
2.119566
2.415578
2.703131
2.987866
3.268528
3.539480
3.805734
4.050060
4.293447
4.520859
4.749837
4.964406
5.186179
5.405446
5.612184
5.823934
6.019708
6.221434
6.433810
6.608911
6.797794
6.976027
7.140164
7.314325
7.456222
7.593733
7.730619
7.851529
7.979643
8.095228
8.192332
8.282545
8.343312
8.407213
8.423501
8.434463
8.405331
8.367429
8.291311
8.173532
8.044163
7.865616
7.677671
7.470619
7.256362
7.027070
6.805295
6.569112
6.345144
6.122117
5.898776
5.669170
5.451468
5.205574
4.969077
4.747929
4.522709
4.288405
4.061618
3.858951
3.624021
3.432944
3.218373
2.999731
2.808967
2.630733
2.465342
2.314673
2.184051
2.057815
1.950686
1.872689
1.804715
1.759608
1.753029
1.758354
1.784665
1.814735
1.857962
1.898056
1.941596
2.007062
2.065011
2.146140
2.215365
2.297433
2.375743
2.428993
2.500411
2.522024
2.553347
2.615055
2.627271
2.665799
2.677388
2.655460
2.645123
2.599702
2.573390
2.514187
2.471585
2.413009
2.339710
2.254821
2.132657
2.000469
1.853872
1.660289
1.444153
1.260907
0.999038
0.738108
0.494407
0.248199
-0.001454
-0.266142
-0.505145
-0.763255
-1.013221
-1.263188
-1.515033
-1.732422
-1.930391
-2.098601
-2.278088
-2.405891
-2.589137
-2.778335
-2.900186
-3.017338
-3.084685
-3.177092
-3.231909
-3.304582
-3.371929
-3.413277
-3.485949
-3.547658
-3.588067
-3.614380
-3.614380
-3.596213
-3.623466
-3.664187
-3.715559
-3.788232
-3.858085
-3.920420
-4.009068
-4.091451
-4.192941
-4.322310
-4.446353
-4.572277
-4.708850
-4.854194
-4.971346
-5.101028
-5.226012
-5.377934
-5.518892
-5.653586
-5.779509
-5.907312
-5.979984
-6.053910
-6.142557
-6.174508
-6.248747
-6.305131
-6.348045
-6.388767
-6.415393
-6.414767
-6.428863
-6.395347
-6.374674
-6.294172
-6.228706
-6.152589
-6.024161
-5.952743
-5.812725
-5.698080
-5.578736
-5.438092
-5.299014
-5.195646
-5.069097
-4.956645
-4.881781
-4.788123
-4.712633
-4.622107
-4.574808
-4.500258
-4.429153
-4.389685
-4.294774
-4.223043
-4.107771
-3.981536
-3.863759
-3.719982
-3.577458
-3.434622
-3.278942
-3.129214
-3.004232
-2.867346
-2.750822
-2.637116
-2.538133
-2.446354
-2.339540
-2.234605
-2.125912
-2.014399
-1.887224
-1.769133
-1.658560
-1.517289
-1.391994
-1.243519
-1.090658
-0.938111
-0.773661
-0.631764
-0.492059
-0.358933
-0.235204
-0.129956
-0.040370
0.044831
0.113743
0.173571
0.235279
0.289156
0.350863
0.409439
0.471146
0.517505
0.556660
0.594248
0.623692
0.656895
0.701687
0.746793
0.800043
0.865197
0.928157
0.988925
1.065355
1.140219
1.215083
1.302476
1.382665
1.451264
1.510152
1.575932
1.617592
1.681806
1.744453
1.815871
1.903891
1.968105
2.057691
2.136940
2.229345
2.333653
2.434829
2.560438
2.674770
2.809149
2.922541
3.049403
3.185035
3.304692
3.445336
3.559042
3.628581
3.696553
3.785513
3.824041
3.880736
3.901096
3.935239
3.951213
3.951526
3.939936
3.901720
3.880732
3.798036
3.753242
3.666474
3.527395
3.425278
3.327546
3.180636
3.072881
2.946331
2.822914
2.704195
2.605837
2.464252
2.299801
2.217418
2.050774
1.927356
1.775121
1.665800
1.547708
1.437133
1.357883
1.256392
1.203454
1.137360
1.113866
1.063434
1.038061
1.000158
0.960376
0.912137
0.850741
0.778382
0.704143
0.615809
0.530607
0.443526
0.330132
0.236786
0.130910
0.027227
-0.078648
-0.159778
-0.249992
-0.333628
-0.403481
-0.459238
-0.508104
-0.533791
-0.554465
-0.554466
-0.542563
-0.525962
-0.495892
-0.470207
-0.441702
-0.412259
-0.367466
-0.328625
-0.270049
-0.199258
-0.130972
-0.047651
0.043815
0.135906
0.237709
0.346089
0.458855
0.574127
0.693471
0.796213
0.891750
0.996059
1.087524
1.155810
1.228481
1.291128
1.336861
1.368184
1.398568
1.407651
1.397000
1.366928
1.340929
1.295508
1.230041
1.195584
1.159247
1.093153
1.024866
0.997300
0.953446
0.906146
0.865111
0.827208
0.793691
0.787112
0.788365
0.793689
0.817808
0.848505
0.885780
0.939656
0.970667
1.027362
1.087817
1.118827
1.178342
1.232845
1.283276
1.341538
1.414523
1.467146
1.528228
1.614681
1.672317
1.740289
1.840839
1.918521
2.007481
2.107091
2.198556
2.279998
2.372403
2.445387
2.511794
2.547502
2.601692
2.611715
2.621425
2.617039
2.579763
2.555643
2.465116
2.431912
2.305989
2.223919
2.140910
2.046624
1.962675
1.886557
1.823908
1.738080
1.689527
1.614662
1.577073
1.519123
1.497195
1.455221
1.434233
1.411366
1.378788
1.368137
1.349656
1.345583
1.331800
1.340883
1.334617
1.345267
1.365627
1.380662
1.422635
1.485909
1.555135
1.653491
1.753414
1.854277
1.956706
2.068532
2.163443
2.259607
2.361409
2.434081
2.509571
2.580676
2.640817
2.689055
2.747004
2.798688
2.851938
2.878876
2.914272
2.931186
2.930559
2.937136
2.897668
2.848175
2.794610
2.708782
2.648952
2.545896
2.428117
2.333205
2.188487
2.072901
1.908763
1.746504
1.582678
1.395360
1.205223
1.007881
0.793311
0.582187
0.334726
0.112952
-0.117907
-0.347199
-0.555818
-0.794820
-1.030064
-1.288488
-1.512455
-1.810034
-1.987328
-2.281775
-2.480996
-2.673952
-2.932063
-3.073648
-3.303567
-3.455802
-3.626832
-3.762465
-3.933808
-4.034985
-4.212593
-4.375478
-4.512991
-4.678383
-4.809631
-4.963746
-5.115355
-5.263518
-5.395706
-5.522255
-5.636902
-5.734007
-5.796029
-5.869014
-5.872148
-5.906291
-5.892509
-5.912557
-5.895643
-5.822659
-5.736832
-5.617801
-5.496578
-5.310514
-5.134474
-4.933374
-4.688421
-4.452552
-4.179720
-3.881830
-3.591144
-3.287615
-3.004446
-2.695592
-2.417749
-2.138340
-1.867701
-1.618362
-1.384059
-1.187659
-0.994077
-0.838084
-0.722499
-0.594385
-0.491016
-0.441211
-0.387022
-0.321868
-0.270184
-0.199079
-0.138938
-0.063761
0.008284
0.090352
0.193720
0.273283
0.385735
0.485345
0.606882
0.743454
0.869689
1.010959
1.162254
1.302585
1.441662
1.594210
1.759600
1.922484
2.083489
2.232904
2.369162
2.495084
2.621946
2.727194
2.823045
2.915450
2.986555
3.060166
3.082092
3.123125
3.154449
3.196422
3.292273
3.312633
3.347402
3.426651
3.525321
3.629003
3.693217
3.819139
3.986095
4.233241
4.451568
4.659872
4.869429
4.990652
5.181415
5.368105
5.544459
5.688235
5.827940
5.980487
