EVENT_NAME: 202302060117
EVENT_ID: 13194
EVENT_DATE_YYYYMMDD: 2023/02/06
EVENT_TIME_HHMMSS: 01:17:32.00000
EVENT_LATITUDE_DEGREE: 37.288
EVENT_LONGITUDE_DEGREE: 37.043
EVENT_DEPTH_KM: 8.6
HYPOCENTER_REFERENCE: AFAD
MAGNITUDE_W: 7.7
MAGNITUDE_W_REFERENCE: AFAD
MAGNITUDE_L: 
MAGNITUDE_L_REFERENCE: 
FOCAL_MECHANISM: 
NETWORK: TK
STATION_CODE: 3145
STATION_NAME: 
STATION_LATITUDE_DEGREE: 36.64536
STATION_LONGITUDE_DEGREE: 36.4064
STATION_ELEVATION_M: 695.0
LOCATION: Kahramanmaras_Pazarck_Turkiye
SENSOR_DEPTH_M: 
VS30_M/S: 533
SITE_CLASSIFICATION_EC8: B
MORPHOLOGIC_CLASSIFICATION: 
EPICENTRAL_DISTANCE_KM: 91.13
EARTHQUAKE_BACKAZIMUTH_DEGREE: 
DATE_TIME_FIRST_SAMPLE_YYYYMMDD_HHMMSS: 2023/02/06 01:17:25.2714330
DATE_TIME_FIRST_SAMPLE_PRECISION: millisecond
SAMPLING_INTERVAL_S: 0.01
NDATA: 11251
DURATION_S: 
STREAM: HNZ
UNITS: cm/s^2
INSTRUMENT: sensor = ACEBOX/SARA | digitizer = 
INSTRUMENT_ANALOG/DIGITAL: 
INSTRUMENTAL_FREQUENCY_HZ: 
INSTRUMENTAL_DAMPING: 
FULL_SCALE_G: 
N_BIT_DIGITAL_CONVERTER: 
PGA_CM/S^2: 663.176
TIME_PGA_S: 
BASELINE_CORRECTION: BASELINE REMOVED
FILTER_TYPE: BUTTERWORTH
FILTER_ORDER: 
LOW_CUT_FREQUENCY_HZ: 
HIGH_CUT_FREQUENCY_HZ: 
LATE/NORMAL_TRIGGERED: 
DATABASE_VERSION: 
HEADER_FORMAT: DYNA 1.2
DATA_TYPE: Acceleration
PROCESSING: Automatic Paolucci et al., 2011
DATA_TIMESTAMP_YYYYMMDD_HHMMSS: 
DATA_LICENSE: U (unknown license)
DATA_CITATION: Turkish Accelerometric Archive v 1.0 - Disaster And Emergency Management Presidency, Earthquake Department
DATA_CREATOR: AFAD
ORIGINAL_DATA_MEDIATOR_CITATION: : AFAD - Disaster And Emergency Management Presidency
ORIGINAL_DATA_MEDIATOR: AFAD PROCESS SERVICE
ORIGINAL_DATA_CREATOR_CITATION: AFAD PROCESS SERVICE
ORIGINAL_DATA_CREATOR: network: TK
USER1: GuestUser
USER2: 
USER3: 
USER4: 
USER5: 
[...]
8.417419
13.474684
17.312697
19.537041
18.921215
15.520631
10.794416
4.621463
-3.152299
-11.225322
-15.880931
-13.545767
-7.260131
-2.849081
-0.504566
2.295621
4.265593
3.132608
0.235623
-2.789484
-6.195445
-9.456453
-10.602063
-8.562653
-5.519551
-4.055750
-3.174338
-1.000260
1.383299
2.032083
1.746614
1.806930
1.753153
1.131717
-0.620597
-3.266718
-5.037268
-5.107645
-4.384045
-4.323262
-5.121215
-6.641134
-9.124065
-10.106718
-7.377840
-3.448413
-1.281817
0.143174
1.811314
0.306358
-4.495374
-6.189706
-4.067298
-3.165545
-3.788384
-3.824860
-3.142409
-2.354984
-2.519580
-4.210406
-6.797376
-8.630116
-7.401982
-3.772751
-2.106013
-3.128412
-2.674849
-0.062168
1.482995
0.950167
-0.814772
-3.448267
-6.401598
-8.569136
-9.724331
-11.116597
-12.659663
-12.988385
-12.779608
-12.223173
-9.029272
-2.590499
5.260877
12.233877
16.050380
16.538312
15.845801
15.766540
17.419951
20.568028
22.633857
21.973143
19.635868
16.726258
13.094681
8.183766
3.167876
1.307548
2.325264
0.981394
-3.963889
-7.922080
-8.608278
-7.189834
-6.138685
-8.255722
-12.171596
-13.982593
-13.174359
-11.689283
-10.706402
-9.479671
-7.415245
-5.535752
-3.671456
-1.335825
0.177775
-0.809320
-5.303842
-9.925784
-8.595948
-3.433942
-1.554215
-1.372792
2.053737
6.302298
8.075179
7.640780
6.220225
6.685712
8.303352
7.201228
6.150539
8.490379
10.886330
11.729400
13.342364
16.132964
18.001001
17.084045
14.079513
11.107478
7.482682
0.837693
-6.626989
-9.992037
-9.434434
-8.646307
-9.209761
-10.257878
-9.368517
-6.295255
-3.947700
-2.371676
-1.064987
-3.388701
-9.396826
-13.783100
-13.243733
-8.536930
-1.851267
4.169944
6.659414
5.661798
5.183679
6.409475
5.433601
1.088008
-2.955753
-5.910252
-11.205296
-17.767989
-20.539191
-19.794082
-19.216840
-19.310597
-17.550808
-12.600388
-8.277246
-7.894524
-8.478552
-7.124636
-5.061846
-4.044130
-4.116377
-4.828760
-6.043341
-7.627087
-9.533707
-10.373978
-9.727298
-10.003649
-11.235063
-12.606521
-14.749043
-15.649633
-14.556634
-13.766637
-12.249764
-7.269418
-0.883249
2.443917
4.349595
9.207899
13.768111
12.794342
7.757878
2.331674
-2.203997
-6.130391
-8.159287
-5.499379
0.798180
6.350161
8.913510
10.919955
15.841150
19.983567
17.996754
13.974970
12.900435
11.756929
7.060406
1.344527
-1.934717
-3.493213
-2.655754
2.509058
8.413370
11.398257
13.152668
15.974364
17.082559
11.857187
4.156603
1.304039
2.614002
3.999715
3.356068
0.699192
-1.665904
-2.775743
-3.666280
-4.407187
-4.420050
-3.547288
-1.569600
2.438617
8.595197
14.168920
17.301800
19.784957
21.321937
18.520107
11.338086
3.327019
-2.857623
-7.698867
-13.141904
-18.968837
-23.762386
-26.910002
-27.915567
-26.717593
-22.531690
-15.841118
-10.945172
-8.385096
-5.578363
-3.971945
-2.108117
3.519380
9.540825
11.916202
11.061436
8.281349
4.956281
3.123774
3.899978
6.086914
9.019664
13.237830
17.453426
19.380847
17.335117
12.128215
7.729784
6.387550
6.373051
4.840974
0.353934
-5.817850
-9.808539
-9.043324
-6.924188
-7.176927
-6.907829
-3.831295
-1.094701
-1.014746
-1.818778
-0.392852
3.986401
10.694041
18.131363
21.322692
19.197939
16.599279
14.284449
10.629961
5.075168
-4.088753
-13.164533
-15.142695
-12.100294
-10.258443
-8.730347
-5.019988
-2.282459
-2.401933
-0.998218
3.071722
4.276943
2.437423
1.997413
1.038373
-1.611956
-2.236198
-1.070254
0.559543
2.010719
0.772525
-2.240657
-5.911979
-12.043316
-18.847988
-22.373187
-21.532455
-18.333645
-14.150080
-9.504765
-8.806183
-12.311508
-12.300056
-6.057205
2.438517
8.107396
9.754728
13.376478
20.549141
24.121794
20.073824
12.199763
6.122901
2.679531
1.267626
1.703187
1.691962
2.497857
5.378470
8.052172
11.102054
12.395651
9.133942
5.518731
3.776938
1.986048
-1.234747
-5.387691
-7.569023
-8.651040
-11.930985
-14.442205
-11.981960
-7.640114
-4.425873
-0.929906
-1.813429
-10.131939
-16.358899
-14.903514
-9.998919
-5.048265
-2.169990
-3.326355
-7.340657
-9.232080
-7.373162
-6.874008
-9.710674
-11.247427
-8.884675
-4.110538
2.507324
7.739470
8.819843
11.247357
13.423772
7.901010
0.589465
-3.716617
-10.249851
-18.178153
-21.402455
-20.486908
-19.914108
-17.597882
-10.033141
1.573019
13.918446
20.445595
20.671907
20.377553
18.856932
14.764776
8.776289
2.780555
2.200267
5.784609
7.014379
4.403562
0.589390
-2.018388
-3.400601
-2.230917
2.552338
7.148789
8.028331
5.515474
4.531184
9.454016
14.546585
11.594657
3.336233
-1.854771
-1.624952
0.627915
-0.570299
-8.228098
-13.973436
-8.613403
1.117236
6.827965
9.055581
6.787745
2.328994
2.906937
5.429372
2.459208
-2.664462
-3.086236
1.100369
4.423559
3.175546
1.280850
4.420510
11.851285
20.934305
28.389629
25.972863
11.990381
0.323192
0.273390
2.348571
-0.399251
-1.845291
-1.803678
-3.911364
-1.600749
7.820108
13.309898
7.147934
-2.285555
-3.854572
-1.494626
-2.439638
-4.086976
-6.768167
-11.820529
-12.437757
-8.182884
-4.333883
1.046256
5.938460
4.401006
1.117086
0.071541
-1.527401
-1.118961
2.171031
3.198566
3.004979
4.948064
5.427813
0.770802
-6.415194
-12.993785
-16.496539
-11.456575
-0.454780
4.040202
0.705081
-0.852480
0.766797
1.336323
1.255192
1.240460
-0.920999
-4.672981
-3.377046
5.809780
11.896221
7.883321
3.518557
2.029031
-3.556156
-9.516820
-8.984701
-6.306557
-5.753630
-3.735495
-0.196509
1.102465
1.641832
2.095161
1.168853
3.323058
11.390697
17.529742
13.720012
5.105748
1.434660
2.341790
1.870685
0.056181
-0.225548
-0.323512
-0.181133
0.845234
1.506643
4.610532
6.828329
2.186281
-1.941881
-2.357342
-5.316751
-10.143967
-14.215549
-18.339503
-23.129778
-26.021854
-22.554644
-14.290849
-6.168969
-0.818055
-1.727763
-8.585742
-12.302654
-7.494149
-0.827190
2.483610
4.553180
4.816198
3.045882
3.373429
6.052274
8.406843
8.703762
6.862605
5.606409
2.806918
-3.046668
-3.861922
0.686366
2.490342
1.297505
0.213618
1.230633
2.317085
-0.863730
-3.958742
-3.058392
-1.922374
-2.201064
-2.126486
1.109498
4.583956
1.322247
-3.587031
-0.478466
9.099737
14.723726
8.647800
-0.127550
-1.790320
-2.507847
-2.371313
4.240938
11.347203
9.846922
-0.164748
-5.955909
-3.513900
-3.665872
-2.217501
6.654166
10.210921
4.441970
-0.203352
1.804964
6.443965
7.036171
2.552637
-5.291966
-14.312102
-18.550148
-16.390332
-15.116608
-19.134184
-23.225172
-21.765345
-16.250772
-9.305127
-0.428549
7.372794
7.473324
1.796489
0.879065
7.094796
12.210510
10.533012
2.995151
-3.748267
-3.092002
2.779813
10.599159
19.567151
23.445845
18.405172
7.767627
-3.380531
-8.029827
-3.714635
4.897752
11.509769
12.615159
14.214797
19.644267
21.029512
18.769858
17.472280
13.469200
8.384106
4.588638
-0.146695
2.285494
14.419335
20.412725
16.820660
15.460658
16.910665
16.666811
14.271555
8.587472
2.458941
-2.960483
-7.866722
-2.431640
12.710938
20.891501
18.914507
15.795649
15.613050
15.166493
11.525098
9.724621
10.106175
7.764225
4.600477
0.616568
-4.161784
-7.199749
-11.986518
-17.147128
-16.416281
-10.901943
-2.927823
4.401251
5.963481
4.242028
2.287713
-5.201284
-17.637666
-23.264935
-20.134861
-19.968167
-21.505154
-13.444996
-3.213096
-3.509788
-8.843876
-11.464981
-12.050413
-9.475373
-8.708521
-22.469130
-39.256245
-34.528868
-18.035175
-8.577612
-1.822978
1.939284
-1.103357
-6.584504
-13.311322
-15.599032
-10.473264
-3.008588
9.500030
23.902172
30.550661
30.357775
25.864656
17.871124
6.506469
-5.025351
-5.396858
4.230209
8.322125
7.859437
13.488804
15.344450
5.218920
-3.965107
-10.641192
-24.269237
-43.004351
-55.425769
-42.762144
-9.814034
7.400455
-0.629081
-14.893523
-30.576414
-44.427970
-43.619970
-21.781906
15.108727
42.333247
44.573956
39.155701
31.183912
14.643220
3.769773
-2.189488
-17.990914
-39.086444
-55.760635
-64.825426
-69.725820
-69.096909
-55.600965
-40.924111
-26.085470
3.196933
21.340065
11.386844
6.044573
9.896614
-6.631687
-31.612929
-26.761171
-5.999744
-7.053471
-17.473819
-15.995522
-8.015090
1.659672
5.330987
2.834028
9.728940
24.933007
27.764288
8.715185
-18.017198
-32.651741
-30.847765
-14.602365
20.452024
54.204163
51.711413
30.836354
29.180130
38.095752
38.975294
40.649045
53.290460
57.739151
38.208659
13.487634
1.354488
7.981000
29.937833
46.857270
42.511911
13.032644
-26.669876
-51.848909
-57.023781
-51.105908
-44.427025
-35.761099
-21.763427
-18.225844
-19.525526
3.981850
35.284963
30.968594
5.036734
9.220532
49.004640
82.254349
82.990339
64.006465
53.097014
54.668128
38.632906
-1.761888
-35.085483
-51.267063
-53.877413
-43.414755
-26.996813
2.910998
30.705047
19.573254
-11.634943
-25.571601
-21.804430
-19.037676
-30.599889
-43.447520
-39.689233
-16.608770
8.600884
1.899784
-24.099177
-23.838263
-5.917706
-0.900887
0.679345
15.542769
22.398169
-1.805463
-29.346082
-29.379285
-13.880634
-4.016497
-4.721867
1.874252
22.739720
21.655364
-10.792426
-30.864860
-26.925379
-26.177465
-30.578001
-20.547166
0.898352
0.424441
-22.521828
-15.563558
10.336500
-10.267355
-49.829129
-53.574564
-40.429784
-22.794226
-1.523822
1.833036
-4.925813
-4.975615
-3.449624
-0.323290
0.197841
-6.755995
-9.691323
-13.128614
-29.920170
-38.963919
-14.346006
26.416076
46.239275
40.405796
33.079756
34.503344
29.657658
14.112007
10.472014
28.267489
43.653450
37.066676
27.743306
39.881355
51.299542
37.167429
17.612623
14.488153
19.066601
16.274825
13.267487
17.472094
15.446237
4.875558
-7.090657
-20.591751
-24.028808
-8.437807
2.382327
-7.504262
-7.969054
9.053020
9.907078
-5.958174
-19.989286
-28.783340
-21.192648
0.669965
13.653893
21.500827
31.500566
23.080588
8.759100
10.797341
11.677818
11.010089
10.596966
-0.777274
-4.820801
4.310849
6.909035
-3.639200
-24.783127
-44.452260
-42.961105
-26.116015
-24.513338
-45.377176
-67.960358
-71.485791
-41.512517
14.702161
50.428718
24.981519
-21.208407
-22.642991
9.077917
25.756309
19.079290
6.925570
-20.596347
-56.311688
-47.594560
-8.973126
7.360182
3.488963
-22.726026
-56.191303
-37.516749
22.353349
46.172845
15.147945
-46.929908
-105.276591
-96.729902
-35.057226
22.592033
76.771974
73.647737
3.630597
1.559617
58.730526
52.950587
45.285073
81.874809
40.034915
-65.575054
-102.354407
-50.863602
34.599582
42.001366
-28.825181
-37.694517
-19.424199
-33.935064
-37.132245
-37.467280
-18.231145
-19.723944
-76.092468
-62.232502
16.460848
37.136004
21.373623
9.753896
-43.303825
-79.717285
0.239973
70.239806
20.381367
-56.708141
-70.197545
7.538172
51.516369
-16.309156
-24.554721
45.735488
61.889940
48.303978
31.844881
-7.004747
-15.153286
-0.735714
-60.542928
-122.674788
-58.310638
16.540956
14.198304
48.945717
101.433901
53.828333
-30.079405
-44.058381
3.860469
46.250482
33.668445
35.911960
63.055819
33.975411
37.269377
55.458333
0.689450
32.635505
100.187013
38.463129
-20.335484
-26.455365
-39.329648
-63.210640
-110.281748
-113.719974
-74.445777
-89.965243
-142.636497
-142.969428
-69.695498
-13.553998
-22.362313
-48.755924
-98.328663
-173.097499
-215.371555
-177.530770
-80.965956
-24.337223
-52.072128
-98.487435
-95.367180
-62.922202
-35.538233
18.797651
39.766924
-47.045745
-103.324958
-78.899226
-92.127011
-54.473030
73.701875
79.535114
-31.487729
-106.565646
-101.836398
23.074463
103.408603
-4.897048
-58.393139
22.220155
22.472886
-57.289159
-112.926598
-162.540018
-204.395811
-212.736532
-222.960022
-224.518985
-148.349009
-54.560538
-62.737601
-123.347908
-123.030883
-88.076325
-88.523348
-101.455146
-93.040085
-71.736014
-55.124254
-29.080411
63.597757
138.016124
86.199399
63.475705
135.790598
171.691334
132.108986
9.595007
-80.670380
-37.006406
-2.812390
-31.220164
-84.413254
-143.654445
-143.426028
-116.433670
-95.711988
-90.985078
-123.929688
-119.397064
-44.030181
64.613067
141.306282
154.076519
167.628574
228.937227
360.728041
427.930489
318.282842
188.852205
69.736703
23.384054
137.569466
159.214180
96.428388
139.119999
201.464375
245.815712
208.211056
87.324306
39.717101
41.915727
67.743541
105.175181
38.282507
-71.085753
-83.413418
-52.448143
-81.916188
-157.665102
-231.617285
-213.904106
-40.268258
134.443525
202.486475
241.798079
288.174802
329.403310
297.841144
198.411606
181.236154
231.322305
250.977170
311.186976
395.927493
368.272078
256.670119
94.486356
-59.012774
12.970361
169.017875
138.749776
100.371951
178.123800
271.638728
310.395765
261.943850
212.062499
179.914670
165.301636
242.447717
280.438834
203.627544
143.900289
77.140412
-90.994427
-245.745308
-198.001572
-48.589926
-43.069275
-100.281339
-65.546083
-33.404574
-44.544315
-34.793570
-12.372182
1.685810
-14.547205
-63.780470
-110.672723
-145.449135
-129.838728
-46.263691
29.174032
41.923228
-7.934276
-41.892865
29.854369
144.065732
201.601132
194.984198
184.042716
209.052474
214.434016
185.392418
117.823836
-47.776407
-245.551362
-373.351029
-401.608004
-352.342715
-330.500209
-344.811411
-334.774264
-320.857719
-292.899310
-253.019812
-200.923005
-124.581889
-138.219988
-235.521270
-309.967700
-326.038226
-51.438665
419.869965
507.466783
271.871379
103.839879
-30.176458
-75.589943
-36.951442
-59.533221
-93.944441
-146.361792
-133.625689
2.662916
203.504817
537.553410
663.175951
427.970054
342.657195
366.601772
318.763809
427.770143
521.584800
380.846792
154.858352
-20.533554
-140.699507
-241.110058
-228.378164
-14.645617
222.013557
273.683684
221.831656
193.972136
161.853532
137.897492
56.467304
-142.469389
-289.790427
-302.642032
-227.293619
-132.387831
-126.395845
-221.570740
-287.717835
-168.228966
2.739957
-4.911997
-95.835757
-165.818529
-210.734261
-204.306710
-195.609221
-232.341346
-321.035382
-381.809114
-356.329891
-246.110382
65.064422
410.293435
379.934623
89.029801
-43.419159
16.768904
39.881397
-29.277708
-114.273070
-191.684050
-201.771002
-180.430926
-221.576677
-219.794444
-182.356725
-222.381183
-231.431946
-182.148655
-189.726262
-233.623105
-263.833222
-288.237451
-288.853510
-257.368737
-224.686923
-161.202084
-52.925664
-15.415702
-69.988663
-117.834342
-156.474019
-204.414386
-250.055356
-303.307362
-335.760998
-323.322519
-295.471190
-268.137487
-240.331047
-217.378705
-193.939831
-165.050208
-137.391995
-127.312297
-155.922305
-192.152234
-153.906278
-55.070358
-13.152850
-48.986025
-94.934205
-142.375648
-181.217794
-164.413619
-98.468064
-36.814560
5.168412
71.003848
159.991759
215.323152
249.423882
307.302730
338.876346
286.184284
265.677455
360.852110
380.214027
250.321172
177.302309
200.590617
194.358748
158.619091
131.855614
81.893836
12.506779
-26.645148
-44.322329
-45.493423
-5.232836
27.491764
24.326146
46.475861
116.456523
196.306001
239.624188
224.021958
194.098009
202.693796
247.649733
306.113776
313.798221
220.292170
122.233853
110.358351
119.674000
98.877964
90.959481
133.859873
193.771120
188.076750
106.859318
28.136034
2.780250
13.899177
17.045383
4.606898
-1.945742
-4.820282
-17.313476
-53.578475
-99.985599
-104.274146
-44.063170
62.935314
160.127171
173.144064
110.694240
29.441270
-53.881741
-119.103232
-139.709191
-136.887495
-150.455689
-188.838423
-239.980643
-278.615177
-284.401663
-278.692337
-279.383913
-279.040468
-275.234486
-276.233972
-271.731508
-177.420267
-16.001962
38.185928
-4.175334
-32.559729
-34.168725
-19.834384
-60.814138
-142.830222
-202.448061
-279.506941
-295.975390
-220.504000
-197.487364
-224.306485
-187.670457
-58.964131
69.787318
122.138263
137.813197
102.770958
17.896235
-19.986874
-2.918742
35.712044
77.751828
79.403369
50.453887
19.803296
-1.344839
20.104420
74.736758
127.102666
173.039150
211.469338
236.888007
211.208881
127.621913
36.601595
-56.940928
-104.920338
-53.666136
18.126454
51.805414
57.281177
53.136182
46.579334
7.665178
-43.005472
-65.061208
-62.908407
-37.312285
5.804603
60.763322
103.497017
115.361991
113.153772
69.927226
-3.552686
-23.850266
16.703035
66.856052
107.001377
140.795365
155.850503
150.266252
141.811438
128.653091
131.096035
141.931600
130.548709
155.101159
229.685289
291.677799
297.494672
225.053521
155.504910
133.337419
85.624070
24.833738
-31.308470
-89.189663
-74.553490
-0.661400
32.387944
21.194429
7.411843
-0.764050
6.028458
10.411686
-4.958384
-2.698736
3.346088
-1.564125
29.461236
50.088932
31.023463
35.533175
40.479854
13.282682
-23.695398
-64.411195
-77.821108
-48.383464
-2.753723
45.598120
66.178588
38.428018
-2.783429
-38.966131
-78.284755
-106.813169
-115.284816
-116.271210
-125.844042
-147.697778
-168.058016
-190.887153
-217.768231
-220.727640
-209.837835
-207.414763
-200.664806
-195.441311
-191.978543
-169.477663
-123.718165
-69.316584
-33.443203
1.007756
51.033120
73.551300
75.582060
88.735257
96.525846
94.786391
76.576386
48.653274
55.753459
80.256111
63.782518
14.595311
-17.419721
6.434377
67.189165
82.965567
35.336618
-13.472772
-30.349665
-20.489035
-2.472855
25.129714
64.924343
65.783545
23.489382
11.318828
33.732735
36.294916
26.527330
22.096401
5.850761
7.482195
31.298651
18.990625
-19.062455
-51.733756
-78.597767
-73.189104
-24.231025
34.568282
46.036035
13.964892
13.771304
56.683386
116.459966
163.891816
141.146846
77.048049
44.159317
47.323292
64.406621
68.863027
72.303584
91.316208
98.927709
101.380005
90.705286
39.892720
3.683833
5.496693
-12.200594
-29.563084
1.257939
22.473868
2.933557
-3.057268
17.822929
54.938241
99.665291
119.477970
86.138009
6.518580
-55.628477
-63.537140
-41.249250
-5.127109
14.209792
-0.900996
-18.840030
3.260121
54.079226
71.234097
88.802088
120.103096
79.073309
39.458697
78.639141
111.246842
110.691804
81.221655
25.271394
-15.128776
-34.850982
-25.511018
-0.981480
-6.440416
-27.329504
-49.312529
-73.824539
-77.908980
-41.617336
33.571160
93.812763
88.136629
47.129053
30.787088
42.444450
24.168281
-34.662596
-78.960635
-103.317169
-134.936850
-160.950540
-161.125891
-126.898443
-66.352670
-38.697964
-63.188465
-73.106148
-75.094363
-102.847505
-100.878468
-45.370558
19.724208
35.158799
11.565846
22.816868
51.038533
95.770025
178.121835
190.534128
129.161641
94.200296
75.272534
82.243430
122.432709
115.878199
54.394425
-13.144231
-61.566454
-61.659509
-33.240519
-27.910646
-37.226302
-35.835212
-29.393399
-14.266953
15.831870
24.556245
-3.128862
-6.266424
28.928244
36.147666
-7.114885
-65.923551
-103.693970
-126.646085
-152.202233
-139.727048
-93.420464
-85.495675
-96.862200
-59.052276
-4.293921
-12.954243
-59.036388
-57.578198
-36.668543
-62.425758
-109.008931
-134.717515
-133.729258
-97.242626
-37.891791
-30.507542
-71.264487
-51.171018
1.967824
5.698757
-13.850906
-45.107500
-65.066776
-48.861355
-32.859105
-21.656479
-19.647696
-28.448997
-21.390661
-20.485402
-20.061998
28.613420
75.737126
50.215345
11.366419
16.744220
60.087658
141.405617
155.920449
62.928752
19.319948
50.212512
