EVENT_NAME: 202302060117
EVENT_ID: 13194
EVENT_DATE_YYYYMMDD: 2023/02/06
EVENT_TIME_HHMMSS: 01:17:32.00000
EVENT_LATITUDE_DEGREE: 37.288
EVENT_LONGITUDE_DEGREE: 37.043
EVENT_DEPTH_KM: 8.6
HYPOCENTER_REFERENCE: AFAD
MAGNITUDE_W: 7.7
MAGNITUDE_W_REFERENCE: AFAD
MAGNITUDE_L: 
MAGNITUDE_L_REFERENCE: 
FOCAL_MECHANISM: 
NETWORK: TK
STATION_CODE: 0718
STATION_NAME: 
STATION_LATITUDE_DEGREE: 36.26776
STATION_LONGITUDE_DEGREE: 32.316976
STATION_ELEVATION_M: 21.0
LOCATION: Kahramanmaras_Pazarck_Turkiye
SENSOR_DEPTH_M: 
VS30_M/S: 344
SITE_CLASSIFICATION_EC8: C
MORPHOLOGIC_CLASSIFICATION: 
EPICENTRAL_DISTANCE_KM: 435.88
EARTHQUAKE_BACKAZIMUTH_DEGREE: 
DATE_TIME_FIRST_SAMPLE_YYYYMMDD_HHMMSS: 2023/02/06 01:18:07.3952340
DATE_TIME_FIRST_SAMPLE_PRECISION: millisecond
SAMPLING_INTERVAL_S: 0.01
NDATA: 21001
DURATION_S: 
STREAM: HNE
UNITS: cm/s^2
INSTRUMENT: sensor = GMS+/GEOSIG | digitizer = 
INSTRUMENT_ANALOG/DIGITAL: 
INSTRUMENTAL_FREQUENCY_HZ: 
INSTRUMENTAL_DAMPING: 
FULL_SCALE_G: 
N_BIT_DIGITAL_CONVERTER: 
PGA_CM/S^2: 3.532
TIME_PGA_S: 
BASELINE_CORRECTION: BASELINE REMOVED
FILTER_TYPE: BUTTERWORTH
FILTER_ORDER: 
LOW_CUT_FREQUENCY_HZ: 
HIGH_CUT_FREQUENCY_HZ: 
LATE/NORMAL_TRIGGERED: 
DATABASE_VERSION: 
HEADER_FORMAT: DYNA 1.2
DATA_TYPE: Acceleration
PROCESSING: Automatic Paolucci et al., 2011
DATA_TIMESTAMP_YYYYMMDD_HHMMSS: 
DATA_LICENSE: U (unknown license)
DATA_CITATION: Turkish Accelerometric Archive v 1.0 - Disaster And Emergency Management Presidency, Earthquake Department
DATA_CREATOR: AFAD
ORIGINAL_DATA_MEDIATOR_CITATION: : AFAD - Disaster And Emergency Management Presidency
ORIGINAL_DATA_MEDIATOR: AFAD PROCESS SERVICE
ORIGINAL_DATA_CREATOR_CITATION: AFAD PROCESS SERVICE
ORIGINAL_DATA_CREATOR: network: TK
USER1: GuestUser
USER2: 
USER3: 
USER4: 
USER5: 
[...]
-0.186438
-0.366717
-0.567518
-0.724158
-0.816895
-0.825207
-0.738705
-0.581285
-0.385420
-0.234235
-0.122535
-0.040968
-0.045643
-0.142277
-0.323335
-0.517641
-0.624146
-0.650383
-0.613236
-0.524395
-0.426463
-0.332686
-0.312684
-0.390355
-0.497639
-0.603884
-0.702336
-0.816893
-0.920281
-0.985742
-1.006004
-0.946257
-0.840532
-0.750392
-0.725974
-0.762341
-0.815853
-0.911188
-1.063412
-1.204986
-1.293826
-1.326037
-1.310191
-1.291748
-1.250964
-1.183424
-1.114326
-1.031720
-0.944178
-0.815593
-0.637132
-0.430097
-0.215529
-0.046939
0.075671
0.169967
0.235429
0.284785
0.306346
0.293617
0.263744
0.211790
0.160356
0.126067
0.080088
0.034109
0.003197
0.000080
0.051514
0.158019
0.295956
0.426359
0.529747
0.600924
0.631316
0.640149
0.656254
0.671061
0.674698
0.662489
0.638331
0.612094
0.568973
0.523254
0.453896
0.333363
0.180620
0.021902
-0.069017
-0.090318
-0.063042
0.034371
0.159839
0.258811
0.290502
0.266344
0.211014
0.103470
-0.046416
-0.226955
-0.416585
-0.541014
-0.555821
-0.504127
-0.431392
-0.360735
-0.290857
-0.206433
-0.140711
-0.073431
0.005278
0.075416
0.160880
0.230757
0.274398
0.287387
0.251019
0.179323
0.062947
-0.089017
-0.283583
-0.488280
-0.651934
-0.813509
-0.969889
-1.095357
-1.181340
-1.204460
-1.223942
-1.292001
-1.367594
-1.421625
-1.423444
-1.386297
-1.389414
-1.443705
-1.508387
-1.529688
-1.490983
-1.417988
-1.344733
-1.294858
-1.220304
-1.084705
-0.909102
-0.729862
-0.562052
-0.406971
-0.261500
-0.095509
0.089186
0.258295
0.383763
0.476241
0.511050
0.456499
0.360904
0.249464
0.174131
0.150752
0.149713
0.186600
0.236216
0.316744
0.445849
0.571317
0.667431
0.737309
0.760688
0.732373
0.690551
0.653404
0.621193
0.571317
0.505077
0.425847
0.337007
0.275442
0.244010
0.245569
0.275702
0.366361
0.513390
0.643534
0.759650
0.871090
0.985648
1.088776
1.129560
1.110077
1.048772
0.956295
0.866415
0.774457
0.661978
0.602491
0.605089
0.599114
0.574436
0.530536
0.455982
0.339087
0.180629
-0.014457
-0.220973
-0.402290
-0.546721
-0.666734
-0.802073
-0.952219
-1.083402
-1.183412
-1.256667
-1.287579
-1.265499
-1.216402
-1.151980
-1.053528
-0.906239
-0.719206
-0.473466
-0.171356
0.114649
0.363766
0.586128
0.764848
0.865379
0.860963
0.761212
0.621976
0.487417
0.359091
0.252067
0.144523
0.018276
-0.118362
-0.271365
-0.437357
-0.612180
-0.752455
-0.843634
-0.892210
-0.904419
-0.927019
-0.970660
-1.008326
-0.984427
-0.905198
-0.800252
-0.654782
-0.488270
-0.303575
-0.125894
0.007887
0.096208
0.115171
0.037500
-0.114724
-0.262531
-0.384103
-0.462293
-0.471125
-0.428003
-0.305133
-0.106151
0.116211
0.319090
0.478327
0.579897
0.618602
0.640683
0.684843
0.755500
0.841224
0.925648
1.011372
1.129306
1.282310
1.428559
1.552209
1.656636
1.752490
1.845747
1.961863
2.107333
2.259038
2.418276
2.562966
2.689474
2.766884
2.764547
2.725841
2.688695
2.641417
2.560629
2.453605
2.327358
2.225009
2.138506
2.026547
1.897442
1.739763
1.555588
1.340500
1.096838
0.819405
0.531323
0.285842
0.075430
-0.098614
-0.234732
-0.319676
-0.377605
-0.456314
-0.576327
-0.750371
-0.959225
-1.166000
-1.341863
-1.533571
-1.721643
-1.865814
-1.983489
-2.050769
-2.080382
-2.069732
-2.024013
-1.936731
-1.804249
-1.668650
-1.516166
-1.309131
-1.046246
-0.785958
-0.549050
-0.346950
-0.200181
-0.089260
-0.001459
0.081148
0.148428
0.191809
0.209733
0.233372
0.253894
0.240646
0.249737
0.274675
0.280910
0.263505
0.222982
0.164794
0.088162
-0.024317
-0.198362
-0.389810
-0.569310
-0.698934
-0.745433
-0.731925
-0.658670
-0.533202
-0.356819
-0.168488
-0.013406
0.091021
0.137259
0.159340
0.180901
0.201942
0.184018
0.146871
0.131285
0.132324
0.173628
0.225581
0.266625
0.326631
0.400925
0.460412
0.493402
0.512625
0.548473
0.605362
0.634716
0.633158
0.620429
0.604064
0.578347
0.525874
0.420408
0.248182
0.099335
0.018807
-0.052369
-0.166927
-0.311098
-0.438384
-0.541252
-0.595803
-0.597881
-0.563592
-0.520730
-0.471114
-0.410069
-0.368506
-0.326683
-0.294991
-0.269794
-0.217840
-0.134714
-0.012623
0.099596
0.202984
0.332349
0.486131
0.670307
0.890330
1.148020
1.394021
1.598718
1.767307
1.875111
1.888619
1.815884
1.701846
1.564429
1.409088
1.226731
1.038399
0.872667
0.741225
0.663294
0.611081
0.564063
0.525877
0.505356
0.508473
0.539386
0.609003
0.717067
0.824351
0.877084
0.875526
0.837080
0.806168
0.810064
0.804869
0.752136
0.639917
0.496525
0.348197
0.185063
-0.021193
-0.257322
-0.448251
-0.535013
-0.521765
-0.492151
-0.519687
-0.604371
-0.684639
-0.710356
-0.677106
-0.603072
-0.518647
-0.371878
-0.164583
0.019332
0.113109
0.065831
-0.075483
-0.268490
-0.473447
-0.648790
-0.790883
-0.857124
-0.830368
-0.728279
-0.590342
-0.439936
-0.271087
-0.108732
-0.015735
-0.034438
-0.136267
-0.264073
-0.356550
-0.423570
-0.483057
-0.512151
-0.498903
-0.444092
-0.389281
-0.331872
-0.258617
-0.180167
-0.073403
0.069989
0.228448
0.394959
0.565886
0.722527
0.885141
1.048536
1.201279
1.329345
1.415588
1.495596
1.581060
1.683928
1.776146
1.828619
1.866545
1.876676
1.838491
1.729648
1.571709
1.397405
1.191409
0.954760
0.702526
0.454707
0.255985
0.135193
0.071030
0.034923
0.012583
0.024792
0.054925
0.056744
0.053367
0.075966
0.141688
0.224034
0.280664
0.299887
0.303004
0.320149
0.310018
0.249492
0.170003
0.117270
0.105841
0.097528
0.064538
0.011805
-0.004560
0.017780
0.022715
-0.017549
-0.089764
-0.147692
-0.163278
-0.109766
-0.019107
0.040120
0.108959
0.249234
0.427434
0.586413
0.701490
0.777082
0.830854
0.876054
0.898134
0.855273
0.774225
0.727727
0.734741
0.781499
0.840986
0.905668
0.972429
1.011654
1.011134
0.950089
0.818387
0.650317
0.500431
0.405356
0.339894
0.301449
0.324828
0.414967
0.549008
0.717597
0.919697
1.100495
1.238432
1.337144
1.392475
1.413516
1.392215
1.361563
1.334027
1.286230
1.213235
1.112965
0.999187
0.878654
0.752927
0.604080
0.441725
0.295735
0.158838
0.037786
-0.080148
-0.167430
-0.172366
-0.134700
-0.111061
-0.118074
-0.153403
-0.231593
-0.361217
-0.513700
-0.654754
-0.760220
-0.803861
-0.786197
-0.751648
-0.716839
-0.687485
-0.685147
-0.724372
-0.812173
-0.921535
-1.010116
-1.071941
-1.113763
-1.132207
-1.120777
-1.046223
-0.896857
-0.719695
-0.547469
-0.382516
-0.237566
-0.146387
-0.135217
-0.231331
-0.388750
-0.512919
-0.570328
-0.528505
-0.391607
-0.214965
-0.031569
0.125331
0.230537
0.289505
0.321196
0.350550
0.389515
0.400166
0.391074
0.426403
0.534986
0.739943
0.981787
1.155831
1.228566
1.216617
1.174275
1.167521
1.215318
1.267792
1.332994
1.457422
1.612504
1.729919
1.746804
1.698747
1.653807
1.619258
1.578215
1.505220
1.407288
1.327279
1.315330
1.352997
1.386507
1.393521
1.341567
1.217918
1.028027
0.802549
0.588240
0.382504
0.202225
0.064029
-0.070791
-0.229249
-0.386668
-0.506941
-0.602795
-0.696571
-0.811908
-0.982316
-1.194286
-1.394827
-1.571729
-1.748111
-1.930468
-2.098538
-2.200887
-2.211017
-2.144776
-2.056196
-2.020088
-2.058274
-2.134385
-2.180105
-2.168934
-2.115422
-2.041908
-1.958003
-1.854355
-1.743174
-1.622642
-1.508084
-1.427296
-1.362874
-1.277930
-1.177919
-1.076869
-0.956077
-0.845156
-0.757874
-0.651889
-0.472908
-0.234701
-0.024549
0.139365
0.257559
0.340685
0.429786
0.530056
0.628248
0.705919
0.772160
0.889315
1.076348
1.283643
1.519513
1.752784
1.915399
2.018007
2.048920
2.025281
1.973068
1.892800
1.797725
1.678751
1.553543
1.442622
1.348067
1.265720
1.159475
1.010628
0.834766
0.623314
0.385627
0.177813
0.051825
0.035460
0.063255
0.074166
0.044812
-0.057796
-0.186641
-0.292886
-0.362244
-0.430303
-0.529794
-0.614219
-0.660977
-0.698903
-0.749558
-0.791900
-0.809824
-0.777093
-0.697864
-0.614738
-0.508752
-0.350554
-0.146896
0.046891
0.203272
0.336273
0.465897
0.591885
0.664880
0.673972
0.625655
0.542010
0.476029
0.419140
0.321727
0.174698
-0.007919
-0.214174
-0.405883
-0.563822
-0.666170
-0.707214
-0.734489
-0.774753
-0.835539
-0.875803
-0.837357
-0.730332
-0.603825
-0.503555
-0.421208
-0.311327
-0.154686
0.004292
0.102484
0.124045
0.093652
0.072351
0.102225
0.159374
0.197560
0.217821
0.228472
0.217302
0.193144
0.164569
0.123007
0.045856
-0.060909
-0.174168
-0.286647
-0.400425
-0.539141
-0.698119
-0.863332
-0.996333
-1.063093
-1.095824
-1.098941
-1.066989
-1.010620
-0.943080
-0.887749
-0.838653
-0.790076
-0.774490
-0.789297
-0.740720
-0.596549
-0.398606
-0.195987
-0.044022
0.045078
0.059625
0.059106
0.098591
0.130282
0.107163
0.010529
-0.109224
-0.226379
-0.336780
-0.411853
-0.458092
-0.471599
-0.457572
-0.440687
-0.446402
-0.453935
-0.414450
-0.327168
-0.240405
-0.168709
-0.098052
-0.059087
-0.033630
0.024039
0.123270
0.231593
0.311602
0.393169
0.516819
0.680992
0.830619
0.923616
0.925174
0.849842
0.771392
0.708528
0.678135
0.676057
0.696579
0.715542
0.691384
0.651899
0.646964
0.706970
0.787238
0.833737
0.820749
0.779705
0.786979
0.838933
0.879716
0.841790
0.739442
0.635015
0.558903
0.516821
0.478635
0.431357
0.383041
0.358882
0.336802
0.260430
0.144574
0.059630
0.059110
0.132625
0.261470
0.411356
0.560463
0.713466
0.852702
0.938685
0.940244
0.914527
0.882056
0.826985
0.781786
0.737365
0.651902
0.523057
0.363300
0.160681
-0.082202
-0.353659
-0.616025
-0.835269
-0.980999
-1.016327
-0.970608
-0.830333
-0.600698
-0.379376
-0.207409
-0.091553
-0.032066
0.042228
0.185880
0.365639
0.547736
0.682556
0.776073
0.868810
0.926219
0.950637
0.944662
0.924660
0.911412
0.855042
0.730614
0.544880
0.345638
0.148214
-0.067653
-0.274428
-0.443277
-0.546405
-0.561212
-0.516012
-0.463798
-0.422495
-0.403013
-0.390544
-0.403012
-0.484580
-0.573940
-0.626672
-0.617840
-0.555236
-0.477046
-0.364566
-0.266893
-0.241696
-0.319626
-0.482501
-0.651350
-0.791884
-0.865918
-0.854488
-0.757075
-0.583810
-0.401712
-0.271309
-0.204289
-0.197534
-0.218056
-0.238058
-0.276244
-0.287933
-0.233122
-0.113109
0.066390
0.247189
0.349018
0.370838
0.402011
0.422532
0.397335
0.342524
0.278621
0.249268
0.228226
0.185625
0.085094
-0.073364
-0.254422
-0.441195
-0.647711
-0.914232
-1.202315
-1.464940
-1.648336
-1.753023
-1.789130
-1.745230
-1.665481
-1.537675
-1.369605
-1.153218
-0.880981
-0.610303
-0.386643
-0.229223
-0.127134
-0.087650
-0.092585
-0.163502
-0.300140
-0.457559
-0.612640
-0.680180
-0.623031
-0.452103
-0.211299
0.032364
0.250309
0.437082
0.620479
0.761792
0.806473
0.773482
0.720749
0.702566
0.699708
0.651132
0.570604
0.459943
0.306160
0.166145
0.029767
-0.085050
-0.152590
-0.177527
-0.137523
-0.096739
-0.084270
-0.112325
-0.141939
-0.148433
-0.179345
-0.196490
-0.224025
-0.234416
-0.175968
-0.075697
0.063798
0.191084
0.286679
0.335775
0.320189
0.252650
0.153678
0.026652
-0.115441
-0.194411
-0.180643
-0.076476
0.094971
0.291615
0.517094
0.716336
0.812970
0.799722
0.675293
0.477350
0.283044
0.124066
-0.000363
-0.147392
-0.338581
-0.527692
-0.679136
-0.809280
-0.989819
-1.225168
-1.492210
-1.717169
-1.822634
-1.834064
-1.751977
-1.580530
-1.300760
-0.899419
-0.447942
-0.004778
0.413708
0.819985
1.208079
1.606303
1.996994
2.317028
2.592902
2.792144
2.886959
2.886959
2.756816
2.544326
2.290792
2.004528
1.739825
1.534608
1.375111
1.194832
0.960781
0.688544
0.417866
0.186413
0.009511
-0.106345
-0.246880
-0.434692
-0.631336
-0.895000
-1.212697
-1.566241
-1.946541
-2.305540
-2.628431
-2.867678
-2.995483
-3.024317
-2.983794
-2.894433
-2.778577
-2.669214
-2.568165
-2.486857
-2.375676
-2.183968
-1.923420
-1.627804
-1.350112
-1.061770
-0.717837
-0.340394
0.017566
0.307467
0.528010
0.659453
0.705692
0.706990
0.652179
0.562300
0.464367
0.373968
0.315001
0.275516
0.279932
0.335783
0.409037
0.459432
0.465927
0.451120
0.450341
0.484890
0.549832
0.655817
0.769076
0.860774
0.948316
1.003907
1.034559
1.048587
1.000530
0.839993
0.572952
0.284869
0.016270
-0.213625
-0.392605
-0.557298
-0.706664
-0.819404
-0.864603
-0.851355
-0.841743
-0.818624
-0.766410
-0.718613
-0.706664
-0.756539
-0.796024
-0.773943
-0.741472
-0.733679
-0.752642
-0.781996
-0.815766
-0.878110
-0.974224
-1.030074
-1.014488
-0.950325
-0.826156
-0.643799
-0.394681
-0.126601
0.080434
0.197070
0.247985
0.287470
0.295003
0.233178
0.090826
-0.098026
-0.251548
-0.344805
-0.389225
-0.425073
-0.510277
-0.647175
-0.844858
-1.115536
-1.435050
-1.776385
-2.071741
-2.272022
-2.340341
-2.267866
-2.136423
-2.020567
-1.936662
-1.870421
-1.838989
-1.809375
-1.731445
-1.627538
-1.482067
-1.283345
-1.038643
-0.767965
-0.503521
-0.303500
-0.209983
-0.194397
-0.233103
-0.294148
-0.354414
-0.358830
-0.288693
-0.219854
-0.170498
-0.144521
-0.125039
-0.072046
-0.013598
0.020691
0.063553
0.118364
0.180709
0.261497
0.313450
0.332413
0.340986
0.320984
0.247989
0.133951
0.037577
-0.012038
0.003028
0.058099
0.069009
0.001730
-0.126336
-0.295445
-0.500402
-0.754195
-1.038381
-1.291654
-1.489598
-1.616104
-1.697931
-1.777940
-1.791448
-1.721830
-1.599219
-1.437643
-1.252169
-1.000714
-0.656521
-0.238814
0.151617
0.434764
0.638682
0.770904
0.786230
0.660243
0.432946
0.155254
-0.116723
-0.359086
-0.554431
-0.695745
-0.835760
-0.978632
-1.127479
-1.303602
-1.524924
-1.809110
-2.133300
-2.471778
-2.795968
-3.082752
-3.326414
-3.500199
-3.531890
-3.375250
-3.075478
-2.742715
-2.465802
-2.264222
-2.108621
-1.949643
-1.796120
-1.641039
-1.452447
-1.224371
-0.947718
-0.697562
-0.493903
-0.296220
-0.121396
0.048752
0.206431
0.360733
0.563612
0.832472
1.142895
1.449941
1.735685
2.008961
2.274964
2.499144
2.646432
2.702542
2.679163
2.598115
2.477843
2.336269
2.159887
1.972595
1.795693
1.609439
1.400066
1.142377
0.842345
0.527506
0.252412
0.070574
-0.011252
-0.017747
0.012906
0.040442
0.037324
0.056028
0.122009
0.213447
0.296833
0.342033
0.386973
0.411910
0.411131
0.387233
0.288261
0.105904
-0.116717
-0.333104
-0.572869
-0.829260
-1.053959
-1.205924
-1.259695
-1.255279
-1.219951
-1.167218
-1.092405
-0.993433
-0.906411
-0.867186
-0.857574
-0.832117
-0.806400
-0.796009
-0.800165
-0.807698
-0.809257
-0.830298
-0.865886
-0.925633
-1.014733
-1.066946
-1.027202
-0.925113
-0.812114
-0.693659
-0.545332
-0.329465
-0.054370
0.227997
0.461789
0.598427
0.644665
0.622066
0.549591
0.439449
0.326450
0.282809
0.324632
0.419187
0.524913
0.641029
0.757405
0.864430
0.999769
1.192517
1.452025
1.754915
2.067675
2.358356
2.602018
2.756320
2.812430
2.787233
2.652413
2.416544
2.085080
1.666075
1.205766
0.773772
0.453998
0.264367
0.198646
0.242287
0.343597
0.448283
0.512446
0.497639
0.396070
0.229559
0.021485
-0.156975
-0.287379
-0.373622
-0.372842
-0.312057
-0.212825
-0.080084
0.096559
0.336844
0.587001
0.818973
1.041595
1.247850
1.407867
1.487356
1.467614
1.339549
1.135371
0.897684
0.641293
0.374511
0.120458
-0.122165
-0.375958
-0.682224
-1.060446
-1.444383
-1.803383
-2.134846
-2.424747
-2.686593
-2.890771
-2.993899
-3.011823
-2.996496
-2.955713
-2.865573
-2.756470
-2.654381
-2.574892
-2.530212
-2.495403
-2.454100
-2.390717
-2.333308
-2.292264
-2.190695
-2.036653
-1.882350
-1.751427
-1.675056
-1.594008
-1.442044
-1.251114
-1.040182
-0.821198
-0.640659
-0.525322
-0.468693
-0.441677
-0.395178
-0.318547
-0.241136
-0.147619
0.001488
0.218394
0.475564
0.740268
0.987307
1.176418
1.316174
1.420341
1.477749
1.509961
1.529703
1.544250
1.523729
1.449435
1.343190
1.246037
1.220320
1.251492
1.319811
1.453332
1.638027
1.799343
1.891561
1.943774
1.964815
1.975986
1.997027
1.957802
1.817268
1.626078
1.412549
1.172784
0.917172
0.667275
0.434783
0.208266
0.001750
-0.138005
-0.208662
-0.269707
-0.311010
-0.318024
-0.344780
-0.379589
-0.428685
-0.508433
-0.592338
-0.686374
-0.765863
-0.817037
-0.878083
-0.959910
-1.034982
-1.079663
-1.130057
-1.215261
-1.321246
-1.426193
-1.488797
-1.494771
-1.468275
-1.446194
-1.433206
-1.397618
-1.317349
-1.200194
-1.076025
-0.964844
-0.872367
-0.775473
-0.651564
-0.491287
-0.325815
-0.173850
-0.015652
0.133455
0.284381
0.455048
0.626235
0.734818
0.736377
0.652472
0.519471
0.396601
0.306721
0.261781
0.248533
0.216062
0.152939
0.046954
-0.070721
-0.176706
-0.277756
-0.351270
-0.387378
-0.402444
-0.406860
-0.386339
-0.348932
-0.284769
-0.192811
-0.108646
-0.035392
0.022017
0.063580
0.082803
0.057605
-0.021364
-0.143195
-0.293081
-0.476737
-0.692604
-0.932370
-1.189800
-1.462556
-1.749599
-2.051709
-2.349144
-2.598781
-2.788151
-2.906346
-2.932582
-2.867640
-2.719312
-2.506043
-2.248353
-1.965206
-1.694008
-1.456840
-1.255780
-1.088489
-0.901716
-0.659092
-0.378543
-0.061886
0.247758
0.518176
0.759760
0.915361
0.972251
0.993292
1.013034
1.049142
1.077457
1.079016
1.101096
1.189157
1.339044
1.487111
1.559587
1.556729
1.488670
1.354110
1.185781
0.977447
0.753527
0.558961
0.363876
0.149567
-0.102668
-0.365293
-0.596746
-0.764036
-0.820926
-0.810015
-0.762478
-0.678572
-0.569730
-0.485825
-0.459848
-0.465562
-0.517516
-0.583497
-0.629736
-0.638048
-0.613890
-0.601680
-0.573625
-0.531283
-0.479330
-0.419323
-0.405296
-0.429973
-0.462444
-0.506345
-0.576742
-0.669999
-0.757800
-0.804299
-0.775464
-0.671817
-0.510761
-0.309700
-0.082143
0.162818
0.389855
0.556886
0.673262
0.726774
0.683913
0.561302
0.371412
0.140738
-0.114614
-0.388928
-0.644800
-0.874175
-1.079391
-1.251877
-1.371370
-1.438131
-1.444365
-1.377085
-1.261228
-1.104329
-0.933661
-0.783775
-0.671555
-0.586351
-0.479067
-0.352300
-0.253069
-0.182412
-0.079543
0.053977
0.186199
0.337904
0.482075
0.612998
0.720282
0.757429
0.762625
0.773535
0.783147
0.805227
0.831723
0.837438
0.837438
0.819774
0.757170
0.653003
0.535588
0.458178
0.402847
0.366739
0.396093
0.489610
0.636119
0.771198
0.820814
0.756392
0.609883
0.476882
0.391678
0.340763
0.310630
0.283355
0.267769
0.249845
0.195553
0.096322
-0.044472
-0.202930
-0.358012
-0.505820
-0.613623
-0.655706
-0.638301
-0.572060
-0.470231
-0.344243
-0.210723
-0.079280
0.013457
0.062553
0.111390
0.153213
0.193477
0.220493
0.208803
0.165422
0.081777
-0.030443
-0.145260
-0.233062
-0.281119
-0.263714
-0.187342
-0.090968
0.020472
0.116327
0.185685
0.228546
0.269330
0.341286
0.452986
0.608327
0.783671
0.972003
1.133319
1.226575
1.249955
1.207353
1.106823
0.955897
0.776138
0.573259
0.379992
0.205428
0.052425
-0.070705
-0.202667
-0.347098
-0.518804
-0.714410
-0.901962
-1.057823
-1.159132
-1.210566
-1.215761
-1.196538
-1.157833
-1.112893
-1.091592
-1.107697
-1.153416
-1.192382
-1.207188
-1.175237
-1.100424
-1.000673
-0.885076
-0.760127
-0.609462
-0.439574
-0.253060
-0.044207
0.181272
0.396100
0.583653
0.767049
0.948886
1.083966
1.114619
1.037987
0.878490
0.681845
0.493514
0.325964
0.187248
0.067754
-0.000045
0.008008
0.038141
0.036842
-0.010435
-0.094600
-0.189415
-0.237732
-0.230718
-0.200585
-0.152268
-0.080312
0.029569
0.152180
0.268556
0.396362
0.514297
0.606514
0.702109
0.822382
0.929666
0.986815
0.986815
0.943694
0.866283
0.776403
