EVENT_NAME: 202302060117
EVENT_ID: 13194
EVENT_DATE_YYYYMMDD: 2023/02/06
EVENT_TIME_HHMMSS: 01:17:32.00000
EVENT_LATITUDE_DEGREE: 37.288
EVENT_LONGITUDE_DEGREE: 37.043
EVENT_DEPTH_KM: 8.6
HYPOCENTER_REFERENCE: AFAD
MAGNITUDE_W: 7.7
MAGNITUDE_W_REFERENCE: AFAD
MAGNITUDE_L: 
MAGNITUDE_L_REFERENCE: 
FOCAL_MECHANISM: 
NETWORK: TK
STATION_CODE: 5505
STATION_NAME: 
STATION_LATITUDE_DEGREE: 41.2039
STATION_LONGITUDE_DEGREE: 36.7287
STATION_ELEVATION_M: 30.0
LOCATION: Kahramanmaras_Pazarck_Turkiye
SENSOR_DEPTH_M: 
VS30_M/S: 238
SITE_CLASSIFICATION_EC8: C
MORPHOLOGIC_CLASSIFICATION: 
EPICENTRAL_DISTANCE_KM: 436.27
EARTHQUAKE_BACKAZIMUTH_DEGREE: 
DATE_TIME_FIRST_SAMPLE_YYYYMMDD_HHMMSS: 2023/02/06 01:18:07.4433880
DATE_TIME_FIRST_SAMPLE_PRECISION: millisecond
SAMPLING_INTERVAL_S: 0.01
NDATA: 21001
DURATION_S: 
STREAM: HNE
UNITS: cm/s^2
INSTRUMENT: sensor = ACEBOX/SARA | digitizer = 
INSTRUMENT_ANALOG/DIGITAL: 
INSTRUMENTAL_FREQUENCY_HZ: 
INSTRUMENTAL_DAMPING: 
FULL_SCALE_G: 
N_BIT_DIGITAL_CONVERTER: 
PGA_CM/S^2: 3.549
TIME_PGA_S: 
BASELINE_CORRECTION: BASELINE REMOVED
FILTER_TYPE: BUTTERWORTH
FILTER_ORDER: 
LOW_CUT_FREQUENCY_HZ: 
HIGH_CUT_FREQUENCY_HZ: 
LATE/NORMAL_TRIGGERED: 
DATABASE_VERSION: 
HEADER_FORMAT: DYNA 1.2
DATA_TYPE: Acceleration
PROCESSING: Automatic Paolucci et al., 2011
DATA_TIMESTAMP_YYYYMMDD_HHMMSS: 
DATA_LICENSE: U (unknown license)
DATA_CITATION: Turkish Accelerometric Archive v 1.0 - Disaster And Emergency Management Presidency, Earthquake Department
DATA_CREATOR: AFAD
ORIGINAL_DATA_MEDIATOR_CITATION: : AFAD - Disaster And Emergency Management Presidency
ORIGINAL_DATA_MEDIATOR: AFAD PROCESS SERVICE
ORIGINAL_DATA_CREATOR_CITATION: AFAD PROCESS SERVICE
ORIGINAL_DATA_CREATOR: network: TK
USER1: GuestUser
USER2: 
USER3: 
USER4: 
USER5: 
0.294056
0.307849
0.309017
0.298261
0.293117
0.291947
0.288205
0.292179
0.292879
0.285163
0.280720
0.280485
0.294979
0.322099
0.338230
0.345009
0.354126
0.365348
0.374699
0.381010
0.386153
0.384048
0.375396
0.366277
0.354820
0.346636
0.337284
0.325125
0.317643
0.299172
0.282337
0.289117
0.291687
0.275788
0.254979
0.230196
0.203542
0.178525
0.164262
0.153507
0.119137
0.076352
0.044554
0.015329
-0.014365
-0.045694
-0.075621
-0.102509
-0.126825
-0.141087
-0.159792
-0.188784
-0.216841
-0.236247
-0.247937
-0.263837
-0.272488
-0.268748
-0.269684
-0.266178
-0.256360
-0.250282
-0.237892
-0.220358
-0.202824
-0.186225
-0.180615
-0.183188
-0.182955
-0.189269
-0.200492
-0.205636
-0.217561
-0.239305
-0.261517
-0.288638
-0.318565
-0.348492
-0.377484
-0.404372
-0.438741
-0.477552
-0.520338
-0.576450
-0.630224
-0.685401
-0.753671
-0.818200
-0.886002
-0.964092
-1.035167
-1.106944
-1.186202
-1.259615
-1.329989
-1.398726
-1.469334
-1.554437
-1.637202
-1.709681
-1.794784
-1.889940
-1.987902
-2.090306
-2.184294
-2.276411
-2.376945
-2.474673
-2.564919
-2.651192
-2.730450
-2.802928
-2.871899
-2.928713
-2.977577
-3.028078
-3.067591
-3.101960
-3.139836
-3.161347
-3.173271
-3.188937
-3.203433
-3.216994
-3.220035
-3.215827
-3.214893
-3.204607
-3.188008
-3.166266
-3.136808
-3.107117
-3.065970
-3.015003
-2.968712
-2.916342
-2.856024
-2.791496
-2.718553
-2.644907
-2.575471
-2.498552
-2.417192
-2.336299
-2.244651
-2.150899
-2.056446
-1.948433
-1.841355
-1.739186
-1.624393
-1.513340
-1.412574
-1.303392
-1.193976
-1.081754
-0.961349
-0.848894
-0.739010
-0.624450
-0.515502
-0.407021
-0.297838
-0.183513
-0.062406
0.052387
0.165076
0.282442
0.400976
0.522783
0.647864
0.775516
0.905507
1.044615
1.183957
1.304362
1.430611
1.568551
1.690358
1.811464
1.933038
2.040350
2.144389
2.248895
2.347557
2.435464
2.526644
2.612446
2.669959
2.734253
2.806261
2.854423
2.901649
2.936951
2.956122
2.988151
3.014569
3.030934
3.047065
3.050571
3.057584
3.070442
3.068804
3.068336
3.076752
3.077218
3.074645
3.083061
3.097322
3.111583
3.118362
3.113451
3.115087
3.120697
3.117890
3.120227
3.121395
3.115316
3.112042
3.100351
3.082114
3.076034
3.069253
3.054990
3.049612
3.041896
3.021788
3.009396
2.999108
2.978533
2.960296
2.943228
2.918444
2.887582
2.855551
2.824221
2.792891
2.765770
2.737947
2.698434
2.661260
2.630164
2.582234
2.524719
2.476089
2.420678
2.355447
2.290217
2.218674
2.147131
2.074185
1.997031
1.931801
1.859089
1.774921
1.708756
1.638382
1.560059
1.489451
1.405517
1.322050
1.247702
1.153714
1.055752
0.969012
0.877831
0.786415
0.691025
0.596102
0.520818
0.454185
0.384980
0.318113
0.251480
0.191861
0.141827
0.084078
0.027732
-0.014820
-0.061346
-0.117926
-0.167025
-0.213084
-0.259844
-0.298421
-0.336298
-0.374641
-0.406439
-0.431923
-0.452732
-0.473074
-0.485232
-0.498793
-0.524512
-0.538073
-0.551167
-0.577820
-0.590213
-0.593487
-0.597696
-0.599100
-0.595594
-0.583671
-0.573853
-0.558189
-0.531070
-0.503716
-0.476830
-0.463505
-0.457895
-0.452285
-0.449948
-0.442233
-0.442702
-0.448080
-0.452056
-0.477540
-0.512611
-0.548617
-0.587428
-0.619459
-0.655932
-0.699653
-0.753428
-0.822399
-0.887863
-0.956133
-1.035859
-1.119559
-1.209572
-1.300988
-1.392403
-1.491067
-1.594874
-1.705694
-1.818619
-1.924764
-2.024129
-2.120455
-2.228704
-2.344200
-2.453618
-2.568180
-2.681573
-2.789588
-2.899474
-3.006788
-3.107789
-3.201075
-3.287815
-3.364267
-3.421782
-3.465503
-3.502211
-3.528864
-3.546400
-3.549440
-3.539388
-3.522088
-3.491695
-3.452185
-3.414778
-3.362876
-3.295076
-3.230549
-3.156903
-3.067594
-2.982025
-2.896456
-2.798496
-2.695158
-2.587613
-2.473988
-2.357792
-2.235283
-2.105760
-1.982550
-1.855833
-1.719530
-1.593748
-1.462355
-1.313427
-1.166136
-1.023988
-0.895400
-0.774996
-0.649681
-0.526471
-0.396013
-0.270231
-0.161049
-0.057010
0.027624
0.105711
0.184266
0.244351
0.316359
0.389303
0.442374
0.510408
0.569792
0.605328
0.645307
0.680375
0.720821
0.761267
0.778567
0.800309
0.819246
0.831169
0.859691
0.872081
0.864131
0.877223
0.898498
0.915564
0.941047
0.958581
0.966529
0.973776
0.973307
0.988035
1.012817
1.021467
1.033389
1.050455
1.054195
1.054662
1.055830
1.054894
1.062842
1.072661
1.070789
1.056994
1.037121
1.028469
1.030105
1.021453
1.013737
1.011866
0.990355
0.957623
0.934710
0.913667
0.879999
0.844227
0.823886
0.795596
0.749069
0.709556
0.669342
0.626790
0.599669
0.567404
0.521111
0.476221
0.429227
0.379661
0.335706
0.286140
0.219507
0.159186
0.108919
0.051404
-0.001669
-0.061288
-0.134000
-0.193386
-0.247160
-0.307481
-0.368736
-0.431395
-0.489612
-0.548763
-0.614461
-0.678756
-0.742116
-0.803372
-0.860653
-0.918870
-0.974047
-1.020574
-1.058917
-1.091416
-1.117135
-1.134203
-1.156882
-1.181432
-1.196162
-1.215334
-1.228896
-1.232871
-1.242925
-1.247602
-1.253916
-1.267711
-1.274959
-1.278000
-1.271922
-1.263038
-1.261169
-1.251117
-1.251819
-1.270290
-1.278240
-1.281514
-1.288295
-1.293440
-1.310040
-1.331784
-1.342072
-1.365453
-1.404498
-1.419462
-1.428347
-1.442142
-1.440740
-1.454535
-1.472305
-1.469968
-1.476515
-1.485167
-1.488207
-1.487273
-1.468804
-1.454543
-1.450569
-1.429295
-1.405448
-1.392590
-1.364770
-1.333675
-1.322220
-1.296737
-1.254187
-1.221924
-1.187323
-1.152021
-1.112510
-1.068557
-1.035125
-0.989068
-0.940673
-0.907241
-0.860015
-0.813490
-0.770472
-0.720908
-0.676254
-0.626923
-0.578294
-0.537848
-0.492960
-0.444098
-0.400846
-0.358764
-0.313642
-0.285119
-0.262442
-0.234387
-0.206800
-0.167991
-0.147184
-0.142509
-0.123338
-0.113987
-0.099493
-0.085700
-0.096455
-0.092949
-0.096457
-0.116097
-0.117501
-0.122178
-0.131297
-0.139013
-0.155146
-0.162862
-0.172215
-0.196531
-0.218509
-0.229498
-0.236046
-0.246801
-0.265038
-0.291692
-0.312969
-0.326062
-0.342429
-0.356224
-0.384514
-0.414909
-0.422625
-0.440395
-0.453021
-0.443436
-0.450918
-0.460038
-0.451388
-0.448116
-0.447181
-0.435259
-0.414686
-0.394814
-0.376111
-0.348290
-0.317663
-0.292882
-0.262723
-0.226953
-0.188611
-0.144892
-0.103978
-0.061662
-0.009526
0.036063
0.073002
0.124904
0.179144
0.220993
0.268453
0.308665
0.339058
0.384180
0.423223
0.451745
0.487983
0.515804
0.541521
0.572615
0.593656
0.620541
0.652337
0.673845
0.701666
0.728318
0.741410
0.750995
0.754968
0.759643
0.770631
0.768058
0.755198
0.742806
0.722231
0.701890
0.685289
0.656297
0.624500
0.595274
0.553657
0.509702
0.463176
0.405427
0.353289
0.305126
0.252053
0.197344
0.136088
0.077871
0.025734
-0.033418
-0.090465
-0.145876
-0.204560
-0.264180
-0.329878
-0.396511
-0.463378
-0.530011
-0.597112
-0.668888
-0.733417
-0.798414
-0.870658
-0.943604
-1.014913
-1.075234
-1.133684
-1.200083
-1.258767
-1.312542
-1.363043
-1.400451
-1.439263
-1.481581
-1.509871
-1.530914
-1.554996
-1.575104
-1.587963
-1.587964
-1.580016
-1.575575
-1.570666
-1.558276
-1.533728
-1.510817
-1.495855
-1.467099
-1.429458
-1.396494
-1.365166
-1.346463
-1.321448
-1.273053
-1.242660
-1.225126
-1.188889
-1.149144
-1.109166
-1.075266
-1.052589
-1.010272
-0.956967
-0.915586
-0.873504
-0.825810
-0.774843
-0.727851
-0.683430
-0.636905
-0.595057
-0.555546
-0.519075
-0.489383
-0.457822
-0.426260
-0.399374
-0.383711
-0.372489
-0.354020
-0.342565
-0.332980
-0.311004
-0.296510
-0.282951
-0.254662
-0.232920
-0.219361
-0.200424
-0.181254
-0.159278
-0.129820
-0.101532
-0.073944
-0.045890
-0.021809
0.007882
0.041548
0.080123
0.131324
0.175511
0.210813
0.258039
0.314383
0.368156
0.420058
0.467752
0.518017
0.575998
0.628835
0.688452
0.756486
0.814233
0.880631
0.952873
1.020907
1.102034
1.178485
1.247220
1.336764
1.433555
1.524267
1.612875
1.704757
1.804587
1.899040
1.992558
2.093324
2.186608
2.276619
2.371540
2.461083
2.548055
2.629883
2.701424
2.777641
2.855728
2.918853
2.975898
3.033178
3.081573
3.129267
3.171115
3.198702
3.233070
3.270944
3.300168
3.336873
3.365629
3.375915
3.400463
3.423842
3.425243
3.435997
3.446050
3.440671
3.443476
3.448385
3.444175
3.429211
3.405831
3.394374
3.386190
3.366784
3.356730
3.351819
3.336621
3.327502
3.331476
3.335917
3.324927
3.302716
3.306456
3.320950
3.300843
3.285177
3.294528
3.286344
3.266938
3.250805
3.225788
3.200069
3.175753
3.154477
3.139513
3.108417
3.069138
3.046926
3.019805
2.976552
2.942884
2.908281
2.859416
2.815695
2.774312
2.725448
2.673310
2.624445
2.583997
2.541445
2.495854
2.453302
2.407477
2.358846
2.306007
2.253869
2.211785
2.161050
2.098859
2.045084
1.991544
1.928418
1.870903
1.818765
1.763120
1.714256
1.673340
1.623307
1.568363
1.518330
1.472271
1.430654
1.384595
1.339939
1.307206
1.269564
1.230285
1.200358
1.173704
1.144245
1.105433
1.068960
1.044176
1.018692
0.991570
0.970294
0.947848
0.923299
0.903191
0.878641
0.849416
0.834218
0.824865
0.810836
0.799379
0.789325
0.781609
0.775763
0.767579
0.763136
0.759862
0.754484
0.761263
0.771549
0.765236
0.762663
0.772481
0.768272
0.760556
0.765698
0.767802
0.769905
0.773645
0.765461
0.757511
0.747924
0.731324
0.720334
0.704201
0.682457
0.664454
0.638969
0.609042
0.579583
0.548253
0.518092
0.480216
0.442574
0.417790
0.384122
0.340401
0.307669
0.268857
0.223500
0.194274
0.157567
0.107534
0.072229
0.033652
-0.018954
-0.068052
-0.118085
-0.162976
-0.206930
-0.260471
-0.304192
-0.345575
-0.397946
-0.447279
-0.496377
-0.546878
-0.590132
-0.638529
-0.685055
-0.719658
-0.753560
-0.783954
-0.812011
-0.840535
-0.857136
-0.873736
-0.888233
-0.887766
-0.888702
-0.888703
-0.882625
-0.872573
-0.852701
-0.833764
-0.811087
-0.781863
-0.757783
-0.723416
-0.686711
-0.659825
-0.622418
-0.585246
-0.558827
-0.521421
-0.478169
-0.444036
-0.407564
-0.368989
-0.337193
-0.304463
-0.268225
-0.233858
-0.198555
-0.167227
-0.138471
-0.106910
-0.081427
-0.057346
-0.031162
-0.007550
0.016998
0.037805
0.056274
0.079653
0.100928
0.111681
0.117759
0.125707
0.135292
0.142305
0.138096
0.124067
0.107233
0.088528
0.069589
0.043871
0.008566
-0.031881
-0.077707
-0.120960
-0.162343
-0.207467
-0.252591
-0.297948
-0.345176
-0.388897
-0.428644
-0.469326
-0.513280
-0.560508
-0.609139
-0.655900
-0.700556
-0.752927
-0.815352
-0.873335
-0.934591
-1.007303
-1.068792
-1.129814
-1.197383
-1.253495
-1.313582
-1.373435
-1.423001
-1.475840
-1.518158
-1.560710
-1.615887
-1.662180
-1.707304
-1.751960
-1.792642
-1.850391
-1.906035
-1.948587
-1.993711
-2.035796
-2.076945
-2.119965
-2.149424
-2.168596
-2.191509
-2.210448
-2.220502
-2.240142
-2.260016
-2.266095
-2.281761
-2.300699
-2.314728
-2.342083
-2.359619
-2.365465
-2.381598
-2.390249
-2.395628
-2.401473
-2.393993
-2.385577
-2.374590
-2.361732
-2.350510
-2.332743
-2.315910
-2.294402
-2.275699
-2.264945
-2.241099
-2.217954
-2.204161
-2.180081
-2.155767
-2.141038
-2.121167
-2.092177
-2.065759
-2.037938
-2.005441
-1.978087
-1.953540
-1.926186
-1.893923
-1.853010
-1.811161
-1.770949
-1.732607
-1.693798
-1.650078
-1.610568
-1.573862
-1.531078
-1.489463
-1.456265
-1.433822
-1.411378
-1.387999
-1.372570
-1.355503
-1.346854
-1.350128
-1.355272
-1.367665
-1.379122
-1.395021
-1.413258
-1.416298
-1.429859
-1.451136
-1.465165
-1.486675
-1.500937
-1.507952
-1.519176
-1.525957
-1.535076
-1.543026
-1.543962
-1.544898
-1.542093
-1.540224
-1.545602
-1.543967
-1.537655
-1.542566
-1.545606
-1.537190
-1.535087
-1.528074
-1.513813
-1.516620
-1.524102
-1.523402
-1.519662
-1.512883
-1.514754
-1.521535
-1.522939
-1.529019
-1.539540
-1.548426
-1.558012
-1.562923
-1.568769
-1.584200
-1.591917
-1.593087
-1.602673
-1.605012
-1.601039
-1.600806
-1.601742
-1.603379
-1.597535
-1.586080
-1.580003
-1.575561
-1.565275
-1.550079
-1.539559
-1.533715
-1.531378
-1.530678
-1.526471
-1.523198
-1.516419
-1.509874
-1.512446
-1.513149
-1.504499
-1.490239
-1.476445
-1.466861
-1.452132
-1.433897
-1.420104
-1.402570
-1.384335
-1.369841
-1.350436
-1.336409
-1.323552
-1.300640
-1.286613
-1.276094
-1.251312
-1.228401
-1.215543
-1.199412
-1.190762
-1.193569
-1.191466
-1.191700
-1.198248
-1.199885
-1.208069
-1.220695
-1.231451
-1.254597
-1.278679
-1.292241
-1.303464
-1.305803
-1.302531
-1.295050
-1.280088
-1.265360
-1.247358
-1.220472
-1.187976
-1.148932
-1.107551
-1.061494
-1.009592
-0.961898
-0.908827
-0.845002
-0.787255
-0.729975
-0.668254
-0.615884
-0.556033
-0.488233
-0.431888
-0.373440
-0.310783
-0.253504
-0.193419
-0.133802
-0.070444
-0.002176
0.063754
0.136230
0.216889
0.293106
0.370492
0.456529
0.538825
0.619717
0.702247
0.776360
0.845329
0.911259
0.974149
1.036105
1.084734
1.117698
1.146688
1.164222
1.172871
1.184560
1.188066
1.182220
1.178713
1.173802
1.170294
1.168656
1.161875
1.156497
1.159302
1.165847
1.177302
1.199278
1.223592
1.247906
1.283209
1.324824
1.365737
1.404780
1.442187
1.481698
1.515831
1.546925
1.585501
1.616127
1.635765
1.659846
1.677847
1.686029
1.693977
1.694678
1.694910
1.694909
1.685323
1.682049
1.681113
1.666616
1.662173
1.661471
1.645572
1.631075
1.623125
1.618682
1.624994
1.632007
1.635980
1.650241
1.668944
1.682503
1.695595
1.709154
1.723882
1.733233
1.732999
1.738141
1.736270
1.715695
1.696289
1.669635
1.637604
1.613054
1.578919
1.545017
1.520935
1.497320
1.481655
1.470198
1.462248
1.461546
1.452660
1.438398
1.427408
1.415718
1.408001
1.397713
1.382282
1.380878
1.380877
1.375265
1.385785
1.400747
1.407292
1.417345
1.428099
1.438618
1.456152
1.471582
1.479296
1.481867
1.476723
1.471812
1.472045
1.468069
1.462457
1.461521
1.461988
1.465494
1.473442
1.486767
1.507808
1.530719
1.555033
1.588699
1.625171
1.652290
1.678007
1.707465
1.737390
1.767782
1.798643
1.832542
1.870884
1.907356
1.944295
1.980298
2.012795
2.052306
2.086206
2.108182
2.138808
2.163590
2.176681
2.198424
2.214087
2.210813
2.203331
2.187431
2.159375
2.131786
2.107704
2.080582
2.052058
2.029613
2.009271
1.985657
1.965549
1.950118
1.934219
1.921826
1.916448
1.907797
1.897742
1.892598
1.886284
1.882777
1.881373
1.879969
1.886514
1.888851
1.889786
1.893993
1.885809
1.876456
1.864298
1.841619
1.824551
1.813561
1.800468
1.789712
1.785970
1.785736
1.787605
1.799294
1.811684
1.823373
1.846518
1.865689
1.878313
1.888131
1.887663
1.887662
1.879945
1.859604
1.845342
1.828507
1.801620
1.775667
1.751819
1.726568
1.699680
1.672091
1.643099
1.611536
1.576465
1.537654
1.495336
1.448341
1.402750
1.354119
1.296838
1.244700
1.192095
1.134814
1.091560
1.058126
1.019783
0.987518
0.963202
0.934210
0.907322
0.885578
0.867107
0.852377
0.831334
0.813097
0.806082
0.786676
0.764698
0.754177
0.729159
0.698999
0.672345
0.628390
0.584201
0.543520
0.489745
0.435036
0.377988
0.314161
0.255710
0.199832
0.148863
0.104908
0.051368
-0.011525
-0.069507
-0.138478
-0.220308
-0.293020
-0.362927
-0.432365
-0.488945
-0.527523
-0.552540
-0.574284
-0.591586
-0.603277
-0.611694
-0.609825
-0.610995
-0.617542
-0.617543
-0.623623
-0.638119
-0.652849
-0.670853
-0.693064
-0.723927
-0.763439
-0.804822
-0.848076
-0.889459
-0.926867
-0.964743
-1.000983
-1.030676
-1.067617
-1.120222
-1.176802
-1.240864
-1.313342
-1.379975
-1.440062
-1.495940
-1.548779
-1.598579
-1.638326
-1.670123
-1.697946
-1.715482
-1.722730
-1.714782
-1.690234
-1.663115
-1.635995
-1.603498
-1.569599
-1.539674
-1.513022
-1.488240
-1.470472
-1.454341
-1.433534
-1.414130
-1.390985
-1.362697
-1.337681
-1.314770
-1.295600
-1.278533
-1.267546
-1.265209
-1.257027
-1.247676
-1.246742
-1.242301
-1.241132
-1.249550
-1.248382
-1.239966
-1.228277
-1.202327
-1.169362
-1.131956
-1.087535
-1.034932
-0.968534
-0.899565
-0.833401
-0.769576
-0.714167
-0.669045
-0.631872
-0.597271
-0.567580
-0.546773
-0.535785
-0.534617
-0.527370
-0.522695
-0.529242
-0.525035
-0.518490
-0.516854
-0.507503
-0.512648
-0.535327
-0.561747
-0.602662
-0.649657
-0.694780
-0.745282
-0.794848
-0.839036
-0.877614
-0.915957
-0.958977
-0.996385
-1.028183
-1.062318
-1.101130
-1.144383
-1.189741
-1.239073
-1.293315
-1.341010
-1.379120
-1.418399
-1.458613
-1.487839
-1.508881
-1.534366
-1.558682
-1.575049
-1.591416
-1.611056
-1.636307
-1.666935
-1.705279
-1.756715
-1.806982
-1.856315
-1.918739
-1.977891
-2.035640
-2.095493
-2.135707
-2.164933
-2.183871
-2.174053
-2.160493
-2.145297
-2.121685
-2.113503
-2.108126
-2.105088
-2.114207
-2.115377
-2.121457
-2.128472
-2.120991
-2.117251
-2.101822
-2.063480
-2.018825
-1.962715
-1.892343
-1.821971
-1.750430
-1.668602
-1.587709
-1.515700
-1.439250
-1.363968
-1.295700
-1.227900
-1.167815
-1.111938
-1.047411
-0.984287
-0.917889
-0.838633
-0.763819
-0.695551
-0.626348
-0.566497
-0.514361
-0.474149
-0.449601
-0.422715
-0.401908
-0.389050
-0.375257
-0.384142
-0.403782
-0.416876
-0.443530
-0.477431
-0.510865
-0.539857
-0.559263
-0.572123
-0.571189
-0.560669
-0.546876
-0.526302
-0.498014
-0.467154
-0.446347
-0.421799
-0.386496
-0.353298
-0.314021
-0.269133
-0.228921
-0.191982
-0.157615
-0.121143
-0.091686
-0.070645
-0.044928
-0.027628
-0.015471
0.002530
0.011881
0.020063
0.032921
0.039232
0.050454
0.062376
0.067987
0.083182
0.101652
0.115445
0.138122
0.162202
0.181840
0.211999
0.248938
0.286812
0.330298
0.377290
0.430595
0.488342
0.555674
0.634229
0.713018
0.797886
0.884156
0.962945
1.042902
1.123561
1.203987
1.279970
1.348705
1.420480
1.487813
1.549534
1.607048
1.652637
1.694953
1.727216
1.749192
1.776780
1.791975
1.796183
1.804599
1.802260
1.793842
1.781450
1.753627
1.721596
1.690734
1.652624
1.616852
1.587860
1.557232
1.535020
1.518419
1.498078
1.483582
1.464877
1.445237
1.433546
1.414374
1.397540
1.382108
1.355688
1.335347
1.315941
1.288352
1.263101
1.238083
1.217976
1.197401
1.170981
1.147600
1.122115
1.100137
1.082835
1.060156
1.045426
1.029059
1.005912
0.992117
0.975049
0.959617
0.947927
0.930859
0.924077
0.912387
0.896254
0.895551
0.887368
0.878482
0.876377
0.863517
0.856970
0.851358
0.834290
0.821430
0.804128
0.777474
0.750353
0.716685
0.681615
0.644206
0.592068
0.536424
0.478207
0.411574
0.350786
0.289530
0.221962
0.169122
0.123297
0.073030
0.034686
-0.004826
-0.054626
-0.100685
-0.149082
-0.208234
-0.270659
-0.333084
-0.400652
-0.480378
-0.563844
-0.639128
-0.718620
-0.807464
-0.892801
-0.977670
-1.066046
-1.156059
-1.247475
-1.338657
-1.437320
-1.541361
-1.642830
-1.751547
-1.868680
-1.977864
-2.083775
-2.192726
-2.289986
-2.378129
-2.463232
-2.538048
-2.613799
-2.688382
-2.750105
-2.816972
-2.878228
-2.924988
-2.980867
-3.031368
-3.066906
-3.102678
-3.126994
-3.139152
-3.150843
-3.158092
-3.158327
-3.155522
-3.152717
-3.150848
-3.152018
-3.153655
-3.144538
-3.134252
-3.125602
-3.107133
-3.083521
-3.058272
-3.030217
-2.996084
-2.955638
-2.917062
-2.870537
-2.818635
-2.771643
-2.719741
-2.669943
-2.625756
-2.577361
-2.532473
-2.496235
-2.463505
-2.422825
-2.378638
-2.339829
-2.296577
-2.252391
-2.208671
-2.156068
-2.103698
-2.049926
-1.993114
-1.933964
