EVENT_NAME: 202302060117
EVENT_ID: 13194
EVENT_DATE_YYYYMMDD: 2023/02/06
EVENT_TIME_HHMMSS: 01:17:32.00000
EVENT_LATITUDE_DEGREE: 37.288
EVENT_LONGITUDE_DEGREE: 37.043
EVENT_DEPTH_KM: 8.6
HYPOCENTER_REFERENCE: AFAD
MAGNITUDE_W: 7.7
MAGNITUDE_W_REFERENCE: AFAD
MAGNITUDE_L: 
MAGNITUDE_L_REFERENCE: 
FOCAL_MECHANISM: 
NETWORK: TK
STATION_CODE: 0214
STATION_NAME: 
STATION_LATITUDE_DEGREE: 38.028298
STATION_LONGITUDE_DEGREE: 38.22594
STATION_ELEVATION_M: 1353.0
LOCATION: Kahramanmaras_Pazarck_Turkiye
SENSOR_DEPTH_M: 
VS30_M/S: None
SITE_CLASSIFICATION_EC8: unknown
MORPHOLOGIC_CLASSIFICATION: 
EPICENTRAL_DISTANCE_KM: 132.74
EARTHQUAKE_BACKAZIMUTH_DEGREE: 
DATE_TIME_FIRST_SAMPLE_YYYYMMDD_HHMMSS: 2023/02/06 01:17:34.9180790
DATE_TIME_FIRST_SAMPLE_PRECISION: millisecond
SAMPLING_INTERVAL_S: 0.01
NDATA: 3908
DURATION_S: 
STREAM: HNE
UNITS: cm/s^2
INSTRUMENT: sensor = CMG-5T/GURALP | digitizer = 
INSTRUMENT_ANALOG/DIGITAL: 
INSTRUMENTAL_FREQUENCY_HZ: 
INSTRUMENTAL_DAMPING: 
FULL_SCALE_G: 
N_BIT_DIGITAL_CONVERTER: 
PGA_CM/S^2: 54.381
TIME_PGA_S: 
BASELINE_CORRECTION: BASELINE REMOVED
FILTER_TYPE: BUTTERWORTH
FILTER_ORDER: 
LOW_CUT_FREQUENCY_HZ: 
HIGH_CUT_FREQUENCY_HZ: 
LATE/NORMAL_TRIGGERED: 
DATABASE_VERSION: 
HEADER_FORMAT: DYNA 1.2
DATA_TYPE: Acceleration
PROCESSING: Automatic Paolucci et al., 2011
DATA_TIMESTAMP_YYYYMMDD_HHMMSS: 
DATA_LICENSE: U (unknown license)
DATA_CITATION: Turkish Accelerometric Archive v 1.0 - Disaster And Emergency Management Presidency, Earthquake Department
DATA_CREATOR: AFAD
ORIGINAL_DATA_MEDIATOR_CITATION: : AFAD - Disaster And Emergency Management Presidency
ORIGINAL_DATA_MEDIATOR: AFAD PROCESS SERVICE
ORIGINAL_DATA_CREATOR_CITATION: AFAD PROCESS SERVICE
ORIGINAL_DATA_CREATOR: network: TK
USER1: GuestUser
USER2: 
USER3: 
USER4: 
USER5: 
[...]
0.031924
0.030687
0.033202
0.031964
0.029162
0.031990
0.030752
0.031391
0.030779
0.032043
0.032056
0.031756
0.032082
0.028655
0.032734
0.031809
0.031822
0.032773
0.032474
0.031549
0.030624
0.034389
0.030650
0.032227
0.034429
0.031628
0.031015
0.032279
0.032292
0.033244
0.033257
0.030455
0.030469
0.031107
0.032997
0.033635
0.031772
0.032098
0.032424
0.032124
0.032137
0.032463
0.031851
0.030926
0.031252
0.031578
0.031278
0.029728
0.033181
0.033819
0.030080
0.031031
0.031357
0.032308
0.032321
0.030771
0.030784
0.032048
0.033625
0.031449
0.031775
0.032101
0.031801
0.032752
0.032453
0.030277
0.032479
0.032805
0.030316
0.032206
0.031906
0.030356
0.031307
0.032884
0.029770
0.031659
0.031672
0.031998
0.032949
0.032650
0.031725
0.030800
0.032689
0.032077
0.033028
0.034292
0.030553
0.031817
0.032768
0.030905
0.032482
0.032808
0.031882
0.030957
0.033785
0.033486
0.031622
0.031948
0.032899
0.032600
0.034489
0.032001
0.031076
0.033591
0.032040
0.032991
0.033005
0.032705
0.032093
0.034295
0.032744
0.032758
0.033083
0.032471
0.033110
0.031559
0.033136
0.032211
0.032537
0.032550
0.033189
0.034453
0.033840
0.031664
0.031990
0.032942
0.032955
0.034844
0.032981
0.032369
0.032695
0.033020
0.033659
0.033047
0.033998
0.032135
0.032461
0.034663
0.033112
0.032187
0.033764
0.033152
0.033790
0.033491
0.033191
0.033204
0.033530
0.033543
0.032618
0.033882
0.032957
0.032971
0.032984
0.034560
0.033323
0.032085
0.034287
0.031486
0.032437
0.034639
0.033714
0.032789
0.035304
0.034379
0.031890
0.034093
0.031291
0.033493
0.035383
0.031956
0.032595
0.033859
0.033872
0.033885
0.035149
0.032348
0.032986
0.034876
0.034263
0.032713
0.032726
0.033365
0.032127
0.034329
0.034030
0.032479
0.034369
0.034069
0.032519
0.034408
0.035985
0.034747
0.033509
0.034461
0.034786
0.035738
0.035751
0.033262
0.034526
0.033914
0.035803
0.035817
0.037081
0.037719
0.037107
0.038684
0.037446
0.039335
0.038410
0.038736
0.040313
0.042203
0.042528
0.040665
0.042242
0.042568
0.042581
0.044470
0.043233
0.043246
0.045761
0.045461
0.043911
0.047364
0.050191
0.048641
0.049280
0.052420
0.054935
0.059639
0.064030
0.065607
0.070936
0.076891
0.078155
0.079107
0.082560
0.086013
0.093844
0.105115
0.116387
0.127658
0.140180
0.151451
0.157719
0.158357
0.155869
0.141184
0.121495
0.100869
0.078053
0.058990
0.043992
0.036813
0.039640
0.046221
0.054677
0.066574
0.080034
0.091931
0.095697
0.083826
0.050378
0.015053
-0.006199
-0.009313
0.011340
0.040749
0.064530
0.092062
0.114905
0.130867
0.132443
0.108377
0.076805
0.063058
0.082773
0.127505
0.181307
0.213218
0.210417
0.185099
0.146647
0.118828
0.117903
0.130738
0.131376
0.122946
0.117017
0.111714
0.115167
0.139260
0.188684
0.266566
0.378221
0.490190
0.552748
0.499598
0.290711
-0.001673
-0.222131
-0.275907
-0.171756
-0.046028
-0.022248
-0.072896
-0.081952
-0.001256
0.081942
0.087584
0.035998
0.023502
0.093253
0.185520
0.163955
-0.050874
-0.431134
-0.753540
-0.776669
-0.496767
-0.149629
0.056470
0.064926
-0.160848
-0.517028
-0.743428
-0.786883
-0.862237
-0.973866
-0.894421
-0.534149
-0.206713
-0.226089
-0.564131
-0.989424
-1.181424
-0.967820
-0.600355
-0.412394
-0.471486
-0.678809
-0.857362
-0.866418
-0.727868
-0.541783
-0.267511
0.100892
0.413943
0.564690
0.544376
0.282013
-0.177992
-0.509155
-0.495694
-0.322745
-0.177314
-0.002801
0.182345
0.200497
0.104503
0.077622
0.188965
0.432904
0.684660
0.815705
0.808526
0.686889
0.479565
0.227835
0.013319
-0.046711
0.075577
0.391755
0.710122
0.747662
0.606324
0.498134
0.434977
0.482837
0.753670
1.125200
1.427931
1.662800
1.650930
1.170910
0.422261
-0.129998
-0.300420
-0.296342
-0.104003
0.377607
0.850772
0.917709
0.578103
0.119348
-0.241836
-0.344709
-0.006015
0.649782
1.175798
1.310909
1.033222
0.356186
-0.481590
-1.005391
-1.032585
-0.818355
-0.603500
-0.270435
0.186156
0.477003
0.385388
0.090189
0.080508
0.402940
0.786979
1.133804
1.313947
1.141961
0.720109
0.304198
0.097187
0.055921
-0.037258
-0.023485
0.128825
0.099129
-0.116951
-0.296441
-0.285796
-0.058119
0.229601
0.354704
0.234944
-0.149695
-0.759182
-1.275165
-1.502503
-1.531260
-1.418353
-1.189738
-1.067450
-1.280402
-1.578729
-1.547756
-1.120248
-0.526370
0.081580
0.648563
0.917519
0.725519
0.373405
0.167332
-0.114733
-0.509691
-0.515932
-0.036825
0.566747
0.889180
0.864488
0.887642
1.118759
1.383337
1.534709
1.576002
1.495332
1.174803
0.707292
0.230713
-0.238987
-0.659276
-0.827821
-0.535098
-0.023780
0.239548
0.283968
0.344962
0.316830
0.256800
0.323424
0.370346
0.306876
0.306576
0.451068
0.493925
0.109599
-0.438282
-0.636849
-0.484539
-0.205888
0.080581
0.303567
0.412096
0.456829
0.391169
0.122865
-0.256457
-0.463155
-0.430619
-0.188869
0.183286
0.447239
0.462263
0.143922
-0.378628
-0.838945
-1.176049
-1.394318
-1.373040
-1.060927
-0.576816
-0.228428
-0.194640
-0.481396
-0.977364
-1.380453
-1.423596
-0.979201
-0.024752
1.171746
2.097112
2.394214
2.139669
1.618370
1.047660
0.512289
0.118581
0.038537
0.383798
1.165623
2.054713
2.624823
2.627025
2.182031
1.682310
1.303301
1.019360
0.884276
0.808922
0.738573
0.695117
0.470906
-0.076036
-0.883478
-1.649954
-1.864782
-1.324381
-0.232958
0.830006
1.280343
1.078023
0.390042
-0.468687
-1.159170
-1.500965
-1.578508
-1.422445
-1.012137
-0.477052
0.054281
0.461462
0.807661
0.964349
0.695106
0.358002
0.477789
0.859952
1.060422
1.190841
1.371922
1.646194
1.986139
2.316703
2.578466
2.196330
0.840368
-0.450234
-0.356403
0.386644
0.610568
0.402932
0.092097
-0.449217
-1.261662
-1.553734
-1.057740
-0.389121
0.097805
0.583167
0.859316
0.261087
-1.269063
-2.720718
-3.357725
-3.598823
-3.648846
-3.161607
-2.023589
-0.791127
-0.199439
-0.175346
-0.319499
-0.918666
-1.783024
-2.307451
-2.890669
-3.871361
-4.708199
-4.882374
-4.286307
-3.268688
-2.302042
-1.404196
-0.687105
-0.232390
0.072529
-0.134794
-1.190852
-2.283187
-2.406700
-1.824393
-1.366551
-1.353091
-1.593250
-1.767112
-1.633566
-0.866751
0.275645
0.733175
0.718490
1.532213
3.118053
4.351453
4.267656
3.321677
2.549260
2.040782
1.981065
2.349468
2.483327
1.957337
1.384751
1.205261
1.431061
1.746613
2.189758
3.220199
4.111478
4.094604
3.489807
3.030427
2.822479
2.429709
1.637591
0.597481
-0.460141
-0.693420
-0.045441
0.290125
0.180998
-0.257117
-0.984814
-1.214966
-0.983537
-1.466058
-2.994331
-4.412837
-4.961969
-4.348702
-3.061201
-0.934973
2.324258
4.929581
5.165389
2.745851
-0.857351
-3.542080
-4.355151
-3.680278
-1.762324
0.020220
0.493073
0.264485
-0.129536
0.085320
1.112321
1.713391
1.560169
0.893453
-0.319906
-0.939088
-0.792094
-0.525952
-0.166306
-0.090613
0.268408
2.028124
3.694334
3.637744
1.715751
-0.925197
-2.170141
-1.714800
-0.051091
2.174271
3.657538
3.450214
1.886916
0.006516
-1.874198
-4.028859
-5.546499
-5.051442
-2.742269
0.073830
2.309825
2.928721
1.788852
0.173329
-1.008132
-1.101311
0.039835
1.628803
2.627659
2.775904
2.665838
2.534506
1.381503
-0.832888
-3.155481
-4.453589
-3.548550
-0.615491
2.886101
4.898811
4.582659
2.349817
-0.007801
-0.722052
-0.223243
0.695556
2.492486
4.485494
5.178192
4.193435
2.435935
1.044323
-0.033001
-0.805105
-0.242813
1.054695
1.373688
1.049718
0.405831
-0.673995
-1.923942
-2.059026
-0.169217
1.465095
0.202951
-2.504919
-3.639472
-2.997122
-2.508945
-3.238519
-4.397777
-4.867163
-4.425270
-3.406400
-1.639804
-0.330412
-1.988779
-4.676635
-4.087761
-1.719171
-0.835710
-1.549960
-2.574746
-3.026308
-2.857110
-1.545842
0.975671
2.945537
3.779587
4.704015
5.560268
4.854462
2.035574
-0.310474
-0.714189
0.194915
1.984965
4.013311
5.906247
6.787831
5.431557
2.339035
-1.609102
-6.306840
-8.579085
-6.846264
-2.974406
1.605774
4.774002
5.825396
5.128033
2.362621
-1.534855
-4.418164
-4.400013
-2.384801
0.688984
4.053290
6.413437
6.743375
4.017366
0.297205
-1.639173
-1.292349
-1.144104
-0.448278
2.163300
4.116592
3.765415
2.769087
3.191591
4.233603
4.928804
4.586070
3.829915
2.888939
0.699254
-2.080544
-3.617573
-5.023570
-7.319582
-8.259307
-6.971493
-4.808363
-1.767102
2.556957
5.306446
4.240693
-0.242516
-5.390265
-8.133161
-8.618809
-7.749421
-5.467143
-1.621553
2.355068
6.365151
9.925223
9.820786
5.197789
-0.933480
-4.470071
-5.291586
-4.609520
-2.166188
2.260131
5.682917
5.348315
2.462816
-0.068365
-1.263898
-2.125129
-2.249268
-3.437609
-5.452169
-7.217174
-7.674677
-5.814577
-4.659046
-6.360568
-9.181333
-8.760392
-5.851726
-3.947219
-1.929193
0.357151
0.521345
-1.660210
-4.097574
-5.701839
-6.473943
-5.949803
-3.563387
1.104043
5.702361
7.425801
7.329807
6.859482
5.488197
3.564015
1.751788
-0.233376
-1.444233
-0.894450
0.091897
0.376177
-0.257390
-1.513905
-1.219618
0.906299
3.221726
3.996046
1.837007
-1.647047
-4.925015
-6.251267
-6.376657
-7.822370
-9.180208
-9.749354
-9.887878
-8.132853
-2.547263
4.540032
9.952998
13.709774
15.478245
14.290843
10.733611
6.388314
3.711090
3.591330
4.145178
4.486687
5.321675
6.083799
5.818309
4.931434
2.570063
0.829762
0.988952
1.447420
2.267710
3.168684
1.897783
-1.632241
-4.749468
-7.159625
-8.721985
-8.736357
-7.233076
-4.446059
-1.020146
0.715176
0.443432
-0.496606
-1.745303
-1.445386
0.550749
2.169425
2.966261
3.341544
3.915095
4.616237
5.606962
5.600720
3.715941
1.119714
-1.079041
-2.371207
-2.230468
0.775143
4.687031
7.930312
8.057292
4.648292
1.113577
-1.612119
-3.961607
-5.015476
-4.393453
-4.125122
-4.565738
-4.648597
-3.610963
-2.151464
-1.735214
-3.093365
-5.678334
-8.220461
-10.063022
-10.644364
-10.370092
-8.938737
-5.357400
-1.860186
1.414681
5.935756
10.138478
11.947916
10.115675
5.088012
-0.746481
-3.992863
-3.811157
-2.195921
-0.869016
-0.517500
-0.071229
1.040208
2.680462
4.222834
4.075554
2.447835
0.946769
0.387317
-0.228737
-1.365166
-2.454686
-2.003098
0.032128
0.545948
-0.161423
0.179461
0.981613
1.856317
3.268595
4.671179
4.905423
4.039189
2.670405
1.543046
0.647415
-0.457116
-0.631603
1.461790
5.017484
8.744238
10.751006
9.455713
6.079549
1.594464
-4.029878
-8.745442
-9.351802
-8.392975
-7.523899
-4.543932
-0.608903
1.505755
1.041998
-0.670470
-2.665954
-5.201826
-7.957543
-9.742876
-9.237187
-7.984711
-8.693019
-10.574359
-11.893731
-12.718373
-12.861588
-11.048397
-7.528979
-2.270812
1.652021
3.758236
6.741956
8.727771
7.652949
3.899952
-2.091216
-7.872233
-8.961440
-4.651141
3.554770
10.709300
12.459634
9.354603
5.877742
2.929699
-2.364718
-6.401669
-7.443655
-8.596345
-7.205645
-2.816227
1.198859
4.627587
6.371666
8.159527
10.045583
9.459863
6.228491
1.309030
-4.760319
-9.328589
-10.121021
-9.026783
-4.083217
4.184613
9.702968
12.565038
13.021004
9.873755
6.315898
4.103697
3.310640
3.722199
5.264570
6.691859
7.079964
6.510818
4.978480
2.316580
-0.334688
-0.899768
0.628531
1.205521
-0.855009
-3.013422
-4.198636
-4.041323
-2.218124
-1.102309
-0.991278
0.575173
1.885190
1.472094
0.488900
0.047346
-0.179053
1.066543
3.521445
5.123547
4.955002
2.578932
0.328891
-0.016657
1.817487
2.787572
2.938006
2.422023
0.421536
-0.334307
-1.101407
-2.364490
-3.667913
-5.339727
-4.167309
-0.248541
2.389305
3.588618
5.033107
5.070647
3.329721
1.068422
-1.477145
-4.852370
-8.297333
-8.132201
-4.589017
-1.191874
0.731084
1.348103
1.592354
0.814933
-1.300324
-2.191264
-2.004867
-2.272233
-3.271376
-3.845525
-2.271881
-0.208197
0.215558
0.906693
2.469392
1.923075
-1.403678
-4.391750
-4.439584
-4.089945
-5.935008
-7.908913
-8.328577
-6.971338
-5.223506
-4.153036
-4.954537
-8.684705
-11.835081
-12.480844
-9.384543
-3.339873
1.690631
4.967687
7.809743
9.987571
10.446977
10.018245
8.184127
4.491486
0.761943
-3.124274
-6.935751
-9.254592
-9.151692
-6.429722
-3.444439
-1.113375
0.497171
0.612579
1.478840
4.843772
8.388207
8.861686
5.521486
0.973855
-2.692517
-4.776814
-5.849447
-5.921048
-3.851110
1.665994
8.529690
12.337753
12.775268
11.030277
8.454064
7.189418
6.015149
1.257993
-3.155791
-4.897342
-4.366010
-2.380507
-0.246147
2.071157
2.959308
2.934929
1.964557
1.067050
-1.264926
-4.946621
-6.728201
-5.886958
-3.062102
0.050773
1.347343
0.282841
-2.626111
-4.108726
-3.198059
-3.878222
-5.041858
-5.573164
-6.478176
-8.175633
-10.360003
-12.995008
-15.244737
-16.915300
-16.757673
-10.634509
-1.810029
2.880543
2.929654
1.276292
-3.060875
-9.169628
-11.016254
-7.389885
-2.884133
-3.604638
-8.139446
-9.834089
-9.298065
-8.680108
-8.094987
-6.685211
-5.247914
-4.793512
-1.333825
3.846161
6.713235
4.722755
-0.525066
-1.654928
1.696870
5.167190
6.427171
6.945369
6.364027
3.513241
0.657139
-0.920545
-0.954931
-1.969397
-4.914313
-4.415504
0.746657
4.662297
5.695240
6.569631
7.900289
8.675546
6.758244
2.068011
-0.048184
0.273310
-0.798385
0.067250
3.637017
7.550155
13.657058
20.083877
26.068192
31.243800
31.965582
27.983983
22.408739
18.853384
16.595212
13.631220
9.346278
6.947379
7.662907
7.767683
6.033324
3.798919
0.430261
-2.545615
-0.104160
3.644798
0.660792
-4.071034
-3.664166
-0.901542
1.230316
7.385378
16.455348
17.876069
14.659083
13.788783
13.385068
8.111291
-0.771017
-7.682222
-7.250648
-2.252981
-4.729435
-10.502947
-14.412306
-19.176029
-23.284907
-24.660257
-22.152191
-20.101016
-19.779522
-14.318709
-6.536540
-0.581935
0.457263
-1.417509
-1.875012
-3.139345
-3.749771
-7.039935
-17.928373
-29.099201
-27.168425
-19.390635
-11.150011
-2.366810
3.211900
12.042010
19.306307
18.329681
14.150127
-2.060574
-25.790116
-37.789352
-39.870835
-34.857844
-22.452665
-7.127574
4.299715
15.880239
25.826151
23.361580
12.271435
2.463148
-0.586844
0.183723
2.982311
3.819488
0.027713
-5.147556
-15.364886
-27.267804
-30.976081
-23.330572
-17.012268
-8.828873
4.082608
12.106200
20.492554
26.713288
27.145174
23.459726
21.417646
22.232620
24.092720
27.617141
29.070074
20.248434
6.958895
-4.178159
-14.583750
-23.702166
-29.035048
-26.902252
-17.917031
-3.669902
5.256839
4.094454
5.214022
7.297408
7.889409
5.311945
-0.505661
3.275194
14.193680
25.208485
26.976957
18.347017
-0.249774
-21.689545
-40.278205
-47.629413
-41.562540
-30.740060
-13.699987
-2.077558
2.939812
4.404940
7.793952
10.669469
8.140790
7.090673
9.063354
9.842365
11.316875
13.161964
6.306425
-2.737249
-10.908109
-15.752515
-13.265402
-10.241340
-7.266689
-2.376286
1.393937
-0.467701
-6.022305
-9.719949
-5.510661
4.224162
12.712776
16.996180
15.839112
9.218429
-1.720983
-10.735574
-21.439192
-28.125547
-24.495112
-12.315407
2.944636
12.233201
19.741736
22.049658
18.297912
11.098062
4.998692
3.352834
-0.986521
-4.056215
-3.388221
-4.792655
-9.159218
-9.507268
-3.554226
3.758856
10.967488
17.282352
24.161060
27.801502
22.344155
10.787737
-0.357448
-9.337327
-15.873261
-17.768360
-14.010646
-8.667105
-3.334822
2.793033
2.285807
0.139590
2.263317
1.293571
-0.614976
-1.848036
-5.175415
-9.351215
-13.561103
-16.595458
-14.857946
-7.090475
1.072280
4.821863
2.189672
-4.582057
-9.506521
-9.656929
-6.525915
0.109179
9.479990
17.003849
22.838681
26.974166
26.899438
19.003151
4.148112
-11.080008
-21.143478
-23.201194
-15.242022
-3.441653
2.231813
7.111584
9.166511
6.830783
5.768783
3.681671
2.322582
2.122452
-1.121429
-6.235092
-10.222945
-13.311714
-14.503182
-15.542979
-11.658924
-5.845983
-1.849035
4.198450
9.135136
8.867770
1.103452
-8.777386
-13.948590
-17.651551
-22.038128
-22.151009
-20.104837
-19.507520
-21.926433
-23.613257
-20.801536
-14.588932
-7.955714
-0.240781
8.929886
13.379973
9.708910
5.920888
2.894664
0.853522
-1.814945
-6.677177
-9.887283
-9.200214
-5.397155
-5.481890
-4.645025
-3.265583
-7.132099
-13.834403
-13.464437
-6.368699
5.902009
12.521780
10.740826
1.606461
-10.324289
-15.941125
-15.469836
-12.003268
-1.619542
12.254193
27.592105
36.504774
39.409375
54.381087
47.603416
8.183221
-29.091370
-32.925362
-25.979732
-2.637942
21.509740
28.874421
34.392463
24.193583
24.300861
19.912095
-1.847907
-22.576543
-26.434615
-23.504058
-18.236822
5.304487
20.620195
18.772943
-7.100953
-23.402344
-15.801555
-15.812175
-11.110032
9.047907
31.245750
24.481526
9.078906
-8.828014
-20.418206
-19.249228
-11.333212
2.124911
19.825147
26.747635
16.108439
-3.202928
-25.571492
-26.802676
-29.971191
-29.423597
-14.772428
6.029412
25.591923
38.631621
35.436525
18.590367
-3.022028
-20.189667
-23.953922
-15.512529
-3.386300
-5.676996
-9.085057
-12.599445
-20.835664
-27.368159
-32.149395
-31.575219
-21.677467
-12.930542
-0.191373
16.480936
22.418029
23.825617
16.824973
-2.104870
-16.978047
-29.396960
-41.036250
-42.488218
-36.669960
-26.977356
-16.147996
-5.524097
8.818099
17.953116
17.395541
14.583533
11.554181
7.074724
5.578662
6.445861
5.473613
11.883233
19.513731
22.448666
27.145805
31.090216
28.613136
22.994110
17.983647
15.476859
13.651184
6.797209
-1.979712
-4.606274
-3.650574
-1.055258
5.568579
8.278352
10.760462
15.356591
17.286429
19.281000
12.957093
-0.578247
-12.133727
-23.517834
-27.156373
-20.912810
-11.574835
-1.074463
3.459434
8.523712
15.775187
14.124014
10.482660
7.002984
5.329294
-0.876090
-11.744514
-14.960875
-13.650857
-14.025489
-12.226057
-5.451800
2.142734
5.653396
-1.891076
-8.581184
-6.707637
-8.219335
-10.230455
-4.390307
0.453187
-1.695844
-0.067160
3.020072
-2.289356
-3.269735
-0.364509
1.367374
3.731899
1.708583
3.210613
13.172787
19.805379
20.722614
19.871078
12.043277
2.377280
-0.296816
-3.273943
-2.068688
1.197110
-3.549726
-6.729812
-7.495974
-0.162565
8.163745
13.506974
15.682300
11.975587
8.279506
1.974988
-6.271239
-13.146792
-15.720191
-16.882889
-13.270905
-9.490987
-12.194167
-8.616583
1.536666
1.276179
-5.387973
-7.838158
-8.928616
-9.528409
-0.320215
7.124524
5.862693
8.457696
8.859248
8.022097
3.319355
-6.679381
-12.671800
-14.343614
-16.295629
-17.853610
-8.886214
6.090188
9.287499
0.489939
-10.098908
-14.587121
-13.162334
-6.094428
4.557303
16.544995
29.050246
30.744602
26.062187
19.076867
7.840054
-1.633304
-7.529091
-5.263700
5.640088
14.332911
18.151607
22.245187
16.648678
3.753798
-6.977652
-8.704505
-6.991699
-7.178070
5.349698
10.842722
9.954284
11.632378
6.089032
-8.346330
-15.970860
-12.414853
-12.351983
-10.425272
-3.216015
6.883132
10.899782
11.987765
13.436944
17.893911
17.003597
14.114033
10.422643
5.082568
2.203324
-3.453228
-5.395549
-2.131940
2.081727
7.792094
18.349696
21.701180
14.087909
3.647918
-2.946496
-7.912552
-9.544650
-10.189162
-7.046578
0.728086
5.399269
5.884631
8.486827
8.239162
-1.628855
-7.413625
-2.989807
2.402519
-3.270920
-9.483810
-12.232961
-10.541732
-5.646638
-1.463618
7.045323
14.789027
18.504211
18.727822
16.092503
13.083479
4.427270
-8.879156
-16.650353
-17.378989
-19.625590
-21.404668
-10.816420
3.470424
13.720930
16.960459
14.444602
13.264079
12.312158
8.699887
4.850884
1.375586
-3.927587
