EVENT_NAME: 202302060117
EVENT_ID: 13194
EVENT_DATE_YYYYMMDD: 2023/02/06
EVENT_TIME_HHMMSS: 01:17:32.00000
EVENT_LATITUDE_DEGREE: 37.288
EVENT_LONGITUDE_DEGREE: 37.043
EVENT_DEPTH_KM: 8.6
HYPOCENTER_REFERENCE: AFAD
MAGNITUDE_W: 7.7
MAGNITUDE_W_REFERENCE: AFAD
MAGNITUDE_L: 
MAGNITUDE_L_REFERENCE: 
FOCAL_MECHANISM: 
NETWORK: TK
STATION_CODE: 0127
STATION_NAME: 
STATION_LATITUDE_DEGREE: 37.816183
STATION_LONGITUDE_DEGREE: 35.92044
STATION_ELEVATION_M: 614.0
LOCATION: Kahramanmaras_Pazarck_Turkiye
SENSOR_DEPTH_M: 
VS30_M/S: 583
SITE_CLASSIFICATION_EC8: B
MORPHOLOGIC_CLASSIFICATION: 
EPICENTRAL_DISTANCE_KM: 115.07
EARTHQUAKE_BACKAZIMUTH_DEGREE: 
DATE_TIME_FIRST_SAMPLE_YYYYMMDD_HHMMSS: 2023/02/06 01:17:31.8820710
DATE_TIME_FIRST_SAMPLE_PRECISION: millisecond
SAMPLING_INTERVAL_S: 0.01
NDATA: 12501
DURATION_S: 
STREAM: HNE
UNITS: cm/s^2
INSTRUMENT: sensor = ACEBOX/SARA | digitizer = 
INSTRUMENT_ANALOG/DIGITAL: 
INSTRUMENTAL_FREQUENCY_HZ: 
INSTRUMENTAL_DAMPING: 
FULL_SCALE_G: 
N_BIT_DIGITAL_CONVERTER: 
PGA_CM/S^2: 50.812
TIME_PGA_S: 
BASELINE_CORRECTION: BASELINE REMOVED
FILTER_TYPE: BUTTERWORTH
FILTER_ORDER: 
LOW_CUT_FREQUENCY_HZ: 
HIGH_CUT_FREQUENCY_HZ: 
LATE/NORMAL_TRIGGERED: 
DATABASE_VERSION: 
HEADER_FORMAT: DYNA 1.2
DATA_TYPE: Acceleration
PROCESSING: Automatic Paolucci et al., 2011
DATA_TIMESTAMP_YYYYMMDD_HHMMSS: 
DATA_LICENSE: U (unknown license)
DATA_CITATION: Turkish Accelerometric Archive v 1.0 - Disaster And Emergency Management Presidency, Earthquake Department
DATA_CREATOR: AFAD
ORIGINAL_DATA_MEDIATOR_CITATION: : AFAD - Disaster And Emergency Management Presidency
ORIGINAL_DATA_MEDIATOR: AFAD PROCESS SERVICE
ORIGINAL_DATA_CREATOR_CITATION: AFAD PROCESS SERVICE
ORIGINAL_DATA_CREATOR: network: TK
USER1: GuestUser
USER2: 
USER3: 
USER4: 
USER5: 
[...]
17.457338
19.855633
21.011997
20.642834
18.028283
13.572110
10.079649
7.157420
4.518554
3.506916
3.208827
3.230340
2.830082
0.437637
-2.349223
-2.488096
0.990577
5.814051
9.537743
12.275746
13.487754
12.437774
10.255513
8.106685
6.690578
5.504060
3.810436
2.360194
1.845142
2.583009
2.788754
-0.797927
-6.023527
-7.483821
-4.574445
0.467864
5.653958
6.842352
1.996439
-3.521407
-5.155881
-4.846096
-4.557821
-4.632867
-5.282119
-5.453256
-4.791840
-3.475091
-1.381434
0.138485
0.796394
2.147511
5.290451
11.132113
16.992478
17.820825
14.330234
10.818602
9.203768
8.248241
5.250496
-0.086625
-6.402655
-11.435138
-12.621423
-12.358164
-14.534813
-19.107651
-23.475449
-23.735662
-19.882914
-16.099603
-13.643093
-10.493607
-4.308731
4.810768
12.647422
14.421946
9.206400
0.106546
-8.791775
-13.936481
-14.791007
-15.695799
-18.959840
-21.170156
-19.704946
-15.201540
-8.441289
0.145386
9.102864
16.177806
19.714694
19.998761
19.058197
18.860408
20.074052
20.069146
15.616246
9.983138
8.046130
8.907910
9.276378
6.120118
0.562526
-1.195627
2.948433
8.846440
11.141163
7.582538
1.685472
-2.188779
-1.829196
2.609682
6.519477
7.909170
9.292786
9.608883
7.744119
4.865610
1.106854
-0.869665
-0.240981
-1.470752
-5.191632
-8.565324
-11.115347
-13.341328
-15.771648
-18.381524
-19.917335
-18.812406
-14.791090
-9.362782
-3.102156
3.606660
8.360930
10.585047
11.189415
8.982840
5.205147
3.900093
4.919453
5.921978
6.760846
7.689258
9.271834
11.089144
10.468882
6.661731
1.701491
-2.634744
-6.132582
-8.800205
-8.603345
-5.016658
-1.558092
-0.257943
0.242386
1.370228
3.102902
3.856434
1.870563
-2.814030
-7.637732
-9.069270
-6.293626
-2.559647
-1.291060
-2.384293
-3.495762
-2.935814
-1.765656
-1.767991
-1.112187
1.487876
3.458322
2.858401
-1.307161
-7.422360
-11.033122
-12.144357
-13.030679
-14.395351
-17.310800
-19.256692
-17.359190
-14.409367
-12.978992
-13.697214
-15.715349
-15.091575
-10.666959
-4.809867
0.894556
5.669166
10.910904
18.114902
25.895444
31.377993
30.923261
24.230583
15.862281
10.354254
9.355709
9.664792
7.158254
1.459449
-7.201100
-16.335790
-21.459220
-22.452388
-21.629419
-20.353584
-18.186046
-12.956232
-4.622058
3.618129
6.872357
3.540749
-0.900227
-1.432347
1.424425
3.756088
1.953982
-1.188718
-1.311459
0.073559
0.747834
-0.051049
-2.064508
-2.604109
-0.682058
2.368531
4.685231
2.942042
-3.920840
-11.601778
-14.740036
-13.683971
-12.556597
-10.895699
-6.470381
-0.491948
5.347843
8.680158
8.059430
5.700652
3.386530
2.039393
2.433812
3.248832
3.545758
3.303313
3.150179
5.802612
10.807279
13.715954
13.120475
9.634561
4.021793
-1.246358
-5.366798
-8.873987
-11.145091
-12.205125
-11.939294
-10.299905
-8.551800
-7.176601
-6.749684
-8.537763
-12.004739
-15.710891
-18.512948
-19.531599
-18.924659
-16.460432
-12.505983
-9.156366
-5.427530
0.706845
6.974953
11.005855
12.718890
12.686162
12.086942
12.214832
14.047338
16.785575
18.442031
17.770335
15.111128
12.891226
10.887820
7.210660
4.554726
4.178081
3.753509
2.878876
0.813280
-1.806883
-2.262784
-2.022438
-2.307434
-1.462487
-1.194085
-4.017652
-10.149216
-18.059042
-23.487344
-23.961715
-20.735544
-15.887053
-12.584430
-12.164293
-11.876018
-9.357317
-6.009337
-4.390990
-3.973892
-3.279044
-2.478519
-1.448873
-0.560440
-0.174905
0.949195
2.965232
4.521857
5.228395
5.851936
6.365124
6.744813
8.070915
9.216057
8.820241
7.610811
4.499206
-0.419652
-4.718479
-8.679236
-12.221495
-13.852228
-14.369384
-14.723818
-15.842067
-19.174611
-22.426026
-21.710370
-17.567947
-13.697664
-13.459655
-16.303094
-16.008273
-8.262800
3.961994
15.737430
23.459055
25.813631
25.736481
26.844916
29.976634
32.887413
31.573241
25.521168
16.920238
7.091170
-0.434995
-3.509192
-5.876854
-10.296788
-15.597905
-19.894861
-21.178405
-19.950967
-19.858614
-21.237080
-20.072299
-14.722313
-7.690156
-1.528426
4.161501
10.628337
16.707069
21.014085
23.838593
25.563318
25.848320
23.443017
17.573773
9.360011
0.649897
-7.440888
-14.525644
-20.379223
-25.274935
-29.182853
-30.695051
-28.805498
-24.517420
-19.789334
-14.982226
-9.682039
-4.474903
1.956629
10.403259
17.787281
22.946021
26.436150
27.379291
26.209139
22.353591
14.671250
6.208025
-0.357700
-5.973040
-11.653843
-17.149712
-20.987257
-21.855811
-19.563660
-14.945226
-11.680010
-12.397063
-13.373397
-10.191647
-3.299067
4.537820
10.474637
13.188091
14.463692
16.059361
17.942368
21.433198
26.024745
26.495382
21.728493
16.429481
12.707431
10.698414
10.770193
10.823268
9.305225
7.478804
5.268955
1.828164
-1.516303
-3.879055
-5.478927
-6.737220
-9.428692
-12.765677
-12.488858
-7.865280
-2.056584
1.248611
-1.776021
-10.705905
-19.598147
-24.214939
-24.978518
-24.232701
-24.258182
-23.162138
-15.410820
-0.758509
15.250295
27.313068
31.156464
27.650209
23.417547
20.959171
18.145892
15.169889
12.818827
10.276051
8.164163
7.740292
7.327409
5.421029
4.503846
5.721231
5.986828
4.400750
2.881772
1.921804
2.508638
4.033467
2.568262
-1.314640
-4.814816
-7.574322
-7.093398
-4.193841
-3.632725
-5.042987
-7.620832
-12.196476
-16.855818
-20.664840
-24.202657
-26.685348
-26.211671
-21.384690
-13.030409
-3.844044
2.004397
2.702285
1.938239
2.860806
5.154360
7.798376
9.911673
11.835594
14.024173
15.792618
16.123211
13.686579
9.472152
6.245753
2.984050
-2.337874
-7.934744
-13.066123
-18.471980
-22.370781
-25.339301
-29.665249
-33.884352
-36.746962
-37.123139
-33.173365
-26.193345
-17.597318
-9.389862
-3.907079
2.523518
12.467620
21.330644
26.308424
28.154023
26.830032
24.363941
23.806338
23.228394
19.254779
12.509263
4.668173
-3.640511
-11.717970
-18.225012
-22.261519
-24.763614
-25.127400
-21.110292
-14.174693
-7.029144
-0.548749
3.346083
3.667791
2.448074
1.799289
3.995350
10.990567
20.263905
26.779604
28.939660
28.371536
27.520049
27.911195
27.644669
24.726181
19.919312
13.174498
5.625187
0.352360
-3.415046
-9.333854
-19.926504
-31.769034
-35.826582
-30.047345
-20.133870
-10.376572
-3.776472
-0.437377
1.958347
3.464472
4.079829
4.037749
3.358337
4.385178
7.549159
9.434269
9.040792
7.561793
3.805142
-3.670523
-12.286650
-16.440991
-14.666467
-11.652817
-12.371974
-19.125673
-27.296417
-28.304314
-22.415893
-14.665978
-6.169315
1.994187
9.380080
16.886144
22.712141
24.254972
22.215795
20.314793
21.028345
23.214820
25.766487
28.048117
25.968727
17.189175
6.248635
-0.974061
-1.102646
3.921660
8.074136
8.418757
4.378743
-1.199189
-2.414932
-0.280360
0.911775
1.353188
2.060194
4.509223
9.793746
14.979372
16.309214
12.931080
6.163120
-1.955020
-10.043701
-16.863096
-20.147243
-19.270033
-15.513142
-9.483507
-3.518167
-0.801440
-0.219281
0.945032
2.135297
1.762159
0.082329
-2.594880
-5.936542
-8.582422
-10.078956
-10.071237
-9.138851
-9.377321
-9.377552
-7.643708
-5.709500
-3.515778
-2.008484
-2.282725
-2.855291
-3.676384
-3.345091
-0.633741
1.222613
1.447295
1.076729
-1.268722
-5.200488
-8.340148
-8.124584
-3.760054
1.514650
4.713233
6.468820
8.702756
11.375529
11.789821
8.933289
5.282314
2.485868
0.368135
-0.106003
1.553727
1.529649
-3.159152
-7.959709
-7.120607
-2.479728
-0.948821
-6.206451
-16.767772
-28.948840
-36.992632
-38.463447
-37.105082
-33.579884
-26.243089
-16.525303
-4.531266
10.062830
24.018893
31.982732
32.784426
32.240616
34.282605
37.939197
41.753836
43.602240
43.056794
41.476796
38.998314
35.731468
29.872044
19.015671
7.297755
-0.114785
-4.529575
-8.116958
-13.578225
-22.608407
-28.572105
-27.145004
-22.597878
-18.375028
-16.885971
-17.811805
-16.962416
-13.507825
-9.664662
-8.607428
-12.245778
-16.845970
-17.094961
-12.264940
-5.094375
1.592463
4.125660
1.214185
-1.369038
0.210967
3.221110
5.940643
7.860355
8.192117
7.464309
6.349800
4.615729
1.769250
-0.448314
-0.308266
0.902807
2.996230
5.744053
8.063091
11.675028
15.117462
14.658053
12.346736
10.284647
8.183982
6.461601
3.255542
-2.813832
-9.609848
-14.608431
-17.208253
-19.357782
-22.673492
-27.145096
-31.586072
-33.424183
-33.079796
-33.550427
-35.086005
-35.551492
-32.520775
-26.035236
-18.629003
-11.068698
-1.955511
10.110535
24.563183
38.273526
47.559956
50.382360
48.577915
45.876391
43.506859
40.900490
36.476113
29.155223
21.756945
16.218525
9.984791
2.699204
-3.501798
-8.564207
-11.991672
-13.691375
-15.235369
-15.873633
-15.498619
-15.305499
-13.488424
-10.060252
-6.929937
-2.708257
2.738989
7.361163
11.581909
15.903654
17.949383
15.447755
9.490604
2.457985
-4.389466
-9.655980
-12.667753
-14.821725
-17.519041
-19.957543
-19.200505
-13.464519
-4.916655
2.461756
6.717337
8.436451
9.079163
9.918031
9.822644
6.331587
1.639512
0.652190
4.397157
10.652406
15.334199
15.121213
12.743498
13.039021
16.466959
20.829853
23.582117
23.671898
22.818775
23.112194
25.283004
26.895040
24.263421
17.921205
9.771503
0.861492
-6.009572
-9.636700
-11.439040
-12.631403
-14.547135
-17.406473
-19.377614
-19.189404
-17.780072
-16.509848
-15.335949
-13.837072
-12.610101
-12.510967
-12.103222
-9.443308
-5.730370
-1.713730
2.480128
4.420415
5.205509
8.751515
14.382058
20.157321
25.415190
27.293988
23.863718
17.095991
9.708702
4.055721
0.904838
-2.552085
-8.559035
-15.452544
-21.224061
-26.197393
-31.755686
-37.496341
-40.251405
-38.420302
-33.225791
-25.727910
-19.905420
-19.824055
-21.485883
-20.937392
-19.592353
-16.122097
-9.389435
-1.232011
8.688010
18.948673
25.930096
28.730289
26.795854
21.353758
16.034639
11.578466
7.468314
2.710075
-3.515476
-6.350031
-1.973343
6.136152
14.761871
21.013379
20.771636
15.208901
8.238940
2.016896
-1.077642
-0.834723
1.517046
6.885268
13.628920
16.986719
15.043165
10.437830
7.525888
6.507470
5.133213
4.642008
6.290515
9.786021
13.606739
14.133955
11.546524
8.560468
6.352957
6.754858
7.485010
3.676221
-4.155984
-13.170034
-19.890300
-22.077237
-23.088874
-25.822897
-29.295484
-31.578044
-29.147017
-20.898646
-11.790603
-6.102781
-2.941838
0.222611
4.452474
8.715068
11.201272
11.538878
10.769454
10.960469
14.335804
20.111067
24.322694
24.460169
22.193975
20.044914
18.400153
17.548667
17.121522
15.165343
11.432072
5.722044
-1.918448
-6.655645
-5.289798
-0.684456
4.013703
5.612645
2.079036
-3.391817
-6.447076
-6.037227
-4.975317
-7.341342
-11.805931
-13.485762
-12.787173
-13.273702
-15.772056
-19.026511
-19.239497
-13.031242
-2.506387
8.331756
16.058291
18.282407
17.056377
15.767222
14.854714
12.847100
8.635713
3.380889
-1.946880
-7.175285
-10.657927
-12.391764
-13.424677
-13.233428
-11.956658
-9.410369
-5.845192
-3.982292
-6.509871
-14.351662
-22.857905
-25.030580
-21.339620
-15.031533
-8.769036
-7.724895
-11.836450
-18.054753
-27.321071
-35.564993
-37.126756
-34.784806
-30.168008
-21.791517
-12.481707
-3.740491
4.607009
10.663530
16.068692
22.705966
28.429794
32.721847
34.951340
33.599294
30.613706
28.415313
28.372064
30.914144
34.554137
38.436811
40.943121
39.962578
37.169639
34.608393
32.118455
29.314294
25.443316
20.693493
15.930345
10.526358
3.637992
-3.157323
-5.545559
-2.572823
0.776559
1.199502
-2.105454
-10.488953
-22.193542
-33.426095
-42.234638
-47.929001
-49.949474
-48.120241
-44.298588
-40.585651
-37.128955
-33.479611
-28.217533
-21.508483
-15.606268
-9.484518
-2.400224
3.091443
6.497872
8.664709
10.138803
13.001186
18.282202
24.051854
27.413861
26.017861
19.997351
12.415776
5.494679
-1.053980
-8.086131
-14.576574
-17.319714
-16.319059
-15.419404
-16.868243
-21.378890
-26.507698
-26.551415
-20.493023
-12.678580
-7.578758
-7.556544
-10.942393
-12.979699
-11.895111
-11.727709
-13.665885
-13.589664
-12.253510
-11.488055
-7.879157
-0.894227
6.725463
13.650775
19.094046
22.469847
22.799504
20.948067
19.829584
20.488895
23.288854
26.724040
26.139083
20.635732
13.920142
8.972060
8.275815
12.777350
18.548873
21.071314
20.365717
18.760702
18.774499
20.742374
20.397759
16.065733
12.047930
9.135988
4.552863
-1.263776
-8.137412
-16.162968
-22.727525
-27.708105
-31.508009
-30.674986
-24.976876
-18.113521
-11.958805
-8.180638
-7.312546
-6.680822
-5.249045
-3.932997
-1.907842
1.774000
7.566097
15.529702
21.878470
22.515570
19.844440
18.485613
19.890971
23.939642
28.862246
30.433367
24.495153
11.109561
-3.507675
-11.528087
-10.761930
-7.169866
-8.397766
-14.979857
-21.765820
-24.223494
-20.745055
-13.058733
-4.174668
3.705939
9.125129
11.766574
12.412091
12.821941
14.486346
16.240063
15.563690
11.695050
6.591025
2.906383
1.108485
0.212109
-0.534870
-0.900292
1.436982
7.486723
13.409045
15.370373
13.136677
8.029613
3.154709
0.584345
-2.000047
-6.876120
-14.444836
-23.140688
-28.579043
-29.514931
-29.073752
-29.068606
-29.248627
-29.015995
-27.552188
-23.555187
-18.870120
-18.355763
-21.234272
-22.698074
-21.178155
-16.582633
-11.009137
-8.193279
-6.209740
-0.240192
9.769373
21.719222
33.308790
40.616594
42.612524
41.126278
36.262129
28.960176
21.362703
14.511043
10.375172
10.124077
11.687015
11.333516
6.295188
-0.512985
-3.754347
-2.840664
2.003150
9.236373
13.176328
12.373003
8.386295
1.248702
-5.566252
-10.244766
-16.166146
-24.075972
-32.284591
-40.111186
-46.638802
-50.495753
-50.811843
-47.142392
-39.411415
-29.456091
-18.729937
-6.540212
5.617249
15.785329
24.219568
29.878400
33.223808
36.784777
39.487944
41.028437
43.093338
41.966672
34.132129
22.493236
11.547786
5.816249
6.349076
7.680555
5.087045
0.116986
-1.942999
0.333020
3.308561
5.670852
6.345594
3.376138
0.342387
1.035365
4.478033
7.956939
7.792349
3.792081
-0.643284
-4.776115
-8.991009
-13.315788
-18.248440
-23.116330
-27.956865
-32.529937
-34.536616
-34.855278
-35.757499
-35.209241
-30.826708
-23.060895
-13.633485
-4.292346
3.884482
10.247512
15.439450
19.482042
19.866875
16.604237
12.982721
10.612721
9.395575
8.260025
4.557381
-3.061368
-12.506073
-20.439746
-24.788606
-26.127560
-26.603334
-26.608475
-24.118063
-17.338173
-8.424650
-2.357841
-0.418724
0.095633
1.435061
5.066637
11.055123
15.744398
15.513175
13.111846
12.625551
12.669274
12.338922
12.687516
11.607844
7.874572
3.710178
1.243620
0.468117
-0.900061
-3.149422
-3.028779
1.606255
8.823813
14.308466
16.783447
17.851436
18.994006
21.365649
22.869202
22.165475
21.851021
21.602030
19.779817
16.682006
11.575877
4.056025
-4.168259
-10.379782
-13.143262
-13.027296
-11.934291
-13.177855
-17.486268
-21.484900
-23.380759
-23.469131
-21.645042
-19.725329
-19.554888
-19.153222
-16.758199
-13.380761
-9.957031
-7.253162
-6.196863
-6.364259
-6.511782
-5.729494
-2.839523
2.409463
8.379713
14.252703
19.399285
21.940431
21.352901
17.820461
11.179453
2.341452
-7.319749
-15.959724
-21.465413
-23.132385
-21.758823
-18.713376
-15.338744
-13.169803
-12.560525
-11.552856
-9.453821
-7.737746
-5.817566
-1.844646
3.891573
10.795142
17.868681
23.063659
27.458583
32.282291
35.453053
36.765828
37.230853
36.400876
33.563983
27.471931
17.906353
5.813192
-7.485661
-18.399314
-23.270010
-22.591527
-18.992215
-14.665092
-11.747066
-9.377294
-7.367335
-10.157469
-17.375957
-24.660141
-29.568244
-28.612478
-22.100987
-15.208173
-11.475129
-11.011272
-11.059899
-9.473114
-5.001505
2.005636
8.010722
12.576552
17.887727
23.584434
28.796246
31.979866
32.229565
31.974729
30.844790
24.624149
13.050018
0.626035
-7.366322
-9.383054
-8.642849
-8.963616
-13.321594
-18.537608
-16.083669
-5.085608
10.291475
27.393981
40.912610
46.780690
45.607499
40.161662
35.092239
33.237294
32.476755
28.476487
18.633859
4.994363
-6.317681
-10.916704
-9.675471
-5.661637
-1.852375
-0.052367
-0.430180
-3.021820
-5.879287
-6.617148
-7.277155
-9.871600
-13.090985
-16.211240
-18.574928
-18.346739
-15.776602
-13.989219
-15.543968
-20.587206
-27.380884
-32.791417
-34.278832
-31.365014
-25.046172
-17.663319
-10.424017
-1.742654
8.096473
15.724813
19.150881
18.177820
14.121440
9.752708
6.047258
3.177867
2.585895
4.352938
7.216490
10.239492
11.910444
10.398012
5.701262
-0.014844
-4.856081
-8.350646
-10.498071
-12.009100
-14.163071
-16.461996
-17.487194
-17.470124
-16.140048
-13.405786
-10.978033
-8.120793
-3.425673
2.208142
8.620269
14.734772
17.843577
17.228927
14.594970
12.229646
11.466301
12.755462
14.597320
15.036628
15.747609
17.765049
18.582874
16.789886
13.181696
9.735995
7.864685
7.116536
6.624864
5.113835
2.145548
-0.704671
-1.748106
0.373841
4.409887
5.535156
1.689194
-4.647410
-10.424070
-12.893200
-12.340968
-12.708728
-14.846100
-16.603784
-18.218853
-19.580018
-18.389285
-13.750978
-6.387296
1.436732
6.261609
8.180620
10.740469
15.216287
20.617007
26.271631
30.698585
32.413491
31.863603
29.654455
25.869982
21.332448
16.984991
13.397141
10.573341
6.884958
0.686528
-6.560717
-12.206684
-15.687688
-17.504991
-18.969495
-21.847770
-24.635565
-23.084551
-15.526350
-4.512626
5.607760
11.902286
15.409716
18.784115
22.370100
25.673893
27.490968
25.254466
19.087365
11.025337
2.601391
-3.532511
-6.668431
-9.405025
-13.461872
-19.007306
-25.266524
-30.880928
-34.556452
-34.720808
-31.222029
-25.316541
-18.171694
-11.910132
-7.338691
-2.543039
3.055006
8.410603
12.317358
12.272004
6.756496
-1.699714
-8.643724
-11.584423
-11.623230
-12.288146
-15.827366
-20.630962
-22.998858
-20.374714
-12.843166
-3.302832
3.559121
5.223994
4.235269
4.662887
8.665032
15.614658
21.253150
22.356208
20.113862
16.689670
14.620100
15.228209
15.833046
13.677438
7.880906
-1.142497
-10.680253
-18.398132
-22.877217
-22.143792
-16.728109
-10.048752
-4.846993
-1.405027
1.347705
3.475731
4.552604
4.658283
3.234929
0.181072
-2.363808
-2.497304
-0.837808
2.029485
5.335148
6.181029
4.207549
2.275452
1.784714
3.409141
6.860225
10.016959
11.738177
11.733504
9.889315
6.662915
1.879193
-4.751762
-12.215737
-17.990760
-19.312179
-16.023584
-11.445597
-9.206517
-9.820232
-11.715624
-13.548825
-14.004493
-12.316240
-8.623175
-4.276180
-2.312280
-3.254246
-4.024137
-3.320872
-1.994537
-1.035030
-1.158706
-0.955299
1.663000
6.801866
13.051270
17.827518
19.061736
18.065529
18.007317
19.222364
19.393039
17.334457
12.164501
3.595601
-5.210370
-11.238830
-14.141887
-14.854031
-16.231795
-20.206345
-25.889486
-31.257468
-32.616061
-28.702292
-23.129030
-18.269083
-14.360457
-11.317583
-7.490319
-2.097314
3.391313
7.224423
8.751823
9.060672
9.233685
9.600049
10.754075
12.686880
14.556794
14.692399
11.987835
8.628639
6.917480
6.225443
5.034249
1.849466
-3.424764
-8.748792
-11.868814
-12.273981
-12.319101
-13.715803
-15.605817
-17.438083
-18.225743
-17.726817
-17.889537
-18.098782
-16.203151
-13.178513
-10.686231
-8.594444
-6.975862
-5.940605
-3.985589
-1.188436
0.668151
2.551859
4.613253
4.648793
3.865809
3.889191
3.493610
2.971543
2.853712
1.817292
0.006068
-1.017026
-0.800761
-0.971897
-4.047030
-9.615844
-13.937349
-14.716592
-12.908869
