EVENT_NAME: 202302060117
EVENT_ID: 13194
EVENT_DATE_YYYYMMDD: 2023/02/06
EVENT_TIME_HHMMSS: 01:17:32.00000
EVENT_LATITUDE_DEGREE: 37.288
EVENT_LONGITUDE_DEGREE: 37.043
EVENT_DEPTH_KM: 8.6
HYPOCENTER_REFERENCE: AFAD
MAGNITUDE_W: 7.7
MAGNITUDE_W_REFERENCE: AFAD
MAGNITUDE_L: 
MAGNITUDE_L_REFERENCE: 
FOCAL_MECHANISM: 
NETWORK: TK
STATION_CODE: 5103
STATION_NAME: 
STATION_LATITUDE_DEGREE: 37.83234
STATION_LONGITUDE_DEGREE: 34.9909
STATION_ELEVATION_M: 1536.0
LOCATION: Kahramanmaras_Pazarck_Turkiye
SENSOR_DEPTH_M: 
VS30_M/S: None
SITE_CLASSIFICATION_EC8: unknown
MORPHOLOGIC_CLASSIFICATION: 
EPICENTRAL_DISTANCE_KM: 190.74
EARTHQUAKE_BACKAZIMUTH_DEGREE: 
DATE_TIME_FIRST_SAMPLE_YYYYMMDD_HHMMSS: 2023/02/06 01:17:44.8957470
DATE_TIME_FIRST_SAMPLE_PRECISION: millisecond
SAMPLING_INTERVAL_S: 0.01
NDATA: 13501
DURATION_S: 
STREAM: HNE
UNITS: cm/s^2
INSTRUMENT: sensor = GMS+/GEOSIG | digitizer = 
INSTRUMENT_ANALOG/DIGITAL: 
INSTRUMENTAL_FREQUENCY_HZ: 
INSTRUMENTAL_DAMPING: 
FULL_SCALE_G: 
N_BIT_DIGITAL_CONVERTER: 
PGA_CM/S^2: 10.265
TIME_PGA_S: 
BASELINE_CORRECTION: BASELINE REMOVED
FILTER_TYPE: BUTTERWORTH
FILTER_ORDER: 
LOW_CUT_FREQUENCY_HZ: 
HIGH_CUT_FREQUENCY_HZ: 
LATE/NORMAL_TRIGGERED: 
DATABASE_VERSION: 
HEADER_FORMAT: DYNA 1.2
DATA_TYPE: Acceleration
PROCESSING: Automatic Paolucci et al., 2011
DATA_TIMESTAMP_YYYYMMDD_HHMMSS: 
DATA_LICENSE: U (unknown license)
DATA_CITATION: Turkish Accelerometric Archive v 1.0 - Disaster And Emergency Management Presidency, Earthquake Department
DATA_CREATOR: AFAD
ORIGINAL_DATA_MEDIATOR_CITATION: : AFAD - Disaster And Emergency Management Presidency
ORIGINAL_DATA_MEDIATOR: AFAD PROCESS SERVICE
ORIGINAL_DATA_CREATOR_CITATION: AFAD PROCESS SERVICE
ORIGINAL_DATA_CREATOR: network: TK
USER1: GuestUser
USER2: 
USER3: 
USER4: 
USER5: 
[...]
-0.158019
-0.279331
-0.377004
-0.533645
-0.659113
-0.685870
-0.573391
-0.314662
-0.054635
0.139671
0.369565
0.739734
1.194587
1.658792
2.058314
2.343539
2.565640
2.731112
2.970098
3.387285
3.719787
3.770441
3.675106
3.475344
3.046467
2.361458
1.517472
0.507753
-0.645617
-1.698457
-2.545041
-3.173420
-3.525406
-3.671656
-3.788811
-3.874276
-3.862327
-3.813491
-3.668281
-3.356300
-2.976520
-2.652850
-2.266575
-1.712751
-1.110349
-0.516260
0.014964
0.486703
0.978962
1.422386
1.696181
1.929192
2.298841
2.717327
3.106459
3.503643
3.772762
3.775100
3.674569
3.575337
3.412203
3.219195
3.044370
2.876040
2.647184
2.423264
2.300393
2.207136
2.141414
2.121931
2.190250
2.202458
1.936975
1.555116
1.153254
0.753990
0.497079
0.289524
-0.069475
-0.562515
-1.087507
-1.580547
-1.850446
-1.821612
-1.642113
-1.489630
-1.452743
-1.515868
-1.620555
-1.651987
-1.662118
-1.642636
-1.480801
-1.177393
-0.627465
0.144825
0.969588
1.786557
2.574433
3.216579
3.584669
3.683640
3.581551
3.501542
3.666754
4.050691
4.480346
4.769208
4.764012
4.439042
3.958211
3.448286
2.943816
2.374924
1.648093
0.920482
0.373670
-0.031828
-0.375761
-0.672157
-1.029858
-1.507312
-2.025549
-2.533915
-2.993965
-3.388813
-3.686247
-3.902375
-4.053560
-4.088110
-4.018752
-3.862113
-3.689627
-3.724956
-3.841592
-3.734049
-3.550134
-3.358166
-3.088267
-2.830058
-2.607438
-2.467423
-2.458072
-2.417809
-2.171289
-1.815148
-1.394065
-1.003114
-0.850631
-0.831928
-0.858945
-0.913756
-0.961294
-1.040264
-1.081568
-1.173526
-1.465246
-1.778007
-1.958806
-2.037516
-2.013098
-1.953612
-1.998812
-2.080899
-2.030505
-1.815677
-1.424467
-0.894541
-0.341496
0.097771
0.443522
0.708225
0.794727
0.849798
0.925909
0.993448
1.100992
1.196846
1.275295
1.230874
1.023319
0.722248
0.278564
-0.177849
-0.546720
-0.906759
-1.183932
-1.275890
-1.184452
-0.954818
-0.612444
-0.211623
0.160884
0.586643
1.180992
1.807811
2.249156
2.518535
2.690501
2.733882
2.551265
2.111477
1.604929
1.139165
0.773671
0.415450
-0.105385
-0.525430
-0.775067
-1.092764
-1.474623
-1.772578
-2.028450
-2.247434
-2.149762
-1.717769
-1.140825
-0.494003
0.245816
0.989271
1.544135
1.834815
1.855596
1.816630
1.803901
1.708825
1.517636
1.218902
0.913414
0.703262
0.577793
0.508954
0.567661
0.750018
0.896267
0.967443
0.891330
0.675463
0.463751
0.229440
-0.054746
-0.319191
-0.528044
-0.670917
-0.666242
-0.528046
-0.379199
-0.221261
-0.012148
0.243982
0.562198
0.967175
1.454500
1.995076
2.423173
2.617999
2.619817
2.457461
2.179509
1.878178
1.729070
1.816352
2.021828
2.247046
2.451223
2.450963
2.196650
1.884149
1.590091
1.403577
1.368248
1.370066
1.325385
1.260183
1.226153
1.205371
1.185628
1.134973
1.079382
1.061458
1.064315
1.175755
1.422014
1.668274
1.824134
1.910376
1.909597
1.777115
1.639177
1.574754
1.496564
1.362523
1.247445
1.305893
1.476560
1.634758
1.796073
1.876861
1.950894
2.123379
2.276642
2.326257
2.192476
1.920499
1.699176
1.541496
1.393168
1.302509
1.290040
1.262244
1.208991
1.315236
1.569288
1.765153
1.849057
1.925169
2.057390
2.184156
2.297934
2.377942
2.337158
2.103886
1.650071
1.128457
0.713607
0.430200
0.269663
0.174587
-0.038423
-0.489900
-0.930467
-1.154128
-1.350773
-1.524558
-1.595994
-1.641454
-1.654183
-1.653924
-1.759650
-2.009288
-2.234767
-2.373483
-2.489080
-2.615328
-2.824442
-3.173830
-3.583485
-3.948199
-4.300445
-4.602296
-4.860246
-5.030394
-5.033512
-5.025460
-5.011433
-4.847779
-4.572945
-4.345909
-4.047696
-3.489455
-2.874325
-2.399729
-1.985140
-1.531586
-1.118555
-0.825278
-0.662144
-0.655391
-0.771767
-0.918796
-1.000104
-1.013872
-1.041408
-1.118040
-1.131289
-0.995171
-0.702413
-0.246521
0.264442
0.795407
1.357025
1.844090
2.239196
2.602091
2.831466
2.847311
2.729117
2.447528
2.114505
1.864348
1.562757
1.325588
1.259607
1.199859
1.139073
1.093354
1.029710
0.952558
0.882680
0.901383
0.957752
0.826309
0.421850
-0.113272
-0.695672
-1.270280
-1.813455
-2.338966
-2.750439
-3.091255
-3.385572
-3.623000
-3.859390
-4.030837
-4.155526
-4.100196
-3.719896
-3.199841
-2.668616
-2.101544
-1.531873
-1.123259
-0.902197
-0.849724
-0.973893
-1.124559
-1.151576
-0.981688
-0.637236
-0.196410
0.256624
0.642639
0.772263
0.665498
0.529639
0.381830
0.311433
0.281299
0.182587
0.094005
0.063092
0.028803
0.043609
0.179207
0.293505
0.371694
0.497422
0.678479
0.862135
0.953832
0.951234
0.876161
0.686010
0.352468
0.025679
-0.179018
-0.304487
-0.344492
-0.321373
-0.249417
-0.156681
-0.039266
0.245699
0.628856
0.956423
1.253597
1.589996
1.967958
2.365142
2.790122
3.171981
3.363949
3.312774
3.134573
2.865453
2.422807
1.861708
1.303726
0.826792
0.543385
0.448049
0.375574
0.339725
0.388561
0.437916
0.470387
0.511690
0.616116
0.793277
1.004468
1.223712
1.339568
1.232802
0.836396
0.194249
-0.493357
-0.952107
-1.006659
-0.703251
-0.109941
0.669882
1.461654
2.157052
2.704383
3.155599
3.621362
3.967632
3.992050
3.751764
3.289897
2.581249
1.628160
0.569865
-0.458297
-1.528801
-2.582680
-3.488751
-4.188826
-4.773824
-5.336741
-5.733927
-5.862772
-5.764840
-5.630541
-5.523517
-5.344797
-5.019048
-4.467302
-3.830092
-3.299386
-2.956753
-2.753355
-2.533852
-2.192257
-1.590635
-0.803799
-0.065279
0.665448
1.334869
1.820895
2.177036
2.325363
2.320167
2.305360
2.306658
2.347961
2.352896
2.217556
1.834138
1.260051
0.652713
0.057844
-0.428962
-0.731852
-0.753673
-0.482216
-0.129711
0.162787
0.371900
0.586987
0.847274
1.028852
1.155358
1.306283
1.437985
1.548126
1.618263
1.633848
1.640861
1.564229
1.412005
1.282380
1.128857
0.946759
0.838695
0.837915
1.016376
1.444473
1.837501
2.049471
2.291574
2.553420
2.726165
2.866439
3.021261
3.104126
3.020221
2.845396
2.660961
2.358071
2.019073
1.831001
1.696440
1.472260
1.152226
0.759976
0.341229
0.043015
-0.114145
-0.284034
-0.637838
-1.184390
-1.624697
-1.872516
-2.082409
-2.203202
-2.240090
-2.241908
-2.153848
-2.031497
-1.966816
-1.996689
-2.065528
-2.003964
-1.888627
-1.893304
-1.863950
-1.830441
-1.966300
-2.168400
-2.307376
-2.435962
-2.598317
-2.584550
-2.380373
-2.115410
-1.731993
-1.325976
-1.115045
-1.143620
-1.306755
-1.486775
-1.487814
-1.309874
-1.190641
-1.184666
-1.281041
-1.436902
-1.583931
-1.744208
-1.933839
-2.166852
-2.385837
-2.529748
-2.562999
-2.417010
-2.103731
-1.697714
-1.270396
-0.775798
-0.150537
0.559927
1.368325
2.288162
3.355548
4.531257
5.586694
6.412236
6.921121
7.037496
6.959566
6.831240
6.603423
6.310664
6.022061
5.732939
5.359912
4.906357
4.459555
4.063149
3.687784
3.246957
2.789765
2.327378
1.815375
1.272459
0.693956
0.093372
-0.483573
-1.014020
-1.528880
-1.999580
-2.336240
-2.465865
-2.320655
-1.920353
-1.467838
-1.121308
-0.904662
-0.840759
-0.890895
-0.978178
-1.154561
-1.510963
-1.990235
-2.477560
-2.834482
-3.000214
-3.051908
-2.992162
-2.729537
-2.331314
-1.969717
-1.772034
-1.739304
-1.653841
-1.540063
-1.561364
-1.710731
-1.956992
-2.206629
-2.408210
-2.556538
-2.690578
-2.778640
-2.786174
-2.758119
-2.675254
-2.606156
-2.510302
-2.339116
-2.115456
-1.751522
-1.384210
-1.183150
-1.063658
-0.883639
-0.638938
-0.376053
-0.089010
0.136728
0.280639
0.545342
0.992402
1.502066
2.106286
2.755185
3.330051
3.781268
4.087793
4.352237
4.500304
4.538229
4.667593
4.885798
5.013863
4.878004
4.575374
4.175591
3.738660
3.377323
3.048976
2.795701
2.485019
2.100821
1.842612
1.631160
1.399966
1.133444
0.803278
0.459605
0.190485
0.032026
-0.012655
0.109955
0.410506
0.844578
1.236307
1.428016
1.409572
1.219681
1.013944
0.916271
0.958093
1.205651
1.536076
1.792726
1.995345
2.126267
2.236408
2.377981
2.517216
2.582937
2.524749
2.378239
2.173801
1.963908
1.738169
1.417356
0.932888
0.311263
-0.334261
-0.961861
-1.474903
-1.828447
-2.103542
-2.358895
-2.634509
-2.828296
-2.901291
-2.890901
-2.804139
-2.748809
-2.685426
-2.601262
-2.575545
-2.574507
-2.665945
-2.811156
-2.925974
-3.005204
-3.028064
-3.117165
-3.168599
-3.078201
-2.902858
-2.551132
-2.041728
-1.415168
-0.831990
-0.544947
-0.554039
-0.639763
-0.669637
-0.737177
-0.888102
-1.092800
-1.233075
-1.234634
-1.117479
-0.775625
-0.207254
0.440867
1.111587
1.744901
2.148580
2.278463
2.275346
2.209624
2.144162
2.095585
2.024408
1.863611
1.606440
1.434473
1.443825
1.538639
1.620206
1.744634
1.835553
1.762038
1.831136
2.138700
2.501336
2.970736
3.570280
4.195801
4.722610
5.199543
5.605040
5.802723
5.715441
5.327866
4.834307
4.301003
3.719902
3.172570
2.684985
2.205193
1.629028
1.080397
0.700097
0.381621
0.028076
-0.320793
-0.653296
-1.089707
-1.621972
-2.075267
-2.448294
-2.836128
-3.286047
-3.743239
-4.059897
-4.312132
-4.543326
-4.728541
-5.016104
-5.432772
-5.798266
-5.919838
-5.854377
-5.594350
-5.024679
-4.286160
-3.543484
-2.931211
-2.503114
-2.275298
-2.198407
-2.124634
-2.004102
-1.861490
-1.827980
-1.816551
-1.680952
-1.516000
-1.300134
-1.012052
-0.725788
-0.479009
-0.174042
0.255874
0.690725
1.080116
1.417555
1.748498
2.096067
2.359991
2.501304
2.514292
2.343105
2.032422
1.696282
1.264027
0.767610
0.363931
0.007528
-0.365239
-0.739825
-1.074147
-1.424314
-1.883065
-2.411693
-2.936165
-3.396214
-3.725601
-3.885099
-3.852368
-3.657543
-3.416739
-3.137229
-2.821092
-2.647048
-2.642632
-2.664713
-2.652504
-2.634061
-2.689392
-2.846033
-3.161132
-3.624818
-4.052137
-4.346714
-4.460753
-4.406461
-4.241769
-3.965896
-3.653655
-3.316737
-2.936177
-2.543669
-2.108558
-1.660459
-1.192617
-0.720100
-0.335903
-0.078474
0.083101
0.310917
0.551462
0.709920
0.922929
1.224519
1.476494
1.594947
1.671578
1.637288
1.477011
1.287640
1.042938
0.815900
0.679522
0.608864
0.468329
0.247526
-0.016398
-0.354877
-0.634647
-0.756998
-0.836747
-1.021962
-1.264846
-1.572671
-1.987781
-2.410424
-2.765787
-3.021139
-3.155440
-3.199341
-3.189211
-3.054392
-2.854890
-2.613826
-2.290675
-1.857383
-1.229784
-0.535685
0.225435
1.016428
1.759104
2.505936
3.108857
3.520848
3.754899
3.765289
3.551500
3.209904
2.867530
2.517882
2.121215
1.667920
1.301907
1.012784
0.749379
0.649628
0.546759
0.357128
0.080994
-0.388666
-0.845079
-1.158879
-1.444365
-1.708289
-1.889868
-2.032741
-2.151455
-2.195096
-2.198474
-2.225231
-2.251727
-2.168602
-2.076645
-2.065475
-2.122625
-2.297968
-2.418241
-2.442141
-2.502927
-2.616186
-2.733082
-2.754643
-2.686585
-2.537998
-2.262904
-1.880526
-1.447753
-0.942245
-0.457779
-0.089948
0.295547
0.741309
1.256947
1.885845
2.583581
3.231962
3.699543
3.934373
3.975935
3.820854
3.495624
3.124415
2.779702
2.526948
2.259906
1.981694
1.838042
1.706079
1.616718
1.649189
1.832844
2.225873
2.666179
3.063364
3.337938
3.458210
3.492239
3.376902
3.181556
3.009329
2.814243
2.560189
2.247428
1.852840
1.362398
0.789609
0.187986
-0.399350
-1.026430
-1.687799
-2.395408
-3.092625
-3.578132
-3.799195
-3.851409
-3.861540
-3.772700
-3.494749
-3.110812
-2.628943
-2.108369
-1.624422
-1.186194
-0.880188
-0.623278
-0.280644
0.189016
0.800249
1.401871
1.937252
2.387430
2.654471
2.801239
2.867220
2.855789
2.745128
2.572122
2.425352
2.244813
2.108175
2.049467
2.021152
2.080638
2.215457
2.416257
2.634722
2.877604
3.136852
3.278945
3.270891
3.146982
2.934491
2.721221
2.592376
2.584322
2.764860
3.039175
3.174514
3.121261
2.892145
2.567954
2.252595
1.884504
1.546805
1.331457
1.169621
1.144942
1.312233
1.523683
1.734874
1.951520
2.068415
2.162710
2.315973
2.493654
2.759915
3.037347
3.257889
3.484926
3.633513
3.625719
3.426996
3.052930
2.565345
1.945798
1.247801
0.628514
0.225094
-0.028180
-0.223266
-0.417313
-0.692148
-0.983608
-1.305721
-1.619261
-1.925528
-2.265045
-2.507929
-2.703015
-2.907193
-3.193718
-3.622075
-4.109401
-4.526329
-4.768693
-4.892862
-4.906630
-4.808698
-4.664787
-4.560101
-4.495939
-4.421906
-4.323974
-4.168893
-4.009915
-3.805998
-3.470378
-3.037346
-2.514693
-2.009964
-1.659278
-1.521082
-1.544462
-1.522642
-1.456401
-1.386524
-1.314569
-1.282358
-1.175334
-0.945960
-0.584623
-0.070283
0.499128
1.084125
1.728349
2.382184
2.901460
3.147459
3.140965
2.966140
2.755468
2.630519
2.542717
2.490503
2.377764
2.117735
1.714575
1.144124
0.546917
0.057774
-0.269534
-0.466179
-0.522289
-0.477610
-0.463063
-0.523849
-0.689582
-0.860250
-1.099237
-1.400308
-1.504216
-1.505515
-1.499541
-1.410181
-1.310431
-1.244191
-1.222371
-1.271727
-1.334072
-1.297964
-1.130934
-0.891169
-0.618933
-0.324096
-0.007440
0.273629
0.427930
0.513653
0.634185
0.750041
0.866157
1.012146
1.077087
1.043057
1.017340
1.020197
1.069033
1.197617
1.342308
1.408288
1.271650
0.877062
0.323756
-0.260723
-0.853514
-1.492803
-2.144821
-2.801255
-3.494316
-4.232837
-5.010582
-5.757416
-6.360078
-6.827141
-7.144578
-7.216274
-7.050283
-6.644007
-6.084986
-5.449335
-4.796279
-4.321683
-4.019574
-3.752792
-3.471464
-3.230920
-3.069344
-2.884650
-2.661250
-2.385117
-2.013650
-1.659586
-1.302666
-0.894571
-0.400493
0.235679
1.012904
1.982357
2.911546
3.638896
4.172979
4.366765
4.193239
3.696043
2.984019
2.202896
1.312152
0.255675
-0.824181
-1.844290
-2.855047
-3.863207
-4.907215
-6.053312
-7.194732
-8.176915
-8.991288
-9.579923
-9.932169
-10.131931
-10.242073
-10.264933
-10.146999
-9.855280
-9.371332
-8.621903
-7.508018
-6.116702
-4.506920
-2.810376
-1.314114
-0.082554
0.940151
1.697894
2.240808
2.756188
3.128175
3.286633
3.309492
3.197791
3.027643
2.820607
2.678514
2.636431
2.657471
2.837230
3.090244
3.380924
3.725375
3.945658
4.111909
4.330893
4.420512
4.372195
4.312188
4.276859
4.352451
4.540523
4.747298
4.997454
5.196955
5.196954
5.087072
4.913287
4.780805
4.744437
4.564417
4.212691
3.771345
3.161669
2.450684
1.771910
1.082485
0.432805
-0.155050
-0.740568
-1.226074
-1.614688
-1.903550
-2.124094
-2.223845
-2.171632
-2.117081
-1.921736
-1.562478
-1.105546
-0.605753
-0.238702
-0.006210
0.082111
0.058991
-0.047255
-0.227274
-0.333520
-0.422621
-0.606537
-0.793830
-0.911506
-1.002425
-1.153610
-1.307913
-1.490790
-1.764846
-1.966426
-2.152160
-2.403616
-2.653514
-3.016150
-3.364759
-3.608422
-3.833381
-3.937549
-4.030546
-4.168743
-4.305901
-4.433967
-4.523328
-4.588530
-4.473713
-4.140691
-3.700385
-3.201631
-2.703397
-2.221268
-1.632894
-0.888919
-0.059481
0.858799
1.793963
2.736400
3.763782
4.873250
5.957001
6.948795
7.863437
8.540652
8.926147
9.091359
9.046678
8.963552
8.999659
9.070316
9.086161
8.981734
8.694950
8.233082
7.482352
6.471594
5.442393
4.486187
3.585571
2.788083
2.144118
1.514700
0.749943
-0.060014
-0.869451
-1.663303
-2.286746
-2.694582
-2.909411
-3.005006
-3.021891
-2.980069
-2.898502
-2.698482
-2.356368
-1.892163
-1.483029
-1.259110
-1.098054
-0.904787
-0.758019
-0.630733
-0.395903
-0.135876
0.028557
0.111422
0.232733
0.307286
0.130644
-0.135099
-0.294338
-0.377464
-0.416949
-0.369412
-0.169911
-0.020804
0.017381
0.068295
0.040759
-0.026781
-0.135624
-0.265768
-0.292525
-0.232519
-0.044448
0.185966
0.271949
0.317408
0.337929
0.285455
0.211161
0.062314
0.010619
0.092186
0.126735
-0.020554
-0.484500
-1.236009
-2.128572
-2.955414
-3.709781
-4.399985
-5.007582
-5.584527
-6.081983
-6.496314
-6.752965
-6.831935
-6.774786
-6.545152
-6.173684
-5.737015
-5.247093
-4.673526
-4.040732
-3.397027
-2.828136
-2.281845
-1.690613
-1.118345
-0.467107
0.289077
0.978240
1.533104
1.948992
2.230580
2.378388
2.422807
2.443069
2.341239
2.071860
1.733641
1.347106
0.898227
0.363884
-0.195917
-0.769225
-1.344352
-1.781282
-2.120020
-2.427326
-2.647869
-2.778533
-2.748920
-2.543184
-2.176652
-1.690627
-1.219408
-0.781180
-0.375943
0.011371
0.374786
0.710405
1.019529
1.360084
1.845850
2.319925
2.700225
3.031948
3.218981
3.237943
3.171962
3.120787
3.084939
3.058702
3.061559
3.035581
2.931933
2.724119
2.445387
2.198347
2.019886
1.880910
1.861687
2.049498
2.323813
2.490843
2.505909
2.389793
2.113659
1.735956
1.414882
1.229667
1.179531
1.272788
1.497486
1.771801
1.975978
2.135215
2.242759
2.220938
2.243277
2.377317
2.536814
2.680465
2.723326
2.747744
2.662800
2.403810
2.022471
1.445785
0.882608
0.291376
-0.237512
-0.483253
-0.532610
-0.381685
-0.188678
0.080182
0.441258
0.834287
1.253552
1.598783
1.902711
2.062987
2.071559
2.058830
2.120135
2.243524
2.344313
2.419646
2.360158
2.278071
2.314438
2.362755
2.345090
2.225596
2.153120
2.062461
1.844515
1.573837
1.255361
1.039233
0.794791
0.488005
0.313180
0.147188
0.023538
0.116794
0.347468
0.585675
0.803879
0.958960
1.157422
1.370432
1.561620
1.793852
1.883212
1.906850
1.937762
1.919578
1.955685
2.067385
2.317022
2.802268
3.410384
4.015643
4.716756
5.429039
5.990137
6.428365
6.823731
7.251569
7.621218
7.890857
7.961253
7.781753
7.456523
6.947118
6.314582
5.677111
5.144327
4.721684
4.375933
4.150973
3.991735
3.921857
3.861330
3.741577
3.588833
3.360756
3.140992
2.873690
2.621975
2.424291
2.121401
1.766038
1.249619
0.639943
0.182232
-0.157805
-0.431082
-0.688772
-0.916589
-1.037901
-1.056085
-0.999976
-0.788785
-0.489792
-0.261197
-0.022990
0.159106
0.201188
0.117543
0.027143
0.112606
0.180145
0.181184
0.139880
-0.099107
-0.483824
-1.047001
-1.682913
-2.215957
-2.695490
-3.016303
-3.138655
-3.141512
-3.063323
-2.942271
-2.783813
-2.551062
-2.191024
-1.852547
-1.584207
-1.248068
-0.857897
-0.493183
-0.270043
-0.162500
-0.021966
0.187667
0.469254
0.916574
1.463385
1.883949
2.279056
2.621949
2.759106
2.766898
2.624805
2.436473
2.309965
2.227358
2.198264
2.168390
2.145530
2.117994
2.094615
2.044479
1.829131
1.523643
1.146200
0.774472
0.639132
0.725115
1.052941
1.474804
1.687294
1.751716
1.772237
1.709113
1.653522
1.685213
1.761844
1.840294
1.740023
1.379464
0.906946
0.338314
-0.288767
-0.887792
-1.440059
-1.848415
-2.133640
-2.269240
-2.271318
-2.255992
-2.061946
-1.733860
-1.423438
-1.059243
-0.620236
-0.186424
0.078798
0.092046
-0.070569
-0.192141
-0.223314
-0.381253
-0.622058
-0.915337
-1.338759
-1.761921
-2.051563
-2.103777
-2.046369
-2.024549
-2.020133
-2.104818
-2.199894
-2.197816
-2.231586
-2.150020
-1.824791
-1.414358
-0.809878
-0.009534
0.874456
1.668566
2.314868
2.921945
3.361732
3.684363
3.916595
4.041283
4.092717
3.953481
3.695011
3.484599
3.226649
2.858297
2.588138
2.314342
2.006517
1.739735
1.416323
1.200975
1.013942
0.780150
0.536228
0.187099
-0.248272
-0.699230
-1.051736
-1.289164
-1.399046
-1.417231
-1.312804
-0.995368
-0.576103
-0.066959
0.535962
1.093164
1.638156
2.306279
2.992326
3.597844
4.133745
4.489107
4.632758
4.635875
4.529110
4.411694
4.366494
4.396887
4.433513
4.486765
4.572228
4.471698
4.289860
4.067498
3.727721
3.434702
3.098822
2.860095
2.706312
2.497717
2.404980
2.462388
2.681632
2.912305
3.157785
3.458336
3.543280
3.480416
3.335984
2.968412
2.567070
2.177418
1.763867
1.470329
1.258877
1.096781
0.898058
0.582959
0.202139
-0.263106
-0.828361
-1.453103
-1.993941
-2.411908
