EVENT_NAME: 202302060117
EVENT_ID: 13194
EVENT_DATE_YYYYMMDD: 2023/02/06
EVENT_TIME_HHMMSS: 01:17:32.00000
EVENT_LATITUDE_DEGREE: 37.288
EVENT_LONGITUDE_DEGREE: 37.043
EVENT_DEPTH_KM: 8.6
HYPOCENTER_REFERENCE: AFAD
MAGNITUDE_W: 7.7
MAGNITUDE_W_REFERENCE: AFAD
MAGNITUDE_L: 
MAGNITUDE_L_REFERENCE: 
FOCAL_MECHANISM: 
NETWORK: TK
STATION_CODE: 1201
STATION_NAME: 
STATION_LATITUDE_DEGREE: 38.89708
STATION_LONGITUDE_DEGREE: 40.5032
STATION_ELEVATION_M: 1133.0
LOCATION: Kahramanmaras_Pazarck_Turkiye
SENSOR_DEPTH_M: 
VS30_M/S: 529
SITE_CLASSIFICATION_EC8: B
MORPHOLOGIC_CLASSIFICATION: 
EPICENTRAL_DISTANCE_KM: 351.68
EARTHQUAKE_BACKAZIMUTH_DEGREE: 
DATE_TIME_FIRST_SAMPLE_YYYYMMDD_HHMMSS: 2023/02/06 01:17:56.9842900
DATE_TIME_FIRST_SAMPLE_PRECISION: millisecond
SAMPLING_INTERVAL_S: 0.01
NDATA: 4702
DURATION_S: 
STREAM: HNN
UNITS: cm/s^2
INSTRUMENT: sensor = CMG-5T/GURALP | digitizer = 
INSTRUMENT_ANALOG/DIGITAL: 
INSTRUMENTAL_FREQUENCY_HZ: 
INSTRUMENTAL_DAMPING: 
FULL_SCALE_G: 
N_BIT_DIGITAL_CONVERTER: 
PGA_CM/S^2: 2.453
TIME_PGA_S: 
BASELINE_CORRECTION: BASELINE REMOVED
FILTER_TYPE: BUTTERWORTH
FILTER_ORDER: 
LOW_CUT_FREQUENCY_HZ: 
HIGH_CUT_FREQUENCY_HZ: 
LATE/NORMAL_TRIGGERED: 
DATABASE_VERSION: 
HEADER_FORMAT: DYNA 1.2
DATA_TYPE: Acceleration
PROCESSING: Automatic Paolucci et al., 2011
DATA_TIMESTAMP_YYYYMMDD_HHMMSS: 
DATA_LICENSE: U (unknown license)
DATA_CITATION: Turkish Accelerometric Archive v 1.0 - Disaster And Emergency Management Presidency, Earthquake Department
DATA_CREATOR: AFAD
ORIGINAL_DATA_MEDIATOR_CITATION: : AFAD - Disaster And Emergency Management Presidency
ORIGINAL_DATA_MEDIATOR: AFAD PROCESS SERVICE
ORIGINAL_DATA_CREATOR_CITATION: AFAD PROCESS SERVICE
ORIGINAL_DATA_CREATOR: network: TK
USER1: GuestUser
USER2: 
USER3: 
USER4: 
USER5: 
[...]
0.002912
0.001659
0.003857
0.005113
0.004174
0.006058
0.007942
0.012022
0.020181
0.023320
0.024890
0.020186
0.017991
0.017679
0.018622
0.022703
0.025842
0.034000
0.039963
0.045298
0.043417
0.034321
0.023656
0.011736
-0.000812
-0.010850
-0.017122
-0.018376
-0.013668
-0.009588
-0.002998
0.001396
0.003280
0.007360
0.008617
0.007050
0.008620
0.004857
0.002036
0.002351
0.000784
0.007374
0.010513
0.015848
0.016791
0.012714
0.012089
0.010522
0.013661
0.019937
0.023076
0.024960
0.024648
0.019944
0.016494
0.015241
0.013988
0.010225
0.007717
0.003640
0.004583
0.009290
0.015253
0.022157
0.022472
0.023101
0.021221
0.019968
0.019028
0.017461
0.015894
0.015582
0.019662
0.025625
0.031901
0.031589
0.030650
0.027828
0.023437
0.026890
0.025323
0.028462
0.030974
0.033485
0.041016
0.046979
0.054510
0.056081
0.056710
0.053260
0.047929
0.046676
0.049815
0.054836
0.064250
0.071781
0.076802
0.081824
0.080570
0.078376
0.070534
0.060810
0.049204
0.038225
0.031639
0.028817
0.027563
0.024428
0.023488
0.019725
0.015649
0.010631
0.002789
-0.007562
-0.025130
-0.037991
-0.044891
-0.038301
-0.021044
-0.002219
0.015038
0.028530
0.037944
0.044848
0.047045
0.042969
0.036696
0.024776
0.012856
0.004073
-0.001886
-0.003767
-0.002197
-0.002822
-0.001566
-0.003760
-0.008778
-0.013482
-0.023206
-0.029793
-0.037007
-0.039515
-0.037631
-0.028845
-0.010333
0.009434
0.030141
0.042692
0.048341
0.043951
0.032972
0.019797
0.003798
-0.006553
-0.012512
-0.013138
-0.005607
0.007258
0.022005
0.036752
0.045224
0.047736
0.040522
0.029229
0.014799
0.001624
-0.006217
-0.011235
-0.010292
-0.003389
0.009790
0.024851
0.041480
0.052776
0.060935
0.063446
0.060311
0.054351
0.046196
0.033335
0.022042
0.011377
0.005104
0.003224
0.004480
0.009188
0.003229
0.003858
0.000095
-0.004296
-0.004608
-0.003979
-0.002408
-0.004603
-0.007111
-0.011188
-0.012441
-0.017772
-0.024673
-0.032828
-0.043493
-0.053531
-0.062627
-0.074547
-0.085213
-0.093995
-0.098072
-0.093364
-0.083323
-0.070145
-0.056653
-0.045357
-0.041904
-0.044099
-0.049430
-0.057586
-0.066368
-0.075465
-0.081110
-0.080481
-0.069499
-0.050673
-0.026201
-0.002983
0.011450
0.019609
0.017728
0.011769
0.003300
-0.005482
-0.013010
-0.019283
-0.027125
-0.032456
-0.032455
-0.029002
-0.015510
-0.001390
0.012729
0.025280
0.031556
0.031244
0.021521
0.006777
-0.010790
-0.026161
-0.034630
-0.036197
-0.036196
-0.033370
-0.034624
-0.038700
-0.043718
-0.049364
-0.047793
-0.042772
-0.030849
-0.018925
-0.002609
0.013392
0.028453
0.035357
0.031280
0.021243
0.003362
-0.009813
-0.022047
-0.029261
-0.033652
-0.039297
-0.044629
-0.049019
-0.052469
-0.057487
-0.059681
-0.061562
-0.061874
-0.060931
-0.059047
-0.055280
-0.057161
-0.062493
-0.069079
-0.070019
-0.059350
-0.044290
-0.025464
-0.011658
-0.007892
-0.010714
-0.020438
-0.031730
-0.041768
-0.049296
-0.051490
-0.052430
-0.050859
-0.045210
-0.040189
-0.036109
-0.033597
-0.033596
-0.030143
-0.018219
-0.000335
0.026020
0.054257
0.075279
0.090654
0.099753
0.103520
0.100071
0.085954
0.069015
0.050506
0.032939
0.020392
0.013805
0.010669
0.007534
0.007222
0.005969
0.009421
0.015384
0.020405
0.026054
0.022918
0.016018
0.006922
0.000335
-0.001546
-0.000289
0.005360
0.012264
0.023873
0.037365
0.054622
0.072507
0.082234
0.082549
0.072825
0.060278
0.054633
0.054948
0.057146
0.060598
0.059345
0.055268
0.052447
0.051821
0.054019
0.059354
0.061552
0.060298
0.058104
0.049321
0.036146
0.017010
-0.007773
-0.029732
-0.046985
-0.055141
-0.057021
-0.059530
-0.056391
-0.049487
-0.035995
-0.022189
-0.008383
0.004168
0.012640
0.022995
0.033350
0.041509
0.046216
0.044649
0.032416
0.012025
-0.011817
-0.035345
-0.050089
-0.056362
-0.053850
-0.042868
-0.028121
-0.013687
0.001060
0.015493
0.030867
0.047183
0.062558
0.075736
0.086718
0.095818
0.103036
0.108998
0.113078
0.116845
0.117160
0.118731
0.112458
0.107440
0.101167
0.080776
0.061640
0.045642
0.034349
0.027449
0.020235
0.010511
0.002042
-0.002663
-0.003916
-0.003600
-0.000461
0.004874
0.010836
0.021819
0.035311
0.049117
0.064177
0.075473
0.083318
0.091163
0.098694
0.101206
0.099012
0.088660
0.072975
0.053212
0.039096
0.031254
0.025609
0.021218
0.010867
0.000829
-0.007640
-0.013599
-0.017676
-0.019870
-0.025516
-0.033357
-0.041512
-0.046844
-0.047784
-0.046213
-0.050604
-0.061583
-0.077895
-0.093266
-0.104872
-0.111459
-0.108947
-0.106122
-0.097963
-0.084785
-0.074430
-0.067526
-0.067839
-0.076308
-0.083522
-0.088540
-0.087597
-0.084144
-0.080064
-0.074415
-0.065943
-0.051823
-0.036448
-0.021701
-0.009150
-0.000678
0.000265
-0.002243
-0.007261
-0.016985
-0.025768
-0.033923
-0.043020
-0.042077
-0.026075
-0.001916
0.029773
0.056441
0.072130
0.078406
0.077780
0.072448
0.065234
0.055510
0.042963
0.035749
0.033241
0.036380
0.038264
0.038579
0.037326
0.039837
0.049251
0.063998
0.081569
0.097571
0.110122
0.118280
0.123302
0.128323
0.136795
0.146523
0.157505
0.165977
0.164724
0.153745
0.132413
0.100415
0.065279
0.029515
-0.002798
-0.036051
-0.069619
-0.104755
-0.144597
-0.181302
-0.211104
-0.231809
-0.240278
-0.237766
-0.223333
-0.193527
-0.159642
-0.125130
-0.098148
-0.084028
-0.077752
-0.072103
-0.068023
-0.068335
-0.072725
-0.080881
-0.089036
-0.092485
-0.088719
-0.080560
-0.068950
-0.058596
-0.049182
-0.036004
-0.016551
0.006981
0.028630
0.043377
0.050281
0.052792
0.056873
0.061894
0.068798
0.076643
0.085115
0.096097
0.109589
0.129670
0.148182
0.162929
0.173597
0.177050
0.180189
0.186779
0.193369
0.198077
0.201216
0.198394
0.188670
0.178946
0.170477
0.163890
0.162010
0.158247
0.151974
0.143818
0.129389
0.109939
0.087980
0.062255
0.032139
0.003591
-0.022133
-0.044406
-0.059150
-0.069187
-0.066990
-0.054125
-0.032162
-0.003297
0.024626
0.048785
0.061964
0.060083
0.050045
0.035302
0.019931
0.004246
-0.013949
-0.035594
-0.061319
-0.086102
-0.107434
-0.121550
-0.130333
-0.136605
-0.142251
-0.144445
-0.144130
-0.138481
-0.120910
-0.094242
-0.068200
-0.043100
-0.027412
-0.017371
-0.006702
-0.001053
0.003968
0.004283
0.002716
-0.000733
-0.005123
-0.009200
-0.008571
-0.001981
0.004609
0.007434
0.003671
-0.001974
-0.010757
-0.024873
-0.038362
-0.057498
-0.071300
-0.076318
-0.075689
-0.064707
-0.050273
-0.035213
-0.016387
0.006203
0.031617
0.057345
0.077425
0.084643
0.071468
0.043547
0.005274
-0.030803
-0.058096
-0.074095
-0.079426
-0.079738
-0.067188
-0.044911
-0.015105
0.018780
0.047017
0.067411
0.077139
0.078709
0.077770
0.075889
0.068047
0.054245
0.036050
0.020365
0.006877
-0.002220
-0.009120
-0.022295
-0.039235
-0.065587
-0.091938
-0.112015
-0.123935
-0.125189
-0.123618
-0.118911
-0.112007
-0.106672
-0.098513
-0.098511
-0.106039
-0.112939
-0.119526
-0.118897
-0.115444
-0.108854
-0.102892
-0.097556
-0.093162
-0.098808
-0.115434
-0.141158
-0.173784
-0.206097
-0.231507
-0.248761
-0.261936
-0.270091
-0.274168
-0.277303
-0.269459
-0.257535
-0.246867
-0.238080
-0.236196
-0.237450
-0.238703
-0.237760
-0.236503
-0.232109
-0.225519
-0.219243
-0.207006
-0.184729
-0.153668
-0.120411
-0.092487
-0.077740
-0.069895
-0.065501
-0.064872
-0.064871
-0.067065
-0.064240
-0.052316
-0.028471
0.004786
0.042749
0.082908
0.121499
0.152874
0.181739
0.211858
0.247312
0.290608
0.334218
0.371868
0.393203
0.398852
0.387873
0.368110
0.340503
0.307877
0.272427
0.233526
0.201527
0.177999
0.165452
0.160120
0.156671
0.154163
0.159184
0.166088
0.183345
0.203739
0.212839
0.215350
0.207823
0.201550
0.194022
0.186808
0.179594
0.169556
0.157950
0.146343
0.136933
0.130346
0.128466
0.123761
0.115292
0.101176
0.087688
0.084238
0.089573
0.100242
0.112479
0.129422
0.148562
0.163936
0.170840
0.171469
0.166765
0.163002
0.163003
0.162378
0.161752
0.163008
0.168030
0.183718
0.204740
0.226389
0.243018
0.252118
0.258081
0.260906
0.261849
0.259654
0.251813
0.237697
0.218875
0.200366
0.193152
0.199428
0.216372
0.231119
0.236454
0.228298
0.210104
0.187517
0.167754
0.154892
0.147992
0.154582
0.173094
0.206037
0.248393
0.288238
0.316475
0.328713
0.326204
0.313971
0.297658
0.284483
0.275701
0.264094
0.251861
0.235235
0.219236
0.207943
0.200729
0.204496
0.212341
0.217362
0.218933
0.209836
0.194151
0.174388
0.151174
0.133606
0.125765
0.134237
0.154004
0.176594
0.193224
0.191970
0.168129
0.120757
0.058326
-0.010693
-0.072182
-0.122064
-0.157513
-0.177904
-0.189197
-0.199548
-0.214292
-0.234996
-0.257897
-0.274837
-0.284561
-0.286127
-0.287067
-0.292399
-0.308083
-0.335063
-0.371140
-0.412551
-0.453961
-0.491294
-0.522979
-0.549644
-0.574113
-0.602975
-0.633091
-0.662894
-0.680147
-0.674498
-0.639045
-0.570650
-0.481549
-0.383350
-0.288288
-0.207030
-0.145851
-0.105378
-0.085611
-0.077139
-0.064274
-0.038233
0.008201
0.074400
0.152520
0.225935
0.276134
0.289626
0.265784
0.207746
0.126805
0.038962
-0.041979
-0.102527
-0.137977
-0.146446
-0.131071
-0.100952
-0.062675
-0.028163
-0.008082
-0.003375
-0.016550
-0.037254
-0.055135
-0.063918
-0.059524
-0.045718
-0.021245
0.017973
0.067858
0.122448
0.171392
0.198688
0.203396
0.184260
0.145359
0.097360
0.047165
-0.000834
-0.048519
-0.093381
-0.128831
-0.147653
-0.141377
-0.117532
-0.085843
-0.049762
-0.011799
0.024281
0.052519
0.064129
0.055659
0.033700
-0.001750
-0.045984
-0.092728
-0.134139
-0.159236
-0.167391
-0.163624
-0.154525
-0.141974
-0.130364
-0.116244
-0.109968
-0.113104
-0.127534
-0.154199
-0.180864
-0.221961
-0.271215
-0.325175
-0.376939
-0.426193
-0.473878
-0.517171
-0.548229
-0.557953
-0.550735
-0.525635
-0.491751
-0.450650
-0.405158
-0.356214
-0.309780
-0.270876
-0.252050
-0.248911
-0.260204
-0.276203
-0.297535
-0.322318
-0.342708
-0.361530
-0.362156
-0.346154
-0.311956
-0.263012
-0.213755
-0.175792
-0.155398
-0.156337
-0.170140
-0.193040
-0.224725
-0.264254
-0.312566
-0.361820
-0.403231
-0.438053
-0.472876
-0.508326
-0.538756
-0.556009
-0.550047
-0.521495
-0.477258
-0.424236
-0.375292
-0.328231
-0.286503
-0.247285
-0.212773
-0.185163
-0.161004
-0.142178
-0.122725
-0.097625
-0.061858
-0.013542
0.045441
0.108502
0.165603
0.205449
0.224588
0.218629
0.187571
0.138631
0.078710
0.014397
-0.042073
-0.093209
-0.132738
-0.159089
-0.175401
-0.180733
-0.179477
-0.172886
-0.166296
-0.158765
-0.150607
-0.133036
-0.095700
-0.035149
0.042031
0.123602
0.201095
0.270745
0.336630
0.401888
0.460871
0.509815
0.536484
0.534603
0.514840
0.491625
0.473744
0.466530
0.465591
0.460886
0.447084
0.425438
0.405989
0.391559
0.395012
0.413523
0.446153
0.496979
0.563805
0.643181
0.726635
0.803187
0.862170
0.901074
0.914880
0.911744
0.900138
0.885081
0.868455
0.849946
0.827987
0.815439
0.812617
0.823600
0.846817
0.875369
0.907685
0.934667
0.954120
0.955063
0.940947
0.916164
0.891694
0.880088
0.881345
0.877895
0.873819
0.859702
0.831468
0.795705
0.745196
0.682452
0.611237
0.545982
0.498297
0.476024
0.469123
0.472576
0.462539
0.420500
0.347403
0.240422
0.119011
0.000108
-0.106244
-0.187185
-0.234243
-0.245222
-0.213220
-0.148590
-0.065136
0.024279
0.104910
0.172991
0.226954
0.265859
0.285311
0.279980
0.250177
0.201864
0.148218
0.095827
0.047828
-0.006760
-0.070445
-0.145111
-0.237033
-0.338052
-0.440640
-0.530052
-0.597816
-0.640481
-0.657735
-0.660870
-0.657731
-0.651141
-0.644238
-0.632000
-0.614116
-0.585879
-0.538190
-0.471677
-0.385400
-0.280612
-0.166726
-0.055664
0.034378
0.089597
0.109363
0.092737
0.046934
-0.016124
-0.091104
-0.167652
-0.236985
-0.296278
-0.330159
-0.347413
-0.370000
-0.417685
-0.491724
-0.579880
-0.663958
-0.730781
-0.788820
-0.843093
-0.892975
-0.931248
-0.946306
-0.929049
-0.885438
-0.829279
-0.777825
-0.743627
-0.731704
-0.745820
-0.782525
-0.837112
-0.895150
-0.942208
-0.961972
-0.949734
-0.909889
-0.858122
-0.818276
-0.791607
-0.781880
-0.782820
-0.791916
-0.808228
-0.830502
-0.850265
-0.854969
-0.837712
-0.802259
-0.764923
-0.734176
-0.708448
-0.670485
-0.608051
-0.517695
-0.418241
-0.324748
-0.254784
-0.210860
-0.183250
-0.172895
-0.178541
-0.205520
-0.248813
-0.306538
-0.369282
-0.424497
-0.463398
-0.476573
-0.465591
-0.437667
-0.396566
-0.343231
-0.277032
-0.206754
-0.142752
-0.083455
-0.024472
0.047060
0.153730
0.296793
0.480641
0.689587
0.883788
1.053518
1.178384
1.253367
1.289448
1.296352
1.278157
1.243962
1.202865
1.162082
1.112828
1.040044
0.942790
0.822946
0.696515
0.575730
0.469691
0.381848
0.310633
0.249457
0.198321
0.162244
0.139971
0.129619
0.119895
0.099191
0.069074
0.033938
0.004449
-0.016883
-0.030058
-0.033821
-0.030368
-0.023151
-0.015619
-0.010912
-0.010910
-0.019693
-0.037260
-0.049807
-0.050433
-0.032235
0.007610
0.066907
0.140635
0.234129
0.343309
0.459077
0.569825
0.654221
0.707557
0.734225
0.744580
0.744268
0.730466
0.701918
0.652978
0.583645
0.499253
0.396351
0.272743
0.121841
-0.052906
-0.241142
-0.420280
-0.574634
-0.696674
-0.781693
-0.826555
-0.823102
-0.782001
-0.721136
-0.672192
-0.650857
-0.659326
-0.690697
-0.727088
-0.755009
-0.767556
-0.766300
-0.748102
-0.706687
-0.636724
-0.537270
-0.420874
-0.306047
-0.201259
-0.120315
-0.068548
-0.054115
-0.066348
-0.098661
-0.145719
-0.186816
-0.226658
-0.256460
-0.275283
-0.293791
-0.320143
-0.353710
-0.382885
-0.395119
-0.385078
-0.357782
-0.312603
-0.249541
-0.168597
-0.080123
0.004899
0.095569
0.170552
0.225457
0.263106
0.286951
0.313934
0.334328
0.353467
0.353783
0.323666
0.271589
0.203825
0.141708
0.101552
0.086181
0.094653
0.118185
0.147991
0.179366
0.210740
0.241801
0.270353
0.294512
0.307690
0.321809
0.345027
0.382677
0.423463
0.446681
0.437898
0.385193
0.298605
0.197272
0.100331
0.024724
-0.021393
-0.037078
-0.032684
-0.021388
-0.013229
-0.013227
-0.024834
-0.047107
-0.072204
-0.083810
-0.077847
-0.061218
-0.038314
-0.016351
0.013769
0.052673
0.101303
0.157776
0.224916
0.306174
0.393079
0.479984
0.562183
0.639049
0.702110
0.743211
0.747291
0.725645
0.692705
0.661961
0.646277
0.648788
0.676084
0.723459
0.784638
0.851778
0.909507
0.945901
0.959707
0.957826
0.937749
0.896652
0.829202
0.736026
0.637202
0.535555
0.442693
0.368968
0.312498
0.274538
0.241598
0.207403
0.171012
0.133053
0.099485
0.048035
-0.020356
-0.096591
-0.174708
-0.228041
-0.244667
-0.223331
-0.167172
-0.075247
0.041776
0.173544
0.299979
0.409787
0.487594
0.519596
0.498578
0.420774
0.296539
0.146263
-0.010914
-0.158365
-0.295464
-0.435072
-0.582210
-0.745976
-0.926683
-1.128723
-1.342686
-1.557903
-1.767473
-1.962612
-2.139554
-2.286065
-2.393045
-2.448260
-2.453278
-2.407471
-2.307390
-2.166837
-1.993028
-1.804475
-1.619372
-1.438348
-1.263285
-1.081006
-0.883667
-0.670957
-0.452912
-0.247103
-0.069844
0.061925
0.144437
0.181773
0.185226
0.171737
0.151660
0.136289
0.137232
0.161391
0.219119
0.309475
0.417400
0.529717
0.632309
0.722351
0.794197
0.836552
0.840319
0.800477
0.721104
0.606281
0.467927
0.317025
0.156083
-0.011134
-0.185252
-0.369097
-0.548235
-0.700706
-0.801412
-0.832784
-0.799840
-0.726112
-0.627599
-0.517164
-0.399827
-0.282490
-0.175820
-0.087660
-0.015500
0.050071
0.111877
0.180272
0.260903
0.348122
0.424987
0.464519
0.452599
0.392051
0.295423
0.178404
0.041933
-0.115558
-0.286853
-0.449050
-0.581443
-0.667717
-0.716657
-0.753362
-0.792263
-0.842772
-0.908967
-0.990849
-1.069280
-1.153044
-1.233985
-1.298612
-1.337513
-1.335315
-1.287626
-1.205427
-1.110993
-1.026597
-0.956948
-0.900788
-0.852786
-0.801646
-0.765565
-0.742347
-0.729483
-0.713167
-0.668616
-0.584220
-0.465942
-0.331978
-0.192366
-0.058402
0.060818
0.162154
0.239647
0.293297
0.319966
0.321223
0.299891
0.260990
0.210167
0.140207
0.061776
-0.001910
-0.023555
-0.005985
0.033861
0.084687
0.146807
0.232771
0.346029
0.474033
0.608311
0.738197
0.860554
0.974440
1.077345
1.183701
1.306058
1.442532
1.576811
1.693834
1.781680
1.842546
1.866077
1.843804
1.783883
1.704511
1.623570
1.554551
1.492434
1.435337
1.382632
1.321143
1.243025
1.137614
1.000515
0.833299
0.650709
0.469061
0.300590
0.162236
0.062785
0.007570
-0.004350
0.013535
0.051812
0.091343
0.115502
0.115190
0.000000
0.000000
0.000000
0.000000
0.000000
0.000000
0.000000
0.000000
0.000000
0.000000
0.000000
0.000000
0.000000
0.000000
0.000000
0.000000
0.000000
0.000000
0.000000
0.000000
0.000000
0.000000
0.000000
0.000000
0.000000
0.000000
0.000000
0.000000
0.000000
0.000000
0.000000
0.000000
0.000000
0.000000
0.000000
0.000000
0.000000
0.000000
0.000000
0.000000
0.000000
0.000000
0.000000
0.000000
0.000000
0.000000
0.000000
0.000000
0.000000
0.000000
0.000000
0.000000
0.000000
0.000000
0.000000
0.000000
0.000000
0.000000
0.000000
0.000000
0.000000
0.000000
0.000000
0.000000
0.000000
0.000000
0.000000
0.000000
0.000000
0.000000
0.000000
0.000000
0.000000
0.000000
0.000000
0.000000
0.000000
0.000000
0.000000
0.000000
0.000000
0.000000
0.000000
0.000000
0.000000
0.000000
0.000000
0.000000
0.000000
0.000000
0.000000
0.000000
0.000000
0.000000
0.000000
0.000000
0.000000
0.000000
0.000000
0.000000
0.000000
0.000000
0.000000
0.000000
0.000000
0.000000
0.000000
0.000000
0.000000
0.000000
0.000000
0.000000
0.000000
0.000000
0.000000
0.000000
0.000000
0.000000
0.000000
0.000000
0.000000
0.000000
0.000000
0.000000
0.000000
0.000000
0.000000
0.000000
0.000000
0.000000
0.000000
0.000000
0.000000
0.000000
0.000000
0.000000
0.000000
0.000000
0.000000
0.000000
0.000000
0.000000
0.000000
0.000000
0.000000
0.000000
0.000000
0.000000
0.000000
0.000000
0.000000
0.000000
0.000000
0.000000
0.000000
0.000000
0.000000
0.000000
0.000000
0.000000
0.000000
0.000000
0.000000
0.000000
0.000000
0.000000
0.000000
0.000000
0.000000
0.000000
0.000000
0.000000
0.000000
0.000000
0.000000
0.000000
0.000000
0.000000
0.000000
0.000000
0.000000
0.000000
0.000000
0.000000
0.000000
0.000000
0.000000
0.000000
0.000000
0.000000
0.000000
0.000000
0.000000
0.000000
0.000000
0.000000
0.000000
0.000000
0.000000
0.000000
0.000000
0.000000
0.000000
0.000000
0.000000
0.000000
0.000000
0.000000
0.000000
0.000000
0.000000
0.000000
0.000000
0.000000
0.000000
0.000000
0.000000
0.000000
0.000000
0.000000
0.000000
0.000000
0.000000
0.000000
0.000000
0.000000
0.000000
0.000000
0.000000
0.000000
0.000000
0.000000
0.000000
0.000000
0.000000
0.000000
0.000000
0.000000
0.000000
0.000000
0.000000
0.000000
0.000000
0.000000
0.000000
0.000000
0.000000
0.000000
0.000000
0.000000
0.000000
0.000000
0.000000
0.000000
0.000000
0.000000
0.000000
0.000000
0.000000
0.000000
0.000000
0.000000
0.000000
0.000000
0.000000
0.000000
0.000000
0.000000
0.000000
0.000000
0.000000
0.000000
0.000000
0.000000
0.000000
0.000000
0.000000
0.000000
0.000000
0.000000
0.000000
0.000000
0.000000
0.000000
0.000000
0.000000
0.000000
0.000000
0.000000
0.000000
0.000000
0.000000
0.000000
0.000000
0.000000
0.000000
0.000000
0.000000
0.000000
0.000000
