EVENT_NAME: 202302060117
EVENT_ID: 13194
EVENT_DATE_YYYYMMDD: 2023/02/06
EVENT_TIME_HHMMSS: 01:17:32.00000
EVENT_LATITUDE_DEGREE: 37.288
EVENT_LONGITUDE_DEGREE: 37.043
EVENT_DEPTH_KM: 8.6
HYPOCENTER_REFERENCE: AFAD
MAGNITUDE_W: 7.7
MAGNITUDE_W_REFERENCE: AFAD
MAGNITUDE_L: 
MAGNITUDE_L_REFERENCE: 
FOCAL_MECHANISM: 
NETWORK: TK
STATION_CODE: 2905
STATION_NAME: 
STATION_LATITUDE_DEGREE: 40.560728
STATION_LONGITUDE_DEGREE: 39.29482
STATION_ELEVATION_M: 954.0
LOCATION: Kahramanmaras_Pazarck_Turkiye
SENSOR_DEPTH_M: 
VS30_M/S: None
SITE_CLASSIFICATION_EC8: unknown
MORPHOLOGIC_CLASSIFICATION: 
EPICENTRAL_DISTANCE_KM: 412.73
EARTHQUAKE_BACKAZIMUTH_DEGREE: 
DATE_TIME_FIRST_SAMPLE_YYYYMMDD_HHMMSS: 2023/02/06 01:18:04.5330550
DATE_TIME_FIRST_SAMPLE_PRECISION: millisecond
SAMPLING_INTERVAL_S: 0.01
NDATA: 21001
DURATION_S: 
STREAM: HNN
UNITS: cm/s^2
INSTRUMENT: sensor = ACEBOX/SARA | digitizer = 
INSTRUMENT_ANALOG/DIGITAL: 
INSTRUMENTAL_FREQUENCY_HZ: 
INSTRUMENTAL_DAMPING: 
FULL_SCALE_G: 
N_BIT_DIGITAL_CONVERTER: 
PGA_CM/S^2: 2.203
TIME_PGA_S: 
BASELINE_CORRECTION: BASELINE REMOVED
FILTER_TYPE: BUTTERWORTH
FILTER_ORDER: 
LOW_CUT_FREQUENCY_HZ: 
HIGH_CUT_FREQUENCY_HZ: 
LATE/NORMAL_TRIGGERED: 
DATABASE_VERSION: 
HEADER_FORMAT: DYNA 1.2
DATA_TYPE: Acceleration
PROCESSING: Automatic Paolucci et al., 2011
DATA_TIMESTAMP_YYYYMMDD_HHMMSS: 
DATA_LICENSE: U (unknown license)
DATA_CITATION: Turkish Accelerometric Archive v 1.0 - Disaster And Emergency Management Presidency, Earthquake Department
DATA_CREATOR: AFAD
ORIGINAL_DATA_MEDIATOR_CITATION: : AFAD - Disaster And Emergency Management Presidency
ORIGINAL_DATA_MEDIATOR: AFAD PROCESS SERVICE
ORIGINAL_DATA_CREATOR_CITATION: AFAD PROCESS SERVICE
ORIGINAL_DATA_CREATOR: network: TK
USER1: GuestUser
USER2: 
USER3: 
USER4: 
USER5: 
[...]
0.409804
0.483684
0.594504
0.591698
0.520390
0.537458
0.585620
0.555694
0.505428
0.526937
0.617651
0.662540
0.605259
0.589128
0.640329
0.662072
0.716547
0.757696
0.694103
0.666749
0.697376
0.713275
0.775231
0.831810
0.857528
0.957125
1.029603
1.005522
1.025161
1.052047
1.021186
1.001080
0.980740
1.000145
1.080337
1.099275
1.024460
0.892832
0.801184
0.853788
0.959932
1.019317
0.987988
0.874830
0.883013
1.018616
1.036852
0.927201
0.828305
0.863141
0.984716
0.953153
0.837190
0.755595
0.594742
0.481117
0.490936
0.476909
0.422200
0.307640
0.194482
0.156607
0.053502
-0.080931
-0.085607
0.006977
0.092079
0.024979
-0.163227
-0.169540
-0.021546
-0.051238
-0.213727
-0.189178
0.040411
0.040411
-0.343017
-0.497089
-0.163928
0.080390
-0.097296
-0.303738
-0.025753
0.365857
0.155673
-0.211154
-0.046093
0.297355
0.313487
0.168065
0.242647
0.416826
0.338737
0.112422
0.079690
0.228385
0.192381
-0.004477
0.066130
0.231425
0.049531
-0.203438
-0.107347
0.035737
-0.113659
-0.162990
0.025216
-0.024348
-0.172576
0.049765
0.364690
0.308112
-0.001202
-0.087239
0.144220
0.176016
-0.171172
-0.405671
-0.246221
0.061456
-0.011489
-0.482590
-0.496150
0.058417
0.182564
-0.308878
-0.547819
-0.169535
0.129960
-0.156442
-0.437934
-0.125581
0.402567
0.462420
0.077589
-0.085835
0.211789
0.309750
-0.257208
-0.667756
-0.144517
0.426416
0.010490
-0.671964
-0.434192
0.180227
0.047664
-0.328749
-0.127216
0.280293
0.320272
-0.000965
-0.126514
0.314895
0.700193
0.437405
0.121311
0.330326
0.633094
0.625612
0.410285
0.386438
0.703467
0.748824
0.493985
0.493751
0.575580
0.719132
0.936330
0.843980
0.708378
0.859177
1.131317
1.195845
0.860112
0.741343
1.095780
1.036396
0.498428
0.377088
0.845384
1.316018
1.178311
0.600598
0.474114
0.775011
0.805171
0.780155
1.033591
1.259673
1.042709
0.618601
1.013719
1.848375
1.726333
1.222967
1.286560
1.477105
1.329345
0.900795
0.748126
0.951763
0.816161
0.516900
0.718668
1.204498
1.298251
0.849828
0.394391
0.297365
0.410757
0.476220
0.389949
0.333137
0.353945
0.104483
-0.392336
-0.441667
0.035747
0.271648
0.100275
-0.244576
-0.457097
0.002548
0.451907
0.057023
-0.268423
0.101679
0.486976
0.248036
-0.226105
0.120616
0.712591
0.217409
-0.533080
-0.368721
0.205018
0.340153
-0.097516
-0.439561
-0.188463
0.272819
0.457987
0.285211
0.194030
0.467807
0.537712
0.196368
0.049076
0.343894
0.700201
0.687577
0.426191
0.326126
0.416606
0.498435
0.370314
0.090459
-0.056600
0.016345
0.444428
0.913893
0.757717
0.483473
0.516204
0.309528
0.166911
0.331271
0.250143
0.103085
0.225361
0.474121
0.506619
-0.016385
-0.537285
-0.434882
-0.199682
-0.351650
-0.649742
-0.489357
0.179304
0.548703
0.214373
-0.225165
-0.156195
0.205957
0.240325
0.055392
0.264640
0.641522
0.450743
-0.048881
-0.074365
0.212738
0.226766
0.047210
0.072927
0.317246
0.443730
0.338755
0.095606
-0.107564
0.039729
0.190060
-0.062908
-0.114811
0.205257
0.192632
-0.314474
-0.663767
-0.369416
-0.062674
-0.332242
-0.538217
-0.400043
-0.476027
-0.646699
-0.391860
-0.060335
-0.178637
-0.260933
0.090698
0.257396
-0.032279
-0.266310
-0.281974
-0.431605
-0.687379
-0.566739
-0.327565
-0.437683
-0.316810
0.034354
-0.218848
-0.667272
-0.529097
-0.136785
-0.083246
-0.245501
-0.087688
0.323562
0.409132
0.038563
-0.242461
-0.077166
0.038563
-0.170451
-0.230070
0.019860
0.250852
0.172062
-0.113171
-0.153617
0.155930
0.412406
0.478571
0.612537
0.649009
0.329408
0.022666
-0.042329
-0.095869
-0.138420
-0.018949
-0.015208
-0.327328
-0.458020
-0.194764
0.003262
-0.173489
-0.543824
-0.429964
0.289196
0.587054
0.083922
-0.224924
0.144242
0.350919
-0.018013
-0.230768
0.055400
0.240333
-0.178397
-0.701869
-0.487010
0.081118
0.078780
-0.262330
-0.313064
-0.121350
0.076910
0.129748
0.055401
0.162012
0.297615
0.045348
-0.254146
-0.311427
-0.385540
-0.354211
-0.173018
-0.270746
-0.594789
-0.716831
-0.584501
-0.444223
-0.396528
-0.206217
0.225373
0.479277
0.177912
-0.223752
-0.014035
0.265352
-0.239182
-0.730156
-0.305113
0.253195
0.042544
-0.490046
-0.538909
-0.306281
-0.381564
-0.499164
-0.302306
-0.126023
-0.166236
-0.292487
-0.318906
-0.059157
0.139805
-0.094694
-0.305111
-0.184939
-0.213229
-0.534232
-0.593617
-0.366833
-0.502202
-0.987565
-1.148183
-0.783226
-0.382731
-0.391849
-0.569769
-0.483965
-0.334568
-0.455442
-0.643648
-0.622139
-0.449363
-0.304408
-0.225852
-0.130930
-0.136775
-0.286405
-0.287107
-0.121578
-0.080664
-0.162960
0.055407
0.568358
0.607870
0.201296
0.083696
0.241042
0.465254
0.628678
0.609273
0.679178
0.864112
0.888427
0.760306
0.630783
0.606234
0.646681
0.609274
0.467826
0.453331
0.696480
0.826939
0.604598
0.301597
0.254370
0.553864
0.817354
0.703261
0.495649
0.493545
0.566724
0.565087
0.634057
0.791637
0.717991
0.453566
0.412184
0.739033
1.010705
0.671232
0.111989
0.043720
0.246422
0.354671
0.422004
0.418030
0.298793
0.320537
0.616992
0.683624
0.302301
0.032265
0.037642
0.041617
0.026654
0.010522
0.053307
0.195924
0.196157
0.045826
0.054710
0.207614
0.188910
-0.038107
-0.079957
0.089546
0.016836
-0.195218
-0.221404
-0.197089
-0.248056
-0.386230
-0.489803
-0.412649
-0.311883
-0.296686
-0.393244
-0.581451
-0.567890
-0.385762
-0.481619
-0.796076
-0.839329
-0.587061
-0.504531
-0.743238
-0.910169
-0.773631
-0.591971
-0.617922
-0.764513
-0.759837
-0.578644
-0.526507
-0.677774
-0.779475
-0.746042
-0.697646
-0.732716
-0.807765
-0.740665
-0.616284
-0.709102
-0.764512
-0.538430
-0.458471
-0.623532
-0.660705
-0.537962
-0.298086
-0.023140
-0.006774
-0.254599
-0.498917
-0.542170
-0.397917
-0.298786
-0.382486
-0.656029
-0.963472
-0.964173
-0.759600
-0.722427
-0.743936
-0.590565
-0.360742
-0.316087
-0.547780
-0.803320
-0.803554
-0.599916
-0.462911
-0.479744
-0.532115
-0.566249
-0.571626
-0.562040
-0.558066
-0.541232
-0.524866
-0.503123
-0.397681
-0.170196
-0.026177
-0.150790
-0.261376
-0.161311
-0.080417
-0.087197
-0.057739
-0.096315
-0.347881
-0.461272
-0.165753
0.022454
-0.123903
-0.163181
-0.005134
0.184944
0.368942
0.435808
0.309792
0.217909
0.364500
0.408922
0.148472
0.061032
0.268410
0.369177
0.327561
0.256253
0.167878
0.228431
0.337147
0.221184
0.089556
0.223054
0.511326
0.651371
0.505715
0.464801
0.734369
0.794923
0.551306
0.516237
0.763360
0.951567
0.858984
0.708886
0.930993
1.298990
1.226513
0.901535
0.956244
1.372637
1.624904
1.534191
1.420098
1.536295
1.650856
1.516656
1.350894
1.297822
1.249426
1.255973
1.293381
1.146088
0.904576
0.968403
1.276781
1.287536
1.057713
1.064961
1.206876
1.195420
1.096524
1.065897
1.084834
1.051869
1.038309
1.062390
0.959519
0.779496
0.647400
0.545231
0.518812
0.543595
0.477196
0.370117
0.317045
0.312603
0.391627
0.433009
0.304420
0.209966
0.232879
0.130242
-0.187255
-0.487684
-0.586580
-0.563902
-0.544029
-0.598971
-0.638015
-0.511999
-0.460329
-0.606219
-0.684307
-0.691087
-0.673084
-0.625156
-0.698334
-0.640586
-0.320284
-0.292462
-0.539352
-0.486981
-0.270953
-0.291059
-0.497502
-0.620245
-0.506152
-0.345300
-0.343195
-0.352080
-0.203151
0.021061
0.213476
0.298345
0.169289
-0.075497
-0.220451
-0.191226
-0.088355
-0.157793
-0.352546
-0.406320
-0.329400
-0.191226
-0.058663
0.005632
0.093306
0.260237
0.398177
0.227739
-0.169015
-0.208059
0.149885
0.356562
0.263043
0.185423
0.270291
0.281747
0.025739
-0.265572
-0.178366
0.167654
0.302088
0.286190
0.350484
0.369422
0.245042
0.045379
-0.052348
0.039534
0.121597
0.055900
-0.062635
-0.139788
-0.221149
-0.402810
-0.539581
-0.354180
-0.000444
0.138899
0.149420
0.277307
0.367319
0.281983
0.252057
0.343940
0.336926
0.327808
0.497545
0.553656
0.271229
-0.000443
0.019897
0.053330
-0.023589
0.056604
0.247382
0.298350
0.197584
0.161579
0.325471
0.346513
0.097051
0.090739
0.358203
0.394675
0.133290
-0.146331
-0.231433
-0.114535
0.024107
0.106404
0.172101
0.275907
0.441669
0.505262
0.491468
0.593872
0.624032
0.560906
0.677571
0.742333
0.494742
0.190806
0.025277
-0.079464
-0.153811
-0.150538
-0.131834
-0.154045
-0.083672
0.094716
0.219330
0.332722
0.540567
0.736490
0.744906
0.565584
0.466220
0.608135
0.758935
0.747479
0.738361
0.797745
0.719891
0.578677
0.621930
0.673365
0.579379
0.495212
0.503161
0.624970
0.732049
0.592940
0.285496
0.167896
0.357740
0.472534
0.251830
-0.081097
-0.235404
-0.114530
0.048193
0.037672
0.080223
0.267261
0.413852
0.635959
0.909736
0.803826
0.444947
0.400760
0.613983
0.679446
0.535427
0.346285
0.293915
0.325945
0.206475
0.095655
0.206475
0.263522
0.198760
0.177251
0.097760
-0.006981
0.009852
0.105943
0.178654
0.192916
0.232194
0.227985
0.094721
0.034869
0.034635
-0.177886
-0.479251
-0.494214
-0.338271
-0.333829
-0.239141
0.146391
0.424376
0.323843
0.097995
0.054509
0.027155
-0.229555
-0.361884
-0.115695
0.091216
0.040248
0.008919
0.121843
0.248561
0.228923
0.071343
0.029260
0.146626
0.244120
0.327118
0.335301
0.135404
-0.046958
0.039781
0.183801
0.144055
0.118571
0.278021
0.341614
0.119039
-0.108679
-0.117096
0.068305
0.348628
0.495921
0.550162
0.745616
0.888467
0.802195
0.681322
0.686700
0.709378
0.512287
0.259552
0.233835
0.195960
0.007052
-0.129486
-0.100027
0.212794
0.665659
0.804768
0.574478
0.306780
0.188713
0.154812
0.148500
0.264931
0.379492
0.261190
0.036511
-0.225342
-0.562477
-0.666984
-0.425004
-0.182556
-0.144213
-0.160112
0.011028
0.197131
0.136344
0.091922
0.129096
0.054281
0.019445
0.062698
0.057788
-0.117560
-0.565515
-1.013237
-1.139955
-0.992662
-0.881141
-0.934681
-0.836719
-0.565281
-0.527639
-0.769853
-0.918081
-0.725431
-0.429912
-0.324469
-0.319092
-0.279112
-0.291971
-0.518754
-0.832042
-0.994531
-1.062800
-1.045967
-0.889790
-0.700882
-0.576735
-0.602219
-0.656694
-0.537925
-0.414947
-0.495841
-0.666513
-0.688490
-0.599647
-0.690360
-0.839055
-0.757927
-0.707895
-0.832976
-0.839990
-0.787853
-0.845133
-0.786684
-0.560836
-0.441833
-0.466147
-0.402087
-0.265783
-0.314647
-0.486721
-0.495606
-0.316049
-0.181148
-0.241234
-0.338493
-0.345741
-0.360236
-0.398579
-0.446040
-0.446975
-0.252689
0.008229
0.028335
-0.200786
-0.421724
-0.451650
-0.328907
-0.184420
-0.037829
0.159496
0.277798
0.128401
-0.078977
-0.006733
0.134948
0.014542
-0.213878
-0.319788
-0.202889
0.123726
0.395165
0.421116
0.230338
0.029038
0.057328
0.148743
0.144768
0.218181
0.342561
0.422520
0.482839
0.492893
0.438184
0.290191
0.201582
0.366643
0.561863
0.565604
0.394699
0.242730
0.406856
0.610727
0.440991
0.180307
0.145237
0.266812
0.286685
0.023897
-0.256426
-0.263907
-0.120590
-0.043904
-0.103756
-0.262972
-0.439489
-0.500744
-0.385949
-0.173193
0.013143
0.026236
-0.112406
-0.217381
-0.240059
-0.287754
-0.394833
-0.365608
-0.207795
-0.295936
-0.643359
-0.944022
-1.108615
-1.101835
-0.908484
-0.633071
-0.357190
-0.174828
-0.152618
-0.237953
-0.367711
-0.414236
-0.243097
-0.134381
-0.450942
-0.778960
-0.599170
-0.291960
-0.328432
-0.561996
-0.696663
-0.633771
-0.553579
-0.619743
-0.688947
-0.666035
-0.637979
-0.648968
-0.667437
-0.596129
-0.368177
-0.168514
-0.234445
-0.449304
-0.596363
-0.692921
-0.786673
-0.803974
-0.644992
-0.443225
-0.388516
-0.267175
0.077208
0.342802
0.285755
0.034657
-0.174825
-0.277462
-0.302011
-0.443458
-0.794387
-0.827119
-0.370045
-0.081306
-0.239119
-0.612727
-0.945420
-1.007844
-0.903103
-0.828521
-0.814961
-0.931626
-1.038003
-0.954537
-0.897491
-0.893750
-0.722143
-0.565265
-0.525753
-0.360692
-0.243092
-0.503776
-0.851900
-0.873643
-0.697593
-0.554977
-0.325622
0.100357
0.428608
0.238765
-0.295228
-0.591215
-0.709984
-1.081955
-1.467253
-1.453459
-1.334456
-1.540431
-1.726534
-1.392671
-0.922037
-0.731259
-0.544922
-0.241921
-0.026827
-0.032438
-0.059559
0.188500
0.303295
-0.046933
-0.361157
-0.403942
-0.434803
-0.545155
-0.598928
-0.587472
-0.667197
-0.626516
-0.309253
-0.234672
-0.670236
-1.018594
-0.672340
0.099659
0.507167
0.364785
0.189905
0.196217
0.113687
-0.126189
-0.487406
-1.002929
-1.315983
-1.137829
-0.809812
-0.484366
-0.078260
-0.045294
-0.518266
-0.695952
-0.139047
0.617989
0.887089
0.752890
0.902053
1.240825
0.964477
0.169566
-0.253139
-0.048800
0.251395
0.301662
0.226379
0.199960
0.300493
0.469529
0.577309
0.632018
0.619159
0.454566
0.392376
0.692338
0.866049
0.504833
0.129354
0.051032
-0.175985
-0.695014
-0.948684
-0.484597
0.323640
0.737462
0.533123
0.048929
-0.141148
0.258178
0.739099
0.739099
0.610277
0.908134
1.430671
1.415241
0.485663
-0.530186
-0.653865
-0.218300
0.018536
-0.050668
-0.266229
-0.473840
-0.598922
-0.594012
-0.252200
0.234098
0.357076
0.185702
0.065764
0.134735
0.232462
-0.056745
-0.676775
-1.145305
-1.177569
-0.819392
-0.438536
-0.248225
-0.191178
-0.162187
-0.075214
-0.049029
0.039346
0.300498
0.293017
0.022981
-0.182293
-0.504933
-1.028405
-1.601910
-2.033733
-2.062490
-1.791987
-1.483608
-1.059500
-0.467525
-0.023076
-0.054639
-0.465187
-0.879475
-0.991230
-0.753926
-0.517323
-0.533221
-0.465654
-0.165458
-0.152833
-0.703659
-1.442926
-1.865865
-1.713429
-1.226663
-0.913141
-0.869655
-0.839027
-0.669524
-0.470329
-0.495813
-0.511477
-0.042713
0.396592
0.076523
-0.583486
-1.042898
-1.478228
-1.972709
-2.203233
-1.893452
-1.172421
-0.573666
-0.435726
-0.550286
-0.722595
-0.914776
-0.879472
-0.454195
0.142456
0.461823
0.237845
-0.186964
-0.485757
-0.886252
-1.386110
-1.621077
-1.572680
-1.481499
-1.380499
-1.034011
-0.526437
-0.432217
-0.730075
-0.709267
-0.175040
0.379527
0.468604
0.106686
-0.334723
-0.609668
-0.782678
-1.104149
-1.526855
-1.679758
-1.383537
-0.801615
-0.402757
-0.402991
-0.525501
-0.798342
-1.297265
-1.540414
-1.289550
-0.968546
-0.838087
-0.653153
-0.454426
-0.576000
-0.821253
-0.853517
-0.715577
-0.588157
-0.604289
-0.671623
-0.773324
-0.992860
-1.134541
-1.192990
-1.318773
-1.241620
-0.743632
-0.127810
0.164437
-0.017457
-0.403690
-0.546072
-0.419354
-0.286090
-0.153527
-0.123600
-0.289129
-0.484583
-0.706223
-0.819381
-0.612938
-0.285388
-0.054396
0.030239
0.035616
0.176128
0.566804
0.982028
0.959350
0.726020
0.957479
1.249258
0.997693
0.640684
0.454582
0.167245
-0.161474
-0.180879
0.123525
0.281806
0.135215
0.065778
0.143398
0.193665
0.265441
0.333476
0.338619
0.449439
0.751038
0.961222
0.854143
0.756649
0.861157
0.737011
0.365507
0.251648
0.395901
0.437750
0.320384
0.293264
0.498538
0.674120
0.564703
0.394732
0.480536
0.746831
0.972913
1.031129
0.871211
0.643259
0.549039
0.563534
0.483108
0.310566
0.471185
1.059185
1.418532
1.198528
0.843624
0.782603
0.993021
1.148028
1.025986
0.818608
0.656821
0.491526
0.553716
0.918440
1.134001
0.840820
0.304723
0.162106
0.486149
0.683474
0.635078
0.755250
0.963564
0.856952
0.551146
0.501581
0.754783
0.862798
0.692827
0.699607
0.903245
0.767876
0.430741
0.396139
0.398711
0.198580
0.178941
0.464174
0.838016
1.044927
0.825859
0.387956
0.347743
0.860461
1.244122
0.968709
0.444302
0.241600
0.292802
0.180813
-0.132943
-0.354583
-0.343127
0.007102
0.441965
0.427002
0.108102
-0.103952
-0.263869
-0.546530
-0.818903
-0.713695
-0.294028
0.057135
0.345875
0.626198
0.616145
0.257967
-0.000612
0.050356
0.087529
-0.025862
-0.112367
-0.054151
0.049888
-0.009730
-0.186247
-0.330032
-0.456048
-0.546762
-0.568271
-0.591417
-0.724447
-0.943983
-1.035398
-0.878286
-0.622511
-0.401339
-0.165905
-0.011833
-0.168477
-0.536006
-0.811185
-0.969232
-1.269895
-1.691899
-1.712941
-1.166089
-0.539045
-0.056487
0.316420
0.320628
-0.046667
-0.380062
-0.595857
-0.803469
-0.939071
-0.958944
-0.803469
-0.427289
-0.012532
0.295846
0.605160
0.894601
0.908395
0.623163
0.228981
-0.173852
-0.490413
-0.734498
-1.080050
-1.445475
-1.463243
-1.135693
-0.951695
-1.087063
-1.265684
-1.323900
-1.345877
-1.459268
-1.542500
-1.378374
-1.046850
-0.700362
-0.379358
-0.121480
0.015058
-0.006451
-0.096931
-0.289346
-0.691711
-1.035159
-1.117923
-1.085191
-0.889503
-0.491346
-0.042455
0.439869
0.795942
0.813243
0.656131
0.390771
-0.019776
-0.334234
-0.554938
-0.742210
-0.671135
-0.514257
-0.431961
-0.224115
-0.171276
-0.471940
-0.657341
-0.579720
-0.608009
-0.860510
-0.980916
-0.696618
-0.226686
0.121906
0.288604
0.428181
0.643742
0.693541
0.462783
0.228518
0.060886
-0.151636
-0.354338
-0.578783
-0.861912
-0.949586
-0.727011
-0.422840
-0.162624
-0.029827
-0.131529
-0.279522
-0.307110
-0.317631
-0.346154
-0.303369
-0.087574
0.241379
0.426780
0.430755
0.436833
0.405972
0.216597
0.058316
0.066499
-0.059518
-0.357609
-0.407876
-0.234164
-0.156076
-0.121006
-0.011121
0.147160
0.301700
0.361552
0.282996
0.088243
-0.156776
-0.234397
0.033769
0.326717
0.251668
0.074683
0.088711
0.094322
-0.046657
-0.236968
-0.257542
-0.055541
0.079594
0.149733
0.356644
0.414625
0.163060
0.021145
0.228055
0.594650
0.825408
0.712016
0.412288
0.248630
0.222211
0.105780
-0.125679
-0.183895
0.053176
0.374881
0.696586
0.929916
0.795483
0.387506
0.099936
-0.009247
-0.038940
-0.048058
-0.127549
-0.088504
0.247462
0.573376
0.638138
0.630656
0.799692
1.083522
1.230113
1.171664
1.003096
0.750361
0.461855
0.300769
0.231098
0.033773
-0.093647
0.075389
0.232267
0.283001
0.365999
0.313863
0.183871
0.198601
0.283703
0.426787
0.656610
0.907708
1.162080
1.247416
1.011047
0.597459
0.216838
0.046166
0.053180
-0.072837
-0.395945
-0.631145
-0.638860
-0.484787
-0.271798
-0.154432
-0.131286
-0.026544
0.180600
0.349636
0.337478
0.103915
-0.218725
-0.405529
-0.271797
0.078431
0.300305
0.255650
0.134777
0.227828
0.561223
0.759016
0.605411
0.427959
0.552339
0.845287
0.991177
0.806711
0.411593
0.146234
0.054118
-0.119360
-0.378641
-0.464444
-0.273198
0.040090
0.348703
0.565433
0.611023
0.571746
0.505581
0.431234
0.407386
0.351976
0.241390
0.126830
-0.017891
-0.137828
-0.184822
-0.192303
-0.242803
-0.425866
-0.596772
-0.534582
-0.345440
-0.215215
-0.062311
0.149042
0.324857
0.581567
0.972710
1.244850
1.244850
1.085166
0.928055
0.796427
0.575255
0.216376
-0.126604
-0.279975
-0.311538
-0.281846
-0.154192
-0.099250
-0.166116
-0.137359
0.037054
0.231106
0.296569
0.260799
0.294232
0.368345
0.402714
0.441992
0.522886
0.525925
0.239991
-0.214978
-0.572454
-0.811629
-0.891587
-0.773520
-0.571986
-0.358997
-0.116081
0.252383
0.677661
0.814432
0.618276
0.438954
0.415340
0.416743
0.294467
0.032147
-0.173361
-0.186687
-0.055994
0.133615
0.196741
0.109067
0.175465
0.438253
0.577363
0.492728
0.385416
0.485715
0.787313
1.017837
1.087275
1.151570
1.185704
1.073481
0.941620
0.947465
0.897900
0.578299
0.253555
0.207964
0.292599
0.365778
0.469116
0.595133
0.714837
0.743361
0.610096
0.522656
0.672754
0.797836
0.616643
0.358297
0.301251
0.359700
0.448076
0.555389
0.620618
0.683042
0.674859
0.427502
0.107901
-0.038690
-0.041729
-0.001282
0.075170
0.284185
0.599811
0.747337
0.649844
0.618749
0.840155
1.068575
1.064834
0.893695
0.717412
