EVENT_NAME: 202302060117
EVENT_ID: 13194
EVENT_DATE_YYYYMMDD: 2023/02/06
EVENT_TIME_HHMMSS: 01:17:32.00000
EVENT_LATITUDE_DEGREE: 37.288
EVENT_LONGITUDE_DEGREE: 37.043
EVENT_DEPTH_KM: 8.6
HYPOCENTER_REFERENCE: AFAD
MAGNITUDE_W: 7.7
MAGNITUDE_W_REFERENCE: AFAD
MAGNITUDE_L: 
MAGNITUDE_L_REFERENCE: 
FOCAL_MECHANISM: 
NETWORK: TK
STATION_CODE: 0217
STATION_NAME: 
STATION_LATITUDE_DEGREE: 38.029958
STATION_LONGITUDE_DEGREE: 38.556268
STATION_ELEVATION_M: 798.0
LOCATION: Kahramanmaras_Pazarck_Turkiye
SENSOR_DEPTH_M: 
VS30_M/S: None
SITE_CLASSIFICATION_EC8: unknown
MORPHOLOGIC_CLASSIFICATION: 
EPICENTRAL_DISTANCE_KM: 156.69
EARTHQUAKE_BACKAZIMUTH_DEGREE: 
DATE_TIME_FIRST_SAMPLE_YYYYMMDD_HHMMSS: 2023/02/06 01:17:39.0367100
DATE_TIME_FIRST_SAMPLE_PRECISION: millisecond
SAMPLING_INTERVAL_S: 0.01
NDATA: 4032
DURATION_S: 
STREAM: HNZ
UNITS: cm/s^2
INSTRUMENT: sensor = ACEBOX/SARA | digitizer = 
INSTRUMENT_ANALOG/DIGITAL: 
INSTRUMENTAL_FREQUENCY_HZ: 
INSTRUMENTAL_DAMPING: 
FULL_SCALE_G: 
N_BIT_DIGITAL_CONVERTER: 
PGA_CM/S^2: 17.472
TIME_PGA_S: 
BASELINE_CORRECTION: BASELINE REMOVED
FILTER_TYPE: BUTTERWORTH
FILTER_ORDER: 
LOW_CUT_FREQUENCY_HZ: 
HIGH_CUT_FREQUENCY_HZ: 
LATE/NORMAL_TRIGGERED: 
DATABASE_VERSION: 
HEADER_FORMAT: DYNA 1.2
DATA_TYPE: Acceleration
PROCESSING: Automatic Paolucci et al., 2011
DATA_TIMESTAMP_YYYYMMDD_HHMMSS: 
DATA_LICENSE: U (unknown license)
DATA_CITATION: Turkish Accelerometric Archive v 1.0 - Disaster And Emergency Management Presidency, Earthquake Department
DATA_CREATOR: AFAD
ORIGINAL_DATA_MEDIATOR_CITATION: : AFAD - Disaster And Emergency Management Presidency
ORIGINAL_DATA_MEDIATOR: AFAD PROCESS SERVICE
ORIGINAL_DATA_CREATOR_CITATION: AFAD PROCESS SERVICE
ORIGINAL_DATA_CREATOR: network: TK
USER1: GuestUser
USER2: 
USER3: 
USER4: 
USER5: 
[...]
-0.014721
0.005094
0.009478
-0.002270
0.041159
0.117319
0.125210
0.057819
0.005156
0.001358
-0.021145
-0.053934
-0.025703
0.032923
0.035437
-0.023304
-0.045339
0.008610
0.053441
0.045902
0.055430
0.111016
0.135740
0.142930
0.200854
0.233294
0.189048
0.127502
0.071099
0.024281
-0.007807
-0.014411
0.022705
0.064731
0.085715
0.098048
0.060115
-0.036267
-0.153691
-0.301275
-0.430857
-0.486559
-0.531038
-0.569906
-0.542844
-0.494973
-0.488251
-0.515429
-0.554531
-0.591997
-0.631332
-0.661784
-0.659504
-0.663302
-0.673180
-0.616191
-0.522496
-0.455922
-0.376021
-0.260115
-0.162680
-0.115043
-0.063198
0.019742
0.054988
0.027809
0.013724
-0.000830
-0.088795
-0.234275
-0.363857
-0.466551
-0.529968
-0.498697
-0.371102
-0.186694
-0.016313
0.117594
0.259685
0.368343
0.441464
0.513182
0.504473
0.416508
0.313112
0.226081
0.226023
0.316912
0.465316
0.648789
0.780826
0.803213
0.731847
0.614189
0.466839
0.279042
0.141979
0.121814
0.128303
0.085928
0.002170
-0.104733
-0.230106
-0.333502
-0.314389
-0.190066
-0.038390
0.188102
0.406644
0.437448
0.349482
0.235331
0.074655
-0.064746
-0.092860
0.007615
0.191789
0.406591
0.580712
0.618997
0.562828
0.463640
0.285195
0.108854
0.001249
-0.089054
-0.177254
-0.251659
-0.308062
-0.318641
-0.243416
-0.088934
0.105995
0.296248
0.434832
0.550504
0.621988
0.537062
0.338510
0.140660
-0.020952
-0.110087
-0.087934
0.072861
0.304963
0.453834
0.527657
0.618780
0.673430
0.670801
0.678224
0.679803
0.633453
0.494052
0.224660
-0.080971
-0.307578
-0.449551
-0.524658
-0.520040
-0.437100
-0.304361
-0.155256
0.006006
0.226419
0.469978
0.623993
0.713713
0.774676
0.722014
0.504758
0.186970
-0.158173
-0.562232
-0.953900
-1.162272
-1.179631
-0.989377
-0.594552
-0.165592
0.174292
0.400316
0.549654
0.590979
0.484543
0.389797
0.348591
0.259223
0.138993
-0.015137
-0.212754
-0.400083
-0.509091
-0.541413
-0.547315
-0.448243
-0.294930
-0.291949
-0.339000
-0.247409
-0.035179
0.238774
0.485606
0.649673
0.728873
0.619632
0.357955
0.131581
-0.112795
-0.393643
-0.528135
-0.515100
-0.425613
-0.276275
-0.080177
0.180917
0.366026
0.416703
0.512735
0.673296
0.803463
0.840346
0.720350
0.502393
0.260355
-0.017922
-0.303914
-0.497790
-0.495042
-0.300580
-0.018211
0.287304
0.624148
0.975955
1.188185
1.098349
0.760688
0.329508
-0.063797
-0.295782
-0.339794
-0.198404
0.090511
0.372647
0.589319
0.713408
0.617025
0.368207
0.161239
0.027449
-0.072908
-0.109438
0.077074
0.499488
0.897353
1.167565
1.308954
1.203220
0.877950
0.494932
0.226709
0.147394
0.149908
0.194505
0.208475
0.016703
-0.287992
-0.465502
-0.430023
-0.234626
0.045405
0.401186
0.702493
0.697526
0.407793
0.053532
-0.322705
-0.693800
-0.847930
-0.758210
-0.618924
-0.487588
-0.350407
-0.160621
0.117773
0.417444
0.742130
1.030344
1.158407
1.094523
0.830975
0.571169
0.402543
0.195575
0.102933
0.117371
0.025430
-0.079369
-0.140448
-0.216256
-0.210235
-0.013202
0.281793
0.530963
0.771014
0.981374
1.027141
0.862723
0.433414
-0.242085
-0.923662
-1.423578
-1.793971
-2.010291
-1.923143
-1.629317
-1.358170
-1.272892
-1.480562
-1.903793
-2.422881
-2.923498
-3.085578
-2.651240
-1.760764
-0.726503
0.180105
0.603454
0.302732
-0.473065
-1.324612
-2.172185
-2.852593
-2.960899
-2.518379
-1.933476
-1.486513
-1.352372
-1.543442
-1.938851
-2.363718
-2.470855
-2.079537
-1.330508
-0.516484
0.012542
0.153697
-0.021942
-0.403557
-0.778392
-1.119327
-1.396902
-1.392751
-1.021773
-0.297293
0.645086
1.581152
2.340702
2.637333
2.386410
1.873869
1.391253
1.181713
1.270031
1.413992
1.299607
0.776545
0.153417
-0.297636
-0.594850
-0.655461
-0.482509
-0.064304
0.516157
0.731193
0.397740
-0.247131
-1.132813
-1.997687
-2.451311
-2.377022
-1.785339
-0.919411
-0.342458
-0.331059
-0.591567
-0.823085
-0.945652
-0.940099
-0.921921
-1.071141
-1.319725
-1.435981
-1.581227
-1.956529
-2.133338
-1.836941
-1.456844
-1.321066
-1.393133
-1.545159
-1.776443
-1.953953
-1.710861
-1.091356
-0.603479
-0.563558
-0.914545
-1.601967
-2.647333
-3.453524
-3.202016
-2.185523
-1.040442
0.230656
1.421094
2.074499
2.146451
1.934339
1.634787
1.225350
0.987520
1.210505
1.728542
2.509133
3.454785
4.200541
4.672753
4.800115
4.318201
3.251326
2.069657
1.230267
0.638936
0.174089
0.285552
1.137452
2.112328
2.910688
3.854002
4.801525
5.213418
5.039414
4.532718
3.791055
2.868667
1.868424
1.044231
0.887062
1.503761
2.293938
2.698817
2.495122
1.670695
0.507963
-0.480356
-0.751385
-0.376198
0.124070
0.699387
1.262781
1.289843
0.498849
-0.891835
-2.276674
-3.238340
-3.865208
-4.300830
-4.637089
-4.816469
-4.590211
-3.823881
-2.523793
-0.896855
0.630952
1.669188
2.006499
1.692919
0.998717
0.265471
-0.288686
-0.754001
-1.358424
-2.088631
-2.691418
-3.086594
-3.278599
-3.071513
-2.444292
-1.517578
-0.361976
0.684443
1.142394
0.756337
-0.209771
-1.146889
-1.845299
-2.296819
-2.266717
-1.733484
-0.919460
0.173952
1.480821
2.581948
3.353188
3.868653
3.958841
3.673784
3.063983
2.225294
1.729119
1.730230
1.731808
1.400460
0.746003
-0.259850
-1.491085
-2.191131
-2.030571
-1.640888
-1.198134
-0.412400
0.376375
0.627649
0.407588
0.037195
-0.282230
-0.358973
-0.161473
0.352122
1.099982
1.364115
0.575225
-1.024474
-2.806768
-4.037769
-4.275365
-3.701216
-2.771696
-1.810614
-0.942816
-0.384566
-0.579143
-1.318936
-1.682081
-1.570617
-1.579326
-1.750991
-1.803887
-1.656185
-1.572543
-1.936390
-2.699562
-3.259798
-3.185041
-2.947794
-2.955801
-2.797111
-2.186490
-1.538228
-1.449443
-1.334707
-0.100782
1.644924
2.779952
3.120069
2.808827
2.096155
1.012914
-0.201720
-1.175076
-2.183735
-3.144466
-3.823939
-4.516037
-4.822603
-3.934933
-1.902357
0.479979
2.610282
4.404852
5.373884
5.034586
4.269544
3.931649
3.750398
4.169772
5.694540
6.970314
6.858969
6.006252
5.475475
5.284872
4.770694
4.434903
4.520649
3.762386
2.168533
0.582160
-0.951374
-2.022457
-2.255844
-1.731495
-0.489154
0.964305
1.772017
1.576271
0.834842
0.116325
-0.662511
-1.647090
-2.521082
-3.030116
-3.275427
-3.372511
-3.288636
-3.110073
-2.884750
-2.342398
-1.436725
-0.370200
0.822342
1.654602
1.358090
-0.020437
-1.657777
-2.851604
-3.760899
-4.628345
-5.179229
-5.444881
-5.438392
-5.292327
-5.427753
-5.284026
-4.773237
-4.766281
-4.694563
-3.937585
-3.249578
-2.767312
-1.971524
-1.160773
-1.040191
-1.348394
-1.505096
-1.910091
-2.383588
-1.929144
-0.944448
-0.228385
0.588211
1.895782
3.356723
4.408051
5.053274
5.453243
5.229675
4.418341
3.405473
2.351223
1.515340
0.775782
0.068955
-0.356380
-0.853024
-1.651032
-2.444831
-2.625381
-1.697965
-0.415411
0.422928
0.918755
1.189668
1.487000
1.489514
0.688467
0.105084
0.481674
0.797710
0.267400
-0.583914
-0.974647
-0.845649
-0.711974
-1.020177
-1.432420
-0.965818
0.082471
0.302884
-0.162898
-0.438369
-0.850845
-1.927306
-3.252059
-3.829596
-3.876180
-4.191630
-3.928432
-2.920824
-2.388292
-2.461996
-2.728582
-2.662008
-2.462169
-3.272335
-4.423844
-4.670792
-4.621518
-4.778220
-4.334531
-2.954717
-1.673566
-1.079078
-0.703891
-0.072229
0.838120
1.189927
0.827951
0.418047
-0.317070
-1.080710
-1.200939
-1.001568
-0.606976
0.028427
1.048193
2.405562
3.469048
4.112867
4.489925
4.658435
4.468533
3.641301
2.558294
1.796291
1.665073
1.781680
1.941071
2.866617
3.765743
3.559242
3.114970
2.871763
2.489213
2.053357
1.785367
1.584711
1.351324
1.434731
1.622179
1.562737
1.533922
1.668531
2.121338
2.781992
3.301665
3.533300
3.044840
1.389497
-1.118036
-2.801200
-2.464590
-0.788556
1.616927
4.090911
5.653788
6.110336
5.794418
5.062108
3.662773
1.847981
0.271662
-1.187057
-1.785168
-1.648923
-2.200508
-2.736429
-2.700482
-3.282695
-4.712891
-5.952308
-6.250692
-5.775206
-4.704472
-3.460962
-2.747705
-2.076765
-0.862947
0.324919
0.692624
0.218426
-0.492610
-1.264199
-1.913745
-1.827532
-0.764981
1.022341
2.849409
4.037041
4.254181
3.341145
1.629924
-0.036407
-0.799345
-0.368982
1.101779
3.356228
5.349993
5.823609
4.807935
3.106067
1.296185
-0.175159
-0.975739
-1.145768
-0.805183
0.104231
0.952156
0.871905
0.494499
0.257838
-0.810440
-2.322465
-2.893689
-2.386641
-1.221921
-0.092971
0.476735
0.726840
0.584867
0.089393
-0.148437
-0.344885
-1.091223
-2.192232
-3.552523
-5.124400
-6.097756
-6.124934
-5.687090
-5.057765
-4.251456
-3.024312
-1.643330
-0.894301
-0.568212
-0.439681
-0.724504
-1.111263
-1.869057
-3.288966
-4.596185
-5.319845
-5.413655
-4.674914
-3.139158
-1.134872
1.016473
2.740202
3.122871
2.216615
0.855389
-0.489938
-1.146733
-1.031762
-0.876579
-0.544177
0.055923
0.180713
-0.263092
-0.469593
-0.224164
-0.257655
-0.155076
1.080719
2.281677
2.013688
0.800222
-0.185291
-0.366776
-0.244090
0.277454
2.087454
3.941175
4.243651
3.576569
2.601343
1.380630
0.190544
-0.288799
0.380973
1.663527
2.924571
3.507604
3.173683
2.479949
1.510568
0.830160
1.038883
1.258828
1.111478
0.882299
0.463744
-0.273243
-1.279564
-1.880013
-1.702152
-1.172659
-0.600381
-0.144300
0.031224
-0.482019
-1.325150
-1.600387
-1.836580
-2.143848
-1.627681
-0.634802
0.158180
0.524483
0.521853
0.614847
0.626479
0.051046
-0.645962
-0.766192
-0.645376
-0.656423
-0.580730
-0.815053
-1.546429
-2.289260
-3.047523
-3.621319
-3.933029
-4.293368
-3.806426
-1.937041
0.127564
1.568399
2.175980
1.815173
0.987006
-0.326993
-2.394286
-3.837341
-3.738736
-3.216959
-2.503000
-0.898741
0.845563
1.909516
2.476651
2.559825
2.323631
1.969137
1.132085
0.091162
-0.311028
-0.088043
0.148736
0.287086
0.950545
2.310486
3.276478
2.818879
1.292826
0.027224
-0.165951
0.062411
0.148859
0.854401
1.959503
1.886032
0.651993
-0.474267
-1.323242
-2.299404
-2.776174
-1.963553
-0.271620
1.405116
2.163497
1.932915
1.376419
0.160849
-1.570243
-2.963499
-3.804292
-3.606791
-2.587025
-1.098262
1.119013
3.063447
3.813177
3.167605
1.170685
-1.201246
-3.002946
-3.373573
-2.166301
-0.592670
0.661361
1.247666
0.507173
-1.269511
-2.897265
-3.569022
-3.157363
-1.907073
-0.637145
-0.047566
-0.334727
-1.941439
-4.303317
-5.770920
-5.889747
-4.796102
-2.642653
-0.476111
1.356567
3.328823
4.935186
5.581344
5.459010
4.758028
3.105959
0.576215
-1.522875
-2.771644
-3.414411
-2.672396
-0.706453
1.544490
3.722721
4.923913
4.150688
1.694356
-0.896176
-2.292003
-2.266343
-0.583295
2.716462
6.064849
7.905944
8.433333
7.882449
6.042874
3.779191
1.815937
0.802836
1.554670
3.261800
5.062916
6.800673
7.998125
8.407680
8.041028
7.574779
7.256289
6.540344
5.914177
5.299700
3.541954
0.525210
-2.618252
-4.598807
-5.591100
-6.419502
-6.888791
-6.807721
-7.081088
-8.106347
-7.803169
-5.279386
-3.110506
-2.122771
-0.860090
0.105903
-0.378115
-0.198149
2.969979
7.025369
9.415654
10.173333
9.978055
10.126926
10.406957
8.769149
5.258392
1.791354
-1.409622
-5.758543
-9.717022
-10.210626
-8.003638
-5.531523
-3.995767
-3.274093
-3.070279
-3.851454
-4.423847
-3.491756
-2.016085
-0.786136
0.140813
0.828820
1.336102
1.838942
2.666994
4.081878
6.747810
10.123317
12.340125
12.838990
12.436334
11.148754
7.706967
2.954746
-1.013319
-4.492047
-7.073226
-8.107136
-9.291143
-10.607012
-10.667156
-9.743481
-8.433105
-7.337355
-6.651919
-6.083616
-6.183505
-6.426946
-5.257082
-3.241808
-1.016817
2.748898
7.655075
10.821801
11.529682
11.264498
9.861422
6.823403
2.985329
-0.763668
-3.677307
-6.162864
-9.135654
-11.695792
-12.304424
-11.316221
-11.080377
-12.279114
-12.579367
-10.817763
-7.987471
-4.996560
-1.963566
1.063817
2.844359
2.789592
2.009587
1.201292
0.662565
0.494173
1.058969
2.288218
2.254493
1.111634
0.579454
0.206489
0.377103
1.791986
3.287763
4.022297
4.390002
4.804466
4.311330
3.298930
3.492223
3.976593
3.576975
1.944077
-0.532361
-1.796795
-2.314246
-3.343246
-2.832924
0.584199
5.305209
8.573637
9.274737
8.800772
7.234740
3.197939
-1.760257
-4.508602
-4.902842
-4.142358
-1.860554
1.549789
4.375405
5.375298
3.748946
0.887210
-0.699630
-1.253554
-1.562458
-0.760591
1.585506
3.819148
4.086086
3.788872
3.967435
2.503105
-1.227889
-5.412685
-7.715412
-7.134951
-4.066654
1.519874
7.125807
8.990049
6.881140
2.028853
-3.804446
-8.021038
-9.054480
-7.286095
-4.970391
-3.235206
-1.325374
0.588900
1.559335
1.223544
0.972622
2.404105
4.196103
4.642832
3.788245
1.814003
-1.107819
-4.519681
-6.744086
-6.399994
-4.033089
1.032305
8.186210
13.608378
15.940214
15.219359
11.509640
7.277618
3.839338
0.307772
-2.562381
-2.855854
-1.722697
-1.609363
-2.017397
-2.134120
-1.961635
-2.714988
-5.060968
-4.881937
-1.245746
1.779767
3.282558
3.465563
1.817936
-1.809253
-5.268107
-5.670297
-4.420708
-1.940411
2.497003
7.148576
10.443423
9.652663
5.333200
0.923726
-3.719078
-7.651138
-9.366567
-8.878690
-6.131396
-3.205013
-1.747579
-2.108854
-4.116529
-6.357533
-8.707721
-10.522981
-9.637882
-5.988833
-1.439663
2.677449
5.847214
7.422950
7.860327
7.970387
7.114164
6.136132
6.628217
6.897962
4.973285
2.582182
0.758038
-1.978149
-4.290462
-4.891613
-5.142535
-4.568854
-2.674219
0.055072
2.710951
4.146409
5.436678
6.243454
6.046071
6.029414
5.222522
4.365831
3.339870
0.605320
-0.911615
-1.266343
-1.919163
-1.225310
-0.283165
-0.659637
-2.233384
-2.658719
-1.865737
-3.839979
-5.950524
-5.533956
-5.216283
-5.143396
-6.110206
-7.656599
-9.229878
-12.688967
-15.477758
-16.385885
-15.197785
-8.801851
0.669452
9.620556
15.909645
16.715954
13.479440
8.118411
1.042713
-4.063945
-5.785920
-6.360184
-5.130468
-3.103270
-4.031035
-6.431256
-8.416954
-10.856218
-11.529846
-9.764501
-8.082621
-5.842200
-1.814866
1.981008
3.231065
2.315223
0.951659
-0.825024
-2.862157
-3.673959
-3.213203
-0.430606
6.048326
12.234544
14.074938
12.433624
8.947415
4.301571
-0.440129
-2.268481
0.692971
6.014139
10.791962
13.227370
11.927165
6.260330
-2.915102
-12.077441
-17.471669
-17.392236
-12.766381
-6.768604
-2.237671
-0.077208
0.328372
-0.490210
-0.657199
1.736593
5.333740
9.472361
12.161440
9.583066
3.624217
-2.435632
-8.293481
-12.422632
-11.494749
-5.760461
-0.575597
1.782658
1.977821
0.484500
-0.539824
-1.586826
-2.892641
-2.389567
-0.245471
3.083277
5.180147
4.923380
4.475366
1.355284
-4.780316
-8.776904
-10.345274
-11.461948
-10.793813
-7.722476
-4.374791
-2.335435
-1.286445
-1.020441
-1.702953
-2.865451
-3.459588
-2.774152
-0.618132
2.348464
3.801456
3.081536
1.589618
-0.981976
-3.174584
-2.116476
1.023831
4.276828
5.655707
3.496297
0.366629
-2.422162
-5.946948
-9.065394
-10.529256
-9.945522
-9.746151
-12.116913
-13.225638
-11.377294
-9.221040
-6.454809
-2.394743
0.460565
-0.342820
-2.998348
-4.414282
-4.920744
-4.492953
-2.231023
0.534040
2.411608
2.651660
0.990238
-1.298227
-2.419810
-1.714502
-0.071666
1.571637
2.376309
1.654285
-0.073534
-3.041649
-6.614362
-7.684277
-5.844350
-3.109915
-0.642944
1.552120
4.060941
4.436128
1.536750
-0.555560
-1.021108
-1.387526
-0.779243
0.670476
2.739991
4.461850
4.473248
4.224898
3.305081
0.565153
-1.970436
-3.536000
-4.465168
-5.161942
-6.488098
-7.158453
-6.538013
-5.767475
-4.661438
-3.031227
-1.224734
0.593684
2.183681
3.428360
3.789285
2.696692
0.597135
-0.960013
-1.889882
-3.597595
-4.516944
-3.667616
-2.498454
0.122122
3.816996
6.953328
10.351280
12.079451
11.010940
9.587057
7.640870
4.895799
1.901032
-1.697166
-3.506347
-2.318247
-0.797220
0.222078
1.474472
3.197033
4.904864
5.058411
4.506591
5.178934
5.957655
5.749985
5.544420
5.487315
4.382098
2.546030
1.212860
0.504630
0.177490
-1.054446
-3.347821
-4.996851
-6.463753
-7.495324
-6.710758
-4.716526
-1.551436
2.199549
5.079874
6.769469
7.655035
8.570293
7.724357
4.081270
1.068267
-0.264669
-1.133985
-2.312849
-4.950374
-7.939997
-10.478860
-12.600160
-12.753355
-11.282594
-8.742679
-5.254248
-3.509243
-4.242723
-5.427198
-5.913320
-5.507272
-4.933124
-3.651973
-0.990249
0.070432
-1.632605
-2.986349
-3.836260
-5.497448
-5.791856
-4.223368
-2.776923
-1.348947
-0.082291
0.647566
1.377891
1.028306
-0.070599
-0.501779
-1.412010
-2.852259
-3.731394
-3.986525
-4.074724
-5.315778
-6.660638
-6.757955
-6.828152
-5.341961
-1.755803
1.102077
3.903144
7.049998
7.687037
5.482973
2.880050
0.990676
-1.484126
-3.651952
-2.306974
0.939945
2.436891
2.694711
2.342555
0.705916
-1.054402
-1.422222
-0.039603
2.399078
5.001885
7.361309
7.797283
5.544589
2.847212
1.019795
-0.469552
-1.892967
-2.431928
-1.293393
0.258729
1.085378
2.032667
3.285762
3.985927
4.443644
4.482631
3.335797
3.274952
5.062976
5.791664
5.649224
5.943283
5.513739
3.384022
0.496100
-1.264217
-2.907870
-4.807764
-4.577766
-3.970886
-3.815702
-1.169643
1.626047
1.401076
0.157918
-0.834141
-2.691017
-5.132853
-4.995439
-1.175717
2.419794
4.691544
7.639202
9.129835
7.585780
5.678872
5.031196
4.382584
2.373506
0.812852
1.559309
2.823860
3.925689
5.745976
7.868564
9.550677
9.540099
8.162273
6.403125
3.636076
1.658094
1.508172
0.903514
0.297921
0.307215
-1.006549
-3.644074
-5.983741
-7.444798
-8.759732
-9.688432
-8.199669
-4.560205
-1.226782
1.236916
3.328175
4.586414
3.806642
1.404317
0.747523
1.968121
1.919667
1.898567
2.620475
1.928143
1.131071
0.561483
-0.622291
-0.738078
-0.031133
0.626481
1.309578
1.442551
1.231608
0.015571
-2.900173
-6.080107
-8.317605
-8.895376
-8.094912
-7.674368
-7.250552
-4.839926
-1.723466
0.186599
2.823775
6.564707
8.646614
9.268456
9.254371
7.401002
4.162618
0.521869
-3.027231
-4.752011
-4.631196
-4.146358
-1.975609
1.908875
3.971610
4.040990
3.858337
2.695839
1.090061
0.255347
-0.009135
0.382417
1.419484
2.846525
3.513958
2.417859
0.809977
-0.877630
-2.730998
-3.519654
-3.268614
-2.290932
-0.688777
0.671631
1.905556
3.330492
4.347920
4.563657
4.418645
4.192972
3.402446
2.569135
2.445398
2.931405
4.497555
6.714363
7.894747
7.586778
6.542816
5.262016
3.969761
3.240256
3.047549
2.718304
2.449380
2.467090
2.212895
1.734722
1.482396
0.923096
-0.271900
-1.375247
-2.024093
-2.077924
-1.275589
-0.207895
0.247484
0.464858
1.316289
2.278073
2.322905
1.684113
1.927204
3.327358
3.314675
1.934512
2.200515
3.345830
3.466178
3.228114
2.940252
2.535491
1.966137
0.903704
0.088629
0.279116
0.912883
1.049129
0.862267
1.303618
1.784481
1.845912
2.708566
3.668246
3.384592
2.884442
3.241860
4.123452
4.132044
3.598227
4.435163
5.272334
4.241931
2.367053
0.833753
0.522511
1.196490
1.467170
1.317248
1.244245
1.095258
1.482603
2.497225
2.587179
2.985278
5.245338
5.661673
3.560012
2.885916
2.834657
1.396746
0.162472
0.247049
0.375813
-0.867111
-2.477564
-3.380547
-4.311586
-5.219946
-5.666557
-5.723895
-5.836877
0.000000
0.000000
0.000000
0.000000
0.000000
0.000000
0.000000
0.000000
0.000000
0.000000
0.000000
0.000000
0.000000
0.000000
0.000000
0.000000
0.000000
0.000000
0.000000
0.000000
0.000000
0.000000
0.000000
0.000000
0.000000
0.000000
0.000000
0.000000
0.000000
0.000000
0.000000
0.000000
0.000000
0.000000
0.000000
0.000000
