EVENT_NAME: 202302060117
EVENT_ID: 13194
EVENT_DATE_YYYYMMDD: 2023/02/06
EVENT_TIME_HHMMSS: 01:17:32.00000
EVENT_LATITUDE_DEGREE: 37.288
EVENT_LONGITUDE_DEGREE: 37.043
EVENT_DEPTH_KM: 8.6
HYPOCENTER_REFERENCE: AFAD
MAGNITUDE_W: 7.7
MAGNITUDE_W_REFERENCE: AFAD
MAGNITUDE_L: 
MAGNITUDE_L_REFERENCE: 
FOCAL_MECHANISM: 
NETWORK: TK
STATION_CODE: 4208
STATION_NAME: 
STATION_LATITUDE_DEGREE: 37.67799
STATION_LONGITUDE_DEGREE: 31.74661
STATION_ELEVATION_M: 1143.0
LOCATION: Kahramanmaras_Pazarck_Turkiye
SENSOR_DEPTH_M: 
VS30_M/S: 286
SITE_CLASSIFICATION_EC8: C
MORPHOLOGIC_CLASSIFICATION: 
EPICENTRAL_DISTANCE_KM: 469.28
EARTHQUAKE_BACKAZIMUTH_DEGREE: 
DATE_TIME_FIRST_SAMPLE_YYYYMMDD_HHMMSS: 2023/02/06 01:18:11.5248250
DATE_TIME_FIRST_SAMPLE_PRECISION: millisecond
SAMPLING_INTERVAL_S: 0.01
NDATA: 24501
DURATION_S: 
STREAM: HNZ
UNITS: cm/s^2
INSTRUMENT: sensor = GMS+/GEOSIG | digitizer = 
INSTRUMENT_ANALOG/DIGITAL: 
INSTRUMENTAL_FREQUENCY_HZ: 
INSTRUMENTAL_DAMPING: 
FULL_SCALE_G: 
N_BIT_DIGITAL_CONVERTER: 
PGA_CM/S^2: 1.564
TIME_PGA_S: 
BASELINE_CORRECTION: BASELINE REMOVED
FILTER_TYPE: BUTTERWORTH
FILTER_ORDER: 
LOW_CUT_FREQUENCY_HZ: 
HIGH_CUT_FREQUENCY_HZ: 
LATE/NORMAL_TRIGGERED: 
DATABASE_VERSION: 
HEADER_FORMAT: DYNA 1.2
DATA_TYPE: Acceleration
PROCESSING: Automatic Paolucci et al., 2011
DATA_TIMESTAMP_YYYYMMDD_HHMMSS: 
DATA_LICENSE: U (unknown license)
DATA_CITATION: Turkish Accelerometric Archive v 1.0 - Disaster And Emergency Management Presidency, Earthquake Department
DATA_CREATOR: AFAD
ORIGINAL_DATA_MEDIATOR_CITATION: : AFAD - Disaster And Emergency Management Presidency
ORIGINAL_DATA_MEDIATOR: AFAD PROCESS SERVICE
ORIGINAL_DATA_CREATOR_CITATION: AFAD PROCESS SERVICE
ORIGINAL_DATA_CREATOR: network: TK
USER1: GuestUser
USER2: 
USER3: 
USER4: 
USER5: 
[...]
-0.516687
-0.555912
-0.577732
-0.592798
-0.597474
-0.590200
-0.581367
-0.569158
-0.562143
-0.563702
-0.562922
-0.559544
-0.557466
-0.554868
-0.552270
-0.551490
-0.541878
-0.532266
-0.529408
-0.534344
-0.560320
-0.592531
-0.623702
-0.648899
-0.663966
-0.678512
-0.685785
-0.678771
-0.659288
-0.633571
-0.596423
-0.548885
-0.495633
-0.432509
-0.359254
-0.280024
-0.196118
-0.112732
-0.046231
0.018191
0.081835
0.135088
0.192497
0.246269
0.285755
0.318745
0.354334
0.381091
0.397976
0.401353
0.377455
0.347582
0.312514
0.266795
0.218219
0.168864
0.119768
0.072491
0.036124
0.004692
-0.019206
-0.034013
-0.041026
-0.037389
-0.031154
-0.019983
-0.013748
-0.004916
0.006774
0.013528
0.027556
0.053014
0.093538
0.135881
0.178223
0.213812
0.237192
0.248882
0.243687
0.228621
0.202644
0.165758
0.108869
0.043148
-0.017897
-0.079981
-0.131415
-0.179212
-0.226489
-0.278962
-0.332473
-0.377413
-0.425989
-0.473786
-0.516647
-0.552495
-0.578471
-0.580809
-0.559507
-0.527036
-0.480797
-0.425466
-0.365978
-0.305712
-0.243887
-0.184139
-0.120236
-0.045163
0.038483
0.130441
0.223698
0.312539
0.388392
0.461907
0.523472
0.565036
0.586856
0.578544
0.556205
0.522955
0.477236
0.424244
0.369693
0.316961
0.276177
0.251240
0.229420
0.214094
0.192794
0.165259
0.139542
0.111488
0.080056
0.050443
0.037975
0.037975
0.052263
0.078500
0.106815
0.137208
0.161886
0.175655
0.172278
0.161888
0.145003
0.124742
0.102662
0.076426
0.064737
0.052528
0.044995
0.045255
0.046035
0.045256
0.028372
0.002655
-0.038128
-0.095796
-0.156062
-0.213210
-0.265423
-0.302829
-0.330884
-0.367251
-0.397384
-0.416606
-0.430113
-0.441283
-0.451154
-0.463363
-0.478429
-0.478688
-0.473492
-0.462322
-0.432708
-0.390625
-0.340489
-0.286197
-0.234763
-0.193200
-0.144882
-0.086954
-0.031623
0.023708
0.080598
0.138267
0.195156
0.252046
0.306858
0.365046
0.421416
0.468694
0.505062
0.529481
0.559095
0.585332
0.603776
0.613907
0.613128
0.619103
0.630274
0.648458
0.677812
0.703789
0.728468
0.756523
0.777045
0.794710
0.806140
0.803283
0.796270
0.784061
0.769515
0.748214
0.726394
0.711328
0.693404
0.679117
0.659635
0.635997
0.612878
0.587681
0.556249
0.508452
0.461695
0.418833
0.369997
0.322980
0.283496
0.246609
0.227127
0.221672
0.216997
0.232064
0.255443
0.281940
0.315710
0.349221
0.380134
0.412605
0.445596
0.464559
0.474951
0.466898
0.455729
0.455469
0.453132
0.453132
0.443261
0.420662
0.395205
0.379879
0.372866
0.367411
0.354683
0.332344
0.307147
0.271039
0.229996
0.176225
0.114141
0.055953
-0.000676
-0.051330
-0.110557
-0.166926
-0.227192
-0.296030
-0.360452
-0.431888
-0.501245
-0.570863
-0.638402
-0.699187
-0.743867
-0.777636
-0.818939
-0.858163
-0.911675
-0.964148
-1.000255
-1.036882
-1.058442
-1.062338
-1.052467
-1.032204
-1.001032
-0.970119
-0.938427
-0.898162
-0.870107
-0.846728
-0.825166
-0.810879
-0.797370
-0.776848
-0.744637
-0.705671
-0.661770
-0.610076
-0.555784
-0.516818
-0.480190
-0.443822
-0.414208
-0.368489
-0.322509
-0.281985
-0.231330
-0.188208
-0.161192
-0.124304
-0.088976
-0.075207
-0.068193
-0.065595
-0.062737
-0.050268
-0.025849
0.002985
0.038054
0.078579
0.110271
0.143002
0.159368
0.163265
0.171578
0.169500
0.165864
0.168462
0.177294
0.185348
0.197297
0.215741
0.228730
0.246395
0.274710
0.304324
0.335496
0.371345
0.403556
0.429793
0.454732
0.480969
0.504348
0.520974
0.538379
0.554744
0.562278
0.555525
0.544615
0.522275
0.487467
0.454477
0.407459
0.361221
0.316022
0.261990
0.206400
0.137043
0.061970
-0.006608
-0.065835
-0.121684
-0.165585
-0.195198
-0.214680
-0.216758
-0.207925
-0.198054
-0.189221
-0.168699
-0.142202
-0.118563
-0.089728
-0.054919
-0.022967
0.003790
0.026390
0.032105
0.026650
0.009246
-0.019847
-0.049980
-0.077515
-0.089983
-0.099854
-0.099074
-0.080111
-0.055692
-0.007894
0.061464
0.125627
0.186153
0.255772
0.313960
0.374227
0.441507
0.489824
0.528270
0.564898
0.601526
0.626724
0.644129
0.650104
0.636077
0.613477
0.591657
0.572435
0.531911
0.493726
0.459437
0.409562
0.358648
0.310072
0.256041
0.183046
0.114987
0.046669
-0.021130
-0.063991
-0.090228
-0.094124
-0.089188
-0.081134
-0.063470
-0.043467
-0.021386
0.011085
0.046933
0.079665
0.111616
0.124865
0.137075
0.145128
0.126944
0.107203
0.084084
0.049275
0.009012
-0.032291
-0.068398
-0.100349
-0.124507
-0.131781
-0.131520
-0.129182
-0.113855
-0.099048
-0.086579
-0.074369
-0.078525
-0.090214
-0.102163
-0.105280
-0.090213
-0.070210
-0.056702
-0.040336
-0.025529
-0.010462
0.014216
0.034219
0.055780
0.082277
0.115787
0.155792
0.192679
0.227749
0.265935
0.319967
0.373739
0.421537
0.462061
0.481804
0.496871
0.503885
0.512198
0.528824
0.545449
0.561815
0.571687
0.580260
0.589871
0.595067
0.597406
0.610654
0.624422
0.637931
0.654816
0.655856
0.657415
0.653518
0.636374
0.616373
0.588058
0.551691
0.504154
0.449863
0.393234
0.329072
0.256597
0.177888
0.085930
-0.016418
-0.119545
-0.209684
-0.285536
-0.357491
-0.416199
-0.478023
-0.535431
-0.569980
-0.600372
-0.625829
-0.640116
-0.639856
-0.634920
-0.630243
-0.634919
-0.644530
-0.643750
-0.645048
-0.627903
-0.590237
-0.546855
-0.499057
-0.446324
-0.391512
-0.338260
-0.270200
-0.196945
-0.129665
-0.066541
-0.002377
0.056330
0.097894
0.129326
0.137120
0.122833
0.090882
0.051917
0.009575
-0.050950
-0.114853
-0.180574
-0.253568
-0.321107
-0.371502
-0.413064
-0.435144
-0.431767
-0.410985
-0.362148
-0.308116
-0.257980
-0.201090
-0.136408
-0.063932
0.015038
0.103099
0.190901
0.272729
0.340009
0.395340
0.442359
0.482623
0.520550
0.557957
0.597961
0.636667
0.684984
0.726288
0.764734
0.807596
0.823962
0.828898
0.823183
0.804481
0.790454
0.771751
0.750190
0.729929
0.700316
0.664988
0.640310
0.615893
0.593033
0.575110
0.539522
0.495622
0.458995
0.422888
0.392755
0.377949
0.367558
0.364701
0.369897
0.364442
0.353792
0.347039
0.349117
0.360288
0.372757
0.380031
0.383408
0.386526
0.389644
0.394580
0.393801
0.392243
0.379514
0.341329
0.296909
0.243657
0.184430
0.121047
0.049612
-0.022863
-0.095598
-0.155604
-0.210154
-0.260809
-0.296916
-0.335621
-0.365754
-0.383937
-0.413550
-0.439007
-0.463685
-0.495636
-0.524989
-0.574085
-0.623180
-0.670198
-0.718774
-0.744750
-0.768389
-0.784234
-0.783974
-0.776440
-0.771764
-0.758516
-0.723446
-0.691495
-0.654867
-0.614083
-0.576156
-0.539788
-0.514850
-0.502641
-0.511213
-0.534851
-0.568880
-0.607066
-0.649148
-0.699282
-0.743183
-0.769938
-0.781628
-0.779809
-0.758248
-0.731491
-0.702916
-0.658495
-0.611737
-0.566017
-0.508348
-0.448861
-0.400284
-0.350668
-0.302610
-0.257151
-0.204937
-0.142592
-0.063362
0.022102
0.112242
0.197186
0.263687
0.324993
0.369933
0.400326
0.427083
0.444228
0.457477
0.472024
0.483714
0.483195
0.476961
0.472545
0.460856
0.436179
0.394876
0.331233
0.244731
0.136148
0.017695
-0.096343
-0.214017
-0.325977
-0.424429
-0.515087
-0.595875
-0.660556
-0.712769
-0.751734
-0.762124
-0.762384
-0.753291
-0.732769
-0.703415
-0.657176
-0.609638
-0.559762
-0.509886
-0.451958
-0.389873
-0.330645
-0.262066
-0.202838
-0.161275
-0.134259
-0.109061
-0.091656
-0.096331
-0.106722
-0.123866
-0.144907
-0.169844
-0.203094
-0.241279
-0.288816
-0.338691
-0.382332
-0.431428
-0.488836
-0.532477
-0.579234
-0.636902
-0.683660
-0.728600
-0.767564
-0.789125
-0.789644
-0.776136
-0.750938
-0.710154
-0.666512
-0.629105
-0.598452
-0.570657
-0.547537
-0.523118
-0.498959
-0.472463
-0.431419
-0.375049
-0.307768
-0.242306
-0.177884
-0.126709
-0.098134
-0.081508
-0.080469
-0.089820
-0.108523
-0.131122
-0.148007
-0.162294
-0.175541
-0.194504
-0.209310
-0.216324
-0.222558
-0.225155
-0.223856
-0.223595
-0.229310
-0.246974
-0.265157
-0.283600
-0.311395
-0.330357
-0.343345
-0.342306
-0.320745
-0.298404
-0.278921
-0.272167
-0.270608
-0.277102
-0.290869
-0.302298
-0.309571
-0.306713
-0.302816
-0.297361
-0.298140
-0.307751
-0.332948
-0.378926
-0.435036
-0.507251
-0.594273
-0.688568
-0.771434
-0.843389
-0.909110
-0.964959
-1.018991
-1.063151
-1.094063
-1.117441
-1.134586
-1.139261
-1.133546
-1.121336
-1.102892
-1.084968
-1.062887
-1.034312
-0.993009
-0.936639
-0.871436
-0.804156
-0.734278
-0.656607
-0.581014
-0.499706
-0.406709
-0.324882
-0.249549
-0.162006
-0.071607
0.019572
0.115427
0.199333
0.271029
0.317268
0.342206
0.358312
0.346623
0.325582
0.300905
0.269473
0.241679
0.213364
0.176997
0.119329
0.046595
-0.037310
-0.127709
-0.221744
-0.309286
-0.380722
-0.451897
-0.512423
-0.554505
-0.585417
-0.600223
-0.589053
-0.558140
-0.517356
-0.461765
-0.399680
-0.341752
-0.293175
-0.248234
-0.205632
-0.170043
-0.130298
-0.091073
-0.056783
-0.021974
0.019849
0.068686
0.118042
0.164801
0.204806
0.242213
0.273385
0.293388
0.304299
0.311053
0.313911
0.316249
0.323263
0.320666
0.312094
0.301704
0.288196
0.276247
0.272351
0.280145
0.290276
0.306642
0.327943
0.360155
0.402238
0.438606
0.470817
0.502510
0.530045
0.549269
0.564595
0.572389
0.566674
0.543815
0.515501
0.495759
0.474199
0.463289
0.457315
0.452639
0.460952
0.463291
0.457836
0.437834
0.405104
0.368737
0.321200
0.272104
0.226905
0.186122
0.153911
0.131052
0.110531
0.082476
0.054162
0.024289
-0.013637
-0.044549
-0.077799
-0.117802
-0.148974
-0.182484
-0.206642
-0.215473
-0.212096
-0.202224
-0.196769
-0.183001
-0.174948
-0.171051
-0.163777
-0.157542
-0.141696
-0.115459
-0.093378
-0.087403
-0.081168
-0.074673
-0.060126
-0.028174
0.015208
0.067162
0.122233
0.182500
0.224842
0.256015
0.278615
0.287448
0.297579
0.300437
0.311867
0.333428
0.350833
0.359925
0.356809
0.349016
0.336028
0.315507
0.293687
0.272906
0.247189
0.223031
0.187703
0.146660
0.108215
0.061457
0.030285
-0.002964
-0.038552
-0.054398
-0.061411
-0.057774
-0.051799
-0.041667
-0.035173
-0.029977
-0.004519
0.021718
0.046916
0.080946
0.113937
0.143810
0.178100
0.203818
0.212131
0.218106
0.223042
0.233173
0.244084
0.256553
0.268503
0.275777
0.283830
0.286168
0.278895
0.260452
0.236294
0.197589
0.155507
0.117582
0.064589
0.003025
-0.064514
-0.136470
-0.213620
-0.289472
-0.360908
-0.420914
-0.450787
-0.460138
-0.452344
-0.432602
-0.409222
-0.390518
-0.378828
-0.369217
-0.364540
-0.349993
-0.329471
-0.309988
-0.294661
-0.288686
-0.281412
-0.271800
-0.262708
-0.255694
-0.242185
-0.220364
-0.196465
-0.170748
-0.137497
-0.102428
-0.067619
-0.027874
0.003039
0.036809
0.069540
0.097076
0.121755
0.133704
0.139160
0.135264
0.132926
0.123575
0.099677
0.073441
0.043828
0.020709
-0.007346
-0.039556
-0.071767
-0.106576
-0.128136
-0.138526
-0.147878
-0.159307
-0.164502
-0.158007
-0.145278
-0.128133
-0.103195
-0.071243
-0.029420
0.023573
0.068513
0.101245
0.114493
0.105402
0.071113
0.015003
-0.046042
-0.120854
-0.200603
-0.271259
-0.333603
-0.392310
-0.446082
-0.491541
-0.535441
-0.560378
-0.574146
-0.579081
-0.570248
-0.558298
-0.538556
-0.516994
-0.479847
-0.426594
-0.368925
-0.313075
-0.268394
-0.226831
-0.188385
-0.154095
-0.130196
-0.110973
-0.095386
-0.080319
-0.055901
-0.034080
-0.012259
0.017095
0.048268
0.079440
0.123342
0.175555
0.239199
0.321806
0.407270
0.496630
0.579497
0.649894
0.705745
0.740294
0.769908
0.797704
0.829656
0.862127
0.879532
0.879532
0.863687
0.834074
0.803162
0.783420
0.771731
0.774329
0.777966
0.782383
0.797190
0.807581
0.814595
0.810439
0.793035
0.769397
0.741602
0.706014
0.655620
0.589379
0.506254
0.418713
0.332990
0.251163
0.182845
0.124397
0.073483
0.036857
0.014517
0.005166
0.007244
0.011401
0.021013
0.032963
0.045172
0.059720
0.062577
0.057642
0.043875
0.016860
-0.019767
-0.066525
-0.119517
-0.181601
-0.243686
-0.307328
-0.372789
-0.428639
-0.481112
-0.536442
-0.588135
-0.629698
-0.668922
-0.700094
-0.721135
-0.738019
-0.747111
-0.741915
-0.718795
-0.691259
-0.660087
-0.623199
-0.582155
-0.541371
-0.503705
-0.472792
-0.456686
-0.436164
-0.411485
-0.390444
-0.380053
-0.379273
-0.380831
-0.386026
-0.385246
-0.384726
-0.384726
-0.377971
-0.358229
-0.328615
-0.295883
-0.250943
-0.193014
-0.124955
-0.055596
0.018698
0.085199
0.134295
0.181833
0.219240
0.251712
0.283404
0.318733
0.354061
0.379000
0.411991
0.446280
0.475635
0.508106
0.547591
0.597727
0.662409
0.728651
0.782683
0.832299
0.854639
0.849185
0.825546
0.776191
0.701638
0.602407
0.494863
0.384203
0.274581
0.159245
0.032218
-0.098444
-0.231445
-0.360290
-0.488355
-0.612523
-0.730198
-0.826831
-0.893851
-0.931776
-0.943725
-0.938789
-0.925021
-0.908396
-0.869950
-0.820593
-0.765522
-0.694345
-0.626026
-0.553290
-0.476658
-0.402364
-0.333525
-0.269882
-0.215850
-0.174546
-0.135061
-0.100252
-0.066741
-0.051934
-0.052973
-0.048556
-0.043100
-0.026994
0.000801
0.028077
0.053535
0.083149
0.102372
0.117179
0.134324
0.135883
0.128870
0.116402
0.088607
0.045746
0.002884
-0.046471
-0.111672
-0.182589
-0.262597
-0.345202
-0.421574
-0.483398
-0.529896
-0.563925
-0.587824
-0.613540
-0.637179
-0.662895
-0.677702
-0.676402
-0.665751
-0.630422
-0.575351
-0.506253
-0.420529
-0.330389
-0.238950
-0.136082
-0.032953
0.068097
0.167848
0.257209
0.354882
0.455932
0.563217
0.679074
0.781942
0.878836
0.961962
1.028463
1.099380
1.167440
1.219913
1.273686
1.323042
1.366424
1.420716
1.471371
1.517610
1.549042
1.563850
1.561772
1.523327
1.469295
1.392145
1.297849
1.201736
1.084581
0.959113
0.827152
0.691553
0.554136
0.412823
0.272029
0.126300
-0.020728
-0.170874
-0.316084
-0.439992
-0.539223
-0.623128
-0.687550
-0.744179
-0.790937
-0.819511
-0.851722
-0.878737
-0.906791
-0.937963
-0.970174
-1.009918
-1.045246
-1.074080
-1.087068
-1.090444
-1.082911
-1.062389
-1.032775
-0.982899
-0.937179
-0.889901
-0.828595
-0.774563
-0.716894
-0.655069
-0.592724
-0.512196
-0.426992
-0.342307
-0.249829
-0.159170
-0.068770
0.020071
0.111510
0.193597
0.253604
0.309195
0.349459
0.381151
0.414142
0.441158
0.459862
0.467915
0.477267
0.488957
0.498050
0.496492
0.481945
0.460385
0.422719
0.375441
0.325566
0.258807
0.179578
0.104245
0.031771
-0.030833
-0.083565
-0.125128
-0.158638
-0.196044
-0.222020
-0.245399
-0.259686
-0.264880
-0.274751
-0.267218
-0.253190
-0.231109
-0.198638
-0.176297
-0.161230
-0.154216
-0.153956
-0.147721
-0.140707
-0.147200
-0.157331
-0.182008
-0.226428
-0.278641
-0.334751
-0.388782
-0.430085
-0.446969
-0.458658
-0.455281
-0.435278
-0.413198
-0.376570
-0.342540
-0.309029
-0.270843
-0.234735
-0.205640
-0.182521
-0.152387
-0.119396
-0.078872
-0.027957
0.020360
0.059326
0.082446
0.081667
0.049196
-0.010810
-0.086662
-0.173943
-0.264342
-0.359676
-0.455530
-0.535279
-0.615806
-0.692437
-0.752443
-0.822840
-0.885703
-0.934020
-0.978959
-1.009092
-1.028574
-1.038964
-1.042081
-1.031690
-1.014025
-0.989347
-0.947004
-0.899466
-0.843096
-0.783609
-0.720485
-0.651127
-0.593198
-0.538127
-0.483055
-0.425906
-0.359405
-0.289787
-0.217831
-0.140939
-0.075217
-0.026380
0.009987
0.033107
0.049213
0.060384
0.080386
0.101428
0.121690
0.135458
0.129224
0.118834
0.108184
0.112601
0.123771
0.133902
0.148710
0.159620
0.170531
0.174168
0.176506
0.171312
0.162740
0.161441
0.152350
0.138323
0.111307
0.062471
-0.000652
-0.067672
-0.139887
-0.208205
-0.272367
-0.337828
-0.390561
-0.441475
-0.489272
-0.532912
-0.571358
-0.605387
-0.634480
-0.646170
-0.654222
-0.653442
-0.633180
-0.599410
-0.568757
-0.534986
-0.484071
-0.435494
-0.372370
-0.296518
-0.220405
-0.141955
-0.065583
0.015725
0.085343
0.143792
0.193667
0.228217
0.250038
0.261468
0.261469
0.242506
0.210035
0.167174
0.123534
0.084049
0.045084
-0.002972
-0.061419
-0.120906
-0.202213
-0.294950
-0.388725
-0.492372
-0.584849
-0.667975
-0.749282
-0.831887
-0.913714
-0.988786
-1.054247
-1.112435
-1.161011
-1.202054
-1.238681
-1.251669
-1.245434
-1.212703
-1.163866
-1.109834
-1.043333
-0.981508
-0.906694
-0.819931
-0.735246
-0.646665
-0.554187
-0.451838
-0.344294
-0.237529
-0.137518
-0.040624
0.051854
0.130304
0.185116
0.218626
0.232914
0.233953
0.233954
0.225642
0.221486
0.212914
0.209018
0.223825
0.227202
0.235775
0.239672
0.220190
0.193434
0.152911
0.100178
0.038614
-0.019833
-0.078021
-0.138547
-0.191539
-0.240894
-0.295185
-0.349217
-0.400910
-0.468449
-0.530793
-0.588461
-0.648207
-0.692108
-0.725877
-0.749256
-0.762244
-0.760685
-0.750813
-0.733928
-0.710808
-0.696261
-0.677037
-0.650800
-0.633395
-0.609496
-0.573648
-0.539098
-0.488703
-0.434671
-0.380898
-0.311020
-0.254131
-0.210749
-0.175160
-0.155158
-0.142948
-0.128921
-0.109697
-0.096189
-0.085018
-0.077225
-0.083459
-0.094369
-0.094888
-0.088653
-0.076963
-0.060857
-0.046829
-0.022411
0.008243
0.036558
0.060717
0.080979
0.098124
0.097605
0.090592
0.079682
0.063836
0.057083
0.061239
0.060201
0.052408
0.061241
0.070853
0.075789
0.080725
0.076829
0.079686
0.087999
0.084623
0.081766
0.090339
0.092157
0.105146
0.133202
0.149048
0.170609
0.190612
0.200483
0.219966
0.245943
0.276856
0.320758
0.377907
0.437394
0.496102
0.559746
0.630143
0.696644
0.767821
0.838738
0.890952
0.934593
0.967844
1.002913
1.041359
1.062920
1.076169
1.085002
1.072014
1.048375
1.039284
1.017204
0.983954
0.950964
0.901608
0.844979
0.787311
0.724188
0.647557
0.563133
0.480008
0.401039
0.327785
0.254530
0.175302
0.091137
0.019702
-0.043162
-0.102908
-0.162395
-0.221361
-0.266301
-0.309682
-0.338256
-0.355919
-0.383974
-0.418782
-0.452292
-0.480347
-0.516194
-0.538534
-0.538274
-0.527363
-0.506841
-0.469434
-0.409946
-0.351758
-0.295907
-0.246811
-0.204468
-0.159788
-0.122381
-0.088870
-0.055100
-0.007043
0.057900
0.138169
0.230127
0.324683
0.429370
0.543668
0.645497
0.732260
0.827596
0.913319
0.984496
1.052036
1.109705
1.163997
1.201664
1.221667
1.229460
1.221408
1.200367
1.166338
1.120879
1.069445
1.010738
0.940601
0.874101
0.809939
0.748634
0.692524
0.627063
0.555108
0.482374
0.412496
0.335346
0.255857
0.182863
0.110908
0.049343
-0.005987
-0.047030
-0.070928
-0.083656
-0.088592
-0.091708
-0.088071
-0.082356
-0.057158
-0.022089
0.007265
0.040516
0.069610
0.106758
0.147022
0.182091
0.211445
0.234305
0.263400
0.283402
0.296911
0.314835
0.331201
0.355100
0.381857
0.407055
0.445501
0.486544
0.523951
0.557981
0.585258
0.609936
0.624483
0.640330
0.647863
0.640071
0.627602
0.609938
0.590197
0.554089
0.514865
0.472783
0.414595
0.358745
0.305493
0.251982
0.204964
0.162622
0.113267
0.067288
0.030402
-0.009082
-0.039994
-0.057139
-0.065970
-0.060515
-0.050643
-0.041551
-0.025185
-0.015833
-0.002844
0.026250
0.048331
0.068074
0.102104
0.133796
0.159773
0.202895
0.245238
0.280826
0.320311
0.356420
0.398243
0.434611
0.462926
0.483448
0.490982
0.496957
0.481890
0.457473
0.429418
0.393311
0.368114
0.350710
0.335903
0.313564
0.278755
0.238232
0.198748
0.153289
0.106791
0.077697
0.043928
0.013016
-0.007765
-0.032962
-0.048548
-0.056340
-0.071407
-0.092707
-0.105435
-0.116865
-0.131671
-0.138944
-0.145957
-0.163621
-0.177129
-0.188298
