EVENT_NAME: 202302060117
EVENT_ID: 13194
EVENT_DATE_YYYYMMDD: 2023/02/06
EVENT_TIME_HHMMSS: 01:17:32.00000
EVENT_LATITUDE_DEGREE: 37.288
EVENT_LONGITUDE_DEGREE: 37.043
EVENT_DEPTH_KM: 8.6
HYPOCENTER_REFERENCE: AFAD
MAGNITUDE_W: 7.7
MAGNITUDE_W_REFERENCE: AFAD
MAGNITUDE_L: 
MAGNITUDE_L_REFERENCE: 
FOCAL_MECHANISM: 
NETWORK: TK
STATION_CODE: 2101
STATION_NAME: 
STATION_LATITUDE_DEGREE: 37.93088
STATION_LONGITUDE_DEGREE: 40.20278
STATION_ELEVATION_M: 692.0
LOCATION: Kahramanmaras_Pazarck_Turkiye
SENSOR_DEPTH_M: 
VS30_M/S: 519
SITE_CLASSIFICATION_EC8: B
MORPHOLOGIC_CLASSIFICATION: 
EPICENTRAL_DISTANCE_KM: 287.35
EARTHQUAKE_BACKAZIMUTH_DEGREE: 
DATE_TIME_FIRST_SAMPLE_YYYYMMDD_HHMMSS: 2023/02/06 01:17:59.0282390
DATE_TIME_FIRST_SAMPLE_PRECISION: millisecond
SAMPLING_INTERVAL_S: 0.01
NDATA: 18251
DURATION_S: 
STREAM: HNE
UNITS: cm/s^2
INSTRUMENT: sensor = CMG-5T/GURALP | digitizer = 
INSTRUMENT_ANALOG/DIGITAL: 
INSTRUMENTAL_FREQUENCY_HZ: 
INSTRUMENTAL_DAMPING: 
FULL_SCALE_G: 
N_BIT_DIGITAL_CONVERTER: 
PGA_CM/S^2: 71.424
TIME_PGA_S: 
BASELINE_CORRECTION: BASELINE REMOVED
FILTER_TYPE: BUTTERWORTH
FILTER_ORDER: 
LOW_CUT_FREQUENCY_HZ: 
HIGH_CUT_FREQUENCY_HZ: 
LATE/NORMAL_TRIGGERED: 
DATABASE_VERSION: 
HEADER_FORMAT: DYNA 1.2
DATA_TYPE: Acceleration
PROCESSING: Automatic Paolucci et al., 2011
DATA_TIMESTAMP_YYYYMMDD_HHMMSS: 
DATA_LICENSE: U (unknown license)
DATA_CITATION: Turkish Accelerometric Archive v 1.0 - Disaster And Emergency Management Presidency, Earthquake Department
DATA_CREATOR: AFAD
ORIGINAL_DATA_MEDIATOR_CITATION: : AFAD - Disaster And Emergency Management Presidency
ORIGINAL_DATA_MEDIATOR: AFAD PROCESS SERVICE
ORIGINAL_DATA_CREATOR_CITATION: AFAD PROCESS SERVICE
ORIGINAL_DATA_CREATOR: network: TK
USER1: GuestUser
USER2: 
USER3: 
USER4: 
USER5: 
[...]
-4.293880
-3.775804
-2.805976
-2.188415
-2.581978
-3.337194
-3.591852
-3.398513
-2.956146
-2.358607
-2.179659
-3.192661
-5.480832
-8.379057
-10.768591
-11.548835
-10.027768
-6.416251
-2.426187
-0.159291
0.069088
-0.356386
-0.524073
-0.616051
-0.408321
0.677887
1.928653
1.617056
-0.771227
-3.831507
-6.104036
-7.484322
-8.244543
-7.842221
-6.176619
-4.547306
-4.083041
-4.300158
-4.009835
-2.716522
-1.032774
0.068450
0.013388
-1.387546
-3.762689
-6.314278
-8.346539
-9.238782
-8.651254
-6.540782
-2.813511
1.902986
6.059484
8.242537
8.094872
6.232175
3.649926
0.995097
-1.369409
-3.100085
-4.078674
-4.467232
-4.347099
-3.553717
-2.305453
-0.922666
0.707272
2.648181
4.452062
5.208528
4.159861
1.819131
-0.348280
-1.666623
-2.252275
-1.875606
-0.719320
0.060922
-0.263815
-1.104125
-1.756101
-2.747204
-4.945901
-8.420392
-12.575640
-16.535671
-19.493337
-20.768506
-20.124666
-18.017322
-14.881959
-10.691047
-5.797479
-1.473294
1.082049
1.847274
1.351723
0.099704
-0.939578
-1.222393
-1.501454
-2.663372
-4.588639
-6.280522
-6.714756
-5.927005
-4.612418
-3.096983
-1.594061
-0.550401
-0.141196
-0.074873
0.298041
1.830996
4.848728
8.248760
10.610136
11.589976
11.209552
9.334966
6.385434
3.608594
2.017449
1.304780
0.225454
-1.632238
-3.540612
-5.050417
-6.715395
-8.722003
-10.081015
-9.675565
-7.324825
-3.835944
-0.360203
2.529261
5.135285
7.674985
9.779826
10.887307
11.256467
11.248958
10.443061
8.683603
6.234628
3.348292
0.637776
-1.418888
-3.031933
-4.536107
-5.574137
-5.392060
-4.175082
-2.777903
-1.234311
0.660296
2.182614
2.570545
1.742748
0.440048
-0.355837
-0.532910
-0.656173
-0.783815
-0.419035
0.873653
2.996013
5.183446
6.723909
7.546073
8.462718
10.041974
11.796425
13.298095
14.643341
15.568745
15.675113
15.249639
14.565127
13.270561
10.789676
7.008594
2.601816
-1.042864
-2.629630
-1.993924
-0.085551
2.242663
4.818654
7.292030
8.684203
8.392002
7.048007
5.580123
4.066564
2.082481
0.232923
0.000163
1.270326
2.275193
2.272690
1.915417
1.777137
2.058074
3.207477
5.561346
8.158609
9.080885
7.499750
4.864318
3.350133
3.657349
4.896852
5.858547
5.750301
4.259266
1.507455
-1.584736
-3.516260
-3.669557
-3.117067
-3.264732
-4.135702
-4.721980
-4.561802
-3.998050
-3.123328
-1.874439
-0.966554
-1.295671
-2.710371
-4.078768
-4.590588
-4.266478
-2.711624
0.603939
4.371880
6.133840
5.217194
2.938409
0.198485
-3.118956
-6.660397
-9.422220
-10.815645
-10.873836
-10.003493
-8.534359
-6.278725
-3.239720
-0.391552
1.416709
2.253890
1.762718
-1.040401
-5.942730
-11.322466
-15.559680
-17.765885
-17.814064
-16.369958
-14.525407
-13.106954
-12.218467
-10.928282
-8.129544
-4.248977
-0.985973
0.720300
1.230242
0.993728
0.134021
-0.902758
-1.688007
-2.654082
-4.708243
-8.154578
-12.060799
-14.825750
-15.755535
-15.077907
-12.889848
-9.350286
-5.616132
-3.320454
-2.648457
-2.524570
-2.406314
-2.821777
-4.308431
-7.013316
-10.630465
-14.244487
-16.476971
-16.293642
-13.900355
-10.236905
-6.610371
-4.218961
-3.088329
-2.235506
-1.025410
0.247881
0.749688
-0.173840
-2.519575
-5.098069
-6.306914
-5.648683
-3.663349
-0.942823
2.136227
5.210897
7.925166
9.897359
10.809623
10.336597
8.625943
6.237661
3.629133
1.146370
-0.784528
-1.753732
-1.699923
-0.962853
0.030126
1.009340
1.652555
1.640040
1.031237
0.628914
0.903594
1.070029
0.232221
-1.052959
-1.525360
-1.027932
-0.436650
-0.395355
-0.705701
-1.524112
-3.211614
-4.608794
-3.704038
-0.382844
3.069746
4.173474
2.435915
-0.768901
-3.791639
-5.565488
-5.919633
-5.369021
-5.063682
-6.399543
-9.569320
-12.837957
-13.815295
-11.511482
-7.100951
-2.605325
0.311043
0.805968
-0.926585
-3.653994
-5.404693
-5.093096
-3.790398
-3.177216
-3.730958
-5.219489
-7.391907
-9.360347
-9.689464
-8.125224
-5.802015
-3.510091
-1.150591
1.365332
4.184718
7.539700
10.928469
13.195366
13.655252
12.707947
10.947238
8.503894
5.429849
1.998531
-1.317659
-3.719081
-4.533112
-4.098880
-3.185990
-2.179245
-1.134333
0.225304
1.787041
2.896399
3.535860
4.058941
4.006382
2.761247
0.924202
-0.049381
0.708336
3.119143
6.734414
10.683181
13.486299
14.421089
14.436731
14.976706
16.591627
18.423664
18.590099
15.610534
9.566935
1.927811
-4.984880
-9.523055
-11.660433
-12.243582
-12.001438
-11.400771
-10.857041
-10.683724
-10.953400
-11.340706
-11.644795
-11.920102
-12.516391
-13.842867
-15.407733
-16.223642
-15.935196
-14.832720
-13.576949
-12.665310
-12.114073
-11.793717
-11.651059
-11.597249
-11.652937
-11.947015
-12.099685
-11.253119
-9.529952
-8.466269
-8.901129
-10.293303
-11.891957
-13.058255
-12.926234
-11.253749
-8.879233
-6.538504
-4.371093
-2.288152
-0.429209
1.164438
2.545975
3.395669
3.444473
3.194194
3.339981
3.650951
3.565230
3.323085
3.741050
4.893581
5.616885
5.105065
4.172778
4.215325
5.847765
8.781653
12.245506
15.495997
17.817955
18.313505
16.893800
14.606881
12.585256
11.209976
10.482290
10.797015
12.132876
13.410546
13.715260
13.496266
13.772197
14.973533
16.806822
18.453654
18.593809
16.010935
10.777612
4.834750
0.644463
-0.734572
0.157045
2.109216
4.204672
6.032955
7.706066
9.822169
13.271631
18.158317
23.296533
27.148943
28.459776
27.158328
24.277622
20.910751
17.894895
15.967125
15.442791
15.750633
15.992151
15.823213
15.629872
15.755637
15.751256
14.978521
13.882927
12.991309
11.676721
9.336617
6.347666
3.316168
0.582502
-1.180711
-1.426610
-0.448022
1.310184
3.926844
7.351904
11.178661
15.005418
18.305338
20.223096
19.959678
17.200983
12.239212
5.974117
-0.443023
-5.985439
-9.919191
-11.736213
-11.454650
-9.535015
-7.036611
-5.077557
-3.903126
-3.216738
-3.004002
-3.284940
-3.955061
-5.152019
-7.237464
-10.768268
-14.999851
-18.028221
-18.798453
-17.680960
-15.341483
-12.153562
-8.935608
-6.757560
-6.083060
-6.496646
-6.876444
-5.744561
-2.656751
0.828376
2.679184
2.721105
2.583452
3.805436
6.676129
10.400271
13.880392
16.284942
17.135888
16.177321
13.434269
9.987308
7.723539
6.947676
5.878986
3.434391
0.387876
-2.261321
-4.129651
-4.896754
-3.965719
-1.486086
0.732006
0.521146
-2.343292
-6.218854
-9.463088
-11.587327
-13.628348
-16.979577
-21.418266
-25.443369
-28.007472
-28.788967
-27.815385
-25.560377
-22.859247
-20.078029
-16.940789
-13.079619
-8.659077
-4.283584
-0.696469
1.459679
2.325642
3.117147
4.885989
6.807501
7.045891
5.239506
3.240406
2.904407
4.299083
5.913378
6.470247
5.912126
4.238388
1.422129
-1.705100
-4.311125
-7.099227
-11.118700
-15.638103
-19.015611
-20.439696
-20.059273
-18.516933
-16.176204
-13.793554
-13.188507
-15.286466
-18.954297
-22.628385
-25.677403
-27.792882
-28.647583
-28.422959
-27.357399
-25.505339
-22.782936
-18.790370
-13.486345
-7.654858
-2.144353
2.092861
3.556989
1.657375
-2.131215
-5.339160
-6.736340
-6.360297
-4.533891
-1.441075
2.392564
5.907098
8.744004
11.518340
14.208207
15.378258
13.796498
9.243307
2.688514
-4.506992
-10.934142
-15.016810
-16.281342
-15.689434
-14.677059
-14.449306
-15.540520
-17.075353
-17.271823
-15.238937
-11.457230
-7.768126
-5.797810
-5.516247
-5.469946
-4.034600
-1.565604
1.428977
4.802104
7.613356
8.953597
9.038691
9.435381
11.974456
16.458193
20.383184
22.229613
22.212718
20.890622
18.163212
13.660703
7.978756
3.024494
0.395318
0.704412
4.257739
10.139282
16.117807
20.612182
23.811991
26.360451
28.250678
28.677402
26.585074
21.558857
14.137475
5.345819
-3.501525
-10.809655
-15.275875
-17.019690
-17.374460
-16.788184
-14.751544
-11.128138
-6.097542
0.243887
7.172219
13.426677
17.835957
19.385180
17.660761
13.112575
7.129043
0.843925
-5.573840
-12.106733
-18.475069
-24.299048
-29.291478
-32.933030
-35.071034
-36.124081
-35.855658
-33.086953
-27.348069
-19.994264
-12.572257
-5.466228
1.679221
8.689520
14.354571
17.976726
19.470262
19.074821
17.913529
16.361802
14.039217
11.787337
10.330090
8.673246
6.311868
4.288367
3.503118
3.900434
4.726352
5.029189
4.451671
3.070133
1.813109
1.811857
3.039472
5.763753
10.205569
16.072095
22.885299
28.923265
31.996058
31.426049
27.221370
20.436321
13.893417
9.089322
5.671769
3.065744
0.613015
-2.232025
-5.073312
-7.126847
-8.354463
-8.019716
-5.578877
-2.458531
0.163135
1.623509
1.486481
0.236966
-1.117041
-1.685174
-0.576441
2.268599
4.790779
5.317615
4.073730
2.283613
1.761782
3.551272
7.367392
12.170861
17.237121
21.563183
23.834460
24.928802
26.462382
28.808116
30.549428
30.277875
27.858308
23.825696
19.604124
16.357387
14.949570
15.121636
15.412584
14.860094
13.847717
13.255182
13.278332
13.800788
14.383936
14.687398
14.380806
12.859739
9.813850
5.415831
1.159220
-1.965507
-4.812424
-8.004101
-10.937364
-12.738744
-13.595322
-13.789289
-13.191124
-12.264469
-11.897811
-12.659910
-14.520105
-16.964074
-19.078302
-19.875439
-18.950661
-16.916523
-14.874878
-13.330035
-12.119313
-11.121328
-10.122092
-8.731171
-7.178819
-6.403582
-7.524204
-10.927366
-15.328513
-18.444480
-18.597150
-15.805295
-11.880304
-8.955801
-7.993481
-8.377033
-9.104093
-9.673477
-9.642192
-8.995849
-8.113618
-7.983474
-9.302442
-11.110078
-11.574345
-10.141502
-7.362786
-3.007316
2.650853
7.589472
9.952725
10.336902
10.552141
11.226015
11.843577
11.959956
11.362415
9.775650
6.960642
3.250264
-0.376897
-3.223189
-5.017060
-5.511986
-4.604727
-2.662567
-0.352498
1.639092
2.737814
2.991846
3.213968
3.958545
4.742542
4.491637
2.683375
-0.443229
-4.194277
-7.538624
-9.645969
-10.426838
-9.821165
-7.860234
-5.406254
-3.417167
-2.439830
-2.305306
-2.540568
-3.435940
-5.610234
-8.475297
-10.766597
-12.342726
-14.080284
-16.334042
-18.542750
-19.847953
-19.416223
-16.505485
-11.155159
-4.438312
1.858693
6.483212
9.650485
11.885471
13.189421
13.088684
11.521315
8.738218
4.696846
-0.709169
-6.889169
-12.307072
-15.876669
-17.592328
-17.928328
-17.384598
-16.105676
-14.831759
-13.773082
-12.322719
-10.275442
-7.191387
-2.709526
3.645669
10.963809
16.795296
19.667867
19.946301
18.851332
17.708810
17.358420
17.419738
16.795918
14.594093
10.624677
5.499599
0.872576
-1.665873
-2.078208
-1.441250
-0.984492
-1.936176
-4.591005
-7.994793
-11.075721
-13.644204
-16.258988
-19.371201
-22.992105
-26.272004
-28.288623
-28.599595
-27.153612
-24.936771
-23.310587
-22.366413
-20.952340
-18.452059
-15.048899
-10.889897
-6.363612
-2.042556
1.659062
4.064863
4.504727
2.907324
-0.212397
-3.969703
-7.504886
-10.383089
-12.069966
-12.288960
-11.494952
-9.773037
-6.846032
-3.135029
0.057272
1.363099
-0.346303
-5.194822
-11.695805
-17.438445
-20.710836
-21.204510
-19.560182
-16.850918
-14.025275
-11.316637
-8.527911
-4.886360
0.224951
5.449513
9.856915
12.738245
13.181863
11.275367
7.976696
4.895768
2.863507
1.031468
-1.415630
-3.782639
-5.774230
-8.216322
-11.586948
-14.981975
-17.444715
-18.788711
-18.965784
-17.681230
-15.184078
-12.136313
-8.699990
-4.969591
-1.825468
0.158613
0.955750
0.768040
0.054120
-1.147217
-2.795301
-4.467161
-5.366287
-4.875742
-3.412239
-2.700198
-3.920931
-7.116362
-11.287252
-15.297339
-17.957174
-18.876948
-18.567854
-17.747567
-16.289070
-14.191112
-11.062632
-6.174695
0.695448
8.977161
15.705896
19.964383
21.514857
22.955835
26.032382
29.003186
30.165103
29.509999
30.554911
31.111154
30.430396
30.242687
28.070270
25.630054
24.054551
21.889016
19.124690
16.543068
15.145888
14.425085
13.179950
11.925429
12.975346
15.973055
17.794456
16.639421
13.832547
11.262813
9.256205
7.589350
6.051389
4.079820
1.085238
-1.908719
-3.022458
-2.075155
0.356925
4.779345
10.880507
16.265872
19.395604
21.442255
23.296818
24.032636
23.714781
24.187807
25.984806
27.566565
27.243705
24.356117
20.157070
16.444815
14.239236
13.797494
14.104710
14.142877
13.973312
13.926385
13.922004
14.970670
17.825721
20.734582
21.155675
18.726096
15.443694
12.815144
10.704045
8.988386
8.115539
7.593082
6.050741
2.554976
-1.747936
-4.698720
-5.768660
-6.628367
-8.876494
-12.916614
-18.210629
-23.412041
-27.203760
-28.566527
-27.532252
-24.643414
-20.590781
-16.208406
-11.578881
-6.431905
-1.060931
3.837643
7.606836
9.726068
9.534605
7.477941
5.265479
3.825126
2.763945
1.535703
0.491416
-0.343889
-1.457003
-2.356129
-1.337496
3.044879
9.634084
15.488096
18.861848
20.308457
21.177548
21.596764
21.611155
22.091063
22.277520
21.072429
19.268546
17.913288
17.123033
15.867886
14.726616
14.900559
15.595707
15.509986
14.607106
13.723623
12.730017
10.985575
8.734946
7.606190
8.603549
11.342220
15.338540
20.740800
27.621579
35.025440
41.792343
47.466155
51.702742
54.186755
54.156721
50.437583
43.188268
33.909820
24.254077
15.976743
10.453723
7.883989
7.821419
9.690998
12.457826
14.047093
13.267475
10.590747
6.250918
0.032124
-6.750422
-11.071480
-10.891905
-6.846155
-1.277460
2.564939
2.362838
-1.386333
-6.756058
-12.603188
-18.338319
-23.100492
-27.389014
-32.801286
-39.446804
-45.526694
-49.588088
-51.420752
-52.289844
-54.196341
-57.731524
-61.296741
-63.123149
-62.688290
-59.972144
-54.646845
-46.139256
-34.571388
-21.508731
-9.613623
-0.138082
7.342740
11.818343
11.038725
5.577024
-1.531510
-9.180020
-19.218688
-32.500965
-47.218589
-59.935237
-68.139990
-71.424270
-70.182889
-64.977098
-57.718399
-51.430779
-46.960807
-43.053961
-39.374243
-37.227480
-36.215104
-34.597681
-32.445912
-31.099415
-29.799845
-27.397798
-23.994637
-20.064641
-16.375537
-13.360934
-10.755536
-8.642561
-7.674610
-8.333468
-10.488366
-13.350926
-16.120258
-19.409543
-24.421369
-31.445434
-40.491748
-49.722643
-56.495178
-59.485380
-58.617540
-53.259705
-43.854868
-32.027961
-19.884452
-7.978707
2.481679
10.937961
17.642920
22.873739
26.323201
26.319446
25.058668
26.215579
27.199799
23.238516
20.213275
19.271602
16.800102
16.532303
20.417250
21.634854
16.603005
9.159098
2.355904
-2.092170
-4.774529
-5.671778
-3.025710
3.931404
11.248919
15.230849
16.560452
18.654031
22.655357
26.794962
29.499220
31.196733
32.571386
33.855314
35.907597
38.355945
39.908296
39.619850
37.233445
32.882353
27.122195
20.633100
14.561970
9.060850
3.529070
-2.326820
-7.882376
-12.148373
-14.662420
-14.975894
-12.901712
-9.641211
-7.129041
-6.257447
-7.478181
-11.729161
-18.105004
-23.391511
-25.744129
-25.121562
-21.592637
-15.467073
-7.596442
0.655237
7.305761
11.843934
15.332189
17.376337
16.061124
11.119375
4.983173
-0.302082
-4.429800
-7.207891
-7.408114
-3.999948
1.769595
7.513485
12.442092
16.739372
20.324610
23.065159
24.672571
25.220055
25.021083
23.989309
22.217338
20.659354
20.696269
22.704753
26.218662
31.253012
37.116409
42.978556
47.871498
49.918150
49.410710
48.281328
47.292102
45.202902
40.612795
34.375856
27.715320
21.412683
16.808811
15.276480
17.162954
21.158648
25.480331
29.350260
32.632661
34.986530
36.226033
37.214632
37.695792
35.670413
31.156641
26.103519
21.493390
17.013405
12.990179
9.438101
6.354670
3.759283
1.671960
0.396791
-1.084858
-3.466258
-7.105307
-11.920039
-17.232199
-22.420472
-27.820855
-33.390802
-37.960262
-40.857861
-41.536116
-39.691564
-35.451848
-28.932095
-20.811812
-12.255419
-4.647581
0.992443
4.528251
5.986123
5.351041
2.487855
-1.084870
-3.673376
-5.185058
-5.828274
-5.057417
-2.414477
1.693843
7.118627
13.692815
20.631159
27.053929
31.664057
32.581952
29.594879
24.571164
19.265261
14.593188
10.401649
5.424236
-1.412746
-9.663175
-17.606387
-24.032912
-28.039245
-29.351956
-28.313926
-25.875589
-23.675643
-22.270955
-21.884276
-22.951088
-25.425717
-28.875805
-32.311503
-34.774244
-36.030016
-36.770841
-38.086680
-40.194651
-41.921573
-41.263967
-37.406551
-31.133948
-24.252543
-18.869680
-16.946291
-18.701369
-21.769783
-24.202490
-25.684139
-26.304830
-26.288563
-26.030151
-25.581527
-25.168568
-24.679275
-23.942205
-23.344666
-23.178857
-22.806568
-21.164742
-18.548708
-15.661746
-13.060103
-11.429539
-10.338326
-8.276658
-3.993769
2.708062
10.694446
18.428675
24.971578
30.654150
35.808008
39.929467
43.344516
47.069910
50.624489
52.001645
50.488086
47.305795
43.920153
40.080881
34.262533
26.699744
19.496104
13.510069
8.482600
5.051908
4.011375
5.019997
6.423432
6.693733
5.284664
2.013525
-2.952000
-9.658837
-17.644597
-24.281356
-26.079607
-22.454950
-16.977607
-13.063253
-11.163640
-10.476000
-10.259510
-9.795870
-8.936164
-8.379295
-9.058176
-11.397654
-14.548660
-16.589681
-15.991516
-13.301649
-10.939647
-10.609906
-13.015708
-18.525588
-25.981383
-33.078655
-37.875241
-39.910631
-39.476399
-36.999894
-32.943507
-27.804666
-22.588864
-17.856725
-13.050754
-7.987621
-3.187282
1.534220
6.807587
12.319969
17.007057
20.876361
24.727520
28.950968
32.758328
35.028353
35.697848
35.357468
34.218075
31.730933
28.006789
24.699359
23.538066
23.537440
22.545086
20.486545
18.878505
19.075599
21.338116
25.559061
31.122750
36.572562
40.312347
41.708275
41.471761
40.493172
39.438873
38.656127
37.642499
36.433653
35.523265
34.591603
33.293909
30.563371
25.681063
19.725687
13.884188
8.083359
2.176788
-2.756201
-5.512393
-6.119944
-5.484863
-4.425560
-3.239867
-1.603672
0.004992
0.736430
0.660721
0.543089
0.810886
2.346344
5.752633
10.147522
14.652533
18.374173
20.818767
22.775318
25.308761
27.336641
27.029424
23.494241
17.040811
9.015632
0.429204
-8.464441
-17.714106
-26.868666
-34.888839
-41.012528
-45.195306
-47.175635
-46.817112
-44.937521
-43.003495
-41.912908
-41.572529
-41.569401
-42.146920
-43.845685
-46.272135
-48.269983
-49.431901
-50.005665
-50.065107
-50.457419
-51.939068
-53.546482
-53.537097
-51.979740
-50.265959
-48.630390
-46.731402
-45.458737
-45.874826
-47.014844
-47.032365
-45.871699
-44.871211
-44.672241
-44.896866
-45.696506
-47.646176
-49.728493
-50.648267
-50.459933
-48.717370
-43.942058
-35.974444
-26.940019
-19.543666
-14.790879
-12.231783
-11.267586
-11.795674
-13.374305
-14.664491
-15.180065
-14.610057
-12.068480
-7.213079
-0.428031
7.841168
16.358768
23.890897
30.416281
35.823546
39.441320
40.968644
40.802208
39.436939
37.805749
36.817774
36.170804
34.360664
30.524521
25.033412
18.685724
12.433768
7.651573
5.765724
6.856937
9.401643
11.787422
13.327259
13.206499
11.636627
10.319536
10.357078
11.410123
12.751615
14.243274
15.278801
14.827048
12.972484
11.094769
11.053473
13.817798
18.154497
21.729098
23.509203
24.196842
24.426472
24.512192
25.151027
26.163403
26.263513
24.761217
21.749741
17.468102
13.246530
11.228659
12.567023
16.564595
21.525738
26.309184
30.421258
33.985849
37.023602
38.639149
38.534657
38.045363
38.086658
38.199908
38.309405
38.514007
37.537295
33.935787
27.727630
20.347544
13.803388
9.407873
7.710359
8.435540
10.932067
14.296434
17.118949
18.461066
18.879031
18.930963
18.041222
16.069653
13.769594
11.460775
8.635131
5.567342
3.783482
4.053157
5.543564
7.496361
9.759503
11.473910
11.742959
