EVENT_NAME: 202302060117
EVENT_ID: 13194
EVENT_DATE_YYYYMMDD: 2023/02/06
EVENT_TIME_HHMMSS: 01:17:32.00000
EVENT_LATITUDE_DEGREE: 37.288
EVENT_LONGITUDE_DEGREE: 37.043
EVENT_DEPTH_KM: 8.6
HYPOCENTER_REFERENCE: AFAD
MAGNITUDE_W: 7.7
MAGNITUDE_W_REFERENCE: AFAD
MAGNITUDE_L: 
MAGNITUDE_L_REFERENCE: 
FOCAL_MECHANISM: 
NETWORK: TK
STATION_CODE: 4001
STATION_NAME: 
STATION_LATITUDE_DEGREE: 39.15954
STATION_LONGITUDE_DEGREE: 34.16151
STATION_ELEVATION_M: 754.0
LOCATION: Kahramanmaras_Pazarck_Turkiye
SENSOR_DEPTH_M: 
VS30_M/S: 460
SITE_CLASSIFICATION_EC8: B
MORPHOLOGIC_CLASSIFICATION: 
EPICENTRAL_DISTANCE_KM: 326.57
EARTHQUAKE_BACKAZIMUTH_DEGREE: 
DATE_TIME_FIRST_SAMPLE_YYYYMMDD_HHMMSS: 2023/02/06 01:18:05.7799210
DATE_TIME_FIRST_SAMPLE_PRECISION: millisecond
SAMPLING_INTERVAL_S: 0.01
NDATA: 18251
DURATION_S: 
STREAM: HNZ
UNITS: cm/s^2
INSTRUMENT: sensor = CMG-5T/GURALP | digitizer = 
INSTRUMENT_ANALOG/DIGITAL: 
INSTRUMENTAL_FREQUENCY_HZ: 
INSTRUMENTAL_DAMPING: 
FULL_SCALE_G: 
N_BIT_DIGITAL_CONVERTER: 
PGA_CM/S^2: 1.662
TIME_PGA_S: 
BASELINE_CORRECTION: BASELINE REMOVED
FILTER_TYPE: BUTTERWORTH
FILTER_ORDER: 
LOW_CUT_FREQUENCY_HZ: 
HIGH_CUT_FREQUENCY_HZ: 
LATE/NORMAL_TRIGGERED: 
DATABASE_VERSION: 
HEADER_FORMAT: DYNA 1.2
DATA_TYPE: Acceleration
PROCESSING: Automatic Paolucci et al., 2011
DATA_TIMESTAMP_YYYYMMDD_HHMMSS: 
DATA_LICENSE: U (unknown license)
DATA_CITATION: Turkish Accelerometric Archive v 1.0 - Disaster And Emergency Management Presidency, Earthquake Department
DATA_CREATOR: AFAD
ORIGINAL_DATA_MEDIATOR_CITATION: : AFAD - Disaster And Emergency Management Presidency
ORIGINAL_DATA_MEDIATOR: AFAD PROCESS SERVICE
ORIGINAL_DATA_CREATOR_CITATION: AFAD PROCESS SERVICE
ORIGINAL_DATA_CREATOR: network: TK
USER1: GuestUser
USER2: 
USER3: 
USER4: 
USER5: 
[...]
0.108859
0.120706
0.062715
0.072692
-0.052331
-0.020530
-0.209467
-0.201673
-0.283047
-0.384686
-0.410253
-0.520934
-0.450473
-0.621015
-0.727954
-0.810264
-0.917515
-0.910345
-0.857343
-0.864826
-0.978001
-1.073717
-1.027575
-0.963973
-0.944020
-0.926249
-0.898813
-0.926250
-0.846747
-0.701772
-0.567085
-0.378461
-0.359443
-0.292412
-0.242840
-0.273083
-0.197633
-0.103789
-0.071053
-0.079783
-0.140268
-0.145881
-0.210419
-0.406838
-0.317359
-0.106911
-0.171760
-0.301460
-0.266853
-0.144949
-0.174257
-0.284314
-0.194835
-0.230378
-0.272156
-0.171765
-0.236615
-0.310506
-0.444570
-0.620412
-0.704280
-0.799996
-0.789708
-0.870770
-1.071555
-1.157293
-1.195642
-1.269534
-1.338437
-1.329084
-1.224639
-1.140149
-1.133290
-1.060647
-1.009828
-0.937496
-0.912243
-0.860176
-0.789404
-0.665629
-0.571785
-0.623852
-0.608887
-0.674049
-0.727051
-0.700862
-0.693692
-0.732353
-0.740459
-0.672804
-0.657216
-0.745449
-0.721443
-0.688083
-0.733291
-0.684967
-0.569298
-0.406863
-0.387222
-0.358539
-0.226034
-0.134684
-0.039905
0.025567
0.094470
0.156824
0.276234
0.399385
0.425886
0.406555
0.392837
0.371947
0.305850
0.231959
0.206704
0.189556
0.103506
-0.029935
-0.165870
-0.249426
-0.287152
-0.283723
-0.286529
-0.292142
-0.343897
-0.414047
-0.496980
-0.531587
-0.502905
-0.500411
-0.463622
-0.448657
-0.472976
-0.428704
-0.361984
-0.299942
-0.208592
-0.146549
-0.091676
-0.185210
-0.161827
0.045504
0.133112
-0.100097
-0.293398
-0.167753
-0.175548
-0.255051
-0.194567
0.031470
-0.080770
-0.395041
-0.373217
-0.192387
-0.183034
-0.230736
-0.092932
-0.103221
-0.236973
-0.218267
-0.118811
-0.175243
-0.172126
-0.045545
-0.035569
-0.059576
-0.090131
-0.094184
-0.036194
-0.030271
-0.096991
-0.166206
-0.100110
0.010258
-0.124118
-0.302766
-0.270965
-0.144385
-0.174939
-0.256625
-0.241037
-0.227007
-0.239479
-0.215784
-0.105728
-0.046491
-0.020614
-0.037762
0.006198
0.088818
0.126543
0.115942
0.095364
0.149613
0.181414
0.202926
0.197937
0.271515
0.190453
0.176111
0.238778
0.139632
0.096919
0.031757
0.042980
0.110635
0.143683
0.176419
0.214455
0.217573
0.239397
0.235655
0.324822
0.398713
0.369717
0.338227
0.278366
0.248435
0.214451
0.242198
0.282417
0.288340
0.200731
0.101585
0.014599
-0.068022
-0.121336
-0.151579
-0.162491
-0.253842
-0.280655
-0.232330
-0.230460
-0.203024
-0.176212
-0.154700
-0.142229
-0.094840
0.003369
0.036729
0.038287
0.009915
0.010226
-0.012222
-0.015028
-0.004117
-0.012535
0.012718
-0.006612
-0.009107
-0.018773
-0.007861
0.039529
0.102819
0.161744
0.200404
0.260576
0.309524
0.315136
0.307029
0.314200
0.321058
0.320434
0.332905
0.354729
0.341010
0.351610
0.363457
0.394322
0.438282
0.448571
0.504378
0.529008
0.570162
0.617240
0.630022
0.598532
0.557689
0.553635
0.496892
0.402423
0.295795
0.220033
0.137100
0.056038
-0.040925
-0.129158
-0.231109
-0.353638
-0.458395
-0.551928
-0.622702
-0.727147
-0.822551
-0.889895
-0.952874
-1.005565
-1.020219
-1.019284
-1.042044
-1.086317
-1.056075
-1.001515
-0.976573
-0.930431
-0.872753
-0.811957
-0.786080
-0.763944
-0.710943
-0.676336
-0.657006
-0.607123
-0.572204
-0.541962
-0.488961
-0.440013
-0.373916
-0.298155
-0.208676
-0.107661
0.009255
0.107775
0.182601
0.240903
0.279874
0.324146
0.367794
0.451973
0.507469
0.557665
0.590089
0.617836
0.649637
0.665225
0.682684
0.671148
0.693596
0.695778
0.688918
0.692971
0.704818
0.729448
0.733500
0.735370
0.766236
0.783071
0.791801
0.822978
0.833889
0.851348
0.856960
0.834200
0.829523
0.818298
0.784002
0.753448
0.713540
0.661161
0.614083
0.592570
0.590699
0.550791
0.509012
0.480952
0.426079
0.378688
0.333792
0.302926
0.284219
0.269253
0.272370
0.266135
0.251481
0.243686
0.255533
0.269250
0.247737
0.234331
0.248984
0.254907
0.275484
0.283589
0.274547
0.272053
0.256463
0.261763
0.281716
0.285769
0.271739
0.252408
0.247731
0.238689
0.219670
0.214370
0.207822
0.200339
0.208133
0.209379
0.206261
0.198154
0.192854
0.178512
0.164793
0.167287
0.164480
0.164792
0.141720
0.132054
0.130183
0.128935
0.143589
0.145147
0.140470
0.139846
0.136104
0.138286
0.158863
0.171957
0.210305
0.232441
0.237117
0.239299
0.260187
0.270787
0.243974
0.228385
0.211860
0.191282
0.135474
0.077795
0.049423
0.014504
-0.024469
-0.050347
-0.067807
-0.101167
-0.166952
-0.189089
-0.239285
-0.287611
-0.341861
-0.388004
-0.373975
-0.425418
-0.443813
-0.440072
-0.428849
-0.425420
-0.429162
-0.416691
-0.397985
-0.391126
-0.397674
-0.372421
-0.368368
-0.352156
-0.307573
-0.275148
-0.235553
-0.192529
-0.138904
-0.080602
-0.060337
-0.016689
0.017294
0.026959
0.048159
0.050653
0.071230
0.095548
0.091806
0.073099
0.045974
0.027579
0.040673
0.054702
0.095233
0.149170
0.180347
0.210589
0.234907
0.265460
0.294767
0.318149
0.328438
0.325631
0.299753
0.266705
0.224303
0.182212
0.145422
0.099591
0.070283
0.052200
0.048458
0.046275
0.067164
0.107071
0.153837
0.201226
0.247057
0.313153
0.397020
0.453451
0.479640
0.529835
0.550100
0.534823
0.523287
0.500526
0.465295
0.417593
0.374879
0.348066
0.342765
0.327488
0.340582
0.389842
0.467474
0.539182
0.602472
0.699122
0.768648
0.833497
0.894293
0.961324
1.001543
1.017443
1.033967
1.043631
1.019624
0.965686
0.937938
0.887430
0.830062
0.797325
0.753364
0.702856
0.661078
0.654530
0.684148
0.701607
0.664817
0.659205
0.711583
0.725924
0.730288
0.729353
0.765206
0.755853
0.695991
0.676661
0.668242
0.657018
0.652652
0.652652
0.630515
0.622097
0.625526
0.629890
0.609313
0.595282
0.617730
0.611182
0.563792
0.557867
0.573144
0.566908
0.550383
0.522947
0.503304
0.495509
0.481479
0.484285
0.477737
0.458094
0.476489
0.481477
0.481788
0.488023
0.500182
0.551625
0.580307
0.601820
0.639856
0.658250
0.646402
0.622707
0.628318
0.639853
0.643283
0.579992
0.549749
0.548813
0.518570
0.486145
0.450290
0.456525
0.446860
0.431582
0.449977
0.453094
0.433763
0.415992
0.419421
0.428462
0.403208
0.399466
0.383565
0.385435
0.398217
0.389487
0.388551
0.398216
0.402892
0.394785
0.392291
0.399149
0.402890
0.367659
0.362982
0.360799
0.350822
0.341780
0.326814
0.312160
0.314030
0.304053
0.293140
0.302493
0.302181
0.317769
0.324628
0.336163
0.325874
0.327744
0.323379
0.299684
0.273494
0.231092
0.189002
0.135376
0.101392
0.061796
0.031865
0.005675
-0.008044
-0.029557
-0.047952
-0.032363
-0.028623
-0.019893
0.009413
0.061479
0.104816
0.152205
0.219237
0.278474
0.321186
0.371694
0.423760
0.444025
0.446207
0.448389
0.449324
0.454000
0.440281
0.420015
0.405985
0.386654
0.384471
0.406295
0.443708
0.471456
0.480808
0.485173
0.512920
0.540980
0.558751
0.582445
0.584004
0.561243
0.542225
0.506682
0.436532
0.363576
0.283449
0.194592
0.110412
0.038079
-0.007129
-0.064184
-0.117186
-0.144311
-0.162707
-0.190143
-0.221321
-0.235664
-0.270895
-0.298643
-0.313609
-0.348840
-0.383760
-0.411196
-0.464511
-0.510342
-0.542767
-0.558668
-0.574881
-0.597018
-0.620090
-0.657815
-0.667480
-0.678393
-0.690241
-0.687124
-0.665612
-0.656259
-0.645035
-0.618847
-0.572704
-0.519079
-0.466701
-0.401229
-0.356022
-0.313309
-0.274026
-0.227571
-0.180494
-0.137469
-0.094756
-0.087897
-0.067009
-0.058591
-0.070751
-0.060151
-0.034586
0.003450
0.035251
0.065804
0.105400
0.146865
0.178354
0.236032
0.256609
0.273133
0.282486
0.282797
0.296826
0.294643
0.286225
0.270012
0.262841
0.232598
0.238833
0.236962
0.237273
0.242261
0.223243
0.234778
0.252237
0.260031
0.264707
0.279984
0.296819
0.294636
0.284347
0.282476
0.279669
0.249115
0.219808
0.200789
0.175846
0.172104
0.167739
0.159632
0.151838
0.134689
0.101641
0.099770
0.101328
0.100080
0.095715
0.073890
0.071084
0.073578
0.064224
0.095713
0.119407
0.107559
0.165549
0.198909
0.242557
0.286829
0.326736
0.381296
0.393767
0.403743
0.422761
0.442714
0.436790
0.452378
0.438660
0.404364
0.382851
0.368197
0.375679
0.366325
0.357907
0.335458
0.307086
0.288379
0.273102
0.256577
0.234129
0.232258
0.211992
0.193285
0.183619
0.165848
0.150570
0.129369
0.102244
0.083537
0.092890
0.094136
0.109725
0.150879
0.176444
0.180185
0.166778
0.166466
0.171765
0.160229
0.152434
0.127492
0.099432
0.062641
0.012445
-0.015615
-0.044299
-0.087636
-0.114761
-0.128168
-0.171506
-0.203619
-0.210790
-0.229497
-0.264729
-0.299960
-0.302766
-0.301831
-0.307132
-0.321474
-0.308380
-0.312433
-0.327399
-0.319917
-0.320853
-0.318047
-0.321789
-0.291859
-0.247587
-0.211110
-0.174009
-0.101989
-0.064265
-0.017499
0.039868
0.083827
0.137141
0.165512
0.192948
0.211030
0.209783
0.194505
0.189516
0.148050
0.123731
0.090370
0.037368
-0.016258
-0.084226
-0.141281
-0.184619
-0.217356
-0.257887
-0.301536
-0.366074
-0.406606
-0.415336
-0.400059
-0.372935
-0.361088
-0.324611
-0.280339
-0.219231
-0.195849
-0.168725
-0.102005
-0.086417
-0.041210
-0.005044
0.060429
0.078199
0.080693
0.092540
0.071651
0.080692
0.022389
0.000253
-0.037473
-0.067404
-0.084552
-0.097335
-0.092659
-0.102636
-0.124461
-0.135686
-0.110744
-0.110433
-0.084244
-0.083309
-0.072397
-0.048703
-0.056809
-0.041845
-0.026568
-0.009733
-0.016592
-0.038105
-0.035300
-0.077078
-0.087367
-0.110127
-0.122911
-0.101087
-0.107323
-0.108258
-0.122289
-0.111377
-0.116990
-0.109196
-0.112626
-0.105767
-0.102338
-0.111068
-0.106392
-0.095792
-0.110758
-0.125100
-0.125100
-0.162514
-0.171868
-0.192134
-0.187146
-0.159086
-0.165946
-0.121050
-0.088938
-0.062438
-0.029078
-0.036249
0.008023
0.028287
0.042629
0.037016
0.044498
0.066011
0.059463
0.078792
0.090639
0.083780
0.057279
0.027971
-0.025967
-0.081463
-0.160967
-0.232052
-0.292225
-0.377341
-0.459026
-0.539153
-0.620839
-0.671347
-0.713126
-0.736509
-0.746175
-0.769247
-0.760206
-0.741811
-0.740877
-0.716247
-0.676963
-0.657010
-0.628951
-0.608062
-0.569714
-0.549761
-0.531679
-0.498319
-0.515467
-0.521080
-0.536045
-0.537605
-0.541658
-0.570030
-0.573772
-0.589049
-0.613368
-0.636440
-0.660448
-0.703473
-0.715633
-0.762712
-0.772377
-0.763960
-0.797008
-0.813533
-0.828810
-0.813534
-0.820393
-0.814782
-0.774563
-0.735280
-0.714703
-0.692256
-0.665755
-0.616183
-0.587500
-0.544164
-0.501139
-0.504881
-0.534500
-0.532942
-0.545413
-0.579086
-0.570980
-0.568486
-0.565992
-0.622424
-0.691015
-0.725623
-0.730612
-0.739342
-0.740902
-0.799204
-0.894920
-0.916745
-0.874032
-0.838802
-0.839737
-0.868733
-0.843791
-0.823215
-0.838492
-0.831633
-0.784867
-0.704118
-0.736231
-0.773021
-0.804199
-0.809188
-0.782688
-0.780194
-0.759617
-0.763671
-0.822597
-0.826339
-0.790173
-0.813869
-0.794227
-0.720025
-0.650188
-0.620258
-0.599057
-0.574739
-0.558215
-0.554475
-0.535457
-0.453460
-0.438495
-0.475909
-0.532964
-0.584720
-0.537954
-0.512077
-0.541072
-0.615276
-0.641777
-0.634295
-0.649261
-0.619331
-0.595948
-0.632426
-0.679193
-0.715671
-0.697900
-0.638352
-0.599380
-0.533284
-0.536090
-0.524243
-0.508032
-0.525180
-0.520815
-0.528922
-0.551370
-0.599072
-0.615909
-0.659870
-0.712560
-0.749974
-0.771175
-0.802353
-0.855667
-0.852862
-0.861592
-0.894641
-0.899941
-0.904930
-0.889342
-0.908984
-0.901814
-0.858166
-0.847254
-0.811400
-0.768999
-0.701656
-0.634625
-0.597212
-0.553876
-0.496509
-0.455979
-0.408277
-0.370865
-0.339688
-0.353718
-0.409526
-0.453799
-0.489030
-0.522391
-0.562299
-0.561364
-0.583812
-0.631202
-0.655521
-0.634945
-0.576955
-0.502753
-0.446322
-0.382096
-0.335330
-0.291994
-0.220909
-0.158243
-0.101500
-0.032286
0.007309
-0.015763
-0.003292
-0.004540
-0.013582
0.001695
0.046590
-0.004542
-0.048503
-0.052244
-0.086852
-0.114601
-0.137672
-0.158874
-0.264566
-0.350617
-0.357476
-0.273297
-0.263321
-0.270492
-0.236509
-0.230586
-0.252099
-0.240875
-0.160126
-0.084677
-0.015774
0.064352
0.098646
0.103011
0.153518
0.205272
0.249232
0.281345
0.280721
0.208388
0.185628
0.175963
0.191863
0.203086
0.211816
0.224598
0.154760
0.087104
0.065279
0.046572
0.026306
0.082114
0.079307
0.024122
-0.035427
-0.049770
-0.049458
-0.109320
-0.134574
-0.116803
-0.102774
-0.146423
-0.250557
-0.318213
-0.312289
-0.291401
-0.321955
-0.412371
-0.521805
-0.588213
-0.625003
-0.645893
-0.610663
-0.594139
-0.620017
-0.691414
-0.749717
-0.785571
-0.769671
-0.704510
-0.695781
-0.733195
-0.758449
-0.790563
-0.804905
-0.768739
-0.721038
-0.671778
-0.664296
-0.681132
-0.749723
-0.802414
-0.795243
-0.745048
-0.697658
-0.653698
-0.618468
-0.635928
-0.654947
-0.680825
-0.624082
-0.601011
-0.647466
-0.692362
-0.732582
-0.751601
-0.845757
-0.929002
-0.946462
-1.014742
-1.116693
-1.150053
-1.154730
-1.177802
-1.218334
-1.212099
-1.254812
-1.307191
-1.281314
-1.231119
-1.156293
-1.152552
-1.196201
-1.212102
-1.239227
-1.204621
-1.048109
-1.037509
-1.095189
-1.117637
-1.145697
-1.145386
-1.129174
-1.093008
-1.095503
-1.168459
-1.177813
-1.112340
-1.089893
-1.071810
-1.082411
-1.117331
-1.166903
-1.226765
-1.280703
-1.266673
-1.281015
-1.307205
-1.372678
-1.363326
-1.335890
-1.345244
-1.243605
-1.239552
-1.298790
-1.349610
-1.366135
-1.348676
-1.298169
-1.276657
-1.237373
-1.302847
-1.412281
-1.334960
-1.384222
-1.431300
-1.361151
-1.377676
-1.449385
-1.496775
-1.488046
-1.565990
-1.655159
-1.648924
-1.577216
-1.567551
-1.593117
-1.604342
-1.662332
-1.602784
-1.535440
-1.498028
-1.454068
-1.427567
-1.326552
-1.212443
-1.138552
-1.099892
-1.025378
-1.037538
-1.180644
-1.295378
-1.243000
-1.071212
-1.082124
-1.098337
-1.072772
-1.210266
-1.262645
-1.174724
-1.117358
-1.105199
-1.088987
-1.074022
-1.080570
-1.112372
-1.150097
-1.042223
-1.013228
-0.943703
-0.805898
-0.794986
-0.770045
-0.829283
-0.779087
-0.672772
-0.610106
-0.494125
-0.497555
-0.541204
-0.514392
-0.435201
-0.342293
-0.331069
-0.244708
-0.230055
-0.286175
-0.306129
-0.376591
-0.481660
-0.593588
-0.550875
-0.493197
-0.540587
-0.571454
-0.547136
-0.527806
-0.577379
-0.649399
-0.626017
-0.607934
-0.621029
-0.541839
-0.434900
-0.441448
-0.517833
-0.516898
-0.472003
-0.514717
-0.541842
-0.465769
-0.462963
-0.459534
-0.381903
-0.356649
-0.364444
-0.371304
-0.304272
-0.285566
-0.253765
-0.127496
-0.074183
-0.101620
-0.164911
-0.241608
-0.308641
-0.276528
-0.184555
-0.127500
-0.106923
-0.024303
0.063305
0.140314
0.198927
0.269700
0.312413
0.311789
0.415298
0.543749
0.568691
0.503529
0.539383
0.617950
0.570871
0.546241
0.575235
0.545928
0.518803
0.510696
0.497289
0.491677
0.507265
0.519424
0.524100
0.534389
0.541247
0.549353
0.617631
0.669697
0.676868
0.705551
0.698380
0.702744
0.707108
0.719579
0.747638
0.748885
0.725501
0.663146
0.619496
0.597048
0.549346
0.488861
0.470154
0.471401
0.437416
0.379737
0.319564
0.283709
0.228525
0.188617
0.196099
0.191110
0.171780
0.166167
0.172090
0.173961
0.140600
0.098198
0.070761
0.061096
0.057666
0.053924
0.067642
0.047064
0.010898
0.005285
0.044880
0.026485
0.001542
0.023990
0.044567
0.028354
-0.032755
-0.036185
-0.037432
-0.023091
-0.006879
-0.013115
-0.015610
-0.051153
-0.096361
-0.095738
-0.080773
-0.096674
-0.116628
-0.137518
-0.158407
-0.173996
-0.190209
-0.170879
-0.165580
-0.191458
-0.181793
-0.168387
-0.131910
-0.143134
-0.179612
-0.155606
-0.139706
-0.172131
-0.180238
-0.154984
-0.116948
-0.101983
-0.100737
-0.049294
-0.040877
-0.054284
-0.016871
0.060449
0.105033
0.077596
0.095055
0.158657
0.141197
0.137767
0.131531
0.080087
0.081022
0.199185
0.263722
0.201055
0.233167
0.335429
0.337299
0.277438
0.302380
0.300508
0.270577
0.293960
0.422412
0.484143
0.371591
0.322018
0.411809
0.491000
0.408067
0.310169
0.368159
0.438620
0.406506
0.442984
0.516874
0.547116
0.473848
0.324195
0.337289
0.422092
0.427703
0.359736
0.235025
0.258719
0.365970
0.343522
0.379375
0.450148
0.473219
0.575169
0.662466
0.714221
0.760675
0.840177
0.945869
0.983281
1.019759
1.055301
1.025370
0.952414
0.932148
0.964884
0.944930
0.899098
0.876026
0.855137
0.881014
0.915932
0.967063
1.023182
1.041577
1.051553
1.074624
1.119831
1.196216
1.251400
1.258570
1.271041
1.257322
1.282264
1.325912
1.340253
1.334641
1.316869
1.281950
1.260437
1.246406
1.223958
1.191844
1.155054
1.095193
1.032214
1.013195
1.011324
1.002905
0.990746
0.995734
0.968920
0.982015
1.013815
1.063699
1.082717
1.102982
1.133224
1.138212
1.162841
1.203684
1.216154
1.182794
1.193082
1.188093
1.167204
1.142573
1.142261
1.150366
1.147560
1.135400
1.142882
1.166577
1.181230
1.166264
1.178423
1.199311
1.175616
1.163456
1.148491
1.147555
1.126665
1.120429
1.094551
1.059632
1.050278
1.071167
1.111697
1.131962
1.146615
1.172180
1.185586
1.213022
1.251370
1.282859
1.326819
1.327130
1.335860
1.339600
1.345836
1.337417
1.323699
1.325569
1.295950
1.270072
1.265083
1.285348
1.272564
1.261340
1.265704
1.271940
1.289087
1.310599
1.345517
1.358611
1.384488
1.398206
1.393841
1.396646
1.390722
1.414728
1.434993
1.422210
1.400385
1.396020
1.435303
1.434991
1.399136
1.421272
1.432807
1.428442
1.448083
1.458683
1.459306
1.435923
1.388844
1.356419
1.326488
1.283151
1.251349
1.218612
1.171845
1.140667
1.168103
1.196162
1.200215
1.233263
1.276599
1.335524
1.391644
1.452439
1.502323
1.545971
1.577460
1.579019
1.581824
1.578706
1.583694
1.587435
1.556257
1.512608
1.488289
1.470517
1.460228
1.442456
1.446197
1.443079
1.417513
1.386958
1.404105
1.410029
1.398804
1.420005
1.429981
1.442140
1.444322
1.479240
1.520394
1.541906
1.538788
1.541282
1.541905
1.550322
1.524133
1.492643
1.482666
1.453670
1.420933
1.377596
1.345482
1.298715
1.253196
1.200505
1.143449
1.102295
1.066128
0.992548
0.943911
0.916474
0.884984
0.870954
0.851623
0.826681
0.787085
0.734082
0.686692
0.674220
0.673285
0.690744
0.706020
0.709449
0.683571
0.662994
0.691365
0.744055
0.798927
0.828857
0.821997
0.797990
0.805472
0.814825
0.834155
0.841637
0.811394
0.755274
0.706013
0.653946
0.627133
0.629938
0.591589
0.571635
0.510526
0.424164
0.398910
0.395792
0.369602
0.361183
0.356195
0.307245
0.256737
0.217765
0.202487
0.193445
0.156655
0.126724
0.101782
0.051273
0.053767
0.066549
0.038489
0.034124
0.045347
0.018222
0.015416
0.059999
0.073405
0.075276
0.074340
0.078704
0.112064
0.154465
0.169741
0.197177
0.228978
0.222742
0.223677
0.220559
0.218376
0.233029
0.231781
0.222116
0.225233
0.210891
0.211202
0.247368
0.275739
0.302239
0.337470
0.370206
0.385170
0.411359
0.460619
0.483067
0.487743
0.514243
0.515178
0.486494
0.446275
0.453133
0.444091
0.402001
0.391089
0.387035
0.397947
0.387034
0.394828
0.396386
0.411039
0.426316
0.423821
0.440345
0.448139
0.452815
0.460921
0.481809
0.487109
0.485238
0.493344
0.517662
0.533562
0.527638
0.526078
0.522648
0.519218
0.505500
0.478687
0.443455
0.420695
0.405418
0.367692
0.349921
0.332461
0.322172
0.320612
0.301282
0.279457
0.257632
0.245784
0.231442
0.227389
0.210864
0.170333
0.135101
0.099247
0.066822
0.029720
0.001971
-0.002706
-0.017048
-0.038561
-0.057892
-0.065375
-0.069116
-0.074105
-0.053840
-0.031081
