EVENT_NAME: 202302060117
EVENT_ID: 13194
EVENT_DATE_YYYYMMDD: 2023/02/06
EVENT_TIME_HHMMSS: 01:17:32.00000
EVENT_LATITUDE_DEGREE: 37.288
EVENT_LONGITUDE_DEGREE: 37.043
EVENT_DEPTH_KM: 8.6
HYPOCENTER_REFERENCE: AFAD
MAGNITUDE_W: 7.7
MAGNITUDE_W_REFERENCE: AFAD
MAGNITUDE_L: 
MAGNITUDE_L_REFERENCE: 
FOCAL_MECHANISM: 
NETWORK: TK
STATION_CODE: 0122
STATION_NAME: 
STATION_LATITUDE_DEGREE: 37.4339
STATION_LONGITUDE_DEGREE: 35.82021
STATION_ELEVATION_M: 119.0
LOCATION: Kahramanmaras_Pazarck_Turkiye
SENSOR_DEPTH_M: 
VS30_M/S: 501
SITE_CLASSIFICATION_EC8: B
MORPHOLOGIC_CLASSIFICATION: 
EPICENTRAL_DISTANCE_KM: 109.28
EARTHQUAKE_BACKAZIMUTH_DEGREE: 
DATE_TIME_FIRST_SAMPLE_YYYYMMDD_HHMMSS: 2023/02/06 01:17:30.8869570
DATE_TIME_FIRST_SAMPLE_PRECISION: millisecond
SAMPLING_INTERVAL_S: 0.01
NDATA: 12501
DURATION_S: 
STREAM: HNE
UNITS: cm/s^2
INSTRUMENT: sensor = CMG-5T/GURALP | digitizer = 
INSTRUMENT_ANALOG/DIGITAL: 
INSTRUMENTAL_FREQUENCY_HZ: 
INSTRUMENTAL_DAMPING: 
FULL_SCALE_G: 
N_BIT_DIGITAL_CONVERTER: 
PGA_CM/S^2: 52.331
TIME_PGA_S: 
BASELINE_CORRECTION: BASELINE REMOVED
FILTER_TYPE: BUTTERWORTH
FILTER_ORDER: 
LOW_CUT_FREQUENCY_HZ: 
HIGH_CUT_FREQUENCY_HZ: 
LATE/NORMAL_TRIGGERED: 
DATABASE_VERSION: 
HEADER_FORMAT: DYNA 1.2
DATA_TYPE: Acceleration
PROCESSING: Automatic Paolucci et al., 2011
DATA_TIMESTAMP_YYYYMMDD_HHMMSS: 
DATA_LICENSE: U (unknown license)
DATA_CITATION: Turkish Accelerometric Archive v 1.0 - Disaster And Emergency Management Presidency, Earthquake Department
DATA_CREATOR: AFAD
ORIGINAL_DATA_MEDIATOR_CITATION: : AFAD - Disaster And Emergency Management Presidency
ORIGINAL_DATA_MEDIATOR: AFAD PROCESS SERVICE
ORIGINAL_DATA_CREATOR_CITATION: AFAD PROCESS SERVICE
ORIGINAL_DATA_CREATOR: network: TK
USER1: GuestUser
USER2: 
USER3: 
USER4: 
USER5: 
[...]
-2.664315
-2.935771
-3.955760
-6.007792
-9.687239
-14.304226
-18.535052
-20.423169
-19.756760
-16.738843
-12.048866
-5.533343
2.335535
9.417427
14.377228
15.885044
14.726885
11.572095
6.967491
1.502906
-3.513929
-6.810800
-8.137762
-7.393143
-5.021108
-1.601715
2.393173
6.616824
10.597372
13.609749
14.363819
12.040334
7.875334
3.737708
0.994823
0.048808
0.394557
0.742262
0.703806
0.296134
-0.731676
-2.040063
-4.308150
-7.139021
-9.568089
-9.960771
-7.499121
-2.905277
1.980876
6.212674
8.829765
8.822267
6.427416
2.334108
-1.984378
-5.729000
-8.246380
-9.764630
-9.163396
-6.769528
-3.373923
0.685487
5.154847
9.646041
13.471148
16.452567
18.657754
20.719556
21.659374
20.752137
18.451137
15.746380
13.411163
11.736819
10.363257
9.264080
8.634163
8.342177
7.865094
6.696507
5.198461
3.559311
2.231045
1.524547
1.935146
3.036271
3.505527
2.323253
-0.504686
-4.139814
-8.000773
-10.917349
-12.513483
-12.862823
-12.439516
-11.417252
-10.052168
-8.644721
-7.892933
-8.581508
-10.619527
-12.766714
-14.047403
-13.667436
-11.561641
-8.017438
-3.077841
3.133315
9.312211
13.683808
15.023800
12.378677
6.618198
0.245727
-4.832046
-7.529308
-8.892117
-10.298266
-12.227770
-13.583083
-12.568314
-9.677162
-6.706171
-4.744738
-3.707158
-3.081483
-2.555851
-1.691636
-0.682407
-0.739438
-2.064445
-3.075310
-2.530451
0.165502
3.897409
6.864815
8.583146
8.883273
8.358939
7.065542
5.580205
4.758021
5.800815
9.317646
13.954831
17.657735
19.844347
19.692161
17.192703
12.648712
8.184560
4.363358
1.365639
-1.384741
-3.294692
-4.099278
-3.331522
-1.359009
1.158691
3.549952
6.001826
8.723849
11.152260
12.605003
12.242628
10.275323
6.661703
2.170503
-3.052935
-7.861862
-10.975592
-11.471575
-8.516552
-2.008850
6.560984
14.629949
19.480907
20.456245
17.751161
12.634936
5.838503
-1.975309
-9.497463
-14.415884
-15.272935
-12.470747
-8.464454
-5.474237
-3.824339
-2.153586
0.699113
4.448943
7.460994
7.731466
4.213001
-2.186517
-9.259617
-14.338368
-16.128071
-14.083540
-8.625152
-0.825033
7.204175
13.711877
18.162011
20.060224
18.753140
14.402067
7.760424
-0.188625
-8.176128
-15.084009
-19.581075
-20.450836
-17.079020
-11.162779
-4.376128
1.634942
5.421270
6.364021
4.565193
0.581705
-4.095569
-7.678231
-8.616100
-6.874632
-3.856389
-0.401149
3.567016
8.299357
13.430567
17.950111
20.463249
20.677346
20.959224
23.268364
26.826906
29.318211
27.994833
22.644955
15.092169
7.505817
0.728937
-5.438233
-11.187306
-15.322977
-16.659716
-15.289418
-12.333418
-8.825060
-5.899692
-5.738061
-8.044601
-12.121614
-16.563933
-20.301386
-21.648226
-20.147579
-16.408177
-12.122936
-8.096113
-5.790883
-4.204857
-2.132952
1.140776
4.276333
6.890166
8.997265
11.151615
13.766752
15.635962
15.657793
13.486165
9.997028
6.221448
2.881888
0.804438
1.327137
4.379596
8.669725
11.884796
13.051096
12.405863
11.868493
11.650806
11.034901
9.487648
6.953648
3.904442
1.567270
0.598769
1.191531
2.521420
4.506642
7.563664
11.658594
16.241033
19.961534
21.659009
20.675192
16.456097
10.475653
3.365404
-3.762769
-9.775800
-13.656637
-15.143278
-14.418211
-11.752564
-8.307426
-5.675996
-4.428879
-4.676872
-6.042288
-8.340681
-11.071834
-14.449522
-19.524688
-25.676542
-30.637978
-31.912148
-29.559666
-24.746183
-17.872850
-8.478555
2.260948
12.261368
19.428966
22.147730
20.619052
16.104715
11.072890
7.341955
4.926899
3.149253
2.358028
3.372471
6.331079
9.266875
10.802391
10.096219
8.087202
6.115009
3.582313
0.778164
-2.774519
-5.747145
-7.805369
-8.006762
-6.920301
-5.489065
-4.806687
-4.024919
-2.290946
0.992233
5.589009
11.083243
16.661227
20.161763
20.669798
17.871514
12.364891
5.053903
-2.557215
-8.712653
-12.985191
-14.388734
-12.246441
-6.578516
1.085062
8.218116
13.057669
14.584712
13.352905
9.757208
5.594489
0.669551
-4.082022
-8.536723
-11.715628
-13.273309
-11.875964
-7.423549
-0.826232
6.870911
11.718285
12.291494
9.223061
5.115089
1.123129
-1.451605
-2.947696
-3.596188
-4.526236
-5.515593
-7.001256
-8.984528
-11.426306
-13.579033
-14.446187
-13.473130
-11.515281
-9.820413
-8.695499
-8.320747
-8.290769
-8.418189
-8.915476
-10.100357
-11.615349
-12.381807
-11.952308
-10.708124
-9.025965
-8.019995
-9.302964
-12.575721
-16.146326
-18.605049
-18.677396
-17.450157
-15.119183
-11.334158
-5.628106
1.571427
8.939762
16.097258
22.826554
28.774405
32.811004
33.829032
30.987407
24.491756
15.983181
7.962439
1.807652
-2.754914
-6.214396
-8.760127
-9.594042
-8.705712
-6.685296
-4.466422
-3.747221
-4.348462
-5.579943
-6.848900
-7.099174
-6.552034
-4.999573
-2.496537
0.974996
3.903623
4.943159
3.429796
0.883088
-1.645698
-3.344483
-4.586066
-5.671230
-7.310054
-9.838188
-11.862846
-11.874907
-9.365679
-5.957691
-2.828325
-0.029722
3.214352
6.886624
9.979491
11.380421
10.570295
8.194670
5.470034
2.520545
-0.409066
-3.948713
-9.294029
-15.681490
-20.495956
-20.928720
-15.737223
-6.476863
3.971961
12.965105
19.946954
24.795305
27.364819
26.275419
20.402188
10.892528
0.811284
-7.087255
-10.123752
-8.747915
-3.599434
4.255758
13.625287
22.045218
27.120378
26.843056
21.114513
12.097574
2.551416
-5.084143
-10.663762
-14.565455
-16.876883
-16.351577
-12.460643
-5.121962
4.539223
14.776880
23.035830
28.029195
28.908401
25.691695
19.416335
11.653034
3.729728
-3.898335
-10.378018
-14.286881
-14.205415
-10.337619
-4.519792
1.979763
8.473453
14.313765
17.473437
17.533721
13.677650
7.864054
0.652131
-6.943019
-14.725872
-21.022740
-24.366863
-23.061414
-18.190252
-11.279443
-3.751429
3.345128
8.359675
10.761690
10.486323
7.689995
3.701945
-0.875611
-5.383104
-8.744499
-9.197141
-5.867688
0.352919
7.604266
13.571343
16.076986
14.831166
10.451090
4.265345
-2.385096
-8.346965
-12.275380
-13.806666
-13.727481
-12.277670
-9.640374
-6.285504
-3.073040
-0.508740
0.457474
0.187321
-0.958781
-1.450528
-0.975081
0.145923
0.468209
-0.551780
-3.065249
-6.199835
-8.983128
-10.361905
-10.468794
-9.686700
-9.571343
-10.906126
-12.368326
-13.380820
-12.938286
-10.980438
-8.523676
-6.252337
-3.913216
-0.519892
3.857897
8.999210
13.537003
15.688095
14.461828
11.170823
8.133673
7.075557
7.306273
8.016349
8.276068
8.372198
8.380994
8.209581
7.101932
4.734128
0.349815
-5.376121
-10.568602
-13.224479
-13.165824
-12.141605
-10.989969
-9.983021
-8.215483
-5.583727
-2.535504
-0.296100
1.312411
1.298395
0.385293
0.223005
1.531712
3.831077
6.524423
9.103713
10.801840
10.887542
8.894493
5.695710
2.264253
-0.821126
-2.620605
-2.972226
-2.076076
-0.404019
1.417288
2.937814
3.654408
3.879258
4.365785
5.702843
8.025345
10.559013
12.584317
13.478838
13.567799
12.391065
9.523696
4.071168
-3.955440
-13.215480
-21.144000
-25.191033
-24.999748
-22.589912
-20.501388
-18.438282
-15.667052
-12.187698
-8.188574
-4.136333
-0.612659
1.888421
3.455221
3.364951
2.671488
2.493231
3.531789
5.079362
6.481921
6.501471
6.397840
6.554582
6.912715
6.924443
5.517316
2.674387
-1.048075
-3.763587
-4.890788
-4.589358
-3.744695
-3.155192
-3.965970
-6.736880
-11.084043
-15.163664
-17.185715
-16.432949
-13.477274
-10.133809
-6.542354
-1.925373
3.894409
10.122185
15.776098
19.475091
19.216018
15.248824
10.196470
6.769249
5.952606
6.438807
5.862007
3.977800
0.255337
-3.215225
-4.564998
-2.887727
0.755216
5.372197
10.112684
13.712938
14.819929
13.575413
10.625924
7.598225
4.770286
2.003938
-1.183439
-4.770664
-9.038640
-14.403508
-19.092187
-20.682129
-17.978681
-11.999221
-3.783938
4.868016
12.263725
16.556461
16.723631
12.556351
5.486184
-1.343162
-6.563668
-9.991215
-10.981549
-8.526743
-2.490906
6.845058
16.434225
23.990916
27.819933
27.637767
23.625602
17.045224
9.652116
2.102588
-5.052306
-11.475287
-16.104657
-19.033291
-20.320170
-19.741095
-15.864500
-9.209177
-1.402866
4.660995
8.086255
7.985883
5.479582
1.734308
-1.665865
-3.886374
-5.151746
-6.609058
-7.892679
-8.275258
-7.522166
-4.892039
-0.485899
4.499972
8.947172
11.701783
12.600540
11.644423
9.276293
6.004840
2.841577
-1.007324
-5.485815
-9.716967
-13.436496
-16.107038
-17.186987
-16.567178
-14.068704
-10.441077
-8.031893
-6.745345
-5.987365
-4.355716
-2.717876
-1.747752
-2.138804
-2.615561
-3.070158
-4.051042
-6.986193
-12.230488
-17.684645
-20.900047
-21.328249
-19.745156
-16.814899
-12.605587
-6.855216
0.248510
6.550586
10.413168
11.625091
10.006146
6.735345
3.819420
2.537429
2.500276
2.436076
0.720020
-3.175808
-8.090969
-12.035026
-14.986471
-16.759555
-17.086735
-14.975400
-10.425549
-3.410787
4.266803
9.936358
12.235396
11.772652
10.362266
7.906476
4.403653
-0.026283
-3.751678
-4.838797
-3.054314
0.679223
4.679650
7.393200
8.821829
9.799448
10.704724
10.516040
7.491599
1.537225
-5.731399
-11.074433
-12.704459
-11.043156
-8.629409
-8.079011
-10.392068
-13.237278
-14.507538
-14.214254
-13.446824
-13.178307
-12.881112
-11.695260
-8.439455
-3.307593
3.277016
9.366296
13.150017
13.801762
12.566044
10.390832
9.281879
9.634798
11.902227
14.819123
17.127612
16.571993
12.051791
3.821186
-5.474700
-14.087229
-21.990656
-28.348463
-31.704643
-30.372798
-25.455036
-19.175445
-13.436806
-8.357735
-4.507536
-0.452688
3.900335
8.832110
12.860237
14.779632
14.851647
14.537827
14.320140
14.418225
13.602886
11.463845
8.109946
4.974383
2.219440
-0.291748
-2.992596
-7.087206
-13.114576
-20.633798
-27.334098
-31.248500
-31.825626
-28.878750
-22.002484
-12.503258
-2.695429
4.127720
7.216677
6.494211
2.265015
-4.846864
-12.940928
-19.228671
-22.201297
-22.182074
-19.713580
-15.291146
-9.819398
-4.795074
-0.520587
2.650816
4.644185
5.016656
4.116263
2.507094
1.567922
2.590512
5.778535
10.188260
14.579410
17.495328
19.184656
20.188346
21.351061
21.090685
18.445562
13.840958
9.082216
5.737442
4.016172
3.325968
3.188120
5.182792
10.016153
17.096090
24.195254
29.400438
31.527089
30.361109
25.476905
18.580429
10.612805
2.347983
-5.455074
-11.987223
-15.440840
-14.681882
-10.123884
-3.381553
3.247049
7.974827
9.686315
8.946903
6.087029
2.461026
-1.224939
-4.945772
-9.030281
-12.865496
-14.528760
-13.225593
-9.781759
-5.781006
-2.135781
1.158477
3.978262
5.350515
4.767849
2.622617
-1.004690
-5.531410
-9.481984
-10.463520
-9.064872
-6.467006
-2.874900
1.397958
4.963995
6.545459
5.975828
4.873393
4.807238
6.459091
9.404337
12.645478
15.029570
15.128307
12.552921
8.095938
3.583883
0.853707
0.223463
0.560740
1.077899
0.896710
-0.190083
-2.024431
-5.062558
-9.184868
-13.272310
-15.617303
-15.374204
-13.069299
-9.777974
-7.071919
-6.515329
-8.268534
-11.054761
-13.409530
-14.127433
-14.549769
-14.956789
-16.118859
-17.270175
-18.762030
-20.117343
-20.631575
-19.791149
-17.224568
-13.643540
-9.450196
-5.026784
-0.764028
2.577481
4.058576
3.980037
4.394220
6.598755
10.355429
12.514993
12.068543
9.517272
5.912450
3.213232
1.947534
2.120896
3.068535
4.125993
5.176282
7.529090
11.031256
14.436311
15.713734
14.482905
11.739368
8.748493
5.452599
1.978453
-0.753353
-1.518182
-0.490052
2.666035
7.182973
12.513618
16.929534
18.852188
18.647211
17.208148
14.845883
10.749969
5.441152
-0.585567
-6.941418
-14.219818
-21.663437
-28.349398
-32.840272
-35.147463
-34.981596
-32.191465
-26.786195
-20.085901
-14.126645
-10.548551
-9.757331
-10.104064
-10.264072
-9.500552
-8.599839
-7.131779
-3.927788
2.226667
9.676145
16.206984
19.865570
20.794308
19.361762
16.552399
12.628872
7.896526
2.784210
-2.449005
-7.148438
-10.948784
-13.180699
-15.100426
-16.531994
-17.154742
-16.148446
-14.147256
-12.404810
-12.572965
-13.285328
-13.203211
-10.825637
-7.348889
-3.052568
1.019877
5.118718
9.364854
13.601866
16.780765
17.890363
16.379282
13.903939
11.743717
11.692226
12.748707
14.613355
16.984412
19.737393
22.119855
23.434428
23.317437
20.196212
13.168734
2.685688
-8.048607
-16.776169
-22.169388
-24.322767
-23.804956
-21.622581
-17.462475
-12.112929
-5.705596
0.740842
6.230513
8.267875
6.560944
0.533900
-7.210827
-14.881254
-20.209624
-21.421552
-16.697359
-7.422986
4.232223
15.903726
26.543512
35.192533
40.372950
41.805815
39.998515
34.788437
26.986031
18.226859
9.448134
1.162131
-5.571734
-9.778771
-10.917379
-9.293877
-6.282803
-3.128019
-0.011689
2.835796
3.933337
2.592688
-1.302488
-5.545371
-9.056342
-9.349305
-6.811401
-1.399613
5.062792
11.855634
16.386259
18.852145
20.281426
21.290003
22.323347
23.266749
24.225142
23.631722
21.520707
17.243281
9.558189
-1.570413
-14.242030
-26.285687
-35.870950
-42.482286
-45.538336
-44.309142
-38.357055
-27.828067
-15.270838
-3.847977
3.966806
7.921611
8.541746
7.792884
7.976023
9.784295
12.567582
15.147524
16.534115
16.155121
15.384100
15.001195
14.521831
13.132301
10.888329
7.515204
4.884419
3.493260
2.959801
2.551152
2.242872
1.495965
0.323468
-1.860218
-4.243012
-6.636560
-8.205973
-9.068564
-8.474173
-6.484389
-2.859369
2.276730
7.721757
11.300829
13.611273
14.925846
15.622887
15.785496
15.450820
14.037501
11.185122
7.868047
5.329159
4.728896
6.003061
8.869446
11.937222
14.877580
18.150983
21.269269
23.266548
23.150534
18.908954
9.093623
-4.974038
-20.772090
-35.625107
-46.424251
-51.722641
-52.331377
-49.546134
-43.975971
-36.212025
-27.465893
-19.361734
-13.074322
-9.373048
-8.367077
-9.360996
-10.680138
-11.072167
-9.924442
-8.040241
-5.401641
-2.688743
0.993631
5.763773
12.164263
19.611460
26.088856
29.801862
31.140550
29.480544
25.654128
20.383112
14.868994
9.480011
4.703346
1.037259
-1.007277
-1.319468
-0.130030
1.466098
3.141087
3.054402
0.397874
-4.896280
-11.627864
-19.255275
-26.728874
-32.411469
-35.283075
-35.469804
-34.047692
-31.706290
-28.975794
-25.172847
-20.225429
-14.945295
-9.602592
-4.117809
2.264432
8.733030
15.241709
21.952431
27.660113
30.750699
29.882894
25.717894
18.737669
10.966221
3.178479
-2.680414
-6.676611
-8.706484
-9.562232
-9.354001
-8.318702
-6.269283
-3.664575
-1.656216
-1.555850
-3.039557
-5.325567
-7.082357
-8.505452
-9.343603
-10.155685
-10.037395
-8.173724
-3.889461
3.122369
12.148426
20.328188
25.447015
27.106037
25.170668
20.798412
15.921704
12.659375
11.732260
12.457001
13.272661
12.856517
10.387366
5.552369
-1.224837
-9.257310
-17.328236
-23.577852
-27.061123
-27.048417
-23.997261
-19.025077
-13.081789
-7.243758
-1.289390
4.693003
9.966947
13.415343
15.950640
19.045789
22.070224
24.088033
23.762156
20.467240
14.230659
6.540354
0.125519
-3.028293
-3.264229
-1.825172
-0.442817
0.207299
0.305058
0.458868
0.074659
-1.585998
-5.495838
-12.246323
-19.457267
-25.381987
-29.793999
-32.092392
-30.805844
-25.782824
-18.307928
-10.046371
-2.892460
1.885502
3.891580
3.655644
2.341391
0.426226
-1.569756
-3.170452
-3.624398
-1.398355
4.263052
12.106513
20.601069
28.424977
35.358271
40.215095
42.345331
41.435813
38.577569
35.023257
31.194885
26.736599
20.472971
11.952338
2.956255
-4.841588
-10.077736
-12.196898
-11.203963
-8.025716
-2.391030
4.345436
9.543776
9.689764
4.572235
-3.543010
-12.756777
-22.503348
-32.388741
-40.883303
-47.073936
-49.552537
-47.143679
-38.414819
-25.620680
-11.124501
2.618910
15.166036
24.729134
29.910854
28.828950
22.793759
14.511666
6.317559
-1.026016
-6.837331
-10.433355
-11.035899
-9.217199
-5.567412
-1.335940
2.427902
5.420401
7.913335
10.859559
14.459161
18.378446
20.882133
21.165967
18.834986
15.051259
11.604486
9.080589
7.232554
5.988689
6.312931
9.999867
16.766640
24.443578
29.337552
29.333313
25.286279
19.492887
13.093369
6.751205
1.886553
-1.887723
-5.927913
-9.905861
-13.314832
-16.365994
-18.625934
-20.853286
-23.464193
-25.827108
-26.676665
-25.872737
-24.264225
-22.228167
-20.695584
-20.020702
-18.938477
-15.336268
-7.896566
2.586148
12.905925
20.499766
25.945119
30.976611
35.979427
39.988327
43.113131
44.951709
45.167761
43.801368
40.426287
35.268675
28.447476
19.466057
9.613903
1.525054
-2.720436
-3.506774
-2.707407
-2.143322
-2.982777
-5.847213
-10.473325
-16.275190
-22.543055
-28.593562
-33.911504
-37.602031
-38.992864
-37.619308
-34.859483
-32.746193
-31.692645
-30.011464
-26.838431
-22.814215
-19.216894
-15.786421
-12.858445
-9.652499
-6.587982
-4.660114
-3.198898
-0.591256
3.858551
9.375270
15.138676
20.796499
25.469856
27.389251
25.009064
17.705246
5.458895
-8.776917
-20.848600
-27.155895
-27.388246
-22.191536
-13.908797
-4.021781
6.449528
16.361311
24.189781
28.198681
27.607216
23.566049
18.850648
15.525426
13.997399
13.894094
14.620790
15.071471
15.108944
14.041051
11.915698
8.575811
5.038445
2.051154
1.156301
2.039091
3.969240
5.556570
6.132386
5.465319
4.296406
2.168119
-0.880436
-3.367510
-3.586826
0.384598
7.250436
14.375670
20.185676
24.654384
27.816337
28.399649
26.498822
22.004038
16.065958
9.358815
2.624950
-4.435441
-11.509519
-17.825613
-22.483008
-25.425980
-27.412185
-27.938475
-26.663007
-23.341701
-18.080467
-12.460120
-8.293823
-6.343470
-5.524551
-5.071915
-5.339461
-6.364338
-8.290908
-11.066381
-13.758104
-15.902032
-16.070512
-15.102343
-13.972541
-13.862073
-15.298203
-18.386188
-21.879561
-23.429422
-21.325581
-15.539039
-8.262599
-1.226655
5.116481
10.105284
12.478296
12.590394
11.372925
9.816548
7.720522
4.838815
1.241162
-2.484559
-5.535721
-7.385711
-8.056689
-8.122518
-7.483482
-6.050943
-4.384752
-1.837397
2.465767
6.428393
7.087633
3.845509
-1.548362
-6.092027
-9.023267
-9.752251
-8.153841
-3.836991
1.894806
8.386540
14.501564
20.129406
25.173934
29.304059
32.050849
33.238657
33.013801
30.875412
26.451016
20.457537
14.643941
9.039230
2.625047
-4.503125
-10.544834
-13.514853
-14.879291
-16.456524
-18.840948
-22.380921
-27.267732
-32.421433
-35.477157
-34.805534
-30.345624
-22.333361
-11.301549
1.799889
14.973020
24.849934
29.383491
27.968217
22.939000
17.319298
12.986799
9.540026
5.937811
1.980067
-1.925862
-5.519279
-8.799204
-12.266182
-17.026553
-22.492116
-26.188835
-26.418253
-23.465185
-18.337559
-14.240999
-13.213847
-15.391015
-19.438048
-23.460641
-25.089362
-23.374942
-20.084269
-16.938935
-14.498793
-12.925150
-13.104384
-14.510859
-15.390070
-14.500763
-11.476329
-5.618419
2.056564
9.711995
15.175596
18.013631
18.589447
17.837327
15.161246
10.025467
3.742938
-1.846457
-4.321148
-3.292692
0.053054
4.682418
9.378586
13.338605
16.783417
19.690211
22.463722
24.191177
24.063106
22.329779
20.940249
19.942093
18.872246
16.544524
13.285455
9.690735
5.562559
0.870621
-4.757227
-9.615361
-12.987509
-14.830330
-16.421250
-17.670980
-17.954494
-18.124277
-19.312743
-21.532926
-23.788629
-25.361626
-26.652091
-27.845445
-27.730414
-25.205219
-19.086284
-10.338198
-1.833539
4.622023
7.362947
7.003505
4.759207
2.407045
0.121361
-1.271102
-0.832804
2.042380
5.922234
8.177279
6.873780
1.315669
-6.670530
-14.465115
-19.767741
-21.480864
-19.581999
-14.794260
