EVENT_NAME: 202302060117
EVENT_ID: 13194
EVENT_DATE_YYYYMMDD: 2023/02/06
EVENT_TIME_HHMMSS: 01:17:32.00000
EVENT_LATITUDE_DEGREE: 37.288
EVENT_LONGITUDE_DEGREE: 37.043
EVENT_DEPTH_KM: 8.6
HYPOCENTER_REFERENCE: AFAD
MAGNITUDE_W: 7.7
MAGNITUDE_W_REFERENCE: AFAD
MAGNITUDE_L: 
MAGNITUDE_L_REFERENCE: 
FOCAL_MECHANISM: 
NETWORK: TK
STATION_CODE: 0604
STATION_NAME: 
STATION_LATITUDE_DEGREE: 38.96246
STATION_LONGITUDE_DEGREE: 33.52402
STATION_ELEVATION_M: 971.0
LOCATION: Kahramanmaras_Pazarck_Turkiye
SENSOR_DEPTH_M: 
VS30_M/S: 291
SITE_CLASSIFICATION_EC8: C
MORPHOLOGIC_CLASSIFICATION: 
EPICENTRAL_DISTANCE_KM: 359.70
EARTHQUAKE_BACKAZIMUTH_DEGREE: 
DATE_TIME_FIRST_SAMPLE_YYYYMMDD_HHMMSS: 2023/02/06 01:17:57.9765760
DATE_TIME_FIRST_SAMPLE_PRECISION: millisecond
SAMPLING_INTERVAL_S: 0.01
NDATA: 21001
DURATION_S: 
STREAM: HNE
UNITS: cm/s^2
INSTRUMENT: sensor = CMG-5T/GURALP | digitizer = 
INSTRUMENT_ANALOG/DIGITAL: 
INSTRUMENTAL_FREQUENCY_HZ: 
INSTRUMENTAL_DAMPING: 
FULL_SCALE_G: 
N_BIT_DIGITAL_CONVERTER: 
PGA_CM/S^2: 4.988
TIME_PGA_S: 
BASELINE_CORRECTION: BASELINE REMOVED
FILTER_TYPE: BUTTERWORTH
FILTER_ORDER: 
LOW_CUT_FREQUENCY_HZ: 
HIGH_CUT_FREQUENCY_HZ: 
LATE/NORMAL_TRIGGERED: 
DATABASE_VERSION: 
HEADER_FORMAT: DYNA 1.2
DATA_TYPE: Acceleration
PROCESSING: Automatic Paolucci et al., 2011
DATA_TIMESTAMP_YYYYMMDD_HHMMSS: 
DATA_LICENSE: U (unknown license)
DATA_CITATION: Turkish Accelerometric Archive v 1.0 - Disaster And Emergency Management Presidency, Earthquake Department
DATA_CREATOR: AFAD
ORIGINAL_DATA_MEDIATOR_CITATION: : AFAD - Disaster And Emergency Management Presidency
ORIGINAL_DATA_MEDIATOR: AFAD PROCESS SERVICE
ORIGINAL_DATA_CREATOR_CITATION: AFAD PROCESS SERVICE
ORIGINAL_DATA_CREATOR: network: TK
USER1: GuestUser
USER2: 
USER3: 
USER4: 
USER5: 
[...]
-1.539211
-1.630980
-1.698782
-1.755862
-1.821457
-1.901558
-1.972514
-2.041892
-2.108433
-2.172451
-2.254760
-2.322877
-2.373650
-2.396040
-2.404240
-2.390679
-2.387525
-2.347475
-2.288818
-2.221646
-2.157629
-2.092980
-2.018555
-1.952014
-1.874121
-1.830286
-1.794650
-1.766583
-1.744193
-1.747977
-1.735047
-1.721802
-1.731893
-1.734732
-1.711710
-1.674183
-1.652738
-1.638232
-1.630978
-1.591243
-1.595027
-1.617102
-1.633501
-1.651792
-1.677336
-1.649269
-1.593450
-1.589666
-1.586512
-1.562545
-1.500419
-1.413695
-1.306158
-1.221326
-1.076577
-0.918897
-0.751757
-0.558757
-0.354404
-0.170550
0.028441
0.275052
0.480351
0.696372
0.899778
1.141028
1.352003
1.561717
1.772692
1.972314
2.133463
2.236585
2.354845
2.452291
2.514101
2.566766
2.627000
2.615962
2.609970
2.602086
2.580957
2.547529
2.528923
2.507794
2.494865
2.524508
2.561090
2.596410
2.605240
2.606187
2.597041
2.610917
2.592311
2.558568
2.536808
2.537123
2.506218
2.457338
2.429901
2.434001
2.447246
2.369668
2.311011
2.328671
2.347908
2.271592
2.184868
2.125580
2.047372
1.936996
1.816844
1.689439
1.568657
1.494232
1.393948
1.267805
1.111702
1.006057
0.924694
0.831033
0.715611
0.581268
0.454179
0.319836
0.200946
0.052727
-0.113467
-0.244026
-0.331065
-0.466669
-0.613941
-0.741031
-0.870959
-1.005932
-1.127346
-1.302685
-1.505776
-1.605114
-1.655256
-1.775093
-1.982283
-2.116626
-2.208711
-2.323186
-2.512086
-2.694364
-2.834698
-2.968410
-3.106222
-3.255072
-3.402975
-3.543625
-3.602912
-3.724325
-3.831547
-3.845108
-3.782667
-3.787712
-3.826817
-3.784874
-3.690582
-3.566015
-3.498528
-3.427888
-3.339902
-3.178754
-3.063017
-2.953272
-2.819875
-2.668818
-2.471088
-2.270205
-2.117255
-1.981651
-1.780452
-1.596282
-1.417789
-1.250334
-1.057334
-0.881679
-0.694040
-0.493787
-0.272090
-0.077829
0.069444
0.243522
0.440937
0.648758
0.849642
1.058725
1.202844
1.340656
1.473738
1.611865
1.735801
1.863206
1.939838
1.988088
2.115493
2.263081
2.385756
2.479418
2.623221
2.778378
2.934481
3.060309
3.172892
3.258354
3.303451
3.320480
3.332779
3.342556
3.329310
3.306289
3.240695
3.180146
3.161540
3.160594
3.101306
3.082385
3.104775
3.090269
3.060625
3.048011
2.998184
2.901684
2.824106
2.727922
2.623223
2.495818
2.392065
2.293042
2.211364
2.132840
2.065668
1.980206
1.856901
1.770492
1.686922
1.584115
1.457026
1.354219
1.202531
1.038545
0.864151
0.671782
0.469953
0.269700
0.059671
-0.168018
-0.353449
-0.550549
-0.734403
-0.899966
-1.054492
-1.204287
-1.302049
-1.395079
-1.478650
-1.532260
-1.572626
-1.605108
-1.605739
-1.591232
-1.596593
-1.572942
-1.556858
-1.557173
-1.590286
-1.587448
-1.569472
-1.549605
-1.546136
-1.550866
-1.548974
-1.548974
-1.542982
-1.519330
-1.466034
-1.432291
-1.371426
-1.343044
-1.321600
-1.279026
-1.210909
-1.166758
-1.149413
-1.102740
-1.077196
-1.057329
-1.027685
-1.005294
-0.982588
-0.951683
-0.946637
-0.894918
-0.839415
-0.787066
-0.726201
-0.666598
-0.602896
-0.504819
-0.349032
-0.220365
-0.102106
0.007324
0.128422
0.239113
0.363364
0.473740
0.569609
0.693230
0.806759
0.899475
0.993452
1.079545
1.141986
1.220826
1.256146
1.260246
1.274121
1.294935
1.285159
1.281060
1.249839
1.205373
1.179514
1.144194
1.125588
1.093421
1.065670
1.040441
1.070085
1.089637
1.108874
1.131580
1.145771
1.164062
1.194967
1.254885
1.302820
1.378822
1.435902
1.480052
1.504650
1.542808
1.562676
1.583805
1.601781
1.588536
1.573083
1.550377
1.539025
1.527041
1.521680
1.498659
1.506543
1.519157
1.546909
1.575922
1.601466
1.593267
1.584121
1.608404
1.597682
1.559839
1.517265
1.493614
1.442841
1.421712
1.401844
1.365578
1.325843
1.288000
1.251103
1.225243
1.175732
1.119283
1.073556
0.985256
0.897586
0.803609
0.709947
0.597364
0.512848
0.428647
0.329940
0.227764
0.130949
0.022150
-0.089803
-0.216577
-0.370472
-0.485262
-0.597215
-0.717051
-0.848871
-0.955462
-1.091067
-1.202388
-1.292266
-1.385927
-1.460983
-1.542345
-1.632853
-1.707278
-1.728091
-1.770980
-1.791163
-1.788956
-1.770349
-1.749220
-1.684887
-1.604786
-1.524369
-1.424085
-1.326639
-1.215633
-1.102734
-0.976906
-0.854862
-0.699075
-0.565362
-0.420612
-0.273971
-0.149088
-0.029883
0.106668
0.221143
0.300614
0.400582
0.469015
0.539971
0.617234
0.707112
0.767345
0.853123
0.934485
1.004811
1.084912
1.161229
1.247006
1.331838
1.429915
1.504655
1.608093
1.688509
1.749689
1.800462
1.865110
1.899484
1.931020
1.973278
1.986524
2.010491
2.026890
2.041396
2.048650
2.064102
2.018691
1.977694
1.932913
1.855650
1.751582
1.644360
1.511594
1.356437
1.221779
1.047385
0.875200
0.705221
0.533035
0.341612
0.173526
-0.015058
-0.198282
-0.369206
-0.547700
-0.720516
-0.888602
-1.060788
-1.257257
-1.417459
-1.583023
-1.741963
-1.895228
-2.040293
-2.188512
-2.291634
-2.375835
-2.452782
-2.484633
-2.512070
-2.532568
-2.547074
-2.547390
-2.567573
-2.569465
-2.564734
-2.552751
-2.533198
-2.506708
-2.484002
-2.460035
-2.411154
-2.366689
-2.305824
-2.253790
-2.211216
-2.160444
-2.086650
-2.031777
-1.966182
-1.880720
-1.805665
-1.713895
-1.616764
-1.510804
-1.414935
-1.308659
-1.209951
-1.091376
-0.968702
-0.873779
-0.782955
-0.662803
-0.554951
-0.465073
-0.347760
-0.259459
-0.181881
-0.103356
-0.022309
0.036979
0.123072
0.187720
0.245431
0.326163
0.385450
0.428024
0.476274
0.505602
0.509387
0.545968
0.558583
0.571828
0.589173
0.611879
0.600210
0.608094
0.613140
0.613771
0.631431
0.637108
0.646884
0.665490
0.695134
0.681573
0.701441
0.695134
0.679366
0.665175
0.648146
0.601157
0.568991
0.556692
0.518218
0.519164
0.542816
0.572460
0.595166
0.661391
0.717840
0.810556
0.912102
1.003556
1.113931
1.239760
1.341936
1.441274
1.556065
1.623236
1.711537
1.804883
1.895391
1.979907
2.101951
2.188675
2.269092
2.356761
2.401858
2.447270
2.497096
2.529894
2.532417
2.550707
2.547239
2.534624
2.531155
2.524533
2.483852
2.463353
2.440963
2.398389
2.369377
2.339733
2.320811
2.282653
2.258686
2.243233
2.237241
2.226204
2.214220
2.206967
2.192776
2.155564
2.116144
2.086500
2.036043
2.002930
1.960987
1.903908
1.845566
1.800155
1.726676
1.654459
1.580980
1.492364
1.417309
1.335631
1.243231
1.154615
1.103842
1.020272
0.939541
0.889714
0.852502
0.808982
0.752533
0.665809
0.614406
0.567733
0.469656
0.397439
0.352343
0.298732
0.214216
0.165020
0.109201
0.057482
0.012386
-0.011896
-0.055101
-0.092628
-0.090421
-0.074653
-0.061723
-0.095466
-0.074337
-0.015680
0.023109
0.020271
0.061583
0.106679
0.137269
0.168174
0.197818
0.236922
0.282019
0.321123
0.323331
0.369373
0.397440
0.393656
0.383565
0.418254
0.431815
0.435284
0.460512
0.477542
0.516331
0.563004
0.632068
0.670857
0.720999
0.792270
0.896339
0.969502
1.026898
1.133804
1.256164
1.331850
1.405013
1.513812
1.573730
1.621665
1.667077
1.694828
1.681899
1.685998
1.659823
1.609366
1.552286
1.488899
1.417628
1.336896
1.246704
1.125921
1.014915
0.870796
0.725100
0.574989
0.421410
0.252377
0.111096
-0.041537
-0.204262
-0.331667
-0.456234
-0.601930
-0.741949
-0.856109
-0.993605
-1.134571
-1.301711
-1.475789
-1.659013
-1.822999
-2.009061
-2.183139
-2.336403
-2.504490
-2.639463
-2.745108
-2.832778
-2.926440
-2.990458
-3.074343
-3.147822
-3.228869
-3.324422
-3.420922
-3.526252
-3.647981
-3.769078
-3.859902
-3.978792
-4.084752
-4.169584
-4.233602
-4.308973
-4.337355
-4.344923
-4.337670
-4.307711
-4.280905
-4.229817
-4.181567
-4.128271
-4.071822
-3.980999
-3.900898
-3.793360
-3.671632
-3.539811
-3.413668
-3.272072
-3.142774
-3.011585
-2.870620
-2.774750
-2.672574
-2.568506
-2.468221
-2.424071
-2.362576
-2.335770
-2.327256
-2.311803
-2.292882
-2.281213
-2.266076
-2.230756
-2.206158
-2.153177
-2.092944
-2.003382
-1.908143
-1.784523
-1.678562
-1.551788
-1.406407
-1.276794
-1.141505
-0.995494
-0.854213
-0.731539
-0.595304
-0.498488
-0.410188
-0.328194
-0.263230
-0.225703
-0.185337
-0.153801
-0.130780
-0.110596
-0.126680
-0.157585
-0.183760
-0.227279
-0.297919
-0.343016
-0.401988
-0.458437
-0.503849
-0.523716
-0.544530
-0.528131
-0.476412
-0.425639
-0.343646
-0.279628
-0.191328
-0.092620
-0.010942
0.049291
0.133808
0.200348
0.243868
0.285180
0.319239
0.348567
0.369381
0.403755
0.404386
0.416685
0.430876
0.452636
0.485118
0.533683
0.550713
0.549767
0.551659
0.531791
0.504355
0.463674
0.425200
0.365597
0.314194
0.250492
0.203503
0.140431
0.077675
0.030056
-0.023870
-0.119424
-0.204256
-0.240207
-0.319046
-0.382118
-0.423745
-0.456543
-0.504162
-0.519614
-0.540428
-0.547681
-0.528444
-0.510469
-0.476725
-0.417122
-0.338913
-0.256920
-0.143075
-0.039953
0.091237
0.229364
0.370645
0.482912
0.594550
0.675597
0.734884
0.797956
0.819716
0.840214
0.852198
0.848414
0.798903
0.770520
0.728578
0.677489
0.626086
0.594550
0.560491
0.537155
0.530532
0.514765
0.542516
0.550716
0.570268
0.576890
0.587613
0.575314
0.563646
0.535894
0.483544
0.434348
0.371277
0.295591
0.198776
0.119936
-0.004631
-0.124467
-0.263225
-0.410182
-0.562185
-0.703466
-0.852946
-1.009679
-1.159160
-1.317470
-1.463165
-1.614853
-1.758341
-1.922328
-2.040587
-2.166416
-2.287829
-2.414603
-2.516779
-2.613594
-2.702210
-2.770328
-2.855790
-2.902148
-2.941252
-2.979410
-2.996440
-2.971526
-2.970265
-2.939675
-2.914446
-2.880387
-2.831822
-2.766227
-2.708201
-2.648914
-2.550206
-2.481143
-2.391896
-2.311795
-2.234532
-2.161684
-2.080006
-2.023557
-1.955754
-1.884483
-1.837179
-1.784199
-1.732165
-1.704098
-1.679500
-1.611382
-1.578269
-1.520559
-1.452757
-1.366663
-1.270164
-1.159157
-1.024184
-0.878488
-0.702833
-0.533170
-0.345216
-0.159469
0.018393
0.169135
0.338798
0.496478
0.650057
0.809944
0.963840
1.111743
1.248609
1.377275
1.477875
1.595819
1.697365
1.789134
1.883427
1.984342
2.065704
2.178918
2.274472
2.357727
2.458326
2.544419
2.622313
2.684439
2.753502
2.774001
2.795761
2.774001
2.720705
2.647227
2.556088
2.448866
2.341329
2.236630
2.107648
2.009887
1.914964
1.811526
1.710296
1.629564
1.521396
1.423635
1.331235
1.251133
1.180808
1.103230
1.008938
0.918115
0.849051
0.732368
0.603387
0.479766
0.353622
0.175760
0.011458
-0.170819
-0.342690
-0.505415
-0.681701
-0.853571
-1.015981
-1.147170
-1.297912
-1.420271
-1.552091
-1.659944
-1.758651
-1.847582
-1.948812
-2.031121
-2.115953
-2.230112
-2.312106
-2.401983
-2.503528
-2.603497
-2.678553
-2.784513
-2.868083
-2.951338
-3.028916
-3.080320
-3.114694
-3.149068
-3.179027
-3.187857
-3.201417
-3.190695
-3.173035
-3.152221
-3.131723
-3.083473
-3.065497
-3.021662
-2.962059
-2.917909
-2.869028
-2.808164
-2.754553
-2.708511
-2.625571
-2.581421
-2.522133
-2.447709
-2.376437
-2.323142
-2.241464
-2.178392
-2.115635
-2.027335
-1.970886
-1.890469
-1.802168
-1.717337
-1.649535
-1.547989
-1.455904
-1.372965
-1.275834
-1.158836
-1.056344
-0.933354
-0.821717
-0.728371
-0.592766
-0.480814
-0.374853
-0.283399
-0.177754
-0.104275
-0.019759
0.049935
0.099762
0.154635
0.201939
0.230952
0.250189
0.264380
0.242935
0.241989
0.210138
0.183017
0.151482
0.134452
0.096294
0.068858
0.047098
0.004525
-0.021966
-0.048140
-0.081568
-0.121934
-0.126349
-0.164192
-0.194467
-0.227264
-0.270783
-0.312095
-0.328494
-0.368229
-0.395350
-0.376113
-0.368544
-0.362237
-0.337954
-0.287182
-0.241455
-0.170814
-0.122879
-0.059492
0.005472
0.052460
0.082419
0.118370
0.146122
0.136977
0.151168
0.152114
0.157160
0.164413
0.167567
0.148014
0.159367
0.164413
0.148961
0.155583
0.159368
0.159368
0.164413
0.197211
0.205095
0.232216
0.239469
0.243253
0.253345
0.251453
0.224963
0.196265
0.181759
0.145177
0.129725
0.089674
0.035748
-0.014394
-0.041831
-0.118463
-0.185319
-0.221270
-0.265104
-0.317769
-0.372957
-0.421207
-0.466303
-0.490270
-0.561857
-0.621144
-0.682955
-0.752964
-0.847257
-0.942810
-1.042779
-1.127926
-1.212757
-1.322187
-1.409857
-1.476713
-1.524016
-1.582358
-1.592134
-1.589611
-1.572582
-1.525278
-1.444230
-1.352461
-1.214649
-1.073053
-0.934295
-0.746972
-0.568478
-0.411430
-0.264788
-0.108054
0.025658
0.170093
0.283937
0.390529
0.502796
0.619795
0.700526
0.786304
0.897941
0.983719
1.082426
1.178926
1.278580
1.371295
1.478517
1.555150
1.639981
1.715983
1.761079
1.794192
1.820997
1.831404
1.820682
1.814375
1.776532
1.757926
1.733643
1.709045
1.688232
1.679402
1.646604
1.608131
1.597724
1.564296
1.541275
1.516992
1.510685
1.494602
1.494602
1.493340
1.493025
1.510685
1.515731
1.500594
1.484195
1.468427
1.436261
1.419231
1.382334
1.347960
1.305387
1.261867
1.208257
1.171990
1.118379
1.064768
1.029764
0.991921
0.934210
0.892898
0.864831
0.779053
0.714090
0.622005
0.528974
0.408822
0.291824
0.163473
0.041114
-0.076515
-0.203920
-0.288436
-0.377052
-0.453369
-0.532524
-0.576043
-0.632492
-0.686419
-0.720162
-0.754536
-0.804994
-0.832430
-0.853874
-0.889825
-0.911900
-0.946274
-0.943436
-0.920099
-0.901808
-0.895186
-0.855135
-0.815715
-0.769673
-0.698086
-0.616724
-0.527477
-0.416155
-0.295373
-0.175536
-0.012180
0.142661
0.308855
0.475995
0.650704
0.825098
1.022828
1.222135
1.429326
1.666160
1.881866
2.121854
2.396216
2.688554
2.942418
3.201959
3.455823
3.719778
3.970804
4.178941
4.350811
4.523944
4.686984
4.773708
4.851602
4.914673
4.968600
4.979637
4.987521
4.975538
4.959455
4.924134
4.844033
4.740596
4.625805
4.493039
4.331575
4.169796
3.942107
3.705903
3.443525
3.169478
2.873356
2.579757
2.262821
1.943678
1.652286
1.341342
1.071395
0.819739
0.576282
0.323049
0.117435
-0.103001
-0.326906
-0.536304
-0.761155
-1.007450
-1.231986
-1.432239
-1.654882
-1.848828
-2.047819
-2.237981
-2.428773
-2.591813
-2.744762
-2.874059
-3.019440
-3.164505
-3.268258
-3.359397
-3.457158
-3.548927
-3.604115
-3.681693
-3.716067
-3.729628
-3.729943
-3.704083
-3.643850
-3.605376
-3.546404
-3.470087
-3.411430
-3.339213
-3.275195
-3.196671
-3.129184
-3.022908
-2.925146
-2.805310
-2.675382
-2.548608
-2.406065
-2.240817
-2.077461
-1.903699
-1.707230
-1.542297
-1.358443
-1.174588
-0.984427
-0.813502
-0.618611
-0.440748
-0.260678
-0.067363
0.118699
0.307599
0.500283
0.690760
0.852855
1.043962
1.205111
1.362475
1.512901
1.659543
1.781902
1.916561
2.038920
2.139204
2.266294
2.377615
2.477584
2.577869
2.684775
2.743747
2.824164
2.889128
2.945262
3.010857
3.077082
3.116187
3.163490
3.213948
3.236969
3.283642
3.312655
3.335361
3.340092
3.358383
3.343245
3.325585
3.294365
3.252107
3.207641
3.177998
3.143624
3.100104
3.078344
3.022526
2.984998
2.933595
2.872415
2.790422
2.727350
2.646303
2.565886
2.500607
2.423029
2.345135
2.277333
2.210162
2.124069
2.068250
1.977742
1.883135
1.773390
1.653554
1.515111
1.386445
1.255886
1.126589
1.011168
0.864841
0.725768
0.591425
0.477896
0.358060
0.278589
0.205426
0.138570
0.082436
0.022203
-0.050330
-0.089119
-0.097318
-0.138000
-0.149983
-0.155660
-0.151245
-0.147145
-0.136107
-0.147775
-0.132007
-0.119393
-0.121916
-0.097949
-0.060736
-0.036138
-0.024785
0.012112
0.019996
0.038602
0.056893
0.070454
0.065723
0.075499
0.078968
0.089691
0.113027
0.136679
0.171369
0.202905
0.249262
0.300351
0.387705
0.449516
0.529932
0.622648
0.716625
0.789788
0.881242
0.968912
1.019054
1.092848
1.142675
1.182410
1.218046
1.264088
1.292471
1.358696
1.426183
1.487363
1.571248
1.671217
1.765509
1.868632
1.994145
2.089068
2.195974
2.289005
2.375098
2.453938
2.537508
2.583235
2.638423
2.685096
2.699603
2.724516
2.742492
2.754791
2.749745
2.768351
2.740915
2.712848
2.672482
2.607519
2.533725
2.462138
2.363116
2.243910
2.154033
2.048703
1.955672
1.860118
1.777494
1.692978
1.631799
1.552328
1.482949
1.434384
1.374466
1.304772
1.245484
1.186827
1.102627
1.039870
0.961661
0.888183
0.819435
0.760462
0.680677
0.630850
0.566832
0.490200
0.426813
0.349550
0.259357
0.159389
0.068250
-0.068300
-0.192552
-0.334463
-0.474167
-0.613871
-0.755152
-0.918508
-1.049382
-1.152504
-1.283693
-1.383662
-1.474485
-1.551433
-1.623335
-1.673477
-1.742540
-1.786060
-1.832417
-1.898327
-1.952884
-1.989781
-2.052538
-2.129485
-2.178997
-2.252790
-2.319016
-2.394387
-2.477957
-2.583286
-2.668118
-2.763672
-2.856387
-2.922297
-2.977169
-3.017535
-3.041818
-3.055063
-3.071777
-3.052225
-3.035826
-3.000190
-2.945633
-2.869947
-2.804037
-2.713214
-2.608514
-2.511699
-2.399431
-2.288740
-2.164804
-2.039607
-1.888550
-1.745377
-1.567199
-1.384921
-1.216204
-1.032350
-0.835566
-0.647612
-0.470695
-0.299140
-0.149660
0.017165
0.169483
0.300673
0.431862
0.585442
0.704332
0.839306
0.994463
1.149619
1.313921
1.494937
1.674377
1.843409
2.048708
2.227832
2.415155
2.587656
2.749751
2.895131
3.043665
3.173278
3.286492
3.387091
3.469716
3.551394
3.589552
3.610366
3.620773
3.636856
3.577884
3.506297
3.440072
3.339788
3.182739
3.051235
2.946851
2.790433
2.649468
2.527424
2.417679
2.283021
2.141425
1.994152
1.884407
1.753533
1.600269
1.441643
1.273242
1.099794
0.922878
0.736816
0.511335
0.297521
0.082447
-0.113076
-0.314590
-0.491191
-0.702481
-0.896112
-1.056314
-1.242060
-1.422130
-1.572556
-1.709107
-1.873093
-2.012482
-2.160070
-2.289998
-2.419295
-2.557737
-2.724247
-2.856698
-2.959189
-3.056320
-3.167957
-3.295046
-3.363795
-3.407629
-3.470070
-3.568147
-3.606621
-3.624911
-3.647617
-3.689875
-3.717627
-3.725511
-3.707535
-3.699967
-3.720465
-3.686091
-3.622073
-3.571931
-3.548594
-3.481107
-3.422766
-3.376093
-3.354333
-3.319328
-3.270763
-3.235758
-3.211790
-3.170794
-3.086593
-3.025728
-2.932067
-2.816645
-2.700593
-2.582018
-2.428438
-2.298826
-2.159753
-2.004911
-1.863630
-1.730234
-1.610712
-1.490876
-1.398791
-1.291569
-1.218721
-1.142720
-1.057888
-0.981886
-0.934583
-0.860789
-0.782264
-0.746628
-0.703740
-0.665266
-0.619223
-0.575073
-0.540384
-0.516732
-0.456183
-0.431900
-0.416447
-0.385857
-0.341076
-0.322470
-0.324047
-0.305125
-0.302287
-0.266967
-0.248045
-0.252776
-0.262552
-0.237323
-0.225339
-0.205787
-0.191596
-0.167628
-0.096988
-0.017517
0.035778
0.047762
0.105788
0.178005
0.249907
0.276082
0.288066
0.327170
0.395919
0.411687
0.379520
0.374474
0.379205
0.368167
0.328117
0.294373
0.282074
0.312664
0.292797
0.292166
0.327802
0.383936
0.440069
0.511025
0.571574
0.605318
0.715693
0.838368
0.910270
0.921308
0.988479
1.075834
1.136067
1.126291
1.116200
1.177379
1.170126
1.103585
1.114623
1.167288
1.132914
1.080564
1.073942
1.090971
1.065743
1.031684
0.948745
0.886934
0.926985
0.899864
0.787912
0.712226
0.736508
0.736508
0.674698
0.629917
0.646000
0.660822
0.618880
0.576306
0.582929
0.558646
0.481068
0.442910
0.421465
0.365647
0.256848
0.171386
0.094123
0.040512
-0.068918
-0.223443
-0.347064
-0.434734
-0.538802
-0.688913
-0.819472
-0.959806
-1.050945
-1.155644
-1.292194
-1.413923
-1.467849
-1.545743
-1.633097
-1.729282
-1.780054
-1.756087
-1.786992
-1.849118
-1.868985
-1.800552
-1.810644
-1.846595
-1.834926
-1.788884
-1.775639
-1.785100
-1.761132
-1.694591
-1.666524
