EVENT_NAME: 202302060117
EVENT_ID: 13194
EVENT_DATE_YYYYMMDD: 2023/02/06
EVENT_TIME_HHMMSS: 01:17:32.00000
EVENT_LATITUDE_DEGREE: 37.288
EVENT_LONGITUDE_DEGREE: 37.043
EVENT_DEPTH_KM: 8.6
HYPOCENTER_REFERENCE: AFAD
MAGNITUDE_W: 7.7
MAGNITUDE_W_REFERENCE: AFAD
MAGNITUDE_L: 
MAGNITUDE_L_REFERENCE: 
FOCAL_MECHANISM: 
NETWORK: TK
STATION_CODE: 2309
STATION_NAME: 
STATION_LATITUDE_DEGREE: 38.79913
STATION_LONGITUDE_DEGREE: 38.72728
STATION_ELEVATION_M: 751.0
LOCATION: Kahramanmaras_Pazarck_Turkiye
SENSOR_DEPTH_M: 
VS30_M/S: 860
SITE_CLASSIFICATION_EC8: A
MORPHOLOGIC_CLASSIFICATION: 
EPICENTRAL_DISTANCE_KM: 223.57
EARTHQUAKE_BACKAZIMUTH_DEGREE: 
DATE_TIME_FIRST_SAMPLE_YYYYMMDD_HHMMSS: 2023/02/06 01:17:50.5474540
DATE_TIME_FIRST_SAMPLE_PRECISION: millisecond
SAMPLING_INTERVAL_S: 0.01
NDATA: 14501
DURATION_S: 
STREAM: HNN
UNITS: cm/s^2
INSTRUMENT: sensor = CMG-5T/GURALP | digitizer = 
INSTRUMENT_ANALOG/DIGITAL: 
INSTRUMENTAL_FREQUENCY_HZ: 
INSTRUMENTAL_DAMPING: 
FULL_SCALE_G: 
N_BIT_DIGITAL_CONVERTER: 
PGA_CM/S^2: 38.261
TIME_PGA_S: 
BASELINE_CORRECTION: BASELINE REMOVED
FILTER_TYPE: BUTTERWORTH
FILTER_ORDER: 
LOW_CUT_FREQUENCY_HZ: 
HIGH_CUT_FREQUENCY_HZ: 
LATE/NORMAL_TRIGGERED: 
DATABASE_VERSION: 
HEADER_FORMAT: DYNA 1.2
DATA_TYPE: Acceleration
PROCESSING: Automatic Paolucci et al., 2011
DATA_TIMESTAMP_YYYYMMDD_HHMMSS: 
DATA_LICENSE: U (unknown license)
DATA_CITATION: Turkish Accelerometric Archive v 1.0 - Disaster And Emergency Management Presidency, Earthquake Department
DATA_CREATOR: AFAD
ORIGINAL_DATA_MEDIATOR_CITATION: : AFAD - Disaster And Emergency Management Presidency
ORIGINAL_DATA_MEDIATOR: AFAD PROCESS SERVICE
ORIGINAL_DATA_CREATOR_CITATION: AFAD PROCESS SERVICE
ORIGINAL_DATA_CREATOR: network: TK
USER1: GuestUser
USER2: 
USER3: 
USER4: 
USER5: 
[...]
6.604015
0.176929
-4.891247
-7.846278
-8.711763
-4.937526
1.504576
6.924891
10.222867
10.204171
5.356658
-2.125008
-5.187919
-1.633117
4.961303
9.119554
8.617241
4.293493
0.581469
0.041766
0.643682
1.673131
2.960938
4.238019
5.254289
4.272956
1.468097
-1.224592
-4.232030
-7.492311
-5.995794
1.140780
6.554045
8.712241
9.544014
7.488486
5.138130
5.688558
9.224359
10.602576
10.639965
6.373221
-0.703897
-3.613570
-1.895166
3.046128
7.617201
6.925180
0.393587
-5.115300
-5.580529
-1.089140
6.295066
10.825071
8.241180
1.966106
-4.792278
-9.882827
-4.287515
8.723263
14.745188
10.396002
6.080529
4.997446
5.834735
6.582840
5.699272
4.599640
3.917733
7.466712
9.893073
6.341029
1.514355
2.553611
6.871229
5.903994
-1.620578
-8.826723
-8.535572
-0.263202
8.139419
9.868857
6.702358
4.221443
7.086676
8.729688
5.451632
1.527220
-4.213668
-9.158641
-8.239523
-2.992673
1.356818
7.083301
13.887043
15.979041
10.917607
5.370105
5.473999
6.423765
4.751331
2.496288
-0.497972
-2.541547
-1.190913
3.962769
11.026402
12.194377
6.496089
-0.220922
-4.058907
-3.807292
1.566745
10.084295
14.661497
15.414812
13.298909
6.675986
-0.896090
-7.140210
-9.609479
-6.025868
2.659017
11.413166
12.775140
10.426622
6.825235
3.625330
2.915228
5.226048
7.969304
7.638311
6.137809
6.334259
4.332365
-1.995423
-9.690395
-11.151974
-3.433711
6.698655
9.132066
2.875380
-1.231997
-1.128409
-0.458455
0.017500
1.128471
4.748246
9.375097
6.843001
-2.566392
-10.900977
-11.754817
-6.621669
1.154212
5.973222
4.480076
0.658947
1.387437
3.110439
0.768970
-3.221947
-2.941829
2.644902
7.290448
6.555827
2.798751
4.302929
8.469148
8.345638
4.987286
3.026459
4.249907
5.083824
3.090205
-0.855966
-5.816569
-11.245773
-11.682806
-9.657008
-6.228780
-2.511240
-1.207496
-1.840674
-0.924927
2.352515
3.343961
1.244301
0.101149
-1.649129
-4.595886
-5.904841
-6.320115
-2.998234
2.843177
9.426564
12.031907
5.581836
-5.912199
-12.868567
-12.928330
-2.259326
8.784496
11.947623
10.220330
8.050794
6.330550
1.855097
-4.358069
-8.832297
-8.195136
-3.438339
-2.354951
-3.980801
-3.138302
1.733116
5.150004
1.704920
-5.658140
-10.079960
-10.008246
-7.286443
-5.836510
-8.303940
-7.569627
-3.848715
-1.602255
0.254983
2.960849
-0.908397
-6.699547
-7.256412
-5.656614
-5.420016
-0.533580
6.863497
12.236615
12.212096
3.859123
-7.897868
-15.822390
-14.825734
-7.675062
-0.446852
0.354886
-3.049437
-4.604185
-2.531189
0.138207
2.563955
3.524140
3.400324
1.244886
-0.798076
0.614772
5.401910
11.442223
15.605684
16.397921
9.496413
-2.459173
-10.754223
-12.373637
-9.781473
-6.790891
-5.564379
-6.438446
-6.729904
-1.837339
4.928707
10.595733
12.042295
9.221193
4.977741
3.487353
4.952916
7.098852
8.178869
5.860080
1.671181
-6.622643
-15.062656
-16.146658
-7.159589
2.819846
3.700961
2.503563
2.412540
5.324357
10.130803
8.677805
1.379105
-5.400120
-8.687064
-11.905357
-14.412935
-10.983175
-1.518005
5.271027
5.333241
1.687721
-0.386808
-2.782829
-4.072169
-3.133131
-3.082563
-6.691305
-10.368085
-9.772298
-8.287734
-7.047737
-7.362181
-7.551276
-8.842149
-10.652190
-9.003662
-6.108394
-1.798438
1.379400
2.952535
4.133995
5.876917
4.891907
0.398065
-4.088115
-6.819420
-7.515731
-8.792812
-8.231351
-4.868096
3.381595
9.254266
6.303832
-1.183656
-6.935271
-10.743222
-10.790420
-6.850992
-2.209430
1.162713
3.204755
2.602531
0.812411
1.152904
3.056726
5.274071
3.601024
-1.251393
-2.101555
-0.684722
-0.126632
-0.222559
-3.483759
-6.687648
-7.951551
-8.676671
-10.882677
-11.179345
-9.030344
-3.947152
-1.263352
-2.272267
-3.693085
-3.111396
0.131414
1.293260
-2.378616
-8.054532
-11.746635
-15.046451
-14.349834
-8.413722
-2.475771
1.394700
4.457916
2.114302
-4.180999
-7.831116
-7.227361
-3.295595
2.130543
3.384944
1.601566
4.846522
9.816625
12.197322
5.518927
-7.976696
-15.912864
-16.279408
-12.368176
-6.491827
-2.924766
-2.731074
-1.785599
-2.497235
-6.688892
-9.568224
-6.692877
-2.209150
-1.281757
-3.093944
-4.436611
-3.854309
-1.691516
-1.085922
-2.749775
-2.475174
1.868495
4.311712
-0.150256
-6.156858
-9.288419
-9.844978
-10.168922
-10.714755
-10.627103
-8.669036
-3.603006
2.126235
4.481188
3.897353
4.938754
7.977452
8.915265
8.423985
6.220124
0.840570
-6.269342
-8.896139
-4.101033
3.935658
10.304512
13.684623
13.080561
9.076466
3.437941
-2.073398
-5.743435
-6.596355
-5.144891
-6.974240
-8.962343
-9.069916
-8.794702
-11.707133
-15.264388
-16.614410
-16.729339
-13.870235
-10.377341
-6.521887
-3.591068
0.649931
2.963816
-0.917382
-6.277629
-8.936299
-6.928276
0.336405
8.616743
12.454728
10.452833
3.432106
-1.530643
-2.375594
-0.795717
1.603062
3.399004
3.082722
0.346207
-2.760836
-4.402622
-2.890476
0.878246
2.399587
2.825280
3.817032
1.984312
-3.063637
-7.164578
-8.491614
-9.468044
-8.201383
-5.027836
-2.963728
-4.223341
-7.509365
-8.445646
-7.106351
-5.242371
-4.814839
-6.730921
-9.311746
-10.765664
-9.144105
-5.653050
-1.786870
-1.250846
-3.296260
-4.977275
-3.872740
-0.042110
4.059443
7.940027
8.772413
7.009875
4.863325
2.047126
-2.367032
-3.389126
0.093654
3.307962
4.477164
5.298516
4.787009
1.726244
-0.719733
-0.843856
2.621149
6.654052
7.563669
4.551633
-0.329287
-2.080485
-3.314966
-5.545491
-7.118627
-6.260497
-4.901588
-2.688227
-1.001083
-0.710852
-1.360272
-2.872726
-4.683074
-5.448649
-3.531036
-0.615847
1.064861
-0.770005
-4.543631
-7.581717
-10.019112
-11.057143
-9.175387
-7.724536
-5.843393
-4.484790
-4.831720
-7.645160
-9.187036
-6.959270
-5.231365
-8.313584
-14.099830
-18.756717
-20.423941
-18.479358
-13.246299
-7.316011
-4.104461
-3.363711
-3.647508
-4.169435
-2.306374
1.897541
6.398125
9.311168
9.913698
8.361095
4.725383
2.693761
2.948747
3.326324
1.337608
-0.438415
-0.897208
-1.085384
-0.969843
2.820944
7.581112
8.294585
6.615409
5.269370
3.396502
0.856131
1.195092
3.463006
7.209967
13.778337
20.276217
21.144154
15.886576
10.175416
6.484539
4.091582
5.146162
8.013234
10.746990
13.070376
14.507742
14.868463
13.093666
6.922794
0.462303
-3.381506
-2.924246
-0.282433
2.222386
1.757770
1.970157
5.082409
9.257822
13.231882
14.242329
12.074938
9.163120
8.171980
6.301563
4.794932
4.371383
4.136010
3.540529
3.557997
4.170640
3.438778
2.188053
3.248456
4.400188
3.021970
-0.477667
-2.906175
-1.599060
2.840535
5.877088
6.645727
4.766116
1.166874
-1.143947
-1.968671
-0.717335
2.461422
4.444621
3.892353
1.453119
-1.703573
-5.820451
-8.236699
-8.468088
-6.504198
-2.173708
3.340695
7.945786
8.630757
4.844259
-1.914126
-7.178445
-9.295268
-9.343691
-7.710181
-4.318423
0.255407
5.516662
9.559371
9.871056
6.537222
2.601777
-1.022902
-4.341719
-6.202635
-6.604118
-6.357099
-5.712276
-5.073890
-3.630700
-2.062468
-0.262542
-0.193892
-1.584675
-3.295725
-6.220722
-8.807064
-9.228467
-7.684447
-3.742261
0.455832
2.623222
3.072207
1.021583
-2.801692
-4.811248
-3.380930
-2.035199
0.668522
5.693177
11.643387
17.091284
19.556568
18.551636
14.787205
10.822951
7.445291
4.400463
3.142689
4.612849
6.807209
5.903414
3.077102
0.453676
-2.339843
-3.653395
-3.555323
-2.009158
0.079468
1.194424
-0.474946
-3.323630
-3.843412
-2.302150
-1.037329
-0.808086
-3.624284
-8.684798
-13.135427
-15.425101
-14.200735
-8.180036
-1.081771
1.908198
0.481250
-3.718989
-7.702243
-7.695808
-4.625236
-1.021705
1.735649
2.408974
0.630806
0.046052
2.217120
4.449176
5.371665
5.168165
3.097007
-1.912325
-3.225571
-2.190299
-0.858972
1.680785
3.750103
2.718814
0.450593
-1.905280
-3.903497
-3.297903
0.373053
4.546321
10.485804
14.982097
14.174842
11.312059
10.009541
10.141018
11.385306
13.038737
12.615801
11.665729
8.012548
3.511657
2.428268
3.074010
5.074065
6.067656
3.432891
-0.476503
-2.498625
-2.194296
-2.731241
-3.119238
-3.170113
-2.606813
-1.061874
2.358079
4.640704
5.025330
4.546309
4.912852
5.778031
4.660623
4.199071
4.299594
3.597460
1.854843
0.720886
-0.425637
0.438928
2.990944
2.666080
-0.723839
-3.777862
-4.462221
-3.541877
-1.708545
-0.444030
0.105786
-0.546700
-2.410374
-2.462782
0.466505
2.363278
3.592855
3.423987
1.108875
-3.238472
-9.611924
-13.811550
-14.202613
-10.498558
-6.909431
-4.233599
-1.536007
1.640298
5.862296
8.918463
8.127451
2.324349
-3.155729
-4.040216
-0.248509
4.208248
5.757172
4.890767
5.453454
7.872460
8.889037
6.436318
1.828467
-1.364388
-0.615364
2.825735
2.990925
1.796592
1.181803
1.505746
2.371537
3.967965
3.495074
-0.845837
-6.561901
-10.729653
-10.268103
-5.933629
-3.675829
-3.129691
-3.100883
-5.435302
-9.534404
-16.230881
-21.605532
-22.137879
-17.468735
-9.178896
-2.359217
0.765907
3.073356
4.283932
5.298976
5.236761
3.309647
2.246791
4.051009
5.925715
5.271697
0.231104
-6.963701
-10.721696
-9.425614
-6.761429
-7.144523
-9.474039
-10.752346
-6.131931
-1.740453
1.546184
3.884280
8.219980
12.043867
16.173309
15.319163
11.488227
6.763916
4.679273
6.624469
9.921219
9.946656
8.583455
7.150991
5.276284
6.240147
5.514720
7.672610
7.105631
8.180438
12.338076
16.795446
20.472838
23.013821
17.520258
10.052384
4.490170
0.393213
-1.872249
-3.134007
-4.210960
-4.631751
-5.567112
-10.007628
-12.389551
-11.701209
-10.688616
-8.926079
-7.915019
-8.187782
-8.617461
-8.790926
-9.893623
-10.836034
-9.224895
-7.233729
-5.506436
-4.406192
-3.752788
-1.979218
2.188227
4.552067
2.785852
-4.986045
-11.959269
-15.195338
-14.978354
-10.022042
-3.065369
4.363888
9.092796
15.518348
22.506281
26.807963
26.411384
23.077243
15.995834
8.229453
4.891941
5.003191
7.583096
10.030298
12.299744
11.933199
7.512911
1.609898
-1.197412
-1.851430
0.758203
2.791970
1.902579
-2.437718
-2.993051
2.053977
9.592339
14.413495
12.802969
8.888059
7.836849
12.666280
20.949683
26.183048
26.337205
23.997575
14.113146
2.017808
-5.407773
-8.040393
-7.143648
-4.106482
-2.937587
-2.681988
-0.685917
4.127577
7.364871
6.089935
2.616348
0.354257
-0.899839
-2.501784
-2.055863
2.572827
7.265263
10.953995
11.105086
5.601716
-4.005046
-8.487242
-9.473479
-10.739527
-9.575536
-8.620867
-7.163579
-7.499170
-9.139424
-11.758252
-9.450803
-5.257001
-0.996387
2.370545
5.664844
4.385617
-2.629594
-10.822588
-16.843900
-15.845406
-7.165118
7.623522
16.924421
17.645863
15.368754
8.641323
0.396841
-4.942871
-5.033588
-6.326606
-8.646928
-8.506869
-6.652390
-1.698837
4.158204
9.142099
5.563391
-2.930561
-10.156933
-10.486088
-6.726254
-1.984475
-2.592522
-2.540115
-0.945833
-0.270669
3.347573
7.383541
8.810794
5.955367
1.140952
-6.086033
-12.849934
-12.076085
-0.737128
13.401172
17.426106
14.248880
15.184854
17.228428
17.001024
15.026712
13.326082
13.956501
12.026321
6.442348
-0.514019
-3.344315
-6.043747
-12.576872
-18.390089
-20.016551
-16.009086
-6.873683
4.966055
11.908937
13.216971
8.969229
0.809028
-8.707631
-14.960332
-12.805814
-5.623269
4.081871
11.061530
14.634414
14.949776
10.000206
1.928270
-4.054427
-3.066046
-4.716107
-5.734217
-10.445350
-13.617672
-11.175067
-4.279076
1.383660
6.224737
14.069574
18.832807
21.705702
18.982366
15.023629
11.960106
10.553998
10.176727
12.107212
12.901595
13.365904
15.434302
13.952802
5.437090
-4.175189
-7.621193
-7.463052
-1.806139
3.223727
8.704723
10.283375
7.249579
-2.046111
-12.279615
-15.744620
-9.523180
1.359130
5.860939
7.463802
4.706447
2.389803
2.407272
-0.688125
-7.279175
-14.250253
-17.294775
-19.370223
-18.655831
-17.788201
-10.619754
3.234750
14.069863
19.979925
17.584516
7.667908
-1.487417
-3.848194
-3.228195
-1.000123
1.829865
10.826129
13.393469
15.050578
14.938714
12.905253
14.721116
15.541856
15.968162
8.708384
0.926986
0.010319
1.672332
9.296508
23.760590
26.448068
22.975400
20.806171
12.255521
12.336123
7.512514
4.810938
3.561745
-0.334470
4.578015
1.774689
-2.298056
-2.241665
-1.560372
-2.462328
-6.429646
-9.540060
-8.551373
-9.753368
-9.326449
-10.894987
-15.603668
-15.863559
-13.085978
-4.471582
1.417946
1.839348
1.692546
3.473778
1.892367
-3.847602
-5.182300
-7.229859
-10.463170
-10.888864
-12.541684
-10.927787
-2.352314
6.294569
4.026348
-1.250538
-8.537592
-10.638171
-8.250732
-1.273219
4.776595
10.422169
12.161720
11.104994
7.782500
4.892441
2.678159
4.530493
10.263412
-1.106500
-9.879038
-16.362515
-17.149850
-17.849532
-11.449724
-10.784674
-6.885394
1.641350
6.099640
1.994715
1.371344
3.519426
-0.703492
-10.027378
-16.912030
-12.055936
0.017029
12.970497
19.183662
21.769084
19.622226
13.734843
3.564780
-3.988601
-6.099907
4.798953
14.566614
20.958454
20.316389
13.466674
3.451381
-3.543296
-2.125237
0.449458
-4.651511
-0.786863
-2.327512
-2.438763
4.074747
2.419169
0.509217
-4.801993
-7.808819
-10.445423
-10.390257
-9.614570
-10.364208
-13.367049
-12.873932
-16.519145
-14.317429
-16.223704
-19.192833
-11.928765
-9.872319
-0.559773
2.537155
-0.343710
-10.017590
-19.273745
-19.594012
-14.759984
-14.079917
-3.489983
0.850314
-3.482629
-2.801029
-13.706326
-21.320695
-26.566013
-29.754885
-24.346523
-11.834686
-2.942317
-0.514423
-3.948475
-6.101462
-7.540362
-11.159524
-6.564853
-6.830567
-5.409137
10.616435
21.807365
34.752558
21.849658
8.552631
-4.635290
-9.310565
-4.378465
-7.343610
7.548617
24.768522
38.261385
27.767684
8.074833
-10.756517
-16.817672
-6.980441
-0.529758
3.467900
7.465865
8.157272
9.902952
11.610936
5.506875
-1.155583
-2.478635
1.321040
4.919361
10.327417
16.468254
20.138290
20.246476
18.582623
17.119818
14.593238
12.578778
18.262355
19.913641
15.871237
4.388542
-1.766088
-4.094071
1.049496
7.722067
8.966968
10.229031
5.818857
8.506641
6.622740
7.504774
-3.151359
-11.618647
-8.514057
4.015249
16.805978
15.986464
14.306062
4.149177
-4.026961
-11.432314
-15.968756
-6.616675
2.022545
18.568512
23.535550
24.715171
22.285438
19.494984
9.011396
-1.649946
-7.217063
5.013737
20.710154
25.686693
21.541313
4.356959
-0.068539
-8.763845
-14.976398
-17.134901
-9.781649
-9.313969
2.420648
9.376708
10.449370
4.032704
-2.169429
-0.162018
2.867792
5.076250
-2.277003
-2.021097
-3.487273
0.140470
4.847004
8.517041
8.646679
-2.727218
-11.064561
-22.868136
-22.867523
-18.365407
-8.739951
1.705020
5.093406
7.003663
5.521550
5.160216
2.188022
-3.704878
-2.228589
-4.190948
-2.292030
-0.531945
-1.135394
-1.459952
-5.561506
-0.750463
2.090252
2.807710
1.114742
0.809492
-2.729374
-3.704577
3.083841
8.910235
10.725485
8.902572
3.824283
1.801855
-5.053989
-9.864420
-12.769802
-16.031921
-13.032758
-10.025627
0.385938
12.868966
18.642340
21.034376
5.696533
-10.021952
-19.252976
-14.917583
-5.817118
0.411371
3.572659
5.987068
10.616677
9.333773
-0.413049
-9.731418
-13.562968
-17.316673
-18.989720
-20.561017
-20.238606
-13.422298
-4.295476
3.495422
4.155568
0.900805
-8.907312
-6.920436
-0.296288
6.534731
7.642024
1.260603
-3.420494
-8.298962
-2.696295
-12.699023
-21.658511
-25.193699
-15.028234
-9.278459
-4.741098
-6.988786
-12.276704
-6.427937
-3.955911
-6.524478
-8.350456
-13.601597
-12.744387
-2.106031
5.655752
13.521736
13.261232
10.538202
6.168483
2.739334
-1.374172
-12.586556
-13.675769
-9.378378
-1.655518
9.049650
13.713585
16.788140
6.640143
0.271594
-5.061989
-3.543713
2.892566
4.617713
5.552768
1.271313
5.562880
4.343110
4.669199
7.684911
1.434662
-2.925863
-8.028058
-9.709380
-11.707290
-8.518419
-6.485878
-8.420961
-2.632264
-2.876218
-3.641486
-3.102091
0.668469
3.143254
2.218312
2.055573
3.238873
7.475888
7.575185
9.093461
7.518180
4.853993
2.151497
-0.480510
1.069027
-2.192173
-3.755502
-5.071812
-10.596022
-15.354352
-16.146897
-10.496726
-4.805181
-0.288048
-2.188806
-3.791976
-8.739094
-14.576829
-18.384473
-19.176098
-17.414481
-17.447581
-12.057607
-10.858371
-7.739070
-7.378963
-8.884674
-13.103608
-17.660277
-19.413621
-16.500577
-10.563239
-1.488825
2.727963
3.074892
-0.015908
-5.778249
-4.609354
-5.821463
-3.756129
-3.495319
-1.954977
-1.671795
-5.480359
-7.279367
-7.447622
-4.323724
-4.701301
-5.148755
-5.186758
-3.878111
-4.649815
-6.965233
-12.916057
-16.029842
-10.500116
-9.749866
-8.805004
-8.806231
-11.472869
-15.688738
-16.523270
-16.952641
-17.411741
-13.897701
-10.795562
-14.733152
-17.605742
-14.634162
-9.878591
-4.722458
0.460645
1.848363
-1.834546
-0.787628
0.274613
-1.453906
-4.480652
-8.012776
-9.706356
-6.519937
-5.154899
-3.319727
-6.975973
-8.649940
-6.614027
-4.376761
1.232036
-1.893396
-6.095167
-5.903008
-4.047609
-3.099376
-1.103612
4.083781
4.612450
3.516496
3.742674
5.516550
13.346983
18.710600
21.444968
20.782982
17.317057
15.987875
13.401839
10.921231
7.457145
4.296775
6.804966
5.563435
2.855423
1.964500
2.340851
0.833300
4.878768
5.443295
1.608374
2.885148
3.704968
3.785570
0.795907
-5.062054
-8.581919
-5.788401
3.096612
8.723491
5.479147
-1.293029
-4.332647
-7.396784
-6.075877
-1.257479
0.596693
4.025840
5.712371
5.009317
-3.059554
-6.801613
-9.249735
-4.783170
4.441111
10.601562
12.563921
8.443672
7.131959
9.484153
11.750228
10.710971
8.948127
5.942221
2.698797
-0.989629
-4.518381
-2.952295
1.824116
7.768809
9.025662
8.928815
11.017441
13.861528
15.434357
7.175471
1.051795
1.330994
4.869552
13.224058
17.044267
16.909724
12.964166
12.360103
12.594556
10.298139
4.428532
-0.810964
-3.403435
-5.025914
-1.763795
2.624925
6.275040
8.397072
9.479847
5.828811
2.744141
-1.246469
-0.706767
1.912367
4.007735
5.873554
7.962793
5.537963
4.266705
2.199225
-3.075821
-4.508898
-6.552780
-6.310052
-1.014166
4.270073
6.853043
4.176291
-1.616391
-9.090702
-12.174146
-9.712846
-7.056629
-5.639489
-8.203152
-9.603130
-6.762721
-1.886706
3.404583
3.724848
-2.432846
-10.183903
-16.874863
-16.766984
-11.651612
-5.985811
-4.280585
-4.827644
-6.742499
-8.465808
-9.812459
-11.872890
-15.529443
-18.297524
-18.674489
-16.234030
-9.074470
-3.719128
3.893401
8.001390
3.857236
-0.854203
-3.456481
-3.309067
-1.127886
4.680426
5.531813
0.171566
-3.346459
-3.857660
-4.373458
-4.074339
-0.242177
1.763394
2.733080
2.744420
-1.607831
-3.333285
1.539665
9.544789
13.801419
12.978227
6.523558
-2.098194
-0.788933
3.928021
6.739315
6.579641
5.860344
3.797461
1.359147
-1.384724
-1.735944
5.571030
11.825569
13.814284
8.432891
0.060303
-7.166988
-9.660162
-5.892360
-2.115977
-0.802733
-0.451513
-0.158217
0.674169
-1.447251
-4.283064
-8.106645
-12.915543
-15.458059
-15.043092
-9.252250
-3.808337
-4.481969
-7.364672
-9.167971
-10.781868
-11.153929
-5.969907
3.070183
6.106429
4.553521
-2.618605
-11.181514
-17.053574
-18.997238
-18.036746
-16.029642
-8.773850
-2.522988
-1.285750
-1.787449
-3.039706
-0.117162
1.865730
0.716449
-5.962865
-8.913606
-8.132709
-8.972757
-8.063446
-5.893604
-2.746414
0.742802
5.438610
6.571341
2.257400
-4.942309
-8.961728
-8.757003
-2.876976
2.108144
6.723349
9.314288
9.845715
9.446991
8.295257
5.091675
3.309523
0.604269
1.468527
4.740759
5.916397
