EVENT_NAME: 202302060117
EVENT_ID: 13194
EVENT_DATE_YYYYMMDD: 2023/02/06
EVENT_TIME_HHMMSS: 01:17:32.00000
EVENT_LATITUDE_DEGREE: 37.288
EVENT_LONGITUDE_DEGREE: 37.043
EVENT_DEPTH_KM: 8.6
HYPOCENTER_REFERENCE: AFAD
MAGNITUDE_W: 7.7
MAGNITUDE_W_REFERENCE: AFAD
MAGNITUDE_L: 
MAGNITUDE_L_REFERENCE: 
FOCAL_MECHANISM: 
NETWORK: TK
STATION_CODE: 5001
STATION_NAME: 
STATION_LATITUDE_DEGREE: 38.66045
STATION_LONGITUDE_DEGREE: 34.73317
STATION_ELEVATION_M: 1140.0
LOCATION: Kahramanmaras_Pazarck_Turkiye
SENSOR_DEPTH_M: 
VS30_M/S: 369
SITE_CLASSIFICATION_EC8: B
MORPHOLOGIC_CLASSIFICATION: 
EPICENTRAL_DISTANCE_KM: 253.52
EARTHQUAKE_BACKAZIMUTH_DEGREE: 
DATE_TIME_FIRST_SAMPLE_YYYYMMDD_HHMMSS: 2023/02/06 01:17:53.2037210
DATE_TIME_FIRST_SAMPLE_PRECISION: millisecond
SAMPLING_INTERVAL_S: 0.01
NDATA: 18251
DURATION_S: 
STREAM: HNZ
UNITS: cm/s^2
INSTRUMENT: sensor = CMG-5T/GURALP | digitizer = 
INSTRUMENT_ANALOG/DIGITAL: 
INSTRUMENTAL_FREQUENCY_HZ: 
INSTRUMENTAL_DAMPING: 
FULL_SCALE_G: 
N_BIT_DIGITAL_CONVERTER: 
PGA_CM/S^2: 6.147
TIME_PGA_S: 
BASELINE_CORRECTION: BASELINE REMOVED
FILTER_TYPE: BUTTERWORTH
FILTER_ORDER: 
LOW_CUT_FREQUENCY_HZ: 
HIGH_CUT_FREQUENCY_HZ: 
LATE/NORMAL_TRIGGERED: 
DATABASE_VERSION: 
HEADER_FORMAT: DYNA 1.2
DATA_TYPE: Acceleration
PROCESSING: Automatic Paolucci et al., 2011
DATA_TIMESTAMP_YYYYMMDD_HHMMSS: 
DATA_LICENSE: U (unknown license)
DATA_CITATION: Turkish Accelerometric Archive v 1.0 - Disaster And Emergency Management Presidency, Earthquake Department
DATA_CREATOR: AFAD
ORIGINAL_DATA_MEDIATOR_CITATION: : AFAD - Disaster And Emergency Management Presidency
ORIGINAL_DATA_MEDIATOR: AFAD PROCESS SERVICE
ORIGINAL_DATA_CREATOR_CITATION: AFAD PROCESS SERVICE
ORIGINAL_DATA_CREATOR: network: TK
USER1: GuestUser
USER2: 
USER3: 
USER4: 
USER5: 
[...]
0.542399
0.664962
0.798724
0.941195
1.064691
1.169212
1.230804
1.257245
1.255068
1.223027
1.168278
1.079001
0.953638
0.789703
0.620790
0.449700
0.285454
0.132095
-0.013798
-0.142272
-0.257057
-0.349446
-0.423792
-0.480097
-0.525513
-0.568752
-0.612925
-0.680427
-0.771883
-0.881692
-1.007987
-1.160724
-1.359811
-1.605558
-1.900144
-2.224282
-2.568951
-2.916108
-3.260155
-3.590203
-3.890700
-4.161022
-4.389039
-4.569772
-4.677714
-4.704778
-4.631053
-4.459030
-4.198351
-3.851815
-3.432800
-2.942549
-2.393505
-1.790646
-1.157923
-0.515558
0.119342
0.720646
1.280267
1.782027
2.224995
2.597972
2.893491
3.123374
3.282643
3.376276
3.391519
3.348902
3.274556
3.181856
3.086045
2.988058
2.904068
2.831277
2.773728
2.730489
2.700937
2.681340
2.649299
2.604194
2.530470
2.434348
2.318629
2.183312
2.027465
1.833977
1.592274
1.285556
0.930000
0.538359
0.130231
-0.282874
-0.688513
-1.072377
-1.436332
-1.754871
-2.019905
-2.201260
-2.296449
-2.306092
-2.243877
-2.146200
-2.030481
-1.938093
-1.863435
-1.811175
-1.765447
-1.723763
-1.687990
-1.638840
-1.585024
-1.513478
-1.438509
-1.354519
-1.259953
-1.155121
-1.029759
-0.895064
-0.746683
-0.593635
-0.437165
-0.288472
-0.159999
-0.048324
0.044687
0.133032
0.220444
0.326519
0.462458
0.622972
0.806194
0.994082
1.172638
1.320087
1.419319
1.448560
1.419008
1.344351
1.248540
1.151485
1.056919
0.984439
0.921603
0.874631
0.834191
0.801529
0.771666
0.724071
0.653769
0.552048
0.435085
0.304434
0.154186
-0.018459
-0.215991
-0.432186
-0.666424
-0.895374
-1.111570
-1.297280
-1.447217
-1.570402
-1.662791
-1.739937
-1.794063
-1.833881
-1.851612
-1.850990
-1.837925
-1.809617
-1.760467
-1.668390
-1.538050
-1.379714
-1.213290
-1.042200
-0.863955
-0.697220
-0.549460
-0.432186
-0.331087
-0.239320
-0.150042
-0.058587
0.041890
0.169741
0.320611
0.499478
0.678034
0.844147
0.984130
1.086784
1.155531
1.186328
1.186017
1.155531
1.108248
1.032969
0.930937
0.811485
0.690789
0.594045
0.514099
0.456240
0.418600
0.410512
0.439442
0.497301
0.585335
0.680212
0.776023
0.846325
0.883654
0.885832
0.857213
0.814907
0.762958
0.710076
0.646306
0.584091
0.512233
0.446286
0.389360
0.334300
0.292616
0.249377
0.210182
0.166010
0.120593
0.072999
0.013584
-0.056407
-0.145996
-0.237141
-0.324863
-0.390189
-0.439027
-0.477289
-0.504974
-0.538259
-0.564078
-0.602962
-0.637491
-0.666110
-0.682908
-0.687263
-0.694729
-0.691618
-0.683530
-0.660822
-0.626292
-0.579631
-0.511195
-0.415385
-0.291267
-0.141018
0.033182
0.224803
0.426068
0.637597
0.853171
1.070922
1.268142
1.437366
1.563351
1.652629
1.707689
1.731019
1.735996
1.712355
1.683425
1.635209
1.575172
1.491182
1.394749
1.298939
1.212150
1.148069
1.083988
1.023017
0.948982
0.858149
0.758917
0.665284
0.588760
0.533700
0.491083
0.447222
0.398072
0.334924
0.247824
0.137704
0.000210
-0.158748
-0.337304
-0.519282
-0.689127
-0.827244
-0.923054
-0.994601
-1.039395
-1.083879
-1.129607
-1.185289
-1.249370
-1.300697
-1.350779
-1.392774
-1.444101
-1.501027
-1.560753
-1.612080
-1.642565
-1.651898
-1.619235
-1.541156
-1.399928
-1.212662
-0.987135
-0.743253
-0.495017
-0.243670
-0.010676
0.206764
0.399318
0.572274
0.723456
0.855662
0.964849
1.051949
1.122563
1.175756
1.232994
1.296764
1.386042
1.497406
1.623390
1.757463
1.882203
2.003833
2.105865
2.190165
2.240248
2.262646
2.276022
2.273533
2.257980
2.212252
2.137283
2.032141
1.905534
1.756841
1.577352
1.376710
1.155848
0.929698
0.705104
0.502284
0.337105
0.220763
0.163215
0.146417
0.169747
0.220141
0.296043
0.382521
0.470555
0.555478
0.627647
0.695461
0.754254
0.817402
0.868107
0.910413
0.942142
0.948986
0.931255
0.877128
0.790650
0.663110
0.511306
0.353281
0.209877
0.095713
0.001458
-0.066667
-0.113950
-0.140702
-0.174920
-0.238068
-0.331701
-0.457686
-0.592069
-0.737029
-0.869235
-0.975000
-1.041569
-1.066144
-1.063967
-1.030993
-0.983710
-0.919006
-0.852748
-0.793644
-0.760981
-0.751649
-0.756626
-0.785245
-0.831595
-0.908119
-1.003618
-1.132402
-1.284206
-1.457162
-1.631985
-1.776323
-1.882710
-1.932170
-1.934037
-1.901996
-1.857824
-1.817695
-1.793432
-1.794987
-1.823917
-1.878043
-1.954256
-2.046956
-2.151788
-2.255064
-2.345897
-2.412155
-2.461305
-2.484013
-2.483080
-2.454461
-2.370160
-2.238888
-2.046956
-1.804941
-1.512532
-1.193060
-0.863945
-0.537629
-0.226867
0.068341
0.328398
0.573834
0.811183
1.068129
1.341251
1.615929
1.883141
2.121111
2.336063
2.521151
2.680732
2.807650
2.920880
3.034733
3.157296
3.300700
3.445349
3.594664
3.728115
3.838235
3.920669
3.960486
3.960486
3.909159
3.841657
3.759844
3.673988
3.584710
3.477701
3.374736
3.264305
3.154808
3.034423
2.915282
2.800185
2.685088
2.573413
2.467026
2.379925
2.299046
2.222211
2.130134
2.020014
1.880965
1.712674
1.528830
1.336587
1.154298
0.981342
0.828605
0.689244
0.557660
0.437586
0.324356
0.232900
0.157621
0.104427
0.062121
0.029459
0.012039
0.000529
0.007373
0.022304
0.050923
0.086697
0.123403
0.162909
0.203349
0.251565
0.295427
0.336488
0.359819
0.367907
0.368840
0.369151
0.382527
0.391237
0.400259
0.398392
0.391549
0.383150
0.368840
0.351731
0.327779
0.310359
0.293561
0.300716
0.333378
0.390305
0.465895
0.550196
0.644451
0.732485
0.822696
0.903264
0.983521
1.066889
1.151189
1.240778
1.328501
1.416224
1.488393
1.541275
1.565539
1.552785
1.502391
1.401915
1.260376
1.076843
0.863447
0.631698
0.404615
0.191841
-0.009423
-0.191712
-0.384577
-0.571532
-0.767819
-0.968461
-1.153238
-1.329305
-1.476754
-1.595895
-1.677707
-1.713792
-1.682995
-1.577541
-1.389031
-1.116220
-0.788038
-0.410396
-0.013778
0.387507
0.780392
1.150569
1.495549
1.797600
2.049881
2.233414
2.373086
2.475117
2.549775
2.611990
2.653051
2.690069
2.719932
2.742952
2.740463
2.721176
2.688825
2.644030
2.589282
2.497515
2.373086
2.198574
1.987356
1.740675
1.461954
1.162079
0.836697
0.501049
0.155136
-0.176156
-0.493762
-0.778083
-1.022275
-1.216073
-1.351390
-1.432580
-1.443779
-1.393696
-1.283576
-1.133328
-0.950106
-0.747597
-0.551932
-0.372132
-0.228416
-0.119541
-0.057326
-0.042394
-0.064481
-0.127006
-0.213796
-0.336047
-0.472608
-0.618812
-0.759728
-0.889135
-1.007031
-1.100664
-1.189320
-1.266466
-1.349211
-1.430401
-1.495727
-1.546743
-1.579405
-1.604291
-1.618600
-1.615490
-1.580960
-1.519057
-1.430090
-1.310949
-1.170966
-1.002987
-0.826608
-0.642453
-0.458920
-0.276631
-0.098386
0.053106
0.181268
0.268058
0.330583
0.362624
0.370401
0.353292
0.302276
0.227929
0.123720
0.009245
-0.127316
-0.273520
-0.427812
-0.578994
-0.706533
-0.805144
-0.848383
-0.837184
-0.764393
-0.645874
-0.494070
-0.319247
-0.146291
0.024177
0.164782
0.266814
0.319386
0.321874
0.281124
0.205222
0.112522
0.012357
-0.074744
-0.150956
-0.201039
-0.229658
-0.249255
-0.273830
-0.322357
-0.389549
-0.495314
-0.640274
-0.844338
-1.105017
-1.412357
-1.771024
-2.166087
-2.593501
-3.014071
-3.399802
-3.731717
-4.001728
-4.202370
-4.324933
-4.386214
-4.393369
-4.375326
-4.339553
-4.302224
-4.264895
-4.215435
-4.151354
-4.056476
-3.948534
-3.829393
-3.699987
-3.548494
-3.359051
-3.136322
-2.864444
-2.551816
-2.183195
-1.766979
-1.310946
-0.821628
-0.329822
0.158874
0.630149
1.087116
1.515152
1.917058
2.292834
2.637503
2.943288
3.194013
3.392478
3.531527
3.617072
3.657823
3.666222
3.648802
3.610229
3.557346
3.490466
3.426074
3.363859
3.306933
3.243474
3.164462
3.073006
2.952310
2.814816
2.645281
2.452727
2.232176
1.965276
1.651403
1.283404
0.876520
0.428886
-0.043011
-0.528285
-1.006093
-1.461504
-1.891096
-2.283047
-2.641714
-2.956831
-3.233064
-3.471346
-3.664211
-3.807305
-3.885695
-3.909025
-3.872319
-3.792373
-3.674476
-3.522051
-3.338517
-3.120144
-2.880618
-2.611229
-2.336240
-2.061563
-1.800884
-1.574111
-1.389956
-1.246863
-1.125233
-1.015735
-0.903438
-0.791452
-0.682576
-0.577433
-0.481312
-0.388301
-0.309288
-0.234631
-0.178015
-0.134465
-0.098070
-0.068829
-0.024345
0.021694
0.084530
0.142701
0.200561
0.255932
0.309125
0.366985
0.425778
0.501057
0.587536
0.679924
0.772002
0.857858
0.936249
1.010595
1.075609
1.114804
1.118537
1.077476
0.990686
0.869679
0.725341
0.592824
0.479283
0.398404
0.328101
0.266198
0.210516
0.162922
0.125904
0.107862
0.123104
0.161678
0.220159
0.294195
0.376629
0.472129
0.568561
0.663750
0.740585
0.787868
0.799066
0.759871
0.735919
0.663128
0.603091
0.563895
0.537454
0.506036
0.490171
0.496704
0.483639
0.492971
0.477417
0.480839
0.478351
0.484572
0.490483
0.506658
0.514435
0.494216
0.453154
0.378808
0.294818
0.192475
0.100397
0.028540
-0.007234
0.004587
0.048448
0.139282
0.269621
0.437601
0.636376
0.847906
1.080278
1.307361
1.525112
1.719844
1.896844
2.048026
2.160945
2.225026
2.239336
2.222227
2.172144
2.094376
1.978035
1.833697
1.664784
1.462276
1.235504
0.980113
0.717256
0.450045
0.182833
-0.084379
-0.350346
-0.591117
-0.813534
-1.016664
-1.207041
-1.376264
-1.526202
-1.657474
-1.772882
-1.878336
-1.962015
-2.035117
-2.099509
-2.163279
-2.220827
-2.267177
-2.300462
-2.311038
-2.301706
-2.257534
-2.191275
-2.099509
-1.988767
-1.859982
-1.704757
-1.537711
-1.345779
-1.141715
-0.918986
-0.668884
-0.401983
-0.128239
0.134929
0.387209
0.613048
0.815557
0.991935
1.144672
1.280300
1.394775
1.494007
1.570220
1.639278
1.689361
1.727623
1.753442
1.770551
1.786105
1.785794
1.786727
1.778328
1.766818
1.743177
1.696516
1.638345
1.572398
1.516716
1.471299
1.442992
1.427749
1.422461
1.424327
1.416240
1.396953
1.357447
1.302387
1.228974
1.142807
1.054462
0.964873
0.885549
0.811825
0.745256
0.672153
0.594385
0.514751
0.434805
0.375390
0.334639
0.316286
0.309132
0.311309
0.318153
0.314109
0.300733
0.277091
0.246295
0.209900
0.179726
0.154840
0.142708
0.130265
0.113467
0.099780
0.081427
0.065562
0.043476
0.022945
0.000237
-0.025893
-0.040514
-0.053268
-0.048290
-0.029315
-0.002252
0.027923
0.058408
0.097914
0.140531
0.196835
0.253762
0.314732
0.365126
0.402144
0.420497
0.415831
0.398411
0.371659
0.349572
0.318776
0.283936
0.248163
0.210523
0.154841
0.065252
-0.057311
-0.212225
-0.381760
-0.570581
-0.773400
-0.975598
-1.174373
-1.353863
-1.522153
-1.672090
-1.809584
-1.929036
-2.019247
-2.086128
-2.125323
-2.144610
-2.136522
-2.113191
-2.065286
-1.996539
-1.900417
-1.774433
-1.627295
-1.439096
-1.213257
-0.945423
-0.646171
-0.319544
0.035079
0.394679
0.749303
1.078729
1.375493
1.624351
1.816594
1.956266
2.042433
2.079140
2.050832
1.977419
1.862944
1.727627
1.575202
1.419043
1.284660
1.161786
1.053844
0.935636
0.817739
0.703265
0.602477
0.522531
0.466849
0.440719
0.436986
0.454095
0.463116
0.466538
0.461250
0.439164
0.412101
0.390014
0.380682
0.374150
0.369795
0.364818
0.348331
0.333399
0.296693
0.247543
0.182529
0.111605
0.044102
-0.036466
-0.129477
-0.235553
-0.341317
-0.473835
-0.620350
-0.786774
-0.952887
-1.096602
-1.225387
-1.333329
-1.410164
-1.440960
-1.438782
-1.393677
-1.323063
-1.226320
-1.090692
-0.937022
-0.764065
-0.565911
-0.342561
-0.112056
0.106628
0.300427
0.453164
0.565150
0.641052
0.682113
0.675892
0.635453
0.565150
0.458141
0.326868
0.165110
-0.011890
-0.211288
-0.423439
-0.635280
-0.842144
-1.019455
-1.180591
-1.322129
-1.456513
-1.569743
-1.681107
-1.787183
-1.864640
-1.925921
-1.952051
-1.963872
-1.963561
-1.958584
-1.948630
-1.935253
-1.922499
-1.902280
-1.876772
-1.831977
-1.755142
-1.653421
-1.524948
-1.383410
-1.224762
-1.060827
-0.898758
-0.728290
-0.554400
-0.373356
-0.192933
0.005531
0.215817
0.422369
0.613057
0.783214
0.906399
0.994121
1.053225
1.095842
1.139082
1.178588
1.226804
1.272221
1.319504
1.358699
1.378608
1.371764
1.329459
1.254490
1.149347
1.017452
0.863782
0.678383
0.474630
0.239459
-0.025886
-0.321094
-0.648965
-0.992701
-1.342658
-1.679239
-1.988134
-2.248191
-2.460343
-2.611213
-2.709201
-2.758973
-2.772971
-2.758039
-2.731909
-2.699246
-2.660362
-2.635787
-2.611835
-2.589438
-2.562374
-2.532200
-2.502648
-2.477762
-2.444788
-2.400305
-2.348978
-2.281164
-2.172288
-2.027639
-1.856238
-1.681726
-1.513436
-1.348878
-1.201741
-1.074823
-0.974035
-0.887868
-0.820054
-0.753173
-0.698735
-0.645231
-0.594215
-0.560930
-0.541021
-0.550042
-0.561863
-0.589237
-0.608835
-0.609768
-0.604791
-0.588615
-0.569329
-0.550975
-0.533244
-0.526089
-0.549420
-0.600125
-0.674782
-0.775881
-0.893155
-1.020073
-1.152590
-1.261154
-1.338612
-1.382473
-1.405181
-1.398960
-1.382162
-1.346388
-1.292884
-1.230669
-1.148546
-1.076377
-1.006074
-0.960346
-0.924573
-0.906220
-0.905909
-0.909952
-0.918662
-0.927372
-0.938260
-0.924262
-0.891910
-0.836539
-0.772458
-0.690024
-0.587369
-0.475383
-0.345666
-0.202261
-0.038948
0.119700
0.279902
0.436061
0.598130
0.759577
0.905781
1.046075
1.178281
1.313909
1.432428
1.532904
1.623116
1.695907
1.739146
1.740079
1.699018
1.613161
1.484688
1.317020
1.123222
0.912936
0.681498
0.446638
0.202757
-0.044235
-0.300870
-0.583013
-0.887865
-1.223201
-1.570359
-1.923115
-2.271206
-2.625207
-2.972364
-3.306146
-3.632772
-3.949755
-4.264250
-4.556348
-4.831336
-5.077395
-5.299812
-5.499832
-5.663456
-5.797528
-5.903293
-5.990705
-6.057274
-6.103313
-6.132243
-6.146863
-6.141886
-6.102691
-6.035188
-5.935333
-5.809349
-5.653190
-5.470901
-5.263416
-5.025134
-4.770054
-4.491955
-4.199546
-3.897494
-3.601975
-3.316410
-3.052309
-2.820248
-2.607786
-2.417409
-2.241030
-2.077717
-1.927780
-1.778465
-1.627906
-1.466459
-1.311855
-1.164096
-1.032823
-0.940434
-0.875731
-0.836536
-0.805739
-0.792052
-0.792674
-0.807917
-0.828448
-0.856133
-0.883196
-0.886307
-0.878530
-0.848045
-0.803250
-0.739169
-0.665756
-0.584877
-0.496221
-0.414409
-0.328553
-0.250785
-0.163062
-0.075028
0.017360
0.127169
0.251287
0.390026
0.522854
0.663770
0.793177
0.904230
0.992574
1.067543
1.131313
1.167397
1.180774
1.166464
1.127891
1.054789
0.953379
0.823040
0.674347
0.517877
0.348654
0.183785
0.016117
-0.145641
-0.304288
-0.466668
-0.622205
-0.786451
-0.951320
-1.125832
-1.301899
-1.475166
-1.654656
-1.839122
-2.036031
-2.225474
-2.410252
-2.574809
-2.730968
-2.875617
-2.987603
-3.070348
-3.125408
-3.159626
-3.161492
-3.137851
-3.098656
-3.054172
-3.018088
-2.989158
-2.983247
-2.996001
-3.007200
-3.027109
-3.054483
-3.082791
-3.105810
-3.121986
-3.115453
-3.093056
-3.053550
-2.996001
-2.923210
-2.837976
-2.739366
-2.614314
-2.479309
-2.315684
-2.134018
-1.941775
-1.738644
-1.542979
-1.343581
-1.147916
-0.952562
-0.758453
-0.577408
-0.416584
-0.275667
-0.141595
-0.029920
0.065269
0.135260
0.182543
0.199030
0.183477
0.162013
0.127483
0.103531
0.073979
0.037272
0.003677
-0.028364
-0.055427
-0.085601
-0.109243
-0.131329
-0.144705
-0.159636
-0.171146
-0.179856
-0.181100
-0.168969
-0.161503
-0.146882
-0.145016
-0.145638
-0.141594
-0.134750
-0.126973
-0.129773
-0.154348
-0.193543
-0.230872
-0.279710
-0.320772
-0.356856
-0.387963
-0.403828
-0.406939
-0.404761
-0.414093
-0.420004
-0.420937
-0.412849
-0.378320
-0.325126
-0.252335
-0.174878
-0.093377
-0.010942
0.067448
0.137128
0.198410
0.264668
0.316307
0.372922
0.428604
0.494240
0.574808
0.649777
0.728167
0.799403
0.864106
0.908901
0.940008
0.951829
0.966138
0.990091
1.010622
1.049195
1.096478
1.152782
1.207842
1.268502
1.343781
1.426527
1.524515
1.639301
1.783327
1.946952
2.120531
2.310285
2.499418
2.684506
2.845020
2.982514
3.083302
3.142406
3.162936
3.137428
3.089834
3.022954
2.962606
2.892925
2.820445
2.745166
2.670197
2.606116
2.536436
2.463334
2.379655
2.299709
2.216031
2.120531
2.009478
1.881316
1.748799
1.597618
1.430572
1.240506
1.035198
0.831445
0.627693
0.449448
0.301999
0.205256
0.148018
0.125932
0.115978
0.116289
0.127799
0.145841
0.177259
0.217699
0.260938
0.307288
0.361726
0.387856
0.421452
0.455359
0.479312
0.488333
0.492066
0.479623
0.453804
0.409320
0.333730
0.252229
0.169794
0.092337
0.012080
-0.071287
-0.156832
-0.232423
-0.310191
-0.372717
-0.415645
-0.419378
-0.393247
-0.356230
-0.302103
-0.239577
-0.167408
-0.102705
-0.041735
0.009592
0.070252
0.149264
0.235120
0.346173
0.457538
0.582278
0.709818
0.834869
0.966764
1.083417
1.194470
1.281881
1.362449
1.433374
1.506476
1.575845
1.630905
1.669167
1.672278
1.654236
1.606642
1.554693
1.489367
1.412532
1.334764
1.260418
1.196337
1.134433
1.072530
1.004716
0.946234
0.896151
0.863178
0.849802
0.850735
0.875310
0.904862
0.941568
0.982319
1.024936
1.082485
1.131945
1.169896
1.202248
1.230866
1.249220
1.248287
1.227134
1.201315
1.181717
1.164297
1.165230
1.169274
1.194160
1.228378
1.260730
1.311746
1.373649
1.471637
1.593578
1.736361
1.885987
2.043079
2.211991
2.383392
2.556660
2.707842
2.847825
2.955456
3.042556
3.108193
3.153609
3.191560
3.211780
3.235111
3.249109
3.265285
3.290171
3.325633
3.375094
3.424243
3.482725
3.542762
3.595645
3.632351
3.655993
3.675901
3.685856
3.687100
3.669058
3.646972
3.616798
3.584757
3.555516
3.520365
3.494546
3.467172
3.450685
3.424866
3.398114
3.356741
3.300748
3.254398
3.202760
3.165120
3.118148
3.066821
3.007406
2.930883
2.841916
2.733351
2.619188
2.496003
2.378417
2.266742
2.168132
2.080409
2.004819
1.951936
1.913674
1.900298
1.895632
1.908697
1.932339
1.956292
1.996420
2.044325
2.113695
2.187108
2.258655
2.319625
2.359753
2.384328
2.389928
2.389928
2.369708
2.330513
2.265499
2.180265
2.085076
1.990510
1.920208
1.863281
1.829686
1.813199
1.815687
1.824397
1.838707
1.866703
1.897811
1.935140
1.957226
1.973402
1.987089
2.006375
2.026284
2.030639
2.013841
1.967491
1.917720
1.853639
1.776493
1.712101
1.664818
1.631222
1.597626
1.567452
1.544744
1.527946
1.512081
1.497772
1.496216
1.512081
1.534790
1.541322
1.528257
1.490617
1.433691
1.367744
1.296508
1.240826
1.192610
1.153414
1.127907
1.123863
1.145638
1.186077
1.244248
1.302419
1.365255
1.419693
1.473198
1.529191
1.579274
1.617225
1.644910
1.679439
1.708680
1.746942
1.798891
1.867950
1.947584
2.034996
2.135161
2.215107
2.283543
2.333626
2.351046
2.345758
2.306874
2.263013
2.230972
2.213241
2.199243
2.178712
2.155382
2.135473
2.114320
2.088190
2.069837
2.036241
2.011355
1.992380
1.966872
1.956295
1.968427
2.012289
2.063616
2.133607
2.221952
2.318696
2.436903
2.563199
2.689184
2.806147
2.914711
3.017366
3.103222
3.162637
3.189389
3.186901
3.141484
3.055939
2.938664
2.807392
2.651233
2.450902
2.231285
2.008556
1.785206
1.549102
1.321707
1.123865
0.952775
0.797239
0.661300
0.550869
0.462524
0.395333
0.324097
0.253172
0.185358
0.131232
0.096392
0.061863
0.043198
0.047553
0.079594
0.122211
0.182248
0.252239
0.319431
0.391289
0.445416
0.497676
0.540293
0.550870
0.558024
0.548692
0.517274
0.471857
0.412442
0.358316
0.310411
0.288635
0.251929
0.203402
0.161096
0.133410
0.122212
0.093593
0.073995
0.075240
0.073373
0.057820
0.063419
0.068396
0.075551
0.082706
0.091105
0.107592
