EVENT_NAME: 202302060117
EVENT_ID: 13194
EVENT_DATE_YYYYMMDD: 2023/02/06
EVENT_TIME_HHMMSS: 01:17:32.00000
EVENT_LATITUDE_DEGREE: 37.288
EVENT_LONGITUDE_DEGREE: 37.043
EVENT_DEPTH_KM: 8.6
HYPOCENTER_REFERENCE: AFAD
MAGNITUDE_W: 7.7
MAGNITUDE_W_REFERENCE: AFAD
MAGNITUDE_L: 
MAGNITUDE_L_REFERENCE: 
FOCAL_MECHANISM: 
NETWORK: TK
STATION_CODE: 0213
STATION_NAME: 
STATION_LATITUDE_DEGREE: 37.79667
STATION_LONGITUDE_DEGREE: 37.92957
STATION_ELEVATION_M: 602.0
LOCATION: Kahramanmaras_Pazarck_Turkiye
SENSOR_DEPTH_M: 
VS30_M/S: None
SITE_CLASSIFICATION_EC8: unknown
MORPHOLOGIC_CLASSIFICATION: 
EPICENTRAL_DISTANCE_KM: 96.48
EARTHQUAKE_BACKAZIMUTH_DEGREE: 
DATE_TIME_FIRST_SAMPLE_YYYYMMDD_HHMMSS: 2023/02/06 01:17:26.1896220
DATE_TIME_FIRST_SAMPLE_PRECISION: millisecond
SAMPLING_INTERVAL_S: 0.01
NDATA: 4104
DURATION_S: 
STREAM: HNN
UNITS: cm/s^2
INSTRUMENT: sensor = ACEBOX/SARA | digitizer = 
INSTRUMENT_ANALOG/DIGITAL: 
INSTRUMENTAL_FREQUENCY_HZ: 
INSTRUMENTAL_DAMPING: 
FULL_SCALE_G: 
N_BIT_DIGITAL_CONVERTER: 
PGA_CM/S^2: 242.279
TIME_PGA_S: 
BASELINE_CORRECTION: BASELINE REMOVED
FILTER_TYPE: BUTTERWORTH
FILTER_ORDER: 
LOW_CUT_FREQUENCY_HZ: 
HIGH_CUT_FREQUENCY_HZ: 
LATE/NORMAL_TRIGGERED: 
DATABASE_VERSION: 
HEADER_FORMAT: DYNA 1.2
DATA_TYPE: Acceleration
PROCESSING: Automatic Paolucci et al., 2011
DATA_TIMESTAMP_YYYYMMDD_HHMMSS: 
DATA_LICENSE: U (unknown license)
DATA_CITATION: Turkish Accelerometric Archive v 1.0 - Disaster And Emergency Management Presidency, Earthquake Department
DATA_CREATOR: AFAD
ORIGINAL_DATA_MEDIATOR_CITATION: : AFAD - Disaster And Emergency Management Presidency
ORIGINAL_DATA_MEDIATOR: AFAD PROCESS SERVICE
ORIGINAL_DATA_CREATOR_CITATION: AFAD PROCESS SERVICE
ORIGINAL_DATA_CREATOR: network: TK
USER1: GuestUser
USER2: 
USER3: 
USER4: 
USER5: 
[...]
3.220353
2.935026
2.969066
2.817238
2.234053
1.410525
0.336132
-0.782682
-1.406781
-1.392380
-1.049493
-0.760380
-0.812144
-1.200809
-1.528687
-1.561746
-1.840527
-2.884994
-4.128655
-4.662275
-4.534716
-4.372789
-4.357686
-4.397058
-4.298724
-3.483801
-1.749119
0.282485
2.075148
3.573461
4.582202
4.498174
3.318573
2.029087
1.144304
0.488408
0.064206
-0.345501
-0.938038
-1.256798
-1.034784
-0.822357
-1.435935
-2.989144
-4.482969
-4.766192
-3.803275
-2.694235
-2.418449
-2.834468
-2.988635
-2.364724
-1.799263
-2.267887
-3.443747
-4.531466
-4.933224
-4.252267
-2.854020
-1.492245
-0.638278
-0.536436
-0.993604
-1.196167
-0.252889
1.895614
4.374939
6.068005
6.365301
5.619160
4.585682
3.776883
3.151381
2.084937
0.615661
-0.374798
-0.391492
0.468320
1.487114
2.021481
2.199540
2.076468
1.570904
0.671860
-0.519665
-1.426191
-1.921468
-2.618746
-3.637027
-4.430395
-4.729283
-4.845340
-5.042759
-5.573340
-6.448771
-6.758412
-5.872415
-4.291105
-2.964399
-2.482637
-2.356715
-1.931064
-1.113569
0.358558
2.415412
4.131390
4.463288
2.823339
-0.457866
-3.971933
-6.156161
-6.594157
-6.023319
-5.326463
-4.917880
-4.642327
-4.201246
-3.546474
-2.534927
-0.580710
2.503917
5.468840
6.704598
5.946767
4.115572
2.261700
0.594865
-1.306469
-3.354627
-5.200785
-6.791168
-8.178615
-9.199702
-8.865232
-6.470307
-2.890030
0.764127
3.686966
4.987252
4.249762
2.001707
0.032104
-0.269822
0.459765
1.211797
1.398039
0.448026
-1.390650
-3.264863
-4.659090
-5.018297
-3.546169
-0.693703
1.769491
3.118640
3.690414
3.302217
2.514927
3.046488
4.755218
5.370010
3.762326
1.276266
-0.082658
0.102181
1.055512
1.608816
0.826904
0.238342
1.505663
3.013327
2.828767
0.861269
-1.893892
-3.852740
-3.859147
-2.238091
-0.572847
0.332322
0.093988
-2.180018
-5.644053
-8.142037
-7.797280
-4.301170
-0.346817
1.867850
2.175433
0.380477
-2.711118
-5.777697
-7.544130
-6.365886
-2.926355
0.017526
0.938360
0.091685
-1.100775
-0.985607
0.432513
1.566569
2.144422
2.938303
3.117298
1.614589
-1.760603
-6.036148
-8.027026
-6.211216
-3.291417
-2.573987
-5.374271
-10.125593
-13.082521
-11.673987
-6.803617
-1.841364
0.786891
1.379706
1.067493
0.277632
-0.275159
0.520358
2.687799
4.803336
4.977888
3.287674
1.557246
-0.081066
-1.777359
-2.594107
-2.512138
-1.465522
0.026478
0.444881
-0.710172
-3.386310
-5.996984
-6.680234
-5.946906
-4.310420
-2.398286
-1.405209
-2.577329
-7.212220
-12.512966
-14.238250
-11.822517
-6.195345
-0.745625
1.677122
2.587902
2.251139
0.950431
1.530388
4.514248
8.203708
10.349873
9.630151
7.559081
5.853903
5.450509
7.001893
9.157410
9.101905
5.593216
0.406563
-3.566448
-4.609512
-3.970404
-5.003649
-8.033054
-10.600710
-11.965011
-12.766095
-13.430875
-13.442892
-11.468569
-7.095953
-2.209450
0.902531
3.491274
7.245029
10.094689
10.532965
9.666886
8.434212
5.916122
0.895932
-4.573147
-8.013101
-9.891990
-10.582253
-9.618402
-6.896862
-2.780955
1.414209
3.467088
2.265978
0.925758
3.150478
7.606092
11.506204
13.819534
13.017047
7.200077
-2.795552
-12.833497
-19.981709
-23.353160
-21.791255
-17.234406
-13.396017
-9.250184
-1.893848
6.554089
11.534344
13.715344
15.713515
16.704488
17.654078
20.031000
21.719156
20.581638
14.842990
5.923764
-0.961192
-4.686144
-8.297471
-13.746912
-19.459374
-22.049708
-21.227304
-19.613729
-18.709028
-15.941430
-8.561012
-0.323961
3.047067
1.157190
-1.984906
-3.238153
-2.896202
-2.752277
-5.734456
-12.527062
-18.842955
-21.161149
-19.336456
-15.509756
-12.021362
-9.418357
-8.318903
-7.913125
-6.368521
-2.532002
5.300112
14.119553
18.226107
16.588263
11.038290
7.078605
8.897220
11.460712
9.114229
2.969241
-2.744157
-5.876433
-8.610786
-13.289631
-18.111326
-18.591640
-13.705138
-7.967379
-5.583677
-7.726289
-11.845423
-13.474617
-12.909389
-11.998376
-9.289461
-4.314817
2.625594
10.089010
13.381483
11.815415
9.945878
9.864188
11.328132
13.654321
14.448904
11.419966
4.849467
-1.246891
-1.975263
1.711158
3.704653
1.433920
-1.943610
-3.036940
-1.517586
-0.267566
-1.208460
-1.576552
1.196891
5.978886
8.956668
7.738957
6.678826
8.225067
7.498098
3.739712
1.432740
2.766927
5.051734
2.871246
-4.231843
-12.052923
-16.368213
-14.305280
-9.967734
-9.096933
-9.668194
-9.848780
-10.712521
-10.351165
-7.040456
-1.421934
2.906962
0.973364
-6.237739
-13.494667
-16.955662
-15.482366
-11.561446
-8.241853
-7.150114
-7.534103
-7.686867
-8.241528
-7.157972
-3.037389
0.602740
4.466613
9.199511
10.538140
6.628955
-1.598231
-10.080256
-14.529512
-15.451937
-15.100400
-16.638412
-20.903904
-23.380846
-20.541005
-13.178590
-4.633160
1.665478
5.383695
9.587744
16.132804
21.402032
21.372246
18.463246
17.759188
20.133072
22.642557
22.770116
18.863504
10.675362
2.977726
0.831841
2.967485
7.838790
13.713554
12.740162
3.311024
-4.634671
-4.723608
0.589107
3.928339
1.817523
-1.068331
-3.437960
-6.349765
-8.953426
-13.630868
-18.164058
-17.168877
-10.781630
-0.925533
6.071458
4.288192
-2.319481
-8.578328
-11.210044
-6.493044
2.308861
7.722576
8.477881
6.534230
2.577818
-3.125994
-12.390071
-22.960841
-27.798200
-27.262665
-25.916555
-26.636744
-30.684804
-32.734132
-28.681584
-21.444484
-16.071917
-17.156597
-19.911524
-15.793981
-6.440782
1.707427
3.453798
-0.557322
-4.511863
-5.427508
-3.478434
-2.954822
-6.512610
-10.858527
-13.203140
-9.415018
-0.135932
6.729430
8.962568
8.851654
11.571557
21.024120
30.266967
32.189621
27.949847
23.112955
21.801258
21.218074
18.487695
14.448753
10.160583
7.791422
8.454610
9.772899
7.819195
3.141285
0.460705
0.464819
0.785729
-1.385641
-6.341302
-9.467265
-8.781399
-5.247413
-1.697997
-3.554208
-11.129100
-19.106123
-19.975008
-10.473347
2.637208
10.001727
6.634719
-1.353760
-2.685096
1.059774
2.239889
-0.237054
-2.668873
-1.237427
1.229508
-0.248419
-4.370827
-7.827146
-10.197009
-11.600354
-10.671806
-8.250929
-6.788388
-6.382143
-6.921841
-7.589894
-6.974166
-6.133759
-5.576247
-5.026917
-4.642883
-4.064562
-6.672431
-14.656702
-21.023096
-21.412930
-21.988633
-27.769598
-35.363428
-38.619617
-36.022925
-29.585645
-19.876606
-7.891084
2.854612
9.481268
12.652867
15.884085
21.064003
26.319437
27.524568
21.360877
11.811099
6.289883
4.639881
3.117299
0.652514
-1.181719
-0.559212
-0.831446
-4.630278
-10.910400
-18.674434
-19.885364
-8.376788
6.995521
14.991995
13.944489
10.199664
8.451234
7.616484
6.520114
2.928660
-3.035602
-6.287349
-6.849726
-9.590391
-14.063261
-13.777889
-7.570198
-0.652932
6.873141
14.196746
16.893504
16.437972
15.018729
12.639280
9.300093
4.617975
0.279305
-5.396919
-14.420653
-22.025003
-26.347074
-29.779779
-32.392792
-33.470224
-33.114011
-29.898691
-21.209242
-12.146420
-9.934090
-10.365073
-5.955517
5.335394
16.472467
16.460215
8.387335
2.781484
2.082569
3.236031
1.750623
-3.039744
-8.099678
-10.918666
-10.564090
-9.177065
-5.560549
2.327910
7.060106
3.189499
-3.082207
-5.833394
-7.747586
-12.799806
-17.341879
-15.831643
-11.123762
-9.916995
-12.705121
-14.633108
-11.418022
-1.602372
10.417753
15.656120
13.092205
11.804590
14.781202
16.007608
13.027768
8.570329
5.872682
6.395826
8.925652
11.949959
13.004057
10.640506
7.649911
5.576269
4.220618
5.611618
12.876072
24.323627
30.814914
28.247492
20.969991
12.456637
6.653694
5.187925
3.263679
-3.675985
-13.322321
-17.993451
-15.516697
-10.210762
-6.564320
-7.450740
-9.353710
-8.172193
-5.548146
-3.843391
-4.593039
-5.236543
-3.542309
-2.956975
-3.458096
-4.057179
-7.305886
-13.103919
-18.920655
-20.181852
-14.552576
-7.790084
-7.084344
-12.695105
-18.195748
-18.062577
-11.241870
-2.980504
-3.631958
-12.194175
-16.014984
-9.644804
-0.144313
1.067598
-5.522072
-9.987694
-8.573315
-2.114993
1.839126
-3.020912
-8.634011
-7.661041
-0.211653
8.217112
7.143186
-3.557341
-14.213213
-17.625812
-12.361961
-5.490754
-3.932823
-5.083199
-2.595457
4.952126
12.040765
10.877763
-1.113325
-15.014771
-19.080132
-13.526372
-6.440539
-2.960093
-1.909503
-0.414931
1.164042
3.312311
8.359198
15.318313
17.461205
11.054130
2.640374
-1.392723
0.186483
2.507294
-2.726819
-12.469947
-18.148977
-15.514643
-5.178560
3.932659
8.739904
13.134497
16.026241
17.124994
14.355571
6.508306
-1.200318
-6.310753
-7.308694
-5.370375
-4.063543
-0.514828
5.161208
10.808954
18.735289
26.649232
30.267150
27.480660
20.107068
14.753016
12.580010
11.852105
11.020394
5.971214
1.530842
5.844542
15.684974
22.586809
20.047910
10.167076
-0.000627
-10.530015
-19.944424
-24.434361
-27.430333
-29.835733
-30.520386
-31.789999
-29.914572
-21.202912
-12.676654
-12.207751
-17.040435
-17.573353
-11.149166
-4.795352
-3.306157
-4.396916
-3.316399
0.820783
2.082259
-2.446488
-6.886860
-4.351423
6.482882
14.199500
5.812397
-11.148988
-19.968148
-13.351780
1.700228
8.794244
4.910543
1.367719
3.497986
8.652420
12.927075
15.535690
17.728614
19.381233
19.137522
17.192936
16.315868
14.764763
9.911272
4.521917
0.274194
0.293271
4.702359
6.075590
3.951448
0.601506
-4.411201
-7.113290
-5.826798
-0.200561
6.818640
7.256214
4.449851
5.492025
12.634204
22.330851
19.876120
8.186396
3.427358
4.556973
9.988924
12.862900
4.881668
1.291851
9.046344
16.163273
14.850407
2.940914
-10.639295
-13.481896
-6.500804
-3.144738
-10.496587
-20.766928
-30.217809
-33.755723
-28.457972
-24.664939
-19.488762
-13.211399
-15.875613
-20.307335
-24.302557
-28.078477
-25.566887
-21.716340
-21.443593
-24.495676
-26.006802
-20.553342
-6.207869
13.227603
19.335229
6.499431
-7.821681
-7.703474
8.777736
23.713079
24.916106
22.232019
28.654569
39.884459
37.647159
25.146860
16.244701
13.793476
19.693490
21.245810
12.614388
8.113229
9.843936
18.694237
31.376476
30.823217
15.815209
-5.215417
-18.263503
-6.339469
11.837239
14.041853
11.740493
6.627954
-2.747177
-6.850647
-13.923576
-26.132797
-35.740556
-46.808613
-55.824397
-60.745223
-64.725248
-58.904258
-41.189299
-13.206666
27.028346
63.561880
75.319450
63.943716
50.974888
47.752366
45.780192
44.063090
42.063328
31.658554
18.819250
10.401285
9.576120
23.311381
44.063366
56.103364
50.789291
30.876450
10.876637
-2.324586
-14.811091
-28.757660
-36.755724
-38.957020
-45.126556
-48.331543
-42.710918
-40.028188
-37.441549
-28.295495
-18.467453
-10.568005
-6.753697
-5.462062
-1.812580
6.550487
18.870106
22.991858
15.272947
10.189866
18.014733
37.721878
51.644177
39.806460
11.592413
-7.660419
-15.677655
-27.226632
-43.863039
-57.284966
-53.311676
-27.213215
-3.216826
7.947133
18.651681
30.861415
40.926760
36.803885
13.572993
-12.312199
-32.588361
-42.623267
-37.625945
-22.378483
4.146658
35.196243
50.246848
45.818633
40.948308
48.698594
53.666691
39.901316
15.099306
-12.630780
-32.212798
-29.750306
-16.052218
-6.904527
0.036820
8.081456
14.386406
16.489786
15.490442
15.178696
17.173828
18.984260
16.775950
6.499999
-10.409717
-18.717095
-9.363662
4.412280
12.993247
18.725160
20.324941
14.268562
-1.049695
-20.010280
-31.388819
-33.731328
-34.505993
-35.649122
-31.218992
-24.110246
-29.178598
-40.699520
-34.531808
-9.615660
19.110448
39.032219
36.720805
21.020756
20.539508
42.373974
64.816313
65.005828
47.443585
36.606520
43.034214
55.013891
56.207800
44.523220
30.746388
23.324633
18.901796
6.122344
-12.062969
-22.841118
-26.819974
-28.214201
-31.975158
-44.104420
-57.300734
-60.415007
-48.901288
-30.379963
-23.888442
-33.215177
-44.764622
-46.915183
-35.210685
-15.489746
5.168486
23.571977
33.263247
29.957494
15.357228
-2.054216
-8.507115
-1.576055
7.137942
11.485776
10.299160
1.288052
-7.235589
-9.590490
-8.463915
-2.091397
-0.443922
-9.557200
-20.717372
-34.141404
-40.668650
-35.003837
-32.182933
-36.109185
-45.976693
-56.471712
-58.832925
-53.973076
-40.155518
-27.965890
-26.426429
-22.693015
-16.603158
-14.107232
-12.149742
-10.508813
-10.007179
-13.669473
-20.286264
-24.427843
-20.495701
-0.665111
30.659420
56.747594
60.066953
40.557646
21.829222
5.640304
-21.034656
-40.758355
-42.745492
-35.696131
-18.661523
0.040762
6.211279
4.314621
12.610121
42.829493
81.175189
102.761597
92.200646
58.163411
31.323157
24.257943
27.797773
27.064959
10.273545
-11.188437
-22.968173
-25.083664
-31.136068
-54.629047
-74.394362
-71.996398
-60.289561
-44.349124
-24.240082
-6.553413
7.858925
24.256436
39.725070
46.680211
50.691610
50.782931
39.267386
24.438233
23.404988
42.026145
54.275391
44.979985
32.400195
20.131122
11.766229
8.793169
-3.925029
-25.373684
-53.132761
-69.859180
-56.174418
-44.001390
-46.274462
-43.599214
-44.720366
-49.024668
-43.803134
-30.691176
-11.536260
6.522146
18.299122
25.501386
28.755049
33.287582
39.458567
41.931580
40.352185
37.261759
36.035398
37.059569
41.257773
47.055383
44.489364
35.583698
34.077716
42.771373
47.484631
33.644441
19.489792
27.705100
43.185424
50.085389
42.000351
17.737712
5.269210
16.423817
19.965985
6.764295
-1.689909
-7.876512
-10.935376
11.093376
35.293870
33.330814
24.654971
14.108984
3.912757
8.304077
5.659969
-11.051486
-15.561062
-12.161042
-15.138077
-25.797690
-52.191625
-90.527691
-127.411875
-150.112982
-154.524597
-168.188037
-201.253144
-228.831262
-242.279141
-235.896336
-213.221135
-203.530800
-212.197291
-222.981050
-226.908471
-216.694898
-206.593547
-208.753227
-198.442394
-180.920319
-189.062169
-209.922122
-218.579963
-213.669146
-203.451832
-195.016755
-189.520743
-186.593695
-175.121124
-152.882890
-130.336745
-114.801946
-127.404180
-157.219738
-158.582403
-138.493701
-134.176261
-140.096102
-144.257086
-164.680540
-184.305109
-174.445739
-166.246329
-175.590599
-180.505579
-174.565352
-166.665905
-169.258343
-165.000054
-144.008660
-149.399652
-195.729246
-233.411381
-221.171487
-169.428272
-124.204727
-141.976219
-204.482713
-211.862151
-179.817056
-194.953653
-207.416311
-176.982313
-169.132898
-186.058512
-177.716486
-150.439219
-129.894145
-119.919279
-116.598516
-108.476260
-93.512160
-79.214149
-55.223137
-17.377299
24.042598
62.312311
87.540812
94.311720
80.415184
53.804753
37.304417
30.270999
19.154781
10.161207
10.086999
11.313639
1.311230
-8.052912
8.759589
30.490015
27.409642
12.190047
-17.274581
-60.635183
-83.610769
-88.270442
-96.411124
-92.359044
-64.301829
-40.466526
-39.405415
-30.975715
-1.742734
29.816062
65.941386
99.244075
110.059209
100.867142
79.427371
55.111426
44.933669
62.852031
95.533755
114.579955
115.449820
103.124402
88.387599
86.756301
94.303416
100.671024
97.749399
90.417657
89.642992
87.282247
86.494724
92.715507
93.466370
90.452629
85.090862
79.307325
82.227592
82.808250
79.283896
78.711700
73.592849
70.478575
73.221858
71.879533
71.063487
76.172564
80.452830
80.264997
81.309977
82.234083
80.818580
87.231545
91.003302
81.176943
75.393405
73.720959
70.789515
76.022739
82.532262
81.461142
76.685271
73.863244
72.366146
69.025557
69.543323
70.756403
65.330342
59.486953
55.922619
57.265924
65.061332
71.813303
75.311985
75.600864
77.382539
83.715077
85.864983
89.332570
101.193946
113.786874
126.783336
133.760453
126.350623
115.618065
111.253210
114.468062
123.466123
132.272704
134.651497
128.844580
119.402583
103.685468
86.683169
88.999071
103.363714
113.803837
122.782727
118.798961
105.678865
110.438416
124.495382
127.452824
125.085532
121.431420
113.432187
109.896376
117.749532
123.013150
118.084843
115.703056
118.999737
125.681802
138.313774
147.086923
134.975195
101.122893
66.599360
51.172854
59.087265
78.122944
90.128340
95.980191
92.933952
73.675276
55.444840
44.255676
30.488898
8.238786
-22.111701
-42.854288
-57.120224
-76.774018
-89.584565
-99.134576
-107.432837
-104.806686
-97.456428
-90.011483
-87.543145
-85.477874
-72.127911
-61.865942
-60.244652
-50.268383
-34.217126
-32.903280
-47.279100
-52.099626
-42.603811
-30.064422
-15.418988
-20.678118
-52.869758
-68.771339
-52.324030
-26.635182
1.072506
28.489817
53.845270
81.640397
94.940328
82.123468
62.945451
51.266716
55.571297
69.535446
55.493956
10.735713
-37.136008
-93.849006
-160.069136
-210.307119
-228.100588
-218.089015
-210.695972
-219.768803
-223.712356
-217.862609
-204.804892
-179.723216
-151.691251
-129.254290
-129.575388
-163.426754
-201.948221
-222.079195
-218.911570
-185.976409
-148.940211
-146.293720
-162.574755
-160.484234
-143.270069
-125.736771
-112.296094
-103.116840
-84.507140
-54.815215
-25.749867
-0.178619
15.061127
19.201349
24.673280
35.602039
46.975948
57.242826
65.427273
68.327434
72.866748
88.638617
113.144684
133.124671
138.089963
138.352657
143.550577
151.718892
163.371253
167.802085
159.389731
149.687284
141.170423
135.451648
138.956876
141.669999
132.792623
125.406873
120.017284
100.227187
81.325285
72.345739
60.060300
59.615056
72.874774
70.650566
51.953237
33.900020
18.746823
6.465826
4.911682
13.402403
18.176215
20.441382
36.664247
63.608586
83.423277
93.414509
96.723582
89.526506
73.709326
58.205667
46.994059
36.542058
25.822593
13.454156
-2.860078
-13.491167
-15.049520
-7.767297
15.151988
37.409628
47.967584
58.218799
65.112684
75.207488
96.997299
105.896230
90.460841
73.210249
69.576010
74.627574
80.983959
78.856778
59.745861
39.492845
32.799603
24.804344
5.553149
-17.676106
-38.233293
-43.368744
-26.282232
-3.253530
16.623118
38.461793
58.049467
73.193591
80.130963
68.249525
47.619160
30.602600
11.635001
-4.242733
-8.345268
-8.225190
-8.316231
-3.689010
4.050520
10.622233
21.231392
40.125390
65.125704
89.293467
93.973761
77.394401
63.558652
59.814295
61.982436
67.522402
65.682791
54.519579
43.998140
42.743256
44.246712
32.010137
2.931975
-42.133009
-94.606562
-135.792850
-160.888509
-167.691869
-156.125545
-135.718178
-118.713262
-121.124273
-139.770634
-158.815620
-172.976113
-173.432112
-160.470953
-151.747604
-154.597921
-160.407409
-160.887256
-157.294587
-155.850516
-156.497527
-147.724145
-123.894453
-93.409488
-60.536751
-29.776607
-9.998388
-1.524266
-0.251334
-1.378098
-2.021368
-2.834843
-0.460258
4.160650
2.785594
0.633396
9.866891
24.751968
35.477089
41.436254
39.661170
32.716129
30.881661
32.686014
31.112932
29.528627
29.015582
22.970660
13.689983
6.784219
-2.469103
-15.482353
-23.858235
-28.762928
-40.799840
-59.229238
-75.734250
-85.747180
-87.194245
-80.445781
-66.034378
-42.500674
-5.080580
45.776309
94.931155
123.880306
122.898497
104.349395
94.746546
101.603492
115.973513
125.245350
121.940766
116.206560
115.354976
117.906077
125.612175
132.191837
131.457152
129.481938
128.768529
124.499297
118.097833
113.569554
108.250104
104.640414
106.512101
106.067792
103.131204
103.073829
101.791123
101.677871
104.905816
104.038334
99.396195
91.909912
78.258629
64.403008
54.001273
41.121989
25.519902
9.768185
-7.441960
-24.390251
-41.474847
-59.583708
-71.042908
-69.844324
