EVENT_NAME: 202302060117
EVENT_ID: 13194
EVENT_DATE_YYYYMMDD: 2023/02/06
EVENT_TIME_HHMMSS: 01:17:32.00000
EVENT_LATITUDE_DEGREE: 37.288
EVENT_LONGITUDE_DEGREE: 37.043
EVENT_DEPTH_KM: 8.6
HYPOCENTER_REFERENCE: AFAD
MAGNITUDE_W: 7.7
MAGNITUDE_W_REFERENCE: AFAD
MAGNITUDE_L: 
MAGNITUDE_L_REFERENCE: 
FOCAL_MECHANISM: 
NETWORK: TK
STATION_CODE: 3141
STATION_NAME: 
STATION_LATITUDE_DEGREE: 36.3726
STATION_LONGITUDE_DEGREE: 36.21973
STATION_ELEVATION_M: 111.0
LOCATION: Kahramanmaras_Pazarck_Turkiye
SENSOR_DEPTH_M: 
VS30_M/S: 338
SITE_CLASSIFICATION_EC8: C
MORPHOLOGIC_CLASSIFICATION: 
EPICENTRAL_DISTANCE_KM: 125.42
EARTHQUAKE_BACKAZIMUTH_DEGREE: 
DATE_TIME_FIRST_SAMPLE_YYYYMMDD_HHMMSS: 2023/02/06 01:17:33.6594550
DATE_TIME_FIRST_SAMPLE_PRECISION: millisecond
SAMPLING_INTERVAL_S: 0.01
NDATA: 12501
DURATION_S: 
STREAM: HNZ
UNITS: cm/s^2
INSTRUMENT: sensor = GMS+/GEOSIG | digitizer = 
INSTRUMENT_ANALOG/DIGITAL: 
INSTRUMENTAL_FREQUENCY_HZ: 
INSTRUMENTAL_DAMPING: 
FULL_SCALE_G: 
N_BIT_DIGITAL_CONVERTER: 
PGA_CM/S^2: 722.660
TIME_PGA_S: 
BASELINE_CORRECTION: BASELINE REMOVED
FILTER_TYPE: BUTTERWORTH
FILTER_ORDER: 
LOW_CUT_FREQUENCY_HZ: 
HIGH_CUT_FREQUENCY_HZ: 
LATE/NORMAL_TRIGGERED: 
DATABASE_VERSION: 
HEADER_FORMAT: DYNA 1.2
DATA_TYPE: Acceleration
PROCESSING: Automatic Paolucci et al., 2011
DATA_TIMESTAMP_YYYYMMDD_HHMMSS: 
DATA_LICENSE: U (unknown license)
DATA_CITATION: Turkish Accelerometric Archive v 1.0 - Disaster And Emergency Management Presidency, Earthquake Department
DATA_CREATOR: AFAD
ORIGINAL_DATA_MEDIATOR_CITATION: : AFAD - Disaster And Emergency Management Presidency
ORIGINAL_DATA_MEDIATOR: AFAD PROCESS SERVICE
ORIGINAL_DATA_CREATOR_CITATION: AFAD PROCESS SERVICE
ORIGINAL_DATA_CREATOR: network: TK
USER1: GuestUser
USER2: 
USER3: 
USER4: 
USER5: 
[...]
-32.989745
-26.705971
-19.323119
-19.555103
-23.386692
-21.298689
-8.012091
7.791658
19.172599
26.198010
28.215096
28.504986
27.681250
23.611454
20.306415
19.269410
13.355521
-3.167029
-19.852714
-23.607411
-17.992280
-11.955285
-10.080032
-15.390479
-26.432706
-28.867263
-16.703122
-1.933769
13.187830
30.166250
44.242802
53.343500
55.197711
48.182667
34.963065
22.527184
12.845621
0.367138
-11.753385
-15.014004
-5.937465
7.548375
10.201893
2.396374
-6.594205
-11.718399
-10.604786
-5.405542
-1.597356
-1.722836
-1.829353
0.121752
0.517107
-3.014449
-7.810296
-11.140533
-7.732130
-3.695348
-12.752428
-22.766493
-21.871345
-14.384066
-3.101837
1.001705
-6.789266
-12.471182
-9.470355
-0.552014
7.653523
7.598441
5.344423
1.987170
-4.430148
-6.295034
-4.087018
0.169527
5.630876
13.747833
22.416536
21.338747
18.766254
18.857421
13.147970
8.708524
8.021426
8.633688
10.439842
6.125605
-0.560574
-2.739779
-3.343751
-0.000030
7.486210
15.975934
20.351193
17.988852
13.356659
5.195778
0.647230
3.242299
1.892014
-0.742304
6.036588
17.891864
20.820736
11.669880
-7.821039
-31.154705
-46.589087
-46.901340
-30.406089
-11.307963
1.997339
8.339820
5.589386
7.247473
8.987646
0.789878
-9.674365
-21.594607
-26.310445
-22.148715
-15.940533
-8.059186
-9.328684
-16.583494
-19.432121
-19.126386
-15.197668
-9.483824
-4.313156
0.924533
6.165599
6.579398
-4.368014
-20.651578
-31.107768
-35.560721
-34.861698
-28.866006
-20.423041
-5.039596
22.312656
50.968423
62.488079
51.713154
32.409788
19.948449
13.739724
6.017591
-6.248662
-18.184750
-18.996277
-9.130043
-1.067638
-0.641890
-1.869045
0.530939
0.869405
-9.501322
-20.177536
-9.667597
13.555644
26.871595
26.372829
22.502275
29.636530
41.595194
36.217987
8.290325
-19.770337
-30.215877
-31.664354
-36.693473
-45.020865
-37.579565
-1.456769
40.587697
54.109904
37.303168
14.894536
4.912941
9.682528
14.534722
11.982490
13.196634
20.847047
28.991799
32.614510
30.186967
20.899213
0.236482
-25.409898
-47.353805
-51.698175
-25.047037
11.470866
26.534017
15.059796
0.354842
4.574500
25.742197
43.882559
42.235099
25.048841
9.980212
11.874687
21.470243
17.570855
5.237841
4.572304
1.728613
-19.246879
-40.554095
-51.409808
-51.028481
-46.436575
-39.452207
-26.692418
-18.693396
-11.617070
3.274115
23.244022
36.476328
31.309532
21.161427
29.742069
46.181730
39.912739
19.060117
10.681291
25.399990
42.850148
31.430738
-14.915248
-72.765317
-83.409839
-41.696577
-10.910453
-21.132592
-48.269260
-37.928950
2.664452
21.775826
14.501014
4.384340
27.600307
62.496219
59.019214
25.458226
-17.641960
-41.783504
-42.356564
-44.054159
-59.193186
-79.114799
-72.029901
-38.064477
-16.352826
-28.480104
-33.732623
-14.798151
-4.355752
-0.683164
-5.772290
-14.464915
-13.258045
-6.553447
-5.900142
-26.343110
-46.988698
-58.248350
-65.933076
-49.900991
-25.279160
-11.107273
5.754251
12.170247
6.776155
19.027058
35.328003
39.141904
50.683121
50.192927
29.512791
20.705608
26.983667
32.768427
28.435227
29.437400
15.029360
-19.229365
-23.772977
-3.102476
16.258015
24.520961
21.775982
5.104325
-4.351499
1.579770
-5.879737
-11.973125
-19.541476
-21.821730
4.268569
27.628967
48.937718
63.378984
55.592949
50.839444
45.852667
32.920889
16.928784
5.523662
5.417665
6.629470
10.340503
14.133363
8.062315
-2.607664
-0.308470
8.453230
2.288666
-4.137485
-5.460235
-5.919776
-10.000482
-15.981391
-8.083159
-13.008110
-13.084494
9.497120
19.600002
22.415875
18.830286
7.205660
-6.510358
-7.278244
-1.444907
-3.724642
2.513153
9.787423
21.806613
24.914465
3.634524
-12.671120
-11.595433
1.289045
3.361461
-2.609576
-6.184774
-5.760325
19.880576
37.591282
19.245160
-14.636382
-32.595449
-11.418400
14.443043
8.777753
-26.903461
-35.426199
18.001557
55.421115
35.273503
5.439665
-4.188905
17.190243
47.282527
31.865808
-12.838704
-46.816880
-60.688759
-68.894839
-75.873516
-63.196594
-50.320689
-33.060681
-14.374287
-8.391583
1.795723
5.964467
-7.146291
-23.077870
-18.748589
-13.010587
-18.598987
-16.997010
-14.740417
-10.786761
-1.204194
10.248183
16.992006
6.748566
-12.112676
-6.360127
19.622109
22.381352
12.814607
3.265527
-23.545652
-38.180989
-31.887343
-26.004650
-14.974916
-0.950577
13.793319
25.092952
33.083661
38.696195
26.990521
4.805809
-12.970381
-11.108636
9.120259
20.816298
8.771368
-7.135793
7.018690
27.637757
27.852573
25.788705
25.148106
31.028980
30.236157
-0.473619
-27.963052
-25.965188
-3.433710
18.278201
13.242069
-3.003310
-10.413721
-6.705286
5.409759
-4.480917
-34.315015
-59.895932
-86.929213
-96.742217
-61.685769
-18.360907
-6.416270
-4.500493
9.173159
43.643571
60.382225
37.572512
39.844950
66.864958
79.028320
68.925674
46.005818
40.714594
48.951303
47.765711
15.728261
-30.130660
-35.826343
-14.897893
-19.012628
-43.418096
-32.436679
6.014417
11.114949
-8.609242
-14.575083
-5.934175
6.446353
24.579181
18.436177
1.818292
19.433663
44.396309
40.657198
4.351502
-2.603017
15.214193
6.085157
-9.005292
-24.499422
-13.153030
30.908273
55.621283
29.815146
-22.661363
-27.801143
33.034155
83.311965
65.100664
8.858558
-25.152868
-10.622501
3.138693
-36.537752
-93.287443
-131.997292
-133.281076
-98.165660
-76.005910
-69.556923
-56.599451
-27.549616
-7.584384
-9.964650
5.085253
21.279433
23.182222
14.679226
-16.211348
-36.142833
-32.036953
-33.783644
-16.891467
32.880575
51.432409
20.435070
-11.092195
-5.451347
14.694943
10.327972
-8.200246
-44.703106
-84.775957
-72.796511
-26.872931
-8.637754
-23.548705
-21.851133
16.800764
58.292703
72.670586
48.724648
19.845716
2.439955
-9.783437
-18.506975
-44.035419
-43.719294
-17.681468
-14.285533
-18.016592
-0.439927
36.516465
31.382140
-1.958305
-6.667130
2.506043
29.167052
63.699289
62.216522
29.162860
25.632083
35.593652
4.306152
-23.618652
-27.595970
-43.410393
-41.795688
-0.185034
8.506789
-24.345293
-34.071016
-31.358531
-42.126443
-63.880200
-86.557172
-93.141002
-56.412946
19.211979
58.554079
36.414047
12.414856
35.502238
87.792470
94.366145
42.109140
-12.540328
-18.054434
29.205653
64.007269
68.674248
70.849273
72.531778
79.802930
70.536477
33.811515
22.018819
51.479087
52.263575
2.632044
-21.031267
-5.789396
-0.783680
-11.712648
-37.663995
-60.764388
-53.031109
-9.016563
43.887241
35.757272
-26.518722
-71.925128
-61.489743
-2.592833
22.524375
-23.225963
-84.274034
-104.126810
-47.360257
53.813103
103.149774
60.902406
-5.185163
-27.598731
-5.128817
26.106446
24.565750
-22.147807
-79.271825
-100.681389
-77.262543
-54.683527
-66.645072
-66.240626
-50.917447
-53.951029
-54.593706
-33.993342
-11.358736
-23.175331
-43.883002
-55.288904
-44.406458
12.543491
61.329714
80.305749
75.537956
65.199701
89.100156
110.634126
110.663468
90.813550
38.610057
5.822917
16.194400
36.525904
62.272530
85.611627
80.483017
47.700293
10.871684
-3.878729
-9.136444
-29.434202
-54.635079
-82.628202
-107.412671
-111.955764
-85.243840
-32.166251
3.169708
-13.593648
-54.401382
-50.731133
5.384961
52.279814
61.553517
24.963894
-15.971905
0.112913
42.285184
53.436490
9.599862
-54.976118
-74.284939
-32.705718
22.576002
53.565004
41.252772
-8.725549
-33.337013
-25.979618
-7.167236
4.330080
-11.798402
-23.467189
-44.888703
-65.858740
-53.459509
-54.243761
-55.949149
-17.004234
52.162081
113.858510
113.819793
84.151686
79.095552
72.257929
43.620841
11.961354
-12.857405
-14.689040
14.529384
45.536571
68.324960
68.330663
47.210480
25.544265
15.379015
39.405198
69.941425
60.279605
-0.369722
-55.906817
-62.899002
-35.332962
0.445382
-28.638766
-98.102798
-121.974183
-95.400196
-7.597091
92.886585
113.187176
64.234159
-5.637449
-59.534889
-56.315337
-13.557029
4.660743
-18.503034
-36.990729
-30.377829
-4.667050
40.283179
78.642317
90.380699
85.463800
92.281137
92.946651
61.460689
41.452572
36.469692
33.717439
49.374419
53.687334
47.281965
47.150511
45.483309
38.885192
2.036321
-4.317615
32.887375
26.017800
-13.292632
-42.980220
-35.539180
-24.456453
-3.840763
22.031591
-19.021624
-22.151060
26.027306
32.922834
14.103415
-23.979094
-36.660196
-9.422502
39.569716
77.381523
44.891558
-21.399149
-76.375665
-97.151396
-64.853423
-37.253872
-51.315901
-75.859046
-65.163633
18.806856
101.943750
103.696912
50.096387
-20.379701
-67.795152
-81.648587
-78.983120
-91.973607
-111.648960
-114.866977
-123.880416
-129.805215
-135.373092
-129.543652
-105.189642
-66.774653
8.842219
78.041005
106.215422
113.794139
126.667446
130.407314
71.004872
-20.665681
-65.611519
-57.239210
-49.397608
-59.405698
-74.826053
-76.166208
-32.681589
1.956634
-0.516369
5.079280
11.097832
5.801931
-20.311511
-64.735474
-96.743570
-100.403192
-62.981297
-34.966377
-67.444653
-75.565529
-3.575277
99.823774
199.083164
245.894371
253.232284
245.193234
156.516766
32.542253
-44.244637
-78.497388
-72.800949
-64.848425
-105.932293
-170.262792
-167.673437
-60.949875
81.189925
171.145727
186.266546
178.584158
159.805523
98.332991
38.753907
28.627882
72.288104
128.032470
124.139836
90.708212
100.299611
171.585113
270.211189
298.453925
245.331373
199.222814
171.421920
119.850182
4.398135
-144.805038
-214.453506
-157.404845
-22.432561
100.402846
156.209557
171.584169
145.494106
75.270512
36.245046
-6.742141
-104.585560
-159.253991
-125.643150
-7.592928
102.616459
122.817040
180.512263
269.951646
262.216006
152.043222
-25.041362
-199.270837
-302.021012
-321.916649
-268.539548
-163.967385
-122.235939
-201.533227
-277.999823
-281.125882
-197.817282
-31.254881
107.707958
106.893834
-23.363166
-137.289077
-119.743843
-37.488602
-47.806336
-155.882532
-233.141681
-249.999072
-248.273706
-245.186635
-211.333432
-186.195442
-215.859132
-245.339426
-310.893172
-398.465626
-385.638558
-217.142964
12.297303
38.337726
-135.617953
-250.463442
-233.317732
-54.365440
195.463751
289.993806
234.273835
93.905888
-59.572287
-96.739633
-82.297328
-116.701003
-131.647802
-113.748764
-85.311722
26.823065
151.328520
189.711297
138.045524
-8.818700
-152.961594
-142.505947
73.225587
200.016480
-11.406826
-254.535327
-214.023232
94.270107
456.286829
504.401552
333.073684
248.316594
116.875312
23.694988
5.944774
-68.127282
-75.705763
-7.152760
130.155357
204.095947
200.777400
319.081935
479.903205
508.691974
302.214649
19.472319
-130.919812
-55.344763
152.837136
75.018187
-257.030692
-407.417368
-246.082537
56.776198
246.161289
198.586081
-13.902274
-182.166438
-276.098531
-314.989178
-134.887153
64.677984
62.249921
19.032320
-92.069653
-288.417847
-350.655916
-265.369183
-161.897396
-125.308576
-204.395712
-268.994031
-256.956397
-201.168910
-55.889814
58.048282
21.252923
-121.228755
-305.680358
-434.144440
-412.310438
-228.896372
17.474788
184.478275
226.767702
180.091811
56.119116
-102.958096
-226.260589
-255.777251
-188.836627
-114.511321
-3.328844
211.392972
500.529466
638.955105
354.002669
-63.805732
-225.411006
-211.723067
-145.820216
-56.100284
-26.409861
-85.119501
-95.845331
73.422813
270.221681
320.308562
317.990381
311.212765
275.412057
245.400018
223.001777
193.717868
157.235789
167.239440
315.677573
356.672836
95.275117
-105.994380
-130.836518
-166.345506
-125.673654
96.695729
235.808714
92.247180
-111.022271
-200.976278
-122.204524
75.771872
277.524515
354.668822
220.790397
30.584416
-113.112717
-116.508156
3.877640
6.561291
-131.218589
-273.179692
-278.883688
-147.974434
0.584751
128.934252
157.713149
111.262476
125.080300
166.118944
118.304490
-36.161842
-195.223208
-270.590207
-297.425544
-230.968089
49.751664
291.368292
181.489047
-60.875477
-137.402339
-116.376736
-58.688266
82.400773
148.386230
46.254563
-85.716646
-169.681703
-123.721496
127.054289
266.853581
100.433249
-101.896881
-253.388610
-239.983558
-37.246655
91.119990
129.377299
98.276054
62.673030
69.379706
-22.390338
-160.092547
-263.966738
-268.930395
-166.564700
8.520167
247.306624
223.581488
10.746863
-62.328204
-109.122809
-139.444752
-70.533269
42.150668
21.223752
-159.149494
-271.516797
-206.305449
-26.262651
177.120815
264.293982
142.095762
-59.607548
-120.691987
9.114553
167.809882
305.081892
404.976674
398.312576
256.167297
22.162885
-141.877194
-195.228601
-116.104343
20.894910
177.820441
309.621219
277.954977
253.724853
160.463221
-60.826331
-137.334490
-111.553315
-54.647266
-9.637290
-104.686645
-225.844754
-248.684600
-177.668478
29.368363
238.293198
252.159858
149.270188
101.841489
181.020559
326.119375
385.567253
268.222537
71.344416
-84.764168
-200.024247
-298.753214
-333.693830
-245.302870
-153.167356
-163.000882
-254.697672
-363.847749
-455.876263
-395.602063
-108.173284
42.476773
-16.229490
-115.799326
-189.859952
-114.607015
25.657261
136.549059
128.839135
-0.698828
-147.308219
-237.905671
-140.698967
124.438607
312.806448
213.791216
-16.263944
-118.088046
-71.115004
75.789720
162.952237
60.221545
-63.202000
-163.260720
-161.224671
-35.821977
14.831977
41.472724
-132.964046
-210.937816
-313.763583
-258.083379
-52.768020
-110.962541
229.953233
-63.905605
355.654388
453.614679
-530.286476
597.638045
722.659659
112.625851
320.929061
40.213701
192.692005
177.768845
140.538116
96.739673
-65.789595
-34.401589
-7.385996
203.793624
369.527366
326.422504
170.362496
24.685672
-10.589525
77.354894
207.823062
236.353361
183.308220
161.652136
182.086248
268.912626
377.144400
379.896109
262.850646
61.542963
-137.624493
-297.712982
-356.639788
-341.478185
-374.612375
-360.597388
-300.576203
-276.749781
-213.521501
-47.559683
127.196578
139.317338
45.829708
-62.909416
-200.158330
-230.921618
-136.847975
20.987523
264.280953
377.881350
275.596420
162.802319
66.318006
-25.493342
-149.899849
-341.287775
-519.646780
-631.517407
-522.523474
-253.279228
8.151977
209.140902
214.680181
59.776660
-126.352524
-208.063575
-167.200014
-30.664187
158.091227
198.191330
50.581313
-166.730153
-252.824528
-181.241072
-128.087371
-135.382965
-153.404637
-113.652623
12.615617
126.458898
135.023435
103.197177
25.977253
-84.153188
-107.531534
-61.111277
-36.162658
-43.739841
-20.561540
-10.014974
-2.916308
52.292157
36.645804
-19.376278
14.950743
132.366092
293.765866
417.879591
395.217945
255.233935
147.876516
132.590201
150.346626
119.504888
32.197137
-75.662932
-190.162930
-220.414475
-148.013789
-66.563309
-1.344427
26.546583
13.282561
14.800373
77.594062
147.425643
101.553733
-14.903616
-0.567815
145.403042
227.527361
188.611516
118.317006
100.079727
132.490699
139.123862
80.201471
21.682240
18.903231
67.990785
138.695445
100.867249
-68.150502
-222.644109
-310.562055
-339.760761
-332.332968
-353.609532
-372.729242
-314.928293
-229.720010
-185.540771
-177.456286
-185.024376
-189.743592
-161.394870
-116.618166
-93.123468
-97.113774
-173.280599
-256.734693
-191.834027
-36.151745
39.920760
42.719488
38.295369
-28.040798
-81.213226
-6.701407
54.534713
46.187579
29.445265
5.047850
63.215071
164.756782
152.178028
52.387389
-62.212099
-137.727166
-127.015128
-87.335070
-25.703064
-0.141652
-13.825978
8.678485
-3.440740
-37.799735
-144.156788
-125.986553
-103.940061
-55.894956
-21.101912
-103.626296
95.731545
-88.744475
360.304373
565.031098
-295.415871
148.561269
265.276543
51.690929
301.688709
9.585382
-87.389112
-138.563405
-63.987683
144.029523
259.951726
353.263730
318.186476
289.541336
317.029446
428.219717
412.090974
224.563720
19.621883
-168.325677
-258.382292
-271.010661
-274.564818
-258.517926
-182.944695
-17.718020
166.325723
266.163357
303.315353
262.395659
101.344211
-86.450605
-211.306770
-199.138733
-67.370946
-7.327161
-68.985168
-101.836990
-90.170045
-82.976303
-13.237200
104.065930
151.798534
45.698132
-100.115590
-132.186549
-85.282605
0.836424
72.178036
110.598739
96.022889
-8.817638
-104.633827
-128.870446
-23.750172
117.116506
61.464853
-76.452963
-147.520283
-190.517342
-136.281967
-9.716293
4.170109
-96.955477
-189.065038
-234.287788
-165.310584
25.374906
117.607834
12.430907
-111.736614
-107.314336
21.364031
214.061163
397.351060
421.431275
323.806581
297.122169
306.842414
296.625470
222.952677
57.798194
-93.909142
-172.954195
-145.239567
-39.890697
14.013213
4.308531
9.680520
51.508859
133.584341
156.524175
55.227402
-31.532239
-26.432747
57.417210
126.416494
101.515909
11.415133
-133.286003
-276.900270
-331.289710
-169.648352
75.630224
96.139150
-57.525018
-228.323219
-248.490833
-26.522012
206.491882
217.539280
32.971042
-133.275765
-116.858704
77.416779
308.049899
452.161858
467.598035
299.068128
74.133513
-8.308785
48.138254
172.080792
200.553942
67.729915
-66.458413
-119.153387
-67.421396
11.411403
18.674762
-29.920814
-119.617131
-122.796183
-0.697478
75.150068
30.531798
-34.361877
-56.713880
-98.993979
-111.080213
-41.015620
-5.729277
-50.138433
-61.509786
12.295205
71.191855
83.985413
121.135072
213.023028
310.018021
326.277143
270.397154
217.743743
189.103539
126.908592
-10.420071
-172.146656
-247.874213
-176.854194
-80.021296
-55.714563
-72.959788
-160.550167
-282.550184
-336.217469
-234.603283
14.812097
185.567932
164.607766
16.682391
-103.897994
-93.475597
-58.880496
-10.456910
11.133949
-84.597036
-209.291886
-209.689342
-23.525113
198.534627
333.152068
393.655122
345.146049
182.771083
35.316926
-39.876028
-71.457065
-40.973571
-40.970465
-139.965175
-246.471335
-300.614255
-220.621852
11.024623
166.088398
112.269667
-8.007049
-3.517752
190.860599
362.263776
280.143070
52.256453
-89.130564
-87.472217
-32.383765
12.230065
-35.753758
-181.608523
-342.491122
-447.976394
-373.570300
-236.151262
-36.961230
141.497763
47.358375
-38.306343
-94.324529
-135.760641
-27.262345
35.958921
16.895321
-48.827015
-86.435967
-88.219285
-102.900861
-114.809413
-97.993868
28.092015
135.960374
126.538060
85.858911
55.973638
97.811329
225.917167
264.391642
109.410970
-71.286986
-181.013228
-188.073472
-64.636443
95.354090
195.563711
140.272616
44.835168
81.408922
122.394833
77.586413
-7.819577
-100.016940
-67.764426
59.656405
61.985992
-50.265455
-170.715437
-233.246523
-155.182118
-35.677974
-44.551399
-117.533208
-116.877826
-40.861690
29.546575
20.399356
-32.221325
-73.979290
-72.603571
-24.706534
23.796801
58.634526
128.721718
247.715677
216.947713
-13.294220
-261.147900
-405.060640
-357.677943
-183.689556
1.705240
117.271302
147.606209
57.939245
-163.040923
-259.967880
-185.372675
-78.397139
70.477665
187.471151
140.548220
-30.200884
-139.177436
-101.238603
58.627241
256.393225
332.967083
208.926069
28.426835
-19.381644
49.749862
155.369409
245.957227
249.857890
182.723456
151.323997
175.932579
191.282774
192.824744
150.959495
63.482895
29.754616
25.452847
-33.458113
-94.631133
