EVENT_NAME: 202302060117
EVENT_ID: 13194
EVENT_DATE_YYYYMMDD: 2023/02/06
EVENT_TIME_HHMMSS: 01:17:32.00000
EVENT_LATITUDE_DEGREE: 37.288
EVENT_LONGITUDE_DEGREE: 37.043
EVENT_DEPTH_KM: 8.6
HYPOCENTER_REFERENCE: AFAD
MAGNITUDE_W: 7.7
MAGNITUDE_W_REFERENCE: AFAD
MAGNITUDE_L: 
MAGNITUDE_L_REFERENCE: 
FOCAL_MECHANISM: 
NETWORK: TK
STATION_CODE: 0144
STATION_NAME: 
STATION_LATITUDE_DEGREE: 37.731023
STATION_LONGITUDE_DEGREE: 35.45968
STATION_ELEVATION_M: 649.0
LOCATION: Kahramanmaras_Pazarck_Turkiye
SENSOR_DEPTH_M: 
VS30_M/S: None
SITE_CLASSIFICATION_EC8: unknown
MORPHOLOGIC_CLASSIFICATION: 
EPICENTRAL_DISTANCE_KM: 148.09
EARTHQUAKE_BACKAZIMUTH_DEGREE: 
DATE_TIME_FIRST_SAMPLE_YYYYMMDD_HHMMSS: 2023/02/06 01:17:37.5577960
DATE_TIME_FIRST_SAMPLE_PRECISION: millisecond
SAMPLING_INTERVAL_S: 0.01
NDATA: 12501
DURATION_S: 
STREAM: HNZ
UNITS: cm/s^2
INSTRUMENT: sensor = ACEBOX/SARA | digitizer = 
INSTRUMENT_ANALOG/DIGITAL: 
INSTRUMENTAL_FREQUENCY_HZ: 
INSTRUMENTAL_DAMPING: 
FULL_SCALE_G: 
N_BIT_DIGITAL_CONVERTER: 
PGA_CM/S^2: 7.763
TIME_PGA_S: 
BASELINE_CORRECTION: BASELINE REMOVED
FILTER_TYPE: BUTTERWORTH
FILTER_ORDER: 
LOW_CUT_FREQUENCY_HZ: 
HIGH_CUT_FREQUENCY_HZ: 
LATE/NORMAL_TRIGGERED: 
DATABASE_VERSION: 
HEADER_FORMAT: DYNA 1.2
DATA_TYPE: Acceleration
PROCESSING: Automatic Paolucci et al., 2011
DATA_TIMESTAMP_YYYYMMDD_HHMMSS: 
DATA_LICENSE: U (unknown license)
DATA_CITATION: Turkish Accelerometric Archive v 1.0 - Disaster And Emergency Management Presidency, Earthquake Department
DATA_CREATOR: AFAD
ORIGINAL_DATA_MEDIATOR_CITATION: : AFAD - Disaster And Emergency Management Presidency
ORIGINAL_DATA_MEDIATOR: AFAD PROCESS SERVICE
ORIGINAL_DATA_CREATOR_CITATION: AFAD PROCESS SERVICE
ORIGINAL_DATA_CREATOR: network: TK
USER1: GuestUser
USER2: 
USER3: 
USER4: 
USER5: 
[...]
2.746940
2.312079
2.042980
1.957879
1.953906
1.861558
1.649038
1.417113
1.205060
1.077643
1.154330
1.466451
1.881910
2.117580
1.993435
1.593176
1.128388
0.858822
0.974319
1.401469
1.957440
2.524400
2.935184
3.068684
3.015146
2.868089
2.640138
2.419435
2.319138
2.377121
2.571642
2.809650
2.868101
2.508055
1.733720
0.793623
0.052019
-0.170086
0.198848
0.899773
1.528222
1.859748
1.937371
1.861856
1.724619
1.664768
1.657055
1.541794
1.347744
1.129613
0.918963
0.860048
1.021604
1.338401
1.681617
1.820962
1.644213
1.390544
1.353372
1.530358
1.756208
1.976447
2.190373
2.362450
2.472336
2.411784
2.057583
1.515643
1.044543
0.800460
0.815892
1.042444
1.328613
1.578544
1.711810
1.577379
1.258715
1.069808
1.189514
1.557980
2.045449
2.520293
2.842701
2.925000
2.746848
2.473774
2.381660
2.454840
2.441515
2.280664
2.104851
2.013437
1.983513
1.933248
1.875035
1.849085
1.842306
1.877144
2.046648
2.435455
3.011533
3.575454
3.838010
3.574054
2.810942
1.933502
1.322592
1.004629
0.891473
0.951561
1.152862
1.468724
1.763544
1.805629
1.542375
1.152636
0.917204
0.990618
1.335471
1.776648
2.035931
1.953402
1.549168
1.035517
0.738129
0.824402
1.220690
1.692027
1.952946
1.863871
1.539830
1.145883
0.736038
0.280369
-0.166182
-0.276533
0.232680
1.126722
1.798423
1.818999
1.151042
-0.024723
-1.329076
-2.290449
-2.733493
-2.746116
-2.422539
-1.877322
-1.216376
-0.547012
-0.090171
0.052213
0.050578
0.081909
0.232009
0.521685
0.841755
1.037913
1.086077
1.043293
0.867246
0.428878
-0.309219
-1.160940
-1.804816
-1.926155
-1.431439
-0.589767
0.182467
0.604707
0.652403
0.435908
0.051080
-0.412772
-0.861895
-1.062725
-0.720211
0.174533
1.284604
2.079984
2.127447
1.300975
-0.242786
-2.054714
-3.524595
-4.223647
-4.083835
-3.346203
-2.472968
-1.882161
-1.720839
-1.943646
-2.352556
-2.738788
-3.061660
-3.260386
-3.225081
-2.978891
-2.619776
-2.276093
-2.087183
-2.093026
-2.216002
-2.314896
-2.278422
-2.048598
-1.678495
-1.363335
-1.301844
-1.550135
-1.967462
-2.305297
-2.472694
-2.582811
-2.602215
-2.356492
-1.818990
-1.207375
-0.895722
-0.991343
-1.181418
-1.114083
-0.717795
-0.215129
0.166430
0.396955
0.587268
0.801662
0.890740
0.698327
0.415668
0.417072
0.835571
1.526677
2.160269
2.385418
2.120995
1.494654
0.688055
-0.093528
-0.662822
-0.762886
-0.312591
0.373138
0.922330
1.161272
1.108903
0.891240
0.620738
0.300905
-0.129982
-0.637554
-1.040385
-1.174583
-1.080594
-0.998764
-1.207309
-1.742469
-2.295398
-2.457652
-2.018579
-1.121030
-0.096762
0.777408
1.204791
0.915118
0.048199
-0.905225
-1.584872
-1.842281
-1.680257
-1.252641
-0.697838
-0.158700
0.181944
0.205326
-0.088556
-0.459356
-0.480630
0.086096
1.018715
1.798664
2.038542
1.661195
0.846881
-0.064459
-0.733352
-0.973927
-0.738024
-0.083390
0.738643
1.362649
1.532855
1.231025
0.702177
0.254691
-0.017681
-0.173856
-0.279765
-0.349435
-0.299634
-0.125687
-0.012761
-0.102070
-0.327917
-0.471700
-0.340305
-0.130821
-0.286528
-0.892529
-1.595789
-2.009609
-2.060809
-1.829348
-1.378819
-0.781699
-0.059497
0.619218
0.925260
0.742432
0.241407
-0.282999
-0.528017
-0.357811
0.105577
0.604035
0.874072
0.718599
0.211728
-0.251891
-0.346109
-0.059004
0.498604
1.195088
1.819562
2.206732
2.272664
1.919866
1.237881
0.518021
-0.107151
-0.649793
-1.026907
-1.133984
-1.012642
-0.888260
-0.957462
-1.087452
-1.041859
-0.880771
-0.775093
-0.726929
-0.652346
-0.578231
-0.674086
-1.062889
-1.654862
-2.259460
-2.799530
-3.190905
-3.268524
-2.990772
-2.398328
-1.670515
-1.164108
-1.042065
-1.201513
-1.496797
-1.820604
-2.037333
-2.004366
-1.723340
-1.389475
-1.281459
-1.622802
-2.478966
-3.683955
-4.871644
-5.693673
-5.960902
-5.586591
-4.636203
-3.441731
-2.375146
-1.635644
-1.359294
-1.546564
-1.903103
-2.053667
-1.781759
-1.111694
-0.272594
0.530735
1.122478
1.278422
0.870214
0.022233
-0.903603
-1.544439
-1.648010
-1.138564
-0.262758
0.522102
0.869526
0.732289
0.231029
-0.446748
-1.037552
-1.375621
-1.456513
-1.303608
-1.018607
-0.818008
-0.862194
-1.169869
-1.608939
-1.946306
-2.012469
-1.847173
-1.563575
-1.176171
-0.760011
-0.454436
-0.381489
-0.696880
-1.383074
-2.086568
-2.390035
-2.140805
-1.549063
-0.982570
-0.704350
-0.798335
-1.209816
-1.859303
-2.622182
-3.260213
-3.640834
-3.858965
-4.015140
-4.015138
-3.744867
-3.388090
-3.255526
-3.417312
-3.636612
-3.511061
-2.882145
-1.969866
-0.993059
-0.148348
0.308493
0.345903
0.167517
-0.034716
-0.162835
-0.165405
-0.060896
0.090372
0.240472
0.292377
0.197690
0.106745
0.215462
0.528051
0.975307
1.574999
2.254181
2.739312
2.814129
2.561396
2.248577
2.064580
2.020628
2.034424
2.028814
1.993980
1.952600
1.873344
1.712727
1.538550
1.525926
1.732839
2.001473
2.170744
2.185709
2.025793
1.730509
1.439433
1.248423
1.159347
1.183430
1.335166
1.549560
1.755771
1.982088
2.261010
2.560974
2.800150
2.904192
2.825871
2.500427
1.931132
1.253356
0.671670
0.319105
0.188181
0.260426
0.579794
1.090409
1.580450
1.904962
2.079143
2.172897
2.266886
2.427506
2.642601
2.788025
2.716484
2.412783
1.935137
1.340359
0.728279
0.159920
-0.292242
-0.361445
0.143559
0.917897
1.536059
1.973729
2.276732
2.351081
2.157031
1.718663
1.197764
0.930770
1.177194
1.844920
2.590268
3.107195
3.275531
3.166583
3.029346
3.222931
3.903517
4.904872
5.883316
6.415674
6.260434
5.547588
4.528701
3.362990
2.333348
1.929582
2.447445
3.723044
5.145936
5.990180
5.957450
5.199948
4.037510
2.814518
1.734376
0.898787
0.398462
0.138481
-0.179481
-0.779170
-1.618266
-2.384184
-2.708693
-2.503652
-2.074866
-1.814414
-1.827271
-1.974562
-2.096134
-2.175390
-2.310523
-2.526316
-2.789103
-3.075035
-3.349278
-3.591256
-3.779695
-3.692253
-3.156856
-2.357501
-1.320375
-0.103458
0.952605
1.821865
2.406126
2.440964
2.149654
1.951396
2.142410
2.811306
3.641288
4.237706
4.596119
4.864520
5.019763
5.047820
5.070033
5.194181
5.464920
5.888094
6.304255
6.468383
6.318988
6.013183
5.691012
5.323718
4.890260
4.525537
4.425708
4.696213
5.200515
5.665072
5.966205
6.147399
6.262195
6.271315
5.984681
5.283291
4.447000
3.873030
3.620063
3.501295
3.349329
3.103843
2.808559
2.516548
2.185025
1.730759
1.146267
0.604794
0.295950
0.131358
-0.127921
-0.549924
-0.985019
-1.157325
-0.941996
-0.592000
-0.455461
-0.657928
-1.127391
-1.645484
-1.889099
-1.648286
-1.011187
-0.243629
0.412174
0.802383
0.797709
0.331987
-0.430424
-1.152155
-1.481574
-1.227200
-0.489101
0.437673
1.158706
1.421028
1.270230
0.878388
0.439084
0.089092
-0.092567
-0.030843
0.190331
0.364979
0.476502
0.701884
1.130436
1.621179
1.944522
1.987308
1.803546
1.517379
1.276570
1.279143
1.549415
1.848677
2.009531
1.982412
1.712144
1.223276
0.663099
0.233382
0.049151
0.058505
0.105733
0.077446
-0.023787
-0.143256
-0.244254
-0.330290
-0.413520
-0.482723
-0.533922
-0.592136
-0.646609
-0.614577
-0.474999
-0.346409
-0.309467
-0.380773
-0.527830
-0.634440
-0.604512
-0.400406
-0.051111
0.411576
0.927100
1.333442
1.591789
1.880063
2.317499
2.797954
3.148184
3.203128
2.912520
2.474853
2.119016
1.938993
1.990197
2.354454
3.036677
3.798624
4.265051
4.273703
3.921840
3.425490
3.045805
2.842403
2.685293
2.514155
2.332262
2.105481
1.748941
1.181283
0.486440
0.006923
-0.035860
0.221552
0.553780
0.804179
0.919676
0.890453
0.631174
0.150722
-0.294894
-0.477488
-0.374382
-0.116735
-0.003108
-0.241112
-0.653061
-0.932447
-0.949513
-0.696309
-0.186395
0.576253
1.534824
2.422086
2.907685
2.954446
2.815806
2.795233
3.054750
3.547830
4.064524
4.375008
4.298324
3.667073
2.471202
1.006931
-0.185667
-0.626841
-0.195015
0.786935
1.802084
2.568240
3.094987
3.493145
3.748921
3.737934
3.553002
3.465797
3.564462
3.701936
3.657750
3.263570
2.566622
1.776389
0.972361
0.171140
-0.414053
-0.527209
-0.170199
0.400268
0.846589
0.916028
0.633369
0.142630
-0.429470
-0.899167
-1.129222
-1.015127
-0.534672
0.160876
0.811068
1.193328
1.268145
1.148677
0.985955
0.847081
0.712884
0.572373
0.458048
0.360089
0.226124
0.133309
0.171887
0.197840
0.025533
-0.300145
-0.647098
-0.980725
-1.304767
-1.614079
-1.869851
-1.975994
-1.830336
-1.463740
-1.003158
-0.485295
0.077456
0.617997
1.108739
1.519523
1.776000
1.873729
1.893837
1.891267
1.851757
1.768995
1.685765
1.660750
1.626851
1.454310
1.256987
1.250209
1.436781
1.672684
1.905547
2.219071
2.554104
2.584500
2.211829
1.573564
0.709918
-0.096447
-0.713436
-0.896965
-1.332762
-1.731852
-1.170737
-0.991880
-0.948626
-0.458351
0.008777
0.502091
0.419329
0.220836
0.202368
0.239777
0.468199
0.581826
0.468436
0.140654
-0.256566
-0.656591
-0.891322
-0.832637
-0.485914
-0.000549
0.142536
0.009741
-0.540148
-1.328745
-1.809197
-1.959760
-1.714973
-1.289694
-1.105928
-1.313538
-1.727357
-2.008380
-2.021471
-1.714727
-1.160860
-0.800810
-0.881936
-1.327085
-1.926305
-2.544230
-2.998730
-3.180856
-3.151630
-2.855641
-2.324218
-1.673559
-1.132316
-0.925404
-1.250381
-2.017234
-2.858669
-3.528730
-3.734236
-3.552340
-3.357585
-3.359220
-3.501367
-3.621304
-3.772802
-3.896246
-3.650056
-2.964326
-1.972557
-0.858277
-0.156182
-0.173716
-0.720799
-1.498641
-2.253103
-2.728412
-2.717188
-2.378647
-1.988438
-1.616933
-1.390849
-1.479223
-1.718629
-1.919693
-2.013211
-1.662747
-0.919504
-0.221149
0.325704
0.612575
0.578208
0.302096
-0.169004
-0.738065
-1.142299
-1.254286
-1.150245
-0.928136
-0.836018
-0.900076
-1.110025
-1.456043
-1.769096
-2.023699
-2.217983
-2.395901
-2.558622
-2.574987
-2.412963
-2.228028
-1.955653
-1.524996
-1.092937
-0.673270
-0.400193
-0.256639
-0.270899
-0.592135
-1.023489
-1.496927
-1.899758
-2.135892
-2.200652
-2.117185
-2.097076
-2.178904
-2.446366
-2.862056
-3.389735
-3.955055
-4.376356
-4.606411
-4.542348
-4.256646
-3.925120
-3.700439
-3.640819
-3.602475
-3.911787
-4.309475
-4.368390
-4.261309
-3.955267
-3.685930
-3.401164
-3.171339
-2.930059
-2.528393
-2.352109
-2.188683
-2.067106
-2.085341
-2.020344
-1.869309
-1.551109
-1.077434
-0.608435
-0.394041
-0.629240
-1.092858
-1.668465
-2.244072
-2.753281
-3.319303
-3.929044
-4.527797
-5.045657
-5.384661
-5.562345
-5.504128
-5.105268
-4.753869
-4.609615
-4.523108
-4.599324
-4.734691
-4.860940
-4.969420
-4.938323
-4.721124
-4.430746
-4.301688
-4.313844
-4.347743
-4.474460
-4.620815
-4.616371
-4.612161
-4.407821
-3.834314
-3.183421
-2.560583
-2.142318
-1.876255
-1.723116
-1.932130
-2.242377
-2.386862
-2.108408
-1.369840
-0.762667
-0.557158
-0.571885
-0.824852
-1.385730
-1.859168
-2.010667
-2.276726
-2.512159
-2.272982
-2.044093
-2.084772
-2.006682
-2.229957
-2.869157
-3.276898
-3.599770
-3.975714
-4.325473
-4.669387
-4.826030
-4.606493
-4.255094
-4.077406
-3.739567
-3.429083
-3.570295
-3.940862
-4.418975
-4.761253
-4.696489
-4.230764
-3.587352
-2.951188
-2.465122
-2.328582
-2.207240
-2.232488
-2.499717
-2.539694
-2.611001
-2.779333
-2.736547
-2.450377
-2.066013
-1.879207
-1.921289
-1.954486
-2.096400
-2.502036
-2.902529
-3.250885
-3.602749
-3.891253
-4.112423
-4.167130
-3.981260
-3.646694
-3.233806
-3.018711
-3.203176
-3.682926
-4.069859
-4.164311
-4.050918
-3.598051
-3.092813
-2.938739
-3.046518
-3.284990
-3.491665
-3.491429
-3.254591
-2.882384
-2.462950
-1.945555
-1.479361
-1.331366
-1.252809
-1.143857
-1.123515
-1.043789
-0.864465
-0.777023
-0.840146
-0.870071
-0.857210
-0.908176
-1.146648
-1.549946
-2.118540
-2.816657
-3.297576
-3.497705
-3.566439
-3.543759
-3.454915
-3.235143
-2.892863
-2.739958
-2.840722
-3.092287
-3.372374
-3.297090
-2.882332
-2.416606
-2.001146
-1.666113
-1.295777
-0.989501
-0.936427
-1.047011
-1.188925
-1.210666
-1.138889
-1.101713
-1.201777
-1.567901
-2.039469
-2.320959
-2.247077
-2.028709
-1.962543
-2.061204
-2.346435
-2.838810
-3.423769
-3.960800
-4.345161
-4.493153
-4.366433
-4.062495
-3.645866
-3.117950
-2.654796
-2.349689
-2.364884
-2.746440
-3.201641
-3.594419
-3.810914
-3.823069
-3.739135
-3.518194
-3.173108
-2.780794
-2.369076
-2.042459
-1.866408
-1.814504
-1.761664
-1.784574
-1.883469
-1.898196
-1.918301
-1.871306
-1.676785
-1.498162
-1.466598
-1.645218
-1.948685
-2.214744
-2.369283
-2.362267
-2.182943
-1.924128
-1.648011
-1.429643
-1.348046
-1.373762
-1.478268
-1.695698
-2.134767
-2.754562
-3.370148
-3.903438
-4.234961
-4.322867
-4.168092
-3.788170
-3.313559
-2.838248
-2.584342
-2.569611
-2.554179
-2.496663
-2.330432
-2.028598
-1.737051
-1.590692
-1.638619
-1.878727
-2.342345
-2.956763
-3.463400
-3.663996
-3.542888
-3.156887
-2.705422
-2.281780
-1.824237
-1.446887
-1.168666
-0.948428
-0.897692
-0.962218
-1.054333
-1.309170
-1.705221
-2.038380
-2.256511
-2.382994
-2.350027
-2.117865
-1.751736
-1.359657
-0.997503
-0.713438
-0.597239
-0.592795
-0.647034
-0.729329
-0.771879
-0.752238
-0.653340
-0.540648
-0.418604
-0.302873
-0.144590
0.209147
0.654532
0.991436
1.165850
1.300285
1.406197
1.467454
1.576171
1.669692
1.767888
1.959604
2.212106
2.409199
2.408967
2.169326
1.737271
1.303345
1.149274
1.383541
1.984635
2.875171
3.837716
4.638005
5.081754
5.040841
4.573249
3.953220
3.477210
3.274510
3.272641
3.338340
3.456877
3.687402
4.069429
4.604593
5.246134
5.982831
6.732620
7.288358
7.623391
7.762970
7.698444
7.469090
7.039840
6.530164
6.110499
5.765884
5.500526
5.296656
5.122479
5.030598
5.042523
5.089986
5.006522
4.695106
4.300691
4.013590
3.864663
3.916100
4.116700
4.247628
4.283401
4.242254
4.135878
3.997705
3.846440
3.699150
3.593943
3.462550
3.137574
2.698972
2.305726
2.036160
1.983791
2.162414
2.445310
2.674667
2.843003
3.023262
3.146942
3.150217
3.101355
3.054831
3.043377
3.139469
3.423769
3.919888
4.646064
5.435131
6.021029
6.268622
6.244776
6.140505
5.948792
5.718036
5.589683
5.626391
5.797299
5.955581
5.946698
5.773690
5.628738
5.585720
5.603491
5.593673
5.490804
5.390507
5.296989
5.221007
5.221009
5.205580
5.168875
5.150173
5.100844
5.009898
4.702456
4.110951
3.441357
2.823199
2.475310
2.469701
2.520203
2.487005
2.383201
2.140053
1.762005
1.378112
1.098024
0.971775
0.961724
0.894626
0.604719
0.030047
-0.667836
-1.250691
-1.647444
-1.765510
-1.597875
-1.334150
-1.115548
-0.998648
-1.010570
-1.159731
-1.319880
-1.354714
-1.357518
-1.375285
-1.362191
-1.417833
-1.558343
-1.718727
-1.868589
-1.863911
-1.654193
-1.303730
-0.847823
-0.431662
-0.199500
-0.248362
-0.553700
-1.035320
-1.547802
-1.822512
-1.790247
-1.474385
-0.940858
-0.388861
-0.086325
-0.216549
-0.639486
-1.126718
-1.471567
-1.485594
-1.060081
-0.192925
0.866880
1.777054
2.093617
1.691955
0.951053
0.162457
-0.314020
-0.400056
-0.430448
-0.395143
-0.348148
-0.527936
-0.798204
-0.961627
-1.025218
-1.099798
-1.251063
-1.371934
-1.307872
-0.923274
-0.334571
0.201762
0.588230
0.794441
0.782285
0.437904
-0.132326
-0.677072
-1.074526
-1.119413
-0.794901
-0.269790
0.310730
0.770845
1.082498
1.231195
1.080631
0.701881
0.275437
-0.070582
-0.160358
-0.053044
0.070403
0.047493
-0.205708
-0.587731
-1.050414
-1.491588
-1.795055
-1.914758
-1.854436
-1.730522
-1.616661
-1.496488
-1.336101
-1.142515
-0.955476
-0.842316
-0.861720
-0.962952
-1.068393
-1.021866
-0.867792
-0.891403
-1.085921
-1.329069
-1.592323
-1.868903
-2.203699
-2.536625
-2.737689
-2.734414
-2.588990
-2.391430
-2.095207
-1.783787
-1.548118
-1.286030
-1.029552
-0.916860
-0.970632
-1.070462
-1.062043
-0.951456
-0.870326
-0.867519
-0.853489
-0.804390
-0.745004
-0.661771
-0.626933
-0.721386
-0.937413
-1.182430
-1.381858
-1.422303
-1.275710
-1.029754
-0.748027
-0.636971
-0.751296
-0.934592
-1.081181
-1.096142
-0.976904
-0.855795
-0.712944
-0.455999
-0.185260
0.022821
0.234643
0.538815
0.945624
1.389841
1.798053
2.140567
2.411540
2.651184
2.835184
2.840797
2.698884
2.543410
2.394950
2.209083
2.002174
1.859794
1.858626
2.007089
2.251643
2.425356
2.370415
2.097809
1.667624
1.203772
0.912696
0.866172
0.913401
0.981204
1.146032
1.366037
1.676989
2.096423
2.438003
2.601195
2.564023
2.337709
2.118409
2.059727
2.081472
2.063939
1.851887
1.368162
0.734573
0.123896
-0.242463
-0.263736
0.077375
0.763806
1.606413
2.372101
2.826604
2.833386
2.461650
1.917606
1.389927
0.990369
0.785097
0.723376
0.712623
0.794220
0.938474
0.990145
0.916033
0.733205
0.577264
0.599944
0.754252
0.959060
1.076194
1.104953
1.187719
1.292930
1.294568
1.001622
0.394452
-0.271635
-0.781077
-1.012535
-0.937484
-0.682410
-0.396708
-0.196810
-0.211771
-0.509861
-0.915731
-1.168932
-1.148824
-0.918532
-0.675615
-0.418670
-0.139047
0.112989
0.387468
0.591341
0.740973
0.916790
1.049823
1.133991
1.147787
1.102900
1.102200
1.231024
1.560212
1.995311
2.324499
2.405161
2.247115
1.963988
1.684369
1.510191
1.424156
1.394465
1.473724
1.585715
1.628034
1.603954
1.509034
1.480980
1.605596
1.751955
1.793105
1.708705
1.636464
1.681588
1.824206
1.965422
1.934796
1.727419
1.469075
1.200677
1.007329
0.964546
1.062041
1.291398
1.628769
1.960061
2.090522
1.996771
1.819086
1.709671
1.795710
1.982282
2.046578
1.878012
1.470037
0.965972
0.550516
0.304797
0.259208
0.355768
0.531118
0.779880
0.978375
1.010407
0.943075
0.847454
0.743416
0.626519
0.452809
0.185580
-0.150385
-0.513470
-0.897831
-1.189141
-1.215091
-0.961419
-0.545024
-0.095430
0.266256
0.505432
0.625138
0.632387
0.692475
0.904998
1.158202
1.315316
1.281417
1.057441
0.740647
0.422684
0.176498
0.029207
-0.046542
0.025703
0.306262
0.649946
0.827633
0.683148
0.205736
-0.454974
-1.100252
-1.577197
-1.829229
-1.889079
-1.791117
-1.591686
-1.367940
-1.106319
-0.742529
-0.341097
-0.111273
-0.164343
-0.437183
-0.786474
-0.972575
-0.906409
-0.681494
-0.381063
-0.132769
-0.048366
-0.151469
-0.390408
-0.629581
-0.659272
-0.365387
0.182168
0.758714
1.073874
0.980357
0.575889
0.117648
-0.259465
-0.506821
-0.606884
-0.662059
-0.710453
-0.724479
-0.673042
-0.557779
-0.495353
-0.589104
-0.825705
-1.099480
-1.304285
-1.411596
-1.450872
-1.401072
-1.244660
-1.117472
-1.087311
-1.069541
-1.057849
-1.088007
-1.175679
-1.294681
-1.342140
-1.273869
-1.151592
-1.017390
-0.857939
-0.641675
-0.392445
-0.177350
-0.010183
0.111627
0.230631
0.360624
0.458587
0.506985
0.503246
0.503014
0.465841
0.297509
0.024669
-0.309659
-0.645390
-0.854403
-0.881288
-0.743814
-0.438473
-0.020675
0.442011
0.861913
1.088698
1.035160
0.769100
0.433135
0.122420
-0.142237
-0.434248
-0.775122
-1.077654
-1.263521
-1.288770
-1.255101
-1.295313
-1.431849
-1.649045
-1.858759
-1.937080
-1.908555
-1.940583
-2.096057
-2.325176
-2.539333
-2.653191
-2.742499
-2.934913
-3.230197
-3.514960
-3.697321
-3.795748
-3.871964
-3.908435
-3.822395
-3.561008
-3.116091
-2.586538
-2.121280
-1.818043
-1.713534
-1.737847
-1.826689
-1.951768
-2.049962
-2.107708
-2.128046
-2.088065
-2.014418
-1.931652
-1.834157
-1.720763
-1.612513
-1.551023
-1.488130
-1.381049
-1.218558
-0.967692
-0.705837
-0.522305
-0.414990
-0.390206
