EVENT_NAME: 202302060117
EVENT_ID: 13194
EVENT_DATE_YYYYMMDD: 2023/02/06
EVENT_TIME_HHMMSS: 01:17:32.00000
EVENT_LATITUDE_DEGREE: 37.288
EVENT_LONGITUDE_DEGREE: 37.043
EVENT_DEPTH_KM: 8.6
HYPOCENTER_REFERENCE: AFAD
MAGNITUDE_W: 7.7
MAGNITUDE_W_REFERENCE: AFAD
MAGNITUDE_L: 
MAGNITUDE_L_REFERENCE: 
FOCAL_MECHANISM: 
NETWORK: TK
STATION_CODE: 7102
STATION_NAME: 
STATION_LATITUDE_DEGREE: 39.66824
STATION_LONGITUDE_DEGREE: 33.611341
STATION_ELEVATION_M: 1171.0
LOCATION: Kahramanmaras_Pazarck_Turkiye
SENSOR_DEPTH_M: 
VS30_M/S: None
SITE_CLASSIFICATION_EC8: unknown
MORPHOLOGIC_CLASSIFICATION: 
EPICENTRAL_DISTANCE_KM: 399.05
EARTHQUAKE_BACKAZIMUTH_DEGREE: 
DATE_TIME_FIRST_SAMPLE_YYYYMMDD_HHMMSS: 2023/02/06 01:18:02.8411780
DATE_TIME_FIRST_SAMPLE_PRECISION: millisecond
SAMPLING_INTERVAL_S: 0.01
NDATA: 21001
DURATION_S: 
STREAM: HNZ
UNITS: cm/s^2
INSTRUMENT: sensor = GMS+/GEOSIG | digitizer = 
INSTRUMENT_ANALOG/DIGITAL: 
INSTRUMENTAL_FREQUENCY_HZ: 
INSTRUMENTAL_DAMPING: 
FULL_SCALE_G: 
N_BIT_DIGITAL_CONVERTER: 
PGA_CM/S^2: 1.202
TIME_PGA_S: 
BASELINE_CORRECTION: BASELINE REMOVED
FILTER_TYPE: BUTTERWORTH
FILTER_ORDER: 
LOW_CUT_FREQUENCY_HZ: 
HIGH_CUT_FREQUENCY_HZ: 
LATE/NORMAL_TRIGGERED: 
DATABASE_VERSION: 
HEADER_FORMAT: DYNA 1.2
DATA_TYPE: Acceleration
PROCESSING: Automatic Paolucci et al., 2011
DATA_TIMESTAMP_YYYYMMDD_HHMMSS: 
DATA_LICENSE: U (unknown license)
DATA_CITATION: Turkish Accelerometric Archive v 1.0 - Disaster And Emergency Management Presidency, Earthquake Department
DATA_CREATOR: AFAD
ORIGINAL_DATA_MEDIATOR_CITATION: : AFAD - Disaster And Emergency Management Presidency
ORIGINAL_DATA_MEDIATOR: AFAD PROCESS SERVICE
ORIGINAL_DATA_CREATOR_CITATION: AFAD PROCESS SERVICE
ORIGINAL_DATA_CREATOR: network: TK
USER1: GuestUser
USER2: 
USER3: 
USER4: 
USER5: 
[...]
0.018472
0.013277
0.007822
-0.004906
-0.017894
-0.030103
-0.047767
-0.066210
-0.087251
-0.110370
-0.134788
-0.163882
-0.190118
-0.212978
-0.238175
-0.262073
-0.280516
-0.302077
-0.326235
-0.342600
-0.359485
-0.381305
-0.398450
-0.409360
-0.425205
-0.442609
-0.452220
-0.463910
-0.478976
-0.489626
-0.502874
-0.517681
-0.524694
-0.531188
-0.533266
-0.529629
-0.527810
-0.519757
-0.509106
-0.500534
-0.484948
-0.466764
-0.449878
-0.431954
-0.409614
-0.385455
-0.365193
-0.339216
-0.309602
-0.287262
-0.267519
-0.246997
-0.224657
-0.204135
-0.184133
-0.158935
-0.135815
-0.117891
-0.099707
-0.079964
-0.056845
-0.037362
-0.022035
-0.002033
0.015112
0.029140
0.040829
0.049662
0.062391
0.074081
0.086290
0.099538
0.108890
0.123438
0.137725
0.149675
0.166300
0.175912
0.188900
0.204746
0.217216
0.233321
0.245531
0.261637
0.276703
0.284757
0.297485
0.311253
0.324242
0.336711
0.352038
0.361909
0.370742
0.383211
0.388926
0.399577
0.411266
0.414644
0.419320
0.426334
0.431529
0.434127
0.436206
0.439063
0.444779
0.455689
0.466340
0.474912
0.486083
0.497253
0.504786
0.511021
0.517256
0.523750
0.525829
0.523751
0.526868
0.530505
0.526609
0.521414
0.521934
0.521155
0.519077
0.521155
0.520116
0.523234
0.529988
0.528949
0.526871
0.531028
0.532847
0.528171
0.526353
0.522976
0.515963
0.511807
0.506352
0.497520
0.484792
0.475700
0.469726
0.460634
0.452841
0.450504
0.451023
0.444789
0.438555
0.436737
0.431802
0.423230
0.418034
0.417515
0.409722
0.399851
0.396734
0.389201
0.378032
0.374395
0.368421
0.357771
0.351277
0.344783
0.335951
0.324781
0.316469
0.311014
0.303481
0.299844
0.300104
0.297507
0.297248
0.302183
0.307639
0.308159
0.306600
0.316731
0.325564
0.331279
0.344268
0.363750
0.384532
0.403755
0.431810
0.458827
0.481946
0.508443
0.532601
0.559618
0.587413
0.614689
0.644303
0.673137
0.698595
0.717038
0.736002
0.752887
0.763798
0.777046
0.785619
0.788736
0.793412
0.795750
0.788217
0.775229
0.764839
0.747954
0.728731
0.707431
0.674700
0.647944
0.623786
0.595472
0.566638
0.535985
0.505593
0.472083
0.443509
0.415714
0.378048
0.344798
0.313886
0.277259
0.241671
0.209200
0.175171
0.143479
0.118802
0.095682
0.074901
0.055679
0.037495
0.024247
0.011519
-0.002508
-0.018873
-0.037836
-0.054721
-0.072645
-0.090049
-0.104595
-0.118623
-0.129273
-0.135507
-0.145898
-0.156028
-0.156028
-0.159664
-0.171613
-0.179926
-0.190316
-0.202785
-0.213695
-0.230320
-0.249542
-0.262271
-0.273440
-0.285649
-0.301235
-0.317340
-0.332407
-0.349032
-0.364877
-0.383061
-0.400465
-0.419428
-0.440988
-0.459691
-0.480732
-0.505929
-0.532945
-0.558662
-0.580742
-0.600744
-0.621265
-0.637630
-0.645163
-0.654255
-0.662048
-0.659450
-0.653994
-0.641785
-0.627238
-0.613989
-0.591389
-0.569568
-0.546449
-0.517614
-0.483325
-0.445138
-0.412407
-0.377858
-0.334477
-0.292654
-0.252130
-0.209527
-0.174978
-0.150560
-0.116530
-0.079383
-0.051587
-0.026909
0.004004
0.037774
0.062712
0.087130
0.120121
0.153372
0.183765
0.215197
0.241434
0.265073
0.290530
0.313910
0.335211
0.352616
0.375735
0.398855
0.413922
0.435742
0.460421
0.482761
0.504062
0.523805
0.540690
0.555237
0.566667
0.575240
0.580955
0.584073
0.586411
0.584333
0.581476
0.581736
0.582255
0.577060
0.567709
0.565891
0.557579
0.541473
0.533161
0.521472
0.504067
0.488482
0.471077
0.456531
0.445621
0.429775
0.407435
0.387433
0.372367
0.352365
0.331065
0.314440
0.290282
0.261448
0.239887
0.214950
0.185856
0.160659
0.132344
0.104030
0.077793
0.053635
0.034413
0.014930
-0.003513
-0.015462
-0.026891
-0.037801
-0.047153
-0.059102
-0.072610
-0.079883
-0.086377
-0.104041
-0.121705
-0.133654
-0.146122
-0.157032
-0.169501
-0.183788
-0.196776
-0.211063
-0.227688
-0.240676
-0.253145
-0.270549
-0.284057
-0.293148
-0.302240
-0.309253
-0.315487
-0.323540
-0.326657
-0.326397
-0.327176
-0.323799
-0.316265
-0.310810
-0.306653
-0.295743
-0.280936
-0.267947
-0.254179
-0.238333
-0.223786
-0.214434
-0.202484
-0.188456
-0.173649
-0.157284
-0.144035
-0.128969
-0.114941
-0.104030
-0.090782
-0.080391
-0.071299
-0.062207
-0.056491
-0.049737
-0.039606
-0.032073
-0.028955
-0.023759
-0.019603
-0.022460
-0.023239
-0.019083
-0.017264
-0.020381
-0.024797
-0.024017
-0.020900
-0.019081
-0.017522
-0.021938
-0.028951
-0.036225
-0.040381
-0.048173
-0.060382
-0.069734
-0.078565
-0.086878
-0.100385
-0.107918
-0.110776
-0.118049
-0.120906
-0.128179
-0.136232
-0.144544
-0.155194
-0.158831
-0.166624
-0.175456
-0.172858
-0.171299
-0.170259
-0.162466
-0.156231
-0.149997
-0.140385
-0.132332
-0.122720
-0.112849
-0.107393
-0.102717
-0.100639
-0.100898
-0.097521
-0.101937
-0.112328
-0.122458
-0.136485
-0.152591
-0.171294
-0.193374
-0.218311
-0.241950
-0.266887
-0.294682
-0.320399
-0.345077
-0.369235
-0.394432
-0.415993
-0.439631
-0.466647
-0.492623
-0.525094
-0.554967
-0.585619
-0.618090
-0.652120
-0.689526
-0.717061
-0.746155
-0.771871
-0.792653
-0.825123
-0.854996
-0.877076
-0.897598
-0.918119
-0.938641
-0.961500
-0.981502
-0.988775
-0.992931
-0.997347
-0.996308
-0.990852
-0.984358
-0.975006
-0.965914
-0.959679
-0.949028
-0.938637
-0.931883
-0.922791
-0.922271
-0.925388
-0.922530
-0.922530
-0.922530
-0.921491
-0.930842
-0.947986
-0.961754
-0.973703
-0.981236
-0.987210
-1.002017
-1.014226
-1.020979
-1.024356
-1.024096
-1.027213
-1.022017
-1.011626
-1.003833
-0.992403
-0.978895
-0.959931
-0.936552
-0.908757
-0.882520
-0.866154
-0.847451
-0.820175
-0.789522
-0.760428
-0.740165
-0.725099
-0.706655
-0.685354
-0.664312
-0.643011
-0.617813
-0.597032
-0.579107
-0.556767
-0.535985
-0.508709
-0.482213
-0.459093
-0.427401
-0.396229
-0.365316
-0.329468
-0.289723
-0.252576
-0.223222
-0.197245
-0.173866
-0.153863
-0.128406
-0.105546
-0.092557
-0.074893
-0.062424
-0.054371
-0.032810
-0.010989
0.003039
0.010572
0.017586
0.028237
0.037070
0.047980
0.056553
0.060969
0.062528
0.061489
0.069282
0.077595
0.079154
0.082272
0.081752
0.072141
0.063049
0.057595
0.047983
0.034216
0.017072
-0.007087
-0.026829
-0.043713
-0.064235
-0.085795
-0.112811
-0.135151
-0.154633
-0.180350
-0.203469
-0.220353
-0.233861
-0.247109
-0.261396
-0.276722
-0.298023
-0.318544
-0.332052
-0.343481
-0.361665
-0.379848
-0.394655
-0.411539
-0.420371
-0.424527
-0.429463
-0.428683
-0.425566
-0.419331
-0.415694
-0.412317
-0.401406
-0.385041
-0.367896
-0.356985
-0.349452
-0.340879
-0.333086
-0.322954
-0.316200
-0.318538
-0.323993
-0.327889
-0.329447
-0.339318
-0.351267
-0.359580
-0.373087
-0.389193
-0.405298
-0.422442
-0.444263
-0.464265
-0.475434
-0.486085
-0.494397
-0.495436
-0.493097
-0.483486
-0.466860
-0.453612
-0.435168
-0.409191
-0.387111
-0.364770
-0.341131
-0.312556
-0.285021
-0.262421
-0.234885
-0.208908
-0.178255
-0.143706
-0.115391
-0.092011
-0.070710
-0.044993
-0.019016
-0.002131
0.005663
0.013456
0.017612
0.017353
0.022029
0.023068
0.019951
0.018913
0.016315
0.012938
0.014757
0.018914
0.019433
0.015537
0.008784
-0.000568
-0.010699
-0.020829
-0.031220
-0.042389
-0.061352
-0.082913
-0.099797
-0.117981
-0.134086
-0.148633
-0.162660
-0.174869
-0.186558
-0.192013
-0.190454
-0.190714
-0.192012
-0.191233
-0.194090
-0.192791
-0.188115
-0.182659
-0.169931
-0.158760
-0.152785
-0.151746
-0.152265
-0.147329
-0.147849
-0.153304
-0.155122
-0.164213
-0.176422
-0.186813
-0.199801
-0.209931
-0.217205
-0.230193
-0.244220
-0.258247
-0.275651
-0.286302
-0.291497
-0.296692
-0.305524
-0.314615
-0.319810
-0.324226
-0.330460
-0.344228
-0.355398
-0.363450
-0.377477
-0.392024
-0.403973
-0.413325
-0.416182
-0.414363
-0.411246
-0.405530
-0.400854
-0.392801
-0.382410
-0.373578
-0.359290
-0.348380
-0.341626
-0.333832
-0.327598
-0.320324
-0.315908
-0.312271
-0.304997
-0.303698
-0.302658
-0.299281
-0.296943
-0.291488
-0.291228
-0.289669
-0.286291
-0.291487
-0.294863
-0.295902
-0.297460
-0.301616
-0.310448
-0.317981
-0.329151
-0.337983
-0.343698
-0.348633
-0.349152
-0.355386
-0.361361
-0.363958
-0.365517
-0.365516
-0.367854
-0.371231
-0.374867
-0.383179
-0.392011
-0.393050
-0.399284
-0.414091
-0.423442
-0.433833
-0.452795
-0.470979
-0.486565
-0.499293
-0.509424
-0.520594
-0.528386
-0.536179
-0.544751
-0.545270
-0.539815
-0.534879
-0.529424
-0.522410
-0.522150
-0.518773
-0.505524
-0.496952
-0.492795
-0.494353
-0.498509
-0.496171
-0.497989
-0.506821
-0.510717
-0.514614
-0.522147
-0.530719
-0.538252
-0.538771
-0.536173
-0.535913
-0.531757
-0.527340
-0.524742
-0.519027
-0.509415
-0.494349
-0.481620
-0.472268
-0.454863
-0.437978
-0.424989
-0.410442
-0.394596
-0.376931
-0.358488
-0.341602
-0.324717
-0.310170
-0.297961
-0.286271
-0.270685
-0.250682
-0.238213
-0.224705
-0.209119
-0.197169
-0.178725
-0.166256
-0.158722
-0.147292
-0.140538
-0.138200
-0.134563
-0.131186
-0.128328
-0.122873
-0.118716
-0.115858
-0.111182
-0.109104
-0.104168
-0.094297
-0.085724
-0.078710
-0.075073
-0.075333
-0.071436
-0.068578
-0.072734
-0.070396
-0.068837
-0.069356
-0.067278
-0.069356
-0.066758
-0.056627
-0.045197
-0.042339
-0.040260
-0.030129
-0.019219
-0.002853
0.011954
0.020786
0.030138
0.038971
0.050660
0.064169
0.075339
0.081574
0.087289
0.096121
0.106772
0.116124
0.122358
0.132230
0.142881
0.149375
0.154571
0.162364
0.167819
0.168599
0.166001
0.156390
0.152494
0.153274
0.146520
0.140546
0.136390
0.127038
0.115868
0.108335
0.099763
0.091970
0.082879
0.068592
0.056903
0.049110
0.036641
0.021835
0.013522
0.006509
-0.002842
-0.012973
-0.021026
-0.025961
-0.033494
-0.037650
-0.038169
-0.042845
-0.048300
-0.051676
-0.052196
-0.048819
-0.046740
-0.044662
-0.041804
-0.041804
-0.040245
-0.035309
-0.030373
-0.024658
-0.016085
-0.010630
-0.005694
-0.001278
0.004178
0.012231
0.019245
0.029895
0.040027
0.052236
0.066264
0.083149
0.104450
0.120296
0.137701
0.154586
0.170692
0.187317
0.200046
0.212775
0.220828
0.227582
0.233817
0.233038
0.232779
0.235636
0.233299
0.226545
0.224727
0.223428
0.215635
0.209141
0.203946
0.191478
0.179009
0.169138
0.156410
0.146279
0.138227
0.127576
0.120303
0.113809
0.111991
0.115368
0.116148
0.118226
0.120045
0.123162
0.128358
0.130956
0.136152
0.142386
0.143426
0.144725
0.147323
0.148102
0.148882
0.142388
0.129140
0.116931
0.103683
0.086279
0.067056
0.047574
0.029650
0.008350
-0.013730
-0.031914
-0.053214
-0.068541
-0.078152
-0.089581
-0.098673
-0.106985
-0.113479
-0.117375
-0.117895
-0.112959
-0.106984
-0.103347
-0.101528
-0.092436
-0.083344
-0.081525
-0.079447
-0.077628
-0.075550
-0.072692
-0.065938
-0.060483
-0.058664
-0.051390
-0.044116
-0.035544
-0.026192
-0.016320
-0.004631
0.004721
0.020827
0.041609
0.056416
0.068625
0.084731
0.097460
0.106812
0.117982
0.125516
0.130711
0.136167
0.140843
0.143701
0.148636
0.155910
0.154352
0.154872
0.158768
0.159028
0.161107
0.157470
0.154094
0.153574
0.146821
0.141366
0.138768
0.133833
0.126560
0.121624
0.118507
0.114092
0.107598
0.102922
0.100844
0.096429
0.094091
0.087857
0.079804
0.075648
0.071752
0.071233
0.069155
0.065778
0.062141
0.059284
0.063181
0.068377
0.074352
0.082664
0.091757
0.100069
0.103966
0.108383
0.114357
0.120332
0.126307
0.130724
0.132802
0.133841
0.136699
0.139817
0.140077
0.140337
0.141116
0.139818
0.138519
0.135662
0.129947
0.122154
0.113323
0.107868
0.099555
0.088386
0.075397
0.059552
0.044745
0.029419
0.014353
-0.000453
-0.012662
-0.017857
-0.024611
-0.031884
-0.033183
-0.032403
-0.028507
-0.026948
-0.027987
-0.026428
-0.027466
-0.027726
-0.028245
-0.027725
-0.027725
-0.033180
-0.034738
-0.034219
-0.035257
-0.031880
-0.024347
-0.017333
-0.008760
0.003449
0.011762
0.019815
0.030206
0.039818
0.049949
0.052027
0.053067
0.060081
0.066056
0.074628
0.082422
0.091254
0.099047
0.105022
0.117232
0.124765
0.129701
0.137234
0.141131
0.147366
0.150224
0.152822
0.158537
0.160096
0.166850
0.170747
0.169968
0.173605
0.172826
0.173345
0.173086
0.168151
0.164774
0.158020
0.149968
0.145812
0.140616
0.133343
0.131525
0.128928
0.123992
0.122954
0.124512
0.127890
0.132306
0.138541
0.143736
0.152309
0.162180
0.168415
0.178027
0.188677
0.200887
0.213616
0.223747
0.234657
0.246087
0.257517
0.264531
0.272844
0.285054
0.293366
0.301939
0.312590
0.323760
0.335450
0.348439
0.362726
0.374935
0.390262
0.407407
0.424292
0.440398
0.450789
0.464037
0.475987
0.482481
0.491314
0.497808
0.504043
0.512356
0.520149
0.528462
0.538853
0.551582
0.562752
0.576001
0.589249
0.597562
0.606394
0.615226
0.624319
0.632372
0.640165
0.647699
0.652894
0.661207
0.670559
0.682508
0.694458
0.704070
0.718877
0.732645
0.739659
0.746932
0.755245
0.762259
0.766416
0.769014
0.770313
0.769534
0.769794
0.770573
0.768236
0.768756
0.770574
0.771354
0.774212
0.774731
0.776810
0.780706
0.778629
0.779148
0.780967
0.779409
0.776552
0.774474
0.774734
0.774474
0.773435
0.767461
0.763565
0.762526
0.757331
0.754993
0.752915
0.754474
0.757592
0.760969
0.771879
0.783050
0.792402
0.805130
0.817080
0.826432
0.838381
0.851630
0.862021
0.874230
0.886699
0.899168
0.912417
0.923068
0.939953
0.956838
0.973463
0.991647
1.006195
1.024379
1.042563
1.059967
1.078411
1.097115
1.117377
1.132184
1.146991
1.163616
1.178683
1.187775
1.191672
1.200504
1.201804
1.196089
1.193232
1.182841
1.170373
1.159203
1.146734
1.135824
1.124135
1.112706
1.105692
1.102835
1.098159
1.095042
1.091666
1.085172
1.077119
1.069067
1.062313
1.047766
1.030362
1.015036
1.000489
0.986722
0.968019
0.954511
0.942562
0.925418
0.911910
0.898142
0.883336
0.869828
0.857100
0.847749
0.839176
0.828266
0.820993
0.817616
0.814759
0.814240
0.814760
0.816059
0.822294
0.827749
0.833204
0.840738
0.846193
0.853207
0.859702
0.870093
0.882042
0.891654
0.903863
0.916852
0.931139
0.943089
0.954779
0.966209
0.975561
0.983094
0.986212
0.987511
0.987251
0.986732
0.982576
0.978680
0.975043
0.970368
0.967511
0.964394
0.963355
0.960498
0.957641
0.956861
0.956862
0.953225
0.947770
0.946212
0.941277
0.936601
0.934004
0.928289
0.918938
0.909327
0.903612
0.893221
0.882311
0.873480
0.862310
0.851660
0.839970
0.827242
0.813994
0.802045
0.790356
0.772692
0.752950
0.737624
0.722038
0.704634
0.689048
0.672423
0.655278
0.637355
0.619431
0.602546
0.582025
0.561244
0.544099
0.524877
0.504355
0.485133
0.467209
0.451883
0.436297
0.422270
0.406944
0.392137
0.376292
0.357589
0.343042
0.326937
0.313169
0.299402
0.285115
0.277842
0.269010
0.260957
0.256022
0.251087
0.249268
0.249788
0.253166
0.257062
0.264076
0.270831
0.274727
0.281741
0.288236
0.293951
0.299926
0.303563
0.306680
0.310577
0.315773
0.318890
0.320969
0.325904
0.331620
0.336036
0.341491
0.346167
0.351623
0.359156
0.366170
0.373444
0.382796
0.393187
0.402279
0.411631
0.417606
0.424360
0.432153
0.433972
0.437349
0.441766
0.446182
0.451637
0.458392
0.465925
0.471900
0.481512
0.489825
0.496579
0.502034
0.507230
0.516582
0.523336
0.527752
0.529051
0.526714
0.524896
0.519441
0.510869
0.500218
0.486970
0.475801
0.462813
0.446707
0.430862
0.413457
0.397092
0.382026
0.366180
0.352153
0.337347
0.325398
0.314488
0.299162
0.288252
0.278900
0.266172
0.256301
0.247209
0.238378
0.230325
0.217597
0.203829
0.190322
0.172138
0.153955
0.134212
0.113431
0.096806
0.076545
0.054724
0.038359
0.020436
0.001213
-0.014633
-0.030218
-0.044765
-0.056454
-0.068403
-0.081392
-0.094120
-0.105290
-0.114641
-0.126850
-0.140877
-0.150229
-0.161398
-0.173088
-0.186595
-0.200882
-0.209195
-0.218806
-0.229975
-0.239327
-0.243223
-0.247899
-0.254133
-0.256470
-0.259068
-0.257769
-0.260366
-0.265042
-0.264782
-0.265821
-0.265041
-0.264781
-0.265040
-0.262443
-0.258806
-0.254129
-0.249713
-0.246076
-0.241920
-0.239062
-0.238542
-0.237243
-0.235165
-0.234645
-0.233086
-0.229709
-0.231787
-0.235163
-0.235163
-0.236462
-0.239319
-0.245813
-0.254385
-0.266853
-0.280881
-0.294388
-0.309974
-0.325820
-0.344003
-0.362187
-0.381929
-0.404269
-0.425309
-0.446350
-0.468690
-0.491030
-0.510772
-0.529735
-0.548957
-0.566102
-0.581428
-0.597273
-0.614418
-0.632082
-0.650006
-0.665072
-0.682736
-0.704816
-0.725597
-0.749755
-0.775212
-0.798851
-0.824308
-0.849765
-0.872884
-0.894704
-0.917823
-0.939643
-0.957048
-0.974712
-0.993934
-1.010039
-1.021729
-1.032639
-1.043549
-1.049783
-1.053939
-1.059654
-1.062511
-1.063290
-1.059393
-1.052379
-1.046144
-1.036013
-1.024323
-1.011594
-0.998606
-0.985617
-0.971070
-0.957302
-0.943534
-0.929506
-0.913920
-0.899113
-0.887163
-0.875214
-0.863784
-0.853393
-0.844301
-0.835988
-0.826376
-0.816505
-0.810530
-0.806113
-0.800398
-0.795462
-0.790786
-0.787149
-0.785590
-0.781434
-0.774939
-0.771562
-0.765847
-0.759352
-0.754157
-0.745584
-0.735973
-0.725582
-0.713892
-0.697786
-0.679862
-0.662717
-0.643494
-0.627907
-0.609723
-0.590500
-0.576472
-0.560367
-0.546079
-0.535688
-0.524778
-0.514646
-0.506334
-0.493085
-0.481915
-0.476459
-0.469965
-0.463211
-0.458535
-0.454638
-0.452300
-0.449442
-0.446844
-0.445545
-0.440349
-0.441128
-0.443206
-0.442687
-0.447622
-0.449960
-0.454116
-0.459830
-0.465285
-0.473597
-0.481390
-0.489183
-0.494638
-0.498014
-0.500092
-0.502690
-0.504248
-0.503728
-0.505027
-0.505286
-0.505546
-0.501130
-0.497233
-0.495934
-0.490998
-0.485543
-0.479308
-0.473333
-0.467618
-0.460344
-0.450732
-0.443199
-0.434626
-0.422417
-0.411766
-0.397998
-0.386049
-0.374618
-0.359552
-0.345264
-0.329938
-0.315910
-0.300064
-0.281620
-0.266553
-0.247850
-0.226289
-0.208884
-0.189401
-0.169918
-0.153812
-0.134589
-0.117704
-0.104456
-0.089129
-0.074322
-0.061853
-0.051202
-0.044188
-0.040032
-0.035875
-0.034576
-0.033017
-0.033277
-0.040030
-0.046524
-0.055876
-0.067045
-0.079774
-0.095619
-0.108867
-0.124453
-0.141857
-0.159261
-0.177445
-0.194589
-0.212773
-0.227579
-0.239788
-0.252517
-0.261868
-0.266803
-0.270180
-0.274856
-0.278492
-0.282388
-0.283427
-0.283427
-0.283946
-0.280309
-0.280309
-0.279270
-0.275892
-0.276152
-0.273294
-0.271216
-0.270436
-0.268877
-0.268098
-0.264461
-0.260564
-0.255888
-0.252511
-0.248354
-0.242379
-0.237184
-0.230170
-0.225234
-0.219778
-0.214323
-0.209387
-0.204451
-0.197177
-0.188605
-0.183929
-0.180811
-0.175875
-0.167822
-0.161328
-0.151197
-0.141325
-0.130415
-0.112231
-0.098982
-0.084175
-0.067030
-0.050665
-0.032481
-0.016635
0.003108
0.021812
0.041814
0.060258
0.075844
0.090391
0.101562
0.114550
0.121824
0.126760
0.130916
0.134034
0.142347
0.146763
0.151439
0.159752
0.168065
0.180274
0.189626
0.201576
0.216123
0.229891
0.245737
0.259505
0.272494
0.285482
0.297692
0.308602
0.322370
0.337697
0.347308
0.359518
0.372506
0.384456
0.398484
0.410433
0.423162
0.436411
0.448360
0.459011
0.469662
0.483949
0.496418
0.507848
0.520577
0.533566
0.545775
0.560063
0.575389
0.588638
0.604484
0.619031
0.633059
0.650723
0.663712
0.674363
0.688131
0.700340
0.709952
0.718005
0.722161
0.727357
0.730215
