EVENT_NAME: 202302060117
EVENT_ID: 13194
EVENT_DATE_YYYYMMDD: 2023/02/06
EVENT_TIME_HHMMSS: 01:17:32.00000
EVENT_LATITUDE_DEGREE: 37.288
EVENT_LONGITUDE_DEGREE: 37.043
EVENT_DEPTH_KM: 8.6
HYPOCENTER_REFERENCE: AFAD
MAGNITUDE_W: 7.7
MAGNITUDE_W_REFERENCE: AFAD
MAGNITUDE_L: 
MAGNITUDE_L_REFERENCE: 
FOCAL_MECHANISM: 
NETWORK: TK
STATION_CODE: 2715
STATION_NAME: 
STATION_LATITUDE_DEGREE: 36.855364
STATION_LONGITUDE_DEGREE: 36.685618
STATION_ELEVATION_M: 431.0
LOCATION: Kahramanmaras_Pazarck_Turkiye
SENSOR_DEPTH_M: 
VS30_M/S: None
SITE_CLASSIFICATION_EC8: unknown
MORPHOLOGIC_CLASSIFICATION: 
EPICENTRAL_DISTANCE_KM: 57.62
EARTHQUAKE_BACKAZIMUTH_DEGREE: 
DATE_TIME_FIRST_SAMPLE_YYYYMMDD_HHMMSS: 2023/02/06 01:17:17.0371780
DATE_TIME_FIRST_SAMPLE_PRECISION: millisecond
SAMPLING_INTERVAL_S: 0.01
NDATA: 7156
DURATION_S: 
STREAM: HNE
UNITS: cm/s^2
INSTRUMENT: sensor = ACEBOX/SARA | digitizer = 
INSTRUMENT_ANALOG/DIGITAL: 
INSTRUMENTAL_FREQUENCY_HZ: 
INSTRUMENTAL_DAMPING: 
FULL_SCALE_G: 
N_BIT_DIGITAL_CONVERTER: 
PGA_CM/S^2: 340.763
TIME_PGA_S: 
BASELINE_CORRECTION: BASELINE REMOVED
FILTER_TYPE: BUTTERWORTH
FILTER_ORDER: 
LOW_CUT_FREQUENCY_HZ: 
HIGH_CUT_FREQUENCY_HZ: 
LATE/NORMAL_TRIGGERED: 
DATABASE_VERSION: 
HEADER_FORMAT: DYNA 1.2
DATA_TYPE: Acceleration
PROCESSING: Automatic Paolucci et al., 2011
DATA_TIMESTAMP_YYYYMMDD_HHMMSS: 
DATA_LICENSE: U (unknown license)
DATA_CITATION: Turkish Accelerometric Archive v 1.0 - Disaster And Emergency Management Presidency, Earthquake Department
DATA_CREATOR: AFAD
ORIGINAL_DATA_MEDIATOR_CITATION: : AFAD - Disaster And Emergency Management Presidency
ORIGINAL_DATA_MEDIATOR: AFAD PROCESS SERVICE
ORIGINAL_DATA_CREATOR_CITATION: AFAD PROCESS SERVICE
ORIGINAL_DATA_CREATOR: network: TK
USER1: GuestUser
USER2: 
USER3: 
USER4: 
USER5: 
[...]
8.809539
-0.140808
0.809224
-2.961345
-4.602722
-9.723938
-28.283119
-13.736140
15.013790
8.252486
10.700691
28.521066
16.112857
-10.698432
-31.136876
-40.862495
-18.337651
24.411591
38.477649
16.036264
0.160374
14.264542
27.640898
11.650214
-5.185882
-5.305005
-21.922967
-39.685601
-12.532039
25.808488
24.819639
5.368521
5.435033
22.300580
23.421985
-5.024482
-25.589644
-16.825406
-12.407927
-14.323081
-2.524622
6.443720
11.494088
13.058773
-0.481248
-9.868329
-16.276832
-27.649553
-24.257742
-13.526335
2.303724
23.577518
22.054443
6.203335
-8.635196
-19.027605
-1.566109
17.901601
9.281376
0.548226
-5.550729
-10.097973
5.439138
21.779810
20.119495
6.604490
-6.529192
-9.057362
-6.268515
5.106771
15.803343
2.956998
-6.129185
4.966479
11.137671
15.176632
17.234629
14.471025
15.410770
-0.345182
-16.250998
-3.260875
0.109193
-6.290193
4.034876
9.818666
10.817795
5.300761
-5.130225
8.412128
9.785800
-25.900667
-41.045005
-20.529182
3.041203
12.730810
1.830360
-10.783591
-5.753563
-4.385034
-20.449598
-26.070439
-9.097579
1.322645
-4.478687
-3.006118
2.716651
-4.609039
-14.631581
-25.546293
-38.072803
-29.570184
-7.329638
1.594984
1.911425
8.017154
19.114221
14.259534
-9.813521
-10.098641
21.867638
40.866818
29.961458
-0.149178
-26.080454
-17.008306
6.479549
12.774653
11.059396
-7.907293
-29.034971
-6.803076
24.001464
27.649984
17.830612
-10.705633
-25.058100
-3.799035
12.191642
20.235317
24.074381
19.519656
12.126399
-10.076045
-10.529264
23.072426
32.062979
19.545119
9.787003
1.913058
8.330205
23.031257
24.969082
-1.632491
-34.026625
-33.887169
-17.382138
-5.358298
5.686866
12.908275
5.070101
-14.071936
-8.296329
8.895833
-4.264034
-14.563859
-4.710360
-3.155027
-9.680663
-15.238145
-6.268165
13.387284
16.043335
0.269848
-23.714599
-35.139690
-24.072081
-13.158545
5.331191
22.125663
3.317488
-14.892634
-12.872746
-13.933838
-4.430099
3.657763
-7.182835
-5.566014
7.806368
10.011657
5.906057
-1.931649
-6.522379
-0.296478
-2.307722
-15.472967
-19.106297
-25.519476
-41.193131
-33.954421
-8.934259
8.379945
18.925951
12.426033
-5.276982
-9.284388
-4.593833
-5.742834
-20.273921
-33.888057
-25.570839
-6.904820
8.397091
8.976788
-12.548579
-29.739345
-20.262961
2.400291
14.197580
10.741001
2.973668
-0.101120
5.801205
14.060675
22.222651
25.177728
13.532166
6.492410
6.993317
-0.870341
-0.651159
10.109006
19.097455
29.098714
30.041732
26.026377
29.210108
15.205999
-14.475853
-18.694845
2.871897
22.772366
29.235104
23.905107
17.389759
11.621626
3.521365
-4.271452
-4.240944
8.365985
15.699150
12.274133
12.780652
11.762110
-1.153672
-28.255104
-42.905662
-18.989725
8.157290
12.478678
1.343729
-9.088425
7.451442
13.784188
-17.021761
-29.993421
-29.978578
-52.876803
-56.694131
-19.422993
-0.983055
-24.741654
-29.450685
-17.612715
-36.386989
-34.427421
2.786203
0.545136
-28.696476
-21.843297
11.009073
20.356401
2.933709
2.800090
5.780885
-22.170400
-28.362875
-2.951336
-2.204475
-7.411026
2.896975
11.292748
16.229023
4.615024
-14.685295
-25.489187
-34.218362
-13.178832
29.927418
35.123676
12.749859
8.708319
12.471399
-1.260102
-22.077531
-30.242086
-26.143740
-12.893167
13.426440
36.109331
42.868991
40.902401
15.479634
-5.980971
13.889104
24.575389
20.299818
23.148050
13.526003
30.316735
55.148690
29.682436
3.203139
-2.670670
-1.370878
13.843593
14.025834
-7.586271
-21.640647
-13.122130
-4.220653
-15.347185
-18.915753
-7.235129
6.114107
9.000214
-6.339812
4.623990
37.284412
35.556063
20.902231
13.092347
1.735758
-8.449974
-21.359210
-15.548533
12.347335
24.783826
18.634604
1.238097
-16.551424
-25.694888
-38.183990
-39.500623
-41.590423
-59.747473
-40.834330
-3.551969
1.215504
9.652660
11.979757
-14.942586
-31.309216
-41.245954
-44.052811
-18.884188
-10.698364
-27.386934
-20.857798
-3.228435
-3.441311
-16.361770
-32.637219
-30.362258
-4.026052
8.726533
-0.664756
-3.206252
-8.265745
-28.858495
-36.120125
-27.622883
-16.701398
10.269801
31.581938
22.636033
5.280674
-17.997704
-39.057815
-32.170268
-12.070370
1.185347
-1.056421
-1.521798
24.924761
27.112983
-20.470726
-54.185815
-41.973535
-0.418997
22.713018
10.115901
15.866726
37.970734
36.852361
15.573884
-15.765824
-30.867378
-28.191922
-17.014195
25.478571
60.274498
48.263277
23.348785
-2.917523
-15.253956
12.376084
38.389650
24.427157
-5.763438
-28.807552
-27.661832
4.212564
22.783194
12.247936
8.621152
5.470614
3.111713
28.050980
39.333448
13.427656
8.001335
19.041589
5.287175
4.214393
19.588781
23.140041
36.443687
22.758477
-20.452521
-5.179134
33.374148
27.044902
11.820839
5.115647
-4.667953
-13.398765
-9.066388
6.172865
8.072815
0.597962
2.414446
9.703423
3.653565
-20.785150
-32.935246
-23.328637
-10.581429
-4.416316
-15.277955
-26.985708
-16.113554
4.457680
19.432742
27.335904
18.728304
-3.363554
-4.583395
4.988145
2.709436
26.944039
47.622585
21.783659
8.910661
14.095229
6.008996
-14.361412
-54.127408
-58.497433
-13.190683
1.803317
-7.065435
5.641092
23.089028
19.601120
-12.193090
-42.774828
-42.217108
-16.290047
22.921609
39.626069
12.988023
-8.744020
-6.911638
-13.555575
-12.973072
15.309964
40.022916
36.179402
15.244373
3.797305
5.878214
6.602631
-4.096519
-19.755445
-6.873804
14.603861
1.995756
-3.118679
9.706617
8.106855
0.536380
-15.342082
-22.203451
-9.079361
-11.097620
-15.416911
-2.537841
-2.950380
-24.923936
-31.951301
-16.628816
-24.013189
-38.712144
-12.563677
9.241773
-7.165071
-10.457057
21.109194
45.288387
34.352400
12.876832
-4.148405
-24.009603
-29.395010
-20.168555
-6.420461
15.028681
12.985406
-2.021459
21.181864
38.181610
-1.831509
-37.193933
-12.981074
23.462656
29.361241
20.763226
-4.169035
-24.739106
-12.642790
-4.757396
-2.361796
8.346700
1.125751
-7.363080
0.535172
2.200156
-10.851697
-21.707024
-26.462113
-24.357357
3.856476
18.233250
3.690473
23.712516
42.802644
16.145895
-15.762175
-31.812945
-15.720332
15.689509
32.977527
30.999482
-5.815291
-36.367103
-27.067703
-4.011672
14.636812
11.088818
10.482228
19.839142
4.169227
2.464959
19.176433
10.888433
1.408535
-12.308938
-40.931455
-26.977619
25.276183
41.649587
22.006521
3.556757
-11.914663
-16.094143
-11.708461
-4.369685
17.445817
28.543586
14.634165
3.540364
4.695904
1.767005
-16.499228
-20.950381
0.104579
4.595938
-7.239000
-8.968285
-4.737844
5.061415
13.888076
5.583711
-12.137775
-19.261698
-13.861569
-1.371070
16.331237
16.284825
-11.854667
-29.298401
-15.539319
-1.854818
-2.786620
6.185931
17.771868
4.153992
-3.946034
10.395905
-0.014507
-21.368033
-7.573413
-3.458701
-25.668860
-18.216927
-1.391593
-8.144480
-12.141365
-14.315566
-12.456764
-7.027644
-17.666241
-8.900133
15.107452
-1.665050
-19.613319
5.772969
23.820361
13.456008
26.494995
64.272070
67.238136
39.652043
20.044515
5.883294
0.582288
-7.080538
-25.771113
-10.675879
20.159756
17.112088
20.329720
30.593299
-2.169533
-42.484485
-48.828928
-37.367839
-25.448039
-30.564345
-41.012164
-21.205681
0.982494
-4.994654
-5.511466
-6.455660
-19.580223
-0.880771
18.522178
-4.258447
-9.553140
8.275885
2.564332
-1.061049
9.440302
6.341667
-10.362333
-28.893926
-31.506964
-14.813025
-10.255501
-23.456283
-28.591760
-30.373883
-44.283071
-52.690073
-50.543467
-54.894554
-49.763526
-34.430520
-35.497691
-34.442451
-26.626261
-37.450961
-52.635746
-61.150997
-65.776328
-62.020496
-56.619198
-48.311098
-42.064857
-41.184497
-32.234624
-33.843738
-50.257361
-48.312522
-33.381414
-28.053061
-34.105257
-44.274623
-47.529435
-42.607188
-32.155402
-19.733873
-14.041498
-11.926454
-6.599036
-8.225684
-16.806398
-19.432763
-27.329386
-32.102478
-14.547696
7.980420
43.992092
73.163324
59.302533
51.535668
37.130596
-1.662101
7.054909
36.601152
44.995990
34.303152
5.812497
35.015993
86.653038
72.684232
55.943526
44.895316
21.396467
27.860607
27.885737
-3.258985
-23.688076
-27.778948
-49.937438
-70.776142
-38.791160
-13.472205
-27.428620
-20.922863
-25.623712
-41.151945
-26.872196
-33.988170
-31.709702
1.001688
-23.481682
-41.591504
25.384979
68.082552
33.062874
-10.008781
-21.274189
-5.853743
14.114060
17.557539
6.449010
12.303640
61.538185
100.077439
44.539948
-39.828020
-43.298861
-31.853904
-37.000136
2.392479
25.341431
37.326927
80.053958
71.807107
76.321846
123.162306
67.006187
-19.637096
-36.164111
-66.507843
-74.617222
7.904208
78.934035
57.528138
21.291079
25.461200
-4.476894
-61.224286
-67.973900
-52.833076
-12.221208
63.358547
79.707869
45.080971
40.859875
43.550527
24.042363
-19.219369
-57.201726
-27.964329
9.018771
-5.184767
-5.480407
1.358978
0.084429
18.194712
13.129841
-15.884286
-48.898684
-74.841416
-56.079540
-39.153206
-30.938626
-0.051789
-7.548853
-25.642543
-13.407585
-14.981395
-14.216998
-18.320728
-34.605763
-23.410736
-7.595640
8.705754
24.238189
4.510957
-12.951481
3.738250
26.960277
11.876959
-53.475341
-81.130171
-34.246458
1.632417
4.486494
10.741619
24.839006
38.320572
24.293550
-4.236383
-7.332680
-12.036100
-21.657445
-20.239585
-21.458958
9.068765
34.938312
7.923386
12.170660
36.704523
19.898354
2.556088
-1.485686
4.720810
6.013589
-8.653336
-12.693707
-27.972712
-47.189097
-42.215648
-37.352084
-29.075547
-30.327886
-42.268968
-23.750241
-7.479240
-16.438472
-21.804707
-33.532098
-48.506466
-39.206131
-12.552194
1.254817
-7.418013
-15.803038
-15.478648
-6.010915
13.209438
2.694286
-34.703811
-47.954391
-42.622765
-26.746648
-10.353606
-12.573865
-4.770067
-11.307860
-46.348345
-41.735879
-15.261966
-14.209064
-32.811264
-57.997662
-53.434294
-33.619394
-29.454183
-24.307724
-27.060807
-31.271850
-24.521542
-27.178067
-26.928725
-12.968577
-15.207072
-44.369895
-59.755278
-43.997229
-31.978065
-29.987636
-22.424415
-0.115600
21.521281
15.243237
-1.596132
-29.051766
-44.569245
-15.916575
-10.323797
-17.840967
20.977909
65.255484
62.963215
1.930318
-22.770249
3.357176
-7.833183
30.783927
83.514675
25.113868
-19.186392
4.439169
33.887451
51.820750
46.858049
58.683862
48.735668
18.779805
92.484507
165.493661
130.572646
116.554275
101.765543
46.919623
74.785565
119.999498
107.749336
117.548828
106.098019
59.836902
56.112157
77.057700
82.498276
52.818294
28.337729
55.420918
81.071865
96.763048
125.938956
115.660640
61.962431
26.276899
13.542543
16.281826
56.083352
100.771708
113.623891
103.709598
75.916827
58.104862
58.487702
50.811082
50.557526
63.573834
85.316860
124.401797
145.221557
119.941640
72.326602
37.038058
38.752840
75.813795
109.596678
84.163857
18.410828
-4.009515
15.058168
42.051345
82.634221
90.893223
64.805536
77.583138
82.251715
19.741922
-17.852565
-4.526943
-3.930880
-7.606527
-44.535159
-100.689642
-69.974647
-27.705624
-38.692813
-0.791825
27.443984
-14.381298
4.379643
43.411976
-24.210029
-70.013137
-16.194998
35.973702
104.970194
145.938135
46.848655
-20.240526
66.745964
126.398281
86.286733
49.185558
30.120440
14.155239
32.865213
56.687631
63.361487
79.033499
76.793367
63.826850
77.844045
96.043639
103.281882
83.775354
43.209071
17.686238
-2.542723
-5.215614
7.502369
7.826058
53.937071
117.894063
112.145569
118.590071
171.032313
179.192419
144.696681
99.235618
44.444641
-6.126997
-25.255474
0.394771
16.619713
33.879208
73.094371
27.346672
-38.711697
5.007336
51.761526
46.388510
29.805384
11.822747
29.529964
61.235324
89.235232
131.143973
157.714678
159.821538
121.752209
56.567775
35.852983
41.154216
26.538961
20.207844
29.756472
29.525360
-7.165734
-84.123965
-81.981100
49.390164
101.355694
33.312153
29.443623
51.671778
28.091099
17.090818
-1.003574
-26.751320
-30.745399
-12.979733
62.745211
121.882706
64.451222
22.040278
83.435320
104.703503
53.754282
36.551359
37.493208
33.061694
72.574481
106.068624
55.583024
1.345679
16.313727
12.806881
-32.285250
-54.295746
-73.964295
-118.135031
-165.692087
-94.131775
144.358383
236.164136
74.122170
-34.791938
-81.585646
-116.685750
5.830443
97.246222
44.708116
24.044525
-51.736770
-109.993324
39.378693
115.807834
55.126335
73.150581
59.535978
11.995522
37.879564
30.264667
-4.441722
14.249314
27.669624
-7.245312
-30.342031
-14.094878
-31.204749
-55.682274
-16.918574
-8.220034
-54.812208
-60.474431
-39.333667
-27.069718
-20.420878
2.620423
83.588738
112.063956
43.750145
55.354084
82.289279
14.725256
20.735362
57.169974
14.044311
22.307288
43.851585
9.100541
29.602804
67.722159
36.987284
17.207213
44.650684
13.655125
-64.054764
-47.123755
3.082919
-14.967987
-42.813362
-59.097695
-19.727759
36.624509
-25.349187
-70.577622
-21.548352
-57.634613
-123.614425
-83.983805
-45.781686
-50.138151
-4.090965
4.599861
-115.934206
-110.089161
76.651608
41.960650
-130.124077
-83.772253
-29.075737
-62.925961
-65.448520
-104.625346
-69.812820
7.153821
-15.581447
-39.682325
-89.064168
-67.690543
53.316021
24.154602
-48.994136
-88.528673
-122.587911
19.590865
155.185443
105.312859
19.177618
-62.133684
-98.574615
-87.821464
-87.891957
-57.033176
-43.841052
-96.047167
-113.353896
-24.284974
89.173212
79.672506
-26.306512
-102.130592
-107.474617
12.545790
235.448684
340.763243
193.936102
-32.072327
-96.632289
-19.933113
51.028445
76.695056
28.347999
-70.304513
-102.026714
-96.315869
-140.558381
-165.652663
-114.292668
-36.957329
-0.666970
-37.398277
-102.469086
-127.966903
-104.891467
-76.928967
-81.145854
-97.185402
-123.069685
-173.115046
-172.681238
-88.438125
8.301452
71.429398
65.860695
-8.935379
-85.302103
-126.566272
-148.006536
-149.385359
-78.854456
29.055954
47.769669
-3.925599
-51.162586
-79.373386
-55.285842
-11.029075
17.509502
48.055462
29.945405
-44.520547
-96.339026
-102.655647
-53.858069
44.718219
85.644777
13.980885
-85.785438
-121.719029
-52.776544
21.245888
-23.959168
-73.009253
-34.900419
-26.274823
-78.126968
-106.349926
-55.247107
44.958748
95.512376
80.755908
32.012097
-49.914326
-90.982339
-38.850812
17.974895
1.804187
-44.990690
-48.094001
-28.172023
-49.521340
-79.755889
-70.748970
-70.314695
-110.340206
-131.381145
-106.011690
-70.767574
-25.509220
-1.183904
-55.836940
-112.315933
-79.780593
-1.136924
44.397778
22.208193
-25.292517
-37.373176
-25.395395
-32.796602
-53.576389
-49.877603
-53.157899
-88.741028
-110.902557
-101.241707
-18.159163
74.746606
12.175090
-68.875529
-11.958874
37.563475
35.005145
39.481307
48.159741
91.055106
132.709008
107.088682
42.371609
-21.290104
-64.189217
-71.709660
-61.322870
-36.366067
22.832449
49.809260
-15.969955
-103.338477
-148.464275
-126.789051
-58.950556
-33.746163
-33.405640
-15.799658
-37.490319
-65.823395
-42.495926
-21.296947
-20.288232
-12.500565
-21.851407
-38.275084
-0.662835
44.016169
-7.999401
-69.885891
-24.888922
4.980663
-33.172132
-19.472434
6.285592
-5.420056
-3.110961
-12.753348
25.559591
155.543268
202.426279
124.132832
57.960838
22.867047
-7.008155
-5.653654
15.177328
4.885452
-51.884853
-73.141353
21.798219
127.870047
117.505694
43.915547
-10.921722
-18.122331
12.031317
34.990322
32.235135
-10.625869
-58.801552
-64.076373
-75.036675
-87.140246
-39.376287
40.467463
101.515549
106.660372
51.960342
19.717474
60.257566
97.558163
57.426976
-28.284391
-72.853284
-52.829370
-40.752926
-53.148744
-44.049709
-23.874294
6.484628
48.651481
72.311410
79.885620
67.809871
19.210313
-54.283510
-110.564243
-101.301082
-34.006868
42.429520
81.843177
70.313111
35.142634
-3.200939
-3.292708
49.338443
65.881817
48.071021
89.795763
131.397528
89.454412
22.272648
-27.672180
-63.137475
-49.737738
-6.187741
-6.806021
-20.973087
11.344589
44.969425
60.825903
73.190618
40.668597
-40.100529
-95.562037
-53.137072
37.273847
41.147513
-39.112636
-92.885894
-98.260312
-116.196657
-109.180755
6.351446
95.306743
43.630880
-21.087129
-83.911847
-149.387827
-72.780299
53.631424
74.310906
80.987100
89.595629
52.478322
41.493705
61.956457
40.873200
-17.291238
-52.051634
-79.106306
-79.421351
48.072853
143.191981
59.978504
35.436217
72.873819
-31.215883
-68.304666
60.204686
53.938799
-68.019561
-61.116349
-4.275679
-5.498325
3.075836
8.433413
-8.744026
30.079526
96.286817
88.382011
38.457290
-12.112945
-71.572152
-84.916952
-34.848219
49.548498
116.800395
81.903227
-17.981631
-78.537347
-36.446712
77.359831
106.304046
63.798882
68.031193
39.140979
-42.298912
-84.838679
-87.381812
-22.213750
84.375004
91.469696
24.801584
2.891854
-6.663794
-47.032753
-71.533658
-50.666437
-16.285735
4.233830
35.213951
62.217415
61.165441
63.615282
30.940123
-36.979038
-21.455955
42.684568
26.028029
-28.264259
-35.589715
-35.150296
-43.738258
-11.002085
16.573247
-3.005057
-0.352045
18.090230
-11.473788
-67.982240
-73.790352
-0.053387
46.364836
21.400545
51.098522
126.304436
109.799163
21.831653
-28.112940
-16.811067
12.470283
23.598445
-1.738285
-58.241593
-75.607706
-27.874608
-1.944975
26.958091
118.319162
136.107740
56.097286
3.982119
-58.689930
-124.729829
-99.944400
-49.706865
-5.680622
74.476650
87.574787
-21.010135
-87.625175
-60.009864
-52.652618
10.838884
162.609894
150.748070
-25.407535
-107.152765
-107.239156
-107.780985
-42.303843
40.316717
74.504770
72.210865
0.199784
-33.097509
65.188637
122.386316
78.875356
35.261291
-14.863560
-87.994764
-117.334804
-34.196384
75.821475
62.806095
-28.711393
-63.110573
-17.537527
27.488666
16.728027
-13.994925
-48.612471
-91.386268
-62.436442
56.837450
92.997350
-1.514380
-44.360655
-41.819399
-79.242980
-35.255781
79.409967
96.356642
18.011292
-41.218560
-13.273127
64.729937
69.779136
-20.302837
-61.840548
-16.059190
1.347831
5.708030
23.707961
-22.150791
-55.272035
-10.828230
3.653052
-18.475980
-40.900765
-69.132372
-9.041686
108.784768
93.662406
-33.029646
-112.864986
-89.421320
-18.939280
-11.997024
-29.995326
12.523392
55.325005
78.375190
66.152850
-9.129989
-69.481367
-97.300556
-77.542002
13.300273
49.488930
10.823885
-10.199285
-30.329116
-33.150936
9.957185
29.000553
-16.151664
-72.472376
-59.227414
4.583221
33.194041
26.231672
-0.563720
-52.870133
-94.706637
-93.945748
-55.387088
-41.153163
-61.460680
-13.383900
57.496297
38.283185
2.684158
-31.202772
-84.687524
-58.719782
9.273486
32.472601
35.366423
9.892454
-8.492314
26.625551
89.428052
155.555618
146.211556
48.660228
-21.500114
-31.653348
-21.838893
-16.979069
-26.734147
-23.654222
8.010925
17.470009
-18.319329
-4.611916
83.591021
98.417388
-3.934499
-72.316111
-36.351432
12.241339
15.357269
-16.074556
-51.152449
-30.218596
15.180504
9.517814
-18.025261
-49.046537
-59.181302
4.843024
58.596168
45.236404
42.331353
42.440883
10.468987
-19.895319
-43.455424
-71.371639
-93.972707
-62.309664
39.336850
107.419662
90.397698
42.690778
-39.460791
-139.333025
-130.075942
-8.941257
54.943024
13.968530
