EVENT_NAME: 202302060117
EVENT_ID: 13194
EVENT_DATE_YYYYMMDD: 2023/02/06
EVENT_TIME_HHMMSS: 01:17:32.00000
EVENT_LATITUDE_DEGREE: 37.288
EVENT_LONGITUDE_DEGREE: 37.043
EVENT_DEPTH_KM: 8.6
HYPOCENTER_REFERENCE: AFAD
MAGNITUDE_W: 7.7
MAGNITUDE_W_REFERENCE: AFAD
MAGNITUDE_L: 
MAGNITUDE_L_REFERENCE: 
FOCAL_MECHANISM: 
NETWORK: TK
STATION_CODE: 0131
STATION_NAME: 
STATION_LATITUDE_DEGREE: 37.856602
STATION_LONGITUDE_DEGREE: 36.115347
STATION_ELEVATION_M: 769.0
LOCATION: Kahramanmaras_Pazarck_Turkiye
SENSOR_DEPTH_M: 
VS30_M/S: None
SITE_CLASSIFICATION_EC8: unknown
MORPHOLOGIC_CLASSIFICATION: 
EPICENTRAL_DISTANCE_KM: 103.35
EARTHQUAKE_BACKAZIMUTH_DEGREE: 
DATE_TIME_FIRST_SAMPLE_YYYYMMDD_HHMMSS: 2023/02/06 01:17:29.8683590
DATE_TIME_FIRST_SAMPLE_PRECISION: millisecond
SAMPLING_INTERVAL_S: 0.01
NDATA: 12501
DURATION_S: 
STREAM: HNE
UNITS: cm/s^2
INSTRUMENT: sensor = ACEBOX/SARA | digitizer = 
INSTRUMENT_ANALOG/DIGITAL: 
INSTRUMENTAL_FREQUENCY_HZ: 
INSTRUMENTAL_DAMPING: 
FULL_SCALE_G: 
N_BIT_DIGITAL_CONVERTER: 
PGA_CM/S^2: 159.765
TIME_PGA_S: 
BASELINE_CORRECTION: BASELINE REMOVED
FILTER_TYPE: BUTTERWORTH
FILTER_ORDER: 
LOW_CUT_FREQUENCY_HZ: 
HIGH_CUT_FREQUENCY_HZ: 
LATE/NORMAL_TRIGGERED: 
DATABASE_VERSION: 
HEADER_FORMAT: DYNA 1.2
DATA_TYPE: Acceleration
PROCESSING: Automatic Paolucci et al., 2011
DATA_TIMESTAMP_YYYYMMDD_HHMMSS: 
DATA_LICENSE: U (unknown license)
DATA_CITATION: Turkish Accelerometric Archive v 1.0 - Disaster And Emergency Management Presidency, Earthquake Department
DATA_CREATOR: AFAD
ORIGINAL_DATA_MEDIATOR_CITATION: : AFAD - Disaster And Emergency Management Presidency
ORIGINAL_DATA_MEDIATOR: AFAD PROCESS SERVICE
ORIGINAL_DATA_CREATOR_CITATION: AFAD PROCESS SERVICE
ORIGINAL_DATA_CREATOR: network: TK
USER1: GuestUser
USER2: 
USER3: 
USER4: 
USER5: 
[...]
-46.692901
-62.658684
-52.529652
-26.083209
-6.250422
-1.419938
3.173943
18.712809
32.279127
34.443621
38.414900
42.513832
19.942341
-12.881628
-17.848652
-13.505168
-23.704575
-38.907711
-41.249660
-15.087514
17.106368
25.740499
18.455141
5.391951
-3.528351
-12.525806
-29.557004
-22.937035
5.535028
17.321915
19.590449
20.441002
13.766556
10.393795
4.609415
-8.204547
-12.681298
-8.236580
-1.239029
-1.482881
-23.300376
-45.730420
-41.672402
-27.265816
-15.898361
0.661732
21.435085
45.177196
63.290403
47.645390
4.723952
-22.528161
-41.998798
-69.960485
-62.007639
-23.008854
1.246208
27.269011
48.340222
34.773667
13.202360
-6.749432
-23.372419
-11.036342
5.617270
2.873657
4.897171
10.370597
8.455796
8.721856
7.602199
1.974230
-3.456414
-9.630066
-11.621553
-9.138628
-8.628717
-13.571427
-29.976281
-45.957962
-45.302396
-29.617874
2.031026
31.421445
43.177939
52.356584
47.858089
26.211734
9.941080
-0.320518
5.833960
16.384294
-1.342216
-22.916328
-31.308248
-32.543401
-9.956249
26.352231
45.654532
33.614439
-0.688765
-32.194351
-49.505403
-46.162805
-26.237669
-7.279985
8.084468
16.580893
14.366364
9.116211
7.324855
10.917382
14.260448
14.920222
11.206351
-4.139168
-18.892478
-15.746270
-4.751721
-1.953871
-6.915752
-12.455813
-14.584071
-13.981811
-10.332471
-9.592504
-14.952308
-5.050060
17.041442
25.380989
23.973762
9.952704
-15.914393
-34.575858
-42.676701
-32.410431
-11.233310
13.533768
47.535604
54.450858
32.674745
17.794483
-4.435196
-24.468584
-19.108783
-11.796308
0.197491
25.769065
30.476571
6.518429
-17.241220
-26.316997
-23.712965
-19.781665
-10.786551
9.401841
18.014697
2.717808
-21.273300
-36.112413
-27.918522
-1.315201
25.069287
30.830284
14.325131
-4.277184
-25.870935
-46.107259
-39.938753
-18.694766
-5.209809
2.708903
5.070721
4.275108
13.020059
25.822796
26.622147
16.426948
3.060056
-5.972937
-10.701488
-19.837118
-25.665451
-13.943092
12.662802
32.861481
25.231272
0.319237
-16.055224
-20.557693
-22.040437
-15.435666
0.739596
8.482259
3.954306
-6.333944
-20.959368
-20.896244
5.219143
40.194511
60.524818
43.122819
2.843757
-10.688431
-7.887073
-22.949464
-27.959740
-13.708162
2.884662
30.070373
41.362078
22.079179
14.385845
22.542562
18.691452
8.228088
5.494295
-3.106173
-23.489555
-29.121031
-14.459139
4.399181
18.175917
16.868989
9.924975
8.227138
2.141627
-7.420449
-17.816012
-29.772172
-31.141524
-24.507762
-21.790104
-7.196013
27.189719
52.689050
48.905741
24.167884
-0.554775
-11.088512
-16.280684
-27.521424
-34.133680
-22.068807
-0.620715
15.100981
23.225902
21.214075
16.213383
23.978490
37.711273
44.648270
45.743141
32.475378
-6.046230
-51.196224
-71.911832
-53.751163
-11.852825
13.041205
11.728666
5.870640
-3.527544
-9.137511
-4.011975
-4.565842
-6.501451
1.125949
8.005666
11.308285
16.104634
18.148722
13.425081
5.070801
-3.928291
-7.390128
-2.264826
4.883758
12.125626
8.978246
-7.617854
-11.330323
-4.443592
-3.587194
3.067610
12.634125
19.033154
20.102775
5.928815
-4.808560
-3.137613
-2.270226
1.563346
-0.706827
-15.538927
-27.821935
-33.319212
-26.003463
-4.416262
15.785223
31.783033
44.215435
43.796469
30.903249
11.794997
-7.212020
-22.005076
-32.367206
-27.828501
-10.790761
2.369452
17.185183
29.776333
25.507895
15.564028
5.263620
-15.805489
-40.048397
-45.566715
-28.797374
-6.491246
7.436523
9.696873
6.594148
-1.475366
-9.590236
-1.901114
13.472224
27.239375
30.608392
7.870905
-5.249332
9.243292
2.199446
-21.160175
-14.193018
10.130312
18.643103
7.650889
-11.181482
-22.976789
-24.466079
-23.896083
-17.959738
-2.276853
7.576531
3.080141
-3.205968
-6.459726
-9.950788
-9.254775
3.669068
24.953502
36.269756
37.339377
29.306101
0.401978
-25.043817
-36.174205
-48.880152
-40.067867
-20.590219
-23.789502
-20.275998
4.007587
24.286693
29.942715
32.051798
46.848124
52.004287
28.785646
-3.186833
-39.050400
-61.934244
-52.071508
-34.757653
-18.278220
3.824270
13.544857
6.247576
-12.058752
-25.267130
-8.492411
28.247659
58.165524
65.836878
51.218703
29.115040
2.300597
-21.679523
-29.829931
-33.136293
-29.571120
-9.060321
0.005634
-19.980761
-27.292304
-3.716423
9.972872
17.244200
41.363425
51.946491
37.943202
10.910626
-32.727168
-68.038739
-59.522675
-16.937674
16.512167
19.958571
8.312192
-5.294109
-12.366711
-7.417692
-3.538530
-1.637292
11.235584
19.227241
13.353083
7.276690
-7.279295
-26.900732
-32.870980
-24.824381
4.671246
43.702529
54.588596
29.867339
-0.986420
-8.153009
-12.340787
-30.265090
-25.561558
-6.158257
1.099510
8.080929
1.724681
-16.181385
-16.385024
0.499111
28.961589
41.446361
14.462414
-13.950501
-19.855286
-7.888842
18.610439
30.538307
14.780136
-7.336853
-22.058601
-31.686140
-34.051702
-17.148161
-6.118076
-19.031168
-17.319072
-6.083011
-5.332055
6.464652
13.513872
10.886456
25.534555
43.482000
47.554981
36.518346
18.064259
8.187024
-1.570039
-16.592684
-32.766546
-54.883769
-62.536656
-39.800341
-6.113196
22.841191
39.524494
41.531642
32.552891
18.020519
7.659090
-6.599739
-23.604985
-24.542747
-20.010355
-16.241544
-17.926289
-38.874993
-50.634296
-32.884643
-4.014656
15.002178
23.360429
47.609879
68.748424
52.290498
23.470541
-8.874611
-47.346654
-66.890704
-61.386416
-39.842467
-17.244327
-2.197838
9.277866
13.501880
22.848625
37.324649
36.361870
40.240565
40.818978
4.507222
-22.017313
-20.734937
-37.350208
-51.951550
-37.576293
-13.238467
15.389773
35.033417
30.559939
18.133613
5.952540
-13.103108
-34.357385
-47.066138
-40.024633
-14.757697
7.354379
12.636559
10.105001
25.336891
60.167305
79.622275
71.070204
40.025900
-5.414003
-46.427656
-86.024731
-109.187963
-86.324696
-43.233758
-11.227147
4.990199
15.397215
41.545801
73.116145
93.387302
96.326833
60.315039
3.531527
-42.567918
-90.705140
-118.062928
-88.265001
-32.027408
18.223805
55.494829
65.918211
51.614025
34.432496
26.619224
32.482156
42.684366
13.481216
-33.812466
-23.616101
-14.245040
-49.858210
-41.808806
-11.877614
-22.775140
-23.924255
-3.120274
-0.196875
-14.044922
-8.327411
33.454496
70.771811
65.478406
25.550508
-13.233187
-34.819690
-55.744079
-57.060827
-27.177330
-9.957695
-13.398023
-14.228005
-1.507799
29.549361
54.753873
54.715763
32.352585
0.107966
-9.777919
-11.805644
-37.347061
-43.182175
-10.467393
18.014256
26.646751
22.562545
19.341051
21.754305
10.032644
-12.132508
-21.453305
-21.724043
-23.305216
-21.102847
-18.835950
-24.964246
-25.040699
-9.365763
3.279161
1.818160
-7.078295
-17.172493
-24.820004
-27.488567
-18.018377
-2.902216
1.577104
3.345312
4.421011
5.179448
18.613671
23.200538
14.186249
8.340381
-8.333574
-13.728915
3.049077
6.965647
13.331945
25.629913
14.676510
-7.482796
-27.082958
-35.043756
-25.806194
-16.506675
0.062302
32.904971
44.365010
28.699890
26.417092
19.057387
-9.817980
-18.806551
-21.797521
-32.035037
-14.890685
2.033663
-3.700684
0.373232
8.556135
6.454764
13.176667
28.498569
27.708801
14.356637
16.732717
20.198527
-10.272039
-39.918702
-30.010142
-14.914322
-6.025351
12.626525
18.070961
10.160195
10.448232
7.904984
-6.117243
-21.919835
-35.016224
-42.919275
-30.515864
4.538761
28.720879
24.792849
18.022547
20.923268
15.295065
-4.246414
-26.539218
-50.396828
-66.035061
-55.284363
-26.291399
-0.542840
14.542693
23.878918
27.831025
23.922167
25.331729
31.556814
15.175573
-22.319197
-42.068521
-30.150006
-20.645213
-28.908546
-23.151289
1.987292
15.519477
8.023701
-0.897770
5.209013
10.905715
3.315018
2.015805
13.148060
24.600852
30.972527
23.707743
3.243934
-17.565426
-35.626500
-47.443083
-42.011741
-17.406918
8.245316
8.890128
-3.238341
2.056932
12.219630
14.007009
22.505070
41.902526
52.857329
41.337903
27.875621
15.702965
-8.789872
-18.552780
-11.439967
-12.422385
-14.543161
-14.928694
-14.068322
-4.826785
9.335249
16.334202
8.409409
0.519217
-1.055643
-4.639990
-9.286245
-27.825902
-51.869380
-47.271992
-20.757280
6.427028
28.575577
42.424322
51.227723
52.389928
38.009524
12.797761
-0.923335
-1.450315
-22.161949
-57.363870
-74.483910
-65.829905
-28.660116
8.866214
24.780558
45.329933
64.026699
58.624812
36.080208
4.190727
-12.719831
-3.870372
2.043528
-1.512530
1.617546
8.237982
0.189276
-25.139854
-32.247292
2.687629
34.695642
21.238270
-5.939729
-14.925494
-16.985951
-16.840764
-17.038792
-11.195499
15.660324
39.767159
45.532130
37.632820
12.272596
-11.941555
-38.842270
-71.105359
-73.230343
-59.035110
-43.655694
-12.394429
12.385040
13.370728
0.043581
-3.248520
19.981808
58.262836
89.860067
74.411678
29.263554
3.345723
-38.883209
-84.128124
-79.470417
-65.455675
-44.896246
11.525345
55.158927
58.386029
50.640558
42.111164
22.775895
-2.960275
-23.918565
-34.314596
-30.953060
-17.282702
3.379831
21.405599
27.550023
31.290778
28.020186
10.931709
1.938462
7.128058
9.312425
5.406372
3.395948
2.952433
0.102677
-5.788548
-21.097829
-36.835425
-28.861304
-7.862570
0.282224
1.225594
11.036661
22.768139
17.496243
4.484488
3.896720
7.488079
5.405411
-2.118420
-17.558861
-29.670262
-17.043575
8.550678
8.091966
-6.575073
2.572477
16.769114
12.249109
2.839002
-7.483383
-20.620219
-10.820140
26.142972
47.626835
44.713252
34.636588
18.263998
-4.171657
-44.189801
-71.038379
-41.875912
-1.693879
5.399762
-7.204484
-20.314901
-25.762379
-19.618188
-2.205203
16.272261
47.752126
78.903038
65.785374
28.005604
-18.051289
-63.090931
-71.026012
-64.481560
-59.950103
-40.363505
-12.693367
15.453017
25.243042
21.053861
29.191641
39.850223
41.811313
30.277859
15.885999
20.588596
22.694172
6.772577
-11.436491
-34.397020
-52.072095
-42.592786
-20.527002
-2.687571
7.462736
-1.321029
-14.738422
-6.930530
14.898184
27.178384
18.001372
-0.169353
-12.724969
-12.386198
-1.779753
-1.344190
-2.513646
10.215913
26.343480
40.445896
39.174037
18.225801
-20.439592
-63.726456
-64.228888
-25.682968
17.723831
47.480376
29.350565
-10.367149
-7.947115
29.999348
56.793449
57.466783
45.777854
18.147925
-17.326837
-42.156342
-61.483194
-63.967292
-57.626010
-65.458454
-64.236163
-40.875142
-1.985306
35.641556
43.416951
36.856130
30.242004
16.555277
18.041758
27.627678
14.326249
-11.609818
-31.246920
-33.702260
-21.135191
-9.314636
1.945038
11.028294
13.438743
12.203123
1.416884
-18.217178
-36.616089
-31.516037
4.658945
29.473717
34.980109
44.411022
37.946058
22.881096
17.697342
2.894700
-8.368017
-9.447694
-24.392251
-36.843360
-40.012249
-43.185815
-21.657297
11.053745
23.260532
30.563188
34.471108
31.366513
27.069551
9.840328
-2.743578
-1.891388
-8.596695
-2.105783
22.336550
26.823586
15.133955
3.431231
-24.025220
-56.792142
-75.263764
-87.422860
-64.173827
0.429499
36.617106
36.203984
35.377743
33.972854
35.738022
23.259325
-15.284727
-37.084687
-19.034137
15.000898
37.272658
41.031649
30.259672
8.086338
-10.467581
-13.188515
-3.806699
4.208103
4.362642
8.870485
12.094548
0.163638
-12.432892
-10.242681
-2.542570
-20.027801
-56.686279
-62.089101
-31.694991
7.708731
41.180549
55.215397
54.311769
45.280647
26.326701
-8.811860
-45.151906
-34.866230
1.688906
4.825061
-3.591409
15.505384
52.752093
75.223749
55.840785
6.770245
-32.178277
-48.728086
-64.317922
-67.038389
-36.969490
-8.832926
3.145207
18.735509
23.779216
8.786030
6.706168
33.832260
59.008717
62.052990
48.646118
24.408587
5.206115
1.569865
7.016872
5.529686
-11.912059
-28.272726
-38.966614
-55.440438
-70.976268
-71.527797
-52.990014
-35.812229
-25.605811
11.110178
69.425527
105.351047
107.531672
85.956392
50.472044
17.905954
-8.948703
-33.888560
-41.288479
-30.946225
-29.288837
-39.692817
-41.843286
-32.798139
-16.001911
17.108924
52.971786
72.592986
80.882267
62.069301
16.196873
-4.971834
11.579841
36.807968
46.519671
22.536512
-12.701647
-35.018533
-46.059610
-28.983527
4.911698
19.187825
12.975128
0.817903
-16.783526
-45.021093
-47.971850
-9.287990
19.416935
31.028709
38.439847
36.743178
43.565849
45.140472
26.781072
-4.662323
-46.097980
-71.790665
-77.279291
-73.283697
-58.062795
-46.544073
-33.972094
4.464876
56.024887
85.436114
85.536411
57.743760
8.218483
-24.817072
-38.634959
-54.882468
-52.620481
-40.018108
-49.176182
-64.533391
-71.906189
-66.129294
-27.272892
26.148379
68.513377
91.761942
75.833566
51.905116
29.938225
-24.981222
-56.659350
-49.902377
-51.614008
-33.242922
1.043212
29.164345
55.188318
52.692063
42.438414
45.638396
11.495343
-56.380680
-78.305955
-50.387057
-38.040692
-25.373558
6.691969
6.482252
-4.612599
10.780845
17.486851
22.760380
40.528269
40.292133
36.101081
45.945348
42.365676
19.139319
-6.706502
-31.080804
-45.818918
-40.261091
-27.851133
-14.865801
4.157580
7.078641
-18.677402
-51.509787
-46.170093
14.265329
62.902640
68.516813
65.711945
54.979013
36.271022
10.556594
-22.521980
-50.529725
-74.852825
-82.446327
-75.391496
-43.675496
37.493302
103.198281
103.934507
54.248144
-16.751645
-57.473285
-81.737000
-85.298903
-30.835832
21.589229
50.094959
61.024746
34.236721
22.417800
19.433143
-21.346713
-50.181399
-49.105699
-52.310359
-58.930097
-43.893895
2.231031
39.880338
68.407578
129.028635
159.765259
117.165057
73.089596
20.386547
-78.985241
-153.583638
-154.334128
-111.351204
-61.316019
-18.082698
23.057670
52.330723
62.015773
65.160812
61.407196
52.108609
51.642416
52.038701
36.435304
5.388662
-22.526733
-29.524287
-31.375027
-34.523109
-26.571666
-27.124832
-28.108652
7.790917
63.967254
91.184995
75.954505
59.396747
54.824606
31.410276
-3.776448
-30.814635
-36.529109
-20.810453
-13.664441
-12.529591
-3.834205
3.321627
11.728274
4.929681
-28.004873
-52.814973
-49.080998
-24.807466
-2.986000
-0.341287
9.496900
42.915412
74.831309
81.565838
53.296240
5.491712
-30.309665
-33.027326
-14.576281
-12.151337
-15.627904
-10.416799
-28.585419
-53.424744
-47.414519
-24.570423
-0.248262
26.471491
50.752972
58.139328
48.870433
33.296261
8.613815
-16.905158
-38.864802
-55.389594
-47.829060
-22.651434
8.518884
40.355290
43.645751
8.167482
-31.878017
-35.263403
-8.622439
12.173826
21.147898
14.207391
-8.695157
-20.086930
0.459406
38.177450
43.194036
7.830562
-22.320870
-34.521114
-37.098731
-28.091459
-1.874370
29.170632
32.978720
9.796317
-6.617188
4.616769
8.986906
-22.524992
-35.326797
-1.687112
28.058678
20.822651
-6.439514
-32.666659
-56.082158
-54.671193
-34.473449
-24.458744
2.390064
32.749573
32.869977
31.056410
28.037385
14.097455
2.567274
-4.249555
-0.443103
4.621412
-1.380399
-9.436119
-12.220179
-5.098014
0.033367
-4.534800
-1.847769
0.720025
-5.541068
-9.975969
-0.123988
35.998156
57.132258
44.589033
30.955845
-1.162523
-32.363237
-48.731853
-83.272127
-77.527496
-25.127452
3.694138
16.042373
11.819526
-17.399289
-27.027062
9.581146
51.527647
69.990382
81.782413
62.807191
17.507801
-21.063840
-73.895009
-107.618396
-89.356259
-58.513959
-22.916457
15.831230
42.719083
54.621934
54.875369
65.915508
80.546305
68.303276
31.049785
-18.742254
-54.737683
-61.169681
-55.172548
-29.979492
12.135343
56.168251
87.968184
55.327045
-16.485890
-69.289939
-104.753011
-76.326773
-10.842732
22.878548
59.316084
65.223905
22.376814
-6.147389
-18.532333
-6.337469
22.052297
29.695362
20.540327
13.662946
25.688540
18.321821
-8.259761
-2.087982
4.312216
3.497198
8.403432
-4.519012
-13.395828
-15.674184
-13.346500
6.572090
28.476320
63.921387
86.489836
51.881293
10.559962
-8.985257
-32.490534
-52.047443
-75.988518
-110.367472
-106.148134
-50.934574
15.874162
64.355998
79.879200
80.533129
76.174913
51.293037
21.503056
-6.460969
-37.679218
-58.583033
-74.761805
-68.583012
-21.809533
7.911475
-6.060719
-18.036751
-14.173019
-5.476230
24.147519
72.783894
91.584232
81.572097
84.626423
66.697444
19.554562
-5.897077
-34.259259
-81.636406
-103.936692
-96.530697
-75.891310
-52.843343
-47.119286
-42.163254
1.505164
43.371005
41.233161
53.752770
89.257922
102.588573
104.371743
86.848169
30.618523
-32.020676
-64.160086
-90.478178
-115.625180
-69.557534
-3.133161
-2.753008
6.318558
37.130230
30.590218
14.490002
3.213490
0.856813
16.957493
25.498106
31.218188
34.943279
19.266703
14.026603
18.772219
-4.326719
-41.633984
-70.884595
-94.986756
-112.262038
-95.402919
-32.528523
24.099745
72.404596
127.818989
112.921192
51.167617
18.879746
-38.932708
-102.467584
-84.810983
-31.993376
-1.076729
15.658010
10.897429
-7.939618
-7.152892
4.486703
0.498354
-7.952951
-9.394780
-3.334523
16.568637
44.222176
66.736851
71.360658
51.801645
21.743966
-3.661850
-28.536945
-50.273078
-32.283315
11.244123
16.609067
8.476895
11.522571
-10.247229
-28.925294
-19.241413
-8.396962
-4.407213
0.629246
10.948120
16.908312
18.964792
4.277880
-36.973311
-53.779829
-47.570175
-45.383003
-13.787643
29.025545
51.211501
67.868619
67.763643
40.208763
13.597256
3.962235
-9.086927
-32.433923
-50.880997
-54.103192
-36.519769
-16.014815
-9.116394
-13.338073
-29.472658
-31.687421
-7.206978
15.750976
41.793185
70.911931
73.506378
40.683344
-23.669588
-79.635979
-107.812058
-120.258023
-64.687922
36.328861
88.029618
91.602974
70.417199
56.096882
47.743538
5.973550
-9.226313
12.023519
7.147910
-0.321681
-0.385275
-23.383914
-76.999707
-118.476278
-98.365974
-53.550079
-19.354192
16.972758
70.203251
110.652981
78.212440
30.323511
11.275579
-45.667383
-99.740016
-79.417892
-36.965687
-24.223738
-9.242011
11.022600
-9.545950
-24.663049
-4.404284
2.728869
10.308108
21.003396
16.001302
7.444554
-6.348317
-15.171126
-5.530965
23.028071
47.161325
45.054108
36.143625
16.135254
-8.999356
-4.379991
9.232151
3.075566
-13.827977
-28.560480
-28.946481
-9.929179
10.495583
23.257405
38.143743
39.113065
16.212387
-8.640030
-22.037082
-31.432227
-50.957573
-63.018240
-47.001960
-26.253156
-16.160129
-7.188395
5.012782
24.003664
46.524886
57.785496
58.951207
47.102127
8.021743
-39.711711
-90.803195
-133.920555
-119.103655
-67.936190
-14.951886
51.383176
95.692432
94.901027
71.610844
36.139355
4.077565
-15.623830
-35.648568
-49.960936
-38.321107
-12.201044
6.310086
15.722763
12.095397
-5.185964
-26.804731
-37.728909
-28.035676
-20.260984
-22.298061
-17.592191
-20.569834
-22.447929
12.170196
52.192078
60.300166
58.158815
52.219662
36.496794
14.578299
-26.430444
-65.594059
-70.447692
-60.789762
-48.235318
-19.127560
15.100124
34.677370
49.112479
61.186003
47.893925
21.145178
-1.582255
-27.666316
-37.281932
-26.566303
-20.508617
-19.408603
-19.856560
-23.943338
-24.837146
-12.566064
13.555869
40.326823
49.676608
35.693660
25.708411
28.455995
4.350092
-41.078121
-58.403435
-45.452003
-23.837915
-3.511348
1.914851
2.537919
8.441766
-1.124986
-13.086289
-7.930360
0.498498
10.179106
12.309933
8.308959
7.361844
-13.602758
-42.566734
-47.567659
-31.058066
