EVENT_NAME: 202302060117
EVENT_ID: 13194
EVENT_DATE_YYYYMMDD: 2023/02/06
EVENT_TIME_HHMMSS: 01:17:32.00000
EVENT_LATITUDE_DEGREE: 37.288
EVENT_LONGITUDE_DEGREE: 37.043
EVENT_DEPTH_KM: 8.6
HYPOCENTER_REFERENCE: AFAD
MAGNITUDE_W: 7.7
MAGNITUDE_W_REFERENCE: AFAD
MAGNITUDE_L: 
MAGNITUDE_L_REFERENCE: 
FOCAL_MECHANISM: 
NETWORK: TK
STATION_CODE: 4619
STATION_NAME: 
STATION_LATITUDE_DEGREE: 37.58702
STATION_LONGITUDE_DEGREE: 36.86616
STATION_ELEVATION_M: 633.0
LOCATION: Kahramanmaras_Pazarck_Turkiye
SENSOR_DEPTH_M: 
VS30_M/S: 545
SITE_CLASSIFICATION_EC8: B
MORPHOLOGIC_CLASSIFICATION: 
EPICENTRAL_DISTANCE_KM: 36.73
EARTHQUAKE_BACKAZIMUTH_DEGREE: 
DATE_TIME_FIRST_SAMPLE_YYYYMMDD_HHMMSS: 2023/02/06 01:17:08.5005960
DATE_TIME_FIRST_SAMPLE_PRECISION: millisecond
SAMPLING_INTERVAL_S: 0.01
NDATA: 2267
DURATION_S: 
STREAM: HNN
UNITS: cm/s^2
INSTRUMENT: sensor = GMS+/GEOSIG | digitizer = 
INSTRUMENT_ANALOG/DIGITAL: 
INSTRUMENTAL_FREQUENCY_HZ: 
INSTRUMENTAL_DAMPING: 
FULL_SCALE_G: 
N_BIT_DIGITAL_CONVERTER: 
PGA_CM/S^2: 0.025
TIME_PGA_S: 
BASELINE_CORRECTION: BASELINE REMOVED
FILTER_TYPE: BUTTERWORTH
FILTER_ORDER: 
LOW_CUT_FREQUENCY_HZ: 
HIGH_CUT_FREQUENCY_HZ: 
LATE/NORMAL_TRIGGERED: 
DATABASE_VERSION: 
HEADER_FORMAT: DYNA 1.2
DATA_TYPE: Acceleration
PROCESSING: Automatic Paolucci et al., 2011
DATA_TIMESTAMP_YYYYMMDD_HHMMSS: 
DATA_LICENSE: U (unknown license)
DATA_CITATION: Turkish Accelerometric Archive v 1.0 - Disaster And Emergency Management Presidency, Earthquake Department
DATA_CREATOR: AFAD
ORIGINAL_DATA_MEDIATOR_CITATION: : AFAD - Disaster And Emergency Management Presidency
ORIGINAL_DATA_MEDIATOR: AFAD PROCESS SERVICE
ORIGINAL_DATA_CREATOR_CITATION: AFAD PROCESS SERVICE
ORIGINAL_DATA_CREATOR: network: TK
USER1: GuestUser
USER2: 
USER3: 
USER4: 
USER5: 
-0.000543
-0.011972
0.002315
0.010367
-0.010674
-0.000283
-0.001323
0.008029
-0.001323
-0.008077
0.005691
0.003353
-0.000804
-0.011714
0.003352
0.008547
0.000235
-0.012234
-0.002103
0.013742
-0.005221
-0.006260
-0.001584
0.008546
-0.000026
-0.008858
-0.002624
0.008806
0.010104
-0.014833
0.001012
0.006987
0.005168
-0.005222
-0.011977
0.015039
-0.000027
-0.008860
-0.002106
0.004388
0.006986
-0.005223
-0.009120
0.007765
0.011921
-0.013017
-0.003665
0.005946
0.007504
-0.006523
-0.008602
0.010881
0.004646
-0.001588
-0.014057
0.006464
0.011919
-0.005485
-0.008603
-0.000030
0.016595
-0.006265
-0.009123
0.002567
0.009061
0.002826
-0.014059
0.000488
0.014256
0.004644
-0.017176
0.000488
0.015814
-0.000032
-0.013540
-0.004448
0.016852
-0.000292
-0.011463
-0.005488
0.013475
0.008799
-0.016918
-0.004190
0.011656
0.008799
-0.015620
-0.005749
0.014773
0.004382
-0.012243
-0.009386
0.015032
0.004641
-0.010166
-0.011205
0.012953
0.012953
-0.016920
-0.003672
0.008277
0.008797
-0.011725
-0.008348
0.010874
0.008536
-0.005491
-0.016402
0.013991
0.011133
-0.010947
-0.010687
0.008795
0.009574
-0.009129
-0.002635
-0.000297
0.014250
-0.004714
-0.018222
0.005417
0.012171
-0.003415
-0.018482
0.012950
0.011911
-0.009131
-0.008871
0.000481
0.011650
-0.001338
-0.013547
-0.003676
0.019183
-0.005495
-0.016145
0.005415
0.011649
-0.000300
-0.017964
0.007233
0.008532
-0.003158
-0.010951
-0.003418
0.013986
-0.001080
-0.010432
-0.007315
0.016064
0.002296
-0.014329
-0.001860
0.009829
0.008270
-0.016927
-0.002900
0.012167
0.008270
-0.011992
-0.009395
0.012426
0.005931
-0.007317
-0.015889
0.015802
0.009308
-0.014851
-0.007058
0.009048
0.011126
-0.014332
-0.004980
0.004891
0.009827
-0.004980
-0.010955
0.009826
0.006449
-0.003163
-0.013813
0.007747
0.006708
-0.004981
-0.008878
-0.005241
0.022813
-0.009658
-0.014593
0.009825
0.007487
0.000213
-0.014334
0.000213
0.010084
0.004888
-0.015374
-0.006542
0.017617
-0.000048
-0.020310
-0.001607
0.020474
-0.005763
-0.008361
-0.000828
0.006186
0.006705
-0.013817
-0.006283
0.009043
0.007484
-0.013298
-0.004206
0.005925
0.004886
-0.003687
-0.011220
0.006964
0.004885
-0.001609
-0.014598
0.003846
0.013977
-0.007065
-0.007584
-0.002129
0.012677
-0.005247
-0.007585
0.003325
0.004624
0.004104
-0.010703
-0.001611
0.006442
0.004364
-0.011223
-0.001611
0.008260
-0.000053
-0.000832
-0.007846
0.006181
0.002544
-0.002132
-0.005509
0.002284
0.008778
-0.011484
-0.000833
0.004622
0.004102
-0.002133
-0.004730
-0.002133
0.005140
0.007218
-0.014342
0.004361
0.005660
-0.002653
-0.002134
-0.003952
0.006698
0.000464
0.000723
-0.010967
0.002801
0.014231
-0.009408
-0.006811
0.007476
0.008775
-0.007590
-0.007071
0.000722
0.010853
-0.000058
-0.012007
0.004878
0.006956
-0.000318
-0.014605
0.004358
0.013449
-0.002397
-0.006033
-0.002397
0.010332
0.000201
-0.002397
-0.008372
0.008513
0.009292
-0.012788
0.000719
0.003837
0.007993
-0.010191
-0.008373
0.007992
0.008771
0.000719
-0.015907
0.007472
0.011628
-0.001880
-0.009933
0.003056
0.011368
-0.002919
-0.003958
-0.007335
0.015264
0.004094
-0.014869
-0.000582
0.010588
0.007471
-0.013051
-0.000063
0.007730
0.004093
-0.007856
-0.007337
0.009288
0.005391
-0.003701
-0.012793
0.011885
0.009547
-0.006299
-0.006039
0.000195
0.013703
-0.006040
-0.006299
-0.002403
0.010066
0.006169
-0.016171
-0.000066
0.012403
0.006948
-0.014873
-0.004742
0.012662
0.011104
-0.011236
-0.013575
0.019156
-0.000067
-0.007081
-0.004223
0.002790
0.012921
-0.005263
-0.008900
0.000452
0.014739
-0.004744
-0.014875
0.000971
0.014219
0.001750
-0.018252
-0.000848
0.012140
0.010062
-0.016694
-0.005784
0.015777
0.002268
-0.010201
-0.012539
0.015256
0.009541
-0.006824
-0.013318
0.004086
0.020711
-0.008903
-0.014098
0.003306
0.014736
-0.005007
-0.014358
0.003565
0.013436
0.002007
-0.018255
-0.002150
0.017592
0.007461
-0.020334
-0.004229
0.018111
0.000447
-0.008645
-0.006307
0.009538
0.007460
-0.007606
-0.009165
0.006940
0.013694
-0.009685
-0.013322
0.009278
0.010836
-0.009426
-0.005270
0.001744
0.007978
-0.001114
-0.009946
0.003302
0.007978
0.006679
-0.014622
-0.001634
0.011094
0.000963
-0.005011
-0.013584
0.009535
0.006158
-0.003973
-0.004752
-0.001635
0.013691
-0.002674
-0.011507
0.000442
0.012392
0.002261
-0.008390
-0.005273
0.007975
0.014209
-0.017482
-0.006053
0.011092
0.002260
-0.004235
-0.013846
0.015248
0.010052
-0.015145
-0.010989
0.007194
0.014208
-0.009951
-0.009171
0.004596
0.011350
-0.007094
-0.011250
0.007713
0.006414
-0.002938
-0.012290
0.002517
0.010050
0.004075
-0.012810
-0.001380
0.012907
-0.001640
-0.002160
-0.011771
0.011608
0.008231
-0.010733
-0.000342
-0.001381
0.007711
-0.003200
-0.004758
-0.001641
0.007191
0.004333
-0.011253
0.000176
0.005891
0.005372
-0.012293
-0.002162
0.009528
0.003553
-0.002422
-0.013592
0.004332
0.011085
-0.003202
-0.016710
0.009007
0.013163
-0.009437
-0.006839
-0.000605
0.014461
-0.002164
-0.007619
-0.003723
0.006408
0.009525
-0.014893
-0.001385
0.008486
0.006667
-0.010477
-0.007101
0.007966
0.003550
-0.000607
-0.009699
0.007706
0.006407
-0.001127
-0.012817
0.001471
0.013160
-0.006842
0.000951
-0.012038
0.010822
0.010562
-0.015935
-0.003986
0.008223
0.011081
-0.011779
-0.003466
0.002768
0.010561
-0.001648
-0.018274
0.009002
0.007703
0.000689
-0.009702
-0.000610
0.010560
0.000169
-0.011261
-0.004507
0.012897
0.002766
-0.003209
-0.009703
0.009000
0.010299
-0.007365
-0.004508
-0.001131
0.013935
-0.004768
-0.011522
0.000687
0.013155
0.003804
-0.018796
0.005102
0.007440
-0.000093
-0.006068
-0.004770
0.008998
0.004842
-0.004770
-0.008667
0.005621
0.005361
-0.003991
-0.007368
0.006659
0.007438
-0.003732
-0.003732
-0.004771
0.013412
-0.003473
-0.008668
0.004840
0.003021
0.004320
-0.008149
0.001722
0.003800
0.001202
-0.002694
-0.004773
0.004059
0.004838
0.000682
-0.011267
0.004319
0.007436
-0.003475
-0.006073
-0.000098
0.009254
-0.000878
-0.004255
-0.005034
0.007175
0.006915
-0.009450
-0.007892
0.010811
0.008473
-0.009971
-0.001139
0.000680
0.008213
-0.002698
-0.011270
0.008732
0.003017
-0.001659
-0.006595
0.001978
0.008991
-0.002699
-0.008414
-0.001400
0.011588
-0.000361
-0.006076
-0.005816
0.008730
0.005353
-0.009713
-0.000622
0.001197
0.011068
-0.012571
-0.003999
0.008729
-0.002441
0.006391
-0.014650
0.005871
0.010547
-0.004779
-0.007897
-0.001403
0.013664
-0.005819
-0.000883
-0.002962
0.006650
0.002493
-0.011015
0.003013
0.003532
0.011065
-0.009457
-0.005820
0.004571
0.007688
-0.001145
-0.016211
0.011324
0.007687
-0.004262
-0.009198
0.004570
0.008726
-0.002964
-0.007120
-0.004523
0.013921
-0.003484
-0.007640
-0.001406
0.008205
0.003789
-0.008680
-0.000887
-0.001147
0.012361
-0.008161
-0.009200
0.008204
0.007944
-0.001148
-0.013357
0.008463
0.003268
0.001709
-0.008162
-0.005824
0.016256
0.001449
-0.010241
-0.008682
0.013138
0.004046
-0.007644
-0.004267
0.004825
0.013657
-0.004787
-0.007384
-0.002189
0.016254
-0.003748
-0.016217
0.006902
0.006383
0.003265
-0.015178
0.003525
0.009499
0.002745
-0.004009
-0.015439
0.014954
0.005602
-0.005308
-0.005308
0.002485
0.011576
-0.005309
-0.008946
0.000406
0.013394
-0.001673
-0.009466
-0.001153
0.011316
0.002743
-0.010245
-0.001933
0.005340
0.014692
-0.013363
-0.006350
0.011315
0.003002
-0.001674
-0.009467
0.009236
0.001443
0.001702
-0.005312
-0.006351
0.014171
-0.000636
-0.005572
-0.005832
0.011573
0.001961
-0.012326
0.002740
0.001701
0.007676
-0.004534
-0.008950
0.002740
0.010273
-0.002196
-0.006353
0.004298
-0.002456
0.006635
-0.004275
0.001440
0.009492
-0.003756
-0.006094
-0.005834
0.013908
0.001699
-0.008692
0.000140
0.006634
0.004815
-0.007654
-0.006095
0.000659
0.014426
-0.005056
-0.011551
0.003516
0.008971
0.003515
-0.011551
0.001697
0.004035
0.004035
-0.005837
-0.006356
0.008450
0.005593
-0.005578
-0.008435
0.011047
0.000916
-0.002201
-0.004279
-0.003240
0.011047
0.000916
-0.004280
-0.006618
0.013124
0.001695
-0.012073
0.003253
0.003513
0.006110
-0.008177
0.000655
0.002473
0.000914
0.003512
-0.007918
0.005070
0.002732
-0.001944
-0.005061
0.004550
0.006368
-0.003763
-0.003763
-0.003243
0.009745
0.001172
-0.004802
0.000653
0.011822
-0.007660
-0.009219
0.003250
-0.002985
0.015978
-0.010778
-0.000388
0.007405
-0.004025
0.003249
-0.009480
0.007405
0.002989
-0.003246
-0.009740
0.002469
0.010522
-0.001688
0.001170
-0.007403
0.006624
0.002468
-0.005065
-0.005325
0.001948
0.008442
-0.005585
-0.001169
0.000389
0.008442
-0.003248
-0.004547
0.005064
0.002207
0.000908
-0.009223
0.006882
0.004284
-0.003249
-0.006107
-0.003509
0.009999
0.002985
-0.001171
-0.008965
0.005063
0.008699
-0.002211
-0.006367
-0.000912
0.012076
-0.002471
-0.005069
-0.002731
0.008958
0.000645
-0.007148
0.000385
-0.002732
0.009217
-0.005849
-0.003252
0.002723
0.006619
-0.000395
-0.013903
0.007138
0.002203
0.000124
-0.005850
-0.001694
0.006618
0.003501
-0.004033
-0.007150
0.014411
-0.002474
-0.007410
0.000123
0.003500
0.006097
-0.006112
-0.003514
0.000382
0.011552
-0.003515
-0.007931
0.005577
0.004018
-0.001437
-0.007152
0.001420
0.002459
0.008174
-0.008711
-0.008192
0.011291
0.003238
-0.000399
-0.007413
0.001419
0.006874
0.000640
-0.005335
0.001678
0.006614
-0.005076
-0.002478
0.001158
0.009471
-0.001959
-0.011571
0.002976
0.008951
0.002197
-0.008194
-0.001181
0.003495
0.004274
-0.006376
-0.004818
0.002456
0.001676
0.008430
-0.008195
0.001156
0.006092
-0.004819
-0.002741
-0.004299
0.008169
-0.003780
-0.004819
0.003233
0.001934
0.006350
-0.006898
-0.003521
0.005830
0.002453
-0.005859
-0.003522
0.003232
0.005051
-0.002223
-0.005600
0.002712
0.001933
0.005829
-0.010017
-0.002224
0.013882
-0.001964
-0.005082
-0.003783
0.008166
-0.002744
-0.006121
0.003490
0.002451
0.004269
-0.005862
0.000372
0.002191
0.004269
-0.004304
-0.006642
0.003749
-0.000667
0.001670
-0.005603
0.001930
0.005566
-0.001707
-0.008461
0.001929
0.012060
-0.007423
-0.001188
-0.001188
0.000890
0.004267
-0.001968
-0.002488
0.005305
0.006604
-0.011840
0.004006
0.004266
-0.000670
-0.003008
0.000888
0.009461
-0.009243
-0.000151
-0.003528
0.003226
0.001667
-0.007685
0.008940
0.004524
-0.000672
-0.007945
0.003225
0.002705
-0.000412
-0.000412
-0.003010
0.005822
-0.001192
0.001405
-0.003530
0.006341
0.000366
-0.009765
0.003223
-0.000673
0.004522
-0.005090
0.000106
0.004521
0.003482
-0.004051
-0.007948
0.011535
-0.005610
-0.006390
0.002442
0.005300
0.000624
-0.004312
0.003221
0.000883
0.001662
-0.007170
0.001922
0.001402
-0.001715
-0.003534
0.000882
0.007636
-0.013145
0.003220
0.005558
-0.000677
-0.005093
-0.000417
0.011792
-0.006392
-0.004834
-0.005094
0.008934
0.002439
-0.006912
0.004517
0.003998
0.002958
-0.012368
0.003218
0.004257
-0.002238
-0.007433
-0.001718
0.015167
-0.006914
-0.008213
0.002957
0.012828
-0.008473
-0.011590
0.011529
0.001138
-0.005616
-0.007694
0.008411
0.001657
-0.006915
-0.004318
0.006333
0.010749
-0.016267
-0.001721
0.012047
0.008150
-0.011332
-0.007436
0.016982
0.000097
-0.010034
-0.006657
0.013864
-0.001462
-0.016788
0.006331
0.015422
0.000616
-0.023803
0.008408
0.016461
-0.010295
-0.010036
0.008408
0.016461
-0.014712
-0.009257
0.012564
0.014642
-0.015492
-0.016011
0.024512
0.005809
-0.017830
-0.004062
0.021655
-0.000426
-0.024325
0.000873
0.018017
0.001132
-0.020429
0.009964
0.019835
-0.012376
-0.018091
0.016458
0.014639
-0.020949
-0.002506
0.013600
0.002949
-0.018612
-0.000688
0.021652
-0.004585
-0.013157
0.002689
0.017755
-0.012118
-0.014716
0.014638
0.011780
-0.008742
-0.007963
0.019053
-0.004326
-0.012119
0.004246
0.008402
0.000869
-0.010561
0.005544
0.006064
-0.000171
-0.010042
0.007622
0.006583
-0.015757
0.004504
0.009180
0.000608
-0.008484
0.005803
0.006322
-0.009784
-0.003290
0.005283
0.004243
-0.010304
-0.001731
0.005542
0.005802
-0.008486
-0.003810
0.017231
-0.006148
-0.007187
0.003463
0.009178
-0.005889
-0.010825
0.007099
0.004761
0.000345
-0.007708
0.009437
-0.003812
-0.012124
0.006579
0.004241
0.001903
-0.004592
0.006578
-0.001475
-0.006151
-0.004852
0.004759
0.009175
-0.010567
0.003200
0.005538
-0.003814
-0.010827
0.010214
0.006837
-0.012906
0.005537
-0.001996
0.001900
-0.004074
-0.000957
0.008654
-0.004075
-0.001737
0.000861
0.005796
-0.007192
-0.001997
0.003718
-0.000958
-0.003296
-0.004855
0.008393
-0.000439
-0.002258
-0.002518
0.001898
-0.001998
-0.006155
0.006833
-0.000700
-0.000181
0.001897
0.001118
-0.005376
-0.000441
0.001118
-0.001740
0.002936
-0.004338
0.002156
-0.000442
0.003974
-0.000961
0.001376
0.007091
-0.012651
-0.002261
-0.000962
-0.000443
0.001895
0.000596
0.000596
-0.001222
0.002934
-0.005379
0.004232
-0.002262
-0.004860
0.003972
-0.001743
-0.002003
0.000855
0.006310
-0.005640
0.003712
0.001374
-0.005380
0.002932
-0.003302
-0.000965
0.000334
0.007348
-0.004862
0.000334
0.005009
-0.003563
0.000853
-0.008499
0.010204
-0.000706
-0.006681
0.006567
0.001631
0.001891
-0.011357
0.005787
0.005787
-0.009539
-0.000967
0.005267
0.000591
-0.008241
0.003708
0.006046
-0.002526
-0.011099
0.004747
0.006305
-0.007463
0.003707
-0.002787
0.000850
-0.000709
-0.002268
0.000590
-0.001489
-0.000710
-0.000969
0.006823
-0.006944
0.001888
0.005784
-0.004087
-0.000191
0.003965
0.001627
-0.011881
0.009160
0.002666
-0.008764
0.003185
0.002925
-0.002530
-0.003309
0.008640
-0.006167
0.002925
0.000587
-0.007986
0.008379
-0.002011
-0.003570
0.003703
0.005781
-0.010065
0.003443
0.006300
-0.010585
0.005001
0.000845
0.000845
0.000585
0.004481
-0.003831
-0.001753
0.009157
-0.007468
0.006299
0.001623
-0.006949
0.003961
0.003441
-0.002534
0.000324
0.003441
-0.003833
0.000843
-0.000196
0.001622
-0.002015
0.001622
0.002141
0.000323
0.002141
-0.004354
0.007596
-0.005653
0.000582
0.004218
-0.005913
0.004478
-0.000718
0.004218
-0.001757
0.000581
-0.001757
0.002139
0.000840
-0.006433
0.011490
-0.002018
-0.008512
0.001099
0.010191
-0.006434
-0.003837
0.012269
-0.007214
-0.000460
-0.001759
0.005774
-0.001499
-0.005916
0.006034
-0.001760
0.003176
-0.007734
0.004474
0.002916
-0.004358
0.003955
0.000577
-0.000981
-0.006696
0.006552
-0.002800
-0.003060
0.001616
-0.002021
0.001875
-0.001242
0.005252
-0.002281
0.001615
0.000316
0.000056
0.001874
-0.003841
0.002654
0.001095
-0.000724
-0.007218
0.005251
-0.000205
-0.004101
0.006809
-0.002803
0.000834
-0.001244
0.003951
-0.003063
-0.002024
0.002912
-0.003583
0.004210
-0.003064
0.004470
-0.002025
0.000053
0.003950
-0.005922
0.005508
-0.003844
0.000053
0.006287
-0.003065
-0.002805
0.005767
-0.004364
-0.006962
0.003429
-0.001767
0.007585
-0.006703
-0.001767
0.009663
-0.003066
-0.002287
-0.002287
0.003428
-0.005405
0.001090
0.002648
0.001869
-0.001509
-0.008782
0.010960
-0.003587
-0.004886
0.004466
0.001868
-0.004627
-0.000990
0.007842
-0.010082
0.001867
0.003945
-0.002809
0.000308
-0.000991
0.000048
0.000048
0.000567
-0.008525
0.006802
-0.000212
-0.006447
0.004204
0.001606
-0.001771
-0.005149
0.009918
-0.005928
-0.004110
0.006541
-0.003331
0.001345
-0.003071
0.000306
-0.001513
0.000305
-0.001773
0.002643
0.002123
-0.007488
0.003162
0.001863
-0.000735
-0.007489
0.007058
-0.000995
-0.009827
0.011993
-0.001515
0.000823
-0.003333
-0.001255
0.005499
-0.000216
-0.000476
-0.003334
0.004459
-0.010867
0.003160
0.011213
-0.010348
-0.006452
0.008874
0.006017
-0.016064
0.004718
0.005757
-0.006712
0.002379
-0.001257
0.001860
-0.001777
-0.003336
-0.000479
0.008873
-0.008012
-0.006713
0.011470
-0.006454
-0.003337
-0.000999
0.009392
-0.007753
-0.010091
0.016405
-0.005935
-0.002818
0.001078
0.002896
0.004715
-0.008274
-0.003598
0.011209
-0.001780
-0.015288
0.011468
0.004454
-0.010613
-0.003339
0.013286
-0.002820
-0.011912
0.010428
-0.002301
0.004193
-0.007237
0.000297
0.014324
-0.014251
-0.002302
0.005751
0.003153
-0.008796
-0.006458
0.012764
-0.002302
-0.010615
0.009387
0.003412
-0.007758
0.000555
-0.006719
0.010945
-0.004641
-0.012434
0.015880
-0.001784
-0.008278
-0.001265
0.009386
-0.006720
-0.003603
0.007047
-0.005681
0.002631
-0.003604
0.002371
0.000552
-0.000227
-0.003604
0.000812
0.007825
-0.012696
0.006786
0.006266
-0.010619
-0.002306
0.008864
-0.004904
-0.007502
0.013279
-0.007242
-0.004385
0.003148
-0.003346
-0.000489
0.003408
-0.002048
-0.006464
0.009382
-0.004646
-0.001788
0.003926
-0.006205
-0.002308
0.005485
0.000549
-0.007764
0.009121
-0.005946
-0.001010
0.003406
-0.003608
0.001847
-0.000231
0.003665
-0.013740
0.007821
0.001586
-0.005947
0.009119
-0.010363
0.001326
0.001066
0.001326
0.000027
-0.004129
0.000286
0.000546
0.002884
-0.004909
-0.002571
0.002884
0.004182
-0.004390
0.000545
0.001844
-0.001014
-0.000494
-0.004131
0.006779
-0.008807
0.002622
0.002363
-0.009847
0.006519
-0.004911
0.008337
0.002882
-0.006470
0.002102
0.004180
-0.001016
-0.008289
0.012492
-0.003354
-0.006991
0.004699
0.005218
-0.003095
-0.006991
0.005218
-0.005952
0.006776
-0.006212
0.001061
0.011971
-0.017383
0.002359
0.011971
-0.004395
-0.016084
0.009113
0.005736
-0.009850
0.009113
-0.000759
-0.003876
-0.003357
-0.000499
0.002618
0.009112
-0.008553
-0.005695
0.015865
-0.017905
-0.006735
0.016125
0.002877
-0.012190
0.004175
0.008591
-0.011671
0.004954
-0.002579
0.002096
-0.000761
-0.009074
0.005733
0.001057
-0.004918
-0.009854
0.012486
0.001836
-0.009335
0.008589
0.000536
-0.004399
-0.000763
0.004952
-0.005179
-0.000503
0.001575
-0.002322
0.005211
-0.001803
-0.004141
0.003392
0.003392
-0.010895
0.007808
0.005730
-0.011675
0.004950
0.000274
-0.003882
-0.003363
0.005469
-0.001285
-0.001804
0.008067
-0.008039
0.002611
0.002871
-0.005182
0.002091
0.001312
-0.006481
-0.001026
0.004429
-0.006482
0.000792
0.003389
-0.003625
-0.005183
0.008325
-0.001287
-0.007002
0.013260
-0.004145
-0.006223
0.000791
0.002349
-0.001807
-0.002847
0.002608
-0.003107
0.008323
-0.005445
-0.003367
0.009362
-0.002068
-0.005965
-0.000510
0.005205
-0.010121
0.003386
0.006244
-0.006745
0.000009
0.000009
0.004425
-0.005966
-0.001810
0.002866
-0.001031
0.000008
-0.004148
0.003385
-0.001551
-0.004928
0.002345
0.002865
-0.001811
-0.002331
0.000786
-0.001292
-0.001292
-0.000513
0.002864
-0.001033
-0.001293
-0.001033
-0.000514
0.003123
-0.003631
0.000006
0.003642
-0.000254
-0.003891
0.004941
-0.001294
-0.008048
0.005200
-0.003892
0.001303
0.003641
-0.001295
-0.002074
0.003381
0.002342
-0.007010
0.008056
-0.008049
0.000263
0.005718
-0.011427
0.004679
0.006757
-0.004154
-0.010648
0.010653
-0.002336
-0.008830
0.008315
-0.000777
0.000002
-0.001817
0.001560
-0.002077
0.005197
-0.004415
-0.005454
0.009093
-0.006493
-0.002857
0.005196
0.005196
-0.006494
0.004157
-0.000779
-0.010131
0.008312
-0.001039
-0.002078
-0.001040
0.002597
-0.002858
0.003636
0.001558
-0.003638
0.008052
-0.012210
0.002856
0.004414
0.000518
-0.003119
