EVENT_NAME: 202302060117
EVENT_ID: 13194
EVENT_DATE_YYYYMMDD: 2023/02/06
EVENT_TIME_HHMMSS: 01:17:32.00000
EVENT_LATITUDE_DEGREE: 37.288
EVENT_LONGITUDE_DEGREE: 37.043
EVENT_DEPTH_KM: 8.6
HYPOCENTER_REFERENCE: AFAD
MAGNITUDE_W: 7.7
MAGNITUDE_W_REFERENCE: AFAD
MAGNITUDE_L: 
MAGNITUDE_L_REFERENCE: 
FOCAL_MECHANISM: 
NETWORK: TK
STATION_CODE: 1908
STATION_NAME: 
STATION_LATITUDE_DEGREE: 40.157013
STATION_LONGITUDE_DEGREE: 34.382448
STATION_ELEVATION_M: 762.0
LOCATION: Kahramanmaras_Pazarck_Turkiye
SENSOR_DEPTH_M: 
VS30_M/S: None
SITE_CLASSIFICATION_EC8: unknown
MORPHOLOGIC_CLASSIFICATION: 
EPICENTRAL_DISTANCE_KM: 393.71
EARTHQUAKE_BACKAZIMUTH_DEGREE: 
DATE_TIME_FIRST_SAMPLE_YYYYMMDD_HHMMSS: 2023/02/06 01:18:02.1819270
DATE_TIME_FIRST_SAMPLE_PRECISION: millisecond
SAMPLING_INTERVAL_S: 0.01
NDATA: 21001
DURATION_S: 
STREAM: HNZ
UNITS: cm/s^2
INSTRUMENT: sensor = GMS+/GEOSIG | digitizer = 
INSTRUMENT_ANALOG/DIGITAL: 
INSTRUMENTAL_FREQUENCY_HZ: 
INSTRUMENTAL_DAMPING: 
FULL_SCALE_G: 
N_BIT_DIGITAL_CONVERTER: 
PGA_CM/S^2: 2.107
TIME_PGA_S: 
BASELINE_CORRECTION: BASELINE REMOVED
FILTER_TYPE: BUTTERWORTH
FILTER_ORDER: 
LOW_CUT_FREQUENCY_HZ: 
HIGH_CUT_FREQUENCY_HZ: 
LATE/NORMAL_TRIGGERED: 
DATABASE_VERSION: 
HEADER_FORMAT: DYNA 1.2
DATA_TYPE: Acceleration
PROCESSING: Automatic Paolucci et al., 2011
DATA_TIMESTAMP_YYYYMMDD_HHMMSS: 
DATA_LICENSE: U (unknown license)
DATA_CITATION: Turkish Accelerometric Archive v 1.0 - Disaster And Emergency Management Presidency, Earthquake Department
DATA_CREATOR: AFAD
ORIGINAL_DATA_MEDIATOR_CITATION: : AFAD - Disaster And Emergency Management Presidency
ORIGINAL_DATA_MEDIATOR: AFAD PROCESS SERVICE
ORIGINAL_DATA_CREATOR_CITATION: AFAD PROCESS SERVICE
ORIGINAL_DATA_CREATOR: network: TK
USER1: GuestUser
USER2: 
USER3: 
USER4: 
USER5: 
[...]
-0.795491
-0.768474
-0.753927
-0.730028
-0.703532
-0.677035
-0.654435
-0.631315
-0.607936
-0.591570
-0.568711
-0.545072
-0.519614
-0.487922
-0.451554
-0.425317
-0.404016
-0.377000
-0.359595
-0.340632
-0.306862
-0.277768
-0.248933
-0.209188
-0.172301
-0.141129
-0.114892
-0.090474
-0.077225
-0.067613
-0.055664
-0.047871
-0.036960
-0.029686
-0.023192
-0.019555
-0.014879
-0.009423
-0.021632
-0.030984
-0.039815
-0.071247
-0.099302
-0.119304
-0.149696
-0.179310
-0.200350
-0.217495
-0.241134
-0.255421
-0.262954
-0.278280
-0.279318
-0.274383
-0.270226
-0.260874
-0.242171
-0.222428
-0.204504
-0.179046
-0.151251
-0.125014
-0.100336
-0.070202
-0.040848
-0.002402
0.036823
0.063060
0.092673
0.118910
0.136834
0.154759
0.179697
0.197101
0.208791
0.224378
0.248276
0.269318
0.291658
0.327506
0.352185
0.380240
0.404918
0.418686
0.425700
0.428558
0.430896
0.414271
0.403621
0.394529
0.365435
0.337121
0.317379
0.272699
0.231396
0.207758
0.163078
0.126451
0.093201
0.050339
0.009036
-0.027071
-0.059542
-0.092013
-0.117470
-0.134614
-0.156434
-0.173319
-0.175657
-0.191762
-0.192021
-0.186047
-0.190982
-0.191501
-0.188643
-0.176174
-0.179291
-0.162146
-0.141105
-0.135130
-0.113569
-0.098242
-0.086553
-0.075642
-0.053821
-0.034338
-0.020051
0.007225
0.027487
0.046191
0.064894
0.077623
0.081260
0.077104
0.079182
0.074507
0.069831
0.074507
0.073988
0.071131
0.075028
0.088536
0.092952
0.107499
0.126982
0.133737
0.150881
0.157116
0.165429
0.175300
0.184652
0.194004
0.195303
0.221800
0.239984
0.252453
0.283885
0.317655
0.350906
0.383637
0.426499
0.464945
0.503910
0.554565
0.596128
0.635873
0.679514
0.709907
0.742898
0.772512
0.797450
0.825505
0.845767
0.869406
0.881356
0.892007
0.905775
0.908113
0.911750
0.917205
0.913829
0.902139
0.893827
0.869149
0.842913
0.821612
0.790440
0.767581
0.746280
0.729136
0.708874
0.689132
0.672767
0.654324
0.640556
0.627568
0.613801
0.592500
0.570940
0.552756
0.526780
0.496906
0.469891
0.437160
0.403391
0.378453
0.357412
0.326240
0.302342
0.291952
0.267793
0.260780
0.253767
0.248312
0.260781
0.261301
0.260002
0.252989
0.249092
0.236883
0.221557
0.215063
0.200517
0.191165
0.175320
0.154539
0.130380
0.096091
0.070374
0.040761
0.015304
0.004134
-0.017426
-0.036649
-0.043143
-0.059248
-0.074574
-0.081328
-0.093796
-0.106005
-0.117175
-0.123409
-0.129903
-0.145749
-0.153022
-0.161854
-0.174842
-0.178738
-0.192765
-0.210689
-0.223158
-0.242120
-0.255368
-0.259784
-0.262122
-0.268616
-0.276409
-0.279785
-0.294852
-0.315633
-0.330439
-0.349662
-0.379795
-0.401875
-0.426552
-0.461621
-0.490455
-0.509937
-0.529679
-0.550460
-0.552538
-0.556175
-0.559292
-0.556174
-0.550199
-0.541367
-0.540587
-0.534353
-0.530716
-0.534612
-0.534092
-0.543184
-0.561887
-0.572797
-0.591500
-0.610463
-0.615398
-0.623970
-0.634880
-0.636179
-0.636438
-0.641893
-0.642152
-0.636437
-0.628125
-0.621630
-0.600069
-0.592795
-0.594873
-0.569156
-0.554609
-0.543438
-0.513305
-0.482912
-0.457454
-0.421087
-0.388615
-0.367054
-0.337960
-0.309126
-0.293280
-0.281330
-0.266523
-0.268601
-0.264964
-0.267821
-0.277172
-0.280549
-0.295096
-0.291719
-0.305486
-0.318734
-0.313279
-0.327566
-0.332501
-0.335098
-0.347047
-0.356659
-0.368088
-0.381076
-0.399260
-0.425496
-0.443160
-0.471215
-0.504984
-0.525246
-0.567068
-0.606293
-0.636166
-0.682924
-0.719031
-0.745787
-0.777738
-0.806832
-0.831510
-0.849174
-0.870734
-0.883203
-0.887619
-0.896191
-0.890995
-0.882682
-0.872032
-0.854107
-0.826052
-0.789944
-0.751498
-0.700064
-0.645513
-0.593559
-0.532253
-0.463934
-0.408863
-0.347817
-0.281836
-0.224687
-0.155588
-0.081294
-0.009858
0.063137
0.139509
0.207309
0.266017
0.321867
0.372262
0.405773
0.434867
0.472793
0.489159
0.502667
0.523449
0.533060
0.536438
0.543192
0.552024
0.549427
0.553324
0.567611
0.577223
0.587354
0.607616
0.613591
0.617748
0.629697
0.626321
0.636452
0.643466
0.646843
0.645025
0.638531
0.641648
0.619568
0.602684
0.590215
0.570213
0.558524
0.552549
0.548653
0.541380
0.546835
0.547355
0.546057
0.562162
0.579048
0.587360
0.599570
0.617754
0.619313
0.626586
0.644511
0.641134
0.645810
0.657760
0.662436
0.675165
0.684776
0.702960
0.712832
0.726859
0.748680
0.749979
0.766345
0.780632
0.789725
0.792322
0.795180
0.806610
0.797519
0.799337
0.804013
0.797519
0.796221
0.793883
0.778557
0.757776
0.747645
0.730501
0.709720
0.692575
0.666858
0.644259
0.626075
0.600359
0.572564
0.551523
0.531001
0.498531
0.472294
0.450214
0.420341
0.392546
0.374623
0.356179
0.326306
0.310720
0.282406
0.242402
0.216685
0.183175
0.151224
0.128625
0.113818
0.098232
0.091219
0.094596
0.089661
0.082128
0.081089
0.081609
0.079271
0.082648
0.077453
0.070959
0.060569
0.051737
0.044464
0.024981
0.018747
0.005499
-0.006710
-0.009826
-0.018658
-0.030348
-0.042297
-0.044894
-0.057103
-0.065155
-0.063337
-0.073727
-0.086715
-0.090352
-0.097106
-0.110873
-0.114250
-0.121263
-0.131394
-0.125679
-0.122561
-0.124379
-0.117885
-0.107494
-0.090089
-0.069308
-0.037616
0.001350
0.043692
0.098503
0.144742
0.194878
0.249170
0.301903
0.355155
0.397498
0.443997
0.482183
0.510238
0.539852
0.558295
0.562452
0.569206
0.567648
0.548425
0.531541
0.508681
0.472834
0.440363
0.412568
0.370746
0.334378
0.307363
0.268917
0.230732
0.199560
0.169167
0.135917
0.114617
0.091497
0.063443
0.041103
0.016945
-0.010850
-0.041502
-0.066180
-0.101768
-0.140473
-0.166190
-0.198661
-0.239964
-0.269057
-0.301268
-0.343350
-0.374782
-0.400239
-0.427255
-0.452712
-0.461803
-0.471155
-0.472713
-0.462582
-0.462322
-0.455827
-0.441020
-0.422317
-0.406211
-0.376597
-0.342308
-0.320227
-0.290873
-0.264636
-0.244374
-0.230346
-0.211643
-0.198654
-0.197095
-0.183068
-0.181509
-0.179430
-0.164883
-0.166701
-0.160986
-0.152673
-0.150854
-0.145659
-0.151893
-0.145658
-0.142801
-0.149814
-0.137345
-0.136306
-0.142800
-0.135006
-0.131889
-0.135266
-0.133187
-0.132408
-0.143318
-0.154487
-0.157345
-0.168774
-0.181762
-0.183321
-0.193451
-0.206699
-0.210336
-0.219427
-0.234234
-0.236831
-0.233194
-0.235532
-0.232934
-0.224621
-0.224621
-0.229296
-0.214230
-0.210852
-0.215268
-0.204358
-0.208514
-0.215527
-0.218384
-0.222800
-0.237607
-0.260726
-0.278909
-0.304366
-0.334239
-0.360735
-0.393466
-0.438146
-0.478409
-0.520751
-0.563873
-0.600500
-0.642322
-0.678949
-0.714797
-0.748826
-0.784934
-0.826236
-0.856109
-0.892996
-0.927285
-0.947807
-0.972484
-0.990408
-1.006773
-1.017164
-1.020541
-1.022359
-1.009110
-0.998979
-0.974041
-0.940790
-0.915853
-0.879745
-0.844416
-0.808827
-0.776356
-0.728818
-0.681800
-0.647251
-0.603350
-0.563085
-0.528536
-0.498143
-0.455800
-0.416835
-0.380207
-0.338644
-0.309550
-0.284612
-0.256557
-0.228761
-0.214214
-0.196030
-0.174729
-0.163559
-0.154207
-0.143296
-0.143556
-0.158103
-0.164337
-0.178104
-0.202003
-0.213952
-0.232395
-0.266164
-0.295518
-0.322534
-0.359940
-0.404620
-0.443844
-0.486706
-0.535802
-0.572169
-0.616070
-0.662048
-0.687245
-0.714521
-0.744654
-0.757382
-0.769071
-0.795048
-0.804139
-0.813751
-0.834532
-0.839207
-0.846481
-0.853234
-0.854793
-0.853753
-0.845440
-0.840505
-0.828036
-0.805435
-0.787511
-0.761794
-0.736077
-0.715815
-0.690617
-0.662042
-0.637364
-0.618660
-0.593722
-0.582552
-0.569563
-0.554237
-0.541248
-0.529818
-0.533974
-0.527220
-0.535272
-0.536052
-0.526959
-0.528518
-0.514750
-0.496566
-0.475524
-0.452664
-0.416816
-0.383825
-0.358108
-0.325897
-0.293945
-0.264071
-0.237055
-0.203545
-0.182504
-0.172892
-0.156786
-0.151331
-0.155227
-0.149512
-0.154967
-0.164318
-0.163279
-0.168993
-0.177565
-0.192372
-0.201723
-0.217309
-0.240948
-0.254715
-0.268483
-0.284848
-0.289004
-0.285107
-0.290042
-0.280431
-0.266403
-0.264065
-0.258090
-0.249257
-0.240165
-0.232372
-0.219383
-0.205356
-0.190029
-0.172365
-0.155479
-0.150284
-0.140153
-0.128203
-0.129761
-0.116773
-0.109239
-0.110798
-0.110797
-0.110018
-0.109238
-0.126123
-0.128980
-0.132616
-0.152099
-0.149761
-0.154956
-0.169762
-0.175737
-0.191063
-0.207428
-0.223533
-0.230547
-0.236781
-0.244314
-0.238079
-0.237559
-0.231584
-0.223791
-0.214180
-0.200412
-0.186384
-0.159108
-0.138586
-0.109752
-0.066630
-0.027664
0.013899
0.066372
0.119365
0.166903
0.229247
0.291072
0.352897
0.431348
0.502005
0.571623
0.645137
0.724627
0.807753
0.883865
0.971667
1.053494
1.132723
1.218187
1.295079
1.364957
1.431457
1.502634
1.555627
1.605763
1.660834
1.699799
1.739804
1.774872
1.800070
1.818774
1.834880
1.840855
1.838777
1.835919
1.828906
1.814359
1.791760
1.779811
1.756951
1.720844
1.692010
1.650967
1.604988
1.561088
1.511992
1.459519
1.409644
1.372237
1.332493
1.293009
1.267811
1.231704
1.197415
1.177673
1.153255
1.136890
1.123382
1.104679
1.083378
1.057402
1.024152
0.980511
0.938689
0.888034
0.832184
0.767762
0.701521
0.638658
0.555792
0.486434
0.417856
0.342783
0.282517
0.217576
0.160687
0.105097
0.058079
0.014958
-0.034398
-0.059595
-0.085312
-0.113886
-0.127654
-0.152331
-0.173372
-0.192075
-0.211558
-0.228962
-0.253899
-0.269485
-0.296501
-0.326893
-0.346895
-0.372612
-0.397290
-0.419889
-0.446126
-0.472622
-0.503014
-0.533667
-0.557825
-0.598088
-0.628481
-0.657315
-0.702514
-0.733167
-0.770054
-0.814993
-0.844347
-0.870063
-0.901495
-0.919419
-0.938901
-0.958384
-0.974229
-0.994491
-1.002284
-1.013453
-1.022025
-1.020467
-1.016310
-1.012153
-1.010075
-1.010075
-1.001242
-0.988773
-0.977083
-0.951106
-0.929286
-0.897334
-0.874214
-0.858108
-0.825377
-0.806674
-0.781216
-0.743550
-0.710819
-0.683543
-0.646915
-0.614704
-0.591065
-0.566906
-0.550021
-0.534435
-0.524303
-0.505080
-0.501703
-0.508976
-0.502482
-0.511833
-0.521964
-0.523782
-0.535471
-0.550018
-0.556512
-0.565084
-0.571318
-0.581968
-0.587423
-0.595995
-0.610282
-0.608724
-0.608204
-0.609502
-0.606645
-0.601449
-0.604306
-0.596513
-0.589759
-0.589758
-0.591057
-0.595213
-0.593654
-0.610279
-0.618072
-0.633138
-0.654699
-0.664050
-0.673661
-0.679116
-0.683272
-0.677817
-0.681193
-0.677556
-0.667165
-0.659892
-0.652618
-0.639889
-0.619367
-0.610535
-0.584817
-0.552606
-0.529746
-0.494158
-0.449737
-0.405317
-0.359857
-0.313878
-0.262184
-0.216464
-0.168667
-0.119570
-0.081644
-0.035405
0.003041
0.046422
0.083570
0.116820
0.151110
0.163579
0.190075
0.207740
0.217352
0.238393
0.255538
0.270345
0.286711
0.303596
0.315286
0.323598
0.332171
0.341003
0.342562
0.348018
0.347498
0.343083
0.335550
0.324380
0.313730
0.293728
0.279960
0.255283
0.226449
0.196056
0.167482
0.133712
0.097085
0.072927
0.026169
-0.012796
-0.044487
-0.088907
-0.128652
-0.160603
-0.194632
-0.238013
-0.265808
-0.295162
-0.328931
-0.347634
-0.362181
-0.376208
-0.382962
-0.379844
-0.372571
-0.364518
-0.349451
-0.318019
-0.296458
-0.272818
-0.229956
-0.200083
-0.162157
-0.114879
-0.078251
-0.042403
-0.008633
0.023579
0.044880
0.061246
0.085145
0.089561
0.095536
0.099173
0.078651
0.061767
0.038648
0.016048
-0.015124
-0.034866
-0.050971
-0.077987
-0.077727
-0.084481
-0.088637
-0.085519
-0.080064
-0.067854
-0.056165
-0.034084
-0.020836
-0.008886
0.008778
0.018650
0.024105
0.030860
0.037094
0.036575
0.029042
0.029562
0.026964
0.019172
0.017873
0.015535
0.009041
-0.004726
-0.010441
-0.016935
-0.027845
-0.028624
-0.034858
-0.041612
-0.037975
-0.041351
-0.045507
-0.035896
-0.033558
-0.036934
-0.036674
-0.028621
-0.026543
-0.026283
-0.011735
-0.009397
-0.000565
0.010086
0.015541
0.025153
0.028530
0.044116
0.056326
0.070873
0.091395
0.104643
0.124386
0.146986
0.172184
0.195823
0.215306
0.236607
0.244400
0.246479
0.250116
0.238426
0.231932
0.226478
0.216347
0.203878
0.185435
0.182058
0.166213
0.147769
0.145692
0.127508
0.117377
0.104130
0.079192
0.060749
0.036071
0.013212
-0.018739
-0.048612
-0.076148
-0.110956
-0.136154
-0.159792
-0.177196
-0.189405
-0.192522
-0.195120
-0.205250
-0.200055
-0.203172
-0.216679
-0.217199
-0.215380
-0.224991
-0.231225
-0.226549
-0.229406
-0.230185
-0.223171
-0.214599
-0.204727
-0.189920
-0.173814
-0.156670
-0.136667
-0.111469
-0.083414
-0.062373
-0.021849
0.016597
0.047770
0.105698
0.161548
0.207268
0.262339
0.319748
0.366766
0.411187
0.458465
0.510159
0.553800
0.600818
0.654331
0.694335
0.748108
0.803958
0.854613
0.908905
0.962157
1.014371
1.063727
1.113343
1.152828
1.189715
1.222446
1.258295
1.279596
1.294403
1.320120
1.317003
1.323757
1.328693
1.314406
1.312848
1.301678
1.292067
1.272325
1.250505
1.234399
1.196473
1.163743
1.131012
1.086073
1.040354
0.996973
0.961385
0.915666
0.876182
0.844230
0.805006
0.784744
0.768119
0.753313
0.748118
0.750196
0.761106
0.768900
0.785006
0.806047
0.822673
0.849429
0.881381
0.906838
0.938530
0.968144
0.996978
1.027112
1.055167
1.085560
1.115174
1.144528
1.175440
1.203496
1.221160
1.254670
1.273114
1.284025
1.313379
1.326887
1.346110
1.362216
1.382738
1.397805
1.402481
1.427159
1.431315
1.443005
1.474178
1.486647
1.515741
1.551849
1.587697
1.626663
1.660173
1.711607
1.746416
1.785901
1.833699
1.859416
1.887731
1.916826
1.949297
1.969559
1.990081
2.018656
2.037879
2.060219
2.075026
2.084638
2.099185
2.106718
2.106978
2.106459
2.106979
2.102044
2.084380
2.065677
2.041259
2.003852
1.971382
1.935274
1.886698
1.836823
1.789805
1.730318
1.663558
1.606669
1.538870
1.473928
1.417040
1.360670
1.300924
1.229748
1.177275
1.123243
1.046612
0.996217
0.949200
0.881660
0.837760
0.790222
0.734113
0.689952
0.649169
0.612542
0.579292
0.563446
0.540847
0.520326
0.516169
0.507078
0.505779
0.503442
0.507858
0.519808
0.520587
0.529160
0.533056
0.526822
0.534616
0.533317
0.519030
0.515394
0.512796
0.504224
0.489418
0.476170
0.466299
0.444219
0.427074
0.413047
0.383434
0.356418
0.329922
0.297711
0.261863
0.232250
0.204195
0.162893
0.136916
0.101068
0.056908
0.034568
0.002098
-0.039725
-0.070637
-0.100510
-0.146748
-0.183895
-0.222081
-0.263124
-0.299751
-0.346249
-0.380798
-0.421321
-0.452493
-0.467300
-0.501069
-0.522890
-0.526266
-0.548606
-0.565231
-0.571465
-0.586012
-0.595104
-0.611728
-0.616144
-0.631990
-0.651212
-0.646277
-0.664460
-0.676929
-0.685501
-0.699008
-0.703164
-0.714074
-0.714334
-0.718230
-0.725244
-0.723945
-0.733556
-0.744206
-0.752518
-0.764727
-0.776416
-0.791223
-0.797717
-0.811484
-0.828369
-0.831486
-0.853306
-0.863177
-0.863437
-0.885257
-0.888634
-0.892270
-0.904479
-0.902920
-0.906297
-0.899283
-0.886814
-0.879280
-0.859538
-0.841354
-0.825767
-0.795634
-0.768358
-0.743680
-0.704195
-0.674061
-0.650942
-0.623406
-0.602624
-0.581063
-0.561321
-0.536643
-0.511705
-0.493001
-0.457153
-0.433514
-0.420265
-0.392989
-0.368831
-0.349867
-0.334021
-0.301550
-0.277911
-0.263104
-0.226217
-0.214267
-0.203097
-0.176600
-0.166209
-0.151662
-0.143349
-0.138413
-0.139192
-0.155038
-0.163870
-0.183612
-0.208030
-0.217901
-0.236604
-0.258424
-0.265697
-0.283881
-0.307260
-0.327521
-0.351160
-0.370382
-0.402853
-0.423115
-0.437142
-0.470132
-0.484939
-0.494030
-0.518448
-0.537411
-0.538190
-0.542606
-0.545723
-0.531695
-0.519746
-0.503900
-0.475585
-0.451166
-0.432982
-0.399732
-0.364403
-0.337906
-0.309332
-0.283095
-0.249065
-0.224646
-0.204904
-0.174511
-0.163600
-0.150871
-0.131648
-0.140480
-0.136843
-0.125413
-0.144636
-0.154247
-0.165417
-0.190614
-0.218928
-0.243086
-0.269063
-0.315821
-0.351669
-0.380503
-0.421805
-0.462589
-0.490124
-0.514022
-0.546233
-0.575327
-0.599745
-0.629098
-0.654296
-0.670401
-0.699235
-0.724172
-0.736122
-0.759760
-0.784178
-0.802881
-0.823662
-0.839768
-0.852236
-0.859510
-0.867302
-0.876134
-0.876653
-0.886265
-0.890680
-0.878731
-0.866521
-0.855351
-0.837167
-0.823919
-0.822360
-0.806774
-0.794045
-0.787290
-0.774821
-0.759235
-0.751701
-0.741051
-0.716113
-0.709099
-0.700266
-0.690395
-0.680004
-0.675847
-0.680783
-0.660780
-0.652987
-0.653247
-0.635842
-0.625451
-0.621294
-0.603370
-0.585706
-0.572457
-0.559469
-0.539726
-0.515567
-0.503098
-0.480498
-0.459197
-0.448286
-0.429843
-0.411659
-0.403605
-0.391136
-0.379187
-0.375290
-0.366717
-0.358405
-0.349053
-0.345675
-0.325413
-0.311905
-0.308008
-0.278914
-0.254496
-0.227220
-0.202282
-0.161238
-0.120454
-0.091360
-0.029795
0.014106
0.047876
0.104766
0.151264
0.196464
0.252055
0.299073
0.343234
0.380641
0.418048
0.445843
0.462728
0.495459
0.512864
0.534685
0.557545
0.583262
0.605602
0.614435
0.647166
0.655998
0.668987
0.691327
0.691327
0.698601
0.702498
0.705875
0.704576
0.701979
0.704057
0.699122
0.691849
0.689251
0.680939
0.672367
0.676264
0.667432
0.662756
0.669770
0.664056
0.657821
0.652367
0.656004
0.654185
0.644315
0.649770
0.650290
0.643796
0.638601
0.638601
0.632367
0.625873
0.631848
0.625873
0.619639
0.624835
0.624575
0.617562
0.623277
0.626914
0.624836
0.637825
0.646138
0.648735
0.655749
0.668478
0.673414
0.676012
0.683805
0.685364
0.679650
0.670558
0.670818
0.650556
0.629515
0.619645
0.589512
0.565613
0.548469
0.527168
0.506387
0.486645
0.465344
0.437289
0.405598
0.379362
0.344553
0.305328
0.281170
0.240906
0.199344
0.168692
0.124531
0.077254
0.039328
0.007117
-0.035225
-0.075229
-0.100166
-0.125883
-0.158874
-0.186149
-0.210567
-0.235764
-0.249012
-0.260701
-0.274728
-0.282261
-0.283041
-0.291093
-0.292911
-0.283559
-0.288495
-0.286676
-0.273947
-0.261218
-0.251866
-0.250567
-0.238618
-0.235500
-0.242254
-0.228486
-0.228745
-0.238876
-0.229264
-0.232901
-0.240434
-0.243551
-0.248226
-0.250304
-0.260175
-0.257058
-0.260954
-0.271085
-0.269006
-0.270305
-0.269525
-0.263291
-0.256796
-0.259394
-0.252120
-0.232377
-0.220687
-0.203543
-0.171331
-0.147952
-0.127170
-0.091322
-0.065604
-0.040147
-0.008975
0.022198
0.054409
0.081166
0.110779
0.138315
0.160655
0.180138
0.195465
0.203778
0.209753
0.216507
0.212611
0.211052
0.219105
0.218066
0.218067
0.225081
0.228198
0.225341
0.227419
0.230537
0.220146
0.221705
0.221965
0.213913
0.206380
0.195470
0.182222
0.160661
0.154427
0.131048
0.099876
0.092084
0.065328
0.039611
0.020908
-0.008186
-0.032344
-0.058320
-0.081180
-0.106117
-0.142225
-0.154953
-0.175215
-0.209244
-0.226908
-0.251586
-0.273666
-0.300162
-0.317046
-0.329255
-0.354712
-0.359128
-0.370558
-0.390300
-0.394975
-0.399391
-0.405625
-0.409002
-0.405365
-0.411339
-0.422509
-0.422509
-0.431860
-0.442251
-0.444069
-0.452381
-0.464330
-0.471604
-0.478097
-0.495242
-0.508750
-0.515503
-0.520698
-0.524595
-0.525114
-0.520957
-0.521996
-0.512904
-0.503292
-0.503552
-0.499915
-0.493680
-0.496797
-0.504330
-0.506408
-0.516019
-0.523292
-0.520175
-0.513681
-0.508225
-0.495236
-0.472377
-0.452894
-0.430034
-0.404057
-0.382236
-0.365611
-0.339374
-0.316774
-0.303525
-0.283263
-0.265599
-0.248973
-0.234946
-0.213385
-0.201955
-0.193902
-0.170003
-0.161430
-0.157274
-0.136752
-0.117529
-0.114151
-0.101422
