EVENT_NAME: 202302060117
EVENT_ID: 13194
EVENT_DATE_YYYYMMDD: 2023/02/06
EVENT_TIME_HHMMSS: 01:17:32.00000
EVENT_LATITUDE_DEGREE: 37.288
EVENT_LONGITUDE_DEGREE: 37.043
EVENT_DEPTH_KM: 8.6
HYPOCENTER_REFERENCE: AFAD
MAGNITUDE_W: 7.7
MAGNITUDE_W_REFERENCE: AFAD
MAGNITUDE_L: 
MAGNITUDE_L_REFERENCE: 
FOCAL_MECHANISM: 
NETWORK: TK
STATION_CODE: 0720
STATION_NAME: 
STATION_LATITUDE_DEGREE: 36.31482
STATION_LONGITUDE_DEGREE: 32.389255
STATION_ELEVATION_M: 199.0
LOCATION: Kahramanmaras_Pazarck_Turkiye
SENSOR_DEPTH_M: 
VS30_M/S: None
SITE_CLASSIFICATION_EC8: unknown
MORPHOLOGIC_CLASSIFICATION: 
EPICENTRAL_DISTANCE_KM: 428.19
EARTHQUAKE_BACKAZIMUTH_DEGREE: 
DATE_TIME_FIRST_SAMPLE_YYYYMMDD_HHMMSS: 2023/02/06 01:18:06.4452160
DATE_TIME_FIRST_SAMPLE_PRECISION: millisecond
SAMPLING_INTERVAL_S: 0.01
NDATA: 16733
DURATION_S: 
STREAM: HNN
UNITS: cm/s^2
INSTRUMENT: sensor = ACEBOX/SARA | digitizer = 
INSTRUMENT_ANALOG/DIGITAL: 
INSTRUMENTAL_FREQUENCY_HZ: 
INSTRUMENTAL_DAMPING: 
FULL_SCALE_G: 
N_BIT_DIGITAL_CONVERTER: 
PGA_CM/S^2: 11.973
TIME_PGA_S: 
BASELINE_CORRECTION: BASELINE REMOVED
FILTER_TYPE: BUTTERWORTH
FILTER_ORDER: 
LOW_CUT_FREQUENCY_HZ: 
HIGH_CUT_FREQUENCY_HZ: 
LATE/NORMAL_TRIGGERED: 
DATABASE_VERSION: 
HEADER_FORMAT: DYNA 1.2
DATA_TYPE: Acceleration
PROCESSING: Automatic Paolucci et al., 2011
DATA_TIMESTAMP_YYYYMMDD_HHMMSS: 
DATA_LICENSE: U (unknown license)
DATA_CITATION: Turkish Accelerometric Archive v 1.0 - Disaster And Emergency Management Presidency, Earthquake Department
DATA_CREATOR: AFAD
ORIGINAL_DATA_MEDIATOR_CITATION: : AFAD - Disaster And Emergency Management Presidency
ORIGINAL_DATA_MEDIATOR: AFAD PROCESS SERVICE
ORIGINAL_DATA_CREATOR_CITATION: AFAD PROCESS SERVICE
ORIGINAL_DATA_CREATOR: network: TK
USER1: GuestUser
USER2: 
USER3: 
USER4: 
USER5: 
[...]
-0.950002
-0.950168
-0.950333
-0.950498
-0.950663
-0.950829
-0.950994
-0.951159
-0.951324
-0.951490
-0.951655
-0.951820
-0.951985
-0.952151
-0.952316
-0.952481
-0.952646
-0.952812
-0.952977
-0.953142
-0.953307
-0.953473
-0.953638
-0.953803
-0.953968
-0.954134
-0.954299
-0.954464
-0.954629
-0.954795
-0.954960
-0.955125
-0.955290
-0.955456
-0.955621
-0.955786
-0.955951
-0.956117
-0.956282
-0.956447
-0.956612
-0.956778
-0.956943
-0.957108
-0.957273
-0.957439
-0.957604
-0.957769
-0.957934
-0.958100
-0.958265
-0.958430
-0.958595
-0.958761
-0.958926
-0.959091
-0.959256
-0.959422
-0.959587
-0.959752
-0.959917
-0.960083
-0.960248
-0.960413
-0.960578
-0.960744
-0.960909
-0.961074
-0.961239
-0.961405
-0.961570
-0.961735
-0.961900
-0.962066
-0.962231
-0.962396
-0.962561
-0.962727
-0.962892
-0.963057
-0.963223
-0.963388
-0.963553
-0.963718
-0.963884
-0.964049
-0.964214
-0.964379
-0.964545
-0.964710
-0.964875
-0.965040
-0.965206
-0.965371
-0.965536
-0.965701
-0.965867
-0.966032
-0.966197
-0.966362
-0.966528
-0.966693
-0.966858
-0.967023
-0.967189
-0.967354
-0.967519
-0.967684
-0.967850
-0.968015
-0.968180
-0.968345
-0.968511
-0.968676
-0.968841
-0.969006
-0.969172
-0.969337
-0.969502
-0.969667
-0.969833
-0.969998
-0.970163
-0.970328
-0.970494
-0.970659
-0.970824
-0.970989
-0.971155
-0.971320
-0.971485
-0.971650
-0.971816
-0.971981
-0.972146
-0.972311
-0.972477
-0.972642
-0.972807
-0.972972
-0.973138
-0.973303
-0.973468
-0.973633
-0.973799
-0.973964
-0.974129
-0.974294
-0.974460
-0.974625
-0.974790
-0.974955
-0.975121
-0.975286
-0.975451
-0.975616
-0.975782
-0.975947
-0.976112
-0.976277
-0.976443
-0.976608
-0.976773
-0.976939
-0.977104
-0.977269
-0.977434
-0.977600
-0.977765
-0.977930
-0.978095
-0.978261
-0.978426
-0.978591
-0.978756
-0.978922
-0.979087
-0.979252
-0.979417
-0.979583
-0.979748
-0.979913
-0.980078
-0.980244
-0.980409
-0.980574
-0.980739
-0.980905
-0.981070
-0.981235
-0.981400
-0.981566
-0.981731
-0.981896
-0.982061
-0.982227
-0.982392
-0.982557
-0.982722
-0.982888
-0.983053
-0.983218
-0.983383
-0.983549
-0.983714
-0.983879
-0.984044
-0.984210
-0.984375
-0.984540
-0.984705
-0.984871
-0.985036
-0.985201
-0.985366
-0.985532
-0.985697
-0.985862
-0.986027
-0.986193
-0.986358
-0.986523
-0.986688
-0.986854
-0.987019
-0.987184
-0.987349
-0.987515
-0.987680
-0.987845
-0.988010
-0.988176
-0.988341
-0.988506
-0.988671
-0.988837
-0.989002
-0.989167
-0.989332
-0.989498
-0.989663
-0.989828
-0.989993
-0.990159
-0.990324
-0.990489
-0.990655
-0.990820
-0.990985
-0.991150
-0.991316
-0.991481
-0.991646
-0.991811
-0.991977
-0.992142
-0.992307
-0.992472
-0.992638
-0.992803
-0.992968
-0.993133
-0.993299
-0.993464
-0.993629
-0.993794
-0.993960
-0.994125
-0.994290
-0.994455
-0.994621
-0.994786
-0.994951
-0.995116
-0.995282
-0.995447
-0.995612
-0.995777
-0.995943
-0.996108
-0.996273
-0.996438
-0.996604
-0.996769
-0.996934
-0.997099
-0.997265
-0.997430
-0.997595
-0.997760
-0.997926
-0.998091
-0.998256
-0.998421
-0.998587
-0.998752
-0.998917
-0.999082
-0.999248
-0.999413
-0.999578
-0.999743
-0.999909
-1.000074
-1.000239
-1.000404
-1.000570
-1.000735
-1.000900
-1.001065
-1.001231
-1.001396
-1.001561
-1.001726
-1.001892
-1.002057
-1.002222
-1.002387
-1.002553
-1.002718
-1.002883
-1.003048
-1.003214
-1.003379
-1.003544
-1.003709
-1.003875
-1.004040
-1.004205
-1.004371
-1.004536
-1.004701
-1.004866
-1.005032
-1.005197
-1.005362
-1.005527
-1.005693
-1.005858
-1.006023
-1.006188
-1.006354
-1.006519
-1.006684
-1.006849
-1.007015
-1.007180
-1.007345
-1.007510
-1.007676
-1.007841
-1.008006
-1.008171
-1.008337
-1.008502
-1.008667
-1.008832
-1.008998
-1.009163
-1.009328
-1.009493
-1.009659
-1.009824
-1.009989
-1.010154
-1.010320
-1.010485
-1.010650
-1.010815
-1.010981
-1.011146
-1.011311
-1.011476
-1.011642
-1.011807
-1.011972
-1.012137
-1.012303
-1.012468
-1.012633
-1.012798
-1.012964
-1.013129
-1.013294
-1.013459
-1.013625
-1.013790
-1.013955
-1.014120
-1.014286
-1.014451
-1.014616
-1.014781
-1.014947
-1.015112
-1.015277
-1.015442
-1.015608
-1.015773
-1.015938
-1.016103
-1.016269
-1.016434
-1.016599
-1.016764
-1.016930
-1.017095
-1.017260
-1.017426
-1.017591
-1.017756
-1.017921
-1.018087
-1.018252
-1.018417
-1.018582
-1.018748
-1.018913
-1.019078
-1.019243
-1.019409
-1.019574
-1.019739
-1.019904
-1.020070
-1.020235
-1.020400
-1.020565
-1.020731
-1.020896
-1.021061
-1.021226
-1.021392
-1.021557
-1.021722
-1.021887
-1.022053
-1.022218
-1.022383
-1.022548
-1.022714
-1.022879
-1.023044
-1.023209
-1.023375
-1.023540
-1.023705
-1.023870
-1.024036
-1.024201
-1.024366
-1.024531
-1.024697
-1.024862
-1.025027
-1.025192
-1.025358
-1.025523
-1.025688
-1.025853
-1.026019
-1.026184
-1.026349
-1.026514
-1.026680
-1.026845
-1.027010
-1.027175
-1.027341
-1.027506
-1.027671
-1.027836
-1.028002
-1.028167
-1.028332
-1.028497
-1.028663
-1.028828
-1.028993
-1.029158
-1.029324
-1.029489
-1.029654
-1.029819
-1.029985
-1.030150
-1.030315
-1.030480
-1.030646
-1.030811
-1.030976
-1.031142
-1.031307
-1.031472
-1.031637
-1.031803
-1.031968
-1.032133
-1.032298
-1.032464
-1.032629
-1.032794
-1.032959
-1.033125
-1.033290
-1.033455
-1.033620
-1.033786
-1.033951
-1.034116
-1.034281
-1.034447
-1.034612
-1.034777
-1.034942
-1.035108
-1.035273
-1.035438
-1.035603
-1.035769
-1.035934
-1.036099
-1.036264
-1.036430
-1.036595
-1.036760
-1.036925
-1.037091
-1.037256
-1.037421
-1.037586
-1.037752
-1.037917
-1.038082
-1.038247
-1.038413
-1.038578
-1.038743
-1.038908
-1.039074
-1.039239
-1.039404
-1.039569
-1.039735
-1.039900
-1.040065
-1.040230
-1.040396
-1.040561
-1.040726
-1.040891
-1.041057
-1.041222
-1.041387
-1.041552
-1.041718
-1.041883
-1.042048
-1.042213
-1.042379
-1.042544
-1.042709
-1.042874
-1.043040
-1.043205
-1.043370
-1.043535
-1.043701
-1.043866
-1.044031
-1.044196
-1.044362
-1.044527
-1.044692
-1.044858
-1.045023
-1.045188
-1.045353
-1.045519
-1.045684
-1.045849
-1.046014
-1.046180
-1.046345
-1.046510
-1.046675
-1.046841
-1.047006
-1.047171
-1.047336
-1.047502
-1.047667
-1.047832
-1.047997
-1.048163
-1.048328
-1.048493
-1.048658
-1.048824
-1.048989
-1.049154
-1.049319
-1.049485
-1.049650
-1.049815
-1.049980
-1.050146
-1.050311
-1.050476
-1.050641
-1.050807
-1.050972
-1.051137
-1.051302
-1.051468
-1.051633
-1.051798
-1.051963
-1.052129
-1.052294
-1.052459
-1.052624
-1.052790
-1.052955
-1.053120
-1.053285
-1.053451
-1.053616
-1.053781
-1.053946
-1.054112
-1.054277
-1.054442
-1.054607
-1.054773
-1.054938
-1.055103
-1.055268
-1.055434
-1.055599
-1.055764
-1.055929
-1.056095
-1.056260
-1.056425
-1.056590
-1.056756
-1.056921
-1.057086
-1.057251
-1.057417
-1.057582
-1.057747
-1.057912
-1.058078
-1.058243
-1.058408
-1.058574
-1.058739
-1.058904
-1.059069
-1.059235
-1.059400
-1.059565
-1.059730
-1.059896
-1.060061
-1.060226
-1.060391
-1.060557
-1.060722
-1.060887
-1.061052
-1.061218
-1.061383
-1.061548
-1.061713
-1.061879
-1.062044
-1.062209
-1.062374
-1.062540
-1.062705
-1.062870
-1.063035
-1.063201
-1.063366
-1.063531
-1.063696
-1.063862
-1.064027
-1.064192
-1.064357
-1.064523
-1.064688
-1.064853
-1.065018
-1.065184
-1.065349
-1.065514
-1.065679
-1.065845
-1.066010
-1.066175
-1.066340
-1.066506
-1.066671
-1.066836
-1.067001
-1.067167
-1.067332
-1.067497
-1.067662
-1.067828
-1.067993
-1.068158
-1.068323
-1.068489
-1.068654
-1.068819
-1.068984
-1.069150
-1.069315
-1.069480
-1.069645
-1.069811
-1.069976
-1.070141
-1.070306
-1.070472
-1.070637
-1.070802
-1.070967
-1.071133
-1.071298
-1.071463
-1.071628
-1.071794
-1.071959
-1.072124
-1.072290
-1.072455
-1.072620
-1.072785
-1.072951
-1.073116
-1.073281
-1.073446
-1.073612
-1.073777
-1.073942
-1.074107
-1.074273
-1.074438
-1.074603
-1.074768
-1.074934
-1.075099
-1.075264
-1.075429
-1.075595
-1.075760
-1.075925
-1.076090
-1.076256
-1.076421
-1.076586
-1.076751
-1.076917
-1.077082
-1.077247
-1.077412
-1.077578
-1.077743
-1.077908
-1.078073
-1.078239
-1.078404
-1.078569
-1.078734
-1.078900
-1.079065
-1.079230
-1.079395
-1.079561
-1.079726
-1.079891
-1.080056
-1.080222
-1.080387
-1.080552
-1.080717
-1.080883
-1.081048
-1.081213
-1.081378
-1.081544
-1.081709
-1.081874
-1.082039
-1.082205
-1.082370
-1.082535
-1.082700
-1.082866
-1.083031
-1.083196
-1.083361
-1.083527
-1.083692
-1.083857
-1.084022
-1.084188
-1.084353
-1.084518
-1.084683
-1.084849
-1.085014
-1.085179
-1.085344
-1.085510
-1.085675
-1.085840
-1.086006
-1.086171
-1.086336
-1.086501
-1.086667
-1.086832
-1.086997
-1.087162
-1.087328
-1.087493
-1.087658
-1.087823
-1.087989
-1.088154
-1.088319
-1.088484
-1.088650
-1.088815
-1.088980
-1.089145
-1.089311
-1.089476
-1.089641
-1.089806
-1.089972
-1.090137
-1.090302
-1.090467
-1.090633
-1.090798
-1.090963
-1.091128
-1.091294
-1.091459
-1.091624
-1.091789
-1.091955
-1.092120
-1.092285
-1.092450
-1.092616
-1.092781
-1.092946
-1.093111
-1.093277
-1.093442
-1.093607
-1.093772
-1.093938
-1.094103
-1.094268
-1.094433
-1.094599
-1.094764
-1.094929
-1.095094
-1.095260
-1.095425
-1.095590
-1.095755
-1.095921
-1.096086
-1.096251
-1.096416
-1.096582
-1.096747
-1.096912
-1.097077
-1.097243
-1.097408
-1.097573
-1.097738
-1.097904
-1.098069
-1.098234
-1.098399
-1.098565
-1.098730
-1.098895
-1.099060
-1.099226
-1.099391
-1.099556
-1.099722
-1.099887
-1.100052
-1.100217
-1.100383
-1.100548
-1.100713
-1.100878
-1.101044
-1.101209
-1.101374
-1.101539
-1.101705
-1.101870
-1.102035
-1.102200
-1.102366
-1.102531
-1.102696
-1.102861
-1.103027
-1.103192
-1.103357
-1.103522
-1.103688
-1.103853
-1.104018
-1.104183
-1.104349
-1.104514
-1.104679
-1.104844
-1.105010
-1.105175
-1.105340
-1.105505
-1.105671
-1.105836
-1.106001
-1.106166
-1.106332
-1.106497
-1.106662
-1.106827
-1.106993
-1.107158
-1.107323
-1.107488
-1.107654
-1.107819
-1.107984
-1.108149
-1.108315
-1.108480
-1.108645
-1.108810
-1.108976
-1.109141
-1.109306
-1.109471
-1.109637
-1.109802
-1.109967
-1.110132
-1.110298
-1.110463
-1.110628
-1.110793
-1.110959
-1.111124
-1.111289
-1.111454
-1.111620
-1.111785
-1.111950
-1.112115
-1.112281
-1.112446
-1.112611
-1.112776
-1.112942
-1.113107
-1.113272
-1.113438
-1.113603
-1.113768
-1.113933
-1.114099
-1.114264
-1.114429
-1.114594
-1.114760
-1.114925
-1.115090
-1.115255
-1.115421
-1.115586
-1.115751
-1.115916
-1.116082
-1.116247
-1.116412
-1.116577
-1.116743
-1.116908
-1.117073
-1.117238
-1.117404
-1.117569
-1.117734
-1.117899
-1.118065
-1.118230
-1.118395
-1.118560
-1.118726
-1.118891
-1.119056
-1.119221
-1.119387
-1.119552
-1.119717
-1.119882
-1.120048
-1.120213
-1.120378
-1.120543
-1.120709
-1.120874
-1.121039
-1.121204
-1.121370
-1.121535
-1.121700
-1.121865
-1.122031
-1.122196
-1.122361
-1.122526
-1.122692
-1.122857
-1.123022
-1.123187
-1.123353
-1.123518
-1.123683
-1.123848
-1.124014
-1.124179
-1.124344
-1.124509
-1.124675
-1.124840
-1.125005
-1.125170
-1.125336
-1.125501
-1.125666
-1.125831
-1.125997
-1.126162
-1.126327
-1.126492
-1.126658
-1.126823
-1.126988
-1.127154
-1.127319
-1.127484
-1.127649
-1.127815
-1.127980
-1.128145
-1.128310
-1.128476
-1.128641
-1.128806
-1.128971
-1.129137
-1.129302
-1.129467
-1.129632
-1.129798
-1.129963
-1.130128
-1.130293
-1.130459
-1.130624
-1.130789
-1.130954
-1.131120
-1.131285
-1.131450
-1.131615
-1.131781
-1.131946
-1.132111
-1.132276
-1.132442
-1.132607
-1.132772
-1.132937
-1.133103
-1.133268
-1.133433
-1.133598
-1.133764
-1.133929
-1.134094
-1.134259
-1.134425
-1.134590
-1.134755
-1.134920
-1.135086
-1.135251
-1.135416
-1.135581
-1.135747
-1.135912
-1.136077
-1.136242
-1.136408
-1.136573
-1.136738
-1.136903
-1.137069
-1.137234
-1.137399
-1.137564
-1.137730
-1.137895
-1.138060
-1.138225
-1.138391
-1.138556
-1.138721
-1.138886
-1.139052
-1.139217
-1.139382
-1.139547
-1.139713
-1.139878
-1.140043
-1.140208
-1.140374
-1.140539
-1.140704
-1.140870
-1.141035
-1.141200
-1.141365
-1.141531
-1.141696
-1.141861
-1.142026
-1.142192
-1.142357
-1.142522
-1.142687
-1.142853
-1.143018
-1.143183
-1.143348
-1.143514
-1.143679
-1.143844
-1.144009
-1.144175
-1.144340
-1.144505
-1.144670
-1.144836
-1.145001
-1.145166
-1.145331
-1.145497
-1.145662
-1.145827
-1.145992
-1.146158
-1.146323
-1.146488
-1.146653
-1.146819
-1.146984
-1.147149
-1.147314
-1.147480
-1.147645
-1.147810
-1.147975
-1.148141
-1.148306
-1.148471
-1.148636
-1.148802
-1.148967
-1.149132
-1.149297
-1.149463
-1.149628
-1.149793
-1.149958
-1.150124
-1.150289
-1.150454
-1.150619
-1.150785
-1.150950
-1.151115
-1.151280
-1.151446
-1.151611
-1.151776
-1.151941
-1.152107
-1.152272
-1.152437
-1.152602
-1.152768
-1.152933
-1.153098
-1.153263
-1.153429
-1.153594
-1.153759
-1.153924
-1.154090
-1.154255
-1.154420
-1.154586
-1.154751
-1.154916
-1.155081
-1.155247
-1.155412
-1.182310
-1.142109
-1.185841
-1.159667
-1.150327
-1.212529
-1.108033
-1.228685
-1.153881
-1.132617
-1.292313
-1.025796
-1.325302
-1.138276
-1.095970
-1.448315
-0.857988
-1.514269
-1.097186
-1.018876
-1.764935
-0.479763
-1.946385
-0.986192
-0.787242
-2.905691
0.970422
-5.234335
-5.595797
11.972652
10.929437
4.072386
7.538886
5.055246
5.213748
6.337834
5.182864
6.975142
6.538163
6.826423
7.274834
6.438764
6.871277
6.214061
5.959911
5.972759
5.724220
6.488959
7.060348
7.854078
8.530675
8.738042
8.975568
8.910327
8.933227
8.938125
8.701511
8.393588
8.055973
7.990498
8.143156
8.387462
8.554381
8.544316
8.412910
8.184245
7.801273
7.286674
6.731160
6.250928
5.948149
5.819782
5.840111
6.034385
6.372444
6.745339
7.026351
7.107233
6.942628
6.542823
6.027288
5.646655
5.548448
5.676090
5.956868
6.367638
6.838260
7.232898
7.447746
7.452177
7.247358
6.906704
6.577506
6.360062
6.277754
6.298784
6.355117
6.420101
6.512673
6.621611
6.711611
6.758826
6.728655
6.592105
6.373026
6.158622
6.065091
6.171691
6.469537
6.888256
7.400728
7.987547
8.456766
8.559859
8.240714
7.597292
6.805409
6.088575
5.602031
5.415215
5.511060
5.777344
6.087113
6.341239
6.512133
6.676247
6.887120
7.086771
7.181214
7.145197
7.041847
6.913013
6.746304
6.572347
6.457774
6.427135
6.500068
6.714448
7.026322
7.273434
7.297269
7.065097
6.686334
6.313883
6.040562
5.900038
5.914989
6.076298
6.301433
6.513241
6.690214
6.780448
6.712167
6.490749
6.210649
5.985958
5.855253
5.790947
5.834655
6.081066
6.479445
6.829895
6.997516
6.987685
6.843186
6.585997
6.221496
5.802753
5.445265
5.199532
5.037733
4.972258
5.022279
5.207434
5.581732
6.109868
6.628886
6.966478
7.063492
6.994276
6.829671
6.565702
6.225048
5.918294
5.755326
5.741987
5.846483
6.079333
6.390973
6.663803
6.831657
6.868352
6.770847
6.632427
6.594774
6.721714
6.971631
7.275088
7.579247
7.857688
8.129114
8.346534
8.348860
8.073903
7.650017
7.257225
6.954446
6.650966
6.290906
5.899751
5.467448
4.996335
4.540653
4.163526
3.908675
3.783582
3.807183
4.028578
4.452206
5.028739
5.703933
6.423550
7.095939
7.574744
7.753353
7.656082
7.406374
7.111077
6.764811
6.380670
6.076255
5.915390
5.917717
6.094689
6.390899
6.737842
7.033584
7.208452
7.301726
7.302415
7.171711
6.949124
6.695442
6.453450
6.244657
6.097120
5.980911
5.802979
5.569871
5.354766
5.204657
5.168172
5.261679
5.461798
5.745616
6.084844
6.418695
6.674224
6.808879
6.819154
6.762330
6.740107
6.858865
7.167699
7.570520
7.918398
8.161302
8.336872
8.455395
8.409559
8.100468
7.598259
7.039004
6.502194
5.999752
5.563007
5.269813
5.144486
5.148449
5.213433
5.286366
5.356259
5.386875
5.371900
5.329571
5.224818
5.051329
4.841835
4.675827
4.683530
4.876168
5.156946
5.499214
5.924245
6.390192
6.799793
7.106757
7.331658
7.510501
7.698462
7.945340
8.217702
8.411508
8.431837
8.230993
7.853165
7.458971
7.150581
6.835878
6.388612
5.800834
5.195053
4.705236
4.315017
3.955892
3.635111
3.397561
3.311278
3.390757
3.576614
3.817881
4.053070
4.237056
4.403742
4.649451
5.032165
5.462107
5.827754
6.145005
6.467867
6.797042
7.056311
7.188395
7.264134
7.329351
7.319988
7.207052
7.081491
7.045708
7.017641
6.818200
6.449256
6.069791
5.785482
5.585573
5.445751
5.399681
5.424218
5.401995
5.266147
5.086346
4.969903
4.898115
4.775126
4.605611
4.484960
4.462036
4.486807
4.520696
4.649974
4.967693
5.408622
5.834589
6.175688
6.435425
6.656351
6.876109
7.072954
7.188205
7.221392
7.243123
7.311614
7.396237
7.387341
7.238400
7.009735
6.758157
6.527621
6.332856
6.143469
5.964368
5.787606
5.538600
5.140899
4.617415
4.095100
3.619779
3.161992
2.785566
2.586126
2.608091
2.860346
3.341022
4.051987
4.940873
5.870205
6.695965
7.343806
7.778891
7.980412
7.968477
7.794286
7.534058
7.247644
6.936448
6.582000
6.210017
5.968259
5.966143
6.089108
6.197111
6.279629
6.371266
6.418248
6.246862
5.779022
5.119468
4.409648
3.768097
3.284826
3.016415
2.974787
3.107572
3.329668
3.579819
3.860832
4.213386
4.663902
5.208404
5.793820
6.351415
6.856639
7.278865
7.567125
7.727732
7.799263
7.788730
7.676028
7.459286
7.197187
6.910540
6.568483
6.179900
5.750169
5.299396
4.870600
4.466119
4.114009
3.823621
3.536740
3.277213
3.141131
3.174786
3.326742
3.499273
3.694014
3.968714
4.307942
4.675928
5.057473
5.376361
5.510081
5.447645
5.305251
5.192081
5.136426
5.129634
5.212152
5.445704
5.818131
6.244800
6.634762
6.962534
7.211750
7.299412
7.167305
6.839743
6.392477
5.896347
5.421026
5.056992
4.793958
4.538640
4.266254
4.016547
3.865969
3.836265
3.876934
3.970208
4.124268
4.335843
4.526844
4.629235
4.717131
4.833083
4.924719
4.979884
4.997641
4.963962
4.920698
4.949677
5.068200
5.235120
5.418639
5.586961
5.755751
5.955636
6.157625
6.309815
6.338794
6.223286
5.978021
5.562318
4.985061
4.322468
3.671097
3.137559
2.736118
2.469109
2.387970
2.472827
2.642552
2.835890
3.044192
3.292473
3.555950
3.777812
3.992894
4.300793
4.737515
5.275003
5.843352
6.382243
6.909678
7.393860
7.657338
7.574328
7.242324
6.871510
6.551897
6.231116
5.888357
5.565471
5.297294
5.124272
5.066279
5.110689
5.222198
5.321550
5.381858
5.444270
5.501305
5.496383
5.374563
5.143092
4.887306
4.690905
4.625897
4.724548
4.907366
5.014901
4.957375
4.796043
4.587016
4.323982
4.034763
3.789498
3.667444
3.667900
3.745042
3.916403
4.169360
4.478428
4.834022
5.175354
5.494242
5.781099
5.962280
6.062568
6.173142
6.333983
6.532465
6.719959
6.873318
6.981086
6.999778
6.896662
6.671971
6.319159
5.818588
5.197844
4.561904
4.020885
3.644460
3.478919
3.543436
3.825617
4.290862
4.838637
5.264136
5.407209
5.320458
5.106288
4.807016
4.555204
4.498613
4.650570
4.935323
5.230130
5.450589
5.602779
5.729485
5.877935
6.024046
6.039699
5.843765
5.532569
5.265327
5.093474
4.986617
4.928624
4.941471
5.028899
5.157242
5.297275
5.375117
5.291874
5.072794
4.793161
4.474951
4.174977
3.976705
3.902346
3.925013
4.000050
4.107585
4.264685
