EVENT_NAME: 202302060117
EVENT_ID: 13194
EVENT_DATE_YYYYMMDD: 2023/02/06
EVENT_TIME_HHMMSS: 01:17:32.00000
EVENT_LATITUDE_DEGREE: 37.288
EVENT_LONGITUDE_DEGREE: 37.043
EVENT_DEPTH_KM: 8.6
HYPOCENTER_REFERENCE: AFAD
MAGNITUDE_W: 7.7
MAGNITUDE_W_REFERENCE: AFAD
MAGNITUDE_L: 
MAGNITUDE_L_REFERENCE: 
FOCAL_MECHANISM: 
NETWORK: TK
STATION_CODE: 5503
STATION_NAME: 
STATION_LATITUDE_DEGREE: 41.13772
STATION_LONGITUDE_DEGREE: 35.46641
STATION_ELEVATION_M: 335.0
LOCATION: Kahramanmaras_Pazarck_Turkiye
SENSOR_DEPTH_M: 
VS30_M/S: 246
SITE_CLASSIFICATION_EC8: unknown
MORPHOLOGIC_CLASSIFICATION: 
EPICENTRAL_DISTANCE_KM: 449.08
EARTHQUAKE_BACKAZIMUTH_DEGREE: 
DATE_TIME_FIRST_SAMPLE_YYYYMMDD_HHMMSS: 2023/02/06 01:18:09.0272780
DATE_TIME_FIRST_SAMPLE_PRECISION: millisecond
SAMPLING_INTERVAL_S: 0.01
NDATA: 21001
DURATION_S: 
STREAM: HNE
UNITS: cm/s^2
INSTRUMENT: sensor = CMG-5T/GURALP | digitizer = 
INSTRUMENT_ANALOG/DIGITAL: 
INSTRUMENTAL_FREQUENCY_HZ: 
INSTRUMENTAL_DAMPING: 
FULL_SCALE_G: 
N_BIT_DIGITAL_CONVERTER: 
PGA_CM/S^2: 5.896
TIME_PGA_S: 
BASELINE_CORRECTION: BASELINE REMOVED
FILTER_TYPE: BUTTERWORTH
FILTER_ORDER: 
LOW_CUT_FREQUENCY_HZ: 
HIGH_CUT_FREQUENCY_HZ: 
LATE/NORMAL_TRIGGERED: 
DATABASE_VERSION: 
HEADER_FORMAT: DYNA 1.2
DATA_TYPE: Acceleration
PROCESSING: Automatic Paolucci et al., 2011
DATA_TIMESTAMP_YYYYMMDD_HHMMSS: 
DATA_LICENSE: U (unknown license)
DATA_CITATION: Turkish Accelerometric Archive v 1.0 - Disaster And Emergency Management Presidency, Earthquake Department
DATA_CREATOR: AFAD
ORIGINAL_DATA_MEDIATOR_CITATION: : AFAD - Disaster And Emergency Management Presidency
ORIGINAL_DATA_MEDIATOR: AFAD PROCESS SERVICE
ORIGINAL_DATA_CREATOR_CITATION: AFAD PROCESS SERVICE
ORIGINAL_DATA_CREATOR: network: TK
USER1: GuestUser
USER2: 
USER3: 
USER4: 
USER5: 
[...]
0.885493
0.846836
0.921010
0.840867
0.944897
0.843383
0.947728
0.823270
0.915043
0.789957
0.841187
0.729301
0.738730
0.656387
0.606416
0.545131
0.452102
0.424131
0.270758
0.276102
0.099158
0.133102
-0.052328
-0.002040
-0.154156
-0.092554
-0.209783
-0.155410
-0.223610
-0.198781
-0.219523
-0.232722
-0.211978
-0.265721
-0.198148
-0.280176
-0.178660
-0.275146
-0.138115
-0.224858
-0.086884
-0.144084
0.002690
-0.018681
0.098865
0.136266
0.240925
0.340870
0.411900
0.577846
0.634419
0.849394
0.884909
1.134770
1.169972
1.421090
1.444977
1.688238
1.727839
1.916414
1.967644
2.119761
2.209020
2.292621
2.402309
2.435625
2.572970
2.541856
2.670716
2.590573
2.714718
2.595289
2.673234
2.538090
2.587434
2.465177
2.473035
2.375920
2.345121
2.299864
2.229464
2.217208
2.102493
2.137065
2.011979
2.074524
1.935923
2.027068
1.891610
1.975211
1.863954
1.932470
1.866470
1.903557
1.874015
1.876844
1.901988
1.859560
1.923990
1.854219
1.946621
1.836620
1.941594
1.839765
1.941910
1.836938
1.927454
1.853911
1.916141
1.863342
1.898857
1.900115
1.889745
1.924317
1.876546
1.948205
1.852662
1.941921
1.820606
1.918665
1.781007
1.856752
1.730094
1.787610
1.689867
1.711868
1.656554
1.640526
1.634870
1.571070
1.601871
1.506956
1.566358
1.444729
1.514502
1.374015
1.453217
1.323731
1.386904
1.267475
1.307076
1.214676
1.203676
1.139562
1.076077
1.043706
0.940934
0.939678
0.796362
0.819935
0.644877
0.684792
0.497791
0.541478
0.380877
0.415450
0.282192
0.286278
0.199850
0.175336
0.135422
0.062193
0.066280
-0.040892
0.000281
-0.127005
-0.054404
-0.189547
-0.102174
-0.226317
-0.139573
-0.240773
-0.175400
-0.239828
-0.203370
-0.227884
-0.233540
-0.224111
-0.268110
-0.222852
-0.319023
-0.242022
-0.357994
-0.273449
-0.407335
-0.320276
-0.442534
-0.360818
-0.465475
-0.408588
-0.472702
-0.467987
-0.484644
-0.521100
-0.498156
-0.581757
-0.518583
-0.627641
-0.539639
-0.665040
-0.565095
-0.676667
-0.574836
-0.670694
-0.587720
-0.656235
-0.613490
-0.639575
-0.628260
-0.616945
-0.665659
-0.607829
-0.682629
-0.597770
-0.700227
-0.580168
-0.680111
-0.564452
-0.663452
-0.539935
-0.594621
-0.503790
-0.525161
-0.468274
-0.440616
-0.428357
-0.362984
-0.390012
-0.288810
-0.357953
-0.238837
-0.322751
-0.192320
-0.289435
-0.169375
-0.245118
-0.146430
-0.195773
-0.126943
-0.138256
-0.119712
-0.101797
-0.122539
-0.061252
-0.137938
-0.045221
-0.141707
-0.037677
-0.158992
-0.057475
-0.178790
-0.103360
-0.217446
-0.179416
-0.269302
-0.284387
-0.338130
-0.396272
-0.405072
-0.507215
-0.466985
-0.592700
-0.523870
-0.665928
-0.575097
-0.697983
-0.602753
-0.697353
-0.595208
-0.647065
-0.571320
-0.564091
-0.512547
-0.444659
-0.426429
-0.306999
-0.305741
-0.140109
-0.167766
0.022380
-0.001819
0.200584
0.173556
0.354902
0.351446
0.507020
0.534992
0.637766
0.704082
0.758455
0.862171
0.854629
0.972489
0.926603
1.066777
0.991977
1.125551
1.039436
1.168296
1.095696
1.201298
1.150070
1.228643
1.230844
1.281445
1.335190
1.358448
1.467507
1.460594
1.609568
1.577826
1.739371
1.682800
1.847489
1.778660
1.917577
1.855977
1.945865
1.897779
1.932038
1.894638
1.861324
1.860696
1.780868
1.806955
1.672440
1.723984
1.570926
1.643842
1.484498
1.553014
1.420699
1.476329
1.357528
1.383301
1.319187
1.304416
1.280217
1.218303
1.234961
1.134075
1.179333
1.052990
1.124649
0.981019
1.051421
0.897420
0.955879
0.815078
0.842736
0.732421
0.718908
0.633422
0.568050
0.531908
0.428508
0.426623
0.280479
0.322595
0.162936
0.219824
0.050423
0.114538
-0.028148
0.031568
-0.078118
-0.055174
-0.135632
-0.153545
-0.192516
-0.252859
-0.252230
-0.360344
-0.319172
-0.457458
-0.396485
-0.549543
-0.471913
-0.625285
-0.562112
-0.693170
-0.657969
-0.765769
-0.765140
-0.823282
-0.867596
-0.897139
-0.987968
-0.965966
-1.097967
-1.053966
-1.206710
-1.138194
-1.307909
-1.251336
-1.413823
-1.376107
-1.520051
-1.526964
-1.635079
-1.683793
-1.755765
-1.857908
-1.879907
-2.010022
-1.984564
-2.136051
-2.076649
-2.231593
-2.153963
-2.285649
-2.181618
-2.278733
-2.192302
-2.225616
-2.144843
-2.109956
-2.045526
-1.938352
-1.896237
-1.718348
-1.684089
-1.461886
-1.445856
-1.203853
-1.179337
-0.939533
-0.916904
-0.707586
-0.660442
-0.492610
-0.433837
-0.325721
-0.229233
-0.166689
-0.037200
-0.027457
0.128746
0.115861
0.294378
0.267665
0.459382
0.424811
0.598928
0.582586
0.737217
0.741618
0.838420
0.878336
0.926737
1.001853
1.004054
1.117514
1.086714
1.230031
1.171260
1.337206
1.269948
1.417980
1.342551
1.459782
1.397553
1.456012
1.409498
1.398499
1.362356
1.278756
1.268386
1.132299
1.134500
0.957242
0.982386
0.796013
0.823357
0.633841
0.665271
0.505298
0.510957
0.379584
0.361985
0.285299
0.229985
0.214272
0.136329
0.174359
0.066558
0.143560
0.014702
0.101133
-0.029925
0.061219
-0.062610
0.002135
-0.105980
-0.075493
-0.148722
-0.165692
-0.208435
-0.277578
-0.274120
-0.384749
-0.354576
-0.496005
-0.440061
-0.592805
-0.532775
-0.700604
-0.651574
-0.796775
-0.780117
-0.905203
-0.922803
-0.996031
-1.041603
-1.066116
-1.136831
-1.099429
-1.189944
-1.103828
-1.205028
-1.089054
-1.193397
-1.071767
-1.158195
-1.047250
-1.103507
-1.013305
-1.033419
-0.980932
-0.952959
-0.929387
-0.847356
-0.861813
-0.733267
-0.776010
-0.627350
-0.681407
-0.523633
-0.587747
-0.440344
-0.490944
-0.375599
-0.418970
-0.357683
-0.378111
-0.360824
-0.351080
-0.407337
-0.375907
-0.464850
-0.402934
-0.544050
-0.477419
-0.625763
-0.558190
-0.712191
-0.665990
-0.802076
-0.783218
-0.889447
-0.912389
-0.982475
-1.058532
-1.080846
-1.197446
-1.185188
-1.333846
-1.294873
-1.452332
-1.397016
-1.571131
-1.528701
-1.687417
-1.661330
-1.799616
-1.814387
-1.916844
-1.987559
-2.055130
-2.166388
-2.196244
-2.358103
-2.354330
-2.524989
-2.496702
-2.689989
-2.652902
-2.825132
-2.795902
-2.950217
-2.935130
-3.035388
-3.047016
-3.095101
-3.122443
-3.102957
-3.154499
-3.081583
-3.142869
-3.014324
-3.088181
-2.929464
-2.996406
-2.832661
-2.882318
-2.732715
-2.739000
-2.613598
-2.580282
-2.492909
-2.403650
-2.361534
-2.248389
-2.250274
-2.103500
-2.152214
-2.001040
-2.077725
-1.938809
-2.025552
-1.898892
-1.966778
-1.877519
-1.921518
-1.873117
-1.875316
-1.872172
-1.840114
-1.871542
-1.782597
-1.851740
-1.740795
-1.826595
-1.702764
-1.803965
-1.673219
-1.753677
-1.650589
-1.719732
-1.648701
-1.670072
-1.646500
-1.637699
-1.656555
-1.585839
-1.631096
-1.537123
-1.607523
-1.468920
-1.539949
-1.395375
-1.451003
-1.294172
-1.329057
-1.188254
-1.185111
-1.075423
-1.024821
-0.957877
-0.856360
-0.818959
-0.674699
-0.661184
-0.475124
-0.478580
-0.266434
-0.272090
-0.053344
-0.050514
0.153146
0.185205
0.361836
0.428152
0.559840
0.668585
0.754701
0.893932
0.931019
1.106080
1.096023
1.277055
1.236512
1.403401
1.332372
1.476946
1.424775
1.526920
1.482920
1.542951
1.532894
1.556467
1.583811
1.558354
1.626556
1.567156
1.672130
1.590729
1.703875
1.606131
1.727448
1.624676
1.721478
1.635364
1.713623
1.667737
1.696339
1.688482
1.687540
1.732799
1.684713
1.758572
1.678429
1.779317
1.670888
1.781204
1.669318
1.759206
1.649205
1.722121
1.625321
1.652665
1.583208
1.558694
1.521295
1.430780
1.407209
1.263894
1.258866
1.066208
1.066523
0.837407
0.824208
0.565234
0.519663
0.277032
0.189032
-0.030341
-0.161085
-0.349029
-0.536345
-0.684689
-0.907205
-1.012491
-1.269893
-1.347522
-1.619067
-1.677524
-1.957241
-2.001240
-2.254242
-2.308299
-2.526101
-2.597444
-2.768102
-2.879989
-3.003189
-3.143676
-3.217847
-3.417420
-3.455134
-3.674821
-3.694935
-3.941337
-3.954851
-4.182081
-4.205338
-4.425025
-4.463996
-4.623340
-4.675197
-4.786455
-4.863141
-4.904312
-5.007398
-5.003625
-5.129655
-5.069624
-5.208854
-5.123680
-5.254424
-5.153851
-5.263222
-5.159192
-5.219534
-5.134361
-5.149132
-5.090359
-5.052015
-5.032214
-4.947040
-4.962125
-4.841752
-4.886694
-4.731749
-4.781720
-4.604460
-4.663545
-4.490999
-4.516770
-4.357425
-4.357738
-4.243022
-4.188649
-4.112590
-4.015473
-3.983101
-3.843555
-3.857069
-3.698352
-3.730409
-3.546548
-3.599662
-3.422402
-3.462630
-3.321514
-3.353885
-3.240111
-3.236024
-3.168451
-3.145821
-3.134506
-3.066619
-3.101818
-3.011302
-3.091131
-2.968871
-3.066300
-2.946241
-3.051527
-2.941839
-3.039896
-2.959752
-3.028895
-2.991179
-3.028893
-3.026692
-3.014434
-3.049948
-2.997146
-3.057175
-2.947801
-3.031087
-2.901913
-2.985827
-2.840311
-2.908825
-2.765822
-2.801336
-2.672477
-2.659590
-2.554302
-2.494586
-2.432356
-2.320782
-2.294695
-2.148236
-2.164892
-2.001775
-2.045460
-1.876057
-1.938915
-1.784598
-1.836140
-1.706966
-1.736509
-1.638449
-1.638763
-1.586276
-1.547932
-1.546359
-1.467786
-1.501728
-1.387326
-1.453326
-1.316295
-1.399895
-1.254693
-1.337350
-1.205033
-1.275119
-1.171717
-1.203145
-1.144057
-1.131799
-1.113570
-1.057625
-1.073967
-0.973708
-1.012365
-0.879105
-0.941962
-0.780731
-0.841388
-0.683614
-0.740185
-0.596240
-0.626096
-0.527409
-0.538722
-0.486549
-0.458262
-0.462033
-0.402631
-0.457317
-0.368058
-0.458258
-0.349513
-0.463285
-0.364283
-0.474283
-0.373081
-0.480882
-0.415509
-0.489680
-0.459193
-0.512307
-0.541535
-0.547506
-0.611934
-0.578933
-0.687676
-0.616018
-0.737647
-0.651531
-0.788560
-0.696158
-0.819673
-0.753043
-0.860843
-0.813384
-0.887870
-0.882212
-0.907983
-0.942554
-0.922439
-1.004782
-0.944123
-1.055380
-0.971464
-1.101265
-1.003520
-1.122006
-1.030233
-1.143376
-1.069203
-1.141175
-1.099059
-1.131116
-1.122000
-1.121057
-1.169456
-1.122626
-1.203398
-1.127653
-1.248968
-1.153738
-1.279767
-1.180765
-1.298622
-1.207478
-1.301449
-1.235448
-1.287933
-1.251789
-1.257760
-1.255244
-1.196157
-1.217528
-1.118212
-1.168183
-1.017323
-1.067609
-0.901977
-0.951634
-0.780660
-0.811459
-0.655256
-0.661856
-0.541482
-0.505966
-0.411679
-0.327448
-0.275275
-0.157730
-0.152386
-0.005612
-0.036412
0.127962
0.077677
0.236080
0.166308
0.305225
0.248025
0.361799
0.312456
0.366201
0.356773
0.360860
0.383804
0.326604
0.391034
0.302719
0.382236
0.265949
0.371866
0.247408
0.347039
0.247724
0.346097
0.269412
0.324727
0.287642
0.318129
0.312787
0.279159
0.308703
0.227617
0.278847
0.149047
0.211277
0.060733
0.127049
-0.032295
0.020506
-0.130666
-0.110551
-0.240980
-0.265179
-0.362608
-0.433008
-0.484551
-0.598323
-0.610579
-0.747294
-0.710521
-0.867980
-0.806692
-0.945922
-0.852263
-0.966663
-0.865461
-0.928947
-0.828687
-0.837487
-0.758599
-0.695112
-0.640739
-0.527279
-0.502135
-0.337447
-0.330532
-0.155157
-0.186900
0.002304
-0.027867
0.143421
0.114822
0.273224
0.259082
0.367827
0.382286
0.439173
0.494174
0.499832
0.586891
0.540692
0.651637
0.562694
0.673324
0.555152
0.649754
0.522782
0.594441
0.471241
0.505499
0.405556
0.394871
0.328242
0.271985
0.271672
0.182100
0.226102
0.118616
0.206303
0.090017
0.207876
0.110448
0.247164
0.174250
0.302795
0.277967
0.382941
0.404628
0.476286
0.559260
0.601690
0.739035
0.748150
0.925096
0.918811
1.126872
1.120901
1.342476
1.341534
1.560909
1.596739
1.797885
1.870487
2.027947
2.148320
2.268380
2.427725
2.499070
2.701473
2.749875
2.978993
2.987794
3.209997
3.206855
3.414601
3.408631
3.584948
3.584949
3.712865
3.738952
3.805897
3.861527
3.872842
3.954873
3.908044
4.011132
3.911818
4.013648
3.886362
3.975935
3.836077
3.895165
3.770707
3.801194
3.693079
3.687423
3.623623
3.568623
3.547566
3.446995
3.454853
3.311538
3.349882
3.187395
3.231396
3.035281
3.062939
2.871223
2.870281
2.684223
2.632680
2.482136
2.375907
2.251449
2.087391
1.993420
1.782532
1.719989
1.482702
1.441531
1.198271
1.184129
0.950613
0.937728
0.745384
0.740356
0.600498
0.560898
0.462212
0.403127
0.368870
0.277098
0.288099
0.164899
0.215815
0.068414
0.136301
-0.014871
0.056788
-0.094699
-0.049126
-0.178613
-0.167612
-0.274155
-0.300554
-0.351783
-0.423754
-0.436954
-0.529039
-0.483152
-0.604782
-0.527151
-0.650980
-0.566121
-0.700322
-0.627720
-0.768521
-0.729863
-0.854006
-0.863748
-0.960549
-1.018691
-1.078405
-1.187149
-1.205377
-1.350578
-1.332662
-1.505835
-1.475976
-1.662978
-1.628405
-1.817607
-1.798434
-1.975692
-1.994235
-2.142893
-2.209207
-2.322350
-2.437379
-2.513122
-2.675609
-2.708609
-2.897810
-2.898123
-3.106497
-3.082295
-3.280611
-3.247924
-3.418897
-3.392181
-3.516639
-3.504381
-3.587038
-3.615952
-3.635437
-3.692008
-3.664036
-3.752665
-3.679749
-3.774035
-3.658061
-3.755490
-3.618773
-3.700487
-3.553713
-3.598342
-3.468225
-3.459738
-3.346907
-3.281849
-3.181275
-3.051158
-2.981071
-2.789668
-2.738752
-2.492348
-2.452118
-2.187486
-2.144741
-1.869109
-1.811279
-1.554818
-1.471844
-1.243041
-1.124553
-0.946978
-0.795176
-0.665059
-0.472398
-0.390368
-0.168479
-0.123535
0.120984
0.150213
0.403217
0.431190
0.677594
0.729767
0.971456
1.062915
1.271604
1.409578
1.588410
1.772270
1.902387
2.137476
2.227364
2.490739
2.564284
2.842117
2.883918
3.155779
3.202923
3.446184
3.489557
3.687560
3.764876
3.920136
4.027624
4.126312
4.279058
4.338459
4.516976
4.535835
4.752695
4.744210
4.964528
4.944100
5.154989
5.148076
5.311507
5.318737
5.442568
5.473997
5.537799
5.594686
5.607573
5.698718
5.662890
5.787349
5.721035
5.856495
5.758751
5.892640
5.792382
5.896413
5.800870
5.863414
5.796471
5.810301
5.777301
5.745559
5.738017
5.648760
5.677046
5.540331
5.572704
5.391674
5.428447
5.226674
5.235161
5.017987
4.991274
4.787615
4.701186
4.510099
4.373384
4.220954
4.027982
3.907610
3.664979
3.572264
3.301348
3.229062
2.946202
2.875174
2.587600
2.520343
2.249426
2.160797
1.927910
1.811623
1.630593
1.472821
1.343335
1.151619
1.075247
0.859331
0.829789
0.604759
0.603502
0.376586
0.386959
0.177643
0.181101
0.013899
0.004157
-0.120300
-0.172157
-0.231871
-0.303529
-0.313271
-0.424214
-0.386498
-0.515985
-0.448412
-0.599584
-0.520068
-0.670926
-0.600524
-0.744468
-0.711781
-0.827125
-0.831838
-0.913238
-0.965724
-1.011923
-1.111238
-1.126323
-1.259581
-1.239151
-1.412952
-1.373980
-1.552495
-1.511322
-1.688581
-1.658408
-1.816495
-1.803294
-1.913294
-1.916122
-1.976465
-2.015436
-1.995949
-2.055349
-1.986519
-2.059747
-1.935288
-2.006002
-1.861428
-1.936542
-1.773740
-1.820882
-1.676622
-1.695165
-1.577934
-1.558761
-1.480188
-1.419844
-1.383385
-1.292555
-1.314240
-1.190094
-1.240694
-1.101777
-1.188835
-1.050546
-1.129747
-1.005601
-1.086687
-0.985799
-1.028228
-0.965055
-0.966311
-0.926710
-0.865108
-0.855364
-0.741590
-0.745047
-0.581615
-0.606129
-0.409069
-0.425411
-0.209179
-0.213264
-0.001746
0.030312
0.218573
0.287403
0.449891
0.563351
0.670524
0.836470
0.907815
1.111789
1.141648
1.363851
1.366995
1.598313
1.598628
1.823346
1.841261
2.040836
2.080437
2.252354
2.338785
2.455701
2.582990
2.670363
2.846052
2.891310
3.100313
3.125772
3.355204
3.347348
3.563265
3.553209
3.747126
3.743670
3.898930
3.921245
4.032190
4.092221
4.157594
4.266024
4.287711
4.436371
4.426629
4.595089
4.548261
4.714835
4.644435
4.794666
4.708866
4.806611
4.732439
4.783669
4.726155
4.709499
4.679014
4.602014
4.602957
4.479128
4.504901
4.338642
4.384530
4.213557
4.269816
4.097900
4.148502
4.016815
4.048245
3.948302
3.960246
3.924732
3.903361
3.898333
3.832333
3.893306
3.796506
3.879479
3.759107
3.863138
3.742452
3.837997
3.726425
3.815684
3.735541
3.786771
3.741514
3.758801
3.745601
3.708516
3.736803
3.661374
3.709776
3.579347
3.651634
3.501719
3.568663
3.401777
3.449235
3.294920
3.307178
3.171720
3.143435
3.043492
2.969634
2.919035
2.805577
2.790806
2.644348
2.669178
2.501663
2.547235
2.368720
2.419950
2.244892
2.277579
2.127978
2.137093
2.021121
1.978064
1.904521
1.814635
1.785093
1.645235
1.659693
1.489978
1.520150
1.339749
1.393179
1.222206
1.266208
1.118493
1.163751
1.058151
1.072923
1.016666
1.003781
0.996239
0.928982
0.967326
0.876498
0.945642
0.816470
0.908243
0.776243
0.868330
0.739472
0.817731
0.711502
0.750789
0.660275
0.659647
0.613762
0.554991
0.525134
0.411991
0.423306
0.265219
0.296020
0.123791
0.168106
-0.015752
0.016306
-0.154981
-0.141151
-0.300181
-0.326895
-0.451038
-0.523009
-0.610381
-0.727924
-0.771924
-0.942897
-0.957982
-1.155669
-1.152211
-1.370327
-1.360269
-1.571471
-1.557641
-1.739299
-1.754699
-1.898957
-1.941699
-2.040385
-2.129328
-2.174585
-2.291814
-2.285842
-2.431986
-2.401499
-2.571529
-2.517156
-2.690643
-2.646641
-2.822014
-2.791213
-2.926042
-2.934213
-3.024413
-3.060555
-3.105183
-3.180926
-3.171811
-3.271126
-3.223981
-3.348754
-3.261694
-3.386781
-3.278979
-3.388036
-3.282434
-3.350948
-3.238746
-3.261688
-3.174629
-3.121828
-3.047026
-2.931367
-2.876680
-2.686534
-2.637818
-2.396757
-2.346155
-2.059523
-1.992264
-1.695574
-1.593429
-1.290138
-1.149022
-0.869932
-0.677900
-0.431810
-0.195464
0.001911
0.273143
0.421803
0.720379
0.832896
1.133672
1.227016
1.540678
1.630252
1.931970
2.030658
2.299691
2.422264
2.635982
2.781813
2.942102
3.119362
3.200450
3.388396
3.427054
3.636372
3.622544
3.828090
3.800119
3.992779
3.961037
4.127297
4.115355
4.239500
4.244530
4.309274
4.345418
4.346362
4.407964
4.348564
4.423365
4.308336
4.384710
4.225366
4.297653
4.113166
4.158110
3.982738
3.974253
3.811137
3.736652
3.587993
3.455678
3.324306
3.115305
3.004676
2.750731
2.676559
2.402814
2.345300
2.060554
2.012469
1.744695
1.677438
1.427893
1.341779
1.138434
1.009262
0.840804
0.677688
0.563602
0.361515
0.286086
0.053199
0.012027
-0.237832
-0.253860
-0.499319
-0.516918
-0.749177
-0.780920
-0.983321
-1.053407
-1.230351
-1.350409
-1.473609
-1.636096
-1.718439
-1.932784
-1.968926
-2.185785
-2.182641
-2.402643
-2.371528
-2.548786
-2.513270
-2.666643
-2.628927
-2.724785
-2.708126
-2.745526
-2.757783
-2.715667
-2.753066
-2.652493
-2.690521
-2.538090
-2.586175
-2.395715
-2.433429
-2.233540
-2.238568
-2.044650
-2.022335
-1.856703
-1.788187
-1.661842
-1.553097
-1.468238
-1.307321
-1.258605
-1.067831
-1.056201
-0.840283
-0.846254
-0.635679
-0.652021
-0.450875
-0.445846
-0.282100
-0.258213
-0.124325
-0.071209
0.003592
0.092223
0.114538
0.224855
0.186827
0.304686
0.223600
0.345545
0.232402
0.324175
0.209146
0.278291
0.159176
0.190606
0.099777
0.085006
0.028121
-0.030022
-0.051707
-0.161393
-0.151964
-0.304707
-0.272963
-0.457450
-0.431678
-0.643508
-0.631250
-0.835537
-0.855022
-1.036681
-1.091995
-1.232481
-1.328653
-1.414139
-1.542368
-1.565311
-1.710197
-1.688196
-1.843140
-1.781538
-1.927368
-1.845337
-1.980481
-1.901908
-2.009708
-1.955964
-2.028564
-2.013791
-2.046477
-2.087648
-2.102418
-2.193247
-2.162760
-2.299475
-2.263645
-2.425504
-2.366102
-2.545875
-2.497788
-2.659017
-2.625702
-2.759902
-2.752673
-2.832502
-2.866130
-2.909501
-2.993101
-2.989643
-3.111272
-3.075757
-3.223472
-3.163756
-3.334100
-3.270927
-3.433728
-3.392869
-3.546870
-3.537441
-3.652156
-3.679812
-3.755241
-3.812126
-3.830983
-3.930926
-3.896353
-4.016725
-3.946009
