EVENT_NAME: 202302060117
EVENT_ID: 13194
EVENT_DATE_YYYYMMDD: 2023/02/06
EVENT_TIME_HHMMSS: 01:17:32.00000
EVENT_LATITUDE_DEGREE: 37.288
EVENT_LONGITUDE_DEGREE: 37.043
EVENT_DEPTH_KM: 8.6
HYPOCENTER_REFERENCE: AFAD
MAGNITUDE_W: 7.7
MAGNITUDE_W_REFERENCE: AFAD
MAGNITUDE_L: 
MAGNITUDE_L_REFERENCE: 
FOCAL_MECHANISM: 
NETWORK: TK
STATION_CODE: 0124
STATION_NAME: 
STATION_LATITUDE_DEGREE: 37.4087
STATION_LONGITUDE_DEGREE: 34.87911
STATION_ELEVATION_M: 791.0
LOCATION: Kahramanmaras_Pazarck_Turkiye
SENSOR_DEPTH_M: 
VS30_M/S: 583
SITE_CLASSIFICATION_EC8: B
MORPHOLOGIC_CLASSIFICATION: 
EPICENTRAL_DISTANCE_KM: 191.74
EARTHQUAKE_BACKAZIMUTH_DEGREE: 
DATE_TIME_FIRST_SAMPLE_YYYYMMDD_HHMMSS: 2023/02/06 01:17:45.0691670
DATE_TIME_FIRST_SAMPLE_PRECISION: millisecond
SAMPLING_INTERVAL_S: 0.01
NDATA: 13501
DURATION_S: 
STREAM: HNN
UNITS: cm/s^2
INSTRUMENT: sensor = CMG-5T/GURALP | digitizer = 
INSTRUMENT_ANALOG/DIGITAL: 
INSTRUMENTAL_FREQUENCY_HZ: 
INSTRUMENTAL_DAMPING: 
FULL_SCALE_G: 
N_BIT_DIGITAL_CONVERTER: 
PGA_CM/S^2: 8.572
TIME_PGA_S: 
BASELINE_CORRECTION: BASELINE REMOVED
FILTER_TYPE: BUTTERWORTH
FILTER_ORDER: 
LOW_CUT_FREQUENCY_HZ: 
HIGH_CUT_FREQUENCY_HZ: 
LATE/NORMAL_TRIGGERED: 
DATABASE_VERSION: 
HEADER_FORMAT: DYNA 1.2
DATA_TYPE: Acceleration
PROCESSING: Automatic Paolucci et al., 2011
DATA_TIMESTAMP_YYYYMMDD_HHMMSS: 
DATA_LICENSE: U (unknown license)
DATA_CITATION: Turkish Accelerometric Archive v 1.0 - Disaster And Emergency Management Presidency, Earthquake Department
DATA_CREATOR: AFAD
ORIGINAL_DATA_MEDIATOR_CITATION: : AFAD - Disaster And Emergency Management Presidency
ORIGINAL_DATA_MEDIATOR: AFAD PROCESS SERVICE
ORIGINAL_DATA_CREATOR_CITATION: AFAD PROCESS SERVICE
ORIGINAL_DATA_CREATOR: network: TK
USER1: GuestUser
USER2: 
USER3: 
USER4: 
USER5: 
[...]
0.369408
-0.112834
-0.718555
-1.351306
-1.842149
-2.078662
-1.971461
-1.550342
-1.118473
-1.134751
-1.825863
-2.842565
-3.542585
-3.585893
-3.178904
-2.727990
-2.513591
-2.500074
-2.397482
-2.034416
-1.450502
-0.930477
-0.898838
-1.479679
-2.458293
-3.523527
-4.419515
-5.082982
-5.525293
-5.693924
-5.490889
-4.855679
-3.913922
-2.849914
-1.684237
-0.519481
0.321835
0.626847
0.521184
0.308937
0.154436
0.001778
-0.116171
-0.096512
0.089629
0.380819
0.722383
1.034460
1.246709
1.443908
1.731105
2.110757
2.444949
2.532184
2.222874
1.491831
0.625331
0.025139
-0.148713
-0.067929
-0.040591
0.054323
0.445955
1.123553
1.757535
1.903437
1.590748
1.134001
0.889502
1.075949
1.513655
1.725904
1.327825
0.340610
-0.749197
-1.396692
-1.421878
-1.083692
-0.869293
-1.074168
-1.504193
-1.738556
-1.529071
-0.949150
-0.352335
-0.045172
-0.030428
-0.159127
-0.414684
-0.919042
-1.813187
-2.931560
-3.899730
-4.365079
-4.344191
-4.130405
-3.878225
-3.527139
-2.950903
-2.171942
-1.377315
-0.705859
-0.146518
0.403916
1.119295
1.915765
2.535003
2.689199
2.182691
1.143566
-0.047911
-0.847450
-0.905810
-0.429095
0.181235
0.540615
0.328368
-0.352608
-0.948499
-1.052933
-0.731641
-0.338781
-0.060185
0.246977
0.710484
1.343237
2.019607
2.382058
2.136023
1.335562
0.308724
-0.519382
-0.898725
-0.844663
-0.508321
-0.055871
0.403028
0.831826
1.158033
1.321443
1.262469
0.901863
0.216588
-0.636398
-1.249490
-1.339795
-0.945092
-0.360563
0.047041
-0.005175
-0.619497
-1.544051
-2.418845
-2.982177
-3.211626
-3.258620
-3.128690
-2.684227
-2.048402
-1.463566
-1.035075
-0.645287
-0.085024
0.581210
1.065911
1.142395
0.632816
-0.380815
-1.493966
-2.274769
-2.549062
-2.493772
-2.192446
-1.594710
-0.811140
-0.063816
0.374504
0.325052
-0.012210
-0.280975
-0.231828
0.116186
0.589215
1.029071
1.322411
1.425311
1.409340
1.335008
1.266819
1.206617
1.035222
0.665094
0.100532
-0.554027
-1.094015
-1.418376
-1.535097
-1.541546
-1.492706
-1.362469
-1.153291
-0.866402
-0.555554
-0.201089
0.273169
0.759406
0.919131
0.629479
0.267337
0.300819
0.929886
2.016930
3.153428
3.811675
3.790789
3.367215
2.958385
2.570748
1.996051
1.247807
0.510314
0.013021
-0.141172
0.050190
0.451343
0.844204
1.263787
1.785655
2.229503
2.318274
1.940160
1.244134
0.482375
-0.019525
-0.052698
0.419410
1.237996
2.053817
2.534218
2.455278
1.725157
0.567161
-0.630767
-1.683407
-2.538850
-3.124912
-3.337467
-3.188493
-2.741265
-2.056294
-1.212215
-0.545060
-0.396085
-0.839932
-1.696604
-2.699484
-3.592707
-4.075871
-3.927511
-3.222882
-2.236280
-1.184866
-0.264917
0.414217
0.787419
0.840866
0.614489
0.245590
-0.071707
-0.106415
0.257265
1.023326
2.021294
2.844487
3.102810
2.762477
2.028055
1.108109
0.090792
-0.903795
-1.591528
-1.778895
-1.493541
-0.913620
-0.217899
0.550927
1.334496
1.938068
2.112537
1.733194
0.931812
0.103706
-0.320790
-0.054787
0.787450
1.873880
2.932051
3.844628
4.558472
4.790379
4.252848
3.050006
1.626315
0.458182
-0.196377
-0.364393
-0.316168
-0.339818
-0.359783
-0.040641
0.662452
1.366159
1.663799
1.360939
0.635733
-0.012069
-0.146912
0.269600
0.907882
1.422378
1.721861
1.787287
1.633708
1.274023
0.632057
-0.242122
-1.154697
-1.831986
-1.995395
-1.555539
-0.698559
0.336883
1.250688
1.672421
1.525292
0.945066
0.257640
-0.367432
-0.951651
-1.489182
-1.896170
-2.031320
-1.739515
-1.045637
-0.087908
0.988693
1.883147
2.342047
2.295974
1.830626
1.214769
0.775837
0.575261
0.488950
0.507688
0.657276
0.885191
1.128157
1.452520
1.896983
2.300594
2.409023
2.215205
1.866885
1.324133
0.494184
-0.619274
-1.679593
-2.177500
-1.768054
-0.642614
0.460096
0.972441
0.884287
0.464092
0.070005
0.002738
0.295770
0.697538
1.046474
1.362544
1.774448
2.254235
2.601635
2.615152
2.248402
1.643603
0.899660
0.079540
-0.686519
-1.240329
-1.452576
-1.226505
-0.644740
-0.043625
0.172617
-0.144986
-0.822583
-1.446733
-1.713041
-1.602155
-1.298064
-1.020696
-0.708620
-0.188595
0.456137
0.973091
1.077834
0.728593
0.208263
-0.205175
-0.480698
-0.812431
-1.396958
-2.150423
-2.772116
-2.789316
-2.046906
-0.897815
0.074658
0.418372
0.289673
0.121349
0.157288
0.419605
0.771920
1.074782
1.235121
1.185976
0.880966
0.274631
-0.504636
-1.203734
-1.692733
-2.022316
-2.337155
-2.710969
-2.886357
-2.505476
-1.482936
-0.042349
1.416975
2.453645
2.585111
1.695880
0.343451
-0.651443
-0.748198
0.094653
1.361694
2.368262
2.645937
2.187961
1.324224
0.441751
-0.198371
-0.570650
-0.801941
-1.054426
-1.362815
-1.687791
-1.829084
-1.597790
-1.204009
-0.972101
-1.077763
-1.444820
-1.931977
-2.466743
-2.763767
-2.497150
-1.643548
-0.500600
0.546820
1.184181
1.235170
0.823575
0.330890
0.100827
0.177619
0.387411
0.549286
0.507820
0.313081
0.063053
-0.135372
-0.270829
-0.499049
-0.875935
-1.220261
-1.271864
-0.939514
-0.404438
0.247973
1.158400
2.306876
3.360133
3.679582
2.874513
1.194650
-0.682411
-2.076922
-2.567150
-2.124529
-1.025199
0.348427
1.640041
2.611285
3.049605
2.936878
2.546477
2.038741
1.388175
0.506009
-0.568133
-1.538146
-2.084278
-2.033903
-1.484390
-0.779454
-0.211205
0.021624
-0.146392
-0.505770
-0.723239
-0.529726
0.095041
0.991031
1.817910
2.241179
2.096814
1.367307
0.282722
-0.698349
-1.238030
-1.239258
-0.740734
0.118396
1.057389
1.770311
2.084231
2.142592
2.192661
2.235664
2.126316
1.730693
1.058012
0.353999
-0.026880
0.179534
0.980304
1.996087
2.745254
3.061324
3.038595
2.834027
2.467277
1.904559
1.317268
0.784959
0.376128
0.139615
-0.053588
-0.354605
-0.715518
-0.845447
-0.606474
-0.274739
-0.167539
-0.501729
-1.224171
-2.107566
-2.831543
-2.971301
-2.337626
-1.030347
0.480272
1.547658
1.763594
1.125314
-0.028075
-1.155970
-1.914964
-2.251305
-2.381540
-2.479523
-2.468157
-2.213827
-1.611176
-0.767710
0.092957
0.830144
1.373821
1.698491
1.747331
1.328057
0.509473
-0.387436
-0.996843
-1.159023
-1.060730
-0.920664
-0.898854
-0.947385
-1.026939
-1.149802
-1.264065
-1.274815
-1.066865
-0.712400
-0.392645
-0.162273
0.014039
0.150112
0.234890
0.392157
0.631130
0.882081
1.092181
1.283850
1.583641
2.004760
2.392705
2.626763
2.622157
2.266772
1.638014
1.044273
0.833254
1.055947
1.488738
1.919072
2.122106
1.920303
1.374785
0.887322
0.953977
1.678571
2.778209
3.883990
4.657116
4.874894
4.619030
4.148153
3.672668
3.281653
2.887567
2.314405
1.587355
0.892865
0.393729
0.142165
0.125887
0.216807
0.225102
0.000875
-0.458637
-0.970673
-1.407456
-1.762840
-1.890925
-1.635366
-1.020121
-0.434671
-0.199077
-0.453406
-1.189670
-2.175963
-3.084238
-3.544672
-3.472180
-3.176383
-3.011129
-3.055974
-3.203410
-3.334260
-3.397841
-3.395076
-3.395689
-3.525924
-3.760287
-3.956869
-3.997414
-3.997413
-4.148228
-4.366004
-4.438800
-4.092936
-3.317046
-2.406926
-1.721034
-1.426158
-1.389298
-1.373632
-1.302984
-1.169060
-0.954661
-0.662857
-0.324364
0.004914
0.159724
0.130852
0.093686
0.256790
0.655486
1.165989
1.554242
1.563765
1.192101
0.658256
0.129018
-0.382711
-0.741474
-0.863724
-0.895667
-1.044639
-1.336749
-1.552375
-1.422137
-0.896276
-0.275810
-0.074925
-0.530137
-1.269780
-1.797789
-1.860756
-1.395099
-0.550405
0.402717
1.129769
1.560103
1.788017
1.745323
1.389631
0.822306
0.195084
-0.355041
-0.900865
-1.520716
-2.131044
-2.522673
-2.520829
-2.086502
-1.358529
-0.579568
0.098338
0.681024
1.249887
1.882333
2.594641
3.197907
3.439336
3.341660
3.068902
2.784165
2.594954
2.445982
2.376565
2.468714
2.745467
3.112833
3.443032
3.674940
3.759103
3.646376
3.382219
3.039735
2.612782
2.171085
1.845188
1.708196
1.733077
1.847342
1.904167
1.794205
1.587794
1.464930
1.530049
1.642164
1.562303
1.310739
0.987300
0.638673
0.217249
-0.432703
-1.364629
-2.300548
-2.763439
-2.466720
-1.636156
-0.883303
-0.575833
-0.616685
-0.744770
-0.767499
-0.699001
-0.770261
-1.158205
-1.760854
-2.222516
-2.411726
-2.385002
-2.140194
-1.639827
-1.033797
-0.590562
-0.483977
-0.656293
-0.893113
-1.069423
-1.099523
-0.910925
-0.395815
0.382532
1.163644
1.719607
1.872881
1.646505
1.250268
0.965838
1.041707
1.382043
1.659718
1.596136
1.126181
0.417868
-0.462455
-1.352299
-1.884916
-1.854199
-1.377791
-0.751181
-0.242521
0.088907
0.264911
0.268905
0.149114
-0.123645
-0.552133
-0.983079
-1.202084
-1.077683
-0.457524
0.677131
2.026798
3.123364
3.624960
3.545713
3.045348
2.252259
1.403267
0.770516
0.584685
0.987681
1.722104
2.293118
2.390489
2.228002
2.273156
2.649122
3.076077
3.204779
2.849087
2.139853
1.598943
1.721809
2.574796
3.675048
4.475511
4.646908
4.109992
3.096668
1.955565
1.037769
0.428055
0.027825
-0.125447
0.106153
0.755186
1.592201
2.412937
3.066577
3.396162
3.316301
2.964295
2.650992
2.486354
2.458711
2.567754
2.625809
2.498338
2.228958
1.968487
1.769755
1.489317
1.038406
0.443129
-0.167200
-0.532720
-0.352723
0.455726
1.602974
2.632887
3.296356
3.666793
3.905766
4.063340
4.061498
3.824678
3.452400
3.135103
3.000875
3.047565
3.192546
3.347356
3.452099
3.402647
3.250296
3.023612
2.647648
2.164177
1.756268
1.543100
1.396278
1.144099
0.839704
0.628992
0.589984
0.575241
0.304940
-0.251328
-0.912030
-1.344819
-1.304887
-0.879775
-0.387702
-0.172074
-0.333947
-0.719740
-1.075432
-1.250820
-1.240990
-1.096316
-0.894817
-0.656152
-0.318273
0.116054
0.601676
1.080849
1.561250
2.245299
3.174770
4.156150
4.965521
5.375889
5.323059
4.962145
4.498640
4.069230
3.594667
2.990482
2.385069
1.909277
1.559114
1.273763
1.045543
0.884284
0.653607
0.310202
-0.054090
-0.394116
-0.634622
-0.717862
-0.649057
-0.512676
-0.316399
0.103798
0.711057
1.249204
1.524422
1.585240
1.743429
2.209394
2.956718
3.759024
4.328195
4.465497
4.123935
3.449103
2.674443
2.031556
1.681700
1.618119
1.684467
1.742214
1.768324
1.836822
1.999926
2.236133
2.493228
2.650803
2.591829
2.337808
2.047542
1.804271
1.573901
1.317116
1.075381
0.861598
0.644436
0.338811
-0.175375
-0.827785
-1.376988
-1.577870
-1.329376
-0.705837
0.156365
1.001366
1.604017
1.876470
1.819647
1.405902
0.671480
-0.258910
-1.202815
-1.978703
-2.475382
-2.676264
-2.678413
-2.499030
-2.121835
-1.682286
-1.300177
-0.951241
-0.572817
-0.168899
0.210139
0.519758
0.803576
1.219166
1.896458
2.784769
3.543765
3.809153
3.470048
2.677881
1.727525
0.991261
0.707445
0.795908
0.988192
1.153139
1.314092
1.587467
2.053124
2.637346
3.053550
2.964474
2.290871
1.208743
0.047675
-0.902988
-1.570755
-2.082791
-2.523874
-2.789567
-2.841784
-2.862362
-2.998741
-3.182729
-3.164606
-2.802155
-2.244656
-1.814937
-1.797427
-2.212094
-2.817508
-3.195622
-3.137875
-2.737028
-2.253863
-1.910763
-1.673019
-1.406709
-1.061152
-0.767505
-0.722965
-0.937363
-1.280154
-1.641374
-1.962971
-2.290404
-2.619679
-2.803361
-2.697696
-2.281185
-1.732901
-1.375979
-1.414373
-1.830268
-2.466090
-3.151366
-3.740500
-4.059332
-4.084518
-3.967796
-3.926328
-4.086973
-4.430378
-4.758732
-4.802348
-4.433139
-3.654177
-2.670646
-1.789093
-1.228523
-1.097364
-1.304389
-1.587591
-1.739020
-1.685573
-1.427250
-1.039611
-0.662109
-0.366312
-0.060993
0.369034
0.891516
1.241374
1.050628
0.175526
-1.204548
-2.728987
-4.029507
-4.888943
-5.146650
-4.734438
-3.769644
-2.524412
-1.400201
-0.698644
-0.425577
-0.430490
-0.693726
-1.200234
-1.862165
-2.472493
-2.726207
-2.418738
-1.643769
-0.810440
-0.345090
-0.344475
-0.728425
-1.348582
-2.023722
-2.656780
-3.200147
-3.719248
-4.199340
-4.446297
-4.358140
-3.948386
-3.240379
-2.383091
-1.520889
-0.741312
-0.072314
0.534944
0.953299
0.868830
0.187548
-0.839598
-1.807154
-2.450349
-2.680412
-2.489971
-1.964724
-1.341186
-0.896108
-0.915766
-1.465583
-2.387987
-3.441856
-4.349823
-4.947251
-5.147519
-5.017896
-4.598927
-3.864196
-2.926125
-2.077438
-1.477551
-1.088991
-0.800873
-0.556064
-0.275932
0.149794
0.666440
1.140391
1.499156
1.747036
1.833964
1.750417
1.578408
1.377218
1.131490
0.970539
1.108455
1.589778
2.220074
2.697096
2.893987
2.829484
2.579456
2.245573
1.864080
1.515453
1.227951
1.002496
0.798542
0.531620
0.073951
-0.541906
-1.075444
-1.180799
-0.717906
0.103444
0.881791
1.220898
0.985614
0.287437
-0.541590
-1.166969
-1.488258
-1.688526
-1.932411
-2.146809
-2.110870
-1.839646
-1.456307
-1.100921
-0.990035
-1.413916
-2.434612
-3.773526
-4.989883
-5.755328
-5.986619
-5.727681
-5.098614
-4.340232
-3.626389
-3.021894
-2.706746
-2.878141
-3.503213
-4.315653
-5.083862
-5.712927
-6.163224
-6.440590
-6.432295
-6.020698
-5.280746
-4.387828
-3.509960
-2.811475
-2.431515
-2.382675
-2.520897
-2.715022
-2.885802
-2.988086
-3.000986
-2.989927
-3.050744
-3.152106
-3.115553
-2.798561
-2.203589
-1.410191
-0.654266
-0.215332
-0.219938
-0.429421
-0.492695
-0.269695
0.186747
0.667148
0.885541
0.684966
0.154807
-0.357537
-0.498830
-0.195047
0.406990
1.085817
1.604921
1.944949
2.321837
3.024315
4.041941
4.948068
5.229121
4.646438
3.345304
1.717965
0.173560
-0.930683
-1.382824
-1.207741
-0.624441
0.003705
0.429431
0.646595
0.742738
0.763319
0.614961
0.199987
-0.389761
-0.914699
-1.140154
-0.928519
-0.297916
0.532956
1.286423
1.773582
1.860202
1.429256
0.429755
-1.000079
-2.534962
-3.875413
-4.915767
-5.768138
-6.620816
-7.509739
-8.249075
-8.571593
-8.351358
-7.814439
-7.355539
-7.347245
-7.725666
-8.039584
-7.885388
-7.224069
-6.244531
-5.146122
-4.082422
-3.209162
-2.608661
-2.296277
-2.267402
-2.378901
-2.312246
-1.868704
-1.112780
-0.143992
0.963325
2.179684
3.438124
4.632675
5.580883
6.041932
5.924291
5.387988
4.750937
4.244122
3.840821
3.433526
2.980157
2.642281
2.680677
3.113468
3.611685
3.776631
3.475614
2.973714
2.573791
2.314548
2.110287
1.931520
1.792685
1.760741
1.932752
2.257423
2.504074
2.501311
2.301350
2.012312
1.531299
0.716401
-0.295694
-1.217483
-1.782044
-1.918423
-1.781121
-1.669928
-1.879103
-2.462401
-3.374976
-4.454339
-5.401009
-5.954205
-5.954204
-5.358925
-4.368022
-3.273913
-2.375158
-1.847147
-1.583295
-1.501282
-1.670834
-2.302970
-3.437930
-4.701282
-5.626758
-5.914567
-5.467032
-4.472750
-3.302158
-2.373916
-1.946040
-1.954946
-2.122655
-2.184086
-2.009004
-1.677576
-1.300381
-0.969567
-0.679299
-0.288896
0.297476
0.959716
1.403565
1.429982
1.014394
0.269222
-0.584992
-1.247845
-1.542719
-1.507701
-1.284701
-1.016856
-0.897062
-1.004567
-1.246302
-1.445341
-1.424760
-1.110533
-0.554571
0.062517
0.564112
0.901683
1.132362
1.249392
1.139736
0.592376
-0.455042
-1.848017
-3.419760
-4.887682
-5.887183
-6.181750
-5.819299
-5.027743
-4.062335
-3.082797
-2.271890
-1.767838
-1.648965
-1.939539
-2.482291
-2.959926
-2.971904
-2.275262
-0.981191
0.477211
1.629067
2.182265
2.112233
1.590368
0.899870
0.296607
-0.057549
-0.165976
-0.141095
-0.150309
-0.259964
-0.315866
-0.073822
0.535586
1.300419
1.923650
2.085525
1.631542
0.703916
-0.343503
-1.311674
-2.096776
-2.528030
-2.538165
-2.349260
-2.281683
-2.500688
-3.033612
-3.702301
-4.152905
-4.072735
-3.459333
-2.689893
-2.241130
-2.360307
-2.983536
-3.757888
-4.264396
-4.262245
-3.889965
-3.570209
-3.539799
-3.743139
-4.045691
-4.379267
-4.644039
-4.707006
-4.502743
-4.061351
-3.497402
-2.925774
-2.399299
-1.893404
-1.385051
-0.931373
-0.596873
-0.473701
-0.651546
-1.161740
-1.815992
-2.230658
-2.119158
-1.456610
-0.443899
0.686762
1.783329
2.804026
3.670222
4.284238
4.596008
4.726859
4.847267
5.076103
5.430261
5.788412
6.060251
6.207075
6.270966
6.336085
6.365573
6.217830
5.664941
4.601243
3.248506
2.073308
1.353324
1.134319
1.335203
1.681682
1.778746
1.406468
0.597099
-0.507759
-1.679270
-2.517819
-2.698429
-2.185469
-1.238797
-0.336971
0.202405
0.423869
0.538134
0.704003
1.039116
1.557913
2.108039
2.447761
2.407523
2.052139
1.596620
1.207141
0.960184
0.715071
0.168018
-0.877251
-2.183913
-3.173893
-3.405491
-2.908810
-1.969818
-0.943899
-0.103505
0.432186
0.637677
0.528329
0.112741
-0.603251
-1.508453
-2.250554
-2.555871
-2.390617
-2.013115
-1.803323
-1.833117
-1.994990
-2.118160
-2.191263
-2.353444
-2.706371
-3.187384
-3.615258
-3.677304
-3.217483
-2.237638
-0.905479
0.411629
1.357380
1.777884
1.749627
1.489462
1.325746
1.580384
2.450572
3.770138
5.144992
6.149103
6.544420
6.412956
5.954366
5.479189
5.183086
4.839681
4.185429
3.152140
1.981550
1.016143
0.490592
0.331790
0.238721
-0.121885
-0.895623
-1.905260
-2.808313
-3.348609
-3.422019
-3.117621
-2.624319
-2.188150
-2.014602
-2.166646
-2.570562
-3.128366
-3.678490
-4.065512
-4.267316
-4.238135
-3.888277
-3.222658
-2.401922
-1.668113
-1.251602
-1.285081
-1.768245
-2.497752
-3.257360
-3.950929
-4.576615
-5.112917
-5.434514
-5.435127
-5.170046
-4.791930
-4.403677
-4.064570
-3.768773
-3.450246
-3.008240
-2.418182
-1.717854
-0.933056
-0.135972
0.505382
0.895170
1.139672
1.477857
2.116446
2.991242
3.781262
4.096103
3.780956
2.955923
1.925091
1.014359
0.415703
0.194855
0.359187
0.799350
1.303403
1.734044
2.189258
2.829383
3.635067
4.351061
4.609999
4.151101
3.071124
1.843709
0.904411
0.438756
0.357973
0.439679
0.481761
0.325724
-0.193684
-1.087215
-2.001325
-2.524727
-2.531484
-2.277460
-2.063061
-2.140464
-2.560353
-3.009421
-3.096347
-2.659255
-1.907324
-1.202081
-0.709086
-0.348785
0.084928
0.698022
1.344597
1.740222
1.718108
1.285011
0.624923
-0.027793
-0.486384
-0.666072
-0.525084
0.035179
0.982465
2.131863
3.214300
4.066980
4.668096
5.059113
5.232046
5.112561
4.559979
3.550956
2.282381
1.093054
0.284300
0.017071
0.217034
0.631395
0.980638
1.153878
1.151115
1.049753
0.942554
0.904775
0.997846
1.296407
1.870492
2.546555
3.082245
3.445925
3.721450
4.001582
4.405192
4.918153
5.274461
5.181699
4.599322
3.723300
2.853421
2.185960
1.739042
1.373521
0.922610
0.358048
-0.229857
-0.767388
-1.254545
-1.706070
-2.107222
-2.404553
-2.601749
-2.801403
-3.153101
-3.624900
-3.977520
-4.057995
-3.910864
-3.705986
-3.557934
-3.451041
-3.275958
-2.859446
-2.137616
-1.253298
-0.406761
0.175925
0.335035
0.003916
-0.812824
-1.919525
-2.938377
-3.519218
-3.475293
-2.881242
-1.980030
-1.141786
-0.485689
0.174401
1.001280
1.914471
2.738893
3.318814
3.437379
3.092131
2.497161
1.945501
1.648170
1.706224
2.100313
2.610816
2.952994
2.984940
2.740441
2.310723
1.757220
1.109418
0.434893
-0.130589
-0.535119
-0.849344
-1.111352
-1.300255
-1.483322
-1.764373
-2.135730
-2.437976
-2.577733
-2.645922
-2.729776
-2.832981
-2.855710
-2.671105
-2.217734
-1.606482
-1.034240
-0.760558
-0.930417
-1.439075
-2.054932
-2.513216
-2.668945
-2.378677
-1.576985
-0.469054
0.668058
1.583706
2.110488
2.292329
2.317210
2.291717
2.176225
1.836506
1.130958
0.183367
-0.653339
-1.011795
-0.700640
0.210094
1.449490
2.682129
3.574433
3.983265
4.027191
3.902484
3.759962
3.678566
3.660751
3.610071
3.386766
2.973635
2.436104
1.837141
1.300224
1.026237
1.039754
1.268282
1.624590
2.076118
2.613037
3.319202
4.310412
5.509570
6.564055
7.045378
6.725317
