EVENT_NAME: 202302060117
EVENT_ID: 13194
EVENT_DATE_YYYYMMDD: 2023/02/06
EVENT_TIME_HHMMSS: 01:17:32.00000
EVENT_LATITUDE_DEGREE: 37.288
EVENT_LONGITUDE_DEGREE: 37.043
EVENT_DEPTH_KM: 8.6
HYPOCENTER_REFERENCE: AFAD
MAGNITUDE_W: 7.7
MAGNITUDE_W_REFERENCE: AFAD
MAGNITUDE_L: 
MAGNITUDE_L_REFERENCE: 
FOCAL_MECHANISM: 
NETWORK: TK
STATION_CODE: 2302
STATION_NAME: 
STATION_LATITUDE_DEGREE: 38.39231
STATION_LONGITUDE_DEGREE: 39.67541
STATION_ELEVATION_M: 1100.0
LOCATION: Kahramanmaras_Pazarck_Turkiye
SENSOR_DEPTH_M: 
VS30_M/S: 907
SITE_CLASSIFICATION_EC8: A
MORPHOLOGIC_CLASSIFICATION: 
EPICENTRAL_DISTANCE_KM: 261.74
EARTHQUAKE_BACKAZIMUTH_DEGREE: 
DATE_TIME_FIRST_SAMPLE_YYYYMMDD_HHMMSS: 2023/02/06 01:17:54.6175900
DATE_TIME_FIRST_SAMPLE_PRECISION: millisecond
SAMPLING_INTERVAL_S: 0.01
NDATA: 18251
DURATION_S: 
STREAM: HNE
UNITS: cm/s^2
INSTRUMENT: sensor = CMG-5T/GURALP | digitizer = 
INSTRUMENT_ANALOG/DIGITAL: 
INSTRUMENTAL_FREQUENCY_HZ: 
INSTRUMENTAL_DAMPING: 
FULL_SCALE_G: 
N_BIT_DIGITAL_CONVERTER: 
PGA_CM/S^2: 236.394
TIME_PGA_S: 
BASELINE_CORRECTION: BASELINE REMOVED
FILTER_TYPE: BUTTERWORTH
FILTER_ORDER: 
LOW_CUT_FREQUENCY_HZ: 
HIGH_CUT_FREQUENCY_HZ: 
LATE/NORMAL_TRIGGERED: 
DATABASE_VERSION: 
HEADER_FORMAT: DYNA 1.2
DATA_TYPE: Acceleration
PROCESSING: Automatic Paolucci et al., 2011
DATA_TIMESTAMP_YYYYMMDD_HHMMSS: 
DATA_LICENSE: U (unknown license)
DATA_CITATION: Turkish Accelerometric Archive v 1.0 - Disaster And Emergency Management Presidency, Earthquake Department
DATA_CREATOR: AFAD
ORIGINAL_DATA_MEDIATOR_CITATION: : AFAD - Disaster And Emergency Management Presidency
ORIGINAL_DATA_MEDIATOR: AFAD PROCESS SERVICE
ORIGINAL_DATA_CREATOR_CITATION: AFAD PROCESS SERVICE
ORIGINAL_DATA_CREATOR: network: TK
USER1: GuestUser
USER2: 
USER3: 
USER4: 
USER5: 
[...]
-10.781471
-12.868764
-15.044916
-17.094083
-18.655425
-19.281944
-19.690217
-19.841818
-18.574674
-16.892352
-15.802626
-14.838383
-14.458030
-14.447224
-13.447858
-11.591420
-10.163968
-8.831080
-7.265837
-5.864803
-4.452361
-2.129412
0.419888
2.585231
4.521222
6.216452
7.817119
9.212149
10.825425
12.282596
14.040268
16.223023
18.253277
20.181462
21.674057
21.709180
20.686697
19.358911
18.252673
18.061144
18.106774
17.296533
15.723484
14.217979
12.384655
9.773213
7.890056
7.347294
6.839955
6.618406
6.907799
6.895190
6.072941
4.905762
3.764100
2.288315
1.146052
0.651022
-0.356451
-2.394511
-5.578435
-9.458524
-12.456624
-14.114631
-15.137714
-16.001090
-16.663032
-16.575975
-16.002593
-15.636049
-15.104695
-13.888584
-12.232981
-10.631713
-9.040653
-7.316303
-5.673308
-4.673641
-4.254262
-4.120974
-4.526545
-5.386019
-6.449329
-6.901731
-6.108002
-4.954033
-4.104767
-4.413674
-5.752267
-6.448732
-6.852502
-7.626719
-8.131657
-8.436961
-8.600570
-8.180591
-7.878290
-7.046135
-5.238330
-3.984094
-3.025856
-1.658444
-0.722721
0.067106
0.962002
1.481348
1.979079
2.498725
2.548858
2.224341
1.951459
1.532679
1.002524
0.206393
-0.633568
-1.101881
-2.041208
-3.272330
-4.315826
-6.270431
-8.405155
-9.986010
-11.810928
-13.060662
-13.591417
-14.118569
-13.903326
-13.368670
-13.408897
-13.607630
-13.140519
-12.074509
-11.168205
-10.107598
-8.713169
-7.597625
-6.217305
-4.348859
-2.732882
-1.544090
-0.357099
0.614349
1.028925
1.581593
2.859845
3.658977
3.664080
3.443432
2.506507
1.008507
-0.730854
-2.742796
-4.733725
-5.606707
-5.484827
-5.579090
-5.749304
-5.581193
-6.227825
-7.257512
-7.279727
-6.719554
-5.985565
-4.840602
-3.521523
-2.710983
-2.632331
-2.865287
-2.446508
-1.722126
-1.416222
-1.288337
-1.511387
-2.131001
-2.840374
-3.347713
-3.672230
-3.971831
-4.792579
-5.583907
-6.064829
-6.872668
-8.191448
-9.369735
-10.092617
-10.375407
-10.126241
-9.531245
-8.587716
-7.882246
-7.476376
-6.639418
-5.691687
-5.225176
-4.655396
-4.051995
-4.202696
-4.420041
-4.103631
-3.657834
-2.640156
-1.031383
0.442299
2.260011
4.640598
6.496736
7.331592
8.187762
9.837062
11.399904
12.794934
14.565514
15.957842
16.660010
17.265513
17.196467
16.400335
15.852769
15.628219
15.118178
14.491660
13.735755
12.471611
10.905166
9.243557
7.449560
5.623441
4.384214
3.876575
3.821938
3.885279
4.268635
5.117900
6.047620
7.090815
7.981809
8.363363
9.521535
11.632542
13.439447
14.841381
16.131041
16.759059
17.001020
16.998618
16.454354
16.164661
16.403920
16.416828
15.705953
14.437606
12.948312
11.709986
10.985602
10.938170
11.548476
13.022759
15.280565
17.656048
20.060352
22.000245
22.936269
23.512653
23.767822
23.901411
23.996574
23.674158
23.024824
22.331361
21.163582
19.466849
17.704974
15.328888
12.503103
10.406504
8.875482
7.423713
6.472378
5.958735
5.346926
4.483850
3.715637
3.486283
3.315469
2.071439
-0.315154
-2.542640
-4.263388
-5.901582
-7.317927
-8.549349
-9.643279
-10.894814
-11.388644
-10.169832
-9.415129
-9.790680
-10.215464
-11.422570
-12.774372
-13.267902
-13.368470
-12.747956
-11.586782
-11.396456
-11.280279
-11.007698
-11.581381
-12.477179
-13.006433
-12.763271
-12.186587
-11.208235
-10.549896
-10.404000
-10.237389
-9.976216
-9.455969
-8.835156
-8.262674
-7.968779
-8.542162
-9.235325
-9.421149
-10.227488
-10.899937
-10.801472
-11.229558
-11.631226
-11.103475
-10.593135
-10.713216
-11.661549
-13.111216
-14.452211
-14.808850
-14.127696
-13.204581
-11.796342
-9.980432
-8.493240
-7.643374
-6.476196
-4.878531
-3.614688
-1.939572
0.048354
1.758894
2.952189
3.501255
3.633943
3.971367
4.136777
3.705689
3.055755
2.349984
1.105953
-0.319398
-1.388412
-2.389580
-3.324404
-4.480476
-5.083879
-4.731744
-3.572972
-2.135614
-0.966635
-0.250057
0.659849
1.784098
2.198374
2.488067
2.464350
2.592235
3.367051
3.755810
4.400039
4.988731
5.203374
5.659978
6.165214
5.917548
5.736827
5.786660
5.095598
4.545631
4.057805
3.762107
3.829952
4.523114
5.288323
5.844594
6.736788
7.854733
8.334753
8.208969
7.597760
6.126178
4.285950
1.878044
-0.834266
-2.900245
-4.200713
-4.994142
-5.246912
-4.792709
-4.235238
-4.259855
-4.059022
-4.348415
-5.513793
-6.082673
-5.770465
-4.744382
-3.375769
-2.056390
-1.649019
-1.794316
-1.352722
-0.533476
-0.106892
0.070225
-0.243485
-1.469503
-2.802693
-3.970773
-4.636917
-5.443556
-6.855698
-8.018375
-8.923779
-9.841192
-10.238357
-10.138391
-9.962774
-9.642461
-9.328753
-9.507673
-9.374684
-8.891363
-8.403538
-8.441664
-8.615480
-8.423053
-8.151072
-6.936162
-4.482026
-2.318483
-0.685995
0.444859
0.281549
-0.656877
-1.337432
-2.353010
-3.341569
-3.497374
-2.802111
-2.196608
-2.014387
-1.794340
-1.649945
-1.866390
-1.445209
0.141649
1.572102
2.361628
2.566364
2.201320
1.093881
0.210091
-0.592645
-1.118296
-1.201152
-1.256089
-1.621734
-1.376771
-1.047452
-1.031242
-0.622370
0.131433
0.523193
0.040771
-0.707028
-1.476142
-2.115269
-2.959733
-3.999627
-5.441189
-7.013038
-8.083252
-7.775848
-6.524314
-5.156002
-3.934487
-3.522313
-3.506403
-4.434623
-5.299200
-6.226519
-7.199469
-8.071551
-8.717282
-8.928924
-9.354608
-9.179892
-8.517351
-7.598439
-6.783396
-5.759413
-5.120287
-4.020955
-2.705478
-1.900041
-1.485465
-1.606146
-3.285167
-5.689171
-8.088372
-10.501682
-12.410956
-14.650450
-16.798083
-18.292481
-20.083776
-21.766999
-23.240983
-24.476007
-25.732946
-26.365769
-26.859599
-26.816371
-26.073676
-25.328580
-23.551995
-20.942055
-18.359133
-16.567538
-14.975277
-13.642689
-12.765504
-12.898493
-12.062136
-10.608267
-9.645525
-8.345359
-7.463071
-7.590957
-6.246060
-5.077982
-5.250597
-5.143727
-5.769945
-7.808305
-8.984790
-10.535625
-13.091831
-14.700605
-15.240665
-15.575089
-14.743835
-13.134462
-10.450673
-8.385296
-6.682260
-5.902341
-5.892134
-5.510280
-5.901442
-6.259581
-6.777427
-5.646874
-4.628595
-3.691971
-2.319456
-1.188602
-1.428463
-2.368691
-1.510419
-1.336303
-2.347378
-2.603750
-3.362957
-4.032404
-4.182504
-6.078570
-8.237310
-9.461827
-10.616398
-10.454591
-9.952657
-9.676773
-8.719435
-8.107027
-7.501224
-5.487781
-4.341918
-4.436181
-4.455094
-3.888317
-3.842087
-2.940886
-1.094055
-0.732614
0.711348
3.573457
4.900942
5.676658
7.855211
8.836265
7.190566
6.788898
7.362880
5.308309
4.980490
7.593432
8.935927
8.428588
9.137661
9.413544
8.270381
8.504837
9.109439
8.823348
8.352934
8.555568
7.565808
8.140690
10.490057
11.407768
11.502031
12.285553
12.797994
11.801329
12.110534
12.467772
10.603528
8.295588
6.456561
3.852623
2.431475
2.965531
3.957392
5.326304
6.215497
6.183975
7.163228
6.584441
5.603086
6.521998
5.934506
2.514324
1.035537
1.167624
1.945142
2.219825
3.338070
5.863654
5.310685
4.767922
5.690737
4.628929
2.991936
4.401376
4.252476
1.553375
-0.308167
-1.511971
-1.681284
0.104906
-2.467510
-2.375949
-3.035490
-6.057306
-6.805105
-8.129589
-11.537163
-11.929825
-8.418084
-7.758544
-5.993668
-5.334429
-5.323622
-5.206544
-5.623523
-5.057946
-7.255713
-8.927529
-8.129297
-9.480799
-10.212687
-6.915889
-4.799178
-5.255483
-4.669793
-3.467491
-4.111121
-4.075698
-1.280835
-0.302483
-2.311123
-0.904986
-0.790310
-1.034973
-0.366728
-1.057790
-0.603587
-1.113928
-0.415663
0.956251
0.296110
-0.524638
-0.115465
-1.126540
-1.495787
-1.779477
-3.236049
-5.160333
-7.398927
-10.946694
-12.985054
-12.352232
-12.626916
-12.268778
-10.409038
-10.402434
-9.158105
-7.063308
-4.608872
-3.318912
-3.732888
-1.655503
-0.760307
-2.538393
-3.280189
-2.746433
-3.764713
-4.568650
-5.720519
-6.951040
-8.584430
-9.298007
-8.727327
-9.529162
-9.244573
-11.389804
-12.330933
-12.476830
-14.387605
-16.582970
-16.832137
-15.928835
-16.354219
-15.445514
-14.722933
-12.792345
-12.058356
-15.702187
-15.718699
-16.084043
-16.778407
-18.763932
-19.067435
-16.959730
-19.393454
-17.547223
-14.714834
-9.887615
-8.265934
-8.736348
-6.939350
-6.942353
-6.034848
-6.503161
-4.164602
-2.378711
3.417254
4.738435
7.508982
14.061152
15.454381
11.392371
15.501511
16.284733
14.166219
14.819755
16.886933
18.276559
23.156914
19.580027
12.334994
20.308612
10.809676
7.344464
9.660208
9.544630
4.528584
3.786489
6.766876
4.455334
1.601630
0.816005
5.375145
5.718574
-2.137067
1.006630
6.548626
3.168971
0.566234
4.492252
6.484681
7.450124
7.533579
8.593586
11.335914
10.637048
10.660162
9.317366
6.292548
6.861127
7.847884
5.033807
7.499050
14.708659
15.779172
15.208191
16.188344
18.801586
10.125499
4.322928
9.214390
4.940739
0.855614
-3.705329
1.648741
4.839869
-2.327712
-9.653199
0.302941
13.943139
-4.898929
0.378290
4.414482
-4.324348
-4.490960
1.480923
-0.113741
-7.010242
-16.748137
-13.941866
1.072948
-5.521251
-8.087063
-2.296201
1.271678
-6.138765
-4.602941
6.964974
-1.063281
-3.352909
-2.285698
-0.402843
-0.144671
-0.643004
6.787552
7.572275
-0.881365
3.346355
-25.396317
1.606993
-7.672797
-18.281273
24.997393
-5.649749
-13.228004
21.734215
-1.970197
-14.873404
-22.072206
0.971764
13.778305
-5.038246
22.215432
-57.675956
-1.979808
42.723309
-40.660909
13.833238
-0.595286
-10.141654
1.341604
30.808959
-2.024542
-89.534712
-20.618345
-2.801462
-9.192425
-0.739688
-9.164508
9.120688
0.369250
14.327960
-6.423682
-40.611986
39.361656
14.051173
34.687237
-5.871016
-35.536203
-4.043999
-34.187705
-11.275223
16.499902
-9.098172
-0.648137
-7.454877
-32.412925
19.089126
-8.275927
-25.569862
16.816009
-15.251981
-5.755748
-0.494439
7.984716
1.263532
-3.923028
21.807134
1.924571
-29.615967
-0.722295
14.270004
-44.679116
-7.304787
26.548492
7.713028
40.176381
0.090943
-34.503532
-13.656127
6.926201
0.638806
17.598918
26.141115
-2.350289
30.843751
40.008563
-19.086154
-25.558171
-37.259076
19.374898
88.995234
-1.249760
-80.728973
-113.612607
12.627295
157.667836
88.177485
89.758940
91.372816
-66.885243
-83.130579
46.935374
-4.720081
-63.497786
50.765927
44.279801
-1.967547
-38.057620
-27.279231
71.312529
43.131232
-40.394981
0.592557
53.075363
56.372461
25.204171
-28.984073
1.345156
26.834857
18.509103
51.955612
26.102967
0.227208
-3.419325
-11.507320
-5.671428
1.725205
1.911929
18.645689
7.085878
7.654457
12.178774
-15.379308
-23.105261
-15.916067
-20.126976
22.923238
16.918032
-11.190617
1.080667
29.563965
25.670668
4.311420
7.742408
6.267824
6.483668
4.674660
0.487767
2.906780
-7.215072
-0.249526
11.578362
-3.471877
0.909245
36.723432
35.185506
9.303442
-7.681287
-7.288026
14.697438
6.115613
-17.191933
-10.558109
17.352407
9.239195
-9.306876
-11.191234
6.502868
5.505002
14.645197
11.845530
3.216874
17.215510
6.328748
4.043924
10.480516
11.529115
10.729381
7.819239
1.981845
2.629377
3.589717
-6.338806
4.038815
-19.790780
-6.219629
10.020903
-9.450084
-11.049552
6.576704
24.736416
-6.035909
-5.219966
-21.836049
-6.564564
11.699918
2.038573
-23.074378
-7.278442
-6.881578
-9.067937
21.618230
13.478300
-39.296901
-48.442502
-2.843288
-7.612870
-23.272215
-18.057137
23.092809
-22.317580
-6.650431
36.994780
3.732594
-44.691206
-21.968750
27.220858
-25.616785
-45.702282
29.687302
16.363214
-38.464457
-39.224564
38.684000
-22.559850
-41.178269
42.587502
-48.879607
-37.624200
75.200053
-27.394578
-55.037917
44.641769
-15.361354
-71.914275
43.186397
23.409805
55.920289
26.213374
-70.690362
34.860941
64.713452
-33.458029
-33.311232
62.338266
-17.875537
-53.552835
60.732193
79.249143
5.129405
-43.118177
9.105856
61.032390
13.430839
-9.671671
3.931902
59.520279
-8.583447
15.772698
12.253150
-56.400842
-2.029778
-19.383153
-11.690222
-7.922710
-16.823948
-5.510902
42.957626
3.836431
-30.910546
48.154991
-5.310672
-32.518120
-22.818350
54.579874
26.350544
-7.957840
5.437694
-8.855740
-9.650971
-26.486501
5.965144
29.185331
-8.070720
-7.219953
48.892574
2.600797
-0.978791
63.108854
29.621818
-8.533332
-5.319089
9.120842
-23.616594
-9.030466
-23.459891
-32.218534
22.367775
-6.062689
-35.273673
0.880641
67.896740
-2.498714
-46.709203
20.715169
57.407742
9.951188
-41.491425
29.934616
42.101430
-56.197636
-8.406059
70.394100
1.496344
-66.454579
32.260563
36.541418
-14.576679
6.848612
16.174331
39.641884
17.212423
15.865123
14.891874
24.024565
35.339711
38.325202
11.707047
53.551056
28.074563
26.544742
37.656053
-6.856438
8.774087
10.961045
19.781828
35.282667
37.603214
24.740234
25.465517
-18.635699
61.925435
43.680164
-54.998655
-38.907923
24.410910
0.022342
7.933819
55.593007
66.984404
76.071165
78.653186
54.356480
-15.628901
-42.789218
-68.045664
-91.701743
-112.359423
-71.782859
-68.643365
-59.331154
-23.504659
-42.304399
-47.569311
-57.354038
-133.452997
-112.045418
-83.845810
-31.224312
34.527344
51.376382
70.575087
147.817807
136.931946
86.085530
141.693120
87.992701
34.314497
60.743525
75.763443
-38.236996
-59.090706
21.794944
3.978360
34.119363
112.703678
143.154489
130.783236
120.900044
68.544822
-99.746829
-133.653545
-88.800629
-137.677130
-162.537312
-42.657153
40.431366
77.947389
129.579427
175.619035
177.482377
66.459925
78.425305
173.750586
124.035926
44.601143
-2.097706
-7.062118
-62.056400
-158.867974
-161.188822
-171.876251
-230.007926
-236.394386
-116.791912
-1.252648
81.732303
67.855546
-16.062428
-71.965716
-107.564661
-116.877773
-30.660867
25.378411
23.374874
72.102174
123.988182
111.622333
98.952982
133.051825
122.527705
50.046760
13.717728
12.379735
43.305462
17.311123
18.154385
73.274749
51.445389
55.821107
70.359203
9.430263
-60.328167
-101.107367
-116.884090
-168.889279
-206.513374
-142.284034
-69.241715
-25.987365
23.087867
60.331608
16.800172
26.227960
104.419914
73.874839
26.112081
41.186335
98.043958
177.239481
88.139451
-53.096954
-88.262710
-102.427059
-96.284062
-89.585695
-74.181220
-0.017654
54.450076
38.081357
0.971204
26.855368
10.779945
-24.314063
-50.121677
-48.174279
-5.362124
-12.360092
-32.321307
-50.932821
12.380308
66.398037
31.642655
12.964496
51.245729
64.917448
40.607833
47.243158
63.212909
98.185035
66.116144
8.752382
-3.637783
-50.160114
-53.335933
-36.898770
-57.916389
-18.460472
17.899779
15.521292
28.154018
44.973336
34.338742
-23.716682
15.316253
47.808124
-12.083324
-12.647101
-15.513713
-46.320862
-60.767098
-57.543249
-19.977093
-28.231399
-32.158319
-33.473196
-33.533537
10.817745
-14.891104
-31.032871
-15.058316
-36.562560
-33.583674
4.159000
-38.290515
-82.501604
-121.820630
-84.713180
-33.976639
-22.870432
-28.313363
-37.239818
8.116835
84.374898
115.880011
51.234292
-29.988784
22.184815
90.229700
55.666746
-28.192989
-66.253576
4.927802
34.751494
26.778775
12.079170
11.080403
22.398552
23.194983
13.177000
-1.707529
-39.918516
-69.266091
-63.360553
-38.342466
-56.946476
-140.828726
-148.387168
-28.418449
49.164098
17.149243
-16.335992
16.596573
6.705876
-59.358590
-46.424163
14.057477
15.979959
41.174263
84.144023
67.941316
73.450890
79.316802
41.329764
-0.797335
-10.896672
6.704667
29.622253
30.569984
0.717472
-4.641403
-22.082737
-43.278375
-27.105388
-30.606924
-14.204284
21.099563
8.543388
-21.781940
-21.681073
8.178042
-41.092022
-80.477092
-47.815007
-22.424672
3.184509
-1.697048
-22.674441
-32.991122
-12.734212
24.274473
11.358957
12.893280
37.157864
17.806056
8.706686
1.476063
18.644814
31.853323
17.180436
-10.910501
-33.756340
1.263818
13.689405
-18.858305
-35.198204
-8.223413
38.483540
58.449857
32.162823
11.893903
23.352846
18.016786
-7.460908
-3.177652
15.570453
42.007286
34.005448
3.684023
-20.813217
1.978284
34.854112
18.424452
6.878150
5.310504
19.758540
38.370354
21.167979
-11.349410
-22.262890
-8.199711
-0.788968
0.615068
-3.937469
-13.039541
-5.871360
3.512298
-5.334604
6.610964
22.225278
-9.030370
-38.255764
9.151256
30.702930
-19.724706
-46.400499
-37.508269
-54.741864
-68.500642
-62.307511
-51.817015
-12.042586
30.309362
19.491046
-2.691951
18.154253
22.092279
2.611085
-13.364672
-1.344955
7.902412
13.590606
26.651417
17.715056
5.514617
30.930469
40.892013
30.224097
19.934733
12.320754
7.552974
-14.327121
-19.898838
-22.461348
-9.299369
43.935738
58.721800
28.338834
22.902807
58.500851
51.564724
22.830757
16.276185
-15.627595
-42.801121
-38.586310
-49.781978
-40.308260
-19.447646
-13.649580
-9.312587
1.643520
17.249729
29.979719
32.291560
-0.504715
-22.065697
-29.996688
-54.269678
-63.011810
-32.143421
-4.679904
-3.108956
-3.580271
8.962394
20.250823
12.085976
1.217226
7.409156
16.732174
13.159790
-3.467100
-16.442656
-14.803263
-12.695558
-13.866039
-1.352793
8.857016
14.457851
6.617822
2.637766
6.018621
1.836531
7.172589
2.444135
-15.723984
-32.705111
-39.647542
-25.901674
0.950336
14.986497
12.658144
23.115018
25.631596
1.319279
-30.841773
-43.279370
-33.283603
-19.257648
-8.859914
-4.972021
0.443891
8.485354
10.767776
0.174009
-22.624698
-25.212725
-14.688606
-10.457584
-5.134735
7.882848
25.380918
37.844931
30.096763
15.107164
20.768039
17.914936
6.186112
-2.462958
7.952789
13.163964
-0.706188
-14.024872
-22.820139
-14.696421
-10.065833
-11.143552
1.764757
8.994179
3.692642
-11.233314
-9.478344
-2.537415
-14.499795
-17.344193
-15.324146
-17.193493
-9.699595
-14.462573
-20.918079
-17.238826
-24.953072
-28.886296
-25.048537
-18.627254
1.433626
12.709446
8.173120
9.738363
18.913383
14.099371
6.028487
9.877654
6.010774
-3.547902
-6.652573
-18.083598
-21.878430
-15.851911
-17.866555
-21.020159
-1.535964
9.146961
-3.824692
-3.863418
3.327578
9.759067
1.094987
3.527809
19.371176
23.518742
17.217539
17.795724
8.387148
-8.053919
-5.500416
2.807925
0.343580
-1.944847
-1.692379
-6.355990
-2.965829
-4.669166
-13.447922
-6.881042
6.708721
13.891312
16.540278
16.832973
18.091712
13.996980
7.061753
6.435835
7.370958
13.039939
20.720862
24.219395
17.593074
17.354415
23.968125
20.453080
20.384934
26.521026
27.261019
17.364318
11.777291
12.030059
8.463679
0.978786
0.425517
11.855040
19.691466
18.273920
22.470418
27.221987
24.428623
13.760407
4.133285
0.420708
-0.364916
-1.585231
-1.278727
8.552230
11.124945
18.692992
26.676217
19.805533
14.462869
14.292655
12.080179
9.676175
12.504661
13.151892
3.942949
2.957991
3.233575
-6.307990
-10.640781
-9.516832
-5.833075
-11.155626
-15.018003
-6.549955
-0.611394
-5.800956
-4.289449
3.568892
6.152415
11.072696
11.492075
5.493173
5.102312
0.288901
-5.769140
-7.546026
-8.539990
-6.785020
-0.374244
5.142235
8.919053
10.792902
0.872185
-13.123751
-18.569384
-13.997935
-13.693233
-16.032093
-17.385396
-10.934995
-6.110477
-10.801407
-6.015015
-1.324987
-9.108279
-9.489834
-8.632763
-9.793038
-5.994004
-0.774423
-2.403010
0.615503
9.771309
6.420774
2.203560
1.750858
1.187982
-2.653681
-3.162221
-1.568459
-2.854517
-5.757154
-6.734906
-1.558554
-6.446115
-12.184743
-10.889080
-11.441449
-12.708594
-6.049853
2.687474
