EVENT_NAME: 202302060117
EVENT_ID: 13194
EVENT_DATE_YYYYMMDD: 2023/02/06
EVENT_TIME_HHMMSS: 01:17:32.00000
EVENT_LATITUDE_DEGREE: 37.288
EVENT_LONGITUDE_DEGREE: 37.043
EVENT_DEPTH_KM: 8.6
HYPOCENTER_REFERENCE: AFAD
MAGNITUDE_W: 7.7
MAGNITUDE_W_REFERENCE: AFAD
MAGNITUDE_L: 
MAGNITUDE_L_REFERENCE: 
FOCAL_MECHANISM: 
NETWORK: TK
STATION_CODE: 0714
STATION_NAME: 
STATION_LATITUDE_DEGREE: 36.55547
STATION_LONGITUDE_DEGREE: 31.98667
STATION_ELEVATION_M: 12.0
LOCATION: Kahramanmaras_Pazarck_Turkiye
SENSOR_DEPTH_M: 
VS30_M/S: 607
SITE_CLASSIFICATION_EC8: B
MORPHOLOGIC_CLASSIFICATION: 
EPICENTRAL_DISTANCE_KM: 456.75
EARTHQUAKE_BACKAZIMUTH_DEGREE: 
DATE_TIME_FIRST_SAMPLE_YYYYMMDD_HHMMSS: 2023/02/06 01:18:09.9751630
DATE_TIME_FIRST_SAMPLE_PRECISION: millisecond
SAMPLING_INTERVAL_S: 0.01
NDATA: 24501
DURATION_S: 
STREAM: HNN
UNITS: cm/s^2
INSTRUMENT: sensor = GMS+/GEOSIG | digitizer = 
INSTRUMENT_ANALOG/DIGITAL: 
INSTRUMENTAL_FREQUENCY_HZ: 
INSTRUMENTAL_DAMPING: 
FULL_SCALE_G: 
N_BIT_DIGITAL_CONVERTER: 
PGA_CM/S^2: 2.672
TIME_PGA_S: 
BASELINE_CORRECTION: BASELINE REMOVED
FILTER_TYPE: BUTTERWORTH
FILTER_ORDER: 
LOW_CUT_FREQUENCY_HZ: 
HIGH_CUT_FREQUENCY_HZ: 
LATE/NORMAL_TRIGGERED: 
DATABASE_VERSION: 
HEADER_FORMAT: DYNA 1.2
DATA_TYPE: Acceleration
PROCESSING: Automatic Paolucci et al., 2011
DATA_TIMESTAMP_YYYYMMDD_HHMMSS: 
DATA_LICENSE: U (unknown license)
DATA_CITATION: Turkish Accelerometric Archive v 1.0 - Disaster And Emergency Management Presidency, Earthquake Department
DATA_CREATOR: AFAD
ORIGINAL_DATA_MEDIATOR_CITATION: : AFAD - Disaster And Emergency Management Presidency
ORIGINAL_DATA_MEDIATOR: AFAD PROCESS SERVICE
ORIGINAL_DATA_CREATOR_CITATION: AFAD PROCESS SERVICE
ORIGINAL_DATA_CREATOR: network: TK
USER1: GuestUser
USER2: 
USER3: 
USER4: 
USER5: 
[...]
-0.042940
-0.006312
0.045123
0.095778
0.137082
0.129809
0.091364
0.070843
0.070064
0.084872
0.089288
0.067209
0.015516
-0.055920
-0.120602
-0.183205
-0.239834
-0.307373
-0.381926
-0.429463
-0.464271
-0.478817
-0.487908
-0.519340
-0.556226
-0.598568
-0.639351
-0.641948
-0.572589
-0.473097
-0.401660
-0.356720
-0.357499
-0.396723
-0.444520
-0.484783
-0.509720
-0.554659
-0.608431
-0.639602
-0.641940
-0.611546
-0.544525
-0.445813
-0.361388
-0.320863
-0.318265
-0.316706
-0.285273
-0.257477
-0.219031
-0.130709
-0.031477
0.055026
0.138152
0.206212
0.238164
0.244399
0.237646
0.206474
0.189590
0.217386
0.280250
0.334543
0.314281
0.259990
0.249600
0.289865
0.350651
0.398449
0.440272
0.481836
0.514048
0.535349
0.530414
0.499503
0.441575
0.370399
0.316368
0.287275
0.298965
0.343905
0.397159
0.443917
0.466778
0.463401
0.433788
0.399500
0.382615
0.387552
0.421842
0.457430
0.455353
0.414050
0.350927
0.280791
0.199224
0.129087
0.083629
0.027519
-0.051969
-0.161850
-0.262639
-0.332257
-0.393561
-0.410965
-0.403691
-0.392260
-0.381350
-0.397714
-0.436679
-0.510972
-0.588122
-0.626827
-0.614098
-0.562923
-0.508111
-0.447845
-0.419529
-0.421867
-0.423424
-0.455635
-0.512264
-0.574348
-0.614092
-0.614351
-0.597205
-0.574345
-0.586034
-0.619803
-0.645780
-0.673055
-0.669677
-0.647336
-0.632009
-0.613825
-0.565767
-0.456145
-0.305738
-0.123900
0.050145
0.171197
0.254843
0.294069
0.313812
0.331477
0.337452
0.342648
0.317971
0.263680
0.188088
0.088598
-0.023881
-0.135061
-0.212991
-0.276893
-0.323651
-0.332482
-0.341054
-0.347548
-0.331182
-0.296892
-0.263901
-0.236105
-0.199996
-0.169603
-0.145963
-0.131156
-0.149339
-0.207527
-0.301042
-0.420016
-0.535871
-0.607567
-0.625230
-0.614319
-0.601590
-0.597173
-0.579249
-0.563402
-0.587560
-0.619511
-0.635616
-0.646266
-0.640550
-0.624184
-0.603662
-0.584698
-0.557422
-0.522353
-0.528587
-0.567551
-0.604178
-0.626517
-0.638206
-0.632750
-0.586511
-0.548584
-0.539492
-0.536893
-0.530658
-0.517150
-0.511175
-0.482080
-0.429606
-0.375314
-0.313489
-0.268548
-0.236336
-0.198150
-0.140221
-0.057354
0.034344
0.121887
0.174880
0.194103
0.191766
0.166310
0.154880
0.159297
0.163454
0.158000
0.117217
0.051756
-0.012406
-0.040980
-0.023315
0.013572
0.050720
0.060072
0.052539
0.061112
0.074101
0.072543
0.034878
-0.024089
-0.086692
-0.152153
-0.211899
-0.282296
-0.342821
-0.392956
-0.427244
-0.404124
-0.351911
-0.273460
-0.176566
-0.071619
0.041900
0.129962
0.215426
0.291799
0.342194
0.375445
0.397266
0.437271
0.475718
0.528971
0.614175
0.707692
0.806145
0.863295
0.878362
0.873427
0.849009
0.821734
0.770560
0.705100
0.642496
0.591323
0.565087
0.536773
0.512095
0.477287
0.423775
0.400397
0.408710
0.429752
0.444819
0.442222
0.422220
0.386893
0.359618
0.346630
0.323771
0.267662
0.199084
0.144533
0.097775
0.072319
0.047122
0.011534
-0.008467
-0.017039
0.007640
0.060893
0.119341
0.173373
0.205845
0.229485
0.217536
0.160128
0.096485
0.026868
-0.037554
-0.094182
-0.144057
-0.184840
-0.243547
-0.286928
-0.287966
-0.249780
-0.161198
-0.063785
0.023238
0.099870
0.153643
0.191830
0.218846
0.229757
0.227160
0.270282
0.367955
0.482514
0.608502
0.708253
0.788003
0.870350
0.951138
1.041798
1.097908
1.092714
1.050372
1.006991
1.006472
1.047516
1.109861
1.154802
1.165713
1.157141
1.120255
1.089083
1.079472
1.075057
1.082850
1.101554
1.106491
1.060512
0.986999
0.915044
0.836854
0.777368
0.745417
0.729572
0.711908
0.688789
0.668528
0.636837
0.635539
0.684116
0.742565
0.785687
0.786467
0.761270
0.717629
0.662040
0.618139
0.563069
0.515792
0.472152
0.413445
0.378637
0.356037
0.322788
0.285382
0.271355
0.284344
0.292397
0.307724
0.323831
0.331105
0.338379
0.331885
0.331626
0.347992
0.363839
0.370074
0.356307
0.334746
0.303055
0.265390
0.236816
0.213697
0.207463
0.190579
0.148757
0.106935
0.071347
0.036799
-0.015933
-0.057755
-0.089446
-0.143737
-0.205302
-0.293882
-0.404023
-0.500136
-0.578066
-0.652099
-0.727172
-0.781982
-0.839910
-0.912384
-0.980703
-1.047203
-1.103831
-1.156304
-1.195788
-1.225141
-1.266703
-1.330346
-1.442565
-1.555823
-1.621804
-1.660508
-1.681549
-1.681548
-1.648038
-1.608033
-1.579198
-1.567248
-1.595562
-1.649593
-1.741550
-1.855588
-1.954559
-2.036905
-2.095352
-2.144707
-2.184451
-2.218480
-2.253288
-2.260821
-2.243675
-2.211464
-2.184707
-2.175095
-2.153014
-2.128595
-2.098981
-2.046507
-1.977668
-1.904932
-1.851679
-1.792192
-1.725691
-1.668541
-1.598663
-1.540994
-1.483844
-1.410069
-1.362012
-1.348503
-1.335254
-1.289015
-1.237321
-1.201992
-1.164584
-1.130294
-1.092627
-1.050544
-0.994694
-0.927673
-0.885330
-0.865327
-0.864028
-0.876236
-0.900134
-0.934683
-0.933383
-0.887923
-0.811551
-0.716216
-0.646078
-0.617243
-0.640102
-0.692834
-0.726343
-0.734396
-0.715692
-0.688675
-0.672309
-0.678283
-0.699584
-0.719585
-0.754134
-0.788942
-0.833361
-0.897524
-0.973895
-1.075723
-1.173135
-1.246130
-1.302239
-1.356789
-1.417315
-1.476281
-1.545119
-1.596033
-1.599669
-1.564860
-1.486669
-1.388736
-1.297037
-1.231835
-1.209494
-1.202740
-1.209493
-1.221182
-1.239625
-1.265341
-1.263262
-1.252871
-1.217542
-1.153638
-1.096749
-1.038300
-0.986606
-0.931015
-0.877242
-0.841653
-0.801129
-0.751253
-0.693844
-0.649163
-0.601625
-0.533565
-0.482909
-0.439008
-0.393288
-0.348867
-0.293017
-0.236387
-0.194044
-0.182094
-0.187029
-0.203653
-0.234305
-0.267035
-0.304182
-0.323144
-0.326780
-0.333014
-0.335091
-0.341066
-0.345741
-0.350156
-0.346259
-0.312489
-0.263911
-0.205982
-0.141300
-0.071941
0.007549
0.094831
0.202636
0.314336
0.405775
0.460847
0.451236
0.385515
0.286804
0.190171
0.107046
0.029116
-0.030110
-0.072192
-0.084400
-0.089335
-0.113753
-0.128559
-0.154275
-0.207527
-0.282080
-0.370920
-0.450928
-0.539508
-0.623413
-0.679002
-0.715889
-0.740826
-0.760827
-0.760047
-0.762125
-0.773034
-0.755629
-0.717183
-0.656657
-0.587298
-0.513523
-0.436112
-0.364155
-0.271158
-0.175822
-0.088540
-0.008790
0.037969
0.076155
0.121875
0.177466
0.231758
0.289687
0.355668
0.372034
0.347617
0.308652
0.265012
0.240335
0.240335
0.289952
0.351257
0.388924
0.402173
0.369443
0.318269
0.255146
0.194881
0.180594
0.198259
0.215664
0.202676
0.170466
0.132281
0.080068
0.045519
0.028375
0.021882
0.017726
0.007856
0.007337
-0.007989
-0.045915
-0.102284
-0.172420
-0.227490
-0.261260
-0.264896
-0.279962
-0.340487
-0.389583
-0.418676
-0.450886
-0.483357
-0.506995
-0.509852
-0.511929
-0.519722
-0.538425
-0.549074
-0.552970
-0.576609
-0.590635
-0.604143
-0.610636
-0.604661
-0.599725
-0.556083
-0.493998
-0.431393
-0.370087
-0.322289
-0.278388
-0.250332
-0.216042
-0.160711
-0.095509
-0.017578
0.054638
0.127114
0.199070
0.262714
0.344801
0.445073
0.558332
0.675488
0.791605
0.912138
1.026177
1.166192
1.340237
1.518439
1.678197
1.780805
1.835098
1.854321
1.857179
1.874324
1.913810
1.994338
2.091233
2.175398
2.236444
2.262941
2.259305
2.220860
2.166829
2.110460
2.054870
2.008892
1.967589
1.939015
1.899791
1.828096
1.713019
1.539495
1.354541
1.184653
1.039444
0.915535
0.772144
0.625116
0.470035
0.300407
0.134935
-0.039888
-0.219906
-0.410316
-0.588516
-0.727491
-0.823864
-0.876337
-0.934524
-1.004661
-1.060510
-1.092461
-1.103631
-1.129866
-1.167272
-1.214550
-1.272737
-1.328327
-1.393788
-1.449897
-1.507565
-1.571986
-1.614328
-1.655631
-1.701089
-1.742911
-1.764731
-1.752781
-1.723687
-1.678486
-1.632507
-1.590683
-1.572239
-1.583409
-1.575355
-1.561587
-1.551715
-1.519244
-1.478459
-1.442611
-1.418452
-1.383642
-1.323375
-1.248042
-1.146732
-1.033992
-0.911641
-0.770067
-0.614205
-0.441459
-0.290273
-0.197795
-0.184287
-0.215978
-0.228706
-0.226367
-0.189220
-0.120900
-0.055698
0.000153
0.025351
0.031846
0.023274
0.024833
0.054967
0.093413
0.138094
0.140433
0.096013
0.032630
-0.062704
-0.177781
-0.310781
-0.459368
-0.615488
-0.770049
-0.898893
-0.988253
-1.037348
-1.067741
-1.078910
-1.077870
-1.087221
-1.073453
-1.033188
-0.977078
-0.895770
-0.800434
-0.692110
-0.593138
-0.497024
-0.387661
-0.288948
-0.188417
-0.087107
0.013424
0.107460
0.169286
0.230591
0.287481
0.348008
0.430615
0.501532
0.577385
0.642847
0.683631
0.710648
0.696881
0.651162
0.587000
0.525436
0.477639
0.444389
0.461275
0.507254
0.547519
0.572977
0.596357
0.639998
0.683120
0.745725
0.837943
0.935617
1.030952
1.108364
1.169410
1.173307
1.116678
1.040047
0.946531
0.862367
0.783139
0.705988
0.629617
0.537660
0.440767
0.322573
0.207756
0.115539
0.017348
-0.086559
-0.193583
-0.287618
-0.358014
-0.401655
-0.411266
-0.407109
-0.364246
-0.281120
-0.190720
-0.091228
-0.012778
0.017616
0.011382
-0.001866
0.000733
0.019696
0.062039
0.099446
0.135555
0.198939
0.254270
0.293236
0.320772
0.362595
0.451436
0.561059
0.681592
0.788877
0.861612
0.897461
0.894864
0.869667
0.832001
0.794855
0.741343
0.685494
0.647828
0.614059
0.602110
0.587304
0.565744
0.557692
0.533534
0.496128
0.445994
0.395340
0.365986
0.333256
0.287538
0.253249
0.270135
0.337415
0.441323
0.576403
0.715639
0.855914
0.973070
1.071263
1.181405
1.266870
1.313888
1.331813
1.345581
1.386106
1.418058
1.415720
1.366365
1.258562
1.128939
1.014122
0.936452
0.886317
0.852808
0.817220
0.772801
0.743188
0.698248
0.636164
0.579276
0.540571
0.534597
0.522908
0.519012
0.543171
0.570188
0.604738
0.623182
0.638509
0.657992
0.646043
0.619547
0.573309
0.508888
0.433036
0.364718
0.344456
0.350691
0.389397
0.454600
0.522140
0.596434
0.652025
0.703720
0.734373
0.730217
0.726581
0.735934
0.787368
0.864520
0.945828
1.023759
1.075713
1.125589
1.157022
1.162477
1.156244
1.130268
1.115981
1.118579
1.130789
1.140401
1.144038
1.170276
1.190798
1.187941
1.153393
1.084295
1.001949
0.920642
0.876223
0.853364
0.827647
0.781409
0.687893
0.573856
0.437738
0.285515
0.145760
0.032242
-0.042570
-0.112447
-0.177389
-0.218171
-0.254279
-0.274280
-0.273760
-0.265447
-0.259212
-0.253236
-0.238948
-0.239208
-0.258690
-0.303629
-0.384936
-0.473256
-0.542873
-0.571707
-0.571966
-0.553002
-0.511699
-0.488838
-0.483902
-0.487278
-0.500786
-0.522346
-0.560271
-0.568064
-0.524942
-0.438438
-0.315308
-0.196333
-0.093465
-0.022807
0.035901
0.118768
0.196958
0.255147
0.275929
0.286580
0.338015
0.419323
0.507125
0.571029
0.612073
0.613112
0.570251
0.531287
0.476216
0.410496
0.377506
0.375428
0.385560
0.382963
0.378288
0.364521
0.335947
0.301398
0.232560
0.161385
0.095924
0.025267
-0.018373
-0.051623
-0.088769
-0.129552
-0.142539
-0.119160
-0.104352
-0.095000
-0.093960
-0.098895
-0.100194
-0.084347
-0.023301
0.056448
0.150745
0.248418
0.321414
0.366614
0.379603
0.382461
0.368174
0.347913
0.320898
0.242189
0.125294
-0.017318
-0.172399
-0.313712
-0.436841
-0.541268
-0.632186
-0.699465
-0.757652
-0.807527
-0.814540
-0.789602
-0.737907
-0.680758
-0.627505
-0.548275
-0.475020
-0.418130
-0.362799
-0.315780
-0.265904
-0.232653
-0.197844
-0.133161
-0.065361
-0.010809
0.011532
0.018546
0.009715
-0.016781
-0.029769
-0.041977
-0.040418
-0.048210
-0.083278
-0.110553
-0.144323
-0.180690
-0.213160
-0.232902
-0.235499
-0.244330
-0.247966
-0.228743
-0.159384
-0.042228
0.101684
0.271832
0.414705
0.510301
0.555761
0.543292
0.519135
0.487963
0.447440
0.427438
0.438349
0.454975
0.446923
0.439130
0.431858
0.423805
0.444847
0.482254
0.504335
0.471865
0.414976
0.375752
0.335489
0.310811
0.285355
0.239636
0.170279
0.068191
-0.016233
-0.087669
-0.156766
-0.201446
-0.232098
-0.234175
-0.224823
-0.208197
-0.177544
-0.136760
-0.083247
-0.045840
-0.009991
0.017025
-0.001158
-0.039343
-0.078827
-0.115714
-0.176759
-0.262481
-0.305602
-0.293652
-0.264298
-0.261959
-0.291312
-0.327420
-0.375736
-0.407167
-0.412881
-0.413660
-0.438597
-0.521462
-0.622252
-0.719145
-0.798893
-0.851105
-0.901240
-0.939945
-0.971376
-0.984883
-0.978648
-0.958386
-0.911627
-0.871103
-0.834475
-0.782261
-0.723033
-0.667442
-0.636009
-0.619384
-0.614707
-0.604835
-0.565610
-0.515993
-0.455467
-0.384550
-0.309476
-0.242196
-0.189202
-0.146860
-0.133351
-0.117764
-0.082435
-0.060354
-0.048664
-0.059314
-0.095421
-0.153089
-0.227901
-0.287647
-0.348692
-0.438052
-0.555207
-0.685869
-0.812376
-0.942519
-1.050581
-1.123316
-1.163319
-1.163319
-1.150849
-1.127989
-1.090842
-1.023042
-0.907444
-0.765870
-0.606112
-0.465058
-0.364267
-0.289194
-0.240097
-0.200352
-0.176193
-0.165801
-0.163982
-0.166839
-0.134108
-0.066308
0.011883
0.080722
0.134755
0.187488
0.239962
0.300488
0.343091
0.374004
0.439466
0.520514
0.618448
0.720017
0.801585
0.884192
0.968877
1.080058
1.222412
1.364505
1.482181
1.559852
1.638043
1.731040
1.821440
1.896514
1.935999
1.954184
1.955743
1.972628
2.005360
2.014972
2.020168
2.006660
1.984581
1.962241
1.931589
1.922758
1.919122
1.925097
1.933670
1.918604
1.862235
1.746899
1.642213
1.577531
1.526877
1.501680
1.500642
1.518047
1.539608
1.577016
1.632087
1.666637
1.698589
1.726385
1.729243
1.714956
1.683525
1.658328
1.643262
1.640146
1.659109
1.680930
1.716779
1.768473
1.833156
1.897839
1.940182
1.984603
2.015256
2.030323
2.056820
2.095007
2.156832
2.237880
2.337372
2.438942
2.526484
2.605714
2.655590
2.672216
2.648578
2.589092
2.518695
2.435830
2.360238
2.304388
2.267242
2.225420
2.143334
2.043324
1.925390
1.800183
1.700692
1.645882
1.663027
1.708487
1.753168
1.794731
1.813695
1.824086
1.822269
1.804605
1.750834
1.659656
1.571075
1.488730
1.441453
1.435998
1.462755
1.522502
1.586406
1.651868
1.684599
1.677586
1.653948
1.595760
1.530559
1.477827
1.442759
1.416263
1.378857
1.358336
1.338335
1.314437
1.297293
1.263783
1.233391
1.192348
1.139876
1.113120
1.106627
1.120395
1.131046
1.131047
1.113903
1.062729
1.009218
0.945315
0.892323
0.874919
0.875959
0.902456
0.922719
0.950514
0.993896
1.037278
1.106377
1.179372
1.264057
1.361211
1.451092
1.543829
1.623579
1.697873
1.765673
1.818926
1.848280
1.833474
1.785678
1.712424
1.627480
1.529289
1.422525
1.325632
1.214452
1.107168
1.031317
0.970532
0.920137
0.864288
0.801684
0.715962
0.588156
0.451000
0.315401
0.196948
0.098237
0.001863
-0.099705
-0.228809
-0.367525
-0.523385
-0.713794
-0.913036
-1.113056
-1.323727
-1.556479
-1.771306
-1.945870
-2.099392
-2.209013
-2.279670
-2.323310
-2.339155
-2.320711
-2.254729
-2.169525
-2.074709
-1.962229
-1.832344
-1.675704
-1.496723
-1.271763
-0.995369
-0.683907
-0.371146
-0.113715
0.104490
0.284250
0.424526
0.568178
0.702219
0.815738
0.883798
0.904060
0.939649
1.011086
1.122787
1.253191
1.358398
1.410612
1.396585
1.354763
1.316837
1.297875
1.290342
1.268522
1.225402
1.124612
0.969012
0.797566
0.619625
0.458830
0.342194
0.293618
0.295437
0.317259
0.356224
0.369213
0.339341
0.269724
0.170753
0.095161
0.056716
0.059054
0.103215
0.172834
0.253103
0.329215
0.412602
0.495988
0.580153
0.683801
0.793684
0.899670
0.982536
1.040725
1.064105
1.052416
1.054754
1.072938
1.110605
1.153987
1.176588
1.193993
1.190097
1.176590
1.169057
1.145679
1.105935
1.054761
1.011640
0.971896
0.910851
0.843312
0.792139
0.778891
0.791880
0.804090
0.798376
0.750060
0.692132
0.650570
0.629789
0.613684
0.564069
0.504063
0.430549
0.358075
0.323266
0.317292
0.341711
0.380158
0.432112
0.465103
0.438347
0.384576
0.326389
0.305088
0.336781
0.402243
0.489266
0.576548
0.680716
0.791378
0.906196
1.047770
1.203631
1.371442
1.526264
1.654330
1.735898
1.743172
1.718235
1.674595
1.596665
1.486005
1.354043
1.223121
1.071157
0.890619
0.720472
0.575522
0.457848
0.363033
0.292896
0.241463
0.182496
0.129244
0.094696
0.075733
0.058589
0.043004
0.061188
0.100414
0.160161
0.256795
0.386160
0.518643
0.616056
0.696845
0.777633
0.872709
0.991423
1.114554
1.230671
1.305745
1.324448
1.287042
1.203138
1.114818
1.033771
0.969868
0.928826
0.888562
0.827777
0.705167
0.523590
0.326947
0.144330
0.016006
-0.046858
-0.053351
-0.035946
-0.028412
-0.028412
-0.054907
-0.104263
-0.161411
-0.216741
-0.252588
-0.297787
-0.362469
-0.461440
-0.607429
-0.767965
-0.924864
-1.042538
-1.126183
-1.195800
-1.232167
-1.239699
-1.222035
-1.211643
-1.219955
-1.242035
-1.291130
-1.338927
-1.390880
-1.452444
-1.546739
-1.696105
-1.862096
-2.028347
-2.149918
-2.211482
-2.224730
-2.176412
-2.084974
-1.950153
-1.797409
-1.654536
-1.525171
-1.425160
-1.328006
-1.225397
-1.109800
-0.966667
-0.814702
-0.655983
-0.519864
-0.437257
-0.394395
-0.360884
-0.302436
-0.232818
-0.152808
-0.072280
-0.054355
-0.082929
-0.134362
-0.209694
-0.272038
-0.313860
-0.317496
-0.286583
-0.240604
-0.196183
-0.169426
-0.140591
-0.115133
-0.072271
-0.002133
0.079695
0.177628
0.265690
0.344140
0.392198
0.395056
0.376353
0.330894
0.266213
0.167242
0.040995
-0.093824
-0.238514
-0.334367
-0.350992
-0.290465
-0.185519
-0.098236
-0.043944
-0.043424
-0.082388
-0.135380
-0.197984
-0.237468
-0.259547
-0.258767
-0.229673
-0.194603
-0.152780
-0.118490
-0.109398
-0.133036
-0.175897
-0.232526
-0.317210
-0.409686
-0.503202
-0.599056
-0.684259
-0.764787
-0.831806
-0.865056
-0.843754
-0.785825
-0.739846
-0.701919
-0.687112
-0.718543
-0.778549
-0.858297
-0.932330
-0.985582
-1.006622
-0.997010
-0.973890
-0.931288
-0.878554
-0.804260
-0.710223
-0.608134
-0.491757
-0.386551
-0.287059
-0.181852
-0.076905
0.021807
0.099219
0.153770
0.148835
0.071945
-0.032481
-0.116386
-0.148856
-0.136387
-0.072483
0.010643
0.064416
0.097147
0.114293
0.138711
0.188587
0.260284
0.345229
0.417185
0.495895
0.583957
0.670980
0.774109
0.869704
0.958285
1.037256
1.103237
1.169479
1.215198
1.236500
1.223253
1.177274
1.093630
0.950498
0.785286
0.632024
0.519285
0.456162
0.410444
0.353036
0.266534
0.173537
0.109635
0.092231
0.140549
0.239001
0.363431
0.509421
0.648657
0.773606
0.900633
1.037272
1.156766
1.238593
1.311329
1.351074
1.334969
1.268469
1.165342
1.068969
0.992338
0.950256
0.932852
0.917267
0.890511
0.828167
0.750497
0.670749
0.603730
0.552037
0.493070
0.444234
0.387346
0.295129
0.185767
0.082900
0.000554
-0.088026
-0.181283
-0.250900
-0.300775
-0.359481
-0.462089
-0.587816
-0.723155
-0.858753
-0.942657
-0.955645
-0.916160
-0.858491
-0.790431
-0.715097
-0.651713
-0.584173
-0.517412
-0.464159
-0.421816
-0.401554
-0.412983
-0.476885
-0.561829
-0.624692
-0.668073
-0.677683
-0.660538
-0.625209
-0.594296
-0.589360
-0.605984
-0.654041
-0.705474
-0.773013
-0.855878
-0.905234
-0.937185
-0.957186
-0.988358
-1.039791
-1.087847
-1.126552
-1.132526
-1.123434
-1.094599
-1.028617
-0.950686
-0.841323
-0.703646
-0.549603
-0.373739
-0.205669
-0.055522
0.061634
0.144241
0.206845
0.227368
0.221653
0.209185
0.186846
0.157492
0.122165
0.095149
0.069693
0.056965
0.073331
0.112816
0.168667
0.213088
0.254911
0.289721
0.322972
0.387654
0.476755
0.609497
0.749513
0.857058
0.962004
1.077342
1.219695
1.380492
1.548563
1.703905
1.791187
1.792227
1.713778
1.588830
