EVENT_NAME: 202302060117
EVENT_ID: 13194
EVENT_DATE_YYYYMMDD: 2023/02/06
EVENT_TIME_HHMMSS: 01:17:32.00000
EVENT_LATITUDE_DEGREE: 37.288
EVENT_LONGITUDE_DEGREE: 37.043
EVENT_DEPTH_KM: 8.6
HYPOCENTER_REFERENCE: AFAD
MAGNITUDE_W: 7.7
MAGNITUDE_W_REFERENCE: AFAD
MAGNITUDE_L: 
MAGNITUDE_L_REFERENCE: 
FOCAL_MECHANISM: 
NETWORK: TK
STATION_CODE: 1302
STATION_NAME: 
STATION_LATITUDE_DEGREE: 38.4744
STATION_LONGITUDE_DEGREE: 42.15913
STATION_ELEVATION_M: 1794.0
LOCATION: Kahramanmaras_Pazarck_Turkiye
SENSOR_DEPTH_M: 
VS30_M/S: None
SITE_CLASSIFICATION_EC8: unknown
MORPHOLOGIC_CLASSIFICATION: 
EPICENTRAL_DISTANCE_KM: 467.92
EARTHQUAKE_BACKAZIMUTH_DEGREE: 
DATE_TIME_FIRST_SAMPLE_YYYYMMDD_HHMMSS: 2023/02/06 01:18:11.3562640
DATE_TIME_FIRST_SAMPLE_PRECISION: millisecond
SAMPLING_INTERVAL_S: 0.01
NDATA: 24501
DURATION_S: 
STREAM: HNN
UNITS: cm/s^2
INSTRUMENT: sensor = CMG-5T/GURALP | digitizer = 
INSTRUMENT_ANALOG/DIGITAL: 
INSTRUMENTAL_FREQUENCY_HZ: 
INSTRUMENTAL_DAMPING: 
FULL_SCALE_G: 
N_BIT_DIGITAL_CONVERTER: 
PGA_CM/S^2: 15.763
TIME_PGA_S: 
BASELINE_CORRECTION: BASELINE REMOVED
FILTER_TYPE: BUTTERWORTH
FILTER_ORDER: 
LOW_CUT_FREQUENCY_HZ: 
HIGH_CUT_FREQUENCY_HZ: 
LATE/NORMAL_TRIGGERED: 
DATABASE_VERSION: 
HEADER_FORMAT: DYNA 1.2
DATA_TYPE: Acceleration
PROCESSING: Automatic Paolucci et al., 2011
DATA_TIMESTAMP_YYYYMMDD_HHMMSS: 
DATA_LICENSE: U (unknown license)
DATA_CITATION: Turkish Accelerometric Archive v 1.0 - Disaster And Emergency Management Presidency, Earthquake Department
DATA_CREATOR: AFAD
ORIGINAL_DATA_MEDIATOR_CITATION: : AFAD - Disaster And Emergency Management Presidency
ORIGINAL_DATA_MEDIATOR: AFAD PROCESS SERVICE
ORIGINAL_DATA_CREATOR_CITATION: AFAD PROCESS SERVICE
ORIGINAL_DATA_CREATOR: network: TK
USER1: GuestUser
USER2: 
USER3: 
USER4: 
USER5: 
[...]
-1.360256
-0.869738
-0.349939
0.131449
0.490680
0.718623
0.834798
0.839520
0.720196
0.483437
0.171747
-0.179298
-0.535696
-0.808976
-0.906891
-0.824403
-0.561513
-0.119480
0.435580
1.003549
1.530274
2.014496
2.411507
2.671564
2.830872
2.874949
2.812296
2.702732
2.597576
2.463139
2.308239
2.196156
2.111779
2.023624
1.922875
1.835980
1.663763
1.344516
0.839830
0.187799
-0.587649
-1.527758
-2.587505
-3.708016
-4.858436
-5.920702
-6.785249
-7.491118
-7.966524
-8.274437
-8.421467
-8.331423
-8.189431
-7.981638
-7.617369
-7.213432
-6.814216
-6.308900
-5.688039
-5.044509
-4.416406
-3.838992
-3.363901
-2.980427
-2.640402
-2.370900
-2.148624
-1.914069
-1.610250
-1.197182
-0.694385
-0.156641
0.363158
0.765207
1.030930
1.162847
1.194016
1.160328
1.062413
0.948127
0.882010
0.912550
1.052338
1.296967
1.633530
2.056987
2.540579
3.062897
3.550896
4.050230
4.387107
4.678018
4.861254
4.841734
4.846141
4.772784
4.737522
4.700056
4.654089
4.644329
4.626383
4.597103
4.607177
4.628586
4.614104
4.613789
4.587027
4.497298
4.324766
4.034485
3.612601
3.061003
2.377173
1.592595
0.785978
-0.059364
-0.892112
-1.574682
-2.156504
-2.657098
-3.029552
-3.196732
-3.233253
-3.226012
-3.197992
-3.150766
-3.036480
-2.794684
-2.426323
-2.023644
-1.623170
-1.254494
-0.973028
-0.838592
-0.846464
-0.980585
-1.265199
-1.681101
-2.168157
-2.639156
-2.996813
-3.229794
-3.319838
-3.282372
-3.170919
-3.039002
-2.879064
-2.689846
-2.429160
-2.057336
-1.572484
-0.978384
-0.334224
0.301120
0.887664
1.383535
1.798177
2.186373
2.603219
3.054698
3.571033
4.152855
4.752937
5.422599
6.037793
6.709659
7.196084
7.370820
7.399784
7.071408
6.514458
5.851722
5.162540
4.497916
3.899092
3.346865
2.727892
2.059489
1.398013
0.724258
0.032558
-0.598694
-1.143680
-1.616253
-2.013580
-2.386034
-2.748098
-3.051288
-3.287732
-3.453967
-3.561013
-3.606350
-3.620832
-3.657983
-3.750231
-3.899150
-4.088683
-4.302144
-4.498289
-4.631781
-4.675543
-4.615724
-4.472473
-4.322295
-4.199823
-4.098760
-4.035477
-3.957712
-3.806590
-3.513475
-3.031143
-2.362426
-1.554865
-0.695985
0.128577
0.864040
1.523627
2.125598
2.665861
3.188808
3.746387
4.318764
4.881380
5.400864
5.894531
6.338453
6.712796
6.987335
7.032357
6.760966
6.179459
5.415345
4.589208
3.778498
3.083649
2.528274
2.109538
1.712841
1.299458
0.868129
0.400278
-0.074813
-0.520940
-0.925193
-1.315908
-1.691825
-2.067113
-2.385730
-2.676012
-2.809818
-2.811707
-2.696162
-2.434531
-2.100173
-1.736849
-1.421381
-1.157546
-0.949123
-0.746052
-0.531018
-0.303075
-0.007441
0.374772
0.715743
1.027118
1.323381
1.635386
1.911814
2.205558
2.585253
3.050270
3.571957
4.100886
4.622889
5.146465
5.677283
6.146707
6.544978
6.810701
7.008735
6.910190
6.615501
6.278309
5.869648
5.493730
5.173539
4.853978
4.380460
3.800842
3.038618
2.138494
1.216961
0.379804
-0.338658
-0.991633
-1.582271
-2.123164
-2.639814
-3.107664
-3.523566
-3.911133
-4.273513
-4.643448
-4.994808
-5.355928
-5.697843
-6.007330
-6.234329
-6.373488
-6.466680
-6.544131
-6.568373
-6.530278
-6.476756
-6.363414
-6.212292
-5.980256
-5.639600
-5.186233
-4.678398
-4.155766
-3.636912
-3.168433
-2.747179
-2.349852
-1.996919
-1.707897
-1.481843
-1.279087
-1.082313
-0.922060
-0.784791
-0.697581
-0.693803
-0.745751
-0.798015
-0.864761
-0.951656
-1.055238
-1.098686
-1.061850
-0.965195
-0.838630
-0.703250
-0.569758
-0.434063
-0.279163
-0.117651
0.117534
0.458189
0.896129
1.354534
1.818291
2.237656
2.551236
2.712748
2.693542
2.518807
2.236711
1.895426
1.500618
1.047880
0.558620
0.110919
-0.219346
-0.386211
-0.382433
-0.212421
0.055822
0.383254
0.742170
1.112105
1.389792
1.567361
1.683537
1.733596
1.765709
1.819231
1.942018
2.097234
2.309435
2.603179
2.949187
3.314714
3.643405
3.849939
3.872293
3.729986
3.493542
3.229392
2.950759
2.615456
2.204591
1.706831
1.130991
0.477386
-0.216204
-0.886181
-1.459502
-1.993154
-2.496896
-2.887926
-3.273603
-3.623074
-3.921856
-4.167431
-4.349722
-4.423710
-4.333981
-4.110446
-3.764753
-3.386947
-3.085646
-2.932005
-2.897688
-3.025828
-3.303515
-3.640708
-3.973178
-4.313204
-4.673694
-5.042370
-5.422696
-5.730608
-6.002314
-6.203811
-6.303300
-6.278113
-6.120379
-5.874490
-5.531316
-5.119193
-4.631508
-4.047797
-3.370264
-2.637320
-1.846446
-1.059979
-0.390632
0.110906
0.404335
0.498472
0.464469
0.384185
0.341367
0.380721
0.508546
0.711302
0.972618
1.269825
1.609851
2.026697
2.486676
2.966490
3.421432
3.849297
4.258272
4.634504
5.032145
5.443325
5.949900
6.604764
7.291427
7.971478
8.659715
9.127251
9.592582
9.927570
9.918125
9.935441
9.685773
9.222646
8.613747
7.814057
6.921174
5.946749
4.902429
3.853701
2.836772
1.833696
0.923182
0.118769
-0.588044
-1.231259
-1.659125
-1.973335
-2.175146
-2.277469
-2.359957
-2.464169
-2.595457
-2.737764
-2.920685
-3.082198
-3.239302
-3.411834
-3.587199
-3.748082
-3.938245
-4.174059
-4.476305
-4.796181
-5.124243
-5.429007
-5.669229
-5.828538
-5.898432
-5.881746
-5.773441
-5.573519
-5.293313
-4.943527
-4.504642
-3.992085
-3.409004
-2.766104
-2.091405
-1.437170
-0.826068
-0.264396
0.252254
0.725771
1.172842
1.585595
1.978198
2.369858
2.773795
3.178048
3.528148
3.803002
4.000091
4.124767
4.177030
4.187105
4.157825
4.132952
4.147435
4.236849
4.383563
4.578763
4.793168
5.001906
5.199624
5.323041
5.364914
5.319577
5.178844
4.937993
4.634803
4.297296
3.963252
3.630467
3.312795
2.992918
2.645336
2.331442
2.120500
2.017862
2.027937
2.073588
2.114832
2.128370
2.031085
1.797789
1.387554
0.825252
0.191796
-0.517535
-1.252999
-1.899048
-2.459146
-2.900550
-3.266078
-3.477964
-3.655219
-3.719761
-3.682925
-3.635384
-3.511968
-3.461594
-3.329991
-3.196185
-3.121569
-3.084418
-3.030266
-2.927943
-2.800434
-2.664109
-2.521802
-2.335733
-2.068120
-1.715816
-1.274727
-0.682515
-0.004983
0.764168
1.603527
2.469648
3.316249
4.104290
4.784971
5.305400
5.627479
5.763804
5.722875
5.530194
5.236134
4.870921
4.462890
3.993780
3.463277
2.887437
2.312541
1.772593
1.258776
0.765109
0.285294
-0.198298
-0.682835
-1.175243
-1.679300
-2.192487
-2.691191
-3.143615
-3.525199
-3.819889
-4.011940
-4.158655
-4.241773
-4.239254
-4.180065
-4.034295
-3.866171
-3.692380
-3.509459
-3.353614
-3.221697
-3.115911
-3.041925
-3.000681
-2.991236
-2.987773
-2.951567
-2.862782
-2.681435
-2.371634
-1.961715
-1.463640
-0.881503
-0.228528
0.473247
1.209654
1.971249
2.740085
3.488456
4.187398
4.793147
5.266035
5.642896
5.933807
6.171195
6.368599
6.541760
6.690678
6.792686
6.826059
6.769073
6.682177
6.567576
6.446048
6.320112
6.174656
6.030460
5.864855
5.642579
5.348204
4.976065
4.536235
4.036586
3.497897
2.959837
2.460818
2.068214
1.799027
1.612957
1.504337
1.449870
1.385328
1.272615
1.073637
0.769503
0.389807
-0.031762
-0.463406
-0.883716
-1.301822
-1.692851
-2.063102
-2.443427
-2.825327
-3.219190
-3.629740
-4.061699
-4.524826
-4.978509
-5.402597
-5.752698
-5.991975
-6.120115
-6.142468
-6.084538
-5.942231
-5.767496
-5.548683
-5.285793
-4.978196
-4.571110
-4.105779
-3.576220
-3.013289
-2.413836
-1.788252
-1.141574
-0.469393
0.211288
0.933842
1.709919
2.561558
3.435235
4.270187
5.020447
5.673108
6.157014
6.482243
6.619197
6.540173
6.231945
5.780467
5.235166
4.673808
4.127563
3.521498
2.948807
2.290794
1.633410
0.949896
0.297235
-0.245862
-0.695767
-1.031700
-1.300887
-1.511199
-1.708603
-1.828872
-1.870746
-1.859726
-1.790777
-1.641544
-1.457048
-1.227846
-0.933472
-0.581168
-0.185731
0.218522
0.609866
0.921871
1.118330
1.187280
1.116756
0.917778
0.574603
0.158701
-0.310723
-0.781407
-1.092468
-1.230368
-1.173697
-0.898213
-0.456495
0.053859
0.577120
1.124624
1.615773
1.993264
2.272211
2.427111
2.444742
2.426481
2.406017
2.395627
2.392793
2.403182
2.435611
2.394052
2.263708
2.030728
1.739502
1.375233
0.984518
0.575543
0.169401
-0.228241
-0.643513
-1.090269
-1.593382
-2.097754
-2.658167
-3.245341
-3.887612
-4.544680
-5.170265
-5.828593
-6.411674
-6.947215
-7.447809
-7.809243
-8.060170
-8.189254
-8.236480
-8.171624
-8.019242
-7.785632
-7.474571
-7.116285
-6.712347
-6.283537
-5.816946
-5.336188
-4.797814
-4.177267
-3.476122
-2.731843
-1.947895
-1.152298
-0.396056
0.277069
0.854483
1.359484
1.816315
2.236309
2.589558
2.828835
2.989088
3.088892
3.093299
3.017108
2.924545
2.864096
2.876375
2.969252
3.102743
3.268663
3.482438
3.734309
3.988699
4.242144
4.518572
4.813575
5.085911
5.323299
5.518813
5.679381
5.783907
5.853801
5.882766
5.874265
5.821687
5.793666
5.752422
5.756830
5.773201
5.758718
5.709603
5.594687
5.412081
5.126522
4.782088
4.289051
3.844183
3.331311
2.864090
2.456689
2.071326
1.724374
1.293989
0.890681
0.456518
0.016373
-0.429438
-0.850693
-1.238889
-1.542079
-1.792691
-2.001744
-2.171442
-2.304304
-2.417961
-2.518080
-2.595215
-2.644330
-2.656609
-2.632367
-2.571603
-2.481874
-2.362236
-2.241338
-2.135238
-2.083919
-2.091790
-2.182779
-2.359403
-2.606552
-2.916668
-3.251027
-3.585071
-3.916596
-4.238362
-4.533366
-4.714083
-4.779885
-4.719436
-4.562332
-4.352964
-4.129429
-3.962879
-3.820258
-3.697785
-3.609316
-3.569017
-3.495974
-3.430803
-3.453786
-3.517069
-3.578463
-3.599557
-3.550128
-3.420100
-3.240642
-2.998216
-2.712658
-2.386800
-1.997974
-1.585221
-1.127131
-0.624649
-0.122796
0.321756
0.694210
1.050922
1.360093
1.615113
1.831407
2.020310
2.161357
2.236603
2.264624
2.253604
2.201971
2.118853
2.008974
1.820386
1.533567
1.154816
0.689485
0.161185
-0.380338
-0.940121
-1.487940
-1.987904
-2.390583
-2.674883
-2.829154
-2.835766
-2.722109
-2.497629
-2.171771
-1.743276
-1.245831
-0.675973
-0.079354
0.485151
1.010617
1.533878
2.035731
2.502322
2.960727
3.399926
3.790326
4.093201
4.303828
4.451802
4.546883
4.586867
4.603868
4.605127
4.570180
4.502175
4.420002
4.350107
4.278639
4.198040
4.116497
3.961596
3.750654
3.469817
3.160646
2.775283
2.364104
1.935293
1.415809
0.911437
0.355432
-0.181998
-0.677869
-1.087159
-1.404202
-1.657332
-1.836476
-2.017823
-2.224357
-2.432466
-2.609091
-2.746046
-2.810902
-2.797050
-2.706062
-2.553050
-2.341164
-2.078589
-1.777288
-1.450801
-1.093144
-0.692670
-0.297862
0.024847
0.275144
0.476326
0.627133
0.758421
0.927489
1.142209
1.384634
1.648154
1.945047
2.263663
2.577557
2.875080
3.140488
3.345763
3.489329
3.549463
3.513257
3.331909
3.015811
2.612188
2.165746
1.703248
1.216193
0.822644
0.448616
0.175336
-0.046311
-0.206879
-0.299757
-0.446786
-0.495587
-0.570518
-0.657729
-0.763830
-0.888191
-1.028294
-1.188548
-1.280795
-1.322669
-1.261905
-1.145730
-0.982959
-0.781147
-0.577132
-0.429158
-0.348874
-0.335966
-0.284963
-0.180751
-0.342264
-0.592560
-0.559503
-0.471348
-0.598543
-0.730775
-0.687643
-0.640102
-0.751240
-0.942977
-1.085285
-1.197052
-1.597213
-1.969037
-2.023819
-2.179035
-2.288284
-2.219335
-2.032321
-1.944481
-1.721575
-1.441684
-1.246799
-1.024523
-0.904255
-0.581545
-0.380993
-0.287172
-0.034986
0.455218
0.867656
1.141880
1.693163
2.233740
2.621621
2.958184
3.345120
3.707814
4.027690
4.374642
4.771968
5.174017
5.530100
5.851865
6.058713
6.141831
6.295157
6.462651
6.495709
6.448483
6.388034
6.308064
6.172683
6.006134
5.824472
5.609437
5.435960
5.343083
5.047764
4.641622
4.238313
3.838468
3.323707
2.755423
2.308037
1.803035
1.229084
0.643799
0.123056
-0.343850
-0.708748
-1.044367
-1.368651
-1.557239
-1.679712
-1.808796
-1.890969
-2.037998
-2.168972
-2.155119
-2.142525
-2.200141
-2.296797
-2.355987
-2.510258
-2.665473
-2.771259
-2.815337
-2.723089
-2.601247
-2.413603
-2.120489
-1.787075
-1.485459
-1.035870
-0.483328
0.064491
0.755876
1.465837
2.077883
2.669150
3.235230
3.750621
4.136928
4.434765
4.674357
4.833035
4.979120
4.985417
4.981953
5.033587
5.024456
5.066959
5.213989
5.440043
5.629261
5.798644
6.040754
6.199118
6.290106
6.300181
6.190302
6.033512
5.775344
5.469951
5.053104
4.567623
4.010988
3.377532
2.802007
2.247576
1.691571
1.182161
0.683142
0.157991
-0.302618
-0.739614
-1.176611
-1.623997
-1.957726
-2.265638
-2.571032
-2.792678
-3.158206
-3.415430
-3.651244
-3.864075
-4.021495
-4.203472
-4.334445
-4.545072
-4.733346
-5.005681
-5.261645
-5.416231
-5.518239
-5.657398
-5.790890
-5.882823
-5.960903
-6.034575
-6.117693
-6.113285
-6.041817
-5.905807
-5.780816
-5.597895
-5.355785
-5.098876
-4.802928
-4.444327
-4.102727
-3.775295
-3.408823
-3.069113
-2.765293
-2.504922
-2.305629
-2.098781
-1.777960
-1.376226
-0.972603
-0.550090
-0.070276
0.409538
0.896278
1.359406
1.746657
2.038198
2.244417
2.388298
2.507936
2.562403
2.561773
2.578775
2.596090
2.621907
2.623481
2.597664
2.523677
2.420724
2.334773
2.313049
2.308012
2.262675
2.167593
2.081957
2.025601
1.924537
1.872274
1.867551
1.889590
1.924222
1.988134
2.080381
2.119421
2.135163
2.117847
2.060231
1.946889
1.764912
1.546729
1.325082
1.109417
0.915162
0.742630
0.563487
0.372379
0.157659
-0.098935
-0.374419
-0.668163
-0.942388
-1.238336
-1.571751
-1.904535
-2.245821
-2.601274
-3.095256
-3.678022
-4.338554
-5.087870
-5.911803
-6.816650
-7.802410
-8.846100
-9.914663
-10.970946
-12.015896
-12.994100
-13.851406
-14.576794
-15.113280
-15.423711
-15.648821
-15.763107
-15.581131
-15.360429
-14.961843
-14.387263
-13.603315
-12.822830
-12.036048
-11.026361
-10.054454
-8.998486
-7.980927
-7.025392
-6.218776
-5.520464
-4.887953
-4.397434
-3.945011
-3.527536
-3.085817
-2.539887
-1.966881
-1.422210
-0.833462
-0.182376
0.454228
1.037938
1.637076
2.232751
2.770495
3.229844
3.612688
3.926582
4.132172
4.261570
4.325167
4.319815
4.288960
4.242679
4.136578
3.972232
3.826147
3.666209
3.485491
3.224175
2.919726
2.587256
2.197800
1.764267
1.291379
0.758987
0.188184
-0.381359
-0.984590
-1.594118
-2.158939
-2.582712
-2.966185
-3.225298
-3.350918
-3.383977
-3.318490
-3.239781
-3.068824
-2.901015
-2.715575
-2.477557
-2.214982
-1.945795
-1.679757
-1.421589
-1.193016
-0.973889
-0.729889
-0.427015
-0.061802
0.368582
0.856267
1.431163
2.037227
2.659663
3.287451
3.852586
4.324844
4.685964
4.861958
4.833937
4.600642
4.191666
3.637550
2.963795
2.249426
1.445957
0.645637
-0.119421
-0.829697
-1.458115
-1.994286
-2.422781
-2.736361
-2.929042
-3.064423
-3.099685
-3.089925
-3.015623
-2.894096
-2.755252
-2.631836
-2.530773
-2.473472
-2.504641
-2.543996
-2.564146
-2.517865
-2.414598
-2.234826
-1.960601
-1.609241
-1.224509
-0.812385
-0.370352
0.098758
0.564719
0.976842
1.300811
1.514586
1.620372
1.601796
1.503881
1.334813
1.166374
1.059958
1.018714
1.051772
1.112851
1.186523
1.239415
1.258305
1.234692
1.140870
0.972431
0.705763
0.362589
-0.044498
-0.460085
-0.849226
-1.210976
-1.514166
-1.789020
-2.063559
-2.358878
-2.661753
-2.941960
-3.191942
-3.370456
-3.477501
-3.490724
-3.447277
-3.381476
-3.302766
-3.215871
-3.111659
-3.018153
-2.893162
-2.774153
-2.657348
-2.531728
-2.356048
-2.143217
-1.875919
-1.542505
-1.168792
-0.758872
-0.310227
0.170216
0.622010
1.036652
1.400605
1.730871
1.938035
2.065229
2.134808
2.101120
1.979593
1.792893
1.587933
1.349600
1.068449
0.759277
0.423974
0.096226
-0.227428
-0.540063
-0.857735
-1.209095
-1.586587
-2.008786
-2.426892
-2.838386
-3.216822
-3.543940
-3.798330
-3.984714
-4.103094
-4.146227
-4.156617
-4.146542
-4.116633
-4.034775
-3.916081
-3.727808
-3.468381
-3.146616
-2.745826
-2.321109
-1.845703
-1.347943
-0.814922
-0.286622
0.253641
0.822239
1.396504
2.021144
2.644525
3.264442
3.835244
4.382748
4.909788
5.428642
5.916012
6.372213
6.786855
7.088471
7.266039
7.300357
7.168124
6.899252
6.527742
6.077837
5.603061
5.132377
4.731272
4.390616
4.130874
3.960232
3.896634
3.934414
4.008401
4.080814
4.107575
4.043033
3.898522
3.672468
3.392891
3.095683
2.773288
2.440503
2.078439
1.680482
1.229633
0.767135
0.363512
0.046784
-0.209810
-0.423586
-0.631379
-0.873805
-1.178569
-1.549135
-1.995891
-2.501837
-3.026988
-3.554028
-4.035101
-4.462023
-4.811179
-5.084774
-5.299494
-5.464470
-5.577497
-5.678246
-5.824961
-6.027087
-6.293441
-6.652042
-7.110133
-7.616079
-8.134303
-8.634897
-9.111248
-9.565246
-9.980833
-10.340064
-10.617752
-10.798155
-10.914015
-10.945499
-10.900792
-10.801618
-10.643570
-10.447740
-10.203740
-9.894884
-9.504484
-9.096453
-8.658828
-8.208294
-7.776335
-7.369564
-6.978535
-6.608285
-6.275185
-5.916270
-5.548538
-5.183955
-4.839522
-4.502959
-4.206696
-3.997014
-3.838021
-3.689417
-3.578279
-3.497051
-3.375524
-3.238254
-3.117671
-3.015978
-2.899173
-2.727586
-2.496495
-2.176934
-1.763866
-1.272718
-0.689007
-0.011160
0.712654
1.455044
2.190192
2.868354
3.462140
3.924008
4.244199
4.451677
4.609726
4.753292
4.913545
5.132357
5.411304
5.726772
6.043185
6.346060
6.619654
6.857043
7.044371
7.144175
7.173455
7.146693
7.132525
7.162750
7.235477
7.389433
7.619580
7.910176
8.222496
8.521278
8.752684
8.893416
8.842098
8.589282
8.121432
7.414933
6.556368
5.608704
4.651909
3.722190
2.818288
1.956260
1.154680
0.450071
-0.192200
-0.756706
-1.268319
-1.781506
-2.286193
-2.806306
-3.386239
-4.019380
-4.646539
-5.275901
-5.868428
-6.437656
-6.980753
-7.536444
-8.055928
-8.580764
-9.104341
-9.628862
-10.129141
-10.666886
-11.162127
-11.626199
-11.987634
-12.230060
-12.271304
-12.036120
-11.630608
-10.980152
-10.146774
-9.143698
-8.103786
-6.948328
-5.919751
-4.733124
-4.019070
-3.329888
-2.536495
-2.212841
-1.903670
-1.732398
-1.534679
-1.476119
-1.430468
-1.463841
-1.458804
-1.567738
-1.663134
-1.777736
-1.912172
-1.913747
-1.911543
-1.851094
-1.714769
-1.474862
-1.206305
-0.832907
-0.396225
0.070995
0.528770
0.973952
1.330979
1.529957
1.604888
1.527437
1.233378
0.998508
0.739711
0.423612
0.242895
0.175519
0.165759
0.122626
0.132701
0.034471
-0.026293
-0.075093
-0.051481
0.155368
0.507043
1.014877
1.606144
2.253452
2.803160
3.322959
3.699191
3.964285
4.055273
4.036382
3.743897
3.398519
2.878405
2.303825
1.572769
0.860289
0.101528
-0.613471
-1.264558
-1.898328
-2.286839
-2.571454
-2.632532
-2.587826
-2.235521
-1.886995
-1.416941
-1.169163
-0.921700
-1.073138
-1.240947
-1.807342
-2.263858
-3.040880
-3.639703
-4.411688
-4.980917
-5.610594
-6.009180
-6.275219
-6.356762
-6.029960
-5.965733
-4.336128
-5.960696
-4.869150
-3.273863
-3.432227
-2.948005
-2.493693
-1.541307
-1.480228
-0.933983
-1.001044
-0.927057
-1.349886
-1.382944
-1.612461
-1.695579
-1.701246
-1.449376
-1.186171
-0.923595
-0.452597
0.075072
0.714195
1.173544
1.678230
2.100744
2.466586
2.578668
2.729476
2.731680
2.776072
2.749625
2.822353
2.849743
2.973790
3.088076
3.216215
3.254625
3.236679
3.148839
2.989845
2.797479
2.613613
2.438247
2.274531
2.207470
2.206526
2.265085
2.325849
2.437617
2.441080
2.358592
2.229823
2.100109
1.913409
1.784325
1.747804
1.870591
2.133481
2.543716
3.098146
3.726249
4.397485
5.113113
5.819296
6.390098
6.820797
7.117690
7.264405
7.267238
