EVENT_NAME: 202302060117
EVENT_ID: 13194
EVENT_DATE_YYYYMMDD: 2023/02/06
EVENT_TIME_HHMMSS: 01:17:32.00000
EVENT_LATITUDE_DEGREE: 37.288
EVENT_LONGITUDE_DEGREE: 37.043
EVENT_DEPTH_KM: 8.6
HYPOCENTER_REFERENCE: AFAD
MAGNITUDE_W: 7.7
MAGNITUDE_W_REFERENCE: AFAD
MAGNITUDE_L: 
MAGNITUDE_L_REFERENCE: 
FOCAL_MECHANISM: 
NETWORK: TK
STATION_CODE: 99006
STATION_NAME: 
STATION_LATITUDE_DEGREE: 35.35109
STATION_LONGITUDE_DEGREE: 33.58497
STATION_ELEVATION_M: 15.0
LOCATION: Kahramanmaras_Pazarck_Turkiye
SENSOR_DEPTH_M: 
VS30_M/S: 679
SITE_CLASSIFICATION_EC8: B
MORPHOLOGIC_CLASSIFICATION: 
EPICENTRAL_DISTANCE_KM: 377.28
EARTHQUAKE_BACKAZIMUTH_DEGREE: 
DATE_TIME_FIRST_SAMPLE_YYYYMMDD_HHMMSS: 2023/02/06 01:18:00.1493580
DATE_TIME_FIRST_SAMPLE_PRECISION: millisecond
SAMPLING_INTERVAL_S: 0.01
NDATA: 21001
DURATION_S: 
STREAM: HNE
UNITS: cm/s^2
INSTRUMENT: sensor = CMG-5T/GURALP | digitizer = 
INSTRUMENT_ANALOG/DIGITAL: 
INSTRUMENTAL_FREQUENCY_HZ: 
INSTRUMENTAL_DAMPING: 
FULL_SCALE_G: 
N_BIT_DIGITAL_CONVERTER: 
PGA_CM/S^2: 7.836
TIME_PGA_S: 
BASELINE_CORRECTION: BASELINE REMOVED
FILTER_TYPE: BUTTERWORTH
FILTER_ORDER: 
LOW_CUT_FREQUENCY_HZ: 
HIGH_CUT_FREQUENCY_HZ: 
LATE/NORMAL_TRIGGERED: 
DATABASE_VERSION: 
HEADER_FORMAT: DYNA 1.2
DATA_TYPE: Acceleration
PROCESSING: Automatic Paolucci et al., 2011
DATA_TIMESTAMP_YYYYMMDD_HHMMSS: 
DATA_LICENSE: U (unknown license)
DATA_CITATION: Turkish Accelerometric Archive v 1.0 - Disaster And Emergency Management Presidency, Earthquake Department
DATA_CREATOR: AFAD
ORIGINAL_DATA_MEDIATOR_CITATION: : AFAD - Disaster And Emergency Management Presidency
ORIGINAL_DATA_MEDIATOR: AFAD PROCESS SERVICE
ORIGINAL_DATA_CREATOR_CITATION: AFAD PROCESS SERVICE
ORIGINAL_DATA_CREATOR: network: TK
USER1: GuestUser
USER2: 
USER3: 
USER4: 
USER5: 
[...]
-0.613600
-0.938433
-1.137059
-1.197457
-1.055321
-0.727479
-0.357267
0.081758
0.493138
0.827591
1.217335
1.437900
1.456232
1.466451
1.543079
1.556903
1.423184
1.280451
1.208634
1.314110
1.317117
1.123900
0.999496
1.152751
1.312015
1.319830
1.197830
0.942411
0.702017
0.626594
0.433678
0.188475
-0.104806
-0.356620
-0.504762
-0.633072
-0.868358
-1.163142
-1.542966
-1.856080
-1.946528
-1.873205
-1.754508
-1.741585
-1.732869
-1.766222
-1.718442
-1.601848
-1.448593
-1.246358
-1.096410
-1.167926
-1.286319
-1.441073
-1.537229
-1.588312
-1.671848
-1.701595
-1.695283
-1.659823
-1.560958
-1.490641
-1.292312
-1.046505
-0.726777
-0.282342
0.242624
0.747458
1.175666
1.451522
1.493593
1.454230
1.464448
1.391730
1.306391
1.215944
0.996885
0.774520
0.575293
0.327687
0.071667
-0.038914
0.025394
0.155810
0.173541
0.016384
-0.214395
-0.429247
-0.655518
-0.843326
-0.973138
-1.114369
-1.238171
-1.403442
-1.543471
-1.704535
-1.902560
-1.935011
-1.678086
-1.323801
-1.061467
-0.732423
-0.311127
-0.049995
0.215044
0.634237
0.969290
1.237033
1.477131
1.612956
1.606347
1.394800
1.005060
0.593683
0.338264
0.080140
-0.351970
-0.753730
-1.034992
-1.329175
-1.570171
-1.619751
-1.505260
-1.227601
-0.781664
-0.392221
-0.261804
-0.342335
-0.324905
0.002637
0.506869
0.978949
1.352166
1.762945
2.127747
2.239533
2.089888
2.127753
2.400604
2.541237
2.477835
2.278608
1.965794
1.523467
1.060105
0.570300
0.129475
-0.060436
-0.149081
-0.402397
-0.639185
-0.586897
-0.477515
-0.464292
-0.426728
-0.328464
-0.096781
0.165553
0.302881
0.145423
-0.118109
-0.315833
-0.558031
-0.865436
-1.245260
-1.706819
-2.251915
-2.632341
-2.701152
-2.745624
-2.716174
-2.488096
-2.245294
-2.092942
-2.149132
-2.179481
-1.966428
-1.792740
-1.755176
-1.692972
-1.509067
-1.161693
-0.746708
-0.222041
0.248536
0.499151
0.610336
0.763890
0.872371
0.927063
1.065893
1.313804
1.482083
1.481483
1.545791
1.784686
2.021178
2.213497
2.367652
2.346619
2.232433
2.071970
1.777186
1.482702
1.227584
0.904854
0.565296
0.245871
-0.163702
-0.678749
-1.073598
-1.437496
-1.885833
-2.288796
-2.561043
-2.708284
-2.619636
-2.464879
-2.342876
-2.108789
-1.703419
-1.256882
-0.869542
-0.490315
-0.241503
-0.138432
-0.076227
-0.067211
-0.054588
0.032858
0.223974
0.428914
0.690647
0.935853
1.115250
1.233947
1.256787
1.233049
1.156725
1.089416
1.019102
1.037734
1.084914
1.071694
1.014902
0.873070
0.754376
0.635381
0.385672
0.090286
-0.329804
-0.880009
-1.399263
-1.835280
-2.128562
-2.290827
-2.380674
-2.414027
-2.308852
-1.998138
-1.651064
-1.415475
-1.264324
-1.033842
-0.718621
-0.491445
-0.396787
-0.472510
-0.602623
-0.715307
-0.786523
-0.833398
-0.963811
-1.071387
-0.957197
-0.820770
-0.857429
-1.089710
-1.390204
-1.584322
-1.682582
-1.660945
-1.623081
-1.671158
-1.655230
-1.470124
-1.232130
-0.891667
-0.597781
-0.426797
-0.184897
0.163379
0.503241
0.456065
0.161581
-0.051769
-0.099245
0.068733
0.259850
0.346094
0.627058
1.074197
1.450118
1.748211
1.842268
1.731988
1.651457
1.780972
1.967581
2.123540
2.303238
2.403004
2.532219
2.787641
3.083631
3.207136
3.124201
3.016325
2.935193
2.862475
2.833629
2.807187
2.735370
2.738377
2.642821
2.377486
2.174052
1.915027
1.547523
1.189635
0.883132
0.601569
0.276435
-0.009935
-0.198344
-0.268658
-0.347085
-0.512957
-0.686642
-0.864233
-1.122957
-1.487757
-1.921069
-2.185503
-2.331242
-2.467064
-2.442722
-2.212541
-1.954414
-1.609143
-1.102807
-0.526756
-0.051371
0.240111
0.528588
0.772292
0.926448
1.078800
1.167148
1.216431
1.338734
1.358568
1.207120
0.964622
0.689971
0.277694
-0.195885
-0.577813
-1.020440
-1.587473
-2.052037
-2.456802
-2.946908
-3.279855
-3.303593
-3.117284
-2.715821
-2.222706
-1.797504
-1.250601
-0.679057
-0.289013
-0.058832
0.150014
0.322500
0.362768
0.544870
0.733282
0.865502
1.109205
1.257351
1.399186
1.701787
2.063585
2.377905
2.568120
2.521545
2.273037
2.059386
1.976151
1.990276
1.988775
1.919663
1.804275
1.618570
1.343619
1.038918
0.742331
0.416897
0.081546
-0.288963
-0.599974
-0.866211
-1.163700
-1.485228
-1.652902
-1.636674
-1.618342
-1.606020
-1.564249
-1.575366
-1.695863
-1.649885
-1.474394
-1.389052
-1.455159
-1.529981
-1.410382
-1.062707
-0.535036
0.026892
0.370960
0.550959
0.636902
0.755299
1.001406
1.359298
1.736120
1.903798
2.033314
2.307066
2.568499
2.725960
2.741588
2.492779
2.124374
1.756570
1.259853
0.692519
0.334932
0.113469
-0.130532
-0.312630
-0.461674
-0.597797
-0.556327
-0.353190
-0.134729
-0.157865
-0.489309
-0.928331
-1.300643
-1.621570
-1.935586
-2.238784
-2.499011
-2.603582
-2.542580
-2.416370
-2.327422
-2.286552
-2.267319
-2.226450
-2.053964
-1.591801
-1.022962
-0.646139
-0.446007
-0.094727
0.384865
0.663126
0.680256
0.701893
0.782427
0.850041
0.809776
0.631884
0.468417
0.387585
0.367454
0.176641
-0.069763
-0.225418
-0.244648
-0.204080
-0.269886
-0.368747
-0.558959
-0.701993
-0.759687
-0.743458
-0.736245
-0.745258
-0.660516
-0.550533
-0.439949
-0.342587
-0.177614
-0.058015
-0.149965
-0.308925
-0.227489
0.036948
0.308297
0.465158
0.447430
0.254814
0.034553
-0.042973
-0.067912
-0.074522
-0.131614
-0.191411
-0.168271
-0.230171
-0.498512
-0.661679
-0.617204
-0.655666
-0.786079
-0.830550
-0.775258
-0.486780
-0.022514
0.287900
0.476612
0.668631
1.019010
1.356468
1.662674
1.766346
1.613997
1.438810
1.127499
0.748876
0.281909
-0.231335
-0.773127
-1.235888
-1.510538
-1.586262
-1.643955
-1.656574
-1.502418
-1.189000
-0.896316
-0.676051
-0.631877
-0.727733
-0.868664
-1.038742
-1.035435
-0.797742
-0.403490
-0.130939
-0.018252
-0.071137
-0.152269
-0.143253
-0.084053
-0.130027
-0.193130
-0.249922
-0.288383
-0.371318
-0.473184
-0.550710
-0.630040
-0.696447
-0.716879
-0.744824
-0.804019
-0.989423
-1.221404
-1.388477
-1.304037
-0.900770
-0.549189
-0.350560
-0.193399
-0.080411
-0.098740
-0.200907
-0.364675
-0.339732
-0.182872
-0.112855
-0.179863
-0.122167
0.131453
0.425940
0.660328
0.777823
0.760997
0.731551
0.897426
1.106873
1.030248
0.748986
0.568691
0.399213
0.333707
0.264294
-0.040707
-0.415723
-0.666935
-0.841521
-1.026324
-1.120678
-1.062080
-0.924451
-0.865853
-0.872763
-0.871859
-0.912424
-1.006778
-1.059964
-0.989947
-0.821969
-0.582172
-0.417499
-0.434024
-0.524471
-0.556923
-0.431314
-0.165074
0.006210
0.021236
-0.058093
-0.176185
-0.261224
-0.459549
-0.818339
-1.143773
-1.203570
-1.058730
-0.933722
-0.872720
-0.765742
-0.437900
0.102092
0.681148
1.234962
1.899058
2.603120
3.124481
3.528950
3.885639
4.239624
4.583393
4.914840
5.151933
5.057279
4.849338
4.784132
4.691281
4.482438
4.153398
3.705060
3.211649
2.721543
2.218816
1.828775
1.599499
1.350991
1.084454
0.926695
0.717252
0.396926
0.175763
-0.051710
-0.374440
-0.519878
-0.544517
-0.543614
-0.342581
-0.006025
0.210334
0.325425
0.420984
0.461853
0.568531
0.762953
0.930030
1.104018
1.191464
1.095608
0.890071
0.718490
0.597392
0.543004
0.543006
0.536998
0.478703
0.392463
0.225990
-0.018611
-0.299572
-0.645140
-0.911377
-0.967268
-0.829940
-0.524935
-0.113255
0.200764
0.432147
0.572480
0.672547
0.738056
0.671048
0.504274
0.350423
0.283113
0.201681
0.061952
-0.094904
-0.334998
-0.685074
-1.046868
-1.466358
-1.803812
-2.063138
-2.360927
-2.582390
-2.622354
-2.463391
-2.312540
-2.330268
-2.375040
-2.287594
-2.310730
-2.523479
-2.809850
-3.067673
-3.281924
-3.508496
-3.658441
-3.803879
-4.037062
-4.237490
-4.207740
-3.885908
-3.470321
-3.111828
-2.728996
-2.300788
-2.014114
-1.889707
-1.784532
-1.676953
-1.549241
-1.332282
-0.894459
-0.263718
0.389561
1.129081
2.044091
2.986746
3.789070
4.377441
4.835097
5.208013
5.487776
5.657257
5.686407
5.616994
5.514828
5.495898
5.458639
5.251900
4.966731
4.642198
4.236231
3.801416
3.471774
3.189010
2.844043
2.487357
2.189568
1.986435
1.838293
1.822669
1.984337
2.252380
2.445901
2.377390
2.103941
1.681446
1.183527
0.693421
0.229759
-0.186125
-0.568353
-0.928645
-1.193680
-1.243861
-1.150706
-0.950274
-0.586072
-0.109184
0.420591
0.946158
1.347922
1.668252
1.968749
2.126811
2.123207
2.016533
1.881011
1.807992
1.872300
1.997007
2.060714
2.079346
2.090466
1.821224
1.195295
0.392373
-0.377794
-0.994709
-1.512761
-2.123967
-2.892632
-3.665203
-4.340415
-4.871688
-5.010215
-4.646614
-4.089795
-3.563025
-3.075920
-2.501973
-1.819246
-1.070110
-0.470620
-0.063748
0.255981
0.490669
0.839846
1.395163
1.951682
2.412944
2.837846
3.201146
3.390160
3.360412
3.165092
2.940624
2.839058
2.792483
2.610084
2.391626
2.252198
2.063789
1.791242
1.457393
1.223009
1.184848
1.431556
1.732053
1.788548
1.631090
1.304754
0.861525
0.215161
-0.482887
-1.056831
-1.582396
-2.111266
-2.555997
-2.964368
-3.506460
-4.184075
-4.761024
-5.157375
-5.361710
-5.361108
-5.084951
-4.414244
-3.556929
-2.553574
-1.297502
0.108517
1.351366
2.468008
3.461147
4.415221
5.303787
5.924011
6.248547
6.479029
6.607041
6.452288
6.110627
5.599787
4.867181
3.995146
3.087652
2.038625
0.848365
-0.359925
-1.365680
-2.087168
-2.691161
-3.189982
-3.571609
-3.845959
-3.919579
-3.956238
-3.988389
-3.836036
-3.492268
-3.136480
-2.734716
-2.201335
-1.551062
-0.831074
-0.114992
0.379625
0.586067
0.662394
0.606203
0.394657
0.110690
-0.199119
-0.555204
-0.742711
-0.565417
-0.365887
-0.472561
-0.630920
-0.656761
-0.697025
-0.724369
-0.736086
-0.870406
-1.069332
-1.104188
-0.933505
-0.620087
-0.069578
0.739357
1.657372
2.536021
3.316109
3.859105
4.120838
4.267782
4.240138
3.818846
3.135521
2.371965
1.510447
0.346931
-1.027833
-2.347005
-3.444112
-4.228402
-4.735937
-5.003076
-4.953492
-4.576369
-3.928199
-3.037830
-2.166392
-1.512813
-0.991753
-0.375135
0.380011
1.201567
1.912540
2.356674
2.577840
2.552901
2.391236
2.278552
2.302293
2.297486
2.294483
2.474181
2.552312
2.382233
2.064912
1.694403
1.276716
0.686846
-0.084524
-0.937327
-1.754673
-2.443105
-2.901359
-3.062423
-3.020352
-2.888433
-2.702424
-2.307271
-1.756462
-1.290993
-0.809899
-0.217320
0.254158
0.573587
0.781230
0.701601
0.421842
0.173334
-0.020784
-0.272598
-0.377769
-0.332393
-0.442372
-0.715220
-1.012709
-1.415070
-1.904575
-2.416617
-2.808762
-2.932564
-2.929558
-2.988152
-3.111654
-3.302166
-3.630306
-4.027258
-4.322944
-4.350587
-3.975568
-3.303358
-2.569848
-1.768425
-1.067969
-0.558929
-0.028853
0.605193
1.300842
1.961031
2.459555
2.855008
3.293132
3.603244
3.773927
3.915162
4.053692
4.131822
4.143243
4.116200
4.111093
4.020946
3.854474
3.699420
3.532947
3.274824
3.005882
2.790128
2.546729
2.359823
2.222498
2.038296
1.945745
2.060837
2.240234
2.346010
2.337898
2.124849
1.607999
0.904541
0.212202
-0.441674
-1.083530
-1.659577
-2.155994
-2.664430
-3.181881
-3.571021
-3.709247
-3.589047
-3.432187
-3.401534
-3.564702
-3.733278
-3.751606
-3.690604
-3.519320
-3.183365
-2.674024
-2.067622
-1.600651
-1.271908
-0.960893
-0.771279
-0.697957
-0.619526
-0.599691
-0.666400
-0.787197
-0.803422
-0.834371
-0.941947
-1.079572
-1.226512
-1.289615
-1.149282
-0.865913
-0.480676
-0.061784
0.425621
0.975228
1.510412
1.874914
2.143258
2.353006
2.426328
2.409202
2.360523
2.145370
1.738201
1.306391
0.962025
0.788040
0.722834
0.587012
0.246853
-0.186459
-0.535933
-0.838831
-0.977958
-0.824403
-0.555158
-0.313258
-0.236930
-0.142272
-0.153389
-0.385670
-0.680454
-0.767897
-0.828895
-0.872466
-0.743852
-0.370335
0.064183
0.373394
0.773656
1.225302
1.468705
1.724127
2.027629
2.305288
2.618406
2.867518
2.796603
2.540283
2.398150
2.219357
2.100663
2.187208
2.088346
1.710926
1.354841
1.166432
1.033615
0.813354
0.655595
0.714194
0.772491
0.614433
0.452768
0.417311
0.376446
0.261658
0.013150
-0.277727
-0.621192
-0.870000
-1.155769
-1.463775
-1.583971
-1.637758
-1.701462
-2.084892
-2.570190
-2.993886
-3.113181
-2.990878
-2.859860
-2.759493
-2.603535
-2.368245
-2.258262
-2.214989
-2.005242
-1.550891
-0.834809
-0.073353
0.905061
2.098330
3.234504
4.350244
5.354200
6.121667
6.714245
7.000318
6.905063
6.449814
5.719312
4.874622
4.059080
3.419928
3.008251
2.688526
2.308702
1.773822
1.250061
0.743427
0.303805
0.164677
0.146349
0.098271
0.216668
0.561638
0.824573
0.817062
0.738635
0.828184
0.935162
0.991056
1.005782
0.835102
0.568565
0.453176
0.409306
0.306839
0.062538
-0.394514
-0.974167
-1.439633
-1.683333
-1.786100
-1.878050
-1.670406
-1.078429
-0.428155
0.125659
0.627788
0.984478
1.170486
1.204143
0.975768
0.584826
0.261795
-0.075359
-0.306738
-0.497250
-0.941681
-1.343442
-1.597959
-2.071238
-2.624448
-2.930650
-3.146404
-3.351941
-3.470034
-3.513304
-3.467326
-3.475438
-3.314972
-3.235639
-3.154203
-2.563729
-1.813991
-1.255069
-0.673909
-0.150445
0.003411
0.307213
0.717691
0.769077
0.613423
0.473694
0.249226
-0.128194
-0.559103
-1.024568
-1.406496
-1.470500
-1.301019
-1.038384
-0.612280
-0.098131
0.461994
1.126991
1.766146
2.090382
2.168212
2.237328
2.270985
2.149286
2.041711
2.103314
2.115335
1.878547
1.346071
0.574101
-0.318669
-0.997185
-1.226161
-1.060586
-0.795548
-0.540726
-0.169012
0.331314
0.696418
0.974377
1.185026
1.288398
1.362622
1.189539
0.718064
0.018512
-0.859533
-1.797377
-2.775787
-3.664651
-4.535785
-5.599836
-6.552705
-7.235428
-7.679859
-7.835514
-7.673545
-7.233318
-6.695129
-6.018112
-5.070348
-4.039348
-3.001135
-2.050366
-1.246840
-0.498305
0.195540
0.760172
1.261400
1.709140
2.116613
2.381952
2.636473
2.881979
3.053263
3.218237
3.394629
3.524445
3.522944
3.516936
3.606185
3.856799
4.119735
4.176830
4.021476
3.710165
3.403661
3.065305
2.667451
2.369362
2.210702
2.101324
1.984433
1.992548
2.111846
2.157223
2.027110
1.736833
1.208564
0.569112
-0.009339
-0.542717
-1.089616
-1.540958
-1.871802
-2.028659
-2.010327
-1.847156
-1.705621
-1.592934
-1.601346
-1.703212
-1.834827
-1.874491
-1.676162
-1.281310
-0.729599
-0.164366
0.244610
0.404175
0.599799
0.768078
0.788213
0.702273
0.488322
0.137345
-0.238573
-0.542672
-0.860294
-1.191137
-1.396073
-1.574265
-1.701974
-1.656598
-1.549620
-1.520169
-1.536094
-1.524072
-1.496425
-1.533685
-1.695049
-1.755146
-1.582961
-1.303799
-0.977460
-0.563676
-0.289623
-0.223812
-0.129155
0.019292
0.141895
0.192681
0.170746
0.275020
0.496787
0.683396
0.585136
0.097134
-0.556742
-1.156830
-1.593147
-1.949833
-2.381042
-2.519568
-2.123214
-1.501788
-0.865638
-0.230389
0.106167
0.427699
0.886857
1.246852
1.483043
1.638100
1.805778
1.833125
1.823211
1.617674
0.981527
0.134733
-0.782076
-1.725629
-2.581738
-3.184530
-3.464890
-3.616038
-3.747954
-3.634966
-3.261448
-2.741890
-1.989449
-0.867398
0.602626
1.931118
2.911335
3.433898
3.484983
3.222653
2.854848
2.351521
1.757443
1.221362
0.854759
0.701809
0.763412
1.041973
1.371317
1.831978
2.441985
3.167382
3.826070
4.400919
5.084847
5.706574
5.967105
6.003767
5.921733
5.650087
5.257342
4.851675
4.440599
4.178870
3.981446
3.629568
3.274384
3.053823
2.889754
2.643349
2.292373
1.936588
1.504478
0.920317
0.189214
-0.622122
-1.410319
-2.163058
-2.739105
-3.169713
-3.413413
-3.422126
-3.284497
-3.034784
-2.723169
-2.376396
-2.070490
-1.785018
-1.319549
-0.698123
-0.160836
0.218691
0.629770
1.012303
1.426086
1.790589
2.116327
2.338094
2.653616
3.027133
3.291571
3.373007
3.318619
3.123299
2.674060
2.085692
1.482600
1.046884
0.728961
0.667962
0.708531
0.701321
0.705530
0.784261
0.756617
0.512016
0.163443
-0.146666
-0.460081
-0.809555
-1.261198
-1.596849
-1.610971
-1.407834
-1.038524
-0.646076
-0.306214
0.055584
0.518649
1.034300
1.492557
1.800867
1.976358
2.063203
1.910253
1.656035
1.427360
1.299651
1.274111
1.279522
1.223932
1.135888
1.052653
0.871156
0.695969
0.550531
0.405093
0.198955
0.041797
0.031282
0.021367
0.053822
0.231116
0.468810
0.665636
0.794850
0.741664
0.487447
0.077573
-0.261384
-0.664646
-1.045372
-1.279757
-1.489501
-1.717575
-1.921008
-2.030086
-2.090484
-2.345002
-2.698683
-2.833904
-2.889494
-2.834502
-2.649996
-2.336277
-2.080855
-1.880723
-1.706134
-1.528239
-1.059164
-0.420310
0.045159
0.386223
0.581246
0.625120
0.649763
0.680715
0.574642
0.306903
-0.002606
-0.388440
-0.753840
-0.934737
-1.238836
-1.503571
-1.571181
-1.455188
-1.432048
-1.665531
-2.028527
-2.230759
-2.297768
-2.230455
-2.012594
-1.740043
-1.490631
-1.523683
-1.689856
-1.732224
-1.668817
-1.675427
-1.539601
-1.086753
-0.539850
-0.106835
0.269086
0.559367
0.606246
0.431960
0.077377
-0.341211
-0.660034
-0.956622
-1.221957
-1.335242
-1.324122
-1.289563
-1.128496
-0.673845
-0.221598
-0.047009
0.074393
0.174460
0.265211
0.444308
0.691317
0.886941
1.124334
1.464496
1.910132
2.370492
2.821537
3.089280
3.095893
2.875932
2.625922
2.359685
1.975053
1.700402
1.455199
1.123454
0.842193
0.639059
0.508646
0.422105
0.300707
0.206353
0.075640
-0.060784
-0.160847
-0.282245
-0.324613
-0.425578
-0.620598
-0.753715
-0.802093
-0.972773
-1.109797
-1.084854
-1.096271
-1.127822
-1.161776
-1.177400
-1.287379
-1.434921
-1.601393
-1.806930
-1.904890
-1.960781
-2.056937
-2.042812
-1.998638
-1.988419
-1.845682
-1.686719
-1.597470
-1.496201
-1.402746
-1.336935
-1.231760
-1.001279
-0.707393
-0.538513
-0.371736
-0.035781
0.427284
0.736195
0.859099
0.903274
0.894861
0.991022
1.179734
1.195362
1.013564
0.869628
0.825457
0.881652
1.006960
1.078780
1.256374
1.635301
2.071621
2.217664
2.447845
2.811746
2.834585
2.826173
2.970413
2.956291
2.922337
3.005876
3.032923
3.115260
3.438595
3.741195
3.781163
3.906170
3.977389
3.811818
3.605079
3.454533
3.386322
3.252002
3.109269
2.974348
2.830112
2.870380
2.918461
3.054587
3.244202
3.374017
3.467773
3.400464
3.245110
3.018839
2.565093
2.101430
1.553329
1.068632
0.746803
0.573118
0.446311
0.552087
0.784973
1.118224
1.423829
1.535314
1.447872
1.153989
0.952960
0.720979
0.478782
0.194515
0.074619
0.039463
0.029248
0.232685
0.495620
0.682830
0.767571
0.713785
0.584273
0.442441
0.313530
0.122116
-0.126392
-0.471058
-0.842168
-1.252943
-1.777606
-2.222337
-2.637920
-2.945626
-3.253932
-3.418001
-3.493423
-3.490417
-3.301103
-3.046882
-2.832627
-2.630392
-2.455202
-2.374668
-2.426051
-2.657430
-2.926672
-3.046869
-3.143326
-3.321217
-3.539375
-3.764745
-3.840468
-3.856693
-3.677596
-3.347651
-2.919744
-2.478915
-1.910677
-1.339434
-0.911828
-0.635070
-0.381150
-0.309330
-0.317441
-0.124522
0.090635
0.274239
0.404956
0.676605
1.007152
1.512887
2.097352
2.564323
3.140975
3.757894
4.392241
4.976405
5.425948
5.403412
5.207792
4.886263
4.459261
4.001308
3.434877
2.923436
2.490724
2.326054
2.246124
1.963360
1.747907
1.541769
1.286049
1.049862
0.845226
0.686867
0.572380
0.336192
-0.006671
-0.281322
-0.685186
-0.901841
-0.940904
-0.730255
-0.424650
-0.112133
0.259882
0.503285
0.732865
0.938105
1.161675
1.351890
1.517465
1.559836
1.492527
1.398774
1.213370
0.885231
0.425776
0.030626
-0.317646
-0.599809
-0.615433
-0.540007
-0.502744
-0.602507
-0.780398
-0.970911
