EVENT_NAME: 202302060117
EVENT_ID: 13194
EVENT_DATE_YYYYMMDD: 2023/02/06
EVENT_TIME_HHMMSS: 01:17:32.00000
EVENT_LATITUDE_DEGREE: 37.288
EVENT_LONGITUDE_DEGREE: 37.043
EVENT_DEPTH_KM: 8.6
HYPOCENTER_REFERENCE: AFAD
MAGNITUDE_W: 7.7
MAGNITUDE_W_REFERENCE: AFAD
MAGNITUDE_L: 
MAGNITUDE_L_REFERENCE: 
FOCAL_MECHANISM: 
NETWORK: TK
STATION_CODE: 2903
STATION_NAME: 
STATION_LATITUDE_DEGREE: 40.208409
STATION_LONGITUDE_DEGREE: 39.65864
STATION_ELEVATION_M: 1594.0
LOCATION: Kahramanmaras_Pazarck_Turkiye
SENSOR_DEPTH_M: 
VS30_M/S: 367
SITE_CLASSIFICATION_EC8: B
MORPHOLOGIC_CLASSIFICATION: 
EPICENTRAL_DISTANCE_KM: 396.07
EARTHQUAKE_BACKAZIMUTH_DEGREE: 
DATE_TIME_FIRST_SAMPLE_YYYYMMDD_HHMMSS: 2023/02/06 01:18:02.4729380
DATE_TIME_FIRST_SAMPLE_PRECISION: millisecond
SAMPLING_INTERVAL_S: 0.01
NDATA: 21001
DURATION_S: 
STREAM: HNE
UNITS: cm/s^2
INSTRUMENT: sensor = ACEBOX/SARA | digitizer = 
INSTRUMENT_ANALOG/DIGITAL: 
INSTRUMENTAL_FREQUENCY_HZ: 
INSTRUMENTAL_DAMPING: 
FULL_SCALE_G: 
N_BIT_DIGITAL_CONVERTER: 
PGA_CM/S^2: 10.516
TIME_PGA_S: 
BASELINE_CORRECTION: BASELINE REMOVED
FILTER_TYPE: BUTTERWORTH
FILTER_ORDER: 
LOW_CUT_FREQUENCY_HZ: 
HIGH_CUT_FREQUENCY_HZ: 
LATE/NORMAL_TRIGGERED: 
DATABASE_VERSION: 
HEADER_FORMAT: DYNA 1.2
DATA_TYPE: Acceleration
PROCESSING: Automatic Paolucci et al., 2011
DATA_TIMESTAMP_YYYYMMDD_HHMMSS: 
DATA_LICENSE: U (unknown license)
DATA_CITATION: Turkish Accelerometric Archive v 1.0 - Disaster And Emergency Management Presidency, Earthquake Department
DATA_CREATOR: AFAD
ORIGINAL_DATA_MEDIATOR_CITATION: : AFAD - Disaster And Emergency Management Presidency
ORIGINAL_DATA_MEDIATOR: AFAD PROCESS SERVICE
ORIGINAL_DATA_CREATOR_CITATION: AFAD PROCESS SERVICE
ORIGINAL_DATA_CREATOR: network: TK
USER1: GuestUser
USER2: 
USER3: 
USER4: 
USER5: 
[...]
-1.133003
-1.131366
-1.143523
-1.156148
-1.204543
-1.241717
-1.235404
-1.241014
-1.247326
-1.273979
-1.319802
-1.296188
-1.243584
-1.209682
-1.192381
-1.221138
-1.209447
-1.114291
-1.045554
-0.999262
-0.894988
-0.779258
-0.738810
-0.734134
-0.715664
-0.720339
-0.745589
-0.780891
-0.837704
-0.907609
-0.998789
-1.087632
-1.140703
-1.195879
-1.305295
-1.444638
-1.539092
-1.599645
-1.678434
-1.752781
-1.801410
-1.845130
-1.900773
-1.953845
-2.002942
-2.068170
-2.115631
-2.112591
-2.103472
-2.146724
-2.210317
-2.227383
-2.238605
-2.262686
-2.260581
-2.275310
-2.301027
-2.305936
-2.357138
-2.462346
-2.545110
-2.599116
-2.678607
-2.813274
-2.996103
-3.167943
-3.287179
-3.406415
-3.574047
-3.775814
-3.976879
-4.158539
-4.325470
-4.477204
-4.639225
-4.798207
-4.914871
-5.032470
-5.141887
-5.198465
-5.258785
-5.332197
-5.368435
-5.392983
-5.402334
-5.360250
-5.345988
-5.362353
-5.349260
-5.370535
-5.345051
-5.219969
-5.193082
-5.241477
-5.216227
-5.197055
-5.215057
-5.153568
-5.047189
-4.996689
-4.923977
-4.854305
-4.881659
-4.848693
-4.695088
-4.551302
-4.426921
-4.261392
-4.053312
-3.858559
-3.685782
-3.502251
-3.313810
-3.099885
-2.835459
-2.513754
-2.171708
-1.880864
-1.631402
-1.415139
-1.247973
-1.086886
-0.891198
-0.679611
-0.521095
-0.403261
-0.265554
-0.153799
-0.069865
0.059426
0.215836
0.355414
0.485172
0.613059
0.750299
0.917698
1.093982
1.258809
1.409609
1.533990
1.669826
1.835823
1.995975
2.150983
2.310199
2.467078
2.596368
2.676093
2.744830
2.872016
3.051339
3.214764
3.398763
3.626015
3.797155
3.939070
4.102027
4.239267
4.391469
4.577339
4.739594
4.869352
4.974562
5.051949
5.082811
5.070887
5.043534
5.012439
4.971525
4.878240
4.741703
4.610076
4.462784
4.293048
4.104608
3.885073
3.656653
3.407192
3.114712
2.806802
2.512919
2.232830
1.936376
1.625894
1.334816
1.061742
0.801760
0.560481
0.338141
0.134971
-0.049962
-0.202397
-0.331920
-0.462846
-0.556131
-0.583485
-0.585822
-0.583484
-0.578807
-0.566883
-0.536022
-0.495808
-0.443203
-0.398313
-0.356229
-0.286791
-0.255696
-0.264112
-0.243771
-0.237692
-0.244705
-0.229040
-0.233014
-0.250315
-0.254289
-0.250080
-0.231843
-0.215711
-0.208463
-0.187421
-0.170820
-0.152116
-0.098342
-0.057427
-0.026566
0.051991
0.137093
0.204428
0.293505
0.421392
0.549046
0.626667
0.695638
0.768817
0.826332
0.915877
1.004720
1.047038
1.081173
1.112034
1.127699
1.123959
1.123960
1.146405
1.169317
1.228001
1.318013
1.367813
1.405688
1.439122
1.415976
1.384648
1.403118
1.435617
1.442163
1.399613
1.318719
1.268220
1.230813
1.159973
1.117890
1.080249
0.990471
0.912149
0.830788
0.710851
0.622008
0.574548
0.530361
0.500435
0.483135
0.451807
0.420478
0.395930
0.331402
0.250041
0.194632
0.126831
0.056459
0.022091
-0.007835
-0.052723
-0.092702
-0.140396
-0.207028
-0.229004
-0.186453
-0.167281
-0.180841
-0.166812
-0.136418
-0.106492
-0.090125
-0.092229
-0.073291
-0.045001
-0.042429
-0.063704
-0.107190
-0.160962
-0.226893
-0.287913
-0.309188
-0.323917
-0.340516
-0.345659
-0.354076
-0.348464
-0.353607
-0.392885
-0.430759
-0.463257
-0.489675
-0.513054
-0.554904
-0.617327
-0.701026
-0.799922
-0.899285
-1.016417
-1.177737
-1.346304
-1.476061
-1.603714
-1.759890
-1.919807
-2.056110
-2.171839
-2.279385
-2.363552
-2.419429
-2.441639
-2.436963
-2.462914
-2.508504
-2.533520
-2.554093
-2.573030
-2.582849
-2.565782
-2.537726
-2.524632
-2.455194
-2.334788
-2.232384
-2.094911
-1.910445
-1.723406
-1.507611
-1.252070
-0.956082
-0.617543
-0.270588
0.079174
0.453016
0.859590
1.294453
1.743578
2.187560
2.584080
2.920983
3.245728
3.551535
3.805439
4.041575
4.257838
4.425237
4.574167
4.695975
4.764479
4.804458
4.837424
4.863844
4.866182
4.823398
4.735491
4.635660
4.538401
4.424308
4.311618
4.189810
4.024750
3.855247
3.685043
3.508527
3.349545
3.180978
3.004929
2.850857
2.721568
2.618230
2.548559
2.554170
2.626882
2.714089
2.824442
2.955368
3.084893
3.252526
3.486791
3.757996
4.032007
4.318643
4.623282
4.888174
5.092280
5.280721
5.471032
5.652226
5.798817
5.900286
5.959437
5.965048
5.957334
5.944241
5.866154
5.750892
5.640540
5.539540
5.457478
5.356946
5.221344
5.073117
4.913200
4.730137
4.513408
4.292703
4.088833
3.852230
3.577519
3.327123
3.106419
2.891326
2.690260
2.509769
2.350788
2.172635
1.958009
1.778921
1.623914
1.453242
1.307353
1.157724
0.972557
0.768686
0.542137
0.320965
0.127148
-0.056616
-0.249499
-0.459916
-0.676178
-0.904831
-1.135822
-1.353253
-1.576295
-1.781101
-1.939849
-2.104676
-2.312053
-2.555436
-2.845578
-3.137590
-3.379570
-3.632304
-3.923615
-4.221472
-4.533591
-4.837994
-5.115745
-5.368246
-5.597133
-5.844022
-6.105641
-6.331956
-6.516188
-6.653193
-6.748114
-6.857764
-6.987755
-7.084780
-7.141125
-7.155152
-7.091793
-6.960164
-6.821055
-6.690361
-6.504726
-6.256667
-5.994579
-5.677316
-5.278691
-4.854816
-4.412705
-3.923133
-3.425144
-2.995892
-2.655483
-2.334479
-1.957831
-1.521331
-1.042981
-0.546863
-0.128833
0.145178
0.362844
0.601317
0.839791
1.116841
1.466836
1.785736
2.025145
2.233459
2.396884
2.535292
2.699886
2.869390
3.067650
3.316177
3.561665
3.762497
3.875188
3.859758
3.735144
3.554653
3.373695
3.240898
3.170760
3.118857
3.068124
3.005934
2.860045
2.672774
2.548394
2.462591
2.406246
2.391284
2.368138
2.316002
2.224588
2.148370
2.173621
2.246800
2.302211
2.324422
2.298003
2.269948
2.262701
2.255453
2.232776
2.169651
2.085017
1.970223
1.812176
1.659975
1.517827
1.393914
1.336401
1.353702
1.409113
1.459613
1.511751
1.547990
1.544016
1.540509
1.554070
1.596154
1.647824
1.651331
1.637304
1.618834
1.556645
1.448397
1.312561
1.179765
1.025459
0.825563
0.646007
0.506898
0.380415
0.263049
0.120199
-0.069176
-0.260422
-0.419170
-0.538873
-0.616961
-0.708843
-0.855667
-1.019091
-1.210337
-1.446471
-1.676761
-1.882269
-2.081463
-2.292114
-2.512585
-2.749888
-3.016650
-3.262605
-3.444499
-3.545265
-3.585711
-3.661695
-3.762227
-3.826287
-3.881463
-3.899231
-3.839612
-3.751470
-3.661224
-3.564665
-3.488447
-3.445427
-3.388147
-3.295796
-3.168376
-2.991859
-2.821186
-2.683947
-2.526367
-2.334419
-2.107401
-1.838768
-1.548157
-1.268535
-1.038712
-0.868039
-0.729397
-0.583975
-0.405119
-0.208963
-0.017483
0.170491
0.362205
0.562570
0.736983
0.838452
0.873989
0.902513
0.976160
1.091188
1.204113
1.276824
1.294126
1.259758
1.223286
1.262331
1.367306
1.468775
1.544058
1.582401
1.576557
1.560192
1.588715
1.682702
1.791652
1.863195
1.888679
1.898967
1.910891
1.894526
1.874887
1.862496
1.797267
1.688786
1.542897
1.360536
1.189396
1.003060
0.818127
0.674576
0.523076
0.389812
0.295125
0.229662
0.229429
0.215869
0.185476
0.222416
0.239718
0.254214
0.346330
0.436810
0.556281
0.685338
0.747996
0.848529
0.935502
0.980392
1.106877
1.235466
1.341844
1.449625
1.540573
1.660745
1.646484
1.444951
1.273578
1.152939
1.043756
1.009155
1.030665
1.013130
0.910026
0.741693
0.642563
0.719249
0.784011
0.780037
0.824226
0.812302
0.777233
0.827500
1.033710
1.340219
1.392122
1.349571
1.542221
1.783968
2.031092
2.274709
2.466657
2.580751
2.568126
2.727576
3.008835
3.134151
3.313474
3.512670
3.590291
3.665574
3.748339
3.831571
3.864771
3.847938
3.857056
3.862434
3.975592
4.299636
4.620173
4.797158
5.034930
5.363182
5.546713
5.654962
5.854859
6.061068
6.110634
6.061771
6.202517
6.420417
6.487283
6.568178
6.723653
6.935942
7.133501
7.230761
7.359350
7.490043
7.512254
7.460118
7.463859
7.532362
7.418270
7.197332
7.167406
7.345560
7.470642
7.434404
7.620507
7.919067
7.961852
7.984999
7.975647
7.828823
7.558086
7.182375
7.062203
7.030174
6.771594
6.497117
6.198091
5.969905
5.810222
5.492726
5.317145
5.198376
4.832484
4.576710
4.453733
4.378451
4.369801
4.056981
3.591725
3.295738
3.004193
2.631521
2.282462
2.131663
1.905582
1.406425
1.020192
0.739870
0.463990
0.248897
0.283265
0.700360
0.776345
0.379358
0.075188
-0.359207
-0.977834
-1.445896
-1.608618
-1.626152
-1.914424
-2.397215
-2.941261
-3.482267
-3.735001
-3.911752
-4.182722
-4.336326
-4.457433
-4.674630
-5.032106
-5.380697
-5.377891
-5.305413
-5.495256
-5.560485
-5.532429
-5.650028
-5.517699
-5.206982
-5.081900
-4.965234
-4.762532
-4.458595
-4.183882
-4.162606
-4.233680
-4.360398
-4.499741
-4.582037
-4.627393
-4.418611
-4.315273
-4.399673
-4.254017
-4.276928
-4.204918
-3.846273
-3.980940
-4.168912
-4.144597
-4.408086
-4.479393
-4.167741
-3.915941
-3.780572
-3.776597
-3.940722
-3.986078
-3.784544
-3.595870
-3.360201
-3.118455
-3.132248
-3.063277
-2.808672
-2.564353
-2.197525
-1.910187
-1.805446
-1.544060
-1.170451
-0.884517
-0.555096
-0.123506
0.110760
0.080600
0.151909
0.280498
0.353677
0.640547
0.858680
0.917364
1.290972
1.538330
1.444812
1.679778
2.155322
2.611695
3.030660
3.224713
3.454536
3.872332
4.287089
4.746033
5.224149
5.758610
6.332349
6.660134
6.892528
7.260292
7.598597
7.774413
7.675985
7.423952
7.137785
6.681413
6.422132
6.459307
6.232290
5.810053
5.464033
5.186282
4.973527
4.765448
4.673333
4.497751
4.076215
3.845458
3.760356
3.686009
3.892453
4.265827
4.555970
4.588936
4.565791
4.837697
4.871599
4.338074
3.852477
3.680169
3.491495
3.006366
2.399663
2.059488
1.807923
1.244940
0.646653
0.313960
-0.172572
-0.799615
-1.076431
-1.288484
-1.655546
-1.911787
-1.993616
-1.935400
-2.153532
-2.593070
-2.569456
-2.517787
-2.836452
-3.033309
-3.241154
-3.671574
-4.187798
-4.742365
-5.224220
-5.714025
-6.042744
-6.082722
-6.347147
-6.694569
-6.683112
-6.620922
-6.619285
-6.530675
-6.440429
-6.372393
-6.188628
-5.859675
-5.827410
-6.277470
-6.580003
-6.573222
-6.733139
-6.962728
-6.973716
-6.986340
-7.185067
-7.368831
-7.412317
-7.480118
-7.539034
-7.348957
-7.063256
-6.908482
-6.713494
-6.460525
-6.349471
-6.139988
-5.526737
-4.805239
-4.306315
-3.881505
-3.490361
-3.392400
-3.435184
-3.264278
-3.069524
-2.906099
-2.510748
-2.175014
-2.069338
-1.891651
-1.650840
-1.329368
-1.013507
-0.981009
-0.958330
-0.797945
-0.547080
-0.209008
-0.280784
-0.567419
-0.450987
-0.279146
-0.258571
-0.186327
-0.086028
-0.062881
-0.221161
-0.497509
-0.819915
-1.037346
-1.027293
-0.860127
-0.464542
-0.032951
0.277298
0.469948
0.199912
-0.197309
-0.204088
-0.095606
0.199213
0.641792
0.700943
0.533778
0.427868
0.393735
0.647639
1.125755
1.656709
2.130149
2.104432
1.649463
1.373816
1.288714
1.269310
1.527422
1.945686
2.273704
2.499085
2.542806
2.515218
2.664381
2.827105
2.918052
3.076801
3.056695
2.728678
2.482724
2.382893
2.267164
2.302000
2.321873
2.053241
1.698337
1.373359
1.218352
1.362372
1.619315
1.928396
2.237243
2.493485
2.838336
3.276473
3.611505
3.658499
3.534119
3.448316
3.414649
3.435224
3.380048
3.121703
2.814728
2.531366
2.280034
2.323053
2.609456
2.632836
2.381738
2.094168
1.721262
1.385763
1.231925
1.249227
1.332926
1.398156
1.459646
1.408912
1.398859
1.456608
1.360751
1.342048
1.248530
0.953712
0.759660
0.377169
-0.113805
-0.413299
-0.669540
-0.669072
-0.645926
-1.085230
-1.804858
-2.575921
-3.074610
-3.153867
-2.974777
-2.665229
-2.754773
-3.364048
-4.005588
-4.550101
-4.758648
-4.514563
-4.196130
-3.986881
-4.020080
-4.309988
-4.617197
-4.808911
-4.832290
-4.796986
-4.819430
-4.909208
-5.031951
-5.070527
-5.077307
-5.016986
-4.785059
-4.480187
-4.061455
-3.606953
-3.199912
-2.682518
-2.145485
-1.638846
-1.197904
-1.022321
-0.997071
-1.044297
-1.236712
-1.388212
-1.276690
-0.933242
-0.677233
-0.673960
-0.769816
-0.897469
-0.957320
-0.785245
-0.503285
-0.391763
-0.538120
-0.949836
-1.614989
-2.281779
-2.866739
-3.344854
-3.492847
-3.643412
-3.947582
-3.962310
-3.822733
-3.614419
-3.221873
-2.959786
-2.737444
-2.261666
-1.670159
-1.178482
-0.943516
-1.016460
-1.402926
-2.111098
-2.929855
-3.535857
-3.915544
-4.199373
-4.425221
-4.785736
-5.351057
-6.053617
-6.861620
-7.438164
-7.542670
-7.296014
-7.038603
-7.108741
-7.266320
-7.307702
-7.475100
-7.753318
-8.074789
-8.545189
-9.083390
-9.302691
-8.974439
-8.503805
-8.214597
-7.914868
-7.591994
-7.440493
-7.366846
-7.001888
-6.246489
-5.618976
-5.508156
-5.734004
-6.151331
-6.552059
-6.591103
-6.307974
-5.894152
-5.624350
-5.816063
-6.274773
-6.683684
-6.940159
-6.909998
-6.742365
-6.694904
-6.758964
-6.892228
-6.812035
-6.223099
-5.472843
-4.938850
-4.508896
-3.981449
-3.374277
-2.834439
-2.273559
-1.792403
-1.838461
-2.193131
-2.248307
-1.914911
-1.424872
-1.027650
-0.898827
-1.137767
-1.552289
-1.724130
-1.701918
-1.735351
-1.733246
-1.683213
-1.655625
-1.595772
-1.536621
-1.587354
-1.971950
-2.740675
-3.439962
-3.808660
-3.899607
-3.774992
-3.641728
-3.382212
-2.883054
-2.481858
-2.080895
-1.546200
-1.317078
-1.340458
-1.139392
-0.890631
-0.880109
-0.904190
-0.985785
-1.117412
-0.856494
-0.077481
0.976945
1.826799
2.146634
2.269378
2.239219
2.128399
2.676654
3.766384
4.707886
5.407408
5.774470
5.874769
6.107164
6.647704
7.332029
7.732057
7.798456
7.779753
7.626850
7.536604
7.718032
7.930086
8.051895
7.995317
7.765962
7.617969
7.548298
7.538011
7.647662
7.717568
7.740481
7.759653
7.681565
7.603243
7.548302
7.457822
7.616571
8.148928
8.674271
9.024266
9.312071
9.410734
9.388056
9.561067
9.892358
10.277422
10.515896
10.294724
9.785281
9.129947
8.288745
7.465546
6.680689
5.918978
5.304091
4.826678
4.518767
4.297128
3.969578
3.576332
3.238963
2.921934
2.474447
2.012698
1.698475
1.439895
1.420958
1.736819
2.222650
3.112015
4.371482
5.540001
6.466072
7.223576
7.980145
8.590590
8.796566
8.822050
8.519517
7.512319
6.173830
4.993388
3.987593
3.097994
2.465807
1.933919
1.161453
0.377531
-0.141264
-0.402883
-0.429301
-0.303518
-0.095204
0.004394
-0.010802
0.043439
0.199850
0.615776
1.178059
1.675112
2.163281
2.658231
3.297433
3.681796
3.353311
2.846205
2.469559
2.365285
2.803188
3.313568
3.621246
3.898764
3.854109
3.477462
3.317078
3.330405
3.181710
3.046576
2.861876
2.456005
2.211921
2.275047
2.293049
2.049433
1.657356
1.368617
1.357395
1.614105
1.911729
2.096196
2.140851
1.958958
1.565010
0.971165
0.244056
-0.371064
-0.898043
-1.336412
-1.349037
-1.040657
-0.872089
-0.960932
-1.285208
-1.684533
-1.872740
-1.905471
-1.969764
-2.013250
-1.779686
-1.198933
-0.619116
-0.149884
0.337584
0.815933
1.323040
1.712079
1.696415
1.081763
-0.148945
-1.447221
-2.376331
-2.857252
-2.695230
-2.219218
-1.917853
-1.765884
-1.789263
-1.937490
-2.046205
-2.151180
-2.255687
-2.430800
-2.684704
-2.794354
-2.697328
-2.474051
-2.200274
-1.817547
-1.259473
-0.826480
-0.582395
-0.132335
0.557368
1.286348
2.086637
2.881080
3.383277
3.621050
3.843625
4.117168
4.505740
4.813184
4.805469
4.721069
4.576582
4.414795
4.429759
4.386507
4.351905
4.423214
4.355647
4.238515
4.150608
4.189419
4.513696
5.021972
5.661408
6.269047
6.765867
7.266427
7.648219
7.925736
8.101085
7.941869
7.529218
6.998498
6.320955
5.729916
5.428318
5.230526
5.019173
4.846164
4.575193
4.058736
3.436602
3.057617
3.105312
3.439876
3.851360
4.126306
4.202992
4.268222
4.298850
4.122100
3.833594
3.534802
3.171481
2.894666
2.856557
2.880405
2.858896
2.826633
2.783381
2.827101
2.864276
2.661808
2.252195
1.615566
0.719188
-0.214598
-1.148150
-2.185041
-3.086562
-3.539895
-3.575665
-3.361273
-3.017824
-2.739605
-2.630187
-2.516094
-2.237874
-1.833405
-1.387553
-1.180174
-1.588617
-2.355472
-2.871462
-3.014078
-2.880345
-2.631818
-2.557938
-2.828441
-3.559758
-4.589869
-5.535578
-6.212187
-6.501160
-6.555166
-6.743840
-7.099212
-7.487782
-7.754778
-7.794757
-7.743321
-7.707550
-7.769038
-8.008212
-8.198990
-8.170233
-7.949294
-7.337446
-6.406698
-5.608982
-5.018877
-4.575597
-4.279375
-4.030380
-3.805467
-3.583827
-3.571435
-3.982216
-4.543095
-4.945226
-4.987777
-4.663032
-4.309062
-4.144469
-4.116880
-3.999046
-3.611176
-2.925214
-1.988388
-1.051328
-0.262028
0.374603
0.811804
1.166709
1.457787
1.593156
1.540318
1.240357
0.867918
0.602793
0.340473
0.059449
-0.252436
-0.638669
-0.851892
-0.761178
-0.661112
-0.709975
-0.865216
-1.048746
-1.067216
-0.757668
-0.008347
0.949287
1.696270
2.293388
2.758645
2.984027
3.176910
3.424735
3.788291
4.263133
4.568239
4.654745
4.556317
4.246068
3.826402
3.301294
2.624452
1.704226
0.498768
-0.806288
-2.058506
-3.136310
-3.934260
-4.364914
-4.367719
-4.212477
-4.067756
-3.784627
-3.436269
-3.099133
-2.642994
-1.993972
-1.159549
-0.316943
0.262640
0.603985
0.872151
1.005416
1.009157
0.904183
0.542499
-0.020017
-0.709485
-1.315487
-1.479846
-1.376507
-1.103665
-0.641681
-0.390582
-0.487608
-0.863086
-1.286726
-1.454825
-1.525666
-1.455526
-1.196478
-1.026273
-0.860277
-0.619465
-0.320672
0.098294
0.593477
1.231510
2.018706
2.890770
3.790890
4.598894
5.297714
5.788689
5.997938
5.951413
5.640229
5.226409
4.755542
4.155151
3.458669
2.568603
1.499449
0.370910
-0.816078
-1.941578
-2.947607
-3.921606
-4.902151
-5.878488
-6.737459
-7.411262
-7.914861
-8.280285
-8.646411
-8.891898
-8.691533
-8.052331
-7.146834
-6.188031
-5.349166
-4.652215
-4.144875
-3.628416
-2.868808
-2.061974
-1.337903
-0.759956
-0.562396
-0.674151
-0.830561
-0.966397
-0.991880
-0.863057
-0.783098
-0.869369
-1.092879
-1.354497
-1.385358
-1.164419
-0.919399
-0.705474
-0.561221
-0.431229
-0.131968
0.351292
0.895806
1.315239
1.568208
1.743322
1.823749
1.859521
1.785174
1.453883
1.103422
0.926204
0.828477
0.798084
0.791071
0.679550
0.424711
0.089914
-0.238805
-0.600255
-1.000515
-1.238988
-1.205320
-0.999578
-0.718320
-0.463246
-0.423033
-0.706628
-1.130269
-1.465300
-1.721775
-1.884497
-1.921904
-1.888471
-1.738840
-1.455945
-1.108054
-0.789622
-0.527534
-0.229676
0.009967
0.095303
0.098577
0.049947
0.037089
0.069353
0.139026
0.200982
0.032883
-0.202317
-0.339088
-0.597200
-0.849233
-1.011487
-1.311683
-1.693239
-2.064041
-2.401644
-2.539350
-2.369379
-1.950414
-1.467622
-0.997689
-0.514430
-0.142224
0.067493
0.091808
-0.184540
-0.716662
-1.453123
-2.244526
-2.848190
-3.260608
-3.427305
-3.332616
-3.097182
-2.690374
-2.166200
-1.578200
-0.956299
-0.465324
-0.110887
0.157279
0.360917
0.559178
0.708808
0.797652
0.896081
1.044309
1.165416
1.197447
1.259872
1.392903
1.521959
1.564745
1.401555
1.130350
0.916660
0.659951
0.271614
-0.154598
-0.528673
-0.777199
-0.834479
-0.798006
-0.844765
-1.026425
-1.344388
-1.800994
-2.252456
-2.544702
-2.706256
-2.750910
-2.737350
-2.834609
-2.986343
-3.121711
-3.213359
-3.059520
-2.784808
-2.658790
-2.626526
-2.778961
-3.200731
-3.648686
-3.990965
-4.299810
-4.667105
-5.103137
-5.549923
-5.917452
-6.090461
-6.203852
-6.486980
-6.878123
-7.311349
-7.704361
-7.843938
-7.766317
-7.567121
-7.211047
-6.833698
-6.542620
-6.277493
-6.002313
-5.643200
-5.210909
-4.834962
-4.467199
-4.069976
-3.799005
-3.645867
-3.439190
-3.153489
-2.831784
-2.417728
-1.875318
-1.315139
-0.777171
-0.165324
0.416365
0.748123
0.824108
0.666062
0.241954
