EVENT_NAME: 202302060117
EVENT_ID: 13194
EVENT_DATE_YYYYMMDD: 2023/02/06
EVENT_TIME_HHMMSS: 01:17:32.00000
EVENT_LATITUDE_DEGREE: 37.288
EVENT_LONGITUDE_DEGREE: 37.043
EVENT_DEPTH_KM: 8.6
HYPOCENTER_REFERENCE: AFAD
MAGNITUDE_W: 7.7
MAGNITUDE_W_REFERENCE: AFAD
MAGNITUDE_L: 
MAGNITUDE_L_REFERENCE: 
FOCAL_MECHANISM: 
NETWORK: TK
STATION_CODE: 0134
STATION_NAME: 
STATION_LATITUDE_DEGREE: 37.74427
STATION_LONGITUDE_DEGREE: 35.864475
STATION_ELEVATION_M: 494.0
LOCATION: Kahramanmaras_Pazarck_Turkiye
SENSOR_DEPTH_M: 
VS30_M/S: None
SITE_CLASSIFICATION_EC8: unknown
MORPHOLOGIC_CLASSIFICATION: 
EPICENTRAL_DISTANCE_KM: 115.66
EARTHQUAKE_BACKAZIMUTH_DEGREE: 
DATE_TIME_FIRST_SAMPLE_YYYYMMDD_HHMMSS: 2023/02/06 01:17:31.9832570
DATE_TIME_FIRST_SAMPLE_PRECISION: millisecond
SAMPLING_INTERVAL_S: 0.01
NDATA: 12501
DURATION_S: 
STREAM: HNE
UNITS: cm/s^2
INSTRUMENT: sensor = ACEBOX/SARA | digitizer = 
INSTRUMENT_ANALOG/DIGITAL: 
INSTRUMENTAL_FREQUENCY_HZ: 
INSTRUMENTAL_DAMPING: 
FULL_SCALE_G: 
N_BIT_DIGITAL_CONVERTER: 
PGA_CM/S^2: 45.854
TIME_PGA_S: 
BASELINE_CORRECTION: BASELINE REMOVED
FILTER_TYPE: BUTTERWORTH
FILTER_ORDER: 
LOW_CUT_FREQUENCY_HZ: 
HIGH_CUT_FREQUENCY_HZ: 
LATE/NORMAL_TRIGGERED: 
DATABASE_VERSION: 
HEADER_FORMAT: DYNA 1.2
DATA_TYPE: Acceleration
PROCESSING: Automatic Paolucci et al., 2011
DATA_TIMESTAMP_YYYYMMDD_HHMMSS: 
DATA_LICENSE: U (unknown license)
DATA_CITATION: Turkish Accelerometric Archive v 1.0 - Disaster And Emergency Management Presidency, Earthquake Department
DATA_CREATOR: AFAD
ORIGINAL_DATA_MEDIATOR_CITATION: : AFAD - Disaster And Emergency Management Presidency
ORIGINAL_DATA_MEDIATOR: AFAD PROCESS SERVICE
ORIGINAL_DATA_CREATOR_CITATION: AFAD PROCESS SERVICE
ORIGINAL_DATA_CREATOR: network: TK
USER1: GuestUser
USER2: 
USER3: 
USER4: 
USER5: 
[...]
-3.718877
-2.218129
-2.331283
-3.503539
-4.759494
-5.377651
-5.240408
-4.641883
-4.096664
-3.981866
-4.149028
-4.235061
-4.018094
-3.361120
-2.116380
-0.199706
2.216125
4.676845
6.467969
6.786872
5.497250
3.499690
2.081012
2.132451
3.644422
5.761459
7.068624
6.142089
2.599362
-2.759969
-8.672932
-13.862526
-17.369715
-18.869053
-18.688090
-17.418801
-15.451394
-13.023406
-10.270439
-7.098742
-3.574712
-0.120354
2.737588
4.519360
4.920794
4.044759
2.550097
1.199454
0.346799
0.183846
0.729065
1.572843
2.260678
2.443043
1.918874
0.870063
0.019746
0.352443
2.209732
5.178260
8.341774
10.224781
9.485518
6.087746
1.539457
-2.086735
-3.259224
-1.847085
0.870812
3.097734
3.642018
2.702157
1.503248
1.610331
3.959062
7.917019
11.475183
12.127949
8.706096
2.125642
-5.669623
-12.453247
-16.491857
-17.128951
-14.859010
-10.794441
-6.202191
-2.546300
-0.788374
-0.931689
-2.003412
-2.746883
-2.592807
-1.561290
-0.173466
0.688548
0.552716
-0.358856
-1.502121
-2.464661
-3.278271
-3.981296
-4.304400
-3.963754
-2.802947
-0.978623
0.794031
1.454278
0.455266
-1.807888
-4.485798
-6.865616
-8.632185
-9.747628
-10.361810
-10.474496
-9.506572
-6.841046
-2.616326
2.095161
5.572431
6.414806
4.568279
1.158116
-2.156892
-4.004121
-4.117041
-3.336388
-2.807068
-2.903388
-3.091825
-2.668649
-1.354237
0.372593
1.237647
0.209177
-2.334066
-5.076271
-6.643878
-6.169733
-3.936498
-1.043020
1.394320
2.473766
2.024411
0.895642
0.053975
-0.068531
0.621175
2.021156
3.963782
6.452090
9.377365
12.238112
14.315872
14.663298
12.522654
7.952622
1.808668
-4.565811
-9.800294
-12.941357
-13.785128
-12.811125
-10.680293
-7.892724
-4.771059
-1.719768
0.705883
1.971898
1.725246
0.083525
-2.431662
-5.078945
-6.867958
-6.993270
-5.341956
-2.361271
1.285503
4.932744
7.995725
9.937181
10.639044
10.301211
8.818706
6.016883
2.246672
-1.544347
-4.147909
-4.664598
-3.140470
-0.521469
2.075087
3.714945
3.925600
3.022912
1.580620
-0.184779
-2.359324
-4.989072
-7.702285
-9.659165
-10.011961
-8.453231
-5.364064
-1.605536
1.957071
4.814544
6.706436
7.308233
6.350603
3.778370
-0.157136
-4.790059
-9.299771
-12.849745
-14.820418
-15.237041
-14.585211
-13.076280
-10.561553
-7.012273
-2.770719
1.219035
3.427955
2.863338
0.070867
-3.675964
-7.261709
-9.765206
-10.816121
-10.602427
-9.514565
-8.044444
-6.569647
-5.458171
-5.055101
-5.267619
-5.708791
-5.978589
-5.753673
-4.801880
-2.968205
-0.264102
3.129469
6.884491
10.453176
13.341978
15.448729
16.773428
17.248975
17.078541
16.633161
15.989754
14.877117
12.838175
9.514282
5.106272
0.359958
-3.948221
-7.442785
-10.321293
-13.074720
-15.660514
-17.357645
-17.463551
-15.619588
-12.325615
-9.143631
-7.789707
-9.097565
-12.491830
-16.210372
-18.035624
-16.748566
-13.096182
-8.955862
-6.006506
-4.850842
-4.853644
-4.526558
-2.774478
0.142614
3.188295
5.396280
6.584207
7.657107
9.740712
12.867052
15.839320
16.976982
15.301127
11.541670
7.643104
5.349557
4.744727
4.262173
2.187226
-1.952618
-6.627625
-8.942916
-6.873105
-0.821025
6.885638
13.106987
15.585008
13.912426
9.233445
3.818002
-0.839236
-4.879716
-9.014651
-13.584449
-18.006954
-21.104998
-21.741624
-19.643524
-15.557679
-10.603278
-5.870516
-2.135134
0.412091
2.016879
2.741187
2.409432
1.061127
-0.889674
-2.605508
-2.983087
-1.276597
2.315701
6.686311
10.242839
11.655212
11.031444
9.653914
8.634562
8.383935
8.305149
7.212384
4.595027
0.963224
-2.765371
-5.725708
-7.514487
-8.208394
-7.975762
-6.974638
-5.383644
-3.590649
-2.036362
-0.802142
0.504321
2.551921
5.545231
8.870533
11.162217
10.610927
6.658120
0.448702
-6.423297
-12.383019
-16.430280
-18.475769
-18.827864
-17.455003
-13.719854
-7.115311
1.729711
10.736052
16.824137
17.297346
12.418469
5.469784
-0.310850
-3.118050
-2.898277
-1.307049
-0.112575
0.273428
0.654988
2.161114
5.349177
9.553323
13.096291
14.141602
11.712218
6.393802
0.052522
-5.340242
-8.586280
-9.632519
-9.438463
-8.991439
-8.370704
-6.765682
-3.513792
1.009487
5.195163
7.099913
5.946829
2.402700
-2.129223
-6.230725
-9.055693
-10.504765
-11.143495
-11.786668
-12.826127
-13.907670
-14.224227
-13.106205
-10.277722
-5.782031
-0.211106
5.183769
8.939025
10.154540
9.122563
6.814754
4.129128
1.649478
-0.249887
-1.099269
-0.463804
1.765690
5.227062
9.230143
13.122403
16.353719
18.474965
19.114404
18.049227
15.538248
12.092782
8.180890
4.176881
0.103435
-4.293119
-9.083387
-13.898204
-17.843296
-19.654286
-18.552629
-14.831976
-9.787563
-5.290702
-2.820163
-2.718224
-4.231824
-6.246919
-7.832060
-8.392001
-7.846548
-6.455217
-4.550233
-2.518064
-0.774634
0.292654
0.298970
-0.536384
-1.159216
-0.797528
0.337094
1.626489
2.786595
3.995331
5.759802
8.534512
12.165153
15.738047
18.079296
18.335775
16.511225
13.889426
12.015077
11.493947
12.057636
12.736820
12.245382
9.982228
6.420097
2.544911
-0.761914
-3.256060
-5.466375
-8.117399
-11.303584
-14.114993
-15.164037
-13.594787
-9.574405
-4.158020
1.367548
6.514131
11.626112
16.929105
21.993859
25.804290
27.099531
25.196191
20.623120
14.526626
8.021455
2.190321
-2.374100
-5.915657
-9.064902
-12.112914
-14.655923
-15.978277
-15.408509
-12.631228
-7.994790
-2.307201
3.306977
7.786536
10.595380
11.425364
10.116337
6.846452
1.886213
-4.337233
-10.816453
-16.126219
-19.148513
-19.458524
-17.408820
-13.927575
-9.849446
-5.863666
-2.608737
-0.581243
-0.256495
-1.329621
-2.588616
-3.063454
-2.533198
-1.673055
-1.760725
-3.556986
-6.757199
-10.062855
-11.757648
-11.066305
-8.672452
-5.719121
-3.191769
-1.711828
-1.056725
-0.489997
0.435143
1.538670
2.449080
3.193728
4.193916
6.054245
9.103432
12.840685
15.890340
16.736690
14.698683
10.390271
5.414367
1.736740
0.983916
3.442999
7.923494
12.603651
15.900196
17.124596
16.479086
14.686799
12.212994
8.970464
4.853064
-0.272470
-6.086771
-10.969623
-13.412333
-13.562895
-12.025908
-9.560980
-7.476206
-6.570238
-6.866689
-7.773819
-8.216393
-7.222751
-4.835678
-1.899648
0.885816
3.090528
5.066353
7.759233
11.355039
14.990356
17.429333
17.954679
16.830118
15.149353
13.928467
13.123273
11.958265
10.040663
7.678146
5.701160
5.456378
7.843451
12.536234
18.423019
24.230313
28.898312
31.657591
32.281366
30.764961
26.635871
19.570989
10.123946
-0.453973
-10.607317
-18.698336
-23.510347
-25.303569
-25.463482
-24.951463
-24.033571
-22.740902
-20.759467
-18.054195
-15.543910
-14.427992
-15.309170
-17.878832
-21.274033
-24.362257
-26.202238
-26.428784
-25.243194
-23.044561
-19.845509
-15.502254
-10.107378
-4.185290
1.351500
5.648698
8.293650
9.585617
10.283038
11.015996
11.956099
13.107788
14.257840
14.826205
14.455406
13.223298
11.561939
10.074056
9.057510
8.292061
7.241613
5.424077
2.817008
0.061243
-2.043630
-3.296780
-4.286674
-5.636382
-7.356425
-9.112706
-10.571130
-11.477792
-11.904936
-12.413909
-13.296957
-14.208997
-15.048559
-16.390552
-18.718701
-21.786352
-24.772407
-26.218673
-24.608040
-19.549832
-12.211166
-4.943341
-0.117762
1.567453
1.570496
2.113844
4.542768
8.514519
12.477153
15.180320
16.382509
16.629871
16.931473
17.828790
18.772634
18.781521
17.417552
15.098988
13.217158
13.414486
15.880349
19.125225
21.036054
20.297960
17.299046
13.681738
11.393101
11.414146
13.181891
15.363223
16.813003
16.930607
15.764196
14.041348
12.669195
11.333281
9.139565
6.044327
2.459751
-0.693002
-2.517084
-2.759061
-1.681953
-0.187050
0.456130
-0.448194
-2.528752
-5.430406
-9.205293
-13.234786
-16.517295
-18.230792
-17.151580
-12.819547
-6.451373
0.592708
7.091808
12.043872
15.415466
17.338686
17.460965
15.697436
12.527383
8.420971
3.919208
-0.315090
-3.981495
-7.025532
-9.083178
-9.628390
-8.350216
-5.088741
-0.395257
4.364859
7.905488
9.456036
9.204006
8.264612
7.135842
5.241854
2.274036
-1.677368
-6.400069
-11.033928
-14.440818
-15.849676
-14.902794
-11.652774
-6.728065
-1.397484
2.787257
4.550794
3.353989
-0.396349
-5.592957
-11.166681
-16.310450
-20.335968
-22.888563
-24.010552
-23.730226
-21.927178
-18.664299
-14.196898
-9.009166
-4.048920
-0.654180
0.141903
-1.724964
-5.311411
-9.136096
-11.702485
-11.902612
-9.593627
-5.888638
-2.380272
-0.062169
0.706560
0.288534
-0.413321
-0.664650
0.195962
2.781763
7.258517
12.861939
18.228993
22.110967
23.649356
22.941188
20.984542
18.908660
17.372148
16.289904
15.073227
13.049248
10.209316
7.364007
5.493632
5.013650
5.272467
5.151598
3.834855
0.875687
-3.546818
-8.496537
-12.778997
-15.511850
-15.889663
-13.539295
-9.336084
-4.597711
-0.590423
1.651463
2.338363
2.310077
2.141981
2.061090
1.655456
0.321178
-2.171564
-5.494521
-8.737052
-10.566746
-9.806667
-6.408888
-1.403051
3.945533
8.676892
12.135692
13.859015
13.765734
12.176384
9.249246
4.830481
-0.896847
-7.118188
-12.620837
-16.210323
-17.430975
-16.808369
-15.501672
-14.570688
-14.196375
-13.692772
-12.197167
-9.561567
-6.323237
-3.241786
-1.017435
0.271259
0.986682
1.125094
0.149462
-2.352165
-6.059251
-9.914798
-12.323608
-11.703106
-7.814353
-2.222386
3.227432
7.235656
8.993347
8.948930
8.549841
8.814270
9.679323
10.418360
10.346120
9.150251
7.235455
5.463743
4.702269
5.748983
8.665140
12.707031
16.533127
18.607380
18.148673
15.631615
12.501307
10.285614
9.780850
10.590026
11.255416
10.089707
6.227614
0.056071
-7.009279
-13.199993
-17.133862
-18.215171
-16.993109
-14.582889
-12.063954
-10.578870
-10.764969
-12.254254
-14.029473
-15.268595
-15.818248
-15.893294
-15.791121
-15.670010
-15.014205
-12.803414
-9.265824
-5.899608
-3.906015
-4.229353
-6.853256
-10.438066
-13.425056
-14.551955
-13.449597
-10.887643
-8.058926
-5.592361
-3.488416
-1.555611
0.588314
3.252671
6.343709
9.500209
12.014702
12.882328
11.998578
10.319449
8.789250
8.121061
8.757928
10.640234
13.358832
16.496161
19.700123
22.509902
24.416522
25.193200
25.082852
24.619235
24.105586
23.302029
21.660308
18.736911
14.805613
11.071407
8.883068
8.717777
9.525317
9.548233
7.760155
3.980592
-1.181882
-5.925157
-8.565660
-9.676895
-10.778076
-12.739631
-16.010451
-19.904107
-23.089825
-24.405399
-23.337409
-20.694328
-17.858831
-15.853782
-15.119655
-15.677491
-16.756228
-16.983008
-15.844178
-13.530984
-10.221580
-6.484327
-3.164870
-0.719814
0.812497
1.565561
2.207572
3.820309
7.159639
12.256423
18.062782
22.832250
25.061277
24.086346
20.433735
15.575197
11.213012
8.637505
8.305049
9.775170
11.888934
13.551938
14.462816
14.230191
12.369870
9.358565
5.741023
1.926625
-0.895071
-1.928217
-1.945749
-2.415677
-4.645164
-8.989348
-14.616143
-20.514844
-25.795152
-29.815994
-32.322063
-32.771417
-30.323089
-24.755671
-17.256152
-10.353051
-6.895653
-8.517267
-14.647194
-23.103404
-31.341948
-37.450132
-40.695936
-41.298661
-39.852855
-36.856038
-32.631318
-27.479124
-21.667856
-15.377770
-8.500153
-0.641288
8.343311
17.913104
26.698976
32.735157
34.602032
32.574312
28.639274
24.637370
21.248716
19.319424
18.867264
17.480616
13.964075
9.428412
4.842482
1.839360
1.813178
4.994228
10.618224
16.786034
21.489571
23.085708
21.272380
16.710999
9.842741
1.504131
-7.008424
-14.600519
-20.282490
-23.172454
-23.467970
-22.106799
-19.817452
-17.415416
-15.478869
-13.884836
-12.659033
-12.367484
-13.118437
-14.413437
-15.654195
-16.010732
-14.673642
-11.175564
-5.631993
0.931167
6.717419
9.843059
9.428072
5.991256
0.984959
-3.936704
-7.706447
-9.919335
-10.503824
-9.299765
-5.942900
-0.938466
4.838902
11.106309
17.470976
23.364073
27.925228
30.276297
29.950387
26.707623
21.029158
14.291125
8.278798
4.538981
3.501860
4.564706
6.695070
8.743138
10.186138
11.115252
11.599216
11.429483
9.943003
6.622385
1.615620
-4.488122
-11.005451
-17.144963
-21.825581
-24.377241
-24.882005
-23.882752
-22.353247
-21.027846
-20.130529
-19.550006
-18.798111
-17.624679
-16.122294
-14.227597
-11.966774
-9.846930
-8.090875
-5.880085
-2.334078
2.401255
7.465775
11.985782
15.069337
15.716726
13.469002
8.750276
2.732338
-3.020240
-7.251032
-9.185934
-8.465601
-5.188929
-0.072506
5.684989
10.567849
12.732114
11.656416
8.928473
6.545148
5.781102
6.749026
8.266374
8.653312
7.220372
5.115032
4.445674
6.629344
11.230711
16.372618
20.091869
21.514061
21.298971
20.938226
21.689888
23.560036
25.221169
25.054943
22.300347
17.495116
11.526509
5.377411
-0.088064
-4.880203
-9.009293
-11.882892
-13.597791
-14.650576
-14.485746
-12.885400
-10.041252
-5.987672
-1.630155
2.512269
6.203464
8.410280
8.174148
5.568481
1.423026
-3.349240
-7.522050
-9.899999
-10.246249
-9.011795
-6.573286
-3.365350
0.152367
3.773656
6.885502
8.711696
9.524145
9.776416
8.972625
6.569894
2.103902
-4.553472
-12.230669
-19.258845
-24.117148
-25.893068
-25.037367
-22.954230
-20.866182
-18.876798
-16.166616
-11.817282
-5.608792
1.483919
7.475679
9.890107
8.298185
5.250875
2.489967
0.440504
-0.727544
-2.039143
-4.317727
-7.602341
-11.221519
-13.345798
-12.745870
-9.981681
-6.494825
-3.519284
-1.840616
-1.310828
-0.521992
1.307943
3.292184
3.985630
2.417088
-1.661268
-7.617016
-13.864075
-18.812624
-21.707732
-21.671022
-17.682437
-9.971332
0.296814
11.638556
22.524862
31.849636
38.969701
43.691942
45.853869
44.936452
40.853187
34.529910
26.865104
18.631002
10.987939
4.863389
0.138350
-3.489244
-5.881454
-7.476416
-8.357360
-8.098777
-7.220397
-7.193506
-8.953529
-11.853780
-14.736964
-16.518963
-16.387332
-14.207636
-10.563435
-6.796489
-4.368267
-3.952806
-5.195902
-7.160029
-8.717349
-8.839388
-7.113727
-3.779774
0.397485
4.491279
8.192527
11.751159
15.296231
18.545315
20.910412
21.930940
21.675170
20.752843
20.177706
20.638524
21.679860
22.314858
21.662099
19.190866
15.424162
11.773421
9.847403
10.463228
12.998296
16.111544
18.629077
20.012225
19.874288
17.981001
14.919430
11.174001
6.605607
1.327871
-3.812860
-7.664666
-9.428897
-8.788289
-6.014514
-1.942931
2.789129
8.028763
13.566489
18.829035
22.793539
24.044592
22.006117
17.480507
11.524526
5.203820
-0.456642
-5.144975
-9.003327
-11.616943
-12.076117
-10.035531
-5.999018
-1.186765
2.308274
2.488302
-0.711912
-6.084803
-12.383531
-18.277557
-23.264916
-27.470692
-30.366969
-31.101322
-29.101651
-23.946885
-15.867081
-6.091313
3.680949
11.733398
16.836261
18.729789
18.089421
15.962571
13.545345
11.805196
10.797299
10.199951
9.725346
8.707397
6.579144
3.437380
-0.241650
-3.815472
-6.593681
-8.133232
-8.204771
-6.806659
-4.355993
-1.327379
2.015224
5.393130
8.298767
10.201179
11.010822
10.827762
9.757442
8.331750
7.516737
8.474608
11.487790
15.543709
19.389912
21.530563
20.695910
17.018751
11.586942
5.805140
1.065138
-1.724294
-2.335436
-1.460563
-0.264920
0.484871
0.404682
-0.728763
-2.601943
-4.347938
-5.418024
-5.990824
-6.544218
-7.378637
-8.302834
-9.095403
-9.907377
-10.840926
-11.998219
-13.314494
-14.373825
-14.849365
-14.217408
-11.813033
-7.803172
-3.228692
0.730435
3.027263
3.290990
2.309279
1.023164
-0.146053
-0.896772
-0.839254
0.552778
3.691043
8.329818
13.485986
17.973729
20.976157
22.383620
22.563414
21.751439
19.850905
17.076670
14.041284
11.180311
9.016287
8.082738
8.281703
9.069837
9.957803
10.504892
10.533653
10.031460
9.087858
8.040450
6.904667
5.383819
3.465048
1.432185
-0.436085
-1.888898
-2.617407
-2.698998
-2.485304
-2.053710
-1.404686
-0.620526
-0.028781
-0.198047
-1.447222
-3.662681
-6.295235
-8.535009
-9.763376
-9.748409
-8.765990
-7.352214
-5.826683
-4.141936
-1.957331
0.902247
4.269399
7.562671
9.883814
10.526994
9.229422
6.359565
2.644296
-0.935604
-3.405902
-4.457285
-4.377323
-3.650210
-2.645111
-1.529661
-0.474530
0.195770
0.036792
-1.352194
-3.988956
-7.358205
-10.493189
-12.037182
-10.912146
-7.323355
-2.635949
1.511851
3.794184
3.845857
2.049129
-1.033017
-4.622503
-8.209183
-11.578899
-14.306141
-15.886373
-15.822075
-13.943510
-10.537548
-5.997435
-0.959802
3.570959
6.432173
6.512136
3.402870
-2.052552
-8.281141
-13.719262
-17.215930
-18.062507
-16.169213
-12.405307
-7.917097
-3.438941
0.868310
5.162000
9.339026
12.924077
15.395084
16.356462
15.746255
14.209275
12.348954
10.173708
7.762093
5.400744
3.366010
1.856385
0.992741
0.870469
1.507804
2.858922
4.730707
6.633820
7.862896
7.622322
5.465546
1.844498
-2.336028
-6.250492
-9.165238
-10.579007
-10.403421
-9.054408
-7.215355
-5.401552
-3.642691
-1.524017
1.253265
4.496270
7.719870
10.345417
11.671052
11.126775
8.541449
4.142323
-1.130503
-5.820473
-8.806060
-9.859313
-9.914719
-10.406625
-12.227201
-15.261184
-18.406455
-20.164841
-19.451288
-16.113361
-10.776233
-4.580368
1.028432
5.154490
7.659631
8.825348
9.350460
9.711915
9.894981
9.830925
9.554112
9.312136
9.374096
9.647175
9.627305
8.632969
6.153085
2.211501
-2.580170
-7.418835
-11.594450
-14.832773
-17.484030
-20.008335
-22.593896
-25.005277
-26.670845
-27.282221
-27.052862
-26.378120
-25.386348
-23.732229
-20.836412
-16.408990
-10.795514
-4.987519
-0.312505
2.385285
3.338948
3.509624
3.960622
5.376269
7.616050
9.725606
10.681841
10.026745
7.943147
4.992162
1.841981
-1.077442
-3.653183
-5.632507
-6.812478
-7.360729
-7.697627
-8.341969
-9.595820
-11.367765
-13.169871
-14.281807
-13.947474
-11.785780
-8.210081
-4.030016
0.120824
3.891042
6.990496
9.071763
9.804020
8.776017
5.879974
1.813308
-2.189999
-4.985042
-6.315812
-6.894223
-7.662243
-9.380182
-12.220581
-15.464281
-17.969415
-18.923304
-18.223545
-16.427978
-14.508032
-13.352602
-13.243649
-13.692536
-13.801014
-13.058237
-11.708521
-10.310410
-9.216001
-8.422490
-7.470931
-5.781041
-3.182614
0.184771
4.125194
8.278606
11.935433
14.266863
14.517263
12.294089
7.889586
1.960491
-4.644980
-10.807171
-15.278306
-17.034821
-15.928255
-12.715877
-8.458893
-4.229496
-0.759708
1.652149
2.753104
2.428129
1.039143
-0.757585
-2.226296
-2.757246
-2.200103
-0.882652
0.602666
1.799477
2.569843
2.948598
3.125353
3.475818
4.275643
5.361635
6.167537
6.247266
5.731980
5.110785
4.911827
5.384802
6.228113
6.780112
6.473140
5.155930
3.104596
0.918595
-0.893330
-2.333517
-3.782122
-5.725675
-8.271957
-10.813330
-12.374390
-12.163502
-10.019343
-6.430785
-2.276438
1.610211
4.614276
6.143314
5.941784
4.689102
3.467281
2.518536
1.610938
0.765765
-0.025168
-0.512631
-0.113068
1.531933
4.317865
7.632179
10.359194
11.333664
10.031651
6.599978
1.860210
-2.929591
-6.894087
-9.535759
-10.404078
-9.364144
-6.910906
-3.961082
-1.373411
0.349211
1.288846
2.093346
3.229838
4.421039
5.094846
4.861754
3.716619
2.198343
1.070275
0.798840
1.430330
2.686760
4.044658
4.851964
4.582867
3.409208
2.199077
1.678882
2.352690
4.449621
7.269687
9.665411
10.665600
9.565821
6.385948
2.165444
-1.799287
-4.980563
-7.460680
-9.605767
-11.825902
-14.021021
-15.507500
-15.624395
-14.322842
-12.030456
-9.538641
-7.671299
-6.845757
-7.176343
-8.456613
-10.227390
