EVENT_NAME: 202302060117
EVENT_ID: 13194
EVENT_DATE_YYYYMMDD: 2023/02/06
EVENT_TIME_HHMMSS: 01:17:32.00000
EVENT_LATITUDE_DEGREE: 37.288
EVENT_LONGITUDE_DEGREE: 37.043
EVENT_DEPTH_KM: 8.6
HYPOCENTER_REFERENCE: AFAD
MAGNITUDE_W: 7.7
MAGNITUDE_W_REFERENCE: AFAD
MAGNITUDE_L: 
MAGNITUDE_L_REFERENCE: 
FOCAL_MECHANISM: 
NETWORK: TU
STATION_CODE: NAR
STATION_NAME: 
STATION_LATITUDE_DEGREE: 37.3919
STATION_LONGITUDE_DEGREE: 37.1574
STATION_ELEVATION_M: 650.0
LOCATION: Kahramanmaras_Pazarck_Turkiye
SENSOR_DEPTH_M: 
VS30_M/S: None
SITE_CLASSIFICATION_EC8: unknown
MORPHOLOGIC_CLASSIFICATION: 
EPICENTRAL_DISTANCE_KM: 15.35
EARTHQUAKE_BACKAZIMUTH_DEGREE: 
DATE_TIME_FIRST_SAMPLE_YYYYMMDD_HHMMSS: 2023/02/06 01:17:05.0327280
DATE_TIME_FIRST_SAMPLE_PRECISION: millisecond
SAMPLING_INTERVAL_S: 0.01
NDATA: 10501
DURATION_S: 
STREAM: HNZ
UNITS: cm/s^2
INSTRUMENT: sensor = CMG-5T/GURALP | digitizer = 
INSTRUMENT_ANALOG/DIGITAL: 
INSTRUMENTAL_FREQUENCY_HZ: 
INSTRUMENTAL_DAMPING: 
FULL_SCALE_G: 
N_BIT_DIGITAL_CONVERTER: 
PGA_CM/S^2: 477.944
TIME_PGA_S: 
BASELINE_CORRECTION: BASELINE REMOVED
FILTER_TYPE: BUTTERWORTH
FILTER_ORDER: 
LOW_CUT_FREQUENCY_HZ: 
HIGH_CUT_FREQUENCY_HZ: 
LATE/NORMAL_TRIGGERED: 
DATABASE_VERSION: 
HEADER_FORMAT: DYNA 1.2
DATA_TYPE: Acceleration
PROCESSING: Manual Paolucci et al., 2011
DATA_TIMESTAMP_YYYYMMDD_HHMMSS: 
DATA_LICENSE: U (unknown license)
DATA_CITATION: Turkish Accelerometric Archive v 1.0 - Disaster And Emergency Management Presidency, Earthquake Department
DATA_CREATOR: AFAD
ORIGINAL_DATA_MEDIATOR_CITATION: : AFAD - Disaster And Emergency Management Presidency
ORIGINAL_DATA_MEDIATOR: AFAD PROCESS SERVICE
ORIGINAL_DATA_CREATOR_CITATION: AFAD PROCESS SERVICE
ORIGINAL_DATA_CREATOR: network: TK
USER1: GuestUser
USER2: 
USER3: 
USER4: 
USER5: 
[...]
-0.012813
-0.010381
-0.014283
-0.009740
-0.014245
-0.012718
-0.009683
-0.013283
-0.011455
-0.011737
-0.014432
-0.007779
-0.014394
-0.011963
-0.012848
-0.013433
-0.011906
-0.011887
-0.017598
-0.007325
-0.014544
-0.015128
-0.008474
-0.016598
-0.011754
-0.012639
-0.009906
-0.012903
-0.014995
-0.011659
-0.011036
-0.013430
-0.010395
-0.016709
-0.013373
-0.013354
-0.012430
-0.014221
-0.013599
-0.013278
-0.014767
-0.011129
-0.009602
-0.016821
-0.012580
-0.013465
-0.008320
-0.014332
-0.013107
-0.009469
-0.013672
-0.010939
-0.009714
-0.014821
-0.010580
-0.012371
-0.008733
-0.012333
-0.012012
-0.010184
-0.010466
-0.011352
-0.013142
-0.010108
-0.013707
-0.010070
-0.010654
-0.012143
-0.010917
-0.012406
-0.010879
-0.010559
-0.012349
-0.011727
-0.010502
-0.010181
-0.013178
-0.009238
-0.011632
-0.010105
-0.012499
-0.010670
-0.014572
-0.010029
-0.014534
-0.006975
-0.013591
-0.014175
-0.010537
-0.013232
-0.013515
-0.009575
-0.014683
-0.008331
-0.010121
-0.014023
-0.009480
-0.011271
-0.008839
-0.010931
-0.011214
-0.013004
-0.012080
-0.009347
-0.008423
-0.009912
-0.012004
-0.010176
-0.010760
-0.008027
-0.010119
-0.007989
-0.014303
-0.015189
-0.006424
-0.012135
-0.010005
-0.008779
-0.013586
-0.011757
-0.010833
-0.008402
-0.011399
-0.012284
-0.012265
-0.011040
-0.008910
-0.008589
-0.011888
-0.012170
-0.008834
-0.010323
-0.012113
-0.010285
-0.009964
-0.007533
-0.012942
-0.007495
-0.010491
-0.012583
-0.008945
-0.010736
-0.011018
-0.010396
-0.009171
-0.014279
-0.006419
-0.013939
-0.007889
-0.010282
-0.010565
-0.011149
-0.011733
-0.007190
-0.013504
-0.007756
-0.011959
-0.009527
-0.008905
-0.011298
-0.008867
-0.011864
-0.009130
-0.009111
-0.010902
-0.010581
-0.007848
-0.009940
-0.010826
-0.008997
-0.010486
-0.009562
-0.012559
-0.006207
-0.012823
-0.008280
-0.007658
-0.012766
-0.010032
-0.006093
-0.011502
-0.007864
-0.007544
-0.012048
-0.010220
-0.006582
-0.008071
-0.009861
-0.009842
-0.004998
-0.010709
-0.012198
-0.008560
-0.004922
-0.009427
-0.008201
-0.006071
-0.008465
-0.006637
-0.007522
-0.009916
-0.009294
-0.011084
-0.005938
-0.009840
-0.006805
-0.005278
-0.013703
-0.005843
-0.006427
-0.010027
-0.010611
-0.009989
-0.003637
-0.010554
-0.005710
-0.005088
-0.010799
-0.006256
-0.006237
-0.007123
-0.011929
-0.006482
-0.007368
-0.011571
-0.007028
-0.007009
-0.008799
-0.009082
-0.008158
-0.007838
-0.011438
-0.004784
-0.007781
-0.010476
-0.004425
-0.009835
-0.006800
-0.006781
-0.009476
-0.006140
-0.006422
-0.003991
-0.010305
-0.007873
-0.007251
-0.006327
-0.008721
-0.008400
-0.004461
-0.010775
-0.007740
-0.002293
-0.009512
-0.007985
-0.001934
-0.010661
-0.008832
-0.008210
-0.009096
-0.009378
-0.006645
-0.007229
-0.012337
-0.007493
-0.002649
-0.008360
-0.008642
-0.006814
-0.008604
-0.009490
-0.005852
-0.010055
-0.004608
-0.009715
-0.002760
-0.009677
-0.005135
-0.006021
-0.009620
-0.004173
-0.007773
-0.006849
-0.008640
-0.005303
-0.006491
-0.010995
-0.003738
-0.005830
-0.011541
-0.003380
-0.011202
-0.002739
-0.014180
-0.000590
-0.009618
-0.007789
-0.005358
-0.009259
-0.004415
-0.011634
0.001956
-0.011596
-0.005244
-0.007034
-0.010031
-0.002171
-0.007279
-0.010275
-0.006034
-0.005412
-0.005092
-0.006580
-0.004149
-0.011368
-0.002905
-0.007108
-0.003771
-0.005562
-0.007051
-0.006428
-0.005806
-0.004581
-0.005467
-0.005749
-0.006032
-0.005711
-0.004486
-0.006578
-0.000527
-0.005937
-0.003505
-0.009518
-0.004975
-0.002242
-0.009159
-0.003712
-0.004296
-0.005483
-0.006972
-0.001223
-0.009045
-0.005407
-0.007197
-0.007480
-0.006255
-0.006537
-0.005614
-0.009515
-0.004972
-0.005858
-0.008252
-0.004312
-0.006706
-0.007290
-0.006668
-0.005744
-0.009646
-0.004198
-0.008703
-0.004462
-0.004744
-0.009551
-0.001389
-0.006798
-0.005271
-0.005252
-0.008249
-0.006421
-0.004592
-0.004272
-0.006062
-0.009059
-0.000897
-0.005703
-0.005383
-0.003554
-0.004742
-0.006532
-0.007116
-0.003177
-0.006475
-0.007059
-0.006136
-0.006720
-0.005494
-0.004571
-0.001536
-0.008152
-0.002101
-0.005701
-0.003571
-0.005663
-0.005041
-0.004720
-0.006812
-0.006793
-0.001647
-0.007660
-0.005228
-0.004003
-0.010015
-0.002759
-0.005755
-0.005435
-0.005416
-0.006301
-0.005679
-0.005359
-0.006848
-0.002003
-0.007111
-0.006187
-0.003454
-0.006149
-0.004321
-0.004905
-0.003077
-0.004264
-0.008467
-0.002416
-0.006318
-0.005696
-0.006883
-0.004753
-0.002623
-0.007429
-0.004998
-0.002566
-0.005261
-0.004639
-0.004318
-0.005506
-0.003979
-0.007277
-0.000623
-0.004826
-0.002395
-0.004185
-0.005373
-0.005655
-0.002922
-0.005617
-0.006804
-0.004071
-0.004957
-0.006446
-0.003713
-0.006709
-0.002770
-0.005163
-0.002129
-0.006935
-0.005106
0.000039
-0.005068
-0.003240
-0.002316
-0.001996
-0.006199
0.001963
-0.007970
-0.006745
-0.001599
-0.003088
-0.001863
-0.005764
-0.000920
-0.006028
-0.007516
-0.001768
-0.009891
-0.002031
-0.006234
-0.004707
-0.002879
-0.002860
-0.004349
-0.006441
-0.002200
-0.007307
0.001457
-0.006968
-0.001520
-0.006327
-0.003292
-0.004178
-0.003254
-0.005647
-0.005025
-0.004102
-0.000765
-0.003460
-0.004949
-0.001914
-0.002800
-0.004289
-0.002159
-0.002442
-0.004534
-0.003007
0.000330
-0.006286
0.000066
-0.002026
-0.005324
0.000425
-0.005588
-0.001648
-0.003740
-0.002817
-0.004607
-0.005794
-0.001855
-0.005756
-0.004531
-0.002401
-0.001779
-0.007188
-0.001741
-0.002627
-0.005623
-0.002287
-0.003474
-0.004360
-0.004039
-0.001306
0.000824
-0.007601
-0.001249
-0.000325
-0.004830
-0.000589
0.000033
-0.006884
-0.001135
-0.002322
-0.003811
-0.007411
-0.005583
-0.001643
-0.004640
-0.002510
-0.003999
-0.003980
-0.009691
-0.001529
-0.005732
-0.002697
-0.004488
-0.005374
0.000375
-0.003828
-0.004713
-0.004996
-0.003771
-0.005259
-0.002828
-0.005523
-0.003695
-0.001866
-0.003657
-0.000622
-0.003619
-0.003600
-0.005692
-0.002054
-0.003241
-0.003825
0.000416
-0.005898
-0.002562
-0.002543
0.002000
-0.004616
-0.005200
0.000549
-0.004559
-0.000921
-0.000902
-0.002994
-0.001467
-0.001749
-0.003238
-0.000807
-0.005311
-0.005594
0.000457
-0.002540
0.000796
-0.002201
-0.003388
-0.000956
-0.001842
-0.000315
-0.004518
-0.001483
-0.005083
-0.002350
0.000685
-0.005328
-0.000182
-0.001068
-0.001652
-0.007061
0.004418
-0.004309
-0.004290
-0.001255
-0.005157
-0.001217
0.000008
0.000630
0.000951
-0.004760
0.000084
-0.000500
-0.000783
-0.001668
-0.004967
-0.001027
-0.001611
0.000519
-0.001272
-0.001856
-0.001837
0.003007
-0.001799
0.001538
-0.002062
-0.002345
0.000991
-0.002608
-0.003193
0.001350
-0.004059
-0.001025
-0.002815
-0.001891
-0.001269
0.000258
-0.000025
-0.002117
0.001220
-0.000872
0.000051
-0.001136
0.001296
-0.004415
0.000127
0.000749
-0.002850
-0.000720
0.002013
-0.002492
0.000241
0.002070
-0.001228
-0.003019
0.000619
0.000035
0.000657
-0.000229
0.000393
-0.001095
0.002542
-0.000756
-0.001642
-0.001623
0.004126
0.000225
-0.003677
0.002374
-0.000321
-0.003620
0.002733
-0.001169
-0.003562
-0.002036
0.000698
0.003732
-0.003788
0.001659
0.001075
0.001094
-0.000395
-0.001884
0.005072
-0.006068
0.004205
0.000907
-0.001185
0.000945
0.000662
-0.001731
-0.000808
0.001322
-0.000468
-0.003163
0.000776
-0.001617
0.001417
-0.002484
-0.002465
0.001776
-0.002729
0.000608
0.000325
0.000043
0.003077
-0.001729
0.000703
0.001325
0.000439
0.001966
-0.002539
0.004718
-0.001897
0.000233
0.002966
-0.002142
0.001798
-0.000294
0.002137
0.000045
0.001874
-0.002028
-0.004120
0.003439
-0.000765
0.002270
-0.002234
0.002308
-0.000990
0.002045
-0.000952
-0.002139
0.002102
0.001216
0.002140
0.000048
0.002479
0.000689
0.001311
0.003743
0.002857
-0.005267
0.002292
0.004422
-0.001892
-0.000667
0.001463
0.001181
-0.001816
0.004234
0.000031
0.001257
-0.002946
-0.000816
0.004329
-0.003794
0.003463
-0.001344
-0.001626
0.001107
-0.001588
-0.002172
0.001164
-0.001833
0.002107
0.000015
0.002446
-0.000249
-0.002341
0.006424
-0.000493
0.001335
0.005878
-0.003754
0.000186
0.002316
0.000526
0.001449
-0.003055
0.007519
-0.000906
0.002732
0.003052
-0.001452
-0.000529
0.000395
0.001922
-0.003487
0.002262
0.002884
0.000490
0.002319
0.005956
-0.002469
-0.000640
0.002093
0.004525
0.002433
0.005467
0.002471
0.006109
0.000699
0.001623
0.009181
0.019756
0.021282
0.034269
0.043637
0.060846
0.060865
0.058170
0.032555
0.063335
0.103162
0.135751
0.145420
0.132773
0.089968
0.083353
0.056230
0.080375
0.114171
0.133189
0.060528
0.060849
0.166721
0.198104
0.107650
0.082336
0.048579
0.196672
0.262133
0.112269
0.212109
0.337584
0.461551
0.588534
0.603028
0.667283
0.787028
0.956533
1.139910
1.186372
1.397796
1.899337
2.217217
2.597524
2.210922
1.312545
1.349959
1.339122
1.300237
1.320462
0.647363
1.330754
1.735488
0.947790
-0.506694
-0.787744
-0.572701
-1.205691
-2.657159
-1.916167
0.708471
0.497688
-0.554493
-0.620820
0.231453
2.016804
0.689887
-1.722403
1.774394
-1.489246
-0.804950
2.400524
0.127863
1.419835
0.600170
-1.125431
0.267268
1.832769
-2.477944
-5.110385
-3.011093
1.103935
3.147737
-0.679851
-3.959776
-2.209106
-0.902357
0.176401
-2.340838
-4.359270
-3.071520
-3.818204
-3.832057
3.099996
-1.323809
-5.264488
2.708908
0.625638
-7.334451
-5.957434
-4.324379
-3.808363
1.381182
5.542653
2.151446
-2.748849
2.401792
1.323676
-1.822651
0.909046
1.733273
-5.178837
-1.993268
8.725981
3.834733
-3.674197
1.620296
7.150622
3.942170
-6.820768
-2.624616
-0.537387
-1.758753
4.097276
-1.747556
2.550830
7.714138
4.136255
-3.348851
-10.171996
-0.029060
1.794893
-4.374134
-9.769919
-5.037564
0.784688
4.274247
11.319994
-1.511759
-7.586392
7.958982
8.568186
-1.440209
-2.386235
-6.047956
-0.745924
10.374723
11.970382
5.124920
-0.562791
-1.350188
-10.200831
-19.893777
-4.760054
6.992395
0.475349
5.982454
6.613974
2.365988
0.786953
-8.119180
-6.862191
-1.271248
-6.660398
-5.355157
-3.884652
1.938505
7.726377
4.109591
-0.261136
-1.431233
4.262849
-0.478817
-3.623937
2.695011
-1.252605
-7.234956
-3.436583
7.482309
19.962462
19.079767
15.301336
5.755861
5.451288
11.611908
0.563678
-15.209047
-10.904931
-4.257264
-11.836462
-3.522888
2.443216
5.583549
9.555027
6.787782
4.154738
3.868862
4.012432
9.412477
9.097951
8.056929
13.187365
4.690470
-5.194278
-1.083171
0.107773
-0.767382
-1.207665
1.611188
0.440488
-4.953186
18.501631
11.630535
-10.535608
2.738595
6.909415
-3.991646
1.666246
-17.858993
-28.026319
-21.066220
-18.763364
-0.611465
-8.332705
-10.308915
19.706092
19.334870
10.647983
6.735954
11.648048
32.755697
38.883445
16.647939
-20.485740
6.284005
18.753904
-6.483493
-19.003416
-52.374025
-45.404275
-3.629299
-12.582478
-33.607155
-20.957516
26.940365
39.149702
39.300509
38.525175
17.846105
27.772509
2.681075
-61.957572
-22.993287
-56.583746
-20.966958
-4.191453
-60.285237
6.216286
31.137066
69.434566
12.183031
-38.736607
50.131927
15.442223
-3.231968
-40.977847
-96.122871
-64.920256
-23.834984
-67.885919
-50.888756
25.259288
40.422566
116.861330
64.706134
58.781384
69.787130
60.386110
-23.836000
-121.459861
-24.527477
39.191702
19.068738
-60.337801
11.552891
99.608677
16.911036
-31.653894
-35.210667
4.043735
53.292377
37.779912
-73.647098
-27.619895
24.699397
-2.777506
-34.490652
-56.189050
-17.657527
74.921301
127.144692
140.607983
85.769361
23.033359
-36.890143
-178.058310
-207.307275
-91.208508
2.795570
13.142372
85.205263
171.023957
91.381283
20.769917
1.380990
-49.168916
-49.566374
-12.674823
44.886770
155.077053
189.942313
98.246538
37.478623
-193.355729
-262.563258
-52.573221
1.537736
-10.518966
161.721554
341.563306
270.106319
121.523295
-4.377268
-101.556304
-124.554799
-93.755693
-70.592500
-49.304207
-41.113978
52.660601
88.375099
-30.316885
12.563671
59.315864
32.911366
137.435935
71.374451
22.340569
28.183027
84.461111
130.371604
42.210003
-76.786272
-188.160506
-151.214672
-63.506904
-83.538792
-72.323752
109.901358
148.229015
188.005445
181.997159
99.522382
9.034722
61.841361
120.279336
-65.194316
-115.474311
14.351608
-23.043537
-27.979418
27.696720
-31.887206
-49.471501
-46.406260
-6.885566
-2.218050
-110.917604
-49.906882
-33.509856
-130.626465
-156.154883
-105.182733
-73.881201
-37.277957
43.719737
21.181750
-62.428764
-73.354554
-50.646440
-95.006792
-60.945233
-21.220373
-116.494049
-20.100280
151.317540
127.936647
87.571276
-43.516099
-144.182564
-192.544533
-228.346149
-53.709906
85.521877
18.161503
152.715235
216.207930
64.419752
-22.608224
-56.958957
-11.359389
-9.136451
-69.701405
-15.355218
133.745349
156.877480
119.142759
191.117289
159.608310
-14.159354
7.915450
143.067810
70.406930
-11.347380
34.637602
228.476416
223.959123
85.742786
-53.508562
-83.072072
-74.265722
-37.136529
-57.862344
144.176633
226.607417
47.300097
63.545732
-75.279489
-92.633982
5.754112
123.518183
-50.665958
-180.908015
-60.347124
-62.953328
-142.881594
-213.619924
-75.549210
49.671337
80.461094
-4.957972
58.142975
9.573823
-129.884708
45.951507
34.480467
-6.728715
11.572766
-77.866313
9.037452
153.568535
153.017272
-81.963152
-310.868018
-159.434758
-133.514554
-47.147595
243.412783
172.534521
-144.154694
-150.612329
9.203245
-258.068465
-477.943533
-404.690320
-29.498272
194.129650
148.625720
215.831122
197.578836
104.084158
-106.986690
-106.860311
39.266413
-20.738816
-98.266534
-2.495822
100.344443
144.605615
2.221191
-153.965780
-360.343196
-405.805508
-153.477471
18.434030
-138.411885
-426.959505
-422.490426
-109.471055
-101.269667
-271.346339
-7.748092
104.877722
4.026693
92.057448
12.997119
-338.466864
-215.912554
4.817219
-66.906361
-162.205973
-149.297582
105.149331
4.525388
-257.726885
-255.364317
-90.125193
-107.019782
-114.017541
-34.857050
12.769111
113.503770
44.556200
7.922233
-70.051215
-178.381941
-33.297767
-114.324073
-308.813651
-151.205615
94.748908
118.574363
217.405774
208.344931
61.256519
67.482582
171.915773
202.493823
19.677964
-70.392013
6.327820
-97.660508
-207.749424
-320.504274
-359.538789
-260.993876
-167.543190
-125.492572
-41.502035
82.830068
35.918982
48.951020
273.175460
245.082135
131.625215
124.859670
33.378617
-210.621955
-262.110667
-106.827483
112.441756
-71.472746
-167.852605
155.571452
220.843447
-18.263747
-193.699732
20.332333
141.147754
112.515512
82.380515
177.890967
135.523129
138.145656
41.794146
32.609959
87.107838
-105.965236
-73.378687
109.576237
53.909788
68.767267
288.594121
265.331445
121.053725
-62.437063
-211.929340
-225.170030
-98.768510
105.955702
163.627974
126.036201
116.855331
99.028871
192.152346
165.973126
47.992561
181.557725
165.591388
-56.676990
-31.538774
81.609371
102.034552
223.264037
242.626765
23.828023
-32.947323
-65.674971
-163.026207
-139.893474
-107.606088
-156.697872
-129.455859
73.935687
126.690154
25.096643
-129.586366
-110.568038
106.528645
148.588310
179.459794
278.235112
215.597122
33.453476
-95.391679
39.531785
60.258844
125.601710
197.313265
74.661886
75.875749
159.816225
151.917658
40.992170
10.269702
16.375436
139.637546
162.120986
4.894783
58.992772
55.536726
30.588240
-29.689915
-39.483588
-86.194728
19.628730
167.450312
32.644803
-101.110920
-42.127092
11.463042
-83.006029
-94.211983
-52.143271
133.521015
240.815261
176.853351
-18.251141
-91.484111
-127.039038
-118.868411
-40.241710
3.809565
-114.838993
-1.380828
113.394321
-0.965519
88.406950
173.957843
58.724336
24.233974
-150.219174
-116.099109
40.095137
46.868259
63.782187
166.621547
148.810769
13.107166
44.884284
85.627568
71.335281
188.309222
195.554010
47.189930
-60.573531
-59.079503
-42.622161
-56.622522
28.154828
149.833059
124.924983
126.398203
222.857715
103.358411
79.445236
4.808429
-180.936944
-152.776329
20.666274
15.824787
66.164531
120.348168
65.042404
30.789081
-37.141574
-66.958709
-130.762292
-176.850074
-170.468096
-34.686044
115.519801
153.771159
137.345823
56.777310
102.782800
36.787662
50.554340
93.008165
48.889073
-49.691690
-76.386304
159.614089
319.519232
156.948193
4.277301
-61.404198
-49.426170
-36.305469
95.385700
150.612489
202.531891
118.159294
-19.142363
20.194068
12.302739
-91.698859
-187.920088
-52.077118
-36.016953
-28.097539
-8.115373
59.102695
-49.969608
-110.933547
-34.851849
-28.105869
77.220893
50.915614
-50.705340
-25.405177
106.592695
71.197905
16.917199
72.347854
-74.803588
-139.306224
-73.987786
-119.158474
2.157564
110.501597
-7.599599
-67.440167
-77.194031
-39.906511
-127.464960
-237.009530
-36.433802
154.886247
151.048707
108.679964
7.096708
-95.248029
-101.181525
-107.033896
-116.137562
-42.635548
-50.389660
-127.702053
-60.280120
-69.531257
-99.983512
-47.563192
53.383475
90.921305
-111.870067
-38.509492
119.167906
6.856373
-79.858567
16.850651
67.920512
-46.397107
-70.704443
-53.398767
-91.124139
-95.210479
-192.533367
-172.649214
-66.374597
-129.903142
-153.626928
-119.056308
-22.824787
34.746457
-37.348364
-45.712565
-50.310378
-65.364146
-22.116572
-27.105832
-37.433294
-119.832074
-113.900651
-114.714888
-60.434144
85.189248
-80.254909
-272.700102
-121.143496
-14.768153
-112.651370
-158.784992
-56.806330
-63.412944
-78.244751
-49.433636
-53.026900
-24.658801
13.648350
18.035400
-55.747645
-78.430992
31.280388
19.475201
-2.932806
42.629366
7.010807
27.403116
105.439029
75.772983
17.990674
-46.597007
-121.512773
-122.681663
-72.468882
26.855002
39.961529
47.563986
147.905993
131.173953
18.516210
-0.131442
-34.245136
-57.976460
-36.737023
22.514906
28.339872
53.288698
59.703246
60.883032
27.610736
23.826877
82.762754
111.127234
97.595824
-12.607088
-54.011389
-47.669220
-5.718725
90.080938
29.320261
-45.860289
-65.486858
-44.878318
-5.031319
74.138219
6.233802
-102.367137
25.195452
57.101041
-57.910807
-24.916225
107.910379
53.077184
-62.433471
-95.569755
-71.608290
-0.587344
50.557911
69.376293
158.782840
201.797899
72.846891
0.486381
43.086169
98.745721
42.513514
-37.171079
-11.353109
13.989576
5.105759
20.820318
-74.035977
-13.145584
51.199668
-77.677454
-81.807825
-70.908837
-122.929228
-50.678756
95.133121
75.528266
33.753930
18.881712
1.013936
-7.996241
-39.839366
-106.700028
-63.540514
77.179850
16.236417
68.294544
175.612011
-3.321957
-105.202569
30.599086
55.908597
-137.767328
-159.181642
37.502546
101.002479
123.129757
69.371381
62.138694
122.820397
40.987374
-48.015927
-11.245007
21.783653
0.378990
-50.869065
-28.905241
58.468380
-18.211004
-102.915938
-97.973384
-51.101164
-56.483982
-64.218792
14.118696
-48.645654
-27.719554
39.186684
-75.710264
-120.336908
-46.811070
58.232512
154.274944
111.784667
-90.771777
12.566089
51.977310
-106.336980
-40.634031
70.406698
39.425176
-1.863320
27.202023
-3.458621
-42.152354
28.927399
79.058754
49.190049
48.115552
70.464489
-0.386631
-48.641239
33.404131
-17.157838
