EVENT_NAME: 202302060117
EVENT_ID: 13194
EVENT_DATE_YYYYMMDD: 2023/02/06
EVENT_TIME_HHMMSS: 01:17:32.00000
EVENT_LATITUDE_DEGREE: 37.288
EVENT_LONGITUDE_DEGREE: 37.043
EVENT_DEPTH_KM: 8.6
HYPOCENTER_REFERENCE: AFAD
MAGNITUDE_W: 7.7
MAGNITUDE_W_REFERENCE: AFAD
MAGNITUDE_L: 
MAGNITUDE_L_REFERENCE: 
FOCAL_MECHANISM: 
NETWORK: TK
STATION_CODE: 3301
STATION_NAME: 
STATION_LATITUDE_DEGREE: 36.78098
STATION_LONGITUDE_DEGREE: 34.60277
STATION_ELEVATION_M: 4.0
LOCATION: Kahramanmaras_Pazarck_Turkiye
SENSOR_DEPTH_M: 
VS30_M/S: 366
SITE_CLASSIFICATION_EC8: unknown
MORPHOLOGIC_CLASSIFICATION: 
EPICENTRAL_DISTANCE_KM: 223.81
EARTHQUAKE_BACKAZIMUTH_DEGREE: 
DATE_TIME_FIRST_SAMPLE_YYYYMMDD_HHMMSS: 2023/02/06 01:17:50.5891130
DATE_TIME_FIRST_SAMPLE_PRECISION: millisecond
SAMPLING_INTERVAL_S: 0.01
NDATA: 14501
DURATION_S: 
STREAM: HNE
UNITS: cm/s^2
INSTRUMENT: sensor = CMG-5T/GURALP | digitizer = 
INSTRUMENT_ANALOG/DIGITAL: 
INSTRUMENTAL_FREQUENCY_HZ: 
INSTRUMENTAL_DAMPING: 
FULL_SCALE_G: 
N_BIT_DIGITAL_CONVERTER: 
PGA_CM/S^2: 45.076
TIME_PGA_S: 
BASELINE_CORRECTION: BASELINE REMOVED
FILTER_TYPE: BUTTERWORTH
FILTER_ORDER: 
LOW_CUT_FREQUENCY_HZ: 
HIGH_CUT_FREQUENCY_HZ: 
LATE/NORMAL_TRIGGERED: 
DATABASE_VERSION: 
HEADER_FORMAT: DYNA 1.2
DATA_TYPE: Acceleration
PROCESSING: Automatic Paolucci et al., 2011
DATA_TIMESTAMP_YYYYMMDD_HHMMSS: 
DATA_LICENSE: U (unknown license)
DATA_CITATION: Turkish Accelerometric Archive v 1.0 - Disaster And Emergency Management Presidency, Earthquake Department
DATA_CREATOR: AFAD
ORIGINAL_DATA_MEDIATOR_CITATION: : AFAD - Disaster And Emergency Management Presidency
ORIGINAL_DATA_MEDIATOR: AFAD PROCESS SERVICE
ORIGINAL_DATA_CREATOR_CITATION: AFAD PROCESS SERVICE
ORIGINAL_DATA_CREATOR: network: TK
USER1: GuestUser
USER2: 
USER3: 
USER4: 
USER5: 
[...]
7.202027
7.131239
7.902981
9.580806
11.920260
14.598550
17.336931
19.796252
21.841543
23.679820
25.510546
27.279923
28.787542
29.732951
29.806255
28.969073
27.343788
25.447622
23.854113
22.642228
21.732685
20.857120
19.397321
16.905910
13.370302
9.060434
4.375235
-0.269380
-4.500595
-8.050989
-10.857956
-12.848820
-13.902456
-13.952479
-12.901676
-10.657235
-7.279248
-3.089877
1.363139
5.472913
8.915081
11.379120
12.626556
12.601072
11.241005
8.593861
5.017039
1.042233
-2.825290
-6.325033
-9.437173
-12.059148
-14.079900
-15.353449
-15.725006
-15.243021
-14.061024
-12.515651
-10.880928
-9.256588
-7.814407
-6.610073
-5.714688
-5.088611
-4.620468
-4.175922
-3.992818
-4.082483
-4.329453
-4.999262
-5.915412
-7.068464
-8.580174
-10.383530
-12.481676
-14.795017
-17.019952
-18.712564
-19.462913
-19.070278
-17.734436
-15.907486
-13.945252
-12.190976
-10.799134
-9.636643
-8.685572
-7.913829
-7.326449
-6.868689
-6.542437
-6.535201
-6.723339
-6.963074
-7.238988
-7.592927
-8.130913
-8.808273
-9.470845
-9.963842
-10.046900
-9.735434
-9.358844
-9.061222
-8.857668
-8.684632
-8.296401
-7.545423
-6.451832
-5.088619
-3.704327
-2.485207
-1.609642
-1.049319
-0.655425
-0.353398
-0.109259
0.040181
0.199375
0.395063
0.699607
1.275347
2.100259
3.019554
3.924378
4.705559
5.234736
5.380401
5.112037
4.479352
3.706665
3.086565
2.887101
3.241669
3.956466
4.861290
5.923105
7.213328
8.813129
10.522414
11.937224
12.766855
12.905599
12.312870
10.998421
9.191920
7.110448
4.954727
2.946874
1.170261
-0.497496
-2.078735
-3.461455
-4.594687
-5.308856
-5.630075
-5.472140
-4.901119
-4.218412
-3.448557
-2.864637
-2.718972
-2.847020
-3.010933
-3.065361
-2.776547
-2.035951
-0.855842
0.484404
1.740334
2.902196
3.777446
4.227340
4.140507
3.476361
2.007753
-0.274756
-3.196871
-6.398675
-9.366094
-11.771931
-13.467060
-14.569145
-15.224797
-15.575904
-15.534061
-14.966816
-13.730391
-11.699887
-8.925640
-5.850938
-2.935745
-0.595663
0.784539
1.107331
0.517748
-0.672114
-2.318478
-4.198913
-6.237913
-8.363745
-10.373171
-12.206414
-13.982084
-15.795821
-17.491894
-18.958614
-20.110408
-20.779588
-20.721699
-19.749234
-17.950284
-15.587864
-12.884090
-10.079955
-7.429980
-5.147157
-3.181147
-1.454243
-0.083480
0.876086
1.303014
1.014200
-0.041008
-1.705619
-3.716618
-5.773551
-7.622524
-8.956479
-9.580983
-9.412352
-8.587125
-7.492591
-6.337336
-5.146531
-3.996625
-2.713952
-0.866237
1.537397
4.060898
6.255945
7.746890
8.310674
8.131345
7.559066
6.951236
6.276708
5.370626
4.133257
2.315745
-0.209330
-3.189019
-6.151719
-8.740345
-10.781232
-12.385124
-13.567750
-14.203895
-14.162996
-13.580964
-12.683376
-11.521201
-10.258663
-9.083274
-8.041909
-6.963420
-5.796210
-4.918129
-4.457222
-4.418211
-4.735340
-5.153144
-5.458318
-5.461779
-5.252562
-4.978535
-4.906175
-5.129549
-5.440386
-5.658412
-5.717560
-5.658727
-5.519984
-5.335936
-5.045549
-4.584014
-3.696494
-1.983748
0.617463
3.933157
7.626385
11.156959
14.085051
16.239512
17.426228
17.607130
17.046491
15.933394
14.491214
12.968492
11.513098
10.232942
9.213914
8.444688
7.772677
7.131183
6.314765
5.267422
4.382104
4.002368
4.235180
4.971686
5.901993
6.656118
7.311769
7.779596
7.845665
7.734292
7.575413
7.308936
6.842367
6.216604
5.379107
4.070636
2.238651
0.062166
-2.178185
-4.039114
-5.015355
-4.918454
-4.045721
-2.618957
-0.641307
1.709472
4.189872
6.873196
9.794367
12.589063
14.769323
16.056400
16.134738
14.744783
12.116830
8.658617
4.747362
0.574980
-3.773585
-8.199545
-12.439883
-16.247630
-19.265702
-20.937864
-21.204655
-20.222437
-18.017952
-15.019387
-11.782031
-8.585890
-5.647730
-2.993036
-0.740730
1.089053
2.541615
3.577632
4.249957
4.706459
5.065431
5.338514
5.362738
4.920079
4.080066
3.037127
1.986009
1.047522
0.519917
0.607694
1.249816
2.161876
3.149128
4.123166
4.869425
5.206689
5.215183
5.075810
4.870053
4.649510
4.488429
4.278583
3.812328
2.928897
1.477907
-0.194255
-1.823315
-3.303564
-4.669608
-6.170307
-7.961707
-10.132214
-12.606322
-15.126992
-17.709641
-20.204827
-22.452729
-24.496133
-26.149104
-27.230110
-27.536542
-27.056445
-25.782267
-23.773785
-21.339319
-18.824627
-16.350834
-13.927065
-11.543566
-9.383441
-7.554288
-6.178491
-5.129261
-4.125649
-3.156016
-2.158067
-1.200074
-0.371072
0.304085
1.150390
2.539087
4.392150
6.267551
7.934364
9.303869
10.448742
11.708762
13.527847
16.182542
19.552664
23.252184
26.617901
28.972456
29.987708
29.863122
28.875240
27.259079
25.189562
22.849165
20.325978
17.516494
14.650380
12.215599
10.449997
9.451733
9.361125
10.236060
11.936537
14.225338
16.845425
19.445692
21.705234
23.256270
23.797717
23.031951
20.765487
17.222329
12.799515
7.816379
2.534675
-2.865952
-8.222848
-13.334661
-17.984310
-21.871024
-24.686486
-26.208578
-26.466560
-25.601692
-23.871956
-21.495379
-18.565399
-15.228312
-11.657782
-8.142624
-5.007517
-2.668064
-1.554968
-1.783376
-3.225242
-5.649012
-8.748568
-12.248939
-15.824188
-19.236154
-22.265866
-24.659433
-26.352674
-27.338038
-27.580290
-26.796277
-24.734941
-21.429314
-17.089559
-12.175008
-7.216411
-2.826947
0.547894
2.880741
4.206829
4.635645
4.372944
3.533874
2.333315
0.935495
-0.680037
-2.417639
-3.938472
-4.972602
-5.382856
-5.129279
-4.236725
-2.654228
-0.500710
1.967734
4.749847
7.826121
10.858349
13.580056
15.566515
16.477631
16.240413
14.920617
12.780941
10.241709
7.757534
5.413990
3.085233
0.680025
-1.704418
-3.763867
-5.159485
-5.761967
-5.376882
-3.957983
-1.880287
0.368873
2.471109
4.246778
5.609362
6.591580
7.204758
7.514965
7.284040
6.347755
5.018834
3.634857
2.484950
1.855097
1.663498
1.639902
1.665700
1.746241
2.162157
3.051879
4.179448
5.180857
5.735203
5.819519
5.521581
5.028270
4.700444
4.637836
4.753613
4.984853
5.261711
5.693987
6.209636
6.734723
7.081740
7.080481
6.748565
5.910439
4.750780
3.502085
2.457259
1.816709
1.507760
1.361151
1.183080
0.903705
0.498799
0.075017
-0.068132
0.158703
0.621183
1.234990
1.733335
1.994148
1.825516
1.045278
-0.251866
-1.895399
-3.655652
-5.398916
-6.933593
-8.000442
-8.703600
-9.070123
-8.979200
-8.276357
-6.825682
-4.922281
-2.836090
-0.881092
0.586886
1.464024
1.843131
1.871446
1.724207
1.593643
1.578856
1.689599
2.034728
2.756762
3.833679
5.244398
6.942358
8.716454
10.298007
11.591376
12.646584
13.403855
13.813164
13.747096
13.004297
11.646432
9.766312
7.533826
5.123270
2.621791
0.204628
-1.954553
-3.800066
-5.316495
-6.507301
-7.361158
-7.922740
-8.323871
-8.715877
-9.138716
-9.229324
-8.721226
-7.757885
-6.529955
-5.179641
-3.855755
-2.751782
-1.873701
-1.096295
-0.444734
0.104263
0.445617
0.438381
0.163095
-0.292148
-1.018902
-2.003952
-3.088733
-4.260977
-5.402075
-6.474587
-7.314286
-7.559998
-7.432580
-6.874774
-5.562528
-3.751937
-1.576711
0.892048
3.425617
5.692395
7.261364
8.057017
8.198278
7.690809
6.626791
5.189959
3.483189
1.541405
-0.484066
-2.385266
-3.899493
-4.697348
-4.496312
-3.186583
-0.892748
2.039434
5.229598
8.241062
10.783755
12.787203
14.428218
15.935523
17.230465
18.207964
18.683657
18.519429
17.581257
15.916960
13.723801
11.420842
9.354471
7.568105
6.013293
4.438661
2.797960
1.234653
0.225064
0.183220
1.149393
3.217651
6.172485
9.496044
12.769580
15.616817
17.782919
19.012108
19.171301
18.303601
16.485460
14.058544
11.319847
8.372564
5.312334
2.208374
-0.929250
-4.132314
-7.285354
-10.066837
-12.237973
-13.507432
-13.715076
-13.030166
-11.703134
-10.220998
-8.925112
-7.805409
-6.676267
-5.267121
-3.468485
-1.602208
0.009863
1.112263
1.443549
1.066329
0.239529
-0.785791
-1.895113
-3.068930
-4.378659
-5.946684
-7.889413
-10.070617
-12.376407
-14.623994
-16.559172
-17.902564
-18.263424
-17.335320
-15.102520
-12.020268
-8.697652
-5.756346
-3.585210
-2.284291
-1.666708
-1.546526
-1.831879
-2.493823
-3.532042
-5.053190
-6.954075
-9.019502
-11.133065
-13.103479
-15.009083
-16.892979
-18.860561
-20.941404
-22.924403
-24.522002
-25.409836
-25.211317
-23.653988
-20.720548
-16.689426
-11.851955
-6.402878
-0.738607
4.740043
9.634145
13.571512
16.332230
17.810276
18.061966
17.234222
15.374236
12.523538
8.909278
4.900493
0.765864
-3.047860
-6.059640
-7.952659
-8.653929
-8.333340
-7.234086
-5.729298
-3.875920
-1.462533
1.479717
4.750736
8.231601
11.756197
15.042947
17.837014
19.855249
20.864524
20.884029
20.252603
19.393713
18.521923
17.672471
16.696545
15.403805
13.567415
11.181084
8.281936
5.261977
2.606653
0.649453
-0.254113
-0.320181
0.334526
1.442588
2.671462
3.806581
4.785653
5.771646
6.742538
7.495719
7.674104
7.287131
6.335115
4.744438
2.670831
0.306523
-2.120708
-4.471487
-6.774761
-9.328151
-12.161230
-14.895837
-17.154750
-18.538413
-18.689112
-17.556510
-15.372474
-12.470495
-9.249185
-5.913985
-2.384355
1.465235
5.411411
8.956143
11.680366
13.376753
13.944942
13.336797
11.666837
9.310709
6.729004
4.127164
1.754047
-0.247514
-2.019408
-3.580827
-4.958512
-6.084193
-6.810632
-6.849330
-5.880325
-3.930991
-1.328522
1.420871
3.966080
6.164273
7.983359
9.415157
10.523220
11.357255
11.836724
11.900275
11.653619
11.009609
9.842713
8.092842
5.745837
3.054648
0.540899
-1.344570
-2.498566
-2.934304
-2.803426
-2.360452
-1.772128
-1.271896
-1.057331
-0.950363
-1.032162
-1.361875
-1.953346
-2.733898
-3.510675
-4.283676
-5.033396
-5.773678
-6.478094
-7.113296
-7.719238
-8.326754
-8.762177
-8.850583
-8.461723
-7.576406
-6.238362
-4.726337
-3.395844
-2.644237
-2.656507
-3.197954
-3.961202
-4.612764
-5.045670
-5.375698
-5.659792
-5.934449
-6.227982
-6.446008
-6.598909
-6.637292
-6.590415
-6.576887
-6.500122
-6.261017
-5.839438
-5.394262
-5.200147
-5.338576
-5.762673
-6.289648
-6.762824
-6.955996
-6.887726
-6.878917
-6.964491
-7.053841
-6.987144
-6.797433
-6.626913
-6.606779
-7.021752
-7.921856
-9.152303
-10.517090
-11.671401
-12.533752
-13.246033
-13.923078
-14.569606
-15.134019
-15.512183
-15.655646
-15.604365
-15.334743
-14.946826
-14.601697
-14.317288
-14.006767
-13.659435
-13.219294
-12.698297
-12.120670
-11.317151
-10.171650
-8.840527
-7.398032
-6.065651
-5.178131
-4.882396
-5.052287
-5.225953
-4.992511
-4.237757
-3.248933
-2.435976
-2.132376
-2.446044
-3.171224
-3.867460
-4.134881
-3.694110
-2.625059
-1.354656
-0.152839
1.108125
2.470394
3.916035
5.480285
7.068760
8.366848
9.011802
8.951396
8.202305
7.011499
5.647342
4.106373
2.246388
0.011700
-2.497959
-4.955392
-6.953807
-8.154995
-8.331178
-7.585862
-6.396315
-5.274409
-4.497318
-4.166347
-4.069761
-3.941715
-3.675238
-3.348357
-3.190737
-3.310919
-3.572361
-3.711420
-3.450607
-2.692392
-1.808648
-1.371023
-1.673051
-2.654325
-3.867469
-4.863844
-5.497158
-5.553474
-4.816653
-3.497801
-2.071351
-0.822342
0.273136
1.391267
2.668905
4.242908
6.070173
7.904045
9.394047
10.231858
10.547413
10.712899
11.009893
11.659566
12.745920
14.079245
15.421064
16.565937
17.313769
17.689415
17.788518
17.387387
16.307639
14.611881
12.463712
10.067942
7.613655
5.230156
2.960546
0.930670
-0.715379
-1.875039
-2.451408
-2.396351
-1.736925
-0.626974
0.827162
2.476986
4.161103
5.893985
7.555449
9.132598
10.556531
11.633762
12.135568
11.935474
11.061483
9.589728
7.664304
5.404132
2.962115
0.529851
-1.663623
-3.240143
-3.796377
-3.162749
-1.345866
1.229861
4.028333
6.543340
8.493304
9.790133
10.433200
10.421874
9.764964
8.372806
6.164231
3.316679
0.128717
-3.154257
-6.246262
-8.775742
-10.594198
-11.676149
-12.075391
-11.803881
-10.997531
-9.514137
-7.273157
-4.330278
-0.857907
2.896041
6.633944
10.049999
12.893775
14.996640
16.481608
17.453758
17.969092
18.052464
17.909316
17.626165
17.225978
16.680441
16.173601
15.840742
15.742898
15.943620
16.418369
16.980895
17.332630
17.302113
16.812262
15.876921
14.452988
12.636419
10.417461
7.737912
4.612243
1.166929
-2.336903
-5.371649
-7.448717
-8.317045
-8.069761
-7.147948
-5.992379
-5.038791
-4.556806
-4.392264
-4.247228
-3.848615
-3.058310
-2.076407
-1.110234
-0.359885
-0.042127
-0.413370
-1.623996
-3.594096
-5.919077
-8.185541
-10.090516
-11.506898
-12.543545
-13.461582
-14.529060
-15.638382
-16.438440
-16.515835
-15.685574
-14.130133
-12.237743
-10.353848
-8.614045
-7.010154
-5.492466
-3.913744
-2.372147
-1.084755
-0.126762
0.633025
1.523691
2.711036
4.069529
5.378629
6.303588
6.558109
6.108528
5.068736
3.580622
1.869762
0.008833
-2.262035
-4.854437
-7.604459
-10.356369
-12.856275
-14.786104
-15.860504
-16.077901
-15.847920
-15.243236
-14.066902
-12.166647
-9.444940
-6.140258
-2.620381
0.538951
2.991979
4.368091
4.682703
4.282202
3.653922
3.154633
2.713861
2.174617
1.480897
0.911135
0.773335
1.316355
2.693725
4.725488
6.997300
9.175672
10.967386
12.337206
13.541225
14.816032
15.869353
16.300685
15.981354
14.786144
12.817617
10.282160
7.254336
3.741065
-0.277472
-4.640824
-9.181302
-13.642183
-17.374423
-19.949207
-21.355522
-21.583616
-20.637893
-18.714042
-16.048650
-12.897813
-9.195461
-4.699344
0.539572
5.923210
10.621308
13.788820
14.660609
13.199866
9.918465
5.462932
0.173677
-5.947096
-12.899388
-20.617131
-28.711465
-36.161473
-41.706192
-44.691544
-45.076315
-42.974079
-38.854551
-33.335631
-26.826627
-19.581117
-11.882251
-3.959066
3.821913
10.986254
16.914170
20.882998
22.937098
23.330363
22.424595
20.855626
19.230341
17.932567
16.924865
15.850780
14.348508
12.208204
9.525823
6.682991
4.108207
1.987409
0.341359
-0.713220
-1.131024
-0.797221
0.332235
2.251367
4.726418
7.161513
9.133500
10.420892
10.742110
10.283720
9.632788
9.241411
9.184466
9.235433
9.135701
8.721986
7.909344
6.866720
5.864366
5.000442
4.141866
3.076276
1.917875
0.815789
-0.262071
-1.552609
-3.031599
-4.630457
-6.267068
-7.837296
-9.160868
-9.549728
-8.483194
-5.944592
-2.150058
2.392622
7.003572
11.221259
14.896554
17.855478
19.819285
20.639478
20.205628
18.647040
16.149337
13.029960
9.438037
5.205564
0.310518
-4.773924
-9.239210
-12.361732
-13.725260
-13.460357
-11.940153
-9.755489
-7.401878
-4.767633
-1.462951
2.796579
7.908077
13.048520
17.376634
19.967463
20.368907
18.676610
15.264644
11.024621
6.594886
2.356120
-1.916938
-6.531979
-11.190122
-15.321290
-18.326148
-19.611337
-18.756852
-15.501878
-10.376851
-4.583275
1.132593
6.373082
10.949111
14.916051
18.492559
21.687127
24.075345
25.003450
24.087300
21.500247
17.804816
13.558815
9.314386
5.602596
2.445466
-0.257050
-2.451153
-4.111989
-4.927778
-4.746247
-3.716523
-2.072047
-0.163297
1.751116
3.527099
5.223171
6.806298
8.048700
8.602102
8.182095
6.790567
4.744960
2.498317
0.472217
-1.094865
-2.291019
-3.440297
-4.935961
-6.763856
-8.654359
-10.267689
-11.299301
-11.576160
-11.130355
-10.226790
-9.029063
-7.753312
-6.482595
-5.198035
-4.012263
-2.960831
-2.089985
-1.413255
-1.089205
-1.347502
-2.350799
-4.107592
-6.483541
-9.158685
-11.551938
-13.267516
-14.200340
-14.491671
-14.402951
-14.171082
-13.746042
-13.198303
-12.486965
-11.271935
-9.322600
-6.868628
-4.615378
-2.924969
-2.120821
-2.395792
-3.537204
-5.027835
-6.361475
-7.421402
-8.148471
-8.539848
-8.552747
-7.950580
-6.496130
-4.077709
-0.861118
2.495790
5.183204
6.737387
6.999458
6.267671
5.124686
3.729382
1.909038
-0.334145
-2.712610
-5.091390
-7.357540
-9.049837
-9.553216
-8.540795
-6.171139
-2.826816
0.663173
3.721515
6.301017
8.598627
10.808146
12.980855
15.005067
16.459203
17.021414
16.495697
15.088124
13.195734
11.089093
8.620019
5.680600
2.514661
-0.700357
-3.696091
-6.107591
-7.715887
-8.446731
-8.397337
-7.992431
-7.736967
-7.781013
-7.948701
-8.011938
-7.747035
-7.033181
-5.979861
-5.069374
-4.630806
-4.631120
-4.777415
-4.717639
-4.359926
-3.749264
-3.094872
-2.685247
-2.393288
-1.810942
-0.526382
1.574281
4.021961
6.116017
7.284486
7.420398
6.933064
6.534136
6.792117
7.890427
9.511936
11.018927
11.820243
11.524193
10.096170
7.831594
5.047279
2.019140
-1.091742
-4.229366
-7.159032
-9.547565
-10.951363
-10.622279
-8.064171
-3.575604
2.086780
8.071326
13.909892
19.421262
24.486512
28.997416
32.719903
35.273922
36.258657
35.390328
32.386414
27.564358
22.000133
16.630024
11.931925
8.115683
5.082510
2.522828
0.240634
-1.650498
-3.060588
-3.887388
-3.872602
-3.126657
-1.952526
-0.442075
1.256514
2.905709
4.377778
5.696316
6.842761
7.822462
8.680408
9.217765
9.290755
8.916681
8.125432
7.010763
5.847328
4.831761
4.099344
3.712057
3.411288
3.043821
2.783951
2.881795
3.433310
4.441011
5.876899
7.423846
8.574381
9.090659
8.786114
7.556297
5.657614
3.421667
1.130979
-0.865234
-2.355550
-3.298127
-3.655212
-3.348780
-2.523239
-1.631315
-1.158768
-1.539448
-2.952685
-5.261936
-7.946519
-10.270557
-11.800514
-12.468435
-12.178363
-11.227607
-10.041835
-8.773949
-7.517390
-6.278449
-4.893527
-3.234894
-1.385921
0.745260
3.077792
5.227534
6.799964
7.574538
7.525773
6.743019
5.372569
3.830342
2.379037
1.138837
0.232441
-0.195117
-0.129993
0.316441
1.173444
2.161954
3.103587
3.874386
4.497946
5.159575
5.921564
6.523102
6.812545
6.856905
6.732004
6.638879
6.409212
5.599086
4.078881
1.856463
-0.712657
-3.114089
-5.221674
-6.673923
-7.196808
-6.977209
-6.502460
-6.149465
-6.074273
-6.286007
-6.576709
-6.691857
-6.574192
-6.146635
-5.530625
-5.170709
-5.430579
-6.371898
-7.654256
-8.999851
-10.122386
-10.689946
-10.477583
-9.401296
-7.435916
-4.741895
-1.587283
1.556633
4.187417
6.171988
7.526392
8.488160
9.244487
9.643729
9.281296
7.918398
5.586809
2.568738
-0.725249
-3.752758
-6.022054
-7.517089
-8.289776
-8.452116
-8.234719
-7.550124
-6.115494
-3.724759
-0.387043
3.603179
7.781539
11.487351
14.263171
16.015874
17.034586
17.709114
17.940354
17.191263
15.187185
11.872749
7.052581
0.844975
-5.941202
-12.341666
-18.046522
-22.751228
-26.067237
-27.791939
-27.890413
-26.386254
-23.236046
-18.791524
-13.708970
-8.715766
-4.365629
-0.756087
2.312636
4.960724
7.188490
8.832651
9.543045
9.078678
7.224984
4.314196
0.959804
-2.376025
-5.265106
-7.603301
-9.353487
-10.395482
-10.536113
-9.796776
-8.199806
-5.896219
-3.368313
-0.824362
1.871232
4.930203
8.515519
12.481516
16.456951
19.882759
22.222212
23.340972
23.352927
22.484598
20.899269
18.691008
15.848805
12.265690
8.080094
3.594988
-0.831286
-4.729012
-7.736073
-9.606755
-10.301418
-9.688869
-7.454496
-3.656816
1.363130
7.279720
13.650609
19.878036
25.414260
30.017660
33.341219
35.251227
35.847102
35.081022
32.928448
29.353828
24.427006
18.535585
12.312877
6.303477
1.196068
-2.619544
-5.212890
-6.644059
-6.805770
-5.702112
-3.420547
-0.328857
3.268729
7.126814
10.560487
12.961605
13.967733
13.609390
12.053949
9.598089
6.605815
3.264323
-0.347736
-4.319710
-8.522610
-12.605642
-16.500537
-19.923199
-22.651513
-24.754694
-26.337820
-27.412849
-27.966566
-28.268908
-28.283381
-27.914656
