EVENT_NAME: 202302060117
EVENT_ID: 13194
EVENT_DATE_YYYYMMDD: 2023/02/06
EVENT_TIME_HHMMSS: 01:17:32.00000
EVENT_LATITUDE_DEGREE: 37.288
EVENT_LONGITUDE_DEGREE: 37.043
EVENT_DEPTH_KM: 8.6
HYPOCENTER_REFERENCE: AFAD
MAGNITUDE_W: 7.7
MAGNITUDE_W_REFERENCE: AFAD
MAGNITUDE_L: 
MAGNITUDE_L_REFERENCE: 
FOCAL_MECHANISM: 
NETWORK: TK
STATION_CODE: 4001
STATION_NAME: 
STATION_LATITUDE_DEGREE: 39.15954
STATION_LONGITUDE_DEGREE: 34.16151
STATION_ELEVATION_M: 754.0
LOCATION: Kahramanmaras_Pazarck_Turkiye
SENSOR_DEPTH_M: 
VS30_M/S: 460
SITE_CLASSIFICATION_EC8: B
MORPHOLOGIC_CLASSIFICATION: 
EPICENTRAL_DISTANCE_KM: 326.57
EARTHQUAKE_BACKAZIMUTH_DEGREE: 
DATE_TIME_FIRST_SAMPLE_YYYYMMDD_HHMMSS: 2023/02/06 01:18:05.7799210
DATE_TIME_FIRST_SAMPLE_PRECISION: millisecond
SAMPLING_INTERVAL_S: 0.01
NDATA: 18251
DURATION_S: 
STREAM: HNE
UNITS: cm/s^2
INSTRUMENT: sensor = CMG-5T/GURALP | digitizer = 
INSTRUMENT_ANALOG/DIGITAL: 
INSTRUMENTAL_FREQUENCY_HZ: 
INSTRUMENTAL_DAMPING: 
FULL_SCALE_G: 
N_BIT_DIGITAL_CONVERTER: 
PGA_CM/S^2: 2.859
TIME_PGA_S: 
BASELINE_CORRECTION: BASELINE REMOVED
FILTER_TYPE: BUTTERWORTH
FILTER_ORDER: 
LOW_CUT_FREQUENCY_HZ: 
HIGH_CUT_FREQUENCY_HZ: 
LATE/NORMAL_TRIGGERED: 
DATABASE_VERSION: 
HEADER_FORMAT: DYNA 1.2
DATA_TYPE: Acceleration
PROCESSING: Automatic Paolucci et al., 2011
DATA_TIMESTAMP_YYYYMMDD_HHMMSS: 
DATA_LICENSE: U (unknown license)
DATA_CITATION: Turkish Accelerometric Archive v 1.0 - Disaster And Emergency Management Presidency, Earthquake Department
DATA_CREATOR: AFAD
ORIGINAL_DATA_MEDIATOR_CITATION: : AFAD - Disaster And Emergency Management Presidency
ORIGINAL_DATA_MEDIATOR: AFAD PROCESS SERVICE
ORIGINAL_DATA_CREATOR_CITATION: AFAD PROCESS SERVICE
ORIGINAL_DATA_CREATOR: network: TK
USER1: GuestUser
USER2: 
USER3: 
USER4: 
USER5: 
[...]
0.423875
0.319024
0.246194
0.185920
0.137576
0.123763
0.127217
0.156727
0.168970
0.174621
0.152019
0.129417
0.085467
0.033042
-0.015302
-0.067414
-0.129257
-0.178857
-0.234735
-0.282452
-0.296892
-0.307565
-0.290613
-0.244779
-0.169122
-0.093466
0.004166
0.098658
0.193464
0.282620
0.384960
0.495463
0.595292
0.716782
0.828854
0.929624
1.045150
1.173860
1.288444
1.398946
1.498461
1.576629
1.653855
1.719467
1.768125
1.803286
1.796066
1.775661
1.715074
1.626861
1.541787
1.433483
1.333968
1.224095
1.114221
1.004975
0.897298
0.809399
0.722756
0.638310
0.573328
0.562027
0.556377
0.554180
0.572388
0.565482
0.589027
0.610060
0.628896
0.669079
0.711146
0.751643
0.776129
0.815370
0.834520
0.833893
0.843939
0.822592
0.770167
0.691372
0.597822
0.509923
0.416373
0.348252
0.287664
0.242146
0.217660
0.198824
0.195058
0.204162
0.238380
0.297713
0.354220
0.457816
0.578678
0.701738
0.807531
0.915836
1.000911
1.047686
1.109530
1.144062
1.219719
1.250798
1.290981
1.306678
1.318921
1.344978
1.364755
1.401485
1.426600
1.459249
1.462074
1.463644
1.439786
1.400546
1.337447
1.258652
1.144697
0.995896
0.866245
0.743500
0.593444
0.488279
0.381230
0.297726
0.223640
0.153321
0.082688
0.014252
-0.033464
-0.084948
-0.119165
-0.163114
-0.207378
-0.244107
-0.272987
-0.292137
-0.289939
-0.307518
-0.272986
-0.261998
-0.208944
-0.156204
-0.110056
-0.062653
-0.018075
0.026817
0.051931
0.117856
0.159609
0.215802
0.268542
0.325363
0.390346
0.466945
0.542601
0.647139
0.736923
0.831729
0.882271
0.937837
0.964835
0.964207
0.941291
0.846800
0.774597
0.657189
0.554849
0.420489
0.314068
0.206706
0.099971
0.024316
-0.060444
-0.072059
-0.104393
-0.101567
-0.086185
-0.072057
-0.046943
-0.023398
-0.001109
0.006426
0.027145
0.042528
0.080200
0.121324
0.192586
0.247524
0.332284
0.438078
0.544499
0.649037
0.757028
0.863136
0.967046
1.062794
1.128719
1.214421
1.265591
1.314250
1.336539
1.339679
1.318333
1.281290
1.226039
1.154778
1.081948
1.004094
0.928438
0.856863
0.797532
0.749815
0.720935
0.680752
0.670079
0.674789
0.663488
0.674789
0.691742
0.708380
0.714031
0.709009
0.696766
0.665374
0.603217
0.548908
0.469799
0.371540
0.284583
0.185383
0.111297
0.007701
-0.080826
-0.118496
-0.145180
-0.225230
-0.160875
-0.110333
-0.124459
-0.065754
-0.013014
0.044749
-0.012072
0.005509
-0.014582
-0.083018
-0.106248
-0.142349
-0.196030
-0.279220
-0.361469
-0.414522
-0.449367
-0.533499
-0.512152
-0.506501
-0.553589
-0.497710
-0.459097
-0.411379
-0.296168
-0.237149
-0.190374
-0.070454
-0.047537
-0.018655
0.052921
0.087767
0.143960
0.161540
0.247243
0.267962
0.334829
0.434030
0.452866
0.534173
0.571845
0.636828
0.650955
0.628039
0.620191
0.628040
0.581265
0.483320
0.428384
0.354611
0.301558
0.256981
0.192313
0.140201
0.126389
0.077417
0.039746
0.012749
-0.007656
-0.011423
-0.031828
-0.015817
0.009611
0.049481
0.120428
0.193260
0.278648
0.364978
0.459470
0.564008
0.638723
0.704962
0.725368
0.764295
0.772143
0.749227
0.757704
0.700883
0.638099
0.612671
0.554281
0.504053
0.488043
0.434676
0.430282
0.379740
0.325117
0.316955
0.257310
0.192327
0.122636
0.030656
-0.019572
-0.094914
-0.158012
-0.176220
-0.282327
-0.337263
-0.417314
-0.469739
-0.539745
-0.641770
-0.671907
-0.709892
-0.804383
-0.783350
-0.646791
-0.654011
-0.551043
-0.442738
-0.449330
-0.313085
-0.231464
-0.146076
0.003981
-0.037456
-0.013598
-0.034002
-0.100868
0.000530
0.041655
0.025017
0.023134
0.047621
0.024077
0.043227
0.169112
0.294996
0.260151
0.241316
0.318228
0.268942
0.378817
0.451020
0.532641
0.582242
0.467346
0.511610
0.464835
0.451023
0.454476
0.376623
0.296886
0.235357
0.127680
0.002110
0.005250
-0.104938
-0.258447
-0.256877
-0.351683
-0.526539
-0.483845
-0.636413
-0.772970
-0.749426
-0.896657
-0.984870
-1.116718
-1.228790
-1.346512
-1.457327
-1.552133
-1.590431
-1.701561
-1.780984
-1.706897
-1.813317
-1.884892
-1.853185
-1.738288
-1.659178
-1.506295
-1.281524
-1.171335
-0.975445
-0.813772
-0.658064
-0.441455
-0.377413
-0.142910
0.124870
0.196759
0.348072
0.463911
0.523244
0.627154
0.813941
0.979694
1.097103
1.137600
1.215140
1.367709
1.456550
1.574587
1.623246
1.583378
1.448704
1.331610
1.319367
1.238060
1.145139
1.015173
0.812063
0.678959
0.417145
0.204931
0.279960
0.189549
-0.107739
-0.277258
-0.307395
-0.490728
-0.598090
-0.537816
-0.656793
-0.948745
-1.053282
-1.111986
-1.346488
-1.428423
-1.456989
-1.546144
-1.628079
-1.642519
-1.622113
-1.614892
-1.527934
-1.408014
-1.327649
-1.217774
-1.059869
-0.943088
-0.917659
-0.831957
-0.795541
-0.865546
-0.779844
-0.667458
-0.707326
-0.694455
-0.651132
-0.565744
-0.485379
-0.496366
-0.431382
-0.387746
-0.358551
-0.288231
-0.260291
-0.360433
-0.479411
-0.550672
-0.604981
-0.676869
-0.573901
-0.503895
-0.580807
-0.608118
-0.693191
-0.798356
-0.965051
-0.917020
-0.777008
-0.770729
-0.606231
-0.388366
-0.346614
-0.350694
-0.314906
-0.261538
-0.108028
0.063690
0.088177
0.042030
0.043600
0.058983
0.074366
0.027905
-0.031741
-0.065958
-0.092642
-0.082595
-0.107081
-0.154170
-0.222605
-0.273461
-0.384277
-0.548146
-0.618465
-0.646718
-0.723002
-0.817493
-0.849199
-0.950597
-1.114152
-1.137383
-1.168147
-1.227793
-1.157787
-1.095943
-1.106302
-1.243487
-1.185097
-0.974766
-0.943059
-1.010866
-0.871169
-0.717658
-0.873993
-0.783896
-0.386151
-0.252104
-0.376104
-0.216315
0.014421
0.074067
0.172013
0.533970
0.630660
0.359114
0.350325
0.511369
0.504777
0.635371
0.910685
0.700668
0.445761
0.334631
0.350642
0.365397
0.388000
0.429438
0.183634
-0.031091
-0.058402
-0.109572
-0.216306
-0.309856
-0.370757
-0.530231
-0.665847
-0.584540
-0.647011
-0.864248
-0.973494
-0.870839
-0.717015
-0.711050
-0.831597
-0.817470
-0.708537
-0.693155
-0.610591
-0.435106
-0.314872
-0.260876
-0.355054
-0.500715
-0.470264
-0.395863
-0.352227
-0.246433
-0.183020
-0.181136
-0.069692
-0.011301
0.047718
0.128083
0.142210
0.129340
0.131538
0.113016
0.118981
0.201858
0.190871
0.138132
0.121808
0.109252
0.092928
0.045525
0.043328
0.100149
0.166388
0.187736
0.100778
0.010996
-0.113005
-0.172022
-0.151303
-0.200903
-0.264316
-0.323019
-0.460833
-0.535547
-0.550615
-0.549673
-0.634432
-0.780408
-0.833461
-0.908489
-0.948357
-0.970960
-0.899698
-0.909743
-0.933287
-0.885256
-0.827179
-0.804576
-0.806773
-0.696899
-0.678377
-0.638194
-0.590790
-0.529574
-0.467730
-0.491588
-0.557199
-0.563791
-0.510423
-0.498493
-0.457682
-0.417185
-0.426289
-0.438218
-0.386419
-0.390186
-0.396150
-0.411846
-0.421578
-0.416240
-0.451086
-0.454853
-0.499116
-0.550913
-0.615268
-0.650427
-0.672088
-0.707875
-0.705991
-0.711013
-0.778821
-0.846629
-0.888067
-0.972826
-1.057586
-1.112209
-1.153647
-1.224594
-1.302447
-1.354245
-1.404472
-1.409809
-1.372765
-1.386891
-1.422051
-1.433352
-1.476987
-1.509635
-1.499589
-1.451244
-1.436489
-1.473218
-1.485147
-1.506493
-1.523759
-1.548559
-1.498958
-1.492051
-1.537884
-1.511828
-1.512455
-1.520617
-1.511826
-1.476352
-1.448413
-1.444645
-1.439622
-1.413566
-1.445586
-1.445271
-1.440562
-1.467873
-1.495498
-1.535994
-1.547609
-1.567072
-1.556712
-1.518099
-1.466929
-1.445581
-1.395981
-1.340415
-1.333194
-1.341670
-1.332252
-1.317811
-1.320636
-1.362702
-1.384990
-1.405709
-1.470691
-1.531906
-1.579623
-1.606306
-1.625769
-1.598457
-1.557018
-1.525939
-1.487326
-1.423285
-1.336327
-1.246857
-1.192234
-1.127250
-1.090207
-1.012353
-0.964949
-0.949253
-0.900280
-0.895256
-0.910952
-0.917544
-0.886779
-0.911893
-0.911265
-0.907811
-0.881755
-0.852873
-0.807667
-0.745823
-0.710035
-0.670480
-0.637518
-0.608008
-0.593253
-0.549617
-0.543652
-0.515084
-0.467367
-0.461716
-0.440369
-0.433462
-0.439426
-0.440367
-0.471446
-0.482747
-0.482432
-0.500326
-0.530462
-0.566877
-0.595130
-0.637824
-0.679890
-0.731687
-0.763707
-0.791332
-0.818330
-0.814248
-0.823980
-0.804202
-0.820840
-0.814875
-0.786307
-0.784423
-0.788504
-0.818640
-0.820523
-0.839044
-0.872006
-0.885819
-0.899631
-0.947034
-0.983449
-1.025828
-1.065697
-1.113413
-1.158618
-1.182476
-1.201311
-1.236157
-1.257189
-1.264723
-1.308358
-1.336611
-1.345715
-1.344145
-1.335041
-1.288893
-1.218887
-1.107129
-0.997882
-0.869172
-0.705930
-0.555873
-0.419942
-0.313521
-0.202076
-0.120455
-0.084981
-0.079016
-0.086864
-0.110722
-0.160322
-0.226874
-0.314145
-0.404869
-0.506581
-0.597305
-0.676728
-0.719108
-0.747047
-0.801042
-0.833690
-0.850641
-0.829294
-0.785658
-0.736685
-0.695560
-0.624612
-0.551153
-0.489309
-0.450696
-0.407060
-0.380062
-0.383829
-0.356830
-0.379433
-0.406430
-0.423696
-0.432171
-0.455715
-0.431857
-0.397324
-0.392929
-0.367186
-0.337677
-0.328573
-0.328572
-0.293726
-0.262961
-0.248520
-0.260763
-0.261704
-0.283365
-0.285562
-0.284619
-0.286503
-0.288700
-0.283363
-0.278025
-0.261073
-0.222460
-0.190125
-0.138640
-0.114154
-0.055135
-0.054507
-0.056390
-0.062040
-0.061098
-0.050738
-0.087781
-0.084956
-0.122940
-0.165634
-0.202991
-0.265462
-0.334211
-0.384753
-0.448480
-0.552075
-0.641230
-0.732268
-0.842142
-0.948562
-1.016370
-1.045879
-1.061889
-1.055924
-1.022019
-0.957036
-0.902726
-0.840254
-0.747018
-0.663199
-0.598530
-0.535116
-0.448158
-0.389454
-0.335458
-0.254465
-0.164053
-0.057632
0.031837
0.165257
0.282665
0.390029
0.496764
0.616684
0.719025
0.765172
0.810692
0.851189
0.924962
0.937519
0.943484
0.966715
1.011921
0.989005
1.007527
1.063720
1.082870
1.109554
1.135611
1.206244
1.220685
1.280960
1.373882
1.420658
1.418775
1.450795
1.464295
1.431961
1.398999
1.349713
1.251768
1.114897
0.983676
0.851827
0.685760
0.533193
0.415471
0.297749
0.163388
0.026831
-0.086810
-0.205474
-0.279246
-0.396654
-0.525364
-0.600706
-0.712463
-0.834580
-0.886377
-0.967998
-1.034864
-1.099218
-1.164829
-1.210975
-1.280353
-1.357264
-1.416282
-1.420677
-1.434489
-1.432605
-1.451126
-1.482519
-1.457718
-1.375783
-1.296045
-1.239538
-1.163567
-1.075981
-0.995930
-0.897984
-0.775553
-0.635227
-0.565849
-0.527236
-0.443731
-0.382515
-0.356772
-0.286139
-0.220214
-0.192588
-0.144557
-0.086166
-0.031542
-0.024949
0.006757
0.063579
0.078333
0.113494
0.139864
0.134528
0.128249
0.080847
0.064209
0.045060
-0.003598
-0.063244
-0.104368
-0.160874
-0.228368
-0.251598
-0.308732
-0.369320
-0.409188
-0.411699
-0.442149
-0.464124
-0.458473
-0.486098
-0.504933
-0.513723
-0.492689
-0.477934
-0.478248
-0.455331
-0.452505
-0.452191
-0.424565
-0.434296
-0.436493
-0.423936
-0.405100
-0.417656
-0.433352
-0.418597
-0.426445
-0.418283
-0.423305
-0.412317
-0.421107
-0.427385
-0.412944
-0.381865
-0.325985
-0.228040
-0.142338
-0.057263
0.036601
0.126071
0.233748
0.333577
0.431836
0.465741
0.495878
0.501529
0.520365
0.526330
0.536376
0.515971
0.466999
0.443455
0.407982
0.381926
0.380357
0.416773
0.402333
0.375963
0.361837
0.366546
0.359640
0.354932
0.361838
0.338294
0.314750
0.263895
0.252594
0.234072
0.216493
0.218377
0.157162
0.116665
0.084645
0.086529
0.078682
0.091553
0.106622
0.073346
0.065498
0.064871
0.053256
0.079940
0.109763
0.128913
0.151516
0.149947
0.163760
0.178201
0.213362
0.254486
0.265788
0.253859
0.278032
0.269556
0.253233
0.234711
0.234398
0.231887
0.219644
0.177264
0.100981
0.017791
-0.076387
-0.154240
-0.270079
-0.380580
-0.514627
-0.622303
-0.747245
-0.825099
-0.886000
-0.933089
-0.986770
-1.029149
-1.023498
-1.014394
-0.954120
-0.890706
-0.810654
-0.778634
-0.703291
-0.631087
-0.591532
-0.542873
-0.504888
-0.486680
-0.496725
-0.515246
-0.518071
-0.491387
-0.504571
-0.510222
-0.510849
-0.518697
-0.521522
-0.508023
-0.430482
-0.361732
-0.267554
-0.165841
-0.063815
0.054222
0.175084
0.331106
0.456049
0.619605
0.756163
0.881734
1.016409
1.130051
1.241181
1.332848
1.427026
1.519949
1.610988
1.647404
1.694807
1.733107
1.766383
1.777057
1.782708
1.762931
1.679113
1.621037
1.537533
1.472551
1.431113
1.379943
1.315275
1.248095
1.208541
1.197240
1.182486
1.184998
1.178719
1.144816
1.122213
1.093333
1.050325
0.984087
0.948928
0.877039
0.789140
0.699985
0.599529
0.516967
0.407093
0.316055
0.232237
0.169452
0.108237
0.070880
0.049533
0.016258
0.002445
-0.034598
-0.070071
-0.102091
-0.139762
-0.210395
-0.273180
-0.297038
-0.323407
-0.359194
-0.374890
-0.347264
-0.330312
-0.331253
-0.290129
-0.202543
-0.150117
-0.085761
0.018776
0.057390
0.080621
0.111072
0.101969
0.099144
0.128967
0.157221
0.132735
0.117353
0.119551
0.137445
0.168210
0.178256
0.228799
0.237903
0.250461
0.289702
0.325490
0.401774
0.447922
0.490616
0.527660
0.543043
0.528916
0.533940
0.544300
0.513535
0.513850
0.549638
0.577891
0.592018
0.657943
0.709114
0.742390
0.786027
0.814908
0.882089
0.913482
0.908459
0.924156
0.937969
0.943306
0.971246
1.000128
1.004209
1.000757
1.047846
1.112515
1.192881
1.276699
1.328184
1.395678
1.408550
1.462859
1.520308
1.544481
1.591570
1.603500
1.644625
1.654985
1.664403
1.698307
1.736921
1.814147
1.835180
1.843971
1.859040
1.895142
1.926221
1.949138
2.006901
2.037038
2.055874
2.078791
2.100452
2.111440
2.166378
2.251138
2.314552
2.329621
2.342492
2.386128
2.451739
2.533988
2.604936
2.677139
2.735216
2.777911
2.833162
2.845406
2.853254
2.858905
2.785761
2.673689
2.554712
2.474033
2.395552
2.286620
2.188047
2.088219
1.992158
1.916816
1.858740
1.803489
1.709626
1.635226
1.574638
1.558942
1.549525
1.509657
1.478892
1.408259
1.315023
1.249099
1.177525
1.093707
1.039712
0.947104
0.847276
0.744622
0.666455
0.586718
0.551558
0.532409
0.496622
0.516400
0.534922
0.590487
0.654843
0.707269
0.727988
0.740546
0.770369
0.798309
0.820912
0.868943
0.921055
0.975051
1.017746
1.076764
1.168117
1.236867
1.315977
1.381274
1.409842
1.401680
1.433073
1.433702
1.427423
1.437783
1.392892
1.343920
1.311272
1.281764
1.233105
1.181622
1.142381
1.122604
1.066098
1.047891
1.029370
1.015557
1.049148
1.067670
1.086192
1.070182
1.114132
1.189161
1.218356
1.273608
1.339847
1.374065
1.409225
1.457256
1.506857
1.549552
1.616104
1.656287
1.670728
1.704005
1.733828
1.771186
1.756432
1.736655
1.725668
1.690508
1.652524
1.636200
1.608889
1.536686
1.447217
1.363400
1.290569
1.216797
1.183521
1.097192
0.986376
0.941799
0.840715
0.756269
0.734922
0.729586
0.729587
0.673708
0.628503
0.615005
0.645142
0.680930
0.729589
0.716090
0.666804
0.698511
0.714208
0.732102
0.776994
0.790179
0.718291
0.701653
0.602767
0.488812
0.545005
0.618150
0.588641
0.475314
0.478454
0.439528
0.409077
0.472805
0.476572
0.499803
0.478770
0.495723
0.576402
0.505455
0.567299
0.726774
0.734937
0.770411
0.802432
0.847951
0.926433
0.975406
1.037250
1.117302
1.185738
1.188564
1.137080
1.077749
1.161881
1.305032
1.302835
1.232202
1.134258
1.079007
1.125782
1.203636
1.218077
1.200498
1.100042
1.038827
1.063627
1.152469
1.294364
1.320420
1.258263
1.179154
1.190770
1.262659
1.371592
1.446935
1.424019
1.354955
1.348991
1.380384
1.474249
1.569683
1.592600
1.578787
1.556185
1.611122
1.661979
1.711894
1.731671
1.699965
1.639064
1.598568
1.553363
1.505018
1.470801
1.437839
1.421829
1.409273
1.386042
1.363754
1.357476
1.365010
1.335188
1.324829
1.311958
1.226571
1.184505
1.130510
1.077771
1.026287
0.956282
0.849547
0.741557
0.681284
0.616615
0.544099
0.475663
0.377404
0.274123
0.222639
0.156401
0.060026
-0.031012
-0.133665
-0.271165
-0.351530
-0.397048
-0.445707
-0.519479
-0.606122
-0.683662
-0.750528
-0.717251
-0.652582
-0.593877
-0.584773
-0.578808
-0.476781
-0.384487
-0.294075
-0.171958
-0.038225
0.046222
0.163003
0.349476
0.478500
0.610663
0.728700
0.826331
0.854271
0.898849
1.009352
1.059894
1.117343
1.164433
1.126134
1.049850
1.036352
1.023167
1.023482
1.045143
1.061781
1.036668
0.968232
0.942491
0.930562
0.949398
1.001196
1.007789
0.947829
0.867778
0.813156
0.844863
0.882534
0.896661
0.910474
0.859933
0.740641
0.592154
0.431424
0.304598
0.201003
0.116557
0.010451
-0.100993
-0.211181
-0.388549
-0.493714
-0.625248
-0.770282
-0.869482
-0.972450
-1.013260
-1.062546
-1.136946
-1.146677
-1.061603
-0.991283
-0.990341
-1.023617
-1.015768
-0.934461
-0.775300
-0.636858
-0.571874
-0.500927
-0.450070
-0.427467
-0.423386
-0.356833
-0.324812
-0.336427
-0.342077
-0.380376
-0.409571
-0.411140
-0.359342
-0.353377
-0.449124
-0.565276
-0.607656
-0.704345
-0.815474
-0.763048
-0.637477
-0.599178
-0.613304
-0.590073
-0.578771
-0.565586
-0.514730
-0.457908
-0.426829
-0.481138
-0.507822
-0.512844
-0.562444
-0.515355
-0.507192
-0.578767
-0.626797
-0.706220
-0.672316
-0.561499
-0.623656
-0.650340
-0.668861
-0.815778
-0.854705
-0.704647
-0.587553
-0.560554
-0.574681
-0.631815
-0.605445
-0.523196
-0.370941
-0.202362
-0.143030
-0.206442
-0.283668
-0.294341
-0.251019
-0.172537
-0.144911
-0.218683
-0.304698
-0.393853
-0.452557
-0.419280
-0.470764
-0.548303
-0.553640
-0.676071
-0.800699
-0.730693
-0.693335
-0.750470
-0.755806
-0.632746
-0.522244
-0.503722
-0.331062
-0.145217
-0.189794
-0.298412
-0.285541
-0.349582
-0.441248
-0.321955
-0.272668
-0.306258
-0.313478
-0.392273
-0.463848
-0.545469
-0.560851
-0.454429
-0.448464
-0.525062
-0.559279
-0.503400
-0.546094
-0.675745
-0.677314
-0.697405
-0.807279
-0.846519
-0.785303
-0.827683
-0.867237
-0.857191
-0.861900
-1.000969
-1.191208
-1.114609
-1.082274
-1.125596
-0.973969
-0.877907
-0.953877
-0.990606
-0.925623
-0.908984
-0.981187
-1.050250
-0.989034
-1.018857
-1.147566
-1.031413
-0.987777
-1.147565
-1.183980
-1.187747
-1.260577
-1.310805
-1.306096
-1.275645
-1.352242
-1.418480
-1.449559
-1.441396
-1.567594
-1.835373
-1.906948
-1.916051
-1.933003
-1.838511
-1.672757
-1.730519
-1.924211
-2.027179
-2.044131
-1.969730
-1.894701
-1.825009
-1.745271
-1.759397
-1.820613
-1.836936
-2.052917
-2.340160
-2.411420
-2.364645
-2.341414
-2.268269
-2.200460
-2.349575
-2.364643
-2.324774
-2.433706
-2.473574
-2.393837
-2.300286
-2.371547
-2.407020
-2.341723
-2.327910
-2.335758
-2.356163
-2.412983
-2.515950
-2.523170
-2.450339
-2.439979
-2.338266
-2.199825
-2.136411
-2.091833
-1.984470
-1.917289
-1.970656
-2.021198
-2.037522
-1.998908
-1.992630
-2.040346
-2.088690
-2.139860
-2.155556
-2.132011
-2.115372
-2.068597
-2.010206
-1.984150
-1.991998
-2.027785
-2.058235
-2.047248
-1.986973
-1.965312
-2.002669
-2.033119
-2.003924
-1.923872
-1.894049
-1.903780
-1.868620
-1.835971
-1.800183
-1.727038
-1.645417
-1.549041
-1.501324
-1.439166
-1.328349
-1.169816
-1.038281
-0.989935
-0.949125
-0.984912
-1.000922
-0.967645
-0.978632
-1.055544
-1.136850
-1.235737
-1.344041
-1.411849
-1.442927
-1.506654
-1.600517
-1.691555
-1.791384
-1.835647
-1.877399
-1.940184
-2.027455
-2.099030
-2.151455
-2.167151
-2.143606
-2.136699
-2.133559
-2.142977
-2.148941
-2.094631
-2.048484
-1.987896
-1.892462
-1.803620
-1.723882
-1.632529
-1.538665
-1.540862
-1.508213
-1.432557
-1.388920
-1.318601
-1.200878
-1.062122
