EVENT_NAME: 202302060117
EVENT_ID: 13194
EVENT_DATE_YYYYMMDD: 2023/02/06
EVENT_TIME_HHMMSS: 01:17:32.00000
EVENT_LATITUDE_DEGREE: 37.288
EVENT_LONGITUDE_DEGREE: 37.043
EVENT_DEPTH_KM: 8.6
HYPOCENTER_REFERENCE: AFAD
MAGNITUDE_W: 7.7
MAGNITUDE_W_REFERENCE: AFAD
MAGNITUDE_L: 
MAGNITUDE_L_REFERENCE: 
FOCAL_MECHANISM: 
NETWORK: TK
STATION_CODE: 0128
STATION_NAME: 
STATION_LATITUDE_DEGREE: 37.250287
STATION_LONGITUDE_DEGREE: 35.062788
STATION_ELEVATION_M: 236.0
LOCATION: Kahramanmaras_Pazarck_Turkiye
SENSOR_DEPTH_M: 
VS30_M/S: 494
SITE_CLASSIFICATION_EC8: B
MORPHOLOGIC_CLASSIFICATION: 
EPICENTRAL_DISTANCE_KM: 175.27
EARTHQUAKE_BACKAZIMUTH_DEGREE: 
DATE_TIME_FIRST_SAMPLE_YYYYMMDD_HHMMSS: 2023/02/06 01:17:42.2346370
DATE_TIME_FIRST_SAMPLE_PRECISION: millisecond
SAMPLING_INTERVAL_S: 0.01
NDATA: 13501
DURATION_S: 
STREAM: HNN
UNITS: cm/s^2
INSTRUMENT: sensor = ACEBOX/SARA | digitizer = 
INSTRUMENT_ANALOG/DIGITAL: 
INSTRUMENTAL_FREQUENCY_HZ: 
INSTRUMENTAL_DAMPING: 
FULL_SCALE_G: 
N_BIT_DIGITAL_CONVERTER: 
PGA_CM/S^2: 11.684
TIME_PGA_S: 
BASELINE_CORRECTION: BASELINE REMOVED
FILTER_TYPE: BUTTERWORTH
FILTER_ORDER: 
LOW_CUT_FREQUENCY_HZ: 
HIGH_CUT_FREQUENCY_HZ: 
LATE/NORMAL_TRIGGERED: 
DATABASE_VERSION: 
HEADER_FORMAT: DYNA 1.2
DATA_TYPE: Acceleration
PROCESSING: Automatic Paolucci et al., 2011
DATA_TIMESTAMP_YYYYMMDD_HHMMSS: 
DATA_LICENSE: U (unknown license)
DATA_CITATION: Turkish Accelerometric Archive v 1.0 - Disaster And Emergency Management Presidency, Earthquake Department
DATA_CREATOR: AFAD
ORIGINAL_DATA_MEDIATOR_CITATION: : AFAD - Disaster And Emergency Management Presidency
ORIGINAL_DATA_MEDIATOR: AFAD PROCESS SERVICE
ORIGINAL_DATA_CREATOR_CITATION: AFAD PROCESS SERVICE
ORIGINAL_DATA_CREATOR: network: TK
USER1: GuestUser
USER2: 
USER3: 
USER4: 
USER5: 
[...]
0.495355
0.005084
-0.266118
-0.149217
0.242395
0.733372
1.379824
2.174737
2.744503
2.804591
2.473069
2.036806
1.715103
1.439224
0.949421
0.254111
-0.355630
-0.646238
-0.588955
-0.410800
-0.363337
-0.485376
-0.800065
-1.314417
-1.894466
-2.321377
-2.282564
-1.593562
-0.416390
0.836532
1.709767
1.964141
1.668857
1.102836
0.560429
0.225633
0.163913
0.348615
0.760334
1.310228
1.812661
2.092051
2.050671
1.838151
1.717280
1.832311
2.089958
2.095805
1.567659
0.590623
-0.511495
-1.335862
-1.762072
-1.949809
-1.969679
-1.773989
-1.402015
-0.961539
-0.434324
0.221714
0.799897
0.952335
0.623618
0.140829
-0.142531
-0.161232
-0.213601
-0.459787
-0.547459
-0.132934
0.678345
1.472791
1.910227
1.986448
1.865343
1.585022
1.105039
0.584608
0.331876
0.470988
0.714139
0.675331
0.500453
0.588129
0.952154
1.206995
0.937663
0.276487
-0.221032
-0.211210
0.290054
0.949598
1.415792
1.640707
1.716694
1.761351
1.992813
2.490803
2.978974
3.207864
3.164380
2.892009
2.476553
1.940459
1.300558
0.664398
0.015379
-0.677828
-1.233795
-1.342743
-0.741180
0.560605
2.243948
3.875855
5.029881
5.395776
4.964890
4.065240
3.071137
2.123091
1.356472
1.157980
1.720031
2.784045
3.968464
4.866949
5.119687
4.601126
3.478902
2.227387
1.387590
1.225571
1.617651
2.177832
2.547234
2.545365
2.138093
1.448160
0.696971
0.054732
-0.295494
-0.187243
0.265624
0.793775
1.171827
1.255529
1.091639
0.836101
0.632232
0.498736
0.339055
0.221457
0.306562
0.640661
1.179332
1.724783
2.029423
2.132062
2.348561
2.839538
3.461908
4.008061
4.368111
4.571517
4.742893
5.027192
5.476787
5.961217
6.350024
6.708438
7.109870
7.412172
7.489094
7.433218
7.358639
7.263252
7.042784
6.618912
5.962177
5.019275
3.826210
2.563941
1.540613
0.954953
0.673229
0.473803
0.244216
0.083600
0.181095
0.511687
0.983960
1.588094
2.294632
2.962827
3.295756
3.063364
2.292537
1.147634
-0.173084
-1.331548
-1.959992
-1.972615
-1.534009
-0.956995
-0.556264
-0.433051
-0.519554
-0.615876
-0.569348
-0.444030
-0.255821
0.143273
0.741563
1.222720
1.346634
1.245403
1.233247
1.443901
1.703418
1.884380
2.101346
2.506051
3.148295
3.853429
4.373163
4.666815
4.830475
4.969587
5.129740
5.269787
5.331746
5.262778
5.010980
4.585705
4.067379
3.589967
3.307543
3.282529
3.454840
3.675079
3.768132
3.632532
3.228299
2.654797
2.123845
1.828328
1.970947
2.428256
2.680760
2.536743
2.267177
2.058165
1.901756
1.729918
1.421308
0.941558
0.447780
0.049158
-0.383832
-1.012510
-1.768141
-2.430486
-2.781414
-2.737925
-2.436792
-1.989068
-1.429822
-0.922246
-0.724919
-1.080990
-1.893199
-2.784666
-3.594538
-4.114734
-4.103510
-3.819677
-3.425961
-2.721761
-1.885700
-1.208854
-0.728866
-0.575025
-0.808119
-1.127484
-1.071837
-0.690044
-0.498094
-0.410886
-0.119338
0.173144
0.364159
0.496958
0.622743
0.795288
0.801603
0.488317
-0.116047
-0.905344
-1.727139
-2.607851
-3.583719
-4.546727
-5.269626
-5.576366
-5.542930
-5.196908
-4.537598
-3.712057
-2.859630
-2.217620
-1.954362
-1.895677
-1.818989
-1.576539
-1.010748
-0.174219
0.694107
1.424725
1.868709
1.919679
1.596573
1.091340
0.776651
0.785771
0.882799
0.854746
0.590791
0.011678
-0.724548
-1.183957
-1.162679
-0.848921
-0.489105
-0.313988
-0.381787
-0.575603
-0.885615
-1.362092
-1.947050
-2.443634
-2.741255
-2.931798
-3.082361
-3.157407
-3.144079
-3.162780
-3.315681
-3.521888
-3.656787
-3.720144
-3.845457
-4.071069
-4.208072
-4.032488
-3.468566
-2.621049
-1.640969
-0.689645
0.119529
0.790998
1.298574
1.630100
1.747703
1.515778
0.993244
0.393790
-0.169426
-0.670918
-1.113962
-1.468163
-1.668057
-1.737960
-1.824930
-2.092392
-2.631760
-3.433215
-4.435268
-5.470987
-6.243685
-6.645346
-6.803391
-6.853187
-6.830741
-6.584784
-5.995145
-5.116532
-4.031710
-2.964424
-2.193358
-1.767611
-1.600677
-1.578464
-1.541054
-1.403813
-1.241556
-1.243190
-1.525381
-1.873736
-1.927274
-1.570731
-1.021305
-0.604442
-0.407582
-0.415529
-0.660079
-0.972430
-1.129773
-1.129069
-1.109896
-1.095632
-1.027828
-1.000705
-1.011692
-1.013092
-1.176982
-1.562745
-2.063302
-2.676083
-3.486188
-4.463926
-5.480474
-6.485800
-7.450679
-8.302634
-8.935053
-9.318712
-9.478394
-9.210693
-8.346343
-7.038011
-5.613716
-4.453144
-3.702652
-3.229444
-2.881318
-2.608708
-2.421200
-2.298220
-2.196984
-2.038000
-1.842777
-1.745281
-1.698285
-1.603361
-1.482953
-1.314617
-1.070297
-0.901259
-0.943340
-1.027037
-0.998044
-0.907562
-0.732680
-0.390398
0.075796
0.466240
0.678530
0.834007
1.030166
1.283838
1.561591
1.766400
1.842386
1.819710
1.760796
1.671254
1.504792
1.207171
0.792651
0.463934
0.399408
0.429103
0.193437
-0.440619
-1.292106
-2.133774
-2.812251
-3.244072
-3.414274
-3.217415
-2.504331
-1.396363
-0.247949
0.665967
1.251398
1.538035
1.552533
1.272446
0.749444
0.078214
-0.683729
-1.423461
-2.063128
-2.663751
-3.290793
-3.956645
-4.584856
-4.982543
-5.064837
-4.943494
-4.742894
-4.506523
-4.157928
-3.565718
-2.735034
-1.792361
-0.822100
0.217833
1.315981
2.192956
2.516300
2.198572
1.413483
0.444630
-0.540823
-1.580050
-2.659490
-3.468660
-3.741966
-3.577838
-3.166587
-2.620200
-1.990348
-1.272121
-0.512043
0.186545
0.748128
1.208945
1.635394
1.970661
2.149752
2.225972
2.267824
2.234394
2.050164
1.674454
1.102354
0.507576
0.139815
0.125089
0.394192
0.671010
0.822513
0.991550
1.294086
1.733394
2.232086
2.632816
2.689631
2.172474
1.105192
-0.201499
-1.371184
-2.134296
-2.356635
-2.159542
-1.877580
-1.772603
-1.986057
-2.557455
-3.462482
-4.627024
-5.776369
-6.465835
-6.331399
-5.456060
-4.381292
-3.587548
-3.301378
-3.609052
-4.293141
-4.812402
-4.852613
-4.478302
-3.670530
-2.454080
-1.097820
0.058544
0.612645
0.407607
-0.275780
-1.115110
-1.894353
-2.368726
-2.364048
-1.973838
-1.509748
-1.214927
-1.105508
-1.158344
-1.358004
-1.609568
-1.914905
-2.326619
-2.852427
-3.389457
-3.565270
-3.153785
-2.349988
-1.514862
-0.942524
-0.542494
-0.062740
0.513339
1.105082
1.568471
1.750601
1.530366
0.793440
-0.372505
-1.710758
-2.858233
-3.424722
-3.333304
-2.755355
-1.939868
-1.292715
-1.108714
-1.372435
-1.931910
-2.659952
-3.502789
-4.275721
-4.654236
-4.497590
-3.863062
-2.987488
-2.160779
-1.545422
-1.309051
-1.447223
-1.747416
-2.153754
-2.599603
-2.838775
-2.810717
-2.706909
-2.628818
-2.604033
-2.692640
-2.798548
-2.794571
-2.678606
-2.476369
-2.172664
-1.670465
-0.940080
-0.102850
0.627068
1.043931
1.079002
0.664248
-0.120139
-0.887226
-1.370716
-1.513330
-1.377024
-1.223651
-1.237209
-1.346156
-1.467494
-1.634891
-1.896975
-2.251176
-2.629691
-2.969163
-3.235689
-3.349313
-3.264208
-2.985519
-2.508804
-1.923841
-1.460921
-1.364126
-1.716924
-2.408260
-3.182361
-3.770358
-4.049744
-3.941961
-3.492834
-2.997649
-2.769695
-2.954158
-3.406788
-3.860352
-4.181120
-4.261310
-4.105598
-3.955031
-4.017920
-4.243064
-4.317410
-3.841864
-2.708178
-1.191767
0.429152
1.992322
3.374067
4.518273
5.310380
5.737764
6.034221
6.312910
6.487091
6.487795
6.249558
5.635608
4.656935
3.619579
2.818826
2.443583
2.527051
2.747057
2.710820
2.308458
1.704795
1.185534
0.940049
0.939350
1.007621
1.050642
1.100443
1.194666
1.352248
1.606154
2.046864
2.679522
3.362913
4.036485
4.650206
5.029427
5.152407
5.190284
5.173453
5.013304
4.727606
4.425075
4.155743
3.817674
3.398478
3.150188
3.254931
3.550921
3.655898
3.312218
2.538819
1.356509
-0.351144
-2.552109
-4.828825
-6.565469
-7.294914
-6.941176
-5.853315
-4.497055
-3.254888
-2.383289
-1.948892
-1.959177
-2.247914
-2.389593
-2.124231
-1.516589
-0.829457
-0.413763
-0.370508
-0.467298
-0.570400
-0.789933
-1.169618
-1.589282
-1.840144
-1.764391
-1.517265
-1.383999
-1.381424
-1.327181
-0.985601
-0.206586
0.784716
1.645560
2.404001
3.254791
4.108855
4.591415
4.447398
3.874129
3.288002
2.842387
2.377834
1.808540
1.293487
0.936247
0.613843
0.161213
-0.463958
-1.134720
-1.600208
-1.684139
-1.451041
-1.122787
-0.967544
-1.158086
-1.581724
-1.995543
-2.176734
-1.875601
-0.961685
0.453258
2.056175
3.486315
4.505206
5.107236
5.515682
5.817049
5.826403
5.421235
4.614637
3.551563
2.559096
1.902361
1.564527
1.421445
1.454179
1.721879
2.266395
3.021796
3.840791
4.518805
4.795389
4.562296
3.890832
2.916368
1.790402
0.701143
-0.135849
-0.781828
-1.481815
-2.323950
-3.264515
-3.984842
-4.113428
-3.647468
-2.742904
-1.595424
-0.512239
0.127198
0.105224
-0.277734
-0.527427
-0.506617
-0.283572
0.021302
0.245750
0.354702
0.371303
0.304674
0.155046
-0.093011
-0.421260
-0.828766
-1.234870
-1.497422
-1.607538
-1.545813
-1.215689
-0.537909
0.452692
1.454984
2.032231
1.890319
1.144508
0.203008
-0.714176
-1.575249
-2.247180
-2.554621
-2.596235
-2.634341
-2.675254
-2.678524
-2.781861
-3.051193
-3.366115
-3.445136
-3.124832
-2.556702
-1.920304
-1.247433
-0.549780
0.095503
0.561697
0.626461
0.108836
-0.754341
-1.430948
-1.583381
-1.324332
-1.124900
-1.340459
-1.923313
-2.656733
-3.449304
-4.297985
-5.087750
-5.607947
-5.645118
-5.094991
-4.080309
-2.912255
-1.913237
-1.190567
-0.712684
-0.472805
-0.364321
-0.360344
-0.654459
-1.174188
-1.655808
-2.074069
-2.271625
-2.064245
-1.718223
-1.518324
-1.653690
-2.193292
-2.948688
-3.885746
-4.788668
-5.151286
-4.857634
-4.072774
-3.179900
-2.541631
-2.007870
-1.353001
-0.458023
0.742528
1.948924
2.800416
3.156024
2.961039
2.314125
1.347609
0.118305
-1.170383
-2.244211
-2.942562
-3.133104
-2.871716
-2.494599
-2.283478
-2.267577
-2.412296
-2.882460
-3.795903
-4.814789
-5.476433
-5.621619
-5.281909
-4.600154
-3.779524
-3.048905
-2.676230
-2.711531
-2.904177
-2.968236
-2.759219
-2.409222
-2.146899
-1.957287
-1.715071
-1.419549
-1.221286
-1.258224
-1.457183
-1.733062
-2.184756
-2.896432
-3.764519
-4.434814
-4.507756
-4.000180
-3.295045
-2.741411
-2.509014
-2.509246
-2.527012
-2.511111
-2.496146
-2.386961
-2.051693
-1.592980
-1.309148
-1.427681
-2.029005
-3.018199
-4.143931
-5.124708
-5.665479
-5.640928
-5.282748
-4.845077
-4.302665
-3.580697
-2.732478
-1.957438
-1.463656
-1.120439
-0.759688
-0.529863
-0.490349
-0.506011
-0.437506
-0.233633
0.025183
0.320004
0.594017
0.790876
1.080086
1.508171
1.922929
2.239727
2.465811
2.706157
2.993496
3.187784
3.228701
3.280372
3.411067
3.415044
3.210942
3.013385
3.088203
3.563281
4.297874
4.927493
5.151239
4.968412
4.632915
4.456166
4.553195
4.757068
4.814818
4.534731
3.906287
2.998220
1.792764
0.383904
-1.043660
-2.302656
-3.094525
-3.186171
-2.621315
-1.724466
-0.837437
-0.069177
0.641803
1.435313
2.408146
3.438259
4.195764
4.499469
4.555349
4.629699
4.755484
4.772086
4.448513
3.663424
2.601052
1.611624
0.822561
0.253033
-0.078022
-0.284229
-0.363484
-0.230918
0.015506
0.197636
0.191560
-0.098580
-0.730298
-1.478681
-1.980174
-2.108760
-1.923356
-1.678334
-1.621987
-1.773018
-2.035570
-2.186367
-2.062686
-1.694219
-1.157886
-0.658726
-0.439656
-0.524756
-0.847627
-1.352627
-1.791229
-1.941090
-1.809928
-1.413172
-0.895542
-0.460677
-0.175910
-0.050592
0.105353
0.379366
0.690786
1.117468
1.604003
1.959845
2.108308
2.133560
2.228484
2.334631
2.229424
1.906553
1.523127
1.180617
0.894217
0.782464
1.002002
1.535062
2.242535
2.924057
3.390017
3.699801
4.132094
4.655802
4.898486
4.696254
4.155717
3.471394
2.775850
2.024428
1.169433
0.328701
-0.212771
-0.310730
-0.176762
-0.068979
-0.117841
-0.257883
-0.186339
0.259047
0.959974
1.801646
2.693585
3.420697
3.713881
3.444549
2.757655
1.962747
1.287075
0.787452
0.353527
-0.151239
-0.654602
-0.972097
-0.939129
-0.434826
0.345124
0.921904
1.032025
0.699567
0.044470
-0.690353
-1.147424
-1.061618
-0.419375
0.526104
1.325459
1.640620
1.416411
0.700058
-0.325374
-1.436143
-2.506231
-3.274019
-3.511788
-3.262558
-2.808989
-2.463902
-2.273589
-2.249739
-2.338112
-2.353073
-2.352369
-2.252536
-1.825619
-1.241825
-0.688425
-0.169626
0.219882
0.409260
0.467478
0.481040
0.476367
0.434052
0.444107
0.757866
1.391459
2.114362
2.711249
2.976143
3.000694
3.043715
3.111285
3.176751
3.299496
3.546856
3.875344
4.110312
4.198924
4.162220
3.889147
3.199681
2.127255
1.013681
0.292185
0.287278
0.957343
1.865180
2.595799
3.126988
3.682961
4.320528
4.807530
4.740900
3.984334
2.896946
1.803478
0.753263
-0.313551
-1.413098
-2.346882
-2.919215
-3.248867
-3.597924
-4.005898
-4.303286
-4.412701
-4.398904
-4.288082
-4.011965
-3.517715
-2.823101
-2.033332
-1.218079
-0.274237
0.891479
2.347804
4.100351
5.906203
7.393624
8.120502
7.832232
6.698551
5.122292
3.684441
2.793910
2.340346
2.020513
1.720320
1.479043
1.190072
0.682968
-0.027306
-0.728929
-1.124512
-1.200493
-1.167058
-1.048754
-0.699225
-0.042954
0.680417
1.129544
1.219792
0.978048
0.455280
-0.280946
-1.112093
-1.683491
-1.693074
-1.377680
-1.235295
-1.523798
-2.209056
-3.006068
-3.629837
-3.962762
-3.898699
-3.494695
-3.056557
-2.891026
-3.112430
-3.681724
-4.506558
-5.316664
-5.739601
-5.636494
-5.132892
-4.255215
-2.931219
-1.357761
0.266431
1.820484
2.992746
3.724066
4.125030
4.068220
3.619098
2.960493
2.029281
0.960596
0.146516
-0.319673
-0.625946
-0.870495
-0.927773
-0.558839
0.361389
1.716715
3.069702
4.037625
4.755151
5.525983
6.464915
7.500873
8.502930
9.449811
10.339178
11.144612
11.684452
11.655464
11.125915
10.459362
9.803095
9.078793
8.315448
7.581326
6.836918
6.148621
5.473183
4.724099
4.191044
3.981564
3.747301
3.164213
2.157484
1.019362
0.200606
-0.130916
-0.108470
0.068517
0.217682
0.170457
-0.194732
-0.915526
-1.774261
-2.405512
-2.666193
-2.658008
-2.579450
-2.548820
-2.538531
-2.472598
-2.247215
-1.826611
-1.321373
-0.867336
-0.441122
0.115318
0.848275
1.749098
2.915515
4.370437
5.874925
7.029418
7.531383
7.297121
6.406356
5.019005
3.356709
1.777878
0.701711
0.231314
0.010378
-0.334004
-0.922703
-1.861163
-3.184921
-4.557308
-5.495534
-5.789181
-5.456018
-4.567352
-3.275152
-1.814385
-0.381205
0.996330
2.391167
3.785069
4.989127
5.683273
5.672521
5.169392
4.538843
3.867847
3.140506
2.486343
1.945573
1.437066
0.996594
0.710896
0.627433
0.802082
1.218009
1.754810
2.362218
3.010306
3.617480
4.310223
5.244947
6.266877
7.165129
7.864652
8.287126
8.363580
8.146151
7.765532
7.385379
7.124698
6.898618
6.542781
6.027728
5.458434
4.876515
4.062201
2.814661
1.272069
-0.228673
-1.390176
-2.056028
-2.210566
-1.926967
-1.222066
-0.166703
0.884686
1.564570
1.667443
1.199384
0.516698
0.004684
-0.281949
-0.688286
-1.575077
-2.745698
-3.744244
-4.379001
-4.659789
-4.652773
-4.450770
-4.259287
-4.331529
-4.689002
-5.146307
-5.442526
-5.161967
-3.983861
-2.097114
0.013844
1.838867
2.929300
3.335408
3.509356
3.706683
3.922480
4.121444
4.386338
4.675782
4.632999
4.060899
3.218998
2.644093
2.763565
3.507978
4.522894
5.557917
6.459675
7.060537
7.067553
6.221443
4.623675
2.589173
0.382597
-1.741215
-3.546595
-4.727035
-4.940022
-4.291700
-3.386669
-2.763129
-2.582168
-2.664930
-2.692516
-2.494955
-2.056115
-1.368982
-0.528946
0.166836
0.437810
0.411861
0.441789
0.452312
0.122193
-0.574053
-1.463182
-2.284743
-2.790211
-2.867128
-2.446057
-1.530270
-0.266126
1.004564
1.904920
2.397299
2.634138
2.699370
2.741689
2.808324
2.635082
1.948890
0.749746
-0.771571
-2.374482
-3.769548
-4.742844
-5.339492
-5.552479
-5.250879
-4.552758
-3.605877
-2.489492
-1.358379
-0.315407
0.423862
0.778769
1.073823
1.519911
2.084767
2.696149
3.279943
3.824226
4.250674
4.393293
4.198776
3.767422
3.272008
2.959657
3.122149
3.811152
4.568891
4.759204
4.272674
3.502315
2.828747
2.482495
2.475718
2.659017
3.002234
3.529449
4.052456
4.319922
4.332783
4.252827
4.318292
4.691435
5.166981
5.559061
6.069911
6.903634
7.892599
8.636544
8.925753
8.783139
8.198415
7.124352
5.684163
4.195579
2.922555
1.952298
1.235946
0.671094
0.279018
0.053640
-0.293780
-1.038890
-2.043515
-3.018213
-3.908745
-4.764674
-5.610550
-6.390028
-6.871181
-6.895727
-6.626858
-6.280368
-5.862336
-5.399883
-4.964550
-4.550727
-4.275545
-4.210079
-4.279515
-4.462810
-4.698241
-5.013865
-5.496421
-5.945543
-6.044904
-5.736290
-5.332286
-5.101058
-4.893911
-4.550928
-4.228987
-4.133128
-4.272936
-4.504861
-4.587389
-4.297946
-3.672536
-2.872479
-1.910869
-0.816695
0.207339
0.984016
1.526661
1.911728
2.199067
2.476353
2.724882
2.779826
2.594661
2.299845
1.969959
1.600796
1.216903
0.816644
0.446312
0.295515
0.468293
0.880246
1.436920
2.067941
2.697793
3.167728
3.221738
2.789449
2.090631
1.425012
0.936846
0.562071
0.310508
0.232656
0.148958
-0.165029
-0.767522
-1.452780
-1.796693
-1.547463
-0.857525
-0.083186
0.551108
0.976621
1.220240
1.402137
1.474383
1.328028
1.053318
0.796144
0.794042
1.265146
2.115001
3.056505
3.835753
4.266410
4.206560
3.610847
2.636850
1.582427
0.769984
0.542501
0.983913
1.704011
2.194520
2.076454
1.237592
-0.027950
-1.193194
-1.706844
-1.375551
-0.400614
0.928058
2.127207
2.716378
2.506430
1.586908
0.365553
-0.684895
-1.267750
-1.271254
-0.750586
0.059992
0.797858
1.272235
1.514919
1.590438
1.561917
1.585065
2.030451
3.158058
4.728944
6.256110
7.452219
8.312128
8.921873
9.384327
9.743208
9.862213
9.652733
9.167839
8.402390
7.479126
6.755059
6.378413
6.157711
5.937710
5.751376
5.551482
5.166888
4.745353
4.605311
4.633369
4.436748
3.804095
2.856751
1.843709
0.814536
-0.278464
-1.391337
-2.413496
-3.273634
-3.980634
-4.454773
-4.583593
-4.452430
-4.213020
-3.899261
-3.694219
-3.972903
-4.693698
-5.392515
-5.762614
-5.783654
-5.551724
-4.993181
-3.968211
-2.649592
-1.432207
-0.677741
-0.436928
-0.524600
-0.809362
-1.169408
-1.582759
-2.029076
-2.405253
-2.750570
-3.034163
-3.162750
-3.177710
-3.085592
-2.886628
-2.707537
-2.709873
-2.873061
-3.050978
-3.230766
-3.481395
-3.796083
-4.012811
-3.925135
-3.570930
-3.206671
-2.960247
-2.799859
-2.787934
-2.913480
-2.957432
-2.780679
-2.428344
-2.130484
-2.174903
-2.543833
-2.816205
-2.633607
-2.182376
-1.907895
-2.097035
-2.832091
-3.982605
-5.338393
-6.666827
-7.728265
-8.393182
-8.697817
-8.867318
-9.120518
-9.407853
-9.431698
-8.908457
-7.784825
-6.218849
-4.536909
-2.890506
-1.123932
0.643110
2.047766
3.065254
3.886587
4.566471
5.128522
5.615524
5.916891
6.030285
6.257772
6.740332
7.176366
7.253755
7.160239
7.261709
7.531747
7.751285
7.902321
8.135419
8.580337
9.111994
9.265134
8.732078
7.710387
6.575537
5.713061
5.276330
4.922597
4.334132
3.618948
2.934158
2.148836
1.213415
0.532834
0.647630
1.671197
3.044525
4.044712
4.352157
4.101061
3.673682
3.114208
2.257109
1.374527
0.700024
-0.016095
-1.058361
-2.445010
-3.991577
-5.392020
-6.355262
-6.736350
-6.406226
-5.354136
-3.978470
-2.739109
-1.781005
-1.186223
-1.030277
-1.104155
-1.262667
-1.643988
-2.152729
-2.674095
-3.406579
-4.447208
-5.714855
-6.998166
-8.074800
-8.876488
-9.202867
-8.900331
-8.107756
-6.850392
-5.165179
-3.331505
-1.583868
-0.159807
0.828223
1.461348
1.633893
1.424880
1.101541
0.728637
