EVENT_NAME: 202302060117
EVENT_ID: 13194
EVENT_DATE_YYYYMMDD: 2023/02/06
EVENT_TIME_HHMMSS: 01:17:32.00000
EVENT_LATITUDE_DEGREE: 37.288
EVENT_LONGITUDE_DEGREE: 37.043
EVENT_DEPTH_KM: 8.6
HYPOCENTER_REFERENCE: AFAD
MAGNITUDE_W: 7.7
MAGNITUDE_W_REFERENCE: AFAD
MAGNITUDE_L: 
MAGNITUDE_L_REFERENCE: 
FOCAL_MECHANISM: 
NETWORK: TK
STATION_CODE: 3304
STATION_NAME: 
STATION_LATITUDE_DEGREE: 36.38226
STATION_LONGITUDE_DEGREE: 33.93664
STATION_ELEVATION_M: 10.0
LOCATION: Kahramanmaras_Pazarck_Turkiye
SENSOR_DEPTH_M: 
VS30_M/S: 297
SITE_CLASSIFICATION_EC8: C
MORPHOLOGIC_CLASSIFICATION: 
EPICENTRAL_DISTANCE_KM: 294.21
EARTHQUAKE_BACKAZIMUTH_DEGREE: 
DATE_TIME_FIRST_SAMPLE_YYYYMMDD_HHMMSS: 2023/02/06 01:18:00.2088080
DATE_TIME_FIRST_SAMPLE_PRECISION: millisecond
SAMPLING_INTERVAL_S: 0.01
NDATA: 18251
DURATION_S: 
STREAM: HNE
UNITS: cm/s^2
INSTRUMENT: sensor = CMG-5T/GURALP | digitizer = 
INSTRUMENT_ANALOG/DIGITAL: 
INSTRUMENTAL_FREQUENCY_HZ: 
INSTRUMENTAL_DAMPING: 
FULL_SCALE_G: 
N_BIT_DIGITAL_CONVERTER: 
PGA_CM/S^2: 19.476
TIME_PGA_S: 
BASELINE_CORRECTION: BASELINE REMOVED
FILTER_TYPE: BUTTERWORTH
FILTER_ORDER: 
LOW_CUT_FREQUENCY_HZ: 
HIGH_CUT_FREQUENCY_HZ: 
LATE/NORMAL_TRIGGERED: 
DATABASE_VERSION: 
HEADER_FORMAT: DYNA 1.2
DATA_TYPE: Acceleration
PROCESSING: Automatic Paolucci et al., 2011
DATA_TIMESTAMP_YYYYMMDD_HHMMSS: 
DATA_LICENSE: U (unknown license)
DATA_CITATION: Turkish Accelerometric Archive v 1.0 - Disaster And Emergency Management Presidency, Earthquake Department
DATA_CREATOR: AFAD
ORIGINAL_DATA_MEDIATOR_CITATION: : AFAD - Disaster And Emergency Management Presidency
ORIGINAL_DATA_MEDIATOR: AFAD PROCESS SERVICE
ORIGINAL_DATA_CREATOR_CITATION: AFAD PROCESS SERVICE
ORIGINAL_DATA_CREATOR: network: TK
USER1: GuestUser
USER2: 
USER3: 
USER4: 
USER5: 
[...]
0.550208
1.085077
1.310539
0.937449
-0.428832
-2.273698
-4.042338
-5.575544
-6.543649
-6.922207
-6.778117
-5.767558
-4.482006
-4.022720
-4.884365
-6.122638
-7.090742
-7.672570
-7.620788
-7.333573
-6.585464
-5.336899
-3.803371
-2.206482
-0.989759
-1.031250
-1.912836
-2.519429
-2.290107
-1.269256
-0.082123
0.415116
-0.267060
-1.056339
-1.486679
-1.308818
-0.620854
0.688177
2.673273
5.181659
7.103393
7.766271
7.412478
6.420574
4.589860
2.625670
1.158075
0.906561
1.872735
3.192379
3.590234
2.715081
0.671770
-2.103891
-4.331495
-5.226268
-4.323133
-2.066261
0.458528
1.696157
0.995005
-0.829598
-3.550581
-6.341680
-7.895471
-7.234202
-4.180654
-0.702234
1.174472
1.326603
0.282916
-1.719548
-3.220592
-3.209657
-1.552945
1.001112
3.561281
5.848386
8.130667
9.603085
9.196546
7.119142
4.835896
3.441955
2.975914
3.147663
3.309443
3.132868
3.109710
3.412041
3.471864
3.345142
2.951789
3.085587
3.747821
4.105473
3.905741
2.992956
1.474545
-0.021675
-0.817064
-0.846655
-0.346200
0.883389
3.014825
5.742563
8.451646
9.896726
10.205489
9.573809
8.077268
6.231438
5.004422
4.584695
4.152425
3.445806
2.039964
-0.150975
-2.419748
-3.661558
-3.162068
-0.861455
1.365184
2.137094
1.107880
-1.540094
-4.602326
-6.764640
-7.652658
-7.593479
-6.697420
-5.298654
-3.642907
-2.595040
-2.565772
-3.333501
-3.732000
-3.600132
-3.404903
-3.441569
-3.657383
-3.852612
-3.567327
-3.080381
-2.439696
-0.998154
0.854431
1.790371
0.813583
-1.603139
-3.837176
-4.240178
-3.644199
-3.021204
-2.573818
-2.046989
-1.781002
-1.762991
-1.657497
-1.695449
-1.656211
-1.641738
-1.360956
-0.316626
1.273509
2.798674
3.835928
4.438018
4.282349
3.197172
1.817382
0.731562
0.096344
0.054853
0.290286
1.205642
2.779695
4.440910
5.393254
5.258170
4.353426
3.381784
3.183660
3.828205
5.234689
6.834473
7.421446
6.430828
4.300677
1.370956
-1.310789
-3.298458
-4.299690
-4.401969
-3.652573
-2.602453
-1.391841
0.051952
1.104323
2.000703
3.001292
3.730425
3.452215
1.957282
-0.912616
-3.930463
-5.750885
-6.189588
-5.647643
-4.391359
-2.391147
0.167413
2.227127
2.856555
1.659129
-0.888496
-3.454776
-5.033011
-5.282596
-4.747405
-4.039178
-3.101951
-1.924788
-1.215596
-1.345534
-1.865609
-1.969817
-0.900078
0.608041
1.817367
2.637843
2.922484
2.795762
2.336154
1.879440
1.269630
0.964082
1.449421
2.533633
3.206481
2.806695
1.311119
-0.378400
-1.920612
-2.901260
-2.235809
0.528594
4.902751
9.469243
12.439489
12.248762
9.699529
6.122368
2.896748
0.948639
0.867267
1.840838
3.704358
6.083449
8.107140
8.468008
6.248444
2.005511
-2.752029
-6.485502
-8.754596
-9.017046
-7.401502
-4.721366
-2.081434
-0.249755
-0.009820
-0.684599
-1.679398
-1.745332
-0.463318
1.713468
3.596929
4.195480
3.568625
1.977846
-0.489372
-3.224186
-5.598775
-6.498050
-5.400008
-3.594382
-1.988809
-1.112048
-1.524055
-2.728236
-3.874522
-4.978676
-5.372029
-4.515852
-2.377339
0.397034
2.833054
4.016006
3.751626
2.219063
0.340105
-0.951880
-0.482624
1.159615
2.684459
3.213539
2.725949
1.478992
0.359722
-0.308302
-0.438884
0.235894
0.952483
1.295983
1.292767
0.917747
0.337206
0.151947
-0.319883
-1.035830
-1.447838
-1.061883
-0.374561
0.151302
-0.022378
-0.615463
-0.952209
-0.646983
0.256474
1.585445
2.919885
3.977401
5.203773
6.623766
7.258019
6.304388
3.992195
1.070515
-1.206942
-2.377673
-2.539453
-1.862102
-0.881776
-0.189952
0.006563
-0.622544
-1.921926
-2.912223
-3.005174
-2.008124
-0.506759
0.485789
-0.151680
-2.542351
-5.347601
-7.144866
-7.019109
-5.320585
-3.417505
-1.925467
-1.091161
-1.101776
-1.780413
-2.557470
-3.219705
-3.453851
-3.055353
-2.094003
-0.468489
1.338423
2.809234
3.292964
2.651956
0.787471
-1.447852
-3.303010
-4.105797
-3.536835
-2.024213
-0.531853
0.304704
0.425958
-0.000844
-0.928102
-2.094329
-3.159244
-3.660021
-3.264096
-2.397627
-1.191839
0.221400
1.580926
2.453184
2.854256
2.929195
3.388803
4.088025
4.485558
3.967413
2.821448
1.265405
-0.201546
-0.825507
-0.617413
-0.197365
0.261599
0.673284
1.022895
1.338413
0.815444
-0.558878
-2.366435
-4.316152
-5.821055
-6.330516
-5.956783
-4.901840
-3.518834
-2.268661
-1.790399
-2.361935
-4.174637
-6.310256
-7.837352
-8.085006
-6.971205
-5.192595
-3.637840
-2.765581
-2.582253
-3.331006
-4.799887
-6.162630
-7.187342
-7.702913
-7.517334
-6.842234
-5.655744
-4.144087
-2.762690
-2.130688
-1.811954
-1.430180
-1.158726
-1.596785
-2.873653
-4.533904
-5.723932
-5.823637
-4.642615
-2.312733
1.009697
4.408674
6.381869
5.982406
3.144671
-0.497781
-3.423642
-4.862934
-4.790567
-3.678052
-2.255164
-0.673392
0.529501
0.944081
0.876860
0.684526
0.634351
0.920279
1.652950
2.736841
4.339841
6.463237
8.259536
8.805983
7.724344
5.015582
1.671281
-1.378408
-3.309791
-3.612445
-2.058011
0.307572
1.987441
2.345093
1.239974
-0.762168
-2.807087
-4.165649
-4.443859
-3.917352
-3.055708
-2.333650
-1.725450
-1.147160
-0.718107
-0.285838
0.029037
0.230698
0.302743
0.220727
-0.019208
0.013919
0.146108
0.120056
0.094004
0.028713
0.058624
0.452298
1.264733
2.527449
3.676631
4.122730
3.592041
2.766419
2.549641
2.705952
2.696303
2.125411
1.116460
-0.222483
-1.896885
-3.797393
-5.338319
-6.176485
-6.412561
-6.406129
-6.432181
-6.266542
-5.570858
-4.443226
-3.604418
-3.400827
-3.826021
-4.213906
-3.529157
-2.091475
-0.833262
-0.049130
0.506967
1.018679
1.406242
1.500800
1.245427
0.526263
-0.665695
-2.320478
-3.927659
-4.664512
-4.814392
-4.913775
-4.872285
-4.799276
-4.939828
-5.204851
-4.897695
-3.609892
-2.060926
-0.935545
0.143842
1.850085
3.852227
5.425315
5.951500
5.346516
4.357184
3.188383
2.056891
1.083962
0.807039
1.416526
2.230891
2.949732
2.822367
1.425531
-0.959029
-3.669720
-6.273309
-8.262265
-8.962774
-7.791078
-5.525522
-3.666506
-3.138391
-3.891003
-5.257928
-6.454711
-7.038790
-6.725523
-5.411989
-3.572914
-2.162570
-1.866028
-2.562355
-4.046674
-5.877710
-7.622871
-8.541766
-7.875350
-5.613975
-2.950242
-1.143329
-0.141776
0.308183
0.153158
-0.022131
0.445518
2.060740
4.698421
7.402036
9.678849
11.213021
11.245826
9.241754
5.764942
1.791856
-1.591363
-3.437515
-3.602189
-2.783000
-1.797850
-0.823313
0.210081
1.611741
3.173894
4.286731
5.244864
6.448401
7.781232
8.872841
9.332771
8.952927
7.788307
6.223580
4.461373
2.845186
1.366335
-0.158832
-1.819404
-3.578073
-5.123823
-6.301308
-6.654779
-6.194849
-5.308439
-4.060518
-2.325650
0.313639
3.409320
5.627275
6.137057
5.642713
5.391520
5.959196
6.808297
6.627541
5.678413
4.802294
3.581711
1.193614
-2.286093
-5.916645
-8.535029
-9.466146
-8.924522
-7.353364
-5.211313
-3.193411
-2.021395
-2.116597
-3.487703
-4.993893
-4.882288
-3.076983
-0.982212
0.054720
-0.320300
-1.199313
-2.005638
-2.792343
-3.641123
-4.200436
-4.595719
-4.850128
-4.483792
-3.476450
-1.972512
-0.218668
1.539679
2.750934
3.008559
2.165890
0.467688
-1.370745
-2.591972
-2.285781
-0.033733
2.792744
4.723484
5.821205
6.551946
6.790273
5.989738
4.340744
3.045543
2.831659
3.141066
3.417024
3.699092
4.359397
5.841786
8.009245
9.303159
8.507770
5.968185
2.795956
-0.116397
-2.208596
-3.064130
-2.634434
-0.965178
1.055297
2.304183
2.466605
1.625866
0.149588
-1.476570
-2.456575
-2.137519
-0.895065
0.378908
0.928572
0.896731
0.633638
0.152480
-0.339935
-1.033689
-1.860598
-2.378743
-2.531196
-2.575259
-2.786892
-2.369417
-0.547066
1.651913
2.794661
2.282306
1.313236
0.836903
0.177241
-1.253687
-3.389627
-5.504018
-6.101606
-4.475127
-1.330880
2.148184
4.856945
5.717624
4.463913
1.907925
-1.059426
-3.593222
-4.822811
-4.201745
-1.595905
2.819743
7.743243
11.786766
13.462132
12.247660
8.947743
5.382805
2.815560
1.615561
2.223440
4.111082
6.276289
7.442838
6.779960
4.471627
1.315157
-2.234665
-5.568996
-7.752537
-7.967064
-6.103866
-3.150023
-0.393018
1.164633
1.382697
0.569940
-0.840083
-2.324402
-3.208883
-2.963480
-1.280073
1.292961
3.428257
3.712255
1.674734
-1.455684
-4.258362
-6.748737
-8.900115
-10.080173
-9.403466
-7.672779
-6.503014
-6.104837
-6.241851
-6.009635
-5.045713
-3.615428
-1.637730
0.607564
2.760228
4.796784
6.342856
7.199033
7.717499
8.152663
8.486192
8.288068
7.109618
4.781666
1.727796
-0.816935
-2.259764
-3.498037
-5.519477
-8.318295
-10.935071
-12.257289
-12.225448
-10.820893
-8.433440
-5.620792
-2.615489
0.199088
2.225352
2.531865
1.018277
-1.524845
-3.718036
-4.880082
-5.437144
-5.619187
-5.192063
-4.200481
-3.314071
-3.129456
-3.388689
-3.306031
-2.843528
-2.609061
-2.597161
-2.775022
-3.231093
-4.333959
-5.988421
-7.491073
-8.278743
-8.006645
-6.592120
-3.830290
-0.051468
3.372918
5.469298
6.330620
6.343807
5.892882
5.351259
5.196876
6.184278
8.214080
10.096254
10.564867
9.068648
6.121880
2.505481
-0.945280
-3.606440
-4.922869
-4.644338
-3.119494
-1.395562
-0.790256
-2.061657
-4.433994
-6.488240
-6.957498
-6.014159
-4.144850
-1.576641
1.195481
3.612846
5.513996
7.157522
8.714850
10.251273
11.251539
11.443230
10.773598
9.875930
9.180246
8.115975
5.848488
2.361384
-2.096076
-6.669966
-9.895264
-11.000704
-10.346189
-9.069965
-7.869323
-6.186881
-3.509639
-0.677694
1.010216
0.974515
0.782824
1.611662
3.684884
6.608815
8.766304
9.391872
8.101817
4.986838
1.030476
-2.155262
-2.896939
-0.411388
3.577457
6.817550
8.074477
7.474960
4.937305
0.751300
-4.163839
-8.905941
-11.410789
-10.814167
-7.884447
-3.985979
-0.117423
3.096940
4.866543
4.800931
4.213957
3.047086
1.588819
0.482736
0.400720
1.918166
3.857269
4.551666
2.933227
0.289435
-1.536133
-1.758058
-0.704400
0.598198
1.416744
1.865738
2.582006
3.769139
4.886801
4.798031
2.916500
-0.649726
-5.330718
-9.156820
-10.928354
-10.287347
-7.712062
-4.167708
-0.935013
1.426389
2.292215
1.226013
-1.563156
-4.685854
-6.580573
-6.567708
-4.727024
-1.706282
1.445363
3.987520
5.732680
6.933965
7.360445
6.330910
3.785857
0.350535
-3.186101
-5.929277
-6.725953
-5.272189
-2.327995
0.304540
1.409336
0.725231
-0.960107
-3.039440
-5.267688
-7.142787
-7.710784
-6.446138
-4.233651
-2.259169
-0.761342
0.429329
0.392020
-1.757750
-5.160266
-7.905694
-8.176184
-5.493153
-1.329341
2.520560
4.767784
4.168267
1.151062
-2.827813
-6.373776
-8.193233
-7.915667
-6.300124
-4.450434
-2.401013
-0.095896
1.812651
3.080192
3.870756
4.860088
5.579572
5.138296
3.489946
2.341730
2.597746
3.698361
4.887746
5.383055
4.775818
3.569387
2.047437
0.612005
-0.249961
-0.062452
1.246257
3.098520
4.533951
4.833066
4.208462
2.867268
1.645076
1.121142
1.610661
2.824168
4.400794
6.006046
6.575008
5.698568
4.209424
2.731216
1.490370
0.698840
0.487208
0.684366
0.977048
0.614572
-0.674518
-2.573418
-4.619945
-6.322650
-7.549666
-8.124418
-7.782205
-6.882608
-6.200432
-6.027718
-6.246426
-6.836294
-7.610456
-8.101584
-8.045299
-7.521366
-6.603114
-5.008155
-2.470179
0.941020
4.270526
6.492341
7.392902
6.761544
5.087463
3.365782
2.033272
1.373931
1.310248
1.199929
0.438954
-0.931508
-2.502989
-3.940672
-5.188915
-5.878489
-5.768170
-4.797493
-3.300953
-1.797979
-0.247405
1.711638
4.517853
8.281237
12.116344
15.132904
16.823709
16.647777
14.684552
12.013099
9.744326
8.454914
8.360677
9.322991
10.527814
10.751346
8.989461
5.009620
-0.223288
-5.435612
-9.072595
-10.280957
-8.537083
-4.739285
-0.642051
2.631492
4.259579
3.603455
1.037818
-2.021198
-4.300263
-5.406668
-5.365178
-4.332749
-2.535806
-0.523051
1.092493
1.474910
-0.273146
-3.431223
-6.886487
-9.292917
-9.380079
-6.923153
-2.560896
2.231380
5.614276
6.825209
6.249493
4.715643
2.692595
0.444727
-1.580572
-2.829780
-3.470466
-3.630959
-3.240502
-2.320321
-1.380199
-1.283710
-2.397191
-3.894375
-4.427315
-3.525789
-1.498881
0.539283
1.457212
0.654747
-1.203305
-2.826568
-3.471757
-3.006360
-1.384384
1.191223
3.832764
5.284920
5.239891
4.117083
2.646916
1.129790
-0.420463
-1.596018
-1.710840
-0.121027
2.934129
6.118580
7.621232
6.498424
3.382479
-0.489937
-4.111161
-6.678728
-7.540373
-5.963425
-1.986158
3.495048
8.490914
10.879333
9.141570
4.168860
-2.069461
-8.318396
-13.036697
-14.875130
-13.695395
-10.691699
-7.465437
-5.937698
-5.483558
-5.348152
-5.408297
-5.597737
-5.710308
-4.854131
-3.382034
-2.375978
-1.574800
-0.930898
-0.248723
0.591694
2.058323
4.283354
6.192867
6.813932
6.203158
4.432911
2.127150
0.178398
-0.649476
-0.107531
1.770784
3.987131
4.793455
3.180163
0.292897
-2.015437
-2.803429
-1.614366
0.966065
4.741028
8.062171
10.011244
10.058845
7.794253
3.866195
-0.960496
-5.732831
-10.001173
-12.661368
-11.979193
-8.350572
-3.120881
2.111705
6.255898
8.902906
10.343805
11.092558
12.281299
13.440129
13.846346
12.926165
10.928847
8.425606
5.804328
3.242229
1.223040
-0.358733
-1.505663
-2.072696
-2.794110
-4.222144
-6.611850
-9.932029
-13.049260
-14.632962
-14.527147
-12.597693
-9.961620
-6.886201
-3.598829
-1.151231
-0.060586
-0.399262
-1.408535
-1.678061
-1.398565
-0.502828
1.415369
3.642972
5.273632
5.372372
3.749109
1.607380
-0.063484
-1.019688
-1.678707
-2.899612
-4.995348
-7.583177
-10.094459
-11.803918
-11.528604
-9.087438
-5.719659
-2.668684
-0.962441
-0.196642
-0.053839
-0.070242
0.255246
0.737690
1.728951
3.276952
5.888903
9.882573
14.026444
17.424778
19.475808
19.217861
17.189988
13.858552
10.061075
6.644086
3.775474
2.186626
2.028062
2.644947
3.157945
3.023504
2.683863
3.300105
5.099298
7.298920
8.437809
7.809989
6.147165
3.926315
1.580351
0.087348
0.097640
0.601633
0.521868
-0.672663
-2.253793
-3.593057
-4.528034
-4.566629
-3.511686
-1.745941
-0.059640
0.103426
-1.306275
-2.850739
-4.101234
-4.871858
-5.244305
-5.147173
-4.736131
-3.924017
-2.621419
-0.803893
1.383508
3.481173
4.160454
2.703152
0.012080
-3.026352
-5.402549
-6.445593
-6.194079
-4.936831
-3.277224
-1.998748
-1.095292
-0.777523
-1.363853
-2.522362
-4.025336
-5.370711
-6.114961
-6.961811
-7.709600
-8.132864
-8.237715
-7.361276
-5.924880
-4.056536
-1.776185
0.270020
1.729895
2.692853
3.090708
3.483738
3.975509
4.615873
4.725870
4.140504
3.327747
2.888080
2.868460
2.820859
1.834743
-0.064156
-2.011622
-3.410709
-3.672194
-2.910255
-1.876217
-0.682651
1.126192
3.334498
5.289038
6.462663
7.322378
7.590938
6.840898
5.542159
5.214740
6.039719
7.619240
8.832747
9.651293
9.983536
9.510419
8.450650
7.221705
6.089570
5.431838
4.699166
3.442560
1.405039
-1.500239
-4.825242
-7.783266
-9.551263
-10.151745
-9.841694
-8.725963
-6.825456
-5.321518
-5.213451
-6.397046
-8.117442
-9.718191
-10.300983
-9.490156
-7.535294
-5.416401
-3.569606
-2.404343
-1.794213
-1.548810
-1.214637
-0.453341
1.306614
3.384982
5.293851
7.213656
8.897706
10.311266
11.149432
11.142034
10.630000
9.849406
9.122845
8.622390
8.415260
8.420084
7.963692
6.657556
4.607169
2.662598
1.625665
1.906769
2.391464
2.037350
1.041585
0.098247
0.551422
2.202666
3.619764
3.987708
3.035364
1.448766
-0.557879
-2.569992
-3.963933
-4.559912
-4.688564
-4.578246
-4.588217
-4.248898
-3.165973
-1.610895
-0.044561
0.709016
0.687466
1.020352
2.006467
3.320323
3.869343
3.127023
1.978163
1.002018
0.117216
-1.213043
-3.203607
-5.164902
-5.840646
-4.654799
-2.553917
-1.037757
-1.308247
-3.437112
-6.511887
-9.316173
-10.075218
-8.536866
-5.047511
-0.550491
3.767382
6.709646
7.252877
4.886972
1.016807
-2.385709
-4.636792
-5.611651
-5.755419
-4.989620
-3.372147
-1.914845
-1.144222
-0.623504
0.209837
1.204636
1.487991
1.033207
0.530500
0.896514
1.893243
2.738484
3.063008
3.296832
3.746791
3.971610
3.982223
3.198412
1.950812
1.052823
0.865956
1.055717
0.644996
-0.295126
-0.955110
-1.041950
-0.856692
-0.907509
-1.459747
-2.223938
-3.079472
-3.825974
-3.019007
-0.139460
3.833947
7.291783
8.929519
8.949138
7.790951
5.702933
3.054638
-0.031716
-2.778430
-4.195529
-3.724343
-1.990118
0.049011
1.643327
2.062731
1.268950
-0.554688
-2.055732
-2.821531
-3.273742
-3.675779
-3.956240
-3.801215
-3.134478
-2.511804
-1.643084
-0.368789
0.759165
1.504701
1.370581
0.114297
-1.687470
-3.270530
-3.371843
-2.223627
-0.921350
-0.791734
-1.940594
-3.356728
-4.439975
-5.209634
-5.987656
-6.009205
-4.745846
-2.343276
0.445893
3.265938
5.707104
6.668775
5.616725
3.078749
0.166717
-1.297983
-1.588736
-2.065391
-3.190128
-4.380157
-4.802778
-4.779621
-4.790235
-4.911811
-4.464747
-2.764936
-0.497450
1.023534
1.142537
0.381562
-0.639612
-1.222726
-1.090536
0.007184
2.220636
4.803319
6.782625
6.983643
4.819399
1.434573
-2.357436
-5.564723
-6.834516
-6.005034
-4.241220
-3.207503
-4.367942
-7.185736
-10.219665
-12.104734
-11.737434
-9.109723
-4.442562
1.472522
6.873320
10.752168
12.055088
10.511267
7.224538
3.939095
2.378549
2.287206
2.395917
1.898678
0.919638
0.483508
1.148316
1.986160
2.194897
1.910255
2.224486
3.098996
4.447265
5.401539
5.715771
6.106872
6.417887
5.892023
3.553778
0.114596
-3.025471
-5.129248
-5.698210
-4.933698
-3.486688
-2.174441
-1.936114
-2.325929
-2.539491
-2.436570
-2.445576
-2.299878
-1.479724
-0.421564
0.473530
1.173717
1.844957
2.059162
1.580899
0.962084
0.311428
-0.426712
-1.992082
-4.125770
-6.147532
-7.207301
-6.495214
-4.584736
-2.007521
0.265111
1.329060
1.120644
0.045759
-0.915591
-1.384849
-1.600984
-2.139392
-2.902940
-2.877210
-1.893346
-0.761855
-0.371075
-0.953868
-2.399591
-4.189780
-5.722665
-6.636736
-6.039149
-4.075603
-2.113986
-0.704607
0.021631
0.040929
-0.718438
-1.918759
-2.772041
-2.711575
-2.199220
-1.291261
0.322996
2.573114
4.961854
7.278871
9.230838
10.507706
10.729952
10.213737
9.465627
8.115748
6.052818
3.803343
2.281393
1.504980
0.731783
-0.573067
-1.462372
-1.330183
-1.169369
-1.612252
-2.064785
-1.646989
-0.521287
0.157351
0.289218
0.457430
1.394014
2.947483
4.074794
4.475865
3.889213
2.659624
1.268256
-0.441847
-1.928096
-2.617670
-2.369694
-1.571732
-0.867686
-0.736461
-1.337586
-2.501241
-3.709924
-3.718930
-2.460074
-1.265864
-0.601379
-0.281680
0.111994
0.795135
1.019632
0.190793
-1.859272
-4.016118
-5.248923
-5.543536
-5.287519
-4.791889
-4.066937
-2.940270
-2.041638
-1.582352
-0.825237
0.301430
1.133163
0.771973
-0.956141
-3.497012
-6.058146
-8.032629
-8.957313
-8.348791
-6.221213
-3.381549
-1.380051
-1.104093
-2.109828
-3.094014
-2.959894
-1.486511
1.023162
4.239132
7.939798
11.373833
13.429687
13.170775
10.499644
6.184344
1.548058
-2.035857
-3.607659
-2.704846
-0.024388
2.987670
5.264161
6.027065
5.255798
3.342426
0.636880
-2.171908
-4.187881
-4.819561
-4.355128
-2.971801
-1.147521
0.363815
0.820850
-0.277193
-2.107585
-3.741140
-4.682871
-4.810236
-4.535243
-4.252210
-4.778396
-6.465663
-8.294447
-8.718998
-6.972230
-4.107800
-1.673067
-0.345060
-0.024074
0.031567
0.131915
0.058905
0.289192
1.273698
2.836816
4.430489
5.539145
5.881680
5.337804
4.439493
3.946757
4.127834
4.819658
5.222981
5.073102
4.681679
4.227860
3.341127
1.518776
-0.889263
-3.600276
-6.640637
-9.697080
-11.612061
-10.948862
