EVENT_NAME: 202302060117
EVENT_ID: 13194
EVENT_DATE_YYYYMMDD: 2023/02/06
EVENT_TIME_HHMMSS: 01:17:32.00000
EVENT_LATITUDE_DEGREE: 37.288
EVENT_LONGITUDE_DEGREE: 37.043
EVENT_DEPTH_KM: 8.6
HYPOCENTER_REFERENCE: AFAD
MAGNITUDE_W: 7.7
MAGNITUDE_W_REFERENCE: AFAD
MAGNITUDE_L: 
MAGNITUDE_L_REFERENCE: 
FOCAL_MECHANISM: 
NETWORK: TK
STATION_CODE: 2414
STATION_NAME: 
STATION_LATITUDE_DEGREE: 39.79505
STATION_LONGITUDE_DEGREE: 39.41862
STATION_ELEVATION_M: 1301.0
LOCATION: Kahramanmaras_Pazarck_Turkiye
SENSOR_DEPTH_M: 
VS30_M/S: 372
SITE_CLASSIFICATION_EC8: B
MORPHOLOGIC_CLASSIFICATION: 
EPICENTRAL_DISTANCE_KM: 346.96
EARTHQUAKE_BACKAZIMUTH_DEGREE: 
DATE_TIME_FIRST_SAMPLE_YYYYMMDD_HHMMSS: 2023/02/06 01:17:58.9003790
DATE_TIME_FIRST_SAMPLE_PRECISION: millisecond
SAMPLING_INTERVAL_S: 0.01
NDATA: 18251
DURATION_S: 
STREAM: HNN
UNITS: cm/s^2
INSTRUMENT: sensor = ACEBOX/SARA | digitizer = 
INSTRUMENT_ANALOG/DIGITAL: 
INSTRUMENTAL_FREQUENCY_HZ: 
INSTRUMENTAL_DAMPING: 
FULL_SCALE_G: 
N_BIT_DIGITAL_CONVERTER: 
PGA_CM/S^2: 11.586
TIME_PGA_S: 
BASELINE_CORRECTION: BASELINE REMOVED
FILTER_TYPE: BUTTERWORTH
FILTER_ORDER: 
LOW_CUT_FREQUENCY_HZ: 
HIGH_CUT_FREQUENCY_HZ: 
LATE/NORMAL_TRIGGERED: 
DATABASE_VERSION: 
HEADER_FORMAT: DYNA 1.2
DATA_TYPE: Acceleration
PROCESSING: Automatic Paolucci et al., 2011
DATA_TIMESTAMP_YYYYMMDD_HHMMSS: 
DATA_LICENSE: U (unknown license)
DATA_CITATION: Turkish Accelerometric Archive v 1.0 - Disaster And Emergency Management Presidency, Earthquake Department
DATA_CREATOR: AFAD
ORIGINAL_DATA_MEDIATOR_CITATION: : AFAD - Disaster And Emergency Management Presidency
ORIGINAL_DATA_MEDIATOR: AFAD PROCESS SERVICE
ORIGINAL_DATA_CREATOR_CITATION: AFAD PROCESS SERVICE
ORIGINAL_DATA_CREATOR: network: TK
USER1: GuestUser
USER2: 
USER3: 
USER4: 
USER5: 
[...]
0.484317
0.763238
0.948639
1.171449
1.340251
1.407819
1.518172
1.573582
1.518640
1.464166
1.427460
1.328331
1.195768
1.111602
1.057829
1.021591
0.972494
0.890431
0.799485
0.689133
0.568962
0.438503
0.319501
0.244920
0.132698
-0.044052
-0.194617
-0.349624
-0.590669
-0.841767
-1.078369
-1.389786
-1.728792
-2.016830
-2.281955
-2.545210
-2.742769
-2.828338
-2.861303
-2.839325
-2.722660
-2.570458
-2.411709
-2.226307
-2.049790
-1.929383
-1.816459
-1.724576
-1.753333
-1.755202
-1.649292
-1.593180
-1.517429
-1.379488
-1.264693
-1.074382
-0.810658
-0.534777
-0.199979
0.112843
0.363474
0.584647
0.708793
0.786882
0.835513
0.765841
0.644034
0.445540
0.126641
-0.216105
-0.604208
-1.014756
-1.391169
-1.732278
-1.934746
-2.017510
-2.023121
-1.939888
-1.832107
-1.665176
-1.442600
-1.176304
-0.835194
-0.538271
-0.269170
-0.019240
0.137405
0.305506
0.431990
0.492778
0.558008
0.555904
0.603833
0.687300
0.734293
0.893042
1.036127
1.142037
1.298916
1.429141
1.610802
1.732845
1.776799
1.860967
1.807662
1.756460
1.761371
1.642836
1.561943
1.425873
1.185062
0.999428
0.743420
0.518040
0.399973
0.257591
0.179036
0.137187
0.101884
0.089961
0.025199
-0.016884
-0.116247
-0.329937
-0.444264
-0.526326
-0.688347
-0.798699
-0.852706
-0.905543
-0.909517
-0.818336
-0.637844
-0.424153
-0.212566
0.040871
0.338262
0.636120
0.962735
1.297767
1.599600
1.917331
2.222437
2.462080
2.647014
2.781681
2.897412
2.975500
2.986723
2.981814
2.949784
2.852291
2.711312
2.516793
2.251434
1.967137
1.701777
1.458863
1.273929
1.131547
0.986360
0.872501
0.838601
0.874840
0.912716
0.948019
1.047384
1.166621
1.229513
1.258972
1.295912
1.300121
1.222501
1.132022
1.067261
0.983562
0.930023
0.933764
0.934700
0.988240
1.158211
1.333325
1.497452
1.736393
1.951487
2.088726
2.203989
2.293534
2.405757
2.495769
2.523124
2.612903
2.708293
2.736816
2.798773
2.876862
2.918011
2.939521
2.998204
3.150641
3.343056
3.525652
3.682063
3.751735
3.754775
3.724850
3.629461
3.471882
3.254685
3.008029
2.801353
2.604262
2.399690
2.267829
2.203535
2.161452
2.153036
2.124513
2.031696
1.953141
1.865000
1.680301
1.511967
1.404655
1.230242
1.041802
0.917189
0.739503
0.493315
0.293185
0.142854
-0.061952
-0.319830
-0.475070
-0.617219
-0.863641
-1.009530
-1.137650
-1.352275
-1.471511
-1.591683
-1.703203
-1.729154
-1.781992
-1.784563
-1.764223
-1.745518
-1.675379
-1.658077
-1.645452
-1.637268
-1.662284
-1.655503
-1.643112
-1.592611
-1.540474
-1.466593
-1.317430
-1.213390
-1.060486
-0.858484
-0.730363
-0.501007
-0.193797
0.052625
0.322194
0.556693
0.690894
0.859228
1.036213
1.127161
1.231435
1.334540
1.379429
1.414500
1.351842
1.230970
1.150544
1.018215
0.847544
0.642036
0.383925
0.159714
-0.031298
-0.214361
-0.449093
-0.710478
-0.941001
-1.247275
-1.560797
-1.842288
-2.165396
-2.438704
-2.737029
-3.049148
-3.245771
-3.477230
-3.690686
-3.816702
-4.035302
-4.211819
-4.242679
-4.283827
-4.256472
-4.128819
-4.078084
-4.012620
-3.833999
-3.696525
-3.515800
-3.200407
-2.922889
-2.620355
-2.250487
-1.929717
-1.555173
-1.187175
-0.939817
-0.684978
-0.514539
-0.432008
-0.259465
-0.176934
-0.242163
-0.303652
-0.464971
-0.723317
-0.959919
-1.181091
-1.347788
-1.449255
-1.510042
-1.532720
-1.556333
-1.528277
-1.419093
-1.358305
-1.304064
-1.200725
-1.219428
-1.272266
-1.278344
-1.404828
-1.534818
-1.640962
-1.825895
-1.956353
-2.062263
-2.189448
-2.266601
-2.305645
-2.308450
-2.248363
-2.098732
-1.939984
-1.782170
-1.596301
-1.481973
-1.366243
-1.276231
-1.307559
-1.285582
-1.221287
-1.208194
-1.164473
-1.048977
-0.925531
-0.864743
-0.742467
-0.505864
-0.239334
0.138015
0.605376
1.056839
1.505730
1.979872
2.515502
3.042014
3.482722
3.922262
4.389857
4.802275
5.106680
5.334867
5.482861
5.475614
5.365963
5.251871
5.085641
4.812800
4.518684
4.270392
4.034257
3.821034
3.626282
3.454909
3.360689
3.243557
3.051844
2.843999
2.553857
2.222333
1.944816
1.663558
1.409655
1.195965
0.943230
0.722760
0.562142
0.431450
0.356869
0.318526
0.362247
0.471431
0.648650
0.946508
1.174227
1.368045
1.600207
1.686946
1.742356
1.745630
1.654683
1.640656
1.548774
1.454788
1.446840
1.361504
1.372961
1.413174
1.433983
1.655155
1.870483
2.073186
2.388813
2.597828
2.729690
2.876983
2.959981
2.974244
2.982427
2.999261
2.907145
2.762659
2.640851
2.426693
2.184012
1.893637
1.502728
1.150396
0.822145
0.497635
0.172891
-0.186221
-0.504652
-0.815134
-1.135202
-1.381157
-1.601861
-1.862544
-2.109667
-2.310031
-2.486314
-2.628462
-2.734839
-2.809654
-2.872077
-2.941047
-2.949697
-2.881895
-2.752371
-2.562761
-2.362162
-2.120883
-1.819518
-1.467653
-1.058507
-0.672741
-0.348464
-0.060425
0.181088
0.355501
0.512380
0.690066
0.842503
1.008967
1.176366
1.293265
1.430505
1.505320
1.499008
1.530805
1.503685
1.384917
1.262641
1.116519
0.947016
0.778449
0.623442
0.473812
0.320441
0.221078
0.150004
0.079632
0.048771
-0.020900
-0.097118
-0.143409
-0.245812
-0.273165
-0.244642
-0.259370
-0.158369
-0.041938
0.054387
0.290055
0.483172
0.615034
0.845793
1.071875
1.295386
1.604700
1.870762
2.008235
2.125368
2.223797
2.242969
2.237592
2.192704
2.052894
1.848789
1.594184
1.305445
1.059257
0.840891
0.568050
0.323733
0.077544
-0.243692
-0.423716
-0.550433
-0.738172
-0.781424
-0.834496
-0.948588
-1.023169
-1.209973
-1.379475
-1.505725
-1.721286
-1.905517
-2.120610
-2.396023
-2.649926
-2.943809
-3.240965
-3.517547
-3.779633
-3.998467
-4.197895
-4.354539
-4.483361
-4.599791
-4.653564
-4.683256
-4.708739
-4.685359
-4.636261
-4.577577
-4.481252
-4.352897
-4.219165
-4.101330
-4.012487
-3.939308
-3.864025
-3.797626
-3.757412
-3.749462
-3.797858
-3.903066
-4.004534
-4.078413
-4.133823
-4.145512
-4.104597
-4.014585
-3.878982
-3.664589
-3.339143
-2.954780
-2.541192
-2.127370
-1.753528
-1.396051
-1.062422
-0.784437
-0.584306
-0.452443
-0.353313
-0.278731
-0.192226
-0.076028
0.075707
0.266252
0.478073
0.759098
1.110028
1.516836
1.993315
2.499721
3.037455
3.581969
4.126484
4.676843
5.193068
5.730334
6.266899
6.755770
7.237159
7.659865
7.976193
8.174921
8.261427
8.232670
8.123955
7.999342
7.772793
7.489197
7.240203
6.920603
6.596327
6.356685
6.174791
6.069115
5.982845
5.920188
5.969753
6.079171
6.190459
6.395266
6.699436
6.999866
7.297958
7.551863
7.778413
8.040500
8.224265
8.328072
8.363843
8.306797
8.254427
8.150388
7.975274
7.812318
7.593718
7.297731
7.021383
6.783846
6.477572
6.162647
5.894249
5.549398
5.252710
4.998807
4.656762
4.373400
4.065022
3.670139
3.290453
2.815611
2.271097
1.690112
1.017244
0.335725
-0.352340
-1.046016
-1.704856
-2.359722
-2.972971
-3.522161
-4.034410
-4.453140
-4.764791
-5.035996
-5.272598
-5.472728
-5.654154
-5.788587
-5.894731
-6.004147
-6.104446
-6.183001
-6.211056
-6.189546
-6.096962
-5.923718
-5.687582
-5.317481
-4.869992
-4.385564
-3.797563
-3.257023
-2.745474
-2.200259
-1.812856
-1.495125
-1.193526
-1.005319
-0.832308
-0.738789
-0.771520
-0.877196
-1.084106
-1.305512
-1.596355
-1.987731
-2.338426
-2.736816
-3.198566
-3.636935
-4.097749
-4.510401
-4.857121
-5.154043
-5.362356
-5.572773
-5.762850
-5.866655
-5.924403
-5.868759
-5.707672
-5.504268
-5.261352
-5.040179
-4.836541
-4.633137
-4.449606
-4.248306
-4.016846
-3.745407
-3.421130
-3.020868
-2.513060
-1.900511
-1.205197
-0.482763
0.274507
1.026867
1.723817
2.448589
3.123328
3.737281
4.315929
4.663586
4.887565
4.996982
4.823973
4.576850
4.215166
3.657560
3.063481
2.319773
1.481142
0.716860
-0.022407
-0.656698
-1.130137
-1.494159
-1.748062
-1.904238
-1.946321
-1.824513
-1.556814
-1.204715
-0.792296
-0.350653
0.084912
0.520711
0.931493
1.306037
1.651823
1.923730
2.095572
2.175063
2.176233
2.117550
2.031046
1.953192
1.846814
1.669363
1.537502
1.455673
1.238008
1.012628
0.870480
0.600678
0.356361
0.177740
-0.140691
-0.392724
-0.619273
-0.965994
-1.259643
-1.570593
-1.860735
-2.085881
-2.407118
-2.703338
-3.004936
-3.328278
-3.546410
-3.860165
-4.167608
-4.349736
-4.643852
-4.873674
-4.986832
-5.185325
-5.298015
-5.337760
-5.377038
-5.250786
-5.104896
-5.005532
-4.797218
-4.640106
-4.519466
-4.240779
-3.964664
-3.694862
-3.350010
-3.091430
-2.823965
-2.466489
-2.129119
-1.717869
-1.268978
-0.915242
-0.541633
-0.092041
0.383503
0.930122
1.505030
1.981977
2.383875
2.697397
2.897762
3.110051
3.243315
3.148628
2.937743
2.674021
2.374527
2.111038
1.814583
1.375045
0.883370
0.441727
0.032583
-0.321386
-0.674419
-1.052703
-1.306606
-1.388902
-1.307774
-1.126113
-1.025346
-1.040075
-1.072572
-1.004303
-0.747359
-0.423549
-0.203312
-0.034042
0.156269
0.360609
0.616851
0.863040
0.988356
0.987421
0.968250
1.000982
0.985318
0.973162
1.057329
1.165811
1.332509
1.483543
1.550409
1.685545
1.866271
1.983403
2.054011
2.107083
2.057051
1.871183
1.703083
1.557194
1.451752
1.465079
1.455961
1.407098
1.285758
1.021334
0.859780
0.855105
0.845286
0.829856
0.788708
0.713893
0.596294
0.486176
0.538313
0.617571
0.507920
0.277163
-0.067454
-0.556791
-0.958454
-1.185471
-1.488238
-1.915151
-2.346740
-2.851274
-3.430156
-3.996412
-4.597037
-5.207247
-5.713184
-6.060840
-6.254190
-6.431174
-6.695364
-6.934071
-7.012159
-6.902507
-6.672450
-6.455953
-6.371084
-6.413869
-6.430000
-6.315907
-6.118815
-5.915411
-5.753857
-5.582249
-5.308706
-4.958711
-4.632329
-4.330263
-3.928832
-3.439962
-3.001124
-2.616760
-2.347192
-2.267466
-2.211121
-2.054008
-1.839616
-1.652811
-1.624288
-1.740952
-1.778827
-1.557654
-1.167212
-0.898345
-0.812774
-0.620125
-0.157206
0.391751
0.860047
1.260542
1.597211
1.941829
2.404748
2.851067
3.115960
3.300193
3.479983
3.512715
3.445149
3.559943
3.752593
3.683857
3.338305
2.855047
2.430939
2.152955
1.801792
1.325781
0.883904
0.518714
0.181812
-0.262402
-0.794992
-1.281290
-1.798682
-2.263237
-2.399774
-2.295968
-2.172756
-1.994368
-1.743036
-1.482351
-1.169296
-0.828887
-0.481464
-0.005686
0.568989
1.067679
1.321583
1.342158
1.449471
1.685373
1.793855
1.865164
2.114626
2.546217
3.022462
3.450779
3.877226
4.226052
4.445822
4.716793
5.099052
5.478272
5.776364
5.893029
5.677235
5.217824
4.801665
4.429460
4.008860
3.678271
3.402157
2.990440
2.522379
2.164903
1.961266
1.914040
1.923626
1.955423
2.151813
2.428629
2.590418
2.740516
2.946258
3.071808
3.119737
3.188707
3.239910
3.279656
3.516259
3.963280
4.361905
4.631473
4.818278
4.932371
5.078261
5.264598
5.281900
5.048103
4.777133
4.623996
4.462442
4.183757
3.797758
3.208122
2.393105
1.561956
0.810766
0.073370
-0.676651
-1.486992
-2.320011
-3.052030
-3.685620
-4.155552
-4.384439
-4.569372
-4.932926
-5.395143
-5.697443
-5.883545
-6.194495
-6.477856
-6.630525
-6.846086
-7.062348
-7.175505
-7.131785
-6.907339
-6.760514
-6.677515
-6.487671
-6.296191
-5.968173
-5.443765
-4.854362
-4.141513
-3.434744
-2.770759
-2.017464
-1.242425
-0.400287
0.456113
1.194913
1.883212
2.475655
3.012454
3.617288
4.221655
4.775053
5.183498
5.305774
5.264393
5.270004
5.191916
4.877693
4.493565
4.082082
3.574976
3.022280
2.414174
1.840670
1.423108
1.083402
0.774790
0.438356
-0.020354
-0.494728
-0.875583
-1.225110
-1.529513
-1.725902
-1.869220
-2.018148
-2.200743
-2.461660
-2.762791
-2.972273
-3.005939
-2.947255
-2.908211
-2.842747
-2.736369
-2.655474
-2.565462
-2.391750
-2.134339
-1.905451
-1.742961
-1.520619
-1.211071
-0.861076
-0.472271
-0.053306
0.309080
0.462920
0.402133
0.188676
-0.100998
-0.350927
-0.696011
-1.244265
-1.918770
-2.771194
-3.737711
-4.674770
-5.533741
-6.171306
-6.593075
-6.955694
-7.263605
-7.432874
-7.429132
-7.338652
-7.131741
-6.648716
-6.053233
-5.603641
-5.298535
-5.137214
-5.026394
-4.745603
-4.392569
-4.166486
-4.023869
-4.007035
-4.119959
-4.163445
-4.151287
-4.094707
-3.885926
-3.716656
-3.651426
-3.478182
-3.158814
-2.698467
-2.189957
-1.819856
-1.560340
-1.332154
-1.141609
-1.161948
-1.526438
-1.881108
-1.992395
-2.076561
-2.185978
-2.350337
-2.618736
-2.722074
-2.500433
-2.123552
-1.757658
-1.464008
-1.220625
-0.900322
-0.425246
0.060352
0.443780
0.706101
0.773669
0.725975
0.612350
0.406141
0.252069
0.043756
-0.329618
-0.605732
-0.765882
-0.881845
-0.826669
-0.662776
-0.479011
-0.302260
-0.236562
-0.283087
-0.340367
-0.368890
-0.540497
-0.998973
-1.518937
-1.953800
-2.343773
-2.635318
-2.928733
-3.225889
-3.349333
-3.318238
-3.072516
-2.704753
-2.461135
-2.234351
-2.030947
-1.776342
-1.216630
-0.698301
-0.425460
-0.171789
0.007300
0.195975
0.471389
0.627098
0.773923
1.049337
1.347897
1.650898
1.885865
2.020299
2.226275
2.457501
2.523199
2.602456
2.867817
3.066311
3.104888
3.208928
3.392226
3.519880
3.577628
3.587214
3.567342
3.562433
3.586281
3.547939
3.417714
3.329573
3.313675
3.244472
3.049018
2.741107
2.460785
2.378956
2.484399
2.613456
2.579088
2.409586
2.349734
2.454008
2.578856
2.582598
2.372181
2.067543
1.857360
1.679675
1.425304
1.288533
1.411511
1.496847
1.396549
1.275676
1.167428
1.161350
1.280821
1.328048
1.269600
1.136102
0.948831
0.663131
0.182211
-0.258497
-0.593995
-1.107180
-1.823300
-2.716172
-3.715654
-4.620683
-5.428920
-6.182915
-6.875656
-7.579619
-8.412872
-9.310653
-10.032853
-10.569884
-10.999369
-11.328789
-11.563989
-11.585965
-11.388172
-11.083066
-10.704314
-10.303118
-9.876905
-9.451627
-9.003671
-8.367508
-7.672662
-7.114821
-6.576386
-5.990256
-5.303359
-4.471274
-3.692962
-2.990167
-2.187073
-1.270587
-0.288171
0.608442
1.344437
2.061260
2.784161
3.466382
4.062566
4.510054
4.709016
4.574116
4.421914
4.488079
4.481767
4.328163
4.252647
4.261532
4.207058
3.993835
3.616954
3.200562
2.926318
2.735072
2.401210
1.911873
1.426043
0.945123
0.283009
-0.547906
-1.421138
-2.329908
-3.087878
-3.645250
-4.243770
-4.779867
-5.101805
-5.316431
-5.405039
-5.433095
-5.502298
-5.559344
-5.650291
-5.631820
-5.349860
-4.970173
-4.499071
-4.022358
-3.642671
-3.152865
-2.629860
-2.148938
-1.573563
-1.092408
-0.849726
-0.674143
-0.373947
0.098324
0.721862
1.412265
1.911891
2.102904
2.109450
2.131428
2.334598
2.610947
2.869995
3.107300
3.191467
3.241968
3.451918
3.747906
3.999239
4.014670
3.748375
3.471794
3.373132
3.429244
3.453793
3.172068
2.640647
2.140789
1.878001
2.046569
2.460157
2.645091
2.515802
2.219815
1.956326
2.082577
2.674552
3.327081
3.720796
3.973765
4.276066
4.662533
5.221777
5.994477
6.770451
7.356347
7.728787
7.852700
7.808980
7.800096
7.809215
7.754039
7.642752
7.308189
6.636724
5.903302
5.361828
5.017212
4.879973
4.792533
4.544475
4.284727
4.134629
4.083194
4.112420
3.991079
3.737176
3.597600
3.601575
3.850102
4.244284
4.420334
4.321205
4.075484
3.901773
3.855248
3.670783
3.325932
2.889433
2.342114
1.835944
1.426098
1.091768
0.810510
0.478986
0.134370
-0.215624
-0.640200
-1.034615
-1.276127
-1.369178
-1.416171
-1.539615
-1.822743
-2.280284
-2.726135
-2.913406
-2.847708
-2.709534
-2.521560
-2.197751
-1.809179
-1.461522
-1.083471
-0.519552
0.175762
0.762827
1.226448
1.669728
2.043103
2.237155
2.097344
1.625308
1.053908
0.510798
-0.027637
-0.527261
-1.000466
-1.626107
-2.407925
-3.241645
-4.167248
-4.993955
-5.530753
-5.911141
-6.191229
-6.426195
-6.740418
-7.061421
-7.148393
-6.801905
-6.268613
-6.009331
-6.025930
-6.193095
-6.465468
-6.509656
-6.265337
-5.994132
-5.643903
-5.211144
-4.725780
-4.122582
-3.571522
-3.104161
-2.755101
-2.689871
-2.739903
-2.714886
-2.442044
-1.911324
-1.572317
-1.607854
-1.818037
-2.010920
-2.002035
-1.726855
-1.236348
-0.737424
-0.334357
0.105650
0.480428
0.707679
1.050426
1.662274
2.369044
2.814662
2.783334
2.492958
2.315039
2.375827
2.656851
3.054073
3.337904
3.381858
3.212122
2.986976
2.933203
3.044958
3.185705
3.261222
3.223347
3.244389
3.420439
3.492917
3.304243
2.987214
2.665276
2.377472
2.154664
2.054365
2.099722
2.124272
1.967862
1.742248
1.591917
1.542586
1.644522
1.861720
1.989140
1.917365
1.809351
1.840914
1.997559
2.278116
2.698952
3.152519
3.647702
4.301867
5.019392
5.664439
6.262259
6.817294
7.284655
7.578071
7.615713
7.506063
7.322065
6.980488
6.564797
6.230701
5.984045
5.717283
5.378745
5.054001
4.671042
4.071352
3.328345
2.638410
2.130603
1.703456
1.293376
1.017729
0.934498
1.092312
1.310445
1.384793
1.392976
1.323071
1.366558
1.729412
2.267614
3.037275
3.891804
4.534981
5.126021
5.583095
5.784629
6.106101
6.600583
7.009728
7.347098
7.669271
8.004070
8.421398
8.932480
9.465304
9.808519
9.870943
9.822314
9.721548
9.580802
9.493363
9.367346
9.022496
8.398725
7.540222
6.637298
5.959052
5.553415
5.209266
4.794276
4.302367
3.677194
2.915015
2.181594
1.676358
1.384813
1.134885
0.888229
0.684125
0.552030
0.517662
0.410349
0.118805
-0.156608
-0.375208
-0.634956
-0.817551
-1.006225
-1.354816
-1.557986
-1.493457
-1.436410
-1.391521
-1.331434
-1.410457
-1.512392
-1.474049
-1.471009
-1.570373
-1.661319
-1.861683
-2.074672
-2.117456
-2.238796
-2.366917
-2.292335
-2.196945
-2.054796
-1.840871
-1.648221
-1.438739
-1.306876
-1.283730
-1.279287
-1.244451
-1.203069
-1.239540
-1.350594
-1.593976
-1.882014
-2.017382
-2.105289
-2.133578
-2.065309
-2.053385
-1.939992
-1.605194
-1.261979
-1.036131
-0.932324
-0.940974
-0.975342
-0.924374
-0.785731
-0.565728
-0.245425
-0.009289
-0.029395
-0.148631
-0.165932
-0.079660
0.090779
0.320134
0.415524
0.325746
0.309381
0.432826
0.533594
0.559312
0.513956
0.377886
0.188745
0.048701
-0.099526
-0.331687
-0.454430
-0.481316
-0.563846
-0.538128
-0.479912
-0.635152
-0.894199
-1.229464
-1.690979
-2.102930
-2.422764
-2.711971
-2.968679
-3.289916
-3.678955
-4.002763
-4.229079
-4.416350
-4.551952
-4.553354
-4.546106
-4.599177
-4.616711
-4.724959
-4.846767
-4.828063
-4.771951
-4.601746
-4.372858
-4.177637
-3.906899
-3.627978
-3.313988
-2.898296
-2.456886
-2.034648
-1.665949
-1.261947
-0.799028
-0.379595
-0.110728
-0.058824
-0.029833
0.041242
0.063687
0.093847
-0.057886
-0.468668
-0.873604
-1.327638
-1.912832
-2.438642
-2.891273
-3.312809
-3.713770
-4.169441
-4.611785
-4.947049
-5.213812
-5.568715
-6.027425
-6.502267
-7.120660
-7.672421
-7.878630
-7.972148
-8.007217
-8.095592
-8.334065
-8.418699
-8.413789
-8.399293
-8.295253
-8.202668
-8.034100
-7.813161
-7.611160
-7.355619
-7.044668
-6.593673
-6.078383
-5.564028
-4.969715
-4.388027
-3.797922
-3.247563
-2.869746
-2.517179
-2.156897
-1.856000
-1.540607
-1.174947
-0.799702
-0.444096
-0.054823
0.313876
0.456492
0.345673
0.120293
-0.063939
-0.114672
-0.118412
-0.187850
-0.331401
-0.575485
-0.953768
-1.387929
-1.763641
-2.091658
-2.433235
-2.725715
-2.884229
-2.948523
-3.010479
-3.044846
-2.992475
-3.021466
-3.170394
-3.314179
-3.566913
-3.799775
-3.907087
-4.110490
-4.233935
-4.190448
-4.128725
-3.953377
-3.769845
-3.655050
-3.516174
-3.330772
-3.046007
-2.719625
-2.350459
-1.985501
-1.707048
-1.331101
-0.888289
-0.525903
-0.278311
-0.200456
-0.107404
0.108859
0.366504
0.648464
