EVENT_NAME: 202302060117
EVENT_ID: 13194
EVENT_DATE_YYYYMMDD: 2023/02/06
EVENT_TIME_HHMMSS: 01:17:32.00000
EVENT_LATITUDE_DEGREE: 37.288
EVENT_LONGITUDE_DEGREE: 37.043
EVENT_DEPTH_KM: 8.6
HYPOCENTER_REFERENCE: AFAD
MAGNITUDE_W: 7.7
MAGNITUDE_W_REFERENCE: AFAD
MAGNITUDE_L: 
MAGNITUDE_L_REFERENCE: 
FOCAL_MECHANISM: 
NETWORK: TK
STATION_CODE: 0139
STATION_NAME: 
STATION_LATITUDE_DEGREE: 37.400943
STATION_LONGITUDE_DEGREE: 35.445322
STATION_ELEVATION_M: 238.0
LOCATION: Kahramanmaras_Pazarck_Turkiye
SENSOR_DEPTH_M: 
VS30_M/S: None
SITE_CLASSIFICATION_EC8: unknown
MORPHOLOGIC_CLASSIFICATION: 
EPICENTRAL_DISTANCE_KM: 141.79
EARTHQUAKE_BACKAZIMUTH_DEGREE: 
DATE_TIME_FIRST_SAMPLE_YYYYMMDD_HHMMSS: 2023/02/06 01:17:36.4746400
DATE_TIME_FIRST_SAMPLE_PRECISION: millisecond
SAMPLING_INTERVAL_S: 0.01
NDATA: 12501
DURATION_S: 
STREAM: HNZ
UNITS: cm/s^2
INSTRUMENT: sensor = GMS+/GEOSIG | digitizer = 
INSTRUMENT_ANALOG/DIGITAL: 
INSTRUMENTAL_FREQUENCY_HZ: 
INSTRUMENTAL_DAMPING: 
FULL_SCALE_G: 
N_BIT_DIGITAL_CONVERTER: 
PGA_CM/S^2: 12.842
TIME_PGA_S: 
BASELINE_CORRECTION: BASELINE REMOVED
FILTER_TYPE: BUTTERWORTH
FILTER_ORDER: 
LOW_CUT_FREQUENCY_HZ: 
HIGH_CUT_FREQUENCY_HZ: 
LATE/NORMAL_TRIGGERED: 
DATABASE_VERSION: 
HEADER_FORMAT: DYNA 1.2
DATA_TYPE: Acceleration
PROCESSING: Automatic Paolucci et al., 2011
DATA_TIMESTAMP_YYYYMMDD_HHMMSS: 
DATA_LICENSE: U (unknown license)
DATA_CITATION: Turkish Accelerometric Archive v 1.0 - Disaster And Emergency Management Presidency, Earthquake Department
DATA_CREATOR: AFAD
ORIGINAL_DATA_MEDIATOR_CITATION: : AFAD - Disaster And Emergency Management Presidency
ORIGINAL_DATA_MEDIATOR: AFAD PROCESS SERVICE
ORIGINAL_DATA_CREATOR_CITATION: AFAD PROCESS SERVICE
ORIGINAL_DATA_CREATOR: network: TK
USER1: GuestUser
USER2: 
USER3: 
USER4: 
USER5: 
[...]
0.284833
0.113388
0.237560
0.254707
0.244318
0.448238
0.708788
0.804384
0.891669
1.142087
1.693317
2.438333
2.845392
2.645373
1.898283
1.046766
0.481513
0.148233
0.114465
0.169019
-0.133349
-0.897844
-1.804172
-2.466318
-3.000399
-3.542013
-4.031413
-4.210391
-3.855546
-3.255220
-2.742436
-2.323688
-1.593738
-0.657012
-0.041100
0.398949
0.890951
1.536996
2.000165
1.916002
1.621168
1.312306
0.931229
0.222324
-0.716735
-1.332382
-1.558118
-1.707742
-2.054530
-2.364172
-2.370404
-2.262598
-2.092967
-1.804623
-1.296774
-0.725802
-0.665274
-1.170520
-1.624073
-1.514189
-1.013874
-0.526547
-0.211706
-0.183389
-0.091948
0.308616
0.828154
1.400945
1.805146
2.096608
2.546268
3.025023
3.189198
2.950214
2.584723
2.223647
1.900498
1.553710
1.207702
1.011319
0.981448
1.378376
2.067283
2.634618
2.972578
2.977516
2.794901
2.389406
1.789344
1.144343
0.510251
0.324260
0.308416
0.100604
-0.156044
-0.635574
-1.144717
-1.495401
-1.633595
-1.630736
-1.795686
-1.986354
-2.156499
-2.372884
-2.422757
-2.138829
-1.834378
-2.069466
-2.655240
-3.002808
-2.895521
-2.725631
-2.858630
-3.074235
-3.453494
-3.930945
-4.074335
-3.731959
-2.998631
-2.505590
-2.428956
-2.276730
-1.972799
-1.728355
-1.584961
-1.238429
-0.702785
-0.315209
-0.112588
0.054186
0.286940
0.549567
1.103395
2.100906
3.158943
3.894868
4.148144
4.298811
4.635732
4.994734
5.399455
5.809630
6.183698
6.347354
6.056157
5.591434
5.335825
5.437396
5.644174
5.662879
5.496890
5.147764
4.712915
4.171041
3.465773
2.612698
1.506088
0.188028
-1.152632
-2.200793
-2.874629
-3.382473
-3.677827
-3.609506
-3.202187
-2.699534
-2.210909
-1.733193
-1.220669
-0.544491
0.043886
0.581088
1.481186
2.686252
3.864302
4.785960
5.477205
5.962194
6.438870
7.151416
7.774601
8.016188
7.905789
7.726551
7.628361
7.416652
7.110908
6.555786
5.580360
4.362310
3.310512
2.912030
3.063477
3.371304
3.604058
3.942538
4.578712
5.041621
5.159817
5.263207
5.655979
6.116030
6.077586
5.648192
5.022414
4.277661
3.460953
2.525531
1.744411
1.084083
0.522207
0.308161
0.411551
0.838611
1.498684
2.115635
2.650759
3.360447
4.121569
4.294837
3.762575
2.813385
1.611960
0.295978
-0.928825
-1.671759
-1.945552
-2.125829
-2.479891
-3.137361
-3.712485
-3.769891
-3.272693
-2.468709
-1.902673
-1.814090
-1.817984
-1.462879
-0.878399
-0.504071
-0.397045
-0.329503
-0.119348
0.248485
0.637880
0.850112
0.780756
0.438644
-0.101411
-0.396505
-0.200118
0.100175
0.359686
0.707258
1.064181
1.189651
1.337981
2.061437
3.112460
4.159587
5.089558
5.724173
6.211760
6.572320
6.765849
6.915738
7.095759
7.386961
7.632184
7.472949
6.833142
5.952272
4.968013
3.940373
2.968064
2.058619
1.274382
0.562360
-0.347345
-1.543314
-2.796952
-3.736270
-4.127219
-3.948237
-3.474937
-3.108662
-2.850970
-2.605228
-2.380786
-2.056853
-1.554460
-0.819054
0.055846
0.759560
1.205324
1.560169
1.935795
2.295316
2.681074
3.282439
4.052393
4.739482
5.296686
5.924028
6.853480
8.058286
9.063590
9.460258
9.317387
8.857860
8.175192
7.048581
5.413604
3.639131
2.182615
1.469035
1.388509
1.558919
1.839730
2.167040
2.563448
2.976481
3.319377
3.595253
3.811122
4.006989
4.245978
4.474316
4.512764
4.294042
3.825163
3.100932
2.262663
1.589867
1.313736
1.538697
2.146556
2.893651
3.727508
4.608124
5.410029
6.096858
6.496123
6.575355
6.479243
5.983088
4.918821
3.546210
2.227370
1.004126
-0.429012
-2.018270
-3.192938
-3.585445
-3.549855
-3.572712
-3.610896
-3.596347
-3.631933
-3.690898
-3.701546
-3.645953
-3.634002
-3.739465
-3.876101
-4.088849
-4.428363
-4.862693
-5.357029
-5.710052
-6.015796
-6.674046
-7.604792
-8.430852
-8.984675
-9.134819
-8.704900
-7.548671
-5.894986
-4.287280
-3.074162
-2.529686
-2.421621
-2.139510
-1.764923
-1.651402
-1.825185
-2.222108
-2.845289
-3.597055
-3.984626
-3.726675
-3.256752
-2.967628
-2.770203
-2.522382
-2.430162
-2.734348
-3.154131
-3.284272
-3.349472
-3.680414
-3.986418
-3.919396
-3.546627
-3.130476
-2.764981
-2.315840
-1.691875
-0.932831
-0.107546
0.824244
1.734733
2.336098
2.672240
2.879017
2.884215
2.588861
2.001528
1.352889
0.779064
0.007036
-1.057750
-2.165398
-3.162386
-4.100145
-5.109861
-5.813830
-5.914098
-5.773821
-5.666275
-5.737190
-5.769399
-5.514564
-5.282849
-5.333761
-5.693538
-6.033831
-5.948885
-5.549879
-5.207503
-5.276599
-5.756128
-6.221111
-6.538805
-6.874682
-7.157048
-7.201466
-7.154446
-7.209514
-7.073134
-6.580092
-5.983663
-5.507506
-5.339174
-5.438143
-5.553738
-5.440737
-4.935746
-4.143711
-3.286215
-2.421186
-1.539271
-0.874523
-0.678136
-0.799705
-0.993750
-1.327809
-1.733045
-1.828118
-1.565490
-1.263118
-1.325720
-1.800573
-2.193340
-2.221133
-1.980846
-1.510663
-0.673949
0.564887
1.849961
2.636540
2.845136
3.101789
3.727832
4.254124
4.316471
4.105801
3.861881
3.515093
2.928280
2.173137
1.500600
0.935607
0.298658
-0.445055
-1.272934
-1.954043
-2.270958
-2.348626
-2.377718
-2.546824
-2.756715
-2.905300
-2.961407
-2.782165
-2.519797
-2.258728
-2.088578
-2.025452
-2.127539
-2.628110
-3.319869
-3.770305
-3.865378
-4.006170
-4.148001
-3.889270
-3.174906
-2.257663
-1.724877
-1.533425
-1.333402
-1.140912
-1.205592
-1.875531
-2.773287
-3.247361
-3.170208
-2.929660
-2.813022
-2.649106
-2.430120
-2.011631
-1.254666
-0.347294
0.383955
0.544754
0.206798
-0.355338
-0.968388
-1.435448
-1.749765
-1.921989
-1.729499
-1.320103
-0.912265
-0.423639
-0.073729
0.021867
0.048885
0.140845
-0.009298
-0.495322
-1.026285
-1.581407
-1.928714
-2.212119
-2.494485
-2.256015
-1.750765
-1.331497
-0.918983
-0.662071
-0.413730
-0.187730
0.149451
0.805367
1.022016
1.045138
1.211131
1.240747
1.400507
1.327514
1.087751
1.024629
1.060999
1.247774
1.513259
1.930968
2.221131
2.396737
2.782235
3.166953
3.463870
3.520761
3.356071
3.296586
3.521547
4.100832
4.693365
4.927938
4.895469
4.825853
4.688438
4.426594
4.307103
4.456472
4.755987
4.975233
4.788722
4.341144
3.962145
3.817456
3.949940
4.126325
4.448179
4.965899
5.637401
6.428657
6.847665
6.862474
6.620892
6.034078
5.197887
4.432354
3.943732
3.737219
3.735663
3.764759
4.101420
4.678887
5.149069
5.402085
5.327534
5.334290
5.408326
5.349101
5.265198
4.993483
4.705663
4.288737
3.558532
2.733511
1.710547
0.807077
0.257410
-0.242121
-0.546567
-0.688398
-0.993623
-1.337034
-1.689537
-2.044638
-2.212705
-2.057622
-1.411057
-0.574862
0.135346
0.676704
1.070255
1.424321
1.507449
1.465628
1.759948
2.364430
2.810973
2.562637
1.734499
0.948963
0.708940
0.899872
1.150550
1.398371
1.766984
2.205474
2.298993
2.051176
1.645161
1.314739
1.085626
0.560377
0.115917
-0.159175
-0.518432
-0.782874
-0.948604
-0.791182
-0.346977
0.293094
1.456597
2.784532
3.532406
3.431878
2.745574
2.106547
1.782099
1.572728
1.284388
0.805119
0.136738
-0.579440
-1.320036
-2.162461
-2.911370
-3.485455
-3.829905
-3.766519
-3.415051
-2.804335
-1.864232
-0.686182
0.513948
1.408331
2.071780
2.813420
3.713258
4.707392
5.582553
6.214310
6.402385
6.054038
5.515801
5.057053
4.656493
4.491543
4.930293
5.423075
5.387749
5.048234
4.452069
3.719526
3.077122
2.843333
3.012704
3.162592
3.397165
3.784221
4.322203
4.849794
5.116838
5.398428
5.534549
5.421032
5.360768
5.306479
5.288557
5.161014
4.765389
4.223516
3.489933
2.773496
2.287472
1.983026
1.888992
1.783009
1.611824
1.691316
2.037848
2.516343
3.213043
4.416030
6.112837
7.755611
8.974964
9.701277
9.854283
9.426707
8.491285
7.474815
6.895275
6.604597
6.137796
5.217701
3.922240
2.660030
1.549784
0.429407
-0.615377
-1.151276
-0.951252
-0.555883
-0.430673
-0.400018
-0.334295
-0.272468
-0.117124
0.063936
0.024973
-0.098414
-0.155561
-0.309082
-0.641323
-1.065781
-1.374383
-1.417762
-1.285019
-1.354634
-1.743245
-2.099644
-2.298624
-2.479940
-2.841015
-3.155592
-2.914525
-2.214708
-1.338249
-0.377885
0.563517
1.446730
2.023676
1.977700
1.430111
0.788746
0.341428
0.122966
0.135696
0.247139
0.315980
0.416253
0.334428
-0.067431
-0.608006
-1.086236
-1.303660
-1.568101
-2.135173
-2.764068
-3.358935
-3.975622
-4.787134
-5.699177
-6.414316
-6.920861
-7.353892
-8.108256
-9.227074
-10.190032
-10.790873
-11.180782
-11.355344
-11.038945
-10.232623
-9.399285
-8.862083
-8.393719
-7.654937
-6.809390
-6.152435
-5.661211
-5.036727
-4.148318
-3.428759
-3.224319
-3.509283
-4.095317
-4.615890
-5.034373
-5.451039
-5.730547
-5.829257
-5.747947
-5.554418
-5.349718
-5.101378
-4.729648
-4.372465
-4.298689
-4.488317
-4.767046
-4.924723
-4.805227
-4.432458
-3.866162
-3.311035
-3.046070
-3.243232
-3.921224
-4.639480
-4.865216
-4.675323
-4.333207
-3.904587
-3.607411
-3.577535
-3.632084
-3.657020
-3.711049
-3.869765
-4.108749
-4.452160
-4.927274
-5.375891
-5.649684
-5.585519
-5.205996
-4.764648
-4.310571
-3.871042
-3.430993
-2.924443
-2.619473
-2.510368
-2.204360
-1.760414
-1.506878
-1.506616
-1.580908
-1.668447
-1.833917
-1.892363
-1.698314
-1.423218
-1.231507
-1.021612
-0.646505
-0.244122
0.126309
0.526874
1.094469
1.984696
2.845828
3.405631
3.624617
3.540455
3.319394
2.952344
2.735181
2.918579
3.354991
3.808548
3.991167
3.954542
3.868561
3.756604
3.744916
3.976891
4.416681
4.952324
5.485370
5.880739
6.165187
6.368328
6.431973
6.364956
6.116620
5.879194
5.873222
5.922580
5.886214
5.724121
5.466694
5.157572
4.667132
4.102919
3.751715
3.771979
4.185012
4.602461
4.698578
4.724297
4.893148
5.250072
5.750387
6.042368
6.115885
6.354614
6.680625
6.832331
6.909744
7.051060
7.351354
7.741528
7.887000
7.609051
6.934436
6.144743
5.527017
5.131653
5.051906
5.143866
5.129062
5.061784
4.982557
4.985677
5.318701
5.731475
5.869154
5.691995
5.096609
4.070008
2.794030
1.609491
0.762650
0.163107
-0.412276
-1.097802
-1.676043
-1.812938
-1.678636
-1.726691
-2.003342
-2.154265
-1.875531
-1.264555
-0.721898
-0.325489
0.141575
0.667348
1.064276
1.276248
1.408473
1.603560
1.876579
2.104917
2.247272
2.292993
2.365471
2.547830
2.778506
3.119064
3.441958
3.730562
4.156844
4.650145
5.073309
5.391268
5.662727
5.856257
5.951074
6.189024
6.716095
7.177965
7.253300
7.059775
6.806503
6.622330
6.481798
6.346980
6.298926
6.451412
6.633511
6.471678
6.153464
5.949289
5.700693
5.393650
4.968412
4.294057
3.561254
3.015224
2.685061
2.525566
2.491798
2.323211
1.841603
1.302587
0.914756
0.603816
0.266120
-0.087162
-0.295494
-0.217302
0.070783
0.367440
0.622535
0.906203
1.242605
1.542899
1.704477
1.855924
2.176999
2.558081
2.717061
2.630301
2.442751
2.158047
1.845289
1.661116
1.651247
1.787108
1.972065
2.133383
2.362760
2.716306
3.012184
2.988028
2.599158
1.998836
1.364485
0.857161
0.609344
0.789885
1.370469
2.092626
2.779974
3.282107
3.448361
3.290684
3.044686
2.842849
2.585940
2.313446
1.980426
1.290744
0.234270
-0.887405
-1.799708
-2.300798
-2.430420
-2.396908
-2.284946
-2.230652
-2.373262
-2.673552
-2.987089
-3.092813
-2.939807
-2.661853
-2.398966
-2.229595
-1.974761
-1.462496
-0.850481
-0.283145
0.220807
0.816197
1.800200
2.993057
3.868477
4.202281
4.237612
4.296581
4.309312
4.107474
3.713928
3.201149
2.583682
1.879973
1.026638
-0.090102
-1.365820
-2.709597
-4.047920
-5.274541
-6.376735
-7.297350
-8.114058
-8.999085
-10.026985
-11.016438
-11.686897
-12.123305
-12.427231
-12.629588
-12.696606
-12.430342
-11.971070
-11.436725
-10.612999
-9.431052
-8.076361
-6.813107
-5.730912
-4.708723
-3.689131
-2.749029
-1.834903
-0.869084
0.157781
1.292969
2.416727
3.480739
4.475912
5.141180
5.315227
5.068449
4.570736
3.913785
3.195529
2.616768
2.185036
1.849678
1.566793
1.245982
0.793988
-0.012849
-1.030617
-1.913566
-2.553892
-2.785603
-2.829761
-2.994452
-3.112125
-2.930025
-2.469974
-2.088372
-1.848345
-1.617409
-1.360496
-1.031108
-0.738347
-0.485851
-0.193090
0.054211
0.036549
-0.252311
-0.535715
-0.826393
-1.288258
-1.836626
-2.327845
-2.791529
-3.382499
-4.179464
-5.160346
-6.098366
-6.604391
-6.617118
-6.550355
-6.590357
-6.507749
-6.390851
-6.435789
-6.558657
-6.479165
-6.118605
-5.854679
-5.722974
-5.664784
-5.739075
-5.927924
-6.427716
-7.035570
-7.438988
-7.651736
-7.725248
-7.822918
-8.063201
-8.519092
-9.089540
-9.516336
-9.753502
-9.880786
-9.974560
-10.037941
-10.048330
-10.251207
-10.749439
-11.219357
-11.365085
-11.078818
-10.597726
-10.096372
-9.635021
-9.320700
-9.053656
-8.637246
-7.640255
-6.158276
-4.514982
-2.784926
-1.274893
0.065512
1.104846
1.782323
2.396936
2.912837
3.493161
4.129335
4.559253
4.877471
5.287387
5.840955
6.366987
6.708064
6.937701
7.087330
7.262675
7.721688
8.318636
8.772713
8.847528
8.458139
8.177072
8.153955
7.940687
7.403749
6.769398
6.355590
5.941003
5.250542
4.529688
4.107048
3.712982
3.526471
3.485430
2.877316
2.650540
2.133604
0.827234
0.261721
-0.941522
-2.199575
-2.871593
-4.081330
-4.295117
-5.172610
-5.702275
-5.564076
-7.075144
-6.607560
-6.695099
-7.829763
-7.084487
-7.134880
-6.577675
-5.918642
-5.929030
-5.572886
-5.828755
-5.745108
-6.084622
-6.928346
-7.521654
-7.999885
-7.813889
-8.275754
-8.121449
-6.828322
-6.167471
-5.257242
-4.571972
-3.636545
-2.823729
-3.264033
-3.704338
-4.171658
-4.496106
-5.076945
-5.786888
-6.543071
-7.624222
-8.237532
-9.251924
-10.415942
-11.163292
-11.890380
-12.329645
-12.739297
-12.842163
-12.713576
-12.616940
-12.229364
-12.092204
-11.820744
-11.481745
-11.272110
-10.202384
-9.127202
-8.245028
-7.078927
-6.036477
-4.902328
-3.875982
-2.835090
-1.646390
-0.771489
0.030936
0.818555
1.345886
1.758659
2.027002
2.367300
2.810986
2.988410
3.241426
3.414174
3.102195
2.854378
2.956469
2.971278
2.985827
3.291317
3.371847
3.276514
3.040388
2.516698
2.257971
1.850397
1.067459
0.449214
-0.308008
-1.193035
-1.946360
-2.727220
-3.203372
-3.417419
-3.790443
-4.121645
-4.196196
-4.126576
-4.082154
-4.199826
-4.206838
-4.131503
-4.231771
-3.890174
-3.541044
-3.490387
-3.481812
-3.771191
-4.015631
-4.337481
-4.343194
-4.706087
-5.820490
-6.452762
-7.341686
-8.153718
-8.562071
-9.219282
-9.486321
-9.804275
-10.110539
-10.032347
-9.999614
-9.809721
-9.503193
-9.038206
-8.662060
-8.254482
-7.651298
-7.356719
-6.755354
-6.044367
-5.558599
-4.770721
-4.099738
-3.410571
-2.504499
-1.890405
-1.234749
-0.511812
-0.191256
-0.005001
0.049553
-0.167871
-0.691301
-1.473460
-2.271465
-3.118306
-3.966706
-4.759775
-5.213068
-5.075389
-4.621312
-4.181523
-3.778101
-3.628472
-3.817321
-3.544043
-3.188938
-2.882670
-1.944386
-1.185082
-0.206014
0.890208
1.429749
2.248280
2.771974
3.128378
3.733379
4.011853
4.265908
4.194214
3.486089
2.828359
2.207516
1.561995
1.366911
1.371070
1.722798
1.996596
1.995559
2.616406
3.240111
3.639377
4.039162
4.304647
4.705211
4.932251
4.751714
4.338426
3.777849
3.399629
3.182725
2.926596
2.766321
2.574355
2.457981
2.603453
2.970508
3.357564
3.304314
2.730489
1.905728
0.755997
-0.537645
-1.051464
-1.108091
-1.473063
-1.821669
-2.069745
-2.031297
-1.743472
-1.696452
-1.536173
-0.943120
-0.262786
0.408976
1.197634
2.075652
2.894702
3.272147
3.070829
2.887175
2.957834
3.102268
3.262547
3.251639
3.310608
3.305155
2.982526
2.956811
3.211645
3.446738
3.794569
4.005243
3.981347
4.101621
4.362431
4.415426
4.343992
4.199043
3.919535
3.623402
3.117117
2.669279
2.375224
1.856210
1.327324
0.758175
0.217860
-0.354926
-1.092145
-1.666230
-2.450207
-3.527463
-4.520034
-5.158022
-5.266083
-5.030991
-4.535091
-3.969574
-3.261964
-2.440576
-1.594250
-0.593362
0.081258
0.462080
0.748606
0.952006
1.349713
1.635460
1.796259
2.145649
2.598167
3.041853
3.217978
3.160052
3.120309
3.314878
4.021708
4.980254
5.729427
6.151292
6.542505
6.955798
7.228816
7.441569
7.242329
6.722535
6.339380
5.979604
5.585278
5.067303
4.359178
3.580136
2.750959
2.005687
1.584865
1.577594
1.898670
2.295857
2.595112
2.829165
3.068673
3.411309
3.600942
3.384038
3.090762
2.825282
2.569153
2.487848
2.558766
2.873348
3.362753
3.781241
4.187520
4.649909
5.139314
5.586637
5.869526
5.954213
5.903041
5.780952
5.650551
5.601717
5.685624
5.829538
5.851101
5.650042
5.351052
5.211559
5.272606
5.388725
5.631610
6.028797
6.307011
6.308312
6.099980
5.786703
5.520443
5.147158
4.346816
3.164614
1.761090
0.368477
-0.724884
-1.479248
-1.893576
-1.887859
-1.509634
-0.950871
-0.448478
-0.027392
0.413696
0.896347
1.561615
2.427164
3.320768
4.211774
4.988223
5.473471
5.728046
5.923654
6.090946
6.071206
5.708053
5.060973
4.444806
4.038012
3.683690
3.360281
3.182083
3.119741
3.091428
3.018955
3.071171
3.346787
3.549408
3.637731
3.690466
3.841394
4.262999
4.749547
5.170373
5.342342
5.204667
5.062316
5.000754
4.900745
4.702025
4.512916
4.306143
4.033908
3.828175
3.840386
4.128990
4.393436
4.573198
4.800757
4.796083
4.459946
4.023798
3.682465
3.476471
3.389711
3.286845
2.966813
2.614570
2.452217
2.433776
2.390916
2.278959
2.233501
2.058940
1.611362
1.061175
0.496702
0.058476
-0.125957
-0.135047
-0.099716
-0.026719
0.045239
0.104208
0.297737
0.710771
1.283042
1.824140
2.116382
2.000787
1.420728
0.547130
-0.280748
-0.897175
-1.362677
-1.701932
-1.926109
-2.161976
-2.593448
-3.337422
-4.292326
-5.091890
-5.709096
-6.348902
-6.813625
-6.972860
-6.925321
-6.850765
-6.760104
-6.472798
-6.097691
-5.878705
-5.798954
-5.594514
-5.207977
-4.695972
-4.001870
-3.131386
-2.162969
-1.244167
-0.377839
0.467708
1.179994
1.751226
2.271803
2.707955
2.913174
2.892655
2.784853
2.581197
2.136737
1.458225
0.767245
0.172898
-0.468207
-1.164903
-1.684436
-1.814837
-1.567796
-1.264904
-0.978898
-0.551058
-0.202187
-0.245566
-0.703794
-1.273983
-1.756370
-2.339806
-3.035462
-3.673970
-4.248574
-4.721869
-5.089179
-5.397261
-5.599618
-5.659363
-5.638060
-5.697025
-5.815217
-5.708190
-5.353345
-4.993304
-4.620276
-4.119441
-3.577563
-3.099328
-2.705777
-2.402106
-2.124932
-1.918674
-1.926464
-2.046215
-2.176097
-2.417419
-2.781352
-3.190484
-3.636503
-4.118890
-4.497889
-4.674010
-4.705180
-4.542563
-4.107969
-3.431271
-2.573775
-1.591850
-0.466273
0.794123
2.089328
3.327384
4.384901
5.067054
5.299029
5.184734
4.760795
4.029030
3.182189
2.370157
1.489806
0.518536
-0.350646
-0.953825
-1.253075
-1.359318
-1.383474
-1.242678
-0.883157
-0.475838
-0.202300
0.002659
0.264767
0.567658
0.903281
1.240462
1.647780
2.212778
2.875188
3.626439
4.345479
4.956455
5.449497
5.690824
5.721738
5.663033
5.566401
5.376254
4.983746
4.416415
3.808821
3.171872
2.314380
1.162312
-0.101717
-1.284958
-2.466640
-3.786778
-5.214460
-6.683186
-8.156587
-9.580113
-10.824140
-11.771771
-12.333647
-12.486388
-12.272597
-11.730199
-10.912448
-10.004037
-9.271749
-8.675320
-8.038366
-7.386866
-6.801087
-6.335581
-6.081785
-5.950600
-5.789542
-5.657838
-5.574450
-5.609516
-5.672638
-5.574443
-5.308958
-4.790459
-4.150908
-3.514475
-2.951815
-2.590476
-2.234072
-1.756356
-1.241494
-0.746634
-0.277491
0.207498
0.745739
1.234105
1.548686
1.762218
1.950552
2.145640
2.395539
2.803896
3.383960
