EVENT_NAME: 202302060117
EVENT_ID: 13194
EVENT_DATE_YYYYMMDD: 2023/02/06
EVENT_TIME_HHMMSS: 01:17:32.00000
EVENT_LATITUDE_DEGREE: 37.288
EVENT_LONGITUDE_DEGREE: 37.043
EVENT_DEPTH_KM: 8.6
HYPOCENTER_REFERENCE: AFAD
MAGNITUDE_W: 7.7
MAGNITUDE_W_REFERENCE: AFAD
MAGNITUDE_L: 
MAGNITUDE_L_REFERENCE: 
FOCAL_MECHANISM: 
NETWORK: TK
STATION_CODE: 5803
STATION_NAME: 
STATION_LATITUDE_DEGREE: 39.74382
STATION_LONGITUDE_DEGREE: 37.00179
STATION_ELEVATION_M: 1285.0
LOCATION: Kahramanmaras_Pazarck_Turkiye
SENSOR_DEPTH_M: 
VS30_M/S: 659
SITE_CLASSIFICATION_EC8: unknown
MORPHOLOGIC_CLASSIFICATION: 
EPICENTRAL_DISTANCE_KM: 273.10
EARTHQUAKE_BACKAZIMUTH_DEGREE: 
DATE_TIME_FIRST_SAMPLE_YYYYMMDD_HHMMSS: 2023/02/06 01:17:56.5738940
DATE_TIME_FIRST_SAMPLE_PRECISION: millisecond
SAMPLING_INTERVAL_S: 0.01
NDATA: 18251
DURATION_S: 
STREAM: HNN
UNITS: cm/s^2
INSTRUMENT: sensor = CMG-5T/GURALP | digitizer = 
INSTRUMENT_ANALOG/DIGITAL: 
INSTRUMENTAL_FREQUENCY_HZ: 
INSTRUMENTAL_DAMPING: 
FULL_SCALE_G: 
N_BIT_DIGITAL_CONVERTER: 
PGA_CM/S^2: 12.063
TIME_PGA_S: 
BASELINE_CORRECTION: BASELINE REMOVED
FILTER_TYPE: BUTTERWORTH
FILTER_ORDER: 
LOW_CUT_FREQUENCY_HZ: 
HIGH_CUT_FREQUENCY_HZ: 
LATE/NORMAL_TRIGGERED: 
DATABASE_VERSION: 
HEADER_FORMAT: DYNA 1.2
DATA_TYPE: Acceleration
PROCESSING: Automatic Paolucci et al., 2011
DATA_TIMESTAMP_YYYYMMDD_HHMMSS: 
DATA_LICENSE: U (unknown license)
DATA_CITATION: Turkish Accelerometric Archive v 1.0 - Disaster And Emergency Management Presidency, Earthquake Department
DATA_CREATOR: AFAD
ORIGINAL_DATA_MEDIATOR_CITATION: : AFAD - Disaster And Emergency Management Presidency
ORIGINAL_DATA_MEDIATOR: AFAD PROCESS SERVICE
ORIGINAL_DATA_CREATOR_CITATION: AFAD PROCESS SERVICE
ORIGINAL_DATA_CREATOR: network: TK
USER1: GuestUser
USER2: 
USER3: 
USER4: 
USER5: 
[...]
0.560270
0.578219
0.574127
0.590187
0.576334
0.598692
0.654742
0.750781
0.891847
1.064402
1.293004
1.517513
1.727223
1.900722
2.040214
2.147903
2.241738
2.301567
2.344077
2.367379
2.411463
2.435710
2.461217
2.457125
2.426268
2.356997
2.250885
2.130603
1.981983
1.832417
1.654513
1.500855
1.333341
1.205188
1.071681
0.975645
0.897557
0.853791
0.837418
0.829233
0.832698
0.850333
0.908902
0.950152
0.985735
0.947951
0.898831
0.795553
0.696053
0.565696
0.449193
0.341821
0.243896
0.188164
0.143138
0.139676
0.140937
0.210211
0.311288
0.486362
0.691033
0.943566
1.215622
1.480750
1.737062
1.993059
2.259446
2.536540
2.843232
3.160315
3.460709
3.748194
4.020879
4.280654
4.552395
4.812800
5.092098
5.335184
5.566936
5.755234
5.935345
6.094045
6.225350
6.323593
6.419003
6.525118
6.624306
6.737033
6.857948
7.034910
7.234859
7.482669
7.714105
7.942078
8.125023
8.273961
8.367167
8.419438
8.430145
8.401178
8.343557
8.249410
8.158727
8.061116
8.010108
7.975788
7.961934
7.932967
7.900851
7.844175
7.781831
7.685794
7.565828
7.394851
7.180421
6.930410
6.645447
6.347260
6.014751
5.685391
5.335878
4.997387
4.650394
4.340556
4.053389
3.812824
3.617602
3.476853
3.364444
3.259906
3.148126
3.002969
2.827269
2.603078
2.365032
2.116910
1.888311
1.671362
1.482122
1.282491
1.091362
0.882915
0.687063
0.511677
0.358019
0.234588
0.111158
0.022049
-0.045648
-0.073985
-0.066112
-0.032419
0.014814
0.068345
0.095426
0.138566
0.186743
0.252554
0.323403
0.407792
0.487772
0.564289
0.590425
0.546974
0.466681
0.347344
0.234305
0.068366
-0.116151
-0.347269
-0.560440
-0.780222
-0.950255
-1.088799
-1.209711
-1.313934
-1.469796
-1.668797
-1.918808
-2.171338
-2.422294
-2.623814
-2.801404
-2.908775
-2.995365
-3.050782
-3.109977
-3.223017
-3.410367
-3.663212
-3.945971
-4.226525
-4.491650
-4.732845
-4.929327
-5.075428
-5.130845
-5.118248
-5.031971
-4.906333
-4.739132
-4.564058
-4.406303
-4.265237
-4.123226
-3.992865
-3.841407
-3.700656
-3.537233
-3.400260
-3.288477
-3.188659
-3.182675
-3.195584
-3.255409
-3.333182
-3.423550
-3.481171
-3.513602
-3.499116
-3.449994
-3.356789
-3.254767
-3.176676
-3.090083
-2.983653
-2.899894
-2.883204
-2.889815
-2.905558
-2.875013
-2.852340
-2.794401
-2.724497
-2.603898
-2.481409
-2.365218
-2.229819
-2.112998
-1.996177
-1.901712
-1.800635
-1.721285
-1.641934
-1.607296
-1.565101
-1.539909
-1.516922
-1.477875
-1.418362
-1.348458
-1.255882
-1.146933
-1.049635
-0.986658
-0.975951
-0.994527
-1.043646
-1.064427
-1.122363
-1.148811
-1.178093
-1.168645
-1.165810
-1.170531
-1.205166
-1.297109
-1.403851
-1.564752
-1.702666
-1.851602
-1.988887
-2.151677
-2.335564
-2.562274
-2.824565
-3.142275
-3.478878
-3.837836
-4.202148
-4.576850
-4.935494
-5.272411
-5.575007
-5.842021
-6.094866
-6.318743
-6.541989
-6.729340
-6.936213
-7.112542
-7.273758
-7.380815
-7.430249
-7.404113
-7.324132
-7.178658
-6.994138
-6.757349
-6.555511
-6.261099
-5.984950
-5.733362
-5.455638
-5.162801
-4.835642
-4.648918
-4.470381
-4.221312
-3.755607
-3.625246
-3.152299
-2.631805
-2.480033
-2.022200
-1.592706
-1.190921
-0.817475
-0.402465
0.018843
0.484548
0.903966
1.344795
1.816798
2.200635
2.580693
2.994129
3.356869
3.730630
4.128951
4.566947
5.022576
5.464665
5.923443
6.312003
6.712844
7.046300
7.369051
7.716677
8.050448
8.411299
8.802064
9.193458
9.603429
10.013716
10.377086
10.700152
10.954574
11.117997
11.246153
11.349120
11.413041
11.476963
11.468778
11.424381
11.326771
11.185707
11.014101
10.779204
10.503373
10.225023
9.968084
9.718703
9.482546
9.229072
8.991026
8.721492
8.420471
8.087332
7.707592
7.286917
6.858686
6.433603
6.033395
5.658693
5.319571
5.023903
4.761297
4.545922
4.357627
4.220027
4.098801
4.028270
3.941680
3.859184
3.768186
3.669316
3.569186
3.487634
3.430328
3.371762
3.315401
3.255576
3.202678
3.127424
3.072636
3.031389
3.023833
3.002108
2.990145
2.946378
2.872069
2.767216
2.663938
2.582701
2.532952
2.519728
2.532010
2.573890
2.590580
2.606326
2.578933
2.547132
2.497068
2.443540
2.385919
2.342782
2.310036
2.289571
2.261548
2.209910
2.126469
2.016263
1.905428
1.782942
1.666124
1.568514
1.541121
1.537344
1.563480
1.585523
1.610400
1.594343
1.578285
1.558765
1.514368
1.469342
1.411721
1.353471
1.256805
1.144395
1.007425
0.872029
0.709869
0.535743
0.342095
0.173322
0.040446
-0.048348
-0.116675
-0.160757
-0.196021
-0.229082
-0.236637
-0.244508
-0.253953
-0.287643
-0.310313
-0.372342
-0.442873
-0.555913
-0.674620
-0.773175
-0.838353
-0.873933
-0.878654
-0.879598
-0.917066
-0.991376
-1.128976
-1.324513
-1.589324
-1.870822
-2.161453
-2.441062
-2.736416
-2.992095
-3.271074
-3.567372
-3.875321
-4.167841
-4.433595
-4.690534
-4.898351
-5.074681
-5.198741
-5.316504
-5.406557
-5.519597
-5.655937
-5.814319
-5.973960
-6.132027
-6.264274
-6.356217
-6.388648
-6.364086
-6.302683
-6.242855
-6.196252
-6.144296
-6.091395
-5.990632
-5.842009
-5.590106
-5.301047
-4.972943
-4.648933
-4.346019
-4.085929
-3.881887
-3.709963
-3.567951
-3.450816
-3.327697
-3.171201
-3.016595
-2.826723
-2.663300
-2.520659
-2.423675
-2.333619
-2.254583
-2.176807
-2.089899
-1.980635
-1.844292
-1.688426
-1.505796
-1.327574
-1.148722
-1.015842
-0.897447
-0.842342
-0.834468
-0.860287
-0.892718
-0.903107
-0.869414
-0.802658
-0.725197
-0.659701
-0.599558
-0.567124
-0.563029
-0.548858
-0.539096
-0.522406
-0.482100
-0.388580
-0.283094
-0.157457
-0.100777
-0.058582
-0.081252
-0.145171
-0.203421
-0.285918
-0.360857
-0.441779
-0.535926
-0.690529
-0.875046
-1.094514
-1.334449
-1.627283
-1.907837
-2.188706
-2.447219
-2.704473
-2.912290
-3.044222
-3.124200
-3.157575
-3.158203
-3.106247
-3.062792
-2.997297
-2.995091
-3.004851
-3.060267
-3.124501
-3.211091
-3.383327
-3.521242
-3.621686
-3.751729
-3.822260
-3.799902
-3.752354
-3.693786
-3.645293
-3.577278
-3.525952
-3.472421
-3.449433
-3.419519
-3.380472
-3.328201
-3.286006
-3.200358
-3.069997
-2.914132
-2.742207
-2.556113
-2.351441
-2.146770
-1.912184
-1.688620
-1.410582
-1.150492
-0.863007
-0.578986
-0.287094
-0.009370
0.240329
0.450668
0.641486
0.824116
0.988169
1.176467
1.336741
1.501108
1.627690
1.765293
1.896284
2.042388
2.191957
2.358213
2.521321
2.679076
2.817624
2.912403
2.963100
2.971918
2.939487
2.874309
2.800000
2.704278
2.631858
2.545583
2.472848
2.396649
2.341547
2.266923
2.173091
2.046826
1.932528
1.860107
1.834919
1.875539
1.941665
2.030462
2.080214
2.095644
2.078957
2.048101
1.973162
1.886887
1.782664
1.720635
1.697650
1.749291
1.858240
2.012532
2.193903
2.348824
2.490520
2.563888
2.608287
2.590341
2.579007
2.561690
2.600421
2.676623
2.803205
2.959071
3.118715
3.273951
3.396440
3.525226
3.644566
3.768630
3.859001
3.933628
3.961969
3.965434
3.924501
3.869399
3.770214
3.663472
3.537838
3.397404
3.246264
3.096699
2.937058
2.758209
2.598883
2.410588
2.223867
2.021087
1.845702
1.629383
1.375908
1.095039
0.813225
0.494256
0.147263
-0.240035
-0.659765
-1.077606
-1.482221
-1.845903
-2.205177
-2.540520
-2.885624
-3.198610
-3.506244
-3.796244
-4.077428
-4.320827
-4.559188
-4.792825
-5.010719
-5.182640
-5.286863
-5.341650
-5.355503
-5.357076
-5.326217
-5.283392
-5.216637
-5.143584
-5.018576
-4.864284
-4.654575
-4.424713
-4.155176
-3.893826
-3.639404
-3.414580
-3.251472
-3.111350
-3.001772
-2.872355
-2.772538
-2.674924
-2.583923
-2.475919
-2.389011
-2.287304
-2.194099
-2.105932
-2.040121
-1.973366
-1.890866
-1.814665
-1.685249
-1.557407
-1.405320
-1.242527
-1.102719
-0.978341
-0.876949
-0.831291
-0.773352
-0.718247
-0.622837
-0.494681
-0.337241
-0.133514
0.060767
0.234266
0.361163
0.449645
0.483653
0.483025
0.491528
0.508848
0.488068
0.515778
0.517984
0.546639
0.536250
0.488390
0.411247
0.282148
0.168479
0.045993
-0.026742
-0.092550
-0.089399
-0.084045
-0.028625
0.062061
0.194311
0.324357
0.472351
0.578466
0.677969
0.722053
0.720795
0.655302
0.576269
0.482122
0.335706
0.175435
-0.047182
-0.217214
-0.421253
-0.489265
-0.710622
-0.957485
-1.099808
-1.136962
-1.531187
-1.706572
-1.757581
-2.212262
-2.342935
-2.447157
-2.544453
-2.665050
-2.771791
-2.882942
-2.936154
-3.055806
-3.131061
-3.157194
-3.226150
-3.280623
-3.333836
-3.407515
-3.490012
-3.606515
-3.761118
-3.874158
-3.996014
-4.061821
-4.104643
-4.096455
-4.092360
-4.025919
-3.955700
-3.846751
-3.759214
-3.654043
-3.520219
-3.398045
-3.297598
-3.143306
-2.914704
-2.679489
-2.346347
-2.047842
-1.755320
-1.524513
-1.313544
-1.152325
-1.028892
-0.926555
-0.835554
-0.653868
-0.415505
-0.129909
0.180246
0.550229
0.969647
1.378989
1.739210
2.048106
2.293712
2.504681
2.654564
2.828378
3.020769
3.249372
3.499701
3.756957
4.018937
4.240612
4.466065
4.623506
4.757960
4.825345
4.866280
4.866597
4.880138
4.898717
4.905961
4.911315
4.899352
4.887703
4.826618
4.727118
4.579442
4.419171
4.226783
4.034079
3.815871
3.581288
3.306717
3.021440
2.709083
2.417508
2.162459
1.922524
1.711243
1.497127
1.304424
1.090939
0.871786
0.654207
0.459299
0.272579
0.098768
-0.074098
-0.230591
-0.403772
-0.589233
-0.782566
-0.969917
-1.156638
-1.337691
-1.489145
-1.609427
-1.688460
-1.745451
-1.761508
-1.761192
-1.720571
-1.689397
-1.649721
-1.617602
-1.581389
-1.555883
-1.533840
-1.485977
-1.428983
-1.345224
-1.255797
-1.133938
-1.001688
-0.849916
-0.712943
-0.586046
-0.493470
-0.425140
-0.394911
-0.399632
-0.464810
-0.579424
-0.721118
-0.881703
-1.040400
-1.223027
-1.384558
-1.560888
-1.721474
-1.852146
-1.939051
-2.008323
-2.026899
-2.019025
-1.971792
-1.890552
-1.808998
-1.757041
-1.758929
-1.806474
-1.914161
-2.050816
-2.220533
-2.385213
-2.556819
-2.695049
-2.815960
-2.889955
-2.939704
-2.946000
-2.913252
-2.835475
-2.707949
-2.533190
-2.295456
-2.024975
-1.716079
-1.426390
-1.150241
-0.935179
-0.770496
-0.669104
-0.600145
-0.558265
-0.509142
-0.449629
-0.390431
-0.334066
-0.290297
-0.249676
-0.228578
-0.201182
-0.197402
-0.173784
-0.154261
-0.119308
-0.065147
0.023020
0.135118
0.271461
0.408434
0.514864
0.572803
0.573749
0.542263
0.464175
0.351765
0.206293
0.050431
-0.137235
-0.300340
-0.457147
-0.602304
-0.755018
-0.891359
-0.991488
-1.035254
-1.022658
-0.985816
-0.930711
-0.898592
-0.897331
-0.942672
-1.033670
-1.156470
-1.297219
-1.466307
-1.609889
-1.737728
-1.806999
-1.859897
-1.870287
-1.875323
-1.870913
-1.837850
-1.781800
-1.709062
-1.630026
-1.539970
-1.481401
-1.415905
-1.346316
-1.230125
-1.101968
-0.919968
-0.746469
-0.555651
-0.378374
-0.225972
-0.094981
0.025303
0.153460
0.270596
0.399067
0.531317
0.711113
0.901616
1.127384
1.347485
1.579866
1.765330
1.925604
2.036128
2.099105
2.120833
2.112018
2.096275
2.048101
2.004334
1.950806
1.922469
1.888779
1.885631
1.883114
1.893821
1.897916
1.908623
1.907680
1.873045
1.808497
1.720018
1.628075
1.508423
1.365156
1.188511
0.991714
0.752094
0.494526
0.207044
-0.058396
-0.317224
-0.527560
-0.691610
-0.808113
-0.881793
-0.928078
-0.932485
-0.925871
-0.908551
-0.909179
-0.918624
-0.961761
-1.013084
-1.082041
-1.146589
-1.229716
-1.283873
-1.347162
-1.400060
-1.447920
-1.483184
-1.477830
-1.466178
-1.403516
-1.311255
-1.148462
-0.937493
-0.636784
-0.291047
0.114517
0.541177
0.963114
1.378124
1.768888
2.150206
2.513261
2.881354
3.238741
3.579125
3.908174
4.245094
4.567530
4.902246
5.205789
5.486976
5.696056
5.851607
5.954573
6.032349
6.101624
6.172788
6.255917
6.311337
6.357625
6.354478
6.335587
6.254665
6.136272
5.974427
5.786132
5.571387
5.341843
5.091832
4.857879
4.638097
4.418629
4.221202
4.015589
3.806826
3.625144
3.470226
3.329477
3.226199
3.130163
3.077894
2.993824
2.914476
2.797343
2.632664
2.408788
2.109656
1.762347
1.358361
0.944299
0.514493
0.084057
-0.343230
-0.731472
-1.089171
-1.404362
-1.683342
-1.909422
-2.095198
-2.218944
-2.284437
-2.302383
-2.307105
-2.314660
-2.276244
-2.363463
-2.273092
-2.104001
-2.201927
-2.105258
-1.998828
-1.936481
-1.732124
-1.689614
-1.723934
-1.534376
-1.377251
-1.296641
-1.143924
-1.023639
-0.785591
-0.576511
-0.397974
-0.233921
-0.052865
0.185184
0.354904
0.502268
0.623812
0.722685
0.748822
0.751972
0.719226
0.677034
0.642399
0.609968
0.611859
0.610601
0.620049
0.610289
0.597066
0.575970
0.549837
0.478991
0.398699
0.320611
0.243152
0.158767
0.053599
-0.084630
-0.286150
-0.512860
-0.773892
-1.055706
-1.340354
-1.576825
-1.769528
-1.911537
-2.017964
-2.071806
-2.094791
-2.086602
-2.060781
-1.985209
-1.912471
-1.834695
-1.713465
-1.647025
-1.575861
-1.499974
-1.400786
-1.304432
-1.220673
-1.156437
-1.071418
-0.995532
-0.923423
-0.817308
-0.703006
-0.562569
-0.439136
-0.325779
-0.255874
-0.214624
-0.207695
-0.217140
-0.248311
-0.291133
-0.302782
-0.293019
-0.252399
-0.202017
-0.152265
-0.073544
0.028478
0.102161
0.215518
0.367920
0.572907
0.769077
1.001143
1.316966
1.550607
1.757168
1.998995
2.177847
2.289945
2.379371
2.447701
2.467225
2.440147
2.400159
2.383787
2.436688
2.544063
2.724174
2.904600
3.139500
3.392348
3.648660
3.924179
4.203792
4.501037
4.775927
5.066560
5.382383
5.737252
6.138407
6.606001
7.117049
7.669345
8.242108
8.841951
9.412195
9.941820
10.427048
10.863155
11.214874
11.510860
11.749224
11.918944
12.031042
12.062531
12.043640
11.956735
11.844326
11.689093
11.517486
11.326672
11.128930
10.909777
10.696292
10.485641
10.283491
10.072210
9.854946
9.618474
9.321232
8.962588
8.518297
8.018904
7.448032
6.858584
6.243945
5.644734
5.044895
4.455761
3.871035
3.266472
2.645221
2.029007
1.448375
0.919382
0.472573
0.083701
-0.238417
-0.517082
-0.758276
-0.990654
-1.209808
-1.439666
-1.664173
-1.907571
-2.143413
-2.387441
-2.603446
-2.765606
-2.849362
-2.841174
-2.782920
-2.637760
-2.467095
-2.275333
-2.074440
-1.843318
-1.629515
-1.404376
-1.183961
-0.980548
-0.792880
-0.642367
-0.529955
-0.466663
-0.465402
-0.539711
-0.658104
-0.819634
-0.998798
-1.207245
-1.429862
-1.690579
-1.968929
-2.269635
-2.563099
-2.871363
-3.164512
-3.435620
-3.698226
-3.931234
-4.157944
-4.352222
-4.517846
-4.640017
-4.749908
-4.838387
-4.942924
-5.015030
-5.064779
-5.100044
-5.136253
-5.183168
-5.232288
-5.285186
-5.315727
-5.345639
-5.363900
-5.396331
-5.398534
-5.392865
-5.373656
-5.365782
-5.357909
-5.366094
-5.380892
-5.377112
-5.353494
-5.289573
-5.185662
-5.047429
-4.881802
-4.687207
-4.487573
-4.257081
-4.037610
-3.811842
-3.615986
-3.413204
-3.247892
-3.085099
-2.912545
-2.757623
-2.578457
-2.402124
-2.201231
-1.975777
-1.701517
-1.395770
-1.066722
-0.749009
-0.406736
-0.066667
0.321893
0.712658
1.087993
1.472774
1.832681
2.201089
2.567922
2.873040
3.141317
3.436043
3.652681
3.851370
4.038093
4.213796
4.391389
4.548829
4.648332
4.704066
4.714144
4.673526
4.581584
4.411236
4.187990
3.893266
3.536827
3.145121
2.750896
2.353837
1.998657
1.664888
1.372369
1.088036
0.832672
0.589588
0.351543
0.113812
-0.164538
-0.436276
-0.746114
-1.070751
-1.419004
-1.778277
-2.146682
-2.519810
-2.904589
-3.276143
-3.640139
-3.985558
-4.303898
-4.569338
-4.787231
-4.960727
-5.071248
-5.143668
-5.172320
-5.195620
-5.219549
-5.266779
-5.332587
-5.448145
-5.563704
-5.687449
-5.792932
-5.895580
-5.992246
-6.061832
-6.108118
-6.099930
-6.034119
-5.885810
-5.672951
-5.408768
-5.122543
-4.835373
-4.584729
-4.373130
-4.199631
-4.035894
-3.920647
-3.773283
-3.674410
-3.620565
-3.593169
-3.629378
-3.714394
-3.887889
-4.050680
-4.251885
-4.437031
-4.579354
-4.733328
-4.838495
-4.882262
-4.899263
-4.823691
-4.711279
-4.514479
-4.266039
-4.010042
-3.681939
-3.362022
-3.096894
-2.884980
-2.716834
-2.634020
-2.607568
-2.643778
-2.682191
-2.748944
-2.796174
-2.793653
-2.758386
-2.685018
-2.617318
-2.536708
-2.469952
-2.409179
-2.351555
-2.290467
-2.199152
-2.067531
-1.914499
-1.754225
-1.600564
-1.414470
-1.271829
-1.122890
-0.972692
-0.836979
-0.715120
-0.584759
-0.444952
-0.303256
-0.115273
0.091918
0.361140
0.579981
0.796618
0.983342
1.141727
1.240915
1.301687
1.321211
1.308933
1.302322
1.267057
1.230847
1.175116
1.144259
1.084119
1.000678
0.881026
0.793492
0.713829
0.632278
0.560172
0.487122
0.392975
0.297884
0.223889
0.174140
0.180124
0.199333
0.251604
0.318675
0.422271
0.534054
0.645837
0.734004
0.790998
0.807058
0.792891
0.728342
0.620341
0.481166
0.302003
0.096704
-0.140712
-0.368681
-0.612080
-0.824936
-1.017009
-1.176021
-1.324012
-1.429179
-1.515454
-1.579058
-1.609600
-1.616210
-1.586296
-1.552287
-1.493089
-1.439558
-1.357059
-1.268577
-1.144199
-1.021395
-0.895443
-0.781456
-0.667784
-0.560409
-0.449885
-0.331490
-0.203334
-0.053450
0.102100
0.275914
0.445635
0.650621
0.831992
1.007065
1.144983
1.253932
1.321003
1.355641
1.369497
1.364145
1.342420
1.321955
1.309991
1.314715
1.325738
1.342428
1.369509
1.381475
1.410446
1.407613
1.421154
1.390613
1.371722
1.337402
1.293950
1.262149
1.219957
1.187841
1.123607
1.053076
0.952002
0.829516
0.659799
0.469300
0.236292
-0.032612
-0.338041
-0.639692
-0.926859
-1.196077
-1.450182
-1.686653
-1.913678
-2.135980
-2.356078
-2.586567
-2.792180
-3.002517
-3.182940
-3.362733
-3.508520
-3.627227
-3.703741
-3.746878
-3.758527
-3.726093
-3.700586
-3.684526
-3.680746
-3.639181
-3.545031
-3.435452
-3.276123
-3.073655
-2.865835
-2.653921
-2.471605
-2.292753
-2.148853
-2.008101
-1.869869
-1.732895
-1.596552
-1.455171
-1.316938
-1.176501
-1.008355
-0.840209
-0.639001
-0.433070
-0.173609
0.099076
0.402619
0.695771
0.995536
1.274519
1.521384
1.770139
1.997482
2.223250
2.397694
2.583788
2.685495
2.899928
3.161907
3.325645
3.525908
3.762697
4.021213
4.250130
4.340187
4.394662
4.473383
4.518412
4.473386
4.347122
4.211096
4.066254
3.959827
3.714224
3.530967
3.344876
3.177363
3.089199
3.005758
2.941839
2.866585
2.789441
2.684274
2.584459
2.490942
2.450325
2.408132
2.410968
2.399004
2.390819
2.340440
2.275891
2.232125
2.186154
2.147741
2.136407
2.122239
2.119406
2.127595
2.144600
2.186165
2.224267
2.296690
2.370373
2.465152
2.519313
2.574418
2.607481
2.639915
2.666366
2.678018
2.673297
2.637087
2.582930
2.494136
2.387709
2.248535
2.094246
1.935549
1.774334
1.626658
1.501653
1.374444
1.280297
1.190874
1.143958
1.094209
1.050128
0.995970
0.914104
0.847666
0.759187
0.682988
0.586008
0.478951
0.341981
0.176672
-0.028312
-0.271711
-0.556043
-0.844784
-1.169107
-1.512636
-1.879782
-2.269913
-2.630761
-2.996017
-3.305225
-3.587039
-3.813749
-3.996377
-4.148461
-4.275670
-4.369187
-4.434050
-4.478131
-4.513081
-4.520637
-4.534490
-4.542046
-4.510241
-4.478437
-4.403810
-4.316273
-4.201026
-4.070665
-3.935266
-3.805536
-3.679268
-3.573153
-3.461370
-3.342030
-3.206317
-3.074067
-2.924183
-2.786895
-2.671964
-2.546641
-2.417855
-2.259155
-2.091639
-1.896099
-1.718191
-1.528634
-1.357969
-1.152037
-0.913044
-0.636895
-0.321072
0.035056
0.418893
0.813121
1.221833
1.616691
2.005881
2.340597
2.643195
2.891005
3.103864
