EVENT_NAME: 202302060117
EVENT_ID: 13194
EVENT_DATE_YYYYMMDD: 2023/02/06
EVENT_TIME_HHMMSS: 01:17:32.00000
EVENT_LATITUDE_DEGREE: 37.288
EVENT_LONGITUDE_DEGREE: 37.043
EVENT_DEPTH_KM: 8.6
HYPOCENTER_REFERENCE: AFAD
MAGNITUDE_W: 7.7
MAGNITUDE_W_REFERENCE: AFAD
MAGNITUDE_L: 
MAGNITUDE_L_REFERENCE: 
FOCAL_MECHANISM: 
NETWORK: TK
STATION_CODE: 5506
STATION_NAME: 
STATION_LATITUDE_DEGREE: 41.078162
STATION_LONGITUDE_DEGREE: 36.047875
STATION_ELEVATION_M: 620.0
LOCATION: Kahramanmaras_Pazarck_Turkiye
SENSOR_DEPTH_M: 
VS30_M/S: 1510
SITE_CLASSIFICATION_EC8: A
MORPHOLOGIC_CLASSIFICATION: 
EPICENTRAL_DISTANCE_KM: 430.08
EARTHQUAKE_BACKAZIMUTH_DEGREE: 
DATE_TIME_FIRST_SAMPLE_YYYYMMDD_HHMMSS: 2023/02/06 01:18:06.6779550
DATE_TIME_FIRST_SAMPLE_PRECISION: millisecond
SAMPLING_INTERVAL_S: 0.01
NDATA: 21001
DURATION_S: 
STREAM: HNZ
UNITS: cm/s^2
INSTRUMENT: sensor = ACEBOX/SARA | digitizer = 
INSTRUMENT_ANALOG/DIGITAL: 
INSTRUMENTAL_FREQUENCY_HZ: 
INSTRUMENTAL_DAMPING: 
FULL_SCALE_G: 
N_BIT_DIGITAL_CONVERTER: 
PGA_CM/S^2: 1.904
TIME_PGA_S: 
BASELINE_CORRECTION: BASELINE REMOVED
FILTER_TYPE: BUTTERWORTH
FILTER_ORDER: 
LOW_CUT_FREQUENCY_HZ: 
HIGH_CUT_FREQUENCY_HZ: 
LATE/NORMAL_TRIGGERED: 
DATABASE_VERSION: 
HEADER_FORMAT: DYNA 1.2
DATA_TYPE: Acceleration
PROCESSING: Automatic Paolucci et al., 2011
DATA_TIMESTAMP_YYYYMMDD_HHMMSS: 
DATA_LICENSE: U (unknown license)
DATA_CITATION: Turkish Accelerometric Archive v 1.0 - Disaster And Emergency Management Presidency, Earthquake Department
DATA_CREATOR: AFAD
ORIGINAL_DATA_MEDIATOR_CITATION: : AFAD - Disaster And Emergency Management Presidency
ORIGINAL_DATA_MEDIATOR: AFAD PROCESS SERVICE
ORIGINAL_DATA_CREATOR_CITATION: AFAD PROCESS SERVICE
ORIGINAL_DATA_CREATOR: network: TK
USER1: GuestUser
USER2: 
USER3: 
USER4: 
USER5: 
[...]
-0.228810
-0.232083
-0.234655
-0.249852
-0.260840
-0.269256
-0.289363
-0.305027
-0.319288
-0.337758
-0.350383
-0.370489
-0.395739
-0.414443
-0.435952
-0.458396
-0.480373
-0.506558
-0.529937
-0.550745
-0.575527
-0.600777
-0.619247
-0.640055
-0.667175
-0.685645
-0.705985
-0.732871
-0.752978
-0.775656
-0.798100
-0.818908
-0.846262
-0.869875
-0.889748
-0.909153
-0.923882
-0.943520
-0.963393
-0.980226
-0.998930
-1.015295
-1.031894
-1.048728
-1.061820
-1.077718
-1.091278
-1.101565
-1.117931
-1.128451
-1.138037
-1.157675
-1.167027
-1.172404
-1.188536
-1.196719
-1.202330
-1.215890
-1.222202
-1.225007
-1.230852
-1.234592
-1.241840
-1.245580
-1.246282
-1.253763
-1.257737
-1.257971
-1.258906
-1.254697
-1.251424
-1.246981
-1.239500
-1.233654
-1.226640
-1.217288
-1.206066
-1.195778
-1.184088
-1.167956
-1.152993
-1.135224
-1.113481
-1.094075
-1.073267
-1.052693
-1.034456
-1.013414
-0.994944
-0.973201
-0.945612
-0.924103
-0.903061
-0.881084
-0.864718
-0.842039
-0.816555
-0.797617
-0.776809
-0.753897
-0.732855
-0.712514
-0.691940
-0.670196
-0.648687
-0.628580
-0.612681
-0.595146
-0.573637
-0.562882
-0.550724
-0.527344
-0.513082
-0.499054
-0.480350
-0.467725
-0.453463
-0.442942
-0.437097
-0.424004
-0.416055
-0.410210
-0.399922
-0.397350
-0.391973
-0.386361
-0.388699
-0.387997
-0.391270
-0.397349
-0.400154
-0.408337
-0.417689
-0.428911
-0.440834
-0.449017
-0.466084
-0.483852
-0.493671
-0.510504
-0.531780
-0.548145
-0.564979
-0.587189
-0.606594
-0.621557
-0.639793
-0.654522
-0.665510
-0.680005
-0.694267
-0.706190
-0.716243
-0.726296
-0.736349
-0.741025
-0.748506
-0.757156
-0.758091
-0.759494
-0.761598
-0.755987
-0.752947
-0.754817
-0.748504
-0.738685
-0.735411
-0.729566
-0.719279
-0.710160
-0.699172
-0.688183
-0.678597
-0.663634
-0.648671
-0.638617
-0.617809
-0.592325
-0.577829
-0.559593
-0.532472
-0.509793
-0.487115
-0.463735
-0.444096
-0.421417
-0.398972
-0.377697
-0.357590
-0.341224
-0.319948
-0.299841
-0.283241
-0.264304
-0.253081
-0.239287
-0.216608
-0.203048
-0.191592
-0.174524
-0.160496
-0.150443
-0.140389
-0.127998
-0.118645
-0.107423
-0.094096
-0.085679
-0.072586
-0.062065
-0.053181
-0.038218
-0.030736
-0.022553
-0.011096
-0.003147
0.009946
0.020701
0.028650
0.037301
0.041977
0.043848
0.044315
0.046887
0.049459
0.048524
0.042680
0.035900
0.032861
0.023275
0.013222
0.007845
-0.008287
-0.021145
-0.030965
-0.050136
-0.065099
-0.081230
-0.102506
-0.119105
-0.137341
-0.155343
-0.171475
-0.192283
-0.214493
-0.235067
-0.255641
-0.278553
-0.302166
-0.321104
-0.341444
-0.364823
-0.382825
-0.401997
-0.423038
-0.443144
-0.462082
-0.478681
-0.497618
-0.512581
-0.524972
-0.544845
-0.559106
-0.569393
-0.581550
-0.585525
-0.586693
-0.592538
-0.596512
-0.596746
-0.599318
-0.601655
-0.594407
-0.587861
-0.584587
-0.574300
-0.563078
-0.553725
-0.541802
-0.529410
-0.515148
-0.502523
-0.488962
-0.473765
-0.461842
-0.444540
-0.426304
-0.410405
-0.383519
-0.357801
-0.338863
-0.310573
-0.279712
-0.254695
-0.226873
-0.196479
-0.170761
-0.146446
-0.119559
-0.092438
-0.066019
-0.042172
-0.017389
0.009264
0.031008
0.055089
0.080339
0.102784
0.126632
0.149310
0.175028
0.202383
0.225529
0.252883
0.275328
0.296370
0.323958
0.345936
0.367913
0.394566
0.417244
0.438053
0.457458
0.477331
0.496035
0.513336
0.535781
0.556122
0.575293
0.599842
0.619949
0.637016
0.657591
0.672788
0.687283
0.704351
0.719080
0.733576
0.749942
0.771685
0.789922
0.803950
0.824524
0.841124
0.854685
0.870349
0.882974
0.902380
0.918278
0.932540
0.955453
0.969481
0.982573
1.001745
1.016942
1.037049
1.051778
1.062066
1.080770
1.092226
1.099240
1.109294
1.117009
1.119815
1.120750
1.126128
1.127297
1.122855
1.122154
1.118414
1.113504
1.111400
1.104854
1.098074
1.093866
1.091762
1.087320
1.081008
1.079371
1.075397
1.069085
1.066280
1.064877
1.063007
1.058331
1.054357
1.054591
1.050383
1.048513
1.048980
1.046876
1.051085
1.051085
1.045708
1.049683
1.049683
1.045943
1.046410
1.043137
1.040098
1.039865
1.034020
1.025604
1.020928
1.014616
1.005030
0.997081
0.987028
0.978845
0.974871
0.965987
0.960610
0.957805
0.949856
0.947284
0.943310
0.937465
0.934426
0.929750
0.928348
0.928816
0.923672
0.922971
0.926946
0.923205
0.918763
0.921335
0.917595
0.915257
0.917829
0.916193
0.920869
0.926714
0.928117
0.937236
0.944250
0.949160
0.958979
0.965058
0.972306
0.983295
0.991478
1.001064
1.012053
1.023041
1.033095
1.046188
1.061151
1.070269
1.083830
1.102768
1.113756
1.126849
1.146021
1.160516
1.173609
1.188339
1.201899
1.215226
1.228085
1.242113
1.253336
1.261051
1.276482
1.289575
1.296355
1.310383
1.321372
1.328620
1.340076
1.345454
1.352000
1.361586
1.362054
1.365795
1.374212
1.376550
1.381928
1.389176
1.392917
1.395956
1.399697
1.402737
1.402737
1.406946
1.409751
1.407414
1.415363
1.419338
1.415597
1.424482
1.428924
1.429392
1.438043
1.438043
1.439914
1.448330
1.445993
1.445292
1.448799
1.448331
1.451137
1.451839
1.453709
1.457918
1.453476
1.453243
1.453243
1.444592
1.441787
1.435709
1.424253
1.416538
1.406017
1.393626
1.379365
1.360193
1.343360
1.327462
1.311564
1.294965
1.274625
1.253817
1.233711
1.210331
1.185549
1.164040
1.141362
1.113540
1.088290
1.061871
1.033582
1.011839
0.988226
0.960404
0.935856
0.909671
0.881849
0.855196
0.825504
0.797215
0.772199
0.742507
0.711178
0.688267
0.666524
0.638702
0.614387
0.593112
0.569966
0.544249
0.517596
0.496788
0.475513
0.448860
0.426650
0.407011
0.387606
0.369838
0.350199
0.331496
0.314662
0.295959
0.279359
0.264397
0.246862
0.231899
0.219742
0.206650
0.196129
0.188648
0.183504
0.177893
0.171581
0.171114
0.173218
0.173218
0.178128
0.179064
0.181168
0.196599
0.205016
0.208991
0.226993
0.240320
0.253881
0.274455
0.287548
0.304148
0.326125
0.344595
0.370547
0.395563
0.416371
0.445129
0.468976
0.492356
0.523919
0.550105
0.575589
0.604346
0.632636
0.662094
0.690150
0.718440
0.744859
0.771980
0.802374
0.828793
0.854745
0.878826
0.899167
0.919975
0.933769
0.949434
0.969073
0.976321
0.985440
1.000637
1.006014
1.009521
1.016535
1.019575
1.020744
1.023316
1.024719
1.024720
1.025187
1.026357
1.026591
1.023551
1.021447
1.018876
1.011628
1.005316
0.999471
0.989185
0.979132
0.968377
0.956454
0.946634
0.935880
0.924190
0.912267
0.893330
0.878133
0.867145
0.851247
0.834414
0.817580
0.802384
0.790928
0.774562
0.761236
0.752820
0.736688
0.723829
0.716816
0.707464
0.698346
0.690397
0.681747
0.673798
0.669824
0.667954
0.661641
0.657433
0.657901
0.654394
0.650654
0.649017
0.648082
0.647615
0.645745
0.642706
0.641537
0.644109
0.646915
0.646214
0.651591
0.657904
0.658839
0.665620
0.673569
0.675673
0.682688
0.692741
0.696248
0.701158
0.710978
0.715888
0.722902
0.733891
0.739035
0.746049
0.755635
0.757271
0.757272
0.759844
0.761714
0.760078
0.755870
0.753766
0.751662
0.748155
0.741609
0.734595
0.730855
0.724543
0.711918
0.701163
0.692045
0.676147
0.661185
0.650196
0.631259
0.613724
0.596190
0.570005
0.548729
0.526285
0.499165
0.475084
0.446795
0.414765
0.384371
0.354446
0.323351
0.291555
0.262564
0.227728
0.189620
0.158291
0.122988
0.083009
0.047004
0.009597
-0.031551
-0.069894
-0.107067
-0.149384
-0.191935
-0.230745
-0.270491
-0.310704
-0.347877
-0.387622
-0.430641
-0.471321
-0.510833
-0.548708
-0.587986
-0.631004
-0.668645
-0.706052
-0.744629
-0.776191
-0.816404
-0.855916
-0.886075
-0.923950
-0.962059
-0.998765
-1.041549
-1.080126
-1.118936
-1.157980
-1.193049
-1.230924
-1.265526
-1.299660
-1.338938
-1.371903
-1.402764
-1.436197
-1.464018
-1.494646
-1.525740
-1.548419
-1.573902
-1.598918
-1.618089
-1.638196
-1.656432
-1.670927
-1.682850
-1.695008
-1.706697
-1.709503
-1.712308
-1.719322
-1.718152
-1.712073
-1.710437
-1.707163
-1.693837
-1.682146
-1.675834
-1.664611
-1.651752
-1.640530
-1.626034
-1.615045
-1.601952
-1.583950
-1.571324
-1.555660
-1.535085
-1.519187
-1.500015
-1.479207
-1.465647
-1.448579
-1.431278
-1.418653
-1.400416
-1.383583
-1.371425
-1.355059
-1.342200
-1.334017
-1.323262
-1.314377
-1.310403
-1.304324
-1.296842
-1.294036
-1.288191
-1.281644
-1.279072
-1.272993
-1.270889
-1.270187
-1.262706
-1.262472
-1.261302
-1.255691
-1.257795
-1.253353
-1.246339
-1.245169
-1.237921
-1.231375
-1.228803
-1.223191
-1.217580
-1.214307
-1.209397
-1.202383
-1.198875
-1.197940
-1.193264
-1.188120
-1.183444
-1.179235
-1.172923
-1.164506
-1.159128
-1.150244
-1.140424
-1.131773
-1.119382
-1.109094
-1.096703
-1.080804
-1.068413
-1.052748
-1.031706
-1.013002
-0.995701
-0.970684
-0.943564
-0.922989
-0.902181
-0.879736
-0.855421
-0.830405
-0.811701
-0.784814
-0.756524
-0.737820
-0.707192
-0.676331
-0.654588
-0.626766
-0.600112
-0.575330
-0.547274
-0.519685
-0.493032
-0.467548
-0.437154
-0.406994
-0.381510
-0.352519
-0.324463
-0.297810
-0.268351
-0.241698
-0.214110
-0.184651
-0.160336
-0.132982
-0.104458
-0.084585
-0.063076
-0.036656
-0.017952
-0.001352
0.018287
0.031380
0.042602
0.058033
0.068554
0.074399
0.083284
0.090532
0.097078
0.101053
0.101989
0.107600
0.108535
0.102223
0.105029
0.108302
0.104094
0.104562
0.104095
0.097782
0.098250
0.096380
0.088431
0.087964
0.089834
0.084925
0.083288
0.085860
0.084692
0.083991
0.086329
0.083991
0.083056
0.085628
0.085161
0.087733
0.089603
0.089136
0.095682
0.102697
0.106438
0.112517
0.116257
0.118596
0.121635
0.120700
0.120233
0.121402
0.115324
0.109245
0.107843
0.100361
0.090542
0.083762
0.073008
0.060851
0.050096
0.040744
0.026249
0.007078
-0.005547
-0.020510
-0.039213
-0.051370
-0.065866
-0.081530
-0.095324
-0.110988
-0.119872
-0.130860
-0.147459
-0.155876
-0.164526
-0.176683
-0.184398
-0.194919
-0.206375
-0.216896
-0.226715
-0.236067
-0.248224
-0.255237
-0.260615
-0.270200
-0.274876
-0.279551
-0.285864
-0.287968
-0.288435
-0.286564
-0.287733
-0.287265
-0.278615
-0.277212
-0.275809
-0.264586
-0.257806
-0.253363
-0.241440
-0.233023
-0.228113
-0.216890
-0.208006
-0.204498
-0.194913
-0.185327
-0.179715
-0.170597
-0.162881
-0.155400
-0.144411
-0.135760
-0.128278
-0.119160
-0.112380
-0.106768
-0.099287
-0.097884
-0.097416
-0.093207
-0.094376
-0.096480
-0.098818
-0.102091
-0.100454
-0.099752
-0.100921
-0.098817
-0.095309
-0.091802
-0.088529
-0.081982
-0.073565
-0.065382
-0.055796
-0.046444
-0.035222
-0.024467
-0.010439
0.008733
0.021358
0.036088
0.056896
0.073028
0.091031
0.109267
0.126101
0.144571
0.159300
0.178940
0.200215
0.214010
0.233415
0.251885
0.266848
0.285552
0.300750
0.315479
0.328572
0.342834
0.361304
0.371124
0.383048
0.401284
0.413208
0.424664
0.432847
0.439394
0.450383
0.452487
0.455994
0.462541
0.460203
0.462074
0.466984
0.467218
0.468387
0.465114
0.466517
0.469790
0.463946
0.463478
0.464647
0.463011
0.469791
0.470961
0.467454
0.473065
0.479378
0.481015
0.481249
0.482184
0.486159
0.489199
0.490602
0.491303
0.490836
0.491537
0.492473
0.491070
0.489200
0.490603
0.490136
0.488032
0.490838
0.490604
0.488500
0.492943
0.492709
0.492242
0.496684
0.492476
0.492944
0.501127
0.497854
0.497153
0.506037
0.506271
0.505103
0.510480
0.512584
0.513754
0.516793
0.514923
0.513053
0.513988
0.510248
0.503936
0.504403
0.501832
0.491545
0.489909
0.488974
0.482661
0.481259
0.476349
0.470505
0.468868
0.464426
0.461153
0.456010
0.450399
0.447126
0.442918
0.440580
0.435905
0.431930
0.429826
0.424215
0.418371
0.409954
0.401070
0.395226
0.385640
0.376055
0.371145
0.366469
0.359923
0.354079
0.346831
0.337947
0.332336
0.324387
0.316672
0.312230
0.304048
0.297501
0.292592
0.286046
0.280903
0.276928
0.273422
0.268746
0.265940
0.263837
0.261031
0.261265
0.256356
0.250511
0.248407
0.242796
0.241160
0.239290
0.231808
0.228068
0.224795
0.218950
0.212872
0.207495
0.203754
0.195338
0.186921
0.178271
0.167750
0.159334
0.149514
0.135954
0.121927
0.108367
0.096677
0.083351
0.068388
0.057634
0.045243
0.030747
0.019525
0.006901
-0.003854
-0.014374
-0.027701
-0.036117
-0.047339
-0.059263
-0.066043
-0.077031
-0.088487
-0.096202
-0.106255
-0.117009
-0.124257
-0.130101
-0.138518
-0.146467
-0.156052
-0.164001
-0.169144
-0.180834
-0.189484
-0.195563
-0.207720
-0.210993
-0.218007
-0.229462
-0.237178
-0.250738
-0.259622
-0.270610
-0.286742
-0.297262
-0.313394
-0.328123
-0.338410
-0.355945
-0.366231
-0.373713
-0.385870
-0.394053
-0.402937
-0.409950
-0.416496
-0.428420
-0.434265
-0.438473
-0.449227
-0.452734
-0.452734
-0.459981
-0.465592
-0.466761
-0.472372
-0.479385
-0.482658
-0.486399
-0.493646
-0.502297
-0.510245
-0.519831
-0.531754
-0.542509
-0.559810
-0.579682
-0.595113
-0.615453
-0.636494
-0.654964
-0.676707
-0.696346
-0.718322
-0.740767
-0.760873
-0.787526
-0.811373
-0.831479
-0.856729
-0.878706
-0.896474
-0.915879
-0.938089
-0.957962
-0.975730
-0.997006
-1.020151
-1.042596
-1.063403
-1.087017
-1.118579
-1.144764
-1.167910
-1.199005
-1.226593
-1.253713
-1.286210
-1.313331
-1.343958
-1.378560
-1.406381
-1.436541
-1.467636
-1.494990
-1.525851
-1.552971
-1.580325
-1.610017
-1.632228
-1.659815
-1.689975
-1.711017
-1.732526
-1.756607
-1.778583
-1.796352
-1.809912
-1.827680
-1.844513
-1.855034
-1.866022
-1.877244
-1.885661
-1.890804
-1.897350
-1.902026
-1.901090
-1.902960
-1.904363
-1.899453
-1.897582
-1.898985
-1.894309
-1.888464
-1.887996
-1.882852
-1.875838
-1.868122
-1.854562
-1.846145
-1.834923
-1.819258
-1.811542
-1.795878
-1.776238
-1.762444
-1.744909
-1.727608
-1.708203
-1.688096
-1.670327
-1.647882
-1.628009
-1.609539
-1.588029
-1.566987
-1.547114
-1.527241
-1.505030
-1.483287
-1.465518
-1.443074
-1.421330
-1.405432
-1.387429
-1.366153
-1.346514
-1.329914
-1.313548
-1.294377
-1.278712
-1.262814
-1.241772
-1.222366
-1.205766
-1.189868
-1.175138
-1.158071
-1.140770
-1.125339
-1.107804
-1.089100
-1.071799
-1.051224
-1.029949
-1.012413
-0.987865
-0.963082
-0.945781
-0.922167
-0.899021
-0.878212
-0.853897
-0.833557
-0.809475
-0.782822
-0.762715
-0.737699
-0.711981
-0.690705
-0.664754
-0.639036
-0.616357
-0.592509
-0.568194
-0.543178
-0.516291
-0.491274
-0.467427
-0.438202
-0.412484
-0.386298
-0.355671
-0.331356
-0.303300
-0.273607
-0.254903
-0.231757
-0.203234
-0.182192
-0.161851
-0.139640
-0.119066
-0.099660
-0.080021
-0.062252
-0.044717
-0.026948
-0.008946
0.007888
0.020981
0.039451
0.057921
0.069144
0.089250
0.111929
0.127594
0.148168
0.172483
0.194460
0.215502
0.240285
0.266471
0.290318
0.319543
0.346664
0.371213
0.406516
0.437845
0.462160
0.495360
0.532534
0.563162
0.594491
0.632132
0.669072
0.701337
0.733601
0.768671
0.803974
0.834836
0.868035
0.905677
0.934434
0.958515
0.989845
1.019537
1.043151
1.071674
1.099496
1.119369
1.141347
1.169402
1.194419
1.214058
1.232996
1.251700
1.268534
1.279522
1.288874
1.301266
1.305475
1.307579
1.317632
1.318100
1.316698
1.323010
1.320906
1.319738
1.319738
1.310386
1.306178
1.303139
1.291449
1.283033
1.272278
1.258952
1.249834
1.233235
1.216168
1.200738
1.179462
1.160993
1.136444
1.105583
1.080567
1.045264
1.009259
0.976762
0.931873
0.895635
0.861033
0.811468
0.773593
0.734082
0.684984
0.646408
0.601052
0.554526
0.516885
0.470126
0.427575
0.388297
0.341070
0.299455
0.254800
0.209209
0.171568
0.126913
0.082024
0.041344
0.000663
-0.037445
-0.076489
-0.109221
-0.141484
-0.178658
-0.206012
-0.232197
-0.262591
-0.288776
-0.311454
-0.334599
-0.358446
-0.379254
-0.398192
-0.415492
-0.429754
-0.443080
-0.451964
-0.459679
-0.465524
-0.464355
-0.467394
-0.469731
-0.465289
-0.463185
-0.458742
-0.451261
-0.441675
-0.426945
-0.416424
-0.404266
-0.388134
-0.375976
-0.359143
-0.342777
-0.328281
-0.307239
-0.286431
-0.263051
-0.234761
-0.205303
-0.172337
-0.137033
-0.096586
-0.053100
-0.015926
0.016572
0.053279
0.090453
0.123886
0.159891
0.193792
0.226290
0.263931
0.300404
0.336409
0.378727
0.421044
0.459387
0.495158
0.531397
0.564363
0.597562
0.634035
0.666767
0.699031
0.730594
0.757481
0.784835
0.809852
0.833232
0.854741
0.870640
0.889811
0.910386
0.931428
0.956210
0.974213
0.996424
1.022376
1.038508
1.053705
1.069370
1.083164
1.096257
1.104440
1.113792
1.120806
1.127587
1.135302
1.133899
1.132965
1.130627
1.122912
1.119639
1.110053
1.098130
1.089012
1.074984
1.061892
1.048800
1.033603
1.018640
0.999469
0.982636
0.966972
0.950606
0.933539
0.914602
0.900808
0.886079
0.870181
0.858258
0.843295
0.831138
0.821084
0.806589
0.796069
0.783210
0.767546
0.757259
0.744634
0.734581
0.725697
0.710734
0.701383
0.696005
0.684783
0.673328
0.664911
0.653923
0.638025
0.627037
0.616048
0.598280
0.586123
0.571160
0.547780
0.533753
0.523466
0.503827
0.486760
0.474603
0.460342
0.447717
0.432754
0.421298
0.417558
0.404933
0.395347
0.393243
0.383658
0.379450
0.371969
0.358876
0.355369
0.347654
0.341576
0.341342
0.339940
0.339239
0.332459
0.328718
0.326147
0.313054
0.305573
0.298793
0.287805
0.281726
0.267699
0.255074
0.249229
0.235202
0.226551
0.224681
0.217434
0.212056
0.207381
0.205277
0.205978
0.201303
0.198497
0.190782
0.178391
0.172079
0.160857
0.147297
0.139816
0.132568
0.126723
0.119944
0.114333
0.110592
0.103345
0.095630
0.085109
0.074822
0.065938
0.054248
0.045598
0.035779
0.027129
0.022453
0.015907
0.010763
0.005620
0.000944
0.000945
0.000243
0.002582
0.002348
0.000478
0.008895
0.013571
0.013805
0.018481
0.018949
0.019417
0.020586
0.017781
0.016846
0.015443
0.011937
0.010066
0.006793
0.003754
0.002586
0.002352
-0.000687
-0.004895
-0.004194
-0.007233
-0.013779
-0.009570
-0.006765
-0.009570
-0.006063
-0.006062
-0.008400
-0.007231
-0.010270
-0.015180
-0.018219
-0.020556
-0.021959
-0.024297
-0.024063
-0.018451
-0.014710
-0.013074
-0.009566
-0.012372
-0.018684
-0.017515
-0.023126
-0.032945
-0.032243
-0.034114
-0.037620
-0.035516
-0.033411
-0.026865
-0.019617
-0.017279
-0.011200
-0.004419
-0.003484
-0.003951
-0.001847
-0.002782
-0.009328
-0.011432
-0.011899
-0.017510
-0.021485
-0.024524
-0.028498
-0.033174
-0.040421
-0.046734
-0.053747
-0.067307
-0.077594
-0.083906
-0.096297
-0.106818
-0.110325
-0.115468
-0.122014
-0.124820
-0.123650
-0.125521
-0.127858
-0.120610
-0.116168
-0.110790
-0.093723
-0.080864
-0.068005
-0.050236
-0.036208
-0.018205
0.000031
0.012656
0.025515
0.035101
0.045856
0.060820
0.069470
0.076251
0.087707
0.097760
0.108983
0.121842
0.130259
0.141715
0.155042
0.164394
0.173980
0.186138
0.198062
0.205777
0.215363
0.226585
0.232898
0.242250
0.249498
0.252304
0.264929
0.269839
0.268671
0.279659
0.282933
0.281063
0.285271
0.280829
0.278959
0.279894
0.274284
0.270309
0.266569
0.267270
0.268673
0.261893
0.263063
0.263764
0.255815
0.256049
0.256985
0.254413
0.255349
0.256284
0.260960
0.265636
0.268208
0.273118
0.274054
0.275457
0.277795
0.272886
0.274289
0.279199
0.276159
0.274991
0.274991
0.270783
0.267276
0.263302
0.255820
0.247170
0.239923
0.231506
0.216543
0.206257
0.202750
0.194100
0.182644
0.174695
0.166045
