EVENT_NAME: 202302060117
EVENT_ID: 13194
EVENT_DATE_YYYYMMDD: 2023/02/06
EVENT_TIME_HHMMSS: 01:17:32.00000
EVENT_LATITUDE_DEGREE: 37.288
EVENT_LONGITUDE_DEGREE: 37.043
EVENT_DEPTH_KM: 8.6
HYPOCENTER_REFERENCE: AFAD
MAGNITUDE_W: 7.7
MAGNITUDE_W_REFERENCE: AFAD
MAGNITUDE_L: 
MAGNITUDE_L_REFERENCE: 
FOCAL_MECHANISM: 
NETWORK: TK
STATION_CODE: 99008
STATION_NAME: 
STATION_LATITUDE_DEGREE: 35.16455
STATION_LONGITUDE_DEGREE: 33.90496
STATION_ELEVATION_M: 4.0
LOCATION: Kahramanmaras_Pazarck_Turkiye
SENSOR_DEPTH_M: 
VS30_M/S: 263
SITE_CLASSIFICATION_EC8: unknown
MORPHOLOGIC_CLASSIFICATION: 
EPICENTRAL_DISTANCE_KM: 367.36
EARTHQUAKE_BACKAZIMUTH_DEGREE: 
DATE_TIME_FIRST_SAMPLE_YYYYMMDD_HHMMSS: 2023/02/06 01:17:58.9230960
DATE_TIME_FIRST_SAMPLE_PRECISION: millisecond
SAMPLING_INTERVAL_S: 0.01
NDATA: 21001
DURATION_S: 
STREAM: HNZ
UNITS: cm/s^2
INSTRUMENT: sensor = CMG-5T/GURALP | digitizer = 
INSTRUMENT_ANALOG/DIGITAL: 
INSTRUMENTAL_FREQUENCY_HZ: 
INSTRUMENTAL_DAMPING: 
FULL_SCALE_G: 
N_BIT_DIGITAL_CONVERTER: 
PGA_CM/S^2: 6.970
TIME_PGA_S: 
BASELINE_CORRECTION: BASELINE REMOVED
FILTER_TYPE: BUTTERWORTH
FILTER_ORDER: 
LOW_CUT_FREQUENCY_HZ: 
HIGH_CUT_FREQUENCY_HZ: 
LATE/NORMAL_TRIGGERED: 
DATABASE_VERSION: 
HEADER_FORMAT: DYNA 1.2
DATA_TYPE: Acceleration
PROCESSING: Automatic Paolucci et al., 2011
DATA_TIMESTAMP_YYYYMMDD_HHMMSS: 
DATA_LICENSE: U (unknown license)
DATA_CITATION: Turkish Accelerometric Archive v 1.0 - Disaster And Emergency Management Presidency, Earthquake Department
DATA_CREATOR: AFAD
ORIGINAL_DATA_MEDIATOR_CITATION: : AFAD - Disaster And Emergency Management Presidency
ORIGINAL_DATA_MEDIATOR: AFAD PROCESS SERVICE
ORIGINAL_DATA_CREATOR_CITATION: AFAD PROCESS SERVICE
ORIGINAL_DATA_CREATOR: network: TK
USER1: GuestUser
USER2: 
USER3: 
USER4: 
USER5: 
[...]
2.256552
2.234316
2.105104
1.903171
1.684411
1.459942
1.081618
0.568071
0.077362
-0.382096
-0.810902
-1.148359
-1.392060
-1.562140
-1.621937
-1.593089
-1.497230
-1.389951
-1.264042
-1.122508
-0.912460
-0.677171
-0.463817
-0.327091
-0.288926
-0.302748
-0.309959
-0.368555
-0.392293
-0.319873
-0.218905
-0.195165
-0.268785
-0.292824
-0.280202
-0.358931
-0.390482
-0.393185
-0.451481
-0.549141
-0.623062
-0.639288
-0.599020
-0.515181
-0.400390
-0.280491
-0.076153
0.220438
0.491486
0.692519
0.875823
1.046205
1.216287
1.353314
1.396887
1.368341
1.305238
1.215391
1.075961
0.928719
0.797103
0.654969
0.456943
0.197917
-0.091460
-0.364910
-0.632351
-0.875752
-1.090605
-1.244759
-1.302453
-1.358945
-1.389896
-1.242952
-0.952672
-0.565932
-0.172882
0.226178
0.574754
0.878557
1.159221
1.510502
1.993701
2.501240
2.963704
3.442696
3.841756
4.081253
4.279280
4.489629
4.642883
4.774201
4.836404
4.757976
4.581586
4.362224
4.103198
3.790082
3.518134
3.246186
2.899114
2.604929
2.421928
2.288509
2.110015
1.858501
1.650859
1.422784
1.201920
1.073910
0.867470
0.687474
0.597025
0.462705
0.374961
0.357834
0.407717
0.546848
0.685978
0.817296
0.923973
0.932388
0.933291
0.976263
0.959736
0.906550
0.891826
0.778841
0.647525
0.504189
0.381588
0.262893
0.069975
-0.144578
-0.317061
-0.521097
-0.689374
-0.838119
-1.008499
-1.105258
-1.175573
-1.231765
-1.222749
-1.211930
-1.190594
-1.095035
-0.967623
-0.805655
-0.623553
-0.359416
0.018909
0.337737
0.535164
0.725679
0.921303
1.055626
1.180934
1.260566
1.311952
1.325476
1.269584
1.146082
0.902981
0.600082
0.262926
-0.115397
-0.470583
-0.830876
-1.157515
-1.437576
-1.644617
-1.799071
-1.878100
-1.828517
-1.715530
-1.488354
-1.230527
-0.936040
-0.496413
-0.055284
0.299603
0.676426
1.018692
1.305367
1.586933
1.859484
2.025359
2.051202
1.994409
1.876316
1.724265
1.540964
1.350751
1.202307
1.067686
0.943281
0.815872
0.644290
0.413209
0.144567
-0.019503
-0.083208
-0.097931
-0.035727
0.052319
0.204371
0.443567
0.735050
0.993177
1.217949
1.411770
1.579748
1.693637
1.872734
2.081279
2.184951
2.140179
2.009764
1.877547
1.791005
1.717385
1.577054
1.232686
0.748588
0.275608
-0.295033
-0.875590
-1.374112
-1.857610
-2.379871
-2.900329
-3.394043
-3.930428
-4.481537
-4.887205
-5.212942
-5.449131
-5.529663
-5.561515
-5.603283
-5.601479
-5.593965
-5.541077
-5.365586
-5.081316
-4.712306
-4.298822
-3.848678
-3.411154
-2.921946
-2.406293
-1.851576
-1.272519
-0.735231
-0.298008
0.012706
0.182186
0.266026
0.285559
0.388330
0.532869
0.604088
0.676208
0.686426
0.646461
0.620018
0.537984
0.474580
0.452044
0.369108
0.251615
0.141334
0.007915
-0.119194
-0.215652
-0.274849
-0.291676
-0.344562
-0.406764
-0.474374
-0.601183
-0.751430
-0.907386
-0.940139
-0.873729
-0.805815
-0.718370
-0.613195
-0.577435
-0.604479
-0.578034
-0.535062
-0.492090
-0.383610
-0.315096
-0.328617
-0.356863
-0.380601
-0.383605
-0.356560
-0.259198
-0.218029
-0.232452
-0.187677
-0.107443
-0.128777
-0.151614
-0.163332
-0.163932
-0.157921
-0.231241
-0.306364
-0.361054
-0.418147
-0.496575
-0.568393
-0.617373
-0.605052
-0.583114
-0.589123
-0.635399
-0.794360
-1.032352
-1.276354
-1.493010
-1.679017
-1.850298
-1.990629
-2.063348
-2.026686
-1.862314
-1.624020
-1.359282
-1.023626
-0.566871
-0.131451
0.234854
0.652245
1.151670
1.669125
2.132792
2.529448
2.889143
3.168906
3.416515
3.665027
3.840517
4.037043
4.202617
4.245890
4.267226
4.349262
4.357978
4.253707
4.124795
3.990174
3.782231
3.522303
3.196867
2.830864
2.514142
2.198622
1.931181
1.679367
1.443178
1.246053
1.004455
0.718384
0.439525
0.236090
0.099666
-0.004004
0.030854
0.181404
0.287179
0.294092
0.361103
0.406780
0.351189
0.196735
0.059710
-0.048167
-0.178882
-0.394036
-0.684014
-1.026579
-1.242634
-1.418423
-1.606533
-1.831003
-2.064187
-2.272129
-2.416667
-2.480371
-2.498700
-2.483674
-2.444308
-2.348449
-2.239969
-2.118868
-2.067782
-2.099333
-2.147111
-2.126076
-2.142301
-2.204503
-2.244468
-2.262497
-2.232747
-2.154016
-2.069876
-2.011879
-1.915118
-1.747440
-1.531984
-1.278965
-1.009118
-0.707419
-0.477839
-0.272599
-0.020783
0.273705
0.634301
1.040573
1.407780
1.803234
2.263896
2.754306
3.197239
3.628151
4.038029
4.304269
4.445503
4.576821
4.568408
4.408846
4.108952
3.779008
3.521484
3.292807
3.010042
2.590851
2.140408
1.692069
1.205566
0.835356
0.525546
0.226253
-0.017148
-0.289096
-0.667119
-1.007881
-1.334820
-1.622393
-1.782857
-1.876311
-1.943921
-2.038576
-2.091763
-2.132329
-2.111894
-2.021745
-1.904550
-1.720044
-1.475139
-1.217913
-0.908101
-0.615717
-0.377723
-0.186306
0.018633
0.207646
0.392152
0.553820
0.670113
0.732918
0.827875
0.793019
0.674925
0.537299
0.288489
0.032467
-0.154140
-0.419477
-0.647252
-0.733794
-0.748818
-0.753324
-0.708549
-0.586547
-0.519836
-0.456430
-0.303777
-0.126784
0.085067
0.319155
0.461591
0.608234
0.795745
0.970334
1.152435
1.340848
1.457742
1.545487
1.625721
1.658176
1.652467
1.574339
1.434910
1.317117
1.188205
1.058992
0.895223
0.705611
0.522610
0.395201
0.249461
0.104623
-0.082886
-0.285419
-0.380375
-0.396300
-0.377067
-0.347918
-0.312459
-0.218402
-0.026084
0.182461
0.334513
0.497383
0.726062
1.037677
1.408491
1.863743
2.363169
2.826535
3.283290
3.741548
4.122878
4.405646
4.639734
4.779465
4.769850
4.697432
4.591959
4.409859
4.141517
3.871673
3.574483
3.258663
2.971089
2.670594
2.444622
2.231871
1.972845
1.659128
1.345110
1.042512
0.752534
0.401856
0.050277
-0.308515
-0.741529
-1.131872
-1.459412
-1.800774
-2.119900
-2.466972
-2.883459
-3.209797
-3.539139
-3.861871
-4.128110
-4.283165
-4.333347
-4.310808
-4.301191
-4.260022
-4.203228
-4.164763
-4.048771
-3.861561
-3.682464
-3.509077
-3.320664
-3.111819
-2.884042
-2.691723
-2.545380
-2.454329
-2.405648
-2.385513
-2.459735
-2.622302
-2.786072
-3.017152
-3.271070
-3.480215
-3.684852
-3.872661
-4.036430
-4.220934
-4.372383
-4.448107
-4.426770
-4.365168
-4.257589
-4.079394
-3.683639
-3.146652
-2.597043
-2.008070
-1.355992
-0.622180
0.121549
0.875495
1.648973
2.327494
2.943512
3.517160
4.004866
4.469434
4.872701
5.199041
5.540105
5.850218
5.970418
6.034725
6.097530
6.035027
5.832193
5.595103
5.287997
4.852880
4.441201
4.091124
3.691465
3.205865
2.753619
2.322708
1.887291
1.486430
1.121328
0.765241
0.419972
0.070196
-0.211669
-0.433133
-0.647687
-0.838801
-1.057862
-1.254085
-1.415751
-1.520022
-1.638416
-1.728864
-1.772135
-1.786858
-1.730063
-1.620982
-1.504990
-1.331903
-1.132673
-0.886866
-0.617621
-0.259729
0.121001
0.474085
0.796218
1.050739
1.257782
1.398114
1.548964
1.684790
1.789664
1.923987
2.057408
2.127425
2.180613
2.219078
2.272868
2.338076
2.410497
2.481115
2.558343
2.621148
2.678243
2.799044
2.955603
3.112764
3.177071
3.199008
3.330326
3.444816
3.556000
3.709254
3.858902
3.947550
4.029286
4.054228
4.013662
3.977904
3.908791
3.763352
3.603789
3.383527
3.147037
2.891316
2.645511
2.427352
2.204385
1.985024
1.740421
1.526469
1.369911
1.155959
0.947716
0.834130
0.704016
0.486157
0.267698
0.079288
-0.122945
-0.387080
-0.665339
-0.868173
-1.054179
-1.303890
-1.576439
-1.818938
-2.051822
-2.288612
-2.546136
-2.769403
-2.971937
-3.212333
-3.437704
-3.587650
-3.735493
-3.892351
-4.014953
-4.029676
-4.001428
-3.962363
-3.837956
-3.665471
-3.456024
-3.181369
-2.860138
-2.467990
-2.056609
-1.674678
-1.268406
-0.878661
-0.560435
-0.282175
-0.110290
-0.027652
-0.015331
-0.065813
-0.136429
-0.220266
-0.322434
-0.479893
-0.686032
-0.892773
-1.076675
-1.248558
-1.405716
-1.555062
-1.731152
-1.934887
-2.082730
-2.065901
-1.949909
-1.824601
-1.625672
-1.366643
-1.085678
-0.792693
-0.519241
-0.235571
0.039684
0.375640
0.703182
1.072192
1.459833
1.735088
1.952949
2.165701
2.355916
2.487234
2.565064
2.602927
2.606234
2.623062
2.624866
2.585202
2.519995
2.454789
2.355325
2.243241
2.227316
2.224312
2.169322
2.087588
1.940346
1.720685
1.502826
1.278056
1.107976
0.946911
0.766915
0.569791
0.308961
0.064959
-0.232531
-0.586214
-0.865073
-1.101262
-1.402659
-1.733504
-1.987723
-2.164714
-2.331789
-2.513888
-2.651214
-2.726938
-2.678257
-2.602831
-2.502765
-2.371147
-2.231415
-2.034889
-1.740402
-1.369589
-0.998475
-0.602420
-0.190439
0.253695
0.640134
0.960164
1.324967
1.696682
2.015208
2.340346
2.646853
2.890256
3.089787
3.285411
3.447980
3.511987
3.504776
3.531822
3.579902
3.621672
3.647215
3.618969
3.514097
3.311564
3.088897
2.906497
2.763763
2.618323
2.444638
2.273656
2.127616
1.988788
1.879409
1.715639
1.495377
1.253779
1.003166
0.740533
0.511256
0.324649
0.185220
0.065022
-0.074708
-0.156742
-0.078011
0.032873
0.141353
0.295509
0.434039
0.541617
0.660615
0.714404
0.707795
0.681953
0.602322
0.534411
0.443963
0.376052
0.354117
0.300930
0.189747
0.074057
-0.048845
-0.115854
-0.216820
-0.334012
-0.398317
-0.399518
-0.339118
-0.250470
-0.181656
-0.029303
0.138976
0.219510
0.340310
0.517303
0.589724
0.646218
0.769723
0.907051
1.018536
1.069020
1.115598
1.164881
1.181409
1.140843
1.112297
1.097874
1.029662
0.948529
0.858081
0.709938
0.543464
0.429577
0.357158
0.303370
0.306677
0.313589
0.340935
0.377597
0.366780
0.276632
0.187987
0.138106
0.072899
0.012200
0.033236
0.069597
0.107460
0.185891
0.271233
0.300081
0.369196
0.508928
0.624921
0.713868
0.771865
0.771566
0.783587
0.864421
1.002350
1.216304
1.396603
1.523113
1.624080
1.740073
1.853361
1.975363
2.076331
2.148151
2.205847
2.205848
2.115700
1.952532
1.733171
1.478651
1.187472
0.796527
0.356902
-0.133206
-0.628422
-1.115826
-1.622462
-2.072003
-2.501411
-2.911286
-3.186840
-3.374950
-3.540823
-3.695577
-3.796543
-3.861749
-3.833502
-3.728027
-3.594906
-3.482219
-3.307930
-3.126129
-2.923894
-2.645634
-2.276022
-1.915125
-1.498036
-1.056306
-0.652137
-0.219422
0.197968
0.528816
0.810982
1.091046
1.292680
1.390642
1.388841
1.313117
1.174889
1.018332
0.789054
0.515904
0.197680
-0.080879
-0.364246
-0.711919
-1.093548
-1.460753
-1.813534
-2.101709
-2.321070
-2.459899
-2.550046
-2.654017
-2.714416
-2.698188
-2.644398
-2.498356
-2.313850
-2.069846
-1.751019
-1.394630
-1.014201
-0.621451
-0.193243
0.257803
0.676996
1.058927
1.437854
1.805963
2.177677
2.568924
2.917200
3.247747
3.560264
3.804268
3.977355
4.105067
4.214448
4.279356
4.301294
4.285969
4.196723
4.062703
3.902239
3.715932
3.532330
3.317777
3.102623
2.915114
2.710477
2.496225
2.284977
2.029857
1.716440
1.317683
0.889777
0.470286
0.061312
-0.429097
-0.954363
-1.518093
-2.116380
-2.710760
-3.294322
-3.834613
-4.332535
-4.775164
-5.122837
-5.386972
-5.572678
-5.669737
-5.707899
-5.682656
-5.589502
-5.449169
-5.270072
-5.025768
-4.789877
-4.569312
-4.363772
-4.148616
-3.906415
-3.676534
-3.515167
-3.383549
-3.311729
-3.288590
-3.315032
-3.408185
-3.507348
-3.645575
-3.863734
-4.107736
-4.344526
-4.572602
-4.688592
-4.732463
-4.715334
-4.568991
-4.413333
-4.292533
-4.162718
-4.021183
-3.883254
-3.751936
-3.632338
-3.509735
-3.403057
-3.291873
-3.194812
-3.162958
-3.138316
-3.043058
-2.931272
-2.802058
-2.637686
-2.543930
-2.484431
-2.424330
-2.320959
-2.149675
-1.931213
-1.669180
-1.376495
-1.045949
-0.637273
-0.235809
0.134704
0.522946
0.866414
1.214089
1.532616
1.775718
1.901026
1.947904
1.934383
1.814486
1.641401
1.427750
1.186152
0.937342
0.653074
0.356786
0.061098
-0.182302
-0.320530
-0.352081
-0.282966
-0.184402
-0.083735
0.039770
0.196931
0.371520
0.528981
0.641368
0.704172
0.778396
0.910916
1.107742
1.290144
1.480659
1.737284
2.059417
2.398377
2.751461
3.086516
3.364476
3.570917
3.698028
3.782469
3.795391
3.732588
3.592258
3.433597
3.193501
2.919750
2.636384
2.385470
2.176627
1.987916
1.802811
1.619810
1.415774
1.229167
1.050373
0.870077
0.752884
0.663337
0.581603
0.484544
0.409722
0.316569
0.226721
0.158510
0.100816
-0.025692
-0.200880
-0.426552
-0.753190
-1.095755
-1.435314
-1.796209
-2.115035
-2.362642
-2.610250
-2.846139
-3.045667
-3.207633
-3.362688
-3.528862
-3.632832
-3.706753
-3.796601
-3.834763
-3.881940
-3.911087
-3.924308
-3.970583
-4.068544
-4.126238
-4.155385
-4.210675
-4.272576
-4.319753
-4.358216
-4.353407
-4.258149
-4.088367
-3.862994
-3.634917
-3.423667
-3.221432
-2.979832
-2.714493
-2.472292
-2.214165
-1.937407
-1.708127
-1.454508
-1.152809
-0.883563
-0.598391
-0.316525
-0.094157
0.111985
0.267042
0.381832
0.454854
0.510447
0.536891
0.503237
0.396862
0.265546
0.131827
-0.045165
-0.212239
-0.356176
-0.497108
-0.660877
-0.833060
-0.998933
-1.124540
-1.220697
-1.326771
-1.431343
-1.525397
-1.640787
-1.746861
-1.830999
-1.913634
-2.004984
-2.032929
-2.065081
-2.001976
-1.859239
-1.654901
-1.400981
-1.160883
-0.897047
-0.559589
-0.192982
0.219299
0.679961
1.160455
1.596476
2.006354
2.397601
2.730251
3.015723
3.272949
3.555717
3.835480
4.118548
4.359247
4.553669
4.678075
4.763417
4.821113
4.848760
4.805790
4.755608
4.672672
4.569303
4.472544
4.437086
4.394116
4.362565
4.351147
4.278729
4.192788
4.180168
4.182874
4.164244
4.207817
4.325011
4.402540
4.503508
4.670885
4.867110
5.066340
5.269477
5.459391
5.628872
5.794447
5.966031
6.121989
6.276445
6.432103
6.558012
6.674005
6.799012
6.906591
6.970297
6.963387
6.906293
6.806530
6.666800
6.552612
6.397557
6.177295
5.923377
5.666453
5.411634
5.131572
4.820860
4.546809
4.268851
4.017337
3.761015
3.481554
3.183463
2.920230
2.687346
2.482409
2.334265
2.225787
2.103186
2.017245
1.921087
1.782559
1.686402
1.616087
1.541565
1.448412
1.335727
1.173760
0.995868
0.824285
0.679147
0.521387
0.411407
0.331476
0.305033
0.296921
0.291813
0.277691
0.310146
0.392783
0.452883
0.564368
0.711012
0.860359
0.950208
1.019324
1.107069
1.152145
1.173481
1.245902
1.296086
1.305702
1.281363
1.233585
1.207443
1.193020
1.184908
1.220969
1.268148
1.316228
1.361604
1.425611
1.512154
1.587580
1.673823
1.813255
1.931351
2.042535
2.210514
2.341531
2.478859
2.632113
2.769741
2.898054
3.004731
3.097585
3.154680
3.148371
3.123431
3.102998
3.061531
2.971984
2.858097
2.748417
2.622510
2.456337
2.272434
2.026629
1.760992
1.460797
1.186145
0.953261
0.727289
0.467661
0.187300
-0.051594
-0.258334
-0.482503
-0.670312
-0.829574
-1.014679
-1.247262
-1.468125
-1.701009
-1.936597
-2.117795
-2.231682
-2.336254
-2.425199
-2.476583
-2.494011
-2.487700
-2.468467
-2.460953
-2.426996
-2.358482
-2.294776
-2.234676
-2.173374
-2.155042
-2.160751
-2.226859
-2.294469
-2.365085
-2.498805
-2.650855
-2.798397
-2.893353
-3.031580
-3.186034
-3.311340
-3.403592
-3.456778
-3.451969
-3.454973
-3.486825
-3.466090
-3.393068
-3.309529
-3.191433
-3.068830
-2.893038
-2.634911
-2.328705
-1.958492
-1.560334
-1.193427
-0.803082
-0.474939
-0.235443
0.011266
0.224318
0.381479
0.537437
0.668455
0.764615
0.772729
0.701813
0.636005
0.547360
0.428364
0.343025
0.238753
0.116152
0.041630
-0.020872
-0.063241
-0.099901
-0.154590
-0.158195
-0.184637
-0.195755
-0.199059
-0.223999
-0.216486
-0.197253
-0.175316
-0.156684
-0.131141
-0.050607
0.035636
0.088224
0.169660
0.261913
0.309092
0.312398
0.267024
0.178680
0.095443
0.004694
-0.131429
-0.256735
-0.345982
-0.473090
-0.648279
-0.884468
-1.164529
-1.451201
-1.787155
-2.132424
-2.429313
-2.715084
-3.012874
-3.320281
-3.608756
-3.888217
-4.187510
-4.482896
-4.728701
-4.863923
-4.887662
-4.862419
-4.823053
-4.724489
-4.562220
-4.389434
-4.211239
-3.982560
-3.733448
-3.518592
-3.294421
-3.061536
-2.833759
-2.624913
-2.444013
-2.323513
-2.251693
-2.219539
-2.243879
-2.282942
-2.323207
-2.373690
-2.389916
-2.406742
-2.418160
-2.386006
-2.381498
-2.397122
-2.422063
-2.446702
-2.462628
-2.454814
-2.432876
-2.424461
-2.446998
-2.491170
-2.534140
-2.603553
-2.673868
-2.754400
-2.854765
-2.988785
-3.164574
-3.368911
-3.608105
-3.840688
-4.084088
-4.310361
-4.515298
-4.725344
-4.901434
-5.032149
-5.167671
-5.322726
-5.466362
-5.547495
-5.618411
-5.637642
-5.615404
-5.623517
-5.632230
-5.683013
-5.759338
-5.835963
-5.927313
-6.033387
-6.155688
-6.264166
-6.327570
-6.411107
-6.480821
-6.502456
-6.500652
-6.480217
-6.421920
-6.347095
-6.260852
-6.119618
-5.957950
-5.817617
-5.642727
-5.438088
-5.234651
-5.028811
-4.799231
-4.587981
-4.373426
-4.151358
-3.929591
-3.663651
-3.364355
-3.071070
-2.797317
-2.474884
-2.120898
-1.775928
-1.444780
-1.177638
-0.925521
-0.661384
-0.428198
-0.170071
0.079342
0.318538
0.620538
0.954991
1.259996
1.546069
1.818319
2.075545
2.314440
2.519079
2.650698
2.708694
2.721617
2.703889
2.651603
2.600219
2.529904
2.439756
2.368540
2.308442
2.244738
2.189147
2.127246
2.065645
2.008552
1.964981
1.957169
1.990224
2.024182
2.041311
2.089992
2.159408
2.196670
2.239041
2.309358
2.359843
2.386287
2.384485
2.375171
2.319881
2.206595
2.064461
1.920224
1.773883
1.663302
1.588179
1.538598
1.524476
1.535595
1.529286
1.515464
1.536500
1.575866
1.585182
1.596001
1.603815
1.574067
1.479411
1.341785
1.212573
1.064129
0.907571
0.739295
0.529249
0.253995
0.009092
-0.218983
-0.489429
-0.785417
-1.073591
-1.395722
-1.699222
-1.941421
-2.183319
-2.401779
-2.530090
-2.596499
-2.626247
-2.660202
-2.695359
-2.702269
-2.719697
-2.710982
-2.653886
-2.612717
-2.546307
-2.474788
-2.432717
-2.378927
-2.311615
-2.246406
-2.175789
-2.154453
-2.120195
-2.089543
-2.074217
-2.038157
-1.992480
-1.913449
-1.816387
-1.729242
-1.713916
-1.636988
-1.532114
-1.390279
-1.240030
-1.063337
-0.849984
-0.656163
-0.475263
-0.253195
-0.019709
0.191841
0.458984
0.776609
1.074101
1.291361
1.474965
1.600273
1.676299
1.730390
1.768253
1.743914
1.718673
1.708157
1.649561
1.594872
1.602085
1.627929
1.690733
1.821450
1.998744
2.208792
2.432061
2.680573
2.924877
3.131619
3.290583
3.392452
3.453454
3.514155
3.530082
3.483506
3.441438
3.393961
3.314631
3.176704
3.032767
2.906259
2.814309
2.758718
2.721457
2.642428
2.557088
2.474453
2.385807
2.303773
2.223842
2.126482
2.040842
1.967221
1.918542
1.882784
1.837109
1.824490
1.835609
1.887896
1.975041
2.085925
2.185992
2.283353
2.346759
2.394839
2.401151
2.368398
2.347665
2.374710
2.426697
2.530369
2.586864
2.714275
2.840184
2.930334
3.012370
3.028898
3.015377
2.994944
3.001556
3.073977
3.116348
3.118152
3.166833
3.162026
3.113347
3.073382
3.037924
2.960998
2.827880
2.690554
2.535799
2.366922
2.215773
2.080551
1.966063
1.885531
1.829039
1.757822
1.721163
1.714553
1.688711
1.641234
1.573323
1.518633
1.474461
1.406550
1.350359
1.292664
1.245788
1.221449
1.220248
1.210633
1.211235
1.243389
1.292972
1.359082
1.430902
1.478682
1.520752
1.520753
1.480488
1.408970
1.291778
1.171881
1.067910
0.972354
0.879501
0.779738
0.697403
0.666753
0.658040
0.681179
0.748491
0.820311
0.894835
0.996704
1.136436
1.257537
1.429421
1.602208
1.750353
1.822774
1.842307
1.808653
1.736234
1.668924
1.591697
1.482017
1.361219
1.257549
1.107302
0.924301
0.727777
0.521638
