EVENT_NAME: 202302060117
EVENT_ID: 13194
EVENT_DATE_YYYYMMDD: 2023/02/06
EVENT_TIME_HHMMSS: 01:17:32.00000
EVENT_LATITUDE_DEGREE: 37.288
EVENT_LONGITUDE_DEGREE: 37.043
EVENT_DEPTH_KM: 8.6
HYPOCENTER_REFERENCE: AFAD
MAGNITUDE_W: 7.7
MAGNITUDE_W_REFERENCE: AFAD
MAGNITUDE_L: 
MAGNITUDE_L_REFERENCE: 
FOCAL_MECHANISM: 
NETWORK: TK
STATION_CODE: 7102
STATION_NAME: 
STATION_LATITUDE_DEGREE: 39.66824
STATION_LONGITUDE_DEGREE: 33.611341
STATION_ELEVATION_M: 1171.0
LOCATION: Kahramanmaras_Pazarck_Turkiye
SENSOR_DEPTH_M: 
VS30_M/S: None
SITE_CLASSIFICATION_EC8: unknown
MORPHOLOGIC_CLASSIFICATION: 
EPICENTRAL_DISTANCE_KM: 399.05
EARTHQUAKE_BACKAZIMUTH_DEGREE: 
DATE_TIME_FIRST_SAMPLE_YYYYMMDD_HHMMSS: 2023/02/06 01:18:02.8411780
DATE_TIME_FIRST_SAMPLE_PRECISION: millisecond
SAMPLING_INTERVAL_S: 0.01
NDATA: 21001
DURATION_S: 
STREAM: HNE
UNITS: cm/s^2
INSTRUMENT: sensor = GMS+/GEOSIG | digitizer = 
INSTRUMENT_ANALOG/DIGITAL: 
INSTRUMENTAL_FREQUENCY_HZ: 
INSTRUMENTAL_DAMPING: 
FULL_SCALE_G: 
N_BIT_DIGITAL_CONVERTER: 
PGA_CM/S^2: 2.845
TIME_PGA_S: 
BASELINE_CORRECTION: BASELINE REMOVED
FILTER_TYPE: BUTTERWORTH
FILTER_ORDER: 
LOW_CUT_FREQUENCY_HZ: 
HIGH_CUT_FREQUENCY_HZ: 
LATE/NORMAL_TRIGGERED: 
DATABASE_VERSION: 
HEADER_FORMAT: DYNA 1.2
DATA_TYPE: Acceleration
PROCESSING: Automatic Paolucci et al., 2011
DATA_TIMESTAMP_YYYYMMDD_HHMMSS: 
DATA_LICENSE: U (unknown license)
DATA_CITATION: Turkish Accelerometric Archive v 1.0 - Disaster And Emergency Management Presidency, Earthquake Department
DATA_CREATOR: AFAD
ORIGINAL_DATA_MEDIATOR_CITATION: : AFAD - Disaster And Emergency Management Presidency
ORIGINAL_DATA_MEDIATOR: AFAD PROCESS SERVICE
ORIGINAL_DATA_CREATOR_CITATION: AFAD PROCESS SERVICE
ORIGINAL_DATA_CREATOR: network: TK
USER1: GuestUser
USER2: 
USER3: 
USER4: 
USER5: 
[...]
-0.751440
-0.777417
-0.795601
-0.811966
-0.854568
-0.871973
-0.907821
-0.939253
-0.947825
-0.981075
-0.996661
-1.013027
-1.029652
-1.027314
-1.039003
-1.028872
-1.022118
-1.022898
-0.998220
-0.994843
-0.986270
-0.965749
-0.955098
-0.929122
-0.917951
-0.909639
-0.875090
-0.849892
-0.827033
-0.796640
-0.774819
-0.746764
-0.729360
-0.707799
-0.669873
-0.656885
-0.628830
-0.603632
-0.600515
-0.570382
-0.552458
-0.541028
-0.520247
-0.521805
-0.511415
-0.504401
-0.513753
-0.502842
-0.505700
-0.524663
-0.534014
-0.548302
-0.565446
-0.578175
-0.597658
-0.614283
-0.629349
-0.646754
-0.643896
-0.652469
-0.662859
-0.662340
-0.672211
-0.676107
-0.672211
-0.674289
-0.681822
-0.673250
-0.669613
-0.665457
-0.652468
-0.651689
-0.643117
-0.635324
-0.628050
-0.621296
-0.623374
-0.626232
-0.638181
-0.652468
-0.667535
-0.686758
-0.704422
-0.726762
-0.751700
-0.774559
-0.794042
-0.806251
-0.817161
-0.825474
-0.834046
-0.840281
-0.842359
-0.848333
-0.851970
-0.856906
-0.878207
-0.906002
-0.927303
-0.946526
-0.972502
-1.011987
-1.049654
-1.083943
-1.122389
-1.151742
-1.171744
-1.193565
-1.217464
-1.226815
-1.235388
-1.235647
-1.223438
-1.222139
-1.210450
-1.202657
-1.191227
-1.164990
-1.146547
-1.120570
-1.097191
-1.074072
-1.040821
-1.011727
-0.976659
-0.942889
-0.913795
-0.880285
-0.855607
-0.829890
-0.809628
-0.802354
-0.802874
-0.819239
-0.829630
-0.845995
-0.874310
-0.892234
-0.911976
-0.931979
-0.936914
-0.941070
-0.943928
-0.939252
-0.941330
-0.938992
-0.931459
-0.925744
-0.908080
-0.889377
-0.873790
-0.848073
-0.823136
-0.794301
-0.757934
-0.731957
-0.704682
-0.671171
-0.639740
-0.607788
-0.582071
-0.560251
-0.538690
-0.528299
-0.517908
-0.505699
-0.501543
-0.498945
-0.503621
-0.503361
-0.499984
-0.503621
-0.503102
-0.506998
-0.510895
-0.512453
-0.512973
-0.514791
-0.525961
-0.531416
-0.545444
-0.568043
-0.585188
-0.605970
-0.636103
-0.672730
-0.709097
-0.750401
-0.785209
-0.821577
-0.856646
-0.878986
-0.905742
-0.920029
-0.926263
-0.937174
-0.939252
-0.942889
-0.949123
-0.949902
-0.956916
-0.961592
-0.960553
-0.968346
-0.970943
-0.970164
-0.970164
-0.967047
-0.974320
-0.976399
-0.977957
-0.986789
-0.986789
-1.001336
-1.018221
-1.021079
-1.027313
-1.029911
-1.031989
-1.036145
-1.039003
-1.032768
-1.028612
-1.022637
-1.006012
-1.001076
-0.988088
-0.969645
-0.958994
-0.939511
-0.928341
-0.921328
-0.913015
-0.915873
-0.907820
-0.904443
-0.911976
-0.907300
-0.916652
-0.928082
-0.935095
-0.953019
-0.962631
-0.983152
-1.004713
-1.012506
-1.029131
-1.041340
-1.050172
-1.068096
-1.081604
-1.099528
-1.115374
-1.123427
-1.142130
-1.154599
-1.169406
-1.186810
-1.191226
-1.210709
-1.227594
-1.231490
-1.242920
-1.252012
-1.262403
-1.273573
-1.285782
-1.308382
-1.329163
-1.347866
-1.363453
-1.381896
-1.407094
-1.423199
-1.438266
-1.448916
-1.458787
-1.469438
-1.474633
-1.487881
-1.499831
-1.505026
-1.513858
-1.523729
-1.540095
-1.563474
-1.570487
-1.584515
-1.599322
-1.597503
-1.606855
-1.606855
-1.600880
-1.589191
-1.573864
-1.565812
-1.558538
-1.553603
-1.540874
-1.537497
-1.529184
-1.521391
-1.518794
-1.497493
-1.494635
-1.485803
-1.464242
-1.456449
-1.430992
-1.414627
-1.401898
-1.369687
-1.353841
-1.334618
-1.307602
-1.291237
-1.271494
-1.251492
-1.232789
-1.227074
-1.226035
-1.221359
-1.226814
-1.235127
-1.246817
-1.261623
-1.276170
-1.287600
-1.299030
-1.307083
-1.314096
-1.314096
-1.315395
-1.317993
-1.302407
-1.300329
-1.284743
-1.273313
-1.273053
-1.244738
-1.232529
-1.210449
-1.183693
-1.181095
-1.169665
-1.164470
-1.161613
-1.156417
-1.157196
-1.144728
-1.142390
-1.142390
-1.114335
-1.102385
-1.093294
-1.064459
-1.057446
-1.048873
-1.034066
-1.016922
-0.994582
-0.999777
-0.984970
-0.964708
-0.957954
-0.933796
-0.919769
-0.902104
-0.887298
-0.882362
-0.861321
-0.837682
-0.826252
-0.811186
-0.804951
-0.802094
-0.770402
-0.767804
-0.770402
-0.749880
-0.767544
-0.742867
-0.732736
-0.756115
-0.707798
-0.740788
-0.753777
-0.727021
-0.773779
-0.754296
-0.777156
-0.820018
-0.815082
-0.852489
-0.865477
-0.876647
-0.914313
-0.933017
-0.955097
-0.984191
-0.990685
-1.008609
-1.040041
-1.053549
-1.087578
-1.103684
-1.108100
-1.142909
-1.153560
-1.177458
-1.202915
-1.211228
-1.235906
-1.241881
-1.256947
-1.276949
-1.280846
-1.291496
-1.286041
-1.272014
-1.275910
-1.270455
-1.257467
-1.252271
-1.228113
-1.214345
-1.207331
-1.192265
-1.188109
-1.176679
-1.167847
-1.164210
-1.161093
-1.167587
-1.180316
-1.175899
-1.176939
-1.187589
-1.183692
-1.197460
-1.190187
-1.185771
-1.189407
-1.162651
-1.164729
-1.151741
-1.128102
-1.113815
-1.067576
-1.033287
-1.004193
-0.970683
-0.945745
-0.902624
-0.863918
-0.836123
-0.798197
-0.778974
-0.758452
-0.724942
-0.700784
-0.662078
-0.645713
-0.645453
-0.618957
-0.613502
-0.595838
-0.568042
-0.582330
-0.580511
-0.578953
-0.578433
-0.559210
-0.559730
-0.559210
-0.571419
-0.576095
-0.560509
-0.556613
-0.543884
-0.541026
-0.544923
-0.537909
-0.528558
-0.503880
-0.489073
-0.481799
-0.470629
-0.467252
-0.446471
-0.425430
-0.405687
-0.396076
-0.403609
-0.398414
-0.394258
-0.393998
-0.393218
-0.404908
-0.421273
-0.426729
-0.433223
-0.432703
-0.430885
-0.439197
-0.442055
-0.444393
-0.442055
-0.431664
-0.426469
-0.429586
-0.431664
-0.432443
-0.432443
-0.436340
-0.446211
-0.463096
-0.481020
-0.485176
-0.486475
-0.482838
-0.486995
-0.497126
-0.500762
-0.508555
-0.507516
-0.516608
-0.534272
-0.547261
-0.566484
-0.575056
-0.577134
-0.578173
-0.582589
-0.596876
-0.600773
-0.592460
-0.580251
-0.568821
-0.557392
-0.548560
-0.534532
-0.510114
-0.490631
-0.466213
-0.445951
-0.439717
-0.432963
-0.422312
-0.401271
-0.379451
-0.372437
-0.371917
-0.361267
-0.349577
-0.335550
-0.319964
-0.320223
-0.321262
-0.320223
-0.318405
-0.305157
-0.297104
-0.298663
-0.296325
-0.289311
-0.279700
-0.264373
-0.250086
-0.245410
-0.236838
-0.225928
-0.209302
-0.182546
-0.170597
-0.158648
-0.140983
-0.123579
-0.094745
-0.064092
-0.036817
-0.007982
0.020852
0.046829
0.080599
0.113329
0.136189
0.156451
0.170219
0.193857
0.220614
0.240875
0.266592
0.283218
0.293608
0.315689
0.336470
0.350238
0.361148
0.359589
0.364525
0.375695
0.376734
0.381670
0.377513
0.367382
0.363486
0.358031
0.359849
0.365304
0.363226
0.355433
0.355173
0.367902
0.380890
0.393619
0.405049
0.408166
0.420375
0.438299
0.451547
0.468692
0.480382
0.491032
0.507397
0.515970
0.535193
0.554675
0.554415
0.565585
0.569222
0.568703
0.581691
0.574937
0.571560
0.565585
0.552337
0.556753
0.549740
0.545583
0.544025
0.537011
0.539349
0.531816
0.535712
0.539609
0.527919
0.527659
0.522984
0.524023
0.535193
0.528179
0.529218
0.531036
0.521165
0.530777
0.528699
0.522984
0.526101
0.509735
0.511814
0.510255
0.506359
0.524282
0.509216
0.499864
0.512333
0.499085
0.506878
0.524023
0.511554
0.521425
0.532595
0.542466
0.567144
0.574158
0.589484
0.601434
0.608967
0.621696
0.633385
0.650530
0.659362
0.670272
0.688975
0.713134
0.736773
0.754957
0.779115
0.801715
0.813404
0.830549
0.846395
0.857045
0.874450
0.881464
0.893673
0.910298
0.915493
0.926923
0.932638
0.943808
0.958615
0.959913
0.970044
0.978097
0.984072
0.986150
0.989787
0.999918
0.992644
0.991865
0.989267
0.989008
1.003555
0.994982
0.984591
0.975759
0.953419
0.940691
0.928222
0.910558
0.887958
0.855487
0.832367
0.807430
0.785869
0.780674
0.750021
0.728460
0.717550
0.694431
0.694431
0.685599
0.679884
0.672091
0.650270
0.649491
0.646114
0.644815
0.652608
0.650790
0.651050
0.662739
0.675208
0.705081
0.724824
0.732876
0.761711
0.773400
0.793922
0.819119
0.833407
0.845096
0.847434
0.850292
0.856786
0.868216
0.863280
0.863020
0.852370
0.838862
0.844836
0.825873
0.815742
0.809248
0.797819
0.799117
0.790545
0.789766
0.793402
0.788986
0.791844
0.792104
0.787688
0.784051
0.778596
0.775219
0.770283
0.773400
0.781193
0.787168
0.796260
0.801196
0.820418
0.846395
0.870813
0.896790
0.921468
0.952900
0.978098
1.011867
1.037844
1.051352
1.074212
1.078368
1.084602
1.099409
1.107462
1.112398
1.104605
1.104864
1.106683
1.113437
1.125646
1.130841
1.149544
1.161494
1.179158
1.205914
1.234489
1.281507
1.315536
1.353982
1.398922
1.436068
1.497893
1.551925
1.594007
1.643623
1.681549
1.721553
1.758960
1.785456
1.815849
1.841306
1.855334
1.875076
1.893780
1.910405
1.934563
1.945473
1.962099
1.981841
1.987816
2.013792
2.024443
2.022105
2.042367
2.038730
2.034054
2.042627
2.029379
2.023664
2.016910
1.998206
2.002363
1.987556
1.964956
1.960800
1.944175
1.941057
1.935343
1.919757
1.914561
1.911704
1.895079
1.883649
1.871440
1.848320
1.847281
1.821564
1.801043
1.796627
1.776365
1.777664
1.754284
1.739997
1.749349
1.730646
1.732464
1.731425
1.724931
1.729347
1.703630
1.703889
1.711423
1.705448
1.729866
1.716099
1.721554
1.744413
1.734542
1.762337
1.774546
1.783638
1.794549
1.795068
1.822344
1.842606
1.866764
1.898196
1.910405
1.928329
1.974308
2.006779
2.041848
2.074838
2.090684
2.131208
2.151989
2.169134
2.204722
2.220308
2.237713
2.257455
2.277717
2.294602
2.311227
2.344737
2.358245
2.369935
2.394872
2.414355
2.439033
2.457217
2.480076
2.505793
2.517483
2.540342
2.571514
2.590478
2.612558
2.638275
2.652302
2.675162
2.706594
2.718543
2.729194
2.739584
2.745819
2.753092
2.753092
2.752833
2.746338
2.752053
2.751014
2.751793
2.749456
2.721920
2.724518
2.712049
2.695164
2.686332
2.655939
2.636457
2.602427
2.574892
2.560085
2.527874
2.492285
2.467348
2.431500
2.392794
2.371493
2.336425
2.309149
2.270184
2.221347
2.195371
2.148872
2.117181
2.092762
2.041328
2.001844
1.960800
1.921316
1.891962
1.848840
1.814811
1.776885
1.729347
1.703370
1.674536
1.642585
1.616868
1.580760
1.553224
1.530884
1.500751
1.485685
1.469319
1.445681
1.434770
1.414508
1.400481
1.397104
1.383336
1.378401
1.374764
1.364893
1.366451
1.366711
1.366192
1.376582
1.372166
1.366971
1.382037
1.388791
1.391649
1.399702
1.409573
1.425159
1.434251
1.437888
1.450876
1.466722
1.473216
1.485685
1.506466
1.518675
1.525689
1.536859
1.550887
1.562316
1.574266
1.576604
1.579201
1.589073
1.590891
1.605438
1.605438
1.600243
1.609594
1.592190
1.591670
1.597125
1.588034
1.596346
1.592450
1.586475
1.588293
1.594008
1.606217
1.609854
1.609594
1.604659
1.601542
1.605178
1.607516
1.603100
1.588813
1.572448
1.557121
1.543094
1.530885
1.517117
1.508285
1.496595
1.484386
1.483087
1.470878
1.462826
1.459189
1.440485
1.430874
1.415288
1.397364
1.388532
1.368010
1.352424
1.340215
1.323850
1.312939
1.296574
1.274754
1.264103
1.250335
1.232152
1.220462
1.200720
1.184095
1.170067
1.152922
1.141752
1.131102
1.111360
1.092137
1.073953
1.058627
1.052912
1.026935
1.011349
1.002777
0.981735
0.982255
0.972384
0.962513
0.959136
0.941731
0.937575
0.928743
0.916274
0.920430
0.916274
0.910040
0.912897
0.907182
0.905104
0.906403
0.903026
0.904584
0.894973
0.886660
0.891336
0.890557
0.878867
0.856268
0.842500
0.834447
0.818601
0.813406
0.802755
0.780156
0.777558
0.764829
0.743009
0.745087
0.715214
0.689497
0.674690
0.626113
0.615723
0.594941
0.558054
0.555197
0.523245
0.507140
0.499347
0.472850
0.480643
0.473370
0.466096
0.485579
0.484280
0.490774
0.514673
0.523245
0.540909
0.558314
0.557794
0.567666
0.568445
0.565328
0.565847
0.547404
0.528441
0.512335
0.493112
0.473370
0.449211
0.417520
0.388686
0.355175
0.322445
0.302183
0.272050
0.247112
0.224772
0.199315
0.182949
0.160090
0.135412
0.120345
0.100603
0.073587
0.050987
0.025010
0.006307
-0.013695
-0.048504
-0.080715
-0.110069
-0.139163
-0.172933
-0.203066
-0.234238
-0.276840
-0.308791
-0.344639
-0.378929
-0.406984
-0.444650
-0.469588
-0.496863
-0.520502
-0.542323
-0.568040
-0.583106
-0.595575
-0.615577
-0.650126
-0.672726
-0.697404
-0.708314
-0.715848
-0.739227
-0.745461
-0.768580
-0.786764
-0.789102
-0.797934
-0.809883
-0.826509
-0.840536
-0.862357
-0.877943
-0.889892
-0.914050
-0.935092
-0.968082
-1.007047
-1.035882
-1.074587
-1.102642
-1.133035
-1.168363
-1.188625
-1.223694
-1.248631
-1.257723
-1.276686
-1.286558
-1.296429
-1.313573
-1.316950
-1.330718
-1.339031
-1.342408
-1.360851
-1.362150
-1.376957
-1.389945
-1.392283
-1.403193
-1.403713
-1.413064
-1.423195
-1.432547
-1.445016
-1.449432
-1.456965
-1.466317
-1.466836
-1.478266
-1.490735
-1.495151
-1.511776
-1.515153
-1.520868
-1.534896
-1.546585
-1.568665
-1.579056
-1.590226
-1.607111
-1.615424
-1.630490
-1.653090
-1.666078
-1.671533
-1.680885
-1.682963
-1.682703
-1.686080
-1.687120
-1.686860
-1.674651
-1.662182
-1.655688
-1.644777
-1.645557
-1.649713
-1.644777
-1.642959
-1.643738
-1.654389
-1.672053
-1.690237
-1.708420
-1.720630
-1.736735
-1.756477
-1.775960
-1.800378
-1.820640
-1.839343
-1.862982
-1.883504
-1.903246
-1.932081
-1.951303
-1.970266
-2.000140
-2.012349
-2.039884
-2.075213
-2.097812
-2.137817
-2.166391
-2.193407
-2.234191
-2.258349
-2.296275
-2.336799
-2.361477
-2.401741
-2.438888
-2.471618
-2.509545
-2.543055
-2.571110
-2.598905
-2.622284
-2.641247
-2.658911
-2.668003
-2.690343
-2.710345
-2.725412
-2.745674
-2.748271
-2.762039
-2.776326
-2.787756
-2.807239
-2.810616
-2.821526
-2.824643
-2.822825
-2.835553
-2.838411
-2.845424
-2.840749
-2.834774
-2.840229
-2.833475
-2.837631
-2.840229
-2.827241
-2.816590
-2.809317
-2.800744
-2.788275
-2.767234
-2.741777
-2.720216
-2.695019
-2.674237
-2.658132
-2.637350
-2.616829
-2.601502
-2.591112
-2.580201
-2.566693
-2.547730
-2.529287
-2.512662
-2.489023
-2.469540
-2.443823
-2.408495
-2.380180
-2.350047
-2.323551
-2.294976
-2.262505
-2.233931
-2.207174
-2.181977
-2.162754
-2.143012
-2.115996
-2.095734
-2.074433
-2.054431
-2.036247
-2.018843
-2.005075
-1.980657
-1.955979
-1.934418
-1.915975
-1.894674
-1.868697
-1.844279
-1.820120
-1.800118
-1.776479
-1.757776
-1.737774
-1.714914
-1.702445
-1.681404
-1.670234
-1.659064
-1.635165
-1.633087
-1.615163
-1.603474
-1.607890
-1.587368
-1.592044
-1.582173
-1.550221
-1.554637
-1.539831
-1.521647
-1.510477
-1.472551
-1.453847
-1.434365
-1.406050
-1.392542
-1.364747
-1.331237
-1.302143
-1.269932
-1.235642
-1.205249
-1.170441
-1.127579
-1.096666
-1.061858
-1.025230
-0.998734
-0.966782
-0.940806
-0.913010
-0.880020
-0.859498
-0.838197
-0.811701
-0.787543
-0.761306
-0.740784
-0.726237
-0.697143
-0.668569
-0.643112
-0.617395
-0.592976
-0.563103
-0.544919
-0.512708
-0.477120
-0.453221
-0.423608
-0.405684
-0.384642
-0.359185
-0.338404
-0.315284
-0.297620
-0.282813
-0.262551
-0.247225
-0.226963
-0.203584
-0.198129
-0.184881
-0.174490
-0.163060
-0.140980
-0.131369
-0.121757
-0.116822
-0.112406
-0.106171
-0.101755
-0.098378
-0.106171
-0.114743
-0.122017
-0.127992
-0.137343
-0.159164
-0.179685
-0.195271
-0.218131
-0.232678
-0.239692
-0.253719
-0.260473
-0.268006
-0.269825
-0.265409
-0.264889
-0.256836
-0.253979
-0.247225
-0.235276
-0.230080
-0.217092
-0.209818
-0.208000
-0.200207
-0.194492
-0.184621
-0.171373
-0.163580
-0.154228
-0.148253
-0.140460
-0.120978
-0.112665
-0.106171
-0.104093
-0.111107
-0.104353
-0.106431
-0.107989
-0.104612
-0.114484
-0.115263
-0.108509
-0.102274
-0.094222
-0.094481
-0.096300
-0.091624
-0.089026
-0.081233
-0.072661
-0.070323
-0.070842
-0.065387
-0.051100
-0.053438
-0.056295
-0.050061
-0.054477
-0.055256
-0.053698
-0.058374
-0.062530
-0.067206
-0.078376
-0.081233
-0.086429
-0.097079
-0.095261
-0.099936
-0.103573
-0.098378
-0.090585
-0.084610
-0.079675
-0.075778
-0.079934
-0.076038
-0.066946
-0.063829
-0.069024
-0.077856
-0.084870
-0.095261
-0.105651
-0.123315
-0.146175
-0.165398
-0.187738
-0.208519
-0.229561
-0.251381
-0.267746
-0.290346
-0.312167
-0.328532
-0.351911
-0.375290
-0.391396
-0.402826
-0.416334
-0.426984
-0.426724
-0.429062
-0.431400
-0.425685
-0.419711
-0.413996
-0.410359
-0.402046
-0.394253
-0.394513
-0.394513
-0.392954
-0.393734
-0.399968
-0.402566
-0.409060
-0.410878
-0.404124
-0.405423
-0.403345
-0.407501
-0.399708
-0.382304
-0.378407
-0.362821
-0.349313
-0.339442
-0.320999
-0.300477
-0.278916
-0.263330
-0.246445
-0.230859
-0.215273
-0.196830
-0.186958
-0.178906
-0.162540
-0.149292
-0.141759
-0.123575
-0.103313
-0.087467
-0.066686
-0.047203
-0.026941
-0.005900
0.020077
0.045794
0.071251
0.099825
0.119308
0.144506
0.171262
0.193082
0.214903
0.228411
0.240620
0.252309
0.257505
0.254647
0.250491
0.249971
0.240879
0.230489
0.222436
0.211785
0.204252
0.189445
0.178275
0.172820
0.157754
0.149181
0.141129
0.131777
0.123984
0.118789
0.115671
0.107099
0.100605
0.091253
0.081902
0.075407
0.066575
0.065017
0.064497
0.059042
0.066056
0.078265
0.082941
0.098267
0.107619
0.108398
0.121386
0.133336
0.144246
0.152299
0.155935
0.164508
0.167885
0.171781
0.176977
0.179315
0.185030
0.187108
0.191783
0.196979
0.197239
0.203213
0.207110
0.218540
0.235165
0.241139
0.251790
0.263739
0.274649
0.291534
0.304003
0.311017
0.318031
0.319330
0.319330
0.322707
0.323226
0.324525
0.320888
0.318031
0.319330
0.317251
0.322447
0.328162
0.327902
0.327642
0.326084
0.323226
0.324265
0.327642
0.323746
0.318550
0.314654
0.310498
0.309718
0.303744
0.294652
0.289976
0.282702
0.276988
0.275169
0.269714
0.263220
0.254647
0.248673
0.250231
0.248413
0.242698
0.240620
0.240101
0.243478
0.242698
0.239321
0.239841
0.235684
0.232567
0.230749
0.228671
0.226593
0.223995
0.225554
0.230749
0.235425
0.242698
0.260362
0.275949
0.290496
0.314654
0.338293
0.364529
0.395702
0.422458
0.448175
0.473372
0.500388
0.529742
0.554160
0.579877
0.600139
0.619362
0.646118
0.671575
0.693655
0.708982
0.728724
0.747947
0.761715
0.778340
0.792627
0.803797
0.816785
0.827696
0.838866
0.852633
0.862505
0.876272
0.890819
0.898872
0.911341
0.920952
0.929785
0.936798
0.936019
0.938876
0.937318
0.931083
0.921212
0.903028
0.889521
0.874454
0.852634
0.831852
0.808733
0.787172
0.766131
0.743011
0.722750
0.705085
0.683525
0.659886
0.644819
0.630532
0.617284
0.608452
0.597282
0.591047
0.590528
0.592866
0.594684
0.592346
0.590788
0.593905
0.597542
0.599100
0.604036
0.607153
0.614686
0.620921
0.619102
0.624557
0.625337
0.625337
0.627155
0.623518
0.623518
0.615985
0.605594
0.598321
0.583774
0.568707
0.549225
0.532340
0.519871
0.500648
0.487400
0.470255
0.449474
0.441941
0.433109
0.423497
0.416743
0.404274
0.392844
0.384532
0.379077
0.376739
0.368946
0.364270
0.367647
0.364270
0.365829
0.370764
0.371544
0.376219
0.378038
0.379856
0.386870
0.388948
0.389208
0.390247
0.387649
0.381934
0.372583
0.362452
0.345047
0.325305
0.306861
0.285301
0.266597
0.242179
0.214124
0.187108
0.159313
0.138012
0.112035
0.081902
0.060601
0.038781
0.016181
0.002673
-0.008757
-0.021225
-0.030577
-0.037331
-0.043306
-0.048241
-0.053956
-0.056814
-0.058892
-0.068503
-0.073439
-0.073179
-0.078894
-0.085128
-0.094999
-0.104611
-0.108248
-0.112404
-0.112664
-0.114222
-0.117599
-0.110586
