EVENT_NAME: 202302060117
EVENT_ID: 13194
EVENT_DATE_YYYYMMDD: 2023/02/06
EVENT_TIME_HHMMSS: 01:17:32.00000
EVENT_LATITUDE_DEGREE: 37.288
EVENT_LONGITUDE_DEGREE: 37.043
EVENT_DEPTH_KM: 8.6
HYPOCENTER_REFERENCE: AFAD
MAGNITUDE_W: 7.7
MAGNITUDE_W_REFERENCE: AFAD
MAGNITUDE_L: 
MAGNITUDE_L_REFERENCE: 
FOCAL_MECHANISM: 
NETWORK: TK
STATION_CODE: 0201
STATION_NAME: 
STATION_LATITUDE_DEGREE: 37.76121
STATION_LONGITUDE_DEGREE: 38.26742
STATION_ELEVATION_M: 671.0
LOCATION: Kahramanmaras_Pazarck_Turkiye
SENSOR_DEPTH_M: 
VS30_M/S: 391
SITE_CLASSIFICATION_EC8: B
MORPHOLOGIC_CLASSIFICATION: 
EPICENTRAL_DISTANCE_KM: 120.12
EARTHQUAKE_BACKAZIMUTH_DEGREE: 
DATE_TIME_FIRST_SAMPLE_YYYYMMDD_HHMMSS: 2023/02/06 01:17:32.7483820
DATE_TIME_FIRST_SAMPLE_PRECISION: millisecond
SAMPLING_INTERVAL_S: 0.01
NDATA: 4725
DURATION_S: 
STREAM: HNE
UNITS: cm/s^2
INSTRUMENT: sensor = CMG-5T/GURALP | digitizer = 
INSTRUMENT_ANALOG/DIGITAL: 
INSTRUMENTAL_FREQUENCY_HZ: 
INSTRUMENTAL_DAMPING: 
FULL_SCALE_G: 
N_BIT_DIGITAL_CONVERTER: 
PGA_CM/S^2: 879.950
TIME_PGA_S: 
BASELINE_CORRECTION: BASELINE REMOVED
FILTER_TYPE: BUTTERWORTH
FILTER_ORDER: 
LOW_CUT_FREQUENCY_HZ: 
HIGH_CUT_FREQUENCY_HZ: 
LATE/NORMAL_TRIGGERED: 
DATABASE_VERSION: 
HEADER_FORMAT: DYNA 1.2
DATA_TYPE: Acceleration
PROCESSING: Automatic Paolucci et al., 2011
DATA_TIMESTAMP_YYYYMMDD_HHMMSS: 
DATA_LICENSE: U (unknown license)
DATA_CITATION: Turkish Accelerometric Archive v 1.0 - Disaster And Emergency Management Presidency, Earthquake Department
DATA_CREATOR: AFAD
ORIGINAL_DATA_MEDIATOR_CITATION: : AFAD - Disaster And Emergency Management Presidency
ORIGINAL_DATA_MEDIATOR: AFAD PROCESS SERVICE
ORIGINAL_DATA_CREATOR_CITATION: AFAD PROCESS SERVICE
ORIGINAL_DATA_CREATOR: network: TK
USER1: GuestUser
USER2: 
USER3: 
USER4: 
USER5: 
[...]
-7.164655
-4.020280
-1.636792
-5.185075
-12.178729
-13.717266
-5.945317
5.234273
11.857346
9.942768
1.805897
-5.947385
-4.651777
4.745074
14.713533
17.871114
12.382884
2.473336
-4.488247
-6.312902
-4.438768
-4.081377
-7.061196
-6.520185
-3.637405
-2.664387
-3.375380
-5.074898
-5.280940
-3.698584
0.134991
6.050000
8.434745
6.438419
4.101266
2.713020
-0.680571
-5.722959
-7.051466
-3.588902
-0.087980
4.266897
7.467238
7.304585
1.728319
-7.657412
-10.098322
-5.676790
-0.313267
4.830164
4.521623
-6.033106
-12.036350
-5.282479
3.850891
5.953920
6.796141
10.142371
8.678665
6.069228
2.695760
0.690630
0.312288
-3.003957
-3.424430
-3.343096
1.258912
7.600268
6.487451
6.460626
5.624495
1.648605
-2.231073
-10.721975
-20.070605
-15.903120
-3.233199
7.513125
12.129595
4.685069
-10.933015
-15.123965
-6.881020
1.138688
6.369528
3.066489
3.852115
9.667768
11.155170
10.140451
5.341420
-5.851573
-14.300344
-13.380777
-13.368614
-11.269986
-11.804278
-16.076976
-14.250004
-11.039602
-7.227408
-7.426533
-7.525673
-2.440094
2.102174
5.254724
7.504271
9.890903
12.237290
10.018358
5.763896
2.065950
-4.618947
-2.601439
1.552840
1.998897
-0.547657
1.559145
10.296980
9.828715
-1.386917
-16.669833
-18.421544
-4.605891
5.953042
4.103862
2.944511
-1.545134
-8.353282
-13.505716
-18.870695
-17.007880
-9.393139
0.385413
4.205153
2.789239
-1.127540
2.087264
9.694459
14.627232
15.524161
6.372985
-0.956465
-4.080287
-9.127077
-7.801284
-0.072725
1.907054
2.307206
6.741944
11.682263
13.462072
16.107154
15.364719
7.878061
1.284973
-8.437811
-15.027126
-18.064169
-12.971044
2.912208
15.951253
18.651673
9.031388
-7.056433
-18.797768
-17.615978
-9.082513
-4.049127
-3.519436
-4.144908
-9.650746
-10.178121
2.470420
14.586969
18.466449
16.943633
19.662288
27.909634
29.798861
19.685572
1.029601
-13.702459
-16.845775
-12.905299
-5.579820
5.492239
13.802468
9.622208
7.906341
9.091904
9.829111
6.846776
-14.230198
-29.335784
-27.180562
-18.488003
-12.201984
1.767733
18.382317
15.555304
8.696849
9.019026
5.130544
3.729722
7.740627
3.334617
-3.087429
-5.862878
-1.921144
4.605718
11.260232
10.489499
4.031610
5.373753
9.355732
-2.727688
-21.985451
-25.400422
-12.333079
12.958757
39.320236
44.171261
22.620147
14.168232
19.547476
20.708515
13.813587
4.117214
-1.969035
-9.043180
-9.944081
-1.599894
8.049118
2.033927
-19.230439
-36.153978
-33.505752
-21.268467
-1.228636
13.533409
5.955571
-7.992964
-10.593598
-3.225359
-12.993419
-21.747803
-14.256941
-1.229215
15.381596
18.415296
10.475879
0.802144
2.153090
9.283631
11.142673
1.709780
-3.103713
10.570452
27.593148
49.730763
44.555691
12.096859
-17.452997
-35.816561
-37.563870
-26.072380
-8.884301
-10.046167
-16.317293
-7.832249
9.140141
19.665745
12.284102
-9.844279
-30.725058
-31.845421
-15.057280
12.033644
24.750099
18.793389
15.233158
14.561780
14.617962
13.427798
2.488224
-12.595982
-18.431956
-11.910754
-2.090070
-0.803894
5.922308
10.907274
0.781408
-12.914965
-16.306041
-5.839547
3.788085
7.158840
-11.084618
-31.906915
-40.656267
-40.194490
-20.938812
1.244708
21.069479
29.342607
17.362316
0.958821
-6.778741
2.218173
19.781035
18.903401
2.254033
-17.247088
-20.258349
-13.340354
-7.885651
1.865232
6.186152
7.631423
8.956587
18.258484
24.203676
14.394113
2.704971
-4.110723
-12.041965
-23.000405
-21.733722
0.705103
13.374396
0.496133
-21.419703
-36.443541
-27.889954
-1.132311
21.368769
20.688588
1.478616
-6.967639
-12.232005
-21.114670
-15.892006
0.115755
26.123831
26.363002
5.573404
-9.590663
-17.467826
-5.398439
4.919022
5.399664
-8.131955
-32.268197
-42.386516
-28.043273
8.241174
42.314019
61.360925
59.697251
31.307590
-1.824092
-8.398944
13.052615
28.316468
28.749948
12.301177
-0.926087
-3.777625
-1.795961
4.289461
-9.940162
-26.402138
-32.129953
-32.150490
-32.557758
-17.437907
16.893388
39.076908
28.478789
0.460768
-16.159045
-7.917987
16.272135
25.280368
10.816819
-14.755674
-32.170331
-26.004419
-13.374743
-23.550286
-40.602107
-30.890840
4.262967
37.460478
45.140618
15.230441
-19.285300
-21.276596
6.271489
39.228158
43.641515
6.717348
-34.970851
-39.003335
-20.143821
-6.266543
-1.469598
-16.478972
-46.457691
-48.179218
-7.364037
38.970403
59.447272
57.386176
34.689331
10.779469
0.956701
1.559337
2.600269
-3.441962
-7.164432
-3.245337
-4.617862
-20.142878
-41.377689
-51.648815
-27.149308
5.286688
14.865900
10.499506
5.996656
16.093397
38.698234
24.962244
-11.474579
-23.969884
-14.559827
7.621806
6.731595
-6.801282
-5.702498
2.743559
17.283626
17.634730
2.882547
-8.029987
-0.375001
23.252317
26.755126
7.965843
-19.842148
-14.243443
12.360766
9.352020
-11.157748
-26.416769
-33.907828
-24.216055
-2.077812
7.181954
9.774214
4.956948
8.249727
7.757567
7.886063
7.612108
-1.337842
-10.854999
-20.929929
-16.275729
0.598563
24.409500
44.872535
33.337457
-18.835257
-49.776089
-43.371849
-19.441434
4.145009
8.021974
3.400274
-2.426268
-16.601811
-22.376160
-23.383962
-33.341930
-36.422363
-30.126911
-13.949365
8.022238
43.880337
58.224838
44.385719
11.132672
-25.615422
-36.343709
-38.546921
-16.571545
18.584778
36.860107
34.917860
18.365961
-3.451777
-17.195313
-19.101088
-6.826073
-1.304714
-4.427907
-7.950408
-13.185219
-10.276027
0.028857
18.717329
25.987470
16.725619
-10.132836
-17.941456
6.939124
29.062905
37.295159
24.304335
-11.634453
-34.411789
-16.166644
19.405337
33.596402
14.871260
1.527032
2.520802
1.084765
-8.550612
-20.532790
-8.181058
7.094743
15.068547
29.401100
31.944940
19.227658
-4.465257
-9.455452
-0.670455
-2.062473
3.695956
26.696328
35.310912
32.955523
30.012176
16.059867
-2.135170
-32.115146
-46.200767
-32.180744
-7.652310
6.704139
7.530639
-14.403433
-31.853933
-15.147540
-1.351381
5.480465
-3.012324
-16.550861
-13.463710
-0.411459
18.915906
25.247830
16.619213
-3.476154
-24.414785
-27.161308
-15.962225
-0.775090
7.603054
4.559093
4.739154
4.311764
-15.962821
-29.335975
-17.779086
13.706116
33.252314
19.431432
3.444224
-5.381218
2.458017
14.192236
7.843764
-6.429878
-5.545525
3.414917
1.974478
10.477130
6.208833
-0.527628
-16.473962
-42.372191
-27.920789
-7.818703
11.919289
23.529629
21.466017
1.229163
-20.586060
-10.669794
3.965856
0.501207
-1.659245
12.515471
26.931659
40.603938
27.071061
5.992200
-11.101123
-24.642804
-9.659410
10.342691
28.013713
41.344536
20.288943
2.200807
-2.646643
-4.022941
11.995510
15.437322
9.246687
0.664603
2.702234
10.729489
15.839592
18.199185
8.092184
-3.672417
2.778356
8.089057
-1.438161
-8.697182
-3.605315
11.446622
18.225017
0.914117
-26.888843
-37.109034
-14.981480
8.422602
9.234639
2.196338
-9.597818
-11.047061
-8.405123
-14.582553
-29.669903
-29.850791
-2.685036
28.378220
23.886059
-11.767239
-30.823776
-18.461983
-0.313678
12.834156
16.427517
12.919478
9.562988
-1.670879
-14.954739
-19.269569
-16.520729
-11.377926
18.248448
24.398640
13.216336
20.242491
7.507601
-13.508376
-13.324542
5.954403
23.030549
22.261703
15.102667
13.902441
14.725798
5.755725
-14.213876
-42.623030
-54.232940
-38.445898
-27.436094
-13.751238
-5.952249
-8.816363
-3.294375
3.822331
4.021257
22.063290
39.416751
25.441805
0.957191
6.812460
28.177241
48.439050
73.303280
60.894125
27.135498
-6.386689
-12.217633
-1.361263
-10.261535
-23.965455
-31.613094
-27.551882
-19.318999
-6.977957
1.250524
-0.064777
10.383481
21.013471
9.523040
-19.091743
-28.210848
-9.559478
12.564932
18.165524
-12.569680
-39.243258
-38.118063
-10.200853
12.768706
11.848311
21.118767
25.068047
29.238675
25.662094
13.102649
16.472145
1.570930
-13.016498
-23.722776
-49.166988
-36.232957
31.489314
93.462175
105.011518
66.190793
-5.612168
-63.766960
-83.366808
-75.943231
-46.375338
-7.306423
25.604340
42.477374
41.069635
44.818317
36.737413
13.362058
3.117343
-11.083982
-24.132030
-25.207118
-18.120595
4.318230
25.666661
41.645496
40.472939
19.266426
0.790929
-5.155719
-17.691269
-31.261247
-44.072225
-35.819849
-5.968981
-5.490225
3.392242
-1.700453
-10.693793
30.034610
94.692583
112.772974
78.074872
9.058265
-42.638422
-45.357906
-26.565677
10.695347
4.184007
-11.322145
5.865305
46.137175
68.572857
23.092173
-16.348581
-25.149498
-25.917715
3.272250
12.166664
12.187631
-8.488149
-38.837878
-29.154280
8.655084
56.209458
80.413414
77.249347
33.786585
-5.047975
-12.343468
-0.035125
14.251523
-15.945401
-37.307236
-4.352454
44.248296
84.639645
70.945787
31.389957
4.573634
9.396990
-4.371070
-37.597078
-51.453803
-31.989353
19.572566
29.158696
19.261725
-4.127464
-24.666158
-37.758853
-25.909558
4.604099
-4.826279
0.138565
27.453353
46.439891
76.688809
75.189889
23.106469
-38.655303
-72.041662
-41.856885
21.618256
54.937760
60.250347
23.426164
-31.998240
-55.954006
-44.997652
-28.449096
-28.264004
-19.701613
-24.519509
-27.658422
-0.824062
43.632685
38.846860
9.994379
-15.322808
-2.343502
53.111516
68.569678
51.900816
15.472796
-9.370881
0.327809
49.847282
36.073562
-45.391401
-91.713462
-76.066651
-46.827008
-32.175008
-48.730052
-60.132446
11.383568
77.980859
111.113601
87.491115
35.363048
-5.183820
-34.184077
-31.430836
-24.592702
-36.330264
-51.244685
-32.409695
-43.819636
-69.315412
-52.291458
4.668354
53.513719
37.325285
18.761123
24.148542
45.322157
35.512594
2.736202
-12.284492
-20.245918
16.358605
33.400165
10.171328
1.283633
5.091425
29.813540
42.121253
19.493580
24.279206
16.928376
-8.534701
-12.138322
-27.059660
-36.919530
-25.869480
18.630028
36.440021
30.491486
35.539964
22.993724
-25.289664
-65.272470
-18.060181
33.499851
47.968861
4.774609
-64.655768
-74.885391
-64.584909
-18.545392
21.678688
-11.513991
-38.403259
-18.766509
2.617137
4.351041
-11.744955
-5.968290
-4.797818
-3.789585
14.244901
22.394778
47.645111
66.604609
35.571968
4.477072
-20.117588
-3.214370
24.384022
5.616118
-3.156501
-38.604800
-26.671241
13.274894
19.435147
-8.753916
-34.982281
-32.716385
-25.851211
-22.535165
-27.166926
-6.181332
10.990397
25.160083
23.611485
11.968247
-18.236222
-13.629813
47.085384
82.168762
91.477576
92.540517
77.095991
-3.276062
-109.384949
-151.431582
-117.107204
-49.493721
7.600033
43.324820
64.725444
77.834289
56.339142
9.527221
-43.601946
-62.412610
-32.119674
13.956316
23.446234
8.437488
-16.078568
-38.118913
2.840271
44.799298
71.057649
59.487356
38.955579
8.756769
-18.820441
-4.292321
2.713710
10.800704
-5.113559
-9.398834
0.910452
-0.801013
7.445704
25.653119
18.573944
0.561268
-19.998177
-26.364257
-17.226485
-19.912011
2.850034
18.456601
13.399120
-2.300712
-16.549828
-35.953481
-50.235926
-55.803388
-28.515640
12.906364
63.345818
84.811212
52.251138
44.340647
-11.073695
-57.095804
-68.200761
-69.719804
-42.630137
-15.487020
-1.815999
19.228078
11.726328
-31.382402
-54.548985
-69.619356
-39.130224
18.355292
55.901805
67.133587
65.225297
46.468084
25.806768
-5.857849
-31.749161
-19.918730
-11.704712
-13.924274
-6.410146
-10.234487
-13.658890
7.605906
15.728114
4.757727
-2.792443
8.944921
26.771264
31.472626
31.491078
4.425108
-33.060607
-41.015744
-14.127933
7.158243
-14.290999
-13.795264
-10.717546
1.871885
32.723853
20.761798
-1.136431
-18.612084
-22.137730
-2.339370
27.210287
47.404812
32.030714
-4.153947
-47.338137
-49.162163
-7.320099
26.177993
32.403016
8.152327
-22.221298
-34.292141
-18.772354
-1.299414
-4.310675
-16.992114
-30.745711
-35.223408
-19.076676
-18.677152
-23.701304
-17.385730
-31.042487
-41.558857
-47.082302
-37.612507
0.173591
21.502528
61.213481
52.437717
-1.363671
-5.833194
-0.279764
9.903756
15.391787
3.739747
-1.083179
-24.734591
-59.303155
-66.819368
-50.675150
1.705508
32.505283
47.911252
34.043207
-14.648921
-17.394815
9.160973
25.246709
34.726566
-9.943554
-25.200689
15.228390
18.418041
5.955435
-37.414889
-107.654573
-101.232097
-32.731332
-14.151648
-12.801331
-24.719996
0.036075
79.628178
127.163057
118.272846
119.443947
63.197660
-30.238377
-66.789648
-76.104949
-39.746929
-3.895118
-3.730778
0.153103
-9.574712
-52.910450
-61.772992
-45.111875
-18.368695
-3.773290
-10.182130
-22.487528
-10.887250
-7.525299
9.673470
36.078338
41.662581
64.417709
72.141867
53.547521
9.394301
-50.016897
-62.531066
-11.154652
24.804060
44.215688
8.342299
-26.235697
-11.485600
-9.428476
-18.936200
-31.613865
-46.746491
-48.470533
-27.584294
-1.460513
-5.348995
-29.843670
-22.908068
-5.889774
-4.891602
-39.764520
-52.120853
3.854209
48.243042
79.225807
104.766032
53.137886
15.258523
12.354792
13.778054
-17.094864
-75.955206
-90.697327
-61.869569
-16.989618
22.710645
81.333718
97.878501
61.563672
4.581651
12.414597
-1.384276
-0.669079
-9.498293
-86.052079
-102.397093
-56.844292
9.874993
47.120924
22.037662
-67.448053
-52.599229
-17.805114
13.779443
65.623708
17.761009
-58.202304
-37.008566
-4.707140
16.482825
52.139698
5.093222
-30.711625
4.969772
-2.418159
-9.936259
-26.396977
-52.968056
-38.222361
-68.582781
-34.543264
-22.321700
-28.480894
-11.417952
-9.375291
-8.026860
-4.029789
23.227146
57.569760
91.648265
93.248229
101.340882
53.886923
-10.915880
-61.188892
-87.934786
-76.921837
-66.706876
-37.149044
4.881040
30.537599
-8.512650
-52.076026
-94.908698
-137.004380
-121.300345
-83.695351
44.707946
135.649208
166.947018
169.156319
92.256676
50.672863
16.642580
15.371297
14.140259
-4.539607
-3.704303
-20.989421
-54.145628
-68.547551
-39.691495
-19.168721
-32.055788
-4.699496
3.034723
-19.276019
11.976515
76.466590
78.674634
2.902486
-27.210174
-29.697618
-57.884166
-71.982992
-23.969572
57.970590
93.206146
92.079494
70.795005
-21.054489
-83.999723
-103.701441
-129.265131
-101.895634
-0.517649
85.104953
69.962895
8.054605
-52.142004
-53.878623
-37.646998
-5.718469
20.318532
-11.011547
-44.084748
-67.411682
-60.861554
-89.552425
-134.126333
-94.165735
-55.361558
-21.183069
21.413593
14.138852
6.636473
-3.303259
-9.376931
10.394389
51.986178
92.554857
94.933943
67.527776
22.345158
-0.600705
-5.411054
-7.314942
-6.102968
-6.373779
-3.621167
15.798008
39.042367
-1.924562
-43.876870
-45.235560
-66.999219
-102.129329
-77.500911
6.591114
39.161051
78.208585
153.088222
170.066271
124.774865
57.557976
34.794474
41.227012
3.955728
0.757704
-14.034723
-47.419825
1.246952
27.416008
-6.440717
-67.740298
-62.333386
0.388414
13.820480
-23.187323
-42.228139
-25.463893
-19.711752
14.405740
69.894086
79.939263
70.030973
16.768493
-47.483453
-50.695312
-30.088274
-49.281267
-79.570000
-56.823047
-20.307819
51.543363
96.128392
87.435634
34.267479
-34.223423
-57.164255
-10.998972
41.198697
87.141374
159.679869
168.698792
138.343402
67.032817
20.517076
28.305375
42.998248
34.219969
-3.355668
-74.137406
-128.245035
-95.572599
-0.736981
76.871158
73.815878
87.280014
109.344056
118.079375
75.956025
-4.854324
-50.202325
-92.483512
-123.111186
-109.844503
-65.336820
-3.768298
62.041066
46.429899
1.064292
-58.412305
-125.151282
-122.677871
-89.250207
-59.330168
-36.380731
-28.633307
1.987251
63.478427
98.676881
111.227953
69.142961
-24.613780
-107.424444
-128.651080
-109.550094
-73.566858
-17.200662
48.051557
74.873341
55.111255
13.413624
-21.269387
-30.591606
-33.896531
-9.278174
3.262836
-10.607724
-19.842534
27.217577
85.997858
128.847940
158.461737
155.368099
97.662293
-24.869798
-96.977113
-93.186928
-69.434472
-33.775084
-15.475859
-17.919914
16.490614
58.564717
110.967384
106.135026
55.156464
49.760043
29.323849
4.622917
-20.829470
-22.039128
-16.471863
-46.600873
-80.608518
-138.524354
-209.247610
-236.987688
-214.521194
-129.504157
-35.782200
4.092248
-11.998717
-43.122539
-58.495379
-110.033601
-150.793015
-141.959597
-132.231352
-114.759041
-94.084090
-66.248000
-16.186473
18.119040
19.732209
-0.685749
12.797880
22.507261
21.525240
23.865968
5.702372
13.385027
62.787537
119.926567
162.671005
137.101027
6.443169
-138.279144
-217.150175
-183.803631
-101.617596
30.793246
135.442416
171.957645
202.254354
217.887331
285.695753
355.562341
377.979157
370.159847
312.638918
167.597158
-30.796590
-161.772008
-193.354248
-167.000944
-79.127124
-26.674779
-20.592501
-41.680794
-66.762799
-25.920578
42.199116
107.594709
127.291198
111.774356
59.318039
27.422012
34.489669
35.555754
120.700443
254.917920
293.775547
259.961582
127.155006
-69.729545
-200.017650
-265.987565
-236.978075
-97.641277
72.366169
130.932648
152.968392
210.747572
225.112824
197.171521
82.824935
-47.150011
-98.686347
-80.671354
-6.343203
58.873173
105.866000
128.101083
146.646810
198.022595
227.865917
145.188565
-20.872531
-120.159849
-162.083860
-206.227647
-211.551752
-204.265261
-190.577261
-120.489953
-13.515363
133.854134
241.900883
262.699714
227.137597
93.634903
-76.711054
-193.279931
-231.546027
-198.552886
-196.425961
-248.504350
-264.475209
-184.579380
-18.365676
136.117168
209.602684
212.520050
162.101778
71.916802
-59.930806
-145.972408
-128.163043
-43.818857
43.986420
39.928154
29.334437
13.618884
-9.259693
-18.729058
28.903290
145.917182
180.967861
192.559335
204.811083
201.836294
212.480119
200.424997
135.572516
14.740786
-106.931063
-162.814514
-89.740882
108.579094
286.319287
343.181630
298.971187
229.153449
172.112947
78.034873
-80.458231
-192.064996
-209.477766
-145.407751
-10.467746
51.400729
39.177708
-26.323098
-95.793721
-129.831550
-173.247779
-236.682873
-321.883098
-345.158469
-275.032173
-120.221079
29.126094
43.587558
25.847166
30.830245
-23.970357
-61.223404
-61.377882
-13.487083
68.174506
64.241377
-23.290557
-113.781774
-178.759392
-175.434543
-97.837723
-61.665208
-99.004405
-174.175390
-218.915310
-194.300097
-136.310258
-78.947993
-20.961297
-13.066726
9.198542
92.815798
146.992401
151.205161
131.641157
109.951700
50.459383
-16.522952
-79.738583
-122.847942
-175.094858
-265.792332
-320.629407
-279.898489
-133.383575
72.901187
245.788055
328.977077
365.428793
405.787442
393.686416
291.987527
109.947182
-40.369220
-107.338349
-99.968223
-33.040167
-7.620049
10.012614
23.076813
38.594714
70.887964
146.951691
262.306725
371.215602
431.492503
409.237727
324.826057
152.670322
-97.580052
-322.480325
-505.548809
-593.467475
-615.404691
-584.503674
-567.811115
-548.017786
-500.192386
-251.776513
149.824080
560.865326
872.348012
879.949548
728.516341
111.882064
-462.496592
-742.075059
-741.508895
-436.511982
-108.229421
113.298227
63.611286
-132.061506
-247.711032
-166.275193
-35.236462
127.174066
153.245653
54.506047
-163.729235
-329.329397
-443.749556
-447.507870
-329.997829
-180.158281
2.862843
182.684470
366.604823
510.644026
684.718129
767.376417
705.370029
357.586562
-81.100221
-467.158173
-641.778930
-585.671813
-359.596453
-5.232458
184.676891
113.518483
-54.542299
