EVENT_NAME: 202302060117
EVENT_ID: 13194
EVENT_DATE_YYYYMMDD: 2023/02/06
EVENT_TIME_HHMMSS: 01:17:32.00000
EVENT_LATITUDE_DEGREE: 37.288
EVENT_LONGITUDE_DEGREE: 37.043
EVENT_DEPTH_KM: 8.6
HYPOCENTER_REFERENCE: AFAD
MAGNITUDE_W: 7.7
MAGNITUDE_W_REFERENCE: AFAD
MAGNITUDE_L: 
MAGNITUDE_L_REFERENCE: 
FOCAL_MECHANISM: 
NETWORK: TK
STATION_CODE: 2711
STATION_NAME: 
STATION_LATITUDE_DEGREE: 37.31736
STATION_LONGITUDE_DEGREE: 37.56036
STATION_ELEVATION_M: 574.0
LOCATION: Kahramanmaras_Pazarck_Turkiye
SENSOR_DEPTH_M: 
VS30_M/S: None
SITE_CLASSIFICATION_EC8: unknown
MORPHOLOGIC_CLASSIFICATION: 
EPICENTRAL_DISTANCE_KM: 45.88
EARTHQUAKE_BACKAZIMUTH_DEGREE: 
DATE_TIME_FIRST_SAMPLE_YYYYMMDD_HHMMSS: 2023/02/06 01:17:10.0424400
DATE_TIME_FIRST_SAMPLE_PRECISION: millisecond
SAMPLING_INTERVAL_S: 0.01
NDATA: 10501
DURATION_S: 
STREAM: HNE
UNITS: cm/s^2
INSTRUMENT: sensor = ACEBOX/SARA | digitizer = 
INSTRUMENT_ANALOG/DIGITAL: 
INSTRUMENTAL_FREQUENCY_HZ: 
INSTRUMENTAL_DAMPING: 
FULL_SCALE_G: 
N_BIT_DIGITAL_CONVERTER: 
PGA_CM/S^2: 119.610
TIME_PGA_S: 
BASELINE_CORRECTION: BASELINE REMOVED
FILTER_TYPE: BUTTERWORTH
FILTER_ORDER: 
LOW_CUT_FREQUENCY_HZ: 
HIGH_CUT_FREQUENCY_HZ: 
LATE/NORMAL_TRIGGERED: 
DATABASE_VERSION: 
HEADER_FORMAT: DYNA 1.2
DATA_TYPE: Acceleration
PROCESSING: Automatic Paolucci et al., 2011
DATA_TIMESTAMP_YYYYMMDD_HHMMSS: 
DATA_LICENSE: U (unknown license)
DATA_CITATION: Turkish Accelerometric Archive v 1.0 - Disaster And Emergency Management Presidency, Earthquake Department
DATA_CREATOR: AFAD
ORIGINAL_DATA_MEDIATOR_CITATION: : AFAD - Disaster And Emergency Management Presidency
ORIGINAL_DATA_MEDIATOR: AFAD PROCESS SERVICE
ORIGINAL_DATA_CREATOR_CITATION: AFAD PROCESS SERVICE
ORIGINAL_DATA_CREATOR: network: TK
USER1: GuestUser
USER2: 
USER3: 
USER4: 
USER5: 
[...]
-8.646254
11.583992
49.594287
44.631008
-3.941073
-32.727124
-3.731117
8.711108
-31.778600
-30.232730
9.761100
-15.078453
-72.850456
-69.558822
-12.055446
30.144028
9.520072
-31.647882
-11.991842
28.030746
5.534542
-30.286470
-23.608515
-13.128316
-28.236527
-47.258737
-35.203212
-15.015049
-34.031648
-59.342537
-56.782922
-57.808822
-77.177519
-83.452635
-51.558009
-10.445693
-7.256695
-31.444656
-36.565515
-25.750985
-27.666484
-25.077878
-15.261896
-22.423571
-25.053320
-3.856088
26.299553
48.056730
41.015694
9.603865
-8.146955
17.063173
67.164760
85.265114
50.774876
13.389294
20.889513
47.453327
42.009361
22.395877
35.636988
56.609541
34.205453
-0.804983
2.039397
11.744091
-9.209986
-37.383957
-39.047188
-4.992509
32.368063
16.544199
-45.182952
-71.776686
-30.616208
17.872880
31.685392
33.665190
36.640731
25.121542
-5.343408
-34.551931
-22.707759
30.027088
41.244917
-15.050422
-27.734155
31.990061
45.322353
7.527157
21.038304
53.501992
20.409863
-31.193165
-23.399297
30.681520
61.122395
19.173323
-40.166992
-35.726010
-15.980659
-41.941738
-52.706697
-9.185567
11.252993
-35.146409
-45.226108
29.580837
50.531880
-15.764371
-17.985208
50.479985
50.747452
-9.219205
-11.440744
26.422492
4.729849
-44.056857
-20.754047
47.522005
54.567722
14.838322
28.074991
62.310161
42.670025
33.804903
76.522705
94.773858
70.066633
51.620967
30.553966
-6.492611
-0.915842
54.095255
62.406049
2.805985
-22.804866
24.328432
55.992066
21.350094
-15.018470
-0.534493
28.462917
23.425992
2.598399
11.542784
24.980752
-1.870160
-20.510345
10.827375
35.025629
20.963895
2.637700
-4.209752
1.594034
16.459101
22.684190
16.886020
10.101460
-0.612764
-14.077380
3.290721
37.817202
20.999700
-8.760117
21.289147
47.051972
25.646432
15.509219
18.147858
6.021264
-1.124279
-1.792234
1.762890
20.362868
17.929742
-7.810632
7.159643
30.847283
-4.152398
-25.671329
26.439045
67.751725
37.847655
-5.394315
2.483019
44.943411
59.786033
29.650971
3.873890
26.339940
62.672505
40.664938
-11.547366
-16.240609
-13.971838
-45.467600
-52.317389
-35.591063
-32.870127
-1.865334
56.600117
48.683979
-15.583146
-24.215640
8.715643
2.086558
-17.896091
-3.333090
20.374423
6.737966
-25.650434
-20.812698
-6.185870
-32.499516
-49.991056
-8.038238
47.342258
52.773839
7.603977
-9.511149
36.926835
20.775889
-84.211705
-78.039454
59.890882
108.212571
20.966448
-34.036226
5.098400
36.714573
3.495725
-51.180802
-63.103057
-7.879205
38.364261
8.674583
-20.791118
15.321444
52.973562
41.954466
21.638655
35.560350
72.484890
76.044690
32.875898
9.059441
27.209827
43.165090
41.932280
38.004021
35.836256
18.941601
-5.786198
12.940031
77.687147
109.426064
57.334633
-11.653092
-17.484928
4.101342
6.209495
12.493033
40.410066
52.454369
-2.212105
-70.254120
-68.190389
-54.516286
-82.828664
-87.577084
-50.124395
-20.066715
-0.075409
6.888011
-35.774609
-84.561082
-64.875817
-24.535031
-36.747662
-53.636472
-3.439729
63.267075
45.509241
-33.896257
-56.094603
-2.917412
28.185576
14.127116
5.569905
2.090069
-5.268697
-21.194730
-43.848981
-27.365569
2.598826
-18.984166
-30.277272
21.419748
41.669634
-10.246917
-25.699510
17.513007
8.663550
-59.101883
-68.117337
7.269425
34.494886
-39.454719
-74.034033
-4.246248
57.155229
24.882793
-37.299328
-7.598889
76.484430
58.921816
-54.054163
-94.240871
-6.674674
53.638009
10.362138
2.716035
58.260891
41.568470
-32.567471
-43.011426
-8.128637
-26.551157
-89.004950
-90.234487
-0.842568
61.296540
19.873278
-26.077701
-13.835839
-23.112912
-60.889638
-42.795831
13.717180
34.690901
28.045918
29.512999
35.069428
16.558766
-22.838876
-15.523591
44.510874
64.413103
33.206782
19.951882
23.173845
7.961361
0.143885
28.516121
49.643682
29.065551
17.468508
42.307132
53.623390
41.871573
35.897121
23.040378
6.679482
5.077506
-14.346835
-46.400438
-25.753564
9.030562
-27.619962
-64.058900
-17.908252
32.019157
6.373937
-64.121780
-90.200693
-41.970185
-8.992376
-22.906584
-9.604920
20.906328
3.530518
-17.896531
31.624070
76.213654
22.511126
-20.764277
36.242747
70.935926
6.272749
-54.164777
-26.137625
24.982149
9.214865
-33.820897
-33.671030
-9.493818
2.745472
-6.476892
-16.644499
-0.892639
4.145227
-20.254320
-22.852974
0.794687
9.021548
0.768508
9.265872
24.521614
3.770941
-11.324645
25.916223
56.192504
33.254891
-17.113220
-37.838877
-17.689291
-14.735026
-13.840514
28.457154
54.584703
25.263723
-9.640803
-11.505099
-14.529966
-32.750017
-14.153780
25.662832
16.331051
-30.616138
-43.516835
-15.765798
-10.614774
-17.125090
10.034908
30.086299
15.271738
12.533507
51.399032
66.503975
14.006205
-4.403456
37.879951
15.812531
-56.298258
-45.277753
15.252829
-6.889406
-76.260091
-62.553022
12.749339
21.851069
-39.119747
-38.245109
42.739928
57.311112
-26.081564
-52.413680
35.598368
84.533775
18.438122
-41.895831
-37.836874
-8.773767
14.477141
-8.409972
-36.579033
-18.340973
-17.474284
-32.600029
-4.417168
26.931774
26.472366
24.441372
38.245934
49.884832
33.397920
4.939418
10.205938
41.001716
40.438268
10.896116
15.218796
59.881325
86.762402
56.428846
0.475552
1.837658
57.146378
66.360098
28.173292
15.131615
19.139605
20.026167
18.648402
-3.412237
-12.108791
26.755331
55.818204
43.074853
26.318840
18.749656
14.454570
5.914894
-25.962893
-68.918696
-83.140580
-46.127197
8.056725
5.098257
-28.411435
7.043689
56.150236
4.459066
-59.518150
-22.152434
12.155213
-39.160244
-70.616728
-21.790505
28.701291
4.464466
-43.774453
-14.474977
34.910022
8.700416
-28.749227
-25.803144
-38.317842
-72.181035
-58.352391
-8.503538
-4.340074
-18.296832
2.248105
-1.878414
-43.961451
-40.389961
7.080238
9.615772
-16.338527
-6.915091
-20.832806
-59.451435
-10.521640
78.622923
91.860760
76.589126
74.347013
41.722945
8.389537
-1.788123
-33.087963
-58.444442
-43.597845
-24.606257
-7.329338
9.864584
3.800353
-3.047566
22.402672
37.147567
-2.014875
-28.051237
5.871112
25.543285
-1.915968
-16.565468
2.144161
-3.532200
-60.120253
-72.571123
10.932612
56.791481
-10.712099
-65.578236
-26.893436
19.142651
-7.767178
-54.996560
-39.535544
-6.712276
-42.296918
-81.640553
-22.044458
58.977519
45.800007
5.509259
24.861363
48.657719
32.822633
4.763925
-15.065587
-6.401993
15.522348
14.090109
18.907738
36.038301
21.946407
3.079438
16.594560
44.826985
65.066817
57.869839
44.314744
59.218387
43.976211
-35.486333
-59.426001
13.173897
40.063157
-9.942334
-26.604829
-5.131482
-8.388509
-18.251010
12.024102
42.392967
8.791159
-33.301931
-13.312964
16.105983
5.791785
-3.125707
17.320334
37.582377
29.663900
-2.605497
-14.896684
22.455939
38.723322
-10.806392
-35.222539
9.158263
45.507662
41.356127
30.648683
11.747813
-7.345238
14.214146
39.849318
26.604705
13.336480
6.265986
-13.192724
-24.796080
-14.114815
9.358667
13.398453
-0.652994
9.007980
19.244328
-11.024466
-28.579130
23.575899
63.440439
0.184020
-54.232290
-3.812738
16.539316
-54.586485
-81.555230
-23.223745
21.918068
21.125498
31.606398
57.199019
52.185005
29.331559
13.055999
-11.733756
-41.854088
-61.498901
-80.194730
-83.121635
-25.547653
58.602766
71.323210
-7.347696
-79.180500
-41.130460
51.338933
62.737955
10.841511
3.202422
37.163114
33.780071
-16.155515
-43.164240
-10.674366
31.909704
27.712111
0.748509
-1.805256
18.976284
35.075099
5.564744
-51.897478
-63.646956
-48.309385
-59.125779
-45.094901
14.190945
24.665299
-8.124297
19.051832
59.560484
36.730885
8.854773
4.649932
4.513631
16.990225
21.091032
-4.809962
-32.101815
-24.511584
5.012805
-4.257254
-44.136752
-36.977175
-16.064241
-47.608866
-47.058037
23.778562
34.086920
-38.158068
-59.344540
-27.301920
-44.424762
-64.472641
-5.206434
43.285460
-6.818694
-71.542659
-67.758179
-50.216368
-63.981647
-50.942069
1.857539
14.497558
-25.410698
-25.388016
39.526031
63.996658
9.805962
-13.477437
36.621813
64.950562
17.365106
-51.732270
-58.883424
-9.779917
-11.999351
-69.115786
-71.275369
-33.173893
-25.902562
-11.796869
33.387028
40.228406
-18.353471
-46.267926
10.135667
47.109305
11.584281
-5.322064
31.143765
55.780155
27.698535
-20.708719
-19.342405
31.887255
54.625444
12.732251
-48.009679
-41.458443
24.414875
27.309521
-16.532840
3.775027
36.245963
13.830653
-7.386914
8.800510
29.329316
11.669910
-13.679322
17.056137
45.411306
6.301936
-21.552901
-3.368381
-1.503845
-12.696886
-16.087411
-21.890958
0.540957
54.167039
75.919072
54.126364
42.912047
56.149417
46.132376
-4.081662
-32.119797
-1.336877
23.443064
0.482539
-8.268957
31.277619
42.859237
-19.948525
-65.669448
-34.003476
-20.438789
-74.788000
-103.338618
-74.922428
-57.441637
-48.617658
-30.500705
-50.120034
-81.576050
-68.067943
-43.761207
-29.478763
-22.165114
-32.426474
-28.660932
-8.702592
-18.447960
-44.054369
-27.185426
32.305694
57.110651
19.010350
-11.219166
-4.631457
-4.486734
-12.346762
13.715090
46.862635
23.084053
-9.173420
11.692287
28.643995
18.426589
19.494812
3.854479
-49.513484
-84.022893
-59.212091
-2.375739
20.636227
-13.114509
-17.997129
33.819830
13.857521
-72.318979
-57.089189
43.035895
86.765339
63.948365
31.154794
11.814854
9.795316
9.010461
2.979664
19.239331
51.897071
58.683039
48.963389
35.995592
-6.546389
-51.240708
-53.683185
-31.217369
0.582569
20.960107
-10.041641
-54.168534
-44.158501
3.141260
35.889012
22.914669
-26.364414
-60.068157
-57.268198
-43.296705
-34.692495
-31.780547
-24.013332
-8.955382
-12.657092
-24.604363
3.576160
47.795876
48.835341
7.139472
-34.047654
-22.462061
28.056153
42.005670
15.909222
18.414830
52.821607
27.701263
-45.592774
-30.511912
29.776690
-10.653868
-82.739174
-64.588554
-11.093399
-6.536921
-7.845482
25.327548
15.358903
-47.685462
-47.857768
18.873819
31.318617
-10.005281
10.203456
58.399362
24.408750
-20.571503
-0.132008
9.133848
-22.842134
-41.600153
-21.785364
15.945075
34.670368
32.398797
30.274751
28.295660
14.811640
-13.587010
-38.892755
-32.840443
9.628600
37.535112
1.421854
-34.104807
-0.083561
35.483084
8.995260
-30.811527
-21.740191
13.236117
9.175763
-23.985337
-35.491667
2.942035
78.429797
83.255609
2.116037
-3.691484
56.250631
21.785877
-46.159580
1.148832
88.881259
82.545823
29.873640
23.556909
44.765596
43.994770
20.486224
1.016993
-12.620165
-28.924248
-30.730797
-23.289962
-25.289861
-27.607724
-32.917023
-55.489445
-84.279471
-81.542638
-39.134149
-13.881704
-13.354488
15.885837
32.015981
-24.599193
-77.940971
-52.619789
4.604198
32.659873
26.501422
5.545475
-4.967450
-8.453131
-24.944486
-27.166726
0.461333
9.030006
-8.546168
1.823912
36.012089
34.084200
-4.072680
-19.233962
-4.820826
-10.916385
-34.918477
-25.095716
8.759534
4.209608
-40.391426
-54.733015
-8.744155
20.686482
-22.758659
-42.360920
25.282944
64.051210
20.618694
-3.529755
41.000211
96.396371
91.730248
24.808122
-28.992601
-0.592543
73.575902
84.049321
44.553952
50.402393
69.284331
60.954137
59.072305
34.916141
-34.181936
-73.973293
-26.611809
47.483223
34.892542
-47.941359
-63.364026
-9.726956
-15.846363
-72.968410
-79.762088
-39.170204
-19.209058
-49.806805
-70.023719
-11.623965
61.005626
73.566387
70.176096
81.743686
71.110589
35.550963
12.446185
12.949319
28.347444
39.240763
21.997983
8.322717
21.044798
-0.467354
-57.446550
-73.575285
-48.785758
-23.711934
-3.585026
13.815572
26.324196
13.700550
-28.721728
-50.989979
-34.133193
-34.811904
-79.219821
-92.487112
-9.984730
88.371678
90.918434
32.097617
-0.209889
-1.678601
6.836766
20.103595
21.807278
17.610854
34.871174
63.986418
69.314894
47.904211
27.718859
13.359268
-11.164660
-29.429601
-16.033950
16.688318
43.281357
40.564870
5.679047
-18.323045
-22.073617
-37.535095
-33.911703
-8.222524
-17.141185
-22.494205
-0.054106
-9.250051
-30.043510
-45.296207
-84.792979
-75.852335
28.899364
92.617538
19.545608
-48.659130
-1.496373
57.482029
67.138794
72.689144
75.075515
39.149529
-35.464060
-71.283668
-43.133306
-29.602988
-36.134111
-31.041770
-17.687034
-9.363848
-49.337567
-85.565853
-33.266103
15.091824
-18.809945
-49.967169
-34.935872
-22.604934
-13.500398
10.393218
16.189289
1.554985
-9.233119
-15.731745
-16.351539
-37.108525
-64.395468
-23.646706
33.671969
15.345773
-18.732981
-15.048333
-21.804837
-44.958479
-36.736528
-8.482359
-4.923494
-13.222359
-11.228767
-4.975623
-4.117350
-30.885498
-52.990559
-12.786778
38.288575
39.288295
35.430877
62.845480
68.218144
35.228885
38.905349
69.561083
49.392799
12.739703
31.534902
84.263670
80.565467
9.323235
-10.452738
34.434236
27.176704
-9.860287
14.726304
50.349762
19.256599
-51.860785
-91.120954
-66.003877
-25.540348
-35.608591
-79.075474
-83.698578
-38.633685
-21.105434
-50.208281
-57.551382
-31.736888
-1.201092
18.068715
5.060939
-16.767773
-23.434733
-35.487915
-13.017189
71.474807
95.757462
16.505335
-16.716318
20.705275
7.482640
-30.148430
9.334554
68.238375
38.139084
-30.968813
-44.961343
-31.691475
-43.196402
-68.118018
-75.291851
-62.339947
-54.507502
-40.958480
5.346941
42.952533
17.942307
-37.872111
-57.169033
-37.516266
-32.965166
-54.399930
-29.227911
51.916810
56.689550
-52.675898
-119.610181
-52.990583
44.782033
38.299072
-47.580506
-65.401700
-8.492403
4.764372
-7.469768
23.687227
41.571552
12.015138
1.309564
14.413670
3.083857
13.175719
53.494294
15.592721
-54.727181
-13.999461
56.403679
26.288723
-21.370846
0.325309
2.310251
-56.539791
-55.523472
9.379587
5.417428
-40.485389
-29.938324
0.510967
5.151378
4.213152
-1.113682
-29.408058
-54.250184
-27.760951
16.368753
16.271263
-3.026127
-16.689236
-45.153583
-56.383564
-18.625537
10.392214
-14.175668
-49.983352
-42.502772
2.678084
26.223810
10.465176
-0.462973
0.162203
-0.771346
7.152981
6.525940
-22.906328
-46.067919
-29.273323
-1.393464
21.229464
57.618842
67.741097
16.703157
-26.894653
-3.178255
39.371213
41.584341
29.512456
35.031711
42.171414
29.295734
-9.566278
-22.564000
7.084067
-18.210456
-90.268874
-77.577655
20.954101
80.318971
33.513930
-30.182028
-11.341706
22.937885
12.046910
15.412425
44.537956
40.681005
-5.121045
-35.549990
-29.164984
-34.746190
-64.559313
-65.160637
-6.303575
48.736045
20.297416
-32.562974
-25.483590
-15.728396
-31.974732
-4.984471
43.571717
34.749146
-12.825321
-27.026398
3.855885
12.058899
-33.890210
-51.606429
12.075039
77.177060
63.382323
5.593954
-25.388155
-21.517639
5.595131
48.436613
59.544324
18.038298
-25.476046
-28.468181
0.778457
14.225543
-3.202637
11.401512
61.489072
50.721308
-9.131724
-5.520021
23.433201
-21.346454
-62.053127
-13.032851
40.970579
25.184590
0.166649
22.387212
47.987781
28.101924
-11.795343
-10.141458
32.095657
39.443674
15.728218
31.968013
55.558861
32.597634
0.265580
-2.453480
27.333931
62.560402
51.634591
8.572177
10.269781
66.447059
98.906071
50.415586
-28.165309
-42.780908
-12.986483
-33.182356
-77.277920
-38.845621
40.923203
28.086099
-48.800233
-71.754679
-54.827754
-58.483639
-55.798241
-23.214849
-10.581844
-34.386144
-38.487413
-17.888234
-24.393874
-56.364712
-49.451324
17.652702
53.231038
15.652105
10.573797
67.827243
82.277320
36.832745
29.141052
73.120658
101.038860
98.397889
58.107843
5.581316
10.968475
13.985632
-45.936137
-46.794170
43.284178
44.853896
-60.515255
-62.865383
28.721893
13.877172
-76.324849
-81.285323
1.943467
43.088749
-13.161000
-52.398958
-35.338067
-46.741292
-52.576635
12.970535
96.019067
107.742834
32.235438
-33.401738
-30.681271
-17.612468
-2.018188
42.938691
61.050267
11.335151
-36.980921
-28.669192
-41.555159
-99.771844
-76.850357
3.734185
-15.459164
-72.670755
-34.194035
20.807242
-3.600722
-54.693137
-63.308797
-34.651094
-25.094395
-53.315592
-57.256242
-10.459846
26.461421
18.364557
-11.969934
-37.985722
-28.919763
11.549611
19.517191
-6.789207
4.881254
52.080015
71.733717
43.667995
3.550492
-1.090148
13.990013
19.366651
38.756163
51.849280
38.070675
41.808862
30.377348
-38.833888
-77.158868
-39.226662
-23.373100
-58.148102
-36.397239
33.335604
44.959306
40.798418
68.733220
57.530827
10.609589
-3.662095
-0.674163
-26.605550
-47.320218
-10.918917
30.833537
5.517738
-52.169396
-54.226809
18.553814
64.851988
4.556378
-74.268601
-78.346490
-39.146869
6.826561
44.639764
38.620189
-14.410873
-45.109152
-16.070594
-11.281021
-47.191810
-15.303497
64.692812
64.994413
-14.959806
-36.591662
46.380886
73.975747
-20.945239
-96.468299
-95.720846
-59.261563
4.683161
63.402282
91.009066
85.522782
37.283395
-8.722292
-16.083630
-22.967788
-28.535901
-12.411134
-9.877471
-8.378827
36.440111
64.928311
14.461304
-28.761495
10.364714
32.532204
-15.551006
-34.314403
-26.458812
-58.781748
-68.292618
-16.290025
31.337520
38.502240
30.100037
32.819803
22.298695
-21.212843
-40.075370
-6.521953
0.067158
-37.436024
1.782535
95.900198
58.750985
-51.632884
-41.197107
9.676480
-24.513562
-39.333033
40.785786
86.956540
18.682131
-20.362010
37.310167
38.820033
-40.645317
-59.952994
-14.792945
-2.540329
-14.396419
13.802573
54.088417
50.144260
22.769876
14.178998
16.531235
-14.503011
-68.678744
-63.022484
15.350337
52.971125
0.281407
-6.540093
61.778043
31.792611
-42.253084
5.504686
47.875300
12.658888
20.197450
36.016176
9.284734
1.758102
14.234696
32.281042
43.912692
22.395164
18.068515
40.519835
2.438472
-67.669142
-39.777126
50.211912
28.301370
-75.537344
-52.932419
76.686658
92.841818
-21.134346
-59.398305
27.501803
58.941694
-5.202688
-16.666934
42.463203
62.152910
11.295695
-22.456678
10.321234
10.067801
-47.387874
-32.770867
46.608685
52.062009
-9.858492
-11.339128
41.237204
28.074655
-29.672799
-39.235338
-36.038859
-55.960721
-35.480078
30.773861
41.616914
-30.193913
-79.978934
-47.048820
7.926271
16.826936
-1.140848
8.229515
22.506815
-5.766519
-27.017518
10.970332
30.484457
-5.431476
17.648993
76.730734
21.871143
-51.870615
0.810691
68.186858
65.514791
51.815210
36.274475
20.172392
29.893218
37.124804
4.082005
-33.936700
-17.033389
8.254594
-22.576249
-49.760088
-35.729444
-11.286404
5.186720
-14.378368
-19.312656
43.133427
71.266957
31.347245
19.357423
34.872914
18.117602
-13.895320
-27.190432
-53.043965
-78.502847
-24.510172
38.140718
-2.561279
-48.550601
-17.120998
-1.141186
-17.746868
19.664906
79.519347
73.032878
24.747199
5.823184
24.244775
27.234811
-11.014886
-38.834654
-23.023877
7.429154
27.089871
30.535811
19.387425
6.565986
9.598340
25.793011
40.457246
51.343785
60.620162
64.001808
45.095795
7.449996
-3.110857
27.504898
34.770618
-20.001766
-58.835956
-27.642021
1.065247
-14.755344
-38.777776
-52.784801
-29.788032
38.498775
50.661613
-30.300741
-47.714894
43.460432
69.796294
-26.485392
-109.892563
-77.168191
14.497874
28.366030
-53.738657
-104.838086
-41.643384
41.915995
13.339893
-54.640867
