EVENT_NAME: 202302060117
EVENT_ID: 13194
EVENT_DATE_YYYYMMDD: 2023/02/06
EVENT_TIME_HHMMSS: 01:17:32.00000
EVENT_LATITUDE_DEGREE: 37.288
EVENT_LONGITUDE_DEGREE: 37.043
EVENT_DEPTH_KM: 8.6
HYPOCENTER_REFERENCE: AFAD
MAGNITUDE_W: 7.7
MAGNITUDE_W_REFERENCE: AFAD
MAGNITUDE_L: 
MAGNITUDE_L_REFERENCE: 
FOCAL_MECHANISM: 
NETWORK: TK
STATION_CODE: 2415
STATION_NAME: 
STATION_LATITUDE_DEGREE: 39.46104
STATION_LONGITUDE_DEGREE: 38.55493
STATION_ELEVATION_M: 1772.0
LOCATION: Kahramanmaras_Pazarck_Turkiye
SENSOR_DEPTH_M: 
VS30_M/S: 444
SITE_CLASSIFICATION_EC8: B
MORPHOLOGIC_CLASSIFICATION: 
EPICENTRAL_DISTANCE_KM: 275.23
EARTHQUAKE_BACKAZIMUTH_DEGREE: 
DATE_TIME_FIRST_SAMPLE_YYYYMMDD_HHMMSS: 2023/02/06 01:17:56.9405730
DATE_TIME_FIRST_SAMPLE_PRECISION: millisecond
SAMPLING_INTERVAL_S: 0.01
NDATA: 18251
DURATION_S: 
STREAM: HNE
UNITS: cm/s^2
INSTRUMENT: sensor = ACEBOX/SARA | digitizer = 
INSTRUMENT_ANALOG/DIGITAL: 
INSTRUMENTAL_FREQUENCY_HZ: 
INSTRUMENTAL_DAMPING: 
FULL_SCALE_G: 
N_BIT_DIGITAL_CONVERTER: 
PGA_CM/S^2: 19.637
TIME_PGA_S: 
BASELINE_CORRECTION: BASELINE REMOVED
FILTER_TYPE: BUTTERWORTH
FILTER_ORDER: 
LOW_CUT_FREQUENCY_HZ: 
HIGH_CUT_FREQUENCY_HZ: 
LATE/NORMAL_TRIGGERED: 
DATABASE_VERSION: 
HEADER_FORMAT: DYNA 1.2
DATA_TYPE: Acceleration
PROCESSING: Automatic Paolucci et al., 2011
DATA_TIMESTAMP_YYYYMMDD_HHMMSS: 
DATA_LICENSE: U (unknown license)
DATA_CITATION: Turkish Accelerometric Archive v 1.0 - Disaster And Emergency Management Presidency, Earthquake Department
DATA_CREATOR: AFAD
ORIGINAL_DATA_MEDIATOR_CITATION: : AFAD - Disaster And Emergency Management Presidency
ORIGINAL_DATA_MEDIATOR: AFAD PROCESS SERVICE
ORIGINAL_DATA_CREATOR_CITATION: AFAD PROCESS SERVICE
ORIGINAL_DATA_CREATOR: network: TK
USER1: GuestUser
USER2: 
USER3: 
USER4: 
USER5: 
[...]
3.673387
3.886377
4.046996
4.155478
4.256011
4.440945
4.730620
5.080381
5.404658
5.632143
5.783177
5.857525
5.770085
5.443704
4.866693
4.076225
3.135892
2.143657
1.199818
0.370539
-0.299056
-0.784418
-1.092095
-1.255987
-1.325424
-1.373352
-1.497732
-1.763793
-2.156806
-2.571094
-2.867315
-2.977200
-2.956157
-2.929738
-2.934647
-2.925997
-2.900980
-2.876898
-2.869650
-2.916877
-3.003382
-3.023488
-2.924124
-2.736618
-2.398079
-1.847253
-1.155446
-0.410100
0.258327
0.688514
0.847029
0.780631
0.539586
0.198944
-0.142400
-0.411968
-0.597369
-0.679431
-0.608824
-0.381807
-0.045840
0.347642
0.741824
1.081298
1.322343
1.430124
1.415863
1.357180
1.314863
1.292185
1.277690
1.227190
1.091588
0.900576
0.727800
0.604823
0.517383
0.435087
0.315617
0.130216
-0.111062
-0.422246
-0.818766
-1.251758
-1.685452
-2.120080
-2.528758
-2.896053
-3.235059
-3.534786
-3.753620
-3.860465
-3.844333
-3.736318
-3.616146
-3.549046
-3.548578
-3.577101
-3.575932
-3.528704
-3.443835
-3.337457
-3.226403
-3.100152
-2.962446
-2.825440
-2.645182
-2.333764
-1.836477
-1.207795
-0.573035
-0.024313
0.410317
0.753531
1.056533
1.384551
1.764705
2.189749
2.647758
3.081453
3.453191
3.746607
3.891327
3.854622
3.606797
3.117927
2.476154
1.803052
1.172969
0.632196
0.202477
-0.089068
-0.221864
-0.205498
-0.104731
0.006089
0.127196
0.280100
0.456851
0.626588
0.772010
0.878155
0.875116
0.750736
0.575155
0.399573
0.270751
0.197105
0.170453
0.200847
0.260232
0.324292
0.366844
0.363571
0.347439
0.370819
0.485848
0.721984
1.075252
1.489307
1.827612
2.009039
2.075671
2.099987
2.131316
2.140902
2.105599
2.070997
2.042241
2.012315
2.004834
2.015822
2.036163
2.034994
1.960414
1.821538
1.648295
1.444892
1.198470
0.858996
0.387895
-0.187713
-0.783896
-1.262011
-1.477104
-1.383585
-1.032187
-0.524146
0.003535
0.411512
0.589899
0.516487
0.316357
0.149193
0.058713
-0.024752
-0.194021
-0.455873
-0.734559
-1.029845
-1.345939
-1.586983
-1.728196
-1.810493
-1.840418
-1.847666
-1.846730
-1.799503
-1.654782
-1.414906
-1.137622
-0.861039
-0.620929
-0.417759
-0.240540
-0.140942
-0.144215
-0.241708
-0.404431
-0.568089
-0.692468
-0.774063
-0.812172
-0.795104
-0.746474
-0.702286
-0.670957
-0.729874
-0.924159
-1.163567
-1.391519
-1.545357
-1.499532
-1.233471
-0.807024
-0.284253
0.202747
0.528193
0.692085
0.781162
0.831429
0.829559
0.827455
0.856212
0.899699
0.979892
1.065696
1.122977
1.180023
1.193116
1.089311
0.852241
0.525860
0.188023
-0.125498
-0.396703
-0.629799
-0.814498
-0.890248
-0.838578
-0.644293
-0.318846
0.059438
0.434449
0.725527
0.872352
0.896200
0.870248
0.898304
0.978497
1.072718
1.237078
1.530961
1.939873
2.305298
2.468723
2.450721
2.287531
1.983361
1.547797
0.960031
0.249989
-0.532062
-1.371628
-2.196464
-2.949058
-3.703989
-4.520174
-5.355532
-6.163535
-6.867030
-7.369928
-7.729508
-8.087451
-8.435575
-8.727587
-8.949461
-9.002532
-8.866696
-8.619104
-8.199671
-7.530777
-6.699394
-5.794364
-4.786698
-3.658158
-2.443113
-1.168450
0.077923
1.192435
2.187711
3.129914
4.041957
4.883394
5.596476
6.201544
6.760320
7.262750
7.629111
7.813577
7.820124
7.646413
7.323306
6.891716
6.377129
5.847578
5.346785
4.830561
4.230170
3.530415
2.736206
1.855726
1.000729
0.259826
-0.322562
-0.622056
-0.644734
-0.499780
-0.219690
0.125862
0.490119
0.900901
1.350727
1.816919
2.316545
2.847498
3.324445
3.676544
3.898184
4.041035
4.186691
4.325567
4.418852
4.433114
4.320892
4.120762
3.869430
3.615994
3.462857
3.402772
3.365365
3.326087
3.293589
3.219476
3.030101
2.753986
2.388328
1.936164
1.461790
0.887117
0.202559
-0.465868
-1.114421
-1.700083
-2.117177
-2.324554
-2.297901
-2.120683
-1.883378
-1.602353
-1.347748
-1.139200
-0.965021
-0.849992
-0.755304
-0.684931
-0.620636
-0.445288
-0.124985
0.379082
1.096138
1.915832
2.728745
3.474559
4.112358
4.625076
5.023935
5.383281
5.715508
5.914937
5.875192
5.585751
5.142939
4.639574
4.120545
3.625596
3.204995
2.877212
2.598292
2.393486
2.329426
2.341817
2.345559
2.284304
2.107787
1.834011
1.481679
1.090770
0.745452
0.478456
0.261492
0.030267
-0.208673
-0.377708
-0.498114
-0.632780
-0.789190
-0.950276
-1.122818
-1.354745
-1.656577
-2.002363
-2.362176
-2.653955
-2.857592
-3.017509
-3.112664
-3.105884
-2.994596
-2.786750
-2.437924
-1.820933
-0.946531
-0.032149
0.800871
1.581287
2.308396
2.956249
3.532092
4.094375
4.684012
5.267570
5.837334
6.344441
6.646040
6.728570
6.695605
6.581746
6.382785
6.105035
5.678822
4.995433
4.107706
3.187714
2.363345
1.709414
1.203711
0.744767
0.262210
-0.271782
-0.884799
-1.588060
-2.313065
-2.986869
-3.618589
-4.181104
-4.540918
-4.658050
-4.621811
-4.409055
-4.015574
-3.581880
-3.108440
-2.565329
-2.077160
-1.666378
-1.221461
-0.694482
-0.146694
0.312250
0.608238
0.742204
0.729345
0.543009
0.264089
0.082663
0.022811
-0.012024
-0.027688
-0.029324
-0.106243
-0.326480
-0.671331
-1.081878
-1.555084
-2.169503
-2.966985
-3.878794
-4.786161
-5.609360
-6.363590
-7.078074
-7.774088
-8.448827
-8.992873
-9.421657
-9.905383
-10.454105
-11.011009
-11.561835
-11.976591
-12.134170
-12.128559
-12.089514
-12.028025
-11.995060
-12.050937
-12.165497
-12.315595
-12.475745
-12.611114
-12.694345
-12.642208
-12.395552
-11.990381
-11.466674
-10.881012
-10.307039
-9.696828
-8.994033
-8.251493
-7.470142
-6.625198
-5.717363
-4.709229
-3.599159
-2.462203
-1.357978
-0.286251
0.679566
1.457176
2.155762
2.848738
3.482095
3.988266
4.230481
4.098152
3.573277
2.754052
1.800861
0.765841
-0.310562
-1.371299
-2.365639
-3.185799
-3.815883
-4.337250
-4.839914
-5.339772
-5.762945
-6.115978
-6.363569
-6.341826
-5.977803
-5.324573
-4.502074
-3.588394
-2.581429
-1.520223
-0.488008
0.399253
1.079604
1.614766
2.044953
2.400793
2.744709
3.084651
3.431840
3.813865
4.206411
4.560848
4.822234
4.864785
4.556641
3.958120
3.189161
2.312656
1.447606
0.594013
-0.263088
-0.961440
-1.539620
-2.152402
-2.706034
-3.077771
-3.255223
-3.279304
-3.245871
-3.218282
-3.203786
-3.210566
-3.271353
-3.384511
-3.496733
-3.619009
-3.749000
-3.807449
-3.800668
-3.786172
-3.791783
-3.763259
-3.519642
-3.020251
-2.385491
-1.724312
-1.146131
-0.665911
-0.287393
-0.012447
0.201244
0.279566
0.224157
0.130170
0.047874
0.097206
0.317443
0.664399
1.136669
1.691471
2.261936
2.700774
2.936676
3.076253
3.061524
2.807621
2.394735
1.789902
0.970911
0.047879
-0.926587
-1.857802
-2.596133
-3.129892
-3.534828
-3.898149
-4.307060
-4.768809
-5.203906
-5.536131
-5.735560
-5.817389
-5.765485
-5.526778
-5.115528
-4.509058
-3.701755
-2.798129
-1.771291
-0.545024
0.779204
2.043113
3.091460
3.797762
4.126013
4.125546
3.924715
3.638313
3.326194
3.076265
2.938559
2.802022
2.495748
1.909385
1.031476
-0.018741
-1.079712
-2.047399
-2.922502
-3.677900
-4.164900
-4.398229
-4.487072
-4.455509
-4.416464
-4.426050
-4.462054
-4.597656
-4.743078
-4.716892
-4.551597
-4.297459
-3.972948
-3.626460
-3.212171
-2.697583
-2.150263
-1.646897
-1.178134
-0.707032
-0.308875
0.065435
0.510118
0.945215
1.450685
2.074924
2.667600
3.224740
3.705661
4.011001
4.167411
4.208794
4.178868
4.155255
4.209262
4.347437
4.463401
4.420616
4.178636
3.805730
3.342578
2.811391
2.185983
1.383124
0.444662
-0.609763
-1.768462
-2.920615
-4.112513
-5.355145
-6.550784
-7.722342
-8.825864
-9.833063
-10.768953
-11.543289
-12.178048
-12.747110
-13.245332
-13.694924
-14.077650
-14.361011
-14.482586
-14.292041
-13.715730
-12.777267
-11.497928
-9.962114
-8.326468
-6.691523
-5.098896
-3.560276
-2.079404
-0.683634
0.688055
2.089670
3.488713
4.854557
6.094852
7.184348
8.107847
8.703797
8.930113
8.848284
8.497355
7.897665
7.019757
5.883269
4.508074
2.988392
1.469645
-0.025021
-1.430376
-2.733561
-4.004483
-5.218592
-6.417737
-7.617351
-8.697026
-9.595509
-10.331269
-10.926984
-11.339402
-11.514983
-11.422165
-10.980989
-10.228863
-9.344408
-8.439612
-7.585550
-6.776845
-5.901742
-4.904830
-3.828193
-2.768390
-1.713730
-0.653459
0.281496
1.233753
2.355279
3.453659
4.455247
5.286396
5.843535
6.175294
6.282140
6.300376
6.284712
6.179738
6.123860
5.981946
5.627977
5.243849
4.860655
4.563499
4.447770
4.432340
4.462032
4.409662
4.155057
3.752926
3.308244
2.845326
2.418646
2.077069
1.631218
1.057246
0.505952
-0.066851
-0.596635
-1.078257
-1.612016
-2.147879
-2.716707
-3.283899
-3.812515
-4.364743
-4.874421
-5.428053
-6.110740
-6.784310
-7.432162
-8.047516
-8.512538
-8.815072
-9.051206
-9.233568
-9.306746
-9.363792
-9.478820
-9.539841
-9.441880
-9.166934
-8.722251
-8.062007
-7.137105
-5.962039
-4.614665
-3.276877
-2.073990
-1.006939
-0.122951
0.580078
1.200108
1.728724
2.093215
2.266926
2.125713
1.625154
0.995304
0.318461
-0.428988
-1.054629
-1.576698
-2.194390
-2.892275
-3.684847
-4.555274
-5.357198
-6.105583
-6.796454
-7.349618
-7.770452
-7.967309
-7.906756
-7.716912
-7.423730
-7.023702
-6.475915
-5.729166
-4.873234
-3.968906
-3.059434
-2.185733
-1.308058
-0.485091
0.221210
0.814354
1.290834
1.706058
2.085979
2.472914
2.865693
3.151862
3.371631
3.564982
3.681180
3.717886
3.624134
3.383323
2.998727
2.481801
1.858031
1.135364
0.484005
-0.065652
-0.620687
-1.113531
-1.566396
-1.918027
-2.076307
-2.191101
-2.279710
-2.301219
-2.231547
-2.013882
-1.714387
-1.328153
-0.832737
-0.226032
0.504117
1.191715
1.796081
2.417047
3.022816
3.659446
4.362241
5.026460
5.603004
6.041140
6.281251
6.354196
6.317724
6.254131
6.254131
6.319595
6.311646
6.063354
5.518840
4.700083
3.748528
2.771256
1.745354
0.814607
0.083056
-0.496527
-0.874577
-1.085462
-1.157237
-1.066056
-0.949391
-0.873406
-0.799760
-0.701331
-0.489744
-0.105848
0.422066
1.046539
1.793989
2.729646
3.786176
4.832419
5.797535
6.577717
7.107969
7.452119
7.654354
7.694568
7.534651
7.172967
6.635233
5.920515
5.059207
4.083571
3.076606
2.121311
1.133986
0.102472
-0.957330
-2.063892
-3.012174
-3.653713
-3.985939
-3.984068
-3.778092
-3.524188
-3.231941
-2.871893
-2.433990
-1.841782
-0.958028
0.219843
1.640863
3.246350
4.862357
6.407056
7.817789
8.947965
9.887830
10.768545
11.458247
11.893578
12.123869
12.092774
11.793280
11.231699
10.328541
9.158152
7.915520
6.690890
5.480055
4.309198
3.252201
2.307193
1.391877
0.426762
-0.632573
-1.772568
-2.963765
-4.110072
-5.100204
-5.955667
-6.693999
-7.252774
-7.592481
-7.707275
-7.613990
-7.310988
-6.784944
-6.105762
-5.329321
-4.438086
-3.557605
-2.797764
-2.059665
-1.399188
-0.945387
-0.684235
-0.558218
-0.367439
-0.095299
0.182920
0.705458
1.453609
2.194981
2.888891
3.522015
4.118899
4.590469
4.906563
5.152752
5.310098
5.521919
5.848300
6.342781
7.193570
8.209186
9.255195
10.358952
11.376204
12.222551
12.765896
13.018865
13.096252
12.833932
12.147737
11.112483
9.748277
8.080835
6.321979
4.809311
3.472458
2.028059
0.611949
-0.600055
-1.755481
-2.959537
-4.163125
-5.374194
-6.665690
-7.961394
-9.000389
-9.666009
-10.029797
-10.164231
-10.275985
-10.456009
-10.415094
-10.047798
-9.607558
-9.168018
-8.646416
-8.134166
-7.643425
-7.007496
-6.288803
-5.612427
-4.886253
-4.175509
-3.658115
-3.315368
-3.095832
-2.929134
-2.729003
-2.615611
-2.725730
-2.945265
-3.219041
-3.638005
-4.067023
-4.301755
-4.320692
-4.199819
-3.995947
-3.725210
-3.587503
-3.706038
-3.918325
-4.230678
-4.604286
-4.845097
-4.999636
-5.143655
-5.237875
-5.265930
-5.237173
-5.153006
-4.989815
-4.776358
-4.570382
-4.413036
-4.355054
-4.363470
-4.377965
-4.541623
-4.899800
-5.197190
-5.437533
-5.775370
-6.102686
-6.393997
-6.662863
-6.810155
-6.823248
-6.671279
-6.267511
-5.592304
-4.746191
-3.859632
-2.878618
-1.674094
-0.287910
1.221953
2.831882
4.368397
5.712498
6.901358
7.946899
8.849825
9.554724
10.014136
10.268975
10.368573
10.418606
10.474952
10.617802
10.976681
11.445679
11.964709
12.557386
13.069636
13.469663
13.799084
14.000384
14.049715
13.921828
13.684291
13.453066
13.288005
13.286603
13.447222
13.724973
14.197010
14.913132
15.732825
16.462273
17.147767
17.800529
18.251524
18.498181
18.533952
18.395077
18.239602
18.029185
17.797960
17.720573
17.800532
17.929355
17.963490
17.744422
17.216742
16.487762
15.599333
14.564079
13.577689
12.671725
11.759448
10.920584
10.209139
9.581861
8.995732
8.498913
8.079247
7.682494
7.383701
7.132369
6.881973
6.681609
6.424432
6.034459
5.512624
4.936781
4.353458
3.643416
2.846869
1.975273
0.945630
-0.107159
-1.191744
-2.384811
-3.586295
-4.825186
-6.150115
-7.550794
-9.012027
-10.379506
-11.521606
-12.401385
-13.014868
-13.440846
-13.724910
-13.802998
-13.573876
-13.018841
-12.174833
-11.026654
-9.669460
-8.311332
-7.044852
-5.827001
-4.662223
-3.702719
-3.002262
-2.485336
-2.136510
-1.868344
-1.550146
-1.139831
-0.632257
-0.034437
0.630249
1.252618
1.759491
2.194354
2.592511
2.985992
3.407529
3.907388
4.508013
5.171063
5.924358
6.761352
7.663810
8.702805
9.844204
10.981394
12.017818
12.900637
13.735527
14.601512
15.485266
16.362474
17.060126
17.406380
17.338579
16.750111
15.601232
13.977277
12.030681
9.991501
8.014512
6.065812
4.064742
2.058294
0.083409
-1.955771
-4.095249
-6.368927
-8.735890
-10.962809
-13.011574
-14.979679
-16.758174
-18.178726
-19.150621
-19.634815
-19.637153
-19.248581
-18.623407
-17.884373
-17.172460
-16.554534
-15.907850
-15.089560
-13.998661
-12.602190
-11.006523
-9.339782
-7.714423
-6.276102
-5.121377
-4.276433
-3.730984
-3.455103
-3.414889
-3.528281
-3.647049
-3.656167
-3.500458
-3.106743
-2.485076
-1.767084
-1.098190
-0.658417
-0.427425
-0.239451
-0.155284
-0.162297
-0.130033
-0.117174
-0.095664
0.049758
0.231886
0.292908
0.227211
0.057708
-0.321510
-0.916758
-1.676365
-2.639843
-3.668784
-4.576151
-5.364749
-6.060062
-6.659050
-7.166857
-7.624398
-8.051312
-8.400137
-8.661990
-8.802268
-8.806008
-8.773276
-8.673912
-8.447128
-8.151141
-7.794366
-7.429875
-7.127575
-6.875541
-6.664890
-6.447692
-6.260186
-6.215296
-6.320739
-6.542846
-6.794645
-6.944509
-6.907335
-6.676576
-6.367730
-6.137205
-6.059117
-6.082730
-6.117799
-6.001602
-5.574220
-4.976166
-4.321767
-3.521011
-2.608500
-1.583766
-0.440498
0.739478
1.964342
3.235965
4.527930
5.783187
6.996362
8.253958
9.512021
10.738522
11.899793
12.929904
13.827686
14.420129
14.719623
14.936354
14.996440
14.940797
14.859903
14.719157
14.673567
14.734121
14.779478
14.840733
14.908067
14.948047
14.971661
14.962075
14.847048
14.581922
14.215796
13.782803
13.296973
12.816988
12.459746
12.292581
12.251901
12.267098
12.273644
12.237406
12.119105
11.822417
11.418649
11.016986
10.609010
10.275849
10.064964
9.966770
10.051872
10.248263
10.389243
10.459148
10.455408
10.323079
10.070812
9.609063
8.849456
7.867040
6.624642
5.199180
3.961458
3.095005
2.592809
2.405304
2.385198
2.418164
2.466326
2.551195
2.662483
2.768627
2.938131
3.128676
3.199049
3.234119
3.392634
3.688388
4.107353
4.591313
5.027346
5.388095
5.679641
5.828336
5.735051
5.375705
4.741647
3.812537
2.685401
1.433651
0.048402
-1.424286
-2.942565
-4.314253
-5.303917
-6.021207
-6.603128
-7.083581
-7.609390
-8.202066
-8.769024
-9.301848
-9.790718
-10.181860
-10.402097
-10.446050
-10.338036
-10.038073
-9.545696
-8.808767
-7.740547
-6.440166
-5.047903
-3.654705
-2.357129
-1.149800
-0.027105
0.908318
1.623037
2.172928
2.523391
2.658759
2.744330
2.902377
3.166568
3.657309
4.387926
5.214399
6.033859
6.728471
7.141591
7.161231
6.806794
6.212950
5.454745
4.678305
4.069263
3.511657
2.922255
2.378209
1.718200
0.848474
-0.140956
-1.229282
-2.272251
-3.086566
-3.597413
-3.795439
-3.747510
-3.410608
-2.715295
-1.708096
-0.493752
0.659804
1.466638
1.896124
2.106542
2.247522
2.388502
2.602895
2.893038
3.196741
3.515173
3.784040
3.914967
3.991419
4.158584
4.466028
4.976408
5.829534
6.986831
8.255883
9.541768
10.700468
11.591937
12.296836
12.904710
13.437300
13.915650
14.294168
14.523523
14.581038
14.474660
14.221926
13.833355
13.358981
12.801842
12.177370
11.554067
10.997396
10.661430
10.592460
10.696734
10.965367
11.335001
11.781086
12.327471
12.818913
13.153711
13.302173
13.217538
12.988184
12.701081
12.322564
11.782726
11.103779
10.371059
9.580357
8.823789
8.217787
7.613889
6.837449
5.862514
4.718545
3.432894
2.055595
0.704247
-0.610863
-1.898851
-3.022715
-3.950422
-4.711665
-5.262024
-5.612953
-5.813551
-5.871065
-5.796950
-5.665790
-5.512419
-5.277920
-4.913429
-4.420117
-3.846144
-3.214190
-2.521448
-1.801118
-1.083594
-0.388982
0.318956
1.014270
1.544990
1.816896
1.788841
1.557148
1.346731
1.249706
1.327093
1.619574
2.041344
2.538397
3.073092
3.613164
4.183396
4.764616
5.328536
5.833304
6.123915
6.059855
5.657724
5.069724
4.523574
4.180594
4.040082
3.944693
3.707155
3.287957
2.663485
1.788382
0.781417
-0.217598
-1.142733
-2.034903
-3.047479
-4.193787
-5.439926
-6.776544
-8.048167
-9.159873
-10.141821
-11.095012
-12.145463
-13.251558
-14.359522
-15.375137
-16.098272
-16.556514
-16.822108
-16.910483
-16.941344
-16.928017
-16.902533
-16.936900
-16.933159
-16.828885
-16.573578
-16.103178
-15.431712
-14.473844
-13.200116
-11.775823
-10.340541
-8.946642
-7.609789
-6.380716
-5.351073
-4.563409
-4.012583
-3.610451
-3.215099
-2.740491
-2.140800
-1.481258
-0.900271
-0.404855
0.045907
0.399409
0.551845
0.457859
0.189460
-0.192798
-0.622284
-0.990748
-1.308010
-1.587632
-1.821428
-2.135652
-2.573320
-3.025483
-3.470633
-3.915081
-4.267413
-4.440891
-4.358827
-4.020756
-3.595011
-3.230053
-3.000698
-2.924713
-2.879356
-2.751469
-2.566301
-2.406383
-2.263533
-2.051479
-1.758764
-1.364815
-0.841109
-0.282099
0.219630
0.665248
1.149676
1.736975
2.352330
2.960671
3.596132
4.220839
4.748519
5.115815
5.307062
5.421389
5.618948
5.885945
6.144759
6.512522
7.032955
7.512707
7.786251
7.780406
7.480678
6.949725
6.238280
5.358735
4.342185
3.232817
2.057519
0.910978
-0.096221
-1.017148
-1.973378
-2.972861
-3.927455
-4.801389
-5.656619
-6.500159
-7.316813
-8.134635
-8.921830
-9.617377
-10.202805
-10.702897
-11.155060
-11.597171
-12.091885
-12.680820
-13.342934
-13.966705
-14.475447
-14.950289
-15.417649
-15.819547
-16.204610
-16.648825
-17.163880
-17.727331
-18.216668
-18.470572
-18.480391
-18.333098
-18.056282
-17.660229
-17.176736
-16.623104
-15.963561
-15.181743
-14.350359
-13.563631
-12.907128
-12.373369
-11.863924
-11.343024
-10.776532
-10.106002
-9.313896
-8.375200
-7.270274
-6.001689
-4.586280
-3.029658
-1.372035
0.175703
1.418804
2.352123
3.023121
3.478325
3.715396
3.756077
3.740647
3.831126
4.152598
4.651054
5.183411
5.723483
6.199962
6.555802
6.797782
6.847581
6.707537
6.457608
6.155309
5.875688
5.608925
5.300313
4.962009
4.634459
4.283998
3.808688
3.209934
2.561848
1.907216
1.341894
0.975768
0.806266
0.777275
0.883653
1.080745
1.322725
1.618011
1.885008
2.076722
2.280360
2.533563
2.768997
2.927044
3.045580
3.107537
2.983157
2.593885
1.928966
