EVENT_NAME: 202302060117
EVENT_ID: 13194
EVENT_DATE_YYYYMMDD: 2023/02/06
EVENT_TIME_HHMMSS: 01:17:32.00000
EVENT_LATITUDE_DEGREE: 37.288
EVENT_LONGITUDE_DEGREE: 37.043
EVENT_DEPTH_KM: 8.6
HYPOCENTER_REFERENCE: AFAD
MAGNITUDE_W: 7.7
MAGNITUDE_W_REFERENCE: AFAD
MAGNITUDE_L: 
MAGNITUDE_L_REFERENCE: 
FOCAL_MECHANISM: 
NETWORK: TK
STATION_CODE: 3133
STATION_NAME: 
STATION_LATITUDE_DEGREE: 36.2432
STATION_LONGITUDE_DEGREE: 36.5736
STATION_ELEVATION_M: 170.0
LOCATION: Kahramanmaras_Pazarck_Turkiye
SENSOR_DEPTH_M: 
VS30_M/S: 377
SITE_CLASSIFICATION_EC8: B
MORPHOLOGIC_CLASSIFICATION: 
EPICENTRAL_DISTANCE_KM: 123.47
EARTHQUAKE_BACKAZIMUTH_DEGREE: 
DATE_TIME_FIRST_SAMPLE_YYYYMMDD_HHMMSS: 2023/02/06 01:17:33.3250540
DATE_TIME_FIRST_SAMPLE_PRECISION: millisecond
SAMPLING_INTERVAL_S: 0.01
NDATA: 12501
DURATION_S: 
STREAM: HNZ
UNITS: cm/s^2
INSTRUMENT: sensor = GMS+/GEOSIG | digitizer = 
INSTRUMENT_ANALOG/DIGITAL: 
INSTRUMENTAL_FREQUENCY_HZ: 
INSTRUMENTAL_DAMPING: 
FULL_SCALE_G: 
N_BIT_DIGITAL_CONVERTER: 
PGA_CM/S^2: 87.595
TIME_PGA_S: 
BASELINE_CORRECTION: BASELINE REMOVED
FILTER_TYPE: BUTTERWORTH
FILTER_ORDER: 
LOW_CUT_FREQUENCY_HZ: 
HIGH_CUT_FREQUENCY_HZ: 
LATE/NORMAL_TRIGGERED: 
DATABASE_VERSION: 
HEADER_FORMAT: DYNA 1.2
DATA_TYPE: Acceleration
PROCESSING: Automatic Paolucci et al., 2011
DATA_TIMESTAMP_YYYYMMDD_HHMMSS: 
DATA_LICENSE: U (unknown license)
DATA_CITATION: Turkish Accelerometric Archive v 1.0 - Disaster And Emergency Management Presidency, Earthquake Department
DATA_CREATOR: AFAD
ORIGINAL_DATA_MEDIATOR_CITATION: : AFAD - Disaster And Emergency Management Presidency
ORIGINAL_DATA_MEDIATOR: AFAD PROCESS SERVICE
ORIGINAL_DATA_CREATOR_CITATION: AFAD PROCESS SERVICE
ORIGINAL_DATA_CREATOR: network: TK
USER1: GuestUser
USER2: 
USER3: 
USER4: 
USER5: 
[...]
-16.797324
-14.402262
-11.975508
-7.866757
-4.554195
-2.807774
-1.093563
-0.285423
0.215671
2.805559
6.161762
7.855451
10.593666
13.551385
11.162821
6.900291
4.660574
3.599683
5.388187
6.238150
2.084722
-2.669289
-2.292104
4.515116
12.551298
16.548349
13.263066
-0.221745
-14.465857
-15.955625
-8.606528
0.230518
7.366605
8.348010
5.676039
2.210736
-0.523060
-0.881797
-1.110132
-1.217933
-2.018277
-5.697628
-9.709222
-11.064949
-10.225897
-11.948676
-18.718226
-22.085856
-19.928481
-20.232408
-18.910707
-11.422375
-4.611778
-2.949522
-5.463034
-8.032917
-9.110692
-9.109651
-4.484481
2.153370
3.754322
3.300249
3.776665
0.149268
-5.774998
-7.091760
-5.191815
-6.412463
-11.077893
-14.905312
-17.422981
-16.862660
-9.756966
2.057800
12.876617
20.590687
24.607480
19.345103
9.640435
6.134869
6.088632
6.834687
10.477934
15.845261
20.992044
22.020207
19.224587
16.944865
12.946779
8.319275
8.088863
11.108926
14.141978
15.700068
14.823873
9.873217
2.305140
-5.680903
-10.615972
-6.715036
4.585131
14.320195
16.862286
17.580286
16.044800
4.650341
-8.185569
-14.599238
-19.100495
-20.173334
-13.295977
-2.813820
2.671182
4.165369
7.680030
8.926399
4.914025
1.567956
0.280808
0.031433
0.836195
3.809761
10.374617
15.044987
13.036463
6.283278
-3.943784
-17.739277
-28.778373
-29.517151
-21.234449
-11.000111
-4.660213
-2.839757
-4.954267
-8.234095
-5.353786
4.289840
11.926759
12.980120
8.853968
0.563996
-7.130848
-8.928960
-7.460749
-6.593383
-3.336151
6.025887
17.177206
24.107556
26.389360
23.114467
15.035686
6.913005
0.354646
-3.391725
-2.662035
-0.359451
0.157749
-0.766763
-1.990009
-4.010741
-4.855245
-1.674385
1.596095
0.721198
-1.371491
-0.532438
5.124789
12.768722
14.964282
10.206894
3.054966
-1.383687
-3.540538
-6.834134
-7.351590
-5.299941
-6.539552
-12.195737
-17.584881
-18.848130
-17.147428
-11.463704
-1.842158
6.640046
7.620671
0.336781
-10.522556
-18.122324
-19.170486
-16.577221
-9.568941
-3.138644
-2.039304
-2.926410
-6.455875
-11.576159
-15.887525
-14.205266
-6.537695
-0.280923
2.428459
0.177052
-4.085738
-7.812367
-10.208984
-8.625956
-3.640489
2.299366
3.593272
0.681276
-3.366426
-8.685692
-12.494408
-14.308366
-13.353457
-8.060164
-1.905481
1.969739
3.334301
1.159526
-1.281252
-0.769507
-0.632608
0.040972
3.996980
6.573880
2.947781
-2.178218
-1.198891
3.148327
3.418228
1.007583
-1.990137
-6.194479
-10.349725
-16.342829
-21.322059
-21.449343
-14.918516
-2.759817
3.596446
1.469468
-3.988514
-9.568067
-10.924054
-7.867883
-3.358829
0.525742
6.428450
9.982857
5.918789
1.169714
-2.374818
-4.921581
-2.591201
2.154761
2.863929
-0.585008
-1.190265
2.380766
7.392990
15.590228
23.947484
29.187264
33.590852
37.176690
37.366842
33.132107
25.083719
14.037350
7.281048
8.405845
10.384239
10.089144
8.625354
5.293832
2.332220
5.440345
14.391170
19.194800
16.154218
17.556447
23.252640
24.852293
29.726060
38.047727
38.711436
29.651512
22.212540
24.131967
29.086522
34.131217
39.806888
42.836044
41.328612
35.092625
24.327325
11.486479
4.177131
3.424844
1.631149
-1.280069
-4.187130
-10.345966
-16.901467
-18.585801
-15.202062
-10.545460
-8.641619
-11.724024
-18.765811
-22.313979
-17.752972
-11.741421
-8.294039
-0.928578
5.550556
-1.827631
-13.952817
-16.978072
-14.222192
-15.518692
-22.567753
-28.525528
-37.115273
-48.455180
-50.869461
-43.438019
-29.652133
-15.438150
-6.241065
0.750331
0.732928
-4.173827
-1.687846
0.044289
-5.600207
-10.513715
-13.834846
-18.694063
-25.389580
-25.676362
-15.948831
-8.173196
-4.215370
-2.068126
-7.414668
-14.534385
-18.238155
-20.817908
-21.670465
-21.524993
-19.008619
-14.587108
-14.235120
-15.830094
-16.910726
-24.544005
-36.040033
-38.433533
-30.568278
-22.778615
-14.003653
4.833680
23.420596
31.549515
42.271957
57.401622
62.584514
60.272841
63.358626
67.904566
59.817213
44.726777
29.828049
14.761252
8.129638
10.340005
21.917084
36.136262
37.118706
33.721203
35.012771
28.531823
8.531253
-9.540799
-17.519829
-26.509875
-33.803118
-27.394641
-17.428384
-14.812779
-11.874542
-7.717474
-9.179186
-12.077935
-11.252391
-7.936191
-2.953581
-6.294195
-17.172494
-18.121944
-12.730979
-6.755795
1.053350
4.763617
8.406084
7.527031
-5.498250
-13.447406
-14.001490
-15.322148
-7.589375
0.812041
-0.767606
-1.264020
2.883696
6.377057
6.524607
7.966061
13.312346
13.440154
7.407565
5.778822
5.142392
-2.962106
-9.218095
-8.876498
-8.030952
-7.569083
-5.554061
0.180058
7.377969
10.770280
9.878758
8.494457
4.712757
3.672908
8.428481
8.162740
13.680473
23.203567
18.518914
12.666604
13.126914
14.863465
20.629795
28.396338
30.609562
25.468757
22.681449
21.687579
12.743511
2.605550
-0.317097
-1.513846
-5.198393
-4.854718
-1.483188
-6.030943
-14.631338
-19.038559
-22.584389
-23.649176
-15.405180
1.344658
18.287243
26.921671
26.451493
19.136690
9.396953
-1.706565
-14.411553
-20.397643
-21.859615
-22.313428
-16.987924
-14.237240
-20.661299
-29.681478
-36.665337
-40.161292
-43.023154
-45.405484
-39.859696
-28.645773
-17.840205
-9.955727
-7.955512
-6.909945
-10.162757
-15.007427
-4.527868
6.050663
14.089443
31.783797
37.746512
31.964599
24.849817
15.740277
10.998995
7.077021
3.655359
9.321419
14.730309
9.447410
7.413689
5.555830
2.829308
7.038329
5.804174
9.122451
15.361039
20.258446
31.679664
32.192707
31.800200
32.547554
16.580920
2.350835
-2.662424
-8.089234
-6.097852
3.209375
10.326239
13.896491
8.918560
-3.780973
-20.868765
-32.739118
-32.040860
-29.144186
-18.471879
-3.700174
5.602896
11.526386
9.277837
8.842987
11.815773
9.844396
11.440931
19.110321
20.453583
17.179470
17.149598
14.255785
12.982924
15.055095
17.748111
22.720330
24.977715
28.699672
30.326340
20.259296
5.235100
-7.341822
-13.271282
-14.756114
-18.844080
-20.625307
-13.433371
-6.501721
-4.210307
-0.497702
-3.664011
-10.188601
-2.786772
10.281895
17.559555
20.932643
22.066791
21.535308
18.214177
16.766752
19.582378
15.763012
4.165935
-7.585964
-21.533941
-31.477856
-26.775795
-13.813114
-2.290586
7.155356
13.941276
13.542793
2.331471
-15.835656
-26.410547
-24.234469
-20.047009
-13.666068
-5.817957
-6.113052
-6.467633
-1.527365
2.928436
-0.824689
-12.845968
-12.831939
-3.745515
0.913165
7.083954
8.812971
1.472970
-9.893953
-17.912467
-15.518704
-13.607849
-13.184166
0.677052
19.816495
24.582978
17.375459
11.445219
6.633020
0.741485
-6.512792
-13.322866
-10.643618
-1.777997
3.741814
6.096092
7.672366
12.638611
14.340612
5.830876
1.782914
4.511259
9.167081
21.747124
33.180551
37.327228
38.617237
33.841406
23.864761
15.759743
9.617273
2.153103
-2.613636
-5.987760
-15.119640
-26.380578
-35.794306
-42.521514
-43.938286
-41.394377
-36.223175
-28.199202
-17.645869
-13.832994
-25.669837
-39.378048
-41.339554
-34.778334
-28.538447
-25.345378
-19.620610
-13.212913
-5.886157
5.146448
13.498768
14.852160
9.349758
6.918072
7.227718
-0.690267
0.512980
15.192207
19.620473
18.458793
23.322429
23.840928
15.989184
0.318946
-18.061971
-24.998812
-23.338893
-21.878736
-21.998227
-18.782818
-12.049372
-12.202633
-14.304933
-13.916059
-12.137426
-9.039952
-11.841547
-17.527345
-22.429684
-29.816962
-32.236699
-22.300314
-9.653511
-5.166278
-7.502629
-5.932590
-3.581688
-5.762958
-0.993617
3.462444
6.478611
8.465837
-0.007011
-2.102298
7.667835
18.614198
21.106153
12.871252
2.156346
-11.882030
-25.915730
-33.848002
-30.607915
-14.053163
3.066064
14.633532
21.299438
14.549111
-1.041119
-7.755079
-10.932039
-16.202469
-16.330013
-16.816556
-16.856559
-12.495314
-4.972952
4.910180
12.575154
15.599374
16.198141
19.526029
21.625475
19.034552
19.505773
22.375171
20.918394
16.599495
15.942024
22.776779
31.124943
35.302792
37.523290
34.092797
22.979147
12.779621
2.285778
-10.157623
-14.565883
-16.053572
-15.807830
-9.877066
-12.180687
-16.020574
-12.719182
-13.702142
-14.916036
-10.626746
-6.388631
-6.063399
-8.154789
-5.061211
3.389301
10.549806
18.181789
23.173231
17.685376
6.963716
-1.868651
-6.562915
-6.227293
-4.396967
-2.228422
4.182911
9.220073
9.173576
13.059447
14.059815
6.865544
2.065294
-5.543826
-18.304924
-28.219484
-37.494236
-45.164142
-47.972232
-49.007665
-47.433729
-46.940428
-51.964338
-46.802228
-32.178331
-24.615187
-21.051429
-18.738453
-11.049840
0.175253
3.191680
3.310915
0.777140
-5.358316
-7.995219
0.209813
16.840936
26.776541
33.949255
42.815656
40.181870
34.614526
32.606782
21.838364
16.132823
24.816607
30.162113
26.195458
19.861019
17.188269
14.770870
8.304210
5.986042
12.326200
19.570609
25.014827
27.384952
25.461112
23.045272
21.750331
25.436959
28.628729
27.452502
28.164008
24.501282
14.883636
5.805788
-2.845781
-9.728590
-13.551852
-11.826472
-5.502680
-1.623044
1.887202
9.608026
12.132972
3.325802
-3.177227
-3.034612
-5.167565
-9.025117
-13.366616
-15.645559
-13.012289
-6.870854
1.945151
7.258706
9.075524
12.013761
12.975684
9.544151
1.623050
-10.226522
-24.594544
-36.170840
-40.686124
-42.442933
-41.627779
-32.250156
-26.931925
-34.163083
-35.236702
-33.897337
-44.205186
-51.063317
-41.824410
-26.512128
-16.695236
-6.347120
10.226076
23.673483
24.010664
13.116778
-2.602296
-18.054070
-28.193070
-28.594669
-16.540397
-5.136843
-3.580572
-4.009187
-6.606085
-13.394599
-19.107932
-17.573741
-11.424773
-8.151955
-5.284375
-3.513536
-10.807298
-26.403242
-41.299632
-48.486110
-50.038481
-51.957125
-45.669701
-27.813512
-17.187703
-16.719340
-16.548411
-15.344125
-9.451028
0.629008
13.771449
31.622183
36.897292
29.976816
21.861408
6.395088
1.516648
9.087326
17.834233
31.600116
41.696518
44.664368
43.529964
35.361044
22.171849
13.319999
9.621684
11.842182
18.108826
18.834099
11.263165
0.352135
-7.938097
-14.999626
-20.846221
-22.098301
-11.823439
2.678107
8.280004
10.657922
16.785329
31.481701
44.399702
45.727638
40.167827
29.146655
21.601178
14.352355
2.105858
-5.655226
-12.688181
-10.640169
-6.808071
-12.743766
-14.652020
-27.577550
-37.745904
-34.612062
-35.864401
-25.307691
-9.179738
0.134243
8.136655
8.716199
0.553514
-9.594059
-18.527736
-23.978964
-22.054861
-15.946676
-9.952270
-6.586195
-7.461612
-4.214511
-4.134500
-9.665218
-7.771508
-5.173307
-3.272324
1.826143
9.554500
11.796299
10.438234
6.641728
-6.894257
-11.383565
-14.595333
-16.630873
-1.623039
8.772615
11.368737
14.347498
16.914007
12.925532
1.576793
-5.557472
-7.956167
-3.489975
3.394136
4.564652
1.184294
-5.858792
-14.586992
-25.295404
-31.809342
-28.553409
-20.279799
-13.106047
-7.762099
-6.808230
-9.651128
-4.716834
2.454580
2.797995
3.562234
6.618666
8.085577
8.544848
8.286900
4.338949
-0.064635
-2.292922
-7.262800
-12.640774
-10.545484
-6.378545
-7.245389
-5.057622
2.233287
11.302046
24.588398
33.978231
34.169422
31.210927
21.368322
6.950165
-3.438212
-8.938017
-3.435092
8.726985
18.567515
22.048147
14.204716
6.788604
8.659454
15.162226
21.978538
20.587742
12.022936
-2.019597
-22.315263
-36.227652
-47.728355
-57.074284
-48.746902
-30.031920
-8.448321
12.521447
24.317510
24.599620
15.311359
8.372960
10.261734
8.851456
-0.851394
-3.116049
7.107639
18.233501
25.576363
31.700134
35.279478
31.167094
27.569829
24.269739
18.812536
18.827345
13.212463
7.047912
6.172756
-4.231727
-16.835405
-23.050870
-22.640695
-18.302829
-20.310054
-25.776348
-24.154356
-18.760533
-19.591009
-20.103789
-11.718479
1.250956
-1.026168
-22.482477
-27.492359
-17.047609
-12.135396
-0.296990
19.654747
22.915615
1.248894
-16.698730
-22.905363
-27.209716
-31.847870
-30.142492
-9.438207
5.920573
6.834178
11.259327
13.488917
2.325911
-13.812689
-14.832796
-9.670686
-4.188022
3.342912
9.168209
10.449127
12.434275
17.701850
14.295256
27.922683
35.316199
44.855658
45.422993
19.983663
31.872463
6.635491
-12.235088
10.995959
11.144808
20.586075
20.756225
26.496059
32.084708
30.460380
27.794904
14.439717
16.469026
16.594495
5.329661
-5.869971
-13.652876
-17.575890
-22.794106
-25.140848
-19.554017
-14.447757
-15.991556
-17.162848
-15.663985
-20.317986
-35.967183
-53.265387
-63.145918
-54.328614
-31.728283
-13.952882
-2.589592
4.022543
10.774692
7.487071
6.311103
16.413739
15.532349
11.903393
-2.490346
-18.054859
-23.719616
-28.353874
-16.878625
0.369448
13.478378
20.753960
19.409403
14.448876
4.444176
-12.712714
-25.864762
-34.325921
-50.826118
-53.305861
-33.983542
-14.378335
6.837692
25.564363
28.569101
20.340954
6.430123
-12.283037
-20.961881
-16.221115
-3.479237
12.466100
17.129455
28.255057
39.395466
31.912074
31.016915
30.813259
22.348723
11.477437
-3.861857
-13.965269
-10.282797
1.944481
7.991101
16.755672
33.793073
38.556439
39.932951
48.681417
53.831318
54.784148
48.753638
37.130843
27.851675
18.746292
9.203719
6.039747
8.353502
2.732645
-10.407454
-19.472053
-25.409307
-24.758587
-18.788339
0.176799
27.559457
42.404157
59.503123
61.026144
56.184071
61.697647
55.288915
55.275408
53.202462
51.548781
53.359366
48.515735
48.068156
43.850306
37.083873
29.070554
16.953681
0.716629
-14.779825
-27.221148
-39.368933
-47.663581
-51.107582
-47.317307
-43.133483
-45.431128
-54.951361
-68.949214
-78.626606
-85.686317
-87.595350
-77.935358
-60.569611
-38.747805
-14.334034
5.226752
10.529396
9.737885
4.187166
-9.116067
-22.266297
-36.146475
-34.507597
-20.411549
-13.827469
-8.265836
-1.250802
4.140943
-3.111256
-14.561565
-7.621863
10.703727
23.824087
23.530291
14.052401
-1.857863
-21.072635
-31.359703
-26.723363
-14.053441
-4.570611
6.190797
17.781124
17.733848
13.893960
19.958504
32.446069
45.610330
60.303065
65.527000
50.869337
29.274831
10.708960
-4.300169
-9.235758
-10.263398
-20.646320
-29.719233
-27.863449
-24.816110
-19.799210
-6.788212
9.441050
19.464457
26.073474
32.693662
29.864271
26.188817
23.851946
13.831920
3.101688
-11.133333
-26.005304
-30.289395
-21.374158
1.528542
17.121633
20.818133
21.596399
11.567021
5.172056
2.462159
3.220683
11.324924
10.051284
2.398263
-5.297879
-17.756087
-36.663294
-42.010875
-29.632412
-19.838120
-11.535416
-2.153636
4.333550
8.504126
10.018055
11.007773
13.903148
17.249999
18.706780
12.705103
-2.625878
-20.365688
-35.700825
-47.630925
-49.989356
-39.974262
-25.757162
-12.153374
-1.549645
4.575684
12.741750
23.970220
28.968677
24.600421
15.556603
4.635441
-2.850809
-5.932694
-5.947499
-3.434242
-7.786652
-16.382630
-27.098835
-43.736709
-57.280487
-62.742625
-61.957605
-56.526895
-46.375163
-38.194809
-37.841263
-38.542375
-30.235515
-15.223265
-4.632005
5.522065
13.452262
14.838125
15.897980
14.582777
18.345777
27.099178
27.074242
29.064586
39.276584
40.924554
33.083721
29.908839
28.632601
19.480459
13.086793
11.581180
4.407691
0.721326
3.980376
2.397092
-4.818480
-10.481419
-10.645850
-4.651703
-5.437759
-17.547099
-24.846316
-34.382655
-45.570338
-41.200000
-28.846735
-14.799523
-4.716370
3.025496
14.919751
25.008879
34.601591
41.643122
44.857492
44.900355
39.781630
28.706167
13.371808
6.458606
9.125645
14.196317
23.188705
36.555585
44.610730
40.551858
30.925900
22.805816
21.917931
21.248770
12.911521
10.176166
13.058813
8.614185
5.938058
5.702710
0.904019
-3.212002
-8.047061
-9.614498
-7.989648
-14.938698
-33.011790
-45.439605
-46.447243
-46.939761
-41.666990
-37.955424
-34.808594
-20.246262
-3.779832
9.118427
10.064763
2.519546
-5.932002
-15.993331
-24.287979
-35.158745
-44.815356
-49.237124
-44.015008
-26.439628
-6.505036
14.806327
35.164860
48.130398
48.083902
28.602348
6.247502
-6.290455
-17.497621
-17.689587
-8.230656
2.006280
16.682910
23.761328
25.353707
21.255090
8.825457
11.138692
20.796345
12.642752
-3.479743
-13.087258
-12.249764
-1.386268
10.579424
25.471141
33.366529
19.719623
-1.029078
-17.805149
-31.017463
-37.401777
-33.543443
-27.225885
-22.478624
-18.632499
-19.945884
-14.515174
-8.931201
-13.758466
-9.008348
-1.233233
1.468875
4.951066
-2.819110
-11.535102
-16.211442
-28.307274
-38.187026
-37.656578
-27.081164
-25.221484
-36.519049
-35.730911
-28.943433
-35.143832
-40.622855
-33.221546
-25.711134
-28.987065
-35.526201
-32.622514
-30.039120
-23.918986
-5.415196
4.098547
9.879424
16.025015
8.903999
-2.031450
-9.899299
-15.392349
-18.826220
-12.310459
1.595699
6.286590
7.384890
8.864270
3.918031
-6.963645
-16.132932
-24.798009
-30.831377
-25.840194
-23.526959
-26.263612
-22.980144
-10.704809
5.861113
16.940476
21.339908
20.900902
9.770367
-11.523067
-24.738499
-24.782917
-22.703214
-18.093630
2.224640
26.673998
35.401423
39.137667
38.448504
30.973684
27.215883
29.881104
31.052659
22.674885
11.762296
2.212710
-9.716871
-19.861845
-26.480211
-33.361981
-35.042937
-28.490290
-17.583412
-4.778410
5.858828
16.827011
25.330256
25.217519
21.101238
13.886705
10.248917
13.520176
9.428054
3.860969
5.995484
3.572890
-1.273339
0.766361
3.280137
-0.780553
-6.022149
-12.174491
-21.319878
-18.533866
-11.303224
-14.185866
-7.361761
10.501701
21.452480
18.711930
7.525545
5.441169
14.764502
28.375823
41.945841
56.382446
62.309053
55.584702
55.990461
45.559742
24.014332
22.631070
26.784241
24.365024
16.598485
3.824399
-8.424956
-21.060845
-30.311179
-27.029270
-13.780324
-10.414769
-12.858664
-9.721965
-17.283547
-23.437188
-14.654952
-8.785494
-7.225067
-9.460628
-10.057572
-2.684318
-4.680892
-14.524536
-20.560762
-23.449379
-20.375804
-19.221913
-20.752983
-12.579124
-3.800265
-3.492958
-13.441288
-35.163600
-49.335237
-48.606326
-46.036181
-39.180903
-25.704661
-17.096730
-13.923923
-5.037780
5.552960
13.494067
31.385585
39.843370
42.725497
45.365261
32.649882
38.547915
30.475109
15.135036
23.817001
18.863748
11.539853
1.770503
-8.044307
-7.879353
-8.353687
-1.627774
13.214847
15.032705
19.863611
23.322163
37.356906
56.769884
49.620553
70.195213
59.346008
30.611781
37.276908
25.445779
23.093583
24.460483
19.498138
14.211603
15.379262
20.371224
20.184193
34.818740
45.073600
41.426460
28.902531
10.673059
7.620008
11.775517
7.848607
5.596681
12.044383
17.757200
10.636704
15.289149
26.367733
18.996301
11.839956
8.811583
6.173642
-3.121372
-17.589665
-27.671516
-33.279903
-35.743021
-36.035518
-33.090787
-33.505375
-31.821298
-25.119803
-19.725201
-18.463766
-15.463704
0.368373
19.744724
30.293382
28.476307
22.118229
17.206279
6.448771
-0.639254
8.413919
22.829742
32.098263
45.185113
51.841668
31.386764
4.823937
-10.026993
-22.782635
-31.868017
-30.434096
-20.414066
-4.487953
1.896885
-9.177020
-23.128894
-33.992127
-27.319986
-4.386892
12.873129
23.190593
24.122383
19.401882
15.780459
12.501410
14.904265
19.873368
22.504818
26.257687
32.127665
39.213876
41.488925
32.706693
18.037081
7.134103
6.673536
13.091105
18.571171
20.570606
18.188276
15.017031
16.705265
22.512638
30.511674
34.580940
30.909901
26.524241
18.539497
6.599785
0.850603
8.182815
