EVENT_NAME: 202302060117
EVENT_ID: 13194
EVENT_DATE_YYYYMMDD: 2023/02/06
EVENT_TIME_HHMMSS: 01:17:32.00000
EVENT_LATITUDE_DEGREE: 37.288
EVENT_LONGITUDE_DEGREE: 37.043
EVENT_DEPTH_KM: 8.6
HYPOCENTER_REFERENCE: AFAD
MAGNITUDE_W: 7.7
MAGNITUDE_W_REFERENCE: AFAD
MAGNITUDE_L: 
MAGNITUDE_L_REFERENCE: 
FOCAL_MECHANISM: 
NETWORK: TK
STATION_CODE: 99009
STATION_NAME: 
STATION_LATITUDE_DEGREE: 35.12698
STATION_LONGITUDE_DEGREE: 33.92635
STATION_ELEVATION_M: 10.0
LOCATION: Kahramanmaras_Pazarck_Turkiye
SENSOR_DEPTH_M: 
VS30_M/S: 409
SITE_CLASSIFICATION_EC8: B
MORPHOLOGIC_CLASSIFICATION: 
EPICENTRAL_DISTANCE_KM: 368.65
EARTHQUAKE_BACKAZIMUTH_DEGREE: 
DATE_TIME_FIRST_SAMPLE_YYYYMMDD_HHMMSS: 2023/02/06 01:17:59.0828740
DATE_TIME_FIRST_SAMPLE_PRECISION: millisecond
SAMPLING_INTERVAL_S: 0.01
NDATA: 21001
DURATION_S: 
STREAM: HNN
UNITS: cm/s^2
INSTRUMENT: sensor = CMG-5T/GURALP | digitizer = 
INSTRUMENT_ANALOG/DIGITAL: 
INSTRUMENTAL_FREQUENCY_HZ: 
INSTRUMENTAL_DAMPING: 
FULL_SCALE_G: 
N_BIT_DIGITAL_CONVERTER: 
PGA_CM/S^2: 11.569
TIME_PGA_S: 
BASELINE_CORRECTION: BASELINE REMOVED
FILTER_TYPE: BUTTERWORTH
FILTER_ORDER: 
LOW_CUT_FREQUENCY_HZ: 
HIGH_CUT_FREQUENCY_HZ: 
LATE/NORMAL_TRIGGERED: 
DATABASE_VERSION: 
HEADER_FORMAT: DYNA 1.2
DATA_TYPE: Acceleration
PROCESSING: Automatic Paolucci et al., 2011
DATA_TIMESTAMP_YYYYMMDD_HHMMSS: 
DATA_LICENSE: U (unknown license)
DATA_CITATION: Turkish Accelerometric Archive v 1.0 - Disaster And Emergency Management Presidency, Earthquake Department
DATA_CREATOR: AFAD
ORIGINAL_DATA_MEDIATOR_CITATION: : AFAD - Disaster And Emergency Management Presidency
ORIGINAL_DATA_MEDIATOR: AFAD PROCESS SERVICE
ORIGINAL_DATA_CREATOR_CITATION: AFAD PROCESS SERVICE
ORIGINAL_DATA_CREATOR: network: TK
USER1: GuestUser
USER2: 
USER3: 
USER4: 
USER5: 
[...]
-1.699181
-1.770105
-1.790189
-1.768848
-1.814979
-1.895632
-1.998253
-2.086124
-2.175564
-2.290111
-2.334987
-2.339066
-2.340634
-2.383313
-2.432270
-2.543678
-2.655086
-2.805095
-2.956046
-3.062433
-3.188277
-3.253866
-3.338285
-3.405443
-3.500846
-3.562669
-3.627631
-3.714246
-3.781091
-3.747196
-3.652419
-3.533476
-3.405747
-3.329799
-3.226549
-3.048920
-2.790638
-2.520744
-2.214760
-1.920073
-1.669637
-1.455291
-1.248790
-1.046056
-0.798130
-0.470805
-0.114922
0.233743
0.625716
0.949275
1.244589
1.551829
1.857185
2.147478
2.482962
2.923265
3.306137
3.608670
3.778138
3.930032
4.067491
4.207146
4.342407
4.490849
4.642116
4.712101
4.627682
4.548284
4.544833
4.488031
4.487091
4.464810
4.353716
4.207473
4.112697
4.013842
3.916870
3.820526
3.752740
3.661103
3.562562
3.500739
3.479400
3.496661
3.501370
3.580456
3.681510
3.710697
3.660485
3.582343
3.497924
3.546569
3.640091
3.727650
3.858204
3.946391
4.066275
4.216286
4.265558
4.270895
4.302906
4.354062
4.446642
4.482734
4.521649
4.577826
4.603247
4.684216
4.801275
4.881617
4.919591
4.978278
5.047949
5.092514
5.194510
5.296505
5.385947
5.545060
5.741831
5.924167
6.031184
6.125020
6.174606
6.146049
6.178688
6.262481
6.270956
6.243026
6.273782
6.329959
6.358518
6.310818
6.242404
6.174618
6.135077
6.118759
6.080473
6.098990
6.076081
5.985386
5.916658
5.868644
5.822512
5.770731
5.763514
5.778265
5.735272
5.642693
5.530658
5.436824
5.398538
5.448124
5.503045
5.488924
5.453462
5.430868
5.423337
5.434008
5.512780
5.632036
5.721479
5.764788
5.783305
5.771381
5.729643
5.622942
5.525342
5.422094
5.340813
5.303469
5.232544
5.156599
5.055233
4.973953
4.865055
4.743291
4.679585
4.643495
4.614310
4.552487
4.356973
4.146709
3.926402
3.664670
3.478256
3.339545
3.263914
3.214016
3.113278
2.967662
2.790978
2.602054
2.458321
2.323062
2.186234
2.071688
1.971891
1.901281
1.845734
1.745624
1.602519
1.433366
1.233772
0.997460
0.782488
0.630596
0.479960
0.329323
0.205989
0.072927
-0.097795
-0.292368
-0.474073
-0.641029
-0.832150
-1.006324
-1.147546
-1.279667
-1.429676
-1.569015
-1.653120
-1.708666
-1.812229
-1.982951
-2.146454
-2.255980
-2.342909
-2.475658
-2.599305
-2.737702
-2.934472
-3.098290
-3.209070
-3.244532
-3.249238
-3.265870
-3.295682
-3.395165
-3.528227
-3.631790
-3.724682
-3.757947
-3.759829
-3.759200
-3.735034
-3.761395
-3.821021
-3.871860
-3.920816
-3.945608
-3.926149
-3.906691
-3.848317
-3.764524
-3.725922
-3.720900
-3.706462
-3.675706
-3.666604
-3.704262
-3.794958
-3.917350
-3.989529
-4.009613
-4.021852
-4.056058
-4.175939
-4.277619
-4.322181
-4.409111
-4.522402
-4.605879
-4.657346
-4.659228
-4.661110
-4.715088
-4.737682
-4.665814
-4.594260
-4.558482
-4.524274
-4.493832
-4.474373
-4.504186
-4.569147
-4.573854
-4.502927
-4.443926
-4.410032
-4.336281
-4.185642
-4.018370
-3.928927
-3.928613
-3.929239
-3.862706
-3.746902
-3.646476
-3.564252
-3.498660
-3.456292
-3.398233
-3.350530
-3.335151
-3.267677
-3.141517
-3.017239
-2.930308
-2.883860
-2.797242
-2.725060
-2.748282
-2.785941
-2.788450
-2.709992
-2.605172
-2.572847
-2.549936
-2.500978
-2.453588
-2.384231
-2.307342
-2.173650
-2.023638
-1.963382
-1.923839
-1.935135
-1.958671
-1.957101
-1.925089
-1.832509
-1.713567
-1.665863
-1.673708
-1.673707
-1.668371
-1.691593
-1.735214
-1.717011
-1.658010
-1.665855
-1.652987
-1.488853
-1.334134
-1.268229
-1.262893
-1.275759
-1.345742
-1.395325
-1.453383
-1.468131
-1.379317
-1.350757
-1.331613
-1.295521
-1.241228
-1.175950
-1.114439
-0.928965
-0.721837
-0.629884
-0.547973
-0.348377
-0.150664
-0.077227
0.021944
0.080632
0.077494
0.014730
-0.037365
-0.013199
0.046744
0.153446
0.346139
0.530671
0.744076
0.952773
1.172140
1.417556
1.613700
1.820514
2.005674
2.245127
2.441585
2.601011
2.677900
2.711481
2.726546
2.774563
2.826973
2.859299
2.935246
3.035673
3.197610
3.349190
3.473781
3.592096
3.771607
3.948608
4.103326
4.281582
4.510051
4.721886
4.923366
5.109781
5.303101
5.509915
5.695075
5.864230
6.013927
6.221369
6.468354
6.673913
6.880413
7.087228
7.183574
7.201150
7.117359
6.984296
6.891718
6.823618
6.793492
6.807615
6.737318
6.552161
6.324008
6.119393
5.952437
5.814353
5.715184
5.580239
5.381587
5.193290
5.036691
4.851847
4.627146
4.404329
4.215719
4.012673
3.818414
3.554485
3.284279
3.032276
2.720331
2.451695
2.285366
2.114331
1.895907
1.620994
1.387820
1.203604
0.954425
0.746357
0.500944
0.269653
0.031772
-0.243768
-0.483846
-0.715137
-0.980949
-1.198118
-1.288813
-1.290067
-1.325215
-1.445410
-1.575648
-1.669482
-1.744172
-1.839261
-1.939685
-2.002764
-2.021906
-2.077139
-2.109462
-2.176307
-2.211455
-2.208001
-2.207373
-2.126090
-1.939674
-1.791232
-1.766752
-1.772086
-1.753569
-1.782754
-1.805349
-1.728774
-1.698959
-1.675734
-1.660669
-1.700211
-1.765172
-1.835155
-1.885680
-1.836408
-1.716211
-1.593816
-1.506571
-1.481149
-1.518180
-1.604482
-1.675406
-1.661283
-1.651553
-1.677914
-1.663476
-1.708980
-1.820389
-1.831685
-1.751972
-1.662843
-1.539821
-1.429038
-1.402048
-1.450063
-1.504040
-1.530715
-1.456022
-1.376309
-1.346494
-1.366578
-1.513762
-1.757292
-1.983876
-2.098422
-2.115368
-2.092457
-2.040674
-2.037221
-2.183464
-2.325942
-2.393100
-2.415067
-2.377406
-2.297065
-2.265995
-2.351983
-2.479710
-2.651373
-2.840297
-2.925971
-2.914045
-2.846257
-2.786000
-2.870105
-2.981200
-3.009129
-2.976804
-2.879516
-2.797292
-2.721972
-2.611503
-2.531789
-2.528022
-2.471846
-2.339723
-2.192222
-2.031540
-1.885295
-1.857991
-1.930484
-2.001722
-1.961237
-1.843236
-1.804007
-1.762580
-1.673138
-1.613195
-1.662779
-1.750964
-1.722405
-1.570824
-1.424893
-1.346748
-1.268917
-1.120789
-1.023501
-1.016282
-0.932489
-0.650983
-0.307025
-0.081695
0.031284
0.106604
0.211424
0.357042
0.530277
0.783538
1.108665
1.348118
1.442268
1.496247
1.554934
1.592281
1.708085
1.902346
2.106022
2.311581
2.491093
2.572375
2.680961
2.870515
3.024606
3.126602
3.234874
3.401518
3.592955
3.751753
3.866929
3.962962
4.001250
4.001879
4.014747
4.117056
4.286839
4.504951
4.744404
4.877468
4.953102
4.993273
5.027796
5.130419
5.242771
5.260346
5.168081
5.009913
4.847978
4.760421
4.722763
4.713349
4.648701
4.508107
4.450991
4.516896
4.531648
4.447856
4.396703
4.348061
4.224413
4.102963
4.023251
4.014779
4.104849
4.134664
4.034240
3.916555
3.827743
3.715079
3.518310
3.274466
3.051648
2.833538
2.631747
2.448159
2.280261
2.079098
1.841844
1.600511
1.303003
0.932058
0.594065
0.333902
0.128973
-0.031392
-0.181401
-0.410495
-0.788972
-1.136066
-1.340995
-1.442674
-1.536822
-1.732336
-2.014781
-2.239795
-2.385411
-2.576217
-2.702062
-2.635843
-2.495874
-2.452878
-2.469824
-2.533216
-2.633954
-2.633012
-2.604766
-2.588132
-2.447222
-2.134019
-1.871030
-1.825837
-1.927203
-2.037356
-2.061833
-1.938811
-1.788800
-1.724464
-1.645064
-1.655105
-1.833359
-2.008475
-2.065904
-2.011611
-1.822371
-1.621205
-1.465545
-1.314906
-1.190629
-1.137591
-1.124409
-1.090828
-1.037476
-0.939246
-0.811831
-0.726468
-0.714542
-0.672487
-0.642986
-0.792996
-0.994159
-1.022402
-0.982545
-0.997921
-0.968107
-0.835356
-0.690366
-0.546003
-0.395364
-0.354252
-0.337304
-0.238133
-0.224951
-0.312194
-0.297443
-0.234676
-0.134564
0.118069
0.308878
0.237013
0.113051
0.357525
0.693009
0.851808
0.964474
1.098793
1.256337
1.263556
1.222132
1.301217
1.408862
1.495480
1.747485
2.036523
2.080460
2.006398
2.035271
2.023033
1.972194
2.072620
2.342514
2.591067
2.707499
2.610527
2.364800
2.224206
2.148260
2.077650
2.283837
2.539294
2.465860
2.459584
2.463665
2.296081
2.119711
2.064792
2.062282
2.072953
2.057891
1.845116
1.604724
1.498651
1.334520
1.307218
1.355862
1.360571
1.528470
1.414552
1.219665
1.172905
0.947264
0.749239
0.617118
0.564710
0.578519
0.452989
0.322751
0.129433
-0.015555
-0.023399
-0.033127
-0.010530
-0.036577
-0.096517
-0.059484
-0.003621
0.059773
0.165535
0.184993
0.230186
0.277889
0.215752
0.157694
0.145770
0.206026
0.423197
0.710665
0.812033
0.612753
0.447680
0.432303
0.457411
0.597693
0.721343
0.834636
0.860058
0.780032
0.795725
0.856295
0.879833
0.946366
1.083510
1.227873
1.327672
1.302253
1.202142
1.032362
0.987485
1.242002
1.474236
1.515663
1.420574
1.276527
1.195561
1.174535
1.079132
0.902762
0.863848
0.925987
0.843451
0.654841
0.472822
0.294254
0.220819
0.179395
0.033779
-0.170522
-0.393340
-0.691162
-1.056772
-1.365578
-1.573646
-1.726479
-1.866132
-2.078907
-2.455814
-2.853120
-3.110773
-3.231596
-3.281493
-3.304716
-3.268624
-3.176671
-3.119553
-3.177611
-3.345194
-3.536315
-3.739047
-3.788631
-3.662785
-3.709858
-3.909452
-4.082998
-4.213864
-4.249325
-4.187814
-4.133834
-4.131950
-4.197853
-4.357591
-4.554674
-4.705938
-4.886075
-5.112972
-5.166322
-5.124896
-5.193623
-5.322606
-5.445312
-5.655890
-5.855798
-5.954966
-6.050055
-6.047230
-5.908203
-5.756308
-5.696366
-5.622615
-5.505242
-5.417683
-5.289325
-5.178857
-5.148414
-5.057089
-5.047045
-5.137113
-5.076543
-4.943478
-4.947557
-5.077795
-5.121416
-5.064298
-5.007808
-4.854030
-4.658514
-4.496577
-4.368534
-4.310474
-4.264654
-4.245824
-4.175525
-4.090162
-4.031475
-3.980634
-4.012329
-4.108988
-4.190268
-4.325213
-4.403983
-4.302616
-4.278450
-4.411512
-4.487144
-4.443206
-4.424689
-4.402407
-4.207518
-4.000703
-4.049032
-4.099243
-3.936365
-3.867949
-3.987517
-3.945463
-3.921297
-4.016386
-3.674939
-3.088078
-2.916099
-2.821321
-2.663150
-2.803431
-2.888791
-2.698924
-2.547029
-2.403295
-2.012890
-1.806704
-1.944160
-1.950749
-1.907126
-2.069374
-1.982442
-1.475922
-1.067315
-0.970655
-0.991680
-0.971908
-0.931109
-0.834449
-0.749086
-0.640814
-0.446553
-0.280850
-0.266413
-0.333885
-0.275512
-0.228436
-0.331999
-0.409827
-0.376874
-0.299357
-0.235649
-0.306573
-0.547279
-0.744990
-0.741223
-0.563281
-0.296211
-0.143062
-0.185427
-0.284596
-0.294324
-0.337631
-0.364306
-0.265135
-0.164081
-0.127361
-0.209897
-0.374029
-0.590570
-0.779180
-0.830333
-0.751247
-0.697267
-0.729276
-0.768504
-0.777604
-0.773523
-0.754064
-0.771952
-0.807413
-0.750923
-0.660225
-0.614091
-0.491069
-0.293042
-0.091249
0.056879
0.179274
0.338386
0.393621
0.408058
0.478357
0.627113
0.794385
0.942199
1.111668
1.319738
1.491089
1.521218
1.492033
1.553858
1.779502
2.111534
2.271588
2.190621
2.228282
2.477777
2.608959
2.737002
3.043928
3.221870
3.140589
3.061192
3.174799
3.378789
3.635188
3.969103
4.217970
4.231780
4.134494
3.991703
3.869311
3.945886
4.306163
4.749604
5.011652
5.062808
4.993139
4.876395
4.733918
4.561941
4.528362
4.707560
4.973374
5.112087
5.184897
5.251744
5.334595
5.443181
5.731591
6.221479
6.531543
6.564496
6.622556
6.729259
6.580819
6.462506
6.483534
6.577684
6.588355
6.647670
6.628213
6.534066
6.328195
6.352047
6.449335
6.563256
6.602172
6.367743
6.385005
6.342011
6.138338
5.892297
6.021909
6.080283
5.885710
5.573137
5.408378
5.328981
5.270923
4.898410
4.544726
4.263222
3.960692
3.773338
3.474887
3.367873
3.308246
3.298205
2.983436
2.703188
2.486961
2.201691
1.806582
1.544850
1.424968
1.481145
1.428736
1.178302
0.979336
0.841880
0.653270
0.456186
0.320299
0.110977
0.049781
0.117569
0.191006
0.054806
0.011812
-0.027415
-0.089866
-0.295737
-0.423150
-0.417186
-0.187776
0.091219
0.139863
0.158066
0.211418
0.238095
0.142378
0.110369
-0.017672
-0.012336
0.208287
0.373362
0.322523
0.288316
0.229004
0.203585
0.400670
0.588341
0.630395
0.696928
0.887423
0.948307
0.974984
1.248016
1.595112
1.813224
2.051421
2.199236
2.138354
2.068371
2.092537
2.193277
2.489533
2.916341
3.184980
3.257475
3.249631
3.164271
3.067298
3.086443
3.186869
3.319306
3.463669
3.591398
3.745489
3.860666
3.829284
3.772168
3.811084
3.917473
3.985575
3.976161
3.968317
3.930972
3.804500
3.766214
3.782848
3.689956
3.592356
3.519235
3.569449
3.539950
3.396845
3.308974
3.179678
3.013663
2.796181
2.573991
2.448147
2.406095
2.208070
1.914014
1.693393
1.504469
1.349125
1.163339
1.047852
0.967826
0.817817
0.779217
0.723671
0.573034
0.503365
0.581196
0.539458
0.376268
0.296242
0.109515
-0.307248
-0.603502
-0.554857
-0.478909
-0.558307
-0.707688
-0.792421
-0.901946
-0.963770
-0.976949
-1.122879
-1.369547
-1.470285
-1.353226
-1.201018
-1.262841
-1.482520
-1.536183
-1.606480
-1.795718
-1.944472
-2.000646
-2.107974
-2.362802
-2.635518
-2.837623
-2.733431
-2.549840
-2.554860
-2.608837
-2.675682
-2.796191
-3.058237
-3.226134
-3.316202
-3.477823
-3.626890
-3.690597
-3.801063
-3.950759
-4.067816
-4.237282
-4.319818
-4.327035
-4.406119
-4.617011
-4.938370
-5.203241
-5.211713
-5.121643
-5.192253
-5.289539
-5.400947
-5.663621
-5.854742
-6.077559
-6.408334
-6.684502
-6.927718
-7.089025
-7.217066
-7.364879
-7.631318
-7.974960
-8.139719
-8.198090
-8.321110
-8.422475
-8.494341
-8.599473
-8.789966
-9.046049
-9.301818
-9.510827
-9.608113
-9.701005
-9.867647
-10.013891
-10.115884
-10.179590
-10.221328
-10.401151
-10.663197
-10.857456
-10.968236
-11.137075
-11.293361
-11.274216
-11.199210
-11.107571
-11.099724
-11.281744
-11.456545
-11.471294
-11.426102
-11.307159
-11.276089
-11.336343
-11.342305
-11.341049
-11.416366
-11.539700
-11.568571
-11.488230
-11.395963
-11.456845
-11.543147
-11.487284
-11.480065
-11.533101
-11.451504
-11.358924
-11.253476
-11.056390
-10.964124
-10.951569
-10.747266
-10.415547
-10.177350
-10.044913
-9.917812
-9.736731
-9.509204
-9.267869
-9.072980
-8.973809
-8.947132
-8.827876
-8.602546
-8.438099
-8.285890
-8.071230
-8.098219
-8.407339
-8.525024
-8.425853
-8.295926
-8.046745
-7.766181
-7.615228
-7.435089
-7.294179
-7.501305
-7.804149
-7.800068
-7.516052
-7.192807
-6.860461
-6.576131
-6.458130
-6.569225
-6.622574
-6.397244
-6.134882
-5.870009
-5.411818
-4.835627
-4.497946
-4.321260
-3.983579
-3.646211
-3.562418
-3.435630
-3.092300
-2.838098
-2.605549
-2.147986
-1.745656
-1.576501
-1.587484
-1.472935
-1.128978
-0.766505
-0.481547
-0.389280
-0.156732
0.460571
0.891459
0.991571
1.287513
1.507508
1.281553
1.190229
1.673527
2.054516
1.986730
2.099710
2.220535
2.104733
2.191351
2.531229
2.957096
3.374803
3.728176
3.769288
3.692715
3.787493
3.941898
4.061781
4.332617
4.582426
4.477294
4.321636
4.398839
4.538494
4.562660
4.734953
4.996374
5.242103
5.376422
5.385838
5.395568
5.363873
5.352890
5.306758
5.131956
5.157691
5.372352
5.439198
5.410641
5.323084
5.247766
5.144203
5.096503
5.454896
5.794146
5.733265
5.663910
5.754921
5.644141
5.156765
4.860198
4.839800
4.821913
4.860202
4.830389
4.837294
5.029672
5.027791
4.866170
4.860522
5.005826
4.934588
4.771712
4.934276
5.099665
5.110022
5.145800
5.236812
5.272275
5.319037
5.321862
5.244976
5.191312
5.068606
4.669103
4.315733
4.303808
4.367830
4.489283
4.801858
5.141736
5.168726
5.037547
4.975724
4.800608
4.665035
4.890993
5.190073
5.324079
5.331298
5.059524
4.663473
4.472038
4.565874
4.821332
5.058274
5.180040
5.079930
4.950634
4.889438
4.898854
5.017169
5.132345
5.190718
5.317506
5.297736
4.970414
4.508145
4.152578
4.295057
4.538903
4.701782
4.832022
4.834847
4.699588
4.463904
4.215666
4.092333
4.109594
4.149452
4.134389
4.052795
3.859163
3.473155
3.262891
3.267599
3.300866
3.517723
4.005728
4.278760
4.289432
4.241731
4.255854
4.164531
3.966192
3.915039
3.853844
3.900919
3.969649
3.923517
3.882720
3.878642
3.763468
3.801756
3.939842
3.788891
3.417005
3.086858
2.909232
2.580654
2.262119
2.365370
2.536722
2.492473
2.502830
2.480236
2.292881
2.158877
2.162644
2.254911
2.232944
2.096116
2.111808
2.212548
2.349065
2.395827
2.172695
1.961176
1.851965
1.710743
1.742440
2.055957
2.439457
2.660393
2.774628
2.831746
2.685189
2.539573
2.611128
2.880080
3.040134
3.131145
3.211800
3.133344
2.937516
2.780603
2.748907
2.621494
2.630282
2.886054
3.152496
3.271438
3.282109
3.157520
3.153441
3.196123
3.173529
3.269875
3.425535
3.508387
3.399804
3.321661
3.203349
3.188286
3.456611
3.984786
4.458983
4.767478
4.812670
4.387747
4.015861
3.864596
3.623263
3.503382
3.723691
3.856127
3.795246
3.867741
4.099976
4.242455
4.237749
4.504191
4.758079
4.617485
4.731092
4.951087
4.783504
4.538405
4.346342
4.228030
4.306802
4.315904
4.278246
4.370513
4.403466
4.395935
4.475021
4.561953
4.606518
4.678385
4.721067
4.715733
4.592713
4.462789
4.334748
4.063915
3.859300
3.734083
3.723100
3.644958
3.372869
3.230706
2.989059
2.537146
2.220494
2.046948
1.963471
2.004583
2.033457
2.070803
1.991720
1.704253
1.362181
1.054944
1.003163
0.981510
0.903682
0.904624
0.711620
0.245272
-0.058513
-0.136342
-0.286979
-0.360727
-0.453620
-0.697463
-0.951350
-1.154710
-1.373134
-1.562999
-1.443743
-1.106062
-1.005950
-1.107943
-1.303143
-1.699194
-1.869288
-1.940213
-2.165227
-2.250587
-2.184682
-2.093670
-2.148589
-2.214179
-2.147018
-2.217942
-2.533967
-2.657928
-2.414710
-2.209465
-2.188437
-2.258420
-2.393365
-2.511364
-2.692442
-2.863791
-2.915258
-2.795374
-2.615235
-2.561256
-2.506021
-2.450786
-2.499742
-2.701533
-2.773085
-2.709376
-2.758960
-2.514173
-2.150758
-2.260910
-2.254005
-2.034638
-1.870504
-1.874897
-1.958374
-1.902825
-1.947388
-1.768190
-1.676237
-1.631359
-1.519321
-1.544112
-1.570786
-1.677801
-1.652694
-1.606560
-1.616287
-1.450585
-1.256637
-1.225881
-1.184768
-1.219602
-1.363021
-1.451519
-1.541901
-1.614394
-1.557904
-1.636360
-1.833130
-1.927905
-1.861058
-1.890243
-1.968386
-1.675896
-1.432364
-1.576724
-1.760940
-1.865444
-1.929464
-1.911575
-1.867010
-1.878621
-2.064406
-2.109910
-2.384510
-2.905151
-3.042293
-3.073361
-3.179434
-3.111018
-3.038522
-3.065510
-3.086536
-3.193237
-3.446182
-3.679983
-3.551312
-3.209865
-3.039455
-3.103161
-3.209862
-3.230260
-3.190402
-3.283608
-3.302437
-2.952203
-2.400804
-2.074735
-2.108000
-2.201206
-2.033934
-1.886433
-2.149735
-2.362823
-2.078807
-1.669259
-1.487238
-1.431689
-1.294544
-1.128214
-0.992011
-0.738123
-0.435590
-0.092574
0.153469
0.122714
-0.155651
-0.091942
0.263313
0.441569
0.455692
0.376609
0.350248
0.570243
0.899765
0.847670
0.606964
0.773609
1.288917
1.448029
1.271031
1.176569
1.305240
1.615304
1.896810
1.932274
1.952674
2.076323
1.994415
1.850055
2.076327
2.504390
2.660364
2.649068
2.669468
2.712777
2.621454
2.651896
2.631499
2.352820
2.259614
2.319242
2.087324
1.803937
1.945789
2.117455
2.027701
1.733017
1.591795
1.686258
1.999147
2.315174
2.373861
2.394574
2.446671
2.521363
2.449812
2.289760
2.241431
2.180236
2.016418
2.116531
2.484967
2.695547
2.727559
2.852464
2.893577
2.631531
2.425974
2.540209
2.719406
2.801003
2.813871
2.844627
3.129899
3.400734
3.261081
2.915557
2.779984
2.798501
2.943805
3.231273
3.355864
3.338291
3.329819
3.237240
3.025407
2.946009
2.916510
2.801964
2.767758
2.601116
2.553415
2.866931
2.938485
2.443264
1.905676
1.838518
2.037173
2.139168
2.019601
1.691651
1.354599
1.004995
