EVENT_NAME: 202302060117
EVENT_ID: 13194
EVENT_DATE_YYYYMMDD: 2023/02/06
EVENT_TIME_HHMMSS: 01:17:32.00000
EVENT_LATITUDE_DEGREE: 37.288
EVENT_LONGITUDE_DEGREE: 37.043
EVENT_DEPTH_KM: 8.6
HYPOCENTER_REFERENCE: AFAD
MAGNITUDE_W: 7.7
MAGNITUDE_W_REFERENCE: AFAD
MAGNITUDE_L: 
MAGNITUDE_L_REFERENCE: 
FOCAL_MECHANISM: 
NETWORK: TK
STATION_CODE: 5806
STATION_NAME: 
STATION_LATITUDE_DEGREE: 40.30028
STATION_LONGITUDE_DEGREE: 37.82522
STATION_ELEVATION_M: 856.0
LOCATION: Kahramanmaras_Pazarck_Turkiye
SENSOR_DEPTH_M: 
VS30_M/S: 320
SITE_CLASSIFICATION_EC8: C
MORPHOLOGIC_CLASSIFICATION: 
EPICENTRAL_DISTANCE_KM: 341.74
EARTHQUAKE_BACKAZIMUTH_DEGREE: 
DATE_TIME_FIRST_SAMPLE_YYYYMMDD_HHMMSS: 2023/02/06 01:17:58.2547580
DATE_TIME_FIRST_SAMPLE_PRECISION: millisecond
SAMPLING_INTERVAL_S: 0.01
NDATA: 18251
DURATION_S: 
STREAM: HNE
UNITS: cm/s^2
INSTRUMENT: sensor = CMG-5T/GURALP | digitizer = 
INSTRUMENT_ANALOG/DIGITAL: 
INSTRUMENTAL_FREQUENCY_HZ: 
INSTRUMENTAL_DAMPING: 
FULL_SCALE_G: 
N_BIT_DIGITAL_CONVERTER: 
PGA_CM/S^2: 6.439
TIME_PGA_S: 
BASELINE_CORRECTION: BASELINE REMOVED
FILTER_TYPE: BUTTERWORTH
FILTER_ORDER: 
LOW_CUT_FREQUENCY_HZ: 
HIGH_CUT_FREQUENCY_HZ: 
LATE/NORMAL_TRIGGERED: 
DATABASE_VERSION: 
HEADER_FORMAT: DYNA 1.2
DATA_TYPE: Acceleration
PROCESSING: Automatic Paolucci et al., 2011
DATA_TIMESTAMP_YYYYMMDD_HHMMSS: 
DATA_LICENSE: U (unknown license)
DATA_CITATION: Turkish Accelerometric Archive v 1.0 - Disaster And Emergency Management Presidency, Earthquake Department
DATA_CREATOR: AFAD
ORIGINAL_DATA_MEDIATOR_CITATION: : AFAD - Disaster And Emergency Management Presidency
ORIGINAL_DATA_MEDIATOR: AFAD PROCESS SERVICE
ORIGINAL_DATA_CREATOR_CITATION: AFAD PROCESS SERVICE
ORIGINAL_DATA_CREATOR: network: TK
USER1: GuestUser
USER2: 
USER3: 
USER4: 
USER5: 
[...]
-0.194679
-0.093562
0.006927
0.096425
0.174304
0.230201
0.268199
0.262547
0.221097
0.145104
0.065970
-0.043624
-0.152276
-0.307089
-0.447143
-0.594734
-0.754886
-0.937334
-1.151498
-1.351845
-1.553762
-1.743432
-1.963877
-2.185578
-2.433343
-2.671687
-2.872348
-3.044747
-3.181347
-3.301304
-3.376041
-3.420003
-3.369130
-3.262675
-3.106290
-2.930749
-2.739193
-2.528167
-2.294532
-2.026354
-1.727401
-1.427820
-1.138917
-0.848129
-0.581835
-0.299211
-0.026637
0.245624
0.497473
0.744611
0.993948
1.282538
1.588399
1.903367
2.204832
2.484943
2.732709
2.962891
3.167008
3.336268
3.440211
3.480093
3.449634
3.373326
3.255254
3.121794
2.971063
2.832579
2.699119
2.589211
2.491864
2.400484
2.305021
2.194171
2.044382
1.865389
1.667240
1.450249
1.225408
1.004021
0.777924
0.559992
0.359331
0.156157
-0.032885
-0.239826
-0.436405
-0.634868
-0.815432
-0.967105
-1.093656
-1.186607
-1.261344
-1.347700
-1.440336
-1.529205
-1.653244
-1.723584
-1.808998
-1.873687
-1.898808
-1.902889
-1.873370
-1.843851
-1.817158
-1.808364
-1.803339
-1.809933
-1.817468
-1.842904
-1.884982
-1.928317
-1.958462
-1.995830
-1.991433
-1.987978
-1.967880
-1.944013
-1.889372
-1.798304
-1.679287
-1.521018
-1.314388
-1.072588
-0.790593
-0.471229
-0.123602
0.230305
0.582642
0.884734
1.117742
1.292969
1.415125
1.488294
1.528176
1.517500
1.475107
1.427062
1.380588
1.326576
1.246187
1.129370
0.976755
0.823197
0.680317
0.499125
0.300348
0.078334
-0.168489
-0.427245
-0.662135
-0.901421
-1.142591
-1.402289
-1.665441
-1.905984
-2.096282
-2.227857
-2.346244
-2.451442
-2.553499
-2.615047
-2.635772
-2.629176
-2.636084
-2.633885
-2.626347
-2.557261
-2.448922
-2.314204
-2.192048
-2.078998
-1.984789
-1.891209
-1.800455
-1.720064
-1.648465
-1.607955
-1.584716
-1.558966
-1.515001
-1.456592
-1.394414
-1.359242
-1.326897
-1.290155
-1.235514
-1.152610
-1.045841
-0.914578
-0.756936
-0.615624
-0.514507
-0.455470
-0.435999
-0.414645
-0.411190
-0.399256
-0.371935
-0.295312
-0.152744
0.058910
0.317039
0.605315
0.899557
1.176528
1.431831
1.654790
1.821224
1.925167
1.956885
1.930507
1.879636
1.811808
1.749317
1.685257
1.625279
1.558393
1.517256
1.507522
1.554941
1.635018
1.734251
1.812130
1.864887
1.886556
1.887499
1.871484
1.841339
1.786699
1.716358
1.641935
1.581957
1.534855
1.502511
1.483356
1.479903
1.509736
1.575054
1.669576
1.765669
1.857993
1.929906
1.963821
1.932106
1.835387
1.668012
1.453534
1.217074
0.998513
0.832709
0.722173
0.661253
0.628281
0.628596
0.672561
0.743845
0.815758
0.866631
0.866631
0.832718
0.764261
0.671310
0.567683
0.470022
0.389005
0.339075
0.301707
0.294800
0.305477
0.329658
0.355723
0.373937
0.366088
0.321497
0.239851
0.139050
0.054892
-0.006342
-0.065378
-0.130066
-0.205117
-0.283937
-0.353649
-0.411743
-0.453821
-0.497470
-0.552424
-0.628103
-0.702840
-0.765644
-0.790451
-0.797045
-0.787309
-0.784482
-0.781655
-0.793273
-0.793272
-0.813997
-0.834722
-0.878999
-0.930498
-0.988278
-1.056420
-1.115456
-1.177318
-1.233842
-1.288481
-1.369499
-1.462135
-1.562622
-1.647094
-1.712725
-1.739416
-1.749464
-1.716804
-1.661535
-1.589309
-1.501381
-1.437005
-1.400263
-1.388643
-1.419103
-1.438572
-1.463065
-1.468402
-1.468715
-1.429147
-1.343104
-1.204304
-1.005211
-0.775030
-0.504026
-0.280439
-0.072868
0.053371
0.131564
0.139416
0.100164
0.037045
-0.032981
-0.076316
-0.071291
-0.005973
0.112730
0.266603
0.430211
0.584398
0.715033
0.825885
0.915069
0.988551
1.035970
1.036913
1.002999
0.939567
0.884927
0.862318
0.885557
0.953701
1.052620
1.174777
1.339955
1.528057
1.728405
1.940373
2.146688
2.334162
2.489291
2.623067
2.732976
2.830011
2.911658
2.975406
3.031303
3.072128
3.098507
3.095367
3.055173
3.004302
2.936787
2.851373
2.749630
2.633441
2.495899
2.348308
2.182818
2.038053
1.919039
1.847128
1.809760
1.822322
1.874765
1.967403
2.090502
2.203237
2.304668
2.379721
2.417719
2.424942
2.414266
2.388517
2.358372
2.298394
2.254745
2.200420
2.154573
2.136674
2.120346
2.104017
2.091143
2.076071
2.076386
2.093658
2.137622
2.181587
2.218643
2.213933
2.192894
2.159608
2.126951
2.100259
2.086443
2.094609
2.115335
2.138888
2.163383
2.194786
2.212686
2.225562
2.204209
2.163073
2.098071
2.002608
1.870404
1.716533
1.526234
1.312384
1.074354
0.823763
0.583849
0.378791
0.208905
0.107790
0.067281
0.071364
0.107792
0.153641
0.185672
0.205456
0.215192
0.207342
0.208285
0.227128
0.277058
0.348657
0.440667
0.533619
0.626572
0.693146
0.740250
0.752498
0.733657
0.675878
0.588266
0.462028
0.307843
0.138898
-0.039153
-0.220344
-0.401850
-0.585554
-0.760779
-0.925327
-1.066010
-1.176231
-1.277661
-1.364017
-1.447546
-1.535473
-1.621515
-1.707871
-1.798937
-1.901308
-2.017497
-2.147816
-2.266203
-2.367318
-2.444567
-2.496695
-2.528096
-2.535946
-2.528723
-2.512706
-2.479419
-2.429174
-2.360088
-2.268078
-2.162250
-2.046060
-1.930498
-1.817448
-1.701258
-1.580044
-1.452235
-1.317517
-1.186568
-1.033637
-0.880392
-0.714900
-0.539673
-0.370099
-0.211201
-0.065179
0.066085
0.194522
0.324215
0.452024
0.542150
0.583916
0.572612
0.532418
0.490339
0.446062
0.373838
0.282771
0.159360
0.022132
-0.122005
-0.262373
-0.392064
-0.499460
-0.591154
-0.653645
-0.711424
-0.764494
-0.818505
-0.875657
-0.936891
-0.981168
-1.009429
-1.008172
-0.983363
-0.950704
-0.892608
-0.828546
-0.755378
-0.673730
-0.582348
-0.483743
-0.378858
-0.299409
-0.245710
-0.218075
-0.203943
-0.204256
-0.214932
-0.238797
-0.252613
-0.254183
-0.239423
-0.212730
-0.191061
-0.175673
-0.164367
-0.185720
-0.207073
-0.240359
-0.279611
-0.307558
-0.357488
-0.424060
-0.499739
-0.587665
-0.670567
-0.757551
-0.828520
-0.867144
-0.863061
-0.814700
-0.719864
-0.591113
-0.431587
-0.264525
-0.105000
0.045105
0.187673
0.345001
0.526194
0.712098
0.886696
1.038685
1.179369
1.302782
1.423997
1.548979
1.670822
1.789838
1.878080
1.920788
1.917649
1.875256
1.810882
1.722014
1.615874
1.499058
1.392604
1.316925
1.290548
1.333570
1.442852
1.595469
1.796760
2.018776
2.254924
2.502376
2.746060
2.996967
3.241280
3.480253
3.700386
3.876869
4.012528
4.117728
4.180219
4.217589
4.227325
4.219161
4.190900
4.138144
4.070002
4.001545
3.929320
3.879077
3.830718
3.786755
3.742165
3.682815
3.621895
3.552496
3.459232
3.362827
3.245696
3.123541
2.985999
2.827418
2.646226
2.457498
2.268456
2.079414
1.883463
1.685628
1.474918
1.246937
1.015501
0.784380
0.565505
0.362018
0.168265
-0.006332
-0.168368
-0.320355
-0.465748
-0.614281
-0.744600
-0.858905
-0.947145
-1.007751
-1.031302
-1.014972
-0.966611
-0.897839
-0.805200
-0.677391
-0.518808
-0.328822
-0.106491
0.134995
0.396578
0.657534
0.920060
1.176305
1.416535
1.633213
1.832620
2.010045
2.183387
2.367721
2.564929
2.769674
2.956834
3.105369
3.220303
3.296612
3.356277
3.419397
3.491938
3.589286
3.708303
3.847103
4.007256
4.172748
4.335100
4.481122
4.591974
4.669539
4.721668
4.715389
4.673938
4.569683
4.423662
4.219232
3.952626
3.627611
3.260831
2.852599
2.459127
2.088578
1.761051
1.485338
1.250134
1.062034
0.914757
0.813328
0.754606
0.704049
0.649723
0.595084
0.509356
0.408555
0.286086
0.136297
-0.024169
-0.169562
-0.311814
-0.406649
-0.466941
-0.491434
-0.470708
-0.417951
-0.339444
-0.217287
-0.069380
0.113697
0.315616
0.514395
0.699042
0.869559
1.009929
1.127689
1.217501
1.290355
1.338088
1.373888
1.376087
1.366039
1.349082
1.333696
1.334325
1.359134
1.410007
1.480035
1.563881
1.662171
1.763288
1.876966
2.001321
2.134468
2.282061
2.435620
2.574106
2.686842
2.763464
2.780737
2.739600
2.646336
2.514446
2.345501
2.129767
1.872896
1.575829
1.228204
0.846350
0.461043
0.088610
-0.250850
-0.539752
-0.781865
-0.968709
-1.110333
-1.219299
-1.328579
-1.442569
-1.573203
-1.730842
-1.918628
-2.106101
-2.292631
-2.436139
-2.531288
-2.569598
-2.555152
-2.483867
-2.380552
-2.244265
-2.091648
-1.945311
-1.814676
-1.695346
-1.611500
-1.558429
-1.553718
-1.603333
-1.691259
-1.809960
-1.939965
-2.054897
-2.140939
-2.165747
-2.108907
-1.991461
-1.824085
-1.619968
-1.394497
-1.148615
-0.910583
-0.704582
-0.534065
-0.399348
-0.299173
-0.222550
-0.171049
-0.137761
-0.098821
-0.054229
0.019254
0.109694
0.220859
0.361543
0.529548
0.725500
0.935270
1.139387
1.327489
1.487642
1.605716
1.661614
1.632410
1.542914
1.401918
1.208793
0.997455
0.750318
0.484654
0.211453
-0.060806
-0.339973
-0.612232
-0.869417
-1.101795
-1.308737
-1.477053
-1.617108
-1.708174
-1.762499
-1.770977
-1.759357
-1.725756
-1.710682
-1.691525
-1.682104
-1.654783
-1.633428
-1.565284
-1.473588
-1.354258
-1.222052
-1.105234
-0.959840
-0.809421
-0.675645
-0.540614
-0.410607
-0.282169
-0.123272
0.055095
0.244767
0.465213
0.701675
0.924634
1.145708
1.354536
1.566503
1.737020
1.841277
1.833427
1.726031
1.496794
1.209776
0.824154
0.388288
-0.068931
-0.536200
-0.986825
-1.407303
-1.796379
-2.111031
-2.362565
-2.556945
-2.687265
-2.743160
-2.749440
-2.694171
-2.608127
-2.510464
-2.419396
-2.362557
-2.354391
-2.402750
-2.500411
-2.641722
-2.804386
-2.975529
-3.157976
-3.297717
-3.434631
-3.509368
-3.535117
-3.526009
-3.497118
-3.482986
-3.450013
-3.461945
-3.469481
-3.491461
-3.515012
-3.541704
-3.541075
-3.507473
-3.467277
-3.393795
-3.337583
-3.286082
-3.272578
-3.287965
-3.331299
-3.396302
-3.492392
-3.617374
-3.774699
-3.941760
-4.094375
-4.240710
-4.347791
-4.407141
-4.399918
-4.338996
-4.201452
-4.014921
-3.780657
-3.541369
-3.301767
-3.085089
-2.876890
-2.707002
-2.559409
-2.446987
-2.345242
-2.236589
-2.082402
-1.895242
-1.655954
-1.395626
-1.121482
-0.844825
-0.584811
-0.355258
-0.153653
0.013095
0.139962
0.236682
0.292894
0.333090
0.363237
0.395268
0.434208
0.472834
0.508948
0.535641
0.551657
0.569557
0.595622
0.632678
0.701450
0.803509
0.917815
1.039972
1.138890
1.212687
1.250685
1.269841
1.259794
1.246291
1.231219
1.219915
1.195422
1.172813
1.145494
1.129165
1.123513
1.109697
1.104046
1.083321
1.066992
1.063225
1.060714
1.072333
1.096514
1.104994
1.114101
1.103739
1.090865
1.061976
1.006394
0.909361
0.759258
0.556399
0.313972
0.037945
-0.248445
-0.509713
-0.729843
-0.891565
-0.992680
-1.022826
-0.999273
-0.916684
-0.813369
-0.680221
-0.550214
-0.417695
-0.293026
-0.172754
-0.070067
0.017233
0.078155
0.117095
0.120864
0.103593
0.051780
-0.027667
-0.146368
-0.296471
-0.475778
-0.672985
-0.859829
-1.002396
-1.072736
-1.068967
-0.990146
-0.854487
-0.679888
-0.490530
-0.300544
-0.108674
0.102666
0.326567
0.553293
0.759923
0.936720
1.093105
1.235359
1.353119
1.462087
1.558493
1.647991
1.737803
1.844259
1.962333
2.101447
2.233024
2.350784
2.423639
2.443737
2.402915
2.280446
2.078843
1.796221
1.467752
1.121697
0.769048
0.434298
0.123414
-0.149472
-0.393155
-0.607005
-0.789139
-0.937986
-1.059199
-1.143356
-1.196740
-1.223117
-1.240074
-1.246667
-1.255773
-1.266135
-1.290942
-1.329252
-1.376983
-1.419376
-1.446695
-1.447322
-1.424084
-1.379491
-1.338981
-1.310404
-1.300354
-1.316055
-1.333953
-1.352166
-1.379485
-1.411515
-1.436950
-1.452965
-1.463013
-1.471804
-1.468035
-1.455159
-1.430037
-1.401145
-1.370684
-1.352784
-1.337082
-1.322636
-1.308818
-1.307561
-1.309758
-1.326715
-1.349010
-1.367222
-1.365651
-1.350263
-1.310067
-1.253228
-1.183827
-1.125418
-1.084594
-1.071090
-1.094955
-1.164040
-1.277088
-1.441636
-1.639157
-1.844214
-2.029802
-2.182103
-2.288243
-2.349791
-2.362979
-2.353558
-2.316502
-2.273794
-2.233284
-2.213499
-2.215696
-2.221034
-2.216323
-2.199679
-2.159797
-2.112378
-2.067158
-2.030730
-2.017854
-2.027902
-2.071864
-2.142833
-2.226363
-2.320884
-2.425767
-2.526882
-2.617949
-2.688290
-2.732566
-2.767108
-2.798510
-2.832424
-2.872932
-2.909672
-2.938876
-2.955832
-2.963368
-2.962425
-2.971217
-2.980637
-3.008270
-3.051919
-3.128854
-3.229969
-3.358090
-3.486212
-3.613705
-3.728637
-3.842628
-3.939032
-4.015654
-4.057732
-4.068094
-4.045483
-4.004659
-3.942482
-3.860206
-3.757833
-3.651064
-3.542410
-3.457623
-3.381628
-3.302493
-3.207970
-3.081103
-2.925974
-2.740071
-2.523392
-2.292269
-2.052667
-1.820916
-1.609576
-1.424301
-1.255040
-1.099597
-0.959855
-0.845235
-0.758564
-0.692617
-0.654306
-0.639546
-0.649908
-0.665922
-0.681622
-0.673771
-0.645508
-0.592751
-0.523978
-0.440761
-0.347181
-0.239783
-0.127047
-0.013684
0.094970
0.195459
0.289353
0.382305
0.461441
0.527701
0.567269
0.570724
0.539636
0.465841
0.347455
0.201434
0.027779
-0.158751
-0.353132
-0.545942
-0.721481
-0.880691
-1.030166
-1.161742
-1.278558
-1.361146
-1.404795
-1.401026
-1.352037
-1.258456
-1.141638
-0.994360
-0.838917
-0.672796
-0.509189
-0.335532
-0.146174
0.056373
0.265514
0.479994
0.688194
0.898591
1.095800
1.272911
1.423330
1.535751
1.607664
1.643778
1.644721
1.614261
1.558994
1.484256
1.408263
1.338865
1.285167
1.248741
1.236809
1.246545
1.285171
1.332275
1.393197
1.464481
1.539534
1.615529
1.693094
1.754958
1.806459
1.839118
1.871464
1.908205
1.955938
2.017488
2.094739
2.180783
2.277189
2.373596
2.476597
2.583680
2.711803
2.850603
3.030540
3.213618
3.428726
3.647288
3.878725
4.128376
4.380853
4.659708
4.949554
5.228095
5.496587
5.742155
5.964800
6.158240
6.298296
6.398471
6.439295
6.427049
6.368955
6.256849
6.101721
5.918960
5.718927
5.493144
5.267046
5.038751
4.800093
4.566145
4.321207
4.075640
3.835412
3.601150
3.384473
3.188209
2.999795
2.855972
2.735701
2.650287
2.599730
2.584658
2.585287
2.588742
2.596593
2.589686
2.571473
2.535675
2.473813
2.393737
2.294192
2.177376
2.053337
1.928042
1.803375
1.696293
1.592352
1.498773
1.414929
1.338936
1.266711
1.204221
1.140475
1.094628
1.054120
1.033395
1.036222
1.057890
1.101855
1.157438
1.222756
1.286504
1.331724
1.343658
1.314769
1.238776
1.126984
0.987871
0.841537
0.695830
0.557660
0.426712
0.308012
0.195905
0.095732
0.001212
-0.077608
-0.129107
-0.154856
-0.144493
-0.108065
-0.051225
0.022571
0.109871
0.217269
0.355440
0.521560
0.714059
0.930423
1.164058
1.406800
1.643262
1.862138
2.057149
2.220128
2.358300
2.472292
2.558022
2.624282
2.668246
2.694311
2.710327
2.714096
2.708759
2.707504
2.708761
2.719124
2.724464
2.728861
2.720697
2.715987
2.710336
2.701544
2.694636
2.696835
2.703745
2.730124
2.772832
2.828415
2.877718
2.928905
2.960308
2.982919
2.986060
2.978524
2.963452
2.938959
2.919176
2.896567
2.869248
2.842242
2.820576
2.782893
2.730138
2.654459
2.564021
2.472012
2.378434
2.292077
2.221109
2.163957
2.110888
2.064727
1.990618
1.912112
1.818220
1.706428
1.586785
1.437938
1.286893
1.136476
0.987001
0.856367
0.741435
0.634039
0.568723
0.515967
0.508432
0.545173
0.609863
0.712236
0.848524
0.995803
1.173542
1.350653
1.519599
1.677868
1.802851
1.884499
1.934429
1.933802
1.883559
1.793121
1.664999
1.519607
1.374214
1.226309
1.093477
0.966612
0.851052
0.740830
0.635946
0.532319
0.433716
0.342021
0.255665
0.193175
0.154551
0.135082
0.133513
0.130374
0.122524
0.111534
0.089239
0.050929
-0.002455
-0.069341
-0.131831
-0.159151
-0.148159
-0.085981
0.021416
0.166183
0.345178
0.555575
0.796747
1.060215
1.328393
1.600654
1.858783
2.108748
2.331707
2.523577
2.672740
2.784219
2.857074
2.899154
2.914856
2.915171
2.901041
2.868069
2.814058
2.749055
2.673690
2.601151
2.521704
2.434720
2.324184
2.186956
2.012673
1.821118
1.610094
1.394046
1.178626
0.968858
0.778245
0.615267
0.476783
0.370330
0.294650
0.247548
0.230905
0.248177
0.303761
0.405191
0.548388
0.716706
0.912030
1.114891
1.329057
1.550760
1.772776
1.982232
2.184465
2.368484
2.538687
2.684395
2.793048
2.857110
2.857111
2.817545
2.740610
2.604952
2.488449
2.349651
2.229380
2.134546
2.070800
2.035944
2.028094
2.021814
2.016477
1.986331
1.924155
1.842823
1.751129
1.661633
1.593804
1.541991
1.516556
1.518441
1.552356
1.612964
1.732294
1.896530
2.106300
2.334283
2.555985
2.767011
2.951658
3.119663
3.255636
3.341366
3.380620
3.388471
3.375911
3.369946
3.361782
3.363981
3.378113
3.418309
3.470752
3.537954
3.596992
3.664194
3.736734
3.806449
3.875221
3.929548
3.955299
3.962837
3.946194
3.901289
3.819644
3.720413
3.636569
3.553039
3.475162
3.425233
3.369023
3.312185
3.232424
3.149208
3.054059
2.951374
2.842094
2.738781
2.632641
2.540633
2.476573
2.434180
2.401522
2.377971
2.345942
2.320506
2.306062
2.284395
2.262414
2.226616
2.174175
2.125502
2.082795
2.052336
2.036321
2.033182
2.043232
2.071495
2.101014
2.134929
2.177638
2.220660
2.262740
2.291945
2.295401
2.286295
2.267768
2.252696
2.251440
2.263060
2.274052
2.273111
2.260865
2.262436
2.269659
2.293840
2.322417
2.330896
2.367010
2.398413
2.436725
2.502671
2.573956
2.627655
2.693287
2.709617
2.714329
2.703967
2.682928
2.642419
2.572707
2.475988
2.323059
2.138413
1.925819
1.703176
1.491210
1.263228
1.049692
0.842751
0.651510
0.490416
0.379252
0.283476
0.198062
0.116730
0.046075
-0.020811
-0.091152
-0.195721
-0.338288
-0.515711
-0.704439
-0.900076
-1.091630
-1.258377
-1.394035
-1.511479
-1.614479
-1.709941
-1.797554
-1.846855
-1.858159
-1.846853
-1.814507
-1.768659
-1.708679
-1.636139
-1.573961
-1.521832
-1.499849
-1.492626
-1.491997
-1.492938
-1.504870
-1.523711
-1.564219
-1.609752
-1.669102
-1.741641
-1.819204
-1.893627
-1.971505
-2.024260
-2.076073
-2.118780
-2.155206
-2.176873
-2.164625
-2.136048
-2.095852
-2.029592
-1.939152
-1.821391
-1.694838
-1.544106
-1.388034
-1.264308
-1.172611
-1.106351
-1.068354
-1.036950
-1.032239
-1.038833
-1.034435
-0.996124
-0.909766
-0.784155
-0.621489
-0.439354
-0.274804
-0.142913
-0.053729
-0.012590
-0.024837
-0.073510
-0.177137
-0.314365
-0.481740
-0.662303
-0.820571
-0.957799
-1.060484
-1.140874
-1.207446
-1.254235
-1.274960
-1.301337
-1.350638
-1.452067
-1.593692
-1.768603
-1.940060
-2.122193
-2.313434
-2.503418
-2.691518
-2.852926
-2.955925
-3.009309
-3.021241
-3.002713
-2.963459
-2.904107
-2.849152
-2.801419
-2.765305
-2.745835
-2.715060
-2.682086
-2.662616
-2.624304
-2.568721
-2.499320
-2.419243
-2.341364
-2.227058
-2.094539
-1.940352
-1.798097
-1.675627
-1.576394
-1.470567
-1.383581
-1.325172
-1.293768
-1.276810
-1.292196
-1.307269
-1.361908
-1.427539
-1.500706
-1.609985
-1.718951
-1.827917
-1.980532
-2.147279
-2.310571
-2.496787
-2.667930
-2.856972
-3.023404
-3.145245
-3.246360
-3.318271
-3.358465
-3.387669
-3.386412
-3.371338
-3.374477
-3.404937
-3.443875
-3.485640
-3.533685
-3.593034
-3.648930
-3.692265
-3.727749
-3.763547
-3.783643
-3.804368
-3.845505
-3.906425
-3.983988
-4.089499
-4.194697
-4.323132
-4.429900
-4.528503
-4.585655
-4.618312
-4.622708
-4.614542
-4.612343
-4.597897
-4.570262
-4.532579
-4.508398
-4.517818
-4.541369
-4.581563
-4.676712
-4.787248
-4.925732
-5.105667
-5.285917
-5.445127
-5.568852
-5.671223
-5.747844
-5.787096
-5.787724
-5.751296
-5.685664
-5.604330
-5.503842
-5.372892
-5.211797
-5.037826
-4.859773
-4.686430
-4.522822
-4.380254
-4.265948
