EVENT_NAME: 202302060117
EVENT_ID: 13194
EVENT_DATE_YYYYMMDD: 2023/02/06
EVENT_TIME_HHMMSS: 01:17:32.00000
EVENT_LATITUDE_DEGREE: 37.288
EVENT_LONGITUDE_DEGREE: 37.043
EVENT_DEPTH_KM: 8.6
HYPOCENTER_REFERENCE: AFAD
MAGNITUDE_W: 7.7
MAGNITUDE_W_REFERENCE: AFAD
MAGNITUDE_L: 
MAGNITUDE_L_REFERENCE: 
FOCAL_MECHANISM: 
NETWORK: TK
STATION_CODE: 4615
STATION_NAME: 
STATION_LATITUDE_DEGREE: 37.38676
STATION_LONGITUDE_DEGREE: 37.13803
STATION_ELEVATION_M: 581.0
LOCATION: Kahramanmaras_Pazarck_Turkiye
SENSOR_DEPTH_M: 
VS30_M/S: 484
SITE_CLASSIFICATION_EC8: B
MORPHOLOGIC_CLASSIFICATION: 
EPICENTRAL_DISTANCE_KM: 13.83
EARTHQUAKE_BACKAZIMUTH_DEGREE: 
DATE_TIME_FIRST_SAMPLE_YYYYMMDD_HHMMSS: 2023/02/06 01:17:04.8060700
DATE_TIME_FIRST_SAMPLE_PRECISION: millisecond
SAMPLING_INTERVAL_S: 0.01
NDATA: 10501
DURATION_S: 
STREAM: HNZ
UNITS: cm/s^2
INSTRUMENT: sensor = GMS+/GEOSIG | digitizer = 
INSTRUMENT_ANALOG/DIGITAL: 
INSTRUMENTAL_FREQUENCY_HZ: 
INSTRUMENTAL_DAMPING: 
FULL_SCALE_G: 
N_BIT_DIGITAL_CONVERTER: 
PGA_CM/S^2: 664.181
TIME_PGA_S: 
BASELINE_CORRECTION: BASELINE REMOVED
FILTER_TYPE: BUTTERWORTH
FILTER_ORDER: 
LOW_CUT_FREQUENCY_HZ: 
HIGH_CUT_FREQUENCY_HZ: 
LATE/NORMAL_TRIGGERED: 
DATABASE_VERSION: 
HEADER_FORMAT: DYNA 1.2
DATA_TYPE: Acceleration
PROCESSING: Manual Paolucci et al., 2011
DATA_TIMESTAMP_YYYYMMDD_HHMMSS: 
DATA_LICENSE: U (unknown license)
DATA_CITATION: Turkish Accelerometric Archive v 1.0 - Disaster And Emergency Management Presidency, Earthquake Department
DATA_CREATOR: AFAD
ORIGINAL_DATA_MEDIATOR_CITATION: : AFAD - Disaster And Emergency Management Presidency
ORIGINAL_DATA_MEDIATOR: AFAD PROCESS SERVICE
ORIGINAL_DATA_CREATOR_CITATION: AFAD PROCESS SERVICE
ORIGINAL_DATA_CREATOR: network: TK
USER1: GuestUser
USER2: 
USER3: 
USER4: 
USER5: 
[...]
0.013215
0.011398
0.013997
0.011660
0.010882
0.013481
0.011404
0.011665
0.011406
0.011407
0.012188
0.011410
0.011411
0.011932
0.012452
0.010375
0.011156
0.012975
0.011158
0.011679
0.012459
0.011681
0.011423
0.011684
0.011945
0.014024
0.014804
0.012727
0.012209
0.011951
0.011952
0.011953
0.012474
0.013254
0.012216
0.012217
0.012738
0.012480
0.013260
0.011703
0.012483
0.012484
0.011446
0.011448
0.011449
0.012489
0.012230
0.014050
0.012752
0.010675
0.013274
0.012496
0.012238
0.011979
0.011720
0.010683
0.011203
0.014062
0.012764
0.012506
0.013026
0.013547
0.012769
0.011212
0.012512
0.011214
0.013034
0.014334
0.010698
0.012258
0.013818
0.012000
0.011742
0.012522
0.010705
0.010447
0.012266
0.011748
0.012009
0.012789
0.012271
0.011753
0.010715
0.012015
0.012535
0.011238
0.012538
0.012279
0.010982
0.012541
0.012802
0.012544
0.012025
0.011247
0.011508
0.010470
0.011511
0.012031
0.011773
0.013073
0.011775
0.012296
0.014375
0.013597
0.014378
0.014379
0.012821
0.013342
0.011525
0.011526
0.013605
0.012308
0.011530
0.012050
0.013091
0.012832
0.012054
0.013354
0.012836
0.011278
0.012578
0.011800
0.010502
0.013101
0.013882
0.013104
0.012585
0.011288
0.012588
0.012329
0.012590
0.013890
0.014151
0.012853
0.011816
0.013375
0.012337
0.012339
0.013639
0.012341
0.011563
0.011824
0.012345
0.012606
0.011568
0.012348
0.014168
0.014169
0.014690
0.012093
0.012874
0.014953
0.012097
0.011578
0.012359
0.013139
0.012621
0.013142
0.013143
0.011845
0.012886
0.011588
0.012109
0.012889
0.011851
0.012112
0.011074
0.012115
0.013155
0.013416
0.013417
0.012119
0.013160
0.012641
0.011603
0.013683
0.013164
0.012906
0.015245
0.012389
0.009792
0.013430
0.012912
0.010315
0.011096
0.011876
0.012137
0.011359
0.012399
0.013699
0.012921
0.012663
0.012404
0.012665
0.013965
0.013966
0.012149
0.011890
0.011892
0.011893
0.014232
0.013714
0.011896
0.012937
0.012938
0.011900
0.012680
0.013980
0.011384
0.009827
0.012166
0.011128
0.012168
0.014247
0.012430
0.013211
0.012952
0.011654
0.012175
0.010877
0.012178
0.012179
0.010362
0.012701
0.013221
0.012443
0.012444
0.013225
0.014005
0.013747
0.011410
0.012191
0.014270
0.012193
0.013233
0.012975
0.012197
0.012717
0.011939
0.013759
0.012981
0.012982
0.014801
0.012984
0.011427
0.012467
0.013247
0.013768
0.012471
0.013251
0.015850
0.013513
0.010397
0.011437
0.013257
0.013258
0.012220
0.014559
0.014301
0.012484
0.015602
0.013525
0.011188
0.013527
0.012749
0.012231
0.011972
0.011454
0.013274
0.014054
0.013536
0.014316
0.013019
0.012760
0.012501
0.012243
0.013803
0.013025
0.012506
0.014066
0.014067
0.012250
0.012251
0.013032
0.012513
0.012255
0.012775
0.012777
0.012778
0.013299
0.013040
0.014340
0.014341
0.011745
0.011746
0.011747
0.012528
0.012529
0.012010
0.015129
0.012792
0.011754
0.015652
0.012796
0.012018
0.013577
0.012280
0.012541
0.012022
0.013063
0.013324
0.013065
0.013845
0.012808
0.013069
0.012810
0.012811
0.012812
0.012554
0.013594
0.012556
0.013077
0.013338
0.012819
0.013600
0.012043
0.013862
0.015682
0.012566
0.013086
0.014386
0.011011
0.011272
0.013611
0.013092
0.013353
0.012575
0.011537
0.012058
0.013098
0.014398
0.015439
0.013621
0.013882
0.014923
0.010767
0.010769
0.012328
0.011810
0.012591
0.010773
0.011294
0.014932
0.012595
0.011817
0.014156
0.013378
0.014678
0.014679
0.011563
0.012863
0.014163
0.013126
0.011828
0.011310
0.012610
0.013650
0.013391
0.012094
0.013134
0.013914
0.013916
0.013657
0.012100
0.011581
0.011323
0.011843
0.012624
0.013664
0.012886
0.011329
0.011590
0.011850
0.012891
0.013931
0.013413
0.012635
0.012376
0.013156
0.013158
0.012639
0.011601
0.012382
0.014201
0.011605
0.012126
0.014984
0.012907
0.013688
0.014988
0.014729
0.013951
0.011874
0.012395
0.013955
0.012397
0.012139
0.012140
0.011102
0.013441
0.013962
0.013444
0.012146
0.011108
0.013967
0.012929
0.012930
0.012931
0.011633
0.012414
0.011636
0.013196
0.013457
0.012419
0.012939
0.011902
0.011903
0.014242
0.012684
0.011387
0.013466
0.012428
0.011910
0.012690
0.013731
0.013472
0.011655
0.011916
0.012696
0.012438
0.012699
0.012700
0.012961
0.013482
0.012184
0.012185
0.012966
0.013746
0.012448
0.011151
0.011672
0.011153
0.012193
0.011415
0.011936
0.012717
0.012718
0.012199
0.012201
0.014799
0.013762
0.011944
0.012465
0.014025
0.013247
0.012209
0.012989
0.012731
0.012472
0.012214
0.012215
0.011696
0.013256
0.013517
0.011960
0.012481
0.012222
0.011963
0.013783
0.013784
0.013006
0.012747
0.012489
0.011451
0.010673
0.011194
0.013533
0.012755
0.012236
0.013536
0.012498
0.013279
0.012760
0.011723
0.013023
0.011985
0.011986
0.013546
0.012768
0.013548
0.014069
0.013550
0.012772
0.012774
0.014333
0.011737
0.011219
0.013038
0.011481
0.010703
0.012262
0.013562
0.013564
0.012785
0.012007
0.012268
0.012010
0.013310
0.014870
0.014091
0.014612
0.013574
0.010718
0.012018
0.013838
0.012020
0.011762
0.012283
0.012284
0.011765
0.010728
0.010988
0.011769
0.014368
0.012810
0.012032
0.012813
0.011515
0.013594
0.013596
0.014116
0.014897
0.013080
0.013600
0.012563
0.011525
0.013084
0.012566
0.012048
0.013348
0.011531
0.012831
0.015689
0.013353
0.011535
0.012576
0.012057
0.011019
0.013618
0.013879
0.013880
0.013882
0.011545
0.014403
0.013625
0.010509
0.012329
0.012850
0.012331
0.011293
0.012334
0.014673
0.013115
0.013117
0.011819
0.011560
0.013640
0.011822
0.012343
0.012604
0.012346
0.013386
0.013127
0.014947
0.013130
0.013910
0.014171
0.011315
0.014173
0.013915
0.012357
0.013657
0.013918
0.014699
0.013401
0.013922
0.013663
0.012106
0.014705
0.012888
0.011330
0.013410
0.010813
0.013152
0.014452
0.012375
0.014455
0.014196
0.012119
0.012380
0.013940
0.014201
0.011864
0.012385
0.016023
0.014985
0.013687
0.012390
0.011871
0.013171
0.010834
0.012914
0.014214
0.011877
0.011878
0.010840
0.011621
0.011622
0.011883
0.012923
0.013444
0.012406
0.013706
0.013448
0.010851
0.014229
0.013971
0.011634
0.013194
0.012416
0.013196
0.013717
0.012159
0.011641
0.012681
0.012942
0.011645
0.011126
0.011907
0.013207
0.012429
0.012430
0.013990
0.014510
0.014771
0.015032
0.014254
0.013216
0.012438
0.012180
0.012181
0.012442
0.013482
0.013743
0.013225
0.013226
0.013227
0.012709
0.011671
0.012711
0.014790
0.013233
0.011676
0.012716
0.014016
0.013757
0.014018
0.013500
0.012982
0.013242
0.012205
0.012466
0.014025
0.014027
0.012469
0.011431
0.013251
0.012992
0.011954
0.012735
0.011697
0.012997
0.012479
0.012220
0.013260
0.012482
0.014302
0.014303
0.013005
0.013266
0.013008
0.012230
0.012231
0.013791
0.013532
0.012754
0.012495
0.012756
0.013277
0.012239
0.011461
0.012761
0.012502
0.012763
0.013024
0.012766
0.012507
0.013547
0.014588
0.012511
0.014071
0.016150
0.012774
0.013814
0.014855
0.013297
0.014337
0.012520
0.012262
0.014081
0.013043
0.012265
0.010968
0.012008
0.013827
0.013569
0.012791
0.012532
0.015131
0.014613
0.011756
0.013576
0.013577
0.012539
0.014359
0.014100
0.014361
0.014882
0.014623
0.012806
0.012028
0.012809
0.011771
0.011772
0.013072
0.013333
0.013854
0.013595
0.012557
0.014117
0.014118
0.013859
0.013601
0.013342
0.015162
0.013085
0.012307
0.012828
0.011010
0.012051
0.012312
0.012053
0.011794
0.011016
0.013096
0.012837
0.011539
0.013099
0.013880
0.013881
0.012583
0.012065
0.014664
0.015444
0.013627
0.014148
0.013889
0.012851
0.014671
0.012334
0.012855
0.014415
0.011818
0.011819
0.011301
0.011302
0.012602
0.013902
0.014943
0.013385
0.014166
0.014427
0.013129
0.014169
0.013651
0.012873
0.013913
0.013914
0.013396
0.014176
0.013918
0.013140
0.012881
0.013921
0.014442
0.012885
0.014444
0.014705
0.014447
0.016266
0.016008
0.017048
0.018868
0.020427
0.021987
0.026145
0.032120
0.039135
0.049268
0.055243
0.059661
0.066935
0.075769
0.087719
0.092916
0.091098
0.092918
0.108505
0.131106
0.140979
0.141240
0.138124
0.139164
0.148257
0.145401
0.132673
0.139948
0.152158
0.145665
0.148004
0.168267
0.200740
0.244901
0.253735
0.236851
0.289845
0.401546
0.483114
0.531692
0.621054
0.767304
0.918230
1.056688
1.218005
1.486606
1.761182
1.833139
1.839375
1.873925
1.815998
1.833144
1.945884
1.799636
1.404011
1.154115
0.959290
0.683418
0.464695
-0.254602
-1.008707
-0.715168
-0.422408
-1.135989
-1.750080
-1.362505
-0.880114
-0.666324
-0.889464
-1.387697
-0.406812
0.160782
-1.284826
-0.995703
0.009081
-1.264300
-1.841244
-0.958811
-0.112226
0.515115
0.702928
0.536678
0.676694
1.280136
0.388614
-0.179238
-0.057406
-2.120221
-3.957299
-3.847156
-3.107336
-3.383468
-3.597775
-2.217108
-0.843714
-1.907202
-4.420456
-3.673882
-2.931723
-6.036468
-5.849434
0.497477
3.876799
-3.116672
-13.167612
-12.328040
-0.738493
9.471686
12.359008
7.185471
-0.564704
1.579422
7.561618
5.005763
1.796332
1.580206
3.242462
7.179506
9.262586
14.024393
20.115432
20.749008
15.456757
4.840822
-10.870720
-33.448188
-51.855861
-51.005120
-32.150644
-7.946766
14.549657
25.966718
14.210402
3.890343
6.696617
-3.964517
-13.984803
-1.687129
18.104331
36.558765
38.671199
16.782635
-7.193164
-21.925381
-21.354929
-4.202712
17.446348
22.305048
2.092248
-16.358807
-19.324316
-7.740484
11.599499
19.407085
10.293648
1.890676
2.830777
-13.660588
-36.059076
-36.513409
-25.090113
-0.203306
19.385275
11.470147
1.762881
5.978396
6.699513
-5.044074
-14.223232
-6.780361
6.420787
13.655325
14.642444
8.240724
4.773084
2.744557
2.938345
17.689528
26.968958
21.678786
13.216327
-1.700844
-14.699890
-11.348363
-3.476614
2.467397
7.741985
-1.049079
-9.945091
-7.064523
-2.434159
4.524246
6.516148
4.259285
5.829843
5.798153
3.634547
1.458992
1.880336
6.286781
4.677520
0.600723
1.677462
0.893744
1.912035
6.141058
7.944888
9.269965
17.517338
22.074968
6.393559
-11.553286
-29.705608
-44.425876
-29.779640
-9.507090
-5.369765
-4.595396
-7.771057
-18.312179
-27.295212
-15.367967
9.078534
13.302622
6.543461
-1.898995
-21.142342
-15.843335
10.386992
15.861343
17.810902
18.450452
18.828675
23.420594
12.224857
2.184569
-4.966322
-14.765806
-4.551989
39.607000
58.575255
34.969106
13.692816
-47.599165
-88.151794
-125.984393
-164.440695
-36.964262
99.467931
97.117812
1.563741
-40.061729
19.840755
-40.666467
-63.892575
40.777014
47.513836
42.097157
57.869747
-26.901357
-81.053097
-1.617104
15.909959
-12.489428
17.690150
-53.440021
-91.169752
34.810419
80.013675
19.393195
-13.787480
9.870105
30.499836
-3.488718
-5.628425
10.558755
-33.461257
-18.502520
100.424173
128.337536
38.072600
-44.281364
-127.794672
-167.776591
-48.815610
64.172788
37.425525
64.940145
80.025908
28.215976
76.129132
92.026670
39.263910
-11.020665
-70.984192
-81.643768
-44.472016
22.905810
25.341915
-15.469963
-13.567941
-17.508619
5.659824
-16.427462
-73.676935
-40.509505
37.600892
63.729650
23.105065
35.096213
42.321659
-10.031707
-32.355122
-68.258165
-74.212564
-26.445918
13.877339
50.005343
52.057771
20.837044
-25.300595
-20.452285
55.818695
87.692221
80.580815
80.414565
90.405241
131.579497
158.388067
106.957656
-24.647527
-122.866037
-136.018605
-58.706215
140.846206
234.589177
78.094331
-100.248297
-173.077610
-173.278409
-113.083686
-67.571825
32.450516
174.154179
165.312460
138.286466
101.865965
-16.778876
-88.460794
-166.881612
-203.225481
-106.901456
39.789492
114.533556
119.330172
191.597350
169.924134
-41.369535
-205.181524
-202.018849
-123.014590
-123.151486
-101.055626
-23.957804
-49.786267
-100.501277
-87.546130
-46.034176
-87.730563
-199.206329
-228.327092
-219.908272
-229.883878
-148.143744
7.879106
38.318453
-32.883154
-27.732734
22.557298
46.363990
59.345114
22.370268
-59.588329
-107.389522
-152.615636
-145.051972
-54.662085
-4.592856
34.557808
58.139282
75.099011
50.568868
-93.393995
-133.595158
-120.908091
-236.009439
-275.338820
-89.092232
111.216633
97.198258
21.348104
-34.346917
-142.643383
-207.024784
-177.240572
-122.015469
-75.408946
-55.549167
-66.167700
17.063503
184.660313
211.479274
107.326365
73.099865
67.632790
75.388163
153.523758
145.649933
94.862967
110.834280
124.127125
125.349334
101.258199
44.367986
-55.078448
-177.747354
-159.259150
-26.008855
-9.830767
-56.366631
-77.432250
-161.257279
-231.303179
-189.700825
-148.583978
-183.092327
-154.456030
27.612971
175.792129
130.178442
43.314127
-10.398605
-41.403983
8.360538
1.890500
-45.210099
-2.776748
4.973689
-76.642014
-169.303310
-200.486110
-201.118643
-235.093429
-188.132583
-70.490703
-32.558091
-35.259936
12.151608
32.523649
-55.977463
-140.798962
-136.102617
-83.831854
-62.718955
-33.250361
59.341578
45.968467
-42.736303
-84.789611
-171.734714
-254.945392
-260.273750
-268.355649
-293.528718
-257.705421
-159.898641
-19.247817
136.676841
216.355457
219.028990
152.203693
28.392847
-52.010000
-77.900289
-93.465841
-115.693921
-161.047581
-201.258096
-165.561306
-64.902014
-1.708010
-15.577798
-91.725906
-197.104400
-278.592817
-328.202255
-342.709772
-302.717720
-228.468513
-131.568323
-26.940556
43.017545
88.684747
141.843916
171.009880
118.689245
65.889597
112.439231
171.399017
192.490355
189.510039
146.544426
91.808988
56.091679
93.505015
180.168011
219.057089
255.832955
378.224431
539.860347
635.000090
664.181121
638.130816
508.120348
337.039273
210.018475
138.553723
133.046644
166.135883
159.512062
51.747860
-81.239808
-147.620382
-109.769337
-73.865513
-124.959784
17.659821
100.538778
-120.561909
-187.493192
-174.270484
-219.676097
-232.130409
-270.257585
-289.578862
-290.599230
-273.160748
-224.747539
-169.290983
-184.479872
-283.175316
-308.680109
-202.973526
-92.131072
-30.260845
72.488280
281.800182
532.389986
600.132007
458.627068
319.059479
208.497317
121.590660
121.571439
134.794926
90.345518
30.420696
-20.752025
-74.744527
-129.123044
-165.540427
-202.466177
-221.303247
-277.849267
-305.225688
-151.017057
58.349397
271.426115
243.813825
291.611124
481.853463
195.517257
66.779133
169.427728
164.044818
135.268768
110.086087
151.086558
49.327151
135.087714
113.367480
-39.782854
40.014996
59.165348
71.608233
7.827156
-10.612989
6.052943
-2.513163
-22.861302
14.781928
68.233856
-118.978548
-131.687952
-46.004021
-46.878139
31.871548
180.114868
325.381768
253.571005
160.581623
143.006765
62.335059
39.062971
39.434960
-9.985107
-34.260678
-113.918251
-153.609489
-51.273915
30.510121
90.915775
70.578806
-6.269897
-2.140365
-20.935612
-65.452819
-105.882578
-173.714476
-208.714046
-162.402360
-32.179659
128.982180
289.215349
320.864954
206.300807
87.910278
-61.770336
-170.797270
-194.352245
-206.885267
-192.539582
-149.257829
-107.053073
-129.065806
-154.714250
-92.992871
10.689081
72.397731
80.356762
111.910773
94.820383
-47.679207
-174.566485
-209.603462
-212.152303
-198.576311
-183.870068
-162.565980
-107.509466
-2.187600
140.798278
238.420104
231.680946
104.400120
13.723191
47.302353
71.192431
52.106244
4.134123
4.362460
91.794110
156.844675
153.241955
146.989862
157.417207
90.976886
-18.594522
-53.692804
-20.360162
37.204151
99.297518
139.148776
116.928749
67.963016
31.505628
28.297756
127.434548
228.562721
203.585257
163.105103
200.208536
219.473706
156.986014
103.778271
93.667585
91.126796
127.973578
162.094356
95.722614
-1.574760
11.135426
100.637946
132.807866
150.955255
215.055848
173.189313
61.046203
57.136957
88.029858
80.979758
73.356090
61.797977
79.361927
95.326745
27.404188
11.100895
72.225068
40.810035
-8.037503
-2.943973
11.585888
56.907598
66.912301
27.236909
28.367420
26.039900
-19.430915
-6.570064
66.553049
73.398974
36.475303
20.461911
-23.462766
-61.043910
-38.443060
2.236079
-5.843482
-5.478507
9.271637
-0.892042
60.661787
4.762329
-73.655112
52.319863
30.205302
-96.358825
-107.440004
-133.514987
-179.425070
-156.125704
-92.199675
-43.160425
-3.892086
-15.085745
21.743893
76.532846
-14.424112
-103.039262
-137.232773
-178.448329
-180.661291
-120.948438
-62.708208
-81.802708
-115.034557
-106.616517
-81.114579
-80.781815
-110.115847
-134.477141
-141.581014
-149.414834
-154.400039
-125.442149
-128.291022
-158.058866
-105.728617
-37.345230
-2.742323
56.683228
69.673963
9.032182
-61.234521
-110.616142
-104.050507
-83.815623
-75.655792
-44.045672
-10.138163
-10.627565
-19.969078
-34.145392
-111.347378
-160.667175
-105.491687
-54.974099
-19.253930
13.983377
-7.357855
-17.446461
29.968200
57.096545
6.034485
-43.554951
-20.264417
-18.248098
-57.197699
-62.423709
-48.016199
-32.130350
-30.667336
-47.310666
-32.899780
-1.687364
3.230564
28.131139
106.808870
134.538577
48.401613
-27.644926
-17.665940
31.665808
94.343134
163.502708
203.203040
164.211357
126.215364
162.250891
126.178479
12.488970
-9.249447
35.526751
55.515894
70.577239
99.378229
84.165961
13.532726
-47.982655
-89.417196
-115.809356
-107.467947
-66.016519
-29.246887
-21.035103
-19.023459
-45.393279
-111.784244
-151.561985
-146.258042
-129.828499
-123.148306
-114.213587
-84.796427
-52.007999
-18.105427
18.025435
45.041820
64.648325
98.939250
147.314793
140.594078
100.318621
84.905293
35.473536
-24.525060
20.797690
104.253332
82.608691
45.630468
70.138794
47.050102
-48.614889
-124.278011
-138.575117
-119.863772
-46.341656
58.823051
79.711771
4.418299
-60.240534
-72.991501
-82.248589
-61.600155
-11.670421
-28.349599
-79.374512
-84.246718
-70.631761
-63.743234
-68.178770
-57.166946
-4.696942
6.662970
-33.727044
-39.618060
-30.680743
-40.970409
-34.878591
-7.255648
-0.185023
-18.503337
-26.172724
-22.623254
-36.969975
-68.224991
-55.187757
25.576430
71.410663
33.202439
-20.227925
-54.557554
-70.914100
-80.160018
-84.293964
-69.549276
-57.232638
-39.897024
4.530825
43.389769
75.013398
96.080838
86.245506
74.717006
69.999882
89.234399
125.576972
96.499850
25.274345
-13.242224
-23.588519
-1.800483
39.545999
71.005974
97.159150
85.096308
36.931180
46.131122
79.616767
60.927765
53.364883
49.236392
12.582100
-9.873796
-18.528483
-12.905026
19.179951
32.494097
20.799606
18.046847
-0.082875
-26.177601
-21.620491
-8.173603
11.205345
49.561638
62.080895
65.819216
104.897924
105.601377
63.689902
25.579351
-9.019397
11.335499
62.340412
89.484603
106.277042
93.794675
61.705025
24.224411
-37.460858
-91.855740
-123.311297
-119.103575
-68.744185
-39.418463
-54.156655
-52.825603
-35.308152
-37.018462
-23.372592
20.692881
82.679223
126.898479
93.239051
32.503234
2.002584
-13.087333
-21.802805
-41.064336
-40.308670
38.454524
124.617987
116.153970
61.577250
17.912341
-35.733630
-53.085087
3.225846
50.136297
43.441040
7.868941
-23.627139
-16.307657
-12.085128
-51.657393
-100.930951
-119.981030
-103.490961
-71.215056
-37.274557
-28.986920
-33.366346
-0.312695
33.150870
11.147749
-16.089956
-11.435693
-27.486752
-44.185152
-29.146407
-30.376666
-38.467137
-33.427119
-21.566114
-2.192102
13.994818
37.582007
66.946953
