EVENT_NAME: 202302060117
EVENT_ID: 13194
EVENT_DATE_YYYYMMDD: 2023/02/06
EVENT_TIME_HHMMSS: 01:17:32.00000
EVENT_LATITUDE_DEGREE: 37.288
EVENT_LONGITUDE_DEGREE: 37.043
EVENT_DEPTH_KM: 8.6
HYPOCENTER_REFERENCE: AFAD
MAGNITUDE_W: 7.7
MAGNITUDE_W_REFERENCE: AFAD
MAGNITUDE_L: 
MAGNITUDE_L_REFERENCE: 
FOCAL_MECHANISM: 
NETWORK: TK
STATION_CODE: 3126
STATION_NAME: 
STATION_LATITUDE_DEGREE: 36.2202
STATION_LONGITUDE_DEGREE: 36.1375
STATION_ELEVATION_M: 123.0
LOCATION: Kahramanmaras_Pazarck_Turkiye
SENSOR_DEPTH_M: 
VS30_M/S: 350
SITE_CLASSIFICATION_EC8: C
MORPHOLOGIC_CLASSIFICATION: 
EPICENTRAL_DISTANCE_KM: 143.54
EARTHQUAKE_BACKAZIMUTH_DEGREE: 
DATE_TIME_FIRST_SAMPLE_YYYYMMDD_HHMMSS: 2023/02/06 01:17:36.7762850
DATE_TIME_FIRST_SAMPLE_PRECISION: millisecond
SAMPLING_INTERVAL_S: 0.01
NDATA: 12501
DURATION_S: 
STREAM: HNZ
UNITS: cm/s^2
INSTRUMENT: sensor = GMS+/GEOSIG | digitizer = 
INSTRUMENT_ANALOG/DIGITAL: 
INSTRUMENTAL_FREQUENCY_HZ: 
INSTRUMENTAL_DAMPING: 
FULL_SCALE_G: 
N_BIT_DIGITAL_CONVERTER: 
PGA_CM/S^2: 1071.449
TIME_PGA_S: 
BASELINE_CORRECTION: BASELINE REMOVED
FILTER_TYPE: BUTTERWORTH
FILTER_ORDER: 
LOW_CUT_FREQUENCY_HZ: 
HIGH_CUT_FREQUENCY_HZ: 
LATE/NORMAL_TRIGGERED: 
DATABASE_VERSION: 
HEADER_FORMAT: DYNA 1.2
DATA_TYPE: Acceleration
PROCESSING: Automatic Paolucci et al., 2011
DATA_TIMESTAMP_YYYYMMDD_HHMMSS: 
DATA_LICENSE: U (unknown license)
DATA_CITATION: Turkish Accelerometric Archive v 1.0 - Disaster And Emergency Management Presidency, Earthquake Department
DATA_CREATOR: AFAD
ORIGINAL_DATA_MEDIATOR_CITATION: : AFAD - Disaster And Emergency Management Presidency
ORIGINAL_DATA_MEDIATOR: AFAD PROCESS SERVICE
ORIGINAL_DATA_CREATOR_CITATION: AFAD PROCESS SERVICE
ORIGINAL_DATA_CREATOR: network: TK
USER1: GuestUser
USER2: 
USER3: 
USER4: 
USER5: 
[...]
-26.739065
-22.801801
-19.098068
-17.318176
-11.328225
-2.982180
1.952074
3.686506
2.249432
1.527239
0.245247
-2.981888
-5.105529
-8.478653
-7.940452
1.286207
15.640165
25.159323
19.002785
6.125272
0.652443
0.911913
0.525860
-1.215662
-4.409547
-9.226721
-14.373801
-24.595966
-38.663996
-45.063676
-39.953300
-28.976584
-18.968803
-12.679340
-12.601188
-16.916231
-18.118215
-17.864720
-21.261743
-24.647336
-23.341261
-18.262836
-10.972487
-3.397952
2.578230
9.990930
20.068329
29.370061
35.291432
33.359760
23.471396
14.807319
13.702488
20.827365
34.034447
46.740438
49.494459
38.314010
24.112719
19.423611
19.085355
13.980358
7.569507
6.441557
11.044347
15.859107
17.719787
19.843092
18.904512
10.422013
1.899249
0.554392
4.004592
5.855141
2.474223
-5.271315
-11.335115
-11.115390
-9.692939
-13.208416
-17.674903
-15.521725
-11.065704
-12.306394
-14.490041
-7.983931
5.776457
17.860823
24.400702
23.466019
17.555741
14.024418
12.327317
7.581838
2.023546
-1.736893
-10.166919
-22.591917
-25.277955
-13.637533
-0.893616
-2.840874
-17.380642
-26.599324
-19.825914
-3.094560
11.044570
15.604758
12.932488
9.168932
4.411764
0.883558
9.716149
28.358356
40.548967
38.890311
30.156096
22.456537
15.331325
9.542359
6.036752
3.295643
-2.599828
-14.125509
-20.198921
-14.755002
-7.152153
-5.713596
-9.019960
-11.466492
-15.908042
-21.927422
-19.595783
-11.872661
-10.312273
-14.063620
-14.802698
-12.009191
-13.662133
-18.197459
-16.073894
-9.155793
-6.978196
-16.492494
-30.103332
-32.718713
-27.301291
-24.199700
-21.243320
-12.995726
-1.897699
6.330412
7.143967
0.095646
-7.972524
-8.759139
-2.773345
4.558827
13.109570
19.999356
20.513139
16.257064
10.180275
3.537971
-2.160336
-1.472769
6.316335
8.214940
-2.161268
-7.451219
3.370934
14.790554
12.223229
-0.198131
-10.084417
-11.628256
-8.088696
-6.552986
-11.168321
-18.529402
-19.792172
-13.125786
-9.078380
-10.931342
-14.498513
-15.864411
-8.960597
-0.755605
-5.948404
-18.490297
-21.838744
-21.001809
-25.268276
-27.186700
-21.171552
-13.681701
-12.821388
-14.104420
-18.478949
-34.353665
-45.780894
-38.598089
-21.306415
-2.192989
13.364993
19.122971
13.348032
8.302782
13.171055
21.510086
31.378372
40.933118
44.137837
41.108385
35.234475
29.812561
27.359015
26.588246
22.630384
19.456761
23.782898
29.268899
27.076160
18.852129
10.229874
0.152919
-7.319084
-4.685075
-4.223505
-15.590208
-21.463859
-12.697249
-2.381903
4.655952
15.895293
28.299952
25.558324
2.916654
-19.485250
-22.041145
-13.173745
-6.611786
1.382275
11.099895
12.205949
5.198931
5.350337
18.623401
33.209592
34.401629
18.021405
-0.685300
-4.631992
1.119491
3.900789
5.063732
13.738384
20.994703
13.018751
1.753617
-1.678995
-2.354169
-4.212067
0.809728
15.216679
21.241179
20.138945
22.431100
16.938269
-0.484923
-13.516219
-8.387919
-2.805284
-14.188093
-27.297839
-31.408704
-31.917368
-34.037372
-33.802839
-31.069599
-28.367011
-16.591510
-3.284416
-4.097788
-22.546543
-42.964340
-38.454288
-18.364134
-7.201944
-7.405381
-7.823125
1.976062
11.217787
6.809488
-2.442964
-5.943635
-5.597142
-4.668510
0.141835
-0.242920
-14.725279
-17.057254
5.009734
22.603258
21.164885
16.499415
17.748341
11.315150
-5.478884
-17.809586
-16.156720
-5.845790
-3.654686
-5.866647
1.994412
8.986547
2.253584
-7.995338
-14.851171
-24.670436
-32.864853
-40.385692
-49.797641
-45.823750
-26.907228
-1.769784
11.890594
1.414895
-8.663099
2.886145
24.731290
32.575984
28.227171
23.664050
20.450942
23.842694
23.527558
19.258494
17.945589
18.045042
15.250421
-1.114217
-12.360648
-6.106253
6.351919
22.523733
30.459864
16.366378
-7.987163
-9.893378
10.374197
24.893108
24.338725
11.178584
-2.163394
-12.573631
-23.541591
-26.037219
-9.312619
22.355651
43.839719
31.837883
-0.977078
-13.621060
0.966690
31.817729
58.500533
40.919142
1.427626
-10.001941
6.360803
26.281068
39.667390
56.859833
69.471527
62.490486
44.323059
22.488488
-5.426471
-25.217447
-19.889386
-9.604172
-4.030890
9.848213
28.361835
37.966976
23.888295
1.275720
-12.962978
-34.001879
-55.200019
-59.947316
-54.635100
-50.514439
-47.306603
-36.129607
-26.495632
-32.883882
-33.622960
-11.352315
-3.456966
-26.860276
-45.861298
-48.436156
-50.809434
-43.912114
-16.851867
5.971564
8.296449
6.589736
17.752965
20.082006
4.918015
-7.497630
-16.302242
-13.343004
-6.591414
-14.832589
-31.535445
-43.938362
-41.706734
-28.437826
-22.305523
-21.322080
-5.100390
7.279332
1.955091
-8.817523
-28.099355
-40.665147
-30.084058
-4.988696
12.260895
5.109187
-7.092151
-1.164544
7.232156
5.730400
2.046333
-2.417817
-10.055551
-24.174755
-31.613507
-20.779924
2.183263
24.642500
43.739300
54.016461
39.959341
26.283561
22.311932
11.232792
-3.172157
-11.010692
1.220703
0.447595
-22.519564
-18.293957
0.078611
-0.201717
-1.533845
7.172239
6.859960
2.506991
25.558239
61.569309
53.791300
9.516157
0.617250
24.283109
27.704214
21.078276
30.731733
50.354305
50.133204
21.328280
-1.245330
-3.412612
8.616683
12.108445
-10.890146
-42.635123
-65.684368
-57.370274
-29.988695
-7.468153
14.099301
15.600981
-8.415121
-27.450692
-18.811629
2.578144
32.455833
82.880126
101.976927
58.090397
8.846154
-2.378196
13.581647
29.553960
37.272666
32.123248
2.331986
-20.066801
-6.163281
13.742957
24.685123
38.663457
46.066026
33.673239
-5.177170
-43.884706
-41.287585
-16.886582
-4.945609
-10.361808
-22.959551
-28.215993
-18.663325
3.754868
18.447824
8.453734
-14.427441
-12.411161
14.198648
27.162848
17.642575
-4.761147
-20.438439
-19.768016
-5.547839
17.084664
25.850754
4.060863
-13.107497
6.746528
11.913533
-24.077350
-40.341458
-11.295546
15.939525
17.198062
6.624171
-0.179708
6.457584
16.477834
24.675812
22.985204
8.067993
-1.386818
2.806058
24.427543
44.320013
28.306062
-4.025471
-16.403190
-17.515035
-19.453721
-16.572933
-3.646919
2.674496
-3.469314
4.001834
10.031269
6.167183
1.192070
-14.238442
-24.077970
-21.720874
-13.455096
-7.392411
-5.578229
-4.029791
-5.505311
-11.563137
-27.996353
-43.876004
-43.370534
-21.871399
4.282517
5.637169
-13.210850
-30.850170
-42.128292
-44.132699
-31.751938
-20.955501
-30.956345
-36.718814
-21.325785
-23.658539
-38.432877
-22.407832
-5.547893
-27.946160
-67.499241
-78.268218
-58.268724
-48.980240
-47.057995
-33.234483
-24.222133
-25.472694
-20.570392
-7.976361
-5.677972
-11.621500
-18.507726
-20.710596
-10.240688
-11.001586
-18.939872
-16.372884
-5.573330
29.509069
59.098157
53.283733
36.883507
22.276979
15.935746
12.682634
5.180758
13.186768
28.073250
28.458708
16.697417
2.228046
7.838476
22.577410
18.715143
10.025348
3.818935
2.813076
8.557546
1.901214
-6.370354
-11.724728
-14.545586
3.863090
12.937524
-3.493094
-17.951815
-16.657170
-5.398087
-1.609669
-6.108887
-9.838933
-6.962301
-0.786097
-1.487508
-8.236836
-9.241137
3.730336
18.726181
23.438333
19.708807
20.952798
30.423638
26.132494
7.371497
-11.219092
-16.044319
4.263000
25.061541
20.176827
10.881773
17.855984
12.119231
-0.424480
18.623225
32.937179
8.446481
-18.303419
-25.229389
-21.874265
-14.240503
-3.574989
16.404503
30.850419
25.052881
21.424144
18.844871
1.056185
-4.318971
23.168594
49.853216
39.085538
6.857392
-3.615449
19.426447
46.427466
44.252651
14.395668
-19.035723
-26.756323
-7.056601
7.862872
17.540488
31.974974
43.122097
33.780026
-9.228489
-40.746169
-33.535828
-23.152942
-18.475599
-20.262321
-30.970252
-38.712933
-43.987559
-41.221068
-26.982187
-4.228893
11.929673
-4.293911
-31.457881
-20.361672
17.330875
45.584755
70.051479
65.102083
34.527100
28.542789
32.972053
32.615874
27.107197
26.853106
32.121162
17.174597
1.989825
-0.289417
-8.697623
-35.930431
-58.887459
-37.260519
-9.238352
-19.141782
-47.933458
-70.011431
-60.818802
-42.634306
-40.244998
-36.189280
-22.085998
18.651809
48.634445
22.665407
-30.003356
-65.559389
-36.496072
15.559564
6.819894
-41.089142
-67.952561
-46.234441
-1.513094
13.899679
-11.026131
-43.309607
-52.381520
-35.172972
-18.749443
-14.332647
8.210755
39.483658
42.381851
22.053154
8.636103
18.292938
31.475862
32.026532
14.760759
-23.332946
-52.591164
-53.669759
-40.786866
-26.421998
-13.966164
14.395000
52.918026
62.016359
51.722498
36.358226
14.727833
6.862801
18.722728
27.428292
9.888464
12.095934
48.553025
59.497789
44.632012
26.351586
11.979368
7.960980
6.902908
5.116705
-6.388714
-20.754697
-4.682894
25.440796
25.998739
9.458498
3.076742
3.247371
-0.655420
-10.952399
-19.744282
-22.779968
-24.861007
-19.612953
8.623003
50.047116
63.209519
48.385565
41.742742
57.403073
81.566127
90.524706
84.210229
67.544001
57.267024
42.941305
-3.251185
-28.069450
5.134048
32.563165
4.700159
-37.564120
-45.696712
-31.673179
-12.994344
2.815873
10.592247
21.037997
33.310695
31.591772
-2.139130
-24.169566
4.888295
26.673694
6.268626
-17.682534
-5.426461
-9.508233
-49.822954
-51.193527
-28.406463
-33.807076
-69.370122
-87.866675
-63.350077
-42.363204
-37.564030
-21.959289
16.296955
38.165220
27.474952
22.439313
8.798342
-25.052574
-48.468612
-39.507436
-12.037016
-9.722781
-19.924685
8.193596
46.740520
30.632274
-15.233948
-20.376092
9.647587
43.813266
80.878214
98.444722
81.039973
41.085810
8.783891
7.332530
5.595943
-11.077819
-4.977726
13.967630
6.110391
-3.844733
-6.794695
-29.093731
-28.792438
8.794643
24.478353
16.296405
-7.492660
-38.919681
-22.480825
-12.149373
-33.158402
-0.283510
21.914140
20.959975
46.131189
38.942593
24.778190
5.296856
-0.708756
47.912747
73.299569
76.374923
73.820068
56.489872
33.237748
2.143749
2.404258
13.778419
-22.806814
-101.813188
-127.645847
-46.885856
45.496152
73.876539
52.594754
8.129981
-12.099484
57.251240
142.778232
165.992355
160.625252
155.344911
127.789211
-16.896884
-165.785505
-141.566340
-38.568397
-26.830301
-119.187707
-146.486237
-65.127741
0.492197
25.989679
43.940124
27.417028
-5.686535
-17.453021
-26.424144
-30.165360
-21.497722
-13.305459
-70.539903
-174.554395
-205.967908
-151.535396
-78.642476
-21.738013
1.095030
-5.959785
28.134977
47.020586
16.651600
0.025116
-0.388732
15.509286
-26.579390
-75.247468
-76.473350
-61.480103
-11.587555
4.214349
6.217122
27.674694
71.419574
79.585081
-5.133070
-29.434137
-6.059478
73.429988
185.415642
116.546711
7.327770
-6.837933
44.560750
118.223102
71.457045
32.245298
85.288571
37.029888
-48.167795
-65.814387
-20.528044
38.158168
-46.123053
-149.265244
-157.911657
-236.807630
-346.078525
-307.563033
-190.347991
-142.957527
-157.187393
-76.298816
60.412328
12.936325
-69.275845
7.347082
125.368964
193.260052
185.648294
78.076281
-95.733955
-151.858671
-4.947480
130.023999
51.988638
-63.381609
43.397777
184.459774
225.245118
291.082481
339.256924
227.606295
-36.327305
-87.090151
120.421520
231.625272
150.883389
-63.407262
-218.803848
-240.359169
-335.484142
-620.696891
-603.067259
-47.586584
407.675107
534.740809
308.299773
-67.472230
-73.277302
96.916109
95.725295
16.546176
102.468015
149.922641
105.604897
121.654360
-45.258778
-353.426958
-556.666042
-74.466158
589.952353
412.494196
-114.515991
-445.978341
-109.701269
416.377315
329.910146
-25.695294
-268.922792
49.064020
316.774310
23.142483
-311.417599
-679.044579
-546.424780
111.930487
336.407082
136.253002
-102.524153
-245.320437
-347.917115
-291.563879
174.987067
510.211040
268.662681
-129.123875
-119.621862
139.092145
95.412391
-72.129126
-9.669785
144.034078
108.825356
-49.439069
-8.116525
-145.967347
-450.213032
-176.088293
119.328064
9.108237
100.854333
430.786054
558.046841
154.546430
-374.842452
-403.870776
16.478626
321.931117
176.943171
22.172365
-19.279619
34.191491
-48.500210
-599.944947
-459.730313
485.125855
1063.346095
826.920359
-208.615411
-720.260845
-119.104916
240.028357
-86.232140
-344.645152
-353.044526
-39.874590
579.153892
801.494935
412.634005
-298.312134
-268.444316
584.919511
551.517994
-98.952873
-317.576193
-249.793948
-322.029471
-456.286663
-217.863649
3.526643
-13.926162
-330.969054
-522.487410
-408.352955
-460.366325
81.699935
625.511836
138.967516
-299.117876
-126.852816
283.280693
395.313105
-91.976228
-97.928589
671.528900
765.897353
245.303694
22.336535
87.953095
201.790894
47.775493
-222.339544
-4.994878
276.911989
116.632804
-32.869129
-187.925679
-147.921457
45.751338
-50.462323
-72.973849
-36.519356
-87.442479
115.965119
264.934711
-42.654447
-260.903960
-360.460575
-280.841224
-234.297085
-434.095543
115.034326
446.765460
167.759865
34.938150
33.341838
677.108539
884.838935
655.974265
480.073676
59.618992
44.011578
116.496142
545.456851
608.521451
215.550733
212.038633
-329.589215
-388.500981
46.095392
39.173578
22.368634
-262.296265
-364.019083
-358.006013
-656.395750
-611.362161
-436.571377
-477.243539
-572.040685
-458.427845
191.511462
568.379350
209.485767
53.077644
418.576530
594.831366
382.022171
110.899494
-312.610580
-448.339358
-84.203475
44.293029
-324.897754
-798.016228
-882.960118
-711.955451
-452.988950
11.078874
130.090731
-123.936619
-79.142017
4.888453
-168.929057
-307.300194
-366.306516
-284.259375
47.806859
525.794867
1071.448522
833.788629
-102.100426
-636.676353
-954.946129
-408.586165
679.109889
697.764565
254.898404
31.495094
132.422428
633.381453
663.938695
156.279140
-3.685466
-91.522130
-300.723927
-212.467034
-77.697655
-16.834588
66.088490
186.888330
274.451383
85.229895
-237.127069
-545.842580
-630.553717
-204.125486
374.249056
821.488334
870.155557
551.584710
371.629664
-8.134972
-390.663280
-249.008752
-250.215671
-221.850351
-36.403887
-224.876983
-219.779855
-92.942489
17.868234
376.998649
406.600465
166.790993
-46.930506
-274.720777
-430.883938
-541.541995
-595.642080
-314.499970
317.462876
380.746721
-162.996677
-652.257130
-879.348105
-442.377712
103.488433
201.715479
-13.252906
-126.140031
110.997912
140.990159
85.665268
-17.670709
-209.737695
-354.547440
-598.656590
-558.026068
-372.948214
-317.739776
-161.251980
-37.429740
-117.767425
-44.276779
264.197851
287.135581
209.157369
354.440335
396.354111
161.426717
-84.296112
23.736134
27.529227
-321.507461
-452.617306
-417.604524
-256.926152
-82.008082
-287.858094
-426.690839
-315.488645
-356.000529
-299.185946
-4.837754
300.483294
493.282229
453.533543
390.733570
367.130499
240.978845
182.342693
248.357737
170.756708
72.017064
28.262236
34.652489
216.226853
-179.090349
-831.120343
-609.668746
-34.177888
175.235025
-98.690808
-368.971317
-231.014066
-182.197737
18.577373
208.929035
-334.287034
-680.437441
-564.064047
-560.394604
-358.571590
-160.313632
-304.509286
-236.982912
456.419465
979.528641
417.399909
-429.065597
-464.221067
29.256382
318.987458
281.757222
428.502681
495.376518
203.243292
-40.157991
-161.788385
131.678414
569.818282
730.569649
550.800596
154.943857
-9.314972
-33.446671
125.587370
189.854176
-116.868916
-506.766579
-508.922691
-64.049638
75.882368
414.759717
802.330823
322.873233
11.064664
72.253480
193.381147
661.144429
732.183125
326.144782
157.501070
37.510592
-134.104086
-118.858085
70.574518
409.609806
404.109182
7.500675
-213.367560
-155.178024
142.501950
144.944770
-170.036863
-258.976503
-454.580228
-693.382840
-441.927528
101.305090
360.048970
211.760932
66.713240
46.491568
202.273574
435.918938
290.056093
-26.859772
-70.039993
187.425310
390.036459
126.363147
-356.797695
-375.862621
114.924412
514.143772
572.303953
360.501100
46.129921
-124.123313
-49.222127
-34.487609
-132.844355
-221.700609
-400.111595
-230.946865
127.397752
183.096113
48.239376
-49.718886
118.503926
113.938467
135.382011
617.927387
883.375098
632.641346
98.031908
-346.290772
-536.258054
-203.730731
403.402458
561.700836
478.286201
34.234718
-394.921412
-275.162203
-65.686426
146.184410
94.471333
-105.851337
-110.080656
-62.625771
170.622667
391.716304
389.706442
235.643504
32.630937
7.443022
18.973303
-53.551342
79.477852
300.380819
64.443448
-311.690153
-338.783725
-132.562841
88.833166
212.183147
188.038720
-277.753260
-383.002688
82.108364
224.019283
309.713306
225.966947
-31.289578
-163.903739
-146.941191
83.187694
155.728368
10.723277
-89.598613
138.764369
337.206243
221.705594
-1.904231
-305.182021
-255.286875
-66.933608
-107.945546
-152.403825
-13.262552
171.684638
3.639952
-81.218734
-70.226172
-207.546808
-66.557806
177.471261
215.715036
114.733594
70.059189
27.685287
-127.905865
-232.523798
-187.784786
-79.603693
33.159187
74.354705
-56.025192
-50.227729
160.855491
224.277012
86.390862
-87.277801
-325.196422
-627.435140
-494.325158
13.601622
75.365564
-172.863247
-306.647921
-482.174963
-519.992795
-274.896342
17.406956
-6.554854
-251.818154
-364.484736
-416.841778
-363.849420
-150.696888
2.000634
-11.233021
-98.304929
-66.384944
82.671930
-58.267792
-232.876295
165.196189
381.572700
-82.463508
-187.806712
32.484761
-40.857113
35.736720
45.747099
-4.713897
140.312938
61.694657
-79.355207
-83.499582
-58.143933
1.614601
257.924456
293.270000
-131.843881
-425.340370
-528.352676
-289.662620
89.775672
152.816373
293.311297
486.574957
451.869665
270.593959
53.776286
-177.181075
-376.790682
-272.788475
32.263453
24.375822
-217.537251
-141.247087
204.115888
348.007797
175.279754
-169.091243
-310.622457
-42.019345
241.918387
237.743879
128.146195
113.194955
143.944166
196.794431
307.372143
328.920374
82.288876
-116.986409
-145.685607
-288.737503
-298.222966
-172.127238
-217.601729
-281.098659
-75.712409
257.007141
317.082332
160.721227
-12.236710
-85.228418
-76.153723
-64.812813
-30.105518
-103.299585
-24.957773
357.943485
570.684803
472.098682
225.522775
-31.269025
-165.825730
-179.379159
-34.611313
282.122899
400.758352
193.538844
107.521074
294.493415
320.005704
-30.604399
-190.562250
-84.979096
12.448903
201.615244
207.908604
142.797736
127.456843
1.483650
-21.099572
-10.802410
-183.211717
-343.043841
-299.780311
-161.807994
178.980208
402.204722
251.065471
90.287532
-59.530538
-41.672571
0.304329
-55.284486
63.674379
122.124981
64.882483
53.924655
-31.583190
-211.040521
-201.455383
-113.759588
-158.638951
-86.833160
37.543943
100.358907
102.317519
60.842674
-4.697850
-249.036116
-382.328531
-383.071765
-475.661663
-420.752217
-214.080375
175.624984
495.395363
347.531527
21.306098
-258.998855
-392.705859
-229.103020
87.941614
299.090556
290.361017
95.427232
-33.982431
81.349294
183.865628
194.186689
180.565980
44.396116
-27.910584
-40.707828
-216.951570
-295.609076
-94.689275
233.915291
438.557046
238.781708
-200.509008
-499.548165
-417.231125
-39.711219
233.491084
404.136232
406.872070
51.598873
-172.375666
-85.370595
-14.781817
27.392507
37.476140
59.118926
185.254399
251.163458
210.092552
145.154430
54.559550
