EVENT_NAME: 202302060117
EVENT_ID: 13194
EVENT_DATE_YYYYMMDD: 2023/02/06
EVENT_TIME_HHMMSS: 01:17:32.00000
EVENT_LATITUDE_DEGREE: 37.288
EVENT_LONGITUDE_DEGREE: 37.043
EVENT_DEPTH_KM: 8.6
HYPOCENTER_REFERENCE: AFAD
MAGNITUDE_W: 7.7
MAGNITUDE_W_REFERENCE: AFAD
MAGNITUDE_L: 
MAGNITUDE_L_REFERENCE: 
FOCAL_MECHANISM: 
NETWORK: TK
STATION_CODE: 2304
STATION_NAME: 
STATION_LATITUDE_DEGREE: 38.72096
STATION_LONGITUDE_DEGREE: 39.86293
STATION_ELEVATION_M: 957.0
LOCATION: Kahramanmaras_Pazarck_Turkiye
SENSOR_DEPTH_M: 
VS30_M/S: 489
SITE_CLASSIFICATION_EC8: B
MORPHOLOGIC_CLASSIFICATION: 
EPICENTRAL_DISTANCE_KM: 293.97
EARTHQUAKE_BACKAZIMUTH_DEGREE: 
DATE_TIME_FIRST_SAMPLE_YYYYMMDD_HHMMSS: 2023/02/06 01:18:00.1682390
DATE_TIME_FIRST_SAMPLE_PRECISION: millisecond
SAMPLING_INTERVAL_S: 0.01
NDATA: 18251
DURATION_S: 
STREAM: HNE
UNITS: cm/s^2
INSTRUMENT: sensor = CMG-5T/GURALP | digitizer = 
INSTRUMENT_ANALOG/DIGITAL: 
INSTRUMENTAL_FREQUENCY_HZ: 
INSTRUMENTAL_DAMPING: 
FULL_SCALE_G: 
N_BIT_DIGITAL_CONVERTER: 
PGA_CM/S^2: 49.403
TIME_PGA_S: 
BASELINE_CORRECTION: BASELINE REMOVED
FILTER_TYPE: BUTTERWORTH
FILTER_ORDER: 
LOW_CUT_FREQUENCY_HZ: 
HIGH_CUT_FREQUENCY_HZ: 
LATE/NORMAL_TRIGGERED: 
DATABASE_VERSION: 
HEADER_FORMAT: DYNA 1.2
DATA_TYPE: Acceleration
PROCESSING: Automatic Paolucci et al., 2011
DATA_TIMESTAMP_YYYYMMDD_HHMMSS: 
DATA_LICENSE: U (unknown license)
DATA_CITATION: Turkish Accelerometric Archive v 1.0 - Disaster And Emergency Management Presidency, Earthquake Department
DATA_CREATOR: AFAD
ORIGINAL_DATA_MEDIATOR_CITATION: : AFAD - Disaster And Emergency Management Presidency
ORIGINAL_DATA_MEDIATOR: AFAD PROCESS SERVICE
ORIGINAL_DATA_CREATOR_CITATION: AFAD PROCESS SERVICE
ORIGINAL_DATA_CREATOR: network: TK
USER1: GuestUser
USER2: 
USER3: 
USER4: 
USER5: 
[...]
0.377461
0.339908
0.226307
0.104501
0.038233
0.031290
0.062529
0.112385
0.169815
0.225983
0.279942
0.348732
0.462962
0.697103
1.089969
1.563933
1.960585
2.150233
2.087121
1.829942
1.498291
1.195041
0.973835
0.837513
0.746632
0.662693
0.559505
0.404566
0.124035
-0.348038
-0.947595
-1.535162
-2.017964
-2.421561
-2.788554
-3.116418
-3.413672
-3.622572
-3.632355
-3.426929
-3.095281
-2.704309
-2.274523
-1.877555
-1.591347
-1.430414
-1.345215
-1.296621
-1.287471
-1.298517
-1.285580
-1.242350
-1.196280
-1.218370
-1.353745
-1.544027
-1.698335
-1.775332
-1.819511
-1.874103
-1.915442
-1.864639
-1.694555
-1.428858
-1.094370
-0.718860
-0.377430
-0.141395
0.017644
0.138185
0.210131
0.246734
0.275448
0.305109
0.349286
0.382734
0.356226
0.233158
0.060232
-0.070725
-0.112380
-0.140150
-0.302347
-0.613486
-0.991839
-1.347787
-1.579407
-1.673443
-1.692378
-1.675655
-1.600869
-1.450981
-1.319711
-1.276481
-1.310878
-1.382195
-1.413752
-1.351904
-1.178981
-0.927799
-0.661471
-0.429223
-0.260402
-0.139230
-0.087795
-0.101366
-0.116513
-0.132924
-0.183414
-0.262935
-0.351608
-0.505285
-0.759939
-1.016488
-1.113680
-0.959690
-0.560828
-0.039531
0.428121
0.764187
0.989178
1.170621
1.366264
1.609872
1.851903
2.051964
2.196487
2.241926
2.156094
1.913430
1.483957
0.875248
0.225517
-0.272431
-0.504050
-0.480385
-0.277799
0.010302
0.280101
0.435669
0.467855
0.367507
0.108118
-0.260137
-0.653320
-0.989704
-1.249724
-1.445054
-1.592420
-1.704128
-1.771658
-1.766926
-1.654274
-1.458946
-1.245947
-1.044939
-0.838882
-0.602847
-0.356084
-0.142454
0.006172
0.062024
-0.018128
-0.200205
-0.364296
-0.488626
-0.660605
-0.938296
-1.281622
-1.610748
-1.851203
-1.883075
-1.642307
-1.208734
-0.733508
-0.363678
-0.147208
-0.055382
-0.060748
-0.134274
-0.253239
-0.387352
-0.526829
-0.695652
-0.873943
-1.045922
-1.205910
-1.340654
-1.435637
-1.445421
-1.354542
-1.211912
-1.084744
-1.033941
-1.092951
-1.229588
-1.359914
-1.449848
-1.516747
-1.526846
-1.451745
-1.352346
-1.355819
-1.507602
-1.740484
-1.952854
-2.106216
-2.227075
-2.313854
-2.355193
-2.308807
-2.156080
-1.903320
-1.547375
-1.055740
-0.456184
0.158202
0.759019
1.338694
1.898805
2.430515
2.891541
3.199207
3.297344
3.211512
3.021861
2.813593
2.563040
2.228550
1.828108
1.377493
0.878282
0.373707
-0.036201
-0.265927
-0.256462
0.017439
0.484461
0.977989
1.297962
1.318787
1.075177
0.698086
0.328569
0.013643
-0.226496
-0.368813
-0.421197
-0.411416
-0.349252
-0.226818
-0.054526
0.187189
0.482864
0.795894
1.046760
1.165092
1.161620
1.072632
0.923373
0.731198
0.511570
0.235457
-0.142265
-0.630115
-1.182971
-1.724466
-2.153623
-2.408909
-2.481488
-2.368836
-2.137535
-1.849433
-1.521572
-1.168151
-0.805262
-0.490654
-0.283020
-0.189932
-0.139129
-0.007228
0.284661
0.680682
1.018326
1.153067
1.013905
0.681939
0.359756
0.159061
0.088375
0.093738
0.109830
0.086162
-0.031857
-0.228134
-0.472060
-0.752275
-1.054894
-1.295980
-1.372346
-1.344578
-1.304504
-1.326594
-1.429151
-1.571152
-1.717256
-1.804350
-1.765538
-1.556641
-1.198802
-0.738723
-0.272963
0.053636
0.135995
-0.022100
-0.298844
-0.518472
-0.513424
-0.205758
0.352459
0.993352
1.568293
1.981355
2.183941
2.180468
1.974094
1.614043
1.220228
0.963995
0.917292
0.990184
1.050770
1.057079
1.112932
1.316148
1.711223
2.221792
2.667671
2.956088
3.089882
3.155517
3.203165
3.168452
3.002469
2.732983
2.429732
2.148886
1.919160
1.772110
1.704895
1.657876
1.605177
1.545851
1.505143
1.505773
1.531648
1.543637
1.530383
1.536377
1.578029
1.631673
1.647134
1.573924
1.379540
1.100903
0.841514
0.714660
0.791654
1.051040
1.400990
1.736741
1.955420
1.995494
1.874004
1.674571
1.517739
1.451471
1.464723
1.527833
1.619027
1.756609
1.932688
2.109082
2.215108
2.215738
2.140634
2.032082
1.919427
1.771430
1.540757
1.213209
0.817185
0.402859
-0.025352
-0.469025
-0.886191
-1.195121
-1.371203
-1.445675
-1.447254
-1.443784
-1.470923
-1.483231
-1.415388
-1.277807
-1.118137
-0.937324
-0.712650
-0.444113
-0.157589
0.140294
0.400942
0.599741
0.747420
0.855655
0.916240
0.893204
0.744575
0.424601
-0.055992
-0.649870
-1.265205
-1.823109
-2.255738
-2.531851
-2.686159
-2.764102
-2.771046
-2.678273
-2.464959
-2.173702
-1.871716
-1.584877
-1.292989
-0.969545
-0.666928
-0.449196
-0.367468
-0.418905
-0.558697
-0.707641
-0.841122
-1.000795
-1.185712
-1.311304
-1.291110
-1.131756
-0.860694
-0.533464
-0.230847
-0.043408
-0.011222
-0.110624
-0.271559
-0.407880
-0.421450
-0.282922
-0.060772
0.114991
0.163586
0.143389
0.112148
0.086271
0.058816
0.028206
-0.014080
-0.074036
-0.131153
-0.124843
-0.021342
0.157892
0.383829
0.618602
0.808250
0.916800
0.967918
0.982748
0.970756
0.915848
0.804456
0.600290
0.250652
-0.227416
-0.722525
-1.110344
-1.335652
-1.411071
-1.419908
-1.444207
-1.511422
-1.547081
-1.467246
-1.215118
-0.833612
-0.443586
-0.099947
0.189732
0.441544
0.611312
0.633715
0.447536
0.022166
-0.579601
-1.238167
-1.844036
-2.358393
-2.819422
-3.206610
-3.446434
-3.529742
-3.538894
-3.573291
-3.604848
-3.535427
-3.271939
-2.779673
-2.123318
-1.458442
-0.955132
-0.665137
-0.562267
-0.608340
-0.754443
-0.926107
-1.041602
-1.094932
-1.189600
-1.441730
-1.893292
-2.480227
-3.083572
-3.624436
-4.059904
-4.350848
-4.438889
-4.290895
-3.978811
-3.628230
-3.340759
-3.127129
-2.934641
-2.726376
-2.466043
-2.133133
-1.744369
-1.271352
-0.676530
-0.028064
0.556976
0.973508
1.232263
1.392564
1.492594
1.560438
1.595779
1.593253
1.581261
1.607451
1.687916
1.808142
1.923949
2.026820
2.100658
2.191537
2.324070
2.520660
2.780361
3.025547
3.177959
3.251798
3.291557
3.327213
3.356875
3.362553
3.319636
3.225915
3.122096
3.000606
2.867755
2.724492
2.617202
2.563240
2.611835
2.744683
2.979139
3.232214
3.478347
3.664523
3.811256
3.881308
3.940947
3.986386
4.007211
3.987014
3.920746
4.013518
3.983224
3.958925
3.728568
3.336330
2.973124
2.614652
2.284579
1.866466
1.425633
0.993005
0.695119
0.586566
0.670818
0.845004
1.030550
1.102495
1.071254
0.905270
0.656927
0.375765
0.124266
-0.006060
-0.038248
0.016342
0.168439
0.395953
0.594437
0.719711
0.809328
0.932709
1.136241
1.448325
1.832040
2.223959
2.519003
2.672993
2.674254
2.477661
2.032726
1.402244
0.714962
0.062707
-0.520126
-1.038902
-1.532432
-2.033852
-2.530538
-2.974211
-3.369289
-3.755530
-4.140510
-4.469005
-4.676642
-4.792452
-4.819275
-4.798450
-4.777309
-4.791826
-4.824645
-4.874188
-4.987474
-5.191324
-5.518873
-5.909848
-6.265165
-6.501518
-6.613857
-6.596818
-6.440619
-6.143998
-5.733776
-5.300519
-4.930373
-4.655525
-4.431797
-4.207122
-3.918074
-3.535937
-3.095422
-2.670370
-2.300539
-2.013700
-1.858764
-1.863183
-1.981517
-2.074292
-1.999191
-1.721503
-1.317908
-0.908318
-0.586452
-0.381657
-0.279734
-0.231139
-0.152252
0.044339
0.320449
0.565950
0.702269
0.705739
0.640418
0.595923
0.618326
0.626214
0.459599
0.045273
-0.508529
-1.044028
-1.482021
-1.806414
-2.055705
-2.298053
-2.541032
-2.715220
-2.733839
-2.594049
-2.404717
-2.251358
-2.134919
-2.013747
-1.846819
-1.610469
-1.338145
-1.034581
-0.662542
-0.281667
-0.019757
0.052820
-0.043742
-0.255797
-0.506034
-0.728502
-0.893854
-1.012820
-1.162395
-1.393699
-1.715567
-2.066782
-2.370979
-2.552425
-2.557475
-2.438512
-2.269375
-2.047540
-1.770168
-1.487115
-1.237512
-1.027984
-0.846540
-0.719057
-0.635436
-0.596624
-0.609247
-0.668257
-0.787223
-0.971509
-1.127079
-1.177570
-1.135602
-1.026105
-0.919133
-0.805534
-0.644917
-0.433811
-0.230279
-0.093960
0.005754
0.171420
0.423548
0.674729
0.857435
0.970087
1.061597
1.214325
1.405866
1.507790
1.516940
1.556698
1.751080
2.133532
2.565527
2.843531
2.871299
2.687644
2.385340
1.931569
1.305821
0.583512
-0.102824
-0.702066
-1.251134
-1.681554
-1.970604
-2.161517
-2.264074
-2.329080
-2.371050
-2.338233
-2.270390
-2.150480
-1.910343
-1.623504
-1.477403
-1.604888
-1.965254
-2.399461
-2.814102
-3.177624
-3.411452
-3.482454
-3.422184
-3.253678
-3.030581
-2.920138
-2.934339
-2.970629
-3.097484
-3.394739
-3.839043
-4.381800
-4.897420
-5.359080
-5.834624
-6.269461
-6.547467
-6.556935
-6.351825
-6.157128
-6.081080
-6.020810
-5.850727
-5.395381
-4.647514
-3.704319
-2.578416
-1.397292
-0.377416
0.407055
1.012921
1.523805
2.028693
2.473311
2.707452
2.711237
2.588800
2.378954
2.115148
1.900254
1.762039
1.769296
1.983241
2.238840
2.419022
2.534198
2.669886
2.839970
3.039715
3.235043
3.403549
3.604241
3.901809
4.241346
4.398808
4.397229
4.531023
4.732031
4.772105
4.940927
5.304446
5.531960
5.601066
5.650607
5.741170
5.876227
5.971208
6.126461
6.079757
5.567924
5.327785
5.563188
5.684676
5.935226
6.415186
6.565389
6.132130
5.330301
4.715281
4.403510
3.921024
3.238475
2.766402
2.319890
1.924497
1.889469
2.087637
1.911871
1.264980
0.854756
0.796377
0.885362
1.273179
1.924801
2.552125
2.685920
2.339123
2.244770
2.099929
1.613025
1.674557
2.391183
3.094241
3.810552
4.227084
4.126105
4.165548
4.181325
3.632572
3.299028
3.516129
3.590915
3.605114
3.973051
4.182894
3.530323
2.722814
2.478257
2.547363
2.294917
1.660332
1.005868
0.557462
0.049416
-0.393626
-0.749890
-1.569075
-2.379739
-3.212177
-4.012112
-4.389519
-4.997912
-6.082163
-6.517947
-6.646380
-7.184088
-6.933223
-5.511329
-4.284448
-3.639453
-3.076502
-3.256686
-3.840781
-4.045578
-4.040846
-3.756532
-2.913683
-1.673234
-0.638211
-0.162985
-0.142475
-0.664722
-1.198644
-1.201800
-0.829130
-0.058228
0.325802
-0.327400
-0.978077
-0.975870
-1.078111
-1.369686
-1.690607
-1.840182
-2.181299
-2.944630
-2.884361
-2.888780
-4.280698
-5.681768
-5.535035
-4.821249
-4.827246
-4.576065
-3.857860
-3.552088
-3.942116
-4.175629
-4.070866
-4.471307
-5.123878
-5.111888
-4.770774
-4.628459
-4.317638
-4.327106
-4.681161
-4.776144
-4.751532
-5.021965
-5.021966
-4.139673
-2.544538
-1.875561
-2.487741
-2.629427
-2.553379
-2.308509
-0.967081
0.405901
-0.020100
-0.982547
-1.060806
-1.672986
-2.334708
-1.807100
-1.431905
-0.948790
0.478153
1.004183
0.092225
-0.401937
-0.548040
-0.336934
0.434599
0.741949
1.066339
1.794010
2.584161
2.762133
1.412815
-1.027696
-2.244481
-2.109740
-1.820061
-1.167492
-0.200315
-0.396276
-1.407319
-1.721929
-2.191478
-3.279200
-4.066514
-4.044741
-2.918839
-0.464130
1.475275
2.135417
1.970696
1.041698
0.089349
-0.113871
-0.492854
-1.398186
-2.172246
-2.812826
-3.833650
-4.548701
-4.222418
-3.793263
-3.215797
-3.187713
-4.008160
-4.388091
-3.985758
-4.603618
-5.177300
-3.515899
-1.175737
-0.411462
-0.857975
-1.001869
-1.090542
-1.384957
-1.214242
-1.099697
-1.759210
-2.254318
-2.477733
-2.954855
-2.478998
-1.640882
-1.789510
-1.057737
0.182081
0.018622
-0.144522
1.059954
2.064683
3.120216
4.995249
6.206982
6.470786
6.999025
6.669899
5.724808
6.198141
7.574594
8.160265
7.314574
7.040039
7.277336
7.082321
7.780961
8.630436
8.016048
6.780960
7.263444
9.911904
11.994572
11.506406
10.665133
10.910003
11.112904
11.391854
9.570464
5.303831
1.319620
-0.261317
0.099362
2.730467
5.380505
6.327171
5.546169
2.189284
-1.289091
-2.027809
-3.131625
-5.511549
-2.652613
3.205682
7.397211
10.424969
9.785651
0.694483
-7.731178
-7.276463
-3.625798
-0.374941
3.317693
4.870859
6.581171
9.367213
9.670461
4.055142
-8.064733
-17.664893
-13.435814
-1.909502
3.143810
9.338172
16.217607
10.720620
4.529411
4.647428
-5.132599
-14.780408
-16.329789
-11.095348
-1.851138
5.812453
9.704519
11.707983
11.719657
1.196180
-4.557353
-3.637824
-8.334876
-8.004490
2.803616
11.808951
11.259567
7.508236
5.164285
-0.199536
0.142841
5.145980
7.671373
3.304077
-5.603122
0.021030
14.671346
13.084414
4.199303
0.741755
-4.341221
-0.030413
6.722484
3.935808
0.035535
2.800751
8.529037
10.799145
8.732568
3.836085
-3.379103
-4.711382
-2.368380
-0.989717
3.124500
5.091990
4.590886
2.832607
-0.506607
-2.429291
2.297736
0.608879
-6.855283
-4.544152
3.431839
5.506303
-2.205886
-7.145285
0.145319
3.877398
5.320435
7.771672
9.852131
14.269598
11.082166
10.000123
11.528675
4.334314
3.587707
12.366788
16.278419
19.509711
20.196359
10.671301
-0.175936
-2.045607
-2.722160
-5.947143
-7.565946
-3.723423
-1.333403
1.418559
4.907661
6.570639
5.387303
-1.542623
-2.673892
-4.276602
-5.024155
-0.867653
-1.104637
-5.399986
-4.306586
0.807313
3.667827
1.470925
-0.233394
-0.825694
-5.755626
-12.064538
-16.500625
-13.795049
-4.080975
2.942668
1.302722
-2.978427
-5.789085
-7.083812
-10.033946
-8.973679
-2.923210
1.310603
4.096014
7.423866
8.695240
6.624560
8.402717
6.893412
3.927500
9.718266
11.295414
3.097900
-0.017270
4.157219
3.775079
4.358541
7.554490
3.279968
-1.723804
-0.552462
-1.347033
-6.734521
-4.953840
5.564901
14.516276
12.904100
5.507782
2.194128
-0.087343
-6.092374
-8.939952
-3.930187
-2.452440
-3.747167
4.028131
9.885795
1.984903
-5.119840
-5.237228
-6.920090
-12.831716
-15.957930
-12.589056
-1.524719
11.479341
20.457854
22.796753
14.156199
-1.232836
-15.408242
-21.221415
-23.246654
-15.661321
1.901891
15.433876
22.383680
26.378617
24.841858
17.185523
12.064995
11.953287
10.097501
-0.112313
-18.264356
-34.974938
-39.881519
-30.149144
-8.504846
16.729848
38.479857
49.402825
40.499097
18.419961
-4.869964
-26.011268
-31.651516
-19.149190
-2.686637
14.272917
33.088887
45.432172
43.643915
28.306317
4.910681
-16.612446
-29.751251
-31.826032
-24.989198
-10.404203
5.576181
16.686590
30.155148
40.277551
29.193016
5.264406
-7.913528
-9.585029
-7.172605
-0.729585
6.060547
5.269763
-0.003494
7.643372
27.658770
38.199600
34.040572
24.720941
11.038433
-7.327556
-23.902450
-30.321491
-22.053610
-2.526377
15.831090
26.857560
27.153551
19.448619
12.208187
7.777149
7.255533
3.013198
-10.045771
-26.064971
-26.360333
-9.174841
8.879062
19.418945
18.785939
10.082904
2.032754
2.710883
15.000524
28.086313
20.181004
-3.830913
-23.879446
-27.979151
-12.927448
13.914372
37.493344
41.167992
32.437188
27.338749
21.109673
10.293045
5.598833
2.526894
-8.000054
-16.444964
-12.088715
5.046919
23.718680
33.877056
31.319790
19.324244
6.616804
-1.317852
-2.039845
0.953202
1.820980
-1.265790
-2.985255
4.234979
21.277209
38.595866
44.440592
31.116556
5.497828
-19.115538
-31.134119
-23.154341
-2.693378
18.016874
24.794068
17.995098
9.823144
3.449859
-0.220058
-2.502791
-2.521095
-0.188822
1.396846
2.651495
5.026368
8.821874
10.312559
11.424893
11.689327
6.749613
-2.465569
-9.753966
-14.331422
-15.625834
-11.602812
-7.937000
-8.029774
-11.983692
-14.965066
-14.832534
-11.660251
-7.101099
-4.363653
-4.795019
-7.752410
-9.834450
-5.037369
5.943030
13.310630
11.239319
2.456449
-9.447901
-23.000400
-32.609080
-29.437744
-11.920918
13.569060
32.693644
34.772841
21.697147
4.552044
-5.248179
-9.597804
-13.824993
-18.369946
-16.768501
-8.181593
4.033261
15.058785
14.294192
-0.980611
-18.261719
-28.086240
-25.337748
-9.963863
2.810472
1.064184
-9.285106
-20.150015
-28.228880
-27.111182
-18.014020
-8.659049
-0.556835
3.498689
3.210269
1.474710
-5.594691
-12.701013
-17.770105
-18.940188
-14.630325
-10.162054
-8.358969
-7.106213
-7.129250
-14.627807
-23.964163
-25.268672
-19.572257
-11.202768
-1.553067
6.811373
11.576898
10.007006
7.140810
7.438062
7.740995
3.226019
-5.487113
-14.313530
-19.087578
-18.192978
-14.347930
-8.958866
-3.897350
-6.781217
-18.116935
-24.861945
-23.464349
-20.105572
-16.753423
-11.080043
-2.706767
5.283109
8.785463
7.280260
2.484439
-4.038104
-9.356485
-10.090469
-6.938067
-1.377972
5.223142
12.390679
18.362575
20.453763
16.360370
4.814491
-6.803649
-12.708965
-14.097097
-13.422755
-12.140021
-11.528159
-8.594752
-3.995841
-2.020777
-2.100614
-1.197810
0.899374
1.831525
1.397003
0.933135
4.296960
12.600498
21.229690
23.788217
17.417772
3.290015
-10.083564
-15.010025
-14.270994
-10.215154
-4.019530
-0.194993
-1.046679
-4.964939
-9.721631
-12.459711
-12.176659
-9.786323
-7.018583
-6.644020
-6.009753
-3.898685
-3.032170
-4.254635
-6.148287
-5.538950
-3.950127
-5.770570
-10.339822
-11.940639
-10.375482
-6.710932
-0.958664
1.154929
-4.016719
-10.166275
-9.161861
-3.154624
1.125261
1.113899
-0.410237
-3.145793
-5.903753
-6.025243
-8.347105
-16.507068
-24.200324
-25.346740
-23.257130
-18.613409
-10.195640
-2.263826
0.555665
-0.503342
-3.166004
-7.184926
-10.511203
-11.705899
-10.794575
-11.298834
-13.361309
-12.615652
-8.450314
-4.109843
-0.724876
2.875301
3.600763
-0.445928
-7.733694
-15.325656
-20.303553
-21.456280
-19.386865
-16.613445
-12.607463
-7.522596
-5.364825
-6.734339
-7.520390
-6.343368
-5.378714
-3.612549
0.235339
-0.332663
-4.753287
-6.591718
-4.582574
0.986672
9.516464
17.742691
20.771396
19.476353
15.094857
9.790992
4.745566
0.184835
-2.321943
-1.449117
-0.949277
-2.421978
-1.819899
0.747148
3.994849
6.741131
4.675500
0.365636
-1.489834
-4.676320
-4.139560
2.782790
8.319218
10.828202
13.219168
8.953482
-1.568102
-9.003548
-12.528310
-12.769711
-10.052460
-4.989366
-1.006420
1.265898
1.838630
-0.347858
-2.555173
-3.662776
-4.249711
-4.517935
-3.427059
-0.416025
-1.132023
-7.358575
-9.131369
-7.243084
-4.486703
2.124508
5.667885
5.289217
5.429322
5.717739
4.247563
2.845231
-0.724655
-4.317261
-3.031372
-1.547629
-3.063561
-5.416978
-3.964475
-3.789974
-4.168643
-0.774524
2.769168
4.793459
7.485150
7.826580
5.186007
6.058833
8.870751
11.452629
17.369302
19.991571
12.119079
5.684892
0.472853
-6.293930
-4.346636
4.701930
9.677616
9.964455
14.622060
20.897520
21.157852
14.226033
3.687725
-1.547981
-0.510749
-0.083488
-2.722799
-7.550807
-13.030437
-17.425502
-20.655534
-21.398669
-19.021903
-18.427397
-16.464956
-12.599396
-9.963874
-8.949363
-12.824707
-19.674166
-22.694984
-20.879908
-18.964800
-14.967338
-9.161741
-4.797918
-2.723455
-4.784667
-7.896050
-8.437230
-5.315121
1.093504
6.273670
7.585750
6.640659
4.902891
3.444074
1.912365
-2.754394
-7.959175
-13.429654
-17.439741
-17.382942
-13.805170
-6.155463
3.004810
7.257556
2.499286
-6.959189
-15.714606
-17.446694
-14.022282
-9.986322
-7.785005
-3.708970
2.738784
7.841007
10.838472
9.332637
5.434573
1.169518
-4.406357
-6.622508
-4.448644
-4.663539
-2.242910
3.684176
8.957430
13.859276
14.471768
9.298858
3.056845
-3.362827
-9.274454
-10.751572
-3.789462
5.475575
7.721070
8.093740
8.804687
5.370806
1.469586
1.377758
3.150235
4.658591
5.167266
4.654802
1.789552
-0.827039
0.284664
1.900309
1.405831
1.327572
1.686989
0.879480
4.059968
8.263803
6.880405
2.696131
0.774079
3.122445
1.970980
0.264137
3.826762
8.385598
11.447436
14.649697
18.134065
18.259339
13.661056
11.958631
14.484655
14.148587
14.630124
16.170036
14.475815
7.404520
1.064684
-0.374253
-2.004731
-3.888602
-3.542438
-3.776897
-1.037557
6.444273
8.527257
4.210766
1.420934
1.662333
3.192147
5.766136
8.778748
12.316760
13.636729
9.881612
