EVENT_NAME: 202302060117
EVENT_ID: 13194
EVENT_DATE_YYYYMMDD: 2023/02/06
EVENT_TIME_HHMMSS: 01:17:32.00000
EVENT_LATITUDE_DEGREE: 37.288
EVENT_LONGITUDE_DEGREE: 37.043
EVENT_DEPTH_KM: 8.6
HYPOCENTER_REFERENCE: AFAD
MAGNITUDE_W: 7.7
MAGNITUDE_W_REFERENCE: AFAD
MAGNITUDE_L: 
MAGNITUDE_L_REFERENCE: 
FOCAL_MECHANISM: 
NETWORK: TK
STATION_CODE: 3119
STATION_NAME: 
STATION_LATITUDE_DEGREE: 36.57527
STATION_LONGITUDE_DEGREE: 36.16811
STATION_ELEVATION_M: 5.0
LOCATION: Kahramanmaras_Pazarck_Turkiye
SENSOR_DEPTH_M: 
VS30_M/S: 374
SITE_CLASSIFICATION_EC8: B
MORPHOLOGIC_CLASSIFICATION: 
EPICENTRAL_DISTANCE_KM: 111.03
EARTHQUAKE_BACKAZIMUTH_DEGREE: 
DATE_TIME_FIRST_SAMPLE_YYYYMMDD_HHMMSS: 2023/02/06 01:17:31.1874370
DATE_TIME_FIRST_SAMPLE_PRECISION: millisecond
SAMPLING_INTERVAL_S: 0.01
NDATA: 12501
DURATION_S: 
STREAM: HNN
UNITS: cm/s^2
INSTRUMENT: sensor = CMG-5T/GURALP | digitizer = 
INSTRUMENT_ANALOG/DIGITAL: 
INSTRUMENTAL_FREQUENCY_HZ: 
INSTRUMENTAL_DAMPING: 
FULL_SCALE_G: 
N_BIT_DIGITAL_CONVERTER: 
PGA_CM/S^2: 0.056
TIME_PGA_S: 
BASELINE_CORRECTION: BASELINE REMOVED
FILTER_TYPE: BUTTERWORTH
FILTER_ORDER: 
LOW_CUT_FREQUENCY_HZ: 
HIGH_CUT_FREQUENCY_HZ: 
LATE/NORMAL_TRIGGERED: 
DATABASE_VERSION: 
HEADER_FORMAT: DYNA 1.2
DATA_TYPE: Acceleration
PROCESSING: Automatic Paolucci et al., 2011
DATA_TIMESTAMP_YYYYMMDD_HHMMSS: 
DATA_LICENSE: U (unknown license)
DATA_CITATION: Turkish Accelerometric Archive v 1.0 - Disaster And Emergency Management Presidency, Earthquake Department
DATA_CREATOR: AFAD
ORIGINAL_DATA_MEDIATOR_CITATION: : AFAD - Disaster And Emergency Management Presidency
ORIGINAL_DATA_MEDIATOR: AFAD PROCESS SERVICE
ORIGINAL_DATA_CREATOR_CITATION: AFAD PROCESS SERVICE
ORIGINAL_DATA_CREATOR: network: TK
USER1: GuestUser
USER2: 
USER3: 
USER4: 
USER5: 
[...]
-0.007897
0.001747
0.004158
-0.003678
-0.005788
0.006870
-0.000966
0.002048
-0.005486
0.002350
-0.004884
0.004158
-0.014528
0.015912
-0.012418
0.012898
-0.016939
0.014103
-0.012719
0.012295
-0.015432
0.002952
0.000240
0.001144
-0.009404
0.005665
-0.002171
0.001446
-0.003075
-0.004281
-0.003678
0.001747
-0.003075
0.002048
0.002651
-0.007294
0.002350
-0.009705
0.007473
-0.013925
0.010487
-0.001267
-0.002171
-0.008500
0.009282
-0.008500
0.001144
-0.000664
0.001144
0.000542
0.003555
-0.009404
-0.004883
0.002953
0.007172
-0.006993
0.001747
-0.006692
0.003857
-0.004582
0.003254
-0.003075
-0.000362
0.002049
0.002350
-0.007294
0.002953
-0.009404
0.012898
-0.007897
0.008980
-0.012116
0.014405
-0.016336
0.012597
-0.008500
0.008378
-0.006993
0.015008
-0.013020
0.003254
0.001446
0.005364
-0.010609
0.008378
-0.005486
0.011090
-0.013020
0.008076
0.001145
-0.006089
0.008679
0.001145
-0.002171
0.001145
-0.004883
0.002049
-0.003075
-0.002171
-0.001568
0.008076
-0.013924
0.002049
0.011392
0.008076
-0.015431
0.009885
-0.010006
-0.001869
-0.003376
0.010487
0.003556
-0.009102
-0.002773
0.011693
-0.008801
-0.000061
-0.006088
0.007775
0.002953
-0.006992
-0.006088
-0.000362
0.003857
-0.006088
0.006570
-0.005486
0.009885
-0.013321
0.004159
-0.006088
0.006871
-0.008801
0.001446
-0.003979
0.009583
-0.009403
0.004460
-0.010609
0.001748
-0.000362
0.001145
0.000844
0.001145
-0.004883
-0.002773
0.001446
-0.001869
0.000241
0.001748
0.002049
-0.005184
-0.006088
0.009885
-0.002773
0.006871
-0.007294
0.009282
-0.013020
0.009282
-0.007595
0.011091
-0.006992
0.008680
-0.014828
0.016515
-0.012718
0.012296
-0.009705
0.011693
-0.008198
0.005967
-0.010006
0.011091
-0.000362
0.002049
-0.005485
0.002652
-0.000663
0.003858
-0.008198
0.004460
-0.005184
0.002049
0.009885
-0.001869
0.000542
0.000844
-0.008800
0.002351
-0.000663
0.005063
-0.001869
-0.003074
-0.005184
0.004159
-0.005485
0.003556
-0.004581
0.004762
-0.005184
0.002351
-0.002471
0.008680
-0.000964
0.003858
-0.005485
-0.005485
-0.000964
0.006269
-0.000060
-0.002773
-0.001567
-0.003677
0.001447
-0.000060
0.004159
-0.012115
0.012296
-0.014225
0.013502
-0.008800
0.007776
-0.014225
0.009584
-0.014828
0.012598
-0.004581
0.002652
-0.012417
0.007173
-0.005786
0.010488
-0.008800
0.005968
-0.003677
-0.000964
-0.004882
0.002652
-0.006088
0.010790
-0.010307
0.001748
-0.001567
0.000543
-0.006992
0.009886
-0.006992
0.003557
-0.011211
0.002351
-0.003978
0.010790
-0.016334
0.008981
-0.008800
0.011694
-0.011814
0.006570
-0.011814
0.005666
-0.006992
0.008982
-0.007293
0.005666
-0.010307
-0.000964
0.003557
-0.003074
0.002954
0.000844
-0.003074
-0.005183
0.002954
-0.004581
0.000844
-0.003074
0.005365
-0.007594
0.002954
-0.007293
0.000844
0.002050
-0.001567
-0.004882
-0.002169
0.001447
0.003255
-0.004580
-0.004580
0.003557
-0.001567
-0.000060
-0.007896
-0.001868
-0.003978
0.002653
-0.002471
0.005064
0.003858
-0.006690
-0.003073
-0.005183
0.012297
-0.008197
-0.000662
-0.009101
0.010489
-0.004882
0.006269
-0.009101
0.014708
-0.012115
0.010790
-0.014526
0.011996
-0.010306
0.008379
-0.004882
0.011092
-0.009704
0.006872
-0.009704
0.009585
-0.010005
0.012900
-0.004882
0.009886
-0.003676
0.001146
-0.004882
-0.005484
-0.010306
0.005968
0.001146
0.006270
0.004763
-0.002169
-0.014526
0.002352
0.004461
0.010790
-0.015731
-0.001265
-0.006388
0.007777
-0.007895
0.007174
-0.003073
0.005667
-0.013923
0.000543
0.001146
0.013201
-0.006991
0.002352
-0.001868
0.000543
-0.004580
0.002352
-0.000361
0.000242
-0.006087
-0.004881
0.021339
-0.006991
-0.003073
-0.020553
0.015010
0.014407
-0.001265
-0.015128
-0.005183
-0.000059
0.005968
-0.001265
0.008982
-0.003073
-0.004881
-0.015731
-0.002772
0.009886
0.008982
-0.005785
-0.000059
-0.001265
0.003859
-0.014224
-0.000059
0.005064
0.005064
-0.009703
0.002955
-0.001867
0.004462
-0.000963
0.001146
-0.013923
0.006873
-0.008498
0.005969
-0.014224
0.011393
-0.007895
0.024353
-0.015128
0.001448
-0.017539
0.012298
-0.005785
0.008982
-0.003977
0.004462
-0.000963
0.000242
-0.006689
0.001448
-0.002470
-0.000662
0.005366
0.000845
-0.009402
0.001749
-0.001867
0.007777
-0.004881
-0.004580
-0.001867
0.004160
-0.004881
-0.001264
-0.001566
0.004462
-0.009402
-0.000360
-0.009703
0.009284
-0.010306
0.015312
-0.008799
0.007174
-0.011210
-0.000059
-0.006388
0.003256
-0.004278
0.008079
-0.002470
0.002654
0.000544
-0.003977
-0.003073
-0.009100
0.008983
0.007777
-0.000963
-0.015730
0.011997
-0.011210
0.008380
-0.015128
0.003859
-0.006388
0.013805
-0.005785
-0.005182
-0.006086
0.008983
-0.007895
0.002352
-0.007292
0.005065
-0.001264
0.002352
-0.005785
0.003257
-0.002470
0.000243
-0.002771
0.005065
0.000846
0.008079
-0.015128
0.004161
-0.001264
-0.001264
-0.008497
0.012298
-0.008497
0.009586
-0.008497
0.006270
-0.010607
0.017120
-0.019347
0.020435
-0.016634
0.015312
-0.013922
0.011394
-0.009703
-0.001565
-0.005182
0.015312
-0.003675
-0.000661
-0.005182
-0.000963
-0.001264
0.003257
-0.003374
-0.008196
0.005668
0.003860
-0.001264
-0.004880
0.005969
-0.002168
0.004462
-0.003675
0.007778
-0.000058
-0.008497
-0.000962
0.003860
0.004161
0.001449
-0.007291
-0.004579
-0.001867
-0.000058
0.007778
-0.004579
0.004462
-0.006387
0.000545
-0.004880
0.009285
-0.005784
-0.003675
0.004161
-0.001264
0.003860
0.000545
-0.003373
-0.006086
0.009586
-0.000962
0.007175
-0.013620
0.010792
-0.004579
0.002956
-0.008798
0.010189
-0.005784
0.012901
-0.018141
0.015011
-0.008497
0.001750
-0.007894
0.006874
-0.003072
0.000846
-0.004880
0.001147
-0.000058
0.004161
-0.008497
0.002052
-0.006990
0.010792
-0.000962
0.005970
-0.009702
-0.005483
0.000243
0.003860
0.000846
0.004764
-0.005784
0.003257
-0.004579
0.014710
-0.013620
0.005970
-0.014524
0.017121
-0.005784
0.002052
-0.008798
0.006271
-0.000058
0.005066
-0.012716
0.006271
-0.003976
0.007477
0.001148
-0.006990
-0.002770
0.001148
0.005970
0.006874
-0.005483
-0.002770
-0.001866
-0.003674
0.008080
-0.006387
0.006573
-0.000359
0.004162
-0.001866
-0.006688
-0.000660
-0.007894
0.006573
0.006573
-0.003976
-0.011209
0.003258
-0.003976
0.006573
0.009587
-0.011811
-0.006387
0.001148
0.005367
-0.001263
-0.003373
-0.002167
0.001148
-0.000660
0.000244
-0.007291
0.019833
-0.013620
0.003559
-0.003674
0.010189
-0.013921
0.014710
-0.015428
0.016820
-0.011209
0.006271
-0.000660
0.014409
-0.014222
0.002354
-0.013620
0.013203
0.000244
0.009888
-0.006085
-0.003373
-0.001263
0.000244
-0.000057
0.008683
-0.004277
-0.002468
-0.004880
0.009285
-0.006989
0.004463
-0.004277
0.013203
-0.011208
-0.000057
-0.004277
0.007176
-0.007592
0.004162
-0.003071
0.002354
-0.003071
0.008683
-0.006989
0.006573
-0.007290
0.003861
-0.009099
0.008381
0.001148
0.002957
-0.008797
0.001148
0.001450
0.004765
-0.007893
-0.002167
0.005066
-0.002468
0.006573
-0.006085
0.009286
-0.011208
-0.000057
-0.005783
0.011395
-0.001865
0.003258
-0.004578
0.004162
-0.001865
0.000847
-0.007290
0.000847
0.005368
-0.002167
-0.003372
0.006272
0.005066
-0.005482
-0.002167
0.006272
-0.004578
0.004162
-0.005482
0.004464
-0.003372
0.005971
-0.006386
0.005066
0.002655
0.000847
-0.018140
0.011697
-0.001865
0.015615
-0.018743
0.012902
-0.019345
0.021944
-0.016934
0.016519
-0.010605
0.012902
-0.013619
0.010190
-0.009098
0.006875
-0.005180
0.005067
-0.003372
0.001450
0.004765
0.000847
-0.008194
0.003560
-0.000358
-0.001564
-0.005180
0.000245
0.008683
0.005669
-0.010304
-0.004276
0.006574
-0.001564
-0.009701
0.000847
0.002957
0.012903
0.000245
-0.001262
-0.014824
0.002656
-0.006084
0.005971
-0.004276
0.006574
-0.005482
0.000847
0.005067
-0.003372
-0.006687
-0.002769
0.005067
0.004765
0.012300
-0.014824
0.002656
-0.008495
0.008985
-0.003372
0.005067
-0.008194
0.015615
-0.000961
0.002957
-0.008495
0.002354
-0.006386
0.005971
0.002656
0.018026
-0.017838
-0.002166
0.002656
0.012300
0.001752
-0.013920
-0.013317
0.005971
0.011999
0.010492
0.001450
-0.007591
-0.006988
-0.002166
0.008081
0.002053
-0.011208
0.010492
-0.000961
0.015917
-0.011208
0.005368
-0.020852
0.017725
-0.003974
0.012300
-0.008796
0.001752
-0.010002
0.017725
-0.002166
0.007779
-0.013920
0.000245
-0.005783
0.018629
0.003259
0.002656
-0.015427
0.009588
0.006875
0.004766
-0.010605
-0.007591
0.002957
0.008684
0.013204
-0.001563
-0.009399
-0.005180
0.008985
0.007478
-0.005782
-0.005180
-0.003070
0.011698
0.000848
0.004766
-0.010303
-0.005782
0.002958
0.013205
-0.004276
-0.001262
-0.007289
0.001752
0.008684
0.004766
-0.007892
-0.011810
0.009287
0.000547
0.005971
-0.001864
-0.003673
-0.010303
0.011095
-0.004577
0.003862
-0.010002
0.015314
-0.009399
0.012602
-0.009399
0.008081
-0.021454
0.009588
-0.006084
0.012602
-0.000960
0.001752
-0.013618
0.015917
-0.005481
-0.003974
-0.005179
0.005972
0.000848
0.009890
-0.006686
-0.004878
0.004163
0.001752
0.003862
-0.000960
-0.010001
0.003862
-0.001563
0.017424
-0.003974
-0.007590
-0.016029
0.014410
-0.009399
0.010492
-0.006385
0.006876
-0.008495
0.006876
-0.008494
0.005670
-0.011207
0.003862
0.001451
0.006575
-0.010906
0.005369
-0.009399
0.008383
0.003259
-0.001261
-0.010001
0.000848
0.002958
0.002958
0.004164
-0.007590
0.005972
-0.011207
0.006876
-0.002467
0.005972
-0.001563
-0.000357
-0.004576
-0.000056
-0.004878
0.000246
0.007479
-0.000056
0.002355
-0.010303
0.003862
0.003260
0.000547
-0.000960
0.000849
-0.003069
0.003561
0.005068
-0.001864
0.008383
-0.007590
-0.007289
-0.007590
0.018027
-0.004576
0.015918
-0.006686
0.002657
-0.015125
0.004164
-0.007289
0.016822
-0.003069
0.012904
-0.018138
0.006575
-0.015124
0.017726
-0.004878
0.013507
-0.011508
0.007780
-0.010905
0.002657
0.002958
-0.002768
-0.001864
0.007178
-0.001261
0.002657
-0.004877
0.001451
-0.000960
0.003863
-0.001864
-0.000658
0.000547
0.002958
0.003863
0.009589
-0.009398
0.003863
-0.012713
0.009890
-0.003371
0.009890
-0.002768
0.010794
-0.009097
0.013808
-0.010604
0.002054
0.002657
0.004767
0.003561
-0.003069
-0.002768
0.004465
0.002054
-0.006384
0.001150
0.004767
0.004465
-0.004576
-0.000959
0.000548
0.010192
-0.012412
0.008383
-0.006987
0.009288
0.001753
0.000548
-0.001261
0.004466
-0.007590
0.010192
0.001452
-0.002165
-0.000658
-0.003069
0.001150
0.003260
-0.000356
0.003863
-0.000356
0.001452
0.002959
-0.006384
-0.004877
0.005370
-0.001261
0.005068
-0.003069
0.005370
-0.012110
0.009589
-0.013316
0.014713
-0.003973
0.008082
-0.008795
0.009891
-0.007288
0.011096
-0.016028
0.011397
-0.004576
0.011699
-0.019645
0.013507
-0.005480
0.015014
-0.006987
0.001452
-0.002767
0.000246
-0.005480
0.007178
0.005671
0.001753
-0.009699
0.004164
-0.005480
0.006576
-0.002466
0.008685
0.002959
-0.001562
-0.007891
0.008685
-0.003370
0.009589
-0.001863
-0.005178
-0.003973
0.006877
-0.003671
0.007781
-0.004274
0.006576
-0.005781
0.000849
-0.000055
0.000247
0.002356
0.001754
0.002356
0.008685
-0.009096
-0.010603
0.004466
-0.003973
0.015918
-0.004877
0.006877
-0.016932
0.015014
-0.017836
0.012603
-0.010904
0.009590
-0.003370
0.000247
-0.004877
0.015617
-0.007890
0.002959
-0.008795
-0.003671
-0.005178
0.009288
-0.000657
0.005973
0.004165
-0.000055
-0.005178
-0.003068
-0.008192
0.003562
-0.000959
0.011699
-0.000657
0.009590
-0.000356
-0.007890
-0.014521
0.003863
0.002055
0.018631
-0.021151
0.005370
-0.011205
0.018933
0.002959
0.013206
-0.028083
-0.003370
0.001754
0.020439
-0.008493
0.008384
-0.005178
0.012302
-0.016932
0.005371
0.006275
-0.007287
0.007782
0.014111
-0.006685
-0.006082
-0.002465
0.014713
0.002357
-0.015425
-0.000958
0.011700
0.010193
-0.006082
0.004466
0.000247
-0.003369
0.002658
0.010193
-0.013014
-0.007589
0.023152
0.014111
-0.003369
-0.022055
-0.000054
0.010494
0.015919
-0.010000
0.009590
0.000247
0.005371
-0.019644
0.009891
0.018029
-0.025370
0.041838
-0.033809
0.008083
-0.010000
0.024056
-0.010904
0.009891
-0.019644
0.002960
0.017426
-0.006383
-0.026274
0.029180
0.027070
-0.035014
-0.003671
0.001453
-0.006383
0.024961
0.003563
0.000549
-0.012109
-0.001561
-0.019342
0.024961
0.015015
-0.011808
0.000850
-0.010301
0.010494
0.013508
-0.012712
-0.001561
-0.000054
0.018330
-0.012109
-0.004876
-0.002465
0.026166
-0.012109
0.007481
-0.009698
-0.009095
-0.020246
0.026166
0.027372
0.002960
-0.030493
-0.004876
-0.008492
0.024961
-0.006684
0.023755
-0.006986
-0.010301
-0.014821
0.012303
0.019536
0.010495
-0.008191
-0.008191
-0.002163
-0.010602
0.011399
0.010796
0.008686
-0.006081
-0.008794
0.012303
0.019235
-0.007287
-0.030192
0.005673
0.007481
0.012604
-0.004574
-0.001862
0.008385
0.008686
-0.007890
-0.024164
0.010495
0.020139
-0.003369
-0.016027
-0.005177
0.041235
0.005673
-0.036219
-0.003670
0.018632
0.019536
-0.036219
0.002659
0.018029
0.054798
-0.018136
-0.035315
-0.044356
0.033400
0.021344
0.037016
-0.025068
0.000851
-0.009698
-0.000053
-0.005177
0.005371
-0.001862
0.038825
0.002358
-0.002163
-0.039534
-0.008191
0.032194
0.022550
0.002960
-0.006985
-0.014218
0.003865
0.000549
0.008385
0.003262
-0.009396
-0.010300
0.029181
0.026468
0.001755
-0.047370
-0.005177
0.011098
0.022852
-0.006081
0.024057
0.020742
-0.007588
-0.056411
-0.013013
0.021043
0.055702
0.023153
-0.026575
-0.038329
0.002659
0.012906
0.016221
-0.005478
0.008687
0.019235
-0.017835
-0.036520
0.005372
0.055099
0.015016
-0.029287
-0.041342
0.029783
0.016523
0.007180
-0.006683
-0.000355
-0.005478
-0.004272
-0.004574
0.019537
0.005070
0.008084
-0.004574
-0.009094
-0.014519
0.010194
0.012002
0.010797
0.000550
-0.010601
-0.003971
0.005372
0.000851
0.003865
-0.005779
0.008386
-0.000354
0.007180
-0.014519
0.007180
-0.009697
0.018934
-0.007587
0.012605
-0.010300
0.014715
-0.021451
0.011701
-0.012410
0.015317
-0.002765
0.008988
-0.019040
0.003262
-0.001258
0.008989
-0.005176
0.006577
-0.003067
-0.000354
-0.004574
-0.000053
0.004166
-0.006382
0.008386
-0.002162
-0.000053
0.000550
-0.002464
0.002961
-0.000053
0.000550
-0.004573
0.006276
-0.004573
0.003262
-0.001861
-0.000957
0.003262
0.000550
-0.006382
0.007482
-0.007889
0.012907
-0.008190
0.004769
-0.005779
-0.000957
-0.006984
0.005975
-0.001258
0.005372
-0.000957
-0.006382
-0.001560
0.000550
0.002358
-0.006080
0.007783
-0.000354
0.000249
-0.013615
0.013208
-0.009998
0.007181
-0.009998
0.009893
-0.002765
0.003564
-0.009094
0.014112
-0.011204
0.007181
-0.003066
0.001153
-0.006080
-0.002162
-0.002765
0.003865
-0.003970
0.005372
-0.000052
-0.000655
-0.013012
0.006277
-0.004272
0.007783
-0.006683
0.005975
-0.012710
0.009290
-0.008792
0.005071
-0.013916
0.011400
-0.009998
0.005975
-0.003669
0.007181
-0.018738
0.014715
-0.011505
0.008386
-0.005477
0.004468
-0.004573
0.005975
-0.009094
-0.000655
-0.003066
0.006879
0.002057
-0.002162
-0.002463
0.000852
-0.000052
-0.004874
0.000551
-0.003066
0.004167
-0.003367
0.000551
-0.000052
0.001455
-0.002463
0.003564
0.003564
-0.008491
0.000551
-0.000052
0.006880
-0.011203
0.000249
0.005674
0.001455
-0.009998
0.004167
-0.002162
0.005975
0.002359
-0.005176
-0.000353
-0.001860
-0.003066
-0.000052
0.010496
-0.002162
-0.003066
-0.002764
0.012305
-0.016929
0.006578
-0.007285
0.011702
-0.010299
0.013811
-0.010600
0.010798
-0.011504
0.007181
-0.007586
0.008387
-0.004271
0.005976
-0.000353
0.006277
-0.011504
0.008387
-0.007888
0.001154
0.003565
0.004469
-0.003970
0.005072
-0.002764
-0.000655
-0.004874
0.004770
-0.005175
0.014716
-0.011203
0.011702
-0.007888
0.003263
-0.003066
0.011702
-0.004874
0.005373
-0.003970
0.009592
-0.009696
0.005674
-0.008189
0.010497
-0.007888
0.008990
-0.008189
0.004469
-0.003066
-0.000353
-0.002764
0.001757
0.002359
-0.004572
0.003263
-0.003367
0.002058
-0.005778
0.002058
-0.004572
0.007784
-0.006682
0.004168
-0.005477
0.008387
-0.002764
-0.000052
-0.009696
0.004469
0.002661
0.003264
-0.001257
-0.001257
0.000551
-0.000654
0.000853
-0.006079
0.011401
-0.000654
-0.002463
-0.000956
0.002661
0.004168
-0.006381
0.005072
-0.001860
0.007182
-0.005778
0.007784
-0.011504
0.003264
-0.007586
0.014113
-0.009394
0.008689
-0.009997
0.002360
-0.005476
0.008990
-0.007285
0.011401
-0.015723
0.017730
-0.009696
0.003565
-0.006983
0.005373
-0.001860
0.007483
-0.007285
0.003565
-0.002161
0.006880
0.000853
0.000853
-0.003065
0.002360
-0.003065
0.004469
-0.006380
0.010196
-0.008791
0.010798
-0.006380
0.008086
-0.003668
0.001154
-0.002764
0.009894
-0.003366
0.004469
-0.010600
0.006278
0.001154
0.011703
-0.012106
0.000552
-0.001558
-0.001859
0.002058
0.000552
0.002058
-0.002764
-0.000353
0.002963
0.000250
-0.008791
0.008689
-0.001859
0.008387
-0.006380
0.008990
-0.009394
0.006579
-0.012408
0.013210
0.001154
0.005675
-0.008490
0.002059
0.000250
0.005977
-0.006983
0.001456
0.000250
0.006881
-0.003668
-0.002763
-0.002763
0.005072
0.000552
0.004168
-0.003969
0.001757
0.001757
0.002059
-0.005174
0.000552
-0.000654
0.006579
-0.011503
0.014717
-0.010901
0.007785
-0.012106
0.013511
-0.012106
0.013210
-0.014819
0.014717
-0.010901
0.015621
-0.010901
0.006579
-0.004873
0.002963
-0.005476
0.005073
-0.006983
0.015018
0.000853
0.001155
-0.008489
0.001757
0.003264
0.002963
0.001757
-0.008188
0.006278
0.000853
0.002662
-0.003667
0.002059
0.005977
-0.003366
0.008087
0.002360
-0.003065
-0.010298
0.008388
-0.002763
0.007484
-0.003667
-0.000653
-0.001256
0.003867
-0.004270
0.004771
-0.006078
0.007484
0.001758
-0.005174
-0.001859
-0.006078
0.014114
-0.000051
0.002360
-0.012709
0.006278
-0.007886
0.012909
-0.014517
0.010799
-0.007886
0.006580
-0.003667
0.009895
-0.005777
0.003566
-0.006380
0.009594
-0.002160
0.003265
-0.005777
-0.000050
-0.004270
0.010196
-0.001557
0.000552
-0.001859
-0.000653
-0.001859
0.005073
-0.000352
0.006881
-0.006078
-0.000653
-0.007585
0.004470
-0.002160
0.008991
-0.010297
0.011101
-0.020846
0.012608
-0.009393
0.012306
-0.010599
0.003265
-0.005475
0.009292
-0.019640
0.011402
-0.004571
0.005375
-0.006982
0.007183
-0.008188
0.007183
-0.006078
-0.002763
0.002662
0.001758
0.002361
-0.009092
-0.000352
-0.003667
0.003566
-0.007283
0.005676
-0.003365
-0.000954
0.002662
-0.004872
-0.002763
0.005676
0.001758
0.001457
-0.012407
0.003566
0.006580
-0.004872
-0.004872
-0.003365
0.008991
-0.004269
-0.004269
-0.004872
0.006882
-0.007283
-0.001858
0.004772
-0.002763
-0.000653
-0.007283
-0.000351
0.000854
0.008389
-0.008489
0.004169
-0.015722
0.009896
-0.009393
0.008389
-0.008489
0.014115
-0.016325
0.011101
-0.009393
0.008690
-0.004571
0.006882
-0.013009
0.006279
-0.005475
0.005375
-0.008187
0.007485
-0.005173
0.006279
-0.003968
0.003265
-0.006680
0.003265
-0.000050
0.006279
-0.006077
-0.000653
-0.003064
0.004471
-0.009091
0.004169
-0.003365
0.005375
-0.005475
0.011704
-0.015119
0.005676
-0.010899
0.015321
-0.005475
0.003868
-0.008790
0.004170
-0.003968
0.005375
