EVENT_NAME: 202302060117
EVENT_ID: 13194
EVENT_DATE_YYYYMMDD: 2023/02/06
EVENT_TIME_HHMMSS: 01:17:32.00000
EVENT_LATITUDE_DEGREE: 37.288
EVENT_LONGITUDE_DEGREE: 37.043
EVENT_DEPTH_KM: 8.6
HYPOCENTER_REFERENCE: AFAD
MAGNITUDE_W: 7.7
MAGNITUDE_W_REFERENCE: AFAD
MAGNITUDE_L: 
MAGNITUDE_L_REFERENCE: 
FOCAL_MECHANISM: 
NETWORK: TK
STATION_CODE: 4631
STATION_NAME: 
STATION_LATITUDE_DEGREE: 37.966325
STATION_LONGITUDE_DEGREE: 37.427653
STATION_ELEVATION_M: 1421.0
LOCATION: Kahramanmaras_Pazarck_Turkiye
SENSOR_DEPTH_M: 
VS30_M/S: 543
SITE_CLASSIFICATION_EC8: B
MORPHOLOGIC_CLASSIFICATION: 
EPICENTRAL_DISTANCE_KM: 82.68
EARTHQUAKE_BACKAZIMUTH_DEGREE: 
DATE_TIME_FIRST_SAMPLE_YYYYMMDD_HHMMSS: 2023/02/06 01:17:23.8230650
DATE_TIME_FIRST_SAMPLE_PRECISION: millisecond
SAMPLING_INTERVAL_S: 0.01
NDATA: 3559
DURATION_S: 
STREAM: HNE
UNITS: cm/s^2
INSTRUMENT: sensor = ACEBOX/SARA | digitizer = 
INSTRUMENT_ANALOG/DIGITAL: 
INSTRUMENTAL_FREQUENCY_HZ: 
INSTRUMENTAL_DAMPING: 
FULL_SCALE_G: 
N_BIT_DIGITAL_CONVERTER: 
PGA_CM/S^2: 19.336
TIME_PGA_S: 
BASELINE_CORRECTION: BASELINE REMOVED
FILTER_TYPE: BUTTERWORTH
FILTER_ORDER: 
LOW_CUT_FREQUENCY_HZ: 
HIGH_CUT_FREQUENCY_HZ: 
LATE/NORMAL_TRIGGERED: 
DATABASE_VERSION: 
HEADER_FORMAT: DYNA 1.2
DATA_TYPE: Acceleration
PROCESSING: Automatic Paolucci et al., 2011
DATA_TIMESTAMP_YYYYMMDD_HHMMSS: 
DATA_LICENSE: U (unknown license)
DATA_CITATION: Turkish Accelerometric Archive v 1.0 - Disaster And Emergency Management Presidency, Earthquake Department
DATA_CREATOR: AFAD
ORIGINAL_DATA_MEDIATOR_CITATION: : AFAD - Disaster And Emergency Management Presidency
ORIGINAL_DATA_MEDIATOR: AFAD PROCESS SERVICE
ORIGINAL_DATA_CREATOR_CITATION: AFAD PROCESS SERVICE
ORIGINAL_DATA_CREATOR: network: TK
USER1: GuestUser
USER2: 
USER3: 
USER4: 
USER5: 
[...]
-0.020991
-0.020577
-0.024371
-0.021618
-0.018866
-0.024764
-0.024583
-0.020662
-0.020481
-0.022171
-0.025497
-0.022277
-0.019759
-0.023786
-0.021501
-0.022022
-0.024881
-0.022128
-0.021714
-0.023170
-0.023924
-0.023042
-0.022394
-0.023850
-0.020864
-0.022320
-0.026114
-0.021023
-0.021076
-0.025338
-0.024690
-0.022171
-0.021055
-0.025317
-0.024435
-0.019344
-0.025710
-0.025997
-0.019737
-0.022362
-0.023351
-0.024339
-0.027198
-0.024679
-0.023563
-0.023616
-0.024137
-0.026528
-0.024009
-0.021023
-0.022479
-0.025338
-0.026092
-0.025210
-0.024562
-0.022979
-0.025136
-0.026124
-0.022904
-0.025529
-0.026050
-0.024466
-0.025922
-0.023404
-0.025327
-0.025147
-0.023329
-0.027825
-0.024137
-0.024424
-0.029621
-0.023361
-0.024116
-0.028377
-0.025157
-0.025444
-0.026433
-0.025083
-0.024435
-0.025891
-0.027346
-0.025295
-0.026518
-0.025869
-0.024286
-0.028080
-0.025327
-0.024913
-0.029174
-0.024552
-0.026709
-0.029801
-0.023074
-0.025933
-0.028792
-0.023701
-0.027028
-0.027548
-0.022692
-0.026720
-0.029812
-0.027060
-0.025710
-0.026231
-0.029557
-0.028675
-0.024052
-0.027145
-0.029068
-0.025381
-0.027538
-0.027825
-0.025306
-0.026996
-0.028452
-0.028271
-0.027389
-0.026507
-0.027495
-0.028250
-0.028069
-0.028590
-0.028409
-0.027995
-0.028048
-0.028335
-0.028622
-0.029376
-0.028027
-0.026677
-0.029770
-0.030524
-0.028239
-0.029228
-0.027410
-0.026295
-0.030088
-0.030843
-0.027857
-0.028845
-0.030535
-0.028951
-0.028303
-0.028824
-0.028643
-0.029631
-0.029217
-0.028803
-0.030492
-0.029610
-0.028261
-0.028548
-0.028367
-0.030290
-0.030577
-0.028994
-0.030450
-0.030035
-0.027750
-0.030142
-0.031598
-0.030014
-0.029833
-0.030120
-0.032745
-0.033266
-0.028409
-0.029632
-0.031087
-0.028101
-0.031194
-0.031013
-0.029430
-0.031587
-0.029770
-0.031226
-0.033383
-0.030397
-0.029748
-0.031438
-0.029855
-0.029206
-0.032767
-0.032586
-0.029600
-0.033160
-0.034382
-0.030694
-0.031683
-0.032905
-0.029685
-0.030439
-0.033532
-0.032182
-0.033404
-0.034860
-0.031173
-0.030992
-0.032915
-0.032033
-0.031853
-0.032841
-0.032660
-0.032947
-0.033468
-0.031651
-0.032639
-0.034329
-0.031810
-0.033500
-0.033085
-0.029865
-0.034594
-0.033245
-0.031661
-0.035455
-0.030131
-0.032756
-0.036082
-0.029823
-0.033851
-0.035307
-0.032087
-0.033776
-0.030556
-0.032947
-0.036274
-0.031885
-0.032405
-0.033627
-0.034382
-0.035137
-0.033085
-0.033372
-0.033192
-0.034648
-0.035870
-0.032416
-0.034106
-0.035094
-0.033043
-0.035668
-0.034552
-0.033202
-0.035126
-0.034711
-0.033362
-0.033181
-0.036975
-0.036093
-0.031938
-0.035264
-0.035785
-0.034435
-0.036125
-0.034541
-0.033426
-0.033713
-0.035870
-0.035689
-0.035275
-0.037900
-0.034446
-0.033096
-0.036189
-0.035073
-0.037230
-0.035881
-0.032894
-0.035753
-0.034871
-0.035625
-0.039186
-0.035966
-0.035551
-0.038644
-0.035657
-0.035243
-0.039271
-0.035583
-0.034701
-0.038729
-0.035742
-0.036965
-0.038187
-0.034733
-0.038760
-0.039047
-0.035126
-0.037050
-0.036167
-0.035519
-0.036508
-0.039132
-0.039419
-0.035264
-0.037889
-0.038176
-0.034722
-0.038516
-0.036933
-0.036284
-0.040546
-0.036157
-0.036444
-0.038835
-0.036316
-0.039876
-0.038994
-0.034839
-0.037230
-0.040323
-0.040376
-0.036221
-0.036975
-0.039133
-0.036146
-0.037368
-0.036486
-0.037475
-0.040801
-0.036880
-0.039738
-0.039558
-0.035870
-0.041768
-0.038314
-0.036029
-0.040758
-0.039175
-0.038293
-0.038346
-0.040971
-0.040790
-0.036401
-0.040663
-0.037677
-0.036561
-0.043628
-0.038304
-0.038824
-0.044489
-0.038463
-0.038049
-0.040440
-0.037453
-0.038442
-0.042470
-0.040652
-0.038367
-0.042629
-0.039643
-0.037592
-0.043256
-0.039568
-0.037517
-0.042246
-0.039962
-0.039781
-0.042172
-0.039186
-0.040174
-0.042565
-0.038644
-0.040100
-0.043894
-0.039738
-0.040960
-0.043585
-0.039664
-0.040185
-0.041874
-0.041460
-0.039877
-0.038994
-0.042788
-0.042842
-0.041258
-0.042714
-0.041598
-0.041885
-0.040535
-0.041290
-0.045318
-0.042098
-0.041449
-0.044542
-0.040854
-0.042778
-0.045403
-0.039377
-0.041534
-0.045796
-0.040939
-0.042629
-0.044786
-0.041566
-0.042555
-0.041673
-0.041960
-0.044818
-0.041832
-0.041885
-0.041471
-0.042459
-0.048123
-0.045137
-0.041917
-0.044776
-0.042725
-0.043245
-0.046338
-0.043118
-0.041067
-0.042990
-0.043277
-0.044266
-0.047124
-0.042969
-0.041853
-0.047050
-0.043362
-0.042714
-0.047443
-0.042119
-0.042406
-0.045498
-0.041343
-0.044436
-0.045892
-0.044074
-0.046699
-0.043713
-0.044000
-0.046625
-0.043405
-0.045095
-0.045849
-0.043564
-0.045254
-0.046242
-0.044191
-0.044478
-0.049207
-0.045754
-0.041364
-0.045860
-0.045445
-0.045732
-0.046954
-0.044202
-0.045892
-0.045477
-0.046466
-0.048623
-0.042363
-0.043586
-0.049717
-0.045796
-0.044213
-0.047539
-0.045488
-0.044372
-0.046062
-0.047751
-0.048740
-0.045520
-0.045339
-0.049834
-0.046147
-0.045031
-0.049059
-0.045839
-0.044957
-0.047114
-0.045998
-0.046753
-0.047975
-0.046391
-0.045509
-0.047433
-0.047953
-0.046838
-0.049696
-0.048113
-0.043022
-0.047752
-0.051078
-0.045520
-0.046274
-0.050302
-0.047082
-0.046434
-0.048357
-0.048410
-0.049633
-0.046413
-0.045063
-0.050727
-0.048442
-0.046625
-0.051588
-0.048836
-0.046083
-0.048007
-0.047826
-0.050451
-0.051439
-0.047985
-0.047337
-0.049027
-0.050717
-0.048665
-0.046381
-0.050408
-0.049293
-0.046774
-0.049866
-0.048283
-0.047868
-0.051195
-0.048910
-0.048963
-0.052523
-0.050472
-0.048889
-0.049643
-0.049696
-0.049282
-0.048400
-0.051259
-0.051312
-0.048325
-0.049781
-0.048899
-0.048952
-0.052980
-0.049994
-0.046540
-0.050802
-0.051790
-0.047401
-0.049558
-0.055223
-0.050132
-0.048315
-0.055382
-0.050993
-0.046370
-0.052502
-0.052789
-0.047932
-0.050323
-0.054117
-0.050196
-0.048612
-0.052173
-0.052927
-0.051344
-0.048591
-0.050515
-0.053607
-0.050855
-0.052311
-0.052364
-0.048910
-0.052236
-0.053458
-0.052109
-0.050292
-0.050345
-0.053671
-0.051386
-0.051439
-0.055233
-0.051078
-0.051131
-0.054224
-0.050068
-0.050589
-0.053682
-0.051864
-0.052151
-0.053373
-0.051556
-0.052778
-0.054000
-0.050313
-0.051067
-0.054627
-0.052343
-0.052630
-0.055254
-0.053905
-0.051854
-0.051673
-0.052428
-0.053650
-0.053469
-0.051886
-0.054511
-0.056200
-0.051578
-0.051631
-0.054489
-0.053140
-0.054128
-0.053947
-0.052364
-0.054287
-0.056679
-0.053926
-0.050239
-0.053799
-0.055021
-0.053671
-0.058166
-0.055180
-0.051259
-0.057624
-0.055106
-0.049314
-0.056147
-0.058071
-0.052747
-0.055371
-0.057295
-0.053841
-0.054829
-0.056052
-0.052364
-0.054054
-0.055977
-0.052991
-0.056551
-0.058241
-0.054086
-0.056944
-0.056530
-0.050504
-0.056169
-0.059962
-0.054872
-0.054224
-0.054277
-0.054798
-0.057423
-0.057008
-0.055892
-0.055712
-0.057869
-0.055116
-0.054936
-0.062470
-0.056679
-0.051354
-0.060760
-0.057306
-0.051748
-0.058815
-0.057231
-0.054946
-0.060611
-0.056222
-0.051833
-0.058666
-0.058485
-0.055967
-0.059527
-0.056307
-0.054723
-0.058050
-0.058804
-0.058857
-0.054702
-0.054521
-0.060186
-0.058135
-0.055616
-0.058007
-0.057125
-0.059049
-0.059803
-0.056349
-0.058039
-0.058794
-0.056976
-0.059134
-0.057784
-0.058071
-0.058358
-0.057943
-0.061971
-0.057582
-0.055765
-0.061897
-0.059612
-0.058262
-0.059017
-0.056966
-0.059824
-0.058007
-0.057125
-0.059516
-0.058167
-0.059856
-0.059676
-0.056923
-0.058847
-0.060536
-0.059654
-0.057603
-0.057423
-0.059346
-0.058932
-0.060855
-0.063714
-0.058156
-0.057508
-0.062938
-0.060420
-0.060239
-0.061461
-0.056838
-0.060398
-0.062556
-0.058400
-0.060792
-0.061312
-0.060664
-0.062821
-0.059134
-0.058018
-0.060877
-0.060228
-0.060983
-0.059166
-0.058751
-0.062311
-0.060260
-0.059846
-0.062471
-0.060887
-0.062577
-0.062162
-0.058007
-0.058528
-0.061854
-0.065181
-0.061727
-0.057104
-0.061833
-0.060483
-0.061472
-0.067136
-0.058539
-0.058826
-0.066828
-0.060802
-0.060388
-0.063714
-0.060962
-0.062651
-0.062938
-0.061589
-0.060239
-0.062163
-0.065255
-0.062736
-0.062088
-0.061907
-0.060558
-0.063650
-0.063703
-0.062120
-0.062173
-0.061291
-0.062279
-0.062566
-0.061451
-0.062205
-0.064362
-0.064883
-0.061195
-0.061482
-0.065043
-0.063927
-0.064681
-0.065202
-0.061047
-0.062035
-0.066530
-0.064479
-0.060090
-0.064586
-0.066509
-0.061652
-0.064044
-0.065733
-0.060643
-0.061397
-0.064022
-0.064309
-0.064596
-0.066286
-0.064001
-0.059846
-0.066445
-0.068836
-0.060473
-0.063799
-0.067827
-0.064139
-0.065595
-0.065181
-0.065701
-0.065755
-0.062535
-0.064692
-0.065914
-0.065500
-0.064851
-0.065372
-0.068465
-0.065712
-0.065765
-0.070494
-0.067041
-0.067094
-0.068783
-0.067200
-0.067721
-0.067540
-0.070866
-0.071153
-0.066530
-0.070792
-0.074352
-0.069028
-0.068613
-0.071940
-0.068720
-0.064798
-0.064851
-0.063268
-0.060749
-0.054022
-0.050802
-0.052258
-0.042492
-0.033894
-0.029739
-0.020207
-0.015116
-0.007922
0.002780
0.007870
0.015065
0.021324
0.027350
0.033843
0.034257
0.033269
0.032281
0.032228
0.028901
0.017158
0.011026
0.007233
-0.007550
-0.022800
-0.035478
-0.050260
-0.066212
-0.086138
-0.105596
-0.120378
-0.138901
-0.158360
-0.170103
-0.183950
-0.198966
-0.211177
-0.222452
-0.232325
-0.243834
-0.249966
-0.250720
-0.257787
-0.255970
-0.245502
-0.241113
-0.225268
-0.206618
-0.197085
-0.178201
-0.153237
-0.126404
-0.096999
-0.074140
-0.043332
-0.005743
0.018051
0.037871
0.060028
0.075639
0.089848
0.104758
0.121538
0.145332
0.165619
0.171645
0.166215
0.160550
0.153483
0.129349
0.088381
0.053726
0.027722
-0.007869
-0.050005
-0.085830
-0.116510
-0.153737
-0.196575
-0.227723
-0.246480
-0.265938
-0.286800
-0.293633
-0.262357
-0.209572
-0.182505
-0.161516
-0.119018
-0.085404
-0.078444
-0.078029
-0.069198
-0.073693
-0.102504
-0.115883
-0.104013
-0.092610
-0.071153
-0.044320
-0.042970
-0.056584
-0.062014
-0.070952
-0.100697
-0.141665
-0.164396
-0.158137
-0.141123
-0.136266
-0.149412
-0.156479
-0.157000
-0.165002
-0.142377
-0.092163
-0.070240
-0.065851
-0.046265
-0.031355
-0.038422
-0.040112
-0.016317
0.004204
-0.010345
-0.050377
-0.067030
-0.046743
-0.051940
-0.089868
-0.089687
-0.049294
-0.048645
-0.103173
-0.125437
-0.094161
-0.072004
-0.049846
-0.016466
-0.006700
-0.000674
0.015171
0.012546
-0.008081
-0.036424
-0.074820
-0.109943
-0.116308
-0.112855
-0.138859
-0.150368
-0.115118
-0.098805
-0.129252
-0.168116
-0.191549
-0.210072
-0.265067
-0.330817
-0.319648
-0.236703
-0.168254
-0.155448
-0.168594
-0.175895
-0.187638
-0.204524
-0.228892
-0.276406
-0.306619
-0.276513
-0.213441
-0.155746
-0.107870
-0.056488
-0.029187
-0.077402
-0.151102
-0.149284
-0.095097
-0.099124
-0.177266
-0.219636
-0.150719
-0.053045
-0.019899
-0.003586
0.033534
0.040261
0.001398
-0.039804
-0.025595
0.038880
0.070156
0.055841
0.048774
0.011313
-0.091611
-0.180039
-0.212590
-0.272028
-0.377056
-0.418959
-0.406621
-0.480554
-0.608962
-0.645487
-0.633383
-0.671545
-0.680716
-0.622320
-0.587771
-0.511139
-0.337247
-0.247989
-0.248978
-0.182399
-0.123769
-0.182739
-0.298755
-0.371286
-0.360818
-0.307799
-0.235141
-0.122972
-0.009399
-0.065096
-0.312273
-0.385972
-0.156904
-0.020887
-0.160985
-0.241231
-0.001174
0.235843
0.127308
-0.004840
0.146607
0.266492
0.028901
-0.280700
-0.124810
0.352083
0.459109
0.183175
0.177745
0.491214
0.525762
0.163324
-0.160071
-0.290349
-0.491001
-0.888743
-1.226633
-1.269237
-1.164783
-1.228897
-1.471631
-1.416275
-0.883270
-0.556241
-0.714808
-0.683766
-0.340138
-0.227267
-0.306811
-0.225269
-0.049273
-0.006541
-0.145002
-0.295387
-0.203090
0.108275
0.336876
0.407195
0.500194
0.631301
0.569057
0.173653
-0.206788
-0.236300
-0.327768
-0.730420
-0.943696
-0.958946
-1.250077
-1.571601
-1.463172
-1.225687
-1.334690
-1.632133
-1.700923
-1.487285
-1.211925
-1.109107
-1.132307
-1.002135
-0.866118
-0.968574
-1.101190
-1.383437
-1.881010
-1.983934
-1.722602
-1.511536
-1.121616
-0.619472
-0.278415
0.090230
0.590503
1.092179
1.397231
1.506595
1.520570
1.254455
0.907447
0.874195
0.957607
1.034006
1.198780
1.475309
1.818002
1.675099
0.856989
0.412488
0.880029
1.208461
0.785235
0.543903
0.786531
0.334782
-0.998851
-1.822806
-1.730976
-1.728692
-2.024031
-1.913264
-1.388676
-1.060010
-1.124124
-1.241543
-1.178003
-1.113061
-1.215283
-1.334106
-1.295816
-1.163540
-1.114963
-1.230746
-1.243424
-0.996354
-0.916214
-0.855480
-0.501330
-0.639090
-1.040339
-0.654861
-0.121389
0.249828
1.072742
1.611124
1.372831
1.100872
0.887362
0.210699
-0.791409
-1.134443
-0.628792
-0.330520
-0.490491
-0.680621
-0.763906
-0.774012
-1.076132
-1.256910
-0.539673
0.618038
1.213232
0.650663
-0.000515
0.617358
1.198524
0.449151
-0.610939
-0.816734
-0.245152
0.159965
-0.051207
-0.592267
-0.868668
-0.665318
-1.088544
-1.811732
-1.344425
-0.976948
-1.330971
-0.651141
0.648952
1.051264
0.647677
0.460820
0.877393
0.412084
-1.155113
-1.647543
-1.063570
-0.991848
-1.351481
-1.461653
-1.202659
-1.125325
-1.737225
-2.340943
-1.859608
-0.585699
-0.109508
-0.868233
-1.554481
-1.479018
-0.895279
-0.111644
0.660536
1.806557
3.215132
3.420587
2.214841
1.356284
1.211043
0.555656
-0.724203
-1.736365
-1.731976
-1.324988
-2.216744
-3.357727
-2.359232
-1.147047
-2.308605
-3.437197
-2.093851
-0.839114
-2.179060
-3.789508
-3.162985
-1.517105
-0.427897
0.180390
0.723214
0.877468
-0.298352
-2.350210
-3.139095
-1.791541
-0.386706
-0.469757
0.073768
1.841456
1.777109
-0.040718
-0.593936
0.132887
0.021079
-1.432024
-3.084557
-3.739008
-2.801067
-1.729393
-2.389924
-2.726177
-0.430809
2.391071
3.134961
2.453856
2.875106
4.297241
3.751038
1.358303
0.515411
1.566043
0.594328
-2.703435
-3.161263
-0.756712
0.485634
0.968840
0.746679
-0.955886
-1.835718
-2.043851
-3.592109
-4.378656
-2.448012
-0.809847
-1.109395
-0.259127
1.617978
1.395116
0.597113
1.185761
1.560017
1.761965
2.285618
1.983966
2.442623
4.408104
4.342120
2.121928
0.940029
0.526155
-0.705308
-2.315991
-2.694328
-2.017538
-3.086980
-5.154970
-4.289973
-1.372704
0.727444
1.237069
-1.594269
-6.691103
-8.692694
-6.683494
-4.486554
-2.876445
0.081972
3.705777
5.564879
4.487488
0.759070
-2.315183
-2.029536
-0.686424
1.120308
4.765856
7.687567
7.714401
5.355567
2.117422
-0.342880
-2.507428
-4.948559
-6.521366
-5.032832
-0.282358
2.986308
2.642573
0.823109
-2.627324
-6.064197
-6.470589
-5.166755
-3.529059
-1.243510
1.014451
2.921249
4.261789
4.516341
4.562814
3.784683
0.677464
-1.394734
0.665434
3.190626
1.707129
-1.516053
-1.689818
-1.133434
-3.671824
-6.848714
-7.328987
-4.531422
-1.828545
-0.806202
2.252982
5.591787
6.107725
5.596357
3.149849
1.510877
5.753543
8.801271
3.712387
-1.555119
-1.155846
-1.502855
-4.322269
-4.848366
-4.881618
-6.477104
-5.189869
-0.353826
2.642934
2.529489
1.254072
-1.636884
-3.785067
-2.302845
-1.399506
-3.467963
-2.542647
2.019386
2.651287
1.033357
2.553454
2.203640
-0.936545
-1.395542
-0.626168
-2.003521
-4.241014
-3.072548
0.405133
-0.954217
-6.286251
-9.126707
-7.030066
-1.120426
2.417341
0.216788
-1.389920
1.425647
3.515976
1.928673
1.946154
5.989859
8.180954
5.741226
3.414890
5.230039
7.949749
5.815829
1.604853
1.304604
2.911673
2.105955
-1.242777
-3.159266
-1.234934
-0.006382
-1.079331
-0.453743
2.037314
3.232433
0.431021
-2.925426
-1.337061
-0.314017
-4.758322
-6.813220
-2.096647
1.651070
-0.672928
-4.574122
-5.972283
-4.569318
-1.009107
3.432287
8.038975
11.009316
11.074258
8.787902
4.504215
0.587357
-2.510277
-5.952994
-6.936633
-4.677035
-2.385875
-3.580399
-6.752379
-4.919696
0.226831
1.111466
-1.936836
-4.092032
-1.271555
3.670632
3.350978
-0.172166
-0.798094
0.588504
0.674722
-0.531725
-0.497877
2.298986
6.392256
6.178512
1.012007
0.548567
4.276645
2.807644
-1.084666
-3.676596
-4.364013
1.020987
8.632671
12.712380
12.583739
7.699193
3.426729
1.749414
-1.976199
-5.553818
-7.599831
-8.106055
-6.260980
-7.342579
-9.095878
-7.577184
-8.201476
-8.183761
-4.686908
-2.726103
-0.974314
1.454553
1.310948
-0.991073
-1.546394
1.562822
3.849073
3.875205
5.901239
9.716056
12.985657
14.369918
11.428461
5.547472
2.188453
1.078331
-0.876969
-1.919290
-2.678483
-2.496408
2.548182
6.388249
5.281400
5.955618
5.454303
-2.234640
-8.387770
-7.266531
-5.827095
-4.533548
-1.826228
-3.935133
-8.707923
-9.366817
-7.380061
-5.091239
-2.179581
1.550367
3.426771
4.558063
9.692899
11.681993
7.049948
3.640196
-1.809204
-7.168124
-1.832924
3.822813
-0.019698
-3.900552
-3.889617
-4.162745
-5.115522
-5.274090
-3.373137
0.226352
2.405523
1.582036
1.557668
4.067195
4.092392
2.621052
6.464626
10.836582
7.228803
1.055801
-1.314956
-3.160371
-4.937518
-5.141909
-6.104272
-6.500612
-4.437170
-4.279176
-7.042012
-5.218914
0.975492
1.888884
0.230507
2.277583
3.109614
3.055554
4.101977
1.943742
-1.020159
-0.678401
2.345947
5.355566
3.869030
0.254705
1.217897
4.906229
4.093965
-0.881996
-3.019190
-1.494885
1.243530
1.662909
-4.652710
-7.254225
-1.206411
-2.653435
-9.509126
-6.745227
0.106850
0.715838
-2.254375
-0.491363
2.694071
0.046498
-0.634373
2.698822
3.811644
5.631001
8.030175
11.208128
15.831416
13.656347
6.618295
3.115023
2.955754
4.063666
1.011624
-3.883443
1.103400
6.812910
-2.701289
-14.758969
-12.442091
-5.946555
-10.615773
-17.750617
-12.793701
-4.714890
-6.261745
-10.218817
-7.628630
-0.167044
6.098436
6.664640
6.299863
10.391028
13.287957
10.410093
5.742979
3.950636
5.279253
4.021137
-2.171271
-4.896231
-0.500194
3.083865
2.756729
4.330599
7.406149
5.032352
-0.029646
-2.102545
-3.895356
-3.894941
1.005162
4.985742
3.682269
1.818851
4.355498
4.948589
-1.130894
-5.771356
-6.562111
-4.939845
1.709764
6.433350
3.584711
0.620343
1.394392
2.321579
2.901343
3.369118
2.994756
5.394164
8.489353
4.265285
-3.352585
-6.576936
-3.977865
1.398951
0.820951
-3.786077
-3.705470
-3.165685
-5.318310
-9.118036
-13.347482
-9.247432
1.668041
6.066884
2.187199
-2.371200
-2.258562
1.698871
3.859104
1.434106
-0.411309
6.434689
17.386635
19.335516
14.126694
12.215816
13.080111
9.504596
-0.454285
-9.339570
-10.726508
-10.005531
-12.660118
-14.038640
-9.640031
-4.482750
-4.673582
-4.812511
1.683259
10.021118
14.286930
12.966390
8.347672
7.602974
12.051615
13.789611
8.240614
1.305432
-0.694523
-2.683489
-7.710417
-7.916680
-1.803402
2.096283
-1.673517
-8.113749
-7.781109
-3.070147
-1.650116
-1.327996
1.453437
6.512055
8.442700
1.258758
-6.351162
-6.887313
-4.592646
2.017919
9.932371
10.500679
7.982395
0.000000
0.000000
0.000000
0.000000
0.000000
0.000000
0.000000
0.000000
0.000000
0.000000
0.000000
0.000000
0.000000
0.000000
0.000000
0.000000
0.000000
0.000000
0.000000
0.000000
0.000000
0.000000
0.000000
0.000000
0.000000
0.000000
0.000000
0.000000
0.000000
0.000000
0.000000
0.000000
0.000000
0.000000
0.000000
0.000000
0.000000
0.000000
0.000000
0.000000
0.000000
0.000000
0.000000
0.000000
0.000000
0.000000
0.000000
