EVENT_NAME: 202302060117
EVENT_ID: 13194
EVENT_DATE_YYYYMMDD: 2023/02/06
EVENT_TIME_HHMMSS: 01:17:32.00000
EVENT_LATITUDE_DEGREE: 37.288
EVENT_LONGITUDE_DEGREE: 37.043
EVENT_DEPTH_KM: 8.6
HYPOCENTER_REFERENCE: AFAD
MAGNITUDE_W: 7.7
MAGNITUDE_W_REFERENCE: AFAD
MAGNITUDE_L: 
MAGNITUDE_L_REFERENCE: 
FOCAL_MECHANISM: 
NETWORK: TK
STATION_CODE: 7102
STATION_NAME: 
STATION_LATITUDE_DEGREE: 39.66824
STATION_LONGITUDE_DEGREE: 33.611341
STATION_ELEVATION_M: 1171.0
LOCATION: Kahramanmaras_Pazarck_Turkiye
SENSOR_DEPTH_M: 
VS30_M/S: None
SITE_CLASSIFICATION_EC8: unknown
MORPHOLOGIC_CLASSIFICATION: 
EPICENTRAL_DISTANCE_KM: 399.05
EARTHQUAKE_BACKAZIMUTH_DEGREE: 
DATE_TIME_FIRST_SAMPLE_YYYYMMDD_HHMMSS: 2023/02/06 01:18:02.8411780
DATE_TIME_FIRST_SAMPLE_PRECISION: millisecond
SAMPLING_INTERVAL_S: 0.01
NDATA: 21001
DURATION_S: 
STREAM: HNN
UNITS: cm/s^2
INSTRUMENT: sensor = GMS+/GEOSIG | digitizer = 
INSTRUMENT_ANALOG/DIGITAL: 
INSTRUMENTAL_FREQUENCY_HZ: 
INSTRUMENTAL_DAMPING: 
FULL_SCALE_G: 
N_BIT_DIGITAL_CONVERTER: 
PGA_CM/S^2: 1.536
TIME_PGA_S: 
BASELINE_CORRECTION: BASELINE REMOVED
FILTER_TYPE: BUTTERWORTH
FILTER_ORDER: 
LOW_CUT_FREQUENCY_HZ: 
HIGH_CUT_FREQUENCY_HZ: 
LATE/NORMAL_TRIGGERED: 
DATABASE_VERSION: 
HEADER_FORMAT: DYNA 1.2
DATA_TYPE: Acceleration
PROCESSING: Automatic Paolucci et al., 2011
DATA_TIMESTAMP_YYYYMMDD_HHMMSS: 
DATA_LICENSE: U (unknown license)
DATA_CITATION: Turkish Accelerometric Archive v 1.0 - Disaster And Emergency Management Presidency, Earthquake Department
DATA_CREATOR: AFAD
ORIGINAL_DATA_MEDIATOR_CITATION: : AFAD - Disaster And Emergency Management Presidency
ORIGINAL_DATA_MEDIATOR: AFAD PROCESS SERVICE
ORIGINAL_DATA_CREATOR_CITATION: AFAD PROCESS SERVICE
ORIGINAL_DATA_CREATOR: network: TK
USER1: GuestUser
USER2: 
USER3: 
USER4: 
USER5: 
[...]
-0.477338
-0.467467
-0.446685
-0.417851
-0.398109
-0.387459
-0.365379
-0.344598
-0.329012
-0.317582
-0.298619
-0.281734
-0.276020
-0.266928
-0.259915
-0.251342
-0.250304
-0.243810
-0.238355
-0.246408
-0.250824
-0.265891
-0.278360
-0.279918
-0.286932
-0.302259
-0.311611
-0.306416
-0.296025
-0.284855
-0.283297
-0.280959
-0.275504
-0.273946
-0.269790
-0.271089
-0.276804
-0.285636
-0.292650
-0.287455
-0.288754
-0.287196
-0.281741
-0.276545
-0.257583
-0.247971
-0.233425
-0.216800
-0.202772
-0.174977
-0.158612
-0.146403
-0.125622
-0.099646
-0.078085
-0.065357
-0.049771
-0.038341
-0.027951
-0.017041
-0.014443
-0.012105
-0.017561
-0.028471
-0.036524
-0.046136
-0.063540
-0.091596
-0.115754
-0.135756
-0.152901
-0.177579
-0.209791
-0.235248
-0.257848
-0.279150
-0.300451
-0.322012
-0.344352
-0.366952
-0.390591
-0.414490
-0.437090
-0.454754
-0.460210
-0.459950
-0.453196
-0.445144
-0.434493
-0.410335
-0.390333
-0.377865
-0.361759
-0.352927
-0.347732
-0.341498
-0.339939
-0.337082
-0.337082
-0.335264
-0.327471
-0.320198
-0.309288
-0.305651
-0.299937
-0.285650
-0.278896
-0.271623
-0.261232
-0.255517
-0.244867
-0.238633
-0.244348
-0.244088
-0.247985
-0.258636
-0.262013
-0.263572
-0.269806
-0.272404
-0.267988
-0.262014
-0.258118
-0.258378
-0.260456
-0.259417
-0.258638
-0.266431
-0.276822
-0.283576
-0.290590
-0.293448
-0.304358
-0.321244
-0.331375
-0.345402
-0.351377
-0.350598
-0.356573
-0.357352
-0.350599
-0.340728
-0.331116
-0.323843
-0.319168
-0.307218
-0.292672
-0.289035
-0.277865
-0.262279
-0.252668
-0.239940
-0.228770
-0.217081
-0.209547
-0.209548
-0.210847
-0.214743
-0.217341
-0.224095
-0.235006
-0.240461
-0.246696
-0.258126
-0.264880
-0.270335
-0.283324
-0.295533
-0.305924
-0.319432
-0.330343
-0.334499
-0.334499
-0.332422
-0.332681
-0.336318
-0.334760
-0.331383
-0.327747
-0.323331
-0.324630
-0.325929
-0.325150
-0.320214
-0.318656
-0.325670
-0.325151
-0.328008
-0.328788
-0.324891
-0.335802
-0.343595
-0.346972
-0.354506
-0.365936
-0.390354
-0.415552
-0.432956
-0.453219
-0.476858
-0.505432
-0.537904
-0.561283
-0.590117
-0.628303
-0.669347
-0.711949
-0.751953
-0.799751
-0.843912
-0.888592
-0.937688
-0.981849
-1.021594
-1.054844
-1.087575
-1.121345
-1.151219
-1.167584
-1.187067
-1.209927
-1.220578
-1.234865
-1.249672
-1.253569
-1.255387
-1.260063
-1.261882
-1.259284
-1.254349
-1.243699
-1.229931
-1.215125
-1.194084
-1.166029
-1.140832
-1.117972
-1.094334
-1.064201
-1.033808
-1.019781
-1.006013
-0.983673
-0.965230
-0.952502
-0.941592
-0.932500
-0.928344
-0.924188
-0.916655
-0.909641
-0.906524
-0.910681
-0.920812
-0.921332
-0.920812
-0.929645
-0.937438
-0.944452
-0.953544
-0.963675
-0.969910
-0.976144
-0.981340
-0.988873
-0.999264
-1.003940
-1.010954
-1.022124
-1.036931
-1.043166
-1.050180
-1.064727
-1.072780
-1.077196
-1.076157
-1.079535
-1.084990
-1.081094
-1.072262
-1.064988
-1.059533
-1.054598
-1.052520
-1.038753
-1.030440
-1.026024
-1.021089
-1.024726
-1.016933
-1.006802
-1.000049
-0.994853
-0.989398
-0.980307
-0.975112
-0.973034
-0.975372
-0.979788
-0.979788
-0.987322
-0.994336
-0.992518
-0.993037
-0.995375
-1.000051
-0.993817
-0.990700
-0.990441
-0.977712
-0.968880
-0.949658
-0.923421
-0.890691
-0.862376
-0.839517
-0.800292
-0.768081
-0.738468
-0.711452
-0.693268
-0.664694
-0.639497
-0.620014
-0.603390
-0.593519
-0.580790
-0.569880
-0.560269
-0.557152
-0.551697
-0.537410
-0.529098
-0.519746
-0.511953
-0.498965
-0.479742
-0.472729
-0.470131
-0.460260
-0.444155
-0.431427
-0.428829
-0.418439
-0.404152
-0.395060
-0.387007
-0.392982
-0.387267
-0.382072
-0.393502
-0.407010
-0.419739
-0.418181
-0.427792
-0.451691
-0.463381
-0.467018
-0.473772
-0.495073
-0.518193
-0.517674
-0.523648
-0.542871
-0.558717
-0.556380
-0.543651
-0.552484
-0.556121
-0.545730
-0.529625
-0.525728
-0.522871
-0.502090
-0.489621
-0.482088
-0.475334
-0.456371
-0.437668
-0.440786
-0.435071
-0.420005
-0.407017
-0.401302
-0.404939
-0.391171
-0.375845
-0.360779
-0.355064
-0.356883
-0.345193
-0.348830
-0.357403
-0.369093
-0.386497
-0.400265
-0.416631
-0.441569
-0.469624
-0.487808
-0.510668
-0.536125
-0.558725
-0.578208
-0.599509
-0.617433
-0.631980
-0.647307
-0.660036
-0.677700
-0.701339
-0.730693
-0.745500
-0.757190
-0.780569
-0.803949
-0.817976
-0.819535
-0.834342
-0.845252
-0.846292
-0.853825
-0.861618
-0.870710
-0.871490
-0.869152
-0.870711
-0.884999
-0.886557
-0.874089
-0.884999
-0.892273
-0.899806
-0.907340
-0.906820
-0.924225
-0.935136
-0.942149
-0.955917
-0.966308
-0.983193
-0.996182
-1.004235
-1.009431
-1.012288
-1.018263
-1.014107
-1.008652
-0.996183
-0.977740
-0.965271
-0.951764
-0.947867
-0.936957
-0.923190
-0.919813
-0.917735
-0.919554
-0.920853
-0.923451
-0.917476
-0.914099
-0.920334
-0.921633
-0.924231
-0.920335
-0.917477
-0.920335
-0.913321
-0.914101
-0.918517
-0.916699
-0.915141
-0.910984
-0.913582
-0.914362
-0.909167
-0.905530
-0.897218
-0.888646
-0.879554
-0.863968
-0.859292
-0.859033
-0.852019
-0.844486
-0.842668
-0.856436
-0.868126
-0.876698
-0.888388
-0.908650
-0.934627
-0.951772
-0.981386
-1.009960
-1.025287
-1.046848
-1.073344
-1.099321
-1.113609
-1.120363
-1.132832
-1.142184
-1.149458
-1.153354
-1.149978
-1.149458
-1.148160
-1.143484
-1.141926
-1.134133
-1.123742
-1.114650
-1.099584
-1.087635
-1.070750
-1.048151
-1.035422
-1.018278
-0.988405
-0.963207
-0.943985
-0.922944
-0.899045
-0.875926
-0.848910
-0.815401
-0.787346
-0.765006
-0.736432
-0.700844
-0.669152
-0.641617
-0.615121
-0.598496
-0.577455
-0.551738
-0.536672
-0.526541
-0.516410
-0.500045
-0.485498
-0.477186
-0.463938
-0.446014
-0.432766
-0.419778
-0.400555
-0.384190
-0.368345
-0.349122
-0.317950
-0.286259
-0.257684
-0.221837
-0.180793
-0.132737
-0.086758
-0.040519
0.000524
0.040268
0.078973
0.113263
0.143655
0.157682
0.171450
0.182620
0.193530
0.201842
0.200024
0.202361
0.200543
0.201841
0.204958
0.199503
0.196386
0.194307
0.198723
0.205217
0.207295
0.214828
0.218984
0.224439
0.233791
0.242882
0.250415
0.248077
0.255610
0.263143
0.260805
0.263403
0.265741
0.262104
0.255349
0.257947
0.254050
0.245997
0.251452
0.256907
0.257946
0.258205
0.268076
0.276389
0.281844
0.286000
0.283142
0.287558
0.280284
0.284960
0.296130
0.289376
0.294571
0.294571
0.297168
0.298726
0.293531
0.296908
0.284958
0.278724
0.279762
0.271969
0.269631
0.270150
0.281320
0.288594
0.293009
0.309115
0.318986
0.322363
0.326259
0.331974
0.326518
0.318205
0.317686
0.308594
0.283656
0.257419
0.244171
0.227805
0.202088
0.180527
0.160005
0.138704
0.129352
0.125975
0.120519
0.115843
0.111167
0.106232
0.111946
0.116882
0.105712
0.098438
0.088566
0.077916
0.074279
0.064667
0.056354
0.052198
0.046743
0.037910
0.032974
0.034533
0.035572
0.033234
0.035831
0.031415
0.019465
0.019725
0.025180
0.029596
0.025439
0.018166
0.022581
0.034271
0.046220
0.057649
0.057909
0.058169
0.070897
0.079469
0.097653
0.114278
0.120512
0.139735
0.154801
0.165971
0.175842
0.177400
0.177919
0.175581
0.172204
0.162852
0.150383
0.140772
0.128822
0.114015
0.098689
0.089856
0.076608
0.075828
0.079465
0.067515
0.069074
0.068294
0.069853
0.078685
0.080243
0.084919
0.083620
0.094010
0.107258
0.110115
0.111414
0.116090
0.127259
0.133234
0.143105
0.153495
0.160249
0.172458
0.192200
0.199733
0.195057
0.198434
0.202850
0.205967
0.198693
0.198693
0.197654
0.186224
0.186224
0.186483
0.191159
0.202329
0.215317
0.231942
0.251944
0.268569
0.286492
0.309612
0.335588
0.362084
0.376112
0.383385
0.395334
0.415336
0.424168
0.422609
0.422869
0.423128
0.422089
0.415595
0.410918
0.394813
0.371953
0.357665
0.347534
0.335585
0.313764
0.294541
0.280773
0.272201
0.265187
0.248821
0.237911
0.236612
0.227000
0.209336
0.196607
0.181540
0.168551
0.154004
0.137639
0.135820
0.135300
0.128546
0.121272
0.123350
0.125169
0.122051
0.126987
0.135039
0.145430
0.152443
0.158677
0.170627
0.181017
0.192447
0.195823
0.199460
0.209591
0.215305
0.222319
0.230631
0.241022
0.241281
0.247516
0.262842
0.262322
0.266478
0.275310
0.285181
0.294532
0.301026
0.313755
0.332198
0.351940
0.366227
0.390905
0.420519
0.447794
0.472731
0.497149
0.529360
0.556376
0.578976
0.603913
0.646255
0.690156
0.715353
0.747824
0.801076
0.850172
0.887838
0.932778
0.976678
1.023436
1.063700
1.103445
1.155138
1.200857
1.236965
1.260084
1.295672
1.337494
1.365549
1.376459
1.385291
1.416203
1.443998
1.455688
1.460103
1.470234
1.488158
1.497769
1.497249
1.501925
1.515173
1.522966
1.522186
1.517251
1.519328
1.527901
1.525563
1.521926
1.522705
1.521146
1.525562
1.522704
1.516469
1.528678
1.527379
1.518027
1.514910
1.513091
1.516468
1.501402
1.489192
1.475165
1.456981
1.446590
1.423990
1.396714
1.372555
1.368399
1.358268
1.331511
1.312288
1.300079
1.293585
1.278778
1.264750
1.254879
1.247345
1.246046
1.227862
1.212536
1.201885
1.187857
1.191494
1.183960
1.174349
1.170192
1.164217
1.177985
1.191493
1.200584
1.205520
1.220846
1.240068
1.251758
1.273578
1.282930
1.291502
1.296957
1.312023
1.335662
1.333064
1.340077
1.352286
1.370729
1.389692
1.400083
1.415409
1.425020
1.439047
1.443204
1.441645
1.432293
1.421642
1.415148
1.394886
1.385014
1.363713
1.341113
1.336437
1.321111
1.306563
1.288899
1.278508
1.281106
1.281105
1.279027
1.276949
1.279546
1.288898
1.305003
1.315913
1.319809
1.325264
1.342149
1.360852
1.368385
1.381633
1.392803
1.399816
1.413844
1.421896
1.423195
1.418259
1.416700
1.416181
1.405270
1.394100
1.374877
1.360070
1.349419
1.328897
1.306817
1.276424
1.253564
1.236679
1.206026
1.176153
1.148357
1.118224
1.094065
1.074583
1.053022
1.023408
1.000288
0.992495
0.986780
0.979247
0.961322
0.952490
0.962361
0.963920
0.967037
0.971193
0.975349
0.984700
0.994831
1.019249
1.030159
1.033536
1.050680
1.063928
1.076397
1.083151
1.082371
1.085748
1.095359
1.096658
1.094320
1.098995
1.102632
1.119257
1.138220
1.144973
1.155624
1.175626
1.201862
1.220825
1.231475
1.240047
1.245502
1.253555
1.260828
1.259529
1.241085
1.216927
1.210432
1.204457
1.186014
1.164972
1.140814
1.122630
1.100030
1.083145
1.071974
1.044699
1.031970
1.023917
1.009370
1.000277
0.990926
0.988588
0.984431
0.973001
0.965468
0.960532
0.961051
0.960791
0.950920
0.941048
0.930138
0.922345
0.912214
0.893770
0.873248
0.849869
0.825970
0.803630
0.788823
0.766742
0.732972
0.708294
0.688292
0.667250
0.652703
0.631142
0.594515
0.571915
0.563082
0.542820
0.515804
0.493464
0.471903
0.457096
0.442549
0.422027
0.415273
0.401765
0.385399
0.377086
0.362020
0.355785
0.345134
0.326950
0.308766
0.284608
0.264605
0.250058
0.236550
0.212911
0.183557
0.156801
0.137318
0.121732
0.100430
0.072116
0.037566
0.010810
-0.012829
-0.032572
-0.050756
-0.080369
-0.096735
-0.104268
-0.112321
-0.113361
-0.114920
-0.109465
-0.094658
-0.078293
-0.067902
-0.053875
-0.041926
-0.024522
0.011586
0.032107
0.052889
0.077047
0.100426
0.139650
0.172121
0.200695
0.224854
0.253168
0.290315
0.314473
0.338631
0.362789
0.382532
0.411885
0.436303
0.450590
0.466696
0.484879
0.509037
0.533975
0.553457
0.565926
0.580213
0.594500
0.612164
0.635803
0.645154
0.649830
0.657623
0.661259
0.663857
0.659700
0.650608
0.645153
0.630606
0.609564
0.588003
0.564884
0.546960
0.530074
0.515527
0.494486
0.473704
0.460456
0.454741
0.457858
0.454221
0.448765
0.449804
0.459675
0.463831
0.465909
0.470325
0.464091
0.462792
0.463311
0.465129
0.467986
0.464349
0.464089
0.464349
0.470323
0.476038
0.479415
0.482272
0.483051
0.485129
0.484350
0.480453
0.473439
0.473958
0.464607
0.445124
0.434213
0.423822
0.412652
0.394208
0.374726
0.353165
0.328487
0.309264
0.291339
0.264583
0.228215
0.202758
0.172884
0.141192
0.111838
0.071055
0.038324
0.005593
-0.020124
-0.043504
-0.078573
-0.104030
-0.126111
-0.145593
-0.166635
-0.182481
-0.192872
-0.210536
-0.220927
-0.232357
-0.247424
-0.260672
-0.275219
-0.287169
-0.304573
-0.325095
-0.347436
-0.366659
-0.377050
-0.385362
-0.400429
-0.420172
-0.437576
-0.448487
-0.459657
-0.484075
-0.512910
-0.534990
-0.554993
-0.580190
-0.606167
-0.633443
-0.650588
-0.661498
-0.674487
-0.679942
-0.693970
-0.706439
-0.718129
-0.724883
-0.720727
-0.730079
-0.744626
-0.756056
-0.762810
-0.776578
-0.789047
-0.796580
-0.810348
-0.823337
-0.844119
-0.854510
-0.859445
-0.869057
-0.877629
-0.894515
-0.903087
-0.904126
-0.909322
-0.918934
-0.923090
-0.917895
-0.917116
-0.918155
-0.909063
-0.899712
-0.899712
-0.900751
-0.898673
-0.890101
-0.888543
-0.892180
-0.897635
-0.912962
-0.926210
-0.941277
-0.960760
-0.981022
-1.003102
-1.025702
-1.047263
-1.068564
-1.086229
-1.102594
-1.121038
-1.137144
-1.147795
-1.155588
-1.162342
-1.160524
-1.161823
-1.167798
-1.172474
-1.177929
-1.175331
-1.174293
-1.174553
-1.177410
-1.183125
-1.186503
-1.192477
-1.197933
-1.207025
-1.214818
-1.220533
-1.228846
-1.232483
-1.233522
-1.243653
-1.258980
-1.265474
-1.271189
-1.279502
-1.292231
-1.312233
-1.325222
-1.336392
-1.351719
-1.366785
-1.381332
-1.402114
-1.422116
-1.434585
-1.451211
-1.466537
-1.480305
-1.491735
-1.497450
-1.502126
-1.507841
-1.514855
-1.515375
-1.517453
-1.526026
-1.528624
-1.529403
-1.532261
-1.530443
-1.532521
-1.535639
-1.529664
-1.524988
-1.521871
-1.516936
-1.512001
-1.508104
-1.496935
-1.480829
-1.469400
-1.461347
-1.452515
-1.440046
-1.421343
-1.402380
-1.387314
-1.368351
-1.348869
-1.331205
-1.306787
-1.279252
-1.254834
-1.226000
-1.197945
-1.171189
-1.141056
-1.117937
-1.091701
-1.068841
-1.047281
-1.027538
-1.018187
-0.999484
-0.977144
-0.957921
-0.947011
-0.932205
-0.910904
-0.893760
-0.873758
-0.854275
-0.829078
-0.808037
-0.795309
-0.769852
-0.739719
-0.728289
-0.720496
-0.705949
-0.695819
-0.688286
-0.689325
-0.684389
-0.678415
-0.680234
-0.674779
-0.672181
-0.673480
-0.675039
-0.675039
-0.673481
-0.671663
-0.665169
-0.663610
-0.661792
-0.657376
-0.651142
-0.636076
-0.627763
-0.618412
-0.595552
-0.579187
-0.566459
-0.553471
-0.532430
-0.499959
-0.481515
-0.467488
-0.448525
-0.424887
-0.398391
-0.376830
-0.350334
-0.324877
-0.306434
-0.289289
-0.268508
-0.241232
-0.220711
-0.205385
-0.187721
-0.172135
-0.159147
-0.149535
-0.142522
-0.137327
-0.130053
-0.120182
-0.117845
-0.118105
-0.113949
-0.109533
-0.108494
-0.102260
-0.092908
-0.092649
-0.092389
-0.089012
-0.088233
-0.090312
-0.088234
-0.079402
-0.075505
-0.072908
-0.065635
-0.051348
-0.036541
-0.028748
-0.017838
-0.005889
0.001904
0.008917
0.020607
0.032296
0.040089
0.050479
0.060091
0.075936
0.088665
0.093600
0.107887
0.123733
0.144254
0.160360
0.165815
0.175945
0.186336
0.199064
0.204519
0.202441
0.203740
0.202700
0.200362
0.193348
0.182178
0.171008
0.160617
0.149706
0.140095
0.129444
0.120352
0.113338
0.110221
0.108402
0.096712
0.092556
0.090997
0.096712
0.110739
0.116973
0.134637
0.153081
0.175940
0.203475
0.219840
0.242180
0.262961
0.276209
0.293354
0.312836
0.326084
0.332318
0.337773
0.345826
0.352840
0.350242
0.345825
0.348423
0.348423
0.339850
0.330758
0.320887
0.316211
0.308158
0.293091
0.282700
0.272049
0.264256
0.254385
0.247631
0.240097
0.228148
0.218796
0.206586
0.203469
0.196715
0.187363
0.188142
0.187882
0.192558
0.193077
0.188921
0.191778
0.195674
0.197233
0.198791
0.200869
0.198011
0.191257
0.188919
0.187620
0.182684
0.175670
0.175930
0.177228
0.171254
0.170474
0.170214
0.167616
0.163460
0.154368
0.148133
0.143717
0.138521
0.138261
0.134884
0.120337
0.107348
0.101373
0.092541
0.079293
0.069941
0.056693
0.039807
0.028637
0.012791
-0.004354
-0.024356
-0.044878
-0.059425
-0.073193
-0.089299
-0.101508
-0.112678
-0.127485
-0.130343
-0.132162
-0.138656
-0.135019
-0.132422
-0.130344
-0.129825
-0.133981
-0.130864
-0.121772
-0.119435
-0.123591
-0.124890
-0.126709
-0.129047
-0.126969
-0.126969
-0.130087
-0.138140
-0.146452
-0.151648
-0.150869
-0.154766
-0.168533
-0.175547
-0.177366
-0.184120
-0.196070
-0.202824
-0.210097
-0.214254
-0.213215
-0.219709
-0.218930
-0.218671
-0.220230
-0.211138
-0.207501
-0.206203
-0.195812
-0.183344
-0.168797
-0.154770
-0.138924
-0.126715
-0.115285
-0.092686
-0.080737
-0.071385
-0.057098
-0.041772
-0.021251
-0.003067
0.017195
0.034859
0.053562
0.071745
0.087851
0.106294
0.116425
0.125257
0.135647
0.147337
0.153051
0.150194
0.152272
0.153830
0.151492
0.147076
0.142919
0.140581
0.135126
0.134346
0.135905
0.132008
0.133307
0.141359
0.143697
0.151749
0.160841
0.160581
0.167075
0.176167
0.176426
0.171231
0.172270
0.177205
0.174867
0.172269
0.164216
0.153046
0.148630
0.144733
0.144213
0.139277
0.133043
0.135900
0.138757
0.149148
0.157200
0.159019
0.169149
0.176942
0.187333
0.192268
0.192528
0.200061
0.205256
0.210711
0.212269
0.210710
0.213568
0.219282
0.223958
0.227595
0.236686
0.246038
0.257727
0.282405
0.304745
0.322928
0.346307
0.372543
0.401118
0.419821
0.432549
0.448914
0.468137
0.489957
0.505024
0.518012
0.532039
0.545807
0.561133
0.573601
0.583992
0.592045
0.595941
0.606851
0.620359
0.628411
0.637763
0.642958
0.652829
0.666856
0.672571
0.679325
0.686078
0.696469
0.707379
0.715172
0.723484
0.727380
0.733355
0.735173
0.733355
0.727120
0.719327
0.721145
0.716729
0.711273
0.701402
0.689452
0.689712
0.685036
0.679321
0.673346
0.667631
0.666851
0.666332
0.671007
0.667370
0.663993
0.666850
0.668669
0.678539
0.678799
0.680877
0.688150
0.691008
0.700359
0.702956
0.704775
0.711269
0.717243
0.724257
0.730751
0.738284
0.744778
0.754649
0.765299
0.774910
0.784002
0.794133
0.806861
0.821148
0.836474
0.848164
0.860892
0.879335
0.896740
0.910507
0.923755
0.941679
0.960901
0.981942
1.003503
1.018050
1.032856
1.048182
1.060132
1.072340
1.081432
1.091563
1.101953
1.115461
1.131307
1.141178
1.153127
1.165336
1.182740
1.201963
1.214951
1.230017
1.245863
1.267943
1.290283
1.303791
1.315740
1.336001
1.356003
1.370031
1.385616
1.393149
1.395487
1.401981
1.407696
1.407176
1.399902
1.391330
1.382757
1.369509
1.356520
1.341713
1.321971
1.308203
1.296253
1.283005
1.267419
1.252092
1.243520
1.235467
1.224556
1.212867
1.202216
1.191046
1.180655
1.170783
1.154158
1.141689
1.133636
1.119608
1.105061
1.088436
1.072849
1.059601
1.045314
1.037780
1.025051
1.007906
0.997516
0.990502
0.983488
0.969720
0.956212
0.944782
0.931533
0.919064
0.902699
0.884255
0.867110
0.849965
0.835418
0.819052
0.796452
0.771774
0.747616
0.727613
0.705013
0.679036
0.654358
0.628641
0.607340
0.583701
0.555126
0.533305
0.513822
0.492002
0.471999
0.451478
0.432255
0.416928
0.400043
0.388353
0.378482
0.364454
0.354583
0.347309
0.344192
0.340555
0.327306
0.319773
0.318214
0.312239
0.304186
0.292496
0.278729
0.260804
0.242880
0.223917
0.201057
0.179496
0.158715
0.142089
0.122347
0.104942
0.090655
0.077406
0.072211
0.064158
0.054026
0.048571
0.047272
0.046752
0.037660
0.027010
0.020255
0.014800
0.006228
-0.008320
-0.024425
-0.041830
