EVENT_NAME: 202302060117
EVENT_ID: 13194
EVENT_DATE_YYYYMMDD: 2023/02/06
EVENT_TIME_HHMMSS: 01:17:32.00000
EVENT_LATITUDE_DEGREE: 37.288
EVENT_LONGITUDE_DEGREE: 37.043
EVENT_DEPTH_KM: 8.6
HYPOCENTER_REFERENCE: AFAD
MAGNITUDE_W: 7.7
MAGNITUDE_W_REFERENCE: AFAD
MAGNITUDE_L: 
MAGNITUDE_L_REFERENCE: 
FOCAL_MECHANISM: 
NETWORK: TK
STATION_CODE: 0719
STATION_NAME: 
STATION_LATITUDE_DEGREE: 36.316832
STATION_LONGITUDE_DEGREE: 32.38749
STATION_ELEVATION_M: 197.0
LOCATION: Kahramanmaras_Pazarck_Turkiye
SENSOR_DEPTH_M: 
VS30_M/S: None
SITE_CLASSIFICATION_EC8: unknown
MORPHOLOGIC_CLASSIFICATION: 
EPICENTRAL_DISTANCE_KM: 428.28
EARTHQUAKE_BACKAZIMUTH_DEGREE: 
DATE_TIME_FIRST_SAMPLE_YYYYMMDD_HHMMSS: 2023/02/06 01:18:06.4563820
DATE_TIME_FIRST_SAMPLE_PRECISION: millisecond
SAMPLING_INTERVAL_S: 0.01
NDATA: 21001
DURATION_S: 
STREAM: HNN
UNITS: cm/s^2
INSTRUMENT: sensor = ACEBOX/SARA | digitizer = 
INSTRUMENT_ANALOG/DIGITAL: 
INSTRUMENTAL_FREQUENCY_HZ: 
INSTRUMENTAL_DAMPING: 
FULL_SCALE_G: 
N_BIT_DIGITAL_CONVERTER: 
PGA_CM/S^2: 2.947
TIME_PGA_S: 
BASELINE_CORRECTION: BASELINE REMOVED
FILTER_TYPE: BUTTERWORTH
FILTER_ORDER: 
LOW_CUT_FREQUENCY_HZ: 
HIGH_CUT_FREQUENCY_HZ: 
LATE/NORMAL_TRIGGERED: 
DATABASE_VERSION: 
HEADER_FORMAT: DYNA 1.2
DATA_TYPE: Acceleration
PROCESSING: Automatic Paolucci et al., 2011
DATA_TIMESTAMP_YYYYMMDD_HHMMSS: 
DATA_LICENSE: U (unknown license)
DATA_CITATION: Turkish Accelerometric Archive v 1.0 - Disaster And Emergency Management Presidency, Earthquake Department
DATA_CREATOR: AFAD
ORIGINAL_DATA_MEDIATOR_CITATION: : AFAD - Disaster And Emergency Management Presidency
ORIGINAL_DATA_MEDIATOR: AFAD PROCESS SERVICE
ORIGINAL_DATA_CREATOR_CITATION: AFAD PROCESS SERVICE
ORIGINAL_DATA_CREATOR: network: TK
USER1: GuestUser
USER2: 
USER3: 
USER4: 
USER5: 
[...]
-0.185698
-0.154604
-0.013158
0.206845
0.401129
0.496050
0.430352
0.232091
-0.031166
-0.344221
-0.679020
-0.967761
-1.172334
-1.314250
-1.389767
-1.385794
-1.312383
-1.177716
-1.024346
-0.832166
-0.574522
-0.317814
-0.070925
0.171054
0.358559
0.500707
0.651271
0.816331
0.997757
1.171467
1.260777
1.331383
1.454125
1.552787
1.600247
1.531743
1.340496
1.151587
0.985122
0.889498
0.873833
0.889730
1.010368
1.151581
1.244865
1.384441
1.481934
1.521444
1.608182
1.701466
1.794283
1.868396
1.857640
1.813451
1.788668
1.770665
1.736296
1.653297
1.513251
1.337902
1.180088
1.097790
1.062486
1.065524
1.169330
1.308204
1.410139
1.479108
1.464612
1.419722
1.379975
1.292066
1.232447
1.169321
0.991400
0.770227
0.582487
0.443143
0.339803
0.255869
0.207706
0.147152
0.046618
-0.094363
-0.354814
-0.691015
-0.984666
-1.248156
-1.417894
-1.415323
-1.323208
-1.173111
-0.934873
-0.644264
-0.356226
-0.099518
0.085415
0.149240
0.148304
0.132405
0.093828
0.104348
0.196930
0.375083
0.641143
0.876108
1.014749
1.097513
1.145674
1.141698
1.050984
0.907432
0.749150
0.547382
0.339535
0.208842
0.174239
0.207904
0.253962
0.271729
0.249050
0.177273
0.067387
-0.058163
-0.155657
-0.180207
-0.121992
-0.037358
-0.016318
-0.025437
-0.022398
-0.004631
0.074626
0.141724
0.165571
0.177026
0.156217
0.194091
0.287142
0.421574
0.586868
0.613286
0.534963
0.374343
0.116698
-0.042052
-0.106814
-0.102607
-0.021714
0.003769
0.027849
0.055436
0.024106
0.005402
-0.013303
-0.004420
0.054028
0.138896
0.285252
0.425296
0.562767
0.685978
0.651375
0.579598
0.558088
0.469244
0.379231
0.313767
0.239184
0.202243
0.140988
0.066172
0.062196
0.105448
0.217436
0.365662
0.472740
0.571636
0.635695
0.650189
0.695545
0.761007
0.800051
0.814779
0.790931
0.733649
0.670757
0.593369
0.491666
0.371961
0.248048
0.190299
0.196143
0.223028
0.332912
0.477866
0.570448
0.665603
0.788579
0.923947
1.051132
1.129453
1.146753
1.146518
1.199355
1.263415
1.315784
1.370726
1.344540
1.275335
1.210338
1.115883
1.058836
0.974200
0.832752
0.756299
0.680314
0.634489
0.686391
0.701119
0.760503
0.924160
1.041993
1.151409
1.268540
1.311090
1.302673
1.245158
1.139714
1.030997
0.906382
0.716304
0.468011
0.220886
-0.020861
-0.252555
-0.432580
-0.540829
-0.539895
-0.421127
-0.210944
0.110760
0.492316
0.838335
1.185757
1.527801
1.775625
1.962195
2.066701
2.028124
1.913094
1.752708
1.526392
1.249575
0.965510
0.707631
0.448583
0.191405
-0.033743
-0.217743
-0.340253
-0.414368
-0.421617
-0.321786
-0.161402
0.004125
0.122192
0.179705
0.225061
0.221787
0.138086
0.022590
-0.134991
-0.314548
-0.483584
-0.694237
-0.908630
-1.041895
-1.093565
-1.059432
-0.947678
-0.776539
-0.573604
-0.402933
-0.276216
-0.226652
-0.246525
-0.234369
-0.239513
-0.315732
-0.402004
-0.506045
-0.585303
-0.612191
-0.643755
-0.636040
-0.580865
-0.504414
-0.368579
-0.189258
0.022094
0.259397
0.475425
0.677425
0.862124
1.000063
1.101530
1.149224
1.115089
1.006372
0.870067
0.767663
0.706407
0.678584
0.664322
0.608911
0.487569
0.274345
-0.002238
-0.241647
-0.384732
-0.424712
-0.398996
-0.351068
-0.270175
-0.113065
0.110445
0.322732
0.513743
0.693766
0.837784
0.951876
1.007987
0.986009
0.910491
0.792890
0.617308
0.371118
0.137086
-0.048784
-0.246343
-0.443202
-0.648944
-0.885782
-1.081939
-1.198137
-1.193929
-1.033545
-0.801386
-0.541170
-0.261082
-0.028922
0.189911
0.422772
0.619395
0.775570
0.848280
0.804091
0.634120
0.332520
0.054768
-0.049974
0.018060
0.212345
0.445907
0.678535
0.939451
1.179327
1.324046
1.363557
1.311185
1.212756
1.132562
1.084399
1.057745
1.062186
1.130922
1.274940
1.444442
1.608567
1.755157
1.832543
1.841894
1.823656
1.759595
1.682675
1.669347
1.714703
1.779932
1.844459
1.922078
2.007413
2.021207
1.918802
1.714930
1.435074
1.106588
0.793532
0.543602
0.350017
0.290164
0.352353
0.424829
0.552715
0.690655
0.774353
0.907383
1.083899
1.258778
1.411447
1.499588
1.528344
1.494676
1.454696
1.452123
1.411441
1.315116
1.170161
0.954599
0.686666
0.358180
-0.031561
-0.416392
-0.753997
-1.032450
-1.230244
-1.352521
-1.416816
-1.427571
-1.425702
-1.458435
-1.556864
-1.744137
-1.981676
-2.235814
-2.473353
-2.615035
-2.663900
-2.638885
-2.539288
-2.400179
-2.201453
-1.950823
-1.684997
-1.401401
-1.140251
-0.941758
-0.835147
-0.801248
-0.784883
-0.771557
-0.674299
-0.474403
-0.264454
-0.028553
0.228155
0.462419
0.688968
0.843740
0.843038
0.713046
0.495847
0.199859
-0.105248
-0.342085
-0.553906
-0.774612
-0.947389
-1.039039
-1.002100
-0.784669
-0.448002
-0.088657
0.238425
0.529735
0.825955
1.098328
1.295185
1.414888
1.439669
1.394779
1.354098
1.348486
1.376307
1.406465
1.406698
1.391968
1.386356
1.410670
1.459766
1.508162
1.583443
1.669947
1.690754
1.644462
1.555851
1.445498
1.363668
1.362732
1.451574
1.579694
1.729089
1.863288
1.895084
1.810916
1.626916
1.377220
1.140616
0.936744
0.729832
0.476161
0.150948
-0.223128
-0.578735
-0.856955
-1.034174
-1.068777
-0.947905
-0.732812
-0.463245
-0.148321
0.175721
0.460953
0.657809
0.739404
0.722803
0.633959
0.533659
0.481521
0.445983
0.390105
0.320198
0.226211
0.112117
0.006206
-0.094796
-0.209591
-0.314099
-0.390786
-0.466303
-0.542288
-0.624820
-0.729562
-0.804846
-0.792455
-0.700574
-0.576195
-0.461167
-0.367182
-0.320423
-0.353857
-0.435687
-0.525934
-0.603789
-0.661772
-0.740563
-0.833615
-0.896741
-0.897444
-0.807199
-0.674637
-0.541373
-0.402499
-0.302902
-0.267833
-0.327219
-0.512855
-0.746185
-0.937900
-1.034226
-1.002430
-0.870803
-0.648229
-0.363465
-0.106990
0.094776
0.224298
0.239728
0.149014
-0.023997
-0.213841
-0.352484
-0.416779
-0.390595
-0.314378
-0.224601
-0.088532
0.068111
0.199037
0.315233
0.437508
0.576383
0.713387
0.807606
0.834726
0.819762
0.786094
0.692107
0.517459
0.281791
-0.020978
-0.378922
-0.746453
-1.049455
-1.231350
-1.291671
-1.209609
-0.980021
-0.680294
-0.373787
-0.096036
0.123498
0.290195
0.384414
0.370385
0.274528
0.139626
0.000048
-0.122697
-0.239597
-0.342702
-0.428507
-0.514545
-0.582347
-0.632381
-0.673530
-0.686857
-0.691300
-0.716785
-0.772430
-0.845610
-0.907567
-0.924401
-0.854263
-0.693645
-0.468032
-0.183735
0.138670
0.480715
0.824863
1.104250
1.266972
1.330564
1.317003
1.234471
1.131132
1.060524
1.030130
1.045092
1.096526
1.158949
1.237036
1.331957
1.441139
1.575104
1.701822
1.775934
1.784350
1.721458
1.623028
1.524598
1.378942
1.157535
0.918125
0.727346
0.652530
0.743476
0.979376
1.300847
1.616005
1.802574
1.789013
1.582802
1.267175
0.952951
0.695773
0.499148
0.367987
0.305328
0.273063
0.241500
0.200351
0.101453
-0.047009
-0.171390
-0.229373
-0.206929
-0.138895
-0.091435
-0.089098
-0.127208
-0.193841
-0.284555
-0.413145
-0.568621
-0.701653
-0.751219
-0.689731
-0.580782
-0.505968
-0.464821
-0.452431
-0.512284
-0.672903
-0.925873
-1.192636
-1.366583
-1.422227
-1.391601
-1.302759
-1.177678
-1.016125
-0.833063
-0.678524
-0.582200
-0.556484
-0.595295
-0.628963
-0.578931
-0.457124
-0.335082
-0.250683
-0.221927
-0.256997
-0.325267
-0.375067
-0.381146
-0.356599
-0.337896
-0.348184
-0.373669
-0.393309
-0.404064
-0.417392
-0.471633
-0.577545
-0.693977
-0.793341
-0.825373
-0.726945
-0.522841
-0.272211
0.002266
0.285627
0.549350
0.743167
0.829437
0.788521
0.581610
0.211508
-0.221018
-0.608187
-0.867236
-0.968705
-0.989981
-1.002373
-1.028793
-1.072281
-1.104779
-1.122081
-1.108990
-1.043527
-0.974324
-0.919617
-0.876365
-0.867482
-0.891096
-0.979707
-1.143833
-1.335548
-1.520950
-1.618211
-1.575193
-1.483078
-1.411771
-1.334385
-1.204161
-1.022735
-0.843647
-0.738439
-0.771406
-0.924310
-1.158810
-1.494310
-1.842902
-2.081610
-2.197341
-2.180976
-2.073664
-1.942505
-1.760378
-1.511852
-1.242285
-1.022049
-0.901410
-0.878032
-0.959394
-1.113467
-1.235510
-1.267542
-1.208158
-1.094767
-0.995872
-0.937190
-0.896978
-0.838062
-0.729347
-0.596551
-0.473341
-0.362522
-0.281863
-0.222012
-0.156783
-0.124754
-0.130600
-0.126392
-0.139252
-0.206353
-0.288183
-0.362298
-0.418878
-0.386615
-0.205656
0.090330
0.419983
0.716437
0.921710
1.011487
1.022942
0.956777
0.806210
0.650501
0.518638
0.396829
0.301438
0.215166
0.152040
0.139414
0.150168
0.194354
0.282729
0.380455
0.466725
0.536162
0.559775
0.531718
0.508337
0.515584
0.549718
0.652354
0.819752
1.010997
1.204580
1.354443
1.451468
1.510150
1.508746
1.467129
1.416395
1.343683
1.245721
1.104039
0.909518
0.695827
0.455014
0.167443
-0.158238
-0.522261
-0.870620
-1.121252
-1.271117
-1.349206
-1.377964
-1.382407
-1.412568
-1.518479
-1.663200
-1.785711
-1.871516
-1.923186
-1.974388
-2.019045
-1.981638
-1.832944
-1.609201
-1.361610
-1.122203
-0.901967
-0.707916
-0.537245
-0.427128
-0.399540
-0.372187
-0.301581
-0.201985
-0.056330
0.098677
0.235213
0.393259
0.548734
0.660955
0.716131
0.690646
0.606478
0.488175
0.364028
0.295057
0.273547
0.263259
0.252035
0.227486
0.193584
0.115027
-0.028993
-0.193119
-0.337140
-0.442583
-0.567198
-0.756808
-0.937301
-1.074541
-1.153799
-1.140240
-1.073842
-0.993417
-0.937073
-0.944555
-0.988043
-1.036440
-1.068237
-1.075018
-1.077123
-1.076890
-1.061694
-1.029665
-0.981270
-0.911132
-0.849410
-0.849411
-0.910901
-1.009331
-1.095135
-1.129972
-1.142364
-1.136754
-1.124597
-1.146809
-1.135120
-1.009104
-0.779984
-0.496389
-0.258618
-0.107118
-0.010327
0.008375
-0.025058
-0.044932
-0.096836
-0.236648
-0.410594
-0.534975
-0.619611
-0.721080
-0.811794
-0.851540
-0.913965
-1.019175
-1.041153
-0.957221
-0.856455
-0.781641
-0.674329
-0.497345
-0.417154
-0.437027
-0.401725
-0.425573
-0.544811
-0.638565
-0.701223
-0.745412
-0.769961
-0.699823
-0.507643
-0.302837
-0.143389
0.036401
0.320697
0.554961
0.648011
0.784080
0.918747
0.952412
0.970648
0.972985
0.949838
0.851408
0.653381
0.539287
0.535779
0.461664
0.364871
0.380301
0.439451
0.543022
0.766064
0.998691
1.142241
1.177310
1.124939
1.104363
1.102025
1.028611
0.975071
1.006165
1.015048
0.958001
0.871728
0.688197
0.398053
0.146487
0.010182
-0.034007
-0.021383
0.069096
0.234156
0.363211
0.414411
0.411137
0.396641
0.422124
0.469350
0.563569
0.717641
0.855346
0.955177
1.026484
1.020638
0.901634
0.736806
0.617569
0.532232
0.419774
0.308252
0.266869
0.259620
0.225485
0.168905
0.103207
0.038211
-0.023513
-0.068403
-0.107916
-0.189044
-0.301268
-0.385670
-0.391048
-0.339613
-0.294959
-0.270178
-0.295662
-0.395495
-0.523850
-0.646127
-0.752974
-0.816334
-0.816568
-0.773317
-0.737079
-0.742224
-0.743394
-0.702714
-0.678166
-0.701547
-0.721654
-0.713940
-0.741295
-0.822658
-0.875029
-0.910100
-0.984682
-1.015077
-0.953823
-0.832717
-0.615754
-0.356240
-0.132731
0.115795
0.334161
0.438901
0.472099
0.364084
0.121869
-0.089719
-0.255482
-0.388046
-0.447899
-0.488581
-0.536042
-0.572516
-0.641019
-0.722849
-0.766570
-0.831801
-0.935608
-1.023283
-1.144157
-1.279760
-1.302206
-1.250771
-1.174554
-1.040823
-0.941694
-0.854956
-0.657398
-0.444176
-0.311848
-0.266259
-0.340139
-0.486264
-0.623504
-0.714686
-0.693411
-0.543782
-0.366097
-0.233301
-0.191452
-0.283335
-0.440448
-0.643385
-0.910616
-1.192810
-1.484123
-1.725870
-1.842770
-1.830379
-1.675607
-1.466125
-1.252669
-1.032667
-0.917640
-0.916472
-0.978429
-1.086678
-1.152376
-1.162664
-1.155417
-1.144897
-1.157290
-1.174358
-1.183711
-1.187219
-1.181375
-1.168049
-1.147008
-1.146074
-1.139529
-1.096511
-1.065651
-1.063314
-1.105164
-1.202659
-1.298049
-1.369826
-1.430614
-1.461242
-1.449787
-1.400457
-1.294548
-1.093951
-0.791184
-0.428332
-0.044438
0.329403
0.630767
0.842119
0.986605
1.033597
0.996188
0.937738
0.874378
0.824578
0.816161
0.847488
0.897988
0.961112
1.033121
1.063046
1.023767
0.970928
0.959471
0.980278
1.013710
1.046908
1.050882
1.011836
0.922525
0.792065
0.655527
0.498414
0.293606
0.104230
0.005333
-0.033479
-0.021556
0.050686
0.072429
0.052321
0.078973
0.062840
0.010702
-0.004028
-0.048684
-0.092873
-0.072066
-0.040037
-0.001929
0.053247
0.060260
-0.011751
-0.137769
-0.321534
-0.543876
-0.739098
-0.910005
-1.062208
-1.134920
-1.127205
-1.054963
-0.942741
-0.822570
-0.646756
-0.436339
-0.237379
-0.029768
0.139267
0.268088
0.380076
0.420990
0.389894
0.319753
0.229507
0.105359
-0.073029
-0.293734
-0.574058
-0.839419
-0.975022
-1.018744
-0.996768
-0.894833
-0.766245
-0.632982
-0.506499
-0.424203
-0.388433
-0.385394
-0.372770
-0.332324
-0.323675
-0.344016
-0.367631
-0.451565
-0.595117
-0.753633
-0.884794
-0.932490
-0.900227
-0.796188
-0.645389
-0.530362
-0.438948
-0.363433
-0.344029
-0.326261
-0.342628
-0.460696
-0.560996
-0.611264
-0.653816
-0.620384
-0.573391
-0.604020
-0.657560
-0.746872
-0.870084
-0.958694
-1.031874
-1.096636
-1.145267
-1.228734
-1.321552
-1.383743
-1.458793
-1.543195
-1.601411
-1.628533
-1.595568
-1.488724
-1.345641
-1.208169
-1.092207
-0.988168
-0.909379
-0.892780
-0.922707
-0.941880
-0.904707
-0.795291
-0.681900
-0.648000
-0.660159
-0.658991
-0.667175
-0.711597
-0.771216
-0.800442
-0.778700
-0.713238
-0.601717
-0.465414
-0.348283
-0.277677
-0.309241
-0.479212
-0.751821
-1.097140
-1.453916
-1.738214
-1.952374
-2.135905
-2.312657
-2.495254
-2.683228
-2.847354
-2.936432
-2.946720
-2.887570
-2.744020
-2.527758
-2.276895
-2.065777
-1.945372
-1.939762
-2.065312
-2.193434
-2.225231
-2.201619
-2.097580
-1.933689
-1.757407
-1.535300
-1.324182
-1.175722
-1.053213
-0.927431
-0.779439
-0.593804
-0.343642
-0.074543
0.192687
0.543148
0.927276
1.255059
1.512235
1.659994
1.725690
1.717506
1.650405
1.638714
1.669574
1.689212
1.718436
1.728488
1.701835
1.632162
1.490714
1.299233
1.081333
0.840988
0.588019
0.325230
0.092133
-0.046510
-0.074099
-0.021496
0.035550
0.022223
-0.049554
-0.155465
-0.299485
-0.419658
-0.480914
-0.502190
-0.438365
-0.274006
-0.034599
0.248295
0.507108
0.765920
1.047177
1.273258
1.427564
1.539084
1.636109
1.714898
1.750434
1.761421
1.716064
1.629090
1.551235
1.431530
1.292185
1.158920
1.019810
0.944994
0.932835
0.933068
0.902206
0.783202
0.568108
0.281237
0.038789
-0.110609
-0.249251
-0.368255
-0.481180
-0.610705
-0.733683
-0.884483
-0.992265
-0.977770
-0.890331
-0.722933
-0.502697
-0.300697
-0.116934
0.010251
0.036669
-0.008688
-0.109924
-0.235474
-0.324318
-0.384171
-0.413396
-0.399603
-0.411528
-0.451976
-0.475123
-0.478630
-0.403582
-0.253953
-0.089828
0.110769
0.318847
0.489284
0.619976
0.677022
0.645692
0.525052
0.350404
0.193058
0.056051
-0.055705
-0.123974
-0.162552
-0.176347
-0.181491
-0.159983
-0.093586
-0.002172
0.103036
0.182994
0.233961
0.292175
0.322802
0.331217
0.350388
0.334489
0.302925
0.311107
0.286324
0.203792
0.157967
0.149082
0.159134
0.216413
0.300112
0.405086
0.507956
0.575990
0.625554
0.643555
0.665297
0.735202
0.799261
0.821939
0.770269
0.622040
0.427286
0.216400
-0.005942
-0.206541
-0.350795
-0.444783
-0.513286
-0.551396
-0.552098
-0.523108
-0.455542
-0.337242
-0.168675
0.035196
0.238131
0.413478
0.524998
0.558430
0.575730
0.609630
0.638386
0.650542
0.612432
0.500443
0.348006
0.202349
0.098308
0.040326
-0.017891
-0.104397
-0.178044
-0.213582
-0.212414
-0.160044
-0.088971
-0.029587
0.016470
0.012261
-0.025616
-0.050867
-0.083833
-0.117968
-0.133868
-0.161690
-0.211490
-0.287475
-0.393620
-0.470540
-0.474984
-0.414665
-0.305716
-0.221550
-0.182273
-0.104420
-0.005291
0.088695
0.241130
0.414373
0.555351
0.645596
0.623385
0.530332
0.442424
0.360594
0.312664
0.295596
0.274086
0.260057
0.244392
0.223583
0.229660
0.245558
0.235270
0.194354
0.135202
0.087039
0.049631
0.003104
-0.063763
-0.176922
-0.350400
-0.590979
-0.847689
-1.035897
-1.214285
-1.438264
-1.626705
-1.742670
-1.765115
-1.658037
-1.464454
-1.211720
-0.930229
-0.712565
-0.581873
-0.510566
-0.477601
-0.449780
-0.428038
-0.417284
-0.401621
-0.366786
-0.281217
-0.140238
0.022951
0.178659
0.299999
0.343250
0.306543
0.272408
0.303970
0.425076
0.649052
0.906462
1.145870
1.345298
1.432737
1.427593
1.368675
1.262530
1.191922
1.153345
1.119443
1.124819
1.087177
0.983370
0.882369
0.756819
0.631736
0.569078
0.544995
0.532369
0.517873
0.482803
0.413130
0.327559
0.276357
0.262795
0.248767
0.233101
0.198732
0.121578
0.029695
-0.072008
-0.157813
-0.184934
-0.200833
-0.225149
-0.219773
-0.179560
-0.107318
-0.006085
0.109878
0.247817
0.430646
0.600381
0.706992
0.776663
0.796535
0.789520
0.785544
0.754214
0.701843
0.639652
0.588917
0.565536
0.546598
0.540284
0.566235
0.612526
0.632631
0.633098
0.634733
0.617431
0.629588
0.708377
0.805869
0.888866
0.954095
0.991034
1.002956
1.033583
1.031010
0.921592
0.770558
0.616719
0.467789
0.395077
0.408870
0.488126
0.610635
0.666745
0.602918
0.478771
0.317216
0.176001
0.103757
0.041566
-0.009169
-0.036057
-0.083752
-0.159737
-0.275234
-0.419488
-0.577536
-0.754288
-0.917012
-1.067344
-1.189621
-1.231472
-1.232408
-1.199911
-1.082780
-0.908602
-0.702393
-0.495484
-0.345387
-0.220540
-0.073015
0.069133
0.162183
0.219930
0.255466
0.216889
0.133656
0.054398
-0.055254
-0.148072
-0.207692
-0.267311
-0.241360
-0.155558
-0.102721
-0.037025
0.010202
-0.001489
-0.021129
-0.065084
-0.129145
-0.175672
-0.196481
-0.168192
-0.118628
-0.071402
-0.001030
0.080798
0.151404
0.200032
0.224113
0.271105
0.375611
0.514252
0.699886
0.927136
1.129370
1.325759
1.534305
1.683233
1.786103
1.894116
1.979217
2.029483
2.061512
2.073435
2.063848
2.019659
1.930815
1.791471
1.589236
1.386299
1.214924
1.059682
0.972475
0.922909
0.862822
0.815828
0.735634
0.618267
0.508615
0.403172
0.324849
0.290479
0.281594
0.289542
0.318532
0.359446
0.408309
0.458574
0.492240
0.532218
0.548583
0.516786
0.510472
0.474233
0.364113
0.293505
0.260539
0.239730
0.277371
0.332312
0.389591
0.473290
0.528465
0.541790
0.533139
0.496899
0.461829
0.436812
0.425355
0.430731
0.412494
0.391919
0.386073
0.382799
0.383733
0.335804
0.233867
0.092653
-0.064460
-0.175281
-0.311352
-0.513821
-0.711849
-0.904499
-1.080315
-1.223634
-1.359471
-1.486891
-1.548381
-1.520794
-1.455799
-1.323471
-1.154436
-1.035668
-0.882065
-0.715602
-0.615538
-0.519214
-0.468481
-0.473392
-0.443233
-0.404657
-0.383383
-0.358133
-0.308803
-0.218091
-0.143744
-0.104701
-0.078283
-0.104469
-0.185364
-0.295483
-0.422670
-0.529516
-0.611814
-0.661146
-0.675876
-0.691542
-0.693647
-0.686400
-0.695753
-0.681960
-0.638942
-0.594054
-0.525552
-0.436710
-0.371716
-0.340154
-0.320750
-0.292461
-0.252249
-0.255991
-0.331742
-0.432510
-0.559696
-0.696469
-0.774090
-0.816642
-0.846569
-0.849142
-0.852416
-0.863406
-0.892631
-0.916713
-0.880476
-0.816650
-0.738095
-0.615353
-0.501494
-0.421069
-0.350931
-0.340645
-0.394419
-0.421774
-0.423178
-0.423413
-0.407282
-0.419440
-0.466200
-0.502908
-0.507585
-0.468308
-0.415470
-0.383909
-0.369414
-0.351647
-0.332944
-0.344635
-0.403552
-0.482811
-0.506893
-0.474630
-0.453823
-0.407766
