EVENT_NAME: 202302060117
EVENT_ID: 13194
EVENT_DATE_YYYYMMDD: 2023/02/06
EVENT_TIME_HHMMSS: 01:17:32.00000
EVENT_LATITUDE_DEGREE: 37.288
EVENT_LONGITUDE_DEGREE: 37.043
EVENT_DEPTH_KM: 8.6
HYPOCENTER_REFERENCE: AFAD
MAGNITUDE_W: 7.7
MAGNITUDE_W_REFERENCE: AFAD
MAGNITUDE_L: 
MAGNITUDE_L_REFERENCE: 
FOCAL_MECHANISM: 
NETWORK: TK
STATION_CODE: 4621
STATION_NAME: 
STATION_LATITUDE_DEGREE: 37.59347
STATION_LONGITUDE_DEGREE: 36.92909
STATION_ELEVATION_M: 655.0
LOCATION: Kahramanmaras_Pazarck_Turkiye
SENSOR_DEPTH_M: 
VS30_M/S: 714
SITE_CLASSIFICATION_EC8: B
MORPHOLOGIC_CLASSIFICATION: 
EPICENTRAL_DISTANCE_KM: 35.42
EARTHQUAKE_BACKAZIMUTH_DEGREE: 
DATE_TIME_FIRST_SAMPLE_YYYYMMDD_HHMMSS: 2023/02/06 01:17:08.2811230
DATE_TIME_FIRST_SAMPLE_PRECISION: millisecond
SAMPLING_INTERVAL_S: 0.01
NDATA: 4639
DURATION_S: 
STREAM: HNE
UNITS: cm/s^2
INSTRUMENT: sensor = GMS+/GEOSIG | digitizer = 
INSTRUMENT_ANALOG/DIGITAL: 
INSTRUMENTAL_FREQUENCY_HZ: 
INSTRUMENTAL_DAMPING: 
FULL_SCALE_G: 
N_BIT_DIGITAL_CONVERTER: 
PGA_CM/S^2: 180.347
TIME_PGA_S: 
BASELINE_CORRECTION: BASELINE REMOVED
FILTER_TYPE: BUTTERWORTH
FILTER_ORDER: 
LOW_CUT_FREQUENCY_HZ: 
HIGH_CUT_FREQUENCY_HZ: 
LATE/NORMAL_TRIGGERED: 
DATABASE_VERSION: 
HEADER_FORMAT: DYNA 1.2
DATA_TYPE: Acceleration
PROCESSING: Automatic Paolucci et al., 2011
DATA_TIMESTAMP_YYYYMMDD_HHMMSS: 
DATA_LICENSE: U (unknown license)
DATA_CITATION: Turkish Accelerometric Archive v 1.0 - Disaster And Emergency Management Presidency, Earthquake Department
DATA_CREATOR: AFAD
ORIGINAL_DATA_MEDIATOR_CITATION: : AFAD - Disaster And Emergency Management Presidency
ORIGINAL_DATA_MEDIATOR: AFAD PROCESS SERVICE
ORIGINAL_DATA_CREATOR_CITATION: AFAD PROCESS SERVICE
ORIGINAL_DATA_CREATOR: network: TK
USER1: GuestUser
USER2: 
USER3: 
USER4: 
USER5: 
[...]
0.003519
0.005853
0.004810
0.007145
0.009998
0.004280
0.001938
0.006870
0.004009
0.005045
0.008938
0.005038
0.007372
0.005030
0.004507
0.006842
-0.001475
0.010211
0.009688
0.000853
0.009421
0.002664
0.003439
0.010969
0.003432
0.001350
0.004984
0.006279
0.007834
0.006272
0.002891
0.006264
0.006780
0.005218
0.008072
0.003393
0.003649
0.002866
0.005200
0.009872
0.005453
0.008047
0.004926
-0.001312
0.011413
0.011409
-0.000803
0.008805
0.005943
0.001264
0.009313
0.004894
0.002292
0.005666
0.010078
0.001502
0.004356
0.008509
0.000712
0.007982
0.006160
0.004858
0.005893
0.004331
0.005366
0.006142
0.006398
0.005356
0.008989
0.001452
0.003007
0.010017
0.004818
0.005594
0.004811
0.006626
0.002466
0.008437
0.013369
-0.001961
0.003750
0.009461
0.003743
0.003480
0.006853
0.006849
0.003988
0.006063
0.005540
0.008134
0.005273
0.001113
0.005525
0.003444
0.004999
0.007073
0.006290
0.007845
0.002127
0.004981
0.010432
0.003415
0.005229
0.006525
0.003664
0.007297
0.005215
0.006770
0.007026
0.000528
0.003642
0.008314
0.005713
0.005709
0.007264
0.004403
0.004660
0.007254
0.004393
0.005948
0.006204
0.003343
0.006976
0.004375
0.003072
0.006705
0.006182
0.006438
0.003317
0.003054
0.004609
0.010320
0.005901
0.000442
0.006413
0.004331
0.008744
0.006922
0.004840
0.006395
0.000677
0.004310
0.003267
0.002224
0.009754
0.007153
0.002473
0.007665
0.006363
0.002463
0.006615
0.001416
0.004010
0.009202
0.008419
0.007636
-0.002498
0.005811
0.007366
-0.004068
0.011515
0.008654
0.000857
0.010205
-0.002527
-0.000712
0.012532
0.002398
0.002134
0.007326
0.003686
0.007319
0.006016
0.002376
0.006789
-0.000489
0.001846
0.013012
0.004956
0.004173
0.002351
0.000269
0.006760
0.003899
0.007792
0.006229
-0.001827
0.003625
0.009596
0.006475
0.001536
0.001012
0.003087
0.003083
0.005418
0.009311
0.003073
0.003848
0.010599
-0.001094
-0.001358
0.009029
0.007207
0.005905
0.001485
0.002001
0.004855
-0.000084
0.003809
0.007961
0.007178
0.006915
0.000937
0.005090
0.005605
0.000407
0.009495
0.007413
0.000655
0.005587
0.008182
0.004541
-0.001697
0.002975
0.007648
0.001150
0.005562
0.007117
0.001399
0.007630
0.001651
-0.000950
0.010996
0.006057
0.005014
0.010725
0.000591
-0.002790
0.004999
0.005256
0.004213
0.008366
0.006024
0.000825
0.004718
0.007052
0.004971
0.004967
0.004963
0.000804
0.004956
0.008330
-0.000506
0.004945
0.009358
-0.000257
0.001038
0.010646
0.007525
0.001287
0.004661
0.003098
0.003874
0.008806
0.003867
0.002564
0.003860
0.002817
0.005931
0.004368
0.002806
0.005660
0.007735
0.003834
0.001753
0.007983
0.002005
-0.000596
0.008492
0.006670
0.000692
0.002247
0.007958
0.007175
0.000678
0.000934
0.007165
0.007680
0.006118
0.002997
0.001435
0.006887
0.006623
0.005581
0.003499
0.000378
0.007908
0.007385
0.002965
0.006598
0.000360
-0.001202
0.011523
0.011260
0.004762
0.001641
0.001897
0.006310
0.006826
0.006822
0.005520
0.002658
0.000577
0.008106
0.011740
0.000306
0.001861
0.006793
0.005231
0.007046
0.006782
0.005220
-0.002577
0.001836
0.015340
0.008063
0.002345
0.001302
-0.002598
0.005191
0.010643
0.006223
0.000505
-0.001058
0.002835
0.011664
0.016076
0.004643
-0.003933
0.001778
0.005152
0.007746
0.011639
0.002283
-0.003955
0.003315
0.003052
0.010062
0.010578
-0.001375
0.003817
0.003553
0.000173
0.009261
0.006920
-0.001656
0.002237
0.006909
0.002229
0.004304
0.011054
0.002478
0.000916
0.006108
0.001429
0.005321
0.008695
0.005574
0.004531
0.002969
-0.001191
0.004001
0.010751
-0.000422
0.001912
0.007364
-0.001472
0.007097
0.009950
-0.000444
0.000592
0.004225
0.007858
0.004477
0.000577
0.003431
0.004467
0.005502
0.003420
0.006534
0.006790
-0.001526
0.000808
0.007299
0.007555
0.003655
0.002352
0.002868
0.000267
0.003121
0.008832
0.005192
0.001551
0.003626
0.003363
0.003879
0.005174
0.005170
0.005167
0.004124
0.003341
0.003597
0.001775
0.003850
0.006704
0.003583
0.004358
0.004615
0.001234
0.003568
0.007721
0.005380
0.001479
0.003814
0.006668
0.001728
-0.000353
0.003540
0.006393
0.005091
0.005867
0.004045
0.001443
0.004557
0.001436
0.004810
0.005066
0.004283
0.005578
0.000639
0.006870
0.004268
0.004005
0.003482
0.000621
0.009449
0.003471
0.001130
0.006062
0.003460
0.002418
0.003453
0.002410
0.003186
0.007599
0.003699
0.005254
0.002133
-0.004625
0.008620
0.008356
-0.002298
0.003933
0.008086
0.001848
0.000026
0.007036
0.004954
0.002353
0.004427
0.000527
0.004940
0.005975
0.000776
0.001812
0.002847
0.006221
0.002840
0.001538
0.007509
0.004388
0.003345
0.002822
0.002559
0.006452
-0.000046
0.001768
0.005142
0.002541
0.004615
0.002793
0.002790
0.001747
0.003042
0.004337
0.002515
0.005369
0.004586
0.001985
0.001462
0.000419
0.003533
0.007686
0.004824
0.004042
0.006636
-0.001940
-0.002463
0.006105
0.000387
0.000643
0.007653
0.007650
0.006607
0.006343
0.004262
-0.001457
0.001657
0.005290
0.007105
0.013595
0.006578
0.008393
0.016442
0.012542
0.012798
0.011236
0.011232
0.008891
0.004211
0.003169
0.012257
0.024462
0.010172
-0.000483
0.012502
0.017954
0.003663
-0.007251
0.008591
0.032227
0.049108
0.047286
0.021306
0.001300
-0.013770
-0.014293
0.002588
0.007520
0.018946
0.050115
0.077127
0.061018
0.011398
-0.036143
-0.067578
-0.024201
0.065416
0.061256
-0.000832
0.037090
0.107484
0.050331
-0.058255
-0.057999
0.044086
0.097075
0.065639
0.047452
0.012120
-0.037499
0.005619
0.042762
-0.019846
-0.077258
-0.027126
0.128471
0.164056
-0.056231
-0.210277
-0.026365
0.197811
0.107408
-0.053911
-0.038589
-0.103015
-0.250307
-0.121985
0.146611
0.145309
-0.056794
-0.121999
0.031520
0.078794
-0.122790
-0.254495
-0.102535
0.231523
0.336985
0.102931
-0.185675
-0.374270
-0.139963
0.358528
0.444767
0.170968
-0.027498
-0.193493
-0.332473
-0.079203
0.130167
-0.271438
-0.373790
0.412264
0.976736
0.385760
-0.594088
-0.688127
-0.027801
0.380031
0.209360
-0.094312
-0.260567
-0.189654
0.193500
0.429365
0.287009
-0.031470
-0.371250
-0.572054
-0.397234
0.102816
0.181002
-0.433872
-0.592074
0.382831
0.868074
0.092143
-0.479350
-0.215948
0.284361
0.177852
-0.112572
0.130568
-0.031271
-0.414433
0.156534
1.182873
1.304441
-0.095712
-1.320521
-0.673703
0.241976
-0.302242
-1.275336
-0.695018
0.962038
1.406757
1.033467
0.695765
-0.857911
-2.527443
-1.390182
1.447259
1.623118
-0.815586
-1.741922
-0.802605
-0.335286
-0.090589
0.707675
0.632079
0.024997
0.083442
0.022912
0.073823
-0.074508
-1.146314
-0.968637
1.586177
2.585761
0.591519
-0.497692
-0.395866
-1.392859
-1.461701
1.396781
2.782120
0.759823
0.289120
1.115438
-1.086099
-3.264776
-1.506410
0.885010
1.206859
0.048810
-0.629448
0.684195
0.330127
-3.537041
-4.469092
0.700805
4.158832
1.008883
-2.070410
0.084362
3.050908
2.434475
1.137970
0.765459
-0.148149
0.004851
0.090311
-1.547789
-1.211393
0.931169
1.595132
2.791620
3.824713
1.532777
-1.784463
-3.372687
-2.020859
1.126226
1.561853
-1.500554
-2.244014
0.246118
-0.192374
-2.324812
-0.282780
2.995227
2.870275
2.265792
1.396085
-2.174688
-4.620926
-2.456803
1.365678
2.062372
1.387751
1.825716
1.083036
1.047704
2.218215
-0.160224
-4.549007
-5.022048
-0.285962
3.942796
1.782562
-2.464387
-2.681816
0.605543
5.096407
7.148570
4.131622
-2.510128
-6.572382
-3.485304
-0.526291
-4.159668
-6.025325
-0.060018
5.938539
6.862270
5.009861
1.449738
-2.278974
-2.959569
0.038409
2.118367
-0.535686
-4.637944
-4.303627
0.891728
3.300812
0.455051
0.881327
3.564466
0.791440
-2.799076
-2.500087
-1.580512
-0.911613
1.077686
3.278696
3.287005
0.905709
-2.110980
-3.581270
-2.840675
0.335244
3.068259
1.531988
1.042321
3.285154
3.171372
3.276055
4.684773
4.355643
4.776724
4.480585
-2.192078
-9.837571
-8.956701
-1.099764
2.429699
-0.192662
0.813935
4.763183
6.560774
5.175947
-1.226037
-6.870278
-4.439633
1.164337
3.546925
2.774371
0.667390
0.988719
2.545245
2.221830
1.636570
0.685296
-1.112302
-2.984453
-1.885898
0.706842
-0.045969
-0.813067
0.252497
2.534815
5.464474
5.064168
1.511059
0.051159
1.592099
0.856173
-2.810455
-4.962376
-1.661249
4.448229
6.498314
5.552236
4.251834
2.768555
-0.282682
-3.819426
-2.897513
-2.811274
-6.981072
-5.539104
1.265513
4.737048
6.582436
4.906409
-0.581192
-1.422843
-0.965136
-1.270367
1.051176
0.670093
-2.549475
-1.106208
1.279757
-2.652613
-5.029493
-0.187943
2.468700
1.949940
3.783898
4.612035
6.155832
6.210120
2.412309
1.334528
1.738984
4.806839
6.989146
4.781634
9.136121
14.886340
8.497344
0.902506
1.562053
0.426604
0.821447
6.535039
4.844985
-1.698312
-2.678420
1.537609
7.017930
6.301226
-2.032392
-3.587366
4.641558
8.433907
3.457009
-7.061257
-15.593079
-12.785510
0.182620
6.937362
-1.841499
-6.426406
0.751238
4.510076
5.607332
2.075784
-6.550593
-9.680800
-8.506653
1.966407
11.919671
8.041073
1.162155
-3.440677
3.261332
11.568187
2.007425
-6.508031
-4.999562
-2.916227
5.004613
8.533557
5.514530
8.041289
4.692358
-1.289062
-3.489820
-4.124956
-2.604018
-9.126275
-11.562382
-1.055552
11.354077
12.976584
2.897325
5.183279
12.981769
6.956188
-3.088262
-4.789485
-1.375359
-5.299417
-4.617790
6.480012
4.184439
-7.168202
-1.212766
8.324090
4.707597
10.220389
16.764459
7.110959
2.702434
4.003349
-3.720594
-8.395641
2.322639
9.838241
1.220956
-5.202069
8.624335
23.863097
9.200493
-11.595491
-10.711245
-5.761631
-2.645978
0.073010
-5.483430
-8.053837
-4.013670
-4.559706
-9.495820
-13.942011
-1.523809
20.261884
14.318910
-6.748532
-9.971736
-7.134814
-9.253485
-0.514636
11.515992
5.622114
1.635193
10.394304
11.095154
1.375933
-7.113805
-10.904862
-11.596888
-2.602687
2.694757
-6.043320
-9.121833
-1.077344
9.625091
9.227123
-3.219401
-7.837299
6.852314
18.604211
6.747360
-2.665334
1.813581
4.940924
4.721676
-4.321109
-13.439226
-0.399660
17.317288
8.131891
-7.043755
1.414026
3.709851
-5.412423
7.530251
21.070910
16.266239
3.079896
-6.270714
-6.938581
-8.059483
-5.302050
-0.577135
9.854102
17.440880
10.256216
0.797542
-8.341876
-11.471564
-6.883286
2.236642
3.096470
-1.038259
5.451000
10.985092
11.673733
8.969805
3.091513
-3.352553
-0.693053
6.109746
3.408156
-4.967025
-14.916660
-8.042944
7.887580
7.972001
-2.824737
-6.579686
6.980975
17.271158
15.703196
11.887461
11.945645
12.163587
-1.427215
-8.831903
8.211727
22.335825
10.105947
-10.055424
-8.438632
11.331002
12.768035
-8.623338
-15.705395
-4.338473
-1.943936
-11.892792
-16.112205
-8.507243
0.258362
-2.633638
-10.232113
-3.722592
18.162592
24.582233
3.940551
0.952437
17.688241
12.387154
-5.481506
-10.469573
-3.768863
4.277704
6.384159
0.113098
-15.930952
-29.522014
-24.117026
-13.823206
-15.514299
-16.956015
-16.415441
-22.027211
-21.576517
-11.778594
-7.441773
-4.332094
3.562769
12.821933
28.073424
33.074992
17.495407
9.130097
23.637612
30.058812
17.096389
20.681183
36.831990
31.240222
10.152258
8.720414
27.289141
33.783336
16.265622
-4.067715
-0.044953
22.188840
27.730205
-0.418250
-19.016858
-2.192992
15.360822
17.548064
12.959000
5.993060
6.396476
19.659703
18.977289
1.959629
-3.692924
-15.388719
-30.081716
-22.106844
-20.865936
-37.147414
-52.842596
-64.825434
-63.558809
-44.825389
-39.358577
-65.414862
-75.221624
-55.909441
-37.312919
-22.759684
-24.666644
-39.011552
-29.804861
8.652478
33.761122
25.233717
17.502500
37.124327
55.213003
44.207671
31.038733
28.733029
33.080242
44.680175
38.021800
18.055254
17.521168
24.507103
25.875297
29.299814
30.901799
33.625462
26.969685
1.862852
-5.183877
21.093723
35.585653
14.552500
-4.399652
-8.705308
-19.212405
-28.505087
-31.356303
-31.332408
-30.018765
-31.445154
-23.458853
1.286896
22.400569
16.593973
-0.827107
1.607175
5.316917
-8.627169
-4.749876
13.509987
7.443883
-8.212594
-16.097333
-28.071858
-37.691328
-19.080519
0.224391
-21.164904
-31.686807
-3.530046
11.726381
-2.705809
-21.161545
-16.150885
11.079284
15.548848
-6.009816
0.990926
25.805773
29.034685
31.292324
39.627494
20.510649
-11.799548
-18.093729
-25.436332
-45.873577
-42.082008
-34.147660
-50.564997
-58.319333
-36.347126
-5.122506
7.711325
-2.051277
-23.201325
-42.773543
-45.581898
-39.937664
-45.716724
-59.763678
-44.098897
-3.752786
-1.038994
-26.828757
-38.165033
-39.680522
-44.280756
-50.984590
-53.431608
-41.700492
-15.371718
4.634305
13.939968
14.736673
15.658845
34.776462
51.784503
49.988204
45.882049
47.142959
41.272980
33.591119
45.882035
57.571588
46.354026
45.813186
60.307453
49.133012
22.527059
13.135146
7.132685
-10.380872
-16.936639
-10.117994
-10.882755
-14.751482
-12.247063
-12.208621
-28.190327
-46.618267
-47.541745
-46.564762
-62.941574
-86.963876
-86.394728
-65.622910
-64.221725
-71.093110
-73.015136
-74.849101
-57.471150
-43.543697
-50.044912
-45.455076
-38.417707
-45.588344
-46.836273
-39.831635
-32.902069
-28.449651
-40.851494
-52.301808
-37.642329
-25.837439
-25.008003
-14.645085
-13.181037
-21.420619
-11.095108
12.491297
18.971464
3.043270
-6.448134
-1.903757
6.931206
21.036341
30.679442
29.383197
27.138798
22.700400
19.977509
26.634058
18.175492
-11.478060
-34.117617
-34.328033
-31.196274
-52.021612
-82.968548
-103.865322
-105.602654
-82.188216
-63.504412
-61.021813
-47.825087
-31.987300
-24.575865
-22.528118
-37.985352
-50.796330
-39.396938
-21.838968
-10.203187
-7.337431
-13.840724
-17.548136
-10.414912
-2.174038
-2.643702
-12.874666
-18.863878
0.251660
31.262232
42.619542
30.178992
23.602184
35.807377
38.053846
15.258688
-13.792981
-12.033057
15.399211
24.751113
24.513422
24.575502
16.309164
17.761523
20.965757
-2.021630
-38.911796
-42.940021
-4.947667
28.883465
21.432538
3.585699
25.028238
52.487263
55.398738
58.979116
53.780896
27.092336
17.572877
41.707652
55.214022
45.474020
40.495564
44.140883
58.704249
72.084891
65.417684
65.505482
83.479600
85.177440
64.676552
56.057448
62.319670
69.993990
77.655322
60.780534
31.368308
18.584865
14.362853
20.483242
26.247488
16.502810
-4.232908
-25.339055
-33.257305
-37.369435
-46.484175
-53.950428
-66.981170
-90.513550
-106.281207
-107.439775
-112.763203
-120.348949
-122.241362
-132.023447
-137.046323
-115.620149
-77.908604
-49.943292
-37.711343
-15.886425
7.356306
21.091791
40.691537
36.396791
-9.416144
-42.165609
-28.607805
-6.570657
-0.205567
5.569070
31.111787
80.407942
125.683410
154.644932
175.206598
180.347142
175.222437
168.570296
146.575483
104.707125
57.066723
24.455194
9.744273
-1.925285
-9.923802
-0.467734
27.039088
44.951901
42.749065
38.868649
31.083141
9.245746
-0.739476
14.834906
11.621313
-18.697763
-41.870884
-64.700592
-73.884950
-38.600676
-5.260766
-8.730749
-5.925779
9.232715
5.044733
-3.580085
-6.943045
-19.291896
-14.333709
22.915189
37.327889
1.778645
-30.049423
-22.392767
-2.659760
-11.481482
-39.945296
-46.585747
-34.542910
-30.277524
-17.288353
12.356359
10.268861
-3.249466
24.932493
39.430397
7.179426
-6.505411
21.597838
32.940341
3.269385
-31.727592
-48.580819
-41.157435
-17.164753
-7.152262
-17.902761
-15.824881
-1.052662
0.961315
7.406673
15.669367
4.703780
1.683975
4.077733
-21.088068
-45.423131
-29.030739
-13.431159
-42.036807
-63.304530
-42.500500
-7.153622
13.383886
10.202245
10.510326
7.213088
-19.585354
-36.793164
-28.167054
-14.238561
3.902328
37.631631
62.139691
62.063056
56.609485
54.900468
66.473385
91.547221
99.225437
73.149930
62.338645
94.134235
109.696408
85.457200
67.522040
65.413240
52.457051
39.594639
19.603935
-17.583145
-27.462643
-19.123576
-26.854273
-39.077397
-37.894677
-21.405652
-25.776251
-50.774241
-50.433429
-24.909156
-4.643625
5.024414
33.034926
67.318313
64.570744
44.192467
37.990244
24.172925
-16.491929
-33.981327
-1.683346
0.052160
-49.452596
-52.389796
-0.084489
31.440423
40.467615
39.099154
16.076958
-3.690605
-6.090864
-20.808799
-34.650796
-14.775956
5.579195
9.958099
14.025802
20.288803
12.223525
-23.457162
-47.562070
-44.277308
-57.593275
-93.348255
-107.228439
-95.037533
-91.558465
-99.545553
-95.493697
-76.689100
-59.489350
-48.823543
-33.177464
-18.737489
-33.866896
-52.625780
-28.222925
16.203620
41.238491
47.242243
58.265492
83.944067
115.593667
139.043174
135.254975
125.753700
130.468744
119.764483
96.214959
90.416935
89.733742
70.037615
43.427505
24.995668
20.763785
26.075516
24.789401
29.824220
56.305478
82.166670
80.598187
77.752686
106.901241
116.338606
79.392590
50.066606
45.102697
34.595341
4.333154
-18.671637
-26.227511
-40.700224
-50.181757
-37.854993
-26.005683
-28.352690
-31.755653
-46.885580
-75.442391
-88.280645
-74.462294
-46.793377
-26.650196
-36.371495
-70.136912
-91.739216
-88.192609
-63.917040
-26.735941
-5.605643
-7.041903
-8.649610
1.116101
17.802550
14.196968
-11.265747
-21.739594
-27.663865
-36.948753
-24.045045
-11.494621
-16.010690
-13.349111
5.680963
28.257650
36.241613
30.703358
27.982545
41.049907
52.998968
17.912371
-41.535003
-61.001495
-41.532152
-31.737087
-62.894694
-93.815913
-88.700826
-69.966887
-58.141735
-56.880046
-46.008242
-36.271884
-49.690720
-55.163514
-46.187756
-46.887834
-61.875668
-82.019895
-83.908931
-61.934386
-41.230107
-26.689082
-18.371576
-3.718850
44.202353
89.401449
105.644214
89.113619
47.612572
46.577393
83.991244
103.109121
102.768042
101.233329
104.213903
117.535578
136.166129
131.400164
92.373926
64.969446
77.230488
83.810146
60.963554
58.206893
96.960367
114.860451
94.356966
94.213830
107.652141
77.262667
30.183364
21.200845
18.460290
3.941078
-7.581451
-38.355901
-74.698996
-87.949242
-83.809843
-77.558272
-86.649633
-107.842543
-116.080827
-91.784996
-40.206520
15.026371
39.338567
32.406397
25.373177
11.844200
-11.995226
-30.915166
-51.487491
-64.936978
-55.016965
-36.084303
-17.537656
6.247731
16.701827
-7.444903
-31.150289
-24.561798
-24.734028
-55.806172
-70.347205
-32.616697
8.110754
22.894143
43.766232
75.026700
92.141247
73.928135
29.650948
-2.030871
-8.140356
-23.749555
-51.039477
-50.829588
-42.238807
-49.507117
-62.457591
-67.444879
-62.618654
-69.440163
-78.097972
-82.376873
-82.477407
-68.371493
-50.876906
-23.790648
4.843047
20.048039
25.495888
18.690485
5.404131
-12.943541
-36.863494
-50.137379
-33.991248
-14.764528
-33.955926
-54.615273
-24.224508
36.364019
90.796046
121.086801
124.914997
122.243800
108.324392
89.024930
100.746694
131.258771
126.668668
77.419264
57.335304
82.607342
86.640755
62.981608
21.820858
-20.421826
-34.477093
-46.700476
-80.310552
-108.719036
-102.286147
-73.311376
-56.921323
-69.714897
-92.033641
-99.475476
-86.610473
-44.871486
3.285587
32.844575
38.170074
1.483826
-40.928747
-46.085923
-43.850883
-60.102488
-59.152260
-10.047294
35.001915
0.000000
0.000000
0.000000
0.000000
0.000000
0.000000
0.000000
0.000000
0.000000
0.000000
0.000000
0.000000
0.000000
0.000000
0.000000
0.000000
0.000000
0.000000
0.000000
0.000000
0.000000
0.000000
0.000000
0.000000
