EVENT_NAME: 202302060117
EVENT_ID: 13194
EVENT_DATE_YYYYMMDD: 2023/02/06
EVENT_TIME_HHMMSS: 01:17:32.00000
EVENT_LATITUDE_DEGREE: 37.288
EVENT_LONGITUDE_DEGREE: 37.043
EVENT_DEPTH_KM: 8.6
HYPOCENTER_REFERENCE: AFAD
MAGNITUDE_W: 7.7
MAGNITUDE_W_REFERENCE: AFAD
MAGNITUDE_L: 
MAGNITUDE_L_REFERENCE: 
FOCAL_MECHANISM: 
NETWORK: TK
STATION_CODE: 0123
STATION_NAME: 
STATION_LATITUDE_DEGREE: 37.00338
STATION_LONGITUDE_DEGREE: 35.34376
STATION_ELEVATION_M: 23.0
LOCATION: Kahramanmaras_Pazarck_Turkiye
SENSOR_DEPTH_M: 
VS30_M/S: 519
SITE_CLASSIFICATION_EC8: B
MORPHOLOGIC_CLASSIFICATION: 
EPICENTRAL_DISTANCE_KM: 153.90
EARTHQUAKE_BACKAZIMUTH_DEGREE: 
DATE_TIME_FIRST_SAMPLE_YYYYMMDD_HHMMSS: 2023/02/06 01:17:38.5568280
DATE_TIME_FIRST_SAMPLE_PRECISION: millisecond
SAMPLING_INTERVAL_S: 0.01
NDATA: 13501
DURATION_S: 
STREAM: HNZ
UNITS: cm/s^2
INSTRUMENT: sensor = CMG-5T/GURALP | digitizer = 
INSTRUMENT_ANALOG/DIGITAL: 
INSTRUMENTAL_FREQUENCY_HZ: 
INSTRUMENTAL_DAMPING: 
FULL_SCALE_G: 
N_BIT_DIGITAL_CONVERTER: 
PGA_CM/S^2: 18.691
TIME_PGA_S: 
BASELINE_CORRECTION: BASELINE REMOVED
FILTER_TYPE: BUTTERWORTH
FILTER_ORDER: 
LOW_CUT_FREQUENCY_HZ: 
HIGH_CUT_FREQUENCY_HZ: 
LATE/NORMAL_TRIGGERED: 
DATABASE_VERSION: 
HEADER_FORMAT: DYNA 1.2
DATA_TYPE: Acceleration
PROCESSING: Automatic Paolucci et al., 2011
DATA_TIMESTAMP_YYYYMMDD_HHMMSS: 
DATA_LICENSE: U (unknown license)
DATA_CITATION: Turkish Accelerometric Archive v 1.0 - Disaster And Emergency Management Presidency, Earthquake Department
DATA_CREATOR: AFAD
ORIGINAL_DATA_MEDIATOR_CITATION: : AFAD - Disaster And Emergency Management Presidency
ORIGINAL_DATA_MEDIATOR: AFAD PROCESS SERVICE
ORIGINAL_DATA_CREATOR_CITATION: AFAD PROCESS SERVICE
ORIGINAL_DATA_CREATOR: network: TK
USER1: GuestUser
USER2: 
USER3: 
USER4: 
USER5: 
[...]
6.475808
7.198475
7.572763
7.344026
6.927504
6.540414
6.627106
7.124878
7.613053
7.884970
8.215431
8.911226
9.682518
10.454450
10.865207
11.160798
11.215499
11.001159
10.381176
9.557093
8.780036
8.296014
7.929078
7.518954
6.947918
6.508043
6.263311
6.573937
7.380420
8.136996
8.868300
9.493715
9.840811
9.546174
8.935149
8.072037
7.337848
6.716905
6.428346
6.279587
6.271906
5.808358
4.862390
3.702405
3.044034
2.549774
2.378301
2.507221
2.811769
2.871589
2.838315
2.821677
2.535357
2.403873
2.188572
1.970393
1.333775
0.438033
-0.642935
-1.700231
-2.254312
-1.833318
-0.870081
0.125146
1.050313
1.851677
2.399674
2.616888
2.421742
2.315530
2.353595
2.362870
1.896762
0.825391
-0.933779
-2.465816
-3.133785
-2.334341
-0.686184
0.868560
2.037177
2.710258
2.877246
2.824139
3.118130
3.564397
4.137027
4.748366
5.503663
6.250003
7.273382
8.573160
9.468577
9.647721
9.067087
8.004354
6.646346
5.328007
4.284468
3.488537
2.795295
2.381973
2.427077
2.782170
3.528190
4.030760
4.214064
4.011240
3.227785
1.861460
0.844793
0.260960
-0.134768
-0.535294
-1.014838
-1.605389
-2.203937
-2.603824
-2.985476
-3.530600
-4.326532
-4.998339
-5.228675
-4.812799
-3.715842
-2.157258
-0.868677
-0.238143
-0.085231
-0.022852
0.401661
1.339625
2.296783
3.064876
3.801619
4.245966
4.602020
4.830750
4.837145
4.522994
4.120548
3.746894
3.520077
3.255511
2.745576
2.194054
1.797366
1.465939
1.011029
0.362895
-0.187668
-0.695683
-1.357574
-1.692839
-1.962204
-2.183582
-2.288195
-2.553081
-2.939531
-3.540639
-4.423905
-5.498155
-6.225946
-6.462041
-6.760197
-7.171280
-7.674497
-7.908032
-7.870606
-7.538226
-7.298938
-7.141227
-7.432665
-7.707468
-7.765375
-7.572474
-6.551014
-5.075287
-3.413054
-2.037458
-0.659942
0.776117
2.308787
3.604087
4.606672
4.908661
4.089377
2.797590
1.612972
0.997788
0.677878
0.255278
-0.370143
-0.979888
-1.444396
-1.499743
-0.989815
-0.110394
0.798459
1.355733
1.497769
1.256876
0.957760
0.764213
1.149698
1.650349
1.960976
1.666338
0.895360
-0.014138
-0.938672
-1.704852
-2.095781
-1.803709
-1.441578
-1.305301
-1.369285
-1.281314
-1.204539
-1.566357
-2.272074
-3.091359
-3.761887
-4.075078
-4.064205
-4.031257
-4.512080
-5.551461
-6.931862
-8.122558
-8.765254
-8.953362
-9.071411
-9.000075
-8.670254
-7.966462
-7.199328
-6.712113
-6.550883
-6.597913
-6.579681
-6.382301
-5.908842
-4.913615
-3.191560
-1.249728
0.334128
1.365824
1.811771
1.899423
1.896860
1.870305
1.967874
2.548501
3.850519
5.406223
6.480147
7.047979
7.318937
7.384195
7.371716
7.292696
7.073556
6.773801
6.639757
6.689659
6.709810
6.077671
4.574746
2.497268
0.422349
-0.898870
-1.211422
-0.709811
0.144977
0.699693
0.795662
0.456238
0.136968
0.008682
0.120326
0.232611
0.034585
-0.646500
-1.250487
-1.393808
-0.988489
-0.497115
-0.437935
-0.412986
-0.204729
-0.180100
-0.492972
-0.936685
-1.240600
-1.180780
-0.935415
-0.357986
-0.039682
-0.121581
-0.463884
-0.365676
0.155769
0.990403
1.728745
2.095675
2.286016
2.071676
1.139464
-0.111055
-1.292794
-1.883345
-1.740669
-1.089022
-0.485041
-0.144343
-0.260153
-0.937718
-1.811387
-2.568929
-2.813021
-2.638995
-2.559981
-2.482887
-2.350768
-2.355890
-2.666842
-3.262832
-3.619851
-3.508846
-3.274357
-3.225415
-3.247491
-3.361701
-3.700486
-3.945217
-4.372936
-4.967006
-5.603304
-6.164103
-6.633730
-7.057609
-7.333692
-7.842027
-8.659072
-9.581367
-10.425924
-10.894590
-10.991525
-11.088140
-11.457315
-12.453828
-13.363327
-13.946520
-14.256193
-14.389917
-14.236684
-13.760986
-13.046317
-12.159218
-11.262843
-10.926623
-10.951899
-10.879603
-10.397187
-9.392362
-7.829940
-6.083252
-4.580973
-3.475378
-2.798458
-2.105863
-1.125351
0.038147
0.885577
1.480921
2.149523
2.833801
3.408350
3.877971
4.389819
4.955731
5.568989
6.196963
6.537341
6.750076
7.052385
7.404919
7.687394
8.083436
8.558494
8.739558
8.353108
7.763836
7.419934
7.386020
7.381219
7.097778
6.570889
6.076310
5.818142
5.761195
5.857804
6.248727
7.302177
8.569005
9.320144
9.301906
8.858512
8.448388
8.341536
8.313701
8.233402
8.229880
8.304095
8.321367
8.189562
7.515516
6.612416
5.563118
4.687210
4.287963
4.197427
4.407922
4.634413
4.619695
4.389039
3.746663
2.807733
1.866564
1.286250
0.792631
0.257743
-0.131906
-0.561864
-1.059002
-1.619802
-2.065755
-2.324243
-2.143499
-1.790644
-1.778171
-2.197252
-2.781085
-3.283662
-3.638122
-3.736016
-3.518803
-2.986800
-2.368424
-2.164006
-2.376107
-2.649311
-2.674267
-2.442017
-2.213607
-2.477533
-3.263867
-4.025249
-4.166970
-3.230926
-1.434652
0.528613
2.419260
4.093009
5.637196
6.873313
7.732580
8.285376
8.388383
8.237704
8.292405
8.500341
8.701880
8.763299
8.679480
8.457142
8.108760
7.510211
6.399172
5.091070
4.564180
5.271171
6.649647
8.164083
9.490413
10.556020
11.322194
11.906981
12.353568
12.414027
12.231037
12.012538
11.548670
10.776412
9.994876
9.049228
8.231544
7.323325
6.448697
5.615976
4.929453
4.438393
4.116244
3.675089
3.254409
3.105329
2.621947
1.717247
0.616764
-0.215316
-0.841697
-1.366027
-1.942503
-2.402852
-2.851044
-3.051309
-2.719568
-1.891013
-1.128358
-0.839805
-0.817734
-0.832133
-0.754719
-0.033972
1.380013
2.645882
3.051521
2.685864
1.836508
0.553039
-0.722753
-1.875700
-2.658835
-3.312727
-4.071230
-4.747196
-4.985849
-4.977855
-4.813426
-4.522313
-4.535113
-5.036730
-5.604567
-5.877451
-5.805795
-5.943038
-6.640118
-7.995886
-9.364131
-10.072088
-10.161985
-9.744189
-9.164841
-8.482163
-7.452386
-6.321838
-5.311256
-4.486219
-3.808019
-3.048883
-2.327177
-2.212973
-2.519447
-2.696038
-2.773459
-2.138447
-1.413541
-0.650886
-0.099370
0.612740
1.341485
2.204910
2.858477
2.871590
2.251927
1.424965
0.955659
0.826093
0.772346
0.653657
0.188510
-0.465063
-1.234762
-1.925124
-2.320212
-2.871094
-3.510911
-4.146249
-4.690094
-4.925548
-4.352598
-2.962926
-1.219757
0.169276
0.934810
1.205768
1.664511
2.554809
3.830594
5.103821
5.980362
6.236605
6.433984
6.889529
7.303165
7.184477
6.783630
6.608958
6.520661
6.230502
5.838613
5.515504
5.133532
4.776193
4.541059
4.601518
4.782263
4.986680
5.046500
5.200052
5.400630
5.216681
4.535596
3.450789
2.344868
1.566851
1.030685
0.538345
0.093991
-0.239675
-0.561184
-0.964910
-1.223717
-1.296339
-1.042976
-0.806248
-0.969084
-1.563154
-2.516479
-3.658869
-4.432407
-4.831974
-5.057511
-5.136851
-5.320161
-5.947821
-6.937296
-7.638535
-7.643337
-7.169877
-6.484960
-6.108113
-6.074206
-6.212089
-6.361168
-6.441788
-6.434113
-6.210181
-5.787267
-5.501914
-5.346442
-4.991348
-4.198302
-2.949069
-1.817562
-1.384731
-1.400089
-1.253895
-1.004371
-0.782678
-0.437182
-0.021626
0.433598
1.243919
2.492193
3.902019
4.910363
5.565529
5.776664
5.348626
4.485514
3.504677
2.520960
1.296674
0.087743
-0.685155
-1.079604
-1.406232
-1.614814
-1.423833
-0.972127
-0.334236
0.839819
2.116564
2.709349
2.726941
2.411509
2.286423
2.404465
2.353597
1.921400
1.096677
0.175662
-0.460316
-0.711446
-0.697373
-0.810303
-1.085106
-1.269375
-1.286973
-1.273860
-1.189088
-0.919729
-0.273521
0.691955
1.622561
2.318995
2.726874
2.873388
2.965518
3.002624
2.926803
2.850662
2.587376
2.169255
1.555350
1.029740
0.988469
1.674027
2.659017
3.562751
3.898010
3.282506
2.248564
1.516614
1.602986
1.945923
2.101715
1.857943
1.128552
0.066458
-0.633821
-0.412448
0.541191
1.373905
1.615432
1.351186
0.772151
0.271494
0.074428
0.213585
0.683205
1.234082
1.922518
2.721962
3.688078
4.244393
4.252068
3.920961
3.885128
4.229665
4.511180
4.879710
4.646814
4.145517
3.546649
3.611907
4.032581
4.238278
4.078002
3.715544
3.206250
2.772773
2.037944
1.361018
0.824531
0.689527
0.904502
1.185697
1.396192
1.718335
2.461476
3.443267
4.487440
5.044715
5.096536
4.827492
4.448079
4.272127
4.221579
3.790981
3.057752
2.546538
2.438406
2.560607
2.851080
3.091647
3.447060
3.712580
4.212591
4.596156
4.876392
4.783616
4.560958
4.696275
5.108312
5.243950
5.030569
4.589414
3.880178
3.147908
2.952442
3.847538
5.383728
6.854656
7.501185
7.243977
6.499870
6.042720
5.837337
5.898116
5.962735
6.171631
6.686678
7.053608
6.919564
6.800555
6.979700
6.975538
6.612441
6.057719
5.636719
5.397426
5.590326
5.942221
6.313310
6.741022
7.116910
7.322607
6.936476
6.449895
5.944439
5.303663
4.340100
3.523695
2.937942
2.741197
3.115804
3.863104
4.528187
4.680780
4.645587
4.152607
3.562056
2.673672
1.365250
-0.184062
-1.441299
-2.322325
-2.756762
-2.641919
-2.126232
-1.743946
-1.765383
-2.271798
-3.138109
-4.066802
-4.670789
-5.036446
-5.177208
-5.555021
-6.265857
-7.352583
-8.483137
-9.572423
-10.638676
-11.590082
-12.733112
-13.712989
-14.379678
-14.382880
-13.802572
-12.849253
-11.624653
-10.582079
-9.834460
-9.102836
-8.582671
-8.741028
-9.279754
-9.664605
-9.637096
-9.250012
-8.555817
-7.908009
-7.710309
-7.779732
-8.239121
-8.655963
-9.035376
-8.942925
-8.499538
-7.904834
-7.765997
-7.949947
-8.104465
-7.929159
-7.536636
-7.119481
-6.948014
-7.000801
-6.939702
-6.561895
-6.428817
-6.700101
-7.530263
-8.262852
-8.480072
-7.951269
-6.985153
-6.111171
-5.822298
-6.465954
-7.122726
-7.219021
-6.552978
-5.524480
-4.647938
-4.329954
-4.246461
-4.120101
-3.769806
-3.629050
-3.549397
-3.495015
-3.923374
-4.672919
-5.234998
-5.358805
-5.269234
-5.216772
-5.101609
-5.066102
-4.864564
-4.825858
-4.955424
-5.258698
-5.490954
-5.904596
-6.315360
-7.098175
-8.287912
-9.616488
-10.771354
-11.454039
-11.857444
-11.778750
-11.541382
-11.089677
-10.399641
-9.351949
-8.316734
-7.948844
-8.287628
-8.776129
-8.633134
-7.899910
-6.659314
-5.324346
-4.289451
-3.779522
-3.841267
-3.602300
-2.944255
-1.970461
-0.975234
0.047185
0.421473
0.327417
0.227923
0.426263
1.139332
1.799297
2.388242
2.481332
2.715821
2.999895
2.942629
2.449649
1.933956
1.881168
2.329675
2.840883
3.211012
3.574743
4.000856
4.462159
4.701766
4.871633
4.918976
4.854032
4.788128
5.121788
5.564856
5.901715
5.720965
5.022285
3.886933
2.691758
1.820328
1.300797
1.246089
1.551278
1.695233
1.321578
0.664167
-0.071622
-0.846759
-1.988190
-3.431613
-4.513221
-4.986366
-5.241335
-5.371860
-5.329315
-5.124898
-4.813312
-4.552591
-4.517084
-5.059009
-6.082074
-7.100981
-7.623392
-7.748158
-7.756799
-7.849255
-7.959626
-8.065198
-8.137180
-8.085039
-7.595264
-6.637146
-5.695024
-5.284266
-5.415751
-5.692793
-6.015263
-6.095242
-6.029664
-5.712640
-5.054595
-4.137745
-3.326144
-2.946737
-2.865804
-2.406421
-1.681515
-1.139596
-1.028911
-1.098974
-1.171916
-1.274289
-1.410892
-1.484474
-1.253184
-1.100592
-1.256389
-1.609569
-1.937797
-2.652472
-3.666580
-4.399809
-4.475950
-3.811187
-2.634572
-1.509463
-0.867093
-0.808553
-1.104790
-1.424700
-1.701422
-1.853381
-1.805398
-1.432390
-0.990921
-1.015877
-1.447754
-2.030308
-2.347658
-2.315031
-1.863006
-1.145778
-0.343774
0.450551
1.081725
1.653395
2.159165
2.589117
2.698522
2.292557
1.713842
1.418245
1.261808
0.874398
0.424606
0.039435
-0.202098
-0.003119
0.740341
1.581373
2.071148
2.118491
1.779067
1.390697
0.852930
0.008693
-0.926398
-1.654509
-2.277690
-3.134084
-3.926816
-4.589666
-4.996911
-5.058976
-4.850719
-4.532735
-4.006491
-3.156502
-1.940859
-0.695784
-0.002229
0.079664
-0.281834
-0.821840
-1.279630
-1.118719
-0.635983
-0.665098
-1.365697
-2.422352
-3.564103
-4.881802
-6.184786
-7.363005
-8.351841
-9.053399
-9.334281
-9.482081
-9.698341
-10.094388
-10.416538
-10.555700
-10.223960
-9.336541
-8.050519
-6.792328
-5.821734
-4.934635
-4.243959
-3.895904
-4.030908
-4.190544
-4.172632
-3.831295
-2.848224
-1.269487
0.126584
0.975293
1.243692
0.974647
0.047874
-0.981589
-1.541429
-1.608613
-1.472015
-1.236887
-1.111486
-0.913147
-0.532781
0.083996
1.065467
2.273433
3.317286
3.967013
4.066501
3.655098
3.006004
2.612196
2.698887
3.008234
3.171384
2.893382
2.298352
1.624945
1.436517
1.597427
1.876703
1.747457
1.265674
0.854271
0.701353
0.880497
1.108588
1.144095
1.211592
1.131932
0.840494
0.260500
-0.440739
-1.017214
-1.400466
-1.667271
-1.757168
-1.623450
-1.152230
-0.398213
0.267190
0.669310
1.092864
1.884950
2.817156
3.570533
4.020639
4.072781
3.761188
3.246455
3.042992
2.937739
3.037547
3.369927
3.820673
4.097389
4.119140
4.114018
3.789950
3.064718
1.851308
0.401167
-1.014423
-2.002619
-2.557660
-2.724335
-2.982822
-3.425257
-3.817466
-4.330599
-4.857169
-5.127173
-5.108302
-5.064478
-4.963390
-4.877018
-5.082721
-5.367442
-5.290667
-4.785217
-3.998249
-2.906730
-1.681810
-0.727531
-0.173135
0.132373
0.252015
0.327830
0.416761
0.564874
0.451304
0.092366
-0.462676
-0.923984
-1.230138
-1.163281
-0.799230
-0.307216
0.253898
0.665615
1.038623
1.340612
1.344448
1.384433
1.580213
2.205308
3.075132
3.872976
4.585086
5.135962
5.502893
5.596622
5.377803
4.988153
4.324663
3.598792
2.839330
2.365545
2.429523
2.883148
3.544072
4.246265
4.946538
5.553078
5.856987
5.809638
5.715582
5.652877
5.682625
5.758760
6.087621
6.684564
7.232882
7.652596
8.239622
9.070098
10.200965
11.209309
11.936454
12.105362
12.062171
12.341127
12.892963
13.509740
13.871552
14.154667
14.408989
14.706500
14.849815
15.096780
15.488663
15.755142
15.769535
15.741380
15.827432
16.130061
16.815298
17.651852
18.385715
18.691223
18.548861
18.017813
17.480366
17.123027
17.147017
17.518426
17.559371
17.046877
16.156893
14.910853
13.569481
12.264898
11.122827
10.067771
9.040867
8.011724
6.764084
5.562831
4.703558
4.066301
3.138888
1.865336
0.390242
-0.963927
-1.878543
-2.112718
-1.816807
-1.342389
-1.046798
-1.089988
-1.490195
-2.085224
-2.716724
-3.179312
-3.404529
-3.541773
-3.659181
-4.220301
-5.178105
-6.255554
-7.117387
-7.772239
-8.320242
-8.863767
-9.537494
-9.956575
-9.996246
-9.685940
-9.268784
-9.011582
-9.058292
-9.361886
-9.796323
-10.129349
-10.100241
-9.626462
-8.691057
-7.897051
-7.448545
-7.425515
-7.256927
-6.813219
-6.108147
-5.319900
-4.308358
-2.935320
-1.047233
0.941624
2.496689
3.514309
4.249132
4.780175
5.362722
5.992295
6.843884
7.781528
8.295296
8.348397
8.049921
7.783116
7.518870
7.401141
7.396339
7.361786
7.379378
7.467669
7.793971
8.336530
8.778318
9.306482
9.604312
9.708279
9.493938
9.499053
9.461941
9.236404
8.903058
8.608101
8.536438
8.720382
9.106506
9.701850
10.317348
10.844871
11.180130
11.242829
10.936995
10.496800
10.288858
10.197681
10.234467
10.748875
11.867906
13.170563
14.179546
14.783208
14.913407
14.499444
13.984071
13.534279
13.250839
13.361203
13.800113
14.172481
14.300121
14.346504
14.450791
14.502613
14.233888
13.323110
11.853455
10.378682
9.331303
8.859438
8.766342
8.462107
7.671615
6.397103
4.971915
3.551205
2.122498
0.817595
0.023903
-0.142131
0.081161
0.362356
0.403301
0.081791
-0.657197
-1.437133
-2.162044
-2.871281
-3.580198
-4.360134
-5.139750
-5.802919
-6.562061
-7.585766
-8.347148
-8.998161
-9.709957
-10.461421
-10.974875
-11.040779
-10.504938
-9.655268
-8.584223
-7.376898
-6.118067
-5.021430
-4.182957
-3.442695
-2.899497
-2.302554
-1.630432
-1.070279
-0.755813
-0.630413
-0.635214
-0.775017
-0.828444
-0.401052
0.485407
1.452482
2.055184
2.318144
2.328698
2.549751
3.229550
4.372254
5.450337
6.158288
6.621190
7.182943
7.591781
7.877775
7.879691
7.918397
8.237021
8.718158
9.156747
9.471852
9.960347
10.821213
11.742222
12.112991
11.567547
10.088295
8.072239
5.915424
4.219594
3.306577
2.965873
2.833749
3.016733
3.145012
2.815185
1.862500
0.740583
0.053420
-0.230660
-0.113577
0.354763
0.678506
0.539344
-0.174052
-1.359310
-2.826725
-4.215444
-5.467882
-6.444881
-7.379972
-7.739550
-7.301920
-6.340284
-5.658245
-5.315628
-5.168474
-4.937184
-4.479401
-3.884377
-3.343737
-3.178349
-3.460190
-4.121120
-4.895618
-5.519119
-5.751695
-5.439469
-4.695048
-3.944550
-3.423745
-3.166223
-3.065775
-3.006915
-2.539854
-1.676749
-0.836356
-0.548443
-0.816528
-1.347897
-1.751622
-1.973640
-1.780420
-1.569604
-1.363907
-1.226350
-1.265702
-1.305053
-0.990268
-0.601584
-0.551042
-0.660453
-0.685089
-0.790981
-1.118249
-0.926628
-0.296095
0.404178
0.672897
0.207110
-0.311142
-0.876421
-1.153143
-1.373562
-1.537677
-1.749779
-2.012105
-2.517881
-3.412664
-4.803941
-6.100527
-6.988591
-7.431026
-7.452142
-7.463982
-7.357456
-7.212221
-7.059309
-7.140249
-7.496948
-8.171954
-8.680609
-8.600955
-8.250021
-8.017451
-7.944516
-7.756094
-7.722826
-7.985153
-8.190216
-8.265717
-8.178066
-8.023874
-7.800262
-7.517148
-7.109589
-6.508487
-5.973606
-5.662660
-5.314604
-4.855541
-4.505886
-4.163269
-3.744513
-3.190758
-2.311657
-1.554120
-1.157759
-1.290523
-1.760150
-2.524410
-3.343375
-4.088441
-4.764727
-5.316569
-5.522592
-5.217084
-4.608625
-4.104774
-3.767915
-3.500796
-3.221841
-2.996949
-2.660090
-2.236217
-1.703255
-1.122627
-0.379486
0.497695
1.126629
1.311532
0.907806
0.161781
-0.618155
-0.965257
-1.096102
-1.351071
-1.924347
-2.987720
-4.286225
-5.385748
-6.097544
-6.676578
-7.087022
-7.185556
-7.233225
-7.247624
-7.238670
-7.097914
-6.858947
-6.376850
-5.732241
-5.192241
-4.954553
-5.118029
-5.659954
-6.373349
-7.163202
-8.071741
-9.182780
-10.178014
-10.752249
-11.060963
-11.392709
-11.580497
-11.357845
-10.922775
-10.429162
-9.940347
-9.607327
-9.588456
-9.655959
-9.532798
-9.168107
-8.854602
-8.710007
-8.592284
-8.089394
-6.990837
-5.404102
-3.740269
-2.479199
-1.819555
-1.589545
-1.691598
-2.024304
-2.342934
-2.397002
-2.479221
-2.801370
-3.260119
-3.535882
-3.427757
-3.238375
-3.218224
-3.138890
-2.644317
-1.873984
-1.295596
-1.304236
-1.666374
-2.119045
-2.697760
-3.556073
-4.476448
-5.191443
-5.441293
-5.233677
-4.689198
-4.284199
-4.327709
-4.700084
-5.294154
-5.829361
-6.218371
-6.400401
-6.465985
-6.747506
-7.283993
-7.908774
-8.626008
-9.601087
-10.636949
-11.265249
-11.251816
-10.717255
-10.085761
-9.769377
-9.999073
-10.432870
-10.412399
-9.697090
-8.594374
-7.672406
-7.199906
-7.025560
-6.903359
-6.698621
-6.558825
-6.477892
-6.269315
-5.758747
-5.062313
-4.456732
-4.035738
-3.725112
-3.560363
-3.455756
-3.139051
-2.696303
-2.275309
-1.689882
-0.890118
-0.109549
0.675180
1.614423
2.493844
3.008891
3.415490
3.996117
4.572906
4.813473
4.436940
3.395960
2.277243
1.642544
1.377978
1.296079
1.430437
1.673883
1.861985
2.014578
2.371911
2.885998
3.388569
3.987431
4.824624
5.753631
6.602980
7.103951
6.899848
6.319534
6.067124
6.359196
6.739242
6.748837
6.327196
5.783672
5.356593
4.892085
4.445812
4.105108
3.873173
3.683785
3.526708
3.533103
3.695932
3.987684
4.201379
4.247123
4.256077
4.236240
4.004304
3.614015
3.325136
3.143106
2.794724
2.105322
1.188146
0.458435
0.152281
0.063984
-0.092773
-0.518572
-1.083211
-1.750220
-2.334373
-2.566628
-2.481856
-2.511290
-3.120716
-4.362917
-5.783946
-6.653776
-6.557487
-5.788434
-5.011064
-4.361336
-3.682497
-2.987342
-2.513883
-2.424952
-2.588427
-2.752543
-2.755745
-2.264691
-1.345921
-0.471299
0.010797
