EVENT_NAME: 202302060117
EVENT_ID: 13194
EVENT_DATE_YYYYMMDD: 2023/02/06
EVENT_TIME_HHMMSS: 01:17:32.00000
EVENT_LATITUDE_DEGREE: 37.288
EVENT_LONGITUDE_DEGREE: 37.043
EVENT_DEPTH_KM: 8.6
HYPOCENTER_REFERENCE: AFAD
MAGNITUDE_W: 7.7
MAGNITUDE_W_REFERENCE: AFAD
MAGNITUDE_L: 
MAGNITUDE_L_REFERENCE: 
FOCAL_MECHANISM: 
NETWORK: TK
STATION_CODE: 7205
STATION_NAME: 
STATION_LATITUDE_DEGREE: 38.34777
STATION_LONGITUDE_DEGREE: 41.40071
STATION_ELEVATION_M: 985.0
LOCATION: Kahramanmaras_Pazarck_Turkiye
SENSOR_DEPTH_M: 
VS30_M/S: None
SITE_CLASSIFICATION_EC8: unknown
MORPHOLOGIC_CLASSIFICATION: 
EPICENTRAL_DISTANCE_KM: 400.46
EARTHQUAKE_BACKAZIMUTH_DEGREE: 
DATE_TIME_FIRST_SAMPLE_YYYYMMDD_HHMMSS: 2023/02/06 01:18:03.0163120
DATE_TIME_FIRST_SAMPLE_PRECISION: millisecond
SAMPLING_INTERVAL_S: 0.005
NDATA: 42001
DURATION_S: 
STREAM: HNN
UNITS: cm/s^2
INSTRUMENT: sensor = GEO-A200,/GEObit | digitizer = 
INSTRUMENT_ANALOG/DIGITAL: 
INSTRUMENTAL_FREQUENCY_HZ: 
INSTRUMENTAL_DAMPING: 
FULL_SCALE_G: 
N_BIT_DIGITAL_CONVERTER: 
PGA_CM/S^2: 22.186
TIME_PGA_S: 
BASELINE_CORRECTION: BASELINE REMOVED
FILTER_TYPE: BUTTERWORTH
FILTER_ORDER: 
LOW_CUT_FREQUENCY_HZ: 
HIGH_CUT_FREQUENCY_HZ: 
LATE/NORMAL_TRIGGERED: 
DATABASE_VERSION: 
HEADER_FORMAT: DYNA 1.2
DATA_TYPE: Acceleration
PROCESSING: Automatic Paolucci et al., 2011
DATA_TIMESTAMP_YYYYMMDD_HHMMSS: 
DATA_LICENSE: U (unknown license)
DATA_CITATION: Turkish Accelerometric Archive v 1.0 - Disaster And Emergency Management Presidency, Earthquake Department
DATA_CREATOR: AFAD
ORIGINAL_DATA_MEDIATOR_CITATION: : AFAD - Disaster And Emergency Management Presidency
ORIGINAL_DATA_MEDIATOR: AFAD PROCESS SERVICE
ORIGINAL_DATA_CREATOR_CITATION: AFAD PROCESS SERVICE
ORIGINAL_DATA_CREATOR: network: TK
USER1: GuestUser
USER2: 
USER3: 
USER4: 
USER5: 
[...]
2.424002
2.906840
3.377436
3.847562
4.303091
4.737669
5.141407
5.508420
5.858719
6.189949
6.509879
6.813565
7.085941
7.332892
7.544295
7.722034
7.888237
8.046907
8.186980
8.299744
8.371545
8.379078
8.321872
8.219466
8.093047
7.969218
7.863751
7.771939
7.676359
7.576543
7.473430
7.354074
7.223182
7.084287
6.934797
6.774243
6.598387
6.413585
6.214423
6.006080
5.820101
5.634357
5.435430
5.215316
4.929050
4.571217
4.136404
3.610955
3.001933
2.324406
1.588260
0.802912
-0.015865
-0.863363
-1.702857
-2.499505
-3.225057
-3.846556
-4.363529
-4.768681
-5.091907
-5.376054
-5.631481
-5.888791
-6.158813
-6.450023
-6.790906
-7.191113
-7.651352
-8.154436
-8.677766
-9.192386
-9.652860
-10.033057
-10.317675
-10.489294
-10.537319
-10.446920
-10.218331
-9.855084
-9.353649
-8.752161
-8.096763
-7.426534
-6.807861
-6.276763
-5.855134
-5.551683
-5.351109
-5.250115
-5.219276
-5.224927
-5.261887
-5.314621
-5.376535
-5.428798
-5.430917
-5.377713
-5.267539
-5.089329
-4.859093
-4.579654
-4.253368
-3.908249
-3.544296
-3.153035
-2.757301
-2.363686
-1.964656
-1.575749
-1.207088
-0.858908
-0.535918
-0.247062
-0.007645
0.185867
0.324997
0.393268
0.415397
0.403390
0.386204
0.385027
0.397033
0.454710
0.566061
0.731087
0.954026
1.217221
1.493599
1.758441
2.004922
2.209027
2.359457
2.469632
2.515067
2.489877
2.404892
2.272352
2.142402
2.040231
1.995737
2.034345
2.130865
2.272115
2.439495
2.606876
2.772137
2.934339
3.077471
3.188352
3.254033
3.271689
3.262036
3.232609
3.209773
3.210244
3.250500
3.373857
3.575373
3.853399
4.199225
4.583188
4.998697
5.427624
5.847371
6.248519
6.618122
6.945115
7.241974
7.522825
7.808149
8.118427
8.448479
8.784182
9.100110
9.382609
9.625558
9.828251
9.996102
10.127464
10.213155
10.242111
10.213155
10.123932
9.983388
9.801176
9.561757
9.268900
8.953442
8.625742
8.311462
8.033906
7.789309
7.599798
7.467494
7.383215
7.351434
7.372621
7.447718
7.560482
7.694433
7.834035
7.970576
8.095111
8.190218
8.244364
8.214466
8.078630
7.829560
7.453129
6.971939
6.397523
5.768727
5.122274
4.455576
3.805592
3.189979
2.604029
2.076226
1.603981
1.196005
0.885491
0.659726
0.525304
0.470922
0.480574
0.583215
0.795560
1.117609
1.519699
1.979937
2.459479
2.914302
3.331930
3.696353
3.997215
4.218035
4.339274
4.342334
4.217563
3.971317
3.612543
3.173492
2.682179
2.156965
1.624454
1.082762
0.529063
-0.033582
-0.594578
-1.119556
-1.594861
-2.016256
-2.401633
-2.778298
-3.164616
-3.577065
-4.021060
-4.487655
-4.949542
-5.414724
-5.874021
-6.327668
-6.786494
-7.209301
-7.591381
-7.908252
-8.126247
-8.245133
-8.252431
-8.163444
-7.987353
-7.749348
-7.484505
-7.202712
-6.948699
-6.754716
-6.630182
-6.600049
-6.690684
-6.916448
-7.287464
-7.801849
-8.423347
-9.117118
-9.851381
-10.585879
-11.279415
-11.886553
-12.365860
-12.675668
-12.797378
-12.733816
-12.503580
-12.160815
-11.767435
-11.374761
-11.029406
-10.758443
-10.571052
-10.473590
-10.443693
-10.457582
-10.496897
-10.510787
-10.441104
-10.252536
-9.921542
-9.442471
-8.832273
-8.135677
-7.409655
-6.685986
-5.981386
-5.283378
-4.577837
-3.864056
-3.138975
-2.418132
-1.707411
-1.027765
-0.398263
0.201341
0.769399
1.313916
1.839600
2.332325
2.792092
3.228788
3.658893
4.103594
4.608090
5.183917
5.829663
6.529789
7.224031
7.879429
8.447016
8.898073
9.253551
9.501208
9.637749
9.680359
9.626448
9.493203
9.325586
9.154439
9.011776
8.942093
8.944682
8.992707
9.066156
9.120772
9.113945
9.013657
8.800606
8.470552
8.026322
7.498754
6.917983
6.308020
5.680400
5.030181
4.382787
3.753284
3.136729
2.573849
2.066528
1.578746
1.121567
0.677337
0.224396
-0.221246
-0.666889
-1.102880
-1.513916
-1.909180
-2.280667
-2.645562
-3.039413
-3.469283
-3.949297
-4.511470
-5.156510
-5.855931
-6.578423
-7.266309
-7.858852
-8.327565
-8.644671
-8.796750
-8.798869
-8.692696
-8.524374
-8.331804
-8.138764
-7.925948
-7.687943
-7.431575
-7.156845
-6.885881
-6.629043
-6.399983
-6.210238
-6.048508
-5.903257
-5.787432
-5.709274
-5.650421
-5.602161
-5.540482
-5.451731
-5.334965
-5.180061
-5.002793
-4.803867
-4.604941
-4.422258
-4.229924
-4.025818
-3.797230
-3.553810
-3.309213
-3.058731
-2.828965
-2.623212
-2.447592
-2.319290
-2.249137
-2.248195
-2.311287
-2.438648
-2.586960
-2.710083
-2.783297
-2.764700
-2.643461
-2.419816
-2.104594
-1.725810
-1.323956
-0.913155
-0.489171
-0.069896
0.337609
0.719218
1.067869
1.395803
1.721383
2.066973
2.462707
2.930949
3.466520
4.059768
4.671143
5.255916
5.799256
6.296454
6.747040
7.155016
7.538037
7.906228
8.250405
8.573396
8.894032
9.213021
9.528242
9.854528
10.174223
10.450836
10.658238
10.765116
10.774533
10.705085
10.585022
10.458368
10.323710
10.189287
10.065222
9.939510
9.844166
9.788843
9.778955
9.841811
9.980000
10.184105
10.417402
10.656349
10.901181
11.128593
11.348236
11.593774
11.861442
12.151474
12.460340
12.768263
13.061356
13.334203
13.597868
13.833519
14.009610
14.092006
14.042097
13.866712
13.567969
13.153636
12.663735
12.121337
11.531384
10.898115
10.237772
9.552005
8.843403
8.129857
7.400067
6.646971
5.885400
5.143604
4.472903
3.903432
3.463910
3.183765
3.048400
3.017560
3.067939
3.191768
3.355617
3.513345
3.609630
3.596211
3.467909
3.226607
2.895377
2.523890
2.121328
1.694283
1.264178
0.833602
0.421624
0.053197
-0.260612
-0.514862
-0.730033
-0.944497
-1.182267
-1.458175
-1.787993
-2.174076
-2.623485
-3.123274
-3.669439
-4.265983
-4.897134
-5.561243
-6.227235
-6.878160
-7.496834
-8.051474
-8.551969
-8.979485
-9.330725
-9.610635
-9.814506
-9.963995
-10.084764
-10.220129
-10.395514
-10.629988
-10.929202
-11.277618
-11.650518
-12.003642
-12.316039
-12.567464
-12.736728
-12.814180
-12.800997
-12.680700
-12.444107
-12.133359
-11.776939
-11.412986
-11.061275
-10.711683
-10.362326
-10.004258
-9.632301
-9.219382
-8.768325
-8.279131
-7.735791
-7.144898
-6.506450
-5.852700
-5.193065
-4.562856
-4.002331
-3.511489
-3.099982
-2.748036
-2.458474
-2.216232
-2.010243
-1.863344
-1.775299
-1.742105
-1.763528
-1.857224
-2.020603
-2.249899
-2.539225
-2.869279
-3.242413
-3.635794
-4.039062
-4.458573
-4.887737
-5.329142
-5.776433
-6.228196
-6.684433
-7.140669
-7.596435
-8.043726
-8.476656
-8.880866
-9.261769
-9.602652
-9.896451
-10.179186
-10.437673
-10.695689
-10.963122
-11.207955
-11.438192
-11.624171
-11.752473
-11.796025
-11.703507
-11.462206
-11.044814
-10.477226
-9.820887
-9.124056
-8.478310
-7.935912
-7.493330
-7.149859
-6.866653
-6.598986
-6.334143
-6.067182
-5.781152
-5.460515
-5.097033
-4.669518
-4.169730
-3.606145
-3.000891
-2.388103
-1.810864
-1.282590
-0.792219
-0.331510
0.115073
0.530582
0.900891
1.205284
1.415275
1.538397
1.588069
1.600546
1.599369
1.577475
1.534158
1.454351
1.322518
1.163848
1.021185
0.908891
0.850037
0.865574
0.930078
1.033190
1.192566
1.394788
1.650450
1.974146
2.326564
2.692635
3.042228
3.349916
3.621586
3.862887
4.118313
4.405991
4.730158
5.079045
5.415454
5.731382
6.012233
6.271896
6.524026
6.767917
7.030641
7.310550
7.615649
7.961946
8.336492
8.724693
9.099475
9.422701
9.664002
9.828792
9.930021
9.972631
9.976633
9.944145
9.888351
9.830909
9.788770
9.793242
9.834204
9.897060
9.957091
9.955678
9.888584
9.744038
9.525807
9.269675
8.988352
8.731278
8.508103
8.303526
8.114251
7.901906
7.657073
7.380459
7.073476
6.748602
6.378057
5.959251
5.505369
5.027003
4.574298
4.184214
3.875348
3.654763
3.514219
3.442417
3.428527
3.468547
3.556593
3.699019
3.885703
4.105346
4.356770
4.611255
4.855616
5.080673
5.282660
5.472405
5.640256
5.774678
5.882499
5.979254
6.090370
6.233032
6.415008
6.634416
6.871950
7.106660
7.316180
7.486385
7.606918
7.674246
7.691431
7.636815
7.507571
7.320179
7.082409
6.832162
6.602160
6.381575
6.161225
5.941817
5.704753
5.443205
5.166591
4.880796
4.592411
4.270126
3.897227
3.470653
2.987815
2.504505
2.053683
1.662657
1.365562
1.146860
0.985600
0.832815
0.642363
0.409065
0.134099
-0.166292
-0.477748
-0.784024
-1.058520
-1.296055
-1.492392
-1.633877
-1.738402
-1.833981
-1.930031
-2.060688
-2.251610
-2.519279
-2.886292
-3.358066
-3.943546
-4.622486
-5.374405
-6.185649
-7.012195
-7.816376
-8.534160
-9.101042
-9.474882
-9.603184
-9.481239
-9.140593
-8.612084
-7.932438
-7.132731
-6.252981
-5.323559
-4.347525
-3.345595
-2.356377
-1.409770
-0.538025
0.244497
0.932853
1.538578
2.097456
2.603129
3.046181
3.436501
3.756902
4.000086
4.158050
4.217845
4.184651
4.047874
3.816931
3.524073
3.177070
2.790281
2.384894
1.981391
1.597192
1.227118
0.878466
0.540879
0.184695
-0.185615
-0.581114
-1.009101
-1.451683
-1.906272
-2.348383
-2.735878
-3.054632
-3.312177
-3.519814
-3.695670
-3.851987
-4.007126
-4.186749
-4.410865
-4.699015
-5.071679
-5.531917
-6.049833
-6.583050
-7.088959
-7.545431
-7.958116
-8.335252
-8.687670
-9.000774
-9.251257
-9.449948
-9.599909
-9.718088
-9.825438
-9.926431
-10.052144
-10.208460
-10.401031
-10.624912
-10.840082
-11.027474
-11.150832
-11.166135
-11.034066
-10.718374
-10.203049
-9.472789
-8.540071
-7.459747
-6.302678
-5.139723
-4.041273
-3.044051
-2.174660
-1.466529
-0.941081
-0.639513
-0.590782
-0.797007
-1.223346
-1.792817
-2.453866
-3.147872
-3.812923
-4.409467
-4.905018
-5.285451
-5.548175
-5.736273
-5.868812
-5.962979
-6.073390
-6.193923
-6.344589
-6.532216
-6.732791
-6.931718
-7.088270
-7.233286
-7.368886
-7.502603
-7.674221
-7.856669
-8.067131
-8.294308
-8.502416
-8.666972
-8.719235
-8.623891
-8.358813
-7.935536
-7.411736
-6.819194
-6.192517
-5.563721
-4.928098
-4.276938
-3.625071
-2.990626
-2.403969
-1.911950
-1.526810
-1.215590
-0.950277
-0.689436
-0.384102
-0.024387
0.365697
0.744010
1.077830
1.342202
1.515232
1.581855
1.524413
1.330430
0.995668
0.560619
0.082960
-0.369275
-0.709922
-0.902493
-0.922739
-0.758183
-0.432368
0.031166
0.603933
1.233199
1.877297
2.513391
3.110170
3.690706
4.281364
4.862606
5.446202
6.047454
6.671306
7.316110
7.975510
8.641501
9.270532
9.823760
10.274581
10.578973
10.703744
10.628175
10.357681
9.912510
9.344921
8.753556
8.199622
7.750919
7.468184
7.366955
7.487958
7.832842
8.396192
9.173771
10.128853
11.230600
12.426042
13.663859
14.883078
16.010956
16.966744
17.630381
17.925593
17.833780
17.387196
16.667293
15.760000
14.760423
13.741543
12.751854
11.843854
11.055916
10.411112
9.914854
9.557493
9.335024
9.241093
9.243447
9.314542
9.402587
9.431543
9.380693
9.240620
9.008500
8.688805
8.297543
7.886977
7.488182
7.138825
6.861269
6.650100
6.513559
6.453763
6.516148
6.732730
7.083500
7.524434
7.979963
8.386291
8.689977
8.870541
8.918565
8.802976
8.500466
7.966071
7.196967
6.268957
5.268674
4.283929
3.411477
2.700520
2.176249
1.869737
1.758149
1.848078
2.147056
2.625185
3.251392
3.942808
4.611625
5.171208
5.577771
5.820485
5.886165
5.793411
5.539868
5.143192
4.644580
4.090175
3.562843
3.133680
2.866718
2.794915
2.884138
3.088008
3.358500
3.645237
3.925146
4.190930
4.446121
4.685539
4.883052
5.024066
5.101753
5.146482
5.221579
5.361887
5.580117
5.838133
6.057069
6.165831
6.115217
5.921940
5.622961
5.265364
4.880694
4.446116
3.948917
3.379210
2.763597
2.206602
1.825699
1.707284
1.869486
2.289938
2.922501
3.669711
4.460473
5.239228
5.955364
6.574272
7.025564
7.269455
7.284756
7.086771
6.740003
6.294596
5.832945
5.409667
5.046890
4.760153
4.545924
4.396906
4.266720
4.114877
3.885817
3.535518
3.058564
2.454487
1.781903
1.067886
0.344452
-0.323658
-0.906313
-1.345600
-1.620566
-1.781120
-1.866341
-1.883527
-1.824908
-1.652349
-1.339246
-0.895016
-0.348616
0.231213
0.765843
1.186531
1.492100
1.699972
1.803320
1.788959
1.583911
1.094717
0.279000
-0.846760
-2.216175
-3.684700
-5.096254
-6.309589
-7.193811
-7.703487
-7.808012
-7.460774
-6.673072
-5.517887
-4.113866
-2.649814
-1.351966
-0.406771
0.074889
0.070416
-0.352156
-1.031096
-1.772892
-2.400276
-2.811783
-2.958448
-2.795069
-2.324708
-1.532534
-0.431494
0.902844
2.372545
3.831653
5.181528
6.363316
7.366894
8.217687
8.897097
9.374050
9.577920
9.497172
9.214908
8.844363
8.551976
8.443213
8.569631
8.950063
9.553434
10.370327
11.374376
12.518497
13.712056
14.803444
15.642702
16.091640
16.083871
15.641524
14.849820
13.854716
12.791342
11.747742
10.782772
9.917853
9.171584
8.591519
8.234864
8.137166
8.297719
8.694159
9.259628
9.933388
10.657057
11.362127
12.002929
12.493301
12.741899
12.668214
12.220688
11.435104
10.419284
9.333781
8.294184
7.332980
6.435574
5.539580
4.609687
3.677675
2.814169
2.117337
1.639442
1.369184
1.247474
1.194505
1.189326
1.211454
1.242764
1.245589
1.115875
0.770519
0.153258
-0.729552
-1.829416
-3.111256
-4.520457
-6.002636
-7.512359
-8.947455
-10.190687
-11.188380
-11.906399
-12.352042
-12.541552
-12.451153
-12.077548
-11.446398
-10.621030
-9.722918
-8.887192
-8.214138
-7.817933
-7.784269
-8.119737
-8.876364
-10.075338
-11.635676
-13.459208
-15.352895
-17.139702
-18.716990
-19.986588
-20.907536
-21.460528
-21.698770
-21.645331
-21.333405
-20.874579
-20.291925
-19.652300
-19.004671
-18.342917
-17.731307
-17.229400
-16.925243
-16.886164
-17.116401
-17.609127
-18.320790
-19.176998
-20.075581
-20.936027
-21.659696
-22.103926
-22.185851
-21.843792
-21.081045
-20.016494
-18.770673
-17.466704
-16.210054
-15.080764
-14.166409
-13.512423
-13.144468
-13.043475
-13.155063
-13.439446
-13.805282
-14.151580
-14.414069
-14.576271
-14.682443
-14.767664
-14.847471
-14.917860
-14.980246
-15.060052
-15.160575
-15.277577
-15.381161
-15.429892
-15.387282
-15.195418
-14.850770
-14.430082
-14.026814
-13.712534
-13.515021
-13.409555
-13.364355
-13.376832
-13.444397
-13.567520
-13.749497
-13.983971
-14.256819
-14.519779
-14.729770
-14.862074
-14.871256
-14.732361
-14.442799
-13.993861
-13.378484
-12.574304
-11.587205
-10.470392
-9.288604
-8.138832
-7.094998
-6.191001
-5.447322
-4.827472
-4.249762
-3.658162
-3.046551
-2.445770
-1.921028
-1.488805
-1.157339
-0.910859
-0.690039
-0.486876
-0.247929
0.018327
0.266219
0.459260
0.549895
0.607101
0.691615
0.875239
1.193286
1.570186
1.951089
2.289617
2.565289
2.811063
3.113807
3.555212
4.132216
4.767839
5.359204
5.824856
6.145728
6.369844
6.573007
6.852210
7.267955
7.794344
8.361461
8.877964
9.286645
9.589625
9.801735
9.912380
9.904140
9.765009
9.452141
8.964123
8.325439
7.519139
6.570177
5.514807
4.387871
3.247044
2.138941
1.130183
0.287865
-0.341403
-0.716185
-0.812941
-0.658038
-0.343287
0.008189
0.251138
0.282448
0.069867
-0.396728
-1.074962
-1.913985
-2.921095
-4.080754
-5.331519
-6.577341
-7.686386
-8.574846
-9.206703
-9.593492
-9.744865
-9.600320
-9.133019
-8.355911
-7.315373
-6.118048
-4.845389
-3.588268
-2.441557
-1.450456
-0.680175
-0.158023
0.175326
0.423925
0.723844
1.225045
1.999092
2.988780
4.116658
5.268784
6.365586
7.447793
8.538946
9.647990
10.753739
11.804165
12.793853
13.728925
14.647989
15.581413
16.508010
17.349857
18.006432
18.428533
18.578492
18.486444
18.235726
17.869418
17.440019
16.975308
16.483288
16.003746
15.560928
15.200270
14.958498
14.811598
14.719314
14.617850
14.424808
14.047436
13.376736
12.338786
10.939238
9.245891
7.389400
5.507720
3.687248
2.012498
0.575989
-0.523639
-1.162794
-1.256960
-0.833918
-0.050219
0.849306
1.650897
2.266038
2.724393
3.087639
3.353188
3.481254
3.418633
3.186513
2.939326
2.813143
2.872703
3.078691
3.319051
3.487137
3.485960
3.306808
2.979109
2.533466
2.031559
1.551781
1.191123
0.993373
0.939463
0.967006
1.006556
1.031510
1.040455
1.055521
1.059994
0.987956
0.762428
0.351862
-0.170997
-0.670315
-1.030502
-1.237668
-1.342193
-1.430710
-1.596914
-1.859874
-2.204523
-2.623799
-3.130886
-3.753090
-4.529728
-5.440082
-6.357263
-7.129898
-7.617445
-7.747866
-7.543525
-7.061394
-6.377510
-5.550494
-4.649793
-3.780402
-3.044492
-2.564715
-2.411224
-2.600969
-3.113706
-3.856208
-4.701352
-5.500589
-6.147748
-6.567260
-6.732051
-6.720516
-6.611048
-6.446493
-6.237444
-5.989080
-5.728946
-5.476109
-5.265883
-5.138759
-5.124399
-5.223744
-5.385240
-5.518015
-5.538497
-5.409489
-5.112865
-4.674521
-4.123883
-3.430113
-2.576730
-1.563500
-0.445510
0.680014
1.751392
2.709064
3.517246
4.173350
4.703507
5.134553
5.497093
5.802428
6.003943
6.075980
5.975693
5.706848
5.338421
4.946689
4.628406
4.420769
4.333665
4.326602
4.348260
4.403582
4.513521
4.716685
4.967167
5.179277
5.316053
5.365490
5.357721
5.345950
5.368079
5.394680
5.372551
5.289213
5.178568
5.159734
5.385733
5.937077
6.818710
7.947293
9.177106
10.402917
11.566578
12.662203
13.713100
14.699257
15.568648
16.225929
16.563516
16.527967
16.168251
15.634799
15.061796
14.536818
14.066692
13.593035
13.083829
12.535075
11.969840
11.412846
10.889516
10.416565
9.978455
9.521042
8.987824
8.360205
7.660548
6.953359
6.281952
5.649624
5.020828
4.330823
3.562661
2.741529
1.920398
1.160710
0.447400
-0.268501
-1.024422
-1.818480
-2.553449
-3.112327
-3.443793
-3.595872
-3.672147
-3.751247
-3.828228
-3.794800
-3.561503
-3.121275
-2.550627
-1.990808
-1.548226
-1.273732
-1.158378
-1.175093
-1.350949
-1.717727
-2.271426
-2.979087
-3.747014
-4.456323
-5.013788
-5.341017
-5.390454
-5.151272
-4.673142
-4.058472
-3.425438
-2.859969
-2.330755
-1.787415
-1.172744
-0.445309
0.263057
0.837943
1.248037
1.519236
1.791141
2.129198
2.539057
3.006828
3.450352
3.816659
4.100335
4.287255
4.380479
4.425679
4.451810
4.489711
4.513488
4.448513
4.263946
3.935776
3.512027
3.070386
2.680537
2.427465
2.332121
2.391681
2.537874
2.673238
2.774702
2.816135
2.811897
2.755397
2.596726
2.325291
1.890948
1.288519
0.534010
-0.342915
-1.245029
-2.095823
-2.806779
-3.327520
-3.630030
-3.695005
-3.555403
-3.238298
-2.762052
-2.152090
-1.484215
-0.869073
-0.378231
-0.022989
0.255037
0.546246
0.941510
1.496620
2.171558
2.874274
3.509190
3.958364
4.130453
4.005682
3.631370
3.120753
2.587535
2.056436
1.529575
1.041793
0.648883
0.423354
0.426885
0.700438
1.176214
1.692716
2.101163
2.344347
2.445576
2.460406
2.455462
2.404141
2.236760
1.909296
1.388556
0.717149
0.000543
-0.625900
-1.053415
-1.222209
-1.134399
-0.869792
-0.523966
-0.147301
0.316939
0.935377
1.661870
2.370943
2.872614
3.040701
2.901099
2.561629
2.170602
1.850907
1.603014
1.313452
0.885701
0.315994
-0.327398
-0.938303
-1.424908
-1.746016
-1.930112
-2.041699
-2.126685
-2.221322
-2.304424
-2.319256
-2.266994
-2.178713
-2.150228
-2.295009
-2.673088
-3.301413
-4.068870
-4.813020
-5.414037
-5.829782
-6.080736
-6.173490
-6.133470
-5.971975
-5.617203
-5.002532
-4.107952
-2.974895
-1.754970
-0.557880
0.570233
1.553330
2.382465
3.092950
3.726454
4.310756
4.823727
5.256186
5.646977
6.068371
6.575457
7.169882
7.815157
8.471496
9.103823
9.664819
10.116111
10.442162
10.622255
10.643442
10.547156
10.447575
10.481475
10.755028
11.316966
12.119263
13.019022
13.888649
14.645511
