EVENT_NAME: 202302060117
EVENT_ID: 13194
EVENT_DATE_YYYYMMDD: 2023/02/06
EVENT_TIME_HHMMSS: 01:17:32.00000
EVENT_LATITUDE_DEGREE: 37.288
EVENT_LONGITUDE_DEGREE: 37.043
EVENT_DEPTH_KM: 8.6
HYPOCENTER_REFERENCE: AFAD
MAGNITUDE_W: 7.7
MAGNITUDE_W_REFERENCE: AFAD
MAGNITUDE_L: 
MAGNITUDE_L_REFERENCE: 
FOCAL_MECHANISM: 
NETWORK: TK
STATION_CODE: 3133
STATION_NAME: 
STATION_LATITUDE_DEGREE: 36.2432
STATION_LONGITUDE_DEGREE: 36.5736
STATION_ELEVATION_M: 170.0
LOCATION: Kahramanmaras_Pazarck_Turkiye
SENSOR_DEPTH_M: 
VS30_M/S: 377
SITE_CLASSIFICATION_EC8: B
MORPHOLOGIC_CLASSIFICATION: 
EPICENTRAL_DISTANCE_KM: 123.47
EARTHQUAKE_BACKAZIMUTH_DEGREE: 
DATE_TIME_FIRST_SAMPLE_YYYYMMDD_HHMMSS: 2023/02/06 01:17:33.3250540
DATE_TIME_FIRST_SAMPLE_PRECISION: millisecond
SAMPLING_INTERVAL_S: 0.01
NDATA: 12501
DURATION_S: 
STREAM: HNE
UNITS: cm/s^2
INSTRUMENT: sensor = GMS+/GEOSIG | digitizer = 
INSTRUMENT_ANALOG/DIGITAL: 
INSTRUMENTAL_FREQUENCY_HZ: 
INSTRUMENTAL_DAMPING: 
FULL_SCALE_G: 
N_BIT_DIGITAL_CONVERTER: 
PGA_CM/S^2: 147.223
TIME_PGA_S: 
BASELINE_CORRECTION: BASELINE REMOVED
FILTER_TYPE: BUTTERWORTH
FILTER_ORDER: 
LOW_CUT_FREQUENCY_HZ: 
HIGH_CUT_FREQUENCY_HZ: 
LATE/NORMAL_TRIGGERED: 
DATABASE_VERSION: 
HEADER_FORMAT: DYNA 1.2
DATA_TYPE: Acceleration
PROCESSING: Automatic Paolucci et al., 2011
DATA_TIMESTAMP_YYYYMMDD_HHMMSS: 
DATA_LICENSE: U (unknown license)
DATA_CITATION: Turkish Accelerometric Archive v 1.0 - Disaster And Emergency Management Presidency, Earthquake Department
DATA_CREATOR: AFAD
ORIGINAL_DATA_MEDIATOR_CITATION: : AFAD - Disaster And Emergency Management Presidency
ORIGINAL_DATA_MEDIATOR: AFAD PROCESS SERVICE
ORIGINAL_DATA_CREATOR_CITATION: AFAD PROCESS SERVICE
ORIGINAL_DATA_CREATOR: network: TK
USER1: GuestUser
USER2: 
USER3: 
USER4: 
USER5: 
[...]
8.304961
10.180223
7.689826
5.369836
5.976652
7.724368
6.935970
4.934196
6.059768
9.027094
9.774444
7.676556
5.074458
4.706625
7.061678
8.132179
2.432609
-5.835287
-10.083534
-10.023270
-8.065402
-9.408404
-12.364566
-11.042349
-5.783350
-1.501078
-1.543423
-6.000264
-13.368843
-20.714563
-24.254163
-19.973969
-13.600306
-10.311127
-6.598786
-3.305451
-1.344725
-1.599819
-6.722445
-14.455479
-17.210060
-11.762210
-5.356855
-4.640417
-8.966595
-15.216094
-18.751538
-17.082531
-13.930250
-12.517115
-13.444229
-15.028036
-15.436394
-14.939201
-12.408544
-8.285770
-4.319635
-2.741028
-4.662274
-7.017073
-9.060150
-10.680585
-10.106500
-7.396343
-3.694913
-2.186962
-4.637875
-8.791047
-10.759831
-10.273547
-10.497210
-12.531455
-18.398056
-26.770639
-32.444232
-31.740783
-23.488998
-13.365584
-7.775121
-7.981899
-9.578955
-7.434053
-2.524702
0.506268
-0.223163
-1.096505
0.648614
6.294147
12.648848
15.439792
15.905553
13.768960
10.730971
7.651161
5.397152
8.971037
15.626548
19.182769
17.155018
12.940021
12.709345
13.047560
7.790115
0.862362
0.998218
7.751662
12.827265
10.857962
3.861630
0.924432
8.130911
21.093068
28.549184
26.063982
21.840413
21.882233
22.408781
19.603544
14.535989
8.527815
2.687450
-1.028533
-1.172187
1.570441
5.878949
8.886799
8.905240
10.089780
13.796666
16.104961
13.880046
10.032102
9.995732
15.909866
24.347645
26.301617
20.021985
14.113820
16.387826
23.010088
27.383278
29.799637
32.232881
35.378408
33.698227
27.678622
21.150912
12.966401
8.525147
12.620645
20.241974
23.226445
20.714227
15.378852
8.379662
2.277971
-1.170191
-5.515331
-12.098372
-16.069707
-17.622602
-17.040984
-14.460192
-13.806099
-16.519117
-22.429360
-27.773827
-28.449486
-24.509588
-20.320313
-19.019658
-16.960480
-13.159558
-9.703089
-8.570243
-10.473305
-12.023343
-12.937728
-14.712465
-17.247283
-19.570650
-16.595270
-9.139933
-6.054672
-8.730284
-11.385634
-10.758037
-8.830302
-6.491094
-2.840578
3.433334
13.882756
21.910622
23.728475
24.276324
25.939096
29.293996
30.529709
24.123570
15.473036
13.306310
16.779404
18.514132
13.416444
2.629059
-10.386615
-20.859941
-25.197548
-25.897885
-26.758758
-27.407661
-27.650027
-28.532461
-29.587640
-30.701008
-30.092894
-26.342367
-22.310511
-21.233776
-21.483675
-18.315028
-11.867331
-6.563132
-6.325187
-9.356422
-8.645439
-2.310221
6.470971
11.631778
10.001732
6.436674
5.559696
7.626926
6.955424
1.479773
-4.284220
-8.058650
-9.178512
-11.285232
-15.911442
-21.275392
-25.061252
-23.475111
-20.772229
-22.908562
-28.851016
-32.818713
-30.533018
-26.367382
-29.338870
-37.549357
-38.487641
-29.615789
-17.290843
-11.576471
-18.038460
-27.301007
-31.025562
-29.635287
-27.195029
-25.137410
-19.227172
-8.215353
3.952174
11.676371
11.138130
5.122681
-0.674302
-3.156387
-3.472007
-3.332255
0.322937
7.228086
15.338038
20.902784
18.530061
14.584964
12.483179
11.470601
11.741796
9.913547
6.590334
2.732258
3.798084
9.389846
13.181156
14.765478
13.569764
13.412862
16.021449
18.849020
19.648843
17.055318
13.441164
10.064698
8.449719
7.920569
5.100786
0.535882
-5.686861
-12.523696
-19.493012
-24.143639
-19.909165
-12.695152
-10.174626
-11.176294
-14.322346
-17.125244
-18.673723
-18.621512
-14.424184
-5.231260
6.895484
15.675378
14.582791
8.665016
6.194101
8.438493
13.875174
18.398770
18.270442
14.715776
12.652956
15.083602
21.892117
26.304532
24.507196
25.345724
32.353741
37.880821
36.341693
29.586426
20.583647
14.023725
12.437839
10.943652
7.964371
5.299409
4.373594
2.540669
-4.319544
-12.729793
-17.331584
-15.644654
-9.828452
-3.771706
-1.012453
-2.089194
-2.738616
-6.838276
-14.095415
-14.888748
-7.798125
3.339162
11.827856
13.512968
9.490979
4.152746
1.519995
0.035159
-2.124294
-3.555617
-4.675739
-9.715499
-15.865247
-16.950041
-11.963278
-6.223449
-5.829643
-8.200547
-11.319063
-14.913215
-16.958630
-16.037495
-10.268312
-0.332191
7.575662
5.865607
-1.261388
-5.748102
-8.520867
-11.225574
-14.838428
-19.097845
-22.792787
-24.527519
-25.355142
-29.999535
-33.153120
-27.599544
-14.900272
-2.572988
-1.587691
-8.083969
-11.161702
-8.081376
-3.960161
-9.593231
-20.291775
-23.060903
-15.956253
-4.566471
1.082440
-1.664608
-3.882769
1.168935
9.571126
12.668856
10.357179
10.543430
18.415955
29.559736
34.594036
29.992505
19.186417
11.482477
12.312433
15.017134
10.933840
-0.190724
-11.959512
-18.477092
-18.856095
-17.914699
-19.605271
-21.026204
-18.681281
-16.371947
-17.143980
-20.140145
-25.521760
-31.845552
-35.122267
-33.502097
-33.530934
-34.259066
-26.656441
-17.985130
-15.922055
-14.122905
-11.076869
-12.257257
-18.107233
-26.555408
-33.448871
-30.673513
-19.852883
-9.542697
-3.140199
0.433166
6.221572
14.658572
24.092302
32.208488
32.136790
28.537184
29.145038
29.407401
25.533999
20.604901
17.644323
16.230144
14.194081
8.191361
0.241941
0.865122
10.484066
15.468490
11.764457
7.166302
5.512877
5.768746
4.729672
-2.347707
-16.111513
-26.716281
-25.111957
-16.926932
-11.586106
-11.819640
-12.696619
-8.509941
-0.233218
4.820305
-0.032163
-9.092610
-9.020917
1.647230
9.189589
6.795306
0.913118
-2.156821
-0.249608
4.353218
4.845475
1.071824
0.161076
4.041746
9.671175
14.274779
19.957720
26.840788
32.198239
34.332750
34.012973
34.952291
35.728216
32.222386
20.825065
6.413398
-0.703206
1.685877
8.093570
11.174675
11.174153
13.718837
21.546162
30.730514
34.939531
33.602244
30.839609
30.817267
33.503784
38.388718
42.509154
42.583705
43.505879
45.593112
46.166677
42.160534
32.338446
27.174517
32.420268
39.019150
38.480130
37.783430
40.876484
46.582803
57.468376
65.132566
62.541898
56.330066
51.376029
41.138313
29.206910
22.793238
15.228534
2.935793
-8.249296
-8.541537
-2.762743
-0.054145
-0.809552
-7.734188
-14.877289
-16.130152
-11.299251
0.406929
9.140064
5.605659
-5.002746
-13.783943
-16.449424
-14.494153
-9.764821
-4.851053
-1.478489
9.716727
27.682794
37.137045
28.386760
3.932725
-17.536577
-28.007565
-34.191602
-41.999969
-52.821383
-56.798173
-54.032946
-53.875529
-57.560339
-64.336128
-73.084335
-79.240317
-79.612827
-78.464655
-75.067932
-63.777641
-48.399123
-39.249060
-39.489088
-40.029927
-34.157876
-25.490721
-14.538129
1.870110
14.308834
19.192469
25.096212
31.043856
32.375944
32.804818
36.397146
34.217951
23.204308
10.064465
0.894914
-1.025293
-1.701991
-6.942811
-19.044621
-29.435341
-31.755850
-31.332691
-33.344855
-43.315270
-57.363522
-70.083061
-80.440270
-84.478365
-80.217394
-67.798671
-49.902742
-38.213967
-35.282488
-29.413814
-25.827201
-28.577886
-27.515957
-18.933227
-5.425557
2.698163
1.425557
-1.374743
3.196390
17.279966
30.493578
33.000596
25.721896
16.280369
10.098929
10.422857
15.748097
17.216303
12.445403
12.345130
21.337774
24.671633
16.633632
8.276635
7.230288
11.188629
11.456188
5.502045
0.642304
4.826124
14.823809
17.582802
10.195000
5.646981
14.720152
31.018509
38.404228
36.066574
38.465009
48.822733
55.155353
48.403722
33.883213
20.985213
13.692486
9.471775
-0.103274
-12.589281
-17.219387
-14.878101
-13.172987
-13.690447
-14.821219
-12.896861
-4.203470
3.729840
7.727926
13.422816
20.744112
27.879935
30.111599
22.470523
5.253622
-12.429562
-18.905579
-17.029797
-17.806766
-18.824539
-15.607056
-13.931035
-12.109805
-9.019348
-5.663409
0.241633
0.049662
-5.985788
-4.057014
2.438221
5.069148
7.135859
11.663092
22.615685
40.756575
56.393563
59.493631
50.552416
38.961569
31.580521
22.776984
9.179689
-0.584990
-4.147969
-6.175460
-12.940858
-23.134414
-29.812789
-29.737719
-18.748759
-6.180929
-4.538160
-13.325851
-26.332174
-30.550288
-25.322720
-20.918098
-19.141288
-16.583875
-7.436150
5.960339
16.803310
23.534154
28.708729
41.937148
65.237289
84.290744
87.244303
73.875864
52.675422
38.016976
32.694588
26.277799
16.283745
6.353334
4.382473
7.830110
3.489386
-1.151630
-3.028456
-7.712334
-12.738846
-18.234238
-20.859196
-21.202611
-23.340244
-27.079086
-29.536233
-27.796570
-22.761750
-18.756651
-19.899632
-25.187211
-30.585450
-32.511632
-30.595846
-24.943039
-19.533374
-16.957777
-12.427427
-6.925545
-3.468556
-2.379871
1.076599
11.155592
19.093577
14.251241
-2.591594
-18.841379
-27.044852
-27.662323
-23.506298
-25.920324
-36.342216
-43.092547
-42.131149
-38.475957
-37.994869
-39.363069
-35.423951
-27.843665
-23.679328
-22.370360
-20.133760
-11.221645
4.973584
19.031962
24.838032
24.142371
25.239369
32.521960
36.835664
31.929684
16.536095
-4.084545
-13.397228
-11.871094
-12.230615
-17.430911
-24.593235
-28.478326
-25.043158
-16.237028
-6.928766
4.791181
16.626465
25.128667
33.562549
37.458286
29.929171
14.086702
-1.960724
-16.689308
-30.127105
-42.247359
-51.261828
-53.691959
-45.819695
-27.299803
-13.858114
-13.637054
-18.411331
-24.261307
-30.310525
-30.850845
-24.261574
-19.477171
-20.176728
-13.959965
2.576599
14.749841
20.667871
22.697176
23.185277
26.072855
29.981581
38.854212
43.394952
42.695915
48.909301
57.764268
62.820648
57.693606
52.087032
52.784507
50.611026
48.265579
43.094896
37.823424
35.501356
24.830087
8.361577
0.423327
6.618270
17.360451
21.703248
17.892970
17.618653
26.408158
33.951037
39.773472
45.921397
49.863893
52.450919
56.985685
63.422732
67.700328
67.541607
63.566117
59.686740
53.438540
42.125644
28.692263
15.441499
7.867703
6.462876
7.193081
8.584915
10.661497
13.486471
13.147212
6.830173
-2.383018
-9.485335
-13.501869
-17.539185
-24.348224
-34.494242
-45.106544
-51.388254
-50.706106
-44.257889
-39.265931
-42.091949
-49.345191
-53.958672
-50.804832
-40.636739
-32.377160
-33.693147
-39.966285
-46.102525
-53.671386
-59.669170
-63.640764
-67.477538
-70.544101
-75.659194
-83.760059
-92.224339
-98.426041
-100.981381
-98.612819
-91.761702
-84.739658
-78.582381
-73.785250
-71.296935
-68.508589
-63.626253
-56.946063
-50.608508
-46.680300
-45.015190
-46.425992
-47.013589
-40.531603
-34.739040
-31.996673
-27.972610
-19.285454
-2.122330
19.659728
38.418347
45.445326
55.780710
69.620363
78.491695
92.803347
99.657841
97.155234
89.585854
77.021916
69.280570
63.067958
53.931918
38.304277
18.166805
3.988410
-9.834883
-29.646346
-46.563734
-49.143232
-36.316154
-17.122684
-1.400492
1.963759
-0.969023
4.608971
22.236561
35.947888
37.757949
42.843943
60.136431
84.665275
94.456445
83.312139
73.491870
77.035102
74.755896
55.066264
25.101772
0.046374
-1.626014
-10.493974
-17.179104
-13.765496
-26.156429
-27.462284
-21.439308
-12.479135
-1.667856
2.824048
4.566049
-3.313234
-14.288950
-23.022091
-28.330191
-28.787904
-22.244872
-12.243810
-1.847640
10.278584
18.651941
15.367952
-0.018104
-16.509993
-25.849431
-27.630403
-29.350848
-42.189620
-61.491159
-75.809569
-81.552261
-75.068975
-64.491228
-52.258239
-38.838631
-35.860134
-34.722613
-33.328701
-33.843823
-28.762765
-25.204466
-26.108981
-28.229728
-27.624212
-19.691681
-10.137419
-4.599689
2.915654
15.403995
27.656466
36.962650
36.685994
27.802708
21.784143
23.312875
24.659249
19.312184
14.599472
10.340315
6.648490
10.914397
16.698127
12.810698
-3.400122
-21.730128
-33.358382
-37.836783
-32.050195
-21.765726
-13.501732
-4.683652
3.550209
12.897696
25.353825
36.490853
43.051290
42.803988
37.920868
34.348797
35.102901
38.286614
40.851300
46.802841
59.194288
74.708925
86.079224
89.969766
87.951627
76.927333
63.578117
48.973702
27.936914
16.937558
18.581627
21.827165
20.409090
4.034876
-17.782775
-30.741040
-29.158276
-11.696939
6.605268
17.719696
21.320336
21.662448
27.935062
30.880308
23.907096
11.296400
-4.690240
-20.009537
-29.586923
-31.290223
-29.872932
-22.849069
-9.291264
3.035760
12.215956
15.490329
11.617186
1.907838
-12.800484
-27.511663
-40.119242
-50.553343
-57.683195
-59.044641
-49.650916
-34.786998
-21.480388
-9.334942
-0.382562
8.749837
15.034659
13.975064
16.117107
20.761236
26.473011
33.292176
38.589101
45.828311
46.364730
43.185688
39.095639
33.070839
39.937802
52.687729
58.688106
54.916013
41.461851
29.061567
26.760280
31.116846
27.352286
8.535995
-22.111947
-51.441826
-65.989352
-65.568270
-59.176683
-62.593153
-76.223438
-93.093029
-99.538394
-91.521179
-81.827162
-78.653579
-86.338556
-74.752130
-54.985352
-33.712699
-31.682615
-55.912211
-49.120061
-75.267004
-87.760025
-67.860246
-84.767504
-74.479657
-65.844454
-68.027806
-63.145211
-60.003840
-52.841261
-49.192044
-39.396717
-40.087702
-46.969217
-45.807277
-37.502240
-20.758381
-3.136247
10.766010
21.601707
32.169324
38.830031
38.447390
35.588382
30.015578
25.398461
34.997662
54.057092
68.941272
77.659082
78.023793
72.532037
62.976731
50.160819
23.628640
-7.578582
-23.696404
-30.167745
-18.903172
-22.735530
-26.788951
-2.392589
9.272806
26.149926
39.143515
32.814007
23.553279
11.792283
7.617031
1.184396
-9.242951
-15.167221
-19.698615
-20.489091
-11.421115
2.187865
18.258145
34.548189
40.342050
39.896806
40.378413
45.037348
50.814065
52.936886
51.624536
49.609514
55.190625
64.594482
69.853221
66.022941
60.508325
67.677398
77.603907
76.081405
62.716602
54.273103
60.834059
70.687834
79.688530
90.874654
108.596799
132.602989
147.222725
143.174240
132.707928
123.631894
112.859056
98.416736
67.296277
20.920946
-13.226848
-22.985033
-14.031614
-1.680691
5.856213
12.516920
21.418905
32.537489
38.296541
38.614495
37.281623
40.652629
46.554554
53.489056
55.001682
44.170656
30.941193
12.153216
13.578820
29.826782
31.819719
33.605621
34.475581
40.347633
55.153363
67.302187
67.991608
63.881817
66.021783
71.034003
69.267319
56.475565
41.984149
26.535488
15.947605
7.580218
-12.375416
-33.727043
-45.280484
-49.613155
-47.865179
-37.791901
-25.403571
-13.906765
-6.143863
-9.241857
-21.593045
-43.108845
-69.019659
-89.956956
-99.317176
-96.443106
-93.590078
-90.041910
-78.172856
-61.297815
-50.200531
-58.507133
-77.814386
-89.311457
-82.860643
-64.429591
-52.125167
-51.609270
-55.368893
-50.559033
-39.558903
-37.260479
-37.131896
-30.501842
-21.069671
-4.195409
14.842201
30.100966
46.409713
56.843030
59.512662
65.778522
69.895841
63.478013
56.347381
47.126136
36.353558
21.935917
4.667841
0.691831
3.165079
4.664717
-0.075531
-8.587348
-8.344987
-11.459347
-20.213009
-20.887889
-18.162926
-20.549676
-26.583827
-31.510069
-29.444137
-23.931085
-22.102581
-25.662183
-32.417710
-43.035207
-54.075606
-60.195480
-58.876641
-54.533324
-62.683285
-75.607521
-90.668868
-84.939688
-61.014026
-45.200656
-13.520402
4.061468
8.266589
22.128582
34.255326
52.086833
55.356529
47.180591
40.264268
33.017779
29.008519
25.383715
23.732627
17.045939
7.351917
4.805150
8.700368
18.116433
25.957525
28.153601
24.753236
15.089867
9.761245
15.582902
25.759308
30.119510
26.265071
19.674497
18.474107
23.863509
27.372452
26.911362
24.955567
23.642177
25.667586
29.396552
34.051331
35.115857
24.931913
11.850258
1.731516
-8.317869
-13.268268
-15.742560
-17.479111
-15.630605
-14.911050
-16.120792
-16.764499
-18.089838
-19.013315
-12.572891
0.084038
10.034966
9.521922
1.143105
-1.792795
0.201441
4.314345
13.336602
23.670167
32.799968
40.507020
45.081012
42.747514
38.644217
40.928874
52.280989
73.392586
93.310809
100.439098
93.052075
70.615397
45.864967
39.116973
40.217088
27.033344
8.431880
1.154739
1.071351
-2.194713
-11.639098
-23.479323
-30.044440
-23.571805
-4.742010
8.220667
4.965253
-6.313613
-16.493920
-15.663704
-9.415509
-6.928493
-7.145142
-10.225992
-13.903010
-13.575185
-3.551522
4.405167
4.990941
9.151641
13.027117
18.237020
25.761455
25.267893
22.802693
26.003551
24.603400
19.725735
12.037382
4.009771
8.652860
12.750177
7.271410
-0.019499
-3.495196
-0.613333
9.605934
22.676415
21.388223
11.903315
8.592310
10.624472
18.562198
20.628910
10.955409
0.389866
-3.740966
3.366282
17.683129
24.172389
19.470328
7.260194
-9.822927
-22.338028
-30.605664
-41.140814
-53.368353
-59.633957
-61.302709
-61.661451
-55.110886
-49.438855
-43.008563
-29.724293
-12.457522
8.188830
23.241080
28.269925
23.024429
15.455309
15.290614
13.324168
7.887483
0.061712
-8.590900
-7.397269
-10.092104
-24.974471
-43.080037
-61.932957
-72.905816
-74.633535
-69.836923
-57.890718
-37.129288
-15.582581
-6.699819
-9.920424
-25.440001
-44.268502
-57.672789
-66.715313
-63.837347
-54.522851
-45.638530
-35.813590
-28.426832
-16.991591
2.454634
23.232428
33.885768
26.890995
5.608726
-14.616287
-15.721343
-7.861027
-11.294382
-19.805681
-19.934009
-10.336625
11.471669
31.710445
35.176526
31.121546
24.817496
20.955264
16.032919
3.088681
-5.926307
-9.130027
-13.282680
-14.243304
-15.785289
-14.820254
-3.637507
2.118948
-3.262147
-14.795325
-18.867710
-5.085465
5.390194
9.259434
11.339913
9.909109
13.711849
11.604090
-4.316309
-23.772409
-41.867845
-53.874321
-57.872412
-55.005096
-44.751799
-31.475842
-19.464955
-14.101789
-14.176864
-12.292250
-7.136379
0.063087
0.352726
-5.077985
-10.191259
-15.787182
-14.184936
-4.948111
9.603826
28.032799
43.953713
53.393158
52.740618
46.225117
41.500715
38.987978
36.884374
35.787632
34.981050
30.601880
21.450773
10.806520
0.263057
-13.503086
-33.289352
-54.246391
-69.519968
-80.516206
-86.536590
-83.864620
-72.981385
-56.850579
-39.341704
-24.464537
-16.634875
-11.146241
-5.998682
-3.958467
-5.468241
-14.534923
-22.960498
-21.432026
-12.817864
-5.723865
-7.570038
-13.061534
-17.833733
-21.148114
-26.035910
-43.347626
-66.529318
-74.734090
-66.933262
-58.832402
-56.258364
-53.945912
-45.554891
-40.139511
-47.082331
-53.610561
-57.412787
-55.385560
-39.210334
-20.277411
-8.964260
-10.515077
-14.949318
-10.425462
-2.145362
5.435703
11.088250
18.751661
24.998038
23.894802
23.078608
24.972574
25.315205
25.213114
18.982318
6.524366
2.910472
8.112063
11.404359
12.783984
20.857309
37.459594
49.859613
47.179845
39.638000
38.713744
44.191727
57.225840
66.237966
66.956222
67.944117
69.136969
68.667566
59.409175
41.134499
23.614189
14.352941
16.789302
20.133032
19.935606
23.610541
31.674514
45.726397
46.882882
32.738256
27.609656
43.247942
64.634633
72.555474
68.070838
47.334861
45.493624
45.746116
38.089714
48.130001
39.180214
38.580668
55.145546
69.713069
86.413287
86.955680
83.202291
87.406632
82.618068
76.242841
46.538376
14.396769
-1.622861
-26.046503
-7.617011
-26.066251
-43.499019
-17.750565
-38.550445
-31.049129
-26.422664
-40.059963
-46.145289
-59.060433
-57.220759
-59.291631
-62.744209
-69.140217
-72.027800
-64.536615
-61.304325
-64.791192
-72.576180
-79.022843
-78.316017
-80.151539
-85.912934
-85.363268
-74.211693
-53.202185
-40.312763
-33.078749
-31.771339
-37.878745
-35.659810
-36.484056
-43.601180
-50.740644
-56.743883
-53.918130
-42.900855
-33.851322
-33.080334
-29.189532
-16.283485
-0.305162
15.258571
23.521266
29.965067
44.454660
