EVENT_NAME: 202302060117
EVENT_ID: 13194
EVENT_DATE_YYYYMMDD: 2023/02/06
EVENT_TIME_HHMMSS: 01:17:32.00000
EVENT_LATITUDE_DEGREE: 37.288
EVENT_LONGITUDE_DEGREE: 37.043
EVENT_DEPTH_KM: 8.6
HYPOCENTER_REFERENCE: AFAD
MAGNITUDE_W: 7.7
MAGNITUDE_W_REFERENCE: AFAD
MAGNITUDE_L: 
MAGNITUDE_L_REFERENCE: 
FOCAL_MECHANISM: 
NETWORK: TK
STATION_CODE: 5804
STATION_NAME: 
STATION_LATITUDE_DEGREE: 39.18482
STATION_LONGITUDE_DEGREE: 36.08072
STATION_ELEVATION_M: 1200.0
LOCATION: Kahramanmaras_Pazarck_Turkiye
SENSOR_DEPTH_M: 
VS30_M/S: 392
SITE_CLASSIFICATION_EC8: unknown
MORPHOLOGIC_CLASSIFICATION: 
EPICENTRAL_DISTANCE_KM: 227.04
EARTHQUAKE_BACKAZIMUTH_DEGREE: 
DATE_TIME_FIRST_SAMPLE_YYYYMMDD_HHMMSS: 2023/02/06 01:17:51.1446620
DATE_TIME_FIRST_SAMPLE_PRECISION: millisecond
SAMPLING_INTERVAL_S: 0.01
NDATA: 14501
DURATION_S: 
STREAM: HNZ
UNITS: cm/s^2
INSTRUMENT: sensor = GMS+/GEOSIG | digitizer = 
INSTRUMENT_ANALOG/DIGITAL: 
INSTRUMENTAL_FREQUENCY_HZ: 
INSTRUMENTAL_DAMPING: 
FULL_SCALE_G: 
N_BIT_DIGITAL_CONVERTER: 
PGA_CM/S^2: 13.715
TIME_PGA_S: 
BASELINE_CORRECTION: BASELINE REMOVED
FILTER_TYPE: BUTTERWORTH
FILTER_ORDER: 
LOW_CUT_FREQUENCY_HZ: 
HIGH_CUT_FREQUENCY_HZ: 
LATE/NORMAL_TRIGGERED: 
DATABASE_VERSION: 
HEADER_FORMAT: DYNA 1.2
DATA_TYPE: Acceleration
PROCESSING: Automatic Paolucci et al., 2011
DATA_TIMESTAMP_YYYYMMDD_HHMMSS: 
DATA_LICENSE: U (unknown license)
DATA_CITATION: Turkish Accelerometric Archive v 1.0 - Disaster And Emergency Management Presidency, Earthquake Department
DATA_CREATOR: AFAD
ORIGINAL_DATA_MEDIATOR_CITATION: : AFAD - Disaster And Emergency Management Presidency
ORIGINAL_DATA_MEDIATOR: AFAD PROCESS SERVICE
ORIGINAL_DATA_CREATOR_CITATION: AFAD PROCESS SERVICE
ORIGINAL_DATA_CREATOR: network: TK
USER1: GuestUser
USER2: 
USER3: 
USER4: 
USER5: 
[...]
-3.861045
-3.798961
-3.704667
-3.545950
-3.269818
-2.913417
-2.623517
-2.454150
-2.348166
-2.229972
-2.064761
-1.871495
-1.692776
-1.573543
-1.524448
-1.498473
-1.462886
-1.391451
-1.222343
-0.966213
-0.720474
-0.535000
-0.390830
-0.298614
-0.282250
-0.335503
-0.478896
-0.788541
-1.312494
-1.999321
-2.735245
-3.441815
-4.083962
-4.588952
-4.928990
-5.148235
-5.344101
-5.559969
-5.644655
-5.459961
-5.080701
-4.727678
-4.500642
-4.279580
-3.988641
-3.746019
-3.701340
-3.892011
-4.198279
-4.446618
-4.577542
-4.730806
-4.990056
-5.269567
-5.532973
-5.506218
-5.120724
-4.846670
-4.856022
-5.036043
-5.208270
-5.182554
-5.166190
-5.447779
-5.910427
-6.248906
-6.274105
-6.054862
-5.948358
-6.121624
-6.277486
-6.168904
-5.813283
-5.312192
-4.855002
-4.537826
-4.183244
-3.638252
-3.064426
-2.686205
-2.464105
-2.183037
-1.706883
-1.093313
-0.603651
-0.356873
-0.031645
0.595954
1.378373
2.192225
2.981139
3.658873
4.230880
4.768079
5.336450
5.925343
6.358375
6.582034
6.798160
7.136896
7.496674
7.702928
7.761115
7.827095
7.954380
8.078028
8.093354
7.951519
7.700842
7.307292
6.822305
6.444341
6.160154
5.848951
5.534630
5.240312
4.940539
4.744932
4.700771
4.631152
4.497110
4.408528
4.425672
4.591143
4.834025
5.019238
5.115871
5.195618
5.306019
5.360828
5.331214
5.319523
5.321860
5.242110
5.091443
4.862327
4.552682
4.282782
3.969501
3.349434
2.414009
1.426370
0.548613
-0.302648
-1.301976
-2.439241
-3.455455
-4.179689
-4.615321
-4.828332
-4.904704
-4.878989
-4.674812
-4.279706
-3.870573
-3.542487
-3.195698
-2.716947
-2.081556
-1.334464
-0.533601
0.291161
1.105013
1.803268
2.316308
2.714272
3.082881
3.496171
3.986611
4.372885
4.493936
4.432370
4.278326
4.039339
3.628904
2.929608
2.061722
1.222151
0.438949
-0.359319
-1.231361
-2.187308
-3.158581
-4.000230
-4.730699
-5.322971
-5.549749
-5.443765
-5.273359
-5.097757
-4.789154
-4.349108
-3.877890
-3.501487
-3.269516
-3.001956
-2.590485
-2.234084
-2.107319
-2.038222
-1.844955
-1.637142
-1.544926
-1.611168
-1.714037
-1.565191
-1.198140
-0.904084
-0.782514
-0.737055
-0.595743
-0.242719
0.234993
0.682831
1.142619
1.707354
2.364566
3.075809
3.877711
4.680393
5.197330
5.365139
5.335524
5.369553
5.587237
5.717640
5.633474
5.578921
5.697114
5.705686
5.330320
4.742983
4.225525
3.881331
3.530124
2.958113
2.250245
1.552767
0.983874
0.613703
0.391601
0.232622
0.147416
0.192615
0.299638
0.393933
0.445106
0.422765
0.279891
0.087402
-0.112101
-0.514482
-1.113508
-1.631747
-1.914635
-2.115437
-2.345592
-2.590035
-2.819411
-2.918644
-3.042294
-3.296349
-3.603136
-3.942654
-4.206319
-4.416992
-4.605065
-4.656241
-4.636499
-4.787426
-5.146946
-5.529585
-5.791432
-5.931188
-6.089388
-6.366822
-6.703742
-6.954419
-6.998840
-6.832330
-6.522168
-6.125504
-5.639220
-5.092929
-4.553912
-4.061393
-3.595890
-3.087005
-2.627477
-2.324589
-2.103528
-1.900650
-1.786873
-1.783237
-1.722193
-1.528407
-1.269939
-0.978221
-0.669358
-0.358417
-0.033189
0.332563
0.755984
1.201225
1.584382
1.908571
2.296403
2.793598
3.305080
3.726682
4.038922
4.321288
4.581834
4.721848
4.772242
4.837183
4.833025
4.678462
4.489870
4.318162
4.122036
3.860189
3.537816
3.314154
3.263239
3.158551
2.823449
2.416392
2.114281
1.883606
1.618641
1.289514
1.004028
0.844529
0.765818
0.690485
0.549170
0.395906
0.343431
0.337975
0.206791
-0.119998
-0.506534
-0.823192
-1.083481
-1.314675
-1.493916
-1.599903
-1.622244
-1.557043
-1.415731
-1.263768
-1.229220
-1.311308
-1.402487
-1.553414
-1.868513
-2.281805
-2.691460
-3.074359
-3.389459
-3.560907
-3.533892
-3.322183
-2.993837
-2.636657
-2.303636
-1.969316
-1.583042
-1.212095
-0.880372
-0.420064
0.198961
0.789672
1.268683
1.753669
2.267748
2.829366
3.492812
4.100927
4.662285
5.227279
5.591992
5.773568
5.901113
5.929946
5.879031
5.858768
5.890718
5.876170
5.810447
5.627310
5.296364
4.854498
4.212870
3.474608
2.636336
1.850537
1.021097
0.178409
-0.455946
-1.500474
-2.325757
-2.479281
-2.843217
-3.151823
-3.088700
-3.221963
-3.448481
-3.316780
-3.250800
-3.325874
-3.255219
-3.179367
-3.107673
-2.902977
-2.539563
-2.256676
-2.206542
-2.156928
-1.951193
-1.764161
-1.681036
-1.692467
-1.607524
-1.191897
-0.556506
0.147984
0.782076
1.357201
2.046624
2.864113
3.730697
4.509480
5.083047
5.536600
5.996908
6.433317
6.708410
6.753868
6.651519
6.503969
6.331482
6.042879
5.533733
4.919900
4.390492
3.920051
3.369861
2.622248
1.716436
0.867254
0.189778
-0.460942
-1.311683
-2.384266
-3.505945
-4.489687
-5.291332
-6.033750
-6.810717
-7.524041
-8.007470
-8.234768
-8.273475
-8.153463
-7.872915
-7.443780
-6.835924
-6.000252
-4.968974
-3.813527
-2.600932
-1.433017
-0.408493
0.479133
1.355069
2.291791
3.150583
3.843123
4.450459
5.005322
5.463552
5.758127
5.855539
5.858396
5.859953
5.705390
5.228974
4.577475
3.996893
3.484889
2.900410
2.151498
1.261532
0.376242
-0.424104
-1.212761
-2.093635
-3.035555
-3.941886
-4.722490
-5.336842
-5.896903
-6.370721
-6.756477
-7.270559
-7.727752
-7.939464
-8.130135
-8.337431
-8.499787
-8.613566
-8.606813
-8.504985
-8.480049
-8.502910
-8.349648
-8.090920
-7.949348
-7.953245
-7.995069
-7.969093
-7.812974
-7.573469
-7.302792
-6.978863
-6.635451
-6.209173
-5.702107
-5.104642
-4.364044
-3.674362
-2.929868
-1.984054
-1.030967
-0.151913
0.649729
1.386690
2.123131
2.913863
3.715766
4.430646
5.036683
5.506602
5.812867
5.988469
6.094454
6.167707
6.272912
6.483063
6.765430
7.086502
7.469139
7.876713
8.164535
8.279091
8.305846
8.306884
8.322210
8.358056
8.453130
8.629512
8.749523
8.674969
8.419356
8.066590
7.648362
7.166232
6.616302
5.987663
5.379545
4.907286
4.511398
4.124343
3.760147
3.383223
2.877713
2.224915
1.544841
0.867366
0.099231
-0.800866
-1.743305
-2.602879
-3.333607
-4.008485
-4.687260
-5.288364
-5.704254
-5.933630
-6.099103
-6.371861
-6.746447
-7.063365
-7.278454
-7.441849
-7.588360
-7.677721
-7.683697
-7.643953
-7.559270
-7.461339
-7.377954
-7.253786
-6.991942
-6.544622
-5.971056
-5.309688
-4.546491
-3.751602
-3.059322
-2.584987
-2.342884
-2.174036
-1.910892
-1.576572
-1.354472
-1.249787
-1.033141
-0.716485
-0.467889
-0.227345
0.124640
0.564945
0.974858
1.319049
1.647914
1.979637
2.286681
2.524108
2.773224
3.121572
3.473816
3.658770
3.656950
3.618244
3.628374
3.612786
3.496929
3.384968
3.285995
3.026226
2.586438
2.074953
1.589706
1.215639
0.900539
0.525693
0.183058
-0.016445
-0.143213
-0.323753
-0.705093
-1.303080
-1.960294
-2.638809
-3.414997
-4.236904
-4.982439
-5.607442
-6.128277
-6.573001
-6.965252
-7.272818
-7.521677
-7.785083
-7.995756
-8.088754
-8.102003
-8.042258
-7.881203
-7.658843
-7.402453
-7.088395
-6.744723
-6.373775
-5.898141
-5.326653
-4.799325
-4.319275
-3.773764
-3.136295
-2.521425
-2.092030
-1.724719
-1.212458
-0.657854
-0.203522
0.152619
0.462781
0.818402
1.275592
1.785516
2.275177
2.738862
3.161243
3.510370
3.770137
3.947038
4.078999
4.172514
4.290707
4.495663
4.756988
5.042732
5.281977
5.443811
5.636038
5.918405
6.210903
6.443653
6.650687
6.903700
7.173338
7.389724
7.524542
7.570780
7.557790
7.505835
7.376470
7.119558
6.745751
6.365969
6.112175
5.968262
5.836818
5.718363
5.658615
5.620169
5.576007
5.590033
5.675496
5.741735
5.731084
5.712639
5.725367
5.729002
5.704063
5.615741
5.455463
5.276222
5.188419
5.151271
5.106071
5.088145
5.058011
5.122952
5.092558
4.963193
4.702384
4.344423
4.325978
3.909569
3.424841
3.401461
2.836724
2.085734
1.828303
1.570612
1.096794
0.884043
0.615702
0.306057
0.317746
0.260595
0.185262
-0.040478
-0.364669
-0.513518
-0.792250
-1.215932
-1.454660
-1.587922
-1.660399
-1.505578
-1.371539
-1.352058
-1.289455
-1.108138
-0.895389
-0.805770
-0.770962
-0.755118
-0.797461
-0.901889
-1.002680
-0.968132
-0.791231
-0.601342
-0.476395
-0.373008
-0.203381
0.035604
0.275109
0.508380
0.779317
1.099090
1.453412
1.800721
2.050097
2.292199
2.573527
2.786795
2.948110
2.980839
2.835628
2.625215
2.455585
2.328038
2.182307
1.992156
1.759143
1.568732
1.508984
1.537038
1.563013
1.564051
1.587689
1.714714
1.933698
2.154239
2.346207
2.550643
2.805994
3.055889
3.190448
3.165769
2.983930
2.699743
2.391397
2.085390
1.776265
1.417524
0.996439
0.538727
0.074780
-0.360852
-0.750765
-1.102232
-1.423046
-1.646708
-1.786204
-1.953756
-2.203913
-2.519013
-2.853335
-3.197010
-3.512888
-3.761747
-3.946443
-4.038143
-4.065679
-4.092956
-4.083605
-3.999961
-3.852674
-3.645121
-3.380678
-3.069997
-2.731001
-2.464740
-2.370705
-2.376941
-2.363174
-2.259787
-2.073795
-1.892997
-1.778701
-1.702590
-1.648819
-1.598425
-1.547772
-1.630119
-1.775071
-1.903657
-2.155114
-2.387347
-2.493334
-2.599840
-2.702449
-2.812592
-2.977806
-3.128992
-3.173413
-3.148476
-3.160687
-3.201731
-3.231346
-3.255765
-3.257585
-3.229531
-3.159395
-2.998600
-2.808191
-2.724027
-2.716755
-2.670517
-2.612071
-2.613111
-2.614930
-2.550249
-2.448162
-2.374389
-2.376468
-2.408421
-2.392056
-2.348157
-2.392059
-2.569222
-2.785350
-2.951342
-3.051094
-3.077852
-3.039147
-2.992910
-2.984079
-3.018369
-3.078377
-3.146957
-3.202029
-3.187483
-3.046690
-2.816796
-2.649247
-2.607166
-2.597296
-2.507937
-2.329218
-2.127379
-1.930476
-1.699284
-1.361327
-0.924658
-0.451622
0.032844
0.524064
0.993204
1.358956
1.586771
1.716134
1.762891
1.683661
1.451947
1.198672
1.052941
0.940460
0.766675
0.565613
0.401698
0.267137
0.123225
-0.085370
-0.350334
-0.567242
-0.705180
-0.830649
-1.004175
-1.183935
-1.262906
-1.206278
-1.075096
-0.918717
-0.705968
-0.395547
-0.014468
0.358298
0.681448
1.001481
1.351647
1.680252
1.924433
2.054056
2.048859
1.933261
1.798181
1.666737
1.495289
1.297864
1.119663
1.011858
0.980944
1.001984
1.088746
1.256295
1.474239
1.718420
1.981044
2.240291
2.534347
2.912049
3.302998
3.618355
3.894228
4.188544
4.493770
4.788086
5.021096
5.103961
5.041356
4.916926
4.756648
4.612735
4.549091
4.495058
4.326208
3.979676
3.500144
3.026586
2.581862
2.122331
1.631369
1.156772
0.848426
0.541379
0.152765
-0.100770
-0.328327
-0.596929
-0.788379
-0.970737
-1.241676
-1.570543
-1.898112
-2.221524
-2.518440
-2.755869
-2.935630
-3.029147
-2.996937
-2.857183
-2.665995
-2.481041
-2.374797
-2.362330
-2.373501
-2.409610
-2.498452
-2.588852
-2.653535
-2.728350
-2.785759
-2.718740
-2.497419
-2.179465
-1.851639
-1.587716
-1.394969
-1.218847
-1.029997
-0.842706
-0.660090
-0.466045
-0.229137
0.049073
0.331959
0.581335
0.808631
1.061124
1.308422
1.453891
1.468697
1.383751
1.232046
1.020074
0.739264
0.440789
0.176604
-0.056669
-0.326309
-0.681932
-1.070286
-1.432144
-1.760232
-2.080008
-2.436930
-2.867886
-3.354952
-3.880464
-4.451435
-5.044226
-5.567140
-5.962768
-6.295012
-6.630894
-6.958982
-7.202645
-7.298760
-7.296683
-7.282137
-7.246550
-7.140047
-6.968601
-6.791700
-6.663896
-6.580771
-6.416859
-6.139428
-5.801730
-5.431043
-5.132311
-4.769676
-4.367556
-4.106231
-3.872701
-3.693462
-3.590595
-3.479415
-3.328491
-3.117041
-2.817530
-2.408137
-1.936919
-1.429853
-0.911098
-0.406630
0.075238
0.486190
0.790897
1.027025
1.267569
1.555390
1.839316
2.006085
2.057778
2.110250
2.197011
2.241950
2.154927
1.935681
1.686043
1.492775
1.369384
1.231446
1.021033
0.793215
0.643588
0.562539
0.420964
0.205875
-0.024540
-0.265346
-0.515763
-0.774234
-1.033223
-1.230388
-1.305722
-1.316114
-1.370407
-1.529905
-1.792792
-2.098020
-2.357789
-2.532354
-2.658862
-2.780695
-2.880447
-2.944611
-3.020464
-3.152687
-3.350112
-3.566240
-3.723920
-3.793539
-3.843675
-3.918230
-3.961872
-3.946287
-3.909661
-3.873554
-3.805496
-3.692498
-3.532483
-3.309083
-3.005676
-2.613947
-2.155198
-1.664237
-1.163926
-0.640235
-0.064850
0.556774
1.181774
1.780278
2.341116
2.879094
3.383303
3.794774
4.077141
4.259756
4.436397
4.664472
4.927356
5.187383
5.397794
5.525079
5.597813
5.618074
5.541960
5.355706
5.064765
4.709141
4.330398
3.927237
3.510049
3.141177
2.838547
2.555918
2.265496
1.987024
1.748036
1.538922
1.342796
1.151606
0.997822
0.919631
0.896250
0.872610
0.833384
0.811303
0.819874
0.836758
0.859616
0.921180
1.053401
1.257577
1.503057
1.752433
1.944920
2.061295
2.119222
2.128312
2.078955
1.973229
1.816587
1.619163
1.457586
1.265356
1.020914
0.787641
0.527093
0.259271
-0.049335
-0.460808
-0.961382
-1.492609
-1.983052
-2.426996
-2.858472
-3.272283
-3.651805
-4.018599
-4.397601
-4.839208
-5.364200
-5.890491
-6.329500
-6.706944
-7.079712
-7.401826
-7.613797
-7.731473
-7.772258
-7.774857
-7.777715
-7.756416
-7.664459
-7.451450
-7.115572
-6.733194
-6.410304
-6.139887
-5.819074
-5.423709
-4.991196
-4.584141
-4.214752
-3.832635
-3.447400
-3.095156
-2.821622
-2.653033
-2.549647
-2.495616
-2.496137
-2.529648
-2.568874
-2.648105
-2.806045
-2.967881
-3.090753
-3.195180
-3.298309
-3.407413
-3.470278
-3.411052
-3.231813
-2.953603
-2.532001
-1.976878
-1.385388
-0.817276
-0.253841
0.343884
0.955377
1.515955
1.992108
2.366432
2.633992
2.755822
2.737378
2.691138
2.642300
2.641520
2.728021
2.841279
3.011945
3.306781
3.723188
4.228695
4.826939
5.499218
6.248907
7.084839
7.933240
8.710984
9.375988
10.004885
10.666773
11.334115
11.981196
12.532942
12.954285
13.288345
13.550450
13.715141
13.710984
13.513819
13.132738
12.589303
11.900397
11.102649
10.270091
9.401166
8.514837
7.655264
6.870504
6.166532
5.485679
4.781187
4.027339
3.241021
2.412100
1.605519
0.935837
0.456304
0.182248
0.057558
0.033658
0.087169
0.173411
0.272641
0.392393
0.567995
0.872442
1.268327
1.668628
2.060097
2.447930
2.860700
3.279964
3.637923
3.927303
4.174861
4.371764
4.542950
4.750244
4.979358
5.156259
5.270815
5.307701
5.237303
5.105080
4.940126
4.758027
4.555407
4.316939
4.101850
3.960016
3.891436
3.889616
3.886238
3.805449
3.610622
3.292925
2.899895
2.478031
2.066297
1.715610
1.445190
1.230361
1.057614
0.904350
0.741214
0.544829
0.309738
0.085297
-0.105374
-0.279939
-0.514770
-0.845196
-1.166011
-1.445782
-1.766597
-2.173914
-2.664876
-3.196882
-3.723173
-4.202706
-4.619894
-5.013444
-5.318932
-5.467521
-5.496876
-5.465705
-5.435573
-5.374788
-5.247243
-5.085409
-4.933446
-4.816292
-4.680434
-4.463789
-4.166615
-3.816969
-3.423941
-2.969608
-2.438904
-1.880663
-1.369701
-0.951216
-0.627546
-0.358428
-0.082815
0.242153
0.587124
0.908715
1.178873
1.367463
1.498645
1.592680
1.647749
1.708534
1.802829
1.917125
2.040254
2.156109
2.270926
2.391976
2.507572
2.585241
2.614334
2.646544
2.608877
2.495617
2.509643
2.574065
2.570946
2.651733
2.830452
3.040863
3.282446
3.509742
3.674433
3.779898
3.821979
3.779636
3.654946
3.442455
3.159567
2.830439
2.429616
1.932939
1.388205
0.853861
0.348351
-0.160016
-0.656433
-1.063231
-1.413140
-1.720706
-1.939691
-2.114257
-2.317396
-2.552228
-2.783422
-3.019812
-3.261917
-3.488955
-3.710279
-3.908743
-4.070060
-4.204621
-4.296060
-4.385162
-4.492966
-4.597394
-4.673767
-4.691692
-4.704682
-4.756117
-4.843400
-4.971727
-5.152786
-5.376967
-5.635177
-5.942484
-6.255246
-6.530861
-6.782837
-6.995588
-7.133526
-7.163140
-7.071703
-6.909609
-6.727773
-6.560483
-6.427224
-6.312148
-6.173173
-5.948994
-5.598309
-5.117479
-4.546251
-3.938915
-3.368725
-2.892832
-2.517468
-2.248350
-2.100283
-2.081581
-2.190425
-2.406293
-2.686844
-2.987396
-3.267687
-3.493426
-3.651367
-3.758652
-3.812944
-3.804373
-3.733198
-3.604354
-3.407192
-3.117292
-2.765307
-2.416440
-2.141347
-1.947821
-1.789104
-1.629867
-1.470631
-1.321525
-1.183330
-1.023314
-0.748740
-0.370779
0.042251
0.362803
0.613478
0.890649
1.095865
1.320043
1.533052
1.614098
1.667350
1.720861
1.794634
1.906333
2.029721
2.186620
2.407162
2.667708
2.952672
3.272965
3.616117
3.973816
4.324242
4.617519
4.835203
5.015481
5.185368
5.295249
5.325121
5.315249
5.280699
5.238095
5.204844
5.205622
5.259913
5.364078
5.479934
5.549291
5.534483
5.426678
5.253931
5.041959
4.775436
4.428385
4.022107
3.610374
3.257348
2.978875
2.713392
2.376212
1.936943
1.420783
0.835265
0.180908
-0.509036
-1.162354
-1.744495
-2.250264
-2.685117
-3.096071
-3.506505
-3.899795
-4.245028
-4.539606
-4.766644
-4.881982
-4.881983
-4.804574
-4.683003
-4.526365
-4.342450
-4.123986
-3.852530
-3.524964
-3.149081
-2.712412
-2.258858
-1.864792
-1.521120
-1.186540
-0.839231
-0.485948
-0.101752
0.359075
0.864322
1.390351
1.957423
2.544238
3.102738
3.580190
3.962827
4.266495
4.481581
4.602372
4.638998
4.622892
4.571976
4.484173
4.360782
4.181541
3.915798
3.559914
3.149740
2.710211
2.229639
1.720493
1.217581
0.755193
0.392037
0.134086
-0.034764
-0.122307
-0.150104
-0.129323
-0.092437
-0.056071
-0.005937
0.097190
0.285261
0.538533
0.798819
1.026115
1.231071
1.439663
1.658647
1.853212
1.991927
2.080506
2.125965
2.133497
2.132716
2.153237
2.235062
2.381830
2.559510
2.760570
2.972799
3.190743
3.387646
3.563248
3.749760
3.955235
4.188766
4.432167
4.662320
4.869354
5.047294
5.189386
5.277966
5.287576
5.202631
5.014038
4.705173
4.278113
3.778578
3.251508
2.728594
2.245425
1.807195
1.371303
0.904499
0.428863
-0.007289
-0.345248
-0.570728
-0.718277
-0.830757
-0.926613
-0.996232
-1.039614
-0.998832
-0.864533
-0.676462
-0.450206
-0.263953
-0.146279
-0.059258
0.029581
0.140501
0.262851
0.393772
0.539761
0.708349
0.886029
1.060332
1.237233
1.428421
1.661692
1.912886
2.172653
2.471904
2.804406
3.107035
3.301600
3.441094
3.597733
3.769698
3.927636
4.036997
4.112588
4.167138
4.230521
4.309229
4.361961
4.413913
4.492102
4.559641
4.571329
4.528986
4.455211
4.317533
4.120368
3.917228
3.717725
3.501597
3.279234
3.122074
3.023361
2.925687
2.831390
2.782033
2.737611
2.646432
2.552135
2.352892
2.055456
1.805558
1.518773
1.154318
0.782329
0.367998
-0.052567
-0.387929
-0.659387
-0.885646
-1.082811
-1.271924
-1.461296
-1.638718
-1.768863
-1.856406
-1.881345
-1.808351
-1.638464
-1.389088
-1.102825
-0.844877
-0.650052
-0.513155
-0.413146
-0.323527
-0.241961
-0.182475
-0.161955
-0.186894
-0.260149
-0.388995
-0.551871
-0.715266
-0.876323
-1.055564
-1.258964
-1.474572
-1.703429
-1.895399
-2.011776
-2.114645
-2.245050
-2.401431
-2.537031
-2.643018
-2.742770
-2.833430
-2.955002
-3.091901
-3.201784
-3.281534
-3.309590
-3.299460
-3.275563
-3.206206
-3.078142
-2.916048
-2.750057
-2.595496
-2.436779
-2.271308
-2.122722
-2.006087
-1.916469
-1.835162
-1.739309
-1.641378
-1.535394
-1.421097
-1.309398
-1.177697
-1.051710
-0.930660
-0.849094
-0.809350
-0.758437
-0.738176
-0.723890
-0.753765
-0.863128
-0.967556
-1.073283
-1.210441
-1.380071
-1.573339
-1.786350
-2.043781
-2.360699
-2.715284
-3.051684
-3.351717
-3.631748
-3.911779
-4.226619
-4.590555
-4.984624
-5.405190
-5.867578
-6.366333
-6.910288
-7.486715
-8.032748
-8.528646
-8.968434
-9.327435
-9.595776
-9.781252
-9.891654
-9.921009
-9.875291
-9.785153
-9.673194
-9.529543
-9.336797
-9.085083
-8.793105
-8.481125
-8.147324
-7.782091
