EVENT_NAME: 202302060117
EVENT_ID: 13194
EVENT_DATE_YYYYMMDD: 2023/02/06
EVENT_TIME_HHMMSS: 01:17:32.00000
EVENT_LATITUDE_DEGREE: 37.288
EVENT_LONGITUDE_DEGREE: 37.043
EVENT_DEPTH_KM: 8.6
HYPOCENTER_REFERENCE: AFAD
MAGNITUDE_W: 7.7
MAGNITUDE_W_REFERENCE: AFAD
MAGNITUDE_L: 
MAGNITUDE_L_REFERENCE: 
FOCAL_MECHANISM: 
NETWORK: TU
STATION_CODE: AMSY
STATION_NAME: 
STATION_LATITUDE_DEGREE: 40.6371
STATION_LONGITUDE_DEGREE: 35.8347
STATION_ELEVATION_M: 951.0
LOCATION: Kahramanmaras_Pazarck_Turkiye
SENSOR_DEPTH_M: 
VS30_M/S: 942
SITE_CLASSIFICATION_EC8: A
MORPHOLOGIC_CLASSIFICATION: 
EPICENTRAL_DISTANCE_KM: 386.77
EARTHQUAKE_BACKAZIMUTH_DEGREE: 
DATE_TIME_FIRST_SAMPLE_YYYYMMDD_HHMMSS: 2023/02/06 01:18:01.3229710
DATE_TIME_FIRST_SAMPLE_PRECISION: millisecond
SAMPLING_INTERVAL_S: 0.01
NDATA: 21001
DURATION_S: 
STREAM: HNE
UNITS: cm/s^2
INSTRUMENT: sensor = CMG-5T/GURALP | digitizer = 
INSTRUMENT_ANALOG/DIGITAL: 
INSTRUMENTAL_FREQUENCY_HZ: 
INSTRUMENTAL_DAMPING: 
FULL_SCALE_G: 
N_BIT_DIGITAL_CONVERTER: 
PGA_CM/S^2: 4.903
TIME_PGA_S: 
BASELINE_CORRECTION: BASELINE REMOVED
FILTER_TYPE: BUTTERWORTH
FILTER_ORDER: 
LOW_CUT_FREQUENCY_HZ: 
HIGH_CUT_FREQUENCY_HZ: 
LATE/NORMAL_TRIGGERED: 
DATABASE_VERSION: 
HEADER_FORMAT: DYNA 1.2
DATA_TYPE: Acceleration
PROCESSING: Automatic Paolucci et al., 2011
DATA_TIMESTAMP_YYYYMMDD_HHMMSS: 
DATA_LICENSE: U (unknown license)
DATA_CITATION: Turkish Accelerometric Archive v 1.0 - Disaster And Emergency Management Presidency, Earthquake Department
DATA_CREATOR: AFAD
ORIGINAL_DATA_MEDIATOR_CITATION: : AFAD - Disaster And Emergency Management Presidency
ORIGINAL_DATA_MEDIATOR: AFAD PROCESS SERVICE
ORIGINAL_DATA_CREATOR_CITATION: AFAD PROCESS SERVICE
ORIGINAL_DATA_CREATOR: network: TK
USER1: GuestUser
USER2: 
USER3: 
USER4: 
USER5: 
[...]
1.419931
1.435327
1.438648
1.433818
1.422046
1.402726
1.383105
1.358956
1.336014
1.312468
1.298280
1.284998
1.278961
1.284395
1.281377
1.295263
1.299490
1.304622
1.307943
1.294057
1.280171
1.250588
1.210440
1.159122
1.104785
1.045015
0.982830
0.923965
0.866308
0.818311
0.774238
0.745561
0.725336
0.717487
0.721714
0.737713
0.763976
0.798692
0.841558
0.893480
0.941478
0.995211
1.046832
1.096339
1.144639
1.185090
1.216786
1.238220
1.249691
1.247578
1.226749
1.192336
1.148565
1.096040
1.027214
0.944199
0.858166
0.763983
0.673120
0.575616
0.479923
0.383324
0.289745
0.198882
0.109528
0.033759
-0.040501
-0.103592
-0.163362
-0.214982
-0.260866
-0.306146
-0.345088
-0.384029
-0.418442
-0.451647
-0.485155
-0.517454
-0.552773
-0.580847
-0.612241
-0.636994
-0.654201
-0.671407
-0.673822
-0.679255
-0.673519
-0.674726
-0.670198
-0.669594
-0.678046
-0.689215
-0.709742
-0.734797
-0.767097
-0.803019
-0.840149
-0.876071
-0.909579
-0.938558
-0.963915
-0.977499
-0.986856
-0.981422
-0.969649
-0.941877
-0.899916
-0.849202
-0.785808
-0.717887
-0.641211
-0.569366
-0.494803
-0.425674
-0.357451
-0.294963
-0.242437
-0.192025
-0.152177
-0.117462
-0.089086
-0.069765
-0.049540
-0.038370
-0.025389
-0.015125
-0.003654
0.009025
0.021704
0.035590
0.046156
0.053099
0.051288
0.040119
0.020196
-0.011500
-0.049535
-0.099042
-0.152473
-0.207111
-0.271409
-0.331783
-0.402119
-0.474266
-0.553054
-0.633050
-0.715762
-0.801191
-0.885111
-0.967220
-1.043291
-1.112419
-1.175812
-1.225922
-1.270901
-1.298673
-1.319502
-1.325539
-1.318595
-1.300181
-1.263956
-1.218977
-1.153470
-1.077700
-0.986535
-0.884804
-0.772206
-0.649948
-0.524067
-0.393960
-0.265664
-0.138576
-0.017224
0.093261
0.197407
0.286460
0.365852
0.429849
0.481470
0.523732
0.549089
0.568711
0.573542
0.567203
0.554826
0.530979
0.505622
0.475737
0.442229
0.409326
0.375516
0.343518
0.315143
0.292201
0.273787
0.260203
0.255675
0.254770
0.265638
0.279222
0.305787
0.336277
0.367973
0.405708
0.438310
0.474535
0.502609
0.530382
0.558456
0.582908
0.606454
0.623359
0.639661
0.646906
0.647208
0.646001
0.632719
0.621550
0.600419
0.581402
0.560875
0.536424
0.517104
0.490540
0.470013
0.446467
0.425638
0.399376
0.369793
0.340210
0.300363
0.258403
0.204671
0.146712
0.081508
0.008757
-0.065503
-0.143989
-0.221268
-0.298547
-0.372203
-0.440124
-0.503516
-0.563287
-0.619736
-0.675280
-0.731428
-0.789085
-0.848252
-0.915569
-0.982282
-1.056844
-1.133217
-1.210797
-1.292604
-1.366562
-1.445954
-1.516290
-1.588739
-1.653339
-1.714015
-1.771370
-1.817556
-1.857704
-1.887589
-1.906607
-1.918380
-1.916266
-1.911738
-1.893021
-1.867664
-1.840495
-1.806383
-1.772875
-1.729104
-1.688955
-1.640051
-1.591751
-1.547074
-1.496359
-1.451682
-1.402779
-1.359611
-1.317047
-1.269351
-1.224975
-1.172751
-1.124150
-1.062869
-1.005212
-0.945743
-0.887783
-0.833748
-0.778807
-0.730507
-0.677679
-0.631795
-0.586212
-0.545761
-0.511347
-0.478745
-0.456708
-0.433161
-0.418369
-0.402370
-0.390295
-0.379125
-0.365843
-0.355881
-0.342598
-0.329919
-0.315429
-0.295203
-0.274977
-0.252941
-0.224564
-0.197697
-0.158454
-0.122531
-0.073627
-0.030459
0.022066
0.074894
0.124401
0.176324
0.218888
0.267187
0.303714
0.343260
0.371938
0.397295
0.417219
0.424162
0.428993
0.422050
0.405447
0.382204
0.347187
0.305227
0.253909
0.200780
0.146746
0.089390
0.031733
-0.028037
-0.088411
-0.144257
-0.204027
-0.252930
-0.299720
-0.336246
-0.364319
-0.384243
-0.389072
-0.393600
-0.381827
-0.367035
-0.336847
-0.297905
-0.249304
-0.187722
-0.124630
-0.052181
0.019061
0.092114
0.161243
0.221919
0.279577
0.325764
0.372554
0.408175
0.444098
0.467343
0.490587
0.510813
0.523794
0.538284
0.543718
0.549454
0.544020
0.535870
0.519871
0.495722
0.465535
0.424179
0.383125
0.334826
0.288941
0.247284
0.202003
0.169099
0.135592
0.108122
0.086388
0.068276
0.056805
0.049862
0.048655
0.050768
0.058617
0.074315
0.094843
0.129860
0.174235
0.233402
0.304343
0.386452
0.478523
0.576631
0.681985
0.785527
0.889069
0.990800
1.088305
1.181885
1.265504
1.340670
1.411007
1.467759
1.517266
1.552887
1.586395
1.601187
1.618092
1.620809
1.617489
1.610848
1.591227
1.567983
1.544739
1.523609
1.498554
1.483460
1.479536
1.482857
1.499460
1.524818
1.553798
1.597871
1.637115
1.688433
1.736129
1.786542
1.836955
1.889783
1.941705
1.992420
2.043436
2.087812
2.131282
2.167506
2.194071
2.214901
2.225165
2.226674
2.213996
2.188639
2.153623
2.106229
2.047364
1.977029
1.899146
1.814924
1.721948
1.628369
1.529657
1.425512
1.324989
1.215410
1.114585
1.007119
0.912030
0.816941
0.731814
0.656044
0.585105
0.525637
0.471602
0.429038
0.391607
0.359609
0.330629
0.298631
0.266331
0.228296
0.189355
0.147395
0.097587
0.051702
-0.000823
-0.052744
-0.109496
-0.166851
-0.232961
-0.298768
-0.368198
-0.443666
-0.514907
-0.589469
-0.656786
-0.723499
-0.782364
-0.836399
-0.888018
-0.933902
-0.976164
-1.021746
-1.059782
-1.105666
-1.144305
-1.189887
-1.233356
-1.274713
-1.319087
-1.358028
-1.403007
-1.436816
-1.473342
-1.499907
-1.517113
-1.523150
-1.510773
-1.489340
-1.445568
-1.390929
-1.320291
-1.237276
-1.147620
-1.042568
-0.937517
-0.820391
-0.707188
-0.590666
-0.476558
-0.367582
-0.259512
-0.158687
-0.062390
0.029682
0.113602
0.196617
0.271783
0.348157
0.419701
0.491245
0.561883
0.627087
0.696820
0.761421
0.827229
0.888509
0.945865
1.000806
1.047898
1.093783
1.134234
1.173478
1.209401
1.248342
1.284567
1.319283
1.363960
1.398072
1.435202
1.464484
1.491351
1.515501
1.528482
1.528784
1.527879
1.511578
1.491051
1.469618
1.441545
1.414377
1.388718
1.372719
1.357626
1.352494
1.349476
1.353400
1.362759
1.375438
1.393550
1.406833
1.423134
1.426455
1.428870
1.412268
1.389326
1.351894
1.296048
1.230543
1.141491
1.052439
0.948596
0.846262
0.741815
0.633443
0.525675
0.415794
0.303801
0.191807
0.076794
-0.035804
-0.145986
-0.244396
-0.333448
-0.409217
-0.466874
-0.511249
-0.534493
-0.544454
-0.535096
-0.513965
-0.480457
-0.432761
-0.382046
-0.315332
-0.243788
-0.168622
-0.085305
-0.004102
0.081026
0.158608
0.236491
0.303808
0.360259
0.412181
0.444783
0.468933
0.471650
0.457765
0.427880
0.378977
0.320112
0.240419
0.158612
0.062013
-0.037906
-0.140240
-0.243781
-0.339172
-0.433054
-0.512446
-0.582480
-0.637420
-0.679078
-0.712283
-0.728282
-0.737942
-0.730093
-0.714697
-0.690849
-0.657341
-0.624437
-0.581571
-0.542327
-0.501876
-0.467764
-0.434256
-0.406786
-0.386862
-0.367240
-0.359089
-0.349429
-0.344900
-0.342787
-0.333731
-0.326183
-0.312599
-0.293581
-0.269129
-0.237734
-0.203018
-0.157737
-0.110343
-0.055101
0.007387
0.075007
0.152286
0.234395
0.325561
0.418537
0.519363
0.623811
0.727655
0.839951
0.948021
1.054280
1.160539
1.258648
1.354643
1.446111
1.535465
1.612442
1.678854
1.733795
1.776057
1.808962
1.827678
1.842168
1.847602
1.843678
1.836735
1.817416
1.797795
1.771230
1.741949
1.712064
1.681877
1.654106
1.619994
1.596449
1.567469
1.547244
1.528830
1.515247
1.500757
1.488381
1.476910
1.469062
1.460006
1.444912
1.432536
1.424990
1.408085
1.397822
1.389973
1.383031
1.381522
1.382126
1.388767
1.392390
1.412314
1.437973
1.465142
1.495631
1.533667
1.574420
1.616683
1.658643
1.699396
1.740753
1.780298
1.815014
1.848522
1.876596
1.903765
1.927613
1.950254
1.973196
1.992516
2.019081
2.037797
2.061344
2.087607
2.109946
2.141944
2.170019
2.209262
2.248506
2.294089
2.348426
2.399744
2.461628
2.523210
2.590830
2.657242
2.724559
2.791575
2.854667
2.918362
2.972699
3.019489
3.059638
3.090731
3.114278
3.125447
3.127259
3.117297
3.096770
3.067791
3.026133
2.978438
2.921083
2.862218
2.796410
2.727584
2.662682
2.586309
2.522011
2.449260
2.381641
2.310702
2.239762
2.168219
2.087318
2.009435
1.916761
1.824389
1.719640
1.607948
1.487803
1.357999
1.227591
1.088730
0.952285
0.814330
0.673357
0.542948
0.413446
0.289981
0.173459
0.070219
-0.018832
-0.093998
-0.149240
-0.187276
-0.203576
-0.204784
-0.189992
-0.157993
-0.117542
-0.063808
-0.004641
0.059054
0.127277
0.195802
0.267950
0.336777
0.402283
0.465978
0.525749
0.586425
0.644083
0.702948
0.756682
0.813736
0.870790
0.929353
0.989426
1.050706
1.119533
1.185039
1.262621
1.346239
1.428047
1.517099
1.604038
1.698826
1.787275
1.876025
1.959644
2.033301
2.100015
2.148013
2.190577
2.211406
2.221368
2.216841
2.204766
2.183937
2.160392
2.132620
2.106357
2.077076
2.051417
2.020929
1.996175
1.968404
1.942443
1.920709
1.892937
1.874523
1.851883
1.833167
1.812942
1.793925
1.774605
1.750758
1.724495
1.691893
1.651745
1.608577
1.554845
1.502621
1.437417
1.371912
1.302783
1.226410
1.156075
1.069136
0.994574
0.913069
0.833375
0.754889
0.675195
0.603954
0.535430
0.483206
0.435813
0.399589
0.365779
0.338007
0.315367
0.293029
0.274917
0.255296
0.234769
0.211525
0.184961
0.162019
0.139077
0.113720
0.092288
0.072364
0.054554
0.035537
0.022859
0.009576
-0.001894
-0.011856
-0.024534
-0.036307
-0.048079
-0.061965
-0.077662
-0.096982
-0.118414
-0.141356
-0.164902
-0.192372
-0.217125
-0.244897
-0.281725
-0.323986
-0.371078
-0.410321
-0.448960
-0.480052
-0.515673
-0.544652
-0.571820
-0.595668
-0.613780
-0.635212
-0.653324
-0.672040
-0.693171
-0.710981
-0.728489
-0.740865
-0.748714
-0.752638
-0.747506
-0.743581
-0.727582
-0.710073
-0.685319
-0.653018
-0.613171
-0.572720
-0.535590
-0.495440
-0.460121
-0.428122
-0.400350
-0.373785
-0.346012
-0.330315
-0.309184
-0.297410
-0.286543
-0.285939
-0.292881
-0.307371
-0.335746
-0.363820
-0.411817
-0.464041
-0.528037
-0.600486
-0.676255
-0.757156
-0.832926
-0.906582
-0.972390
-1.024311
-1.067780
-1.090119
-1.105816
-1.101589
-1.086495
-1.055704
-1.010725
-0.957897
-0.889070
-0.814508
-0.729380
-0.636101
-0.544030
-0.451657
-0.360793
-0.274760
-0.198386
-0.127748
-0.064355
-0.016055
0.028321
0.056697
0.076017
0.087488
0.089904
0.091413
0.087187
0.087791
0.088094
0.096848
0.111640
0.128243
0.157525
0.185600
0.225749
0.265596
0.310877
0.358573
0.405967
0.456380
0.502265
0.545131
0.583469
0.607317
0.628750
0.632373
0.627543
0.606714
0.570792
0.527323
0.464836
0.397217
0.316316
0.234207
0.144854
0.057311
-0.032344
-0.119283
-0.197769
-0.276859
-0.345685
-0.409078
-0.467641
-0.516242
-0.560315
-0.598652
-0.631556
-0.656913
-0.678949
-0.700381
-0.716078
-0.733587
-0.744755
-0.761962
-0.775848
-0.789130
-0.803317
-0.820222
-0.838636
-0.852219
-0.871539
-0.889651
-0.911687
-0.939761
-0.970250
-1.011606
-1.063527
-1.122090
-1.195142
-1.276647
-1.369623
-1.469844
-1.571877
-1.679342
-1.780167
-1.881897
-1.970345
-2.051548
-2.123997
-2.178032
-2.225124
-2.254103
-2.277347
-2.286704
-2.294553
-2.290024
-2.285798
-2.275836
-2.264062
-2.251082
-2.233573
-2.216064
-2.190706
-2.165953
-2.134860
-2.100446
-2.063315
-2.021657
-1.978791
-1.938944
-1.889436
-1.850495
-1.804912
-1.765064
-1.723708
-1.685068
-1.651862
-1.612014
-1.580318
-1.541980
-1.510887
-1.474662
-1.434814
-1.396778
-1.349988
-1.303499
-1.248860
-1.193920
-1.140186
-1.087660
-1.042983
-1.004041
-0.976872
-0.957854
-0.950005
-0.956948
-0.973551
-1.006152
-1.048112
-1.102751
-1.166445
-1.236177
-1.316173
-1.397376
-1.485220
-1.568536
-1.658795
-1.743017
-1.824220
-1.903008
-1.973948
-2.040359
-2.093790
-2.139976
-2.171672
-2.198840
-2.210915
-2.209405
-2.204877
-2.185859
-2.157180
-2.120654
-2.075373
-2.026771
-1.972132
-1.917795
-1.853798
-1.798555
-1.742709
-1.689881
-1.642789
-1.597508
-1.563094
-1.531699
-1.508455
-1.491851
-1.478267
-1.473437
-1.472833
-1.478870
-1.488529
-1.500906
-1.520225
-1.536224
-1.557958
-1.579089
-1.599012
-1.612294
-1.618935
-1.625274
-1.619236
-1.604444
-1.577577
-1.535315
-1.488525
-1.422113
-1.352380
-1.271177
-1.190577
-1.110580
-1.032093
-0.966587
-0.908326
-0.860328
-0.830744
-0.809915
-0.805084
-0.805084
-0.820479
-0.834365
-0.853081
-0.873608
-0.892625
-0.911039
-0.917982
-0.925830
-0.916170
-0.899265
-0.873605
-0.831343
-0.781534
-0.717537
-0.643276
-0.556337
-0.466077
-0.371591
-0.274690
-0.182619
-0.087228
-0.004816
0.072765
0.136460
0.194420
0.241512
0.275322
0.299472
0.310641
0.309132
0.294341
0.262041
0.218270
0.156387
0.087259
0.002735
-0.089336
-0.178991
-0.274382
-0.356491
-0.445844
-0.512256
-0.578063
-0.626061
-0.658360
-0.684019
-0.680396
-0.684924
-0.658661
-0.639039
-0.600399
-0.553609
-0.508026
-0.454594
-0.406597
-0.359203
-0.322374
-0.297922
-0.277998
-0.274074
-0.271658
-0.283733
-0.305467
-0.332032
-0.367350
-0.403273
-0.450062
-0.495645
-0.543340
-0.596167
-0.645976
-0.704538
-0.761592
-0.818041
-0.876000
-0.927620
-0.986183
-1.028444
-1.075838
-1.113571
-1.141645
-1.164285
-1.177567
-1.187830
-1.183604
-1.173038
-1.156435
-1.130775
-1.109946
-1.075231
-1.051986
-1.016063
-0.995234
-0.967763
-0.946330
-0.932142
-0.920066
-0.926707
-0.930631
-0.956592
-0.987383
-1.038097
-1.094244
-1.164580
-1.248198
-1.344797
-1.456791
-1.581463
-1.716097
-1.868240
-2.023704
-2.195468
-2.364516
-2.547449
-2.726157
-2.911807
-3.092024
-3.273449
-3.452156
-3.627241
-3.797496
-3.957186
-4.106914
-4.250604
-4.381314
-4.501157
-4.606509
-4.692240
-4.772236
-4.823252
-4.871551
-4.889361
-4.902643
-4.889964
-4.866720
-4.830193
-4.775856
-4.714878
-4.635787
-4.544320
-4.443796
-4.325462
-4.199884
-4.055589
-3.908577
-3.750094
-3.581046
-3.413507
-3.238422
-3.066958
-2.889156
-2.716787
-2.547437
-2.371446
-2.206926
-2.036368
-1.872150
-1.714271
-1.562731
-1.422059
-1.289537
-1.174825
-1.067963
-0.986155
-0.910989
-0.857557
-0.820729
-0.799899
-0.795069
-0.803219
-0.827067
-0.862084
-0.911288
-0.972568
-1.044413
-1.128333
-1.220705
-1.322737
-1.433826
-1.552461
-1.676831
-1.796372
-1.919535
-2.037567
-2.151070
-2.255215
-2.344871
-2.428489
-2.497315
-2.555274
-2.596932
-2.618968
-2.633760
-2.626816
-2.612628
-2.586063
-2.551347
-2.512708
-2.470445
-2.433013
-2.389845
-2.358752
-2.328866
-2.307433
-2.290830
-2.278151
-2.276340
-2.275434
-2.279056
-2.280565
-2.284489
-2.285998
-2.282375
-2.275130
-2.257621
-2.233471
-2.205095
-2.165247
-2.126608
-2.076799
-2.033631
-1.985331
-1.941559
-1.903523
-1.866996
-1.841941
-1.814168
-1.802395
-1.784886
-1.776735
-1.768585
-1.759528
-1.749566
-1.733868
-1.713643
-1.684965
-1.648438
-1.604062
-1.550027
-1.484823
-1.410864
-1.325736
-1.237287
-1.136462
-1.037146
-0.927566
-0.822515
-0.715048
-0.603959
-0.501021
-0.392347
-0.293635
-0.190998
-0.098021
0.000389
0.094573
0.183324
0.273281
0.353580
0.432670
0.502705
0.561872
0.615001
0.657264
0.691074
0.714922
0.729714
0.732129
0.722168
0.706169
0.672359
0.634324
0.584516
0.530481
0.472824
0.400677
0.335775
0.261817
0.195707
0.123862
0.061677
0.004020
-0.048204
-0.087447
-0.120954
-0.137557
-0.151442
-0.151140
-0.149027
-0.141178
-0.133631
-0.129706
-0.131819
-0.141478
-0.158081
-0.181023
-0.218455
-0.264037
-0.319883
-0.384785
-0.462667
-0.549606
-0.643186
-0.747633
-0.851476
-0.961659
-1.073351
-1.189571
-1.299754
-1.411446
-1.520723
-1.627887
-1.733843
-1.836479
-1.937002
-2.037827
-2.135331
-2.229213
-2.324906
-2.415165
-2.506631
-2.587231
-2.668736
-2.746014
-2.811218
-2.876422
-2.926231
-2.979662
-3.021018
-3.064487
-3.098598
-3.128181
-3.155953
-3.171650
-3.193384
-3.198214
-3.207572
-3.209383
-3.203345
-3.199420
-3.181308
-3.170138
-3.145686
-3.123347
-3.096782
-3.060859
-3.033691
-2.989013
-2.953392
-2.904187
-2.859811
-2.807587
-2.758382
-2.706460
-2.647293
-2.593861
-2.533487
-2.479150
-2.419681
-2.360212
-2.300441
-2.236444
-2.171541
-2.104224
-2.032680
-1.960230
-1.883857
-1.807785
-1.726581
-1.643566
-1.560551
-1.473612
-1.387578
-1.299733
-1.215209
-1.129477
-1.047066
-0.969485
-0.887677
-0.812813
-0.743382
-0.679687
-0.625652
-0.580069
-0.548976
-0.529354
-0.532674
-0.551994
-0.588822
-0.656742
-0.732814
-0.841185
-0.957707
-1.093851
-1.236334
-1.386665
-1.541525
-1.696988
-1.853056
-1.997350
-2.141342
-2.276580
-2.398536
-2.519586
-2.630976
-2.738744
-2.835040
-2.924998
-3.007106
-3.083178
-3.152306
-3.206944
-3.256451
-3.291166
-3.321353
-3.340370
-3.351539
-3.345501
-3.330709
-3.299012
-3.260071
-3.206035
-3.145963
-3.075928
-2.997140
-2.919256
-2.834732
-2.757151
-2.673532
-2.599272
-2.527426
-2.458599
-2.400036
-2.334227
-2.277777
-2.214686
-2.156122
-2.093333
-2.029034
-1.959905
-1.884739
-1.806856
-1.726859
-1.636902
-1.550566
-1.451854
-1.370046
-1.274957
-1.197073
-1.111644
-1.042515
-0.968254
-0.906672
-0.842977
-0.780791
-0.720416
-0.653099
-0.586989
-0.507898
-0.430317
-0.340963
-0.246175
-0.142633
-0.036977
0.081055
0.200596
0.329193
0.457489
0.598463
0.735211
0.885544
1.032857
1.191340
1.343785
1.505890
1.661052
1.824969
1.975301
2.136501
2.280796
2.429920
2.560631
2.695568
2.815713
2.928613
3.033363
3.128754
3.222033
3.307161
3.388666
3.470474
3.543527
3.622316
3.682087
3.750612
3.797402
3.840872
3.866531
3.882229
3.886757
3.877399
3.866532
3.834534
3.810989
3.766614
3.728578
3.673940
3.627754
3.567078
3.508817
3.438180
3.367240
3.287547
3.200306
3.111556
3.018278
2.918359
2.818440
2.715502
2.611357
2.505703
2.404576
2.298619
2.204134
2.109045
2.019691
1.937583
1.856078
1.783931
1.714803
1.653825
1.595564
1.542435
1.494740
1.444026
1.405386
1.362219
1.334447
1.309090
1.286149
1.270753
1.254151
1.252642
1.239662
1.244492
1.241775
1.249021
1.254153
1.266832
1.279812
1.291284
1.311509
1.330528
1.353470
1.380035
1.398752
1.432260
1.457315
1.490521
1.517086
1.548179
1.579876
1.610366
1.639345
1.671042
1.702739
1.736851
1.760699
1.796018
1.833149
1.863940
1.908919
1.944238
1.987104
2.031782
2.074950
2.128683
2.171549
2.231924
2.273884
2.330334
2.380445
2.431160
2.489723
2.533193
2.599303
2.641867
2.704657
2.749938
2.808803
2.855593
2.903893
2.946457
2.988720
3.024039
3.065999
3.093772
3.136638
3.163203
3.209088
3.241992
3.292103
3.331346
3.384778
3.434285
3.481981
3.528771
3.569524
3.611787
3.642880
3.679407
3.696312
3.724990
3.734650
3.752461
3.753367
3.760008
3.749443
3.738576
3.709898
3.678504
3.633224
3.582208
3.518513
3.455724
3.381464
3.310827
3.227209
3.156269
3.076877
3.016202
2.952809
2.903906
2.859833
2.826930
2.803384
2.781951
2.775914
2.771688
2.774707
2.786179
2.799763
2.822706
2.843535
2.867987
2.890930
2.912061
2.938626
2.946173
2.966097
2.960664
2.961569
2.941646
2.925949
2.893348
2.857123
2.809126
2.761431
2.701962
2.646418
2.580913
2.527784
2.461674
2.411262
2.357227
2.311645
2.272704
2.234668
2.206293
2.178219
2.158296
2.143806
2.130223
2.125393
2.111507
2.114526
2.109093
2.112414
2.113622
2.108490
2.110302
2.106981
2.104869
2.100341
2.093398
2.094606
2.087059
2.094003
2.101550
2.107588
2.129624
2.142907
2.181849
2.202678
2.256412
2.287505
2.345162
2.389538
2.447799
2.496703
2.551946
2.599943
2.648545
2.682355
2.719485
2.744541
