EVENT_NAME: 202302060117
EVENT_ID: 13194
EVENT_DATE_YYYYMMDD: 2023/02/06
EVENT_TIME_HHMMSS: 01:17:32.00000
EVENT_LATITUDE_DEGREE: 37.288
EVENT_LONGITUDE_DEGREE: 37.043
EVENT_DEPTH_KM: 8.6
HYPOCENTER_REFERENCE: AFAD
MAGNITUDE_W: 7.7
MAGNITUDE_W_REFERENCE: AFAD
MAGNITUDE_L: 
MAGNITUDE_L_REFERENCE: 
FOCAL_MECHANISM: 
NETWORK: TK
STATION_CODE: 2718
STATION_NAME: 
STATION_LATITUDE_DEGREE: 37.00777
STATION_LONGITUDE_DEGREE: 36.6266
STATION_ELEVATION_M: 527.0
LOCATION: Kahramanmaras_Pazarck_Turkiye
SENSOR_DEPTH_M: 
VS30_M/S: None
SITE_CLASSIFICATION_EC8: unknown
MORPHOLOGIC_CLASSIFICATION: 
EPICENTRAL_DISTANCE_KM: 48.30
EARTHQUAKE_BACKAZIMUTH_DEGREE: 
DATE_TIME_FIRST_SAMPLE_YYYYMMDD_HHMMSS: 2023/02/06 01:17:10.4534030
DATE_TIME_FIRST_SAMPLE_PRECISION: millisecond
SAMPLING_INTERVAL_S: 0.01
NDATA: 10501
DURATION_S: 
STREAM: HNZ
UNITS: cm/s^2
INSTRUMENT: sensor = GMS+/GEOSIG | digitizer = 
INSTRUMENT_ANALOG/DIGITAL: 
INSTRUMENTAL_FREQUENCY_HZ: 
INSTRUMENTAL_DAMPING: 
FULL_SCALE_G: 
N_BIT_DIGITAL_CONVERTER: 
PGA_CM/S^2: 585.788
TIME_PGA_S: 
BASELINE_CORRECTION: BASELINE REMOVED
FILTER_TYPE: BUTTERWORTH
FILTER_ORDER: 
LOW_CUT_FREQUENCY_HZ: 
HIGH_CUT_FREQUENCY_HZ: 
LATE/NORMAL_TRIGGERED: 
DATABASE_VERSION: 
HEADER_FORMAT: DYNA 1.2
DATA_TYPE: Acceleration
PROCESSING: Automatic Paolucci et al., 2011
DATA_TIMESTAMP_YYYYMMDD_HHMMSS: 
DATA_LICENSE: U (unknown license)
DATA_CITATION: Turkish Accelerometric Archive v 1.0 - Disaster And Emergency Management Presidency, Earthquake Department
DATA_CREATOR: AFAD
ORIGINAL_DATA_MEDIATOR_CITATION: : AFAD - Disaster And Emergency Management Presidency
ORIGINAL_DATA_MEDIATOR: AFAD PROCESS SERVICE
ORIGINAL_DATA_CREATOR_CITATION: AFAD PROCESS SERVICE
ORIGINAL_DATA_CREATOR: network: TK
USER1: GuestUser
USER2: 
USER3: 
USER4: 
USER5: 
[...]
-21.782479
-19.968515
-13.349885
-6.856982
0.050771
2.706382
3.498938
2.492081
1.609393
4.003418
-1.726019
-10.053915
-4.159518
2.563799
-2.622983
-7.154371
-9.515657
-8.631923
-1.838469
-1.679747
-7.544783
-13.373972
-14.109631
-10.927729
-8.057550
0.234506
5.415581
8.687881
11.934724
4.408732
4.649021
16.784083
19.044068
14.801542
14.528010
15.369402
13.190472
12.940579
10.541626
1.770566
-0.856983
-1.859683
-7.043608
-8.310752
-2.602089
3.885879
6.678388
6.135996
-2.339708
-8.508933
-4.106902
-1.949265
-8.061081
-8.031984
-0.725487
-3.854648
-9.871908
-11.501689
-19.290047
-22.329847
-11.391016
-7.980519
-14.128703
-19.603048
-26.518067
-27.344125
-23.666067
-23.394346
-29.834249
-31.165296
-21.185009
-12.178072
-3.079177
4.831280
12.015425
23.257405
31.997820
41.371290
50.178985
48.365809
49.956371
50.043917
42.518963
41.418331
37.376086
34.453960
32.823401
28.276427
22.951188
15.510399
8.511216
-6.173461
-12.587906
-12.111748
-20.139093
-26.757196
-31.201822
-28.830137
-23.588536
-18.632420
-10.882240
-4.203083
6.674962
19.801818
22.854615
15.529682
4.693207
-7.241826
-15.352296
-21.391118
-26.998204
-29.198954
-27.722949
-27.880105
-30.682478
-29.926549
-27.360039
-19.683633
-14.577631
-14.475798
-11.510803
-9.620988
-0.222321
13.750859
24.610201
37.716016
48.418459
48.675892
42.016745
37.813704
34.426075
32.546917
34.414652
35.781035
31.922706
19.974944
17.554170
24.577779
11.039718
-13.915144
-29.262488
-31.753399
-22.260437
-15.034988
-7.205839
-4.920657
-9.150454
-2.373884
-1.375852
-7.577028
-13.677674
-20.350329
-19.188383
-18.725733
-18.286721
-14.306554
-17.989020
-22.560152
-12.448682
2.603054
8.969450
7.853231
8.822689
15.600817
15.502109
15.719799
21.916306
25.214324
22.336878
12.621821
17.940573
27.453019
19.283581
14.801030
17.658221
19.383343
17.107260
12.246227
11.657337
9.153697
2.325182
-0.933603
-1.720696
-1.137254
-0.285990
-4.594238
-8.475946
-13.102409
-15.100280
-11.562497
-13.223190
-12.940558
-10.267023
-6.781453
-4.877610
-6.944840
2.211723
10.775496
7.396439
-4.435726
-15.970977
-17.863383
-24.406673
-27.901587
-31.271293
-37.934336
-27.059148
-16.062129
-4.292820
12.681978
22.011807
29.304795
25.170073
21.107826
18.483654
7.478070
11.401609
13.977991
7.948002
7.419897
2.162458
-3.241490
-6.002300
-3.641785
4.502203
10.288277
12.028206
12.940515
16.029419
19.844894
25.002590
20.422366
-0.851844
-16.620532
-14.063893
-13.575266
-16.562593
-9.858239
-8.897873
-7.766060
5.274813
15.794898
20.435915
19.056292
16.522259
11.166368
2.259709
4.481248
1.496778
-3.896780
7.098941
13.346103
15.939110
17.581367
7.620310
-4.498899
-7.447781
-9.590862
-27.015312
-34.903680
-21.025575
-17.057616
-24.110831
-18.790261
-11.220100
-10.613539
-3.724230
-9.458343
-23.106026
-15.325714
-7.593718
-4.964862
3.122236
3.290050
-3.029840
-5.150581
2.777799
4.148858
-9.739111
-16.284999
-14.733921
-17.494211
-13.498717
6.863455
24.043990
30.913816
39.840225
42.502850
30.861614
16.121607
7.837611
7.035712
3.093997
-13.526471
-19.201617
-3.967263
2.284056
1.195112
10.994861
14.690843
16.147365
22.122291
10.708871
-7.025741
-21.889398
-33.927299
-33.218389
-31.499761
-33.915598
-33.831949
-28.067955
-18.749816
-13.234160
-9.514020
-2.375334
1.187387
-1.913719
-0.671765
4.323317
9.136820
12.301317
17.265745
19.161795
7.961125
4.702341
9.153987
13.478607
17.187578
7.983484
-4.525896
-13.993134
-11.792117
0.855467
6.729344
8.566946
10.021650
4.375598
-6.182666
-3.456917
1.394772
-6.747650
-13.482129
-12.450847
-6.862975
-5.733760
-0.307984
7.803013
6.000747
9.393320
13.473758
11.834367
13.016574
9.571796
6.784230
6.496671
-0.966198
0.915304
0.634239
-16.702668
-24.152549
-29.453369
-38.804491
-36.565288
-28.223097
-19.814925
-16.245710
-3.183016
15.077114
18.391496
20.275597
13.555145
6.778063
14.761515
10.503922
1.424517
3.221855
5.761091
-0.493338
-10.695460
-10.990552
-11.755045
-15.183199
-16.660236
-28.410834
-33.359929
-21.016792
-19.612483
-15.437229
2.719513
7.963452
15.746622
24.237400
18.101946
20.402974
27.702716
20.411294
1.034169
-8.022116
-4.206901
-2.705439
2.222622
13.611891
24.276407
23.575817
19.849709
15.237534
2.524755
6.098386
13.589837
2.119788
-5.332690
-5.831960
-13.044153
-11.585033
-4.109428
-12.997384
-8.355067
13.940557
18.828614
8.981076
-9.722471
-23.024143
-25.803396
-26.243959
-23.497429
-17.414700
-6.405731
-5.153906
0.023532
14.402210
10.795856
2.894759
-5.681995
-16.945269
-19.939870
-23.114749
-15.351062
3.777992
12.705700
21.531579
32.227007
38.483002
48.006877
48.759688
45.156451
37.315620
12.514021
0.007758
-4.265940
-18.531611
-22.636201
-28.482014
-29.646550
-15.616221
-12.779551
-4.084336
8.290232
4.212399
2.266482
2.780047
-3.828705
-10.038714
-6.808756
-6.313374
-10.436667
-8.215907
-5.974366
-4.359645
5.594146
20.365853
20.156224
13.237569
13.218610
7.505797
5.090479
8.570074
10.084525
14.236919
17.095149
24.129668
17.582481
-8.441585
-22.143560
-30.924751
-41.865913
-49.983916
-46.557314
-29.831633
-21.102128
-14.815740
-5.523059
3.557133
9.758836
16.135882
29.067393
34.583829
40.448093
35.162859
17.006384
23.577217
29.099887
19.365088
10.497913
6.026012
7.641773
1.138486
4.719910
12.813244
1.696739
0.641306
13.018472
10.522625
7.848838
21.186366
29.940289
39.623661
47.951045
37.847895
34.237125
37.699056
34.564180
20.941175
-4.743115
-13.715495
-12.383142
-16.059633
-18.244538
-28.925412
-37.879868
-32.385253
-23.970327
-19.778708
-27.804494
-43.230809
-39.619511
-44.263119
-56.468830
-42.099764
-38.106088
-50.190748
-56.287238
-44.698208
-22.114760
-8.329132
4.444959
14.324716
7.527373
-1.841413
7.650251
4.433808
7.126306
27.673174
21.496156
20.156536
24.974196
30.562847
50.433798
58.185536
51.142193
41.215685
31.820402
18.903186
14.827951
12.600445
0.193933
-7.387391
-16.523425
-24.186315
-17.689515
-8.979753
-8.268505
-6.503638
0.477110
-0.472598
-13.242526
-18.872472
-21.626788
-34.152533
-40.140180
-49.197505
-60.245171
-53.307545
-50.787013
-58.590438
-49.796251
-35.206382
-33.658161
-36.695883
-46.404186
-46.116619
-36.147242
-38.365657
-46.373778
-53.734559
-54.877534
-56.216114
-53.276317
-38.855556
-15.869209
-15.146790
-39.637187
-39.061278
-34.651453
-32.320812
-18.524014
-9.088980
-1.935487
-6.994983
1.366171
25.470300
44.376733
68.897010
76.468210
52.474490
19.914922
12.292815
13.580229
13.180710
15.436798
-1.093530
-8.038422
-1.756970
13.346720
30.246446
34.984357
53.421389
65.223688
43.204464
15.897924
3.353994
-7.778616
-9.210453
-20.510354
-47.418411
-53.542955
-69.830660
-74.225930
-31.687629
3.376888
23.698536
30.282618
18.609950
15.173224
33.487646
39.422827
7.137055
0.988611
-4.615358
-27.629234
-28.310861
-30.467191
-15.645609
-20.604834
-0.792591
54.949713
31.830371
15.418497
36.425933
39.919556
54.402660
43.283038
-4.413466
-40.895789
-32.685820
-4.158362
-22.052472
-30.464793
-1.833428
7.358204
9.415310
18.343017
24.583686
7.023897
15.445318
36.235068
9.424684
6.457099
2.959587
-33.847965
-18.268120
17.217740
17.492059
30.079377
35.133686
13.471123
-9.758101
-25.868124
-10.417644
2.648167
-21.488426
-38.677525
-36.414423
-52.434827
-31.747945
11.262613
-2.417281
-12.001155
1.297148
36.626628
37.352424
-11.271452
-4.746857
0.400448
4.408930
16.933645
4.616493
16.399569
-10.021942
-31.256927
-17.941479
-50.412466
-54.227933
-9.938278
9.753433
6.764807
4.102190
-14.999841
-17.753117
-10.349987
-13.538895
14.287969
30.792847
20.829712
16.456263
20.862710
10.204176
11.880202
57.140870
49.411479
22.530698
37.031207
24.063856
28.199106
36.222561
18.359364
26.094997
17.735409
-6.933188
-1.947199
20.594166
30.236496
48.939790
49.501672
39.153041
59.367405
28.285657
-2.391372
-22.914333
-53.456023
-20.878524
-9.433146
-24.964147
-31.973721
-2.788271
40.372693
-7.662549
-25.373262
14.648146
4.761123
-16.760646
-25.852259
-29.974253
-24.971639
-22.698146
-25.403106
-30.521050
-19.533382
36.160345
48.543486
-0.228198
1.788384
1.455885
-34.190505
-30.891189
-27.401203
-41.745064
-41.039531
-54.502779
-57.506732
-16.888636
-21.577183
-55.125168
-34.878333
-33.391417
-33.308028
-14.804495
-26.687315
-25.936323
-0.174874
40.741175
61.364154
54.182095
53.839205
67.687956
47.040826
-0.811019
34.789399
58.997955
12.931235
17.745777
34.072455
25.136961
24.234791
18.527174
8.987461
-11.883070
-16.795537
-5.098184
-26.781009
-36.905720
-21.181964
-41.346964
-102.412944
-122.726532
-104.187411
-97.121460
-55.961489
-4.001146
30.383558
36.993876
35.549570
38.978770
55.184656
66.637567
-1.836734
-21.670790
3.178353
8.435800
50.540028
106.482093
158.533614
134.729005
95.457034
101.752773
99.442921
51.750313
-22.746708
-60.189393
-109.324751
-119.628702
-102.259056
-117.325072
-93.072616
-56.919152
5.819481
38.166566
6.447608
-10.848256
-27.161678
2.935297
25.535889
-19.763217
-26.471200
0.658706
-29.210965
-53.335868
-3.211825
-23.510346
-57.960505
-20.232327
-59.496765
-83.301634
-90.569417
-126.578183
-98.399594
-87.879509
-87.024089
-90.601869
-96.093099
-53.330360
-15.443724
-6.793189
12.631221
84.676560
82.103043
28.242246
36.265442
24.047261
33.553472
57.777094
54.676508
16.493744
-28.472599
-17.260232
-6.002926
3.931643
10.513386
62.934817
97.865294
58.955959
99.206743
131.884772
71.694729
10.652388
-26.126849
-71.439203
-112.076255
-91.904752
-50.429163
-73.880487
-123.844766
-140.862158
-118.618747
-70.306325
-77.557743
-85.401951
-47.924970
-8.596882
33.887127
50.846599
66.094720
24.628230
-27.374187
12.963099
8.075570
5.145131
80.342494
87.025547
54.890700
51.300971
29.120690
-4.530682
-36.817753
-94.710667
-178.424254
-215.370782
-192.258447
-141.866843
-103.990598
-111.389304
-107.848404
-54.840937
-1.875033
-53.607551
-90.554599
-10.305270
4.740752
-33.584884
-36.020465
-40.540163
-70.830917
-98.759083
-62.133880
-33.915806
-22.589142
22.179526
12.980368
-11.810060
-9.430582
-8.453332
-18.069677
-67.108661
-88.269353
-89.556759
-101.592063
-90.166946
-108.593060
-142.692532
-91.475905
-11.798845
-63.629296
-152.012471
-135.339782
-71.561298
-21.609481
-31.317784
-85.422244
-120.130092
-99.052519
-95.295232
-154.023560
-149.590357
-81.390623
-59.525174
-88.523323
-91.301797
-55.699300
-50.203906
-73.197260
-89.720055
-82.941407
-98.244072
-122.018029
-38.525237
26.988237
32.503114
90.057558
15.983440
-140.642327
-174.572950
-165.816429
-142.130007
-74.320184
-4.629902
19.306677
28.840423
101.728969
305.303379
419.224346
351.670142
294.096223
162.657814
145.099064
221.744113
106.982545
-3.706382
-40.664599
-79.876823
-86.431024
7.062572
120.569209
130.723541
79.894496
52.709007
87.163070
113.779934
93.076694
64.393643
86.723038
96.785672
3.975272
-68.220464
-44.829398
-15.165976
2.875170
33.323871
25.118066
-58.518889
-126.639387
-81.000497
62.457122
238.898513
331.314333
255.874095
111.546780
118.506227
210.565385
180.444259
67.684462
-16.651528
46.891086
132.868818
133.923999
98.658429
10.016006
38.268629
139.815810
151.162477
149.421516
131.464023
62.666051
48.762236
65.346344
7.045334
46.063519
155.573366
167.205778
199.066577
240.682961
211.173588
246.603599
362.606346
371.163624
365.699150
389.887704
338.156484
327.287278
250.046070
146.497643
130.580108
-4.260741
-69.562237
-55.172909
-145.242757
-110.123429
-79.778635
-151.238189
-118.485347
-94.928549
-179.180894
-288.200292
-318.119059
-194.567196
-14.048748
88.765582
101.156775
64.383252
128.475016
170.262587
66.815471
29.758541
1.746471
13.549809
-66.942655
-236.600459
-127.800817
-37.541331
-82.122438
-71.006186
-6.025236
-8.403148
-157.580329
-189.110956
-124.915284
-107.729554
-144.729335
-170.020596
-94.189660
-48.053574
58.937304
124.010472
-45.721366
-110.633210
-51.406120
-56.654467
-64.963400
-82.415904
-84.669128
43.249953
304.307109
353.013598
225.112968
258.840979
214.380144
101.949734
50.149675
-110.946178
-302.159784
-390.717003
-350.137353
-340.254479
-364.387175
-265.235573
-161.579595
-119.930221
-106.713485
-79.644105
-25.646403
-14.241029
-15.827428
-56.466557
-131.000465
-25.381941
102.072935
5.309387
-23.212607
85.124648
108.373881
95.451210
140.917354
172.957653
109.531941
47.893952
76.935491
96.801506
125.925910
241.884496
306.611653
339.498016
250.686744
134.115632
346.296154
407.059512
187.170904
133.290884
196.288246
281.847231
287.484978
270.746057
284.514540
228.830691
137.219640
5.406906
-80.985148
-60.645575
-23.515384
45.424429
215.631910
288.786457
123.694074
-39.235221
-65.692320
-27.046383
-25.065649
-40.351429
10.484119
41.052313
3.328299
-55.152990
-128.235574
-195.331547
-236.166801
-238.325728
-183.329738
-122.477280
-108.280699
-137.975806
-112.299301
-31.698506
-93.310518
-257.809591
-355.482067
-310.285042
-161.226307
-73.222386
-65.547799
-124.619800
-215.730019
-176.678064
-22.975718
48.442541
-2.876167
-22.404217
6.505359
-32.047574
-58.572733
24.146729
87.862609
122.088336
145.298863
101.657336
169.943833
368.942172
582.296585
585.787610
315.162170
232.545843
206.412155
36.510689
34.247854
56.424245
-10.390399
-5.757434
48.641090
59.519135
-26.229993
-94.311265
-50.034858
-55.017203
-179.441618
-286.257405
-258.953455
-175.649515
-178.336291
-203.385188
-197.719126
-246.557830
-310.282275
-272.042095
-160.338507
-57.730953
-9.845590
27.537616
55.319539
11.533581
-6.055041
75.823292
180.057773
158.101932
19.925662
6.374872
105.464130
82.768210
-4.609663
-6.311918
25.253006
49.816664
113.900895
186.805546
204.300919
193.517957
140.051487
49.696414
-20.193362
-29.336151
8.428394
-3.174656
-6.071324
-36.569893
-127.691021
-105.598795
-64.784315
-96.880976
-97.602348
-23.896832
-3.305805
-114.513748
-167.555237
-182.135227
-252.261133
-260.172881
-191.315934
-124.850670
-106.363503
-95.768864
-50.298044
-5.306236
15.841994
-6.958352
-74.700888
-104.858641
12.786359
156.052009
91.431365
23.151370
59.277559
18.560239
-9.792127
13.280983
18.418677
-12.144314
27.686685
72.831236
-19.960460
-2.643028
105.246128
68.058016
17.539653
68.932662
76.297606
34.425358
25.350629
-42.026152
-163.243733
-178.463012
-99.428878
-71.188464
-49.518620
-39.165825
-6.665737
62.766856
-17.931864
-72.480787
-12.568169
15.606783
22.996146
-17.662466
-0.243724
0.958226
-78.684278
-52.465378
-33.023824
-92.699785
-95.864015
-33.523346
-9.030864
-39.018729
-36.752510
2.129297
-7.590955
1.169722
97.826253
75.920807
-42.405037
-24.789911
65.772984
93.880137
59.571292
-31.031859
-55.601485
-10.322893
-64.877270
-57.258273
27.678048
18.107942
-36.214463
-101.820407
-110.475610
-27.286228
105.373098
143.327793
74.711659
87.924238
92.562918
33.883166
23.752221
20.083262
-46.077286
-109.190497
-88.550893
-42.106202
-14.432602
-5.454240
7.633391
35.715087
51.672634
78.476012
108.930947
139.335747
160.557492
70.708706
-75.974703
-107.048398
-102.508950
-123.099450
-90.699373
-86.686474
-81.401752
-19.634651
5.778709
49.321012
68.817897
22.223588
-2.162901
-66.005540
-100.621950
-43.727056
-19.808921
-74.797111
-52.341209
96.325536
73.456091
-25.227142
19.087711
37.056901
49.396141
74.192812
26.361748
-21.615825
-1.593430
27.414339
-8.541175
-26.051348
59.127337
121.165636
48.816896
-9.224346
-4.875827
-22.116620
-26.257837
-59.929990
-78.274278
-31.734772
-26.257042
-62.318801
-89.811595
-49.858765
10.873161
-11.271012
-74.031718
-130.224192
-169.296920
-186.911780
-202.990631
-195.441252
-133.757536
-85.616821
-97.403787
-102.258067
-37.557666
74.670133
143.875689
148.457999
153.411517
158.376725
121.029635
87.275135
125.639743
166.900765
95.517322
14.438302
22.261996
5.450859
-51.169193
-76.697622
-1.940306
75.268959
21.073580
0.489834
-12.266066
-66.266878
-10.444306
40.255382
21.673147
17.181764
-13.445650
-38.686516
15.315083
53.483047
30.119524
22.860833
40.435695
80.011082
5.995931
-107.338472
-56.550462
-74.486914
-94.687243
-22.897776
-5.851802
85.484942
119.737944
77.389282
122.602413
129.331185
105.192514
119.782643
94.086923
16.403070
20.239846
100.513333
61.237986
-4.067666
40.226665
34.507878
37.332338
10.209453
-92.351335
-6.186571
63.359021
-56.688305
-79.058736
-20.380795
-85.588255
-171.750154
-154.688593
-131.210245
-155.136945
-184.732820
-157.760853
-88.664140
-68.476012
-66.856096
-19.598592
35.676129
50.256127
17.666686
-1.430668
27.689580
81.846000
77.071729
-13.606235
-8.046938
24.373921
-25.017569
15.865490
70.805110
73.077044
77.682993
36.066877
0.069800
-18.744667
-20.056491
0.242038
-33.337119
-70.252735
-60.998499
-48.118162
-34.952081
12.143068
51.255549
-8.734213
-60.378410
-47.224018
-86.427930
-110.482955
-86.046064
-70.622859
-53.316856
-52.686915
-15.035889
44.043393
61.270946
39.265489
40.297551
96.122201
54.650516
54.840410
136.829405
78.058994
57.249249
108.985412
93.449735
68.693596
67.113691
78.094605
95.596213
105.424795
94.528574
93.348972
82.565230
48.548364
39.664045
54.425101
68.536738
36.100820
-28.655683
-23.663719
-9.961477
-56.636054
-64.150357
-67.406804
-99.243697
-90.584070
-66.807248
-38.534623
-16.871274
-19.195154
-20.630108
-1.671202
-0.082717
-63.014351
-97.640372
-89.383385
-53.582945
-6.660542
-66.655758
-82.571476
-14.341089
-11.199712
-13.106924
-23.433994
-14.758261
-0.911068
-17.309954
8.044438
-42.567701
-35.570589
100.291676
108.286817
101.049167
88.739548
27.270148
11.244809
-5.282402
3.786100
13.720669
24.989405
35.890829
20.067849
5.672554
16.895571
2.507549
-93.409155
-104.968305
-75.008227
-92.716603
-21.265873
65.370370
62.561243
27.012526
12.226800
14.475614
26.345713
28.095774
34.748434
41.268093
8.294975
30.261214
83.227118
70.030132
34.852364
2.423719
21.941905
55.200776
13.620248
46.374649
130.937684
101.623916
75.289687
66.837622
29.704580
-3.577921
-32.615815
-7.274152
-9.242669
-60.230433
-37.631659
7.551338
-4.862707
-29.470519
-61.915269
-72.444698
-34.155682
-48.628908
-89.327524
-93.653175
-69.205633
-40.929891
-53.277695
-52.369803
-52.399153
-34.008879
11.132036
21.063227
39.587801
29.074218
57.713116
95.492987
34.434021
28.972144
28.240641
-14.076069
-27.424760
-34.222103
-32.442949
-68.957743
-72.507468
-25.881200
-45.000375
-61.755402
-19.404135
-14.947553
-68.477406
-69.178515
-25.303969
-32.611757
-58.967547
-86.993125
-121.032850
-93.493810
-55.518333
-76.734095
-84.194366
-53.001430
-9.340413
34.108373
43.729921
0.663001
-28.013036
15.104027
50.866540
27.232858
-11.610235
2.131751
44.412102
8.231110
-6.151197
44.813714
28.308064
57.401816
101.430144
65.461383
73.853189
57.738490
29.755773
-8.594800
-92.217208
-79.908361
-45.428582
-44.763832
