EVENT_NAME: 202302060117
EVENT_ID: 13194
EVENT_DATE_YYYYMMDD: 2023/02/06
EVENT_TIME_HHMMSS: 01:17:32.00000
EVENT_LATITUDE_DEGREE: 37.288
EVENT_LONGITUDE_DEGREE: 37.043
EVENT_DEPTH_KM: 8.6
HYPOCENTER_REFERENCE: AFAD
MAGNITUDE_W: 7.7
MAGNITUDE_W_REFERENCE: AFAD
MAGNITUDE_L: 
MAGNITUDE_L_REFERENCE: 
FOCAL_MECHANISM: 
NETWORK: TK
STATION_CODE: 2803
STATION_NAME: 
STATION_LATITUDE_DEGREE: 40.295188
STATION_LONGITUDE_DEGREE: 38.427003
STATION_ELEVATION_M: 1359.0
LOCATION: Kahramanmaras_Pazarck_Turkiye
SENSOR_DEPTH_M: 
VS30_M/S: 425
SITE_CLASSIFICATION_EC8: B
MORPHOLOGIC_CLASSIFICATION: 
EPICENTRAL_DISTANCE_KM: 355.23
EARTHQUAKE_BACKAZIMUTH_DEGREE: 
DATE_TIME_FIRST_SAMPLE_YYYYMMDD_HHMMSS: 2023/02/06 01:17:57.4236970
DATE_TIME_FIRST_SAMPLE_PRECISION: millisecond
SAMPLING_INTERVAL_S: 0.01
NDATA: 21001
DURATION_S: 
STREAM: HNE
UNITS: cm/s^2
INSTRUMENT: sensor = ACEBOX/SARA | digitizer = 
INSTRUMENT_ANALOG/DIGITAL: 
INSTRUMENTAL_FREQUENCY_HZ: 
INSTRUMENTAL_DAMPING: 
FULL_SCALE_G: 
N_BIT_DIGITAL_CONVERTER: 
PGA_CM/S^2: 7.607
TIME_PGA_S: 
BASELINE_CORRECTION: BASELINE REMOVED
FILTER_TYPE: BUTTERWORTH
FILTER_ORDER: 
LOW_CUT_FREQUENCY_HZ: 
HIGH_CUT_FREQUENCY_HZ: 
LATE/NORMAL_TRIGGERED: 
DATABASE_VERSION: 
HEADER_FORMAT: DYNA 1.2
DATA_TYPE: Acceleration
PROCESSING: Automatic Paolucci et al., 2011
DATA_TIMESTAMP_YYYYMMDD_HHMMSS: 
DATA_LICENSE: U (unknown license)
DATA_CITATION: Turkish Accelerometric Archive v 1.0 - Disaster And Emergency Management Presidency, Earthquake Department
DATA_CREATOR: AFAD
ORIGINAL_DATA_MEDIATOR_CITATION: : AFAD - Disaster And Emergency Management Presidency
ORIGINAL_DATA_MEDIATOR: AFAD PROCESS SERVICE
ORIGINAL_DATA_CREATOR_CITATION: AFAD PROCESS SERVICE
ORIGINAL_DATA_CREATOR: network: TK
USER1: GuestUser
USER2: 
USER3: 
USER4: 
USER5: 
[...]
-1.595658
-1.623479
-1.652702
-1.704137
-1.790407
-1.884860
-1.940970
-1.986326
-2.033318
-2.064880
-2.101585
-2.144603
-2.160500
-2.172423
-2.180137
-2.149976
-2.118413
-2.097370
-2.093628
-2.122852
-2.162363
-2.213563
-2.275986
-2.357347
-2.467698
-2.594649
-2.703364
-2.791505
-2.929678
-3.108999
-3.269383
-3.403348
-3.515570
-3.632234
-3.759185
-3.888941
-4.007242
-4.090005
-4.170898
-4.281717
-4.398147
-4.492132
-4.551750
-4.576765
-4.619783
-4.709560
-4.782504
-4.823885
-4.858018
-4.879059
-4.900801
-4.923245
-4.927920
-4.922541
-4.908980
-4.840243
-4.737137
-4.641747
-4.520172
-4.385503
-4.241250
-4.082033
-3.946429
-3.800539
-3.636880
-3.513668
-3.428798
-3.319380
-3.181673
-3.057291
-2.926832
-2.794969
-2.661236
-2.497343
-2.335321
-2.185222
-2.028811
-1.864684
-1.694011
-1.508843
-1.330220
-1.222907
-1.152766
-1.048024
-0.919902
-0.804873
-0.723978
-0.652669
-0.555642
-0.450900
-0.378188
-0.314828
-0.239311
-0.176652
-0.099966
-0.003173
0.086373
0.179659
0.278088
0.366465
0.445723
0.543919
0.653804
0.763924
0.874979
0.953769
0.998425
1.003102
0.965930
0.907715
0.806248
0.673218
0.531538
0.354321
0.128941
-0.109765
-0.337950
-0.561927
-0.776084
-0.997255
-1.221232
-1.435857
-1.647677
-1.830973
-2.013801
-2.206917
-2.393720
-2.605072
-2.811514
-2.967222
-3.100017
-3.250582
-3.402315
-3.543762
-3.684507
-3.798599
-3.908483
-4.040343
-4.182023
-4.337264
-4.474268
-4.577606
-4.673461
-4.760667
-4.787085
-4.727232
-4.604020
-4.444102
-4.298912
-4.147411
-3.944006
-3.729613
-3.515922
-3.309010
-3.124543
-2.952233
-2.770338
-2.584468
-2.438110
-2.305546
-2.144459
-1.971448
-1.790254
-1.609060
-1.439323
-1.279872
-1.121590
-0.948579
-0.762476
-0.591569
-0.430715
-0.240170
-0.029985
0.179966
0.356718
0.470344
0.590049
0.765164
0.967400
1.167298
1.352466
1.538570
1.743377
1.972032
2.227573
2.485920
2.712938
2.935982
3.169312
3.376925
3.546897
3.650937
3.726455
3.846160
3.967034
4.036473
4.068270
4.109887
4.152673
4.169975
4.189849
4.209255
4.238948
4.291086
4.352342
4.415468
4.453812
4.489116
4.560191
4.655582
4.732736
4.781834
4.835141
4.870913
4.872083
4.818310
4.712401
4.635015
4.574229
4.488193
4.374334
4.209508
4.022237
3.852502
3.669673
3.439384
3.167712
2.874298
2.606835
2.370233
2.106043
1.825019
1.550542
1.302952
1.115681
0.961142
0.814319
0.671470
0.539609
0.422711
0.320777
0.248768
0.190086
0.143561
0.116675
0.097037
0.088622
0.103118
0.144267
0.192664
0.236152
0.286419
0.361936
0.448209
0.516712
0.595035
0.669618
0.729237
0.814574
0.904820
0.979169
1.052816
1.134412
1.231673
1.338285
1.427831
1.498672
1.589620
1.683608
1.776660
1.892157
1.983573
2.052310
2.150038
2.290785
2.450236
2.607582
2.768670
2.927653
3.096923
3.283027
3.480352
3.691940
3.894643
4.080747
4.254927
4.426067
4.601650
4.772790
4.933644
5.069715
5.195265
5.304683
5.358224
5.361965
5.331573
5.266110
5.177970
5.088894
4.995376
4.881985
4.731655
4.561919
4.424915
4.276922
4.103445
3.954284
3.806291
3.675132
3.539530
3.364651
3.195616
3.013022
2.808450
2.614633
2.422920
2.227934
2.010270
1.754964
1.507608
1.311453
1.134002
0.946497
0.787282
0.670385
0.546707
0.404091
0.292571
0.205833
0.119095
0.032124
-0.081501
-0.206815
-0.309919
-0.420270
-0.562184
-0.676042
-0.742907
-0.843205
-0.969923
-1.055959
-1.121421
-1.207925
-1.278297
-1.301676
-1.329965
-1.362228
-1.369007
-1.360823
-1.329727
-1.285538
-1.227088
-1.141985
-1.033969
-0.910056
-0.788247
-0.672282
-0.570112
-0.465370
-0.359692
-0.257990
-0.132440
-0.035179
0.034727
0.114453
0.183892
0.259877
0.336096
0.408574
0.491807
0.575507
0.664351
0.752961
0.840169
0.937196
1.049185
1.158370
1.259839
1.364581
1.436358
1.484988
1.552557
1.624100
1.693772
1.763679
1.814413
1.833352
1.841302
1.852525
1.862112
1.876842
1.911445
1.963817
2.006603
2.058740
2.139401
2.216322
2.306802
2.430716
2.577775
2.722730
2.828174
2.901587
2.968220
3.039296
3.116216
3.184720
3.216049
3.244106
3.332950
3.446576
3.557865
3.674297
3.786988
3.904121
4.034114
4.198007
4.364004
4.477396
4.539821
4.577697
4.619548
4.640591
4.637786
4.634280
4.610901
4.577235
4.528840
4.469223
4.417087
4.359340
4.312348
4.313050
4.349524
4.361448
4.341576
4.318665
4.317263
4.360049
4.394886
4.407980
4.413592
4.364028
4.267938
4.149871
4.007256
3.843131
3.658199
3.458303
3.251627
3.044717
2.834535
2.629495
2.452278
2.305454
2.168684
2.039161
1.922030
1.789935
1.651061
1.522707
1.382430
1.225553
1.069845
0.939854
0.814306
0.687355
0.571626
0.436726
0.293877
0.151496
0.015894
-0.065934
-0.089079
-0.097495
-0.115262
-0.113858
-0.097492
-0.073643
-0.027351
0.000005
0.012397
0.050273
0.116906
0.190787
0.241756
0.287347
0.335978
0.375491
0.426693
0.510628
0.592224
0.648102
0.723386
0.802410
0.869745
0.949471
1.008856
1.063332
1.141187
1.235175
1.345996
1.464064
1.576756
1.674951
1.771978
1.868771
1.955745
2.020040
2.053006
2.108184
2.183467
2.240281
2.302004
2.362559
2.407449
2.450001
2.474784
2.464498
2.448133
2.439952
2.411429
2.366074
2.319549
2.272790
2.219252
2.161972
2.121293
2.090666
2.057234
2.015853
1.968861
1.922336
1.889138
1.867396
1.808713
1.737406
1.689713
1.635239
1.572348
1.487948
1.365673
1.204822
1.034618
0.887561
0.725307
0.537568
0.345154
0.147129
-0.025179
-0.161482
-0.307604
-0.462844
-0.575066
-0.668350
-0.763037
-0.834812
-0.910328
-0.994260
-1.066736
-1.118170
-1.156045
-1.217766
-1.305439
-1.400126
-1.477044
-1.528946
-1.587629
-1.670158
-1.754558
-1.820488
-1.881742
-1.930838
-1.987650
-2.075323
-2.157619
-2.223081
-2.270307
-2.339510
-2.455940
-2.570500
-2.689735
-2.825337
-2.970524
-3.129038
-3.285447
-3.427361
-3.542856
-3.645959
-3.734334
-3.801199
-3.856608
-3.891443
-3.937266
-3.997117
-4.041538
-4.077074
-4.108869
-4.158433
-4.243301
-4.360666
-4.499307
-4.643325
-4.792253
-4.952871
-5.108812
-5.237400
-5.353362
-5.477742
-5.623396
-5.776766
-5.908627
-6.017576
-6.078596
-6.116704
-6.181465
-6.234302
-6.256512
-6.257212
-6.249262
-6.239442
-6.223075
-6.190342
-6.111084
-6.023409
-5.982961
-5.977583
-5.989038
-6.011715
-6.040004
-6.073903
-6.129780
-6.184020
-6.209971
-6.210203
-6.192668
-6.204357
-6.209967
-6.161570
-6.105925
-6.029472
-5.922860
-5.827470
-5.750549
-5.660303
-5.543169
-5.435621
-5.331113
-5.217487
-5.113212
-5.015484
-4.912846
-4.805298
-4.717857
-4.667590
-4.649586
-4.633453
-4.598617
-4.568456
-4.561909
-4.599081
-4.661504
-4.717615
-4.777232
-4.825861
-4.851811
-4.855317
-4.844562
-4.817206
-4.744962
-4.643026
-4.523788
-4.379300
-4.212134
-4.035616
-3.879205
-3.742199
-3.614077
-3.490631
-3.364380
-3.226672
-3.077508
-2.924370
-2.770531
-2.644747
-2.554266
-2.484360
-2.416324
-2.329818
-2.243312
-2.157040
-2.080120
-2.031021
-2.000159
-1.997586
-2.001326
-2.005533
-2.024003
-2.045277
-2.081982
-2.141833
-2.229039
-2.333311
-2.432908
-2.523153
-2.590953
-2.642154
-2.674651
-2.684002
-2.684468
-2.681895
-2.682362
-2.678387
-2.665293
-2.663422
-2.691243
-2.730987
-2.767692
-2.792941
-2.779848
-2.746648
-2.694276
-2.622266
-2.552593
-2.459073
-2.364150
-2.290971
-2.219194
-2.149989
-2.071199
-1.997785
-1.946349
-1.911980
-1.893041
-1.886260
-1.891637
-1.875270
-1.823600
-1.767254
-1.718155
-1.679110
-1.655729
-1.645207
-1.637491
-1.643569
-1.656894
-1.664609
-1.674661
-1.687285
-1.719314
-1.777763
-1.860760
-1.951005
-2.014597
-2.061823
-2.101100
-2.146923
-2.207008
-2.262884
-2.313384
-2.367390
-2.441503
-2.505095
-2.537591
-2.561438
-2.564944
-2.571021
-2.612636
-2.668279
-2.717843
-2.764836
-2.798501
-2.809255
-2.827023
-2.842686
-2.840815
-2.839177
-2.836137
-2.839175
-2.838005
-2.830055
-2.821871
-2.801296
-2.774642
-2.741442
-2.718997
-2.703565
-2.693043
-2.710110
-2.730449
-2.781416
-2.874934
-2.974297
-3.085116
-3.182374
-3.252045
-3.317741
-3.382268
-3.447263
-3.502906
-3.538442
-3.570003
-3.609514
-3.641777
-3.675677
-3.721500
-3.765219
-3.802392
-3.828343
-3.845175
-3.843070
-3.819689
-3.765915
-3.661407
-3.555963
-3.467119
-3.371261
-3.270260
-3.149619
-3.017055
-2.873971
-2.713819
-2.555303
-2.389306
-2.205073
-2.026451
-1.868403
-1.705445
-1.551138
-1.425120
-1.309857
-1.210960
-1.138950
-1.091721
-1.036778
-0.978562
-0.947232
-0.916837
-0.893924
-0.874986
-0.856047
-0.849500
-0.818404
-0.784035
-0.764628
-0.742884
-0.750365
-0.784265
-0.827282
-0.883159
-0.946517
-1.000289
-1.037930
-1.089130
-1.127005
-1.145006
-1.186153
-1.198777
-1.220052
-1.259095
-1.189423
-1.201579
-1.317542
-1.263767
-1.251141
-1.308187
-1.220746
-1.200638
-1.204612
-1.129094
-1.148265
-1.151771
-1.073214
-1.042352
-1.044689
-1.050299
-1.082796
-1.120436
-1.141477
-1.160180
-1.176311
-1.193845
-1.226108
-1.267489
-1.280113
-1.259538
-1.263044
-1.254860
-1.213009
-1.196642
-1.187757
-1.183314
-1.183547
-1.155724
-1.124160
-1.097740
-1.067346
-1.049342
-1.042795
-1.014271
-0.972654
-0.951377
-0.929633
-0.892225
-0.838684
-0.789586
-0.763166
-0.721783
-0.665670
-0.624521
-0.594828
-0.567473
-0.561627
-0.574251
-0.568639
-0.563260
-0.572611
-0.571675
-0.559751
-0.551333
-0.548526
-0.543850
-0.549693
-0.578683
-0.623805
-0.675941
-0.741637
-0.832583
-0.928205
-1.046740
-1.209695
-1.396732
-1.601304
-1.814526
-2.033593
-2.236528
-2.424266
-2.615745
-2.780805
-2.939319
-3.098768
-3.237408
-3.376751
-3.508378
-3.626678
-3.740536
-3.868890
-4.007297
-4.119051
-4.217245
-4.319414
-4.416906
-4.523049
-4.654208
-4.782328
-4.880990
-4.961649
-5.023838
-5.081585
-5.128577
-5.151488
-5.172062
-5.177672
-5.166215
-5.147042
-5.124597
-5.090228
-5.027569
-4.967716
-4.912773
-4.857596
-4.822759
-4.804054
-4.793298
-4.785348
-4.808727
-4.861798
-4.898270
-4.912764
-4.907619
-4.885875
-4.857585
-4.819709
-4.753076
-4.658621
-4.568140
-4.483271
-4.413832
-4.354914
-4.283137
-4.216504
-4.170211
-4.144025
-4.139114
-4.151271
-4.162258
-4.174415
-4.192884
-4.207846
-4.224678
-4.230756
-4.233561
-4.228416
-4.195917
-4.171368
-4.135128
-4.073639
-4.011214
-3.926344
-3.815056
-3.689740
-3.573074
-3.461785
-3.340677
-3.215127
-3.075316
-2.931295
-2.794055
-2.675753
-2.573583
-2.463229
-2.367372
-2.289516
-2.210959
-2.129363
-2.039350
-1.938816
-1.833139
-1.740788
-1.642359
-1.527563
-1.416275
-1.298440
-1.179202
-1.068849
-0.949144
-0.803721
-0.666481
-0.550517
-0.421927
-0.279310
-0.105598
0.089157
0.282274
0.481470
0.661028
0.850170
1.071811
1.299531
1.534030
1.751463
1.952997
2.153128
2.347649
2.542169
2.725701
2.890061
3.044368
3.186518
3.301080
3.401380
3.490224
3.557558
3.637284
3.746235
3.856822
3.934210
3.998037
4.080802
4.161931
4.245398
4.325357
4.385210
4.438517
4.482939
4.516841
4.544430
4.575760
4.607323
4.638186
4.679803
4.699676
4.694767
4.679805
4.646841
4.608032
4.591433
4.613177
4.651988
4.701788
4.748315
4.776371
4.812845
4.837862
4.846747
4.873401
4.905199
4.925774
4.944712
4.959910
4.953598
4.948456
4.951964
4.936534
4.904972
4.864526
4.831796
4.808651
4.788078
4.760023
4.713031
4.677261
4.640322
4.592160
4.563404
4.538857
4.520621
4.511037
4.486489
4.446511
4.407000
4.370528
4.329381
4.297118
4.268829
4.229319
4.184898
4.156376
4.160351
4.175549
4.202904
4.266732
4.359784
4.464526
4.577685
4.691545
4.794183
4.923708
5.080821
5.212450
5.320699
5.421466
5.495347
5.526443
5.533692
5.525744
5.488337
5.433863
5.373077
5.311122
5.227891
5.114734
5.002746
4.879302
4.747208
4.626803
4.505931
4.367758
4.230286
4.109881
3.974981
3.861123
3.774852
3.669177
3.581036
3.507391
3.444501
3.387455
3.318252
3.276871
3.237594
3.176574
3.107371
3.023205
2.946988
2.886903
2.831728
2.779358
2.767669
2.806013
2.849734
2.905379
2.964998
3.013629
3.073950
3.145726
3.206047
3.242988
3.267304
3.277124
3.288815
3.313598
3.325757
3.329499
3.331838
3.329734
3.339087
3.358727
3.370652
3.391461
3.437052
3.485683
3.534548
3.580607
3.615443
3.649812
3.684182
3.724162
3.753855
3.767183
3.775834
3.785421
3.808100
3.825402
3.849250
3.893673
3.933653
3.984388
4.048449
4.117187
4.204862
4.301187
4.387459
4.476771
4.578240
4.661706
4.714312
4.734419
4.739798
4.748449
4.755931
4.770194
4.761545
4.716423
4.660312
4.601163
4.567029
4.566095
4.604439
4.666630
4.718300
4.781192
4.856242
4.924512
4.967532
4.982262
4.989277
4.994421
5.010554
5.011023
4.977824
4.932702
4.885009
4.837783
4.770918
4.682543
4.581076
4.459503
4.322732
4.172869
4.008277
3.824747
3.640282
3.461194
3.282574
3.116345
2.942401
2.768924
2.617191
2.490941
2.384798
2.263926
2.126922
1.988047
1.863668
1.757993
1.667982
1.609299
1.558800
1.523498
1.511108
1.500120
1.509005
1.529814
1.555533
1.592941
1.640637
1.701659
1.769227
1.849888
1.935693
2.021731
2.117823
2.230748
2.366118
2.497279
2.614178
2.728272
2.850783
2.991063
3.142564
3.320017
3.519213
3.735711
3.981433
4.233935
4.472175
4.698726
4.926913
5.154632
5.380949
5.605629
5.808332
5.989526
6.157160
6.303751
6.419716
6.523523
6.624992
6.703315
6.767142
6.827697
6.880536
6.911866
6.920517
6.940391
6.974293
7.025729
7.102649
7.197338
7.298106
7.368713
7.423891
7.470183
7.498474
7.530037
7.557393
7.581007
7.599712
7.607194
7.597376
7.548046
7.469023
7.367556
7.252061
7.136332
7.016162
6.888743
6.745660
6.595563
6.435647
6.261001
6.094071
5.955196
5.851859
5.765823
5.685631
5.600997
5.503037
5.405779
5.310624
5.215703
5.121718
5.043397
4.982143
4.926968
4.871325
4.804694
4.745076
4.698785
4.660677
4.630752
4.602698
4.581189
4.553836
4.534198
4.529055
4.513392
4.487208
4.453308
4.432501
4.386678
4.277963
4.150311
4.000681
3.847779
3.719659
3.592240
3.455937
3.304204
3.145457
2.989281
2.838015
2.690724
2.531041
2.352889
2.166086
1.979283
1.769100
1.541850
1.330498
1.139253
0.969283
0.805159
0.643839
0.482754
0.324708
0.183963
0.041348
-0.090279
-0.212788
-0.342077
-0.462482
-0.588497
-0.709603
-0.817383
-0.922824
-1.027798
-1.136747
-1.240552
-1.341552
-1.437641
-1.536069
-1.650629
-1.759343
-1.844912
-1.899152
-1.927441
-1.945208
-1.965782
-1.986121
-1.999680
-2.021890
-2.041060
-2.071687
-2.132239
-2.191623
-2.261060
-2.352941
-2.449966
-2.548394
-2.660849
-2.802062
-2.963849
-3.126804
-3.284616
-3.448507
-3.618243
-3.792889
-3.974081
-4.149194
-4.317293
-4.476274
-4.628475
-4.769688
-4.887053
-4.982208
-5.049307
-5.107755
-5.164801
-5.209922
-5.247095
-5.259252
-5.262056
-5.255743
-5.225114
-5.176717
-5.097459
-5.009083
-4.926084
-4.844721
-4.764294
-4.663760
-4.548731
-4.431598
-4.326388
-4.243623
-4.176288
-4.099134
-3.997198
-3.897599
-3.805716
-3.733939
-3.685074
-3.649536
-3.649769
-3.666835
-3.693487
-3.720139
-3.718735
-3.711487
-3.700731
-3.683663
-3.658178
-3.615860
-3.552734
-3.458045
-3.354472
-3.237338
-3.090045
-2.928490
-2.757350
-2.587378
-2.429330
-2.268009
-2.077697
-1.867279
-1.650080
-1.437323
-1.250752
-1.074001
-0.890469
-0.690337
-0.492778
-0.340341
-0.218532
-0.114958
-0.019568
0.081199
0.173550
0.254679
0.331833
0.419040
0.502273
0.575219
0.644424
0.695626
0.747297
0.801071
0.846662
0.892020
0.935975
0.968941
0.982035
0.972216
0.929199
0.877063
0.823290
0.751983
0.693301
0.615681
0.507200
0.396148
0.258910
0.107410
-0.036374
-0.171742
-0.308980
-0.456038
-0.603797
-0.766051
-0.934618
-1.100379
-1.275492
-1.436110
-1.579661
-1.752202
-1.943915
-2.108975
-2.269359
-2.433483
-2.594569
-2.762200
-2.910661
-3.049535
-3.192384
-3.338039
-3.498189
-3.663015
-3.836024
-4.002721
-4.157026
-4.318813
-4.479664
-4.622514
-4.736138
-4.839709
-4.928785
-4.986532
-5.025341
-5.036563
-5.028847
-5.020195
-5.008504
-4.993774
-4.978810
-4.961742
-4.939530
-4.934386
-4.933450
-4.903756
-4.850216
-4.781245
-4.716014
-4.656395
-4.599581
-4.540663
-4.459301
-4.357131
-4.237893
-4.115616
-3.993105
-3.864048
-3.736628
-3.608506
-3.479916
-3.338936
-3.204034
-3.089005
-2.971170
-2.860349
-2.755373
-2.661152
-2.590076
-2.528353
-2.460785
-2.361887
-2.249196
-2.145857
-2.047661
-1.961155
-1.880026
-1.798430
-1.726420
-1.678256
-1.646459
-1.625182
-1.622376
-1.629155
-1.649728
-1.687602
-1.730386
-1.753531
-1.761480
-1.781118
-1.803094
-1.821796
-1.810807
-1.765683
-1.723365
-1.668188
-1.617453
-1.592435
-1.573263
-1.565079
-1.558298
-1.551049
-1.553854
-1.555723
-1.542864
-1.527666
-1.510598
-1.477164
-1.440690
-1.395099
-1.346702
-1.310229
-1.268612
-1.230034
-1.185144
-1.127161
-1.072452
-1.025925
-0.998336
-0.976592
-0.951341
-0.924921
-0.891487
-0.856183
-0.841686
-0.862727
-0.900835
-0.959985
-1.035267
-1.097456
-1.144448
-1.175074
-1.198219
-1.221832
-1.244977
-1.264381
-1.277239
-1.289396
-1.290564
-1.286120
-1.275832
-1.259699
-1.257360
-1.251515
-1.248474
-1.272788
-1.291491
-1.284476
-1.275357
-1.255483
-1.251274
-1.258053
-1.242154
-1.256648
-1.232566
-1.224850
-1.248229
-1.070308
-1.043421
-1.193985
-1.040145
-0.999698
-1.110049
-0.996656
-1.013956
-1.067729
-0.975144
-1.031021
-1.105601
-1.063283
-1.082687
-1.168256
-1.236290
-1.301051
-1.381476
-1.455121
-1.513336
-1.573421
-1.648702
-1.753209
-1.884836
-1.990745
-2.061117
-2.149959
-2.253530
-2.347282
-2.440332
-2.550450
-2.650982
-2.722289
-2.809962
-2.925223
-3.053109
-3.181229
-3.308881
-3.438404
-3.538234
-3.625440
-3.727375
-3.819957
-3.898746
-3.991563
-4.105888
-4.209693
-4.279832
-4.328694
-4.394390
-4.469672
-4.523211
-4.576983
-4.634730
-4.693646
-4.746951
-4.782721
-4.807502
-4.780849
-4.719827
-4.667689
-4.608771
-4.537228
-4.448150
-4.355799
-4.244511
-4.095815
-3.937299
-3.767094
-3.584030
-3.391847
-3.195924
-3.001872
-2.789583
-2.564903
-2.345600
-2.141260
-1.944636
-1.753622
-1.580378
-1.427239
-1.293506
-1.167956
-1.049186
-0.931118
-0.820998
-0.732388
-0.647753
-0.575274
-0.499523
-0.413251
-0.349657
-0.283258
-0.214520
-0.168228
-0.131988
-0.096216
-0.061379
-0.021867
0.037986
0.108828
0.174526
0.228534
0.277165
0.332108
0.377933
0.421421
0.460933
0.488756
0.506760
0.509800
0.515880
0.510503
0.488060
0.467019
0.438029
0.398518
0.339135
0.272971
0.214990
0.155139
0.092716
0.012525
-0.092215
-0.200930
-0.294214
-0.399188
-0.524035
-0.631815
-0.728606
-0.808797
-0.871688
-0.943696
-1.022719
-1.117640
-1.204377
-1.253941
-1.285503
-1.310285
-1.314726
-1.304204
-1.294384
-1.274744
-1.267261
-1.265156
-1.237801
-1.208341
-1.164387
-1.114821
-1.087231
-1.066423
-1.059875
-1.055666
-1.038832
-1.017321
-0.990434
-0.958636
-0.926839
-0.898315
-0.864647
-0.845007
-0.844305
-0.848746
-0.873995
-0.909531
-0.946704
-0.984812
-1.020348
-1.043961
-1.042557
-1.034373
-1.016370
-0.986209
-0.951606
-0.896896
-0.817171
-0.712662
-0.598802
-0.475356
-0.332505
-0.189888
-0.048673
0.113349
0.301323
0.497948
0.703924
0.909900
1.094601
1.258260
1.405787
1.554951
1.701309
1.844862
2.001507
2.153710
2.303107
2.451569
2.592316
