EVENT_NAME: 202302060117
EVENT_ID: 13194
EVENT_DATE_YYYYMMDD: 2023/02/06
EVENT_TIME_HHMMSS: 01:17:32.00000
EVENT_LATITUDE_DEGREE: 37.288
EVENT_LONGITUDE_DEGREE: 37.043
EVENT_DEPTH_KM: 8.6
HYPOCENTER_REFERENCE: AFAD
MAGNITUDE_W: 7.7
MAGNITUDE_W_REFERENCE: AFAD
MAGNITUDE_L: 
MAGNITUDE_L_REFERENCE: 
FOCAL_MECHANISM: 
NETWORK: TK
STATION_CODE: 2409
STATION_NAME: 
STATION_LATITUDE_DEGREE: 39.2808
STATION_LONGITUDE_DEGREE: 38.49109
STATION_ELEVATION_M: 897.0
LOCATION: Kahramanmaras_Pazarck_Turkiye
SENSOR_DEPTH_M: 
VS30_M/S: 875
SITE_CLASSIFICATION_EC8: A
MORPHOLOGIC_CLASSIFICATION: 
EPICENTRAL_DISTANCE_KM: 255.09
EARTHQUAKE_BACKAZIMUTH_DEGREE: 
DATE_TIME_FIRST_SAMPLE_YYYYMMDD_HHMMSS: 2023/02/06 01:17:53.4737600
DATE_TIME_FIRST_SAMPLE_PRECISION: millisecond
SAMPLING_INTERVAL_S: 0.01
NDATA: 18251
DURATION_S: 
STREAM: HNE
UNITS: cm/s^2
INSTRUMENT: sensor = CMG-5T/GURALP | digitizer = 
INSTRUMENT_ANALOG/DIGITAL: 
INSTRUMENTAL_FREQUENCY_HZ: 
INSTRUMENTAL_DAMPING: 
FULL_SCALE_G: 
N_BIT_DIGITAL_CONVERTER: 
PGA_CM/S^2: 15.838
TIME_PGA_S: 
BASELINE_CORRECTION: BASELINE REMOVED
FILTER_TYPE: BUTTERWORTH
FILTER_ORDER: 
LOW_CUT_FREQUENCY_HZ: 
HIGH_CUT_FREQUENCY_HZ: 
LATE/NORMAL_TRIGGERED: 
DATABASE_VERSION: 
HEADER_FORMAT: DYNA 1.2
DATA_TYPE: Acceleration
PROCESSING: Automatic Paolucci et al., 2011
DATA_TIMESTAMP_YYYYMMDD_HHMMSS: 
DATA_LICENSE: U (unknown license)
DATA_CITATION: Turkish Accelerometric Archive v 1.0 - Disaster And Emergency Management Presidency, Earthquake Department
DATA_CREATOR: AFAD
ORIGINAL_DATA_MEDIATOR_CITATION: : AFAD - Disaster And Emergency Management Presidency
ORIGINAL_DATA_MEDIATOR: AFAD PROCESS SERVICE
ORIGINAL_DATA_CREATOR_CITATION: AFAD PROCESS SERVICE
ORIGINAL_DATA_CREATOR: network: TK
USER1: GuestUser
USER2: 
USER3: 
USER4: 
USER5: 
[...]
-4.063601
-3.489545
-2.748994
-1.942874
-1.188502
-0.536663
-0.229064
-0.372416
-0.761976
-1.144143
-1.162464
-0.771617
-0.415162
-0.518659
-1.079214
-1.936439
-2.978801
-4.024378
-5.102739
-6.183351
-7.089110
-7.617202
-7.692735
-7.515953
-7.197105
-6.755152
-6.034208
-4.910204
-3.433281
-1.830362
-0.283370
1.372583
2.929218
4.014330
4.592243
4.695419
4.326430
3.673306
2.932114
2.172279
1.509191
0.963100
0.462329
-0.077012
-0.462393
-0.464321
-0.200114
0.077915
0.031631
-0.452426
-1.316080
-2.318907
-3.007709
-3.142704
-2.853105
-2.480258
-2.180373
-1.949593
-1.752563
-1.527890
-1.219648
-0.818516
-0.475561
-0.256995
-0.192711
-0.342492
-0.591591
-0.744586
-0.810798
-0.925866
-0.978578
-0.788618
-0.248633
0.694733
1.975269
3.277982
4.214277
4.607052
4.492627
4.041355
3.429373
2.774964
2.111876
1.364577
0.445639
-0.477798
-0.995926
-0.893392
-0.289766
0.459463
0.952842
0.924558
0.479393
-0.080519
-0.683180
-1.383552
-2.124423
-2.728370
-2.957541
-2.837009
-2.527160
-2.118956
-1.683433
-1.209017
-0.656175
-0.010122
0.719822
1.519836
2.290600
2.762444
2.753445
2.558023
2.822551
3.689420
4.769711
5.594474
5.992713
5.892431
5.200737
4.031735
2.779164
1.863762
1.423097
1.436276
1.489311
1.321209
0.830723
0.064139
-0.596699
-1.114505
-1.476101
-1.691773
-1.940873
-2.273541
-2.598174
-2.771097
-2.705206
-2.294110
-1.864693
-1.557737
-1.307993
-1.122855
-0.719152
0.132931
1.219972
2.071413
2.518508
2.515937
1.999417
1.027766
-0.366550
-1.522695
-1.892006
-1.674083
-1.160454
-0.677360
-0.635254
-0.931280
-1.109346
-1.123167
-0.779569
-0.250190
-0.003661
0.078301
0.163157
0.308760
0.621823
1.034526
1.378124
1.619189
1.878897
2.230851
2.532986
2.496345
2.234389
2.100036
2.276817
2.564488
2.728091
2.723592
2.647737
2.482207
2.270714
2.021293
1.565842
0.896005
0.249631
-0.113251
-0.187820
0.204634
0.887651
1.368173
1.712092
1.975335
2.204187
2.546177
2.856669
2.669925
1.603777
-0.170457
-2.160685
-3.867743
-5.099743
-5.889791
-6.311172
-6.047929
-5.179131
-4.326084
-3.451823
-2.420709
-1.624874
-1.228884
-0.821003
0.091186
1.474254
3.051138
4.504598
5.304611
5.683565
5.711529
5.159331
4.190574
3.264243
2.528836
1.952211
1.384263
0.242261
-1.217304
-2.680405
-4.164719
-5.432396
-6.561864
-7.560513
-8.250600
-8.482021
-8.212671
-7.576582
-6.501112
-5.247254
-4.233818
-2.824072
-1.205082
0.403301
2.763805
5.276020
7.344354
8.747993
9.499472
9.644754
9.088057
8.438790
7.822951
7.065045
6.031682
4.637687
3.308618
2.282648
1.395209
0.332276
-0.810369
-1.970050
-3.090196
-3.657822
-3.291082
-2.187327
-0.772438
0.816338
2.528540
3.974285
5.248392
6.530534
7.510221
7.618540
6.992737
5.820843
4.422990
3.450697
2.633650
1.866101
1.637893
1.598681
1.847139
2.245378
2.051562
1.939388
2.300021
2.891433
3.348813
3.362314
2.899470
2.509268
2.379093
2.091745
2.003034
2.120031
2.172101
2.494807
2.825870
3.022579
2.930011
2.045465
0.634434
-0.708777
-1.794209
-2.219125
-2.097950
-2.398797
-3.125526
-3.235772
-2.970279
-2.862925
-2.762963
-2.808604
-2.934921
-2.913064
-2.252868
-1.105400
-0.215068
0.227206
0.839832
1.736914
2.385539
2.744565
2.533714
1.759094
0.673018
-0.879758
-2.231969
-3.030053
-3.552359
-3.552037
-3.162154
-3.436967
-4.306085
-4.909389
-5.496943
-6.168709
-6.566947
-7.061289
-7.864194
-8.414464
-8.790845
-9.434005
-9.916776
-10.138876
-10.321763
-10.257800
-9.588605
-8.323497
-6.754649
-4.939272
-3.062182
-0.954634
1.014060
2.683513
3.893336
4.318896
4.486356
4.030905
2.513485
1.013743
-0.289613
-1.158087
-1.356402
-1.490112
-1.496219
-0.828309
0.160057
1.219455
2.303604
2.837160
3.105868
3.093333
2.605097
2.308428
2.535672
2.354070
1.623163
0.462518
-1.625743
-3.781502
-5.621628
-7.518323
-9.106134
-9.954038
-10.330419
-10.095461
-8.870531
-7.459500
-6.153251
-5.258419
-4.612365
-4.485725
-5.052066
-5.751474
-6.289529
-6.580092
-6.366990
-5.531621
-4.687573
-3.976592
-3.004620
-2.518312
-2.758733
-3.367179
-4.048588
-4.375470
-4.370006
-4.392183
-4.814528
-5.503972
-6.615118
-8.177216
-9.180044
-9.188721
-8.296782
-6.775825
-5.201191
-3.152142
-0.706139
1.613223
3.488063
4.667030
5.749571
7.061927
8.056721
8.275286
7.942618
7.567844
6.673977
5.752468
5.424621
5.452906
5.691721
5.840539
6.206636
6.961008
7.850055
8.583213
8.733959
8.262759
7.050044
5.202526
2.864843
0.571517
-1.171862
-2.696675
-4.055957
-5.362204
-6.536349
-6.727914
-6.347032
-6.029790
-5.506840
-4.970712
-4.210555
-2.763203
-1.382063
-0.461839
0.584060
1.246185
0.960444
0.363568
-0.259342
-1.616052
-3.239220
-4.465113
-5.707720
-6.596765
-7.196854
-7.371706
-6.567193
-5.689074
-4.998986
-4.187402
-3.493135
-3.283569
-3.320854
-3.486384
-3.653521
-3.173320
-2.611800
-2.618228
-2.985931
-3.830942
-4.633526
-4.505922
-3.647731
-2.808505
-2.003349
-1.554647
-0.940414
0.170412
0.856322
1.109922
1.302132
1.984827
2.665594
2.761377
2.573348
2.141360
2.049114
2.330356
2.265430
2.244538
2.604529
3.334151
4.222876
4.575153
4.324446
3.485863
2.684565
1.915731
0.534914
-0.976721
-2.084975
-2.626244
-2.899129
-3.068195
-2.910056
-2.251788
-0.741117
1.303432
2.982207
4.390024
5.221215
5.420174
5.633919
5.912590
6.254902
6.562180
7.267053
7.990890
8.099852
7.457978
6.046626
4.160537
1.862711
-0.385939
-2.608553
-4.278005
-5.403294
-6.634972
-7.792082
-8.436527
-8.860800
-9.736667
-10.271187
-10.278579
-10.200795
-10.077369
-9.674952
-9.284105
-8.776584
-7.647758
-6.740391
-6.007554
-4.946869
-3.674369
-2.557758
-1.700532
-0.856805
-0.183110
-0.238715
-0.917552
-1.859632
-3.107381
-4.503948
-5.705091
-7.104551
-8.403406
-8.826393
-9.155205
-9.415233
-9.106669
-8.304727
-7.238900
-6.246035
-5.523162
-4.909251
-3.736712
-2.228612
-1.141250
-0.403592
-0.399091
-0.245774
0.217714
0.148609
-0.192738
-0.817255
-1.406416
-1.307740
-1.171457
-1.039996
-0.785753
-0.473011
0.070188
0.583817
0.990734
1.216371
1.037984
-0.240622
-1.989464
-3.049183
-3.893873
-4.764276
-5.320331
-5.832030
-6.420227
-7.019031
-7.657691
-8.325599
-8.521665
-8.400489
-8.133068
-7.874003
-7.567047
-7.044740
-6.334724
-5.367894
-4.338708
-3.117636
-1.868921
-0.958018
-0.768058
-0.841663
-1.148296
-2.135696
-3.558298
-4.847832
-5.578096
-6.280718
-6.697277
-6.547495
-5.984368
-4.983789
-3.956853
-3.210195
-2.608819
-1.915195
-1.307712
-0.725300
-0.442450
-0.442771
0.005610
1.065651
2.423327
3.252269
3.824074
4.341881
4.647873
4.580697
3.515192
2.414010
1.759922
1.041229
0.152826
-0.417692
-0.832966
-1.198740
-1.980753
-3.259680
-4.394933
-5.418653
-5.807892
-5.477151
-4.676173
-3.746627
-3.154572
-2.865294
-2.769511
-2.324344
-2.044388
-2.047923
-1.236017
-0.517644
-0.456573
-0.544320
-0.706958
-0.569069
-0.010441
0.158626
-0.057689
-0.254718
-0.574851
-0.762238
-0.510245
-0.483888
-0.596706
-0.533707
-0.812055
-1.812633
-3.052669
-4.325168
-5.345352
-6.252719
-7.787817
-9.411627
-10.177248
-10.329921
-10.141890
-9.878005
-9.957716
-9.758757
-8.960350
-8.060697
-7.216328
-6.615594
-5.928078
-5.204241
-5.199419
-5.576443
-5.896898
-6.339813
-6.438810
-5.795006
-5.041599
-4.302012
-3.480142
-2.357745
-1.316024
-0.614365
-0.282338
-0.324765
-0.767680
-1.721653
-2.900297
-3.640525
-4.030085
-4.585819
-5.769284
-6.790433
-6.684043
-5.715284
-4.497425
-3.381135
-2.013495
-0.803029
0.444721
2.154994
3.926659
5.322905
6.426660
7.649018
8.827342
9.946525
10.954176
11.419591
11.861865
12.188106
11.890794
10.717935
8.465107
6.038070
4.160660
2.854733
1.615341
0.121063
-1.190328
-1.710384
-1.784631
-1.904520
-2.554108
-3.667826
-4.830720
-5.608555
-5.609840
-5.257885
-5.050569
-4.917501
-4.258269
-3.204013
-2.148150
-1.267139
-0.514374
-0.042530
-0.213846
-0.756401
-0.918396
-1.120568
-1.687230
-1.652195
-0.837717
-0.040918
0.260895
0.157720
0.078652
0.108544
-0.019702
-0.830321
-1.810971
-2.544771
-3.538920
-4.408038
-4.709528
-4.601210
-3.666200
-2.115029
-0.512110
0.748497
1.712113
2.619802
2.931258
2.879831
3.126360
3.510136
4.043050
4.698746
5.590042
6.515731
7.213854
7.766053
7.523382
6.572946
5.686471
5.092168
4.630931
3.665709
2.202930
0.875469
-0.307354
-1.490820
-2.448006
-3.133593
-4.240561
-5.299316
-5.662840
-5.562878
-5.171710
-4.535942
-4.011064
-3.536648
-2.781312
-1.706485
-0.680514
0.116285
0.579451
0.646950
0.455063
-0.183597
-1.029251
-1.239458
-0.533942
-0.064669
-0.189380
-0.576368
-0.668615
-0.612366
-0.800074
-0.623293
-0.270695
-0.453904
-0.834785
-1.097384
-1.115383
-0.558363
0.468251
1.219409
1.403261
0.972881
0.013445
-0.850530
-1.024096
-1.316908
-2.187311
-2.421304
-1.948174
-1.536435
-1.948494
-3.061248
-3.884081
-3.927150
-3.969899
-4.557453
-5.206398
-5.242396
-3.845186
-1.343899
0.646330
2.589632
4.639003
5.866825
7.314820
8.982023
9.916069
10.418448
10.782938
10.881614
11.362137
12.275932
12.787954
12.559747
11.944551
11.630203
11.159967
9.998680
8.951496
8.109699
7.316436
6.845558
5.669485
3.541367
1.465320
-0.286094
-1.767836
-2.953552
-4.130911
-5.950144
-7.967371
-8.714028
-8.204578
-7.297532
-5.905142
-4.309616
-2.820479
-0.770787
1.676822
2.931644
2.980179
3.106818
3.362669
3.519522
3.578021
3.230567
2.826222
2.955112
3.619165
4.075260
4.174900
4.240792
3.933515
3.667059
3.021650
1.645011
0.141090
-1.645680
-3.344380
-3.677049
-2.766789
-1.927884
-1.803172
-1.881919
-1.314614
-0.080363
1.020821
1.518700
1.712195
2.199467
2.816593
3.226725
3.580287
4.015489
4.502761
4.732898
3.997813
2.860310
2.403574
2.391360
2.669710
2.656854
1.912447
0.802265
-0.551553
-2.077652
-2.920091
-2.737203
-2.304893
-1.803479
-1.334848
-1.257386
-1.436416
-1.173816
-0.953643
-1.524162
-2.115894
-2.292031
-2.126821
-1.945219
-2.442775
-3.319607
-3.685382
-3.303535
-2.224208
-1.343197
-1.023706
-0.478899
-0.029554
0.585643
0.860779
0.563788
0.355187
0.312117
0.625823
1.379231
2.704122
4.318934
5.454509
6.740830
7.889905
8.247324
8.713704
8.930341
8.869593
8.101723
5.612973
2.505491
-0.030829
-2.438902
-4.737693
-6.699315
-8.279734
-9.685300
-10.786804
-11.570424
-12.527931
-13.538473
-14.014174
-13.458760
-11.474638
-8.451688
-5.187352
-2.129046
0.702981
3.558471
6.386320
8.616328
10.187748
11.839201
12.935885
12.489434
10.644166
7.778391
4.500878
1.397896
-1.001821
-2.564883
-3.500213
-4.004198
-4.908671
-6.206884
-7.033574
-7.339243
-7.333778
-6.951289
-6.226487
-5.570470
-4.985807
-4.488893
-3.680844
-2.269491
-0.747891
0.625856
1.648614
2.491376
3.752305
4.790168
5.412115
5.937315
5.995493
6.196059
6.551871
6.224024
4.945739
3.359857
2.396242
2.180891
2.585237
2.833374
1.933079
0.130559
-1.736565
-3.009064
-3.520120
-3.422408
-2.914565
-1.884094
-0.191178
2.166756
5.286131
8.775782
11.396958
12.807668
13.460150
13.693180
13.856783
13.875426
13.309728
12.523858
11.717739
10.210604
7.953598
5.179749
2.823424
1.929557
2.419401
2.931422
3.130060
3.753936
5.129933
6.754708
8.248345
9.210032
9.317387
9.472954
9.434706
8.465306
7.301768
6.305369
5.606925
5.420823
5.233115
5.019372
4.573885
4.563922
5.598250
6.874928
7.556338
6.651221
4.086938
1.348124
-1.170518
-3.450345
-4.778771
-4.251642
-2.861181
-2.181379
-1.970206
-2.048632
-1.262118
0.702720
1.974577
2.623523
3.398787
4.362724
5.857647
7.209216
7.495279
7.134647
6.462881
5.589907
4.841965
4.413513
4.700541
5.273954
4.912358
3.431901
1.909980
1.135682
0.803335
-0.605125
-3.020269
-5.219420
-7.635529
-10.498090
-12.619457
-13.600750
-13.903205
-13.665354
-12.924482
-11.437917
-9.619325
-8.711958
-8.188686
-6.405451
-3.231434
0.455890
3.706405
6.294153
8.086388
8.906329
9.460135
10.322825
11.307012
12.312091
12.285092
9.488423
4.654276
0.808172
-1.699541
-3.477311
-4.771667
-6.106200
-7.495374
-8.959760
-9.454745
-8.164246
-6.250835
-3.830547
-1.399651
-0.747812
-1.401257
-2.558688
-3.170027
-2.765038
-1.688926
-0.807272
0.453657
2.043398
3.641496
5.467801
6.988116
7.459638
7.283501
6.731946
5.282667
3.846887
3.362508
3.036911
2.326253
1.814876
1.522706
1.135075
-0.262135
-3.052376
-5.757120
-7.692707
-9.304303
-10.455305
-10.615693
-9.528652
-7.552886
-5.909790
-4.694181
-2.518814
0.288142
2.041485
3.272201
4.872548
5.404819
5.187862
4.352172
2.458691
0.312896
-1.181061
-0.921996
0.756135
1.989422
3.158424
5.340863
7.984859
10.338935
10.779602
9.396856
9.063545
10.164728
10.904636
11.039954
10.262441
9.063226
8.159717
7.743801
7.076856
5.929389
4.916919
3.661777
2.299923
1.205169
0.794075
1.720727
3.007370
3.934344
4.635681
4.482043
4.286621
5.156061
6.080464
6.548130
7.131828
7.727418
8.072302
8.085802
8.648930
9.545047
10.385560
11.370389
12.161081
12.370969
12.214760
11.689561
10.357599
8.583686
6.787595
5.108180
3.190271
1.440786
0.483278
0.021720
-0.026814
-0.317376
-1.939901
-4.643680
-7.242677
-9.057089
-10.036453
-10.003346
-8.891234
-7.342635
-4.945489
-2.139497
0.056762
2.284199
5.352148
8.555414
11.091413
12.217668
12.403770
11.763824
9.981876
8.897729
9.061011
9.587817
9.900559
10.219086
10.198195
8.746987
6.676403
5.833964
5.883463
4.790638
2.264282
-0.038045
-1.867563
-3.901183
-6.447146
-9.540485
-12.607147
-14.878296
-15.838054
-15.817161
-15.196821
-13.464370
-10.694056
-7.639285
-4.695726
-1.766952
2.297718
6.785055
9.973536
12.104868
13.426546
14.566621
15.442168
15.342207
14.864900
13.617150
10.762625
7.960813
5.314246
2.022912
-1.001001
-3.164474
-5.434337
-8.098261
-10.155023
-11.248170
-11.333667
-10.062131
-7.882586
-5.996817
-4.608928
-3.608349
-2.147497
0.142938
2.546834
3.669553
3.369026
2.647440
1.788929
0.914348
0.451505
0.484290
-0.242439
-1.439083
-1.713253
-2.063278
-3.190817
-3.370168
-3.008249
-2.697758
-1.661822
-0.451356
0.751396
1.723690
2.038360
2.253069
2.378744
1.924901
1.730764
2.493493
3.249472
3.928953
5.089277
5.320700
3.422076
0.085100
-2.672356
-4.742939
-6.417855
-7.234581
-7.579785
-8.486187
-9.552334
-10.429487
-10.784977
-9.729113
-8.130373
-6.734448
-5.337880
-4.712076
-5.417270
-5.735796
-5.050529
-4.029700
-1.876833
1.309077
4.393418
6.896311
8.555800
9.925690
11.662641
12.471011
13.118672
14.298603
14.462527
13.622981
13.215100
13.754764
13.854726
13.580555
13.618484
13.216067
11.496474
9.638992
8.677306
7.756118
5.766211
3.398958
0.593610
-2.674260
-5.059834
-6.727358
-7.710579
-7.719578
-7.185379
-6.566646
-5.351037
-3.576801
-2.115307
-1.199582
-0.764701
-0.001973
1.518663
3.565141
4.778178
5.000280
4.908354
4.804215
5.056851
6.207854
7.502211
8.173657
9.210235
10.370238
10.461200
10.019570
9.419159
8.599219
7.347291
5.544450
4.002281
2.779602
1.975733
2.035517
2.957349
4.541625
5.859767
5.956515
6.238721
8.017778
10.055578
11.479466
12.330907
12.659398
12.525045
12.414799
12.228698
11.248690
9.221499
6.594539
4.355853
2.951573
1.562720
-0.251049
-0.926029
0.026980
1.470475
2.267917
2.431199
2.638515
3.236677
4.284504
4.828347
4.004871
2.510271
1.704473
1.559192
1.919825
3.054436
4.230189
5.657935
7.242211
8.637493
9.420150
9.805533
10.080347
9.923173
9.236300
8.039014
7.187253
6.984438
6.188604
4.356514
2.676456
0.863008
-1.640527
-4.184561
-6.570778
-8.952174
-11.032399
-11.895088
-11.213357
-9.190022
-6.325532
-2.942271
0.275459
2.627929
4.453270
6.376965
7.801497
7.610253
6.700958
5.686880
3.688938
1.658854
0.661168
1.595214
3.819436
5.572458
6.461505
6.859101
7.027204
7.160915
8.072140
8.912331
8.553306
7.120740
5.620676
4.215431
2.730153
1.316551
0.312437
-0.570823
-1.062272
-0.960703
-0.272544
0.376403
1.037563
1.775864
1.775221
1.465052
1.493981
1.196668
0.028309
-1.471433
-2.831358
-3.752545
-4.263601
-5.091577
-6.171546
-6.461144
-6.254792
-5.807055
-5.251641
-4.713263
-4.132136
-3.646471
-3.111950
-2.592857
-2.268545
-2.220653
-1.908554
-1.251893
-1.231965
-2.360789
-3.756070
-4.556725
-5.152636
-5.884508
-6.474955
-6.624735
-6.549201
-6.639198
-6.171532
-4.575042
-3.413753
-3.472572
-3.362967
-2.237035
-0.993141
-0.950713
-1.626979
-2.064752
-2.436312
-3.220575
-3.497638
-1.747187
0.657030
2.184094
2.961609
3.626626
4.332463
4.612099
4.105864
3.398420
2.574944
1.404978
-0.058122
-2.292951
-4.220181
-5.291471
-6.297834
-7.186237
-7.613403
-7.434372
-6.537290
-5.783882
-5.557924
-5.500068
-5.741453
-6.144834
-5.922090
-5.419389
-5.145861
-4.213101
-2.646824
-1.100153
0.255594
1.396312
2.827915
4.353051
4.457191
3.472041
2.024047
1.354531
1.773984
2.278935
2.132368
1.032793
-0.529948
-1.914622
-2.722348
-4.125022
-6.278531
-7.817808
-8.659926
-8.853742
-8.202867
-8.254936
-9.233336
-9.771713
-9.499792
-9.265155
-9.697464
-10.090880
-9.879707
-9.496253
-8.946626
-7.625913
-5.155483
-2.267851
0.210293
2.103133
2.936895
2.735044
1.926675
0.948275
0.069194
-0.159013
0.401864
0.539432
-0.672961
-2.241166
-3.087784
-3.211851
-3.052105
-3.393452
-4.320747
-4.841124
-4.469563
-4.303067
-4.840480
-5.537316
-6.423469
-7.347549
-7.819714
-8.536800
-9.572412
-10.210429
-10.062254
-9.108924
-7.632001
-5.477848
-3.444227
-2.161763
-1.074079
-0.684840
-1.033579
-0.527665
0.948615
2.434859
3.635682
5.047035
6.669240
7.532894
7.557323
6.679205
5.260139
3.330338
1.115437
-0.602227
-1.721730
-2.676988
-3.838597
-4.424866
-4.205979
-3.714528
-3.687849
-3.888736
-4.607429
-6.053494
-7.552915
-9.198903
-11.031315
-11.921646
-11.715616
-10.346047
-8.081325
-5.314868
-2.419200
-0.046803
2.046923
3.655306
4.302967
4.143865
3.653058
3.103753
3.001864
3.125932
3.360890
3.197931
1.928646
0.251802
-1.126765
-2.736433
-5.039402
-7.973318
-10.965089
-13.538693
-15.278857
-15.740415
-15.620525
-14.869046
-13.023134
-10.538240
-8.408515
-7.119944
-6.026474
-4.620585
-3.249410
-2.155940
-1.416675
-0.517986
0.572590
1.368425
1.534921
1.093613
0.863799
1.010688
1.595993
1.845737
1.929949
2.530361
3.187343
2.823175
1.434644
0.182073
-0.528584
-0.783470
-0.828146
-0.868002
-1.121922
-1.041888
-0.669684
-0.825572
-1.218989
-1.798829
-2.480237
-3.113433
-3.660167
-3.804484
-3.732485
-3.869409
-4.033332
-4.120437
-4.409713
-4.974447
-5.561358
-5.769316
-5.206510
-3.920510
-2.612654
-2.370946
-3.420380
-4.061933
-4.047468
-4.371458
-4.900836
-5.169542
-5.491282
-6.016802
-6.470646
-7.040522
-7.234016
-6.807813
-6.285184
-5.858017
-5.427958
-4.946792
-4.492626
-4.248990
-4.009532
-3.778109
-3.412976
-3.161304
-3.380512
-3.704823
-4.040706
-4.591940
-4.558190
-4.058382
-3.762676
-3.192799
-2.071366
-1.159177
-1.077858
-1.181354
-1.503416
-2.326892
-3.654353
-5.338912
-6.169780
-6.349453
-6.221206
-6.358130
-6.823866
-6.975576
-6.935076
-6.793008
-6.106777
-5.250194
-5.369762
-6.259450
-7.634482
-9.327397
-10.606646
-10.857352
-10.721391
-10.555860
-10.576751
-9.879913
-7.911219
-5.855099
-4.004365
-2.127918
-0.289078
1.203273
2.023857
2.509844
3.072007
3.962661
3.868807
2.516918
