EVENT_NAME: 202302060117
EVENT_ID: 13194
EVENT_DATE_YYYYMMDD: 2023/02/06
EVENT_TIME_HHMMSS: 01:17:32.00000
EVENT_LATITUDE_DEGREE: 37.288
EVENT_LONGITUDE_DEGREE: 37.043
EVENT_DEPTH_KM: 8.6
HYPOCENTER_REFERENCE: AFAD
MAGNITUDE_W: 7.7
MAGNITUDE_W_REFERENCE: AFAD
MAGNITUDE_L: 
MAGNITUDE_L_REFERENCE: 
FOCAL_MECHANISM: 
NETWORK: TK
STATION_CODE: 2802
STATION_NAME: 
STATION_LATITUDE_DEGREE: 40.332029
STATION_LONGITUDE_DEGREE: 38.760255
STATION_ELEVATION_M: 1461.0
LOCATION: Kahramanmaras_Pazarck_Turkiye
SENSOR_DEPTH_M: 
VS30_M/S: 309
SITE_CLASSIFICATION_EC8: C
MORPHOLOGIC_CLASSIFICATION: 
EPICENTRAL_DISTANCE_KM: 369.72
EARTHQUAKE_BACKAZIMUTH_DEGREE: 
DATE_TIME_FIRST_SAMPLE_YYYYMMDD_HHMMSS: 2023/02/06 01:17:59.2150570
DATE_TIME_FIRST_SAMPLE_PRECISION: millisecond
SAMPLING_INTERVAL_S: 0.01
NDATA: 21001
DURATION_S: 
STREAM: HNN
UNITS: cm/s^2
INSTRUMENT: sensor = ACEBOX/SARA | digitizer = 
INSTRUMENT_ANALOG/DIGITAL: 
INSTRUMENTAL_FREQUENCY_HZ: 
INSTRUMENTAL_DAMPING: 
FULL_SCALE_G: 
N_BIT_DIGITAL_CONVERTER: 
PGA_CM/S^2: 7.395
TIME_PGA_S: 
BASELINE_CORRECTION: BASELINE REMOVED
FILTER_TYPE: BUTTERWORTH
FILTER_ORDER: 
LOW_CUT_FREQUENCY_HZ: 
HIGH_CUT_FREQUENCY_HZ: 
LATE/NORMAL_TRIGGERED: 
DATABASE_VERSION: 
HEADER_FORMAT: DYNA 1.2
DATA_TYPE: Acceleration
PROCESSING: Automatic Paolucci et al., 2011
DATA_TIMESTAMP_YYYYMMDD_HHMMSS: 
DATA_LICENSE: U (unknown license)
DATA_CITATION: Turkish Accelerometric Archive v 1.0 - Disaster And Emergency Management Presidency, Earthquake Department
DATA_CREATOR: AFAD
ORIGINAL_DATA_MEDIATOR_CITATION: : AFAD - Disaster And Emergency Management Presidency
ORIGINAL_DATA_MEDIATOR: AFAD PROCESS SERVICE
ORIGINAL_DATA_CREATOR_CITATION: AFAD PROCESS SERVICE
ORIGINAL_DATA_CREATOR: network: TK
USER1: GuestUser
USER2: 
USER3: 
USER4: 
USER5: 
[...]
-2.603926
-2.585222
-2.537059
-2.468089
-2.380415
-2.252294
-2.081154
-1.870269
-1.638108
-1.408285
-1.172150
-0.939287
-0.720219
-0.499748
-0.285122
-0.084290
0.103449
0.274823
0.424219
0.548366
0.652640
0.730494
0.783566
0.811155
0.805310
0.785671
0.741951
0.661525
0.567071
0.453446
0.337015
0.229936
0.120987
0.029338
-0.051088
-0.131514
-0.200484
-0.261739
-0.302419
-0.311303
-0.297275
-0.265011
-0.216615
-0.151385
-0.089195
-0.049683
-0.029109
-0.029109
-0.059034
-0.120289
-0.204690
-0.306625
-0.427264
-0.552813
-0.687480
-0.831967
-0.958451
-1.079558
-1.210484
-1.327383
-1.440307
-1.555802
-1.654231
-1.744009
-1.820928
-1.861141
-1.869791
-1.851555
-1.789131
-1.688130
-1.562581
-1.402430
-1.217496
-1.008481
-0.757850
-0.484073
-0.200009
0.092705
0.385185
0.689823
0.988850
1.269173
1.550198
1.821403
2.068059
2.281750
2.451253
2.584284
2.693701
2.783246
2.850580
2.900846
2.936150
2.935215
2.886819
2.803120
2.696041
2.568621
2.427642
2.296715
2.173972
2.034395
1.898325
1.788441
1.678556
1.566100
1.462996
1.338382
1.187349
1.035381
0.884114
0.740329
0.609169
0.475905
0.330249
0.157707
-0.047567
-0.258452
-0.463726
-0.674377
-0.877546
-1.052427
-1.189432
-1.277807
-1.322462
-1.340230
-1.332047
-1.301887
-1.260505
-1.207433
-1.142905
-1.072999
-0.997249
-0.923836
-0.858606
-0.801794
-0.764620
-0.741707
-0.727446
-0.724640
-0.719028
-0.710378
-0.697051
-0.668995
-0.639069
-0.603999
-0.564721
-0.537601
-0.517260
-0.512584
-0.528950
-0.559343
-0.624339
-0.716455
-0.813714
-0.926872
-1.035587
-1.115546
-1.179606
-1.219819
-1.223326
-1.199712
-1.141263
-1.055459
-0.954458
-0.832182
-0.707100
-0.586695
-0.461613
-0.356872
-0.284160
-0.232725
-0.204669
-0.201162
-0.226412
-0.278782
-0.347285
-0.430516
-0.525905
-0.630413
-0.745441
-0.872159
-0.999110
-1.108995
-1.203917
-1.285745
-1.333440
-1.348403
-1.348403
-1.316606
-1.237115
-1.123489
-0.979236
-0.800615
-0.599081
-0.382819
-0.154399
0.082204
0.324652
0.560320
0.775414
0.972037
1.147152
1.305433
1.450855
1.542504
1.555596
1.525437
1.474937
1.408772
1.348219
1.289770
1.182924
1.031658
0.920604
0.842049
0.712525
0.563129
0.455115
0.368142
0.283040
0.251712
0.270182
0.221318
0.144633
0.178767
0.203784
0.111200
0.048309
0.071689
0.069819
0.017916
-0.041001
-0.135689
-0.255393
-0.314543
-0.359198
-0.477733
-0.618245
-0.770213
-0.980163
-1.200166
-1.437704
-1.737198
-2.028743
-2.314209
-2.662567
-3.003677
-3.272310
-3.509614
-3.733826
-3.918759
-4.092470
-4.291899
-4.437321
-4.500914
-4.564272
-4.588353
-4.557726
-4.529202
-4.435917
-4.305224
-4.231110
-4.105327
-3.836694
-3.516859
-3.250330
-2.984035
-2.634508
-2.299944
-1.982914
-1.602760
-1.299758
-1.065026
-0.721811
-0.332305
0.020262
0.356696
0.662737
0.929500
1.168674
1.399199
1.654272
1.956806
2.310073
2.656795
2.928701
3.152913
3.370578
3.570241
3.819470
4.144915
4.400222
4.608068
4.909901
5.197705
5.386614
5.586277
5.782667
5.881095
5.903774
5.911256
5.915230
5.893955
5.832466
5.705047
5.485044
5.219450
4.945206
4.652726
4.355570
4.028722
3.674753
3.342293
2.993702
2.643707
2.353331
2.111351
1.940212
1.830327
1.776320
1.798064
1.767904
1.660124
1.597700
1.572216
1.573385
1.606351
1.621782
1.593726
1.549539
1.572451
1.614301
1.582738
1.517042
1.430771
1.303819
1.105793
0.870359
0.624171
0.363721
0.141847
-0.119538
-0.384196
-0.635528
-0.921228
-1.146842
-1.456390
-1.680367
-1.848701
-2.152871
-2.178121
-2.321907
-2.473875
-2.369835
-2.719361
-2.649222
-2.265093
-2.509878
-2.792539
-3.248677
-3.023063
-2.232828
-2.586096
-2.670730
-2.140244
-2.121306
-1.873247
-1.606952
-1.485845
-1.161801
-1.049345
-0.925198
-0.635757
-0.393075
-0.146419
0.033605
0.179495
0.389445
0.572274
0.678652
0.760715
0.803033
0.850961
0.941441
0.956404
0.945650
0.949858
0.900527
0.889071
0.916426
0.896553
0.859847
0.810750
0.741780
0.704373
0.680292
0.644521
0.666030
0.710686
0.713258
0.734300
0.795555
0.871773
0.963188
1.072605
1.193245
1.297518
1.409741
1.533888
1.622497
1.712509
1.829642
1.929707
2.022759
2.131475
2.250477
2.334177
2.330670
2.290691
2.248374
2.174027
2.058297
1.860271
1.620863
1.441307
1.289806
1.135266
0.965764
0.778960
0.668140
0.618108
0.566205
0.542825
0.519679
0.536747
0.641488
0.697366
0.686144
0.740151
0.841152
0.897029
0.960389
1.098797
1.216163
1.286303
1.377484
1.438505
1.479653
1.542311
1.551196
1.519633
1.496721
1.445754
1.382395
1.327453
1.256145
1.158651
1.018841
0.854481
0.688485
0.510566
0.351584
0.181146
-0.038156
-0.239455
-0.437247
-0.651639
-0.829325
-0.981761
-1.119000
-1.219766
-1.266759
-1.297854
-1.340639
-1.330585
-1.292476
-1.233559
-1.090942
-0.974277
-0.925647
-0.835402
-0.721542
-0.653975
-0.606981
-0.559053
-0.552506
-0.551804
-0.511825
-0.525853
-0.612825
-0.679223
-0.686471
-0.684600
-0.733464
-0.782327
-0.826515
-0.949024
-1.108708
-1.268859
-1.450519
-1.630776
-1.828335
-2.045766
-2.258755
-2.492786
-2.733831
-2.953367
-3.143911
-3.309439
-3.473331
-3.623663
-3.784749
-3.935782
-3.988152
-4.021117
-4.059927
-4.018779
-3.998672
-4.022753
-3.966408
-3.834312
-3.710867
-3.641897
-3.565211
-3.471692
-3.452287
-3.445974
-3.421659
-3.462106
-3.540895
-3.596539
-3.624127
-3.664573
-3.703617
-3.684913
-3.659663
-3.643765
-3.588822
-3.510500
-3.421891
-3.292133
-3.062310
-2.789001
-2.588403
-2.385700
-2.118704
-1.861527
-1.582606
-1.235417
-0.878175
-0.546884
-0.242246
0.058184
0.361185
0.648055
0.951056
1.263176
1.515209
1.728199
1.977427
2.251905
2.504172
2.756674
2.978547
3.078145
3.148986
3.307968
3.456430
3.513243
3.532882
3.536389
3.490331
3.428842
3.385824
3.292773
3.158573
3.051494
2.923607
2.744753
2.562859
2.387043
2.206552
2.020216
1.812136
1.584652
1.391301
1.236294
1.037099
0.793482
0.552204
0.295728
0.034343
-0.225873
-0.496610
-0.759164
-1.033174
-1.328694
-1.626318
-1.935631
-2.246582
-2.525502
-2.752986
-2.958026
-3.171483
-3.370444
-3.538310
-3.635570
-3.676952
-3.735167
-3.776315
-3.835700
-3.933894
-3.930855
-3.896720
-3.912852
-3.854636
-3.766027
-3.712487
-3.648427
-3.588107
-3.503940
-3.365064
-3.201873
-3.038683
-2.883207
-2.716743
-2.567113
-2.429874
-2.278373
-2.175268
-2.081048
-1.941003
-1.832989
-1.764486
-1.690606
-1.626545
-1.599658
-1.568797
-1.500762
-1.501931
-1.535130
-1.461249
-1.399059
-1.403501
-1.369133
-1.337102
-1.304838
-1.204539
-1.095122
-1.013059
-0.904577
-0.773884
-0.660258
-0.544528
-0.435579
-0.334812
-0.166945
0.035523
0.169256
0.263710
0.366347
0.427836
0.429005
0.454255
0.503119
0.490728
0.461503
0.449580
0.418719
0.420823
0.450282
0.417317
0.354893
0.371960
0.445840
0.428306
0.353725
0.377572
0.435554
0.440230
0.443737
0.442335
0.431580
0.458233
0.487692
0.430879
0.313513
0.223034
0.126943
0.004668
-0.113867
-0.273317
-0.407283
-0.449600
-0.524882
-0.604841
-0.564628
-0.506880
-0.459418
-0.280330
-0.037648
0.119230
0.250391
0.430415
0.619791
0.806361
0.998776
1.191659
1.382672
1.579997
1.780829
1.945422
2.103937
2.326045
2.573636
2.804160
2.994472
3.149947
3.343999
3.555586
3.715269
3.833571
3.958886
4.134468
4.283163
4.354004
4.429755
4.514623
4.590608
4.651395
4.674307
4.687634
4.664956
4.639238
4.663553
4.640174
4.590609
4.602767
4.629653
4.627783
4.576816
4.515795
4.486103
4.465295
4.465996
4.453605
4.405209
4.367101
4.301638
4.194091
4.095195
4.000507
3.896000
3.745668
3.516080
3.274334
3.057370
2.799492
2.479190
2.142054
1.809595
1.453288
1.070795
0.694616
0.327788
-0.027817
-0.403529
-0.824832
-1.212701
-1.536978
-1.842317
-2.159580
-2.488532
-2.766985
-2.995872
-3.210264
-3.397302
-3.594393
-3.776053
-3.888275
-3.988340
-4.095887
-4.177248
-4.229385
-4.249024
-4.227280
-4.186366
-4.148724
-4.062453
-3.899028
-3.684636
-3.441019
-3.203481
-2.969684
-2.726534
-2.478709
-2.232754
-1.998255
-1.753937
-1.589577
-1.541649
-1.464495
-1.411657
-1.449532
-1.464963
-1.475249
-1.516865
-1.512890
-1.465429
-1.492550
-1.569001
-1.569469
-1.556142
-1.549128
-1.534165
-1.559415
-1.523877
-1.439476
-1.386404
-1.342684
-1.336371
-1.296392
-1.214095
-1.157048
-1.049969
-0.943123
-0.881401
-0.798870
-0.742057
-0.732471
-0.732939
-0.712832
-0.670281
-0.644095
-0.608792
-0.559694
-0.495634
-0.373591
-0.255523
-0.171824
-0.091397
-0.051886
-0.026401
0.056831
0.156896
0.173028
0.114345
0.088628
0.037894
-0.086954
-0.156625
-0.198709
-0.256690
-0.270718
-0.312333
-0.371250
-0.386681
-0.402111
-0.385278
-0.334543
-0.277029
-0.194031
-0.163871
-0.184445
-0.182341
-0.197303
-0.202213
-0.166442
-0.160363
-0.169715
-0.150075
-0.115707
-0.089288
-0.064739
0.003530
0.069461
0.096348
0.163214
0.242238
0.278476
0.335289
0.414079
0.450084
0.459904
0.476504
0.476738
0.465983
0.446812
0.403326
0.361944
0.336460
0.326407
0.310041
0.297183
0.335759
0.353762
0.346514
0.396313
0.445879
0.487261
0.527708
0.541035
0.601588
0.668454
0.666584
0.672663
0.711941
0.751219
0.750752
0.727372
0.781847
0.862040
0.913242
0.997876
1.027569
0.994837
1.027335
1.038558
0.996241
1.006528
1.018686
0.982213
0.941065
0.924232
0.893839
0.812243
0.763848
0.739767
0.662146
0.621232
0.619829
0.572135
0.523505
0.501061
0.478616
0.445651
0.412686
0.397723
0.375980
0.370369
0.390008
0.347457
0.291580
0.294853
0.259784
0.179591
0.079526
-0.075247
-0.227215
-0.390172
-0.606902
-0.817553
-1.029373
-1.227399
-1.400643
-1.633972
-1.883434
-2.111386
-2.365991
-2.585293
-2.782150
-2.993035
-3.125831
-3.198542
-3.212804
-3.100581
-2.942767
-2.780980
-2.637662
-2.569159
-2.487330
-2.359209
-2.213085
-2.006408
-1.764895
-1.565466
-1.478260
-1.439917
-1.340319
-1.254048
-1.156554
-0.958995
-0.800013
-0.720522
-0.658799
-0.663709
-0.726132
-0.804220
-0.908961
-1.047603
-1.194427
-1.319743
-1.469373
-1.636304
-1.769802
-1.912652
-1.998455
-1.975543
-1.993078
-2.081219
-2.186428
-2.304495
-2.419757
-2.554892
-2.641396
-2.627602
-2.615678
-2.609599
-2.586687
-2.571724
-2.566113
-2.575231
-2.524964
-2.433315
-2.393803
-2.333717
-2.231314
-2.121897
-1.983021
-1.831754
-1.653834
-1.455808
-1.269705
-1.088278
-0.922749
-0.760494
-0.609461
-0.471988
-0.330306
-0.180208
0.031612
0.217715
0.259565
0.250447
0.238757
0.174931
0.052889
-0.078038
-0.176232
-0.266010
-0.346670
-0.420550
-0.522485
-0.732435
-0.978390
-0.980494
-0.869907
-0.954074
-1.131292
-1.225279
-1.159581
-1.042215
-0.984935
-0.867101
-0.726354
-0.598233
-0.367008
-0.129470
0.022265
0.162076
0.311706
0.485184
0.714072
0.935946
1.172081
1.489812
1.736234
1.873941
2.047185
2.248952
2.444407
2.601519
2.715846
2.850279
2.952215
2.998507
3.009028
2.943331
2.869919
2.818952
2.735252
2.680310
2.637759
2.552190
2.521796
2.561542
2.664647
2.871791
3.035216
3.101614
3.232073
3.431502
3.603344
3.763729
3.957079
4.122842
4.233662
4.385864
4.538300
4.627611
4.765551
4.949550
5.086088
5.202051
5.303987
5.346304
5.353085
5.368749
5.375763
5.363840
5.349345
5.303754
5.250215
5.233615
5.182180
5.080011
4.986025
4.855332
4.687700
4.551864
4.427250
4.307312
4.161189
3.935809
3.742225
3.626261
3.517312
3.417714
3.287490
3.134820
2.999685
2.832053
2.665356
2.497489
2.270940
2.051171
1.870680
1.689019
1.480238
1.277069
1.107800
0.888498
0.630620
0.387003
0.082833
-0.226948
-0.457472
-0.685892
-0.941198
-1.219884
-1.489686
-1.671346
-1.845291
-2.046123
-2.164191
-2.275244
-2.435161
-2.589000
-2.808535
-3.028071
-3.155256
-3.310731
-3.512732
-3.743022
-4.021942
-4.254103
-4.428281
-4.577911
-4.673768
-4.736659
-4.802590
-4.868287
-4.868053
-4.766819
-4.618123
-4.446282
-4.271869
-4.118966
-3.959282
-3.746760
-3.472048
-3.177463
-2.843367
-2.432351
-2.029284
-1.708281
-1.409254
-1.055051
-0.677936
-0.327006
-0.006470
0.239252
0.387947
0.504612
0.633902
0.775817
0.927552
1.066661
1.166960
1.232891
1.292510
1.398654
1.560676
1.709137
1.851052
2.041831
2.231908
2.372421
2.494229
2.629832
2.765902
2.861993
2.955278
3.088776
3.197258
3.290544
3.434095
3.571568
3.681219
3.813081
3.975571
4.146944
4.290963
4.409733
4.504888
4.547673
4.580171
4.651947
4.734712
4.788251
4.823087
4.850909
4.832907
4.790356
4.778900
4.764405
4.727699
4.680706
4.600514
4.511905
4.423530
4.258235
4.013216
3.747622
3.462623
3.194926
2.990120
2.776195
2.483247
2.132785
1.773439
1.424146
1.093557
0.815339
0.573359
0.308233
0.050121
-0.139021
-0.277897
-0.420279
-0.546763
-0.625319
-0.693120
-0.765129
-0.848361
-0.959882
-1.041711
-1.091743
-1.163987
-1.221500
-1.229216
-1.220097
-1.215421
-1.187365
-1.139203
-1.096886
-0.989105
-0.790377
-0.593052
-0.436875
-0.300571
-0.115637
0.103197
0.234591
0.315719
0.400354
0.443840
0.475871
0.511642
0.548348
0.585055
0.596043
0.607032
0.592303
0.515150
0.442205
0.403863
0.359675
0.267793
0.160714
0.068832
-0.051340
-0.169875
-0.277655
-0.429389
-0.579487
-0.709712
-0.864252
-1.030715
-1.195776
-1.349614
-1.505791
-1.673190
-1.811364
-1.970813
-2.199700
-2.440044
-2.717327
-3.032486
-3.289429
-3.527434
-3.803315
-4.059089
-4.280261
-4.515227
-4.806071
-5.113981
-5.363911
-5.581342
-5.822620
-6.094293
-6.389111
-6.690475
-6.964486
-7.163447
-7.284788
-7.364045
-7.395373
-7.369188
-7.311907
-7.229844
-7.085357
-6.881252
-6.664054
-6.456910
-6.260754
-6.044959
-5.789184
-5.532709
-5.272726
-4.999183
-4.729848
-4.453967
-4.181360
-3.932132
-3.710492
-3.501944
-3.270251
-3.018685
-2.752156
-2.496382
-2.284795
-2.056609
-1.797561
-1.557685
-1.322718
-1.092662
-0.899779
-0.745239
-0.599349
-0.426339
-0.242106
-0.084527
0.044763
0.179664
0.338647
0.508851
0.699864
0.929453
1.184760
1.434222
1.658199
1.887087
2.144031
2.390453
2.617003
2.873478
3.156373
3.410745
3.635424
3.810305
3.861507
3.843972
3.859403
3.856597
3.804461
3.755831
3.707903
3.652259
3.584458
3.496784
3.400226
3.308812
3.259481
3.224177
3.144687
3.045790
2.947830
2.878860
2.825086
2.729463
2.615604
2.496368
2.385081
2.276599
2.134918
2.046543
2.019189
1.959337
1.877040
1.802459
1.773001
1.782587
1.793341
1.841036
1.893173
1.906266
1.910475
1.898317
1.876574
1.865118
1.859274
1.861144
1.849688
1.815554
1.772536
1.717360
1.651663
1.573341
1.495720
1.443116
1.395655
1.345389
1.294421
1.225218
1.160690
1.124451
1.105046
1.075588
1.028595
0.986979
0.921282
0.846234
0.812801
0.756222
0.690993
0.656859
0.550715
0.389161
0.249818
0.106267
-0.035882
-0.178732
-0.298670
-0.358989
-0.438948
-0.536909
-0.577823
-0.591617
-0.594188
-0.600968
-0.643987
-0.708047
-0.813723
-0.927816
-0.960782
-0.929920
-0.865626
-0.752234
-0.599330
-0.461857
-0.388445
-0.334671
-0.280196
-0.262194
-0.283002
-0.335606
-0.350569
-0.291184
-0.217771
-0.136410
-0.081701
-0.061594
0.017663
0.135029
0.227146
0.286297
0.313417
0.352228
0.416756
0.513548
0.642605
0.737760
0.812108
0.894639
0.925734
0.932982
0.969220
0.974832
0.937892
0.904459
0.853725
0.774234
0.681885
0.571532
0.454868
0.342178
0.207978
0.045022
-0.115597
-0.267097
-0.418130
-0.547420
-0.689101
-0.864449
-0.986023
-1.020157
-1.045173
-1.100583
-1.152486
-1.224963
-1.346537
-1.423223
-1.442394
-1.480035
-1.487984
-1.471852
-1.522586
-1.610493
-1.681801
-1.727626
-1.735808
-1.725989
-1.718039
-1.703310
-1.689983
-1.685775
-1.675020
-1.670811
-1.700737
-1.751004
-1.814129
-1.880994
-1.940613
-2.017999
-2.086502
-2.103101
-2.126481
-2.170434
-2.200360
-2.263953
-2.374305
-2.481150
-2.546380
-2.563213
-2.560407
-2.526273
-2.490034
-2.513647
-2.522765
-2.507334
-2.534455
-2.536559
-2.497982
-2.480447
-2.439298
-2.344610
-2.261145
-2.195915
-2.100526
-1.992277
-1.871871
-1.706577
-1.522344
-1.334137
-1.145930
-0.966608
-0.781908
-0.600013
-0.398947
-0.192270
-0.068358
0.001782
0.093898
0.205653
0.323253
0.434307
0.529697
0.593524
0.637478
0.688913
0.733335
0.775419
0.814463
0.814697
0.752741
0.704111
0.711125
0.617606
0.494629
0.420048
0.254052
0.157494
0.084082
-0.056430
-0.165379
-0.462302
-0.638117
-0.558158
-0.700307
-0.842222
-0.927557
-1.017803
-0.946027
-1.013594
-1.042585
-0.925686
-0.994189
-1.045390
-1.106411
-1.250898
-1.303268
-1.428116
-1.576109
-1.632220
-1.741403
-1.858769
-1.898982
-1.903424
-1.879577
-1.797280
-1.699786
-1.635024
-1.542908
-1.414319
-1.307474
-1.222138
-1.129788
-1.022942
-0.940412
-0.897627
-0.857413
-0.809017
-0.735604
-0.622914
-0.512795
-0.418809
-0.317107
-0.228497
-0.185011
-0.168645
-0.151344
-0.152045
-0.166774
-0.150174
-0.132172
-0.147135
-0.121884
-0.047069
0.012082
0.065388
0.106770
0.118928
0.143944
0.180417
0.197952
0.213850
0.234658
0.239802
0.231385
0.248219
0.329113
0.470561
0.641700
0.809099
0.960600
1.103450
1.221051
1.313167
1.413700
1.513999
1.613363
1.712961
1.764163
1.760656
1.720911
1.659890
1.598401
1.511896
1.390322
1.248407
1.093633
0.940263
0.793906
0.673266
0.568759
0.455835
0.370266
0.283293
0.161018
0.074279
0.029156
-0.011758
-0.064830
-0.143619
-0.197626
-0.224513
-0.257946
-0.266596
-0.290677
-0.357309
-0.383728
-0.375545
-0.377883
-0.371102
-0.369933
-0.401262
-0.458075
-0.545982
-0.669661
-0.816953
-0.984819
-1.176767
-1.385080
-1.593627
-1.790484
-2.015163
-2.304604
-2.623035
-2.934687
-3.209632
-3.417478
-3.588617
-3.738481
-3.871278
-4.020674
-4.167499
-4.280189
-4.360381
-4.405036
-4.426078
-4.420467
-4.390774
-4.380954
-4.381422
-4.369966
-4.360614
-4.332558
-4.252599
-4.135700
-4.018801
-3.891382
-3.722814
-3.532736
-3.320448
-3.049009
-2.722628
-2.361177
-1.975879
-1.588477
-1.227026
-0.869316
-0.465081
-0.037933
0.361393
0.724948
1.060447
1.378879
1.651721
1.845305
1.999611
2.151346
2.286481
2.385611
2.464869
2.552075
2.616136
2.654011
2.710356
2.758285
2.801538
2.890615
3.003305
3.124412
3.253001
3.379485
3.507139
3.619128
3.722466
3.851990
4.003257
4.135119
4.224430
4.303921
4.392063
4.492128
4.631004
4.777361
4.881869
4.962763
5.047631
5.122914
5.165466
5.190950
5.209420
5.208485
5.212226
5.228358
5.228826
5.202640
5.161259
5.136242
5.135074
5.136477
5.133204
5.107720
5.041322
4.936814
4.800511
4.644568
4.494938
4.355829
4.201757
4.034826
3.858075
3.661919
3.464361
3.240383
2.977829
2.739356
2.532913
2.336524
2.149953
1.943043
1.706440
1.459551
1.211258
0.970681
0.748340
0.559432
0.399281
0.255028
0.130181
0.016555
-0.083042
-0.155519
-0.207656
-0.229866
-0.233373
-0.250440
-0.257688
-0.257688
-0.295329
-0.365935
-0.437945
-0.493121
-0.527255
-0.533801
-0.535437
-0.586405
-0.672209
-0.743283
-0.805473
-0.866260
-0.920968
-0.974274
-1.022436
-1.068961
-1.124605
-1.170195
-1.195445
-1.240334
-1.290133
-1.300887
-1.315382
-1.334086
-1.316317
-1.305796
-1.297847
-1.261842
-1.230045
-1.191469
-1.131383
-1.060776
-0.948553
-0.797987
-0.650695
-0.509013
-0.371073
-0.242017
-0.119039
0.010952
0.160817
0.309278
0.428281
0.539335
0.659741
0.759806
0.845142
0.947078
1.026569
