EVENT_NAME: 202302060117
EVENT_ID: 13194
EVENT_DATE_YYYYMMDD: 2023/02/06
EVENT_TIME_HHMMSS: 01:17:32.00000
EVENT_LATITUDE_DEGREE: 37.288
EVENT_LONGITUDE_DEGREE: 37.043
EVENT_DEPTH_KM: 8.6
HYPOCENTER_REFERENCE: AFAD
MAGNITUDE_W: 7.7
MAGNITUDE_W_REFERENCE: AFAD
MAGNITUDE_L: 
MAGNITUDE_L_REFERENCE: 
FOCAL_MECHANISM: 
NETWORK: TK
STATION_CODE: 5813
STATION_NAME: 
STATION_LATITUDE_DEGREE: 40.213954
STATION_LONGITUDE_DEGREE: 37.540207
STATION_ELEVATION_M: 1303.0
LOCATION: Kahramanmaras_Pazarck_Turkiye
SENSOR_DEPTH_M: 
VS30_M/S: 978
SITE_CLASSIFICATION_EC8: A
MORPHOLOGIC_CLASSIFICATION: 
EPICENTRAL_DISTANCE_KM: 328.19
EARTHQUAKE_BACKAZIMUTH_DEGREE: 
DATE_TIME_FIRST_SAMPLE_YYYYMMDD_HHMMSS: 2023/02/06 01:18:06.0601540
DATE_TIME_FIRST_SAMPLE_PRECISION: millisecond
SAMPLING_INTERVAL_S: 0.01
NDATA: 18251
DURATION_S: 
STREAM: HNZ
UNITS: cm/s^2
INSTRUMENT: sensor = ACEBOX/SARA | digitizer = 
INSTRUMENT_ANALOG/DIGITAL: 
INSTRUMENTAL_FREQUENCY_HZ: 
INSTRUMENTAL_DAMPING: 
FULL_SCALE_G: 
N_BIT_DIGITAL_CONVERTER: 
PGA_CM/S^2: 2.829
TIME_PGA_S: 
BASELINE_CORRECTION: BASELINE REMOVED
FILTER_TYPE: BUTTERWORTH
FILTER_ORDER: 
LOW_CUT_FREQUENCY_HZ: 
HIGH_CUT_FREQUENCY_HZ: 
LATE/NORMAL_TRIGGERED: 
DATABASE_VERSION: 
HEADER_FORMAT: DYNA 1.2
DATA_TYPE: Acceleration
PROCESSING: Automatic Paolucci et al., 2011
DATA_TIMESTAMP_YYYYMMDD_HHMMSS: 
DATA_LICENSE: U (unknown license)
DATA_CITATION: Turkish Accelerometric Archive v 1.0 - Disaster And Emergency Management Presidency, Earthquake Department
DATA_CREATOR: AFAD
ORIGINAL_DATA_MEDIATOR_CITATION: : AFAD - Disaster And Emergency Management Presidency
ORIGINAL_DATA_MEDIATOR: AFAD PROCESS SERVICE
ORIGINAL_DATA_CREATOR_CITATION: AFAD PROCESS SERVICE
ORIGINAL_DATA_CREATOR: network: TK
USER1: GuestUser
USER2: 
USER3: 
USER4: 
USER5: 
[...]
1.150628
1.161850
1.169331
1.172838
1.170500
1.162551
1.152497
1.138469
1.121870
1.102698
1.079318
1.049626
1.010114
0.961718
0.903970
0.841078
0.776550
0.712723
0.653105
0.591382
0.526620
0.452507
0.365066
0.268508
0.155350
0.038685
-0.073772
-0.198152
-0.330014
-0.473331
-0.629508
-0.773060
-0.903051
-1.019249
-1.117443
-1.201611
-1.266373
-1.311496
-1.345162
-1.376959
-1.415769
-1.448267
-1.475622
-1.502742
-1.513731
-1.515134
-1.511861
-1.494794
-1.474220
-1.453646
-1.436812
-1.438215
-1.442657
-1.442658
-1.447567
-1.442424
-1.429331
-1.420915
-1.409225
-1.404316
-1.414836
-1.435878
-1.477494
-1.532203
-1.584808
-1.643257
-1.698199
-1.738413
-1.763897
-1.766936
-1.755246
-1.731633
-1.690719
-1.643024
-1.593927
-1.543427
-1.491524
-1.437049
-1.389588
-1.351246
-1.322021
-1.301681
-1.279470
-1.260299
-1.251181
-1.249311
-1.261235
-1.279003
-1.283679
-1.279705
-1.270353
-1.250480
-1.229673
-1.210268
-1.187589
-1.167483
-1.150883
-1.130309
-1.107865
-1.098046
-1.102020
-1.114178
-1.140831
-1.172861
-1.193202
-1.206061
-1.216114
-1.217049
-1.201385
-1.173563
-1.137792
-1.090565
-1.036324
-0.978810
-0.915919
-0.853963
-0.796449
-0.744312
-0.703865
-0.670433
-0.629752
-0.585097
-0.544650
-0.494617
-0.432895
-0.375849
-0.325582
-0.282096
-0.250066
-0.221543
-0.190214
-0.157249
-0.117737
-0.070978
-0.021413
0.034932
0.095018
0.149259
0.194849
0.225009
0.235530
0.233191
0.218228
0.197888
0.177781
0.151362
0.127281
0.122371
0.135697
0.155336
0.181287
0.210278
0.234125
0.253063
0.258908
0.250958
0.234593
0.198821
0.149256
0.096418
0.034695
-0.022117
-0.065136
-0.107921
-0.142523
-0.162630
-0.185542
-0.206350
-0.213364
-0.215469
-0.211260
-0.200506
-0.197934
-0.199103
-0.198636
-0.207754
-0.216405
-0.216638
-0.218743
-0.219912
-0.214768
-0.211963
-0.210327
-0.200507
-0.182972
-0.157489
-0.124991
-0.090155
-0.060463
-0.038486
-0.017912
0.011312
0.037497
0.048953
0.059474
0.072567
0.080048
0.086594
0.093608
0.105532
0.122365
0.139900
0.166085
0.200921
0.234587
0.268254
0.302856
0.329742
0.341432
0.339795
0.324832
0.300284
0.272695
0.239028
0.201855
0.162810
0.127507
0.102958
0.083553
0.065083
0.049184
0.037962
0.030480
0.025570
0.025804
0.025336
0.017387
0.007334
-0.007162
-0.032646
-0.062806
-0.094602
-0.135517
-0.179705
-0.226230
-0.283277
-0.343129
-0.409995
-0.492526
-0.577628
-0.662964
-0.746664
-0.821479
-0.893255
-0.958952
-1.017869
-1.075383
-1.126118
-1.163291
-1.185502
-1.192516
-1.179658
-1.149264
-1.106713
-1.054810
-0.999634
-0.938146
-0.866370
-0.795296
-0.725858
-0.650108
-0.578800
-0.516142
-0.459563
-0.412804
-0.368850
-0.332612
-0.319753
-0.321156
-0.335885
-0.366980
-0.401583
-0.441796
-0.485516
-0.530873
-0.585581
-0.640758
-0.699441
-0.767242
-0.830601
-0.885544
-0.932070
-0.967841
-1.000105
-1.031200
-1.052709
-1.060892
-1.058087
-1.034240
-0.992156
-0.942592
-0.879233
-0.802080
-0.711366
-0.609665
-0.508664
-0.407664
-0.302923
-0.195844
-0.084557
0.026965
0.126562
0.211197
0.282505
0.338850
0.390753
0.437044
0.472348
0.506482
0.530095
0.546461
0.568204
0.580595
0.594389
0.615665
0.633433
0.647227
0.649097
0.637641
0.618937
0.599298
0.582698
0.560488
0.538043
0.517001
0.488478
0.456681
0.422313
0.384905
0.347264
0.309388
0.270578
0.223351
0.172850
0.130767
0.094294
0.069746
0.065303
0.074889
0.089150
0.110192
0.145028
0.192956
0.250002
0.304243
0.346794
0.380227
0.407581
0.433065
0.452704
0.462523
0.474447
0.487306
0.500866
0.518167
0.522141
0.517933
0.504139
0.473277
0.441247
0.400566
0.351702
0.311255
0.264262
0.221711
0.190148
0.149233
0.111358
0.079561
0.049635
0.029996
0.020878
0.026021
0.042621
0.065299
0.096394
0.132866
0.180561
0.237140
0.287640
0.333932
0.372274
0.393316
0.402434
0.407811
0.403135
0.378352
0.347491
0.325514
0.304706
0.294653
0.299562
0.301666
0.305173
0.311953
0.303770
0.285066
0.271038
0.253737
0.226383
0.201600
0.184065
0.170972
0.165829
0.162322
0.154373
0.149463
0.147592
0.144085
0.134499
0.113691
0.091714
0.079790
0.066931
0.046825
0.029524
0.009651
-0.024250
-0.067035
-0.121510
-0.189545
-0.268802
-0.366062
-0.477350
-0.589339
-0.707406
-0.829215
-0.951491
-1.082184
-1.210772
-1.339127
-1.478003
-1.613839
-1.752013
-1.889019
-2.008256
-2.119777
-2.222648
-2.315699
-2.407114
-2.488943
-2.561187
-2.628053
-2.680657
-2.707778
-2.719000
-2.718767
-2.701933
-2.678788
-2.645355
-2.596257
-2.537341
-2.464863
-2.383736
-2.290685
-2.186645
-2.084008
-1.973656
-1.860264
-1.754588
-1.649379
-1.553055
-1.471226
-1.399918
-1.340768
-1.296580
-1.264316
-1.233221
-1.210309
-1.193943
-1.172200
-1.152562
-1.134325
-1.109309
-1.073538
-1.023740
-0.968564
-0.907309
-0.839975
-0.771940
-0.697359
-0.624181
-0.563627
-0.505880
-0.452106
-0.407685
-0.360458
-0.308088
-0.255951
-0.191189
-0.114036
-0.038520
0.042374
0.124203
0.194810
0.262611
0.322229
0.365247
0.397044
0.415046
0.424865
0.439361
0.453388
0.474898
0.514877
0.558831
0.597407
0.637386
0.680873
0.729035
0.792627
0.870716
0.955350
1.046063
1.137946
1.224450
1.300668
1.364729
1.420138
1.463157
1.502201
1.539608
1.562754
1.583328
1.608578
1.631490
1.658611
1.687835
1.719398
1.753064
1.794213
1.849856
1.899421
1.941972
1.990134
2.033387
2.074769
2.118021
2.152389
2.178574
2.206630
2.245908
2.292667
2.339426
2.389459
2.439258
2.481809
2.514540
2.536751
2.548908
2.548207
2.542595
2.535348
2.521320
2.512201
2.512201
2.514539
2.531372
2.554284
2.566676
2.584912
2.603382
2.609226
2.616474
2.616941
2.604083
2.585145
2.541425
2.475727
2.407225
2.322824
2.227668
2.138124
2.041565
1.934252
1.826706
1.710742
1.585660
1.461748
1.337835
1.218832
1.105674
0.992282
0.886606
0.790047
0.696762
0.610725
0.534273
0.466939
0.400774
0.335545
0.285512
0.240857
0.192928
0.148039
0.100578
0.045636
-0.015152
-0.069627
-0.122933
-0.184655
-0.236792
-0.278642
-0.320024
-0.344807
-0.360004
-0.376837
-0.384319
-0.388995
-0.396243
-0.397412
-0.395308
-0.395308
-0.399282
-0.403257
-0.398114
-0.385489
-0.367720
-0.341769
-0.312544
-0.286359
-0.259940
-0.221130
-0.170630
-0.114519
-0.044613
0.031604
0.108757
0.193392
0.278728
0.366402
0.451270
0.524215
0.597627
0.663324
0.712889
0.761518
0.805238
0.842178
0.882391
0.921435
0.956271
0.987132
1.002095
0.994613
0.966090
0.917694
0.848256
0.759413
0.658646
0.554372
0.450333
0.347228
0.251137
0.164398
0.084907
0.016638
-0.038304
-0.084830
-0.128317
-0.168530
-0.202664
-0.231188
-0.245683
-0.235396
-0.213186
-0.190507
-0.157542
-0.117329
-0.076882
-0.030357
0.014298
0.054044
0.093789
0.121845
0.142185
0.154342
0.152004
0.150134
0.143821
0.128157
0.115532
0.100101
0.085839
0.074383
0.055913
0.031598
-0.001835
-0.044620
-0.099329
-0.161052
-0.219969
-0.288238
-0.357675
-0.418229
-0.486030
-0.552663
-0.619295
-0.691772
-0.763081
-0.842338
-0.919257
-0.986825
-1.053223
-1.102321
-1.135053
-1.162641
-1.187423
-1.210803
-1.234885
-1.261538
-1.286554
-1.312038
-1.334249
-1.338691
-1.334483
-1.324430
-1.299180
-1.268552
-1.232781
-1.183450
-1.133652
-1.087126
-1.039899
-0.998517
-0.955732
-0.909441
-0.869929
-0.826677
-0.778748
-0.732924
-0.686399
-0.644549
-0.598023
-0.546354
-0.498894
-0.440211
-0.377319
-0.316532
-0.244289
-0.170175
-0.100036
-0.029429
0.043983
0.118564
0.184962
0.260011
0.346516
0.422968
0.502225
0.586625
0.670559
0.756362
0.838659
0.923761
1.006525
1.082041
1.162935
1.239620
1.307421
1.370079
1.424086
1.481132
1.540049
1.590549
1.640816
1.690381
1.741816
1.792784
1.832763
1.866897
1.887705
1.891212
1.886302
1.865728
1.833230
1.793952
1.747660
1.700432
1.642451
1.579325
1.526487
1.475051
1.420577
1.367271
1.318641
1.269076
1.212029
1.162698
1.109626
1.044864
0.989921
0.935914
0.880036
0.845200
0.823925
0.811767
0.814105
0.815975
0.806156
0.797271
0.789790
0.772722
0.754720
0.746537
0.743965
0.753083
0.778099
0.809194
0.845900
0.889854
0.931703
0.974254
1.024988
1.076424
1.129495
1.186308
1.243588
1.306713
1.370774
1.436237
1.508246
1.573709
1.631457
1.688504
1.735964
1.769164
1.794180
1.805402
1.801427
1.787633
1.754901
1.706271
1.647121
1.559213
1.454939
1.350432
1.234702
1.115231
0.993657
0.867640
0.744428
0.620048
0.496837
0.373859
0.254623
0.145439
0.026904
-0.089995
-0.197074
-0.313739
-0.420818
-0.520416
-0.625859
-0.715169
-0.793024
-0.866904
-0.934471
-1.004845
-1.074984
-1.144422
-1.211522
-1.279323
-1.356009
-1.433396
-1.510783
-1.583961
-1.648022
-1.714187
-1.774273
-1.825240
-1.873403
-1.908239
-1.931852
-1.944478
-1.939568
-1.931853
-1.917825
-1.892575
-1.866624
-1.836698
-1.808408
-1.790172
-1.774274
-1.761649
-1.749258
-1.738971
-1.730788
-1.713955
-1.702031
-1.697356
-1.684497
-1.672573
-1.665559
-1.656909
-1.654571
-1.658078
-1.657611
-1.648727
-1.635400
-1.610618
-1.574847
-1.540479
-1.500967
-1.458650
-1.422645
-1.387576
-1.362794
-1.349701
-1.341752
-1.340817
-1.341752
-1.346662
-1.356248
-1.363496
-1.370744
-1.371913
-1.366769
-1.360457
-1.344793
-1.325154
-1.310658
-1.302242
-1.299436
-1.299904
-1.314166
-1.335208
-1.350638
-1.369810
-1.391319
-1.408620
-1.423350
-1.429662
-1.430130
-1.430832
-1.423350
-1.403711
-1.381501
-1.356484
-1.323519
-1.287515
-1.251977
-1.213167
-1.176461
-1.144431
-1.109128
-1.076162
-1.060498
-1.046938
-1.031741
-1.035950
-1.039457
-1.031975
-1.042964
-1.062136
-1.075696
-1.096036
-1.111467
-1.111233
-1.104921
-1.092530
-1.076398
-1.065176
-1.058630
-1.061435
-1.074294
-1.084581
-1.094401
-1.109364
-1.114274
-1.109832
-1.105156
-1.092531
-1.072425
-1.055591
-1.047642
-1.045305
-1.047876
-1.060502
-1.071023
-1.072192
-1.071958
-1.060736
-1.043435
-1.041331
-1.049748
-1.067984
-1.101183
-1.138825
-1.184649
-1.237721
-1.290560
-1.355088
-1.430371
-1.502848
-1.582807
-1.672819
-1.757220
-1.839984
-1.915267
-1.973249
-2.026554
-2.069807
-2.095992
-2.111189
-2.117034
-2.117268
-2.108150
-2.095525
-2.085706
-2.069340
-2.056248
-2.051572
-2.044091
-2.040350
-2.043156
-2.041052
-2.033336
-2.029829
-2.029362
-2.024920
-2.024920
-2.030765
-2.039883
-2.052275
-2.064198
-2.069108
-2.069810
-2.067004
-2.048768
-2.010192
-1.964835
-1.901009
-1.812400
-1.723089
-1.630973
-1.520621
-1.407697
-1.302255
-1.194007
-1.087395
-0.992006
-0.901527
-0.818762
-0.754234
-0.694616
-0.637336
-0.594551
-0.554806
-0.515996
-0.489577
-0.464093
-0.437674
-0.417334
-0.396058
-0.370808
-0.340648
-0.307683
-0.274952
-0.237077
-0.191954
-0.141688
-0.085810
-0.025958
0.040206
0.107072
0.166924
0.227010
0.289668
0.352325
0.417555
0.480446
0.546143
0.617918
0.686889
0.758430
0.819685
0.861301
0.903151
0.936817
0.959262
0.975160
0.971185
0.955521
0.934011
0.901747
0.863638
0.825529
0.790927
0.746973
0.691095
0.635217
0.570222
0.500316
0.433918
0.361440
0.284287
0.208069
0.130215
0.052828
-0.018013
-0.079268
-0.136782
-0.194998
-0.245031
-0.285945
-0.319378
-0.340420
-0.361930
-0.389284
-0.410794
-0.431368
-0.455917
-0.483739
-0.512028
-0.531901
-0.549436
-0.564165
-0.566503
-0.565101
-0.556684
-0.530031
-0.500339
-0.462932
-0.413835
-0.367309
-0.317043
-0.262100
-0.213705
-0.169751
-0.130707
-0.099144
-0.077869
-0.057061
-0.033447
-0.024330
-0.017550
-0.015445
-0.034383
-0.054957
-0.082312
-0.117849
-0.148477
-0.185884
-0.218148
-0.242230
-0.266077
-0.283378
-0.294834
-0.287587
-0.262103
-0.226800
-0.164844
-0.090496
-0.011005
0.083449
0.177903
0.272824
0.361667
0.445367
0.531871
0.602010
0.665603
0.733872
0.789282
0.840717
0.887476
0.921377
0.958317
0.988710
1.008817
1.037574
1.068669
1.095321
1.119402
1.132729
1.148627
1.173877
1.193048
1.211752
1.235365
1.260849
1.291710
1.321402
1.349458
1.372837
1.389203
1.411648
1.430585
1.440872
1.451393
1.455601
1.460277
1.467057
1.465186
1.464485
1.459575
1.442975
1.421933
1.388734
1.341974
1.285629
1.223205
1.160547
1.103968
1.053702
1.004604
0.973275
0.959949
0.945453
0.952701
0.978185
0.996655
1.027282
1.067495
1.106071
1.158442
1.213852
1.257805
1.294512
1.325139
1.353662
1.374937
1.388731
1.398317
1.399953
1.399252
1.394342
1.381249
1.370261
1.365585
1.362545
1.350621
1.330982
1.315785
1.300121
1.285625
1.275338
1.257336
1.241204
1.229981
1.208939
1.194911
1.184390
1.166622
1.157737
1.138566
1.095079
1.049723
1.001794
0.948722
0.894247
0.838837
0.793013
0.754670
0.716561
0.686635
0.661151
0.635667
0.616027
0.604571
0.594985
0.583295
0.571606
0.558279
0.544017
0.540043
0.543082
0.552200
0.573241
0.606674
0.652498
0.707207
0.763552
0.823638
0.884191
0.942173
0.991738
1.024703
1.054629
1.081515
1.098349
1.120559
1.144874
1.166851
1.186256
1.192569
1.200751
1.211506
1.208934
1.204024
1.194906
1.177137
1.163343
1.153056
1.144873
1.142769
1.148847
1.163576
1.184384
1.215245
1.253120
1.289359
1.329338
1.379838
1.438755
1.500945
1.564070
1.628130
1.686112
1.742223
1.803010
1.866603
1.925988
1.975786
2.026754
2.078657
2.113960
2.148562
2.188541
2.223377
2.269669
2.327650
2.374410
2.412986
2.448757
2.481722
2.517961
2.553030
2.586463
2.621065
2.649822
2.678813
2.711544
2.735625
2.755264
2.776539
2.787995
2.795477
2.807167
2.815817
2.823065
2.829377
2.826104
2.816985
2.813011
2.813011
2.807867
2.803191
2.799450
2.784721
2.757133
2.724635
2.687461
2.651690
2.622231
2.591604
2.555131
2.523568
2.501124
2.484992
2.474471
2.464183
2.454364
2.450155
2.449688
2.458806
2.475873
2.488264
2.509072
2.539465
2.565183
2.591134
2.613345
2.632282
2.648648
2.645842
2.632048
2.608201
2.566585
2.524034
2.482184
2.433086
2.385625
2.344711
2.306602
2.267090
2.230851
2.194378
2.148087
2.092209
2.031889
1.964789
1.887870
1.810249
1.727718
1.633732
1.538810
1.435939
1.330029
1.237913
1.152810
1.074488
1.005518
0.944029
0.882540
0.809829
0.736417
0.660432
0.575798
0.499813
0.425232
0.344572
0.270926
0.206397
0.150987
0.100955
0.052091
0.008605
-0.028102
-0.056391
-0.087253
-0.121621
-0.147339
-0.177265
-0.209997
-0.230337
-0.246937
-0.263303
-0.272655
-0.277331
-0.288553
-0.302581
-0.308660
-0.322454
-0.340690
-0.350042
-0.360797
-0.365473
-0.366876
-0.367578
-0.356589
-0.345835
-0.331573
-0.320585
-0.325729
-0.321520
-0.313338
-0.316611
-0.315442
-0.315208
-0.325028
-0.333211
-0.327132
-0.310065
-0.290894
-0.265410
-0.237121
-0.210468
-0.180308
-0.155058
-0.133783
-0.107598
-0.082348
-0.055929
-0.031614
-0.015482
0.009300
0.039694
0.060502
0.088324
0.130875
0.180673
0.242396
0.305988
0.362100
0.424757
0.489753
0.552177
0.622316
0.689181
0.744825
0.798832
0.846994
0.884869
0.915497
0.931161
0.933966
0.933966
0.921341
0.887207
0.844655
0.798130
0.741551
0.676789
0.611325
0.545628
0.477593
0.412130
0.349238
0.281203
0.215740
0.161732
0.113336
0.061667
0.007426
-0.046815
-0.101524
-0.149452
-0.186860
-0.219826
-0.244608
-0.257935
-0.266118
-0.272430
-0.272898
-0.268222
-0.270327
-0.275938
-0.276406
-0.278510
-0.276873
-0.274302
-0.273600
-0.276874
-0.291603
-0.309372
-0.328543
-0.355664
-0.380446
-0.402657
-0.428843
-0.458769
-0.488695
-0.524466
-0.564446
-0.593670
-0.624999
-0.662875
-0.692333
-0.725065
-0.757563
-0.784683
-0.821156
-0.859732
-0.892464
-0.923092
-0.951381
-0.974995
-0.994868
-1.015442
-1.036484
-1.051915
-1.062670
-1.066878
-1.057526
-1.040225
-1.027133
-1.015911
-0.995570
-0.967047
-0.929640
-0.883348
-0.843135
-0.806663
-0.765748
-0.731614
-0.700051
-0.670593
-0.654929
-0.646746
-0.649318
-0.661943
-0.682751
-0.711976
-0.740032
-0.778375
-0.825602
-0.862308
-0.896676
-0.930577
-0.961906
-0.998378
-1.039293
-1.088624
-1.137488
-1.182611
-1.233111
-1.279871
-1.319617
-1.362869
-1.411265
-1.452648
-1.483509
-1.504785
-1.509461
-1.514604
-1.527230
-1.527463
-1.529100
-1.534010
-1.527464
-1.529334
-1.525594
-1.502915
-1.485381
-1.460131
-1.431841
-1.422256
-1.407994
-1.398876
-1.411501
-1.422022
-1.431842
-1.443532
-1.449611
-1.461768
-1.471120
-1.478134
-1.494267
-1.515075
-1.553417
-1.599008
-1.634545
-1.677330
-1.721284
-1.761498
-1.807322
-1.838885
-1.859225
-1.886580
-1.912531
-1.932872
-1.949705
-1.964435
-1.978930
-1.992958
-2.004180
-2.012130
-2.022417
-2.035743
-2.050706
-2.069644
-2.086244
-2.104013
-2.122716
-2.136043
-2.156384
-2.173685
-2.177192
-2.189349
-2.198701
-2.198000
-2.204546
-2.198935
-2.179764
-2.160593
-2.129030
-2.093026
-2.059593
-2.028030
-2.003715
-1.981739
-1.967477
-1.962801
-1.960931
-1.965139
-1.960230
-1.949475
-1.948540
-1.935214
-1.914406
-1.895936
-1.862737
-1.829538
-1.798911
-1.761503
-1.731110
-1.702586
-1.672894
-1.653957
-1.637825
-1.619589
-1.601587
-1.583117
-1.569323
-1.563478
-1.566517
-1.571895
-1.573999
-1.579377
-1.582650
-1.576805
-1.575169
-1.575636
-1.572129
-1.580780
-1.596445
-1.610005
-1.632450
-1.658635
-1.692068
-1.730411
-1.757765
-1.782782
-1.796108
-1.786523
-1.771560
-1.753558
-1.730646
-1.693706
-1.646245
-1.596680
-1.536127
-1.479314
-1.431386
-1.381821
-1.345582
-1.314254
-1.283860
-1.263520
-1.246687
-1.249726
-1.271002
-1.289939
-1.305370
-1.316125
-1.322438
-1.326880
-1.331088
-1.333894
-1.325711
-1.318697
-1.318931
-1.307709
-1.298124
-1.297656
-1.289239
-1.275913
-1.266328
-1.263288
-1.273108
-1.286668
-1.301865
-1.326648
-1.362419
-1.407074
-1.446119
-1.476045
-1.508543
-1.539638
-1.564420
-1.579384
-1.584761
-1.586398
-1.577747
-1.563720
-1.551095
-1.533092
-1.509947
-1.480722
-1.451965
-1.423909
-1.386970
-1.356810
-1.330625
-1.300933
-1.281995
-1.259317
-1.235470
-1.222611
-1.212558
-1.211623
-1.216065
-1.220507
-1.227054
-1.232665
-1.237808
-1.241082
-1.245290
-1.249966
-1.257448
-1.277788
-1.296960
-1.307481
-1.322912
-1.347227
-1.377620
-1.405209
-1.429524
-1.463424
-1.507144
-1.555073
-1.604171
-1.659113
-1.711016
-1.754035
-1.807575
-1.860413
-1.897119
-1.927981
-1.947853
-1.952062
-1.949023
-1.950893
-1.948321
-1.930319
-1.918863
-1.912083
-1.888470
-1.858544
-1.824643
-1.788639
-1.758947
-1.719201
-1.665662
-1.613057
-1.555543
-1.490314
-1.428358
-1.367103
-1.304913
-1.248568
-1.188482
-1.124422
-1.065739
-1.011732
-0.958660
-0.903952
-0.859998
-0.827734
-0.793132
-0.755725
-0.708731
-0.655426
-0.605160
-0.548347
-0.481715
-0.417187
-0.367154
-0.320161
-0.270362
-0.237163
-0.204666
-0.170999
-0.155101
-0.130085
-0.098522
-0.097119
-0.104367
-0.102731
-0.113486
-0.128683
-0.130553
-0.127981
-0.124241
-0.123539
-0.128683
-0.128917
-0.129385
-0.131723
-0.127281
-0.127281
-0.132191
-0.126814
-0.119098
-0.125645
-0.140374
-0.152298
-0.169131
-0.189472
-0.202798
-0.216593
-0.230153
-0.243713
-0.267794
-0.289304
-0.302864
-0.317360
-0.326946
-0.333726
-0.349157
-0.361314
-0.353365
-0.335597
-0.314087
-0.281824
-0.249092
-0.209347
-0.155106
-0.110918
-0.063457
-0.003138
0.041985
0.080094
0.113293
0.133867
0.155142
0.172677
0.187406
0.216631
0.246089
