EVENT_NAME: 202302060117
EVENT_ID: 13194
EVENT_DATE_YYYYMMDD: 2023/02/06
EVENT_TIME_HHMMSS: 01:17:32.00000
EVENT_LATITUDE_DEGREE: 37.288
EVENT_LONGITUDE_DEGREE: 37.043
EVENT_DEPTH_KM: 8.6
HYPOCENTER_REFERENCE: AFAD
MAGNITUDE_W: 7.7
MAGNITUDE_W_REFERENCE: AFAD
MAGNITUDE_L: 
MAGNITUDE_L_REFERENCE: 
FOCAL_MECHANISM: 
NETWORK: TK
STATION_CODE: 3142
STATION_NAME: 
STATION_LATITUDE_DEGREE: 36.49797
STATION_LONGITUDE_DEGREE: 36.36612
STATION_ELEVATION_M: 139.0
LOCATION: Kahramanmaras_Pazarck_Turkiye
SENSOR_DEPTH_M: 
VS30_M/S: 539
SITE_CLASSIFICATION_EC8: B
MORPHOLOGIC_CLASSIFICATION: 
EPICENTRAL_DISTANCE_KM: 106.49
EARTHQUAKE_BACKAZIMUTH_DEGREE: 
DATE_TIME_FIRST_SAMPLE_YYYYMMDD_HHMMSS: 2023/02/06 01:17:30.4077320
DATE_TIME_FIRST_SAMPLE_PRECISION: millisecond
SAMPLING_INTERVAL_S: 0.01
NDATA: 12501
DURATION_S: 
STREAM: HNE
UNITS: cm/s^2
INSTRUMENT: sensor = GMS+/GEOSIG | digitizer = 
INSTRUMENT_ANALOG/DIGITAL: 
INSTRUMENTAL_FREQUENCY_HZ: 
INSTRUMENTAL_DAMPING: 
FULL_SCALE_G: 
N_BIT_DIGITAL_CONVERTER: 
PGA_CM/S^2: 749.514
TIME_PGA_S: 
BASELINE_CORRECTION: BASELINE REMOVED
FILTER_TYPE: BUTTERWORTH
FILTER_ORDER: 
LOW_CUT_FREQUENCY_HZ: 
HIGH_CUT_FREQUENCY_HZ: 
LATE/NORMAL_TRIGGERED: 
DATABASE_VERSION: 
HEADER_FORMAT: DYNA 1.2
DATA_TYPE: Acceleration
PROCESSING: Automatic Paolucci et al., 2011
DATA_TIMESTAMP_YYYYMMDD_HHMMSS: 
DATA_LICENSE: U (unknown license)
DATA_CITATION: Turkish Accelerometric Archive v 1.0 - Disaster And Emergency Management Presidency, Earthquake Department
DATA_CREATOR: AFAD
ORIGINAL_DATA_MEDIATOR_CITATION: : AFAD - Disaster And Emergency Management Presidency
ORIGINAL_DATA_MEDIATOR: AFAD PROCESS SERVICE
ORIGINAL_DATA_CREATOR_CITATION: AFAD PROCESS SERVICE
ORIGINAL_DATA_CREATOR: network: TK
USER1: GuestUser
USER2: 
USER3: 
USER4: 
USER5: 
[...]
-7.643282
-13.172458
-15.267503
-13.203923
-9.512377
-7.456850
-5.314040
-0.369114
5.614883
10.962190
13.098505
10.070114
4.292080
0.514778
1.202628
3.638975
4.282144
2.232299
0.083223
0.522734
3.533688
8.282489
10.979903
7.620827
1.274161
-2.764727
-4.248278
-4.497152
-3.709551
-3.293939
-3.319672
-1.112960
2.559363
4.161595
2.538289
-0.805720
-3.166507
-2.461513
0.194078
1.067142
-0.361857
-2.781872
-4.805740
-3.459379
1.010432
4.977071
5.872475
5.646461
8.696120
12.733417
12.845361
9.679812
4.948643
1.079124
0.651530
1.098834
-0.438229
-1.405621
-1.725931
-1.962596
1.401122
6.307343
9.620147
9.800669
6.526019
4.517996
4.858016
6.306726
9.414313
12.873886
13.167927
8.567941
2.712496
-1.091302
-3.269732
-4.070873
-4.588087
-6.851202
-8.356833
-6.469375
-3.930160
-1.062598
6.188288
14.169381
15.343776
13.312374
12.370699
9.482583
4.284611
-1.019347
-4.905231
-6.716869
-7.207587
-7.907938
-9.168348
-9.020556
-7.034906
-2.138817
5.691611
10.210778
8.537336
4.168283
1.524349
1.906192
3.953926
5.880609
6.057494
6.684038
8.968161
13.647864
19.804867
21.793894
19.009425
13.516876
6.032686
-1.576712
-6.612589
-8.615156
-10.353020
-11.821764
-12.071417
-11.358111
-9.605992
-7.170944
-3.761506
-0.893165
0.447741
-0.066356
-3.698448
-8.015547
-11.448656
-12.579962
-10.874601
-10.331443
-9.863877
-7.285697
-4.620754
-2.965269
-2.183903
-1.058345
-1.422556
-4.391979
-6.530405
-7.942000
-8.201265
-4.189166
0.869539
2.709978
1.921826
0.487631
0.232783
-1.272069
-5.467337
-8.253365
-6.712178
-0.656744
6.527381
13.546814
22.091864
28.336928
29.418845
27.652667
23.698203
18.529065
12.873382
3.667190
-6.716269
-11.817348
-12.111162
-11.535273
-13.079090
-17.967159
-23.137596
-24.164995
-21.255610
-17.808506
-14.411537
-11.991815
-12.562801
-14.394181
-14.643315
-12.321266
-8.567636
-5.506027
-3.844827
-1.113124
2.138115
2.490084
3.633047
6.964035
9.122430
10.356831
10.395780
10.766193
13.364115
15.618365
15.033092
12.497481
10.818325
12.143645
13.819391
11.651352
8.806617
6.918088
6.578036
7.909590
3.182317
-4.451499
-6.499006
-3.828089
-0.381245
-0.430357
-2.132892
-4.563297
-6.873430
-4.309277
0.152221
2.396340
2.216824
1.352300
3.624734
6.421379
4.642212
-0.135975
-2.043987
1.546769
6.770686
9.459527
7.568141
2.802162
-0.118944
0.809710
4.322016
8.402434
8.537757
3.438756
0.587267
2.459658
5.649852
6.580065
3.001226
-2.376766
-5.611932
-7.045348
-9.865404
-11.375711
-11.717582
-12.399749
-8.505065
-0.897518
6.269463
8.666585
5.177626
3.330140
3.721854
1.986069
0.272623
-3.681321
-9.368436
-11.770007
-13.236413
-14.642553
-17.153486
-19.140987
-16.937911
-15.321391
-13.424323
-9.730439
-9.792799
-11.660028
-13.112406
-15.350323
-14.371794
-8.138938
1.528309
7.731550
5.551822
2.048056
0.562686
1.697596
8.262954
14.943650
17.046455
13.536454
5.517142
1.299794
2.526402
4.419055
6.886574
6.459759
-0.005102
-7.677623
-10.532229
-10.875399
-13.475432
-15.277459
-16.473187
-20.559872
-25.003998
-26.769137
-25.878669
-22.955776
-17.129458
-11.883980
-8.619753
-2.709010
4.747093
8.646453
7.508393
6.859217
7.276648
7.571988
11.127675
13.605844
11.968251
9.002465
6.442435
1.633336
-4.050663
-5.135989
-6.189105
-7.039082
-6.401627
-9.570812
-10.072181
-5.626009
-3.172257
-3.316185
-5.269916
-4.516345
0.631719
4.972685
8.473041
12.340190
16.024462
17.887242
15.180184
10.972187
10.084024
11.166461
9.023619
2.654613
-4.589032
-11.531086
-13.941489
-10.426585
-5.775977
-2.627865
-5.488965
-10.587707
-9.564237
-7.425844
-7.353904
-4.003694
1.829119
7.132265
9.893582
8.492637
8.203759
9.558692
7.391692
4.742562
3.065744
-1.194726
-3.521743
0.539193
3.448577
1.589142
1.165444
1.808354
1.782880
1.734547
0.871062
3.321956
9.950698
17.703975
22.407576
17.640559
9.014170
7.137850
9.663037
11.724020
13.147272
10.996897
8.054749
10.860746
15.764888
18.380995
16.518702
11.224876
7.595382
5.548394
2.725740
-4.173972
-11.242533
-10.952908
-5.903556
-1.448032
-0.076734
-1.825248
-6.379256
-7.547189
-5.917161
-9.659394
-10.237913
-6.234127
-3.582951
0.303160
1.218307
-2.176617
-6.790631
-7.558001
0.671170
9.091272
9.069695
7.097520
9.989241
14.235910
13.966774
8.604109
2.156653
-2.401511
-5.759807
-7.690938
-6.490047
-3.272838
-1.895824
-1.069259
4.076987
10.057348
15.860807
19.734190
14.955483
7.778339
5.975793
9.283922
9.731486
3.621988
-3.116409
-9.722323
-12.022065
-7.478740
-2.947365
-3.786431
-7.445539
-7.227869
-3.763880
-0.428476
1.999558
4.280304
5.651863
2.193036
-3.536681
-5.197393
-3.154075
-2.573510
-6.109747
-10.243450
-10.584802
-7.993633
-3.616560
1.309923
3.622620
4.999114
6.648365
5.665127
1.729367
-1.124200
-0.581821
-2.267471
-7.350626
-9.435800
-8.854195
-7.381068
-5.752859
-6.156035
-7.277469
-6.775874
-3.250839
1.081294
4.345262
4.485261
1.854315
1.059669
3.306385
8.374181
8.945135
3.912115
-2.222061
-7.557970
-4.868349
-0.224494
-0.206586
-0.945123
-3.673482
-6.887347
-8.331153
-10.197862
-11.563218
-12.214472
-13.487092
-15.471215
-18.190742
-15.904541
-7.005687
0.529904
1.822233
0.700539
1.067575
2.805146
7.608759
10.950657
12.030236
16.132215
18.147998
14.694627
5.596239
-7.743380
-16.893981
-19.064098
-14.912763
-5.885584
0.917721
2.815050
3.373794
6.554377
10.197346
10.184081
8.044876
5.387434
4.132219
3.895555
2.712036
3.355984
7.722926
12.690192
15.443976
18.134116
18.562457
12.402045
4.168424
-0.732633
0.826218
1.885275
-5.904142
-14.895765
-17.461769
-9.939166
1.119139
4.108791
1.720729
1.757859
7.685227
12.487281
14.558914
17.806776
17.749351
15.495328
10.391132
1.752274
-3.557918
-5.249543
-4.545069
0.538054
7.049640
12.867646
16.204608
15.114086
16.047157
20.013537
19.790640
13.421893
5.548051
4.313098
9.791588
9.760659
0.855798
-7.823064
-13.137932
-19.188723
-24.596587
-19.506711
-9.811669
-9.027186
-14.872500
-18.194169
-13.962565
-9.952025
-9.297945
-8.967537
-8.019400
-3.944177
-1.387817
-4.141114
-11.871304
-17.790652
-24.975329
-36.677631
-35.727156
-27.169378
-20.694419
-13.435221
-8.999959
-8.432383
-8.177566
2.146114
12.471353
12.449776
9.939103
3.979231
1.651694
3.940234
4.045943
3.073615
0.710750
-0.987629
-4.197597
-9.027998
-9.994611
-4.362339
7.103281
17.936367
20.107231
11.916213
0.408218
-5.482296
-0.716870
6.985753
9.180775
3.651079
-7.709627
-10.589691
-5.942199
-0.953632
2.730900
2.981820
8.353544
14.069981
15.603115
14.121382
9.350469
14.545551
26.427060
32.748236
31.812796
22.898324
15.079293
13.007887
16.701511
27.606033
36.721533
41.861804
45.780906
46.661763
45.165224
38.826870
26.186547
13.570382
7.779879
6.415821
1.636335
-5.374038
-9.836867
-14.783644
-19.004889
-17.994928
-15.588973
-17.823773
-27.916033
-43.520308
-51.031774
-38.421616
-19.825106
-12.337572
-15.234520
-30.143916
-47.320567
-50.600673
-40.322711
-25.750267
-23.684868
-31.594038
-31.343898
-29.570998
-31.488102
-27.024006
-18.853282
-12.587177
-6.200799
1.259980
8.286686
13.960001
11.765985
-0.191149
-5.499523
-5.051439
-5.468123
-0.206540
10.090125
18.977029
16.511295
14.167393
14.997076
12.538876
21.146789
32.490838
39.163740
40.829616
29.208362
16.217611
12.042345
21.475541
36.504398
35.845091
24.996907
15.719799
9.314425
11.135122
19.660169
21.424237
13.347257
9.225503
10.905666
9.775919
4.238170
-2.577377
-3.507623
2.150626
7.894858
16.299893
26.253404
27.258430
18.356946
5.184358
-5.026875
-8.330880
-8.920050
-8.642894
-6.724524
-4.523786
-5.788872
-13.783766
-21.272112
-21.112371
-18.492368
-22.580092
-31.812260
-33.688840
-33.973042
-37.889320
-37.427209
-39.995291
-39.818665
-27.522307
-18.929460
-19.165346
-16.169718
-7.360744
1.554994
11.606178
18.361946
15.618521
14.181728
14.446675
13.354075
17.494500
16.007832
7.323774
-0.100150
-0.622559
12.487912
33.020471
55.080986
66.258264
70.836138
77.232388
67.948006
50.795773
31.107946
11.601697
8.827879
15.640796
18.815923
7.690306
-4.703757
-15.354258
-26.931611
-23.595168
-14.496553
-0.318436
6.102231
6.708773
12.521584
3.510218
4.742541
17.208528
12.549833
0.319424
-11.760580
-13.744704
-3.706508
4.710736
1.539213
-9.419373
-19.142763
-23.867957
-12.657689
1.181431
-7.902669
-21.999771
-17.431509
-20.214938
-24.600617
3.125956
21.810527
19.298295
9.569711
-13.016607
-33.387364
-39.271384
-4.540169
26.124899
7.208323
-12.237920
6.031801
44.739284
61.616649
62.613363
46.598654
-0.288174
-30.368796
3.462063
50.896189
70.606064
92.579297
90.779349
68.942462
42.519372
-3.797525
-31.328265
0.214298
53.191612
48.924908
29.669594
33.250739
15.018131
0.648793
-3.935608
-19.273621
-17.420713
14.401621
51.327875
31.583938
-25.669968
-52.489204
-58.008249
-23.021163
13.181377
8.210442
17.409327
21.706392
-6.274526
-26.846343
-5.020139
32.395258
31.197192
-0.174737
-5.668585
20.815778
42.338054
48.264123
57.163756
60.076517
25.399821
-10.515968
-55.982644
-84.051364
-35.439450
8.709911
34.740978
32.555015
-2.735513
0.372334
6.202809
18.332916
47.300660
36.047497
23.964895
33.052081
35.378546
37.813854
54.338455
69.190150
40.013780
9.138008
10.698677
-6.510185
-18.066756
-0.645696
1.330861
9.981377
39.828695
25.117761
-12.749404
-25.745610
-33.795314
-11.649855
0.592991
-22.776787
-32.676299
-45.035034
-20.560496
2.141905
-27.930404
-4.691842
38.766276
26.837717
-9.990377
-32.129374
-2.156069
4.488259
-29.012727
7.002780
46.735047
6.292802
-32.038309
-33.456918
-26.941176
-2.381434
31.064450
24.230199
10.029190
25.750588
-11.642501
-91.893661
-98.369951
-24.599254
48.804391
77.614715
51.452692
-10.734986
-70.779059
-86.628555
-21.276676
32.369800
41.947167
55.927860
27.629506
-10.311694
6.288239
40.920223
52.775755
72.763322
51.789124
-18.720739
-49.539881
-37.149747
16.477247
42.168018
41.906675
20.756095
-45.674892
-68.050018
-58.256784
8.684615
82.875616
60.228513
-34.829938
-121.201750
-134.341347
-188.868209
-200.069418
-94.292975
-98.047677
-164.860003
-157.896681
-173.680456
-177.155907
-106.609190
-117.077593
-191.130691
-186.289672
-161.382620
-121.552680
-20.294121
-5.598027
-82.192953
-110.434418
-144.750816
-169.574255
-144.117795
-116.330176
-77.358510
-43.963541
11.647819
54.719663
43.465981
41.125196
31.843412
28.939450
42.695963
36.735572
56.781067
103.580321
85.682294
58.245850
100.345901
128.748910
126.831547
141.374118
137.643834
74.696076
37.344549
63.893075
40.341979
3.010455
3.313068
-102.743178
-271.766389
-312.759342
-284.725463
-298.570071
-228.265977
-65.289416
12.045037
38.948405
46.386064
-24.815041
-118.959369
-79.677280
96.178834
152.162442
117.084664
102.831182
0.561054
-87.184930
-56.349195
-60.739029
-102.416991
-63.204519
-27.823105
26.875431
71.511337
3.625650
-30.960647
-29.004871
-46.941602
-10.429938
32.572547
51.236596
109.777100
115.243640
29.772184
-87.304976
-167.456125
-208.284385
-311.497211
-262.927380
-83.868847
-15.179210
37.600940
17.610483
-114.027188
-194.256787
-151.314568
-121.057077
-142.846426
-102.190944
-139.628713
-235.498939
-270.352278
-316.183928
-321.399305
-265.417775
-181.317666
-81.842154
-17.317377
54.949784
169.826936
180.473249
141.878733
152.539332
129.957690
152.170949
49.308550
-213.990155
-246.216720
-46.440916
167.023618
281.451892
270.859579
208.788277
113.716058
92.341038
202.413523
345.887487
482.858161
513.123186
411.285572
229.717648
-1.125393
-159.615794
-154.101716
-62.825778
-46.704078
-59.219193
25.264333
69.025081
10.506106
0.792328
2.967348
12.763960
87.034710
184.841473
201.256192
18.738297
-189.567798
-315.791906
-394.135071
-438.219002
-421.788178
-204.614677
-109.305842
-310.942396
-447.501890
-497.655819
-561.544977
-516.858156
-202.087249
63.595054
-51.908171
-196.299668
-254.067914
-321.018437
-288.005327
-224.596773
-175.798605
-107.653182
-87.944606
-37.127523
16.551684
-39.757705
-17.566267
73.061290
140.488714
270.687498
343.577322
179.818048
-84.479984
-186.469044
-96.009297
7.009450
57.866538
108.179672
-9.845640
-160.061653
-235.867145
-242.073796
129.686557
379.881756
245.492623
188.647852
112.387507
-34.197471
-109.903991
-99.182605
-48.988965
39.914772
178.614202
222.490807
183.824854
119.453048
49.904586
58.965015
93.092789
134.988923
229.564173
306.762248
284.821454
145.392304
-3.313159
24.565897
141.146868
173.267155
210.671122
182.816711
25.817638
-123.139540
-182.319885
-106.107369
32.961970
187.628295
288.986086
376.569163
378.311410
154.868637
-27.816288
-76.521231
29.468481
160.084712
153.058753
126.969984
-83.635057
-381.744483
-422.659505
-235.373343
57.749804
141.694312
-107.712524
-263.571995
-261.901184
-308.346666
-398.956332
-414.895448
-283.769552
-42.344118
234.514700
177.073762
-13.231976
-26.110766
-75.969858
58.828896
325.236212
462.242734
462.863563
348.854782
157.427108
-96.066398
-151.899113
-30.124862
26.753906
11.676180
-25.990185
-67.455656
-143.627940
-197.493952
-197.148477
-208.832595
-259.427350
-291.399083
-262.338082
-221.957434
-167.595557
-114.957501
-82.249358
-77.241568
-89.915402
-31.699608
69.313730
352.802605
647.563070
698.717073
749.513894
681.628727
593.277483
476.184998
208.510762
147.175642
126.295220
31.227418
-27.911884
-40.105666
-41.020065
-115.148495
-180.505082
-190.517853
-88.296334
-22.011369
-52.816744
-27.248063
-18.563258
-70.761561
-178.500843
-227.033040
-164.999437
-163.477733
-179.446982
-151.668975
-126.337203
-95.428993
-84.551487
-31.767700
68.235920
141.706585
225.525625
229.527593
134.630458
46.488588
1.041654
27.471725
38.180642
54.265195
124.102746
155.549455
124.720182
103.647792
163.168660
240.946537
283.178031
297.103394
302.794633
325.164012
344.311229
335.787448
290.139194
278.746536
266.906558
166.833547
87.049449
60.011229
31.557014
-5.235232
-26.302687
-23.458504
-48.819663
-89.774690
-70.921010
19.182595
44.891031
-11.765668
-47.947200
-28.576322
101.885088
256.654021
286.410940
188.504133
32.481787
-93.422286
-137.920288
-121.012529
-70.612373
-26.812400
-40.541411
-86.528143
-99.742553
-89.338605
-86.873163
-69.920725
-45.994037
10.377924
49.973812
38.025771
55.397474
2.838095
-82.280597
-71.286455
53.812565
199.475853
194.251125
208.713428
208.931617
125.128650
172.534981
163.781305
74.015886
52.459808
-5.036202
-98.031316
-185.124244
-247.986539
-269.320255
-211.514895
-102.899189
-64.025974
-64.390964
-20.109901
3.043457
31.277617
115.036650
83.402356
3.228607
1.636213
-21.152464
-44.082454
-90.069186
-138.168351
-135.689401
-162.008844
-162.243431
-107.670622
-90.055516
-131.286157
-172.905410
-151.787074
-117.090408
-139.164723
-160.869908
-122.042413
-72.415845
-54.869318
-86.745196
-162.710185
-187.970034
-183.595039
-166.522588
-109.095709
-105.463910
-90.603643
-46.084113
-33.419663
-20.433361
-74.084546
-156.387093
-162.750644
-101.083314
-38.019731
-7.260108
10.552422
-40.113769
-105.440742
-94.789235
-62.932092
-40.704806
-23.744315
0.431750
22.117160
41.975103
60.460691
79.238779
58.986995
-43.945541
-110.466148
-105.693188
-89.451475
-43.839880
37.365115
70.334324
45.327229
29.160816
57.749818
118.059861
129.315589
133.341715
55.455223
-75.999831
-95.331257
-76.347433
-70.339797
-100.127141
-142.647789
-156.816587
-159.627812
-149.059430
-65.419890
-32.082070
-62.231791
-54.507088
-93.785313
-79.056748
-56.495141
-28.950405
47.118458
151.976102
314.493913
311.940637
219.191523
116.943735
-44.296569
-11.254625
114.537196
130.760986
183.400082
222.144971
169.771325
56.913316
6.727696
73.810408
59.748115
36.744090
68.890614
83.993505
98.954043
102.223726
121.770466
126.585768
96.564113
30.977632
-1.758338
55.291617
128.697600
197.741820
224.145135
258.426951
223.502177
28.448921
-90.810029
-117.891371
-144.770354
-92.418561
-7.609805
7.956771
-45.866379
-140.373603
-200.819277
-213.492331
-244.438760
-255.595549
-226.806006
-195.937540
-146.148617
-95.976537
-64.193948
19.261676
150.660848
318.186724
454.431866
488.552107
520.058823
534.027827
516.177858
411.566701
247.533892
225.083432
210.275865
79.663758
-104.290913
-316.795378
-471.250544
-492.093559
-428.321070
-309.336986
-148.294658
-117.129797
-173.117074
-156.489865
-152.462959
-175.404639
-178.042079
-140.797090
-71.489726
-78.640114
-56.336975
64.706028
146.760984
259.202553
369.807042
416.334578
456.359084
383.116463
219.303937
56.279027
-106.236218
-171.631770
-125.668969
-100.022358
-99.445170
-59.559381
-53.355100
-92.767625
-65.525000
-19.421924
-32.428780
-38.525030
-17.033667
-9.004516
-43.036728
-93.228064
-138.823065
-196.102688
-249.113544
-257.657068
-200.195120
-169.944643
-212.664273
-240.528036
-232.412902
-178.405868
-32.205640
192.365532
247.641532
9.443422
-152.648921
-209.133134
-259.347589
-185.308552
-88.079252
38.567205
147.012764
276.983472
228.125785
-24.275916
53.245570
187.018501
193.881813
223.863691
276.457847
338.143102
159.206367
-8.397472
4.991730
37.410751
96.595739
83.295085
20.519033
50.425578
145.420094
204.022942
261.339159
346.778891
392.076166
398.385653
419.540357
428.517661
375.385233
313.015458
271.279569
214.983167
163.351159
173.378185
213.493869
205.038927
154.983190
68.898162
-22.221947
-70.489441
-106.644217
-86.888363
-31.749261
-12.156801
-17.691952
-56.782105
-5.134024
161.792048
307.753550
389.388461
416.978396
450.454412
446.055746
328.605300
186.827328
176.138121
245.373011
202.694423
82.404194
-23.947927
-102.036779
-149.249355
-190.104891
-193.248878
-175.739238
-196.575759
-239.758296
-282.464159
-264.266393
-204.358471
-205.315732
-201.177125
-159.409837
-185.565365
-250.743492
-184.065238
-33.205293
47.084540
118.592658
159.946397
137.991835
84.251030
31.467211
46.884162
33.990305
15.660544
69.591986
101.503679
65.020557
-29.388474
-105.550108
-151.202258
-209.871379
-220.043388
-199.794235
-224.845490
-255.050541
-245.726448
-235.517585
-233.474007
-201.052129
-151.342176
-105.989570
-81.727003
-75.684038
-64.630929
-67.655163
-84.198500
-96.164206
-85.944432
-92.217324
-142.152788
-119.627808
-38.894552
-30.235724
-50.840791
-76.797078
-97.925578
-38.583171
10.310071
32.953246
75.217990
59.127949
-28.920405
-138.844595
-133.565088
-56.789915
-14.677914
57.811607
83.839817
44.439241
10.146482
-4.286499
44.937168
141.534192
224.754986
211.802941
121.613840
100.781475
112.092274
91.012610
114.888643
131.052686
98.567392
48.733757
28.839155
73.953553
60.878378
36.829827
28.904032
-39.961500
-52.721317
-22.979205
32.959204
91.428791
92.852303
104.004903
60.712484
-44.765518
-64.678824
19.327508
115.920636
177.425092
197.758150
191.582930
183.457893
219.001922
227.827001
106.336904
-16.094072
-71.906785
-89.241895
3.419126
134.508914
