EVENT_NAME: 202302060117
EVENT_ID: 13194
EVENT_DATE_YYYYMMDD: 2023/02/06
EVENT_TIME_HHMMSS: 01:17:32.00000
EVENT_LATITUDE_DEGREE: 37.288
EVENT_LONGITUDE_DEGREE: 37.043
EVENT_DEPTH_KM: 8.6
HYPOCENTER_REFERENCE: AFAD
MAGNITUDE_W: 7.7
MAGNITUDE_W_REFERENCE: AFAD
MAGNITUDE_L: 
MAGNITUDE_L_REFERENCE: 
FOCAL_MECHANISM: 
NETWORK: TK
STATION_CODE: 3119
STATION_NAME: 
STATION_LATITUDE_DEGREE: 36.57527
STATION_LONGITUDE_DEGREE: 36.16811
STATION_ELEVATION_M: 5.0
LOCATION: Kahramanmaras_Pazarck_Turkiye
SENSOR_DEPTH_M: 
VS30_M/S: 374
SITE_CLASSIFICATION_EC8: B
MORPHOLOGIC_CLASSIFICATION: 
EPICENTRAL_DISTANCE_KM: 111.03
EARTHQUAKE_BACKAZIMUTH_DEGREE: 
DATE_TIME_FIRST_SAMPLE_YYYYMMDD_HHMMSS: 2023/02/06 01:17:31.1874370
DATE_TIME_FIRST_SAMPLE_PRECISION: millisecond
SAMPLING_INTERVAL_S: 0.01
NDATA: 12501
DURATION_S: 
STREAM: HNZ
UNITS: cm/s^2
INSTRUMENT: sensor = CMG-5T/GURALP | digitizer = 
INSTRUMENT_ANALOG/DIGITAL: 
INSTRUMENTAL_FREQUENCY_HZ: 
INSTRUMENTAL_DAMPING: 
FULL_SCALE_G: 
N_BIT_DIGITAL_CONVERTER: 
PGA_CM/S^2: 0.032
TIME_PGA_S: 
BASELINE_CORRECTION: BASELINE REMOVED
FILTER_TYPE: BUTTERWORTH
FILTER_ORDER: 
LOW_CUT_FREQUENCY_HZ: 
HIGH_CUT_FREQUENCY_HZ: 
LATE/NORMAL_TRIGGERED: 
DATABASE_VERSION: 
HEADER_FORMAT: DYNA 1.2
DATA_TYPE: Acceleration
PROCESSING: Automatic Paolucci et al., 2011
DATA_TIMESTAMP_YYYYMMDD_HHMMSS: 
DATA_LICENSE: U (unknown license)
DATA_CITATION: Turkish Accelerometric Archive v 1.0 - Disaster And Emergency Management Presidency, Earthquake Department
DATA_CREATOR: AFAD
ORIGINAL_DATA_MEDIATOR_CITATION: : AFAD - Disaster And Emergency Management Presidency
ORIGINAL_DATA_MEDIATOR: AFAD PROCESS SERVICE
ORIGINAL_DATA_CREATOR_CITATION: AFAD PROCESS SERVICE
ORIGINAL_DATA_CREATOR: network: TK
USER1: GuestUser
USER2: 
USER3: 
USER4: 
USER5: 
[...]
0.002674
0.001171
0.006283
-0.004843
0.000570
0.003276
0.005982
-0.001836
-0.006948
-0.002137
0.007786
0.005681
-0.006046
-0.001836
-0.001235
0.006583
0.000269
-0.005144
-0.000032
0.001772
0.000870
0.001171
-0.003941
-0.000032
0.001772
-0.002437
0.001171
0.001171
-0.001836
-0.003339
0.001171
0.002975
0.001171
-0.003941
0.004479
-0.001535
-0.001234
0.000870
-0.000934
-0.005143
0.004779
-0.000934
-0.000332
-0.005444
-0.000633
0.003276
0.003276
-0.002738
-0.002437
0.001772
0.002073
0.000870
-0.004843
-0.000032
0.001472
0.004479
-0.002738
-0.001535
-0.001836
0.002975
0.003577
-0.003640
-0.001234
0.002073
-0.000332
-0.003039
-0.002738
0.001472
0.004479
-0.003038
0.000269
0.001171
0.002675
-0.001535
0.000871
-0.003038
0.003577
0.000570
-0.000332
-0.006045
0.002374
0.006884
-0.003640
-0.000633
-0.000332
0.004780
-0.004542
0.000570
-0.005745
0.000871
0.000570
0.001171
-0.007549
0.000570
-0.001836
0.004479
-0.001836
-0.002437
-0.001234
0.003577
-0.002738
-0.000934
0.002975
0.001171
0.000269
-0.001535
0.001472
-0.000031
0.000570
-0.005143
-0.000332
0.003276
0.001171
-0.003640
-0.002738
0.001472
0.003577
-0.000633
-0.001836
-0.003940
0.002374
0.005381
-0.005744
0.000871
-0.002738
0.007486
-0.000031
-0.001835
-0.001535
0.000871
-0.003339
0.005080
-0.003038
0.001171
-0.003640
-0.000332
0.002074
-0.000933
-0.000933
-0.000031
-0.000633
-0.004542
0.005983
0.000269
-0.002136
-0.000332
-0.000933
0.000871
0.005983
-0.010255
0.000871
0.000269
0.000871
-0.000031
0.000871
-0.006646
0.000269
-0.000332
0.000570
-0.001234
-0.003940
-0.000633
0.000270
-0.000933
-0.003639
0.000871
-0.001535
0.000570
-0.004842
0.002675
-0.001535
-0.004542
-0.001234
-0.001835
0.000570
-0.003639
0.000270
-0.000633
0.002675
-0.004842
-0.001234
0.002976
0.002675
-0.008450
0.004179
-0.004842
0.000871
0.002374
-0.000332
-0.008150
0.004179
0.001172
-0.003038
-0.006646
0.000871
0.001773
-0.000632
-0.001534
-0.006045
0.004479
-0.001234
-0.002437
-0.003339
-0.001534
0.001773
0.004780
-0.007548
-0.007849
0.002074
0.006284
0.000570
-0.012660
0.015304
-0.005744
-0.007248
-0.003940
0.003577
0.001172
-0.000933
-0.001835
-0.006045
0.003577
-0.000031
0.000871
-0.004842
-0.002136
0.000570
0.001773
-0.005143
-0.001534
0.002675
0.003577
-0.004842
-0.003639
0.000270
-0.003038
-0.002737
0.008388
-0.006345
0.000270
-0.001234
0.002375
-0.001234
0.002675
-0.004541
0.001773
-0.001835
0.001773
-0.000933
-0.001534
0.003277
-0.005143
-0.000031
-0.000632
0.002675
-0.005143
-0.002436
-0.000031
-0.000632
0.001172
-0.004240
-0.003940
0.004480
-0.003940
-0.002136
-0.000031
-0.001534
-0.000331
-0.004240
0.001172
-0.002136
-0.001534
-0.006646
0.006584
-0.003038
0.001172
-0.006045
-0.003038
-0.001233
0.002676
-0.005443
0.002074
-0.001835
-0.000933
-0.001233
0.000270
-0.000031
-0.002737
-0.004240
0.001774
0.000871
-0.005142
0.001172
0.000871
0.006284
-0.006946
-0.003940
-0.000031
-0.001233
0.000270
0.006284
-0.005443
-0.001835
0.000571
-0.001233
0.005382
-0.004842
-0.005443
-0.001534
0.001473
0.000571
-0.000933
-0.005744
0.001473
0.001774
-0.000331
-0.003939
-0.001233
0.003277
0.002375
-0.006646
-0.002436
0.004480
0.001473
-0.003939
-0.004541
0.003878
0.001473
-0.000933
-0.007247
0.007186
-0.003338
0.002676
-0.004541
-0.000030
0.002375
0.002074
-0.004841
0.001774
-0.005142
0.007487
0.000872
-0.006345
0.000571
0.000270
0.000872
0.001172
-0.000331
-0.006345
0.005081
-0.002436
-0.000030
-0.001534
-0.000331
-0.001233
0.000872
0.000872
-0.003939
-0.001534
-0.000932
0.002375
0.000571
-0.001534
-0.005443
0.000571
0.000571
0.001774
-0.003037
-0.000632
-0.003639
0.003578
-0.000932
0.001172
-0.004541
0.000270
-0.001534
0.001774
-0.003338
-0.003939
-0.001534
-0.000331
0.002977
-0.006645
-0.002736
-0.000932
0.003578
-0.005743
0.000270
-0.002135
-0.000030
0.000571
0.001774
-0.004841
0.000271
-0.003638
-0.000932
0.001774
-0.001233
-0.001534
-0.002135
0.002075
-0.001534
0.000872
-0.001233
-0.000331
-0.001834
0.003277
-0.005142
-0.000632
-0.000932
0.002676
-0.000932
-0.001834
-0.000631
-0.000631
-0.002436
-0.000932
0.000872
0.001173
0.006284
-0.006946
-0.006345
-0.008449
0.010193
-0.004841
0.002977
-0.003338
0.000872
-0.000932
-0.000030
-0.003638
0.003278
0.002376
-0.000631
-0.001533
-0.003037
0.002075
0.002376
-0.000631
-0.003939
-0.000631
-0.004540
0.003578
0.000271
0.004781
0.001774
0.004180
-0.000331
-0.009051
-0.003037
-0.000631
-0.000030
0.001173
0.008089
0.002977
-0.001834
-0.009652
-0.003338
-0.004240
0.010194
0.005082
0.001173
-0.010253
-0.002435
-0.002135
-0.000932
0.009893
0.002676
-0.003638
-0.007547
-0.005442
0.005383
0.005383
-0.003939
0.001774
-0.005743
-0.003638
-0.002435
0.001474
-0.000331
0.006886
0.004481
-0.001834
-0.009351
-0.002736
-0.003638
0.003879
0.000572
0.002075
0.005082
-0.002736
-0.007246
-0.006344
0.005683
0.003879
0.011096
-0.005743
-0.012057
-0.003037
0.001774
0.009592
0.005383
-0.006044
-0.003337
-0.002135
-0.002435
0.006585
0.007788
0.000271
-0.006344
-0.003638
0.000572
0.004180
-0.003337
0.006586
0.006285
0.000572
-0.011456
-0.004239
-0.004540
0.008991
0.006886
0.008991
-0.008750
-0.007547
-0.000631
0.002977
0.000572
0.002376
0.007187
-0.006645
-0.005141
-0.004239
0.008089
-0.000932
-0.003337
-0.003939
-0.000631
0.003879
0.001775
0.005383
-0.000030
-0.000631
-0.009351
-0.002134
0.003579
0.007187
0.003579
0.003579
-0.008449
-0.004841
-0.001232
0.002376
-0.002134
0.003879
0.000572
0.006586
-0.007246
-0.007547
-0.002435
0.006285
0.004481
-0.006344
-0.003938
-0.002134
0.004180
-0.000932
0.002075
-0.002435
-0.003638
-0.004239
0.005082
-0.005442
0.006285
-0.005442
-0.004540
-0.003036
-0.001232
0.001775
0.004782
-0.000330
0.000572
-0.002435
-0.005141
-0.001533
-0.003337
0.002376
0.004180
0.001173
-0.005141
-0.000931
0.001474
-0.006945
-0.001232
0.003880
-0.000029
0.002978
-0.000931
-0.004840
-0.000931
0.001173
-0.000029
-0.003337
0.001173
-0.000931
0.007187
-0.009651
0.002376
-0.004840
0.001174
-0.001232
0.000873
-0.001533
0.005684
-0.006043
-0.004239
-0.001833
-0.002735
0.003880
-0.001232
-0.003938
0.002376
-0.000931
-0.007847
0.004481
-0.001533
0.004481
-0.003036
-0.003938
0.004180
0.003278
-0.004540
-0.003337
0.000272
0.002978
0.002677
-0.000330
-0.002134
0.000572
0.000572
-0.003637
0.001474
-0.004239
0.007488
-0.000330
-0.005742
0.001174
-0.002435
-0.003637
0.006887
0.000272
0.003880
0.002076
-0.006043
-0.003337
-0.000029
0.004782
0.002076
0.002076
-0.007546
0.002978
-0.003337
0.000272
-0.000630
0.004782
-0.010854
0.004782
-0.002435
0.001474
-0.001532
-0.003938
-0.003337
-0.000330
-0.001232
0.001474
0.004181
0.001174
-0.003337
-0.005742
0.001174
-0.000931
0.006887
-0.002434
-0.000630
-0.004239
0.002677
0.002377
-0.000630
-0.002434
-0.001833
0.007488
0.000572
-0.000330
-0.006644
-0.001232
0.000272
0.001775
-0.001232
0.002978
-0.005742
0.006586
-0.001833
-0.004239
-0.001532
0.002978
0.002377
0.007789
-0.011756
-0.003036
0.006286
-0.003036
0.004482
-0.002735
0.001475
-0.000029
-0.001232
-0.004539
0.007488
-0.003637
-0.000931
0.002677
-0.000630
-0.003036
0.001475
-0.005742
0.001775
0.006887
-0.000329
-0.003036
-0.003637
0.001475
-0.000931
0.005985
0.001775
-0.005441
0.000573
0.005985
-0.005742
0.002678
-0.000029
-0.002434
-0.002735
-0.002434
0.001174
0.009593
0.001475
-0.014161
0.001775
0.002678
0.004482
-0.001231
-0.000931
-0.003336
0.000272
-0.001532
0.001776
-0.000931
0.008691
-0.005742
-0.005140
-0.003938
0.002678
0.005083
0.001776
-0.003336
-0.004840
-0.000329
0.000272
0.004482
0.001174
-0.003035
-0.006944
0.001776
-0.000329
0.002377
0.003580
-0.001833
-0.007846
-0.005441
0.002076
0.005985
0.005384
-0.009951
-0.004539
-0.000630
0.003880
-0.001532
-0.000630
0.000874
0.005083
-0.006944
-0.003336
0.001475
0.001475
0.000272
0.001174
-0.004539
0.001475
0.000874
-0.005441
-0.002434
0.002377
0.002678
0.000272
-0.003637
-0.001833
0.003279
-0.001833
-0.002133
-0.003937
0.006286
-0.002133
0.005685
-0.004539
0.000272
0.001174
0.002377
-0.002735
0.000573
0.003580
0.001174
-0.005741
-0.008448
0.010797
0.003580
-0.002735
-0.006644
0.001475
0.002077
0.006587
-0.002735
-0.006042
-0.001832
0.000272
0.004783
0.001174
-0.006343
0.000874
0.002077
-0.005741
0.005986
0.000573
-0.001832
-0.007546
0.003279
0.000573
0.004783
-0.006643
0.000573
-0.001832
-0.000329
0.003279
0.002077
-0.006643
0.005986
-0.002434
0.000573
-0.000930
-0.004839
0.004482
-0.002734
-0.000930
-0.000630
0.001175
-0.000930
0.005084
-0.005741
0.000273
0.000874
-0.003035
0.003279
0.004783
-0.003937
-0.003035
0.000573
0.001776
0.004482
-0.004238
-0.004238
-0.001532
0.004182
0.002678
0.002678
-0.009650
-0.000028
-0.000028
-0.002133
-0.000028
-0.000629
-0.003035
0.007790
-0.004538
-0.004538
0.000573
-0.002434
0.008692
-0.002434
-0.001531
0.000573
0.002077
-0.000329
-0.001832
-0.004238
0.005685
-0.002434
0.002378
-0.003636
0.000874
-0.000930
-0.000629
-0.007846
0.003580
0.004182
-0.000930
0.001476
-0.003636
0.001476
0.002077
-0.003937
-0.003937
0.005084
0.001476
0.002678
-0.006643
0.000573
0.001776
-0.002734
-0.000930
-0.000329
0.001476
0.004482
-0.003035
-0.012958
0.005385
-0.001231
0.005685
-0.004538
-0.004839
-0.000629
0.003580
-0.004839
0.003881
-0.003937
0.001476
0.003580
-0.002133
-0.004839
-0.001231
0.003881
-0.001231
-0.000629
-0.001231
0.001476
-0.005140
-0.001832
0.000874
0.003280
-0.003035
-0.002133
-0.000930
0.005084
-0.000328
-0.002433
-0.005440
-0.000028
0.003581
-0.001531
0.002378
-0.002133
0.002679
0.001776
0.003581
-0.005139
0.001776
-0.003937
-0.000930
-0.000930
0.002378
0.004182
0.000874
-0.004237
-0.001832
-0.000028
-0.003636
0.000273
-0.005440
0.004182
0.002077
-0.003636
-0.005440
0.001777
-0.004237
0.009895
-0.005741
-0.001832
-0.003335
0.002679
0.002979
-0.000028
-0.001531
0.004182
-0.003937
-0.000328
0.003280
0.002378
0.002679
-0.005139
0.000574
0.000875
0.002077
-0.000328
0.002679
-0.003034
0.002378
0.002979
-0.002132
0.001777
0.000875
0.001476
-0.001230
0.000273
-0.000930
0.002378
-0.003034
-0.002132
0.001175
0.002378
-0.001230
0.004483
-0.008447
0.004784
0.000574
0.001777
0.002077
-0.003034
-0.001531
-0.000629
0.002378
0.005686
0.004784
-0.000027
-0.000629
-0.002433
0.002980
-0.002132
0.003581
0.004784
-0.000929
-0.006342
0.003581
-0.004237
0.002077
0.007189
0.003882
-0.005440
-0.000929
-0.002132
0.008392
0.003882
0.001777
0.001175
-0.003636
0.003581
-0.001230
0.002378
0.000574
0.005686
-0.003335
0.000273
-0.005440
0.001476
0.003882
0.001777
0.001777
-0.004538
0.001476
0.000574
0.000875
0.001476
0.005987
-0.003335
-0.001831
-0.005740
0.002980
0.004182
0.007490
-0.006943
-0.001831
-0.000629
0.001176
0.001176
0.006287
-0.003936
-0.002733
0.000274
0.001176
0.002980
0.003581
0.001476
-0.003335
0.001176
-0.002433
0.005686
-0.002132
0.000274
0.002679
0.002980
-0.004237
0.000875
0.002679
0.001777
-0.001531
-0.004237
0.002378
0.002378
0.001476
-0.003034
0.003281
-0.001230
0.001777
-0.001831
0.001476
-0.001530
0.004784
0.002378
0.002379
-0.004237
-0.000328
0.002679
0.006287
-0.003034
0.002078
0.004483
-0.005139
0.002980
-0.002132
0.003581
-0.003034
-0.003335
0.002379
0.008994
-0.006041
0.001477
0.001176
0.005686
0.002980
-0.001230
0.000274
0.002078
0.003281
0.001777
0.002980
-0.003034
0.002078
0.001176
0.001176
-0.003334
0.001777
0.000875
0.006288
-0.005139
-0.003936
0.006288
0.001176
0.000575
0.001477
0.001477
-0.004237
0.002980
0.002980
0.005085
-0.000628
0.000575
-0.001230
0.006288
-0.003936
-0.000929
-0.000327
0.008994
0.001176
0.004484
-0.008446
0.001477
0.004183
0.001477
0.002379
0.000575
-0.002132
0.001477
0.005085
-0.002132
-0.002432
0.002679
0.006588
-0.000327
0.002980
-0.003334
0.003281
-0.000628
0.005686
0.000875
-0.000628
-0.001229
0.001777
0.005085
-0.003635
0.001176
0.001477
0.002379
-0.006040
-0.000327
-0.000628
0.008393
-0.005439
-0.003635
0.002980
0.004484
-0.002733
0.005686
-0.000027
-0.001831
0.001778
-0.001831
0.002078
0.000875
0.002680
0.001477
0.004784
-0.009348
0.006889
-0.000327
0.001477
-0.002131
0.005687
-0.001229
0.002078
0.001176
0.002379
-0.002131
0.001477
0.001477
0.007491
-0.001229
-0.002733
0.003882
-0.001229
0.003582
-0.007544
0.006589
0.001176
0.000274
0.000876
-0.000026
-0.003935
-0.002131
0.006589
0.002680
-0.003935
-0.000026
0.002980
0.006889
0.002379
-0.007243
0.007190
-0.003935
-0.000327
0.000876
0.005386
-0.002733
0.005987
-0.003635
0.000575
-0.001831
-0.000026
0.000575
0.001176
-0.000327
0.004785
0.001176
-0.003033
0.002078
-0.001229
0.005987
-0.000327
-0.005138
-0.006040
0.012302
0.006890
-0.003033
-0.006942
0.004183
0.004484
0.002379
-0.003033
-0.003935
0.002379
0.004183
0.004785
-0.004236
0.002079
0.002379
0.009295
-0.005739
-0.006341
0.000876
0.009897
0.000876
0.003281
-0.002432
-0.000928
-0.002732
0.010498
0.000274
-0.004236
0.006288
0.000575
0.004183
-0.001229
-0.009047
0.004183
0.016512
-0.002432
-0.006341
0.000876
-0.006942
0.019218
-0.005739
-0.013557
0.021323
-0.013557
0.015910
0.001177
-0.020172
-0.002732
0.027938
0.008093
-0.007543
-0.029794
0.010197
0.031847
-0.004236
-0.031599
0.011701
0.026134
-0.019571
0.002379
-0.002131
0.008093
-0.001830
0.012904
0.002981
-0.019571
0.009596
0.007191
0.012002
-0.022578
0.019218
0.003282
-0.015963
-0.007243
0.028540
0.000575
-0.018969
0.002680
0.003582
0.004184
0.001778
0.002981
-0.009347
0.002079
0.013505
-0.000928
-0.006641
-0.000026
0.009596
0.005687
-0.005739
-0.003033
0.004484
0.007191
-0.011753
0.009897
0.004184
-0.004837
-0.002732
0.004484
-0.003033
0.003582
0.015610
-0.001529
-0.010851
-0.011151
0.009897
0.004785
0.001177
0.002380
-0.000327
-0.010550
0.001177
0.010799
0.006890
-0.010550
-0.005138
0.013505
0.004785
-0.002431
-0.009047
-0.002131
0.007491
0.012904
-0.010550
-0.008445
0.005086
0.013505
-0.005739
-0.003033
0.005687
0.013205
-0.013557
-0.011753
0.005988
0.024631
-0.007242
-0.020473
0.000275
0.018617
0.010198
-0.012655
-0.019871
-0.000928
0.029442
0.018617
-0.024382
-0.029193
0.015310
0.023127
0.003282
-0.013256
-0.009046
0.006590
0.012904
-0.007543
-0.008445
0.002380
0.009296
0.011701
-0.008746
-0.011452
0.001478
0.011100
0.000876
0.002380
-0.006039
-0.000326
0.003883
0.009596
-0.004837
-0.007844
-0.002732
0.000876
0.013806
0.008995
-0.009347
-0.015060
0.005086
0.012603
-0.004235
-0.012955
0.008995
0.020121
0.003282
-0.030696
-0.008144
0.016212
0.022226
-0.004536
-0.014158
-0.006039
0.008394
0.007792
-0.007543
-0.011151
0.009597
0.019219
-0.006340
-0.015060
-0.006039
0.007792
0.011100
-0.003934
-0.009347
-0.000025
0.002079
0.004184
-0.000627
-0.003333
0.003583
0.003282
-0.004836
-0.000927
0.009897
-0.000326
0.000275
-0.000927
-0.001529
-0.002130
0.005086
-0.002130
0.004485
-0.002431
0.003282
-0.003333
0.001478
0.001779
0.005387
0.001177
-0.003934
0.000877
0.003583
0.006289
-0.001829
-0.001228
-0.002130
0.009296
0.002080
-0.000627
-0.003934
0.006590
0.001177
0.001177
-0.001829
0.004786
-0.000326
0.001478
-0.000627
-0.000927
0.004786
-0.000025
0.002080
-0.000025
0.001178
0.003884
0.005688
-0.006039
0.001478
0.005688
0.005387
-0.004536
0.005387
0.002080
0.004485
-0.007242
-0.000025
0.005387
0.006289
-0.001529
-0.007242
0.005087
0.002080
0.004185
-0.003032
0.002982
-0.003333
0.005688
0.001779
-0.001829
-0.002431
0.003884
0.000276
0.000877
-0.000326
0.003283
0.004485
-0.001829
-0.003333
0.003283
0.002080
-0.002431
0.001779
0.001178
0.000576
-0.003333
0.002982
0.000576
0.001779
0.000877
-0.001829
-0.000025
0.002681
0.000276
-0.000326
0.001478
-0.001829
0.002080
-0.000326
-0.000326
-0.003032
0.003884
-0.001829
0.002381
-0.002130
0.000877
0.002982
0.001779
-0.002130
0.000576
-0.000326
-0.000326
-0.003333
0.003583
-0.000626
0.002982
0.004185
-0.006039
-0.001528
0.001479
0.006590
-0.001528
-0.001528
-0.002430
0.005388
-0.002430
-0.003332
0.005087
-0.001528
0.001479
0.004185
-0.005137
0.000577
0.003283
-0.002430
0.006590
0.000577
-0.000326
-0.003332
0.002681
-0.000927
0.005388
-0.003633
0.004486
-0.001228
-0.000025
0.000577
0.005087
-0.002731
-0.000927
0.005087
-0.003032
0.002080
-0.004535
0.004486
0.000276
-0.000025
-0.003332
0.008996
-0.004535
-0.001227
-0.001528
0.005688
-0.002130
0.005688
-0.004836
0.000877
0.002682
-0.000626
0.002982
0.000276
-0.000927
0.000877
0.002080
-0.003332
-0.001829
-0.002731
0.004786
-0.000325
-0.002129
-0.002129
-0.000626
0.001178
0.002381
-0.001829
-0.004234
0.005087
-0.002430
0.002080
-0.001829
0.001178
-0.003332
0.000877
-0.002129
0.002982
-0.001829
-0.003633
-0.001227
0.003884
0.000276
-0.001528
-0.004234
0.001479
-0.000025
0.000577
-0.000325
-0.004836
-0.000927
0.001780
0.000276
-0.006339
0.001479
-0.000626
0.002982
-0.006339
0.001178
-0.000626
-0.000024
-0.001829
0.002982
-0.002430
0.001178
-0.000626
-0.004234
0.001780
0.001178
-0.000024
-0.000626
-0.001227
-0.003031
0.003283
-0.004234
-0.000024
0.000276
0.001780
0.000276
-0.002731
-0.002129
0.006591
-0.001227
-0.005437
0.002682
-0.001227
0.005689
-0.003332
-0.002129
-0.001227
0.002983
-0.003332
-0.001227
-0.001828
0.001780
-0.001227
0.000276
-0.006038
0.004185
0.000577
-0.003633
-0.001528
0.000276
-0.000024
0.002682
-0.003031
-0.006639
0.003584
0.000878
-0.000926
-0.003933
-0.000024
0.000878
0.004185
-0.001227
-0.002129
-0.001528
0.002381
0.001479
-0.001227
-0.002430
0.001780
0.003283
-0.006639
0.003584
-0.003332
0.003584
-0.005737
-0.000626
0.000878
-0.000325
0.000277
0.002081
-0.004234
0.003584
-0.000325
0.000277
-0.001227
-0.000626
0.002081
0.003283
-0.003031
-0.001227
0.007493
-0.005136
-0.000926
-0.004835
0.007192
0.000878
-0.002730
-0.004835
0.004186
-0.003933
0.002381
-0.003332
0.000277
0.003584
0.002081
-0.003632
-0.001527
0.001179
0.002381
-0.000625
-0.005136
0.003584
0.001179
-0.002730
-0.004234
0.002382
-0.001527
-0.001227
-0.002129
-0.003031
-0.001227
0.000577
-0.000625
-0.003332
0.000577
-0.000926
-0.000325
-0.004835
0.001780
-0.002429
0.002081
-0.007241
0.000878
-0.001527
0.005689
-0.008143
-0.002129
-0.000024
0.006291
-0.001527
-0.003031
-0.001227
0.000277
0.004486
-0.006639
0.000578
0.002382
0.000277
-0.002730
-0.000325
-0.002429
0.003885
-0.000325
-0.003331
-0.002429
-0.000325
0.000277
0.001480
-0.004233
0.001480
0.001480
-0.002730
0.002382
-0.004233
0.002983
-0.001527
-0.000324
-0.001527
0.000578
-0.001828
0.001480
-0.004534
-0.003031
-0.000024
-0.000024
-0.000926
-0.002129
-0.000324
0.000578
0.001780
-0.003933
-0.000324
-0.004835
0.005389
-0.003933
-0.000625
-0.002129
0.005088
-0.001527
0.004186
-0.006940
0.004487
0.002983
-0.002429
0.000878
-0.002730
0.000578
-0.000926
-0.002730
0.002382
0.003585
-0.005135
-0.001828
0.000878
0.000578
-0.000926
-0.000625
-0.005135
