EVENT_NAME: 202302060117
EVENT_ID: 13194
EVENT_DATE_YYYYMMDD: 2023/02/06
EVENT_TIME_HHMMSS: 01:17:32.00000
EVENT_LATITUDE_DEGREE: 37.288
EVENT_LONGITUDE_DEGREE: 37.043
EVENT_DEPTH_KM: 8.6
HYPOCENTER_REFERENCE: AFAD
MAGNITUDE_W: 7.7
MAGNITUDE_W_REFERENCE: AFAD
MAGNITUDE_L: 
MAGNITUDE_L_REFERENCE: 
FOCAL_MECHANISM: 
NETWORK: TK
STATION_CODE: 2712
STATION_NAME: 
STATION_LATITUDE_DEGREE: 37.184
STATION_LONGITUDE_DEGREE: 36.73283
STATION_ELEVATION_M: 536.0
LOCATION: Kahramanmaras_Pazarck_Turkiye
SENSOR_DEPTH_M: 
VS30_M/S: None
SITE_CLASSIFICATION_EC8: unknown
MORPHOLOGIC_CLASSIFICATION: 
EPICENTRAL_DISTANCE_KM: 29.79
EARTHQUAKE_BACKAZIMUTH_DEGREE: 
DATE_TIME_FIRST_SAMPLE_YYYYMMDD_HHMMSS: 2023/02/06 01:17:07.3433620
DATE_TIME_FIRST_SAMPLE_PRECISION: millisecond
SAMPLING_INTERVAL_S: 0.01
NDATA: 10501
DURATION_S: 
STREAM: HNN
UNITS: cm/s^2
INSTRUMENT: sensor = ACEBOX/SARA | digitizer = 
INSTRUMENT_ANALOG/DIGITAL: 
INSTRUMENTAL_FREQUENCY_HZ: 
INSTRUMENTAL_DAMPING: 
FULL_SCALE_G: 
N_BIT_DIGITAL_CONVERTER: 
PGA_CM/S^2: 554.850
TIME_PGA_S: 
BASELINE_CORRECTION: BASELINE REMOVED
FILTER_TYPE: BUTTERWORTH
FILTER_ORDER: 
LOW_CUT_FREQUENCY_HZ: 
HIGH_CUT_FREQUENCY_HZ: 
LATE/NORMAL_TRIGGERED: 
DATABASE_VERSION: 
HEADER_FORMAT: DYNA 1.2
DATA_TYPE: Acceleration
PROCESSING: Automatic Paolucci et al., 2011
DATA_TIMESTAMP_YYYYMMDD_HHMMSS: 
DATA_LICENSE: U (unknown license)
DATA_CITATION: Turkish Accelerometric Archive v 1.0 - Disaster And Emergency Management Presidency, Earthquake Department
DATA_CREATOR: AFAD
ORIGINAL_DATA_MEDIATOR_CITATION: : AFAD - Disaster And Emergency Management Presidency
ORIGINAL_DATA_MEDIATOR: AFAD PROCESS SERVICE
ORIGINAL_DATA_CREATOR_CITATION: AFAD PROCESS SERVICE
ORIGINAL_DATA_CREATOR: network: TK
USER1: GuestUser
USER2: 
USER3: 
USER4: 
USER5: 
[...]
-69.956257
-67.557252
-78.946909
-101.753353
-132.623933
-161.604963
-173.473202
-170.004575
-165.190678
-150.687287
-123.083768
-89.800145
-49.871068
-11.035694
23.122565
43.223530
35.750679
31.482721
52.883131
74.998727
75.024456
39.766203
-7.096577
-31.780413
-63.054527
-93.799792
-74.466851
-50.936314
-64.901948
-74.659700
-76.924483
-83.096018
-79.484540
-77.274210
-76.082768
-64.406921
-37.489597
-0.997340
22.102309
46.512157
82.436521
123.971318
173.400045
195.393833
209.674181
238.156778
240.334143
248.111186
271.852608
285.119913
303.253941
307.277603
293.887110
267.501697
198.919852
94.276884
21.989118
38.685528
80.763201
80.091513
58.300450
48.789589
50.250365
19.191812
-19.357838
-26.172784
-30.583825
-22.068450
0.155394
13.091174
-1.911819
-45.053015
-84.626698
-121.245884
-127.557932
-131.980196
-176.400262
-188.463488
-186.917610
-167.594722
-117.577059
-129.359495
-134.973658
-119.523622
-129.770477
-52.402509
53.600247
77.089402
78.100586
86.902363
139.020928
230.361556
233.524845
163.322551
196.247296
280.877007
260.689794
252.215121
299.528218
258.324500
162.370139
94.089659
85.259148
121.057962
92.334343
33.319950
20.900884
14.777979
5.191367
-13.511702
-5.058984
-4.184571
-98.034991
-113.280432
-28.181255
-1.998288
75.388618
148.816167
141.815353
231.725142
279.274840
201.242677
202.310206
214.327630
181.649564
184.388276
170.623006
153.501342
174.457304
203.616743
222.591741
197.957703
168.321573
199.322400
224.313702
159.769303
27.682977
-29.113849
69.243503
135.167796
75.330203
55.011128
93.071229
79.937446
5.581744
-77.545798
-119.830126
-107.861332
-77.548570
-129.177308
-291.564226
-434.784913
-441.370970
-346.546763
-307.767501
-328.502034
-288.222027
-253.047217
-242.306794
-175.256766
-114.979144
-80.211843
-40.900224
-40.166324
-59.385149
-39.320657
25.454056
94.833873
133.474260
140.402853
115.403156
72.798759
33.292878
-13.920365
-51.979743
-46.993537
-26.276516
-23.416697
-28.661460
-25.551244
-12.815594
-9.486076
-26.402700
-45.827734
-40.029317
-19.976047
-12.644621
11.696958
31.952229
18.718614
46.023106
83.187297
59.668005
27.135127
26.176335
56.973759
58.675346
20.533672
28.240108
47.122522
44.560349
47.851992
24.033205
-2.853002
-9.016354
-11.329065
2.329850
5.855524
1.846146
18.638412
29.170288
38.825893
56.208730
62.465858
85.551245
131.986900
166.219740
177.888807
151.806863
58.209412
-83.463770
-179.790103
-193.287208
-203.680888
-236.254213
-258.632341
-259.372298
-203.348149
-135.437280
-146.160381
-182.496439
-167.970370
-127.767049
-101.271963
-92.270289
-75.416301
-44.674988
-12.371209
46.508539
107.489657
94.171641
23.115520
-49.000638
-78.172447
-61.715213
-120.791796
-246.801730
-245.569607
-138.513829
-89.972595
-80.005807
-38.585103
-28.952645
-85.330974
-122.803053
-131.868531
-174.314881
-208.853505
-167.884732
-119.761996
-133.323161
-141.328135
-142.119527
-135.240733
-76.787665
-57.343203
-55.388179
-46.849658
-90.254109
-89.513194
-74.981747
-1.614985
187.495684
214.079380
143.561694
182.026265
218.619990
208.335961
123.058420
16.610302
-55.195607
-85.299098
-12.830819
-14.404964
-46.977121
47.312860
57.547580
47.688595
112.982103
111.003956
111.896137
127.868476
124.762958
147.503261
105.972928
-39.396355
-115.735593
-85.378643
-121.788582
-102.253640
67.497681
165.299998
198.115793
182.929503
79.363872
-13.224042
-85.474166
-101.008346
-124.639861
-179.891521
-54.956798
104.439408
89.993087
98.564106
137.623457
8.836011
-121.677794
-60.546111
-16.584498
-59.847970
-34.093319
-6.253665
-40.873184
-64.146288
-69.664593
-92.609680
-94.565850
-22.745423
1.060761
-132.297188
-245.171691
-193.288560
-171.766809
-267.680489
-257.884139
-239.283685
-392.091228
-463.840090
-360.070800
-166.976458
-24.388873
-185.807403
-278.139543
47.945697
237.264680
90.226318
12.737499
-20.315812
-142.646479
-206.903074
-221.593013
-228.944055
-151.043263
-62.482718
-0.820315
40.275177
46.867336
113.064938
152.138785
128.702958
63.432384
-188.856597
-325.161093
-155.456297
-62.474178
-50.611060
17.392159
-47.660750
-228.613743
-285.728066
-266.232169
-310.911282
-276.268595
-230.352204
-298.379949
-249.334649
-156.689198
-206.761548
-224.529895
-138.842952
-59.498695
-51.698974
-52.320629
6.509086
41.394689
33.549165
39.698746
22.029996
-25.438787
-11.044813
55.956351
79.653819
116.436920
214.285061
249.471795
181.784458
141.653870
191.928944
224.437997
231.510610
301.971038
346.669813
315.490621
255.023411
154.491300
103.410116
129.195160
125.126631
136.442430
205.497269
215.725209
140.365114
79.778200
31.882270
-31.810406
-56.319129
-62.316952
-49.694227
-65.079946
-213.641263
-307.302775
-305.394744
-346.442285
-259.162014
-153.346062
-251.014624
-318.545550
-290.380450
-287.080157
-243.310024
-152.308402
-100.602723
-75.064569
-11.980211
33.713605
22.833627
29.564194
58.604397
35.633359
-73.067395
-161.674677
-139.555106
-91.037486
-65.124088
-61.257070
-96.114828
-123.751758
-136.255458
-180.115346
-215.395109
-166.455251
-118.924022
-157.018470
-170.337187
-159.615467
-177.077073
-136.982233
-75.648081
-11.555589
90.565665
107.716108
28.662951
-51.005794
-109.312950
-134.008944
-111.555511
-34.424379
-35.046736
-112.990759
-20.751882
132.223083
132.495000
88.605888
92.907535
136.442935
144.464764
119.347701
138.513711
154.723821
187.571179
234.365713
196.556030
129.427002
142.236999
218.125031
247.454909
284.054479
393.183806
403.126280
323.302060
296.002733
308.484946
314.029460
304.296491
336.436846
347.948333
337.626896
416.565982
429.664485
330.942198
186.008479
-9.294288
-51.873669
70.959685
157.950047
141.312343
57.271823
22.579360
56.482780
179.466699
328.467344
261.746525
86.332891
41.848764
23.499898
-57.440470
-94.095428
-125.238382
-242.700688
-310.349915
-324.023771
-392.520981
-400.192560
-309.246348
-242.103970
-246.906856
-248.553713
-206.552491
-227.673958
-246.745725
-108.668089
-21.221120
-105.793997
-49.207799
160.344700
218.129810
166.804307
149.130181
199.619646
280.257036
236.821489
239.737420
402.964629
274.169467
-39.962164
37.315793
209.987008
196.097825
269.087940
288.956510
184.545468
64.176828
-134.628223
-181.256505
-128.165109
-224.210885
-279.369493
-312.870059
-365.575432
-334.528080
-370.628003
-393.442630
-382.135248
-481.911960
-329.583445
86.869815
261.674430
249.993228
297.048680
380.526706
364.236425
183.827010
91.336356
136.573098
89.350972
30.683768
65.088449
-3.087523
-181.272591
-162.695517
-39.269253
-47.117816
45.421257
201.212543
144.279647
8.831083
-39.012477
40.177941
189.621866
199.825959
90.274183
73.390057
95.431539
38.674692
-21.209661
-44.717964
-17.131746
46.391216
101.251287
108.648644
-27.683673
-138.833921
-98.390023
-109.785290
-143.121028
-110.152797
-19.035212
117.403974
134.372756
74.532825
61.341060
12.488898
-92.168566
-147.085662
-39.533531
72.026586
24.561310
-12.449020
-62.163893
-216.700601
-310.412144
-275.030424
-125.617361
40.181617
102.408875
165.847904
266.928526
302.217428
242.321620
132.891652
52.863561
16.365013
48.285599
123.785527
164.021814
189.405194
131.336277
29.397408
6.984210
-41.559572
-97.797857
-111.551437
-115.675610
-95.088580
-112.170966
-96.645882
-111.872619
-248.637695
-207.411978
-46.342485
11.526558
64.301392
46.023600
24.457918
157.921799
223.279836
95.080858
7.947901
94.808974
138.355362
56.374830
41.130792
60.625520
-5.174838
-84.988070
-79.481665
-45.054306
-62.893026
-22.730853
36.340142
4.268545
22.861518
75.689658
75.411684
48.920595
-63.796796
-164.891658
-168.413101
-220.998303
-238.573066
-69.239775
56.083987
2.316706
-40.482677
-62.717955
-89.921892
-6.887146
97.472717
167.441703
272.510205
321.430658
303.507069
290.057425
201.898099
91.539021
112.548755
88.863935
-63.201302
-14.869318
169.348443
132.935699
2.705022
-14.577962
27.512805
11.181843
-141.486590
-276.879277
-231.642768
-137.249449
-128.135553
-150.266557
-160.410775
-132.724960
-55.769410
-75.598212
-180.201435
-188.784823
-167.448473
-158.832332
-126.245891
-140.453272
-194.968003
-259.220157
-221.377720
-102.595372
-156.843574
-250.625023
-231.390043
-232.846355
-135.571485
38.605618
74.989394
105.695169
211.205080
249.639725
211.268929
118.715149
-4.356421
-4.528251
107.311254
127.809674
55.592983
45.930621
142.140311
152.481877
-34.527167
-202.584137
-265.356821
-210.695243
-22.288303
80.777024
96.795888
159.290376
234.379756
264.907378
230.044944
183.725508
-24.807145
-214.332082
2.058988
127.147083
18.967930
102.941606
178.627637
202.751318
206.426155
59.493235
-27.782805
-46.572379
-90.923241
-162.970195
-237.101452
-165.795379
-161.531841
-304.794143
-307.219779
-256.936756
-217.592873
-155.869215
-178.219287
-168.441874
-108.650784
-84.328844
-39.631705
69.995843
218.801501
146.593227
-33.919993
72.960204
201.891224
202.814267
259.782488
262.249996
123.473795
-75.330087
-55.921162
117.707921
131.467602
186.580643
212.572831
95.733127
108.855477
106.009708
66.177445
70.336944
22.667797
128.465512
294.434228
298.970607
195.309587
8.400842
-22.642747
118.423753
122.634219
30.779260
-34.633229
-78.073919
-120.571938
-195.583441
-177.893861
-65.277682
-101.500115
-235.659521
-276.202527
-335.114985
-338.349559
-45.054152
197.006923
119.267473
110.436728
95.659115
-139.873382
-207.700062
-202.001242
-231.904369
11.162735
191.853898
116.242705
-31.113855
-202.277757
-121.649720
48.348725
42.778516
78.086123
62.212936
-31.405790
-24.318916
1.547489
17.977603
16.703419
-30.755076
-51.199934
-69.981793
-173.803899
-215.896514
-37.988708
111.324290
84.777791
58.036772
-18.679347
-157.358755
-147.705956
-36.067751
24.785948
51.923041
34.923887
-25.815696
-26.882969
20.401603
26.912167
32.059693
67.797720
60.658965
-11.002457
-72.910091
-58.132924
-9.292196
-10.551183
-5.876396
60.913883
97.327818
64.193146
-1.166739
-59.763804
-32.297290
55.074629
65.582191
-14.721313
-69.550969
-34.940546
-4.965154
-62.264878
-115.274188
-132.144987
-133.533030
-52.178819
0.362919
-52.510555
-58.037745
-36.309785
-35.693484
-15.309391
17.982416
121.959786
172.852085
68.423508
53.172456
136.408736
134.899352
124.490007
160.123294
206.509150
228.240383
98.449245
-120.025871
-170.120665
-131.590630
-218.975386
-258.140158
-184.610205
-226.937786
-206.320129
45.414307
191.340050
180.279580
223.310445
276.179500
300.297569
288.270815
234.394585
192.170576
133.018009
21.627183
-116.330960
-199.490766
-209.195212
-242.089540
-270.829292
-251.636629
-223.084595
-148.492735
-58.162813
-33.525713
-26.126252
23.582564
44.151357
-38.229202
-99.040327
-43.601841
-9.690471
-36.787563
-16.337305
20.871775
-1.965765
-28.307925
-7.719727
24.026212
67.712645
119.249055
129.272890
98.317208
80.920131
124.254699
178.811770
232.424533
286.012514
175.587505
28.036660
87.800629
124.651298
30.931571
-20.275396
-40.707630
-47.437940
-46.614261
-101.937697
-161.678966
-137.202251
-79.401945
-61.134652
-41.503620
-51.570451
-111.713617
-142.987965
-170.958290
-140.189155
-14.193694
25.003598
16.996520
87.147634
110.034294
108.860876
168.502804
144.282353
53.857064
8.808784
-55.517950
-137.499184
-193.005215
-142.144245
7.744128
26.854026
21.969311
155.435296
196.421838
174.839557
156.584210
17.175588
-11.489582
131.497797
192.853926
195.118497
137.127902
26.375811
-1.139544
-42.017582
-78.982789
11.705311
87.735959
78.834139
51.338891
40.298995
41.556602
17.498173
-46.344133
-186.285579
-270.957352
-187.385807
-151.904489
-133.049897
1.210765
5.086901
-70.611265
13.745839
53.014673
-37.522372
-49.212224
-46.897386
-133.430185
-139.763040
-34.058610
-21.394736
-93.387683
-39.988142
74.473399
88.463838
116.741863
152.021180
74.429490
56.010485
130.969172
114.624650
76.723787
104.730606
94.353760
10.764235
-36.853711
6.105613
0.002814
-89.102222
-92.611976
-33.491650
-24.561752
-21.611687
-30.983206
-73.219605
-42.088086
29.623392
-9.105582
-40.599231
38.092731
16.625010
-90.869818
-76.644178
-22.499760
-10.828589
2.006658
-17.911221
-37.725061
1.477141
5.228897
-91.241221
-167.894916
-121.020190
-34.407878
-40.897845
-91.461168
-50.982434
39.412251
81.745465
69.323360
35.556500
-0.947659
-74.711386
-126.775688
-113.562624
-108.405046
-71.252545
-10.160841
20.453753
71.364756
91.301361
28.576138
-52.551736
-75.733659
-46.678025
-44.018570
-37.911306
-16.244601
-21.830942
14.053443
88.434183
113.699963
76.837394
21.434701
7.489173
18.366368
-14.676656
-51.797338
-13.356380
42.808280
54.492076
59.315558
51.175684
24.040717
-3.725736
-77.756694
-191.748748
-238.160533
-221.483295
-242.347118
-246.503555
-246.243327
-270.806291
-114.263580
60.087702
17.663797
33.658814
136.345858
183.607986
216.191620
208.999326
193.538091
132.796170
52.768312
8.498344
-115.904001
-187.892272
-194.999931
-263.342835
-295.307352
-336.988718
-361.875724
-419.724637
-471.212629
-118.298919
264.024616
267.212920
326.675291
467.598708
506.146745
551.924027
554.850244
477.162230
355.065828
197.155659
64.309259
21.164790
11.743006
-59.824664
-142.259932
-211.374367
-295.284194
-330.362657
-265.972307
-138.881505
-54.856628
-0.528912
74.832141
71.689449
37.166722
84.963779
151.480982
199.941555
201.344818
126.709260
50.485518
-14.501226
-77.716722
-74.751928
-11.757348
43.817442
54.496143
54.403103
77.465812
110.699169
182.687696
194.401652
72.384273
8.683414
33.726853
52.755156
72.661835
82.009763
125.922979
155.155363
116.908012
96.902459
44.467355
-46.737882
-88.003088
-120.210053
-186.176642
-243.190431
-240.382983
-223.024226
-195.557011
-103.029628
-22.919451
28.420569
109.416136
184.488916
202.518437
134.295238
7.397107
-146.239481
-228.951331
-135.949340
-75.025969
-138.149583
-95.700873
12.842792
51.521287
68.970056
65.199618
56.974876
80.865227
99.078512
118.535833
169.287853
148.109106
-3.084068
-113.394983
-114.928215
-94.022286
-116.397608
-214.724076
-166.253917
109.380912
188.642872
-50.692104
-162.762578
20.507602
128.028872
29.043095
31.446776
148.998182
153.760176
127.873218
180.854729
138.167802
-1.002113
1.561018
69.771381
25.025401
-31.648915
-10.839545
46.371826
85.573794
95.035347
96.735765
112.202868
130.598282
55.951970
-51.857549
-43.222469
-40.021540
-78.275671
-33.718811
-3.890711
-69.975834
-136.935827
-104.005004
-70.109065
-177.068263
-193.464221
-102.499772
-161.787007
-160.536414
-83.364602
-104.268638
10.201788
149.884910
105.143606
68.224925
57.281354
-9.503525
-61.812846
3.727318
111.402426
106.272692
100.309937
182.839448
234.878756
52.051410
-229.881662
-157.020135
-45.286775
-156.612838
-16.933457
144.969992
82.300178
100.356118
76.265893
-45.476540
-121.266120
-104.005792
-22.598275
-45.592458
-55.690853
-61.409756
-158.368276
-33.730476
118.984272
6.465141
-61.633210
-27.744753
10.265783
28.357261
-45.262214
-97.696850
-105.031059
-61.571643
38.897599
-0.530662
-33.534174
89.573657
98.245209
57.056221
124.939034
168.153898
183.111089
102.364773
-31.036896
-15.754727
-76.831445
-163.807758
34.107016
162.518538
71.095636
27.468844
1.133229
-8.947630
-68.208211
-185.714238
-118.711905
-21.195990
-12.255338
78.037411
130.193384
97.865078
26.133283
-79.852150
-27.698749
77.757623
32.302770
-20.422944
-34.895218
-46.985798
-56.275254
-70.005455
-14.882127
24.918362
-20.060246
-36.622901
-25.593738
10.177255
71.646775
77.098705
50.858948
24.621295
9.592818
16.831660
-21.728044
-36.007201
9.642428
-36.271370
-52.288108
57.001604
70.996252
35.722101
64.386124
66.734863
68.730567
49.821523
-5.991951
-32.951570
-88.867214
-98.988053
17.410966
111.596673
146.779198
144.941796
49.070901
-59.495887
-61.375372
-29.756385
-57.134735
-72.337858
-49.844212
-48.324285
-51.576394
-69.918480
-82.236545
-23.606492
-5.028950
-43.542129
9.194129
73.282646
62.350531
28.839445
-32.424779
-36.159913
15.720646
6.926607
33.982807
116.858104
158.151855
171.883949
124.396229
24.733609
-36.037303
-60.106954
-99.536851
-127.281561
-53.835542
53.032030
52.950913
-18.888662
-75.383422
-88.453146
-73.550429
-45.211384
26.954595
110.535492
100.527577
6.393094
-32.471481
1.120053
-20.858749
-106.166918
-152.149451
-140.766085
-129.771523
-153.129963
-177.905682
-154.948650
-127.642988
-119.166891
-42.972585
38.947650
9.465124
-22.821331
5.170291
-2.720355
-41.674476
-37.261073
-12.376383
-26.110792
-56.564043
-52.451538
-17.923178
1.221088
-4.897842
1.881354
23.304443
28.488908
8.009916
0.205073
23.579667
21.619989
8.604039
44.296242
85.688423
50.770812
-57.166594
-115.881492
-56.361374
43.099034
65.422475
-3.454422
-4.728606
75.904575
81.487431
62.901261
75.370382
51.800824
45.231599
83.702717
85.010590
72.726659
112.713016
111.450054
25.887748
-22.684558
-23.362325
-28.918506
-16.754023
42.504477
130.565865
129.504203
19.308549
-61.688866
-73.531388
-46.042429
-11.468245
-21.134815
-53.711647
-62.200581
-51.397266
-53.589338
-99.022214
-151.943850
-164.570294
-189.274471
-189.919039
-71.937446
-9.146737
-75.112157
-49.962574
45.790978
84.924910
73.954452
0.792987
-32.503941
13.872797
31.306837
45.583444
68.650829
72.100518
85.566551
84.766741
65.748280
69.821741
100.517697
62.972673
-59.092634
-63.983194
11.305615
-43.170773
-108.062128
-56.550267
17.638292
64.022512
99.889128
120.300108
91.234911
17.199745
-18.751951
26.394780
71.677347
74.967119
67.299983
18.975268
-24.298256
-7.530539
-23.374501
-60.365659
-41.641994
-12.649252
-2.890543
-15.426273
-60.691984
-59.699036
30.966385
83.886174
47.141905
10.386649
-0.063143
10.783425
14.126036
-8.965174
-35.033558
-85.708402
-120.386838
-96.266431
-39.363672
15.952071
-18.748810
-78.092389
-38.877329
5.469815
-6.956265
-0.653079
67.666467
87.775849
0.563168
-20.423399
18.064786
-25.022870
-27.881030
69.097853
90.288079
19.538933
11.440675
50.934422
42.492014
19.451304
29.360813
54.224695
47.132700
21.980802
19.483157
7.640167
-15.292294
-23.825883
-13.858159
21.261475
43.665576
21.957278
-8.883142
6.469400
49.074521
46.011788
6.017971
-15.180649
3.466096
35.735508
20.670792
-27.752117
0.104838
74.092565
26.378763
-72.092191
-79.003461
-67.467893
-57.119781
-33.107388
1.169640
58.978597
40.128002
-23.598341
-22.623863
2.013704
40.985148
42.075589
-28.693896
-43.890006
14.049643
52.153699
60.926719
60.393906
36.260428
26.346500
58.493869
13.678686
-76.825394
-38.752901
13.132569
-18.972461
-21.100238
-26.050650
-22.295387
48.431102
57.388822
23.322935
37.283916
28.084706
0.885211
8.653604
41.686597
56.577623
38.779116
49.999058
73.374821
64.878406
39.065563
-13.513561
