EVENT_NAME: 202302060117
EVENT_ID: 13194
EVENT_DATE_YYYYMMDD: 2023/02/06
EVENT_TIME_HHMMSS: 01:17:32.00000
EVENT_LATITUDE_DEGREE: 37.288
EVENT_LONGITUDE_DEGREE: 37.043
EVENT_DEPTH_KM: 8.6
HYPOCENTER_REFERENCE: AFAD
MAGNITUDE_W: 7.7
MAGNITUDE_W_REFERENCE: AFAD
MAGNITUDE_L: 
MAGNITUDE_L_REFERENCE: 
FOCAL_MECHANISM: 
NETWORK: TK
STATION_CODE: 99008
STATION_NAME: 
STATION_LATITUDE_DEGREE: 35.16455
STATION_LONGITUDE_DEGREE: 33.90496
STATION_ELEVATION_M: 4.0
LOCATION: Kahramanmaras_Pazarck_Turkiye
SENSOR_DEPTH_M: 
VS30_M/S: 263
SITE_CLASSIFICATION_EC8: unknown
MORPHOLOGIC_CLASSIFICATION: 
EPICENTRAL_DISTANCE_KM: 367.36
EARTHQUAKE_BACKAZIMUTH_DEGREE: 
DATE_TIME_FIRST_SAMPLE_YYYYMMDD_HHMMSS: 2023/02/06 01:17:58.9230960
DATE_TIME_FIRST_SAMPLE_PRECISION: millisecond
SAMPLING_INTERVAL_S: 0.01
NDATA: 21001
DURATION_S: 
STREAM: HNN
UNITS: cm/s^2
INSTRUMENT: sensor = CMG-5T/GURALP | digitizer = 
INSTRUMENT_ANALOG/DIGITAL: 
INSTRUMENTAL_FREQUENCY_HZ: 
INSTRUMENTAL_DAMPING: 
FULL_SCALE_G: 
N_BIT_DIGITAL_CONVERTER: 
PGA_CM/S^2: 15.673
TIME_PGA_S: 
BASELINE_CORRECTION: BASELINE REMOVED
FILTER_TYPE: BUTTERWORTH
FILTER_ORDER: 
LOW_CUT_FREQUENCY_HZ: 
HIGH_CUT_FREQUENCY_HZ: 
LATE/NORMAL_TRIGGERED: 
DATABASE_VERSION: 
HEADER_FORMAT: DYNA 1.2
DATA_TYPE: Acceleration
PROCESSING: Automatic Paolucci et al., 2011
DATA_TIMESTAMP_YYYYMMDD_HHMMSS: 
DATA_LICENSE: U (unknown license)
DATA_CITATION: Turkish Accelerometric Archive v 1.0 - Disaster And Emergency Management Presidency, Earthquake Department
DATA_CREATOR: AFAD
ORIGINAL_DATA_MEDIATOR_CITATION: : AFAD - Disaster And Emergency Management Presidency
ORIGINAL_DATA_MEDIATOR: AFAD PROCESS SERVICE
ORIGINAL_DATA_CREATOR_CITATION: AFAD PROCESS SERVICE
ORIGINAL_DATA_CREATOR: network: TK
USER1: GuestUser
USER2: 
USER3: 
USER4: 
USER5: 
[...]
2.238283
2.386895
2.640323
2.984372
3.371315
3.786048
4.261194
4.657199
5.000643
5.229001
5.413256
5.650373
5.841878
6.022811
6.187130
6.331512
6.466228
6.558353
6.547473
6.422109
6.256571
6.078043
5.913411
5.735790
5.425561
5.108082
4.722941
4.322393
3.962626
3.575672
3.121961
2.714768
2.276463
1.866854
1.532459
1.241261
0.991445
0.744046
0.452244
0.195179
-0.017785
-0.122306
-0.141039
-0.148597
-0.102990
-0.026875
-0.042588
-0.067968
0.030803
0.211131
0.412604
0.586287
0.661798
0.686562
0.620404
0.458490
0.231329
-0.085243
-0.461624
-0.818372
-1.169682
-1.453631
-1.616149
-1.612832
-1.445190
-1.202334
-0.947395
-0.738370
-0.603351
-0.510320
-0.367146
-0.127612
0.243019
0.648085
0.988509
1.248282
1.389341
1.402022
1.250077
0.875810
0.376487
-0.188989
-0.694052
-1.193677
-1.618691
-2.044612
-2.504968
-2.990396
-3.475220
-3.861570
-4.199589
-4.504381
-4.768091
-5.029083
-5.286450
-5.480081
-5.622058
-5.635355
-5.454422
-5.072313
-4.550648
-3.959206
-3.347526
-2.795654
-2.340445
-1.988844
-1.726051
-1.467185
-1.144885
-0.765192
-0.269807
0.320427
0.962314
1.644981
2.225850
2.662332
2.949290
3.103339
3.225066
3.358876
3.527424
3.753063
3.935506
3.988664
3.984127
3.960862
4.005865
4.214285
4.539606
4.942860
5.252474
5.449114
5.547884
5.536702
5.536696
5.532764
5.450898
5.212863
4.756433
4.057142
3.219201
2.362834
1.562652
0.808989
0.137487
-0.535525
-1.216390
-1.788511
-2.339488
-2.850592
-3.398850
-3.920526
-4.239515
-4.391762
-4.412006
-4.354619
-4.321096
-4.249511
-4.125065
-3.962257
-3.755346
-3.607339
-3.513100
-3.442120
-3.455114
-3.511909
-3.635762
-3.826070
-4.047793
-4.242935
-4.284928
-4.172866
-3.966560
-3.748171
-3.556062
-3.328007
-2.996343
-2.522405
-1.865112
-1.105418
-0.345120
0.385877
1.089688
1.767824
2.394608
2.976384
3.434614
3.827900
4.089485
4.321467
4.445611
4.455271
4.389112
4.370681
4.378227
4.332609
4.209964
3.996698
3.719093
3.359627
2.921624
2.479391
2.051054
1.670745
1.346924
1.042132
0.816784
0.680848
0.545214
0.443109
0.273342
-0.020877
-0.371281
-0.813816
-1.261183
-1.647231
-1.940242
-2.138102
-2.222686
-2.283408
-2.310297
-2.376154
-2.414220
-2.427517
-2.408492
-2.348991
-2.227867
-2.019447
-1.643681
-1.125037
-0.510033
0.168706
1.005729
1.881417
2.803623
3.624032
4.291897
4.805406
5.150361
5.315284
5.425533
5.514335
5.682581
5.918490
6.119359
6.238972
6.273100
6.260105
6.169781
6.020252
5.856224
5.771639
5.777071
5.833854
5.917521
5.951648
5.936539
5.917201
5.788515
5.551084
5.315164
5.098274
4.983181
4.981967
5.025458
5.158664
5.306672
5.426285
5.486390
5.436241
5.236569
4.904894
4.462661
4.026168
3.681504
3.445885
3.312668
3.276716
3.294835
3.350711
3.383933
3.382719
3.311727
3.257048
3.300237
3.429517
3.573597
3.747582
3.908578
4.088000
4.335992
4.686686
5.074837
5.473258
5.779851
6.031165
6.246534
6.373396
6.453438
6.414466
6.324746
6.269160
6.244083
6.216589
6.177919
6.054367
5.879163
5.622400
5.298578
4.993182
4.735211
4.539767
4.398092
4.281790
4.182707
4.015658
3.780039
3.486424
3.157165
2.845728
2.490189
2.010198
1.419047
0.745431
0.036473
-0.736221
-1.574464
-2.464360
-3.435512
-4.388842
-5.363921
-6.345948
-7.324954
-8.326917
-9.300184
-10.229651
-11.049165
-11.773831
-12.293392
-12.622953
-12.780034
-12.828069
-12.872478
-12.869765
-12.722362
-12.408822
-11.890480
-11.203283
-10.445703
-9.567901
-8.687985
-7.890835
-7.165275
-6.488348
-5.804171
-5.051123
-4.300189
-3.577348
-2.911899
-2.306562
-1.768888
-1.332406
-0.963285
-0.587519
-0.200275
0.263997
0.789589
1.398551
2.019897
2.597444
3.064737
3.404255
3.647111
3.830158
3.931949
3.960338
3.883607
3.751900
3.570956
3.317516
3.029036
2.722130
2.419754
2.131879
1.786912
1.399958
0.957122
0.387417
-0.275627
-1.030499
-1.821015
-2.559273
-3.204797
-3.761211
-4.241201
-4.712432
-5.116906
-5.410823
-5.566998
-5.626813
-5.625610
-5.585743
-5.524127
-5.499061
-5.484568
-5.418421
-5.259539
-5.065013
-4.861426
-4.631860
-4.347016
-3.959470
-3.467408
-2.899225
-2.282711
-1.690363
-1.103452
-0.624983
-0.208437
0.169141
0.500805
0.811627
1.076232
1.271362
1.482199
1.744992
1.981203
2.246714
2.523100
2.816100
3.080101
3.309969
3.430488
3.497843
3.496327
3.451917
3.386061
3.271572
3.047734
2.777982
2.418214
2.019178
1.582383
1.051947
0.436328
-0.265683
-1.004243
-1.788718
-2.554162
-3.317492
-3.989900
-4.697045
-5.340454
-5.980541
-6.595555
-7.101826
-7.452532
-7.691171
-7.822878
-7.947033
-7.984193
-7.962450
-7.847368
-7.650728
-7.387633
-7.161391
-6.952970
-6.767506
-6.644570
-6.524655
-6.452165
-6.373331
-6.259457
-6.103596
-5.877354
-5.582240
-5.195297
-4.738879
-4.270680
-3.747203
-3.179927
-2.530790
-1.725484
-0.872753
-0.044792
0.672612
1.179777
1.485161
1.641325
1.784499
1.956671
2.207684
2.545993
2.904240
3.198145
3.434054
3.594144
3.740943
3.907679
4.178325
4.488543
4.786375
4.999327
5.125888
5.210461
5.313762
5.417668
5.502543
5.508578
5.425202
5.258153
5.016494
4.753991
4.563985
4.390895
4.212669
4.050756
3.836886
3.609122
3.428480
3.291637
3.176846
3.017349
2.805292
2.514999
2.133785
1.684001
1.178334
0.708916
0.312598
-0.044754
-0.319943
-0.519011
-0.660988
-0.736209
-0.763703
-0.660401
-0.423284
-0.075308
0.305895
0.695254
1.061354
1.358281
1.572743
1.736155
1.846102
1.920707
1.912848
1.859376
1.788384
1.688696
1.571489
1.402627
1.160666
0.947702
0.840765
0.802397
0.850420
1.008697
1.243398
1.593790
1.993419
2.400903
2.824395
3.221306
3.565657
3.843553
4.076442
4.226865
4.219912
4.079445
3.840806
3.448113
2.910427
2.221104
1.449920
0.623156
-0.243783
-1.139116
-2.036564
-2.868765
-3.596149
-4.273994
-4.835845
-5.262672
-5.514300
-5.573511
-5.559923
-5.459341
-5.237327
-4.976951
-4.673379
-4.383702
-4.079526
-3.709801
-3.298391
-2.861607
-2.443250
-2.062348
-1.640668
-1.232581
-0.887022
-0.591605
-0.382883
-0.279581
-0.270827
-0.335475
-0.392874
-0.438492
-0.438799
-0.394401
-0.333389
-0.257576
-0.159712
-0.033152
0.168926
0.482768
0.914417
1.455716
2.074042
2.726803
3.343015
3.867096
4.231384
4.470313
4.556397
4.501113
4.331043
4.025647
3.627819
3.157494
2.553354
1.878228
1.157187
0.412585
-0.332016
-1.040068
-1.696768
-2.255598
-2.701456
-2.997789
-3.141579
-3.183874
-3.162433
-3.022884
-2.781840
-2.493673
-2.229068
-1.992555
-1.793800
-1.615888
-1.422873
-1.214754
-0.982168
-0.700647
-0.381972
-0.061484
0.271992
0.659539
1.089677
1.536731
1.999493
2.353208
2.612074
2.821703
2.930744
3.046128
3.114993
3.132809
3.211039
3.298331
3.417340
3.568066
3.633608
3.685558
3.702770
3.594625
3.338164
2.966011
2.536466
2.166427
1.841397
1.549292
1.333610
1.063859
0.791992
0.468774
0.095111
-0.282478
-0.609623
-0.902332
-1.128284
-1.332185
-1.509807
-1.637889
-1.685621
-1.646962
-1.531276
-1.420423
-1.334340
-1.318638
-1.367277
-1.409270
-1.434649
-1.445831
-1.436473
-1.432250
-1.457629
-1.507174
-1.528929
-1.451605
-1.262517
-0.989453
-0.681350
-0.430338
-0.243364
-0.090524
-0.006253
0.029385
0.068346
0.112745
0.158653
0.152304
0.121789
0.052610
-0.023214
-0.123506
-0.301732
-0.563630
-0.904066
-1.270177
-1.675255
-2.103290
-2.559720
-3.042127
-3.543867
-4.055272
-4.529222
-4.983839
-5.474100
-5.977954
-6.485735
-6.998953
-7.513983
-8.016025
-8.494808
-8.933717
-9.320369
-9.700980
-10.078570
-10.425047
-10.722891
-10.974216
-11.200773
-11.375071
-11.418877
-11.313159
-11.070605
-10.752231
-10.400026
-9.971097
-9.491721
-8.911758
-8.235737
-7.487522
-6.679799
-5.814080
-4.980078
-4.154533
-3.432598
-2.766847
-2.162719
-1.647397
-1.179199
-0.810984
-0.509225
-0.205049
0.069525
0.357389
0.703855
1.074788
1.521238
1.980072
2.510799
3.148457
3.805146
4.497781
5.199175
5.814481
6.364842
6.876840
7.297010
7.659183
7.972119
8.190206
8.328849
8.358144
8.292590
8.141550
7.915598
7.685719
7.429863
7.122050
6.811821
6.488302
6.169011
5.957860
5.794738
5.706830
5.686586
5.669665
5.698053
5.797126
5.889553
6.040278
6.145996
6.199759
6.256844
6.266806
6.287945
6.324489
6.397886
6.525655
6.678495
6.819857
7.001696
7.190180
7.342114
7.453269
7.467461
7.456883
7.515176
7.581021
7.638710
7.626320
7.491290
7.282254
6.980483
6.588091
6.107194
5.547458
4.922475
4.281784
3.641094
3.058098
2.604689
2.259118
1.955535
1.635640
1.277684
0.923656
0.456654
-0.061095
-0.583073
-1.101729
-1.496536
-1.856909
-2.181939
-2.465586
-2.670091
-2.793642
-2.884268
-3.012955
-3.169431
-3.376353
-3.621940
-3.920388
-4.276229
-4.653215
-5.027784
-5.389062
-5.737956
-6.004083
-6.182308
-6.272330
-6.245452
-6.087174
-5.767291
-5.351954
-4.874693
-4.292313
-3.672174
-3.086169
-2.618575
-2.340981
-2.172735
-1.996937
-1.821744
-1.621177
-1.400674
-1.212189
-1.059349
-0.984140
-0.929471
-0.833722
-0.682392
-0.501459
-0.297267
-0.085826
0.136188
0.428885
0.752092
1.122723
1.548934
2.005654
2.400752
2.727281
3.006990
3.264648
3.536201
3.831315
4.085650
4.198013
4.161457
4.040020
3.805006
3.466081
3.090606
2.703350
2.330291
1.897724
1.367591
0.796073
0.267450
-0.130983
-0.367205
-0.478372
-0.505865
-0.455426
-0.391998
-0.334610
-0.240371
-0.127102
0.013052
0.088865
0.088557
0.012431
-0.136796
-0.329521
-0.503518
-0.677816
-0.821304
-0.991676
-1.149058
-1.308556
-1.394953
-1.392240
-1.328207
-1.211917
-1.038536
-0.808064
-0.545272
-0.267979
0.040728
0.369069
0.745439
1.117883
1.425986
1.716569
2.011079
2.330358
2.624868
2.882526
3.024190
3.013612
2.922381
2.761072
2.606106
2.426068
2.313089
2.229712
2.133347
2.114915
2.108264
2.138767
2.149938
2.092237
2.019131
1.948140
1.903730
1.878049
1.782288
1.725191
1.675042
1.660537
1.628513
1.552386
1.431553
1.317366
1.170858
0.987497
0.765170
0.594194
0.473059
0.346185
0.243477
0.151038
0.136231
0.171265
0.248589
0.356119
0.407465
0.418636
0.325895
0.149180
-0.132957
-0.491516
-0.928915
-1.367221
-1.865940
-2.405136
-2.960341
-3.563878
-4.123010
-4.630489
-5.081179
-5.483841
-5.852368
-6.177097
-6.478263
-6.759494
-7.037099
-7.321955
-7.541261
-7.770536
-7.965073
-8.152059
-8.291015
-8.366840
-8.346003
-8.235754
-8.019178
-7.774207
-7.467614
-7.129002
-6.733602
-6.217677
-5.596330
-4.879228
-4.047642
-3.208202
-2.349129
-1.558020
-0.906164
-0.278776
0.344685
0.921326
1.436647
1.844130
2.106923
2.257045
2.312922
2.328019
2.328014
2.341299
2.369989
2.349745
2.258515
2.073342
1.744687
1.317558
0.811288
0.265446
-0.246866
-0.696348
-1.059740
-1.357282
-1.650294
-1.993146
-2.370131
-2.748628
-3.133769
-3.483267
-3.864482
-4.236332
-4.631140
-5.064310
-5.509261
-5.993481
-6.450817
-6.848041
-7.178810
-7.429230
-7.666358
-7.903487
-8.109201
-8.259938
-8.339991
-8.333654
-8.217666
-7.960310
-7.602366
-7.123293
-6.512518
-5.785448
-4.951446
-4.038604
-3.106732
-2.173047
-1.275309
-0.384820
0.448578
1.229718
1.940477
2.598676
3.173505
3.665265
4.134067
4.502282
4.849049
5.156246
5.403029
5.555568
5.642255
5.640437
5.685439
5.759742
5.825285
5.887505
5.888104
5.856079
5.818617
5.760312
5.668478
5.574831
5.377576
5.168539
4.886101
4.570737
4.281652
4.028816
3.845456
3.776579
3.761772
3.784119
3.820663
3.830928
3.862639
3.916099
3.955967
4.040238
4.106083
4.131451
4.121175
4.081296
4.030543
4.016642
4.009085
3.995788
4.021760
4.088813
4.261892
4.481791
4.722231
5.023689
5.403382
5.836239
6.313801
6.710108
7.048418
7.337792
7.581857
7.774570
7.896600
7.899011
7.822582
7.642242
7.338357
6.909113
6.389249
5.844918
5.318711
4.799754
4.221591
3.580901
2.890671
2.150298
1.376698
0.559902
-0.265351
-1.070669
-1.907401
-2.749873
-3.601406
-4.412161
-5.184250
-6.003463
-6.793979
-7.514415
-8.191354
-8.739310
-9.170668
-9.557622
-9.802906
-9.968445
-10.091392
-10.206787
-10.314027
-10.390758
-10.483498
-10.589832
-10.685291
-10.789812
-10.878021
-10.942971
-10.954455
-10.878340
-10.727614
-10.487476
-10.186019
-9.861604
-9.535679
-9.199182
-8.868122
-8.512897
-8.135318
-7.753813
-7.436346
-7.072058
-6.726197
-6.357982
-6.026016
-5.731204
-5.441829
-5.098082
-4.734097
-4.417838
-4.142661
-3.931823
-3.743943
-3.527366
-3.256116
-2.829602
-2.269877
-1.644906
-0.993654
-0.383182
0.193761
0.791849
1.436153
2.081061
2.706939
3.248842
3.701031
4.104889
4.440480
4.737709
5.045208
5.334884
5.625165
5.833586
5.970115
6.044116
6.086399
6.047427
5.956197
5.780690
5.520906
5.198595
4.824630
4.412906
4.031389
3.613020
3.138165
2.612562
2.049805
1.560450
1.203703
0.974428
0.900416
0.938168
1.000388
1.095534
1.280998
1.563425
1.947649
2.381714
2.842361
3.318715
3.809871
4.313110
4.800036
5.259475
5.706529
6.127605
6.512131
6.858899
7.121692
7.327394
7.482953
7.595920
7.669619
7.776545
7.871691
7.990397
8.109406
8.204250
8.262845
8.217529
8.065886
7.864099
7.636032
7.403737
7.142443
6.842786
6.486945
6.053171
5.577711
5.056337
4.482706
3.881586
3.216428
2.511699
1.766795
1.003163
0.220501
-0.582400
-1.387113
-2.198170
-3.004695
-3.802461
-4.595393
-5.426990
-6.291815
-7.154827
-7.968904
-8.688434
-9.362654
-9.999116
-10.586945
-11.159972
-11.675305
-12.156202
-12.601757
-13.053957
-13.514012
-14.011220
-14.430193
-14.852187
-15.184165
-15.419179
-15.593478
-15.673229
-15.645747
-15.486563
-15.253977
-14.903887
-14.417262
-13.771145
-12.999671
-12.131535
-11.180633
-10.153912
-9.105442
-8.083554
-7.127818
-6.207425
-5.343518
-4.494110
-3.645609
-2.792576
-1.948908
-1.124270
-0.361253
0.277009
0.836432
1.317318
1.874928
2.497181
3.166557
3.867347
4.555149
5.194620
5.725951
6.182369
6.592268
6.997033
7.337155
7.614145
7.750674
7.715930
7.605368
7.364614
7.023877
6.604602
6.158140
5.683889
5.133516
4.510346
3.854854
3.199060
2.527861
1.865421
1.195732
0.536918
-0.084139
-0.631490
-1.113596
-1.508705
-1.829809
-2.066635
-2.178708
-2.139445
-1.979053
-1.729551
-1.416313
-1.064108
-0.670822
-0.255183
0.204256
0.713535
1.235804
1.810935
2.398752
2.959383
3.531795
4.113571
4.693837
5.230907
5.653795
6.018083
6.339779
6.583844
6.803139
6.980749
7.118184
7.209704
7.251988
7.286720
7.305442
7.318426
7.323555
7.247428
7.092462
6.859864
6.579540
6.307372
6.094409
5.916183
5.817401
5.776315
5.784767
5.801677
5.822816
5.786260
5.690197
5.552448
5.323173
5.054328
4.786690
4.514522
4.281320
4.033015
3.717651
3.409537
2.995699
2.568570
2.124525
1.611307
1.069392
0.513281
0.007614
-0.359403
-0.663591
-0.898907
-1.122745
-1.348999
-1.535984
-1.718439
-1.894248
-2.002998
-2.107217
-2.250402
-2.404160
-2.578157
-2.762726
-2.914671
-3.048191
-3.156336
-3.203163
-3.252405
-3.311616
-3.366598
-3.457224
-3.552683
-3.641195
-3.729706
-3.769585
-3.791037
-3.832728
-3.917313
-4.043583
-4.195528
-4.335089
-4.470421
-4.576150
-4.664360
-4.746528
-4.767074
-4.737779
-4.671330
-4.479523
-4.240594
-3.986561
-3.714706
-3.444361
-3.135352
-2.803084
-2.445442
-2.103809
-1.735897
-1.349256
-0.933617
-0.510427
-0.109589
0.280072
0.667317
1.007439
1.308594
1.533327
1.670762
1.756845
1.830544
1.960125
2.180024
2.474836
2.819489
3.181662
3.560751
4.008711
4.486576
4.962629
5.422067
5.843143
6.232805
6.599207
6.922413
7.218131
7.463404
7.647055
7.720452
7.704135
7.615623
7.487541
7.292098
7.058896
6.761958
6.455052
6.197987
6.002846
5.866607
5.838509
5.851191
5.901026
5.935758
6.010061
6.111550
6.211528
6.295799
6.305158
6.215740
6.113333
5.948399
5.729999
5.458736
5.062418
4.568532
3.944456
3.238216
2.463710
1.681652
0.865762
0.026613
-0.877178
-1.783386
-2.675396
-3.511524
-4.324091
-5.056912
-5.720560
-6.353095
-6.955725
-7.498546
-7.966454
-8.302660
-8.602619
-8.889589
-9.148466
-9.446008
-9.790673
-10.188803
-10.706552
-11.268101
-11.869221
-12.475476
-13.016182
-13.510068
-13.892793
-14.197887
-14.439244
-14.600856
-14.741927
-14.842521
-14.871828
-14.863375
-14.757658
-14.521447
-14.159878
-13.666003
-13.048583
-12.331481
-11.520436
-10.657435
-9.766343
-8.905758
-8.091088
-7.313573
-6.597679
-5.977842
-5.441074
-4.965324
-4.491084
-4.028323
-3.578248
-3.111560
-2.604394
-2.054335
-1.504881
-0.984726
-0.415637
0.219001
0.923416
1.683110
2.479353
3.316376
4.212302
5.114270
5.979687
6.778045
7.519313
8.183553
8.767444
9.237455
9.611710
9.928875
10.133369
10.211599
10.167491
10.046659
9.881120
9.664230
9.345845
8.975203
8.553813
8.120039
7.721606
7.329819
6.974884
6.606961
6.171374
5.703466
5.173634
4.598794
4.020027
3.396555
2.737740
2.023647
1.217424
0.398513
-0.470540
-1.320866
-2.094466
-2.790435
-3.375243
-3.864296
-4.295653
-4.658140
-4.969275
-5.246881
-5.473135
-5.639580
-5.787296
-5.905410
-5.973079
-5.967346
-5.849545
-5.647166
-5.365645
-5.006190
-4.624987
-4.237742
-3.873757
-3.558706
-3.273863
-3.025569
-2.801441
-2.606311
-2.433836
-2.265288
-2.109125
-1.929401
-1.747260
-1.541558
-1.352167
-1.166100
-1.023529
-0.919926
-0.803032
-0.723896
-0.670134
-0.588279
-0.482863
-0.346637
-0.210712
-0.127347
-0.046701
-0.001699
0.000410
-0.074810
-0.252734
-0.489560
-0.743303
-0.998555
-1.221487
-1.406358
-1.551658
-1.664637
-1.757981
-1.849211
-1.912953
-1.943166
-1.960389
-1.982748
-1.994232
-1.961312
-1.861032
-1.700338
-1.484667
-1.197407
-0.867857
-0.500549
-0.093368
0.324990
0.799532
1.278001
1.774594
2.238261
2.622787
2.972575
3.268596
3.479131
3.613545
3.645559
3.581213
3.400269
3.082790
2.710637
2.298310
1.873899
1.453718
1.037463
0.601272
0.234859
-0.161459
-0.562308
-0.952585
-1.356455
-1.738274
-2.134290
-2.509463
-2.833285
-3.130223
-3.343186
-3.512047
-3.666712
-3.754619
-3.815038
-3.839511
-3.828038
-3.764308
-3.652549
-3.519947
-3.352909
-3.131500
-2.877769
-2.531907
-2.073375
-1.509421
-0.859378
-0.116298
0.649437
1.371675
2.063705
2.730362
3.352011
3.947682
4.461191
4.884381
5.277063
5.641955
6.015606
6.386842
6.708840
6.965591
7.141993
7.248013
7.329565
7.431356
7.578457
7.737943
7.881721
8.020062
8.139675
8.189511
8.227868
8.268943
8.343246
8.472223
8.641677
8.858254
9.103225
9.348800
9.559939
9.705228
9.778624
9.799763
9.786164
9.764712
9.703689
9.625750
9.536030
9.471382
9.403411
9.346616
9.264146
9.090754
8.813450
8.438579
7.981848
7.523001
7.014918
6.484482
5.909643
5.347187
4.784732
4.211403
3.587326
2.913710
2.204752
1.484618
0.755120
0.028944
-0.688170
-1.411929
-2.123605
-2.811720
-3.467212
-4.055947
-4.569467
-5.032844
-5.407414
-5.749964
-6.053849
-6.376765
-6.737137
-7.110498
-7.456975
-7.772339
-8.064142
-8.349903
-8.576157
-8.766768
-8.895152
-8.998767
-9.081539
-9.160082
-9.230470
-9.291493
-9.343756
-9.358563
-9.313259
-9.226873
-9.071616
-8.828458
-8.523980
-8.196544
-7.881192
-7.628669
-7.395479
-7.183736
-7.007334
-6.885909
-6.819762
-6.817049
-6.870520
-6.962052
-7.047241
-7.053288
-6.994391
-6.837322
-6.585705
-6.325631
-6.039277
-5.730268
-5.356314
-4.848544
-4.213000
-3.467202
-2.663406
-1.835446
-0.976070
-0.103101
