EVENT_NAME: 202302060117
EVENT_ID: 13194
EVENT_DATE_YYYYMMDD: 2023/02/06
EVENT_TIME_HHMMSS: 01:17:32.00000
EVENT_LATITUDE_DEGREE: 37.288
EVENT_LONGITUDE_DEGREE: 37.043
EVENT_DEPTH_KM: 8.6
HYPOCENTER_REFERENCE: AFAD
MAGNITUDE_W: 7.7
MAGNITUDE_W_REFERENCE: AFAD
MAGNITUDE_L: 
MAGNITUDE_L_REFERENCE: 
FOCAL_MECHANISM: 
NETWORK: TK
STATION_CODE: 5815
STATION_NAME: 
STATION_LATITUDE_DEGREE: 39.85441
STATION_LONGITUDE_DEGREE: 37.39274
STATION_ELEVATION_M: 1285.0
LOCATION: Kahramanmaras_Pazarck_Turkiye
SENSOR_DEPTH_M: 
VS30_M/S: None
SITE_CLASSIFICATION_EC8: unknown
MORPHOLOGIC_CLASSIFICATION: 
EPICENTRAL_DISTANCE_KM: 286.99
EARTHQUAKE_BACKAZIMUTH_DEGREE: 
DATE_TIME_FIRST_SAMPLE_YYYYMMDD_HHMMSS: 2023/02/06 01:17:58.9650260
DATE_TIME_FIRST_SAMPLE_PRECISION: millisecond
SAMPLING_INTERVAL_S: 0.01
NDATA: 18251
DURATION_S: 
STREAM: HNE
UNITS: cm/s^2
INSTRUMENT: sensor = ACEBOX/SARA | digitizer = 
INSTRUMENT_ANALOG/DIGITAL: 
INSTRUMENTAL_FREQUENCY_HZ: 
INSTRUMENTAL_DAMPING: 
FULL_SCALE_G: 
N_BIT_DIGITAL_CONVERTER: 
PGA_CM/S^2: 11.504
TIME_PGA_S: 
BASELINE_CORRECTION: BASELINE REMOVED
FILTER_TYPE: BUTTERWORTH
FILTER_ORDER: 
LOW_CUT_FREQUENCY_HZ: 
HIGH_CUT_FREQUENCY_HZ: 
LATE/NORMAL_TRIGGERED: 
DATABASE_VERSION: 
HEADER_FORMAT: DYNA 1.2
DATA_TYPE: Acceleration
PROCESSING: Automatic Paolucci et al., 2011
DATA_TIMESTAMP_YYYYMMDD_HHMMSS: 
DATA_LICENSE: U (unknown license)
DATA_CITATION: Turkish Accelerometric Archive v 1.0 - Disaster And Emergency Management Presidency, Earthquake Department
DATA_CREATOR: AFAD
ORIGINAL_DATA_MEDIATOR_CITATION: : AFAD - Disaster And Emergency Management Presidency
ORIGINAL_DATA_MEDIATOR: AFAD PROCESS SERVICE
ORIGINAL_DATA_CREATOR_CITATION: AFAD PROCESS SERVICE
ORIGINAL_DATA_CREATOR: network: TK
USER1: GuestUser
USER2: 
USER3: 
USER4: 
USER5: 
[...]
-3.127260
-3.171914
-3.196930
-3.233635
-3.299566
-3.347727
-3.327386
-3.224047
-3.032099
-2.781701
-2.522186
-2.293999
-2.161903
-2.129170
-2.159096
-2.274123
-2.469110
-2.705244
-2.928052
-3.041209
-3.028116
-2.915425
-2.658481
-2.265935
-1.832007
-1.413275
-1.036393
-0.764019
-0.616024
-0.526479
-0.432960
-0.329153
-0.229321
-0.130190
-0.029891
0.051472
0.134470
0.245291
0.350734
0.408716
0.393988
0.327824
0.250671
0.152711
0.044464
-0.041105
-0.122934
-0.208035
-0.285422
-0.365613
-0.434583
-0.476432
-0.491161
-0.478535
-0.441360
-0.356959
-0.257828
-0.215276
-0.220653
-0.287051
-0.442993
-0.683803
-0.976517
-1.247721
-1.519159
-1.787791
-2.035850
-2.331836
-2.572413
-2.817666
-3.256035
-3.647645
-3.897573
-4.158724
-4.320277
-4.353008
-4.346695
-4.317470
-4.325184
-4.381996
-4.461721
-4.537003
-4.552199
-4.548691
-4.572772
-4.615322
-4.711178
-4.818958
-4.878108
-4.922061
-4.933049
-4.912007
-4.876937
-4.760739
-4.572765
-4.338499
-4.051162
-3.774579
-3.527688
-3.304411
-3.119477
-2.938985
-2.743764
-2.530774
-2.293469
-2.082115
-1.954929
-1.904896
-1.896478
-1.913779
-1.955394
-2.017817
-2.109699
-2.238988
-2.375525
-2.500138
-2.617270
-2.707749
-2.753339
-2.755208
-2.732997
-2.714760
-2.682729
-2.634099
-2.594119
-2.554372
-2.510885
-2.463658
-2.427652
-2.439809
-2.493348
-2.582658
-2.741405
-2.973098
-3.251316
-3.545432
-3.797933
-3.925585
-3.876955
-3.643624
-3.276562
-2.867650
-2.437696
-1.944851
-1.367605
-0.691696
0.069548
0.882696
1.734888
2.606952
3.454936
4.238391
4.945862
5.596754
6.211174
6.777432
7.268641
7.685969
8.024041
8.256202
8.388766
8.455399
8.503094
8.565285
8.626540
8.677743
8.747649
8.840701
8.937727
9.005529
8.994775
8.896347
8.728248
8.465226
8.118272
7.768979
7.468551
7.225402
7.009140
6.778149
6.572642
6.454809
6.430729
6.477255
6.561423
6.663125
6.766230
6.858113
6.942047
7.011953
7.075781
7.130490
7.115528
7.003539
6.845259
6.716438
6.660561
6.668744
6.710595
6.767642
6.867474
7.033938
7.253241
7.539643
7.896886
8.273300
8.640830
8.977265
9.225559
9.364201
9.403246
9.343862
9.204753
8.991063
8.696947
8.369164
8.045823
7.742589
7.500142
7.314975
7.132614
6.910974
6.630185
6.312221
5.975320
5.600076
5.166616
4.649224
4.040884
3.380173
2.706838
2.047998
1.401082
0.750425
0.097663
-0.567255
-1.241292
-1.892183
-2.506836
-3.079638
-3.600304
-4.040777
-4.344713
-4.474704
-4.442673
-4.268493
-3.983260
-3.650566
-3.322548
-3.028664
-2.778500
-2.555924
-2.376134
-2.274899
-2.253155
-2.284717
-2.290093
-2.192132
-1.989429
-1.713547
-1.403064
-1.087905
-0.797060
-0.548299
-0.318008
-0.090289
0.159641
0.442770
0.689427
0.870153
1.010198
1.109796
1.148374
1.099511
0.983782
0.838594
0.664416
0.453765
0.204071
-0.053573
-0.328752
-0.674538
-1.075265
-1.493294
-1.867603
-2.140911
-2.325610
-2.415856
-2.385929
-2.234895
-1.975146
-1.639412
-1.252243
-0.838188
-0.426938
-0.039301
0.298303
0.578627
0.797929
0.934701
0.995723
1.010219
0.999699
0.964162
0.894491
0.776892
0.605987
0.393232
0.125067
-0.197339
-0.536578
-0.880727
-1.163153
-1.283090
-1.296416
-1.259475
-1.120833
-0.951563
-0.774344
-0.502905
-0.207384
0.124608
0.512479
0.804492
1.095570
1.503314
1.877857
2.194420
2.547220
2.953327
3.370422
3.735380
4.055449
4.350502
4.616798
4.873040
5.107773
5.282888
5.371030
5.357471
5.237300
5.032962
4.799399
4.560459
4.292294
4.004724
3.753626
3.547418
3.353601
3.170772
2.982332
2.745963
2.498607
2.305491
2.143938
1.992905
1.922533
1.956668
2.006234
2.014183
2.017925
2.058840
2.148385
2.299185
2.505629
2.758130
3.070952
3.414401
3.748498
4.080724
4.400793
4.678311
4.871662
4.952791
4.975937
4.997213
5.030881
5.107100
5.235455
5.414310
5.647173
5.886582
6.077595
6.186078
6.199171
6.157322
6.066610
5.912070
5.708200
5.445880
5.144516
4.821876
4.470246
4.140592
3.808367
3.406938
2.988675
2.562931
2.065879
1.524873
1.030860
0.610960
0.246705
-0.016550
-0.182078
-0.343397
-0.524122
-0.722148
-0.928356
-1.116095
-1.281622
-1.409509
-1.534590
-1.671594
-1.806728
-1.967346
-2.129367
-2.310559
-2.477022
-2.590413
-2.755006
-2.872372
-2.953265
-3.197816
-3.435821
-3.583580
-3.777397
-3.980333
-4.188412
-4.373578
-4.449562
-4.440677
-4.356042
-4.184901
-3.957416
-3.718942
-3.494262
-3.279869
-3.061035
-2.815313
-2.559304
-2.319661
-2.071836
-1.827283
-1.650064
-1.544621
-1.485002
-1.447594
-1.395924
-1.345657
-1.313392
-1.299130
-1.357344
-1.468398
-1.575476
-1.700089
-1.823300
-1.926871
-2.045640
-2.163005
-2.264472
-2.361030
-2.402178
-2.326894
-2.165574
-1.989757
-1.814876
-1.634618
-1.462075
-1.283921
-1.093375
-0.892075
-0.653835
-0.390579
-0.144623
0.073510
0.270368
0.465823
0.648654
0.813014
1.010573
1.265179
1.572389
1.928463
2.285005
2.613023
2.932858
3.230950
3.472464
3.637993
3.711406
3.691066
3.615550
3.533020
3.475975
3.457271
3.475041
3.507773
3.512917
3.476679
3.424543
3.348326
3.225116
3.060757
2.853145
2.599476
2.326168
2.059406
1.812750
1.599762
1.423947
1.261926
1.070680
0.809530
0.477304
0.110711
-0.262429
-0.618735
-0.923139
-1.161144
-1.335322
-1.435386
-1.440295
-1.381144
-1.328071
-1.301885
-1.291598
-1.295805
-1.318015
-1.369216
-1.448005
-1.541290
-1.622884
-1.681801
-1.729495
-1.718739
-1.613764
-1.449637
-1.244129
-1.031139
-0.853686
-0.708263
-0.604223
-0.548345
-0.543201
-0.576867
-0.596739
-0.608896
-0.638821
-0.657290
-0.636715
-0.570784
-0.433077
-0.160468
0.227869
0.649640
1.119106
1.596754
1.980183
2.309136
2.619620
2.897371
3.195931
3.530496
3.850799
4.133928
4.381052
4.611811
4.857065
5.114242
5.355989
5.540690
5.620883
5.595166
5.505155
5.399713
5.310871
5.244473
5.195376
5.141370
5.042942
4.881388
4.635668
4.304846
3.936148
3.566281
3.219795
2.921002
2.686738
2.549967
2.538512
2.649333
2.856945
3.132359
3.428113
3.663782
3.799852
3.831649
3.732520
3.506673
3.185670
2.792657
2.365744
1.948884
1.600994
1.372341
1.271809
1.294956
1.402269
1.546523
1.716494
1.898155
2.076310
2.250255
2.436359
2.679742
3.022957
3.478629
4.024079
4.600390
5.175064
5.730801
6.221074
6.609412
6.883189
7.053395
7.145044
7.172165
7.162580
7.140370
7.098287
7.026746
6.902132
6.708783
6.460958
6.169180
5.818719
5.382220
4.856177
4.254851
3.606064
2.987671
2.438482
1.944703
1.522232
1.149326
0.789512
0.459859
0.149844
-0.151987
-0.409865
-0.609293
-0.765703
-0.882601
-0.947596
-0.932398
-0.804745
-0.589417
-0.341123
-0.073191
0.198015
0.453556
0.709564
0.980770
1.286110
1.629325
1.984931
2.317625
2.595611
2.831747
3.054323
3.287887
3.561898
3.847365
4.105244
4.320338
4.462020
4.546655
4.607443
4.636201
4.627083
4.572376
4.469973
4.341385
4.193860
4.039554
3.917747
3.832177
3.764845
3.712241
3.652857
3.566119
3.449689
3.283459
3.063457
2.841350
2.662262
2.531102
2.444131
2.401346
2.412335
2.492529
2.629067
2.778230
2.890220
2.915704
2.821251
2.618549
2.370725
2.127810
1.927447
1.802600
1.723577
1.643385
1.539112
1.381767
1.199640
1.037151
0.886353
0.726670
0.523501
0.276378
0.022475
-0.237040
-0.503568
-0.770564
-1.061173
-1.381475
-1.701309
-2.008751
-2.334664
-2.698686
-3.072761
-3.453616
-3.880763
-4.373607
-4.934953
-5.545631
-6.156075
-6.703861
-7.129839
-7.450375
-7.667104
-7.780963
-7.897393
-8.018733
-8.158309
-8.356101
-8.477441
-8.609770
-8.840293
-8.951580
-8.996702
-9.092091
-9.161528
-9.231667
-9.295960
-9.341316
-9.378723
-9.359083
-9.267668
-9.063796
-8.735778
-8.311903
-7.792638
-7.232226
-6.683035
-6.201412
-5.804891
-5.423100
-5.057908
-4.707679
-4.307417
-3.866942
-3.420623
-2.975005
-2.509981
-2.011291
-1.533175
-1.098779
-0.683320
-0.299191
0.026489
0.285537
0.500398
0.686034
0.856472
1.019897
1.134692
1.162749
1.075777
0.845487
0.505547
0.090323
-0.377504
-0.861230
-1.375350
-1.938800
-2.519084
-3.075054
-3.583328
-4.026373
-4.401150
-4.730102
-5.024218
-5.304307
-5.588136
-5.835493
-6.032349
-6.202319
-6.339791
-6.436115
-6.470950
-6.459260
-6.446634
-6.385378
-6.234579
-6.052450
-5.879673
-5.728873
-5.605895
-5.502556
-5.449483
-5.478941
-5.569186
-5.692630
-5.817010
-5.900241
-5.950273
-5.990485
-5.976457
-5.879664
-5.738216
-5.595132
-5.493429
-5.460931
-5.476361
-5.494596
-5.509558
-5.549069
-5.576891
-5.553744
-5.527558
-5.524986
-5.539480
-5.587876
-5.647493
-5.710150
-5.839206
-6.029282
-6.220294
-6.424866
-6.633412
-6.787017
-6.866039
-6.871416
-6.819512
-6.689520
-6.430239
-6.080243
-5.680917
-5.211218
-4.685173
-4.162402
-3.697378
-3.323536
-3.087868
-3.017026
-3.078514
-3.226507
-3.410505
-3.595204
-3.754653
-3.844431
-3.866173
-3.844897
-3.787850
-3.722386
-3.683341
-3.693394
-3.736412
-3.756050
-3.719577
-3.617173
-3.442058
-3.227432
-3.027067
-2.851718
-2.699515
-2.592436
-2.533050
-2.515281
-2.575366
-2.720320
-2.916943
-3.147466
-3.376119
-3.569235
-3.717228
-3.808876
-3.865688
-3.900523
-3.874337
-3.786663
-3.668361
-3.514521
-3.321872
-3.110518
-2.893320
-2.667939
-2.439986
-2.250375
-2.152648
-2.146802
-2.198237
-2.297366
-2.414498
-2.498898
-2.545657
-2.560853
-2.535836
-2.471073
-2.351836
-2.151237
-1.862965
-1.499643
-1.073664
-0.613082
-0.181258
0.207547
0.578350
0.897718
1.133620
1.283251
1.328375
1.269225
1.108840
0.860782
0.598930
0.375888
0.191189
0.056522
0.006257
0.060264
0.194698
0.370047
0.552410
0.701105
0.792988
0.846061
0.889548
0.942153
1.030061
1.139947
1.207281
1.198631
1.080798
0.848404
0.588422
0.358834
0.171797
0.071499
0.072902
0.151459
0.314650
0.567152
0.849346
1.093664
1.273923
1.393861
1.487849
1.572250
1.623219
1.660627
1.724220
1.816805
1.938614
2.094557
2.258450
2.408081
2.567999
2.742646
2.908175
3.088901
3.320595
3.624532
4.007960
4.430666
4.842618
5.227682
5.592173
5.928842
6.198177
6.373993
6.430339
6.333080
6.089931
5.724741
5.251770
4.689722
4.066886
3.419502
2.787315
2.197212
1.638437
1.105847
0.624927
0.185389
-0.226795
-0.619106
-1.022873
-1.407937
-1.733382
-2.015107
-2.228563
-2.350371
-2.426588
-2.503974
-2.607780
-2.754370
-2.936731
-3.139666
-3.357097
-3.571021
-3.749174
-3.862565
-3.891321
-3.824688
-3.661263
-3.432141
-3.174964
-2.878976
-2.553997
-2.247488
-1.952201
-1.659954
-1.401841
-1.185111
-1.009294
-0.874626
-0.789991
-0.781106
-0.810096
-0.806121
-0.765907
-0.714237
-0.660230
-0.618379
-0.616976
-0.678698
-0.793258
-0.951538
-1.165228
-1.416793
-1.676775
-1.943069
-2.210533
-2.463501
-2.723482
-3.042147
-3.432354
-3.888960
-4.411028
-4.955074
-5.459608
-5.907563
-6.306654
-6.651037
-6.929722
-7.152530
-7.326942
-7.442438
-7.486858
-7.495041
-7.522394
-7.569621
-7.637655
-7.750578
-7.890389
-8.042824
-8.203909
-8.355643
-8.509715
-8.680620
-8.857604
-9.041134
-9.230743
-9.443732
-9.717040
-10.035237
-10.337069
-10.568294
-10.687997
-10.672098
-10.515687
-10.253600
-9.927218
-9.537945
-9.079468
-8.544539
-7.931990
-7.271044
-6.610566
-5.990535
-5.403703
-4.842355
-4.353952
-3.947846
-3.597149
-3.314955
-3.115292
-2.986235
-2.890611
-2.787038
-2.661722
-2.488478
-2.252810
-1.985345
-1.707359
-1.453922
-1.251453
-1.079612
-0.972999
-0.983987
-1.069089
-1.166348
-1.263840
-1.349410
-1.386583
-1.378867
-1.371852
-1.368812
-1.346834
-1.284644
-1.165173
-1.021153
-0.900045
-0.796238
-0.692666
-0.595873
-0.489494
-0.331914
-0.124068
0.109730
0.349373
0.548101
0.675755
0.731166
0.693759
0.560495
0.364340
0.152988
-0.017917
-0.146973
-0.252181
-0.287250
-0.226696
-0.091326
0.093374
0.270593
0.400351
0.472362
0.479610
0.444775
0.380014
0.274806
0.127514
-0.056951
-0.222012
-0.315764
-0.374446
-0.424712
-0.424711
-0.319735
-0.085938
0.256109
0.662683
1.090299
1.501081
1.876092
2.219775
2.535168
2.823207
3.085295
3.316755
3.521094
3.699950
3.848412
3.983781
4.118449
4.248441
4.361833
4.430804
4.446469
4.424727
4.381475
4.328637
4.244938
4.085957
3.822936
3.457044
3.043691
2.643197
2.247846
1.836598
1.407814
0.953313
0.486187
0.038232
-0.359457
-0.679291
-0.930856
-1.109009
-1.165821
-1.084926
-0.909344
-0.698692
-0.478688
-0.255879
-0.068373
0.048527
0.106977
0.111186
0.034969
-0.114427
-0.292814
-0.458342
-0.575240
-0.641871
-0.677174
-0.684187
-0.670159
-0.643739
-0.596277
-0.522864
-0.420694
-0.258906
-0.024640
0.238850
0.514731
0.803004
1.092913
1.380952
1.608905
1.759237
1.897179
2.027171
2.134017
2.198779
2.233849
2.329239
2.453152
2.538022
2.659363
2.845466
3.055651
3.259756
3.422480
3.545692
3.640848
3.696726
3.702806
3.656982
3.580063
3.491455
3.400041
3.323122
3.271687
3.268649
3.339724
3.482107
3.686213
3.934506
4.186774
4.409583
4.589842
4.717262
4.808210
4.873674
4.893080
4.875545
4.847490
4.795822
4.699498
4.564364
4.393693
4.178366
3.931944
3.672430
3.397953
3.120904
2.853440
2.567741
2.250712
1.926202
1.604264
1.315291
1.106277
0.978625
0.945426
1.013929
1.128725
1.265263
1.438273
1.654303
1.900492
2.130315
2.329979
2.529876
2.733281
2.944868
3.185212
3.466003
3.795658
4.149628
4.496116
4.848683
5.211069
5.569481
5.910358
6.200501
6.435936
6.623910
6.765358
6.899324
7.065555
7.292572
7.587391
7.923826
8.304215
8.725285
9.175111
9.650422
10.119420
10.572052
10.983536
11.289577
11.464224
11.504204
11.418168
11.226455
10.940989
10.577902
10.146079
9.649729
9.103111
8.538492
7.984626
7.456012
6.983040
6.573896
6.219226
5.947788
5.769869
5.668635
5.625851
5.621644
5.632399
5.632400
5.601305
5.514099
5.367743
5.182576
4.950884
4.671731
4.382992
4.105007
3.819775
3.500175
3.118853
2.651726
2.110019
1.508927
0.867154
0.230992
-0.363086
-0.878842
-1.296637
-1.624888
-1.835305
-1.928823
-1.978154
-2.044551
-2.161917
-2.348720
-2.624367
-2.999610
-3.434706
-3.863724
-4.238033
-4.536123
-4.742799
-4.832811
-4.814106
-4.709598
-4.525365
-4.292035
-4.052860
-3.830284
-3.641141
-3.527281
-3.502966
-3.534995
-3.631085
-3.775805
-3.884287
-3.969622
-4.102418
-4.270284
-4.436045
-4.571881
-4.664230
-4.696494
-4.627289
-4.444459
-4.167408
-3.847339
-3.532180
-3.218891
-2.933891
-2.706172
-2.491312
-2.297025
-2.184101
-2.126118
-2.055978
-1.977188
-1.945859
-1.991682
-2.089409
-2.211918
-2.379784
-2.571263
-2.687693
-2.684887
-2.598381
-2.455764
-2.261011
-2.019030
-1.792012
-1.665527
-1.670904
-1.823573
-2.098517
-2.433315
-2.831003
-3.269372
-3.663320
-3.996247
-4.280543
-4.538187
-4.812431
-5.105612
-5.409781
-5.710912
-5.941435
-6.047111
-6.042200
-5.966449
-5.834821
-5.672331
-5.526207
-5.403463
-5.306203
-5.274172
-5.317190
-5.391069
-5.434555
-5.415616
-5.324201
-5.121498
-4.795584
-4.345056
-3.724557
-2.958871
-2.109484
-1.171957
-0.147690
0.968459
2.144459
3.282819
4.389148
5.467656
6.412899
7.206407
7.884654
8.448807
8.917805
9.309416
9.644215
9.946048
10.218422
10.466716
10.660300
10.756158
10.777434
10.740261
10.628507
10.448717
10.196451
9.874045
9.486877
9.031207
8.534155
8.002267
7.434374
6.837724
6.179585
5.455048
4.724199
4.048525
3.413533
2.787892
2.216492
1.708919
1.227297
0.769990
0.345415
-0.040817
-0.414425
-0.782655
-1.099449
-1.314776
-1.384681
-1.319918
-1.130542
-0.784054
-0.300794
0.297260
1.007069
1.782342
2.577955
3.365618
4.116108
4.807915
5.432856
5.998879
6.501310
6.933602
7.322408
7.667259
7.914150
8.081783
8.223465
8.303892
8.304127
8.276072
8.251757
8.257837
8.318391
8.401857
8.466386
8.531382
8.604561
8.639164
8.619993
8.529047
8.321903
8.001368
7.583339
7.069219
6.464153
5.759956
4.981178
4.192347
3.431805
2.682485
1.930828
1.207460
0.561011
0.018134
-0.413688
-0.690504
-0.762513
-0.665252
-0.449924
-0.123776
0.288175
0.751562
1.246278
1.752683
2.248802
2.706110
3.120165
3.499853
3.836755
4.138354
4.419379
4.694793
4.974883
5.232295
5.466092
5.700826
5.928545
6.159070
6.412740
6.682543
6.957957
7.220278
7.453608
7.653038
7.804539
7.909515
7.991345
8.053068
8.082761
8.087437
8.070839
8.017066
7.885205
7.643459
7.297440
6.851823
6.317363
5.730766
5.111672
4.476913
3.862261
3.311903
2.865350
2.542010
2.340945
2.236905
2.207214
2.223814
2.234569
2.242753
2.260990
2.230597
2.120479
1.938819
1.691696
1.416751
1.139936
0.876447
0.679824
0.567369
0.507517
0.508921
0.575553
0.666969
0.766100
0.858450
0.916199
0.943086
0.949867
0.938645
0.936542
0.983770
1.092720
1.265263
1.503970
1.784294
2.082152
2.370191
2.609133
2.795236
2.936450
3.051947
3.164872
3.284577
3.444962
3.657718
3.914428
4.210884
4.486999
4.701158
4.852426
4.891003
4.766857
4.490042
4.097029
3.604887
3.025772
2.407145
1.806520
1.249382
0.736899
0.262759
-0.183326
-0.597146
-0.973325
-1.336412
-1.687341
-1.980054
-2.202395
-2.356466
-2.433853
-2.457933
-2.446009
-2.397612
-2.322329
-2.221328
-2.121495
-2.080113
-2.112844
-2.195373
-2.275565
-2.308530
-2.307360
-2.285616
-2.218984
-2.117281
-2.003655
-1.865246
-1.707666
-1.551021
-1.415418
-1.348318
-1.340368
-1.345745
-1.368422
-1.401153
-1.456563
-1.576500
-1.753951
-2.000373
-2.323246
-2.692645
-3.109505
-3.546238
-3.955616
-4.322677
-4.615858
-4.829782
-4.980581
-5.085087
-5.191932
-5.312805
-5.438353
-5.583307
-5.741353
-5.886073
-5.962991
-5.946157
-5.872978
-5.779459
-5.718203
-5.685938
-5.630762
-5.609252
-5.618135
-5.545424
-5.418237
-5.290349
-5.099336
-4.876059
-4.667745
-4.409866
-4.150818
-3.891770
-3.592041
-3.375778
-3.134499
-2.853006
-2.788477
-2.758083
-2.641418
-2.654042
-2.753639
-2.907711
-3.136598
-3.372966
-3.660068
-3.998138
-4.358186
-4.774344
-5.217389
-5.629807
-6.013468
-6.405077
-6.800194
-7.196246
-7.607261
-7.980167
-8.283869
-8.544552
-8.711950
-8.739070
-8.684828
-8.614455
-8.566058
-8.530754
-8.499191
-8.467861
-8.401228
-8.307007
-8.132126
-7.881729
-7.597431
-7.206755
-6.826600
-6.367889
-5.794617
-5.360455
-4.621655
-3.743512
-3.395855
-2.789851
-1.689133
-0.784571
0.170258
1.287576
2.345743
3.409053
4.448049
5.473017
6.491672
7.407457
8.180391
8.863548
9.517713
10.094258
10.548994
10.802197
10.829786
10.739775
10.519538
10.168376
9.765544
9.300989
8.766295
8.195597
7.618586
7.020066
6.368473
5.688591
5.010113
4.356884
3.764676
3.251959
2.825981
2.483936
2.197769
1.931007
1.678507
1.447048
1.233358
1.025046
0.809719
0.592288
0.390756
0.240892
0.160233
0.141997
0.228737
0.434245
0.683941
0.930832
1.189646
1.454072
1.672906
1.826044
1.938034
2.015421
2.061013
2.075976
2.053532
2.012852
1.966561
1.923309
1.904606
1.901100
1.891983
1.893152
1.913259
1.923781
1.913728
1.899467
1.880063
1.820212
1.662867
1.377401
0.962411
0.419067
-0.201664
-0.808133
-1.368778
-1.892951
-2.365221
-2.789796
-3.188420
-3.535842
-3.802136
-3.972808
-4.016293
-3.928151
-3.737606
-3.477622
-3.168542
-2.783009
-2.313778
-1.804800
-1.252804
-0.656387
-0.049916
0.569180
1.191081
1.803631
2.426000
3.032237
3.591714
4.094379
4.499083
4.800214
5.017880
5.130571
5.118648
4.990294
4.765849
4.454666
4.052535
3.591722
3.112204
