EVENT_NAME: 202302060117
EVENT_ID: 13194
EVENT_DATE_YYYYMMDD: 2023/02/06
EVENT_TIME_HHMMSS: 01:17:32.00000
EVENT_LATITUDE_DEGREE: 37.288
EVENT_LONGITUDE_DEGREE: 37.043
EVENT_DEPTH_KM: 8.6
HYPOCENTER_REFERENCE: AFAD
MAGNITUDE_W: 7.7
MAGNITUDE_W_REFERENCE: AFAD
MAGNITUDE_L: 
MAGNITUDE_L_REFERENCE: 
FOCAL_MECHANISM: 
NETWORK: TK
STATION_CODE: 5812
STATION_NAME: 
STATION_LATITUDE_DEGREE: 40.087965
STATION_LONGITUDE_DEGREE: 38.345738
STATION_ELEVATION_M: 985.0
LOCATION: Kahramanmaras_Pazarck_Turkiye
SENSOR_DEPTH_M: 
VS30_M/S: 426
SITE_CLASSIFICATION_EC8: B
MORPHOLOGIC_CLASSIFICATION: 
EPICENTRAL_DISTANCE_KM: 331.23
EARTHQUAKE_BACKAZIMUTH_DEGREE: 
DATE_TIME_FIRST_SAMPLE_YYYYMMDD_HHMMSS: 2023/02/06 01:17:56.9549970
DATE_TIME_FIRST_SAMPLE_PRECISION: millisecond
SAMPLING_INTERVAL_S: 0.01
NDATA: 18251
DURATION_S: 
STREAM: HNE
UNITS: cm/s^2
INSTRUMENT: sensor = ACEBOX/SARA | digitizer = 
INSTRUMENT_ANALOG/DIGITAL: 
INSTRUMENTAL_FREQUENCY_HZ: 
INSTRUMENTAL_DAMPING: 
FULL_SCALE_G: 
N_BIT_DIGITAL_CONVERTER: 
PGA_CM/S^2: 14.218
TIME_PGA_S: 
BASELINE_CORRECTION: BASELINE REMOVED
FILTER_TYPE: BUTTERWORTH
FILTER_ORDER: 
LOW_CUT_FREQUENCY_HZ: 
HIGH_CUT_FREQUENCY_HZ: 
LATE/NORMAL_TRIGGERED: 
DATABASE_VERSION: 
HEADER_FORMAT: DYNA 1.2
DATA_TYPE: Acceleration
PROCESSING: Automatic Paolucci et al., 2011
DATA_TIMESTAMP_YYYYMMDD_HHMMSS: 
DATA_LICENSE: U (unknown license)
DATA_CITATION: Turkish Accelerometric Archive v 1.0 - Disaster And Emergency Management Presidency, Earthquake Department
DATA_CREATOR: AFAD
ORIGINAL_DATA_MEDIATOR_CITATION: : AFAD - Disaster And Emergency Management Presidency
ORIGINAL_DATA_MEDIATOR: AFAD PROCESS SERVICE
ORIGINAL_DATA_CREATOR_CITATION: AFAD PROCESS SERVICE
ORIGINAL_DATA_CREATOR: network: TK
USER1: GuestUser
USER2: 
USER3: 
USER4: 
USER5: 
[...]
8.180534
7.724864
7.218928
6.694989
6.155386
5.599651
5.047657
4.497065
3.948577
3.416456
2.903739
2.410896
1.935587
1.479917
1.048796
0.642457
0.270486
-0.059401
-0.335982
-0.556218
-0.732500
-0.864361
-0.970972
-1.078517
-1.174373
-1.272801
-1.389465
-1.504726
-1.621156
-1.731274
-1.823857
-1.912932
-1.990786
-2.058119
-2.128023
-2.195823
-2.271807
-2.351531
-2.422604
-2.500458
-2.582753
-2.680246
-2.804625
-2.928771
-3.051747
-3.172619
-3.283204
-3.406882
-3.543886
-3.693750
-3.864421
-4.039534
-4.212543
-4.367783
-4.485383
-4.559963
-4.597370
-4.621450
-4.633139
-4.636645
-4.641554
-4.622615
-4.578193
-4.509689
-4.413130
-4.307920
-4.194528
-4.079265
-3.973120
-3.860662
-3.735814
-3.603717
-3.458762
-3.290661
-3.107597
-2.915648
-2.710373
-2.505098
-2.295148
-2.070234
-1.830357
-1.565463
-1.285607
-0.995932
-0.692929
-0.388992
-0.069858
0.270786
0.625223
1.003508
1.379923
1.728515
2.069159
2.395307
2.685684
2.956189
3.198170
3.393157
3.573884
3.738244
3.838778
3.893721
3.935338
3.945392
3.922949
3.889984
3.863566
3.848838
3.824290
3.806055
3.809562
3.807927
3.827099
3.864274
3.869418
3.866380
3.870355
3.867784
3.879943
3.915013
3.958968
4.000585
4.035188
4.055529
4.047113
4.018357
3.975340
3.909176
3.850494
3.818932
3.794150
3.781059
3.774513
3.752070
3.727288
3.709520
3.688012
3.675388
3.671180
3.661362
3.648036
3.619514
3.566209
3.500981
3.418217
3.306697
3.176473
3.015154
2.818531
2.593853
2.323818
2.011232
1.664044
1.272201
0.848795
0.396632
-0.091770
-0.594199
-1.096161
-1.594148
-2.077173
-2.535648
-2.971212
-3.382460
-3.761912
-4.117283
-4.454651
-4.778460
-5.094553
-5.399423
-5.700787
-5.984149
-6.224024
-6.435609
-6.615866
-6.765963
-6.911618
-7.055168
-7.195212
-7.319357
-7.429475
-7.539125
-7.629136
-7.722888
-7.837214
-7.927225
-7.984504
-8.012325
-7.984268
-7.901971
-7.776888
-7.608086
-7.404448
-7.187249
-6.953217
-6.678972
-6.363812
-6.011713
-5.631791
-5.239478
-4.831969
-4.426330
-4.056929
-3.726339
-3.436897
-3.197020
-2.999460
-2.833463
-2.687807
-2.555710
-2.434135
-2.322846
-2.217169
-2.115700
-2.024518
-1.934739
-1.853377
-1.794693
-1.738814
-1.687144
-1.647632
-1.582869
-1.489115
-1.386711
-1.273318
-1.150574
-1.016841
-0.864404
-0.704252
-0.539424
-0.364309
-0.197611
-0.054058
0.075934
0.196107
0.315578
0.439258
0.561535
0.694566
0.833443
0.956187
1.064436
1.146968
1.199807
1.240021
1.263635
1.268546
1.259195
1.240492
1.218750
1.200047
1.190462
1.188359
1.188360
1.173164
1.128977
1.069360
0.993143
0.902430
0.806341
0.692482
0.579325
0.488613
0.414500
0.366105
0.350442
0.360730
0.391592
0.434378
0.482073
0.528132
0.576997
0.637551
0.715173
0.809394
0.908759
1.000642
1.072185
1.111931
1.116374
1.081773
1.012336
0.915078
0.789296
0.632886
0.441875
0.216261
-0.031329
-0.278919
-0.528380
-0.784153
-1.020288
-1.224158
-1.405116
-1.554979
-1.674683
-1.767967
-1.835767
-1.892579
-1.937467
-1.967392
-1.976276
-1.956636
-1.910810
-1.827344
-1.720030
-1.612716
-1.508675
-1.421936
-1.341976
-1.270901
-1.227414
-1.196785
-1.192576
-1.214084
-1.241905
-1.293574
-1.347346
-1.392702
-1.451150
-1.502819
-1.550512
-1.603817
-1.648471
-1.684709
-1.714167
-1.730999
-1.726556
-1.709254
-1.690082
-1.658986
-1.633033
-1.615498
-1.584636
-1.551669
-1.506779
-1.451602
-1.410453
-1.358549
-1.290747
-1.217100
-1.104876
-0.961791
-0.807250
-0.617640
-0.393427
-0.141393
0.158102
0.490095
0.834480
1.200373
1.564630
1.917899
2.285897
2.646413
2.976769
3.292163
3.573188
3.804648
4.001507
4.164932
4.295859
4.393354
4.452505
4.482666
4.488044
4.472381
4.443391
4.397567
4.342158
4.283476
4.213806
4.133614
4.034485
3.902390
3.741773
3.567361
3.386870
3.204743
3.042956
2.909225
2.798406
2.732476
2.713773
2.726166
2.769419
2.830441
2.905257
2.994335
3.089491
3.202182
3.325161
3.443931
3.557089
3.642426
3.695032
3.715841
3.692696
3.641495
3.572759
3.489996
3.408402
3.328912
3.265086
3.229082
3.219263
3.249190
3.324006
3.446517
3.625607
3.848650
4.103724
4.375631
4.640758
4.901677
5.157920
5.396394
5.627386
5.863055
6.091943
6.305869
6.510209
6.703794
6.876103
7.026202
7.157363
7.257195
7.324530
7.373862
7.412673
7.448679
7.479074
7.492401
7.485856
7.446111
7.376207
7.287598
7.177013
7.064558
6.944854
6.798498
6.642556
6.466742
6.270119
6.072561
5.859105
5.640973
5.418399
5.176186
4.931402
4.680304
4.419387
4.161276
3.899190
3.642949
3.399801
3.158290
2.924961
2.696776
2.442405
2.181021
1.939041
1.666902
1.387516
1.132677
0.836223
0.526911
0.223910
-0.125616
-0.460412
-0.786559
-1.151282
-1.491689
-1.840982
-2.210614
-2.535591
-2.872960
-3.204250
-3.490651
-3.786169
-4.036565
-4.245345
-4.457632
-4.614977
-4.757359
-4.900909
-4.998168
-5.091452
-5.158083
-5.176786
-5.177720
-5.123712
-5.019905
-4.890147
-4.720176
-4.535942
-4.352644
-4.169346
-3.983710
-3.777033
-3.541832
-3.273432
-2.982353
-2.681689
-2.376816
-2.089011
-1.801439
-1.515037
-1.258560
-1.007929
-0.771793
-0.569557
-0.371296
-0.185660
-0.018494
0.144230
0.289185
0.413332
0.525556
0.626323
0.713063
0.800738
0.899635
1.000870
1.100469
1.171077
1.206615
1.215734
1.176691
1.103981
0.994331
0.834414
0.659768
0.459639
0.230752
0.001398
-0.229593
-0.443750
-0.630319
-0.803562
-0.964881
-1.119187
-1.270219
-1.414003
-1.540253
-1.635875
-1.688712
-1.699700
-1.672578
-1.594489
-1.483434
-1.350637
-1.175522
-0.974923
-0.752347
-0.509898
-0.274931
-0.030612
0.223994
0.467378
0.714503
0.950873
1.167136
1.371008
1.543552
1.699028
1.842814
1.973508
2.123606
2.283291
2.453730
2.645445
2.835990
3.037992
3.245137
3.446672
3.665273
3.883874
4.092422
4.288813
4.458083
4.608883
4.727186
4.812523
4.880091
4.909083
4.907447
4.886874
4.824919
4.742155
4.665938
4.586916
4.525194
4.499010
4.500881
4.538991
4.601182
4.666880
4.738189
4.800614
4.842932
4.881743
4.928971
4.987655
5.069953
5.184281
5.336016
5.529367
5.751242
5.997431
6.268637
6.550831
6.835831
7.125974
7.416352
7.689428
7.949645
8.194665
8.402044
8.593058
8.773316
8.934404
9.107415
9.277386
9.432161
9.592313
9.739138
9.879885
10.022269
10.153430
10.275707
10.378111
10.462980
10.534757
10.585258
10.619160
10.620096
10.585962
10.539438
10.480522
10.409448
10.328789
10.239479
10.141519
10.033038
9.911231
9.757393
9.582981
9.395944
9.180618
8.953134
8.713025
8.446731
8.170618
7.878138
7.572332
7.261149
6.926820
6.571916
6.205090
5.832651
5.455070
5.064863
4.666473
4.251718
3.815921
3.369135
2.897099
2.395605
1.885928
1.376719
0.864236
0.355962
-0.138753
-0.623881
-1.106438
-1.592034
-2.073187
-2.552938
-3.044613
-3.523897
-3.994997
-4.428690
-4.766760
-5.101557
-5.474930
-5.791257
-6.053109
-6.277787
-6.471370
-6.665889
-6.818090
-6.909971
-6.971693
-6.996474
-6.996707
-6.986653
-6.961168
-6.931943
-6.899912
-6.855489
-6.806625
-6.748408
-6.686451
-6.627066
-6.556224
-6.495903
-6.450780
-6.388121
-6.312837
-6.210433
-6.069686
-5.915847
-5.733016
-5.526105
-5.318258
-5.100358
-4.882458
-4.661753
-4.435202
-4.229927
-4.042889
-3.878528
-3.742457
-3.610595
-3.484811
-3.357858
-3.207993
-3.039892
-2.845605
-2.623731
-2.385257
-2.140003
-1.894748
-1.637570
-1.377821
-1.120175
-0.861594
-0.608625
-0.349577
-0.104089
0.141399
0.376834
0.536051
0.683578
0.839288
1.005051
1.209157
1.273920
1.276259
1.442957
1.601473
1.678159
1.786876
1.926687
2.080995
2.203271
2.357111
2.582259
2.740073
2.875208
3.045648
3.143610
3.206736
3.264952
3.252328
3.219597
3.181957
3.096388
2.997727
2.888077
2.767438
2.674388
2.586247
2.478467
2.374662
2.281144
2.184587
2.094342
2.025139
1.953598
1.884161
1.839039
1.785033
1.726585
1.688710
1.647329
1.607117
1.578829
1.556385
1.542358
1.532306
1.525994
1.511733
1.485315
1.461235
1.425933
1.383850
1.338962
1.265083
1.180917
1.092075
0.971436
0.835601
0.694856
0.536576
0.369646
0.196871
0.010067
-0.186321
-0.398141
-0.640354
-0.893555
-1.131794
-1.352731
-1.556368
-1.737326
-1.875265
-1.954989
-1.992630
-2.008527
-2.007123
-1.985145
-1.944931
-1.917576
-1.921550
-1.932771
-1.949604
-1.991920
-2.055278
-2.142951
-2.241613
-2.318064
-2.374875
-2.401995
-2.379316
-2.320398
-2.225943
-2.096886
-1.948190
-1.781024
-1.603337
-1.421208
-1.220141
-1.010424
-0.812397
-0.624891
-0.476429
-0.379636
-0.310197
-0.291258
-0.329366
-0.390854
-0.479930
-0.600802
-0.756510
-0.955003
-1.184124
-1.446443
-1.740559
-2.043326
-2.341183
-2.629688
-2.888033
-3.102190
-3.277771
-3.407995
-3.495668
-3.554350
-3.566741
-3.533073
-3.459660
-3.345332
-3.205520
-3.045836
-2.890126
-2.761536
-2.643702
-2.547610
-2.482380
-2.424631
-2.371558
-2.320121
-2.256294
-2.183348
-2.104090
-2.005427
-1.888527
-1.766484
-1.627841
-1.463948
-1.286729
-1.092443
-0.875010
-0.647759
-0.425183
-0.217102
-0.033103
0.125880
0.271771
0.417427
0.558174
0.695180
0.840369
0.988364
1.137761
1.285288
1.404993
1.501553
1.579174
1.619622
1.634118
1.614948
1.554162
1.472801
1.358943
1.209080
1.045189
0.867036
0.677427
0.475895
0.259166
0.037060
-0.192528
-0.437079
-0.705945
-0.997490
-1.306335
-1.635754
-1.978968
-2.319142
-2.641314
-2.943145
-3.233988
-3.517115
-3.796502
-4.066069
-4.318803
-4.564523
-4.788500
-4.977875
-5.141298
-5.278770
-5.387485
-5.466040
-5.525891
-5.582469
-5.621746
-5.633903
-5.642319
-5.651670
-5.645590
-5.627587
-5.592282
-5.535469
-5.464627
-5.374147
-5.272678
-5.173079
-5.075819
-4.979727
-4.876388
-4.780997
-4.700570
-4.629027
-4.575019
-4.517037
-4.462093
-4.417437
-4.359688
-4.326722
-4.289314
-4.227356
-4.212159
-4.181063
-4.123080
-4.112091
-4.074682
-4.027220
-4.001268
-3.923646
-3.865430
-3.821007
-3.729124
-3.688209
-3.660386
-3.613626
-3.639576
-3.666929
-3.687970
-3.770032
-3.827312
-3.880616
-3.984422
-4.065548
-4.155793
-4.296538
-4.429334
-4.556051
-4.683470
-4.803173
-4.922876
-5.021070
-5.113419
-5.195247
-5.221666
-5.216053
-5.172800
-5.062447
-4.909542
-4.705203
-4.454104
-4.185937
-3.888546
-3.576660
-3.261032
-2.926234
-2.594007
-2.270664
-1.947556
-1.636371
-1.339447
-1.063098
-0.799607
-0.536117
-0.275900
0.007230
0.321220
0.652980
1.017003
1.389443
1.743880
2.101357
2.442235
2.745237
3.033042
3.286012
3.488481
3.647230
3.743088
3.789849
3.784472
3.712230
3.611932
3.478902
3.296073
3.095944
2.864018
2.599127
2.330728
2.032871
1.710700
1.390632
1.051861
0.698127
0.349302
0.005387
-0.345775
-0.703484
-1.055816
-1.428488
-1.797185
-2.141100
-2.489457
-2.781001
-3.047062
-3.336502
-3.556270
-3.695846
-3.744008
-3.819757
-4.045604
-4.153384
-4.146837
-4.287582
-4.438848
-4.507583
-4.586839
-4.704205
-4.865056
-5.008139
-5.146780
-5.309502
-5.415411
-5.493499
-5.573456
-5.591224
-5.601276
-5.637748
-5.606184
-5.493727
-5.325860
-5.072890
-4.749314
-4.384121
-3.981054
-3.577987
-3.211625
-2.886880
-2.589489
-2.290461
-2.000786
-1.760909
-1.591171
-1.489001
-1.422134
-1.386362
-1.399687
-1.451823
-1.546043
-1.661304
-1.788722
-1.971317
-2.191787
-2.435870
-2.699359
-2.915620
-3.092370
-3.275199
-3.446104
-3.592694
-3.717540
-3.804512
-3.839581
-3.863661
-3.907848
-3.950164
-4.010015
-4.064489
-4.063787
-4.075710
-4.103764
-4.090437
-4.068459
-4.028011
-3.963248
-3.894043
-3.774806
-3.633358
-3.478817
-3.259280
-3.021975
-2.754276
-2.424387
-2.085380
-1.716214
-1.339799
-0.989102
-0.607310
-0.225285
0.134530
0.504632
0.855329
1.210468
1.567477
1.849204
2.090016
2.326386
2.543818
2.791644
3.062383
3.302259
3.537694
3.759569
3.944036
4.116111
4.249377
4.327232
4.362069
4.347341
4.332379
4.344069
4.340797
4.313911
4.257801
4.154463
4.029617
3.910147
3.775247
3.618136
3.464532
3.293861
3.101213
2.931477
2.782549
2.638765
2.492175
2.339273
2.200632
2.061056
1.908621
1.771383
1.638119
1.486386
1.327404
1.167020
1.005000
0.841577
0.662021
0.475452
0.341721
0.267608
0.221785
0.225059
0.281171
0.368612
0.498137
0.665770
0.855615
1.074917
1.319470
1.577349
1.847620
2.121164
2.394708
2.686955
2.999309
3.313534
3.615834
3.894288
4.162688
4.429218
4.659509
4.841404
5.004362
5.141602
5.229510
5.285389
5.315550
5.313914
5.298718
5.265286
5.213618
5.156806
5.078719
4.994553
4.914829
4.830429
4.760758
4.701842
4.656720
4.627730
4.579569
4.509664
4.417082
4.300418
4.178376
4.025006
3.820902
3.585937
3.328761
3.050309
2.744270
2.405966
2.040074
1.651738
1.256387
0.873428
0.512680
0.186066
-0.104309
-0.364992
-0.584994
-0.777175
-0.945040
-1.045806
-1.107294
-1.150311
-1.120384
-1.057024
-0.990859
-0.868816
-0.723159
-0.572593
-0.393269
-0.221895
-0.038597
0.166912
0.349041
0.551042
0.769878
0.965567
1.179492
1.395522
1.615292
1.890005
2.188097
2.507933
2.881308
3.262632
3.637410
4.045621
4.447286
4.803594
5.141899
5.471321
5.848437
6.227423
6.461455
6.691045
7.004334
7.225507
7.371631
7.540434
7.705028
7.829175
7.910304
8.007331
8.107864
8.153690
8.209568
8.320857
8.438457
8.554889
8.671321
8.768348
8.912134
9.143361
9.380198
9.615166
9.909985
10.262552
10.636862
11.002055
11.349245
11.681939
12.008555
12.344756
12.675814
12.965723
13.214718
13.463012
13.687225
13.854624
13.988825
14.077903
14.139626
14.192465
14.208598
14.217951
14.179843
14.038864
13.869128
13.690508
13.476818
13.241853
12.994964
12.746906
12.489496
12.220162
11.948491
11.669104
11.404213
11.162701
10.926333
10.686926
10.457571
10.231257
9.982263
9.753844
9.567275
9.378134
9.207463
9.062743
8.912880
8.770031
8.640976
8.524546
8.409986
8.278125
8.140887
7.998739
7.825730
7.619288
7.393441
7.149124
6.889142
6.619809
6.334343
6.021523
5.683687
5.323874
4.937876
4.527562
4.101819
3.657137
3.200532
2.745096
2.291296
1.848485
1.430457
1.024585
0.620819
0.225702
-0.183208
-0.611056
-1.015992
-1.393808
-1.748711
-2.073221
-2.386508
-2.679923
-2.935696
-3.147516
-3.315381
-3.442332
-3.518315
-3.568815
-3.596402
-3.585880
-3.574189
-3.551276
-3.509425
-3.470380
-3.406085
-3.324021
-3.231437
-3.116408
-3.003483
-2.876530
-2.743966
-2.650212
-2.588723
-2.570485
-2.608360
-2.685044
-2.806384
-2.963729
-3.131594
-3.319566
-3.531386
-3.734555
-3.900316
-4.008563
-4.050412
-4.054619
-4.037317
-3.984478
-3.895868
-3.762135
-3.583981
-3.388058
-3.172028
-2.941269
-2.720798
-2.495416
-2.243382
-1.979658
-1.733936
-1.517439
-1.335777
-1.205084
-1.107122
-1.039787
-1.023186
-1.035109
-1.096129
-1.207416
-1.303272
-1.416429
-1.544783
-1.656069
-1.816453
-1.959770
-2.039026
-2.136051
-2.201747
-2.248272
-2.325658
-2.337815
-2.313499
-2.299236
-2.242890
-2.199169
-2.180464
-2.128794
-2.070344
-1.997632
-1.896163
-1.796799
-1.679899
-1.542659
-1.412667
-1.259529
-1.083712
-0.921222
-0.763642
-0.616816
-0.480979
-0.340934
-0.213747
-0.096614
0.020753
0.136016
0.265307
0.400677
0.539086
0.691990
0.845128
1.004813
1.184136
1.375617
1.567332
1.754137
1.956840
2.166791
2.373234
2.592303
2.796643
2.982747
3.166980
3.330171
3.502013
3.714068
3.941788
4.165766
4.404708
4.663756
4.891242
5.087867
5.288933
5.467321
5.619758
5.753959
5.865247
5.979809
6.078238
6.149314
6.224130
6.284450
6.319755
6.339628
6.336590
6.321394
6.287260
6.222266
6.137164
6.054401
5.991043
5.908046
5.814995
5.751871
5.659522
5.542624
5.448639
5.325429
5.172994
5.016350
4.838899
4.637133
4.403804
4.155045
3.894596
3.609598
3.311507
2.985361
2.630224
2.259189
1.867813
1.470592
1.071969
0.669371
0.262798
-0.152658
-0.567180
-0.977260
-1.369804
-1.754634
-2.157699
-2.552348
-2.929696
-3.274546
-3.578014
-3.894574
-4.187989
-4.436515
-4.710758
-4.930059
-5.088806
-5.296183
-5.450956
-5.593806
-5.865945
-6.052748
-6.125224
-6.326990
-6.528289
-6.598894
-6.721637
-6.883658
-6.950055
-6.988163
-7.052690
-7.098046
-7.131478
-7.167248
-7.171222
-7.160934
-7.172155
-7.183143
-7.206054
-7.264502
-7.327393
-7.418807
-7.585269
-7.794517
-8.025975
-8.306064
-8.610467
-8.889853
-9.172513
-9.483697
-9.778982
-10.045510
-10.316947
-10.586982
-10.810959
-11.007582
-11.220570
-11.407373
-11.552794
-11.701021
-11.850884
-11.979939
-12.065508
-12.117410
-12.160895
-12.177962
-12.159724
-12.127226
-12.098234
-12.052409
-12.001206
-11.957485
-11.874954
-11.848066
-11.895526
-11.891784
-11.892485
-11.843387
-11.758985
-11.849931
-11.895521
-11.755475
-11.701233
-11.744485
-11.743549
-11.688138
-11.653067
-11.681356
-11.665924
-11.633192
-11.672469
-11.681820
-11.654698
-11.666855
-11.667322
-11.677608
-11.737225
-11.746576
-11.698880
-11.674097
-11.653522
-11.634350
-11.625932
-11.595771
-11.558830
-11.517213
-11.455958
-11.389325
-11.313573
-11.229405
-11.165578
-11.147341
-11.131909
-11.080005
-11.064340
-11.057559
-11.004018
-10.977598
-10.953282
-10.932240
-10.954450
-10.940888
-10.922651
-10.904882
-10.819779
-10.738416
-10.657755
-10.560495
-10.494563
-10.409226
-10.293495
-10.179401
-10.055488
-9.911000
-9.751316
-9.606127
-9.445040
-9.265015
-9.114682
-8.947283
-8.755568
-8.577180
-8.380088
-8.155407
-7.906880
-7.637311
-7.371249
-7.099108
-6.811069
-6.496610
-6.127210
-5.728818
-5.333700
-4.935308
-4.575494
-4.286753
-4.034719
-3.821728
-3.647081
-3.491605
-3.367458
-3.265755
-3.188133
-3.154232
-3.164284
-3.223200
-3.303625
-3.374699
-3.430342
-3.454422
-3.460032
-3.477800
-3.504685
-3.527363
-3.539753
-3.533440
-3.506786
-3.481535
-3.481300
-3.490184
-3.484805
-3.477790
-3.471711
-3.455812
-3.456045
-3.464226
-3.460485
-3.487604
-3.535064
-3.580888
-3.635829
-3.664819
-3.664584
-3.644711
-3.598885
-3.572699
-3.583219
-3.622496
-3.685620
-3.736354
-3.768617
-3.808127
-3.844365
-3.854885
-3.866340
-3.878731
-3.854415
-3.822617
-3.791755
-3.748268
-3.719276
-3.678361
-3.615702
-3.575956
-3.556783
-3.539481
-3.514464
-3.492019
-3.471911
-3.428424
-3.383768
-3.376285
-3.382597
-3.344955
-3.273879
-3.238108
-3.234833
-3.251666
-3.294450
-3.337935
-3.394981
-3.468860
-3.533387
-3.590199
-3.640464
-3.698913
-3.751049
-3.787052
-3.851813
-3.920549
-3.967074
-4.036043
-4.120676
-4.211389
-4.336236
-4.490541
-4.652094
-4.823700
-5.005360
-5.165042
-5.308827
-5.465470
-5.612060
-5.749766
-5.887939
-6.000628
-6.098588
-6.193509
-6.280481
-6.369323
-6.446475
-6.503521
-6.546772
-6.573424
-6.579736
-6.561499
-6.532974
-6.504450
-6.476627
-6.461664
-6.441322
-6.397601
-6.323253
-6.209393
-6.084544
-5.963202
-5.830171
-5.678903
-5.517816
-5.366548
-5.214579
-5.054427
-4.912277
-4.781583
-4.648786
-4.527210
-4.405868
-4.285930
-4.187968
-4.097721
-4.025944
-3.999992
-4.001627
-4.007004
-4.002795
-4.005833
-4.011443
-3.993206
-4.001856
-4.028274
-4.037625
-4.049314
-4.027570
-4.009566
-3.983848
-3.900147
-3.852452
-3.808029
-3.730875
-3.672425
-3.590595
-3.523494
-3.477669
-3.426467
-3.415945
-3.403319
-3.397005
-3.421319
-3.442127
-3.472519
-3.490754
-3.493793
-3.479530
-3.436745
-3.421079
-3.410557
-3.382968
