EVENT_NAME: 202302060117
EVENT_ID: 13194
EVENT_DATE_YYYYMMDD: 2023/02/06
EVENT_TIME_HHMMSS: 01:17:32.00000
EVENT_LATITUDE_DEGREE: 37.288
EVENT_LONGITUDE_DEGREE: 37.043
EVENT_DEPTH_KM: 8.6
HYPOCENTER_REFERENCE: AFAD
MAGNITUDE_W: 7.7
MAGNITUDE_W_REFERENCE: AFAD
MAGNITUDE_L: 
MAGNITUDE_L_REFERENCE: 
FOCAL_MECHANISM: 
NETWORK: TK
STATION_CODE: 3302
STATION_NAME: 
STATION_LATITUDE_DEGREE: 36.1613
STATION_LONGITUDE_DEGREE: 33.57584
STATION_ELEVATION_M: 17.0
LOCATION: Kahramanmaras_Pazarck_Turkiye
SENSOR_DEPTH_M: 
VS30_M/S: 1007
SITE_CLASSIFICATION_EC8: A
MORPHOLOGIC_CLASSIFICATION: 
EPICENTRAL_DISTANCE_KM: 333.41
EARTHQUAKE_BACKAZIMUTH_DEGREE: 
DATE_TIME_FIRST_SAMPLE_YYYYMMDD_HHMMSS: 2023/02/06 01:17:57.2254070
DATE_TIME_FIRST_SAMPLE_PRECISION: millisecond
SAMPLING_INTERVAL_S: 0.01
NDATA: 18251
DURATION_S: 
STREAM: HNN
UNITS: cm/s^2
INSTRUMENT: sensor = CMG-5T/GURALP | digitizer = 
INSTRUMENT_ANALOG/DIGITAL: 
INSTRUMENTAL_FREQUENCY_HZ: 
INSTRUMENTAL_DAMPING: 
FULL_SCALE_G: 
N_BIT_DIGITAL_CONVERTER: 
PGA_CM/S^2: 5.846
TIME_PGA_S: 
BASELINE_CORRECTION: BASELINE REMOVED
FILTER_TYPE: BUTTERWORTH
FILTER_ORDER: 
LOW_CUT_FREQUENCY_HZ: 
HIGH_CUT_FREQUENCY_HZ: 
LATE/NORMAL_TRIGGERED: 
DATABASE_VERSION: 
HEADER_FORMAT: DYNA 1.2
DATA_TYPE: Acceleration
PROCESSING: Automatic Paolucci et al., 2011
DATA_TIMESTAMP_YYYYMMDD_HHMMSS: 
DATA_LICENSE: U (unknown license)
DATA_CITATION: Turkish Accelerometric Archive v 1.0 - Disaster And Emergency Management Presidency, Earthquake Department
DATA_CREATOR: AFAD
ORIGINAL_DATA_MEDIATOR_CITATION: : AFAD - Disaster And Emergency Management Presidency
ORIGINAL_DATA_MEDIATOR: AFAD PROCESS SERVICE
ORIGINAL_DATA_CREATOR_CITATION: AFAD PROCESS SERVICE
ORIGINAL_DATA_CREATOR: network: TK
USER1: GuestUser
USER2: 
USER3: 
USER4: 
USER5: 
[...]
-0.407245
-0.104477
-0.014899
-0.038979
-0.159701
-0.244463
-0.236436
-0.060490
0.152057
0.301354
0.372631
0.445514
0.710074
1.066140
1.604571
2.179284
2.698452
2.990624
3.020805
2.858344
2.392795
1.966416
1.691582
1.313363
0.839145
0.357542
0.040005
-0.004944
0.079176
-0.004623
-0.353303
-0.684967
-0.900725
-1.109099
-1.254221
-1.342194
-1.288897
-1.186797
-1.245873
-1.345405
-1.347010
-1.222114
-1.043600
-0.719321
-0.394399
-0.225838
-0.112180
-0.055993
0.021385
0.334105
0.680859
0.799655
0.853594
1.067426
1.431518
1.637323
1.667503
1.770245
1.707637
1.424134
1.211586
1.008350
0.702693
0.422079
0.159766
-0.022601
-0.150065
-0.327295
-0.538879
-0.679828
-0.747252
-0.788349
-0.839399
-0.885954
-0.795733
-0.605661
-0.452190
-0.439668
-0.428110
-0.332752
-0.245743
-0.118278
0.183205
0.457719
0.579083
0.637838
0.703657
0.777503
0.883777
0.914279
0.892446
0.849744
0.721959
0.574267
0.393506
0.000197
-0.515118
-0.925444
-1.263529
-1.640784
-1.862964
-1.748984
-1.597119
-1.434016
-1.402230
-1.499835
-1.548958
-1.485708
-1.368196
-1.277013
-1.133495
-1.045201
-1.090151
-1.137348
-0.968145
-0.811463
-0.812426
-0.834259
-0.902325
-1.007636
-1.272196
-1.608997
-1.826039
-2.079683
-2.499641
-2.924736
-3.264747
-3.629481
-3.906884
-4.052970
-4.016368
-3.797721
-3.316118
-2.712509
-2.163161
-1.677384
-1.310081
-1.054190
-0.715784
-0.361003
-0.262435
-0.388936
-0.573550
-0.679824
-0.622673
-0.431316
-0.311558
-0.203358
-0.070756
-0.039613
-0.103184
-0.200147
-0.299357
-0.311557
-0.261471
-0.066261
0.176788
0.241323
0.040655
-0.281698
-0.511262
-0.577402
-0.404025
-0.051491
0.384841
0.814110
1.167927
1.513076
1.870746
2.139802
2.341754
2.412710
2.321848
1.977662
1.433130
0.964370
0.757923
0.780719
0.850391
0.964691
1.035006
0.846538
0.459330
-0.037684
-0.450257
-0.594096
-0.400491
0.093312
0.676694
1.157012
1.360570
1.240811
0.894378
0.422408
-0.134325
-0.592490
-0.723486
-0.665051
-0.589921
-0.428424
-0.192438
0.000845
-0.018740
-0.205923
-0.505159
-0.826548
-1.125463
-1.268017
-1.238479
-1.167523
-1.077302
-1.005062
-0.911310
-0.775177
-0.480436
-0.003649
0.425299
0.832735
1.226365
1.472624
1.685814
1.974454
2.207550
2.206266
2.030320
1.789198
1.429922
1.058125
0.698207
0.468322
0.426263
0.471212
0.483734
0.655185
1.023450
1.335850
1.515327
1.619354
1.753881
1.867540
2.003031
2.047980
2.022616
1.866256
1.610364
1.468131
1.413228
1.377590
1.328145
1.262647
1.146099
1.125872
1.049779
0.924883
0.900803
0.834342
0.677982
0.502678
0.445849
0.511026
0.642664
0.812510
0.980750
1.080602
1.161511
1.112709
1.021847
1.044322
1.161191
1.258474
1.451437
1.530098
1.423825
1.151559
0.751186
0.333155
-0.087765
-0.436767
-0.732792
-1.082436
-1.446848
-1.796813
-2.117560
-2.434455
-2.655350
-2.670119
-2.492889
-2.208101
-1.761495
-1.342501
-1.078261
-0.832965
-0.585100
-0.445435
-0.414612
-0.431629
-0.470478
-0.444150
-0.422318
-0.389247
-0.451856
-0.611427
-0.748523
-0.813379
-0.937311
-0.979692
-0.956254
-0.881124
-0.645460
-0.330170
-0.011991
0.391592
0.787469
1.035655
1.166972
1.366035
1.567345
1.588857
1.401674
1.012539
0.472181
-0.136244
-0.647064
-0.875344
-0.909056
-0.930889
-0.954969
-1.011477
-1.044226
-0.894929
-0.742421
-0.718341
-0.845805
-0.967490
-1.091743
-1.163663
-0.877591
-0.494556
-0.162250
0.041629
0.175835
0.327701
0.632716
0.994560
1.282880
1.527534
1.591427
1.560604
1.440525
1.280633
1.199724
1.041116
0.804809
0.537359
0.271194
0.141482
0.082727
0.113228
0.195422
0.177121
0.120292
0.021082
-0.259532
-0.562300
-0.775810
-1.027207
-1.315847
-1.548301
-1.587792
-1.477666
-1.360155
-1.212142
-1.183246
-1.157881
-0.873736
-0.658299
-0.512533
-0.292601
-0.206876
-0.218434
-0.330487
-0.490058
-0.708385
-0.797963
-0.880156
-1.041333
-1.185171
-1.357585
-1.464180
-1.488260
-1.466427
-1.277318
-0.773240
-0.171879
0.331236
0.715876
0.991674
1.040476
0.965346
0.781695
0.494981
0.127358
-0.226781
-0.567113
-0.976797
-1.281812
-1.459684
-1.538988
-1.508486
-1.369142
-1.141184
-0.886255
-0.725400
-0.622337
-0.561655
-0.532116
-0.537895
-0.579955
-0.588624
-0.539180
-0.510283
-0.518310
-0.545280
-0.632610
-0.529226
-0.261455
0.062182
0.310689
0.368482
0.393204
0.472829
0.602220
0.746058
0.868065
0.917830
1.002913
1.079328
0.950579
0.825684
0.690514
0.643317
0.772708
1.057496
1.384664
1.651151
1.712475
1.629640
1.482912
1.240505
1.131342
1.150606
1.271970
1.540383
1.720824
1.637667
1.226699
0.559198
-0.258563
-0.957530
-1.286304
-1.554717
-1.736121
-1.801618
-1.907571
-2.049483
-2.032467
-1.771759
-1.419547
-1.083067
-0.733102
-0.516381
-0.549772
-0.710948
-0.812727
-0.906158
-0.888178
-0.813690
-0.666319
-0.551056
-0.552982
-0.748834
-0.851576
-0.702921
-0.554266
-0.389237
-0.279110
-0.321812
-0.387631
-0.332407
-0.245077
-0.220675
-0.194348
-0.106375
0.022695
0.006962
-0.113117
-0.282641
-0.495831
-0.642238
-0.731174
-0.666639
-0.682692
-0.771628
-0.687508
-0.534680
-0.295805
0.159150
0.535763
0.804497
0.814451
0.434948
0.239417
0.279551
0.377798
0.654238
0.937420
1.181432
1.288990
1.459799
1.639597
1.958739
2.312878
2.558817
2.745678
2.724167
2.674722
2.737331
2.802829
2.706187
2.385119
2.042218
1.818433
1.643130
1.399760
1.017688
0.600620
0.268957
0.037466
-0.180539
-0.274612
-0.200445
0.052236
0.306843
0.497558
0.553424
0.543150
0.610253
0.704326
0.749276
0.880593
0.949623
0.957328
0.822801
0.482147
0.066364
-0.404644
-0.806301
-1.198967
-1.385508
-1.471233
-1.514256
-1.489855
-1.360465
-1.188372
-0.993483
-0.727959
-0.386342
-0.089033
0.129294
0.337988
0.540904
0.847845
1.225422
1.514705
1.564470
1.460444
1.260098
0.835645
0.433025
0.315835
0.395139
0.444263
0.423072
0.226899
-0.297726
-0.833911
-1.188691
-1.431419
-1.696943
-1.894079
-2.109516
-2.263629
-2.274224
-2.184967
-1.949302
-1.615712
-1.237493
-1.143741
-1.437198
-1.666120
-1.642360
-1.505585
-1.209239
-0.799555
-0.384735
-0.134944
-0.219384
-0.514125
-0.864732
-1.146951
-1.482468
-1.907241
-2.245005
-2.326557
-2.265233
-2.181755
-1.918157
-1.593557
-1.436555
-1.297853
-0.963620
-0.431610
0.075036
0.308774
0.286942
0.286942
0.300106
0.210527
0.160441
-0.138474
-0.343316
-0.614297
-1.011459
-1.286294
-1.522600
-1.593235
-1.484393
-1.242307
-1.007927
-0.708691
-0.385696
-0.055959
0.146957
0.147920
0.024309
-0.001377
0.141178
0.429818
0.742860
0.824091
0.881562
1.060076
1.096357
1.032785
1.090899
1.146123
1.140665
1.022833
0.789095
0.504949
0.114209
-0.203970
-0.289053
-0.222913
-0.070405
0.288870
0.773042
1.075488
1.316611
1.469119
1.345828
1.186899
1.000359
0.743183
0.667411
0.731624
0.914313
1.183368
1.425133
1.635754
1.696757
1.474898
1.074526
0.611866
-0.099621
-0.926373
-1.617312
-2.178540
-2.545521
-2.675233
-2.726925
-2.674590
-2.367328
-2.016721
-1.696937
-1.393527
-1.267989
-1.252578
-1.308765
-1.181621
-0.918987
-0.702587
-0.436421
-0.034122
0.446517
0.885097
1.353215
1.739781
1.882978
2.005626
2.036449
1.798858
1.519529
1.385322
1.318861
1.175665
1.100214
1.049485
0.960870
0.762450
0.435923
0.270573
0.220165
0.111644
0.190948
0.274426
0.277958
0.328044
0.365931
0.556645
0.695989
0.602237
0.520365
0.482800
0.463536
0.437850
0.398038
0.553114
0.833086
0.920095
1.139385
1.542647
1.717630
1.800144
1.603329
1.037928
0.431430
-0.216487
-0.868898
-1.306835
-1.549884
-1.592586
-1.431410
-1.146301
-0.907747
-0.816242
-0.650892
-0.462425
-0.385047
-0.193690
-0.020634
0.147927
0.318735
0.505597
0.724887
0.909181
1.140029
1.303774
1.576040
1.839637
1.950085
1.962928
1.965175
2.007878
2.022968
2.081723
1.954259
1.671398
1.235708
0.717182
0.215352
-0.267856
-0.647038
-0.939531
-1.120935
-1.073416
-0.973885
-0.668549
-0.330143
-0.074251
0.243928
0.607057
1.007429
1.294785
1.494490
1.579573
1.582142
1.509581
1.355147
1.128151
0.793598
0.321627
-0.117915
-0.388576
-0.429352
-0.655705
-0.956867
-1.177762
-1.304905
-1.485346
-1.725184
-2.030199
-2.534277
-2.875572
-2.926301
-2.838649
-2.616791
-2.229903
-1.676060
-1.134417
-0.745282
-0.382475
-0.081312
0.068627
-0.001687
-0.133325
-0.325966
-0.654419
-1.227527
-1.832741
-2.180779
-2.369888
-2.293795
-2.066478
-1.642668
-1.252891
-1.019474
-0.807248
-0.712853
-0.666940
-0.756197
-0.628091
-0.536908
-0.706753
-0.918016
-1.018510
-0.889441
-0.836785
-0.849628
-0.974524
-1.106162
-1.138589
-1.223994
-1.260916
-1.157211
-1.155606
-1.559189
-2.129407
-2.604588
-2.903182
-3.163247
-3.433587
-3.603432
-3.953717
-4.386197
-4.575948
-4.401287
-3.893356
-3.186042
-2.369565
-1.686010
-1.145331
-0.862790
-0.768396
-0.658591
-0.435769
-0.248586
-0.206205
-0.240559
-0.460491
-0.813987
-1.327697
-1.838196
-2.243705
-2.567021
-2.779890
-2.943635
-3.040597
-3.160998
-3.257961
-3.214616
-3.129212
-3.085225
-3.015554
-2.851487
-2.737508
-2.539409
-2.070970
-1.789072
-1.711694
-1.758570
-1.788429
-1.770128
-1.949284
-2.245631
-2.478726
-2.390432
-2.149952
-1.912682
-1.468323
-0.991858
-0.738856
-0.656341
-0.743993
-0.969062
-1.233943
-1.387414
-1.495614
-1.545700
-1.605098
-1.821819
-2.078995
-2.295074
-2.484826
-2.557708
-2.643433
-2.807820
-2.824516
-2.781493
-2.735259
-2.493494
-2.168573
-1.784896
-1.238758
-0.556166
0.136379
0.705954
1.243423
1.690992
2.073706
2.488527
2.914906
3.113647
3.288309
3.368255
3.278998
3.134517
2.767536
2.370053
1.949453
1.549081
1.269751
1.149351
1.083532
1.233150
1.544586
1.805615
2.199566
2.539257
2.789048
3.011870
3.006733
3.034023
3.040124
3.020539
2.916191
2.657731
2.152691
1.605269
1.144857
0.730357
0.448459
0.227564
0.068635
-0.038602
-0.063966
-0.180514
-0.264313
-0.198172
-0.160607
-0.190467
-0.234453
-0.206841
-0.069103
0.017586
0.186468
0.451029
0.783977
1.010651
1.109861
1.331720
1.568026
1.644120
1.451479
1.130410
0.803241
0.491484
0.245866
0.186469
0.403511
0.624085
0.879656
1.045006
1.098946
1.004552
0.672888
0.372689
0.188396
0.017266
-0.097355
-0.093181
-0.127214
0.096249
0.471579
0.882546
1.313099
1.784428
2.165536
2.413722
2.694336
3.007699
3.338079
3.726251
3.988564
4.278489
4.341097
3.920176
3.460085
3.058107
2.927754
3.056181
3.253638
3.288956
3.132275
2.899500
2.488532
1.930194
1.354839
0.787511
0.253896
-0.163493
-0.179547
-0.010665
0.205093
0.289856
0.309120
0.474791
0.600008
0.576570
0.407367
0.253896
-0.007132
-0.469150
-0.925067
-1.219487
-1.171969
-0.901308
-0.504788
-0.077446
0.363060
0.733894
1.018682
1.210039
1.328834
1.394654
1.421302
1.502854
1.705769
1.805621
1.714438
1.324982
0.870670
0.471903
0.051624
-0.243437
-0.439289
-0.344253
0.065110
0.474793
0.834711
1.114362
1.335899
1.295765
0.997814
0.771140
0.605468
0.459703
0.320039
0.326139
0.437550
0.856544
1.369291
1.564179
1.652473
1.760994
1.999869
2.322222
2.589351
2.597057
2.100364
1.340716
0.395169
-0.405897
-0.941760
-1.282413
-1.693381
-2.167920
-2.493484
-2.649202
-2.429912
-1.898865
-1.260901
-0.636423
0.071533
0.720734
1.145828
1.444743
1.610094
1.538174
1.510562
1.434790
1.242149
1.174404
1.344891
1.702241
1.965838
2.106145
2.113530
2.063443
2.226546
2.550183
2.998716
3.473897
3.892249
4.108650
4.248315
4.434855
4.393759
4.382842
4.219419
3.573108
2.851346
2.315161
2.040006
1.763245
1.514096
1.092212
0.319400
-0.457907
-1.081422
-1.457072
-1.528028
-1.240351
-0.669170
-0.054645
0.675786
1.228024
1.518270
1.532718
1.288385
0.931999
0.348297
-0.175366
-0.514414
-0.547163
-0.454374
-0.332689
-0.242469
-0.574775
-1.185447
-1.716173
-2.035636
-2.228598
-2.320103
-1.986513
-1.505552
-0.986705
-0.504460
-0.148716
0.188085
0.608042
1.015478
1.158354
0.988830
0.688310
0.392285
0.264499
0.341556
0.531950
0.631160
0.616712
0.520391
0.566304
0.789768
1.126569
1.506072
1.804987
2.007260
2.220128
2.266683
2.163299
2.240035
2.323834
2.321907
2.425613
2.746360
3.033074
3.257822
3.265528
2.773651
1.874659
0.876457
0.051954
-0.372820
-0.473635
-0.382452
-0.094775
0.103646
0.043927
-0.102480
-0.260446
-0.482946
-0.828737
-1.116414
-1.240668
-1.235852
-1.250621
-1.206313
-1.147236
-0.971933
-0.563855
0.172676
0.970211
1.607211
1.909336
1.977082
2.077576
2.289803
2.685359
2.954736
2.801265
2.181924
1.211334
0.101400
-0.974180
-1.815379
-2.310146
-2.521730
-2.567963
-2.397155
-2.049438
-1.523848
-0.981243
-0.559359
-0.361580
-0.595639
-0.873363
-0.897443
-0.649900
-0.123347
0.520395
1.150974
1.653767
1.999237
2.339891
2.579087
2.572345
2.380346
2.061525
1.752657
1.518598
1.321462
1.070065
0.900220
0.977598
1.024474
0.825411
0.416691
-0.213566
-0.741082
-0.996331
-1.044170
-0.978993
-0.499959
0.198365
0.833760
1.414573
1.749768
1.833888
1.647347
1.447964
1.197531
1.069745
1.099284
1.251470
1.453101
1.665007
1.819762
1.825220
1.659870
1.422600
1.421637
1.535295
1.663402
1.668539
1.433196
0.942282
0.134795
-0.746217
-1.285612
-1.459952
-1.252542
-0.968075
-0.743006
-0.664665
-0.625174
-0.486472
-0.272962
0.049070
0.449443
1.024155
1.665329
2.067307
2.087213
1.867924
1.784767
1.864071
2.009836
2.038411
1.942733
1.956539
2.042906
2.229768
2.466075
3.151235
4.059217
4.806985
5.320374
5.400320
5.180709
4.801206
4.777769
5.141860
5.594567
5.845964
5.552507
4.788043
3.555782
2.050613
0.286020
-1.420138
-2.859167
-3.981943
-4.547666
-4.666461
-4.383600
-3.727978
-2.799126
-1.691440
-0.539446
0.330650
0.641765
0.503385
0.063200
-0.480690
-1.107095
-1.836884
-2.597495
-3.346227
-3.887227
-4.445565
-5.026057
-5.385654
-5.523392
-5.446014
-5.219019
-4.674808
-3.763936
-2.597173
-1.314504
-0.226403
0.522971
1.055303
1.588597
2.222066
2.815721
3.338100
3.547116
3.403919
2.949607
2.585194
2.345677
2.023004
1.603688
1.165751
0.768589
0.195482
-0.570909
-1.239694
-1.750835
-2.025670
-2.019248
-1.656441
-1.185755
-0.772218
-0.453076
-0.261077
0.007978
0.327121
0.609340
0.851105
1.219691
1.568051
1.795688
1.874350
1.802431
1.644465
1.458888
1.244735
1.041178
0.854637
0.825099
0.906008
0.991733
0.907934
0.781755
0.741300
0.682866
0.613194
0.590077
0.632458
0.718183
0.792992
0.839868
0.959306
1.059479
1.011640
0.702772
0.031739
-0.898396
-1.914257
-2.839576
-3.395667
-3.429700
-2.837971
-1.984249
-1.146582
-0.326894
0.261946
0.670345
0.836017
0.716579
0.228234
-0.520177
-1.408252
-2.196154
-2.761877
-2.951628
-2.861087
-2.705047
-2.540981
-2.398427
-2.429892
-2.709542
-3.200777
-3.722834
-3.990926
-3.900064
-3.319251
-2.411590
-1.270513
-0.100539
0.811296
1.461459
1.977417
2.356920
2.560156
2.392237
1.898755
1.468523
1.271387
1.192083
1.044392
0.786574
0.634388
0.706628
0.765705
0.644983
0.343821
0.003809
-0.231213
-0.381152
-0.366383
-0.124939
0.072197
0.256812
0.387487
0.595860
1.115670
1.785740
2.562405
3.341317
3.979602
4.494595
4.980051
5.497293
5.750616
5.829278
5.675807
5.154713
4.388964
3.483230
2.678632
2.138274
1.969071
1.844176
1.619107
1.446051
1.309276
1.185343
1.046642
1.038294
0.936194
0.812904
0.511100
-0.226395
-0.947193
-1.528006
-1.751149
-1.811189
-1.771055
-1.841690
-2.185554
-2.706327
-3.280077
-3.673386
-3.955284
-3.958816
-3.676596
-3.378645
-2.844065
-1.920351
-0.549389
1.057238
2.539291
3.542309
3.691927
3.184317
2.179694
0.891246
-0.497696
-1.768806
-2.771503
-3.346858
-3.799886
-4.142145
-4.250987
-4.136686
-3.859283
-3.400797
-2.604226
-1.657074
-0.433482
0.731355
1.505130
2.009208
2.370089
2.661940
2.887009
3.267154
3.582765
3.716329
3.803981
3.900302
3.826135
3.604277
3.192025
2.560162
1.841932
1.062699
0.189713
-0.575714
-0.841559
-0.732395
-0.314685
0.143480
0.329378
0.122931
-0.504436
-0.956180
-1.432966
-1.819212
-1.940576
-2.026301
-2.136427
-2.265497
-2.484787
-2.898323
-3.183753
-3.391484
-3.323738
-2.853694
-2.364386
-1.868335
-1.587400
-1.519654
-1.577767
-1.804442
-1.670556
-1.484336
-1.437460
-1.601847
-1.653860
-1.736375
-1.765913
-1.289447
-0.516314
0.570182
1.446378
1.769694
1.562926
0.837953
-0.177908
-1.250598
-1.997403
-2.524597
-2.786268
-2.779847
-2.508544
-2.123583
-1.731237
-1.074009
-0.569290
-0.659510
-0.852793
-0.893248
-0.734961
-0.625476
-0.458521
-0.411003
-0.659188
-1.027133
-1.659959
-2.153441
-2.286042
-2.052304
-1.427184
-0.784726
-0.276153
-0.027004
0.164995
0.355389
0.619307
1.284882
2.243593
2.885088
2.881235
2.314549
1.477203
0.633756
-0.274547
-1.180281
-1.791917
-2.130965
-2.308837
-2.498910
-2.468408
-1.962404
-1.163264
-0.188179
0.923681
2.075996
3.099241
3.966769
4.477910
4.521575
4.591568
4.728664
4.813106
4.743434
4.251878
3.722436
3.101168
2.418256
1.580267
0.706319
0.164676
-0.057824
0.029827
0.458133
1.007160
1.497432
1.827169
2.126405
2.268317
2.401561
2.547326
2.602871
2.535768
2.368170
2.147917
1.821390
1.542703
1.467894
1.334651
1.247320
1.094171
0.814841
0.357318
-0.023148
-0.397192
-0.840588
-1.131797
-1.596062
-2.219256
-2.768604
-3.210073
-3.691676
-4.050310
-4.355004
-4.543150
-4.431097
-4.232676
-3.969721
-3.690391
-3.561964
-3.261123
-2.630223
-1.715499
-0.736882
0.127756
0.663940
0.826401
0.793010
0.535192
0.181374
-0.380174
-0.985067
-1.672154
-2.307548
-2.978582
-3.603381
-3.893948
-3.783500
-3.357763
-2.713058
-1.797691
-1.059876
-0.709590
-0.632533
-0.813937
-0.982819
-1.078176
-1.203714
-1.124089
-0.809763
-0.410675
-0.148683
0.043637
0.143811
0.027263
-0.118823
-0.182395
-0.128455
-0.008054
0.106246
0.106567
-0.146114
-0.269083
-0.323664
-0.536854
-0.591756
-0.449523
-0.333938
0.210273
1.125318
2.229473
3.085442
3.579887
3.724368
3.436691
2.875784
2.183239
1.661182
1.323097
1.056289
1.068811
1.216502
1.429692
1.580594
1.639350
1.549451
1.290348
1.197560
1.039915
0.679997
0.365992
0.124870
-0.195556
-0.512451
-0.617440
-0.642162
-0.546163
-0.511809
-0.306967
0.142850
0.445939
0.762513
1.285533
1.947577
2.465781
2.836294
3.200707
3.638324
4.014295
4.298762
4.551122
4.800271
4.691108
4.316100
3.919901
3.605254
3.460452
3.442472
3.296707
3.122688
2.913673
2.779787
2.542518
2.165262
1.629720
0.926580
0.465205
0.016993
-0.209681
-0.177574
0.135789
0.651425
1.172519
1.651232
1.847726
1.869238
1.641279
1.177014
0.814528
0.570516
0.542262
0.734582
1.038955
1.103490
1.002674
0.852414
0.733940
0.738435
0.899291
1.101564
1.301590
1.379930
1.201095
0.817097
0.231147
-0.525290
-0.976391
-1.141099
-1.120230
-0.910893
-0.547122
-0.035018
0.296967
0.486718
0.652069
0.715961
0.625420
0.580150
0.629273
0.832831
1.201096
1.578031
2.042617
2.402856
2.575912
2.398682
1.831354
1.404975
1.342367
1.285859
0.931720
0.482224
0.056488
-0.451764
-0.979600
-1.379009
-1.764613
-2.043300
-2.185212
-2.108477
-1.454139
-0.626425
0.122949
0.754170
1.040242
1.322462
1.457631
1.313472
1.083908
0.824806
0.661061
0.642118
0.795910
0.972818
1.209446
1.564869
1.910981
2.203474
2.477346
2.919136
3.198466
3.188513
2.960554
2.562750
2.197695
1.773564
1.372228
0.679363
