EVENT_NAME: 202302060117
EVENT_ID: 13194
EVENT_DATE_YYYYMMDD: 2023/02/06
EVENT_TIME_HHMMSS: 01:17:32.00000
EVENT_LATITUDE_DEGREE: 37.288
EVENT_LONGITUDE_DEGREE: 37.043
EVENT_DEPTH_KM: 8.6
HYPOCENTER_REFERENCE: AFAD
MAGNITUDE_W: 7.7
MAGNITUDE_W_REFERENCE: AFAD
MAGNITUDE_L: 
MAGNITUDE_L_REFERENCE: 
FOCAL_MECHANISM: 
NETWORK: TK
STATION_CODE: 3307
STATION_NAME: 
STATION_LATITUDE_DEGREE: 36.08189
STATION_LONGITUDE_DEGREE: 32.84224
STATION_ELEVATION_M: 44.0
LOCATION: Kahramanmaras_Pazarck_Turkiye
SENSOR_DEPTH_M: 
VS30_M/S: 855
SITE_CLASSIFICATION_EC8: A
MORPHOLOGIC_CLASSIFICATION: 
EPICENTRAL_DISTANCE_KM: 397.82
EARTHQUAKE_BACKAZIMUTH_DEGREE: 
DATE_TIME_FIRST_SAMPLE_YYYYMMDD_HHMMSS: 2023/02/06 01:18:02.6902290
DATE_TIME_FIRST_SAMPLE_PRECISION: millisecond
SAMPLING_INTERVAL_S: 0.01
NDATA: 21001
DURATION_S: 
STREAM: HNN
UNITS: cm/s^2
INSTRUMENT: sensor = GMS+/GEOSIG | digitizer = 
INSTRUMENT_ANALOG/DIGITAL: 
INSTRUMENTAL_FREQUENCY_HZ: 
INSTRUMENTAL_DAMPING: 
FULL_SCALE_G: 
N_BIT_DIGITAL_CONVERTER: 
PGA_CM/S^2: 3.078
TIME_PGA_S: 
BASELINE_CORRECTION: BASELINE REMOVED
FILTER_TYPE: BUTTERWORTH
FILTER_ORDER: 
LOW_CUT_FREQUENCY_HZ: 
HIGH_CUT_FREQUENCY_HZ: 
LATE/NORMAL_TRIGGERED: 
DATABASE_VERSION: 
HEADER_FORMAT: DYNA 1.2
DATA_TYPE: Acceleration
PROCESSING: Automatic Paolucci et al., 2011
DATA_TIMESTAMP_YYYYMMDD_HHMMSS: 
DATA_LICENSE: U (unknown license)
DATA_CITATION: Turkish Accelerometric Archive v 1.0 - Disaster And Emergency Management Presidency, Earthquake Department
DATA_CREATOR: AFAD
ORIGINAL_DATA_MEDIATOR_CITATION: : AFAD - Disaster And Emergency Management Presidency
ORIGINAL_DATA_MEDIATOR: AFAD PROCESS SERVICE
ORIGINAL_DATA_CREATOR_CITATION: AFAD PROCESS SERVICE
ORIGINAL_DATA_CREATOR: network: TK
USER1: GuestUser
USER2: 
USER3: 
USER4: 
USER5: 
[...]
-0.142920
-0.082393
-0.079016
-0.058754
-0.016931
0.011384
0.059961
0.057624
0.104902
0.293494
0.490658
0.620282
0.660547
0.628076
0.579500
0.559758
0.526508
0.480789
0.480529
0.466243
0.440526
0.463126
0.529107
0.589893
0.630418
0.690944
0.747833
0.852780
0.965260
0.961104
0.901098
0.845508
0.855639
0.862913
0.770436
0.659515
0.552231
0.464690
0.422088
0.380786
0.287529
0.148814
0.037114
-0.040557
-0.133813
-0.260579
-0.419557
-0.612304
-0.806870
-0.947145
-1.048194
-1.119630
-1.150282
-1.205612
-1.304324
-1.431870
-1.566948
-1.664101
-1.740992
-1.828274
-1.875551
-1.809310
-1.704623
-1.630330
-1.521486
-1.356533
-1.207686
-1.118585
-1.038057
-0.955450
-0.880897
-0.821669
-0.765559
-0.637493
-0.461630
-0.273558
-0.051456
0.116615
0.165971
0.165192
0.181557
0.234291
0.258709
0.172467
0.052714
0.012710
0.001540
-0.025475
-0.046516
-0.072752
-0.083662
-0.062880
-0.011186
0.050119
0.071421
0.059472
0.008038
-0.080802
-0.138211
-0.150419
-0.144185
-0.109635
-0.029886
0.085711
0.219492
0.285473
0.239235
0.197412
0.192737
0.242613
0.339766
0.412502
0.522644
0.662659
0.801895
0.935935
1.025296
1.073093
1.068158
1.033869
1.003996
0.971785
0.888400
0.745009
0.614346
0.523427
0.393803
0.260283
0.223137
0.221059
0.249634
0.325226
0.371985
0.353022
0.275092
0.205994
0.165731
0.105205
0.023638
-0.076112
-0.146249
-0.142612
-0.072994
-0.003636
0.011951
0.065983
0.161578
0.261848
0.341338
0.347053
0.291203
0.158982
-0.004412
-0.123126
-0.168065
-0.168325
-0.119748
-0.047012
-0.000513
0.042868
0.010397
-0.052466
-0.106238
-0.197156
-0.238978
-0.195597
-0.132992
-0.101300
-0.056620
-0.056360
-0.179490
-0.383667
-0.596157
-0.749160
-0.837480
-0.875406
-0.918787
-0.924761
-0.828907
-0.714089
-0.625767
-0.554331
-0.494584
-0.429382
-0.376908
-0.329630
-0.260272
-0.198707
-0.113243
-0.042066
-0.019726
0.047295
0.174841
0.312778
0.395645
0.435130
0.443183
0.435390
0.464485
0.450457
0.371748
0.279531
0.125489
-0.095314
-0.347288
-0.571208
-0.717717
-0.810973
-0.820324
-0.755901
-0.662904
-0.576401
-0.541332
-0.509640
-0.419500
-0.328062
-0.313514
-0.338452
-0.407030
-0.485999
-0.519769
-0.537433
-0.493531
-0.373518
-0.219476
-0.054782
0.119782
0.263954
0.410983
0.570740
0.606848
0.594899
0.593601
0.503202
0.335652
0.123682
-0.063351
-0.193754
-0.281296
-0.303116
-0.298699
-0.283892
-0.288568
-0.323636
-0.327013
-0.333247
-0.315842
-0.201544
-0.073738
0.013545
0.094852
0.179797
0.235647
0.226556
0.188110
0.169407
0.180578
0.179020
0.172006
0.204737
0.188112
0.095116
-0.044639
-0.194265
-0.339994
-0.502609
-0.662106
-0.879791
-1.059031
-1.180861
-1.354126
-1.471281
-1.529209
-1.514922
-1.411274
-1.327888
-1.248918
-1.164493
-1.132801
-1.159297
-1.185793
-1.180857
-1.125527
-1.052272
-1.002915
-0.916672
-0.862900
-0.889656
-0.906021
-0.937972
-0.997978
-1.013304
-0.976157
-0.954596
-0.973818
-0.981611
-0.969921
-0.986546
-0.988364
-0.947580
-0.930175
-0.950956
-0.968100
-0.947578
-0.899781
-0.817434
-0.737945
-0.657416
-0.507790
-0.355306
-0.252957
-0.176325
-0.037608
0.135138
0.245280
0.320093
0.318275
0.293857
0.335940
0.416988
0.494919
0.573109
0.678835
0.737543
0.729490
0.688707
0.621168
0.482192
0.271001
0.116180
0.054096
0.086827
0.191514
0.311007
0.420370
0.438814
0.442970
0.516225
0.497263
0.438815
0.436997
0.416995
0.408683
0.432842
0.533372
0.690532
0.831587
0.914972
0.904582
0.859383
0.803273
0.779375
0.778336
0.778596
0.751061
0.629750
0.530519
0.416741
0.259322
0.119567
-0.063049
-0.193712
-0.277097
-0.340740
-0.341519
-0.361781
-0.381783
-0.350610
-0.257093
-0.117857
0.002416
0.082165
0.137236
0.170486
0.222700
0.342973
0.460908
0.536761
0.571830
0.606119
0.652098
0.613913
0.529748
0.468444
0.397787
0.244784
0.054115
-0.120969
-0.327484
-0.509061
-0.600759
-0.614266
-0.620501
-0.618422
-0.623098
-0.644138
-0.613745
-0.605432
-0.632708
-0.696350
-0.747265
-0.707260
-0.684660
-0.674009
-0.621536
-0.534513
-0.430086
-0.345921
-0.272666
-0.258898
-0.306695
-0.346439
-0.352413
-0.302278
-0.282016
-0.316305
-0.301757
-0.239932
-0.147195
-0.055236
-0.016011
-0.068484
-0.190055
-0.218369
-0.151089
-0.038609
0.122447
0.210249
0.259086
0.324028
0.358058
0.376762
0.393647
0.433392
0.464824
0.500153
0.525870
0.490282
0.460409
0.368712
0.230515
0.113620
-0.000418
-0.061463
-0.091076
-0.073152
-0.068216
-0.107700
-0.149003
-0.184071
-0.151600
-0.119129
-0.097567
-0.074448
-0.079383
-0.064576
-0.038859
-0.003270
0.037774
0.010498
-0.055742
-0.104838
-0.156012
-0.173416
-0.176793
-0.230824
-0.334731
-0.447210
-0.520984
-0.533712
-0.490071
-0.456560
-0.487472
-0.595535
-0.691909
-0.732173
-0.770358
-0.782307
-0.799452
-0.758668
-0.664631
-0.604884
-0.441490
-0.240689
-0.108207
-0.003261
0.048434
0.073112
0.086101
0.133379
0.226896
0.323010
0.427437
0.528487
0.653955
0.779424
0.838131
0.857355
0.845665
0.851900
0.871123
0.781764
0.665648
0.571092
0.446404
0.353667
0.296519
0.300935
0.345356
0.341200
0.281973
0.193133
0.147154
0.133387
0.115723
0.125335
0.164560
0.214176
0.276001
0.357049
0.412640
0.421992
0.343542
0.171576
0.011559
-0.093906
-0.186643
-0.304058
-0.421472
-0.528496
-0.627468
-0.670849
-0.658379
-0.620972
-0.584605
-0.575512
-0.530312
-0.429262
-0.369515
-0.408221
-0.466148
-0.451341
-0.404063
-0.286388
-0.139099
-0.044024
0.076769
0.117033
0.084303
0.057027
-0.077013
-0.270539
-0.497576
-0.709287
-0.832936
-0.927491
-0.964118
-0.965676
-0.932426
-0.844884
-0.769291
-0.637848
-0.463024
-0.321710
-0.175200
-0.028431
0.132366
0.296280
0.404603
0.484612
0.550853
0.579947
0.574233
0.548256
0.521241
0.476042
0.459936
0.486953
0.440974
0.401230
0.363824
0.239655
0.182246
0.163024
0.110032
0.094186
0.038336
-0.066609
-0.123498
-0.165580
-0.205584
-0.257018
-0.345339
-0.414437
-0.406903
-0.315984
-0.228182
-0.166617
-0.115442
-0.092582
-0.100375
-0.103232
-0.081671
-0.104011
-0.134663
-0.142196
-0.134922
-0.105828
-0.168691
-0.327929
-0.445863
-0.448460
-0.375725
-0.258309
-0.086343
0.047438
0.116796
0.155502
0.183038
0.255254
0.316040
0.292661
0.208756
0.173688
0.245644
0.325653
0.366437
0.374490
0.347474
0.306172
0.248763
0.244867
0.376570
0.556589
0.690890
0.745701
0.736609
0.736610
0.710114
0.674526
0.683618
0.649069
0.588284
0.561009
0.472168
0.277862
0.054203
-0.161145
-0.346878
-0.503258
-0.671588
-0.821733
-0.884077
-0.836799
-0.679379
-0.444549
-0.194392
0.032386
0.213185
0.333717
0.409050
0.437625
0.382814
0.331640
0.299689
0.196822
0.090317
-0.044242
-0.212052
-0.325311
-0.411294
-0.432075
-0.360119
-0.243742
-0.108143
0.011610
0.107465
0.192669
0.263846
0.290602
0.229557
0.098375
-0.074890
-0.227114
-0.282184
-0.262441
-0.218021
-0.205032
-0.198018
-0.164248
-0.126321
-0.123464
-0.211784
-0.327640
-0.398817
-0.399076
-0.347382
-0.276984
-0.211782
-0.211522
-0.231264
-0.255942
-0.329456
-0.426089
-0.541686
-0.724562
-0.945364
-1.088236
-1.181752
-1.239420
-1.214742
-1.130577
-0.963806
-0.779890
-0.597792
-0.400628
-0.276978
-0.209438
-0.150990
-0.116960
-0.106309
-0.065265
-0.027859
-0.030456
-0.015909
-0.017207
-0.053055
-0.109164
-0.182938
-0.231774
-0.272557
-0.295416
-0.296975
-0.351006
-0.388932
-0.328146
-0.187871
-0.026814
0.116838
0.264906
0.385698
0.468305
0.509089
0.499477
0.438952
0.327772
0.225683
0.157364
0.125673
0.089306
0.077097
0.164120
0.275041
0.386222
0.502598
0.597934
0.638717
0.560528
0.402070
0.215297
0.030602
-0.119803
-0.235400
-0.307355
-0.345800
-0.355931
-0.338007
-0.254621
-0.074601
0.090352
0.215820
0.363109
0.489097
0.601057
0.703666
0.785753
0.856929
0.882647
0.848098
0.764713
0.700291
0.664443
0.631453
0.697694
0.822643
0.880052
0.902652
0.889144
0.852517
0.824722
0.827580
0.895900
0.938502
0.948373
0.979026
1.028902
1.067608
1.063712
1.052542
1.042152
1.046568
1.000070
0.854860
0.626784
0.343637
0.134524
0.021006
-0.012504
-0.007308
0.007759
0.061272
0.108290
0.160763
0.152971
-0.001331
-0.181610
-0.294089
-0.384748
-0.398255
-0.326819
-0.295906
-0.283696
-0.288892
-0.317985
-0.335649
-0.368379
-0.372016
-0.330972
-0.313827
-0.318503
-0.326815
-0.406304
-0.497742
-0.535148
-0.632041
-0.761925
-0.849726
-0.921421
-0.968439
-1.019873
-1.065592
-1.075462
-1.075202
-1.092866
-1.160146
-1.171575
-1.078578
-0.985061
-0.876738
-0.751789
-0.589434
-0.368111
-0.196924
-0.061065
0.077392
0.227019
0.413532
0.561081
0.641609
0.641869
0.575889
0.510687
0.468865
0.437433
0.294042
0.094800
-0.013523
-0.120287
-0.218479
-0.264717
-0.324204
-0.332516
-0.260040
-0.191981
-0.103400
-0.006246
0.057917
0.148316
0.230923
0.244951
0.208064
0.168060
0.145720
0.102080
0.061816
0.026748
-0.054299
-0.107811
-0.117422
-0.156907
-0.233278
-0.310169
-0.343939
-0.367058
-0.369395
-0.355627
-0.332508
-0.228860
-0.087805
0.047014
0.122607
0.165729
0.199499
0.202097
0.258727
0.318734
0.357959
0.362116
0.288342
0.193267
0.115857
0.058188
-0.020001
-0.081306
-0.138455
-0.261844
-0.417445
-0.611231
-0.844762
-1.047901
-1.221166
-1.363258
-1.431577
-1.452618
-1.459631
-1.441967
-1.380921
-1.286625
-1.178561
-1.076991
-1.012309
-0.983214
-0.973862
-0.952301
-0.881384
-0.788647
-0.688896
-0.575636
-0.456403
-0.331973
-0.264693
-0.221571
-0.143381
-0.072724
-0.029342
-0.014535
-0.044408
-0.148055
-0.275861
-0.393016
-0.502897
-0.573554
-0.593555
-0.594075
-0.634079
-0.663432
-0.660314
-0.679797
-0.726814
-0.788899
-0.814355
-0.816433
-0.868386
-0.913326
-0.934627
-0.977488
-0.996970
-1.022167
-1.077238
-1.123216
-1.134646
-1.107630
-1.075418
-1.030738
-0.958262
-0.854874
-0.755123
-0.671218
-0.598482
-0.549646
-0.513018
-0.543930
-0.622639
-0.735378
-0.889940
-1.009952
-1.097234
-1.137498
-1.159578
-1.178281
-1.137756
-1.026835
-0.868896
-0.744207
-0.614063
-0.415860
-0.235321
-0.126737
-0.058678
-0.008282
-0.001268
-0.082316
-0.221551
-0.347018
-0.472486
-0.576133
-0.667311
-0.769919
-0.819794
-0.797714
-0.730693
-0.728615
-0.814598
-0.896944
-0.946299
-0.981627
-1.003707
-1.001889
-0.997992
-0.989679
-1.013317
-1.016694
-0.962402
-0.935646
-0.908110
-0.874600
-0.839011
-0.810696
-0.837192
-0.872520
-0.879274
-0.880313
-0.908627
-0.938760
-0.948630
-0.916679
-0.814330
-0.730684
-0.707045
-0.710941
-0.719773
-0.713798
-0.676391
-0.613267
-0.561833
-0.537414
-0.566508
-0.589627
-0.582353
-0.572481
-0.530658
-0.478445
-0.390903
-0.270890
-0.158929
-0.078401
-0.024888
0.073824
0.154872
0.155911
0.068370
-0.154771
-0.365962
-0.469089
-0.536369
-0.551175
-0.513768
-0.419472
-0.295562
-0.189057
-0.103333
-0.113984
-0.164898
-0.206720
-0.249062
-0.204382
-0.097876
0.053828
0.209430
0.366330
0.600901
0.826120
1.000944
1.123815
1.186159
1.241230
1.309030
1.350334
1.292925
1.160184
1.059394
0.992894
0.923537
0.872363
0.829501
0.805863
0.818592
0.819112
0.778328
0.703515
0.590517
0.400107
0.170473
-0.024093
-0.219698
-0.391404
-0.484661
-0.525444
-0.527781
-0.525703
-0.574019
-0.655846
-0.701045
-0.688316
-0.644415
-0.583629
-0.507517
-0.466473
-0.472188
-0.464914
-0.427247
-0.324898
-0.205145
-0.124617
-0.026944
0.063196
0.158531
0.328160
0.481943
0.515713
0.516233
0.596242
0.712878
0.757559
0.699371
0.564812
0.390508
0.279587
0.228933
0.152821
0.043719
-0.092399
-0.206697
-0.256312
-0.211632
-0.099671
0.015926
0.186593
0.422723
0.607158
0.655476
0.637812
0.655736
0.703014
0.777828
0.886411
0.956549
0.919662
0.805624
0.712108
0.735747
0.844850
0.927457
1.035520
1.188005
1.308018
1.429070
1.501026
1.480245
1.382832
1.171641
0.915510
0.704319
0.583528
0.540666
0.573138
0.699385
0.815502
0.917591
1.073192
1.250614
1.384914
1.408034
1.370108
1.314778
1.214248
1.096314
0.963573
0.827455
0.767968
0.798621
0.849796
0.909543
0.947729
0.908245
0.867461
0.882788
0.905648
0.880451
0.813431
0.729267
0.612112
0.538078
0.504568
0.458590
0.466383
0.523013
0.646923
0.814993
0.988778
1.221011
1.474804
1.708336
1.895369
1.981353
1.939790
1.824973
1.696908
1.525981
1.307776
1.129056
1.008524
0.891369
0.772396
0.659397
0.587182
0.551854
0.533670
0.540944
0.566662
0.601731
0.614460
0.613681
0.601732
0.566923
0.533673
0.518867
0.523543
0.496268
0.416000
0.316249
0.195457
0.086355
0.004009
-0.073921
-0.110808
-0.083532
-0.008199
0.116230
0.240140
0.338073
0.459904
0.574203
0.645379
0.660187
0.624599
0.571866
0.557839
0.658889
0.790592
0.848261
0.814231
0.736561
0.690842
0.643565
0.566934
0.464066
0.332883
0.226119
0.186115
0.173387
0.137279
0.073637
0.005838
-0.030270
-0.014943
-0.034425
-0.151580
-0.271073
-0.345367
-0.373421
-0.364849
-0.358094
-0.419139
-0.536035
-0.570324
-0.538891
-0.469273
-0.413942
-0.473169
-0.562789
-0.695790
-0.869314
-1.037124
-1.216883
-1.328063
-1.386511
-1.407292
-1.405993
-1.453270
-1.469116
-1.409369
-1.336114
-1.230907
-1.057122
-0.922302
-0.891909
-0.899442
-0.952175
-1.051406
-1.117646
-1.072187
-0.910351
-0.727474
-0.574470
-0.480434
-0.416531
-0.308986
-0.167412
-0.023241
0.090538
0.199900
0.300171
0.406676
0.564875
0.726971
0.921537
1.179487
1.495365
1.813062
2.043736
2.205832
2.377798
2.638086
2.896556
3.042546
3.077615
3.002282
2.883049
2.746931
2.634452
2.533922
2.414169
2.343772
2.281429
2.242204
2.226618
2.154143
2.016986
1.839565
1.722930
1.636167
1.510960
1.364711
1.168067
0.945186
0.694510
0.378633
0.088732
-0.119861
-0.328454
-0.493926
-0.601210
-0.690830
-0.688491
-0.654461
-0.626146
-0.572374
-0.551333
-0.578088
-0.644589
-0.710569
-0.793175
-0.941502
-1.060995
-1.127755
-1.152173
-1.097102
-1.077359
-1.162043
-1.321281
-1.524419
-1.684176
-1.774315
-1.763404
-1.661055
-1.520001
-1.247764
-0.867463
-0.475473
-0.044778
0.409297
0.820770
1.147818
1.439278
1.728140
1.931539
1.961932
1.858025
1.733337
1.593842
1.422135
1.301084
1.282901
1.355116
1.495391
1.599559
1.634108
1.720611
1.870498
2.020644
2.117278
2.079092
1.930765
1.805817
1.731004
1.670738
1.652035
1.626838
1.561897
1.472017
1.434092
1.525530
1.645024
1.736462
1.812055
1.912586
1.991036
1.906092
1.696979
1.425262
1.138739
0.884686
0.642323
0.451134
0.311639
0.154999
-0.022162
-0.179062
-0.260109
-0.262187
-0.228416
-0.164773
-0.095674
-0.029433
-0.010989
-0.120351
-0.309722
-0.520133
-0.751327
-0.940177
-1.064866
-1.196048
-1.324113
-1.485169
-1.624664
-1.582062
-1.422564
-1.226179
-1.043562
-0.833929
-0.514674
-0.194120
0.102535
0.322040
0.377370
0.371396
0.312169
0.220731
0.176831
0.139165
0.125398
0.094486
0.033700
0.047988
0.097084
0.133712
0.135531
0.099683
0.098125
0.153975
0.234763
0.299186
0.378416
0.448813
0.486740
0.558176
0.621820
0.663383
0.653512
0.542851
0.424917
0.356598
0.311659
0.263342
0.201258
0.171645
0.235288
0.383097
0.547530
0.650918
0.750409
0.906270
1.079796
1.236696
1.276960
1.215655
1.080057
0.818731
0.529350
0.296338
0.106968
-0.050192
-0.116952
-0.059543
0.056314
0.152948
0.237633
0.336085
0.390377
0.399989
0.398690
0.399470
0.374533
0.280237
0.110609
-0.139028
-0.429188
-0.731558
-1.011587
-1.267978
-1.475532
-1.613468
-1.725947
-1.764653
-1.770367
-1.751923
-1.644898
-1.476828
-1.193941
-0.834941
-0.564782
-0.466070
-0.530232
-0.725577
-1.015998
-1.312652
-1.574758
-1.825953
-2.019480
-2.084941
-1.992983
-1.716070
-1.301220
-0.836235
-0.371770
0.036326
0.390390
0.673797
0.856934
0.992533
1.081894
1.136445
1.207882
1.283474
1.280877
1.150474
0.966559
0.764719
0.478975
0.071919
-0.436187
-0.940916
-1.341997
-1.691125
-1.978947
-2.105454
-2.087530
-1.994272
-1.944656
-1.914263
-1.817889
-1.690083
-1.525649
-1.364333
-1.161714
-0.851551
-0.508657
-0.184726
0.031661
0.100760
0.078160
0.017635
-0.039774
-0.114846
-0.195374
-0.237196
-0.237196
-0.150173
-0.049123
-0.013015
0.011663
0.007507
0.010365
0.006469
-0.022885
-0.002103
0.055046
0.204933
0.424957
0.592248
0.715118
0.757980
0.679531
0.549647
0.389630
0.212729
0.055829
-0.075613
-0.181858
-0.291999
-0.400062
-0.463186
-0.479291
-0.467081
-0.412010
-0.339275
-0.295374
-0.251992
-0.170684
0.011413
0.330409
0.726295
1.047369
1.180630
1.205048
1.232584
1.285058
1.347402
1.472611
1.689258
1.921750
2.136059
2.327508
2.460770
2.487007
2.382580
2.181001
1.984616
1.809793
1.582496
1.319092
0.998019
0.645255
0.370940
0.232744
0.230926
0.305739
0.390164
0.387047
0.285478
0.150659
0.038180
-0.051959
-0.198208
-0.341600
-0.413555
-0.427063
-0.413035
-0.426023
-0.439530
-0.452778
-0.428619
-0.311724
-0.117936
0.103386
0.261066
0.360297
0.422122
0.450178
0.431735
0.339258
0.196645
-0.006233
-0.221321
-0.420562
-0.607075
-0.676433
-0.668120
-0.656950
-0.582136
-0.459525
-0.307561
-0.134295
0.058193
0.314584
0.643970
0.979331
1.190783
1.297028
1.408469
1.472372
1.425095
1.330020
1.263260
1.269495
1.267677
1.233128
1.221439
1.162991
1.140651
1.147925
1.068696
0.969725
0.845556
0.741650
0.742949
0.843219
0.942711
0.948946
0.914916
0.855430
0.781916
0.754641
0.821661
0.930244
1.033373
1.197546
1.365876
1.464588
1.498878
1.524336
1.586680
1.639673
1.663053
1.653701
1.646688
1.630323
1.590319
1.597593
1.655781
1.746181
1.841256
1.944384
2.049851
2.070892
1.972440
1.752417
1.437839
1.140145
0.859856
0.527613
0.206540
-0.027510
-0.164148
-0.270912
-0.360532
-0.491195
-0.696411
-0.847076
-1.000079
-1.085543
-1.010729
-0.851751
-0.550939
-0.189082
0.148097
0.393318
0.476185
0.512552
0.522164
0.504241
0.529698
0.582691
0.622436
0.619579
0.576458
0.517491
0.458004
0.390205
0.291753
0.163948
0.062639
0.021856
-0.013473
-0.036332
-0.043605
-0.107767
-0.235313
-0.385459
-0.523395
-0.624964
-0.654837
-0.562619
-0.332724
-0.006975
0.315917
0.545033
0.704790
0.817270
0.859873
0.864289
0.861432
0.797789
0.609198
0.386317
0.215390
0.120835
0.081091
0.008097
-0.059962
-0.147504
-0.306741
-0.487799
-0.644439
-0.691197
-0.636385
-0.533257
-0.401814
-0.263357
-0.174257
-0.121264
-0.017096
0.140063
0.400351
0.710774
0.964048
1.184072
1.377080
1.534759
1.622561
1.704908
1.841806
1.964936
2.014033
1.962599
1.821286
1.551128
1.154462
0.744549
0.423996
0.197218
0.017979
-0.112944
-0.150090
-0.102552
-0.055534
0.023436
0.169685
0.372045
0.611551
0.774426
0.856513
0.895998
0.868983
0.764297
0.619346
0.527908
0.519596
0.554925
0.614672
0.656755
0.655196
0.709488
0.811577
0.925876
1.050305
1.061995
0.956529
0.772874
0.536485
0.359324
0.269185
0.210218
0.165798
0.101895
0.041629
0.000067
-0.102801
-0.195538
-0.228528
-0.216578
-0.151896
-0.051885
0.045788
0.057478
0.009681
-0.102798
-0.240215
-0.283076
-0.285674
-0.308533
-0.372695
-0.447508
-0.472965
-0.448806
-0.331650
-0.070064
0.285559
0.627674
0.920432
1.177603
1.398406
1.539460
1.556346
1.489586
1.376067
1.236572
1.076296
0.880691
0.662226
0.450256
0.265561
0.112299
0.026835
-0.026417
-0.073434
-0.044860
0.076193
0.266083
