EVENT_NAME: 202302060117
EVENT_ID: 13194
EVENT_DATE_YYYYMMDD: 2023/02/06
EVENT_TIME_HHMMSS: 01:17:32.00000
EVENT_LATITUDE_DEGREE: 37.288
EVENT_LONGITUDE_DEGREE: 37.043
EVENT_DEPTH_KM: 8.6
HYPOCENTER_REFERENCE: AFAD
MAGNITUDE_W: 7.7
MAGNITUDE_W_REFERENCE: AFAD
MAGNITUDE_L: 
MAGNITUDE_L_REFERENCE: 
FOCAL_MECHANISM: 
NETWORK: TK
STATION_CODE: 99005
STATION_NAME: 
STATION_LATITUDE_DEGREE: 35.3404
STATION_LONGITUDE_DEGREE: 33.32231
STATION_ELEVATION_M: 23.0
LOCATION: Kahramanmaras_Pazarck_Turkiye
SENSOR_DEPTH_M: 
VS30_M/S: 457
SITE_CLASSIFICATION_EC8: B
MORPHOLOGIC_CLASSIFICATION: 
EPICENTRAL_DISTANCE_KM: 397.48
EARTHQUAKE_BACKAZIMUTH_DEGREE: 
DATE_TIME_FIRST_SAMPLE_YYYYMMDD_HHMMSS: 2023/02/06 01:18:02.6480630
DATE_TIME_FIRST_SAMPLE_PRECISION: millisecond
SAMPLING_INTERVAL_S: 0.01
NDATA: 21001
DURATION_S: 
STREAM: HNZ
UNITS: cm/s^2
INSTRUMENT: sensor = CMG-5T/GURALP | digitizer = 
INSTRUMENT_ANALOG/DIGITAL: 
INSTRUMENTAL_FREQUENCY_HZ: 
INSTRUMENTAL_DAMPING: 
FULL_SCALE_G: 
N_BIT_DIGITAL_CONVERTER: 
PGA_CM/S^2: 3.216
TIME_PGA_S: 
BASELINE_CORRECTION: BASELINE REMOVED
FILTER_TYPE: BUTTERWORTH
FILTER_ORDER: 
LOW_CUT_FREQUENCY_HZ: 
HIGH_CUT_FREQUENCY_HZ: 
LATE/NORMAL_TRIGGERED: 
DATABASE_VERSION: 
HEADER_FORMAT: DYNA 1.2
DATA_TYPE: Acceleration
PROCESSING: Automatic Paolucci et al., 2011
DATA_TIMESTAMP_YYYYMMDD_HHMMSS: 
DATA_LICENSE: U (unknown license)
DATA_CITATION: Turkish Accelerometric Archive v 1.0 - Disaster And Emergency Management Presidency, Earthquake Department
DATA_CREATOR: AFAD
ORIGINAL_DATA_MEDIATOR_CITATION: : AFAD - Disaster And Emergency Management Presidency
ORIGINAL_DATA_MEDIATOR: AFAD PROCESS SERVICE
ORIGINAL_DATA_CREATOR_CITATION: AFAD PROCESS SERVICE
ORIGINAL_DATA_CREATOR: network: TK
USER1: GuestUser
USER2: 
USER3: 
USER4: 
USER5: 
[...]
0.262534
0.244755
0.049764
-0.272409
-0.486387
-0.371258
0.039224
0.406910
0.457544
0.244470
0.038630
0.030494
0.077512
-0.051477
-0.436036
-0.899556
-1.161152
-1.221426
-1.288631
-1.385372
-1.297367
-0.992067
-0.685863
-0.456812
-0.123785
0.352096
0.723097
0.762580
0.544986
0.332515
0.375313
0.661023
0.820455
0.628478
0.182438
-0.232560
-0.379330
-0.336833
-0.381134
-0.624346
-0.910353
-0.940791
-0.629764
-0.265695
-0.110784
-0.178592
-0.282868
-0.253632
-0.119515
0.010080
0.115264
0.103211
-0.048080
-0.127341
0.011598
0.176756
0.159579
0.049578
0.079115
0.199971
0.126737
-0.079405
-0.255710
-0.376862
-0.501933
-0.607414
-0.656235
-0.603793
-0.443156
-0.281312
-0.137251
0.012537
0.147859
0.258166
0.293430
0.174990
0.024603
-0.070932
-0.162248
-0.296963
-0.447651
-0.519377
-0.537458
-0.552525
-0.597429
-0.636003
-0.607973
-0.507912
-0.264395
0.039699
0.320889
0.527336
0.640959
0.633728
0.454409
0.093357
-0.318024
-0.594990
-0.869545
-1.279420
-1.557290
-1.459943
-1.203165
-1.019019
-0.950303
-0.838790
-0.558504
-0.239944
-0.089252
-0.091359
-0.206484
-0.327034
-0.365910
-0.332756
-0.331247
-0.321601
-0.269159
-0.243841
-0.196823
-0.058186
0.169056
0.342955
0.307997
0.155199
0.055444
0.027719
0.047010
0.070218
0.137428
0.279079
0.383358
0.326098
0.145574
-0.045198
-0.248024
-0.477975
-0.592196
-0.562056
-0.508710
-0.449034
-0.213052
0.251980
0.740519
1.074751
1.208868
1.192294
1.063305
0.881274
0.670009
0.490388
0.440060
0.476529
0.525957
0.547056
0.582018
0.695942
0.899074
1.108234
1.284242
1.343917
1.230601
1.002157
0.733026
0.412661
0.002485
-0.460734
-0.799483
-0.935102
-1.011951
-1.028525
-0.917615
-0.706949
-0.524009
-0.373618
-0.131005
0.206543
0.509130
0.658617
0.790322
0.903643
0.905453
0.800877
0.642051
0.545913
0.642960
0.861462
0.940727
0.707763
0.276189
0.008565
-0.028201
-0.058940
-0.248204
-0.447414
-0.503770
-0.476041
-0.497136
-0.591466
-0.687302
-0.740343
-0.723464
-0.566744
-0.197853
0.323537
0.795500
1.044141
1.055294
1.041432
1.169220
1.319912
1.257528
0.950725
0.560139
0.196677
-0.196019
-0.584195
-0.865983
-0.966039
-0.853924
-0.688162
-0.614624
-0.656513
-0.716486
-0.655002
-0.451870
-0.097144
0.363066
0.771739
1.049614
1.099343
0.962820
0.829311
0.823888
0.791341
0.613529
0.326015
-0.013337
-0.282166
-0.500363
-0.781850
-1.070871
-1.218847
-1.192926
-1.057001
-0.959051
-0.953925
-0.942772
-0.828848
-0.683280
-0.598288
-0.479542
-0.284849
-0.093470
-0.028672
-0.153140
-0.376159
-0.484955
-0.407799
-0.211900
0.022576
0.370069
0.773016
0.983984
0.955054
0.808585
0.672062
0.510826
0.263094
-0.005735
-0.165465
-0.329112
-0.633805
-0.907155
-0.898412
-0.686239
-0.463517
-0.313428
-0.177503
-0.037058
-0.033138
-0.135906
-0.239579
-0.217275
-0.080446
0.157948
0.410205
0.557582
0.663067
0.867103
1.134128
1.396029
1.639245
1.726949
1.522917
1.037998
0.495818
0.131451
0.005175
-0.095785
-0.320311
-0.587332
-0.815474
-1.004437
-1.187072
-1.299786
-1.226247
-1.002018
-0.727760
-0.335964
0.203508
0.658594
0.805067
0.699888
0.519966
0.343359
0.202918
0.131493
0.128481
0.138128
0.094128
0.109501
0.231562
0.316252
0.255074
0.047124
-0.102359
-0.172880
-0.194577
-0.206027
-0.337427
-0.561652
-0.631871
-0.443808
-0.089985
0.300906
0.534478
0.615250
0.739421
0.984445
1.326212
1.676719
1.911496
1.950979
1.796674
1.573354
1.392227
1.278006
1.236417
1.252694
1.348233
1.550160
1.645097
1.520026
1.231005
1.007685
0.968809
1.051992
1.063446
0.973938
0.930843
0.889858
0.840735
0.883834
0.938085
0.816932
0.519472
0.192477
-0.019090
-0.127283
-0.138131
-0.000699
0.329917
0.659327
0.839253
0.882352
0.817256
0.663253
0.464345
0.242230
0.039403
-0.068188
0.021927
0.295582
0.555977
0.589131
0.401072
0.180463
0.045749
0.000242
-0.072991
-0.200171
-0.295104
-0.400585
-0.513299
-0.616067
-0.718836
-0.760424
-0.728777
-0.663677
-0.609426
-0.585012
-0.569339
-0.478320
-0.263735
-0.003642
0.097322
-0.007556
-0.291454
-0.660039
-1.067202
-1.504502
-1.989420
-2.333896
-2.428225
-2.386633
-2.253421
-2.078016
-1.935461
-1.862223
-1.839015
-1.788682
-1.624729
-1.487599
-1.465597
-1.511706
-1.502059
-1.292598
-0.965297
-0.823345
-0.841125
-0.849561
-0.809777
-0.819118
-0.861911
-0.856786
-0.759739
-0.667816
-0.599702
-0.439668
-0.152752
0.195043
0.368037
0.333079
0.390343
0.676657
1.037109
1.242954
1.117280
0.751106
0.383726
0.145638
0.104049
0.161916
0.219181
0.213155
0.088687
-0.005643
0.074225
0.331003
0.533834
0.499479
0.313228
0.165855
0.134212
0.236081
0.351512
0.378336
0.353625
0.408177
0.434701
0.310836
0.082392
-0.235562
-0.564667
-0.770507
-0.825356
-0.858205
-1.012208
-1.233720
-1.415752
-1.421476
-1.256619
-1.014608
-0.759940
-0.539027
-0.288879
-0.054403
0.082727
0.136374
0.086046
-0.031490
-0.107436
-0.019129
0.136084
0.269597
0.486894
0.791290
1.088453
1.284653
1.453428
1.658971
1.830760
1.805145
1.593578
1.244582
0.822050
0.417600
0.081563
-0.175211
-0.284911
-0.238195
-0.117942
0.012256
0.160537
0.342573
0.471264
0.456499
0.298578
0.006241
-0.422319
-1.008200
-1.536216
-1.614572
-1.269490
-0.895475
-0.635081
-0.348768
-0.027193
0.178651
0.209093
0.196437
0.239838
0.216031
0.061425
-0.033508
0.051182
0.257931
0.492106
0.640989
0.746173
0.869741
1.063832
1.242552
1.314584
1.296503
1.277519
1.166312
0.837207
0.401715
0.051814
-0.028049
0.145548
0.380626
0.570799
0.696175
0.678698
0.647959
0.604261
0.451162
0.202224
-0.079564
-0.380641
-0.661223
-0.925532
-1.079836
-1.041860
-0.948129
-0.905331
-0.865848
-0.845653
-0.959271
-1.063245
-0.936362
-0.550292
-0.094905
0.200449
0.316181
0.399063
0.497918
0.472001
0.228790
-0.071986
-0.200371
-0.135874
-0.043047
-0.027674
-0.079208
-0.120797
-0.218140
-0.429104
-0.610533
-0.673519
-0.662969
-0.618061
-0.612936
-0.702443
-0.800691
-0.841677
-0.822386
-0.785013
-0.741311
-0.618044
-0.381459
-0.116242
0.013353
-0.085196
-0.275967
-0.432984
-0.521889
-0.579451
-0.670767
-0.818742
-0.934169
-0.934468
-0.705116
-0.344061
-0.067693
0.119466
0.217718
0.219830
0.129719
0.052870
0.108326
0.207180
0.239731
0.230391
0.315683
0.482650
0.613451
0.653537
0.648717
0.666199
0.669516
0.745165
0.989887
1.278611
1.452510
1.469691
1.464871
1.639673
1.909712
2.023635
1.888619
1.618886
1.342523
1.042953
0.730123
0.548393
0.637603
0.892272
0.981181
0.802766
0.491141
0.351001
0.437801
0.555643
0.489643
0.294350
0.094839
0.036976
0.117447
0.146984
0.020105
-0.127569
-0.111895
0.040605
0.110829
-0.016653
-0.268604
-0.536228
-0.714944
-0.793904
-0.754119
-0.722472
-0.654358
-0.535914
-0.409332
-0.329163
-0.261350
-0.167920
-0.106135
-0.204383
-0.417155
-0.661271
-0.887304
-1.079281
-1.216105
-1.291750
-1.292953
-1.216099
-1.113025
-0.891207
-0.612730
-0.367706
-0.152820
0.038860
0.181716
0.327586
0.531622
0.771523
0.845363
0.706128
0.547303
0.519879
0.594322
0.661532
0.698302
0.690167
0.529534
0.242923
0.093441
0.186268
0.308631
0.333647
0.324005
0.396640
0.570840
0.670900
0.596461
0.477117
0.394842
0.332760
0.282431
0.238131
0.198652
0.108843
-0.052996
-0.295002
-0.596682
-0.831756
-0.855261
-0.675938
-0.425188
-0.184685
0.100122
0.404819
0.656775
0.897278
1.123315
1.291487
1.310476
1.193844
1.081130
1.033213
1.006392
0.866856
0.663426
0.478682
0.365064
0.231253
0.019084
-0.235881
-0.487230
-0.640631
-0.610792
-0.440209
-0.302476
-0.261788
-0.316034
-0.432063
-0.588176
-0.698780
-0.602336
-0.390163
-0.256649
-0.236455
-0.217767
-0.215053
-0.300642
-0.478756
-0.702981
-0.902191
-1.068249
-1.111646
-0.984160
-0.692120
-0.322024
0.044457
0.426910
0.844022
1.087238
0.951317
0.599910
0.288587
0.048088
-0.202960
-0.419348
-0.468773
-0.254489
0.090593
0.300054
0.375702
0.538450
0.826270
1.061951
1.173464
1.177384
1.128261
1.003492
0.746115
0.426353
0.181635
0.013165
-0.126070
-0.265908
-0.360841
-0.293028
0.025834
0.398342
0.549938
0.484842
0.467967
0.644577
0.721733
0.432712
-0.060344
-0.418381
-0.591371
-0.670934
-0.733317
-0.613667
-0.242666
0.179569
0.444484
0.655754
0.992397
1.398358
1.710590
1.859775
1.855859
1.718432
1.502043
1.262448
1.050580
0.886933
0.748602
0.560241
0.350182
0.235358
0.253443
0.285391
0.313120
0.325479
0.299864
0.198301
0.029831
-0.201928
-0.481004
-0.757668
-0.989729
-1.087072
-1.031315
-0.848978
-0.685929
-0.566882
-0.435478
-0.271827
-0.137409
-0.068994
-0.019264
0.055480
0.170609
0.260724
0.283330
0.235111
0.167604
0.080206
0.049769
0.254709
0.658862
0.923777
0.759527
0.376475
0.179676
0.173952
0.174858
0.089570
-0.011993
-0.056294
-0.112349
-0.263338
-0.407094
-0.390516
-0.233495
-0.081899
-0.104802
-0.192200
-0.224144
-0.197620
-0.234989
-0.348005
-0.396224
-0.276272
-0.128594
-0.175607
-0.380543
-0.481805
-0.398019
-0.281383
-0.249435
-0.332011
-0.477877
-0.621934
-0.757553
-0.806977
-0.731027
-0.598117
-0.400711
-0.118617
0.190902
0.374445
0.357871
0.189703
-0.040549
-0.228307
-0.342226
-0.431433
-0.471514
-0.434744
-0.236132
0.080922
0.358796
0.464884
0.447105
0.341624
0.204800
0.079428
-0.066740
-0.142083
-0.130929
0.019160
0.317830
0.510715
0.517649
0.483294
0.569490
0.764485
0.929041
0.951345
0.888660
0.841948
0.827484
0.799157
0.753349
0.636717
0.380245
0.075250
-0.080260
-0.023297
0.113532
0.270553
0.342585
0.313052
0.318478
0.458622
0.638850
0.684360
0.557481
0.385697
0.268763
0.216325
0.168709
0.138272
0.128630
0.086439
-0.022357
-0.119399
-0.089862
-0.044352
-0.175751
-0.457539
-0.645598
-0.675734
-0.661567
-0.604906
-0.478023
-0.319796
-0.233298
-0.259817
-0.298091
-0.209483
-0.063010
-0.099475
-0.328522
-0.526828
-0.558470
-0.609401
-0.888477
-1.189252
-1.238978
-1.047600
-0.855618
-0.758271
-0.582564
-0.179014
0.372815
0.915000
1.358935
1.664837
1.736267
1.528015
1.282694
1.166062
1.075951
0.972279
0.902662
0.873129
0.963545
1.067222
1.035579
0.830040
0.569951
0.349644
0.091665
-0.224480
-0.524050
-0.639778
-0.634050
-0.677446
-0.738022
-0.697635
-0.647603
-0.721741
-0.831140
-0.783821
-0.530358
-0.105712
0.272522
0.478668
0.593195
0.644733
0.687230
0.711041
0.704413
0.725511
0.809598
0.869274
0.843960
0.903032
1.235457
1.776737
2.116395
2.031709
1.708632
1.381335
1.151987
0.994066
0.872009
0.805105
0.776777
0.654118
0.529951
0.497706
0.501927
0.489874
0.498013
0.595361
0.747259
0.837374
0.790360
0.652029
0.551069
0.505864
0.343422
0.078813
-0.051381
0.006787
0.136985
0.198168
0.236143
0.261763
0.222284
0.025787
-0.303620
-0.620669
-0.981721
-1.466940
-1.952763
-2.274333
-2.372280
-2.179093
-1.878615
-1.631481
-1.524489
-1.511226
-1.490730
-1.291215
-0.918104
-0.532637
-0.238789
-0.189662
-0.272238
-0.320156
-0.378320
-0.493144
-0.550705
-0.442508
-0.185428
0.145188
0.446871
0.578275
0.642772
0.713900
0.721738
0.679848
0.641274
0.538505
0.514397
0.672624
0.919456
1.169302
1.387805
1.596362
1.701545
1.656340
1.450500
1.118381
0.754618
0.482172
0.226001
-0.095569
-0.446675
-0.767040
-0.871616
-0.727555
-0.528943
-0.439130
-0.373728
-0.287230
-0.207664
-0.143166
-0.170891
-0.305304
-0.498788
-0.739890
-0.868276
-0.747119
-0.438504
-0.101559
0.108505
0.148591
0.033466
-0.153689
-0.239882
-0.128972
0.030762
0.100081
-0.002085
-0.095812
-0.103043
-0.075012
-0.031611
0.007269
-0.026182
-0.129252
-0.215445
-0.218758
-0.042750
0.237536
0.434942
0.441574
0.425000
0.538623
0.730001
0.808965
0.773103
0.763159
0.852370
0.934046
1.035010
1.272500
1.478043
1.426509
1.154064
0.929839
0.975048
1.186619
1.229116
0.989521
0.557042
0.045000
-0.377834
-0.573428
-0.601153
-0.622247
-0.681014
-0.583968
-0.269325
0.081182
0.125487
-0.151178
-0.410362
-0.329289
0.089330
0.575759
0.893115
1.044108
1.148990
1.271956
1.415415
1.467254
1.364486
1.215305
1.091741
1.042317
1.086019
1.254794
1.478118
1.601686
1.546837
1.231294
0.754815
0.297021
-0.108635
-0.539003
-0.858464
-1.049838
-1.225541
-1.444642
-1.601960
-1.706838
-1.836731
-1.935280
-1.933771
-1.753243
-1.384653
-0.933786
-0.573635
-0.382558
-0.319567
-0.377129
-0.542283
-0.724917
-0.960293
-1.261671
-1.609160
-1.759546
-1.544359
-1.115493
-0.847564
-0.790903
-0.662814
-0.348774
-0.000678
0.109931
0.077685
0.132237
0.319999
0.521323
0.590944
0.444174
0.132850
-0.270093
-0.638377
-0.822217
-0.842106
-0.661878
-0.259233
0.191333
0.543347
0.835085
1.097890
1.245870
1.239241
1.020140
0.748599
0.571390
0.452347
0.377908
0.395691
0.507807
0.585565
0.490030
0.326985
0.204928
0.124462
0.099148
0.143754
0.234773
0.371301
0.498485
0.487939
0.309223
-0.018978
-0.395098
-0.735957
-0.950538
-1.002071
-0.938177
-0.780854
-0.507802
-0.175076
0.092853
0.200447
0.169709
0.058803
-0.065665
-0.177776
-0.159390
0.042537
0.330357
0.501844
0.449105
0.292088
0.177264
0.117593
0.095293
0.061239
0.001568
0.008803
0.035025
0.017849
-0.096975
-0.155139
-0.141274
-0.197931
-0.340482
-0.421249
-0.308531
-0.065617
0.235163
0.537148
0.792720
0.896698
0.795135
0.583568
0.555241
0.843664
1.183924
1.195680
0.868082
0.509442
0.341876
0.339769
0.282509
-0.006513
-0.440799
-0.820234
-1.069474
-1.238847
-1.460962
-1.854562
-2.352440
-2.836756
-3.172189
-3.216490
-3.041688
-2.871707
-2.775565
-2.610407
-2.292147
-1.885885
-1.591435
-1.394631
-1.227062
-1.062808
-0.707479
-0.193021
0.235544
0.437169
0.344346
0.076421
-0.125200
-0.191803
-0.253282
-0.372928
-0.378351
-0.161054
0.190056
0.541769
0.740380
0.730437
0.503801
0.192478
0.036365
0.090616
0.312433
0.564691
0.764809
0.973969
1.058357
0.885066
0.550536
0.311243
0.211186
0.104199
-0.108574
-0.334305
-0.359920
-0.199885
-0.031713
0.091252
0.244355
0.328744
0.310663
0.329049
0.555388
0.795891
0.780523
0.634054
0.629234
0.717842
0.696145
0.531895
0.412852
0.512008
0.663303
0.755226
0.831175
0.935756
0.993021
0.926116
0.792306
0.651865
0.436682
0.101549
-0.330025
-0.742914
-1.041278
-1.085880
-0.953572
-0.857731
-0.947239
-1.072912
-0.988222
-0.679004
-0.402637
-0.317344
-0.363754
-0.402028
-0.314625
-0.224812
-0.313717
-0.587067
-0.874280
-1.079819
-1.196752
-1.236231
-1.203378
-1.086742
-0.881199
-0.603324
-0.317614
-0.096098
0.068458
0.229397
0.507573
0.819202
1.029266
0.991294
0.824030
0.695042
0.711017
0.872257
1.066348
1.175450
1.092874
0.853279
0.535626
0.180000
-0.209682
-0.429687
-0.402561
-0.296473
-0.237099
-0.207261
-0.158736
-0.080375
0.061878
0.243311
0.376824
0.390389
0.265017
0.037477
-0.207845
-0.300969
-0.258774
-0.161426
-0.093613
-0.043281
-0.036347
-0.003796
0.117361
0.237915
0.216821
0.062516
-0.097213
-0.155076
-0.123429
-0.189128
-0.349158
-0.476640
-0.485679
-0.465183
-0.510087
-0.620390
-0.666800
-0.613454
-0.434131
-0.198148
0.004080
0.093291
0.121924
0.235546
0.447419
0.620413
0.623429
0.415479
0.170760
0.145446
0.371785
0.626754
0.775337
0.936577
1.277741
1.688826
1.916973
1.916673
1.883524
1.939884
1.944105
1.779554
1.478477
1.023998
0.452283
-0.070308
-0.416592
-0.614898
-0.726406
-0.749611
-0.675469
-0.587464
-0.574201
-0.527485
-0.359012
-0.136290
-0.022667
-0.081736
-0.259246
-0.418674
-0.457550
-0.494015
-0.672129
-0.940355
-1.123893
-1.145590
-1.137451
-1.247754
-1.424963
-1.336958
-0.997602
-0.637150
-0.446374
-0.489168
-0.624485
-0.722432
-0.774568
-0.810129
-0.837553
-0.838455
-0.668173
-0.344489
-0.146781
-0.207959
-0.446952
-0.593722
-0.432180
-0.012054
0.344179
0.477391
0.475284
0.560275
0.825793
1.173286
1.440311
1.558755
1.621445
1.627474
1.563282
1.389690
1.206453
1.100068
0.987052
0.822199
0.684471
0.553373
0.349341
0.052785
-0.307061
-0.573177
-0.636465
-0.493308
-0.219351
0.118197
0.439169
0.630848
0.663701
0.612468
0.598306
0.576006
0.390960
0.085966
-0.213905
-0.356757
-0.302808
-0.195515
-0.103592
0.000989
0.170367
0.331306
0.337938
0.217388
0.065796
-0.124674
-0.413996
-0.838639
-1.270816
-1.599619
-1.784062
-1.888337
-1.900993
-1.674956
-1.166526
-0.569791
0.013381
0.549237
0.963335
1.265320
1.371408
1.217104
0.899753
0.552264
0.310559
0.215928
0.279220
0.485064
0.645702
0.650225
0.588444
0.594775
0.658368
0.652343
0.483873
0.161700
-0.063730
-0.109538
-0.160469
-0.384693
-0.846707
-1.432587
-1.954877
-2.202609
-2.225211
-2.088081
-1.820453
-1.371696
-0.774057
-0.224640
0.100853
0.165350
0.188559
0.268728
0.369391
0.453779
0.494769
0.476990
0.501102
0.717797
1.067098
1.398618
1.550817
1.488132
1.354623
1.257581
1.205444
1.150897
1.024018
0.828725
0.683462
0.700643
0.644287
0.248276
-0.281247
-0.570871
-0.555197
-0.482864
-0.542233
-0.663687
-0.706180
-0.655847
-0.582610
-0.477125
-0.469890
-0.610029
-0.804719
-0.922556
-0.938226
-0.922552
-0.837259
-0.604290
-0.344499
-0.256795
-0.285725
-0.259503
-0.195609
-0.125084
-0.043407
-0.033460
-0.191682
-0.504814
-0.754355
-0.802272
-0.757666
-0.732046
-0.661521
-0.482198
-0.144650
0.282407
0.665765
0.973777
1.186252
1.225735
1.008442
0.605801
0.144089
-0.412257
-0.978246
-1.371847
-1.408613
-1.249181
-1.137367
-1.148516
-1.223557
-1.212705
-1.165085
-1.238318
-1.376047
-1.442650
-1.574652
-1.918525
-2.294042
-2.410976
-2.220803
-1.986026
-1.882349
-1.820262
-1.614116
-1.173195
-0.588215
-0.032166
0.471442
0.956666
1.424108
1.823740
2.088053
2.312884
2.546154
2.764657
2.827949
2.711317
2.537724
2.345144
2.081740
1.767403
1.450956
1.179716
0.938614
0.700828
0.621567
0.730970
0.805413
0.701439
0.584807
0.605303
0.728871
0.731284
0.522430
0.288862
0.172532
-0.045063
-0.538118
-1.105615
-1.393732
-1.333153
-1.118869
-0.973301
-0.976011
-1.100479
-1.326512
-1.518790
-1.603777
-1.587501
-1.584786
-1.553742
-1.362363
-0.962129
-0.559784
-0.384078
-0.309635
-0.299084
-0.394017
-0.495580
-0.435904
-0.213484
0.014362
0.012254
-0.258986
-0.597735
-0.740587
-0.644445
-0.486520
-0.424132
-0.473556
-0.455471
-0.297546
-0.096825
0.066525
0.243739
0.389609
0.510464
0.770859
1.206958
1.634920
1.921534
2.173490
2.310620
2.193084
1.909487
1.639453
1.480929
1.372434
1.257611
1.115060
0.955632
0.743161
0.515019
0.327864
0.160600
-0.050063
-0.360783
-0.624187
-0.712791
-0.651910
-0.500314
-0.217015
0.146452
0.318843
0.276351
0.273641
0.435182
0.676590
0.801363
0.760076
0.663034
0.632295
0.685943
0.734769
0.737182
0.559671
0.218210
-0.105772
-0.375203
-0.691349
-1.081333
-1.507180
-1.824833
-1.943273
-1.781731
-1.371551
-1.005674
-0.826953
-0.759743
-0.658478
-0.590062
-0.687707
-0.917357
-1.102703
-1.118674
-1.012285
-0.897759
-0.738326
-0.483960
-0.171426
0.187218
0.480463
0.536521
0.397286
0.290901
0.288492
0.304166
0.275838
0.211646
0.174277
0.253241
0.467826
0.629970
0.519667
0.224317
-0.013470
-0.112622
-0.193992
-0.376024
-0.609591
-0.782581
-0.824471
-0.723808
-0.486620
-0.161127
0.134227
0.390704
0.609508
0.716500
0.776477
0.865084
0.923856
0.860869
0.652015
0.344007
-0.013729
-0.368451
