EVENT_NAME: 202302060117
EVENT_ID: 13194
EVENT_DATE_YYYYMMDD: 2023/02/06
EVENT_TIME_HHMMSS: 01:17:32.00000
EVENT_LATITUDE_DEGREE: 37.288
EVENT_LONGITUDE_DEGREE: 37.043
EVENT_DEPTH_KM: 8.6
HYPOCENTER_REFERENCE: AFAD
MAGNITUDE_W: 7.7
MAGNITUDE_W_REFERENCE: AFAD
MAGNITUDE_L: 
MAGNITUDE_L_REFERENCE: 
FOCAL_MECHANISM: 
NETWORK: TK
STATION_CODE: 3123
STATION_NAME: 
STATION_LATITUDE_DEGREE: 36.21423
STATION_LONGITUDE_DEGREE: 36.15973
STATION_ELEVATION_M: 85.0
LOCATION: Kahramanmaras_Pazarck_Turkiye
SENSOR_DEPTH_M: 
VS30_M/S: 470
SITE_CLASSIFICATION_EC8: B
MORPHOLOGIC_CLASSIFICATION: 
EPICENTRAL_DISTANCE_KM: 143.00
EARTHQUAKE_BACKAZIMUTH_DEGREE: 
DATE_TIME_FIRST_SAMPLE_YYYYMMDD_HHMMSS: 2023/02/06 01:17:36.6820400
DATE_TIME_FIRST_SAMPLE_PRECISION: millisecond
SAMPLING_INTERVAL_S: 0.01
NDATA: 12501
DURATION_S: 
STREAM: HNN
UNITS: cm/s^2
INSTRUMENT: sensor = GMS+/GEOSIG | digitizer = 
INSTRUMENT_ANALOG/DIGITAL: 
INSTRUMENTAL_FREQUENCY_HZ: 
INSTRUMENTAL_DAMPING: 
FULL_SCALE_G: 
N_BIT_DIGITAL_CONVERTER: 
PGA_CM/S^2: 655.571
TIME_PGA_S: 
BASELINE_CORRECTION: BASELINE REMOVED
FILTER_TYPE: BUTTERWORTH
FILTER_ORDER: 
LOW_CUT_FREQUENCY_HZ: 
HIGH_CUT_FREQUENCY_HZ: 
LATE/NORMAL_TRIGGERED: 
DATABASE_VERSION: 
HEADER_FORMAT: DYNA 1.2
DATA_TYPE: Acceleration
PROCESSING: Automatic Paolucci et al., 2011
DATA_TIMESTAMP_YYYYMMDD_HHMMSS: 
DATA_LICENSE: U (unknown license)
DATA_CITATION: Turkish Accelerometric Archive v 1.0 - Disaster And Emergency Management Presidency, Earthquake Department
DATA_CREATOR: AFAD
ORIGINAL_DATA_MEDIATOR_CITATION: : AFAD - Disaster And Emergency Management Presidency
ORIGINAL_DATA_MEDIATOR: AFAD PROCESS SERVICE
ORIGINAL_DATA_CREATOR_CITATION: AFAD PROCESS SERVICE
ORIGINAL_DATA_CREATOR: network: TK
USER1: GuestUser
USER2: 
USER3: 
USER4: 
USER5: 
[...]
-9.482354
-9.706390
-8.824854
-7.081928
-4.300449
0.036520
4.399986
7.827248
11.057346
13.877790
15.524343
15.630472
13.814838
9.930152
4.278525
-1.549225
-6.378167
-10.235317
-11.924963
-11.581926
-11.025359
-9.711050
-6.640969
-3.293196
-1.287644
0.066930
1.739979
2.969604
2.814407
0.692506
-3.503641
-7.830971
-9.853900
-9.010290
-5.925922
-2.725178
-1.955341
-2.594746
-2.685002
-2.855786
-2.454560
-1.589909
-3.520360
-8.257864
-13.450741
-18.463079
-22.069293
-22.096685
-18.379262
-12.117413
-3.305162
7.072710
16.760899
24.584473
29.085615
28.951199
25.659564
21.880344
18.268674
15.152642
13.956555
13.975142
13.201697
12.387468
13.301995
15.549131
17.907967
19.326963
18.843679
17.122341
15.234491
12.542400
8.272738
2.996736
-2.129641
-5.611426
-5.940149
-3.603912
-1.241179
0.047933
1.801770
4.360108
6.115764
6.336191
6.326983
7.393214
8.995866
10.015858
10.491118
11.712690
14.161146
16.945743
18.774912
19.543969
21.284298
25.093938
29.304920
30.967059
29.284426
26.889250
25.759663
25.465489
24.945318
23.982242
23.474280
23.779651
22.878659
18.212852
10.938195
3.133611
-4.233523
-8.382133
-9.381836
-10.249577
-10.729485
-9.858599
-9.519718
-11.976459
-16.943078
-21.299762
-21.657578
-19.189380
-16.844571
-14.525479
-13.230132
-14.201780
-15.765699
-16.388739
-16.539261
-17.372972
-17.736763
-16.382449
-14.684462
-13.104670
-11.723340
-11.777228
-12.993318
-13.241253
-11.529758
-9.742151
-8.752811
-6.559187
-2.721232
1.155688
4.077182
5.243164
4.457770
2.402110
0.138636
-0.393485
1.449712
5.247403
11.763306
20.151875
26.920532
30.475080
31.478447
29.001704
23.048227
16.794717
12.737546
11.083747
11.302615
11.999717
11.679826
11.229272
10.100725
6.585948
4.185057
4.336126
2.871179
-0.795042
-5.435652
-10.466694
-13.312308
-13.768576
-13.823763
-12.832085
-11.149165
-11.247473
-11.884540
-12.147282
-14.359841
-18.883296
-25.693228
-33.962277
-40.141233
-42.601091
-43.445193
-44.918973
-46.708111
-47.030079
-45.274424
-43.971804
-45.477275
-48.872038
-52.382139
-54.584827
-55.232544
-52.561727
-43.899102
-32.817519
-23.836159
-17.066203
-12.271783
-8.739574
-5.658323
-3.357415
-2.001283
-1.134294
0.175600
3.003837
4.913275
2.936325
-0.408823
-3.585121
-6.758562
-7.150149
-2.522759
5.099495
11.794378
16.502296
19.466132
21.014232
22.434267
24.495150
25.747375
24.260348
22.056880
21.482936
20.937827
18.162091
12.221083
4.898888
-0.666756
-3.231561
-2.695775
-0.701913
0.690847
2.875638
8.142577
15.539872
23.780374
32.857328
41.526187
47.849602
49.622402
45.421579
38.056522
32.948070
30.106093
25.766294
19.685790
12.868584
6.850425
3.273045
0.583551
-2.883947
-5.883344
-7.472200
-7.567651
-5.640030
-2.836990
0.013587
2.370865
2.582979
1.518075
0.012863
-3.408397
-7.368934
-8.972598
-9.147797
-9.302475
-9.217128
-8.874870
-8.086590
-6.932817
-5.061825
-2.766372
-1.133327
-0.966153
-2.884915
-5.831838
-10.859502
-18.790073
-26.854944
-35.584562
-45.153229
-52.793639
-57.608814
-59.119740
-57.618397
-55.591544
-54.681693
-54.006153
-53.107992
-51.422733
-48.718146
-44.660687
-37.325476
-29.668673
-25.633295
-24.638240
-26.215667
-28.947502
-30.565453
-30.196699
-27.895011
-24.708814
-21.137900
-17.139409
-14.364164
-14.983048
-15.420093
-9.747397
0.972849
13.336907
22.914434
24.681779
21.266494
15.530183
6.274535
-3.791588
-10.311359
-12.318702
-10.449009
-3.025737
7.733994
17.309703
27.647831
37.126646
40.650802
39.188972
34.775399
29.080131
27.296188
31.830841
37.762006
39.313224
34.949006
28.865905
25.469843
24.393768
24.974753
29.078970
36.972162
44.914970
51.543871
57.911966
62.752365
63.192296
56.509910
45.943214
37.360625
29.598903
20.049719
11.705857
6.891462
1.828209
-5.259935
-10.246815
-13.468833
-17.213504
-18.057866
-15.674611
-12.400352
-6.351253
2.019652
7.797035
9.160441
8.927832
8.477798
7.863850
9.136857
14.603297
23.103567
31.724109
39.959415
43.850623
40.930715
35.512879
27.320982
17.229401
9.557300
0.831579
-10.969015
-22.546468
-33.242788
-40.526017
-41.702362
-39.050767
-35.123712
-28.128278
-16.165042
-3.899176
5.761477
12.314786
12.468452
8.066309
2.913177
-2.014218
-5.185840
-5.860054
-5.643524
-5.610130
-5.154353
-2.656281
1.789271
3.553499
1.540181
-2.844038
-9.967770
-16.258166
-18.634899
-17.619582
-13.352231
-6.738396
-0.931660
3.545844
8.962409
15.023717
17.811690
14.079748
8.202902
5.857861
6.576783
8.191124
8.317775
7.267937
8.707974
12.260964
14.978020
18.606602
24.680120
30.027327
32.746721
30.802242
24.217009
18.686174
15.460000
13.253415
12.085123
11.340252
12.016832
15.430066
21.831151
26.316448
23.526424
14.210771
1.158875
-12.652842
-23.998582
-32.511812
-40.451475
-46.122325
-48.237991
-46.780289
-40.371152
-32.109868
-24.667114
-18.846350
-14.861626
-12.551107
-14.101778
-19.170226
-24.183603
-27.924897
-32.234563
-35.294485
-33.975500
-32.022680
-33.493083
-36.995390
-39.985435
-40.209471
-35.439209
-26.231331
-14.530981
-2.772702
3.938546
5.222723
4.205356
0.424058
-3.173584
-2.756253
0.265770
5.088765
13.373428
24.371106
34.834702
42.654639
43.616444
36.834567
30.382595
27.708687
25.439239
21.867573
14.843593
4.435615
-2.184687
-3.883685
-6.763329
-8.156840
-6.169212
-3.588274
1.052884
5.923156
9.060777
13.137719
17.550540
18.657815
14.438288
7.502109
2.812402
1.585662
2.194702
2.358499
1.838328
2.790001
4.692426
3.479713
-1.775768
-7.418563
-13.924307
-21.230656
-24.764654
-24.335894
-22.082003
-18.672666
-15.973793
-17.577716
-22.985681
-26.837116
-27.859939
-26.753963
-23.913257
-21.924590
-20.234915
-16.381634
-12.250401
-12.979946
-18.792629
-25.597885
-30.326816
-32.013346
-31.586923
-27.994449
-24.977620
-25.510780
-23.922675
-20.492815
-17.233883
-9.876332
0.159166
7.302927
12.717154
17.890576
21.008454
20.868843
15.916771
8.291167
4.326993
6.989758
13.062496
18.535430
20.922062
19.737664
17.155714
11.624879
0.908557
-10.054285
-16.444692
-18.364752
-15.945390
-12.969085
-14.400782
-17.835290
-19.007479
-16.380302
-11.440412
-6.183345
-1.042654
3.960101
8.471634
12.713268
19.693116
27.450710
31.510766
34.699821
40.857763
49.199055
56.584660
58.369150
52.499058
43.567082
34.446774
27.424611
24.912020
23.672811
23.999223
23.831297
17.234894
7.966778
0.461966
-7.135582
-14.269705
-16.912700
-14.990273
-11.160891
-5.275185
4.154274
15.607845
21.934897
21.698392
21.093276
17.344969
11.614113
10.194105
7.108466
4.276879
5.203095
1.832491
-5.604521
-13.291430
-19.844971
-22.845147
-24.026168
-26.153264
-26.284563
-21.170108
-13.682934
-7.064423
-1.881649
2.373493
6.171184
7.708894
7.573179
8.470561
11.176707
16.900837
24.188510
31.452285
39.180784
45.962429
50.480716
52.320017
53.930722
55.466353
53.139236
49.907088
46.598308
38.837625
32.919996
33.603589
33.797779
31.748873
30.878015
28.866776
25.353558
25.105104
25.884811
22.873206
17.671757
12.455501
9.426490
8.972040
7.290187
3.690467
-1.079768
-9.746781
-20.094233
-27.468121
-33.988152
-37.886865
-37.453169
-37.048567
-35.464098
-33.152540
-31.431953
-29.605901
-29.928908
-30.063844
-28.982286
-28.129065
-25.687362
-21.574573
-16.884319
-13.187678
-14.459878
-19.746531
-21.059514
-16.043771
-6.109323
3.572891
3.000506
-4.852914
-14.586794
-24.984381
-29.526799
-30.328039
-29.980845
-26.402918
-23.206330
-18.123048
-9.401196
-2.907893
3.518130
8.001868
0.598106
-10.496438
-16.616946
-23.252315
-27.190512
-23.134872
-14.512252
-5.787802
-1.735798
-2.552105
-2.844980
-1.927336
1.889578
9.538069
16.183336
23.469450
32.960475
41.255268
47.106164
48.388263
42.631949
33.929868
28.529436
25.630570
25.206253
31.790474
43.582523
54.042482
61.966846
66.946481
66.691533
63.237802
57.959202
50.980161
45.388540
40.841187
34.070739
25.794937
21.420848
23.982044
25.449097
18.439143
8.431468
2.952847
1.075128
-2.277293
-5.541913
-2.590546
6.453159
10.915855
5.269683
-3.051578
-11.998621
-20.931117
-26.506632
-27.671548
-24.377287
-21.837133
-21.780359
-23.579888
-27.390020
-33.273620
-44.098785
-56.991702
-62.755030
-55.267595
-41.631973
-31.309692
-28.296759
-31.140815
-31.225615
-30.736588
-33.602464
-36.644203
-39.232387
-39.128596
-36.632342
-31.179410
-21.123390
-12.556879
-10.564316
-13.545269
-15.684054
-13.965026
-9.461546
-3.731181
-1.877853
-2.830798
-1.978096
-4.165978
-13.971294
-22.007590
-18.771258
-10.968725
-0.872181
11.348485
18.537706
21.369839
16.220344
2.332255
-5.117226
-3.723427
0.870712
11.373013
17.511993
10.123038
-1.696779
-4.723451
3.129477
4.944879
-0.216306
-1.558643
-2.427163
5.020267
21.333057
33.903630
42.799007
47.201178
46.813748
40.092397
25.448643
13.205665
8.742216
10.968311
13.785119
5.198893
-4.372891
2.741776
10.750305
5.239472
2.342165
14.057322
32.890900
52.722247
65.736504
63.066752
53.535492
32.496771
2.271099
-20.241285
-44.127061
-56.582270
-49.406038
-41.839634
-28.724846
-7.621936
5.426350
-1.875063
-20.674583
-32.313082
-34.420175
-39.433812
-52.827043
-54.358491
-37.810092
-30.852324
-34.305795
-29.679444
-27.520629
-36.528457
-52.357272
-63.136458
-56.478982
-50.408582
-57.543224
-64.231325
-62.240839
-52.260412
-44.257338
-39.339268
-23.076873
9.032145
35.329634
22.566860
-2.344740
2.326291
5.696664
-13.218194
-22.896224
4.585548
54.573872
86.323890
82.748848
71.046187
69.968034
59.256128
57.476342
73.075030
65.302398
43.970140
30.187257
16.603876
10.420505
17.593620
30.917001
52.615039
73.315310
76.324865
87.647513
113.959030
121.298137
111.363976
91.240938
59.375091
31.777750
6.212054
2.077991
36.152673
57.935136
50.413700
36.361957
27.499858
23.085506
14.433560
14.580212
10.336008
-13.446381
-19.835489
10.216166
56.345638
91.576027
86.944769
52.543067
21.686158
0.493136
-6.237827
-25.116577
-75.171634
-125.640761
-159.033524
-167.781065
-154.799019
-125.969312
-92.269995
-76.430242
-84.253789
-102.995382
-117.111027
-114.998710
-114.216665
-138.430788
-123.595039
-58.538616
-18.067669
25.170586
76.123688
104.316704
126.086699
81.052696
-25.492013
-57.065102
-6.339037
20.498770
10.248991
-9.514269
-82.867651
-168.072945
-159.325896
-128.326347
-149.627692
-147.940096
-94.057071
-77.579329
-127.363967
-152.018397
-126.220441
-98.198353
-109.210291
-120.319901
-79.487098
-23.890644
22.139077
45.871099
95.075184
113.925906
32.666747
-21.488747
-67.024361
-143.846944
-200.420617
-220.601584
-180.487038
-108.166466
-44.851268
2.362215
27.782729
1.241864
-27.919280
-55.702095
-104.713144
-78.366818
-46.731877
-70.497901
-61.828003
-24.912499
1.481884
4.508844
14.232360
-11.890278
-117.998837
-155.733880
-78.667867
-18.448843
0.248876
57.610193
137.131273
120.681093
46.216944
65.915549
122.902281
89.713435
68.641465
109.248271
107.224822
84.020676
73.603867
80.398760
104.981002
104.680854
31.870646
-128.865808
-206.584590
-133.066487
-85.717405
-88.705372
-61.862889
2.813753
22.151021
-59.602737
-143.954173
-178.574600
-155.075070
-76.150418
4.460908
88.258807
187.950086
277.057122
268.477391
172.593557
83.245744
-12.795249
-89.122714
-134.857051
-147.672038
-108.151582
-92.142201
-78.990007
-85.378596
-188.479302
-265.691537
-236.411392
-218.481287
-279.100586
-303.766965
-232.175821
-176.737046
-194.433592
-234.750729
-256.654476
-234.857985
-181.026135
-128.828225
-91.928827
-121.149197
-184.336302
-177.058500
-125.435457
-55.577744
-9.836365
-79.758213
-169.297735
-179.730650
-178.656366
-193.146337
-148.348695
-35.753444
31.901956
36.476094
64.005403
134.921150
215.320765
261.706108
270.282230
286.949604
302.017586
286.911445
278.752538
312.053111
387.456869
460.448682
454.269467
357.833886
258.133023
225.151992
235.417904
253.679992
263.957335
267.925173
294.192790
341.087538
367.146561
357.463855
351.490895
356.668733
345.493141
320.647522
291.209206
269.046470
274.071305
317.756100
367.894830
373.545446
310.324311
218.409212
201.714071
264.996279
321.309952
348.616900
353.786685
331.247286
314.027933
333.357668
364.274870
379.113477
384.889041
378.550328
354.319320
349.426994
396.255242
471.688873
486.530598
429.405177
383.813453
352.217764
336.873417
359.372320
400.345139
439.494906
459.549913
461.174385
451.765994
399.151964
322.437444
322.336798
356.066248
361.971176
413.962571
490.786221
490.371255
400.254789
322.288188
325.366322
348.656219
337.953664
270.591050
129.554875
-44.249204
-210.275053
-343.305959
-403.455598
-390.067015
-362.457698
-375.732994
-394.336390
-359.627615
-325.927778
-360.338832
-433.039677
-445.878303
-356.830754
-326.043176
-401.034135
-434.394168
-397.360730
-353.005992
-378.348807
-413.266148
-400.279167
-416.082784
-463.505093
-502.465462
-466.853474
-380.841054
-358.774664
-393.927874
-413.047949
-395.860520
-379.505128
-365.034612
-322.492795
-282.256159
-290.989153
-325.659974
-335.460355
-324.248368
-329.080947
-361.315405
-384.830233
-380.418710
-372.603189
-362.280127
-349.609024
-344.776158
-342.406151
-342.484458
-346.031185
-357.130145
-368.127537
-374.287529
-393.093544
-428.204672
-474.825078
-526.380294
-585.239406
-644.324775
-655.571284
-619.212463
-592.900166
-577.279658
-562.985005
-557.811323
-536.734130
-515.464968
-495.697005
-442.701867
-343.780539
-196.405740
-59.236703
20.794820
50.115229
69.514842
106.030822
116.212829
96.036798
86.454103
105.929048
114.817151
96.702119
112.744491
150.132512
154.177762
123.688945
97.869455
87.531615
73.112301
67.516784
40.498726
40.253908
114.399870
151.806595
157.867903
185.827908
197.599695
178.373635
136.903648
110.974277
125.674168
145.486032
129.108068
99.850291
104.520802
128.412321
146.794422
160.912433
165.118739
161.484470
158.439614
161.533074
182.452588
215.951884
253.663836
281.997386
265.693196
258.395420
306.339890
328.412514
289.354473
209.999412
98.490278
-45.415292
-169.920616
-204.299977
-212.126641
-141.786020
107.746932
318.861506
347.301821
333.116558
357.156404
371.814732
357.101881
309.027294
176.704515
6.983208
-114.964440
-193.325628
-262.223731
-339.081123
-350.249181
-252.118587
-138.555441
-93.489199
-93.302542
-89.325871
-68.361157
-12.829905
42.846558
41.806591
-29.072762
-115.834066
-152.817861
-148.376984
-8.079043
206.700078
216.327221
89.577503
58.235347
128.127350
208.109777
223.838089
102.000843
-66.730749
-120.618681
-111.721486
-117.648727
-129.054473
-131.544725
-134.912472
-144.124219
-135.861377
-104.544392
-67.209623
-43.719185
-69.264619
-109.232628
-44.671323
46.380595
58.502289
71.717866
97.498937
113.009564
133.306674
144.214993
146.991276
176.924997
240.582310
302.086146
364.639964
381.499046
282.286546
186.022412
186.671716
214.564700
217.918708
193.433647
165.807731
124.671806
55.231568
2.633643
2.169841
38.384231
85.392757
144.925474
199.418434
223.292549
220.198597
212.676121
219.984835
228.422761
232.463854
261.292782
316.750520
369.612397
389.652597
335.981051
236.572167
180.488935
207.500008
276.079662
326.816378
346.565378
316.999256
232.371946
144.448181
92.189253
52.343855
17.363650
5.971411
-8.585320
-43.705539
-74.487115
-94.624701
-121.624835
-151.180826
-175.601465
-192.776137
-201.715127
-209.537115
-207.486363
-211.979166
-243.318463
-274.002107
-301.924157
-342.630946
-383.872337
-418.269103
-422.934132
-392.879619
-375.447229
-373.758074
-353.598641
-322.735210
-309.385853
-316.968854
-329.898919
-344.247836
-359.062776
-359.971301
-344.418851
-329.007716
-316.864980
-309.833439
-312.854396
-305.135248
-278.342641
-256.957363
-247.763772
-243.568896
-272.708999
-307.952868
-272.602986
-203.990860
-155.032775
-109.192166
-67.317692
-42.803510
-29.247637
1.903877
68.783870
143.428326
172.454418
160.406526
166.920350
202.095149
236.868866
262.380038
283.718298
292.527951
279.325650
271.146221
278.285047
291.319566
311.156368
320.489453
326.349702
317.048335
293.901598
317.498281
350.987186
338.724465
304.135731
268.059565
255.926728
265.444509
273.431997
275.572368
258.575377
226.908512
206.152679
195.104893
182.773594
191.483756
186.808077
80.107247
-106.370650
-272.806152
-379.849356
-386.195343
-209.498200
49.163515
196.599100
240.881622
271.789992
304.582719
328.111083
346.820751
358.156128
362.947431
367.097627
379.370507
388.201201
329.946829
214.879135
123.439930
96.088330
95.041609
108.618783
204.495630
239.970201
118.278944
-9.153964
-98.823889
-148.011321
-184.213474
-236.281992
-271.254664
-294.422182
-297.821361
-294.342146
-276.951579
-238.886342
-243.531109
-297.511000
-348.541745
-369.690607
-369.120532
-358.113762
-336.638604
-310.276692
-275.684293
-234.262335
-200.131544
-168.415295
-129.968720
-98.380017
-76.208162
-55.981449
-44.067309
-46.489241
-81.798312
-163.283470
-260.682529
-302.765828
-287.683299
-282.552479
-291.525759
-305.165769
-333.031970
-359.712849
-357.988366
-338.809037
-331.028065
-325.184701
-309.415865
-270.550284
-212.023648
-166.009773
-137.858839
-107.805625
-66.279760
-24.842217
7.189130
4.542499
-37.260251
-58.732524
-44.481252
-28.740990
-27.150548
-38.562009
-51.811588
-64.001573
-69.894525
-60.555464
-34.176667
-4.539601
0.810982
-24.751337
-68.450652
-85.189953
-45.361152
-2.912852
-4.576262
-30.780987
-62.115089
-100.082106
-134.976847
-170.147721
-202.070458
-210.876966
-198.690590
-172.900946
-143.671456
-120.915123
-114.891480
-128.924260
-143.318636
-124.307117
-87.495261
-66.961762
-32.131415
4.568221
-10.771191
-66.788441
-122.746205
-159.676228
-179.988637
-199.206384
-211.081790
-180.617104
-144.867439
-141.425370
-131.015287
-111.904017
-83.865822
-31.283456
37.571813
126.566109
234.683221
322.465960
336.492532
306.832375
300.520418
312.756670
319.736258
325.273615
337.791455
331.315065
316.523763
332.431835
312.698708
223.184384
111.055184
-26.035635
-169.048644
-263.866909
-306.486629
-328.510649
-339.989130
-340.185890
-334.195498
-323.252371
-302.950065
-257.269213
-203.690117
-167.393900
-105.459109
8.237818
101.615179
146.724542
189.191546
234.466381
264.279830
236.306605
158.110109
83.917157
16.132939
-37.823312
-71.434540
-95.563460
-123.252758
-156.523430
-176.889871
-181.533339
-180.768438
-173.372962
-131.481084
-51.784661
32.401331
108.364110
171.621639
218.581070
248.460239
250.301098
244.229167
263.540978
302.838033
347.204980
365.153009
346.702357
328.518486
322.498768
319.445599
306.213684
297.765396
311.923931
317.554544
300.870573
274.612076
249.521236
237.849748
242.870945
259.148147
275.244550
284.204350
292.933994
306.600529
317.611715
321.706580
321.026392
312.141953
284.542274
229.171846
167.142527
120.890992
74.225127
14.217322
-33.872851
-15.529195
75.764307
185.379761
249.860797
230.643570
162.295915
