EVENT_NAME: 202302060117
EVENT_ID: 13194
EVENT_DATE_YYYYMMDD: 2023/02/06
EVENT_TIME_HHMMSS: 01:17:32.00000
EVENT_LATITUDE_DEGREE: 37.288
EVENT_LONGITUDE_DEGREE: 37.043
EVENT_DEPTH_KM: 8.6
HYPOCENTER_REFERENCE: AFAD
MAGNITUDE_W: 7.7
MAGNITUDE_W_REFERENCE: AFAD
MAGNITUDE_L: 
MAGNITUDE_L_REFERENCE: 
FOCAL_MECHANISM: 
NETWORK: TK
STATION_CODE: 3802
STATION_NAME: 
STATION_LATITUDE_DEGREE: 38.47812
STATION_LONGITUDE_DEGREE: 36.50359
STATION_ELEVATION_M: 1595.0
LOCATION: Kahramanmaras_Pazarck_Turkiye
SENSOR_DEPTH_M: 
VS30_M/S: 305
SITE_CLASSIFICATION_EC8: C
MORPHOLOGIC_CLASSIFICATION: 
EPICENTRAL_DISTANCE_KM: 140.55
EARTHQUAKE_BACKAZIMUTH_DEGREE: 
DATE_TIME_FIRST_SAMPLE_YYYYMMDD_HHMMSS: 2023/02/06 01:17:36.2607660
DATE_TIME_FIRST_SAMPLE_PRECISION: millisecond
SAMPLING_INTERVAL_S: 0.01
NDATA: 12501
DURATION_S: 
STREAM: HNZ
UNITS: cm/s^2
INSTRUMENT: sensor = GMS+/GEOSIG | digitizer = 
INSTRUMENT_ANALOG/DIGITAL: 
INSTRUMENTAL_FREQUENCY_HZ: 
INSTRUMENTAL_DAMPING: 
FULL_SCALE_G: 
N_BIT_DIGITAL_CONVERTER: 
PGA_CM/S^2: 55.338
TIME_PGA_S: 
BASELINE_CORRECTION: BASELINE REMOVED
FILTER_TYPE: BUTTERWORTH
FILTER_ORDER: 
LOW_CUT_FREQUENCY_HZ: 
HIGH_CUT_FREQUENCY_HZ: 
LATE/NORMAL_TRIGGERED: 
DATABASE_VERSION: 
HEADER_FORMAT: DYNA 1.2
DATA_TYPE: Acceleration
PROCESSING: Automatic Paolucci et al., 2011
DATA_TIMESTAMP_YYYYMMDD_HHMMSS: 
DATA_LICENSE: U (unknown license)
DATA_CITATION: Turkish Accelerometric Archive v 1.0 - Disaster And Emergency Management Presidency, Earthquake Department
DATA_CREATOR: AFAD
ORIGINAL_DATA_MEDIATOR_CITATION: : AFAD - Disaster And Emergency Management Presidency
ORIGINAL_DATA_MEDIATOR: AFAD PROCESS SERVICE
ORIGINAL_DATA_CREATOR_CITATION: AFAD PROCESS SERVICE
ORIGINAL_DATA_CREATOR: network: TK
USER1: GuestUser
USER2: 
USER3: 
USER4: 
USER5: 
[...]
-15.037049
-16.291725
-17.078300
-17.922543
-18.110872
-17.316759
-16.243396
-15.226142
-14.463461
-14.563988
-14.809467
-13.411913
-10.114676
-5.303252
-0.371815
1.740880
-0.149189
-3.654495
-5.046069
-3.124044
0.199949
2.511886
3.728122
5.100479
6.769490
8.462400
10.401051
12.210337
11.662748
8.598529
6.416480
6.619881
8.020552
9.773729
12.133983
15.230678
18.339064
20.312264
20.062629
18.102163
16.203782
14.605692
12.584180
10.168861
7.480785
4.618664
1.568732
-1.003228
-2.033985
-1.573673
-0.336396
0.434078
0.601891
1.715259
3.744568
4.760003
5.311233
7.600311
10.424510
11.136017
9.734312
8.335204
7.231713
5.311771
3.618866
3.290262
4.420255
5.746372
5.641688
4.957982
4.702373
5.128135
5.904324
5.387908
2.792829
-1.220323
-5.284910
-8.172487
-9.160382
-8.439524
-8.141567
-8.636163
-7.952711
-6.131995
-4.371805
-2.991656
-2.463805
-4.474146
-8.730181
-12.380178
-13.924755
-13.811494
-14.189454
-16.073808
-18.338462
-21.087064
-23.595640
-24.082183
-23.123897
-22.246918
-21.404488
-18.935651
-15.027960
-11.801380
-10.360185
-10.624366
-11.151433
-10.948032
-9.978056
-8.631417
-8.192147
-8.373462
-7.182683
-5.258060
-5.498603
-7.866905
-9.615400
-9.823471
-9.770217
-9.605261
-9.044160
-8.605150
-8.149255
-7.220062
-4.768370
-0.808985
2.764385
5.289332
6.992893
8.039500
8.816209
9.288989
9.545122
10.006992
10.332484
10.562901
11.963312
14.072370
15.915946
17.485466
17.221544
15.279522
14.336047
15.115873
16.010257
15.061587
13.063454
12.371695
12.946304
13.673137
14.124876
13.778348
12.498215
11.224315
10.334613
8.980445
6.726441
4.718178
3.803797
3.103725
2.594842
3.569754
6.180684
8.788237
10.275411
10.535701
9.671455
8.471849
6.978966
5.070194
3.109208
1.436825
0.089151
-1.290214
-2.283824
-2.486960
-1.621151
-0.346987
-0.532199
-2.820232
-6.114866
-8.470179
-8.950488
-8.145464
-7.019887
-6.597762
-7.530846
-9.564566
-11.471780
-12.044046
-12.255495
-14.269733
-17.585927
-19.939682
-20.336605
-19.478589
-18.089348
-15.629083
-12.406400
-9.711045
-8.495589
-8.222310
-6.705263
-3.933797
-1.632510
-0.509011
-0.014930
1.451203
3.635074
4.710516
4.347103
3.523641
3.138668
2.643293
1.380823
-0.457292
-2.523744
-3.847778
-3.456046
-1.258926
1.311740
2.957892
3.977483
4.511569
4.934473
6.852083
10.815624
14.602524
15.253764
12.266176
8.048846
5.209845
4.152073
3.443688
2.579702
2.692964
3.790226
4.783581
5.549120
6.685607
8.072250
9.233935
10.467835
11.944359
13.169946
13.247360
12.707824
13.138782
13.788204
14.268777
15.690230
16.979460
17.056614
16.277832
14.716630
12.795389
10.787905
8.605597
6.223008
4.327744
4.029273
4.743897
5.692832
6.739699
7.776435
8.561976
7.508879
4.171124
0.494111
-2.454772
-5.602117
-9.662547
-13.966899
-17.439214
-19.345129
-20.418228
-22.206987
-24.955589
-27.179979
-27.193485
-24.785434
-20.721622
-16.915500
-15.809405
-17.464124
-19.153912
-19.027663
-18.122888
-17.157848
-15.392722
-13.034027
-11.709208
-12.134186
-12.755289
-12.556564
-12.423040
-12.687222
-12.885422
-13.660307
-15.987306
-19.307657
-22.534492
-25.650405
-28.410177
-29.252342
-27.259141
-23.188055
-18.926300
-15.202524
-11.124166
-7.611841
-5.305879
-2.723263
1.030645
5.516061
8.528852
8.778751
8.132451
8.029066
7.738128
7.466413
8.322611
9.996298
12.559950
15.749903
18.435127
20.761870
22.958730
25.493029
28.096945
28.721949
27.123080
25.445501
24.421498
22.746777
20.557196
19.406686
19.470072
19.460203
18.188382
16.899676
17.703141
19.439692
19.847270
18.650782
17.249596
16.874494
17.501056
18.455187
17.601332
13.400368
6.952670
0.599269
-3.148400
-3.441156
-1.558875
0.862424
2.735613
3.651298
4.432682
6.765920
10.950264
15.119282
17.209637
17.059754
16.423065
16.010556
15.761441
15.589997
14.282847
12.846073
13.137535
13.640708
11.780253
7.635918
3.523015
1.285896
1.181992
1.427215
0.370222
-1.761172
-4.666673
-8.025989
-10.889928
-12.247213
-11.387119
-9.264033
-8.193008
-8.928148
-10.202308
-10.342060
-9.482486
-9.658606
-11.346835
-13.529662
-15.313226
-15.654819
-14.617563
-12.867244
-10.809360
-9.352319
-8.751214
-8.491963
-8.218425
-7.600434
-6.019744
-3.221262
-0.722811
0.471085
1.550423
3.091369
4.037446
3.562333
2.407407
1.929957
2.691599
4.680644
7.095709
8.592494
9.278544
9.236464
7.530051
4.781189
2.977363
3.904218
6.638018
8.341838
8.151691
6.588150
4.987982
4.810823
6.066024
7.895053
9.335209
9.882542
9.319887
7.561261
4.415734
-0.154101
-3.944372
-4.454554
-2.367836
0.970964
5.235836
10.045702
14.380192
16.419372
15.842950
13.807930
11.384558
9.882842
9.884923
10.304451
10.183141
9.676077
8.404775
6.200647
4.038082
3.647133
5.364462
7.068022
7.566000
6.222483
3.033314
-0.298467
-3.131493
-5.968676
-8.745592
-11.082982
-13.702739
-17.657183
-22.447301
-26.150550
-27.350156
-26.301730
-23.994988
-21.560441
-19.181224
-16.120376
-11.983050
-7.269558
-2.911170
1.269798
5.268148
8.009741
9.107523
9.312742
9.480035
8.999467
6.221511
0.401933
-6.921701
-12.849863
-16.299318
-18.180555
-19.328727
-20.050619
-20.816413
-21.777292
-22.017315
-21.452057
-20.748603
-19.494181
-17.495784
-15.773520
-15.265412
-15.232159
-13.858244
-11.143667
-8.187245
-4.885852
-1.375346
1.355856
2.679377
2.651064
1.133243
-1.501321
-3.909107
-6.588351
-10.521754
-14.818313
-17.932669
-18.726257
-17.734720
-16.350155
-15.237826
-12.937059
-8.254480
-3.390323
0.236559
3.401055
6.854412
10.589877
14.775520
19.140403
21.803806
22.994325
23.846626
24.154194
23.578810
22.171650
21.536520
21.965399
21.870327
20.394588
17.483371
14.019369
10.778766
8.581132
8.685561
10.870991
13.538291
15.494606
16.037263
14.420730
11.513410
9.450855
9.034450
9.276036
8.412051
6.599653
5.399268
4.822066
3.851316
1.882537
-0.578502
-2.598455
-3.796762
-4.249535
-3.750518
-2.356081
-1.265053
-1.346878
-2.202291
-2.835603
-3.638543
-5.941383
-8.861951
-10.919051
-11.999423
-11.910840
-11.315969
-11.894989
-13.820906
-16.039321
-17.673259
-17.868342
-16.959412
-16.841994
-18.302667
-20.159745
-20.683694
-19.333158
-16.825876
-13.549940
-9.737584
-5.191642
0.348690
6.087226
10.915016
14.008854
15.082997
14.358507
12.728206
11.304940
10.780731
11.933064
14.529966
16.073510
14.740903
11.245728
7.032554
2.797041
-1.559265
-5.013916
-6.160789
-5.526173
-5.447721
-7.234921
-9.117457
-9.546591
-9.072772
-9.108098
-10.413949
-11.272479
-9.020029
-4.388884
-0.980466
0.254213
1.811264
5.499712
10.020715
12.779193
13.587853
14.012057
13.632798
11.207867
7.309273
2.653974
-2.329931
-7.349943
-12.492307
-17.088638
-20.099345
-20.186105
-17.700903
-14.445749
-11.407501
-9.787585
-8.897878
-6.967280
-3.999169
-0.740118
2.704667
6.661714
9.859200
11.148690
11.164799
10.792813
10.049100
8.502185
6.890327
5.876716
5.356143
5.215871
5.042868
4.849343
5.655925
8.106319
10.264213
10.503462
9.952757
10.072512
11.366419
12.776182
13.390795
12.895420
10.592061
6.546957
1.639944
-2.339179
-5.035048
-8.452293
-12.294517
-15.069616
-17.344401
-19.771410
-22.256088
-23.400103
-22.135031
-20.107799
-18.862729
-18.016143
-17.299441
-17.397631
-18.592560
-19.951664
-20.020240
-19.077799
-17.882345
-15.662106
-12.842842
-10.398164
-7.757620
-4.796004
-2.495496
-1.546042
-2.273650
-4.372832
-7.001161
-9.677288
-11.303172
-10.995864
-9.251520
-6.789178
-5.108996
-5.446432
-6.771506
-7.762778
-7.782518
-6.955674
-6.257935
-5.193143
-3.413990
-1.855640
-0.672914
-0.772922
-2.537523
-4.261341
-4.490194
-2.531801
0.708027
3.401823
4.647413
4.283221
3.133750
2.574732
3.250131
4.848226
7.094182
9.841230
12.524376
14.270798
14.434454
13.508384
12.357095
11.001888
9.121691
6.977829
5.607295
5.624183
6.086053
5.636397
3.283162
-0.868706
-4.866272
-7.545776
-9.228810
-10.228134
-11.028996
-12.136125
-13.464316
-14.281803
-14.021253
-12.042858
-9.090853
-7.475094
-7.060502
-5.942198
-3.265028
0.034287
2.683143
4.798436
6.483034
7.316372
6.858144
5.350193
3.873155
3.291537
3.144511
2.714598
2.856694
3.671328
4.047215
3.924607
3.631332
2.919830
1.666192
0.420088
0.385022
2.023640
3.778375
4.333762
3.672395
2.016377
0.139297
-1.017707
-1.451517
-1.876755
-2.353946
-2.113658
-1.295387
-0.902615
-0.978724
-1.496180
-3.069332
-5.808842
-8.658493
-10.178393
-10.077081
-8.157913
-3.847062
2.449196
9.274860
15.853485
22.742793
28.834353
31.642187
30.755342
27.839450
25.420753
24.226343
21.541903
15.819738
9.153576
3.270615
-2.368165
-7.883555
-11.751497
-13.554803
-14.209416
-14.070957
-13.063315
-10.403808
-5.988011
-1.322577
2.597843
5.934565
8.895922
11.081352
11.892869
11.812863
11.852870
11.731041
10.994082
9.589000
8.121574
7.988315
8.878023
9.856052
10.691987
11.000854
10.840580
10.354556
9.373156
7.947812
6.507401
5.637441
5.801357
6.792114
7.325161
6.232839
4.442001
3.496968
2.679221
1.023203
-0.278751
0.000502
1.404550
2.834835
3.365543
2.153469
-0.973355
-4.555812
-7.026722
-8.733655
-10.600604
-12.553797
-14.049018
-14.422043
-12.493263
-7.832245
-2.130856
2.527824
6.157564
10.447374
15.546621
19.340794
20.094903
18.054428
14.996962
12.597748
10.870554
8.244043
3.985150
-0.301538
-3.025981
-4.668231
-5.824716
-5.766525
-4.242724
-2.322257
-1.106541
-0.716627
-0.822350
-0.981065
-1.260573
-2.517068
-4.395188
-6.011201
-7.089755
-7.234703
-7.324061
-8.950465
-11.167842
-11.871810
-11.894927
-12.930879
-14.502473
-15.576351
-16.023928
-16.216933
-16.200306
-16.263686
-16.498254
-16.308361
-15.786485
-15.626206
-16.361606
-17.696291
-18.342332
-17.629526
-16.307565
-15.208744
-14.603742
-14.820126
-16.482119
-19.318002
-21.152221
-20.791401
-19.488143
-18.042012
-16.486779
-15.086108
-14.221598
-14.330438
-15.166109
-15.427953
-13.955845
-11.827304
-11.333223
-12.617254
-13.452924
-12.742716
-12.303187
-13.198604
-13.850619
-13.008189
-11.091099
-9.646787
-9.769655
-10.609482
-11.479702
-12.465259
-13.388472
-13.700451
-12.384983
-9.667549
-6.164835
-2.563151
-0.064181
1.512613
2.738201
3.516208
3.638821
3.222935
3.081104
4.849347
8.841463
13.491312
18.369496
23.991656
29.970477
34.843466
37.960943
39.645800
39.681651
38.096290
35.361455
32.445044
30.285595
28.854796
28.577366
29.513573
29.479026
26.961618
23.042242
19.250152
15.767446
11.879242
7.472801
3.337039
0.270481
-2.785167
-7.248756
-12.090568
-15.309610
-15.846028
-14.693175
-13.659556
-12.463582
-9.937856
-7.058326
-5.501535
-5.210592
-5.393726
-5.265658
-4.146575
-1.827884
1.731978
5.764098
9.387344
13.721574
19.257751
24.910043
29.129976
29.741992
27.104570
23.107524
18.841877
14.439073
9.214104
4.228900
0.506169
-2.611564
-4.680872
-5.353928
-5.965420
-7.008905
-6.959806
-4.169377
0.290322
3.324154
3.513007
1.487859
-1.810412
-5.672898
-9.694103
-13.802850
-17.907440
-21.509899
-24.240837
-25.813989
-25.564869
-23.842605
-22.552335
-23.189544
-25.528492
-28.125389
-29.684254
-30.066889
-29.549429
-28.112131
-25.823053
-22.985865
-20.411563
-18.614226
-16.865726
-14.318179
-10.875213
-6.913749
-2.620043
1.912131
6.185575
10.401611
15.456178
20.898059
25.346587
28.350026
30.121386
31.203062
32.291493
33.561500
34.903204
36.184642
37.201896
37.408933
36.468316
35.310273
34.722681
34.128594
32.999385
31.447794
29.580065
27.728182
26.359208
25.538863
24.667344
23.089776
20.932146
17.878057
13.550067
8.314187
2.313291
-3.828400
-9.116233
-12.844680
-15.162846
-16.840685
-17.364894
-16.247370
-14.343268
-12.484626
-11.496986
-11.914171
-13.714100
-16.441921
-18.824250
-19.992164
-19.498602
-17.685160
-15.800281
-14.248425
-13.517436
-14.055153
-15.468028
-17.182494
-18.236630
-17.642278
-15.650375
-14.019290
-13.862907
-14.821188
-16.394081
-17.716557
-17.866960
-17.297286
-17.676545
-19.843267
-22.596025
-24.401929
-24.292824
-21.524734
-17.158553
-14.299284
-14.746343
-16.866826
-17.806663
-16.833051
-15.511609
-14.594106
-12.802224
-9.604479
-6.266718
-3.558895
-0.382190
4.314157
9.392882
12.911701
14.230545
14.582013
15.427820
16.908500
19.148741
21.514710
22.321551
21.501726
20.067290
19.200707
19.355791
19.572960
20.031972
20.997532
21.946467
23.114646
24.424398
25.592837
26.348764
26.705168
26.562298
24.974599
22.634093
21.012364
20.243194
20.557515
21.374748
20.749229
17.695140
13.215445
9.445955
7.322874
5.914935
4.422570
2.736939
1.002471
-0.399494
-1.564551
-2.788315
-3.923238
-5.063877
-7.172930
-10.030115
-11.195171
-10.072972
-8.538520
-7.896631
-8.148343
-9.181438
-11.468692
-14.677862
-17.955352
-20.790976
-23.183956
-25.145980
-26.246355
-27.000199
-28.156943
-29.412658
-30.499265
-31.526125
-32.484666
-33.622967
-34.881280
-35.660062
-35.865795
-34.897638
-32.039669
-28.109897
-24.792138
-23.419262
-23.083900
-21.679851
-18.839546
-15.344886
-12.174416
-9.962230
-8.193987
-6.383142
-4.578272
-3.490621
-3.686484
-3.794545
-3.329818
-3.402810
-4.322646
-6.199986
-8.930404
-11.774860
-13.810659
-15.150020
-16.476912
-17.423244
-17.292318
-15.527453
-11.658207
-5.926425
-0.167108
4.131274
7.750883
11.530769
15.419757
19.059108
22.550132
26.288974
30.063664
34.401271
40.398276
47.036908
51.502321
53.287449
54.362631
55.337802
55.281694
53.745949
51.389856
48.982590
46.356598
43.102228
39.504445
35.893673
32.066255
28.730058
26.912465
25.806895
24.072687
21.056524
17.150396
14.216580
13.486115
14.090338
14.205417
12.707338
9.858726
6.821522
4.386460
2.378716
0.262649
-2.394774
-6.021652
-10.723708
-15.034814
-17.730683
-19.439434
-21.273133
-24.457886
-28.214906
-30.822195
-32.966836
-35.100827
-36.065343
-35.055363
-32.198692
-28.745075
-25.794369
-22.921073
-19.824377
-16.861202
-13.989725
-11.040317
-7.652941
-3.778240
-0.241498
2.992096
6.718989
10.265603
12.762235
14.283179
14.602955
13.635582
12.132827
11.152466
10.786195
10.285106
9.343449
7.618333
4.884278
1.846295
-1.158958
-4.201357
-6.460556
-7.228947
-6.819550
-6.407036
-6.699792
-7.304530
-8.861056
-12.321422
-16.768127
-20.136535
-21.413292
-21.681890
-22.348192
-23.742883
-25.174202
-25.761015
-25.235242
-23.631173
-21.069859
-17.886400
-14.537989
-11.453762
-9.048569
-7.729724
-7.693874
-8.105084
-7.270187
-4.432480
-1.050819
0.886793
1.684543
2.457874
3.243675
4.153125
4.971656
5.261040
5.660825
7.062276
9.283034
10.976204
11.171033
9.966491
8.516469
8.398537
10.041572
12.998772
15.955713
17.721878
18.685359
19.738721
20.757533
20.900148
20.366588
19.993044
20.267101
20.947696
21.974301
24.039719
26.161246
26.735335
26.006689
24.818773
23.699435
23.206658
23.911151
25.664068
27.104743
27.358539
26.953044
26.123867
24.776193
22.971328
20.511848
17.751297
15.601720
14.189884
13.088211
12.109667
10.513396
7.598023
3.771384
-0.400746
-4.686654
-8.762410
-11.694408
-12.700747
-12.405648
-12.120161
-12.180164
-11.854153
-11.117189
-11.251227
-12.951665
-15.437901
-17.489026
-18.069345
-17.669560
-17.756840
-18.390151
-18.676153
-18.004651
-17.029999
-16.440583
-15.572956
-14.275672
-13.161005
-12.597306
-12.568729
-12.938377
-13.248797
-12.311811
-9.873108
-7.406349
-6.391433
-6.834075
-7.309188
-7.030974
-6.922908
-7.941196
-10.255206
-13.049787
-15.134422
-16.952016
-19.338241
-20.965165
-20.309768
-18.273445
-16.656127
-16.246211
-16.023328
-14.348601
-10.703276
-4.963701
1.591286
6.660659
9.161188
9.791647
10.810459
13.021087
14.901290
15.280293
14.663087
14.447483
15.014818
15.735157
16.165076
16.495243
17.179215
18.169452
19.224372
20.043163
20.143696
19.533764
18.879671
18.711084
18.725633
18.466387
18.003743
17.450700
16.484625
14.249585
10.399047
6.297834
3.993695
3.601708
3.535469
3.251545
2.348595
0.006270
-2.851954
-4.530312
-4.855020
-4.902035
-4.897876
-4.573424
-4.608230
-5.318433
-6.421405
-7.757908
-8.743985
-8.614878
-7.314737
-6.067069
-6.195652
-6.932611
-6.770773
-5.655067
-4.227899
-3.308319
-3.391182
-3.630426
-3.292725
-3.071660
-3.210373
-3.045938
-2.456522
-1.793851
-1.374324
-0.791402
0.347683
1.182060
1.155826
0.776308
0.445106
0.220149
0.100399
-0.059096
-0.738646
-2.515716
-5.021695
-6.709145
-6.532760
-4.986619
-3.339168
-2.159040
-1.313752
-0.909031
-0.836034
-1.132687
-2.313329
-3.595281
-3.219395
-1.345946
0.456326
2.267431
4.699381
7.040671
8.321330
7.638662
5.671962
4.584836
4.830838
5.542345
6.191508
6.878856
7.918190
8.834134
8.434614
6.174376
3.597740
2.922346
3.824003
4.081955
2.601280
-0.311495
-3.632625
-5.821687
-5.884288
-3.859135
-0.692302
2.071372
3.734668
4.725166
5.232495
5.384462
6.007647
7.258692
8.175156
8.348684
7.946565
7.213243
6.753976
6.971924
7.830979
9.647019
12.584737
15.810537
18.105330
18.791119
18.661758
19.158696
20.284273
20.570540
19.318461
17.422677
15.524815
13.875032
12.591781
10.908487
8.198591
4.558725
0.597267
-2.494489
-4.217527
-5.835878
-8.545515
-11.502970
-13.652028
-16.023966
-19.419390
-22.418408
-24.239899
-25.304425
-25.748885
-25.737193
-25.164922
-24.030513
-22.905975
-22.423584
-21.839363
-19.374423
-15.173194
-10.777658
-6.749434
-3.183338
-0.519155
1.533793
3.939506
6.566022
8.618191
10.112639
11.582668
12.926190
12.713443
9.953671
6.107809
3.573256
2.612377
1.283147
-1.412202
-4.577992
-6.670160
-6.896935
-5.326635
-1.517915
4.009949
9.003730
11.784288
12.052891
10.141261
6.830262
2.938681
-1.058625
-4.439762
-6.924959
-8.926988
-10.910574
-13.229000
-15.908763
-18.963372
-21.504679
-22.228649
-21.189056
-19.198192
-16.934052
-14.799537
-13.293400
-12.533056
-11.997153
-11.459690
-10.876509
-10.446590
-10.430742
-10.630761
-11.062493
-11.884915
-13.086859
-14.348549
-14.929907
-14.945231
-14.851193
-14.205407
-13.035670
-11.951915
-11.246903
-10.810750
-10.029106
-8.580637
-6.577304
-4.385380
-2.583627
-1.186073
0.259278
2.012974
3.672374
4.679496
5.136431
5.270474
4.820298
3.883318
3.625371
4.571188
5.678322
6.111877
6.426458
7.354612
8.536299
9.631742
10.802779
12.221893
14.209380
16.615613
18.849879
20.000134
19.416698
17.593649
15.454983
13.702331
11.975137
9.691000
7.179826
5.150261
4.429148
4.483182
4.137953
3.787789
3.860786
3.855333
3.630896
3.723376
4.531777
5.619687
6.688375
8.272962
10.533984
12.665123
13.766022
14.162430
14.970571
16.305261
17.435254
17.930374
18.238202
19.136222
20.359212
20.902389
20.582617
19.982816
19.138572
17.784405
16.441927
15.989154
16.385562
16.584547
15.773554
14.375485
13.257187
12.248770
10.844727
8.907640
6.541417
4.387943
2.438907
0.045927
-3.115446
-7.120285
-11.158115
-14.489377
-17.461119
-20.508454
-23.250822
-24.780333
-25.082440
-24.591217
-23.329261
-21.848322
-20.928741
-20.945623
-21.888059
-23.197806
-24.188559
-24.181023
-23.160652
-21.833755
-20.648431
-19.588316
-18.166084
-16.249773
-14.349828
-13.395958
-14.016801
-15.629438
-17.610685
-20.022108
-22.585236
-24.313469
-24.664673
