EVENT_NAME: 202302060117
EVENT_ID: 13194
EVENT_DATE_YYYYMMDD: 2023/02/06
EVENT_TIME_HHMMSS: 01:17:32.00000
EVENT_LATITUDE_DEGREE: 37.288
EVENT_LONGITUDE_DEGREE: 37.043
EVENT_DEPTH_KM: 8.6
HYPOCENTER_REFERENCE: AFAD
MAGNITUDE_W: 7.7
MAGNITUDE_W_REFERENCE: AFAD
MAGNITUDE_L: 
MAGNITUDE_L_REFERENCE: 
FOCAL_MECHANISM: 
NETWORK: TK
STATION_CODE: 3305
STATION_NAME: 
STATION_LATITUDE_DEGREE: 36.92142
STATION_LONGITUDE_DEGREE: 34.89897
STATION_ELEVATION_M: 15.0
LOCATION: Kahramanmaras_Pazarck_Turkiye
SENSOR_DEPTH_M: 
VS30_M/S: 362
SITE_CLASSIFICATION_EC8: B
MORPHOLOGIC_CLASSIFICATION: 
EPICENTRAL_DISTANCE_KM: 194.45
EARTHQUAKE_BACKAZIMUTH_DEGREE: 
DATE_TIME_FIRST_SAMPLE_YYYYMMDD_HHMMSS: 2023/02/06 01:17:45.5351020
DATE_TIME_FIRST_SAMPLE_PRECISION: millisecond
SAMPLING_INTERVAL_S: 0.01
NDATA: 13501
DURATION_S: 
STREAM: HNZ
UNITS: cm/s^2
INSTRUMENT: sensor = CMG-5T/GURALP | digitizer = 
INSTRUMENT_ANALOG/DIGITAL: 
INSTRUMENTAL_FREQUENCY_HZ: 
INSTRUMENTAL_DAMPING: 
FULL_SCALE_G: 
N_BIT_DIGITAL_CONVERTER: 
PGA_CM/S^2: 13.380
TIME_PGA_S: 
BASELINE_CORRECTION: BASELINE REMOVED
FILTER_TYPE: BUTTERWORTH
FILTER_ORDER: 
LOW_CUT_FREQUENCY_HZ: 
HIGH_CUT_FREQUENCY_HZ: 
LATE/NORMAL_TRIGGERED: 
DATABASE_VERSION: 
HEADER_FORMAT: DYNA 1.2
DATA_TYPE: Acceleration
PROCESSING: Automatic Paolucci et al., 2011
DATA_TIMESTAMP_YYYYMMDD_HHMMSS: 
DATA_LICENSE: U (unknown license)
DATA_CITATION: Turkish Accelerometric Archive v 1.0 - Disaster And Emergency Management Presidency, Earthquake Department
DATA_CREATOR: AFAD
ORIGINAL_DATA_MEDIATOR_CITATION: : AFAD - Disaster And Emergency Management Presidency
ORIGINAL_DATA_MEDIATOR: AFAD PROCESS SERVICE
ORIGINAL_DATA_CREATOR_CITATION: AFAD PROCESS SERVICE
ORIGINAL_DATA_CREATOR: network: TK
USER1: GuestUser
USER2: 
USER3: 
USER4: 
USER5: 
[...]
-0.628101
0.387097
0.596956
0.133529
-0.395615
-0.718929
-0.778136
-0.652593
-0.157238
0.808672
1.484437
1.665778
1.944453
2.326043
2.296594
1.583320
0.632288
0.103144
0.048277
0.092604
-0.102687
-0.869898
-1.970653
-2.655719
-2.665329
-2.546605
-2.765144
-3.142706
-3.602723
-4.172784
-4.619162
-4.596534
-4.321888
-4.449602
-5.044772
-5.622274
-5.587246
-4.862503
-3.618847
-2.346362
-1.687335
-1.792730
-2.275996
-2.564592
-2.761433
-3.221760
-3.814450
-3.922015
-3.019341
-1.353176
0.458061
1.860740
2.729315
3.350523
3.797520
3.684065
2.869116
1.932343
1.049508
-0.047837
-1.257706
-1.910534
-1.560872
-0.727325
0.119552
1.120801
2.201096
2.831913
2.396385
1.003625
-0.758636
-2.102108
-2.607383
-2.510359
-2.205335
-1.706570
-1.103341
-0.916421
-0.994848
-0.532662
0.903495
2.541452
3.047965
2.335931
1.517262
1.247575
1.490603
2.162028
3.082681
4.109658
4.925847
5.002412
4.202962
2.905678
1.747576
1.501138
2.315466
3.373132
3.876546
3.596630
3.198610
2.935433
2.572440
2.131952
1.793449
1.799028
2.290663
2.918071
2.879322
1.997726
1.113961
0.843034
0.785687
0.425794
-0.256482
-0.543837
0.089150
1.508258
3.038650
4.193031
4.897314
5.271465
5.303393
4.449076
2.716883
1.075826
0.572721
0.987480
1.446256
1.706022
2.003297
2.619235
3.358857
3.834682
3.849561
3.442551
3.181234
3.372804
3.496487
3.130705
2.439130
2.201062
2.759963
3.344283
3.198590
2.484075
1.682146
0.931053
0.280706
-0.214030
-0.448068
-0.341744
-0.100267
0.083864
-0.239141
-1.096248
-1.541385
-1.061840
-0.400644
-0.307959
-0.811994
-1.484041
-1.928249
-2.008535
-1.919260
-1.747529
-1.486523
-1.285963
-0.780999
0.112995
1.413998
2.827216
4.063743
4.808635
4.931078
4.428283
3.581406
2.920829
2.597205
2.635952
2.760566
2.857280
2.927646
2.883318
2.472588
1.971653
1.839909
1.838359
1.560613
1.044798
0.676227
0.675296
0.839897
0.891974
0.688314
0.368410
0.161030
0.240386
0.278823
0.205356
0.379877
0.601825
0.371817
-0.130668
-0.808294
-1.526838
-1.788156
-1.267073
-0.220566
0.562764
0.922035
1.187381
1.590980
2.111753
2.380199
2.196998
1.704433
1.139641
0.525872
0.069574
0.070504
0.305471
0.713720
1.493330
2.546656
3.353545
3.431041
2.831531
2.183663
1.919866
2.051299
2.360973
2.608030
2.718074
2.658246
2.547581
2.266115
1.677455
1.060895
0.661325
0.012528
-0.999882
-1.534295
-1.140615
-0.655800
-1.088849
-2.056930
-2.457740
-1.922708
-1.386126
-1.408445
-1.588236
-1.622335
-1.683402
-1.984707
-2.857314
-4.180327
-5.142519
-5.314560
-4.744810
-3.907233
-3.063456
-2.684346
-3.435438
-4.897944
-5.788840
-5.573711
-4.904145
-4.339044
-3.902897
-3.268980
-2.654901
-2.351737
-2.338098
-2.295011
-1.873433
-1.160159
-0.201068
1.012520
2.356611
3.327791
3.733250
3.639945
3.147069
2.420776
1.786547
1.606446
1.782827
2.071421
2.640242
3.894748
5.392282
6.326884
6.267676
5.210940
3.634359
2.477497
2.117295
1.867757
1.372712
1.663167
3.145201
4.728290
5.466363
5.583846
5.831213
6.300839
6.313238
5.276650
3.692630
2.362797
1.791185
2.084740
2.839241
3.594672
4.077627
4.137454
3.837389
3.455798
3.257097
2.893795
2.373021
2.149212
2.017778
1.199109
-0.213180
-1.353612
-1.511395
-0.714425
0.438716
1.598676
2.333649
2.601475
2.595894
2.132467
0.819684
-1.037123
-2.391755
-2.646872
-2.379046
-2.309920
-2.206076
-1.792247
-1.426156
-1.359820
-1.453126
-1.633227
-1.911593
-2.140052
-2.017609
-1.366642
-0.569673
-0.006432
0.309441
0.455753
0.520850
0.419484
0.233803
0.164986
0.104229
-0.196766
-0.642834
-0.971728
-0.766829
-0.022247
0.837649
1.470017
1.927863
2.156321
1.829287
1.238456
0.434047
-0.537134
-1.337514
-1.471738
-1.090148
-0.906948
-1.163925
-1.446941
-1.302799
-0.948487
-0.780476
-1.178806
-2.049553
-3.274301
-4.694960
-5.711708
-5.603214
-4.371027
-2.795378
-1.457486
-0.555432
-0.140364
-0.260638
-0.797531
-1.679747
-2.547703
-3.084287
-3.319565
-3.482927
-3.479828
-2.995943
-2.190914
-1.395495
-0.876582
-0.512661
-0.351469
-0.622086
-1.051725
-1.107212
-0.590469
0.452008
1.717673
2.808507
3.526120
3.793946
3.671192
3.370197
2.930639
2.624064
2.762936
3.025803
2.925677
2.444271
1.850341
1.306938
0.950766
1.447670
3.046258
4.894694
5.529542
4.445836
2.585620
1.338553
1.286785
1.771290
2.518042
3.538819
4.740008
5.564566
5.493269
4.734427
3.819973
3.033542
2.155356
0.846602
-0.468662
-0.669222
0.332647
1.504697
1.957894
1.603581
1.126205
1.078157
1.089316
0.254528
-1.227198
-2.237437
-2.382820
-2.429628
-2.833538
-3.031928
-2.508985
-1.578723
-1.145675
-1.454110
-1.922187
-2.080899
-2.103219
-2.391814
-2.977375
-3.351217
-2.817114
-1.616236
-0.953180
-1.495033
-2.473343
-2.983888
-3.152210
-3.770629
-4.906412
-5.941140
-6.407357
-6.049325
-5.268165
-4.656257
-4.227239
-3.592392
-2.899887
-2.535036
-2.677010
-3.152216
-3.799774
-4.571015
-5.036302
-4.798544
-4.072561
-3.182287
-2.099822
-1.313703
-0.986980
-0.768751
-0.681646
-0.534094
-0.103836
0.563869
1.421285
2.307220
2.853102
2.835742
2.367666
1.473361
0.494740
0.103849
0.392134
0.986683
1.684768
2.230959
2.167102
1.549923
0.898336
0.408870
0.266587
0.473966
0.688474
0.769070
0.805958
0.634846
-0.184133
-1.412291
-2.397422
-2.524516
-1.499398
-0.054252
0.474581
-0.434914
-2.164316
-3.922548
-5.190074
-5.590884
-4.733158
-2.711441
-0.329832
1.320834
1.755741
1.433357
0.760071
0.135762
-0.230640
-0.383153
-0.500947
-0.405162
-0.213593
-0.043412
0.454733
1.540607
3.492268
5.879766
7.631487
8.281524
7.720452
6.255465
4.274355
2.173281
0.249209
-1.365500
-1.929982
-1.221978
0.110024
1.166760
1.926531
2.592997
2.876632
2.580596
1.731239
0.797256
0.325149
0.260672
0.492230
1.013313
1.375064
1.304697
1.483248
1.862668
1.592981
0.471148
-0.977409
-2.445805
-3.828026
-4.596787
-3.981779
-2.027328
0.224397
1.897382
2.511770
2.221004
1.415975
0.669842
0.336299
0.578706
0.936427
0.658681
-0.035684
-0.674872
-1.030735
-0.939600
-0.499423
-0.218267
-0.556461
-1.181079
-1.129312
-0.227259
0.592339
1.340021
2.593597
3.906070
3.863602
2.122419
-0.151936
-1.569804
-1.676129
-1.005944
-0.135818
0.260651
0.192454
0.237711
0.382474
0.177264
-0.036936
0.345584
0.931454
0.717874
-0.116914
-0.364282
0.425868
1.549250
2.079633
1.738030
0.899212
0.359839
0.105651
-0.390324
-1.176755
-1.778125
-1.838572
-1.379796
-0.435894
0.366345
0.305897
-0.932490
-2.518370
-3.492341
-3.551549
-3.116021
-2.744971
-2.081295
-1.083766
-0.365533
-0.546874
-1.452338
-2.576652
-3.363702
-3.855958
-4.345423
-4.660678
-4.402152
-3.579454
-2.690729
-2.071071
-1.717069
-1.446144
-1.587187
-2.450184
-4.059313
-5.459822
-5.202535
-3.378898
-1.396239
-0.319044
-0.276887
-0.974352
-1.894696
-2.671207
-3.399361
-3.664398
-3.100227
-1.886019
-0.933127
-0.833313
-1.374236
-1.598665
-1.011865
-0.235665
-0.137400
-0.844475
-2.030475
-2.980268
-3.165949
-2.873014
-2.659125
-2.729802
-2.784050
-2.444308
-2.032339
-1.873627
-1.828990
-1.456389
-0.918877
-0.505049
0.238293
1.087030
2.206383
3.316436
4.002431
4.048618
3.311475
2.354553
2.000240
2.609979
3.241416
3.355490
3.249785
3.228396
3.475763
3.963058
4.487861
4.416254
3.366646
1.587026
0.109021
0.079572
0.933888
1.579895
1.804633
2.124846
2.651509
2.996211
3.044878
2.961492
3.327583
3.860755
3.780469
2.681574
1.326633
0.829727
1.307723
1.642505
0.939150
0.030276
-0.166564
0.116451
0.276712
0.226494
0.489671
1.211933
2.029672
2.246350
2.007042
1.844300
2.127625
2.543933
2.134753
0.755633
-0.628137
-1.253686
-1.474085
-1.570801
-1.239738
-0.396891
0.645585
1.348319
1.281362
0.758108
0.216565
-0.274760
-0.481830
-0.027394
0.903179
1.807712
2.415901
2.654279
2.664818
1.999281
0.618610
-0.356911
0.238569
1.670076
2.109633
1.289104
0.421458
0.254066
0.483144
0.961449
1.664803
2.432323
2.693640
2.321968
1.023753
-0.788725
-1.760836
-1.342978
-0.441854
0.363175
1.687117
3.362582
4.549821
4.361040
3.296554
2.481295
2.095364
1.812968
1.778869
2.535540
3.683101
4.735188
5.152426
4.470460
3.210374
2.486250
2.648681
2.534296
1.681839
1.004213
0.933536
0.895098
0.360684
-0.296793
-0.409937
0.106496
0.701355
0.750642
0.395710
0.183680
0.524662
1.570859
2.823195
3.759657
4.157056
4.173485
4.041431
3.733927
2.801183
1.473210
0.845802
1.499558
3.057229
4.756872
6.329732
7.818586
9.014815
9.720338
9.644702
8.826033
7.645612
6.673811
6.430473
6.487820
6.158616
5.736107
5.583904
5.397293
5.088858
4.765544
4.171614
2.913697
1.045731
-0.870282
-1.913379
-1.676242
-0.641515
-0.008837
-0.396628
-1.269544
-1.938801
-2.297143
-2.412458
-2.548231
-2.685555
-3.103104
-4.161701
-5.423027
-6.316713
-6.740152
-6.519443
-5.431709
-4.084518
-3.007013
-2.200434
-1.907809
-2.407194
-3.378066
-4.011984
-3.847693
-3.154878
-2.629145
-2.664174
-3.200137
-4.071814
-4.855144
-5.385218
-5.463334
-5.292844
-5.167300
-4.784160
-3.381482
-1.052880
0.908080
1.371196
-0.078601
-2.118918
-3.508578
-4.294079
-4.967675
-5.561915
-5.823233
-5.997444
-5.613064
-4.542379
-3.203247
-2.245396
-1.222758
0.162561
0.695733
-0.453379
-2.628229
-4.701094
-5.840287
-5.925533
-5.139414
-4.032770
-3.649010
-4.301837
-5.257829
-5.925226
-6.192123
-5.772095
-4.768366
-3.858563
-3.299971
-2.838715
-2.297793
-1.984089
-2.125133
-2.786640
-4.025957
-5.252566
-5.789769
-5.439487
-4.732103
-3.464578
-1.509198
0.262362
0.802664
0.178045
-0.941928
-2.065312
-2.634133
-2.188376
-1.130400
-0.563130
-0.706033
-0.684954
0.169362
1.451146
2.627536
3.848254
5.132208
5.992104
5.755276
4.191095
1.784376
-0.138767
-0.384895
0.417964
0.922928
1.319088
2.731996
4.656068
5.494885
4.440318
2.236639
0.416721
-0.272065
-0.317013
-0.548882
-0.783850
-0.289116
0.999178
1.997017
1.776618
0.618826
-0.557874
-1.422731
-2.118646
-2.305567
-1.574935
0.043803
1.970665
3.314136
3.677747
3.654188
3.425419
3.042898
2.349153
0.723905
-1.573699
-3.316431
-3.925241
-3.590768
-2.471106
-1.092296
-0.119566
0.298293
0.238775
-0.303078
-1.116787
-1.748535
-1.291619
0.189175
1.625332
2.269479
2.329926
2.075118
1.265749
0.281238
-0.195518
-0.020688
0.079437
-0.599119
-1.571850
-1.605949
-0.081447
2.367739
4.272282
4.448972
3.472521
2.643933
2.327128
1.784655
0.707770
0.457922
1.548756
2.594953
2.811941
3.106736
3.966322
4.947111
5.434716
4.996708
3.598059
2.003809
0.908944
0.622518
1.135232
2.447085
4.529869
6.142406
6.091258
4.869920
3.344177
1.844472
0.152578
-1.390834
-1.674161
-0.520709
1.202803
2.214901
2.363383
2.664997
3.808839
4.896573
4.675864
3.513112
2.902443
3.368969
3.722660
3.649194
4.065502
5.262351
6.114187
5.537306
3.629352
1.613214
0.381336
-0.088910
-0.395175
-0.718799
-0.793506
-0.448184
0.188213
0.487968
0.462238
0.385362
0.583131
0.441778
-0.092325
-0.442298
-0.212600
0.237187
0.403028
0.234706
-0.351785
-1.070949
-1.470209
-1.515467
-1.682239
-2.025082
-2.251681
-2.103819
-1.623034
-1.312120
-1.005236
-0.455945
0.578163
1.753623
2.846317
3.505343
3.170559
2.220457
1.072585
-0.167353
-1.355213
-1.537174
-0.496557
0.536310
0.266933
-0.937047
-1.285779
-0.005545
1.976184
3.415441
3.674587
2.829260
1.294837
-0.114972
-0.964949
-1.074374
-0.202389
1.288015
2.612268
3.436825
3.472473
2.083433
-0.338475
-2.350273
-3.075327
-3.100436
-3.523875
-3.894307
-3.115936
-1.253861
0.636112
2.130856
3.320575
3.589951
2.018020
-1.042455
-4.402375
-7.195024
-8.657530
-8.576005
-7.769736
-7.080951
-6.386897
-5.510262
-5.195008
-6.005308
-7.235326
-7.554610
-6.756711
-5.683236
-4.720735
-3.707707
-2.743966
-2.447622
-2.903919
-3.473051
-4.109139
-5.377595
-7.253310
-8.687918
-8.570124
-6.972156
-4.901771
-3.020167
-0.922504
1.642305
3.087142
2.065743
-0.268749
-2.013651
-2.465919
-2.177634
-1.874159
-1.890279
-1.878810
-1.539998
-0.798826
-0.143519
0.101988
0.201182
0.427780
0.790461
0.612530
-0.767831
-2.545901
-3.279324
-3.028857
-2.729723
-2.940823
-3.227559
-3.035989
-2.384402
-2.140755
-2.907967
-4.113186
-4.336375
-2.987634
-1.612854
-1.785206
-2.813734
-3.012124
-1.781177
0.087407
1.839748
3.330152
4.592718
4.681683
3.221346
1.301303
0.145061
0.157770
0.519522
0.873213
1.188157
0.958768
0.160868
-0.550856
-0.720418
0.386845
2.738385
4.881306
5.593650
5.315903
4.857436
4.748321
4.913852
4.677334
3.801938
2.768140
1.944511
1.463415
2.035336
3.690651
5.391844
6.196253
6.121237
5.715157
5.640760
6.265998
7.050258
6.830788
5.258858
3.504346
2.518286
2.002161
1.769053
2.684436
4.990408
7.643873
9.412953
9.522687
8.284920
6.795135
5.854952
5.418184
4.397405
2.225965
0.518261
0.808406
2.032223
2.534397
2.017343
0.873190
-0.013055
0.059171
0.640081
0.986643
1.248269
1.512375
1.789811
2.060737
1.877535
1.160541
0.560101
0.059476
-1.074137
-2.744023
-4.204979
-4.932203
-4.575411
-3.217990
-1.485799
0.003365
0.682541
0.711059
0.333807
-0.372647
-1.363358
-2.519909
-3.089661
-3.048433
-3.161578
-3.514651
-3.007827
-1.557411
-0.473086
-0.317785
-0.611960
-0.912955
-1.463798
-2.423510
-3.531704
-4.120055
-3.598971
-2.696608
-2.611672
-3.521477
-4.806672
-5.421991
-5.108598
-4.885719
-5.929437
-7.527716
-7.888849
-6.773835
-5.536379
-5.413315
-6.062733
-6.221135
-5.544130
-5.241276
-6.683013
-9.830594
-12.642772
-13.379605
-12.344568
-11.095022
-10.011937
-8.087555
-4.973764
-2.481490
-2.424454
-4.386035
-6.136516
-6.201304
-5.454862
-5.025534
-5.332419
-6.063052
-6.104281
-4.896582
-3.633397
-3.453607
-3.476546
-2.635869
-1.622841
-1.567354
-2.147335
-2.041631
-1.200954
-1.039143
-2.633702
-4.719587
-5.296468
-4.074511
-2.953918
-3.213375
-3.750268
-3.115111
-1.473125
-0.175841
-0.224509
-1.069836
-1.226689
-0.400271
0.717842
1.545809
1.352378
0.184357
-0.894079
-1.517767
-1.501339
-0.246833
1.678789
2.460259
1.735515
0.834391
0.263089
-0.156630
-0.255825
0.789751
2.833477
4.422456
4.359219
2.724051
0.774870
-0.244359
-0.138965
0.221546
0.127311
-0.396563
-0.703448
-0.955466
-1.579465
-1.997014
-1.304200
0.280750
1.689938
2.251629
1.999301
1.130105
-0.090614
-0.989569
-1.047226
-0.287765
0.718443
1.074925
0.499284
-0.562723
-1.293047
-1.460748
-1.673088
-2.375823
-3.024311
-2.625051
-1.419833
-0.837993
-1.335828
-1.897210
-1.220515
0.268029
1.301517
1.433569
1.147143
0.804610
0.016010
-1.244697
-2.296474
-2.268886
-1.336763
-0.343264
0.078624
0.282283
1.090412
2.541138
3.821372
4.169174
3.855780
3.435441
3.027501
2.656449
2.415901
2.522845
2.429539
1.354823
-0.611717
-2.284083
-2.887313
-2.496733
-1.682095
-0.885126
-0.677747
-1.230449
-2.143663
-2.958303
-3.784101
-4.596880
-4.167243
-2.112667
0.508869
2.188984
2.306467
1.604973
1.456490
1.716876
1.513526
0.878058
0.202601
-0.392259
-0.960771
-1.565240
-2.221788
-2.559981
-1.678696
0.329382
2.193007
2.830334
2.417744
1.653633
1.039863
0.365647
-0.478440
-1.169706
-2.093460
-3.713438
-5.531186
-6.652400
-7.094438
-7.410312
-7.331577
-6.536777
-5.721829
-5.152699
-4.201357
-3.002648
-2.457387
-2.960801
-3.920823
-4.348292
-3.978481
-3.318525
-3.038300
-3.009472
-2.934456
-2.847351
-2.640902
-2.126018
-1.520929
-1.067733
-0.355389
0.710646
1.167872
0.967002
0.867807
1.575500
2.734841
3.843345
4.426115
4.104970
2.923930
1.187397
-0.084159
-0.502948
-0.898798
-1.433522
-0.853851
0.479391
1.337737
1.794343
2.478168
2.938804
2.298066
0.584162
-1.642765
-3.529640
-4.362878
-4.011046
-3.191758
-2.604029
-2.400059
-2.474766
-2.709735
-2.882086
-2.665098
-1.845190
-0.445921
0.688931
1.080750
1.164136
1.499848
2.080138
2.370283
1.763334
0.717756
-0.051625
-0.954920
-2.424866
-3.676273
-3.579558
-2.368140
-0.498625
1.567419
2.896322
2.934139
2.389496
2.355708
2.862842
3.171585
2.734507
2.225822
2.073930
1.545716
0.542296
-0.384867
-0.518161
0.230451
1.380802
2.072687
2.548202
3.363150
4.238545
4.538920
3.640275
2.571449
2.620736
3.340209
3.321299
2.399715
1.317870
0.346379
-0.983764
-3.061899
-4.867558
-5.158634
-4.248521
-3.352357
-2.866612
-2.275162
-1.354509
-0.870004
-1.571189
-3.033695
-3.889253
-2.924892
-0.684326
1.332431
2.154509
1.764549
0.329321
-1.881177
-4.304015
-6.522883
-8.033127
-7.910374
-5.802481
-2.771765
-0.602495
0.138366
0.395653
1.036390
1.609241
1.472847
0.704396
-0.312973
-1.561900
-2.807728
-3.650885
-4.201418
-4.284804
-3.415299
-1.477897
0.569858
2.045693
2.780045
2.911168
2.421703
1.314128
0.140527
-0.260903
0.377664
1.904027
4.048497
5.995508
7.024656
7.210956
7.323170
7.493660
6.947778
5.589426
4.353208
3.482772
2.447734
1.187337
0.107662
-0.361965
-0.038962
0.766067
1.292420
1.287460
1.154476
1.479029
1.937805
2.018401
1.834270
1.712135
1.684236
1.247158
0.266057
-0.722793
-1.591679
-2.396089
-2.806819
-2.872226
-3.011409
-3.237388
-2.937634
-2.393302
-2.653999
-3.588602
-4.253829
-4.043350
-3.031872
-1.939178
-1.497451
-1.760008
-1.860133
-1.227456
-0.430176
-0.237987
-0.620198
-1.246056
-2.056976
-3.344031
-4.527551
-4.451606
-3.372551
-2.654938
-2.511106
-2.006762
-0.591684
0.913599
1.618503
1.398724
0.971565
0.908638
0.805723
0.116937
-1.329140
-2.955938
-3.828854
-3.726560
-3.398287
-3.356129
-3.326991
-2.912853
-2.242977
-1.443528
-0.512646
0.347870
0.906151
0.963498
0.282772
-1.062250
-2.672929
-4.223781
-5.494097
-6.144754
-5.989453
-5.252001
-4.294460
-3.293831
-2.073113
-1.181599
-1.283894
-1.854886
-1.839697
-1.049857
-0.536524
-1.171992
-2.662707
-4.088015
-5.078725
-5.898014
-6.428088
-6.126164
-4.993171
-3.525396
-2.476100
-2.307779
-2.870401
-3.983555
-5.123678
-5.441722
-4.460312
-2.694332
-0.759411
1.026408
2.219847
2.568269
2.099263
1.488903
1.045935
0.779038
0.498192
-0.193073
-1.370704
-1.915657
-0.805914
1.554616
3.474968
3.307266
2.043460
1.726656
2.599261
3.445208
3.825868
4.085324
4.484583
4.572309
3.919791
3.199077
3.048114
3.628095
4.340128
4.501629
3.832993
3.129018
3.171176
3.378865
3.192874
2.694728
2.698448
3.135835
2.829570
1.409842
-0.088623
-0.755399
-0.474554
0.283667
0.721364
0.588071
0.318074
0.350622
0.381000
0.049936
-0.072198
0.288313
0.639215
0.560788
0.497241
1.080631
2.000974
2.404263
1.991364
1.255770
0.925637
1.042500
1.143865
0.884097
0.457249
0.258238
0.347203
0.421289
0.147882
0.028228
0.121223
0.411678
0.744290
1.088992
1.327680
1.411065
1.433074
1.339768
1.426873
1.863640
2.690058
3.036000
2.365194
1.084338
-0.367939
-1.414136
-1.402047
-0.252626
1.397110
2.622167
3.089003
3.062964
3.235935
4.132409
5.208054
5.862740
6.126227
6.157845
5.677059
4.637371
3.227872
1.560156
0.346257
0.528527
1.768774
2.667108
2.530714
1.680427
0.763803
0.389962
0.065098
-0.877255
-1.928722
-2.557681
-2.442367
-2.132073
-2.733133
-4.312814
-5.424108
-5.436198
-4.848468
-4.391241
-4.161854
-3.666189
-2.906728
-2.415403
-2.809084
-3.814983
-4.844442
-5.254241
-5.069181
-4.437434
-3.305681
-2.012738
-0.783650
0.177921
0.521693
0.446676
0.117162
-0.672368
-2.060788
-3.810030
-4.809730
