EVENT_NAME: 202302060117
EVENT_ID: 13194
EVENT_DATE_YYYYMMDD: 2023/02/06
EVENT_TIME_HHMMSS: 01:17:32.00000
EVENT_LATITUDE_DEGREE: 37.288
EVENT_LONGITUDE_DEGREE: 37.043
EVENT_DEPTH_KM: 8.6
HYPOCENTER_REFERENCE: AFAD
MAGNITUDE_W: 7.7
MAGNITUDE_W_REFERENCE: AFAD
MAGNITUDE_L: 
MAGNITUDE_L_REFERENCE: 
FOCAL_MECHANISM: 
NETWORK: TK
STATION_CODE: 0132
STATION_NAME: 
STATION_LATITUDE_DEGREE: 37.855892
STATION_LONGITUDE_DEGREE: 36.114868
STATION_ELEVATION_M: 761.0
LOCATION: Kahramanmaras_Pazarck_Turkiye
SENSOR_DEPTH_M: 
VS30_M/S: None
SITE_CLASSIFICATION_EC8: unknown
MORPHOLOGIC_CLASSIFICATION: 
EPICENTRAL_DISTANCE_KM: 103.34
EARTHQUAKE_BACKAZIMUTH_DEGREE: 
DATE_TIME_FIRST_SAMPLE_YYYYMMDD_HHMMSS: 2023/02/06 01:17:29.8658600
DATE_TIME_FIRST_SAMPLE_PRECISION: millisecond
SAMPLING_INTERVAL_S: 0.01
NDATA: 12501
DURATION_S: 
STREAM: HNE
UNITS: cm/s^2
INSTRUMENT: sensor = ACEBOX/SARA | digitizer = 
INSTRUMENT_ANALOG/DIGITAL: 
INSTRUMENTAL_FREQUENCY_HZ: 
INSTRUMENTAL_DAMPING: 
FULL_SCALE_G: 
N_BIT_DIGITAL_CONVERTER: 
PGA_CM/S^2: 32.530
TIME_PGA_S: 
BASELINE_CORRECTION: BASELINE REMOVED
FILTER_TYPE: BUTTERWORTH
FILTER_ORDER: 
LOW_CUT_FREQUENCY_HZ: 
HIGH_CUT_FREQUENCY_HZ: 
LATE/NORMAL_TRIGGERED: 
DATABASE_VERSION: 
HEADER_FORMAT: DYNA 1.2
DATA_TYPE: Acceleration
PROCESSING: Automatic Paolucci et al., 2011
DATA_TIMESTAMP_YYYYMMDD_HHMMSS: 
DATA_LICENSE: U (unknown license)
DATA_CITATION: Turkish Accelerometric Archive v 1.0 - Disaster And Emergency Management Presidency, Earthquake Department
DATA_CREATOR: AFAD
ORIGINAL_DATA_MEDIATOR_CITATION: : AFAD - Disaster And Emergency Management Presidency
ORIGINAL_DATA_MEDIATOR: AFAD PROCESS SERVICE
ORIGINAL_DATA_CREATOR_CITATION: AFAD PROCESS SERVICE
ORIGINAL_DATA_CREATOR: network: TK
USER1: GuestUser
USER2: 
USER3: 
USER4: 
USER5: 
[...]
7.042477
11.340838
14.965862
14.776719
12.427522
9.774389
6.640803
4.005906
2.191170
-0.082511
-1.846513
-0.918807
-0.616041
-2.573160
-1.629556
2.006925
3.997941
4.166040
3.338629
2.569201
3.022064
3.101787
1.699704
0.759135
-0.744884
-3.673898
-3.138270
0.527669
3.357783
4.981036
2.451582
-2.721886
-5.570941
-8.268496
-10.838864
-10.322876
-6.846078
-1.138621
4.693450
8.806877
9.066157
4.464791
-0.577282
-3.263381
-4.724849
-5.613281
-6.465707
-8.201186
-10.835615
-11.047671
-6.353492
0.913861
7.394018
10.044108
7.729981
2.501337
-1.842150
-3.127569
-4.257747
-6.376185
-6.766629
-5.058274
-0.260989
6.684892
8.592442
2.589228
-5.932684
-10.623126
-9.272481
-5.988099
-1.977309
6.816506
15.830792
19.904240
20.284626
14.323729
5.643770
1.687919
1.529870
5.526399
10.933660
11.997202
8.231194
-1.332051
-9.947014
-8.448609
-2.254386
0.863065
-0.006896
-2.185655
-1.524478
2.878858
6.902273
5.341909
0.594654
-2.278249
-4.201233
-5.774924
-8.706744
-13.121072
-11.912108
-4.464030
1.431166
0.411809
-5.024681
-5.308513
0.765772
3.979548
1.001203
-2.728333
-0.512638
5.419031
5.901119
0.738640
-3.272855
-5.460732
-9.625598
-14.581634
-15.294250
-10.783835
-4.039487
-1.461640
-6.940213
-13.763354
-16.689562
-17.400542
-17.221221
-17.593194
-15.950068
-9.249908
0.333674
10.052157
13.116068
7.144417
1.287326
-0.494445
-1.553548
-4.938700
-10.687777
-13.656302
-11.368598
-5.933982
-1.205201
-0.486743
0.063614
2.926460
4.070662
3.800390
5.468064
9.940371
15.306718
16.534151
11.724706
5.719154
4.275221
8.019014
10.196367
4.514624
-4.405913
-8.454815
-6.212701
0.102629
4.943166
2.803217
-2.321620
-2.583943
3.143153
10.991025
16.225977
16.294011
14.464545
14.421993
13.434899
8.575187
1.359267
-5.021530
-6.959945
-5.136094
-4.391218
-4.860451
-3.830342
-3.598183
-6.310467
-8.288393
-6.736916
-2.995460
0.798132
2.534543
2.187820
2.129135
3.175376
2.765762
-1.364035
-6.625878
-9.036797
-6.722206
0.762578
9.526467
13.698343
11.833107
6.794774
2.231284
-2.217412
-8.850009
-14.263586
-13.994019
-10.109947
-5.242758
1.756897
9.721199
14.145577
13.131129
8.398369
3.459400
3.033420
8.418471
15.105772
19.006444
19.389870
17.488629
15.651915
13.464273
10.521699
9.566869
8.421728
4.323728
0.995856
-1.851796
-5.774916
-7.013342
-6.254672
-5.186688
-2.755198
-1.763431
-1.905348
-0.574576
0.903021
5.426061
13.668816
17.741329
16.736233
14.647486
10.579178
7.520875
7.987532
7.133469
3.413987
-1.412058
-5.373287
-6.750588
-8.995512
-13.450053
-18.569981
-22.816208
-18.812198
-6.369743
5.471152
13.488759
16.269542
15.875826
16.820365
15.001888
7.381499
-1.524309
-6.010178
-4.002095
0.570977
3.950749
4.250943
0.322680
-4.866219
-6.330259
-1.070524
8.267338
16.373321
20.741120
20.723115
18.799196
17.458835
16.016538
13.942520
11.634472
10.819921
10.720321
9.156450
8.307062
8.923350
9.022712
7.344514
4.386042
3.002194
2.326986
0.873934
0.663515
0.931211
1.261097
1.874813
0.561806
-1.734553
-2.930194
-1.827374
2.795498
6.864504
4.963964
-0.947134
-4.706362
-4.096153
-2.446247
-3.182476
-6.206879
-9.108539
-8.998656
-5.913235
-5.123937
-9.032562
-12.002256
-11.337339
-9.372508
-7.848152
-10.738355
-17.694995
-21.681707
-20.164832
-14.541075
-6.385994
0.604309
3.223304
2.081203
-1.294832
-6.925607
-12.531833
-14.320618
-9.816281
0.446482
9.288926
11.312674
9.726825
8.219533
6.912370
5.097868
2.520953
-1.961878
-7.204315
-9.206089
-9.590454
-11.854548
-14.481964
-14.167976
-9.239531
-4.794111
-6.290650
-9.961034
-10.208628
-5.524033
2.304900
10.506039
16.204144
16.608378
14.734725
14.548387
15.878925
19.269919
21.070156
17.072689
9.617126
0.463026
-6.479351
-7.011008
-4.246357
-0.954727
-0.097161
-4.199603
-7.759168
-7.014292
-4.531133
-2.047974
0.805286
5.223819
10.408038
15.447303
19.616374
19.047777
12.765409
3.744807
-4.856829
-9.773821
-12.307952
-15.171502
-16.907683
-18.563904
-22.696740
-25.638613
-21.924979
-10.877826
2.866880
12.392714
14.832153
11.407489
4.783309
-0.748570
-4.575131
-8.869989
-11.784741
-9.476462
-0.982843
7.933949
10.791184
9.865345
10.224923
13.598148
17.030290
14.574950
7.572252
1.976547
-1.440636
-3.797548
-6.603350
-9.545691
-6.221329
4.090999
11.386875
11.313928
9.702596
11.825707
16.011845
15.093020
8.171685
3.120025
3.261003
6.969961
11.859596
14.201541
16.013936
19.311411
18.813888
15.091600
12.916583
11.300574
9.186812
6.526898
5.619529
10.077574
17.626652
25.555885
30.646117
28.783686
23.756108
19.169472
14.359793
9.684079
3.233611
-4.709653
-9.972431
-10.988749
-9.535701
-8.962899
-8.034025
-2.641259
4.974686
11.045931
15.853035
20.207975
23.373354
21.522614
11.648418
-1.234748
-9.008976
-9.451556
-6.269811
-4.623880
-5.642770
-6.194300
-3.224375
4.901715
13.614402
13.497034
4.580239
-4.246779
-8.342675
-8.558004
-8.483892
-10.743310
-12.144927
-10.371810
-7.941255
-5.429105
-3.620919
-5.398481
-8.729627
-9.857233
-9.359480
-8.010004
-4.709490
0.365078
4.479207
5.088013
3.086240
0.782166
-0.685381
-1.307985
-2.259074
-3.082042
-2.970757
-4.958269
-9.254061
-10.481265
-6.683464
-1.747538
0.739830
2.619558
6.068767
7.677758
5.671308
2.808459
1.737198
2.924185
2.410297
-2.927296
-10.409278
-16.274084
-18.581899
-18.014942
-15.467489
-10.762788
-6.210289
-3.729468
-4.042057
-7.177046
-10.022127
-11.109052
-7.904395
2.867813
14.072779
16.601060
9.651435
-1.717426
-9.409358
-10.254771
-6.684688
-2.272935
0.227525
1.018225
-1.358560
-6.207049
-8.350036
-8.076729
-7.779107
-8.645795
-11.340077
-11.443884
-6.768408
-0.403513
4.493135
3.575713
-4.137027
-12.463017
-12.765085
-3.628523
5.269799
8.622216
8.877521
6.278863
5.029449
7.236493
5.818043
0.826704
-2.256616
-3.557466
-3.494342
-1.778740
1.926711
8.895972
16.829413
21.170793
21.313174
19.738547
17.953036
16.121233
13.843110
13.184502
16.131982
16.813499
10.501205
1.567109
-6.051177
-11.522035
-15.010993
-16.570422
-14.547143
-9.208384
-2.497469
3.224250
7.062498
11.905840
17.158562
17.506217
10.350616
0.782695
-3.985368
-7.638219
-13.495777
-14.743788
-9.969182
-1.091668
10.005283
16.385843
17.058008
14.317435
7.615401
0.907756
-4.095975
-8.783846
-10.132858
-7.256686
-0.866307
8.674257
17.076929
21.508788
20.313147
13.513853
8.276559
7.152694
5.570820
2.766654
-1.274066
-5.524736
-7.278919
-9.349897
-12.521592
-11.212329
-6.188028
-2.501280
0.756917
4.249846
5.936692
6.714066
6.366174
2.104282
-5.452281
-12.421078
-15.331154
-12.994119
-7.505028
-1.830069
3.219249
6.881915
8.101166
8.295684
9.841783
13.926220
18.283732
17.650139
11.534235
5.135202
1.259309
-1.976213
-7.492427
-15.698713
-22.311904
-22.967941
-20.087794
-16.227102
-9.883248
-3.735785
0.810167
6.255772
7.958983
3.855138
1.956702
4.666645
6.527669
4.408295
0.869538
0.967497
4.095937
6.461496
9.132628
12.440858
12.772147
9.459238
5.199684
1.616739
-0.047198
1.468508
3.662693
3.372549
1.829953
-0.016346
-2.312003
-3.510917
-4.961630
-10.009081
-17.023936
-20.537911
-18.144530
-13.234322
-9.180045
-4.797049
-0.304403
1.838347
2.476145
1.289856
-3.150658
-8.548804
-13.012463
-13.957941
-10.751180
-9.070647
-9.944816
-10.758900
-11.686609
-10.647382
-8.467458
-8.113491
-5.301145
2.654740
9.383424
10.256421
9.310242
10.609217
13.529577
17.510675
19.589131
15.771688
8.644377
3.761987
4.062648
6.324869
3.573307
-2.720985
-4.621291
0.085514
6.476828
7.950918
3.965842
0.595887
1.357830
3.555757
2.501797
-3.501651
-8.625086
-5.137534
3.276828
7.512999
4.846306
-3.177385
-10.826765
-15.494997
-18.949353
-16.220707
-7.764495
-2.840025
-2.759367
-2.617921
-0.199057
0.752263
-0.679046
-0.052471
0.285364
-0.719732
0.209377
2.238735
3.930491
0.248416
-9.359485
-16.185197
-17.995959
-15.974316
-11.459458
-6.765746
0.801568
8.127136
7.883985
0.828216
-9.972986
-19.602396
-22.188429
-16.321990
-2.487739
12.620706
18.983964
16.275187
9.703846
3.316269
0.093840
-1.244651
-3.179092
-4.442534
-2.587121
0.365737
0.316170
0.192490
2.367504
2.390415
0.596486
0.036540
0.107847
-0.128758
-2.188981
-6.381903
-11.232497
-14.533949
-14.984245
-15.355049
-15.761858
-13.346734
-9.890511
-6.799946
-4.401656
-6.303364
-13.504088
-22.190827
-26.961228
-23.682925
-14.158961
-3.450814
5.274732
9.683679
9.959324
9.847567
11.340595
11.890251
10.075982
9.655613
11.464267
11.377526
10.331749
11.936766
14.042810
13.506945
11.366997
9.462950
9.254167
10.879524
10.823645
7.324867
2.390340
-2.517533
-5.440936
-5.567188
-3.953521
0.746737
7.968733
12.506502
11.729826
8.189432
5.883722
5.862679
4.891951
1.082456
-3.208661
-6.630519
-11.148887
-18.261936
-25.219745
-26.967381
-23.393090
-19.880989
-18.765311
-17.852802
-17.337982
-18.018567
-17.228802
-13.807882
-9.726719
-7.904504
-9.808785
-12.222743
-11.164111
-5.910454
0.835998
4.178362
2.899489
-0.751023
-4.650997
-6.150107
-6.022455
-7.218330
-6.902004
-1.389768
5.603808
7.947156
4.378006
-1.105945
-3.797888
-2.835814
-0.156265
2.330634
4.640550
6.974312
5.844134
0.339844
-4.364393
-4.894881
-2.703968
-2.419205
-5.161882
-6.419713
-4.719775
-0.414868
4.965741
6.510438
3.731522
0.763230
2.524891
8.584213
10.657291
7.650890
3.615080
-1.538748
-5.109536
-7.536587
-11.790997
-14.650106
-14.902842
-13.373109
-11.317331
-12.948536
-17.317975
-18.782249
-13.816631
-5.192787
-1.535030
-4.604556
-7.956743
-7.989476
-5.397134
-5.191160
-10.368369
-14.132273
-12.627789
-8.711453
-1.097145
6.919294
7.813333
5.119987
4.616853
5.850366
7.246134
5.483535
-1.111420
-8.461541
-9.350439
-2.110441
2.555917
-2.786820
-10.431291
-11.959158
-5.747868
4.439379
9.680878
7.094845
2.450226
-0.375917
0.590833
5.413602
9.820445
11.847231
11.620680
6.623963
-1.291479
-4.243872
-1.121044
2.037322
3.755964
4.946457
6.311364
10.967903
15.911778
13.265425
3.254926
-7.970852
-14.899435
-14.301851
-10.497738
-10.828095
-14.465047
-16.827804
-16.670460
-15.506385
-15.961590
-17.755986
-19.620988
-19.417353
-13.748238
-6.324476
-0.810836
4.244794
7.053866
6.936498
4.313058
0.788562
0.901251
2.274340
2.525671
4.826000
9.384110
15.839952
21.383283
21.715975
18.950386
16.267794
15.053917
16.494340
19.717468
21.886403
18.688756
11.345416
6.559117
3.854548
1.914029
6.515158
16.326692
23.056077
24.937676
24.238854
20.705007
13.504984
6.162346
3.185170
3.836059
5.283730
4.593559
1.246983
-1.759417
-4.722799
-7.637552
-8.092055
-8.011865
-9.475905
-12.093501
-14.130110
-12.886778
-10.851575
-11.634330
-13.072886
-13.721675
-15.679729
-19.122395
-21.245276
-20.625248
-18.427555
-14.955200
-9.183682
-2.821125
0.749191
3.571590
9.009946
14.889011
19.298425
20.115078
15.655861
11.691592
10.706135
8.060484
3.697124
-0.076366
-1.523573
-0.294035
-0.651045
-3.474850
-6.277146
-9.192132
-9.784342
-6.619664
-2.132161
3.655956
8.963620
11.840026
14.222418
14.379529
11.727097
9.735142
8.086870
6.891229
6.271898
4.501818
2.681938
-0.442063
-4.866210
-4.369393
2.852603
12.332145
18.558398
18.453656
13.808804
8.643986
6.504272
6.727781
5.936375
4.276413
3.511193
3.813491
3.615930
0.367316
-7.067205
-16.161453
-22.020180
-22.440783
-18.929150
-15.911998
-16.194193
-15.784816
-13.390266
-12.551169
-12.340286
-11.179251
-10.261364
-10.654379
-12.366244
-12.975989
-9.391879
-2.268078
3.353342
4.611169
3.298630
1.166631
0.077601
0.752572
1.488330
2.146702
1.980003
-2.603127
-9.743297
-11.059811
-6.661151
-4.800127
-6.998992
-10.177935
-10.526061
-5.170235
1.154447
2.924525
1.662252
2.758759
6.975291
7.022282
2.360129
0.952434
2.433071
2.092193
0.321644
-0.968217
-0.007078
1.925722
1.497871
1.872179
6.720899
11.531510
13.364245
14.191418
15.605188
19.512172
21.602318
15.615470
7.613289
3.058449
-1.115068
-3.552640
-3.062602
-3.325860
-4.716721
-4.837362
-3.144906
-1.320120
-0.921263
-2.905269
-5.744037
-5.081691
-1.066458
3.716564
7.295531
7.232404
7.158289
9.062799
8.234454
5.101101
1.503661
-3.040424
-5.958683
-5.614536
-3.387151
-1.131710
0.099231
1.060136
3.543996
8.335903
13.325836
14.224318
9.423990
3.985630
2.344372
1.415494
-1.699623
-5.453240
-7.178198
-4.819886
1.434890
9.790803
16.342502
17.150971
13.128020
7.314181
2.469667
0.320600
-0.360920
-0.968561
-1.981139
-3.320331
-3.398421
-1.853023
-0.511262
-1.102304
-4.170661
-7.522847
-7.962388
-6.313184
-4.478345
-1.113302
3.118193
5.714743
7.947506
10.775048
12.075427
10.971200
9.642529
11.296877
15.628904
18.110427
17.155597
17.233216
19.785579
20.003009
16.628845
11.536037
5.543578
2.256854
3.087067
4.567469
4.286677
1.378705
-2.660145
-5.091872
-5.481146
-6.445795
-11.583959
-18.102930
-20.296418
-17.742886
-11.368639
-4.443332
-1.598722
-1.720766
-2.258268
-2.717447
-3.174523
-4.391439
-6.504501
-8.318068
-7.026573
-2.702261
0.313021
1.728895
3.440991
4.003739
2.964509
1.029367
-1.747211
-4.992553
-8.196045
-10.846372
-14.146656
-18.054111
-19.985279
-21.053734
-22.658754
-23.272707
-22.921078
-21.214593
-16.979357
-10.572145
-3.840422
2.084934
8.750492
14.031971
14.920866
14.405809
13.090230
10.003637
7.266103
4.683343
2.215144
0.813293
-1.490313
-6.735322
-15.347948
-25.718261
-32.530414
-30.359140
-20.358464
-9.607532
-2.819932
0.854424
3.179537
3.733167
1.196932
-4.033582
-9.735899
-14.490168
-16.264925
-12.939160
-7.946889
-4.999876
-4.140907
-6.293012
-8.088110
-5.688416
-2.509476
1.314978
8.166405
15.639499
21.485130
24.280408
25.261420
27.774271
30.777629
31.940769
30.009368
25.340201
21.496806
18.914747
15.273587
11.462924
9.244186
7.724268
3.692666
-1.861657
-4.555938
-6.656375
-10.767234
-13.090479
-10.646130
-4.304615
0.839625
0.875160
-2.038189
-5.261788
-6.297979
-4.071529
-2.023467
-3.179596
-8.160649
-15.289129
-20.181339
-19.409575
-13.946437
-8.283167
-5.902411
-6.952163
-10.115208
-14.182814
-16.945364
-17.237846
-17.522613
-17.808315
-15.544926
-11.602638
-7.713422
-5.311858
-5.104014
-6.195615
-8.228484
-9.270754
-8.231060
-7.925956
-9.264213
-10.698561
-12.399204
-14.283612
-13.313121
-9.043050
-5.345781
-2.038019
2.893231
8.310546
13.992986
18.645784
19.819912
18.837962
18.212552
17.726954
15.230231
10.284950
4.424819
-0.481184
-1.032480
3.705654
9.520424
12.163734
9.933540
5.060268
2.097588
1.492752
0.197748
-2.417510
-3.707371
-3.223647
-3.491112
-3.883426
-2.786919
-0.154597
3.453361
3.886819
1.007604
0.436202
2.592279
6.290014
9.811233
8.699993
4.432022
0.654324
-2.575353
-5.369699
-9.520070
-15.475823
-20.179592
-21.681508
-17.281912
-6.564414
4.059332
10.753648
13.872034
11.730917
5.535755
0.675576
0.104875
1.862327
1.995824
-0.209821
-2.650199
-3.943801
-3.587028
-2.694625
-3.512450
-5.721135
-6.271027
-4.500482
-2.286892
0.491553
3.431085
4.762091
4.650801
2.645988
-0.597249
-2.589905
-4.143022
-5.593736
-6.604677
-7.766651
-5.203767
2.120398
8.981177
13.049248
13.129906
9.493422
7.135107
7.846550
9.171945
11.163429
14.246745
16.601082
17.607110
17.375181
15.736728
13.407171
10.807343
9.422794
9.976425
9.487319
5.879592
-0.150509
-5.647552
-8.663539
-11.016008
-11.985100
-10.258275
-6.980673
-1.124988
5.478614
8.853709
9.123042
6.819202
3.549546
1.894493
1.497737
1.504750
0.977769
-1.137397
-3.408505
-3.764112
-2.126131
0.401450
3.222914
6.732209
10.832777
12.746874
9.830251
4.930326
2.730526
3.156737
3.452021
2.431962
0.152203
-3.123064
-5.232619
-4.257920
-3.882209
-7.802524
-12.652650
-15.332903
-17.207959
-18.217965
-17.501846
-16.101869
-14.462251
-12.291679
-9.391425
-6.451660
-5.981496
-7.990283
-9.318721
-8.726281
-6.986831
-5.343238
-3.685851
-1.442568
-0.720136
-0.794017
1.288647
4.134425
6.586723
7.939706
6.667614
4.876725
4.036923
2.530566
-0.779538
-5.249042
-7.867105
-6.918825
-3.340793
1.575727
4.856135
4.732221
3.569312
3.246903
3.921173
5.432904
5.702939
3.246897
-0.666638
-4.510734
-5.712921
-2.648075
1.883382
5.296119
6.643959
5.520561
4.876916
7.095650
10.099709
11.867449
12.713559
13.578607
14.515197
14.125923
12.184469
10.834522
10.303333
8.029887
2.834676
-4.462372
-11.047040
-12.953191
-10.458810
-7.049346
-4.229987
-2.581016
-1.876353
-1.506721
-2.725040
-5.922921
-9.885085
-13.375446
-14.538122
-12.079511
-6.993955
-2.834002
-1.490137
-0.730999
0.083081
-0.523624
-2.052660
-3.202711
-4.125510
-5.511228
-6.663617
-7.386286
-7.681340
-6.974105
-7.108540
-8.096101
-7.348419
-5.212683
-3.124641
-2.105053
-1.598884
-0.593791
-0.853308
-2.178940
-3.217469
-5.294760
-7.705445
-7.758519
-5.310195
-3.096605
-2.329751
0.823471
8.291421
14.740249
15.870891
12.451371
5.774119
-1.167323
-4.499404
-3.621730
0.723156
6.827133
11.987037
14.620996
15.323087
16.469160
16.690564
13.754770
10.093035
5.743236
1.612504
2.284669
5.627734
7.095512
5.953177
2.045020
-3.528475
-9.654900
-14.595739
-15.696926
-14.224473
-12.748045
-11.351108
-9.840779
-7.977417
-4.665680
-0.714508
0.335708
-1.006057
-0.109680
2.153476
1.840420
-0.120440
-1.020093
-0.472074
0.278413
0.340368
-0.140555
-1.329182
-2.987507
-4.292799
-5.768997
-8.674631
-12.620663
-14.905799
-13.560064
-8.930412
-2.472933
3.021067
6.389850
8.700233
10.261295
13.149625
18.328466
21.977806
21.657502
17.920719
12.705869
8.296451
4.616247
1.598623
-0.208865
-1.242718
-0.932471
0.604744
1.388431
1.410874
3.300188
8.188419
13.290108
15.467226
14.331671
10.986264
7.738819
6.130759
4.688696
3.169012
3.679156
6.128414
8.298051
8.167591
5.781220
2.613266
-1.807608
-6.688128
-8.683590
-8.277719
-8.385969
-9.395040
-9.757427
-8.012600
-5.301255
-3.066622
-0.874775
-0.527354
-2.929856
-4.335447
-3.222574
-2.022494
-2.373425
-2.781637
-0.881569
-0.032185
-3.917663
-7.530534
-7.077203
-5.469147
-4.079692
-2.787730
-2.233398
-2.027658
-1.792928
-1.106267
1.012402
3.679794
4.832179
4.832645
4.437993
3.071213
2.241932
2.255257
-0.237492
-5.272084
-8.746546
-7.809956
-4.120871
-2.528012
-4.206444
-6.553069
-7.624564
-5.493270
-1.347812
0.324538
-0.273517
-0.001846
-0.251076
-2.677659
-4.296240
-3.672470
-1.868960
2.220620
7.113060
8.572655
6.065177
1.667449
-1.396934
-1.672115
-1.663232
-2.461184
-3.329976
-3.388193
-1.383384
0.663042
0.064286
-1.093480
-0.025028
2.336556
4.555057
6.924356
8.763170
8.925657
7.933888
5.804928
2.374887
-0.089104
0.110557
1.769814
3.422993
4.213694
4.252035
3.919807
1.826618
-2.127363
-6.217881
-9.708710
-11.792547
-12.836687
-13.343094
-11.146103
-5.832594
-0.295341
2.286247
1.043145
-0.522831
0.825242
3.298816
3.374564
0.531354
-2.558512
-4.139919
-4.693786
-4.029570
-1.034629
3.746757
7.845455
9.416338
7.585937
3.304406
-0.319687
-3.072184
-5.494092
-5.840113
-5.242763
-3.716069
0.962914
6.457382
10.295396
11.672928
10.151841
8.835093
9.490659
9.997296
7.887274
1.600698
-6.767376
-12.408905
-13.299441
-11.799166
-9.640050
-5.875915
