EVENT_NAME: 202302060117
EVENT_ID: 13194
EVENT_DATE_YYYYMMDD: 2023/02/06
EVENT_TIME_HHMMSS: 01:17:32.00000
EVENT_LATITUDE_DEGREE: 37.288
EVENT_LONGITUDE_DEGREE: 37.043
EVENT_DEPTH_KM: 8.6
HYPOCENTER_REFERENCE: AFAD
MAGNITUDE_W: 7.7
MAGNITUDE_W_REFERENCE: AFAD
MAGNITUDE_L: 
MAGNITUDE_L_REFERENCE: 
FOCAL_MECHANISM: 
NETWORK: TK
STATION_CODE: 5819
STATION_NAME: 
STATION_LATITUDE_DEGREE: 39.6406
STATION_LONGITUDE_DEGREE: 36.53457
STATION_ELEVATION_M: 1252.0
LOCATION: Kahramanmaras_Pazarck_Turkiye
SENSOR_DEPTH_M: 
VS30_M/S: None
SITE_CLASSIFICATION_EC8: unknown
MORPHOLOGIC_CLASSIFICATION: 
EPICENTRAL_DISTANCE_KM: 265.31
EARTHQUAKE_BACKAZIMUTH_DEGREE: 
DATE_TIME_FIRST_SAMPLE_YYYYMMDD_HHMMSS: 2023/02/06 01:17:55.2337770
DATE_TIME_FIRST_SAMPLE_PRECISION: millisecond
SAMPLING_INTERVAL_S: 0.01
NDATA: 17910
DURATION_S: 
STREAM: HNN
UNITS: cm/s^2
INSTRUMENT: sensor = ACEBOX/SARA | digitizer = 
INSTRUMENT_ANALOG/DIGITAL: 
INSTRUMENTAL_FREQUENCY_HZ: 
INSTRUMENTAL_DAMPING: 
FULL_SCALE_G: 
N_BIT_DIGITAL_CONVERTER: 
PGA_CM/S^2: 9.053
TIME_PGA_S: 
BASELINE_CORRECTION: BASELINE REMOVED
FILTER_TYPE: BUTTERWORTH
FILTER_ORDER: 
LOW_CUT_FREQUENCY_HZ: 
HIGH_CUT_FREQUENCY_HZ: 
LATE/NORMAL_TRIGGERED: 
DATABASE_VERSION: 
HEADER_FORMAT: DYNA 1.2
DATA_TYPE: Acceleration
PROCESSING: Automatic Paolucci et al., 2011
DATA_TIMESTAMP_YYYYMMDD_HHMMSS: 
DATA_LICENSE: U (unknown license)
DATA_CITATION: Turkish Accelerometric Archive v 1.0 - Disaster And Emergency Management Presidency, Earthquake Department
DATA_CREATOR: AFAD
ORIGINAL_DATA_MEDIATOR_CITATION: : AFAD - Disaster And Emergency Management Presidency
ORIGINAL_DATA_MEDIATOR: AFAD PROCESS SERVICE
ORIGINAL_DATA_CREATOR_CITATION: AFAD PROCESS SERVICE
ORIGINAL_DATA_CREATOR: network: TK
USER1: GuestUser
USER2: 
USER3: 
USER4: 
USER5: 
[...]
-2.270081
-2.699360
-3.132613
-3.564697
-3.991169
-4.391457
-4.777950
-5.165613
-5.556081
-5.959174
-6.338420
-6.641915
-6.864049
-7.030072
-7.179495
-7.320735
-7.427373
-7.492162
-7.503411
-7.456912
-7.379785
-7.287462
-7.206361
-7.199607
-7.280996
-7.385296
-7.448214
-7.459229
-7.450371
-7.463023
-7.482688
-7.476403
-7.455387
-7.423150
-7.372910
-7.305837
-7.225204
-7.156728
-7.097370
-7.014165
-6.895422
-6.707710
-6.450793
-6.167925
-5.853494
-5.508904
-5.127607
-4.672430
-4.181015
-3.695679
-3.220162
-2.787196
-2.423667
-2.131915
-1.904925
-1.744332
-1.658088
-1.626552
-1.635930
-1.685522
-1.746570
-1.788212
-1.782160
-1.730050
-1.681914
-1.660432
-1.639183
-1.593385
-1.514622
-1.438197
-1.411103
-1.423755
-1.447395
-1.455604
-1.418223
-1.343669
-1.272621
-1.225421
-1.192716
-1.141541
-1.034254
-0.860803
-0.672389
-0.532605
-0.449868
-0.410850
-0.375339
-0.300551
-0.212436
-0.135777
-0.086473
-0.078550
-0.060340
0.006967
0.104667
0.208213
0.285339
0.321551
0.327136
0.328746
0.365425
0.444188
0.533940
0.597272
0.634419
0.692842
0.780022
0.858785
0.929131
1.010934
1.089229
1.129649
1.115361
1.069510
1.028102
1.009371
1.034595
1.126684
1.292420
1.518475
1.795031
2.136114
2.531205
2.955521
3.402514
3.866108
4.342092
4.798204
5.179501
5.476864
5.720221
5.945575
6.163213
6.339704
6.457277
6.525519
6.553782
6.547910
6.507904
6.446155
6.395862
6.376898
6.381314
6.399289
6.445321
6.527123
6.623889
6.709900
6.748216
6.716626
6.629160
6.472255
6.227209
5.895190
5.473159
4.996888
4.522487
4.075673
3.667904
3.302219
2.972538
2.676524
2.410904
2.155571
1.912862
1.724863
1.605833
1.548526
1.555046
1.622587
1.742031
1.875502
2.005467
2.162786
2.343718
2.513896
2.642224
2.713740
2.760472
2.802062
2.821674
2.812529
2.776264
2.720126
2.655104
2.580262
2.497471
2.399951
2.257542
2.058788
1.831744
1.616156
1.445224
1.321285
1.222362
1.120633
0.995759
0.870183
0.784353
0.743178
0.747126
0.795262
0.878935
1.008665
1.161776
1.269998
1.307846
1.274620
1.175464
1.033288
0.852069
0.632273
0.382317
0.089342
-0.258107
-0.635483
-0.993453
-1.295078
-1.555321
-1.817434
-2.107837
-2.422087
-2.745455
-3.066252
-3.369981
-3.636069
-3.837629
-3.965776
-4.031734
-4.039242
-3.981053
-3.832385
-3.586223
-3.298913
-3.026565
-2.784144
-2.576793
-2.388846
-2.191080
-1.969000
-1.726578
-1.509407
-1.365883
-1.285717
-1.222852
-1.127022
-0.973443
-0.784094
-0.596849
-0.421294
-0.236387
-0.021320
0.194448
0.367198
0.490148
0.554182
0.552285
0.503161
0.415694
0.310927
0.217147
0.128511
0.040811
-0.047825
-0.147449
-0.255023
-0.361427
-0.462688
-0.571898
-0.714774
-0.910489
-1.162316
-1.436119
-1.691920
-1.906338
-2.059035
-2.189754
-2.353672
-2.540035
-2.741829
-2.943389
-3.086266
-3.171628
-3.239690
-3.311492
-3.417429
-3.548850
-3.668113
-3.768439
-3.846787
-3.919993
-4.025228
-4.153142
-4.272171
-4.350754
-4.352183
-4.283707
-4.193020
-4.112854
-4.038767
-3.957199
-3.864642
-3.748237
-3.599335
-3.419571
-3.215961
-3.013753
-2.840302
-2.705427
-2.608428
-2.531535
-2.460488
-2.397857
-2.345513
-2.316315
-2.328031
-2.377389
-2.432358
-2.459505
-2.463272
-2.461429
-2.457013
-2.454468
-2.446779
-2.402384
-2.286447
-2.088915
-1.834103
-1.567133
-1.325180
-1.126245
-0.978044
-0.873096
-0.798541
-0.761160
-0.770772
-0.827144
-0.914377
-1.011196
-1.121575
-1.244345
-1.358231
-1.437281
-1.463259
-1.455336
-1.443439
-1.429204
-1.400006
-1.340415
-1.234297
-1.066691
-0.854898
-0.658067
-0.506827
-0.418712
-0.403775
-0.433962
-0.497114
-0.571254
-0.622950
-0.671139
-0.713015
-0.727771
-0.720082
-0.689481
-0.644619
-0.590638
-0.523799
-0.443399
-0.332606
-0.192120
-0.028255
0.166705
0.388318
0.641027
0.901684
1.127739
1.300255
1.394916
1.405644
1.349740
1.258533
1.193978
1.179456
1.182235
1.188521
1.210939
1.266556
1.359581
1.482064
1.631667
1.811898
2.032109
2.296039
2.583817
2.864815
3.132018
3.379349
3.589974
3.762490
3.893390
3.974958
4.015846
4.009975
3.959682
3.901439
3.855589
3.813946
3.767160
3.682031
3.542194
3.388095
3.259713
3.196795
3.227864
3.315044
3.421628
3.544345
3.668465
3.797728
3.927225
4.030070
4.103455
4.139434
4.136368
4.106415
4.027832
3.887060
3.677317
3.395799
3.090666
2.818266
2.610394
2.459802
2.309443
2.114430
1.881775
1.662680
1.503204
1.393526
1.299513
1.173236
0.972611
0.708394
0.413783
0.123380
-0.141071
-0.394067
-0.655245
-0.916423
-1.159131
-1.378226
-1.587501
-1.798880
-2.014936
-2.233329
-2.442838
-2.623356
-2.759453
-2.852531
-2.923865
-2.983510
-3.006917
-2.965327
-2.851027
-2.686227
-2.525868
-2.406892
-2.349638
-2.361121
-2.418896
-2.524131
-2.675191
-2.844486
-3.022433
-3.176064
-3.263765
-3.276416
-3.205603
-3.065818
-2.875066
-2.635217
-2.354453
-2.025761
-1.663402
-1.289820
-0.904549
-0.534708
-0.199937
0.096491
0.317403
0.456486
0.543899
0.612843
0.707738
0.843547
0.974915
1.045729
1.038454
0.986992
0.952364
0.973613
1.042556
1.134412
1.226969
1.313214
1.406472
1.527319
1.696795
1.924487
2.185144
2.431540
2.636086
2.815850
3.005199
3.216291
3.426214
3.583300
3.654113
3.630473
3.510509
3.316898
3.084477
2.820026
2.514894
2.154118
1.723904
1.245295
0.772296
0.343719
-0.020330
-0.333879
-0.650701
-0.990668
-1.336481
-1.660785
-1.927340
-2.123523
-2.258684
-2.348489
-2.405094
-2.430605
-2.425956
-2.382964
-2.294381
-2.165352
-2.008266
-1.854922
-1.724256
-1.626555
-1.576549
-1.567224
-1.596242
-1.662667
-1.748497
-1.853031
-1.986088
-2.142993
-2.312990
-2.470128
-2.585417
-2.659323
-2.714292
-2.774639
-2.862106
-2.973653
-3.090579
-3.191606
-3.260135
-3.299907
-3.308117
-3.286634
-3.247383
-3.190363
-3.107859
-2.984440
-2.821277
-2.641279
-2.456606
-2.275440
-2.090767
-1.874531
-1.605223
-1.269517
-0.880037
-0.454553
-0.007793
0.429382
0.838734
1.209276
1.530487
1.808211
2.037072
2.210991
2.338384
2.427200
2.468088
2.440707
2.345993
2.202882
2.024936
1.825012
1.613399
1.404825
1.211682
1.038879
0.913070
0.860205
0.876311
0.946657
1.053476
1.182505
1.330706
1.503222
1.685791
1.844980
1.961151
2.019340
2.033341
2.051784
2.089633
2.120467
2.108049
2.031571
1.896644
1.741142
1.615098
1.528333
1.467285
1.400860
1.290481
1.139188
0.963112
0.796622
0.695595
0.665876
0.684085
0.715387
0.738273
0.794825
0.906086
1.052884
1.242701
1.477874
1.736194
1.984460
2.199527
2.371575
2.490785
2.573990
2.640596
2.680782
2.698758
2.706681
2.708758
2.720421
2.747048
2.780688
2.818536
2.833707
2.785050
2.693609
2.603804
2.508856
2.406893
2.318024
2.245754
2.195461
2.183043
2.218086
2.296615
2.394550
2.490380
2.564701
2.590392
2.566284
2.521836
2.484869
2.452345
2.402753
2.335393
2.258447
2.168175
2.061303
1.928246
1.748663
1.516943
1.257635
0.990612
0.730603
0.500987
0.314858
0.179229
0.085450
0.007803
-0.063766
-0.138842
-0.232621
-0.340662
-0.449170
-0.555107
-0.659641
-0.745705
-0.798102
-0.823145
-0.803533
-0.722666
-0.597143
-0.438422
-0.275258
-0.154879
-0.085467
-0.052529
-0.046944
-0.055621
-0.087444
-0.165793
-0.279211
-0.401046
-0.520777
-0.633962
-0.745743
-0.852148
-0.943121
-1.024977
-1.093974
-1.151748
-1.221914
-1.303770
-1.384690
-1.467715
-1.547934
-1.616697
-1.677277
-1.734584
-1.806620
-1.913726
-2.033925
-2.126535
-2.190856
-2.229927
-2.242111
-2.254996
-2.265310
-2.247100
-2.205277
-2.132593
-2.037932
-1.974599
-1.967846
-2.004345
-2.057911
-2.101424
-2.110802
-2.090956
-2.067135
-2.031157
-1.977410
-1.910805
-1.799544
-1.645264
-1.478126
-1.307948
-1.153902
-1.024405
-0.920392
-0.842798
-0.785778
-0.764997
-0.781389
-0.796379
-0.787287
-0.755284
-0.709954
-0.667429
-0.634958
-0.606461
-0.575159
-0.532635
-0.469770
-0.391007
-0.306866
-0.215011
-0.115440
-0.029663
0.027591
0.060296
0.071725
0.076609
0.081258
0.061592
0.019716
-0.034785
-0.110329
-0.201536
-0.303264
-0.398914
-0.464638
-0.503007
-0.511684
-0.480382
-0.411906
-0.293865
-0.110127
0.134866
0.420773
0.722111
1.024385
1.318709
1.581236
1.786250
1.936789
2.057869
2.173572
2.285534
2.381365
2.461063
2.539125
2.641267
2.790170
2.975077
3.185701
3.418771
3.644826
3.828564
3.947774
4.010873
4.048254
4.080257
4.131900
4.213936
4.301817
4.382918
4.445082
4.483865
4.529429
4.593463
4.675499
4.755899
4.800528
4.832999
4.887915
4.965275
5.059469
5.148051
5.207643
5.225385
5.202212
5.169220
5.150256
5.153502
5.171946
5.181271
5.165112
5.117625
5.057746
4.998335
4.934014
4.869693
4.795086
4.708086
4.633011
4.589498
4.597187
4.657947
4.746997
4.836983
4.900315
4.927409
4.919901
4.879194
4.825160
4.762008
4.670567
4.543588
4.391593
4.226739
4.052768
3.863833
3.655727
3.419565
3.135708
2.811872
2.488504
2.186412
1.906763
1.633428
1.344895
1.054259
0.768532
0.479298
0.199650
-0.070413
-0.343514
-0.610070
-0.858623
-1.076081
-1.240701
-1.344300
-1.395762
-1.410518
-1.403530
-1.371761
-1.324326
-1.290219
-1.273178
-1.272971
-1.310873
-1.403717
-1.568337
-1.805434
-2.100746
-2.447027
-2.845210
-3.302544
-3.802429
-4.309562
-4.801732
-5.240830
-5.603476
-5.880085
-6.047276
-6.112299
-6.089647
-5.983296
-5.824808
-5.635693
-5.438862
-5.265411
-5.107624
-4.952877
-4.813093
-4.703001
-4.643877
-4.644371
-4.679467
-4.710355
-4.709447
-4.681651
-4.664377
-4.685445
-4.739947
-4.803099
-4.834220
-4.799879
-4.701711
-4.571045
-4.439677
-4.323974
-4.204296
-4.054927
-3.879839
-3.677397
-3.455550
-3.247497
-3.058382
-2.872774
-2.680853
-2.462980
-2.206999
-1.934885
-1.673994
-1.412636
-1.138418
-0.879631
-0.664330
-0.516363
-0.451161
-0.462409
-0.544499
-0.683167
-0.850359
-1.021058
-1.193159
-1.375080
-1.561677
-1.747338
-1.914062
-2.048289
-2.166383
-2.268813
-2.336407
-2.358176
-2.335525
-2.291364
-2.232941
-2.153243
-2.059517
-1.955036
-1.854296
-1.766181
-1.687418
-1.625956
-1.572910
-1.515657
-1.445544
-1.363274
-1.294564
-1.251339
-1.235467
-1.244612
-1.248613
-1.227130
-1.184372
-1.131326
-1.078281
-1.030379
-0.990660
-0.946967
-0.890415
-0.827783
-0.766789
-0.702288
-0.633344
-0.576558
-0.520707
-0.446152
-0.377442
-0.335386
-0.327229
-0.359520
-0.411450
-0.462210
-0.518114
-0.605114
-0.746588
-0.940198
-1.177529
-1.451566
-1.755529
-2.084275
-2.419800
-2.746909
-3.059523
-3.336599
-3.547511
-3.677061
-3.729692
-3.725744
-3.686493
-3.628772
-3.564972
-3.493690
-3.407446
-3.309511
-3.202926
-3.077638
-2.929904
-2.764870
-2.570845
-2.342452
-2.092549
-1.831658
-1.589938
-1.392640
-1.228775
-1.096472
-0.989186
-0.887043
-0.803370
-0.746584
-0.701721
-0.658729
-0.613399
-0.575317
-0.547288
-0.533521
-0.546874
-0.584308
-0.654941
-0.749889
-0.831745
-0.895131
-0.944489
-0.977247
-0.996211
-0.997173
-0.977794
-0.938075
-0.881056
-0.813047
-0.743636
-0.683577
-0.625388
-0.552703
-0.454769
-0.331584
-0.199749
-0.074928
0.035631
0.142684
0.265167
0.402145
0.562738
0.751152
0.947281
1.149255
1.370167
1.619602
1.900366
2.198431
2.481766
2.716238
2.911199
3.094002
3.266050
3.427811
3.552164
3.600300
3.566139
3.457630
3.305869
3.158784
3.029935
2.896644
2.739038
2.560858
2.389458
2.262012
2.189041
2.154412
2.144098
2.129342
2.083959
2.025717
1.982438
1.969552
1.990334
2.020467
2.035170
2.033273
2.026700
2.032284
2.044415
2.042050
2.023788
1.989627
1.931852
1.865661
1.799236
1.720420
1.628744
1.526548
1.413130
1.294802
1.153562
0.969069
0.772185
0.592836
0.426112
0.265934
0.098976
-0.077099
-0.239615
-0.388103
-0.524433
-0.650009
-0.767168
-0.864455
-0.964313
-1.097604
-1.250300
-1.415621
-1.589593
-1.766604
-1.955539
-2.151955
-2.373855
-2.626383
-2.863013
-3.059897
-3.226387
-3.371601
-3.489462
-3.566642
-3.636807
-3.717728
-3.774567
-3.808027
-3.832836
-3.851099
-3.877311
-3.902120
-3.907758
-3.881599
-3.816864
-3.726878
-3.628243
-3.532880
-3.465339
-3.450637
-3.489240
-3.556132
-3.631442
-3.707920
-3.781593
-3.853863
-3.929172
-4.011495
-4.111120
-4.219160
-4.290495
-4.301978
-4.259453
-4.164558
-4.050492
-3.940400
-3.826567
-3.709695
-3.550272
-3.326321
-3.084134
-2.855974
-2.673171
-2.571496
-2.550949
-2.595397
-2.686371
-2.819662
-2.994802
-3.199635
-3.430420
-3.682948
-3.948334
-4.213487
-4.466014
-4.725556
-5.003568
-5.286957
-5.564500
-5.809547
-6.007132
-6.168245
-6.286573
-6.367493
-6.428073
-6.464339
-6.480264
-6.478186
-6.449689
-6.394540
-6.305957
-6.186513
-6.039014
-5.844521
-5.600230
-5.310114
-4.970199
-4.602229
-4.225141
-3.836129
-3.446649
-3.059507
-2.654130
-2.235659
-1.827476
-1.445244
-1.108369
-0.826436
-0.596640
-0.419448
-0.270312
-0.117201
0.048768
0.219647
0.377668
0.507165
0.603930
0.679888
0.753273
0.827594
0.892096
0.929243
0.929918
0.904173
0.877728
0.869752
0.886325
0.931187
0.988207
1.040084
1.090791
1.141265
1.201090
1.274476
1.336172
1.383138
1.424728
1.475669
1.557238
1.661251
1.780461
1.907854
2.026362
2.137389
2.234155
2.329050
2.449896
2.582900
2.725724
2.884212
3.052519
3.247479
3.469093
3.720632
4.023139
4.346688
4.667899
5.005008
5.355209
5.721777
6.108918
6.493722
6.851639
7.153679
7.399840
7.603451
7.755627
7.867355
7.941442
7.978122
8.008956
8.042830
8.089329
8.171366
8.277015
8.395758
8.528294
8.663870
8.794069
8.913045
9.007940
9.052802
9.031266
8.948008
8.828745
8.703636
8.564968
8.391230
8.175876
7.929661
7.701214
7.525606
7.398861
7.311161
7.220655
7.102093
6.974179
6.853279
6.769086
6.731885
6.712453
6.696061
6.674057
6.633818
6.578849
6.521308
6.464702
6.402486
6.328579
6.234800
6.123018
6.009132
5.913950
5.855007
5.838147
5.866176
5.925300
5.988398
6.049159
6.102906
6.152210
6.212971
6.268822
6.292175
6.274614
6.210293
6.097342
5.946283
5.759686
5.529369
5.269126
4.987841
4.700478
4.451457
4.249429
4.090421
3.981912
3.909876
3.880157
3.914265
4.007757
4.155958
4.360738
4.596846
4.830851
5.057140
5.269635
5.459686
5.633838
5.784377
5.906626
5.992169
6.016691
6.000299
5.972217
5.942264
5.922832
5.903634
5.873448
5.829935
5.765848
5.684694
5.591616
5.496667
5.403823
5.304667
5.216031
5.154048
5.118718
5.102559
5.098090
5.102974
5.104116
5.106194
5.117857
5.108478
5.060289
4.972355
4.838596
4.675847
4.502109
4.334683
4.177311
4.009184
3.821652
3.606532
3.357979
3.089319
2.807333
2.512956
2.211097
1.908771
1.615095
1.331706
1.064683
0.837405
0.653146
0.496242
0.367626
0.260755
0.155519
0.064312
0.000926
-0.050536
-0.098491
-0.143641
-0.193934
-0.258255
-0.325615
-0.364919
-0.367985
-0.339489
-0.301640
-0.292081
-0.300758
-0.311539
-0.328399
-0.325153
-0.302735
-0.291306
-0.292735
-0.324090
-0.399867
-0.504869
-0.633016
-0.763970
-0.876453
-0.996183
-1.138359
-1.290587
-1.457779
-1.640168
-1.828401
-2.014063
-2.186164
-2.340731
-2.473320
-2.587440
-2.684259
-2.757698
-2.822954
-2.890080
-2.951362
-3.004460
-3.044700
-3.074419
-3.098059
-3.104866
-3.097645
-3.081773
-3.034105
-2.933131
-2.779085
-2.575475
-2.351524
-2.146042
-1.963240
-1.794464
-1.636444
-1.489179
-1.360617
-1.274372
-1.244005
-1.249175
-1.281700
-1.345787
-1.433955
-1.549010
-1.697264
-1.877081
-2.072795
-2.259860
-2.432429
-2.584658
-2.711402
-2.802610
-2.850331
-2.865555
-2.834486
-2.755022
-2.654282
-2.537410
-2.415160
-2.289170
-2.136995
-1.954426
-1.750347
-1.535280
-1.316473
-1.107719
-0.917200
-0.738606
-0.571234
-0.407602
-0.250517
-0.110032
0.025778
0.156912
0.299969
0.484642
0.696436
0.905658
1.088695
1.240870
1.381589
1.522309
1.674016
1.841622
2.023256
2.222659
2.424633
2.627075
2.850091
3.094616
3.360417
3.645857
3.935739
4.225153
4.506385
4.762834
4.985850
5.169120
5.304930
5.390005
5.432997
5.452843
5.447673
5.399484
5.307342
5.181065
5.008963
4.781686
4.523313
4.251146
3.967991
3.682264
3.396070
3.125072
2.886806
2.667945
2.449318
2.220404
1.969747
1.684254
1.355976
0.995200
0.615954
0.235773
-0.126405
-0.466373
-0.787637
-1.081079
-1.326593
-1.523009
-1.680615
-1.802918
-1.895996
-1.962889
-2.022066
-2.101350
-2.191856
-2.283999
-2.383155
-2.483481
-2.590119
-2.704005
-2.818826
-2.930374
-3.026959
-3.097826
-3.139469
-3.170123
-3.208960
-3.248732
-3.285465
-3.300220
-3.259566
-3.168646
-3.047332
-2.914795
-2.788338
-2.659776
-2.530980
-2.413640
-2.304717
-2.218473
-2.158881
-2.119162
-2.116383
-2.150077
-2.207150
-2.284096
-2.365250
-2.450847
-2.542522
-2.627417
-2.705999
-2.766112
-2.773152
-2.713794
-2.593182
-2.417860
-2.226173
-2.066282
-1.942163
-1.846800
-1.779025
-1.739073
-1.744243
-1.799446
-1.891121
-2.002201
-2.110710
-2.194202
-2.236078
-2.256679
-2.301127
-2.379008
-2.467878
-2.561189
-2.662217
-2.750151
-2.803951
-2.819408
-2.787405
-2.697419
-2.543607
-2.339061
-2.126099
-1.947972
-1.825722
-1.752103
-1.704902
-1.678042
-1.661469
-1.640688
-1.625284
-1.615725
-1.594008
-1.559199
-1.511064
-1.443289
-1.361487
-1.276879
-1.208169
-1.167515
-1.154916
-1.177621
-1.226278
-1.285923
-1.367311
-1.461558
-1.544582
-1.611709
-1.652182
-1.663665
-1.658080
-1.627713
-1.574200
-1.501984
-1.403815
-1.304946
-1.228754
-1.175242
-1.162175
-1.194232
-1.278894
-1.420368
-1.587793
-1.775091
-1.994420
-2.241102
-2.515607
-2.814427
-3.150654
-3.538082
-3.952398
-4.381676
-4.830360
-5.275536
-5.697801
-6.083593
-6.404857
-6.644993
-6.809379
-6.895677
-6.920954
-6.912564
-6.861623
-6.762052
-6.621800
-6.433386
-6.211773
-5.983146
-5.749141
-5.513266
-5.269442
-5.005278
-4.746725
-4.524878
-4.328515
-4.136828
-3.954726
-3.793900
-3.662299
-3.564365
-3.494018
-3.442843
-3.387694
-3.300748
-3.164471
-2.955015
-2.689682
-2.409385
-2.105709
-1.784732
-1.472640
-1.167093
-0.877211
-0.608137
-0.354961
-0.136855
0.041739
0.211216
0.402669
0.622412
0.856183
1.088550
1.309462
1.521022
1.722061
1.899954
2.058442
2.200331
2.294524
2.327931
2.313642
2.245347
2.131227
1.978999
1.768321
1.493816
1.159693
0.788630
0.424114
0.083678
-0.200412
-0.405946
-0.542511
-0.590466
-0.549110
-0.437849
-0.250137
-0.010054
0.258553
0.548669
0.838317
1.112768
1.374828
1.637590
1.895442
2.126874
2.333057
2.507677
2.637875
2.729497
2.787452
2.818053
2.825040
2.818701
2.818441
2.842495
2.922427
3.076473
3.291072
3.545651
3.834832
4.161186
4.505777
4.857849
5.220442
5.579995
5.947264
6.321781
6.667540
6.982205
7.264605
7.495336
7.672996
7.787530
7.842913
7.832599
7.732975
7.560172
7.324478
7.019346
6.666519
6.276519
5.848409
5.390374
4.919947
4.469627
4.049467
3.649647
3.268063
2.893493
2.524067
2.174046
1.843430
1.526608
1.216566
0.897640
0.566790
0.217938
-0.140032
-0.474155
-0.782326
-1.082549
-1.371549
-1.650028
-1.924065
-2.194829
-2.457176
-2.709703
-2.964569
-3.232527
-3.523632
-3.832738
-4.130623
-4.414713
-4.687581
-4.935433
-5.165282
-5.378298
-5.569804
-5.747283
-5.889692
-5.978328
-6.030024
-6.060444
-6.094138
-6.149340
-6.219039
-6.297387
-6.383685
-6.474191
-6.571478
-6.673206
-6.774934
-6.871519
-6.935840
-6.955506
-6.947817
-6.907397
