EVENT_NAME: 202302060117
EVENT_ID: 13194
EVENT_DATE_YYYYMMDD: 2023/02/06
EVENT_TIME_HHMMSS: 01:17:32.00000
EVENT_LATITUDE_DEGREE: 37.288
EVENT_LONGITUDE_DEGREE: 37.043
EVENT_DEPTH_KM: 8.6
HYPOCENTER_REFERENCE: AFAD
MAGNITUDE_W: 7.7
MAGNITUDE_W_REFERENCE: AFAD
MAGNITUDE_L: 
MAGNITUDE_L_REFERENCE: 
FOCAL_MECHANISM: 
NETWORK: TK
STATION_CODE: 0143
STATION_NAME: 
STATION_LATITUDE_DEGREE: 37.621415
STATION_LONGITUDE_DEGREE: 35.611477
STATION_ELEVATION_M: 449.0
LOCATION: Kahramanmaras_Pazarck_Turkiye
SENSOR_DEPTH_M: 
VS30_M/S: None
SITE_CLASSIFICATION_EC8: unknown
MORPHOLOGIC_CLASSIFICATION: 
EPICENTRAL_DISTANCE_KM: 131.69
EARTHQUAKE_BACKAZIMUTH_DEGREE: 
DATE_TIME_FIRST_SAMPLE_YYYYMMDD_HHMMSS: 2023/02/06 01:17:34.7371460
DATE_TIME_FIRST_SAMPLE_PRECISION: millisecond
SAMPLING_INTERVAL_S: 0.01
NDATA: 12501
DURATION_S: 
STREAM: HNE
UNITS: cm/s^2
INSTRUMENT: sensor = ACEBOX/SARA | digitizer = 
INSTRUMENT_ANALOG/DIGITAL: 
INSTRUMENTAL_FREQUENCY_HZ: 
INSTRUMENTAL_DAMPING: 
FULL_SCALE_G: 
N_BIT_DIGITAL_CONVERTER: 
PGA_CM/S^2: 17.733
TIME_PGA_S: 
BASELINE_CORRECTION: BASELINE REMOVED
FILTER_TYPE: BUTTERWORTH
FILTER_ORDER: 
LOW_CUT_FREQUENCY_HZ: 
HIGH_CUT_FREQUENCY_HZ: 
LATE/NORMAL_TRIGGERED: 
DATABASE_VERSION: 
HEADER_FORMAT: DYNA 1.2
DATA_TYPE: Acceleration
PROCESSING: Automatic Paolucci et al., 2011
DATA_TIMESTAMP_YYYYMMDD_HHMMSS: 
DATA_LICENSE: U (unknown license)
DATA_CITATION: Turkish Accelerometric Archive v 1.0 - Disaster And Emergency Management Presidency, Earthquake Department
DATA_CREATOR: AFAD
ORIGINAL_DATA_MEDIATOR_CITATION: : AFAD - Disaster And Emergency Management Presidency
ORIGINAL_DATA_MEDIATOR: AFAD PROCESS SERVICE
ORIGINAL_DATA_CREATOR_CITATION: AFAD PROCESS SERVICE
ORIGINAL_DATA_CREATOR: network: TK
USER1: GuestUser
USER2: 
USER3: 
USER4: 
USER5: 
[...]
-3.627625
-3.816298
-3.806009
-3.279496
-1.980283
-0.095875
2.031916
3.883124
4.881908
5.013070
4.917448
5.053053
5.079473
4.738131
4.241080
3.566577
2.664822
1.984006
1.916908
2.275321
2.836436
3.592539
4.239925
4.307962
3.853695
3.127757
2.215014
1.351135
0.411505
-0.938672
-2.392188
-3.408036
-3.813204
-3.656325
-2.994677
-1.926221
-0.510343
1.192404
3.011582
4.658452
5.647416
5.526077
4.166781
1.731551
-1.339375
-4.440927
-6.924788
-8.385084
-8.941286
-8.799837
-8.171622
-7.382554
-6.504176
-5.658530
-5.262008
-5.436419
-5.823585
-6.090346
-5.972277
-5.272286
-4.363514
-3.375485
-1.405508
1.898985
5.382566
7.647829
8.190007
7.443260
6.230088
5.138724
4.156543
2.937526
1.438420
-0.186236
-1.827023
-3.113374
-3.665835
-3.380367
-2.426706
-1.531027
-1.354742
-1.703098
-2.119957
-2.730868
-3.834389
-4.977422
-5.145754
-4.013940
-2.282202
-0.463725
1.517942
3.656488
5.670887
7.172802
7.945971
8.053520
7.535427
6.243932
3.986622
0.897226
-2.449112
-5.573577
-8.174570
-9.761350
-10.034658
-9.148564
-7.488602
-5.890128
-5.029051
-4.597226
-4.141086
-3.569216
-2.693877
-1.310497
0.424982
2.011532
3.065492
3.576107
3.776473
3.700724
3.222143
2.600712
1.988866
0.866407
-1.250859
-3.946774
-6.440454
-8.405050
-9.490569
-9.477475
-8.803669
-7.893495
-6.922066
-5.930296
-4.660541
-2.890928
-0.703285
1.477110
3.136838
4.149416
4.757057
5.079465
4.744202
3.528925
1.883228
0.272600
-1.139767
-2.410687
-3.648876
-4.575179
-4.580321
-3.481238
-2.115393
-1.502374
-1.706711
-2.164719
-2.374901
-2.118891
-1.589572
-1.226016
-1.273475
-1.569694
-1.881110
-2.141559
-2.064404
-1.212211
0.264220
1.567408
2.161255
2.251502
1.937514
0.815056
-1.042228
-2.944167
-4.079719
-3.637139
-1.730520
0.475592
2.063779
2.764939
2.723558
2.204764
1.378059
0.379980
-0.779653
-1.931103
-2.820466
-3.659796
-4.625611
-5.405791
-5.815635
-6.025116
-6.010151
-5.586275
-4.811469
-3.815725
-2.617278
-1.205843
0.193903
1.134238
1.818798
2.968848
4.613614
6.211854
7.058202
6.426249
4.396657
1.971246
-0.087337
-2.098693
-4.486931
-6.816719
-8.495381
-9.167079
-8.949412
-8.416353
-7.612322
-6.253958
-4.547938
-2.995055
-1.821624
-0.824010
0.154667
1.141761
2.002371
2.287371
1.896932
1.362005
1.423028
2.321980
3.620960
4.954307
6.136154
6.909323
7.118106
6.820016
6.284856
5.607080
4.615781
3.235911
1.482200
-0.340716
-1.801012
-2.828081
-3.515210
-3.790621
-3.471486
-2.727775
-1.828589
-0.647210
0.706010
1.651254
1.884586
1.509109
0.601510
-0.552745
-1.262552
-1.320766
-1.145416
-0.986198
-1.310240
-2.650598
-4.572643
-6.159424
-7.010444
-7.322328
-7.339861
-7.085955
-6.618359
-6.085533
-5.517638
-4.698878
-3.283935
-1.074316
1.649424
4.261877
6.350156
7.780763
8.490573
8.471403
7.773754
6.584897
5.207365
3.835445
2.517297
1.062846
-0.831144
-2.931810
-4.601355
-5.533035
-5.682430
-5.242656
-4.614207
-3.992772
-3.562583
-3.320601
-2.886906
-2.018113
-0.817562
0.162985
0.408708
0.086537
-0.252935
-0.191211
0.056850
-0.085765
-0.637057
-1.187648
-1.427288
-1.344990
-1.212659
-1.036842
-0.534409
0.332513
1.117839
1.064535
-0.029400
-1.534352
-2.641848
-2.918428
-2.654235
-2.449661
-2.412953
-2.058748
-1.038222
0.311492
1.312847
1.485391
1.158778
0.951636
0.751741
0.510698
0.530104
0.600479
0.410404
0.072335
-0.161928
-0.005283
0.527543
0.788229
0.154874
-1.133815
-2.312853
-2.840064
-2.677339
-2.137266
-1.335106
-0.344972
0.476827
1.025784
1.460883
1.757573
1.966824
2.031120
1.532198
0.499985
-0.523812
-1.180780
-1.416446
-1.060137
-0.135701
0.747587
1.381413
1.756192
1.434488
0.332837
-1.178426
-2.722188
-4.073535
-5.008488
-5.196459
-4.678363
-3.903791
-3.270900
-2.963221
-2.908744
-2.823640
-2.401635
-1.640623
-0.804562
-0.059682
0.567832
0.842311
0.272549
-1.187747
-2.684281
-3.102543
-2.298980
-1.177219
-0.714766
-1.085801
-1.401192
-0.721775
0.998507
2.939961
4.341110
5.107967
5.321192
5.359536
5.805623
6.545359
7.023477
7.184565
7.123312
6.522221
5.275148
3.618462
1.381725
-1.755598
-5.244086
-7.993306
-9.328988
-9.104307
-7.544644
-5.109877
-2.344054
0.137472
1.604552
1.649209
0.747454
-0.093279
-0.229581
0.311895
1.142345
1.989160
3.006882
4.379039
5.713088
6.263449
5.683867
4.300491
2.544909
0.339033
-2.637204
-6.137615
-9.298786
-11.472164
-12.361527
-11.709465
-9.717510
-7.080275
-4.151495
-0.963668
1.928406
3.933220
5.332966
6.646908
7.965760
9.289288
10.595048
11.446539
11.249683
9.737017
6.939401
3.254524
-0.709975
-4.428519
-7.356360
-9.210604
-10.139245
-10.243050
-9.462399
-7.878187
-5.739174
-3.467598
-1.599088
-0.251947
0.854150
1.994147
3.155887
3.719107
3.181842
1.757084
-0.066300
-1.787747
-3.073396
-3.579800
-2.941064
-1.262164
0.814893
2.667270
4.371187
6.323863
8.306933
9.571778
9.692653
8.828306
7.217445
5.272487
3.788110
3.109866
2.873265
2.752627
2.585932
2.161358
1.504857
0.981386
0.803468
0.781961
0.679793
0.546764
0.694292
1.317363
2.028576
2.165583
1.673208
0.939086
0.375871
0.244712
0.168496
-0.467665
-1.782539
-3.228807
-4.323210
-5.304456
-6.467128
-7.749036
-8.831750
-9.212604
-8.519159
-6.776900
-4.483114
-2.271623
-0.473721
0.888384
1.910547
2.536191
2.723230
2.658470
2.414154
2.012024
1.612466
1.240497
0.782957
0.470372
0.611821
0.918565
0.886069
0.355351
-0.499644
-1.327285
-2.020258
-2.896061
-4.080242
-5.230289
-5.903156
-5.868319
-5.360977
-5.049557
-5.397212
-5.962766
-5.996197
-5.456591
-4.419231
-2.608937
-0.029216
2.749700
4.739784
5.219304
4.433045
3.350098
2.567814
1.809378
0.894765
0.090504
-0.385506
-0.249668
0.432321
0.994137
1.164110
1.368918
2.036644
3.245378
4.848528
6.458691
7.473841
7.566660
6.779934
5.279425
3.319738
0.977325
-1.735189
-4.506153
-6.842253
-8.275663
-8.734839
-8.500104
-7.778838
-6.757844
-5.496973
-3.892187
-2.102000
-0.546545
0.309856
0.327393
-0.008338
-0.280710
-0.803947
-1.993506
-3.442813
-4.327500
-4.153319
-2.814127
-0.924108
0.446881
0.903489
0.824934
0.575708
0.021611
-1.081209
-2.538934
-3.964861
-5.092698
-5.870773
-6.275942
-5.971302
-4.571790
-2.215346
0.373025
2.501517
4.024007
5.089657
5.761592
5.945826
5.503951
4.517795
3.279373
2.222144
1.722521
1.688154
1.847606
2.000745
1.721592
0.578092
-1.339979
-3.413292
-4.952143
-5.539207
-5.257479
-4.636044
-4.051783
-3.493707
-2.660452
-1.321494
0.315557
2.072545
3.818077
5.248450
6.045701
5.662976
4.107993
2.606548
2.167245
2.454584
2.662431
2.631805
2.761097
3.256749
3.924943
4.538663
5.038523
5.515939
5.997563
6.084771
5.143271
3.336254
1.647304
0.470137
-0.614447
-1.947090
-3.549067
-5.004687
-5.469941
-4.231048
-1.344819
2.046412
4.503389
5.063569
3.655644
1.189786
-1.417052
-3.539462
-4.664259
-4.757074
-4.045394
-2.617358
-0.881178
0.255546
0.185642
-0.854754
-2.208438
-3.249769
-3.414361
-2.572689
-1.208246
0.021061
0.628936
0.509234
-0.404678
-2.323217
-4.935900
-7.364584
-8.866496
-9.176509
-8.419472
-7.026740
-5.364907
-3.520479
-1.661789
-0.098852
1.038807
1.760307
2.090898
2.165481
2.133687
2.245210
2.722158
3.586274
4.802489
6.088844
7.072431
7.414712
6.760782
5.220761
3.345475
1.482814
-0.474301
-2.573799
-4.316288
-4.955254
-3.989903
-1.677880
0.971746
3.040152
4.138767
4.588361
4.883649
4.794106
4.177584
3.545164
3.120123
2.716824
2.574911
3.093709
3.788322
3.803521
3.119899
2.172087
1.016897
-0.659662
-2.917908
-4.879933
-5.501364
-4.804179
-3.550089
-2.356084
-1.477472
-0.794783
-0.012963
0.758804
1.165379
1.150184
0.777513
-0.049894
-1.178666
-2.175575
-2.795604
-2.883978
-2.626331
-2.545903
-2.755851
-2.962059
-2.945457
-2.584473
-1.741398
-0.622443
0.175977
0.265757
-0.380925
-1.538921
-2.659042
-3.154924
-2.766585
-1.648565
-0.270094
0.878086
1.586026
1.654062
0.830864
-0.680867
-2.567376
-4.374861
-5.514854
-6.042533
-6.045103
-5.259075
-3.693567
-1.585181
0.521334
2.055279
2.985327
3.451286
3.595775
3.364084
2.465135
0.865028
-1.146094
-3.144592
-4.926826
-6.392266
-7.240013
-7.257312
-6.582805
-5.479982
-4.022488
-2.200972
-0.097964
2.193485
4.368035
6.119178
7.781713
9.834221
12.325098
14.672425
16.011150
16.216425
15.576056
14.090276
11.725185
8.373235
4.270329
0.340666
-2.567069
-3.783982
-3.584551
-3.146881
-2.696351
-1.914999
-0.898681
0.061526
0.811783
1.421996
2.004387
2.630498
3.175013
3.898150
5.344655
7.158924
8.495077
9.063440
8.880145
8.070740
6.821797
4.937393
2.259013
-0.726342
-3.395604
-5.756487
-7.761063
-8.659544
-8.203170
-6.855327
-4.813574
-2.099887
1.172808
4.693096
7.965090
10.605131
12.396253
13.393634
13.648709
13.084791
12.025458
10.602803
8.591915
6.164399
3.562939
0.957971
-1.781663
-4.920857
-8.092549
-10.628780
-11.954409
-11.919338
-10.798979
-9.044095
-6.882638
-4.524089
-2.854307
-2.184477
-2.010763
-1.702149
-0.727681
0.704563
2.219805
3.538423
4.530193
5.123339
5.128484
4.832264
4.461230
3.821796
2.794025
1.332794
-0.746363
-3.481322
-6.327802
-8.692893
-10.328771
-10.984571
-10.639017
-9.863977
-9.137333
-8.432900
-7.796970
-7.062377
-6.069438
-5.138924
-4.091744
-2.533250
-0.374130
2.423022
5.610148
8.732045
11.167045
12.442645
12.481691
11.293768
8.971228
5.769376
2.057145
-1.727797
-4.982253
-7.209170
-8.192052
-8.118171
-7.697334
-7.273458
-6.518291
-5.373851
-3.888302
-1.641742
1.116132
3.482396
5.196599
6.154235
6.216426
6.118233
6.597753
7.711799
9.320794
10.898459
11.675369
11.130857
9.441206
6.638212
2.413264
-2.692165
-7.600036
-10.947076
-11.631398
-9.629625
-5.577449
-0.644792
3.926881
7.249142
8.631353
8.061825
5.784174
2.461683
-0.469198
-2.008050
-1.871277
-0.355801
2.079199
4.759920
6.774319
8.125202
9.247430
10.075776
10.436527
10.214187
9.542022
8.815382
8.268765
8.047595
7.875522
7.466612
6.700226
5.085157
2.746718
0.068105
-2.993235
-6.147860
-9.084585
-11.847834
-14.348294
-16.210955
-17.068989
-16.641839
-14.763510
-12.068761
-9.425214
-7.045390
-4.955474
-2.882860
-0.917091
1.018986
3.205928
5.011546
6.756142
8.680530
9.736827
9.450427
7.914849
5.458343
2.471117
-0.541126
-2.983136
-4.816806
-6.392364
-7.710512
-8.371455
-8.012107
-6.536610
-4.360424
-2.250635
-0.678347
0.430321
1.159771
2.009158
3.659534
5.714848
7.723402
9.565259
10.801580
11.159759
10.690764
9.733600
8.633819
7.464133
6.316658
5.254285
4.122942
2.963075
2.121173
1.662932
1.101587
0.101637
-1.329902
-3.276262
-5.045404
-5.606983
-5.217943
-4.629707
-4.067189
-3.393852
-2.457024
-1.334562
-0.362197
-0.205317
-0.850129
-1.477639
-1.466415
-0.486802
0.992201
2.233199
3.065285
3.430478
3.356132
2.888072
2.074459
1.135765
-0.188929
-2.263878
-4.828632
-7.512389
-9.689975
-10.747438
-10.531642
-9.162056
-6.873179
-4.255349
-1.927895
0.332692
2.617127
4.810848
6.794152
8.192262
8.909086
8.997463
8.662433
7.636065
5.527917
2.560564
-0.881164
-4.166482
-6.729365
-8.539188
-9.992704
-11.271807
-12.084017
-12.342128
-12.430034
-12.183376
-11.154432
-9.720318
-8.444251
-7.559093
-6.223875
-3.583133
-0.351352
2.489053
4.551848
5.920265
6.973991
8.045018
9.212370
10.319402
10.930783
11.136994
11.636153
12.675851
13.783351
13.993302
12.858452
10.603947
7.928607
5.582920
3.712778
2.681734
2.616272
2.990350
3.527617
4.113515
4.598646
4.937888
4.821692
3.799299
2.109414
0.220100
-1.225935
-1.691189
-1.213072
0.075620
1.613073
2.906675
3.429213
3.007445
2.246904
1.500625
0.950735
0.476830
-0.001284
-0.671579
-1.710806
-2.748396
-3.925564
-5.539231
-7.358639
-9.262215
-11.278714
-12.869937
-13.768418
-14.533635
-15.116022
-14.451335
-11.764301
-7.747896
-3.552870
-0.049650
2.484013
4.595672
6.155101
6.861404
7.174461
7.583374
8.153139
8.431360
8.313060
7.738388
6.278560
4.025691
1.048986
-2.605029
-6.339939
-9.317112
-11.053288
-11.841183
-12.070771
-11.949896
-11.241254
-9.623376
-7.338941
-4.723215
-2.262030
-0.080699
1.994721
3.738382
5.018658
5.885346
6.166606
5.650150
4.801000
4.453111
4.725253
5.087874
4.883070
3.861845
2.376533
0.773854
-0.699301
-2.274157
-4.563732
-7.372337
-9.978006
-11.656435
-11.861707
-10.808916
-9.067358
-6.674208
-3.605617
-0.500086
2.037317
3.869588
5.200130
6.400447
7.455108
8.249319
9.208825
10.837225
13.240195
15.771520
17.087800
16.265537
13.365050
9.142205
4.208383
-1.231142
-6.429623
-10.396693
-12.774409
-13.434651
-12.587836
-10.763981
-8.256036
-5.642181
-3.458046
-1.559610
0.165582
1.550365
2.651785
3.734269
5.206725
7.216682
9.092673
10.225423
10.622178
10.304917
9.157442
7.301561
5.417858
4.088021
2.718205
0.403146
-2.826995
-6.438460
-9.648728
-11.684633
-12.379477
-11.733727
-9.980480
-7.519762
-4.243325
-0.473576
3.033618
6.066672
8.570876
10.326462
11.098462
10.806217
9.574575
7.762414
5.900221
4.518714
3.800257
3.558980
3.364462
2.487023
1.060861
-0.082639
-0.899993
-1.653753
-2.040920
-1.734644
-1.208364
-0.795944
-0.393577
-0.194848
-0.396379
-0.969882
-1.515563
-2.276806
-3.959676
-6.323365
-8.620655
-10.042842
-10.483081
-10.654219
-10.664036
-9.924768
-8.272053
-5.960030
-3.347110
-0.860908
1.188560
2.393319
2.488710
1.533416
-0.269159
-2.784114
-5.883796
-9.198572
-12.218997
-14.366190
-15.674518
-16.656231
-17.384741
-17.733331
-17.592116
-16.791125
-15.304172
-13.123076
-10.287347
-6.920431
-2.963878
1.389896
5.402794
8.033015
8.630369
7.603533
5.891438
4.119256
2.307797
0.570685
-0.756814
-1.586793
-1.798378
-1.767047
-2.287478
-3.503456
-4.934995
-6.086211
-6.830152
-7.142971
-6.783389
-5.761693
-4.642036
-3.984129
-3.723443
-3.580591
-3.813218
-4.858056
-6.657592
-8.550647
-9.982186
-10.949637
-11.465860
-11.350128
-10.308326
-8.446830
-6.509351
-4.787432
-3.190127
-2.264288
-2.217293
-2.478911
-2.661738
-2.551852
-2.203960
-1.567328
-0.086221
2.201253
4.930838
8.080791
11.194738
13.852547
15.845203
16.720074
16.156858
13.991430
10.529128
6.639444
2.873440
-0.544207
-3.266073
-4.947775
-5.034044
-3.619102
-1.788701
-0.382642
0.092202
-0.248673
-0.673949
-1.104368
-1.849244
-2.457583
-2.107586
-0.660146
1.501078
4.282799
7.437661
10.149478
11.649757
11.461551
9.831519
7.365661
4.219686
0.775153
-2.516477
-5.861880
-9.430794
-12.940556
-15.629925
-17.000209
-17.520640
-17.166669
-15.560714
-12.869004
-9.304529
-5.215647
-0.783551
3.818517
7.795877
10.432411
11.609816
11.333937
9.813087
7.474181
4.674461
1.736098
-1.260246
-4.573151
-8.061171
-11.012392
-13.151635
-14.411801
-14.715268
-14.140826
-12.620441
-10.266568
-7.367948
-4.180822
-1.218843
0.732431
1.838294
2.906048
3.948785
4.469687
4.009109
3.295327
3.473950
4.386696
5.483441
6.163325
5.728230
3.975688
1.150483
-2.231392
-5.512735
-8.196492
-10.018239
-10.539371
-9.231507
-6.539330
-3.331630
0.135585
3.878447
7.717166
10.582354
11.596334
11.137158
9.760561
8.193186
7.300784
7.059039
7.148585
7.423767
7.697077
8.056893
8.616839
9.412219
9.703065
8.715507
6.832739
4.198313
1.134870
-1.731249
-3.970090
-4.882833
-4.728291
-3.753121
-1.761868
0.311214
1.695530
2.058151
1.519016
0.755904
-0.407002
-1.659452
-1.835500
-0.470356
1.889361
4.416945
6.889353
8.835717
9.777922
9.508589
8.082194
6.575372
5.358459
3.684706
1.551776
-0.569933
-2.216565
-3.132347
-3.737647
-4.273976
-4.368662
-3.477191
-1.758780
-0.045278
1.110384
1.608140
1.797985
2.078544
2.579105
3.295696
4.302896
5.517007
6.485397
6.765956
6.232900
4.762550
2.248764
-0.726772
-3.575824
-6.002404
-7.967468
-9.758120
-10.780280
-10.105539
-8.015857
-5.292819
-2.534243
-0.320181
1.209790
1.995818
2.101964
1.756647
1.022525
0.524305
0.811877
1.624792
2.642046
3.530945
3.653924
3.288500
3.234963
3.198492
2.974048
2.894091
2.840320
2.616110
1.925007
0.528070
-1.039305
-2.370077
-3.190470
-3.222031
-2.695752
-2.202438
-2.840001
-4.426314
-5.173762
-4.570797
-3.190222
-1.303243
0.398335
1.348957
1.811176
2.026739
2.138963
2.279711
2.621057
3.375990
4.148691
4.389738
4.090246
3.808522
3.800808
3.384651
2.008288
0.002777
-1.882329
-3.502542
-5.166008
-6.846073
-8.287198
-9.319879
-9.814826
-9.386040
-7.427285
-3.654730
1.149805
5.595228
9.321725
12.452272
14.164137
14.042798
12.665734
10.820374
8.956076
6.754175
4.151780
1.509171
-0.935879
-3.236676
-5.717497
-7.910514
-8.873055
-8.874690
-8.843594
-9.147762
-9.826708
-10.421486
-10.390389
-9.562511
-7.795002
-5.275134
-2.722533
-0.548685
1.855922
4.769505
7.657838
9.816724
10.832107
11.190053
11.099809
10.332254
9.199508
8.226679
7.998027
8.526411
9.137793
9.575463
10.104314
10.810617
11.076213
10.917934
10.897361
10.932433
11.234734
11.802630
12.378474
12.439497
11.400270
9.860015
8.751818
8.544675
8.909634
9.460930
10.465325
11.876527
13.178546
14.224556
15.199727
16.094938
16.677329
16.851042
17.013767
17.298300
17.355582
16.632448
14.745940
11.689978
7.995749
4.348046
0.662935
-3.073611
-6.819042
-9.921997
-11.677579
-12.652278
-12.971176
-12.146337
-10.163501
-7.655790
-5.481473
-3.786909
-1.653273
1.155335
3.607168
5.049933
5.831519
6.681608
7.500134
7.800097
6.985549
4.884415
2.372032
-0.147132
-2.577453
-4.982991
-7.644538
-10.118579
-11.436024
-10.692080
-8.100903
-4.597449
-0.446143
3.868119
7.475847
9.659983
9.850763
8.399585
6.097853
3.181701
-0.369678
-3.532719
-5.464584
-6.738544
-7.001798
-6.124588
-5.124636
-3.925955
-2.593543
-1.775485
-1.482301
-1.270479
-0.579606
0.544259
1.963877
3.601395
4.811999
5.214600
5.032240
4.564647
3.939241
3.301911
2.697313
2.535528
3.306125
4.173748
4.492182
4.609550
4.331801
3.303094
1.840928
0.335275
-0.788352
-1.117771
-0.979595
-0.222558
1.540743
3.565897
5.242692
6.453296
7.098578
6.980279
5.814334
4.052907
2.345487
0.807804
-0.301328
-0.869921
-1.203315
-1.021652
0.170715
1.871826
3.576677
5.393050
7.094161
8.160278
8.389167
7.836940
6.653226
4.927570
2.731982
0.351226
-1.950039
-3.867642
-5.092738
-5.731704
-6.287205
-6.589269
-6.010151
-4.696910
-2.823725
-0.412572
2.202920
4.956352
7.801433
10.106441
11.156661
10.854830
9.325798
6.612115
3.244734
0.141779
-2.078592
-3.036925
-3.277735
-3.658589
-3.652742
-2.876767
-2.183089
-2.043276
-1.379992
0.238121
1.921229
3.180697
3.995716
5.038687
5.899063
5.676256
5.177568
4.876672
4.456307
4.029395
3.993158
4.605241
5.502556
6.093598
6.324591
6.531036
7.282930
7.866723
7.590143
7.367336
6.874727
5.621575
3.787203
1.370443
-1.221666
-4.072354
-6.805208
-8.859349
-10.454546
-11.315854
-10.868130
-8.985827
-6.494481
-4.240440
-2.194245
-0.499213
0.456084
0.688013
0.684742
0.776392
0.969276
1.508882
2.086130
2.103900
1.913824
2.118633
2.807167
3.612133
4.100303
4.038349
3.435154
2.421644
1.561272
1.157974
1.023308
1.488800
1.957332
1.374009
0.551746
0.603183
1.022383
0.937984
0.113617
-1.397647
-3.368322
-5.526737
-7.723962
-9.576102
-10.657646
-11.172466
-11.118457
-10.110789
-8.439371
-6.338935
-3.907675
-1.554270
0.691121
