EVENT_NAME: 202302060117
EVENT_ID: 13194
EVENT_DATE_YYYYMMDD: 2023/02/06
EVENT_TIME_HHMMSS: 01:17:32.00000
EVENT_LATITUDE_DEGREE: 37.288
EVENT_LONGITUDE_DEGREE: 37.043
EVENT_DEPTH_KM: 8.6
HYPOCENTER_REFERENCE: AFAD
MAGNITUDE_W: 7.7
MAGNITUDE_W_REFERENCE: AFAD
MAGNITUDE_L: 
MAGNITUDE_L_REFERENCE: 
FOCAL_MECHANISM: 
NETWORK: TK
STATION_CODE: 6201
STATION_NAME: 
STATION_LATITUDE_DEGREE: 39.07473
STATION_LONGITUDE_DEGREE: 39.53469
STATION_ELEVATION_M: 901.0
LOCATION: Kahramanmaras_Pazarck_Turkiye
SENSOR_DEPTH_M: 
VS30_M/S: None
SITE_CLASSIFICATION_EC8: unknown
MORPHOLOGIC_CLASSIFICATION: 
EPICENTRAL_DISTANCE_KM: 294.77
EARTHQUAKE_BACKAZIMUTH_DEGREE: 
DATE_TIME_FIRST_SAMPLE_YYYYMMDD_HHMMSS: 2023/02/06 01:18:00.3052840
DATE_TIME_FIRST_SAMPLE_PRECISION: millisecond
SAMPLING_INTERVAL_S: 0.01
NDATA: 18251
DURATION_S: 
STREAM: HNN
UNITS: cm/s^2
INSTRUMENT: sensor = GMS+/GEOSIG | digitizer = 
INSTRUMENT_ANALOG/DIGITAL: 
INSTRUMENTAL_FREQUENCY_HZ: 
INSTRUMENTAL_DAMPING: 
FULL_SCALE_G: 
N_BIT_DIGITAL_CONVERTER: 
PGA_CM/S^2: 15.287
TIME_PGA_S: 
BASELINE_CORRECTION: BASELINE REMOVED
FILTER_TYPE: BUTTERWORTH
FILTER_ORDER: 
LOW_CUT_FREQUENCY_HZ: 
HIGH_CUT_FREQUENCY_HZ: 
LATE/NORMAL_TRIGGERED: 
DATABASE_VERSION: 
HEADER_FORMAT: DYNA 1.2
DATA_TYPE: Acceleration
PROCESSING: Automatic Paolucci et al., 2011
DATA_TIMESTAMP_YYYYMMDD_HHMMSS: 
DATA_LICENSE: U (unknown license)
DATA_CITATION: Turkish Accelerometric Archive v 1.0 - Disaster And Emergency Management Presidency, Earthquake Department
DATA_CREATOR: AFAD
ORIGINAL_DATA_MEDIATOR_CITATION: : AFAD - Disaster And Emergency Management Presidency
ORIGINAL_DATA_MEDIATOR: AFAD PROCESS SERVICE
ORIGINAL_DATA_CREATOR_CITATION: AFAD PROCESS SERVICE
ORIGINAL_DATA_CREATOR: network: TK
USER1: GuestUser
USER2: 
USER3: 
USER4: 
USER5: 
[...]
1.151780
1.087357
1.000853
0.993060
0.934352
0.918765
1.143204
1.821458
2.775585
3.621648
4.250286
4.513171
4.526159
4.706697
4.975816
5.045433
4.889832
4.671626
4.419131
4.073899
3.623461
3.110419
2.844935
2.943906
3.162111
3.307321
3.169383
2.908316
2.782328
2.584644
2.471125
2.630103
2.914028
3.127297
3.081578
2.981826
2.802846
2.365915
1.944312
1.650254
1.590247
1.761174
1.702985
1.233064
0.612738
0.244387
0.232956
0.484411
0.780806
0.871205
0.889128
0.893544
1.072263
1.396973
1.476461
1.566600
1.786883
1.818314
1.658037
1.556727
1.862733
2.496306
3.021037
3.483164
3.977502
4.249218
4.206616
3.950744
3.603693
3.121564
2.635018
2.455777
2.558385
2.757627
2.607480
2.104050
1.906106
1.913379
1.706603
1.329160
0.904698
0.610121
0.478418
0.429841
0.419969
0.357365
0.311385
0.416331
0.727533
1.201608
1.612561
1.982210
2.442778
2.770345
2.909320
3.075311
3.429115
4.032815
4.696521
5.278401
5.726760
5.816639
5.764425
6.000294
6.461122
6.973384
7.342773
7.617087
7.899714
7.764115
7.130281
6.465015
5.973533
5.492702
4.885624
4.134375
3.208042
2.323532
1.710998
1.373559
1.255364
1.218736
1.241076
1.217956
1.180029
1.381089
1.606048
1.585266
1.313029
0.951951
0.764138
0.870382
1.191195
1.341341
1.212755
1.025981
0.867782
0.736599
0.499690
0.136274
-0.172071
-0.407161
-0.815777
-1.229068
-1.487538
-1.868878
-2.198524
-2.338799
-2.346592
-2.347372
-2.443487
-2.487648
-2.572333
-2.668447
-2.871846
-3.200973
-3.458403
-3.845718
-4.204198
-4.297195
-4.168351
-3.954043
-3.777142
-3.530622
-3.302806
-2.969525
-2.620657
-2.494410
-2.211264
-1.922662
-1.955134
-2.135933
-2.195160
-1.955915
-1.646791
-1.577693
-1.628868
-1.510155
-1.448071
-1.614842
-1.938514
-2.336219
-2.422203
-2.200361
-1.954621
-1.815646
-1.703167
-1.655370
-1.796944
-1.846820
-1.845782
-2.017749
-2.299857
-2.574173
-2.815757
-2.962786
-3.025131
-3.159692
-3.283082
-3.498170
-3.741314
-3.803139
-3.930685
-4.130707
-4.239291
-4.128890
-3.721055
-3.110081
-2.422216
-1.818776
-1.421072
-1.325737
-1.320802
-1.311711
-1.521864
-1.901645
-2.392087
-2.960720
-3.407521
-3.596893
-3.756131
-3.987325
-4.091492
-4.094090
-4.208129
-4.405553
-4.405813
-4.295413
-4.109939
-3.909918
-3.917452
-3.977719
-4.102667
-4.130723
-3.879528
-3.589887
-3.201535
-2.765125
-2.526659
-2.390801
-2.208963
-1.874902
-1.262370
-0.637369
-0.482288
-0.646982
-0.637371
-0.293698
0.142452
0.486903
0.737319
0.835511
0.969551
1.071639
0.871357
0.601458
0.233886
-0.348255
-0.884416
-1.416941
-1.834908
-2.020643
-2.279372
-2.548492
-2.526153
-2.391334
-2.369773
-2.361721
-2.432898
-2.346915
-2.054417
-1.957524
-2.093903
-2.449526
-2.878663
-3.392225
-3.970209
-4.370512
-4.474939
-4.201664
-3.890462
-3.725510
-3.820586
-4.074379
-4.241670
-4.571057
-4.615737
-4.359866
-4.235698
-3.993854
-3.698759
-3.367555
-3.196369
-3.397689
-3.800850
-4.267913
-4.662501
-4.950324
-4.996044
-4.798361
-4.466378
-4.105821
-3.753056
-3.244172
-2.723078
-2.498379
-2.404603
-2.077036
-1.556982
-0.994584
-0.390625
0.245287
0.892628
1.450869
1.806231
2.106522
2.358756
2.303685
2.130419
2.006509
1.852206
1.681019
1.508792
1.442291
1.235515
0.731305
0.189689
-0.198665
-0.403882
-0.734307
-1.113309
-1.286835
-1.222673
-0.784185
-0.256337
0.009665
0.012002
-0.123857
-0.297383
-0.373755
-0.218674
0.016675
0.200071
0.160326
-0.198934
-0.404151
-0.309596
-0.299206
-0.353498
-0.122564
0.516984
1.175495
1.502023
1.528259
1.496566
1.580211
1.655543
1.698664
1.671648
1.516046
1.320441
1.207181
1.247445
1.261212
1.196010
0.879872
0.448916
0.098489
-0.286748
-0.264928
-0.296360
-0.360783
-0.089066
0.031206
0.289414
0.378254
0.148619
-0.337407
-1.136454
-1.808994
-2.454517
-2.973274
-3.280580
-3.510735
-3.767127
-3.950004
-3.803236
-3.398777
-2.834822
-2.480499
-2.271386
-1.750032
-1.324793
-1.190234
-0.778502
-0.245719
-0.083364
-0.272995
-0.831757
-1.481177
-1.819915
-1.937850
-2.016041
-1.940968
-1.535471
-1.025287
-0.809161
-0.885793
-0.945280
-0.684734
0.079763
1.129225
2.151151
2.815118
2.975134
2.771995
2.024902
1.010248
0.133531
-0.613303
-1.085561
-1.128423
-0.647334
-0.038179
0.595135
1.559133
2.850959
4.356833
5.503448
6.066365
6.146373
5.624498
4.476323
2.988632
1.710314
0.552527
-0.550707
-1.373133
-1.558348
-0.951791
-0.391472
-0.039227
0.334838
0.910224
1.918123
2.794060
3.260083
3.184750
2.808605
2.347516
1.657053
1.012308
0.363148
-0.148336
-0.227046
0.269889
1.322209
2.463629
3.363204
3.667652
3.424768
3.378010
3.607644
3.558028
3.134086
2.455312
1.786409
1.274146
0.735387
0.496400
0.535364
0.375087
0.194028
-0.032750
-0.416947
-0.708927
-1.003764
-1.101177
-0.573069
0.523151
1.841213
2.737152
2.925483
2.269309
0.753302
-0.940385
-2.205715
-2.869682
-3.111267
-3.005282
-2.830459
-2.873841
-2.788897
-2.380542
-1.701769
-1.054948
-0.672310
-0.414881
0.146477
1.001892
1.326862
1.066833
0.811741
0.739265
0.498719
-0.087318
-0.769209
-1.642809
-2.461338
-2.860602
-2.901386
-2.585509
-2.093249
-1.523838
-1.104573
-0.933906
-0.818570
-1.032619
-1.517087
-1.802053
-1.447990
-0.571533
0.386490
1.367114
1.927173
1.667924
1.048117
1.012788
1.457251
1.808196
1.994190
1.764814
1.450754
1.283983
1.061101
0.670150
-0.029665
-0.471531
-0.388925
-0.093830
0.742623
2.097052
3.529152
4.180909
3.788919
3.318998
2.451113
1.345540
0.545974
-0.277750
-0.438547
0.017085
0.100470
-0.382959
-0.649221
-0.268402
-0.095657
-0.519339
-0.840412
-0.660394
-0.454658
-0.564021
-0.726636
-0.449984
0.475049
1.520095
1.769472
1.270977
1.081605
1.192785
1.182914
0.962110
0.156050
-0.834446
-1.603359
-2.058213
-2.047563
-1.908848
-2.098479
-2.964286
-4.107525
-4.369891
-3.327703
-2.081597
-1.712207
-2.196935
-2.816482
-3.016244
-2.641399
-1.881578
-1.623889
-1.832483
-1.489850
-0.514682
-0.199324
-1.403089
-3.260690
-4.548360
-4.624473
-3.739963
-2.515937
-1.387766
-1.176056
-2.069398
-2.971053
-2.749212
-1.303604
-0.044769
-0.022949
-0.640678
-0.700165
-0.303760
-0.187644
0.095762
0.006921
-0.922529
-1.417647
-0.649514
0.739205
1.579034
1.547602
1.218215
1.414340
1.890754
1.866854
1.594357
2.034923
3.286485
4.521421
5.302542
4.940685
3.069836
1.107289
0.525668
0.868301
1.106768
0.393444
-1.069829
-1.744447
-1.209585
0.805954
4.177741
7.067659
8.021266
6.869974
4.325807
1.718775
0.195236
-0.566404
-1.267778
-1.442603
-0.469512
1.574601
3.006961
1.972304
-0.557056
-2.670269
-3.277347
-2.320622
-0.556539
1.325739
2.414426
2.199337
0.459411
-1.863953
-3.425159
-4.371234
-5.328480
-5.601237
-4.087829
-1.681080
0.431093
0.830096
-0.378865
-1.001789
-0.538363
0.986993
2.655482
3.326202
3.136831
2.495463
2.475201
3.387765
4.173563
3.253464
0.840220
-1.228832
-2.123993
-1.883968
-1.730446
-1.799285
-1.218704
-1.368331
-2.554951
-2.995518
-2.734971
-2.983570
-4.152786
-5.382528
-5.660740
-5.366163
-4.640113
-3.238665
-1.698242
-0.653716
-0.208214
-0.378363
-1.274043
-2.186089
-2.466119
-2.396502
-1.931777
-1.020512
-0.296280
0.166886
0.687980
0.552381
-0.906477
-2.582500
-2.622764
-0.086391
3.530877
5.582004
5.287686
3.497625
1.577420
0.422751
0.130252
0.480419
1.392463
2.501672
3.239412
3.457357
3.131088
3.026401
3.398128
3.573991
3.817393
4.137166
3.980006
3.118096
2.182152
1.903940
2.366066
4.017930
5.999699
6.527287
5.116227
3.021458
1.673262
0.886944
0.297270
-0.102513
-0.366698
-0.658677
-0.717905
0.105559
1.793011
3.680224
4.972569
5.089204
4.386532
3.678923
2.937805
2.372809
2.456454
3.080935
3.602289
3.666192
3.811401
4.380293
5.332341
5.926690
5.840187
5.584575
5.191805
5.190246
5.845899
6.220225
5.806933
4.787344
3.328486
2.287596
2.393581
3.032869
3.789572
4.592515
5.060616
4.933849
4.046221
2.619315
1.332425
0.888481
1.690643
3.486938
5.120358
5.151790
3.567984
1.516337
-0.102797
-0.428547
0.473627
1.369306
1.710381
1.847797
1.475809
0.306333
-0.734557
-1.131743
-0.703906
0.699100
2.164451
2.746850
2.426036
1.327737
-0.240223
-1.089924
-0.345950
1.213696
2.048850
1.621791
0.080847
-1.765844
-2.512937
-1.791302
-0.583122
-0.206719
-0.550392
-0.889909
-1.323463
-1.545305
-1.530239
-1.956259
-2.228236
-1.899890
-1.440361
-0.992782
-0.504678
0.408925
0.919368
0.666873
0.662717
0.972100
1.163808
0.513868
-0.019176
1.009504
2.502910
3.174669
2.504987
0.561402
-1.354127
-2.463856
-2.815582
-2.400473
-1.790539
-1.250742
-1.044227
-1.399850
-1.879641
-2.561013
-3.175365
-3.036130
-1.925622
-0.199985
1.008975
1.201722
0.925069
0.563991
0.225253
-0.466510
-1.701187
-2.657134
-2.825464
-2.088243
-1.199058
-1.157236
-1.108919
-0.942149
-1.207632
-1.466102
-1.305046
-0.599517
-0.461841
-0.892017
-0.751483
-0.370664
-0.168305
-0.256367
-0.430152
-0.792009
-1.487149
-2.372438
-3.383975
-3.384495
-2.415042
-1.807705
-1.747180
-1.858101
-1.905379
-2.103063
-2.717934
-3.070700
-2.549606
-1.836543
-1.189982
-0.387299
0.169123
0.016379
-1.128159
-2.980565
-4.843361
-5.945297
-5.651240
-4.176538
-2.640791
-1.864864
-1.819925
-2.491945
-3.775979
-5.097419
-6.161169
-6.729022
-6.312095
-5.310430
-4.549311
-4.257072
-4.409557
-4.756607
-4.627503
-3.383215
-1.257535
0.609936
1.430802
1.795256
1.983587
1.825648
1.774993
1.479896
0.616427
-0.430698
-0.978549
-0.392513
0.513557
0.858268
0.716175
0.467316
0.782414
1.831097
2.972517
3.232284
2.312445
0.931518
-0.182627
-0.785549
-1.210010
-1.745912
-1.941258
-1.258068
-0.072488
0.786564
1.447413
2.288281
2.690921
2.536358
2.665722
3.211754
3.623745
3.103170
1.703280
0.962421
1.546639
2.387507
2.004349
0.316117
-0.955448
-0.805822
0.259226
1.299336
1.918103
2.623632
2.967305
2.391139
1.623004
0.845259
-0.144198
-0.888953
-0.965325
-0.551775
0.131674
0.604451
0.621595
0.489892
0.218954
0.107513
0.055299
-0.452808
-0.896752
-0.314353
1.558314
3.897524
5.627058
5.963976
4.686177
3.084967
2.147205
1.681180
1.432842
1.154370
1.001366
1.127873
1.799632
2.767267
3.132760
2.790385
1.761184
0.038403
-1.500463
-1.898428
-1.458641
-1.002229
-0.959109
-1.162507
-0.797534
0.013981
0.357393
-0.100059
-0.948201
-1.507482
-1.833751
-1.895057
-1.668800
-1.452673
-1.149784
-0.609208
0.569359
2.257590
3.862695
4.781754
4.369242
2.635290
0.401805
-1.223044
-1.927015
-1.958448
-1.826486
-1.679718
-1.330330
-0.991594
-0.669222
-0.256711
-0.138517
-0.628700
-1.011598
-1.134469
-1.249807
-1.050046
-0.775212
-0.759366
-0.981209
-0.773395
0.019936
0.641560
0.686759
0.395299
0.192679
0.107995
0.393739
1.058484
1.768170
1.891819
1.227332
0.986007
1.470474
1.741411
1.276166
0.692467
0.686492
0.942623
1.041594
0.860535
0.598169
0.457114
0.644926
1.224727
1.906618
2.117549
1.433579
0.592970
0.143051
0.007452
0.323329
0.743373
1.118997
1.679056
2.018313
1.885571
1.538001
0.995345
0.643879
0.969887
1.694899
2.540443
3.438720
4.137235
4.437007
4.478829
4.525586
4.399599
3.626788
2.292360
1.063657
0.546199
0.825189
1.679565
2.630056
3.107509
3.032175
2.377560
1.275364
0.245903
-0.604058
-1.413236
-2.169940
-2.666357
-2.333855
-1.359985
-0.090240
0.888565
0.678672
0.074451
-0.416771
-0.925397
-1.199452
-0.861495
-0.199347
-0.538864
-1.420517
-1.773282
-1.848096
-1.949406
-2.096435
-2.213851
-2.273078
-2.058251
-1.237125
0.211340
1.740853
2.784860
2.887208
1.889179
0.645670
0.124575
-0.103502
-1.150367
-2.328415
-2.156449
-0.921773
0.344855
1.141822
1.391199
1.308592
1.240273
1.344179
1.420810
1.328852
0.725930
-0.531607
-2.020597
-3.423344
-4.489692
-5.558378
-6.604204
-6.615634
-5.655013
-4.484499
-3.438674
-2.755745
-2.297775
-2.037228
-1.943972
-1.333258
-0.428487
-0.299642
-0.668513
-0.507977
0.007402
0.570578
1.581594
2.369989
2.527668
2.806658
2.967974
2.521952
1.759272
1.537950
2.643002
4.467611
5.692157
5.440441
3.542836
1.134267
-0.548510
-1.160524
-0.738661
-0.104308
-0.680214
-2.874994
-4.732076
-4.550758
-3.128789
-2.227135
-3.144636
-5.542294
-7.884103
-9.226584
-9.605326
-9.043708
-8.035290
-7.415744
-6.815940
-5.737904
-4.407892
-3.133212
-2.363520
-2.201425
-1.910746
-1.302110
-0.787250
-0.551641
-0.717893
-0.931423
-1.117158
-1.050917
-0.274472
0.432356
0.530808
-0.060684
-0.801803
-0.774527
-0.714781
-1.410181
-2.922030
-4.713391
-6.133283
-7.106374
-7.036497
-5.913780
-4.182687
-1.694371
0.879929
2.195913
1.929390
1.235290
0.936816
0.268432
-1.011704
-2.112601
-2.904115
-3.555873
-3.891234
-3.242334
-1.621902
-0.297346
0.668211
1.886262
3.062231
3.452402
2.352024
0.419091
-0.861826
-0.765712
-0.402037
-0.831434
-1.648925
-2.643057
-3.600302
-4.636517
-5.373219
-5.241258
-4.749777
-4.304016
-4.253622
-4.324019
-4.377532
-4.965647
-5.529344
-4.862001
-2.253672
1.241765
3.654749
4.560039
4.260007
3.437062
2.114063
-0.034478
-1.986375
-3.256121
-3.559270
-2.931672
-2.085608
-1.694398
-2.421229
-3.668635
-4.771870
-5.232959
-4.346891
-2.513969
-1.361899
-1.684011
-1.984044
-1.235393
0.375687
2.071971
2.953882
3.252615
3.150006
2.667876
1.902859
0.681170
-0.429598
-0.820030
-0.634296
0.103444
1.230317
2.213798
2.816978
3.128959
3.293652
3.623037
3.755778
3.176235
2.728914
3.636802
5.819372
8.168712
10.457267
12.565284
14.360020
15.286871
13.897891
10.949005
7.745027
4.401814
1.209265
-1.237749
-1.732867
-0.135035
2.084421
3.667706
4.062034
3.545874
3.176224
3.245322
3.196745
3.173365
2.908661
2.067272
0.717777
-1.037735
-2.137073
-2.351902
-2.031609
-2.113696
-3.136662
-3.389417
-1.913676
0.946108
3.757316
5.196690
4.849899
2.989701
0.608667
-2.093699
-4.017800
-4.749048
-4.897635
-3.939612
-2.200206
-0.321046
1.545906
3.008918
3.899922
4.622595
5.262144
5.959360
6.430319
6.136261
5.127582
3.397007
1.566682
-0.058686
-1.248944
-2.162808
-2.867818
-2.381274
-1.166080
0.574625
3.363233
6.696834
10.014330
12.185989
12.554599
11.439415
8.841475
5.753873
2.564702
-0.973078
-3.878323
-5.782682
-6.393397
-5.625523
-3.834424
-1.657310
-0.605510
-0.856966
-1.469759
-1.936822
-2.298679
-2.751715
-3.162669
-3.546346
-4.128487
-4.768555
-5.029363
-4.926236
-4.562561
-3.494656
-1.878380
-0.861649
-1.267667
-3.310222
-5.931801
-7.747839
-8.365827
-7.473265
-5.570726
-3.497518
-1.706419
-0.370953
1.319357
3.808972
6.705384
9.287736
10.394607
10.321352
9.962092
9.224611
8.395950
7.267778
5.416931
3.153313
0.980094
-0.504221
-1.206374
-1.334180
-1.125068
-1.039605
-1.483549
-2.380008
-3.642741
-4.466725
-4.222024
-3.247635
-1.691886
-0.814910
-0.903491
-1.592916
-3.332062
-5.653349
-7.690190
-8.758356
-8.903567
-8.168684
-6.611376
-4.448289
-2.019719
0.076608
0.995406
0.517693
-0.383183
-1.722027
-3.614178
-5.884550
-7.604993
-7.437703
-6.236537
-4.646498
-2.808381
-1.180156
0.327277
1.671575
3.609703
6.354671
8.022380
7.345684
5.007772
2.432433
0.168814
-1.651120
-2.406526
-2.626030
-2.637980
-2.313790
-2.575117
-2.942430
-2.293530
-0.460608
2.504902
5.215320
6.059306
5.260778
3.288880
0.698993
-1.046388
-1.819718
-2.204435
-2.684486
-4.188543
-5.984060
-7.060798
-7.112752
-6.457618
-5.252555
-3.404307
-1.757898
0.035539
1.274631
2.025880
2.890127
2.735824
1.800659
0.438436
-0.375418
-0.868198
-1.852719
-2.868672
-3.678889
-4.147770
-4.954350
-5.985629
-6.624399
-6.513219
-5.675728
-4.622629
-3.534721
-3.439647
-4.770958
-5.977061
-5.813668
-4.513789
-2.872316
-1.783370
-1.522563
-1.649850
-1.782852
-1.337350
-0.314385
1.109662
2.830624
4.371567
5.353749
5.584163
5.455058
5.159961
4.787713
4.581457
4.427154
3.969182
3.309891
2.325370
0.803129
-0.272570
-0.877570
-1.397626
-1.871963
-2.847911
-4.168052
-5.024508
-4.799290
-3.682028
-2.522165
-2.274866
-2.812327
-3.243542
-3.678394
-4.714869
-6.293219
-7.713631
-8.165367
-7.712852
-6.815355
-5.209470
-3.329270
-2.291758
-2.700633
-3.802309
-3.734250
-2.154862
0.350080
3.478984
6.205248
7.302247
6.352275
3.790184
0.987807
-0.370261
0.255260
2.091299
3.440533
3.224406
1.505261
-1.071897
-2.934953
-3.172641
-1.675859
0.901038
3.369093
4.986927
5.099926
4.278279
3.136858
2.177015
1.686833
1.154308
1.261592
1.504474
1.303153
1.410177
1.213532
0.515016
-0.072060
-0.290785
-0.222207
-0.918905
-3.130050
-5.516279
-6.241811
-5.007135
-3.620494
-3.756353
-4.958040
-6.183106
-6.182587
-4.388630
-1.353762
1.811250
4.128898
5.303309
5.054970
4.056162
3.528832
3.289326
2.160114
0.329529
-0.945153
-1.003341
0.040406
1.436398
2.757577
3.302050
3.186713
4.010436
5.588266
6.751247
7.251300
6.958541
6.255088
5.545662
4.652839
4.276694
4.694401
4.508666
3.396599
2.334927
2.158544
3.110853
4.444501
5.671644
6.903723
7.961237
8.568574
8.477135
7.556258
6.472505
5.280690
3.434778
1.951763
1.354036
1.228827
1.050626
0.260671
-0.374981
-0.402257
0.333924
1.885518
3.760262
5.550582
6.932287
8.057601
8.094228
6.544192
4.391235
2.720148
2.316987
2.701703
3.012645
2.775476
2.281397
2.002406
1.550669
0.825656
0.275987
0.574200
1.412211
1.999286
2.528432
2.841192
2.248142
0.928780
-0.234981
-1.089878
-1.380818
-0.940252
-0.563330
-0.754260
-1.665007
-2.432362
-2.517566
-2.663296
-2.872929
-3.112176
-3.072952
-2.022451
-0.501250
0.540418
1.134247
1.592218
1.465710
0.663546
-0.203040
-0.532426
-0.121474
0.648997
1.725215
3.139911
4.354066
4.674619
4.049617
2.879621
1.445962
0.159590
-0.393196
-0.235258
0.132313
0.558851
0.669512
-0.193957
-1.627876
-2.524596
-2.550573
-1.585796
-0.181231
0.681198
0.699121
-0.094210
-0.958718
-1.345513
-1.048599
-0.549586
-0.562834
-0.868322
-1.790239
-3.098431
-4.387399
-5.738713
-6.344752
-6.104467
-5.071370
-3.339239
-1.932336
-1.494368
-1.767644
-1.519307
-0.371912
1.005377
2.191477
2.497223
1.928591
0.728982
-0.914830
-1.884544
-1.907145
-1.909743
-2.057032
-1.673355
-0.967047
-0.742348
-0.914575
-0.955359
-0.845997
-1.007833
-1.511264
-2.046906
-2.469549
-2.899725
-3.537715
-3.985556
-3.523169
-2.495268
-1.611278
-1.041608
-0.661308
0.007594
0.707148
0.762998
0.444522
0.522452
1.595812
3.410550
5.283477
6.595564
6.830134
6.128240
5.151772
4.635093
4.621325
4.905251
5.150991
5.142937
5.176707
4.911483
4.276870
3.409504
2.430438
1.848557
1.322267
0.636479
-0.077364
-0.623656
-0.565209
-0.575860
-0.933561
-1.381141
-2.011599
-2.983391
-4.200664
-5.207785
-6.646120
-8.194338
-9.221460
-9.356540
-8.097705
-6.152824
-3.787897
-1.774436
-0.835895
-0.930451
-1.456482
-1.471289
-1.160607
-0.950715
-1.101901
-1.413103
-1.742749
-2.165912
-2.252935
-1.706903
0.014579
2.959827
5.921181
8.213632
9.685736
9.842895
8.512364
6.259136
4.170601
2.401841
0.518783
-1.075413
-1.881214
-1.851341
-1.841990
-2.421533
-3.192524
-4.015470
-4.543059
-4.402785
-3.383196
-1.303755
0.878036
2.170640
2.795122
3.126845
2.867856
1.475499
-0.684731
-2.889642
-4.766725
-6.124793
-7.162306
-7.775619
-7.833807
-7.798739
-7.929143
-8.340356
-9.150313
-10.225753
-11.249499
-11.396528
-10.064439
