EVENT_NAME: 202302060117
EVENT_ID: 13194
EVENT_DATE_YYYYMMDD: 2023/02/06
EVENT_TIME_HHMMSS: 01:17:32.00000
EVENT_LATITUDE_DEGREE: 37.288
EVENT_LONGITUDE_DEGREE: 37.043
EVENT_DEPTH_KM: 8.6
HYPOCENTER_REFERENCE: AFAD
MAGNITUDE_W: 7.7
MAGNITUDE_W_REFERENCE: AFAD
MAGNITUDE_L: 
MAGNITUDE_L_REFERENCE: 
FOCAL_MECHANISM: 
NETWORK: TK
STATION_CODE: 6606
STATION_NAME: 
STATION_LATITUDE_DEGREE: 39.19403
STATION_LONGITUDE_DEGREE: 35.25498
STATION_ELEVATION_M: 1066.0
LOCATION: Kahramanmaras_Pazarck_Turkiye
SENSOR_DEPTH_M: 
VS30_M/S: None
SITE_CLASSIFICATION_EC8: unknown
MORPHOLOGIC_CLASSIFICATION: 
EPICENTRAL_DISTANCE_KM: 263.24
EARTHQUAKE_BACKAZIMUTH_DEGREE: 
DATE_TIME_FIRST_SAMPLE_YYYYMMDD_HHMMSS: 2023/02/06 01:17:54.8768770
DATE_TIME_FIRST_SAMPLE_PRECISION: millisecond
SAMPLING_INTERVAL_S: 0.01
NDATA: 18251
DURATION_S: 
STREAM: HNN
UNITS: cm/s^2
INSTRUMENT: sensor = ACEBOX/SARA | digitizer = 
INSTRUMENT_ANALOG/DIGITAL: 
INSTRUMENTAL_FREQUENCY_HZ: 
INSTRUMENTAL_DAMPING: 
FULL_SCALE_G: 
N_BIT_DIGITAL_CONVERTER: 
PGA_CM/S^2: 7.271
TIME_PGA_S: 
BASELINE_CORRECTION: BASELINE REMOVED
FILTER_TYPE: BUTTERWORTH
FILTER_ORDER: 
LOW_CUT_FREQUENCY_HZ: 
HIGH_CUT_FREQUENCY_HZ: 
LATE/NORMAL_TRIGGERED: 
DATABASE_VERSION: 
HEADER_FORMAT: DYNA 1.2
DATA_TYPE: Acceleration
PROCESSING: Automatic Paolucci et al., 2011
DATA_TIMESTAMP_YYYYMMDD_HHMMSS: 
DATA_LICENSE: U (unknown license)
DATA_CITATION: Turkish Accelerometric Archive v 1.0 - Disaster And Emergency Management Presidency, Earthquake Department
DATA_CREATOR: AFAD
ORIGINAL_DATA_MEDIATOR_CITATION: : AFAD - Disaster And Emergency Management Presidency
ORIGINAL_DATA_MEDIATOR: AFAD PROCESS SERVICE
ORIGINAL_DATA_CREATOR_CITATION: AFAD PROCESS SERVICE
ORIGINAL_DATA_CREATOR: network: TK
USER1: GuestUser
USER2: 
USER3: 
USER4: 
USER5: 
[...]
-1.244596
-1.368742
-1.589681
-1.892215
-2.256471
-2.644107
-3.063072
-3.512430
-3.953606
-4.356205
-4.683054
-4.910071
-5.017151
-4.963377
-4.753895
-4.429151
-4.001068
-3.494898
-2.978673
-2.516690
-2.157344
-1.908584
-1.713831
-1.534976
-1.372955
-1.238755
-1.135183
-1.032079
-0.903725
-0.756199
-0.608439
-0.478916
-0.376746
-0.307309
-0.265225
-0.237170
-0.203971
-0.122843
0.034034
0.257077
0.541842
0.878977
1.243233
1.587149
1.867471
2.061757
2.156912
2.156210
2.066432
1.905813
1.698201
1.442660
1.155557
0.849049
0.514718
0.156775
-0.234369
-0.633461
-0.962881
-1.176104
-1.273364
-1.273365
-1.182184
-0.988834
-0.674844
-0.216134
0.380283
1.078869
1.818603
2.511812
3.124594
3.666536
4.127116
4.493009
4.739665
4.841834
4.800919
4.629779
4.333324
3.911086
3.371716
2.761037
2.162282
1.661021
1.317572
1.156018
1.165837
1.311259
1.539913
1.816027
2.102195
2.341135
2.496143
2.548045
2.491934
2.354929
2.154330
1.910713
1.673409
1.479825
1.339546
1.226622
1.105281
0.983005
0.878965
0.791057
0.718346
0.651713
0.574092
0.485015
0.394769
0.315979
0.239294
0.117485
-0.073527
-0.327198
-0.659657
-1.073946
-1.521435
-1.936425
-2.282679
-2.551546
-2.731570
-2.813867
-2.807087
-2.727362
-2.573524
-2.350248
-2.095643
-1.839869
-1.616125
-1.461117
-1.351467
-1.253506
-1.147830
-1.024151
-0.950973
-1.001707
-1.173081
-1.428154
-1.700294
-1.912816
-2.033689
-2.047250
-1.931286
-1.685566
-1.336506
-0.930635
-0.508397
-0.095745
0.273888
0.561693
0.732832
0.789645
0.772811
0.700567
0.584604
0.432168
0.226192
-0.020230
-0.268523
-0.475668
-0.614310
-0.708063
-0.778202
-0.840860
-0.887620
-0.850212
-0.694503
-0.426338
-0.048522
0.413929
0.949324
1.527037
2.070148
2.499867
2.743718
2.783930
2.667499
2.454510
2.184708
1.867678
1.548077
1.279210
1.067390
0.906771
0.776078
0.664790
0.590676
0.566829
0.593715
0.649125
0.707574
0.745683
0.727680
0.634862
0.457878
0.200934
-0.113056
-0.439671
-0.726774
-0.974131
-1.190862
-1.369249
-1.523789
-1.630869
-1.643728
-1.553248
-1.353586
-1.065782
-0.745479
-0.439673
-0.185535
-0.019540
0.024882
-0.051804
-0.214527
-0.443649
-0.719997
-1.039832
-1.429806
-1.866072
-2.314963
-2.776946
-3.207601
-3.570455
-3.858961
-4.032672
-4.062131
-3.943830
-3.685952
-3.331515
-2.914187
-2.453841
-1.981570
-1.516782
-1.101090
-0.767228
-0.507246
-0.321377
-0.195360
-0.100439
-0.026793
0.026513
0.051061
0.052230
0.010380
-0.108857
-0.288881
-0.523847
-0.808846
-1.110211
-1.417421
-1.720189
-2.002616
-2.240622
-2.403111
-2.502475
-2.558587
-2.574251
-2.536143
-2.394462
-2.108762
-1.698915
-1.206772
-0.679092
-0.201912
0.157902
0.392400
0.502285
0.514442
0.468384
0.360603
0.199984
0.010842
-0.179469
-0.309694
-0.341725
-0.293563
-0.187185
-0.042465
0.128441
0.325765
0.532208
0.724389
0.892489
1.023182
1.141249
1.305842
1.539873
1.838666
2.182114
2.529770
2.841889
3.077557
3.200066
3.208249
3.131096
3.000637
2.829497
2.613936
2.365877
2.104725
1.845210
1.607438
1.406138
1.218165
0.999097
0.745894
0.502745
0.320383
0.237151
0.276896
0.440086
0.706849
1.034165
1.363819
1.665651
1.943869
2.199643
2.437649
2.660691
2.861990
3.053003
3.251496
3.462849
3.670461
3.803725
3.786190
3.606867
3.317426
2.993383
2.682198
2.399303
2.150777
1.932176
1.755659
1.636656
1.562542
1.518120
1.498715
1.522095
1.615146
1.780440
1.993429
2.216004
2.418940
2.591716
2.739008
2.880455
3.027046
3.203562
3.439698
3.727736
4.061130
4.431933
4.812788
5.192475
5.543872
5.801282
5.932209
5.956757
5.906257
5.804087
5.677369
5.530076
5.347013
5.134725
4.912150
4.691912
4.467701
4.236709
4.011094
3.788285
3.555189
3.300584
3.013948
2.699490
2.356977
1.994825
1.661664
1.400746
1.221657
1.101485
1.003290
0.928241
0.898548
0.938761
1.072493
1.261869
1.448673
1.610460
1.753076
1.902239
2.046491
2.145621
2.165260
2.090445
1.965129
1.849399
1.770142
1.736007
1.722447
1.703041
1.691585
1.715900
1.771543
1.827888
1.845423
1.775751
1.585440
1.232874
0.690931
0.014789
-0.702501
-1.369992
-1.902816
-2.259591
-2.427692
-2.429328
-2.318275
-2.148071
-1.978334
-1.824496
-1.664812
-1.482217
-1.254732
-0.991944
-0.739210
-0.514765
-0.320245
-0.176226
-0.096034
-0.057458
-0.041794
-0.018414
0.061544
0.189899
0.333216
0.469754
0.577534
0.643699
0.664273
0.678300
0.706122
0.715474
0.721552
0.738385
0.782573
0.867675
0.928462
1.000004
1.196861
1.442582
1.574209
1.598758
1.639438
1.734360
1.851726
1.995043
2.137659
2.204759
2.176002
2.100017
1.989665
1.820396
1.606705
1.381558
1.178388
1.018236
0.876555
0.751239
0.678295
0.672917
0.726690
0.817871
0.923079
1.031561
1.142381
1.248057
1.315624
1.323573
1.281723
1.188906
1.034132
0.854575
0.707283
0.601840
0.534974
0.519075
0.575888
0.743988
1.038338
1.443743
1.927703
2.416573
2.849331
3.211483
3.507003
3.722330
3.814913
3.767920
3.595143
3.310612
2.933964
2.474786
1.946872
1.389031
0.845219
0.334839
-0.144446
-0.583985
-0.972088
-1.297067
-1.553542
-1.774949
-2.002434
-2.245115
-2.484524
-2.678342
-2.787292
-2.801320
-2.747780
-2.661276
-2.567289
-2.493176
-2.447585
-2.415555
-2.387968
-2.360380
-2.304502
-2.172173
-1.954041
-1.688681
-1.413268
-1.160533
-0.961104
-0.830412
-0.764715
-0.726373
-0.666053
-0.567391
-0.441842
-0.296888
-0.128086
0.086773
0.384397
0.766188
1.198479
1.662332
2.126186
2.527615
2.823135
2.988897
3.008770
2.890000
2.670231
2.398792
2.121508
1.859889
1.589853
1.298541
1.035753
0.854560
0.764080
0.746545
0.770860
0.815749
0.884952
0.994603
1.161300
1.381537
1.620712
1.841182
2.016764
2.141378
2.237702
2.315322
2.372836
2.424038
2.471732
2.501892
2.511945
2.494878
2.432687
2.316256
2.152832
1.966963
1.779457
1.586808
1.392054
1.217641
1.073388
0.965374
0.918848
0.939422
0.997403
1.072920
1.147267
1.199170
1.250605
1.335707
1.433668
1.531395
1.647358
1.730824
1.756307
1.797689
1.849358
1.858476
1.854034
1.861048
1.886298
1.905469
1.872503
1.866658
1.989401
2.131082
2.094610
1.863150
1.514558
1.100269
0.734143
0.502683
0.416879
0.503384
0.709827
0.918608
1.051872
1.090682
1.112425
1.168536
1.185369
1.085772
0.862495
0.586380
0.353986
0.175130
0.010537
-0.144705
-0.292932
-0.440225
-0.561799
-0.613469
-0.563670
-0.413806
-0.210169
-0.023132
0.126966
0.259763
0.363335
0.414302
0.388818
0.275426
0.111300
-0.083920
-0.300651
-0.486286
-0.596872
-0.610433
-0.520655
-0.349281
-0.107302
0.203415
0.552942
0.898494
1.207106
1.453762
1.606899
1.637760
1.541903
1.341772
1.088336
0.835834
0.592218
0.350705
0.144028
0.045131
0.130000
0.410322
0.828352
1.326340
1.844902
2.309457
2.685636
3.004302
3.277143
3.471195
3.551387
3.484521
3.269427
2.955671
2.622042
2.346395
2.133639
1.926261
1.689891
1.435754
1.206632
1.025673
0.877913
0.771301
0.749090
0.852662
1.085056
1.417048
1.831103
2.333767
2.921299
3.525899
4.051007
4.456645
4.739774
4.906003
4.966089
4.934292
4.827447
4.619133
4.282699
3.847602
3.350782
2.826141
2.312956
1.851440
1.464739
1.156828
0.969790
0.942669
1.056528
1.265543
1.497002
1.704848
1.883702
2.031462
2.192314
2.420734
2.734957
3.133581
3.577796
4.013126
4.408010
4.745613
4.987593
5.083449
5.020324
4.803126
4.473939
4.128387
3.834036
3.617539
3.476560
3.407823
3.436580
3.566337
3.762960
3.972910
4.143582
4.225878
4.173975
4.012655
3.792418
3.531266
3.264971
3.034446
2.862138
2.732847
2.604025
2.476138
2.351290
2.242574
2.171032
2.112348
2.075642
2.088033
2.130818
2.167991
2.133857
1.996384
1.778718
1.466599
1.052076
0.573727
0.057970
-0.483037
-1.024746
-1.532554
-1.969287
-2.314138
-2.570848
-2.755314
-2.889046
-2.996593
-3.123546
-3.293283
-3.457876
-3.579918
-3.670866
-3.741706
-3.816989
-3.902559
-3.972231
-3.996312
-3.950021
-3.851826
-3.726511
-3.547422
-3.297961
-3.000103
-2.690322
-2.421222
-2.225534
-2.080112
-1.942873
-1.822000
-1.777813
-1.828547
-1.928612
-2.048784
-2.194440
-2.388726
-2.658762
-2.984208
-3.302874
-3.559817
-3.718800
-3.770937
-3.740543
-3.652869
-3.508850
-3.307317
-3.057155
-2.769350
-2.478507
-2.224369
-2.011848
-1.812653
-1.578856
-1.298065
-0.994830
-0.672892
-0.320559
0.062634
0.451439
0.789743
1.038503
1.217358
1.368391
1.507266
1.630243
1.733815
1.826633
1.925529
2.019047
2.097135
2.155585
2.167274
2.133607
2.055285
1.907525
1.698744
1.433851
1.119628
0.787168
0.469671
0.224183
0.090685
0.062863
0.137444
0.297361
0.496790
0.680555
0.805168
0.853330
0.817793
0.712116
0.551264
0.345054
0.133000
-0.071807
-0.274509
-0.443545
-0.549689
-0.595981
-0.596449
-0.575641
-0.559509
-0.562081
-0.604399
-0.694878
-0.811777
-0.953692
-1.107297
-1.248979
-1.414040
-1.593830
-1.732238
-1.830199
-1.894961
-1.911561
-1.879999
-1.832772
-1.818978
-1.838617
-1.859192
-1.879065
-1.904782
-1.926058
-1.932605
-1.898938
-1.780637
-1.576532
-1.320992
-1.057503
-0.836097
-0.666126
-0.526783
-0.391415
-0.254176
-0.173516
-0.199468
-0.334369
-0.582896
-0.951127
-1.444907
-1.999708
-2.489513
-2.865927
-3.121000
-3.222235
-3.130586
-2.841613
-2.418206
-1.913906
-1.356533
-0.800096
-0.285041
0.164551
0.519221
0.748342
0.847472
0.865708
0.831340
0.753251
0.671422
0.589125
0.490696
0.393437
0.313244
0.256431
0.229544
0.246377
0.337090
0.527401
0.821518
1.197464
1.618532
2.057370
2.480075
2.829602
3.068309
3.196195
3.221913
3.166503
3.054280
2.888985
2.696102
2.519819
2.345172
2.141067
1.944911
1.795280
1.671368
1.542779
1.405540
1.287238
1.210786
1.160987
1.133633
1.166130
1.286302
1.473339
1.701525
1.992603
2.354988
2.757821
3.164628
3.538002
3.884256
4.234951
4.594297
4.970711
5.380323
5.807237
6.185287
6.430306
6.501614
6.394301
6.114212
5.659476
5.026820
4.247574
3.373406
2.470948
1.602625
0.811455
0.126896
-0.459000
-0.988317
-1.477421
-1.882592
-2.158239
-2.281918
-2.242641
-2.080853
-1.842146
-1.537041
-1.205283
-0.884747
-0.585720
-0.345611
-0.202995
-0.157872
-0.193409
-0.298151
-0.459004
-0.650717
-0.840327
-0.997673
-1.102181
-1.162734
-1.197103
-1.197570
-1.178867
-1.165307
-1.140992
-1.103585
-1.047941
-0.947409
-0.813209
-0.652824
-0.459240
-0.249057
-0.037237
0.149099
0.279324
0.334734
0.302002
0.213159
0.107950
-0.017132
-0.159047
-0.298624
-0.415289
-0.490806
-0.518861
-0.520031
-0.537098
-0.582455
-0.661712
-0.803628
-1.024800
-1.340660
-1.729933
-2.100034
-2.333598
-2.376149
-2.275149
-2.070343
-1.768511
-1.413840
-1.024802
-0.609812
-0.212357
0.149094
0.471266
0.737795
0.923430
1.000115
0.919688
0.670694
0.336598
-0.011761
-0.327387
-0.571472
-0.765523
-0.891540
-0.900659
-0.825844
-0.703334
-0.548794
-0.395424
-0.231064
-0.010360
0.266222
0.570860
0.860067
1.075628
1.240688
1.396397
1.508620
1.573147
1.613828
1.611957
1.553274
1.456248
1.360157
1.302877
1.271548
1.224788
1.172417
1.151843
1.164468
1.182704
1.172650
1.109057
0.992860
0.840891
0.652217
0.424030
0.187661
-0.037252
-0.253749
-0.445462
-0.582935
-0.621512
-0.522616
-0.302146
-0.005691
0.318820
0.621119
0.873854
1.070711
1.193688
1.232966
1.210755
1.155345
1.077724
0.955682
0.779164
0.602180
0.470552
0.390827
0.360199
0.356458
0.371421
0.399476
0.401814
0.354587
0.258730
0.113074
-0.075133
-0.285551
-0.500645
-0.698905
-0.835209
-0.895529
-0.907920
-0.868409
-0.793827
-0.757823
-0.810194
-0.951875
-1.140316
-1.334134
-1.536836
-1.738370
-1.896417
-1.982688
-2.010978
-2.020096
-2.033189
-2.052361
-2.072701
-2.086963
-2.079716
-2.039269
-1.963285
-1.822072
-1.596925
-1.317771
-0.998404
-0.646072
-0.296078
0.039187
0.365568
0.659451
0.899327
1.093378
1.243944
1.376740
1.506030
1.557699
1.471428
1.237630
0.862853
0.408585
-0.062517
-0.533385
-1.000278
-1.444493
-1.814595
-2.073175
-2.223273
-2.292243
-2.322871
-2.342744
-2.382022
-2.468994
-2.574671
-2.631718
-2.616755
-2.543577
-2.401428
-2.175580
-1.871176
-1.510427
-1.152951
-0.836624
-0.531285
-0.209580
0.107215
0.381225
0.586499
0.718828
0.800189
0.850222
0.849286
0.778212
0.647051
0.456506
0.224579
0.000134
-0.181995
-0.297257
-0.340042
-0.330690
-0.282294
-0.203739
-0.134067
-0.116533
-0.161188
-0.286971
-0.534563
-0.902092
-1.343969
-1.830735
-2.346726
-2.874874
-3.406997
-3.920884
-4.369541
-4.720938
-4.958944
-5.075609
-5.077714
-4.962919
-4.756243
-4.539513
-4.370711
-4.247033
-4.106053
-3.917847
-3.735719
-3.581413
-3.468723
-3.416820
-3.383855
-3.347616
-3.312547
-3.276075
-3.244045
-3.188869
-3.090207
-2.945486
-2.740680
-2.489582
-2.226794
-1.978268
-1.742366
-1.510907
-1.325039
-1.221233
-1.167694
-1.140573
-1.173071
-1.286931
-1.453395
-1.629912
-1.786089
-1.918886
-2.004456
-1.993701
-1.884518
-1.708469
-1.516521
-1.348655
-1.187569
-1.035835
-0.910286
-0.796427
-0.718806
-0.719040
-0.774450
-0.814430
-0.812326
-0.834771
-0.947461
-1.143150
-1.398457
-1.700523
-2.031112
-2.368014
-2.700942
-3.041351
-3.386202
-3.693646
-3.912246
-4.008103
-3.992439
-3.889802
-3.695985
-3.417532
-3.085073
-2.754951
-2.501515
-2.376668
-2.447041
-2.755186
-3.231197
-3.764021
-4.274869
-4.735917
-5.167975
-5.570807
-5.881992
-6.017361
-5.969666
-5.832661
-5.706177
-5.644221
-5.652872
-5.720439
-5.857211
-6.066460
-6.330651
-6.638796
-6.956059
-7.191025
-7.270984
-7.214172
-7.083245
-6.918886
-6.710339
-6.431419
-6.089842
-5.702673
-5.295165
-4.900048
-4.510542
-4.100695
-3.666534
-3.255752
-2.948777
-2.757531
-2.613746
-2.471130
-2.338099
-2.249256
-2.231020
-2.252530
-2.268896
-2.295783
-2.372702
-2.515553
-2.714748
-2.943168
-3.185382
-3.407256
-3.571382
-3.679397
-3.698802
-3.609024
-3.461264
-3.280773
-3.076434
-2.845677
-2.563250
-2.248559
-1.933868
-1.625256
-1.310097
-0.949816
-0.545347
-0.169635
0.066500
0.090815
-0.067232
-0.334930
-0.664117
-1.036089
-1.434479
-1.822115
-2.168369
-2.444017
-2.591777
-2.597856
-2.521170
-2.381593
-2.139613
-1.805050
-1.454120
-1.151587
-0.891137
-0.633960
-0.381225
-0.139713
0.084498
0.273173
0.448053
0.635090
0.805996
0.895306
0.860236
0.738428
0.577108
0.366690
0.083327
-0.284670
-0.693815
-1.052227
-1.294674
-1.392636
-1.360372
-1.232251
-1.000792
-0.632795
-0.126157
0.458804
1.022489
1.491018
1.826985
2.017062
2.080187
2.029686
1.834699
1.502707
1.129099
0.801315
0.538526
0.287662
0.015755
-0.247501
-0.518472
-0.830358
-1.152998
-1.440569
-1.679042
-1.866548
-1.990227
-2.062237
-2.108996
-2.146638
-2.180305
-2.174694
-2.123960
-2.044235
-1.933649
-1.808334
-1.664549
-1.521699
-1.411815
-1.333493
-1.312685
-1.326012
-1.309646
-1.282292
-1.284163
-1.321570
-1.369265
-1.399659
-1.405738
-1.389840
-1.357342
-1.287203
-1.153472
-0.971577
-0.782669
-0.619012
-0.499775
-0.440157
-0.428935
-0.453016
-0.509128
-0.588619
-0.753213
-1.057149
-1.429121
-1.785662
-2.116719
-2.434216
-2.714071
-2.934776
-3.128594
-3.298565
-3.407281
-3.454041
-3.481629
-3.543585
-3.641079
-3.725013
-3.763589
-3.799127
-3.891477
-4.010012
-4.105869
-4.153564
-4.124106
-4.033860
-3.874411
-3.626118
-3.335976
-3.017778
-2.665212
-2.286227
-1.874978
-1.483835
-1.169846
-0.920618
-0.717916
-0.571559
-0.501186
-0.501888
-0.547946
-0.609435
-0.609669
-0.480847
-0.238165
0.080500
0.451069
0.871903
1.351655
1.840291
2.253411
2.551268
2.725915
2.763322
2.654606
2.413093
2.059592
1.631041
1.195243
0.821868
0.563288
0.446390
0.449896
0.515359
0.580355
0.595084
0.540609
0.411786
0.192251
-0.103035
-0.457706
-0.856798
-1.231342
-1.535512
-1.764867
-1.886676
-1.885741
-1.771648
-1.529902
-1.128706
-0.572736
0.088676
0.793808
1.458494
1.974016
2.260184
2.328453
2.265093
2.095824
1.795161
1.379703
0.895508
0.418562
-0.013496
-0.421940
-0.798120
-1.139698
-1.464676
-1.731673
-1.910528
-2.042857
-2.182668
-2.339313
-2.473045
-2.578254
-2.733963
-3.012416
-3.424601
-3.949242
-4.509420
-5.027749
-5.488096
-5.862406
-6.099009
-6.179435
-6.125194
-5.994034
-5.831312
-5.643573
-5.439468
-5.238402
-5.049962
-4.855443
-4.621646
-4.300409
-3.875365
-3.434424
-3.050295
-2.683701
-2.278063
-1.809300
-1.297284
-0.783164
-0.280500
0.185925
0.570755
0.846168
0.999071
1.031335
0.952779
0.762936
0.462038
0.073935
-0.346667
-0.723081
-1.031459
-1.294481
-1.487131
-1.573870
-1.559608
-1.451828
-1.284663
-1.106042
-0.932798
-0.773816
-0.622784
-0.435512
-0.185349
0.090064
0.351449
0.580336
0.733239
0.810626
0.873985
0.963295
1.088610
1.239176
1.385299
1.509912
1.633825
1.773635
1.900119
2.002289
2.100483
2.209666
2.356491
2.554283
2.808187
3.119371
3.433828
3.697551
3.886927
3.980445
3.986524
3.940933
3.897914
3.891602
3.894875
3.871495
3.805797
3.708070
3.628813
3.586261
3.539268
3.467726
3.400859
3.365790
3.337032
3.273439
3.165892
3.009949
2.802571
2.557318
2.295464
2.047873
1.825064
1.648781
1.561340
1.538194
1.536090
1.553858
1.590330
1.660235
1.750949
1.821789
1.876264
1.915775
1.966275
2.082472
2.254079
2.443689
2.653404
2.886968
3.089670
3.179214
3.120297
2.913854
2.603137
2.251973
1.877430
1.473428
1.065919
0.684362
0.330860
0.030664
-0.182793
-0.339671
-0.493276
-0.677976
-0.873898
-1.008800
-1.067015
-1.084550
-1.086421
-1.099046
-1.151885
-1.256626
-1.376798
-1.476396
-1.552380
-1.601945
-1.618779
-1.596802
-1.556823
-1.542795
-1.581606
-1.675826
-1.822184
-2.034706
-2.313158
-2.638838
-3.000523
-3.360804
-3.681808
-3.944830
-4.108255
-4.131869
-4.019178
-3.820451
-3.560235
-3.227775
-2.872170
-2.599329
-2.469338
-2.478923
-2.635100
-2.943713
-3.365717
-3.854354
-4.343458
-4.768501
-5.116859
-5.363048
-5.472465
-5.447449
-5.299456
-5.052099
-4.741850
-4.371749
-3.907895
-3.339768
-2.704307
-2.049208
-1.392471
-0.730825
-0.102612
0.427640
0.800079
0.959294
0.905287
0.664943
0.269124
-0.230734
-0.822008
-1.450923
-2.036585
-2.580164
-3.007312
-3.221704
-3.315223
-3.398689
-3.439837
-3.371101
-3.181258
-2.893921
-2.530834
-2.113507
-1.655966
-1.164290
-0.651339
-0.171120
0.223530
0.582409
0.977292
1.415194
1.893777
2.393401
2.898169
3.428421
3.975974
4.508798
4.982705
5.326854
5.506644
5.535401
5.416866
5.160390
4.783041
4.287157
3.690506
3.049434
2.449977
1.988228
1.713048
1.615321
1.679381
1.882550
2.180642
2.535078
2.910556
3.270136
3.594881
3.845745
3.957500
3.905597
3.712246
3.436131
3.146690
2.882265
2.651273
2.449974
2.301980
2.221787
2.202382
2.278366
2.456987
2.708318
3.015528
3.329517
3.614282
3.871225
4.097541
4.320583
4.544327
4.718272
4.812960
4.857147
4.928689
5.045587
5.121571
5.101464
4.989709
4.797995
4.571913
4.320815
4.022957
3.768351
3.663142
3.674131
3.684885
3.629241
3.583650
3.660102
3.889925
4.263065
4.714995
5.137934
5.481148
5.749781
5.963471
6.122921
6.173655
6.058626
5.792799
5.414281
4.970066
4.531462
4.141254
3.803183
3.504623
3.241835
3.037730
2.913817
2.839937
2.756939
2.643781
2.508880
2.376550
2.272744
2.169873
2.034738
1.879964
1.738049
1.637516
1.564103
1.507758
1.479702
1.457024
1.414238
