EVENT_NAME: 202302060117
EVENT_ID: 13194
EVENT_DATE_YYYYMMDD: 2023/02/06
EVENT_TIME_HHMMSS: 01:17:32.00000
EVENT_LATITUDE_DEGREE: 37.288
EVENT_LONGITUDE_DEGREE: 37.043
EVENT_DEPTH_KM: 8.6
HYPOCENTER_REFERENCE: AFAD
MAGNITUDE_W: 7.7
MAGNITUDE_W_REFERENCE: AFAD
MAGNITUDE_L: 
MAGNITUDE_L_REFERENCE: 
FOCAL_MECHANISM: 
NETWORK: TK
STATION_CODE: 2801
STATION_NAME: 
STATION_LATITUDE_DEGREE: 40.906613
STATION_LONGITUDE_DEGREE: 38.36115
STATION_ELEVATION_M: 15.0
LOCATION: Kahramanmaras_Pazarck_Turkiye
SENSOR_DEPTH_M: 
VS30_M/S: None
SITE_CLASSIFICATION_EC8: unknown
MORPHOLOGIC_CLASSIFICATION: 
EPICENTRAL_DISTANCE_KM: 418.13
EARTHQUAKE_BACKAZIMUTH_DEGREE: 
DATE_TIME_FIRST_SAMPLE_YYYYMMDD_HHMMSS: 2023/02/06 01:18:05.2003330
DATE_TIME_FIRST_SAMPLE_PRECISION: millisecond
SAMPLING_INTERVAL_S: 0.01
NDATA: 21001
DURATION_S: 
STREAM: HNN
UNITS: cm/s^2
INSTRUMENT: sensor = ACEBOX/SARA | digitizer = 
INSTRUMENT_ANALOG/DIGITAL: 
INSTRUMENTAL_FREQUENCY_HZ: 
INSTRUMENTAL_DAMPING: 
FULL_SCALE_G: 
N_BIT_DIGITAL_CONVERTER: 
PGA_CM/S^2: 3.185
TIME_PGA_S: 
BASELINE_CORRECTION: BASELINE REMOVED
FILTER_TYPE: BUTTERWORTH
FILTER_ORDER: 
LOW_CUT_FREQUENCY_HZ: 
HIGH_CUT_FREQUENCY_HZ: 
LATE/NORMAL_TRIGGERED: 
DATABASE_VERSION: 
HEADER_FORMAT: DYNA 1.2
DATA_TYPE: Acceleration
PROCESSING: Automatic Paolucci et al., 2011
DATA_TIMESTAMP_YYYYMMDD_HHMMSS: 
DATA_LICENSE: U (unknown license)
DATA_CITATION: Turkish Accelerometric Archive v 1.0 - Disaster And Emergency Management Presidency, Earthquake Department
DATA_CREATOR: AFAD
ORIGINAL_DATA_MEDIATOR_CITATION: : AFAD - Disaster And Emergency Management Presidency
ORIGINAL_DATA_MEDIATOR: AFAD PROCESS SERVICE
ORIGINAL_DATA_CREATOR_CITATION: AFAD PROCESS SERVICE
ORIGINAL_DATA_CREATOR: network: TK
USER1: GuestUser
USER2: 
USER3: 
USER4: 
USER5: 
[...]
-0.764826
-0.805039
-0.849227
-0.871438
-0.896454
-0.964489
-1.038135
-1.095415
-1.152462
-1.198754
-1.225640
-1.239434
-1.258840
-1.288298
-1.309573
-1.321731
-1.307703
-1.282921
-1.302092
-1.330615
-1.325939
-1.315886
-1.285025
-1.232186
-1.201091
-1.172568
-1.112015
-1.039304
-0.966125
-0.881724
-0.795219
-0.717599
-0.645355
-0.569137
-0.480996
-0.387477
-0.300972
-0.234573
-0.200439
-0.185943
-0.175423
-0.179163
-0.199737
-0.227325
-0.275254
-0.347263
-0.413896
-0.473280
-0.540848
-0.610519
-0.689075
-0.791011
-0.908377
-1.015690
-1.107806
-1.203429
-1.305598
-1.398182
-1.476036
-1.553423
-1.643669
-1.728304
-1.785350
-1.831174
-1.883077
-1.925161
-1.951112
-1.964205
-1.962335
-1.976129
-2.010263
-2.019147
-1.991793
-1.954619
-1.935214
-1.922355
-1.894533
-1.867413
-1.846371
-1.811301
-1.747942
-1.667048
-1.582881
-1.482582
-1.373633
-1.264683
-1.132354
-0.978749
-0.813688
-0.639509
-0.461823
-0.274318
-0.084007
0.103732
0.284925
0.439231
0.589095
0.769119
0.954988
1.126829
1.283707
1.408087
1.522180
1.653808
1.774448
1.881761
1.991645
2.072773
2.109947
2.117195
2.105972
2.085866
2.055940
2.013155
1.962421
1.903738
1.832897
1.756212
1.676019
1.599801
1.538780
1.467238
1.383071
1.324154
1.269680
1.177564
1.065341
0.960600
0.865912
0.771458
0.668587
0.566651
0.475938
0.390836
0.317424
0.254298
0.173638
0.078249
-0.011997
-0.115335
-0.236910
-0.359186
-0.496892
-0.656108
-0.815090
-0.977813
-1.150589
-1.311442
-1.443070
-1.549915
-1.652786
-1.748409
-1.811066
-1.840525
-1.858293
-1.881439
-1.888453
-1.842161
-1.777166
-1.722223
-1.645304
-1.536354
-1.426002
-1.331782
-1.231015
-1.114584
-1.001426
-0.880319
-0.765992
-0.692580
-0.626883
-0.537105
-0.447560
-0.361289
-0.250703
-0.125388
-0.013165
0.087835
0.178081
0.266457
0.366522
0.457235
0.529712
0.607801
0.687759
0.754859
0.817049
0.880175
0.923193
0.931142
0.925297
0.918517
0.892800
0.847677
0.806528
0.769822
0.727505
0.686591
0.655028
0.630479
0.604995
0.579979
0.570861
0.585590
0.602891
0.604995
0.615283
0.640065
0.649651
0.639130
0.615984
0.587461
0.560574
0.516854
0.461444
0.422868
0.373770
0.288434
0.208008
0.147922
0.078017
0.002266
-0.050338
-0.087512
-0.133336
-0.174952
-0.197163
-0.211658
-0.216100
-0.198799
-0.174017
-0.150637
-0.125153
-0.105748
-0.084238
-0.037479
0.030088
0.093681
0.145818
0.190006
0.227881
0.269263
0.326543
0.382655
0.426141
0.469160
0.501891
0.511477
0.514283
0.517790
0.509139
0.476641
0.420764
0.352729
0.276745
0.195383
0.104436
-0.000071
-0.091953
-0.164431
-0.242519
-0.324348
-0.388174
-0.442182
-0.500163
-0.535467
-0.554404
-0.582460
-0.594617
-0.601397
-0.617062
-0.613789
-0.603034
-0.592513
-0.581758
-0.577316
-0.557911
-0.523309
-0.494552
-0.468834
-0.424647
-0.355209
-0.300968
-0.259352
-0.192018
-0.120242
-0.068339
-0.035374
-0.010591
0.029388
0.075446
0.111451
0.146053
0.173641
0.194683
0.238403
0.295917
0.348054
0.409542
0.467524
0.503763
0.540937
0.592606
0.649418
0.710440
0.782449
0.863811
0.939795
1.004557
1.060668
1.112103
1.167747
1.236951
1.315507
1.375827
1.419547
1.472385
1.528496
1.589518
1.654513
1.697532
1.732134
1.778426
1.820276
1.848565
1.875686
1.908417
1.941850
1.974816
2.005443
2.041214
2.092416
2.131694
2.164659
2.230122
2.289507
2.310315
2.324810
2.342345
2.347021
2.340007
2.324810
2.294417
2.262153
2.231759
2.184298
2.145722
2.123043
2.093351
2.073478
2.051034
2.010821
1.982064
1.962425
1.942552
1.921978
1.898832
1.868906
1.811626
1.746864
1.689350
1.610794
1.527094
1.450175
1.364605
1.283945
1.209598
1.132445
1.049914
0.966916
0.885321
0.780580
0.675605
0.599387
0.517792
0.428247
0.342210
0.253367
0.172473
0.101867
0.049496
0.004841
-0.055713
-0.116734
-0.161623
-0.183600
-0.198797
-0.228489
-0.253505
-0.286003
-0.341413
-0.405707
-0.483795
-0.558844
-0.636465
-0.753364
-0.876107
-0.985290
-1.113411
-1.244104
-1.346507
-1.438623
-1.529570
-1.607191
-1.673589
-1.735312
-1.785345
-1.821116
-1.850340
-1.845898
-1.801944
-1.765706
-1.714738
-1.618647
-1.529804
-1.447741
-1.319620
-1.150585
-0.979913
-0.818593
-0.652363
-0.486834
-0.339542
-0.204407
-0.072779
0.053939
0.176215
0.293581
0.399257
0.498855
0.606636
0.717923
0.823833
0.916651
0.995207
1.062774
1.114210
1.162372
1.215210
1.246539
1.242097
1.227368
1.229939
1.215912
1.148578
1.075399
1.017652
0.952188
0.883686
0.801623
0.717222
0.659474
0.595881
0.509844
0.438068
0.388269
0.342679
0.298024
0.261785
0.235366
0.224845
0.227417
0.219468
0.205206
0.200297
0.184866
0.155408
0.122676
0.098127
0.106778
0.118468
0.091347
0.062356
0.040847
-0.004743
-0.053607
-0.094054
-0.146658
-0.208615
-0.275714
-0.346321
-0.404303
-0.448724
-0.502498
-0.565155
-0.603030
-0.629917
-0.670598
-0.686730
-0.668961
-0.654466
-0.644880
-0.631320
-0.612148
-0.577079
-0.523072
-0.450127
-0.357076
-0.257712
-0.172843
-0.090547
0.003440
0.083632
0.149096
0.216195
0.273476
0.310650
0.328184
0.331458
0.327483
0.311819
0.271138
0.221339
0.183464
0.135536
0.066332
-0.000534
-0.048930
-0.082597
-0.134033
-0.202535
-0.247658
-0.278285
-0.324110
-0.385598
-0.454101
-0.526111
-0.610278
-0.686262
-0.736528
-0.786561
-0.834021
-0.864883
-0.895744
-0.917019
-0.926371
-0.952557
-0.979443
-0.975469
-0.964480
-0.970091
-0.979209
-0.986223
-0.992302
-1.003758
-1.025969
-1.023163
-1.012175
-1.049582
-1.085353
-1.075768
-1.067351
-1.076469
-1.091899
-1.109668
-1.114578
-1.118552
-1.133282
-1.127904
-1.102186
-1.104291
-1.126969
-1.116682
-1.072494
-1.012174
-0.947880
-0.899718
-0.843139
-0.760375
-0.687664
-0.614251
-0.513485
-0.413887
-0.324577
-0.220537
-0.104573
0.017001
0.135537
0.227185
0.298727
0.362554
0.425445
0.503300
0.563152
0.576011
0.579050
0.585363
0.580687
0.581856
0.605235
0.613418
0.576946
0.527849
0.488103
0.445786
0.393649
0.345721
0.322341
0.309482
0.285167
0.253605
0.234901
0.255007
0.284700
0.269035
0.244487
0.279089
0.339174
0.341980
0.288908
0.243785
0.232797
0.219003
0.149097
0.045993
-0.005676
-0.000065
-0.012456
-0.056410
-0.080024
-0.083765
-0.091246
-0.094285
-0.107612
-0.161385
-0.248358
-0.334863
-0.393780
-0.402898
-0.360113
-0.300728
-0.238772
-0.173543
-0.144552
-0.155774
-0.157878
-0.148760
-0.162788
-0.208144
-0.255371
-0.283193
-0.308210
-0.355670
-0.408275
-0.430018
-0.435161
-0.460645
-0.495014
-0.516055
-0.538967
-0.571933
-0.593910
-0.599755
-0.609574
-0.637630
-0.679012
-0.718757
-0.744007
-0.752892
-0.745176
-0.707301
-0.646046
-0.607704
-0.600456
-0.580349
-0.522601
-0.432589
-0.336265
-0.235031
-0.116028
-0.009884
0.072880
0.159619
0.258983
0.369335
0.473141
0.573207
0.680052
0.757205
0.800224
0.825474
0.826175
0.826643
0.846750
0.879247
0.912447
0.936995
0.966220
0.985859
0.975338
0.963181
0.971831
1.005030
1.030514
1.023734
1.030047
1.087327
1.190666
1.302654
1.388926
1.476833
1.585082
1.684445
1.756923
1.816775
1.897435
2.007086
2.115568
2.193656
2.231531
2.255612
2.279927
2.274316
2.233402
2.174017
2.099903
2.014100
1.905618
1.773289
1.640492
1.531309
1.448311
1.354792
1.250518
1.171728
1.102291
1.028878
0.959441
0.900056
0.869195
0.849322
0.823371
0.793445
0.755569
0.734294
0.727280
0.715590
0.716292
0.723305
0.717227
0.693847
0.664856
0.656440
0.657609
0.632125
0.583729
0.543048
0.512187
0.462622
0.387339
0.304809
0.215030
0.103743
-0.029288
-0.162552
-0.270099
-0.357305
-0.457838
-0.567489
-0.646279
-0.690700
-0.725302
-0.753825
-0.775802
-0.803390
-0.833550
-0.843370
-0.820224
-0.787960
-0.777906
-0.763411
-0.696545
-0.603493
-0.526340
-0.473970
-0.449421
-0.414819
-0.340471
-0.248589
-0.170968
-0.129820
-0.099193
-0.045185
0.011160
0.065868
0.141852
0.223448
0.262959
0.252439
0.243321
0.262960
0.291483
0.322578
0.350400
0.345022
0.293587
0.227656
0.180663
0.154945
0.126188
0.062829
0.016537
0.059322
0.148867
0.232566
0.301536
0.336372
0.346192
0.355076
0.381963
0.429891
0.463792
0.467532
0.451634
0.428956
0.393653
0.332632
0.302939
0.352972
0.417032
0.403238
0.314395
0.244490
0.241217
0.244958
0.191418
0.086911
-0.004036
-0.068798
-0.167694
-0.326209
-0.507168
-0.655629
-0.767852
-0.895271
-1.051214
-1.205988
-1.333875
-1.425524
-1.521380
-1.651138
-1.779259
-1.879558
-1.950632
-2.005107
-2.057711
-2.063089
-1.999262
-1.961387
-2.005341
-2.036903
-1.959984
-1.811990
-1.730863
-1.780661
-1.849398
-1.843085
-1.790948
-1.744189
-1.725719
-1.682700
-1.594091
-1.564165
-1.615367
-1.651371
-1.624251
-1.580531
-1.589181
-1.635473
-1.663295
-1.678258
-1.713094
-1.774816
-1.844020
-1.891013
-1.892416
-1.851268
-1.789078
-1.714029
-1.642487
-1.579128
-1.504780
-1.434641
-1.365905
-1.276828
-1.201077
-1.139589
-1.062669
-0.978502
-0.869085
-0.731846
-0.604427
-0.486827
-0.399386
-0.352861
-0.286696
-0.185929
-0.079084
0.025657
0.120579
0.207785
0.286809
0.357415
0.412592
0.444154
0.501902
0.617164
0.716294
0.749494
0.776614
0.854235
0.933960
0.961548
0.977446
1.011113
1.036831
1.077511
1.163782
1.247482
1.289098
1.338429
1.440832
1.556094
1.610569
1.613842
1.648912
1.703854
1.707595
1.698711
1.710634
1.725130
1.742665
1.701984
1.610803
1.598879
1.655225
1.651016
1.572227
1.507465
1.510037
1.534118
1.525467
1.502789
1.480578
1.443404
1.392670
1.345911
1.324635
1.312478
1.279045
1.254263
1.263381
1.294008
1.347314
1.398282
1.431481
1.457900
1.463277
1.465849
1.490398
1.507699
1.505361
1.501153
1.514713
1.540431
1.538794
1.522896
1.524299
1.518688
1.499750
1.459069
1.368356
1.257536
1.151860
1.028649
0.897021
0.775446
0.666730
0.570640
0.462859
0.340116
0.224386
0.109124
0.005084
-0.065756
-0.119763
-0.181720
-0.283889
-0.405464
-0.480045
-0.520726
-0.556964
-0.592034
-0.634819
-0.662173
-0.671057
-0.690229
-0.731377
-0.779539
-0.801048
-0.801984
-0.783046
-0.739560
-0.721557
-0.726701
-0.714310
-0.692099
-0.677837
-0.675032
-0.667316
-0.664744
-0.676668
-0.659133
-0.612374
-0.571693
-0.532883
-0.499917
-0.469056
-0.411542
-0.329713
-0.260275
-0.233622
-0.233856
-0.213983
-0.174705
-0.152027
-0.149455
-0.165353
-0.210710
-0.282252
-0.348416
-0.384889
-0.412477
-0.462276
-0.535688
-0.626869
-0.729506
-0.820921
-0.884280
-0.947171
-1.023389
-1.075993
-1.100542
-1.113401
-1.120649
-1.136079
-1.147068
-1.133741
-1.093528
-1.033910
-0.983409
-0.937118
-0.875395
-0.819985
-0.778135
-0.730441
-0.666146
-0.610269
-0.591565
-0.572394
-0.533583
-0.518387
-0.517685
-0.516750
-0.542935
-0.594838
-0.651651
-0.701917
-0.757327
-0.834480
-0.910231
-0.981773
-1.052145
-1.093528
-1.129065
-1.171148
-1.196165
-1.220947
-1.244561
-1.285943
-1.348834
-1.355848
-1.317038
-1.287813
-1.252977
-1.217674
-1.181201
-1.114335
-1.018712
-0.927999
-0.869316
-0.823491
-0.765276
-0.686954
-0.599280
-0.549481
-0.553456
-0.585953
-0.617282
-0.639259
-0.678771
-0.725296
-0.742597
-0.742364
-0.734882
-0.701215
-0.619620
-0.509268
-0.423932
-0.376003
-0.361040
-0.369691
-0.372496
-0.361040
-0.322464
-0.262845
-0.197148
-0.098720
0.014438
0.106555
0.211763
0.352743
0.484371
0.566200
0.625351
0.686372
0.754407
0.837639
0.907310
0.953602
0.996153
1.042211
1.096920
1.146017
1.208909
1.314118
1.427743
1.523600
1.602156
1.672763
1.737758
1.775634
1.784050
1.746877
1.660138
1.579478
1.524535
1.496012
1.506065
1.523600
1.534121
1.553526
1.568489
1.577374
1.611040
1.668087
1.692636
1.631615
1.519860
1.442940
1.410676
1.383790
1.350590
1.308273
1.229951
1.092712
0.958513
0.909649
0.912221
0.896322
0.851200
0.795088
0.738509
0.704375
0.713259
0.717468
0.686139
0.634236
0.547263
0.451874
0.373318
0.282605
0.188618
0.097671
0.005321
-0.072767
-0.139165
-0.179145
-0.194575
-0.228008
-0.276404
-0.309603
-0.337192
-0.361740
-0.377872
-0.415514
-0.496875
-0.617514
-0.752415
-0.856455
-0.908826
-0.914904
-0.921451
-0.963300
-1.003747
-1.022919
-1.028062
-1.004449
-0.956053
-0.904383
-0.874691
-0.874457
-0.866274
-0.833777
-0.780003
-0.682042
-0.553921
-0.440529
-0.334619
-0.220526
-0.112746
-0.003095
0.113103
0.233508
0.359525
0.475722
0.585373
0.673515
0.707415
0.718638
0.742952
0.753240
0.720508
0.670242
0.625119
0.561760
0.504246
0.473384
0.408155
0.303648
0.224858
0.168513
0.088320
0.010933
-0.015953
-0.017824
-0.028812
-0.061310
-0.108771
-0.130514
-0.129345
-0.135891
-0.144775
-0.137995
-0.117187
-0.099886
-0.092405
-0.096145
-0.096145
-0.055699
0.007427
0.051614
0.068915
0.064473
0.057459
0.050913
0.033145
0.005089
-0.040735
-0.113680
-0.201120
-0.286456
-0.375533
-0.461337
-0.527735
-0.588288
-0.672222
-0.777197
-0.878197
-0.974989
-1.071313
-1.158987
-1.234738
-1.294590
-1.360287
-1.442583
-1.509449
-1.557612
-1.588239
-1.603202
-1.619568
-1.601799
-1.539609
-1.495188
-1.485134
-1.473678
-1.434634
-1.383433
-1.374548
-1.393252
-1.396291
-1.416632
-1.461521
-1.492850
-1.509215
-1.540544
-1.608345
-1.680355
-1.734362
-1.801462
-1.892409
-1.997384
-2.086461
-2.142104
-2.208503
-2.309036
-2.414946
-2.499113
-2.573227
-2.656458
-2.711167
-2.725428
-2.750211
-2.798139
-2.853082
-2.911063
-2.943094
-2.950575
-2.989853
-3.060694
-3.113999
-3.143458
-3.155615
-3.159824
-3.174553
-3.185074
-3.167539
-3.135976
-3.104647
-3.080800
-3.070981
-3.059758
-3.024455
-2.965070
-2.900542
-2.841625
-2.778500
-2.712803
-2.649912
-2.574161
-2.482980
-2.388994
-2.287526
-2.167588
-2.042974
-1.940804
-1.839570
-1.712384
-1.591277
-1.471339
-1.323813
-1.181664
-1.071312
-0.981066
-0.882638
-0.759660
-0.630604
-0.504588
-0.404990
-0.350983
-0.302820
-0.239228
-0.183350
-0.159503
-0.148748
-0.114146
-0.080713
-0.061542
-0.031849
-0.022965
-0.047280
-0.060606
-0.055930
-0.057333
-0.061074
-0.057801
-0.061074
-0.071361
-0.060606
-0.018523
0.015846
0.020755
0.029406
0.044603
0.045304
0.047174
0.065644
0.090193
0.109832
0.127133
0.127367
0.102585
0.104455
0.142330
0.152383
0.114508
0.052552
0.014209
0.006728
-0.038161
-0.106664
-0.138928
-0.182648
-0.274296
-0.357528
-0.402651
-0.455723
-0.555321
-0.665907
-0.754984
-0.846164
-0.927292
-0.943892
-0.868843
-0.732539
-0.605119
-0.503885
-0.432577
-0.419484
-0.397507
-0.289727
-0.119055
0.080608
0.268347
0.405353
0.490455
0.552411
0.607353
0.610860
0.564802
0.551476
0.568309
0.554749
0.522251
0.508925
0.490689
0.439955
0.389455
0.355554
0.331940
0.349943
0.368647
0.298975
0.217847
0.246371
0.308327
0.297572
0.292195
0.389689
0.536046
0.658322
0.775220
0.927422
1.138541
1.399459
1.628580
1.788965
1.978341
2.211203
2.321789
2.278537
2.256560
2.291863
2.275264
2.219386
2.200682
2.185486
2.068353
1.849051
1.643076
1.480119
1.340776
1.232528
1.102069
0.927890
0.757920
0.595664
0.414705
0.225563
0.083181
0.027771
0.040396
0.059801
0.076635
0.155892
0.289156
0.429201
0.586079
0.766804
1.016733
1.315059
1.496953
1.532724
1.570833
1.676509
1.746415
1.723269
1.726074
1.797149
1.803461
1.679783
1.529685
1.460247
1.406006
1.277418
1.151869
1.084769
1.000602
0.847231
0.668610
0.556855
0.504718
0.381974
0.180441
0.056295
0.074998
0.148878
0.215043
0.322824
0.521785
0.715603
0.806316
0.879495
1.007382
1.076119
1.028891
0.985405
0.988678
0.954310
0.865467
0.785742
0.749738
0.699705
0.586313
0.508927
0.548906
0.617642
0.625825
0.567142
0.453517
0.338255
0.286819
0.263440
0.199145
0.074765
-0.110168
-0.287621
-0.389556
-0.441927
-0.460864
-0.444265
-0.434445
-0.468112
-0.518846
-0.508091
-0.455721
-0.478399
-0.571450
-0.625925
-0.604416
-0.574256
-0.624756
-0.721080
-0.784206
-0.860424
-0.963996
-1.007014
-0.953007
-0.841252
-0.760124
-0.741888
-0.705650
-0.650941
-0.636212
-0.610027
-0.518846
-0.442394
-0.480035
-0.588751
-0.660760
-0.683439
-0.691855
-0.692089
-0.687179
-0.722015
-0.832835
-0.924951
-0.903909
-0.863930
-0.868840
-0.823016
-0.722249
-0.684140
-0.734640
-0.798701
-0.840550
-0.885907
-0.909988
-0.843122
-0.705883
-0.591790
-0.524223
-0.457824
-0.366409
-0.250913
-0.105725
0.054660
0.191665
0.291262
0.352284
0.381274
0.428034
0.530437
0.640322
0.691523
0.692926
0.680535
0.656220
0.626762
0.630970
0.682405
0.729165
0.760494
0.827594
0.900305
0.927425
0.949168
1.003409
1.080095
1.171042
1.295422
1.442247
1.545819
1.597722
1.627648
1.618764
1.597722
1.634662
1.718128
1.772369
1.782890
1.785228
1.773771
1.760679
1.778681
1.794112
1.794579
1.812816
1.816556
1.769797
1.713218
1.686098
1.670667
1.611049
1.499761
1.419569
1.410217
1.413256
1.408113
1.450664
1.543715
1.618998
1.654769
1.678616
1.689839
1.682123
1.682591
1.729584
1.818661
1.906569
1.960342
1.989333
2.018558
2.039833
2.024636
1.995879
2.012479
2.079111
2.142237
2.179177
2.176137
2.095711
1.981150
1.933456
1.956835
1.967123
1.929481
1.873604
1.810946
1.752730
1.710413
1.652431
1.596320
1.572239
1.525713
1.453236
1.418634
1.389877
1.294722
1.185538
1.163795
1.198865
1.195826
1.134805
1.038480
0.938181
0.880901
0.896565
0.930933
0.900540
0.823854
0.758157
0.687083
0.613203
0.586784
0.595434
0.577900
0.527867
0.486017
0.464040
0.434582
0.397642
0.394603
0.439959
0.487186
0.498409
0.496071
0.511969
0.554988
0.609463
0.634245
0.621386
0.605488
0.585615
0.550078
0.538388
0.583511
0.654586
0.697838
0.725894
0.788318
0.876459
0.971147
1.097631
1.247495
1.381461
1.503971
1.613622
1.670902
1.697789
1.747588
1.806739
1.847887
1.890906
1.960344
2.031885
2.061110
2.048485
2.026508
2.023469
2.053395
2.104363
2.152057
2.173099
2.139900
2.053395
1.970163
1.939536
1.944446
1.955668
1.951459
1.917559
1.876878
1.849758
1.829184
1.787100
1.709246
1.625312
1.536002
1.434768
1.355744
1.289112
1.210089
1.134572
1.073317
1.028662
0.973486
0.873187
0.771953
0.702749
0.608295
0.502151
0.449079
0.392266
0.288460
0.210605
0.179277
0.128075
0.021230
-0.100579
-0.190824
-0.265406
-0.346066
-0.416672
-0.466939
-0.523518
-0.592254
-0.635039
-0.665666
-0.730428
-0.841014
-0.995321
-1.166694
-1.300192
-1.373371
-1.443042
-1.563682
-1.691101
-1.782282
-1.857097
-1.915780
-1.925132
-1.870190
-1.808233
-1.794206
-1.796310
-1.790465
-1.787893
-1.776905
-1.735055
-1.656031
-1.567656
-1.495413
-1.436729
-1.396049
-1.375241
-1.367525
-1.364018
-1.345315
-1.312349
-1.262550
-1.178383
-1.086735
-1.020103
-0.990644
-0.987605
-0.972875
-0.967966
-1.005841
-1.049561
-1.092580
-1.152899
-1.247353
-1.376643
-1.475539
-1.528845
-1.568123
-1.585424
-1.587294
-1.555030
-1.479046
-1.392775
-1.285930
-1.157107
-1.023843
-0.927752
-0.902736
-0.853171
-0.738610
-0.642753
-0.577290
-0.539415
-0.515100
-0.475354
-0.439116
-0.379264
-0.285511
-0.211631
-0.176795
-0.161598
-0.109695
-0.027399
0.016321
0.015386
0.006736
0.013048
-0.002616
-0.053818
-0.095901
-0.146869
-0.200175
-0.230101
-0.259325
-0.271249
-0.254883
-0.200409
-0.109695
-0.014306
0.085058
0.160575
0.232117
0.324700
0.372862
0.407231
0.468719
0.528805
0.596139
