EVENT_NAME: 202302060117
EVENT_ID: 13194
EVENT_DATE_YYYYMMDD: 2023/02/06
EVENT_TIME_HHMMSS: 01:17:32.00000
EVENT_LATITUDE_DEGREE: 37.288
EVENT_LONGITUDE_DEGREE: 37.043
EVENT_DEPTH_KM: 8.6
HYPOCENTER_REFERENCE: AFAD
MAGNITUDE_W: 7.7
MAGNITUDE_W_REFERENCE: AFAD
MAGNITUDE_L: 
MAGNITUDE_L_REFERENCE: 
FOCAL_MECHANISM: 
NETWORK: TK
STATION_CODE: 0509
STATION_NAME: 
STATION_LATITUDE_DEGREE: 40.76096
STATION_LONGITUDE_DEGREE: 36.32186
STATION_ELEVATION_M: 214.0
LOCATION: Kahramanmaras_Pazarck_Turkiye
SENSOR_DEPTH_M: 
VS30_M/S: 373
SITE_CLASSIFICATION_EC8: B
MORPHOLOGIC_CLASSIFICATION: 
EPICENTRAL_DISTANCE_KM: 391.16
EARTHQUAKE_BACKAZIMUTH_DEGREE: 
DATE_TIME_FIRST_SAMPLE_YYYYMMDD_HHMMSS: 2023/02/06 01:18:01.8665920
DATE_TIME_FIRST_SAMPLE_PRECISION: millisecond
SAMPLING_INTERVAL_S: 0.01
NDATA: 21001
DURATION_S: 
STREAM: HNZ
UNITS: cm/s^2
INSTRUMENT: sensor = GMS+/GEOSIG | digitizer = 
INSTRUMENT_ANALOG/DIGITAL: 
INSTRUMENTAL_FREQUENCY_HZ: 
INSTRUMENTAL_DAMPING: 
FULL_SCALE_G: 
N_BIT_DIGITAL_CONVERTER: 
PGA_CM/S^2: 3.420
TIME_PGA_S: 
BASELINE_CORRECTION: BASELINE REMOVED
FILTER_TYPE: BUTTERWORTH
FILTER_ORDER: 
LOW_CUT_FREQUENCY_HZ: 
HIGH_CUT_FREQUENCY_HZ: 
LATE/NORMAL_TRIGGERED: 
DATABASE_VERSION: 
HEADER_FORMAT: DYNA 1.2
DATA_TYPE: Acceleration
PROCESSING: Automatic Paolucci et al., 2011
DATA_TIMESTAMP_YYYYMMDD_HHMMSS: 
DATA_LICENSE: U (unknown license)
DATA_CITATION: Turkish Accelerometric Archive v 1.0 - Disaster And Emergency Management Presidency, Earthquake Department
DATA_CREATOR: AFAD
ORIGINAL_DATA_MEDIATOR_CITATION: : AFAD - Disaster And Emergency Management Presidency
ORIGINAL_DATA_MEDIATOR: AFAD PROCESS SERVICE
ORIGINAL_DATA_CREATOR_CITATION: AFAD PROCESS SERVICE
ORIGINAL_DATA_CREATOR: network: TK
USER1: GuestUser
USER2: 
USER3: 
USER4: 
USER5: 
[...]
-0.931160
-0.894013
-0.853230
-0.819980
-0.797121
-0.772963
-0.754000
-0.735817
-0.715036
-0.697112
-0.675812
-0.655550
-0.642562
-0.625158
-0.598143
-0.570608
-0.545670
-0.512680
-0.469040
-0.426698
-0.396305
-0.366952
-0.332923
-0.313700
-0.301752
-0.276554
-0.247980
-0.227199
-0.211354
-0.198626
-0.193431
-0.190833
-0.177326
-0.153428
-0.124074
-0.084850
-0.030039
0.035942
0.111793
0.198296
0.294409
0.408447
0.540149
0.683541
0.832647
0.988767
1.148004
1.298669
1.450633
1.599220
1.731701
1.862104
1.984974
2.088102
2.172786
2.243182
2.299292
2.331503
2.344231
2.349686
2.339554
2.309940
2.268117
2.211747
2.146805
2.079525
2.000555
1.916389
1.833263
1.744422
1.642333
1.533230
1.423088
1.298919
1.168515
1.045384
0.919397
0.784836
0.656251
0.531822
0.402976
0.275430
0.149182
0.023194
-0.104092
-0.225404
-0.336585
-0.438155
-0.521541
-0.602069
-0.689871
-0.765984
-0.831446
-0.902882
-0.979774
-1.060302
-1.141610
-1.220320
-1.297472
-1.374363
-1.454113
-1.527887
-1.591790
-1.646602
-1.689464
-1.728170
-1.768954
-1.799087
-1.814414
-1.819610
-1.812337
-1.796751
-1.771294
-1.728433
-1.665310
-1.595692
-1.526854
-1.444248
-1.351252
-1.259035
-1.179546
-1.104214
-1.026024
-0.962641
-0.906012
-0.853799
-0.818211
-0.796131
-0.784702
-0.786521
-0.796912
-0.814576
-0.838216
-0.861855
-0.882897
-0.888872
-0.887054
-0.889652
-0.877963
-0.852246
-0.830686
-0.807307
-0.780032
-0.763147
-0.742626
-0.707298
-0.670931
-0.630927
-0.587546
-0.546243
-0.507798
-0.466755
-0.431427
-0.406230
-0.373760
-0.351939
-0.344666
-0.332717
-0.317651
-0.296870
-0.271933
-0.252970
-0.235566
-0.212967
-0.192965
-0.180237
-0.163093
-0.143870
-0.130363
-0.118933
-0.104646
-0.087502
-0.077112
-0.091399
-0.134781
-0.179981
-0.222064
-0.287266
-0.363638
-0.438971
-0.528851
-0.626265
-0.728094
-0.833560
-0.927597
-1.021114
-1.112033
-1.183469
-1.245295
-1.299327
-1.336214
-1.365828
-1.397260
-1.413626
-1.412068
-1.403236
-1.388950
-1.365571
-1.321930
-1.271536
-1.225817
-1.180877
-1.133860
-1.076971
-1.024498
-0.977221
-0.914877
-0.840064
-0.759796
-0.677450
-0.594325
-0.512758
-0.428074
-0.336377
-0.251433
-0.173763
-0.100249
-0.030891
0.037168
0.098213
0.161336
0.229395
0.300051
0.375124
0.454612
0.538517
0.608394
0.673595
0.744512
0.793347
0.829455
0.858808
0.876992
0.889980
0.889979
0.882705
0.872054
0.852052
0.823996
0.801916
0.784251
0.753598
0.723465
0.704241
0.686837
0.673588
0.661898
0.654624
0.659819
0.668131
0.683457
0.714889
0.747619
0.776453
0.810482
0.853084
0.887892
0.903478
0.924519
0.951015
0.961924
0.961404
0.963742
0.968158
0.968677
0.965559
0.958285
0.956466
0.960363
0.967895
0.984260
1.005561
1.018029
1.017509
1.024263
1.034134
1.035432
1.033094
1.021924
1.002960
0.981139
0.954902
0.913339
0.863983
0.810210
0.741112
0.663441
0.567846
0.467575
0.363407
0.246511
0.144942
0.045191
-0.055340
-0.141324
-0.219254
-0.285755
-0.354594
-0.415900
-0.454866
-0.488116
-0.507859
-0.511756
-0.501885
-0.481883
-0.451751
-0.400577
-0.344727
-0.282903
-0.216403
-0.155617
-0.086779
-0.020019
0.031155
0.079991
0.134541
0.181819
0.214030
0.249098
0.277152
0.278711
0.282347
0.288321
0.269877
0.248576
0.241042
0.234548
0.220780
0.204674
0.191944
0.192204
0.193762
0.183890
0.189605
0.201554
0.203372
0.217139
0.242596
0.264676
0.282859
0.307797
0.351177
0.412222
0.471189
0.529117
0.601592
0.676924
0.745243
0.804729
0.849669
0.884997
0.919026
0.940586
0.940846
0.943703
0.947339
0.950456
0.965782
0.980069
1.003188
1.041633
1.077740
1.117744
1.172814
1.228404
1.264252
1.294385
1.332310
1.361924
1.380107
1.378808
1.359325
1.354389
1.350492
1.315942
1.265027
1.216190
1.165016
1.116699
1.078512
1.037988
0.988632
0.928105
0.876151
0.845758
0.811468
0.768606
0.718211
0.674829
0.652229
0.623394
0.585468
0.554815
0.525201
0.493249
0.460518
0.417656
0.357649
0.282835
0.207762
0.130091
0.043328
-0.044214
-0.128639
-0.203452
-0.280344
-0.353599
-0.413866
-0.470236
-0.516475
-0.551024
-0.567130
-0.571027
-0.571028
-0.562975
-0.548169
-0.520114
-0.489462
-0.466863
-0.447381
-0.431795
-0.412573
-0.392311
-0.376206
-0.365816
-0.366335
-0.376727
-0.388157
-0.406081
-0.438553
-0.470504
-0.502196
-0.545838
-0.591557
-0.627666
-0.661696
-0.708194
-0.755473
-0.801971
-0.851588
-0.887955
-0.918868
-0.943547
-0.964328
-0.990565
-1.001476
-0.998879
-0.984592
-0.959914
-0.933678
-0.892116
-0.830811
-0.758596
-0.685342
-0.609750
-0.525325
-0.437265
-0.337254
-0.229191
-0.127363
-0.021897
0.080970
0.179162
0.282290
0.380482
0.466205
0.541277
0.617908
0.697657
0.768833
0.836372
0.900534
0.950409
0.995608
1.046523
1.094319
1.128089
1.146012
1.156403
1.163156
1.157181
1.133802
1.100551
1.056390
1.000020
0.939494
0.872473
0.789347
0.700766
0.618159
0.533994
0.456843
0.388783
0.323321
0.268510
0.224089
0.191098
0.178109
0.177589
0.180186
0.189797
0.208760
0.226943
0.242269
0.258894
0.268505
0.269544
0.270842
0.269023
0.262529
0.250579
0.228239
0.196027
0.158880
0.125110
0.098873
0.072895
0.038606
0.003277
-0.019843
-0.045820
-0.088942
-0.134662
-0.179862
-0.224022
-0.261429
-0.300135
-0.339880
-0.377807
-0.412876
-0.442749
-0.470805
-0.492886
-0.507693
-0.518863
-0.525098
-0.524579
-0.520163
-0.512111
-0.498863
-0.491590
-0.484577
-0.469510
-0.461458
-0.453146
-0.432625
-0.405869
-0.379633
-0.353137
-0.325602
-0.304041
-0.278844
-0.251309
-0.228190
-0.208189
-0.191304
-0.163509
-0.130000
-0.099867
-0.065838
-0.035186
-0.012067
0.011052
0.030534
0.040665
0.045600
0.052873
0.057289
0.052872
0.047936
0.044299
0.028713
-0.004798
-0.038308
-0.073117
-0.123513
-0.180922
-0.237812
-0.291584
-0.345616
-0.392894
-0.438094
-0.484333
-0.518883
-0.555251
-0.592918
-0.614998
-0.624350
-0.632663
-0.635002
-0.625910
-0.614481
-0.599934
-0.578114
-0.549800
-0.518368
-0.474468
-0.415501
-0.354716
-0.291852
-0.227690
-0.154955
-0.079363
-0.010265
0.062210
0.136503
0.207419
0.273400
0.336783
0.396789
0.452638
0.508748
0.554726
0.590054
0.624863
0.660710
0.685648
0.691882
0.691622
0.684348
0.667982
0.647460
0.619404
0.584335
0.546669
0.507963
0.468218
0.423537
0.377298
0.335735
0.294951
0.255986
0.225592
0.198316
0.171300
0.148440
0.133113
0.125839
0.118565
0.110253
0.097783
0.089470
0.089730
0.082196
0.069986
0.060115
0.058816
0.061932
0.059334
0.056217
0.053619
0.050501
0.043227
0.038551
0.042187
0.038550
0.032575
0.032575
0.034912
0.038808
0.037769
0.040106
0.045042
0.050756
0.064783
0.074134
0.080628
0.085304
0.086602
0.084783
0.075951
0.061403
0.037764
0.007890
-0.028997
-0.064326
-0.100694
-0.148492
-0.197588
-0.244607
-0.290326
-0.336825
-0.382025
-0.424627
-0.460736
-0.489570
-0.511651
-0.529835
-0.543603
-0.542305
-0.529836
-0.507237
-0.478403
-0.446192
-0.412942
-0.380991
-0.341507
-0.300724
-0.261239
-0.215521
-0.170062
-0.121226
-0.059661
-0.001214
0.051779
0.111005
0.173349
0.238550
0.306609
0.380383
0.455975
0.525073
0.587936
0.644565
0.696778
0.737821
0.769512
0.804841
0.838090
0.867704
0.894459
0.915240
0.933164
0.946152
0.951607
0.951346
0.937838
0.918875
0.897833
0.865881
0.830293
0.786651
0.731580
0.675210
0.617801
0.550520
0.474928
0.398036
0.317767
0.232043
0.144501
0.059037
-0.022271
-0.095526
-0.163845
-0.221254
-0.266974
-0.314512
-0.362309
-0.404912
-0.443617
-0.480505
-0.512716
-0.541551
-0.571685
-0.602078
-0.637666
-0.681827
-0.736119
-0.793009
-0.847820
-0.908866
-0.972510
-1.033296
-1.092264
-1.146036
-1.188119
-1.223967
-1.254620
-1.275402
-1.289949
-1.296444
-1.294886
-1.288652
-1.279041
-1.265533
-1.245791
-1.220594
-1.188383
-1.155913
-1.124221
-1.088893
-1.054864
-1.018757
-0.984987
-0.952777
-0.919267
-0.891212
-0.862119
-0.836662
-0.819258
-0.806270
-0.792243
-0.777696
-0.766786
-0.744447
-0.710677
-0.671453
-0.622097
-0.562351
-0.494552
-0.417401
-0.332717
-0.246475
-0.161531
-0.074769
0.015110
0.101872
0.182660
0.262408
0.339559
0.411254
0.481391
0.551788
0.618028
0.672060
0.718558
0.760120
0.784798
0.793889
0.797266
0.788433
0.769730
0.741674
0.698293
0.645559
0.586072
0.521130
0.449953
0.376178
0.306560
0.232526
0.151738
0.071469
-0.006722
-0.088809
-0.178689
-0.274024
-0.373775
-0.475864
-0.577174
-0.688355
-0.808628
-0.927083
-1.043459
-1.159316
-1.280888
-1.400901
-1.512602
-1.620406
-1.725872
-1.829520
-1.927193
-2.013956
-2.095783
-2.173974
-2.239955
-2.293987
-2.343344
-2.388024
-2.432964
-2.475827
-2.512454
-2.547264
-2.585450
-2.629871
-2.680785
-2.735857
-2.787031
-2.837427
-2.884965
-2.926788
-2.956142
-2.966013
-2.967832
-2.962118
-2.946792
-2.918997
-2.881591
-2.837431
-2.784179
-2.727030
-2.665466
-2.605460
-2.542077
-2.471680
-2.398686
-2.321275
-2.239449
-2.145153
-2.048780
-1.951887
-1.845382
-1.740436
-1.631334
-1.516777
-1.395206
-1.275194
-1.159857
-1.034130
-0.908403
-0.785533
-0.661364
-0.534078
-0.408871
-0.293794
-0.179756
-0.069875
0.036890
0.137160
0.224441
0.303670
0.372768
0.437190
0.497716
0.550708
0.602141
0.655913
0.713581
0.773847
0.837490
0.905808
0.970230
1.031795
1.096996
1.159600
1.219866
1.280131
1.338059
1.388454
1.435991
1.483268
1.521973
1.559120
1.592369
1.618865
1.637568
1.647699
1.657050
1.663024
1.664842
1.664063
1.662763
1.663023
1.659386
1.656008
1.657826
1.664060
1.672632
1.675489
1.679645
1.687957
1.687178
1.682761
1.673669
1.661719
1.649769
1.632364
1.616258
1.598854
1.579371
1.563005
1.550276
1.537547
1.522220
1.506893
1.482215
1.454939
1.428962
1.394932
1.354667
1.312844
1.274138
1.236472
1.205299
1.185816
1.169450
1.155682
1.148408
1.148148
1.153343
1.161136
1.169968
1.179838
1.192047
1.209451
1.231791
1.254650
1.273872
1.286600
1.292315
1.290236
1.277248
1.250491
1.213084
1.168144
1.112813
1.048910
0.978512
0.904218
0.830184
0.751993
0.673283
0.602106
0.534047
0.472741
0.418189
0.363118
0.316360
0.274796
0.236091
0.202840
0.170888
0.143092
0.123350
0.119193
0.121790
0.122050
0.129842
0.142051
0.155299
0.173482
0.196081
0.217642
0.237384
0.256087
0.270893
0.285959
0.298947
0.307259
0.312195
0.316610
0.325702
0.332715
0.336092
0.338949
0.342845
0.355053
0.372717
0.393498
0.422852
0.453504
0.484935
0.525978
0.570658
0.612480
0.644431
0.669109
0.695605
0.714308
0.721061
0.716645
0.705215
0.689888
0.666249
0.638193
0.610657
0.588317
0.567795
0.549611
0.541038
0.534543
0.527269
0.520775
0.511163
0.498954
0.486744
0.477392
0.463104
0.446479
0.433750
0.417644
0.399460
0.376600
0.350882
0.328542
0.306461
0.282302
0.252688
0.224633
0.202293
0.178134
0.149819
0.120984
0.099163
0.076043
0.046949
0.014737
-0.021890
-0.068389
-0.130734
-0.198274
-0.268412
-0.345563
-0.432066
-0.522726
-0.611567
-0.705863
-0.797561
-0.884584
-0.967450
-1.041225
-1.110583
-1.164096
-1.206179
-1.243066
-1.265147
-1.275278
-1.271642
-1.258394
-1.236314
-1.202545
-1.164879
-1.122797
-1.079676
-1.034996
-0.984082
-0.930311
-0.870305
-0.808740
-0.753929
-0.697560
-0.641710
-0.593134
-0.549234
-0.507412
-0.460913
-0.414675
-0.370255
-0.322718
-0.273103
-0.221409
-0.179327
-0.141662
-0.103476
-0.074382
-0.049445
-0.028924
-0.014118
-0.003208
0.001987
0.008221
0.018352
0.023287
0.033158
0.052380
0.076279
0.101476
0.120698
0.149012
0.181483
0.207979
0.239930
0.271621
0.299676
0.325133
0.350330
0.372410
0.384099
0.398645
0.415530
0.428518
0.440726
0.450078
0.452675
0.439426
0.416307
0.395005
0.369548
0.339934
0.309021
0.275770
0.244857
0.213165
0.182772
0.152119
0.125882
0.110555
0.096528
0.090552
0.097046
0.111073
0.125100
0.136010
0.157571
0.187184
0.217836
0.249008
0.288232
0.333431
0.377072
0.428765
0.486174
0.544102
0.599432
0.650865
0.697883
0.738406
0.770877
0.795555
0.812439
0.822570
0.835038
0.850104
0.866469
0.883354
0.897900
0.913746
0.927773
0.944138
0.961802
0.969594
0.967775
0.960502
0.949851
0.929588
0.895039
0.851397
0.802041
0.746710
0.681248
0.611630
0.538635
0.457587
0.373941
0.291335
0.212365
0.135733
0.065595
0.004030
-0.052340
-0.101437
-0.141442
-0.176251
-0.205865
-0.224049
-0.237298
-0.256521
-0.279641
-0.302241
-0.326140
-0.354455
-0.387446
-0.421995
-0.456545
-0.493692
-0.528761
-0.553440
-0.572923
-0.590068
-0.597082
-0.598641
-0.594745
-0.579679
-0.560196
-0.530843
-0.489021
-0.445900
-0.399142
-0.338097
-0.267440
-0.192108
-0.111840
-0.021701
0.080128
0.182216
0.289500
0.400160
0.507704
0.613169
0.711881
0.810332
0.896575
0.969309
1.037109
1.092698
1.137378
1.165692
1.183876
1.192967
1.186992
1.180238
1.172964
1.160754
1.147246
1.132179
1.117892
1.104123
1.093473
1.087757
1.082821
1.082042
1.084379
1.087756
1.094249
1.098146
1.097366
1.092690
1.084117
1.066972
1.041774
1.015017
0.983325
0.941762
0.895783
0.843829
0.784601
0.725893
0.661990
0.588215
0.508986
0.418846
0.320913
0.214927
0.093356
-0.034191
-0.169530
-0.319417
-0.473979
-0.632438
-0.794534
-0.956889
-1.121322
-1.284197
-1.439019
-1.593322
-1.742689
-1.881665
-2.023239
-2.154942
-2.273656
-2.390552
-2.498097
-2.601744
-2.700457
-2.792155
-2.877359
-2.957628
-3.032182
-3.095046
-3.159729
-3.217398
-3.264935
-3.314552
-3.354296
-3.383651
-3.403913
-3.416902
-3.420019
-3.413526
-3.395862
-3.366508
-3.334557
-3.289878
-3.234028
-3.169606
-3.095832
-3.011148
-2.917372
-2.820479
-2.705403
-2.581753
-2.458364
-2.321986
-2.178075
-2.031567
-1.875446
-1.713092
-1.545802
-1.370978
-1.197194
-1.021851
-0.841573
-0.661814
-0.486990
-0.312946
-0.140201
0.021634
0.176456
0.321146
0.452848
0.580134
0.699107
0.802494
0.894192
0.977837
1.047194
1.103044
1.153698
1.198898
1.229030
1.242538
1.247473
1.247213
1.238640
1.216819
1.183309
1.144343
1.099922
1.047449
0.989780
0.928215
0.862753
0.794433
0.726633
0.658054
0.586358
0.518818
0.451538
0.386595
0.331784
0.284246
0.246579
0.218524
0.205795
0.209431
0.220601
0.241122
0.269177
0.302167
0.339053
0.381135
0.421659
0.457766
0.494393
0.525565
0.554918
0.583492
0.610767
0.632847
0.648952
0.667136
0.687917
0.707399
0.723764
0.739350
0.757273
0.778054
0.798316
0.821435
0.849229
0.871829
0.889752
0.906637
0.917547
0.919625
0.915728
0.902999
0.879879
0.855720
0.834938
0.813117
0.788699
0.771813
0.760643
0.749213
0.743238
0.742458
0.743756
0.747912
0.756224
0.768953
0.784798
0.808956
0.835712
0.861948
0.890782
0.919616
0.949229
0.974166
0.996246
1.021443
1.043523
1.063525
1.084046
1.103009
1.118335
1.131323
1.141453
1.151324
1.158337
1.158597
1.153401
1.141971
1.123527
1.099368
1.075469
1.044816
1.007409
0.975457
0.946882
0.922204
0.899084
0.875185
0.857261
0.846350
0.838037
0.829204
0.821151
0.813358
0.806344
0.797771
0.789977
0.780885
0.763221
0.745036
0.722956
0.700355
0.676716
0.647362
0.619307
0.589693
0.562936
0.534361
0.499032
0.465522
0.430193
0.393046
0.357198
0.325506
0.295372
0.271213
0.255367
0.236663
0.220557
0.209127
0.200295
0.193280
0.190423
0.195618
0.200033
0.206787
0.216138
0.221333
0.222891
0.216137
0.207304
0.200290
0.191458
0.177170
0.158726
0.139763
0.110928
0.076378
0.039231
-0.003891
-0.046233
-0.095070
-0.149102
-0.201835
-0.256647
-0.314316
-0.371205
-0.421860
-0.474074
-0.523950
-0.558240
-0.589672
-0.623962
-0.653316
-0.678514
-0.700854
-0.720857
-0.735924
-0.745016
-0.749433
-0.748394
-0.742420
-0.733069
-0.717223
-0.698001
-0.677999
-0.656179
-0.633320
-0.609681
-0.586043
-0.560066
-0.536428
-0.515647
-0.491489
-0.475124
-0.469409
-0.468890
-0.467332
-0.467592
-0.481620
-0.497206
-0.506559
-0.523444
-0.550200
-0.576957
-0.601635
-0.631249
-0.664500
-0.699309
-0.730222
-0.756978
-0.787891
-0.820103
-0.845820
-0.873356
-0.907646
-0.935182
-0.961678
-0.988175
-1.007139
-1.029999
-1.049741
-1.061431
-1.073381
-1.081954
-1.081694
-1.072863
-1.063511
-1.054420
-1.042211
-1.025587
-1.004286
-0.982466
-0.951554
-0.916745
-0.888171
-0.855701
-0.812580
-0.772316
-0.740365
-0.704777
-0.666072
-0.631523
-0.608924
-0.588663
-0.562686
-0.556712
-0.561908
-0.556713
-0.561389
-0.577495
-0.590224
-0.600096
-0.612565
-0.630229
-0.640101
-0.645557
-0.655948
-0.666858
-0.672574
-0.671015
-0.672315
-0.669977
-0.654651
-0.634390
-0.614648
-0.590490
-0.551265
-0.501910
-0.455412
-0.403458
-0.336439
-0.266042
-0.197464
-0.118754
-0.033811
0.051133
0.135557
0.223099
0.313757
0.394285
0.469877
0.548067
0.627036
0.709122
0.791728
0.879269
0.969928
1.057209
1.142153
1.226837
1.307365
1.382177
1.452574
1.516996
1.577781
1.627916
1.671817
1.717535
1.756500
1.785334
1.807154
1.824039
1.838585
1.853651
1.865860
1.865340
1.859625
1.852870
1.834686
1.805592
1.775199
1.743507
1.706359
1.661679
1.618557
1.583228
1.546600
1.508674
1.472046
1.437756
1.402687
1.363722
1.321899
1.271503
1.219290
1.165517
1.105770
1.035632
0.949649
0.867562
0.786774
0.699491
0.609611
0.514536
0.423876
0.334256
0.246194
0.160470
0.071889
-0.009419
-0.089947
-0.168657
-0.239315
-0.307634
-0.370498
-0.426089
-0.470510
-0.507397
-0.542206
-0.568703
-0.586627
-0.599876
-0.607929
-0.605851
-0.596760
-0.585850
-0.566368
-0.541690
-0.512337
-0.480126
-0.446097
-0.406613
-0.368947
-0.327904
-0.286601
-0.244779
-0.194384
-0.148406
-0.102168
-0.057488
-0.016964
0.029274
0.073434
0.113438
0.146688
0.174742
0.205394
0.229033
0.252412
0.283583
0.310079
0.334757
0.363850
0.400737
0.437364
0.463600
0.488278
0.515813
0.543348
0.565428
0.586728
0.608288
0.624394
0.638421
0.644915
0.649330
0.651927
0.642056
0.627508
0.608025
0.579451
0.539965
0.491908
0.442811
0.381246
0.306173
0.222787
0.134725
0.045365
-0.054647
-0.156995
-0.257526
-0.366109
-0.478070
-0.582237
-0.680949
-0.784078
-0.884868
-0.975008
-1.062550
-1.144897
-1.217113
-1.285432
-1.350115
-1.413239
-1.472466
-1.523641
-1.569620
-1.615859
-1.664436
-1.706519
-1.740809
-1.770163
-1.796140
-1.819780
-1.837704
-1.851732
-1.857967
-1.858487
-1.858747
-1.857189
-1.851474
-1.839525
-1.822641
-1.803418
-1.776922
-1.743932
-1.705227
-1.657950
-1.601840
-1.537159
-1.465463
-1.381299
-1.283107
-1.178161
-1.063344
-0.943851
-0.828514
-0.704346
-0.568747
-0.433668
-0.303006
-0.173122
-0.042199
0.084827
0.205099
0.320176
0.434473
0.536302
0.625921
0.720217
0.806459
0.883350
0.959202
1.026481
1.090903
1.148831
1.202343
1.251958
1.289624
1.321316
1.344694
1.369632
1.397426
1.414571
1.424441
1.429377
1.437169
1.445741
1.449378
1.451196
1.449896
1.451195
1.450935
1.450934
1.450414
1.438205
1.422878
1.398719
1.371443
1.342868
1.303123
1.265457
1.226751
1.189863
1.161548
1.139727
1.118945
1.096865
1.082837
1.075044
1.078420
1.089590
1.096084
1.103097
1.117643
1.138684
1.151672
1.161803
1.171674
1.168816
1.164659
1.162321
1.158943
1.145695
1.116081
1.085688
1.050359
1.003340
0.947230
0.889301
0.825138
0.741493
0.657327
0.582254
0.508220
0.434705
0.356255
0.286377
0.229487
0.170000
0.109474
0.054402
