EVENT_NAME: 202302060117
EVENT_ID: 13194
EVENT_DATE_YYYYMMDD: 2023/02/06
EVENT_TIME_HHMMSS: 01:17:32.00000
EVENT_LATITUDE_DEGREE: 37.288
EVENT_LONGITUDE_DEGREE: 37.043
EVENT_DEPTH_KM: 8.6
HYPOCENTER_REFERENCE: AFAD
MAGNITUDE_W: 7.7
MAGNITUDE_W_REFERENCE: AFAD
MAGNITUDE_L: 
MAGNITUDE_L_REFERENCE: 
FOCAL_MECHANISM: 
NETWORK: TK
STATION_CODE: 5816
STATION_NAME: 
STATION_LATITUDE_DEGREE: 39.86868
STATION_LONGITUDE_DEGREE: 38.11835
STATION_ELEVATION_M: 1269.0
LOCATION: Kahramanmaras_Pazarck_Turkiye
SENSOR_DEPTH_M: 
VS30_M/S: None
SITE_CLASSIFICATION_EC8: unknown
MORPHOLOGIC_CLASSIFICATION: 
EPICENTRAL_DISTANCE_KM: 301.79
EARTHQUAKE_BACKAZIMUTH_DEGREE: 
DATE_TIME_FIRST_SAMPLE_YYYYMMDD_HHMMSS: 2023/02/06 01:18:01.5143650
DATE_TIME_FIRST_SAMPLE_PRECISION: millisecond
SAMPLING_INTERVAL_S: 0.01
NDATA: 18251
DURATION_S: 
STREAM: HNE
UNITS: cm/s^2
INSTRUMENT: sensor = ACEBOX/SARA | digitizer = 
INSTRUMENT_ANALOG/DIGITAL: 
INSTRUMENTAL_FREQUENCY_HZ: 
INSTRUMENTAL_DAMPING: 
FULL_SCALE_G: 
N_BIT_DIGITAL_CONVERTER: 
PGA_CM/S^2: 14.878
TIME_PGA_S: 
BASELINE_CORRECTION: BASELINE REMOVED
FILTER_TYPE: BUTTERWORTH
FILTER_ORDER: 
LOW_CUT_FREQUENCY_HZ: 
HIGH_CUT_FREQUENCY_HZ: 
LATE/NORMAL_TRIGGERED: 
DATABASE_VERSION: 
HEADER_FORMAT: DYNA 1.2
DATA_TYPE: Acceleration
PROCESSING: Automatic Paolucci et al., 2011
DATA_TIMESTAMP_YYYYMMDD_HHMMSS: 
DATA_LICENSE: U (unknown license)
DATA_CITATION: Turkish Accelerometric Archive v 1.0 - Disaster And Emergency Management Presidency, Earthquake Department
DATA_CREATOR: AFAD
ORIGINAL_DATA_MEDIATOR_CITATION: : AFAD - Disaster And Emergency Management Presidency
ORIGINAL_DATA_MEDIATOR: AFAD PROCESS SERVICE
ORIGINAL_DATA_CREATOR_CITATION: AFAD PROCESS SERVICE
ORIGINAL_DATA_CREATOR: network: TK
USER1: GuestUser
USER2: 
USER3: 
USER4: 
USER5: 
[...]
2.900000
2.878257
2.899299
2.909586
2.868906
2.757385
2.502780
2.030744
1.324910
0.394164
-0.734843
-2.023299
-3.396156
-4.728800
-5.952027
-7.074020
-8.088466
-8.974323
-9.697458
-10.229580
-10.592433
-10.785081
-10.784380
-10.637788
-10.398613
-10.061945
-9.642512
-9.151304
-8.584345
-7.984655
-7.365793
-6.636813
-5.739031
-4.728325
-3.668288
-2.603575
-1.602688
-0.670304
0.210177
0.970018
1.604778
2.143214
2.528278
2.763011
2.884118
2.914045
2.936022
2.982782
3.043102
3.152519
3.337921
3.621751
3.994892
4.422040
4.890336
5.342501
5.715408
5.973988
6.043660
5.883509
5.570922
5.221630
4.892210
4.595755
4.322447
4.030200
3.706392
3.380712
3.093843
2.897922
2.814924
2.828251
2.903066
2.971102
2.952866
2.803470
2.534837
2.219913
1.977232
1.887454
1.939591
2.073791
2.243294
2.434307
2.634906
2.841583
3.087772
3.404334
3.797815
4.238757
4.691155
5.146592
5.570935
5.918825
6.150986
6.240297
6.226504
6.160106
6.080381
6.014918
5.912048
5.715191
5.401435
4.974522
4.527034
4.096380
3.612420
3.065803
2.458398
1.764254
1.022650
0.303957
-0.320515
-0.782966
-1.061652
-1.184629
-1.212216
-1.178783
-1.088069
-0.952466
-0.810083
-0.745321
-0.835800
-1.110746
-1.590965
-2.269444
-3.072303
-3.907193
-4.706078
-5.410743
-5.970687
-6.334241
-6.454646
-6.337747
-5.997338
-5.434821
-4.719635
-3.941791
-3.110408
-2.238577
-1.433145
-0.788332
-0.292448
0.114594
0.477214
0.755666
0.893373
0.949953
1.000220
1.097246
1.323094
1.691793
2.147464
2.583263
2.870366
2.992409
2.973939
2.796254
2.479926
2.065638
1.572560
1.030618
0.494288
0.030668
-0.307636
-0.504727
-0.591232
-0.588659
-0.489763
-0.295477
-0.027545
0.214903
0.336011
0.345597
0.234777
-0.017957
-0.363509
-0.762601
-1.187410
-1.635365
-2.119559
-2.584348
-2.967073
-3.245058
-3.443551
-3.612353
-3.741642
-3.800325
-3.757306
-3.566527
-3.256745
-2.890852
-2.466743
-1.978107
-1.461181
-0.965062
-0.511495
-0.083646
0.328773
0.712668
1.076457
1.451468
1.865758
2.292204
2.634484
2.870853
3.072387
3.283740
3.526889
3.747594
3.888107
3.997057
4.089875
4.178718
4.285798
4.359444
4.420232
4.523103
4.659875
4.802024
4.887594
4.887828
4.804363
4.640472
4.448992
4.253304
4.052473
3.864032
3.691490
3.555187
3.443432
3.336353
3.273462
3.248680
3.203792
3.068891
2.779684
2.348796
1.829533
1.275901
0.744247
0.252338
-0.185097
-0.534857
-0.786423
-0.927869
-0.920621
-0.755093
-0.506098
-0.273469
-0.112617
0.001009
0.157888
0.426521
0.803870
1.241305
1.674298
2.062168
2.413566
2.790448
3.277448
3.929509
4.724653
5.544581
6.280809
6.899437
7.394854
7.834627
8.277205
8.630239
8.816576
8.883910
8.846503
8.656192
8.274636
7.733162
7.120613
6.475099
5.802231
5.106451
4.406228
3.767027
3.219942
2.784144
2.475532
2.254127
2.090703
1.989703
1.994847
2.131618
2.398615
2.849610
3.394125
3.858680
4.228548
4.464684
4.568256
4.645643
4.660139
4.558672
4.375141
4.097858
3.745993
3.342927
2.824599
2.190775
1.520011
0.868419
0.280185
-0.224817
-0.611283
-0.856770
-1.024636
-1.136858
-1.170758
-1.154626
-1.106230
-1.055729
-1.047078
-1.103657
-1.228037
-1.378134
-1.543662
-1.750105
-2.001203
-2.332025
-2.730182
-3.104958
-3.396737
-3.569513
-3.596867
-3.464069
-3.164808
-2.749818
-2.263519
-1.716667
-1.189454
-0.743836
-0.360642
-0.047587
0.165637
0.229464
0.108825
-0.181551
-0.614543
-1.104816
-1.589243
-2.094011
-2.597143
-3.068010
-3.517368
-3.955270
-4.430813
-4.946336
-5.416735
-5.787070
-6.061080
-6.282485
-6.484018
-6.657963
-6.781174
-6.788889
-6.604890
-6.198082
-5.586001
-4.870815
-4.167084
-3.512218
-2.938713
-2.451479
-2.002354
-1.617757
-1.330654
-1.120002
-1.006376
-0.967098
-0.947692
-0.939743
-0.886437
-0.794788
-0.752704
-0.769537
-0.822608
-0.881057
-0.935064
-1.046117
-1.266588
-1.615413
-2.052380
-2.519506
-2.983827
-3.356266
-3.553590
-3.593102
-3.516182
-3.327507
-3.038767
-2.722673
-2.444454
-2.180964
-1.912564
-1.682274
-1.551814
-1.600210
-1.845931
-2.227254
-2.701862
-3.202187
-3.659261
-4.072380
-4.429154
-4.720232
-4.927843
-5.018790
-5.041000
-5.015984
-4.935089
-4.871964
-4.840868
-4.844842
-4.998681
-5.311969
-5.686745
-6.058015
-6.329219
-6.452196
-6.452196
-6.311216
-6.027619
-5.621981
-5.113004
-4.535992
-3.945887
-3.435273
-3.055820
-2.851481
-2.888888
-3.148870
-3.588175
-4.130350
-4.639093
-5.063668
-5.391685
-5.577086
-5.606544
-5.470240
-5.159056
-4.718581
-4.217553
-3.681222
-3.148398
-2.719847
-2.458227
-2.373592
-2.438588
-2.548238
-2.602946
-2.576761
-2.504985
-2.447938
-2.429233
-2.442793
-2.473420
-2.482070
-2.461496
-2.452845
-2.477160
-2.560859
-2.756547
-3.049728
-3.373771
-3.664380
-3.892332
-4.105321
-4.324389
-4.534806
-4.763693
-4.979020
-5.150393
-5.304933
-5.405231
-5.431650
-5.434455
-5.437962
-5.433987
-5.422998
-5.433752
-5.462041
-5.490798
-5.534284
-5.569587
-5.567950
-5.523528
-5.397043
-5.150153
-4.784728
-4.299832
-3.735211
-3.182280
-2.637532
-2.091381
-1.578430
-1.032746
-0.488232
-0.030223
0.409784
0.812149
1.106968
1.304060
1.474966
1.727467
2.005686
2.260526
2.521911
2.694688
2.760385
2.698196
2.402910
1.942798
1.387997
0.734534
0.074525
-0.496642
-0.920048
-1.154079
-1.191486
-1.032036
-0.701446
-0.230812
0.377061
1.056243
1.722332
2.352883
2.914932
3.369902
3.671033
3.757305
3.675476
3.496622
3.236873
2.946731
2.689789
2.516545
2.459499
2.543900
2.789622
3.148033
3.559049
3.997186
4.425503
4.793734
5.048105
5.228130
5.387814
5.500738
5.562695
5.542822
5.416338
5.273021
5.139523
4.955759
4.779710
4.692504
4.654395
4.647382
4.640836
4.543109
4.388336
4.163423
3.784672
3.361499
2.975734
2.553730
2.112088
1.806983
1.769342
1.966199
2.316428
2.749889
3.167919
3.549242
3.923318
4.287341
4.591044
4.775277
4.857340
4.822738
4.626115
4.327790
3.973822
3.595304
3.293238
3.144310
3.151324
3.263314
3.430011
3.602788
3.720856
3.812271
3.907661
3.937120
3.852953
3.622195
3.199490
2.630662
1.976264
1.239101
0.470610
-0.217221
-0.766177
-1.192155
-1.519003
-1.764490
-1.968361
-2.132953
-2.250787
-2.391766
-2.565711
-2.735448
-2.968075
-3.241150
-3.436604
-3.525681
-3.472608
-3.225017
-2.805584
-2.243535
-1.530453
-0.695095
0.197076
1.116601
1.977443
2.678835
3.219141
3.527754
3.541782
3.341885
2.970850
2.476603
1.961781
1.457481
0.982639
0.589626
0.305797
0.140736
0.097484
0.180249
0.384822
0.665379
0.971888
1.292424
1.588879
1.821040
1.983997
2.034498
1.982128
1.897961
1.794857
1.678426
1.511262
1.222055
0.823898
0.361682
-0.102406
-0.540307
-0.960675
-1.293601
-1.501447
-1.616475
-1.653648
-1.640087
-1.563635
-1.383377
-1.110769
-0.761476
-0.334795
0.128591
0.582626
1.022866
1.430609
1.786683
2.058823
2.202609
2.238380
2.162864
1.934445
1.581645
1.149120
0.648327
0.042091
-0.708164
-1.564563
-2.472164
-3.405014
-4.367557
-5.334542
-6.224374
-7.012738
-7.682333
-8.186634
-8.540369
-8.758735
-8.820457
-8.695375
-8.366422
-7.861419
-7.229699
-6.534385
-5.807743
-5.048369
-4.283852
-3.524010
-2.774690
-2.084753
-1.457709
-0.893088
-0.419181
-0.033415
0.272626
0.504086
0.703983
0.897568
1.030365
1.035976
0.926560
0.742795
0.516480
0.260005
-0.070584
-0.507785
-1.026347
-1.595175
-2.163068
-2.646561
-3.003569
-3.217493
-3.294879
-3.315921
-3.300957
-3.213283
-3.097787
-2.939739
-2.669469
-2.344491
-1.990521
-1.543501
-1.021898
-0.424079
0.319631
1.152417
1.976319
2.799520
3.605185
4.342582
5.027609
5.686684
6.306714
6.829252
7.194443
7.417019
7.533918
7.554960
7.522930
7.477106
7.419592
7.333322
7.193745
7.022138
6.839075
6.648063
6.486977
6.365637
6.278197
6.220216
6.167612
6.140959
6.120619
6.027101
5.857832
5.608371
5.226346
4.700537
4.031176
3.227381
2.383139
1.579345
0.814360
0.099409
-0.554989
-1.163797
-1.710648
-2.162344
-2.497843
-2.681841
-2.615676
-2.237859
-1.604502
-0.756052
0.243432
1.306041
2.428035
3.552366
4.590426
5.495456
6.171598
6.556662
6.633114
6.363313
5.777183
4.941359
3.910313
2.785982
1.695786
0.723190
-0.085047
-0.712091
-1.162150
-1.412547
-1.456500
-1.331184
-1.060447
-0.671408
-0.207086
0.283889
0.743534
1.147536
1.505480
1.851735
2.229785
2.637060
3.079405
3.590720
4.153003
4.757837
5.398676
6.036475
6.666091
7.271860
7.800009
8.203543
8.488543
8.711352
8.894883
9.037967
9.114186
9.063452
8.863789
8.479895
7.901948
7.191205
6.364498
5.434687
4.421644
3.352957
2.291518
1.252523
0.269873
-0.590266
-1.304984
-1.859083
-2.258175
-2.507402
-2.608169
-2.595777
-2.475371
-2.277111
-2.047521
-1.790578
-1.519372
-1.221982
-0.904953
-0.632111
-0.421693
-0.250553
-0.069360
0.170984
0.445463
0.713395
0.991146
1.324308
1.725504
2.206426
2.814767
3.563620
4.389626
5.182666
5.832156
6.263044
6.467617
6.482113
6.347680
6.106402
5.768799
5.343288
4.887618
4.442000
4.049455
3.740609
3.508683
3.393187
3.375419
3.381031
3.424050
3.509854
3.630260
3.829455
4.105337
4.407637
4.730979
5.089390
5.459726
5.852038
6.292279
6.753795
7.201751
7.567410
7.788349
7.879296
7.867841
7.791623
7.651345
7.418717
7.109404
6.732757
6.306311
5.857888
5.366447
4.802762
4.186473
3.571352
2.955998
2.341813
1.798235
1.333447
0.952825
0.703597
0.579685
0.603065
0.833824
1.288326
1.951375
2.730622
3.528339
4.311794
5.037267
5.678340
6.224724
6.677122
7.092347
7.439068
7.618157
7.628912
7.461280
7.097960
6.602310
5.997477
5.324608
4.680264
4.092264
3.604563
3.265090
2.999497
2.758218
2.553880
2.367777
2.224928
2.144736
2.109666
2.137956
2.181443
2.164142
2.104291
2.007031
1.835658
1.603966
1.351933
1.081663
0.784040
0.441060
0.037292
-0.379334
-0.795025
-1.249293
-1.712211
-2.133514
-2.466207
-2.702809
-2.844022
-2.828825
-2.721979
-2.600872
-2.413600
-2.196402
-1.956993
-1.622663
-1.215154
-0.778654
-0.362027
0.003633
0.329546
0.629041
0.954020
1.319679
1.667336
1.924513
2.043750
2.064091
1.998628
1.833334
1.631333
1.400576
1.119084
0.846243
0.623201
0.473104
0.435229
0.507940
0.650089
0.850688
1.113710
1.391461
1.671083
1.976657
2.283867
2.561385
2.769698
2.881220
2.893144
2.784195
2.569102
2.302573
2.023186
1.737954
1.455293
1.212612
1.004299
0.822873
0.707377
0.675347
0.720704
0.810951
0.929019
1.059478
1.165155
1.300524
1.496212
1.686290
1.870522
2.070887
2.275226
2.455718
2.558823
2.575891
2.538250
2.460396
2.337185
2.172124
1.988594
1.804596
1.658239
1.574306
1.513753
1.458577
1.395452
1.303337
1.193219
1.072346
0.970644
0.899337
0.848135
0.838316
0.868243
0.942357
1.065802
1.212393
1.374415
1.499965
1.555375
1.576183
1.563793
1.537374
1.523580
1.500435
1.452974
1.359689
1.242324
1.144831
1.053416
0.998007
0.981875
0.944702
0.919452
0.927869
0.952652
1.030974
1.165642
1.335145
1.502545
1.634874
1.721380
1.719977
1.664801
1.579933
1.427732
1.270387
1.149280
1.066984
1.020926
0.944007
0.860776
0.825706
0.803262
0.792508
0.796015
0.790405
0.773104
0.739438
0.667662
0.531826
0.351101
0.135073
-0.147821
-0.474669
-0.835886
-1.247369
-1.675217
-2.128550
-2.614614
-3.070986
-3.470779
-3.771208
-3.899094
-3.849295
-3.650100
-3.339149
-2.955487
-2.542601
-2.180448
-1.917426
-1.769900
-1.739272
-1.767795
-1.834894
-1.955299
-2.103059
-2.266717
-2.406995
-2.470353
-2.428269
-2.221358
-1.844711
-1.366127
-0.841720
-0.322222
0.180443
0.676561
1.143688
1.555639
1.921766
2.263111
2.577568
2.859996
3.081636
3.189183
3.198302
3.130501
2.984612
2.801081
2.564713
2.207705
1.732863
1.170113
0.557565
-0.047502
-0.619370
-1.153830
-1.627737
-2.000877
-2.250338
-2.365366
-2.332868
-2.165936
-1.874624
-1.468986
-1.037863
-0.652097
-0.277320
0.102835
0.460077
0.776639
0.973964
0.990798
0.858703
0.541674
0.002071
-0.691372
-1.512701
-2.427783
-3.354321
-4.288809
-5.199448
-5.984306
-6.610180
-7.061175
-7.283750
-7.277437
-7.103959
-6.830649
-6.517594
-6.202202
-5.915799
-5.680365
-5.471350
-5.268180
-5.104755
-5.021523
-5.001416
-4.981309
-4.932445
-4.890595
-4.876801
-4.847576
-4.793100
-4.764811
-4.776266
-4.821155
-4.880773
-4.922856
-4.918180
-4.793332
-4.531712
-4.176340
-3.735398
-3.290247
-2.910326
-2.612936
-2.474761
-2.485750
-2.570384
-2.726794
-2.950537
-3.223145
-3.518898
-3.754097
-3.842005
-3.786828
-3.611714
-3.295619
-2.866133
-2.365339
-1.824566
-1.311147
-0.871140
-0.562527
-0.476489
-0.665397
-1.156839
-1.908263
-2.832463
-3.882914
-5.004205
-6.134848
-7.220135
-8.178469
-8.935738
-9.440974
-9.658405
-9.578446
-9.245752
-8.753141
-8.147371
-7.449720
-6.730559
-6.036181
-5.388796
-4.816694
-4.329694
-3.951175
-3.679503
-3.488022
-3.391931
-3.418584
-3.577566
-3.832404
-4.146160
-4.511818
-4.878880
-5.177438
-5.381543
-5.541694
-5.720548
-5.872984
-5.958085
-5.962761
-5.857552
-5.713065
-5.599205
-5.489086
-5.417544
-5.387617
-5.345534
-5.370783
-5.418711
-5.378264
-5.377329
-5.341557
-5.079938
-4.679443
-4.164153
-3.517002
-2.798776
-2.030518
-1.289146
-0.675194
-0.237526
0.060099
0.235915
0.207626
0.005157
-0.317015
-0.784609
-1.335201
-1.883455
-2.414175
-2.962663
-3.559781
-4.175602
-4.819947
-5.536769
-6.311105
-7.133370
-7.985093
-8.830503
-9.675213
-10.469655
-11.185542
-11.901429
-12.619888
-13.279897
-13.848258
-14.288264
-14.605526
-14.807760
-14.877899
-14.844700
-14.743933
-14.559466
-14.294106
-14.010276
-13.734395
-13.430224
-13.079294
-12.668979
-12.180576
-11.603564
-10.933735
-10.209664
-9.479281
-8.728792
-7.917749
-7.034696
-6.099974
-5.111245
-4.060794
-3.008472
-1.980699
-0.998282
-0.134868
0.633156
1.281476
1.710495
1.952709
2.036643
1.986376
1.849605
1.611834
1.371725
1.207366
1.020328
0.840772
0.828381
1.044410
1.443269
1.976795
2.642182
3.363213
4.026263
4.610756
5.083495
5.397251
5.527243
5.438400
5.171404
4.791718
4.323188
3.801119
3.268296
2.802806
2.425457
2.110767
1.906428
1.783685
1.666085
1.551291
1.420833
1.245251
0.994387
0.657252
0.256758
-0.207096
-0.698537
-1.168703
-1.596785
-1.938129
-2.184551
-2.379538
-2.547637
-2.672251
-2.736779
-2.737480
-2.657988
-2.539219
-2.447570
-2.387484
-2.379768
-2.418110
-2.456219
-2.517473
-2.605381
-2.712693
-2.887106
-3.108979
-3.364753
-3.671962
-3.982444
-4.285913
-4.569275
-4.792083
-5.001565
-5.222269
-5.466587
-5.803021
-6.238117
-6.745925
-7.316156
-7.915845
-8.523016
-9.125278
-9.702523
-10.224124
-10.664832
-10.995888
-11.201162
-11.325542
-11.403863
-11.417189
-11.336295
-11.169831
-10.914290
-10.538344
-10.122886
-9.690127
-9.115219
-8.457313
-7.856220
-7.318953
-6.837331
-6.405507
-6.038211
-5.769344
-5.611764
-5.543962
-5.506554
-5.520582
-5.608489
-5.689616
-5.739649
-5.780797
-5.788044
-5.739647
-5.643323
-5.551206
-5.515435
-5.554011
-5.678157
-5.856310
-6.030956
-6.203264
-6.348686
-6.410642
-6.418824
-6.414849
-6.370895
-6.251424
-6.052229
-5.780790
-5.442485
-5.072149
-4.698073
-4.327037
-3.993641
-3.696719
-3.436502
-3.242917
-3.101236
-3.025017
-3.011457
-3.010755
-3.049799
-3.156176
-3.313521
-3.533290
-3.821796
-4.151683
-4.493495
-4.866635
-5.272740
-5.690769
-6.141296
-6.574756
-6.956547
-7.342312
-7.691838
-7.961874
-8.189124
-8.378967
-8.549873
-8.725922
-8.900802
-9.058848
-9.165927
-9.200529
-9.179954
-9.132960
-9.041311
-8.905942
-8.789277
-8.694355
-8.611123
-8.540516
-8.407485
-8.182338
-7.889389
-7.502688
-7.012883
-6.452236
-5.845064
-5.196744
-4.508679
-3.812196
-3.166448
-2.593878
-2.077185
-1.615669
-1.199977
-0.817485
-0.462112
-0.096921
0.306380
0.735866
1.164183
1.589227
2.025259
2.439081
2.815962
3.177179
3.502158
3.799782
4.081976
4.312500
4.466339
4.506787
4.446701
4.341727
4.189525
4.000149
3.790434
3.542609
3.280523
3.030360
2.777859
2.561130
2.452648
2.446336
2.516943
2.638284
2.732972
2.785577
2.799372
2.721284
2.533311
2.238961
1.857170
1.419268
0.951207
0.507927
0.119590
-0.201413
-0.453913
-0.665266
-0.816065
-0.897192
-0.936002
-0.932495
-0.901399
-0.870771
-0.862822
-0.903035
-1.005905
-1.154132
-1.333922
-1.556730
-1.777201
-1.959562
-2.140521
-2.299736
-2.435806
-2.598529
-2.775279
-2.941742
-3.065654
-3.134157
-3.189800
-3.215751
-3.214348
-3.208269
-3.172965
-3.147247
-3.129010
-3.038998
-2.875106
-2.663285
-2.403068
-2.106613
-1.804547
-1.468579
-1.087256
-0.739599
-0.368095
0.045493
0.391747
0.748055
1.075371
1.299583
1.626666
1.994897
2.235709
2.470208
2.739542
3.023607
3.376173
3.828805
4.370514
4.907079
5.409743
5.904693
6.339322
6.692122
6.918439
6.972914
6.932000
6.795229
6.490357
6.057833
5.584628
5.131295
4.725190
4.392496
4.166649
4.043905
4.010473
4.037360
4.114280
4.264612
4.419620
4.506359
4.552885
4.533480
4.382214
4.134856
3.877680
3.633830
3.397461
3.201539
3.053312
2.955819
2.941792
2.960730
2.960496
2.959561
2.909997
2.761770
2.535922
2.244611
1.910749
1.557481
1.179432
0.801616
0.468455
0.184158
-0.065303
-0.268239
-0.409920
-0.483098
-0.476785
-0.396826
-0.269640
-0.141051
-0.037946
0.058379
0.188604
0.384059
0.621831
0.885321
1.222691
1.618276
2.004042
2.388405
2.773704
3.121594
3.439325
3.725026
3.935444
4.077827
4.161293
4.172983
4.145863
4.057020
3.866242
3.658163
3.535887
3.576802
3.791896
4.090222
4.439983
4.833230
5.231855
5.648950
6.054588
6.369981
6.533406
6.517742
6.399207
6.260799
6.088024
5.868255
5.631652
5.408376
5.213156
5.058850
5.020040
5.156812
5.402533
5.705768
6.045009
6.321124
6.510500
6.645869
6.713670
6.745233
6.707125
6.553287
6.403423
6.310840
6.224101
6.139233
6.022101
5.866159
5.709047
5.522478
5.294292
5.042493
4.743466
4.388329
3.996952
3.554141
3.071116
2.631110
2.228277
1.755072
1.219677
0.742731
0.405128
0.192607
0.046718
-0.010796
0.070566
0.264150
0.490232
0.693403
0.911302
1.145100
1.302212
1.377027
1.383574
1.243062
0.931645
0.526942
0.109614
-0.290412
-0.669865
-1.002558
-1.234952
-1.336420
-1.356058
-1.345070
-1.252719
-1.016116
-0.654198
-0.212320
0.294319
0.839067
1.352486
1.788518
2.155580
2.501601
2.862584
3.188732
3.452221
3.713841
3.964004
4.130468
4.231235
4.335509
4.467138
4.625419
4.803339
4.982896
5.151464
5.272571
5.262986
5.093249
4.827656
4.518577
4.167881
3.800586
3.462282
3.177985
2.974815
2.850202
2.810690
2.923615
3.172843
3.483560
3.825138
4.162040
4.506892
4.879799
5.236574
5.560617
5.847019
6.067724
6.210575
6.282117
6.342905
6.430345
6.469623
6.420526
6.350855
6.282353
6.195615
6.129450
6.090640
6.033828
5.938673
5.792082
5.584938
5.311162
4.991094
4.685288
4.428111
4.228215
4.087002
3.957712
3.821643
3.746360
3.759219
3.814162
3.892251
3.963092
3.974314
3.912826
3.788213
3.667807
3.604916
3.557222
3.496435
3.413204
3.322491
3.260535
3.197410
3.103658
2.959171
2.740337
2.481057
2.174315
1.778263
1.351817
0.984054
0.676144
0.427618
0.279624
0.213928
0.240815
0.426216
0.772704
1.254093
1.823857
2.405312
2.900728
3.231318
3.430280
3.532684
3.540633
3.494575
3.344244
3.046387
2.663661
2.233241
1.849112
1.645943
1.628175
