EVENT_NAME: 202302060117
EVENT_ID: 13194
EVENT_DATE_YYYYMMDD: 2023/02/06
EVENT_TIME_HHMMSS: 01:17:32.00000
EVENT_LATITUDE_DEGREE: 37.288
EVENT_LONGITUDE_DEGREE: 37.043
EVENT_DEPTH_KM: 8.6
HYPOCENTER_REFERENCE: AFAD
MAGNITUDE_W: 7.7
MAGNITUDE_W_REFERENCE: AFAD
MAGNITUDE_L: 
MAGNITUDE_L_REFERENCE: 
FOCAL_MECHANISM: 
NETWORK: TK
STATION_CODE: 2401
STATION_NAME: 
STATION_LATITUDE_DEGREE: 39.74183
STATION_LONGITUDE_DEGREE: 39.51152
STATION_ELEVATION_M: 1198.0
LOCATION: Kahramanmaras_Pazarck_Turkiye
SENSOR_DEPTH_M: 
VS30_M/S: 314
SITE_CLASSIFICATION_EC8: C
MORPHOLOGIC_CLASSIFICATION: 
EPICENTRAL_DISTANCE_KM: 347.21
EARTHQUAKE_BACKAZIMUTH_DEGREE: 
DATE_TIME_FIRST_SAMPLE_YYYYMMDD_HHMMSS: 2023/02/06 01:17:58.9311340
DATE_TIME_FIRST_SAMPLE_PRECISION: millisecond
SAMPLING_INTERVAL_S: 0.01
NDATA: 18251
DURATION_S: 
STREAM: HNZ
UNITS: cm/s^2
INSTRUMENT: sensor = CMG-5T/GURALP | digitizer = 
INSTRUMENT_ANALOG/DIGITAL: 
INSTRUMENTAL_FREQUENCY_HZ: 
INSTRUMENTAL_DAMPING: 
FULL_SCALE_G: 
N_BIT_DIGITAL_CONVERTER: 
PGA_CM/S^2: 7.383
TIME_PGA_S: 
BASELINE_CORRECTION: BASELINE REMOVED
FILTER_TYPE: BUTTERWORTH
FILTER_ORDER: 
LOW_CUT_FREQUENCY_HZ: 
HIGH_CUT_FREQUENCY_HZ: 
LATE/NORMAL_TRIGGERED: 
DATABASE_VERSION: 
HEADER_FORMAT: DYNA 1.2
DATA_TYPE: Acceleration
PROCESSING: Automatic Paolucci et al., 2011
DATA_TIMESTAMP_YYYYMMDD_HHMMSS: 
DATA_LICENSE: U (unknown license)
DATA_CITATION: Turkish Accelerometric Archive v 1.0 - Disaster And Emergency Management Presidency, Earthquake Department
DATA_CREATOR: AFAD
ORIGINAL_DATA_MEDIATOR_CITATION: : AFAD - Disaster And Emergency Management Presidency
ORIGINAL_DATA_MEDIATOR: AFAD PROCESS SERVICE
ORIGINAL_DATA_CREATOR_CITATION: AFAD PROCESS SERVICE
ORIGINAL_DATA_CREATOR: network: TK
USER1: GuestUser
USER2: 
USER3: 
USER4: 
USER5: 
[...]
-1.847830
-1.695136
-1.594070
-1.514281
-1.488935
-1.451387
-1.260520
-1.076850
-0.879725
-0.551184
-0.207624
0.069915
0.201332
0.298330
0.411286
0.526120
0.620302
0.738890
0.809919
0.797404
0.868745
0.882826
0.880011
0.918185
0.937273
0.968251
1.050856
1.078705
1.139094
1.193226
1.156306
1.150362
1.149737
1.139099
1.088098
1.099364
1.134096
1.090605
1.073709
1.114700
1.078718
1.133162
1.252376
1.169147
1.046806
1.085294
1.182605
1.275536
1.408204
1.560898
1.808399
1.981744
2.046514
2.105027
2.128808
2.172301
2.283693
2.434196
2.507102
2.551221
2.540896
2.502411
2.459233
2.421061
2.353476
2.239271
2.249597
2.244279
2.146344
2.067808
2.121627
2.166685
2.048412
1.917623
1.860677
1.771190
1.662616
1.623818
1.570314
1.492717
1.405108
1.256171
1.084705
1.089087
1.220191
1.388216
1.582525
1.698297
1.814695
2.029968
2.254002
2.470839
2.789055
3.106331
3.195820
3.192692
3.249953
3.235561
3.275925
3.431748
3.538446
3.586633
3.609163
3.488386
3.422679
3.499652
3.417675
3.289389
3.316925
3.304410
3.165485
3.062857
2.921429
2.710226
2.453340
2.333503
2.260286
2.108220
1.979308
1.774050
1.584437
1.474925
1.337565
1.098201
0.896698
0.670476
0.411400
0.243063
0.158582
0.092563
0.027481
-0.008188
-0.008499
0.085996
0.168601
0.044383
-0.205306
-0.319199
-0.302928
-0.184965
-0.112685
-0.175576
-0.160869
-0.036649
-0.042593
-0.059488
0.071616
0.139828
0.125749
0.092896
-0.049471
-0.240335
-0.344529
-0.430887
-0.502226
-0.544778
-0.643026
-0.799473
-0.837019
-0.815741
-0.893651
-1.017870
-1.150223
-1.337646
-1.535395
-1.669626
-1.855172
-2.133021
-2.378330
-2.490033
-2.478454
-2.396788
-2.363933
-2.464058
-2.533520
-2.488462
-2.419311
-2.340461
-2.317618
-2.336078
-2.323874
-2.345463
-2.365174
-2.224058
-2.037884
-1.967795
-1.925553
-1.845138
-1.739691
-1.562904
-1.361086
-1.159268
-1.002819
-0.968087
-0.886420
-0.717143
-0.512509
-0.384534
-0.335721
-0.222765
-0.008431
0.125802
0.094827
0.130185
0.331690
0.581069
0.742211
0.796968
0.862364
1.034458
1.227202
1.502863
1.698737
1.761317
1.872083
1.994113
2.064828
2.027594
1.995680
1.890236
1.776030
1.761325
1.826408
1.879288
1.846748
1.805760
1.745685
1.761644
1.754761
1.620843
1.421530
1.266961
1.211892
1.199378
1.082043
0.805132
0.541362
0.326717
0.186541
0.220648
0.291676
0.190299
-0.059390
-0.266526
-0.283108
-0.242118
-0.287487
-0.445810
-0.668591
-0.846940
-0.967403
-1.048442
-1.150445
-1.267467
-1.338493
-1.352572
-1.377916
-1.443310
-1.535926
-1.662960
-1.757140
-1.880733
-2.020596
-2.038117
-2.033110
-2.039367
-2.032482
-2.033107
-2.144809
-2.394185
-2.498066
-2.527790
-2.639805
-2.780920
-2.919218
-2.987115
-2.977728
-2.913583
-2.922343
-2.993995
-2.903567
-2.661386
-2.488041
-2.377901
-2.271203
-2.124767
-1.954864
-1.834085
-1.712681
-1.678261
-1.601601
-1.460797
-1.547468
-1.696405
-1.654163
-1.528692
-1.480505
-1.397274
-1.218922
-1.013975
-0.790880
-0.601577
-0.489247
-0.352824
-0.051192
0.249814
0.386550
0.395938
0.286739
0.162207
0.166589
0.168780
0.129044
0.159708
0.441315
0.803961
1.039259
1.228249
1.423183
1.748908
2.051166
2.262684
2.352799
2.325265
2.293351
2.207305
2.098419
2.150361
2.293668
2.441668
2.566201
2.731098
3.034294
3.286801
3.380671
3.503640
3.748325
3.923860
4.120359
4.240824
4.177308
4.192328
4.282443
4.243019
4.239891
4.373811
4.420120
4.257103
4.084699
3.984574
3.870681
3.758040
3.587826
3.308411
3.069674
3.062791
2.972991
2.745517
2.521485
2.439195
2.473302
2.429497
2.224552
1.951709
1.755837
1.566850
1.366911
1.111277
0.910086
0.813090
0.609083
0.298692
0.163210
0.140682
0.133487
0.196380
0.359086
0.327798
0.046506
0.027420
0.095945
-0.066759
-0.126208
-0.218824
-0.353055
-0.394043
-0.402803
-0.253551
-0.188781
0.011786
0.265858
0.373807
0.404785
0.546840
0.970501
1.268065
1.381647
1.525267
1.769013
1.922333
1.965826
2.028406
2.042801
1.995554
1.990549
2.116647
2.315023
2.565340
2.866659
3.035311
3.077865
3.058154
3.029995
2.998706
2.912348
2.975867
3.198962
3.264984
3.249653
3.369493
3.357604
3.287516
3.268118
3.260296
3.212737
3.224628
3.298160
3.236833
3.135143
3.071627
2.992778
2.868873
2.951478
2.959614
2.831954
2.792218
2.740904
2.606360
2.350100
2.037832
1.832261
1.688643
1.430818
1.218989
0.988074
0.686444
0.497457
0.312537
0.054086
-0.101734
-0.138029
-0.167127
-0.297604
-0.522261
-0.865506
-1.260692
-1.615826
-1.797930
-1.883662
-2.062012
-2.318897
-2.626472
-2.923722
-3.250696
-3.433738
-3.509145
-3.606454
-3.736305
-3.861775
-4.005080
-4.162778
-4.195318
-4.177169
-4.170910
-4.112398
-3.959704
-3.834858
-3.786984
-3.877096
-4.015708
-3.924967
-3.681847
-3.495986
-3.315445
-3.163064
-3.229397
-3.334216
-3.419009
-3.547608
-3.504740
-3.244411
-2.957798
-2.781637
-2.695277
-2.673999
-2.692146
-2.727189
-2.710917
-2.664295
-2.580438
-2.409909
-2.194324
-1.964345
-1.778171
-1.655828
-1.610145
-1.590744
-1.587301
-1.597939
-1.540678
-1.482478
-1.408008
-1.340735
-1.331660
-1.252497
-1.065384
-0.849799
-0.693350
-0.582271
-0.479328
-0.426448
-0.510302
-0.550039
-0.490588
-0.414866
-0.416117
-0.531887
-0.508419
-0.574439
-0.752788
-0.580382
-0.383257
-0.278749
-0.163290
-0.061911
0.080145
0.053237
0.015377
-0.009966
-0.067851
-0.070979
-0.046572
-0.073480
-0.066282
-0.023415
0.022582
0.078591
0.014136
-0.096941
-0.080669
0.086731
0.130224
-0.081918
-0.247438
-0.249940
-0.315022
-0.400754
-0.430165
-0.495559
-0.673595
-0.859141
-0.909829
-0.804382
-0.733667
-0.699560
-0.618520
-0.698620
-0.856318
-0.935792
-0.977406
-0.981473
-1.084414
-1.228345
-1.250872
-1.207379
-1.106000
-1.018388
-0.955808
-0.876019
-0.766192
-0.683900
-0.662622
-0.727077
-0.626011
-0.317808
-0.129132
-0.144462
-0.128504
0.023877
0.177197
0.357425
0.585840
0.861501
1.125899
1.402812
1.601188
1.732605
1.801130
1.860894
1.975415
2.111838
2.253267
2.340879
2.461658
2.485439
2.431309
2.493576
2.527370
2.477620
2.486695
2.413792
2.282690
2.277684
2.336823
2.285509
2.351531
2.571810
2.750787
2.874068
2.821816
2.729200
2.713243
2.752982
2.654734
2.467937
2.415997
2.457613
2.519254
2.495163
2.336839
2.150980
2.133459
2.049604
1.751729
1.505482
1.318684
1.287396
1.333705
1.139711
0.808982
0.630946
0.552098
0.493274
0.437893
0.193523
-0.098407
-0.242338
-0.373753
-0.609362
-0.857799
-0.894720
-0.818685
-0.920688
-1.105295
-1.270503
-1.357174
-1.395972
-1.475446
-1.607487
-1.805861
-1.943847
-2.009867
-2.024572
-2.120942
-2.234209
-2.262369
-2.291467
-2.295221
-2.316497
-2.420377
-2.543031
-2.560552
-2.637523
-2.867500
-3.135024
-3.272384
-3.398793
-3.486402
-3.431332
-3.326511
-3.159737
-3.139398
-3.046154
-2.931320
-2.962922
-2.875623
-2.701965
-2.613415
-2.662226
-2.656279
-2.439129
-2.218537
-2.080863
-1.813336
-1.563019
-1.428786
-1.200372
-1.056752
-1.138104
-1.126213
-1.040478
-0.904368
-0.797670
-0.827394
-0.874327
-0.991975
-0.916566
-0.715061
-0.754484
-0.809240
-0.822380
-0.723505
-0.394651
-0.269805
-0.361795
-0.414673
-0.436262
-0.337386
-0.119297
-0.075804
-0.090509
0.074075
0.227394
0.216444
0.071888
-0.035434
-0.073294
-0.104582
-0.172792
-0.479115
-0.802648
-0.774486
-0.723796
-0.732243
-0.703769
-0.773856
-0.774481
-0.556705
-0.444062
-0.471596
-0.409329
-0.288237
-0.205006
-0.235043
-0.309198
-0.389611
-0.449373
-0.545744
-0.669649
-0.740363
-0.796370
-0.843929
-0.845805
-0.917770
-1.056381
-1.135543
-1.134916
-1.111135
-1.203125
-1.336417
-1.468771
-1.572025
-1.608633
-1.690923
-1.867082
-1.978785
-1.990987
-2.126469
-2.348624
-2.444682
-2.464706
-2.561076
-2.690301
-2.735357
-2.776032
-2.915270
-3.003192
-2.985982
-2.946243
-2.887418
-2.731282
-2.560128
-2.506934
-2.416820
-2.198105
-1.957801
-1.742215
-1.529445
-1.242520
-0.918985
-0.619856
-0.323544
-0.141125
-0.020972
0.141734
0.312576
0.530352
0.816339
1.023163
1.120788
1.199951
1.299766
1.522548
1.843892
2.085761
2.155851
2.206853
2.385518
2.550101
2.590466
2.620192
2.666501
2.743787
2.961250
3.183407
3.297615
3.393987
3.567332
3.785108
3.880542
3.830793
3.736925
3.628665
3.532294
3.616777
3.914028
4.225985
4.446577
4.581749
4.615230
4.685632
4.776060
4.880255
5.027317
5.100222
5.139648
5.149036
5.191278
5.222568
5.261994
5.300794
5.157176
5.080205
5.217254
5.335216
5.416257
5.453493
5.372141
5.182528
4.969134
4.832713
4.749484
4.636217
4.511999
4.416567
4.369946
4.322074
4.228520
4.149671
4.121199
4.238535
4.428464
4.545488
4.513886
4.300806
4.032343
3.848361
3.777648
3.725396
3.573956
3.422828
3.433468
3.510441
3.456311
3.257311
2.991977
2.772326
2.759811
2.859625
2.823956
2.719450
2.655621
2.577398
2.392478
2.220074
2.136219
2.047671
1.918759
1.754803
1.683151
1.583652
1.518570
1.355240
1.038591
0.948792
1.094289
1.300800
1.301427
1.124643
0.955993
0.894041
0.995107
1.023582
0.903118
0.751052
0.561126
0.356493
0.138407
-0.110657
-0.307780
-0.322485
-0.284311
-0.288690
-0.224546
-0.168849
-0.252391
-0.406022
-0.515847
-0.588437
-0.645383
-0.779927
-1.047451
-1.285564
-1.466103
-1.572486
-1.597517
-1.711097
-1.936380
-2.115355
-2.072175
-1.959218
-1.994575
-2.144450
-2.361286
-2.519609
-2.539321
-2.499582
-2.428867
-2.439817
-2.595012
-2.802148
-2.934501
-2.999582
-3.066854
-3.171673
-3.344077
-3.532126
-3.647583
-3.636630
-3.698583
-3.837194
-3.972990
-4.135381
-4.157909
-4.078119
-4.054338
-4.100646
-4.162285
-4.179180
-4.160093
-4.191381
-4.287752
-4.329366
-4.268037
-4.074042
-3.960147
-4.092813
-4.244253
-4.277419
-4.151947
-4.022095
-3.867524
-3.603752
-3.359067
-3.230466
-3.267387
-3.364071
-3.424458
-3.333092
-3.213878
-3.135340
-2.919129
-2.635019
-2.542088
-2.487018
-2.375939
-2.438517
-2.549907
-2.539267
-2.393770
-2.265482
-2.229185
-2.250461
-2.369986
-2.371549
-2.112784
-1.879989
-1.762653
-1.645942
-1.532047
-1.412833
-1.249188
-1.028283
-0.755750
-0.546423
-0.426583
-0.327707
-0.205051
-0.034522
0.221427
0.550281
0.753038
0.848472
0.949851
1.060929
1.109742
1.197041
1.262437
1.210184
1.199547
1.325958
1.510880
1.533096
1.577841
1.542172
1.370707
1.356627
1.326903
1.212385
0.969892
0.728651
0.562505
0.464570
0.493044
0.451743
0.372894
0.379466
0.386038
0.140416
-0.079235
-0.069534
-0.022912
-0.056390
-0.194063
-0.267280
-0.239118
-0.130543
-0.148689
-0.373034
-0.595502
-0.658705
-0.710645
-0.817967
-0.874287
-0.998505
-1.117717
-1.073911
-0.913708
-0.931855
-1.000378
-1.048249
-1.269465
-1.387113
-1.417775
-1.499440
-1.687802
-1.805762
-1.826412
-2.004136
-2.174350
-2.268217
-2.277290
-2.139928
-2.078600
-2.237236
-2.358326
-2.372092
-2.471592
-2.591117
-2.649314
-2.670590
-2.647435
-2.563891
-2.494740
-2.468769
-2.447491
-2.382408
-2.245671
-2.143980
-1.967819
-1.739091
-1.660241
-1.688713
-1.667435
-1.583891
-1.561362
-1.452786
-1.194021
-0.892389
-0.539130
-0.101389
0.294737
0.536919
0.718712
0.852319
0.971221
1.139559
1.323855
1.419289
1.474360
1.520044
1.623300
1.811038
1.957161
2.075123
2.270058
2.443716
2.458423
2.516935
2.640530
2.801359
2.990035
3.144294
3.274772
3.427466
3.545428
3.602063
3.625531
3.562015
3.491614
3.464706
3.458762
3.382104
3.290427
3.253506
3.252881
3.280104
3.304198
3.340182
3.393062
3.383677
3.283551
3.205016
3.184366
3.142126
3.033239
2.871161
2.718782
2.736931
2.837058
2.774793
2.609273
2.539811
2.603955
2.719728
2.814849
2.787002
2.717540
2.729118
2.747580
2.684689
2.572987
2.532312
2.560160
2.638385
2.715671
2.712856
2.624621
2.522305
2.494145
2.521994
2.518553
2.436889
2.329880
2.199090
2.108352
2.221308
2.473502
2.627761
2.563931
2.423129
2.336458
2.308612
2.299226
2.214120
2.015119
1.783578
1.680011
1.659361
1.647159
1.726635
1.932834
2.011059
1.996354
1.944727
1.844915
1.888721
1.923453
1.917509
1.891227
1.856497
1.902180
1.812068
1.520138
1.271387
1.126518
0.992912
0.701608
0.372131
0.163744
0.075195
0.064871
0.155924
0.218504
0.093347
-0.036503
-0.199833
-0.368170
-0.610975
-1.038389
-1.427316
-1.678883
-1.829697
-1.899785
-2.037145
-2.234268
-2.349725
-2.472692
-2.587836
-2.767124
-3.036838
-3.267754
-3.425765
-3.467692
-3.546540
-3.625389
-3.661058
-3.705801
-3.802171
-3.925451
-4.077517
-4.299984
-4.598798
-4.940166
-5.053433
-4.965508
-4.919512
-5.009624
-5.147610
-5.270577
-5.403243
-5.454870
-5.412628
-5.456432
-5.549361
-5.683279
-5.794982
-5.873517
-5.999613
-6.114132
-6.173581
-6.181715
-6.221452
-6.279962
-6.396045
-6.510876
-6.521201
-6.388532
-6.266502
-6.203609
-6.093469
-5.988649
-6.015869
-6.165119
-6.238649
-6.187333
-6.044026
-5.877565
-5.703594
-5.542139
-5.411035
-5.229242
-5.024295
-4.928235
-4.875981
-4.702636
-4.493308
-4.343117
-4.232664
-4.157256
-4.116578
-4.016138
-3.804307
-3.562125
-3.334024
-3.112180
-2.889085
-2.626252
-2.345897
-2.064917
-1.763285
-1.462279
-1.143751
-0.797688
-0.455692
-0.268893
-0.149992
0.094380
0.416976
0.771800
1.157288
1.445465
1.605042
1.791216
1.955487
2.067817
2.216443
2.497111
2.855690
3.228036
3.596940
3.910149
4.172982
4.366665
4.558158
4.731816
4.900780
5.053161
5.171749
5.305982
5.470566
5.686464
5.873577
6.037535
6.265323
6.571023
6.795369
6.970905
7.206516
7.368596
7.382677
7.347008
7.292253
7.160838
7.055393
7.028485
7.091691
7.138626
7.215913
7.294137
7.182748
7.063536
7.013161
6.959969
6.863912
6.770670
6.668980
6.554462
6.389567
6.197450
6.078551
5.971229
5.858275
5.707461
5.621729
5.616723
5.602644
5.561030
5.486249
5.420542
5.342006
5.208714
4.961841
4.677420
4.471849
4.311335
4.163963
4.019093
3.914275
3.881109
3.949321
4.046945
4.030050
3.957459
3.843566
3.718722
3.602952
3.409897
3.213713
3.101697
2.975602
2.784424
2.566963
2.304132
2.048498
1.945556
1.929912
1.855757
1.807885
1.772842
1.661453
1.480287
1.300687
1.140172
0.950559
0.747804
0.611070
0.513761
0.449931
0.428029
0.352310
0.239356
0.142672
0.109819
0.153938
0.199309
0.183353
0.128910
0.092928
0.038798
-0.043805
-0.105444
-0.218711
-0.350752
-0.470277
-0.558825
-0.606697
-0.646121
-0.663955
-0.674905
-0.714955
-0.784729
-0.935857
-1.171466
-1.445248
-1.664273
-1.794437
-1.910833
-2.045376
-2.209645
-2.376104
-2.602327
-2.822291
-3.067912
-3.299141
-3.498141
-3.641446
-3.704650
-3.722171
-3.847015
-3.925551
-3.902082
-4.055400
-4.185563
-4.271608
-4.318542
-4.399893
-4.514099
-4.617666
-4.732498
-4.775989
-4.748766
-4.740630
-4.713094
-4.698700
-4.709024
-4.778486
-4.829800
-4.729673
-4.664902
-4.718719
-4.879233
-4.992813
-4.993751
-4.939932
-4.933360
-4.900505
-4.811016
-4.665206
-4.450246
-4.233096
-4.041603
-3.881713
-3.694288
-3.448664
-3.194905
-3.034702
-2.811607
-2.481502
-2.244639
-2.125738
-2.080054
-2.126049
-2.119164
-1.976483
-1.789371
-1.630419
-1.500254
-1.336608
-1.152312
-0.984600
-0.867889
-0.789977
-0.636970
-0.513376
-0.488656
-0.437340
-0.345974
-0.359427
-0.442656
-0.409488
-0.373504
-0.248658
0.087705
0.483205
0.700355
0.726952
0.757617
0.833652
0.953179
1.158752
1.352435
1.460072
1.483227
1.400936
1.287044
1.209134
1.267020
1.325533
1.346185
1.424723
1.506389
1.512335
1.414087
1.310207
1.257642
1.245127
1.256705
1.281425
1.276732
1.243879
1.229174
1.268287
1.338690
1.388754
1.409719
1.425365
1.441949
1.423176
1.453528
1.518924
1.580253
1.650655
1.682571
1.655350
1.553973
1.443523
1.280192
1.127501
1.097464
1.204788
1.373439
1.527384
1.687901
1.827140
1.882210
1.795852
1.588404
1.381269
1.245160
1.168189
1.193222
1.311184
1.435717
1.490162
1.442916
1.302114
1.092163
0.913501
0.824327
0.813376
0.876582
0.959500
1.035222
1.096550
1.296491
1.484542
1.516146
1.462329
1.399438
1.307448
1.148185
1.072465
1.001752
0.922278
0.747683
0.602501
0.492676
0.424153
0.437296
0.421339
0.489551
0.593433
0.665713
0.639118
0.622848
0.710773
0.798072
0.798386
0.743004
0.610338
0.335617
-0.028592
-0.327406
-0.470711
-0.522024
-0.474463
-0.281719
0.044632
0.334999
0.442323
0.418857
0.339696
0.266792
0.222675
0.146642
-0.031394
-0.283273
-0.450358
-0.535152
-0.537654
-0.374635
-0.113366
0.222997
0.670751
1.029329
0.958303
0.447034
-0.304539
-1.226327
-2.165637
-2.812077
-2.994806
-2.820836
-2.592109
-2.468514
-2.396860
-2.304242
-2.109620
-1.590214
-0.604280
0.573770
1.474283
1.631045
0.730847
-0.865856
-2.222880
-2.856179
-2.991036
-2.697539
-1.933135
-0.919042
-0.164964
-0.207829
-0.683429
-0.649948
0.081289
1.066909
1.830687
1.798773
1.066912
-0.113640
-1.742257
-3.418748
-4.513879
-4.465380
-3.823631
-3.812992
-4.700987
-5.092417
-3.547028
-0.696866
1.721814
2.343850
1.096964
-0.892421
-2.361775
-2.636809
-1.786046
-0.445603
0.193017
-0.155860
-0.631147
-1.036971
-1.422769
-1.758192
-1.980972
-1.625835
-0.679327
0.853547
1.988731
1.306308
-0.536017
-1.901177
-2.301368
-1.825141
-0.980323
-0.983139
-1.853299
-2.793234
-2.773834
-1.731267
-1.087328
-1.132696
-1.262860
-2.042593
-3.191543
-3.515075
-3.282593
-2.526012
-0.615474
1.952457
3.491901
3.082323
1.838566
0.929294
0.484671
0.375785
-0.104821
-1.257212
-2.726879
-3.727204
-3.707803
-3.037581
-2.031310
-0.592930
0.823860
0.875488
0.418663
0.862662
1.698718
2.151478
1.914931
1.418680
0.837322
0.109529
-0.765011
-1.973724
-2.810717
-2.279107
-1.401749
-1.323211
-1.147050
-0.479957
0.055095
0.679634
1.360495
1.526017
1.138028
0.630827
-0.168306
-1.446481
-2.244676
-2.463075
-2.569772
-2.296926
-1.932402
-1.824453
-1.773763
-1.861685
-1.585085
-0.880757
-0.016853
0.919017
1.146180
0.369575
-1.093834
-2.670824
-3.903003
-4.632360
-5.011275
-4.697441
-3.705562
-2.769379
-2.212425
-2.136078
-2.692404
-4.015949
-5.240619
-5.764092
-5.774729
-5.490619
-5.208074
-4.918645
-4.514071
-4.082588
-4.140785
-4.635158
-4.605119
-3.804733
-2.498082
-1.628859
-2.115097
-3.024056
-3.239326
-2.765289
-2.082239
-1.546874
-1.447998
-1.608513
-1.644807
-1.879790
-2.170156
-1.830664
-1.128839
-0.870387
-1.415136
-2.207386
-2.960523
-3.889507
-4.285005
-3.286869
-1.323139
0.607737
1.883724
1.773273
1.025142
1.070826
1.677530
1.910012
1.135911
-0.187321
-1.196094
-1.314680
-0.519300
0.005739
0.134966
0.797679
1.972288
3.318989
4.599356
5.409755
5.516454
5.830601
6.618785
7.027114
6.622854
5.387859
4.043350
2.934451
2.057720
1.510781
1.251704
1.405963
1.464475
1.265162
1.403150
2.076188
3.085275
3.941983
4.356883
4.384732
4.507074
4.715151
4.188862
2.903178
1.524876
0.951966
1.030191
0.665669
0.043948
-0.054300
0.578062
1.741719
2.824024
3.758643
4.868795
6.118186
6.919824
6.437967
5.427317
5.173560
5.488646
5.413866
4.777125
3.952335
3.333117
2.879107
1.938858
0.814940
0.626266
1.521147
2.743316
3.961417
5.126639
6.042797
6.368834
5.489287
3.615360
1.774287
0.477964
-0.259216
-0.691636
-0.808032
-0.717604
-0.239813
0.773968
1.594380
2.031496
2.799967
4.202676
5.337547
5.310639
4.122578
2.434198
1.232056
1.141630
1.366916
1.047451
