EVENT_NAME: 202302060117
EVENT_ID: 13194
EVENT_DATE_YYYYMMDD: 2023/02/06
EVENT_TIME_HHMMSS: 01:17:32.00000
EVENT_LATITUDE_DEGREE: 37.288
EVENT_LONGITUDE_DEGREE: 37.043
EVENT_DEPTH_KM: 8.6
HYPOCENTER_REFERENCE: AFAD
MAGNITUDE_W: 7.7
MAGNITUDE_W_REFERENCE: AFAD
MAGNITUDE_L: 
MAGNITUDE_L_REFERENCE: 
FOCAL_MECHANISM: 
NETWORK: TK
STATION_CODE: 2308
STATION_NAME: 
STATION_LATITUDE_DEGREE: 38.45063
STATION_LONGITUDE_DEGREE: 39.3102
STATION_ELEVATION_M: 1248.0
LOCATION: Kahramanmaras_Pazarck_Turkiye
SENSOR_DEPTH_M: 
VS30_M/S: 450
SITE_CLASSIFICATION_EC8: B
MORPHOLOGIC_CLASSIFICATION: 
EPICENTRAL_DISTANCE_KM: 237.30
EARTHQUAKE_BACKAZIMUTH_DEGREE: 
DATE_TIME_FIRST_SAMPLE_YYYYMMDD_HHMMSS: 2023/02/06 01:17:52.9113500
DATE_TIME_FIRST_SAMPLE_PRECISION: millisecond
SAMPLING_INTERVAL_S: 0.01
NDATA: 14501
DURATION_S: 
STREAM: HNE
UNITS: cm/s^2
INSTRUMENT: sensor = CMG-5T/GURALP | digitizer = 
INSTRUMENT_ANALOG/DIGITAL: 
INSTRUMENTAL_FREQUENCY_HZ: 
INSTRUMENTAL_DAMPING: 
FULL_SCALE_G: 
N_BIT_DIGITAL_CONVERTER: 
PGA_CM/S^2: 185.201
TIME_PGA_S: 
BASELINE_CORRECTION: BASELINE REMOVED
FILTER_TYPE: BUTTERWORTH
FILTER_ORDER: 
LOW_CUT_FREQUENCY_HZ: 
HIGH_CUT_FREQUENCY_HZ: 
LATE/NORMAL_TRIGGERED: 
DATABASE_VERSION: 
HEADER_FORMAT: DYNA 1.2
DATA_TYPE: Acceleration
PROCESSING: Automatic Paolucci et al., 2011
DATA_TIMESTAMP_YYYYMMDD_HHMMSS: 
DATA_LICENSE: U (unknown license)
DATA_CITATION: Turkish Accelerometric Archive v 1.0 - Disaster And Emergency Management Presidency, Earthquake Department
DATA_CREATOR: AFAD
ORIGINAL_DATA_MEDIATOR_CITATION: : AFAD - Disaster And Emergency Management Presidency
ORIGINAL_DATA_MEDIATOR: AFAD PROCESS SERVICE
ORIGINAL_DATA_CREATOR_CITATION: AFAD PROCESS SERVICE
ORIGINAL_DATA_CREATOR: network: TK
USER1: GuestUser
USER2: 
USER3: 
USER4: 
USER5: 
[...]
-2.630506
-1.980180
-1.313509
-0.865874
-0.454854
0.032338
0.596030
1.182279
1.574991
1.800647
1.857613
1.700118
1.089839
0.351407
-0.395851
-0.841362
-0.771974
-0.075226
1.033442
2.342185
4.564670
6.795327
8.936409
10.926781
12.665097
14.170319
15.726213
17.477933
19.304845
21.082391
22.573556
23.806453
24.540143
24.933509
25.116012
25.162516
25.169789
24.910295
24.401689
23.735506
22.951959
21.961799
20.675776
19.064467
17.188026
15.156952
13.091551
11.121283
9.287342
7.393574
5.434095
3.439636
1.403331
-0.579032
-2.317840
-3.672517
-4.567216
-5.152976
-5.579853
-5.912904
-6.191358
-6.384814
-6.410887
-6.287884
-6.066477
-5.855533
-5.739395
-5.728852
-5.823905
-6.040245
-6.465814
-7.178419
-8.067561
-9.040395
-9.904037
-10.573815
-11.057249
-11.402069
-11.832869
-12.390841
-13.279002
-14.354161
-15.150458
-15.384779
-14.959374
-13.920341
-12.428196
-10.793513
-9.155235
-7.634321
-6.432481
-5.748809
-5.233175
-4.646926
-3.633392
-2.166420
-0.259086
1.869246
4.053808
5.925508
7.269885
8.037248
8.407729
8.416964
8.238874
8.236667
8.339401
8.515692
8.606657
8.721160
8.923605
9.125069
9.127765
8.923521
8.495010
7.971365
7.401624
6.911651
6.602139
6.146820
5.619252
5.096588
4.518347
3.926048
3.298770
2.622780
1.908213
1.158339
0.351581
-0.222083
-0.384481
-0.293189
0.125350
0.684464
1.215791
1.660157
2.259156
2.667560
3.021696
3.180333
3.229453
3.293283
3.703322
4.485397
5.671544
6.953480
8.266799
9.200892
9.789756
9.763357
9.416249
8.643490
7.917481
6.927975
6.154890
4.516120
3.293519
3.108563
2.204710
1.629411
1.270861
1.137559
0.904219
0.776474
0.307098
-0.272124
-0.794135
-1.498567
-2.381824
-3.201005
-3.856399
-4.122758
-4.055004
-3.692696
-3.215638
-2.592120
-1.856795
-0.948530
0.442597
2.340123
3.901576
5.862198
7.633206
9.328041
10.745975
12.055045
13.189213
14.105978
14.770361
15.208842
15.564940
15.867749
16.148655
16.341619
16.370142
16.043630
15.214314
13.946271
12.510519
11.258495
10.404007
9.931688
9.649637
9.375432
8.938421
8.361815
7.729632
7.102680
6.631996
6.120120
5.409150
4.449720
3.321926
2.154902
1.060454
-0.061782
-1.198403
-2.326523
-3.495509
-4.742302
-5.894288
-6.874313
-7.694802
-8.375042
-8.887899
-9.216372
-9.392174
-9.413670
-9.321397
-9.259202
-9.364062
-9.676843
-10.106335
-10.457040
-10.489978
-10.163303
-9.564958
-8.935555
-8.486286
-8.328302
-8.541046
-9.079076
-9.906103
-10.751438
-11.489869
-11.924265
-12.095817
-11.973795
-11.503276
-10.706163
-9.645553
-8.473462
-7.316084
-6.367934
-5.643724
-5.097359
-4.525495
-3.764343
-3.316708
-2.882150
-2.265825
-1.421308
-0.500620
0.376915
1.162586
1.961006
2.790811
3.694499
4.685149
5.698029
6.638659
7.445580
8.065175
8.506598
8.917945
9.392714
10.033886
10.721807
11.377037
11.805383
11.891771
11.582586
10.997807
10.368566
9.954112
9.829964
9.903275
9.987375
10.012629
9.917249
9.635525
9.089322
8.425101
7.874322
7.657001
7.859446
8.444387
9.232019
10.083401
10.893263
11.650492
12.331875
12.847836
13.132991
13.198783
13.101115
12.976640
12.817511
12.555075
12.090929
11.481304
10.742872
9.830519
8.602034
7.145358
5.411781
3.476495
0.946213
-0.704326
-2.312039
-3.747465
-5.118160
-6.320165
-7.426055
-8.209928
-9.078474
-9.650504
-10.007746
-10.095607
-9.749971
-9.372624
-8.700068
-8.213529
-7.785837
-7.777256
-7.649676
-7.672479
-7.662263
-7.400319
-7.019376
-6.750893
-6.536679
-6.505541
-6.889591
-7.537466
-8.400127
-9.176809
-9.699146
-10.334271
-10.410035
-10.279513
-9.980954
-9.714433
-9.531930
-9.587426
-9.824362
-10.071432
-10.115812
-10.065385
-9.848556
-9.497036
-8.914383
-8.145058
-7.183178
-6.113087
-5.040380
-4.065096
-3.281387
-2.809887
-2.468501
-2.189884
-1.870729
-1.481286
-0.940479
-0.479440
-0.202457
-0.298818
-0.694964
-1.608952
-2.774995
-4.257171
-5.629174
-6.979273
-8.210701
-9.006017
-9.716987
-10.033692
-10.399107
-10.648139
-11.161323
-11.762448
-12.461650
-13.058198
-13.510248
-13.641915
-13.509432
-13.180796
-12.814237
-12.434928
-12.064120
-11.600139
-10.997870
-10.211546
-9.241820
-8.023307
-6.539662
-4.808211
-2.991761
-1.136734
0.674158
2.314398
3.700621
5.004133
6.289992
7.447044
8.500462
9.446323
10.125418
10.706763
11.572856
12.603063
13.917690
15.366355
16.684251
17.801092
18.614224
19.061205
19.161650
18.944003
18.585779
18.168710
17.725160
17.158035
16.637986
16.100283
15.431159
14.647285
14.022621
13.452881
12.827563
12.168246
11.535083
10.954880
10.559715
10.346317
10.288860
10.447171
10.668250
10.889329
11.194754
11.581582
12.214907
12.873079
13.472732
13.995231
14.571673
15.099403
15.596730
15.713522
16.075830
16.359024
16.269529
16.028670
15.644947
15.230166
14.581965
13.577747
12.349261
10.932143
9.231585
7.316241
4.993553
2.587175
0.085008
-2.261871
-4.326618
-6.059542
-7.139932
-8.198419
-9.163079
-10.320950
-11.620049
-12.849188
-14.187192
-15.137795
-15.849092
-16.294930
-16.682904
-17.024454
-17.431716
-17.803016
-18.291681
-18.795384
-19.265087
-19.624945
-19.955380
-20.321777
-20.538444
-20.473632
-20.159054
-19.643093
-18.973479
-18.196635
-17.366831
-16.530815
-15.783394
-15.291298
-15.014315
-14.697121
-14.239679
-13.808717
-13.473542
-13.043888
-12.596253
-12.129657
-11.665349
-11.189599
-10.903136
-10.509116
-10.235729
-9.920497
-9.645149
-9.425378
-9.141203
-8.832509
-8.445681
-7.895720
-7.050877
-6.018382
-4.943714
-3.881142
-2.751225
-1.485308
0.001606
1.583000
3.161126
4.627771
5.904802
6.999086
8.233618
9.562303
10.671951
11.391584
11.855238
12.102797
12.298377
12.645974
13.049475
13.636705
14.375952
15.106047
15.604027
15.539051
14.924195
13.859497
12.437475
10.770917
9.074282
7.566280
6.314256
5.322135
4.512107
3.706657
2.703093
1.560915
0.350737
-0.819229
-1.806448
-2.840088
-3.567732
-3.722611
-3.386782
-2.759015
-2.080247
-1.496940
-0.854461
-0.250885
0.229115
0.648308
1.148250
1.802172
2.541093
3.395089
4.292567
4.904969
5.185221
4.918208
4.330814
3.319077
1.777075
0.141901
-1.183679
-2.024110
-2.578813
-3.000459
-3.521815
-3.957192
-4.288281
-4.398372
-4.306754
-3.935291
-3.294119
-2.296604
-0.990150
0.481072
2.021601
3.650399
5.286389
6.740285
7.829010
8.531643
8.913894
9.116992
9.122304
9.329980
9.802788
10.122924
10.218792
10.173105
9.865227
9.336351
8.605438
7.751604
6.829770
6.175030
5.734749
5.237585
4.579902
3.785894
3.214845
2.821968
2.557898
2.671747
3.198497
4.132589
5.283103
6.480366
7.570726
8.359012
8.773628
8.763901
8.577311
8.343971
8.213284
8.009040
7.844353
7.738839
7.901399
8.035518
8.241886
8.456753
8.707582
8.905450
8.837859
8.671211
8.535947
8.355241
8.134978
7.939887
7.645413
7.294382
6.778910
6.170593
5.587448
5.220725
5.183864
5.425866
5.939866
6.452884
6.745559
6.677968
6.462608
6.176307
5.859603
5.321900
4.635122
4.242899
4.013482
4.060639
4.025740
3.880669
3.501849
2.773225
1.736969
0.676521
-0.150833
-0.621517
-0.753512
-0.666470
-0.487564
-0.396926
-0.435421
-0.590300
-0.815794
-1.059269
-1.329224
-1.628275
-1.948248
-2.266588
-2.677445
-3.225609
-3.878061
-4.645589
-5.437635
-6.259432
-6.844538
-7.077224
-6.782261
-6.050532
-5.116113
-4.027061
-2.857913
-1.841110
-0.969459
-0.381575
-0.043459
0.039333
0.128664
0.591010
1.374719
2.322215
3.331826
4.233880
4.846282
5.091227
4.992905
4.793565
4.619397
4.274251
3.799970
2.928809
1.713074
0.388147
-0.735070
-1.665731
-1.927186
-1.684203
-1.827313
-1.913212
-2.065148
-2.157586
-2.284677
-2.479440
-2.722588
-3.065446
-3.789166
-4.913364
-6.324270
-7.784542
-9.258871
-10.787469
-12.344836
-13.877684
-15.478532
-17.155551
-18.854802
-20.498802
-22.038189
-23.318654
-24.147970
-24.448982
-24.326633
-23.762614
-22.812176
-21.638451
-20.344747
-19.030446
-17.712223
-16.640170
-15.770154
-14.970426
-14.228563
-13.499450
-12.860567
-12.493354
-12.648233
-13.219936
-14.060366
-15.085507
-16.376107
-17.904051
-19.696474
-21.603973
-23.608239
-25.667756
-27.620043
-29.191467
-30.274473
-30.962886
-31.241994
-31.165087
-30.840047
-30.248894
-29.567184
-28.668727
-27.371426
-25.531765
-23.081743
-20.234187
-17.170536
-13.930348
-10.817332
-7.975988
-5.437371
-3.155713
-1.049612
0.826011
2.445001
3.779897
4.712028
5.059625
4.840343
4.074123
2.791369
1.330117
-0.165789
-1.779713
-3.316811
-4.772506
-5.935607
-6.851230
-7.470989
-7.733752
-7.612710
-7.091192
-5.904717
-4.225573
-2.246644
-0.053909
2.396440
4.911845
7.119292
8.770974
9.990468
10.815368
11.225734
11.277469
11.085648
10.725136
10.184164
9.476463
8.552013
7.579507
6.673692
6.153316
5.927495
5.890634
5.961330
6.321024
6.991945
7.866538
8.845091
9.805991
10.650507
11.230218
11.562777
11.600781
11.331806
10.823853
10.259016
9.694179
9.148304
8.536717
7.757420
6.694030
5.445602
4.158271
3.024920
2.090009
1.285540
0.517685
-0.127901
-0.632258
-1.088231
-1.676933
-2.440865
-3.340468
-4.283552
-5.127579
-5.756492
-6.440328
-7.115991
-7.799500
-8.515048
-9.249883
-9.902008
-10.256635
-10.352342
-10.547105
-10.917098
-11.187380
-11.582545
-12.406303
-12.749815
-13.132558
-13.510070
-13.647949
-13.640349
-12.821986
-11.953278
-11.083262
-10.720953
-10.068012
-9.839414
-9.729815
-9.253738
-8.620739
-7.876587
-6.884303
-5.327101
-3.499536
-1.638625
0.157556
2.071755
3.754168
4.969085
6.077426
7.178574
8.189820
9.216103
10.119138
10.923116
12.117110
13.476199
14.793115
16.176395
17.446561
18.696786
19.711300
20.795122
21.580465
22.383463
23.199864
23.735440
24.740801
25.736354
26.572697
27.006929
26.931818
26.591575
25.989469
25.891801
26.097842
26.685399
27.150361
27.583938
27.394078
26.668723
25.233298
23.230338
21.353897
19.466014
17.982858
16.891679
16.255900
15.515180
14.661673
13.571475
12.236740
10.762411
8.985027
7.345276
5.715006
4.395637
2.914442
1.402844
0.122052
-1.191759
-2.557878
-3.973362
-5.222770
-6.685657
-8.260024
-9.982158
-11.879195
-13.662791
-15.380676
-16.897505
-18.359084
-20.231275
-22.585347
-24.514749
-25.832157
-26.717049
-27.676478
-28.059548
-27.494222
-26.331285
-24.661949
-22.955344
-20.794974
-18.249819
-15.705318
-13.132701
-10.464297
-7.693894
-4.514513
-1.248826
1.860267
4.865726
7.363151
9.192678
10.941782
12.553907
13.756728
14.489437
14.890976
15.455648
15.716939
15.586906
15.395085
15.023457
14.732579
14.135704
13.227928
12.042269
10.636266
9.212610
8.050489
7.053137
6.212052
5.566466
4.946379
4.227563
3.591130
3.332290
3.275814
2.759688
2.245851
2.253451
1.120753
0.940048
0.127078
-0.880409
-1.520111
-3.025824
-3.429163
-3.236853
-4.319858
-6.535970
-7.553264
-8.804634
-9.944524
-11.937348
-13.195583
-14.844161
-17.794535
-19.931532
-21.916183
-23.917835
-24.999533
-26.426786
-27.814481
-28.994909
-30.624852
-31.604878
-32.373059
-33.610698
-33.504041
-34.590970
-35.692610
-34.222042
-34.589746
-33.170831
-32.933406
-31.765239
-30.753339
-28.965658
-27.454225
-25.744024
-23.620596
-22.457659
-20.144618
-18.569762
-16.331258
-13.706007
-11.368446
-9.980588
-7.230454
-5.635656
-2.888464
-1.702316
-0.463208
-0.183937
-0.103760
-0.158275
-1.134050
-1.226488
-2.232340
-2.551660
-3.057652
-4.261618
-4.567534
-5.389657
-6.271607
-6.338545
-7.140399
-6.221672
-5.885517
-7.041426
-5.787932
-4.653765
-4.181284
-2.912425
-3.645953
-2.144328
-1.143217
-1.683862
-0.489214
-0.783034
0.325307
0.969748
1.270268
1.573405
2.755629
5.180478
5.657863
7.633196
9.523857
11.226865
13.158718
14.595614
17.141750
20.321784
22.348117
25.190770
27.465235
29.634759
31.290691
33.370312
35.383568
36.609273
37.652230
36.970355
38.044042
36.160736
35.002865
34.855832
32.021842
30.061709
24.016054
21.315120
21.469181
19.207301
17.596646
15.814031
14.563969
12.203686
10.366148
8.054576
5.968579
3.971177
2.421003
3.534901
2.574817
-0.602766
-1.480793
-4.288630
-7.172312
-8.794082
-11.373402
-12.908212
-13.750931
-13.943733
-14.432070
-15.619691
-19.582864
-17.588242
-18.952399
-19.636562
-16.919774
-15.390360
-15.174838
-15.167892
-14.611065
-12.072122
-10.765994
-9.739710
-8.547678
-5.497431
-7.952521
-7.721961
-7.444652
-5.161033
-4.250479
-4.543972
-6.237338
-4.461753
-7.441877
-4.533840
-6.638144
-7.222270
-5.154091
-3.541966
-7.179854
-7.327868
-10.504144
-5.982102
-7.265509
-6.080669
-0.371580
7.826680
2.930804
8.828526
10.941493
-19.517913
-4.113349
-11.258764
-4.683336
7.737426
-30.538969
31.947013
-10.808189
-17.629299
1.761403
-2.205694
19.180856
-45.057584
-23.833186
46.595324
14.733431
-84.349804
-22.212318
42.113899
17.960458
-70.749270
31.593522
29.134509
4.775762
62.294518
22.674481
11.985904
38.036952
4.929820
-17.439944
26.666583
14.442789
-22.641002
-4.955843
-34.595659
-46.011960
-26.317549
-63.101880
-11.649129
-2.722164
-20.444756
-1.568954
-20.739476
-28.061101
-54.307158
-81.558168
-77.655313
-89.939914
-52.361004
-13.197512
-13.005529
19.391368
-5.732045
2.564945
25.656057
-36.656496
21.303603
-30.791057
-61.858534
-28.735220
-46.844233
-29.445129
-29.318857
-71.805985
-83.170959
-77.402697
-123.756965
-112.549077
-107.346387
-117.458930
-127.844451
-125.937444
-104.905276
-110.589357
-116.141036
-140.188227
-185.200814
-97.350071
-45.159460
-0.038827
-0.332321
1.977452
42.864141
32.871905
-3.394912
41.581876
129.737637
153.617934
153.641553
150.122665
163.420881
182.155127
144.682955
137.605867
138.758669
130.801838
116.672753
114.932965
128.479640
117.018224
116.693347
92.837076
80.933991
95.765790
132.830454
106.081921
94.757811
72.305991
51.875845
27.679578
13.080708
9.757318
15.797251
0.068545
-20.841847
-13.465464
2.256538
2.919287
-20.131452
-42.288064
-28.319007
-23.644293
-27.627409
-25.683787
-6.566717
3.190299
-12.125507
-35.014093
-29.776096
-8.901503
2.409365
17.388278
25.206984
30.962823
26.168291
22.957689
14.873359
17.752954
18.052167
-0.374612
-13.984874
-11.376624
-18.626653
-21.244876
-30.277928
-41.145003
-55.176012
-63.847164
-76.976200
-74.374160
-57.115959
-45.378461
-64.385850
-57.489059
-25.308910
-14.762382
-11.388484
-21.564449
-33.264517
-45.034545
-43.975897
-51.510346
-51.942781
-57.347672
-61.540343
-65.624804
-67.951414
-81.664003
-104.368533
-109.528888
-94.361996
-55.214523
-26.825995
-5.839922
26.435360
56.775929
87.101132
59.991679
36.491425
46.226210
43.993753
38.201134
49.037314
64.564472
74.321488
91.384191
108.099377
132.771148
138.535160
146.302540
153.121850
140.233101
133.879160
125.230566
125.298319
127.672495
112.109865
102.991486
103.304757
125.097015
133.653907
139.536264
139.743285
127.134706
108.156086
76.278501
42.151704
12.247083
-6.469020
-8.400057
-1.634361
-0.409310
4.468748
12.922006
19.108072
26.936912
34.969097
38.091593
37.754293
40.146776
38.984002
31.366841
25.554607
24.380391
23.398731
23.589079
19.856385
7.733283
-6.439283
-13.398680
-30.188242
-46.240272
-53.561897
-64.177243
-73.829155
-84.569058
-84.612131
-74.153871
-83.920205
-85.967953
-76.841893
-67.904466
-58.109527
-52.869895
-44.476464
-44.122001
-45.267775
-48.748741
-48.073243
-45.814143
-43.034586
-41.728785
-42.445967
-38.682707
-30.301698
-21.923959
-12.999936
-10.228225
-3.711316
0.635497
0.512002
8.112325
16.871254
22.324038
27.601919
29.937192
30.102694
31.091382
33.171003
37.261510
39.217228
41.287369
44.054176
41.558875
35.749583
28.019635
17.700478
9.590649
-0.261993
-8.877568
-8.357683
-8.922847
-12.502216
-11.020205
-13.452738
-12.937430
-8.392504
-5.961117
-5.457579
-5.518632
-3.432473
-2.053115
0.158582
1.517016
5.513044
8.874519
6.100355
0.757905
-3.785551
-7.291363
-8.547310
-8.078425
-6.018419
-4.448467
-0.190577
0.423461
-10.288000
-23.252595
-33.208216
-47.272571
-56.289605
-55.221475
-51.188179
-49.040559
-45.948793
-48.114885
-52.241191
-52.065227
-56.645626
-64.225191
-67.854905
-68.628317
-67.767782
-62.941377
-57.018482
-52.375479
-52.472494
-53.676460
-54.298835
-54.909768
-53.552314
-52.465877
-51.082923
-48.733593
-51.604525
-49.974420
-46.271967
-45.874351
-49.123530
-47.382272
-38.213058
-34.503086
-29.432472
-23.668460
-17.974736
-9.544036
-3.084991
0.265369
5.449097
13.010844
16.491318
18.026289
20.602502
24.052572
24.756186
25.718066
25.681206
26.620529
27.225412
27.291204
27.493649
26.589142
27.716117
26.541574
26.864979
24.943096
24.450508
22.577009
19.154562
16.425840
12.065786
5.719691
1.440059
-2.519845
-6.148905
-6.825549
-5.620113
-2.007563
-0.828281
-1.505905
1.013423
5.406332
8.624943
12.941352
12.767184
10.969531
9.832257
10.322064
12.438954
13.868984
16.109450
16.621815
13.999342
10.104495
1.014232
-7.984821
-11.245115
-16.098492
-19.022386
-21.058691
-22.967170
-19.549465
-18.480681
-19.415592
-21.698395
-24.433002
-23.884675
-24.568185
-22.187143
-18.749169
-14.034898
-7.777563
-4.631529
-4.465045
-7.126095
-9.165342
-13.887297
-17.575203
-19.096936
-19.870348
-15.976974
-10.140712
-3.304402
2.702839
4.725248
5.733552
7.041968
8.381441
9.406417
10.117877
11.946096
16.060795
22.942874
27.670549
29.358192
29.701540
28.380536
26.024830
23.079033
20.051505
18.709906
17.127366
14.947216
13.701731
14.893110
19.263461
23.743003
26.126333
27.231077
28.194919
27.737639
27.601721
28.038241
29.185485
32.093849
36.613602
41.152971
44.780886
47.508463
45.984115
44.323441
42.157675
37.489662
31.778120
29.073263
27.031073
23.313417
21.860011
21.562595
22.655243
23.990140
22.685809
21.445555
17.725937
12.081413
6.627484
3.140634
2.029513
1.604598
0.974703
-0.007284
-3.094638
-8.320377
-13.248618
-18.659721
-23.021083
-26.462818
-26.617371
-25.256647
-25.720139
-25.061968
-23.935319
-22.869805
-21.656850
-19.136541
-13.683757
-7.790938
-2.196271
3.838104
8.625279
12.672959
14.351122
13.402481
12.283514
11.550966
11.083879
7.563356
5.625126
4.590505
2.891908
0.955968
-1.107472
-3.654426
-5.725058
-7.222272
-9.325595
-10.949981
-11.776027
-12.611554
-14.045999
-16.150631
-17.392193
-19.901878
-24.066434
-27.716745
-31.490958
-33.040806
-31.484911
-29.302310
-25.524666
-20.080382
-15.013037
-11.895444
-10.702431
-8.141257
-5.637620
-4.930738
-5.001598
-3.709201
-1.775060
0.016544
0.247104
1.345637
1.677215
-1.275447
-4.440608
-7.806825
-11.229926
-15.161387
-17.783534
-18.246372
-18.935438
-18.183441
-16.391183
-15.151093
-14.480499
-14.333303
-13.209924
-12.134276
-12.308443
-10.916009
-8.781792
-8.014429
-6.367978
-4.712372
-3.704723
-2.705901
-1.365120
-0.248606
-0.924923
-2.973324
-7.350378
-11.362262
-13.788256
-16.267865
-16.710107
-16.281761
-13.286109
-8.730721
-5.469611
-3.968312
-1.768058
0.398197
1.934476
2.603436
2.200098
3.162305
3.957130
5.174335
5.113282
5.229093
7.787325
9.786850
10.995555
11.481440
12.530935
14.601729
17.340421
21.180507
25.541705
27.113291
28.849319
30.114254
29.904126
29.364462
27.395829
24.374840
