EVENT_NAME: 202302060117
EVENT_ID: 13194
EVENT_DATE_YYYYMMDD: 2023/02/06
EVENT_TIME_HHMMSS: 01:17:32.00000
EVENT_LATITUDE_DEGREE: 37.288
EVENT_LONGITUDE_DEGREE: 37.043
EVENT_DEPTH_KM: 8.6
HYPOCENTER_REFERENCE: AFAD
MAGNITUDE_W: 7.7
MAGNITUDE_W_REFERENCE: AFAD
MAGNITUDE_L: 
MAGNITUDE_L_REFERENCE: 
FOCAL_MECHANISM: 
NETWORK: TK
STATION_CODE: 3126
STATION_NAME: 
STATION_LATITUDE_DEGREE: 36.2202
STATION_LONGITUDE_DEGREE: 36.1375
STATION_ELEVATION_M: 123.0
LOCATION: Kahramanmaras_Pazarck_Turkiye
SENSOR_DEPTH_M: 
VS30_M/S: 350
SITE_CLASSIFICATION_EC8: C
MORPHOLOGIC_CLASSIFICATION: 
EPICENTRAL_DISTANCE_KM: 143.54
EARTHQUAKE_BACKAZIMUTH_DEGREE: 
DATE_TIME_FIRST_SAMPLE_YYYYMMDD_HHMMSS: 2023/02/06 01:17:36.7762850
DATE_TIME_FIRST_SAMPLE_PRECISION: millisecond
SAMPLING_INTERVAL_S: 0.01
NDATA: 12501
DURATION_S: 
STREAM: HNN
UNITS: cm/s^2
INSTRUMENT: sensor = GMS+/GEOSIG | digitizer = 
INSTRUMENT_ANALOG/DIGITAL: 
INSTRUMENTAL_FREQUENCY_HZ: 
INSTRUMENTAL_DAMPING: 
FULL_SCALE_G: 
N_BIT_DIGITAL_CONVERTER: 
PGA_CM/S^2: 1211.040
TIME_PGA_S: 
BASELINE_CORRECTION: BASELINE REMOVED
FILTER_TYPE: BUTTERWORTH
FILTER_ORDER: 
LOW_CUT_FREQUENCY_HZ: 
HIGH_CUT_FREQUENCY_HZ: 
LATE/NORMAL_TRIGGERED: 
DATABASE_VERSION: 
HEADER_FORMAT: DYNA 1.2
DATA_TYPE: Acceleration
PROCESSING: Automatic Paolucci et al., 2011
DATA_TIMESTAMP_YYYYMMDD_HHMMSS: 
DATA_LICENSE: U (unknown license)
DATA_CITATION: Turkish Accelerometric Archive v 1.0 - Disaster And Emergency Management Presidency, Earthquake Department
DATA_CREATOR: AFAD
ORIGINAL_DATA_MEDIATOR_CITATION: : AFAD - Disaster And Emergency Management Presidency
ORIGINAL_DATA_MEDIATOR: AFAD PROCESS SERVICE
ORIGINAL_DATA_CREATOR_CITATION: AFAD PROCESS SERVICE
ORIGINAL_DATA_CREATOR: network: TK
USER1: GuestUser
USER2: 
USER3: 
USER4: 
USER5: 
[...]
10.926094
4.315991
-8.363590
-26.818331
-43.793174
-50.703049
-43.576884
-25.342003
-2.668209
19.352789
35.075714
39.547830
32.682376
19.207126
5.593420
-3.117426
-5.115869
-0.868972
9.447663
24.152557
37.633165
43.664928
39.575873
26.318049
7.421183
-12.825697
-28.031780
-34.632012
-36.417185
-33.683436
-26.065530
-16.951881
-6.353398
4.730851
9.374933
0.897099
-18.360325
-41.260734
-63.562378
-80.885830
-86.816640
-77.903011
-57.398539
-30.605084
-1.039646
23.787884
33.792278
27.981481
15.460619
3.608659
-9.731771
-27.623076
-45.233571
-54.312768
-49.870005
-33.142298
-9.900651
11.403647
23.522552
26.727780
25.582155
19.127653
2.328413
-21.390525
-41.441799
-50.434494
-45.777423
-29.815252
-9.093613
8.658099
19.251906
24.545149
27.552953
28.937728
28.589850
26.368786
25.886868
32.812752
42.668039
45.455041
38.287995
24.850932
11.962758
6.386271
9.981671
17.139268
22.268856
23.200596
16.462167
1.276346
-14.293153
-19.038642
-11.853509
-0.022168
12.263248
23.036555
28.690875
27.279767
21.757312
17.563311
15.057022
8.931905
-3.334384
-19.271195
-34.953433
-44.957923
-42.999321
-26.746470
-0.607111
24.835550
40.643419
45.552984
41.435874
31.096023
19.576566
12.776833
12.593648
17.601406
24.786278
27.494310
24.342758
21.419541
21.425467
20.660402
17.222585
14.447696
13.382859
14.925572
15.864325
6.062194
-13.457856
-29.474674
-32.015253
-20.599021
-1.084783
15.931006
18.963749
9.623225
0.438562
-5.780330
-18.817871
-38.379483
-48.955723
-43.403491
-27.615365
-6.587200
14.366412
26.146319
26.730749
19.748398
5.695684
-15.520130
-42.735544
-71.056011
-94.105527
-107.201515
-102.983192
-74.185628
-27.307178
19.468924
53.191168
67.880476
59.717480
31.216475
-2.128943
-23.485811
-29.510917
-18.466672
10.872248
44.927515
68.060579
76.377521
70.320983
50.892112
22.362013
-8.223630
-39.128009
-70.787273
-92.826032
-94.676667
-82.341376
-69.463169
-57.652350
-40.808526
-14.606304
21.312798
54.373413
69.615507
59.202921
22.401551
-24.087084
-58.360912
-67.790796
-47.287622
-10.787160
19.643305
37.524641
47.151592
53.909666
59.650749
66.967064
74.142845
72.623154
62.263301
46.831739
26.073896
-0.565613
-29.662786
-52.115095
-58.915089
-47.580423
-21.164931
12.234161
35.681545
37.426877
23.799144
7.406960
-4.613069
-9.389730
-3.276920
12.769676
30.290194
44.222799
54.773224
54.890591
35.940473
7.857694
-17.805348
-44.758656
-74.627080
-98.629425
-106.697865
-98.142716
-71.838405
-23.096899
35.212119
74.058286
80.952478
66.883659
42.453476
16.578205
0.912592
-2.161030
-1.843642
-2.492851
-2.188971
-5.011917
-18.750312
-41.815154
-62.882900
-69.652241
-53.849048
-26.292655
-1.910886
17.821037
29.284027
29.624794
15.694172
-11.882320
-35.713997
-43.439024
-35.028047
-16.182971
-3.883788
-6.444629
-10.859433
-6.171709
1.326703
-1.251542
-11.178881
-11.625211
-3.297879
-0.049789
-3.291481
-11.083268
-25.553169
-41.324248
-46.412371
-38.344287
-22.155858
1.093582
30.059476
53.672851
50.096578
18.586420
-8.202195
-11.050339
0.987258
13.039662
22.598554
35.696004
46.972481
49.994573
35.318676
-3.111179
-49.416159
-75.738231
-56.734957
-5.212116
38.174794
54.639096
46.117881
22.069817
-0.617842
-9.298815
-7.779741
-7.930195
-9.684975
-5.393398
2.002147
12.648687
29.350936
47.670501
62.260578
63.994740
53.347584
41.318203
36.844431
39.329842
38.313582
26.176137
4.236090
-15.227070
-25.389759
-29.797550
-32.992224
-35.192247
-28.357022
-14.136855
-4.498994
-2.379076
-3.579772
-8.509696
-16.034701
-15.228430
0.989353
21.745281
29.597238
16.735300
-9.181534
-30.042246
-35.443389
-24.733465
-5.529910
11.534196
25.151182
34.690591
38.002844
35.297053
23.432884
-1.323827
-29.939910
-45.142097
-41.195491
-22.345480
-2.594074
1.615417
-7.319349
-16.879637
-19.602313
-13.427158
1.677000
19.204272
25.932213
24.991545
29.928646
36.634247
35.450696
26.346301
14.819051
7.562646
10.037146
20.025175
25.177883
21.008559
11.931960
6.176493
13.215377
27.938974
36.622967
32.616778
20.647663
9.308745
3.297147
5.980761
13.673999
13.558095
2.783652
-8.931930
-17.715511
-20.571448
-13.712064
-4.657122
0.294266
4.351013
9.232523
10.436499
4.828321
-4.629098
-14.330179
-18.985529
-13.669946
-0.483136
14.077587
25.123651
31.176714
26.816981
6.615301
-20.455942
-44.958081
-67.339993
-80.320125
-77.386354
-64.128108
-43.844438
-19.999349
-5.617087
-13.322371
-34.302836
-48.335287
-55.384398
-63.063706
-71.420748
-81.696436
-91.466616
-94.625962
-93.155724
-94.279788
-98.634586
-102.947561
-98.449208
-72.954334
-35.570141
-12.309011
-7.187475
-5.572806
-2.754892
3.295314
14.951572
29.862982
43.918197
51.723655
49.257889
28.922948
-8.391464
-40.407129
-42.712098
-16.880824
10.136550
22.502494
23.314740
26.460741
45.715730
70.706914
85.182953
83.201655
70.087482
58.816364
46.492925
30.603132
19.867655
14.614580
18.977853
39.616366
63.687193
73.848487
65.362080
46.604450
35.527897
36.323258
40.904217
47.408238
51.745015
51.841860
53.024275
52.137379
39.844593
18.096255
1.486385
0.564940
11.672828
27.263531
44.731577
53.321274
40.592338
16.585837
-6.521348
-21.737302
-17.343636
3.286045
26.102453
44.370843
53.216152
46.404989
29.940590
19.423577
22.412159
35.964723
51.378004
61.116136
65.795806
69.455888
73.093889
71.072587
55.388271
31.667514
16.465587
17.387196
18.418426
-2.111601
-40.780962
-72.215787
-76.315233
-59.913794
-42.088308
-26.830108
-4.949385
26.464302
61.790094
84.385179
74.634222
33.560189
-21.015022
-64.780770
-85.512896
-82.279354
-58.330358
-33.236565
-22.436762
-21.962994
-19.281718
-8.942483
6.918638
24.755035
32.689338
20.299918
-8.257198
-38.397339
-58.981917
-67.851222
-64.309854
-51.130317
-37.342923
-30.428469
-38.628871
-64.947306
-91.528627
-95.471173
-73.064680
-43.623671
-27.205607
-26.172818
-39.987584
-60.329539
-65.725747
-54.652927
-43.415935
-39.959771
-43.507990
-51.769957
-59.486931
-51.802525
-24.303541
6.499951
24.808346
28.349974
21.744806
10.714492
5.148397
7.273510
10.006480
12.959473
22.098839
39.356993
61.319803
77.349773
76.470670
64.645726
51.790283
40.912193
36.152676
37.403411
38.426588
34.972406
28.749357
19.340514
3.783485
-6.611177
2.369211
24.064980
49.105780
78.771228
105.715348
121.042127
128.783942
130.562005
120.821439
93.319241
52.991002
18.107238
2.213549
14.976419
54.316144
97.040646
125.280488
138.959558
137.208674
116.466677
84.494133
50.537481
18.440248
-2.264862
0.312247
23.900425
46.008445
46.838355
29.456456
9.528052
-2.004913
-6.635844
-6.525491
-0.202529
0.188114
-12.546278
-22.811835
-25.333191
-31.212047
-40.921701
-39.653043
-28.325131
-29.435947
-45.171957
-59.403911
-65.659950
-62.889574
-45.655059
-19.814174
-8.895657
-19.229793
-27.243162
-19.048312
-10.744359
-17.250035
-32.711990
-44.950484
-47.654457
-40.940544
-32.631915
-33.368406
-41.236045
-38.670106
-17.016939
8.113481
19.072262
11.933271
-9.742332
-39.662709
-67.693535
-78.950107
-65.756283
-40.884592
-22.125499
-15.433147
-25.505956
-48.907198
-70.055472
-78.916984
-77.555848
-76.199648
-71.187994
-52.298498
-22.339252
8.040038
26.488448
25.665715
5.765365
-23.615474
-51.655392
-62.074212
-52.819509
-44.385932
-45.026308
-55.968301
-72.782867
-79.582860
-68.023756
-53.925160
-47.554140
-39.673349
-30.772709
-31.773644
-51.703607
-61.624452
-45.814505
-45.603102
-58.909243
-52.703955
-30.833103
-12.960079
-2.143131
13.824755
18.460265
10.239341
19.842653
47.385798
80.396018
99.779073
85.564264
41.314828
-7.999044
-29.628928
-18.856401
-2.644852
-4.503021
-18.756535
-30.886966
-25.579177
-1.310407
18.915855
29.805018
34.489884
36.791380
35.062316
28.351683
35.537854
36.663640
14.361217
-1.539226
-3.049046
0.838333
9.709099
29.026433
48.266096
47.194245
30.986496
16.262282
14.786493
21.229987
25.334532
31.687108
36.755392
21.785438
-17.400602
-71.201964
-113.686277
-126.327152
-100.445224
-13.474192
86.095064
136.064493
143.844494
126.472986
117.835394
125.295361
103.629369
54.264583
7.710746
-47.482193
-111.092392
-138.434054
-118.698494
-103.871769
-97.867541
-63.612773
-11.103593
41.734453
90.607661
125.448207
104.800765
24.382542
-29.039819
-29.995294
-35.696729
-50.168188
-29.102617
28.231233
78.047658
117.630007
156.152243
150.567444
82.987991
11.560856
5.674466
54.323755
93.324743
123.770794
150.029905
118.465716
37.089989
-47.102921
-122.661406
-116.562103
-23.873839
54.938661
124.250929
151.036590
119.979209
83.575024
36.072774
-15.870988
-56.961906
-62.823098
-78.864335
-68.780712
-50.014347
-124.864704
-220.035147
-303.456806
-205.690599
21.527316
85.523693
71.804522
56.017857
67.230951
39.096738
-80.300701
-126.535024
-118.934003
10.266461
229.646918
265.546537
129.047017
-55.377866
-153.268079
-127.710081
-78.564636
-13.714922
34.777727
20.459530
-39.312078
-73.576295
-73.563095
-125.825333
-191.808252
-162.103838
-5.351869
131.683975
44.074597
-132.862476
-212.948715
-249.125863
-203.919539
-53.942577
118.706930
234.255810
252.081296
242.344886
212.267089
155.362020
142.209922
170.503796
185.721991
125.942330
10.293342
-85.764208
-164.890345
-243.929720
-347.678739
-411.561694
-357.105294
-270.996952
-208.264346
-189.538763
-121.758087
46.896708
75.528021
-1.086680
-12.975787
-2.100911
83.626092
132.769719
21.401966
-92.821415
-220.947056
-271.342861
-74.424016
88.566280
118.050410
111.907370
108.875310
209.726522
305.319510
360.244272
370.952637
266.080901
146.117428
122.363162
218.261118
313.733574
310.476296
235.801282
187.968867
235.269700
174.718528
-40.766805
-187.946683
-309.904655
-374.209993
-192.029601
67.219517
215.618130
272.963149
291.748738
335.157728
295.320710
148.638547
111.669627
111.310319
-21.249300
-175.003385
-254.645940
-206.248367
-136.150561
-161.951019
-111.126694
61.997928
208.380741
256.685317
233.261216
184.115674
128.078489
35.142570
-24.538380
24.892031
52.108387
40.920394
12.326392
-32.817425
-75.651645
-138.554756
-153.145969
-233.546008
-362.937238
-447.739564
-511.148183
-456.823226
-396.591925
-323.657972
-277.587400
-318.105530
-305.309150
-324.146010
-243.753861
-30.586533
106.832988
188.456957
222.624963
231.372599
249.726973
223.851961
131.415056
-0.446307
-131.452255
-215.078092
-222.127722
-109.919717
27.695928
62.891316
89.523195
187.655415
318.292396
390.662392
369.251232
285.858147
200.523297
151.390484
94.718426
49.027798
51.794538
122.705937
228.814851
302.024677
289.086367
180.813750
78.794006
17.994755
-26.263513
-53.680766
-29.374070
39.880010
94.667094
144.012041
144.497759
101.711336
59.973076
19.525604
28.104911
65.528068
186.907699
322.132701
298.005408
232.741526
179.089790
152.728233
175.316824
178.043560
201.224421
233.179984
264.372868
304.348505
333.291279
352.729145
299.554603
199.581570
101.938656
18.539337
-1.199437
20.657647
55.717177
82.369577
89.614976
90.953511
67.678517
10.059605
-19.146670
22.342375
82.246628
163.528742
272.494584
379.351889
452.284802
465.403813
433.958338
375.051497
338.807589
294.954559
204.865176
99.058276
-35.265168
-203.451439
-410.829416
-605.116648
-751.282392
-897.856751
-1002.141411
-975.492648
-829.214521
-625.842782
-481.935297
-499.571249
-514.563804
-367.952654
-164.631050
-14.021813
95.139114
202.994448
280.198985
324.547296
343.905673
284.618271
173.669005
83.097234
22.155630
-37.359847
-103.991147
-169.925230
-238.441925
-306.363233
-363.981106
-403.045054
-435.914577
-445.545521
-404.478599
-347.498813
-290.148338
-239.658594
-206.069351
-181.955923
-180.908587
-210.016930
-299.175304
-412.489757
-454.198403
-465.637332
-470.695062
-441.880873
-413.090063
-357.420287
-286.185996
-224.821587
-151.101058
-113.531131
-124.876284
-141.359646
-131.588264
-109.206968
-102.392784
-117.626403
-147.555613
-200.135546
-253.151890
-228.767263
-199.972817
-198.325936
-138.444023
-44.660058
40.876535
111.524010
209.145007
299.183378
361.752071
442.689993
441.585671
343.966136
228.344424
106.298651
-28.477049
-158.034271
-222.235961
-258.059565
-200.270602
-118.404010
-217.155614
-326.051934
-449.601503
-530.495361
-536.504361
-533.108464
-480.892562
-481.852453
-403.699243
-500.996926
-198.959095
330.267606
57.291474
71.264862
359.314190
402.358726
469.582979
416.445584
335.625500
209.767373
120.143755
-72.269771
-275.458991
-214.118221
-53.208146
119.350701
205.392023
166.095582
155.407123
211.931796
315.682017
407.112225
238.954788
-106.852216
-427.800470
-679.306003
-798.949182
-834.588351
-799.149820
-683.634969
-460.262918
-202.682549
-1.189451
158.645963
264.027787
360.545030
453.115619
506.595551
496.921486
420.424460
373.879455
318.897967
173.837276
83.560860
-21.781056
58.780982
371.052630
397.885309
377.943916
295.973061
-48.009074
-375.428926
-702.756040
-883.017103
-839.099488
-631.723686
-254.055723
161.343791
586.718653
939.216403
1083.002056
1126.465598
1141.752112
1100.462732
1064.513660
984.742519
859.004925
771.328527
648.590992
416.372967
129.457689
-140.421749
-455.991508
-825.558185
-1143.576776
-1211.039593
-935.397560
-567.764172
-273.095697
-75.438073
52.809043
221.689836
489.225032
834.805422
1051.319340
1006.925473
845.061434
683.890715
538.594415
353.064479
103.562016
-125.959878
-337.018766
-604.610168
-827.642020
-756.628272
-445.800934
-188.858814
-32.752888
86.009581
184.087510
299.643664
444.082374
592.052629
620.795901
557.058676
520.446157
527.400875
576.760109
597.849579
514.418828
282.117677
167.061740
165.053166
84.410504
95.869858
78.696552
8.078593
-16.694742
-29.557979
10.613783
74.140500
113.129019
102.968668
75.687273
54.377942
40.085982
27.042727
11.523623
-5.303672
4.653704
78.331372
171.664899
283.354148
358.269350
337.022623
282.833168
205.135235
128.042041
97.239492
115.094852
158.791924
179.774110
161.502246
111.245417
51.461080
19.591404
23.835704
59.906250
112.425301
118.002210
51.228038
-45.963140
-161.702007
-296.328860
-415.606286
-513.327910
-569.139357
-578.041911
-611.896734
-602.462531
-483.334049
-389.182252
-350.550135
-311.549406
-294.956259
-289.830307
-223.702794
-78.219817
67.646058
194.378987
310.759904
396.157521
414.549042
332.891726
202.311798
79.503606
-26.449024
-152.164279
-262.556343
-339.671617
-375.969556
-273.433750
-138.827776
-49.725088
58.986960
152.323345
228.772996
284.422251
271.580315
145.290974
-35.163876
-190.812708
-386.578020
-571.462173
-669.241725
-686.724934
-590.679169
-481.442909
-416.034174
-364.953458
-376.473175
-371.823637
-311.657798
-260.286661
-182.077082
-78.954980
11.599810
93.411072
165.580008
224.664433
271.883439
318.910477
376.451102
433.213202
484.076233
489.490787
430.635899
368.592880
314.627604
290.160535
249.420564
151.510348
58.077752
-96.378745
-285.367750
-435.679910
-559.444047
-528.783428
-304.067597
-92.969061
27.247589
166.340794
285.015202
332.702830
335.277341
286.723811
205.079483
110.740817
33.419807
-51.523833
-180.913504
-308.984334
-405.079291
-404.224703
-239.615533
-35.681137
158.229595
433.442491
741.905422
857.421831
578.190748
161.462425
-133.577355
-404.080236
-633.936971
-781.870695
-818.488409
-739.427831
-656.121865
-610.147666
-580.299341
-509.207663
-380.205662
-255.589322
-129.108109
-4.988706
86.497872
177.140203
264.538294
324.622306
307.923077
215.369795
133.639485
79.809808
50.381691
7.156260
-73.681748
-128.229683
-142.182127
-147.077761
-145.434518
-113.476877
-58.285334
15.391555
105.054042
195.463102
292.569499
377.095855
448.641867
489.767497
453.389029
336.863065
164.228528
-13.080532
-168.953544
-316.873500
-446.868431
-534.478069
-572.627375
-504.593165
-335.438057
-183.423735
-50.271681
79.480010
191.738930
296.302744
364.747907
398.049846
338.101596
172.999030
21.774046
-101.065578
-236.283143
-349.986469
-392.265305
-355.521181
-278.571476
-235.244313
-247.932466
-263.432087
-255.883279
-227.291971
-198.912374
-185.822197
-161.835275
-131.982534
-125.843487
-136.050856
-162.132903
-218.155281
-276.874310
-296.061077
-253.933782
-149.325028
-7.229424
146.552878
296.812468
363.243650
312.662890
270.002974
279.913592
299.225989
309.883959
257.713420
154.777215
71.653509
0.068694
-71.527810
-138.893214
-211.057830
-297.244719
-404.692054
-496.101578
-574.759613
-521.883641
-259.283256
-13.782095
182.606043
402.843475
560.486188
626.150016
619.588489
569.436607
494.734317
417.123406
337.299013
271.230370
240.725775
202.346574
140.818155
57.375974
-31.867344
-139.205577
-259.534024
-331.565379
-350.949050
-252.003497
-62.322046
106.051940
264.874000
392.309600
442.469699
356.668825
164.326475
-12.050278
-173.995884
-350.361987
-497.156889
-561.730308
-555.184984
-539.358931
-551.164912
-571.823784
-573.181899
-526.255651
-402.344062
-269.775967
-150.715024
-8.883605
120.920300
286.218634
496.604107
659.001353
667.819906
463.144555
198.150572
-30.325496
-224.588570
-326.356859
-302.053280
-137.350334
61.897590
270.505990
502.640533
642.385237
656.404603
493.427719
213.977131
1.364571
-129.962969
-221.945021
-299.284734
-351.892982
-366.001286
-365.834304
-315.595236
-206.686543
-79.053000
39.815455
158.242304
324.763885
511.762192
631.741155
557.313180
334.284965
156.337655
48.909283
-1.591208
-30.184172
-73.872509
-126.211118
-197.812298
-284.198429
-388.349049
-493.625244
-564.569730
-594.244887
-551.923286
-376.136822
-149.180233
19.755891
141.364377
208.147805
190.743565
92.331738
-18.857554
-96.890847
-145.967291
-130.778969
-36.531318
95.928974
205.626322
271.622133
315.646773
352.229581
406.095529
479.958411
558.154483
608.916463
545.673316
364.863883
183.602713
35.777572
-100.909760
-208.085118
-311.822447
-416.303752
-501.360391
-489.674260
-314.320050
-121.621395
7.846370
126.656637
238.215481
328.404778
374.770706
353.694387
251.632041
110.489430
-15.633660
-125.639449
-237.616877
-337.979042
-382.094438
-351.057934
-276.256770
-199.173804
-132.717165
-65.524863
6.165840
75.756839
162.036628
256.127119
333.121764
362.459385
303.122888
203.029583
116.347317
50.025920
26.340752
48.108476
86.760596
120.394519
132.936845
108.273131
51.661859
-25.636551
-112.083987
-197.158290
-276.141295
-341.373225
-375.031923
-356.964593
-262.298716
-99.727165
55.263058
202.200476
371.594570
513.092967
593.665915
570.564705
431.220467
254.335867
115.132423
34.326627
-26.723300
-95.784469
-151.057157
-168.467111
-157.370913
-135.264971
-104.491092
-76.322686
-34.375151
22.135754
25.025364
-11.958103
-47.255937
-112.925056
-191.488017
-263.712640
-317.839231
-331.175765
-334.444733
-325.884909
-289.814622
-241.059349
-171.057916
-104.980538
-64.355481
