EVENT_NAME: 202302060117
EVENT_ID: 13194
EVENT_DATE_YYYYMMDD: 2023/02/06
EVENT_TIME_HHMMSS: 01:17:32.00000
EVENT_LATITUDE_DEGREE: 37.288
EVENT_LONGITUDE_DEGREE: 37.043
EVENT_DEPTH_KM: 8.6
HYPOCENTER_REFERENCE: AFAD
MAGNITUDE_W: 7.7
MAGNITUDE_W_REFERENCE: AFAD
MAGNITUDE_L: 
MAGNITUDE_L_REFERENCE: 
FOCAL_MECHANISM: 
NETWORK: TK
STATION_CODE: 4702
STATION_NAME: 
STATION_LATITUDE_DEGREE: 37.41714
STATION_LONGITUDE_DEGREE: 41.35743
STATION_ELEVATION_M: 933.0
LOCATION: Kahramanmaras_Pazarck_Turkiye
SENSOR_DEPTH_M: 
VS30_M/S: None
SITE_CLASSIFICATION_EC8: unknown
MORPHOLOGIC_CLASSIFICATION: 
EPICENTRAL_DISTANCE_KM: 381.59
EARTHQUAKE_BACKAZIMUTH_DEGREE: 
DATE_TIME_FIRST_SAMPLE_YYYYMMDD_HHMMSS: 2023/02/06 01:18:00.6831720
DATE_TIME_FIRST_SAMPLE_PRECISION: millisecond
SAMPLING_INTERVAL_S: 0.01
NDATA: 21001
DURATION_S: 
STREAM: HNN
UNITS: cm/s^2
INSTRUMENT: sensor = CMG-5T/GURALP | digitizer = 
INSTRUMENT_ANALOG/DIGITAL: 
INSTRUMENTAL_FREQUENCY_HZ: 
INSTRUMENTAL_DAMPING: 
FULL_SCALE_G: 
N_BIT_DIGITAL_CONVERTER: 
PGA_CM/S^2: 0.382
TIME_PGA_S: 
BASELINE_CORRECTION: BASELINE REMOVED
FILTER_TYPE: BUTTERWORTH
FILTER_ORDER: 
LOW_CUT_FREQUENCY_HZ: 
HIGH_CUT_FREQUENCY_HZ: 
LATE/NORMAL_TRIGGERED: 
DATABASE_VERSION: 
HEADER_FORMAT: DYNA 1.2
DATA_TYPE: Acceleration
PROCESSING: Automatic Paolucci et al., 2011
DATA_TIMESTAMP_YYYYMMDD_HHMMSS: 
DATA_LICENSE: U (unknown license)
DATA_CITATION: Turkish Accelerometric Archive v 1.0 - Disaster And Emergency Management Presidency, Earthquake Department
DATA_CREATOR: AFAD
ORIGINAL_DATA_MEDIATOR_CITATION: : AFAD - Disaster And Emergency Management Presidency
ORIGINAL_DATA_MEDIATOR: AFAD PROCESS SERVICE
ORIGINAL_DATA_CREATOR_CITATION: AFAD PROCESS SERVICE
ORIGINAL_DATA_CREATOR: network: TK
USER1: GuestUser
USER2: 
USER3: 
USER4: 
USER5: 
[...]
-0.171726
-0.210039
-0.223227
-0.238928
-0.231703
-0.201866
-0.171401
-0.147845
-0.127744
-0.117693
-0.124600
-0.148466
-0.176101
-0.183636
-0.182064
-0.170128
-0.128672
-0.096636
-0.059576
-0.032252
-0.014977
-0.010893
-0.032560
-0.065220
-0.077466
-0.075894
-0.070239
-0.052337
-0.040715
-0.027523
-0.023438
-0.025949
-0.039451
-0.055152
-0.070225
-0.067710
-0.045725
-0.019971
0.011436
0.045984
0.065143
0.077707
0.084618
0.086504
0.095299
0.109120
0.124510
0.134247
0.139588
0.136449
0.119178
0.100023
0.086521
0.055117
0.041615
0.030311
0.025916
0.022149
0.029688
0.032830
0.015559
0.011793
-0.016156
-0.036568
-0.056665
-0.074250
-0.072050
-0.067338
-0.061997
-0.035929
-0.003894
0.029084
0.063631
0.084675
0.107602
0.117654
0.117656
0.118914
0.122684
0.124571
0.132110
0.137450
0.126146
0.104164
0.087207
0.058316
0.050153
0.047014
0.046388
0.030687
0.008077
-0.000400
-0.007936
-0.018298
-0.026775
-0.023005
-0.022061
-0.004158
0.020968
0.034788
0.038559
0.020974
0.007785
-0.015139
-0.022988
-0.022044
-0.018902
-0.028322
-0.032717
-0.036797
-0.041820
-0.038364
-0.024544
-0.011038
-0.009152
0.001214
-0.008834
-0.014799
-0.035525
-0.054994
-0.063158
-0.063784
-0.059699
-0.049648
-0.036142
-0.007247
0.022904
0.063418
0.098280
0.111472
0.128119
0.133459
0.140999
0.135033
0.136920
0.132211
0.130642
0.133156
0.144150
0.159541
0.156088
0.142899
0.128769
0.114638
0.107731
0.107419
0.113388
0.114646
0.098317
0.079475
0.059064
0.042421
0.024522
-0.001857
-0.026037
-0.028234
-0.046133
-0.051470
-0.066857
-0.071880
-0.086324
-0.078785
-0.091345
-0.097310
-0.106730
-0.111125
-0.104214
-0.099816
-0.080342
-0.064952
-0.038256
-0.020039
0.004773
0.016709
0.019223
0.023622
0.029905
0.022369
0.027710
0.032737
0.049383
0.057236
0.064147
0.082364
0.093358
0.102153
0.102469
0.096504
0.077035
0.063532
0.056625
0.072957
0.096513
0.143937
0.174088
0.193561
0.192307
0.173779
0.143004
0.115997
0.075800
0.018959
-0.031602
-0.074939
-0.096293
-0.125184
-0.134604
-0.155643
-0.162237
-0.167260
-0.169456
-0.172595
-0.170709
-0.176046
-0.186408
-0.191431
-0.192057
-0.197394
-0.187971
-0.176349
-0.152793
-0.150593
-0.159385
-0.172573
-0.193613
-0.215280
-0.227841
-0.239459
-0.239771
-0.241653
-0.245420
-0.233798
-0.227830
-0.219662
-0.195479
-0.156534
-0.113507
-0.059802
-0.016461
0.017458
0.030650
0.055776
0.054836
0.057664
0.078394
0.095354
0.124563
0.147177
0.164765
0.173875
0.171364
0.155663
0.144673
0.145303
0.140594
0.142167
0.135573
0.119872
0.114221
0.130240
0.150969
0.176723
0.208444
0.213471
0.221324
0.226037
0.234832
0.236404
0.228869
0.212226
0.194641
0.156014
0.109850
0.056463
0.009043
-0.034608
-0.073549
-0.090192
-0.102752
-0.100866
-0.079195
-0.059722
-0.041819
-0.019833
-0.012608
-0.002243
-0.001613
-0.003495
-0.008518
-0.011343
-0.011027
-0.001918
0.002167
0.002483
-0.005681
-0.015414
-0.035512
-0.061576
-0.076021
-0.075705
-0.060001
-0.036131
0.009723
0.028882
0.064057
0.087613
0.121219
0.135981
0.143834
0.119654
0.084482
0.050880
0.006915
-0.037679
-0.073479
-0.092321
-0.116815
-0.120268
-0.117439
-0.118066
-0.122460
-0.133765
-0.137531
-0.151662
-0.148205
-0.123393
-0.102978
-0.081307
-0.063718
-0.059947
-0.069995
-0.066225
-0.075016
-0.077841
-0.072500
-0.065903
-0.047373
-0.045172
-0.041402
-0.038574
-0.041712
-0.043595
-0.050502
-0.049244
-0.060234
-0.056778
-0.047982
-0.048294
-0.019714
0.001644
0.009811
0.007928
-0.009657
-0.032267
-0.062100
-0.080941
-0.082510
-0.082822
-0.080936
-0.045760
-0.026287
-0.009326
0.004180
0.003868
-0.011519
-0.037270
-0.084062
-0.109812
-0.136191
-0.143412
-0.143724
-0.131474
-0.113257
-0.089702
-0.067716
-0.051070
-0.021861
0.004521
0.028705
0.031534
0.029651
0.015207
0.007357
0.004847
0.011129
0.022437
0.059811
0.078656
0.102212
0.129222
0.130794
0.135193
0.131740
0.137395
0.142422
0.143052
0.149963
0.140857
0.125156
0.100348
0.074911
0.065178
0.068006
0.067380
0.085597
0.092194
0.098162
0.111354
0.120150
0.127061
0.127063
0.131461
0.121727
0.128638
0.157847
0.175122
0.186115
0.172927
0.136499
0.088451
0.042915
0.006172
-0.025545
-0.033709
-0.023657
-0.009209
0.029108
0.075275
0.098203
0.095692
0.078107
0.047018
0.021581
0.023467
0.034775
0.054248
0.061159
0.080946
0.079692
0.067446
0.041067
0.007151
-0.022368
-0.044664
-0.080778
-0.109355
-0.136047
-0.164938
-0.181895
-0.198538
-0.212041
-0.212039
-0.202302
-0.178432
-0.147967
-0.129750
-0.114988
-0.101796
-0.073529
-0.060023
-0.049343
-0.047771
-0.064100
-0.099586
-0.133816
-0.174327
-0.195053
-0.215778
-0.211066
-0.218601
-0.211062
-0.209490
-0.212629
-0.213883
-0.201319
-0.164887
-0.124058
-0.067841
-0.021359
0.023552
0.052761
0.066895
0.067525
0.065014
0.054966
0.049001
0.036127
0.036129
0.052461
0.080100
0.095804
0.103657
0.111825
0.129413
0.143233
0.147632
0.160824
0.187834
0.200398
0.208566
0.204799
0.194123
0.178736
0.155184
0.136343
0.126295
0.113420
0.082959
0.062862
0.040880
0.000683
-0.027266
-0.057727
-0.080651
-0.104517
-0.115193
-0.115505
-0.101371
-0.088807
-0.060541
-0.033844
-0.031016
-0.023163
-0.037922
-0.063044
-0.103869
-0.137471
-0.166048
-0.197451
-0.222888
-0.253349
-0.271876
-0.285379
-0.289459
-0.286317
-0.278778
-0.272495
-0.272807
-0.265268
-0.252704
-0.236686
-0.198998
-0.181095
-0.145605
-0.100694
-0.076510
-0.036623
-0.009927
0.019596
0.048177
0.074873
0.102825
0.139885
0.157160
0.176005
0.184486
0.189827
0.197366
0.213385
0.235370
0.254529
0.279341
0.299128
0.322370
0.346240
0.342787
0.327400
0.316725
0.280924
0.237901
0.183572
0.125474
0.082136
0.037229
0.004569
-0.010818
-0.001708
0.034410
0.083090
0.141819
0.212483
0.267444
0.297595
0.304192
0.265565
0.223484
0.157221
0.088445
0.036628
0.020927
0.021243
0.050452
0.062702
0.080605
0.078094
0.050459
0.009006
-0.054745
-0.104049
-0.142362
-0.171567
-0.180986
-0.175646
-0.157429
-0.143923
-0.151144
-0.158365
-0.180661
-0.208610
-0.229964
-0.246607
-0.271415
-0.280521
-0.299048
-0.316633
-0.316631
-0.297158
-0.290247
-0.274857
-0.268574
-0.254440
-0.248471
-0.246585
-0.240930
-0.238730
-0.227108
-0.210147
-0.201352
-0.184705
-0.159265
-0.147644
-0.129741
-0.108069
-0.076976
-0.033635
0.020070
0.062155
0.113347
0.135961
0.167682
0.174279
0.172082
0.142877
0.128747
0.135658
0.159213
0.198472
0.246524
0.284840
0.303999
0.308712
0.295209
0.253756
0.194716
0.141015
0.087628
0.053712
0.021366
0.001269
-0.012862
-0.021025
-0.047718
-0.075353
-0.093880
-0.100473
-0.098901
-0.085395
-0.088534
-0.091672
-0.092613
-0.088528
-0.079105
-0.058061
-0.046126
-0.040157
-0.045808
-0.039839
-0.023821
0.006016
0.037109
0.058781
0.064436
0.050305
0.028009
0.000060
-0.044847
-0.080019
-0.113935
-0.132149
-0.130576
-0.114244
-0.097283
-0.063364
-0.029444
-0.002120
0.026461
0.027719
0.030233
0.026466
0.038716
0.018619
0.004802
-0.004303
-0.009326
0.008262
0.040298
0.079242
0.133261
0.169065
0.205497
0.234391
0.247269
0.256065
0.265174
0.258581
0.214301
0.168137
0.138618
0.102190
0.085233
0.046606
0.004839
-0.027193
-0.079009
-0.128628
-0.153436
-0.162856
-0.164110
-0.160968
-0.164421
-0.172270
-0.192368
-0.220631
-0.227852
-0.240098
-0.250146
-0.251400
-0.243547
-0.237578
-0.218105
-0.185756
-0.138332
-0.085884
-0.044113
0.006451
0.065181
0.111035
0.160029
0.186411
0.206512
0.220332
0.223161
0.223162
0.204949
0.157843
0.089696
0.022176
-0.058219
-0.113491
-0.157142
-0.178496
-0.194197
-0.176294
-0.135779
-0.085215
-0.039048
0.016856
0.052031
0.069934
0.079044
0.090037
0.107626
0.116735
0.135580
0.135896
0.131815
0.137156
0.146265
0.155375
0.177046
0.188354
0.198720
0.199035
0.193698
0.191502
0.184281
0.176431
0.170466
0.173922
0.157279
0.140322
0.123365
0.087879
0.067468
0.064643
0.057108
0.051142
0.038896
0.007493
-0.030506
-0.069132
-0.087032
-0.102418
-0.121260
-0.132564
-0.151091
-0.168676
-0.196625
-0.217036
-0.245299
-0.294290
-0.325693
-0.347047
-0.353012
-0.345787
-0.338248
-0.340130
-0.332905
-0.335102
-0.347976
-0.331958
-0.304005
-0.254383
-0.199422
-0.146345
-0.085103
-0.051812
-0.022603
-0.012552
-0.001558
0.017601
0.041157
0.055291
0.062202
0.061576
0.049958
0.031116
0.013217
0.008194
0.028924
0.063785
0.091110
0.125029
0.150469
0.155810
0.163035
0.159896
0.163039
0.174661
0.191935
0.211094
0.230253
0.234024
0.250356
0.246276
0.239368
0.225866
0.217388
0.194778
0.151127
0.114699
0.087064
0.063512
0.037761
0.028341
0.028971
0.026461
0.021124
0.003225
-0.011848
-0.022210
-0.060837
-0.091612
-0.132123
-0.169493
-0.194616
-0.230730
-0.244860
-0.255222
-0.253022
-0.229466
-0.201200
-0.172619
-0.143725
-0.114202
-0.092844
-0.054528
-0.016526
0.008914
0.018966
0.037497
0.040953
0.050691
0.057916
0.055719
0.052894
0.045673
0.034683
0.003908
-0.041000
-0.105693
-0.175097
-0.236649
-0.280929
-0.293175
-0.274958
-0.255799
-0.219681
-0.182621
-0.138652
-0.113526
-0.103474
-0.089654
-0.085570
-0.067981
-0.065467
-0.063266
-0.051331
-0.041593
-0.032484
-0.028085
-0.008926
0.026250
0.063624
0.092518
0.138058
0.193333
0.243583
0.285668
0.317075
0.322416
0.309856
0.270287
0.229776
0.180785
0.135564
0.127400
0.118609
0.135255
0.160381
0.178284
0.186451
0.176089
0.156934
0.116737
0.081565
0.052046
0.031948
0.014363
0.014993
0.013739
0.020964
0.030387
0.042323
0.059912
0.069335
0.082213
0.074678
0.057407
0.047359
0.025377
0.010304
-0.007281
-0.024552
-0.039938
-0.046218
-0.052497
-0.060032
-0.071022
-0.071649
-0.066936
-0.052488
-0.021709
0.010955
0.047387
0.084761
0.103920
0.116170
0.121196
0.118372
0.121514
0.119631
0.119633
0.128429
0.147274
0.164234
0.199096
0.239925
0.264423
0.276987
0.282327
0.276676
0.269455
0.264432
0.243706
0.239625
0.234288
0.238059
0.221416
0.223616
0.240263
0.250000
0.257853
0.254715
0.255973
0.253462
0.250951
0.260061
0.258492
0.257552
0.253157
0.238398
0.230549
0.232435
0.230867
0.230554
0.235895
0.248145
0.262593
0.265422
0.260713
0.249723
0.229625
0.216123
0.207331
0.198225
0.183781
0.175617
0.169652
0.162431
0.157408
0.148302
0.139824
0.139512
0.119415
0.108425
0.075451
0.051271
0.034000
0.021125
0.023012
0.020501
0.029610
0.045943
0.045631
0.047831
0.033386
0.002297
-0.025024
-0.062708
-0.097566
-0.139647
-0.163200
-0.176388
-0.192717
-0.194599
-0.179523
-0.173868
-0.157850
-0.138691
-0.122672
-0.110108
-0.117644
-0.113873
-0.114813
-0.097225
-0.081206
-0.069898
-0.060161
-0.071465
-0.071149
-0.082139
-0.080881
-0.084334
-0.076167
-0.070198
-0.057006
-0.046326
-0.036275
-0.029050
-0.006750
-0.001723
0.016180
0.047901
0.071771
0.111971
0.133329
0.156256
0.166936
0.163797
0.151865
0.140247
0.112926
0.106333
0.077442
0.054204
0.029395
0.006157
0.005845
0.013070
0.020295
0.036314
0.057985
0.078086
0.095361
0.120801
0.139018
0.148756
0.136824
0.128346
0.112645
0.092234
0.058318
0.014666
-0.034638
-0.094620
-0.146437
-0.190089
-0.222748
-0.233738
-0.236563
-0.236875
-0.222113
-0.211119
-0.201068
-0.192901
-0.183477
-0.185360
-0.185358
-0.179389
-0.170594
-0.160542
-0.148920
-0.128191
-0.106205
-0.083592
-0.047788
-0.025802
-0.009784
0.010631
0.031047
0.031676
0.024769
0.028854
0.034508
0.028543
0.032942
0.025406
0.020697
0.005311
-0.023580
-0.052785
-0.092668
-0.113708
-0.126582
-0.124382
-0.121240
-0.106477
-0.089203
-0.060622
-0.035496
-0.018535
0.010674
0.024494
0.016958
0.012877
-0.002195
-0.013185
-0.014754
-0.004074
-0.013808
-0.005955
0.004411
0.004099
-0.002495
-0.017253
-0.037351
-0.037349
-0.049281
-0.044883
-0.023211
-0.028862
-0.023207
-0.027288
-0.035452
-0.026028
-0.031994
-0.021628
-0.005295
-0.005922
0.012295
0.034909
0.051555
0.072913
0.095212
0.104950
0.098043
0.081086
0.057847
0.042461
0.013570
-0.019090
-0.054890
-0.093203
-0.129003
-0.158836
-0.180190
-0.191180
-0.192748
-0.197457
-0.189604
-0.170759
-0.150658
-0.139036
-0.150654
-0.170123
-0.194304
-0.225079
-0.247061
-0.258365
-0.275950
-0.280031
-0.270922
-0.273746
-0.283166
-0.294784
-0.304832
-0.309855
-0.306398
-0.316446
-0.295089
-0.280955
-0.264308
-0.231959
-0.204948
-0.172285
-0.141820
-0.109157
-0.090312
-0.079632
-0.066126
-0.084653
-0.075230
-0.071774
-0.050730
-0.036596
-0.014296
0.006747
-0.002987
-0.002043
-0.023083
-0.034701
-0.038153
-0.036581
-0.042232
-0.036264
-0.031865
-0.013962
0.009908
0.033149
0.041317
0.056393
0.060791
0.062050
0.071473
0.085921
0.116700
0.132719
0.148737
0.168838
0.178576
0.174495
0.155026
0.132730
0.129277
0.135246
0.156289
0.185812
0.211252
0.241717
0.257736
0.267159
0.265590
0.263394
0.248007
0.241100
0.225399
0.209698
0.187402
0.154743
0.109835
0.074035
0.045772
0.021906
0.012172
0.020653
0.030391
0.033847
0.029452
0.009669
-0.017652
-0.052510
-0.087054
-0.117829
-0.147976
-0.158652
-0.172469
-0.186913
-0.188796
-0.196645
-0.194131
-0.194443
-0.197582
-0.199150
-0.184388
-0.159576
-0.129111
-0.091109
-0.050908
-0.016361
0.016617
0.046139
0.064670
0.087284
0.119947
0.150412
0.179307
0.199722
0.205691
0.204122
0.187794
0.180258
0.157648
0.156080
0.159222
0.172728
0.195970
0.230832
0.264123
0.297414
0.334160
0.359286
0.379074
0.381588
0.362747
0.340451
0.311874
0.272933
0.259745
0.245300
0.237137
0.225518
0.201652
0.173075
0.127854
0.086086
0.050914
0.019197
-0.015661
-0.042668
-0.068418
-0.083805
-0.106415
-0.107669
-0.127767
-0.132162
-0.121482
-0.121166
-0.112685
-0.111741
-0.100747
-0.098233
-0.102000
-0.111734
-0.114872
-0.116127
-0.121778
-0.117065
-0.109526
-0.099161
-0.076233
-0.071834
-0.057700
-0.028805
-0.013729
0.009827
0.019878
0.035583
0.033700
0.024595
0.009522
-0.025650
-0.060822
-0.093482
-0.112951
-0.129280
-0.126138
-0.146549
-0.154713
-0.179835
-0.210297
-0.236989
-0.249864
-0.257085
-0.269017
-0.250800
-0.226930
-0.201490
-0.175422
-0.138362
-0.104128
-0.068639
-0.055133
-0.024354
-0.016500
-0.004251
-0.001422
-0.005817
-0.013981
-0.022458
-0.026225
-0.022455
-0.017114
-0.019624
-0.024019
-0.026530
-0.040346
-0.048824
-0.074574
-0.096556
-0.120422
-0.159363
-0.164700
-0.165326
-0.161556
-0.151190
-0.153701
-0.157468
-0.160292
-0.176621
-0.185099
-0.203626
-0.226236
-0.251987
-0.267687
-0.278991
-0.280874
-0.278046
-0.273019
-0.267678
-0.259197
-0.244749
-0.238152
-0.227786
-0.221189
-0.208939
-0.194805
-0.183497
-0.185066
-0.172188
-0.161194
-0.143920
-0.120364
-0.115023
-0.093980
-0.072308
-0.059744
-0.040271
-0.015145
0.018460
0.043272
0.054580
0.066202
0.075625
0.092586
0.106406
0.119912
0.138443
0.151635
0.149753
0.141275
0.134682
0.122122
0.121181
0.130291
0.138772
0.162328
0.168297
0.164530
0.160135
0.127475
0.104551
0.071892
0.056819
0.043945
0.047087
0.063419
0.084149
0.111159
0.116814
0.103311
0.091065
0.067827
0.042391
0.028260
0.021039
0.005652
-0.009735
-0.036741
-0.062178
-0.081333
-0.093265
-0.125925
-0.139113
-0.140368
-0.137539
-0.143819
-0.137536
-0.131253
-0.126226
-0.121827
-0.123396
-0.125278
-0.134698
-0.128729
-0.112711
-0.096064
-0.086327
-0.082556
-0.090720
-0.096685
-0.120551
-0.129971
-0.129969
-0.106413
-0.085370
-0.030723
0.022040
0.062554
0.110606
0.148294
0.172478
0.191323
0.187242
0.176252
0.168089
0.140768
0.122869
0.102143
0.078905
0.073254
0.056925
0.031803
0.006995
-0.008392
-0.002109
0.012967
0.034325
0.057252
0.073271
0.056314
0.028993
-0.000840
-0.052029
-0.080292
-0.091910
-0.100073
-0.099443
-0.097871
-0.095985
-0.094413
-0.084048
-0.073368
-0.063002
-0.055777
-0.036304
-0.030021
-0.023110
-0.028133
-0.032528
-0.027502
-0.023103
-0.016506
-0.001430
-0.000172
-0.011790
-0.015871
-0.018695
-0.036594
-0.050725
-0.076475
-0.105680
-0.139282
-0.173826
-0.198949
-0.203972
-0.188267
-0.160315
-0.124825
-0.094674
-0.070176
-0.058240
-0.073941
-0.089956
-0.106599
-0.131721
-0.141455
-0.123866
-0.088376
-0.047862
-0.003893
0.034110
0.054211
0.055155
0.058925
0.061440
0.077772
0.087196
0.080916
0.067728
0.054854
0.047946
0.042923
0.036644
0.027224
0.012466
-0.000095
0.005246
0.000223
0.003994
-0.000401
-0.011391
-0.037770
-0.064148
-0.104973
-0.140460
-0.160243
-0.197927
-0.229645
-0.255081
-0.247856
-0.242516
-0.230266
-0.217074
-0.174675
-0.138557
-0.115943
-0.103065
-0.094584
-0.100863
-0.090498
-0.092066
-0.078560
-0.047781
-0.039928
-0.045265
-0.041494
-0.034583
-0.042119
-0.055935
-0.069752
-0.079486
-0.079484
-0.071002
-0.058124
-0.022949
0.005004
0.025733
0.022280
0.022596
0.031706
0.041129
0.040817
0.059034
0.080705
0.111170
0.135668
0.148232
0.139440
0.115888
0.098931
0.073181
0.063761
0.068788
0.082294
0.091089
0.095174
0.114333
0.121558
0.137262
0.135694
0.140720
0.125962
0.112145
0.088593
0.067239
0.049968
0.032697
0.032699
0.028932
0.034587
0.038672
0.018888
0.004444
-0.019737
-0.031041
-0.013766
0.010732
0.044966
0.082026
0.094275
0.087682
0.059105
0.011371
-0.027570
-0.069337
-0.102939
-0.122408
-0.145332
-0.151297
-0.128998
-0.106384
-0.085341
-0.086281
-0.099783
-0.099467
-0.093499
-0.096637
-0.091297
-0.082815
-0.082185
-0.089407
-0.105736
-0.108560
-0.105104
-0.102904
-0.108869
-0.143727
-0.177957
-0.217211
-0.236995
-0.214067
-0.198363
-0.160361
-0.134292
-0.122985
-0.122669
-0.111361
-0.096913
-0.071159
-0.049173
-0.034411
-0.011797
0.002965
0.011760
0.044424
0.077401
0.099073
0.134248
0.156234
0.162831
0.134882
0.090602
0.048835
0.024969
0.002045
-0.005176
0.004561
0.022150
0.036284
0.061410
0.057329
0.052934
0.048854
0.028756
0.017452
0.007404
0.001439
-0.010179
-0.012062
-0.011432
-0.014884
-0.019593
-0.035608
-0.041259
-0.043142
-0.062611
-0.076114
-0.061037
-0.028374
0.002091
0.036010
0.058310
0.069618
0.057057
0.033191
0.019061
0.015922
0.030056
0.035397
0.036027
0.022525
0.014989
-0.007621
-0.035884
-0.047188
-0.061946
-0.064457
-0.069166
-0.054090
-0.049063
-0.043094
-0.051572
-0.048115
-0.033667
-0.020475
0.002767
0.026637
0.044539
0.062756
0.068097
0.077834
0.097308
0.102962
0.116154
0.125578
0.128406
0.117102
0.117104
0.124643
0.124959
0.110514
0.113657
0.135328
0.149148
0.165795
0.170822
0.166113
0.163288
0.147587
0.124663
0.104566
0.091377
0.077875
0.071910
0.068457
0.064690
0.059667
0.045223
0.026695
-0.001882
-0.020095
-0.020407
-0.012554
-0.002188
0.012574
0.016344
-0.010976
0.003158
0.036135
0.065658
0.083247
0.105546
0.104606
0.081682
0.062213
0.037718
0.033638
0.040863
0.048402
0.065990
0.074472
0.081383
0.085467
0.091436
0.096463
0.115622
0.132582
0.152370
0.166190
0.165878
0.174987
0.181898
0.182842
0.182844
0.187556
0.186302
0.192899
0.168405
0.152390
0.132606
0.115021
0.107486
0.081107
0.046877
0.029920
0.018302
0.018932
0.001661
-0.025032
-0.051724
-0.066483
-0.054233
-0.051719
-0.030361
-0.003037
0.025230
0.049100
0.072341
0.099666
0.124478
0.141752
0.142696
0.148037
0.169395
0.194521
0.213680
