EVENT_NAME: 202302060117
EVENT_ID: 13194
EVENT_DATE_YYYYMMDD: 2023/02/06
EVENT_TIME_HHMMSS: 01:17:32.00000
EVENT_LATITUDE_DEGREE: 37.288
EVENT_LONGITUDE_DEGREE: 37.043
EVENT_DEPTH_KM: 8.6
HYPOCENTER_REFERENCE: AFAD
MAGNITUDE_W: 7.7
MAGNITUDE_W_REFERENCE: AFAD
MAGNITUDE_L: 
MAGNITUDE_L_REFERENCE: 
FOCAL_MECHANISM: 
NETWORK: TK
STATION_CODE: 6010
STATION_NAME: 
STATION_LATITUDE_DEGREE: 40.29797
STATION_LONGITUDE_DEGREE: 35.88037
STATION_ELEVATION_M: 740.0
LOCATION: Kahramanmaras_Pazarck_Turkiye
SENSOR_DEPTH_M: 
VS30_M/S: None
SITE_CLASSIFICATION_EC8: unknown
MORPHOLOGIC_CLASSIFICATION: 
EPICENTRAL_DISTANCE_KM: 349.52
EARTHQUAKE_BACKAZIMUTH_DEGREE: 
DATE_TIME_FIRST_SAMPLE_YYYYMMDD_HHMMSS: 2023/02/06 01:17:59.2174410
DATE_TIME_FIRST_SAMPLE_PRECISION: millisecond
SAMPLING_INTERVAL_S: 0.01
NDATA: 18251
DURATION_S: 
STREAM: HNZ
UNITS: cm/s^2
INSTRUMENT: sensor = ACEBOX/SARA | digitizer = 
INSTRUMENT_ANALOG/DIGITAL: 
INSTRUMENTAL_FREQUENCY_HZ: 
INSTRUMENTAL_DAMPING: 
FULL_SCALE_G: 
N_BIT_DIGITAL_CONVERTER: 
PGA_CM/S^2: 2.191
TIME_PGA_S: 
BASELINE_CORRECTION: BASELINE REMOVED
FILTER_TYPE: BUTTERWORTH
FILTER_ORDER: 
LOW_CUT_FREQUENCY_HZ: 
HIGH_CUT_FREQUENCY_HZ: 
LATE/NORMAL_TRIGGERED: 
DATABASE_VERSION: 
HEADER_FORMAT: DYNA 1.2
DATA_TYPE: Acceleration
PROCESSING: Automatic Paolucci et al., 2011
DATA_TIMESTAMP_YYYYMMDD_HHMMSS: 
DATA_LICENSE: U (unknown license)
DATA_CITATION: Turkish Accelerometric Archive v 1.0 - Disaster And Emergency Management Presidency, Earthquake Department
DATA_CREATOR: AFAD
ORIGINAL_DATA_MEDIATOR_CITATION: : AFAD - Disaster And Emergency Management Presidency
ORIGINAL_DATA_MEDIATOR: AFAD PROCESS SERVICE
ORIGINAL_DATA_CREATOR_CITATION: AFAD PROCESS SERVICE
ORIGINAL_DATA_CREATOR: network: TK
USER1: GuestUser
USER2: 
USER3: 
USER4: 
USER5: 
[...]
-0.666340
-0.681303
-0.686213
-0.678263
-0.670548
-0.674055
-0.681302
-0.694395
-0.713099
-0.723385
-0.724554
-0.717306
-0.699772
-0.676626
-0.649739
-0.620280
-0.592224
-0.566974
-0.549439
-0.539853
-0.533774
-0.530501
-0.526059
-0.515304
-0.493795
-0.455218
-0.412199
-0.367076
-0.303483
-0.231473
-0.159698
-0.081843
-0.000481
0.080413
0.160839
0.244071
0.328472
0.418250
0.511769
0.598976
0.694365
0.801444
0.894496
0.977260
1.063999
1.147465
1.222748
1.289848
1.345959
1.382432
1.390381
1.375886
1.345024
1.302707
1.256182
1.206851
1.151908
1.090887
1.032204
0.983809
0.941959
0.908059
0.884913
0.875795
0.876029
0.881874
0.904552
0.934245
0.959027
0.989187
1.011632
1.028465
1.053482
1.064003
1.057457
1.042026
1.008359
0.958561
0.893799
0.830206
0.777836
0.715412
0.649014
0.577004
0.486993
0.395578
0.309073
0.231920
0.176744
0.138635
0.106605
0.089071
0.079953
0.065691
0.056106
0.041143
0.022907
0.025946
0.029219
0.028518
0.036935
0.039507
0.040442
0.043949
0.052834
0.064290
0.064991
0.063822
0.050964
0.016362
-0.022916
-0.075053
-0.138412
-0.201303
-0.271208
-0.336905
-0.398861
-0.459882
-0.501732
-0.528384
-0.546854
-0.552933
-0.546620
-0.521838
-0.483962
-0.443983
-0.392547
-0.330591
-0.272609
-0.216498
-0.174414
-0.151736
-0.133499
-0.123680
-0.120874
-0.117834
-0.112691
-0.097961
-0.081128
-0.067801
-0.052838
-0.038343
-0.031095
-0.030159
-0.026652
-0.030861
-0.039277
-0.039043
-0.044187
-0.038342
-0.004675
0.033902
0.083467
0.145190
0.193118
0.229357
0.254607
0.264895
0.268635
0.267233
0.264194
0.264427
0.264895
0.267467
0.266532
0.260220
0.249699
0.232632
0.216032
0.198498
0.171845
0.138412
0.102174
0.061727
0.021514
-0.010984
-0.039273
-0.070134
-0.105438
-0.143546
-0.186565
-0.238234
-0.288267
-0.327778
-0.370329
-0.417322
-0.458237
-0.497047
-0.529311
-0.555262
-0.593137
-0.628674
-0.647144
-0.659301
-0.659769
-0.636623
-0.587525
-0.522530
-0.450286
-0.363781
-0.273301
-0.182588
-0.092576
-0.025008
0.027830
0.078564
0.122284
0.167641
0.215804
0.254848
0.284306
0.309557
0.331534
0.338548
0.339016
0.345094
0.346030
0.348134
0.362396
0.388347
0.428561
0.471580
0.515534
0.555747
0.575152
0.577023
0.570009
0.566034
0.569074
0.569775
0.585908
0.613963
0.635707
0.660022
0.683401
0.703274
0.721277
0.728057
0.730863
0.730162
0.725018
0.723382
0.714498
0.698132
0.683169
0.663764
0.643190
0.623785
0.602042
0.579364
0.551776
0.516472
0.481169
0.446567
0.405887
0.369648
0.339956
0.299509
0.256491
0.210433
0.154322
0.104757
0.056828
0.006796
-0.032949
-0.072461
-0.110102
-0.136287
-0.154991
-0.155926
-0.148211
-0.143067
-0.129507
-0.111504
-0.092099
-0.065680
-0.035286
0.003291
0.051921
0.104759
0.153857
0.201551
0.248077
0.284082
0.317983
0.352117
0.376432
0.394435
0.404021
0.410100
0.426465
0.449845
0.476498
0.503385
0.525830
0.551548
0.577967
0.598074
0.609997
0.609296
0.598542
0.580072
0.558562
0.542197
0.529104
0.521623
0.519519
0.520922
0.532612
0.543834
0.542665
0.536119
0.522559
0.500816
0.478839
0.460135
0.441899
0.421325
0.392568
0.359603
0.329443
0.291568
0.253693
0.222832
0.182385
0.137730
0.098453
0.059409
0.015455
-0.035981
-0.098872
-0.172518
-0.256451
-0.348333
-0.438813
-0.519239
-0.598028
-0.673778
-0.730123
-0.776649
-0.829253
-0.882091
-0.934462
-0.987534
-1.038969
-1.088300
-1.137163
-1.182520
-1.217356
-1.248217
-1.279078
-1.304562
-1.332383
-1.363712
-1.394339
-1.426136
-1.453490
-1.480610
-1.509367
-1.531344
-1.550983
-1.567582
-1.576233
-1.586520
-1.599145
-1.602418
-1.596806
-1.582077
-1.556827
-1.523394
-1.483882
-1.444370
-1.406261
-1.364177
-1.323730
-1.287024
-1.249616
-1.213845
-1.177840
-1.144173
-1.121027
-1.105129
-1.101622
-1.113311
-1.132249
-1.157499
-1.179242
-1.191399
-1.200283
-1.204258
-1.203790
-1.206128
-1.212440
-1.221792
-1.235118
-1.249847
-1.269720
-1.294736
-1.314375
-1.331676
-1.349211
-1.362069
-1.367680
-1.370953
-1.378669
-1.387787
-1.395736
-1.404386
-1.409763
-1.413971
-1.413504
-1.405321
-1.389422
-1.360899
-1.320452
-1.272757
-1.216178
-1.152585
-1.090395
-1.044337
-1.010670
-0.974431
-0.949415
-0.932581
-0.902889
-0.869222
-0.823163
-0.760973
-0.702290
-0.634255
-0.549854
-0.455867
-0.342476
-0.216692
-0.087169
0.054513
0.198298
0.331796
0.457346
0.572374
0.670335
0.756139
0.833058
0.895015
0.957205
1.020097
1.075273
1.136995
1.188431
1.215785
1.240334
1.256466
1.268624
1.287795
1.308604
1.333620
1.358169
1.384354
1.413345
1.435790
1.462677
1.485589
1.493538
1.496578
1.484888
1.460339
1.436726
1.404462
1.367288
1.332920
1.290136
1.240337
1.189837
1.140740
1.099358
1.063821
1.032492
1.011684
0.992045
0.968899
0.956508
0.961418
0.983629
1.017997
1.059380
1.115959
1.181422
1.246652
1.319129
1.387398
1.442808
1.489334
1.530014
1.567422
1.595010
1.618858
1.639432
1.646446
1.649252
1.652291
1.660241
1.681516
1.708403
1.728977
1.734589
1.732718
1.725237
1.704897
1.680582
1.650188
1.606468
1.559242
1.506170
1.440707
1.371035
1.296688
1.220002
1.151734
1.086972
1.025483
0.975217
0.926354
0.869073
0.803844
0.740018
0.681335
0.620781
0.562098
0.510195
0.465073
0.433510
0.408494
0.387920
0.378568
0.370385
0.363372
0.356124
0.337420
0.314041
0.289258
0.264476
0.244837
0.233381
0.231745
0.231043
0.235252
0.238291
0.232914
0.234785
0.236188
0.232213
0.232447
0.222160
0.198079
0.168387
0.132382
0.093572
0.056165
0.024836
0.001456
-0.015611
-0.025664
-0.031041
-0.029170
-0.021455
-0.010233
0.008705
0.027643
0.054763
0.095210
0.127007
0.156466
0.192237
0.220059
0.243439
0.267987
0.292770
0.317319
0.335321
0.345842
0.349817
0.338127
0.304928
0.262611
0.215150
0.157403
0.096849
0.036296
-0.020049
-0.066808
-0.113568
-0.158691
-0.188149
-0.207554
-0.223920
-0.233038
-0.226257
-0.203579
-0.182069
-0.161729
-0.143025
-0.138349
-0.139050
-0.130633
-0.111228
-0.081536
-0.043660
0.009412
0.078148
0.155302
0.237598
0.319194
0.394476
0.462044
0.517220
0.563278
0.604661
0.637626
0.659136
0.659603
0.642303
0.614715
0.565851
0.502258
0.429548
0.336263
0.232457
0.122105
0.009882
-0.093690
-0.201470
-0.301302
-0.387807
-0.478754
-0.561050
-0.634229
-0.707875
-0.763986
-0.814018
-0.864518
-0.899120
-0.927877
-0.949854
-0.960141
-0.980247
-1.005030
-1.026539
-1.055763
-1.082416
-1.104627
-1.133384
-1.155127
-1.167050
-1.174298
-1.166816
-1.147879
-1.118654
-1.081714
-1.047345
-1.006431
-0.960139
-0.916886
-0.863580
-0.797649
-0.727510
-0.658773
-0.594947
-0.529483
-0.460747
-0.390607
-0.319533
-0.255239
-0.209414
-0.182527
-0.164992
-0.151198
-0.138105
-0.128753
-0.130624
-0.142080
-0.158913
-0.176448
-0.184864
-0.189072
-0.190007
-0.183461
-0.177148
-0.168965
-0.160315
-0.161250
-0.164523
-0.166393
-0.168497
-0.165224
-0.161249
-0.164522
-0.168497
-0.179251
-0.204501
-0.225309
-0.241207
-0.253598
-0.255936
-0.254065
-0.241206
-0.221100
-0.194681
-0.161247
-0.141375
-0.121502
-0.098356
-0.093446
-0.090172
-0.083158
-0.087834
-0.097186
-0.108876
-0.125943
-0.145348
-0.165454
-0.189535
-0.220163
-0.257102
-0.296848
-0.334021
-0.369325
-0.400186
-0.422396
-0.439230
-0.444841
-0.441100
-0.444373
-0.449984
-0.456764
-0.476636
-0.493470
-0.505393
-0.519655
-0.526435
-0.535553
-0.548645
-0.562205
-0.590729
-0.625097
-0.651983
-0.678168
-0.695002
-0.704587
-0.711835
-0.708795
-0.705522
-0.710432
-0.714640
-0.712536
-0.705054
-0.695000
-0.683077
-0.667412
-0.649176
-0.631641
-0.617145
-0.609897
-0.605455
-0.592129
-0.578568
-0.570619
-0.553318
-0.527600
-0.494868
-0.455356
-0.410467
-0.355057
-0.301050
-0.247744
-0.184385
-0.125468
-0.069122
-0.008569
0.044503
0.091730
0.141763
0.196472
0.250012
0.301447
0.361767
0.417177
0.461599
0.511398
0.561196
0.607722
0.655183
0.703813
0.750573
0.785876
0.812296
0.832168
0.837780
0.830298
0.813465
0.787981
0.756185
0.717609
0.681838
0.654717
0.625727
0.602581
0.594164
0.583410
0.576396
0.590190
0.614505
0.651445
0.699608
0.755953
0.827495
0.907687
0.994193
1.081867
1.161825
1.242719
1.318938
1.387440
1.455242
1.514159
1.568634
1.616562
1.651398
1.678986
1.689273
1.689975
1.692781
1.686468
1.685066
1.683429
1.670570
1.661219
1.643918
1.612823
1.583131
1.553205
1.522577
1.486339
1.446594
1.408017
1.367570
1.328293
1.291587
1.253712
1.223552
1.197834
1.171649
1.150841
1.134709
1.126994
1.128865
1.139152
1.159492
1.179599
1.192224
1.199005
1.191523
1.172118
1.145699
1.100576
1.038854
0.965676
0.877300
0.783548
0.683950
0.576637
0.480781
0.386093
0.285326
0.196250
0.114187
0.037268
-0.030299
-0.099036
-0.161693
-0.218973
-0.285138
-0.344522
-0.395724
-0.446691
-0.489944
-0.528754
-0.563823
-0.601698
-0.648692
-0.682826
-0.715557
-0.758108
-0.789437
-0.826377
-0.872201
-0.910076
-0.946314
-0.979514
-1.007101
-1.030715
-1.050354
-1.067187
-1.071395
-1.065550
-1.058536
-1.043573
-1.026506
-1.013413
-0.997047
-0.981616
-0.972732
-0.968991
-0.964081
-0.959171
-0.961509
-0.960807
-0.953560
-0.942337
-0.918724
-0.890434
-0.863547
-0.842038
-0.823100
-0.799253
-0.782887
-0.767456
-0.742907
-0.726307
-0.708772
-0.686328
-0.673936
-0.656401
-0.632788
-0.616188
-0.596549
-0.572000
-0.552829
-0.548620
-0.557738
-0.576442
-0.606134
-0.637229
-0.675104
-0.720460
-0.760439
-0.799951
-0.836423
-0.864245
-0.883183
-0.886222
-0.878506
-0.866349
-0.849281
-0.821459
-0.785688
-0.750852
-0.718354
-0.682817
-0.644708
-0.621796
-0.609638
-0.586492
-0.571529
-0.567788
-0.558670
-0.558202
-0.562644
-0.568723
-0.580179
-0.581815
-0.583452
-0.592803
-0.589998
-0.579243
-0.563111
-0.535289
-0.500453
-0.461876
-0.425170
-0.387762
-0.353394
-0.331417
-0.315051
-0.305231
-0.303127
-0.296580
-0.284423
-0.269460
-0.249119
-0.222934
-0.194410
-0.166355
-0.138766
-0.113750
-0.089669
-0.063951
-0.039636
-0.015788
0.011566
0.039622
0.065573
0.091057
0.116074
0.139220
0.154417
0.160028
0.160496
0.151378
0.136883
0.118179
0.078901
0.028869
-0.026074
-0.092706
-0.156065
-0.215917
-0.274366
-0.322995
-0.370690
-0.412306
-0.441530
-0.462806
-0.467949
-0.466546
-0.464208
-0.449946
-0.434282
-0.425865
-0.417682
-0.407629
-0.401316
-0.400147
-0.408330
-0.426799
-0.457427
-0.502316
-0.548607
-0.597705
-0.651946
-0.705485
-0.773987
-0.852076
-0.923617
-0.997731
-1.069740
-1.140113
-1.213759
-1.278755
-1.327852
-1.362454
-1.390042
-1.418331
-1.435632
-1.430956
-1.418097
-1.404069
-1.381858
-1.352867
-1.314992
-1.272908
-1.245086
-1.224980
-1.200431
-1.174012
-1.142683
-1.113458
-1.096157
-1.074180
-1.044020
-1.016431
-0.989545
-0.966399
-0.943720
-0.917769
-0.900000
-0.894389
-0.890648
-0.880127
-0.867501
-0.862358
-0.864696
-0.870307
-0.878256
-0.890179
-0.902804
-0.907714
-0.904908
-0.901167
-0.901167
-0.906077
-0.914493
-0.926651
-0.942782
-0.961486
-0.982060
-1.004972
-1.026949
-1.047523
-1.060148
-1.053835
-1.034897
-1.005439
-0.956809
-0.900464
-0.836871
-0.763458
-0.693787
-0.627154
-0.574082
-0.535272
-0.493656
-0.460924
-0.430296
-0.385641
-0.343557
-0.303344
-0.260091
-0.212864
-0.159091
-0.111630
-0.066273
-0.016006
0.021635
0.046652
0.071434
0.095749
0.117025
0.139703
0.175708
0.214753
0.237665
0.257772
0.284658
0.305466
0.322066
0.346849
0.373736
0.389868
0.408338
0.425639
0.431952
0.444811
0.460943
0.478712
0.508170
0.537161
0.564749
0.599819
0.643305
0.688195
0.733551
0.792468
0.861439
0.930175
1.003120
1.078403
1.153452
1.228501
1.297238
1.365740
1.430502
1.479132
1.517475
1.550441
1.575691
1.585744
1.577562
1.560962
1.532673
1.486615
1.421619
1.342830
1.251415
1.147142
1.044037
0.944440
0.845544
0.760208
0.690770
0.630217
0.579249
0.543478
0.522670
0.511916
0.511215
0.517761
0.525476
0.526178
0.519164
0.512852
0.501396
0.481056
0.465391
0.457910
0.453000
0.449494
0.441077
0.435934
0.437336
0.428920
0.418165
0.410918
0.399462
0.393149
0.386136
0.376316
0.376784
0.376550
0.373511
0.369770
0.354808
0.342416
0.333532
0.315062
0.297294
0.275317
0.243521
0.210322
0.167771
0.115634
0.056016
-0.018098
-0.101329
-0.183860
-0.268962
-0.363416
-0.463948
-0.558870
-0.651921
-0.745674
-0.832412
-0.915878
-1.001448
-1.078367
-1.150376
-1.222152
-1.284342
-1.346765
-1.410592
-1.462495
-1.510657
-1.554611
-1.580796
-1.599500
-1.613293
-1.609553
-1.596694
-1.584770
-1.575652
-1.576820
-1.588978
-1.603239
-1.619605
-1.646725
-1.675248
-1.692316
-1.718033
-1.749362
-1.774612
-1.806876
-1.833295
-1.856440
-1.888704
-1.909512
-1.934762
-1.968429
-1.979651
-1.980586
-1.983625
-1.973806
-1.950426
-1.917694
-1.871168
-1.822538
-1.777649
-1.722005
-1.661452
-1.602301
-1.532161
-1.459684
-1.379959
-1.281063
-1.177491
-1.070645
-0.957019
-0.841757
-0.722754
-0.600712
-0.488255
-0.382813
-0.270590
-0.167953
-0.077006
0.018150
0.100681
0.171521
0.236751
0.287485
0.327698
0.365106
0.402046
0.432907
0.462366
0.492526
0.510529
0.531337
0.560328
0.584175
0.611062
0.640754
0.668342
0.694528
0.723986
0.760693
0.796698
0.845094
0.914532
0.990984
1.076086
1.161656
1.241147
1.322275
1.396856
1.470269
1.543214
1.605638
1.665724
1.725108
1.780752
1.833123
1.894612
1.963348
2.023434
2.083286
2.133085
2.163479
2.185456
2.191068
2.178910
2.157167
2.124202
2.084456
2.043075
2.000991
1.958440
1.917526
1.881521
1.847387
1.810213
1.772104
1.736801
1.699861
1.653102
1.601199
1.549530
1.497160
1.446893
1.398731
1.352206
1.308018
1.257518
1.208421
1.171481
1.129865
1.080768
1.028631
0.961298
0.883677
0.801614
0.707394
0.612706
0.526903
0.439930
0.352257
0.268791
0.176208
0.076610
-0.019480
-0.113934
-0.203011
-0.284139
-0.362928
-0.429093
-0.484269
-0.536639
-0.581528
-0.616831
-0.639042
-0.647926
-0.646289
-0.638340
-0.626183
-0.604907
-0.583631
-0.552770
-0.505543
-0.461822
-0.411088
-0.353106
-0.299333
-0.237844
-0.172147
-0.109723
-0.051975
-0.001241
0.040375
0.070068
0.096954
0.126881
0.152832
0.176680
0.202865
0.228817
0.257808
0.294280
0.333091
0.366290
0.398788
0.433390
0.463316
0.489502
0.512414
0.532521
0.552394
0.564084
0.571799
0.584658
0.597049
0.609674
0.618793
0.618793
0.612013
0.594712
0.572735
0.553330
0.525041
0.487400
0.451629
0.415390
0.377983
0.346654
0.322339
0.298025
0.273242
0.255006
0.240745
0.227184
0.220638
0.218067
0.220872
0.227653
0.229523
0.231160
0.232095
0.232329
0.238408
0.245656
0.255008
0.270906
0.290779
0.317666
0.347592
0.373777
0.401366
0.423576
0.435266
0.448593
0.457477
0.457945
0.457945
0.454205
0.450230
0.445321
0.437372
0.441814
0.453738
0.458180
0.467064
0.485067
0.499796
0.513824
0.532996
0.551700
0.576015
0.609214
0.646622
0.692446
0.739673
0.778016
0.811449
0.839271
0.871769
0.905436
0.922270
0.937701
0.948455
0.953131
0.962951
0.957808
0.942611
0.927648
0.903099
0.874342
0.833194
0.782694
0.729622
0.667900
0.604073
0.534168
0.465432
0.403008
0.338013
0.279564
0.228128
0.182772
0.147936
0.119179
0.102813
0.092760
0.080603
0.082006
0.090189
0.102346
0.136715
0.186514
0.245431
0.316038
0.393425
0.475254
0.556148
0.640549
0.726820
0.795557
0.856110
0.914326
0.952903
0.982127
1.011118
1.031225
1.042681
1.056475
1.075179
1.089207
1.106742
1.133161
1.158178
1.185532
1.208445
1.229019
1.252866
1.265725
1.272973
1.273441
1.262686
1.250295
1.225980
1.198392
1.169869
1.121473
1.067934
1.015096
0.954542
0.893522
0.832968
0.773116
0.716070
0.663466
0.617875
0.574623
0.527630
0.476428
0.423824
0.371220
0.325162
0.281676
0.237488
0.201717
0.174597
0.157530
0.150984
0.143268
0.148178
0.164310
0.172026
0.184885
0.200783
0.202654
0.196107
0.181378
0.155193
0.122929
0.088795
0.055596
0.022163
-0.010802
-0.047976
-0.088423
-0.126531
-0.164874
-0.199710
-0.229168
-0.257691
-0.286682
-0.313802
-0.340689
-0.368978
-0.397034
-0.428129
-0.462029
-0.497800
-0.534974
-0.572147
-0.610022
-0.640650
-0.668939
-0.697930
-0.715932
-0.736506
-0.763626
-0.781161
-0.798929
-0.816932
-0.827920
-0.840077
-0.844286
-0.837973
-0.833764
-0.818568
-0.793317
-0.773211
-0.747727
-0.715696
-0.685302
-0.655376
-0.628489
-0.608850
-0.599031
-0.594121
-0.592017
-0.594121
-0.596458
-0.600667
-0.609083
-0.619838
-0.636671
-0.663090
-0.695120
-0.730423
-0.772273
-0.820201
-0.866493
-0.908343
-0.943880
-0.971468
-0.997185
-1.019863
-1.036697
-1.047451
-1.053296
-1.051893
-1.047217
-1.046515
-1.039969
-1.025473
-1.005133
-0.975207
-0.946216
-0.913952
-0.877713
-0.851761
-0.827914
-0.808275
-0.794013
-0.776946
-0.762684
-0.753098
-0.754267
-0.767593
-0.791207
-0.830017
-0.871867
-0.913015
-0.959306
-1.004897
-1.051188
-1.097013
-1.136992
-1.169022
-1.193804
-1.210170
-1.216950
-1.214378
-1.199181
-1.176503
-1.143537
-1.093972
-1.038562
-0.979411
-0.910675
-0.842639
-0.775773
-0.703530
-0.635495
-0.574941
-0.520466
-0.476746
-0.436299
-0.403100
-0.386967
-0.375511
-0.366393
-0.365458
-0.355872
-0.337869
-0.322672
-0.296019
-0.260482
-0.230556
-0.195486
-0.150129
-0.107111
-0.063390
-0.011721
0.034337
0.082500
0.140949
0.193787
0.251769
0.317700
0.376383
0.434365
0.486035
0.522273
0.547290
0.559681
0.562019
0.555707
0.540510
0.523209
0.501232
0.462422
0.418702
0.380593
0.336172
0.286373
0.239614
0.196362
0.160591
0.126690
0.095829
0.069176
0.038082
0.012364
-0.006807
-0.030654
-0.043981
-0.045150
-0.047487
-0.042110
-0.027147
-0.005637
0.022652
0.048604
0.072919
0.092324
0.100975
0.103547
0.102612
0.105417
0.116406
0.124355
0.135110
0.147735
0.151476
0.155685
0.159893
0.165037
0.176493
0.179766
0.173454
0.161530
0.140021
0.120382
0.106121
0.091859
0.081105
0.074792
0.059362
0.033878
0.006524
-0.028546
-0.066187
-0.108036
-0.163213
-0.215349
-0.265615
-0.328507
-0.389294
-0.450081
-0.518350
-0.582878
-0.647639
-0.712869
-0.777864
-0.848938
-0.922585
-1.001374
-1.080865
-1.157784
-1.237509
-1.308349
-1.369137
-1.428287
-1.476215
-1.511752
-1.539340
-1.551732
-1.549861
-1.541444
-1.514324
-1.463589
-1.406777
-1.340846
-1.264628
-1.184201
-1.090448
-0.986408
-0.879095
-0.765002
-0.648337
-0.533543
-0.418514
-0.299511
-0.181444
-0.069455
0.039729
0.143769
0.230742
0.301582
0.363305
0.410532
0.443965
0.468748
0.486750
0.499609
0.502649
0.500311
0.489790
0.456825
0.408429
0.352084
0.285218
0.212273
0.129743
0.043940
-0.035785
-0.117848
-0.199209
-0.272621
-0.348605
-0.425057
-0.502677
-0.587078
-0.660958
-0.728525
-0.802405
-0.865530
-0.915329
-0.961153
-1.003704
-1.036669
-1.057711
-1.075012
-1.086701
-1.095118
-1.106340
-1.106574
-1.104236
-1.106574
-1.101430
-1.094883
-1.087636
-1.074309
-1.054904
-1.029887
-1.002767
-0.968632
-0.930289
-0.888206
-0.838874
-0.791180
-0.740212
-0.683866
-0.628222
-0.571410
-0.512960
-0.456849
-0.405413
-0.356316
-0.310491
-0.270979
-0.235208
-0.203178
-0.175823
-0.150807
-0.126258
-0.104749
-0.086746
-0.075758
-0.075757
-0.080901
-0.093760
-0.118542
-0.139584
-0.158053
