EVENT_NAME: 202302060117
EVENT_ID: 13194
EVENT_DATE_YYYYMMDD: 2023/02/06
EVENT_TIME_HHMMSS: 01:17:32.00000
EVENT_LATITUDE_DEGREE: 37.288
EVENT_LONGITUDE_DEGREE: 37.043
EVENT_DEPTH_KM: 8.6
HYPOCENTER_REFERENCE: AFAD
MAGNITUDE_W: 7.7
MAGNITUDE_W_REFERENCE: AFAD
MAGNITUDE_L: 
MAGNITUDE_L_REFERENCE: 
FOCAL_MECHANISM: 
NETWORK: TK
STATION_CODE: 2310
STATION_NAME: 
STATION_LATITUDE_DEGREE: 38.57266
STATION_LONGITUDE_DEGREE: 38.824528
STATION_ELEVATION_M: 1240.0
LOCATION: Kahramanmaras_Pazarck_Turkiye
SENSOR_DEPTH_M: 
VS30_M/S: None
SITE_CLASSIFICATION_EC8: unknown
MORPHOLOGIC_CLASSIFICATION: 
EPICENTRAL_DISTANCE_KM: 211.70
EARTHQUAKE_BACKAZIMUTH_DEGREE: 
DATE_TIME_FIRST_SAMPLE_YYYYMMDD_HHMMSS: 2023/02/06 01:17:48.5035850
DATE_TIME_FIRST_SAMPLE_PRECISION: millisecond
SAMPLING_INTERVAL_S: 0.005
NDATA: 29001
DURATION_S: 
STREAM: HNN
UNITS: cm/s^2
INSTRUMENT: sensor = GEO-A200,/GEObit | digitizer = 
INSTRUMENT_ANALOG/DIGITAL: 
INSTRUMENTAL_FREQUENCY_HZ: 
INSTRUMENTAL_DAMPING: 
FULL_SCALE_G: 
N_BIT_DIGITAL_CONVERTER: 
PGA_CM/S^2: 60.456
TIME_PGA_S: 
BASELINE_CORRECTION: BASELINE REMOVED
FILTER_TYPE: BUTTERWORTH
FILTER_ORDER: 
LOW_CUT_FREQUENCY_HZ: 
HIGH_CUT_FREQUENCY_HZ: 
LATE/NORMAL_TRIGGERED: 
DATABASE_VERSION: 
HEADER_FORMAT: DYNA 1.2
DATA_TYPE: Acceleration
PROCESSING: Automatic Paolucci et al., 2011
DATA_TIMESTAMP_YYYYMMDD_HHMMSS: 
DATA_LICENSE: U (unknown license)
DATA_CITATION: Turkish Accelerometric Archive v 1.0 - Disaster And Emergency Management Presidency, Earthquake Department
DATA_CREATOR: AFAD
ORIGINAL_DATA_MEDIATOR_CITATION: : AFAD - Disaster And Emergency Management Presidency
ORIGINAL_DATA_MEDIATOR: AFAD PROCESS SERVICE
ORIGINAL_DATA_CREATOR_CITATION: AFAD PROCESS SERVICE
ORIGINAL_DATA_CREATOR: network: TK
USER1: GuestUser
USER2: 
USER3: 
USER4: 
USER5: 
[...]
3.238145
0.350532
-2.190312
-4.372148
-5.662933
-5.246953
-4.088000
-1.995152
0.038136
0.876217
1.313149
0.677055
-0.133247
-0.690477
-1.253591
-1.428976
-1.722305
-2.119922
-2.441736
-2.771789
-3.000848
-3.173408
-3.755121
-4.404634
-5.152550
-5.036255
-4.469608
-4.588023
-4.980696
-6.392486
-7.925279
-9.911955
-11.704883
-12.493526
-12.998729
-12.439851
-11.482885
-9.938085
-8.362917
-7.755779
-7.974245
-9.137200
-10.570412
-11.705824
-12.306605
-11.969254
-11.239935
-10.871745
-10.811243
-11.387070
-12.376994
-13.171758
-13.061348
-11.688402
-9.410282
-7.220913
-5.601722
-4.920899
-5.529449
-6.360703
-7.803096
-9.134138
-10.282027
-11.188143
-10.512028
-9.472195
-7.527659
-5.473419
-3.618577
-1.941473
-1.445687
-0.595365
0.400680
2.160179
4.328125
6.202037
7.615003
7.531902
6.446399
4.370265
2.045062
-0.317573
-2.281413
-3.408820
-3.778894
-3.711330
-3.301941
-2.263286
-1.465461
-0.668107
-0.229998
0.284151
0.361603
-0.413151
-1.635666
-3.718627
-5.438341
-7.017746
-7.332733
-6.132582
-3.900839
-0.719898
2.167950
4.993177
7.051890
8.512882
9.473614
10.044969
10.775465
10.911065
10.598197
9.965399
9.385098
9.370032
9.543769
9.786718
9.865112
9.188997
7.711762
5.840676
4.066346
2.523900
1.103165
-0.350293
-2.001501
-3.907193
-6.027585
-8.023677
-9.384852
-9.838028
-9.477370
-8.261682
-6.192140
-3.858697
-1.957007
-0.720131
-0.195624
-0.118879
-0.181028
-0.174201
-0.434100
-1.184606
-1.889206
-2.585802
-3.006961
-3.191292
-3.311119
-3.453545
-3.747344
-3.884356
-3.855400
-3.877058
-4.525865
-5.730724
-7.329433
-8.718623
-9.794945
-10.521674
-10.402083
-9.585660
-8.221189
-7.064590
-6.094676
-5.621490
-5.367005
-5.162429
-5.290259
-5.784398
-7.306833
-9.124950
-10.776393
-11.624126
-11.466633
-10.542860
-9.399916
-8.629635
-8.113603
-7.808974
-7.318132
-6.766081
-5.861849
-5.257771
-4.797533
-4.164735
-3.281218
-1.212853
1.260191
4.152512
7.000810
9.411941
11.472537
12.709648
13.187778
12.577109
11.123651
9.467735
8.380819
8.081370
7.999916
7.527672
6.364717
4.700562
2.956835
1.868507
1.636623
1.876512
2.184671
2.437037
2.565810
2.763089
3.233685
3.640955
3.992666
3.929340
3.532193
3.217913
2.711768
2.332749
1.724434
1.051380
0.603148
-0.362999
-1.241336
-2.096367
-2.827334
-3.079464
-3.171983
-2.510699
-1.551143
-0.586173
0.221068
0.790775
1.536102
2.127467
2.803817
3.285007
3.176010
2.569814
1.739031
1.254074
0.944973
0.421172
-0.329098
-1.307016
-2.286347
-2.992359
-3.582547
-4.047729
-5.017172
-6.370813
-7.454433
-8.269679
-8.248727
-7.523174
-5.929408
-3.907185
-2.475385
-1.870836
-2.193356
-2.942685
-4.015476
-4.994335
-5.391011
-5.409138
-5.336630
-5.124049
-4.828367
-4.372366
-3.722618
-3.129840
-2.344257
-1.927335
-1.866363
-1.950877
-1.587159
-0.220569
1.328703
2.911876
3.572924
3.204263
2.170551
0.793368
0.196117
0.234019
1.320700
2.875152
4.016448
4.637240
3.904626
2.359120
-0.011519
-3.118304
-6.096551
-8.893293
-10.360876
-10.292370
-8.972863
-6.649778
-4.436868
-2.497511
-1.565028
-1.463799
-1.229560
-0.751666
0.480031
2.267309
4.471979
7.186326
9.865831
12.243297
13.874023
14.716577
15.301350
15.421883
15.579141
15.895070
15.984763
16.010188
15.529940
14.947756
14.121211
13.019699
12.123000
11.324469
10.620104
9.798267
9.378991
9.118386
8.998089
8.932643
8.545384
7.899873
6.830849
6.010425
5.541947
5.442131
5.409879
5.379981
5.290523
4.979538
4.492934
3.237931
1.584134
-0.563095
-2.841451
-5.152530
-8.093110
-11.437665
-15.519307
-19.774216
-23.657873
-26.654954
-27.995412
-28.650575
-28.949082
-29.065142
-29.334694
-29.019236
-28.289211
-26.841403
-25.128516
-23.856799
-22.713619
-22.135437
-21.679201
-21.646007
-22.287516
-23.408096
-25.172303
-26.839990
-28.045555
-28.213877
-27.162274
-25.389121
-23.434462
-21.933920
-20.972952
-20.284125
-19.581644
-18.806183
-18.024602
-17.263973
-16.380692
-15.207144
-13.882693
-12.737394
-11.991126
-11.706508
-11.561727
-11.213311
-10.554853
-9.318683
-7.326593
-4.798932
-2.133787
0.327958
2.279321
3.830948
4.772612
5.003790
5.080771
4.992726
5.087598
5.331019
5.503343
5.603395
4.680800
3.104219
1.037031
-1.406115
-3.551461
-5.634422
-6.811972
-7.136611
-6.912730
-6.389871
-5.914802
-5.269997
-5.078840
-4.890742
-4.631078
-4.352581
-4.109632
-4.347637
-4.515489
-4.866259
-5.446794
-6.019090
-6.662482
-7.107418
-7.354605
-7.236897
-6.807027
-6.715686
-7.393919
-8.780284
-10.410775
-11.953927
-13.041313
-13.482012
-13.472124
-13.602074
-14.117399
-14.775622
-15.748596
-16.767712
-18.002704
-19.144707
-20.060004
-20.873131
-21.125262
-21.077943
-20.530365
-20.083781
-19.682397
-19.288310
-19.153888
-19.041359
-19.287369
-19.523020
-20.051058
-20.606875
-21.102425
-21.408937
-21.362560
-21.230962
-20.552964
-19.303612
-16.936033
-13.901992
-10.691389
-7.624389
-4.988201
-2.659466
-1.100071
0.002853
0.547371
0.677556
0.404473
-0.352154
-1.381628
-2.519628
-3.182560
-3.517086
-3.517086
-3.626554
-4.114807
-4.789274
-5.389113
-5.390290
-5.017862
-4.394481
-3.724487
-2.872987
-1.739459
-0.648777
0.178946
0.534189
0.506410
0.174944
-0.090841
-0.146869
0.137984
0.896023
2.002949
3.504903
5.143634
6.738107
8.246888
9.705761
11.116138
12.281212
12.938258
12.916835
12.522513
12.176687
12.024138
11.990002
11.774361
11.362619
10.997960
10.552553
10.160114
9.827001
9.326036
8.767158
7.958975
6.945039
5.832698
4.711883
3.976679
3.602132
3.455232
3.386962
3.340585
3.412858
3.512910
3.384608
2.902241
2.374909
1.912552
1.448312
0.955586
0.369400
-0.233029
-0.674434
-0.719163
-0.280583
0.667673
2.031909
3.886516
6.326602
8.979505
11.408998
13.216522
14.299671
14.727893
14.575108
14.134645
13.629207
13.225233
12.891178
12.509568
12.069341
11.385457
10.442616
9.416203
8.469595
7.559948
6.618519
5.826345
5.165297
4.606419
4.202210
4.048483
4.160777
4.284370
3.894286
2.604207
0.478400
-2.153550
-4.610587
-6.321119
-6.974163
-6.779945
-6.007780
-4.816340
-3.438450
-1.692370
0.449916
2.907659
5.143169
6.746116
7.777474
8.178623
8.146371
7.892592
7.830443
8.111529
8.642628
9.352172
10.094203
10.941701
11.828513
12.833033
13.914063
14.660567
14.780629
14.072733
12.494505
10.410838
8.400856
6.921738
6.261867
6.348500
6.964348
7.920608
8.895466
9.652799
10.149762
10.416489
10.625774
10.763492
10.641782
10.509714
10.615415
11.271284
12.533820
13.968210
15.340921
16.195245
16.193127
15.370583
14.046133
12.423175
10.481229
8.612262
6.707511
4.602186
2.556892
0.479581
-1.100060
-2.139892
-3.272478
-4.104674
-4.851178
-5.522584
-5.995535
-6.962153
-8.493533
-10.804141
-13.544619
-16.243427
-19.022513
-21.762049
-24.326906
-26.405629
-27.814593
-28.498241
-28.378179
-27.514438
-26.338770
-25.179582
-24.106085
-23.157829
-22.146247
-20.839453
-19.034754
-17.026420
-15.307883
-14.105378
-13.207266
-12.116113
-10.660771
-8.882439
-7.154721
-5.742461
-4.622351
-3.779562
-3.099210
-2.704417
-2.692175
-2.779750
-2.559636
-1.830082
-0.714210
0.537968
1.549550
1.989072
1.816512
1.198780
0.505480
-0.079764
-0.536941
-0.988705
-1.598196
-1.960737
-1.675413
-0.569664
1.248454
3.470545
5.836947
8.031495
9.795938
10.771737
10.982434
10.608829
9.916471
9.431985
9.263427
9.292148
9.407737
9.510614
9.559816
9.485189
9.218934
9.016711
9.172086
9.543808
9.898580
10.033709
9.901876
9.603839
9.143366
8.569186
7.868588
6.874662
5.568810
4.202455
3.161211
2.673900
2.843635
3.662882
4.869625
6.242806
7.765948
9.346060
10.914166
12.568198
14.162435
15.476527
16.278354
16.546493
16.811807
17.412589
18.382738
19.785347
21.250576
22.333725
23.084466
23.296105
23.240783
23.322237
23.494561
23.951975
24.209284
24.110174
23.638165
22.745939
21.899854
21.370168
21.438439
21.870898
22.236263
22.211074
21.823815
21.064834
19.955789
18.854984
17.839164
16.940817
15.993738
15.149772
14.608315
14.579359
15.231226
16.425021
17.924150
19.061680
19.458591
18.919489
17.675551
16.276238
14.951553
13.823204
12.754415
11.627715
10.343285
8.871700
7.319602
5.707238
3.941383
1.977779
-0.162859
-2.477704
-5.102828
-8.169121
-11.735908
-15.718676
-19.513110
-22.699230
-24.994301
-26.224114
-26.497902
-26.015535
-25.321293
-24.781249
-24.551718
-24.554778
-24.623049
-24.546068
-24.087242
-23.380523
-22.573517
-21.697770
-20.719381
-19.830215
-19.203302
-18.861007
-18.816042
-18.978950
-19.374449
-19.933562
-20.688305
-21.625967
-22.555860
-23.284237
-23.563205
-23.317431
-22.480291
-21.058379
-19.143270
-16.826306
-14.258624
-11.722958
-9.539475
-7.801163
-6.413857
-5.016427
-3.257399
-0.819666
2.463445
6.347102
10.412266
14.255432
17.813273
20.895339
23.341547
25.259952
26.591935
27.398942
27.678616
27.519004
27.036166
26.220685
25.253596
24.206937
23.071525
21.755550
20.329400
19.166445
18.282929
17.475923
16.608180
15.217343
13.164280
10.654275
7.948639
5.581531
3.691141
2.537838
2.172237
2.541370
3.524231
4.733092
6.175251
7.406476
8.614396
9.944967
11.285190
12.623766
13.779658
14.695426
15.324693
15.887338
16.115691
16.602767
16.927877
17.104674
16.965308
15.980798
15.138480
13.622401
12.015687
9.701313
6.870200
4.165977
1.128404
-1.001639
-2.949471
-4.309469
-5.599313
-7.009926
-8.402882
-10.130364
-11.891276
-13.598042
-14.288752
-14.208710
-12.948764
-11.502368
-9.777711
-7.956062
-6.453637
-4.138556
-1.747201
1.299318
4.300872
7.317727
10.122003
12.098084
13.594153
13.915496
13.820388
13.108725
12.227093
11.403843
10.541279
10.042433
9.529226
9.101004
8.546129
7.984897
7.292068
6.506250
5.457942
4.027084
2.196960
-0.063033
-2.440028
-4.982756
-7.053004
-8.478683
-8.952105
-8.497516
-7.352924
-5.687591
-4.051685
-2.601994
-1.629255
-1.118402
-1.440451
-2.103853
-3.249152
-4.752048
-6.092506
-7.847532
-8.937508
-9.714381
-10.106113
-10.235121
-10.661930
-10.512912
-10.441345
-10.122592
-10.371426
-11.279190
-12.379760
-14.068399
-15.383903
-16.760616
-17.613057
-18.144391
-18.521292
-18.457258
-18.377688
-17.828698
-17.199666
-16.010580
-14.344541
-12.229564
-9.626098
-6.806992
-3.748232
-1.043302
1.317685
2.984430
4.195410
5.267494
6.543213
8.251627
10.036787
11.757442
12.865310
13.270461
12.753252
11.562518
10.177095
8.879247
8.069180
7.806456
8.166172
8.781549
9.575608
10.411334
11.260480
12.218152
13.157933
14.076291
14.754053
15.295275
15.605318
15.774817
15.919833
16.050254
16.252006
16.284022
16.386664
16.532386
16.621373
16.524618
15.960326
15.111886
14.065933
13.047995
12.277243
11.966965
12.079729
12.320559
12.444624
12.084908
10.885699
8.345561
4.461433
-0.526796
-6.089441
-11.428204
-16.140290
-20.016650
-23.173107
-25.620021
-27.708631
-29.591724
-31.504008
-33.786836
-35.745733
-37.509940
-38.840746
-39.436820
-39.618561
-39.285211
-39.249664
-39.754395
-40.728547
-42.039814
-43.057517
-43.623221
-43.703498
-43.457959
-43.196883
-43.038683
-42.810094
-42.490870
-41.719412
-40.430509
-38.753641
-36.583106
-34.209171
-31.500239
-28.610743
-25.584000
-22.323960
-19.028136
-15.762445
-12.712396
-10.047487
-8.168396
-7.043108
-6.474814
-5.975732
-5.112697
-3.925258
-2.393877
-0.942773
0.692191
2.349284
4.090421
6.515441
9.167637
12.254176
15.322823
17.802695
19.309358
19.438837
18.856182
17.805285
16.895403
16.356771
15.940791
15.621567
15.345189
15.195935
14.744407
13.853122
12.702880
11.650571
10.893944
10.517514
10.569070
10.791773
11.201868
11.703540
12.221455
12.853782
13.549672
14.258980
15.174042
16.369956
17.627548
18.766961
19.710744
20.441711
20.977517
21.375370
21.716488
22.079264
22.769504
23.994374
25.724446
27.924408
30.219008
32.436626
34.086892
34.961698
34.974175
33.550379
31.030016
27.580937
23.685508
19.981473
16.570767
13.562622
10.779298
8.187369
5.616862
2.961605
0.446891
-1.855006
-4.077568
-6.596519
-9.739793
-13.323531
-17.159869
-20.781744
-23.841446
-26.134397
-27.413412
-28.097531
-28.337184
-28.583665
-29.199042
-30.322683
-32.019090
-33.539877
-34.668461
-35.365999
-35.144001
-34.415624
-33.225126
-31.052472
-29.074271
-26.884902
-24.691061
-23.102709
-20.604004
-18.384737
-15.502539
-11.848412
-8.696192
-4.813006
-1.751421
1.195987
4.173999
6.229652
8.621243
10.179697
11.687536
13.499768
14.965939
17.024887
18.506831
19.680380
20.494448
20.549065
20.559894
19.869184
18.997909
17.841546
16.521569
15.437243
14.395527
13.850068
13.582871
13.553680
13.515778
13.478818
13.668092
14.444494
15.974933
18.032705
20.368737
22.505373
24.471803
26.108415
27.413796
28.406781
29.264166
30.160395
31.270146
32.725252
34.089723
35.394634
36.641397
37.817300
38.868668
39.483574
39.287002
38.332626
36.644458
34.335027
31.837970
29.091607
26.302399
23.313087
20.196414
17.134123
13.806519
10.227019
6.211999
1.779587
-2.792191
-7.472025
-11.821571
-15.534787
-18.861450
-21.570382
-23.687478
-24.812766
-24.946011
-24.429979
-23.202991
-21.984007
-20.797040
-20.057834
-19.585118
-19.325454
-19.742141
-20.666854
-22.480028
-24.845488
-27.920491
-31.298475
-34.455639
-37.208593
-39.247296
-40.888145
-42.092769
-43.414865
-45.178130
-47.695904
-50.906507
-54.366180
-57.471788
-59.483417
-60.456156
-60.161886
-59.115697
-57.706497
-55.988196
-54.233405
-52.254498
-50.175775
-47.773120
-45.039234
-41.981886
-38.388968
-34.596887
-30.448151
-26.232793
-22.134906
-17.951094
-14.003403
-9.861965
-5.652963
-1.153457
3.678927
8.101922
12.004178
14.583631
15.917498
16.188462
15.663484
15.002436
14.412248
14.710050
16.140673
18.810996
22.510558
26.506745
30.397700
33.850782
36.612917
38.780157
40.450904
41.361022
41.815375
42.098345
42.594367
43.752378
45.436073
47.769046
50.172408
51.715324
52.071744
50.883599
48.117933
43.888449
38.541446
33.089918
28.147360
24.253815
21.702848
20.123913
19.143641
17.827901
16.178341
14.508771
12.693949
10.895607
8.904223
6.731098
4.381647
2.122830
-0.107736
-1.993418
-3.620849
-5.567974
-7.609972
-10.099732
-12.671886
-15.167531
-17.258025
-18.878864
-20.223325
-21.315655
-22.397156
-22.467545
-21.726926
-20.115504
-17.803248
-15.797033
-13.844963
-12.018371
-10.342680
-8.453231
-6.811911
-5.270172
-3.917942
-3.042195
-2.032025
-1.703619
-1.470793
-1.864408
-2.904476
-3.960787
-5.670849
-6.809556
-8.124825
-8.860971
-9.228220
-9.614537
-9.623954
-9.702112
-8.595421
-6.679135
-3.589065
-0.032165
3.516731
6.698378
8.695648
9.660382
9.224392
8.099810
6.392573
5.084367
4.588345
5.029515
6.320065
7.740095
9.653791
11.447190
13.136771
14.540086
15.404298
15.798384
15.654310
15.464094
15.377460
15.246334
14.852718
14.088323
12.830260
11.454960
10.041522
8.560285
7.030081
5.402886
3.737318
2.044913
0.380286
-1.397104
-2.873398
-3.952545
-4.329210
-3.980794
-3.251005
-2.361132
-1.746461
-1.161688
-0.781726
-0.422952
0.105086
1.098306
2.811428
4.623189
6.437540
7.825789
8.440224
8.094398
6.748054
4.747489
2.125426
-0.778430
-3.659450
-6.234901
-8.240881
-9.454215
-9.602997
-8.826831
-7.116534
-4.852538
-2.690949
-1.105186
-0.714631
-1.369323
-2.741327
-4.245635
-5.297945
-5.910497
-6.010549
-5.959463
-5.873301
-6.046803
-6.634401
-7.470128
-8.663922
-9.872547
-11.158389
-12.333351
-13.313152
-14.066954
-14.177599
-13.835775
-13.086917
-11.732804
-9.562269
-6.439476
-2.264844
2.361786
6.525353
9.852723
11.971702
12.823202
12.772117
11.812561
9.950892
7.688780
5.205847
3.132068
1.876595
1.364800
1.461792
1.347144
0.475399
-1.621922
-4.739300
-8.198502
-11.375206
-14.176185
-16.861340
-19.026225
-20.773953
-22.192570
-23.295729
-23.807759
-23.482414
-22.630914
-21.305286
-19.885257
-18.510663
-17.467064
-17.056969
-16.848155
-16.563067
-16.157445
-15.819387
-15.833277
-16.233484
-16.854276
-17.553226
-17.899758
-17.438578
-15.855406
-12.599602
-7.487544
-1.093411
5.304960
10.838648
15.320733
18.794296
21.593392
24.137062
26.713690
28.947317
30.331327
30.601349
29.961960
28.626209
27.090826
26.112438
25.756253
26.505112
27.975755
29.481476
30.670562
31.213196
31.525358
31.418714
30.955887
30.059658
28.686712
27.126375
25.684217
25.074960
25.351810
26.679320
28.688360
30.454216
31.269461
30.972602
30.049065
28.830081
27.829563
27.252794
27.134616
27.543769
28.684594
30.277184
31.776077
32.697260
32.322007
30.735303
27.373563
22.301055
16.205900
9.213104
2.005844
-4.683266
-9.893492
-13.442388
-14.851117
-14.614760
-13.715941
-11.612970
-9.161819
-6.387442
-3.243932
-0.733220
1.503467
3.602671
6.012860
9.007587
12.051751
14.666987
16.260518
17.020912
16.895435
16.026750
15.029057
14.613077
14.957726
15.078966
14.799056
13.967802
13.040028
12.713506
13.332179
15.425969
18.355721
21.388350
24.118940
26.337500
27.986118
28.939788
29.227702
29.057497
28.403982
27.485860
26.746418
26.095493
25.646555
25.193850
24.566231
23.758283
23.061688
23.369612
24.631206
26.307839
27.771655
28.551824
28.464249
27.763651
27.202891
26.517124
25.802872
25.089091
23.438589
20.585112
16.173652
10.943416
5.560629
0.284957
-4.675964
-9.334375
-13.135166
-17.130175
-20.440595
-23.296426
-25.892829
-27.551099
-29.311304
-30.053335
-31.585658
-33.413663
-36.043730
-39.868062
-42.967314
-46.890521
-48.950646
-50.217890
-51.143075
-50.906482
-51.233239
-50.821732
-50.640226
-50.526049
-50.089117
-49.950457
-50.060867
-50.424585
-51.110351
-50.867402
-49.470914
-47.749553
-45.306876
-43.308430
-40.890237
-38.063127
-35.157387
-31.871215
-29.143921
-26.183330
-22.814527
-19.393462
-16.808830
-14.988593
-13.316434
-11.147075
-8.032051
-5.312055
-3.250517
-1.370720
0.908577
4.114237
7.300828
10.047190
12.871947
14.907589
16.853067
18.895771
19.984570
21.130340
22.324841
23.868228
25.655271
26.778911
27.784137
28.762055
28.608564
27.470328
25.508607
22.855940
20.746848
18.578902
16.910038
15.721659
13.659650
11.237691
8.820204
6.260997
3.832446
1.651081
-0.182809
-2.080497
-5.488379
-9.037039
-12.432679
-15.083463
-15.227302
-14.238320
-11.999514
-8.643423
-5.942260
-4.703972
-3.989485
-4.442896
-5.312993
-6.172026
-7.945885
-8.857181
-10.632453
-11.936657
-12.222452
-12.331214
-11.527504
-11.545866
-10.890468
-10.822904
-11.100224
-11.126119
-11.268075
-10.251078
-9.057283
-6.949840
-4.596150
-1.915469
0.589357
3.273100
6.905804
10.745203
15.276490
19.056329
22.622881
25.597362
27.849587
29.397447
30.335344
32.163585
33.951805
36.764555
40.213634
43.596091
46.890032
49.076105
50.097575
49.780940
48.639173
46.068666
43.052045
39.953971
36.599529
33.539121
29.910890
26.685456
23.302764
19.482433
15.617138
11.986789
9.485729
8.261096
8.504280
9.196639
10.685645
12.166647
12.940224
13.626697
13.502162
12.639127
11.656265
10.700947
9.260672
8.296644
7.166412
6.483470
6.982081
7.108500
7.634184
7.166883
6.086559
4.853215
2.657490
0.374662
-2.275181
-4.328008
-6.112226
-7.556267
