EVENT_NAME: 202302060117
EVENT_ID: 13194
EVENT_DATE_YYYYMMDD: 2023/02/06
EVENT_TIME_HHMMSS: 01:17:32.00000
EVENT_LATITUDE_DEGREE: 37.288
EVENT_LONGITUDE_DEGREE: 37.043
EVENT_DEPTH_KM: 8.6
HYPOCENTER_REFERENCE: AFAD
MAGNITUDE_W: 7.7
MAGNITUDE_W_REFERENCE: AFAD
MAGNITUDE_L: 
MAGNITUDE_L_REFERENCE: 
FOCAL_MECHANISM: 
NETWORK: TK
STATION_CODE: 2704
STATION_NAME: 
STATION_LATITUDE_DEGREE: 37.00879
STATION_LONGITUDE_DEGREE: 37.80215
STATION_ELEVATION_M: 524.0
LOCATION: Kahramanmaras_Pazarck_Turkiye
SENSOR_DEPTH_M: 
VS30_M/S: 721
SITE_CLASSIFICATION_EC8: B
MORPHOLOGIC_CLASSIFICATION: 
EPICENTRAL_DISTANCE_KM: 74.10
EARTHQUAKE_BACKAZIMUTH_DEGREE: 
DATE_TIME_FIRST_SAMPLE_YYYYMMDD_HHMMSS: 2023/02/06 01:17:19.8531720
DATE_TIME_FIRST_SAMPLE_PRECISION: millisecond
SAMPLING_INTERVAL_S: 0.01
NDATA: 10501
DURATION_S: 
STREAM: HNZ
UNITS: cm/s^2
INSTRUMENT: sensor = CMG-5T/GURALP | digitizer = 
INSTRUMENT_ANALOG/DIGITAL: 
INSTRUMENTAL_FREQUENCY_HZ: 
INSTRUMENTAL_DAMPING: 
FULL_SCALE_G: 
N_BIT_DIGITAL_CONVERTER: 
PGA_CM/S^2: 66.301
TIME_PGA_S: 
BASELINE_CORRECTION: BASELINE REMOVED
FILTER_TYPE: BUTTERWORTH
FILTER_ORDER: 
LOW_CUT_FREQUENCY_HZ: 
HIGH_CUT_FREQUENCY_HZ: 
LATE/NORMAL_TRIGGERED: 
DATABASE_VERSION: 
HEADER_FORMAT: DYNA 1.2
DATA_TYPE: Acceleration
PROCESSING: Automatic Paolucci et al., 2011
DATA_TIMESTAMP_YYYYMMDD_HHMMSS: 
DATA_LICENSE: U (unknown license)
DATA_CITATION: Turkish Accelerometric Archive v 1.0 - Disaster And Emergency Management Presidency, Earthquake Department
DATA_CREATOR: AFAD
ORIGINAL_DATA_MEDIATOR_CITATION: : AFAD - Disaster And Emergency Management Presidency
ORIGINAL_DATA_MEDIATOR: AFAD PROCESS SERVICE
ORIGINAL_DATA_CREATOR_CITATION: AFAD PROCESS SERVICE
ORIGINAL_DATA_CREATOR: network: TK
USER1: GuestUser
USER2: 
USER3: 
USER4: 
USER5: 
[...]
3.144640
-12.859543
-4.270881
-1.468770
-8.736353
-9.088981
-2.566243
-9.244307
-14.365255
-7.363169
0.116118
-3.535176
-20.416119
-10.194849
17.339737
20.119445
14.592800
28.524571
37.607619
14.672217
-8.328244
-4.371647
6.818754
20.779679
18.610007
-8.460619
-24.923590
-33.080207
-23.306984
-16.093149
-12.289379
9.531387
17.002388
9.463829
11.337931
13.016242
2.872569
-17.052942
-17.120784
14.096683
17.408217
-4.349682
-9.420609
9.261989
5.995217
-4.939596
7.414499
4.849257
-5.468724
-14.070012
-29.979369
-21.340686
-3.485746
-18.799753
-26.183337
-9.853289
-11.238573
-17.617120
3.604613
13.029833
-9.036174
-19.611322
-29.470516
-28.167827
-17.322668
-13.583035
-3.550804
7.046089
13.113722
-5.446475
-19.003587
-6.777156
-5.473853
-7.495301
7.782757
18.189383
14.277240
28.725185
14.991309
-7.635984
0.287053
15.527365
27.830517
31.221839
25.099537
4.345140
1.947762
8.969489
13.554886
22.786464
29.667026
14.734472
8.707303
19.508885
13.970885
3.136116
12.404213
16.376461
3.583790
-7.828837
-15.452708
-23.199025
-34.460360
-29.918540
-16.834989
-9.641715
-4.044838
11.381444
25.611196
2.585571
-8.053715
-9.770430
5.611968
31.077255
26.818950
12.049656
3.176778
1.439195
-3.751109
-0.089117
11.008299
3.300649
-8.172127
2.244013
13.460499
12.141195
4.184664
5.565608
21.069531
28.128697
15.817829
-0.587755
-3.077197
7.613294
26.733812
31.990972
26.612857
33.577197
30.776271
18.578028
20.691804
6.389277
-6.417818
-3.782958
-6.860998
-14.114464
-14.056792
-2.155041
-8.522847
-20.062216
-18.109860
-15.134362
-24.511445
-7.370004
11.354944
-7.248830
-34.277720
-30.453388
-14.952227
-12.973786
-8.054196
2.728974
9.569948
4.275611
0.746456
2.886930
5.624902
9.943313
-9.593687
-25.158109
-21.147501
-10.515317
-1.899035
-3.561126
-6.766829
5.951534
10.771081
10.718583
7.956323
-1.075213
3.996284
15.378486
27.172215
20.379378
-4.655398
-15.557681
-29.108963
-39.047026
-26.562200
-8.044090
6.597804
16.712280
19.336092
6.603262
10.352101
2.258701
-6.187919
-7.997926
0.601170
16.210047
11.720046
-6.717091
-19.358470
-8.934659
0.100209
-4.857479
0.646414
6.791381
15.083289
3.016391
-20.111425
-20.941561
-19.130676
-20.946514
-1.061555
32.573523
26.235790
1.318549
-17.264050
-19.958795
0.017921
19.708011
5.687201
-7.254922
-2.355585
-5.085009
12.097861
29.961701
16.278767
-14.527831
-21.497432
-8.218090
-11.413973
-23.623877
-20.860127
-10.924870
-13.070912
-7.813138
-0.927053
-5.177993
-15.605531
-11.980366
-5.846139
-4.630298
-16.976457
-35.982552
-22.032983
-5.730862
-7.086071
-7.585695
-21.200195
-20.226789
9.857980
23.993520
15.983592
9.894740
20.458797
19.477062
13.291542
23.005538
10.970249
-20.449497
-23.330827
-10.333202
1.934659
6.744693
19.911715
24.977995
9.590336
1.957872
-0.306319
-3.525832
5.728763
14.716677
10.552277
7.426057
16.346151
25.344499
30.383467
11.706962
-15.399262
-11.563883
-2.641027
7.186207
18.430619
18.796400
-8.708463
-33.089275
-26.700645
-24.027731
-8.689831
1.814384
-3.587361
-2.686073
2.660389
6.696469
2.636716
0.794793
-7.965766
-12.097023
-13.232198
-26.066913
-33.359966
-24.260347
-17.183075
-10.120226
14.944581
23.877871
-3.577584
-9.013393
3.192171
3.890304
10.305940
25.210218
31.938873
44.613044
35.527498
10.935244
5.806624
19.508541
24.367369
21.318482
16.616120
12.103410
28.810614
37.518653
11.628292
-11.151521
-6.628421
-7.540801
-12.652236
-6.769652
-2.651942
0.872566
-5.562754
-13.656768
-3.250141
-0.747854
3.559202
-0.420762
-6.590324
-11.159193
-7.877427
-17.958497
-33.734360
-28.972200
-12.463854
3.082111
-6.635610
-18.642052
-12.884676
-9.961348
-6.208826
1.266164
-3.116121
-0.985467
2.583846
-0.557412
-0.825955
-9.514397
-17.624368
1.028156
15.677108
10.833887
18.614531
37.696075
29.905567
7.803041
2.187707
-5.592674
-15.232755
-5.163084
11.082877
28.361495
49.253945
52.599848
40.634222
19.375925
-1.274439
7.179195
20.917017
9.240779
5.026358
9.173836
16.192800
13.153120
-3.015244
-9.570862
5.790975
6.581479
3.242589
26.653307
31.977673
12.113539
-7.777909
-6.118931
3.220670
10.849407
18.209317
9.169189
3.528384
-9.406681
-33.834446
-29.024412
-23.366772
-20.228013
-10.823354
-1.239169
-2.246682
-10.804700
-21.021410
-31.352588
-28.204929
-7.278415
-11.822120
-34.052616
-37.324298
-27.540641
-14.913422
-3.499305
2.721155
-15.265174
-40.949617
-35.042483
-26.544351
-7.036242
2.434397
-10.801104
4.647273
27.694643
34.236715
27.051069
10.646406
-10.816580
-19.172056
-28.869217
-33.956408
-16.512689
4.906676
3.284480
4.736006
6.673325
9.770042
6.055530
-14.232101
-18.235082
-10.502925
-0.339962
20.444773
40.458929
54.571452
53.572532
47.672719
35.493810
34.643420
42.745983
22.925425
-3.334114
-3.560921
29.093365
35.470027
1.601062
-12.525008
-0.588886
-1.790962
-5.437653
1.575788
-1.945696
-2.474781
6.720279
9.312789
0.449118
-9.868557
-2.148675
-1.534321
-2.600448
3.956047
-9.713384
-28.939820
-18.661470
9.334359
20.218799
26.688447
23.621454
17.598582
2.519646
-5.532632
-0.590332
-10.162593
-21.965572
-25.650317
-7.688275
20.125573
17.848186
4.126585
6.379992
9.801695
14.040010
15.386889
10.422757
-7.103863
-19.982155
-22.252791
-5.345193
3.683230
3.323543
11.055393
28.078378
24.041641
-5.888197
-33.482056
-35.211967
-18.099679
3.176065
33.745400
51.388592
22.810872
-5.773906
-2.171449
-6.314981
-25.017264
-33.567610
-20.262797
-10.026797
-9.187498
-1.615534
5.338065
-2.740297
-10.916555
-17.035174
-2.089468
3.902673
-16.152649
-33.083921
-33.863728
-40.113999
-28.587870
7.867446
19.039434
-2.038723
-17.569081
-7.511992
10.303053
10.007198
13.146877
5.009593
-9.635413
-17.214480
-5.295236
8.686863
2.045932
-10.769142
-33.744131
-37.151148
-26.163289
-22.832422
-16.870356
-2.670064
6.154896
5.375703
6.669799
22.184770
22.052482
14.549829
17.214456
21.248695
21.194355
9.940999
-1.490040
4.661065
-9.575790
-41.818898
-52.485190
-45.127121
-35.256310
-10.628502
5.054026
-13.813359
-22.628236
4.152957
25.757985
13.270661
-1.796921
-11.533363
-4.388883
1.550167
-0.899995
18.090712
41.565875
42.610783
27.658589
18.041831
-5.798871
-11.536343
11.178981
8.270032
-11.941799
-19.276282
1.424061
13.137694
9.259001
26.176112
37.051039
20.212446
1.487761
14.359564
11.637505
-1.543984
-1.107008
-6.459344
12.985240
22.046499
7.052262
-5.770791
4.489453
37.208798
49.720629
34.785927
11.707212
-24.370071
-35.833333
-16.560295
-8.013062
-10.653182
-20.412947
-24.612638
-27.731494
-14.365612
-0.770183
-4.875968
-6.512588
20.380310
30.558617
26.454059
18.246193
-9.428375
-17.499987
-22.142200
-47.524980
-58.109948
-26.223172
0.537460
5.251133
10.411319
19.199761
7.620190
11.407389
32.373798
29.276731
2.998779
-11.471305
6.441635
19.129617
3.761905
-1.550230
-3.464270
-10.299150
-0.118389
24.522615
33.275152
21.832758
23.768236
33.421469
18.755288
-2.917912
2.484710
19.558330
10.810046
-2.160003
10.160641
24.353875
19.544104
-3.083803
-18.214295
-23.226608
-7.870909
10.264828
-2.801275
-18.437201
-4.611304
-0.291359
1.045086
-1.516166
-8.268802
-0.530200
-6.603094
-8.293111
3.652218
1.729585
-19.948218
-43.664632
-43.138046
-12.861476
6.315201
1.270359
-8.082788
-11.916062
-23.178931
-33.188497
-15.938113
2.255624
-6.355178
-4.345742
-5.596918
-19.581516
-32.946521
-42.516633
-29.260001
-31.251989
-41.541430
-41.697962
-34.007541
-3.413962
10.338283
26.607568
46.023305
44.522634
15.825845
-10.388276
-9.118423
-22.866416
-21.254698
-5.632012
-5.555006
-9.237296
-14.834524
-26.551270
-45.005593
-27.285987
-0.384190
5.217905
3.133853
1.923491
33.852003
47.164794
36.037567
28.988177
27.022274
24.618759
27.442351
41.244925
36.078558
14.967871
-11.480706
-41.366047
-36.644088
-24.201918
-20.319279
-5.606189
-4.857114
0.576809
14.763598
22.436834
26.403251
17.070972
5.690875
2.101878
0.882310
-19.850913
-25.063925
0.158004
-0.187873
-11.638246
1.348945
13.936883
-13.213839
-37.183431
-27.834931
-18.580030
-20.603933
-36.307373
-23.745827
-11.218037
-15.555825
8.044545
29.406523
15.255902
14.095869
42.466400
53.136638
25.959217
1.326455
20.709663
23.306470
10.109636
22.429360
28.627418
20.245857
22.950072
10.771470
-9.781307
1.030096
35.862011
43.070628
25.779078
16.199453
2.315205
-20.559128
-30.824633
-29.956794
-28.287689
-25.997457
-1.590297
25.109880
27.926414
18.912677
7.302112
0.376396
-14.500613
-18.378079
-12.214085
-13.630057
-11.441709
-23.640872
-39.193940
-51.384204
-45.369661
-5.056848
17.919632
31.783275
44.650782
49.262264
38.243366
-2.644586
-27.447974
-24.072917
7.302902
46.807697
47.561989
30.477584
22.106456
-6.194149
-37.562954
-34.125599
-9.142423
11.046655
12.596997
2.596638
-6.406358
6.232829
0.476637
-13.993754
-17.598402
-24.807371
-20.956033
-17.249544
-23.755141
-12.246811
16.130779
7.689989
-28.540734
-19.194075
18.208584
13.342960
-10.491297
-15.745432
-1.278460
12.650242
6.537453
-5.701298
-8.448520
-14.607954
-19.266126
-12.585037
-0.524014
5.327268
-4.070991
-6.004058
-9.154522
-12.653910
-3.035355
5.225558
-6.265937
8.929571
38.134512
26.776203
0.655374
1.317295
18.151855
25.747450
26.977101
20.720692
6.965641
-15.736838
-29.626303
-37.679194
-32.570565
-17.522361
-24.354172
-34.261853
-20.876638
4.428764
7.041835
17.677395
31.871242
32.024047
40.398813
34.158976
27.762936
17.374065
-0.314589
-1.443013
5.607561
15.802132
17.423057
8.085867
3.578988
9.869110
15.075635
5.187594
-13.909952
-26.002014
-12.374669
6.638134
-0.428135
-21.589763
-22.804421
-30.991726
-38.083159
-22.382832
6.390327
18.195104
13.969022
-11.808100
-23.921644
5.551818
26.602312
21.691577
9.544277
19.537841
20.787747
11.753449
-8.840756
-26.967330
-25.521941
-21.829875
-10.040442
6.446421
2.271894
0.283282
15.805925
22.105561
11.600995
0.436022
-8.064303
-4.691700
3.631510
10.134301
19.809936
11.881331
9.639235
15.731726
21.156443
15.011739
-9.065875
-21.029046
-19.931968
-14.874895
-4.340913
12.711533
12.335888
1.241804
0.531966
-2.333405
-6.521742
-3.718097
-26.567572
-60.974500
-61.763207
-38.106064
-12.774271
0.505684
-5.574268
-19.152862
-26.464022
-15.619476
-2.845261
-9.326614
-12.225742
-0.516712
2.700915
-2.528362
-6.384346
-4.801475
4.385299
8.544745
7.499792
-8.022281
-10.954859
13.675097
8.554455
-1.521090
4.974029
-1.892460
12.083195
28.258881
28.900547
30.907835
24.041960
8.637116
16.579793
27.965064
17.509293
13.154934
6.279852
-7.686333
-0.467895
21.319727
32.913984
33.526804
33.106048
28.303028
8.509783
-9.663437
-2.823384
10.994841
9.242221
13.004869
26.434582
14.681624
-6.877109
-13.597829
-13.524199
-16.239813
-28.906663
-47.242836
-41.033731
-21.769593
-20.493296
-35.209805
-50.075153
-55.149148
-47.359298
-23.952263
-15.281971
-16.536216
-27.181640
-33.313455
-30.329057
-30.767612
-33.019528
-20.007174
6.685945
28.232052
40.962689
33.797298
2.661417
-31.124383
-32.949121
-0.356211
28.006341
23.036992
12.573855
22.290613
31.305533
29.280402
31.698297
22.957992
14.251750
20.012195
24.992548
25.780904
24.426309
10.019135
2.917269
10.897999
25.304515
15.571756
-5.868521
-15.331531
-6.042873
3.450782
3.777589
11.600275
11.981400
7.513801
16.834375
28.593120
26.880394
0.241857
-20.127097
-2.014684
-0.692355
-9.564312
-18.141971
-28.374639
-35.626877
-29.052583
-13.149101
-12.284332
-21.774348
-32.740155
-37.932300
-26.524934
-10.081341
-1.004738
13.449038
16.377276
2.257344
-8.001410
8.212023
4.145518
-20.480186
-18.090524
-10.136799
-1.009867
5.949563
23.319324
33.425207
13.639633
-2.477482
-6.036098
2.875403
6.759269
-0.578282
-0.291063
6.122118
10.330358
10.550984
10.485596
3.410121
-6.764240
8.410093
27.043897
10.842390
-7.726093
-3.867084
-18.633001
-37.087631
-34.379119
-30.698101
-36.477003
-44.493069
-26.958206
-17.808565
-30.887863
-31.084903
-14.164416
-1.310105
0.334142
22.378010
42.181646
12.048345
-12.952981
-17.997516
-19.753512
-3.154023
27.795231
14.612820
-18.162420
-14.964740
-7.813203
-2.784976
2.000814
6.252018
2.252106
-5.046778
-6.124874
10.008156
15.456196
-11.063885
-33.432171
-42.316403
-37.116323
-21.561151
-8.020654
-1.390201
1.698230
-1.321503
17.991736
37.629963
26.332110
16.928327
9.466182
2.665059
-5.266307
-14.242604
-8.501800
-2.893261
-12.648115
3.744229
19.749596
6.649123
-5.496030
2.272953
12.615441
2.840946
-21.037808
-42.567695
-56.012182
-39.574726
-2.193242
33.353705
52.859052
37.479679
25.102525
13.058644
6.187245
21.405462
28.900092
13.709451
2.240051
2.273479
14.399561
12.033792
7.261154
0.052800
7.579960
30.243728
25.854691
30.600894
32.519186
10.364183
-5.624042
-7.575828
0.989818
17.046434
9.543780
-14.397885
-33.597622
-38.879990
-39.677289
-33.884622
-19.221860
-13.139190
-18.807307
-12.720341
-5.647058
-9.675816
-24.562645
-41.504350
-46.082119
-41.418774
-8.630074
26.913805
21.119866
13.550926
25.577885
26.771938
12.779668
-11.409958
-25.965048
-18.392776
4.098218
14.147328
16.840495
22.450875
34.227113
40.245031
23.336469
12.233178
22.364532
13.355399
-4.344916
18.775798
40.553600
37.174816
44.697066
50.246377
48.790511
55.558754
66.301415
53.593136
24.000867
-1.375161
-6.021671
-14.270046
-25.386839
-20.909157
-27.740355
-30.573197
-22.235871
-23.372274
-25.978944
-9.836095
0.741158
-13.963690
-24.917530
-30.014541
-54.831739
-55.826363
-33.339972
-18.494309
-20.387174
0.017335
33.963590
27.133621
11.675686
13.574952
19.660077
13.990118
-3.667541
-9.347320
4.958232
14.968982
7.766765
15.783707
31.648830
32.220527
19.693922
2.958441
-9.927216
-8.848550
-1.800125
-2.637625
0.256242
5.077631
-0.720297
-9.208039
-5.083271
-4.792677
-9.150718
1.956211
14.593864
15.620052
23.903982
30.364116
21.077562
3.449670
-3.392575
2.652349
15.371939
10.719905
-7.104390
-13.606304
-7.741213
18.773301
31.380265
25.474929
32.349659
30.372709
21.409608
-1.732018
-33.695558
-37.628876
-27.313394
-12.977460
13.115705
30.369158
19.476081
-19.630119
-46.167999
-47.107691
-49.471312
-50.423586
-32.524148
-10.231400
3.207827
11.642742
13.905662
0.927020
-6.467611
5.159482
21.289749
16.650604
17.766096
36.173115
44.916752
34.649406
7.513721
-19.459931
-37.248628
-44.984511
-47.964963
-29.844878
-9.696001
-2.387954
-5.453719
-10.859760
-17.120465
-23.860826
-33.033220
-40.484317
-29.830651
-8.694538
-0.299518
-10.491678
2.305553
31.675903
43.139735
50.238796
53.832046
39.076562
14.819116
-3.311140
-22.237753
-29.084294
-23.633492
-5.225859
-7.651470
-36.926424
-53.932267
-39.907205
-22.202330
-27.567249
-17.328486
5.813096
-3.052110
-31.602517
-48.258516
-41.102989
-7.596801
5.963643
-4.904576
-3.889742
6.658357
17.488479
17.949700
19.930289
28.626666
25.412678
11.117516
2.835998
15.474571
14.442508
-10.298890
-29.037998
-28.792515
-13.465049
10.767189
42.269136
44.207990
19.348136
3.393054
-10.970236
-6.058317
5.244095
7.496581
6.445491
-8.195526
-14.206736
8.475445
26.231569
17.382014
6.588673
2.048651
5.995428
3.451054
-7.281217
-8.554489
-5.906740
-11.172229
1.584187
26.199412
39.310276
20.394404
-13.891920
-31.055807
-34.352654
-22.840334
-19.762338
-12.108436
12.327878
21.955640
22.517825
17.943432
8.673143
-10.935667
-23.944997
-7.288735
2.634554
17.310511
39.200632
51.644950
51.275136
36.524562
27.869570
19.131720
-5.080922
-10.110419
8.851748
19.752453
21.050845
9.876972
-7.420101
-27.525752
-29.293716
-6.509037
6.321030
-1.172417
-2.532536
-4.961523
-10.903071
4.841447
27.007454
38.195093
46.525054
51.963581
39.164158
11.972927
-13.870788
-32.037256
-25.983432
-18.948816
-29.044923
-27.231277
-12.615468
6.051480
10.329995
-14.670410
-28.436509
-25.059303
-25.515964
-14.750287
-2.048189
-8.725025
-14.377185
-9.610728
-13.741678
-18.935971
-7.804491
5.080815
12.700653
14.769010
1.532282
-11.142547
-23.127814
-28.951828
-18.638800
-10.237642
-15.238293
-20.032720
-20.644049
-16.913317
-24.406764
-37.131001
-42.010433
-28.542360
-12.477765
-4.379192
1.264945
19.221769
26.797723
10.768069
-6.028481
-14.582203
-18.421922
-22.029640
-18.545025
-21.285496
-12.326122
6.366604
11.388079
0.012278
-12.750933
-22.410040
-28.533263
-14.467999
9.479453
17.299378
15.407434
12.142196
7.094285
6.900314
17.016631
20.852010
15.883889
21.661826
31.553506
27.318217
19.930337
15.193297
8.373761
17.631424
17.357357
0.729898
-3.417623
-2.432556
-2.962562
-16.360710
-28.192843
-23.307623
-2.844807
0.171813
4.924460
16.918890
2.882736
-9.704325
-6.649038
12.498486
31.437023
24.693287
11.703291
2.256238
-16.384361
-33.651975
-41.977990
-28.117416
1.204140
20.695063
27.895088
24.870752
18.415177
11.949476
3.934331
2.628836
0.765125
2.545627
7.328963
14.308954
13.919806
-0.268254
-8.005364
-4.942712
7.712433
21.531885
30.647462
28.471039
24.745479
28.046885
18.827539
2.150365
1.687566
8.919813
6.015468
-10.997741
-19.486710
-16.032477
-27.510163
-40.173331
-32.030874
-12.791593
-0.406196
8.934325
9.319439
1.979125
-0.812288
7.158623
9.175731
6.925656
11.714208
12.137989
16.291604
28.164509
28.487940
23.269710
18.095058
13.573755
10.638721
9.266020
8.899582
-1.469649
-18.083605
-18.731453
-19.585218
-30.543968
-19.017532
-9.205335
-11.761677
-7.489912
-1.090848
-13.045427
-25.133806
-22.791710
-21.425804
-18.332156
-22.038076
-23.609329
-20.417787
-21.845420
-11.994249
4.301735
13.390306
9.822177
4.455724
22.535914
35.552258
18.593981
-3.489825
-8.881136
-0.812330
6.650078
9.897780
17.735503
20.185928
16.669968
11.469231
3.782755
1.842630
9.527528
2.575726
-8.509459
-1.554939
-6.192856
-9.745335
-6.812800
-6.635138
-16.628439
-29.919485
-25.944475
-18.968474
-17.647372
-19.968950
-17.706644
-5.058864
4.449828
10.915486
15.461295
14.472502
9.760933
-7.187217
-15.570926
-7.350214
2.776536
6.664392
2.014507
0.638429
-2.117079
-10.819945
-16.030502
-14.936186
-12.853712
-0.357531
7.432319
7.930058
12.931586
17.099011
5.157935
-7.832982
0.451868
17.830835
31.582160
45.165313
47.809073
33.438111
9.113151
-13.558333
-19.686465
-22.102870
-22.285486
-15.315008
-3.609047
5.680839
-3.644382
-11.155628
3.145934
12.618414
-1.682271
-9.369667
-5.814163
-12.241812
-19.129475
-8.788215
0.481110
-13.414186
-13.814994
7.333394
29.418692
33.162007
24.842435
20.752301
7.992466
-1.140954
4.912562
6.719457
4.944434
12.667078
18.556720
9.654995
11.898888
19.322016
11.493148
7.646984
4.935973
-10.441865
-23.702224
-27.607309
-18.250830
-8.500316
-16.524974
-18.623450
-13.847172
-8.126622
-3.316895
-6.260214
-5.319952
9.638643
17.052257
3.830259
-5.973390
-7.728465
-10.636187
-9.682115
-8.149572
-4.672016
4.032340
15.531157
24.709951
34.678965
27.912213
9.147633
-7.676230
-16.992551
-14.558698
-11.943785
-4.251830
9.521897
18.219809
20.324992
27.771442
19.584751
