EVENT_NAME: 202302060117
EVENT_ID: 13194
EVENT_DATE_YYYYMMDD: 2023/02/06
EVENT_TIME_HHMMSS: 01:17:32.00000
EVENT_LATITUDE_DEGREE: 37.288
EVENT_LONGITUDE_DEGREE: 37.043
EVENT_DEPTH_KM: 8.6
HYPOCENTER_REFERENCE: AFAD
MAGNITUDE_W: 7.7
MAGNITUDE_W_REFERENCE: AFAD
MAGNITUDE_L: 
MAGNITUDE_L_REFERENCE: 
FOCAL_MECHANISM: 
NETWORK: TK
STATION_CODE: 6008
STATION_NAME: 
STATION_LATITUDE_DEGREE: 40.37583
STATION_LONGITUDE_DEGREE: 36.90312
STATION_ELEVATION_M: 857.0
LOCATION: Kahramanmaras_Pazarck_Turkiye
SENSOR_DEPTH_M: 
VS30_M/S: 248
SITE_CLASSIFICATION_EC8: C
MORPHOLOGIC_CLASSIFICATION: 
EPICENTRAL_DISTANCE_KM: 343.56
EARTHQUAKE_BACKAZIMUTH_DEGREE: 
DATE_TIME_FIRST_SAMPLE_YYYYMMDD_HHMMSS: 2023/02/06 01:17:58.4807530
DATE_TIME_FIRST_SAMPLE_PRECISION: millisecond
SAMPLING_INTERVAL_S: 0.01
NDATA: 18251
DURATION_S: 
STREAM: HNE
UNITS: cm/s^2
INSTRUMENT: sensor = GMS+/GEOSIG | digitizer = 
INSTRUMENT_ANALOG/DIGITAL: 
INSTRUMENTAL_FREQUENCY_HZ: 
INSTRUMENTAL_DAMPING: 
FULL_SCALE_G: 
N_BIT_DIGITAL_CONVERTER: 
PGA_CM/S^2: 17.416
TIME_PGA_S: 
BASELINE_CORRECTION: BASELINE REMOVED
FILTER_TYPE: BUTTERWORTH
FILTER_ORDER: 
LOW_CUT_FREQUENCY_HZ: 
HIGH_CUT_FREQUENCY_HZ: 
LATE/NORMAL_TRIGGERED: 
DATABASE_VERSION: 
HEADER_FORMAT: DYNA 1.2
DATA_TYPE: Acceleration
PROCESSING: Automatic Paolucci et al., 2011
DATA_TIMESTAMP_YYYYMMDD_HHMMSS: 
DATA_LICENSE: U (unknown license)
DATA_CITATION: Turkish Accelerometric Archive v 1.0 - Disaster And Emergency Management Presidency, Earthquake Department
DATA_CREATOR: AFAD
ORIGINAL_DATA_MEDIATOR_CITATION: : AFAD - Disaster And Emergency Management Presidency
ORIGINAL_DATA_MEDIATOR: AFAD PROCESS SERVICE
ORIGINAL_DATA_CREATOR_CITATION: AFAD PROCESS SERVICE
ORIGINAL_DATA_CREATOR: network: TK
USER1: GuestUser
USER2: 
USER3: 
USER4: 
USER5: 
[...]
-2.953773
-2.491907
-2.023806
-1.563238
-1.113841
-0.686783
-0.284923
0.111222
0.489703
0.814152
1.086128
1.303033
1.478635
1.620987
1.712165
1.771131
1.806978
1.853216
1.902311
1.929066
1.948547
1.957379
1.959716
1.955039
1.929581
1.875288
1.793720
1.679681
1.550835
1.401987
1.219109
1.024802
0.819325
0.613587
0.417462
0.217439
0.021314
-0.171955
-0.370678
-0.555114
-0.737992
-0.917233
-1.073094
-1.213890
-1.330007
-1.430538
-1.516003
-1.580946
-1.612638
-1.594196
-1.525878
-1.413399
-1.246110
-1.021152
-0.747617
-0.419791
-0.065988
0.313532
0.713314
1.120629
1.534698
1.928246
2.295556
2.635592
2.933285
3.185259
3.397488
3.555686
3.683750
3.804282
3.914682
4.029499
4.166135
4.319398
4.470322
4.636312
4.805420
4.957903
5.091163
5.189095
5.242606
5.256632
5.220783
5.136098
5.022579
4.871393
4.717869
4.565904
4.413159
4.285093
4.178587
4.106890
4.057013
4.038049
4.041945
4.067661
4.117795
4.178580
4.239624
4.311060
4.401458
4.486141
4.599399
4.723567
4.850333
5.006193
5.181016
5.379217
5.611969
5.864722
6.128645
6.402180
6.639607
6.846900
7.011333
7.118875
7.170049
7.153942
7.074712
6.922747
6.705060
6.402949
6.010439
5.522074
4.939933
4.274926
3.547316
2.777362
1.974159
1.172774
0.379702
-0.383238
-1.089808
-1.742865
-2.348905
-2.898834
-3.402785
-3.883616
-4.317690
-4.694874
-5.024520
-5.297537
-5.520159
-5.686671
-5.802269
-5.875005
-5.894748
-5.882800
-5.837861
-5.754217
-5.639401
-5.503803
-5.336773
-5.141688
-4.934135
-4.692811
-4.446812
-4.207567
-3.984167
-3.786225
-3.620754
-3.506197
-3.433723
-3.415540
-3.445674
-3.529580
-3.660504
-3.840005
-4.063146
-4.316941
-4.600868
-4.883237
-5.153136
-5.394722
-5.603056
-5.759697
-5.855033
-5.878673
-5.826201
-5.700215
-5.506169
-5.248480
-4.916238
-4.496973
-3.985232
-3.418938
-2.767182
-2.050223
-1.270401
-0.420961
0.450040
1.346238
2.222954
3.063562
3.851697
4.574890
5.203268
5.718646
6.115830
6.374039
6.509896
6.507558
6.369360
6.089849
5.677596
5.138057
4.482921
3.736867
2.906388
2.045256
1.157628
0.260129
-0.614770
-1.468109
-2.278845
-3.032173
-3.719001
-4.330236
-4.866138
-5.344631
-5.770652
-6.146797
-6.470209
-6.743226
-6.964809
-7.129503
-7.245880
-7.295236
-7.256792
-7.112881
-6.869740
-6.532562
-6.092256
-5.535315
-4.889273
-4.187381
-3.434055
-2.663844
-1.860123
-1.043673
-0.262812
0.453627
1.080706
1.624659
2.087045
2.451758
2.691523
2.818808
2.825042
2.734641
2.561635
2.306022
1.973778
1.584905
1.188758
0.762737
0.331262
-0.099175
-0.525974
-0.917965
-1.290473
-1.631030
-1.938596
-2.222524
-2.455536
-2.644648
-2.816356
-2.964684
-3.109116
-3.247314
-3.367328
-3.452273
-3.519813
-3.571508
-3.598265
-3.593331
-3.508388
-3.356165
-3.147572
-2.894299
-2.549848
-2.108503
-1.596501
-1.012025
-0.411442
0.223949
0.917529
1.637345
2.318455
2.937741
3.486889
3.960445
4.380749
4.705458
4.920285
5.041076
5.085755
5.094326
5.058477
4.963921
4.838971
4.705710
4.575565
4.456330
4.337356
4.185391
4.038880
3.905099
3.770019
3.651044
3.521938
3.395950
3.277235
3.166573
3.023700
2.838224
2.619499
2.338689
2.030603
1.694462
1.317798
0.918793
0.525504
0.137929
-0.208343
-0.489413
-0.742428
-0.938813
-1.079089
-1.181178
-1.239108
-1.271320
-1.275217
-1.225603
-1.138062
-1.025583
-0.875179
-0.704512
-0.526572
-0.345255
-0.176667
-0.021067
0.129338
0.254026
0.369362
0.497426
0.615879
0.727838
0.848110
0.954614
1.055143
1.185026
1.298024
1.370239
1.423750
1.458558
1.470246
1.452062
1.398808
1.300875
1.193849
1.105008
1.015387
0.902906
0.771203
0.632746
0.503640
0.378431
0.236077
0.082034
-0.077724
-0.198777
-0.267617
-0.291516
-0.252812
-0.147347
0.040984
0.318415
0.646761
0.987315
1.343716
1.690765
2.023267
2.326155
2.573973
2.771915
2.938166
3.089090
3.197412
3.290148
3.361324
3.402626
3.443408
3.479515
3.512505
3.551209
3.588355
3.616928
3.670440
3.723691
3.755642
3.768889
3.742132
3.670435
3.556915
3.380532
3.130894
2.826964
2.453417
2.027916
1.557995
1.038718
0.486191
-0.107120
-0.730045
-1.342059
-1.917965
-2.458543
-2.941453
-3.339158
-3.638672
-3.824407
-3.888830
-3.866751
-3.747778
-3.520742
-3.239155
-2.901977
-2.516223
-2.135144
-1.767314
-1.396366
-1.085684
-0.834490
-0.608493
-0.461985
-0.357559
-0.285864
-0.254173
-0.230276
-0.220925
-0.210795
-0.177546
-0.098837
0.018837
0.183789
0.421735
0.741249
1.145706
1.608612
2.104768
2.625342
3.162281
3.701558
4.214859
4.700624
5.145605
5.532399
5.875551
6.163892
6.401579
6.598742
6.757459
6.912280
7.072036
7.213868
7.356740
7.511301
7.687422
7.919134
8.171888
8.414250
8.650378
8.884428
9.118218
9.326551
9.478514
9.554366
9.570730
9.547610
9.462665
9.300828
9.060802
8.753495
8.405925
8.023026
7.599344
7.132799
6.624433
6.097103
5.553667
4.983476
4.384190
3.744641
3.056255
2.334618
1.577134
0.765358
-0.088500
-0.970932
-1.866094
-2.742811
-3.594591
-4.427928
-5.204895
-5.925492
-6.590239
-7.193161
-7.736337
-8.218467
-8.633058
-8.957769
-9.215979
-9.392362
-9.486919
-9.497051
-9.422758
-9.280406
-9.089997
-8.863741
-8.598519
-8.329400
-8.043916
-7.769862
-7.512692
-7.264096
-7.024331
-6.803789
-6.620394
-6.456741
-6.331274
-6.214379
-6.102160
-5.999813
-5.873307
-5.720824
-5.520284
-5.244412
-4.894505
-4.465110
-3.929729
-3.297455
-2.588030
-1.773918
-0.876421
0.072770
1.083007
2.106491
3.133093
4.156838
5.140578
6.058077
6.892451
7.630450
8.259607
8.797326
9.210096
9.499477
9.681053
9.745475
9.712483
9.587274
9.383096
9.099428
8.754455
8.357529
7.920598
7.458990
6.952441
6.419656
5.860375
5.267064
4.651413
4.009785
3.342181
2.659770
1.981515
1.301961
0.625784
-0.032989
-0.664485
-1.240911
-1.752655
-2.186728
-2.540533
-2.822382
-3.022924
-3.149172
-3.195672
-3.157227
-3.048645
-2.876940
-2.655878
-2.389097
-2.083871
-1.756305
-1.394189
-0.996745
-0.569688
-0.106782
0.401063
0.946055
1.509751
2.097864
2.691433
3.255648
3.783236
4.279651
4.726711
5.133506
5.504714
5.827864
6.120102
6.377531
6.627427
6.853684
7.056821
7.257881
7.426729
7.568301
7.671428
7.785725
7.898204
7.902619
7.837936
7.767537
7.655317
7.440488
7.144611
6.799119
6.364266
5.863692
5.353248
4.796824
4.145584
3.455640
2.791412
2.094454
1.343984
0.604163
-0.103965
-0.807937
-1.506454
-2.150419
-2.759836
-3.357303
-3.910350
-4.429367
-4.955918
-5.463505
-5.929530
-6.369058
-6.789883
-7.206552
-7.587113
-7.936242
-8.256017
-8.539685
-8.798155
-9.006750
-9.155598
-9.246258
-9.277171
-9.256131
-9.168330
-8.999222
-8.792448
-8.560216
-8.303567
-8.041981
-7.776759
-7.512317
-7.262940
-7.010447
-6.733275
-6.420516
-6.048269
-5.633941
-5.164801
-4.647863
-4.085986
-3.469298
-2.831309
-2.168123
-1.494805
-0.819410
-0.140637
0.520731
1.150408
1.736963
2.273382
2.754472
3.184906
3.551957
3.868094
4.134355
4.361131
4.566867
4.747144
4.911057
5.055747
5.181474
5.265378
5.324863
5.357074
5.336291
5.274466
5.164063
4.988199
4.757265
4.472298
4.106284
3.672731
3.176573
2.620928
1.997484
1.318970
0.599671
-0.155215
-0.926207
-1.719799
-2.524302
-3.328284
-4.112265
-4.866112
-5.570344
-6.227298
-6.816713
-7.311572
-7.725123
-8.041002
-8.253233
-8.352466
-8.337660
-8.216349
-7.996586
-7.688243
-7.309502
-6.878029
-6.413565
-5.931177
-5.438917
-4.950814
-4.465829
-3.997988
-3.544953
-3.104907
-2.686162
-2.281965
-1.903743
-1.565527
-1.261339
-0.994559
-0.768562
-0.582828
-0.467752
-0.406708
-0.391642
-0.420997
-0.482823
-0.593485
-0.717395
-0.838448
-0.950149
-1.039250
-1.107051
-1.142121
-1.126016
-1.057438
-0.933270
-0.751953
-0.517903
-0.222288
0.130995
0.544545
0.994722
1.458406
1.934040
2.430976
2.935184
3.447445
3.958408
4.460798
4.975657
5.483243
5.986153
6.471398
6.944434
7.407600
7.854140
8.275742
8.659418
9.012182
9.326500
9.597437
9.813044
9.968904
10.052808
10.080082
10.054624
9.964743
9.825767
9.639772
9.422345
9.193229
8.954501
8.713435
8.484579
8.280400
8.119083
8.000888
7.920879
7.871782
7.846843
7.838789
7.835931
7.827617
7.790209
7.712278
7.589926
7.408607
7.151176
6.826206
6.431617
5.959618
5.438782
4.861317
4.239432
3.595466
2.922926
2.230384
1.517060
0.799061
0.082880
-0.623430
-1.315973
-1.990071
-2.631699
-3.238258
-3.811567
-4.350586
-4.838432
-5.269647
-5.635401
-5.940110
-6.185332
-6.351585
-6.443284
-6.471080
-6.445364
-6.366915
-6.237032
-6.078834
-5.899335
-5.722954
-5.556444
-5.398246
-5.286287
-5.213033
-5.187837
-5.214594
-5.276160
-5.382926
-5.522682
-5.673348
-5.827391
-5.973902
-6.101708
-6.210033
-6.274196
-6.292121
-6.265626
-6.193671
-6.088206
-5.945854
-5.770252
-5.567375
-5.346313
-5.123693
-4.910684
-4.714820
-4.548050
-4.401282
-4.288024
-4.207757
-4.147752
-4.101254
-4.035014
-3.949552
-3.833436
-3.667705
-3.456255
-3.187916
-2.868402
-2.503689
-2.104687
-1.700749
-1.301486
-0.925603
-0.589724
-0.298785
-0.075126
0.071902
0.150611
0.154506
0.090343
-0.040322
-0.240604
-0.498554
-0.817550
-1.179927
-1.591141
-2.048853
-2.526048
-3.014412
-3.511869
-4.022574
-4.537695
-5.049958
-5.549233
-6.036039
-6.513493
-6.971725
-7.412292
-7.838053
-8.235239
-8.585667
-8.897649
-9.179498
-9.439007
-9.687866
-9.903994
-10.089989
-10.247929
-10.375476
-10.486657
-10.571343
-10.621479
-10.638365
-10.613947
-10.516016
-10.363014
-10.170786
-9.927385
-9.625795
-9.239261
-8.787266
-8.328517
-7.889251
-7.456218
-7.023186
-6.597168
-6.228818
-5.940736
-5.714999
-5.521992
-5.350027
-5.211312
-5.109224
-5.047140
-4.986615
-4.918038
-4.853876
-4.800625
-4.767635
-4.733606
-4.688668
-4.636455
-4.584762
-4.546318
-4.500859
-4.416695
-4.307074
-4.182387
-4.033541
-3.844950
-3.598691
-3.298400
-2.953430
-2.569494
-2.148411
-1.671218
-1.157398
-0.638383
-0.112094
0.398089
0.909571
1.423651
1.908897
2.369724
2.791326
3.165131
3.491659
3.761297
3.944692
4.026778
4.000280
3.870915
3.648033
3.317088
2.904575
2.406859
1.846799
1.244915
0.601989
-0.059381
-0.733740
-1.378745
-1.995694
-2.583031
-3.109841
-3.582100
-3.993833
-4.329974
-4.606888
-4.826652
-4.972902
-5.060965
-5.102529
-5.087723
-5.029016
-4.950048
-4.847960
-4.727169
-4.598325
-4.466364
-4.333623
-4.213092
-4.067623
-3.896437
-3.732784
-3.570950
-3.417428
-3.241046
-3.062327
-2.890881
-2.725929
-2.576044
-2.411093
-2.240166
-2.075474
-1.932084
-1.792070
-1.661927
-1.533083
-1.410733
-1.323452
-1.265005
-1.248121
-1.236693
-1.240850
-1.254359
-1.249944
-1.246828
-1.202408
-1.107074
-0.979529
-0.801849
-0.572735
-0.286991
0.063435
0.460879
0.904821
1.399678
1.951165
2.554345
3.194152
3.864093
4.552737
5.250472
5.950546
6.622305
7.236655
7.807883
8.322223
8.773958
9.151660
9.450392
9.671454
9.799518
9.860303
9.850691
9.755874
9.580270
9.335308
9.028002
8.655234
8.213887
7.702403
7.130913
6.515262
5.867400
5.168883
4.430621
3.664565
2.863959
2.071146
1.272359
0.466038
-0.312227
-1.071011
-1.785893
-2.437911
-3.048107
-3.607388
-4.099390
-4.529047
-4.877916
-5.172494
-5.405507
-5.556173
-5.650210
-5.672551
-5.616183
-5.485780
-5.288098
-5.019758
-4.699725
-4.347741
-3.963025
-3.562204
-3.161643
-2.775629
-2.408058
-2.078674
-1.768252
-1.467182
-1.190011
-0.928685
-0.690479
-0.461365
-0.247576
-0.048595
0.129864
0.268839
0.382617
0.470937
0.546788
0.608872
0.653551
0.693554
0.721608
0.744726
0.764727
0.781871
0.796677
0.804988
0.805247
0.807065
0.803427
0.789918
0.776149
0.760822
0.752768
0.757963
0.767833
0.773547
0.774845
0.760556
0.725747
0.653011
0.535075
0.375057
0.170359
-0.084474
-0.388144
-0.736234
-1.131602
-1.564636
-2.031440
-2.510193
-2.995181
-3.465622
-3.911384
-4.324936
-4.681338
-4.979033
-5.194382
-5.335177
-5.393106
-5.344011
-5.193607
-4.941373
-4.594584
-4.160512
-3.641757
-3.032083
-2.354869
-1.614791
-0.814706
0.025122
0.908592
1.805829
2.702547
3.579003
4.423508
5.224371
5.975359
6.674654
7.297836
7.863350
8.368078
8.802928
9.158550
9.441956
9.661978
9.818098
9.917847
9.958890
9.941484
9.857319
9.721459
9.536503
9.290762
8.984235
8.622637
8.205449
7.728773
7.210535
6.658528
6.069892
5.472685
4.870802
4.263204
3.681582
3.117106
2.572371
2.068161
1.599798
1.175077
0.815037
0.510069
0.266925
0.097036
-0.003755
-0.027135
0.011050
0.121710
0.300429
0.532661
0.818664
1.136100
1.487825
1.856954
2.231019
2.612617
2.984863
3.356071
3.728057
4.101343
4.474109
4.851810
5.231071
5.615786
6.014269
6.403920
6.795649
7.179585
7.547675
7.904076
8.228785
8.515048
8.742344
8.915089
9.024190
9.049387
8.987561
8.827543
8.579464
8.236829
7.814185
7.315430
6.743680
6.109585
5.415484
4.686575
3.912985
3.106404
2.274367
1.423106
0.566650
-0.296559
-1.145482
-1.960635
-2.733705
-3.460796
-4.126842
-4.726647
-5.257614
-5.711689
-6.102121
-6.427871
-6.692316
-6.905067
-7.071579
-7.201204
-7.287448
-7.352132
-7.397852
-7.425648
-7.432922
-7.419156
-7.406428
-7.377854
-7.332136
-7.274729
-7.211346
-7.146665
-7.099908
-7.077569
-7.077829
-7.119393
-7.203559
-7.345653
-7.555287
-7.839993
-8.210164
-8.652030
-9.151564
-9.712924
-10.320262
-10.957734
-11.624819
-12.298658
-12.953274
-13.577497
-14.174705
-14.743078
-15.269628
-15.747343
-16.175961
-16.544572
-16.850580
-17.099698
-17.280238
-17.387263
-17.415839
-17.367783
-17.233743
-16.998395
-16.666672
-16.214417
-15.641889
-14.953765
-14.147706
-13.232805
-12.215295
-11.106606
-9.911415
-8.662192
-7.365691
-6.038798
-4.707748
-3.373321
-2.056558
-0.783696
0.421885
1.563045
2.644977
3.653655
4.585961
5.431505
6.194702
6.896334
7.535622
8.115683
8.634179
9.094487
9.505698
9.864437
10.164728
10.390465
10.547364
10.631008
10.645554
10.593859
10.461896
10.259536
9.995351
9.698176
9.381517
9.049273
8.721705
8.407385
8.116184
7.860312
7.649119
7.480789
7.374543
7.330121
7.349863
7.430390
7.555597
7.732498
7.934596
8.174881
8.424257
8.653112
8.868978
9.038865
9.168488
9.233689
9.231610
9.157315
8.994180
8.748698
8.410999
7.986278
7.475313
6.892393
6.258298
5.579784
4.874513
4.157293
3.439553
2.739477
2.063820
1.411282
0.775629
0.151925
-0.460868
-1.048205
-1.624890
-2.196381
-2.764494
-3.353649
-3.948259
-4.548064
-5.175924
-5.825345
-6.476584
-7.133018
-7.778283
-8.410819
-9.033743
-9.628093
-10.189193
-10.704314
-11.158649
-11.543885
-11.845996
-12.067060
-12.187074
-12.186295
-12.082649
-11.867043
-11.541035
-11.118913
-10.590026
-9.945543
-9.232481
-8.477077
-7.661407
-6.790666
-5.871088
-4.925274
-3.966731
-3.002474
-2.022890
-1.028759
-0.063722
0.865986
1.752573
2.591622
3.402877
4.170230
4.885890
5.562584
6.209925
6.832847
7.441483
8.037649
8.601345
9.143479
9.682756
10.207487
10.705201
11.154599
11.560615
11.930264
12.253154
12.528767
12.744633
12.902831
13.006218
13.056352
13.036089
12.937116
12.768266
12.516290
12.199113
11.827903
11.405260
10.945470
10.466197
9.984586
9.498560
9.019547
8.547287
8.071132
7.596275
7.113106
6.609415
6.070915
5.496567
4.883254
4.239029
3.571424
2.870829
2.172572
1.490940
0.851390
0.257040
-0.287174
-0.756836
-1.166231
-1.491462
-1.746555
-1.941641
-2.059317
-2.115168
-2.108675
-2.033863
-1.883978
-1.653305
-1.325738
-0.886472
-0.335765
0.337812
1.122311
2.012275
2.998872
4.069635
5.199364
6.360526
7.539871
8.696357
9.808163
10.840220
11.758498
12.544295
13.198130
13.710132
14.069650
14.289672
14.377992
14.357989
14.228364
14.003664
13.699734
13.319693
12.888217
12.415699
11.897720
11.351168
10.787990
10.207927
9.621890
9.041307
8.465921
7.889754
7.317225
6.743396
6.162814
5.571322
4.974894
4.386518
3.811911
3.252370
2.705038
2.181864
1.681810
1.212928
0.785349
0.386344
0.023447
-0.305680
-0.608050
-0.878730
-1.125510
-1.370472
-1.609460
-1.847408
-2.097566
-2.342528
-2.583593
-2.820503
-3.040787
-3.220287
-3.364200
-3.458497
-3.499541
-3.502919
-3.459279
-3.388623
-3.290691
-3.194838
-3.113532
-3.058981
-3.054826
-3.102624
-3.237705
-3.459807
-3.773088
-4.173651
-4.645391
-5.178695
-5.761096
-6.377786
-7.003048
-7.642078
-8.260327
-8.848183
-9.407724
-9.912714
-10.361853
-10.730725
-11.009717
-11.201426
-11.307932
-11.325078
-11.265852
-11.151035
-10.994136
-10.812819
-10.597992
-10.383685
-10.187041
-10.017154
-9.882076
-9.761804
-9.679719
-9.634780
-9.631663
-9.672968
-9.728559
-9.817660
-9.936895
-10.073274
-10.224719
-10.372788
-10.507349
-10.620609
-10.710749
-10.746079
-10.723480
-10.638796
-10.471247
-10.234859
-9.927295
-9.551931
-9.112924
-8.623523
-8.088142
-7.507042
-6.901005
-6.273146
-5.648925
-5.025483
-4.412172
-3.828994
-3.269974
-2.746023
-2.253764
-1.795535
-1.367958
-0.983242
-0.629439
-0.296158
0.002834
0.273511
0.502885
0.693554
0.839023
0.930720
0.965788
0.941109
0.855125
0.702120
0.490928
0.230899
-0.076667
-0.431511
-0.816748
-1.236533
-1.693466
-2.161569
-2.633049
-3.104529
-3.550551
-3.964362
-4.349080
-4.682623
-4.966290
-5.191250
-5.346333
-5.441668
-5.475179
-5.454659
-5.373872
-5.244768
-5.075400
-4.868107
-4.639252
-4.392474
-4.132707
-3.867484
-3.600184
-3.318077
-3.024800
-2.716197
-2.391488
-2.057427
-1.704144
-1.336054
-0.954975
-0.565324
-0.175414
0.200469
0.548817
0.868071
1.141865
1.357212
1.518787
1.617757
1.679321
1.700621
1.671786
1.642172
1.595932
1.540600
1.501634
1.468123
1.461109
1.497215
1.572807
1.697754
1.881149
2.094937
2.341716
2.625901
2.917619
3.199207
3.477158
3.742639
3.980066
4.204245
4.414396
4.613637
4.796773
4.967180
5.126676
5.261754
5.404366
5.554251
5.717125
5.908573
6.122880
6.377452
6.664235
6.976215
7.292611
7.605111
7.902544
8.166987
8.408311
8.603395
8.756138
8.873033
8.947845
8.995641
9.020578
9.021616
8.989663
8.941865
8.880559
8.795094
8.698460
8.564159
8.398945
8.209833
7.984354
7.725104
7.413901
7.052563
6.634596
6.158440
5.619680
5.013901
4.344997
3.627258
2.879125
2.105275
1.337141
0.593424
-0.120419
-0.776334
-1.368346
-1.880869
-2.312345
-2.671085
-2.949817
-3.147242
-3.234005
-3.247774
-3.209849
-3.113995
-2.965669
-2.760453
-2.506401
-2.217021
-1.925302
-1.596177
-1.227827
-0.838956
-0.433459
-0.021988
0.412603
0.884081
1.393745
1.932502
2.498016
3.096261
3.738666
4.414581
5.107901
5.790310
6.445963
7.064729
7.642452
8.163286
8.592162
8.924404
9.167286
9.319509
9.379774
9.347302
9.209105
8.990899
8.712167
8.374987
7.987932
7.560353
7.117967
6.677660
6.265147
5.880690
5.520650
5.198018
4.905258
4.645229
4.417412
4.214532
4.055034
3.956321
3.918394
3.946708
4.050874
4.225437
4.466241
4.772766
5.125530
5.504790
5.900156
6.299418
6.679717
7.030922
7.342383
7.597474
7.790741
7.915428
7.975694
7.958028
7.853341
7.676178
7.423163
7.101829
6.731140
6.307197
5.845589
5.356964
4.853014
4.353998
3.844852
3.339343
2.847342
2.371965
1.917111
1.471348
1.044288
0.636971
0.237188
-0.144413
-0.529649
-0.932550
-1.329217
-1.744587
-2.171646
-2.609096
-3.070185
-3.537509
-4.016002
-4.499951
-4.995070
-5.479798
-5.946602
