EVENT_NAME: 202302060117
EVENT_ID: 13194
EVENT_DATE_YYYYMMDD: 2023/02/06
EVENT_TIME_HHMMSS: 01:17:32.00000
EVENT_LATITUDE_DEGREE: 37.288
EVENT_LONGITUDE_DEGREE: 37.043
EVENT_DEPTH_KM: 8.6
HYPOCENTER_REFERENCE: AFAD
MAGNITUDE_W: 7.7
MAGNITUDE_W_REFERENCE: AFAD
MAGNITUDE_L: 
MAGNITUDE_L_REFERENCE: 
FOCAL_MECHANISM: 
NETWORK: TK
STATION_CODE: 5505
STATION_NAME: 
STATION_LATITUDE_DEGREE: 41.2039
STATION_LONGITUDE_DEGREE: 36.7287
STATION_ELEVATION_M: 30.0
LOCATION: Kahramanmaras_Pazarck_Turkiye
SENSOR_DEPTH_M: 
VS30_M/S: 238
SITE_CLASSIFICATION_EC8: C
MORPHOLOGIC_CLASSIFICATION: 
EPICENTRAL_DISTANCE_KM: 436.27
EARTHQUAKE_BACKAZIMUTH_DEGREE: 
DATE_TIME_FIRST_SAMPLE_YYYYMMDD_HHMMSS: 2023/02/06 01:18:07.4433880
DATE_TIME_FIRST_SAMPLE_PRECISION: millisecond
SAMPLING_INTERVAL_S: 0.01
NDATA: 21001
DURATION_S: 
STREAM: HNN
UNITS: cm/s^2
INSTRUMENT: sensor = ACEBOX/SARA | digitizer = 
INSTRUMENT_ANALOG/DIGITAL: 
INSTRUMENTAL_FREQUENCY_HZ: 
INSTRUMENTAL_DAMPING: 
FULL_SCALE_G: 
N_BIT_DIGITAL_CONVERTER: 
PGA_CM/S^2: 3.757
TIME_PGA_S: 
BASELINE_CORRECTION: BASELINE REMOVED
FILTER_TYPE: BUTTERWORTH
FILTER_ORDER: 
LOW_CUT_FREQUENCY_HZ: 
HIGH_CUT_FREQUENCY_HZ: 
LATE/NORMAL_TRIGGERED: 
DATABASE_VERSION: 
HEADER_FORMAT: DYNA 1.2
DATA_TYPE: Acceleration
PROCESSING: Automatic Paolucci et al., 2011
DATA_TIMESTAMP_YYYYMMDD_HHMMSS: 
DATA_LICENSE: U (unknown license)
DATA_CITATION: Turkish Accelerometric Archive v 1.0 - Disaster And Emergency Management Presidency, Earthquake Department
DATA_CREATOR: AFAD
ORIGINAL_DATA_MEDIATOR_CITATION: : AFAD - Disaster And Emergency Management Presidency
ORIGINAL_DATA_MEDIATOR: AFAD PROCESS SERVICE
ORIGINAL_DATA_CREATOR_CITATION: AFAD PROCESS SERVICE
ORIGINAL_DATA_CREATOR: network: TK
USER1: GuestUser
USER2: 
USER3: 
USER4: 
USER5: 
-0.050323
-0.067155
-0.098950
-0.125835
-0.132848
-0.129106
-0.126533
-0.116946
-0.105489
-0.095201
-0.088887
-0.091457
-0.084208
-0.071816
-0.072516
-0.068540
-0.062226
-0.072746
-0.079759
-0.074614
-0.077418
-0.083028
-0.086066
-0.094949
-0.102897
-0.111079
-0.122066
-0.131183
-0.138429
-0.140766
-0.139596
-0.131412
-0.113408
-0.106159
-0.118082
-0.123692
-0.109429
-0.094698
-0.088384
-0.073888
-0.048636
-0.025723
-0.013331
-0.010290
-0.003041
0.013794
0.036473
0.063829
0.083235
0.096797
0.117138
0.140285
0.167173
0.188684
0.209961
0.248538
0.280102
0.303951
0.337853
0.374093
0.424594
0.481642
0.525597
0.575631
0.631276
0.677803
0.729941
0.785352
0.828839
0.875600
0.929842
0.975668
1.015882
1.054694
1.085089
1.119458
1.154763
1.174870
1.194744
1.217658
1.234025
1.246184
1.245250
1.233093
1.224444
1.212054
1.194287
1.178857
1.160155
1.137945
1.119243
1.106619
1.098671
1.090022
1.083009
1.084881
1.091195
1.102886
1.117616
1.134685
1.158533
1.185655
1.222128
1.262343
1.299518
1.344642
1.392104
1.439800
1.490769
1.535893
1.582888
1.641572
1.704465
1.763149
1.819729
1.880751
1.942709
2.007238
2.079950
2.143311
2.200592
2.265589
2.327313
2.394882
2.467126
2.530720
2.603432
2.682223
2.754234
2.828349
2.902464
2.973306
3.051162
3.129953
3.198924
3.269766
3.338270
3.396486
3.456106
3.503802
3.537236
3.578152
3.611352
3.635902
3.664193
3.686405
3.708383
3.726854
3.735506
3.750237
3.757018
3.751174
3.748370
3.743695
3.735280
3.723591
3.711435
3.693668
3.662340
3.628908
3.598282
3.566487
3.528847
3.487466
3.448423
3.403301
3.352101
3.299264
3.246895
3.191486
3.122517
3.045833
2.971954
2.899244
2.828171
2.760137
2.697481
2.641371
2.584793
2.519331
2.454804
2.397993
2.344688
2.296761
2.251639
2.202076
2.156019
2.119080
2.078401
2.039825
2.009433
1.977638
1.954493
1.936959
1.917556
1.908672
1.901894
1.889036
1.871502
1.851163
1.832227
1.806510
1.778222
1.750402
1.708319
1.663665
1.619245
1.564304
1.516143
1.464943
1.388726
1.311574
1.236526
1.152127
1.062350
0.966027
0.864092
0.762158
0.656950
0.542391
0.426896
0.315610
0.197778
0.081582
-0.032043
-0.155720
-0.271916
-0.379462
-0.495892
-0.608581
-0.715658
-0.826711
-0.930749
-1.029411
-1.128306
-1.227902
-1.326329
-1.417042
-1.507052
-1.588413
-1.660187
-1.740378
-1.812387
-1.878784
-1.947285
-2.004564
-2.059272
-2.110939
-2.158399
-2.211470
-2.261969
-2.308961
-2.351978
-2.386579
-2.420011
-2.457183
-2.491316
-2.516332
-2.537606
-2.557945
-2.573608
-2.591843
-2.608208
-2.612415
-2.621765
-2.640000
-2.656131
-2.679510
-2.702888
-2.714577
-2.725564
-2.737720
-2.746603
-2.749875
-2.750108
-2.750574
-2.747300
-2.741687
-2.733737
-2.717604
-2.697028
-2.674816
-2.657748
-2.655175
-2.657745
-2.652367
-2.640910
-2.623841
-2.601395
-2.591575
-2.592976
-2.580350
-2.560476
-2.536861
-2.505297
-2.476071
-2.444741
-2.426504
-2.420190
-2.401953
-2.395873
-2.397040
-2.395169
-2.413170
-2.431171
-2.455251
-2.498502
-2.529830
-2.556248
-2.589212
-2.613993
-2.640177
-2.671739
-2.703300
-2.735095
-2.763851
-2.788632
-2.811543
-2.833986
-2.852221
-2.868820
-2.885652
-2.896172
-2.910432
-2.918146
-2.913936
-2.919313
-2.912765
-2.896866
-2.895462
-2.884004
-2.867871
-2.862960
-2.845892
-2.827187
-2.821340
-2.808013
-2.787905
-2.770135
-2.746286
-2.721970
-2.697888
-2.667025
-2.634994
-2.601794
-2.559709
-2.507571
-2.453562
-2.396748
-2.330816
-2.266988
-2.208538
-2.140034
-2.056333
-1.962346
-1.859474
-1.752861
-1.639000
-1.513684
-1.391407
-1.271467
-1.137033
-0.997221
-0.856240
-0.702867
-0.546222
-0.400799
-0.244387
-0.072311
0.092049
0.254540
0.418667
0.577416
0.740608
0.897020
1.042910
1.192074
1.328146
1.449955
1.572934
1.681417
1.777275
1.872899
1.953794
2.020662
2.084490
2.131017
2.161178
2.192274
2.217525
2.227346
2.227347
2.217295
2.207944
2.199763
2.174280
2.137809
2.090116
2.028628
1.961296
1.879000
1.788990
1.699213
1.594005
1.483654
1.374940
1.252899
1.136937
1.025884
0.898466
0.775490
0.656021
0.527667
0.396508
0.263479
0.132787
0.000459
-0.131167
-0.256014
-0.384835
-0.516929
-0.644815
-0.773169
-0.903626
-1.028005
-1.155190
-1.287284
-1.412130
-1.534873
-1.644288
-1.739677
-1.843715
-1.950559
-2.051091
-2.152324
-2.252622
-2.339827
-2.421654
-2.503716
-2.571750
-2.647031
-2.722547
-2.777721
-2.838508
-2.897423
-2.945818
-2.985329
-3.004031
-3.026708
-3.057101
-3.080245
-3.104793
-3.114845
-3.111804
-3.113206
-3.104086
-3.097071
-3.104084
-3.097770
-3.086547
-3.078596
-3.058255
-3.044226
-3.038146
-3.027156
-3.030194
-3.032531
-3.024347
-3.028554
-3.031124
-3.026915
-3.028550
-3.032991
-3.037432
-3.037197
-3.038365
-3.037662
-3.026906
-3.023398
-3.028073
-3.020356
-3.012873
-3.018249
-3.011702
-2.993698
-2.981539
-2.966341
-2.955352
-2.946232
-2.919344
-2.885910
-2.854112
-2.820444
-2.779529
-2.730430
-2.680162
-2.620543
-2.555546
-2.488445
-2.412226
-2.340683
-2.270075
-2.180529
-2.076488
-1.974083
-1.884070
-1.793122
-1.688146
-1.574753
-1.452476
-1.333004
-1.217273
-1.093125
-0.979966
-0.874756
-0.757623
-0.636281
-0.506522
-0.379569
-0.283477
-0.190424
-0.075395
0.029581
0.112347
0.191839
0.278112
0.369995
0.446916
0.507003
0.562648
0.615721
0.684926
0.748754
0.786864
0.831755
0.885997
0.930186
0.959412
0.976013
1.002667
1.035400
1.053403
1.067900
1.085202
1.094321
1.100635
1.094558
1.071179
1.055516
1.041489
1.021384
1.009929
0.993565
0.978837
0.969486
0.942834
0.926704
0.917353
0.887662
0.869661
0.858440
0.848622
0.847921
0.832492
0.810750
0.789710
0.778722
0.791115
0.801403
0.811224
0.828292
0.851907
0.883939
0.911294
0.938883
0.970447
1.008090
1.045265
1.066542
1.092027
1.131540
1.165909
1.184848
1.200280
1.233714
1.277202
1.302687
1.312975
1.339629
1.386858
1.419357
1.439464
1.470327
1.498851
1.533922
1.571799
1.587932
1.611079
1.645448
1.672804
1.707173
1.744816
1.777549
1.799293
1.810049
1.834132
1.857279
1.867333
1.877154
1.867336
1.847464
1.844660
1.841622
1.843493
1.844430
1.822454
1.806089
1.796505
1.776400
1.759100
1.742969
1.722864
1.693173
1.652260
1.608541
1.560146
1.511751
1.462655
1.404908
1.350669
1.296896
1.222550
1.137683
1.071520
1.016578
0.952753
0.884252
0.807801
0.725506
0.659109
0.605336
0.551798
0.499429
0.447059
0.401938
0.367103
0.341854
0.329698
0.314035
0.298138
0.297438
0.300946
0.313339
0.336252
0.354489
0.370389
0.391198
0.423931
0.463678
0.496644
0.526104
0.557668
0.584556
0.605599
0.639501
0.682988
0.713617
0.737465
0.762717
0.783292
0.803166
0.820702
0.834264
0.846189
0.856711
0.861388
0.859285
0.858585
0.854845
0.849469
0.849938
0.848536
0.854149
0.865372
0.867711
0.870518
0.877300
0.896005
0.921256
0.939026
0.958198
0.976903
0.994907
1.029277
1.070894
1.101990
1.130514
1.156000
1.158105
1.157405
1.180552
1.214688
1.247187
1.265424
1.272206
1.285299
1.297224
1.304473
1.300266
1.288344
1.298632
1.302608
1.272215
1.243460
1.210963
1.174960
1.146671
1.102485
1.057597
1.019723
0.982083
0.950288
0.901659
0.852797
0.814221
0.761151
0.710184
0.668102
0.621110
0.575988
0.534140
0.489486
0.440390
0.387085
0.336820
0.295205
0.255928
0.216652
0.190935
0.173402
0.142308
0.106538
0.080822
0.057677
0.037104
0.031962
0.039211
0.041784
0.038044
0.034305
0.041554
0.061895
0.077795
0.098370
0.129934
0.152380
0.175059
0.203818
0.230472
0.261802
0.296405
0.329138
0.355792
0.379641
0.410971
0.446275
0.479943
0.509403
0.538161
0.570193
0.598717
0.623735
0.653896
0.685694
0.719128
0.761914
0.803531
0.832523
0.857073
0.883727
0.914122
0.950128
0.990109
1.033363
1.069836
1.093217
1.118469
1.144187
1.155411
1.166401
1.181131
1.195394
1.217606
1.237948
1.250808
1.255719
1.252681
1.256656
1.265542
1.266478
1.267882
1.278872
1.284718
1.279576
1.273498
1.268122
1.262279
1.258072
1.257605
1.258542
1.259946
1.267662
1.276782
1.274912
1.271407
1.270473
1.257381
1.252239
1.268138
1.271413
1.261828
1.268844
1.291757
1.310228
1.314438
1.312802
1.313037
1.320520
1.326366
1.314210
1.303223
1.309770
1.314214
1.300187
1.271665
1.249456
1.244781
1.234963
1.211584
1.193349
1.173478
1.142150
1.115499
1.090951
1.061026
1.031335
0.997436
0.967511
0.945068
0.913039
0.882880
0.856930
0.821160
0.783988
0.750556
0.725073
0.696317
0.648156
0.596722
0.545522
0.497361
0.457383
0.411326
0.361996
0.297937
0.224292
0.168649
0.115812
0.059936
0.004761
-0.063506
-0.135515
-0.207523
-0.282804
-0.355982
-0.428691
-0.500466
-0.579488
-0.662017
-0.732155
-0.803930
-0.878510
-0.945375
-1.018786
-1.096873
-1.177532
-1.258658
-1.326224
-1.388179
-1.454577
-1.522610
-1.591579
-1.666393
-1.745883
-1.817190
-1.876573
-1.938528
-1.998847
-2.042098
-2.084648
-2.129769
-2.166241
-2.200140
-2.225155
-2.245962
-2.266535
-2.270040
-2.273546
-2.277753
-2.269569
-2.265126
-2.261617
-2.251095
-2.242911
-2.231921
-2.213918
-2.196849
-2.179547
-2.161310
-2.147748
-2.134421
-2.111741
-2.090698
-2.070590
-2.039494
-2.019152
-2.005123
-1.982444
-1.967713
-1.954386
-1.934278
-1.911364
-1.879800
-1.851042
-1.822751
-1.786979
-1.752376
-1.714967
-1.672649
-1.626356
-1.573282
-1.512026
-1.448432
-1.386708
-1.320075
-1.252740
-1.191250
-1.121110
-1.037409
-0.953475
-0.878425
-0.804310
-0.721310
-0.634570
-0.545492
-0.460623
-0.377623
-0.279661
-0.181933
-0.090049
0.018200
0.128788
0.226049
0.325881
0.434598
0.540977
0.648525
0.766127
0.880455
0.992912
1.108643
1.218295
1.326311
1.432924
1.536731
1.649422
1.761880
1.859609
1.954298
2.049221
2.137130
2.218960
2.297751
2.375841
2.447851
2.512147
2.573637
2.628814
2.678380
2.719998
2.754601
2.784060
2.799960
2.810950
2.824043
2.824980
2.807446
2.781496
2.742453
2.686343
2.635844
2.588618
2.529469
2.467981
2.395272
2.311340
2.234655
2.153763
2.066791
1.979353
1.883731
1.790447
1.699969
1.604347
1.514570
1.420585
1.320287
1.218820
1.113612
1.021264
0.931487
0.837735
0.741880
0.625450
0.507851
0.401007
0.294631
0.187553
0.076734
-0.031981
-0.143267
-0.263437
-0.381738
-0.493725
-0.606648
-0.725416
-0.836234
-0.941676
-1.053897
-1.156299
-1.254727
-1.360636
-1.451581
-1.536449
-1.627394
-1.708988
-1.797129
-1.886672
-1.957277
-2.036300
-2.116023
-2.181719
-2.250454
-2.309604
-2.360103
-2.420889
-2.477934
-2.523757
-2.574957
-2.624989
-2.668240
-2.715466
-2.747962
-2.762223
-2.777886
-2.790276
-2.802198
-2.812718
-2.811548
-2.812716
-2.809909
-2.794711
-2.781383
-2.760340
-2.732049
-2.714280
-2.689262
-2.653957
-2.631278
-2.607429
-2.576099
-2.553887
-2.530974
-2.506190
-2.489122
-2.468079
-2.451712
-2.445164
-2.429966
-2.419678
-2.415000
-2.403777
-2.399801
-2.392786
-2.381095
-2.378990
-2.369169
-2.350931
-2.336201
-2.312352
-2.287101
-2.270033
-2.240339
-2.206671
-2.183524
-2.156168
-2.119227
-2.075740
-2.034590
-1.996246
-1.946914
-1.891736
-1.843573
-1.799618
-1.748882
-1.692770
-1.640632
-1.588026
-1.532381
-1.472528
-1.409635
-1.352587
-1.293435
-1.229374
-1.169988
-1.108732
-1.045605
-0.979673
-0.905091
-0.830508
-0.752419
-0.666380
-0.580108
-0.493601
-0.411070
-0.330175
-0.242266
-0.155292
-0.069721
0.021929
0.106565
0.183252
0.266485
0.344574
0.411909
0.477140
0.536759
0.592171
0.643607
0.689199
0.729179
0.771030
0.816856
0.851927
0.890271
0.937499
0.974206
1.010680
1.050661
1.092044
1.137636
1.177850
1.219701
1.267631
1.310417
1.346423
1.381260
1.420071
1.452804
1.471042
1.488110
1.499334
1.500972
1.500973
1.494895
1.489753
1.480870
1.465207
1.458194
1.448610
1.438090
1.435987
1.439729
1.453992
1.469190
1.482518
1.497014
1.515719
1.537698
1.549856
1.557807
1.568796
1.579085
1.586801
1.585867
1.581426
1.576518
1.571375
1.565064
1.547063
1.525555
1.510827
1.484877
1.442794
1.404453
1.367982
1.326367
1.287792
1.247580
1.204329
1.168325
1.130919
1.093279
1.070602
1.051665
1.036236
1.035068
1.030627
1.025251
1.031097
1.038346
1.040452
1.037881
1.042324
1.045365
1.036716
1.032509
1.026431
1.017081
1.012406
1.000250
0.987860
0.982484
0.968925
0.960275
0.960744
0.953498
0.951161
0.949526
0.935031
0.926850
0.923578
0.906746
0.888511
0.879861
0.862562
0.842222
0.828430
0.804817
0.777698
0.757827
0.738189
0.712940
0.688626
0.668287
0.638596
0.601658
0.566122
0.525442
0.482425
0.434965
0.391012
0.354541
0.314563
0.278092
0.246531
0.209826
0.178030
0.158860
0.143665
0.128937
0.118183
0.113509
0.116082
0.119356
0.118890
0.113514
0.102059
0.087798
0.065823
0.038703
0.012519
-0.021146
-0.059488
-0.098297
-0.138976
-0.177318
-0.216828
-0.261482
-0.302162
-0.343543
-0.390301
-0.431682
-0.469322
-0.503923
-0.532211
-0.561902
-0.589255
-0.607022
-0.624556
-0.639050
-0.645128
-0.650036
-0.657984
-0.664997
-0.669905
-0.673878
-0.680190
-0.690008
-0.698423
-0.702864
-0.710111
-0.717123
-0.725305
-0.738397
-0.748682
-0.759670
-0.772761
-0.783748
-0.795203
-0.795669
-0.791460
-0.785614
-0.768545
-0.757789
-0.745397
-0.720146
-0.701440
-0.679930
-0.650938
-0.630362
-0.610488
-0.596693
-0.600199
-0.608381
-0.619602
-0.637603
-0.660280
-0.689737
-0.717558
-0.750054
-0.792136
-0.827906
-0.865313
-0.903186
-0.933111
-0.970518
-1.006521
-1.025457
-1.045095
-1.065902
-1.074317
-1.082499
-1.091616
-1.094420
-1.102602
-1.114291
-1.116160
-1.117327
-1.116391
-1.099089
-1.082020
-1.071966
-1.060742
-1.060741
-1.063545
-1.069389
-1.087390
-1.093701
-1.097207
-1.114039
-1.117779
-1.119648
-1.136948
-1.147935
-1.158922
-1.180898
-1.198198
-1.211757
-1.224381
-1.236771
-1.244952
-1.251731
-1.272772
-1.294514
-1.314853
-1.347349
-1.372832
-1.390132
-1.412341
-1.426835
-1.434549
-1.446238
-1.454887
-1.463770
-1.483642
-1.500240
-1.507487
-1.517305
-1.525954
-1.528057
-1.524081
-1.517066
-1.511688
-1.504439
-1.494384
-1.486668
-1.481990
-1.473572
-1.467960
-1.474038
-1.478011
-1.479646
-1.488529
-1.496243
-1.500451
-1.496942
-1.479640
-1.454155
-1.415110
-1.362738
-1.308496
-1.243499
-1.168682
-1.097139
-1.024894
-0.953351
-0.885549
-0.817513
-0.752516
-0.681206
-0.600311
-0.525261
-0.448341
-0.369316
-0.302449
-0.239322
-0.182976
-0.137852
-0.093896
-0.058592
-0.035211
-0.015337
-0.004347
-0.011827
-0.023516
-0.034036
-0.046659
-0.046892
-0.036838
-0.017665
0.008522
0.028162
0.047334
0.064169
0.076562
0.086850
0.089423
0.095737
0.108597
0.113508
0.113041
0.114913
0.113511
0.105797
0.102058
0.101358
0.099255
0.101360
0.109311
0.125444
0.149059
0.177817
0.214992
0.247491
0.266664
0.277887
0.277888
0.270408
0.260356
0.243991
0.233939
0.231135
0.224824
0.222955
0.226229
0.223191
0.217113
0.215946
0.207063
0.192335
0.186023
0.179712
0.177375
0.180884
0.176910
0.175976
0.178082
0.179486
0.191644
0.212454
0.238173
0.276516
0.322810
0.372376
0.428021
0.482964
0.535570
0.581162
0.618103
0.651537
0.674217
0.685908
0.698768
0.706251
0.701342
0.704850
0.720984
0.735247
0.759797
0.797205
0.836251
0.886752
0.941228
0.993366
1.051115
1.108163
1.162873
1.217115
1.261070
1.307597
1.355527
1.394338
1.438995
1.482716
1.521528
1.562210
1.591202
1.622064
1.654797
1.675373
1.688934
1.691975
1.690106
1.691042
1.686835
1.686602
1.695722
1.704373
1.717935
1.742017
1.765164
1.797663
1.852841
1.906148
1.967638
2.050637
2.127324
2.203075
2.281165
2.342655
2.403677
2.465635
2.512629
2.558688
2.598201
2.615504
2.622051
2.623221
2.615975
2.604988
2.595871
2.584884
2.568285
2.545374
2.516852
2.488330
2.452561
2.417025
2.390373
2.356006
2.324912
2.302703
2.273479
2.247061
2.224618
2.196096
2.168275
2.140922
2.111699
2.078969
2.040393
2.006026
1.971192
1.937292
1.913213
1.880716
1.845881
1.815489
1.773407
1.723375
1.664694
1.601336
1.541251
1.477426
1.414769
1.353048
1.289456
1.234749
1.184250
1.135855
1.090500
1.041170
0.990437
0.939704
0.885465
0.835433
0.794520
0.761790
0.737242
0.716903
0.709423
0.715035
0.718309
0.729533
0.760395
0.798272
0.838019
0.874726
0.906524
0.935048
0.945570
0.946039
0.940897
0.912842
0.881047
0.839666
0.783089
0.737967
0.699392
0.672039
0.659882
0.651701
0.661288
0.674148
0.683969
0.703609
0.713196
0.717171
0.724654
0.718343
0.708525
0.701746
0.690992
0.688656
0.695905
0.709466
0.734484
0.770723
0.811172
0.852789
0.898147
0.934153
0.965483
0.998449
1.015518
1.029313
1.047083
1.053397
1.057840
1.066959
1.078183
1.094316
1.115827
1.145053
1.178487
1.213792
1.252837
1.290479
1.324849
1.357348
1.386574
1.409721
1.427023
1.442923
1.456484
1.463266
1.467943
1.468645
1.463503
1.457893
1.449010
1.440595
1.438492
1.447377
1.471927
1.497880
1.526872
1.567788
1.603326
1.635358
1.668324
1.682353
1.691239
1.702696
1.706204
1.715324
1.723976
1.727016
1.738240
1.745021
1.740580
1.730528
1.716501
1.699436
1.670680
1.632572
1.598205
1.568748
1.536953
1.503988
1.482013
1.464479
1.449284
1.449285
1.451390
1.459808
1.479215
1.482723
1.487868
1.491376
1.465426
1.437839
1.398562
1.337776
1.286342
1.229764
1.169212
1.110764
1.038989
0.968150
0.891699
0.804962
0.725706
0.650658
0.580754
0.519968
0.471573
0.436972
0.409619
0.393956
0.384372
0.368475
0.356786
0.345799
0.321485
0.295301
0.266312
0.227269
0.186823
0.142870
0.091904
0.043743
-0.002782
-0.054216
-0.105182
-0.161059
-0.222546
-0.281228
-0.345989
-0.419867
-0.496785
-0.574639
-0.654596
-0.733384
-0.798846
-0.861035
-0.917379
-0.956656
-0.990555
-1.015570
-1.038014
-1.065367
-1.088278
-1.118670
-1.159116
-1.193483
-1.226914
-1.261983
-1.286296
-1.312714
-1.352692
-1.393606
-1.443169
-1.501618
-1.557728
-1.620150
-1.690054
-1.761595
-1.834539
-1.912392
-1.995622
-2.077216
-2.159746
-2.244847
-2.318725
-2.381616
-2.444038
-2.498278
-2.540594
-2.581273
-2.619381
-2.648605
-2.678296
-2.707753
-2.729261
-2.754276
-2.772277
-2.772744
-2.785367
-2.799160
-2.800562
-2.817861
-2.840539
-2.851760
-2.866488
-2.874202
-2.872798
-2.873030
-2.868119
-2.862039
-2.866246
-2.875363
-2.886584
-2.903416
-2.927262
-2.957889
-2.986177
-3.006750
-3.024050
-3.035504
-3.037374
-3.031294
-3.020070
-3.004404
-2.983128
-2.960682
-2.935430
-2.905269
-2.880719
-2.861079
-2.846115
-2.841204
-2.840501
-2.846111
-2.851721
-2.850785
-2.854290
-2.865745
-2.878135
-2.887486
-2.898239
-2.909227
-2.915772
-2.927928
-2.942656
-2.947331
-2.945927
-2.941951
-2.934000
-2.915763
-2.894252
-2.879756
-2.860116
-2.832994
-2.817094
-2.803767
-2.776645
-2.752563
-2.736196
-2.713984
-2.693876
-2.676574
-2.658570
-2.644073
-2.625836
-2.605027
-2.590062
-2.568084
-2.549613
-2.543299
-2.525997
-2.514306
-2.518045
-2.509861
-2.494663
-2.477361
-2.449304
-2.415870
-2.379396
-2.344092
-2.309488
-2.267637
-2.224617
-2.185338
-2.139747
-2.091115
-2.046459
-1.999932
-1.956912
-1.919270
-1.882095
-1.850764
-1.822708
-1.790208
-1.758645
-1.734796
-1.712818
-1.684761
-1.660679
-1.638934
-1.606201
-1.567390
-1.529981
-1.481584
-1.421964
-1.363981
-1.303894
-1.232818
-1.164548
-1.105864
-1.045543
