EVENT_NAME: 202302060117
EVENT_ID: 13194
EVENT_DATE_YYYYMMDD: 2023/02/06
EVENT_TIME_HHMMSS: 01:17:32.00000
EVENT_LATITUDE_DEGREE: 37.288
EVENT_LONGITUDE_DEGREE: 37.043
EVENT_DEPTH_KM: 8.6
HYPOCENTER_REFERENCE: AFAD
MAGNITUDE_W: 7.7
MAGNITUDE_W_REFERENCE: AFAD
MAGNITUDE_L: 
MAGNITUDE_L_REFERENCE: 
FOCAL_MECHANISM: 
NETWORK: TK
STATION_CODE: 2904
STATION_NAME: 
STATION_LATITUDE_DEGREE: 40.19031
STATION_LONGITUDE_DEGREE: 39.11936
STATION_ELEVATION_M: 1443.0
LOCATION: Kahramanmaras_Pazarck_Turkiye
SENSOR_DEPTH_M: 
VS30_M/S: 521
SITE_CLASSIFICATION_EC8: B
MORPHOLOGIC_CLASSIFICATION: 
EPICENTRAL_DISTANCE_KM: 369.54
EARTHQUAKE_BACKAZIMUTH_DEGREE: 
DATE_TIME_FIRST_SAMPLE_YYYYMMDD_HHMMSS: 2023/02/06 01:17:59.1927630
DATE_TIME_FIRST_SAMPLE_PRECISION: millisecond
SAMPLING_INTERVAL_S: 0.01
NDATA: 21001
DURATION_S: 
STREAM: HNZ
UNITS: cm/s^2
INSTRUMENT: sensor = ACEBOX/SARA | digitizer = 
INSTRUMENT_ANALOG/DIGITAL: 
INSTRUMENTAL_FREQUENCY_HZ: 
INSTRUMENTAL_DAMPING: 
FULL_SCALE_G: 
N_BIT_DIGITAL_CONVERTER: 
PGA_CM/S^2: 6.079
TIME_PGA_S: 
BASELINE_CORRECTION: BASELINE REMOVED
FILTER_TYPE: BUTTERWORTH
FILTER_ORDER: 
LOW_CUT_FREQUENCY_HZ: 
HIGH_CUT_FREQUENCY_HZ: 
LATE/NORMAL_TRIGGERED: 
DATABASE_VERSION: 
HEADER_FORMAT: DYNA 1.2
DATA_TYPE: Acceleration
PROCESSING: Automatic Paolucci et al., 2011
DATA_TIMESTAMP_YYYYMMDD_HHMMSS: 
DATA_LICENSE: U (unknown license)
DATA_CITATION: Turkish Accelerometric Archive v 1.0 - Disaster And Emergency Management Presidency, Earthquake Department
DATA_CREATOR: AFAD
ORIGINAL_DATA_MEDIATOR_CITATION: : AFAD - Disaster And Emergency Management Presidency
ORIGINAL_DATA_MEDIATOR: AFAD PROCESS SERVICE
ORIGINAL_DATA_CREATOR_CITATION: AFAD PROCESS SERVICE
ORIGINAL_DATA_CREATOR: network: TK
USER1: GuestUser
USER2: 
USER3: 
USER4: 
USER5: 
[...]
-0.939114
-0.823383
-0.742957
-0.715602
-0.640085
-0.628161
-0.646163
-0.571113
-0.509390
-0.528093
-0.519910
-0.467773
-0.471747
-0.432001
-0.319310
-0.378927
-0.496761
-0.447663
-0.443454
-0.508917
-0.442985
-0.372144
-0.404875
-0.399965
-0.327955
-0.205912
-0.008587
0.045655
-0.124549
-0.157280
-0.010221
0.036071
-0.001336
-0.032430
-0.058381
-0.063524
-0.012322
0.084237
0.074418
-0.020504
-0.019802
0.051507
0.105982
0.123284
0.098034
0.066238
0.059693
0.024390
-0.027045
-0.026343
-0.158906
-0.383818
-0.311574
-0.098818
-0.103727
-0.186725
-0.204493
-0.189763
-0.082684
0.078637
0.145971
0.131242
0.094303
0.129373
0.301215
0.436116
0.526830
0.648873
0.711999
0.781671
0.834276
0.838017
0.931770
1.010327
0.996299
1.006587
1.069479
1.119980
1.082573
1.040022
1.089821
1.180301
1.232439
1.201812
1.193863
1.284577
1.389319
1.464836
1.455251
1.379267
1.356355
1.342094
1.269384
1.154122
1.009169
0.953292
0.983686
0.911209
0.786128
0.704066
0.544850
0.332563
0.162359
0.049669
0.057853
0.031200
-0.169163
-0.356201
-0.521962
-0.680476
-0.700816
-0.743133
-0.883878
-0.963369
-0.995165
-1.056887
-1.152977
-1.235741
-1.306581
-1.378590
-1.438675
-1.546455
-1.582927
-1.515359
-1.579886
-1.669196
-1.687432
-1.788666
-1.870962
-1.899485
-1.935957
-1.930812
-1.983416
-2.112004
-2.212770
-2.312134
-2.404249
-2.445397
-2.475089
-2.599468
-2.811054
-2.927017
-2.967464
-3.042746
-3.098389
-3.153331
-3.178814
-3.160811
-3.219962
-3.242639
-3.151224
-3.093943
-3.087630
-3.139065
-3.234921
-3.228375
-3.155429
-3.125737
-3.091835
-3.104694
-3.158934
-3.071260
-2.953192
-2.941735
-2.934487
-2.972829
-2.981011
-2.850786
-2.752590
-2.691802
-2.637561
-2.649250
-2.583085
-2.408204
-2.266990
-2.228179
-2.250857
-2.196148
-2.090237
-2.005602
-1.893379
-1.853165
-1.826044
-1.659580
-1.580790
-1.570269
-1.402168
-1.278722
-1.240379
-1.141015
-1.092384
-1.067134
-0.983434
-0.903475
-0.797564
-0.660090
-0.524020
-0.372986
-0.247203
-0.150410
-0.013638
0.129446
0.247748
0.415849
0.579975
0.652453
0.744102
0.915242
1.131037
1.375122
1.557718
1.658953
1.817702
2.058747
2.202299
2.263555
2.449190
2.674805
2.839633
3.059637
3.291564
3.459431
3.615141
3.803114
4.032470
4.217871
4.308585
4.372646
4.442085
4.544488
4.690846
4.771507
4.754206
4.745322
4.779925
4.831595
4.862456
4.871107
4.875082
4.794657
4.710958
4.724519
4.684072
4.649237
4.719610
4.710727
4.584243
4.444900
4.376632
4.356292
4.274230
4.234251
4.226069
4.035057
3.801728
3.751228
3.801027
3.844047
3.834461
3.711952
3.484468
3.220511
3.022953
2.939488
2.814641
2.586222
2.383052
2.133825
1.886935
1.804873
1.628123
1.359958
1.248203
1.010432
0.677272
0.596378
0.526707
0.284494
-0.015701
-0.270774
-0.332262
-0.397958
-0.631755
-0.828378
-0.940834
-0.940833
-0.891502
-0.937325
-1.067316
-1.437183
-1.816168
-1.749535
-1.452144
-1.226062
-1.271652
-1.589849
-1.793252
-1.839778
-1.740179
-1.486976
-1.448166
-1.576286
-1.659751
-1.747892
-1.676583
-1.585870
-1.720536
-1.825511
-1.855202
-1.855202
-1.770099
-1.845615
-2.036159
-2.085256
-2.082918
-2.147212
-2.309934
-2.455355
-2.445068
-2.364875
-2.348508
-2.507490
-2.740118
-2.819842
-2.809554
-2.869874
-3.014126
-3.217763
-3.391707
-3.357573
-3.259377
-3.376041
-3.504396
-3.564481
-3.694238
-3.697511
-3.658700
-3.726267
-3.661738
-3.560503
-3.538993
-3.431914
-3.428874
-3.537589
-3.483815
-3.462539
-3.475164
-3.294204
-3.172629
-3.218686
-3.287422
-3.358730
-3.337454
-3.275263
-3.289291
-3.290927
-3.270819
-3.258895
-3.198341
-3.107394
-3.087053
-3.185948
-3.240890
-3.101780
-2.941395
-2.873593
-2.823326
-2.767682
-2.673461
-2.556562
-2.418621
-2.290733
-2.211943
-1.966923
-1.626748
-1.432462
-1.243085
-1.074984
-1.025653
-0.991518
-0.850538
-0.537249
-0.252015
-0.121088
-0.045104
0.024802
0.185889
0.381110
0.448912
0.454056
0.509700
0.696739
0.971217
1.133941
1.157321
1.200106
1.376857
1.634269
1.806578
1.916697
2.002969
2.014425
2.205672
2.583021
2.802791
2.992401
3.208197
3.252151
3.334682
3.594198
3.874989
4.026957
3.993291
3.984174
4.134740
4.272680
4.284605
4.299334
4.386074
4.398933
4.428392
4.574750
4.627121
4.605378
4.586441
4.579662
4.636709
4.622681
4.651205
4.776287
4.776755
4.796395
4.764131
4.518878
4.446168
4.557222
4.532440
4.518413
4.590423
4.542028
4.419986
4.296775
4.041235
3.716258
3.580656
3.697321
3.833859
3.792945
3.606142
3.467267
3.502805
3.514261
3.480595
3.474049
3.318574
3.281401
3.405314
3.318810
3.249373
3.214537
3.038255
2.893301
2.732683
2.645711
2.626306
2.483924
2.415656
2.295718
1.996692
1.791652
1.559258
1.272857
1.096575
0.903225
0.742373
0.636697
0.427215
0.254907
0.202771
0.030930
-0.236299
-0.320232
-0.303632
-0.341506
-0.294279
-0.210111
-0.322567
-0.560806
-0.653857
-0.585120
-0.586522
-0.691263
-0.810967
-0.970182
-1.014603
-0.935813
-1.062998
-1.232968
-1.254711
-1.434266
-1.578285
-1.523576
-1.587636
-1.653099
-1.731654
-1.931082
-1.933186
-1.874736
-1.962410
-1.947914
-1.854161
-1.847146
-1.877305
-1.867953
-1.835922
-1.853456
-1.882447
-1.871458
-1.890161
-1.883614
-1.737490
-1.575235
-1.493873
-1.435423
-1.405964
-1.398248
-1.390064
-1.312443
-1.160942
-1.102960
-1.046147
-0.937197
-0.912881
-0.862614
-0.909841
-1.073031
-1.017620
-0.922698
-0.888329
-0.789432
-0.798316
-0.824501
-0.777741
-0.706199
-0.525706
-0.387766
-0.379348
-0.394077
-0.340303
-0.178515
0.000574
0.231800
0.392887
0.392888
0.522880
0.673913
0.733532
0.888540
0.957277
0.951666
1.126313
1.406871
1.614249
1.662646
1.660542
1.717356
1.849218
2.072962
2.254857
2.306761
2.272861
2.288993
2.429272
2.482578
2.462238
2.492866
2.430911
2.378774
2.460838
2.516482
2.520925
2.531914
2.523731
2.535188
2.617485
2.632449
2.583819
2.698848
2.825801
2.826970
2.875834
2.909034
2.937090
3.072927
3.168784
3.163407
3.119688
3.129976
3.222560
3.258799
3.224665
3.205494
3.246877
3.250151
3.121095
3.075037
3.062413
2.944813
2.961647
2.987132
2.873741
2.784898
2.638308
2.554141
2.643452
2.637608
2.556715
2.442155
2.253714
2.227062
2.263067
2.208359
2.239923
2.187319
2.027402
1.976902
1.887826
1.881748
1.975033
1.820026
1.636730
1.611013
1.557941
1.434263
1.200700
1.000336
0.950772
0.902376
0.870113
0.788284
0.529939
0.351318
0.328874
0.280713
0.302924
0.308302
0.090169
-0.147134
-0.279463
-0.330430
-0.346094
-0.497127
-0.709414
-0.868863
-0.985995
-1.019895
-1.070161
-1.181916
-1.333182
-1.533312
-1.657224
-1.694865
-1.709827
-1.767808
-1.953443
-2.049767
-2.022178
-2.165028
-2.303435
-2.271405
-2.324242
-2.410279
-2.506136
-2.722164
-2.774534
-2.730112
-2.791366
-2.711407
-2.718420
-2.941930
-2.964374
-2.968114
-3.086649
-3.047370
-3.015573
-3.074957
-3.083607
-3.053681
-3.032405
-3.090853
-3.169876
-3.253108
-3.300334
-3.186942
-3.151638
-3.159587
-3.042220
-3.033101
-2.956415
-2.750206
-2.676091
-2.603614
-2.579064
-2.590988
-2.398806
-2.166411
-2.052785
-1.949913
-1.796074
-1.715414
-1.664913
-1.439999
-1.253896
-1.196148
-1.035295
-0.791677
-0.545722
-0.393052
-0.290648
-0.103610
0.048593
0.166661
0.266960
0.303433
0.428515
0.584459
0.651793
0.727777
0.806801
0.849821
0.911310
0.989632
1.007401
1.011844
1.092972
1.183452
1.265048
1.352021
1.426837
1.525500
1.598679
1.655726
1.759299
1.823126
1.882277
2.041727
2.213803
2.362031
2.511895
2.574320
2.624820
2.722314
2.729563
2.788013
2.874284
2.735175
2.639085
2.712966
2.736580
2.734710
2.709460
2.690056
2.706188
2.612202
2.439894
2.369522
2.398046
2.336557
2.238363
2.193708
2.038234
1.934428
1.896320
1.677019
1.560120
1.537910
1.394359
1.379163
1.392490
1.266474
1.172488
1.111935
1.053018
0.995972
0.899882
0.754227
0.602493
0.530952
0.503598
0.489571
0.469932
0.373374
0.199196
-0.056578
-0.241277
-0.263020
-0.326378
-0.538198
-0.945238
-1.389686
-1.638446
-1.914093
-2.244214
-2.369529
-2.192544
-1.686840
-1.176226
-0.911333
-0.812436
-0.771989
-0.398848
0.099842
-0.160374
-1.230931
-2.415581
-2.939052
-2.829401
-2.996566
-3.496424
-3.816959
-3.780720
-3.161624
-2.369986
-2.133149
-2.625058
-3.782354
-4.813399
-5.002307
-4.821815
-4.688784
-4.883536
-5.546819
-5.919491
-5.314189
-3.723432
-2.292125
-2.434974
-3.105271
-2.525219
-1.255933
-0.614159
-1.022836
-2.340283
-3.459704
-2.777483
-0.630055
0.915813
0.847545
-0.265563
-1.421223
-2.094558
-2.259852
-2.378153
-3.185922
-4.130463
-4.372910
-4.098899
-3.337888
-2.865384
-3.533576
-4.467361
-4.955530
-4.801924
-3.901570
-3.145703
-3.354951
-4.236600
-4.651824
-3.835403
-2.434957
-1.197468
-0.143509
0.389315
0.049375
-0.381279
-0.188162
0.206021
0.651405
1.139106
1.216962
0.856213
0.152951
-0.399044
-0.185820
0.164175
-0.103990
-1.018370
-1.799720
-1.559610
-1.227617
-1.630216
-1.983249
-2.075365
-1.945139
-1.281154
-0.424287
-0.019349
-0.299906
-0.495593
0.234322
1.102412
1.178397
0.979202
1.051446
1.395830
2.173440
3.028671
3.271587
3.174328
3.063041
2.825503
2.965314
3.625325
4.087308
3.943056
3.158667
2.334064
2.475746
3.465410
4.109289
3.478972
1.969811
0.875406
0.642311
0.799891
0.948353
0.800126
0.504139
0.534299
0.859278
1.389297
1.914172
1.947372
1.903653
1.968883
1.643905
1.381585
1.334125
1.360077
1.861105
2.214840
2.007463
1.762678
1.560911
1.682019
2.219285
2.767774
3.123380
2.925822
2.424328
2.234719
2.123665
1.895246
1.502467
0.985074
1.011260
1.491246
1.518134
0.936914
0.118390
-0.310627
0.097817
0.762270
1.080936
0.973857
0.481247
0.192040
0.462077
0.784484
0.737023
0.268026
-0.173382
-0.123817
0.217762
0.621764
0.656133
0.084031
-0.387771
-0.306409
0.215193
0.669929
0.731418
0.769528
0.479386
-0.136669
-0.527110
-1.092665
-1.300043
-0.620861
-0.089206
0.058788
-0.157006
-0.819587
-1.072321
-0.567085
0.327424
1.076745
1.139637
0.625050
0.060430
0.010398
0.388682
0.547899
0.550939
0.527559
0.465370
0.740784
1.028589
1.092650
1.428851
1.658206
1.303069
0.739618
0.262672
-0.016248
0.008301
0.388223
0.703148
0.254725
-0.600037
-0.874748
-0.369979
0.337024
0.657795
0.516114
0.184122
0.038467
0.328142
0.878268
1.180568
0.846706
0.273202
0.102765
0.265722
0.502793
0.711574
0.848814
1.056192
1.234346
1.091263
0.720695
0.424942
0.330722
0.348725
0.251700
0.012759
-0.201866
-0.436598
-0.397319
0.298696
0.887865
0.744548
0.338677
-0.071403
-0.317357
-0.259843
-0.195782
-0.145515
-0.224772
-0.538995
-0.602587
-0.484051
-0.521458
-0.489895
-0.337693
-0.109038
0.020018
-0.277137
-0.608194
-0.671786
-0.889685
-1.281528
-1.632691
-1.988998
-2.147746
-2.110338
-2.302518
-2.661397
-2.742056
-2.477397
-2.157328
-1.945274
-1.875134
-2.006060
-2.025464
-1.737893
-1.478612
-1.225642
-0.963789
-0.996754
-1.191740
-1.360775
-1.310742
-0.800830
-0.267771
-0.257484
-0.597658
-0.887566
-1.113882
-1.261641
-1.261874
-1.454055
-1.842158
-2.187710
-2.511051
-2.488138
-2.171342
-1.893123
-1.525593
-1.396537
-1.688783
-2.135335
-2.628647
-2.661612
-2.226982
-1.875584
-1.622147
-1.554579
-1.537044
-1.288751
-1.122287
-1.067811
-1.039755
-1.094697
-0.881240
-0.512541
-0.583381
-1.037415
-1.456379
-1.703268
-1.791877
-1.695785
-1.510618
-1.420371
-1.393016
-1.325682
-1.110822
-0.733239
-0.607689
-0.832836
-0.969373
-1.009585
-1.069671
-1.170437
-1.430419
-1.506169
-1.150562
-0.679460
-0.291824
0.009074
0.192371
0.120596
-0.190821
-0.458986
-0.529826
-0.466934
-0.499899
-0.599263
-0.578220
-0.667998
-0.795417
-0.657710
-0.533329
-0.702364
-1.060307
-1.293636
-1.215781
-1.000220
-0.852927
-0.868824
-0.935690
-0.969824
-1.014011
-0.770628
-0.304903
-0.154804
-0.256272
-0.339503
-0.266090
0.004180
0.069877
-0.174908
-0.474402
-0.723161
-0.680610
-0.438863
-0.306533
-0.266553
-0.410104
-0.515079
-0.232183
0.114772
0.360961
0.490018
0.254818
-0.039532
-0.039765
0.117815
0.354418
0.533507
0.590321
0.746965
1.018171
1.254774
1.393650
1.516862
1.732657
1.877846
1.943543
2.056702
2.024205
1.888836
1.908710
2.088734
2.340534
2.376773
2.074474
1.758147
1.569005
1.610856
2.042680
2.533421
2.739397
2.731448
2.581585
2.373272
2.352464
2.635360
2.914982
2.759975
2.300096
2.051804
2.233932
2.696384
3.060407
3.014583
2.618765
2.136909
1.979798
2.293087
2.557980
2.534834
2.472878
2.389881
2.464930
2.804171
3.067427
3.340970
3.733049
3.877770
3.717619
3.377912
2.973677
2.698031
2.503278
2.428464
2.529465
2.563366
2.548403
2.579031
2.540222
2.462134
2.286786
2.022362
1.949886
2.044340
2.128274
2.204960
2.239329
2.295441
2.383583
2.265048
1.947552
1.610183
1.319340
1.208520
1.149604
0.919548
0.724094
0.618184
0.470659
0.431381
0.519757
0.591300
0.619823
0.525837
0.171401
-0.373580
-0.781789
-0.807039
-0.537470
-0.303204
-0.270005
-0.301567
-0.433662
-0.820362
-1.317414
-1.623454
-1.675825
-1.765836
-2.012024
-2.230624
-2.394749
-2.495515
-2.560043
-2.724869
-2.901853
-3.004490
-3.029739
-2.996306
-3.237818
-3.740949
-3.945989
-3.883564
-3.934765
-4.148222
-4.559938
-4.913673
-4.924661
-4.876264
-4.892863
-4.890525
-5.003448
-5.211761
-5.381497
-5.408851
-5.278158
-5.150037
-5.045529
-4.990820
-5.128292
-5.347593
-5.534630
-5.708341
-5.811445
-5.848385
-5.873401
-5.936525
-6.035187
-6.078907
-6.041499
-5.909636
-5.795309
-5.839964
-5.897945
-5.868018
-5.723999
-5.433856
-5.218528
-5.116592
-4.965091
-4.802835
-4.544021
-4.158722
-3.882374
-3.641094
-3.272162
-2.891305
-2.502968
-2.116968
-1.860725
-1.752711
-1.748502
-1.697767
-1.568243
-1.478698
-1.414169
-1.445732
-1.491088
-1.278332
-0.847677
-0.328646
0.047534
0.095463
0.089619
0.230365
0.462059
0.682998
0.737941
0.739110
0.972908
1.460843
1.918853
2.122023
2.229570
2.413336
2.579332
2.708856
2.852642
2.874854
2.722418
2.629835
2.647604
2.640123
2.712835
2.829500
2.785547
2.689457
2.628436
2.583781
2.554090
2.432983
2.375937
2.496811
2.519723
2.414048
2.306034
2.157339
1.977082
1.824179
1.723647
1.608853
1.470446
1.407321
1.440521
1.526558
1.553679
1.505985
1.492192
1.476294
1.343030
1.047277
0.684191
0.392880
0.255174
0.291647
0.280659
0.102973
-0.082661
-0.294715
-0.556333
-0.747345
-0.872426
-1.018081
-1.196234
-1.263568
-1.187115
-1.190388
-1.378828
-1.631095
-1.829354
-1.951630
-1.971736
-1.870267
-1.740977
-1.682293
-1.737703
-1.862082
-1.971966
-2.102892
-2.240365
-2.352821
-2.513906
-2.603918
-2.462937
-2.207163
-1.979444
-1.864415
-1.947646
-2.131177
-2.256024
-2.346503
-2.387417
-2.299041
-2.193130
-2.213938
-2.422017
-2.750267
-2.934733
-2.826017
-2.478360
-2.109427
-2.024558
-2.163199
-2.288982
-2.345794
-2.227024
-1.915606
-1.589458
-1.424397
-1.521890
-1.694899
-1.686482
-1.559763
-1.426732
-1.297676
-1.257462
-1.345135
-1.416443
-1.405220
-1.435613
-1.525157
-1.593659
-1.621481
-1.639482
-1.787242
-2.045587
-2.118999
-1.971005
-1.823946
-1.712658
-1.632699
-1.593888
-1.484938
-1.313096
-1.179831
-1.087013
-0.968477
-0.780738
-0.658461
-0.646537
-0.575228
-0.449211
-0.294670
-0.058535
0.192330
0.405086
0.515205
0.543963
0.612466
0.623923
0.544198
0.530405
0.540225
0.559163
0.727498
0.930200
1.038215
1.198367
1.427722
1.628087
1.807410
1.925712
1.956106
1.924077
1.843417
1.751535
1.678825
1.652173
1.642821
1.589282
1.463266
1.260097
1.121923
1.154655
1.226431
1.234849
1.146240
0.938629
0.727744
0.634693
0.593779
0.466360
0.269971
0.086441
-0.054071
-0.064124
0.017238
-0.030222
-0.180086
-0.222870
-0.136131
0.026125
0.167573
0.134608
0.008358
-0.010813
0.038519
0.034779
-0.038633
-0.148049
-0.250218
-0.348880
-0.421357
-0.357296
-0.202989
-0.113912
-0.089363
-0.135186
-0.236888
-0.268684
-0.230574
-0.190360
-0.277332
-0.552979
-0.757083
-0.823949
-0.901803
-0.969604
-1.152900
-1.433456
-1.522533
-1.468291
-1.436494
-1.496112
-1.715881
-1.978435
-2.134844
-2.186981
-2.249170
-2.382668
-2.456781
-2.395759
-2.259221
-2.118709
-2.001342
-1.861063
-1.660464
-1.425498
-1.290830
-1.324496
-1.457994
-1.681971
-1.835342
-1.795596
-1.685710
-1.521117
-1.426662
-1.502412
-1.551509
-1.563666
-1.577225
-1.522282
-1.463832
-1.456818
-1.504512
-1.533736
-1.480430
-1.458686
-1.504510
-1.504510
-1.371712
-1.197533
-1.183504
-1.253409
-1.186075
-0.955083
-0.629636
-0.331544
-0.189395
-0.229140
-0.297876
-0.176535
0.020323
0.034118
-0.042333
0.000218
0.144004
0.219287
0.133952
0.042304
0.108001
0.268621
0.463374
0.679170
0.813837
0.856623
0.892862
1.001812
1.198670
1.285409
1.224622
1.194463
1.177396
1.302946
1.715365
2.150228
2.416524
2.556335
2.657336
2.794810
2.928542
3.035856
3.095942
3.070225
3.042403
3.064147
3.105997
3.187593
3.318988
3.418352
3.449915
3.523328
3.659399
3.756659
3.766245
3.631812
3.380714
3.170297
3.044281
3.000094
3.053167
3.108577
3.146687
3.189706
3.189473
3.276913
3.484058
3.580149
3.559576
3.534560
3.511882
3.538536
3.610546
3.672970
3.739603
3.825173
3.876141
3.908874
4.041905
4.212110
4.296511
4.285991
4.083289
3.743114
3.528489
3.512124
3.611488
3.688174
3.677654
3.748027
3.973642
4.166292
4.204167
4.155772
4.104337
4.112520
4.182660
4.211885
4.234330
4.331591
4.396353
4.428150
4.514655
4.574976
4.507175
4.295823
4.012461
3.728866
3.512837
3.549310
3.860729
4.216335
4.418804
4.350068
4.123285
4.024857
4.062031
4.029768
3.825196
3.471929
3.056705
2.708348
2.543521
2.523883
2.565032
2.659253
2.793687
2.969269
3.111652
3.150930
3.129889
3.049463
3.008549
3.020474
2.888612
2.659024
2.375662
2.037826
1.901756
1.924201
1.824370
1.662116
1.542880
1.435567
1.385769
1.384367
1.337841
1.259520
1.251338
1.404943
1.673576
1.881423
1.971201
2.036899
2.157071
2.269528
2.284024
2.215055
2.064256
1.897091
1.772244
1.593624
1.355385
1.113171
0.921224
0.814613
0.728576
0.689065
0.613082
0.379519
0.200430
0.170037
0.131929
-0.049030
-0.433859
-0.840900
-1.086153
-1.186919
-1.213805
-1.260330
-1.315038
-1.337482
-1.373720
-1.450639
-1.559588
-1.591851
-1.501605
-1.385407
-1.278094
-1.277626
-1.425385
-1.537607
-1.604473
-1.754570
-1.930151
-2.067857
-2.163480
-2.169091
-2.172363
-2.269389
-2.363374
-2.434215
-2.497105
-2.488688
-2.521887
-2.678998
-2.792389
-2.788414
-2.767840
-2.831198
-3.062657
-3.359111
-3.471567
-3.441173
-3.434159
-3.451459
-3.551056
-3.654628
-3.580981
-3.493307
-3.532116
-3.644105
-3.870654
-4.115205
-4.136246
-3.888421
-3.529775
-3.267220
-3.188664
-3.156399
-2.974505
-2.623808
-2.227521
-1.950471
-1.874253
-1.903711
-1.939013
-1.947663
-1.990915
-2.140545
-2.228686
-2.178185
-2.128152
-2.072508
-2.055206
-2.083729
-1.955140
-1.659152
-1.253747
-0.832444
-0.638859
-0.579007
-0.423064
-0.225738
-0.037063
0.110697
0.152781
0.074927
-0.070260
-0.090366
0.090827
0.362266
0.676023
0.972946
1.176350
1.330890
1.522605
1.676210
1.629685
1.501798
1.483095
1.503670
1.526115
1.576849
1.651431
1.780955
1.875878
1.857408
1.807376
1.737237
1.652136
1.676685
1.853670
2.064556
