EVENT_NAME: 202302060117
EVENT_ID: 13194
EVENT_DATE_YYYYMMDD: 2023/02/06
EVENT_TIME_HHMMSS: 01:17:32.00000
EVENT_LATITUDE_DEGREE: 37.288
EVENT_LONGITUDE_DEGREE: 37.043
EVENT_DEPTH_KM: 8.6
HYPOCENTER_REFERENCE: AFAD
MAGNITUDE_W: 7.7
MAGNITUDE_W_REFERENCE: AFAD
MAGNITUDE_L: 
MAGNITUDE_L_REFERENCE: 
FOCAL_MECHANISM: 
NETWORK: TK
STATION_CODE: 7205
STATION_NAME: 
STATION_LATITUDE_DEGREE: 38.34777
STATION_LONGITUDE_DEGREE: 41.40071
STATION_ELEVATION_M: 985.0
LOCATION: Kahramanmaras_Pazarck_Turkiye
SENSOR_DEPTH_M: 
VS30_M/S: None
SITE_CLASSIFICATION_EC8: unknown
MORPHOLOGIC_CLASSIFICATION: 
EPICENTRAL_DISTANCE_KM: 400.46
EARTHQUAKE_BACKAZIMUTH_DEGREE: 
DATE_TIME_FIRST_SAMPLE_YYYYMMDD_HHMMSS: 2023/02/06 01:18:03.0163120
DATE_TIME_FIRST_SAMPLE_PRECISION: millisecond
SAMPLING_INTERVAL_S: 0.005
NDATA: 42001
DURATION_S: 
STREAM: HNZ
UNITS: cm/s^2
INSTRUMENT: sensor = GEO-A200,/GEObit | digitizer = 
INSTRUMENT_ANALOG/DIGITAL: 
INSTRUMENTAL_FREQUENCY_HZ: 
INSTRUMENTAL_DAMPING: 
FULL_SCALE_G: 
N_BIT_DIGITAL_CONVERTER: 
PGA_CM/S^2: 15.792
TIME_PGA_S: 
BASELINE_CORRECTION: BASELINE REMOVED
FILTER_TYPE: BUTTERWORTH
FILTER_ORDER: 
LOW_CUT_FREQUENCY_HZ: 
HIGH_CUT_FREQUENCY_HZ: 
LATE/NORMAL_TRIGGERED: 
DATABASE_VERSION: 
HEADER_FORMAT: DYNA 1.2
DATA_TYPE: Acceleration
PROCESSING: Automatic Paolucci et al., 2011
DATA_TIMESTAMP_YYYYMMDD_HHMMSS: 
DATA_LICENSE: U (unknown license)
DATA_CITATION: Turkish Accelerometric Archive v 1.0 - Disaster And Emergency Management Presidency, Earthquake Department
DATA_CREATOR: AFAD
ORIGINAL_DATA_MEDIATOR_CITATION: : AFAD - Disaster And Emergency Management Presidency
ORIGINAL_DATA_MEDIATOR: AFAD PROCESS SERVICE
ORIGINAL_DATA_CREATOR_CITATION: AFAD PROCESS SERVICE
ORIGINAL_DATA_CREATOR: network: TK
USER1: GuestUser
USER2: 
USER3: 
USER4: 
USER5: 
[...]
-0.559027
0.497756
1.410700
2.099057
2.536225
2.693955
2.537404
2.093881
1.473560
0.825461
0.309901
0.055652
0.079665
0.297661
0.606528
0.907861
1.147986
1.325255
1.455440
1.558082
1.641656
1.737706
1.870952
2.052223
2.269513
2.439013
2.448901
2.163342
1.496174
0.473999
-0.782887
-2.066609
-3.184364
-3.959823
-4.298586
-4.204654
-3.685562
-2.864665
-1.920647
-1.015471
-0.306633
0.176206
0.489545
0.722137
1.028649
1.549861
2.335209
3.376690
4.600854
5.849501
6.961842
7.806280
8.297123
8.424248
8.225558
7.773560
7.193260
6.656277
6.291618
6.155784
6.220289
6.368366
6.493843
6.507027
6.374960
6.138838
5.837036
5.526758
5.241670
4.994955
4.786848
4.565793
4.300009
3.978196
3.583875
3.079614
2.404913
1.538347
0.510757
-0.625830
-1.822214
-3.027072
-4.153066
-5.070717
-5.664435
-5.895142
-5.808038
-5.538250
-5.238330
-4.995144
-4.871786
-4.898858
-5.055173
-5.310128
-5.620641
-5.949046
-6.232957
-6.370439
-6.281686
-5.950691
-5.479623
-5.007378
-4.663434
-4.569032
-4.781847
-5.284930
-5.945742
-6.563944
-6.949555
-6.967681
-6.593840
-5.883118
-4.953931
-3.970833
-3.067070
-2.307617
-1.704716
-1.205634
-0.753870
-0.348483
0.003229
0.270192
0.445106
0.576705
0.697709
0.854026
1.082145
1.388186
1.756613
2.081723
2.271469
2.313845
2.223916
2.052063
1.804406
1.463760
1.067556
0.661229
0.286682
-0.029716
-0.241354
-0.300208
-0.244178
-0.157544
-0.128116
-0.183674
-0.266069
-0.339989
-0.404727
-0.451810
-0.469701
-0.436507
-0.331746
-0.168602
-0.008283
0.069405
-0.002161
-0.278774
-0.769615
-1.402648
-2.034269
-2.504629
-2.729921
-2.694138
-2.404811
-1.911613
-1.299531
-0.666968
-0.113033
0.259160
0.377340
0.237739
-0.116091
-0.564793
-0.975593
-1.258327
-1.335072
-1.215951
-0.988068
-0.780195
-0.730992
-0.914851
-1.361670
-2.049555
-2.894933
-3.766442
-4.481635
-4.895731
-5.002609
-4.933867
-4.882075
-4.985187
-5.282752
-5.736398
-6.246073
-6.689831
-6.924775
-6.834375
-6.416511
-5.760171
-5.019551
-4.397111
-4.079534
-4.171816
-4.637233
-5.320880
-6.006882
-6.518675
-6.795053
-6.845196
-6.752912
-6.664631
-6.715715
-6.972789
-7.417489
-7.975895
-8.533124
-8.949103
-9.086585
-8.868825
-8.346907
-7.699512
-7.139457
-6.799045
-6.724888
-6.872022
-7.116854
-7.322843
-7.379106
-7.262810
-7.026452
-6.755016
-6.529958
-6.359752
-6.205083
-6.027343
-5.813349
-5.582170
-5.335924
-5.051776
-4.752327
-4.517381
-4.429099
-4.534094
-4.803880
-5.116276
-5.333565
-5.367935
-5.185251
-4.830949
-4.362000
-3.817011
-3.279085
-2.870638
-2.706317
-2.819551
-3.133124
-3.497077
-3.755798
-3.825952
-3.691528
-3.395374
-3.027183
-2.650281
-2.275499
-1.907778
-1.586199
-1.388685
-1.384917
-1.543351
-1.722031
-1.785358
-1.678949
-1.421403
-1.061216
-0.612983
-0.078353
0.540321
1.258576
2.071232
2.964872
3.907243
4.824189
5.656621
6.386882
7.036160
7.624936
8.149914
8.623101
9.018836
9.238715
9.183393
8.821795
8.225251
7.529362
6.847363
6.228690
5.662516
5.124120
4.635397
4.242488
3.990829
3.916439
4.001895
4.190700
4.386096
4.462842
4.377387
4.185288
3.988481
3.881603
3.903497
4.082414
4.424474
4.900250
5.452772
5.971630
6.376075
6.597131
6.598309
6.443406
6.211287
6.021542
5.983405
6.091227
6.267083
6.373021
6.282622
5.959396
5.437244
4.847999
4.383759
4.212377
4.429667
4.975833
5.672900
6.322413
6.752519
6.865990
6.638579
6.147737
5.618288
5.338614
5.501758
6.079705
6.865289
7.628743
8.181972
8.387726
8.177500
7.583782
6.772304
6.008615
5.542963
5.491172
5.822167
6.403881
7.089178
7.742928
8.230240
8.481665
8.509916
8.393856
8.253314
8.190458
8.263673
8.464955
8.722971
8.948030
9.073507
9.075391
9.011123
8.980991
9.043141
9.198752
9.373667
9.509267
9.586719
9.584366
9.506915
9.349422
9.113536
8.800198
8.382571
7.901146
7.473867
7.218205
7.188544
7.310019
7.410778
7.358752
7.112743
6.706886
6.237703
5.829021
5.564179
5.429757
5.319583
5.074987
4.587205
3.854121
2.957422
2.010344
1.091516
0.265442
-0.401961
-0.881503
-1.205670
-1.453327
-1.723113
-2.092480
-2.569197
-3.101942
-3.592784
-3.922837
-4.018415
-3.887052
-3.610908
-3.293331
-3.018129
-2.833798
-2.721504
-2.605914
-2.415226
-2.152737
-1.906727
-1.800553
-1.928854
-2.280330
-2.736094
-3.100753
-3.200569
-3.016002
-2.678179
-2.438054
-2.487726
-2.813777
-3.271189
-3.633494
-3.729778
-3.509193
-3.011523
-2.355182
-1.677419
-1.151970
-0.915141
-1.009306
-1.406452
-1.945790
-2.403202
-2.607778
-2.500428
-2.174141
-1.780289
-1.442937
-1.226118
-1.104878
-1.024130
-0.893709
-0.605088
-0.102004
0.583528
1.311671
1.917868
2.271463
2.329376
2.134452
1.757552
1.316383
0.895931
0.533626
0.272551
0.156021
0.241477
0.506321
0.860152
1.259418
1.702472
2.207204
2.759491
3.289413
3.704216
3.934219
3.980596
3.908324
3.814394
3.795561
3.931397
4.250386
4.670134
5.051508
5.309289
5.419700
5.403457
5.291635
5.082587
4.765717
4.318899
3.707759
2.894398
1.884935
0.802728
-0.158710
-0.799041
-0.978662
-0.652375
0.116729
1.109244
2.003119
2.488077
2.393676
1.774768
0.871006
0.003499
-0.543136
-0.598458
-0.118444
0.778962
1.831979
2.761872
3.378898
3.659279
3.705422
3.624204
3.515207
3.467654
3.540633
3.766869
4.085858
4.323393
4.314213
4.017825
3.539696
3.090052
2.860993
2.939387
3.314405
3.864809
4.417566
4.839432
5.047070
5.050131
4.919005
4.699127
4.417806
4.101407
3.795367
3.565366
3.454015
3.452133
3.511929
3.540886
3.420589
3.054047
2.418895
1.605298
0.786522
0.160552
-0.168794
-0.260841
-0.270022
-0.318517
-0.414801
-0.492959
-0.490604
-0.432691
-0.454113
-0.689058
-1.198497
-1.932523
-2.739058
-3.444599
-3.922493
-4.140016
-4.122124
-3.921549
-3.603030
-3.233662
-2.919616
-2.737875
-2.719747
-2.902429
-3.309227
-3.904123
-4.555282
-5.093678
-5.398777
-5.467047
-5.407015
-5.335918
-5.319203
-5.340390
-5.342508
-5.324380
-5.341330
-5.460449
-5.717994
-6.084536
-6.466851
-6.759472
-6.884948
-6.833627
-6.682724
-6.541474
-6.482855
-6.513694
-6.607624
-6.724390
-6.799251
-6.757346
-6.532288
-6.123370
-5.639825
-5.216546
-4.925571
-4.726409
-4.509119
-4.193425
-3.718355
-3.078965
-2.313391
-1.466599
-0.624516
0.108099
0.630253
0.903807
0.949007
0.825179
0.629314
0.455107
0.389191
0.456991
0.612131
0.769625
0.825420
0.722308
0.447578
0.055140
-0.326939
-0.563767
-0.587072
-0.444174
-0.220764
0.010180
0.208872
0.393910
0.578006
0.723022
0.754098
0.638980
0.415336
0.166031
-0.031718
-0.160490
-0.212516
-0.165903
0.002891
0.271502
0.540818
0.713143
0.717617
0.505508
0.069283
-0.558336
-1.285064
-1.972007
-2.486155
-2.733106
-2.708857
-2.501455
-2.216366
-1.950816
-1.765543
-1.698919
-1.774016
-1.959759
-2.212124
-2.491798
-2.752167
-2.938380
-3.009711
-2.959566
-2.802308
-2.571835
-2.293337
-2.017664
-1.785073
-1.605449
-1.509870
-1.490565
-1.523758
-1.577903
-1.590850
-1.499979
-1.283866
-0.987477
-0.680259
-0.425538
-0.267338
-0.264276
-0.456140
-0.799846
-1.207586
-1.599553
-1.960445
-2.305800
-2.592300
-2.740141
-2.721778
-2.593004
-2.458346
-2.380658
-2.346522
-2.328159
-2.344637
-2.484238
-2.806286
-3.263934
-3.718993
-4.008789
-4.038686
-3.777845
-3.244862
-2.524018
-1.760092
-1.114816
-0.695069
-0.528158
-0.575712
-0.762161
-0.992161
-1.160718
-1.189203
-1.078322
-0.892107
-0.717898
-0.624437
-0.606074
-0.617844
-0.595479
-0.497075
-0.331812
-0.112168
0.129369
0.326884
0.426701
0.442710
0.455894
0.585374
0.898007
1.358010
1.875926
2.322275
2.590415
2.645267
2.507079
2.242472
1.963740
1.794241
1.820844
2.069444
2.489662
2.965439
3.339045
3.466641
3.274307
2.788644
2.131834
1.466785
0.969351
0.763599
0.870007
1.222661
1.681488
2.084991
2.304400
2.268146
1.988944
1.546127
1.052225
0.620237
0.331382
0.219560
0.242161
0.316082
0.371170
0.373525
0.342922
0.311848
0.319617
0.386947
0.511247
0.696756
0.912868
1.110383
1.227385
1.199607
1.049648
0.851663
0.671571
0.567753
0.535266
0.492186
0.362472
0.100455
-0.303989
-0.823551
-1.429040
-2.086792
-2.758904
-3.397351
-3.957876
-4.423764
-4.818320
-5.212641
-5.666523
-6.208920
-6.804758
-7.370697
-7.871661
-8.306945
-8.658891
-8.875944
-8.912433
-8.738460
-8.346020
-7.786907
-7.141631
-6.531432
-6.049770
-5.689819
-5.426387
-5.220398
-5.022648
-4.793823
-4.473656
-4.021186
-3.454304
-2.835865
-2.243558
-1.751302
-1.424780
-1.326610
-1.459620
-1.729406
-2.005548
-2.160451
-2.135026
-1.952107
-1.676198
-1.418653
-1.236911
-1.099898
-0.940285
-0.685329
-0.344917
0.004441
0.290237
0.468918
0.553198
0.591807
0.631357
0.697745
0.814983
1.006377
1.281579
1.611633
1.919558
2.136847
2.212652
2.123901
1.895077
1.560787
1.163641
0.763435
0.405603
0.102859
-0.148800
-0.352434
-0.502158
-0.606682
-0.672598
-0.701083
-0.690488
-0.655882
-0.676833
-0.822555
-1.098697
-1.462414
-1.829662
-2.125815
-2.295549
-2.319561
-2.222098
-2.040591
-1.847785
-1.716422
-1.691467
-1.796933
-2.017282
-2.346157
-2.767316
-3.202364
-3.524412
-3.602334
-3.424359
-3.095953
-2.746830
-2.457033
-2.214789
-2.000089
-1.810108
-1.660382
-1.562919
-1.462631
-1.323265
-1.160827
-1.011102
-0.933414
-0.964723
-1.102441
-1.303485
-1.502411
-1.647662
-1.707222
-1.663669
-1.517004
-1.302540
-1.107850
-1.031810
-1.108319
-1.308422
-1.565260
-1.817155
-2.022437
-2.127432
-2.091412
-1.905198
-1.618225
-1.331723
-1.114669
-0.973654
-0.869835
-0.729762
-0.492226
-0.134629
0.347504
0.909678
1.465496
1.935387
2.272268
2.476374
2.569364
2.602323
2.664709
2.800074
2.996647
3.251839
3.579067
4.003759
4.521204
5.085732
5.637783
6.080601
6.330378
6.386408
6.314136
6.205845
6.131690
6.106030
6.100852
6.096850
6.113801
6.204437
6.401245
6.698812
7.072653
7.479688
7.868360
8.179345
8.375448
8.440188
8.341314
8.058815
7.580686
6.928585
6.195029
5.508792
5.002413
4.771941
4.821615
5.057267
5.287269
5.326584
5.123421
4.726275
4.237552
3.720815
3.161938
2.554094
1.920826
1.326637
0.829674
0.453245
0.198055
0.029498
-0.097156
-0.228046
-0.390012
-0.559510
-0.675805
-0.674157
-0.535967
-0.295371
-0.018050
0.208185
0.322833
0.303059
0.134973
-0.176011
-0.599524
-1.075299
-1.544717
-1.983297
-2.381855
-2.737568
-3.046198
-3.307273
-3.519853
-3.698533
-3.862147
-4.026702
-4.228453
-4.476110
-4.739304
-4.943880
-5.014504
-4.918689
-4.644899
-4.231038
-3.731013
-3.200620
-2.703186
-2.271903
-1.903005
-1.557650
-1.188752
-0.741932
-0.158335
0.576870
1.409066
2.237966
2.959988
3.493206
3.811724
3.975575
4.089517
4.242302
4.487136
4.823781
5.230581
5.686582
6.167067
6.664501
7.160288
7.613465
7.974829
8.186704
8.218250
8.073235
7.795445
7.488934
7.264818
7.185955
7.255168
7.431024
7.666441
7.909155
8.096547
8.156108
8.033222
7.734715
7.334508
6.924885
6.565406
6.276551
6.068444
5.933316
5.836561
5.739099
5.595731
5.352077
4.970468
4.448787
3.797391
3.032290
2.199389
1.392855
0.736751
0.320536
0.152921
0.170342
0.261449
0.295350
0.181880
-0.119923
-0.598052
-1.179058
-1.791139
-2.385093
-2.951974
-3.517678
-4.070669
-4.558450
-4.915811
-5.089312
-5.065770
-4.852482
-4.505949
-4.130695
-3.819004
-3.675870
-3.763680
-4.038410
-4.401420
-4.727942
-4.880255
-4.763959
-4.363280
-3.736838
-3.011049
-2.325753
-1.801716
-1.503443
-1.414691
-1.508386
-1.740741
-2.037599
-2.293967
-2.372595
-2.202153
-1.782641
-1.169147
-0.461015
0.250413
0.862260
1.281301
1.466103
1.442327
1.294251
1.148294
1.130874
1.300845
1.669742
2.203666
2.825401
3.436541
3.912789
4.155032
4.114071
3.833691
3.429482
3.022920
2.698752
2.478875
2.347984
2.268885
2.204382
2.137524
2.080790
2.068784
2.124814
2.257354
2.448512
2.666979
2.881914
3.031875
3.091436
3.112153
3.148408
3.250108
3.430909
3.640194
3.857248
4.060178
4.199309
4.258164
4.173885
3.874908
3.363820
2.704186
2.028542
1.469666
1.133728
1.088528
1.330537
1.788892
2.321404
2.769637
3.009055
2.997756
2.777643
2.395328
1.916728
1.424239
0.985659
0.686682
0.582628
0.650664
0.778496
0.807688
0.625712
0.191841
-0.447783
-1.202762
-1.999409
-2.797468
-3.561392
-4.240096
-4.798031
-5.216835
-5.510163
-5.730747
-5.932262
-6.131424
-6.296685
-6.374607
-6.329642
-6.190510
-6.013006
-5.818316
-5.623862
-5.429408
-5.250491
-5.171155
-5.252844
-5.481196
-5.801361
-6.140360
-6.434394
-6.620607
-6.662510
-6.598006
-6.501249
-6.461934
-6.521729
-6.654738
-6.820470
-6.969488
-7.089079
-7.136397
-7.055177
-6.825411
-6.429911
-5.931770
-5.426802
-4.993401
-4.697953
-4.549405
-4.498790
-4.455708
-4.329289
-4.073626
-3.716735
-3.333242
-2.980117
-2.701384
-2.528588
-2.462906
-2.499866
-2.612629
-2.749405
-2.887123
-3.026489
-3.148433
-3.213408
-3.189159
-3.080396
-2.919842
-2.734098
-2.522694
-2.254554
-1.896250
-1.427536
-0.860419
-0.253045
0.319958
0.778079
1.080824
1.241614
1.302117
1.305884
1.246325
1.116611
0.954175
0.794328
0.627183
0.379526
-0.028449
-0.624521
-1.371967
-2.179443
-2.936069
-3.551681
-3.981785
-4.238623
-4.387877
-4.538307
-4.786199
-5.163806
-5.649233
-6.193043
-6.708132
-7.118697
-7.410141
-7.591176
-7.714768
-7.870613
-8.151699
-8.638539
-9.337959
-10.208762
-11.154898
-12.044770
-12.804927
-13.394879
-13.836519
-14.196233
-14.510513
-14.807372
-15.094343
-15.367190
-15.602841
-15.753741
-15.791643
-15.684763
-15.424628
-15.027716
-14.502267
-13.870880
-13.157334
-12.413654
-11.733301
-11.202673
-10.839896
-10.605892
-10.458050
-10.359175
-10.285724
-10.204976
-10.113163
-10.045127
-10.038299
-10.123519
-10.268535
-10.425321
-10.557153
-10.604942
-10.530550
-10.335860
-10.049829
-9.716479
-9.392782
-9.134530
-8.977271
-8.906175
-8.825897
-8.616847
-8.210754
-7.639870
-7.040029
-6.554365
-6.251855
-6.136736
-6.142621
-6.167809
-6.126140
-5.913559
-5.457793
-4.796979
-4.050710
-3.368003
-2.858562
-2.540514
-2.359008
-2.222466
-2.022362
-1.670179
-1.112242
-0.329248
0.590523
1.454265
2.104249
2.479503
2.624520
2.671839
2.788135
3.140083
3.814079
4.762336
5.829712
6.836823
7.638179
8.162451
8.414112
8.433652
8.324420
8.227664
8.273807
8.562663
9.114008
9.864985
10.706363
11.523021
12.218912
12.717759
12.983544
13.048755
12.993668
12.899974
12.826054
12.803219
12.874315
13.060530
13.306305
13.538897
13.694978
13.756187
13.731234
13.618235
13.443321
13.219912
12.982378
12.762265
12.530852
12.284136
12.053194
11.875220
11.748332
11.646633
11.537871
11.380379
11.199109
11.047737
10.950982
10.901545
10.838454
10.703562
10.480859
10.160694
9.748481
9.267056
8.758794
8.255946
7.756394
7.272615
6.822735
6.438066
6.132733
5.885547
5.710633
5.615526
5.568443
5.500173
5.325025
4.994972
4.522257
3.994220
3.518445
3.163909
2.957450
2.905424
2.990881
3.133308
3.206523
3.098468
2.788661
2.334780
1.810509
1.294478
0.859901
0.559040
0.397780
0.318446
0.226870
0.044659
-0.231484
-0.525753
-0.757637
-0.880053
-0.882406
-0.805189
-0.733386
-0.765638
-0.970449
-1.362887
-1.901518
-2.501592
-3.059292
-3.463501
-3.667135
-3.725753
-3.715158
-3.677727
-3.619578
-3.531767
-3.412175
-3.226902
-2.934515
-2.514532
-1.967896
-1.347574
-0.736198
-0.209572
0.197934
0.511744
0.792126
1.103111
1.491077
1.976035
2.553040
3.179247
3.752250
4.162346
4.353739
4.337261
4.192952
3.982255
3.711057
3.378650
2.971145
2.464766
1.847036
1.151382
0.447960
-0.183190
-0.658494
-0.943347
-1.046458
-1.024564
-0.971124
-0.964531
-1.051870
-1.243498
-1.523878
-1.843101
-2.173624
-2.503206
-2.815838
-3.103515
-3.321039
-3.466761
-3.571756
-3.659330
-3.769033
-3.898276
-4.030579
-4.149934
-4.245748
-4.324847
-4.371458
-4.366278
-4.316840
-4.264577
-4.248568
-4.290472
-4.412887
-4.628999
-4.918089
-5.207650
-5.418817
-5.504979
-5.468724
-5.377146
-5.293338
-5.261556
-5.290511
-5.331708
-5.339476
-5.277326
-5.141726
-4.952451
-4.715857
-4.466315
-4.235371
-4.016434
-3.781488
-3.505109
-3.198361
-2.902914
-2.674088
-2.552378
-2.541548
-2.615703
-2.720463
-2.791793
-2.795324
-2.739765
-2.636181
-2.502464
-2.359801
-2.184887
-1.945703
-1.631893
-1.249341
-0.820884
-0.352170
0.155859
0.666947
1.115180
1.436524
1.621561
1.716199
1.797183
1.927369
2.129121
2.385960
2.628204
2.812065
2.931892
2.969089
2.956377
2.920594
2.873512
2.850442
2.841497
2.849266
2.864333
2.828315
2.690833
2.387383
1.897718
1.265627
0.540311
-0.205722
-0.882307
-1.401398
-1.705555
-1.813375
-1.786066
-1.715676
-1.698960
-1.792655
-2.021714
-2.353179
-2.710069
-3.025762
-3.259529
-3.380767
-3.375352
-3.276712
-3.130754
-3.004570
-2.964078
-2.980556
-2.976083
-2.866378
-2.589528
-2.159422
-1.640094
-1.132537
-0.758931
-0.609441
-0.705490
-0.991520
-1.393374
-1.863499
-2.352457
-2.808457
-3.186064
-3.460794
-3.661367
-3.884541
-4.212004
-4.647288
-5.136010
-5.588950
-5.948194
-6.161480
-6.187611
-6.049656
-5.804823
-5.549396
-5.334931
-5.138594
-4.925542
-4.653636
-4.303336
-3.885472
-3.424291
-2.937686
-2.442370
-1.955764
-1.500234
-1.134161
-0.930526
-0.933821
-1.128980
-1.420660
-1.696802
-1.878542
-1.926331
-1.879718
-1.801559
-1.731405
-1.704331
-1.722693
-1.774954
-1.846756
-1.929386
-2.018608
-2.087820
-2.111125
-2.045914
-1.883947
-1.663597
-1.407699
-1.159335
-0.954993
-0.787612
-0.623291
-0.432838
-0.212488
0.027401
0.247751
0.442206
0.612883
0.732946
0.818167
0.885497
0.965774
1.090781
1.261223
1.481337
1.754185
2.129439
2.669013
3.382795
4.235943
5.110985
5.855842
6.344095
6.503002
6.366696
6.021107
5.545802
5.032596
4.569769
4.225121
4.033493
4.009481
4.139196
4.370140
4.624625
4.820256
4.921486
4.946441
4.945971
4.970219
5.062738
5.276497
5.632917
6.128939
6.716774
7.338744
7.960007
8.529008
9.021028
9.412761
9.680194
9.844986
9.946922
10.033085
10.135256
10.232248
10.270386
10.197879
9.965289
9.565317
9.044107
8.479580
7.969435
7.555574
7.219871
6.945613
6.723381
6.564475
6.494558
6.528458
6.640988
6.805780
6.992936
7.154197
7.282028
7.375724
7.443760
7.517682
7.601255
7.688360
7.768637
7.843736
7.938138
8.020770
8.026656
7.934373
7.742745
7.501445
7.285334
7.110656
6.976469
6.865589
6.730461
6.553900
6.313776
5.943703
5.397774
4.739787
4.087685
3.525748
3.086462
2.741343
2.440718
2.153276
1.891494
1.682680
1.506590
1.290479
0.981849
0.584938
0.154128
-0.212885
-0.479375
-0.678066
-0.848977
-0.980574
-0.973746
-0.775996
-0.425696
-0.042203
0.234412
0.339643
0.249715
-0.034431
-0.482192
-1.018233
-1.548625
-2.003212
-2.355865
-2.621178
-2.825283
-3.016676
-3.204772
-3.357086
-3.495980
-3.670423
-3.928674
-4.255195
-4.573241
-4.829609
-5.005464
-5.130469
-5.242291
-5.347992
-5.423560
-5.438861
-5.404490
-5.339043
-5.227926
-5.097976
-5.057013
-5.178958
-5.428027
-5.689338
-5.888499
-6.067886
-6.290588
-6.595687
-6.958227
-7.289927
-7.536878
-7.641637
-7.586078
-7.417991
-7.158091
-6.816972
-6.442425
-6.110488
-5.842348
-5.640596
-5.549018
-5.609520
-5.827985
-6.146973
-6.481498
-6.731745
-6.841213
-6.821672
-6.712203
-6.566480
