EVENT_NAME: 202302060117
EVENT_ID: 13194
EVENT_DATE_YYYYMMDD: 2023/02/06
EVENT_TIME_HHMMSS: 01:17:32.00000
EVENT_LATITUDE_DEGREE: 37.288
EVENT_LONGITUDE_DEGREE: 37.043
EVENT_DEPTH_KM: 8.6
HYPOCENTER_REFERENCE: AFAD
MAGNITUDE_W: 7.7
MAGNITUDE_W_REFERENCE: AFAD
MAGNITUDE_L: 
MAGNITUDE_L_REFERENCE: 
FOCAL_MECHANISM: 
NETWORK: TK
STATION_CODE: 3115
STATION_NAME: 
STATION_LATITUDE_DEGREE: 36.54634
STATION_LONGITUDE_DEGREE: 36.16459
STATION_ELEVATION_M: 180.0
LOCATION: Kahramanmaras_Pazarck_Turkiye
SENSOR_DEPTH_M: 
VS30_M/S: 424
SITE_CLASSIFICATION_EC8: B
MORPHOLOGIC_CLASSIFICATION: 
EPICENTRAL_DISTANCE_KM: 113.57
EARTHQUAKE_BACKAZIMUTH_DEGREE: 
DATE_TIME_FIRST_SAMPLE_YYYYMMDD_HHMMSS: 2023/02/06 01:17:31.6243800
DATE_TIME_FIRST_SAMPLE_PRECISION: millisecond
SAMPLING_INTERVAL_S: 0.01
NDATA: 12501
DURATION_S: 
STREAM: HNN
UNITS: cm/s^2
INSTRUMENT: sensor = CMG-5T/GURALP | digitizer = 
INSTRUMENT_ANALOG/DIGITAL: 
INSTRUMENTAL_FREQUENCY_HZ: 
INSTRUMENTAL_DAMPING: 
FULL_SCALE_G: 
N_BIT_DIGITAL_CONVERTER: 
PGA_CM/S^2: 286.723
TIME_PGA_S: 
BASELINE_CORRECTION: BASELINE REMOVED
FILTER_TYPE: BUTTERWORTH
FILTER_ORDER: 
LOW_CUT_FREQUENCY_HZ: 
HIGH_CUT_FREQUENCY_HZ: 
LATE/NORMAL_TRIGGERED: 
DATABASE_VERSION: 
HEADER_FORMAT: DYNA 1.2
DATA_TYPE: Acceleration
PROCESSING: Automatic Paolucci et al., 2011
DATA_TIMESTAMP_YYYYMMDD_HHMMSS: 
DATA_LICENSE: U (unknown license)
DATA_CITATION: Turkish Accelerometric Archive v 1.0 - Disaster And Emergency Management Presidency, Earthquake Department
DATA_CREATOR: AFAD
ORIGINAL_DATA_MEDIATOR_CITATION: : AFAD - Disaster And Emergency Management Presidency
ORIGINAL_DATA_MEDIATOR: AFAD PROCESS SERVICE
ORIGINAL_DATA_CREATOR_CITATION: AFAD PROCESS SERVICE
ORIGINAL_DATA_CREATOR: network: TK
USER1: GuestUser
USER2: 
USER3: 
USER4: 
USER5: 
[...]
62.676975
34.945869
28.412249
52.070140
49.595052
19.053893
15.533761
-5.227192
14.131879
63.785827
89.351941
108.252607
133.791157
146.869181
134.397568
98.357048
105.136647
102.461418
56.412389
45.403777
56.843228
25.710937
30.580215
-8.822541
-30.381958
5.708596
23.087537
-13.974657
-34.187023
1.681819
24.471137
41.524102
17.231632
0.652651
17.916541
59.121456
55.665142
62.728173
56.498059
46.743619
44.690982
29.542344
-8.196971
-13.028800
-12.509575
-13.939920
-7.205262
-5.415686
-4.824854
-12.754662
-12.529655
-4.334394
-24.101836
-63.050682
-52.573582
3.985503
-7.923140
-25.984897
16.286334
28.907750
1.274617
18.733255
35.315231
-15.871530
-16.911481
3.314065
-24.065297
-43.839032
2.385567
5.049109
-28.741631
12.916595
38.433873
-39.828743
-50.609950
13.416642
2.054789
-56.381661
-22.685300
5.844267
-40.341385
-43.165220
-27.905728
-48.558522
-53.418514
-35.675246
-24.091683
-33.827247
-1.585198
78.843904
79.063218
15.773368
57.641023
97.847334
24.026153
-29.184181
-24.555790
-51.669997
-68.787379
-34.596061
-30.509666
-33.356871
-1.841679
-2.777665
-53.692978
-76.032582
-47.630049
-23.748349
-45.115715
-47.908690
-5.346837
-0.835893
17.417613
67.029316
73.718133
50.499770
59.367958
35.546777
-33.448868
-28.921146
-45.437509
-38.582707
-24.362866
-46.829205
-94.457185
-81.776745
-49.800751
-57.246987
-82.502107
-86.808118
-54.740443
-19.425283
-30.988176
-45.757206
-33.342821
1.333568
39.955835
16.722191
-18.925838
16.872295
46.287213
32.038607
41.736119
44.597104
82.977286
98.984607
95.390172
111.746840
145.623267
170.205159
143.208100
100.043427
78.971178
100.645044
82.081139
56.459894
60.798562
68.851808
44.317552
48.558846
23.644384
-11.896685
-7.630823
-15.616958
-66.359694
-75.742616
-17.065580
-46.989540
-55.370263
-18.935456
-8.674975
-59.000354
-87.451725
-78.670124
-74.980415
-63.427711
-75.819627
-71.921987
-27.792269
-15.878833
-26.630678
-36.235612
-3.080349
46.204479
72.628979
53.825085
56.275604
82.782796
53.678872
32.544004
-11.566242
-7.272815
6.483827
-30.616118
-55.660911
-36.692832
-22.715376
-50.462961
-58.714251
-67.172274
-71.599928
-67.962051
-46.606970
-44.158549
-51.385470
-38.716415
-5.073385
5.572096
-27.064842
-22.207548
7.567803
3.740270
-0.178944
7.997442
-2.594410
9.138060
32.606597
-2.554565
-13.523329
29.540374
71.973994
43.157697
-0.319771
52.985238
74.255229
59.761841
50.606024
42.623784
37.456090
47.493061
37.911797
47.200040
50.856792
21.396032
36.479053
4.006901
-46.239980
-9.947788
28.605569
-15.161023
-16.654885
26.189502
40.690379
20.584675
41.962825
46.495641
67.120868
65.196765
52.252665
57.630683
61.432148
70.238616
52.064805
35.155053
30.557819
31.847344
4.352032
-34.121630
-10.354381
-11.364970
-9.912456
4.136307
5.332654
10.803252
48.845172
36.579392
8.923489
4.949746
-18.761178
-3.380943
-6.659289
3.885823
19.321486
29.719489
48.818797
71.609314
74.860693
46.085142
55.470160
55.484840
10.870049
-3.410916
-36.606928
-59.890008
-75.211821
-62.124210
-61.832389
-61.219086
-4.511094
45.255807
35.809667
50.671276
75.832616
60.231565
39.144934
64.511208
84.849408
82.600226
59.385159
73.299996
81.199542
80.463396
74.813329
78.938673
61.686765
48.854720
49.879689
28.316077
-6.927777
-48.769667
-61.210420
-52.839287
-28.230730
35.940575
57.483811
35.494153
48.636293
13.912564
-29.838149
-28.876398
-11.584644
-14.675733
22.654312
52.094098
25.264222
1.952380
5.699016
21.094232
34.888326
31.347821
51.434348
54.977548
79.752089
124.289279
148.290225
157.518545
191.026751
231.375977
225.128784
184.772366
157.642580
148.046335
84.521888
45.636860
-23.866625
-116.938419
-127.217178
-61.302437
-86.839490
-136.485051
-118.859530
-105.477701
-130.090155
-157.128860
-153.378628
-147.283940
-149.358748
-143.515434
-134.215206
-150.272565
-123.381870
-48.103982
-18.209386
-56.388231
-38.867873
-14.288978
-23.662012
-40.374021
-38.954764
-53.087421
-68.284596
-60.790125
-54.482114
-56.543139
-48.538131
-32.321980
-21.364005
-18.086860
-35.985928
-65.613272
-81.876464
-75.700281
-53.535053
-65.246852
-97.210264
-100.629427
-74.114145
-72.218207
-99.417803
-86.591452
-52.847753
-31.074715
-26.823534
-17.256353
14.714847
54.016033
102.076650
132.081503
160.707545
178.317187
185.243296
179.511135
153.544439
84.695304
34.781291
30.160388
-25.264970
-39.057569
16.725224
81.436728
94.187576
90.950577
97.193572
79.958443
46.979349
0.024295
-38.002647
-60.009083
-71.519544
-69.316205
-64.513140
-34.014828
25.328244
39.671525
32.878442
28.570333
32.565346
34.202121
56.881182
50.805368
12.584577
15.077940
1.136435
-9.993219
-2.153896
0.783490
-35.651917
-42.292499
-41.620173
-79.667488
-129.644419
-149.134422
-138.618972
-148.373711
-185.896707
-183.587006
-144.856280
-114.276773
-90.310582
-63.469623
-42.572049
-28.226670
-5.558694
-44.555177
-59.360761
-34.256347
25.408806
19.112478
11.408876
35.472740
65.092593
47.032634
34.562819
-13.638018
-20.107521
35.752272
3.962933
-59.778132
-79.008372
-79.500334
-112.159444
-136.521123
-194.750542
-235.484770
-216.432201
-177.581630
-179.598314
-147.477308
-68.845273
19.700593
66.602314
97.119502
145.628935
170.149407
176.485582
173.910723
155.266822
178.532222
203.055390
227.170488
225.439633
207.719134
184.187377
150.648609
104.528872
100.449965
100.588384
84.201753
101.797313
82.333077
54.645115
51.060267
47.183898
35.780998
25.259254
36.755331
72.498635
102.123281
126.152391
145.573481
166.210393
155.507685
147.304931
116.260725
78.347635
53.067648
23.319260
-17.521629
-56.708965
-81.307936
-129.796399
-182.475223
-191.781445
-170.672345
-154.333654
-131.331612
-116.165898
-127.501385
-164.391902
-199.090764
-221.212851
-240.840974
-237.927557
-224.208066
-236.228464
-240.417927
-197.433322
-127.492107
-77.791719
7.024588
92.826916
43.502538
-24.111300
-32.760474
-15.418985
16.310729
61.301830
76.569112
62.789996
75.238537
116.807480
91.152079
56.348354
122.146846
175.447361
189.054198
135.950826
85.078657
61.625997
56.291421
29.719210
-3.787798
-12.616140
27.952401
75.103398
57.297209
43.158560
94.718335
150.028641
197.969413
207.568353
213.823333
236.268997
244.478640
219.652863
177.237817
151.217490
120.806962
49.837479
-43.731669
-110.901783
-153.525958
-196.197771
-235.094484
-276.153190
-285.445929
-268.297090
-233.890351
-242.423575
-212.986785
-128.207630
-46.345188
11.651132
65.958340
165.009770
225.141418
222.112948
180.126346
203.845957
189.484997
167.442607
155.713430
114.762284
84.837725
64.159464
35.620307
12.104130
0.047778
-15.865467
-20.950468
-10.609691
-13.243873
-10.601903
5.941123
44.773118
49.629513
68.553249
77.493045
66.074864
93.121058
95.233614
62.167334
43.827837
-18.460114
-133.165028
-223.356061
-227.608742
-219.212142
-226.055860
-171.588359
-105.432431
-60.641770
-14.386910
58.580078
72.800219
66.878105
66.448762
28.080563
4.876880
-17.823156
-47.765692
-48.948557
-55.489968
-122.098910
-113.145633
-39.493134
-44.617983
-97.941271
-84.292488
-45.611796
-43.433325
-58.566982
-88.553860
-124.289976
-144.866668
-151.196254
-177.948530
-216.033297
-216.992054
-204.564186
-191.868765
-179.622462
-170.617651
-143.391392
-118.868224
-101.347267
-91.961950
-54.541124
-12.906566
26.307733
48.398957
74.557702
79.803592
75.526043
62.762010
73.872188
99.324750
107.850183
93.929351
18.340464
-15.726817
0.124107
0.215488
-2.995146
9.977415
26.484488
29.299333
37.191089
30.041767
14.822122
-6.588688
-29.864577
-68.456885
-82.439137
-110.877925
-120.497240
-67.698573
-39.852119
-68.632763
-71.301999
-35.661461
-29.941287
-9.479647
25.762108
11.049704
-4.233759
0.666978
-16.481264
-47.064668
-61.540679
-58.656324
-76.826839
-66.113347
-67.579345
-67.942774
-21.384707
0.130066
-52.573027
-31.728784
-1.064786
-12.430834
-8.201824
27.788359
22.857059
4.083127
16.535263
-8.152393
-17.358545
18.622051
17.614458
-30.642106
-33.972584
13.151149
42.028265
19.999058
-8.538900
-1.018064
30.065389
8.169209
-24.494394
-30.335014
4.838730
-1.854883
6.342775
1.900141
28.729715
33.664609
43.905615
50.479681
50.326279
32.338226
-9.903645
-40.833399
-44.168671
-42.390480
-59.118667
-79.452076
-95.584936
-72.331820
-37.922384
-3.222625
27.974380
91.179439
150.565055
168.074327
144.328648
143.294689
150.864363
119.133748
86.551339
110.367425
100.664818
91.377172
88.441282
122.509760
88.334020
55.891529
83.607952
97.807720
62.793068
5.023252
-48.025591
-44.540516
-66.582906
-89.746141
-84.475983
-56.061765
-79.384993
-52.417897
-50.203472
-79.282229
-33.735050
21.687011
10.136403
-15.616970
1.874325
-52.760360
-52.943723
-84.013096
-124.782678
-130.679325
-60.086755
-89.695524
-153.136079
-101.048091
-71.773390
-107.354607
-121.652948
-112.288904
-102.948529
-35.420381
31.696700
-37.994941
-74.999610
-19.527514
4.770047
-42.209275
-129.989937
-148.022332
-96.657005
-79.306826
-179.113878
-194.317944
-125.730072
-124.750944
-150.734119
-132.682850
-119.565877
-125.239314
-119.919120
-125.568888
-127.794400
-67.302919
2.609234
39.731049
62.343597
47.053842
109.617434
203.458627
224.133889
143.141516
143.352142
135.833101
202.360547
195.970141
175.074662
168.204279
179.191317
142.741528
122.682264
173.177220
149.655051
179.694659
201.802961
221.588079
243.718253
179.727312
177.701042
180.915568
125.843750
100.062214
54.072208
28.195095
70.462132
45.403557
-52.451828
-64.522561
15.407988
2.883344
-23.096834
1.628271
76.726093
81.922248
71.406197
98.772075
86.536855
69.743352
15.146718
-48.499670
-100.460626
-127.662619
-178.271429
-170.461767
-172.123412
-151.670161
-149.252001
-152.471023
-153.903765
-128.713363
-129.760804
-101.682750
-73.581926
-44.409693
-0.342892
50.619158
8.270026
-14.095045
-46.049769
-93.546219
-137.615418
-157.530270
-142.120673
-134.817054
-118.343537
-85.229021
-33.892457
14.951043
56.852255
106.208090
107.731911
94.172710
87.957277
89.602440
89.145832
41.486393
5.053382
14.163057
66.969213
88.980442
98.137754
102.295157
94.205057
112.552941
152.323318
145.139841
158.145359
167.412329
159.514580
114.467450
39.237497
-1.538077
30.234481
37.966844
2.801188
-57.527906
-65.711784
1.945795
33.918793
5.647788
-1.399366
-18.499371
-13.176181
0.099286
-36.713632
-74.258499
-68.420278
-42.429915
-27.499396
-29.816289
-65.079619
-40.722135
-44.346532
-53.276742
-49.892036
-67.270080
-69.939916
-50.968242
-75.754171
-78.804512
-63.183689
-49.522323
-86.002672
-73.187707
-34.534580
-22.676872
-17.155639
-4.438347
-46.205934
-80.763979
-23.731208
-53.013401
-115.952707
-134.103448
-54.588459
-11.282372
-11.836054
-33.220498
10.477182
43.559040
51.101449
57.974227
90.797821
107.503237
101.944251
131.058660
168.983433
200.620267
192.401334
179.842535
202.789748
190.563517
168.486372
128.548510
100.335031
110.962835
62.228091
25.608423
-4.930938
-17.442998
-64.440896
-49.044182
-19.887528
-1.640614
6.795535
-1.342503
-22.862371
-47.735786
-47.444266
-18.361616
6.509101
-5.767765
-7.684677
16.913094
33.579859
-20.410063
-27.909629
-51.411425
-100.251032
-125.609518
-83.283458
-46.313246
27.041139
59.790729
63.212586
94.610930
132.716069
117.238158
31.066708
-16.361731
-75.470509
-130.273875
-187.280881
-206.317572
-176.331595
-148.855160
-176.630010
-182.594069
-159.480572
-161.087387
-192.084853
-209.158792
-186.071960
-156.954256
-97.717246
-27.984560
12.045580
11.813680
14.948809
40.784274
74.447678
104.463916
155.470608
136.876742
142.619387
113.460934
93.679110
77.814401
27.650513
-39.341632
-53.852998
-41.267534
-85.610578
-68.246917
-41.614187
-30.486033
-26.239346
-0.410473
18.776621
1.404270
4.089084
37.476246
20.007120
3.602513
20.767831
69.363253
122.151733
133.438681
140.142778
104.875255
92.727821
74.713403
47.687282
36.421304
58.114046
87.250626
55.820521
76.932916
70.908035
61.132923
53.731329
20.497266
-52.447253
-93.013100
-116.174238
-155.928737
-204.095118
-240.621009
-260.339016
-173.916193
-150.063555
-159.803613
-94.287355
8.650032
82.861005
82.621016
144.832264
163.549568
159.883526
176.414867
183.983642
220.206624
223.621890
205.579607
167.292603
84.886665
37.863900
-35.449441
-76.002104
-83.062141
-57.673097
-69.606009
-120.461700
-145.396835
-101.159556
-55.047011
-46.249531
-73.955170
-130.617923
-104.600295
2.466931
82.573951
79.403166
94.285148
108.899877
75.014160
72.471060
113.006344
135.323775
114.558328
100.657270
101.032383
57.735281
2.751849
25.034825
0.498771
-62.444729
-80.170622
-64.914725
-24.990348
17.330020
27.775061
12.076337
-15.239808
-77.071751
-78.276488
-63.641086
-31.488321
-5.922207
29.257229
63.857218
63.804785
81.889310
83.161757
69.857226
80.691162
85.772865
45.557264
25.605560
10.331086
8.235005
-0.936691
-24.395642
-50.574463
-71.735996
-56.727578
-40.947062
-47.803364
-22.458063
-8.675653
-35.851280
-46.782293
-72.846363
-106.679348
-137.349040
-148.471204
-164.158244
-154.312724
-139.752824
-163.479927
-198.597645
-205.250211
-216.290881
-254.443960
-282.350937
-286.722564
-255.356278
-234.569860
-247.596652
-254.940421
-220.825503
-179.427339
-155.222957
-123.794952
-83.652757
-57.510491
-34.803865
10.879038
39.630617
63.779271
43.668774
29.455521
45.785224
66.740024
60.261532
38.143341
68.514917
148.670475
215.274921
163.610580
113.250147
91.069337
122.521311
150.536746
131.941082
62.461266
-39.072744
-59.871747
-21.564072
18.021745
-23.982534
-37.262798
-2.683183
6.756963
18.104433
1.344786
12.425902
60.805304
152.045873
164.008744
136.626086
97.726976
51.741164
30.762694
13.391241
9.286268
-8.318582
11.296057
44.312002
38.350039
49.820949
90.215716
125.885915
126.419521
132.285007
158.468320
142.509534
103.143929
54.101186
26.531570
-10.742449
-49.445314
-44.881938
-15.002323
26.408725
45.140410
42.066099
35.391662
25.366074
39.289001
51.958655
73.125879
92.601798
82.386257
70.897369
53.292818
18.974463
12.336278
28.974581
33.192804
31.200689
-1.789790
13.875675
51.339646
72.827753
105.436227
156.072899
211.854194
229.137260
232.966588
236.954111
242.644624
237.029012
242.478338
168.479787
171.395302
151.601493
125.599743
94.763467
114.868270
160.467282
113.399874
97.587298
66.093376
48.141577
25.102380
30.374336
-0.758254
-52.229646
-75.671819
-103.374761
-122.537589
-116.254445
-102.102016
-70.914598
-39.705009
-17.024150
-17.977813
-49.341105
-73.082889
-69.489654
-67.170964
-62.700168
-82.757934
-109.356211
-134.468416
-164.680602
-180.423069
-183.791897
-185.280066
-183.774821
-182.705510
-188.873305
-203.036822
-213.267643
-214.363622
-209.947055
-164.387293
-108.690788
-83.697231
-89.628033
-49.819606
25.500827
45.989732
-6.534792
-28.469322
17.031417
57.803693
84.298302
90.087387
117.232452
147.096188
179.003871
105.144639
54.476805
40.142210
28.114321
-11.496365
-36.167543
-44.366402
-31.455860
44.652550
95.962149
97.493460
93.750418
123.002348
165.258898
152.981733
74.095626
50.822134
48.996603
54.322489
73.392435
117.351076
132.873327
100.449712
49.297706
-39.554964
-120.378057
-158.341481
-169.699140
-134.551163
-99.133536
-97.035061
-111.935921
-94.512937
-106.540825
-133.007872
-141.140517
-146.219226
-134.062206
-116.884604
-111.210270
-83.752711
-62.199588
-65.560327
-85.601015
-95.878276
-109.202882
-111.030510
-76.086269
-51.989448
-74.258643
-84.342655
-108.404723
-125.675507
-132.597723
-118.720037
-121.129810
-117.989887
-66.057995
-10.220973
5.774364
25.609817
62.626468
101.043802
111.656326
87.514860
69.528905
77.577657
132.803173
116.409351
84.528632
32.817252
-11.017052
-58.574324
-144.822475
-201.566422
-187.158724
-172.303108
-178.596140
-166.357327
-102.640233
-52.049700
-23.318195
-3.593898
40.192766
65.500316
95.158818
124.912896
108.571806
114.033416
137.272750
141.785492
107.811689
66.186417
41.014889
78.314074
50.115574
-0.611583
-36.060671
-42.762673
-27.802492
-36.718919
-47.316165
-37.793926
-14.261871
6.922430
29.671901
0.943090
-13.346563
17.225453
67.425892
101.803868
129.476249
134.922279
134.367398
159.415185
184.625361
185.506517
174.450866
162.132954
132.948734
47.934981
-60.938902
-81.837676
-77.295573
-85.963923
-67.918347
-24.111309
28.651104
28.402726
14.316808
26.879201
41.457078
26.985861
25.276878
32.850147
16.370636
-14.390437
-36.157184
-66.124288
-49.878776
6.244675
62.490068
112.297716
137.096227
177.467324
180.013418
180.746266
141.633534
92.961109
72.008105
50.892413
11.426139
-13.252829
5.814421
-17.302674
-57.270197
-45.685735
-12.592491
9.134107
43.936932
75.416171
87.163322
45.921853
-23.674212
-39.607832
-38.384820
-72.808339
-125.760408
-110.974002
-94.741972
-108.733812
-77.694102
-34.447937
1.866426
41.607142
92.148238
118.677003
100.556223
104.506594
134.107272
173.619983
200.020215
214.413232
234.685218
201.446061
160.861339
114.523784
88.105574
59.036704
31.400875
62.926553
78.146197
47.844129
-17.235899
-81.051267
-161.058519
-182.157433
-134.790117
-166.999510
-206.001686
-208.896530
-149.679594
-129.850134
-113.319991
-84.126485
-58.528912
-16.461416
40.879354
70.553436
54.367245
56.139144
11.331404
-25.959993
-51.380199
-85.860644
-112.748644
-124.707922
-156.674331
-175.839256
-138.761783
-98.544686
-76.381555
-52.238593
-26.617650
-24.261210
-40.421335
-38.718946
-49.382106
-46.439327
-47.932589
-51.094087
-71.039498
-55.345270
-22.523175
26.779629
64.493476
90.448785
119.221637
110.921809
86.721920
81.655495
95.919379
50.157078
27.322516
-9.846939
-51.653775
-87.894435
-96.141531
-79.774677
-63.146861
-52.128364
-59.354685
-48.678044
-47.575776
-30.498243
-21.725931
-4.695437
-1.551020
15.701785
24.309012
-1.567801
-15.416426
-14.887913
4.812415
3.957024
16.247670
2.520986
-6.496410
-7.298770
-32.347757
-48.020415
-46.602656
-55.814201
-63.286503
-48.771544
-24.045240
6.207391
12.395858
12.668803
11.150373
7.152361
16.280312
21.217602
-8.906198
-42.390436
-55.510707
-25.517539
19.988593
69.708755
84.962854
96.616826
131.366920
159.484522
155.271090
142.729368
154.962788
160.918157
153.231034
149.595852
123.428416
12.811396
-74.975557
-81.755458
-86.183412
-130.084529
-101.993592
-68.251690
-48.001276
-20.861005
6.861710
21.297571
22.505003
36.310483
17.706130
0.116560
-15.031478
-2.491257
35.634855
70.413711
91.316678
116.429181
95.545087
59.359256
23.517078
-12.150726
-2.967347
-13.205060
-38.769079
-49.151204
-40.353124
-64.962283
-54.224222
-50.206138
-42.209519
-22.100222
12.937498
17.691726
38.123405
58.948773
48.548372
38.521286
17.433457
12.763717
25.446254
45.823404
45.131301
51.379690
28.190988
15.849107
6.335854
7.527406
15.786785
28.390824
