EVENT_NAME: 202302060117
EVENT_ID: 13194
EVENT_DATE_YYYYMMDD: 2023/02/06
EVENT_TIME_HHMMSS: 01:17:32.00000
EVENT_LATITUDE_DEGREE: 37.288
EVENT_LONGITUDE_DEGREE: 37.043
EVENT_DEPTH_KM: 8.6
HYPOCENTER_REFERENCE: AFAD
MAGNITUDE_W: 7.7
MAGNITUDE_W_REFERENCE: AFAD
MAGNITUDE_L: 
MAGNITUDE_L_REFERENCE: 
FOCAL_MECHANISM: 
NETWORK: TK
STATION_CODE: 4620
STATION_NAME: 
STATION_LATITUDE_DEGREE: 37.58568
STATION_LONGITUDE_DEGREE: 36.89845
STATION_ELEVATION_M: 698.0
LOCATION: Kahramanmaras_Pazarck_Turkiye
SENSOR_DEPTH_M: 
VS30_M/S: 484
SITE_CLASSIFICATION_EC8: B
MORPHOLOGIC_CLASSIFICATION: 
EPICENTRAL_DISTANCE_KM: 35.48
EARTHQUAKE_BACKAZIMUTH_DEGREE: 
DATE_TIME_FIRST_SAMPLE_YYYYMMDD_HHMMSS: 2023/02/06 01:17:08.2897500
DATE_TIME_FIRST_SAMPLE_PRECISION: millisecond
SAMPLING_INTERVAL_S: 0.01
NDATA: 10501
DURATION_S: 
STREAM: HNE
UNITS: cm/s^2
INSTRUMENT: sensor = GMS+/GEOSIG | digitizer = 
INSTRUMENT_ANALOG/DIGITAL: 
INSTRUMENTAL_FREQUENCY_HZ: 
INSTRUMENTAL_DAMPING: 
FULL_SCALE_G: 
N_BIT_DIGITAL_CONVERTER: 
PGA_CM/S^2: 320.930
TIME_PGA_S: 
BASELINE_CORRECTION: BASELINE REMOVED
FILTER_TYPE: BUTTERWORTH
FILTER_ORDER: 
LOW_CUT_FREQUENCY_HZ: 
HIGH_CUT_FREQUENCY_HZ: 
LATE/NORMAL_TRIGGERED: 
DATABASE_VERSION: 
HEADER_FORMAT: DYNA 1.2
DATA_TYPE: Acceleration
PROCESSING: Automatic Paolucci et al., 2011
DATA_TIMESTAMP_YYYYMMDD_HHMMSS: 
DATA_LICENSE: U (unknown license)
DATA_CITATION: Turkish Accelerometric Archive v 1.0 - Disaster And Emergency Management Presidency, Earthquake Department
DATA_CREATOR: AFAD
ORIGINAL_DATA_MEDIATOR_CITATION: : AFAD - Disaster And Emergency Management Presidency
ORIGINAL_DATA_MEDIATOR: AFAD PROCESS SERVICE
ORIGINAL_DATA_CREATOR_CITATION: AFAD PROCESS SERVICE
ORIGINAL_DATA_CREATOR: network: TK
USER1: GuestUser
USER2: 
USER3: 
USER4: 
USER5: 
[...]
-12.924287
-8.351861
-5.013592
-11.304920
-15.587722
-17.182446
-28.031922
-36.398796
-27.146390
-8.037871
16.497980
45.031919
55.478218
37.339654
9.199506
-16.887956
-38.011773
-52.328891
-55.671333
-46.964181
-35.833394
-27.480045
-21.533706
-16.610853
-15.520356
-7.951247
15.115616
33.904102
44.115570
55.139073
56.768849
40.768175
23.292539
17.143564
15.382329
19.109470
30.383389
37.632464
30.847058
18.798493
11.502643
-1.457707
-20.186204
-37.622095
-58.863327
-78.822345
-87.773436
-75.313677
-43.939175
-11.867976
15.830289
26.034224
11.267448
-7.487025
-14.637925
-13.555481
-3.919918
24.108513
53.055483
61.130620
55.598334
39.930682
14.202479
-6.060726
-10.849557
-10.017788
-8.608556
-4.782703
-6.872804
-21.034840
-37.483874
-49.672713
-68.165080
-89.518272
-95.192132
-86.701626
-72.176192
-48.616548
-21.492370
4.828347
28.677111
41.474829
37.306844
19.285436
8.265033
11.942299
16.256516
17.849404
17.659765
7.642845
-8.572397
-17.580897
-13.862328
3.139733
23.987399
35.606290
31.049952
25.076321
29.524838
27.461752
11.058958
-9.576236
-28.102113
-46.377575
-59.064129
-60.601704
-58.511101
-55.269206
-42.690992
-22.995396
-0.227786
14.101524
8.437535
3.505053
1.704074
-1.867744
3.353323
19.546727
44.611465
70.343288
97.531629
112.788310
102.392649
77.506873
57.468107
53.517288
52.887602
53.495191
54.661280
46.511832
37.212391
32.713462
30.092655
27.217015
25.125096
22.687944
19.243413
23.159406
32.658071
38.816900
38.620247
39.296154
50.367714
58.225166
52.944595
44.137934
39.043357
46.865739
59.040274
53.288744
24.829860
-14.485244
-45.451148
-72.157377
-89.381558
-79.219186
-61.976579
-50.830206
-37.092907
-16.876737
3.788052
24.108649
38.878005
27.917609
6.227758
2.591258
11.123327
19.327049
35.486683
52.698377
56.267320
63.194023
66.115624
45.470300
21.950125
3.519322
-20.594424
-43.043057
-40.796333
-13.714236
6.222423
8.301338
3.624987
-6.232435
-20.207179
-24.113838
-9.384745
9.639090
15.523604
13.068789
7.645865
-6.160289
-22.302537
-32.062546
-36.789032
-39.536865
-33.168923
-20.834891
-18.918852
-26.995824
-29.374528
-25.564780
-30.632082
-42.619601
-48.038628
-44.181863
-40.381207
-35.818652
-25.400408
-7.239262
21.448460
36.759952
19.300941
-16.384166
-45.096324
-55.541081
-38.010132
17.864121
64.317631
69.132161
57.191920
36.734668
19.542698
15.178329
25.632420
35.660493
31.198970
27.336732
17.849219
1.287966
-5.361062
3.473376
11.420967
8.258024
6.666937
5.375622
-0.865311
-0.587628
10.682915
15.169617
19.790880
33.362706
31.137266
16.842228
11.872340
19.203242
45.441612
91.644965
126.013551
125.820535
92.122652
35.709883
-10.865736
-39.732195
-54.191406
-63.988562
-85.910385
-104.169741
-118.947168
-124.384119
-96.688451
-43.507991
7.114534
44.439020
78.170655
92.419956
77.195729
58.029523
60.878129
83.949669
106.290221
114.391075
89.047328
41.733710
24.251839
44.783628
64.823156
65.075381
38.649701
-16.271481
-68.083760
-89.994154
-88.541800
-84.678281
-81.251951
-66.830423
-46.445144
-22.578455
10.450248
51.757755
85.262353
96.543546
92.305424
80.309592
67.970607
67.657578
71.608120
66.440548
53.026384
25.751522
-13.794776
-56.946393
-91.043799
-95.863542
-85.920673
-85.526874
-88.166644
-85.149189
-70.236181
-39.856850
-5.261746
19.049406
36.015360
56.540654
75.645017
86.097290
90.343448
85.000273
65.140747
35.977632
6.225364
-9.685689
-0.980096
14.030845
-0.367320
-41.286492
-80.079463
-109.217640
-122.165261
-103.533415
-52.554229
3.765527
50.073047
92.063744
123.517474
137.257110
139.904916
133.642682
107.279606
67.127789
27.017015
-5.528277
-18.714106
-6.462940
21.824739
40.405671
45.115514
37.298829
-6.140871
-75.712964
-126.922322
-143.400189
-140.735758
-110.332529
-53.991473
-9.000457
35.356726
83.292991
109.300427
117.218404
97.664885
42.799813
-35.628548
-104.660064
-139.829532
-155.405226
-153.755708
-131.945602
-95.475493
-59.511672
-35.560818
-22.018865
-20.575603
-21.387647
-18.926874
-19.058844
-20.905803
-23.913145
-21.263521
-1.939394
31.577154
72.763349
103.295683
106.628237
85.600535
39.780841
-12.103914
-45.633467
-52.548758
-29.425265
-3.679415
4.545868
-4.570436
-34.792105
-65.322637
-89.578996
-112.495471
-116.038974
-97.169700
-69.973306
-51.495243
-52.257930
-62.550723
-60.931079
-49.150353
-51.055240
-71.746802
-101.043697
-123.433623
-130.860656
-125.933906
-109.392413
-99.524358
-104.949100
-110.114334
-98.731053
-62.802300
-9.034245
46.170846
72.767695
65.061152
40.093030
5.001232
-31.247572
-50.857721
-49.990105
-56.544838
-75.819626
-90.690569
-101.270925
-104.648696
-93.533495
-79.086511
-73.049773
-67.197210
-56.125910
-40.866112
-14.975311
30.053112
78.684775
106.482013
114.213477
96.352605
57.690297
34.998002
37.729712
49.819822
67.574432
84.888475
85.444629
67.658051
45.262930
25.266246
4.468439
-14.584768
-36.584522
-75.107335
-108.271654
-118.441577
-119.229722
-111.968438
-94.436709
-75.614454
-71.317381
-70.065049
-51.020172
-25.732033
-3.397456
7.888413
-3.380328
-29.200489
-46.759771
-54.780374
-68.812526
-71.521654
-53.084635
-36.321560
-23.854786
-17.086282
-25.607458
-34.326057
-32.676020
-23.826774
-25.979220
-51.291795
-71.800741
-79.429094
-78.048436
-48.327358
-3.545974
33.031419
69.099927
109.764508
135.684143
119.032751
63.127048
-1.892612
-47.230176
-59.489153
-45.792898
-12.268817
26.787022
62.624596
96.172316
109.934812
106.417545
92.668021
75.360974
72.757311
89.208405
117.481537
134.479962
127.321269
105.220465
94.352286
95.798925
100.078333
107.835255
92.130197
46.374666
-13.027772
-67.550730
-110.854052
-138.415697
-141.104823
-130.613585
-112.801567
-93.142339
-81.715676
-79.497786
-71.763984
-47.110978
-14.574275
17.886056
30.581166
16.404582
3.050944
2.967550
15.237679
29.725447
36.530578
45.253836
59.195832
83.429053
116.266048
127.173175
100.289524
53.721439
14.135916
8.510893
33.620311
81.570864
116.519772
84.322048
30.101720
-30.494352
-95.823396
-129.590896
-158.313444
-152.552320
-112.444161
-74.097229
-23.632123
4.444364
9.224605
12.422080
9.901023
11.660682
17.950694
36.193927
68.895063
99.702231
128.493601
157.701118
175.565349
181.982128
190.126883
196.295063
190.956304
192.216430
195.426113
179.672219
153.596187
118.437629
76.878909
39.435692
13.945176
-2.791939
-18.950552
-30.530235
-41.392959
-55.161447
-73.960601
-97.843672
-113.055171
-115.453097
-115.433883
-104.260234
-70.260518
-26.966306
18.309416
58.972958
70.880451
42.501317
-1.336607
-41.991075
-68.143220
-44.899974
13.617158
71.040667
123.913822
162.519483
190.230217
207.883517
200.390763
175.854635
133.880286
72.339438
22.707390
-10.943475
-35.379592
-42.418792
-41.396614
-32.431772
-9.727025
30.494652
67.254143
74.954175
80.372405
82.669265
49.932004
3.899300
-31.874648
-52.579459
-42.424100
4.493874
52.021265
60.521642
45.269360
6.889420
-45.099242
-59.919531
-32.111643
4.968401
31.856191
51.826880
63.519805
68.034043
53.857200
14.507547
-23.332076
-47.196704
-47.785607
-25.938614
1.283238
21.374719
18.286590
4.013632
5.304670
20.037399
42.836962
58.624608
48.823816
34.198873
27.735059
7.337294
-32.416819
-81.306450
-133.613847
-162.431470
-145.481622
-95.865178
-21.911337
76.603821
171.992153
218.978966
215.518589
177.506480
95.153286
-4.088460
-75.323328
-107.823161
-112.966055
-94.962588
-47.124256
1.485068
30.475160
45.599879
43.723306
28.419850
11.201904
7.572158
20.692507
45.085226
61.343313
57.030377
30.431951
-24.930576
-84.513034
-114.981223
-105.138625
-69.238966
-32.794055
0.242702
45.361784
89.098381
107.438247
92.773300
52.676034
5.940659
-50.960734
-104.045876
-123.867996
-100.757492
-46.761620
26.540983
103.119259
141.783368
121.855003
70.406139
30.044169
-5.922267
-26.140273
-16.772011
-7.020852
9.368937
13.114782
-14.732608
-50.134569
-65.196701
-59.557408
-54.042024
-19.884629
44.897586
102.030415
127.866405
113.303287
74.603053
5.136945
-71.291463
-111.713438
-135.530009
-129.050627
-70.529338
-3.779121
44.087526
79.636498
92.011833
64.978815
18.254610
-18.533212
-38.754855
-44.070235
-33.103621
-17.302726
-20.183561
-23.437683
-1.356639
23.405990
44.662530
75.920656
95.890826
87.619806
67.476873
51.997034
33.163332
11.090063
15.352067
34.750747
34.603450
15.230210
-9.619199
-27.736981
-31.971466
-10.487369
20.947658
35.584013
53.444608
79.518285
83.549875
61.792744
28.694925
-10.759156
-38.245208
-29.252571
-0.673432
18.182333
28.161829
26.013020
-1.335096
-33.242658
-32.872498
-9.232067
8.648270
13.001193
-5.372981
-40.844559
-63.201234
-68.080204
-73.505206
-80.439719
-89.403540
-104.307473
-110.788172
-106.204316
-98.551302
-78.189662
-61.133049
-68.774391
-94.221005
-123.451400
-132.588226
-104.727865
-32.084553
71.092400
164.132949
216.364996
225.999260
181.593743
83.115455
-16.029397
-86.656408
-121.489737
-115.215051
-74.316419
-22.430642
2.164176
9.331165
-0.210120
-30.437244
-31.385405
2.724972
42.918075
59.700892
30.883529
-21.132668
-67.699454
-81.649520
-65.692245
-34.912612
-6.566485
4.865373
5.449063
-24.618564
-55.886578
-58.694937
-60.061325
-46.846940
-9.292819
26.602164
42.823882
38.676159
31.425249
48.603693
100.887174
160.082820
194.189300
188.201381
133.414759
66.970272
28.673977
13.038277
5.510714
-5.214073
-19.965783
-27.436198
-1.346934
36.480202
52.019770
56.285671
47.257168
17.946505
-32.559142
-67.705750
-79.438437
-85.820424
-85.466109
-99.313047
-101.624730
-80.838110
-55.650501
-34.932979
-32.890432
-37.930718
-39.388025
-41.649313
-62.596748
-77.602770
-54.362641
-11.871112
36.321025
72.881273
90.271428
88.841916
76.474876
81.124454
100.566515
131.576043
169.449158
198.677457
218.578529
225.298716
211.370991
160.081884
77.758822
-2.972901
-64.856642
-99.613339
-106.448881
-93.146434
-82.299574
-84.623466
-74.264190
-62.206811
-67.400100
-59.377436
-47.145492
-51.400500
-52.149939
-29.524681
17.837237
59.867679
99.517087
148.209537
177.244568
193.280033
194.782782
155.265318
88.090364
33.838344
-3.616563
-54.418345
-96.062789
-94.697457
-57.515844
-7.723277
32.928576
52.021509
40.750170
5.389773
-57.344449
-118.335628
-129.746982
-119.726183
-106.220598
-84.418804
-71.805002
-72.785895
-83.874876
-88.502910
-93.437471
-105.673847
-113.348699
-114.855622
-84.150542
-26.949135
43.219368
120.525774
157.668162
151.683620
121.508190
83.618692
63.809820
44.529837
-0.315208
-67.855396
-135.914601
-179.225975
-184.587593
-162.168591
-124.299892
-66.273461
0.766137
65.679275
110.072825
109.403654
100.634660
112.276150
128.700228
131.497660
92.827040
21.579444
-58.516367
-135.556528
-185.133245
-190.664752
-163.577201
-134.193820
-114.798517
-100.034616
-96.952218
-118.008755
-140.505185
-124.143451
-59.984680
25.388819
106.756437
174.486498
207.672361
207.687938
182.779303
143.970746
109.513561
51.792341
-19.168472
-82.218312
-133.304280
-149.344179
-144.076354
-113.949258
-67.062715
-27.635928
1.922017
14.221500
16.407178
34.841600
87.600716
147.705290
195.472966
201.443983
143.117243
20.408063
-128.886546
-212.184516
-254.545919
-281.887801
-253.677273
-201.279234
-144.575801
-67.646059
33.938517
135.933785
202.003150
224.864278
199.485982
143.006971
90.287582
40.867765
-0.999040
-32.058200
-53.598944
-65.310590
-68.925009
-48.491673
-2.111678
41.741295
58.775308
64.819320
71.778494
92.849560
127.411414
147.748376
169.256373
169.509118
131.455966
86.943425
36.337248
-20.539987
-83.114971
-132.337624
-157.432773
-156.602823
-126.010743
-78.556087
-25.679036
12.708679
44.862484
74.343797
88.673107
86.879660
60.227982
10.419292
-34.769684
-53.136844
-60.758443
-55.055247
-43.113205
-57.692688
-88.893163
-114.600324
-125.237570
-119.430726
-95.436751
-72.457430
-62.339738
-44.609027
-10.293173
40.237654
96.876404
148.011191
177.932291
175.610737
144.355192
93.731350
44.076703
29.713347
61.645829
96.653705
112.552792
105.768944
57.160902
-7.224925
-51.063888
-85.151423
-103.446626
-89.219146
-69.816309
-67.636605
-74.764646
-70.478224
-29.820656
55.491018
166.957945
259.303095
304.836247
303.090598
253.778844
168.339867
55.862425
-61.018862
-161.066408
-232.822110
-267.043945
-263.982329
-214.070529
-134.582332
-54.906064
6.181992
35.006611
21.294233
-24.075023
-73.263127
-123.233912
-144.273304
-116.755317
-73.387850
-32.316212
-6.635564
-5.005269
-17.012531
-32.069987
-46.221633
-56.471824
-58.012516
-45.467033
-13.568580
30.837439
77.726840
117.217790
127.451338
101.990436
60.936186
22.812117
3.418095
8.940493
28.057065
38.010324
34.778802
35.377039
34.721117
27.549435
26.314490
48.916888
88.023122
117.544958
129.204893
126.158326
117.572468
94.073333
60.704836
37.094001
12.254984
-10.611616
-19.152534
-20.278377
-25.609083
-29.335723
-6.659290
39.555752
85.559864
111.834601
101.364386
54.524325
-13.675674
-70.007136
-93.543418
-87.252367
-55.572378
-35.385042
-45.709008
-63.259976
-92.169038
-127.798815
-146.343915
-154.304252
-166.612325
-183.552319
-176.335715
-118.786998
1.545288
155.959386
268.721516
320.930444
301.456673
188.157066
10.185377
-132.539441
-183.270307
-196.088304
-151.773983
-43.034619
66.875518
147.042488
198.696552
235.448769
232.379082
195.679581
142.747182
78.222900
21.823898
1.322745
36.355298
89.906966
143.463570
173.063337
147.942731
78.678463
-33.853530
-140.849348
-197.822177
-201.966523
-151.926398
-88.484066
-30.746238
25.143602
71.741542
105.959983
129.008662
142.094203
119.308132
67.228031
20.262761
-25.457701
-53.956069
-54.293256
-45.786905
-18.331782
19.009589
37.779371
26.778970
-0.020776
-32.498269
-67.842561
-90.468096
-106.281737
-91.739418
-47.746430
-2.847371
22.869125
-0.904065
-50.935116
-114.605022
-159.008720
-155.319505
-100.259364
24.905645
154.961304
248.206291
295.084781
284.752503
240.239182
174.654787
97.574362
12.636477
-48.701753
-95.044099
-134.970178
-142.494105
-139.693036
-136.867549
-138.422528
-148.623883
-165.384118
-175.964214
-162.479670
-131.670164
-94.878722
-61.067858
-39.282689
-45.359709
-62.001230
-59.354463
-40.365956
-13.897432
18.199484
54.290592
71.410588
52.365434
27.255219
20.371101
29.349710
53.334334
78.274903
100.663772
109.573024
95.312536
63.581615
9.807569
-50.195453
-101.814726
-133.461481
-136.957706
-115.229687
-89.161465
-83.942216
-91.354183
-92.780058
-69.753459
-19.013778
47.137154
106.940137
135.696178
120.360250
74.976188
19.656002
-36.259052
-70.818066
-86.101001
-95.362515
-108.276626
-119.534457
-107.179903
-83.000974
-59.453020
-44.379995
-38.065305
-27.630436
-23.380902
-36.425157
-65.619963
-110.784781
-160.865448
-186.067101
-180.239476
-146.453549
-84.706723
-23.813234
21.128167
39.714553
24.559165
-5.659387
-26.300555
-33.393527
-44.341195
-56.670049
-67.726560
-70.968472
-62.219237
-48.595977
-23.941672
-0.776356
12.381919
11.498700
2.871798
6.312416
21.200746
46.575907
69.797332
84.579158
92.592730
91.288426
79.609252
51.580544
13.677797
-19.718495
-38.967826
-50.266960
-46.974930
-30.179644
-24.328640
-36.402662
-68.124230
-103.751410
-123.975910
-124.695475
-110.691655
-89.609419
-67.672026
-54.982372
-50.143684
-55.736496
-62.766344
-56.859490
-44.155808
-32.756161
-28.353883
-23.946929
-12.200751
10.183702
37.086039
53.001751
53.117858
36.489845
7.311404
-26.974333
-57.143789
-80.124686
-99.426750
-113.877129
-128.966277
-144.111795
-151.420894
-145.883429
-123.484170
-97.105785
-78.924896
-67.740077
-64.450125
-65.767937
-64.177646
-57.824511
-50.717529
-48.698621
-52.060027
-48.580704
-34.361796
-17.093212
5.875199
28.971936
40.880728
44.660862
45.530296
41.086957
27.774362
12.199188
2.513473
0.095544
9.521475
29.329030
47.489137
56.722319
55.086292
45.583194
32.255012
19.378567
11.102612
12.657834
26.112505
44.472114
56.996556
50.953826
33.409352
14.320297
-7.281493
-26.310801
-39.344145
-39.525991
-23.630281
0.985318
23.695001
39.812293
53.121234
68.310116
83.194809
91.063950
92.080413
81.826585
62.767924
51.852207
51.067959
47.009076
36.716024
28.201082
19.848496
8.781594
3.179950
6.942939
8.231899
2.127344
1.970696
8.852718
17.877307
33.094244
43.138681
35.441749
20.269216
9.337653
1.784892
0.874657
15.087850
38.766986
63.607025
89.803832
111.153110
121.312885
126.853986
133.886414
139.605196
136.257559
116.198011
87.159585
62.792826
49.201240
42.192433
34.517841
35.270899
37.243568
25.825720
16.627589
20.359666
27.332608
33.861087
42.565641
42.269497
36.490691
40.789062
48.126199
47.772126
40.678895
29.566534
12.103886
4.782319
19.728837
40.498832
58.077579
69.787908
68.219680
52.439809
35.720877
29.356035
27.574278
22.874029
17.466171
11.675416
5.082757
1.976704
6.169089
17.809801
28.979553
38.064408
45.439730
46.620107
36.606045
16.148793
2.374850
-3.462924
-6.854982
-7.456613
-10.170937
-7.820825
-1.169216
8.052277
12.859014
3.248631
-6.541771
-7.926603
-3.371840
-1.604388
-0.978616
4.486113
7.234449
8.249613
3.389866
-9.159271
-12.643806
-4.360595
1.851486
4.135877
2.463482
0.563790
5.948511
10.446644
11.635333
7.704516
-1.087338
-6.473894
-10.653569
-15.843221
-21.943620
-29.515603
-35.142445
-28.445377
-6.921016
18.977058
33.855777
29.012915
12.665711
-5.852633
-17.816254
-20.863081
-16.512496
-3.144328
10.084605
17.395245
21.062380
19.976541
20.882863
24.628448
23.163088
14.897005
-5.818976
-28.148636
-32.347014
-22.634300
-8.813876
5.395681
12.887639
9.679756
6.417062
9.894827
10.362920
-1.755003
-21.642844
-42.570795
-59.611320
-59.284021
-44.079034
-27.496757
-10.026594
7.619433
22.413986
27.990156
15.749103
-11.320281
-46.746920
-79.300785
-91.509626
-82.971843
-60.827935
-32.230353
-15.814587
-11.627916
-14.291585
-29.902347
-44.609636
-50.074902
-53.800243
-57.692354
-56.512757
-48.208505
-36.375045
-21.170578
-9.820806
-3.468970
6.691065
15.769166
14.119371
1.207338
-17.727415
-37.572394
-58.234083
-78.792905
-91.191896
-86.051617
-61.426666
-27.262776
7.158283
37.283560
51.910044
46.366069
30.560221
10.173366
-12.375538
-30.126008
-41.146411
-37.333027
-9.853745
25.529754
51.507837
67.758910
76.407614
71.660866
48.936879
17.905514
-16.457635
-51.864271
-74.054435
-77.742369
-68.074855
-50.206207
-31.294332
-19.122915
-19.191762
-24.232047
-23.262083
-17.500439
-6.768136
3.660758
5.914496
1.792750
-7.741521
-14.604858
-17.551674
-25.495126
-37.835410
-44.366504
-37.836466
-27.874375
-24.503375
-28.364055
-38.708282
-53.756127
-61.651782
-56.872840
-50.417875
-40.528000
-34.159018
-44.955502
-60.599774
-68.054602
-66.996316
-57.408031
-43.519548
-38.241852
-38.928427
-37.968333
-40.091166
-46.467957
-56.705420
-62.638268
-56.511650
-46.889855
