EVENT_NAME: 202302060117
EVENT_ID: 13194
EVENT_DATE_YYYYMMDD: 2023/02/06
EVENT_TIME_HHMMSS: 01:17:32.00000
EVENT_LATITUDE_DEGREE: 37.288
EVENT_LONGITUDE_DEGREE: 37.043
EVENT_DEPTH_KM: 8.6
HYPOCENTER_REFERENCE: AFAD
MAGNITUDE_W: 7.7
MAGNITUDE_W_REFERENCE: AFAD
MAGNITUDE_L: 
MAGNITUDE_L_REFERENCE: 
FOCAL_MECHANISM: 
NETWORK: TK
STATION_CODE: 0714
STATION_NAME: 
STATION_LATITUDE_DEGREE: 36.55547
STATION_LONGITUDE_DEGREE: 31.98667
STATION_ELEVATION_M: 12.0
LOCATION: Kahramanmaras_Pazarck_Turkiye
SENSOR_DEPTH_M: 
VS30_M/S: 607
SITE_CLASSIFICATION_EC8: B
MORPHOLOGIC_CLASSIFICATION: 
EPICENTRAL_DISTANCE_KM: 456.75
EARTHQUAKE_BACKAZIMUTH_DEGREE: 
DATE_TIME_FIRST_SAMPLE_YYYYMMDD_HHMMSS: 2023/02/06 01:18:09.9751630
DATE_TIME_FIRST_SAMPLE_PRECISION: millisecond
SAMPLING_INTERVAL_S: 0.01
NDATA: 24501
DURATION_S: 
STREAM: HNE
UNITS: cm/s^2
INSTRUMENT: sensor = GMS+/GEOSIG | digitizer = 
INSTRUMENT_ANALOG/DIGITAL: 
INSTRUMENTAL_FREQUENCY_HZ: 
INSTRUMENTAL_DAMPING: 
FULL_SCALE_G: 
N_BIT_DIGITAL_CONVERTER: 
PGA_CM/S^2: 2.335
TIME_PGA_S: 
BASELINE_CORRECTION: BASELINE REMOVED
FILTER_TYPE: BUTTERWORTH
FILTER_ORDER: 
LOW_CUT_FREQUENCY_HZ: 
HIGH_CUT_FREQUENCY_HZ: 
LATE/NORMAL_TRIGGERED: 
DATABASE_VERSION: 
HEADER_FORMAT: DYNA 1.2
DATA_TYPE: Acceleration
PROCESSING: Automatic Paolucci et al., 2011
DATA_TIMESTAMP_YYYYMMDD_HHMMSS: 
DATA_LICENSE: U (unknown license)
DATA_CITATION: Turkish Accelerometric Archive v 1.0 - Disaster And Emergency Management Presidency, Earthquake Department
DATA_CREATOR: AFAD
ORIGINAL_DATA_MEDIATOR_CITATION: : AFAD - Disaster And Emergency Management Presidency
ORIGINAL_DATA_MEDIATOR: AFAD PROCESS SERVICE
ORIGINAL_DATA_CREATOR_CITATION: AFAD PROCESS SERVICE
ORIGINAL_DATA_CREATOR: network: TK
USER1: GuestUser
USER2: 
USER3: 
USER4: 
USER5: 
[...]
0.397725
0.295637
0.171208
0.052494
-0.041542
-0.116874
-0.167789
-0.205455
-0.239744
-0.234289
-0.181036
-0.107002
-0.037644
0.022882
0.067563
0.082370
0.107567
0.154845
0.197447
0.227840
0.247843
0.269923
0.271742
0.253558
0.219009
0.140819
0.029119
-0.121286
-0.292733
-0.448074
-0.572243
-0.654070
-0.705244
-0.715374
-0.687060
-0.631729
-0.538212
-0.441059
-0.352997
-0.261819
-0.189083
-0.137649
-0.090371
-0.028287
0.048865
0.135368
0.257718
0.413320
0.570479
0.711274
0.827130
0.905840
0.942987
0.967146
0.985070
0.991564
0.995201
0.975199
0.939611
0.908180
0.890516
0.895451
0.903764
0.914675
0.913895
0.884802
0.826874
0.742709
0.661402
0.584251
0.491514
0.374619
0.241618
0.104980
-0.041010
-0.185181
-0.301297
-0.356627
-0.347016
-0.298958
-0.215573
-0.121277
-0.038411
0.021077
0.051210
0.080044
0.104982
0.129400
0.160573
0.173821
0.175380
0.167068
0.137974
0.073032
-0.017627
-0.096336
-0.166214
-0.246742
-0.335842
-0.440009
-0.588596
-0.748872
-0.854078
-0.902395
-0.898238
-0.846804
-0.771731
-0.697177
-0.649120
-0.628079
-0.627040
-0.633793
-0.639248
-0.661328
-0.701592
-0.734323
-0.740817
-0.729387
-0.712242
-0.690681
-0.666003
-0.656651
-0.672757
-0.700032
-0.720813
-0.737698
-0.761856
-0.800821
-0.882388
-1.001102
-1.140597
-1.284249
-1.389974
-1.442707
-1.412314
-1.310485
-1.180341
-1.049937
-0.968889
-0.919793
-0.902908
-0.898492
-0.846278
-0.742890
-0.598979
-0.477667
-0.397139
-0.349081
-0.332196
-0.299725
-0.285957
-0.313233
-0.357133
-0.400514
-0.427270
-0.436102
-0.408826
-0.373238
-0.361548
-0.383628
-0.455324
-0.550399
-0.663658
-0.796918
-0.933037
-1.060323
-1.154358
-1.209949
-1.206052
-1.120848
-0.986548
-0.816400
-0.613261
-0.381288
-0.148795
0.041874
0.205009
0.336452
0.421656
0.471272
0.502444
0.521927
0.516472
0.487638
0.412305
0.288396
0.163967
0.058242
-0.022546
-0.069044
-0.076837
-0.063848
-0.048002
-0.024883
-0.005660
0.001094
-0.000984
-0.024362
-0.074238
-0.158402
-0.268544
-0.354527
-0.388037
-0.367775
-0.289584
-0.163597
-0.000202
0.176959
0.326066
0.425558
0.507125
0.616488
0.734422
0.831576
0.909247
0.977566
1.051340
1.133687
1.231100
1.320200
1.382285
1.424368
1.443850
1.455021
1.462294
1.485673
1.529574
1.546460
1.515288
1.415017
1.243830
1.025626
0.798069
0.613634
0.468164
0.351009
0.258532
0.186057
0.127090
0.076175
0.052537
0.033833
0.011234
-0.016301
-0.076048
-0.155796
-0.242039
-0.303084
-0.313475
-0.295551
-0.247234
-0.147483
0.019288
0.246586
0.510510
0.805087
1.105119
1.348262
1.499187
1.594522
1.672972
1.717653
1.719471
1.703106
1.680506
1.644399
1.603096
1.567768
1.536336
1.522568
1.530102
1.537376
1.536077
1.535817
1.524388
1.462563
1.335017
1.149543
0.908219
0.646893
0.401672
0.192819
0.043972
-0.076041
-0.168778
-0.203587
-0.175012
-0.103316
-0.028243
0.063715
0.146581
0.185547
0.207368
0.221135
0.222434
0.181132
0.101902
0.001113
-0.117341
-0.206182
-0.263850
-0.317622
-0.377108
-0.439193
-0.499978
-0.572713
-0.630641
-0.644149
-0.620770
-0.573752
-0.511407
-0.413734
-0.305671
-0.249041
-0.254496
-0.307488
-0.370352
-0.424643
-0.477896
-0.519718
-0.550370
-0.568294
-0.603623
-0.663629
-0.708309
-0.749352
-0.801305
-0.871442
-0.943138
-1.002625
-1.078996
-1.146016
-1.172772
-1.152510
-1.094582
-1.003403
-0.877415
-0.761559
-0.651937
-0.535041
-0.413729
-0.282026
-0.172924
-0.093694
-0.057067
-0.070315
-0.100448
-0.123827
-0.131100
-0.134477
-0.147725
-0.156557
-0.156557
-0.162531
-0.201236
-0.304104
-0.469576
-0.672195
-0.879490
-1.077173
-1.231215
-1.310444
-1.347331
-1.342915
-1.303430
-1.244982
-1.164973
-1.071457
-0.955860
-0.830911
-0.682843
-0.488537
-0.263318
-0.024331
0.187900
0.353372
0.464033
0.518325
0.559888
0.599113
0.628987
0.657302
0.688993
0.720166
0.730297
0.763028
0.844855
0.937592
1.026953
1.082024
1.085920
1.042539
0.996041
0.989547
1.013186
1.080206
1.174762
1.272954
1.363354
1.431153
1.471158
1.457131
1.401021
1.320753
1.236588
1.156320
1.051114
0.921750
0.760174
0.592884
0.473651
0.407410
0.387668
0.384811
0.371822
0.335975
0.275709
0.223236
0.192843
0.187648
0.190506
0.177517
0.151541
0.112835
0.074650
0.046335
0.029450
0.042439
0.106342
0.201677
0.282725
0.336237
0.352863
0.330783
0.301689
0.269218
0.217005
0.152582
0.065820
-0.040165
-0.148748
-0.248239
-0.307725
-0.327727
-0.319155
-0.296295
-0.279930
-0.271617
-0.268759
-0.227975
-0.143291
-0.043020
0.053614
0.118556
0.157002
0.167652
0.164275
0.166614
0.186616
0.253896
0.337282
0.412095
0.501715
0.607701
0.712647
0.798371
0.882276
0.963324
1.013199
1.011121
0.950076
0.860456
0.754471
0.644589
0.573673
0.558607
0.588740
0.627186
0.653163
0.659917
0.636798
0.586403
0.507434
0.427425
0.362224
0.312608
0.295723
0.304815
0.341183
0.390799
0.429505
0.465093
0.500162
0.547180
0.628228
0.741487
0.843576
0.896309
0.922026
0.921507
0.891893
0.869294
0.858903
0.855007
0.833966
0.762789
0.644855
0.496528
0.347681
0.205068
0.065573
-0.054439
-0.133668
-0.157047
-0.139643
-0.085611
-0.016253
0.037260
0.051028
0.007906
-0.060672
-0.143538
-0.227962
-0.295762
-0.353430
-0.388239
-0.401487
-0.397850
-0.371613
-0.331868
-0.296799
-0.284071
-0.298098
-0.339920
-0.408499
-0.479415
-0.534486
-0.578387
-0.603064
-0.589296
-0.543577
-0.514223
-0.503573
-0.484609
-0.490324
-0.523834
-0.559682
-0.599686
-0.656835
-0.738661
-0.823345
-0.904393
-0.969594
-1.008819
-1.045446
-1.088827
-1.137664
-1.177927
-1.215853
-1.247545
-1.241310
-1.193513
-1.115582
-1.030638
-0.940498
-0.851138
-0.790092
-0.752166
-0.731904
-0.730865
-0.763335
-0.805937
-0.824121
-0.845422
-0.869060
-0.869060
-0.832952
-0.786713
-0.772426
-0.766191
-0.766191
-0.783336
-0.798402
-0.790609
-0.731641
-0.631630
-0.493953
-0.310297
-0.100145
0.120139
0.332629
0.523818
0.690330
0.829825
0.933473
0.997116
1.018417
0.997376
0.952696
0.889573
0.786186
0.650327
0.506156
0.357569
0.225347
0.131052
0.070266
0.025846
-0.017535
-0.025588
0.029483
0.132871
0.244052
0.322762
0.366663
0.382509
0.387704
0.386925
0.395758
0.451608
0.531357
0.605651
0.668255
0.718650
0.761512
0.808011
0.882045
0.958676
1.007513
1.026996
1.026476
1.024398
1.005955
0.981797
0.967769
0.937377
0.890099
0.852173
0.848537
0.864383
0.867240
0.848277
0.794246
0.718394
0.644100
0.584354
0.529803
0.437845
0.332380
0.213666
0.059104
-0.094419
-0.249500
-0.384059
-0.477056
-0.509527
-0.459132
-0.354445
-0.197805
-0.011551
0.186132
0.375763
0.531364
0.649299
0.705149
0.713202
0.690863
0.643325
0.585657
0.538120
0.539678
0.572669
0.616051
0.685668
0.753728
0.785939
0.765937
0.697619
0.580723
0.399665
0.203540
0.038068
-0.094933
-0.199879
-0.300409
-0.388730
-0.448476
-0.484843
-0.510300
-0.520691
-0.489519
-0.438084
-0.395222
-0.351841
-0.312096
-0.280404
-0.248193
-0.192343
-0.105840
-0.013362
0.064308
0.121717
0.152890
0.165359
0.192115
0.251602
0.312907
0.356029
0.402008
0.441493
0.447208
0.414478
0.357848
0.284594
0.194714
0.105874
0.035217
-0.004267
-0.021672
-0.024529
0.000409
0.039634
0.083535
0.123799
0.164323
0.212640
0.247709
0.277323
0.292649
0.286675
0.302261
0.353436
0.432405
0.529818
0.633726
0.721268
0.768546
0.783353
0.778417
0.754519
0.707761
0.649833
0.588528
0.494232
0.366946
0.225892
0.068992
-0.075438
-0.180904
-0.249742
-0.289746
-0.301955
-0.292603
-0.285330
-0.285589
-0.302214
-0.338841
-0.372091
-0.393132
-0.400666
-0.410017
-0.425083
-0.440929
-0.476517
-0.507170
-0.523795
-0.525872
-0.511325
-0.510546
-0.514962
-0.533145
-0.551069
-0.567694
-0.617829
-0.671601
-0.717060
-0.756804
-0.804861
-0.868504
-0.914483
-0.966177
-1.043847
-1.128012
-1.210098
-1.300237
-1.417133
-1.528573
-1.638455
-1.763922
-1.858997
-1.913289
-1.942902
-1.967580
-1.982386
-1.971216
-1.954331
-1.921081
-1.869646
-1.827824
-1.800028
-1.764440
-1.689367
-1.578446
-1.429339
-1.230097
-1.007475
-0.794725
-0.608471
-0.438063
-0.303503
-0.227911
-0.196738
-0.214922
-0.267915
-0.314413
-0.330258
-0.309217
-0.272849
-0.245054
-0.242716
-0.248171
-0.252327
-0.281421
-0.329478
-0.402732
-0.497028
-0.594960
-0.701465
-0.784850
-0.839661
-0.880184
-0.891354
-0.851090
-0.750560
-0.633664
-0.515989
-0.375974
-0.223750
-0.100100
-0.023728
0.046669
0.107715
0.146161
0.182269
0.212921
0.256822
0.314491
0.374757
0.457104
0.542048
0.602055
0.632188
0.649593
0.647255
0.603095
0.559973
0.549843
0.566468
0.601277
0.646477
0.707782
0.760775
0.794285
0.825198
0.842083
0.836108
0.810651
0.795845
0.820003
0.880530
0.984177
1.096917
1.185757
1.255375
1.307849
1.342917
1.342138
1.307589
1.233036
1.117180
0.986257
0.845463
0.730906
0.651157
0.582838
0.519974
0.455292
0.406456
0.369310
0.334241
0.295796
0.246700
0.196045
0.134480
0.090320
0.076812
0.075254
0.088502
0.093698
0.084866
0.065903
0.045381
0.028237
-0.011767
-0.042939
-0.050732
-0.070994
-0.085281
-0.062681
-0.001116
0.072918
0.149290
0.236573
0.311386
0.377107
0.452440
0.531410
0.615315
0.701039
0.775332
0.829624
0.880019
0.933532
0.965483
0.970939
0.964964
0.965484
0.966783
0.955093
0.931974
0.869630
0.751436
0.591939
0.419453
0.271385
0.140982
0.029022
-0.054883
-0.120344
-0.175674
-0.242175
-0.292310
-0.313870
-0.340626
-0.373097
-0.414140
-0.471809
-0.551297
-0.635202
-0.693130
-0.733914
-0.776775
-0.842756
-0.912893
-0.936272
-0.906918
-0.833404
-0.732354
-0.609224
-0.499861
-0.442192
-0.408422
-0.386602
-0.375432
-0.382965
-0.412838
-0.445828
-0.486612
-0.516485
-0.520641
-0.495443
-0.420630
-0.328152
-0.245546
-0.181383
-0.134884
-0.096179
-0.082671
-0.071241
-0.045783
-0.023703
-0.033834
-0.096697
-0.187356
-0.314642
-0.471802
-0.618310
-0.727673
-0.792095
-0.832618
-0.837034
-0.807421
-0.756506
-0.672341
-0.575188
-0.474138
-0.378543
-0.318536
-0.282428
-0.247100
-0.205797
-0.155661
-0.098252
-0.041623
-0.005774
0.013189
0.013708
-0.011749
-0.027854
-0.026815
-0.027594
-0.024217
-0.010968
-0.000578
-0.010708
-0.037984
-0.070714
-0.085001
-0.077468
-0.066557
-0.045256
-0.014604
0.004879
-0.009927
-0.057465
-0.107340
-0.145006
-0.163969
-0.171502
-0.208389
-0.274889
-0.351261
-0.441660
-0.533098
-0.593624
-0.615704
-0.615964
-0.585830
-0.511277
-0.397758
-0.273329
-0.160849
-0.041096
0.059174
0.126455
0.194774
0.266989
0.347258
0.412460
0.464673
0.539746
0.618456
0.690152
0.746782
0.786527
0.817439
0.831467
0.837182
0.833545
0.834844
0.837702
0.812764
0.753018
0.639759
0.491952
0.326480
0.137369
-0.062133
-0.265011
-0.440355
-0.591280
-0.715708
-0.774935
-0.779351
-0.734931
-0.652584
-0.550235
-0.434898
-0.328393
-0.227083
-0.127073
-0.022905
0.089315
0.200495
0.315573
0.418961
0.496372
0.542091
0.565730
0.615606
0.698212
0.802639
0.917456
1.017987
1.113582
1.197487
1.267884
1.330229
1.371272
1.394392
1.392833
1.368155
1.331788
1.296979
1.258014
1.200346
1.137482
1.066046
0.995909
0.937202
0.883170
0.847063
0.826801
0.822905
0.831997
0.840310
0.867066
0.894342
0.887068
0.850961
0.794851
0.737702
0.668604
0.577686
0.496378
0.440269
0.407278
0.388315
0.384939
0.382861
0.367015
0.329089
0.257653
0.176865
0.091922
0.011653
-0.046534
-0.077706
-0.076927
-0.089915
-0.129140
-0.174080
-0.235904
-0.305002
-0.360333
-0.381114
-0.373321
-0.355397
-0.303183
-0.223434
-0.154855
-0.096667
-0.050428
-0.022633
0.008799
0.063870
0.114266
0.144139
0.180766
0.241033
0.327276
0.420273
0.528077
0.648869
0.747321
0.833824
0.925263
1.022416
1.101386
1.160873
1.227893
1.275171
1.299589
1.324527
1.327385
1.307903
1.276990
1.216984
1.108401
0.972023
0.846556
0.714594
0.583151
0.482881
0.405990
0.351958
0.316890
0.307019
0.305201
0.299486
0.321826
0.348063
0.359493
0.359753
0.363390
0.388328
0.406252
0.433528
0.476649
0.523408
0.573543
0.618223
0.678490
0.737717
0.772266
0.791749
0.808115
0.829675
0.841365
0.856172
0.880071
0.902411
0.927089
0.947611
0.982420
1.024243
1.034374
1.012814
0.969173
0.921635
0.893581
0.896698
0.929689
0.982682
1.058534
1.153350
1.245827
1.318043
1.365061
1.392597
1.401429
1.397532
1.391818
1.376751
1.340124
1.266610
1.157508
1.022169
0.872803
0.744218
0.642648
0.563679
0.510167
0.473021
0.451720
0.441329
0.458994
0.518740
0.605243
0.714866
0.825527
0.925018
1.008664
1.061656
1.098803
1.115948
1.114909
1.104259
1.061917
1.000093
0.923721
0.831504
0.740585
0.650446
0.563683
0.476921
0.400030
0.341842
0.296643
0.266250
0.256379
0.287292
0.338466
0.388342
0.457700
0.540306
0.621614
0.684218
0.739808
0.791762
0.811505
0.809946
0.785788
0.742407
0.682401
0.602393
0.528359
0.458222
0.404969
0.368342
0.324702
0.280281
0.223912
0.170660
0.128318
0.080261
0.044153
0.006487
-0.040271
-0.084951
-0.114045
-0.128072
-0.168076
-0.229641
-0.308870
-0.422908
-0.562403
-0.705275
-0.825807
-0.923480
-0.981668
-1.001410
-1.022451
-1.047648
-1.081158
-1.104277
-1.098303
-1.084535
-1.053362
-1.011540
-0.969197
-0.933609
-0.919841
-0.929452
-0.984523
-1.071285
-1.171296
-1.288451
-1.397033
-1.489251
-1.561726
-1.616017
-1.657060
-1.669789
-1.671347
-1.669789
-1.674464
-1.704857
-1.762006
-1.844092
-1.931114
-2.023851
-2.113990
-2.187245
-2.259980
-2.316609
-2.334792
-2.318946
-2.293229
-2.273746
-2.246211
-2.207505
-2.170099
-2.137368
-2.094765
-2.044111
-2.006184
-1.980467
-1.961764
-1.938384
-1.896561
-1.833178
-1.763300
-1.725374
-1.725374
-1.752130
-1.800706
-1.849282
-1.895521
-1.944357
-1.993193
-2.034496
-2.050082
-2.038912
-1.984880
-1.892403
-1.803042
-1.731086
-1.685367
-1.647181
-1.610813
-1.578342
-1.536519
-1.517816
-1.506905
-1.485085
-1.451055
-1.385593
-1.317794
-1.244019
-1.169985
-1.126864
-1.093873
-1.060882
-1.013864
-0.952559
-0.884239
-0.811504
-0.763967
-0.740068
-0.732794
-0.737989
-0.761108
-0.799034
-0.830466
-0.883978
-0.965025
-1.061919
-1.156474
-1.224793
-1.283240
-1.315452
-1.320647
-1.309736
-1.284279
-1.269991
-1.241936
-1.191801
-1.135691
-1.067372
-0.992818
-0.903718
-0.804486
-0.706294
-0.608880
-0.519001
-0.427562
-0.338202
-0.258193
-0.177405
-0.098176
-0.013751
0.078727
0.170944
0.247576
0.299010
0.333560
0.346289
0.356420
0.377721
0.410192
0.457989
0.496695
0.517477
0.516438
0.496176
0.461367
0.414869
0.390191
0.379541
0.371229
0.374346
0.374346
0.357202
0.322133
0.280311
0.218226
0.117177
0.010932
-0.077389
-0.143889
-0.184413
-0.203376
-0.194284
-0.178438
-0.150642
-0.098948
-0.033227
0.061848
0.162379
0.257454
0.348633
0.445007
0.565279
0.683214
0.783745
0.862195
0.911031
0.927657
0.911291
0.888951
0.858819
0.809463
0.769719
0.745041
0.728935
0.703738
0.660097
0.618794
0.575413
0.535669
0.491249
0.436438
0.368639
0.269927
0.173553
0.091727
0.044449
0.052762
0.099780
0.188880
0.285514
0.366822
0.433582
0.478263
0.525021
0.574637
0.615421
0.625032
0.600354
0.578534
0.553337
0.539829
0.548661
0.552298
0.543207
0.514892
0.480863
0.417220
0.316949
0.211224
0.101342
0.009904
-0.065688
-0.119720
-0.144917
-0.154009
-0.126473
-0.066986
0.010165
0.097707
0.176417
0.232008
0.262401
0.282403
0.325005
0.396701
0.481126
0.577240
0.676732
0.771807
0.858829
0.950787
1.045343
1.131326
1.190813
1.206919
1.213154
1.228480
1.260432
1.304333
1.344337
1.362261
1.332648
1.265628
1.152629
1.005081
0.853897
0.702712
0.552826
0.390991
0.229675
0.079010
-0.073734
-0.214528
-0.338697
-0.439227
-0.513780
-0.579501
-0.637169
-0.697955
-0.758221
-0.802121
-0.823682
-0.824461
-0.831734
-0.843424
-0.869141
-0.917197
-0.954604
-0.980840
-0.997985
-1.010973
-1.013570
-1.000062
-0.999543
-0.992269
-0.977202
-0.975643
-0.983176
-1.003958
-1.010971
-0.998762
-0.968629
-0.910700
-0.847836
-0.786531
-0.720550
-0.648594
-0.573780
-0.497149
-0.438441
-0.412464
-0.396618
-0.389604
-0.394539
-0.404151
-0.430127
-0.474288
-0.534813
-0.600535
-0.650150
-0.663918
-0.627550
-0.570920
-0.525721
-0.485976
-0.443374
-0.393758
-0.332193
-0.257899
-0.176851
-0.112688
-0.060215
0.003169
0.075384
0.143444
0.181889
0.197735
0.194099
0.164745
0.131755
0.122144
0.150978
0.177994
0.194360
0.210466
0.197737
0.146823
0.057982
-0.015792
-0.058653
-0.095800
-0.112944
-0.108788
-0.081772
-0.059951
-0.056314
-0.044105
-0.026440
-0.014491
-0.017088
-0.019946
-0.012672
-0.008775
-0.007996
-0.024101
-0.059170
-0.095277
-0.140217
-0.198145
-0.255294
-0.288544
-0.297636
-0.292440
-0.263346
-0.213470
-0.140735
-0.054492
0.045259
0.164493
0.282168
0.399843
0.512582
0.611294
0.678834
0.711045
0.734944
0.742738
0.741958
0.742218
0.727152
0.696240
0.663509
0.650521
0.648963
0.653898
0.661692
0.637793
0.601166
0.584801
0.592334
0.629741
0.693644
0.774692
0.840673
0.883275
0.920422
0.959388
1.002769
1.019914
1.000691
0.958089
0.890810
0.815477
0.753912
0.721182
0.699361
0.663254
0.606884
0.524278
0.425827
0.327375
0.243989
0.181645
0.122938
0.063711
0.005263
-0.040715
-0.040196
0.000069
0.058257
0.127355
0.204506
0.277242
0.318805
0.352315
0.380110
0.387384
0.375954
0.349718
0.340107
0.339328
0.354394
0.390762
0.424792
0.454925
0.460380
0.458562
0.472850
0.482721
0.480123
0.473110
0.468174
0.440120
0.379594
0.325822
0.283740
0.237501
0.192302
0.159312
0.145025
0.140869
0.143726
0.137232
0.109437
0.068394
-0.004601
-0.101754
-0.200725
-0.284890
-0.335025
-0.370093
-0.389316
-0.390355
-0.394771
-0.408019
-0.442827
-0.502314
-0.588557
-0.694022
-0.780265
-0.817412
-0.812216
-0.796630
-0.780264
-0.775848
-0.797928
-0.831698
-0.873780
-0.916382
-0.958724
-0.992753
-0.990155
-0.960802
-0.907549
-0.832995
-0.749090
-0.657392
-0.577123
-0.511921
-0.473216
-0.459968
-0.455551
-0.465942
-0.481528
-0.506206
-0.542833
-0.592708
-0.654792
-0.703628
-0.736099
-0.739476
-0.715058
-0.693757
-0.663883
-0.620761
-0.579978
-0.558936
-0.566989
-0.581795
-0.616085
-0.668298
-0.702327
-0.729603
-0.764152
-0.816884
-0.880787
-0.948327
-1.005475
-1.041323
-1.085743
-1.125228
-1.150685
-1.172245
-1.194585
-1.226537
-1.250435
-1.271736
-1.295634
-1.321871
-1.353562
-1.388111
-1.438506
-1.485524
-1.509422
-1.511760
-1.482406
-1.432011
-1.369926
-1.309140
-1.263421
-1.236665
-1.241860
-1.258745
-1.274330
-1.293034
-1.315633
-1.359014
-1.412786
-1.473052
-1.534357
-1.575140
-1.604754
-1.610988
-1.586570
-1.555397
-1.520588
-1.493313
-1.467855
-1.438501
-1.409407
-1.374338
-1.347062
-1.321345
-1.286536
-1.236141
-1.176914
-1.114829
-1.036639
-0.972995
-0.928055
-0.883375
-0.841552
-0.791676
-0.748555
-0.715564
-0.700238
-0.706732
-0.711667
-0.709589
-0.674780
-0.610877
-0.536323
-0.448002
-0.362018
-0.279412
-0.223821
-0.191610
-0.161217
-0.154982
-0.158359
-0.175504
-0.205117
-0.219924
-0.225379
-0.210572
-0.199661
-0.196804
-0.187971
-0.205116
-0.220442
-0.214727
-0.190309
-0.147187
-0.111858
-0.063022
0.003219
0.069200
0.136221
0.197786
0.235712
0.222724
0.178044
0.125571
0.073098
