EVENT_NAME: 202302060117
EVENT_ID: 13194
EVENT_DATE_YYYYMMDD: 2023/02/06
EVENT_TIME_HHMMSS: 01:17:32.00000
EVENT_LATITUDE_DEGREE: 37.288
EVENT_LONGITUDE_DEGREE: 37.043
EVENT_DEPTH_KM: 8.6
HYPOCENTER_REFERENCE: AFAD
MAGNITUDE_W: 7.7
MAGNITUDE_W_REFERENCE: AFAD
MAGNITUDE_L: 
MAGNITUDE_L_REFERENCE: 
FOCAL_MECHANISM: 
NETWORK: TK
STATION_CODE: 0133
STATION_NAME: 
STATION_LATITUDE_DEGREE: 37.745495
STATION_LONGITUDE_DEGREE: 35.864025
STATION_ELEVATION_M: 546.0
LOCATION: Kahramanmaras_Pazarck_Turkiye
SENSOR_DEPTH_M: 
VS30_M/S: None
SITE_CLASSIFICATION_EC8: unknown
MORPHOLOGIC_CLASSIFICATION: 
EPICENTRAL_DISTANCE_KM: 115.76
EARTHQUAKE_BACKAZIMUTH_DEGREE: 
DATE_TIME_FIRST_SAMPLE_YYYYMMDD_HHMMSS: 2023/02/06 01:17:31.9995260
DATE_TIME_FIRST_SAMPLE_PRECISION: millisecond
SAMPLING_INTERVAL_S: 0.01
NDATA: 12501
DURATION_S: 
STREAM: HNN
UNITS: cm/s^2
INSTRUMENT: sensor = ACEBOX/SARA | digitizer = 
INSTRUMENT_ANALOG/DIGITAL: 
INSTRUMENTAL_FREQUENCY_HZ: 
INSTRUMENTAL_DAMPING: 
FULL_SCALE_G: 
N_BIT_DIGITAL_CONVERTER: 
PGA_CM/S^2: 78.077
TIME_PGA_S: 
BASELINE_CORRECTION: BASELINE REMOVED
FILTER_TYPE: BUTTERWORTH
FILTER_ORDER: 
LOW_CUT_FREQUENCY_HZ: 
HIGH_CUT_FREQUENCY_HZ: 
LATE/NORMAL_TRIGGERED: 
DATABASE_VERSION: 
HEADER_FORMAT: DYNA 1.2
DATA_TYPE: Acceleration
PROCESSING: Automatic Paolucci et al., 2011
DATA_TIMESTAMP_YYYYMMDD_HHMMSS: 
DATA_LICENSE: U (unknown license)
DATA_CITATION: Turkish Accelerometric Archive v 1.0 - Disaster And Emergency Management Presidency, Earthquake Department
DATA_CREATOR: AFAD
ORIGINAL_DATA_MEDIATOR_CITATION: : AFAD - Disaster And Emergency Management Presidency
ORIGINAL_DATA_MEDIATOR: AFAD PROCESS SERVICE
ORIGINAL_DATA_CREATOR_CITATION: AFAD PROCESS SERVICE
ORIGINAL_DATA_CREATOR: network: TK
USER1: GuestUser
USER2: 
USER3: 
USER4: 
USER5: 
[...]
-4.684355
-3.789616
-2.921763
-1.185354
2.406003
6.393179
8.868388
9.767336
8.647211
5.034573
1.746445
0.708382
1.610136
5.024976
9.119699
11.580646
12.675048
12.088916
10.494883
8.474405
5.214099
1.856300
-1.273781
-3.909380
-3.241424
0.948688
5.907292
9.648513
11.708264
12.633163
12.973803
12.366161
9.481568
4.752080
-0.188760
-5.028600
-7.540520
-6.685994
-6.482126
-7.356296
-6.658414
-6.080938
-6.381837
-5.951419
-5.097127
-4.169188
-3.140015
-1.490111
1.593672
4.768870
6.171184
5.386090
2.728046
-1.455291
-5.098323
-4.667905
0.499246
8.773796
16.149629
17.699702
13.663424
5.673399
-3.166712
-7.319889
-7.344441
-5.335190
-2.681360
-2.912120
-4.179070
-4.340159
-4.688286
-3.745384
-1.584633
0.060596
0.795652
0.428587
-0.270002
-1.562436
-3.266119
-4.065942
-3.939928
-1.764681
2.225534
5.145893
6.165948
6.067750
5.883281
6.385475
8.205350
12.302411
17.173107
20.529731
21.615483
18.673142
11.818671
4.239428
-2.517783
-7.459325
-10.360050
-13.356632
-15.892634
-16.072193
-15.033902
-13.545317
-10.710762
-6.182112
-1.328951
2.425363
5.343851
6.137357
3.191976
-1.094933
-3.508893
-2.864784
1.226899
6.980881
9.764001
8.173709
5.882493
4.818479
5.416530
8.664906
12.196645
12.811295
10.328833
5.290500
-1.057099
-4.911250
-3.467087
1.763891
7.675919
10.423268
7.709581
2.039293
-4.176911
-9.142534
-10.824241
-10.828686
-9.912203
-6.737239
-2.726449
0.528941
3.413529
5.833795
6.656759
6.321024
5.885223
4.057159
0.676214
-1.495999
-0.677244
1.647634
2.919956
2.089973
-1.505364
-6.050152
-7.788671
-7.116741
-5.582799
-3.549467
-2.008512
-0.109380
1.769646
2.209182
2.705765
2.349221
0.182853
-0.879524
-1.233262
-2.387054
-3.357082
-4.503860
-5.244065
-4.455002
-3.280407
-1.922983
0.609974
3.576391
5.494461
6.940494
7.877551
7.051309
6.213844
5.220203
1.332853
-3.243030
-5.998333
-7.433851
-7.082924
-6.043464
-6.521115
-8.004327
-9.052209
-9.002179
-7.883930
-5.987603
-3.165906
0.460053
4.024991
6.133605
6.157216
4.960405
2.815780
0.563375
0.302454
1.393350
2.877726
5.661079
7.896412
7.760106
6.733967
5.508399
4.895847
6.115799
7.333880
6.963075
5.012268
1.324347
-2.173029
-4.303860
-5.877085
-5.481035
-3.907816
-4.653632
-6.703335
-8.352777
-10.326029
-12.016386
-13.730824
-16.434458
-18.467796
-18.284502
-16.436805
-13.381545
-8.743945
-4.368432
-1.939982
0.778610
3.628128
4.665718
5.616335
7.076396
8.148587
9.079799
9.178225
7.820795
6.616269
7.595643
10.144265
12.571779
13.147619
10.558078
6.102600
0.577734
-4.378770
-5.665827
-4.438628
-2.166121
1.065188
4.499901
8.576855
11.673731
11.338697
8.742843
5.777590
2.043377
-1.352063
-1.851223
-2.539759
-4.956758
-6.304602
-8.971997
-12.219912
-12.366272
-10.874180
-7.208943
-2.294294
1.659215
7.026029
11.936938
13.016611
12.631778
13.250636
14.754418
14.483912
10.525721
4.844445
-2.258319
-10.531705
-14.564477
-12.784113
-9.985563
-7.930020
-7.774080
-11.404720
-15.321295
-17.077115
-18.586279
-18.608493
-15.080261
-9.494847
-4.033813
-0.048040
1.611216
1.126084
0.685374
1.709637
4.388016
10.604448
17.435300
19.741006
20.507859
20.722716
16.741379
10.254204
3.784096
-0.519881
-1.068840
-0.483882
0.832161
3.111447
3.972052
4.761115
7.082018
9.101790
10.171877
11.354187
13.713199
15.826022
14.672931
10.494738
3.513783
-6.449958
-14.616266
-18.066648
-18.500813
-16.534814
-13.992038
-12.262642
-10.450482
-9.086745
-8.269860
-7.297734
-6.104669
-4.395380
-1.608987
1.297110
1.645933
0.535627
-0.088848
-1.937252
-3.545780
-2.989813
-2.262940
-1.357446
1.190942
4.999029
9.021274
12.066948
12.549971
9.930504
4.544747
-3.041977
-9.686264
-12.992861
-13.679059
-11.479731
-7.553109
-4.458571
-1.021754
4.372180
10.274623
15.435929
19.542342
20.554915
17.452189
12.406841
7.950662
7.798458
13.371480
19.610825
23.065878
23.746226
19.921767
12.365905
5.226435
-0.960779
-8.273726
-14.950745
-18.890699
-22.024287
-24.308956
-24.195567
-22.016346
-17.482084
-12.498231
-8.975376
-6.542952
-6.981325
-8.752108
-8.088828
-5.820763
-3.110588
-1.709210
-3.114100
-5.171051
-6.421636
-5.981398
-2.499926
2.207112
4.541575
4.328583
3.442488
2.207569
2.155897
3.883656
6.554085
11.844681
18.507666
24.614682
29.930060
31.493927
29.891011
26.266215
20.489783
16.640543
12.677442
5.140751
-0.857087
-4.315886
-7.778426
-8.862781
-6.733358
-3.635079
-0.733190
0.526974
-0.918597
-5.096791
-12.284657
-19.035789
-21.269491
-20.079699
-17.724662
-16.590982
-16.686842
-16.318146
-17.456975
-18.612638
-17.054616
-16.339432
-18.068600
-20.051437
-20.668664
-18.851595
-14.430959
-7.609225
1.165417
10.389184
18.031781
23.238443
24.493698
20.840847
14.014197
4.873423
-1.296022
-1.372009
-2.398615
-1.700967
3.912970
4.287511
1.079576
0.392911
-2.216503
-4.967599
-5.014361
-5.352434
-5.582961
-6.593436
-11.413403
-19.143444
-28.894897
-39.632273
-46.966730
-48.549306
-44.964496
-36.004919
-23.053723
-9.125955
3.240749
11.287814
13.870570
12.694567
9.920794
6.902468
5.830271
8.214767
11.922789
15.365918
19.105970
23.079352
26.724950
28.121419
26.955936
24.308414
18.809265
12.129441
7.114253
2.895846
0.308409
0.529111
1.508251
0.379476
-3.817188
-8.771121
-11.118682
-9.071322
-3.981558
1.758396
6.680994
9.187298
10.335006
11.243774
11.022832
10.535129
9.263269
7.490381
7.188313
6.627196
5.716086
5.230954
2.472611
-3.499509
-11.373336
-18.978530
-24.847312
-29.126740
-30.019614
-26.137413
-19.854348
-14.464856
-10.787696
-8.010655
-7.160337
-8.164265
-8.229731
-6.629391
-3.970418
-0.634835
3.638509
9.343627
12.811539
12.382285
12.075072
11.348662
9.742472
12.205991
18.146543
23.608746
28.385922
31.429492
30.240631
24.472849
16.757771
9.688206
3.800721
0.948625
1.914439
3.065654
1.660062
-2.689505
-9.045286
-14.878764
-19.958714
-24.943274
-28.064237
-29.515887
-30.694695
-30.423493
-29.134338
-28.487423
-27.612557
-26.285059
-25.053417
-23.774315
-22.741168
-22.297891
-23.961361
-27.046553
-27.858299
-26.481938
-22.851536
-14.833696
-4.876974
3.091067
6.280761
4.286701
2.554027
4.779774
9.268211
15.688749
23.172831
28.084207
29.263712
28.372240
27.392159
28.272403
31.740081
36.367394
39.844658
40.893938
38.736921
33.151970
25.616681
17.663363
10.486486
4.880258
0.018675
-4.442413
-7.508199
-9.612144
-12.477098
-15.781124
-18.383758
-20.942204
-22.181800
-19.521189
-14.302136
-9.656353
-7.823619
-9.163280
-10.577756
-8.603107
-2.218107
6.272940
12.100568
13.926288
13.180472
9.503306
5.531321
5.622032
8.290357
10.534575
11.442874
9.813071
6.919593
5.869139
7.038123
10.059248
15.401046
20.280859
20.535462
17.441854
14.131048
11.209748
9.586725
8.002746
4.529451
1.216074
-1.095015
-2.924481
-3.547554
-3.991771
-5.703638
-9.140226
-13.232383
-15.177579
-13.904555
-10.292624
-6.411592
-4.545191
-4.301343
-4.589151
-5.079426
-4.674726
-3.607444
-3.223318
-2.965208
-3.094735
-5.643128
-9.377808
-11.895573
-14.246174
-15.958508
-14.791394
-12.858361
-11.681195
-9.950630
-8.887790
-7.975750
-6.278852
-7.222227
-10.375921
-12.680697
-14.755884
-16.106300
-15.249903
-12.328375
-8.520055
-6.585385
-7.975312
-11.030110
-13.715274
-15.371263
-15.491438
-13.534090
-11.325410
-10.440256
-9.635061
-8.336787
-6.745332
-5.144525
-3.453706
-0.083755
4.489785
9.260649
13.924434
15.733321
14.755344
12.533566
7.702844
1.544855
-3.971360
-7.957139
-8.762105
-7.673782
-6.182158
-4.731682
-5.101786
-6.506910
-7.109175
-7.723129
-9.014628
-9.840169
-9.190917
-7.721737
-5.967325
-3.448630
-0.768849
-0.062550
-2.120670
-4.620667
-6.017140
-5.523363
-1.030016
6.076249
13.210570
19.925224
24.479125
26.841643
28.122382
27.114246
24.459709
21.970934
18.113978
11.889123
6.688534
2.629109
-2.906044
-5.817290
-3.468098
1.221639
7.634228
14.308435
18.620356
20.378508
20.073166
17.605200
11.841861
4.599286
0.210441
-0.554312
1.544717
5.800993
9.815991
11.998252
12.799706
13.015966
12.998429
12.861187
12.226191
11.001324
10.123413
9.139591
6.890926
3.830050
-0.064548
-4.848978
-9.520717
-14.021084
-18.116981
-19.857370
-18.782139
-17.098334
-14.961196
-11.713521
-8.813736
-5.712418
-2.165249
0.221351
1.571995
2.186178
3.776230
8.323584
15.077283
22.265845
27.554804
29.758574
27.357474
20.628318
13.758884
6.833339
0.952634
-0.324136
-0.799916
-2.911576
-4.439677
-5.744736
-7.261616
-9.724205
-15.302610
-24.374181
-33.706201
-39.598129
-40.845908
-35.873510
-25.944377
-16.494294
-9.868249
-6.217507
-5.522898
-7.462717
-12.570722
-18.325644
-19.956851
-15.349411
-5.577857
6.427864
18.329545
28.797815
35.613937
35.938913
30.472730
22.319749
12.289844
1.605540
-9.359087
-19.094174
-23.122504
-25.784054
-29.543283
-25.348028
-13.507836
-0.998750
10.859913
18.759919
20.451206
18.570538
14.625207
10.954119
11.768666
16.400655
21.178299
25.489284
28.440505
27.986468
23.978946
17.839427
10.612985
1.362793
-7.726780
-12.709470
-14.856900
-14.217467
-10.061724
-6.381290
-5.035789
-6.057954
-9.747277
-13.932017
-18.141306
-22.441776
-24.252070
-23.136159
-20.400967
-15.707490
-8.666922
0.043193
8.568373
14.865466
18.445601
19.523637
20.489919
24.775420
29.044789
27.954824
22.930284
16.045419
8.343901
2.277327
-1.674317
-2.753295
-0.872632
1.161401
3.639884
7.034383
8.429449
8.506365
10.084962
13.014439
16.079518
16.892195
13.962245
9.716951
6.640177
6.091452
7.975621
10.578250
14.884091
20.150606
21.253425
15.602308
4.678362
-6.254234
-14.572978
-22.621217
-28.035030
-29.259662
-28.214358
-22.531918
-12.987848
-4.078773
2.618347
4.507894
-0.652014
-9.584709
-16.804138
-20.191863
-19.781551
-15.719560
-9.503595
-2.717632
3.374888
8.012020
11.196570
11.614129
8.299115
2.552376
-4.030890
-10.079696
-13.626169
-14.268647
-13.459243
-11.105609
-7.666454
-5.845176
-6.405357
-7.769801
-8.587626
-6.780142
-1.795120
1.398782
2.284871
4.453572
3.528667
1.259662
4.465020
8.520932
12.789833
21.351019
30.857681
38.454219
42.722419
42.465473
37.300655
27.252981
16.003121
7.262608
2.155538
-0.949760
-3.895375
-4.159335
-2.272360
-2.963233
-6.942933
-13.313210
-20.683204
-25.801964
-27.018647
-23.366503
-15.206981
-6.455251
0.690526
5.758547
6.998137
5.429822
2.451476
-2.129550
-5.834304
-7.726662
-8.450034
-6.838238
-5.637224
-6.896459
-7.560680
-7.917925
-8.687354
-8.215788
-6.928970
-4.523199
-3.137252
-5.467745
-7.144075
-5.734280
-1.985577
5.133313
12.975572
18.711785
22.444356
24.593184
25.005366
20.968853
13.454139
7.281654
3.028412
0.785358
1.640586
4.275946
7.450209
10.473205
11.947294
11.429430
9.987833
7.507242
3.036801
-2.384025
-7.910761
-14.815031
-23.403342
-31.036826
-34.912252
-34.995954
-31.967581
-26.612457
-21.302690
-15.686882
-8.174511
0.126224
9.755629
19.173214
25.757878
29.672576
28.535384
25.587899
21.934814
13.627293
10.976964
10.856790
0.122687
-6.278217
-3.317879
-3.781735
-4.333500
-4.372079
-6.488882
-6.316576
-6.537050
-6.869746
-3.200067
-0.827495
-2.672626
-6.248557
-11.954382
-16.611627
-16.464571
-15.758038
-15.691876
-12.575128
-11.341850
-13.942847
-11.878186
-6.458768
-2.351421
3.501224
10.107864
16.674759
23.881323
28.903519
30.017794
28.559364
27.523406
24.979923
22.450701
20.507609
11.015672
4.888544
5.242277
-4.903359
-11.237397
-6.640244
-10.309928
-16.160006
-16.973857
-19.650137
-22.433730
-23.071532
-22.791913
-21.267090
-16.477990
-13.189400
-13.103131
-9.049791
-6.403910
-3.517686
4.407104
6.378246
13.985305
28.775785
27.268257
25.550546
34.563194
36.589980
39.930005
43.520193
33.650906
22.257963
11.051823
-3.173574
-7.595852
-5.620969
-4.468118
-2.033823
-4.721559
-10.963481
-15.006073
-20.728731
-24.643903
-24.430682
-22.745007
-16.745070
-10.412440
-6.328940
-1.288040
-1.050504
-6.004671
-10.287138
-16.072922
-22.610364
-25.331767
-23.188316
-17.490679
-13.148366
-10.893627
-6.064548
-1.833989
-2.834878
-3.950093
-1.748661
1.118392
3.092106
3.891222
5.991420
9.859593
11.665441
12.515057
14.386602
16.248093
18.253603
19.327665
18.494175
14.879433
7.836054
1.656088
-1.030713
-2.463659
-2.155985
0.708730
2.851713
2.342734
0.869809
-1.493417
-6.801553
-14.082704
-19.644977
-20.994691
-18.002790
-12.158329
-4.972339
0.772992
2.503791
2.294072
1.603432
-1.008788
-3.977080
-5.281906
-5.402080
-4.730383
-3.246709
-1.088763
1.451910
5.311666
11.191898
17.001056
21.574128
24.781356
25.701813
26.042219
25.960388
21.350137
12.496933
3.218452
-6.096034
-14.465044
-17.899762
-15.357921
-9.227292
-1.264861
6.529470
12.041237
14.050021
11.050399
5.016557
0.755833
-0.409649
1.156790
4.391840
6.862139
8.304899
8.828602
7.651196
5.454435
2.810886
0.159622
-1.468544
-2.872733
-5.541766
-7.919019
-7.885355
-5.331356
0.244472
7.007756
10.598412
8.478336
-0.853685
-14.571041
-26.588924
-32.896543
-30.896644
-24.756663
-20.499451
-17.612058
-17.755612
-22.150068
-27.788560
-33.923870
-38.553760
-40.364055
-41.885610
-43.417219
-44.427927
-45.255806
-45.069706
-43.416295
-39.850421
-33.940029
-27.519024
-22.809882
-19.558466
-15.101358
-6.805532
4.004783
13.936020
21.789034
27.562187
32.386825
38.634820
47.651677
58.098437
67.543376
75.064865
78.077107
74.174560
64.928811
50.681670
33.576358
19.060117
7.414673
-2.779125
-10.787151
-18.198995
-26.282070
-33.242218
-38.921390
-44.268804
-47.938488
-49.744809
-48.687580
-42.326427
-34.224887
-28.330626
-24.702096
-24.607410
-27.457869
-31.098096
-32.931536
-29.761014
-24.356326
-20.694830
-17.448557
-14.813665
-15.253440
-18.286027
-21.254554
-21.896096
-19.606756
-15.624724
-10.875836
-4.958430
1.259873
5.691497
7.379277
7.129579
7.401950
10.556106
17.482114
26.076498
31.937325
32.977721
28.566431
19.503044
9.959436
1.761333
-6.146863
-13.746913
-21.916961
-31.228875
-38.221988
-39.448257
-37.016768
-33.190445
-26.532135
-17.563675
-8.153104
1.205096
9.698247
15.859036
19.519363
22.513368
23.864948
23.131523
23.186930
21.655555
18.455569
19.156958
22.347821
26.285198
32.759041
38.397527
40.645953
41.125001
38.844540
33.315933
27.966883
22.603103
15.053553
8.691225
5.595747
4.136849
3.919649
2.155646
-3.475598
-10.109598
-15.659948
-18.975897
-18.186600
-14.569292
-10.662542
-8.563046
-9.532138
-11.646603
-13.967979
-17.348456
-21.164264
-25.430366
-28.595983
-28.294855
-25.974420
-22.229926
-17.251216
-14.086772
-13.823052
-15.709798
-17.794104
-16.122924
-10.915560
-6.540281
-4.064136
-1.283588
2.976195
7.735603
9.984263
7.819765
3.253000
-1.262797
-4.125179
-4.362954
-3.886244
-4.360387
-4.674146
-3.933011
-2.279834
0.502351
4.069627
7.583130
12.071801
17.696259
23.577660
30.467429
36.474145
38.670668
37.039929
32.743902
26.627061
18.410955
10.949079
6.542465
2.194067
-1.900427
-4.731714
-7.090965
-6.851092
-4.570402
-3.080181
-3.121332
-5.410678
-9.393183
-12.576570
-14.168965
-16.315227
-19.557530
-21.693271
-22.179104
-21.889199
-21.109254
-20.849274
-22.226342
-24.755798
-27.700477
-28.605275
-26.672242
-25.657798
-21.778637
-12.791473
-7.962159
-6.120775
-1.905880
2.222743
8.336071
15.027814
18.571710
21.895369
24.180735
22.552568
17.641654
11.763520
6.610626
2.093426
0.403303
1.993355
3.322724
3.161401
1.896088
0.106133
-1.663014
-3.349396
-4.027177
-2.784781
0.577221
4.886569
8.200877
10.240989
10.757912
8.328054
3.704944
-1.194981
-5.965851
-8.224335
-5.635969
-0.006835
6.759957
12.822317
15.788267
15.110252
12.078600
10.020714
10.324180
12.410350
17.101724
21.681108
22.448428
20.042651
14.784782
6.925216
-0.903488
-6.931252
-11.791198
-15.626645
-16.516714
-13.910812
-9.240948
-3.309281
3.020544
8.278875
10.958423
10.752445
9.411147
8.325858
8.704607
11.825330
15.491034
16.610921
14.378855
9.774683
5.758277
2.124597
-2.071365
-3.718937
-3.642488
-2.861608
1.278939
7.321894
13.438729
18.578058
21.144916
21.504493
19.343970
16.404902
14.592503
12.327004
8.221522
1.728969
-4.418967
-10.142093
-18.059873
-22.829340
-23.987341
-26.549294
-26.688874
-23.027377
-17.659395
-10.105174
-3.915628
-0.597113
1.710698
1.086456
-2.619935
-5.450755
-6.371217
-6.926255
-6.064948
-3.611950
-0.285251
5.360950
10.872951
14.178842
17.232933
18.111774
16.201414
14.468038
12.887566
11.698471
12.329253
13.622149
13.503845
12.678772
12.632243
11.777478
9.359076
7.994165
7.590628
5.229039
2.433990
0.485755
-3.564552
-6.957654
-6.395842
-5.746590
-5.863023
-6.095888
-7.642460
-7.981235
-6.888469
-6.274754
-4.567803
-2.679893
-2.282440
-2.706551
-5.451100
-10.683485
-16.132133
-19.374436
-17.379915
-11.142440
-3.788350
3.670482
9.341465
12.298998
13.677698
14.244653
15.460397
18.385899
21.114077
21.680331
21.096069
19.664759
16.320520
11.466185
5.960724
1.251343
-1.909365
-3.514619
-2.921011
-1.711814
-1.142520
-0.814272
-1.690547
-3.609791
-4.677780
-3.877962
-2.121212
1.369145
8.691205
16.668832
21.686353
23.554156
22.566828
19.643658
14.916041
10.613467
7.396881
2.353170
-1.073833
-0.690876
0.568120
3.378360
7.584604
12.006409
15.564801
16.489700
16.509336
16.228777
14.341329
12.357556
10.632364
7.000788
2.143179
-1.722661
-6.158499
-10.970517
-13.044536
-13.871947
-14.627348
-13.379108
-10.503638
-6.978679
-3.008570
0.133662
1.358056
1.809749
2.118359
1.131264
-0.008033
-0.546003
-1.892444
-2.988722
-3.062838
-3.034786
-2.498457
-2.784394
-5.325072
-7.152200
-6.518145
-4.546067
-0.711327
4.373059
9.168940
13.370741
15.541313
17.020311
20.599043
24.353357
26.845867
28.028411
26.617909
24.268945
22.486005
19.442195
15.383472
12.617180
11.698120
12.050918
12.954308
14.275727
16.361430
18.028869
18.874277
19.559067
18.315263
15.030642
11.223719
6.333612
1.496344
-2.700787
-7.013180
-9.828102
-11.340539
-12.019957
-11.098564
-10.218788
-8.945765
-5.687569
-1.994510
0.804742
1.669789
0.074822
-2.599120
-5.633812
-8.751033
-10.778760
-10.627963
-9.051939
-7.850925
-6.893294
-6.836951
-8.514216
-8.979475
-8.125416
-7.847668
-5.613738
-1.551279
1.403448
3.553913
5.145835
5.386176
3.683428
0.121524
-4.160709
-8.384493
-10.816689
-10.448929
-8.862851
-6.278225
-2.859878
-0.075355
2.159043
3.358654
2.742362
1.298193
-1.094491
-4.808129
-8.617625
-11.976593
-14.150676
-13.333557
-10.200209
-7.293177
-5.148323
-3.866182
-3.468729
-2.341361
-0.244904
2.623552
7.314224
12.701144
16.732741
18.288893
16.029707
10.471175
4.691002
0.826564
-1.925700
-5.229024
-9.871539
-16.144790
-23.448619
-30.433783
-35.207224
-35.631101
-31.812260
-26.356603
-20.562408
-13.176288
-5.326080
-1.132695
-0.982132
-1.748522
-1.451135
-0.504960
0.029498
2.106550
5.585918
6.558980
6.660211
8.308713
8.318296
5.718702
2.949370
0.461998
-2.405294
-4.390235
-4.267261
-1.850735
2.803932
7.474264
10.742980
12.669935
12.423743
11.319282
11.705980
15.393428
21.277167
25.419117
28.201302
28.649488
23.941744
18.360767
