EVENT_NAME: 202302060117
EVENT_ID: 13194
EVENT_DATE_YYYYMMDD: 2023/02/06
EVENT_TIME_HHMMSS: 01:17:32.00000
EVENT_LATITUDE_DEGREE: 37.288
EVENT_LONGITUDE_DEGREE: 37.043
EVENT_DEPTH_KM: 8.6
HYPOCENTER_REFERENCE: AFAD
MAGNITUDE_W: 7.7
MAGNITUDE_W_REFERENCE: AFAD
MAGNITUDE_L: 
MAGNITUDE_L_REFERENCE: 
FOCAL_MECHANISM: 
NETWORK: TK
STATION_CODE: 3125
STATION_NAME: 
STATION_LATITUDE_DEGREE: 36.23808
STATION_LONGITUDE_DEGREE: 36.13264
STATION_ELEVATION_M: 156.0
LOCATION: Kahramanmaras_Pazarck_Turkiye
SENSOR_DEPTH_M: 
VS30_M/S: 448
SITE_CLASSIFICATION_EC8: B
MORPHOLOGIC_CLASSIFICATION: 
EPICENTRAL_DISTANCE_KM: 142.15
EARTHQUAKE_BACKAZIMUTH_DEGREE: 
DATE_TIME_FIRST_SAMPLE_YYYYMMDD_HHMMSS: 2023/02/06 01:17:36.5357130
DATE_TIME_FIRST_SAMPLE_PRECISION: millisecond
SAMPLING_INTERVAL_S: 0.01
NDATA: 12501
DURATION_S: 
STREAM: HNE
UNITS: cm/s^2
INSTRUMENT: sensor = GMS+/GEOSIG | digitizer = 
INSTRUMENT_ANALOG/DIGITAL: 
INSTRUMENTAL_FREQUENCY_HZ: 
INSTRUMENTAL_DAMPING: 
FULL_SCALE_G: 
N_BIT_DIGITAL_CONVERTER: 
PGA_CM/S^2: 1121.948
TIME_PGA_S: 
BASELINE_CORRECTION: BASELINE REMOVED
FILTER_TYPE: BUTTERWORTH
FILTER_ORDER: 
LOW_CUT_FREQUENCY_HZ: 
HIGH_CUT_FREQUENCY_HZ: 
LATE/NORMAL_TRIGGERED: 
DATABASE_VERSION: 
HEADER_FORMAT: DYNA 1.2
DATA_TYPE: Acceleration
PROCESSING: Automatic Paolucci et al., 2011
DATA_TIMESTAMP_YYYYMMDD_HHMMSS: 
DATA_LICENSE: U (unknown license)
DATA_CITATION: Turkish Accelerometric Archive v 1.0 - Disaster And Emergency Management Presidency, Earthquake Department
DATA_CREATOR: AFAD
ORIGINAL_DATA_MEDIATOR_CITATION: : AFAD - Disaster And Emergency Management Presidency
ORIGINAL_DATA_MEDIATOR: AFAD PROCESS SERVICE
ORIGINAL_DATA_CREATOR_CITATION: AFAD PROCESS SERVICE
ORIGINAL_DATA_CREATOR: network: TK
USER1: GuestUser
USER2: 
USER3: 
USER4: 
USER5: 
[...]
8.676601
6.795400
4.775742
2.147708
0.421588
0.688667
3.852678
3.709584
0.556558
3.166485
9.401472
8.779885
0.479818
-6.484522
-11.269929
-16.101314
-16.923442
-13.460178
-12.311966
-17.890964
-24.774776
-24.000110
-15.604633
-7.884033
-5.493351
-7.687573
-10.399252
-7.602293
-2.310523
-5.037009
-12.301641
-10.068638
-0.751244
3.184797
1.530633
0.948271
1.525513
0.934059
-0.122639
0.569680
4.793804
8.849339
13.195035
23.323164
32.936693
33.685382
31.781321
33.915352
34.345046
30.866272
26.187370
17.825998
9.976109
7.492765
3.672656
-1.103399
-3.308012
-5.931370
-8.313664
-11.581247
-14.667252
-17.672729
-21.914961
-20.637125
-17.646639
-22.515691
-31.420497
-36.637898
-37.472495
-34.064561
-26.476962
-23.383608
-23.807252
-15.716222
-6.719123
-9.026603
-14.169710
-11.415094
-3.884124
1.628189
1.006862
-3.325509
-5.590388
-10.835065
-19.183188
-20.396786
-15.984850
-14.290346
-14.727238
-13.594872
-11.780355
-11.035043
-11.259964
-7.259500
-2.127747
-3.330435
-5.018629
-5.046906
-4.133264
0.379982
7.941864
13.898900
15.563011
21.733316
35.413252
44.527767
41.343050
34.941887
32.917294
30.350305
29.171776
34.284826
40.604757
41.648802
38.329526
37.044751
36.915684
34.859919
37.017849
42.898773
45.880427
43.750368
36.131412
26.639530
18.590139
13.874091
12.272659
13.254620
13.939925
5.580891
-9.272341
-21.162141
-24.127354
-18.323581
-14.314285
-14.370097
-10.426783
-3.601602
-1.840078
-1.590144
1.229415
0.898249
-1.564313
-6.107097
-13.670721
-20.093446
-23.748083
-22.755212
-16.629846
-10.051965
-9.585904
-9.074643
1.006729
10.645195
8.662685
0.394829
-5.720850
-7.658940
-9.296220
-12.291825
-9.151193
-0.063175
5.133261
5.300589
8.420180
18.763137
26.474646
25.509386
22.832256
19.151382
6.108472
-16.156978
-30.036340
-32.745682
-35.512952
-31.386241
-20.119808
-11.656012
-5.037607
1.043598
2.451838
-2.085231
-3.259864
1.271826
3.800964
6.446998
10.751130
11.969220
10.116073
7.881847
4.643099
-0.617164
-4.916805
-2.485859
4.503755
6.405553
2.429064
0.218217
5.292042
12.103974
11.926331
4.198013
-4.903438
-6.063004
-0.942421
0.592585
-0.703878
6.609925
20.316358
20.550187
12.214012
16.689072
19.853343
5.323262
-1.856945
5.925480
-2.745016
-20.540120
-16.763836
-5.312709
-3.572226
-6.332482
-6.127227
-1.726721
-7.391182
-25.213043
-34.985734
-26.978609
-19.802483
-25.260689
-27.199559
-17.940872
-5.542371
-3.392754
-13.029067
-18.767822
-13.375002
-10.532584
-15.855191
-15.126504
-13.863734
-16.907657
-12.087365
-0.822232
10.153261
21.492428
34.458262
40.623372
33.812035
25.932533
23.522184
19.626482
18.240398
26.032695
28.717694
19.804315
14.700692
5.702889
-7.254557
-1.053339
15.795506
23.551954
25.250354
24.875287
16.346884
7.058660
1.745665
-3.130920
-10.630902
-17.500427
-7.552057
7.433473
15.115887
21.336587
22.529739
16.856965
7.294426
6.641408
6.155160
-11.692937
-27.962943
-38.417785
-56.576045
-71.148728
-67.098908
-48.181531
-29.046208
-10.413277
4.561602
3.538674
-1.964472
0.611944
8.897540
16.532677
12.365777
3.591634
5.440180
14.209464
18.699850
9.396559
-1.870837
3.497045
13.881306
12.970598
6.182900
-4.529112
-16.431901
-10.423691
-2.722053
-12.773216
-15.176551
-2.749475
9.318341
14.601539
17.230948
18.630615
17.677045
27.333955
34.337077
23.427122
17.201561
21.777671
22.359589
12.615992
7.897605
15.266479
15.091174
4.666725
1.537858
7.600879
-3.822118
-18.073467
-4.628881
4.176510
-2.827315
-8.039261
-2.977385
6.126739
0.062755
-7.212788
-14.271423
-30.116450
-44.548858
-46.406161
-39.556302
-39.084266
-26.847341
-7.872036
-3.618298
3.318323
16.497167
16.529416
1.727877
-5.890299
-0.232775
5.781150
10.705868
20.841530
32.637889
36.528212
27.268562
14.599718
9.783918
3.712660
2.330733
11.227043
11.535945
6.633642
10.710738
20.484544
26.199736
19.659337
8.795880
12.863883
29.734809
30.949781
5.933129
-11.057474
-1.529408
1.790464
-13.290325
-23.625154
-19.858741
-7.609607
3.769305
15.044570
25.762892
24.833480
20.755421
22.193794
20.629249
11.226208
-5.505406
-13.266974
-12.822733
-18.656044
-13.952648
-8.386823
-18.379018
-22.848027
-16.082334
-6.128509
0.894875
2.222586
-1.772607
-8.650704
-6.482643
6.370192
13.429943
8.382950
8.801214
16.262566
15.711116
11.298476
7.928025
11.345051
15.399546
7.945803
0.444003
-1.448368
1.709928
-0.404285
-6.442813
-1.416525
-0.576918
-14.015973
-31.474938
-32.223291
-20.489536
-20.410009
-20.330742
-16.862543
-19.779179
-27.419436
-27.857367
-16.945777
-15.176200
-12.640048
-3.635675
-9.614715
-18.869429
-18.489611
-17.276976
-18.787229
-18.333636
-8.645034
-1.428644
-4.944824
-2.836250
1.875458
9.522544
24.966304
32.163992
26.939058
18.051915
8.960336
0.913543
7.379204
19.769912
26.464169
31.049111
17.638370
-0.884344
2.448256
18.395187
25.346355
20.120382
16.493020
13.506766
-2.372809
-21.145680
-22.216145
-13.366854
-13.133544
-14.528980
0.912183
14.844354
16.756024
27.448110
41.449119
42.785143
23.587292
1.352235
-2.510996
-8.646676
-30.902515
-33.647185
-14.247159
-17.672941
-30.405168
-25.739179
-11.298122
-5.147819
-11.404292
-10.083074
-2.532362
9.127619
13.244718
2.885211
-5.319521
-5.503918
-2.810866
-11.206787
-17.940454
-10.737051
6.325063
19.411949
14.132204
7.526084
2.896018
-6.392206
-17.308395
-16.816097
-0.520818
5.002925
1.967055
8.529870
15.009039
15.192473
25.812603
51.825541
58.331726
46.140596
47.208020
45.366823
30.566064
20.706870
17.044180
9.523417
-4.047341
-19.264249
-26.815924
-18.221984
-11.906988
-20.566574
-30.710993
-33.182907
-20.659197
-11.430125
-23.713993
-38.365125
-36.197324
-20.232989
-17.563316
-22.685382
-14.551231
-10.314638
-19.775608
-32.875926
-32.378953
-18.706290
-9.919602
-14.194565
-17.965059
-1.704328
20.251295
17.566631
-4.430739
-5.686419
11.958615
20.545281
24.799279
22.993929
13.386970
8.259709
11.236427
16.014376
18.873940
29.719288
43.667305
39.022433
23.910212
19.825659
21.225586
17.096093
15.391274
29.844020
45.768091
32.689593
7.215490
1.746114
6.987229
9.937192
8.403040
4.479543
6.882954
14.536534
23.587666
26.704399
19.095055
15.456524
21.660599
20.490382
11.823003
10.683959
12.267022
4.812500
-10.586245
-12.164557
0.964412
-3.446929
-16.261503
-13.235429
-7.235271
-2.899187
12.145829
30.076088
32.391438
25.862209
22.300309
14.555885
-2.318341
-20.141240
-15.113135
6.069159
8.276964
-5.659547
-17.700012
-14.345591
-4.131998
-0.843558
8.280568
14.817926
9.409855
6.648820
3.185632
-17.822282
-43.256381
-51.613597
-43.457626
-30.912356
-29.938448
-29.199111
-22.539143
-22.235436
-14.812011
-4.692973
0.116148
16.442081
30.782347
26.479589
11.521670
3.871802
9.738699
15.720153
24.875451
30.333992
32.672721
42.136104
37.411223
24.125690
19.208062
20.934777
22.875281
10.592452
-0.855742
10.416665
18.864616
-0.836146
-21.068133
-12.019339
3.678215
-5.536235
-24.753309
-42.090702
-46.069010
-29.468763
-26.901438
-33.568344
-35.140162
-17.844516
17.701125
23.048746
10.463027
-2.058528
-5.397027
13.785313
11.237287
-7.947835
-8.054562
-4.110208
-4.795178
-2.179797
2.942345
-14.297115
-39.615618
-29.739463
-20.015013
-39.344826
-55.114000
-44.709737
-39.452257
-62.673393
-62.849997
-46.387947
-52.719752
-54.509515
-30.599918
-2.930700
-2.378655
-10.456361
-14.870300
-17.571588
-10.284800
-14.045942
-19.387512
-7.656095
6.001241
9.003936
-0.869545
-0.786641
18.392322
34.676172
39.797275
33.143617
23.391448
21.399325
22.842374
25.009136
19.869146
4.349349
6.647813
33.474085
46.650591
36.595012
19.499723
1.981791
6.232931
30.303844
38.324996
36.561210
35.806102
29.933047
29.149105
23.158115
3.452938
-15.817908
-16.214276
2.024588
13.510264
0.857526
-19.440182
-11.964283
3.329591
1.561389
3.011970
3.567132
-1.195415
6.312435
22.231052
24.684078
14.814753
5.264683
-8.512331
-13.750253
0.230494
5.711635
6.502926
17.555569
22.117652
25.992388
21.591437
2.390210
-3.348286
-2.621677
-8.441480
-8.461444
-4.210044
-12.995358
-22.983397
-16.783218
-21.987630
-26.709134
-23.760731
-36.092136
-32.917474
-27.596610
-42.947298
-43.347043
-36.922944
-47.287906
-58.978204
-57.558015
-50.814662
-52.268805
-54.546153
-42.918383
-19.169322
-13.480887
-26.040108
-24.250010
-13.260230
0.476076
9.328485
26.679981
47.783565
36.658002
13.404395
-7.209191
-6.507260
4.826192
0.802425
1.244068
0.314656
0.707723
-1.167244
-15.474964
-35.945677
-23.519641
16.676106
-1.984285
-43.584781
-36.421902
-6.435035
-3.950057
-23.377283
-27.040492
-27.005386
-10.548011
16.590761
14.385109
8.082398
17.593319
27.336472
31.181595
26.073037
14.453396
1.064215
23.218041
63.093754
54.056466
25.195768
5.999476
19.499393
38.498597
33.681498
59.993429
63.292000
12.805362
-10.706974
14.345083
12.172681
-32.381636
-12.617935
48.584205
63.865091
43.640377
24.006636
21.979445
32.190180
65.948878
65.732789
21.602153
39.686715
106.747400
107.246712
41.576899
17.699849
6.173465
-28.404725
-41.799880
-5.886148
79.912378
87.263068
-4.308464
-34.910646
27.110023
46.304832
9.131041
-10.248388
-32.705547
-40.794942
-13.296651
16.946088
27.105130
16.904601
18.076712
46.999570
40.286425
-18.360821
-65.225515
-18.955095
65.453932
30.619091
-44.807345
-74.237454
-78.648795
-51.027634
-18.134743
-11.031351
-1.344827
-26.365116
-114.731372
-114.102176
-66.157812
-62.060714
-56.256422
-32.840124
-38.921253
-95.334496
-37.893276
20.178920
-23.525956
-43.380240
-64.866387
-24.030312
5.122441
-49.625170
-45.745238
16.856012
72.583803
88.745821
15.852382
-106.918057
-123.765268
-63.163971
-46.233299
-24.585501
20.006818
-18.156429
-68.766457
65.254347
143.927698
-8.857625
-82.931450
-35.502465
-34.735073
-26.637030
59.658951
115.960569
50.894977
-30.599119
-10.359783
14.352237
-10.767283
10.064584
16.154101
29.962103
-10.459047
-130.519587
-111.076439
-108.932017
-97.747412
-11.023074
15.073510
33.962052
-103.961689
-154.553272
-84.118980
-131.946114
-93.307156
-91.760200
-51.312738
-0.623146
-52.209901
-11.084964
-19.858328
17.006675
71.058183
14.450894
37.090485
72.922131
42.583614
-52.137605
-51.232795
54.803990
0.541106
-53.333425
15.481474
55.738007
1.659558
-72.604417
-34.882180
29.633300
-2.707769
-67.335392
-73.776820
-65.781905
-99.429606
-199.835585
-173.440789
6.897935
52.365672
-8.677415
-100.704839
-148.953576
-64.165548
73.368617
98.102977
13.565960
-5.013383
84.840899
80.470342
-110.068873
-182.503042
-69.432781
-8.238954
-89.527313
-162.687534
-121.453235
-169.373365
-386.845058
-277.452072
-10.140450
-119.037204
-251.653367
-148.758475
98.041611
-2.385409
-261.307490
-171.656607
-152.778455
-107.615945
-34.909983
-63.847312
137.314148
107.691291
-28.915946
39.086658
-98.247669
-32.710522
85.462620
-14.314722
-36.407686
-49.459687
-73.197762
-159.930077
-169.472614
-61.768120
57.079120
9.828672
-173.482241
-98.292377
75.549810
-5.953377
-193.682162
-198.261054
-107.903342
-134.570559
-212.027601
-231.390405
-195.932045
-151.859522
-127.309337
-52.690184
-59.853766
-211.600018
-124.651240
167.235726
227.201111
27.387662
-13.264422
153.042417
56.541529
-73.632036
-20.207867
-3.761403
36.253546
-13.156873
-41.505309
-158.923229
-260.594798
36.863151
58.451721
-78.957939
4.001583
25.930449
161.326205
148.782050
-10.923492
31.146741
148.723975
241.858087
120.772762
-57.959480
-64.591837
30.384549
111.791178
-138.188392
-343.436186
-128.854596
-78.904823
-141.869412
-46.118139
-109.609018
-191.834880
-130.585722
88.176574
181.696181
-75.251923
-33.764610
162.056801
70.871544
-95.859421
-83.976300
234.729367
243.801539
3.704580
-48.613162
-78.572938
18.463668
29.750622
-87.477928
-229.135314
-276.331990
-135.688663
-112.759690
-158.123444
-223.131628
-286.960725
-488.898037
-451.385173
-27.798208
-81.841328
-366.237031
-358.039756
-108.016209
100.150932
-58.918438
-322.260730
-35.132712
624.416784
826.377550
685.304123
596.924619
695.330981
793.295737
763.747433
614.303245
164.091961
-47.706920
90.906321
52.338875
-65.856531
-110.379676
98.803677
303.246006
221.647744
55.532689
-220.900867
74.652983
625.537660
413.635911
187.970099
279.752378
405.459829
423.799742
167.885254
17.262238
-9.243144
-41.361332
104.401502
233.671150
163.575152
50.380798
-69.983671
-175.731518
-69.427432
162.002966
198.696522
-8.044418
-231.404530
-348.006001
-476.109475
-358.614068
-79.096991
-46.404900
116.344937
182.660089
-58.242411
-137.107654
-249.462439
-323.176225
-79.342169
42.118336
-195.429001
-277.579010
-40.874544
111.028683
184.849050
393.555210
691.996900
803.585445
797.009458
885.354228
730.873139
209.090338
-227.286485
-226.083202
38.595672
258.713436
303.361346
236.642330
173.854123
82.427801
-15.440246
-47.623375
25.607318
-12.025742
-173.168580
-159.232512
37.685639
273.188678
311.548126
232.689896
203.329404
147.609742
166.236179
291.459163
476.266154
508.830439
326.862267
191.153048
113.380907
182.091899
293.194677
265.094840
250.480854
184.955212
143.481483
219.355055
208.478350
178.878872
348.185511
530.410929
475.833726
190.119961
-362.550805
-946.553739
-1121.947964
-718.587309
-215.037023
-185.222381
-190.682665
-20.512557
-36.868027
-121.891330
-206.104156
-381.638136
-439.819879
-266.101861
-187.776858
-115.485745
2.939372
-87.859871
-101.380753
-68.699053
-72.966483
-98.522933
-210.870444
-188.328525
-134.524835
-38.110634
-73.943503
-270.435039
-234.166464
-247.280809
-270.700149
-229.199588
-232.831105
-116.947818
-82.018865
-88.232216
-93.135298
-252.741348
-144.831117
188.641836
218.934191
245.250537
332.513894
429.834686
557.690677
402.718367
306.546345
278.255578
225.169703
301.162249
306.237373
342.029274
389.698804
317.475046
176.453053
129.390677
188.650272
158.351499
109.055638
65.627934
35.968449
123.025031
242.327904
296.984152
220.780490
67.548365
-29.487905
-179.035221
-314.840815
-286.998591
-205.828351
-65.001368
-6.257931
-89.208026
-164.284035
-241.445721
-190.395311
-121.235960
-142.873292
-111.275603
-143.858516
-186.980992
-177.348240
-211.850578
-259.682907
-298.698972
-235.402323
-144.493643
-168.728914
-235.236738
-246.118898
-198.846034
-252.157907
-399.238727
-385.397215
-146.330939
-48.999237
-239.792505
-316.286587
-147.595598
10.616094
14.407964
8.279557
40.925149
30.560187
23.608316
29.240642
5.637127
-81.276766
-195.105993
-355.583825
-352.435659
-128.516191
-96.930452
-152.000954
-103.390025
-41.131669
0.795431
-93.335854
-219.766943
-209.648944
-94.989683
1.682208
-17.471222
-106.655487
-154.266494
-86.895645
19.894207
53.194414
-6.457095
-47.771587
21.718968
85.168360
84.232714
34.529277
-63.503203
-133.469577
-91.738342
-13.241373
20.071043
73.243497
118.430165
149.588846
173.967064
217.177418
336.082586
381.836327
307.805884
200.808553
97.653710
37.100026
92.275290
300.999114
418.040448
284.039202
79.667865
31.165855
186.809221
243.603099
101.363834
21.224428
28.509657
19.307417
-0.769749
-61.987139
-221.711124
-416.663276
-527.866769
-512.159604
-411.991496
-182.111393
45.977610
13.989566
-84.944828
-81.011125
12.361714
100.500489
40.571547
82.607750
277.736620
395.589987
410.757874
325.138145
242.578741
225.190434
248.230068
301.585138
306.348541
241.336980
128.273548
10.110613
-55.543354
-105.546563
-177.625630
-150.845857
-36.043464
32.565959
-68.592309
-321.299962
-340.072313
-150.827186
-42.161291
37.019907
114.298044
180.477857
251.256341
294.742569
224.343161
110.418859
24.727694
-59.502537
-69.195739
95.576911
398.540381
618.503064
545.721325
145.167538
-209.329657
-354.490792
-333.586710
-84.908761
120.430028
260.139229
326.079536
164.090375
10.072712
111.785660
376.667672
519.498765
364.185899
35.336111
-145.096313
-132.925628
-44.136135
70.921351
171.593148
224.476740
177.693874
92.951900
-16.604664
-109.998728
-79.574411
21.572242
194.170661
346.779937
251.635557
15.819313
-191.382714
-270.122491
-165.708996
-68.618878
-41.259823
-103.144817
-254.148392
-326.322794
-300.529100
-204.521695
-63.912138
-2.729221
-28.161242
2.286194
81.595976
128.690900
204.646559
270.692072
271.766769
255.233878
252.557267
271.304236
239.427892
195.888488
177.611515
141.456014
73.955617
-26.192673
-68.490646
-165.745381
-394.318516
-570.239290
-501.298404
-142.023742
105.403424
-12.538189
-190.023026
-221.776240
-253.812601
-300.762498
-247.824875
-219.998497
-227.428081
-255.832887
-328.991289
-255.187547
-113.445142
-66.955218
-7.820312
12.989215
-84.238244
-151.644605
-117.945135
-11.481551
78.151928
61.272766
11.971190
-30.653312
-47.158668
-49.498100
-56.965091
-17.067558
-55.419397
-198.019480
-247.785261
-132.090565
29.534997
74.748421
15.399021
-74.427390
-115.724997
-31.080620
103.266452
170.499104
137.608367
126.447216
180.144661
221.984479
241.394116
211.784247
138.114881
50.626641
15.662436
12.958550
-13.396427
-53.448706
-112.092056
-148.797226
-163.675136
-163.930970
-201.738595
-306.885858
-357.440295
-260.919849
-79.085382
12.830159
-32.040036
-81.836211
-34.529057
49.808014
77.058227
49.670153
-56.233295
-162.517563
-181.708140
-193.865760
-205.686722
-210.535772
-242.289245
-299.938723
-321.910116
-280.110562
-199.069686
-97.428954
-52.167213
3.537718
33.668497
-164.271246
-450.483506
-553.618088
-477.745554
-376.274710
-274.074958
-127.425796
-1.845372
19.116379
-87.288421
-229.578602
-233.500800
-145.636859
-124.621597
-116.493680
-30.356417
98.283813
217.114168
315.265697
380.559961
437.925849
515.865875
517.018503
383.836046
200.776329
75.776043
57.795724
65.916107
77.732728
121.376634
141.670782
156.757101
164.526538
147.662442
171.873630
215.119572
231.651500
229.624309
218.986590
207.344350
166.740583
103.166058
32.386091
-17.661799
3.878455
71.391137
163.825954
252.953925
300.320825
317.374887
295.056184
232.549825
182.739104
161.683653
136.431911
117.365502
113.860751
128.718475
151.141421
165.379079
215.582904
284.813691
312.404719
288.205297
222.802006
166.457602
141.300935
137.793586
146.816663
123.948551
109.895664
110.726180
85.811876
82.719637
101.970815
147.885613
184.390058
150.844445
68.457528
4.621417
1.894671
8.068613
34.535105
83.354628
146.554903
189.754866
112.113908
15.268308
-43.004094
-80.021505
-61.710426
-34.450342
-18.295597
-33.895662
-35.218882
9.298624
49.158231
76.899145
36.282910
-46.472619
-93.333415
-111.413485
-106.952193
-78.116876
-11.042682
45.045666
53.060843
39.760244
30.961423
58.273720
113.699920
179.118613
179.210089
94.417201
15.854067
-34.070693
-47.854720
-42.347083
-54.965272
-76.921858
-117.055964
-184.703910
-238.995368
-239.052999
-193.873864
-146.437346
-140.578762
-162.729135
-167.129566
-144.153574
-97.826785
-63.209035
