EVENT_NAME: 202302060117
EVENT_ID: 13194
EVENT_DATE_YYYYMMDD: 2023/02/06
EVENT_TIME_HHMMSS: 01:17:32.00000
EVENT_LATITUDE_DEGREE: 37.288
EVENT_LONGITUDE_DEGREE: 37.043
EVENT_DEPTH_KM: 8.6
HYPOCENTER_REFERENCE: AFAD
MAGNITUDE_W: 7.7
MAGNITUDE_W_REFERENCE: AFAD
MAGNITUDE_L: 
MAGNITUDE_L_REFERENCE: 
FOCAL_MECHANISM: 
NETWORK: TK
STATION_CODE: 2715
STATION_NAME: 
STATION_LATITUDE_DEGREE: 36.855364
STATION_LONGITUDE_DEGREE: 36.685618
STATION_ELEVATION_M: 431.0
LOCATION: Kahramanmaras_Pazarck_Turkiye
SENSOR_DEPTH_M: 
VS30_M/S: None
SITE_CLASSIFICATION_EC8: unknown
MORPHOLOGIC_CLASSIFICATION: 
EPICENTRAL_DISTANCE_KM: 57.62
EARTHQUAKE_BACKAZIMUTH_DEGREE: 
DATE_TIME_FIRST_SAMPLE_YYYYMMDD_HHMMSS: 2023/02/06 01:17:17.0371780
DATE_TIME_FIRST_SAMPLE_PRECISION: millisecond
SAMPLING_INTERVAL_S: 0.01
NDATA: 7156
DURATION_S: 
STREAM: HNZ
UNITS: cm/s^2
INSTRUMENT: sensor = ACEBOX/SARA | digitizer = 
INSTRUMENT_ANALOG/DIGITAL: 
INSTRUMENTAL_FREQUENCY_HZ: 
INSTRUMENTAL_DAMPING: 
FULL_SCALE_G: 
N_BIT_DIGITAL_CONVERTER: 
PGA_CM/S^2: 263.919
TIME_PGA_S: 
BASELINE_CORRECTION: BASELINE REMOVED
FILTER_TYPE: BUTTERWORTH
FILTER_ORDER: 
LOW_CUT_FREQUENCY_HZ: 
HIGH_CUT_FREQUENCY_HZ: 
LATE/NORMAL_TRIGGERED: 
DATABASE_VERSION: 
HEADER_FORMAT: DYNA 1.2
DATA_TYPE: Acceleration
PROCESSING: Automatic Paolucci et al., 2011
DATA_TIMESTAMP_YYYYMMDD_HHMMSS: 
DATA_LICENSE: U (unknown license)
DATA_CITATION: Turkish Accelerometric Archive v 1.0 - Disaster And Emergency Management Presidency, Earthquake Department
DATA_CREATOR: AFAD
ORIGINAL_DATA_MEDIATOR_CITATION: : AFAD - Disaster And Emergency Management Presidency
ORIGINAL_DATA_MEDIATOR: AFAD PROCESS SERVICE
ORIGINAL_DATA_CREATOR_CITATION: AFAD PROCESS SERVICE
ORIGINAL_DATA_CREATOR: network: TK
USER1: GuestUser
USER2: 
USER3: 
USER4: 
USER5: 
[...]
1.509160
3.632033
2.889254
1.323508
4.130707
-1.358859
-3.191367
-6.883967
-12.207068
2.460198
17.401474
13.419667
0.768658
-4.632298
0.679570
1.778646
10.160740
9.824768
-21.261623
-16.418986
8.024045
-12.899647
-12.450761
8.879960
-3.427367
-5.468656
-3.508739
-12.257205
2.962290
14.302855
6.791411
-2.979684
-15.203779
-7.086110
11.462892
11.350664
10.409391
11.547978
7.048778
11.327496
19.350712
22.429816
23.143828
11.558232
-2.918967
-0.300210
-1.774541
-12.746418
-8.219407
-3.471224
-1.195213
13.554583
9.038550
-5.301644
4.344825
1.418146
-12.161039
-0.831229
-1.159252
-16.806607
-10.917727
-6.114601
-10.719712
-8.962731
-10.641868
-10.170304
-5.051319
-1.048949
1.811321
-0.549803
8.909863
20.267495
13.634427
12.078969
4.145754
-4.728026
16.390174
19.345366
-0.580947
2.988431
-0.630990
-15.003215
-0.900102
18.211650
15.170410
8.733030
9.870449
2.688659
-12.106973
-6.010013
12.634378
2.160723
-18.567748
-6.296437
7.950929
-5.423449
-12.574611
1.759727
19.019571
16.861383
-10.936416
-17.654586
16.187329
26.476040
-0.123782
-6.412232
-0.255420
-8.635187
-0.978333
13.108649
5.342833
2.568356
0.599777
-14.049264
-13.429706
0.094759
11.768017
11.584714
1.634531
14.579179
24.627312
7.624167
5.746302
8.107649
9.162536
22.938100
4.168850
-17.446648
4.699792
17.821191
14.386236
12.936220
0.771509
-4.790300
0.915751
7.606789
5.567838
-7.177392
-1.491214
7.091011
-1.269118
5.381474
12.366863
3.061727
-2.975859
-8.612717
1.603049
13.539329
-8.775690
-15.319213
2.148944
-0.328845
6.405446
9.979733
-7.997412
-0.677459
3.871763
-8.180258
-2.438670
-11.180823
-14.060509
9.845022
0.448237
-9.112908
10.061969
-4.326387
-22.009883
0.646002
14.094950
7.361116
8.526122
14.128133
14.416400
9.868102
7.872637
9.586132
12.844559
14.201513
-1.766846
-15.660020
4.220691
24.348760
14.363741
-1.634544
-2.327525
7.527726
5.203776
-5.732564
-2.958332
-3.776861
-6.826051
6.986219
11.986202
9.947016
9.622734
-13.955492
-24.646812
-0.997056
5.334870
-1.955635
-5.768640
-13.187968
2.417292
16.646890
1.834425
2.236317
11.710244
6.828552
-2.601900
-17.795221
-14.321700
-5.544723
-18.269144
-11.649882
0.888660
-4.897360
4.627769
13.527490
6.396902
12.644661
31.053151
25.166831
-2.935138
-0.383012
18.316321
5.923658
-6.628221
3.383206
10.243981
-2.991521
-12.382461
7.431150
16.558590
6.016899
6.419025
-8.344342
-19.630443
7.093981
16.680599
-3.187030
-5.287704
10.313114
11.927946
-5.633039
-6.671338
1.199441
-8.685513
1.854530
20.003271
9.370166
2.893041
-4.484437
-11.463992
6.724494
2.240725
-26.092002
-29.331269
-21.115638
-12.031451
-6.875993
-15.151954
-8.022546
7.311744
-0.336939
-5.562781
-3.676510
-16.721936
-13.636285
1.628099
-10.696763
-10.494767
13.632170
8.756556
-8.747383
-4.420269
13.527407
25.895510
23.331216
18.978140
12.266750
14.876857
34.496417
25.320570
-1.801321
-2.195041
5.119301
6.854305
9.148552
8.148596
4.078647
3.220138
6.358627
3.972721
2.236771
6.739467
10.086503
11.528325
7.352233
9.262351
16.953574
6.348992
-0.265605
4.323830
-9.135417
-6.493981
19.917389
14.822006
1.022819
6.400384
-2.485320
-6.108014
14.079439
21.095222
11.439857
7.673845
13.220913
14.651981
5.367652
-3.628638
-7.623537
-5.846450
0.180838
4.900264
-0.748517
-14.224597
-10.834542
-3.076219
2.965097
19.454579
2.006050
-17.684595
7.563867
8.333990
1.029690
18.383521
0.259084
-18.799607
7.157027
21.430579
-6.480846
-16.646824
21.821705
21.911244
-21.309927
-9.912316
21.560999
12.690959
-1.018684
-4.405477
-9.768558
-19.427897
-18.866555
0.440885
3.402857
-5.701915
2.668255
-7.128791
-15.864397
15.827518
18.452822
-10.654242
-6.674316
11.691622
18.111690
1.279918
-23.159851
-14.840882
-3.349752
-10.011343
-6.599779
2.709321
9.526610
9.993498
6.452867
20.299504
25.530946
8.309902
9.882651
8.638142
-5.066591
1.317939
-4.699540
-9.376894
0.153846
-12.239752
1.057929
14.960211
-12.107673
-6.667450
4.759619
-0.879342
11.367421
0.255265
-10.534484
7.553703
14.057938
12.025299
-0.585965
-15.530292
3.233570
31.372001
16.514179
-14.784266
4.796015
28.711833
8.624902
10.702653
31.147049
24.253999
10.745655
9.527800
29.677144
34.332977
5.688832
5.607933
22.078945
16.777586
9.394965
-1.866120
-12.277351
-13.716145
-4.578185
8.673907
-8.867908
-19.238225
1.088572
-5.677994
-4.231028
13.820453
-14.764775
-23.007303
14.199188
12.174966
-4.636933
0.565752
2.422564
17.287856
27.061746
4.648765
6.998890
29.586272
17.054967
10.453462
21.372256
1.841529
-4.535531
23.498626
18.782930
-0.405051
7.715891
5.395214
1.271025
9.976695
-6.061336
-15.704076
4.347775
15.042358
18.478471
7.424765
-9.046492
0.019459
-14.161052
-32.991790
-3.962125
3.047112
-13.573307
-7.369736
-10.806795
-8.529615
8.769039
-1.601746
-20.533251
-12.186460
-1.638235
-19.912770
-24.676862
-0.109685
-8.658721
-22.987459
-5.589909
-8.504899
-17.640532
-6.724777
3.895926
18.585636
9.994049
-25.884485
-23.193016
13.089508
23.050903
10.229222
-1.178688
-12.052604
-9.256160
-1.301448
-14.885074
-13.224651
14.811610
11.736703
-4.320265
1.243169
-1.933440
11.748137
32.789885
-2.773958
-6.176415
40.550769
14.350974
-8.827458
25.991028
14.908097
-2.918716
12.510027
5.267918
-6.065878
-1.851687
2.837345
5.544010
-1.530934
-22.005034
-32.477286
-15.009363
-9.005454
-18.083574
-7.345271
-7.060979
-11.531188
5.647294
6.987415
-1.278259
6.485207
6.557211
-0.864688
6.277813
4.904014
-5.576889
17.311157
25.696992
-4.909180
-4.873882
-1.027923
-6.868885
13.265262
10.578459
-3.289699
1.908777
0.386986
10.129312
17.742915
13.686994
16.184177
0.350018
-8.455494
7.792476
15.317469
19.770132
13.224037
3.444994
23.895235
32.913725
11.195824
6.466100
10.193992
-2.237482
-10.770854
-12.502362
-5.391423
11.328583
9.143508
-1.233121
3.686435
3.532591
-11.490058
-15.344211
2.651393
9.714169
10.712945
18.942604
-5.735872
-32.571829
-19.762550
0.081922
16.394420
9.412760
-19.461675
-19.805596
-6.413928
-14.899605
-22.821363
-6.714374
1.722896
-7.924052
8.713657
21.424975
-4.773183
-16.770962
-13.376465
-17.652389
-13.059915
-14.647170
-21.721413
-15.882098
-5.995051
3.245313
-6.175320
-12.473356
19.104466
21.542499
-5.455246
14.943092
29.198641
6.420937
17.087698
32.480905
8.448645
8.393931
17.290145
-11.560677
0.982307
24.228530
-16.656538
-21.606266
9.925498
6.662618
6.012890
-0.832466
-13.205724
1.332019
-2.643008
-36.434200
-33.623494
-0.680530
-7.497596
-18.147301
-11.198150
-33.556188
-27.044005
4.880305
-6.062114
-20.564797
-17.784252
-4.479089
-6.725886
-21.997997
8.612372
25.608025
12.440792
25.247733
12.891074
-1.623299
17.420652
25.088729
25.923847
-4.996080
-34.980351
12.205309
36.243870
-5.341888
-5.715969
19.609179
19.716954
15.223832
6.037699
17.402812
38.914025
11.272169
-13.516659
-3.869020
-7.509717
-4.182553
3.370262
-9.572059
-15.778680
-16.641632
-15.104888
-8.970053
-14.433433
-19.790435
-18.769915
-17.396128
-13.087484
-14.577245
-22.612629
-17.824934
-1.822686
-5.464084
-12.749446
6.342433
18.462244
18.868111
24.265549
11.146244
-5.813649
6.478237
30.757142
21.512559
-16.270020
-16.536788
4.792064
-1.390243
15.487342
38.565231
-0.131261
-19.380497
10.762044
-1.188041
-21.903419
-15.487093
-9.231852
29.442184
39.213969
-2.220523
16.984748
36.867330
7.642432
24.074400
45.326800
18.649357
-3.781625
-9.577231
-12.064372
-10.693858
-4.197105
-6.829434
-17.577100
-11.236523
-2.712280
14.387412
45.637451
19.599444
-30.588652
-14.816927
4.540779
-5.417353
-0.115538
-7.935594
-12.475007
15.849993
12.673618
-11.890765
-4.016244
4.093710
12.323836
26.106880
-7.732240
-40.506647
-8.612731
9.350375
-3.870866
8.111940
12.036689
1.730666
9.701043
10.974064
-3.293887
-12.617260
-9.797671
-3.534247
-6.403880
-8.701879
-3.925640
-2.227810
-10.219240
-15.038742
2.456302
12.282094
3.557008
15.256686
21.133642
9.656762
17.174976
4.507133
-26.771673
-14.995311
10.671649
16.712497
21.423507
23.423169
7.468371
-12.870594
6.488282
35.074434
14.559654
-1.917214
8.407969
-2.573961
-15.022970
-7.890055
-8.138820
-14.175471
0.060205
19.185283
10.229440
-6.358248
-2.399364
8.423106
10.452928
20.355640
35.212983
20.736017
8.650329
14.246729
11.490955
27.493204
30.444655
22.290736
34.759840
-5.749282
-23.849404
26.238849
26.443883
19.898957
-1.389458
-47.794480
-1.729644
39.921567
26.738435
27.275696
-8.633232
-13.531524
29.843475
8.532848
-12.057215
13.097261
-0.431189
-23.925949
17.346978
33.736862
-20.241554
-6.036506
32.959470
7.847300
26.073194
25.950913
-14.794345
52.181786
85.163327
2.410779
-8.801208
23.084292
15.010799
21.382938
13.704563
-24.644039
-24.746448
21.636352
29.659334
-43.813099
-73.652883
9.671054
44.826676
-10.988686
-12.088941
10.661397
-2.385197
29.867130
40.589769
-2.549105
13.512294
-9.011506
-64.740597
-7.712306
-12.761397
-78.167123
-6.649246
15.209390
-54.692257
-6.192890
56.717506
14.725174
-13.151648
25.722051
36.047936
0.410213
11.898771
32.794163
11.268209
22.121774
40.338083
13.701087
-6.605613
-3.508273
11.946890
18.068866
-11.334419
-2.064363
67.325023
72.951817
30.449105
30.071985
27.674622
20.236824
15.458236
-16.980204
-37.404739
-30.163809
7.869389
32.000768
-11.663916
-25.702746
-9.213965
-15.339693
9.786260
10.561526
-12.396435
6.272505
9.970003
-0.636683
-22.391290
-38.022280
12.217708
38.168497
6.197417
-2.402821
14.810731
18.961796
-28.924097
-51.184174
15.541326
30.320113
-21.729476
-18.641487
8.235607
22.565270
32.738719
15.081876
5.399391
0.005916
-26.459472
-20.545342
-23.090231
-33.049532
24.421337
42.418110
21.330994
56.374627
43.184481
-16.462818
-15.710464
14.327336
8.379060
-28.198995
-24.794211
-4.893393
-15.382011
1.306198
18.062209
9.828097
18.631962
23.017993
31.030687
29.671151
-6.408449
-2.483466
28.675859
16.581521
0.657350
12.331310
32.395084
31.776451
4.584655
-16.499655
-21.502455
12.939384
39.002864
-18.707191
-28.573909
35.020345
30.144731
-2.390268
-19.392946
-10.287015
26.731971
-0.170619
-27.235463
-0.106102
3.249585
-0.818025
-18.985481
-40.898369
-20.568299
-2.664812
3.020899
-11.410711
-33.992259
-10.366583
0.770110
-22.785671
-7.103725
14.456118
-35.246146
-83.287515
-43.598565
-10.250663
-34.254868
-55.262493
-58.367560
-36.836474
-33.482190
-48.781187
-43.324130
-45.775500
-4.923174
-3.583989
-97.098692
-54.298835
53.887337
40.454042
-28.352966
-90.653163
-57.244474
-0.406494
8.318580
39.623327
2.006277
-12.008472
44.079954
-1.515427
-26.615206
10.913692
62.690896
126.445768
52.599728
9.317302
87.108661
56.996269
60.841527
103.863959
0.076906
-6.434120
77.559179
19.349265
-3.785213
44.373277
1.311322
-42.412980
-6.390438
32.675910
6.086610
-24.020639
29.716254
69.250665
21.228935
-18.733102
-7.387393
-5.408539
-13.906607
26.672877
70.873647
53.305180
2.285702
-35.719686
-18.048592
23.069561
15.440517
-25.842475
-26.414816
31.690813
37.078899
-18.317498
-14.876943
0.820668
-10.390618
9.233384
28.020625
17.179441
-17.479840
-39.663933
-18.556020
-3.399416
14.663989
33.248995
15.827119
28.161088
16.811628
-78.556619
-76.237824
27.924230
25.071898
-43.837747
-51.986055
-29.321052
-12.889085
-58.930318
-119.694934
-48.608413
-6.427885
-82.545266
-24.185734
58.042162
-51.166417
-92.380672
1.752414
-46.041831
-138.727021
-53.002688
27.043412
27.008336
68.867393
1.378067
-106.112336
8.249357
117.399242
38.567942
-33.583770
-27.894319
11.819414
32.307764
-2.314810
5.528147
58.721228
32.843138
-26.619695
-32.243693
-18.532892
1.451859
-1.306954
-30.751153
-8.968502
15.844397
7.027195
23.872516
-0.155535
-41.659933
14.713726
52.983527
3.987564
-17.226738
-26.080178
-47.774933
-16.307230
14.044560
-18.160084
-58.086583
-45.203191
-15.557235
-38.257552
-20.523568
33.957736
-2.284586
-0.945401
28.769057
-50.986210
-84.105936
-48.022840
-42.178849
-19.316288
17.466563
35.591223
1.390652
-43.515963
-34.790187
-50.342854
-67.674485
-19.671236
-10.521585
-43.811516
28.400271
141.232930
97.993055
-28.461111
-61.662666
0.832039
47.061936
15.851165
17.852230
28.840930
-42.730731
-37.944673
10.690998
-19.540397
-7.777127
13.246853
-2.878851
21.057307
3.447692
-48.071178
-12.141219
26.599216
-9.404867
-0.174557
53.334618
4.773518
-54.882198
17.063294
67.091695
22.815397
32.241864
44.985913
-15.111679
-2.444081
75.069760
85.052664
49.025201
27.041940
59.043637
61.879125
-18.078143
21.222003
104.909261
24.146562
5.609239
47.451463
-11.527176
70.400056
133.967657
-52.398929
-48.129095
92.261481
0.128286
-16.822021
62.024464
-9.091993
-19.682547
23.855642
-11.978003
-0.534801
22.513161
-11.785838
-16.708445
39.473734
65.991716
1.693254
-12.282685
58.607213
59.323328
21.447464
6.798891
13.602386
62.627797
54.096529
20.345083
24.277547
-55.060157
-33.901978
124.544294
53.094441
-39.964357
58.368429
21.832691
-34.139315
40.489936
9.809650
-28.568644
43.260417
75.135395
48.033377
36.593204
11.890647
-51.270157
-13.631609
70.084406
23.815455
-14.967309
-50.884653
-80.972730
50.142408
44.376961
-86.633212
15.550215
57.523132
-34.206763
31.139567
3.379643
-110.648198
75.841354
263.919324
21.626796
-174.938494
117.049970
200.563049
-152.749279
-102.686978
132.493193
42.198346
30.440208
28.598582
-25.561729
28.762696
-11.456518
27.193204
71.223770
-44.111232
-8.839880
18.414095
-1.912946
37.830246
-34.658836
1.790854
111.809295
83.451084
34.956382
-43.653511
6.980424
133.856817
16.287883
-81.735835
40.198084
111.018076
18.730341
-68.621466
-35.748641
-11.979414
-52.273443
-46.722868
-14.499064
-42.155415
-60.952487
14.965454
34.811096
10.723192
103.150961
54.006770
-152.185122
-139.999614
-43.446493
-62.365373
-63.352003
-46.756143
-23.144729
31.156317
17.933907
-50.689337
-29.519701
61.648134
42.981989
-48.561803
-55.175933
-25.487895
10.971381
51.306313
-6.416133
-85.661488
-39.878144
43.787137
21.030241
-51.497417
-53.786531
-33.924991
-43.099435
-37.242819
-44.905062
-70.435729
-31.209697
22.923716
-4.911257
-28.499302
-7.286648
-12.988501
0.099932
3.494195
-53.095970
-43.624615
-16.142453
-49.640931
-9.129715
35.208762
-30.052010
-53.341262
-3.214666
6.310930
-32.906229
-58.254300
5.602040
69.113530
-16.205644
-94.310536
-4.071577
89.988798
39.753943
-45.297533
-16.808406
39.907532
-17.378883
-58.162951
20.711824
25.489700
-93.454430
-105.225193
19.255246
52.533008
-46.406493
-68.818305
21.484247
11.024152
-88.816404
-64.856866
3.993384
-30.826282
-43.632065
1.635990
-15.753155
-32.103772
17.698079
14.753163
-42.622327
-42.363519
-6.145523
3.110739
-24.596346
-58.253572
-42.508267
-13.653248
-27.430225
-24.334521
14.937803
8.140844
-10.848643
23.691624
-9.001188
-78.822409
-9.735557
45.998433
-10.639895
-15.870179
0.959711
6.989571
42.879316
15.476635
-36.768409
-23.538061
-13.805086
-28.932476
-39.025510
-41.488803
-6.770149
11.916794
-64.178377
-96.519090
-14.559126
-0.874978
-37.574374
-8.630512
8.653881
-2.105475
-26.681314
-29.005264
35.100304
13.184611
-71.096971
-40.764821
13.916146
19.975932
3.575750
-31.396586
-28.900338
13.470735
58.983108
15.640129
-87.087356
-18.754733
77.872502
9.064559
5.266517
63.023320
53.278878
54.625779
19.405852
-5.696966
80.970973
114.657647
24.990779
-23.761801
39.932050
70.782996
-9.810901
-39.297184
29.492279
46.215324
16.350290
28.329121
21.548995
-0.508614
56.405584
99.229756
43.514927
-11.790055
8.702738
75.413275
62.844328
-29.932043
-34.233451
35.717049
60.621596
23.929915
-18.036232
14.003808
47.065541
16.088099
25.131840
46.531765
16.294292
8.608435
24.962315
41.435197
38.347197
-9.404263
0.940091
55.010847
24.408884
1.989123
57.944519
64.085198
-9.217264
-25.867609
39.202607
36.013139
-29.575416
-45.718421
-22.270198
35.747523
52.671167
10.900240
69.286192
124.207268
36.829042
-20.543176
-2.228439
14.186228
50.642464
43.800615
-20.835683
-3.609506
35.768260
-39.180836
-71.847463
29.629663
73.833239
9.971043
-11.174757
17.045035
-17.153665
-56.960928
-17.379056
23.808768
25.213651
10.821086
15.387141
46.435178
30.527139
7.432172
33.854765
21.846230
-26.185319
-51.794074
-64.201467
-19.564431
68.707124
30.554444
-86.833765
-41.382647
29.562894
-49.253209
-57.041703
25.528238
10.718579
-14.493890
56.855886
95.195359
8.012120
-40.524900
12.882106
15.668964
22.570653
52.082409
-38.816570
-61.249657
51.869871
-18.558755
-107.433752
60.346408
88.439482
-96.723749
-59.327882
66.582227
14.748666
-48.169456
-38.004190
5.051675
40.582073
2.741279
-36.290011
-10.923013
-3.993034
-26.769101
-10.603429
-10.671235
-70.833590
-86.487023
-25.275865
25.196984
5.040615
-36.382888
-8.070747
12.718968
-43.473742
-47.297736
17.618875
34.347999
4.933025
-30.699555
-45.104511
13.926254
64.962788
5.792670
-36.150098
7.505458
19.722996
7.882795
32.638881
45.311856
23.905841
15.652558
-2.342355
-32.309793
37.408078
94.558645
-0.937022
-26.117928
66.355665
52.117406
-35.351300
-25.752759
34.571840
-11.212450
-65.294906
6.991228
42.492402
-11.688483
-30.051627
-22.610801
-25.220218
-9.760145
42.385290
76.444870
37.091875
5.277205
35.853440
30.573825
-18.422840
-24.762024
-42.391746
-56.097883
16.928454
45.559495
-19.727227
-56.984931
-30.765976
-10.380497
-50.532845
-24.597719
43.094299
-0.818912
-0.168493
22.528540
-36.942710
-0.243559
21.523195
-54.996785
-40.539235
1.341799
1.004891
20.954806
63.275379
41.200937
-78.673706
-44.479225
88.789185
6.876438
-46.564947
42.481646
19.584471
-25.789271
-41.188099
-54.545176
37.628689
76.311142
-16.253409
-14.809716
65.882131
43.782907
-12.414714
7.144059
-9.314339
-69.859419
-37.311339
33.749464
49.821852
12.250158
-16.935227
33.345908
39.972653
-22.708633
16.482095
71.769064
11.754002
-37.978890
11.654160
53.156910
11.211804
2.729400
49.566702
18.774428
-28.356067
15.137467
49.442067
28.996257
31.047822
25.775922
1.733609
9.436288
-9.007750
-14.928437
21.384481
-13.145510
-6.659278
53.292881
-34.199672
-99.881746
3.738833
64.117906
24.082691
6.519835
9.386886
-29.160912
-61.400391
-35.010764
-2.327782
9.490430
28.033587
49.206496
33.957999
17.583768
33.757624
3.321189
-28.421003
-8.900574
-12.056609
5.540371
-14.589112
-108.911818
-72.841581
0.690225
-28.938674
-3.410356
13.852761
-38.463591
-2.477989
33.356112
-18.792607
-22.079802
11.216196
-6.585601
-27.017851
-7.288173
-1.385499
-31.331193
-29.955535
-9.755925
-6.521111
12.625009
2.738419
-39.929588
-62.565377
-54.363073
29.411625
52.907544
-51.609659
-27.114959
39.238102
-38.346356
-25.582434
59.651627
36.706991
8.317452
-5.923145
-25.088214
-16.575661
-26.192449
-10.532013
43.619403
30.834896
-28.368422
-31.451746
3.481067
-0.269047
-11.832899
-13.252288
-44.610351
-30.772832
7.754380
-33.803089
-38.468987
16.047854
