EVENT_NAME: 202302060117
EVENT_ID: 13194
EVENT_DATE_YYYYMMDD: 2023/02/06
EVENT_TIME_HHMMSS: 01:17:32.00000
EVENT_LATITUDE_DEGREE: 37.288
EVENT_LONGITUDE_DEGREE: 37.043
EVENT_DEPTH_KM: 8.6
HYPOCENTER_REFERENCE: AFAD
MAGNITUDE_W: 7.7
MAGNITUDE_W_REFERENCE: AFAD
MAGNITUDE_L: 
MAGNITUDE_L_REFERENCE: 
FOCAL_MECHANISM: 
NETWORK: TK
STATION_CODE: 5806
STATION_NAME: 
STATION_LATITUDE_DEGREE: 40.30028
STATION_LONGITUDE_DEGREE: 37.82522
STATION_ELEVATION_M: 856.0
LOCATION: Kahramanmaras_Pazarck_Turkiye
SENSOR_DEPTH_M: 
VS30_M/S: 320
SITE_CLASSIFICATION_EC8: C
MORPHOLOGIC_CLASSIFICATION: 
EPICENTRAL_DISTANCE_KM: 341.74
EARTHQUAKE_BACKAZIMUTH_DEGREE: 
DATE_TIME_FIRST_SAMPLE_YYYYMMDD_HHMMSS: 2023/02/06 01:17:58.2547580
DATE_TIME_FIRST_SAMPLE_PRECISION: millisecond
SAMPLING_INTERVAL_S: 0.01
NDATA: 18251
DURATION_S: 
STREAM: HNZ
UNITS: cm/s^2
INSTRUMENT: sensor = CMG-5T/GURALP | digitizer = 
INSTRUMENT_ANALOG/DIGITAL: 
INSTRUMENTAL_FREQUENCY_HZ: 
INSTRUMENTAL_DAMPING: 
FULL_SCALE_G: 
N_BIT_DIGITAL_CONVERTER: 
PGA_CM/S^2: 4.150
TIME_PGA_S: 
BASELINE_CORRECTION: BASELINE REMOVED
FILTER_TYPE: BUTTERWORTH
FILTER_ORDER: 
LOW_CUT_FREQUENCY_HZ: 
HIGH_CUT_FREQUENCY_HZ: 
LATE/NORMAL_TRIGGERED: 
DATABASE_VERSION: 
HEADER_FORMAT: DYNA 1.2
DATA_TYPE: Acceleration
PROCESSING: Automatic Paolucci et al., 2011
DATA_TIMESTAMP_YYYYMMDD_HHMMSS: 
DATA_LICENSE: U (unknown license)
DATA_CITATION: Turkish Accelerometric Archive v 1.0 - Disaster And Emergency Management Presidency, Earthquake Department
DATA_CREATOR: AFAD
ORIGINAL_DATA_MEDIATOR_CITATION: : AFAD - Disaster And Emergency Management Presidency
ORIGINAL_DATA_MEDIATOR: AFAD PROCESS SERVICE
ORIGINAL_DATA_CREATOR_CITATION: AFAD PROCESS SERVICE
ORIGINAL_DATA_CREATOR: network: TK
USER1: GuestUser
USER2: 
USER3: 
USER4: 
USER5: 
[...]
-1.178879
-1.072019
-0.948287
-0.819868
-0.703010
-0.597088
-0.493353
-0.369933
-0.249326
-0.163713
-0.118095
-0.090911
-0.061228
-0.030920
-0.001861
0.020323
0.049694
0.094375
0.167489
0.248102
0.317155
0.341214
0.325904
0.273723
0.212795
0.144679
0.078751
0.015323
-0.024046
-0.036857
-0.036232
-0.023734
-0.001862
0.028758
0.069690
0.111559
0.146241
0.182173
0.204358
0.219980
0.221855
0.220918
0.203733
0.170612
0.110933
0.038756
-0.038108
-0.101849
-0.151217
-0.191523
-0.223081
-0.262138
-0.304945
-0.344939
-0.363062
-0.361812
-0.353688
-0.355250
-0.361812
-0.359312
-0.334941
-0.289635
-0.224019
-0.149030
-0.073729
-0.018112
0.022507
0.045942
0.082811
0.132179
0.205918
0.290594
0.370582
0.434323
0.492127
0.543057
0.575552
0.587738
0.597737
0.616796
0.644917
0.678662
0.716782
0.752402
0.773649
0.785522
0.793646
0.803019
0.814892
0.813955
0.793333
0.774273
0.759900
0.767087
0.780835
0.783022
0.773648
0.778960
0.809893
0.865510
0.931438
1.008926
1.089540
1.165779
1.210147
1.227332
1.252641
1.301072
1.378873
1.469485
1.565096
1.638523
1.673205
1.645397
1.572907
1.516353
1.453549
1.400119
1.370124
1.319818
1.254828
1.195461
1.116410
1.066729
1.021736
0.979867
0.936123
0.907690
0.904253
0.931436
1.002051
1.128283
1.282635
1.425427
1.543535
1.636022
1.691327
1.688202
1.619774
1.511665
1.383871
1.242328
1.064229
0.839261
0.572424
0.279029
-0.017178
-0.287452
-0.495860
-0.649588
-0.790505
-0.943920
-1.108897
-1.266687
-1.394168
-1.494154
-1.577892
-1.647257
-1.699750
-1.741306
-1.759116
-1.744743
-1.706936
-1.645383
-1.524150
-1.359174
-1.170764
-0.984540
-0.801754
-0.643027
-0.516795
-0.433057
-0.380252
-0.332134
-0.272456
-0.212152
-0.173720
-0.170595
-0.206215
-0.241523
-0.242460
-0.190593
-0.107480
0.004692
0.137485
0.280589
0.406509
0.528991
0.654910
0.794578
0.937682
1.073288
1.190146
1.293256
1.391679
1.485103
1.576340
1.656641
1.729443
1.790684
1.843177
1.870048
1.863486
1.820367
1.748190
1.646642
1.535408
1.405739
1.284819
1.140777
0.979550
0.804888
0.626476
0.465874
0.329643
0.191538
0.039685
-0.099358
-0.218403
-0.313702
-0.400877
-0.507424
-0.634593
-0.779573
-0.922990
-1.054221
-1.152019
-1.237632
-1.296686
-1.299498
-1.227321
-1.095153
-0.956423
-0.837065
-0.724894
-0.591163
-0.459619
-0.310578
-0.184346
-0.065926
0.033435
0.132795
0.219345
0.300896
0.369949
0.408381
0.450874
0.492743
0.554297
0.607414
0.644596
0.645846
0.630536
0.584917
0.551485
0.544923
0.566482
0.618662
0.674279
0.720835
0.744894
0.749581
0.742707
0.722085
0.670217
0.594290
0.497429
0.392132
0.283710
0.183724
0.091237
0.011249
-0.055617
-0.096861
-0.128731
-0.152165
-0.180911
-0.219031
-0.281834
-0.358698
-0.460559
-0.595539
-0.766452
-0.950801
-1.147648
-1.350744
-1.539154
-1.697569
-1.828175
-1.955032
-2.059392
-2.120946
-2.147504
-2.152816
-2.162502
-2.170314
-2.170626
-2.169689
-2.132507
-2.069391
-1.996901
-1.937535
-1.892229
-1.865046
-1.834425
-1.803492
-1.739751
-1.657576
-1.562589
-1.426046
-1.281380
-1.129214
-0.989859
-0.895185
-0.831445
-0.784576
-0.745832
-0.690215
-0.613976
-0.531488
-0.458686
-0.385572
-0.328080
-0.279337
-0.251216
-0.243092
-0.226220
-0.196224
-0.157792
-0.112799
-0.090302
-0.054057
-0.037185
-0.038122
-0.069055
-0.139670
-0.232469
-0.332455
-0.425879
-0.533676
-0.619601
-0.682093
-0.716150
-0.718025
-0.717400
-0.708339
-0.696466
-0.656784
-0.568047
-0.454626
-0.330581
-0.226533
-0.150919
-0.112175
-0.087804
-0.069369
-0.059995
-0.062182
-0.049997
-0.032499
-0.025313
-0.036249
-0.065307
-0.128111
-0.189040
-0.222160
-0.227159
-0.234346
-0.255905
-0.285901
-0.301524
-0.280277
-0.244032
-0.204350
-0.173105
-0.153108
-0.130611
-0.089679
-0.043436
0.033115
0.123415
0.210590
0.268081
0.293703
0.294327
0.290266
0.257770
0.201528
0.145599
0.097168
0.058424
0.020304
-0.009692
-0.044999
-0.084993
-0.136549
-0.186229
-0.241221
-0.273717
-0.311524
-0.365266
-0.433069
-0.488686
-0.526181
-0.529305
-0.508683
-0.478063
-0.445567
-0.415259
-0.386826
-0.351206
-0.296839
-0.234660
-0.184043
-0.155922
-0.134987
-0.113428
-0.076871
-0.050312
-0.041251
-0.047188
-0.053124
-0.056874
-0.037814
0.007492
0.068108
0.107165
0.119975
0.104040
0.082481
0.064983
0.053735
0.041861
0.028113
0.015928
0.007804
0.019677
0.048423
0.090292
0.120287
0.146533
0.167468
0.203713
0.250893
0.307760
0.360565
0.422431
0.469612
0.496483
0.480547
0.423056
0.339318
0.256205
0.184340
0.139659
0.112475
0.087479
0.075918
0.059358
0.034361
-0.023756
-0.089059
-0.167173
-0.269033
-0.391828
-0.533995
-0.687723
-0.835202
-0.972057
-1.064856
-1.122036
-1.139533
-1.125473
-1.089228
-1.045797
-0.991430
-0.919878
-0.829266
-0.728968
-0.629607
-0.523997
-0.422449
-0.325588
-0.242788
-0.166861
-0.096871
-0.031568
0.021862
0.078103
0.132783
0.176214
0.212459
0.252141
0.297759
0.354938
0.416179
0.456486
0.452737
0.404618
0.323068
0.244641
0.200898
0.189962
0.191836
0.193086
0.199335
0.223707
0.261514
0.285885
0.295571
0.283073
0.262763
0.219332
0.183399
0.169339
0.170589
0.177463
0.167777
0.152779
0.139343
0.123408
0.123720
0.136843
0.146529
0.139030
0.115909
0.059354
-0.024071
-0.143117
-0.300907
-0.468695
-0.640858
-0.801147
-0.938940
-1.045800
-1.116727
-1.157971
-1.167657
-1.147973
-1.115790
-1.063610
-0.988621
-0.894260
-0.797086
-0.729283
-0.695538
-0.668355
-0.632110
-0.567432
-0.493068
-0.399644
-0.307782
-0.211233
-0.124996
-0.042508
0.044042
0.118094
0.163088
0.164025
0.135904
0.089661
0.044355
-0.002826
-0.032822
-0.055319
-0.069067
-0.083440
-0.079690
-0.058131
-0.024073
0.011234
0.049353
0.104970
0.169648
0.229640
0.268384
0.280257
0.287131
0.286194
0.281507
0.293068
0.318377
0.340561
0.347747
0.351809
0.367744
0.415862
0.490539
0.567403
0.617708
0.631769
0.629894
0.627394
0.617396
0.610834
0.614896
0.639892
0.680511
0.719256
0.751126
0.767061
0.783621
0.817054
0.890793
0.987342
1.081703
1.149506
1.182314
1.202936
1.236056
1.271988
1.325418
1.385409
1.445088
1.505704
1.565383
1.621000
1.652246
1.669118
1.661619
1.621000
1.552260
1.482270
1.412592
1.360725
1.296984
1.209184
1.088264
0.957033
0.822989
0.722066
0.645202
0.606458
0.590210
0.590522
0.609895
0.660200
0.716754
0.789869
0.871419
0.973280
1.092950
1.220744
1.359161
1.492267
1.603814
1.689114
1.758479
1.802223
1.835655
1.853778
1.851278
1.830031
1.791911
1.718172
1.621936
1.506952
1.395093
1.274485
1.170438
1.081076
1.019209
0.970154
0.938908
0.923286
0.922973
0.920473
0.906413
0.875167
0.821737
0.755184
0.673321
0.580522
0.482099
0.375239
0.249007
0.118401
-0.015330
-0.144374
-0.272168
-0.388402
-0.499948
-0.606495
-0.717105
-0.829901
-0.948946
-1.055181
-1.147043
-1.234218
-1.311707
-1.386384
-1.446063
-1.491369
-1.510741
-1.506367
-1.481370
-1.459811
-1.460123
-1.488869
-1.529176
-1.567921
-1.582294
-1.568858
-1.530739
-1.501993
-1.466060
-1.424192
-1.382323
-1.338891
-1.286399
-1.230782
-1.160167
-1.086428
-0.997066
-0.894268
-0.808655
-0.723668
-0.669613
-0.646804
-0.642430
-0.648054
-0.672113
-0.723356
-0.798970
-0.884583
-0.969570
-1.018001
-1.066432
-1.121736
-1.182665
-1.242969
-1.310772
-1.357015
-1.395135
-1.427317
-1.469499
-1.509181
-1.533240
-1.538552
-1.530428
-1.508244
-1.481373
-1.477311
-1.483247
-1.487622
-1.475749
-1.465125
-1.467937
-1.472937
-1.493559
-1.540427
-1.592295
-1.658223
-1.696342
-1.715402
-1.742898
-1.786017
-1.818825
-1.846008
-1.871005
-1.892252
-1.880379
-1.835073
-1.756647
-1.655724
-1.527305
-1.383263
-1.234847
-1.101741
-0.974884
-0.837717
-0.698362
-0.543071
-0.372471
-0.217493
-0.081888
0.035908
0.109959
0.163389
0.189948
0.204321
0.211820
0.216506
0.206820
0.179637
0.135580
0.098086
0.057154
0.020909
-0.022210
-0.060017
-0.080639
-0.077202
-0.084076
-0.096887
-0.115322
-0.123758
-0.112822
-0.099387
-0.067204
-0.032521
-0.001276
0.019346
0.037469
0.064027
0.102772
0.145890
0.182760
0.225566
0.299618
0.394292
0.526148
0.682375
0.853288
1.007641
1.128874
1.220110
1.295100
1.360403
1.392273
1.384149
1.342905
1.261667
1.149183
1.014202
0.855475
0.702059
0.554893
0.418038
0.307428
0.223690
0.152138
0.094646
0.058402
0.044029
0.034655
0.039342
0.063401
0.097458
0.150888
0.210567
0.258372
0.303678
0.352421
0.385854
0.418662
0.447720
0.472091
0.488651
0.493963
0.494275
0.492713
0.475841
0.453031
0.420848
0.404601
0.400226
0.398664
0.403663
0.418661
0.444907
0.474278
0.500836
0.532394
0.580512
0.633317
0.697995
0.767360
0.841412
0.899529
0.942960
0.982329
1.024511
1.064817
1.096688
1.111373
1.123246
1.127621
1.143556
1.177926
1.234793
1.305720
1.371335
1.425702
1.468196
1.485381
1.472883
1.441325
1.386333
1.298845
1.177300
1.052943
0.915150
0.764547
0.595821
0.425533
0.270868
0.143074
0.036214
-0.048774
-0.137199
-0.217500
-0.301238
-0.395287
-0.503396
-0.622129
-0.742112
-0.862720
-0.981765
-1.088625
-1.187048
-1.294220
-1.393894
-1.470133
-1.527000
-1.570431
-1.606988
-1.643858
-1.678853
-1.746031
-1.821645
-1.919756
-2.029115
-2.151910
-2.273143
-2.375941
-2.454054
-2.525294
-2.582474
-2.634654
-2.677460
-2.719017
-2.736514
-2.736202
-2.716205
-2.678710
-2.618406
-2.549041
-2.465616
-2.372504
-2.262208
-2.129727
-1.989435
-1.861328
-1.742908
-1.632923
-1.545436
-1.462948
-1.412643
-1.377023
-1.351402
-1.331092
-1.332342
-1.326093
-1.327030
-1.324843
-1.316407
-1.286411
-1.251104
-1.191738
-1.105188
-1.004890
-0.888969
-0.763987
-0.634318
-0.512148
-0.388416
-0.273745
-0.169385
-0.083460
-0.023156
0.008402
0.028711
0.011526
-0.024094
-0.074087
-0.117830
-0.160012
-0.210942
-0.255623
-0.285619
-0.298742
-0.305304
-0.292493
-0.275621
-0.275621
-0.294055
-0.314678
-0.338112
-0.368107
-0.397478
-0.421537
-0.456532
-0.488403
-0.519961
-0.543395
-0.565579
-0.564642
-0.545270
-0.509963
-0.466844
-0.414976
-0.373732
-0.337488
-0.302805
-0.260624
-0.212506
-0.160326
-0.100647
-0.035344
0.040895
0.134944
0.230243
0.317418
0.408030
0.490205
0.574568
0.646120
0.706424
0.759854
0.823595
0.886398
0.955763
1.006693
1.035439
1.051687
1.066060
1.074183
1.087306
1.101367
1.116365
1.129488
1.131675
1.125426
1.098242
1.052624
0.988258
0.909519
0.816095
0.722983
0.618311
0.523637
0.444898
0.389906
0.354286
0.334914
0.322103
0.308667
0.273047
0.233366
0.186185
0.135255
0.086824
0.044643
0.013397
-0.016286
-0.067217
-0.127833
-0.177513
-0.236255
-0.294059
-0.339365
-0.346239
-0.330304
-0.304058
-0.270000
-0.224382
-0.175014
-0.105337
-0.014100
0.099321
0.213055
0.323664
0.431461
0.531446
0.611122
0.678613
0.729230
0.762663
0.776411
0.765787
0.761101
0.765475
0.780473
0.773599
0.766412
0.752039
0.738291
0.724855
0.712670
0.710482
0.699859
0.677987
0.681736
0.696734
0.720793
0.768286
0.833589
0.892331
0.952322
1.000440
1.041997
1.082303
1.114799
1.129484
1.141045
1.157917
1.183539
1.221033
1.271963
1.342578
1.408194
1.485995
1.572857
1.666594
1.758143
1.859066
1.937180
1.994047
2.005607
1.996859
1.975924
1.936242
1.875938
1.821883
1.770016
1.725335
1.696589
1.676279
1.686903
1.718148
1.763454
1.806573
1.855941
1.904371
1.953114
1.988421
1.999982
1.998107
1.964050
1.905933
1.840317
1.777202
1.726271
1.674404
1.623473
1.575668
1.552234
1.550984
1.572231
1.588791
1.584729
1.565044
1.530674
1.501616
1.477244
1.464121
1.455997
1.470370
1.486930
1.511614
1.520362
1.531298
1.522550
1.510989
1.499428
1.483493
1.466307
1.447873
1.436312
1.434749
1.447872
1.479430
1.525049
1.566293
1.608474
1.633783
1.655967
1.666591
1.667215
1.648156
1.620660
1.568167
1.506613
1.414127
1.310079
1.189159
1.051679
0.909824
0.766407
0.627677
0.507694
0.411458
0.344905
0.303661
0.278977
0.264604
0.252730
0.240545
0.220860
0.201488
0.170867
0.131810
0.103064
0.071194
0.035261
-0.022231
-0.089721
-0.165647
-0.262821
-0.355620
-0.447795
-0.510911
-0.553405
-0.572464
-0.592774
-0.604335
-0.618083
-0.606210
-0.588400
-0.554030
-0.498413
-0.440921
-0.379680
-0.332812
-0.270946
-0.210642
-0.168773
-0.136278
-0.114718
-0.110656
-0.103470
-0.118780
-0.154400
-0.209080
-0.274383
-0.350935
-0.411864
-0.451545
-0.461544
-0.445609
-0.407177
-0.365933
-0.317815
-0.261573
-0.185334
-0.111595
-0.033793
0.056194
0.149930
0.249916
0.339590
0.416142
0.474258
0.520189
0.551122
0.585492
0.627986
0.674542
0.734221
0.820771
0.919194
1.023866
1.111041
1.196966
1.278205
1.358818
1.428495
1.500985
1.560976
1.599721
1.615968
1.609094
1.587847
1.563476
1.530043
1.489736
1.445680
1.393187
1.341320
1.290702
1.245396
1.199778
1.156971
1.100104
1.030427
0.947626
0.857327
0.756716
0.656730
0.549871
0.448323
0.343025
0.243040
0.142116
0.065252
0.009635
-0.034733
-0.060980
-0.083476
-0.085976
-0.091288
-0.105036
-0.122533
-0.145343
-0.190649
-0.243141
-0.301258
-0.362812
-0.447175
-0.548723
-0.663706
-0.766191
-0.861803
-0.952102
-1.029279
-1.108642
-1.205503
-1.321424
-1.456093
-1.600134
-1.748863
-1.883844
-2.000389
-2.104750
-2.211922
-2.338778
-2.461573
-2.581869
-2.701539
-2.814648
-2.920258
-3.021806
-3.131790
-3.232713
-3.318951
-3.405813
-3.493301
-3.581725
-3.666713
-3.742015
-3.822628
-3.911366
-3.997916
-4.070718
-4.122898
-4.150394
-4.146020
-4.108838
-4.058220
-4.006352
-3.948236
-3.876371
-3.805444
-3.727643
-3.636093
-3.519860
-3.386442
-3.249587
-3.127729
-3.015558
-2.914635
-2.817774
-2.721850
-2.617803
-2.509068
-2.411583
-2.325033
-2.250981
-2.178179
-2.100065
-2.033512
-1.976020
-1.931652
-1.901031
-1.873848
-1.861975
-1.851351
-1.861975
-1.886971
-1.919779
-1.956961
-1.989457
-1.993518
-1.970397
-1.905719
-1.816357
-1.704498
-1.584203
-1.462345
-1.335176
-1.193009
-1.060528
-0.943357
-0.844309
-0.778694
-0.734325
-0.706829
-0.680583
-0.667147
-0.653399
-0.634027
-0.596533
-0.544353
-0.468426
-0.383439
-0.296889
-0.203464
-0.105354
0.005255
0.133049
0.266780
0.398949
0.525805
0.642976
0.749836
0.840135
0.918561
0.968242
1.003861
1.029795
1.056041
1.077913
1.092598
1.093848
1.091348
1.082600
1.089786
1.103847
1.131967
1.161338
1.198520
1.238514
1.286633
1.325377
1.355997
1.386306
1.421613
1.465981
1.520036
1.596588
1.701260
1.836865
1.995905
2.160881
2.309610
2.439591
2.538952
2.623315
2.700803
2.769856
2.824223
2.865780
2.889839
2.921396
2.945455
2.976701
2.994823
3.020445
3.042004
3.070437
3.106682
3.151675
3.204480
3.264472
3.329775
3.384454
3.431010
3.469442
3.503187
3.519435
3.525996
3.518497
3.505999
3.485377
3.459131
3.421948
3.381329
3.345397
3.313214
3.277906
3.245099
3.221352
3.210416
3.198543
3.178858
3.156049
3.117304
3.079185
3.031691
2.979824
2.911709
2.825783
2.729235
2.621750
2.503017
2.362412
2.185563
1.984654
1.759999
1.527220
1.285379
1.039165
0.784514
0.537049
0.305520
0.087114
-0.113482
-0.290332
-0.450309
-0.588102
-0.701836
-0.797134
-0.880560
-0.950862
-1.006792
-1.050848
-1.075220
-1.094592
-1.108652
-1.125213
-1.150209
-1.195515
-1.256756
-1.343931
-1.446104
-1.555151
-1.657636
-1.755747
-1.843860
-1.927910
-2.009461
-2.094761
-2.175687
-2.252239
-2.307856
-2.360348
-2.390344
-2.406592
-2.410654
-2.407842
-2.409092
-2.399406
-2.398781
-2.402843
-2.412841
-2.429401
-2.450648
-2.462522
-2.479082
-2.488143
-2.495642
-2.495017
-2.490643
-2.495330
-2.518452
-2.547510
-2.585005
-2.624999
-2.650933
-2.678116
-2.701238
-2.703113
-2.693114
-2.665306
-2.616875
-2.562508
-2.500330
-2.449087
-2.393783
-2.323793
-2.250678
-2.174752
-2.084140
-1.982592
-1.877607
-1.779184
-1.683885
-1.606084
-1.525158
-1.432359
-1.326437
-1.216765
-1.109905
-1.023668
-0.954615
-0.907122
-0.878689
-0.859317
-0.857755
-0.868066
-0.889625
-0.921808
-0.955866
-0.985236
-1.015545
-1.032730
-1.052102
-1.050227
-1.026168
-0.983987
-0.928682
-0.860880
-0.783703
-0.704027
-0.633100
-0.570922
-0.507181
-0.440003
-0.380949
-0.340330
-0.310334
-0.291899
-0.275964
-0.267216
-0.260342
-0.265341
-0.269091
-0.275027
-0.264404
-0.245657
-0.213786
-0.191289
-0.178791
-0.183478
-0.200976
-0.225660
-0.243157
-0.269091
-0.292838
-0.308461
-0.313772
-0.313772
-0.302524
-0.278465
-0.243158
-0.193477
-0.148171
-0.090992
-0.028501
0.039926
0.104292
0.177719
0.250209
0.336759
0.423621
0.519545
0.602970
0.683271
0.750449
0.811378
0.856371
0.885429
0.897303
0.881055
0.841060
0.785131
0.719203
0.641402
0.564850
0.493610
0.422058
0.345506
0.271142
0.203652
0.150222
0.113977
0.094292
0.102416
0.129912
0.168031
0.219587
0.262393
0.308324
0.342694
0.356442
0.350817
0.329570
0.283952
0.224585
0.165531
0.111164
0.043049
-0.039127
-0.131301
-0.216601
-0.310963
-0.398138
-0.481564
-0.563739
-0.634667
-0.699657
-0.728091
-0.736215
-0.725279
-0.698720
-0.669662
-0.651852
-0.627793
-0.609046
-0.586237
-0.568114
-0.559053
-0.558428
-0.545618
-0.519371
-0.488126
-0.460942
-0.434384
-0.400014
-0.373768
-0.342210
-0.301278
-0.268783
-0.240349
-0.215666
-0.199418
-0.175359
-0.150988
-0.121929
-0.082872
-0.039441
0.007427
0.038360
0.056170
0.059919
0.049921
0.043672
0.043984
0.045859
0.052420
0.054920
0.055545
0.049608
0.045858
0.042734
0.042734
0.048670
0.063043
0.093664
0.135220
0.168028
0.178964
0.174589
0.166466
0.159591
0.160529
0.162716
0.160841
0.153030
0.134907
0.101162
0.058981
0.022423
-0.026007
-0.079437
-0.127243
-0.161613
-0.193796
-0.215043
-0.243164
-0.269723
-0.301593
-0.338775
-0.377832
-0.400641
-0.421264
-0.433137
-0.445635
-0.444385
-0.439386
-0.426576
-0.406266
-0.361585
-0.309405
-0.252538
-0.188173
-0.125057
-0.065690
-0.002262
0.061479
0.114284
0.158027
0.181149
0.206145
0.221768
0.232704
0.218018
0.195834
0.157715
0.137717
0.120532
0.089599
0.037419
-0.027884
-0.097562
-0.166614
-0.233167
-0.290346
-0.337215
-0.380021
-0.402830
-0.414704
-0.413454
-0.423140
-0.443450
-0.465634
-0.470009
-0.474695
-0.500942
-0.540936
-0.586242
-0.627799
-0.692477
-0.783401
-0.887761
-0.995871
-1.093669
-1.173658
-1.210215
-1.228650
-1.245210
-1.260208
-1.256771
-1.237712
-1.224901
-1.213028
-1.200842
-1.156473
-1.092108
-1.017119
-0.940880
-0.871202
-0.823084
-0.790589
-0.750282
-0.695290
-0.633112
-0.561560
-0.469385
-0.365338
-0.266290
-0.183177
-0.116936
-0.051633
0.022419
0.097408
0.159274
0.187082
0.185208
0.184895
0.182083
0.182395
0.190519
0.189582
0.192394
0.199893
0.222389
0.263946
0.305502
0.338622
0.383304
0.436108
0.505161
0.593898
0.697946
0.789807
0.877920
0.980092
1.097575
1.224120
1.352539
1.496893
1.642184
1.788413
1.949015
2.106493
2.268032
2.424572
2.566114
2.704844
2.841074
2.958557
3.047919
3.127595
3.186962
3.232580
3.243829
3.231018
3.203209
3.163527
3.131344
3.113222
3.087288
3.045107
2.972617
2.900440
2.845760
2.797330
2.760772
2.733589
2.709217
2.688908
2.661724
2.631416
2.603607
2.561426
2.506434
2.437068
2.361142
2.295214
2.221787
2.141798
2.079620
2.010879
1.928391
1.849340
1.777475
1.704673
