EVENT_NAME: 202302060117
EVENT_ID: 13194
EVENT_DATE_YYYYMMDD: 2023/02/06
EVENT_TIME_HHMMSS: 01:17:32.00000
EVENT_LATITUDE_DEGREE: 37.288
EVENT_LONGITUDE_DEGREE: 37.043
EVENT_DEPTH_KM: 8.6
HYPOCENTER_REFERENCE: AFAD
MAGNITUDE_W: 7.7
MAGNITUDE_W_REFERENCE: AFAD
MAGNITUDE_L: 
MAGNITUDE_L_REFERENCE: 
FOCAL_MECHANISM: 
NETWORK: TK
STATION_CODE: 2710
STATION_NAME: 
STATION_LATITUDE_DEGREE: 37.43291
STATION_LONGITUDE_DEGREE: 37.68658
STATION_ELEVATION_M: 534.0
LOCATION: Kahramanmaras_Pazarck_Turkiye
SENSOR_DEPTH_M: 
VS30_M/S: None
SITE_CLASSIFICATION_EC8: unknown
MORPHOLOGIC_CLASSIFICATION: 
EPICENTRAL_DISTANCE_KM: 59.12
EARTHQUAKE_BACKAZIMUTH_DEGREE: 
DATE_TIME_FIRST_SAMPLE_YYYYMMDD_HHMMSS: 2023/02/06 01:17:17.2933160
DATE_TIME_FIRST_SAMPLE_PRECISION: millisecond
SAMPLING_INTERVAL_S: 0.01
NDATA: 2990
DURATION_S: 
STREAM: HNE
UNITS: cm/s^2
INSTRUMENT: sensor = ACEBOX/SARA | digitizer = 
INSTRUMENT_ANALOG/DIGITAL: 
INSTRUMENTAL_FREQUENCY_HZ: 
INSTRUMENTAL_DAMPING: 
FULL_SCALE_G: 
N_BIT_DIGITAL_CONVERTER: 
PGA_CM/S^2: 5.269
TIME_PGA_S: 
BASELINE_CORRECTION: BASELINE REMOVED
FILTER_TYPE: BUTTERWORTH
FILTER_ORDER: 
LOW_CUT_FREQUENCY_HZ: 
HIGH_CUT_FREQUENCY_HZ: 
LATE/NORMAL_TRIGGERED: 
DATABASE_VERSION: 
HEADER_FORMAT: DYNA 1.2
DATA_TYPE: Acceleration
PROCESSING: Automatic Paolucci et al., 2011
DATA_TIMESTAMP_YYYYMMDD_HHMMSS: 
DATA_LICENSE: U (unknown license)
DATA_CITATION: Turkish Accelerometric Archive v 1.0 - Disaster And Emergency Management Presidency, Earthquake Department
DATA_CREATOR: AFAD
ORIGINAL_DATA_MEDIATOR_CITATION: : AFAD - Disaster And Emergency Management Presidency
ORIGINAL_DATA_MEDIATOR: AFAD PROCESS SERVICE
ORIGINAL_DATA_CREATOR_CITATION: AFAD PROCESS SERVICE
ORIGINAL_DATA_CREATOR: network: TK
USER1: GuestUser
USER2: 
USER3: 
USER4: 
USER5: 
[...]
-0.002317
-0.003025
-0.001629
-0.001402
-0.003045
-0.002584
-0.001422
-0.000493
-0.000733
-0.001909
-0.001682
-0.001454
-0.001461
-0.001234
-0.002409
-0.001714
-0.000786
-0.002429
-0.002669
-0.001507
-0.001046
-0.001520
-0.002462
-0.002234
-0.002475
-0.002481
-0.001553
-0.001092
-0.001800
-0.002040
-0.002280
-0.002287
-0.001826
-0.001365
-0.001371
-0.002079
-0.001852
-0.001625
-0.001865
-0.001404
-0.001411
-0.002119
-0.001658
-0.001430
-0.001905
-0.001677
-0.001450
-0.001690
-0.002398
-0.001937
-0.000541
-0.002184
-0.003594
-0.002431
-0.001736
-0.001977
-0.002217
-0.002457
-0.003399
-0.003640
-0.001776
-0.001548
-0.002958
-0.002964
-0.002503
-0.001809
-0.002283
-0.002289
-0.002296
-0.002302
-0.001841
-0.001614
-0.001621
-0.002329
-0.001400
-0.001407
-0.003050
-0.002822
-0.002361
-0.002602
-0.002375
-0.001913
-0.001686
-0.002628
-0.003570
-0.003342
-0.001479
-0.000550
-0.001959
-0.002434
-0.001972
-0.002680
-0.002453
-0.001291
-0.001297
-0.001771
-0.003181
-0.002954
-0.001791
-0.001798
-0.002506
-0.002512
-0.002519
-0.002759
-0.002298
-0.001603
-0.002311
-0.002318
-0.000922
-0.000928
-0.002571
-0.002110
-0.001649
-0.002591
-0.002597
-0.002136
-0.002611
-0.002383
-0.001455
-0.002864
-0.003806
-0.001708
-0.002182
-0.003358
-0.001962
-0.001501
-0.003144
-0.002917
-0.001520
-0.002462
-0.002702
-0.002475
-0.002716
-0.002956
-0.003196
-0.001800
-0.002040
-0.002047
-0.001820
-0.003697
-0.003469
-0.003242
-0.002547
-0.002554
-0.002560
-0.002099
-0.003743
-0.002814
-0.002119
-0.002827
-0.001898
-0.002606
-0.003782
-0.002386
-0.002392
-0.003334
-0.002405
-0.002646
-0.001951
-0.002893
-0.003601
-0.001503
-0.001743
-0.002451
-0.001990
-0.002464
-0.002471
-0.002711
-0.002952
-0.002724
-0.003199
-0.002971
-0.002978
-0.003218
-0.002991
-0.004400
-0.004173
-0.002777
-0.002550
-0.002790
-0.003264
-0.003037
-0.003043
-0.002816
-0.002823
-0.002829
-0.003304
-0.003544
-0.002849
-0.002388
-0.003096
-0.002401
-0.003109
-0.003349
-0.001953
-0.004298
-0.004070
-0.002207
-0.001512
-0.001518
-0.002928
-0.002467
-0.002239
-0.002246
-0.002253
-0.002727
-0.002733
-0.002740
-0.003915
-0.003688
-0.002760
-0.003701
-0.003474
-0.002779
-0.003253
-0.003260
-0.003033
-0.003039
-0.003046
-0.003286
-0.003527
-0.003065
-0.002137
-0.001676
-0.003085
-0.003559
-0.001695
-0.002170
-0.004047
-0.003352
-0.002657
-0.003365
-0.003839
-0.004313
-0.004086
-0.003391
-0.003631
-0.002937
-0.003177
-0.003651
-0.003658
-0.003197
-0.002969
-0.004613
-0.004385
-0.002755
-0.003463
-0.003937
-0.003476
-0.002548
-0.001853
-0.002795
-0.003269
-0.002340
-0.002814
-0.003055
-0.002827
-0.003068
-0.002373
-0.003081
-0.004256
-0.003562
-0.002867
-0.003809
-0.003815
-0.003354
-0.003594
-0.003601
-0.003841
-0.004315
-0.004322
-0.003393
-0.003166
-0.003407
-0.003179
-0.003420
-0.004128
-0.003900
-0.003673
-0.003212
-0.003219
-0.004394
-0.004401
-0.004407
-0.004648
-0.002784
-0.003492
-0.003966
-0.003505
-0.004680
-0.003752
-0.002823
-0.003297
-0.002602
-0.003310
-0.004954
-0.004960
-0.003330
-0.003103
-0.003811
-0.003817
-0.004058
-0.003129
-0.002668
-0.003844
-0.003616
-0.003389
-0.003162
-0.003402
-0.004110
-0.003649
-0.003422
-0.004597
-0.003435
-0.002273
-0.004617
-0.004390
-0.002292
-0.001831
-0.002773
-0.003949
-0.003254
-0.003260
-0.004202
-0.003273
-0.003280
-0.003754
-0.003293
-0.003533
-0.004008
-0.003780
-0.003553
-0.004261
-0.003800
-0.002638
-0.003346
-0.003586
-0.003359
-0.004534
-0.004073
-0.004080
-0.004554
-0.004093
-0.004333
-0.003872
-0.003645
-0.003651
-0.004126
-0.003665
-0.002035
-0.002976
-0.003217
-0.002288
-0.002996
-0.003938
-0.004646
-0.003951
-0.003256
-0.003496
-0.004204
-0.004912
-0.003984
-0.003523
-0.003529
-0.003302
-0.004244
-0.004016
-0.002854
-0.002861
-0.004738
-0.004276
-0.003348
-0.005459
-0.004296
-0.002666
-0.004309
-0.004082
-0.003153
-0.003394
-0.004102
-0.004576
-0.004582
-0.004355
-0.003894
-0.004135
-0.004842
-0.003914
-0.003687
-0.004395
-0.003466
-0.003239
-0.004414
-0.004888
-0.003726
-0.003966
-0.004440
-0.003979
-0.003518
-0.003525
-0.003765
-0.003772
-0.003545
-0.003551
-0.003558
-0.003331
-0.003337
-0.003811
-0.004052
-0.004058
-0.004298
-0.004071
-0.004779
-0.004786
-0.004091
-0.005033
-0.004572
-0.003175
-0.002948
-0.004358
-0.005065
-0.004371
-0.005312
-0.005319
-0.003455
-0.003462
-0.003936
-0.003709
-0.004884
-0.005592
-0.004430
-0.004670
-0.005144
-0.005618
-0.005391
-0.003995
-0.004001
-0.004943
-0.003547
-0.003787
-0.005430
-0.004502
-0.003807
-0.004281
-0.004755
-0.003827
-0.003599
-0.005243
-0.005249
-0.004788
-0.004561
-0.003632
-0.004808
-0.005282
-0.004821
-0.004126
-0.003899
-0.004373
-0.003211
-0.002516
-0.004626
-0.005101
-0.003938
-0.004412
-0.004185
-0.003958
-0.004432
-0.003971
-0.004679
-0.005153
-0.004692
-0.004465
-0.004939
-0.005413
-0.004484
-0.004023
-0.004731
-0.004504
-0.004043
-0.004050
-0.003822
-0.003829
-0.004303
-0.004543
-0.005018
-0.005492
-0.003862
-0.004102
-0.005044
-0.004817
-0.004823
-0.004830
-0.005538
-0.006012
-0.006018
-0.005557
-0.003927
-0.004168
-0.004876
-0.004415
-0.004655
-0.005363
-0.005136
-0.005376
-0.005616
-0.004922
-0.004227
-0.004467
-0.004707
-0.004246
-0.003785
-0.004493
-0.004967
-0.004740
-0.004747
-0.004520
-0.004994
-0.005000
-0.004539
-0.005013
-0.005020
-0.005026
-0.004799
-0.004806
-0.004812
-0.004585
-0.005293
-0.004832
-0.004839
-0.004845
-0.003917
-0.004858
-0.004865
-0.004638
-0.005579
-0.004885
-0.004657
-0.005833
-0.006073
-0.005612
-0.005151
-0.005158
-0.004463
-0.005405
-0.006346
-0.004950
-0.004723
-0.005898
-0.005437
-0.005210
-0.004749
-0.005457
-0.006633
-0.005236
-0.004308
-0.005016
-0.005490
-0.004327
-0.004802
-0.005977
-0.005984
-0.006224
-0.005997
-0.005068
-0.004607
-0.005783
-0.006023
-0.004627
-0.004633
-0.006043
-0.005582
-0.005354
-0.005361
-0.005134
-0.005374
-0.004445
-0.004920
-0.006797
-0.006336
-0.004004
-0.004946
-0.006589
-0.005427
-0.004732
-0.004504
-0.004979
-0.006154
-0.005927
-0.005934
-0.006641
-0.006180
-0.006187
-0.006194
-0.005499
-0.005505
-0.005512
-0.005518
-0.006226
-0.005765
-0.005772
-0.006246
-0.005551
-0.005792
-0.005798
-0.005805
-0.006045
-0.005116
-0.004655
-0.004896
-0.005370
-0.004909
-0.003980
-0.004688
-0.006331
-0.005403
-0.004708
-0.005650
-0.005656
-0.005663
-0.005669
-0.005208
-0.004981
-0.005221
-0.006397
-0.005702
-0.005241
-0.006650
-0.006189
-0.005494
-0.005501
-0.005040
-0.005514
-0.005988
-0.005995
-0.005534
-0.005774
-0.007417
-0.006255
-0.004625
-0.005567
-0.007210
-0.006749
-0.006755
-0.007229
-0.005132
-0.006307
-0.006080
-0.005853
-0.007496
-0.005165
-0.005873
-0.006113
-0.004249
-0.006126
-0.005197
-0.004736
-0.006146
-0.006386
-0.006860
-0.005698
-0.004535
-0.006412
-0.006419
-0.005724
-0.006198
-0.006205
-0.005510
-0.005516
-0.005991
-0.005530
-0.006004
-0.006244
-0.005783
-0.005790
-0.006731
-0.006504
-0.005575
-0.005114
-0.004887
-0.005829
-0.006537
-0.006076
-0.006082
-0.006089
-0.005862
-0.005868
-0.005875
-0.006583
-0.006823
-0.006830
-0.006602
-0.006141
-0.006849
-0.007090
-0.005927
-0.005466
-0.007109
-0.006882
-0.004785
-0.005960
-0.005967
-0.005506
-0.006214
-0.006220
-0.005292
-0.005298
-0.007409
-0.007415
-0.007422
-0.006961
-0.006032
-0.006273
-0.006279
-0.005351
-0.005591
-0.006766
-0.007007
-0.007247
-0.006786
-0.006091
-0.005163
-0.005871
-0.005877
-0.005650
-0.006825
-0.006598
-0.005670
-0.005676
-0.006384
-0.006858
-0.005930
-0.006170
-0.007346
-0.006417
-0.005722
-0.006196
-0.006904
-0.006677
-0.005982
-0.006690
-0.006463
-0.006703
-0.006476
-0.006015
-0.005788
-0.006262
-0.007204
-0.006743
-0.006281
-0.006756
-0.006061
-0.005600
-0.006542
-0.006548
-0.006087
-0.006795
-0.006802
-0.006341
-0.007516
-0.008224
-0.006828
-0.005665
-0.005906
-0.006614
-0.006620
-0.006393
-0.006867
-0.006640
-0.006179
-0.006887
-0.006426
-0.006199
-0.006673
-0.006913
-0.006920
-0.005757
-0.005530
-0.006004
-0.006478
-0.006719
-0.007193
-0.007199
-0.006504
-0.007446
-0.006985
-0.006524
-0.006998
-0.006537
-0.006310
-0.006083
-0.006089
-0.006564
-0.007038
-0.006109
-0.005648
-0.005888
-0.007064
-0.008473
-0.007311
-0.006382
-0.006856
-0.007097
-0.006869
-0.007344
-0.007818
-0.006889
-0.007129
-0.007136
-0.005974
-0.007149
-0.008325
-0.007162
-0.006935
-0.007175
-0.006714
-0.006721
-0.006961
-0.006968
-0.007442
-0.007449
-0.007689
-0.007462
-0.006767
-0.007241
-0.007715
-0.007722
-0.006325
-0.005864
-0.007975
-0.007514
-0.007287
-0.007995
-0.007066
-0.006138
-0.006612
-0.007553
-0.007092
-0.006865
-0.007573
-0.008047
-0.007119
-0.006658
-0.006898
-0.006203
-0.006911
-0.007619
-0.006457
-0.005996
-0.006937
-0.007412
-0.007652
-0.007191
-0.006964
-0.007204
-0.006743
-0.007217
-0.007224
-0.005827
-0.007471
-0.007477
-0.006315
-0.007256
-0.007029
-0.007737
-0.007276
-0.006815
-0.007991
-0.006828
-0.006133
-0.007075
-0.007315
-0.007556
-0.008264
-0.007569
-0.008043
-0.008050
-0.006887
-0.006894
-0.006199
-0.006439
-0.007849
-0.007855
-0.006927
-0.007868
-0.008576
-0.007414
-0.006953
-0.007427
-0.008135
-0.007908
-0.007447
-0.007219
-0.007694
-0.007466
-0.005836
-0.007713
-0.008421
-0.006791
-0.007499
-0.007973
-0.007746
-0.007051
-0.007058
-0.007064
-0.007538
-0.006376
-0.005915
-0.007558
-0.007331
-0.007104
-0.007110
-0.005948
-0.007825
-0.009000
-0.006435
-0.007143
-0.007617
-0.005987
-0.006695
-0.007637
-0.007410
-0.006949
-0.007189
-0.007897
-0.008605
-0.007209
-0.006514
-0.009092
-0.008163
-0.006533
-0.007475
-0.007248
-0.007488
-0.007261
-0.007268
-0.007508
-0.007047
-0.007521
-0.007528
-0.007300
-0.008476
-0.007314
-0.006385
-0.007327
-0.006632
-0.007340
-0.008281
-0.007353
-0.006658
-0.006898
-0.008074
-0.008782
-0.008087
-0.007860
-0.007866
-0.007639
-0.008113
-0.008354
-0.006957
-0.008133
-0.008140
-0.006743
-0.008153
-0.008627
-0.007464
-0.007237
-0.007244
-0.007718
-0.007958
-0.007965
-0.008439
-0.008445
-0.008452
-0.008459
-0.007764
-0.007536
-0.008244
-0.008251
-0.008258
-0.008030
-0.008504
-0.008043
-0.007349
-0.008524
-0.008297
-0.007836
-0.008778
-0.008083
-0.008791
-0.007628
-0.007635
-0.008810
-0.008349
-0.008824
-0.008596
-0.008603
-0.008376
-0.007681
-0.008155
-0.008395
-0.008402
-0.007707
-0.007947
-0.009357
-0.008896
-0.008201
-0.008909
-0.007980
-0.007052
-0.008227
-0.009169
-0.008006
-0.008013
-0.008955
-0.008727
-0.008266
-0.008741
-0.008280
-0.006650
-0.007591
-0.009234
-0.008540
-0.008079
-0.007851
-0.008793
-0.008332
-0.007871
-0.008111
-0.007884
-0.008592
-0.007897
-0.009540
-0.009079
-0.006514
-0.007690
-0.008164
-0.008170
-0.007943
-0.008183
-0.008424
-0.008197
-0.008905
-0.008677
-0.007982
-0.008223
-0.008229
-0.008704
-0.008944
-0.009652
-0.008957
-0.007093
-0.008269
-0.008977
-0.008749
-0.009224
-0.008529
-0.007834
-0.008776
-0.008315
-0.007620
-0.008795
-0.009270
-0.007873
-0.007178
-0.007653
-0.008828
-0.009302
-0.009309
-0.009783
-0.009322
-0.008861
-0.009101
-0.009342
-0.008881
-0.007484
-0.007725
-0.008900
-0.008205
-0.008446
-0.008920
-0.008459
-0.008699
-0.009641
-0.009414
-0.008719
-0.008492
-0.008264
-0.008037
-0.008044
-0.008518
-0.009460
-0.009466
-0.008304
-0.008077
-0.009018
-0.009025
-0.009031
-0.008804
-0.008343
-0.008350
-0.009058
-0.009298
-0.008837
-0.008142
-0.008616
-0.009558
-0.009331
-0.010039
-0.010045
-0.008415
-0.008889
-0.008662
-0.007967
-0.008675
-0.008682
-0.009156
-0.009396
-0.008468
-0.008241
-0.008949
-0.007786
-0.008026
-0.008968
-0.007806
-0.008981
-0.009455
-0.008527
-0.009001
-0.008774
-0.009014
-0.008787
-0.008560
-0.008566
-0.008339
-0.008346
-0.008352
-0.009060
-0.009768
-0.009073
-0.009080
-0.008852
-0.008859
-0.009333
-0.008638
-0.008645
-0.009119
-0.009126
-0.008898
-0.008671
-0.009379
-0.008918
-0.008925
-0.008931
-0.008003
-0.008710
-0.008951
-0.008957
-0.008964
-0.008269
-0.008977
-0.008984
-0.008756
-0.010166
-0.010172
-0.009711
-0.009016
-0.009257
-0.009497
-0.009036
-0.009744
-0.008348
-0.007653
-0.008829
-0.009303
-0.009075
-0.009082
-0.009790
-0.009563
-0.009335
-0.008641
-0.008647
-0.010057
-0.009829
-0.008901
-0.009141
-0.008914
-0.008687
-0.009161
-0.009401
-0.009641
-0.009180
-0.008486
-0.009427
-0.009200
-0.008038
-0.008512
-0.009220
-0.009460
-0.008765
-0.008070
-0.008778
-0.009253
-0.009025
-0.008564
-0.009974
-0.010214
-0.010221
-0.010695
-0.009532
-0.009305
-0.008844
-0.008149
-0.010026
-0.010033
-0.008870
-0.008877
-0.008883
-0.009591
-0.009832
-0.009137
-0.009377
-0.009150
-0.009156
-0.010098
-0.009403
-0.008942
-0.009416
-0.008722
-0.008728
-0.009436
-0.009209
-0.008280
-0.008988
-0.009462
-0.008534
-0.009709
-0.009014
-0.008787
-0.010197
-0.009502
-0.010911
-0.011151
-0.008820
-0.009762
-0.010236
-0.008840
-0.008612
-0.009554
-0.009327
-0.008398
-0.009808
-0.009814
-0.009353
-0.010295
-0.009366
-0.010308
-0.010782
-0.008217
-0.008925
-0.009633
-0.009172
-0.011049
-0.010120
-0.009192
-0.010601
-0.010374
-0.009679
-0.009919
-0.010393
-0.009932
-0.009237
-0.009712
-0.010420
-0.011128
-0.009965
-0.009270
-0.010212
-0.009517
-0.009290
-0.010465
-0.010238
-0.008842
-0.009082
-0.010492
-0.010498
-0.010972
-0.010511
-0.009349
-0.009356
-0.010531
-0.010070
-0.008440
-0.009616
-0.011025
-0.010330
-0.009635
-0.009876
-0.009415
-0.009655
-0.009661
-0.008499
-0.008272
-0.009447
-0.010857
-0.010396
-0.009701
-0.010643
-0.009714
-0.009487
-0.010662
-0.009500
-0.009273
-0.010682
-0.010688
-0.009994
-0.010468
-0.010007
-0.009078
-0.010020
-0.010728
-0.010267
-0.010273
-0.010748
-0.011222
-0.010059
-0.008897
-0.009605
-0.010079
-0.009852
-0.010560
-0.010332
-0.011040
-0.011281
-0.010352
-0.011761
-0.011067
-0.010372
-0.011313
-0.009683
-0.009456
-0.010164
-0.009469
-0.009476
-0.010885
-0.009723
-0.009262
-0.011606
-0.009976
-0.009281
-0.009989
-0.009762
-0.010938
-0.010243
-0.009548
-0.010957
-0.010496
-0.010269
-0.010042
-0.010516
-0.011692
-0.010295
-0.010068
-0.010542
-0.010549
-0.011023
-0.010328
-0.009633
-0.011510
-0.011517
-0.010588
-0.010595
-0.009666
-0.010842
-0.010848
-0.009920
-0.012264
-0.011803
-0.011576
-0.010413
-0.008316
-0.009959
-0.010667
-0.010673
-0.011148
-0.010687
-0.010927
-0.010466
-0.010239
-0.010713
-0.011187
-0.011661
-0.010265
-0.010038
-0.011213
-0.010752
-0.010759
-0.011467
-0.011473
-0.010311
-0.010785
-0.010558
-0.010330
-0.011506
-0.011746
-0.011753
-0.010824
-0.010363
-0.010370
-0.010610
-0.011318
-0.010156
-0.009928
-0.010169
-0.011344
-0.011351
-0.011124
-0.012065
-0.011371
-0.010676
-0.011384
-0.011390
-0.012098
-0.010468
-0.009773
-0.011884
-0.010722
-0.009793
-0.010735
-0.010975
-0.011449
-0.011456
-0.010761
-0.010300
-0.010774
-0.010313
-0.011255
-0.012664
-0.011969
-0.010573
-0.011047
-0.011989
-0.010827
-0.011067
-0.011307
-0.010846
-0.011320
-0.010859
-0.010632
-0.011340
-0.011814
-0.011119
-0.010658
-0.011600
-0.011373
-0.010912
-0.010685
-0.010457
-0.010932
-0.011873
-0.012114
-0.011419
-0.011192
-0.010964
-0.010737
-0.011913
-0.011218
-0.009822
-0.010997
-0.011705
-0.011945
-0.011484
-0.011725
-0.012199
-0.010569
-0.010575
-0.011517
-0.011056
-0.011296
-0.011537
-0.011777
-0.011082
-0.011323
-0.011095
-0.010634
-0.011109
-0.010648
-0.011356
-0.011830
-0.011369
-0.011375
-0.011382
-0.011388
-0.011862
-0.012337
-0.011174
-0.010713
-0.011421
-0.010960
-0.010499
-0.011207
-0.011214
-0.011220
-0.012396
-0.011701
-0.011707
-0.011714
-0.011253
-0.011727
-0.011967
-0.011740
-0.011279
-0.011519
-0.011526
-0.010597
-0.012007
-0.012481
-0.009916
-0.010857
-0.012267
-0.011572
-0.011812
-0.011117
-0.010656
-0.011832
-0.011137
-0.010209
-0.011618
-0.011624
-0.011163
-0.011170
-0.011644
-0.011417
-0.010722
-0.011664
-0.011437
-0.010274
-0.010514
-0.010755
-0.010995
-0.011002
-0.010307
-0.010313
-0.010554
-0.011262
-0.012437
-0.011976
-0.010580
-0.010820
-0.011061
-0.010132
-0.010139
-0.011314
-0.010619
-0.009223
-0.010633
-0.011107
-0.010178
-0.009249
-0.009256
-0.009964
-0.010204
-0.009276
-0.007879
-0.008821
-0.008828
-0.006964
-0.006737
-0.006743
-0.005815
-0.005354
-0.004425
-0.004198
-0.004438
-0.002340
-0.001646
-0.001185
0.000913
0.002309
0.003705
0.006505
0.009771
0.012336
0.014200
0.016298
0.020967
0.024234
0.027734
0.033806
0.037307
0.042444
0.049217
0.054354
0.061829
0.069070
0.076078
0.084955
0.093833
0.101776
0.110420
0.118596
0.129578
0.140560
0.148269
0.156679
0.164855
0.171161
0.175129
0.175590
0.173012
0.169031
0.163647
0.160367
0.161997
0.165030
0.170401
0.175304
0.180441
0.185110
0.188611
0.195384
0.206834
0.227635
0.261763
0.307814
0.359243
0.409737
0.457893
0.506983
0.561218
0.624804
0.697041
0.764368
0.815797
0.854834
0.890833
0.931507
0.978493
1.022675
1.056802
1.079474
1.089755
1.079227
1.039008
0.966992
0.869959
0.762640
0.660697
0.566237
0.464996
0.345285
0.205468
0.062845
-0.070660
-0.220764
-0.426980
-0.703802
-1.020137
-1.322209
-1.568638
-1.733472
-1.793564
-1.738161
-1.586667
-1.387244
-1.204655
-1.076073
-0.956609
-0.768409
-0.503056
-0.250094
-0.110523
-0.069849
-0.035955
0.035814
0.129093
0.212552
0.312377
0.503149
0.795389
1.081784
1.179037
0.955520
0.456590
-0.104764
-0.518825
-0.717326
-0.725281
-0.624287
-0.528203
-0.475372
-0.425112
-0.365968
-0.352648
-0.416715
-0.511877
-0.553967
-0.501369
-0.476827
-0.687251
-1.167010
-1.672720
-1.843632
-1.484994
-0.706455
0.181734
0.903927
1.364969
1.570470
1.530484
1.312812
1.116182
1.148440
1.425717
1.726374
1.776867
1.526464
1.129937
0.678702
0.135350
-0.430913
-0.805229
-0.867893
-0.739311
-0.728563
-1.097268
-1.869040
-2.787402
-3.352964
-3.147930
-2.256935
-1.238287
-0.551865
-0.150442
0.217315
0.549067
0.581792
0.186901
-0.306184
-0.416309
-0.094844
0.262859
0.327615
0.140103
-0.057229
-0.080849
0.116937
0.563483
1.315135
2.159604
2.632102
2.580894
2.298694
2.149758
2.261741
2.352681
1.953583
1.000151
-0.039552
-0.722714
-1.066403
-1.444927
-2.122712
-2.893314
-3.182528
-2.583078
-1.351441
-0.182461
0.409273
0.462105
0.441056
0.572912
0.546252
-0.003178
-1.017631
-2.132149
-2.947640
-3.180977
-2.945082
-2.528929
-1.964549
-1.180400
-0.160583
0.955325
1.779922
2.072629
2.164037
2.593984
3.467210
4.412680
4.846835
4.466440
3.548779
2.471902
1.444357
0.588652
-0.136359
-0.960034
-2.026390
-3.066326
-3.694780
-3.885799
-3.949165
-4.176656
-4.528527
-4.596803
-3.860114
-2.307941
-0.609176
0.635086
1.368502
1.746779
1.907391
2.078057
2.592404
3.613156
4.737247
5.269129
4.953029
4.208612
3.543218
2.918739
2.087817
1.244270
0.741599
0.445605
-0.190797
-1.256218
-1.919741
-1.389262
0.035726
1.132696
0.912453
-0.463918
-2.173918
-3.554965
-4.258935
-4.063020
-2.825771
