EVENT_NAME: 202302060117
EVENT_ID: 13194
EVENT_DATE_YYYYMMDD: 2023/02/06
EVENT_TIME_HHMMSS: 01:17:32.00000
EVENT_LATITUDE_DEGREE: 37.288
EVENT_LONGITUDE_DEGREE: 37.043
EVENT_DEPTH_KM: 8.6
HYPOCENTER_REFERENCE: AFAD
MAGNITUDE_W: 7.7
MAGNITUDE_W_REFERENCE: AFAD
MAGNITUDE_L: 
MAGNITUDE_L_REFERENCE: 
FOCAL_MECHANISM: 
NETWORK: TK
STATION_CODE: 4209
STATION_NAME: 
STATION_LATITUDE_DEGREE: 37.70898
STATION_LONGITUDE_DEGREE: 33.54467
STATION_ELEVATION_M: 900.0
LOCATION: Kahramanmaras_Pazarck_Turkiye
SENSOR_DEPTH_M: 
VS30_M/S: None
SITE_CLASSIFICATION_EC8: unknown
MORPHOLOGIC_CLASSIFICATION: 
EPICENTRAL_DISTANCE_KM: 312.13
EARTHQUAKE_BACKAZIMUTH_DEGREE: 
DATE_TIME_FIRST_SAMPLE_YYYYMMDD_HHMMSS: 2023/02/06 01:18:03.2939700
DATE_TIME_FIRST_SAMPLE_PRECISION: millisecond
SAMPLING_INTERVAL_S: 0.01
NDATA: 18251
DURATION_S: 
STREAM: HNN
UNITS: cm/s^2
INSTRUMENT: sensor = ACEBOX/SARA | digitizer = 
INSTRUMENT_ANALOG/DIGITAL: 
INSTRUMENTAL_FREQUENCY_HZ: 
INSTRUMENTAL_DAMPING: 
FULL_SCALE_G: 
N_BIT_DIGITAL_CONVERTER: 
PGA_CM/S^2: 7.143
TIME_PGA_S: 
BASELINE_CORRECTION: BASELINE REMOVED
FILTER_TYPE: BUTTERWORTH
FILTER_ORDER: 
LOW_CUT_FREQUENCY_HZ: 
HIGH_CUT_FREQUENCY_HZ: 
LATE/NORMAL_TRIGGERED: 
DATABASE_VERSION: 
HEADER_FORMAT: DYNA 1.2
DATA_TYPE: Acceleration
PROCESSING: Automatic Paolucci et al., 2011
DATA_TIMESTAMP_YYYYMMDD_HHMMSS: 
DATA_LICENSE: U (unknown license)
DATA_CITATION: Turkish Accelerometric Archive v 1.0 - Disaster And Emergency Management Presidency, Earthquake Department
DATA_CREATOR: AFAD
ORIGINAL_DATA_MEDIATOR_CITATION: : AFAD - Disaster And Emergency Management Presidency
ORIGINAL_DATA_MEDIATOR: AFAD PROCESS SERVICE
ORIGINAL_DATA_CREATOR_CITATION: AFAD PROCESS SERVICE
ORIGINAL_DATA_CREATOR: network: TK
USER1: GuestUser
USER2: 
USER3: 
USER4: 
USER5: 
[...]
-0.914409
-0.920488
-0.983848
-1.082278
-1.141898
-1.192165
-1.186789
-1.106597
-1.016587
-0.925874
-0.856204
-0.819031
-0.804303
-0.776716
-0.711020
-0.670107
-0.642987
-0.595528
-0.532170
-0.402647
-0.224728
-0.032782
0.173660
0.331706
0.410728
0.400440
0.313700
0.196567
0.058859
-0.049156
-0.086097
-0.084228
-0.036301
0.063530
0.172946
0.266463
0.337303
0.367228
0.354134
0.312751
0.228583
0.101396
-0.052210
-0.220545
-0.366202
-0.482868
-0.572179
-0.614498
-0.630865
-0.628060
-0.606786
-0.598838
-0.616374
-0.670849
-0.772085
-0.911897
-1.073919
-1.216303
-1.309589
-1.327826
-1.237582
-1.050077
-0.787758
-0.468859
-0.141544
0.167067
0.451363
0.692875
0.878976
1.020890
1.138022
1.242294
1.365504
1.523082
1.705677
1.931290
2.176776
2.394674
2.580308
2.689958
2.680371
2.549911
2.303722
1.971027
1.578247
1.169568
0.790581
0.454146
0.207021
0.043596
-0.076109
-0.136664
-0.160512
-0.175944
-0.185297
-0.214289
-0.270401
-0.342646
-0.433127
-0.535998
-0.635597
-0.722103
-0.759979
-0.716260
-0.625548
-0.511690
-0.369309
-0.250774
-0.190690
-0.164739
-0.177132
-0.236985
-0.316009
-0.416076
-0.548172
-0.675827
-0.787817
-0.877362
-0.921317
-0.954517
-0.986315
-0.995434
-1.008060
-1.018582
-1.017180
-1.016480
-1.005259
-0.993804
-0.986557
-0.954528
-0.899353
-0.811680
-0.670234
-0.515929
-0.342452
-0.153545
-0.022152
0.094979
0.160675
0.138229
0.174233
0.146878
0.013378
0.008701
-0.001821
-0.076169
-0.038997
-0.001590
0.022256
0.131906
0.226827
0.237580
0.148502
-0.047655
-0.315587
-0.640800
-1.001083
-1.363938
-1.713699
-2.023716
-2.271074
-2.439877
-2.515628
-2.502069
-2.395459
-2.228295
-2.074691
-1.954754
-1.879473
-1.846742
-1.813544
-1.779878
-1.720027
-1.586530
-1.412820
-1.207313
-0.944994
-0.661399
-0.403521
-0.174167
0.004453
0.065940
0.028999
-0.020567
-0.047455
-0.002800
0.145426
0.366831
0.648789
0.963012
1.260868
1.526227
1.742956
1.879259
1.935135
1.937706
1.888140
1.806777
1.742248
1.707645
1.720503
1.792979
1.899589
2.024904
2.144841
2.223629
2.251918
2.248176
2.239524
2.231106
2.232041
2.249574
2.277629
2.289785
2.244895
2.152778
2.008524
1.794832
1.559631
1.341263
1.161940
1.014646
0.906397
0.855428
0.785755
0.695742
0.648982
0.642434
0.672359
0.711636
0.776631
0.862901
0.895631
0.889318
0.843726
0.774755
0.742724
0.699002
0.647098
0.614132
0.538147
0.434807
0.316037
0.156586
0.006955
-0.132857
-0.284592
-0.378580
-0.390739
-0.349124
-0.262152
-0.163491
-0.064362
0.040144
0.129454
0.228115
0.352962
0.480614
0.612007
0.746439
0.857960
0.938151
1.004548
1.071413
1.120510
1.139914
1.153005
1.180826
1.236936
1.330454
1.456470
1.594643
1.702890
1.772794
1.847842
1.910031
1.920785
1.897871
1.851578
1.806221
1.786347
1.773487
1.781669
1.809957
1.829127
1.841518
1.825151
1.775585
1.702405
1.582232
1.423950
1.241587
1.049405
0.874056
0.721385
0.617812
0.575961
0.587416
0.648670
0.750137
0.891115
1.029522
1.126079
1.181722
1.177513
1.125375
1.035596
0.898589
0.741243
0.545787
0.298428
0.022780
-0.281625
-0.597486
-0.921764
-1.264512
-1.595570
-1.894831
-2.169544
-2.433502
-2.665664
-2.877719
-3.121103
-3.341108
-3.512716
-3.673570
-3.782988
-3.838633
-3.853129
-3.818996
-3.757976
-3.671238
-3.572811
-3.452874
-3.316805
-3.190088
-3.055188
-2.957462
-2.873997
-2.768322
-2.705665
-2.622201
-2.501562
-2.399160
-2.262858
-2.123749
-1.985810
-1.815139
-1.669718
-1.567784
-1.517986
-1.512610
-1.531081
-1.578543
-1.587896
-1.535760
-1.463518
-1.358310
-1.211720
-1.032867
-0.831568
-0.605254
-0.344804
-0.093707
0.105487
0.250674
0.331567
0.328292
0.248333
0.150604
0.084672
0.059889
0.092152
0.194320
0.375979
0.635493
0.954158
1.315607
1.668874
1.967198
2.186967
2.291005
2.281418
2.181586
2.027980
1.880687
1.778282
1.744147
1.775475
1.864317
2.000152
2.125700
2.211970
2.227399
2.120787
1.912940
1.630278
1.295947
0.969097
0.701398
0.518568
0.432295
0.456843
0.554335
0.666323
0.789299
0.884220
0.893571
0.817352
0.674968
0.496814
0.311645
0.145180
0.023137
-0.041626
-0.043264
-0.001181
0.076906
0.181646
0.256226
0.287554
0.271889
0.184214
0.057027
-0.074368
-0.169993
-0.167656
-0.056369
0.155684
0.447695
0.788571
1.166620
1.536486
1.876894
2.198364
2.463255
2.650993
2.786127
2.899518
3.011505
3.147808
3.325025
3.498969
3.665666
3.826985
3.927984
3.993680
4.007239
3.921668
3.762217
3.493116
3.177021
2.897632
2.627127
2.450843
2.354284
2.276662
2.299573
2.340487
2.334641
2.299336
2.189918
2.061094
1.898838
1.694264
1.534112
1.393599
1.295169
1.262904
1.251915
1.280904
1.340521
1.458822
1.618738
1.730492
1.834998
1.954935
2.081419
2.209305
2.276637
2.326201
2.383714
2.403586
2.415274
2.414572
2.389788
2.361732
2.327362
2.296032
2.264469
2.254414
2.271247
2.268674
2.265400
2.257216
2.217001
2.174683
2.126987
2.093319
2.107580
2.146623
2.217696
2.337867
2.491704
2.661440
2.825097
2.980337
3.121550
3.236811
3.342252
3.425249
3.477151
3.521572
3.528818
3.509178
3.518997
3.543544
3.588900
3.664181
3.741567
3.843268
3.958295
4.052047
4.123821
4.151876
4.134340
4.082904
4.007152
3.926959
3.832503
3.740854
3.682170
3.637046
3.588882
3.524587
3.428495
3.296633
3.136948
2.981939
2.830671
2.691327
2.629603
2.623757
2.599909
2.594531
2.610428
2.580267
2.522284
2.442558
2.303214
2.136983
1.957893
1.752150
1.570255
1.449848
1.376669
1.362874
1.428570
1.551546
1.694161
1.816904
1.874650
1.853140
1.768738
1.633135
1.471346
1.320545
1.174655
1.022452
0.895499
0.799407
0.741190
0.748203
0.803378
0.905313
1.051435
1.212754
1.394881
1.591971
1.777605
1.932378
2.046470
2.126193
2.139051
2.092992
2.022150
1.903614
1.782272
1.693428
1.618612
1.595932
1.624688
1.691553
1.799333
1.906411
2.009047
2.078250
2.078950
2.063285
2.034760
1.987298
1.974438
1.996882
2.012077
2.005296
1.986825
1.942636
1.845142
1.720527
1.597081
1.426642
1.206637
1.030119
0.875812
0.673576
0.495422
0.351168
0.195224
0.060789
-0.075282
-0.220003
-0.322875
-0.399562
-0.456610
-0.477185
-0.480459
-0.471810
-0.437209
-0.381566
-0.306284
-0.203649
-0.099844
0.002091
0.119456
0.234016
0.344133
0.435547
0.476460
0.460093
0.390187
0.283340
0.136982
-0.018962
-0.162047
-0.333187
-0.493807
-0.660038
-0.878172
-1.070588
-1.263940
-1.477865
-1.637082
-1.771283
-1.856620
-1.862466
-1.832307
-1.728970
-1.553156
-1.327309
-1.021503
-0.662158
-0.297669
0.020294
0.260169
0.415176
0.469416
0.460297
0.418680
0.354852
0.290089
0.205687
0.125260
0.064471
0.013502
0.002513
0.010928
0.028696
0.052075
0.051840
0.059086
0.038511
-0.057581
-0.191781
-0.351466
-0.515593
-0.663354
-0.777214
-0.840340
-0.899025
-0.970568
-1.040240
-1.097756
-1.102900
-1.056376
-0.981562
-0.869340
-0.736311
-0.614737
-0.504853
-0.412738
-0.360369
-0.361305
-0.424198
-0.556060
-0.753620
-0.982509
-1.206488
-1.428362
-1.621480
-1.765968
-1.879361
-1.938279
-1.960490
-1.986911
-2.002342
-2.052610
-2.153144
-2.259289
-2.401672
-2.532366
-2.575620
-2.577959
-2.534006
-2.439085
-2.332241
-2.187054
-2.049816
-1.975704
-1.923334
-1.899722
-1.902528
-1.884995
-1.841509
-1.764825
-1.639511
-1.461592
-1.228030
-0.950513
-0.640032
-0.313652
-0.026316
0.167501
0.256810
0.242548
0.146923
0.018334
-0.118906
-0.229026
-0.289580
-0.320209
-0.311560
-0.262463
-0.202378
-0.142761
-0.097172
-0.082444
-0.118683
-0.218750
-0.353184
-0.482943
-0.594699
-0.702247
-0.815172
-0.915004
-1.008291
-1.116072
-1.224789
-1.342858
-1.503244
-1.694959
-1.897428
-2.107145
-2.297925
-2.451765
-2.563755
-2.625245
-2.656574
-2.688606
-2.727183
-2.775814
-2.836836
-2.905106
-2.971038
-3.021306
-3.061988
-3.096357
-3.111789
-3.117635
-3.108518
-3.075086
-3.031600
-2.974789
-2.915405
-2.864672
-2.800379
-2.731878
-2.660571
-2.535023
-2.354532
-2.146688
-1.893019
-1.616438
-1.355053
-1.086188
-0.829713
-0.616725
-0.428052
-0.282631
-0.178592
-0.081100
-0.013300
0.033225
0.100791
0.187295
0.299283
0.472993
0.717544
1.004880
1.290579
1.540975
1.735259
1.830180
1.816852
1.745543
1.625838
1.474570
1.335927
1.205000
1.083658
0.995515
0.938467
0.901526
0.871132
0.848920
0.816421
0.738565
0.617691
0.461280
0.276579
0.092579
-0.062897
-0.172783
-0.232402
-0.233572
-0.184476
-0.115741
-0.033211
0.050253
0.086023
0.053992
-0.026202
-0.120423
-0.185654
-0.182616
-0.100554
0.038087
0.193795
0.331267
0.427824
0.480661
0.486738
0.444420
0.374280
0.289878
0.179992
0.050935
-0.071576
-0.180527
-0.280125
-0.364527
-0.443552
-0.530759
-0.631995
-0.766429
-0.943181
-1.155470
-1.405868
-1.673801
-1.912041
-2.084585
-2.201250
-2.304824
-2.400916
-2.485785
-2.581643
-2.689191
-2.808896
-2.960164
-3.135279
-3.299172
-3.430801
-3.539752
-3.627894
-3.686345
-3.713700
-3.721884
-3.721418
-3.705988
-3.691026
-3.682844
-3.651049
-3.604057
-3.557766
-3.511709
-3.482018
-3.450223
-3.395983
-3.361382
-3.369098
-3.392713
-3.446721
-3.514056
-3.515927
-3.463792
-3.371910
-3.205682
-3.002513
-2.768249
-2.494941
-2.236129
-1.985499
-1.737909
-1.517673
-1.323856
-1.189658
-1.110869
-1.031145
-0.932951
-0.814885
-0.656371
-0.445254
-0.227122
-0.055282
0.072838
0.164018
0.231116
0.281849
0.322061
0.384484
0.449946
0.503719
0.595600
0.733539
0.902340
1.094052
1.286466
1.473971
1.639498
1.774164
1.880307
1.941561
1.968213
1.975226
1.964937
1.975223
2.013799
2.063129
2.148932
2.277753
2.428785
2.584493
2.727575
2.849616
2.937991
2.973994
2.949678
2.855925
2.697409
2.487926
2.244074
1.995079
1.752864
1.527716
1.341145
1.173745
0.998629
0.815565
0.610758
0.381401
0.141290
-0.105367
-0.350621
-0.594940
-0.841364
-1.083813
-1.305687
-1.486180
-1.628797
-1.747567
-1.855115
-1.963598
-2.068341
-2.167472
-2.256316
-2.311025
-2.330665
-2.322484
-2.282505
-2.220550
-2.138956
-2.031878
-1.910772
-1.794810
-1.691706
-1.610112
-1.551430
-1.518699
-1.532728
-1.608714
-1.740576
-1.910548
-2.088703
-2.244647
-2.368794
-2.472601
-2.565420
-2.650991
-2.737263
-2.822600
-2.899520
-2.975505
-3.063414
-3.152726
-3.250454
-3.365951
-3.451055
-3.493373
-3.514416
-3.473970
-3.393545
-3.307275
-3.175180
-3.020408
-2.849035
-2.637450
-2.428904
-2.230177
-2.035191
-1.869196
-1.724711
-1.600098
-1.519673
-1.503074
-1.542353
-1.624417
-1.738745
-1.848397
-1.925785
-1.956881
-1.926489
-1.839985
-1.711397
-1.558261
-1.388292
-1.198917
-1.015153
-0.842612
-0.655575
-0.453108
-0.245497
-0.045368
0.123900
0.253657
0.346239
0.399544
0.426430
0.447938
0.474122
0.507320
0.539349
0.567872
0.603641
0.645256
0.692950
0.759815
0.842110
0.934225
1.033822
1.122196
1.191399
1.251016
1.302684
1.351547
1.424724
1.543960
1.714865
1.934165
2.174975
2.395679
2.552322
2.621291
2.616848
2.557930
2.473996
2.411103
2.387021
2.404788
2.463237
2.539687
2.604214
2.650037
2.688847
2.723214
2.754775
2.787038
2.822340
2.866995
2.932223
3.026676
3.154796
3.322895
3.516478
3.697436
3.848702
3.957884
4.012825
4.028489
4.011654
3.969570
3.942916
3.945252
3.959747
3.990607
4.030118
4.079681
4.165484
4.247078
4.291499
4.306460
4.254323
4.123395
3.934953
3.686426
3.401893
3.120868
2.851533
2.612123
2.410589
2.207885
1.993726
1.767175
1.486384
1.160469
0.820527
0.474272
0.164022
-0.088480
-0.295626
-0.426085
-0.468170
-0.467470
-0.426089
-0.344495
-0.278331
-0.244665
-0.247238
-0.295869
-0.381206
-0.502314
-0.632774
-0.741023
-0.819347
-0.869147
-0.904919
-0.910998
-0.912636
-0.926665
-0.904923
-0.874530
-0.837825
-0.767687
-0.715785
-0.675339
-0.636063
-0.601929
-0.522206
-0.418634
-0.291450
-0.092957
0.131721
0.383987
0.707562
1.056152
1.391650
1.698157
1.945280
2.118289
2.203390
2.223262
2.196140
2.117115
2.000917
1.850584
1.691601
1.544074
1.422732
1.345110
1.259072
1.164149
1.066421
0.898086
0.689537
0.466494
0.215862
-0.020742
-0.244487
-0.456075
-0.636100
-0.773340
-0.842545
-0.868030
-0.879253
-0.885333
-0.903570
-0.933264
-0.989142
-1.042449
-1.039177
-1.000601
-0.904746
-0.731971
-0.531841
-0.257598
0.087719
0.462028
0.909982
1.346714
1.731310
2.097201
2.324451
2.465897
2.609214
2.619500
2.558010
2.515458
2.397857
2.256409
2.120805
1.919271
1.721945
1.544959
1.317240
1.079934
0.884712
0.694634
0.462239
0.246676
0.098448
-0.037156
-0.132312
-0.137457
-0.074333
0.038357
0.177932
0.339953
0.512027
0.679191
0.838172
0.966291
1.089501
1.199853
1.260873
1.300617
1.301551
1.273027
1.253621
1.197274
1.103988
1.008598
0.879073
0.747210
0.654392
0.551754
0.474833
0.446543
0.382247
0.296676
0.179777
-0.016614
-0.247841
-0.533308
-0.871614
-1.219973
-1.576749
-1.888869
-2.147216
-2.331917
-2.390835
-2.382186
-2.323270
-2.225544
-2.173408
-2.160083
-2.187438
-2.302467
-2.455372
-2.611082
-2.793211
-2.947285
-3.049455
-3.148820
-3.207270
-3.241873
-3.319495
-3.375608
-3.408340
-3.470999
-3.511213
-3.515189
-3.531322
-3.552599
-3.544651
-3.535066
-3.537171
-3.497193
-3.445993
-3.424251
-3.402508
-3.432669
-3.546296
-3.687511
-3.882265
-4.145755
-4.412519
-4.678348
-4.921498
-5.141970
-5.355662
-5.452221
-5.539662
-5.696074
-5.775332
-5.899246
-6.012405
-6.021290
-6.173259
-6.319618
-6.360533
-6.499644
-6.646469
-6.762200
-6.891024
-7.011664
-7.111964
-7.142593
-7.128800
-7.099109
-7.101214
-7.068717
-6.895942
-6.716621
-6.525142
-6.313790
-6.138677
-5.888047
-5.657291
-5.468617
-5.276437
-5.152993
-4.941642
-4.795052
-4.847891
-4.812121
-4.833398
-4.887406
-4.709955
-4.601708
-4.506554
-4.255924
-4.106529
-3.926038
-3.756770
-3.701361
-3.532093
-3.464994
-3.429926
-3.261593
-3.192624
-3.019147
-2.748177
-2.454295
-2.017329
-1.624083
-1.161400
-0.711575
-0.334695
0.185971
0.484996
0.702660
1.071358
1.207894
1.338352
1.559757
1.620777
1.692552
1.791914
1.810383
1.819500
1.814589
1.768764
1.736967
1.712884
1.707506
1.732989
1.709140
1.735792
1.773432
1.679211
1.638295
1.572831
1.384389
1.264918
1.128847
0.975475
0.893177
0.777914
0.656572
0.551128
0.438905
0.336734
0.263321
0.240174
0.190608
0.117428
0.022505
-0.145129
-0.300605
-0.472447
-0.671877
-0.820339
-0.974179
-1.111887
-1.228319
-1.344751
-1.420736
-1.518698
-1.568966
-1.517298
-1.472877
-1.338913
-1.100908
-0.922990
-0.748578
-0.545175
-0.423368
-0.354165
-0.287768
-0.220669
-0.111721
0.035804
0.270068
0.571198
0.841700
1.175328
1.495863
1.710955
1.971638
2.192575
2.348517
2.507498
2.623461
2.770518
2.853515
2.894896
3.011793
3.039380
3.030495
3.064161
3.053873
2.981862
2.925048
2.942348
2.832696
2.753438
2.884831
2.843681
2.790141
2.965020
3.040068
3.074902
3.173330
3.148313
3.069989
3.002655
2.899081
2.796443
2.652657
2.544875
2.492971
2.317155
2.208204
2.175237
1.970196
1.779884
1.610614
1.363021
1.137640
0.915999
0.755613
0.634739
0.531399
0.479963
0.408653
0.383402
0.370776
0.349032
0.341783
0.250367
0.156847
-0.018502
-0.276849
-0.447522
-0.733691
-1.013547
-1.075271
-1.169960
-1.266285
-1.212747
-1.121100
-1.069665
-1.004203
-0.926116
-0.886138
-0.818805
-0.749836
-0.711962
-0.665905
-0.614938
-0.464841
-0.330643
-0.269155
-0.093107
0.032207
0.105618
0.305280
0.460287
0.615995
0.846985
1.009941
1.163311
1.327435
1.446671
1.539721
1.561463
1.534342
1.499505
1.416739
1.298203
1.179433
1.081705
1.007122
0.939086
0.870816
0.788518
0.741290
0.715572
0.637248
0.593060
0.591188
0.582537
0.622047
0.690315
0.805810
0.936034
1.028382
1.156736
1.227809
1.199519
1.136860
0.968057
0.734493
0.495551
0.259882
0.061855
-0.105311
-0.199299
-0.255645
-0.304744
-0.298198
-0.298667
-0.286043
-0.245130
-0.253781
-0.249808
-0.248640
-0.295868
-0.337719
-0.407158
-0.490157
-0.573624
-0.659662
-0.671353
-0.685382
-0.694267
-0.594671
-0.506296
-0.430547
-0.307337
-0.212650
-0.147188
-0.109548
-0.084533
-0.128254
-0.287705
-0.452065
-0.664121
-0.868928
-0.952395
-1.090102
-1.247683
-1.345645
-1.507434
-1.658000
-1.766717
-1.910737
-2.020389
-2.059668
-2.127003
-2.238292
-2.223330
-2.130046
-2.126774
-2.030684
-1.809045
-1.671574
-1.515632
-1.265704
-1.048975
-0.828739
-0.570861
-0.349690
-0.172239
-0.039210
0.047762
0.100365
0.098727
0.078386
0.081658
0.084229
0.110880
0.221699
0.376706
0.508099
0.642765
0.742128
0.740724
0.732774
0.715238
0.607456
0.492661
0.394698
0.285514
0.236883
0.260262
0.326191
0.448233
0.617033
0.809213
1.009109
1.189132
1.329409
1.418485
1.469685
1.522288
1.576762
1.647835
1.766136
1.885605
1.995956
2.115659
2.207073
2.281186
2.341270
2.359739
2.373065
2.375635
2.343838
2.313209
2.286322
2.255693
2.235819
2.219219
2.198176
2.166144
2.111435
2.038489
1.945436
1.820120
1.674229
1.508700
1.325636
1.159872
1.011410
0.892172
0.857803
0.901288
0.990130
1.117081
1.265307
1.410962
1.526924
1.598231
1.628390
1.615296
1.562691
1.480861
1.387808
1.300133
1.223213
1.169205
1.148863
1.157513
1.198426
1.271136
1.368862
1.488799
1.599851
1.671159
1.710435
1.720488
1.733579
1.783611
1.850008
1.942123
2.070009
2.193687
2.299128
2.388672
2.462784
2.531987
2.601424
2.671562
2.740765
2.812773
2.888522
2.951413
2.991391
2.987415
2.922652
2.807156
2.643263
2.439390
2.221023
2.000317
1.795042
1.644943
1.569893
1.551889
1.590699
1.700816
1.835950
1.934611
2.000775
2.020646
1.962664
1.846933
1.690521
1.521719
1.400377
1.339822
1.347536
1.428897
1.536676
1.619907
1.654742
1.619905
1.521709
1.403874
1.290481
1.204443
1.178490
1.207480
1.299829
1.445951
1.596515
1.752691
1.898345
1.993032
2.050779
2.083510
2.090990
2.080000
2.060127
2.054982
2.078828
2.147563
2.285035
2.490776
2.753329
3.043938
3.315142
3.540755
3.718673
3.853573
3.936337
3.955273
3.925813
3.842581
3.698560
3.540980
3.394154
3.275150
3.226987
3.241014
3.284265
3.345753
3.400694
3.434593
3.446516
3.419161
3.341773
3.221834
3.053031
2.845184
2.629622
2.409851
2.183301
1.961192
1.746098
1.536848
1.343029
1.167914
0.990928
0.798044
0.587392
0.358737
0.140837
-0.042929
-0.180870
-0.249374
-0.259428
-0.225996
-0.161937
-0.098579
-0.036156
0.018785
0.045203
0.049410
0.030238
-0.003664
-0.034526
-0.057907
-0.065156
-0.043648
0.015034
0.099668
0.204642
0.320604
0.423240
0.515589
0.568192
0.527978
0.394011
0.170032
-0.124320
-0.459118
-0.812621
-1.111649
-1.332588
-1.523602
-1.665284
-1.727943
-1.751090
-1.751091
-1.720932
-1.697320
-1.702464
-1.732158
-1.791309
-1.861216
-1.931590
-2.000561
-2.036333
-2.040075
-2.031426
-2.002202
-1.966432
-1.947963
-1.973448
-2.045927
-2.129159
-2.232733
-2.356880
-2.461622
-2.567066
-2.674614
-2.755041
-2.824246
-2.868903
-2.884334
-2.882465
-2.849033
-2.813731
-2.799237
-2.780768
-2.761597
-2.744064
-2.724893
-2.695904
-2.652886
-2.612674
-2.558200
-2.476139
-2.368125
-2.207741
-2.002469
-1.791818
-1.579765
-1.365374
-1.173895
-1.029410
-0.916253
-0.826710
-0.780653
-0.767561
-0.799592
-0.905738
-1.059577
-1.247551
-1.477843
-1.728474
-1.979574
-2.211034
-2.407659
-2.562434
-2.663201
