EVENT_NAME: 202302060117
EVENT_ID: 13194
EVENT_DATE_YYYYMMDD: 2023/02/06
EVENT_TIME_HHMMSS: 01:17:32.00000
EVENT_LATITUDE_DEGREE: 37.288
EVENT_LONGITUDE_DEGREE: 37.043
EVENT_DEPTH_KM: 8.6
HYPOCENTER_REFERENCE: AFAD
MAGNITUDE_W: 7.7
MAGNITUDE_W_REFERENCE: AFAD
MAGNITUDE_L: 
MAGNITUDE_L_REFERENCE: 
FOCAL_MECHANISM: 
NETWORK: TK
STATION_CODE: 2103
STATION_NAME: 
STATION_LATITUDE_DEGREE: 37.94406
STATION_LONGITUDE_DEGREE: 40.31274
STATION_ELEVATION_M: 730.0
LOCATION: Kahramanmaras_Pazarck_Turkiye
SENSOR_DEPTH_M: 
VS30_M/S: None
SITE_CLASSIFICATION_EC8: unknown
MORPHOLOGIC_CLASSIFICATION: 
EPICENTRAL_DISTANCE_KM: 297.07
EARTHQUAKE_BACKAZIMUTH_DEGREE: 
DATE_TIME_FIRST_SAMPLE_YYYYMMDD_HHMMSS: 2023/02/06 01:18:00.7020370
DATE_TIME_FIRST_SAMPLE_PRECISION: millisecond
SAMPLING_INTERVAL_S: 0.01
NDATA: 18251
DURATION_S: 
STREAM: HNE
UNITS: cm/s^2
INSTRUMENT: sensor = GMS+/GEOSIG | digitizer = 
INSTRUMENT_ANALOG/DIGITAL: 
INSTRUMENTAL_FREQUENCY_HZ: 
INSTRUMENTAL_DAMPING: 
FULL_SCALE_G: 
N_BIT_DIGITAL_CONVERTER: 
PGA_CM/S^2: 43.121
TIME_PGA_S: 
BASELINE_CORRECTION: BASELINE REMOVED
FILTER_TYPE: BUTTERWORTH
FILTER_ORDER: 
LOW_CUT_FREQUENCY_HZ: 
HIGH_CUT_FREQUENCY_HZ: 
LATE/NORMAL_TRIGGERED: 
DATABASE_VERSION: 
HEADER_FORMAT: DYNA 1.2
DATA_TYPE: Acceleration
PROCESSING: Automatic Paolucci et al., 2011
DATA_TIMESTAMP_YYYYMMDD_HHMMSS: 
DATA_LICENSE: U (unknown license)
DATA_CITATION: Turkish Accelerometric Archive v 1.0 - Disaster And Emergency Management Presidency, Earthquake Department
DATA_CREATOR: AFAD
ORIGINAL_DATA_MEDIATOR_CITATION: : AFAD - Disaster And Emergency Management Presidency
ORIGINAL_DATA_MEDIATOR: AFAD PROCESS SERVICE
ORIGINAL_DATA_CREATOR_CITATION: AFAD PROCESS SERVICE
ORIGINAL_DATA_CREATOR: network: TK
USER1: GuestUser
USER2: 
USER3: 
USER4: 
USER5: 
[...]
-5.054645
-6.516360
-8.248493
-9.504992
-10.101939
-10.481461
-10.892934
-11.105944
-10.870855
-10.363529
-9.625529
-8.379423
-6.731715
-5.308448
-4.721113
-4.930227
-5.553930
-6.425712
-7.360098
-8.134727
-8.529315
-8.581009
-8.795838
-9.344728
-9.792569
-9.609433
-8.720508
-7.646109
-6.835114
-6.246740
-5.749545
-5.502247
-5.567709
-5.821503
-6.089584
-6.038151
-5.528746
-4.679566
-3.728556
-2.972113
-2.594930
-2.615972
-2.842750
-3.251106
-4.076649
-5.405363
-7.284784
-9.778817
-12.770565
-15.942592
-18.814846
-20.905979
-22.145072
-23.039714
-24.059563
-25.189035
-26.176933
-26.718290
-26.531258
-25.459975
-23.474830
-20.762593
-17.767210
-14.922752
-12.474700
-10.500205
-8.835093
-7.224792
-5.631117
-4.213304
-3.167219
-2.571053
-2.241148
-1.928648
-1.623162
-1.375084
-1.207015
-1.243383
-1.591473
-2.231801
-2.812123
-2.715231
-1.661613
0.174426
2.601437
5.596041
8.985493
12.340654
15.449037
18.302067
20.602571
21.855691
22.054672
21.596441
20.766482
19.776506
18.626253
17.456777
16.536938
15.533194
14.064725
12.366622
10.824639
9.538267
8.557383
7.978100
7.761972
7.751581
7.675468
7.428688
7.356472
7.785348
8.636347
9.661131
10.621492
11.437162
12.059826
12.180617
11.479503
9.812831
7.105009
3.470855
-0.548534
-4.249708
-7.212102
-9.223486
-10.463359
-11.538020
-12.607485
-13.284960
-13.227033
-12.244072
-10.624160
-8.978011
-7.496555
-6.248371
-5.368797
-4.705351
-4.114899
-3.596403
-3.170904
-2.941789
-2.799956
-2.388485
-1.684774
-0.770392
0.395966
1.544139
2.230965
2.233562
1.625444
0.612609
-0.516603
-1.458522
-1.838564
-1.409428
-0.366980
1.039923
2.759066
4.800062
7.179795
9.711753
11.911467
13.637364
15.185061
16.703923
17.869761
18.065885
16.993562
14.787872
11.755341
8.144046
4.292726
0.615971
-2.762052
-5.853551
-8.643719
-11.160871
-13.557750
-16.046068
-18.533866
-20.690719
-22.278422
-23.164750
-23.475693
-23.588953
-23.753906
-23.866127
-23.594670
-22.863424
-22.015802
-21.217536
-20.142097
-18.455165
-16.191548
-13.495677
-10.389373
-7.079670
-4.271580
-2.634263
-2.055241
-1.990820
-2.093169
-2.313193
-2.636345
-2.925207
-3.205758
-3.668665
-4.474465
-5.719274
-7.387504
-9.357585
-11.325328
-12.817955
-13.346064
-12.608843
-10.809951
-8.508927
-6.138546
-3.811285
-1.691840
-0.242335
0.277200
0.267328
0.529173
1.459661
3.020346
5.033807
7.011160
8.179855
7.892291
6.143273
3.567673
1.008439
-1.072822
-2.506482
-3.151486
-3.155903
-2.834571
-2.477650
-2.195543
-1.869795
-1.345584
-0.545499
0.457724
1.521213
2.673802
3.971602
5.127309
5.753349
5.791015
5.492021
5.396166
6.255478
8.439866
11.537857
14.611690
16.805690
17.914898
18.294678
18.521455
19.138403
20.354635
22.190415
24.710423
27.785035
30.911861
33.433427
34.849162
34.780063
33.107676
30.280102
26.963644
23.821491
21.273946
19.207232
17.546275
16.593186
16.604355
17.350148
18.260634
18.886414
19.038638
18.913689
18.832380
18.993436
19.563366
20.476709
21.764898
23.302204
24.604420
25.860916
27.376921
29.068789
30.886644
32.590981
34.078412
35.387901
36.454767
37.354862
38.238073
38.863073
38.545636
36.715311
33.189220
28.297010
22.858249
17.857975
14.109524
11.810317
10.444976
9.461754
8.743495
8.430214
8.532562
9.073658
10.371458
12.460770
14.933760
17.162309
18.541156
18.905870
18.293076
16.730052
14.390062
11.381689
7.704154
3.662684
-0.279815
-3.631861
-5.924573
-6.991960
-6.912212
-6.005103
-4.548065
-2.865549
-1.538396
-0.906641
-0.827672
-0.800917
-0.629211
-0.662202
-1.108744
-1.879736
-2.951798
-4.197386
-5.269449
-5.931858
-6.102786
-6.060964
-6.506207
-7.865573
-9.782401
-11.711179
-13.299401
-14.258205
-14.840086
-15.499117
-16.217117
-16.893293
-17.531804
-17.981722
-18.029520
-17.472319
-16.160751
-13.995586
-10.899153
-6.999258
-2.789200
0.966004
3.802150
5.534542
6.217990
6.188376
5.631173
4.607427
2.868800
0.152406
-3.265881
-6.825222
-10.029720
-12.607138
-14.464739
-15.780983
-16.855644
-17.819903
-18.767277
-19.789465
-20.928548
-22.106077
-23.097871
-23.759501
-24.037713
-23.847044
-23.004877
-21.585506
-20.232375
-19.265520
-18.373737
-17.217771
-15.944129
-15.270032
-15.545387
-16.618229
-18.181513
-19.842210
-21.352501
-22.342478
-22.471843
-21.837490
-20.835566
-19.926898
-19.322679
-18.847824
-18.345693
-17.848238
-17.424298
-17.126604
-17.115695
-17.682249
-18.763924
-19.801697
-20.228756
-19.900151
-18.961350
-17.674201
-16.507324
-16.049873
-16.692540
-18.346742
-20.761546
-23.909674
-27.728263
-31.826362
-35.696126
-38.794898
-40.700556
-41.442454
-41.255162
-40.486769
-39.670060
-39.234430
-39.151824
-38.988171
-38.348103
-37.052641
-35.392206
-34.131033
-33.978550
-35.103086
-37.024070
-39.070523
-40.758236
-41.790814
-41.877577
-40.955921
-39.398353
-37.484644
-35.504693
-34.046876
-33.427850
-33.368624
-33.345765
-32.905719
-31.633376
-29.161685
-25.143076
-19.491046
-12.635252
-5.037820
3.087720
11.117146
18.009048
23.523141
27.987252
31.335400
33.358212
34.253891
34.565612
34.298570
33.266512
31.715177
29.902775
28.053487
26.219784
24.343999
22.122723
19.130975
15.599430
12.093601
9.045484
6.711988
5.425357
5.767730
7.881201
11.203113
14.880906
18.180478
20.648013
22.157004
22.964102
23.708596
25.050037
26.879582
28.804721
30.682583
32.252879
33.280521
33.512493
33.028025
32.421726
32.118836
32.418347
33.420791
34.965111
36.924280
38.909166
40.409065
41.097449
40.867294
39.750292
37.808266
35.352419
32.546146
29.283720
25.765682
22.523778
19.875703
17.453886
14.922707
12.530503
10.740701
9.825279
9.602916
9.892817
10.565615
11.228542
11.519741
11.292963
10.566392
9.527319
8.563060
8.005078
7.859607
7.987153
8.049756
7.595421
6.410359
4.647054
2.842965
1.690114
1.610625
2.318751
3.459651
4.910454
6.303070
7.385522
8.085855
8.384588
8.604091
8.897888
8.970103
8.778653
8.345619
7.946615
7.955706
7.974669
7.689443
7.363953
7.296413
7.395643
7.345767
7.005470
6.294485
5.020582
3.162202
1.206928
-0.239460
-0.805755
-0.510140
0.240849
0.881436
1.126656
1.297842
1.753994
2.714096
4.323877
6.435010
8.810327
11.375535
13.916064
15.869778
16.997430
17.412539
17.481117
17.826088
18.508238
19.171944
19.714079
20.319597
20.976030
21.219952
20.895760
20.311282
19.626273
18.557328
16.569063
13.582511
10.139806
6.988560
4.622074
3.075675
2.031927
1.047925
-0.010890
-1.098279
-2.139170
-3.063165
-3.991836
-4.779453
-4.972201
-4.423053
-3.396710
-2.284904
-1.363508
-0.867352
-1.125822
-2.273217
-4.124324
-6.403009
-9.060696
-11.939185
-14.249821
-15.500864
-15.833887
-15.651531
-15.632828
-16.363036
-18.071790
-20.290988
-22.389654
-24.054248
-25.050458
-25.500117
-25.651563
-25.962506
-27.314858
-30.099571
-33.624622
-36.512723
-37.721683
-37.262414
-35.606654
-33.100154
-30.036712
-26.657651
-22.994665
-18.770060
-13.941234
-8.969017
-4.374762
-0.510975
2.486227
4.772703
6.466389
7.498187
8.322430
9.410597
10.467332
11.196500
11.459904
11.091553
10.226005
9.151345
8.188904
7.484932
6.430014
4.300695
1.328690
-1.997379
-5.618805
-9.332967
-12.797492
-15.849766
-18.718904
-21.647268
-24.145457
-25.513136
-25.448194
-24.333531
-22.978322
-21.591422
-19.941896
-18.201452
-16.614271
-15.158012
-13.790335
-12.578259
-11.753236
-11.447750
-11.580492
-11.894292
-12.320312
-12.873879
-13.051301
-12.413571
-11.004071
-9.241027
-7.810226
-7.035599
-6.915327
-7.625273
-9.205182
-11.415808
-13.935558
-16.401275
-18.292127
-18.883619
-17.856757
-15.521444
-12.135630
-7.765814
-3.092850
0.643651
2.724132
3.476679
3.715924
3.953871
4.589782
5.777700
7.095502
8.116909
8.953881
9.988536
10.866810
10.983705
10.359482
8.885818
6.144746
2.017033
-2.843745
-7.379813
-11.006433
-13.410846
-14.309644
-13.845699
-12.850009
-12.237737
-11.861853
-11.084369
-9.884241
-8.505394
-6.974842
-5.000347
-2.454622
0.163578
2.450575
4.276223
5.402056
6.002899
6.764797
8.218978
9.957604
10.910691
10.485451
8.821896
6.437486
3.551204
0.138372
-3.560984
-7.165784
-10.281701
-12.820933
-14.929470
-16.547305
-17.574688
-18.160985
-18.290869
-17.356225
-14.995195
-11.705755
-8.152909
-4.654615
-1.159958
2.200918
4.992124
7.348998
9.721198
12.433434
15.592211
18.779563
21.694418
24.345089
26.558052
28.267843
29.988805
32.039672
33.847137
34.645403
34.178080
32.933531
31.472596
29.804106
27.877666
25.892779
23.967378
21.800134
19.445337
17.592152
16.449951
15.913270
16.062376
16.867656
18.019466
19.001389
19.467411
19.687434
20.219958
21.194347
22.528514
23.951002
24.944874
25.153727
24.744851
24.393384
24.447935
24.714197
24.960716
25.011889
24.613145
23.684734
22.607475
21.856745
21.676466
22.153918
23.126229
24.131790
24.601710
24.175430
22.944129
21.345776
19.838602
18.760824
18.362080
18.162837
17.230010
15.368772
12.881494
10.001186
6.894621
3.932227
1.523138
-0.320435
-1.993601
-4.021870
-6.451480
-9.037470
-11.730225
-14.356739
-16.432026
-17.814512
-18.908135
-19.886941
-20.704172
-21.467890
-22.244078
-22.957401
-23.695662
-24.830849
-26.556488
-28.733603
-31.100869
-33.432027
-35.700321
-37.710146
-38.903261
-39.000675
-38.134609
-36.522230
-34.493703
-32.523624
-30.958263
-29.859705
-29.167165
-28.864276
-29.006110
-29.354719
-29.511620
-29.353681
-28.818041
-28.039517
-27.469847
-27.584924
-28.678029
-30.529395
-32.416610
-33.397494
-32.947837
-31.426636
-29.498899
-27.761053
-26.698083
-26.404286
-26.577032
-26.610024
-25.765519
-23.826352
-21.212048
-18.518255
-16.119819
-13.958291
-11.855470
-9.542237
-6.728951
-3.252998
0.838866
5.236477
9.526024
13.113938
15.915014
18.436061
20.730331
22.544030
23.531407
23.388794
22.638583
21.959290
21.460535
21.252460
21.452221
21.997213
22.623773
22.980173
22.943805
22.733393
22.578310
22.412318
22.214634
22.169174
22.343737
22.451800
22.165275
21.460265
20.526918
19.757225
19.633834
20.343000
21.521047
22.490240
22.665843
21.722105
19.687083
17.163177
15.123478
14.019204
13.593184
13.450571
13.306399
13.089492
12.703476
11.911183
10.645593
9.169851
8.062720
7.721124
7.802171
7.388880
6.022500
4.213995
2.389904
0.407354
-1.621434
-2.807795
-2.423339
-1.021112
0.633609
2.754873
5.774155
9.242575
11.919223
13.268717
13.950607
14.631718
15.347378
15.770799
15.937050
16.312154
17.007552
17.528906
17.525268
17.548387
18.310285
19.580030
20.275688
19.376111
16.887274
13.582506
10.269685
7.743181
6.264322
5.334352
4.563100
3.946411
3.609751
3.499349
3.193341
2.261293
0.318488
-2.806520
-6.587183
-9.935593
-11.950613
-12.550938
-11.996334
-10.639826
-9.129017
-7.892782
-7.305447
-7.575347
-8.206843
-8.577533
-8.023189
-6.340673
-4.344876
-2.602614
-1.432100
-1.524058
-2.708341
-3.919380
-4.984689
-6.637073
-9.042785
-11.275750
-12.138440
-11.463044
-9.774554
-7.361570
-4.570884
-2.426500
-1.817605
-1.856051
-0.933356
0.957494
2.276854
2.128266
1.114911
-0.324204
-2.279997
-4.392691
-5.974158
-6.730344
-7.367815
-9.000976
-11.391102
-13.313125
-14.570662
-15.767414
-16.737388
-16.598153
-15.376725
-14.230370
-13.941768
-14.202836
-14.219202
-13.612904
-12.301337
-10.453089
-8.753687
-8.144273
-9.201788
-11.031335
-12.409664
-13.357038
-13.889563
-13.591350
-12.474089
-11.128752
-9.996424
-8.560687
-6.287459
-3.721472
-1.806983
-0.950009
-0.953387
-1.730613
-3.480671
-5.685322
-7.597474
-9.637432
-12.586578
-16.694549
-21.521817
-25.785129
-28.265134
-28.657124
-27.698321
-26.754066
-26.877456
-28.330079
-30.739167
-33.290609
-35.225101
-36.364184
-36.985290
-37.214406
-36.867357
-35.687232
-33.468554
-30.440700
-26.881880
-23.020950
-19.386278
-15.936301
-12.056668
-7.569697
-3.167411
0.255291
2.539429
3.768391
3.995427
3.911002
4.537821
6.127600
7.679973
8.139501
7.601781
6.738572
6.048887
5.788599
6.002647
6.413339
6.529195
6.011217
4.938115
4.040617
4.177514
4.798358
4.401952
3.015570
1.915971
1.632824
1.495925
0.769094
-0.269199
-1.356588
-2.623477
-3.589295
-4.028044
-4.655644
-5.868501
-7.028106
-7.414641
-7.102141
-5.960202
-3.185361
0.881045
4.415706
6.658022
8.668885
11.103430
13.224954
14.528988
16.002131
18.602407
21.796513
24.917104
28.067309
30.870464
32.417641
32.660524
32.627532
33.049395
33.259027
32.399974
30.399240
27.790391
25.310385
22.686989
19.646664
17.279918
16.258250
15.785991
15.143325
14.730553
15.260219
16.772327
18.655904
20.554807
22.736337
25.309857
27.963126
30.244407
31.788727
32.492437
32.555560
32.384113
31.809506
30.195567
27.743617
25.226205
22.655541
19.575212
16.190436
13.375070
11.623974
10.487229
9.571286
9.054867
8.812243
8.241532
7.396507
7.438848
8.857960
10.184594
10.011068
8.945499
8.316600
7.911102
6.590961
4.760635
3.847031
4.001332
3.888073
2.809776
1.840321
1.601853
0.871645
-0.960239
-2.320644
-2.093348
-1.250662
-1.051680
-1.448087
-1.704478
-2.122705
-3.332185
-4.446850
-4.317487
-3.569615
-3.567278
-4.428669
-5.609575
-7.288715
-9.787943
-12.611102
-15.233200
-17.772952
-20.397388
-23.151708
-26.155664
-29.452120
-32.497640
-34.369268
-34.825422
-34.505388
-34.270299
-34.338359
-34.262767
-34.366415
-35.663177
-38.135649
-40.728653
-42.487542
-43.121377
-42.650938
-41.317290
-39.714263
-38.281124
-37.585206
-38.194882
-39.631400
-40.490972
-39.978711
-38.672079
-37.332716
-35.915163
-33.731814
-30.741626
-27.914053
-25.696675
-23.572553
-20.927077
-17.774015
-14.386382
-10.672481
-6.460085
-2.210542
0.993954
2.962475
4.660317
6.822625
9.334060
11.576636
13.196548
14.174834
14.713332
15.356517
16.450399
17.940946
19.559819
21.024650
22.336477
23.300475
23.658954
23.744417
23.935606
24.119001
23.866246
22.751322
21.101535
19.665018
18.405402
17.332300
16.954078
17.298789
17.499329
16.517146
14.517192
12.578543
11.111114
9.733044
8.892175
9.297672
10.409738
11.273465
11.474525
11.290349
10.649760
8.953475
6.556856
4.919538
5.069943
6.317348
7.299529
7.639565
7.647357
7.545268
7.625016
8.325609
9.700041
11.090058
11.603619
11.190068
10.524022
10.033839
9.488066
8.255726
6.472938
4.638716
2.753580
0.879094
-0.900317
-2.482045
-3.616971
-4.132611
-4.077541
-3.729713
-3.388638
-3.195371
-3.004962
-2.629079
-1.944071
-0.594058
1.221979
2.359242
1.977902
0.485275
-0.816423
-1.328166
-1.468702
-1.486366
-1.231275
-0.477949
0.554628
1.456542
2.335336
3.379342
4.761047
6.628518
8.449751
9.554023
9.951208
9.921853
9.583115
8.960451
8.229463
8.008920
8.809783
9.959775
10.330983
9.781833
8.709510
7.290917
5.639831
4.088756
3.150474
2.813554
2.258689
0.884516
-0.866580
-2.195034
-3.051229
-3.904048
-4.782324
-5.156391
-4.870907
-4.502816
-4.493205
-4.925979
-5.853871
-7.097121
-8.086578
-8.195161
-7.406247
-6.716564
-7.034780
-7.862142
-8.472597
-9.373733
-11.305887
-13.809531
-15.836241
-17.142095
-17.921659
-18.088171
-17.597990
-16.623601
-15.799358
-15.523225
-15.273070
-14.766003
-14.230882
-13.760443
-13.400405
-13.501975
-14.297645
-15.495176
-16.619712
-17.235622
-17.268614
-16.903381
-16.243311
-15.372310
-14.688861
-14.694836
-15.160341
-15.449723
-15.264509
-14.579762
-13.606932
-12.690211
-12.103656
-11.838434
-11.485670
-10.754164
-9.771462
-8.906436
-8.452362
-8.435478
-8.828508
-9.613267
-10.694422
-11.831687
-12.752305
-13.370034
-13.760465
-14.024910
-14.259221
-14.563930
-15.114379
-16.289310
-18.184837
-20.413386
-22.408145
-23.795826
-24.810220
-25.048428
-23.572947
-20.831357
-17.901176
-15.277780
-12.998837
-11.066943
-9.769663
-9.125959
-8.331329
-6.047970
-1.942599
2.730626
6.805864
9.919702
12.075515
13.561387
14.795024
15.973331
17.135791
18.408134
19.803866
21.390528
23.232282
25.012471
26.511591
27.501566
27.513514
26.656020
25.570709
24.564887
23.325533
21.382209
19.125864
17.584141
16.811071
15.931496
14.713443
13.633847
12.816617
12.078096
11.575964
11.799363
12.798950
14.033106
15.469362
17.691936
20.674591
23.373319
24.812433
25.111425
24.955563
24.797624
24.888802
25.389634
26.145817
26.720423
26.989023
27.045392
26.994996
26.947977
26.942262
26.969537
26.513903
25.345726
23.833876
22.173958
20.827840
20.377142
21.098257
22.760771
24.454717
25.390141
25.653545
25.625229
25.057376
23.646056
21.859372
20.361809
19.185060
17.888038
16.397229
15.046175
13.684731
11.751018
9.262960
6.701388
3.888880
0.279923
-3.695825
-7.144505
-10.104821
-13.027990
-15.577353
-16.934122
-17.121415
-17.122455
-17.231298
-16.810994
-15.976880
-15.709580
-15.994286
-15.609051
-14.389441
-13.674301
-14.199812
-15.303307
-16.196130
-17.165065
-18.859012
-20.991707
-22.780470
-23.936438
-24.365056
-23.790969
-22.529017
-21.507091
-21.357725
-21.637236
-21.355908
-20.566994
-19.498569
-17.565117
-14.869766
-12.440417
-10.776864
-9.344244
-7.579641
-5.778411
-4.533604
-3.826257
-3.276329
-3.098388
-3.673775
-4.567897
-5.111852
-5.427990
-5.961294
-6.353285
-6.008833
-5.138092
-4.603750
-4.747142
-4.813384
-4.130454
-2.742255
-0.957650
1.058408
3.006667
4.443702
5.230279
5.470823
5.668765
6.340005
7.449993
8.651419
9.641653
10.210804
10.131574
9.516963
8.887285
8.403856
7.748720
6.624444
4.967124
3.070298
1.108790
-1.059494
-3.198683
-4.963028
-6.599826
-8.264420
-9.457794
-9.652361
-8.606536
-6.493584
-3.992020
-1.871275
-0.632703
-0.504378
-1.166267
-1.729445
-1.915439
-2.220148
-2.957370
-4.154641
-5.687272
-7.281469
-8.524199
-9.260642
-9.827456
-10.414273
-10.874062
-11.079540
-11.229946
-11.758574
-12.874278
-14.419119
-16.036694
-17.368006
-18.048598
-18.067302
-17.715317
-16.967186
-15.580286
-13.534355
-11.353344
-9.738627
-8.779045
-8.132483
-7.605415
-6.923785
-5.620530
-3.603173
-1.201099
1.321506
3.679159
5.513120
6.821311
8.117292
10.041912
12.387356
14.242878
15.611854
17.274368
19.129890
20.428729
21.232450
22.081111
22.525054
21.699510
19.835935
17.944044
16.663128
15.737574
14.983467
15.059578
16.160215
17.451001
18.313689
18.804650
19.060780
19.360812
20.247399
21.794576
23.363054
24.332247
24.776969
25.160386
25.637839
25.935532
25.845912
25.330012
24.208853
22.717005
21.336078
20.123481
18.859449
17.299802
15.500389
13.601225
11.702581
9.960576
8.485354
7.385755
6.844658
7.199500
8.325594
9.317387
9.583908
9.448049
9.271146
9.136845
9.136585
9.203864
9.170094
8.973968
8.857591
9.126451
9.733787
10.183185
9.930170
8.912399
7.436137
5.842201
4.317362
3.020340
2.151935
1.578627
0.736978
-0.759805
-2.786775
-4.810368
-6.360144
-7.403113
-8.019543
-8.182938
-7.885244
-7.388049
-6.856824
-6.002189
-4.635810
-3.230986
-2.373752
-2.042289
-2.037874
-2.395315
-3.109937
-3.629993
-3.251252
-2.225170
-1.275978
-0.321332
1.303775
3.553365
5.195357
5.392780
4.852203
4.258892
3.001095
0.379257
-2.981102
-6.065847
-8.906929
-11.633973
-13.646396
-14.783141
-15.913392
-17.879836
-20.341398
-22.354340
-23.569275
