EVENT_NAME: 202302060117
EVENT_ID: 13194
EVENT_DATE_YYYYMMDD: 2023/02/06
EVENT_TIME_HHMMSS: 01:17:32.00000
EVENT_LATITUDE_DEGREE: 37.288
EVENT_LONGITUDE_DEGREE: 37.043
EVENT_DEPTH_KM: 8.6
HYPOCENTER_REFERENCE: AFAD
MAGNITUDE_W: 7.7
MAGNITUDE_W_REFERENCE: AFAD
MAGNITUDE_L: 
MAGNITUDE_L_REFERENCE: 
FOCAL_MECHANISM: 
NETWORK: TK
STATION_CODE: 5202
STATION_NAME: 
STATION_LATITUDE_DEGREE: 40.802083
STATION_LONGITUDE_DEGREE: 37.015082
STATION_ELEVATION_M: 1323.0
LOCATION: Kahramanmaras_Pazarck_Turkiye
SENSOR_DEPTH_M: 
VS30_M/S: 1024
SITE_CLASSIFICATION_EC8: A
MORPHOLOGIC_CLASSIFICATION: 
EPICENTRAL_DISTANCE_KM: 390.76
EARTHQUAKE_BACKAZIMUTH_DEGREE: 
DATE_TIME_FIRST_SAMPLE_YYYYMMDD_HHMMSS: 2023/02/06 01:18:01.8161850
DATE_TIME_FIRST_SAMPLE_PRECISION: millisecond
SAMPLING_INTERVAL_S: 0.01
NDATA: 21001
DURATION_S: 
STREAM: HNE
UNITS: cm/s^2
INSTRUMENT: sensor = ACEBOX/SARA | digitizer = 
INSTRUMENT_ANALOG/DIGITAL: 
INSTRUMENTAL_FREQUENCY_HZ: 
INSTRUMENTAL_DAMPING: 
FULL_SCALE_G: 
N_BIT_DIGITAL_CONVERTER: 
PGA_CM/S^2: 3.101
TIME_PGA_S: 
BASELINE_CORRECTION: BASELINE REMOVED
FILTER_TYPE: BUTTERWORTH
FILTER_ORDER: 
LOW_CUT_FREQUENCY_HZ: 
HIGH_CUT_FREQUENCY_HZ: 
LATE/NORMAL_TRIGGERED: 
DATABASE_VERSION: 
HEADER_FORMAT: DYNA 1.2
DATA_TYPE: Acceleration
PROCESSING: Automatic Paolucci et al., 2011
DATA_TIMESTAMP_YYYYMMDD_HHMMSS: 
DATA_LICENSE: U (unknown license)
DATA_CITATION: Turkish Accelerometric Archive v 1.0 - Disaster And Emergency Management Presidency, Earthquake Department
DATA_CREATOR: AFAD
ORIGINAL_DATA_MEDIATOR_CITATION: : AFAD - Disaster And Emergency Management Presidency
ORIGINAL_DATA_MEDIATOR: AFAD PROCESS SERVICE
ORIGINAL_DATA_CREATOR_CITATION: AFAD PROCESS SERVICE
ORIGINAL_DATA_CREATOR: network: TK
USER1: GuestUser
USER2: 
USER3: 
USER4: 
USER5: 
[...]
-0.375972
-0.294844
-0.211846
-0.130485
-0.058008
0.010962
0.068242
0.112196
0.147265
0.169476
0.172515
0.165735
0.158019
0.135575
0.105415
0.078528
0.042757
0.006050
-0.031124
-0.078351
-0.127215
-0.177247
-0.224007
-0.267961
-0.319397
-0.370131
-0.409643
-0.440504
-0.466222
-0.484692
-0.496850
-0.502227
-0.502227
-0.501994
-0.498487
-0.489603
-0.477679
-0.461314
-0.440740
-0.418763
-0.395150
-0.370367
-0.351897
-0.333194
-0.308411
-0.292981
-0.275446
-0.248794
-0.224946
-0.194319
-0.157145
-0.117166
-0.072277
-0.029960
0.016331
0.058649
0.086003
0.110317
0.129956
0.145621
0.161519
0.169701
0.177884
0.184664
0.187703
0.194717
0.202432
0.215525
0.229552
0.237267
0.259010
0.276311
0.269999
0.268362
0.269998
0.259243
0.239137
0.218095
0.202664
0.179986
0.158242
0.151228
0.139304
0.128082
0.131121
0.132524
0.129718
0.129952
0.130185
0.131120
0.134393
0.133692
0.131821
0.131120
0.121768
0.117793
0.124339
0.116156
0.103998
0.100725
0.096049
0.093243
0.085762
0.073136
0.060745
0.037365
0.008374
-0.017811
-0.050777
-0.092861
-0.140088
-0.186380
-0.231970
-0.286212
-0.344193
-0.396330
-0.446129
-0.494526
-0.542220
-0.591084
-0.636441
-0.674784
-0.708217
-0.747495
-0.788877
-0.822778
-0.858549
-0.897360
-0.929156
-0.960018
-1.003270
-1.052602
-1.094685
-1.144484
-1.209948
-1.272372
-1.335731
-1.405637
-1.470866
-1.539135
-1.614418
-1.678946
-1.735525
-1.793507
-1.849385
-1.903860
-1.958101
-2.010472
-2.060972
-2.117084
-2.184651
-2.254089
-2.322592
-2.389926
-2.455623
-2.518982
-2.571119
-2.612501
-2.640791
-2.658560
-2.673523
-2.674458
-2.669782
-2.664639
-2.651313
-2.641260
-2.625595
-2.603852
-2.583045
-2.557795
-2.536519
-2.511035
-2.486487
-2.465445
-2.436221
-2.420323
-2.409101
-2.396710
-2.396476
-2.389228
-2.383617
-2.385254
-2.379643
-2.375669
-2.367486
-2.354861
-2.340600
-2.319792
-2.303192
-2.280047
-2.252926
-2.239132
-2.216220
-2.187230
-2.170163
-2.149121
-2.129015
-2.125274
-2.127846
-2.128781
-2.137666
-2.153097
-2.167592
-2.186998
-2.205000
-2.223470
-2.255968
-2.279816
-2.296883
-2.320730
-2.331018
-2.336863
-2.340838
-2.328914
-2.310210
-2.281921
-2.249657
-2.217160
-2.183259
-2.147722
-2.099326
-2.060750
-2.022173
-1.968400
-1.933097
-1.896859
-1.860854
-1.837942
-1.808717
-1.795625
-1.781364
-1.751671
-1.744190
-1.752607
-1.757049
-1.763128
-1.789080
-1.810589
-1.812927
-1.842386
-1.866000
-1.861792
-1.871377
-1.874183
-1.861792
-1.841919
-1.809188
-1.781834
-1.752843
-1.723619
-1.700239
-1.675223
-1.664468
-1.660260
-1.662364
-1.676860
-1.686446
-1.703279
-1.720814
-1.721984
-1.729231
-1.724556
-1.702345
-1.693929
-1.683875
-1.660496
-1.639688
-1.617945
-1.581239
-1.546170
-1.517880
-1.468082
-1.417114
-1.374329
-1.317283
-1.271693
-1.228206
-1.167653
-1.120894
-1.079746
-1.032986
-0.983655
-0.935026
-0.889903
-0.829350
-0.769030
-0.711984
-0.635065
-0.560717
-0.490578
-0.415529
-0.340948
-0.260054
-0.185006
-0.110892
-0.033505
0.031490
0.105604
0.185095
0.250791
0.324905
0.399486
0.465417
0.543739
0.621359
0.695707
0.776600
0.851415
0.925295
1.003617
1.079367
1.154416
1.224555
1.289784
1.352909
1.402474
1.434738
1.454377
1.451805
1.426321
1.392654
1.345427
1.284406
1.229697
1.178027
1.123085
1.073987
1.033073
1.001276
0.975091
0.952178
0.938150
0.931604
0.929733
0.932773
0.937682
0.950073
0.968777
0.989351
1.006418
1.023953
1.049904
1.070010
1.089181
1.118406
1.139915
1.162360
1.192519
1.218471
1.250734
1.275283
1.289778
1.308949
1.320873
1.322042
1.314326
1.299129
1.283231
1.254474
1.223145
1.193219
1.153473
1.117000
1.081931
1.046861
1.023247
0.994724
0.963161
0.949601
0.942820
0.933702
0.932767
0.939547
0.950535
0.972746
1.001736
1.038208
1.082396
1.130558
1.194151
1.265225
1.333727
1.413452
1.495047
1.570797
1.650054
1.723934
1.788930
1.849249
1.906763
1.960770
2.012673
2.066680
2.113907
2.154354
2.188956
2.203685
2.204386
2.192696
2.165341
2.125596
2.073926
2.020387
1.963340
1.899981
1.839895
1.783316
1.730945
1.676236
1.624333
1.585055
1.537594
1.490133
1.459973
1.432385
1.409472
1.398484
1.394041
1.395210
1.410407
1.441502
1.479844
1.524032
1.579675
1.645606
1.719486
1.800847
1.885949
1.973623
2.067609
2.160427
2.245061
2.324552
2.392821
2.448932
2.496393
2.533099
2.560687
2.581962
2.602302
2.623811
2.642281
2.662154
2.682494
2.701431
2.729721
2.762218
2.790975
2.821369
2.850126
2.881221
2.913017
2.933123
2.950190
2.965855
2.974037
2.979415
2.975440
2.963048
2.942006
2.905768
2.863450
2.813184
2.751461
2.678282
2.594115
2.508545
2.412688
2.311921
2.217935
2.115064
2.018973
1.932234
1.836611
1.753613
1.684876
1.615438
1.553949
1.501111
1.452715
1.405721
1.365508
1.329971
1.283679
1.230139
1.171923
1.102252
1.021591
0.925500
0.826370
0.730046
0.623200
0.514952
0.412315
0.305937
0.202598
0.110014
0.026315
-0.054579
-0.129628
-0.191585
-0.243488
-0.285104
-0.319005
-0.349632
-0.371376
-0.385404
-0.397094
-0.409251
-0.423981
-0.431930
-0.439879
-0.453673
-0.459986
-0.464896
-0.467935
-0.452973
-0.437542
-0.424683
-0.394758
-0.358052
-0.320177
-0.277158
-0.237413
-0.197901
-0.162598
-0.133373
-0.101811
-0.082873
-0.077262
-0.067677
-0.064404
-0.068612
-0.069548
-0.075393
-0.084044
-0.095032
-0.111164
-0.124257
-0.143896
-0.164938
-0.181070
-0.206554
-0.234844
-0.263134
-0.293995
-0.326961
-0.367174
-0.401075
-0.436612
-0.479163
-0.513064
-0.556317
-0.605648
-0.647264
-0.696362
-0.743823
-0.785439
-0.836173
-0.890414
-0.943252
-0.998896
-1.060385
-1.121173
-1.180090
-1.240643
-1.293014
-1.338371
-1.380221
-1.409212
-1.427214
-1.442645
-1.449192
-1.437736
-1.421370
-1.405004
-1.372974
-1.330657
-1.286236
-1.229657
-1.165597
-1.100134
-1.024617
-0.943490
-0.871247
-0.800874
-0.728397
-0.664337
-0.602380
-0.551179
-0.514239
-0.472390
-0.437320
-0.413707
-0.385418
-0.367649
-0.356193
-0.342165
-0.341932
-0.344738
-0.344036
-0.347777
-0.345206
-0.337257
-0.331646
-0.317852
-0.298914
-0.285588
-0.266885
-0.243739
-0.230412
-0.217554
-0.208670
-0.203059
-0.191135
-0.185057
-0.174536
-0.156300
-0.146948
-0.125439
-0.097851
-0.073770
-0.032388
0.006422
0.043128
0.096200
0.142959
0.191589
0.252376
0.308487
0.370677
0.437777
0.505344
0.581796
0.651701
0.713891
0.784497
0.849960
0.907708
0.970600
1.034426
1.099655
1.165352
1.229179
1.296746
1.355429
1.406864
1.461573
1.508332
1.553688
1.601383
1.644401
1.690927
1.743531
1.801279
1.864404
1.929399
2.003279
2.079029
2.152442
2.234738
2.319372
2.402838
2.492148
2.578419
2.654637
2.723373
2.779952
2.824140
2.851728
2.858975
2.853130
2.832322
2.796785
2.743946
2.667728
2.580288
2.483496
2.372442
2.251568
2.130227
2.007484
1.879363
1.761295
1.651878
1.546903
1.461800
1.384413
1.313105
1.262137
1.217949
1.178905
1.155057
1.141497
1.132612
1.131443
1.138457
1.148978
1.167681
1.186619
1.200413
1.220051
1.232910
1.243431
1.260732
1.271019
1.280137
1.286683
1.292527
1.305620
1.317310
1.332506
1.351210
1.366407
1.395397
1.425791
1.450807
1.489383
1.523518
1.550170
1.579629
1.596228
1.607450
1.614464
1.608385
1.597864
1.571912
1.538479
1.512060
1.475354
1.436309
1.398902
1.354948
1.312630
1.263532
1.210460
1.161129
1.098471
1.035813
0.978065
0.905588
0.838956
0.783779
0.719017
0.660568
0.612405
0.561204
0.513509
0.473296
0.436823
0.403390
0.373230
0.354292
0.343537
0.329042
0.320157
0.330912
0.346810
0.364578
0.399414
0.443835
0.494335
0.557460
0.624326
0.699609
0.780035
0.858824
0.946031
1.027392
1.094725
1.168371
1.244121
1.312624
1.374346
1.427652
1.486101
1.543849
1.590374
1.634094
1.669164
1.697219
1.718962
1.723872
1.722703
1.710077
1.678982
1.647419
1.612116
1.564187
1.516726
1.472071
1.419934
1.365693
1.316829
1.264224
1.213023
1.168133
1.118802
1.078355
1.044688
1.002371
0.968937
0.941349
0.906513
0.875184
0.843855
0.815799
0.787276
0.753141
0.741685
0.737944
0.715266
0.701705
0.702640
0.701004
0.697029
0.696094
0.702874
0.709654
0.712225
0.715031
0.722512
0.728123
0.724148
0.722979
0.721810
0.710821
0.697728
0.677622
0.650969
0.623380
0.586207
0.547162
0.506248
0.458085
0.416235
0.373450
0.325989
0.288815
0.253044
0.223118
0.200206
0.170747
0.150407
0.130300
0.095230
0.069512
0.039352
-0.002498
-0.035229
-0.072170
-0.109110
-0.138101
-0.165689
-0.182523
-0.198187
-0.216891
-0.228347
-0.239102
-0.246116
-0.250558
-0.257573
-0.254533
-0.244013
-0.230686
-0.213386
-0.199358
-0.179485
-0.161249
-0.156807
-0.151430
-0.153534
-0.169667
-0.185097
-0.208945
-0.244015
-0.276045
-0.306205
-0.339170
-0.377981
-0.412817
-0.440171
-0.470799
-0.498621
-0.527144
-0.558240
-0.578113
-0.602895
-0.633523
-0.654565
-0.676074
-0.700389
-0.724471
-0.748786
-0.772399
-0.799052
-0.828745
-0.856567
-0.882051
-0.916653
-0.954996
-0.986325
-1.023031
-1.054594
-1.082182
-1.118889
-1.143671
-1.162375
-1.182716
-1.195809
-1.216149
-1.235554
-1.248180
-1.266182
-1.284419
-1.304525
-1.327671
-1.349415
-1.365079
-1.378172
-1.391499
-1.387524
-1.377471
-1.368821
-1.339129
-1.304293
-1.272497
-1.226205
-1.171730
-1.117723
-1.065353
-1.014152
-0.959911
-0.905202
-0.852364
-0.801397
-0.753702
-0.707644
-0.660651
-0.619737
-0.583265
-0.540012
-0.497461
-0.460755
-0.419373
-0.372848
-0.331466
-0.294760
-0.254313
-0.215269
-0.180667
-0.141623
-0.103281
-0.067978
-0.033843
-0.000177
0.029749
0.049388
0.071131
0.091004
0.095679
0.105499
0.109473
0.102459
0.108070
0.108304
0.103160
0.108771
0.110174
0.115083
0.128410
0.135423
0.141969
0.152023
0.160907
0.165115
0.167453
0.175869
0.183584
0.186624
0.192001
0.200885
0.208132
0.213276
0.219354
0.226836
0.231745
0.229875
0.224965
0.213743
0.189661
0.160436
0.129107
0.087491
0.033484
-0.021692
-0.071491
-0.124563
-0.175531
-0.218550
-0.258997
-0.286819
-0.310199
-0.338021
-0.348075
-0.351816
-0.355790
-0.345503
-0.333580
-0.314642
-0.287288
-0.265545
-0.236087
-0.201018
-0.169689
-0.138360
-0.111006
-0.086925
-0.068689
-0.057701
-0.053259
-0.056298
-0.061442
-0.072898
-0.097447
-0.121528
-0.139999
-0.163378
-0.182550
-0.190499
-0.199150
-0.203592
-0.201254
-0.203593
-0.197046
-0.185123
-0.183954
-0.173667
-0.152626
-0.136026
-0.121297
-0.103295
-0.079448
-0.057471
-0.039936
-0.019830
-0.003464
0.011031
0.027163
0.034878
0.040022
0.046568
0.048438
0.052178
0.050308
0.042359
0.035812
0.023187
0.013134
0.014536
0.014302
0.016406
0.029265
0.040019
0.054281
0.076725
0.092623
0.112964
0.139149
0.155982
0.175387
0.193623
0.206248
0.219574
0.222380
0.221912
0.215132
0.196194
0.179594
0.152707
0.115533
0.082334
0.040952
-0.007912
-0.049528
-0.097691
-0.151698
-0.196587
-0.245919
-0.298757
-0.342243
-0.389471
-0.430853
-0.465689
-0.506603
-0.542141
-0.582588
-0.625139
-0.656702
-0.698318
-0.740635
-0.775939
-0.815685
-0.850287
-0.879044
-0.905697
-0.930246
-0.953158
-0.963679
-0.967420
-0.970694
-0.962511
-0.950821
-0.941703
-0.923000
-0.892606
-0.864784
-0.843275
-0.814051
-0.780618
-0.756069
-0.731988
-0.711180
-0.699257
-0.685931
-0.673306
-0.668630
-0.670501
-0.673072
-0.677982
-0.688737
-0.696686
-0.705805
-0.719833
-0.730120
-0.742979
-0.751863
-0.755137
-0.769866
-0.783894
-0.795117
-0.815223
-0.832992
-0.848890
-0.867828
-0.882791
-0.895417
-0.904769
-0.908743
-0.907808
-0.900794
-0.889105
-0.874843
-0.859413
-0.839073
-0.814290
-0.787170
-0.755140
-0.717499
-0.672142
-0.626552
-0.586806
-0.549633
-0.513628
-0.482767
-0.464531
-0.454946
-0.447932
-0.451205
-0.458687
-0.470844
-0.496095
-0.526255
-0.561324
-0.600135
-0.640582
-0.689446
-0.738543
-0.787407
-0.838141
-0.884901
-0.930725
-0.975848
-1.018166
-1.058613
-1.099060
-1.137637
-1.171304
-1.207776
-1.242612
-1.269733
-1.301062
-1.331689
-1.355537
-1.385697
-1.418195
-1.448589
-1.478281
-1.507506
-1.539536
-1.561747
-1.579048
-1.600558
-1.609910
-1.611780
-1.613183
-1.605936
-1.599390
-1.588635
-1.565489
-1.542110
-1.510781
-1.468464
-1.424276
-1.361853
-1.290545
-1.224614
-1.139980
-1.043889
-0.959021
-0.869710
-0.775490
-0.688986
-0.604351
-0.515508
-0.424795
-0.339459
-0.256228
-0.170892
-0.089998
-0.017053
0.047474
0.105222
0.159463
0.202715
0.239188
0.271919
0.297870
0.323822
0.345798
0.366372
0.389284
0.404247
0.420847
0.441888
0.453344
0.465502
0.480932
0.494258
0.505714
0.514832
0.530029
0.540783
0.538913
0.541952
0.541250
0.529093
0.515299
0.494724
0.471812
0.447731
0.414064
0.376656
0.339950
0.303010
0.267005
0.236377
0.212296
0.187747
0.165536
0.142156
0.111996
0.081135
0.043961
-0.000227
-0.042778
-0.086031
-0.128348
-0.168795
-0.206905
-0.241507
-0.279850
-0.315855
-0.347417
-0.382253
-0.417791
-0.457536
-0.498919
-0.537028
-0.576540
-0.615818
-0.658369
-0.703492
-0.750018
-0.800752
-0.846810
-0.895206
-0.944772
-0.989193
-1.040161
-1.091129
-1.145136
-1.204989
-1.260633
-1.334747
-1.421018
-1.502847
-1.600574
-1.701809
-1.802342
-1.910590
-2.012058
-2.110487
-2.201902
-2.282328
-2.358780
-2.421672
-2.474276
-2.523842
-2.563587
-2.598891
-2.634428
-2.665290
-2.697320
-2.734260
-2.774473
-2.821233
-2.867291
-2.908440
-2.951225
-2.994945
-3.036327
-3.065786
-3.083321
-3.098284
-3.101090
-3.095245
-3.082152
-3.052460
-3.016923
-2.978347
-2.937666
-2.895817
-2.850928
-2.816794
-2.784530
-2.751097
-2.731224
-2.708780
-2.684231
-2.668801
-2.652202
-2.634433
-2.616898
-2.599364
-2.582297
-2.565697
-2.558917
-2.545357
-2.525017
-2.512860
-2.491117
-2.462126
-2.436642
-2.402508
-2.363230
-2.327927
-2.293793
-2.253346
-2.215471
-2.184142
-2.145332
-2.111432
-2.082675
-2.043163
-2.006691
-1.970453
-1.928369
-1.890962
-1.853087
-1.812640
-1.777804
-1.747645
-1.716316
-1.687793
-1.666751
-1.645242
-1.626305
-1.613212
-1.598016
-1.582351
-1.570662
-1.557102
-1.540736
-1.526942
-1.509407
-1.486729
-1.468493
-1.443945
-1.411447
-1.387834
-1.356271
-1.313253
-1.278417
-1.236100
-1.184197
-1.137672
-1.085067
-1.023579
-0.964428
-0.896861
-0.820643
-0.753076
-0.685509
-0.608823
-0.537282
-0.468545
-0.398406
-0.330839
-0.261869
-0.196406
-0.129540
-0.054725
0.012842
0.081111
0.156627
0.215310
0.269551
0.329169
0.370785
0.402815
0.434144
0.449106
0.452379
0.447703
0.433208
0.414036
0.385045
0.348806
0.308827
0.258560
0.205956
0.152416
0.088589
0.022191
-0.043039
-0.105697
-0.166250
-0.225635
-0.273330
-0.314478
-0.350951
-0.374097
-0.396074
-0.413141
-0.416648
-0.418051
-0.415947
-0.412441
-0.404959
-0.392568
-0.384152
-0.373163
-0.360071
-0.347914
-0.334587
-0.325703
-0.312611
-0.300687
-0.301389
-0.303025
-0.309338
-0.324769
-0.343707
-0.372230
-0.404728
-0.434187
-0.467854
-0.499183
-0.523731
-0.548280
-0.568855
-0.581714
-0.592468
-0.596443
-0.593170
-0.584520
-0.571427
-0.558802
-0.545944
-0.532617
-0.523967
-0.518122
-0.509472
-0.499185
-0.493107
-0.487496
-0.479313
-0.467857
-0.456401
-0.447517
-0.430684
-0.409876
-0.397485
-0.373871
-0.340205
-0.318228
-0.292277
-0.259545
-0.242946
-0.231022
-0.213955
-0.208578
-0.205071
-0.194550
-0.191277
-0.184030
-0.164625
-0.145921
-0.124646
-0.099396
-0.080692
-0.064327
-0.041648
-0.024815
-0.019204
-0.011021
-0.004709
-0.002605
0.001369
-0.003774
-0.015932
-0.027388
-0.043520
-0.065264
-0.089579
-0.115764
-0.147093
-0.178656
-0.202737
-0.229157
-0.260485
-0.286905
-0.310285
-0.334366
-0.357512
-0.381593
-0.405908
-0.428353
-0.452434
-0.473710
-0.494518
-0.523275
-0.549928
-0.575179
-0.607209
-0.636434
-0.665425
-0.699326
-0.730187
-0.755905
-0.778350
-0.795417
-0.803600
-0.801028
-0.790741
-0.774142
-0.747723
-0.714290
-0.675714
-0.624279
-0.575415
-0.534033
-0.478156
-0.421343
-0.375987
-0.327591
-0.285274
-0.246230
-0.203913
-0.174454
-0.149672
-0.121149
-0.103147
-0.092626
-0.075091
-0.058492
-0.047737
-0.031138
-0.016175
-0.001913
0.020999
0.040637
0.052795
0.058172
0.060042
0.062847
0.054898
0.039701
0.020763
-0.004019
-0.024594
-0.051247
-0.083277
-0.111800
-0.142428
-0.166977
-0.190824
-0.217477
-0.234779
-0.254418
-0.271485
-0.278265
-0.288319
-0.292527
-0.287384
-0.280604
-0.265875
-0.242261
-0.214674
-0.179838
-0.141262
-0.106192
-0.074630
-0.040495
-0.004023
0.027773
0.053724
0.079910
0.101419
0.112407
0.123629
0.133449
0.130877
0.126434
0.118719
0.099313
0.076635
0.050917
0.017016
-0.019690
-0.059436
-0.102688
-0.147578
-0.194103
-0.237356
-0.277803
-0.313808
-0.337422
-0.354021
-0.366413
-0.364309
-0.348878
-0.329473
-0.305159
-0.271960
-0.236423
-0.204392
-0.166985
-0.128409
-0.095677
-0.067388
-0.039800
-0.012446
0.011401
0.033378
0.052549
0.062836
0.074994
0.086683
0.088553
0.088319
0.082241
0.070551
0.057224
0.034312
0.002515
-0.031386
-0.064351
-0.102928
-0.148051
-0.185459
-0.220528
-0.260508
-0.296279
-0.329712
-0.352625
-0.367120
-0.386525
-0.395176
-0.398449
-0.406632
-0.406165
-0.409672
-0.412712
-0.406399
-0.406867
-0.399619
-0.386527
-0.379981
-0.364083
-0.351458
-0.342106
-0.325273
-0.315220
-0.300257
-0.277813
-0.258174
-0.233158
-0.210479
-0.188269
-0.162317
-0.145250
-0.125845
-0.105505
-0.096387
-0.089374
-0.085399
-0.087036
-0.083763
-0.085633
-0.093583
-0.095687
-0.100831
-0.113924
-0.123743
-0.131692
-0.137771
-0.138707
-0.139174
-0.135901
-0.126550
-0.115561
-0.101066
-0.074647
-0.046592
-0.016666
0.029860
0.081996
0.135770
0.205441
0.282360
0.360215
0.442979
0.527379
0.610143
0.685893
0.763280
0.840667
0.904260
0.964112
1.022093
1.069788
1.113508
1.152552
1.187855
1.214975
1.237186
1.267813
1.291894
1.307792
1.329067
1.342394
1.361097
1.382606
1.390789
1.412532
1.438717
1.452277
1.476358
1.506050
1.532002
1.553511
1.575955
1.604011
1.625754
1.647731
1.665967
1.674149
1.687943
1.693087
1.695191
1.701737
1.697762
1.695424
1.691683
1.678123
1.674382
1.673446
1.668537
1.671342
1.678823
1.690513
1.708515
1.732596
1.760886
1.792682
1.835700
1.880122
1.921036
1.968029
2.008008
2.045650
2.089369
2.122335
2.156235
2.189434
2.210943
2.241337
2.268457
2.286459
2.312878
2.336726
2.359871
2.387693
2.415982
2.445207
2.464612
2.482848
2.506695
2.514644
2.517917
2.523060
2.520021
2.522826
2.526567
2.530074
2.537087
2.538724
2.549245
2.557194
2.556726
2.569351
2.575897
2.578468
2.584313
2.580105
2.580105
2.579403
2.575428
2.574025
2.564907
2.562569
2.562335
2.555087
2.552281
2.545501
2.538019
2.535681
2.528200
2.519315
2.512769
2.505287
2.493597
2.477231
2.459696
2.437953
2.414573
2.389556
2.355889
2.319885
2.285750
2.253486
2.217948
2.181710
2.147341
2.105258
2.068318
2.033715
1.989528
1.951886
1.910270
1.861172
1.822830
1.780980
1.733752
1.689097
1.643974
1.603761
1.563547
1.524269
1.486862
1.446882
1.411345
1.374405
1.332555
1.292108
1.249089
1.200459
1.149023
1.095717
1.041944
0.991443
0.943982
0.894885
0.853035
0.817731
0.782428
0.758814
0.744552
0.727953
0.717899
0.716964
0.715561
0.721172
