EVENT_NAME: 202302060117
EVENT_ID: 13194
EVENT_DATE_YYYYMMDD: 2023/02/06
EVENT_TIME_HHMMSS: 01:17:32.00000
EVENT_LATITUDE_DEGREE: 37.288
EVENT_LONGITUDE_DEGREE: 37.043
EVENT_DEPTH_KM: 8.6
HYPOCENTER_REFERENCE: AFAD
MAGNITUDE_W: 7.7
MAGNITUDE_W_REFERENCE: AFAD
MAGNITUDE_L: 
MAGNITUDE_L_REFERENCE: 
FOCAL_MECHANISM: 
NETWORK: TK
STATION_CODE: 3301
STATION_NAME: 
STATION_LATITUDE_DEGREE: 36.78098
STATION_LONGITUDE_DEGREE: 34.60277
STATION_ELEVATION_M: 4.0
LOCATION: Kahramanmaras_Pazarck_Turkiye
SENSOR_DEPTH_M: 
VS30_M/S: 366
SITE_CLASSIFICATION_EC8: unknown
MORPHOLOGIC_CLASSIFICATION: 
EPICENTRAL_DISTANCE_KM: 223.81
EARTHQUAKE_BACKAZIMUTH_DEGREE: 
DATE_TIME_FIRST_SAMPLE_YYYYMMDD_HHMMSS: 2023/02/06 01:17:50.5891130
DATE_TIME_FIRST_SAMPLE_PRECISION: millisecond
SAMPLING_INTERVAL_S: 0.01
NDATA: 14501
DURATION_S: 
STREAM: HNN
UNITS: cm/s^2
INSTRUMENT: sensor = CMG-5T/GURALP | digitizer = 
INSTRUMENT_ANALOG/DIGITAL: 
INSTRUMENTAL_FREQUENCY_HZ: 
INSTRUMENTAL_DAMPING: 
FULL_SCALE_G: 
N_BIT_DIGITAL_CONVERTER: 
PGA_CM/S^2: 28.812
TIME_PGA_S: 
BASELINE_CORRECTION: BASELINE REMOVED
FILTER_TYPE: BUTTERWORTH
FILTER_ORDER: 
LOW_CUT_FREQUENCY_HZ: 
HIGH_CUT_FREQUENCY_HZ: 
LATE/NORMAL_TRIGGERED: 
DATABASE_VERSION: 
HEADER_FORMAT: DYNA 1.2
DATA_TYPE: Acceleration
PROCESSING: Automatic Paolucci et al., 2011
DATA_TIMESTAMP_YYYYMMDD_HHMMSS: 
DATA_LICENSE: U (unknown license)
DATA_CITATION: Turkish Accelerometric Archive v 1.0 - Disaster And Emergency Management Presidency, Earthquake Department
DATA_CREATOR: AFAD
ORIGINAL_DATA_MEDIATOR_CITATION: : AFAD - Disaster And Emergency Management Presidency
ORIGINAL_DATA_MEDIATOR: AFAD PROCESS SERVICE
ORIGINAL_DATA_CREATOR_CITATION: AFAD PROCESS SERVICE
ORIGINAL_DATA_CREATOR: network: TK
USER1: GuestUser
USER2: 
USER3: 
USER4: 
USER5: 
[...]
-8.917249
-8.918508
-8.818305
-8.600254
-8.191880
-7.498969
-6.467007
-5.073308
-3.476998
-1.962299
-0.614605
0.614926
1.749296
2.747856
3.626363
4.401516
5.034243
5.481689
5.732826
5.815384
5.883447
6.037532
6.294342
6.599047
6.827497
6.813633
6.439292
5.662565
4.545212
3.237222
1.890474
0.610528
-0.600095
-1.685938
-2.582089
-3.150218
-3.265545
-2.804864
-1.644656
0.099122
2.123026
4.197662
6.230705
8.147159
9.840206
11.276129
12.351574
12.765305
12.272170
10.817027
8.627695
6.090805
3.630170
1.598389
0.097557
-0.849326
-1.216420
-1.041852
-0.415743
0.541855
1.657318
2.680142
3.373368
3.662318
3.616314
3.225902
2.475959
1.406186
0.064795
-1.475425
-3.113958
-4.702389
-6.117199
-7.244950
-7.804257
-7.622442
-6.806956
-5.559464
-4.114718
-2.712196
-1.501886
-0.452909
0.543446
1.686323
3.048512
4.468365
5.649370
6.300057
6.303209
5.688760
4.739987
3.865263
3.284845
3.005664
2.798328
2.452661
1.918563
1.179648
0.362903
-0.360572
-0.857803
-1.123434
-1.275943
-1.402614
-1.516365
-1.548505
-1.419627
-1.144542
-0.784064
-0.400268
-0.089261
0.089717
0.125640
0.104529
0.226474
0.660686
1.438045
2.359720
3.094540
3.510161
3.731364
3.879778
4.081759
4.406000
4.790741
5.101433
5.222118
5.114669
4.770892
4.332270
3.973684
3.715931
3.467316
3.124800
2.607402
1.875735
1.058044
0.364189
-0.053006
-0.131151
0.032073
0.258002
0.357260
0.281321
0.100768
-0.089238
-0.248679
-0.435849
-0.736141
-1.221714
-1.870194
-2.531594
-3.025044
-3.209378
-3.112641
-2.966117
-2.907823
-3.010545
-3.140682
-3.003927
-2.423823
-1.435030
-0.216528
0.901772
1.651401
2.084983
2.395360
2.730945
3.133331
3.459463
3.376277
2.763088
1.658024
0.245735
-1.195228
-2.433896
-3.311456
-3.684536
-3.603869
-3.416068
-3.310508
-3.296642
-3.196439
-2.716852
-1.672287
-0.067154
1.843944
3.646016
5.010726
5.784934
6.082706
6.273659
6.581830
7.031482
7.528399
7.855476
7.874068
7.571255
7.092615
6.541817
5.963289
5.406504
4.906752
4.367927
3.568197
2.538443
1.408171
0.318232
-0.591154
-1.175353
-1.477536
-1.637292
-1.690544
-1.592861
-1.195516
-0.345999
0.968609
2.459675
3.787833
4.703207
5.153489
5.121664
4.638928
3.879847
2.935170
1.838298
0.666118
-0.438316
-1.373540
-2.130100
-2.673337
-2.953777
-3.043266
-3.018687
-2.875945
-2.673333
-2.552018
-2.596762
-2.763766
-3.012381
-3.283053
-3.496062
-3.737430
-4.144542
-4.787665
-5.731712
-6.934142
-8.234885
-9.537518
-10.716946
-11.652485
-12.265989
-12.526263
-12.505781
-12.248026
-11.726846
-11.003370
-10.113835
-8.902580
-7.309421
-5.417859
-3.403723
-1.482542
0.179309
1.451379
2.256466
2.550458
2.311926
1.678255
0.897432
0.290545
0.088565
0.276367
0.650394
0.933042
0.988816
0.847020
0.621723
0.390438
0.248958
0.247698
0.353888
0.607546
1.116123
1.815966
2.679033
3.698075
4.793372
5.889930
6.909287
7.766682
8.371364
8.726485
8.793288
8.580279
8.027905
7.102134
5.777129
4.119375
2.319825
0.716899
-0.372410
-0.887287
-0.884765
-0.533110
-0.056359
0.384785
0.815846
1.295118
1.873331
2.516456
3.213779
3.814995
4.222739
4.456861
4.435119
4.128525
3.552518
2.721909
1.690894
0.645069
-0.256439
-0.888218
-1.322114
-1.677864
-1.895914
-1.925848
-1.756323
-1.334715
-0.779188
-0.286997
-0.015693
-0.195301
-0.851974
-1.824695
-2.919046
-3.868764
-4.594445
-5.270654
-6.094646
-7.104234
-8.060255
-8.745602
-9.023207
-8.875108
-8.443732
-7.962885
-7.635177
-7.471954
-7.335198
-7.185839
-7.064839
-7.018518
-7.101390
-7.241925
-7.338345
-7.282887
-7.134473
-6.985744
-6.836384
-6.711603
-6.675996
-6.695847
-6.770840
-7.007797
-7.540635
-8.372820
-9.308674
-10.311644
-11.260102
-12.056681
-12.777005
-13.339147
-13.658975
-13.810224
-13.860955
-13.890259
-13.852131
-13.604774
-13.161109
-12.374613
-11.085843
-9.425251
-7.592299
-5.751154
-4.123964
-2.719866
-1.270394
0.419187
2.346039
4.371519
6.401095
8.166616
9.461688
10.337358
10.821987
11.077221
11.284244
11.433603
11.413437
11.030903
10.206596
8.946501
7.402184
5.861333
4.549562
3.592281
2.941280
2.385440
1.588861
0.444410
-0.926601
-2.199930
-3.060474
-3.424102
-3.416539
-3.409606
-3.719666
-4.442826
-5.439494
-6.310122
-6.736140
-6.573861
-5.789886
-4.737127
-3.872170
-3.470729
-3.557696
-3.903993
-4.140950
-4.043583
-3.723438
-3.311913
-2.988302
-2.888414
-3.176417
-3.796853
-4.195457
-4.156384
-3.611886
-2.487284
-1.037497
0.284044
1.191540
1.607476
1.760301
2.130863
2.615176
2.913894
2.837640
2.391140
1.851685
1.448040
1.388171
1.606537
1.892651
2.225400
2.613922
3.123444
3.868662
4.850522
5.903911
6.714985
7.074518
6.884512
6.217125
5.226444
3.951224
2.531688
1.149334
-0.257283
-1.745512
-3.216725
-4.445309
-5.281591
-5.571169
-5.175715
-4.398987
-3.484873
-2.673484
-2.060924
-1.551717
-1.146180
-0.825720
-0.728352
-1.101748
-2.126146
-3.667627
-5.242194
-6.335914
-6.827158
-6.884821
-6.765397
-6.773273
-7.017792
-7.284053
-7.124611
-6.313221
-4.853980
-2.866313
-0.733698
1.254915
3.003735
4.469907
5.337070
5.502500
5.236554
4.720732
4.048304
3.322308
2.651770
2.045199
1.521814
1.173626
1.177723
1.662352
2.738743
4.150718
5.674870
7.276221
8.890808
10.415590
11.817481
12.949330
13.519667
13.437426
12.695675
11.384219
9.674473
7.880910
5.937988
3.584803
0.758334
-2.118237
-4.631809
-6.510765
-7.628118
-8.219880
-8.550421
-9.141238
-10.133495
-11.128589
-11.672455
-11.532864
-10.770000
-9.725749
-8.985573
-9.157618
-10.476322
-12.536461
-14.607630
-16.200157
-17.174454
-17.648682
-18.114403
-18.898063
-19.847466
-20.397319
-19.910170
-18.124483
-14.900668
-10.710749
-6.529653
-3.002709
-0.199556
2.213185
4.631282
7.518883
10.946884
14.426562
17.256184
18.919926
19.429132
19.127580
18.700932
18.721729
19.093236
19.333975
18.928123
17.687250
15.855245
13.985112
12.377774
11.063482
9.936676
8.685090
7.128484
5.487745
4.059701
2.957788
2.197446
1.716601
1.343835
0.855742
0.146447
-0.848331
-1.861701
-2.484342
-2.542321
-2.146551
-1.581887
-1.290101
-1.711708
-2.868133
-4.499734
-6.334260
-8.171307
-9.982831
-11.773243
-13.592645
-15.486095
-17.246257
-18.697304
-19.745649
-20.287625
-20.343713
-19.932503
-19.141595
-18.039051
-16.662052
-15.072359
-13.224597
-11.148070
-8.846245
-6.452726
-4.237554
-2.385381
-1.182003
-0.773630
-1.060057
-1.821660
-2.663298
-3.268924
-3.289720
-2.673379
-1.651186
-0.253075
1.538914
3.529732
5.406484
7.045333
8.425483
9.550715
10.421344
11.222020
12.027108
12.694495
12.997310
12.697648
11.711693
10.175253
8.552161
7.301204
6.563865
6.186688
5.913810
5.614463
5.335283
5.264070
5.555226
6.127453
6.767742
7.293333
7.703913
8.123315
8.632206
9.269659
10.000068
10.568198
10.691719
10.288074
9.412404
8.150104
6.647381
5.125436
3.658004
2.274705
0.972071
-0.260294
-1.462725
-2.736053
-4.091624
-5.482801
-6.837426
-8.137224
-9.322639
-10.470872
-11.681180
-12.902517
-14.040666
-14.994796
-15.809336
-16.511699
-17.185387
-17.845526
-18.354416
-18.473209
-17.914847
-16.617569
-14.770437
-12.605997
-10.311105
-8.160214
-6.305520
-4.854157
-3.871351
-3.343239
-3.257530
-3.419177
-3.560972
-3.601935
-3.514336
-3.329055
-3.230427
-3.287145
-3.371907
-3.378523
-3.412554
-3.388605
-3.031593
-2.147100
-0.565915
1.750720
4.330150
6.597314
8.098148
8.423334
7.604068
5.977510
4.078072
2.351941
0.920746
-0.302481
-1.366897
-2.315355
-3.108152
-3.488796
-3.367796
-2.764374
-1.685462
-0.313189
1.014023
2.145872
3.157352
4.011281
4.757129
5.526295
6.436627
7.423529
8.138497
8.276198
7.950697
7.445589
6.943631
6.713922
6.927562
7.601252
8.745075
10.171230
11.557052
12.783746
13.697544
14.131441
14.081026
13.854468
13.718974
13.835878
14.268199
14.800408
15.112360
14.816480
13.701332
11.953774
10.034170
8.355620
7.171780
6.449881
5.903494
5.213420
4.275675
3.259470
2.613511
2.623595
3.306738
4.451821
5.659610
6.582861
7.087026
7.418199
7.963642
8.989617
10.450433
11.962611
12.936909
13.024193
12.067227
10.079246
7.488788
4.857052
2.665515
1.118677
0.171479
-0.347494
-0.774457
-1.256248
-1.612629
-1.581748
-1.028112
0.009206
1.390932
2.759738
3.812811
4.414973
4.558975
4.338089
3.637302
2.261250
0.201425
-2.357207
-5.123807
-7.770037
-9.875552
-11.125878
-11.504946
-10.972107
-9.745412
-8.410952
-7.289186
-6.310162
-5.301833
-4.008336
-2.161520
0.139045
2.392029
4.194731
5.380778
5.900698
5.889985
5.688950
5.629396
5.604504
5.332886
4.607836
3.341755
1.870226
0.616119
-0.284759
-0.859820
-1.485298
-2.497722
-3.876610
-5.379964
-6.826284
-7.949624
-8.427949
-8.349172
-7.881559
-7.291372
-6.750970
-6.290289
-5.889793
-5.485516
-5.175140
-5.038384
-4.997105
-4.970006
-4.837347
-4.512160
-4.109459
-3.751817
-3.400792
-3.126022
-2.996514
-2.807452
-2.275243
-1.324893
-0.133804
1.233426
2.531019
3.294829
3.224246
2.463589
1.395707
0.414164
-0.221397
-0.722410
-1.641563
-3.063936
-4.604786
-5.764048
-5.964768
-5.167557
-3.505391
-1.405862
0.794185
3.154304
5.752955
8.631417
11.706189
14.635068
16.971869
18.462935
18.906285
18.464512
17.487064
16.219092
14.616166
12.731854
10.828320
9.124246
7.723301
6.698273
6.153461
5.964715
6.006625
6.297150
6.822742
7.508721
8.380295
9.384212
10.227112
10.702288
10.711111
10.169451
9.117639
7.790113
6.387277
4.800421
2.778724
0.030400
-3.532464
-7.615877
-11.733952
-15.379688
-18.044194
-19.722430
-20.670257
-21.176627
-21.640772
-21.988960
-21.785718
-20.718150
-18.728907
-16.042657
-13.254944
-10.972025
-9.439681
-8.385032
-7.630991
-7.156761
-6.894595
-6.884196
-7.215368
-7.868890
-8.455295
-8.753381
-8.809469
-8.586691
-7.973185
-7.204965
-6.697019
-6.598391
-6.873790
-7.522270
-8.518309
-9.743112
-11.064336
-12.379573
-13.715608
-15.097647
-16.324340
-16.966518
-16.803925
-15.692873
-13.875360
-11.892735
-10.105157
-8.548235
-7.007383
-5.312130
-3.371098
-1.345933
0.570206
2.082069
2.928435
2.892199
2.048040
0.823237
-0.514058
-1.714598
-2.443744
-2.727336
-2.803275
-3.026682
-3.676738
-4.586123
-5.433118
-5.714504
-5.129673
-3.695326
-1.671421
0.511610
2.607358
4.601642
6.627753
8.823703
11.232978
13.844233
16.524181
18.981982
20.923329
22.211784
22.817097
22.630242
21.645862
20.119506
18.213766
15.956372
13.463912
10.916308
8.488759
6.110050
3.705189
1.355154
-0.748154
-2.378494
-3.343968
-3.676716
-3.705389
-3.616845
-3.391861
-3.105432
-2.928659
-2.865953
-2.783710
-2.565974
-2.277339
-2.032504
-1.888816
-2.000992
-2.611975
-3.805898
-5.196130
-6.161919
-6.429440
-6.014134
-5.015258
-3.738777
-2.474270
-1.309335
-0.112890
1.113490
2.155534
2.884367
3.196004
3.053579
2.542798
1.983177
1.594971
1.455381
1.482166
1.485632
1.381334
0.962248
0.172917
-0.871962
-2.062419
-3.291318
-4.538493
-5.871692
-7.300996
-8.819475
-10.255081
-11.336828
-11.844772
-11.698249
-11.048822
-10.095006
-9.006011
-7.738352
-5.858135
-2.972425
0.701671
4.638248
8.270121
11.191122
13.391799
15.202694
16.927566
18.677016
20.162095
20.840512
20.520368
19.161016
16.900787
14.139859
11.395001
9.121537
7.401078
5.973664
4.657166
3.365246
2.002743
0.644337
-0.587713
-1.584382
-2.315104
-2.833447
-3.180059
-3.479091
-3.785055
-3.944496
-3.958990
-3.796712
-3.220073
-2.180549
-0.933688
0.286705
1.451010
2.614999
3.937170
5.509217
7.270326
8.937850
10.171792
10.819643
10.944110
10.785929
10.556850
10.321154
10.111296
9.884108
9.797771
10.052059
10.559060
11.052196
11.225818
11.112382
10.680377
9.906171
8.839234
7.512338
5.904370
3.857465
1.390843
-1.220727
-3.678526
-5.817441
-7.587057
-9.213300
-10.789127
-12.125477
-13.079922
-13.557616
-13.516652
-12.985704
-11.918136
-10.393984
-8.669742
-6.926279
-5.124837
-3.143472
-1.058753
0.755609
1.913926
2.296146
2.008143
1.401887
0.984061
1.058741
1.475623
1.849650
1.780958
1.142561
-0.102723
-1.715733
-3.238307
-4.501868
-5.464506
-6.069187
-6.563267
-7.369929
-8.525724
-9.856717
-11.126264
-12.130810
-12.680979
-12.886110
-12.881698
-12.696417
-12.391712
-11.885341
-11.061348
-9.887590
-8.592203
-7.345971
-6.309283
-5.567846
-4.952135
-4.309641
-3.590261
-2.765007
-1.872951
-0.946233
0.065247
1.217262
2.558970
4.071778
5.457599
6.325077
6.658456
6.530210
6.157760
5.711575
5.122649
4.448331
3.830415
3.287179
2.618532
1.742863
0.691366
-0.576921
-1.928710
-3.120742
-4.127179
-4.985203
-5.774534
-6.492967
-6.985157
-7.074015
-6.488554
-5.088237
-3.031562
-0.603697
1.945484
4.338373
6.455548
8.420213
10.210311
11.553909
12.218461
12.224764
11.668293
10.631292
9.351661
8.078017
6.928839
6.010315
5.368137
4.912184
4.497510
4.071177
3.840208
4.073384
4.848222
6.064518
7.404020
8.217300
7.975617
6.683067
4.762518
2.769810
1.131593
-0.108650
-1.038517
-1.749073
-2.487042
-3.275113
-4.028523
-4.513780
-4.646122
-4.658726
-4.674165
-4.806192
-5.199124
-5.866511
-6.768019
-7.967929
-9.431894
-11.002050
-12.577877
-14.186160
-15.848010
-17.659849
-19.705179
-21.757126
-23.516028
-24.744297
-25.366624
-25.273037
-24.532546
-23.545329
-22.476185
-21.325115
-20.026577
-18.573008
-17.014195
-15.602850
-14.684640
-14.478563
-15.041965
-16.233367
-17.951621
-20.058081
-22.355808
-24.565621
-26.433864
-27.739648
-28.475727
-28.812256
-28.759633
-28.162198
-26.795282
-24.587358
-21.580334
-17.825571
-13.693000
-9.747601
-6.341657
-3.652886
-1.730129
-0.483268
0.299447
0.793844
1.107057
1.359139
1.623826
1.855427
2.058354
2.360538
2.980660
3.981427
5.308639
6.829325
8.240985
9.329035
10.048415
10.434101
10.615601
10.796155
11.013892
11.145605
11.189090
11.065570
10.487673
9.381664
7.737459
5.839282
4.166719
3.020376
2.519049
2.542682
2.675656
2.512749
1.930755
1.151822
0.687046
0.897221
2.012054
3.769697
5.648024
7.322164
8.684038
9.726083
10.476973
11.185954
11.902183
12.372947
12.445421
12.166556
11.643487
11.083550
10.804055
10.844389
11.138065
11.580785
12.099444
12.646778
12.986144
12.831429
11.957651
10.421211
8.496251
6.502282
4.571019
2.833230
1.292379
-0.257610
-1.983741
-3.820473
-5.653109
-7.364115
-8.685970
-9.557543
-10.065802
-10.341516
-10.651262
-11.055222
-11.368119
-11.567578
-11.591210
-11.509598
-11.398366
-11.360553
-11.461700
-11.544256
-11.561901
-11.568833
-11.496043
-11.209930
-10.895457
-10.688118
-10.491809
-10.312515
-10.241301
-10.308102
-10.462817
-10.497792
-10.396329
-10.168194
-9.623066
-8.693828
-7.304540
-5.449530
-3.440121
-1.611265
0.018131
1.454054
2.675392
3.676789
4.320859
4.310146
3.533734
2.048657
-0.140990
-2.549634
-4.599690
-5.970386
-6.393252
-5.749497
-4.305697
-2.422328
-0.361242
1.702681
4.080760
6.934015
9.997442
12.831790
14.877752
15.565306
14.853490
13.148471
10.938343
8.839445
7.321912
6.525018
6.004154
5.262089
4.070056
2.616489
1.270056
0.496480
0.616535
1.348834
2.372603
3.417169
4.228558
4.694596
4.865697
4.854984
4.820639
4.943214
5.302432
5.872768
6.806733
8.206104
9.965322
11.979143
14.096318
16.181667
18.354300
20.704335
23.071702
25.153900
26.716494
27.520952
26.973619
24.924508
21.806884
18.108841
14.236547
10.706138
7.975145
6.059637
4.855946
4.274583
4.042668
4.006117
4.264186
4.790093
5.471661
6.156064
6.711906
6.974702
6.743102
6.082648
5.142698
3.938376
2.438174
0.830206
-0.532927
-1.434119
-1.772539
-1.624125
-1.206613
-0.846450
-0.686378
-0.597518
-0.390180
0.120602
1.053306
2.366654
3.890176
5.471991
6.845209
7.877801
8.582056
8.919216
9.062273
9.295135
9.875554
10.770761
11.687395
12.373374
12.583548
12.149023
11.011818
9.290729
7.339614
5.625457
4.452331
3.678440
2.822622
1.663045
0.210423
-1.314042
-2.547668
-3.096576
-2.858988
-2.014828
-0.695808
0.710811
1.951055
3.038160
4.176311
5.602465
7.397290
9.440416
11.323784
12.677781
13.459866
13.806164
13.905422
13.913616
13.958676
14.160973
14.535630
15.001983
15.554358
16.165658
16.563318
16.543782
16.125642
15.290305
14.024224
12.584836
11.170972
9.696608
7.948735
5.850782
3.399600
0.758411
-1.839608
-4.085028
-5.898758
-7.427635
-8.732474
-9.991938
-11.312217
-12.748454
-14.057704
-15.070128
-15.508750
-15.143861
-14.019889
-12.290606
-10.248741
-8.035145
-5.723552
-3.268272
-0.650399
1.901302
4.013435
5.457236
6.115801
6.028518
5.292439
4.136328
2.770044
1.140965
-0.731689
-2.783636
-5.070335
-7.581701
-10.048008
-12.208666
-13.686496
-14.224691
-13.811590
-12.487844
-10.743751
-8.986423
-7.406498
-6.031705
-4.680860
-2.928259
-0.488734
2.320721
5.033124
7.267832
8.822549
9.567452
9.600223
9.250460
8.607652
7.505109
5.846409
3.574836
0.758450
-2.174524
-4.643667
-6.471261
-7.519922
-7.738287
-7.197255
-5.941886
-4.159350
-1.973798
0.395774
2.690981
4.713310
6.445745
7.800056
8.469335
8.218198
6.898865
4.445477
1.217252
-2.036181
-4.792382
-6.722070
-7.765689
-8.366589
-8.819705
-9.191841
-9.444868
-9.246352
-8.184771
-6.119903
-3.135251
0.271953
3.366576
5.657057
6.966624
7.495997
7.609435
7.586118
7.278263
6.461518
5.030323
3.037930
0.727914
-1.185703
-2.211991
-2.401998
-1.889955
-1.196729
-0.657903
-0.091033
0.793461
2.040322
3.937240
6.334856
8.818495
11.344673
13.702586
15.611163
16.914428
17.591899
17.512809
16.716230
15.522622
14.254020
13.060412
12.031918
11.254561
10.720463
10.308309
9.995098
9.648486
9.482743
9.569397
9.699220
10.034489
10.375746
10.434671
10.100348
9.364584
8.100393
6.437913
4.603387
2.770436
1.170976
-0.091324
-0.884752
-1.054907
-0.672056
0.093959
1.281896
2.815501
4.538482
6.254846
7.725116
8.527998
8.222979
6.750505
4.186202
0.740556
-3.131424
-7.251704
-11.369463
-15.182834
-18.613670
-21.538766
-23.815381
-25.343313
-26.106806
-26.056704
-25.144481
-23.626316
-21.721836
-19.500047
-17.205154
-15.172112
-13.598174
-12.565582
-12.439226
-13.381382
-15.029052
-16.921557
-18.905442
-20.919262
-22.788765
-24.337178
-25.544966
-26.160045
-25.745054
-24.159773
-21.527405
-18.058441
-14.163142
-10.422559
-7.206937
-4.440021
-1.812695
0.618637
2.801668
4.802570
6.497192
7.768947
8.766247
9.493504
9.969625
10.338611
10.493957
10.218558
9.595916
8.667624
7.364991
5.758599
4.009465
2.408430
1.209466
0.811492
1.209152
2.173681
3.405418
4.559324
5.429953
5.996823
6.673664
7.739027
9.250259
11.049811
12.668808
13.588593
13.601828
12.767122
11.259987
9.465794
7.765501
6.404574
5.380492
4.550827
3.753618
2.940654
2.273583
1.993458
2.342907
3.386842
5.053420
7.057473
8.997876
10.638615
11.974336
12.989597
13.674315
14.264188
14.974115
15.826468
16.580509
16.976908
16.911053
16.370652
15.412111
14.195501
12.913349
11.588974
10.372049
9.367187
8.432594
7.518797
6.584203
5.508759
4.255597
2.898136
1.399509
-0.331979
-2.281518
-4.487550
-6.848298
-9.083635
-10.891062
-12.037720
-12.622864
-12.825790
-12.814130
-12.862025
-13.059594
-13.328691
-13.497900
-13.502626
-13.499789
-13.645996
-13.978744
-14.385226
-14.676380
-14.757675
-14.543090
-14.004894
