EVENT_NAME: 202302060117
EVENT_ID: 13194
EVENT_DATE_YYYYMMDD: 2023/02/06
EVENT_TIME_HHMMSS: 01:17:32.00000
EVENT_LATITUDE_DEGREE: 37.288
EVENT_LONGITUDE_DEGREE: 37.043
EVENT_DEPTH_KM: 8.6
HYPOCENTER_REFERENCE: AFAD
MAGNITUDE_W: 7.7
MAGNITUDE_W_REFERENCE: AFAD
MAGNITUDE_L: 
MAGNITUDE_L_REFERENCE: 
FOCAL_MECHANISM: 
NETWORK: TK
STATION_CODE: 2709
STATION_NAME: 
STATION_LATITUDE_DEGREE: 37.128525
STATION_LONGITUDE_DEGREE: 36.670482
STATION_ELEVATION_M: 531.0
LOCATION: Kahramanmaras_Pazarck_Turkiye
SENSOR_DEPTH_M: 
VS30_M/S: 555
SITE_CLASSIFICATION_EC8: B
MORPHOLOGIC_CLASSIFICATION: 
EPICENTRAL_DISTANCE_KM: 37.45
EARTHQUAKE_BACKAZIMUTH_DEGREE: 
DATE_TIME_FIRST_SAMPLE_YYYYMMDD_HHMMSS: 2023/02/06 01:17:08.6216750
DATE_TIME_FIRST_SAMPLE_PRECISION: millisecond
SAMPLING_INTERVAL_S: 0.01
NDATA: 6196
DURATION_S: 
STREAM: HNN
UNITS: cm/s^2
INSTRUMENT: sensor = ACEBOX/SARA | digitizer = 
INSTRUMENT_ANALOG/DIGITAL: 
INSTRUMENTAL_FREQUENCY_HZ: 
INSTRUMENTAL_DAMPING: 
FULL_SCALE_G: 
N_BIT_DIGITAL_CONVERTER: 
PGA_CM/S^2: 154.031
TIME_PGA_S: 
BASELINE_CORRECTION: BASELINE REMOVED
FILTER_TYPE: BUTTERWORTH
FILTER_ORDER: 
LOW_CUT_FREQUENCY_HZ: 
HIGH_CUT_FREQUENCY_HZ: 
LATE/NORMAL_TRIGGERED: 
DATABASE_VERSION: 
HEADER_FORMAT: DYNA 1.2
DATA_TYPE: Acceleration
PROCESSING: Automatic Paolucci et al., 2011
DATA_TIMESTAMP_YYYYMMDD_HHMMSS: 
DATA_LICENSE: U (unknown license)
DATA_CITATION: Turkish Accelerometric Archive v 1.0 - Disaster And Emergency Management Presidency, Earthquake Department
DATA_CREATOR: AFAD
ORIGINAL_DATA_MEDIATOR_CITATION: : AFAD - Disaster And Emergency Management Presidency
ORIGINAL_DATA_MEDIATOR: AFAD PROCESS SERVICE
ORIGINAL_DATA_CREATOR_CITATION: AFAD PROCESS SERVICE
ORIGINAL_DATA_CREATOR: network: TK
USER1: GuestUser
USER2: 
USER3: 
USER4: 
USER5: 
[...]
-0.016030
-0.020261
-0.020751
-0.017968
-0.017522
-0.019415
-0.021308
-0.017356
-0.017378
-0.022077
-0.020930
-0.018147
-0.019806
-0.021932
-0.017980
-0.015899
-0.021065
-0.019450
-0.020174
-0.021833
-0.014374
-0.018605
-0.023303
-0.017013
-0.020309
-0.022669
-0.018016
-0.018506
-0.020632
-0.018083
-0.017638
-0.020933
-0.020956
-0.021446
-0.021234
-0.017750
-0.019642
-0.021068
-0.020155
-0.021113
-0.019732
-0.020222
-0.018608
-0.018630
-0.022627
-0.021481
-0.019165
-0.018720
-0.021080
-0.021337
-0.016216
-0.021849
-0.021872
-0.016049
-0.024722
-0.020536
-0.016116
-0.023854
-0.018733
-0.019457
-0.023454
-0.017865
-0.021394
-0.023287
-0.017698
-0.018890
-0.021250
-0.020104
-0.021763
-0.019915
-0.019937
-0.024402
-0.018813
-0.017900
-0.023534
-0.019348
-0.020072
-0.020795
-0.020350
-0.022944
-0.018291
-0.019716
-0.021375
-0.019761
-0.024225
-0.020273
-0.019361
-0.023825
-0.020107
-0.022233
-0.022957
-0.017135
-0.020430
-0.024427
-0.020241
-0.020965
-0.022390
-0.018672
-0.021500
-0.023627
-0.020376
-0.022269
-0.022291
-0.019040
-0.022102
-0.023761
-0.020510
-0.019598
-0.022659
-0.023383
-0.021301
-0.019687
-0.021346
-0.024174
-0.021391
-0.020712
-0.022371
-0.020757
-0.022182
-0.020568
-0.019889
-0.024587
-0.022272
-0.019021
-0.022550
-0.022573
-0.020725
-0.020513
-0.022406
-0.021961
-0.020113
-0.025513
-0.026003
-0.020414
-0.022073
-0.023732
-0.020014
-0.021907
-0.024501
-0.020081
-0.021506
-0.025737
-0.022486
-0.021106
-0.023233
-0.022554
-0.023044
-0.021196
-0.021218
-0.025683
-0.022666
-0.019181
-0.025750
-0.024837
-0.019015
-0.025116
-0.025372
-0.021420
-0.024482
-0.022166
-0.023825
-0.025016
-0.019194
-0.022723
-0.023915
-0.020664
-0.023258
-0.023047
-0.023069
-0.023092
-0.021010
-0.022903
-0.025263
-0.022480
-0.019930
-0.026499
-0.025119
-0.018127
-0.024462
-0.023082
-0.020299
-0.027803
-0.023149
-0.021301
-0.024831
-0.021112
-0.024408
-0.024430
-0.019543
-0.025644
-0.025433
-0.018441
-0.024075
-0.026201
-0.018976
-0.022505
-0.028139
-0.022550
-0.023975
-0.026336
-0.020981
-0.022172
-0.026403
-0.025490
-0.023642
-0.022496
-0.024856
-0.024645
-0.022563
-0.027261
-0.028920
-0.021227
-0.021484
-0.024078
-0.017788
-0.019213
-0.026016
-0.028142
-0.031204
-0.030291
-0.026807
-0.027530
-0.025916
-0.022432
-0.020350
-0.012891
-0.012212
-0.032575
-0.049197
-0.047115
-0.041994
-0.027053
-0.002994
-0.004186
-0.026419
-0.049821
-0.082575
-0.099665
-0.063215
-0.007827
0.016699
0.017378
-0.016077
-0.099799
-0.150790
-0.109897
-0.064329
-0.044245
0.004128
0.004106
-0.091306
-0.137152
-0.095793
-0.073371
-0.020555
0.063590
-0.011248
-0.181007
-0.216333
-0.141073
-0.034717
0.079821
0.095697
-0.028706
-0.157550
-0.203631
-0.182612
-0.063397
0.081768
0.097177
0.016260
-0.111415
-0.248677
-0.227658
-0.073140
0.003523
-0.008423
-0.048892
-0.100584
-0.082838
-0.061585
-0.070024
0.023239
0.023684
-0.115681
-0.060995
-0.037872
-0.128140
0.019831
0.004144
-0.133585
0.051794
-0.067465
-0.233249
0.178211
0.265863
-0.009806
0.067558
0.175784
0.021221
-0.127262
0.067936
0.099944
-0.415835
-0.472203
-0.099786
-0.076429
0.127420
0.502642
0.457497
0.113558
-0.293739
-0.442456
-0.250765
-0.060476
-0.027767
-0.161989
-0.327306
-0.374790
-0.221909
0.192825
0.424262
0.183195
-0.038000
-0.262000
-0.626512
-0.347147
0.129309
-0.231696
-0.312846
0.054661
-0.459482
-0.648412
0.145541
-0.016503
-0.609669
0.056163
0.576573
-0.069665
-0.433943
-0.217937
-0.538729
-1.048430
-0.687703
-0.219430
-0.481773
-0.479457
-0.048591
-0.010505
0.027816
0.371709
0.227434
-0.588073
-0.754092
-0.116082
-0.155148
-0.409542
-0.161973
-0.418939
-0.753525
-0.213476
0.066825
-0.379517
-0.043339
0.530377
-0.133629
-0.560332
0.035595
0.537535
0.357255
-0.612792
-0.960938
-0.108068
0.412809
0.547454
0.616402
0.092206
-0.356473
-0.027309
0.470657
0.844944
1.213853
0.998036
0.218300
-0.181282
-0.093397
-0.107681
0.112534
0.626865
0.295552
-0.239398
-0.119717
0.082963
0.673045
0.872452
0.541606
0.219177
-1.652158
-3.151055
-2.116291
-0.411230
1.088557
1.247517
0.189094
-0.391680
-1.144764
-1.529383
-0.215932
1.227042
-0.129472
-2.685600
-1.956175
-0.387418
-0.333667
0.642181
1.272709
1.095703
1.282718
1.265628
1.107793
-0.306469
-1.833656
-1.957824
-1.939611
-0.292297
0.934181
-1.060834
-1.183132
0.497146
-0.381252
-0.303420
2.046687
0.930049
-3.219407
-3.634887
-1.200613
-0.779800
-0.043829
1.475831
0.178702
-1.442237
-0.379417
1.377781
1.137415
-0.724335
-1.321009
-1.113185
-0.665953
0.518207
-0.206587
0.013628
3.282559
3.063468
0.970493
1.899581
1.171748
-1.323359
-0.526133
0.677199
-0.792239
-0.205430
3.080100
3.509563
1.848645
0.904316
0.292446
1.644707
2.255363
-1.575194
-3.845154
-2.433509
-2.676213
-2.382352
0.528402
0.804728
-1.406316
-2.339189
-2.309987
-1.193627
0.249815
0.096889
-0.716982
-2.240661
-3.844533
-2.577140
-0.535879
-0.468334
0.143024
1.149031
0.300091
-0.315520
0.807620
1.991079
1.688289
-0.059134
-0.843079
0.072449
0.643593
0.754391
0.073551
-1.120942
0.298185
2.183270
0.893388
0.325940
1.380810
-0.100318
-1.738324
-0.325743
1.155340
0.760434
-0.603561
-2.187560
-2.910250
-2.216830
-0.510366
0.666547
-0.213488
-0.899706
-0.235978
-0.350561
0.823547
2.890292
1.140531
-0.601749
0.817612
0.614654
-0.250185
0.749977
0.851423
1.134295
2.582413
1.742357
0.492922
1.317269
0.484694
-0.705590
0.934008
0.232827
-2.793233
-1.552259
0.250061
-1.340016
-0.498836
1.847063
0.550167
-0.657184
0.089308
-0.024807
-0.069719
-0.102005
-1.522346
-2.691589
-2.842177
-2.005205
0.493364
2.628378
2.614328
1.951257
0.812875
-1.204350
-2.101219
-0.889002
0.908175
0.754080
-1.408333
-1.848830
0.149413
1.410727
2.034476
4.129978
5.497436
2.854335
-0.490858
-0.227391
0.804801
-0.117551
-1.153529
-1.979791
-2.987714
-2.358822
-0.512547
0.403448
0.940224
0.724875
-0.332379
0.592033
1.113145
-1.300834
-1.615548
0.464991
0.415872
-0.215871
-0.122842
-1.194124
-1.273637
1.099383
2.582570
2.653388
2.504671
1.285396
0.674227
2.013863
2.234779
-0.080304
-1.209099
0.320380
-0.284944
-2.592077
-0.325435
4.040005
5.043206
4.794190
4.426404
1.325061
-2.755659
-3.329887
-1.420955
-0.307167
0.903179
1.728695
0.269777
-0.683670
-0.242751
-1.261662
-1.668492
0.863978
1.732512
-0.964829
-2.029564
-0.645273
-0.793289
-2.060493
-2.208275
-1.450327
-0.683494
-0.142276
0.648872
1.381804
0.935228
-0.488619
-0.918595
0.006518
0.248009
0.137634
0.461187
0.354787
0.566351
0.471874
-0.666741
-0.463126
0.642011
-0.037894
-1.059844
-0.357305
-1.095426
-3.553359
-1.627359
2.368915
2.148889
1.238460
1.092081
-0.710752
-0.629881
1.403899
1.339349
0.534128
-0.178508
-1.496913
-0.769359
1.393244
1.269075
-0.671932
-2.179012
-2.768204
-2.803763
-1.958375
0.461405
2.612551
1.998343
0.024370
-0.828077
-0.913669
-0.823446
-0.444015
-0.573328
-1.096588
-0.888765
0.295162
1.516964
1.215343
-0.803986
-3.127953
-3.379074
-0.624731
1.271109
0.060484
-1.025994
-1.082596
-1.676931
-2.358706
-2.898099
-2.687704
-0.650884
0.679400
-0.025288
-0.085630
-0.221956
-1.664274
-3.006526
-5.502334
-8.157826
-6.627178
-1.847917
1.042029
-0.079753
-1.807069
-1.075774
1.914003
5.470972
3.111234
-5.504919
-8.891729
-5.922526
-3.157194
0.074797
0.909197
-1.784404
-2.748139
-3.825733
-4.910574
-2.198081
-0.001344
0.120909
0.149878
-3.718788
-10.629624
-13.087089
-9.141315
-4.932987
-6.348418
-8.496102
-4.396957
-0.186992
-1.834584
-4.701662
-5.440250
-5.209748
-6.695085
-11.603681
-16.968181
-18.888848
-16.208151
-10.167554
-3.501549
2.865664
8.354500
8.844283
5.544212
3.515764
-3.965771
-17.229813
-23.089964
-22.563241
-16.116070
0.514374
10.097000
4.821343
2.543433
9.200554
14.459801
11.741418
0.349156
-12.557644
-8.530041
10.036713
8.996059
-10.901514
-11.039944
3.611874
4.341299
4.042250
10.727427
2.039030
-10.687279
-0.866647
18.676444
22.706853
5.450956
-7.182770
-0.858342
-8.022381
-20.466029
-3.389499
12.941919
10.676167
6.605968
-9.494269
-25.946371
-18.636722
4.265334
30.765063
34.522396
2.235205
-21.558832
-10.553316
8.071653
23.390495
35.374687
19.251304
-18.392650
-33.158373
-16.179804
2.895225
5.813460
6.331766
9.846885
6.397184
10.784835
18.224943
11.175933
7.423932
3.849383
-15.929654
-37.762600
-32.112911
8.736358
28.192944
-2.888087
-22.736562
-4.643949
8.484914
-7.648756
-28.522666
-24.617807
-10.438726
-5.156801
4.563064
15.099115
5.768946
-10.377116
-5.676644
13.472732
15.531762
-2.323357
-5.318790
10.323861
4.526835
-18.763603
-12.722071
10.687092
10.909411
7.433524
16.726008
10.985328
-7.716839
-7.646723
9.601648
10.727360
-4.620986
-1.280279
11.808371
4.983806
-1.154797
13.955264
27.867348
22.945893
9.907932
-2.326935
-15.720735
-29.700197
-35.007885
-20.058443
0.132734
6.785647
12.740441
22.457734
29.840094
27.655937
7.038737
-4.929367
-2.283039
-13.746842
-20.053546
-11.205978
-8.006953
-0.622021
6.259311
-2.081662
-6.428677
6.852388
22.854152
19.243598
11.047812
27.685739
38.562433
19.346847
1.254189
-5.357620
-5.007648
-1.969942
-11.858654
-23.116950
-25.329396
-21.020067
-4.026068
4.633761
-3.413797
-5.099031
-3.765707
-5.177164
-3.372271
2.142516
13.230329
17.477000
-0.001472
-28.381910
-43.644686
-41.686422
-38.685891
-34.122658
-24.356034
-18.666600
-10.791161
3.714300
16.992793
27.283591
33.767702
41.037372
43.119314
27.388243
10.907851
4.780003
0.860135
-0.774364
-7.861015
-20.614445
-27.188379
-26.369643
-13.175784
6.921172
12.315087
1.057492
-7.571754
-3.024185
-1.162714
-6.413122
1.637431
13.615544
12.247807
8.892093
2.403027
-10.921803
-11.392459
8.455738
25.828956
19.492794
4.251294
-1.283645
-7.595492
-18.070801
-28.977466
-38.490699
-31.582246
-13.926600
-5.028299
-3.124978
-3.705986
4.974182
26.959753
31.351145
9.364360
-12.416683
-18.813165
-5.897525
7.613830
-0.455003
-10.254170
-5.534294
5.200953
14.319258
6.360075
-11.602591
-12.457610
-2.016013
1.822916
1.063753
9.087887
23.393685
20.706397
3.977011
-6.161629
-8.114560
-1.120304
7.215482
2.477090
-3.479853
2.437533
7.627109
0.077305
-7.445144
2.469942
12.554297
1.783000
-9.609261
-9.894049
-13.014797
-17.573165
-18.683958
-6.145433
20.484754
21.840055
-5.679075
-18.417541
-9.737840
0.092611
0.814554
-0.834440
6.019538
6.706880
-7.426421
-15.195761
-9.265749
-7.050542
-11.537836
-7.543900
0.283377
-1.353694
-7.109805
-9.903471
-3.397150
6.172150
-1.241116
-13.092789
-10.462359
-7.821641
-11.489709
-21.339610
-37.728821
-31.843932
-2.335467
8.654385
0.208437
-3.861529
-3.481163
1.872305
9.931741
12.437324
12.001270
12.356152
11.302405
2.701917
-10.164905
-10.460681
-0.060232
7.215283
18.711774
32.498542
30.077783
21.222221
20.444589
15.995639
1.843166
-7.856403
0.820025
11.598290
3.824041
1.532572
14.581242
12.629714
-1.436253
-7.489755
-12.581414
-20.308903
-17.590565
-4.471989
0.234795
-0.851683
7.158890
12.442686
10.862428
10.365586
3.115744
-9.294471
-16.774603
-11.604900
7.027550
18.627613
16.002281
9.148492
2.700575
9.985909
20.118660
10.615714
5.397804
13.473139
6.099852
-10.303620
-12.345160
-6.697342
-7.444580
-13.126110
-17.586984
-14.760865
4.410722
27.278410
26.939849
12.537915
9.172381
8.073979
-3.277602
-7.775183
-1.090240
-5.019927
-15.537085
-10.256796
7.544271
23.947699
34.223534
33.828861
23.145005
16.117037
19.206178
22.311217
24.821476
29.395463
26.743478
16.891239
7.789022
2.604779
3.780990
10.380831
23.776223
42.823196
56.366114
63.581309
66.991453
59.861783
45.541211
31.640772
15.871358
-4.113421
-17.016948
-9.702623
1.346379
-0.572651
-0.092220
6.703075
10.601622
18.333509
29.330609
34.117585
37.104790
44.886944
51.573523
52.341992
50.308635
42.442737
22.169687
-5.326531
-22.335538
-19.467569
-11.967376
-11.521547
-8.465605
5.923893
29.937655
49.249053
52.769550
47.013205
30.856389
5.423900
-12.353365
-21.365805
-31.424954
-49.482542
-72.757784
-76.182936
-55.684783
-38.789213
-26.809463
-0.873654
30.426634
39.030819
24.122246
11.694964
6.059258
0.886939
7.670077
19.217535
11.459418
-16.190872
-55.268704
-92.518710
-102.022591
-82.475759
-56.058561
-29.396577
-0.436600
24.694479
34.010577
17.837161
-14.230728
-39.021210
-49.143251
-57.480250
-70.621783
-71.615210
-50.783195
-28.852332
-16.562100
-8.798417
-15.410694
-37.903182
-57.378984
-59.126641
-45.578346
-28.548809
-8.647775
13.574867
28.818894
29.999314
10.300235
-19.545177
-42.067592
-60.919389
-76.400063
-72.151288
-35.577469
19.639110
67.825405
97.251107
90.565885
40.418921
-22.790997
-57.266297
-39.610885
7.232011
39.525002
44.584353
33.700366
22.885350
10.884514
-4.406551
3.078913
38.171860
76.156178
103.975692
110.994498
86.141592
35.360570
-14.825672
-41.685025
-51.373607
-56.307920
-56.908802
-51.092416
-37.318740
-23.454584
-21.909675
-26.320282
-19.625754
2.157582
28.775145
45.893291
45.031959
26.645418
-1.612277
-28.370630
-42.410646
-32.258723
-1.978025
27.938417
50.373813
66.044287
71.741436
68.310672
56.776028
48.529509
53.721890
54.913298
34.829857
-0.534808
-31.017551
-39.692855
-38.033618
-54.160976
-94.162308
-134.032011
-152.656558
-154.030841
-140.871116
-106.684601
-57.255206
-13.390887
2.988927
1.312812
9.059662
25.843945
46.529370
71.394388
84.811055
79.916487
62.118648
39.020625
22.625569
7.961548
-13.808039
-35.973445
-51.201852
-48.477201
-26.654587
-8.809565
-11.473240
-24.476832
-29.514718
-27.803812
-23.332930
-5.048369
25.243317
56.017795
79.819503
95.027057
110.456953
114.596078
85.568254
36.539543
-0.070794
-2.121218
26.512144
55.397540
57.021941
29.805579
-0.430508
-7.407275
5.045914
15.248804
4.715981
-34.139276
-86.118509
-122.504400
-123.698659
-91.779276
-56.700591
-45.882346
-53.757362
-59.361972
-43.803488
-12.663351
3.285808
2.740571
5.512215
9.658821
20.048047
42.993356
52.820066
36.053741
19.675519
29.115762
61.721808
96.913183
108.942030
82.279066
29.395739
-26.615562
-74.583535
-102.052164
-102.056395
-81.965985
-44.658510
4.278742
46.732095
65.482847
60.164170
47.922757
37.654592
30.725053
36.547050
55.354147
71.550430
65.578290
37.350989
12.353831
0.287999
-10.672907
-20.954632
-18.312979
-0.953788
12.040174
12.815657
11.788329
7.829184
2.853722
5.275138
10.630476
13.481143
12.818306
1.380687
-30.222179
-66.406069
-80.221639
-75.195254
-55.630420
-12.087339
44.899086
94.799582
114.796240
85.840426
21.574679
-38.397848
-64.491516
-59.290484
-40.631615
-16.239101
12.365738
41.223312
61.364457
64.857833
48.838256
16.890305
-9.707430
-16.174285
-19.450508
-35.890920
-61.267766
-84.946775
-101.278004
-113.816106
-124.679752
-126.102899
-105.910553
-60.438877
-9.235896
17.329296
10.272103
-9.466020
-19.662408
-26.378491
-43.664782
-64.826964
-78.551587
-82.494367
-80.803333
-78.479411
-67.412640
-43.323127
-19.359164
2.514418
29.141099
55.341099
75.417482
90.737025
106.444672
121.362318
120.512209
95.683384
55.434929
12.501312
-20.725978
-38.025595
-41.032952
-34.396639
-24.879008
-17.205571
-14.169034
-12.855116
-3.351280
13.264903
26.722953
38.274853
54.192918
65.596825
58.985951
39.515058
20.708851
8.307053
-0.836313
-18.046386
-48.903439
-83.315613
-102.508287
-98.871125
-83.655154
-59.686982
-23.250636
13.889908
41.260531
57.043928
63.981138
71.137650
74.360055
57.035422
25.715684
7.170629
5.672901
3.335607
-7.282786
-18.463695
-16.594975
-0.661480
7.656069
-6.486818
-29.540420
-36.893834
-23.625627
-11.579480
-15.496308
-22.613586
-16.010706
4.774082
29.784756
54.495000
81.224084
104.359937
111.576535
103.833849
91.602956
72.131830
36.276659
-10.384622
-50.648274
-69.301110
-64.080439
-45.239675
-19.415621
10.741632
34.451458
39.562945
24.417068
-3.030052
-35.272587
-64.951068
-76.944189
-68.927069
-60.131405
-59.074664
-58.752981
-53.881136
-41.799217
-22.895796
0.163840
19.863575
29.556320
35.981514
49.123236
72.946921
100.469279
116.266002
114.311902
91.427570
44.994008
-12.100476
-57.955624
-74.119687
-60.877900
-35.422077
-9.199632
16.618578
45.934628
70.702621
72.825945
56.053073
36.271230
20.997466
12.351621
7.503345
11.873695
32.419308
56.729759
71.496840
78.665509
83.537822
81.052534
58.476580
15.838951
-34.075151
-75.394632
-85.057963
-56.519522
-14.764054
13.923549
17.050799
3.012887
-5.953027
-12.663030
-31.578187
-53.334448
-60.128151
-46.436070
-25.226239
-11.171772
-5.128135
-10.676167
-25.969804
-27.726812
-2.074131
32.067728
53.164402
60.404614
55.020240
43.608339
40.597476
35.580164
7.877737
-37.662251
-81.602599
-109.647773
-120.316666
-119.594488
-111.518920
-99.757771
-87.699465
-79.291203
-78.261582
-77.824871
-61.923173
-23.126175
25.202269
58.111549
66.968235
69.292859
76.248305
73.031232
45.873553
6.110461
-18.347795
-13.723541
5.624329
23.554219
40.864546
61.151580
70.870042
48.996181
3.353322
-38.291839
-67.323403
-87.139146
-97.220273
-98.431131
-92.250021
-82.433832
-76.444202
-75.205099
-69.027029
-47.902299
-13.360880
20.903723
40.046553
42.680959
40.329871
32.475196
9.189433
-10.745547
2.026541
40.214964
69.528443
58.108593
11.987618
-22.389253
-27.360506
-23.094898
-20.453245
-24.789739
-28.688331
-15.705123
4.438826
23.011893
44.913530
50.437202
20.666605
-24.529234
-57.728702
-67.069393
-47.562774
-10.456131
26.113479
57.063539
75.486741
81.683047
86.526369
77.312396
39.702811
-9.745567
-40.790827
-34.984494
-12.826381
-9.855542
-29.316381
-57.676947
-77.522148
-75.493746
-69.211168
-74.980606
-75.415725
-53.498656
-16.388039
15.450450
30.875436
39.330926
55.251796
81.160485
103.170604
105.686241
85.544818
46.538995
1.552638
-32.162587
-45.139527
-37.883417
-25.496627
-16.641811
0.492233
31.682870
66.188284
83.828032
79.364819
73.830114
74.729042
72.919429
66.369576
54.611422
41.869916
27.980933
3.131769
-33.626561
-73.630699
-99.818119
-102.379390
-94.627163
-88.534195
-83.039514
-70.454931
-43.568969
-11.881981
10.345337
26.730294
45.885515
61.897099
66.295504
64.927300
66.012798
69.112226
70.639601
68.337611
62.062236
48.735536
27.889682
6.989119
-13.956566
-40.209450
-70.403220
-98.798388
-116.404280
-124.232770
-129.047847
-122.581037
-99.816687
-67.573027
-31.990275
-0.409898
27.313058
50.154561
56.275117
50.202912
47.500661
49.241025
54.500973
60.595812
49.674184
16.814891
-16.104020
-30.687380
-20.709169
5.911432
26.398129
29.897818
25.609018
29.006772
47.076239
69.309868
76.735715
58.935070
28.538831
4.420283
-7.752628
-7.738155
-5.319077
-7.743109
-7.379109
-4.510673
-1.653225
6.384702
14.916643
10.744509
-8.730826
-31.091453
-44.449248
-47.382257
-45.581105
-39.663953
-21.843012
6.541356
37.377089
61.817063
65.702985
47.329303
17.751589
-14.905937
-42.585685
-57.945954
-58.786010
-47.787975
-30.974234
-19.482887
-17.649939
