EVENT_NAME: 202302060117
EVENT_ID: 13194
EVENT_DATE_YYYYMMDD: 2023/02/06
EVENT_TIME_HHMMSS: 01:17:32.00000
EVENT_LATITUDE_DEGREE: 37.288
EVENT_LONGITUDE_DEGREE: 37.043
EVENT_DEPTH_KM: 8.6
HYPOCENTER_REFERENCE: AFAD
MAGNITUDE_W: 7.7
MAGNITUDE_W_REFERENCE: AFAD
MAGNITUDE_L: 
MAGNITUDE_L_REFERENCE: 
FOCAL_MECHANISM: 
NETWORK: TK
STATION_CODE: 6607
STATION_NAME: 
STATION_LATITUDE_DEGREE: 39.49301
STATION_LONGITUDE_DEGREE: 34.75947
STATION_ELEVATION_M: 903.0
LOCATION: Kahramanmaras_Pazarck_Turkiye
SENSOR_DEPTH_M: 
VS30_M/S: None
SITE_CLASSIFICATION_EC8: unknown
MORPHOLOGIC_CLASSIFICATION: 
EPICENTRAL_DISTANCE_KM: 315.77
EARTHQUAKE_BACKAZIMUTH_DEGREE: 
DATE_TIME_FIRST_SAMPLE_YYYYMMDD_HHMMSS: 2023/02/06 01:18:03.9204260
DATE_TIME_FIRST_SAMPLE_PRECISION: millisecond
SAMPLING_INTERVAL_S: 0.01
NDATA: 18251
DURATION_S: 
STREAM: HNZ
UNITS: cm/s^2
INSTRUMENT: sensor = ACEBOX/SARA | digitizer = 
INSTRUMENT_ANALOG/DIGITAL: 
INSTRUMENTAL_FREQUENCY_HZ: 
INSTRUMENTAL_DAMPING: 
FULL_SCALE_G: 
N_BIT_DIGITAL_CONVERTER: 
PGA_CM/S^2: 1.773
TIME_PGA_S: 
BASELINE_CORRECTION: BASELINE REMOVED
FILTER_TYPE: BUTTERWORTH
FILTER_ORDER: 
LOW_CUT_FREQUENCY_HZ: 
HIGH_CUT_FREQUENCY_HZ: 
LATE/NORMAL_TRIGGERED: 
DATABASE_VERSION: 
HEADER_FORMAT: DYNA 1.2
DATA_TYPE: Acceleration
PROCESSING: Automatic Paolucci et al., 2011
DATA_TIMESTAMP_YYYYMMDD_HHMMSS: 
DATA_LICENSE: U (unknown license)
DATA_CITATION: Turkish Accelerometric Archive v 1.0 - Disaster And Emergency Management Presidency, Earthquake Department
DATA_CREATOR: AFAD
ORIGINAL_DATA_MEDIATOR_CITATION: : AFAD - Disaster And Emergency Management Presidency
ORIGINAL_DATA_MEDIATOR: AFAD PROCESS SERVICE
ORIGINAL_DATA_CREATOR_CITATION: AFAD PROCESS SERVICE
ORIGINAL_DATA_CREATOR: network: TK
USER1: GuestUser
USER2: 
USER3: 
USER4: 
USER5: 
[...]
0.311736
0.340727
0.376966
0.382577
0.327401
0.205826
0.037259
-0.111670
-0.208228
-0.278835
-0.347103
-0.423087
-0.499305
-0.559157
-0.590953
-0.595395
-0.590252
-0.579029
-0.571548
-0.577626
-0.578795
-0.562195
-0.528295
-0.485743
-0.444595
-0.384743
-0.307356
-0.230202
-0.138086
-0.013472
0.136158
0.279944
0.373697
0.393803
0.348681
0.267787
0.187828
0.126574
0.073736
0.031652
0.019963
0.027678
0.043576
0.069996
0.091973
0.103663
0.105767
0.089401
0.063684
0.033056
-0.002714
-0.014872
0.012717
0.063918
0.116523
0.143877
0.134525
0.098053
0.076310
0.091741
0.110679
0.123070
0.144112
0.160478
0.185728
0.227578
0.259375
0.277845
0.278780
0.265688
0.257271
0.259609
0.274105
0.278547
0.241607
0.176378
0.100160
0.021838
-0.026558
-0.035676
-0.033571
-0.032402
-0.043624
-0.084539
-0.147430
-0.213361
-0.255210
-0.258717
-0.240013
-0.205645
-0.177823
-0.187876
-0.219906
-0.262457
-0.322075
-0.365094
-0.362288
-0.338207
-0.318568
-0.310385
-0.325348
-0.359482
-0.395720
-0.416528
-0.385433
-0.287472
-0.160987
-0.052973
0.025116
0.077720
0.096892
0.099230
0.123545
0.179423
0.241379
0.270604
0.252134
0.185034
0.064863
-0.077286
-0.210317
-0.318565
-0.376546
-0.398523
-0.408810
-0.397354
-0.366726
-0.328851
-0.286533
-0.232760
-0.160283
-0.070738
0.047330
0.172178
0.273880
0.359216
0.407378
0.401767
0.374647
0.340980
0.296559
0.242552
0.183401
0.130797
0.084505
0.030732
-0.029354
-0.091076
-0.169164
-0.256137
-0.327445
-0.364385
-0.336796
-0.248888
-0.125210
0.019745
0.142021
0.224318
0.267103
0.256816
0.217538
0.175455
0.139918
0.139684
0.197900
0.275287
0.315734
0.333970
0.338179
0.313396
0.284405
0.243491
0.189952
0.153713
0.115604
0.090354
0.103447
0.122151
0.150207
0.194629
0.232036
0.259858
0.259157
0.234842
0.231102
0.238817
0.252144
0.290019
0.329998
0.357119
0.366705
0.339585
0.290721
0.236246
0.182239
0.148573
0.121219
0.095267
0.086617
0.065809
0.034247
0.027700
0.044066
0.067680
0.064641
0.020921
-0.031917
-0.080079
-0.134554
-0.208901
-0.281378
-0.303823
-0.281846
-0.219889
-0.108835
0.007362
0.089191
0.129404
0.139925
0.149511
0.151616
0.123560
0.063474
-0.009236
-0.066283
-0.109301
-0.134084
-0.135486
-0.142033
-0.164711
-0.206560
-0.269218
-0.326732
-0.360632
-0.352449
-0.295636
-0.221990
-0.141330
-0.063008
-0.008065
0.038694
0.079141
0.088026
0.062308
0.029343
0.023966
0.045943
0.079610
0.115147
0.134085
0.129409
0.101120
0.064881
0.045009
0.030747
0.009706
-0.002218
0.004329
0.025370
0.058570
0.085457
0.084989
0.073066
0.071897
0.080080
0.077742
0.042205
-0.021388
-0.092228
-0.149508
-0.171018
-0.147638
-0.091526
-0.031440
0.012748
0.045479
0.069327
0.080783
0.072366
0.035193
-0.049909
-0.202812
-0.383070
-0.528959
-0.622244
-0.643754
-0.591149
-0.503943
-0.417204
-0.356650
-0.340284
-0.349870
-0.361559
-0.388680
-0.430529
-0.456247
-0.455545
-0.419073
-0.342387
-0.244660
-0.137580
-0.035878
0.049925
0.124273
0.178748
0.207973
0.223403
0.230418
0.235561
0.247953
0.268293
0.284659
0.280685
0.240004
0.160279
0.062318
-0.056217
-0.206314
-0.363894
-0.491313
-0.552334
-0.529655
-0.447826
-0.344955
-0.254943
-0.200936
-0.164697
-0.133836
-0.128458
-0.140148
-0.158852
-0.190882
-0.208183
-0.194622
-0.157215
-0.087309
-0.012026
0.041981
0.093650
0.156542
0.229253
0.299392
0.352698
0.397821
0.439437
0.453933
0.431956
0.396419
0.365090
0.345685
0.349426
0.373975
0.402031
0.400628
0.346154
0.264091
0.190211
0.134568
0.103707
0.087341
0.070741
0.060922
0.052505
0.048999
0.058818
0.059987
0.038478
-0.008982
-0.076550
-0.147390
-0.231791
-0.322972
-0.401995
-0.482187
-0.543910
-0.567523
-0.555833
-0.508606
-0.453663
-0.408540
-0.378848
-0.368561
-0.355000
-0.341674
-0.336998
-0.335127
-0.343310
-0.340972
-0.308708
-0.254233
-0.187834
-0.130787
-0.088236
-0.052933
-0.039606
-0.059245
-0.101095
-0.144113
-0.176845
-0.193912
-0.177546
-0.132890
-0.086364
-0.047320
-0.017394
0.006687
0.025625
0.013234
-0.031655
-0.084727
-0.146917
-0.216822
-0.284389
-0.336058
-0.354528
-0.344475
-0.328109
-0.321095
-0.333252
-0.372998
-0.426069
-0.461840
-0.466282
-0.416483
-0.304494
-0.174503
-0.053396
0.047137
0.103015
0.122888
0.115640
0.074258
0.028902
0.015342
0.041995
0.094833
0.146502
0.179936
0.179234
0.127799
0.033345
-0.086359
-0.214246
-0.333950
-0.434483
-0.504388
-0.524962
-0.485450
-0.408297
-0.329975
-0.265680
-0.219154
-0.191800
-0.188059
-0.203256
-0.223362
-0.243469
-0.261471
-0.271056
-0.281343
-0.297475
-0.304957
-0.298644
-0.286954
-0.265444
-0.224997
-0.172860
-0.146207
-0.170522
-0.225932
-0.292097
-0.351481
-0.383979
-0.399643
-0.406890
-0.402682
-0.396135
-0.393096
-0.405955
-0.455753
-0.522853
-0.556987
-0.541089
-0.487549
-0.406655
-0.322020
-0.266610
-0.250478
-0.250478
-0.235749
-0.200913
-0.162570
-0.134982
-0.117447
-0.107160
-0.113238
-0.131007
-0.133578
-0.103652
-0.044501
0.023300
0.077775
0.114014
0.125938
0.108169
0.082919
0.074503
0.078244
0.091804
0.110040
0.106066
0.081517
0.048552
0.010443
-0.015274
-0.041693
-0.080504
-0.107390
-0.126561
-0.140589
-0.129367
-0.099908
-0.058292
-0.009896
0.029616
0.077545
0.156334
0.246814
0.324435
0.387560
0.446711
0.510538
0.574599
0.623930
0.668819
0.720722
0.749713
0.738257
0.703188
0.654558
0.609903
0.577873
0.552155
0.536491
0.519190
0.489732
0.466119
0.457936
0.476172
0.521061
0.569458
0.614581
0.650352
0.661574
0.654560
0.618790
0.536727
0.418192
0.278615
0.140675
0.045753
0.006709
0.007878
0.035700
0.071939
0.102800
0.126648
0.149093
0.174109
0.194449
0.205906
0.219700
0.241677
0.259212
0.245184
0.193749
0.128753
0.075214
0.045756
0.041314
0.068434
0.141847
0.251965
0.378917
0.515221
0.634224
0.705299
0.750422
0.794376
0.834823
0.886726
0.936057
0.940500
0.901456
0.831317
0.743175
0.663217
0.595182
0.544916
0.541175
0.591208
0.671400
0.760010
0.844878
0.898184
0.899587
0.866154
0.806302
0.720031
0.626045
0.542112
0.477584
0.428253
0.391781
0.376818
0.381260
0.403938
0.442515
0.475247
0.475013
0.419603
0.313693
0.201003
0.110290
0.051373
0.049269
0.099068
0.154712
0.188145
0.189548
0.150972
0.079430
-0.009179
-0.083760
-0.118128
-0.128649
-0.132857
-0.116258
-0.089137
-0.069264
-0.041442
-0.007307
0.011396
0.018410
0.027295
0.048337
0.079432
0.104682
0.124789
0.142558
0.155884
0.183940
0.238649
0.318608
0.433402
0.572979
0.706478
0.806777
0.856108
0.848861
0.806076
0.767499
0.736405
0.697361
0.646159
0.561525
0.442288
0.318142
0.197736
0.089255
-0.000991
-0.074169
-0.112746
-0.112746
-0.090301
-0.062946
-0.041203
-0.012680
0.027066
0.067279
0.107960
0.143030
0.165942
0.182542
0.175060
0.128301
0.074762
0.042498
0.025197
0.027301
0.049278
0.074529
0.105156
0.135550
0.157059
0.177868
0.185583
0.166879
0.136720
0.109365
0.094636
0.072660
0.021692
-0.037926
-0.090063
-0.111105
-0.083516
-0.027639
0.058165
0.161270
0.251516
0.326097
0.369584
0.391093
0.415642
0.426163
0.422189
0.410733
0.388522
0.372624
0.363272
0.345504
0.312071
0.261103
0.200784
0.136490
0.067520
-0.003788
-0.072759
-0.150145
-0.230104
-0.271953
-0.268680
-0.241326
-0.197605
-0.154353
-0.104788
-0.027868
0.052558
0.118022
0.170860
0.198682
0.213177
0.241701
0.286123
0.349248
0.428272
0.492332
0.525298
0.523895
0.475265
0.385721
0.274434
0.154964
0.028947
-0.115306
-0.274054
-0.429997
-0.563962
-0.653974
-0.677821
-0.621710
-0.517202
-0.394459
-0.235944
-0.067610
0.051627
0.107271
0.107037
0.055836
-0.040021
-0.150373
-0.252776
-0.358686
-0.463427
-0.561856
-0.652803
-0.718500
-0.773676
-0.809914
-0.808745
-0.789340
-0.749594
-0.720369
-0.734631
-0.764557
-0.807575
-0.846152
-0.861582
-0.891976
-0.933358
-0.968427
-0.991573
-0.960711
-0.873271
-0.749125
-0.612353
-0.504572
-0.424380
-0.366866
-0.336939
-0.318469
-0.323846
-0.354240
-0.380659
-0.414326
-0.468099
-0.515559
-0.533796
-0.514624
-0.452668
-0.361253
-0.263993
-0.174682
-0.104075
-0.063394
-0.051938
-0.051471
-0.049834
-0.079526
-0.158315
-0.251834
-0.339742
-0.423675
-0.511816
-0.609543
-0.698620
-0.764551
-0.781150
-0.732988
-0.646950
-0.533091
-0.418998
-0.357509
-0.337870
-0.331791
-0.327349
-0.311216
-0.293915
-0.278485
-0.259547
-0.235699
-0.208813
-0.194317
-0.201331
-0.231958
-0.285731
-0.357741
-0.446116
-0.527945
-0.564651
-0.541505
-0.459676
-0.361948
-0.312851
-0.332723
-0.405200
-0.501992
-0.595979
-0.688095
-0.785354
-0.879107
-0.947843
-0.982912
-0.981276
-0.943400
-0.905993
-0.873495
-0.803589
-0.702589
-0.586157
-0.451724
-0.302327
-0.146618
-0.008210
0.103545
0.197532
0.275854
0.338746
0.383167
0.404443
0.387376
0.339681
0.298533
0.278427
0.279362
0.285441
0.283337
0.296897
0.327759
0.357919
0.362361
0.314433
0.230967
0.132071
0.036214
-0.020832
-0.047719
-0.058005
-0.039302
-0.003297
0.056556
0.145165
0.226293
0.290587
0.353946
0.419643
0.486510
0.545193
0.583770
0.607851
0.627022
0.642453
0.662326
0.680329
0.670743
0.639648
0.592889
0.520646
0.449805
0.414736
0.425724
0.483005
0.571380
0.659756
0.731298
0.785305
0.808919
0.801204
0.796762
0.808685
0.831130
0.854276
0.841651
0.783202
0.719609
0.687346
0.699971
0.739483
0.760291
0.743925
0.698568
0.619779
0.535144
0.482540
0.436249
0.376397
0.308128
0.224195
0.157329
0.115713
0.071759
0.038560
0.000685
-0.057062
-0.112940
-0.170688
-0.210667
-0.221655
-0.225396
-0.219551
-0.228435
-0.269583
-0.321486
-0.381572
-0.429032
-0.449840
-0.465972
-0.488183
-0.510861
-0.511094
-0.470180
-0.388584
-0.282440
-0.209262
-0.204819
-0.261866
-0.376192
-0.511795
-0.632200
-0.736474
-0.829057
-0.923511
-1.019134
-1.095352
-1.142579
-1.150762
-1.114523
-1.042046
-0.961385
-0.908079
-0.880959
-0.857579
-0.827653
-0.776217
-0.684802
-0.582165
-0.506415
-0.454278
-0.438613
-0.461759
-0.480229
-0.495192
-0.538210
-0.616298
-0.718468
-0.807778
-0.860616
-0.860382
-0.794218
-0.707712
-0.644821
-0.620740
-0.625883
-0.618167
-0.597593
-0.572811
-0.542183
-0.558782
-0.627285
-0.693683
-0.743248
-0.750262
-0.711451
-0.655807
-0.584967
-0.512957
-0.458015
-0.419672
-0.384836
-0.334569
-0.267937
-0.182367
-0.098901
-0.038114
0.020570
0.071070
0.112218
0.153834
0.176981
0.191242
0.204803
0.217194
0.252498
0.300426
0.332223
0.336899
0.299491
0.218364
0.116195
0.020104
-0.053776
-0.095391
-0.087208
-0.028993
0.046524
0.103804
0.141913
0.180958
0.224444
0.262787
0.287804
0.288973
0.258112
0.223276
0.210651
0.193116
0.157112
0.109885
0.053306
0.014496
-0.007949
-0.042083
-0.085101
-0.141446
-0.205507
-0.253435
-0.296454
-0.335030
-0.349759
-0.358877
-0.386465
-0.446083
-0.550357
-0.660475
-0.734589
-0.786258
-0.811741
-0.797480
-0.761475
-0.702558
-0.617455
-0.529547
-0.441406
-0.361447
-0.310011
-0.263953
-0.198957
-0.128350
-0.073642
-0.030389
0.011227
0.031567
0.034607
0.055415
0.086744
0.100304
0.099603
0.107552
0.123451
0.129763
0.131400
0.126257
0.125322
0.152442
0.176056
0.188447
0.217205
0.249703
0.271680
0.269576
0.249703
0.243391
0.257886
0.299502
0.356081
0.405413
0.462693
0.528157
0.596192
0.674748
0.739276
0.761721
0.736938
0.692283
0.677320
0.693218
0.717066
0.730626
0.701168
0.634068
0.554110
0.476723
0.429262
0.394427
0.352110
0.318910
0.278697
0.228899
0.197570
0.187751
0.201311
0.224691
0.247136
0.281036
0.323354
0.361931
0.376192
0.353982
0.313301
0.267711
0.222121
0.178167
0.141461
0.130005
0.143098
0.166244
0.186350
0.187987
0.162270
0.106626
0.041397
0.001885
-0.011909
-0.003960
0.022927
0.046541
0.069921
0.097509
0.120889
0.146373
0.182612
0.220721
0.240827
0.229138
0.191730
0.147543
0.118552
0.097744
0.083015
0.094004
0.124865
0.165312
0.214176
0.268651
0.333880
0.398175
0.459664
0.528400
0.588954
0.642961
0.699306
0.753080
0.807087
0.856419
0.896398
0.933572
0.970980
1.012362
1.050471
1.067304
1.047666
0.992490
0.922584
0.860394
0.823922
0.821117
0.852680
0.903180
0.936613
0.930301
0.883074
0.797270
0.679904
0.546172
0.425299
0.336456
0.282449
0.279410
0.320091
0.364279
0.386022
0.364981
0.303726
0.232184
0.156668
0.083022
0.041873
0.058941
0.136328
0.246446
0.364047
0.464580
0.519990
0.552721
0.587557
0.593169
0.547812
0.444240
0.307936
0.187531
0.092843
0.031121
0.014989
0.013586
-0.000675
-0.013300
-0.009325
0.001429
0.011249
0.015224
-0.007688
-0.045096
-0.074086
-0.093959
-0.093024
-0.074320
-0.058421
-0.057018
-0.077592
-0.122481
-0.194491
-0.279125
-0.350901
-0.406544
-0.441614
-0.447693
-0.428755
-0.393685
-0.353939
-0.309985
-0.266733
-0.240781
-0.236573
-0.255042
-0.294788
-0.337339
-0.363758
-0.371941
-0.375214
-0.378487
-0.367966
-0.341079
-0.317231
-0.312088
-0.331960
-0.375213
-0.421738
-0.460782
-0.486967
-0.479953
-0.441610
-0.392045
-0.347624
-0.319100
-0.294317
-0.263690
-0.231893
-0.204071
-0.188874
-0.178821
-0.170638
-0.161753
-0.148427
-0.157545
-0.199862
-0.259948
-0.349258
-0.465923
-0.601058
-0.743440
-0.861975
-0.961572
-1.053922
-1.129439
-1.195603
-1.252182
-1.297305
-1.346636
-1.390589
-1.413735
-1.447168
-1.508890
-1.563365
-1.602409
-1.642856
-1.672314
-1.684004
-1.684004
-1.685874
-1.706916
-1.731464
-1.751103
-1.767235
-1.772612
-1.770274
-1.750635
-1.699199
-1.613396
-1.505849
-1.408121
-1.332605
-1.269947
-1.204250
-1.122654
-1.035214
-0.945202
-0.855891
-0.774530
-0.694805
-0.628172
-0.590063
-0.579542
-0.594037
-0.615313
-0.626535
-0.624431
-0.607831
-0.595673
-0.595673
-0.583282
-0.553122
-0.515013
-0.462408
-0.391801
-0.298516
-0.176707
-0.051392
0.057324
0.161831
0.250674
0.305617
0.339985
0.353312
0.339518
0.318710
0.294162
0.271951
0.272419
0.292292
0.325491
0.363834
0.388383
0.405918
0.425557
0.444728
0.466238
0.485877
0.509491
0.536611
0.551808
0.557419
0.557420
0.544795
0.512998
0.464602
0.408725
0.343496
0.278500
0.226831
0.180306
0.131910
0.071123
-0.004394
-0.072195
-0.125734
-0.173896
-0.222760
-0.269753
-0.299445
-0.304355
-0.299211
-0.309264
-0.355322
-0.432943
-0.512901
-0.549140
-0.513368
-0.422655
-0.312302
-0.221121
-0.172258
-0.158931
-0.179973
-0.236084
-0.308093
-0.371920
-0.414003
-0.442760
-0.468010
-0.462866
-0.430135
-0.406287
-0.392961
-0.392493
-0.405118
-0.419379
-0.449305
-0.488817
-0.527393
-0.572516
-0.597766
-0.588414
-0.559423
-0.517339
-0.458656
-0.382438
-0.321183
-0.282139
-0.256421
-0.261798
-0.255953
-0.205920
-0.140924
-0.062602
0.018759
0.091003
0.160675
0.217488
0.272430
0.329477
0.378341
0.435387
0.510670
0.594370
0.664743
0.708229
0.736519
0.757327
0.781876
0.812270
0.819517
0.785851
0.728804
0.673395
0.636221
0.629441
0.652821
0.700048
0.763407
0.832144
0.899010
0.952082
0.982476
0.999309
0.996270
0.964006
0.912103
0.859031
0.832379
0.834717
0.854824
0.886386
0.913507
0.930107
0.941095
0.940394
0.928471
0.903221
0.874464
0.876100
0.916314
0.971724
1.022458
1.051683
1.049812
1.030407
1.003053
0.954891
0.879609
0.773231
0.645812
0.526575
0.414586
0.306806
0.227081
0.169801
0.129354
0.105741
0.068567
0.011287
-0.055579
-0.127354
-0.194922
-0.263892
-0.341512
-0.415860
-0.467295
-0.476413
-0.449760
-0.405104
-0.367463
-0.351798
-0.344083
-0.331458
-0.314390
-0.305974
-0.317196
-0.349927
-0.396686
-0.439004
-0.469631
-0.483425
-0.474073
-0.454667
-0.430352
-0.415623
-0.444146
-0.514987
-0.613181
-0.721897
-0.796712
-0.813779
-0.783619
-0.710908
-0.626273
-0.571331
-0.532053
-0.489268
-0.448587
-0.405334
-0.365588
-0.335896
-0.303398
-0.255236
-0.177849
-0.078017
0.012229
0.073951
0.109021
0.134271
0.168172
0.210256
0.243689
0.245793
0.217504
0.185006
0.171446
0.189215
0.230597
0.266836
0.288345
0.301204
0.307517
0.324117
0.365967
0.428858
0.498062
0.538276
0.537341
0.525651
0.523313
0.547862
0.604441
0.668735
0.725782
0.761319
0.753604
0.713157
0.657514
0.589011
0.524951
0.491518
0.494791
0.521211
0.559787
0.607482
0.668270
0.748228
0.839409
0.925681
0.993716
1.043515
1.080689
1.110381
1.148490
1.195016
1.224942
1.224942
1.182625
1.091211
0.984833
0.896224
0.815798
0.744022
0.691418
0.646763
0.618941
0.620812
0.639983
0.667571
0.680664
0.663363
0.636711
0.618708
0.615435
0.622216
0.635542
0.649103
0.643024
0.627827
0.616371
0.596733
0.590654
0.602578
0.605851
0.607488
0.608891
0.591824
0.565638
0.561196
0.586914
0.623621
0.654716
0.675992
0.678563
0.654716
0.614036
0.574290
0.545300
0.524959
0.504385
0.477733
0.431908
0.365978
0.307061
0.265679
0.243936
0.256795
0.299346
0.362004
0.438222
0.512570
0.572422
0.619182
0.655888
0.673423
0.677398
0.690257
0.727664
0.783542
0.840589
0.884075
0.903247
0.910261
0.919145
0.914235
0.889453
0.845032
0.793596
0.744499
0.667580
0.570554
0.487323
0.414846
0.363644
0.333952
0.312209
0.299350
0.273867
0.221964
0.147616
0.057604
-0.016977
-0.057190
-0.055319
-0.010664
0.051994
0.108339
0.140136
0.147618
0.152060
0.163984
0.194377
0.241838
0.290702
0.337696
0.379078
0.405731
0.417421
0.428877
0.442905
0.449685
0.448750
0.437061
0.409473
0.377910
0.358973
0.358973
0.372767
0.400823
0.452258
0.515618
0.574768
0.629477
0.674366
0.702188
0.723464
0.754793
0.805293
0.878238
0.957963
1.027167
1.088656
1.129337
1.152951
1.192463
1.225194
1.234546
1.256757
1.276396
1.270785
1.253952
1.218415
1.169785
1.126299
1.085852
1.048913
1.014545
0.982982
0.951186
0.919389
0.891100
0.847380
0.792438
0.754095
0.727443
0.719026
0.740302
0.758070
0.757135
0.744744
0.716455
0.675774
0.618260
0.548589
0.493647
0.470033
0.470969
0.484295
0.514455
0.551162
0.571502
0.589271
0.596986
0.583192
0.572204
0.561216
0.534797
0.505338
0.476114
0.445019
0.416496
0.392649
0.365061
0.326718
0.285570
0.248396
0.203507
0.142253
0.078894
0.016470
-0.057644
-0.135732
-0.190206
-0.215690
-0.236966
-0.263852
-0.306637
-0.394544
-0.510040
-0.611742
-0.683050
-0.721392
-0.735186
-0.734485
-0.727471
-0.721392
-0.711105
-0.701753
-0.698246
-0.687257
-0.662007
-0.625534
-0.578073
-0.519624
-0.466552
-0.441535
-0.442938
-0.452757
-0.472864
-0.514713
-0.570824
-0.627169
-0.682345
-0.727001
-0.750848
-0.767915
-0.768850
-0.734949
-0.684449
-0.625999
-0.553990
-0.486188
-0.426804
-0.365315
-0.316451
-0.286291
-0.261275
-0.239765
-0.216385
-0.183653
-0.146246
-0.103461
-0.059974
-0.028645
-0.007603
0.006658
0.008295
-0.013448
-0.048050
-0.067922
-0.070728
-0.056934
-0.017188
0.035884
0.093165
0.160732
0.230638
0.289555
0.320416
0.310129
0.272254
0.216377
0.145069
0.076099
0.024897
-0.003860
-0.012744
-0.015549
-0.016718
-0.008769
0.010403
0.049213
0.108364
0.153955
0.160969
0.152084
0.139226
0.102520
0.044071
-0.019756
-0.076569
-0.105559
-0.097376
-0.075399
-0.066748
-0.089427
-0.146941
-0.225964
-0.323691
-0.446201
-0.568944
-0.667139
-0.744993
-0.788713
-0.791986
-0.783569
-0.777490
-0.769074
-0.760891
-0.756916
-0.752240
-0.735640
-0.710857
-0.669241
-0.594660
