EVENT_NAME: 202302060117
EVENT_ID: 13194
EVENT_DATE_YYYYMMDD: 2023/02/06
EVENT_TIME_HHMMSS: 01:17:32.00000
EVENT_LATITUDE_DEGREE: 37.288
EVENT_LONGITUDE_DEGREE: 37.043
EVENT_DEPTH_KM: 8.6
HYPOCENTER_REFERENCE: AFAD
MAGNITUDE_W: 7.7
MAGNITUDE_W_REFERENCE: AFAD
MAGNITUDE_L: 
MAGNITUDE_L_REFERENCE: 
FOCAL_MECHANISM: 
NETWORK: TK
STATION_CODE: 5104
STATION_NAME: 
STATION_LATITUDE_DEGREE: 38.18488
STATION_LONGITUDE_DEGREE: 34.48289
STATION_ELEVATION_M: 1544.0
LOCATION: Kahramanmaras_Pazarck_Turkiye
SENSOR_DEPTH_M: 
VS30_M/S: None
SITE_CLASSIFICATION_EC8: unknown
MORPHOLOGIC_CLASSIFICATION: 
EPICENTRAL_DISTANCE_KM: 246.22
EARTHQUAKE_BACKAZIMUTH_DEGREE: 
DATE_TIME_FIRST_SAMPLE_YYYYMMDD_HHMMSS: 2023/02/06 01:17:54.4456810
DATE_TIME_FIRST_SAMPLE_PRECISION: millisecond
SAMPLING_INTERVAL_S: 0.01
NDATA: 14501
DURATION_S: 
STREAM: HNZ
UNITS: cm/s^2
INSTRUMENT: sensor = ACEBOX/SARA | digitizer = 
INSTRUMENT_ANALOG/DIGITAL: 
INSTRUMENTAL_FREQUENCY_HZ: 
INSTRUMENTAL_DAMPING: 
FULL_SCALE_G: 
N_BIT_DIGITAL_CONVERTER: 
PGA_CM/S^2: 13.917
TIME_PGA_S: 
BASELINE_CORRECTION: BASELINE REMOVED
FILTER_TYPE: BUTTERWORTH
FILTER_ORDER: 
LOW_CUT_FREQUENCY_HZ: 
HIGH_CUT_FREQUENCY_HZ: 
LATE/NORMAL_TRIGGERED: 
DATABASE_VERSION: 
HEADER_FORMAT: DYNA 1.2
DATA_TYPE: Acceleration
PROCESSING: Automatic Paolucci et al., 2011
DATA_TIMESTAMP_YYYYMMDD_HHMMSS: 
DATA_LICENSE: U (unknown license)
DATA_CITATION: Turkish Accelerometric Archive v 1.0 - Disaster And Emergency Management Presidency, Earthquake Department
DATA_CREATOR: AFAD
ORIGINAL_DATA_MEDIATOR_CITATION: : AFAD - Disaster And Emergency Management Presidency
ORIGINAL_DATA_MEDIATOR: AFAD PROCESS SERVICE
ORIGINAL_DATA_CREATOR_CITATION: AFAD PROCESS SERVICE
ORIGINAL_DATA_CREATOR: network: TK
USER1: GuestUser
USER2: 
USER3: 
USER4: 
USER5: 
[...]
5.333340
5.246602
5.127834
5.043902
4.935655
4.764283
4.547087
4.268635
3.900640
3.465310
3.031150
2.603302
2.147165
1.654088
1.120797
0.599197
0.117342
-0.374800
-0.899206
-1.435068
-1.955967
-2.469151
-2.988414
-3.483361
-3.929913
-4.308196
-4.591557
-4.788647
-4.934769
-5.061953
-5.175344
-5.274706
-5.393708
-5.541233
-5.688758
-5.838153
-6.003914
-6.202173
-6.447191
-6.734761
-7.052958
-7.389157
-7.739851
-8.075583
-8.350528
-8.581518
-8.794039
-8.969853
-9.072021
-9.060330
-8.949977
-8.787252
-8.592031
-8.368285
-8.098482
-7.784257
-7.449926
-7.084500
-6.695928
-6.327696
-5.996871
-5.700883
-5.451654
-5.241001
-5.051157
-4.885159
-4.733190
-4.578649
-4.400962
-4.148693
-3.803373
-3.395864
-2.963805
-2.557698
-2.186894
-1.820065
-1.458613
-1.099967
-0.746465
-0.389689
0.029043
0.495938
0.980367
1.496592
1.997387
2.462411
2.884183
3.236517
3.537415
3.805815
4.096894
4.382362
4.597924
4.809745
4.947453
4.947221
4.955171
4.961719
4.872643
4.697062
4.459759
4.207493
3.882283
3.434328
2.993388
2.573957
2.130678
1.666592
1.091452
0.491062
0.034223
-0.349203
-0.777051
-1.280883
-1.673661
-1.800144
-1.816041
-1.768112
-1.641626
-1.524726
-1.369718
-1.153922
-0.911940
-0.653593
-0.436862
-0.265020
-0.104166
0.124489
0.441286
0.698931
0.953070
1.291376
1.538735
1.747049
2.030413
2.251352
2.377370
2.371760
2.253460
2.206468
2.155969
2.048190
2.042346
2.103602
2.178418
2.368731
2.693009
3.091167
3.558295
4.090419
4.606878
5.054367
5.422599
5.716951
5.967583
6.136853
6.196473
6.173562
6.072563
5.934623
5.782423
5.604270
5.425183
5.209155
4.911299
4.574164
4.224639
3.892414
3.632900
3.451007
3.335980
3.268881
3.222123
3.186587
3.136789
3.059170
2.940636
2.765289
2.545989
2.249535
1.851847
1.365550
0.807477
0.234441
-0.390264
-1.113865
-1.865289
-2.671888
-3.531092
-4.328339
-5.079996
-5.788167
-6.412404
-6.990116
-7.481557
-7.857736
-8.154891
-8.344967
-8.428431
-8.449472
-8.433572
-8.404814
-8.347065
-8.228996
-8.044295
-7.772621
-7.406961
-6.986359
-6.519698
-5.985003
-5.418744
-4.854123
-4.253730
-3.600733
-2.906822
-2.181114
-1.453536
-0.749571
-0.078338
0.554085
1.148165
1.713488
2.240468
2.713909
3.161164
3.583637
3.959117
4.324309
4.721065
5.143771
5.540059
5.891457
6.222048
6.509853
6.747860
6.938640
7.048292
7.086870
7.107679
7.116564
7.015799
6.809591
6.580003
6.239362
5.778081
5.290381
4.730438
4.058506
3.353375
2.674896
1.904068
1.035980
0.230783
-0.598728
-1.474064
-2.243724
-2.883859
-3.343036
-3.626397
-3.773688
-3.776492
-3.742824
-3.697467
-3.622884
-3.596230
-3.621947
-3.703774
-3.870704
-4.106371
-4.375470
-4.633815
-4.869949
-5.067039
-5.209888
-5.340579
-5.485065
-5.633993
-5.753228
-5.818924
-5.864045
-5.888125
-5.891164
-5.913607
-5.920620
-5.891160
-5.845802
-5.763037
-5.654787
-5.518015
-5.351784
-5.160069
-4.886525
-4.566923
-4.190040
-3.675919
-3.091191
-2.444974
-1.754336
-1.074686
-0.332612
0.407591
1.047729
1.660747
2.282415
2.901979
3.483668
4.019299
4.558670
5.100613
5.608656
6.047261
6.414324
6.717093
6.935227
7.070596
7.153362
7.218592
7.283356
7.363082
7.463616
7.541939
7.578412
7.577712
7.570232
7.606004
7.655804
7.710046
7.794448
7.863420
7.894282
7.879788
7.800999
7.687609
7.551306
7.391156
7.196872
6.913277
6.561647
6.185235
5.741957
5.224798
4.646385
3.993157
3.278673
2.520938
1.724158
0.893477
0.051341
-0.787990
-1.639245
-2.484655
-3.278863
-4.012517
-4.705491
-5.354277
-5.939003
-6.461305
-6.904584
-7.253408
-7.539107
-7.777813
-7.977007
-8.151652
-8.293800
-8.397371
-8.447168
-8.432438
-8.351543
-8.187650
-7.935615
-7.602453
-7.199853
-6.749324
-6.281495
-5.826758
-5.390257
-4.977604
-4.599786
-4.232256
-3.870336
-3.528523
-3.193257
-2.854717
-2.506592
-2.139997
-1.743475
-1.296688
-0.809453
-0.283408
0.293839
0.897972
1.501872
2.099459
2.680680
3.203686
3.648369
4.046761
4.393484
4.659780
4.858275
5.022168
5.172735
5.294077
5.362580
5.374271
5.362115
5.347387
5.305539
5.248493
5.157781
5.022414
4.918375
4.860628
4.811532
4.764306
4.764775
4.789559
4.722928
4.622864
4.485392
4.193381
3.857181
3.466274
2.936256
2.443881
2.032399
1.605720
1.212474
0.892874
0.547089
0.135374
-0.195215
-0.410307
-0.606929
-0.806123
-1.018176
-1.160324
-1.194457
-1.274414
-1.412354
-1.509846
-1.577412
-1.617858
-1.594243
-1.502360
-1.362781
-1.155402
-0.874143
-0.594052
-0.298298
0.054971
0.366390
0.607670
0.842170
1.057499
1.273996
1.554320
1.878598
2.211293
2.539546
2.822909
3.073775
3.332122
3.579948
3.843439
4.144103
4.398008
4.582943
4.711533
4.752449
4.737487
4.682312
4.552322
4.356635
4.113253
3.818202
3.484808
3.156324
2.829711
2.468028
2.078990
1.664235
1.243167
0.841037
0.419502
-0.009281
-0.408606
-0.809800
-1.202812
-1.571042
-1.925244
-2.242271
-2.528438
-2.809461
-3.072950
-3.324748
-3.581456
-3.850322
-4.136722
-4.435514
-4.768206
-5.142281
-5.539969
-5.961972
-6.369011
-6.742852
-7.114121
-7.433721
-7.657230
-7.811067
-7.904351
-7.930535
-7.871851
-7.729233
-7.526997
-7.270053
-6.968687
-6.610041
-6.164890
-5.633701
-5.005019
-4.291469
-3.520872
-2.695566
-1.860675
-1.058048
-0.307557
0.359701
0.956119
1.484736
1.930121
2.316356
2.646245
2.925867
3.173460
3.401180
3.657656
3.947566
4.265532
4.639375
5.040806
5.460473
5.897208
6.294430
6.660091
7.014996
7.338339
7.619364
7.820431
7.922836
7.952295
7.898757
7.761987
7.585705
7.372950
7.100578
6.780744
6.406436
5.974848
5.557754
5.209865
4.902423
4.601761
4.334298
4.107984
3.884708
3.683878
3.496374
3.229846
2.880554
2.516533
2.161396
1.804623
1.427041
1.048992
0.731731
0.453513
0.156124
-0.132848
-0.487284
-0.963761
-1.382959
-1.751656
-2.172490
-2.500038
-2.733601
-2.992413
-3.224105
-3.396880
-3.548613
-3.683045
-3.733077
-3.680939
-3.625060
-3.566609
-3.439189
-3.264775
-3.036821
-2.710907
-2.308307
-1.836970
-1.257619
-0.624027
-0.045378
0.490487
1.051134
1.632355
2.183650
2.678366
3.103878
3.442418
3.713156
3.931290
4.093781
4.234762
4.356571
4.446584
4.545949
4.654433
4.711714
4.683660
4.561619
4.323614
3.954683
3.471893
2.905871
2.283738
1.626535
0.978918
0.384840
-0.151022
-0.616044
-1.001340
-1.345021
-1.701093
-2.103223
-2.577129
-3.144320
-3.805965
-4.557622
-5.366092
-6.168950
-6.971809
-7.781448
-8.546431
-9.256238
-9.905258
-10.479931
-10.962721
-11.312481
-11.569189
-11.788957
-11.922220
-11.953782
-11.919412
-11.805786
-11.601679
-11.319017
-10.974399
-10.579748
-10.159613
-9.757948
-9.329864
-8.799845
-8.184723
-7.483564
-6.667376
-5.751825
-4.743456
-3.688094
-2.687908
-1.794100
-0.966690
-0.148632
0.635057
1.322656
1.898266
2.360251
2.760045
3.181583
3.629072
4.110696
4.653340
5.201129
5.724368
6.230307
6.687849
7.103308
7.479723
7.793012
8.043177
8.234424
8.393641
8.522231
8.581383
8.585358
8.536964
8.422170
8.286102
8.140915
7.955982
7.740422
7.512939
7.270726
6.995314
6.691379
6.414564
6.164870
5.881509
5.598381
5.345180
5.073509
4.806046
4.560326
4.299877
4.016049
3.691773
3.352301
3.020310
2.653249
2.299281
1.958172
1.500866
0.931103
0.303593
-0.421178
-1.226140
-2.075525
-2.967460
-3.837185
-4.649629
-5.429575
-6.137512
-6.763386
-7.316082
-7.721719
-7.976791
-8.162658
-8.317665
-8.447421
-8.545848
-8.587463
-8.515452
-8.310177
-8.054402
-7.807511
-7.549865
-7.287309
-7.031534
-6.765004
-6.531673
-6.383444
-6.315642
-6.337384
-6.417575
-6.485609
-6.531666
-6.593153
-6.708180
-6.851497
-6.967693
-7.040870
-7.101422
-7.169456
-7.174365
-7.166415
-7.228370
-7.251982
-7.245668
-7.246836
-7.189788
-7.074759
-6.833011
-6.495407
-6.141437
-5.659112
-5.121610
-4.634142
-4.066949
-3.470531
-2.885802
-2.176694
-1.402123
-0.609315
0.186766
0.869923
1.556119
2.274579
2.909106
3.530307
4.043025
4.396762
4.714727
4.880257
4.846825
4.722212
4.580299
4.459894
4.238256
3.873299
3.525410
3.244855
2.921047
2.563104
2.259637
1.886264
1.372145
0.810565
0.191705
-0.457783
-1.063551
-1.631443
-2.185775
-2.745952
-3.244640
-3.628534
-3.992322
-4.338574
-4.584528
-4.817155
-5.038092
-5.112205
-5.119685
-5.123424
-5.040191
-4.856192
-4.592233
-4.305831
-3.978046
-3.553469
-3.087276
-2.541358
-1.892569
-1.230454
-0.557818
0.125105
0.755657
1.306952
1.854273
2.406971
2.861240
3.292831
3.768844
4.185004
4.580590
5.016857
5.418756
5.772024
6.089522
6.323087
6.446299
6.472252
6.384346
6.210635
6.040900
5.827210
5.530289
5.254176
4.950007
4.552552
4.138966
3.693584
3.231835
2.796740
2.330082
1.871606
1.416170
0.886153
0.334627
-0.228356
-0.814484
-1.409965
-2.016901
-2.562817
-3.076468
-3.622617
-4.119903
-4.598719
-5.144400
-5.677924
-6.128217
-6.531983
-6.922657
-7.289484
-7.619605
-7.920501
-8.218123
-8.482079
-8.661634
-8.803080
-8.933070
-9.021211
-9.089478
-9.143952
-9.179722
-9.190241
-9.125712
-8.989407
-8.777352
-8.432734
-7.997168
-7.479773
-6.823503
-6.153205
-5.538551
-4.892802
-4.274641
-3.729892
-3.207120
-2.688557
-2.144275
-1.628517
-1.167702
-0.700574
-0.298675
-0.004557
0.257297
0.543233
0.875460
1.182904
1.473749
1.795689
1.999328
2.119735
2.304670
2.412218
2.437703
2.473241
2.390478
2.260020
2.174686
2.030668
1.941124
1.942528
1.917280
1.987654
2.142663
2.281306
2.518611
2.771113
2.945527
3.153842
3.303941
3.312826
3.258586
3.141455
2.957458
2.678773
2.298386
1.847626
1.329299
0.887657
0.601256
0.335196
0.064928
-0.170271
-0.401028
-0.631784
-0.852020
-1.072724
-1.315404
-1.590348
-1.903636
-2.252927
-2.623963
-3.059759
-3.566163
-4.056669
-4.531276
-5.068775
-5.673841
-6.323562
-6.993858
-7.606405
-8.131045
-8.617576
-9.039579
-9.368998
-9.680181
-9.959568
-10.186817
-10.439317
-10.637108
-10.689010
-10.705141
-10.769902
-10.817829
-10.763587
-10.669599
-10.549660
-10.293183
-9.978491
-9.637847
-9.194332
-8.741466
-8.308472
-7.907275
-7.609416
-7.365330
-7.153275
-6.926490
-6.654817
-6.396470
-6.038525
-5.509908
-4.880758
-4.164402
-3.389363
-2.529689
-1.606189
-0.756335
0.029927
0.744412
1.330777
1.891424
2.444356
2.965257
3.596745
4.359393
5.125314
5.919992
6.792291
7.684696
8.569386
9.420176
10.217425
10.948978
11.566204
12.056946
12.410682
12.650092
12.854432
13.030716
13.154163
13.161178
13.028616
12.833630
12.548632
12.150711
11.689430
11.120602
10.420848
9.655865
8.893921
8.089659
7.151432
6.185149
5.242947
4.208863
3.174078
2.243098
1.346253
0.520249
-0.226031
-0.934903
-1.590236
-2.266376
-2.915630
-3.462247
-3.997407
-4.475522
-4.930022
-5.442972
-5.864274
-6.181769
-6.431697
-6.588340
-6.708277
-6.744982
-6.704768
-6.663384
-6.543679
-6.299126
-6.029790
-5.817034
-5.570376
-5.262932
-4.949408
-4.532547
-4.044844
-3.531191
-2.898066
-2.249278
-1.638130
-1.023009
-0.479663
0.061579
0.644905
1.105486
1.453144
1.827221
2.182828
2.511080
2.908069
3.314878
3.705788
4.144627
4.582764
5.009445
5.471430
5.949780
6.389086
6.783504
7.189377
7.555037
7.832789
8.073602
8.262511
8.432717
8.586557
8.630745
8.593573
8.449555
8.157543
7.836541
7.497536
7.097978
6.680417
6.256310
5.850907
5.457895
5.047114
4.629086
4.174819
3.686418
3.175572
2.616330
2.049139
1.485689
0.908678
0.332837
-0.284621
-0.957955
-1.647656
-2.326135
-2.901976
-3.331460
-3.736864
-4.146709
-4.508860
-4.976219
-5.579649
-6.130474
-6.699535
-7.338502
-7.920890
-8.531333
-9.194381
-9.757831
-10.188251
-10.497564
-10.740945
-10.968663
-11.128111
-11.238696
-11.334552
-11.356294
-11.304390
-11.207363
-11.066148
-10.896644
-10.703760
-10.470896
-10.143579
-9.728821
-9.323416
-8.885045
-8.367416
-7.839033
-7.204506
-6.416842
-5.634322
-4.809951
-3.907726
-3.210542
-2.677950
-2.085741
-1.602714
-1.098880
-0.352832
0.302503
0.821301
1.410003
1.980002
2.497631
3.016895
3.556267
4.022694
4.490991
5.173914
5.843277
6.410938
7.069312
7.734700
8.417623
9.055423
9.482338
9.914864
10.480655
10.934223
11.212443
11.509367
11.648945
11.568286
11.737790
11.992163
11.967148
11.976267
12.021625
11.904260
11.754397
11.596819
11.428486
11.317667
11.140684
10.804485
10.539593
10.360272
10.112214
9.982692
9.789109
9.309358
8.900916
8.552793
8.141311
7.816100
7.540454
7.314841
7.048313
6.713049
6.518999
6.343184
6.109622
5.950875
5.784412
5.581010
5.386726
5.212782
5.102431
5.025746
4.950932
4.861389
4.803643
4.851572
4.903944
4.886878
4.797569
4.611233
4.408065
4.163748
3.883426
3.747591
3.659217
3.517303
3.434540
3.395263
3.392927
3.398539
3.346170
3.239325
3.042703
2.850523
2.642678
2.264863
1.861330
1.522092
1.182386
0.824443
0.418806
0.009428
-0.408132
-0.828031
-1.225485
-1.711549
-2.237357
-2.731604
-3.283364
-3.824604
-4.201484
-4.439956
-4.685909
-4.901469
-5.004572
-5.119833
-5.185295
-5.114220
-5.038234
-4.876679
-4.659247
-4.606173
-4.594015
-4.554736
-4.599623
-4.587465
-4.399724
-4.112854
-3.736439
-3.289418
-2.897806
-2.528405
-2.048652
-1.541778
-1.045893
-0.478700
0.014614
0.377235
0.763235
1.077226
1.260992
1.470943
1.660787
1.833097
2.143114
2.533089
2.976136
3.569748
4.271375
5.002226
5.743365
6.528925
7.342541
8.069651
8.783669
9.571801
10.298444
10.932270
11.473979
11.937367
12.454527
12.894301
13.169949
13.485109
13.783436
13.908285
13.916703
13.903611
13.834642
13.651113
13.545204
13.480677
13.136996
12.665428
12.218877
11.635086
10.997756
10.370947
9.619290
8.718002
7.712909
6.641184
5.572731
4.526256
3.416655
2.321316
1.344279
0.274658
-0.940853
-2.125035
-3.286773
-4.488022
-5.741174
-6.962530
-8.086392
-9.153909
-10.086057
-10.895229
-11.638001
-12.183917
-12.537417
-12.777058
-12.936507
-13.019737
-12.967365
-12.873611
-12.702471
-12.334940
-11.931639
-11.463342
-10.862481
-10.287573
-9.673386
-8.922428
-8.078886
-7.232071
-6.474100
-5.728285
-4.971015
-4.190364
-3.304271
-2.421452
-1.579079
-0.705144
0.211109
1.192825
2.183425
3.191794
4.229855
5.182580
6.106314
7.018826
7.772356
8.365267
8.848995
9.238970
9.516722
9.640402
9.722466
9.821597
9.802427
9.689271
9.610482
9.529122
9.384636
9.177026
8.867479
8.452023
8.001497
7.488313
6.886754
6.284025
5.698598
5.122757
4.524938
3.846928
3.185282
2.586295
1.959252
1.246873
0.485396
-0.197992
-0.890498
-1.719542
-2.497384
-3.182175
-3.858550
-4.447717
-5.011168
-5.525520
-5.828988
-6.049458
-6.245145
-6.335156
-6.401553
-6.432880
-6.451817
-6.546504
-6.642827
-6.749671
-6.842020
-6.833836
-6.786374
-6.700101
-6.629961
-6.590448
-6.379094
-6.050140
-5.751346
-5.388257
-5.048783
-4.884656
-4.722633
-4.540036
-4.532086
-4.561076
-4.537928
-4.578374
-4.561072
-4.499816
-4.469655
-4.337091
-4.142804
-3.917656
-3.680117
-3.492376
-3.183529
-2.779994
-2.426725
-1.972455
-1.448748
-1.116755
-0.920832
-0.629519
-0.350364
-0.261520
-0.212889
-0.161218
-0.214523
-0.285362
-0.328146
-0.380749
-0.380748
-0.288631
-0.145312
0.026764
0.246535
0.514234
0.807183
1.095924
1.343049
1.597889
1.899722
2.138431
2.303493
2.555761
2.838423
2.945270
3.014241
3.186551
3.202450
3.029442
2.844743
2.581956
2.314493
2.041887
1.600011
1.206532
0.933224
0.604038
0.317872
0.152111
0.122653
0.168245
0.090859
-0.032584
-0.022997
0.045974
0.018621
-0.069520
-0.126565
-0.272219
-0.537578
-0.860685
-1.239669
-1.548280
-1.818081
-2.157319
-2.466398
-2.778750
-3.130614
-3.387088
-3.561967
-3.738016
-3.856316
-3.836909
-3.738713
-3.590719
-3.297302
-2.922056
-2.597077
-2.311375
-2.100021
-1.983121
-1.825073
-1.636865
-1.540540
-1.427380
-1.219767
-1.057043
-0.928453
-0.756377
-0.589679
-0.390950
-0.144059
0.028952
0.081324
0.079923
0.108447
0.127386
0.048130
-0.025281
-0.050998
-0.182858
-0.356569
-0.406132
-0.414080
-0.460605
-0.506895
-0.584515
-0.700243
-0.798905
-0.862262
-0.901305
-0.924684
-0.908784
-0.864362
-0.850567
-0.865295
-0.877217
-0.905505
-1.037132
-1.306933
-1.590060
-1.863836
-2.233234
-2.613621
-2.849989
-2.976238
-3.067652
-3.094303
-3.006394
-2.818420
-2.586960
-2.351758
-2.138534
-1.963185
-1.814489
-1.746686
-1.783157
-1.793443
-1.794845
-1.881583
-1.957799
-1.977437
-1.951952
-1.863342
-1.735453
-1.579042
-1.470325
-1.359270
-1.115652
-0.847953
-0.576981
-0.313957
-0.154740
0.030428
0.191983
0.202739
0.215366
0.262126
0.268908
0.218876
0.109928
-0.014919
-0.136258
-0.235387
-0.314643
-0.324695
-0.244969
-0.278635
-0.369815
-0.317209
-0.327729
-0.481800
-0.631429
-0.866160
-1.198619
-1.525466
-1.895566
-2.260522
-2.503904
-2.691876
-2.884056
-3.013345
-3.064779
-3.040229
-2.900651
-2.744239
-2.652823
-2.512544
-2.299319
-2.093343
-1.904200
-1.704068
-1.416730
-1.070943
-0.794827
-0.587915
-0.399941
-0.208927
-0.047138
0.022301
0.061580
0.154165
0.325072
0.528710
0.680680
0.871459
1.146874
1.391895
1.656320
1.930800
2.091420
2.250169
2.448197
2.534001
2.504077
2.431834
2.354683
2.271452
2.148476
2.003990
1.845243
1.648387
1.438906
1.283432
1.197863
1.083070
0.941156
0.882241
0.837353
0.731911
0.622729
0.513313
0.410444
0.337500
0.276480
0.248426
0.233698
0.150935
0.037778
-0.033295
-0.123306
-0.254231
-0.365985
-0.499248
-0.678102
-0.827965
-0.967073
-1.125353
-1.239912
-1.343483
-1.490307
-1.635026
-1.775771
-1.907163
-2.013306
-2.136750
-2.263934
-2.389482
-2.512225
-2.569971
-2.562723
-2.487672
-2.348796
-2.189111
-1.988979
-1.788614
-1.643425
-1.488650
-1.314937
-1.181905
-1.079033
-0.985279
-0.930803
-0.912566
-0.899472
-0.928695
-1.004445
-1.054476
-1.101000
-1.194518
-1.272839
-1.288035
-1.256237
-1.163185
-1.002097
-0.809681
-0.601132
-0.354709
-0.112727
0.067999
0.210617
0.312320
0.429453
0.660680
0.906402
1.128043
1.399249
1.653622
1.862871
2.042897
2.164472
2.261499
2.380503
2.515639
2.650542
2.823787
3.035608
3.209788
3.358017
3.482398
3.531731
3.533602
3.507652
3.448035
3.365739
3.275495
3.212371
3.175432
3.111139
2.959640
2.725610
2.472642
2.175020
1.817545
1.487892
1.162681
0.800063
0.458954
0.133509
-0.162945
-0.386454
-0.611599
-0.876724
-1.165229
-1.497453
-1.884621
-2.352214
-2.851837
-3.269164
-3.602324
-3.862773
-4.018013
-4.101712
-4.160160
-4.163198
-4.102643
-4.078327
-4.106382
-4.040216
-3.842188
-3.610728
-3.327598
-2.955625
-2.602123
-2.251659
-1.829888
-1.453006
-1.112829
-0.742493
-0.455623
-0.197509
0.132380
0.435148
0.723422
1.083237
1.449598
1.756341
2.058409
2.399988
2.739463
3.066079
3.408359
3.734040
3.997530
4.232264
4.483130
4.694250
4.827749
4.931790
5.035364
5.114622
5.145485
5.149928
5.123276
5.035136
4.911692
4.744996
4.535047
4.331177
4.157467
4.048051
3.976978
3.895618
3.852133
3.859148
3.865228
3.875516
3.937240
4.044086
4.130358
4.158649
4.163794
4.187409
4.204009
4.195594
4.188347
4.167541
4.156553
4.234643
4.405784
4.608020
4.787109
4.915465
4.996360
5.062059
5.097363
5.029797
4.853047
4.633513
4.434319
4.239567
4.038035
3.969300
4.042246
4.064925
4.039443
4.009985
3.894023
3.758889
3.635446
3.417080
3.169256
2.944111
