EVENT_NAME: 202302060117
EVENT_ID: 13194
EVENT_DATE_YYYYMMDD: 2023/02/06
EVENT_TIME_HHMMSS: 01:17:32.00000
EVENT_LATITUDE_DEGREE: 37.288
EVENT_LONGITUDE_DEGREE: 37.043
EVENT_DEPTH_KM: 8.6
HYPOCENTER_REFERENCE: AFAD
MAGNITUDE_W: 7.7
MAGNITUDE_W_REFERENCE: AFAD
MAGNITUDE_L: 
MAGNITUDE_L_REFERENCE: 
FOCAL_MECHANISM: 
NETWORK: TU
STATION_CODE: NAR
STATION_NAME: 
STATION_LATITUDE_DEGREE: 37.3919
STATION_LONGITUDE_DEGREE: 37.1574
STATION_ELEVATION_M: 650.0
LOCATION: Kahramanmaras_Pazarck_Turkiye
SENSOR_DEPTH_M: 
VS30_M/S: None
SITE_CLASSIFICATION_EC8: unknown
MORPHOLOGIC_CLASSIFICATION: 
EPICENTRAL_DISTANCE_KM: 15.35
EARTHQUAKE_BACKAZIMUTH_DEGREE: 
DATE_TIME_FIRST_SAMPLE_YYYYMMDD_HHMMSS: 2023/02/06 01:17:05.0327280
DATE_TIME_FIRST_SAMPLE_PRECISION: millisecond
SAMPLING_INTERVAL_S: 0.01
NDATA: 10501
DURATION_S: 
STREAM: HNE
UNITS: cm/s^2
INSTRUMENT: sensor = CMG-5T/GURALP | digitizer = 
INSTRUMENT_ANALOG/DIGITAL: 
INSTRUMENTAL_FREQUENCY_HZ: 
INSTRUMENTAL_DAMPING: 
FULL_SCALE_G: 
N_BIT_DIGITAL_CONVERTER: 
PGA_CM/S^2: 619.707
TIME_PGA_S: 
BASELINE_CORRECTION: BASELINE REMOVED
FILTER_TYPE: BUTTERWORTH
FILTER_ORDER: 
LOW_CUT_FREQUENCY_HZ: 
HIGH_CUT_FREQUENCY_HZ: 
LATE/NORMAL_TRIGGERED: 
DATABASE_VERSION: 
HEADER_FORMAT: DYNA 1.2
DATA_TYPE: Acceleration
PROCESSING: Manual Paolucci et al., 2011
DATA_TIMESTAMP_YYYYMMDD_HHMMSS: 
DATA_LICENSE: U (unknown license)
DATA_CITATION: Turkish Accelerometric Archive v 1.0 - Disaster And Emergency Management Presidency, Earthquake Department
DATA_CREATOR: AFAD
ORIGINAL_DATA_MEDIATOR_CITATION: : AFAD - Disaster And Emergency Management Presidency
ORIGINAL_DATA_MEDIATOR: AFAD PROCESS SERVICE
ORIGINAL_DATA_CREATOR_CITATION: AFAD PROCESS SERVICE
ORIGINAL_DATA_CREATOR: network: TK
USER1: GuestUser
USER2: 
USER3: 
USER4: 
USER5: 
[...]
0.003199
0.004699
0.004695
-0.001325
0.003483
-0.000431
0.001971
0.004373
0.001662
0.000455
-0.000752
0.006463
0.001044
0.004650
0.003443
-0.002277
0.004638
0.005536
0.001622
0.001618
0.001012
0.006121
-0.000500
-0.000204
0.006410
0.000691
0.001890
0.003991
0.004589
-0.002333
0.004280
0.003674
0.002166
0.003065
0.001557
0.002756
0.001248
0.004251
0.003044
-0.003878
0.004239
0.002130
0.000622
0.003325
0.000313
0.000309
0.004215
0.001504
0.003004
-0.002114
0.005703
-0.002423
0.003589
0.006292
-0.005744
0.004479
0.003573
-0.002146
0.001459
0.003861
0.002052
0.000544
0.001142
0.000837
0.002638
0.002934
0.002630
0.000821
-0.000086
0.001715
0.005922
-0.003707
0.004109
0.002902
-0.006427
0.008609
0.001085
-0.000423
0.000475
-0.003138
0.002873
-0.001643
0.001662
0.002260
-0.001053
0.007666
-0.005874
0.003447
0.002841
0.001934
0.004036
0.000723
0.001922
-0.000789
-0.000492
0.001609
0.007621
-0.004114
0.001898
0.001894
0.002191
0.003690
0.003686
0.002780
-0.001736
0.001569
0.006979
0.002764
0.001256
0.003357
-0.000858
0.002747
0.003345
0.000934
0.003638
0.002130
0.000020
0.003926
0.002719
0.000008
0.005117
-0.003610
0.008418
0.000292
0.002995
0.005698
0.003288
-0.002732
0.005987
0.000569
0.002369
0.003268
0.003865
-0.000350
0.002654
0.005958
-0.002468
0.005349
-0.000070
0.000227
0.002028
0.001723
-0.001891
0.005324
0.005020
-0.005211
0.008621
-0.002212
0.008312
-0.002821
0.003190
0.005593
-0.000427
0.001975
0.003776
0.003772
-0.001947
0.002260
0.003459
0.000447
0.000142
0.010665
-0.004679
0.003438
0.000426
0.003129
-0.000785
0.006129
0.003418
-0.005309
0.013938
-0.002309
0.000995
0.004601
0.003093
0.003389
0.002483
-0.003838
0.010897
-0.006854
0.007580
0.003666
-0.002053
0.008470
0.000345
0.009064
-0.002370
0.000032
0.005743
0.000325
0.003028
0.005129
-0.002695
-0.002399
0.008726
0.004211
-0.007825
0.011421
-0.004525
0.002089
0.006597
-0.002732
0.005686
-0.001236
0.004776
0.005072
-0.006061
0.003861
0.006865
-0.004269
0.005654
0.001138
-0.001273
0.002934
0.004735
-0.002488
0.003524
0.001113
0.004117
0.001707
0.000800
0.001698
0.003198
0.004097
0.002889
-0.005537
0.007092
0.003780
0.002572
-0.003447
0.005572
0.002560
-0.000452
0.003454
0.007361
-0.008886
0.003141
0.010356
-0.012809
0.007942
-0.000484
0.007031
-0.004403
0.002511
0.001003
-0.000204
0.003702
0.006706
-0.009541
0.006999
0.003385
-0.003236
0.007588
-0.004748
0.003068
0.000658
0.003060
-0.002960
0.004857
-0.002968
0.001841
-0.001171
0.006344
-0.005090
0.003930
0.004828
0.001516
-0.000293
0.000003
0.009625
-0.004216
0.001796
0.003897
0.001487
0.000280
-0.003635
0.006588
-0.003342
0.004174
-0.003952
0.008678
-0.003960
0.003857
0.004454
-0.001866
0.003243
0.000833
0.006243
0.002629
-0.003992
0.003223
0.002015
0.004418
0.002910
-0.003110
0.007413
-0.004923
0.006804
0.002589
-0.000423
-0.000728
0.006487
-0.001639
0.004975
0.001662
0.000455
0.003759
-0.002261
0.002548
0.003747
-0.000167
0.004942
-0.001379
0.005235
-0.003492
0.006129
0.006726
-0.008618
0.009425
-0.001106
-0.002013
0.005804
0.003995
-0.005334
0.006995
0.001276
-0.002037
0.006080
0.000662
0.003666
0.001556
-0.002960
0.005759
-0.003570
0.003645
0.001235
0.000328
0.005438
0.001524
0.000617
0.005426
-0.002700
0.005718
-0.000302
-0.004216
0.005405
0.003897
-0.009041
0.007198
-0.000025
0.001174
0.001471
0.002971
-0.003651
0.000255
0.005665
0.001150
-0.001562
0.002946
0.003844
0.001133
0.002332
0.004133
-0.001586
0.004727
0.005324
0.000507
-0.003407
0.005312
0.002901
-0.001013
-0.001919
0.001987
0.001682
0.001678
-0.000131
-0.000436
-0.000741
0.004970
0.002560
-0.003761
0.004657
0.000141
0.001040
0.001637
-0.001074
-0.000476
0.000422
0.004027
-0.004700
0.005523
-0.001098
0.000101
0.002804
0.000694
0.001292
0.001889
-0.000220
0.002483
0.001877
-0.004444
0.005178
0.000361
-0.002049
0.003361
0.000048
0.000946
0.001845
-0.003273
0.005747
0.000629
-0.002383
0.005734
-0.002090
0.001515
0.001210
-0.003306
0.005413
-0.003915
-0.002115
0.009913
-0.006635
0.006596
-0.002131
-0.000029
0.005080
0.000564
0.000259
0.002962
0.001454
-0.001858
-0.001261
0.003848
-0.000968
-0.000972
0.004137
0.004735
-0.000082
0.000816
0.004422
0.002312
0.002609
0.002003
0.000194
0.002897
0.004096
0.002889
-0.001025
-0.001932
0.006787
-0.001940
0.002568
0.004669
-0.001050
0.005263
0.000446
0.005556
0.001641
-0.001371
0.002836
0.005840
0.000422
0.001019
0.003722
-0.001696
0.001609
0.001003
0.005812
0.002800
-0.000212
0.001588
0.003690
-0.000826
0.007592
-0.002338
-0.000838
0.007881
-0.002952
0.007572
0.000048
0.000645
0.002747
0.003946
-0.001172
0.003637
0.000625
0.004832
-0.000286
0.002418
-0.000594
0.002710
0.003909
-0.000607
0.001194
-0.000314
0.002991
-0.002428
0.005088
-0.001233
0.000869
0.002670
0.000259
0.002661
-0.000952
0.002352
-0.000960
0.002645
-0.000968
0.003840
0.002934
-0.005793
0.005633
0.001718
-0.003098
0.002913
-0.000399
0.004108
0.000796
0.004401
0.002893
-0.001623
0.004389
0.002881
-0.002237
0.002572
0.002869
0.000157
0.000153
0.005263
-0.000757
0.002848
-0.003773
0.009157
-0.000773
-0.000777
0.002828
0.000418
0.005226
0.003117
-0.001099
0.001905
0.002202
0.001897
0.001292
-0.000517
0.001283
-0.003233
0.003080
0.003076
-0.004749
0.003970
-0.001448
-0.001151
0.005161
0.002149
-0.001464
0.004547
-0.003277
0.004840
0.000324
-0.002387
0.002421
-0.001493
0.000007
0.005417
-0.002708
-0.001810
-0.001212
0.000588
0.003592
-0.003330
0.000877
0.000572
0.000568
0.004173
0.000560
0.001759
-0.000050
0.002954
0.000243
0.000539
0.002340
-0.007590
0.004738
0.000523
0.000218
-0.006403
0.003519
0.002312
-0.008822
0.010124
-0.004318
0.002897
0.001088
0.001084
0.000478
0.000775
0.004080
0.001068
-0.001343
0.002263
-0.001952
0.001352
0.002552
0.000743
-0.001066
-0.001973
0.003738
0.000726
0.000422
0.001621
-0.001692
0.007628
-0.000798
0.002507
0.003405
0.000393
0.002194
0.001889
-0.002025
0.007897
-0.004440
0.005181
0.000665
-0.005655
0.004568
-0.000249
-0.001456
0.001547
0.000340
-0.000867
0.004242
0.000328
0.000324
0.000019
0.003625
-0.001192
-0.000895
0.007222
-0.006318
0.001198
0.002096
-0.001217
-0.002424
0.000279
0.003283
0.000271
0.001169
-0.000940
0.001462
-0.000347
0.002056
-0.000656
-0.002464
0.001141
0.003242
-0.003680
0.005340
0.000222
-0.003692
0.008336
0.001714
-0.006111
-0.000700
0.001401
-0.001310
0.000791
-0.003725
0.001084
0.002584
-0.006444
0.007689
-0.001639
-0.001643
-0.001046
0.001356
0.001954
-0.005871
0.007661
-0.006480
0.001637
0.004641
-0.006793
0.002226
-0.000786
-0.003196
0.005823
-0.004708
0.004311
-0.002912
-0.000509
0.001592
-0.005330
0.004592
-0.003534
0.002779
-0.002639
-0.000538
0.003970
-0.008367
0.005466
-0.003562
0.001848
0.000641
-0.002672
-0.000270
-0.001176
0.000324
-0.000883
0.001218
0.003620
-0.005407
-0.000599
-0.001806
0.006311
-0.002717
-0.000014
-0.000318
-0.004534
0.003885
-0.004241
0.003275
-0.005452
0.001161
0.001759
-0.005164
0.006563
-0.006375
-0.001867
0.008356
-0.001274
-0.006090
0.006238
-0.003692
0.005027
-0.005505
0.007425
-0.005212
-0.001908
0.003502
-0.004021
0.004096
-0.008842
0.003787
0.000173
-0.006749
-0.001339
0.002267
-0.004054
0.002860
-0.003761
0.000446
0.004051
-0.002270
-0.004680
0.003137
0.001629
-0.009505
0.005531
-0.003497
0.000108
-0.002603
0.002507
0.000096
-0.003517
0.000990
0.000686
-0.002928
-0.001127
-0.001733
-0.007151
0.007884
-0.011070
0.008478
-0.007769
-0.002058
0.003653
-0.011090
0.005449
-0.005082
-0.001778
-0.003887
0.005132
-0.006001
0.003620
-0.010521
0.008726
-0.002107
-0.000306
-0.004822
-0.000916
0.003291
-0.001225
0.001779
-0.005444
0.002974
-0.000940
0.007177
0.006270
0.012583
0.020700
0.011973
0.018887
0.006852
0.015871
0.011656
0.020375
0.015859
0.028188
0.015249
0.008628
-0.001001
-0.010631
-0.004017
0.000791
0.032069
0.042593
0.032061
0.011603
-0.018480
-0.035328
0.046784
0.056706
0.085878
0.078054
0.037744
0.107523
0.153841
0.151130
0.158645
0.185712
0.223006
0.255488
0.258792
0.304509
0.314731
0.423313
0.582126
0.494592
0.516546
0.483154
0.166417
0.052714
-0.160851
-0.196950
-0.066110
-0.124167
-0.014683
-0.032133
-0.319393
-0.802467
-0.826233
-0.408439
-0.085995
-0.273993
0.460534
1.308158
0.565501
0.193720
0.769429
0.617827
0.432536
-0.632569
-0.006326
2.673715
-0.088450
-1.893199
0.371150
0.052909
-1.118976
0.196077
0.455355
0.002360
-1.199905
-2.492106
-1.649595
-0.623602
-1.169240
-0.170318
-1.104578
-1.263701
0.403879
-0.541811
-2.493045
-2.096005
0.361151
2.076256
0.533195
-1.823505
0.693508
-2.213338
-2.614296
3.456861
1.819051
-4.650361
-2.390825
-0.313568
-0.393883
1.457480
3.526917
0.851980
-2.633287
-0.879981
-2.189628
-5.043535
-2.780991
0.829396
-1.658448
-1.278854
3.011321
-3.121808
-4.649829
5.492832
7.222375
-2.205916
-3.494508
3.404726
-1.314083
-4.511193
2.501440
3.519011
0.343859
-0.812986
-0.738394
-1.702734
-1.433229
-0.879177
2.743544
5.484044
2.850316
1.016992
-2.867725
0.909000
3.632957
-4.715495
-2.516417
5.774576
-1.836037
-10.459712
-5.996583
0.375966
0.274897
5.489402
9.601809
0.993173
-2.084823
-1.290138
-0.896106
-7.025023
-5.904882
1.711437
4.303949
12.779025
11.079854
-1.728122
-7.978859
-2.356482
7.046835
12.043568
9.460072
6.729188
-3.660130
-13.537802
-13.561869
-7.153225
-0.930770
1.745963
1.285147
-4.039756
-6.014151
-3.568425
-5.650503
-0.026622
10.279369
8.136230
10.717914
16.073188
11.960171
-2.428761
-7.393618
0.722916
0.403473
-12.492335
-7.516658
2.774293
-3.519156
0.017237
3.017922
-2.836674
-1.045469
4.524871
4.417485
3.663398
1.815336
2.724021
4.278503
6.385238
7.665700
1.563854
-6.968983
-5.840119
-9.539850
-9.809964
-3.428691
2.648481
0.233127
-9.840961
-4.812345
-6.471812
-10.291859
3.937045
13.617390
-5.191663
-5.194374
-7.500240
-16.211145
-11.686654
-5.422690
-5.737923
-8.454970
1.299370
7.103725
1.615493
4.413144
9.156610
9.066670
7.350955
17.120936
14.407198
-5.476882
-3.805692
-1.415312
-14.532200
-7.797800
-3.001995
-5.841765
-15.025814
-14.340316
-3.831593
8.391638
23.855890
15.200932
13.227139
12.249564
0.099117
-0.330717
-14.090395
-33.443880
-15.072486
-39.759893
-26.645118
-1.423515
-1.764315
11.351964
-0.210137
16.763483
-6.874165
-8.662671
30.450353
-7.065480
-23.229679
-40.901743
-64.077376
-67.406833
0.525256
29.978384
8.453491
10.901022
56.007603
111.441535
40.142084
-30.434566
-50.675684
9.365160
15.227869
-58.208099
-66.174246
-44.437002
2.181955
-31.863956
-9.356688
15.773475
-34.408658
-23.929713
56.709584
79.312803
68.632922
103.564954
24.730695
-45.232643
-87.205895
-62.453825
-0.352866
56.284229
15.676567
-35.240097
-22.113892
29.928022
-0.091804
-37.493938
-3.839064
4.307850
-56.279839
-53.800725
43.248814
30.323229
12.243292
25.647127
3.680072
-12.461268
-9.323723
12.110924
21.121108
62.702120
77.613218
41.680145
25.410067
-11.274681
38.035752
-70.152980
-179.055489
-38.663202
67.896440
52.819899
82.091651
138.747695
45.791610
-74.184511
-59.113694
-18.050644
15.843961
56.617050
62.821156
-23.725078
-112.563639
-39.484718
29.325079
-18.023003
-29.024731
-8.995979
7.173626
59.756362
28.708734
-71.281344
-81.641184
28.493957
46.122398
11.710425
30.376895
6.708567
-34.498270
-30.334427
-53.873716
-49.187099
43.329824
17.761100
5.274368
28.968857
72.596450
-1.445009
-33.616692
-3.743360
-42.297823
-41.954926
10.168503
-17.695255
-4.582586
-8.195990
-76.752830
-80.005285
-94.300972
-67.126033
-22.502823
-53.392837
-32.766113
48.169463
-35.505423
-105.154735
-53.998650
-2.355283
-55.374475
-45.608705
25.671186
32.344526
-25.080649
2.640226
-2.673548
-17.902890
-17.432458
-31.659565
-7.726850
84.272713
61.951326
-7.087682
-43.916809
-44.420337
-17.551303
-41.438606
-20.416343
74.369144
64.526664
44.634163
137.928630
102.555931
25.655456
24.873095
145.653522
141.018633
26.030225
-35.697462
-16.146667
-57.313498
-113.944886
-52.728252
80.571088
54.570428
-20.285873
19.271118
-21.739904
-101.430514
-91.360344
-21.356408
-66.257557
-198.086339
-187.954506
-36.283166
88.052007
4.806049
-130.894512
-6.446542
99.672441
26.609153
21.837404
110.846806
91.051460
-74.096819
-75.686201
-73.041954
-79.768542
-18.275481
11.451367
-106.692938
-212.753576
-72.662982
80.411848
195.079004
80.957775
39.918479
149.548893
-5.404985
-54.934402
-32.069494
-64.899308
-39.511668
-43.874642
2.849893
18.750592
17.439441
-8.610549
-62.559485
-7.734053
132.140875
-9.827264
-100.585772
62.187756
26.255887
-47.313030
0.495855
122.535694
53.269890
-226.999141
-187.256863
80.734182
135.465165
-51.540677
-64.611544
58.147184
-23.420060
21.001320
119.001057
20.492073
205.349058
219.951844
193.741233
191.145103
196.556927
176.288437
30.161866
29.346418
98.379101
203.223934
238.140325
379.839248
251.990830
145.433286
213.250775
73.628203
116.607592
252.153237
312.052107
227.690817
255.782566
365.899359
36.660386
176.404168
103.250945
136.038038
323.353987
232.397559
375.301148
426.299920
404.629143
406.455541
400.042377
511.576195
209.938084
214.697794
493.255618
372.268539
169.211297
413.702160
619.707444
498.002678
494.715632
254.770312
15.664198
-71.302843
-178.973011
-136.070625
-39.862699
-39.786302
70.736258
-40.884196
-62.919230
-112.919686
-166.818089
19.380724
25.985484
151.224232
84.755181
-160.314411
-268.518784
-391.293463
-516.086448
-377.766609
-229.539323
-158.066926
-160.217885
-149.533801
-83.060547
-230.161680
-228.337989
-126.154252
-186.620121
31.792782
2.351978
-173.090564
-174.823424
-130.331058
59.086818
97.383797
-9.955202
-105.117287
74.043322
151.063805
10.709710
-153.011016
-55.713926
100.915650
109.671063
227.449900
209.380191
242.745103
47.689498
-33.678022
120.933849
93.668966
-60.695062
-101.898890
-143.410428
-194.482300
-126.249420
-36.206802
101.130052
97.078998
134.212518
192.197456
257.284065
259.407042
168.497236
102.048639
68.037620
-79.985738
-185.508561
-209.906908
-236.620743
-228.108669
-226.699167
-312.942204
-230.642543
-67.863300
-38.206236
-47.219436
9.285011
-65.359534
-102.888000
-78.106754
-143.766678
-124.830700
-49.332218
-73.294118
-183.233152
-252.074239
-231.298324
-112.822555
-158.273249
-164.987505
-109.451304
-149.837884
-197.297259
-163.538010
-49.953701
-82.878865
-101.201840
-99.720450
-83.564981
-70.410201
-146.087962
-318.703372
-364.776402
-266.175685
-149.942312
-112.456566
-114.173183
-203.153416
-193.969375
-129.770099
-111.396599
-245.059603
-170.914079
-56.191577
-90.188459
-190.221250
-129.423015
-137.461953
-140.038832
-29.200442
-39.565396
-66.792680
-115.271435
51.526673
-18.988916
-65.912282
-28.023175
-44.945067
-55.506437
-70.116752
-106.996412
-92.427916
-141.914620
-96.540636
-85.648405
-128.721347
-196.468158
-52.417954
9.078115
30.825284
96.931875
101.214831
-3.656480
-53.926143
-58.903032
49.661079
133.016818
41.883825
10.659632
-24.550339
-188.966493
-192.879183
-66.574432
77.045641
147.409022
148.933727
155.984860
89.876457
48.139326
16.366491
22.363052
28.403829
97.540586
8.404543
-35.503997
-0.488946
9.167035
-50.077021
-112.508257
-211.307805
-161.349168
8.098305
38.375901
-24.378685
-64.954462
-41.955402
-142.652037
-278.684070
-259.791104
-243.860627
-167.908854
-152.347748
-45.327295
23.869620
18.373266
-27.729843
-83.959676
-77.415676
-86.681239
-74.069086
-122.056649
-144.418342
-147.943915
-226.632290
-137.226146
26.487353
-1.514769
-63.272534
90.095868
140.693685
154.911760
189.970125
60.142203
-39.970898
-125.656269
-166.737375
-262.207170
-168.632666
-121.706000
-72.764637
14.700505
77.311906
-71.888747
-67.402757
72.307337
71.576110
76.994551
86.341019
-37.063816
-25.584441
46.560524
-127.812707
-192.430692
-74.198564
-34.592243
-96.279022
-49.186920
-97.507459
-113.826566
-104.394674
-113.525182
-92.342597
-69.244877
-73.980230
-96.759120
-99.298701
30.873618
152.261944
155.677419
90.693372
123.713578
131.753411
141.305620
94.187943
84.040161
115.255020
215.594910
82.499799
-29.042450
-20.631441
-181.596021
-195.490454
-119.019516
26.639618
39.518272
-25.151148
-0.221312
-53.166508
-55.573741
31.814699
97.834060
29.488375
-41.265140
-56.809410
-122.662742
-125.867371
-92.485615
-47.208485
28.798934
140.631137
156.828415
171.324121
175.163711
92.004080
57.767167
130.016507
131.776730
100.709851
81.676408
56.225293
27.854402
5.064082
30.144615
-39.468301
-208.468206
-159.908848
-43.840007
54.474658
186.094984
299.424223
204.177014
82.097763
209.745245
279.953117
266.877437
235.092871
191.981427
75.855729
37.021530
35.801217
3.277609
8.932772
-10.368976
10.053210
118.437147
178.773668
184.968149
181.053654
51.344544
-3.492627
37.304224
92.585354
30.337601
-43.999536
-36.776350
-20.800754
-76.392308
-128.078997
-70.026080
-41.982457
-84.088057
-91.847260
-17.623530
-39.999059
-124.298386
-96.092336
-12.614778
17.471214
24.426997
80.551243
121.275303
124.690477
177.147784
243.504030
293.887986
238.586093
133.832993
127.815068
147.800205
95.973648
92.017945
108.284405
112.701514
82.225689
-15.760521
-114.192804
-100.190997
-73.854663
-68.909666
-22.249501
-87.546671
-68.805605
30.147940
81.058279
62.146656
121.646377
175.889177
91.696030
30.425245
-24.746706
-3.814981
107.424363
71.278030
-16.966468
-27.818703
-48.191567
-33.847762
-5.332800
24.874411
0.825582
-15.538342
10.415386
-43.384057
-40.696495
-14.767131
-40.692292
-0.278649
-9.585721
19.552479
63.873395
50.623256
46.243738
111.604969
157.926143
62.530644
-58.275058
-18.194390
92.968553
134.594684
164.192794
23.289455
-94.794091
-49.004113
-30.331326
-79.194792
-130.744320
-171.158273
-117.936356
8.131973
132.886750
104.301695
41.262562
82.583390
60.616936
30.232852
-33.196107
-99.006727
-84.374162
-87.263562
-119.614216
-181.093449
-189.668096
-177.356432
-176.577689
-143.971973
-97.839093
-101.345416
-70.067390
-4.384012
62.880021
11.382831
-9.813599
106.613183
132.111815
97.345510
37.310374
1.139076
19.863598
48.413452
51.507081
118.269696
91.950198
-68.812251
-86.120057
-22.263683
-78.864089
-90.160291
-64.180996
-88.252383
-86.542693
-34.180436
-22.057970
-5.358371
22.348667
88.480824
68.445748
-20.216550
-22.112438
-57.955273
-47.032962
-11.080046
-21.827305
17.993781
68.918257
-32.511706
-39.358310
5.718794
-16.697041
-34.759833
-46.327648
-15.775731
-15.499008
-18.868470
8.535070
12.944959
45.859888
-22.116425
-100.089521
-24.227383
68.043192
47.763573
-58.040189
-115.818793
-112.708921
17.436928
66.801503
70.452799
106.190649
93.121587
24.538578
-6.841725
47.800225
49.453367
-93.175910
-120.760233
-80.621212
-112.898473
-106.019391
-138.778519
-94.931349
-7.979958
5.659697
-13.334042
-42.280947
-87.170366
