EVENT_NAME: 202302060117
EVENT_ID: 13194
EVENT_DATE_YYYYMMDD: 2023/02/06
EVENT_TIME_HHMMSS: 01:17:32.00000
EVENT_LATITUDE_DEGREE: 37.288
EVENT_LONGITUDE_DEGREE: 37.043
EVENT_DEPTH_KM: 8.6
HYPOCENTER_REFERENCE: AFAD
MAGNITUDE_W: 7.7
MAGNITUDE_W_REFERENCE: AFAD
MAGNITUDE_L: 
MAGNITUDE_L_REFERENCE: 
FOCAL_MECHANISM: 
NETWORK: TK
STATION_CODE: 2414
STATION_NAME: 
STATION_LATITUDE_DEGREE: 39.79505
STATION_LONGITUDE_DEGREE: 39.41862
STATION_ELEVATION_M: 1301.0
LOCATION: Kahramanmaras_Pazarck_Turkiye
SENSOR_DEPTH_M: 
VS30_M/S: 372
SITE_CLASSIFICATION_EC8: B
MORPHOLOGIC_CLASSIFICATION: 
EPICENTRAL_DISTANCE_KM: 346.96
EARTHQUAKE_BACKAZIMUTH_DEGREE: 
DATE_TIME_FIRST_SAMPLE_YYYYMMDD_HHMMSS: 2023/02/06 01:17:58.9003790
DATE_TIME_FIRST_SAMPLE_PRECISION: millisecond
SAMPLING_INTERVAL_S: 0.01
NDATA: 18251
DURATION_S: 
STREAM: HNE
UNITS: cm/s^2
INSTRUMENT: sensor = ACEBOX/SARA | digitizer = 
INSTRUMENT_ANALOG/DIGITAL: 
INSTRUMENTAL_FREQUENCY_HZ: 
INSTRUMENTAL_DAMPING: 
FULL_SCALE_G: 
N_BIT_DIGITAL_CONVERTER: 
PGA_CM/S^2: 11.096
TIME_PGA_S: 
BASELINE_CORRECTION: BASELINE REMOVED
FILTER_TYPE: BUTTERWORTH
FILTER_ORDER: 
LOW_CUT_FREQUENCY_HZ: 
HIGH_CUT_FREQUENCY_HZ: 
LATE/NORMAL_TRIGGERED: 
DATABASE_VERSION: 
HEADER_FORMAT: DYNA 1.2
DATA_TYPE: Acceleration
PROCESSING: Automatic Paolucci et al., 2011
DATA_TIMESTAMP_YYYYMMDD_HHMMSS: 
DATA_LICENSE: U (unknown license)
DATA_CITATION: Turkish Accelerometric Archive v 1.0 - Disaster And Emergency Management Presidency, Earthquake Department
DATA_CREATOR: AFAD
ORIGINAL_DATA_MEDIATOR_CITATION: : AFAD - Disaster And Emergency Management Presidency
ORIGINAL_DATA_MEDIATOR: AFAD PROCESS SERVICE
ORIGINAL_DATA_CREATOR_CITATION: AFAD PROCESS SERVICE
ORIGINAL_DATA_CREATOR: network: TK
USER1: GuestUser
USER2: 
USER3: 
USER4: 
USER5: 
[...]
3.378531
3.808952
4.192145
4.507071
4.716319
4.782017
4.679613
4.419865
4.057246
3.649269
3.234981
2.828408
2.419263
2.000064
1.565435
1.135482
0.749717
0.418660
0.152132
-0.040517
-0.174950
-0.269638
-0.352168
-0.453169
-0.588771
-0.750091
-0.904163
-1.019659
-1.091434
-1.136323
-1.176770
-1.221893
-1.261404
-1.280575
-1.271223
-1.231010
-1.153389
-1.048882
-0.947881
-0.866753
-0.807135
-0.744477
-0.645347
-0.503899
-0.307042
-0.052202
0.215262
0.457944
0.677479
0.880649
1.077507
1.275767
1.455090
1.573158
1.605889
1.550246
1.428905
1.277405
1.118890
1.002693
0.962013
0.971365
1.011111
1.054129
1.075171
1.084991
1.092005
1.115619
1.163781
1.198851
1.205631
1.168458
1.056703
0.871536
0.604773
0.251506
-0.151561
-0.580812
-1.024559
-1.452408
-1.841447
-2.166658
-2.392039
-2.510574
-2.544474
-2.507768
-2.406300
-2.232588
-1.970268
-1.621442
-1.209023
-0.786318
-0.399851
-0.065520
0.186513
0.351341
0.444860
0.473617
0.473383
0.472916
0.470578
0.477358
0.484139
0.468708
0.425456
0.352979
0.276294
0.216442
0.166877
0.136717
0.141627
0.188621
0.272788
0.378464
0.486946
0.573452
0.623484
0.638915
0.616237
0.585843
0.583739
0.616237
0.686143
0.763296
0.814966
0.844658
0.856816
0.873649
0.909654
0.949868
0.995458
1.029827
1.034269
1.025385
0.994524
0.933269
0.856818
0.768910
0.695264
0.673521
0.721216
0.843024
1.016268
1.201670
1.352469
1.420271
1.395956
1.288877
1.117270
0.921582
0.719581
0.528569
0.356027
0.192603
0.060040
-0.040025
-0.114139
-0.151546
-0.178667
-0.233141
-0.345831
-0.539415
-0.792384
-1.071304
-1.337365
-1.562745
-1.740197
-1.849380
-1.889827
-1.873929
-1.811037
-1.722661
-1.589864
-1.389734
-1.136297
-0.820203
-0.440516
-0.017343
0.435756
0.884881
1.301040
1.691014
2.048257
2.343777
2.579912
2.766249
2.908164
3.028569
3.117646
3.158795
3.166043
3.128168
3.059665
2.997709
2.937390
2.884318
2.831246
2.753158
2.652859
2.523569
2.351495
2.121906
1.812826
1.426593
0.966948
0.437631
-0.121845
-0.654669
-1.140266
-1.585650
-1.981468
-2.309252
-2.548192
-2.676547
-2.691743
-2.604303
-2.428955
-2.183000
-1.883739
-1.544733
-1.192167
-0.864383
-0.576578
-0.326181
-0.100333
0.128789
0.369366
0.615555
0.860808
1.097645
1.323961
1.537652
1.746199
1.950538
2.141551
2.319237
2.476349
2.615692
2.734462
2.807406
2.839904
2.851361
2.854400
2.858609
2.858375
2.844815
2.798991
2.724410
2.653569
2.598627
2.566597
2.543218
2.499264
2.426319
2.302173
2.122617
1.897003
1.611537
1.270894
0.883726
0.451669
-0.004937
-0.463881
-0.899679
-1.286847
-1.614397
-1.888407
-2.127114
-2.334258
-2.510073
-2.652456
-2.745974
-2.792734
-2.812840
-2.822192
-2.827101
-2.796474
-2.706228
-2.572729
-2.404395
-2.218058
-2.055803
-1.930721
-1.846788
-1.795119
-1.748359
-1.691780
-1.600131
-1.457281
-1.275386
-1.053513
-0.812234
-0.591996
-0.399347
-0.240599
-0.125804
-0.038598
0.023359
0.046271
0.045102
0.040894
0.036452
0.027101
0.005124
-0.027140
-0.054728
-0.067587
-0.052390
0.006294
0.107060
0.253418
0.429701
0.594295
0.736677
0.850770
0.922313
0.976320
1.014663
1.025652
1.033835
1.041316
1.042485
1.051370
1.057683
1.044356
1.015132
0.973984
0.931433
0.918107
0.947565
1.002508
1.070543
1.144189
1.193988
1.199132
1.167336
1.107484
1.035474
0.970713
0.908289
0.863166
0.869011
0.948269
1.116369
1.370040
1.688238
2.034492
2.371861
2.654990
2.842963
2.962668
3.039587
3.048705
2.983008
2.835249
2.603088
2.311076
1.963419
1.569004
1.153780
0.730841
0.297381
-0.167174
-0.666565
-1.168995
-1.643603
-2.040825
-2.309692
-2.435708
-2.418407
-2.295663
-2.123121
-1.937485
-1.785751
-1.692933
-1.650148
-1.635652
-1.604791
-1.550082
-1.468019
-1.342236
-1.199152
-1.042508
-0.858977
-0.674978
-0.505007
-0.348129
-0.223047
-0.152908
-0.146362
-0.199433
-0.302538
-0.426684
-0.543115
-0.627282
-0.660013
-0.658376
-0.646452
-0.627515
-0.606707
-0.577482
-0.536567
-0.502900
-0.487002
-0.502666
-0.566025
-0.667259
-0.803562
-0.978209
-1.188159
-1.432477
-1.688251
-1.926022
-2.126386
-2.267366
-2.336803
-2.326282
-2.244687
-2.122878
-1.971611
-1.804212
-1.631202
-1.440424
-1.236085
-1.025433
-0.829511
-0.679880
-0.577945
-0.523236
-0.490738
-0.440939
-0.368228
-0.264421
-0.140041
-0.022909
0.089782
0.186107
0.264195
0.346959
0.429022
0.509449
0.595253
0.673107
0.729686
0.744883
0.714724
0.641779
0.522309
0.377355
0.220477
0.061963
-0.083459
-0.235661
-0.398617
-0.569055
-0.781343
-1.054418
-1.377760
-1.729858
-2.100427
-2.472398
-2.808131
-3.100377
-3.333706
-3.480297
-3.561892
-3.592052
-3.590883
-3.594156
-3.592285
-3.589246
-3.594623
-3.591349
-3.580595
-3.570074
-3.563527
-3.561189
-3.553941
-3.529392
-3.466267
-3.359889
-3.225455
-3.060394
-2.842261
-2.550949
-2.202124
-1.829451
-1.449530
-1.067038
-0.688520
-0.326367
-0.009572
0.230070
0.389988
0.480234
0.491456
0.439086
0.355620
0.249944
0.130708
0.007029
-0.120858
-0.250147
-0.361669
-0.417312
-0.414506
-0.383879
-0.343899
-0.324961
-0.348107
-0.399542
-0.471318
-0.567642
-0.679397
-0.797465
-0.907583
-0.991282
-1.076150
-1.200063
-1.352498
-1.523872
-1.716754
-1.928341
-2.150682
-2.352682
-2.509794
-2.633239
-2.728862
-2.768373
-2.753176
-2.713898
-2.640953
-2.547668
-2.444797
-2.287217
-2.068850
-1.804893
-1.493475
-1.147455
-0.780393
-0.409590
-0.025461
0.376670
0.768281
1.170178
1.599898
2.041074
2.493472
2.927166
3.314568
3.649600
3.923610
4.146419
4.322001
4.444745
4.512079
4.509975
4.423002
4.234328
3.954005
3.623182
3.284176
2.963874
2.668822
2.404164
2.181589
2.016762
1.913658
1.867600
1.885135
1.952703
2.052300
2.175512
2.285397
2.359277
2.392476
2.376578
2.321870
2.237001
2.125480
1.996424
1.868070
1.747898
1.622116
1.494229
1.371251
1.250145
1.129038
0.988760
0.833518
0.681317
0.522568
0.355871
0.172574
-0.033635
-0.232596
-0.405606
-0.564354
-0.731051
-0.925570
-1.137858
-1.356926
-1.573656
-1.752043
-1.874319
-1.943055
-1.942120
-1.884605
-1.803010
-1.692424
-1.535078
-1.320919
-1.051351
-0.746245
-0.428749
-0.137437
0.086073
0.218870
0.257915
0.209986
0.085139
-0.092313
-0.298054
-0.510108
-0.679611
-0.785054
-0.841632
-0.841632
-0.778974
-0.671427
-0.531850
-0.364451
-0.171101
0.036979
0.251605
0.459217
0.628253
0.755439
0.838671
0.841944
0.755907
0.588041
0.331098
-0.000193
-0.382451
-0.791830
-1.203781
-1.620174
-2.041476
-2.451322
-2.844336
-3.203682
-3.502708
-3.736272
-3.898527
-4.002332
-4.072705
-4.111515
-4.136999
-4.160846
-4.150091
-4.094915
-4.022438
-3.947155
-3.870002
-3.794251
-3.722008
-3.644854
-3.559518
-3.463661
-3.324785
-3.113199
-2.822822
-2.448980
-2.012013
-1.558446
-1.129428
-0.757223
-0.457260
-0.233283
-0.096745
-0.042737
-0.052790
-0.100953
-0.154726
-0.212240
-0.304356
-0.433412
-0.562234
-0.682873
-0.802577
-0.896096
-0.947765
-0.952440
-0.893757
-0.773819
-0.607355
-0.432475
-0.309965
-0.270920
-0.323992
-0.460296
-0.646866
-0.873883
-1.144620
-1.443880
-1.735191
-1.960572
-2.094304
-2.139660
-2.085185
-1.958233
-1.812110
-1.659674
-1.495080
-1.319031
-1.162386
-1.057411
-1.000598
-1.008313
-1.086401
-1.214288
-1.413016
-1.700586
-2.060634
-2.461830
-2.857648
-3.220034
-3.535426
-3.792603
-3.991798
-4.118282
-4.168549
-4.172757
-4.152182
-4.118048
-4.082978
-4.042531
-3.981977
-3.883782
-3.727606
-3.525605
-3.321266
-3.144748
-3.000028
-2.888506
-2.798728
-2.711054
-2.623847
-2.541317
-2.451305
-2.361059
-2.315000
-2.339783
-2.443589
-2.625249
-2.841044
-3.052162
-3.264918
-3.474867
-3.648111
-3.741863
-3.726900
-3.601117
-3.368489
-3.034392
-2.614960
-2.124921
-1.594201
-1.055999
-0.539775
-0.086909
0.264956
0.498286
0.607469
0.580349
0.429550
0.210248
-0.052540
-0.336369
-0.594949
-0.797885
-0.900054
-0.885325
-0.788299
-0.635161
-0.457709
-0.261085
-0.023547
0.243683
0.511382
0.762246
0.998615
1.204825
1.356793
1.473926
1.564639
1.635714
1.716374
1.800775
1.886345
1.973318
2.033871
2.078527
2.130898
2.167136
2.191452
2.227223
2.251538
2.249901
2.237978
2.219508
2.215534
2.253175
2.334537
2.458917
2.619536
2.795352
2.948255
3.055335
3.115187
3.102328
2.995717
2.817330
2.588676
2.315134
1.995533
1.637356
1.278243
0.960279
0.702869
0.511856
0.367370
0.239249
0.111830
-0.041307
-0.224838
-0.399718
-0.557765
-0.724228
-0.894199
-1.046634
-1.173352
-1.254246
-1.256584
-1.193458
-1.094094
-0.944230
-0.738722
-0.497443
-0.228109
0.060865
0.362697
0.653541
0.906510
1.130021
1.307707
1.440738
1.583354
1.751922
1.949013
2.171355
2.392761
2.599905
2.767538
2.890750
2.984269
3.032665
3.025417
2.970475
2.886308
2.804480
2.721482
2.620481
2.512233
2.401648
2.287087
2.184684
2.099348
2.026871
1.957434
1.868591
1.761746
1.643211
1.532391
1.452900
1.376682
1.288775
1.196659
1.075318
0.930598
0.781669
0.633442
0.505087
0.381175
0.233181
0.076537
-0.060701
-0.157259
-0.205889
-0.226463
-0.246102
-0.271819
-0.302213
-0.350843
-0.456285
-0.658286
-0.957078
-1.325543
-1.742169
-2.179604
-2.599270
-2.975449
-3.303233
-3.596181
-3.874867
-4.142097
-4.383375
-4.579765
-4.703210
-4.729629
-4.650371
-4.462866
-4.185816
-3.849381
-3.469694
-3.051898
-2.608385
-2.145466
-1.654258
-1.149022
-0.650332
-0.156552
0.309172
0.710135
1.042829
1.305851
1.485641
1.555313
1.510424
1.385342
1.201578
0.968015
0.701486
0.391237
0.029787
-0.356680
-0.743848
-1.114183
-1.453890
-1.759229
-2.017809
-2.215835
-2.351437
-2.431629
-2.471842
-2.488442
-2.484701
-2.448228
-2.382999
-2.299299
-2.202039
-2.105948
-2.017807
-1.953044
-1.921248
-1.904181
-1.894828
-1.874254
-1.798504
-1.663369
-1.478669
-1.250015
-1.000787
-0.752494
-0.514488
-0.292848
-0.079625
0.148328
0.401998
0.664319
0.905831
1.108066
1.269854
1.396339
1.467647
1.454555
1.359165
1.201119
0.993974
0.748488
0.461852
0.126821
-0.242579
-0.639800
-1.061102
-1.491055
-1.929893
-2.360313
-2.754729
-3.101918
-3.379201
-3.587982
-3.734807
-3.808686
-3.818973
-3.763563
-3.641053
-3.470381
-3.248741
-2.971457
-2.635490
-2.248556
-1.845957
-1.432135
-1.010365
-0.629977
-0.291905
0.027228
0.307785
0.555844
0.790109
0.990941
1.154132
1.288799
1.392138
1.455497
1.470694
1.465317
1.466486
1.483319
1.513713
1.524468
1.503660
1.448251
1.318493
1.120467
0.895788
0.650067
0.369745
0.037987
-0.346610
-0.776329
-1.232000
-1.682059
-2.121364
-2.572593
-3.037148
-3.491416
-3.932357
-4.360673
-4.729372
-5.000810
-5.162130
-5.180834
-5.066974
-4.851179
-4.532279
-4.136460
-3.667931
-3.089750
-2.419219
-1.688602
-0.927592
-0.188793
0.510963
1.168167
1.760610
2.286420
2.760327
3.188878
3.565759
3.894244
4.170359
4.347110
4.421458
4.422861
4.342435
4.204728
4.031952
3.785530
3.454707
3.048368
2.554822
1.997683
1.425581
0.860494
0.314343
-0.193698
-0.661526
-1.098961
-1.512548
-1.916316
-2.314005
-2.696730
-3.077352
-3.458909
-3.829010
-4.215944
-4.626492
-4.999866
-5.336300
-5.678579
-6.011506
-6.319184
-6.599039
-6.826289
-6.991116
-7.089077
-7.108950
-7.058449
-6.945993
-6.781399
-6.569111
-6.307024
-6.002854
-5.659172
-5.288837
-4.918268
-4.561259
-4.221785
-3.883013
-3.555463
-3.273036
-3.017963
-2.788140
-2.609285
-2.467603
-2.351640
-2.252042
-2.158757
-2.073888
-2.007723
-1.970549
-1.949741
-1.945065
-1.957690
-1.966340
-1.985979
-2.022451
-2.055183
-2.084173
-2.097967
-2.074353
-1.999304
-1.869313
-1.692796
-1.445906
-1.115316
-0.745916
-0.365060
0.032395
0.426811
0.801121
1.168417
1.535478
1.901839
2.257211
2.577046
2.849420
3.084620
3.307429
3.510833
3.664438
3.778531
3.847501
3.868076
3.888884
3.900808
3.865271
3.795833
3.698340
3.573258
3.420355
3.228642
3.023602
2.819263
2.594350
2.340213
2.052175
1.717377
1.325299
0.894177
0.451366
-0.000798
-0.439869
-0.841767
-1.207659
-1.523987
-1.766200
-1.909284
-1.939210
-1.849666
-1.630364
-1.298839
-0.903721
-0.481016
-0.020902
0.467266
0.934861
1.377206
1.785650
2.127462
2.389315
2.531464
2.541517
2.444491
2.246231
1.985781
1.693535
1.391235
1.116991
0.845787
0.557047
0.274854
-0.011314
-0.294909
-0.534785
-0.730941
-0.895300
-1.021784
-1.114134
-1.167907
-1.163933
-1.107587
-1.003080
-0.851813
-0.645370
-0.367151
-0.054564
0.269246
0.604979
0.914293
1.178718
1.400592
1.573835
1.697281
1.757834
1.754094
1.700788
1.594411
1.433324
1.225479
0.985837
0.717204
0.414904
0.110968
-0.169355
-0.440326
-0.674123
-0.814401
-0.871681
-0.889917
-0.879396
-0.845729
-0.819076
-0.800606
-0.792890
-0.851106
-1.005879
-1.256042
-1.589671
-1.973332
-2.401648
-2.860358
-3.309483
-3.735227
-4.138527
-4.501614
-4.791523
-5.021813
-5.233399
-5.420671
-5.587836
-5.744012
-5.848285
-5.892707
-5.885225
-5.776509
-5.558142
-5.283430
-4.960556
-4.597235
-4.222224
-3.811910
-3.358109
-2.897061
-2.453079
-2.061001
-1.731113
-1.436996
-1.169532
-0.913991
-0.657749
-0.423016
-0.231303
-0.088920
0.020264
0.105600
0.164283
0.205432
0.253828
0.330747
0.424500
0.529475
0.668819
0.834114
1.026295
1.246766
1.453443
1.652872
1.893684
2.162317
2.433989
2.762942
3.156891
3.537981
3.931695
4.385262
4.849818
5.331674
5.848600
6.360149
6.851357
7.325030
7.804782
8.296926
8.764521
9.218555
9.665342
10.075890
10.445991
10.742446
10.956137
11.095714
11.082388
10.892545
10.582296
10.163799
9.710466
9.307166
8.911348
8.512022
8.166470
7.854818
7.542933
7.243439
6.949088
6.654504
6.369505
6.076090
5.770985
5.480141
5.192571
4.883257
4.617430
4.452837
4.306713
4.153810
4.102843
4.147732
4.198934
4.270476
4.386673
4.518535
4.681024
4.890741
5.059309
5.152126
5.250555
5.348283
5.396913
5.377741
5.243542
5.080118
5.016525
5.002497
4.997588
4.990808
4.891912
4.705809
4.479494
4.212030
3.927966
3.600183
3.223536
2.905805
2.662890
2.404544
2.098504
1.769084
1.445041
1.066991
0.565028
0.049038
-0.396579
-0.842898
-1.273085
-1.598998
-1.850798
-2.145382
-2.474802
-2.656463
-2.601520
-2.367021
-1.938471
-1.325454
-0.699812
-0.211643
0.157055
0.493022
0.831093
1.148356
1.371165
1.441304
1.422601
1.392675
1.304767
1.044317
0.607584
0.171786
-0.178208
-0.492899
-0.641126
-0.577066
-0.564441
-0.616811
-0.552283
-0.455023
-0.348879
-0.199716
-0.157632
-0.132850
0.042499
0.242863
0.432005
0.663698
0.934202
1.272741
1.582522
1.796681
1.984654
2.037726
1.899084
1.750857
1.527815
1.057649
0.583040
0.282377
-0.040497
-0.417845
-0.749603
-1.117600
-1.605535
-2.160569
-2.656687
-3.019306
-3.279055
-3.508877
-3.684693
-3.653130
-3.426113
-3.142283
-2.800237
-2.450242
-2.063775
-1.440705
-0.771811
-0.393761
-0.092864
0.396474
0.861731
1.189281
1.515195
1.773775
1.996817
2.356164
2.646307
2.763907
2.975961
3.230333
3.335542
3.474184
3.757078
4.014022
4.246884
4.502191
4.568356
4.371499
4.080889
3.770172
3.440986
3.038153
2.564247
2.256336
2.140139
1.970870
1.799263
1.752270
1.700601
1.564297
1.317407
0.971154
0.671893
0.395779
0.140940
0.117794
0.115223
-0.217237
-0.515796
-0.351670
-0.072048
-0.076490
-0.050305
0.273972
0.532085
0.580013
0.710706
0.957362
1.206590
1.411163
1.444596
1.339622
1.261300
1.234413
1.244934
1.215476
0.993836
0.717722
0.696914
0.872964
0.977705
1.045273
1.292163
1.631169
1.777526
1.803946
1.892087
1.929027
1.983970
2.249564
2.562151
2.751293
2.875440
3.021797
3.224266
3.402185
3.439593
3.381612
3.347244
3.268454
3.099886
3.029981
3.043308
2.977845
2.965454
3.114850
3.376703
3.735349
4.019880
4.067107
4.036012
4.100307
4.212062
4.291320
4.289683
4.143326
3.957458
3.971953
4.038352
3.816478
3.479109
3.352157
3.378810
3.394241
3.399853
3.511374
3.758030
4.189620
4.835602
5.389234
5.746009
6.137386
6.525256
6.810722
6.949832
6.879459
6.672315
6.355286
5.989627
5.651557
5.256907
4.806848
4.340422
3.905793
3.586426
3.285062
2.918702
2.532703
2.088488
1.579745
1.088537
0.581899
0.048841
-0.406596
-0.882607
-1.467333
-2.045514
-2.511705
-2.754621
-2.905887
-3.011797
-2.803717
-2.516848
-2.394338
-2.189765
-1.909676
-1.550563
-0.965135
-0.386252
-0.079744
0.068484
0.190760
0.271888
0.422453
0.659758
0.898465
1.250564
1.580919
1.648487
1.657138
1.841370
2.133149
2.296574
2.231344
2.169622
2.271792
2.363207
2.327670
2.276468
2.200017
1.958504
1.605237
1.278155
0.942422
0.480439
-0.034617
-0.464803
-0.869272
-1.240075
-1.573469
-2.028205
-2.491123
-2.822414
-3.214258
-3.709207
-4.183815
-4.619145
-4.891285
-4.938278
-5.007014
-5.230992
-5.510146
-5.742072
-5.776674
-5.701158
-5.812211
-6.030811
-6.226266
-6.513135
-6.853777
-7.210318
-7.614787
-7.948415
-8.164210
-8.339090
-8.474225
-8.424426
-8.065079
-7.656168
-7.491574
-7.395483
-7.191378
-6.893053
-6.385946
-5.650888
-4.864393
-4.139855
-3.558635
-3.204432
-3.026746
-2.852801
-2.609184
-2.388713
-2.265735
-2.218274
-2.241888
-2.364631
-2.444356
-2.311325
-2.188581
-2.325119
-2.546057
-2.654071
-2.706909
-2.851396
-3.183621
-3.655892
-4.117407
-4.455478
-4.737905
-5.148920
-5.670288
-6.095331
-6.344559
-6.481798
-6.638208
-6.910348
-7.180851
-7.299620
-7.224805
-6.936065
-6.593084
-6.388277
-6.212228
-5.869948
-5.398613
-5.000222
-4.729952
-4.432796
-4.011259
-3.451315
-2.812814
-2.323009
-2.003875
-1.559427
-1.017017
-0.670763
-0.456838
-0.244550
-0.185633
-0.326379
-0.483958
-0.628211
-0.889830
-1.110066
-1.094168
-1.104455
-1.365606
-1.758152
-2.135267
-2.443879
-2.792938
-3.307993
-3.933868
-4.531220
-5.019389
-5.475059
-5.904545
-6.128288
-6.215728
-6.370970
-6.480153
-6.473372
-6.504701
-6.565722
-6.573437
-6.486932
-6.269033
-5.974682
-5.575122
-5.126933
-4.862975
-4.687627
-4.395614
-3.938307
-3.300507
-2.706896
-2.291672
-1.914089
-1.542351
-1.132738
-0.714475
-0.468520
-0.326137
-0.092574
0.272852
0.667502
0.991779
1.319563
1.586793
1.599418
1.491638
1.399990
1.256906
1.095352
0.881194
0.553177
0.205520
-0.155463
-0.562036
-0.957621
-1.284703
-1.460752
-1.431293
-1.245424
-1.019108
-0.757723
-0.298077
0.373856
1.236335
2.412101
3.711313
4.873987
5.977510
6.948938
7.712052
8.453424
9.086547
9.498498
9.875847
10.162015
10.175341
9.962352
9.612592
9.262597
8.946971
8.562375
8.099223
7.514730
6.974892
6.678905
6.230482
5.508048
4.922153
4.491966
4.203460
4.042842
3.722773
3.281131
2.828032
2.361372
2.103494
2.063515
1.974205
1.703701
1.309987
0.956252
0.616311
0.184254
-0.146335
-0.306720
-0.489082
-0.613696
-0.596161
-0.510591
-0.255284
0.085359
0.365682
0.785582
1.306716
1.739475
2.188132
2.711838
3.246533
3.689813
3.902568
3.931793
4.016896
4.169332
4.105271
3.906544
3.871708
3.958447
4.198557
4.616353
4.963542
5.158997
5.327331
5.574689
5.804278
5.906214
6.005812
5.973548
5.668442
5.396536
5.296238
5.228904
5.030177
4.659842
4.381156
4.160919
3.765100
3.444331
3.328134
3.197441
3.022327
2.765618
2.398323
2.150965
2.166630
2.294050
2.313689
2.020975
1.458926
1.156393
1.248743
1.259965
1.325663
1.603881
1.564136
1.272357
1.158732
1.121325
1.126702
1.191464
