EVENT_NAME: 202302060117
EVENT_ID: 13194
EVENT_DATE_YYYYMMDD: 2023/02/06
EVENT_TIME_HHMMSS: 01:17:32.00000
EVENT_LATITUDE_DEGREE: 37.288
EVENT_LONGITUDE_DEGREE: 37.043
EVENT_DEPTH_KM: 8.6
HYPOCENTER_REFERENCE: AFAD
MAGNITUDE_W: 7.7
MAGNITUDE_W_REFERENCE: AFAD
MAGNITUDE_L: 
MAGNITUDE_L_REFERENCE: 
FOCAL_MECHANISM: 
NETWORK: TK
STATION_CODE: 5507
STATION_NAME: 
STATION_LATITUDE_DEGREE: 41.2056
STATION_LONGITUDE_DEGREE: 36.96417
STATION_ELEVATION_M: 4.0
LOCATION: Kahramanmaras_Pazarck_Turkiye
SENSOR_DEPTH_M: 
VS30_M/S: None
SITE_CLASSIFICATION_EC8: unknown
MORPHOLOGIC_CLASSIFICATION: 
EPICENTRAL_DISTANCE_KM: 435.67
EARTHQUAKE_BACKAZIMUTH_DEGREE: 
DATE_TIME_FIRST_SAMPLE_YYYYMMDD_HHMMSS: 2023/02/06 01:18:07.3695130
DATE_TIME_FIRST_SAMPLE_PRECISION: millisecond
SAMPLING_INTERVAL_S: 0.01
NDATA: 21001
DURATION_S: 
STREAM: HNE
UNITS: cm/s^2
INSTRUMENT: sensor = ACEBOX/SARA | digitizer = 
INSTRUMENT_ANALOG/DIGITAL: 
INSTRUMENTAL_FREQUENCY_HZ: 
INSTRUMENTAL_DAMPING: 
FULL_SCALE_G: 
N_BIT_DIGITAL_CONVERTER: 
PGA_CM/S^2: 10.853
TIME_PGA_S: 
BASELINE_CORRECTION: BASELINE REMOVED
FILTER_TYPE: BUTTERWORTH
FILTER_ORDER: 
LOW_CUT_FREQUENCY_HZ: 
HIGH_CUT_FREQUENCY_HZ: 
LATE/NORMAL_TRIGGERED: 
DATABASE_VERSION: 
HEADER_FORMAT: DYNA 1.2
DATA_TYPE: Acceleration
PROCESSING: Automatic Paolucci et al., 2011
DATA_TIMESTAMP_YYYYMMDD_HHMMSS: 
DATA_LICENSE: U (unknown license)
DATA_CITATION: Turkish Accelerometric Archive v 1.0 - Disaster And Emergency Management Presidency, Earthquake Department
DATA_CREATOR: AFAD
ORIGINAL_DATA_MEDIATOR_CITATION: : AFAD - Disaster And Emergency Management Presidency
ORIGINAL_DATA_MEDIATOR: AFAD PROCESS SERVICE
ORIGINAL_DATA_CREATOR_CITATION: AFAD PROCESS SERVICE
ORIGINAL_DATA_CREATOR: network: TK
USER1: GuestUser
USER2: 
USER3: 
USER4: 
USER5: 
[...]
-1.462793
-1.579457
-1.684198
-1.793849
-1.898356
-1.996083
-2.102928
-2.199019
-2.290433
-2.389096
-2.485654
-2.594369
-2.708696
-2.817177
-2.938752
-3.061028
-3.179796
-3.308151
-3.427621
-3.536570
-3.653001
-3.762652
-3.862483
-3.972368
-4.081784
-4.182083
-4.284486
-4.377304
-4.457262
-4.534415
-4.596371
-4.651781
-4.705554
-4.741091
-4.771017
-4.798604
-4.813100
-4.823153
-4.827127
-4.827361
-4.828997
-4.824788
-4.820814
-4.818709
-4.812396
-4.806318
-4.802109
-4.801407
-4.806784
-4.814032
-4.818708
-4.826189
-4.836008
-4.843022
-4.850036
-4.857751
-4.859153
-4.850269
-4.836475
-4.821979
-4.801171
-4.777791
-4.758152
-4.732200
-4.698767
-4.653643
-4.588881
-4.512196
-4.423820
-4.317442
-4.201011
-4.075228
-3.938924
-3.797242
-3.649248
-3.492604
-3.331751
-3.169028
-3.001629
-2.828619
-2.652102
-2.472078
-2.287144
-2.102911
-1.921017
-1.734213
-1.550448
-1.379542
-1.213312
-1.051991
-0.896516
-0.744080
-0.595385
-0.446923
-0.305242
-0.169405
-0.032166
0.099930
0.230856
0.362718
0.484761
0.600724
0.714817
0.827742
0.943004
1.058734
1.178906
1.298844
1.409898
1.514873
1.609094
1.688585
1.759426
1.820915
1.872350
1.913499
1.943893
1.966571
1.976157
1.970546
1.953479
1.917007
1.855051
1.771820
1.665208
1.537088
1.392601
1.230580
1.050322
0.854634
0.653803
0.452503
0.244892
0.028863
-0.194647
-0.427509
-0.671125
-0.920820
-1.169581
-1.416704
-1.661490
-1.894819
-2.125109
-2.358205
-2.577506
-2.790963
-3.004420
-3.198705
-3.379664
-3.556414
-3.726385
-3.887705
-4.037802
-4.173872
-4.293576
-4.401824
-4.505864
-4.598915
-4.678639
-4.750181
-4.809098
-4.850012
-4.879704
-4.905422
-4.920151
-4.922956
-4.919916
-4.901914
-4.868480
-4.826397
-4.770051
-4.696171
-4.603821
-4.494638
-4.374699
-4.238629
-4.091570
-3.939134
-3.767059
-3.578385
-3.374747
-3.146795
-2.905516
-2.650209
-2.377835
-2.097979
-1.796848
-1.475377
-1.151100
-0.815133
-0.471450
-0.126599
0.225733
0.576430
0.928996
1.288109
1.643013
1.993943
2.337625
2.671254
3.000909
3.317704
3.617199
3.905939
4.177845
4.428242
4.663442
4.879238
5.075160
5.254483
5.413933
5.550938
5.662226
5.752939
5.828456
5.879892
5.912857
5.935770
5.937406
5.919170
5.886205
5.833601
5.760657
5.669943
5.559591
5.422586
5.273190
5.115611
4.935821
4.747848
4.555667
4.345717
4.135534
3.929325
3.714232
3.492826
3.269082
3.042767
2.804060
2.552260
2.297655
2.029958
1.755012
1.482873
1.206291
0.932514
0.660842
0.394547
0.147891
-0.096660
-0.337471
-0.565190
-0.792908
-1.009404
-1.211638
-1.408028
-1.588052
-1.755918
-1.916303
-2.052139
-2.158750
-2.243384
-2.300431
-2.332227
-2.343683
-2.328486
-2.294351
-2.245019
-2.170438
-2.080426
-1.973346
-1.839848
-1.693257
-1.525390
-1.331338
-1.129337
-0.916348
-0.686992
-0.449220
-0.207240
0.039650
0.293087
0.544653
0.795050
1.052227
1.304962
1.555125
1.809731
2.059193
2.303277
2.540348
2.764794
2.983862
3.201294
3.414751
3.620025
3.822961
4.030340
4.233276
4.426159
4.617405
4.804911
4.979324
5.151165
5.321136
5.478248
5.632788
5.783821
5.923866
6.059001
6.183849
6.298410
6.414607
6.527999
6.631104
6.723454
6.803881
6.870513
6.919845
6.954914
6.976658
6.984607
6.983204
6.967774
6.941121
6.909091
6.864904
6.808793
6.744966
6.676464
6.606325
6.522860
6.429107
6.334186
6.227808
6.113715
5.996817
5.874541
5.749226
5.614793
5.472644
5.326755
5.173618
5.013467
4.843029
4.668617
4.495139
4.314180
4.130416
3.945015
3.749327
3.544053
3.328258
3.101475
2.867912
2.626400
2.376704
2.123268
1.867261
1.606811
1.345426
1.092223
0.844399
0.603354
0.379142
0.161711
-0.049641
-0.248603
-0.441953
-0.623613
-0.797090
-0.964255
-1.110378
-1.242240
-1.359606
-1.456865
-1.543136
-1.607898
-1.647643
-1.678504
-1.700948
-1.714976
-1.725497
-1.726899
-1.722924
-1.719885
-1.704922
-1.680840
-1.662136
-1.636418
-1.605557
-1.582411
-1.559966
-1.537287
-1.517181
-1.500113
-1.486786
-1.473460
-1.468550
-1.467848
-1.460834
-1.454288
-1.437922
-1.410333
-1.385784
-1.349546
-1.299045
-1.240829
-1.166014
-1.082081
-0.986223
-0.874936
-0.763882
-0.647451
-0.520732
-0.395183
-0.268698
-0.140811
-0.022042
0.091350
0.200767
0.300599
0.396924
0.489508
0.570402
0.651997
0.732658
0.799991
0.862415
0.918059
0.959208
0.989602
1.016021
1.044311
1.066522
1.085226
1.104631
1.116555
1.132220
1.154197
1.172667
1.200022
1.230415
1.258705
1.292840
1.324403
1.360408
1.410908
1.465149
1.526404
1.593972
1.657097
1.719054
1.781244
1.843668
1.905391
1.962672
2.011302
2.051515
2.086585
2.109731
2.123058
2.130306
2.119551
2.099211
2.074429
2.031176
1.979274
1.923630
1.852790
1.771195
1.682586
1.585560
1.484560
1.373039
1.252166
1.133865
1.010420
0.882299
0.763063
0.644294
0.527396
0.417277
0.306458
0.202652
0.100015
-0.010103
-0.115545
-0.222157
-0.328301
-0.428132
-0.534977
-0.643459
-0.746563
-0.851304
-0.951836
-1.052135
-1.155006
-1.248992
-1.341108
-1.442342
-1.548252
-1.651123
-1.758903
-1.876736
-1.992934
-2.112170
-2.241693
-2.370282
-2.500506
-2.635641
-2.774283
-2.919237
-3.061619
-3.200962
-3.342175
-3.481284
-3.624368
-3.766049
-3.895573
-4.020654
-4.142930
-4.259360
-4.372051
-4.479831
-4.578493
-4.665232
-4.739111
-4.797093
-4.835435
-4.853438
-4.858113
-4.856476
-4.838941
-4.804807
-4.760619
-4.704040
-4.642785
-4.577555
-4.492920
-4.396362
-4.297231
-4.182203
-4.053614
-3.924558
-3.788020
-3.633714
-3.464210
-3.286992
-3.111176
-2.923203
-2.717461
-2.509615
-2.296626
-2.073583
-1.848436
-1.621886
-1.394869
-1.166448
-0.933352
-0.702828
-0.475109
-0.241312
-0.008216
0.219269
0.453534
0.690371
0.918324
1.144873
1.370254
1.589790
1.804884
2.012028
2.211925
2.403873
2.582728
2.754336
2.922202
3.080483
3.226373
3.360573
3.488460
3.607229
3.715244
3.820921
3.924961
4.023156
4.119480
4.214402
4.305350
4.396297
4.487478
4.572814
4.658618
4.740681
4.811288
4.884233
4.956243
5.019836
5.077818
5.123876
5.167830
5.206641
5.229553
5.247088
5.249894
5.233996
5.211084
5.172742
5.118267
5.052336
4.968170
4.864130
4.746764
4.619345
4.477196
4.323825
4.166013
3.996510
3.818356
3.633423
3.434696
3.226850
3.015264
2.803911
2.593026
2.379803
2.169386
1.962476
1.757202
1.557539
1.365124
1.182529
1.005778
0.832769
0.670747
0.523689
0.388087
0.254121
0.132547
0.034119
-0.055426
-0.134683
-0.196171
-0.245970
-0.290859
-0.326629
-0.340657
-0.337150
-0.327564
-0.311899
-0.288052
-0.253917
-0.212067
-0.159696
-0.090258
-0.014040
0.070361
0.168556
0.270024
0.374298
0.482780
0.596873
0.722890
0.851947
0.981237
1.121048
1.267171
1.407216
1.549365
1.698060
1.841612
1.984930
2.127780
2.258006
2.386828
2.511676
2.626938
2.744772
2.854424
2.954255
3.055490
3.144099
3.219850
3.290223
3.350309
3.403381
3.443127
3.468377
3.486380
3.495264
3.505785
3.521450
3.531036
3.542258
3.561430
3.577328
3.592058
3.615438
3.641857
3.664302
3.690254
3.720881
3.749171
3.787280
3.835910
3.883371
3.937612
4.004011
4.074618
4.151538
4.229860
4.307715
4.390713
4.474179
4.557177
4.643682
4.724109
4.802431
4.878883
4.944346
5.006069
5.057505
5.090938
5.118760
5.134191
5.131152
5.116189
5.086029
5.042076
4.984796
4.909513
4.823710
4.729022
4.623580
4.509019
4.386042
4.257688
4.129567
3.995134
3.845270
3.693068
3.545308
3.385625
3.222435
3.067661
2.907277
2.748295
2.593287
2.437111
2.286078
2.133175
1.979337
1.824329
1.658333
1.496078
1.344344
1.194948
1.057709
0.931693
0.808482
0.690648
0.577958
0.468775
0.366138
0.263969
0.165540
0.075763
-0.018925
-0.115717
-0.204326
-0.297143
-0.390662
-0.471556
-0.552215
-0.635681
-0.711665
-0.786480
-0.866672
-0.940318
-1.007184
-1.074517
-1.136473
-1.193753
-1.246123
-1.296623
-1.344552
-1.386167
-1.431524
-1.472438
-1.507274
-1.547487
-1.573672
-1.584894
-1.597051
-1.599389
-1.587465
-1.566189
-1.535094
-1.496751
-1.459109
-1.416558
-1.361615
-1.302932
-1.243080
-1.176681
-1.102100
-1.019101
-0.934466
-0.845857
-0.750000
-0.656481
-0.563195
-0.467572
-0.374053
-0.283339
-0.198705
-0.121551
-0.047671
0.022702
0.088867
0.154564
0.216754
0.270996
0.321964
0.371529
0.417120
0.457567
0.495208
0.528408
0.555528
0.579376
0.591534
0.589897
0.585923
0.571428
0.543372
0.506900
0.462011
0.404264
0.330851
0.254400
0.169766
0.067129
-0.035274
-0.140249
-0.253173
-0.371006
-0.501231
-0.635664
-0.777345
-0.929313
-1.076372
-1.232314
-1.396907
-1.556357
-1.721184
-1.889985
-2.053175
-2.211690
-2.369970
-2.525211
-2.675777
-2.826576
-2.970594
-3.111106
-3.253021
-3.386987
-3.522121
-3.657724
-3.790286
-3.933136
-4.073882
-4.207848
-4.343216
-4.469232
-4.587300
-4.697886
-4.800523
-4.901757
-5.003458
-5.108667
-5.210836
-5.307862
-5.403952
-5.489755
-5.577195
-5.671182
-5.756284
-5.836710
-5.915031
-5.976052
-6.021175
-6.059284
-6.089443
-6.108848
-6.120772
-6.120070
-6.107679
-6.085234
-6.044553
-6.003404
-5.957580
-5.889077
-5.819405
-5.749967
-5.664865
-5.570177
-5.460759
-5.337314
-5.209427
-5.073357
-4.931909
-4.782045
-4.615347
-4.439298
-4.263482
-4.080185
-3.884730
-3.688574
-3.492885
-3.287611
-3.072985
-2.854384
-2.639992
-2.434016
-2.230846
-2.025338
-1.815388
-1.608945
-1.406944
-1.200501
-1.002006
-0.816137
-0.629801
-0.454920
-0.293366
-0.137657
-0.000885
0.123028
0.243901
0.354020
0.450344
0.531940
0.610964
0.686480
0.751944
0.824889
0.894794
0.943658
0.982469
1.011927
1.033203
1.049335
1.054947
1.053310
1.049804
1.041855
1.030399
1.017774
0.997200
0.961897
0.920047
0.874925
0.817645
0.743064
0.658897
0.569119
0.470223
0.368989
0.274769
0.188498
0.105266
0.025074
-0.054183
-0.142324
-0.239818
-0.343156
-0.453976
-0.562457
-0.663224
-0.750664
-0.815425
-0.864055
-0.891876
-0.896318
-0.895851
-0.879718
-0.846987
-0.810982
-0.760949
-0.705772
-0.651531
-0.583496
-0.505875
-0.416798
-0.309719
-0.182299
-0.038981
0.101531
0.237602
0.368762
0.490103
0.609574
0.730681
0.855061
0.985988
1.125098
1.271455
1.421553
1.579834
1.741622
1.894526
2.038545
2.176719
2.305074
2.418700
2.525078
2.629819
2.737366
2.862448
2.995713
3.131549
3.283517
3.432680
3.568049
3.704821
3.835046
3.952413
4.064635
4.167740
4.255181
4.333035
4.413462
4.500201
4.591382
4.682096
4.770004
4.849729
4.908412
4.950730
4.976447
4.973642
4.953068
4.920337
4.868668
4.798529
4.712492
4.619674
4.513998
4.392658
4.267343
4.124025
3.958497
3.780344
3.570394
3.337532
3.102566
2.853338
2.598266
2.343427
2.073157
1.798680
1.519526
1.227046
0.937137
0.643021
0.336746
0.022991
-0.301987
-0.628134
-0.952645
-1.280662
-1.604471
-1.921967
-2.242737
-2.571222
-2.895966
-3.215099
-3.536336
-3.841909
-4.130649
-4.411205
-4.676097
-4.927195
-5.162863
-5.379125
-5.580892
-5.765358
-5.938133
-6.099220
-6.252590
-6.405026
-6.541330
-6.654487
-6.750110
-6.818379
-6.852980
-6.861864
-6.849005
-6.816040
-6.768345
-6.708960
-6.636249
-6.553952
-6.469317
-6.375331
-6.273629
-6.170056
-6.045910
-5.894643
-5.725841
-5.533425
-5.319501
-5.091314
-4.851204
-4.608990
-4.369114
-4.133446
-3.902454
-3.680580
-3.472267
-3.260914
-3.046521
-2.838208
-2.628024
-2.418541
-2.208357
-2.000511
-1.804121
-1.614745
-1.443372
-1.293741
-1.156736
-1.038902
-0.938603
-0.856072
-0.796687
-0.752266
-0.718365
-0.703401
-0.709714
-0.737302
-0.789906
-0.857239
-0.936964
-1.035392
-1.136392
-1.236691
-1.348446
-1.464877
-1.589958
-1.726963
-1.868878
-2.024353
-2.191752
-2.359852
-2.538706
-2.727147
-2.912314
-3.099819
-3.288026
-3.470855
-3.650878
-3.824823
-3.993157
-4.154477
-4.306679
-4.457946
-4.603835
-4.742944
-4.885092
-5.022331
-5.151153
-5.283015
-5.411135
-5.522890
-5.622722
-5.711097
-5.782872
-5.842958
-5.892055
-5.929462
-5.959622
-5.972714
-5.968506
-5.966168
-5.957751
-5.936943
-5.916368
-5.888312
-5.848333
-5.805314
-5.755047
-5.694026
-5.619678
-5.527796
-5.421885
-5.297739
-5.153018
-4.998945
-4.843236
-4.680981
-4.513815
-4.347118
-4.175276
-3.998759
-3.818501
-3.625151
-3.428527
-3.233306
-3.029435
-2.820887
-2.612808
-2.408702
-2.205532
-2.002596
-1.811583
-1.621038
-1.434936
-1.264497
-1.078394
-0.883407
-0.701045
-0.508630
-0.315279
-0.139697
0.030507
0.196036
0.358993
0.527327
0.688648
0.840148
0.988610
1.132863
1.277584
1.425110
1.562583
1.696783
1.827710
1.939465
2.036959
2.117853
2.172328
2.209735
2.234752
2.252521
2.263743
2.265614
2.261172
2.242468
2.208802
2.162276
2.095644
2.008204
1.908139
1.803398
1.688838
1.562821
1.434467
1.296293
1.152040
1.014568
0.874757
0.734479
0.606125
0.485953
0.372795
0.265015
0.164716
0.072367
-0.010397
-0.079835
-0.136414
-0.175458
-0.195096
-0.201876
-0.191355
-0.170079
-0.135243
-0.074456
0.006906
0.106036
0.223870
0.353628
0.496011
0.654525
0.830575
1.018314
1.218679
1.432370
1.652139
1.880793
2.114825
2.346518
2.580315
2.811541
3.041598
3.278902
3.519714
3.763331
4.010688
4.258747
4.512885
4.767958
5.017888
5.272727
5.532944
5.785445
6.035842
6.286005
6.536169
6.790073
7.041639
7.288529
7.537991
7.789089
8.030602
8.260659
8.486040
8.700899
8.899160
9.090406
9.281653
9.467989
9.637492
9.796007
9.949846
10.090125
10.219882
10.338184
10.441055
10.539718
10.624119
10.690985
10.751305
10.794558
10.824951
10.849267
10.853241
10.843188
10.816536
10.763464
10.696364
10.606586
10.486882
10.354319
10.210534
10.053423
9.873867
9.678179
9.479451
9.257110
9.025885
8.796998
8.540756
8.273526
8.000217
7.705165
7.403567
7.089811
6.769276
6.453883
6.131477
5.813981
5.499056
5.183897
4.879727
4.570881
4.263672
3.971426
3.681050
3.394882
3.118768
2.846862
2.582437
2.336950
2.112038
1.896710
1.698918
1.520297
1.349158
1.190176
1.043118
0.904476
0.782668
0.667640
0.548404
0.438052
0.341961
0.246572
0.157028
0.083382
0.019088
-0.030009
-0.059935
-0.080977
-0.098044
-0.111136
-0.114877
-0.108564
-0.097341
-0.083781
-0.070220
-0.051283
-0.024396
0.012077
0.058369
0.103492
0.146511
0.190699
0.235822
0.283283
0.324665
0.359268
0.392467
0.418185
0.437357
0.451385
0.458399
0.462140
0.459101
0.450684
0.443904
0.430812
0.408835
0.386625
0.363713
0.337761
0.318356
0.303627
0.285391
0.271831
0.262714
0.254531
0.255700
0.261545
0.266455
0.276742
0.287030
0.291005
0.290303
0.288433
0.287966
0.278614
0.265989
0.258976
0.239571
0.221335
0.215022
0.200995
0.189305
0.180421
0.163588
0.143949
0.114959
0.078954
0.039442
-0.010824
-0.059453
-0.109252
-0.163493
-0.210486
-0.265428
-0.321071
-0.364791
-0.417395
-0.474442
-0.530787
-0.599990
-0.669428
-0.739333
-0.814382
-0.881248
-0.946944
-1.013109
-1.068285
-1.119486
-1.172792
-1.225162
-1.277766
-1.329903
-1.381572
-1.437449
-1.490989
-1.545463
-1.614667
-1.684806
-1.748866
-1.818304
-1.887040
-1.957413
-2.029422
-2.095119
-2.170635
-2.253399
-2.334994
-2.428513
-2.526941
-2.630513
-2.747178
-2.862206
-2.981208
-3.109797
-3.232774
-3.359725
-3.495561
-3.624851
-3.756011
-3.893016
-4.026047
-4.159311
-4.300524
-4.446881
-4.593939
-4.748947
-4.912604
-5.074860
-5.238517
-5.406150
-5.571912
-5.740947
-5.909047
-6.067328
-6.222101
-6.367990
-6.497981
-6.624933
-6.739260
-6.835350
-6.926297
-7.000878
-7.059094
-7.107256
-7.138117
-7.157522
-7.165470
-7.165236
-7.160093
-7.141622
-7.114969
-7.069612
-6.995265
-6.912266
-6.819683
-6.714240
-6.605056
-6.478338
-6.341800
-6.206899
-6.061009
-5.915587
-5.770399
-5.609546
-5.452434
-5.293919
-5.116467
-4.935274
-4.749872
-4.554184
-4.352650
-4.150883
-3.950519
-3.741737
-3.540204
-3.349659
-3.155139
-2.972076
-2.796961
-2.620444
-2.452344
-2.285412
-2.125027
-1.975163
-1.817817
-1.661874
-1.507568
-1.347650
-1.195916
-1.047454
-0.896655
-0.755207
-0.616331
-0.476053
-0.346996
-0.230799
-0.120446
-0.015939
0.074541
0.151694
0.223470
0.290336
0.352527
0.406300
0.453761
0.494209
0.522264
0.545644
0.560841
0.560842
0.559205
0.547749
0.517356
0.484858
0.444646
0.387365
0.321669
0.244048
0.153335
0.051166
-0.063161
-0.186138
-0.321039
-0.466460
-0.618662
-0.785827
-0.958135
-1.125066
-1.296440
-1.473190
-1.652512
-1.833705
-2.014196
-2.201234
-2.388739
-2.569932
-2.751124
-2.927875
-3.104625
-3.287688
-3.467245
-3.646567
-3.828227
-4.001471
-4.163258
-4.314992
-4.451296
-4.576143
-4.689769
-4.788899
-4.878910
-4.957934
-5.018019
-5.066415
-5.104056
-5.124864
-5.135151
-5.135852
-5.119953
-5.083948
-5.028304
-4.956529
-4.866283
-4.754293
-4.623834
-4.473502
-4.308441
-4.131223
-3.932027
-3.717869
-3.497398
-3.257989
-3.002449
-2.739894
-2.469390
-2.195146
-1.921603
-1.645488
-1.367035
-1.089752
-0.812468
-0.530508
-0.251588
0.016344
0.280769
0.544025
0.795357
1.039909
1.280019
1.508440
1.726105
1.933717
2.130107
2.321821
2.506054
2.683740
2.861426
3.033267
3.202069
3.367831
3.516994
3.655169
3.788901
3.908839
4.022465
4.130012
4.222362
4.311907
4.397477
4.472526
4.546406
4.611636
4.663773
4.703986
4.724327
4.731107
4.723392
4.691128
4.644135
4.587322
4.519755
4.446109
4.364514
4.278945
4.198285
4.117157
4.038836
3.963553
3.884530
3.811352
3.739342
3.664293
3.589479
3.503441
3.420677
3.347499
3.267307
3.193427
3.127730
3.060865
2.996570
2.928302
2.862371
2.796207
2.716950
2.635121
2.550954
2.456968
2.360176
2.255903
2.135030
2.007844
1.880191
1.742251
1.603376
1.471047
1.337782
1.214104
1.092997
0.964409
0.845640
0.732950
0.616519
0.508505
0.404933
0.300192
0.195919
0.096555
0.011687
-0.063128
-0.128123
-0.173714
-0.209251
-0.236838
-0.242449
-0.238708
-0.230058
-0.205275
-0.179089
-0.152436
-0.113859
-0.076686
-0.033433
0.022913
0.072010
0.119004
0.170439
0.216264
0.255776
0.287105
0.311888
0.325916
0.328020
0.328020
0.320773
0.309551
0.304174
0.294822
0.281262
0.265130
0.241984
0.205980
0.157350
0.112695
0.066170
0.011461
-0.036233
-0.076680
-0.117360
-0.157339
-0.197319
-0.238467
-0.282888
-0.328478
-0.381082
-0.440233
-0.497513
-0.560404
-0.628673
-0.703488
-0.787654
-0.871587
-0.963469
-1.069146
-1.184875
-1.314866
-1.455612
-1.609450
-1.771939
-1.929752
-2.091773
-2.256366
-2.414881
-2.573629
-2.730039
-2.880604
-3.025792
-3.165369
-3.304946
-3.444289
-3.575916
-3.701465
-3.816259
-3.915857
-4.007271
-4.085827
-4.148251
-4.198283
-4.232183
-4.254160
-4.266317
-4.267720
-4.270291
-4.271460
-4.270291
-4.270758
-4.262341
-4.248781
-4.229843
-4.200618
-4.162743
-4.117854
-4.068756
-4.011709
-3.952558
-3.891069
-3.816488
-3.745179
-3.674105
-3.592509
-3.512083
-3.418564
-3.313822
-3.205106
-3.074647
-2.930862
-2.786141
-2.635575
-2.477528
-2.316909
-2.153485
-1.978838
-1.797177
-1.612711
-1.420296
-1.224373
-1.021905
-0.806577
-0.580729
-0.347399
-0.102847
0.149421
0.398181
0.652787
0.912536
1.164803
1.418006
1.673313
1.929087
2.190005
2.441571
2.687994
2.933949
3.164005
3.384710
3.605415
3.809988
4.004274
4.196689
4.375310
4.544346
4.709641
4.862544
5.008200
5.144037
5.269119
5.390693
5.504319
5.612567
5.718010
5.817842
5.912764
