EVENT_NAME: 202302060117
EVENT_ID: 13194
EVENT_DATE_YYYYMMDD: 2023/02/06
EVENT_TIME_HHMMSS: 01:17:32.00000
EVENT_LATITUDE_DEGREE: 37.288
EVENT_LONGITUDE_DEGREE: 37.043
EVENT_DEPTH_KM: 8.6
HYPOCENTER_REFERENCE: AFAD
MAGNITUDE_W: 7.7
MAGNITUDE_W_REFERENCE: AFAD
MAGNITUDE_L: 
MAGNITUDE_L_REFERENCE: 
FOCAL_MECHANISM: 
NETWORK: TK
STATION_CODE: 2803
STATION_NAME: 
STATION_LATITUDE_DEGREE: 40.295188
STATION_LONGITUDE_DEGREE: 38.427003
STATION_ELEVATION_M: 1359.0
LOCATION: Kahramanmaras_Pazarck_Turkiye
SENSOR_DEPTH_M: 
VS30_M/S: 425
SITE_CLASSIFICATION_EC8: B
MORPHOLOGIC_CLASSIFICATION: 
EPICENTRAL_DISTANCE_KM: 355.23
EARTHQUAKE_BACKAZIMUTH_DEGREE: 
DATE_TIME_FIRST_SAMPLE_YYYYMMDD_HHMMSS: 2023/02/06 01:17:57.4236970
DATE_TIME_FIRST_SAMPLE_PRECISION: millisecond
SAMPLING_INTERVAL_S: 0.01
NDATA: 21001
DURATION_S: 
STREAM: HNN
UNITS: cm/s^2
INSTRUMENT: sensor = ACEBOX/SARA | digitizer = 
INSTRUMENT_ANALOG/DIGITAL: 
INSTRUMENTAL_FREQUENCY_HZ: 
INSTRUMENTAL_DAMPING: 
FULL_SCALE_G: 
N_BIT_DIGITAL_CONVERTER: 
PGA_CM/S^2: 8.049
TIME_PGA_S: 
BASELINE_CORRECTION: BASELINE REMOVED
FILTER_TYPE: BUTTERWORTH
FILTER_ORDER: 
LOW_CUT_FREQUENCY_HZ: 
HIGH_CUT_FREQUENCY_HZ: 
LATE/NORMAL_TRIGGERED: 
DATABASE_VERSION: 
HEADER_FORMAT: DYNA 1.2
DATA_TYPE: Acceleration
PROCESSING: Automatic Paolucci et al., 2011
DATA_TIMESTAMP_YYYYMMDD_HHMMSS: 
DATA_LICENSE: U (unknown license)
DATA_CITATION: Turkish Accelerometric Archive v 1.0 - Disaster And Emergency Management Presidency, Earthquake Department
DATA_CREATOR: AFAD
ORIGINAL_DATA_MEDIATOR_CITATION: : AFAD - Disaster And Emergency Management Presidency
ORIGINAL_DATA_MEDIATOR: AFAD PROCESS SERVICE
ORIGINAL_DATA_CREATOR_CITATION: AFAD PROCESS SERVICE
ORIGINAL_DATA_CREATOR: network: TK
USER1: GuestUser
USER2: 
USER3: 
USER4: 
USER5: 
[...]
1.369586
1.297577
1.204993
1.089030
0.945479
0.784861
0.613488
0.393251
0.127891
-0.160848
-0.454497
-0.730144
-0.989658
-1.194698
-1.359759
-1.501907
-1.590282
-1.631430
-1.633067
-1.604309
-1.559420
-1.530429
-1.509387
-1.498398
-1.542352
-1.578590
-1.591215
-1.610386
-1.623010
-1.637272
-1.628153
-1.594252
-1.521074
-1.395758
-1.263896
-1.159622
-1.098834
-1.039216
-0.965336
-0.885610
-0.788117
-0.696000
-0.624692
-0.578166
-0.535614
-0.515975
-0.522053
-0.506856
-0.518312
-0.545199
-0.549874
-0.584943
-0.635210
-0.673786
-0.744626
-0.832767
-0.880228
-0.930728
-0.980760
-0.984033
-0.986371
-0.984967
-0.982863
-0.986603
-1.004372
-1.064224
-1.115191
-1.191642
-1.305501
-1.416555
-1.563613
-1.700618
-1.792967
-1.852118
-1.875263
-1.885316
-1.861469
-1.791797
-1.719086
-1.654090
-1.563844
-1.459336
-1.337060
-1.165920
-0.973972
-0.791376
-0.645019
-0.526249
-0.457980
-0.455408
-0.448628
-0.490945
-0.570669
-0.605037
-0.644315
-0.655537
-0.632624
-0.629585
-0.609478
-0.557808
-0.479018
-0.349260
-0.182095
-0.030127
0.113425
0.248327
0.362888
0.477682
0.577047
0.668462
0.754265
0.841238
0.924003
0.967022
1.021965
1.079713
1.131850
1.225369
1.307666
1.349750
1.378741
1.418721
1.434619
1.416150
1.380846
1.263247
1.125540
1.018929
0.872572
0.721072
0.582898
0.425319
0.255115
0.085612
-0.075707
-0.221597
-0.346912
-0.462173
-0.577201
-0.694333
-0.804452
-0.904984
-0.981202
-1.038014
-1.085942
-1.080097
-1.071680
-1.071914
-1.043624
-1.051105
-1.045260
-1.029361
-1.042687
-1.020710
-1.011124
-1.028191
-1.073080
-1.184133
-1.319969
-1.473807
-1.629282
-1.759039
-1.874769
-1.950051
-1.985354
-2.024866
-2.036088
-2.008967
-1.996809
-1.949348
-1.890665
-1.888092
-1.884819
-1.914043
-1.967816
-1.978805
-1.980675
-1.952619
-1.866113
-1.742668
-1.574568
-1.377476
-1.202362
-1.037301
-0.890242
-0.792280
-0.688474
-0.605476
-0.568769
-0.515463
-0.437375
-0.338478
-0.231399
-0.086444
0.084462
0.235495
0.427911
0.646512
0.865346
1.070153
1.207626
1.304185
1.376896
1.441424
1.498003
1.522085
1.517643
1.481639
1.429035
1.349544
1.254389
1.169988
1.074132
0.962844
0.844543
0.742140
0.663819
0.594147
0.532659
0.492914
0.478886
0.458546
0.430958
0.401734
0.379757
0.362924
0.329024
0.328089
0.358483
0.391916
0.449665
0.546925
0.675981
0.790308
0.912351
1.025275
1.074373
1.114586
1.160177
1.204599
1.242474
1.268426
1.285727
1.263751
1.224005
1.170934
1.090040
0.980156
0.843151
0.708250
0.560958
0.412030
0.319446
0.314303
0.371584
0.466272
0.602108
0.708019
0.779327
0.865833
0.945558
1.010320
1.059418
1.105476
1.114361
1.069238
1.016868
0.942053
0.854613
0.770446
0.695865
0.652379
0.601646
0.535715
0.481942
0.417414
0.341431
0.304725
0.272227
0.229676
0.224767
0.198348
0.165149
0.137795
0.067656
-0.015107
-0.130837
-0.250307
-0.359256
-0.489013
-0.588377
-0.684000
-0.771907
-0.828018
-0.874076
-0.878752
-0.839707
-0.758579
-0.638641
-0.487140
-0.310155
-0.135041
0.035398
0.199056
0.376041
0.575471
0.774666
0.956093
1.121388
1.256757
1.331572
1.397036
1.462032
1.515338
1.581737
1.588985
1.546668
1.495934
1.400078
1.302818
1.238290
1.172360
1.117885
1.103858
1.082115
1.051956
1.045877
1.017354
0.985324
0.977375
0.972232
0.963582
0.959842
0.971532
0.965687
0.982988
1.046348
1.096381
1.160675
1.243206
1.289732
1.302124
1.311710
1.304930
1.291604
1.294176
1.271264
1.232921
1.148053
0.997254
0.818867
0.579693
0.347766
0.140155
-0.075874
-0.233453
-0.379342
-0.532245
-0.662470
-0.789889
-0.893928
-0.971549
-1.034907
-1.106449
-1.220542
-1.380225
-1.566327
-1.780719
-2.017322
-2.248547
-2.476031
-2.672888
-2.836312
-2.964901
-3.020310
-3.048599
-3.056081
-3.020309
-2.984070
-2.959755
-2.926088
-2.884238
-2.867638
-2.848466
-2.829996
-2.822982
-2.777859
-2.747231
-2.725254
-2.676156
-2.634540
-2.577025
-2.502210
-2.449138
-2.436980
-2.428329
-2.434407
-2.462463
-2.451708
-2.468307
-2.485608
-2.445161
-2.394894
-2.294127
-2.187047
-2.097035
-1.983643
-1.907893
-1.870485
-1.841260
-1.803852
-1.743298
-1.655390
-1.520956
-1.380678
-1.274767
-1.183586
-1.105731
-1.029279
-0.920563
-0.810444
-0.708508
-0.591843
-0.482893
-0.347992
-0.174748
0.029124
0.256609
0.452999
0.645882
0.834790
0.993539
1.141065
1.267550
1.397775
1.522156
1.632742
1.717845
1.760630
1.818378
1.880568
1.954215
2.070880
2.195494
2.329694
2.476519
2.611888
2.707979
2.774845
2.816462
2.827217
2.844986
2.860650
2.870002
2.864158
2.854339
2.909749
3.003502
3.119699
3.264420
3.386229
3.489801
3.568124
3.579346
3.538198
3.460812
3.347420
3.236601
3.112922
2.965630
2.820443
2.653512
2.515572
2.404284
2.288789
2.206960
2.111805
2.044705
2.025768
1.996778
2.019456
2.052422
2.050552
2.068087
2.057800
1.993974
1.924770
1.849020
1.782622
1.761113
1.742643
1.727915
1.713887
1.683026
1.694950
1.694717
1.659413
1.606809
1.465830
1.298665
1.141320
0.949373
0.759763
0.572492
0.368621
0.184389
0.028447
-0.121183
-0.233639
-0.334172
-0.459019
-0.565864
-0.669670
-0.784698
-0.902999
-1.007506
-1.107337
-1.233354
-1.349551
-1.499181
-1.673827
-1.821353
-1.985946
-2.121548
-2.222080
-2.299467
-2.335471
-2.367267
-2.372177
-2.370306
-2.386672
-2.386671
-2.392750
-2.433196
-2.506141
-2.604569
-2.717727
-2.809609
-2.879981
-2.933287
-2.970928
-3.005530
-3.024467
-3.055795
-3.063744
-3.032415
-2.987759
-2.860573
-2.704397
-2.552428
-2.380587
-2.240542
-2.097691
-1.955075
-1.837942
-1.746761
-1.683635
-1.613730
-1.549903
-1.469476
-1.367072
-1.253914
-1.089321
-0.890359
-0.650483
-0.363613
-0.089369
0.155651
0.411660
0.640547
0.799764
0.933028
1.012987
1.070034
1.180387
1.308274
1.424939
1.514250
1.614783
1.744775
1.886456
2.057830
2.212370
2.338154
2.463937
2.615672
2.800138
2.964030
3.097061
3.219805
3.364292
3.497089
3.542680
3.510182
3.443083
3.399831
3.341382
3.234303
3.124652
2.991856
2.874957
2.788219
2.671788
2.546473
2.430510
2.326237
2.251890
2.191103
2.110677
2.045681
2.020899
2.006404
2.009911
1.999157
1.965958
1.963854
1.978350
1.967829
1.928552
1.853035
1.688442
1.454879
1.185779
0.852384
0.497013
0.145382
-0.206950
-0.543384
-0.841008
-1.079013
-1.292703
-1.474597
-1.616980
-1.759362
-1.899640
-2.035943
-2.188379
-2.354842
-2.510317
-2.689172
-2.875508
-3.003628
-3.112811
-3.183885
-3.177573
-3.140165
-3.101120
-3.057400
-3.005263
-2.957568
-2.888831
-2.816588
-2.778244
-2.762814
-2.781283
-2.792271
-2.806065
-2.850954
-2.884387
-2.917118
-2.949615
-2.968786
-2.959200
-2.951952
-2.959434
-2.935118
-2.949614
-2.968317
-2.936286
-2.927636
-2.884850
-2.811438
-2.779641
-2.748780
-2.719555
-2.710202
-2.685887
-2.638660
-2.565949
-2.457700
-2.334956
-2.171298
-1.985429
-1.805872
-1.576049
-1.349733
-1.131834
-0.869980
-0.603919
-0.327570
-0.072965
0.166444
0.436246
0.694827
0.945691
1.196322
1.421236
1.630718
1.864048
2.077973
2.216381
2.355725
2.527098
2.697069
2.845063
2.971548
3.080030
3.157885
3.245092
3.326453
3.358718
3.365966
3.371811
3.404543
3.414597
3.375553
3.336509
3.334873
3.387477
3.436341
3.440550
3.403844
3.338615
3.259826
3.170282
3.081205
2.975763
2.877802
2.807897
2.751786
2.722094
2.698481
2.706196
2.756463
2.826135
2.902821
2.931344
2.923162
2.926435
2.963376
3.005927
3.022527
3.042166
3.058532
3.091966
3.130309
3.121658
3.090798
3.054092
3.030712
3.028842
3.010606
2.946546
2.864717
2.783590
2.679317
2.569199
2.404138
2.168471
1.918776
1.619048
1.291030
0.966053
0.667961
0.429956
0.191483
-0.047925
-0.285930
-0.542639
-0.774566
-0.977735
-1.194933
-1.443927
-1.678892
-1.886504
-2.089206
-2.279984
-2.466788
-2.644240
-2.770958
-2.832914
-2.880842
-2.906793
-2.892531
-2.891829
-2.860033
-2.770254
-2.682814
-2.619454
-2.561706
-2.485020
-2.423064
-2.380980
-2.319491
-2.250520
-2.167054
-2.045246
-1.917592
-1.815656
-1.680053
-1.515226
-1.380559
-1.259217
-1.140916
-0.978193
-0.754214
-0.528132
-0.323092
-0.149380
0.007264
0.146374
0.272157
0.372924
0.442596
0.525828
0.608827
0.713101
0.830467
0.896866
0.945964
0.974955
0.982437
0.975891
0.945965
0.928430
0.924924
0.927963
0.922586
0.923054
0.967476
1.043928
1.143994
1.252710
1.358386
1.457049
1.555946
1.641749
1.703005
1.757947
1.766364
1.750934
1.739011
1.692953
1.623749
1.520411
1.421749
1.353714
1.287082
1.241258
1.187485
1.114775
1.041596
0.968184
0.903891
0.833050
0.763847
0.718023
0.683187
0.624738
0.591072
0.633155
0.705867
0.795411
0.899685
1.018221
1.143770
1.248278
1.338758
1.399078
1.437421
1.457060
1.453553
1.452385
1.429005
1.375232
1.290130
1.181883
1.086026
0.993676
0.892910
0.799391
0.736266
0.675947
0.614225
0.577987
0.555542
0.570272
0.622175
0.697926
0.777183
0.837270
0.913722
0.985965
1.039505
1.076679
1.094214
1.119699
1.134662
1.133026
1.105672
1.029454
0.913023
0.791683
0.683201
0.541053
0.397735
0.270316
0.112036
-0.066117
-0.261572
-0.445102
-0.617878
-0.786913
-0.911994
-1.004812
-1.075886
-1.134335
-1.160753
-1.149297
-1.100901
-0.991249
-0.889781
-0.805848
-0.702743
-0.608522
-0.511496
-0.422185
-0.368178
-0.338719
-0.329834
-0.357656
-0.400908
-0.462396
-0.574619
-0.706246
-0.860552
-1.007844
-1.122638
-1.247720
-1.327912
-1.366956
-1.388932
-1.355966
-1.297517
-1.230884
-1.173136
-1.138768
-1.131052
-1.147417
-1.189033
-1.283019
-1.383552
-1.476369
-1.580876
-1.672290
-1.747807
-1.814439
-1.871017
-1.899073
-1.917542
-1.950274
-1.985343
-2.028595
-2.058521
-2.066236
-2.032101
-1.961026
-1.891588
-1.792692
-1.683274
-1.611966
-1.564505
-1.525694
-1.505120
-1.501145
-1.506756
-1.542292
-1.569179
-1.589519
-1.629030
-1.645630
-1.678361
-1.731433
-1.784270
-1.853240
-1.903974
-1.936705
-1.935068
-1.894855
-1.853005
-1.818169
-1.790580
-1.742184
-1.668772
-1.590449
-1.505580
-1.400605
-1.284174
-1.174523
-1.060429
-0.938620
-0.776832
-0.586989
-0.414446
-0.246112
-0.105833
0.025094
0.152747
0.224056
0.249072
0.239487
0.219381
0.186182
0.135214
0.092897
0.040293
-0.016052
-0.062577
-0.114246
-0.181345
-0.229273
-0.231611
-0.221558
-0.186254
-0.130610
-0.070524
-0.020724
-0.002254
0.027205
0.073263
0.147611
0.268484
0.403152
0.539690
0.662901
0.789386
0.939484
1.097064
1.225886
1.321743
1.413158
1.473946
1.523278
1.556477
1.549697
1.559751
1.574013
1.571208
1.556245
1.523981
1.480495
1.432099
1.395160
1.345595
1.289952
1.231269
1.163936
1.116709
1.058961
0.993264
0.917281
0.802954
0.664546
0.513747
0.370898
0.213786
0.050830
-0.092254
-0.225986
-0.342650
-0.477551
-0.612919
-0.711347
-0.787097
-0.817958
-0.788032
-0.716256
-0.650559
-0.591641
-0.532257
-0.467027
-0.363221
-0.238139
-0.055543
0.162590
0.339342
0.530822
0.747085
0.950255
1.142203
1.333917
1.526098
1.702616
1.870716
2.033673
2.189149
2.320543
2.447028
2.599931
2.748860
2.890074
3.018897
3.140004
3.257137
3.350656
3.451657
3.563880
3.663244
3.730344
3.786456
3.819188
3.790665
3.780846
3.763311
3.701823
3.677274
3.653193
3.612747
3.575340
3.526476
3.487199
3.451662
3.409812
3.379887
3.350428
3.297123
3.255507
3.223010
3.162924
3.093019
3.005813
2.902475
2.772250
2.619113
2.476030
2.298110
2.087459
1.870730
1.628048
1.358013
1.089146
0.840620
0.599108
0.395003
0.200718
-0.019519
-0.209830
-0.394061
-0.565668
-0.693088
-0.822611
-0.962421
-1.097322
-1.229885
-1.342809
-1.426741
-1.515117
-1.584320
-1.625001
-1.675501
-1.706595
-1.742600
-1.786553
-1.819752
-1.850613
-1.859731
-1.902282
-1.963536
-2.031337
-2.123453
-2.191488
-2.284305
-2.364030
-2.401203
-2.442819
-2.442117
-2.446091
-2.453105
-2.440947
-2.455442
-2.456611
-2.475080
-2.538907
-2.590809
-2.651129
-2.728282
-2.783691
-2.846349
-2.918358
-2.958103
-2.999251
-3.024267
-3.018889
-3.042503
-3.072896
-3.092535
-3.122227
-3.145840
-3.157062
-3.195170
-3.250346
-3.290559
-3.335916
-3.344332
-3.341292
-3.362801
-3.340824
-3.295701
-3.236082
-3.179269
-3.142796
-3.086919
-3.030807
-2.957394
-2.912505
-2.926299
-2.936352
-2.982643
-3.057692
-3.139521
-3.246132
-3.334974
-3.400204
-3.468706
-3.535338
-3.591215
-3.631895
-3.625115
-3.598696
-3.593552
-3.588642
-3.575549
-3.525983
-3.467300
-3.424982
-3.381496
-3.342919
-3.249166
-3.130864
-3.035241
-2.942657
-2.860126
-2.721718
-2.551747
-2.402584
-2.254356
-2.117584
-1.959771
-1.801957
-1.667991
-1.542208
-1.434427
-1.338804
-1.264924
-1.235231
-1.269833
-1.322437
-1.348388
-1.359610
-1.338802
-1.334125
-1.351660
-1.333190
-1.302562
-1.278714
-1.264452
-1.269829
-1.270297
-1.230083
-1.182622
-1.140071
-1.071100
-1.011715
-0.948590
-0.862084
-0.799427
-0.747757
-0.671773
-0.590878
-0.534767
-0.486838
-0.466965
-0.468835
-0.451768
-0.467432
-0.509982
-0.539674
-0.561417
-0.566794
-0.585498
-0.622204
-0.655870
-0.709409
-0.743543
-0.731152
-0.748453
-0.714318
-0.626410
-0.589937
-0.425344
-0.303301
-0.268699
0.052539
0.200299
0.094389
0.373310
0.771701
0.951959
1.104161
1.386355
1.771653
2.098502
2.419739
2.797322
3.175840
3.557865
3.907626
4.248503
4.590549
4.891446
5.189538
5.478512
5.719791
5.959433
6.209363
6.451343
6.690752
6.889714
7.065296
7.241112
7.394951
7.538970
7.651895
7.750090
7.850623
7.941336
8.018490
8.045143
8.048650
8.024102
7.957236
7.894579
7.810178
7.687903
7.552534
7.432597
7.310789
7.139416
6.943494
6.748040
6.543233
6.308969
6.062313
5.820333
5.574379
5.344790
5.131567
4.946868
4.771988
4.576066
4.397913
4.232852
4.065921
3.907875
3.775312
3.639008
3.465297
3.294392
3.101977
2.890157
2.679506
2.443137
2.211678
1.957073
1.679323
1.427056
1.164969
0.879737
0.600583
0.336393
0.054901
-0.245762
-0.535436
-0.814824
-1.092575
-1.364481
-1.599447
-1.810098
-1.995966
-2.136478
-2.243557
-2.313228
-2.370274
-2.392952
-2.381730
-2.381963
-2.356947
-2.314161
-2.263895
-2.190950
-2.105380
-2.013965
-1.936811
-1.866672
-1.822016
-1.789050
-1.743927
-1.735043
-1.743927
-1.732236
-1.708623
-1.681502
-1.638015
-1.585644
-1.550574
-1.507555
-1.468043
-1.441390
-1.395799
-1.349975
-1.327530
-1.319113
-1.288953
-1.237517
-1.190290
-1.141660
-1.066610
-0.977066
-0.921422
-0.843801
-0.760568
-0.737188
-0.698144
-0.666347
-0.681076
-0.700013
-0.736719
-0.817379
-0.933108
-1.046967
-1.180933
-1.321445
-1.443019
-1.591246
-1.753501
-1.923471
-2.095546
-2.257100
-2.405794
-2.520588
-2.626264
-2.713471
-2.776829
-2.839019
-2.898871
-2.934174
-2.918042
-2.912664
-2.907286
-2.867541
-2.862163
-2.868943
-2.875722
-2.922715
-2.986074
-3.066266
-3.175683
-3.273644
-3.369033
-3.508610
-3.648654
-3.780983
-3.917286
-4.030210
-4.123729
-4.177969
-4.229872
-4.291828
-4.333677
-4.395633
-4.433041
-4.445665
-4.497802
-4.554614
-4.604880
-4.662394
-4.695125
-4.701204
-4.738144
-4.757315
-4.709620
-4.668237
-4.610957
-4.512761
-4.417372
-4.305383
-4.179132
-4.059427
-3.919850
-3.767648
-3.619420
-3.452722
-3.324367
-3.229913
-3.103194
-2.992842
-2.852563
-2.701530
-2.608712
-2.499528
-2.408581
-2.311555
-2.186707
-2.127322
-2.061858
-1.964832
-1.886743
-1.808889
-1.746464
-1.695029
-1.605952
-1.486715
-1.387584
-1.320718
-1.277232
-1.214340
-1.144434
-1.123860
-1.125496
-1.155889
-1.188621
-1.198907
-1.252914
-1.332171
-1.409090
-1.479463
-1.529027
-1.528092
-1.484605
-1.473383
-1.452107
-1.383838
-1.308789
-1.226725
-1.144195
-1.047402
-0.946402
-0.868079
-0.800278
-0.713539
-0.593600
-0.461738
-0.309536
-0.147280
-0.003495
0.151279
0.346267
0.548268
0.709121
0.870207
1.036671
1.169001
1.295719
1.441141
1.578614
1.650390
1.691773
1.740637
1.756068
1.754899
1.737832
1.724272
1.733624
1.725208
1.693880
1.645484
1.619299
1.606908
1.556642
1.502401
1.452836
1.359785
1.236808
1.133704
1.021482
0.894062
0.793530
0.720352
0.681542
0.632678
0.568384
0.533783
0.520223
0.542200
0.588025
0.655826
0.754723
0.888221
1.077597
1.284976
1.503577
1.742751
2.000630
2.273238
2.527142
2.763044
2.958966
3.134548
3.319015
3.466541
3.548838
3.558190
3.552813
3.549073
3.498573
3.413237
3.300313
3.164478
2.995910
2.824771
2.686129
2.540474
2.391779
2.260853
2.146526
2.047163
1.957151
1.869010
1.796299
1.748371
1.681038
1.597339
1.501950
1.408665
1.352086
1.285454
1.212744
1.122966
1.002561
0.892676
0.771803
0.645086
0.486805
0.300703
0.145929
-0.011416
-0.159409
-0.286595
-0.434588
-0.593336
-0.715378
-0.801883
-0.904753
-1.016040
-1.121249
-1.223885
-1.311559
-1.375619
-1.426821
-1.501168
-1.546992
-1.555174
-1.585801
-1.608713
-1.624144
-1.662720
-1.701530
-1.734495
-1.791775
-1.838768
-1.865187
-1.907504
-1.905165
-1.894177
-1.912880
-1.908671
-1.885291
-1.784057
-1.637700
-1.488537
-1.297758
-1.112590
-0.875052
-0.603379
-0.389454
-0.172957
0.025303
0.195274
0.395171
0.591795
0.749608
0.864169
0.944128
1.041388
1.174653
1.307917
1.406814
1.463861
1.529792
1.590346
1.625649
1.679189
1.692516
1.692049
1.733431
1.747226
1.753772
1.750967
1.740680
1.765463
1.789311
1.796792
1.803339
1.850333
1.933799
1.982896
1.987806
1.969337
1.954608
1.972610
2.000666
2.001134
1.992017
1.977288
1.985003
2.028256
2.002539
1.956481
1.934972
1.875120
1.844961
1.810593
1.754482
1.754950
1.749572
1.693228
1.623790
1.593397
1.609763
1.661199
1.704919
1.682709
1.667980
1.676864
1.672656
1.680372
1.691361
1.682710
1.643199
1.612572
1.587088
1.563241
1.594570
1.623328
1.611638
1.584518
1.538928
1.487727
1.449384
1.419692
1.373634
1.346281
1.371999
1.426240
1.476740
1.519058
1.593640
1.691367
1.794004
1.906461
2.026400
2.161301
2.283110
2.381772
2.466407
2.582137
2.723585
2.805414
2.853343
2.897999
2.962293
3.042953
3.064229
3.044591
3.027524
3.042487
3.062828
3.026589
2.966036
2.904548
2.837916
2.721719
2.535851
2.335954
2.124602
1.898754
1.655605
1.384868
1.092856
0.798973
0.529872
0.277138
0.041938
-0.161465
-0.354348
-0.564765
-0.748062
-0.866129
-0.951698
-1.005238
-1.085664
-1.228513
-1.380715
-1.514213
-1.598847
-1.692366
-1.834748
-1.978533
-2.096834
-2.167441
-2.262830
-2.405913
-2.551803
-2.701666
-2.836099
-2.956505
-3.060077
-3.159440
-3.245945
-3.305797
-3.376637
-3.441866
-3.492833
-3.521123
-3.548477
-3.615108
-3.678935
-3.735747
-3.798171
-3.889585
-3.998067
-4.063062
-4.091819
-4.092988
-4.123615
-4.184402
-4.196325
-4.184635
-4.174348
-4.172477
-4.182997
-4.214326
-4.259916
-4.260851
-4.247057
-4.263890
-4.280723
-4.261317
-4.175747
-4.073344
-4.017232
-3.962757
-3.888643
-3.817802
-3.699734
-3.547532
-3.398836
-3.228398
-3.064272
-2.883780
-2.709367
-2.610704
-2.528875
-2.444474
-2.381115
-2.349785
-2.329678
-2.298349
-2.290166
-2.263981
-2.211843
-2.194308
-2.201322
-2.208336
-2.199217
-2.173032
-2.165550
-2.203425
-2.255561
-2.303957
-2.299514
-2.210203
-2.149883
-2.103358
-2.015449
-1.941803
-1.867455
-1.812279
-1.769727
-1.704030
-1.653763
-1.631552
-1.640436
-1.669427
-1.717121
-1.765283
-1.826070
-1.956295
-2.126499
-2.299976
