EVENT_NAME: 202302060117
EVENT_ID: 13194
EVENT_DATE_YYYYMMDD: 2023/02/06
EVENT_TIME_HHMMSS: 01:17:32.00000
EVENT_LATITUDE_DEGREE: 37.288
EVENT_LONGITUDE_DEGREE: 37.043
EVENT_DEPTH_KM: 8.6
HYPOCENTER_REFERENCE: AFAD
MAGNITUDE_W: 7.7
MAGNITUDE_W_REFERENCE: AFAD
MAGNITUDE_L: 
MAGNITUDE_L_REFERENCE: 
FOCAL_MECHANISM: 
NETWORK: TK
STATION_CODE: 6608
STATION_NAME: 
STATION_LATITUDE_DEGREE: 39.99367
STATION_LONGITUDE_DEGREE: 35.792573
STATION_ELEVATION_M: 943.0
LOCATION: Kahramanmaras_Pazarck_Turkiye
SENSOR_DEPTH_M: 
VS30_M/S: None
SITE_CLASSIFICATION_EC8: unknown
MORPHOLOGIC_CLASSIFICATION: 
EPICENTRAL_DISTANCE_KM: 319.85
EARTHQUAKE_BACKAZIMUTH_DEGREE: 
DATE_TIME_FIRST_SAMPLE_YYYYMMDD_HHMMSS: 2023/02/06 01:18:04.6230790
DATE_TIME_FIRST_SAMPLE_PRECISION: millisecond
SAMPLING_INTERVAL_S: 0.01
NDATA: 18251
DURATION_S: 
STREAM: HNZ
UNITS: cm/s^2
INSTRUMENT: sensor = ACEBOX/SARA | digitizer = 
INSTRUMENT_ANALOG/DIGITAL: 
INSTRUMENTAL_FREQUENCY_HZ: 
INSTRUMENTAL_DAMPING: 
FULL_SCALE_G: 
N_BIT_DIGITAL_CONVERTER: 
PGA_CM/S^2: 6.633
TIME_PGA_S: 
BASELINE_CORRECTION: BASELINE REMOVED
FILTER_TYPE: BUTTERWORTH
FILTER_ORDER: 
LOW_CUT_FREQUENCY_HZ: 
HIGH_CUT_FREQUENCY_HZ: 
LATE/NORMAL_TRIGGERED: 
DATABASE_VERSION: 
HEADER_FORMAT: DYNA 1.2
DATA_TYPE: Acceleration
PROCESSING: Automatic Paolucci et al., 2011
DATA_TIMESTAMP_YYYYMMDD_HHMMSS: 
DATA_LICENSE: U (unknown license)
DATA_CITATION: Turkish Accelerometric Archive v 1.0 - Disaster And Emergency Management Presidency, Earthquake Department
DATA_CREATOR: AFAD
ORIGINAL_DATA_MEDIATOR_CITATION: : AFAD - Disaster And Emergency Management Presidency
ORIGINAL_DATA_MEDIATOR: AFAD PROCESS SERVICE
ORIGINAL_DATA_CREATOR_CITATION: AFAD PROCESS SERVICE
ORIGINAL_DATA_CREATOR: network: TK
USER1: GuestUser
USER2: 
USER3: 
USER4: 
USER5: 
[...]
0.412969
0.557690
0.711295
0.846430
0.977356
1.100568
1.210920
1.328754
1.445419
1.530989
1.573774
1.579386
1.565358
1.548057
1.534263
1.536134
1.572373
1.635966
1.695350
1.737902
1.771569
1.811081
1.875141
1.974038
2.107770
2.279845
2.489327
2.704889
2.881873
3.002981
3.070314
3.101176
3.112164
3.107722
3.093695
3.069614
3.032206
2.979368
2.914607
2.852651
2.799813
2.767315
2.763341
2.763575
2.761003
2.769420
2.776668
2.761705
2.711906
2.630779
2.525103
2.377109
2.179317
1.949027
1.680862
1.355884
0.979938
0.570559
0.156504
-0.232300
-0.593283
-0.931588
-1.249786
-1.556995
-1.853684
-2.134006
-2.400301
-2.647191
-2.866025
-3.055167
-3.220695
-3.366584
-3.501719
-3.640828
-3.776430
-3.900343
-4.022385
-4.123853
-4.183237
-4.206616
-4.195160
-4.162662
-4.127359
-4.087613
-4.037113
-3.962999
-3.869480
-3.775493
-3.677999
-3.579570
-3.489091
-3.404222
-3.310235
-3.176503
-2.997882
-2.791205
-2.560681
-2.326416
-2.123012
-1.962393
-1.838246
-1.746598
-1.679965
-1.628997
-1.605384
-1.611228
-1.613800
-1.598369
-1.581535
-1.574989
-1.573586
-1.562831
-1.533372
-1.476092
-1.380469
-1.249542
-1.082377
-0.894404
-0.711808
-0.548851
-0.415820
-0.301961
-0.210546
-0.157474
-0.126145
-0.125911
-0.160045
-0.203998
-0.265487
-0.334457
-0.387763
-0.427040
-0.446212
-0.452991
-0.457901
-0.442003
-0.395243
-0.331650
-0.256835
-0.166589
-0.069095
0.025359
0.110462
0.184809
0.258923
0.331167
0.392188
0.450871
0.512594
0.562861
0.583669
0.569875
0.534805
0.496697
0.474954
0.486644
0.520778
0.553744
0.581332
0.580163
0.536911
0.476124
0.403881
0.326962
0.274358
0.251212
0.248640
0.266175
0.297037
0.322988
0.351746
0.417443
0.517041
0.628562
0.753644
0.881999
0.988143
1.066231
1.127486
1.184299
1.265895
1.395886
1.563519
1.753830
1.939933
2.086992
2.186122
2.246442
2.276134
2.277303
2.262340
2.240598
2.195007
2.115516
1.990435
1.812515
1.607709
1.385368
1.134972
0.866339
0.594199
0.331879
0.100419
-0.080306
-0.200010
-0.266876
-0.279500
-0.224558
-0.143664
-0.079369
-0.011568
0.063247
0.127542
0.170327
0.202825
0.264314
0.334219
0.377706
0.414880
0.461406
0.521959
0.569888
0.598177
0.672993
0.821688
1.010596
1.199739
1.351239
1.485439
1.642084
1.799429
1.930122
2.035331
2.117862
2.199925
2.303731
2.405667
2.456868
2.457336
2.449387
2.422968
2.327579
2.147556
1.899029
1.624084
1.329266
0.993299
0.677673
0.424938
0.188102
-0.037512
-0.237409
-0.436136
-0.642813
-0.864219
-1.112043
-1.355894
-1.557661
-1.713603
-1.830034
-1.901342
-1.929865
-1.940853
-1.946464
-1.954413
-1.988548
-2.029929
-2.061258
-2.110122
-2.170909
-2.227721
-2.279390
-2.328254
-2.392782
-2.456842
-2.490508
-2.494015
-2.466427
-2.414524
-2.333864
-2.207613
-2.045124
-1.852708
-1.637615
-1.415741
-1.190360
-0.969889
-0.763446
-0.570329
-0.388902
-0.204904
-0.032361
0.109788
0.254275
0.400632
0.526649
0.656874
0.799257
0.942341
1.072566
1.176840
1.270593
1.353357
1.411339
1.455060
1.505794
1.577803
1.668517
1.759464
1.820719
1.829370
1.778870
1.660335
1.484286
1.280649
1.078648
0.897455
0.728420
0.551903
0.361826
0.171749
-0.012483
-0.199988
-0.381648
-0.550683
-0.696807
-0.830305
-0.993963
-1.177026
-1.358686
-1.548997
-1.726682
-1.880988
-2.006537
-2.089535
-2.144945
-2.176741
-2.187262
-2.204797
-2.244776
-2.290600
-2.309771
-2.287092
-2.234722
-2.177441
-2.135825
-2.094209
-2.033422
-1.976375
-1.930550
-1.875608
-1.815054
-1.761748
-1.722938
-1.697220
-1.659578
-1.606740
-1.557408
-1.510649
-1.462954
-1.399829
-1.298594
-1.172110
-1.047963
-0.922414
-0.788682
-0.664067
-0.572185
-0.513969
-0.462534
-0.404786
-0.336049
-0.229203
-0.085418
0.074500
0.256394
0.468215
0.707156
0.950773
1.173348
1.374414
1.564725
1.760647
1.953296
2.129579
2.305161
2.483549
2.668716
2.848741
3.017776
3.196397
3.353276
3.475786
3.585203
3.654875
3.703271
3.774345
3.859682
3.944083
4.022405
4.098623
4.173672
4.238902
4.282622
4.275141
4.235863
4.230252
4.246150
4.230954
4.194248
4.140007
4.043916
3.909717
3.739980
3.516003
3.220951
2.855058
2.485425
2.170734
1.854406
1.488748
1.120283
0.768886
0.412579
0.071236
-0.234103
-0.519803
-0.776746
-0.986462
-1.168123
-1.336690
-1.480242
-1.584749
-1.634314
-1.640158
-1.649510
-1.665642
-1.680839
-1.718947
-1.765005
-1.801945
-1.833274
-1.832105
-1.790255
-1.716375
-1.605321
-1.468783
-1.337856
-1.231712
-1.137492
-1.061741
-1.022463
-1.012176
-1.043271
-1.125099
-1.248778
-1.416410
-1.601578
-1.771548
-1.923516
-2.059586
-2.185135
-2.295019
-2.388772
-2.492812
-2.598020
-2.669796
-2.703229
-2.697617
-2.669795
-2.641739
-2.597084
-2.536063
-2.474574
-2.408175
-2.341776
-2.283561
-2.238204
-2.211785
-2.201497
-2.194016
-2.183261
-2.180923
-2.185131
-2.179987
-2.178117
-2.211549
-2.282156
-2.367024
-2.459140
-2.544710
-2.602224
-2.643138
-2.678441
-2.702288
-2.721693
-2.745307
-2.775233
-2.798145
-2.798378
-2.781311
-2.744838
-2.687324
-2.622562
-2.554994
-2.479010
-2.399986
-2.315585
-2.214351
-2.109843
-2.006739
-1.888671
-1.769902
-1.660718
-1.544754
-1.422946
-1.291084
-1.146363
-1.024087
-0.941323
-0.872820
-0.810630
-0.769014
-0.738152
-0.697705
-0.658895
-0.639022
-0.636450
-0.653750
-0.679702
-0.691391
-0.682039
-0.635981
-0.549944
-0.435850
-0.294403
-0.137291
0.023562
0.187688
0.349476
0.517342
0.695028
0.869909
1.042218
1.205876
1.355506
1.503968
1.656871
1.816088
1.979278
2.151821
2.345639
2.543432
2.718780
2.874956
3.015936
3.138680
3.242253
3.327589
3.413392
3.511588
3.606042
3.701665
3.802899
3.892912
3.973338
4.065221
4.163182
4.239634
4.282886
4.288965
4.258572
4.209708
4.139803
4.033893
3.914423
3.795187
3.676418
3.549934
3.390016
3.193159
2.962635
2.702887
2.432384
2.146450
1.846722
1.546526
1.237213
0.922989
0.608766
0.281450
-0.049139
-0.364999
-0.663090
-0.949258
-1.216254
-1.448415
-1.670288
-1.914606
-2.158223
-2.384538
-2.602203
-2.799528
-2.959445
-3.088267
-3.200022
-3.283955
-3.318791
-3.314349
-3.258237
-3.126141
-2.952430
-2.766795
-2.561287
-2.351570
-2.169676
-2.008589
-1.818512
-1.592430
-1.368218
-1.122029
-0.819963
-0.503168
-0.201569
0.101666
0.396952
0.657870
0.898448
1.143000
1.380538
1.593528
1.789684
1.979060
2.135938
2.260084
2.375580
2.475178
2.573373
2.659878
2.693545
2.680219
2.620601
2.535499
2.451098
2.346825
2.239512
2.132433
1.999870
1.877127
1.776127
1.658059
1.515443
1.360202
1.209637
1.101623
1.032653
0.968359
0.920430
0.891440
0.889336
0.955033
1.044344
1.085024
1.103495
1.121497
1.098118
1.012548
0.868062
0.677517
0.484167
0.295493
0.097233
-0.082323
-0.255567
-0.449385
-0.622395
-0.767115
-0.908562
-1.006055
-1.029902
-1.024057
-1.010497
-0.967010
-0.910197
-0.845903
-0.747708
-0.627068
-0.488894
-0.318222
-0.133989
0.050477
0.237047
0.424319
0.599667
0.738309
0.836738
0.907812
0.955273
0.970704
0.962522
0.958313
0.921140
0.824582
0.717503
0.583771
0.405851
0.238687
0.064040
-0.153391
-0.378772
-0.602515
-0.808958
-0.959056
-1.063563
-1.147028
-1.213894
-1.262758
-1.300399
-1.357679
-1.424779
-1.475980
-1.541443
-1.612985
-1.659277
-1.698788
-1.727311
-1.735494
-1.720297
-1.667225
-1.602930
-1.529752
-1.415892
-1.272808
-1.106344
-0.913227
-0.706083
-0.479066
-0.223525
0.061240
0.362371
0.660697
0.938214
1.183234
1.404173
1.593782
1.741309
1.872703
1.984926
2.048285
2.070964
2.059508
1.992642
1.871301
1.736400
1.595187
1.441115
1.301304
1.163130
1.012331
0.885146
0.785081
0.687821
0.598043
0.535853
0.508499
0.497979
0.491666
0.478340
0.427606
0.355363
0.287562
0.185860
0.069429
-0.036714
-0.186578
-0.370109
-0.559484
-0.766862
-0.947120
-1.080384
-1.177410
-1.249419
-1.326572
-1.366318
-1.328208
-1.278176
-1.244742
-1.187696
-1.116621
-1.034792
-0.899423
-0.752832
-0.673808
-0.648090
-0.636400
-0.627984
-0.612319
-0.619333
-0.684328
-0.737868
-0.717059
-0.661649
-0.592679
-0.536334
-0.515759
-0.472974
-0.424578
-0.430423
-0.457777
-0.495184
-0.566024
-0.642008
-0.688300
-0.718460
-0.745814
-0.748853
-0.724070
-0.680584
-0.636864
-0.645280
-0.695313
-0.716822
-0.733187
-0.807301
-0.894507
-0.955060
-1.026602
-1.109366
-1.196105
-1.299443
-1.403716
-1.507055
-1.604080
-1.661127
-1.672816
-1.675388
-1.676791
-1.641019
-1.589116
-1.558021
-1.504247
-1.419145
-1.341057
-1.266475
-1.182775
-1.081541
-0.966746
-0.857797
-0.730143
-0.558536
-0.400489
-0.281486
-0.158742
-0.052130
0.003280
0.016139
-0.021035
-0.101461
-0.199188
-0.290602
-0.354429
-0.371963
-0.332919
-0.261844
-0.165754
-0.033892
0.098671
0.219545
0.344393
0.462928
0.567436
0.647862
0.717300
0.787907
0.840745
0.881193
0.920471
0.951098
0.972608
0.982194
0.972141
0.922342
0.837941
0.756580
0.690883
0.634772
0.609756
0.641786
0.711692
0.783000
0.867401
0.963960
1.042282
1.131359
1.244049
1.337335
1.436231
1.571600
1.702760
1.821530
1.951521
2.090397
2.233247
2.363005
2.455355
2.518948
2.556823
2.537886
2.480138
2.441328
2.411870
2.373293
2.345004
2.331444
2.332847
2.330042
2.301752
2.260838
2.214079
2.156565
2.061643
1.919027
1.760980
1.573709
1.347393
1.131131
0.961161
0.841924
0.735313
0.653952
0.630338
0.602984
0.567447
0.548510
0.530741
0.550380
0.591763
0.617948
0.625196
0.582178
0.539159
0.539393
0.508298
0.414078
0.342536
0.302791
0.195946
0.114117
0.167657
0.228912
0.227977
0.174204
0.127444
0.198987
0.273334
0.226341
0.149890
0.101728
0.070633
0.019665
-0.088583
-0.208521
-0.293623
-0.376387
-0.510820
-0.667932
-0.782258
-0.879985
-0.992442
-1.078946
-1.128979
-1.174335
-1.215951
-1.232550
-1.218522
-1.190934
-1.148850
-1.069827
-0.968592
-0.861279
-0.722637
-0.552667
-0.379656
-0.198697
0.003772
0.206708
0.404968
0.632921
0.885889
1.126935
1.353017
1.567409
1.754915
1.912026
2.053942
2.175283
2.257346
2.306911
2.326082
2.300365
2.229758
2.124783
2.009989
1.905716
1.804716
1.717743
1.653917
1.594532
1.542396
1.498910
1.441396
1.376868
1.317250
1.242201
1.154060
1.074803
1.007235
0.947851
0.876777
0.768763
0.631524
0.488206
0.346993
0.201571
0.046798
-0.122939
-0.310912
-0.508003
-0.697612
-0.857296
-0.976064
-1.074493
-1.158192
-1.221083
-1.291222
-1.384273
-1.482702
-1.581130
-1.690314
-1.814226
-1.932060
-2.029085
-2.124708
-2.213785
-2.279014
-2.338398
-2.391704
-2.428644
-2.462544
-2.483586
-2.500419
-2.545308
-2.598847
-2.672493
-2.793366
-2.915408
-3.013135
-3.100108
-3.169078
-3.212564
-3.237580
-3.251607
-3.236177
-3.180065
-3.116706
-3.047969
-2.941591
-2.812067
-2.680673
-2.529406
-2.376970
-2.268488
-2.196245
-2.151355
-2.151589
-2.193205
-2.262408
-2.353122
-2.461603
-2.565409
-2.641627
-2.709428
-2.768812
-2.790321
-2.780268
-2.759927
-2.721818
-2.651913
-2.557926
-2.452951
-2.342598
-2.226868
-2.133116
-2.066249
-1.963846
-1.845544
-1.754597
-1.664117
-1.566624
-1.450192
-1.378417
-1.332124
-1.249126
-1.221304
-1.147658
-1.073076
-1.098092
-0.949631
-0.903807
-1.196521
-1.335864
-1.269699
-1.145786
-1.068633
-1.207508
-1.176413
-0.872710
-0.640315
-0.435041
-0.297334
-0.235612
-0.015608
0.274300
0.488225
0.627568
0.699578
0.831440
1.017075
1.078564
1.001177
0.871654
0.744936
0.657262
0.570056
0.414581
0.216555
0.070432
0.004267
-0.024723
-0.035478
-0.024489
0.006840
0.065289
0.137533
0.210712
0.316154
0.445678
0.568188
0.688360
0.803856
0.916079
1.011702
1.086518
1.182842
1.291558
1.392325
1.515770
1.679896
1.869272
2.048361
2.223475
2.418462
2.604098
2.791369
2.989630
3.158665
3.305724
3.443898
3.565473
3.683073
3.791088
3.881801
3.972749
4.073749
4.167502
4.241382
4.302403
4.343318
4.349865
4.311522
4.223848
4.087545
3.906352
3.686349
3.436654
3.168255
2.866656
2.526014
2.182800
1.860160
1.560899
1.285019
1.031349
0.809475
0.611449
0.427451
0.264962
0.105513
-0.050430
-0.165224
-0.243780
-0.309477
-0.345715
-0.349222
-0.332856
-0.295448
-0.244480
-0.173873
-0.073574
0.044961
0.173784
0.277824
0.322012
0.334169
0.325051
0.265667
0.184773
0.117440
0.019479
-0.111447
-0.208707
-0.297082
-0.434321
-0.602421
-0.767949
-0.911968
-1.063702
-1.242791
-1.393824
-1.529660
-1.690979
-1.820503
-1.919633
-2.038869
-2.163015
-2.282252
-2.394007
-2.497345
-2.597176
-2.671757
-2.738623
-2.810866
-2.843598
-2.834713
-2.814607
-2.786317
-2.729036
-2.629672
-2.526334
-2.439361
-2.333684
-2.225670
-2.163714
-2.127241
-2.087261
-2.061076
-2.033254
-1.981351
-1.938332
-1.899989
-1.836162
-1.770932
-1.725342
-1.676946
-1.612651
-1.554435
-1.514924
-1.485932
-1.475645
-1.495752
-1.537367
-1.584828
-1.633224
-1.677411
-1.708974
-1.749187
-1.791738
-1.804129
-1.799686
-1.778411
-1.727910
-1.665019
-1.584125
-1.484293
-1.385397
-1.290942
-1.198125
-1.095721
-0.975082
-0.847896
-0.736374
-0.619475
-0.467039
-0.311798
-0.199107
-0.125929
-0.032877
0.059941
0.124469
0.220092
0.278074
0.337225
0.447811
0.480543
0.672023
0.978532
0.910497
0.742397
0.824460
0.974090
1.130033
1.184040
1.123955
1.137048
1.189886
1.250907
1.357285
1.498733
1.703072
1.955339
2.246183
2.592203
2.982645
3.394596
3.790415
4.182025
4.564050
4.875235
5.130541
5.369482
5.582706
5.758288
5.909321
6.056613
6.184968
6.297425
6.428585
6.554135
6.624742
6.632925
6.606272
6.549459
6.425079
6.238977
6.023650
5.783306
5.519350
5.229441
4.914049
4.599825
4.314359
4.056715
3.803980
3.540725
3.269754
3.007667
2.752595
2.473908
2.183299
1.905781
1.627797
1.344668
1.063644
0.790803
0.540874
0.302635
0.050368
-0.196522
-0.406472
-0.597718
-0.778443
-0.929476
-1.055726
-1.161402
-1.246271
-1.329502
-1.413201
-1.484276
-1.551609
-1.614734
-1.654246
-1.690718
-1.744491
-1.795459
-1.859285
-1.963559
-2.092381
-2.231957
-2.370365
-2.504097
-2.645077
-2.786758
-2.924230
-3.069652
-3.224192
-3.385745
-3.544260
-3.673550
-3.754911
-3.806346
-3.845624
-3.852170
-3.814528
-3.759820
-3.698565
-3.626789
-3.558753
-3.515267
-3.485107
-3.445829
-3.392990
-3.309057
-3.199172
-3.078065
-2.917914
-2.737188
-2.571659
-2.392337
-2.201558
-2.031587
-1.877281
-1.731391
-1.594152
-1.461823
-1.329727
-1.185006
-1.026024
-0.868678
-0.709462
-0.528970
-0.345439
-0.191601
-0.050854
0.082410
0.171721
0.226430
0.269916
0.285113
0.261734
0.202115
0.125898
0.058331
-0.001755
-0.058334
-0.102288
-0.131746
-0.160269
-0.204223
-0.272257
-0.355255
-0.430304
-0.508158
-0.604015
-0.692390
-0.774921
-0.867036
-0.973180
-1.095690
-1.205574
-1.304704
-1.401730
-1.456906
-1.482857
-1.494313
-1.468595
-1.428382
-1.383259
-1.313587
-1.230121
-1.152968
-1.082361
-1.003571
-0.913091
-0.811156
-0.685372
-0.532001
-0.341456
-0.119349
0.102993
0.311774
0.490629
0.627400
0.723024
0.778434
0.810230
0.817478
0.798307
0.774694
0.754354
0.752717
0.798542
0.895100
1.024858
1.188049
1.379529
1.560956
1.721341
1.850397
1.943448
2.014523
2.044215
2.073908
2.108042
2.084897
2.050762
2.025746
1.991846
1.955608
1.925448
1.986469
2.054271
1.956543
1.797094
1.742853
1.831930
1.919838
1.821877
1.658219
1.611694
1.650271
1.686509
1.676456
1.669442
1.735841
1.873314
2.045857
2.224010
2.407775
2.605802
2.817622
3.038794
3.216247
3.349511
3.489089
3.602948
3.652981
3.670983
3.682673
3.672854
3.626796
3.578868
3.545903
3.488389
3.408197
3.325666
3.234486
3.128576
2.993207
2.826977
2.647889
2.450798
2.215832
1.959123
1.715506
1.479137
1.243470
1.037027
0.859809
0.689605
0.518933
0.356912
0.204476
0.031700
-0.160014
-0.343310
-0.521464
-0.690733
-0.845506
-0.995370
-1.136116
-1.258158
-1.362431
-1.460392
-1.556015
-1.655613
-1.781162
-1.926116
-2.072706
-2.227714
-2.382254
-2.534689
-2.691333
-2.832313
-2.963239
-3.089256
-3.179034
-3.245666
-3.317675
-3.377995
-3.417039
-3.433404
-3.426390
-3.400672
-3.341054
-3.252211
-3.155652
-3.047404
-2.929804
-2.803787
-2.660001
-2.518554
-2.386458
-2.255298
-2.150790
-2.062648
-1.965388
-1.877948
-1.795184
-1.696053
-1.571907
-1.424848
-1.274984
-1.115534
-0.947200
-0.807623
-0.696335
-0.602816
-0.548107
-0.534780
-0.536884
-0.534079
-0.529870
-0.518414
-0.500879
-0.505087
-0.506022
-0.477031
-0.463938
-0.453183
-0.391928
-0.318516
-0.254923
-0.160936
-0.059702
0.014880
0.092735
0.169186
0.203555
0.201217
0.179942
0.123597
0.014881
-0.121656
-0.264506
-0.429567
-0.587380
-0.704278
-0.810188
-0.896693
-0.948128
-1.009149
-1.088406
-1.178418
-1.292277
-1.425308
-1.566755
-1.694642
-1.803825
-1.918385
-2.028737
-2.117346
-2.202215
-2.299240
-2.396032
-2.477160
-2.546130
-2.603176
-2.652741
-2.706280
-2.744623
-2.750935
-2.742986
-2.728958
-2.694589
-2.632165
-2.553843
-2.482301
-2.414500
-2.317006
-2.203614
-2.104484
-1.993196
-1.861802
-1.732044
-1.604625
-1.480712
-1.349318
-1.211845
-1.082788
-0.944848
-0.794048
-0.646522
-0.497827
-0.356379
-0.236675
-0.138714
-0.065301
-0.017606
0.005306
-0.000539
-0.023217
-0.058053
-0.125854
-0.212592
-0.272678
-0.319203
-0.377886
-0.433530
-0.475847
-0.527750
-0.606539
-0.689771
-0.774172
-0.865820
-0.912345
-0.908371
-0.879380
-0.792173
-0.644413
-0.459479
-0.249763
-0.045891
0.140913
0.305039
0.430588
0.513586
0.572036
0.635161
0.692442
0.744111
0.824070
0.924603
1.048048
1.199549
1.335385
1.456960
1.586718
1.683276
1.720918
1.739154
1.765106
1.770249
1.745467
1.724192
1.705254
1.664574
1.612437
1.564509
1.499046
1.393370
1.268990
1.140869
0.997084
0.835530
0.666495
0.486705
0.294290
0.112630
-0.052899
-0.213985
-0.341170
-0.412478
-0.459237
-0.504126
-0.539196
-0.567953
-0.615413
-0.671524
-0.722960
-0.786085
-0.864874
-0.954652
-1.050041
-1.150106
-1.256718
-1.350704
-1.442820
-1.550366
-1.646925
-1.736703
-1.832325
-1.914856
-1.990840
-2.083657
-2.197048
-2.312544
-2.427338
-2.547276
-2.666279
-2.789022
-2.899608
-2.995699
-3.106051
-3.194192
-3.240951
-3.266201
-3.239314
-3.182502
-3.125221
-3.054146
-3.005516
-2.989618
-2.986578
-3.010893
-3.046196
-3.069576
-3.082902
-3.074018
-3.041520
-2.987512
-2.896565
-2.776861
-2.640790
-2.474327
-2.280041
-2.078507
-1.888898
-1.731084
-1.595014
-1.470634
-1.371270
-1.298091
-1.239174
-1.174178
-1.110585
-1.061488
-1.010753
-0.973813
-0.948563
-0.902738
-0.844289
-0.763863
-0.642288
-0.490553
-0.315439
-0.130973
0.041570
0.198682
0.344805
0.477836
0.590760
0.685215
0.770551
0.850744
0.929066
1.016506
1.116104
1.215000
1.319742
1.438511
1.546526
1.618769
1.644955
1.625082
1.561723
1.454410
1.318341
1.177361
1.049006
0.941694
0.855189
0.796038
0.751851
0.702052
0.663710
0.645941
0.626536
0.599884
0.569256
0.529277
0.478076
0.419393
0.366789
0.315821
0.265789
0.251527
0.269763
0.303430
0.381285
0.494677
0.609472
0.741567
0.904992
1.078470
1.242595
1.404383
1.559859
1.691954
1.809087
1.914062
1.997995
2.072811
2.145756
2.213791
2.277852
2.335833
2.383996
2.416026
2.427249
2.427015
2.426080
2.415326
2.389374
2.360617
2.308948
2.228289
2.154876
2.081464
1.989348
1.898168
