EVENT_NAME: 202302060117
EVENT_ID: 13194
EVENT_DATE_YYYYMMDD: 2023/02/06
EVENT_TIME_HHMMSS: 01:17:32.00000
EVENT_LATITUDE_DEGREE: 37.288
EVENT_LONGITUDE_DEGREE: 37.043
EVENT_DEPTH_KM: 8.6
HYPOCENTER_REFERENCE: AFAD
MAGNITUDE_W: 7.7
MAGNITUDE_W_REFERENCE: AFAD
MAGNITUDE_L: 
MAGNITUDE_L_REFERENCE: 
FOCAL_MECHANISM: 
NETWORK: TK
STATION_CODE: 2401
STATION_NAME: 
STATION_LATITUDE_DEGREE: 39.74183
STATION_LONGITUDE_DEGREE: 39.51152
STATION_ELEVATION_M: 1198.0
LOCATION: Kahramanmaras_Pazarck_Turkiye
SENSOR_DEPTH_M: 
VS30_M/S: 314
SITE_CLASSIFICATION_EC8: C
MORPHOLOGIC_CLASSIFICATION: 
EPICENTRAL_DISTANCE_KM: 347.21
EARTHQUAKE_BACKAZIMUTH_DEGREE: 
DATE_TIME_FIRST_SAMPLE_YYYYMMDD_HHMMSS: 2023/02/06 01:17:58.9311340
DATE_TIME_FIRST_SAMPLE_PRECISION: millisecond
SAMPLING_INTERVAL_S: 0.01
NDATA: 18251
DURATION_S: 
STREAM: HNN
UNITS: cm/s^2
INSTRUMENT: sensor = CMG-5T/GURALP | digitizer = 
INSTRUMENT_ANALOG/DIGITAL: 
INSTRUMENTAL_FREQUENCY_HZ: 
INSTRUMENTAL_DAMPING: 
FULL_SCALE_G: 
N_BIT_DIGITAL_CONVERTER: 
PGA_CM/S^2: 12.830
TIME_PGA_S: 
BASELINE_CORRECTION: BASELINE REMOVED
FILTER_TYPE: BUTTERWORTH
FILTER_ORDER: 
LOW_CUT_FREQUENCY_HZ: 
HIGH_CUT_FREQUENCY_HZ: 
LATE/NORMAL_TRIGGERED: 
DATABASE_VERSION: 
HEADER_FORMAT: DYNA 1.2
DATA_TYPE: Acceleration
PROCESSING: Automatic Paolucci et al., 2011
DATA_TIMESTAMP_YYYYMMDD_HHMMSS: 
DATA_LICENSE: U (unknown license)
DATA_CITATION: Turkish Accelerometric Archive v 1.0 - Disaster And Emergency Management Presidency, Earthquake Department
DATA_CREATOR: AFAD
ORIGINAL_DATA_MEDIATOR_CITATION: : AFAD - Disaster And Emergency Management Presidency
ORIGINAL_DATA_MEDIATOR: AFAD PROCESS SERVICE
ORIGINAL_DATA_CREATOR_CITATION: AFAD PROCESS SERVICE
ORIGINAL_DATA_CREATOR: network: TK
USER1: GuestUser
USER2: 
USER3: 
USER4: 
USER5: 
[...]
1.505358
1.671819
1.771570
1.927648
2.121485
2.413815
2.813132
3.233218
3.599495
3.922662
4.184783
4.396242
4.557983
4.777939
5.023697
5.390289
5.820129
6.134171
6.317939
6.471813
6.689251
6.857286
7.016195
7.171014
7.259752
7.204685
7.120040
7.091720
7.141439
7.177312
7.175740
7.128855
7.027532
6.920859
6.723562
6.517139
6.377426
6.226700
6.006117
5.811337
5.609634
5.369856
5.185460
5.038824
4.826738
4.573114
4.375187
4.183554
3.951328
3.685118
3.374224
3.044136
2.722229
2.408819
2.163691
2.000378
1.840841
1.658333
1.458518
1.263738
1.055113
0.926413
0.935854
1.011061
0.969211
0.804954
0.711812
0.693248
0.653285
0.559514
0.427354
0.239182
0.090343
0.037480
0.032131
-0.059752
-0.210478
-0.303620
-0.254845
-0.139046
-0.040553
0.044724
0.148880
0.252722
0.324153
0.500684
0.774448
1.014542
1.186038
1.394351
1.634130
1.868246
2.094809
2.253404
2.298717
2.316025
2.404448
2.580034
2.740832
2.788662
2.787090
2.841529
2.903834
2.924603
2.906353
2.745243
2.426483
2.086010
1.816339
1.597329
1.357551
1.087565
0.851248
0.654265
0.478995
0.303410
0.143243
-0.216109
-0.652556
-0.962820
-1.268364
-1.561951
-1.879452
-2.203562
-2.532391
-2.776575
-3.037121
-3.229069
-3.346440
-3.387346
-3.384199
-3.370353
-3.303327
-3.292942
-3.189729
-2.967257
-2.736917
-2.627726
-2.469131
-2.371583
-2.266797
-2.266796
-2.319345
-2.522307
-2.652265
-2.704184
-3.008155
-3.176817
-3.380408
-3.436733
-3.555049
-3.626163
-3.549068
-3.487392
-3.370649
-3.296386
-3.215200
-3.079891
-2.901472
-2.732808
-2.584912
-2.556906
-2.637461
-2.650047
-2.605992
-2.560993
-2.521973
-2.504036
-2.459038
-2.333798
-2.183385
-2.009057
-1.822457
-1.748823
-1.673301
-1.628303
-1.512818
-1.498972
-1.514704
-1.422505
-1.539562
-1.797276
-1.964365
-1.978524
-1.957126
-1.989222
-1.922511
-1.797271
-1.747238
-1.701610
-1.752271
-1.717656
-1.503680
-1.254460
-1.004926
-0.803536
-0.728014
-0.761683
-0.752872
-0.610325
-0.419949
-0.290933
-0.234292
-0.166637
0.006747
0.275162
0.533192
0.724198
0.860451
1.021563
1.247811
1.495458
1.751600
2.021588
2.228642
2.378426
2.559047
2.743759
3.012488
3.344466
3.612881
3.769273
3.805146
3.732773
3.627988
3.580159
3.592117
3.647186
3.658829
3.613517
3.602819
3.664496
3.668587
3.607857
3.553734
3.435419
3.358325
3.372801
3.421890
3.397347
3.315534
3.239384
3.161347
3.121699
3.034851
2.926920
2.759831
2.554667
2.322126
2.124829
2.015009
1.922497
1.825894
1.665413
1.444516
1.165089
0.971882
0.827450
0.670430
0.524424
0.344118
0.089236
-0.262249
-0.648034
-0.979067
-1.217901
-1.466804
-1.729553
-1.973421
-2.244981
-2.530386
-2.766073
-2.858586
-2.904841
-2.998298
-3.069412
-3.124793
-3.145561
-3.106226
-3.042977
-3.002698
-2.966825
-2.939133
-2.920881
-2.904518
-2.834975
-2.762915
-2.694945
-2.606522
-2.591732
-2.612499
-2.618792
-2.598337
-2.583232
-2.568757
-2.511486
-2.394428
-2.240239
-2.116258
-2.091083
-2.098635
-2.096431
-2.057411
-2.012412
-2.013985
-2.030347
-2.032864
-1.947273
-1.784587
-1.580680
-1.415792
-1.308803
-1.176012
-0.985950
-0.788966
-0.633203
-0.577191
-0.559254
-0.485935
-0.379576
-0.306571
-0.252762
-0.153325
-0.073398
-0.012037
0.042402
0.117924
0.218619
0.307357
0.367774
0.372180
0.297919
0.182121
0.049016
-0.053565
-0.112408
-0.125309
-0.131286
-0.145131
-0.163696
-0.236069
-0.330470
-0.359418
-0.329524
-0.324488
-0.318194
-0.285153
-0.390252
-0.574648
-0.489057
-0.384900
-0.221586
-0.094773
0.011901
0.116373
0.098437
0.148785
0.282521
0.442374
0.528909
0.625829
0.666736
0.834771
1.023574
1.096578
1.127732
1.311185
1.545301
1.822211
2.116429
2.350859
2.539347
2.553823
2.627771
2.879823
3.079324
3.173412
3.227221
3.339244
3.619302
3.886458
4.058268
4.133161
4.246128
4.349970
4.596358
4.763763
4.977425
5.244895
5.366359
5.573413
5.793683
6.086956
6.296527
6.430263
6.540713
6.555189
6.675708
6.803465
6.802522
6.988178
7.158416
7.132613
7.313235
7.618466
7.734895
7.715386
7.755665
7.999849
8.076000
7.885626
7.623506
7.345968
7.095177
6.834630
6.588559
6.328957
6.015231
5.657138
5.275443
4.965809
4.747114
4.553592
4.435277
4.369512
4.260637
4.045403
3.800276
3.526828
3.285162
3.099193
2.904098
2.701137
2.596352
2.545691
2.414160
2.251161
2.100435
1.942157
1.735734
1.616160
1.515466
1.388340
1.257124
1.139752
1.032451
0.929869
0.812498
0.605760
0.392729
0.069564
-0.230316
-0.495582
-0.696027
-0.886087
-1.172121
-1.401200
-1.635629
-1.842996
-1.973583
-1.999385
-1.989944
-2.026445
-2.114867
-2.249859
-2.447471
-2.624630
-2.736022
-2.816892
-2.891153
-2.902166
-2.893354
-2.898388
-2.899961
-2.908456
-2.901218
-2.960375
-3.083096
-3.254905
-3.407834
-3.558875
-3.746732
-3.934589
-4.092553
-4.220308
-4.362539
-4.450645
-4.562667
-4.721890
-4.924536
-5.113967
-5.227248
-5.316298
-5.360981
-5.408495
-5.432095
-5.511705
-5.620581
-5.774139
-5.896859
-5.990630
-6.057969
-6.095729
-6.056709
-6.027444
-5.966082
-5.884896
-5.925173
-5.782627
-5.621200
-5.454110
-5.270027
-5.074930
-4.880778
-4.633132
-4.508521
-4.447789
-4.358422
-4.366917
-4.310591
-4.284787
-4.193846
-4.000323
-3.839526
-3.700756
-3.544049
-3.506917
-3.464751
-3.436115
-3.468525
-3.419436
-3.407477
-3.399610
-3.397721
-3.374749
-3.305206
-3.260522
-3.168009
-3.079900
-2.998085
-2.917529
-2.888264
-2.841062
-2.756100
-2.692536
-2.606945
-2.532997
-2.439854
-2.253883
-2.055640
-1.899562
-1.752296
-1.620134
-1.576394
-1.563806
-1.515975
-1.446432
-1.390420
-1.310179
-1.219867
-1.125466
-0.961522
-0.673912
-0.315502
0.085389
0.523410
0.913288
1.169115
1.302536
1.354143
1.406379
1.507074
1.666613
1.868947
1.989466
2.024710
2.045165
2.137678
2.281798
2.431582
2.541088
2.586401
2.629512
2.725173
2.826183
2.869293
2.822723
2.669479
2.472182
2.247508
2.053987
2.022520
2.155627
2.468410
2.863322
3.183971
3.383158
3.460568
3.563466
3.752269
3.903941
3.945793
3.809227
3.195621
2.228325
1.149322
0.425896
0.336845
0.572219
1.031638
1.296906
0.985383
0.186751
-0.424338
-0.263541
0.397897
0.824905
0.323637
-0.853859
-1.745948
-1.620079
-0.362341
1.222024
2.424380
2.729926
2.060308
1.014345
0.377768
0.605275
1.523484
2.608468
3.089599
2.628608
1.943257
1.711975
1.670125
1.758548
1.293781
-0.158736
-1.877464
-2.900142
-2.753819
-1.806346
-0.920549
-0.556474
-0.323303
0.046121
0.607179
1.041424
0.697490
-0.298125
-1.197137
-1.554917
-0.855719
0.487295
1.679266
2.186201
2.001805
1.377500
0.229899
-1.180767
-2.467139
-3.161930
-3.210388
-2.690237
-2.132326
-2.303191
-2.963998
-3.420584
-3.354502
-2.944801
-2.632962
-2.205324
-1.556788
-1.116878
-1.148659
-1.560876
-2.198397
-2.880916
-2.932836
-2.264161
-1.545139
-1.161240
-0.966458
-1.252493
-1.939103
-2.315133
-2.378381
-2.332438
-2.251252
-2.455472
-2.982544
-3.410495
-3.470282
-3.261340
-3.320182
-3.779600
-4.605609
-5.527277
-5.655032
-4.996112
-4.130768
-3.519992
-3.534466
-3.851968
-3.771726
-2.895054
-1.482184
-0.128157
0.396399
0.137426
-0.336466
-0.593866
-0.869831
-1.686399
-2.510834
-3.163145
-3.610920
-3.937232
-4.029430
-3.790909
-3.619098
-3.567491
-3.532562
-3.246841
-2.752493
-2.449465
-2.526558
-3.037582
-3.760064
-4.522509
-5.312331
-5.550850
-5.114087
-4.256924
-3.253755
-2.451660
-2.064614
-2.201180
-2.429316
-2.345612
-1.915457
-1.441563
-1.247411
-1.325763
-1.495055
-1.628789
-1.748363
-2.058941
-2.945996
-4.212858
-5.392241
-6.014658
-5.558385
-4.338408
-2.838374
-1.663395
-1.238589
-1.175339
-0.926749
-0.058888
0.893935
1.202312
0.714259
-0.386771
-1.555770
-2.151755
-1.768800
-0.728500
0.500603
1.751418
2.668997
2.827907
2.361251
1.838900
1.501259
1.061351
0.626478
0.444284
0.426664
0.425091
0.435476
0.814340
1.439590
2.081204
2.727223
3.510438
4.435569
4.961384
5.077183
5.088827
5.019285
5.037537
5.265359
5.324833
4.943768
4.322924
3.710891
3.128438
2.689473
2.365993
2.228798
2.363163
2.535288
2.938696
3.578736
4.176925
4.701796
5.176005
5.616544
5.912650
5.889679
5.623784
5.057693
4.144835
3.001324
2.078083
1.713381
1.781665
2.030570
2.703021
3.665913
4.357559
4.833026
5.155564
5.426181
5.472439
5.581001
5.822354
6.138598
6.307577
5.988817
5.471814
4.930267
4.526546
4.344353
4.338375
4.197718
3.885566
3.647991
3.499467
3.190777
2.881457
2.966733
3.067114
2.843699
2.565216
2.395925
2.235444
2.114296
1.998184
1.900322
2.053253
2.273523
2.299956
2.335514
2.689519
2.856924
2.452259
1.799949
1.053237
0.355614
0.056049
0.271913
0.686649
0.993768
0.874824
0.292685
-0.377562
-0.764920
-1.015712
-1.461599
-1.992132
-2.601333
-3.365666
-3.905325
-3.772848
-2.924810
-1.767767
-0.549363
0.756834
1.923002
2.562099
2.591364
2.109604
1.284540
0.345565
-0.665785
-1.585565
-2.193507
-2.421328
-2.442724
-2.467268
-2.309932
-1.672724
-0.808953
-0.010319
0.729471
1.109908
1.121866
0.889326
0.393721
-0.036432
-0.156950
-0.083317
-0.002445
-0.005906
-0.242852
-0.639965
-1.044945
-1.480448
-1.850499
-1.936089
-1.554707
-0.751039
0.246152
1.170339
1.776080
2.079109
2.231410
2.085404
1.631965
0.992241
0.435905
0.000716
-0.624533
-1.319953
-1.845451
-2.047784
-1.944571
-1.478544
-0.510932
0.770092
1.871124
2.603991
2.979394
2.821745
2.124436
1.205285
0.436861
-0.129544
-0.740633
-1.461856
-1.993334
-2.015674
-1.676774
-1.110052
-0.190585
0.883071
1.951692
2.560894
2.641136
2.201228
1.326445
0.526869
-0.188690
-0.459306
-0.121664
0.459533
0.772001
0.427438
-0.243753
-0.962144
-1.588652
-1.837555
-1.684624
-1.207269
-0.544258
0.230146
1.145208
2.104639
2.879358
3.369615
3.834383
4.305445
4.303873
3.859245
3.287175
2.531338
1.819555
1.411428
1.278638
1.264479
1.254410
1.264795
1.574746
2.207549
2.652808
2.565330
1.805402
0.600216
-0.437565
-0.857964
-0.998306
-1.123544
-1.166339
-1.231160
-1.288429
-1.329965
-0.910508
-0.062471
0.542011
0.761652
0.919932
1.218240
1.569413
2.041104
2.431296
2.461505
2.018765
1.225167
0.584500
0.467758
0.828056
1.462432
2.122926
2.232117
1.764832
1.204091
0.996409
1.311710
1.858922
2.363969
2.507459
2.178944
1.602784
1.283394
1.380313
1.611597
1.894801
2.173914
2.408659
2.774936
3.301695
3.806427
4.216128
4.405246
4.330670
4.102534
3.902405
3.783775
3.799824
3.882898
3.749793
3.491450
3.189996
2.672994
1.838489
0.958043
0.500198
0.604984
0.955842
1.424702
1.860521
2.046492
2.008732
1.865558
1.783115
1.709169
1.676444
1.519424
1.525404
1.544914
1.235594
0.823377
0.340988
-0.102696
-0.693331
-1.452001
-2.270457
-3.062481
-3.806046
-4.380004
-4.488879
-3.971246
-3.188345
-2.504251
-1.854142
-1.371437
-1.248715
-1.357275
-1.529399
-1.831167
-2.125698
-2.417081
-2.834333
-3.270780
-3.626357
-3.902636
-3.997351
-3.778969
-3.532267
-3.495450
-3.418040
-2.979704
-2.373019
-1.674765
-0.754353
-0.068686
-0.058301
-0.600792
-1.349077
-1.973382
-2.208440
-2.091696
-1.940654
-1.981560
-1.995405
-1.783631
-1.234216
-0.239857
0.912466
1.765538
2.115767
2.022310
1.476673
0.663251
-0.129717
-1.079076
-2.221958
-3.124431
-3.578500
-3.730484
-3.580701
-3.146140
-2.499492
-1.614953
-0.759049
0.019131
0.636515
0.781264
0.594351
0.327511
-0.045372
-0.612722
-1.142941
-1.459498
-1.552640
-1.261569
-0.688554
-0.265321
-0.008550
0.382586
0.856480
1.265553
1.519807
1.916607
2.506300
2.710207
2.233168
1.163604
-0.345553
-1.484974
-1.422039
-0.467643
0.850511
1.913154
2.532111
2.888633
3.060129
2.940240
2.395232
1.809317
1.524227
1.345810
1.023273
0.640320
0.213314
-0.182226
-0.287325
0.044024
0.570782
0.993071
1.531158
2.454715
3.607039
4.698001
5.425520
5.980284
6.570921
7.072191
7.292461
7.173517
6.777977
6.430267
6.529075
6.832103
6.847837
6.459535
5.846243
5.015515
4.035003
3.075260
2.304004
1.672147
1.026129
0.172115
-0.879197
-2.075573
-3.494105
-4.946308
-5.785532
-5.438765
-3.985302
-2.300872
-0.989955
0.296733
1.623069
2.639140
3.055134
2.757457
1.577130
-0.196036
-2.157060
-4.049801
-5.314145
-5.725104
-5.230756
-4.139793
-3.298679
-2.696085
-2.208345
-2.145096
-2.512630
-3.532160
-5.135719
-6.673827
-7.518715
-7.490080
-7.086357
-6.565577
-5.878021
-5.313188
-4.805938
-4.220966
-3.710884
-3.522396
-3.942480
-5.042252
-6.773567
-8.414256
-9.427494
-9.985403
-9.778664
-8.950766
-8.080073
-7.789002
-8.141117
-8.674168
-9.190226
-9.389726
-9.315463
-9.272982
-9.308224
-9.281476
-9.126028
-8.454521
-7.350657
-6.308783
-5.792723
-6.057360
-6.819176
-7.835875
-8.543253
-8.294348
-7.182302
-5.811913
-4.848077
-4.797100
-5.415426
-6.490338
-7.661540
-8.603662
-9.438482
-10.327739
-11.262309
-11.633304
-11.594284
-11.256328
-10.460526
-9.385926
-7.847817
-6.111781
-4.531506
-3.206429
-2.381677
-1.840129
-1.439238
-1.032683
-0.835070
-1.330674
-2.060079
-2.703894
-3.297361
-3.808385
-4.035576
-4.006940
-3.923237
-4.050363
-4.305560
-4.453139
-4.525827
-4.315627
-3.923232
-3.271235
-2.419736
-1.698196
-1.327199
-0.977600
-0.338819
0.864796
2.840296
4.737444
6.223003
6.830947
6.565995
6.139303
5.941062
6.295696
6.717984
6.684315
6.371219
5.957114
5.518464
5.378752
5.683039
6.583626
7.723362
8.672408
9.338881
9.770924
9.779421
9.431711
9.181549
9.575202
10.619593
11.470462
12.113020
12.389931
12.484332
12.688869
12.829842
12.666844
12.070859
11.338622
10.842388
10.747988
10.806517
10.740122
10.313116
9.351799
7.958125
6.571374
5.631455
5.174869
5.234343
5.586774
5.886027
5.876273
5.089912
3.970317
2.928759
2.496403
2.586399
2.967780
3.574151
3.914310
3.872460
3.394476
2.901704
2.618816
2.699058
2.902335
2.975340
2.790000
2.277088
1.629183
0.926525
-0.037624
-1.067224
-1.829984
-2.189022
-2.041441
-1.662892
-1.408008
-1.265462
-1.336891
-1.667923
-1.595234
-1.228957
-0.408925
0.427469
1.151841
1.931595
2.318640
2.508072
2.366157
1.938206
1.174502
0.189585
-0.936934
-2.058732
-2.943270
-3.494886
-3.624844
-3.171403
-2.299451
-1.513089
-1.172930
-1.247191
-1.467460
-1.547385
-1.135796
-0.285871
0.817049
1.930353
2.932264
3.664503
4.129586
4.268671
3.932290
3.082681
1.902039
0.502701
-0.979080
-2.107172
-2.729275
-2.766090
-2.283071
-1.597403
-1.193051
-1.269201
-1.673551
-2.231146
-2.823355
-3.247529
-3.362068
-3.012784
-2.145237
-1.032562
0.135494
1.099960
1.694372
1.896077
1.773042
1.471903
0.964026
0.432863
0.006486
-0.354440
-0.543241
-0.671311
-0.693967
-0.591069
-0.501387
-0.559285
-0.776722
-0.904477
-0.918951
-0.927761
-0.738643
-0.369534
-0.072485
0.119779
0.077300
-0.055176
-0.265375
-0.553926
-0.831465
-1.103339
-1.279554
-1.619082
-2.232688
-2.966498
-3.679855
-4.292517
-4.861440
-5.245022
-5.271768
-5.004613
-4.507748
-3.993890
-3.580413
-3.210045
-2.894115
-2.572522
-2.154009
-1.657774
-1.178215
-0.647051
-0.069316
0.375314
0.636491
0.598102
0.177074
-0.596699
-1.446623
-1.763495
-1.177263
0.007156
1.217064
1.978252
2.020419
1.766796
1.580512
1.557856
1.633063
1.436710
0.847333
-0.127515
-1.138864
-1.812572
-2.119689
-2.149268
-2.001372
-1.751837
-1.585376
-1.579711
-1.542894
-1.381782
-1.070887
-0.734504
-0.533114
-0.410392
-0.408503
-0.414166
-0.469862
-0.487483
-0.430527
-0.291756
-0.125295
-0.056067
0.163889
0.515061
0.976998
1.463794
1.861852
2.015727
2.005658
1.875700
1.640642
1.442716
1.473239
1.963182
2.739474
3.988086
5.202085
5.575599
5.167788
4.028367
2.480505
0.874744
-0.482428
-1.521468
-2.235140
-2.531873
-2.499461
-2.204614
-1.865714
-1.662751
-1.665896
-1.666525
-1.630022
-1.602331
-1.653306
-1.793019
-1.765013
-1.335172
-0.649190
0.063853
0.600367
0.847698
0.899934
0.786025
0.453419
-0.367240
-1.517674
-2.627830
-3.245527
-3.183536
-2.812539
-2.499441
-2.042854
-1.517668
-1.270022
-1.296768
-1.620878
-2.205849
-3.057031
-4.020551
-4.763172
-5.084764
-5.018997
-4.558319
-3.776362
-2.813156
-1.729116
-0.524872
0.505988
0.989952
0.781011
0.018252
-0.848979
-1.733831
-2.497849
-3.007614
-3.107364
-2.517042
-1.592225
-0.446510
0.658927
1.390537
1.645420
1.353092
0.564215
-0.463812
-1.454078
-2.245788
-2.499097
-2.580595
-2.559826
-2.534652
-2.643842
-2.815336
-2.995956
-3.077770
-3.248635
-3.517048
-4.073384
-4.810655
-5.269129
-5.432128
-5.274162
-4.838029
-4.192954
-3.390229
-2.714946
-2.022041
-1.337947
-0.810874
-0.348623
0.197016
0.695455
1.151727
1.644817
2.169058
2.742388
3.281419
3.681680
3.699932
3.407604
2.776691
1.880511
0.909754
0.139442
-0.179318
0.006653
0.569284
1.272888
1.848106
2.178195
2.297771
2.212496
2.075301
2.058309
2.267880
2.581293
2.760656
2.562414
2.021182
1.380200
0.891832
0.658033
0.858164
1.489394
2.306278
3.055824
3.597687
3.889072
3.798762
3.370497
2.791819
2.276705
1.673168
0.823874
-0.070733
-0.678045
-0.729965
-0.423790
-0.023529
0.409458
0.597317
0.521797
0.284222
0.063639
-0.253233
-0.651605
-1.330663
-2.177440
-2.757376
-3.157006
-3.270602
-3.116098
-2.802056
-2.458750
-2.131177
-2.353963
-2.768698
-3.081794
-3.125847
-2.874110
-2.587130
-2.352070
-2.120472
-1.779369
-1.432601
-1.154432
-0.953672
-0.557501
-0.420619
0.004816
0.615592
1.157455
1.594533
1.684529
1.962384
2.560258
3.407036
4.232732
4.777427
4.850117
4.505239
3.835936
3.166004
2.801617
2.840951
3.094576
3.259149
3.224222
2.899483
2.315456
1.594547
0.890945
0.367649
0.039764
-0.155016
-0.290953
-0.334691
-0.279938
-0.181760
0.006099
0.202139
0.304723
0.284270
0.225427
0.334619
0.697434
1.286183
1.984437
2.458017
2.586718
2.492317
2.426867
2.604656
2.959920
3.372768
3.686810
3.699712
3.302599
2.482569
1.385629
0.129467
-1.078866
-2.053714
-2.843850
-3.365573
-3.616679
-3.584267
-3.324663
-2.958701
-2.616339
-2.355476
-2.111921
-1.791900
-1.406114
-1.142734
-1.205982
-1.531980
-1.933498
-2.326206
-2.790973
-3.307346
-3.695963
-3.978850
-4.124542
-4.185273
-3.915599
-3.580475
-3.211995
-2.681460
-2.059356
-1.310755
-0.665995
-0.136719
0.185504
0.329309
0.205645
-0.044832
-0.338104
-0.493235
-0.339676
0.177014
1.072566
2.107517
3.078905
3.874078
4.604428
5.289781
5.916919
6.427630
6.685031
6.509760
5.846436
4.958123
4.183720
3.785034
3.803286
4.001843
4.276237
4.546854
4.697267
4.679332
4.576121
4.478574
4.308967
4.168310
4.179325
4.308026
4.532072
4.895202
5.390179
5.809635
5.902778
5.964140
6.042494
6.091898
6.406883
6.496250
6.122423
5.387983
4.378837
3.393920
2.678046
2.349531
2.409948
2.805490
3.142817
3.162327
2.785982
2.272441
1.870294
1.692820
1.768657
2.100949
2.671447
3.263972
3.832582
4.255500
4.407486
4.079286
3.357119
2.395172
1.478539
0.537676
-0.246167
-0.992564
-1.927134
-2.632624
-3.300668
-3.702501
-4.037309
-4.295653
-4.385648
-4.295022
-4.031957
-3.928744
-3.943218
-4.020312
-3.915211
-3.480021
-2.840296
-2.236128
-1.944113
-1.971174
-2.030646
-2.081936
-2.232977
-2.493209
-2.884973
-3.334321
-3.722938
-3.976247
-3.991035
-3.969637
-3.912366
-3.800972
-3.729541
-3.822368
-4.109976
-4.370522
-4.464293
-4.444782
-4.431880
-4.436914
-4.401041
