EVENT_NAME: 202302060117
EVENT_ID: 13194
EVENT_DATE_YYYYMMDD: 2023/02/06
EVENT_TIME_HHMMSS: 01:17:32.00000
EVENT_LATITUDE_DEGREE: 37.288
EVENT_LONGITUDE_DEGREE: 37.043
EVENT_DEPTH_KM: 8.6
HYPOCENTER_REFERENCE: AFAD
MAGNITUDE_W: 7.7
MAGNITUDE_W_REFERENCE: AFAD
MAGNITUDE_L: 
MAGNITUDE_L_REFERENCE: 
FOCAL_MECHANISM: 
NETWORK: TK
STATION_CODE: 5806
STATION_NAME: 
STATION_LATITUDE_DEGREE: 40.30028
STATION_LONGITUDE_DEGREE: 37.82522
STATION_ELEVATION_M: 856.0
LOCATION: Kahramanmaras_Pazarck_Turkiye
SENSOR_DEPTH_M: 
VS30_M/S: 320
SITE_CLASSIFICATION_EC8: C
MORPHOLOGIC_CLASSIFICATION: 
EPICENTRAL_DISTANCE_KM: 341.74
EARTHQUAKE_BACKAZIMUTH_DEGREE: 
DATE_TIME_FIRST_SAMPLE_YYYYMMDD_HHMMSS: 2023/02/06 01:17:58.2547580
DATE_TIME_FIRST_SAMPLE_PRECISION: millisecond
SAMPLING_INTERVAL_S: 0.01
NDATA: 18251
DURATION_S: 
STREAM: HNN
UNITS: cm/s^2
INSTRUMENT: sensor = CMG-5T/GURALP | digitizer = 
INSTRUMENT_ANALOG/DIGITAL: 
INSTRUMENTAL_FREQUENCY_HZ: 
INSTRUMENTAL_DAMPING: 
FULL_SCALE_G: 
N_BIT_DIGITAL_CONVERTER: 
PGA_CM/S^2: 5.620
TIME_PGA_S: 
BASELINE_CORRECTION: BASELINE REMOVED
FILTER_TYPE: BUTTERWORTH
FILTER_ORDER: 
LOW_CUT_FREQUENCY_HZ: 
HIGH_CUT_FREQUENCY_HZ: 
LATE/NORMAL_TRIGGERED: 
DATABASE_VERSION: 
HEADER_FORMAT: DYNA 1.2
DATA_TYPE: Acceleration
PROCESSING: Automatic Paolucci et al., 2011
DATA_TIMESTAMP_YYYYMMDD_HHMMSS: 
DATA_LICENSE: U (unknown license)
DATA_CITATION: Turkish Accelerometric Archive v 1.0 - Disaster And Emergency Management Presidency, Earthquake Department
DATA_CREATOR: AFAD
ORIGINAL_DATA_MEDIATOR_CITATION: : AFAD - Disaster And Emergency Management Presidency
ORIGINAL_DATA_MEDIATOR: AFAD PROCESS SERVICE
ORIGINAL_DATA_CREATOR_CITATION: AFAD PROCESS SERVICE
ORIGINAL_DATA_CREATOR: network: TK
USER1: GuestUser
USER2: 
USER3: 
USER4: 
USER5: 
[...]
0.226326
0.020761
-0.139542
-0.236666
-0.258040
-0.223151
-0.153058
-0.075421
-0.021044
0.013531
0.031133
0.036791
0.021075
-0.003128
-0.035503
-0.071964
-0.101196
-0.100253
-0.073221
0.008187
0.128886
0.280702
0.443205
0.603193
0.755323
0.900539
1.039782
1.168653
1.288723
1.382704
1.450911
1.477628
1.455312
1.361016
1.209199
1.000177
0.775125
0.561073
0.407371
0.307418
0.268128
0.274100
0.304274
0.339478
0.386940
0.415543
0.436288
0.407999
0.314646
0.181061
0.014157
-0.160290
-0.317450
-0.467066
-0.580535
-0.652200
-0.666659
-0.641199
-0.605681
-0.564819
-0.508242
-0.440035
-0.362398
-0.270617
-0.216869
-0.206496
-0.227870
-0.256159
-0.266217
-0.243900
-0.224727
-0.190466
-0.153691
-0.114087
-0.078569
-0.042737
0.008183
0.114109
0.281326
0.507322
0.769464
1.013375
1.201652
1.328323
1.385215
1.394958
1.366041
1.310092
1.245028
1.192851
1.151361
1.155761
1.215482
1.310720
1.420418
1.528543
1.628811
1.725621
1.810487
1.879952
1.943758
2.000650
2.060685
2.125120
2.174154
2.184841
2.182326
2.173840
2.183898
2.223816
2.262477
2.275993
2.262477
2.224759
2.160638
2.068542
1.947215
1.802942
1.628495
1.445247
1.284944
1.147901
1.032546
0.928506
0.826352
0.753430
0.730485
0.737714
0.770717
0.800263
0.797749
0.768517
0.728913
0.694652
0.707225
0.746514
0.834524
0.956479
1.106724
1.251625
1.375467
1.454046
1.511567
1.550542
1.570658
1.557457
1.509680
1.444302
1.377980
1.299715
1.210448
1.114581
1.042916
1.015884
1.047945
1.107980
1.201647
1.299086
1.351891
1.406583
1.409726
1.365721
1.265768
1.124010
0.930703
0.724824
0.495685
0.289492
0.097129
-0.061917
-0.167214
-0.256166
-0.322488
-0.351405
-0.348891
-0.320288
-0.276283
-0.221592
-0.173501
-0.118809
-0.091464
-0.119753
-0.195818
-0.329404
-0.467704
-0.601604
-0.717274
-0.803397
-0.850231
-0.862489
-0.829486
-0.783910
-0.703758
-0.578345
-0.428101
-0.262454
-0.105609
0.009746
0.089897
0.136416
0.151189
0.170677
0.190793
0.211853
0.239513
0.274402
0.317464
0.383156
0.440991
0.487510
0.497254
0.473994
0.411130
0.293575
0.127614
-0.044004
-0.225366
-0.377811
-0.485308
-0.543772
-0.547229
-0.502282
-0.446647
-0.377183
-0.301432
-0.241083
-0.184820
-0.138929
-0.084552
0.006286
0.153701
0.346379
0.572060
0.791455
0.992619
1.137520
1.218614
1.235273
1.210442
1.160779
1.125890
1.086914
1.045424
0.993247
0.911524
0.817542
0.733619
0.661011
0.593118
0.525540
0.456704
0.409241
0.402012
0.435958
0.499136
0.563572
0.601604
0.623921
0.615434
0.567029
0.463618
0.308973
0.113466
-0.099328
-0.310550
-0.485626
-0.626127
-0.750912
-0.855266
-0.956477
-1.046058
-1.121809
-1.176186
-1.210132
-1.225848
-1.242507
-1.247851
-1.260738
-1.303800
-1.409097
-1.559341
-1.718073
-1.837828
-1.917351
-1.966071
-2.011961
-2.073882
-2.146176
-2.199296
-2.230099
-2.238271
-2.239214
-2.234500
-2.200239
-2.131089
-2.042765
-1.938726
-1.833743
-1.714302
-1.574116
-1.438959
-1.306316
-1.181531
-1.045431
-0.883557
-0.685850
-0.480914
-0.281007
-0.132020
-0.033953
0.003137
-0.007550
-0.053441
-0.108761
-0.183255
-0.250519
-0.320612
-0.386305
-0.437539
-0.465514
-0.458913
-0.414908
-0.345758
-0.273779
-0.219717
-0.208087
-0.239204
-0.310241
-0.404536
-0.501347
-0.593442
-0.692767
-0.783920
-0.882616
-0.992942
-1.113012
-1.237797
-1.355981
-1.470079
-1.580719
-1.699532
-1.829660
-1.966389
-2.080487
-2.148066
-2.144923
-2.073572
-1.951931
-1.790057
-1.586378
-1.370126
-1.151989
-0.975342
-0.854015
-0.794294
-0.770092
-0.760976
-0.742117
-0.721058
-0.716972
-0.746204
-0.812839
-0.903678
-1.008346
-1.117415
-1.216425
-1.297520
-1.357555
-1.393702
-1.435820
-1.497113
-1.579464
-1.672189
-1.758941
-1.828091
-1.870524
-1.906042
-1.947847
-1.996881
-1.996881
-1.954762
-1.829035
-1.681933
-1.496171
-1.246287
-0.976916
-0.666997
-0.391654
-0.110652
0.091455
0.255215
0.330966
0.344167
0.324993
0.275645
0.184178
0.079196
-0.015414
-0.103424
-0.206835
-0.359280
-0.562016
-0.800270
-1.055811
-1.311667
-1.573809
-1.845695
-2.139584
-2.461447
-2.770108
-3.027536
-3.198525
-3.276162
-3.276162
-3.223985
-3.130318
-3.007105
-2.868176
-2.719818
-2.588432
-2.485336
-2.402670
-2.343892
-2.303345
-2.260912
-2.202135
-2.121983
-2.034288
-1.942822
-1.850412
-1.758316
-1.664335
-1.585441
-1.504032
-1.385849
-1.221145
-1.047641
-0.902112
-0.805930
-0.738352
-0.676431
-0.590622
-0.463008
-0.264673
0.002813
0.341649
0.732033
1.176166
1.643244
2.128238
2.603174
3.055479
3.470381
3.833733
4.126993
4.342302
4.481231
4.572069
4.624560
4.644362
4.622674
4.553209
4.448855
4.310555
4.149309
3.973290
3.782813
3.564990
3.324850
3.060822
2.787678
2.498504
2.190472
1.863265
1.528830
1.180250
0.840785
0.520179
0.258352
0.021355
-0.136748
-0.258389
-0.350171
-0.397947
-0.423407
-0.460182
-0.561079
-0.653803
-0.734269
-0.771673
-0.786760
-0.771359
-0.805620
-0.802791
-0.804363
-0.704095
-0.589054
-0.484072
-0.358658
-0.250847
-0.089916
0.060957
0.175055
0.224403
0.317442
0.392564
0.452284
0.484031
0.413309
0.313355
0.181655
0.054356
-0.055341
-0.123549
-0.198042
-0.234504
-0.236390
-0.182955
-0.045598
0.067871
0.212458
0.417708
0.648418
0.922819
1.311317
1.709874
2.167837
2.640258
3.105765
3.519409
3.877418
4.156848
4.369642
4.493483
4.561062
4.573006
4.513285
4.403902
4.252715
4.067266
3.877103
3.702656
3.563412
3.459058
3.384879
3.333016
3.289955
3.213889
3.108278
2.943889
2.738010
2.489698
2.237299
1.983329
1.747590
1.493620
1.259767
1.002339
0.767228
0.534946
0.327496
0.157449
0.032664
-0.024856
-0.066346
-0.071690
-0.113494
-0.082691
-0.107522
-0.130782
-0.165043
-0.222249
-0.292657
-0.305544
-0.253053
-0.125439
0.078240
0.281604
0.584922
0.830719
1.072431
1.319171
1.483560
1.638833
1.764247
1.865457
1.933979
1.999043
2.064107
2.128542
2.170975
2.212780
2.259299
2.308647
2.298274
2.290730
2.224723
2.158716
2.103710
2.015701
1.894059
1.750730
1.557109
1.334571
1.145665
0.933500
0.755595
0.594978
0.495339
0.418645
0.370239
0.307376
0.248598
0.219366
0.235711
0.264942
0.289459
0.286630
0.280344
0.262113
0.224709
0.149587
0.048690
-0.054721
-0.143673
-0.205594
-0.293918
-0.400472
-0.521799
-0.622382
-0.736794
-0.806573
-0.925700
-1.014338
-1.072801
-1.071544
-1.014338
-0.902441
-0.775770
-0.659786
-0.524944
-0.362126
-0.184222
0.000598
0.200505
0.383753
0.583031
0.752763
0.915895
0.953927
0.941669
0.874090
0.770679
0.681412
0.586174
0.490620
0.410783
0.322774
0.218106
0.141726
0.063146
-0.017948
-0.094014
-0.196482
-0.339811
-0.464910
-0.621756
-0.804061
-0.986995
-1.175586
-1.382723
-1.574772
-1.763678
-1.947240
-2.079883
-2.175122
-2.272561
-2.367171
-2.470582
-2.582794
-2.701921
-2.811933
-2.924145
-3.017183
-3.058988
-3.055216
-3.030385
-2.966578
-2.866939
-2.740897
-2.576508
-2.388231
-2.193039
-1.980245
-1.751735
-1.536427
-1.341549
-1.144785
-0.968766
-0.805949
-0.663248
-0.573039
-0.531234
-0.521176
-0.545065
-0.591270
-0.630874
-0.661049
-0.708825
-0.791177
-0.892073
-1.036346
-1.191934
-1.364181
-1.536114
-1.696731
-1.834717
-1.973332
-2.106917
-2.210957
-2.286394
-2.333542
-2.350829
-2.366545
-2.383204
-2.404264
-2.458012
-2.529992
-2.604800
-2.698467
-2.811622
-2.937350
-3.063077
-3.161459
-3.230295
-3.240668
-3.202007
-3.116512
-2.962496
-2.756617
-2.512391
-2.229504
-1.934987
-1.628840
-1.310749
-1.004288
-0.699398
-0.380050
-0.060074
0.258960
0.579251
0.886341
1.184001
1.465317
1.724001
1.986143
2.269345
2.583978
2.923757
3.253792
3.551452
3.823338
4.061278
4.286016
4.487180
4.644025
4.729520
4.751522
4.732034
4.732034
4.771953
4.867506
4.987261
5.103245
5.181825
5.228344
5.226143
5.173023
5.044781
4.852103
4.590276
4.284443
3.943721
3.569681
3.169867
2.758109
2.335978
1.944022
1.597957
1.269179
1.000750
0.749924
0.556303
0.317106
0.106198
-0.140228
-0.401428
-0.669228
-0.860962
-1.053326
-1.202942
-1.336527
-1.452825
-1.609042
-1.727855
-1.886900
-2.013257
-2.177331
-2.282000
-2.308717
-2.355865
-2.348007
-2.362151
-2.336692
-2.367181
-2.347379
-2.316261
-2.209393
-2.060720
-1.865213
-1.634189
-1.412594
-1.205772
-1.007751
-0.848391
-0.673944
-0.468065
-0.259986
-0.041220
0.161201
0.363308
0.557243
0.728233
0.842959
0.914624
1.006719
1.100701
1.191539
1.313809
1.380130
1.368186
1.303750
1.214169
1.119874
1.038465
0.943226
0.844215
0.736404
0.615077
0.458860
0.287242
0.069104
-0.137718
-0.310908
-0.450151
-0.540990
-0.592224
-0.580280
-0.511130
-0.420291
-0.284820
-0.117917
0.054330
0.236635
0.391280
0.523294
0.645250
0.751175
0.828184
0.868416
0.873445
0.850500
0.828812
0.809953
0.745203
0.667880
0.560383
0.464830
0.379335
0.329987
0.277496
0.239149
0.215889
0.206774
0.174713
0.171884
0.143595
0.086389
0.018810
-0.074228
-0.166952
-0.287651
-0.452354
-0.639689
-0.873542
-1.138828
-1.396884
-1.627594
-1.835673
-1.987175
-2.093101
-2.173567
-2.234859
-2.315325
-2.431937
-2.555150
-2.660447
-2.746571
-2.787747
-2.789633
-2.773602
-2.743742
-2.717968
-2.690308
-2.679936
-2.690308
-2.707596
-2.721426
-2.721112
-2.675221
-2.615186
-2.535978
-2.422194
-2.298667
-2.158795
-1.978376
-1.797643
-1.601193
-1.388399
-1.193522
-0.998958
-0.820111
-0.673009
-0.551682
-0.449843
-0.362462
-0.259994
-0.158155
-0.034942
0.087014
0.207712
0.330925
0.447223
0.536490
0.619784
0.674790
0.715652
0.748655
0.750541
0.693335
0.623870
0.500657
0.365500
0.212112
0.037036
-0.149355
-0.313744
-0.439472
-0.514280
-0.546026
-0.540054
-0.509565
-0.473733
-0.452360
-0.458017
-0.499508
-0.574944
-0.675212
-0.797168
-0.913466
-1.043280
-1.191639
-1.359485
-1.533618
-1.708065
-1.841965
-1.936261
-1.983723
-1.977437
-1.928718
-1.850452
-1.744527
-1.632001
-1.515703
-1.397204
-1.282792
-1.172781
-1.049568
-0.924469
-0.774224
-0.608578
-0.418415
-0.213165
-0.012315
0.192621
0.387813
0.569489
0.717219
0.815287
0.861806
0.861177
0.823773
0.760281
0.685473
0.601549
0.511654
0.415787
0.314576
0.205193
0.087952
-0.033061
-0.168533
-0.318149
-0.466508
-0.611723
-0.737765
-0.858464
-0.968161
-1.059628
-1.116834
-1.157067
-1.171840
-1.185042
-1.184099
-1.169955
-1.147324
-1.118721
-1.091375
-1.072830
-1.065915
-1.068430
-1.069687
-1.071888
-1.086975
-1.098291
-1.096090
-1.074402
-1.050829
-1.021597
-0.988594
-0.949932
-0.915986
-0.874810
-0.836778
-0.800002
-0.761970
-0.695649
-0.620841
-0.518058
-0.420934
-0.333868
-0.259688
-0.210655
-0.178280
-0.149363
-0.133332
-0.116359
-0.094043
-0.065754
-0.022064
0.030428
0.103035
0.185387
0.271824
0.363920
0.469531
0.588344
0.718472
0.819682
0.890404
0.935666
0.949810
0.957039
0.977784
1.006702
1.046306
1.091253
1.125200
1.144373
1.159146
1.174862
1.204408
1.262871
1.333279
1.401171
1.440461
1.457120
1.460892
1.442033
1.389541
1.290531
1.141229
0.955152
0.746444
0.554081
0.377433
0.206129
0.043312
-0.114791
-0.265664
-0.436654
-0.645362
-0.886759
-1.130042
-1.354780
-1.570089
-1.788226
-2.004478
-2.227016
-2.427237
-2.594769
-2.737470
-2.851254
-2.934549
-3.003385
-3.044875
-3.092023
-3.138542
-3.187576
-3.237553
-3.258298
-3.249811
-3.223409
-3.175946
-3.129427
-3.078193
-3.006843
-2.927949
-2.826738
-2.704154
-2.572769
-2.409637
-2.218531
-2.004794
-1.759940
-1.507541
-1.248543
-0.999602
-0.776121
-0.591930
-0.434142
-0.316587
-0.223863
-0.143711
-0.054445
0.057138
0.187895
0.324624
0.482726
0.661259
0.857709
1.078989
1.299956
1.515893
1.725858
1.900619
2.037662
2.158361
2.260829
2.340037
2.404158
2.450049
2.477394
2.488710
2.482423
2.457592
2.419245
2.384041
2.360153
2.340036
2.305147
2.236311
2.132586
2.010944
1.889617
1.761060
1.644448
1.524692
1.413109
1.322899
1.256578
1.193399
1.152538
1.123306
1.099732
1.062014
0.997578
0.879080
0.734807
0.571676
0.419859
0.309848
0.223095
0.164003
0.140744
0.139486
0.140744
0.166203
0.152059
0.136971
0.093281
0.053991
0.012187
-0.030561
-0.088710
-0.153145
-0.246184
-0.322249
-0.386056
-0.468722
-0.529700
-0.585335
-0.654171
-0.713891
-0.762611
-0.814474
-0.851249
-0.865708
-0.845906
-0.774241
-0.665172
-0.536302
-0.405231
-0.284218
-0.173578
-0.069538
0.022243
0.140113
0.273698
0.412627
0.579531
0.741719
0.900136
1.047866
1.176737
1.283919
1.394560
1.481940
1.566806
1.646958
1.709507
1.755398
1.785886
1.802231
1.812289
1.815747
1.793744
1.729309
1.602009
1.428505
1.215397
0.967084
0.702742
0.450658
0.215862
0.018783
-0.153778
-0.277620
-0.376002
-0.453639
-0.509273
-0.517131
-0.507073
-0.449553
-0.355571
-0.238959
-0.095630
0.050529
0.166198
0.257036
0.323043
0.334673
0.312042
0.238491
0.126279
-0.012964
-0.155665
-0.301824
-0.431638
-0.545421
-0.604828
-0.635002
-0.629659
-0.612057
-0.585340
-0.544164
-0.468728
-0.386376
-0.304025
-0.229846
-0.167925
-0.122663
-0.083373
-0.054141
-0.027424
0.023810
0.104275
0.208000
0.321784
0.422366
0.502832
0.573868
0.633588
0.672564
0.688280
0.685451
0.636102
0.544007
0.434938
0.299781
0.152994
0.028209
-0.070173
-0.135237
-0.151896
-0.116378
-0.022711
0.131619
0.333098
0.572923
0.842923
1.114495
1.375694
1.632178
1.887720
2.147662
2.411690
2.678861
2.976521
3.290526
3.616789
3.941166
4.262086
4.575462
4.868722
5.135893
5.363145
5.526277
5.615229
5.619944
5.552051
5.417208
5.215101
4.979676
4.734507
4.471421
4.189791
3.904390
3.604215
3.294610
2.983120
2.686088
2.382770
2.073166
1.758532
1.443270
1.149068
0.916786
0.687018
0.570406
0.468566
0.368298
0.312035
0.302606
0.317379
0.324608
0.327751
0.327122
0.289404
0.238798
0.175306
0.047692
-0.149700
-0.377896
-0.654183
-0.934555
-1.214299
-1.396605
-1.534905
-1.538991
-1.461983
-1.343485
-1.184754
-1.021308
-0.844346
-0.698817
-0.570889
-0.473450
-0.416244
-0.378840
-0.329806
-0.283916
-0.212251
-0.137443
-0.049434
0.038575
0.110240
0.172475
0.234710
0.236910
0.265199
0.252626
0.224337
0.208936
0.188505
0.197934
0.157701
0.132241
0.075350
-0.066408
-0.233626
-0.447992
-0.617724
-0.831461
-0.983906
-1.136037
-1.258307
-1.364233
-1.427725
-1.464186
-1.472044
-1.429611
-1.382778
-1.341288
-1.294454
-1.265223
-1.313942
-1.395037
-1.538366
-1.714071
-1.881917
-2.018960
-2.102884
-2.101626
-2.040649
-1.923408
-1.770334
-1.600288
-1.413897
-1.212104
-0.995538
-0.771429
-0.560206
-0.358099
-0.147505
0.037629
0.217105
0.389352
0.532367
0.660923
0.762448
0.847000
0.910178
0.953240
0.965812
0.960154
0.946639
0.930294
0.898233
0.869002
0.836312
0.808652
0.783507
0.794508
0.816196
0.845742
0.897290
0.973984
1.066708
1.183006
1.313448
1.401457
1.451748
1.462749
1.423145
1.314391
1.157860
0.969897
0.777533
0.594285
0.426439
0.263936
0.106462
-0.047555
-0.191513
-0.327299
-0.434482
-0.502689
-0.510547
-0.460570
-0.376333
-0.251863
-0.105704
0.034482
0.177811
0.337800
0.450012
0.532677
0.548393
0.485844
0.388719
0.260477
0.095773
-0.092504
-0.280467
-0.452085
-0.599186
-0.692539
-0.742830
-0.740316
-0.686567
-0.563669
-0.415939
-0.254379
-0.064530
0.110546
0.278392
0.430208
0.559393
0.675691
0.794189
0.892257
0.993467
1.089649
1.191174
1.298985
1.406168
1.497635
1.553269
1.571185
1.555784
1.507064
1.410254
1.282012
1.137110
1.001639
0.883455
0.778158
0.665946
0.535818
0.383058
0.230928
0.095456
-0.007012
-0.098165
-0.182088
-0.269154
-0.369736
-0.509294
-0.679655
-0.868247
-1.060296
-1.239458
-1.413905
-1.584895
-1.742683
-1.896071
-2.042858
-2.167328
-2.279226
-2.368807
-2.416269
-2.424442
-2.403382
-2.361578
-2.321031
-2.272312
-2.218249
-2.142812
-2.052917
-1.959564
-1.839494
-1.693022
-1.532090
-1.365816
-1.223744
-1.105560
-0.997120
-0.916654
-0.882079
-0.884279
-0.918854
-0.969774
-1.007807
-1.042382
-1.044582
-1.023837
-0.993349
-0.949030
-0.881765
-0.817016
-0.763267
-0.753209
-0.778669
-0.842162
-0.927342
-1.013466
-1.102104
-1.179112
-1.224060
-1.230660
-1.213687
-1.198286
-1.191685
-1.182884
-1.149881
-1.125050
-1.128193
-1.141080
-1.156482
-1.153339
-1.140766
-1.130708
-1.127565
-1.119078
-1.112163
-1.103991
-1.087332
-1.040813
-0.963805
-0.849078
-0.711407
-0.566506
-0.442350
-0.326052
-0.243072
-0.194981
-0.165435
-0.157891
-0.170464
-0.193095
-0.233642
-0.277962
-0.321966
-0.371000
-0.424434
-0.478497
-0.514959
-0.506472
-0.453981
-0.367543
-0.265075
-0.172351
-0.099743
-0.068312
-0.094714
-0.172980
-0.309395
-0.501444
-0.719267
-0.945262
-1.164657
-1.349477
-1.500036
-1.621992
-1.719431
-1.798011
-1.857103
-1.884448
-1.880991
-1.830071
-1.734204
-1.597475
-1.418314
-1.213378
-0.988011
-0.750071
-0.504274
-0.241189
0.030697
0.296297
0.563468
0.821838
1.068579
1.321291
1.575261
1.818858
2.059626
2.268334
2.450011
2.608113
2.726611
2.788218
2.815564
2.801419
2.767473
2.712781
2.656832
2.582967
2.490557
2.382431
2.278077
2.174352
2.087600
2.006505
1.931383
1.873548
1.832058
1.794025
1.752849
1.701301
1.630893
1.561743
1.487878
1.407098
1.330090
1.278227
1.241766
1.222278
1.210963
1.196818
1.169472
1.138983
1.099379
1.062918
1.019856
0.970508
0.895700
0.812091
0.719052
0.617527
0.489914
0.350041
0.187224
0.032265
-0.097549
-0.222334
-0.329203
-0.425070
-0.502392
-0.550798
-0.569028
-0.561170
-0.535082
-0.494221
-0.432614
-0.357492
-0.273569
-0.183674
-0.101322
-0.028086
0.039178
0.089784
0.129388
0.151705
0.136617
0.086640
0.010261
-0.081206
-0.161986
-0.212906
-0.236480
-0.236166
-0.222022
-0.194676
-0.146271
-0.069891
0.020947
0.135673
0.266430
0.417617
0.582635
0.745138
0.885638
1.014509
1.118549
1.206244
1.262821
1.293624
1.300853
1.294881
1.275708
1.257477
1.242704
1.229817
1.240504
1.251190
1.272564
1.284822
1.284194
1.252762
1.204357
1.126091
1.034624
0.911097
0.771853
0.615008
0.449990
0.273971
0.107382
-0.052606
-0.186821
-0.309091
-0.413445
-0.514656
-0.621839
-0.757939
-0.914470
-1.087660
-1.255506
-1.416752
-1.570140
-1.706869
-1.820967
-1.912434
-1.968068
-1.973412
-1.947009
-1.864029
-1.749617
-1.621375
-1.478674
-1.339745
-1.208045
-1.058744
-0.927044
-0.796916
-0.686904
-0.619326
-0.585694
-0.577836
-0.602981
-0.632842
-0.676532
-0.723994
-0.758884
-0.805403
-0.855380
-0.889955
-0.934589
-0.966335
-0.973564
-0.971050
-0.931446
-0.867639
-0.791888
-0.696964
-0.593867
-0.487942
-0.362843
-0.237744
-0.114531
0.004596
0.123094
0.240649
0.364177
0.496505
0.624119
0.754875
0.879974
0.996587
1.116971
1.212209
1.268787
1.308076
1.311534
1.305876
1.289846
1.262186
1.217867
1.177634
1.127657
1.095596
1.077051
1.077051
1.106597
1.148716
1.197121
1.263128
1.324106
1.369996
1.397028
1.383826
1.332278
1.244583
1.097167
0.906689
0.670007
0.369832
0.025024
-0.366932
-0.785605
-1.207422
-1.603464
-1.958644
-2.238703
-2.459983
-2.620286
-2.734699
-2.814221
-2.871742
-2.906317
-2.928634
-2.920776
-2.889658
-2.837796
-2.762988
-2.669635
-2.562452
-2.445526
-2.316969
-2.177097
-2.030939
-1.878180
-1.713477
-1.536515
-1.348867
-1.170962
-1.000287
-0.847214
-0.702627
-0.553640
