EVENT_NAME: 202302060117
EVENT_ID: 13194
EVENT_DATE_YYYYMMDD: 2023/02/06
EVENT_TIME_HHMMSS: 01:17:32.00000
EVENT_LATITUDE_DEGREE: 37.288
EVENT_LONGITUDE_DEGREE: 37.043
EVENT_DEPTH_KM: 8.6
HYPOCENTER_REFERENCE: AFAD
MAGNITUDE_W: 7.7
MAGNITUDE_W_REFERENCE: AFAD
MAGNITUDE_L: 
MAGNITUDE_L_REFERENCE: 
FOCAL_MECHANISM: 
NETWORK: TK
STATION_CODE: 0118
STATION_NAME: 
STATION_LATITUDE_DEGREE: 37.03616
STATION_LONGITUDE_DEGREE: 35.31843
STATION_ELEVATION_M: 76.0
LOCATION: Kahramanmaras_Pazarck_Turkiye
SENSOR_DEPTH_M: 
VS30_M/S: 946
SITE_CLASSIFICATION_EC8: A
MORPHOLOGIC_CLASSIFICATION: 
EPICENTRAL_DISTANCE_KM: 155.36
EARTHQUAKE_BACKAZIMUTH_DEGREE: 
DATE_TIME_FIRST_SAMPLE_YYYYMMDD_HHMMSS: 2023/02/06 01:17:38.8092230
DATE_TIME_FIRST_SAMPLE_PRECISION: millisecond
SAMPLING_INTERVAL_S: 0.01
NDATA: 13501
DURATION_S: 
STREAM: HNN
UNITS: cm/s^2
INSTRUMENT: sensor = CMG-5T/GURALP | digitizer = 
INSTRUMENT_ANALOG/DIGITAL: 
INSTRUMENTAL_FREQUENCY_HZ: 
INSTRUMENTAL_DAMPING: 
FULL_SCALE_G: 
N_BIT_DIGITAL_CONVERTER: 
PGA_CM/S^2: 50.100
TIME_PGA_S: 
BASELINE_CORRECTION: BASELINE REMOVED
FILTER_TYPE: BUTTERWORTH
FILTER_ORDER: 
LOW_CUT_FREQUENCY_HZ: 
HIGH_CUT_FREQUENCY_HZ: 
LATE/NORMAL_TRIGGERED: 
DATABASE_VERSION: 
HEADER_FORMAT: DYNA 1.2
DATA_TYPE: Acceleration
PROCESSING: Automatic Paolucci et al., 2011
DATA_TIMESTAMP_YYYYMMDD_HHMMSS: 
DATA_LICENSE: U (unknown license)
DATA_CITATION: Turkish Accelerometric Archive v 1.0 - Disaster And Emergency Management Presidency, Earthquake Department
DATA_CREATOR: AFAD
ORIGINAL_DATA_MEDIATOR_CITATION: : AFAD - Disaster And Emergency Management Presidency
ORIGINAL_DATA_MEDIATOR: AFAD PROCESS SERVICE
ORIGINAL_DATA_CREATOR_CITATION: AFAD PROCESS SERVICE
ORIGINAL_DATA_CREATOR: network: TK
USER1: GuestUser
USER2: 
USER3: 
USER4: 
USER5: 
[...]
-6.639889
-5.688955
-5.109180
-4.731741
-4.015091
-2.984914
-2.259494
-1.887693
-1.299461
-0.340383
0.559810
0.729587
0.220002
-0.429590
-0.832055
-1.055675
-1.503244
-2.263087
-3.303571
-4.287676
-4.985190
-4.901233
-4.064309
-3.224879
-2.808289
-2.865592
-2.747495
-2.187452
-1.876102
-2.230020
-2.967625
-3.383872
-3.137357
-2.621478
-2.216789
-1.731292
-0.774093
0.438062
1.319776
1.656496
1.691905
1.729505
1.853867
1.912766
1.792507
1.427940
1.040195
0.897071
1.089400
1.535432
2.051625
2.517390
2.921452
3.427621
4.108878
4.692725
4.926085
4.922341
4.824320
4.877582
5.318289
5.897751
6.021173
5.673833
5.501580
5.762816
6.120209
6.328511
6.309733
6.171934
6.011583
5.849040
5.861584
6.029168
5.970299
5.521164
4.865308
4.508885
4.555569
4.496700
4.172225
3.706803
3.489760
3.546780
3.636688
3.489492
3.087966
2.467190
1.743679
1.413253
1.401366
1.254170
0.640285
-0.273974
-1.178209
-1.805876
-1.928014
-1.667405
-1.471004
-1.574350
-1.703066
-1.447781
-0.840130
-0.185184
0.619166
1.669076
2.744044
3.375499
3.485139
3.664000
4.395371
5.472843
6.147836
6.100242
5.839036
5.885094
6.167942
6.367474
6.430759
6.598657
7.043123
7.386421
7.200387
6.631604
6.099155
5.879293
5.739614
5.494069
5.120106
4.593294
4.086528
3.840356
3.747347
3.341749
2.490134
1.662010
1.365724
1.688350
2.276268
2.828167
3.474031
4.112377
4.525209
4.656460
4.831562
5.385027
6.028072
6.337543
6.153701
5.409518
4.206476
2.978377
2.130207
1.761569
1.531058
1.168371
0.814140
0.599916
0.460238
0.364722
0.411406
0.708035
0.970524
0.721220
-0.024528
-0.720789
-0.789681
-0.389378
-0.089304
0.027540
0.362068
1.299221
2.667357
3.988198
5.042493
5.880357
6.525594
6.848846
6.910564
6.894292
6.875514
6.730198
6.173944
5.230244
4.134947
2.904969
1.612974
0.500451
-0.070524
-0.042006
0.071392
-0.237735
-0.978786
-1.592671
-1.567286
-0.901690
-0.121144
0.290121
0.502182
0.787536
1.117053
1.280879
1.069161
0.647589
0.485985
0.962086
1.845366
2.679159
3.397061
4.212687
5.339961
6.702772
8.051802
9.428708
10.874522
12.014637
12.549936
12.374864
11.824561
11.266741
10.966697
10.958881
10.970485
11.025000
11.279345
11.713788
11.778952
11.297556
10.635123
10.220128
10.038166
9.653553
9.012731
8.609326
8.895932
9.479779
9.635462
9.020950
8.079756
7.412310
6.962236
6.218053
5.168800
4.192212
3.391964
2.594221
1.761086
1.001242
0.086671
-1.093506
-2.358251
-3.509300
-4.562938
-5.321529
-5.765652
-6.164359
-6.625083
-7.185722
-7.729760
-8.206771
-8.855737
-9.788161
-10.549257
-10.668890
-10.320894
-10.113218
-10.239741
-10.416066
-10.297969
-9.936505
-9.639249
-9.658027
-9.757614
-9.584392
-9.149322
-8.516300
-7.779918
-6.990602
-6.232608
-5.629968
-5.238748
-4.840637
-4.177234
-3.291762
-2.449513
-1.575316
-0.335598
1.185700
2.577954
3.720575
4.848476
6.125466
7.143428
7.700339
8.186463
9.128627
10.454166
11.728651
12.954901
14.204015
15.272092
15.482587
14.984591
14.286138
13.726751
13.331490
12.687222
11.765760
11.102074
11.097391
11.265602
11.035091
10.428409
10.007777
9.842415
9.506977
8.791924
7.867016
7.086814
6.287819
5.116724
3.804057
2.733192
1.805779
0.725517
-0.363828
-1.079195
-1.412127
-1.765105
-2.356752
-3.063975
-3.667212
-4.213756
-4.869299
-5.485690
-5.819249
-5.838026
-6.025627
-6.758847
-7.830965
-8.747416
-9.401393
-10.242046
-11.729486
-13.671715
-15.118751
-15.546587
-15.509612
-15.658374
-15.937433
-16.106554
-16.113430
-15.956808
-15.612257
-15.053780
-14.596785
-14.302035
-13.788975
-12.993395
-11.944111
-10.677144
-9.188107
-7.525549
-6.023044
-4.849727
-3.974904
-3.526679
-3.582416
-3.903133
-4.007732
-3.561699
-2.902994
-2.596342
-2.757946
-3.114056
-3.366805
-3.495208
-3.440380
-3.081108
-2.265482
-1.311416
-0.420619
0.476129
1.373504
2.029703
2.075448
1.827397
1.782622
2.351122
2.840378
2.642128
1.903583
1.081723
0.477861
-0.076201
-0.781232
-1.967673
-3.425985
-4.781876
-5.719625
-6.301563
-6.638253
-6.854983
-7.153774
-7.349518
-7.001835
-6.071573
-5.044214
-4.354814
-4.230766
-4.474432
-4.423990
-3.859562
-3.741152
-4.818282
-6.504614
-7.515968
-7.427940
-7.053634
-6.946186
-6.573759
-5.613115
-4.626787
-4.067998
-3.460347
-2.233470
-0.792355
0.084974
0.528814
1.380772
2.665593
3.810094
4.803939
5.993543
7.360426
8.224600
7.994089
7.188516
6.626311
6.720290
6.968998
6.662689
5.611869
3.922405
1.802271
-0.526777
-2.944152
-5.452046
-7.706862
-9.563896
-11.103330
-12.183592
-12.886744
-13.540720
-14.237295
-15.028773
-15.869739
-16.913668
-18.125793
-19.318185
-20.157272
-20.271267
-19.890070
-19.558048
-19.498835
-19.560837
-19.563327
-19.282985
-18.715739
-18.394679
-18.609842
-18.562845
-17.630077
-16.120681
-14.930451
-14.435557
-14.112305
-13.072418
-11.529195
-10.369659
-9.746348
-9.356694
-9.111745
-9.217283
-9.297138
-9.062525
-8.495905
-8.048307
-8.050797
-8.200499
-8.202050
-7.966184
-7.607852
-7.173095
-6.969804
-6.972921
-6.737055
-6.064256
-5.194131
-4.597755
-4.601812
-4.989557
-5.034958
-4.601454
-4.250325
-4.109364
-3.719397
-3.050355
-2.368786
-1.981951
-1.785863
-1.518050
-1.243346
-1.214202
-1.446905
-1.321291
-0.643167
0.084759
0.581845
0.995617
1.463261
2.020172
2.280781
1.936886
1.293246
0.622668
-0.024418
-0.175999
0.525304
1.629087
2.461313
2.916742
3.386578
4.143320
5.014071
5.772065
6.433276
6.865840
6.935702
6.601517
6.322771
6.453084
6.521379
6.028395
4.931846
3.784556
3.296583
3.500501
3.731668
3.538116
3.418483
3.927785
4.848651
5.864421
6.744255
7.018959
6.810373
6.660046
6.893092
7.357291
7.485724
7.287787
7.139339
7.010309
6.676751
6.356348
6.199755
6.243307
6.109266
5.527955
4.754644
4.029567
3.783709
3.940644
4.093508
4.118267
4.156807
4.102323
3.878076
3.495343
2.946920
2.411338
2.006993
2.097527
2.505974
2.540755
2.101957
1.385650
0.586029
-0.227688
-0.856921
-1.113742
-1.302908
-1.850392
-2.699502
-3.389498
-3.808564
-4.424955
-5.680304
-7.475635
-9.322019
-10.725205
-11.716201
-12.533363
-13.496796
-14.606187
-15.851199
-17.213667
-18.292363
-18.936317
-18.968563
-18.604593
-18.143839
-17.693735
-17.213249
-16.766903
-16.472153
-16.446455
-16.815093
-17.173083
-17.198125
-17.135154
-17.614670
-18.414918
-18.826467
-18.503215
-18.105104
-18.469044
-19.447198
-20.591042
-21.443597
-21.693528
-21.556011
-21.937805
-23.067555
-24.470114
-25.645593
-26.567995
-27.458762
-28.375213
-29.078991
-28.909214
-27.581482
-25.800216
-23.779654
-21.040891
-17.580796
-13.786187
-10.242776
-6.970296
-3.513645
0.202347
3.302559
5.725602
7.679136
9.251801
10.542260
11.405807
11.942672
12.038531
11.993756
12.035429
12.142563
12.305136
12.606150
12.827295
12.942573
13.122060
13.554311
14.333917
15.083767
15.570518
15.864328
15.993701
15.908521
16.077359
16.652123
17.366267
18.071328
18.538345
18.424350
17.618778
16.652526
15.933714
15.375894
14.985956
14.551856
13.720287
12.774394
12.357520
12.516022
12.416435
11.611175
10.220518
8.290818
5.931701
3.362418
0.905578
-1.588534
-4.208559
-6.798515
-9.159824
-10.889693
-12.117479
-13.058047
-13.743345
-14.487841
-15.715940
-17.751193
-20.050799
-21.188066
-20.954706
-20.339851
-20.320104
-21.117846
-21.773389
-21.568218
-21.050773
-20.897596
-21.005014
-21.113058
-21.434714
-22.220241
-23.019549
-23.268540
-23.141360
-23.304843
-23.691334
-23.571358
-22.903570
-22.334131
-22.000542
-21.282326
-19.741922
-17.615181
-15.512244
-13.761673
-11.909307
-9.780686
-7.680254
-5.849500
-4.079510
-2.173898
-0.105101
2.038554
4.014953
5.802796
7.531442
9.418261
10.816466
11.287556
11.407845
12.634721
15.161125
17.252160
17.768979
17.658429
18.775680
21.070305
22.836223
23.088063
22.585369
22.589455
23.393179
24.392348
25.100228
25.381823
25.704136
26.324315
26.884984
26.885313
26.322481
25.393815
24.174486
22.586817
20.457286
18.164571
16.356398
15.268619
14.635002
14.188999
13.714494
13.504029
13.475855
13.690108
14.243260
15.058886
15.725421
15.607355
15.000986
14.723180
15.378753
16.257648
16.371047
15.142634
13.336028
11.784065
10.211117
7.993573
5.411134
3.367424
2.397727
2.378010
1.965208
0.825122
-0.734045
-1.784238
-2.013496
-2.151295
-2.322609
-2.145941
-1.764430
-1.472186
-1.069690
-0.823176
-0.370566
0.320714
1.083406
1.878986
2.757568
3.946545
5.513572
7.159217
8.339111
8.731897
8.185039
7.314944
6.951317
7.197832
7.295883
6.849881
6.165209
5.837288
6.111366
7.021269
8.169842
9.019295
9.897563
11.096877
12.241691
13.179783
14.282000
15.532054
16.467328
17.052427
17.642539
18.032819
17.785708
17.083809
16.316135
15.815633
15.674075
15.380295
14.705333
13.921999
13.487272
13.459724
13.914213
14.727020
15.352838
15.735914
16.176935
17.095608
18.140507
18.400177
17.893724
17.263238
16.869542
16.178606
14.456881
12.088368
10.113565
8.731051
7.204459
5.001636
2.278251
0.013725
-1.085956
-1.470882
-2.143025
-3.605096
-5.832662
-8.379395
-10.782675
-12.932877
-14.716932
-16.199361
-17.995319
-20.177156
-21.936780
-22.236511
-21.264905
-20.560470
-20.717063
-20.930973
-20.356523
-19.077966
-17.764956
-16.534947
-15.305878
-14.619610
-14.237787
-13.627943
-12.787260
-12.405750
-12.489677
-12.657231
-12.240641
-11.421570
-10.695524
-9.790632
-9.220253
-9.140995
-9.544400
-10.009196
-10.650644
-11.508210
-12.580955
-13.738268
-15.008651
-16.517077
-18.008589
-19.296513
-20.010313
-20.544016
-21.300727
-22.112564
-22.836388
-23.403918
-23.512588
-22.970399
-22.143184
-21.525823
-21.173129
-20.810725
-20.006688
-18.966487
-17.887448
-16.897362
-15.639791
-13.960633
-12.551466
-12.072546
-12.246365
-12.382598
-12.564248
-13.023718
-14.022231
-15.147909
-16.045880
-16.684196
-17.437775
-18.320712
-18.912046
-18.830595
-18.007453
-17.067794
-16.465781
-16.002208
-14.880572
-13.106823
-11.256963
-9.568722
-8.022367
-6.461291
-4.818465
-3.291530
-1.942813
-0.648595
0.493087
1.236360
1.454998
1.173434
0.592436
0.217533
-0.041794
-0.079364
-0.217477
-1.089451
-2.270255
-3.515894
-4.351849
-4.982335
-5.341577
-5.423624
-5.218453
-4.568205
-3.805199
-3.206631
-3.046564
-2.859246
-2.646245
-2.220885
-1.985333
-2.233697
-3.131355
-4.504785
-5.778301
-6.504317
-6.303218
-5.947391
-6.171012
-6.691559
-6.743224
-6.470086
-6.232028
-6.418063
-7.413443
-8.920617
-10.156546
-10.911691
-11.392147
-12.189890
-13.143300
-14.001493
-14.684285
-14.991220
-15.173810
-15.209814
-14.905981
-14.177742
-13.569151
-12.982799
-12.316890
-11.564847
-10.732621
-9.532368
-8.060244
-6.869075
-6.072555
-5.686033
-5.362468
-4.640180
-3.134856
-1.189152
0.990209
3.328058
5.378688
7.149931
8.890792
10.903211
12.798487
14.021605
14.772082
14.730439
14.158524
13.843446
13.720994
13.314456
12.289947
10.422577
7.846089
5.113307
2.461022
0.078727
-1.985342
-3.972673
-5.880447
-7.719315
-9.293829
-10.562333
-11.614092
-12.340109
-12.315350
-11.060910
-9.534288
-8.787569
-8.756859
-8.782528
-8.525677
-8.336794
-8.660016
-9.200922
-9.177416
-8.321386
-7.500436
-7.409589
-7.461254
-6.587057
-4.862170
-3.412911
-2.475758
-1.591852
-0.350255
1.052335
2.622181
4.389039
6.133033
7.796843
9.341006
10.506805
11.292989
11.993352
12.704364
12.978128
12.688106
12.610444
12.529650
11.912632
10.769728
9.574516
8.389954
6.961397
5.226204
3.410201
2.229397
1.258447
-0.073013
-1.583005
-3.366433
-5.495024
-7.969717
-10.577526
-12.802587
-14.333878
-15.342414
-16.397305
-17.329416
-17.641676
-17.662960
-17.741875
-17.457774
-16.341150
-14.716178
-13.297301
-12.183808
-10.673786
-8.545478
-6.266828
-4.565745
-3.295331
-1.755241
0.071128
1.860851
3.196413
4.318675
5.552442
6.676271
7.344686
7.687044
7.998395
8.324779
8.439118
8.158806
7.478205
6.938865
7.086717
7.633292
7.945895
7.773955
7.870127
8.529458
9.510148
10.421617
11.200597
12.052242
12.847509
13.104047
12.698762
11.810814
10.481860
9.063639
7.542058
5.590747
3.200622
1.471693
0.962734
0.970893
0.494822
-0.778380
-1.922538
-2.076311
-1.661914
-1.966969
-2.557677
-2.294562
-1.333918
-0.371395
0.328655
1.298695
2.487986
3.397576
3.948535
4.345393
4.942708
5.624278
5.985116
5.992335
5.863306
5.654406
5.351856
4.737971
3.950565
3.479818
3.314456
3.148467
2.709669
1.894699
0.575142
-1.226453
-3.154587
-4.683059
-6.099713
-7.857458
-10.019249
-11.869706
-12.666195
-13.130677
-13.473006
-13.493976
-12.775760
-11.178978
-9.625732
-8.546066
-7.548463
-6.730019
-6.221343
-5.743050
-5.328025
-5.009158
-4.762330
-4.638908
-4.915148
-5.155995
-4.209759
-2.281596
-0.697342
0.037161
0.703070
1.895493
3.177495
3.883496
3.995642
3.981562
3.478868
2.389836
1.138559
0.032300
-0.816809
-1.375569
-1.755170
-2.152624
-2.562607
-3.212199
-3.984884
-4.621634
-4.745339
-4.374165
-3.803160
-3.376860
-3.320153
-3.625522
-3.984138
-3.497701
-2.714336
-2.567110
-3.178177
-4.095254
-4.373686
-4.359577
-4.633938
-5.129428
-5.753650
-6.454295
-6.780024
-6.660361
-6.474609
-6.461126
-6.627115
-6.477070
-5.617908
-4.541687
-3.696933
-2.324725
-0.202995
2.797928
6.236726
9.620084
13.036017
16.617326
20.382493
24.201533
28.466903
32.892639
36.612703
39.129710
40.879655
42.631792
44.930175
47.506066
49.425460
50.099512
49.807611
48.734554
47.372712
46.252045
44.997636
43.317255
41.264775
39.144955
37.362779
36.096155
35.056924
33.992009
32.783643
31.943930
31.737223
31.241106
29.672856
27.550216
25.734527
24.278094
23.093219
22.358433
22.243811
22.586483
22.460586
21.310164
19.887245
19.444062
19.760736
19.427491
17.789708
15.176261
13.197073
12.258697
11.588746
10.951683
10.346255
9.864859
9.297016
8.894550
8.877652
9.131997
9.303653
8.384384
5.986429
3.127421
0.856944
-1.048325
-3.399298
-6.350703
-9.808890
-13.010867
-15.573260
-18.104331
-20.790131
-23.212830
-24.387369
-24.520471
-24.777292
-25.755759
-26.931864
-27.046486
-25.962748
-24.489059
-23.210816
-21.706744
-19.630430
-17.355538
-15.290187
-13.121474
-10.551534
-8.246260
-6.151780
-4.322279
-2.741157
-1.053855
1.184704
3.707662
5.751715
7.148353
8.059823
9.635933
12.112222
14.888571
17.330719
18.591423
18.923445
19.376682
20.392451
21.233761
20.732632
18.985537
17.394422
16.588849
16.108706
15.101424
12.954979
10.275444
7.853058
5.857270
3.624692
0.975539
-1.506358
-3.286341
-4.696105
-6.322926
-7.945049
-8.964547
-9.545858
-10.143143
-10.440369
-10.761399
-10.977502
-11.177318
-11.439463
-11.582900
-11.828446
-12.244066
-12.469252
-12.171370
-11.586897
-11.343201
-11.457196
-11.013043
-9.993515
-8.882215
-7.929088
-6.933677
-5.686129
-4.579840
-3.798668
-2.903799
-1.994522
-1.307315
-0.926431
-0.874422
-0.792032
-0.496342
-0.227276
-0.148018
0.016435
0.298343
0.530763
0.628815
0.707446
1.014098
0.951784
-0.119395
-1.708004
-3.078616
-3.778322
-4.120024
-4.839149
-6.547720
-8.540375
-9.342816
-9.015492
-8.505564
-8.101502
-7.501994
-6.786597
-6.237204
-5.718819
-4.798893
-3.026710
-0.425448
2.097510
3.867187
5.609614
8.862675
13.657065
18.265092
21.552606
23.897658
26.498920
29.985639
33.357408
35.322218
35.846241
35.800214
35.886989
36.003207
35.203898
33.215314
30.768497
28.612344
27.060694
25.323308
23.292753
21.429768
19.837401
18.521601
17.272517
16.070728
15.472503
15.645413
15.804541
15.389860
15.002115
15.641088
17.526341
19.520906
20.737446
22.241204
24.770740
28.098032
31.521169
34.585362
36.916319
38.577937
39.987104
40.902332
41.737377
42.559580
43.323839
44.255667
44.884930
44.949154
44.554832
44.336536
44.220975
43.511246
42.430984
41.479767
40.227550
38.207645
36.448020
35.614572
34.975316
33.375744
31.172922
29.369447
27.926483
26.408347
24.549747
22.409881
20.208624
18.569588
17.229671
15.560879
13.737985
12.144365
10.713929
9.171050
7.817978
6.917814
6.228131
5.233063
3.767548
2.152315
1.192328
0.782658
0.653942
0.936790
1.074306
1.210256
1.479636
1.932559
2.564641
3.105264
3.508699
3.962562
4.594644
5.351699
6.038593
6.411333
6.944440
8.066702
9.312058
10.061909
10.515458
11.076127
11.772105
12.508801
12.854291
12.724009
12.483789
11.803815
10.589810
9.502345
8.631623
8.001451
7.432668
6.164477
4.255137
2.555337
1.656739
0.844276
-0.819505
-3.368743
-6.045146
-7.894349
-9.106475
-10.640897
-12.305931
-13.493312
-14.245012
-14.825070
-15.609344
-16.600027
-17.593528
-18.031074
-17.724422
-17.145273
-17.072279
-17.513897
-17.959899
-17.987447
-17.785409
-18.141519
-19.190772
-20.340568
-21.071282
-21.219104
-20.862651
-20.749566
-20.993858
-21.142620
-20.795250
-20.440676
-20.394305
-20.346055
-20.349486
-20.680225
-21.220819
-21.268412
-20.670157
-19.845449
-19.555084
-19.467995
-19.092749
-18.327238
-17.599625
-17.418886
-17.193669
-16.708172
-15.882210
-14.907785
-13.789907
-12.516988
-11.446406
-10.321951
-8.783113
-7.028470
-5.755238
-5.117832
-4.519577
-3.389797
-2.255006
-1.933633
-2.207054
-2.326060
-1.777920
-0.633419
0.336935
0.732226
0.991583
1.291971
1.292925
0.987556
1.270091
1.949155
2.206319
1.733380
0.977295
0.704500
1.000816
1.422105
1.297460
1.204138
1.699658
2.419440
2.587651
2.163574
2.226858
3.003645
3.752243
3.888193
3.548057
3.353566
3.504237
3.620455
3.289089
2.325029
0.948780
-0.486354
-1.726669
-2.916556
-3.986481
-4.635760
-5.341104
-6.162964
-6.418219
-6.149779
-5.882279
-5.843425
-5.579997
-4.644410
-3.643988
-2.874405
-1.869911
0.036015
2.862477
5.354114
6.762341
7.846392
9.769231
12.285611
14.590259
16.496184
18.496700
20.628140
22.418176
23.841751
24.432802
24.703748
25.216182
25.694475
25.668180
25.105975
24.665610
24.672203
25.290190
26.128994
26.652077
26.505821
25.949880
25.382350
24.495655
22.773617
20.341521
18.017484
16.085905
14.195044
11.938349
9.267897
6.659148
4.246785
1.821580
-0.644656
-2.632927
-3.871362
-5.197184
-7.209260
-9.367293
-10.715979
-11.374028
-12.084383
-13.019627
-13.810165
-14.450674
-15.226178
-16.051797
-16.577356
-16.462704
-15.822479
-15.336041
-15.414643
-15.761983
-15.913877
-15.768217
-15.402681
-14.709522
-13.844722
-13.072320
-12.051539
-10.603220
-9.234144
-7.777682
-5.732063
-3.282710
-1.119009
0.624984
2.316045
3.866158
4.802371
5.297892
5.720746
6.109147
6.500054
6.763796
6.535164
5.533206
4.126888
2.459975
0.706615
-0.952467
-2.549533
-4.185124
-5.374385
-5.863611
-6.281737
-6.891864
-7.535192
-7.729996
-7.317164
-6.353388
-5.058544
-3.951942
-3.020427
-1.679541
-0.112514
1.231818
2.197160
2.620015
2.854001
3.344510
4.063979
4.574847
4.771874
5.297776
6.367418
7.605257
8.428713
8.707802
8.895120
9.392206
9.942539
9.628087
8.711949
7.591596
6.176508
4.519618
2.992712
1.755217
0.600096
-0.649301
-1.971365
-3.185369
-4.350825
-5.397887
-6.107302
-6.264208
-6.478118
-7.306869
-8.322922
-8.788030
-8.873523
-9.273483
-10.224074
-10.925973
-10.593011
-9.356425
-8.186553
-7.466771
-6.705958
-5.408922
-3.485143
-1.838246
-0.460088
