EVENT_NAME: 202302060117
EVENT_ID: 13194
EVENT_DATE_YYYYMMDD: 2023/02/06
EVENT_TIME_HHMMSS: 01:17:32.00000
EVENT_LATITUDE_DEGREE: 37.288
EVENT_LONGITUDE_DEGREE: 37.043
EVENT_DEPTH_KM: 8.6
HYPOCENTER_REFERENCE: AFAD
MAGNITUDE_W: 7.7
MAGNITUDE_W_REFERENCE: AFAD
MAGNITUDE_L: 
MAGNITUDE_L_REFERENCE: 
FOCAL_MECHANISM: 
NETWORK: TK
STATION_CODE: 4631
STATION_NAME: 
STATION_LATITUDE_DEGREE: 37.966325
STATION_LONGITUDE_DEGREE: 37.427653
STATION_ELEVATION_M: 1421.0
LOCATION: Kahramanmaras_Pazarck_Turkiye
SENSOR_DEPTH_M: 
VS30_M/S: 543
SITE_CLASSIFICATION_EC8: B
MORPHOLOGIC_CLASSIFICATION: 
EPICENTRAL_DISTANCE_KM: 82.68
EARTHQUAKE_BACKAZIMUTH_DEGREE: 
DATE_TIME_FIRST_SAMPLE_YYYYMMDD_HHMMSS: 2023/02/06 01:17:23.8230650
DATE_TIME_FIRST_SAMPLE_PRECISION: millisecond
SAMPLING_INTERVAL_S: 0.01
NDATA: 3559
DURATION_S: 
STREAM: HNN
UNITS: cm/s^2
INSTRUMENT: sensor = ACEBOX/SARA | digitizer = 
INSTRUMENT_ANALOG/DIGITAL: 
INSTRUMENTAL_FREQUENCY_HZ: 
INSTRUMENTAL_DAMPING: 
FULL_SCALE_G: 
N_BIT_DIGITAL_CONVERTER: 
PGA_CM/S^2: 22.207
TIME_PGA_S: 
BASELINE_CORRECTION: BASELINE REMOVED
FILTER_TYPE: BUTTERWORTH
FILTER_ORDER: 
LOW_CUT_FREQUENCY_HZ: 
HIGH_CUT_FREQUENCY_HZ: 
LATE/NORMAL_TRIGGERED: 
DATABASE_VERSION: 
HEADER_FORMAT: DYNA 1.2
DATA_TYPE: Acceleration
PROCESSING: Automatic Paolucci et al., 2011
DATA_TIMESTAMP_YYYYMMDD_HHMMSS: 
DATA_LICENSE: U (unknown license)
DATA_CITATION: Turkish Accelerometric Archive v 1.0 - Disaster And Emergency Management Presidency, Earthquake Department
DATA_CREATOR: AFAD
ORIGINAL_DATA_MEDIATOR_CITATION: : AFAD - Disaster And Emergency Management Presidency
ORIGINAL_DATA_MEDIATOR: AFAD PROCESS SERVICE
ORIGINAL_DATA_CREATOR_CITATION: AFAD PROCESS SERVICE
ORIGINAL_DATA_CREATOR: network: TK
USER1: GuestUser
USER2: 
USER3: 
USER4: 
USER5: 
[...]
0.110245
0.108361
0.108113
0.108800
0.108552
0.107603
0.104783
0.109913
0.112470
0.108949
0.111273
0.110324
0.107738
0.110763
0.109580
0.109566
0.112357
0.111408
0.111160
0.111848
0.111600
0.112754
0.112273
0.110856
0.111777
0.115036
0.115256
0.110799
0.112188
0.117318
0.112627
0.110977
0.117509
0.115625
0.112337
0.115830
0.115816
0.115568
0.116022
0.115072
0.115760
0.119486
0.119238
0.114548
0.118041
0.120832
0.115909
0.117064
0.118686
0.117035
0.119827
0.119345
0.115590
0.116745
0.121173
0.120925
0.118339
0.118559
0.119012
0.119466
0.121322
0.121542
0.119424
0.120111
0.124071
0.122421
0.121939
0.122860
0.118404
0.122130
0.124688
0.119998
0.125829
0.126984
0.121592
0.124150
0.125305
0.123888
0.124108
0.124093
0.123378
0.123130
0.126155
0.126375
0.125659
0.127516
0.124462
0.125851
0.129110
0.124887
0.124406
0.126963
0.129053
0.129975
0.126687
0.128310
0.128062
0.125944
0.129670
0.128487
0.129408
0.131264
0.129848
0.133574
0.130053
0.125129
0.130960
0.133518
0.130698
0.130918
0.132306
0.128785
0.130174
0.136239
0.131315
0.131768
0.135962
0.129168
0.132661
0.137791
0.131464
0.132853
0.135878
0.134227
0.133512
0.132796
0.134419
0.136041
0.135793
0.136948
0.134830
0.135049
0.139010
0.135956
0.133838
0.138032
0.138252
0.137770
0.136587
0.134703
0.140066
0.141221
0.136063
0.137218
0.139308
0.139294
0.138111
0.137863
0.142525
0.142043
0.136885
0.141080
0.144339
0.140350
0.140102
0.140789
0.140775
0.144034
0.141215
0.140499
0.147031
0.143744
0.138119
0.143482
0.145572
0.143921
0.143907
0.142724
0.145048
0.143631
0.139643
0.147578
0.148966
0.141938
0.145431
0.145651
0.144468
0.150298
0.145608
0.142789
0.149555
0.147670
0.145318
0.148811
0.147862
0.146445
0.147600
0.149690
0.149909
0.147557
0.148245
0.149399
0.150554
0.151008
0.149591
0.150980
0.149563
0.148847
0.153275
0.150689
0.149039
0.152765
0.151582
0.152503
0.153424
0.152007
0.153396
0.153148
0.153368
0.155692
0.154275
0.152157
0.153545
0.153531
0.154452
0.155607
0.152554
0.153942
0.155565
0.153914
0.157641
0.157627
0.155508
0.156897
0.156649
0.157336
0.155686
0.156373
0.157995
0.153773
0.157266
0.160291
0.157471
0.160497
0.157677
0.158130
0.162325
0.159271
0.159958
0.160178
0.158060
0.161786
0.160837
0.158953
0.162446
0.161029
0.159378
0.162403
0.163558
0.162609
0.161192
0.161879
0.164671
0.164423
0.162538
0.162758
0.161809
0.163899
0.166690
0.164104
0.164324
0.165245
0.165698
0.166386
0.163332
0.165422
0.166811
0.162822
0.168419
0.170743
0.166287
0.167909
0.167428
0.166712
0.166698
0.166684
0.170177
0.166656
0.166408
0.171771
0.168484
0.169405
0.170092
0.167039
0.170532
0.171453
0.169101
0.170255
0.171410
0.170227
0.169979
0.171602
0.171588
0.173210
0.172495
0.169207
0.173168
0.174089
0.173140
0.174762
0.173579
0.174032
0.173551
0.174706
0.175860
0.172106
0.175131
0.177922
0.174167
0.174153
0.175074
0.174826
0.174579
0.175733
0.176654
0.177342
0.178964
0.176846
0.178468
0.178922
0.172361
0.176322
0.182153
0.178164
0.178384
0.182578
0.179992
0.175770
0.179964
0.181586
0.178533
0.181324
0.181076
0.179893
0.181048
0.181268
0.182656
0.181707
0.182394
0.181211
0.180496
0.184924
0.181169
0.179752
0.184414
0.181360
0.181580
0.183904
0.184358
0.185746
0.182927
0.184783
0.186171
0.184521
0.187546
0.185194
0.183543
0.187036
0.186321
0.186306
0.186526
0.185577
0.188836
0.188354
0.186002
0.187625
0.185740
0.187129
0.192024
0.188036
0.188022
0.191047
0.187526
0.191019
0.192173
0.187717
0.191444
0.192599
0.190013
0.190233
0.191387
0.193244
0.190658
0.189475
0.193669
0.191784
0.189900
0.194562
0.194080
0.190793
0.193818
0.193336
0.191452
0.195179
0.194931
0.193748
0.195370
0.193485
0.193471
0.196497
0.196950
0.194130
0.194116
0.198778
0.197595
0.193139
0.195696
0.198020
0.196370
0.197758
0.197744
0.196795
0.199353
0.197468
0.197220
0.201181
0.197659
0.196944
0.203009
0.200890
0.197837
0.200628
0.202485
0.200132
0.196378
0.202676
0.206870
0.198439
0.199594
0.204022
0.202372
0.205163
0.200707
0.199991
0.206757
0.200665
0.202053
0.208118
0.202726
0.204583
0.205270
0.203385
0.206878
0.204292
0.204044
0.206602
0.205185
0.206340
0.207495
0.207481
0.206999
0.207453
0.206503
0.205320
0.208345
0.206695
0.207382
0.210407
0.206185
0.209210
0.209196
0.205207
0.211740
0.209387
0.207269
0.212632
0.208176
0.207694
0.210720
0.209770
0.211860
0.211145
0.210897
0.211350
0.209700
0.213426
0.215283
0.211060
0.212215
0.213370
0.210083
0.214978
0.213795
0.208871
0.217975
0.217026
0.210466
0.215595
0.214412
0.213229
0.216254
0.213902
0.215992
0.216679
0.214327
0.216885
0.215468
0.215220
0.219648
0.217062
0.213074
0.218904
0.220527
0.214902
0.216290
0.220485
0.218366
0.217885
0.219507
0.219025
0.219479
0.219465
0.221321
0.223645
0.219890
0.219642
0.223602
0.220081
0.220301
0.223560
0.221208
0.221662
0.223050
0.222802
0.223957
0.221839
0.220656
0.225318
0.226005
0.221782
0.221768
0.224326
0.225247
0.225467
0.224751
0.225439
0.226593
0.224475
0.225864
0.227019
0.225134
0.227692
0.226743
0.225326
0.228351
0.226233
0.226452
0.227373
0.224320
0.229449
0.230370
0.226615
0.229875
0.228691
0.229613
0.230767
0.227948
0.231674
0.231894
0.229308
0.229528
0.227877
0.230902
0.233460
0.232511
0.234133
0.231080
0.230832
0.234792
0.231505
0.229854
0.235218
0.235905
0.231682
0.232837
0.233057
0.232108
0.236068
0.236054
0.231831
0.233454
0.236012
0.234829
0.235983
0.237372
0.233383
0.232668
0.236395
0.235913
0.237301
0.237287
0.234935
0.240299
0.241220
0.236062
0.239087
0.240943
0.239760
0.239746
0.236225
0.238549
0.242977
0.238988
0.239442
0.241532
0.239647
0.240569
0.239853
0.241943
0.243799
0.239109
0.240498
0.244926
0.242340
0.240456
0.244416
0.244168
0.240647
0.245075
0.246230
0.241072
0.242461
0.245019
0.245005
0.244523
0.243807
0.245897
0.244247
0.243999
0.247492
0.243269
0.243489
0.250956
0.245799
0.244616
0.251148
0.245756
0.246210
0.250404
0.245948
0.249441
0.249426
0.246607
0.251035
0.248917
0.249136
0.252395
0.249809
0.248626
0.249314
0.250001
0.250221
0.252077
0.254167
0.251113
0.250398
0.250618
0.251539
0.254798
0.251510
0.251964
0.254522
0.251702
0.254026
0.254245
0.249555
0.252113
0.256775
0.254189
0.252304
0.255797
0.255316
0.254834
0.256924
0.255039
0.256662
0.257817
0.255465
0.256853
0.254735
0.254253
0.258214
0.257732
0.258186
0.257003
0.256287
0.259546
0.256960
0.257647
0.261842
0.259723
0.257138
0.257825
0.262019
0.261304
0.258484
0.263146
0.261027
0.257506
0.262636
0.263323
0.261672
0.262126
0.261177
0.261630
0.263486
0.262537
0.261588
0.264379
0.263897
0.263416
0.264804
0.264790
0.264075
0.264061
0.265216
0.264032
0.265889
0.268680
0.264458
0.264210
0.267001
0.266052
0.268376
0.266491
0.264139
0.266229
0.266215
0.268305
0.267356
0.266874
0.268730
0.265677
0.268001
0.271494
0.269609
0.270764
0.269815
0.268398
0.271891
0.271643
0.269758
0.272316
0.272536
0.270417
0.271105
0.272961
0.272947
0.271998
0.271750
0.273840
0.271254
0.270538
0.277070
0.275186
0.270496
0.274456
0.271637
0.269752
0.276051
0.278374
0.275087
0.272268
0.275760
0.276681
0.272927
0.275484
0.276873
0.277093
0.278481
0.274960
0.277518
0.278907
0.274684
0.277242
0.279098
0.278616
0.278602
0.276951
0.278574
0.279963
0.278546
0.277363
0.277816
0.280608
0.279658
0.279177
0.280799
0.279616
0.280303
0.281692
0.282379
0.281196
0.280714
0.284207
0.282089
0.281607
0.283697
0.279709
0.283435
0.284356
0.281770
0.285965
0.282444
0.283598
0.285455
0.280297
0.285894
0.287517
0.283528
0.285618
0.285136
0.286291
0.284173
0.283457
0.289288
0.286936
0.284350
0.287843
0.285491
0.288049
0.293412
0.287085
0.285201
0.292200
0.288913
0.286094
0.291223
0.291209
0.288389
0.286738
0.288127
0.291854
0.290203
0.290890
0.292980
0.289693
0.289211
0.292938
0.292690
0.289169
0.289623
0.293817
0.293335
0.291217
0.291904
0.292591
0.295149
0.294434
0.291848
0.295341
0.295794
0.293676
0.294363
0.292946
0.294569
0.298529
0.296645
0.294059
0.295214
0.295667
0.298458
0.299380
0.294456
0.298182
0.299805
0.293478
0.298374
0.300230
0.295774
0.300202
0.301590
0.298069
0.297821
0.300145
0.301066
0.300585
0.301506
0.299855
0.300309
0.301931
0.300748
0.302604
0.300954
0.300706
0.303263
0.300911
0.303469
0.302753
0.298998
0.305764
0.304348
0.299891
0.307125
0.305007
0.302655
0.308485
0.302159
0.300976
0.307975
0.305156
0.303973
0.304894
0.304412
0.307905
0.306254
0.305071
0.305992
0.306212
0.308769
0.307586
0.306871
0.306389
0.307544
0.311037
0.308451
0.308203
0.307721
0.306305
0.311902
0.311186
0.308600
0.310223
0.310208
0.312299
0.311349
0.309231
0.310620
0.313411
0.314332
0.308941
0.311732
0.316628
0.311704
0.314963
0.315416
0.308388
0.313752
0.317011
0.311619
0.313943
0.312292
0.307369
0.312732
0.313653
0.308729
0.311520
0.314312
0.313129
0.314751
0.319647
0.326881
0.331776
0.335970
0.347880
0.361426
0.374271
0.391324
0.408143
0.428703
0.452536
0.470992
0.495995
0.524036
0.544596
0.570066
0.592964
0.606510
0.625200
0.638980
0.645278
0.655317
0.656238
0.647574
0.640546
0.627439
0.609189
0.590705
0.562635
0.529188
0.496208
0.455046
0.407337
0.355887
0.299061
0.241065
0.188212
0.137698
0.085781
0.040878
0.002755
-0.037005
-0.071855
-0.101094
-0.128696
-0.146478
-0.157481
-0.164509
-0.163120
-0.149341
-0.121767
-0.092790
-0.058436
-0.016133
0.029210
0.107284
0.203361
0.291956
0.399488
0.507255
0.599824
0.700109
0.783561
0.841529
0.882429
0.900183
0.920276
0.943174
0.946901
0.935430
0.901516
0.845858
0.773133
0.669079
0.532995
0.383584
0.254748
0.167060
0.101816
0.045457
-0.004356
-0.053468
-0.095098
-0.127376
-0.163628
-0.210168
-0.245486
-0.239655
-0.180518
-0.078597
0.029871
0.127818
0.225531
0.322543
0.413476
0.484068
0.522163
0.539918
0.550425
0.561633
0.579387
0.587322
0.568371
0.534222
0.490020
0.408878
0.307630
0.245894
0.203562
0.138552
0.063957
-0.001520
-0.034032
-0.005523
0.050106
0.069264
0.041661
0.008916
0.015448
0.074818
0.146346
0.194494
0.254332
0.342694
0.408376
0.436418
0.463291
0.477772
0.456716
0.423503
0.402681
0.411551
0.452919
0.500833
0.523731
0.504546
0.457538
0.394633
0.321674
0.276771
0.251740
0.211513
0.190223
0.213589
0.249346
0.294221
0.368087
0.408286
0.357304
0.305153
0.340208
0.438623
0.558547
0.638258
0.647128
0.652257
0.684975
0.710912
0.716041
0.691712
0.639094
0.574552
0.491072
0.387720
0.288575
0.215617
0.168375
0.111315
0.015678
-0.098196
-0.168115
-0.136099
-0.064338
-0.062715
-0.108554
-0.157431
-0.214258
-0.238120
-0.209377
-0.179932
-0.207301
-0.280259
-0.271156
-0.092782
0.167420
0.385071
0.504294
0.560858
0.674470
0.882301
1.076807
1.119344
0.951463
0.734017
0.704779
0.822365
0.862096
0.737702
0.527504
0.360091
0.305135
0.323824
0.307444
0.201754
0.043693
-0.143827
-0.364312
-0.608410
-0.824921
-0.959134
-1.088672
-1.259826
-1.425135
-1.593483
-1.587418
-1.249595
-0.857999
-0.592653
-0.357467
-0.225853
-0.204124
-0.100800
0.016786
-0.041210
-0.156486
-0.188764
-0.156514
0.058799
0.494349
0.900674
1.047485
0.854354
0.607450
0.723867
0.977991
0.950389
0.770818
0.735501
0.974661
1.305003
1.326264
1.053175
0.744081
0.447845
0.270379
0.237400
0.196471
0.236436
0.419018
0.603470
0.690662
0.389283
-0.392315
-1.128791
-1.537950
-1.866683
-2.236564
-2.509654
-2.478573
-2.183535
-1.900187
-1.595797
-1.198122
-0.882042
-0.468469
0.063172
0.285967
0.441428
0.802864
0.971652
1.046219
1.291926
1.404135
1.408329
1.536669
1.568919
1.467203
1.394946
1.308193
1.288540
1.095877
0.407330
-0.213650
-0.468737
-0.655321
-0.706069
-0.928191
-1.597800
-2.024494
-1.951564
-1.924224
-2.090935
-2.252269
-2.427865
-2.645077
-2.621244
-2.297682
-2.037948
-1.882721
-1.829429
-1.997309
-2.055305
-2.005521
-2.024005
-1.865270
-1.973533
-2.372639
-1.960936
-0.919149
-0.096197
0.627158
1.314040
1.954163
2.581894
2.915041
3.042447
3.153018
3.190880
3.255160
3.297229
3.514880
4.276811
4.950835
4.972330
4.702046
4.289380
3.830889
3.529511
3.237016
2.964862
2.735259
2.319320
1.725460
1.103312
0.295996
-1.019596
-2.306196
-2.468933
-1.977038
-2.213655
-2.890512
-2.920218
-2.460587
-1.843376
-0.934854
-0.539517
-1.502075
-3.083260
-3.836335
-3.008940
-1.343617
-0.167397
0.259503
0.179530
0.184660
1.236500
2.579183
2.908589
2.450800
1.190619
-0.015088
0.597447
1.999515
2.886060
3.265031
2.360222
1.009093
0.804039
1.294298
1.632355
1.438522
1.251938
1.741963
2.398452
2.776020
2.462718
1.052438
-0.858401
-1.925232
-1.512594
-1.032856
-1.835730
-3.801044
-6.022833
-6.347124
-4.361030
-2.867548
-3.825663
-6.253662
-7.108672
-4.926657
-1.660289
0.361576
-0.002227
-1.271293
-0.740119
0.726009
1.660716
2.892580
4.304000
5.383194
5.595000
4.190800
2.774909
2.821187
3.510641
3.923981
2.675957
-0.187840
-1.635761
-0.949112
-0.619472
-1.605643
-3.047251
-4.230279
-4.629385
-3.870026
-2.500923
-1.604091
-1.332199
-1.234954
-1.239176
-1.564168
-2.358859
-2.899646
-2.214635
-0.611033
1.366410
3.124084
3.086662
1.475785
0.393289
-0.303908
-1.524344
-2.431492
-2.614569
-2.073810
-0.484470
1.472632
2.828642
3.150801
1.814168
-0.974814
-2.905526
-2.220981
-0.054163
2.016800
3.000370
2.042489
0.168122
-0.977265
-1.245912
-1.563423
-3.070026
-4.649809
-4.190879
-2.739012
-2.330582
-3.236093
-4.846970
-5.692629
-4.880665
-3.883534
-3.413616
-2.000793
-0.616260
-1.046227
-1.204522
0.090935
1.640061
3.348638
4.082513
3.025735
2.469284
4.425919
8.031760
10.942756
12.338511
11.773877
8.639109
5.123719
2.720971
1.756543
3.086134
3.353116
0.999932
0.365626
1.221544
0.405344
-0.694687
-1.213964
-3.298047
-6.293238
-7.375968
-7.429521
-7.169085
-4.286613
-0.315580
1.732937
2.298245
1.356028
-0.058226
0.921604
2.823297
1.616188
-2.111256
-3.296856
0.863552
8.548921
15.657981
16.590116
10.464848
3.038965
-2.296770
-4.705364
-4.798897
-4.931942
-3.558163
-0.927490
0.289410
2.590429
4.382938
1.258925
-3.374483
-7.266754
-11.220748
-11.086094
-4.776622
2.475054
7.027306
9.608414
10.152212
9.429297
7.880610
3.534538
-1.256215
-3.110242
-3.346391
-2.768926
-2.079004
-2.321700
-2.467838
-2.086061
-1.627598
-2.607691
-6.247227
-9.827846
-9.852643
-4.897090
3.250263
8.014102
5.161294
-1.471549
-5.406839
-2.584452
4.415892
7.018275
3.124133
-2.105458
-5.359930
-3.517154
2.598267
6.115733
4.414843
-0.381522
-5.143285
-6.210583
-2.950061
0.013539
-2.195859
-5.205311
-3.496034
-0.315470
3.021504
6.379754
7.694148
8.781291
8.444843
6.997390
9.629699
11.320040
6.774773
2.605218
2.077991
2.696839
3.891528
3.500605
-0.377170
-3.753451
-3.227421
-4.090381
-10.588322
-15.947671
-14.038497
-6.931775
1.254154
6.053998
4.375319
-1.373769
-3.744254
-1.296645
-1.133001
-1.604584
1.218037
3.136095
6.235999
8.372658
2.481187
-1.794979
0.862580
2.370792
2.292690
0.349586
-4.523464
-5.355796
0.397005
6.581162
4.836319
-7.781500
-19.719670
-17.179710
-3.499545
8.742066
14.634444
15.284854
12.063581
8.693613
6.915571
4.961947
4.009209
3.842965
3.847861
6.792289
10.009559
10.255967
7.915409
3.052178
1.021401
3.503378
4.779196
3.915301
2.336922
2.812919
4.689595
1.086298
-5.154467
-8.886119
-12.321316
-9.983826
-0.027116
4.851050
2.223623
-0.501533
-1.842140
2.751261
10.517290
7.885654
-0.972938
-3.925812
-0.674875
5.610516
9.021137
7.342692
4.176596
1.000212
0.948528
3.351483
4.071330
3.559768
2.527071
3.837491
7.881935
10.765577
13.629112
14.611046
11.841002
9.454385
6.131644
2.861508
3.563587
3.830803
2.513809
1.976061
-0.933560
-5.835835
-6.911083
-5.033003
-6.322176
-7.842807
-6.057078
-4.840411
-2.740926
-3.326602
-10.872656
-12.194326
-5.268564
0.278729
4.429786
2.041533
-3.272460
0.479271
6.366973
8.733689
8.035556
3.930530
5.583229
10.442924
9.212903
7.036938
4.897445
1.534023
-1.244438
-7.776981
-12.819301
-8.331810
-2.488763
-0.888669
-1.192853
-2.808640
-0.200880
7.177047
10.373275
9.011158
7.155962
4.684945
2.609045
2.875560
5.062018
4.809970
2.150980
1.045338
-1.790637
-5.950372
-5.199195
-2.226477
-2.171549
-4.648879
-10.016177
-16.006778
-12.326589
-0.314334
4.919905
2.518092
-3.592681
-11.896707
-10.230682
-1.348270
1.540749
2.815397
3.347973
-0.414073
-1.747433
1.630924
5.380784
3.691351
-2.146581
-2.518566
-0.937176
-0.976234
4.711805
7.580718
0.852720
-4.344842
-7.080751
-8.867678
-5.737848
-4.098242
-5.263268
-3.181551
-1.414525
-1.725958
-2.486280
-5.446635
-6.528663
-4.785953
-4.588408
-2.236889
2.255044
2.676332
-1.164270
-4.619574
-0.640124
8.062731
9.883062
5.320962
0.673994
-5.420881
-12.715838
-14.640939
-11.857830
-10.819317
-7.705619
-2.978720
-4.256436
-4.524849
-1.033101
-2.374644
-4.942220
-6.133197
-9.424843
-8.144350
-1.357697
1.839233
2.731857
4.571593
4.356486
5.357825
7.311655
2.987093
-1.014361
-0.547716
-5.862410
-11.074700
-9.275410
-10.088104
-9.182855
-4.057098
-3.964061
-2.785737
0.411427
-1.129311
-2.905717
-4.345688
-5.760176
-6.558608
-7.656768
-2.218657
6.136074
8.932743
12.094135
13.131012
6.405118
0.621895
-1.035041
1.159600
6.367420
5.606396
4.216691
9.123146
8.954331
4.548641
1.526797
-5.515425
-12.447995
-15.377957
-16.019510
-11.756699
-6.366517
-6.554037
-11.186510
-11.966939
-3.574333
3.261885
-0.560714
-6.279176
-6.819028
-4.278601
-2.036499
-2.726917
-2.011511
3.363942
5.661453
3.198385
4.134495
7.410448
7.248646
9.036714
14.512933
12.560945
4.344360
0.365117
0.078233
2.811777
6.117656
2.532595
-2.803842
-3.223990
-4.421513
-7.225458
-5.459368
-1.042952
0.635699
0.012615
0.351607
3.224260
5.333798
4.764955
3.648793
2.215368
5.487347
13.900995
14.322751
6.829301
1.361470
-3.547819
-6.605434
-5.959466
-6.468223
-6.773109
-8.587624
-14.754274
-17.923410
-17.164285
-12.524826
-2.446541
2.658875
1.384900
-1.756180
-10.598641
-16.286942
-9.938426
-0.461234
5.676398
8.959131
8.506486
7.191596
10.684746
14.512461
11.555145
4.919731
-4.111638
-11.982437
-8.850503
-1.372511
-0.751092
-0.950068
1.309569
-0.346198
-7.286016
-16.632543
-22.206518
-19.261856
-13.894352
-13.178713
-16.375671
-19.257470
-19.403841
-16.898717
-9.986048
-1.489402
2.190319
2.982878
4.773049
7.225802
0.000000
0.000000
0.000000
0.000000
0.000000
0.000000
0.000000
0.000000
0.000000
0.000000
0.000000
0.000000
0.000000
0.000000
0.000000
0.000000
0.000000
0.000000
0.000000
0.000000
0.000000
0.000000
0.000000
0.000000
0.000000
0.000000
0.000000
0.000000
0.000000
0.000000
0.000000
0.000000
0.000000
0.000000
0.000000
0.000000
0.000000
0.000000
0.000000
0.000000
0.000000
0.000000
0.000000
0.000000
0.000000
0.000000
0.000000
0.000000
0.000000
0.000000
0.000000
0.000000
0.000000
0.000000
0.000000
0.000000
0.000000
0.000000
0.000000
0.000000
0.000000
0.000000
0.000000
0.000000
0.000000
0.000000
0.000000
0.000000
0.000000
0.000000
0.000000
0.000000
0.000000
0.000000
0.000000
