EVENT_NAME: 202302060117
EVENT_ID: 13194
EVENT_DATE_YYYYMMDD: 2023/02/06
EVENT_TIME_HHMMSS: 01:17:32.00000
EVENT_LATITUDE_DEGREE: 37.288
EVENT_LONGITUDE_DEGREE: 37.043
EVENT_DEPTH_KM: 8.6
HYPOCENTER_REFERENCE: AFAD
MAGNITUDE_W: 7.7
MAGNITUDE_W_REFERENCE: AFAD
MAGNITUDE_L: 
MAGNITUDE_L_REFERENCE: 
FOCAL_MECHANISM: 
NETWORK: TK
STATION_CODE: 2521
STATION_NAME: 
STATION_LATITUDE_DEGREE: 39.64607
STATION_LONGITUDE_DEGREE: 41.509117
STATION_ELEVATION_M: 1930.0
LOCATION: Kahramanmaras_Pazarck_Turkiye
SENSOR_DEPTH_M: 
VS30_M/S: None
SITE_CLASSIFICATION_EC8: unknown
MORPHOLOGIC_CLASSIFICATION: 
EPICENTRAL_DISTANCE_KM: 468.88
EARTHQUAKE_BACKAZIMUTH_DEGREE: 
DATE_TIME_FIRST_SAMPLE_YYYYMMDD_HHMMSS: 2023/02/06 01:18:11.4751660
DATE_TIME_FIRST_SAMPLE_PRECISION: millisecond
SAMPLING_INTERVAL_S: 0.01
NDATA: 24501
DURATION_S: 
STREAM: HNZ
UNITS: cm/s^2
INSTRUMENT: sensor = ACEBOX/SARA | digitizer = 
INSTRUMENT_ANALOG/DIGITAL: 
INSTRUMENTAL_FREQUENCY_HZ: 
INSTRUMENTAL_DAMPING: 
FULL_SCALE_G: 
N_BIT_DIGITAL_CONVERTER: 
PGA_CM/S^2: 3.731
TIME_PGA_S: 
BASELINE_CORRECTION: BASELINE REMOVED
FILTER_TYPE: BUTTERWORTH
FILTER_ORDER: 
LOW_CUT_FREQUENCY_HZ: 
HIGH_CUT_FREQUENCY_HZ: 
LATE/NORMAL_TRIGGERED: 
DATABASE_VERSION: 
HEADER_FORMAT: DYNA 1.2
DATA_TYPE: Acceleration
PROCESSING: Automatic Paolucci et al., 2011
DATA_TIMESTAMP_YYYYMMDD_HHMMSS: 
DATA_LICENSE: U (unknown license)
DATA_CITATION: Turkish Accelerometric Archive v 1.0 - Disaster And Emergency Management Presidency, Earthquake Department
DATA_CREATOR: AFAD
ORIGINAL_DATA_MEDIATOR_CITATION: : AFAD - Disaster And Emergency Management Presidency
ORIGINAL_DATA_MEDIATOR: AFAD PROCESS SERVICE
ORIGINAL_DATA_CREATOR_CITATION: AFAD PROCESS SERVICE
ORIGINAL_DATA_CREATOR: network: TK
USER1: GuestUser
USER2: 
USER3: 
USER4: 
USER5: 
[...]
0.712686
0.560951
0.611685
0.806438
0.837299
0.732558
0.594617
0.500865
0.499929
0.480524
0.541545
0.701930
0.672003
0.358014
0.039114
-0.081759
-0.009516
0.137776
0.136139
-0.026116
-0.165693
-0.109114
0.203706
0.644648
1.067821
1.349546
1.310502
0.964014
0.607941
0.382326
0.372740
0.561181
0.651660
0.733022
0.902758
1.029476
1.156662
1.118085
0.907667
0.729981
0.644411
0.741671
0.867921
0.942970
0.995107
0.905095
0.779545
0.662413
0.506002
0.422303
0.407573
0.502962
0.803859
1.000950
0.847345
0.544344
0.329017
0.187335
-0.024251
-0.175518
-0.229292
-0.225785
-0.021680
0.069734
-0.139514
-0.307147
-0.433164
-0.572975
-0.583730
-0.571339
-0.477586
-0.208252
-0.046464
-0.053946
-0.237944
-0.531594
-0.659481
-0.813788
-1.064185
-1.170095
-1.114685
-0.983993
-0.767263
-0.411891
-0.073353
0.012918
-0.221814
-0.510554
-0.583499
-0.509151
-0.533934
-0.791813
-0.976279
-0.766095
-0.342221
-0.158456
-0.264367
-0.357418
-0.530662
-0.723779
-0.633299
-0.521077
-0.520142
-0.524818
-0.753939
-1.078684
-1.072605
-0.644055
-0.146301
-0.015608
-0.109829
-0.208959
-0.281904
-0.216675
-0.106089
-0.047406
-0.001114
0.120227
0.118356
-0.187451
-0.562462
-0.894220
-0.960619
-0.734771
-0.431302
-0.115676
0.033487
0.104327
0.152957
0.096378
0.104560
0.149449
0.008236
-0.108897
0.083986
0.318484
0.379505
0.264009
0.004728
-0.037122
0.292064
0.663101
0.883571
0.926590
0.589454
-0.042033
-0.113107
0.551578
1.088143
1.195923
0.929862
0.262604
-0.453751
-0.744828
-0.655284
-0.166648
0.711728
1.168802
0.907650
0.227300
-0.410032
-0.253855
0.636445
1.561814
1.884688
1.431355
0.709856
0.217245
0.169551
0.378565
0.377162
0.030441
-0.391096
-0.655053
-0.749040
-0.693864
-0.594500
-0.479706
-0.215749
0.162068
0.601606
0.710556
0.255352
-0.041337
0.000045
-0.086927
-0.107969
-0.065652
-0.406295
-0.955017
-1.194426
-0.898906
-0.257600
0.157623
0.166975
0.133776
0.166507
0.171651
0.090055
-0.046249
-0.193541
-0.269993
-0.041339
0.291354
0.359389
0.068311
-0.371462
-0.773827
-1.150708
-1.094597
-0.660670
-0.433419
-0.522496
-0.726601
-0.696441
-0.550552
-0.666282
-0.996871
-1.312264
-1.445762
-1.297769
-0.822459
-0.395779
-0.327276
-0.266022
-0.074776
0.117873
0.022250
-0.602223
-1.341490
-1.912423
-1.961521
-1.276027
-0.645476
-0.339202
-0.185363
-0.348788
-0.673065
-0.795341
-0.618123
-0.523435
-0.683119
-0.968118
-1.229503
-1.320684
-1.267846
-1.036855
-0.754428
-0.545413
-0.464519
-0.510344
-0.475040
-0.400927
-0.455869
-0.715384
-0.966717
-0.912943
-0.736660
-0.738765
-0.957833
-1.182512
-1.168485
-0.947546
-0.611112
-0.331023
-0.281692
-0.218801
-0.267898
-0.776174
-1.347341
-1.773319
-2.044291
-1.874554
-1.385216
-0.885592
-0.511282
-0.367030
-0.471070
-0.643612
-0.627714
-0.544015
-0.760277
-1.229041
-1.539992
-1.498376
-1.150486
-0.612051
-0.179760
-0.071512
-0.283800
-0.728482
-1.104195
-1.287258
-1.296142
-1.089700
-0.926977
-0.825275
-0.625145
-0.607143
-0.775009
-0.735498
-0.616963
-0.654370
-0.713755
-0.748825
-0.717028
-0.682427
-0.746487
-0.870400
-1.152126
-1.440632
-1.314381
-0.887000
-0.605041
-0.583298
-0.721940
-0.952931
-1.201692
-1.267857
-1.251257
-1.337295
-1.438529
-1.540465
-1.395978
-0.913655
-0.482299
-0.228161
-0.036915
0.132120
0.179113
0.000024
-0.235644
-0.372649
-0.445126
-0.233540
0.246446
0.420858
0.265617
0.194776
0.293205
0.528872
0.818781
0.964436
0.884477
0.820884
0.916741
1.127159
1.446058
1.700195
1.783193
1.696922
1.446525
1.199167
1.039717
0.967006
1.070344
1.339445
1.703233
2.023536
2.069360
2.021197
2.146746
2.182985
2.051123
1.868293
1.548926
1.273045
1.157082
1.156614
1.254341
1.246859
1.115465
0.896864
0.531205
0.171859
-0.071992
-0.249444
-0.320986
-0.154756
0.161571
0.314241
0.231242
0.173027
0.159466
0.108966
0.288522
0.680834
0.899434
0.835140
0.626592
0.413603
0.462466
0.755648
0.926086
0.939179
0.732735
0.326629
0.108029
-0.030145
-0.238693
-0.230042
-0.000454
0.299274
0.453814
0.353515
0.171854
-0.009339
-0.066385
0.079036
0.336915
0.508522
0.428095
0.292493
0.295532
0.438850
0.639681
0.737876
0.698832
0.551305
0.444928
0.527458
0.751903
1.100027
1.469894
1.664881
1.684520
1.641033
1.533954
1.468257
1.596144
1.724966
1.661841
1.411677
1.031523
0.760786
0.644121
0.512259
0.414531
0.347899
0.257887
0.268408
0.362862
0.309789
0.054249
-0.268158
-0.541233
-0.687123
-0.724764
-0.716114
-0.716582
-0.723362
-0.627739
-0.397683
-0.118996
0.148234
0.294591
0.147298
-0.289435
-0.832313
-1.240055
-1.353681
-1.273255
-1.059564
-0.715648
-0.449120
-0.338300
-0.307439
-0.366823
-0.458706
-0.477877
-0.481618
-0.523936
-0.522533
-0.438366
-0.364487
-0.327780
-0.138639
0.146360
0.208784
0.067570
-0.144250
-0.466657
-0.729913
-0.635459
-0.281724
0.029460
0.172310
0.133032
-0.067332
-0.269099
-0.173476
0.229356
0.716589
1.156596
1.321423
1.284249
1.423358
1.752311
2.018138
2.033101
1.850505
1.659259
1.554050
1.411433
1.111939
0.934720
1.127603
1.548672
1.857985
1.737112
1.262971
0.813613
0.706299
0.916717
1.110067
1.242630
1.525291
1.903575
2.166363
2.355037
2.564051
2.658272
2.635827
2.541139
2.330020
2.107445
1.930928
1.727758
1.503546
1.309260
1.214105
1.301545
1.448837
1.450239
1.220884
0.847744
0.546145
0.391839
0.429947
0.597814
0.871356
1.338717
1.762357
2.071437
2.330484
2.401559
2.287933
2.025846
1.620442
1.233741
1.068446
1.069147
1.171083
1.362095
1.519674
1.628623
1.713024
1.832261
2.047354
2.279514
2.396179
2.281852
2.031923
1.886033
1.858679
1.861484
1.836000
1.689175
1.562223
1.633765
1.749728
1.769133
1.718633
1.662521
1.659248
1.660651
1.527620
1.201940
0.858492
0.721487
0.884677
1.280028
1.597057
1.614358
1.449531
1.354375
1.595186
2.039868
2.264781
2.191369
1.965053
1.775443
1.706940
1.808174
2.040101
2.149752
2.126372
2.042906
1.879248
1.691275
1.529721
1.440644
1.477116
1.600795
1.695716
1.721901
1.648021
1.526447
1.523875
1.578115
1.530187
1.393182
1.248461
1.165463
1.098597
0.921144
0.710025
0.550575
0.355354
0.298775
0.575591
1.008817
1.383127
1.552396
1.501194
1.393180
1.390140
1.436666
1.341510
1.072175
0.727792
0.439987
0.285915
0.317010
0.545897
0.693423
0.634272
0.549871
0.419646
0.212268
-0.075303
-0.391865
-0.547574
-0.588956
-0.531209
-0.385085
-0.353757
-0.374565
-0.421091
-0.658161
-0.931938
-1.005584
-0.937316
-0.867878
-0.799142
-0.736718
-0.735081
-0.764072
-0.817612
-0.912300
-1.038083
-1.218575
-1.396962
-1.362828
-1.102612
-0.973088
-1.091624
-1.316537
-1.531397
-1.498665
-1.288715
-1.143060
-0.980103
-0.735552
-0.506197
-0.379011
-0.395377
-0.477206
-0.459204
-0.371530
-0.409873
-0.563010
-0.665647
-0.805225
-1.005121
-0.999277
-0.882144
-0.788158
-0.686690
-0.696977
-0.669156
-0.480715
-0.283157
-0.129318
-0.023876
0.024053
0.077826
0.179294
0.263227
0.311623
0.345757
0.399764
0.528119
0.688971
0.825041
0.890036
0.881152
0.896115
1.006233
1.243771
1.518716
1.611066
1.545837
1.507961
1.568982
1.772619
1.993324
2.034940
1.972282
1.908689
1.809091
1.707389
1.623456
1.438288
1.134118
0.892839
0.712815
0.548689
0.546117
0.598721
0.606437
0.688499
0.825271
0.983785
1.150482
1.279538
1.291462
1.152586
0.965782
0.741570
0.509877
0.338036
0.186301
0.088808
0.060050
0.020772
-0.054744
-0.050770
0.057244
0.114524
0.075480
-0.007752
-0.082801
-0.106415
-0.073683
-0.020845
0.024044
0.116160
0.262049
0.305068
0.183727
0.028953
-0.075555
-0.013131
0.271634
0.546579
0.676804
0.739696
0.712107
0.677505
0.813108
0.997340
1.064673
1.024460
0.859866
0.582817
0.293843
0.054434
-0.117640
-0.167907
-0.121615
-0.159257
-0.293690
-0.333904
-0.273350
-0.158556
-0.081871
-0.270311
-0.598563
-0.829555
-1.034595
-1.171600
-1.168561
-1.179550
-1.219997
-1.235428
-1.262548
-1.276342
-1.320764
-1.402593
-1.406100
-1.328012
-1.185630
-1.010750
-0.922374
-0.933831
-0.999995
-1.040442
-1.025246
-1.116894
-1.310245
-1.447250
-1.563448
-1.662110
-1.652992
-1.625171
-1.638030
-1.628444
-1.607402
-1.572333
-1.547083
-1.527210
-1.439770
-1.335965
-1.275411
-1.284997
-1.378750
-1.497519
-1.557137
-1.500091
-1.394649
-1.278685
-1.161553
-1.168333
-1.265359
-1.310482
-1.333395
-1.361918
-1.390208
-1.491910
-1.590572
-1.607873
-1.615355
-1.553165
-1.383896
-1.220004
-1.089546
-0.933369
-0.758489
-0.632005
-0.574958
-0.474192
-0.246473
-0.011741
0.128771
0.157528
0.079206
0.050448
0.165710
0.294299
0.339655
0.339421
0.351111
0.353916
0.328666
0.298740
0.229068
0.111234
0.025430
0.013740
0.034314
0.053486
0.121053
0.246134
0.357422
0.430366
0.414936
0.318377
0.224390
0.100478
-0.028812
-0.070662
-0.091236
-0.172130
-0.254193
-0.297212
-0.344439
-0.428373
-0.498980
-0.512774
-0.469288
-0.314514
-0.085159
0.037117
-0.018060
-0.128880
-0.177042
-0.071600
0.207320
0.470108
0.542118
0.454210
0.291954
0.096967
-0.027413
-0.022503
-0.016892
-0.117425
-0.263783
-0.360341
-0.416920
-0.416686
-0.330182
-0.262147
-0.234559
-0.199256
-0.154834
-0.069498
0.069845
0.178794
0.216201
0.238880
0.240049
0.221812
0.166402
0.035709
-0.042847
0.005315
0.080832
0.064232
-0.042380
-0.112285
-0.122339
-0.174943
-0.304701
-0.487297
-0.687661
-0.815081
-0.796611
-0.727875
-0.789831
-0.965881
-1.128837
-1.267947
-1.366609
-1.376897
-1.350244
-1.358895
-1.375962
-1.313304
-1.157362
-0.980611
-0.849685
-0.811342
-0.881949
-0.953024
-0.889665
-0.754764
-0.663817
-0.610511
-0.588067
-0.628982
-0.726943
-0.831450
-0.884990
-0.852259
-0.774404
-0.707304
-0.639036
-0.588302
-0.593212
-0.633659
-0.701460
-0.752896
-0.736063
-0.710345
-0.685563
-0.578717
-0.426048
-0.319203
-0.250934
-0.168170
-0.012695
0.166394
0.244014
0.220167
0.157275
0.100228
0.120335
0.246351
0.370965
0.411412
0.352729
0.207774
0.098825
0.065158
0.021671
-0.049403
-0.152976
-0.300736
-0.422778
-0.449197
-0.409452
-0.337442
-0.233870
-0.139416
-0.060861
-0.012231
-0.077461
-0.212362
-0.348198
-0.490347
-0.553472
-0.502037
-0.416467
-0.345861
-0.312662
-0.368773
-0.499700
-0.585971
-0.650967
-0.754072
-0.840109
-0.952566
-1.097988
-1.177947
-1.159711
-1.035565
-0.851800
-0.724147
-0.709652
-0.756645
-0.776518
-0.723680
-0.656346
-0.656814
-0.669205
-0.640215
-0.590416
-0.520745
-0.395196
-0.192961
-0.022523
0.049954
0.073801
0.070528
0.088764
0.162176
0.210806
0.184153
0.123365
0.052291
0.032885
0.102557
0.152355
0.113545
0.034288
-0.068116
-0.158829
-0.173559
-0.184313
-0.261700
-0.345166
-0.405954
-0.434243
-0.434945
-0.444063
-0.436348
-0.434244
-0.445700
-0.399642
-0.390992
-0.512567
-0.643961
-0.789850
-0.975953
-1.033467
-0.968238
-0.931532
-0.993722
-1.144755
-1.303972
-1.400062
-1.435834
-1.461084
-1.473709
-1.456876
-1.431626
-1.425547
-1.474411
-1.568865
-1.584997
-1.509715
-1.449863
-1.345823
-1.187309
-1.071579
-0.999570
-0.978061
-0.972683
-0.868176
-0.648173
-0.422559
-0.256797
-0.101789
0.068415
0.191158
0.261999
0.330034
0.364635
0.302913
0.180637
0.082442
0.069349
0.181104
0.396899
0.633969
0.827319
0.937671
0.936736
0.880157
0.846022
0.858180
0.867531
0.833631
0.814459
0.795521
0.758581
0.735903
0.685870
0.598664
0.516133
0.485739
0.477790
0.360891
0.118677
-0.125875
-0.308471
-0.447113
-0.523798
-0.587859
-0.709200
-0.831242
-0.944400
-1.032542
-1.100343
-1.200643
-1.318009
-1.479095
-1.620543
-1.678992
-1.732532
-1.805009
-1.919103
-2.069668
-2.209245
-2.377813
-2.605532
-2.834653
-2.983115
-3.010002
-2.927705
-2.846110
-2.850319
-2.885388
-2.901988
-2.904560
-2.878609
-2.797013
-2.698117
-2.640370
-2.619562
-2.603664
-2.588233
-2.583557
-2.563217
-2.487935
-2.306742
-2.051903
-1.870476
-1.808287
-1.801974
-1.766671
-1.657020
-1.518612
-1.381841
-1.254889
-1.113442
-0.925937
-0.730015
-0.554667
-0.400829
-0.292581
-0.238574
-0.219636
-0.251433
-0.303102
-0.308947
-0.280658
-0.245588
-0.155577
0.004107
0.158647
0.298457
0.424240
0.531553
0.654764
0.720928
0.725838
0.782417
0.901419
1.064142
1.217747
1.282742
1.275027
1.238554
1.187586
1.127500
1.054789
0.976233
0.882013
0.756697
0.647046
0.570127
0.492506
0.407871
0.304533
0.185764
0.078450
-0.031434
-0.143423
-0.216135
-0.251906
-0.270843
-0.295626
-0.390548
-0.553037
-0.680924
-0.730022
-0.769768
-0.821437
-0.829386
-0.786835
-0.735634
-0.719970
-0.769768
-0.913788
-1.112983
-1.263783
-1.364082
-1.457367
-1.510439
-1.553692
-1.657965
-1.794503
-1.928703
-2.047940
-2.117144
-2.127899
-2.116677
-2.114806
-2.092596
-1.992998
-1.837991
-1.668254
-1.521196
-1.453629
-1.443575
-1.475372
-1.553227
-1.624067
-1.658903
-1.643940
-1.565852
-1.466021
-1.410845
-1.375308
-1.309377
-1.251863
-1.207442
-1.173541
-1.185465
-1.182192
-1.118366
-1.037940
-0.937407
-0.832900
-0.776087
-0.739849
-0.689582
-0.638381
-0.583439
-0.526860
-0.509793
-0.538082
-0.604949
-0.717639
-0.876621
-1.084000
-1.285299
-1.396353
-1.416226
-1.426981
-1.480988
-1.553699
-1.583625
-1.567727
-1.598121
-1.722268
-1.908604
-2.081381
-2.188460
-2.267951
-2.353053
-2.451248
-2.559730
-2.650678
-2.713102
-2.780202
-2.871149
-2.979163
-3.123650
-3.283100
-3.379191
-3.390413
-3.377321
-3.373113
-3.416599
-3.532563
-3.642448
-3.712119
-3.731057
-3.694585
-3.651800
-3.620471
-3.642448
-3.699261
-3.688974
-3.600365
-3.500300
-3.445592
-3.440449
-3.441851
-3.419407
-3.365868
-3.294326
-3.256217
-3.270479
-3.302042
-3.323785
-3.292222
-3.192859
-3.079000
-2.978934
-2.888689
-2.799378
-2.692533
-2.555762
-2.368023
-2.161580
-1.973607
-1.790778
-1.616833
-1.437277
-1.225924
-1.007558
-0.810467
-0.597244
-0.351289
-0.112816
0.115837
0.334905
0.516800
0.672275
0.831023
0.959377
1.036998
1.086797
1.119996
1.201591
1.385355
1.614944
1.820452
1.986214
2.130467
2.260458
2.339013
2.368472
2.391617
2.387877
2.344858
2.315867
2.310489
2.302306
2.322880
2.404475
2.506177
2.600865
2.684330
2.775979
2.919998
3.071966
3.152392
3.129947
3.042974
2.966289
2.902228
2.847519
2.825309
2.812917
2.783225
2.722905
2.612085
2.458480
2.313058
2.223280
2.175117
2.122279
2.055179
1.992755
1.923551
1.830265
1.744696
1.674322
1.586648
1.481206
1.327367
1.110637
0.927339
0.808570
0.708037
0.648886
0.625507
0.600256
0.581552
0.593710
0.647015
0.698217
0.696814
0.637195
0.530584
0.393345
0.241376
0.100396
-0.009489
-0.107450
-0.210554
-0.281161
-0.305710
-0.330259
-0.341014
-0.332364
-0.369304
-0.443418
-0.492281
-0.520571
-0.544652
-0.532962
-0.460485
-0.356913
-0.285839
-0.298464
-0.388710
-0.492516
-0.548394
-0.557746
-0.610117
-0.740810
-0.858176
-0.884362
-0.802065
-0.668099
-0.581361
-0.591180
-0.677919
-0.726082
-0.678855
-0.595155
-0.517769
-0.527588
-0.635369
-0.733798
-0.765594
-0.725148
-0.655009
-0.626485
-0.663192
-0.726083
-0.756711
-0.740345
-0.686104
-0.600769
-0.501872
-0.408588
-0.358789
-0.381000
-0.428227
-0.448334
-0.432202
-0.368843
-0.253815
-0.086650
0.109974
0.303557
0.492933
0.667112
0.799441
0.890154
0.975256
1.067840
1.143824
1.189414
1.177257
1.153643
1.211391
1.308183
1.386738
1.437472
1.440979
1.433965
1.465294
1.547356
1.669398
1.810144
1.934758
2.033420
2.132083
2.233317
2.360268
2.500780
2.578167
2.592195
2.566711
2.528368
2.514808
2.476465
2.386219
2.295505
2.236354
2.194271
2.133250
2.065448
2.016584
2.027339
2.127872
2.258564
2.386919
2.525093
2.661864
2.775723
2.854513
2.927223
3.001337
3.039212
3.038744
3.008818
2.929327
2.811493
2.720078
2.676358
2.627026
2.552913
2.465005
2.338988
2.192864
2.075264
1.974965
1.857131
1.706098
1.555766
1.443309
1.333191
1.199225
1.059648
0.916564
0.799431
0.751970
0.749398
0.772310
0.811120
0.817900
0.782363
0.717601
0.621276
0.518172
0.430030
0.349604
0.261228
0.177295
0.134510
0.110428
0.046134
-0.070531
-0.198652
-0.305731
-0.389431
-0.449517
-0.495341
-0.542802
-0.622294
-0.735452
-0.847908
-0.945869
-1.012034
-1.048507
-1.062768
-1.042428
-1.022789
-1.076797
-1.178966
-1.226661
-1.199541
-1.118881
-1.021387
-0.969952
-0.947975
-0.887890
-0.779408
-0.679109
-0.594007
-0.493942
-0.412814
-0.331219
-0.204267
-0.080355
0.008488
0.070444
0.092654
0.098499
0.121645
0.158819
0.228256
0.317800
0.384433
0.449428
0.528685
0.589005
0.623139
0.659377
0.708475
0.798253
0.937362
1.043506
1.097279
1.152923
1.210904
1.274029
1.345104
1.408930
1.472289
1.515775
1.537752
1.565807
1.594331
1.635713
1.711229
1.820880
1.954612
2.067068
2.155911
2.259015
2.344117
2.413321
2.504268
2.551261
2.516659
2.488369
2.503332
2.537700
2.621166
2.738766
2.827141
2.874835
2.908736
2.933284
2.922062
2.876939
2.820594
2.763547
2.734088
2.752324
2.774067
2.758637
2.725437
2.698317
2.671898
2.623268
2.555232
2.483223
2.420799
2.406537
2.445347
2.497951
2.520863
2.479013
2.378714
2.267894
2.185364
2.120602
2.066594
2.006508
1.899195
1.778789
1.681296
1.586374
1.494492
1.406817
1.312363
1.220247
1.154082
1.102880
1.059862
1.044431
1.006789
0.922856
0.817647
0.665679
0.484018
0.339765
0.261677
0.262144
0.320126
0.379744
0.424399
0.457364
0.441933
0.388160
0.346310
0.311942
0.293004
0.291601
0.268923
0.208135
0.130047
0.092171
0.123734
0.190834
0.249283
0.288794
0.318954
0.353790
0.415746
0.487521
0.529605
0.533112
0.517447
0.511368
0.503185
0.486352
0.476298
0.448944
0.408964
0.406860
0.427434
0.432577
0.429538
0.433512
0.433045
0.398442
0.357761
0.361268
0.408028
0.474660
0.558359
0.627563
0.625225
0.587817
0.594129
0.655384
0.743993
0.819510
0.853644
0.862294
0.882868
0.921445
0.961658
0.987375
0.955812
0.899233
0.878425
0.865566
0.865332
0.901571
0.937809
0.940614
0.930795
0.929626
0.934068
0.938977
0.931496
0.915130
0.891048
0.875384
0.891048
0.896192
0.880293
0.859485
0.817635
0.783267
0.754276
0.673148
0.579161
0.535909
0.502943
0.462262
0.424855
0.350507
0.234777
0.108059
-0.025673
-0.159639
-0.275135
-0.359770
-0.414479
-0.427805
-0.389696
-0.313245
-0.241469
-0.226740
-0.262979
-0.343873
-0.460538
-0.541666
-0.551252
-0.533249
-0.532314
-0.571125
-0.653889
-0.732445
-0.778971
-0.804221
-0.803754
-0.758163
-0.688726
-0.655059
-0.652955
-0.655293
-0.631446
-0.536057
-0.420795
-0.343876
-0.297116
-0.288700
-0.313950
-0.329381
-0.317224
-0.289869
-0.246617
-0.204768
-0.178115
-0.161048
-0.165490
-0.186766
-0.193546
-0.173206
-0.139539
-0.110782
-0.077583
-0.016796
0.059422
0.138679
0.229626
0.315196
0.397726
0.492881
0.589907
0.680152
0.749590
0.788400
0.795882
0.785594
0.786997
0.796583
0.824404
0.885659
0.916754
0.873735
0.822066
0.806401
0.814818
0.851991
0.878644
0.838899
0.758940
0.683891
0.612115
0.556003
0.532857
0.503399
0.457107
0.421569
0.393280
0.380421
0.377381
0.329453
0.229855
0.129556
0.045622
-0.031063
-0.106112
-0.174148
-0.228389
-0.298996
-0.385267
-0.452133
-0.492113
-0.507076
-0.535132
-0.629820
-0.782022
-0.927210
-1.035225
-1.131082
-1.210339
-1.250085
-1.260606
-1.248916
