EVENT_NAME: 202302060117
EVENT_ID: 13194
EVENT_DATE_YYYYMMDD: 2023/02/06
EVENT_TIME_HHMMSS: 01:17:32.00000
EVENT_LATITUDE_DEGREE: 37.288
EVENT_LONGITUDE_DEGREE: 37.043
EVENT_DEPTH_KM: 8.6
HYPOCENTER_REFERENCE: AFAD
MAGNITUDE_W: 7.7
MAGNITUDE_W_REFERENCE: AFAD
MAGNITUDE_L: 
MAGNITUDE_L_REFERENCE: 
FOCAL_MECHANISM: 
NETWORK: TK
STATION_CODE: 4412
STATION_NAME: 
STATION_LATITUDE_DEGREE: 38.59685
STATION_LONGITUDE_DEGREE: 38.18385
STATION_ELEVATION_M: 820.0
LOCATION: Kahramanmaras_Pazarck_Turkiye
SENSOR_DEPTH_M: 
VS30_M/S: None
SITE_CLASSIFICATION_EC8: unknown
MORPHOLOGIC_CLASSIFICATION: 
EPICENTRAL_DISTANCE_KM: 176.60
EARTHQUAKE_BACKAZIMUTH_DEGREE: 
DATE_TIME_FIRST_SAMPLE_YYYYMMDD_HHMMSS: 2023/02/06 01:17:42.4632560
DATE_TIME_FIRST_SAMPLE_PRECISION: millisecond
SAMPLING_INTERVAL_S: 0.01
NDATA: 13501
DURATION_S: 
STREAM: HNZ
UNITS: cm/s^2
INSTRUMENT: sensor = ACEBOX/SARA | digitizer = 
INSTRUMENT_ANALOG/DIGITAL: 
INSTRUMENTAL_FREQUENCY_HZ: 
INSTRUMENTAL_DAMPING: 
FULL_SCALE_G: 
N_BIT_DIGITAL_CONVERTER: 
PGA_CM/S^2: 55.572
TIME_PGA_S: 
BASELINE_CORRECTION: BASELINE REMOVED
FILTER_TYPE: BUTTERWORTH
FILTER_ORDER: 
LOW_CUT_FREQUENCY_HZ: 
HIGH_CUT_FREQUENCY_HZ: 
LATE/NORMAL_TRIGGERED: 
DATABASE_VERSION: 
HEADER_FORMAT: DYNA 1.2
DATA_TYPE: Acceleration
PROCESSING: Automatic Paolucci et al., 2011
DATA_TIMESTAMP_YYYYMMDD_HHMMSS: 
DATA_LICENSE: U (unknown license)
DATA_CITATION: Turkish Accelerometric Archive v 1.0 - Disaster And Emergency Management Presidency, Earthquake Department
DATA_CREATOR: AFAD
ORIGINAL_DATA_MEDIATOR_CITATION: : AFAD - Disaster And Emergency Management Presidency
ORIGINAL_DATA_MEDIATOR: AFAD PROCESS SERVICE
ORIGINAL_DATA_CREATOR_CITATION: AFAD PROCESS SERVICE
ORIGINAL_DATA_CREATOR: network: TK
USER1: GuestUser
USER2: 
USER3: 
USER4: 
USER5: 
[...]
25.183745
20.432751
15.905735
13.265463
12.160070
10.971212
9.722735
8.869609
8.104157
7.938863
9.308214
11.578853
12.351554
10.851511
8.823320
7.039447
6.062175
7.345489
10.983609
16.063088
21.016084
24.231498
26.065638
27.132689
26.649665
24.471843
21.743664
18.827277
15.451946
12.708336
11.687811
12.200061
13.904678
15.553417
15.369185
13.729331
12.689635
13.391495
15.557627
18.582497
21.301325
21.589832
18.880823
15.411272
13.165650
12.210355
11.932838
11.942892
12.323748
12.933258
13.114451
12.780589
11.721722
9.022766
5.062475
1.255087
-1.477769
-1.658026
1.540087
6.109655
9.690962
11.674265
12.343860
12.159629
10.980122
8.450202
5.232918
2.253173
-0.458174
-3.563235
-7.765740
-12.427891
-15.074242
-14.525285
-11.978765
-8.020109
-3.874182
-2.139874
-1.868902
0.347730
4.656848
8.461665
9.870060
8.722350
5.639967
1.675935
-1.535971
-3.411726
-4.507534
-4.820354
-4.310675
-3.311893
-1.988132
-0.413741
1.667990
3.902391
4.216381
1.166262
-3.746285
-7.968430
-10.548148
-11.617770
-11.220782
-10.048055
-9.280264
-8.946167
-8.106133
-6.528936
-4.821515
-3.213456
-2.135183
-2.578462
-3.751189
-4.315341
-5.259882
-7.254873
-9.673506
-12.340197
-14.056970
-13.880218
-13.317234
-12.760329
-10.402950
-6.097340
-1.538059
2.289671
5.472353
8.331928
10.655172
12.288012
13.610838
13.695005
11.735083
9.623661
8.316033
6.887766
5.907922
5.115817
2.732021
-0.319735
-1.609827
-0.155842
3.756288
8.219946
11.013123
12.141195
12.854043
12.962759
11.489369
9.376544
8.140224
7.359810
6.203215
4.575986
2.691347
1.114619
0.248868
0.161896
0.917295
2.428795
4.046439
4.573886
3.386430
1.235028
-0.284420
-0.127308
0.798062
0.599569
-1.046364
-2.881906
-3.618366
-2.430910
0.044069
2.278937
4.446706
6.765040
7.476719
6.010577
3.672839
0.689352
-3.645015
-9.388011
-15.631332
-20.525878
-22.803062
-23.491127
-24.484298
-25.636216
-25.041436
-22.434830
-19.581100
-17.374755
-15.435640
-13.143725
-10.520051
-8.870845
-9.113292
-10.685812
-12.279841
-12.744630
-12.121560
-10.925686
-9.674871
-9.404834
-10.409227
-12.010270
-13.642175
-14.623421
-14.477765
-14.300313
-15.807603
-18.425898
-20.193639
-20.668247
-20.498042
-20.811798
-22.287058
-23.349432
-22.192135
-19.014596
-14.975047
-11.239200
-8.538607
-7.111040
-6.901324
-7.385751
-8.192819
-9.059739
-8.838332
-6.841937
-4.229486
-1.912789
0.511923
3.180486
5.986989
8.506388
9.406976
8.449576
7.055210
6.363171
6.998164
9.146060
11.759213
12.923524
11.749394
9.721437
8.790223
8.570454
7.797521
7.204845
7.867661
9.204046
10.397348
10.328145
8.110344
5.042924
1.720198
-2.681736
-6.655120
-8.844631
-10.776030
-13.145097
-14.978535
-16.128350
-16.976799
-18.057644
-20.273808
-22.981647
-24.551361
-25.066416
-24.844075
-23.600740
-22.236299
-21.542856
-20.766181
-18.777735
-15.476283
-11.525577
-7.319563
-3.666481
-1.418753
-0.940638
-3.065387
-6.890543
-10.191293
-13.100432
-15.457809
-15.832585
-15.446118
-15.935689
-16.551043
-16.875787
-17.265293
-17.720963
-18.806717
-20.457092
-20.885408
-19.369934
-17.204503
-15.427877
-14.381166
-14.220547
-14.325054
-13.879670
-13.184123
-12.481094
-11.500781
-11.361672
-12.489977
-13.232049
-13.872887
-16.017742
-19.366420
-22.666001
-24.414570
-23.546246
-19.952548
-14.518398
-9.822346
-7.864527
-8.387063
-10.158077
-11.732467
-12.797881
-13.575490
-13.052485
-10.861805
-8.147652
-5.544553
-3.111424
-1.643644
-2.209199
-4.867708
-8.546507
-11.717499
-13.766498
-15.612327
-17.716736
-18.847379
-18.557002
-18.191577
-17.311563
-14.394241
-11.178592
-9.494784
-8.511666
-7.953592
-7.387802
-5.849182
-4.196468
-2.897724
-0.927514
0.995235
0.694572
-1.450050
-3.547444
-6.093730
-9.582452
-13.149964
-16.637752
-18.392400
-16.790888
-13.878943
-11.472467
-9.149223
-7.204029
-6.979116
-8.670639
-10.746992
-12.454179
-14.236883
-15.907364
-17.598886
-19.741638
-21.622069
-22.541827
-22.276700
-20.601776
-18.022992
-15.156637
-12.214999
-10.160856
-9.686014
-9.605587
-8.816521
-7.917570
-7.831766
-8.712246
-9.414572
-8.611946
-7.009031
-5.196167
-2.615746
-0.539158
-0.207166
-1.034808
-2.839255
-5.552705
-9.223789
-13.882199
-17.907253
-19.769681
-19.101254
-16.023781
-11.861020
-7.775178
-3.872166
-0.733204
0.961125
0.827394
-1.351596
-4.305391
-6.540726
-7.915921
-7.390344
-4.086321
0.048384
3.239484
5.280067
6.041779
5.974445
5.431101
5.031308
6.132961
7.503014
6.371202
3.240890
0.510373
-1.351121
-2.793883
-3.626669
-4.320345
-4.706344
-3.335122
-1.540026
-2.035442
-4.441917
-7.483152
-11.013490
-14.583807
-17.005479
-17.055511
-14.952037
-12.489684
-11.194446
-11.224138
-11.943532
-13.354732
-15.238202
-15.566920
-13.114153
-9.052860
-4.721765
-1.080606
0.886798
0.781122
-0.626571
-1.871775
-2.510742
-2.748747
-2.801819
-3.549970
-4.368260
-3.066944
0.272617
3.419996
5.007714
6.046008
8.134519
10.496574
12.366718
14.721525
16.502125
15.648532
12.708999
9.318238
6.940988
6.031049
5.342984
4.935476
5.856170
6.944731
6.545873
4.740024
3.242085
3.506978
4.433750
4.781875
4.701683
4.557898
5.787205
8.541103
10.980310
12.565924
12.479185
10.333628
7.979758
5.881194
4.576840
5.436279
6.832750
7.986540
10.254374
12.671605
14.571909
16.602439
17.929473
17.736123
16.073123
14.564430
15.797711
18.713865
20.153589
20.016584
19.704699
19.622636
20.145174
20.978194
20.751177
20.083920
20.413341
20.695301
20.802380
21.949156
23.251408
23.686271
22.829171
20.501252
18.261474
17.670669
19.256283
22.654994
26.241444
28.831685
29.648573
27.752477
23.700304
19.275925
15.436974
12.316482
11.114063
12.416548
14.123737
15.489347
17.662960
19.560693
19.716870
18.531051
16.413550
14.146886
13.286512
14.026715
15.787676
18.336301
20.340645
20.767325
20.023617
18.588336
17.938146
18.809743
19.775793
20.412658
20.476718
19.763403
19.467884
18.955635
17.345240
15.699775
14.150401
13.137124
13.230643
13.559129
14.412256
15.458499
15.079280
14.480993
14.929417
14.621039
12.902395
11.485584
10.723406
9.604453
7.962027
5.727627
2.866651
0.121637
-1.832674
-2.200202
-0.759076
1.029240
1.963728
2.285667
2.960407
4.471673
5.790056
5.883341
5.040503
4.227123
4.340281
4.836633
4.433801
3.883910
4.638374
5.788657
5.429077
3.791094
3.071934
4.093161
5.503660
6.487947
7.119200
7.917385
9.500894
10.128406
8.368381
7.094186
8.620182
11.223982
12.969747
14.318056
16.797009
19.772547
20.760809
19.512799
17.753241
16.106374
14.344478
12.975362
12.641967
12.524368
11.400037
9.783329
8.982574
8.927399
8.496277
7.727786
7.796289
8.627438
8.996839
8.329348
6.476739
3.361157
-0.215006
-3.034834
-4.463569
-4.063074
-2.185447
-0.745723
-1.175910
-3.293411
-5.972260
-7.111086
-5.774233
-3.841898
-2.701201
-1.350787
0.755727
2.365188
2.380852
0.386796
-3.319358
-5.610804
-2.937098
2.882817
6.982219
7.845867
6.870932
5.008036
2.699756
1.114611
1.295571
1.972648
1.750074
2.367533
4.443653
5.782376
6.028565
5.126108
2.665626
1.649544
4.230900
7.841665
10.722516
13.590273
14.640491
11.493814
7.210882
6.772513
10.091499
14.029815
17.523214
19.459290
17.447231
12.516213
7.111288
1.218662
-2.715677
0.165173
7.736230
12.286627
12.793266
12.639428
11.062232
9.092724
9.764424
10.175908
7.287811
4.012077
3.207348
4.273464
4.945865
2.821350
-0.968503
-3.027556
-2.314473
2.572825
10.761575
15.810193
16.130028
16.073450
16.289947
15.567280
14.550028
13.891889
15.249317
19.510272
23.383124
25.076051
25.963546
25.690237
26.007267
29.374883
32.793233
34.226177
35.236883
35.706115
34.292109
31.620976
30.806193
32.213185
32.743438
32.807733
33.548637
33.627193
33.460028
32.573937
30.201597
28.732181
27.843051
25.997222
25.162800
25.719004
26.321266
26.732750
25.881261
23.576020
22.389967
23.183475
23.606415
22.896139
21.885200
20.687224
19.210327
16.750780
14.558230
14.646138
14.794132
13.754202
14.183454
16.709634
18.453996
16.805258
13.780623
12.722925
11.647926
9.051607
8.603185
10.464913
10.459302
8.838386
8.068960
7.420173
6.219858
5.354809
5.290281
5.991206
7.093093
8.032023
8.578408
9.165005
9.246367
7.308422
4.877866
3.773408
1.812785
-1.460844
-3.208946
-2.708385
-1.693705
-1.840997
-3.121036
-4.641653
-5.714548
-5.367593
-3.993332
-2.967897
-2.844451
-4.078433
-6.086283
-7.381052
-7.813343
-7.771960
-7.155436
-6.258356
-5.643469
-5.694670
-6.288514
-6.102645
-4.871702
-4.341216
-4.966389
-5.899006
-5.449881
-2.946146
-2.632857
-5.705654
-6.343452
-3.696399
-1.964896
-1.766168
-2.144218
-3.289123
-5.398441
-6.608809
-4.153704
0.082002
2.501570
3.602288
4.424787
4.840713
5.494878
6.662930
7.192715
4.907815
0.204749
-2.087399
-0.176573
0.885101
-1.454274
-2.794634
-0.987848
0.601974
0.623718
-0.300483
-3.678385
-8.345679
-10.222370
-10.407069
-12.315556
-14.300026
-14.145486
-12.841832
-11.204549
-9.999558
-10.437693
-11.742282
-11.741112
-9.846653
-8.596304
-10.076007
-11.708145
-10.985243
-8.892758
-6.454953
-5.549456
-7.036874
-7.588167
-6.445366
-6.013775
-6.256924
-7.612714
-10.535647
-12.760695
-14.248580
-16.434351
-17.495322
-16.219256
-14.288324
-12.965966
-13.644446
-17.719532
-22.330481
-23.156720
-21.403006
-19.545019
-16.326565
-12.806046
-11.837423
-12.253816
-13.052700
-15.434626
-18.570549
-20.399311
-20.320053
-18.719242
-16.116845
-13.245580
-11.170395
-11.370993
-13.330213
-13.473998
-11.224634
-9.267517
-7.654082
-6.459143
-6.821295
-7.187421
-6.371468
-5.651372
-5.898963
-7.228801
-9.638783
-12.040348
-12.626477
-10.905495
-8.320398
-6.901950
-7.244463
-8.620593
-10.755863
-12.841334
-13.658455
-13.836608
-14.281056
-15.059367
-16.872698
-19.515776
-20.600828
-19.725257
-20.317465
-23.199484
-25.332883
-26.477788
-28.070648
-29.643402
-31.394309
-33.549452
-33.894536
-30.901230
-26.884358
-24.220472
-22.463485
-22.510478
-25.165245
-27.279240
-27.605386
-28.162759
-29.418250
-31.889486
-36.088718
-39.692469
-40.749466
-40.514032
-40.439216
-40.399938
-40.392690
-39.922055
-38.141221
-36.634397
-36.754101
-36.944879
-36.382129
-35.493699
-34.138142
-32.943437
-32.745878
-33.454050
-35.233246
-37.480505
-38.691107
-39.682875
-41.625729
-42.544786
-41.540393
-41.058302
-41.645600
-40.784057
-38.604365
-37.881463
-37.331805
-34.288933
-31.025123
-29.879516
-30.019093
-30.727732
-31.608913
-31.966155
-31.085440
-29.717258
-29.580954
-29.992437
-30.249613
-30.799738
-30.378201
-29.883953
-32.226367
-35.168939
-34.998267
-33.652062
-33.200365
-31.544145
-28.672179
-26.634635
-25.420292
-25.515447
-26.313864
-25.291234
-23.323128
-22.180093
-21.099716
-19.420116
-17.239488
-15.854940
-16.953086
-19.908516
-22.513719
-23.711462
-24.821998
-26.942072
-29.094642
-30.825911
-32.290416
-33.811267
-36.640447
-39.037804
-38.065908
-36.436575
-36.648161
-36.246263
-35.250286
-35.327907
-34.689873
-32.309349
-30.048295
-29.161034
-28.015193
-25.103716
-23.347664
-24.434119
-25.020483
-23.767095
-21.282297
-17.512316
-14.858015
-13.944803
-11.750849
-8.620069
-6.710646
-5.441594
-4.334096
-4.015664
-4.422003
-4.995507
-5.741788
-6.983485
-8.028558
-8.314024
-8.338105
-8.076485
-7.647934
-7.322254
-6.282557
-4.391605
-2.112548
0.374587
2.128301
3.147658
4.322022
5.265628
6.166917
7.693380
8.644935
8.378406
8.990254
11.513161
12.964575
11.087885
8.041507
6.015654
4.610065
3.387540
3.139014
4.471892
5.944114
5.814123
4.677869
3.494622
2.005567
0.103159
-1.453229
-1.699417
-0.993115
-0.735002
-1.118429
-1.505831
-2.362464
-4.119917
-5.494177
-5.234428
-3.794704
-2.348200
-1.710167
-2.123286
-3.166489
-3.449851
-2.029064
-0.229059
0.839161
1.290858
0.342577
-1.311538
-1.196510
0.734656
2.757704
4.170776
6.035075
9.014121
10.412229
8.168711
4.347061
0.997214
-1.365307
-2.604432
-3.549908
-4.617425
-5.064913
-3.779495
0.382330
6.148239
10.386516
12.141399
11.364491
8.318581
5.749149
5.184062
5.362216
5.889195
6.681535
6.651141
5.726006
5.903459
8.021896
9.142019
7.858706
7.506842
9.744282
11.811986
11.457549
9.717397
8.548645
8.304093
8.642398
9.210059
9.707112
11.146135
14.083798
17.386418
20.406144
22.344792
22.603138
22.357651
21.771522
20.479793
19.622692
18.813988
17.132752
16.565093
18.573879
21.124608
22.545161
23.855829
25.475343
26.040431
25.155275
24.326230
24.495500
24.632272
24.269185
23.707371
22.754414
23.131763
25.865555
28.021400
28.778670
30.538462
32.477811
32.303398
31.080172
30.306771
29.441254
28.212182
26.938922
26.145649
26.701385
28.586493
31.153587
33.048748
32.709977
31.320988
31.238691
32.655503
34.076757
33.777731
31.838851
29.580603
27.524591
26.746981
27.843491
29.173564
30.007753
31.261842
33.148119
35.003067
35.982678
36.147973
36.067080
35.458038
34.284376
32.533469
29.709198
26.916023
25.283651
23.589556
21.838415
22.424779
24.672273
25.266820
24.900226
26.125558
27.919017
28.817734
29.505099
30.243431
30.502245
30.658890
31.255073
31.930280
32.677496
33.715791
35.832124
40.667052
46.103306
48.124718
47.863099
47.707157
46.908272
45.187291
43.747801
43.319953
43.417447
43.744296
45.470188
48.270612
49.889424
50.481399
51.413082
51.808434
51.224876
51.459375
53.587398
55.572104
54.295571
50.659557
48.254017
47.511945
47.113321
46.541453
45.599718
45.352127
46.168548
46.902906
47.742706
48.124731
45.707502
41.223738
37.992660
36.602268
35.458065
33.891624
31.368016
27.445600
23.287049
21.013605
21.703541
23.778492
25.192498
25.490590
24.160518
22.194751
20.973628
18.406067
14.734515
13.376387
12.892895
11.125388
10.462573
11.711753
13.196833
14.624166
15.899764
16.709171
16.487765
14.036635
10.503725
7.904602
5.752966
4.968109
7.845920
12.743272
16.409914
18.125987
17.894762
15.435683
12.099864
9.672581
7.609087
5.080803
3.471110
4.112650
5.857713
6.195083
4.469660
2.474434
1.417437
0.987718
1.290954
3.326627
7.048914
10.499060
12.583363
14.368406
15.580178
13.996435
10.135508
7.343969
7.286689
9.578370
12.334139
12.725984
10.480595
7.109473
3.967004
3.275199
4.405375
3.653484
1.211939
-0.170971
-0.438201
-0.170269
0.882754
1.819814
1.118189
-1.524889
-5.048914
-8.235571
-11.023836
-13.726065
-15.157605
-13.961498
-11.317718
-9.492696
-8.323242
-6.801455
-6.623768
-9.084016
-11.822016
-12.691507
-12.272075
-11.858721
-12.302701
-13.757621
-15.455223
-16.160355
-15.248545
-13.852541
-13.915900
-15.771314
-18.368100
-20.648558
-21.320024
-20.842141
-22.081968
-24.732995
-24.994613
-22.665291
-20.815253
-20.148696
-19.650240
-19.121156
-17.955676
-15.253447
-12.240034
-10.906454
-10.682008
-10.234052
-10.337390
-11.508714
-12.785480
-13.901160
-14.159272
-12.233951
-9.240878
-6.949898
-5.202965
-3.450420
-1.510136
-0.252306
-0.421809
-0.480959
0.083662
-0.022949
-0.617495
-1.142370
-1.584714
-2.224149
-3.283718
-3.480808
-2.834125
-2.821733
-2.258281
-0.561614
-0.099162
-1.904077
-4.813917
-6.995947
-7.336121
-6.733859
-6.578617
-7.191166
-8.373712
-9.949972
-11.137195
-11.177173
-11.058872
-11.506827
-11.831571
-12.091553
-12.355743
-12.982086
-15.121096
-17.544405
-18.469306
-19.029250
-20.137683
-20.592885
-20.110561
-20.368205
-21.755090
-22.631128
-23.383020
-25.868284
-28.862058
-30.248241
-30.771479
-31.225981
-31.182962
-31.689132
-33.902257
-36.554686
-38.003527
-38.266081
-37.815320
-36.951205
-36.621082
-36.813497
-35.681918
-33.355401
-31.948642
-31.201192
-30.615529
-32.276425
-35.962004
-37.625238
-35.765380
-33.435824
-32.637172
-31.776797
-29.971882
-28.750992
-28.561382
-28.666123
-28.908336
-28.818090
-28.721064
-29.991752
-32.137075
-33.967239
-35.364879
-35.778232
-35.495571
-36.027225
-36.164932
-33.403084
-29.754911
-28.859233
-29.822010
-30.995672
-33.143801
-35.022595
-34.938428
-34.797915
-36.137339
-37.805950
-39.025202
-40.278589
-41.892958
-42.922134
-42.550162
-42.231028
-43.277036
-44.593782
-45.308500
-45.723957
-45.654051
-45.552115
-46.934091
-49.361841
-50.815826
-51.249987
-51.715711
-51.720386
-50.487105
-48.429221
-46.190612
-44.456537
-43.875083
-43.358858
-41.288583
-38.735282
-37.898522
-39.257585
-41.913755
-43.950596
-43.783665
-42.143343
-40.393136
-38.813601
-37.624040
-36.789150
-35.589068
-33.859435
-32.022490
-30.225290
-28.523011
-27.137762
-26.304508
-25.893960
-25.290529
-24.213892
-23.528398
-24.282160
-25.786177
-26.507909
-26.613351
-26.994674
-27.297908
-27.120690
-26.858135
-26.300060
-25.102550
-24.048592
-23.344628
-22.693736
-22.939456
-23.901999
-24.244044
-23.753771
-22.405461
-20.499780
-19.032467
-17.921462
-16.676725
-15.358576
-14.061936
-12.996989
-11.906558
-10.455378
-9.392301
-8.996014
-8.007519
-5.618812
-2.394280
1.089767
4.418106
6.967432
9.032797
10.768976
11.040649
10.106863
9.216330
8.170321
7.282360
8.033317
10.512270
13.053179
14.625933
15.638276
16.002299
15.534471
15.356318
16.298287
17.507487
17.375159
15.687844
13.739612
12.623698
13.166342
14.869555
15.557855
14.858802
14.598586
15.271221
15.797031
16.030128
16.479720
16.602932
15.890786
14.982718
14.545050
14.552765
14.467664
13.893224
13.149516
12.697352
12.648255
12.846749
12.869662
12.643113
12.626748
12.719098
12.503303
12.360454
12.527853
12.538141
12.719100
13.878969
15.651153
17.319530
18.590920
18.842487
18.059032
17.510077
18.135017
19.627813
21.056549
21.816858
21.867826
21.616261
21.867359
22.810498
24.122101
25.802870
27.193263
27.680029
27.990045
28.459043
28.712246
28.866552
28.969657
28.674138
27.655016
26.120371
24.796845
24.022977
24.377882
26.538403
29.415980
31.876930
34.521645
37.736826
40.775957
42.247243
41.370738
39.242248
37.033332
34.606517
31.869219
29.393072
27.860298
27.290768
26.796755
25.995766
25.838421
26.721708
27.428009
27.280718
27.054169
26.836738
26.067545
25.274973
24.498532
22.802801
20.708212
19.426302
19.356163
20.252075
21.188901
21.553158
21.160145
20.743285
21.867149
23.414887
23.885989
24.571483
25.326882
25.505270
25.740704
25.140781
24.220088
24.649808
25.666826
27.567365
31.069648
34.180087
35.743256
36.352532
36.444181
36.784123
37.473358
36.835092
33.693792
29.445229
26.028983
23.565462
21.678719
20.683912
20.382781
19.847386
19.103911
19.104379
19.488976
19.525916
19.831490
19.962417
19.234840
19.401304
21.158291
22.619992
23.001783
23.410695
24.166562
23.723751
21.754243
20.070669
19.346600
19.284878
19.733535
20.065995
20.118834
20.035135
20.057814
21.073663
23.179709
25.652817
27.897739
29.267791
29.875899
30.178433
30.027868
29.890629
30.373655
31.021040
31.391375
31.269333
30.572150
29.940431
29.658705
29.234130
28.516139
27.748817
27.141412
26.628227
26.097976
25.621030
24.724885
23.174576
21.649517
19.882244
17.456598
15.648410
15.244642
15.959595
17.772693
19.622030
20.188054
19.995171
19.702224
19.152567
18.308325
17.111518
15.951650
15.127749
