EVENT_NAME: 202302060117
EVENT_ID: 13194
EVENT_DATE_YYYYMMDD: 2023/02/06
EVENT_TIME_HHMMSS: 01:17:32.00000
EVENT_LATITUDE_DEGREE: 37.288
EVENT_LONGITUDE_DEGREE: 37.043
EVENT_DEPTH_KM: 8.6
HYPOCENTER_REFERENCE: AFAD
MAGNITUDE_W: 7.7
MAGNITUDE_W_REFERENCE: AFAD
MAGNITUDE_L: 
MAGNITUDE_L_REFERENCE: 
FOCAL_MECHANISM: 
NETWORK: TK
STATION_CODE: 0511
STATION_NAME: 
STATION_LATITUDE_DEGREE: 40.785226
STATION_LONGITUDE_DEGREE: 35.028318
STATION_ELEVATION_M: 707.0
LOCATION: Kahramanmaras_Pazarck_Turkiye
SENSOR_DEPTH_M: 
VS30_M/S: 415
SITE_CLASSIFICATION_EC8: B
MORPHOLOGIC_CLASSIFICATION: 
EPICENTRAL_DISTANCE_KM: 426.00
EARTHQUAKE_BACKAZIMUTH_DEGREE: 
DATE_TIME_FIRST_SAMPLE_YYYYMMDD_HHMMSS: 2023/02/06 01:18:06.1734160
DATE_TIME_FIRST_SAMPLE_PRECISION: millisecond
SAMPLING_INTERVAL_S: 0.01
NDATA: 21001
DURATION_S: 
STREAM: HNN
UNITS: cm/s^2
INSTRUMENT: sensor = ACEBOX/SARA | digitizer = 
INSTRUMENT_ANALOG/DIGITAL: 
INSTRUMENTAL_FREQUENCY_HZ: 
INSTRUMENTAL_DAMPING: 
FULL_SCALE_G: 
N_BIT_DIGITAL_CONVERTER: 
PGA_CM/S^2: 2.752
TIME_PGA_S: 
BASELINE_CORRECTION: BASELINE REMOVED
FILTER_TYPE: BUTTERWORTH
FILTER_ORDER: 
LOW_CUT_FREQUENCY_HZ: 
HIGH_CUT_FREQUENCY_HZ: 
LATE/NORMAL_TRIGGERED: 
DATABASE_VERSION: 
HEADER_FORMAT: DYNA 1.2
DATA_TYPE: Acceleration
PROCESSING: Automatic Paolucci et al., 2011
DATA_TIMESTAMP_YYYYMMDD_HHMMSS: 
DATA_LICENSE: U (unknown license)
DATA_CITATION: Turkish Accelerometric Archive v 1.0 - Disaster And Emergency Management Presidency, Earthquake Department
DATA_CREATOR: AFAD
ORIGINAL_DATA_MEDIATOR_CITATION: : AFAD - Disaster And Emergency Management Presidency
ORIGINAL_DATA_MEDIATOR: AFAD PROCESS SERVICE
ORIGINAL_DATA_CREATOR_CITATION: AFAD PROCESS SERVICE
ORIGINAL_DATA_CREATOR: network: TK
USER1: GuestUser
USER2: 
USER3: 
USER4: 
USER5: 
[...]
-0.657834
-0.745508
-0.772862
-0.762576
-0.745742
-0.813544
-0.924598
-0.917584
-0.888360
-0.903790
-0.963877
-1.026067
-0.998245
-0.999414
-1.063475
-1.056461
-1.043603
-1.103455
-1.122860
-1.092935
-1.151852
-1.195806
-1.146709
-1.210536
-1.291430
-1.254957
-1.308497
-1.352218
-1.313174
-1.367415
-1.353855
-1.302653
-1.350115
-1.318318
-1.265714
-1.232048
-1.233217
-1.315747
-1.242335
-1.192069
-1.273898
-1.209838
-1.235322
-1.326036
-1.265015
-1.302890
-1.361808
-1.359937
-1.410438
-1.405996
-1.439429
-1.492969
-1.464680
-1.538560
-1.603088
-1.555628
-1.586957
-1.633249
-1.595841
-1.553524
-1.555395
-1.534120
-1.493439
-1.518923
-1.447849
-1.360409
-1.438965
-1.413481
-1.316456
-1.316456
-1.355734
-1.374438
-1.242577
-1.247954
-1.343811
-1.175945
-1.201663
-1.285363
-1.116795
-1.123108
-1.090844
-1.028654
-1.078453
-0.901001
-0.853541
-0.888611
-0.730096
-0.718173
-0.635643
-0.517575
-0.546099
-0.407223
-0.323524
-0.313939
-0.173427
-0.121758
-0.071959
0.016650
0.068552
0.173995
0.228235
0.265877
0.353317
0.394932
0.430235
0.456187
0.489152
0.532872
0.500374
0.504114
0.548769
0.534274
0.551808
0.603711
0.633871
0.603944
0.590618
0.676421
0.665199
0.674784
0.812023
0.778122
0.779524
0.866029
0.765496
0.823478
0.961418
0.852234
0.836803
0.888239
0.841245
0.867430
0.872106
0.855506
0.883562
0.876314
0.909746
0.952999
0.930554
0.910915
0.937100
0.974741
0.966558
0.956037
0.908108
0.839605
0.827214
0.735097
0.703535
0.758944
0.628485
0.551098
0.581491
0.528185
0.545252
0.544317
0.492648
0.526782
0.552733
0.551798
0.531925
0.597388
0.659110
0.529820
0.605804
0.743510
0.583592
0.598088
0.677579
0.604400
0.653029
0.619830
0.582890
0.663316
0.603931
0.581720
0.602060
0.554599
0.590370
0.579381
0.522802
0.541506
0.522568
0.493109
0.494745
0.479315
0.466689
0.457805
0.451025
0.437464
0.444712
0.468325
0.429514
0.419928
0.453127
0.422266
0.414317
0.424136
0.426474
0.475337
0.461309
0.429512
0.442838
0.386493
0.369893
0.428810
0.389298
0.322899
0.339966
0.342772
0.295544
0.285958
0.280113
0.216286
0.209038
0.218390
0.163915
0.189399
0.199218
0.154796
0.213479
0.192204
0.148016
0.252289
0.260939
0.249717
0.320791
0.306061
0.341131
0.398411
0.385786
0.453353
0.471589
0.458730
0.522790
0.489357
0.501046
0.576095
0.524426
0.508995
0.513904
0.494733
0.502682
0.444933
0.443764
0.451713
0.377132
0.391627
0.375728
0.306056
0.302549
0.265843
0.252750
0.262803
0.221655
0.195001
0.204353
0.256490
0.226330
0.174193
0.267945
0.251111
0.192194
0.298572
0.312366
0.269814
0.288518
0.302779
0.328731
0.292959
0.284776
0.312598
0.254616
0.253681
0.248771
0.189386
0.193594
0.145198
0.100542
0.122986
0.087917
0.072720
0.054016
0.006788
0.036247
0.037649
0.028765
0.054716
0.002345
-0.029452
-0.015190
-0.006774
0.001175
-0.072237
-0.120400
-0.091409
-0.069900
-0.088370
-0.163419
-0.133727
-0.118998
-0.222805
-0.165992
-0.133728
-0.213921
-0.192646
-0.189373
-0.189139
-0.198725
-0.229820
-0.166228
-0.145888
-0.158513
-0.143082
-0.136536
-0.106844
-0.111754
-0.082062
-0.046759
-0.073646
-0.042084
-0.043487
-0.030394
0.019404
-0.029226
0.027821
0.060786
-0.003976
0.117832
0.152434
0.120871
0.232392
0.235665
0.305336
0.393244
0.338067
0.454031
0.527910
0.510375
0.600387
0.613479
0.670993
0.698114
0.677539
0.805426
0.771993
0.754224
0.875565
0.809634
0.856627
0.926766
0.835117
0.926765
0.967679
0.927232
1.028700
1.015373
0.981239
1.030570
1.041792
1.091123
1.098604
1.099773
1.140687
1.115904
1.149805
1.150038
1.088549
1.154480
1.150505
1.081067
1.109356
1.124787
1.126423
1.104914
1.103978
1.149568
1.133202
1.159388
1.172246
1.136943
1.195158
1.175051
1.168504
1.246359
1.178557
1.170842
1.222043
1.179258
1.217367
1.240279
1.210119
1.218769
1.222276
1.254539
1.255241
1.235601
1.250564
1.217131
1.195388
1.195387
1.148160
1.123611
1.109349
1.059550
1.025416
1.007179
0.984267
0.942651
0.900801
0.913659
0.873212
0.806112
0.849832
0.840948
0.782732
0.783901
0.762391
0.734335
0.687809
0.678925
0.691316
0.630762
0.629125
0.605278
0.566467
0.610888
0.577455
0.566233
0.570207
0.539579
0.593586
0.581429
0.589377
0.634266
0.581895
0.641747
0.685233
0.642214
0.718900
0.737136
0.724744
0.809145
0.788570
0.756540
0.856137
0.858709
0.813118
0.885361
0.871801
0.842576
0.940537
0.919027
0.825274
0.841172
0.909441
0.944276
0.890970
0.867123
0.885359
0.872967
0.904530
0.890268
0.853562
0.923701
0.948950
0.917388
0.972797
1.021427
1.013945
1.105126
1.184383
1.139961
1.221322
1.332610
1.298007
1.333544
1.379135
1.352949
1.374458
1.377731
1.367444
1.376094
1.367210
1.361365
1.344063
1.334244
1.318345
1.280937
1.271351
1.248205
1.229501
1.222955
1.176195
1.158894
1.138086
1.081740
1.069115
1.051346
1.017679
0.989389
0.968347
0.982141
0.952215
0.904286
0.896103
0.881374
0.886517
0.862436
0.815910
0.811701
0.772657
0.739224
0.724260
0.676332
0.645237
0.592632
0.552886
0.545171
0.479006
0.432714
0.392734
0.326102
0.324465
0.274198
0.190966
0.198214
0.150519
0.065416
0.054194
0.003693
-0.069252
-0.090293
-0.159965
-0.257459
-0.280839
-0.330404
-0.427898
-0.448940
-0.473255
-0.546434
-0.590154
-0.621016
-0.620548
-0.631303
-0.668477
-0.650007
-0.647670
-0.639954
-0.585246
-0.579869
-0.554619
-0.498976
-0.496872
-0.483312
-0.441228
-0.424395
-0.436553
-0.450113
-0.450114
-0.452452
-0.475364
-0.495471
-0.486587
-0.495939
-0.508097
-0.487523
-0.503655
-0.496641
-0.424164
-0.414111
-0.396577
-0.301655
-0.269391
-0.226139
-0.110410
-0.100123
-0.084225
0.072419
0.143259
0.104916
0.157053
0.268574
0.296863
0.263430
0.315333
0.394356
0.365833
0.375418
0.419606
0.395992
0.455610
0.467066
0.387341
0.460987
0.482028
0.427553
0.469169
0.459115
0.478053
0.496289
0.468466
0.549828
0.562920
0.545619
0.590975
0.589105
0.642644
0.659010
0.672336
0.753931
0.731720
0.753229
0.775440
0.760476
0.835993
0.803027
0.808170
0.863814
0.791570
0.835056
0.854227
0.824769
0.889297
0.833886
0.857734
0.946576
0.900986
0.958032
1.004090
1.027469
1.152317
1.154187
1.169150
1.274358
1.296335
1.328365
1.335379
1.335846
1.419779
1.407621
1.362732
1.407153
1.401776
1.376759
1.403646
1.415335
1.408789
1.423752
1.441987
1.439182
1.452976
1.460223
1.481031
1.553975
1.514463
1.469808
1.577121
1.582264
1.555377
1.612189
1.559585
1.549999
1.580860
1.520072
1.545556
1.524748
1.456011
1.502069
1.427488
1.367635
1.425383
1.337241
1.308718
1.373245
1.309185
1.273647
1.296559
1.276452
1.260788
1.270140
1.277153
1.270607
1.268502
1.262891
1.251902
1.225950
1.210520
1.210987
1.141549
1.128456
1.147393
1.049900
1.036573
1.037976
0.980228
1.015297
0.974148
0.940248
0.980227
0.906346
0.944923
1.037740
0.977186
0.977888
1.006177
1.026049
1.056677
0.980458
1.009215
1.092213
1.013189
1.004305
1.028620
0.985834
0.997290
0.960818
0.915227
0.889509
0.840178
0.851633
0.777286
0.699665
0.716966
0.604976
0.541851
0.541383
0.414197
0.362294
0.318106
0.199804
0.186945
0.139017
-0.023706
-0.058542
-0.022538
-0.156270
-0.274104
-0.288600
-0.361779
-0.397316
-0.437763
-0.497382
-0.477977
-0.537829
-0.592772
-0.569626
-0.597448
-0.603761
-0.607736
-0.636727
-0.648651
-0.662445
-0.647950
-0.650989
-0.682084
-0.681383
-0.694009
-0.738430
-0.749419
-0.732352
-0.771163
-0.813480
-0.780515
-0.761811
-0.823066
-0.890400
-0.869593
-0.856033
-0.918924
-0.925003
-0.909807
-0.927809
-0.924069
-0.951189
-0.944877
-0.896014
-0.910276
-0.889702
-0.849956
-0.858373
-0.803197
-0.777246
-0.798288
-0.732124
-0.710147
-0.696587
-0.631358
-0.641645
-0.593951
-0.495522
-0.447126
-0.402705
-0.408550
-0.315733
-0.192054
-0.191821
-0.068376
0.037534
0.049457
0.196282
0.274604
0.300087
0.407634
0.450652
0.542768
0.644236
0.649613
0.752951
0.783345
0.724661
0.862368
0.918245
0.857691
0.940221
0.963133
0.948638
0.981837
0.952612
0.978797
1.019711
0.994461
0.995162
0.995629
0.999370
1.004981
0.972950
0.983003
0.994927
0.940452
0.954246
0.982535
0.912863
0.897198
0.904680
0.857453
0.843892
0.799237
0.760426
0.779363
0.744995
0.729096
0.732603
0.656151
0.589753
0.579933
0.555150
0.454851
0.390323
0.423288
0.355720
0.248407
0.214272
0.117948
0.019986
-0.037762
-0.118422
-0.232281
-0.327437
-0.310838
-0.401785
-0.584849
-0.597942
-0.651715
-0.734947
-0.753417
-0.850677
-0.874992
-0.897203
-1.002646
-1.009660
-1.017376
-1.049173
-1.062967
-1.094530
-1.081203
-1.076294
-1.106688
-1.126795
-1.099674
-1.070450
-1.134978
-1.131705
-1.107858
-1.197870
-1.184076
-1.177764
-1.269179
-1.272219
-1.284610
-1.297703
-1.297703
-1.336280
-1.333708
-1.378364
-1.375792
-1.311265
-1.370182
-1.331372
-1.252115
-1.344465
-1.357324
-1.292796
-1.328801
-1.372054
-1.368547
-1.382809
-1.427464
-1.452948
-1.444298
-1.470951
-1.531271
-1.510697
-1.502982
-1.587851
-1.590189
-1.547404
-1.586215
-1.675993
-1.703815
-1.650977
-1.686281
-1.736080
-1.748705
-1.776761
-1.768812
-1.863968
-1.887114
-1.821651
-1.940654
-1.933173
-1.892259
-1.993727
-1.966840
-2.000975
-2.023186
-1.959360
-2.040955
-2.023654
-2.003548
-2.063634
-1.957023
-1.964738
-2.012667
-1.907926
-1.910966
-1.890859
-1.830540
-1.821890
-1.728605
-1.694938
-1.678105
-1.593704
-1.556765
-1.501121
-1.471897
-1.432853
-1.352894
-1.355232
-1.325540
-1.255869
-1.197654
-1.153466
-1.142946
-1.045686
-0.990277
-0.986770
-0.867066
-0.823580
-0.792251
-0.683302
-0.667638
-0.633737
-0.585809
-0.576925
-0.521515
-0.508657
-0.502812
-0.471016
-0.460027
-0.410930
-0.411866
-0.423556
-0.358560
-0.364172
-0.338220
-0.246806
-0.288890
-0.299645
-0.200982
-0.157029
-0.160536
-0.212439
-0.219921
-0.184384
-0.244938
-0.245405
-0.237690
-0.302452
-0.282580
-0.353421
-0.423794
-0.364176
-0.426600
-0.455123
-0.452084
-0.519886
-0.477569
-0.500948
-0.554956
-0.559398
-0.646137
-0.651047
-0.690793
-0.778233
-0.744801
-0.804887
-0.855621
-0.833410
-0.910798
-0.961298
-0.987016
-1.029100
-1.042894
-1.073288
-1.124490
-1.173353
-1.174756
-1.204449
-1.253547
-1.246299
-1.335142
-1.366004
-1.282305
-1.392190
-1.478929
-1.424688
-1.492723
-1.550939
-1.544159
-1.617338
-1.701037
-1.743121
-1.809987
-1.869372
-1.870307
-1.979725
-2.117665
-2.069737
-2.108548
-2.241812
-2.232461
-2.255139
-2.343982
-2.367830
-2.315226
-2.300497
-2.367363
-2.342581
-2.305875
-2.326917
-2.304239
-2.321306
-2.332762
-2.304006
-2.295122
-2.289043
-2.293018
-2.286705
-2.325048
-2.329491
-2.266366
-2.306579
-2.309151
-2.260522
-2.292786
-2.286707
-2.298397
-2.332064
-2.281798
-2.259822
-2.292787
-2.259121
-2.220544
-2.255146
-2.198568
-2.120246
-2.151107
-2.100607
-2.043093
-2.067876
-2.027897
-1.960564
-1.931573
-1.927599
-1.876631
-1.858863
-1.879905
-1.744536
-1.744303
-1.839926
-1.721157
-1.726301
-1.725600
-1.635354
-1.703390
-1.626003
-1.596545
-1.681881
-1.581816
-1.598650
-1.597013
-1.516353
-1.572699
-1.514483
-1.472868
-1.486428
-1.453463
-1.474973
-1.364387
-1.309678
-1.332825
-1.218030
-1.228318
-1.174311
-1.054139
-1.125214
-1.029825
-0.929058
-0.996158
-0.932799
-0.892820
-0.864999
-0.818239
-0.882768
-0.851907
-0.850504
-0.938412
-0.852141
-0.821280
-0.909422
-0.871313
-0.843959
-0.870846
-0.825490
-0.788316
-0.775925
-0.745765
-0.724724
-0.695266
-0.671185
-0.642662
-0.611333
-0.643831
-0.655521
-0.613204
-0.625596
-0.664406
-0.670953
-0.697840
-0.754653
-0.758627
-0.747639
-0.790191
-0.829001
-0.868045
-0.877865
-0.841861
-0.859863
-0.877866
-0.851915
-0.837887
-0.801181
-0.754422
-0.738524
-0.688959
-0.587725
-0.531380
-0.530211
-0.475035
-0.389700
-0.367022
-0.311144
-0.216223
-0.203130
-0.169464
-0.115924
-0.103300
-0.038070
-0.021237
-0.007210
0.072047
0.078827
0.099401
0.111559
0.119507
0.189179
0.209753
0.267033
0.276618
0.212324
0.258382
0.287138
0.317999
0.353536
0.347691
0.410583
0.403568
0.355640
0.382059
0.434897
0.444014
0.344650
0.378083
0.429051
0.298124
0.333661
0.354703
0.246688
0.314255
0.321736
0.270535
0.317294
0.275210
0.251830
0.284795
0.263052
0.262350
0.251829
0.230787
0.215590
0.180520
0.187534
0.155971
0.090975
0.105704
0.060114
-0.011662
0.002599
-0.069411
-0.154513
-0.143525
-0.203611
-0.268841
-0.261593
-0.311392
-0.380129
-0.411925
-0.437410
-0.461491
-0.506380
-0.519006
-0.513862
-0.578157
-0.628657
-0.661623
-0.698797
-0.683366
-0.732464
-0.819203
-0.838141
-0.894252
-0.937037
-0.943584
-1.036168
-1.115425
-1.100696
-1.132026
-1.232091
-1.251029
-1.248457
-1.311817
-1.343613
-1.381722
-1.409778
-1.425209
-1.499791
-1.497687
-1.515456
-1.591674
-1.585595
-1.659242
-1.725640
-1.706703
-1.760944
-1.801859
-1.855866
-1.922031
-1.894911
-1.899821
-1.969259
-1.991937
-1.966921
-1.986560
-1.987963
-1.966688
-2.008772
-1.969962
-1.933022
-1.956402
-1.916890
-1.911279
-1.873405
-1.873639
-1.944246
-1.882991
-1.909644
-1.973938
-1.929751
-1.983992
-2.028414
-2.032389
-2.071901
-2.094112
-2.138533
-2.178045
-2.175006
-2.180851
-2.282553
-2.331651
-2.276475
-2.367422
-2.438965
-2.400622
-2.431717
-2.470996
-2.500922
-2.491103
-2.519626
-2.577842
-2.547215
-2.611041
-2.644241
-2.611042
-2.687494
-2.682818
-2.689832
-2.746645
-2.716018
-2.733553
-2.752257
-2.731449
-2.719058
-2.728410
-2.732619
-2.624137
-2.563818
-2.607538
-2.571066
-2.475209
-2.432892
-2.428216
-2.357844
-2.319501
-2.297524
-2.200966
-2.227386
-2.243518
-2.132231
-2.088978
-2.095993
-2.121710
-2.043389
-1.914333
-1.931868
-1.883004
-1.761664
-1.700409
-1.606423
-1.498175
-1.408865
-1.357429
-1.282848
-1.172964
-1.121996
-1.028010
-0.929114
-0.905033
-0.851260
-0.824607
-0.809411
-0.738337
-0.711450
-0.693682
-0.651365
-0.643182
-0.660483
-0.674979
-0.621907
-0.568602
-0.615127
-0.632896
-0.601334
-0.567200
-0.503139
-0.518103
-0.543119
-0.482332
-0.467369
-0.454745
-0.437210
-0.433703
-0.373384
-0.361694
-0.307921
-0.198036
-0.205752
-0.147069
-0.025962
0.047917
0.150788
0.206431
0.314446
0.457529
0.532344
0.705588
0.853581
0.936345
1.091586
1.197964
1.297094
1.443684
1.533696
1.593782
1.688236
1.780819
1.822201
1.854465
1.879013
1.905666
1.931383
1.914784
1.944008
1.945411
1.873635
1.873634
1.867789
1.831317
1.810976
1.763281
1.712547
1.693375
1.724470
1.655967
1.522469
1.553330
1.565253
1.494646
1.471734
1.404400
1.312751
1.265056
1.240975
1.180421
1.107710
1.073809
0.995721
0.960651
0.960885
0.894720
0.887706
0.874613
0.820839
0.839777
0.840945
0.809616
0.835568
0.853570
0.785301
0.758414
0.791613
0.742515
0.699029
0.668167
0.601067
0.599196
0.563893
0.464996
0.450735
0.433200
0.368437
0.394856
0.376152
0.282399
0.325184
0.309753
0.245459
0.333834
0.310454
0.261122
0.331729
0.284736
0.271175
0.334534
0.273279
0.261823
0.313725
0.266030
0.244755
0.243118
0.189578
0.199865
0.205476
0.132297
0.110554
0.171808
0.140012
0.056546
0.153805
0.141881
0.024281
0.181159
0.204538
0.125982
0.256441
0.255272
0.307174
0.404901
0.352531
0.470598
0.515721
0.470364
0.574403
0.554063
0.583521
0.684755
0.616018
0.612511
0.619759
0.610640
0.695976
0.654360
0.652022
0.733617
0.645943
0.685454
0.791364
0.719588
0.762840
0.811236
0.769386
0.814041
0.825030
0.847708
0.872724
0.860098
0.918080
0.930471
0.958760
1.005753
1.004818
1.107221
1.146499
1.125457
1.209857
1.264332
1.316001
1.367903
1.427755
1.515663
1.537873
1.623911
1.713688
1.731691
1.817494
1.859811
1.884593
1.978813
2.031651
2.032586
2.031183
2.084255
2.103426
2.084722
2.136859
2.137326
2.110907
2.136157
2.173096
2.193203
2.148781
2.199749
2.263108
2.205126
2.264744
2.299112
2.248611
2.297007
2.286720
2.271289
2.288823
2.247441
2.240427
2.203954
2.183146
2.214709
2.154389
2.116046
2.125164
2.099446
2.111135
2.105758
2.061570
2.067415
2.099912
2.124227
2.118849
2.076999
2.089157
2.133578
2.108327
2.100612
2.103651
2.026965
2.014574
2.034446
1.921756
1.828471
1.807429
1.729106
1.640263
1.547212
1.411375
1.322532
1.250055
1.105334
0.989604
0.912451
0.775211
0.685667
0.637504
0.483432
0.362325
0.321176
0.225319
0.138346
0.076857
-0.006375
-0.093114
-0.176814
-0.240640
-0.318261
-0.392375
-0.444980
-0.524705
-0.590168
-0.644176
-0.708704
-0.775804
-0.819758
-0.808536
-0.866518
-0.926838
-0.891769
-0.955596
-1.002121
-0.944608
-0.987393
-1.014280
-0.984120
-1.007734
-0.991836
-0.962611
-0.963547
-0.948350
-0.927309
-0.887563
-0.867925
-0.858105
-0.805501
-0.764821
-0.731855
-0.705904
-0.677381
-0.614256
-0.598124
-0.589708
-0.557678
-0.571472
-0.549729
-0.527986
-0.558380
-0.560017
-0.574279
-0.598594
-0.605608
-0.613791
-0.614727
-0.666396
-0.706843
-0.691179
-0.718300
-0.744485
-0.744252
-0.763657
-0.773944
-0.773009
-0.780725
-0.790311
-0.788207
-0.790077
-0.780960
-0.742149
-0.733499
-0.735370
-0.704041
-0.666166
-0.621511
-0.605379
-0.597431
-0.528694
-0.491053
-0.484975
-0.388183
-0.321317
-0.322486
-0.234111
-0.156257
-0.124227
-0.044736
0.010907
0.090165
0.174799
0.205192
0.281176
0.342197
0.395736
0.468915
0.484579
0.524324
0.561732
0.573655
0.610595
0.610361
0.614335
0.635610
0.633038
0.610360
0.587214
0.617607
0.603813
0.567340
0.597967
0.568509
0.560092
0.602643
0.565703
0.566404
0.578561
0.543959
0.575755
0.587912
0.554479
0.534840
0.521045
0.536242
0.496262
0.467973
0.516135
0.451840
0.393625
0.411159
0.349670
0.324654
0.318341
0.257320
0.214067
0.149772
0.101844
0.076827
0.029600
0.023053
0.007623
-0.080052
-0.100626
-0.035631
-0.099925
-0.165622
-0.074208
-0.083326
-0.137567
-0.081222
-0.063922
-0.102966
-0.096887
-0.019267
-0.014357
-0.057143
-0.010851
-0.005240
0.017672
0.077758
0.056716
0.079627
0.116333
0.130595
0.169873
0.176886
0.184368
0.177120
0.190446
0.227853
0.185769
0.167065
0.177586
0.132697
0.115396
0.126384
0.120305
0.085936
0.064894
0.084533
0.047827
0.006211
0.043852
0.056477
0.022342
0.021407
0.054606
0.044552
0.014626
0.037070
0.022107
-0.001507
0.024444
-0.009456
-0.020211
0.008078
-0.023719
-0.018108
-0.010627
-0.022083
0.016727
0.023741
0.042211
0.093646
0.118662
0.180618
0.229715
0.284424
0.401088
0.455329
0.511440
0.635586
0.707362
0.749913
0.819818
0.911466
1.004517
1.060161
1.114635
1.177994
1.215635
1.265434
1.325987
1.339079
1.351003
1.407815
1.444521
1.455276
1.484500
1.526350
1.584331
1.629921
1.625245
1.660782
1.747521
1.744481
1.740506
1.810178
1.830050
1.831687
1.833089
1.873536
1.911411
1.852494
1.913748
1.958170
1.906968
2.016151
2.031347
2.005863
2.106630
2.125333
2.170690
2.205292
2.253687
2.359597
2.308162
2.342763
2.444699
2.409863
2.451011
2.474390
2.447036
2.487716
2.490522
2.495665
2.502445
2.480468
2.511095
2.537981
2.540319
2.559257
2.570011
2.584974
2.606483
2.628226
2.629395
2.581934
2.570477
2.584271
2.556215
2.525354
2.466670
2.449135
2.436744
2.321014
2.307453
2.280567
2.136547
2.128598
2.054718
1.918180
1.905087
1.801515
1.722725
1.677602
