EVENT_NAME: 202302060117
EVENT_ID: 13194
EVENT_DATE_YYYYMMDD: 2023/02/06
EVENT_TIME_HHMMSS: 01:17:32.00000
EVENT_LATITUDE_DEGREE: 37.288
EVENT_LONGITUDE_DEGREE: 37.043
EVENT_DEPTH_KM: 8.6
HYPOCENTER_REFERENCE: AFAD
MAGNITUDE_W: 7.7
MAGNITUDE_W_REFERENCE: AFAD
MAGNITUDE_L: 
MAGNITUDE_L_REFERENCE: 
FOCAL_MECHANISM: 
NETWORK: TK
STATION_CODE: 7202
STATION_NAME: 
STATION_LATITUDE_DEGREE: 37.569165
STATION_LONGITUDE_DEGREE: 41.38612
STATION_ELEVATION_M: 950.0
LOCATION: Kahramanmaras_Pazarck_Turkiye
SENSOR_DEPTH_M: 
VS30_M/S: None
SITE_CLASSIFICATION_EC8: unknown
MORPHOLOGIC_CLASSIFICATION: 
EPICENTRAL_DISTANCE_KM: 384.74
EARTHQUAKE_BACKAZIMUTH_DEGREE: 
DATE_TIME_FIRST_SAMPLE_YYYYMMDD_HHMMSS: 2023/02/06 01:18:01.0723490
DATE_TIME_FIRST_SAMPLE_PRECISION: millisecond
SAMPLING_INTERVAL_S: 0.005
NDATA: 42001
DURATION_S: 
STREAM: HNE
UNITS: cm/s^2
INSTRUMENT: sensor = GEO-A200,/GEObit | digitizer = 
INSTRUMENT_ANALOG/DIGITAL: 
INSTRUMENTAL_FREQUENCY_HZ: 
INSTRUMENTAL_DAMPING: 
FULL_SCALE_G: 
N_BIT_DIGITAL_CONVERTER: 
PGA_CM/S^2: 22.070
TIME_PGA_S: 
BASELINE_CORRECTION: BASELINE REMOVED
FILTER_TYPE: BUTTERWORTH
FILTER_ORDER: 
LOW_CUT_FREQUENCY_HZ: 
HIGH_CUT_FREQUENCY_HZ: 
LATE/NORMAL_TRIGGERED: 
DATABASE_VERSION: 
HEADER_FORMAT: DYNA 1.2
DATA_TYPE: Acceleration
PROCESSING: Automatic Paolucci et al., 2011
DATA_TIMESTAMP_YYYYMMDD_HHMMSS: 
DATA_LICENSE: U (unknown license)
DATA_CITATION: Turkish Accelerometric Archive v 1.0 - Disaster And Emergency Management Presidency, Earthquake Department
DATA_CREATOR: AFAD
ORIGINAL_DATA_MEDIATOR_CITATION: : AFAD - Disaster And Emergency Management Presidency
ORIGINAL_DATA_MEDIATOR: AFAD PROCESS SERVICE
ORIGINAL_DATA_CREATOR_CITATION: AFAD PROCESS SERVICE
ORIGINAL_DATA_CREATOR: network: TK
USER1: GuestUser
USER2: 
USER3: 
USER4: 
USER5: 
[...]
1.472033
1.260394
0.879727
0.484228
0.072486
-0.296882
-0.559135
-0.799024
-0.916967
-0.859525
-0.544068
0.182662
1.293825
2.817202
4.638616
6.513940
8.313930
9.827184
10.957417
11.647657
11.759715
11.375281
10.523310
9.280550
7.819323
6.150694
4.455229
2.875117
1.481454
0.428674
-0.359263
-0.996769
-1.619444
-2.336521
-3.024642
-3.706642
-4.427485
-5.125965
-5.859285
-6.535400
-7.086273
-7.501782
-7.660688
-7.624198
-7.376069
-6.855564
-6.173800
-5.365616
-4.551312
-3.771144
-2.912581
-2.027417
-1.091403
-0.093475
0.865610
1.752423
2.425006
2.806380
2.890659
2.600627
2.084360
1.505472
0.891272
0.301084
-0.284160
-0.772883
-1.094697
-1.365189
-1.621322
-1.997281
-2.525083
-3.086080
-3.682388
-4.179116
-4.556487
-4.879949
-5.042386
-5.057923
-4.869590
-4.446312
-3.853299
-2.975432
-1.911117
-0.800424
0.281077
1.133283
1.810575
2.356034
2.823100
3.392100
4.018778
4.715138
5.441868
6.016047
6.393184
6.459572
6.266060
5.991800
5.571818
5.037895
4.351422
3.430004
2.336262
1.004985
-0.431759
-1.804705
-3.073597
-4.043746
-4.696554
-5.109945
-5.329587
-5.528278
-5.706959
-5.921423
-6.295028
-6.733843
-7.273652
-7.810871
-8.174117
-8.355388
-8.235090
-7.849008
-7.222330
-6.273368
-5.108765
-3.813271
-2.534020
-1.435804
-0.430343
0.468476
1.239463
1.922876
2.413954
2.761899
2.949055
2.959413
2.941757
2.838645
2.638071
2.369226
1.943594
1.350346
0.542634
-0.388201
-1.207919
-1.838363
-2.109562
-1.926879
-1.386128
-0.565939
0.312398
1.132823
1.820473
2.215266
2.390180
2.392064
2.265410
2.136638
1.980087
1.836483
1.641794
1.252652
0.691420
-0.137244
-1.184374
-2.299539
-3.413528
-4.319408
-4.937846
-5.215637
-5.045901
-4.504209
-3.675309
-2.732468
-1.845891
-0.970144
-0.205748
0.376907
0.800420
0.963093
0.922601
0.674709
0.242956
-0.202451
-0.726016
-1.303491
-1.873198
-2.514235
-3.138087
-3.733454
-4.248309
-4.554820
-4.744565
-4.741976
-4.535751
-4.186864
-3.602326
-2.925505
-2.247507
-1.667207
-1.356222
-1.241574
-1.343509
-1.654729
-2.089542
-2.643240
-3.085351
-3.254851
-3.088882
-2.499636
-1.611411
-0.466348
0.838092
2.112164
3.281946
4.154633
4.627349
4.749059
4.519058
4.061409
3.509830
3.014750
2.836540
2.974023
3.353043
3.842709
4.157460
4.216314
3.907919
3.221917
2.327572
1.242305
0.177283
-0.641258
-1.204609
-1.446616
-1.495347
-1.436022
-1.276410
-1.215437
-1.221793
-1.350330
-1.696156
-2.139915
-2.709621
-3.230832
-3.513096
-3.522748
-3.081107
-2.236905
-1.127625
0.164338
1.423814
2.581119
3.554564
4.258223
4.783436
5.182466
5.634700
6.257847
7.034249
8.024644
9.063064
9.950818
10.607629
10.847282
10.550658
9.640540
8.179313
6.431114
4.524010
2.649628
0.975820
-0.504710
-1.707921
-2.720210
-3.672232
-4.594827
-5.609234
-6.654717
-7.627220
-8.509794
-9.166840
-9.538562
-9.545859
-9.114342
-8.388790
-7.424055
-6.324426
-5.188073
-3.992866
-2.906421
-1.950397
-1.087126
-0.319670
0.583150
1.709851
3.058550
4.589695
6.138497
7.693420
9.070839
10.039341
10.525004
10.364450
9.632542
8.467469
6.977757
5.414124
3.863674
2.522039
1.622279
1.128141
1.027619
1.173812
1.393455
1.658534
1.807552
1.811790
1.643468
1.208184
0.610934
-0.176768
-1.141032
-2.207466
-3.476358
-4.834708
-6.094654
-7.172153
-7.940551
-8.385487
-8.449049
-8.130295
-7.611674
-6.930851
-6.230959
-5.623350
-5.014799
-4.403659
-3.655272
-2.716668
-1.622454
-0.267165
1.255035
2.832793
4.330510
5.562442
6.584854
7.359608
7.855394
8.087514
7.955682
7.570541
7.041797
6.469972
6.042692
5.766549
5.616825
5.554204
5.456272
5.208143
4.615366
3.628032
2.388802
1.005733
-0.278696
-1.322530
-2.151430
-2.723961
-3.133114
-3.412788
-3.558746
-3.688931
-3.771562
-3.850191
-4.059240
-4.415424
-4.979010
-5.592268
-6.044267
-6.255199
-6.009189
-5.303883
-4.196486
-2.737613
-1.198699
0.337626
1.735527
2.816557
3.647811
4.193270
4.497427
4.659158
4.701769
4.815004
4.973910
5.037473
4.958138
4.580766
3.916658
3.008894
1.944107
0.990908
0.261354
-0.133203
-0.125434
0.158243
0.628604
1.123684
1.552141
1.918448
2.098777
2.070998
1.786381
1.206316
0.415789
-0.567779
-1.556996
-2.355056
-2.868263
-2.912286
-2.505251
-1.786055
-0.878997
0.002400
0.834125
1.601110
2.225669
2.793022
3.249258
3.599322
3.901125
4.052498
4.061444
3.796366
3.139555
2.201894
1.021753
-0.256555
-1.504260
-2.661565
-3.505295
-3.980600
-4.056875
-3.697630
-3.053060
-2.156596
-1.167378
-0.301989
0.395078
0.796933
0.930414
0.901929
0.709359
0.482418
0.327750
0.373892
0.742082
1.299077
1.942940
2.514059
2.850939
2.983714
2.878483
2.634357
2.385287
2.144928
2.041109
2.062297
2.103495
2.097610
1.935408
1.716472
1.473287
1.175251
0.908054
0.562699
0.159196
-0.222178
-0.594841
-0.845088
-1.070852
-1.373832
-1.664806
-2.017459
-2.422139
-2.829409
-3.255982
-3.570262
-3.815095
-3.981769
-3.995423
-3.979415
-3.856057
-3.623230
-3.298356
-2.744657
-2.043353
-1.205272
-0.278439
0.530921
1.126759
1.365471
1.280251
1.014937
0.606255
0.240184
0.029486
0.035372
0.336705
0.851089
1.510018
2.132694
2.483464
2.532430
2.244046
1.631258
0.798121
-0.176265
-1.110867
-1.911752
-2.510885
-2.781613
-2.835994
-2.743240
-2.607876
-2.645542
-2.824223
-3.155924
-3.633818
-4.107946
-4.553588
-4.916128
-5.203807
-5.406264
-5.399202
-5.309508
-5.189681
-5.053846
-5.029833
-4.996404
-4.905533
-4.651284
-4.001300
-2.946166
-1.399953
0.565064
2.684514
4.783483
6.584416
8.003974
9.028976
9.516758
9.498631
8.978126
8.045408
6.886456
5.537287
4.118906
2.674393
1.160669
-0.312329
-1.738949
-3.127197
-4.438700
-5.700294
-6.744599
-7.454378
-7.809620
-7.714512
-7.226495
-6.395712
-5.363177
-4.345709
-3.393922
-2.595391
-1.923042
-1.258934
-0.637200
-0.066316
0.384270
0.693607
0.957744
1.087694
1.102760
1.020365
0.761408
0.445009
0.100124
-0.143060
-0.112691
0.173339
0.873937
2.016176
3.467751
5.154742
6.798181
8.229510
9.340203
9.922623
10.006902
9.574207
8.699637
7.608013
6.328292
4.997721
3.671859
2.358002
1.214116
0.260682
-0.453806
-0.942294
-1.274230
-1.326963
-1.065887
-0.470990
0.512342
1.764049
3.186668
4.639891
5.949040
7.061380
7.821539
8.146413
8.086853
7.630617
6.875638
5.890658
4.839996
4.016276
3.497419
3.370766
3.515311
3.681750
3.787217
3.621484
3.131113
2.350474
1.262852
0.142272
-0.773731
-1.367921
-1.527062
-1.304594
-0.666616
0.289879
1.280980
2.197690
2.830489
3.083090
3.021176
2.657694
2.218172
1.856103
1.639756
1.664004
1.765939
1.760760
1.494740
0.860530
-0.014511
-1.091069
-2.298046
-3.484543
-4.695287
-5.856123
-6.898780
-7.809133
-8.426159
-8.732905
-8.672168
-8.180619
-7.391740
-6.376626
-5.311604
-4.318149
-3.362360
-2.548291
-1.861818
-1.294465
-0.876131
-0.539486
-0.400355
-0.490048
-0.747358
-1.164750
-1.536942
-1.750700
-1.805552
-1.652296
-1.321772
-0.726404
0.125566
1.094774
2.140727
3.039310
3.632794
3.863031
3.606663
2.987284
2.091762
0.996136
-0.071240
-1.096476
-2.016717
-2.774992
-3.450400
-3.948305
-4.395124
-4.921750
-5.506052
-6.287162
-7.142428
-7.973446
-8.727719
-9.155705
-9.253638
-8.961016
-8.211216
-7.176091
-5.939216
-4.669853
-3.426621
-2.149018
-1.000894
0.001978
0.806630
1.315600
1.647772
1.810915
1.884836
1.961346
2.002780
2.072463
2.145442
2.261738
2.598383
3.200577
4.251003
5.807809
7.638404
9.549747
11.169173
12.236785
12.619807
12.176048
11.050289
9.338344
7.214421
4.927591
2.526348
0.160888
-2.043547
-3.996322
-5.583732
-6.879932
-7.940246
-8.840005
-9.711280
-10.482973
-11.099292
-11.494791
-11.516920
-11.183570
-10.495214
-9.473273
-8.258997
-6.907945
-5.541119
-4.181827
-2.778983
-1.465127
-0.266388
0.770384
1.603050
2.364621
3.098413
3.885173
4.748208
5.580639
6.386469
7.053638
7.446782
7.542832
7.295646
6.872839
6.367165
5.740724
5.045070
4.120356
2.941393
1.561384
-0.076875
-1.773753
-3.398124
-4.818388
-5.809489
-6.386258
-6.571295
-6.524682
-6.463003
-6.434047
-6.623321
-7.048718
-7.628783
-8.342328
-8.922393
-9.193357
-9.011380
-8.196840
-6.824601
-4.909256
-2.533909
0.017765
2.553196
4.741387
6.402012
7.554373
8.073466
8.036035
7.482336
6.480171
5.234350
3.720860
2.084484
0.505785
-0.925544
-1.949839
-2.481644
-2.542381
-2.213269
-1.698650
-1.050785
-0.430934
0.000113
0.249889
0.240943
0.154546
0.183502
0.376779
0.840078
1.392835
1.840361
2.036698
1.778682
1.111749
0.086983
-1.140240
-2.200083
-2.933639
-3.157990
-2.758725
-1.835894
-0.408566
1.266183
2.926572
4.433235
5.512852
6.103747
6.188261
5.789702
5.123240
4.293869
3.575851
3.292645
3.538891
4.407340
5.744032
7.300603
8.812916
9.858869
10.267316
9.934202
8.779723
6.992209
4.740220
2.294719
0.018011
-1.825296
-2.849355
-2.895732
-2.048940
-0.411858
1.633437
3.737349
5.592192
6.836601
7.358989
7.031997
5.838438
4.008079
1.676048
-0.917059
-3.568078
-6.153181
-8.399049
-10.203748
-11.398954
-11.834709
-11.568454
-10.546748
-8.874353
-6.685690
-4.118243
-1.487940
1.006292
3.074422
4.399814
4.851106
4.346139
3.090666
1.402027
-0.469530
-2.114616
-3.276629
-3.797369
-3.548064
-2.665018
-1.196022
0.688954
2.670215
4.664188
6.492900
8.062889
9.374156
10.361726
11.175089
11.815891
12.256355
12.568987
12.652325
12.536500
12.241289
11.753742
11.178386
10.476140
9.637353
8.707225
7.656799
6.572238
5.498270
4.459144
3.556089
2.725541
1.992221
1.340354
0.634341
-0.060136
-0.753435
-1.373286
-1.807392
-2.129677
-2.283168
-2.316126
-2.386044
-2.519525
-2.787899
-3.117952
-3.373378
-3.547821
-3.536050
-3.367257
-3.127132
-2.818267
-2.602155
-2.531059
-2.653710
-3.063099
-3.614443
-4.229820
-4.856262
-5.365702
-5.717648
-5.747311
-5.389478
-4.675461
-3.510623
-1.999958
-0.215505
1.712081
3.498182
5.019911
6.017369
6.389091
6.228773
5.566077
4.597576
3.489473
2.474124
1.810016
1.528459
1.644754
2.005176
2.276376
2.225526
1.620272
0.386927
-1.337259
-3.397149
-5.390887
-6.925799
-7.744811
-7.647113
-6.794671
-5.309667
-3.426339
-1.591978
-0.058242
0.808089
0.852582
0.122793
-1.311126
-3.072508
-4.914638
-6.664955
-8.075097
-9.085738
-9.634492
-9.725362
-9.446865
-8.721313
-7.560947
-5.964121
-3.882808
-1.494748
1.103303
3.610012
5.594569
6.854987
7.091344
6.249497
4.477286
1.867700
-1.233670
-4.452748
-7.391446
-9.657795
-11.181407
-11.973817
-12.166387
-11.944154
-11.353731
-10.537308
-9.512307
-8.256363
-6.881298
-5.359333
-3.810060
-2.448414
-1.358203
-0.627707
-0.120150
0.295595
0.670142
1.143564
1.701264
2.438823
3.392022
4.383359
5.379404
6.233258
6.819680
7.174687
7.217533
6.946098
6.355675
5.438966
4.342869
2.960977
1.191591
-0.891605
-3.266952
-5.658072
-7.811892
-9.562681
-10.659955
-11.057807
-10.759300
-9.836940
-8.532735
-7.015950
-5.431836
-3.853842
-2.298684
-0.950456
0.128455
0.952411
1.496222
1.924209
2.310762
2.700846
3.144135
3.542694
3.900762
4.055431
3.776227
3.047615
1.859942
0.452390
-0.923617
-2.202631
-3.293784
-4.308898
-5.299528
-6.199994
-6.954267
-7.251362
-6.894235
-5.763061
-3.689282
-0.865467
2.522875
6.179121
9.640678
12.674013
14.865500
15.946766
15.870491
14.635029
12.610687
10.131757
7.526644
5.188021
3.266556
1.897142
1.056942
0.453807
-0.161571
-1.071453
-2.415207
-4.135392
-6.175742
-8.265059
-10.181345
-11.736267
-12.639087
-12.839897
-12.269954
-10.912546
-9.014857
-6.788764
-4.579149
-2.845075
-1.884813
-1.844086
-2.534325
-3.584516
-4.566200
-4.969703
-4.557725
-3.183366
-0.848510
2.169993
5.579523
8.881468
11.653256
13.688898
14.870922
15.354466
15.307854
14.979920
14.681648
14.409978
14.125596
13.701376
12.863060
11.491527
9.447645
6.692102
3.337189
-0.501504
-4.560546
-8.596753
-12.332569
-15.364962
-17.441331
-18.373107
-18.192779
-17.254646
-15.877697
-14.460258
-13.283413
-12.366703
-11.716249
-11.142304
-10.477725
-9.605979
-8.347916
-6.847139
-5.287037
-3.720814
-2.211562
-0.631215
1.040239
2.793853
4.759341
6.881616
9.156205
11.516015
13.735517
15.636502
16.877144
17.179654
16.432679
14.537816
11.651616
8.043866
4.120188
0.481364
-2.499002
-4.559363
-5.673587
-6.091214
-6.022473
-5.852738
-5.895112
-6.308503
-7.268294
-8.618169
-10.066212
-11.412556
-12.319614
-12.567036
-12.025579
-10.652397
-8.697973
-6.341930
-3.880421
-1.600887
0.363188
1.726718
2.486170
2.738301
2.541728
2.146465
1.698940
1.292612
0.972211
0.719845
0.658402
0.781760
1.001403
1.285550
1.445162
1.438806
1.301324
1.086389
1.100985
1.510373
2.426377
3.926919
5.771168
7.732183
9.497568
10.744331
11.398552
11.357119
10.765283
9.943211
9.216246
8.979889
9.274159
10.066334
11.268839
12.512306
13.541310
14.061815
13.760953
12.590701
10.647577
8.258811
5.739861
3.209610
0.901121
-1.120396
-2.932628
-4.553467
-6.120631
-7.640005
-9.103116
-10.531620
-11.761668
-12.738409
-13.353315
-13.469140
-13.090590
-12.123031
-10.704649
-9.084752
-7.434250
-6.040823
-5.034184
-4.528275
-4.544518
-4.838788
-5.209803
-5.360940
-4.942606
-3.821320
-1.921512
0.708555
3.874665
7.352230
10.731155
13.714112
16.134894
17.844956
18.905505
19.273931
18.925516
17.959133
16.333351
14.130328
11.422574
8.123925
4.260749
-0.047598
-4.476244
-8.690190
-12.503222
-15.656148
-18.102826
-19.850790
-20.933938
-21.586276
-21.885490
-22.002962
-22.070055
-21.970474
-21.707514
-21.177828
-20.256645
-18.929370
-17.101600
-14.785578
-11.968590
-8.674414
-5.105978
-1.442199
1.948733
4.728760
6.789827
7.985505
8.422202
8.380298
8.060839
7.784461
7.784225
8.291782
9.453560
10.978114
12.575647
13.851838
14.356099
13.961542
12.564819
10.313772
7.556580
4.571741
1.801601
-0.425434
-1.941042
-2.674598
-2.808079
-2.484146
-1.960816
-1.669136
-1.938687
-3.045377
-4.937415
-7.297460
-9.755909
-11.753649
-12.914720
-13.122357
-12.315822
-10.753130
-8.822248
-6.869708
-5.201550
-3.903231
-3.049377
-2.551943
-2.212002
-1.982001
-1.715039
-1.454668
-1.365681
-1.456081
-1.815325
-2.367611
-2.902005
-3.267135
-3.241004
-2.714849
-1.551187
0.376634
2.918185
5.941868
9.090322
11.860462
13.889983
14.757256
14.427909
13.093571
10.994838
8.663043
6.495333
4.779150
3.689881
3.142303
3.054493
3.176204
3.153839
2.814134
2.024078
0.827224
-0.646245
-2.338415
-4.051772
-5.708394
-7.278148
-8.562813
-9.524487
-10.106670
-10.231205
-9.917631
-9.140758
-8.148009
-7.188218
-6.473259
-6.314353
-6.657825
-7.383141
-8.244528
-8.742433
-8.613189
-7.663286
-5.940276
-3.858257
-1.785654
-0.137036
0.954588
1.675667
2.191935
2.921253
4.152008
5.999318
8.514738
11.381869
14.402962
17.229838
19.313740
20.610176
21.052758
20.588989
19.367180
17.412051
15.159591
13.065801
11.316190
10.139345
9.443927
9.118111
9.017118
8.792531
8.181391
6.915089
4.968435
2.564131
-0.146919
-2.964377
-5.795490
-8.498065
-10.771948
-12.554753
-13.746899
-14.411478
-14.743179
-14.772842
-14.617231
-14.156287
-13.313497
-12.187032
-10.627872
-8.620008
-6.234303
-3.420846
-0.446130
2.417706
4.962788
6.821397
8.035438
8.732269
9.016181
9.212047
9.455468
9.930066
10.774504
11.854122
13.027906
14.003234
14.545633
14.605900
14.214403
13.607501
12.852051
11.967593
11.040055
9.964675
8.708260
7.200420
5.406551
3.451421
1.349628
-0.770293
-2.735310
-4.577205
-6.251248
-7.745433
-9.059054
-9.999540
-10.536289
-10.590434
-10.037913
-9.028213
-7.751081
-6.535864
-5.684364
-5.313819
-5.513452
-6.057733
-6.568821
-6.796233
-6.424276
-5.274975
-3.303130
-0.571599
2.589097
5.904695
8.991470
11.489704
13.265212
14.095995
14.003477
13.089828
11.488999
9.594371
7.628413
5.756385
4.044205
2.379578
0.820654
-0.708843
-2.274595
-3.802209
-5.379496
-6.917704
-8.339852
-9.612981
-10.469189
-10.787000
-10.479076
-9.489152
-7.996614
-6.226286
-4.536234
-3.209194
-2.367347
-2.213384
-2.702814
-3.620230
-4.668773
-5.367487
-5.440701
-4.764116
-3.388815
-1.642970
0.272610
2.155467
3.693911
4.713733
5.108055
5.042138
4.790950
4.474315
4.273270
4.124252
3.918499
3.648712
3.196478
2.741184
2.460333
2.427846
2.818636
3.490984
4.232074
4.852160
5.120534
5.071568
4.647349
3.780783
2.651257
1.433450
0.412216
-0.218463
-0.473654
-0.400204
-0.200807
-0.049670
-0.014357
-0.190448
-0.589478
-1.243463
-2.098259
-2.937046
-3.682608
-4.161208
-4.253962
-4.044913
-3.531706
-2.926215
-2.423131
-2.086957
-2.027632
-2.087663
-2.126036
-2.101788
-1.897917
-1.586226
-1.182252
-0.626671
0.026844
0.877638
1.867562
2.826412
3.608228
3.941342
3.862949
3.438023
2.693638
1.928536
1.258542
0.785356
0.638457
0.702961
0.883996
0.929196
0.577250
-0.164075
-1.205085
-2.193361
-2.798144
-2.892310
-2.358622
-1.365402
-0.137708
1.167674
2.268715
3.058536
3.462510
3.455683
3.139048
2.425032
1.396971
0.172808
-1.170947
-2.324014
-3.165155
-3.557593
-3.395156
-2.814149
-1.824931
-0.609243
0.509219
1.303277
1.570003
1.395089
0.890358
0.108777
-0.728598
-1.565266
-2.340020
-3.001303
-3.732976
-4.561404
-5.487531
-6.460034
-7.208892
-7.624166
-7.584851
-6.969944
-5.749312
-3.764049
-1.137278
1.815310
4.707160
6.936314
8.171542
8.266179
7.218578
5.330307
2.883629
0.301586
-1.919799
-3.498733
-4.173906
-3.900588
-2.817910
-1.102198
0.806790
2.570291
3.842950
4.246924
3.781507
2.522973
0.834335
-0.761785
-1.960053
-2.470905
-2.293401
-1.625291
-0.675622
0.234025
0.937213
1.264441
1.041738
0.397640
-0.530134
-1.558431
-2.511630
-3.379609
-4.023236
-4.408847
-4.587057
-4.482532
-4.201681
-3.836315
-3.428103
-3.077333
-2.695724
-2.280921
-1.757826
-0.952939
0.037927
1.239020
2.545343
3.733958
4.784149
5.536774
5.960052
6.069756
5.797851
5.248390
4.470105
3.682404
3.186618
3.051725
3.415442
4.212561
5.234267
6.302114
7.074278
7.414219
7.248486
6.524347
5.450379
4.159594
2.801715
1.526702
0.350799
-0.552492
-1.144798
-1.495568
-1.578199
-1.562661
-1.508280
-1.446836
-1.529938
-1.705323
-1.957688
-2.206758
-2.201344
-1.862815
-1.168338
-0.120266
1.186999
2.725678
4.316620
5.746066
6.956339
7.857983
8.549871
9.119577
9.600532
10.119389
10.573507
10.929456
11.158987
11.032569
10.464039
9.373122
7.845272
6.107196
4.213746
2.366201
0.701104
-0.707390
-1.715912
-2.432518
-2.928539
-3.327569
-3.830653
-4.452857
-5.243854
-6.124781
-6.875758
-7.268431
-6.951090
-5.780131
-3.848072
-1.324413
1.408061
4.031066
6.276699
7.904836
8.957852
9.455992
9.516965
9.394314
9.163371
8.920657
8.646868
8.274440
7.850221
7.248263
6.387817
5.227923
3.757986
2.163043
0.539143
-0.981408
-2.241590
-3.290603
-4.195542
-5.047277
-5.945624
-6.840205
-7.665809
-8.307317
-8.667032
-8.796746
-8.643255
-8.222331
-7.573289
-6.669998
-5.684546
-4.682145
-3.687041
-2.797875
-1.985219
-1.339237
-0.948447
-0.835211
-1.068508
-1.491551
-1.984512
-2.499131
-2.893923
-3.216914
-3.469515
-3.668677
-3.858187
-3.838647
-3.558973
-2.990914
-2.075616
-1.000236
0.157069
1.320731
2.402232
3.429587
4.197515
4.564528
4.431989
3.651350
2.353737
0.669807
-1.152077
-2.790572
-4.150335
-5.051978
