EVENT_NAME: 202302060117
EVENT_ID: 13194
EVENT_DATE_YYYYMMDD: 2023/02/06
EVENT_TIME_HHMMSS: 01:17:32.00000
EVENT_LATITUDE_DEGREE: 37.288
EVENT_LONGITUDE_DEGREE: 37.043
EVENT_DEPTH_KM: 8.6
HYPOCENTER_REFERENCE: AFAD
MAGNITUDE_W: 7.7
MAGNITUDE_W_REFERENCE: AFAD
MAGNITUDE_L: 
MAGNITUDE_L_REFERENCE: 
FOCAL_MECHANISM: 
NETWORK: TK
STATION_CODE: 4206
STATION_NAME: 
STATION_LATITUDE_DEGREE: 37.52506
STATION_LONGITUDE_DEGREE: 34.04843
STATION_ELEVATION_M: 1032.0
LOCATION: Kahramanmaras_Pazarck_Turkiye
SENSOR_DEPTH_M: 
VS30_M/S: 458
SITE_CLASSIFICATION_EC8: B
MORPHOLOGIC_CLASSIFICATION: 
EPICENTRAL_DISTANCE_KM: 265.80
EARTHQUAKE_BACKAZIMUTH_DEGREE: 
DATE_TIME_FIRST_SAMPLE_YYYYMMDD_HHMMSS: 2023/02/06 01:17:55.3174570
DATE_TIME_FIRST_SAMPLE_PRECISION: millisecond
SAMPLING_INTERVAL_S: 0.01
NDATA: 18251
DURATION_S: 
STREAM: HNE
UNITS: cm/s^2
INSTRUMENT: sensor = GMS+/GEOSIG | digitizer = 
INSTRUMENT_ANALOG/DIGITAL: 
INSTRUMENTAL_FREQUENCY_HZ: 
INSTRUMENTAL_DAMPING: 
FULL_SCALE_G: 
N_BIT_DIGITAL_CONVERTER: 
PGA_CM/S^2: 13.348
TIME_PGA_S: 
BASELINE_CORRECTION: BASELINE REMOVED
FILTER_TYPE: BUTTERWORTH
FILTER_ORDER: 
LOW_CUT_FREQUENCY_HZ: 
HIGH_CUT_FREQUENCY_HZ: 
LATE/NORMAL_TRIGGERED: 
DATABASE_VERSION: 
HEADER_FORMAT: DYNA 1.2
DATA_TYPE: Acceleration
PROCESSING: Automatic Paolucci et al., 2011
DATA_TIMESTAMP_YYYYMMDD_HHMMSS: 
DATA_LICENSE: U (unknown license)
DATA_CITATION: Turkish Accelerometric Archive v 1.0 - Disaster And Emergency Management Presidency, Earthquake Department
DATA_CREATOR: AFAD
ORIGINAL_DATA_MEDIATOR_CITATION: : AFAD - Disaster And Emergency Management Presidency
ORIGINAL_DATA_MEDIATOR: AFAD PROCESS SERVICE
ORIGINAL_DATA_CREATOR_CITATION: AFAD PROCESS SERVICE
ORIGINAL_DATA_CREATOR: network: TK
USER1: GuestUser
USER2: 
USER3: 
USER4: 
USER5: 
[...]
2.543027
1.986863
1.567857
1.141058
0.664903
0.215504
-0.126870
-0.365338
-0.606403
-0.940724
-1.286995
-1.461819
-1.359991
-1.053465
-0.796035
-0.802530
-1.011124
-1.173999
-1.117110
-0.879163
-0.673687
-0.651867
-0.754216
-0.810846
-0.720187
-0.539649
-0.453926
-0.600435
-0.880465
-1.074253
-1.062304
-0.933719
-0.875531
-0.977101
-1.171927
-1.329607
-1.391951
-1.387276
-1.374288
-1.364937
-1.317400
-1.185438
-0.973208
-0.748769
-0.590570
-0.548229
-0.595767
-0.638369
-0.599924
-0.500173
-0.438349
-0.494459
-0.656295
-0.835535
-0.963601
-1.009320
-0.934248
-0.729811
-0.440430
-0.095458
0.333158
0.845420
1.377944
1.883452
2.382466
2.962268
3.707801
4.578803
5.420190
6.084676
6.494070
6.676167
6.733316
6.755396
6.765266
6.704740
6.496146
6.136887
5.713984
5.335762
5.019364
4.714136
4.372281
3.963666
3.495044
2.966936
2.390510
1.761612
1.054523
0.271582
-0.561754
-1.398986
-2.232062
-3.090076
-3.976664
-4.843250
-5.614242
-6.244959
-6.778263
-7.257016
-7.671346
-8.014240
-8.301543
-8.616123
-9.050975
-9.595968
-10.170835
-10.684397
-11.057424
-11.286020
-11.430191
-11.574363
-11.781139
-12.026879
-12.231317
-12.294701
-12.168974
-11.907128
-11.600083
-11.339536
-11.139255
-10.886761
-10.489317
-9.938869
-9.303217
-8.658733
-7.982558
-7.214944
-6.374855
-5.578407
-4.969771
-4.608694
-4.416726
-4.276192
-4.115136
-3.890437
-3.614824
-3.317130
-2.963846
-2.499381
-1.946336
-1.425761
-1.007535
-0.648536
-0.277328
0.126870
0.549253
1.008522
1.485975
1.947842
2.403734
2.895994
3.451637
4.027542
4.573055
5.061418
5.475228
5.788767
6.003335
6.162313
6.260505
6.225955
6.005152
5.663297
5.372616
5.204286
5.053621
4.804243
4.431476
4.037148
3.792706
3.750883
3.820500
3.871674
3.748803
3.425132
3.056781
2.822470
2.804545
2.904556
2.968458
2.967679
3.004305
3.129253
3.302259
3.472666
3.557090
3.596055
3.702040
3.915309
4.201053
4.497188
4.833328
5.227915
5.630295
5.930067
6.078394
6.186717
6.345694
6.586758
6.886011
7.110969
7.124217
6.910428
6.565975
6.242823
6.024358
5.859925
5.687438
5.499886
5.282460
5.023471
4.737725
4.441070
4.109086
3.677871
3.171064
2.739589
2.518786
2.499822
2.596196
2.691790
2.677762
2.565282
2.397472
2.164979
1.824163
1.333721
0.715213
0.051765
-0.544402
-0.997178
-1.325525
-1.613608
-1.965594
-2.397329
-2.818673
-3.168321
-3.456923
-3.660842
-3.730979
-3.721368
-3.777219
-4.007373
-4.404039
-4.848763
-5.221790
-5.549098
-5.903162
-6.249433
-6.471015
-6.523489
-6.508682
-6.548947
-6.667141
-6.792610
-6.912623
-7.058613
-7.224865
-7.328512
-7.235776
-6.948213
-6.603761
-6.323991
-6.114619
-5.916416
-5.694575
-5.426495
-5.124125
-4.855526
-4.706679
-4.713433
-4.782012
-4.746684
-4.544326
-4.270531
-4.124541
-4.239879
-4.566927
-4.934499
-5.151665
-5.148548
-5.037888
-4.996845
-5.093998
-5.218427
-5.211414
-5.029577
-4.787214
-4.631873
-4.584336
-4.506146
-4.255990
-3.872053
-3.548902
-3.439281
-3.488118
-3.517731
-3.416682
-3.211985
-2.987286
-2.795318
-2.659460
-2.555034
-2.346441
-1.904056
-1.292563
-0.688083
-0.203876
0.212531
0.753368
1.506954
2.353278
3.087641
3.565874
3.826680
4.037871
4.331409
4.691966
4.964982
5.049666
5.102398
5.396455
5.949501
6.503325
6.820502
6.851673
6.699189
6.506181
6.365906
6.293431
6.236541
6.121983
5.928975
5.699080
5.505033
5.396450
5.377486
5.372810
5.247861
4.960558
4.617404
4.372962
4.259703
4.128520
3.839397
3.437017
3.074900
2.815651
2.565494
2.213508
1.766967
1.326919
0.979090
0.721400
0.482153
0.176925
-0.231170
-0.682648
-1.135683
-1.573133
-1.962785
-2.312693
-2.661302
-3.014327
-3.288902
-3.458011
-3.548411
-3.624523
-3.782462
-3.955988
-4.005344
-3.893904
-3.677258
-3.412814
-3.123693
-2.809374
-2.481288
-2.221261
-2.082805
-1.982015
-1.786930
-1.490795
-1.214142
-1.071270
-1.064776
-1.072310
-0.989964
-0.841637
-0.769682
-0.899046
-1.188428
-1.486123
-1.669000
-1.741735
-1.803560
-1.962798
-2.236854
-2.572474
-2.923681
-3.202153
-3.363729
-3.453349
-3.510758
-3.544268
-3.542970
-3.470495
-3.296970
-3.020838
-2.618198
-2.057619
-1.373910
-0.620583
0.138458
0.801905
1.281436
1.582247
1.825909
2.112433
2.454547
2.803934
3.117733
3.438287
3.814950
4.224863
4.596331
4.870126
5.047547
5.204446
5.400571
5.617217
5.820355
5.991542
6.173119
6.436783
6.764870
7.094515
7.299471
7.282586
7.099969
6.876568
6.671351
6.440417
6.246110
6.156749
6.065571
5.901397
5.652019
5.201841
4.592425
4.112374
3.755452
3.335927
2.938741
2.560519
2.185154
1.969806
1.876548
1.812385
1.684839
1.454944
1.170758
0.844229
0.563939
0.383400
0.384698
0.566016
0.722656
0.737202
0.653297
0.564975
0.477953
0.386254
0.269878
0.049334
-0.247061
-0.545015
-0.831799
-1.121701
-1.444853
-1.833206
-2.266239
-2.688623
-3.101134
-3.488708
-3.757309
-3.887453
-3.926159
-3.913690
-3.896806
-3.813421
-3.619115
-3.398312
-3.240893
-3.162963
-3.057238
-2.843709
-2.592514
-2.397429
-2.282092
-2.178705
-1.975307
-1.628257
-1.165871
-0.716213
-0.414363
-0.225512
0.013474
0.406762
0.865512
1.223732
1.406088
1.479862
1.568962
1.718848
1.876786
1.978875
2.012644
2.021736
2.091093
2.297089
2.630111
2.958197
3.133540
3.153542
3.181856
3.320053
3.489940
3.538776
3.392007
3.129901
2.860781
2.641017
2.476324
2.338906
2.197852
2.064850
2.030301
2.119401
2.241751
2.302796
2.298380
2.336565
2.492426
2.748556
3.001570
3.146001
3.168600
3.107035
3.042872
3.065211
3.180028
3.293806
3.375113
3.491229
3.700602
3.984528
4.216760
4.310016
4.311834
4.317808
4.334953
4.311313
4.243254
4.134411
4.060636
4.099601
4.192338
4.217015
4.078818
3.853599
3.707869
3.663968
3.569412
3.286005
2.844399
2.359931
1.951316
1.676221
1.489967
1.301376
1.040308
0.708325
0.389069
0.142809
-0.073058
-0.328670
-0.639093
-0.993677
-1.367224
-1.732458
-2.098211
-2.469940
-2.845305
-3.231580
-3.606945
-3.922823
-4.146744
-4.237663
-4.189606
-4.032187
-3.810605
-3.589543
-3.399913
-3.248988
-3.070268
-2.801928
-2.481635
-2.211996
-2.108089
-2.171213
-2.326035
-2.509172
-2.694907
-2.921944
-3.202754
-3.535257
-3.999463
-4.626803
-5.302200
-5.839400
-6.130860
-6.245418
-6.324648
-6.428815
-6.489082
-6.430374
-6.257629
-6.056309
-5.977860
-6.063843
-6.199962
-6.270100
-6.258670
-6.261009
-6.364397
-6.534026
-6.634816
-6.600007
-6.494542
-6.425184
-6.430640
-6.394532
-6.181523
-5.791872
-5.347669
-5.021661
-4.909441
-4.964512
-5.095176
-5.199603
-5.237270
-5.245583
-5.234153
-5.161419
-4.942435
-4.519013
-3.954798
-3.413182
-2.995216
-2.646348
-2.217731
-1.610394
-0.851612
-0.069971
0.628544
1.233803
1.746585
2.165590
2.503028
2.824361
3.208557
3.650422
4.085533
4.454922
4.751317
4.978874
5.147982
5.328780
5.592704
5.947027
6.322391
6.601642
6.706587
6.625020
6.395644
6.082883
5.740249
5.399174
5.064332
4.729751
4.413093
4.109944
3.767569
3.354798
2.909555
2.498602
2.099858
1.627340
1.038965
0.402793
-0.093884
-0.346379
-0.444571
-0.555752
-0.759151
-1.018660
-1.244658
-1.354540
-1.388830
-1.409872
-1.432732
-1.475853
-1.489102
-1.423641
-1.308824
-1.205956
-1.115297
-0.932161
-0.556797
-0.045574
0.397330
0.583843
0.489806
0.257054
0.061968
-0.000896
-0.002196
-0.066359
-0.231312
-0.418085
-0.485366
-0.441725
-0.468222
-0.689025
-1.067507
-1.494046
-1.898505
-2.264259
-2.624298
-3.014989
-3.433476
-3.900279
-4.402930
-4.879085
-5.286661
-5.593967
-5.782299
-5.881791
-5.922575
-5.862569
-5.639169
-5.257570
-4.842981
-4.560094
-4.441900
-4.357995
-4.176158
-3.900025
-3.649349
-3.495048
-3.367242
-3.196056
-3.011881
-2.908753
-2.941224
-3.042534
-3.123582
-3.160729
-3.195019
-3.284640
-3.392963
-3.448294
-3.434527
-3.411148
-3.470635
-3.617664
-3.763914
-3.858210
-3.972768
-4.206040
-4.575950
-4.964563
-5.220695
-5.289274
-5.193939
-4.999114
-4.717266
-4.342162
-3.922377
-3.547532
-3.291142
-3.122812
-2.953444
-2.721991
-2.417284
-2.069195
-1.677985
-1.213780
-0.692946
-0.183801
0.272351
0.732400
1.262845
1.842387
2.358805
2.676501
2.782486
2.800410
2.876262
3.055241
3.234221
3.327737
3.364883
3.399692
3.459438
3.542823
3.626988
3.684396
3.725699
3.766482
3.791160
3.799991
3.786223
3.732970
3.630102
3.472422
3.329290
3.296559
3.419169
3.665169
3.941042
4.186782
4.388621
4.571497
4.699303
4.673586
4.456159
4.091705
3.704910
3.376563
3.105105
2.883003
2.687657
2.525302
2.434902
2.418536
2.461138
2.531794
2.598814
2.663756
2.730516
2.782469
2.794937
2.761947
2.736489
2.807405
3.028467
3.370062
3.722047
3.951422
3.992465
3.944927
3.937653
3.988307
4.047534
4.063379
4.070912
4.182352
4.459784
4.806574
5.071017
5.170768
5.159078
5.195445
5.383776
5.686665
5.969552
6.158663
6.246204
6.254776
6.279714
6.376866
6.473759
6.485449
6.434534
6.349070
6.221783
6.086703
5.938116
5.772383
5.648214
5.601196
5.610027
5.606650
5.560671
5.493390
5.418317
5.337009
5.250246
5.181408
5.175692
5.225827
5.239075
5.134388
4.911507
4.605240
4.268840
3.941532
3.635006
3.327180
3.001431
2.709971
2.481375
2.293822
2.076656
1.749348
1.359695
1.014983
0.767164
0.587404
0.367640
0.069426
-0.225671
-0.421796
-0.505701
-0.602855
-0.843400
-1.235650
-1.698557
-2.124836
-2.456561
-2.703340
-2.896608
-3.077147
-3.304704
-3.608114
-3.941916
-4.220387
-4.421448
-4.626665
-4.920203
-5.278943
-5.582612
-5.746266
-5.835627
-6.018764
-6.372828
-6.741439
-6.898859
-6.761961
-6.407638
-5.993569
-5.624179
-5.321550
-5.058405
-4.863580
-4.803574
-4.902026
-5.151144
-5.450137
-5.678733
-5.792512
-5.821087
-5.857455
-5.961362
-6.087870
-6.143460
-6.068128
-5.894344
-5.717962
-5.603145
-5.551711
-5.534826
-5.531450
-5.557687
-5.640034
-5.749656
-5.811741
-5.791739
-5.706016
-5.614318
-5.566781
-5.507295
-5.352214
-5.114007
-4.890347
-4.774491
-4.783064
-4.852942
-4.914767
-4.970357
-5.030624
-5.052964
-4.966202
-4.744361
-4.456279
-4.181445
-3.937263
-3.684250
-3.376425
-3.053534
-2.788571
-2.598161
-2.469836
-2.371904
-2.264361
-2.109280
-1.900946
-1.658064
-1.393880
-1.142945
-0.917466
-0.673025
-0.356109
0.047570
0.495410
0.923247
1.306405
1.683068
2.101553
2.532768
2.895403
3.126597
3.244011
3.351035
3.532353
3.767183
3.927199
3.906418
3.747699
3.594695
3.570277
3.663533
3.768998
3.824588
3.856280
3.952134
4.171897
4.510374
4.890154
5.218761
5.476969
5.708682
5.954162
6.179641
6.284327
6.211072
6.042482
5.892076
5.782454
5.656985
5.453067
5.184726
4.929114
4.719222
4.529331
4.344376
4.184618
4.106168
4.150588
4.341776
4.655835
5.019250
5.361624
5.652824
5.898304
6.102481
6.282240
6.421475
6.481481
6.468752
6.412123
6.328477
6.201190
6.020132
5.796731
5.549431
5.269921
4.920533
4.506722
4.056544
3.602209
3.161642
2.721335
2.263884
1.793703
1.356254
0.978551
0.625526
0.218729
-0.307042
-0.958540
-1.676279
-2.351416
-2.896150
-3.275671
-3.505047
-3.635970
-3.730526
-3.846123
-4.021207
-4.238633
-4.419172
-4.486453
-4.435798
-4.318124
-4.184863
-4.045109
-3.877818
-3.677798
-3.435694
-3.122934
-2.717956
-2.220501
-1.639660
-1.022192
-0.444209
0.051168
0.476148
0.880346
1.290000
1.668741
1.995009
2.312965
2.703396
3.204748
3.757533
4.238104
4.546448
4.704126
4.793227
4.874533
4.945710
4.922850
4.755299
4.480984
4.176016
3.912351
3.728175
3.575171
3.375669
3.083690
2.695856
2.262822
1.793421
1.271028
0.701356
0.134542
-0.311480
-0.596186
-0.801403
-1.069744
-1.494984
-2.011663
-2.465737
-2.737195
-2.855130
-2.978001
-3.243484
-3.614433
-3.966679
-4.303079
-4.672729
-5.095112
-5.551524
-5.995208
-6.421228
-6.773734
-6.994797
-7.150658
-7.330158
-7.600057
-7.951004
-8.296236
-8.579903
-8.807460
-8.997350
-9.150874
-9.266731
-9.323880
-9.326478
-9.292709
-9.228286
-9.140225
-9.026707
-8.917605
-8.839935
-8.710311
-8.396252
-7.877236
-7.283147
-6.791407
-6.439941
-6.100685
-5.650767
-5.096163
-4.560002
-4.149050
-3.876814
-3.677052
-3.471836
-3.258827
-3.048675
-2.803974
-2.482901
-2.084677
-1.661516
-1.287191
-1.016772
-0.819089
-0.612055
-0.339039
-0.028617
0.247776
0.469358
0.589370
0.627296
0.677950
0.795884
1.015128
1.258530
1.404260
1.424261
1.398284
1.457771
1.644803
1.943796
2.332668
2.779988
3.242894
3.661380
4.004273
4.272873
4.476271
4.611349
4.674732
4.670576
4.616803
4.542509
4.456786
4.382232
4.330538
4.265336
4.181690
4.117007
4.131554
4.275205
4.540688
4.873190
5.198679
5.468058
5.636127
5.683665
5.669117
5.666000
5.695873
5.733019
5.753540
5.781855
5.824716
5.852511
5.866798
5.885500
5.921868
5.945246
5.913554
5.821856
5.715610
5.660799
5.673267
5.719506
5.724441
5.594297
5.299200
4.923316
4.568472
4.256231
3.932819
3.550441
3.107276
2.655539
2.265108
1.979882
1.809474
1.726088
1.669718
1.563732
1.466059
1.442420
1.471514
1.546326
1.624776
1.775181
2.029494
2.229774
2.300950
2.222760
1.998840
1.755956
1.593601
1.408386
1.093807
0.718182
0.285148
-0.178538
-0.503508
-0.866924
-1.540762
-2.431766
-3.463045
-4.458217
-5.221675
-5.797061
-6.336080
-6.943678
-7.480099
-7.911314
-8.276548
-8.572164
-8.843882
-9.085726
-9.333805
-9.571233
-9.815416
-10.142464
-10.538610
-10.956837
-11.323889
-11.615349
-11.886288
-12.161642
-12.411799
-12.611561
-12.780930
-12.936531
-13.093951
-13.255787
-13.347745
-13.244618
-12.867954
-12.275684
-11.611198
-11.004640
-10.475753
-9.933358
-9.315371
-8.632181
-7.955746
-7.376464
-6.893816
-6.396880
-5.782010
-5.065051
-4.380043
-3.823361
-3.339413
-2.784809
-2.058758
-1.201784
-0.369488
0.262527
0.708028
1.212238
1.915429
2.722528
3.469620
4.072021
4.528693
4.898602
5.233183
5.521784
5.796878
6.054827
6.277188
6.530462
6.886863
7.359380
7.870344
8.356369
8.791999
9.175416
9.594162
10.092916
10.586734
10.997947
11.321617
11.585281
11.765040
11.839853
11.808161
11.625024
11.329408
11.006256
10.697132
10.398918
10.125122
9.961988
9.957831
10.056023
10.166943
10.260200
10.336052
10.357872
10.286695
10.143562
10.005365
9.914187
9.866908
9.870545
9.950553
10.128494
10.358388
10.534250
10.602829
10.593736
10.568798
10.578669
10.612439
10.607503
10.558926
10.536325
10.577628
10.640232
10.630620
10.460212
10.115499
9.656229
9.147084
8.630145
8.063591
7.438329
6.867359
6.353018
5.808025
5.173411
4.392808
3.492972
2.584823
1.721354
0.845676
-0.024547
-0.798916
-1.434049
-1.929946
-2.335444
-2.735487
-3.184107
-3.635324
-4.050433
-4.474115
-4.925073
-5.357847
-5.718665
-5.984927
-6.209886
-6.457705
-6.702667
-6.887362
-7.003219
-7.023741
-6.880350
-6.602658
-6.293535
-6.016363
-5.779455
-5.556315
-5.322784
-5.105098
-4.933652
-4.763764
-4.565821
-4.354371
-4.157986
-3.999528
-3.831719
-3.609618
-3.373229
-3.165155
-2.969031
-2.731863
-2.437806
-2.115175
-1.815663
-1.571741
-1.330937
-1.047271
-0.711651
-0.354990
-0.118601
-0.105094
-0.234718
-0.331093
-0.342783
-0.422791
-0.731916
-1.264181
-1.825799
-2.289485
-2.730831
-3.295567
-4.032529
-4.796507
-5.418132
-5.852205
-6.178214
-6.494352
-6.811529
-7.059607
-7.190791
-7.234692
-7.238329
-7.253656
-7.301194
-7.324573
-7.262229
-7.089484
-6.828677
-6.548388
-6.296933
-6.083924
-5.865979
-5.608289
-5.378915
-5.288516
-5.368525
-5.495292
-5.500228
-5.329561
-5.075248
-4.858083
-4.682740
-4.459340
-4.138267
-3.778229
-3.475340
-3.245186
-3.050360
-2.886187
-2.805400
-2.886448
-3.159205
-3.551974
-3.917728
-4.188406
-4.408430
-4.624817
-4.818085
-4.933682
-4.966673
-5.013432
-5.186178
-5.479716
-5.775072
-5.944181
-5.971458
-5.940805
-5.944442
-6.040297
-6.172779
-6.200315
-6.074847
-5.890413
-5.784428
-5.809626
-5.854046
-5.726760
-5.355033
-4.869267
-4.459614
-4.210237
-4.040868
-3.765775
-3.275853
-2.643318
-2.016239
-1.468908
-0.952750
-0.342815
0.415447
1.219948
1.924438
2.445532
2.800375
3.076508
3.339912
3.612928
3.892957
4.151946
4.328328
4.409635
4.435611
4.425480
4.374565
4.196624
3.803334
3.217817
2.590997
2.098996
1.827798
1.754803
1.747529
1.718694
1.687781
1.696613
1.766750
1.868059
1.971706
2.118735
2.378242
2.743735
3.154168
3.562004
3.905676
4.183108
4.449629
4.736673
5.076189
5.419862
5.687942
5.863544
5.969529
6.092139
6.265144
6.551668
7.027822
7.481637
7.825829
8.256264
8.705662
9.096093
9.563415
10.085548
10.554429
10.890828
11.087731
11.284116
11.513490
11.677923
11.743904
11.715329
11.670648
11.675584
11.702599
11.720523
11.586222
11.226184
10.762497
10.273354
9.815383
9.393519
8.908272
8.336263
7.752045
7.219780
6.762848
6.315527
5.840671
5.331265
4.749125
4.156075
3.581208
3.046865
2.563696
2.048576
1.407468
0.604006
-0.232188
-1.029935
-1.784561
-2.445411
-3.051710
-3.637747
-4.157543
-4.556547
-4.785143
-4.823069
-4.791118
-4.795015
-4.819694
-4.831124
-4.752674
-4.604347
-4.512130
-4.525638
-4.613440
-4.669550
-4.561747
-4.263794
-3.869726
-3.500856
-3.181602
-2.831175
-2.387232
-1.855488
-1.342187
-0.970199
-0.747059
-0.575093
-0.351693
-0.093224
0.070949
0.036919
-0.138685
-0.307794
-0.362086
-0.309353
-0.243633
-0.209863
-0.155312
-0.001790
0.225507
0.408903
0.475663
0.450205
0.390458
0.309929
0.208620
0.110947
0.055875
0.061590
0.109647
0.160301
0.158742
0.118997
0.104190
0.153286
0.261608
0.355384
0.374087
0.306547
0.208095
0.170428
0.213809
0.338757
0.553585
0.822444
1.081432
1.259892
1.340420
1.371592
1.373929
1.305610
1.123253
0.857769
0.542930
0.178216
-0.187798
-0.511729
-0.770458
-0.955153
-1.086077
-1.158292
-1.206090
-1.257784
-1.313375
-1.432089
-1.644840
-1.883047
-2.073977
-2.243606
-2.446485
-2.720541
-3.034860
-3.267093
-3.365286
-3.433865
-3.607390
-3.891057
-4.237068
-4.620486
-5.015334
-5.440574
-5.895169
-6.317552
-6.642002
-6.811891
-6.816827
-6.749547
-6.760458
-6.842805
-6.883069
-6.874497
-6.876316
-6.950090
-7.121018
-7.348055
-7.601849
-7.917468
-8.267895
-8.545068
-8.681966
-8.695734
-8.662484
-8.646638
-8.645080
-8.561435
-8.306344
-7.928122
-7.529898
-7.173237
-6.874764
-6.610321
-6.348735
-6.052080
-5.737242
-5.528908
-5.460849
-5.444484
-5.521636
-5.723996
-5.928173
-6.095205
-6.250806
-6.410564
-6.563308
-6.657863
-6.649292
-6.521226
-6.348481
-6.182230
-6.007147
-5.809983
-5.570218
-5.303177
-5.063931
-4.901836
-4.789877
-4.665188
-4.516082
-4.378405
-4.316321
-4.307230
-4.259692
-4.067984
-3.741456
-3.441944
-3.222181
-3.060086
-2.934619
-2.843700
-2.824478
-2.877471
-2.988132
-3.107106
-3.161398
-3.123213
-3.005798
-2.798763
-2.490419
-2.137135
-1.805152
-1.486937
-1.132354
-0.737507
-0.431761
-0.354350
-0.459037
-0.604508
-0.702960
-0.719845
-0.669191
-0.633343
-0.642695
-0.651788
-0.646852
-0.641917
-0.675428
-0.690235
-0.567625
-0.325521
-0.013281
0.356628
0.763684
1.148400
1.418039
1.537012
1.556754
1.613903
1.780414
1.976019
2.093693
2.120968
2.160972
2.260203
2.378917
2.476849
2.561793
2.707782
2.902348
3.082626
3.205496
3.240824
3.230953
3.207054
3.127304
2.920529
2.592701
2.270848
2.107714
2.149796
2.321242
2.521783
