EVENT_NAME: 202302060117
EVENT_ID: 13194
EVENT_DATE_YYYYMMDD: 2023/02/06
EVENT_TIME_HHMMSS: 01:17:32.00000
EVENT_LATITUDE_DEGREE: 37.288
EVENT_LONGITUDE_DEGREE: 37.043
EVENT_DEPTH_KM: 8.6
HYPOCENTER_REFERENCE: AFAD
MAGNITUDE_W: 7.7
MAGNITUDE_W_REFERENCE: AFAD
MAGNITUDE_L: 
MAGNITUDE_L_REFERENCE: 
FOCAL_MECHANISM: 
NETWORK: TK
STATION_CODE: 3803
STATION_NAME: 
STATION_LATITUDE_DEGREE: 38.39485
STATION_LONGITUDE_DEGREE: 35.479116
STATION_ELEVATION_M: 1271.0
LOCATION: Kahramanmaras_Pazarck_Turkiye
SENSOR_DEPTH_M: 
VS30_M/S: 499
SITE_CLASSIFICATION_EC8: C
MORPHOLOGIC_CLASSIFICATION: 
EPICENTRAL_DISTANCE_KM: 184.40
EARTHQUAKE_BACKAZIMUTH_DEGREE: 
DATE_TIME_FIRST_SAMPLE_YYYYMMDD_HHMMSS: 2023/02/06 01:17:43.8056830
DATE_TIME_FIRST_SAMPLE_PRECISION: millisecond
SAMPLING_INTERVAL_S: 0.01
NDATA: 13501
DURATION_S: 
STREAM: HNZ
UNITS: cm/s^2
INSTRUMENT: sensor = ACEBOX/SARA | digitizer = 
INSTRUMENT_ANALOG/DIGITAL: 
INSTRUMENTAL_FREQUENCY_HZ: 
INSTRUMENTAL_DAMPING: 
FULL_SCALE_G: 
N_BIT_DIGITAL_CONVERTER: 
PGA_CM/S^2: 14.178
TIME_PGA_S: 
BASELINE_CORRECTION: BASELINE REMOVED
FILTER_TYPE: BUTTERWORTH
FILTER_ORDER: 
LOW_CUT_FREQUENCY_HZ: 
HIGH_CUT_FREQUENCY_HZ: 
LATE/NORMAL_TRIGGERED: 
DATABASE_VERSION: 
HEADER_FORMAT: DYNA 1.2
DATA_TYPE: Acceleration
PROCESSING: Automatic Paolucci et al., 2011
DATA_TIMESTAMP_YYYYMMDD_HHMMSS: 
DATA_LICENSE: U (unknown license)
DATA_CITATION: Turkish Accelerometric Archive v 1.0 - Disaster And Emergency Management Presidency, Earthquake Department
DATA_CREATOR: AFAD
ORIGINAL_DATA_MEDIATOR_CITATION: : AFAD - Disaster And Emergency Management Presidency
ORIGINAL_DATA_MEDIATOR: AFAD PROCESS SERVICE
ORIGINAL_DATA_CREATOR_CITATION: AFAD PROCESS SERVICE
ORIGINAL_DATA_CREATOR: network: TK
USER1: GuestUser
USER2: 
USER3: 
USER4: 
USER5: 
[...]
-4.785233
-4.384505
-3.776165
-3.136730
-2.652302
-2.426221
-2.294594
-2.238483
-2.410091
-2.571879
-2.672646
-2.654878
-2.296467
-2.211600
-2.691586
-3.336166
-4.243299
-5.163292
-5.644915
-5.751294
-5.247461
-3.926273
-2.112475
-0.162138
1.751024
3.569265
5.187609
6.521188
7.600863
8.396709
9.093190
9.871501
10.380009
10.450382
10.164213
9.490876
8.729866
7.955996
7.107779
6.735106
6.981995
7.287801
7.473436
7.585892
7.111517
5.902784
4.766295
3.973254
3.434819
3.367017
3.491630
3.594500
3.596370
3.178574
2.528383
1.867438
1.226365
0.816518
0.569160
0.290707
-0.054378
-0.465862
-0.983256
-1.553254
-1.794300
-1.573128
-1.210275
-0.799728
-0.196064
0.662205
1.633632
2.447246
2.833946
2.638959
2.139567
1.787234
1.661217
1.669867
1.782557
1.982219
2.345072
2.898937
3.393184
3.485066
3.146994
2.748135
2.464539
2.041599
1.259313
0.067180
-1.035409
-1.491314
-1.515162
-0.899574
0.286011
0.870270
0.895754
0.881024
0.565631
0.249302
-0.013019
-0.503760
-1.053184
-1.895088
-3.077635
-4.262754
-5.520584
-6.548124
-6.836864
-6.648658
-6.341916
-5.845098
-5.174100
-4.524144
-3.953446
-3.441196
-3.047015
-2.834494
-2.924272
-3.407766
-4.057956
-4.606913
-5.070767
-5.582784
-6.123090
-6.301711
-5.766784
-4.668171
-3.280117
-1.822392
-0.600802
0.186393
0.585718
0.718281
0.420189
-0.576022
-2.220319
-4.222793
-5.986326
-6.956819
-7.206749
-7.029064
-6.758093
-6.710867
-6.793398
-6.876162
-6.904686
-6.707362
-6.261277
-5.598229
-4.874393
-4.432283
-4.314684
-4.371497
-4.639429
-5.263435
-6.322770
-7.677159
-8.933586
-9.593596
-9.429003
-8.804999
-8.351900
-8.353771
-8.652097
-8.928212
-8.943176
-8.710314
-8.446358
-8.244825
-7.893428
-7.076307
-5.721687
-4.068741
-2.432394
-0.991268
0.263054
1.374993
2.366059
3.374660
4.551595
5.866002
7.161472
8.228055
8.845513
8.907001
8.517494
7.941417
7.401345
6.926035
6.372168
5.555280
4.518389
3.657547
3.228996
3.084275
3.106485
3.209589
3.180130
2.985844
2.828264
2.862164
2.947265
2.790153
2.336352
1.759106
1.200564
0.696496
0.298339
0.101715
0.162969
0.412664
0.623549
0.704208
0.775516
0.913456
0.991777
0.782061
0.291553
-0.389966
-1.020050
-1.278397
-1.132040
-0.321700
0.760547
1.353457
2.041521
2.669267
2.639574
2.865655
3.343770
3.604687
4.112494
4.610949
4.785362
4.825340
4.632457
4.296957
4.107347
4.192917
4.521635
4.793774
4.704931
4.281757
3.631333
2.810938
2.048290
1.528558
1.262964
1.188149
1.213398
1.375185
1.594253
1.570639
1.074988
0.031784
-1.400692
-2.870810
-3.934121
-4.372024
-4.478168
-4.425330
-4.071596
-3.544150
-3.166334
-3.202807
-3.649594
-4.046115
-3.972235
-3.439646
-2.652918
-1.874608
-1.314664
-0.944797
-0.545005
0.126461
1.087367
2.146702
3.183826
4.083477
4.685271
4.965593
4.972139
4.821339
4.739276
4.785567
4.916727
5.326339
6.178062
7.502757
9.170899
10.530430
11.223872
11.368592
10.949861
10.613660
10.710919
10.440882
9.737620
8.881687
7.629235
6.164728
4.609742
2.840597
1.085715
-0.524448
-1.952248
-2.943081
-3.255669
-2.823846
-1.816180
-0.582667
0.539794
1.260824
1.427988
1.218038
0.903112
0.614606
0.419385
0.279340
0.201952
0.307394
0.592626
1.021644
1.545349
2.108800
2.748702
3.292514
3.594346
3.917453
4.448874
5.051369
5.479217
5.494180
4.878357
3.628009
2.100377
0.626285
-0.610737
-1.625184
-2.595677
-3.209162
-3.142062
-2.716552
-2.211083
-1.731098
-1.374557
-1.089793
-0.891300
-0.881247
-1.149413
-1.843090
-3.016987
-4.451801
-5.814840
-6.935664
-7.742967
-8.164504
-8.259660
-8.177831
-8.062336
-8.086418
-8.236984
-8.209630
-7.787626
-7.075247
-6.296469
-5.631082
-5.205104
-4.896025
-4.484776
-3.908232
-3.117297
-2.399306
-2.029673
-1.755663
-1.876069
-2.766604
-3.867322
-4.918241
-5.891306
-6.301854
-6.105933
-5.700061
-5.263095
-4.750612
-4.088966
-3.397160
-2.877897
-2.576533
-2.332216
-1.812017
-0.770217
0.687508
2.214204
3.473435
4.287283
4.690115
4.884868
5.089440
5.414184
5.915678
6.504613
6.792884
6.470711
5.485021
3.869248
1.918443
0.071210
-1.300946
-1.959788
-2.006781
-1.648137
-0.994440
-0.278086
0.131526
0.058581
-0.423744
-1.236190
-1.965871
-2.197331
-2.119244
-1.993461
-2.179798
-2.860850
-3.660437
-4.217577
-3.910602
-2.641083
-1.131688
0.654756
2.555060
3.844919
4.516384
4.626268
4.272064
3.717497
3.039952
2.478604
1.836362
0.797133
-0.220120
-0.947697
-1.483795
-1.772535
-1.596252
-0.802979
0.385178
1.611211
2.600640
3.152167
3.043919
2.084180
0.747561
-0.491332
-1.658448
-2.387896
-2.654426
-2.874663
-2.843802
-2.608603
-2.685990
-3.097708
-3.487449
-3.679630
-3.795594
-3.969774
-4.332862
-4.955932
-5.739855
-6.560951
-7.251589
-7.916041
-8.835567
-9.854689
-10.445963
-10.207257
-9.250559
-7.794938
-6.096167
-4.537909
-2.984093
-1.475868
-0.283502
0.737490
1.345129
1.418307
1.170949
0.664076
0.331615
0.184556
-0.152112
-0.453244
-0.561025
-0.608486
-0.716034
-1.050364
-1.892970
-3.248761
-4.612969
-5.696620
-6.443369
-6.962633
-7.491249
-7.909747
-8.258573
-8.503827
-8.474369
-8.260211
-7.469509
-6.133358
-4.777802
-3.252042
-1.899058
-1.260792
-1.084042
-1.081237
-0.996369
-0.712072
-0.272066
0.431897
1.363812
2.450969
3.637256
4.623412
5.110645
5.185226
5.228478
5.486823
6.010528
6.818297
7.686386
8.305481
8.777751
9.197650
9.323199
9.122132
8.678385
8.085007
7.541661
6.856868
5.709859
4.147391
2.407939
0.858564
-0.269275
-0.988670
-1.290970
-1.226209
-0.922974
-0.498165
-0.168979
-0.179968
-0.677256
-1.762543
-3.330154
-4.983335
-6.395004
-7.478187
-8.242939
-8.695103
-8.755423
-8.393973
-7.727652
-6.882241
-5.855638
-4.475767
-2.610065
-0.393902
1.756331
3.254270
3.777040
3.587897
3.199559
2.996623
3.169866
3.665516
4.314536
5.083729
5.894537
6.444428
6.533738
6.372885
6.405382
6.763091
7.212449
7.470794
7.210110
6.480428
5.682244
5.016856
4.723674
4.705671
4.538038
4.272677
3.946062
3.560997
3.081712
2.082228
0.719891
-0.526716
-1.546307
-2.254479
-2.806709
-3.216322
-3.285059
-3.156705
-2.871707
-2.298904
-1.310644
0.204362
1.954568
3.476821
4.443339
4.530544
3.633230
1.997350
0.073899
-1.614351
-2.726526
-3.180794
-3.045894
-2.587885
-2.063479
-1.452099
-0.663502
0.221420
0.968168
1.347854
1.291742
0.832798
0.046771
-0.845166
-1.652469
-2.360641
-2.904922
-3.155319
-2.983713
-2.368359
-1.477592
-0.408204
0.762886
1.943562
3.080050
3.866310
3.932474
3.235991
2.142053
1.008370
-0.060084
-0.899417
-1.570650
-1.955247
-1.758858
-1.382445
-0.746517
0.342043
1.295234
2.442944
3.941350
4.805230
4.843339
4.415957
3.818137
3.486378
3.447099
3.428395
3.277829
3.101779
3.197635
3.627822
4.128381
4.412444
4.393272
4.190570
4.015221
3.874241
3.495021
2.687719
1.505405
0.134651
-1.213190
-2.391295
-3.252839
-3.569167
-3.258685
-2.541162
-1.630522
-0.696970
0.137920
0.991513
1.923662
2.886672
3.809937
4.595495
5.107745
4.988040
4.515067
4.284309
3.863473
3.086097
2.379327
1.643333
0.844681
0.022181
-0.836089
-1.611595
-2.421469
-3.137591
-3.413238
-3.267349
-2.851892
-2.407912
-2.231162
-2.379857
-2.696653
-2.990771
-3.124737
-3.144844
-3.299385
-3.672526
-4.205584
-4.972907
-5.976366
-7.110750
-8.209131
-8.978090
-9.265895
-9.118136
-8.533877
-7.384063
-5.658873
-3.652426
-1.659538
0.223230
1.978346
3.454074
4.474598
5.076392
5.124320
4.578636
3.751929
2.787047
2.045675
1.574573
0.782935
-0.117419
-0.846867
-1.748624
-2.694568
-3.414430
-3.817030
-3.813757
-3.425888
-2.588427
-1.365434
-0.070431
1.093177
2.176827
3.225641
4.146802
5.005305
5.942130
6.980657
7.993933
8.598533
8.516937
7.792398
6.660585
5.384987
3.946899
2.293251
0.539069
-1.239193
-2.928613
-4.470974
-5.721790
-6.278929
-6.019415
-5.141039
-3.903317
-2.641046
-1.649045
-1.076242
-0.765526
-0.560019
-0.338847
0.083390
0.338696
0.289832
0.153995
-0.630863
-2.036686
-3.397855
-4.856750
-6.280108
-7.304842
-8.131550
-8.772155
-9.218942
-9.539011
-9.503241
-9.142258
-8.549583
-7.421979
-5.721806
-3.723074
-1.557878
0.505850
2.105490
3.124144
3.699753
4.088089
4.365372
4.439018
4.248473
3.800517
3.190539
2.601136
2.359622
2.588042
2.972638
3.373132
3.723827
3.741829
3.509902
3.267453
2.982921
2.728783
2.632458
2.625911
2.603466
2.523975
2.429052
2.508075
2.898049
3.279605
3.203620
2.694643
1.893653
0.809301
-0.385871
-1.522594
-2.531664
-3.221132
-3.461243
-3.300858
-2.751669
-1.871657
-0.812322
0.342870
1.502036
2.509702
3.138148
3.096298
2.218856
0.595835
-1.418563
-3.403736
-5.070711
-6.198783
-6.761300
-6.752884
-6.044479
-4.815173
-3.331730
-1.756405
-0.408564
0.697530
1.786324
2.755179
3.433424
3.642672
3.090676
1.632716
-0.666213
-3.515267
-6.372504
-8.701593
-10.233199
-10.831721
-10.484533
-9.465645
-8.043924
-6.557442
-5.467713
-4.707873
-4.037810
-3.457526
-2.671734
-1.424660
0.168434
1.924953
3.520852
4.665757
5.351951
5.782605
6.283398
6.997181
7.770815
8.345489
8.476648
8.109118
7.394633
6.408008
5.140827
3.741316
2.544741
1.951363
2.025242
2.437426
3.022854
3.538844
3.626050
3.396694
2.937983
2.255061
1.559513
0.705919
-0.416776
-1.609143
-2.786780
-3.806137
-4.601749
-5.091321
-4.926027
-3.956704
-2.252790
0.009665
2.409126
4.459761
5.899250
6.884705
7.673069
8.226934
8.365809
8.032882
7.337802
6.362399
5.191308
3.998474
2.897288
2.065904
1.668448
1.552017
1.491697
1.316348
0.840336
0.227319
-0.083398
-0.024248
0.078856
-0.021911
-0.218067
-0.206144
-0.019808
-0.045527
-0.441813
-1.035659
-1.612671
-1.963602
-2.016674
-1.829403
-1.297047
-0.488577
0.383954
1.207387
1.570006
1.404244
0.992526
0.453623
0.312409
0.430710
0.404524
0.872819
1.401668
1.289678
1.366831
1.529320
1.137942
0.862295
0.982700
1.181193
1.731551
2.609693
3.317631
3.817957
4.128673
4.097577
3.764181
3.145787
2.374957
1.779475
1.438130
1.208307
1.005370
0.913254
1.201291
2.082239
3.390568
4.770439
6.061934
7.126179
7.734051
7.888591
7.791330
7.619255
7.530645
7.652687
8.068846
8.742181
9.445209
10.028533
10.504309
10.817831
10.833495
10.468303
9.865105
9.291133
8.824239
8.420003
8.034938
7.603582
7.052755
6.349960
5.677091
5.291325
5.183777
5.301844
5.680829
6.160581
6.382454
6.114755
5.537509
4.927298
4.389330
3.936464
3.448295
2.907521
2.203089
1.323076
0.639920
-0.140730
-1.117068
-1.806069
-2.542531
-3.340248
-3.996517
-4.581011
-4.717549
-5.041125
-6.001097
-6.829442
-7.699402
-8.751958
-9.551311
-10.220439
-10.725676
-11.011143
-11.281179
-11.451150
-11.368153
-11.039902
-10.515262
-9.884711
-9.217922
-8.566563
-8.017841
-7.439895
-6.700161
-5.973987
-5.245476
-4.451033
-3.801077
-3.247914
-2.643548
-2.183669
-1.989618
-2.046899
-2.395024
-2.919899
-3.486858
-3.707797
-3.128682
-2.178530
-1.486491
-1.193777
-1.269996
-1.526004
-1.961102
-2.623216
-3.510477
-4.669879
-5.633358
-6.085288
-6.262507
-6.249181
-6.288226
-6.641027
-7.130599
-7.419806
-7.187880
-6.469188
-5.414529
-3.999355
-2.404156
-0.753782
0.674485
1.449055
1.665316
1.209411
0.109161
-1.068243
-2.403226
-3.896256
-5.297169
-6.671197
-7.706218
-8.349628
-8.817691
-9.012678
-8.877544
-8.215898
-7.140899
-6.004645
-4.832386
-3.762063
-2.627913
-1.082513
0.540273
1.836444
2.819094
3.586416
4.064764
4.063829
3.699806
3.394232
3.440056
3.853175
4.501494
5.330305
6.239308
6.892304
7.053155
6.729813
6.135968
5.623016
5.391088
5.408389
5.173656
4.355833
3.360791
2.170762
0.880902
-0.122790
-1.224677
-2.122693
-2.664636
-3.425413
-3.686097
-3.615491
-4.114649
-4.466046
-4.438693
-4.096648
-3.165901
-2.277706
-1.697656
-1.226555
-0.976860
-0.806656
-0.587121
-0.434218
-0.438895
-0.733947
-1.475085
-2.604093
-4.053403
-5.918170
-7.991251
-9.958656
-11.754453
-13.145547
-13.739627
-13.387996
-12.344559
-11.069664
-9.859296
-8.777282
-7.753485
-6.685266
-5.523995
-4.282065
-3.006467
-1.819479
-0.936895
-0.419502
-0.120242
0.059313
0.222270
0.449988
0.621127
0.661807
0.720489
0.937453
1.352442
1.940909
2.480980
2.750548
2.919349
3.178396
3.512258
4.028482
4.683347
5.243291
5.761619
6.346579
6.953517
7.572845
8.072937
8.129749
7.555542
6.559565
5.471706
4.370988
3.427616
2.881465
2.576826
2.420181
2.611427
3.225378
4.278634
5.652193
6.977355
8.069188
9.033601
9.906833
10.607289
11.201601
11.858337
12.624023
13.378953
13.826908
13.583525
12.352348
10.293061
7.959764
5.676967
3.705354
2.261421
1.196007
0.534360
0.390106
0.697549
1.435413
2.453132
3.586347
4.659242
5.620148
6.450128
6.841504
6.974066
6.895744
6.414121
6.130290
5.896025
5.105322
4.150727
3.233540
2.004233
0.355728
-1.133093
-2.170219
-3.035737
-3.674705
-4.555420
-5.676011
-6.237592
-6.628970
-6.879133
-6.473262
-5.853466
-5.171713
-4.421225
-3.872737
-3.390881
-2.865306
-2.433483
-2.125572
-1.904634
-1.813922
-1.808311
-1.844316
-2.019431
-2.240136
-2.372700
-2.360777
-1.983896
-1.076530
0.266168
1.725997
2.936599
3.608765
3.511038
2.715191
1.484014
-0.105574
-1.912594
-3.607624
-4.887665
-5.625062
-6.059925
-6.437041
-6.633665
-6.577320
-6.284607
-5.732144
-5.155835
-4.865459
-4.870369
-5.050160
-5.341472
-5.574568
-5.477543
-4.961319
-4.051849
-2.742584
-1.109277
0.674128
2.447012
4.188099
6.003768
7.910151
9.703843
11.228434
12.557571
13.597735
14.145755
14.178252
13.550272
12.274674
10.752887
9.389614
8.543268
8.182986
7.956202
7.859409
8.039900
8.347810
8.328638
7.816856
7.081095
6.188223
5.288337
4.432404
3.383823
2.331501
1.297649
0.258887
-0.651520
-1.708518
-2.690935
-3.450075
-4.265327
-4.876006
-5.171994
-5.261305
-5.498376
-5.814236
-5.597974
-5.475933
-5.266919
-4.244991
-3.465512
-2.680889
-1.264545
-0.231162
0.423236
0.928004
1.166944
1.654177
2.117095
2.078752
1.835368
1.311428
0.367354
-0.420543
-0.709751
-0.697594
-0.359524
0.383951
1.382732
2.508465
3.625782
4.591364
5.369441
5.923540
6.112681
5.839839
5.209521
4.401985
3.555638
2.776158
2.107263
1.570230
1.158279
0.802205
0.546430
0.463432
0.460626
0.441921
0.355649
0.240387
0.265169
0.522111
0.959312
1.439531
1.860833
2.237012
2.653405
3.160043
3.576435
3.758796
3.788254
3.644468
3.346376
2.977444
2.454205
1.785544
1.098647
0.480720
0.054741
-0.065197
0.098226
0.331322
0.586862
1.119217
1.893320
2.580449
3.079138
3.501375
3.995389
4.575439
5.151281
5.646463
5.866933
5.741150
5.384609
4.766448
3.902567
2.829203
1.551734
0.267017
-0.969771
-2.209131
-3.467194
-4.805684
-5.888400
-6.346877
-6.268088
-5.761683
-4.985945
-4.149652
-3.373914
-2.861898
-2.733076
-2.953314
-3.435171
-4.025509
-4.618887
-5.165038
-5.625152
-5.956677
-6.044351
-5.914828
-5.773849
-5.740183
-5.820142
-5.967435
-6.200531
-6.450929
-6.525511
-6.489506
-6.352969
-6.098365
-5.801209
-5.343902
-4.927276
-4.636900
-4.280360
-3.885711
-3.396607
-3.230378
-3.302622
-2.880385
-2.491113
-2.245393
-1.672824
-1.340364
-1.265082
-1.085760
-1.050457
-1.133690
-1.049991
-0.735300
-0.370343
-0.205751
-0.284073
-0.559487
-1.195884
-2.040828
-3.006645
-4.497571
-5.712148
-6.139062
-6.816373
-7.272045
-6.879266
-6.402554
-5.555039
-4.202055
-3.085674
-2.233483
-1.800725
-1.809142
-1.667462
-1.618599
-1.844214
-1.803534
-1.757944
-1.964153
-2.064453
-1.946620
-1.347865
-0.665646
-0.695806
-0.880273
-0.822291
-0.804056
-0.535190
-0.021304
0.515728
1.261307
2.063231
2.551399
2.686533
2.531058
2.144590
1.819845
1.833405
2.076320
2.316897
2.434964
2.497387
2.542276
2.382124
2.062990
1.664131
1.102082
0.703223
0.733383
0.988455
1.377961
1.989106
2.841063
3.823245
4.767317
5.594258
6.267360
6.738227
6.922225
6.818418
6.519625
5.900295
4.858961
3.592014
2.276903
1.041986
0.007900
-0.874919
-1.739970
-2.662067
-3.615726
-4.575231
-5.507381
-6.248987
-6.723829
-6.994567
-7.115908
-7.126898
-6.956927
-6.582385
-6.185865
-6.005374
-6.022676
-6.052369
-6.104974
-6.002337
-5.704948
-5.469514
-4.946277
-4.166329
-3.753444
-3.681435
-3.821948
-4.160721
-4.722536
-5.446840
-5.866507
-5.979899
-6.023854
-6.019178
-6.205515
-6.603439
-7.009545
-7.291973
-7.387363
-7.389467
-7.339435
-7.243345
-7.062387
-6.783467
-6.553879
-6.498469
-6.792587
-7.408643
-8.033584
-8.659226
-9.423977
-10.170259
-10.668715
-10.867210
-10.803384
-10.466716
-9.859311
-8.970882
-7.719834
-6.195944
-4.680704
-3.406276
-2.542629
-2.069190
-1.826042
-1.863684
-2.218588
-2.707927
-3.113565
-3.198902
-2.890056
-2.358168
-1.800796
-1.368272
-1.062933
-0.800613
-0.625032
-0.706160
-1.136348
-1.795189
-2.467590
-2.984283
-3.363503
-3.798132
-4.324878
-4.774003
-4.956366
-4.813516
-4.449494
-3.937011
-3.340361
-2.830216
-2.595952
-2.802161
-3.511737
-4.659214
-6.155284
-7.879773
-9.582519
-11.016398
-12.093035
-12.759124
-13.035239
-13.020510
-12.722419
-12.185154
-11.508077
-10.792892
-10.194372
-9.781019
-9.592579
-9.646586
-9.850692
-10.188997
-10.604222
-10.924057
-11.023421
-10.824460
-10.389598
-9.825680
-9.125224
-8.270461
-7.238247
-5.986029
-4.528538
-2.990152
-1.518399
-0.191366
0.903272
1.800118
2.651840
3.455869
4.129204
4.610125
4.912190
5.168665
5.487798
6.013841
6.883567
7.975399
9.005509
9.720695
10.040295
10.013875
9.692404
9.205403
8.655745
8.074525
7.476003
6.903199
6.585235
6.587806
6.831656
7.246178
7.513641
7.725461
7.997600
8.131800
8.441814
8.685197
8.611316
8.794379
8.701561
7.895661
6.946677
5.791952
4.599118
3.778489
3.249405
3.123622
3.274186
3.371679
3.384070
3.176691
2.633580
1.857372
0.998401
0.153924
-0.591890
-1.089411
-1.277150
-1.162357
-0.736846
-0.136689
0.538751
1.367795
2.254120
3.031262
3.759072
4.384479
4.735408
4.890649
4.966399
4.999831
5.113456
5.362684
5.741435
6.225862
6.679896
7.097457
7.591470
8.128034
8.590485
8.836205
8.702239
8.127097
7.152162
5.830271
4.240683
2.555238
0.926138
-0.560345
-1.802043
-2.736531
-3.380176
-3.808727
-4.076191
-4.224887
-4.369140
-4.496561
-4.522746
-4.521578
-4.486275
-4.285444
-3.841230
-3.125109
-2.238083
-1.305934
-0.353912
0.609332
1.602970
2.603388
3.533901
4.405730
5.252309
6.112683
7.023556
7.897958
8.647043
9.248136
9.646526
9.899026
10.101260
10.186829
10.131419
10.030184
9.917493
9.753133
9.583396
9.434233
9.169340
8.911695
8.801108
8.548840
8.042201
7.413286
6.693657
5.851519
4.935735
3.991894
2.716997
1.110576
-0.635423
-2.797580
-4.944541
-6.502099
-7.841290
-8.977078
-9.707228
-10.177862
-10.377525
-10.442755
-10.692218
-11.277413
-12.076299
-12.701005
-12.900669
-12.675523
-12.108097
-11.393380
-10.728694
-10.153086
-9.624471
-9.108014
-8.621950
-8.230574
-7.864681
-7.395451
-6.850704
-6.312971
-5.846078
-5.392512
-4.771313
-3.940632
-2.965464
-1.951252
-0.987774
-0.001150
1.001606
1.885826
2.539757
2.745732
2.453017
1.957834
1.532088
1.271170
1.058648
0.656983
0.009598
-0.794197
-1.658546
-2.473330
-3.101077
-3.348435
-3.109962
-2.499284
-1.698763
-0.898709
-0.299253
0.068977
0.358417
0.730388
1.325401
2.179229
3.184089
4.256516
5.210642
5.737387
5.814773
