EVENT_NAME: 202302060117
EVENT_ID: 13194
EVENT_DATE_YYYYMMDD: 2023/02/06
EVENT_TIME_HHMMSS: 01:17:32.00000
EVENT_LATITUDE_DEGREE: 37.288
EVENT_LONGITUDE_DEGREE: 37.043
EVENT_DEPTH_KM: 8.6
HYPOCENTER_REFERENCE: AFAD
MAGNITUDE_W: 7.7
MAGNITUDE_W_REFERENCE: AFAD
MAGNITUDE_L: 
MAGNITUDE_L_REFERENCE: 
FOCAL_MECHANISM: 
NETWORK: TK
STATION_CODE: 4702
STATION_NAME: 
STATION_LATITUDE_DEGREE: 37.41714
STATION_LONGITUDE_DEGREE: 41.35743
STATION_ELEVATION_M: 933.0
LOCATION: Kahramanmaras_Pazarck_Turkiye
SENSOR_DEPTH_M: 
VS30_M/S: None
SITE_CLASSIFICATION_EC8: unknown
MORPHOLOGIC_CLASSIFICATION: 
EPICENTRAL_DISTANCE_KM: 381.59
EARTHQUAKE_BACKAZIMUTH_DEGREE: 
DATE_TIME_FIRST_SAMPLE_YYYYMMDD_HHMMSS: 2023/02/06 01:18:00.6831720
DATE_TIME_FIRST_SAMPLE_PRECISION: millisecond
SAMPLING_INTERVAL_S: 0.01
NDATA: 21001
DURATION_S: 
STREAM: HNE
UNITS: cm/s^2
INSTRUMENT: sensor = CMG-5T/GURALP | digitizer = 
INSTRUMENT_ANALOG/DIGITAL: 
INSTRUMENTAL_FREQUENCY_HZ: 
INSTRUMENTAL_DAMPING: 
FULL_SCALE_G: 
N_BIT_DIGITAL_CONVERTER: 
PGA_CM/S^2: 21.329
TIME_PGA_S: 
BASELINE_CORRECTION: BASELINE REMOVED
FILTER_TYPE: BUTTERWORTH
FILTER_ORDER: 
LOW_CUT_FREQUENCY_HZ: 
HIGH_CUT_FREQUENCY_HZ: 
LATE/NORMAL_TRIGGERED: 
DATABASE_VERSION: 
HEADER_FORMAT: DYNA 1.2
DATA_TYPE: Acceleration
PROCESSING: Automatic Paolucci et al., 2011
DATA_TIMESTAMP_YYYYMMDD_HHMMSS: 
DATA_LICENSE: U (unknown license)
DATA_CITATION: Turkish Accelerometric Archive v 1.0 - Disaster And Emergency Management Presidency, Earthquake Department
DATA_CREATOR: AFAD
ORIGINAL_DATA_MEDIATOR_CITATION: : AFAD - Disaster And Emergency Management Presidency
ORIGINAL_DATA_MEDIATOR: AFAD PROCESS SERVICE
ORIGINAL_DATA_CREATOR_CITATION: AFAD PROCESS SERVICE
ORIGINAL_DATA_CREATOR: network: TK
USER1: GuestUser
USER2: 
USER3: 
USER4: 
USER5: 
[...]
-3.908013
-3.458990
-2.952206
-2.197957
-1.366186
-0.645987
-0.148019
0.266955
0.574917
0.944594
1.437394
1.855712
2.033254
1.875778
1.487862
1.003879
0.606236
0.373973
0.213153
0.208593
0.378231
0.693186
1.185986
1.625280
1.642305
1.364137
0.939741
0.453022
0.200391
0.138677
-0.022143
-0.145266
-0.128849
-0.109392
0.110104
0.753388
1.468116
2.109577
2.698140
3.098521
3.496470
3.855506
4.184749
4.499096
4.749904
4.783954
4.446200
3.741202
2.724595
1.566015
0.638483
0.265767
0.330522
0.810858
1.716807
2.719735
3.494656
3.779818
3.753674
3.701689
3.462130
2.862016
2.076760
1.391827
0.996919
1.079610
1.576362
2.062170
2.088620
1.542315
0.711154
-0.295117
-1.207145
-1.888430
-2.277258
-2.504960
-2.603459
-2.619267
-2.451149
-2.104881
-1.816984
-1.447003
-1.051790
-0.777573
-0.525548
-0.350134
-0.495146
-0.892486
-1.296818
-1.772592
-2.421652
-3.128170
-3.811279
-4.368224
-4.790492
-5.093285
-5.296363
-5.112740
-4.624804
-4.124404
-3.655013
-3.243383
-2.781288
-2.269335
-1.819704
-1.381018
-0.973644
-0.749589
-0.730435
-0.737731
-0.786068
-1.144190
-1.733056
-2.219167
-2.535640
-2.717437
-2.845425
-2.903794
-2.793134
-2.858191
-3.385039
-3.864158
-3.923439
-3.525490
-2.837211
-1.962271
-1.000080
0.021089
0.937070
1.586435
2.081668
2.389022
2.541635
2.579029
2.265292
1.479428
0.420563
-0.716128
-1.767089
-2.510695
-2.944516
-3.096217
-2.960324
-2.683978
-2.260492
-1.376736
-0.140024
1.192754
2.521885
3.483164
4.012749
4.278758
4.410091
4.596754
5.027840
5.663221
6.222295
6.491952
6.291002
5.548308
4.360239
2.825295
1.329568
0.231182
-0.434294
-0.955670
-1.337505
-1.662491
-1.846416
-2.108471
-2.491219
-2.796748
-2.871230
-2.591844
-2.092052
-1.635429
-1.140500
-0.694822
-0.325145
0.032675
0.541891
1.348429
2.194185
2.932929
3.298349
3.136008
2.342544
1.123466
-0.434582
-2.096602
-3.574088
-4.904129
-6.041733
-6.894783
-7.297899
-7.403998
-7.369644
-7.067154
-6.638500
-6.343914
-6.170019
-5.866009
-5.180467
-4.083904
-2.811319
-1.485229
-0.006525
1.404688
2.540164
3.386528
4.091830
4.613208
4.947011
5.105704
5.171371
5.204813
5.119083
4.780113
4.010057
2.787027
1.241747
-0.198346
-1.239274
-1.777370
-1.806250
-1.380332
-0.844971
-0.465566
-0.290456
-0.452493
-1.006701
-1.603168
-2.051885
-2.353462
-2.448920
-2.372309
-2.099308
-1.629004
-1.043481
-0.497480
-0.034776
0.343716
0.690592
1.098877
1.566445
1.836406
1.620864
1.222916
0.643778
-0.095572
-0.719399
-1.182405
-1.640547
-2.131218
-2.604560
-2.642257
-1.741476
-0.224771
1.392864
2.423457
2.673962
2.595832
2.427715
2.216125
1.939173
1.667085
1.577099
1.591996
1.490458
1.325381
1.141152
0.791542
0.099313
-0.917599
-2.169814
-3.293736
-3.887163
-3.815720
-3.095520
-2.023886
-0.955900
-0.175810
0.318814
0.571447
0.742909
1.013174
1.348497
1.689596
1.864706
1.706014
1.338467
0.831684
0.282035
-0.316255
-1.217643
-2.336093
-3.388574
-4.313674
-5.044209
-5.520591
-5.648579
-5.442763
-4.924122
-4.166530
-3.237780
-2.221171
-1.266885
-0.233859
0.975491
2.344447
3.675402
4.747340
5.429538
5.647210
5.425587
4.707822
3.707935
2.905046
2.509834
2.558476
3.021180
3.709762
4.324774
4.661313
4.514173
3.779383
2.695893
1.472863
0.342556
-0.675267
-1.500045
-1.981899
-2.203825
-2.262803
-2.132382
-1.777298
-1.255313
-0.382501
0.761792
2.039545
3.325810
4.338163
5.016105
5.480936
5.640542
5.589469
5.201553
4.415993
3.473868
2.545119
1.869915
1.558913
1.464671
1.422718
1.609077
1.858973
2.056276
2.310125
2.695002
3.271709
4.094055
5.050166
6.228812
7.594119
8.853632
9.768397
9.938035
9.343697
8.235279
6.888517
5.554220
4.190433
2.695619
1.131794
-0.455743
-1.995247
-3.293671
-4.372905
-5.235987
-5.802357
-6.223105
-6.598252
-6.723504
-6.416757
-5.965910
-5.542728
-5.309553
-5.469765
-5.901762
-6.577575
-7.438833
-8.320764
-9.123957
-9.586355
-9.320650
-8.377915
-7.123571
-5.723606
-4.531888
-3.872795
-3.814424
-4.392346
-5.439354
-6.772132
-8.033467
-8.816899
-9.157693
-9.332802
-9.363506
-9.439204
-9.648970
-9.818303
-10.001924
-10.076101
-9.888527
-9.652615
-9.420655
-8.918734
-7.989984
-6.355628
-4.082244
-1.636486
0.595553
2.310776
3.295767
3.472701
3.224022
3.094819
3.291210
3.802858
4.506945
5.264538
5.992033
6.535907
6.713449
6.508852
6.136440
5.728764
5.368818
5.142939
5.156924
5.605035
6.344083
7.023849
7.437303
7.440951
7.172208
6.729266
6.010588
5.220772
4.558944
3.963998
3.589763
3.588851
3.843004
4.230313
4.440080
4.237306
3.901072
3.559974
3.065047
2.596569
2.451861
2.541849
2.885076
3.337443
3.928438
4.462888
4.713088
4.795475
4.631615
4.257076
3.548126
2.513886
1.332506
0.375180
-0.409468
-0.986478
-0.975229
-0.353224
0.598630
1.484515
2.274636
2.949234
3.593127
4.144297
4.601528
5.164251
5.682284
5.851010
5.689581
5.293761
4.757185
4.193552
3.477002
2.689010
1.650514
0.168468
-1.358572
-2.592850
-3.488766
-3.963628
-3.882457
-3.126992
-2.074815
-1.117488
-0.236771
0.503189
1.151642
1.852080
2.767150
3.880738
5.039319
6.010630
6.347473
5.948613
4.899781
3.268162
1.377527
-0.305469
-1.576229
-2.494033
-3.170757
-3.837146
-4.515087
-5.041022
-5.432282
-5.645696
-5.479706
-4.816053
-4.075485
-3.742290
-3.781202
-4.025321
-4.108619
-3.603355
-2.587962
-1.313553
0.040202
1.151054
1.804979
2.019610
1.784308
1.090862
0.172450
-0.903743
-2.279082
-3.952654
-5.592785
-7.015549
-8.107855
-8.838389
-9.232689
-9.239985
-8.905878
-8.232192
-7.244768
-5.808018
-4.072731
-2.762449
-2.211583
-2.044985
-2.072649
-2.477285
-3.299022
-4.149641
-4.652168
-4.804780
-4.357277
-3.528546
-2.511938
-1.410510
-0.622213
0.047521
0.538497
0.916685
1.484272
1.860637
1.928127
1.923568
2.164952
2.589350
3.213178
3.969859
4.516773
4.825647
4.973396
5.222381
5.641611
6.033480
6.228959
6.152957
5.789666
5.018090
3.827285
2.576895
1.553295
0.534256
-0.719479
-1.759799
-2.365082
-2.587920
-2.674866
-2.632000
-2.326166
-1.919705
-1.621167
-1.351509
-1.255746
-1.395285
-1.662813
-1.823026
-1.831537
-1.536951
-0.997942
-0.183803
1.000315
2.144607
3.274916
4.309157
5.094110
5.599983
6.011612
6.409866
6.831832
7.402458
7.970045
8.226629
8.381371
8.526688
8.514832
8.195319
7.378142
6.354542
5.288381
3.977493
2.605498
1.496472
0.835556
0.937399
1.816596
3.039323
4.316164
5.548619
6.556108
7.347141
8.047580
8.627935
8.948970
8.869624
8.456171
7.923851
7.542016
7.155012
6.801754
6.663126
6.565844
6.219881
5.444050
4.116440
2.598217
1.388868
0.302338
-0.988486
-2.805246
-4.933313
-6.896606
-8.673846
-10.123059
-11.079776
-11.776869
-12.457242
-13.029996
-13.492090
-13.670239
-13.486920
-12.908997
-12.151405
-11.437894
-10.824098
-10.227934
-9.371539
-8.279839
-6.907844
-5.231838
-3.249999
-1.583418
-0.489287
0.040603
-0.326032
-1.414994
-3.181897
-5.434911
-7.414925
-8.801208
-9.335048
-9.169666
-8.751957
-8.226627
-7.705250
-7.425257
-7.550812
-7.861813
-8.106844
-8.247904
-8.245168
-7.956966
-7.001767
-5.468950
-3.672557
-1.987431
-0.353683
1.225343
2.350484
3.052746
3.121149
2.634126
2.149232
1.874104
1.614784
1.281286
0.665972
0.036368
-0.447614
-1.083602
-1.725061
-2.220292
-2.388713
-2.169825
-1.874327
-1.430473
-1.155343
-1.179055
-1.159902
-1.020057
-1.058362
-1.027352
-0.683517
-0.395619
-0.045399
0.277764
0.378999
0.210883
-0.330862
-1.013058
-1.670023
-2.008385
-1.942718
-1.679445
-0.970190
0.124549
1.405950
2.295483
2.507074
2.054101
0.947810
-0.639119
-2.261313
-3.429318
-3.820273
-3.384323
-2.271951
-0.752815
0.883366
2.653310
4.363669
5.748737
6.916438
7.466088
7.425960
7.083950
6.413305
5.529854
4.432684
3.245527
2.044690
1.195896
0.926240
1.013795
1.121111
1.198634
0.918338
0.138554
-1.243777
-3.002775
-4.365954
-4.977012
-4.717692
-3.712939
-2.123880
-0.222300
1.453402
2.204306
2.067198
1.616961
1.424827
1.788727
2.491598
3.388427
4.526640
5.819897
7.213782
8.485758
9.458286
10.476718
11.319738
11.641684
11.689110
11.472960
11.073492
10.508947
9.621240
8.675467
7.864370
7.464902
7.760096
8.364468
8.622572
8.629565
8.629566
8.562380
8.430441
8.670305
9.749540
11.809813
14.242803
15.975658
16.583678
15.985691
14.365929
12.035696
9.339740
6.682089
4.378913
2.443588
0.708302
-0.760975
-1.904963
-2.718188
-3.358127
-3.997155
-4.621894
-5.179143
-5.881100
-6.680037
-7.429420
-8.036830
-8.416233
-8.453626
-8.043516
-7.112030
-5.861942
-4.696673
-3.684928
-2.797220
-1.937176
-0.955224
0.068680
0.859714
1.366195
1.751071
2.576154
4.045129
5.729647
7.310497
8.404628
8.765488
8.714111
8.242593
7.101342
5.463035
3.466909
1.293545
-0.463630
-1.700948
-2.787782
-3.790709
-4.661696
-5.441480
-6.110300
-6.780337
-7.348530
-7.732797
-7.940131
-7.658618
-7.041174
-6.172010
-5.229275
-4.596023
-4.264956
-4.233642
-4.600885
-5.099764
-5.467311
-5.568545
-5.290680
-4.806696
-4.274983
-3.837816
-3.453244
-2.892953
-2.146609
-1.595135
-1.349799
-1.294772
-2.017402
-3.482728
-5.082122
-6.163787
-6.676043
-7.076423
-7.646136
-8.437472
-9.295387
-10.070306
-10.309561
-9.914652
-9.036976
-7.844042
-6.374459
-4.641907
-2.722998
-0.528353
1.721623
3.234375
3.708631
3.504945
3.172055
2.970802
2.893584
2.897841
2.790526
2.522086
1.842321
0.540857
-1.147308
-3.023350
-4.788125
-6.249803
-7.451856
-8.311290
-9.052465
-9.854442
-10.590448
-11.021837
-10.971067
-10.522348
-9.956282
-9.423656
-9.067052
-9.156734
-9.222400
-8.525609
-6.994616
-5.193967
-3.402438
-1.778722
-0.869125
-0.514649
-0.310050
0.060539
0.950679
2.307475
3.722640
4.512761
4.273507
3.049261
0.974700
-1.202312
-3.159221
-4.629411
-5.083297
-4.582288
-3.432219
-2.075728
-0.435291
1.256827
2.703001
3.882255
4.680280
5.125655
5.442130
5.632744
5.846160
6.308559
7.079832
8.081848
9.148314
9.753294
9.873683
9.579402
9.026713
8.495609
7.737714
6.691921
5.633665
4.461404
3.354810
2.656805
1.545042
-0.309719
-2.704402
-5.008490
-6.739216
-7.968022
-8.462645
-8.237069
-7.701100
-7.175467
-6.935602
-7.156313
-7.570677
-7.850669
-8.025474
-8.037634
-8.027905
-7.599859
-6.137876
-3.840475
-1.100740
1.483646
3.532671
5.395035
7.114817
8.364601
8.932188
8.578018
7.573570
6.490689
5.508131
4.901328
4.950578
5.508133
6.152330
6.439011
6.368786
6.096698
5.797553
5.467399
5.358564
5.705440
6.576732
7.790035
8.615726
8.676224
8.172785
7.499404
6.821160
6.215269
5.953518
5.929806
6.349339
7.098116
7.064675
6.272427
5.497811
5.267981
5.794526
6.518373
6.777998
6.379746
5.444309
4.330115
3.308947
2.421848
1.812005
1.704083
1.491885
0.767734
-0.114805
-0.782105
-0.739543
-0.111763
0.782026
1.819003
2.497857
2.192024
1.055941
-0.165873
-1.108910
-1.481929
-0.936839
0.657388
2.924996
5.348561
7.301519
8.595081
9.432324
10.207549
11.115322
11.811809
12.062009
11.910309
11.545802
11.031723
10.487242
10.174113
10.012380
9.744853
9.393114
9.041984
8.611507
7.728360
6.289483
4.309469
2.168026
0.027800
-1.975015
-3.671692
-5.116649
-6.333294
-7.592805
-8.951728
-10.032785
-10.850266
-11.405387
-11.730981
-11.595088
-10.929002
-10.140097
-9.294037
-8.386568
-7.455082
-6.725154
-6.322341
-6.282515
-6.764674
-7.934502
-9.629355
-11.265230
-12.579766
-13.671464
-14.802987
-15.799834
-16.529152
-17.253606
-17.944012
-18.407626
-18.573006
-18.826549
-19.353093
-19.844980
-19.781442
-18.890997
-17.144461
-14.933399
-12.652414
-10.688816
-9.563676
-9.335060
-9.387957
-8.907925
-7.650845
-5.981832
-4.515897
-3.541545
-2.692446
-1.696510
-0.786913
0.142445
1.068155
1.762514
2.423127
3.049083
3.530635
3.920072
4.274244
4.280325
4.189427
4.049583
3.595697
2.795241
2.040994
1.571299
1.339037
1.238714
1.177001
1.320190
1.471891
1.387377
1.047495
0.745614
0.707614
1.046889
1.539993
1.740336
1.649134
1.535435
1.627247
2.167776
2.771844
3.346727
3.659249
3.706980
3.503294
2.825353
1.785945
0.422767
-0.484701
-0.626977
-0.726084
-0.940714
-1.375447
-2.105981
-2.910086
-3.576170
-3.640316
-3.148123
-2.494502
-1.638107
-0.595961
0.232162
0.998874
2.138607
3.817957
6.128734
8.751425
11.448599
13.612844
14.537338
14.351284
13.433784
11.975755
10.612577
9.924908
9.823977
9.662853
8.955119
7.699864
6.009267
3.928018
1.843425
-0.213199
-2.221790
-4.137657
-6.041061
-7.601845
-8.688679
-9.138612
-9.337434
-9.139219
-8.662531
-8.357001
-8.139026
-8.163650
-8.289205
-8.165777
-7.557453
-6.393399
-4.732898
-2.895464
-0.871063
1.243324
2.909905
3.819502
4.272173
4.583176
4.485893
4.461573
4.791424
5.294561
5.885252
6.513640
7.262417
8.111820
8.707680
8.848133
8.732306
8.254707
7.318662
5.702548
3.507296
1.112005
-0.887162
-1.806486
-1.550813
-0.428409
1.025669
2.729035
4.644601
6.067366
6.778445
6.742573
6.162219
5.395811
4.451558
3.432215
2.374870
1.355527
0.359288
-0.834253
-2.118085
-3.023729
-3.790440
-4.901899
-6.307334
-7.419401
-7.798804
-7.708513
-7.495097
-7.295058
-7.485064
-7.928613
-8.119530
-7.773871
-7.239421
-6.906530
-6.675786
-6.583063
-6.488515
-6.123095
-5.389519
-4.322141
-3.211593
-2.293788
-1.552612
-0.738473
0.281479
1.410268
2.602594
3.900107
5.262983
6.431293
7.574673
8.636275
9.700918
11.013632
12.461022
13.957054
15.717574
17.629491
19.215509
20.320281
21.092770
21.328986
20.494176
18.248154
14.957555
11.356258
7.820931
4.871735
2.691379
1.046992
-0.037410
-0.630228
-0.824185
-0.864314
-1.041551
-1.630113
-2.851015
-4.425480
-6.296962
-8.362098
-10.404130
-12.133032
-13.549412
-14.757849
-15.746792
-16.598930
-17.185972
-17.636514
-18.223555
-18.856199
-18.990570
-18.337557
-16.958569
-15.186193
-13.279748
-11.520748
-10.367335
-9.745026
-9.254962
-8.372118
-7.003770
-5.270003
-3.445337
-1.513051
0.486421
2.059063
2.926707
3.221293
3.078409
2.690797
2.416277
2.533930
3.105468
4.125725
5.304371
6.436503
7.410247
8.044107
8.581901
9.201777
9.541964
9.619791
9.740180
9.616753
9.135810
8.617778
8.074514
7.011089
5.264251
3.476371
2.198011
1.531927
1.162860
1.063145
1.380532
1.697311
1.714336
1.189920
0.450873
-0.007572
0.119200
0.363321
0.412267
0.209797
-0.372685
-1.411789
-3.004190
-4.916714
-6.741987
-8.188464
-8.980408
-8.837827
-7.840371
-6.863892
-6.262256
-5.841202
-5.798640
-6.120890
-6.045495
-5.303102
-4.257309
-3.396961
-2.739084
-2.093063
-1.376815
-0.753595
-0.469346
-0.395775
-0.642326
-1.275881
-2.030432
-2.606834
-3.206036
-4.178562
-5.305525
-6.584797
-8.243472
-10.161772
-12.624249
-15.170937
-17.113557
-18.518993
-19.276584
-19.091138
-18.075745
-16.513439
-14.705189
-13.096370
-11.799769
-10.708678
-9.767159
-8.457181
-6.451629
-4.302281
-2.330170
-0.393021
1.734743
3.928173
5.723350
7.262855
8.759191
9.854538
10.350379
10.447358
10.674454
11.237481
11.942175
12.200280
12.120022
12.167752
12.438930
13.087079
13.995460
15.180794
16.428450
17.419522
17.653306
16.843121
15.554425
14.643005
14.410134
14.763698
15.374758
16.032027
16.633967
17.281812
17.795285
17.797413
17.062319
15.679380
14.316506
13.412686
13.329692
13.950176
14.739994
15.043092
14.599542
13.574423
11.925171
9.683709
7.349525
5.205042
3.569167
2.558943
2.004127
1.917485
1.963695
1.925998
1.684007
1.135270
0.256379
-0.797621
-1.725154
-2.468153
-2.870661
-2.887684
-2.690686
-2.705277
-3.069480
-3.536742
-3.896993
-4.248428
-4.273660
-4.059940
-3.528835
-2.413727
-0.966945
0.600225
1.980125
2.981230
3.457005
3.458830
2.853851
1.771578
0.782027
0.307165
0.109560
0.211099
0.543686
0.885090
0.853170
0.142700
-1.133836
-2.597945
-4.160554
-5.824702
-7.191224
-8.179559
-8.912525
-9.376747
-9.700213
-10.143154
-10.908953
-12.083342
-13.515226
-14.646749
-15.297329
-15.388835
-14.870803
-14.259743
-13.854801
-13.788222
-14.036598
-14.421169
-15.061717
-15.774922
-16.247657
-16.634660
-16.854459
-16.959645
-16.863882
-16.432795
-15.592512
-14.414778
-13.134593
-12.020094
-11.189539
-10.649617
-10.563582
-10.853302
-11.436088
-12.262993
-13.272001
-14.202573
-14.668315
-14.679867
-14.217468
-13.326111
-12.342335
-11.327855
-10.617688
-10.646568
-11.524243
-12.918126
-14.261544
-15.544160
-16.690883
-17.391929
-17.616591
-17.236275
-16.150352
-14.735795
-13.081070
-10.964250
-8.150033
-4.788598
-1.276071
2.211223
5.481455
8.256759
10.431949
12.055056
13.145539
13.986126
14.941933
16.118755
17.254535
17.978383
18.085699
17.477376
16.287788
14.835534
13.374465
12.227133
11.728862
11.943494
12.724191
14.000728
15.417109
16.660205
17.902693
18.811986
19.151870
19.159774
19.124814
19.300532
19.588734
19.779653
19.648929
19.083472
18.194853
17.114403
15.975584
14.781131
13.508547
12.191579
10.935412
9.884755
8.785153
7.522602
6.625470
6.226914
6.154257
6.357032
6.833111
7.487037
8.010542
8.068000
7.829961
7.748184
7.844555
7.614725
6.958977
6.191353
5.332831
4.656410
4.321392
4.380979
4.791696
4.862531
4.267889
3.364981
2.586109
2.417080
3.008076
4.371255
6.538540
8.539836
9.706625
10.088462
9.720915
8.968492
8.063152
6.944398
5.616180
4.135350
2.321630
0.195691
-1.663326
-3.153581
-4.531048
-5.839200
-7.306350
-9.014275
-10.806411
-12.215495
-12.756935
-12.406411
-11.383418
-10.280167
-9.845737
-10.007469
-10.358600
-10.414537
-9.700113
-7.998875
-5.528493
-2.850168
-0.801750
0.361391
0.798253
0.446515
-0.336613
-1.257762
-2.076459
-2.602091
-2.619723
-2.098041
-1.125514
0.205136
1.929783
3.832580
5.483049
6.466824
6.856565
6.908248
6.685409
6.420921
6.128769
5.585504
4.727894
3.840491
3.183527
2.744537
2.612598
2.567301
2.555445
2.643609
2.296735
1.408115
0.439845
-0.228367
-0.424757
-0.137163
0.455048
1.118398
1.727938
2.344774
2.926345
3.013596
2.266645
0.814088
-1.012401
-2.856826
-4.543471
-5.766805
-6.450522
-6.958217
-7.585084
-7.988808
-8.221983
-8.283392
-8.206173
-7.975733
-7.343697
-6.346848
-5.221100
-4.180171
-3.343536
-2.813039
-2.374352
-1.666313
-0.667337
0.341671
1.001373
1.238501
1.296264
1.254311
1.365275
1.676885
1.856556
1.834364
1.449488
0.379375
-1.104191
-2.643391
-4.056123
-4.872996
-5.192509
-5.460341
-5.653691
-5.947667
-6.423442
-7.420592
-9.104805
-11.148965
-12.953565
-14.277526
-15.230899
-15.827669
-15.618510
-14.436824
-12.608814
-10.689297
-9.213026
-8.304948
-7.775363
-7.303540
-6.607965
-5.555179
-4.203248
-2.582572
-0.783139
0.763359
1.875426
2.642747
3.101194
3.439557
3.578186
3.613756
4.163710
5.502265
7.027786
7.865029
7.509338
6.030940
4.403578
3.408555
2.939165
3.115795
3.916557
5.236567
6.493951
7.360987
7.895741
8.076019
8.093956
8.034067
8.016435
8.175129
8.295213
7.512389
5.611114
3.077195
0.394919
-2.094919
-4.063684
-5.304043
-5.600755
-5.187606
-4.596611
-4.141508
-3.978558
-3.941164
-4.020206
-4.167346
-4.197138
-3.761796
-2.816933
-1.512428
-0.196065
0.646042
0.734813
0.146859
-0.858804
-2.193709
-3.328272
-3.494565
-2.584360
-0.943923
0.975594
2.590189
3.702561
3.925097
3.342919
2.852248
2.796007
3.025839
3.383963
