EVENT_NAME: 202302060117
EVENT_ID: 13194
EVENT_DATE_YYYYMMDD: 2023/02/06
EVENT_TIME_HHMMSS: 01:17:32.00000
EVENT_LATITUDE_DEGREE: 37.288
EVENT_LONGITUDE_DEGREE: 37.043
EVENT_DEPTH_KM: 8.6
HYPOCENTER_REFERENCE: AFAD
MAGNITUDE_W: 7.7
MAGNITUDE_W_REFERENCE: AFAD
MAGNITUDE_L: 
MAGNITUDE_L_REFERENCE: 
FOCAL_MECHANISM: 
NETWORK: TK
STATION_CODE: 2521
STATION_NAME: 
STATION_LATITUDE_DEGREE: 39.64607
STATION_LONGITUDE_DEGREE: 41.509117
STATION_ELEVATION_M: 1930.0
LOCATION: Kahramanmaras_Pazarck_Turkiye
SENSOR_DEPTH_M: 
VS30_M/S: None
SITE_CLASSIFICATION_EC8: unknown
MORPHOLOGIC_CLASSIFICATION: 
EPICENTRAL_DISTANCE_KM: 468.88
EARTHQUAKE_BACKAZIMUTH_DEGREE: 
DATE_TIME_FIRST_SAMPLE_YYYYMMDD_HHMMSS: 2023/02/06 01:18:11.4751660
DATE_TIME_FIRST_SAMPLE_PRECISION: millisecond
SAMPLING_INTERVAL_S: 0.01
NDATA: 24501
DURATION_S: 
STREAM: HNE
UNITS: cm/s^2
INSTRUMENT: sensor = ACEBOX/SARA | digitizer = 
INSTRUMENT_ANALOG/DIGITAL: 
INSTRUMENTAL_FREQUENCY_HZ: 
INSTRUMENTAL_DAMPING: 
FULL_SCALE_G: 
N_BIT_DIGITAL_CONVERTER: 
PGA_CM/S^2: 5.323
TIME_PGA_S: 
BASELINE_CORRECTION: BASELINE REMOVED
FILTER_TYPE: BUTTERWORTH
FILTER_ORDER: 
LOW_CUT_FREQUENCY_HZ: 
HIGH_CUT_FREQUENCY_HZ: 
LATE/NORMAL_TRIGGERED: 
DATABASE_VERSION: 
HEADER_FORMAT: DYNA 1.2
DATA_TYPE: Acceleration
PROCESSING: Automatic Paolucci et al., 2011
DATA_TIMESTAMP_YYYYMMDD_HHMMSS: 
DATA_LICENSE: U (unknown license)
DATA_CITATION: Turkish Accelerometric Archive v 1.0 - Disaster And Emergency Management Presidency, Earthquake Department
DATA_CREATOR: AFAD
ORIGINAL_DATA_MEDIATOR_CITATION: : AFAD - Disaster And Emergency Management Presidency
ORIGINAL_DATA_MEDIATOR: AFAD PROCESS SERVICE
ORIGINAL_DATA_CREATOR_CITATION: AFAD PROCESS SERVICE
ORIGINAL_DATA_CREATOR: network: TK
USER1: GuestUser
USER2: 
USER3: 
USER4: 
USER5: 
[...]
-0.120610
-0.048133
0.041412
0.155271
0.274742
0.378782
0.459910
0.535427
0.617256
0.688564
0.746079
0.802190
0.858302
0.912777
0.958367
0.992502
1.027104
1.077605
1.150082
1.242432
1.349278
1.459630
1.556890
1.632875
1.691324
1.745098
1.811496
1.884675
1.943358
1.980299
2.001341
2.022616
2.055582
2.098367
2.149101
2.201940
2.246361
2.287276
2.338712
2.401837
2.468002
2.527621
2.577887
2.619971
2.653638
2.673277
2.678421
2.669537
2.650132
2.629792
2.617167
2.619739
2.624181
2.617869
2.598698
2.570642
2.543288
2.514064
2.477826
2.441353
2.403011
2.356485
2.303414
2.242860
2.172020
2.090425
2.007895
1.929339
1.840964
1.739730
1.630313
1.514116
1.407972
1.331755
1.283359
1.237301
1.166694
1.076215
0.959784
0.815532
0.686943
0.588982
0.501309
0.410362
0.313336
0.217012
0.122792
0.043067
-0.011174
-0.046477
-0.058166
-0.050918
-0.042034
-0.028240
0.000518
0.042134
0.089829
0.123496
0.134017
0.130510
0.112742
0.087725
0.069022
0.054527
0.036525
0.018055
0.019224
0.056164
0.121861
0.200184
0.286455
0.382546
0.478871
0.566311
0.639957
0.685548
0.705889
0.719917
0.732074
0.740959
0.746570
0.750078
0.758027
0.777198
0.810398
0.859963
0.927765
1.009360
1.082773
1.132572
1.169746
1.214401
1.273084
1.330833
1.380164
1.433938
1.497531
1.563696
1.628691
1.688777
1.747461
1.819237
1.906677
2.000898
2.086234
2.152633
2.210848
2.277481
2.344581
2.404901
2.453063
2.471533
2.464052
2.443244
2.421268
2.418696
2.433426
2.448155
2.450026
2.434128
2.410514
2.385264
2.353468
2.312086
2.266964
2.226751
2.196357
2.175550
2.140714
2.074550
1.992487
1.910424
1.839350
1.779031
1.716607
1.660730
1.624959
1.604385
1.596904
1.592462
1.572823
1.530038
1.478603
1.429506
1.372460
1.310270
1.248314
1.194073
1.162744
1.153159
1.151289
1.136560
1.092606
1.020129
0.924506
0.833559
0.772305
0.717596
0.639976
0.522610
0.367836
0.206049
0.057120
-0.075910
-0.191406
-0.292406
-0.382652
-0.466585
-0.539997
-0.600550
-0.658999
-0.714175
-0.763740
-0.813772
-0.852349
-0.865207
-0.859596
-0.848373
-0.833644
-0.806757
-0.752983
-0.677233
-0.592598
-0.500715
-0.413275
-0.340330
-0.287492
-0.269022
-0.294271
-0.363709
-0.465644
-0.576464
-0.682140
-0.774490
-0.849071
-0.909858
-0.959657
-1.006182
-1.055513
-1.089881
-1.099700
-1.098297
-1.096661
-1.096427
-1.089412
-1.067903
-1.048264
-1.057615
-1.093854
-1.137106
-1.175448
-1.197893
-1.207946
-1.223844
-1.250497
-1.295152
-1.361550
-1.434027
-1.501126
-1.568694
-1.647717
-1.743340
-1.850652
-1.962407
-2.071357
-2.165810
-2.235716
-2.287852
-2.332975
-2.371551
-2.397736
-2.398671
-2.368745
-2.307724
-2.225894
-2.143130
-2.071588
-2.026465
-2.004487
-1.998642
-2.006591
-2.015709
-2.031373
-2.053116
-2.069014
-2.083509
-2.106655
-2.134944
-2.163701
-2.188951
-2.201810
-2.196432
-2.175624
-2.153881
-2.145230
-2.152010
-2.164167
-2.169544
-2.164868
-2.150840
-2.128395
-2.105950
-2.098936
-2.099871
-2.093792
-2.081167
-2.057787
-2.025289
-1.993259
-1.958656
-1.927327
-1.910026
-1.895764
-1.881035
-1.881035
-1.897634
-1.922182
-1.948134
-1.980164
-2.027858
-2.086307
-2.143354
-2.200166
-2.269136
-2.353770
-2.436067
-2.493815
-2.530754
-2.562784
-2.587333
-2.597152
-2.598555
-2.606971
-2.630584
-2.655133
-2.668459
-2.675005
-2.682019
-2.686695
-2.687864
-2.689500
-2.685525
-2.673134
-2.651390
-2.610476
-2.551558
-2.488433
-2.434893
-2.388367
-2.351193
-2.331788
-2.318227
-2.299290
-2.276611
-2.246919
-2.214187
-2.193379
-2.188936
-2.191274
-2.188702
-2.175843
-2.157139
-2.147319
-2.149891
-2.150124
-2.147786
-2.143344
-2.125341
-2.097753
-2.072736
-2.050058
-2.029250
-2.014053
-2.004700
-1.995816
-1.985762
-1.969864
-1.938301
-1.892710
-1.836131
-1.777214
-1.721103
-1.658912
-1.593683
-1.533597
-1.479589
-1.426985
-1.383732
-1.363157
-1.366898
-1.394953
-1.442648
-1.498058
-1.548090
-1.580588
-1.591108
-1.581756
-1.556506
-1.519098
-1.469299
-1.405472
-1.321773
-1.224513
-1.133799
-1.058516
-1.003807
-0.971777
-0.952839
-0.927823
-0.895558
-0.860722
-0.811625
-0.751071
-0.691452
-0.636977
-0.590452
-0.546030
-0.500439
-0.465136
-0.441288
-0.425623
-0.421415
-0.423753
-0.420245
-0.411361
-0.400840
-0.379330
-0.345196
-0.297501
-0.243260
-0.203514
-0.183173
-0.178029
-0.182471
-0.193460
-0.213800
-0.243258
-0.285575
-0.339582
-0.391485
-0.432867
-0.457181
-0.459987
-0.452037
-0.441516
-0.421176
-0.378858
-0.315733
-0.238579
-0.154178
-0.079363
-0.033772
-0.014601
-0.007119
-0.004080
-0.002677
-0.005716
-0.019276
-0.042421
-0.069542
-0.102507
-0.135238
-0.158852
-0.176152
-0.184101
-0.189011
-0.198129
-0.207013
-0.211455
-0.214494
-0.230859
-0.257980
-0.277385
-0.276449
-0.256576
-0.226182
-0.189008
-0.147626
-0.100165
-0.037039
0.039412
0.119605
0.198161
0.269002
0.327452
0.371873
0.409982
0.452534
0.492981
0.521037
0.545118
0.576681
0.618297
0.669031
0.720467
0.770500
0.815155
0.849290
0.874073
0.892309
0.911481
0.927379
0.935095
0.946083
0.968528
0.998922
1.030485
1.061346
1.091273
1.120497
1.143877
1.158841
1.176843
1.203964
1.237163
1.278312
1.331384
1.389366
1.445945
1.492939
1.527073
1.557701
1.586692
1.611007
1.630413
1.637427
1.627140
1.604228
1.574536
1.531050
1.474939
1.413450
1.341207
1.257508
1.165860
1.080758
1.009917
0.932998
0.850702
0.781030
0.725621
0.680264
0.643091
0.619945
0.613399
0.614334
0.623219
0.642858
0.663900
0.676525
0.677694
0.663667
0.633507
0.593528
0.555419
0.523155
0.491593
0.451380
0.402283
0.357394
0.322792
0.303855
0.300348
0.290997
0.267383
0.238860
0.212207
0.192569
0.181113
0.179944
0.188361
0.184153
0.162176
0.139966
0.127107
0.127341
0.140434
0.163112
0.191168
0.213847
0.229979
0.247748
0.262711
0.269492
0.270895
0.271129
0.266920
0.256867
0.244243
0.231384
0.222967
0.217357
0.203329
0.179716
0.154232
0.132723
0.111915
0.090640
0.070767
0.056038
0.045284
0.031022
0.010916
-0.012697
-0.032804
-0.042389
-0.044727
-0.049403
-0.059456
-0.068340
-0.065768
-0.049168
-0.029529
-0.013163
0.012555
0.048560
0.086202
0.125714
0.157277
0.176448
0.190710
0.194685
0.181826
0.148393
0.103037
0.058849
0.011623
-0.042852
-0.101769
-0.164426
-0.228954
-0.289273
-0.346320
-0.399158
-0.448956
-0.507405
-0.572167
-0.638331
-0.708003
-0.774167
-0.836123
-0.893871
-0.946241
-0.997910
-1.046774
-1.090026
-1.122056
-1.134681
-1.132343
-1.116210
-1.083479
-1.039057
-0.993466
-0.954656
-0.927067
-0.909766
-0.892231
-0.867682
-0.841497
-0.816013
-0.787021
-0.755459
-0.721090
-0.689060
-0.664277
-0.635753
-0.601151
-0.575667
-0.562340
-0.557898
-0.562808
-0.571224
-0.577303
-0.581043
-0.584316
-0.588992
-0.588290
-0.585017
-0.591329
-0.607695
-0.624060
-0.638556
-0.657259
-0.678534
-0.695134
-0.702148
-0.700978
-0.698406
-0.700277
-0.703316
-0.704484
-0.704952
-0.710329
-0.722720
-0.732539
-0.741657
-0.751243
-0.757789
-0.761295
-0.759191
-0.759191
-0.760827
-0.751475
-0.736746
-0.722016
-0.701208
-0.672918
-0.640420
-0.613533
-0.593660
-0.569813
-0.538718
-0.500141
-0.446133
-0.375293
-0.288554
-0.182409
-0.061770
0.067754
0.202889
0.333816
0.456326
0.576030
0.687318
0.779200
0.859861
0.936546
1.007855
1.075890
1.143224
1.215935
1.296362
1.379827
1.463527
1.544655
1.623679
1.707846
1.799261
1.896988
1.998924
2.092911
2.175909
2.249088
2.308239
2.359207
2.405031
2.451557
2.513514
2.582718
2.649818
2.711307
2.759002
2.799683
2.832181
2.849482
2.863977
2.879876
2.886189
2.882448
2.873330
2.866550
2.870525
2.872162
2.864213
2.854861
2.843873
2.832651
2.816519
2.794776
2.778645
2.765552
2.751524
2.742874
2.748252
2.772099
2.813248
2.864450
2.921029
2.982050
3.044942
3.103859
3.152255
3.188494
3.212108
3.225902
3.234319
3.243203
3.255361
3.269155
3.288561
3.314045
3.344439
3.376937
3.412007
3.455026
3.502954
3.548077
3.586186
3.612138
3.627569
3.632713
3.629206
3.625232
3.619621
3.608399
3.595540
3.583149
3.568654
3.554860
3.538728
3.518622
3.499217
3.473032
3.438664
3.399152
3.350289
3.289969
3.218895
3.148990
3.089372
3.043314
3.012453
2.989541
2.965928
2.939509
2.907947
2.874280
2.839678
2.805077
2.773514
2.737042
2.685607
2.622014
2.554447
2.493192
2.437081
2.376762
2.319715
2.270618
2.222222
2.174294
2.133380
2.100648
2.077737
2.061371
2.044070
2.023496
1.997077
1.966216
1.929744
1.885089
1.834122
1.773101
1.704832
1.637031
1.573906
1.513353
1.453267
1.397624
1.348293
1.311587
1.288675
1.268802
1.248228
1.230927
1.207314
1.164763
1.110756
1.056749
1.004145
0.955048
0.916004
0.886312
0.852645
0.806821
0.753516
0.701613
0.658828
0.627266
0.604354
0.590560
0.577702
0.554556
0.524864
0.494938
0.468753
0.440698
0.403290
0.354427
0.294107
0.224670
0.152427
0.080183
0.001628
-0.084877
-0.174889
-0.274486
-0.382500
-0.487475
-0.588709
-0.685968
-0.787202
-0.898256
-1.006036
-1.111011
-1.225805
-1.345977
-1.465213
-1.589593
-1.723325
-1.863135
-1.998036
-2.126391
-2.253576
-2.368838
-2.471709
-2.570371
-2.645887
-2.716494
-2.798089
-2.862850
-2.915688
-2.957070
-2.995647
-3.044042
-3.084957
-3.115350
-3.136625
-3.151822
-3.157199
-3.149717
-3.135689
-3.117687
-3.097112
-3.078408
-3.068355
-3.070693
-3.089630
-3.122361
-3.160470
-3.203021
-3.253521
-3.312204
-3.372056
-3.422790
-3.464171
-3.500176
-3.524257
-3.524958
-3.499942
-3.457624
-3.408994
-3.357558
-3.300745
-3.237386
-3.171923
-3.113941
-3.063440
-3.012239
-2.951217
-2.875467
-2.801587
-2.737526
-2.668555
-2.586726
-2.495311
-2.390570
-2.265254
-2.132925
-2.007375
-1.889541
-1.780592
-1.674447
-1.572745
-1.477824
-1.384304
-1.301306
-1.232570
-1.168976
-1.108189
-1.051376
-0.992693
-0.923255
-0.841425
-0.760531
-0.677299
-0.582845
-0.487455
-0.399314
-0.321693
-0.259503
-0.207833
-0.167854
-0.139330
-0.116652
-0.100052
-0.081348
-0.057968
-0.041602
-0.030379
-0.016117
0.003054
0.023629
0.046775
0.071791
0.092366
0.115512
0.143801
0.162505
0.175365
0.192666
0.217682
0.246673
0.265144
0.274729
0.283848
0.291096
0.292499
0.287122
0.290161
0.298578
0.297409
0.292032
0.280810
0.261873
0.248079
0.245274
0.249482
0.248781
0.234052
0.211842
0.190332
0.173265
0.161576
0.152458
0.142639
0.121363
0.082553
0.038366
-0.001380
-0.028032
-0.042527
-0.056087
-0.068712
-0.084143
-0.113835
-0.154048
-0.190286
-0.223719
-0.260659
-0.295962
-0.331733
-0.370309
-0.414730
-0.461022
-0.490480
-0.499130
-0.502871
-0.508014
-0.514794
-0.528120
-0.549162
-0.578386
-0.618599
-0.668865
-0.726847
-0.795349
-0.865254
-0.925574
-0.978178
-1.036393
-1.099752
-1.150720
-1.186490
-1.209402
-1.223664
-1.238159
-1.253823
-1.267383
-1.276501
-1.283749
-1.294269
-1.308531
-1.324195
-1.342197
-1.356926
-1.360199
-1.356224
-1.347807
-1.335182
-1.321855
-1.304320
-1.282577
-1.256625
-1.226465
-1.196773
-1.181342
-1.189992
-1.216645
-1.254754
-1.298941
-1.345934
-1.396902
-1.449506
-1.504214
-1.567573
-1.633971
-1.681666
-1.704811
-1.717202
-1.720709
-1.716734
-1.706213
-1.678391
-1.639113
-1.596562
-1.546763
-1.495561
-1.453010
-1.419109
-1.391053
-1.364166
-1.335642
-1.307353
-1.276257
-1.244695
-1.214768
-1.181335
-1.139485
-1.095531
-1.050876
-0.997570
-0.929768
-0.848406
-0.769850
-0.705790
-0.658095
-0.621622
-0.593099
-0.576031
-0.568550
-0.574394
-0.601748
-0.642663
-0.689188
-0.744598
-0.803982
-0.865704
-0.929531
-0.985174
-1.023517
-1.041987
-1.039181
-1.018607
-0.991953
-0.967171
-0.948700
-0.940284
-0.938881
-0.943790
-0.951739
-0.958986
-0.973482
-0.996394
-1.028424
-1.078222
-1.135269
-1.185769
-1.226683
-1.262454
-1.296588
-1.328618
-1.354101
-1.373974
-1.401328
-1.435462
-1.461647
-1.482689
-1.500457
-1.515186
-1.530383
-1.540436
-1.545813
-1.548151
-1.544410
-1.537162
-1.526641
-1.518224
-1.522666
-1.541136
-1.568490
-1.597714
-1.634186
-1.681881
-1.726068
-1.771658
-1.830107
-1.899545
-1.970853
-2.033043
-2.085179
-2.122353
-2.141290
-2.154850
-2.170514
-2.187581
-2.200908
-2.210259
-2.227560
-2.249771
-2.271747
-2.299101
-2.328560
-2.352407
-2.371812
-2.387242
-2.396594
-2.398230
-2.391684
-2.374149
-2.348431
-2.322245
-2.289280
-2.248599
-2.204411
-2.163262
-2.132635
-2.107150
-2.083537
-2.065534
-2.048467
-2.031867
-2.008954
-1.975287
-1.943023
-1.916604
-1.894159
-1.872182
-1.849503
-1.827994
-1.807419
-1.781702
-1.746866
-1.707821
-1.662464
-1.611496
-1.557021
-1.502546
-1.447370
-1.391258
-1.339589
-1.284646
-1.221988
-1.151148
-1.071423
-0.986554
-0.898412
-0.806997
-0.711842
-0.614114
-0.514984
-0.414685
-0.311580
-0.204267
-0.098122
0.004982
0.105749
0.205815
0.305646
0.401971
0.496893
0.601401
0.716897
0.831458
0.946954
1.074373
1.209976
1.341136
1.468790
1.599717
1.728539
1.851283
1.973092
2.094666
2.217176
2.340621
2.455650
2.561560
2.663496
2.763562
2.866199
2.965329
3.054874
3.139742
3.219234
3.294984
3.367695
3.438068
3.512884
3.590972
3.662515
3.725172
3.788999
3.858671
3.932084
4.003626
4.067686
4.125902
4.180143
4.229475
4.274598
4.320890
4.371858
4.428437
4.489459
4.555390
4.630906
4.709229
4.784745
4.861665
4.933441
4.997501
5.062030
5.121882
5.171447
5.217973
5.259823
5.291152
5.310558
5.316403
5.313831
5.314065
5.317806
5.319209
5.321314
5.322717
5.314534
5.290921
5.261930
5.233407
5.204182
5.181972
5.163502
5.138486
5.104586
5.062502
5.013171
4.960801
4.913107
4.870790
4.824498
4.774933
4.729810
4.693338
4.660607
4.622264
4.582987
4.552593
4.527577
4.499288
4.469128
4.439436
4.411848
4.383793
4.353166
4.323474
4.298458
4.282793
4.272506
4.259414
4.248426
4.242113
4.239308
4.234866
4.213825
4.175482
4.122410
4.051102
3.961558
3.861259
3.756752
3.643828
3.522020
3.396939
3.271858
3.151219
3.033385
2.920695
2.824604
2.747452
2.683625
2.626345
2.568597
2.515526
2.470169
2.423410
2.374079
2.322644
2.271676
2.229125
2.193354
2.160857
2.132801
2.106616
2.069443
2.015903
1.954181
1.892693
1.839621
1.791225
1.743063
1.699343
1.663105
1.634816
1.613540
1.597876
1.584082
1.572393
1.566314
1.562574
1.558365
1.550884
1.536155
1.516984
1.492202
1.453392
1.405697
1.362445
1.325505
1.289734
1.249755
1.205802
1.166524
1.133325
1.096853
1.051964
1.004269
0.967563
0.940677
0.910751
0.873578
0.830325
0.780761
0.730494
0.686073
0.644224
0.600504
0.556082
0.514233
0.471916
0.428430
0.383541
0.330235
0.276228
0.226897
0.182009
0.139224
0.086854
0.034016
-0.007133
-0.043838
-0.077271
-0.114211
-0.160736
-0.208431
-0.256359
-0.302885
-0.344500
-0.389857
-0.445734
-0.511431
-0.583908
-0.654514
-0.713197
-0.766269
-0.821912
-0.877790
-0.930394
-0.978790
-1.022042
-1.055475
-1.085634
-1.113690
-1.137069
-1.158812
-1.176347
-1.191777
-1.206506
-1.218664
-1.229184
-1.236432
-1.239938
-1.244614
-1.252329
-1.265422
-1.281320
-1.294178
-1.308440
-1.330417
-1.358238
-1.387463
-1.420662
-1.460641
-1.501321
-1.536157
-1.563978
-1.591333
-1.620791
-1.645105
-1.662874
-1.673862
-1.678304
-1.681109
-1.684850
-1.689759
-1.692331
-1.691396
-1.697708
-1.717814
-1.745168
-1.772289
-1.796369
-1.816476
-1.833543
-1.845232
-1.853181
-1.862533
-1.871183
-1.882171
-1.898537
-1.913500
-1.928229
-1.945530
-1.956050
-1.954881
-1.950439
-1.949503
-1.955348
-1.963297
-1.968206
-1.972648
-1.974285
-1.975921
-1.982000
-1.989715
-1.994624
-1.999066
-2.006080
-2.015899
-2.029459
-2.043487
-2.064528
-2.092116
-2.118067
-2.149630
-2.185401
-2.221639
-2.266762
-2.322405
-2.381789
-2.438836
-2.492375
-2.549655
-2.610676
-2.663280
-2.706533
-2.748148
-2.788595
-2.827171
-2.869021
-2.907129
-2.933782
-2.954356
-2.966981
-2.973293
-2.984983
-2.996673
-3.004388
-3.016545
-3.029637
-3.031274
-3.020519
-3.004620
-2.989423
-2.978201
-2.966043
-2.950846
-2.931207
-2.907126
-2.883044
-2.863639
-2.856858
-2.862703
-2.868548
-2.868548
-2.860131
-2.847739
-2.836283
-2.822723
-2.806357
-2.785548
-2.757492
-2.730138
-2.712369
-2.702082
-2.686183
-2.657660
-2.629838
-2.605990
-2.576999
-2.548242
-2.521355
-2.494936
-2.479037
-2.475063
-2.469217
-2.457293
-2.445370
-2.432511
-2.419184
-2.400246
-2.368449
-2.330106
-2.290127
-2.247108
-2.199647
-2.148445
-2.090229
-2.026169
-1.965849
-1.918622
-1.882149
-1.849651
-1.817620
-1.778810
-1.729946
-1.672665
-1.603461
-1.518125
-1.426710
-1.341841
-1.257674
-1.170935
-1.092613
-1.021772
-0.951165
-0.881727
-0.815562
-0.752203
-0.690013
-0.629459
-0.575685
-0.526120
-0.470476
-0.409923
-0.355681
-0.305882
-0.251407
-0.197166
-0.146899
-0.091723
-0.033975
0.015123
0.048790
0.076378
0.105135
0.124307
0.132958
0.141375
0.146752
0.147220
0.149090
0.152831
0.146987
0.126413
0.101163
0.083628
0.071004
0.059781
0.052300
0.051131
0.050430
0.043417
0.036870
0.037572
0.035468
0.031961
0.035936
0.039443
0.038742
0.039678
0.041548
0.046926
0.053005
0.056512
0.058616
0.063760
0.080126
0.108416
0.136705
0.158683
0.179023
0.199597
0.222744
0.250098
0.276050
0.299196
0.320004
0.339877
0.366530
0.400197
0.430825
0.464024
0.510550
0.557310
0.593081
0.626281
0.660181
0.693615
0.720268
0.735699
0.743648
0.742713
0.738505
0.735699
0.731725
0.730323
0.731492
0.735700
0.739441
0.742481
0.749495
0.756509
0.766796
0.782461
0.796255
0.808413
0.819168
0.827819
0.837405
0.844886
0.849095
0.853303
0.862188
0.868968
0.868267
0.864527
0.862423
0.869904
0.880659
0.890947
0.905910
0.917834
0.921575
0.921809
0.917133
0.911288
0.905677
0.893052
0.875518
0.850736
0.815432
0.778493
0.740852
0.699002
0.652477
0.604081
0.559192
0.514303
0.468947
0.420551
0.361167
0.298977
0.241930
0.183014
0.125032
0.072194
0.024266
-0.015012
-0.047042
-0.073928
-0.093333
-0.105724
-0.112504
-0.113907
-0.108062
-0.094267
-0.079304
-0.062003
-0.044000
-0.030440
-0.011268
0.016320
0.044610
0.067756
0.077108
0.078979
0.083187
0.083889
0.075239
0.060042
0.041105
0.021933
-0.001914
-0.030203
-0.057557
-0.085612
-0.118110
-0.157622
-0.188015
-0.201107
-0.212563
-0.223785
-0.236176
-0.258153
-0.278259
-0.285741
-0.292754
-0.305379
-0.315900
-0.331564
-0.355879
-0.377622
-0.400300
-0.426017
-0.449864
-0.476049
-0.504105
-0.524445
-0.536602
-0.545253
-0.548526
-0.550162
-0.557643
-0.563488
-0.556708
-0.540108
-0.522573
-0.505973
-0.491945
-0.487035
-0.484930
-0.481657
-0.486333
-0.494048
-0.499659
-0.509712
-0.524675
-0.542911
-0.554834
-0.556237
-0.550392
-0.532623
-0.508775
-0.484226
-0.452897
-0.420165
-0.392343
-0.364287
-0.338336
-0.315189
-0.289238
-0.268196
-0.251830
-0.237334
-0.234295
-0.237334
-0.237801
-0.236632
-0.238502
-0.241775
-0.243879
-0.246918
-0.249490
-0.251827
-0.255334
-0.260244
-0.259776
-0.243410
-0.224238
-0.213249
-0.194545
-0.168594
-0.148721
-0.128848
-0.094479
-0.056838
-0.031821
-0.011247
0.010263
0.032941
0.057490
0.076896
0.082039
0.075259
0.068479
0.071051
0.079936
0.091860
0.111967
0.132307
0.133710
0.118981
0.104486
0.101681
0.105422
0.107526
0.119918
0.141661
