EVENT_NAME: 202302060117
EVENT_ID: 13194
EVENT_DATE_YYYYMMDD: 2023/02/06
EVENT_TIME_HHMMSS: 01:17:32.00000
EVENT_LATITUDE_DEGREE: 37.288
EVENT_LONGITUDE_DEGREE: 37.043
EVENT_DEPTH_KM: 8.6
HYPOCENTER_REFERENCE: AFAD
MAGNITUDE_W: 7.7
MAGNITUDE_W_REFERENCE: AFAD
MAGNITUDE_L: 
MAGNITUDE_L_REFERENCE: 
FOCAL_MECHANISM: 
NETWORK: TK
STATION_CODE: 4630
STATION_NAME: 
STATION_LATITUDE_DEGREE: 37.344912
STATION_LONGITUDE_DEGREE: 36.806037
STATION_ELEVATION_M: 531.0
LOCATION: Kahramanmaras_Pazarck_Turkiye
SENSOR_DEPTH_M: 
VS30_M/S: 347
SITE_CLASSIFICATION_EC8: C
MORPHOLOGIC_CLASSIFICATION: 
EPICENTRAL_DISTANCE_KM: 21.89
EARTHQUAKE_BACKAZIMUTH_DEGREE: 
DATE_TIME_FIRST_SAMPLE_YYYYMMDD_HHMMSS: 2023/02/06 01:17:06.0526130
DATE_TIME_FIRST_SAMPLE_PRECISION: millisecond
SAMPLING_INTERVAL_S: 0.01
NDATA: 5370
DURATION_S: 
STREAM: HNZ
UNITS: cm/s^2
INSTRUMENT: sensor = ACEBOX/SARA | digitizer = 
INSTRUMENT_ANALOG/DIGITAL: 
INSTRUMENTAL_FREQUENCY_HZ: 
INSTRUMENTAL_DAMPING: 
FULL_SCALE_G: 
N_BIT_DIGITAL_CONVERTER: 
PGA_CM/S^2: 178.140
TIME_PGA_S: 
BASELINE_CORRECTION: BASELINE REMOVED
FILTER_TYPE: BUTTERWORTH
FILTER_ORDER: 
LOW_CUT_FREQUENCY_HZ: 
HIGH_CUT_FREQUENCY_HZ: 
LATE/NORMAL_TRIGGERED: 
DATABASE_VERSION: 
HEADER_FORMAT: DYNA 1.2
DATA_TYPE: Acceleration
PROCESSING: Automatic Paolucci et al., 2011
DATA_TIMESTAMP_YYYYMMDD_HHMMSS: 
DATA_LICENSE: U (unknown license)
DATA_CITATION: Turkish Accelerometric Archive v 1.0 - Disaster And Emergency Management Presidency, Earthquake Department
DATA_CREATOR: AFAD
ORIGINAL_DATA_MEDIATOR_CITATION: : AFAD - Disaster And Emergency Management Presidency
ORIGINAL_DATA_MEDIATOR: AFAD PROCESS SERVICE
ORIGINAL_DATA_CREATOR_CITATION: AFAD PROCESS SERVICE
ORIGINAL_DATA_CREATOR: network: TK
USER1: GuestUser
USER2: 
USER3: 
USER4: 
USER5: 
[...]
-0.020645
-0.016687
-0.012496
-0.017657
-0.016739
-0.015588
-0.016306
-0.015622
-0.018912
-0.014020
-0.012167
-0.018730
-0.016176
-0.013388
-0.016678
-0.015760
-0.014141
-0.016028
-0.018150
-0.014894
-0.014444
-0.017734
-0.017050
-0.016366
-0.014746
-0.014997
-0.018989
-0.014564
-0.013179
-0.019976
-0.017188
-0.014166
-0.016989
-0.015369
-0.017958
-0.018443
-0.013784
-0.016140
-0.019196
-0.016408
-0.015724
-0.015273
-0.015291
-0.019049
-0.018365
-0.015342
-0.016295
-0.015143
-0.015394
-0.018217
-0.016130
-0.014043
-0.015931
-0.020156
-0.016433
-0.012709
-0.019741
-0.017420
-0.013463
-0.019792
-0.017238
-0.016554
-0.019376
-0.014484
-0.015904
-0.016623
-0.016874
-0.019930
-0.016207
-0.015756
-0.016943
-0.014388
-0.016977
-0.019099
-0.015375
-0.016094
-0.019618
-0.016596
-0.014743
-0.018033
-0.017817
-0.017834
-0.018085
-0.015063
-0.016717
-0.018838
-0.017453
-0.017937
-0.017253
-0.016569
-0.017288
-0.018474
-0.017790
-0.015002
-0.016889
-0.019011
-0.016222
-0.016707
-0.017893
-0.018378
-0.018395
-0.015841
-0.019365
-0.019149
-0.014022
-0.019183
-0.020136
-0.015243
-0.015260
-0.016447
-0.019503
-0.018351
-0.017200
-0.019321
-0.013961
-0.017719
-0.021711
-0.014948
-0.018706
-0.018256
-0.015701
-0.022031
-0.017372
-0.015051
-0.020680
-0.017190
-0.016038
-0.019796
-0.017476
-0.014921
-0.020082
-0.020567
-0.013804
-0.016861
-0.019450
-0.015492
-0.016679
-0.019034
-0.018817
-0.016263
-0.018150
-0.022142
-0.017016
-0.016799
-0.020557
-0.016834
-0.018020
-0.020843
-0.018055
-0.016669
-0.016920
-0.018106
-0.017656
-0.017907
-0.019795
-0.016305
-0.017257
-0.022418
-0.018227
-0.017543
-0.019197
-0.015941
-0.018997
-0.020184
-0.017863
-0.018815
-0.017664
-0.019084
-0.019101
-0.016546
-0.019135
-0.019620
-0.018001
-0.019421
-0.018971
-0.018053
-0.019239
-0.019256
-0.017169
-0.018356
-0.020477
-0.016987
-0.018407
-0.021230
-0.016338
-0.017056
-0.020347
-0.017558
-0.019914
-0.020866
-0.017376
-0.018329
-0.018580
-0.019298
-0.020952
-0.017930
-0.017714
-0.019601
-0.019385
-0.019636
-0.018250
-0.019203
-0.019921
-0.019003
-0.021359
-0.019038
-0.016016
-0.019540
-0.021895
-0.019341
-0.018423
-0.018674
-0.017288
-0.020345
-0.021064
-0.016405
-0.017591
-0.019479
-0.018561
-0.019513
-0.018362
-0.019080
-0.021435
-0.017712
-0.019366
-0.022890
-0.017764
-0.014508
-0.018266
-0.022491
-0.021807
-0.020188
-0.019270
-0.017651
-0.019772
-0.021660
-0.019573
-0.020291
-0.018906
-0.019624
-0.022915
-0.018958
-0.017806
-0.021096
-0.019243
-0.019962
-0.021849
-0.019763
-0.017442
-0.019563
-0.022854
-0.019364
-0.018212
-0.021736
-0.021052
-0.020836
-0.019918
-0.018298
-0.019952
-0.019736
-0.019285
-0.020472
-0.020021
-0.020740
-0.020290
-0.019372
-0.021025
-0.021744
-0.019657
-0.018973
-0.020627
-0.021346
-0.021129
-0.019276
-0.017890
-0.020246
-0.021432
-0.020046
-0.020999
-0.021250
-0.019397
-0.018946
-0.020834
-0.021319
-0.021570
-0.021119
-0.019500
-0.022323
-0.021171
-0.016279
-0.019803
-0.020755
-0.020539
-0.023362
-0.018469
-0.018720
-0.022478
-0.020158
-0.020876
-0.019257
-0.018806
-0.022798
-0.021647
-0.021430
-0.020980
-0.018425
-0.021716
-0.022902
-0.019646
-0.018260
-0.019447
-0.022971
-0.020884
-0.019265
-0.021152
-0.018364
-0.022356
-0.026581
-0.018649
-0.018433
-0.021022
-0.019169
-0.023161
-0.022476
-0.020857
-0.023680
-0.021827
-0.020909
-0.021628
-0.019774
-0.021428
-0.022147
-0.019592
-0.021714
-0.023368
-0.019410
-0.022935
-0.025757
-0.018994
-0.022285
-0.023705
-0.016241
-0.020700
-0.023990
-0.020501
-0.020752
-0.020535
-0.024059
-0.023609
-0.020821
-0.023877
-0.021089
-0.021340
-0.024163
-0.021375
-0.023730
-0.023046
-0.020491
-0.023314
-0.021227
-0.020309
-0.023600
-0.024318
-0.021998
-0.021313
-0.020395
-0.017841
-0.024872
-0.025357
-0.016958
-0.023989
-0.024707
-0.019113
-0.025911
-0.020551
-0.017762
-0.026664
-0.021304
-0.020152
-0.024845
-0.019719
-0.021139
-0.022559
-0.021174
-0.023529
-0.021676
-0.021927
-0.022879
-0.021494
-0.023147
-0.021996
-0.024117
-0.023433
-0.019943
-0.023701
-0.021614
-0.021398
-0.027260
-0.021666
-0.021450
-0.026610
-0.021484
-0.022904
-0.024792
-0.020835
-0.022956
-0.022038
-0.021588
-0.025813
-0.023025
-0.020938
-0.021657
-0.020505
-0.023795
-0.023813
-0.021726
-0.024548
-0.021760
-0.019673
-0.022964
-0.025085
-0.023466
-0.021379
-0.023500
-0.022582
-0.020262
-0.024487
-0.023803
-0.020781
-0.025240
-0.025725
-0.021300
-0.021318
-0.023439
-0.023222
-0.022305
-0.023958
-0.024911
-0.023525
-0.021672
-0.022858
-0.024746
-0.023360
-0.023378
-0.024096
-0.023646
-0.022027
-0.020875
-0.023932
-0.023481
-0.022563
-0.026789
-0.023767
-0.020511
-0.023567
-0.024988
-0.025472
-0.023619
-0.024104
-0.025524
-0.021567
-0.023688
-0.026043
-0.022320
-0.023506
-0.022822
-0.022606
-0.023558
-0.021471
-0.024294
-0.022441
-0.019652
-0.025748
-0.022960
-0.018769
-0.024164
-0.023246
-0.022094
-0.021877
-0.018154
-0.018639
-0.018422
-0.014231
-0.010040
-0.007018
-0.007970
-0.007286
-0.004732
0.001330
0.015808
0.033092
0.048038
0.060879
0.078630
0.101993
0.114133
0.118558
0.131633
0.156633
0.186308
0.205695
0.208951
0.201453
0.192551
0.197677
0.226183
0.255157
0.244385
0.201583
0.167665
0.136085
0.078320
0.032478
0.037605
0.048810
0.031258
-0.015285
-0.097599
-0.100890
0.042411
0.093829
-0.029633
-0.111246
-0.139552
-0.137933
-0.072019
-0.038604
-0.016878
0.055348
0.133186
0.050872
-0.140859
-0.088974
-0.015345
-0.084098
0.039797
0.076720
-0.122025
-0.193584
-0.076002
0.234230
0.661127
0.759772
0.236984
-0.245591
-0.314345
-0.356445
0.038889
0.519792
0.514631
0.797509
0.859916
0.610904
0.787871
0.483216
0.283302
0.667414
0.227390
0.100889
1.097549
1.413158
1.413842
2.318621
2.646855
1.614623
0.638268
-0.258829
-0.935924
-0.475126
0.150732
0.789215
1.066013
0.352915
0.347520
0.454816
0.127482
-0.406060
-1.429408
0.046770
1.492789
-0.285022
-1.646207
-3.095300
-2.219045
1.977832
1.822340
-0.030521
-0.245865
-2.648617
-2.902772
0.829550
2.324900
0.446322
-1.656234
-2.939331
-3.021644
-1.872080
-0.197408
1.806685
0.820511
-2.375749
-2.251620
-1.252154
0.268213
2.662981
2.440622
5.003257
7.210987
0.714913
-4.831477
-3.481081
-1.706811
-1.902984
-2.120666
-0.531564
2.420577
3.376557
1.201056
0.309336
-0.019166
-1.957363
-1.059599
-0.860421
-1.122525
2.953713
1.297009
-5.600963
-6.652133
-1.806702
3.856786
3.217801
-0.959005
-4.355161
-6.151910
1.046223
6.801593
2.098977
-0.581993
-2.707228
-8.885805
-9.818440
-3.747911
-0.349919
3.151178
14.320591
10.804029
-12.219173
-22.721831
-17.005038
-1.091411
16.019259
8.136533
-6.405207
-0.391491
8.803505
6.243407
-8.784864
-17.101284
-5.211541
3.470737
7.602385
11.530395
2.270136
-4.294207
-4.335373
-11.378299
-11.332258
2.688781
11.913936
14.014821
14.611922
-1.279529
-8.855046
5.266526
-3.903020
-11.515476
-8.382844
-20.833501
4.140238
34.119577
18.263663
5.885717
-3.906431
3.193039
27.236966
6.734098
-23.403556
-20.251752
6.697574
19.378019
-33.314291
-56.698710
15.063706
53.458343
21.077171
-9.738495
-23.710470
-13.892405
-4.142843
-14.925590
-1.842546
12.570337
-0.103363
10.270439
15.993077
-11.882354
-19.484991
-1.921456
17.237745
8.692204
-29.001544
-23.732706
17.224115
17.167987
-3.093837
7.251675
22.771822
18.606472
-7.503790
-46.464952
-28.360411
25.173535
28.806961
22.128525
-0.114263
-31.519565
5.704449
26.330728
-12.652879
-27.383527
-14.830268
9.060055
10.255677
-17.965073
-5.459742
23.832232
3.493489
-21.720628
-6.130809
6.800032
11.823149
30.411417
1.051373
-57.164630
-45.088084
2.879616
36.182383
47.448354
-8.894466
-51.885358
2.621418
29.456885
11.930723
32.422568
10.118526
-34.184904
-11.874584
-15.913215
-55.417255
-14.581774
58.749422
34.299355
-32.352756
-18.422898
13.683762
-5.063991
-13.679437
10.740436
27.888747
10.294316
-9.944361
-6.620483
-8.038013
-3.421469
2.822771
-8.701114
-0.708771
10.631548
-10.850230
-27.246917
0.506905
31.008079
5.752814
-12.939061
9.347646
5.190480
3.784406
21.120222
14.146266
3.594043
-13.831820
-12.290178
19.844538
7.744109
-3.256303
14.236625
-15.486039
-30.067758
9.354419
20.833847
7.910218
-2.191477
-16.689497
-12.684099
-3.897548
-3.368482
16.296189
12.253817
-20.579519
-6.074754
27.223337
31.511629
10.991927
-22.730073
-16.108250
0.402496
-10.304267
18.543259
38.615204
0.175409
-7.089156
13.249786
-0.404693
-12.510265
2.884332
-4.426759
-26.843258
3.787439
33.166386
9.129438
3.675399
1.777649
-24.208701
-9.619768
20.219759
17.223162
8.303312
10.364685
10.733132
-15.256256
-28.754325
3.841906
16.060835
6.115550
6.683894
-0.841823
7.922284
9.916557
-25.004822
-30.862163
-6.117779
6.323492
9.355124
6.637681
14.171079
22.615118
3.553375
-21.322905
-26.760111
-22.993888
-21.124462
-5.343398
24.852437
30.624874
16.747118
15.243317
2.386087
-18.008533
2.492430
23.273717
-8.838589
-31.465038
-7.974041
4.038211
1.002337
20.501713
28.004484
8.596722
3.385129
-2.177860
-11.405388
0.575770
5.885990
13.642197
31.377572
23.421668
17.691280
14.635532
-10.486702
-15.020516
0.151506
1.099771
-9.011978
-5.495451
22.121834
28.721446
16.354956
11.905075
-10.214735
-28.868968
-34.983018
-19.913165
34.907834
36.961726
-10.955274
-17.567312
-12.925518
-11.423622
-6.375956
3.390673
34.443609
32.363731
5.771379
6.376429
-11.987194
-41.772282
-26.183399
21.035449
55.274573
36.977816
1.882959
6.622480
-6.725023
-44.247164
-6.175634
55.003715
37.808143
9.183391
-7.237143
-57.821303
-67.385498
-18.320120
-4.571689
-11.963908
12.905323
47.443241
48.411144
23.945412
8.545403
-26.740467
-38.410007
15.927032
15.360758
-12.017621
-12.212625
-51.527055
-16.170613
35.602137
-37.583438
-17.550069
76.891384
45.282678
20.526336
29.226382
-25.815122
-45.971971
-6.728182
-4.661431
-12.245598
26.308255
31.872379
-34.427165
-49.689468
20.196726
32.677040
-6.488461
29.146200
56.680720
14.276425
-19.540964
-57.510592
-48.691776
22.586446
18.260244
-29.022698
-29.077424
1.950262
36.613962
33.471943
25.753811
33.167037
-0.192577
-54.649822
-101.057661
-107.627381
-22.274096
83.782639
100.964616
34.254524
-29.225893
-18.314592
1.317815
-38.375133
-6.522845
89.075905
41.993327
-53.960829
-47.716355
-37.100106
-24.911337
2.893453
3.650472
27.501516
26.280376
-34.194577
-47.449497
-23.624404
-43.256845
-72.646815
-28.004881
51.728853
48.770833
1.891191
5.551738
22.682280
-21.185118
-91.605339
-37.922231
79.837927
31.456605
-60.200123
-25.959128
-3.734144
-13.990145
-12.302614
-10.752088
51.772999
62.869234
-22.079851
-5.158323
58.744998
28.242387
-29.103424
-51.301790
-13.462421
43.039113
50.935598
19.227762
-36.945789
-71.863661
-66.105018
-33.051713
35.798525
71.310442
63.646316
41.421765
-43.535503
-81.148590
-6.129845
13.753192
-33.153103
-29.598233
-1.645449
-13.657502
-27.485225
17.371569
55.554620
26.818814
15.207256
23.247059
-25.739330
-47.017236
1.866481
18.023959
27.242100
64.969013
58.537233
-1.082958
-70.510943
-83.185110
-57.603264
-31.090204
49.371107
56.349938
-28.282818
-5.570834
38.059693
24.941779
1.077607
-48.921592
-28.577740
-4.555088
-51.710144
-17.630703
32.178151
1.896712
-40.000243
-64.976121
-16.273596
32.193028
-26.969154
-41.224492
26.796000
14.484686
-20.981441
24.854729
36.693972
-20.275659
-27.350615
4.145132
-4.445064
9.183897
66.567781
40.657650
0.389093
59.496999
48.533293
-16.840181
17.414842
46.584541
44.836889
24.021901
-25.137966
33.013242
91.238563
27.433402
-7.702837
-44.547667
-72.477807
32.744973
91.095843
44.845584
47.110828
25.424945
-36.866612
-46.239796
-50.836501
-39.410378
9.015564
27.450461
38.281804
27.140178
-28.503588
-40.506056
-52.068751
-80.740262
-31.460491
-1.671464
30.412050
143.926216
85.119874
-75.908243
-49.154138
-44.105070
-122.066655
-65.305606
25.376153
51.284847
24.333850
-55.766279
-50.882038
34.263636
48.371179
46.563675
81.577838
15.727418
-131.866475
-149.834513
-66.123653
-29.852831
-13.880286
-1.379865
24.013306
74.220784
67.815657
25.663162
-40.067554
-109.995866
-18.056745
109.752721
46.712545
-3.445637
52.708475
15.841902
-41.316403
-8.866295
-5.653470
-10.822278
22.022948
-22.291237
-79.167582
-6.384407
53.570546
-6.382571
-11.000084
65.490415
54.710473
1.160127
-7.544396
-32.217740
-40.304103
11.595132
40.219849
-0.107157
-43.813002
-17.611827
3.006035
-24.932521
3.236057
46.921760
56.307768
47.789114
-25.407917
-40.614810
18.068520
-4.084490
-24.470459
-31.776875
-69.193105
-51.889787
-13.066599
75.573408
158.829298
45.466365
-108.629898
-143.282410
-144.430606
-83.063283
32.721288
67.014654
32.504524
-11.709830
-97.497545
-113.962267
26.895892
96.465290
25.847744
43.874899
121.186260
57.767566
-82.798381
-141.882474
-110.345111
13.216025
140.382081
111.231285
56.888367
68.239207
12.333354
-56.287797
-75.499403
-44.987708
21.714634
-12.327668
-66.101524
-37.767183
-27.146725
2.858097
33.343840
19.497414
36.425254
20.289718
-34.910067
-45.473279
-29.601501
5.257888
20.158472
-20.403267
-62.304898
-67.128620
-38.506475
30.887342
139.279477
173.617732
76.537843
-27.578643
-111.274574
-178.140142
-125.892783
-20.068676
26.914737
69.350794
66.028985
-26.350410
-49.445623
2.812491
15.806692
43.317365
87.692303
76.552313
16.553371
-42.049333
-35.101831
3.928969
40.323003
116.067922
144.813512
36.103846
-115.156923
-165.318612
-87.097545
-9.227409
-19.467513
-33.240059
-2.888515
-6.223417
-61.756363
-72.536539
24.581659
112.335575
74.392132
33.679126
15.926181
-58.447318
-38.998676
29.573344
-1.393589
19.502959
50.406732
-13.961413
-26.076103
6.898412
-2.813076
-25.758892
-22.010671
3.150807
10.105557
23.666015
34.684395
11.542891
1.657691
-12.599985
-27.524450
-6.901211
0.825538
21.511903
59.373248
9.206417
-80.193233
-101.479088
-87.241553
-23.742233
66.307805
17.349472
-82.968510
-22.556950
68.368659
40.113074
-2.283740
-13.579204
-48.971685
-38.738864
47.295006
64.023650
18.559651
16.408231
10.582220
7.942164
12.892570
-21.856969
-1.082696
51.704267
13.413167
-8.085444
28.834166
-15.590838
-79.012338
-58.418089
-46.300862
-31.271923
6.933572
-6.743819
38.852475
114.983861
75.725542
62.737386
64.070247
-20.411243
-48.600197
-19.966362
-21.374774
-39.360347
-21.612346
38.174039
25.927020
8.115392
56.363415
12.496017
-54.573889
-33.075781
-27.914723
-15.065710
69.462037
132.950368
79.734119
-15.066247
-24.639093
-7.306784
-11.969186
17.511696
35.656919
25.185122
43.503354
41.887564
-15.755403
-54.259725
-33.075606
6.833102
30.171195
25.984103
-33.118460
-89.187270
-37.568124
14.604186
-24.558042
-23.624507
-1.931411
-64.661105
-113.151143
-84.141829
-50.341308
-30.134695
27.201962
85.267366
51.409297
-9.267190
-6.992593
10.894751
36.068620
54.377033
3.586898
-26.607802
5.330289
-29.032315
-77.943889
-43.491775
-23.581149
-17.561355
48.784447
92.424326
31.703886
-70.776019
-82.483902
18.264466
72.106556
14.490008
21.668268
112.470199
76.154687
-30.390719
-30.885919
-30.667336
-77.446211
-27.607665
60.342640
35.159151
9.700949
57.804485
31.017848
-28.373221
4.361184
52.994038
63.810885
39.644179
-6.186882
-16.117204
-14.594968
-40.881747
-44.456992
-18.487510
-20.529045
-41.387753
-30.802599
-15.830941
-35.746043
-32.519658
31.367064
66.167536
28.831031
-0.912675
-13.313766
-36.111823
-15.137653
23.150139
19.069190
41.349351
60.943181
-5.435621
-34.362906
6.027892
4.146976
26.964403
84.587462
62.816945
9.123048
-20.407434
-28.361936
-5.494710
-6.901719
-3.295414
25.344266
-23.736109
-56.928792
6.196219
27.416810
13.018622
-16.993950
-96.166839
-103.152251
-36.818841
17.811847
78.590469
81.529049
11.569642
-21.632860
-18.412787
-11.054737
31.743004
58.331581
7.909910
-52.514776
-83.530572
-101.034290
-73.687742
-11.802091
41.775808
66.403294
42.435783
16.610053
40.319416
51.453058
4.364168
-20.785421
16.209706
39.224223
17.159356
-6.902609
-15.431316
-27.126808
-22.955882
38.582346
89.843782
68.446873
58.088234
84.371706
66.981848
0.153454
-68.965218
-106.720220
-75.959297
-12.851588
-13.516758
-48.539372
-43.981278
-52.011530
-69.010011
-23.017430
20.600705
23.654081
31.331030
8.341260
0.163249
47.281096
16.946585
-62.825761
-79.820969
-70.318998
-39.550126
-36.372137
-56.064430
23.310893
81.889014
37.541864
37.016738
46.644025
-13.016612
-76.389249
-80.219567
-14.085819
51.298141
82.227397
94.202242
66.954089
30.922406
-10.335347
-55.779474
-47.872701
-29.641442
-16.926161
32.151141
62.041870
53.987537
46.438440
39.119633
13.648573
-12.326087
-4.009701
-15.700283
-51.618574
-32.435058
-11.522378
-37.984505
-34.615503
16.335917
25.261578
-21.422843
-26.287246
-8.278094
-23.030952
-4.718565
25.551150
5.688418
1.491039
23.504904
6.477198
7.903578
72.072727
76.258149
-11.230909
-59.208463
-24.528865
38.180688
88.187802
70.934014
-22.958517
-74.831134
-45.679672
-26.586401
-11.429342
15.063378
17.603802
10.634756
-2.438737
-9.090520
-5.774591
-11.234476
0.944474
4.773822
-29.879626
-33.332361
-14.257327
-50.039314
-48.648705
46.259641
79.332584
54.047627
45.254027
-23.659605
-62.533795
-17.521526
-27.066550
-10.725074
61.481792
17.443721
-30.219375
53.580094
88.394359
6.088821
-61.836082
-53.725906
2.525699
24.073840
4.642231
33.497939
79.250177
56.438093
3.815455
-4.227422
20.597855
18.232044
-5.556845
-30.045490
-65.606305
-52.692998
3.948581
25.319270
47.295728
51.913441
24.687031
44.306579
5.051767
-105.329317
-98.033924
-43.909874
-73.560295
-84.123272
-5.150782
47.274964
10.345033
-10.770618
-19.477947
-41.936062
-10.167006
-0.235315
-31.976584
-38.865204
-40.882892
17.818207
85.285534
62.606948
61.892680
69.606570
5.572989
-37.807643
-49.919762
-81.374162
-107.096788
-112.329655
-70.102847
17.889074
45.861029
-10.289376
-32.862986
-1.442288
17.091739
29.395771
24.595194
-1.093297
31.927977
81.916855
60.817803
48.331142
62.317578
45.510109
52.360586
64.356238
8.365751
-42.218877
-4.475832
52.792791
39.691008
21.166299
42.525999
8.902896
-69.853366
-82.093138
-14.958738
52.733969
52.091477
1.676353
-30.790857
-29.359099
-52.684135
-82.179781
2.052680
115.543700
87.019715
2.125807
-36.596415
-52.161952
-27.267704
31.287972
69.500949
83.179708
98.117466
81.995257
-5.340898
-56.596289
1.427966
23.889086
-23.606144
-2.180045
36.132997
-19.209405
-55.807812
2.646864
47.505061
26.180863
-30.048800
-92.320251
-106.941715
-77.752378
-34.204381
27.366345
28.113544
-21.498721
-2.323621
16.553620
-19.485077
-10.427086
43.308392
47.408945
-7.324415
2.718330
65.195956
19.562453
-41.273951
3.532109
27.763308
-11.819522
-26.555547
-16.033752
-35.532929
-45.778877
-16.007384
-12.158865
1.367459
35.361330
-12.604534
-65.489025
-10.490574
87.272203
116.554592
25.330155
