EVENT_NAME: 202302060117
EVENT_ID: 13194
EVENT_DATE_YYYYMMDD: 2023/02/06
EVENT_TIME_HHMMSS: 01:17:32.00000
EVENT_LATITUDE_DEGREE: 37.288
EVENT_LONGITUDE_DEGREE: 37.043
EVENT_DEPTH_KM: 8.6
HYPOCENTER_REFERENCE: AFAD
MAGNITUDE_W: 7.7
MAGNITUDE_W_REFERENCE: AFAD
MAGNITUDE_L: 
MAGNITUDE_L_REFERENCE: 
FOCAL_MECHANISM: 
NETWORK: TK
STATION_CODE: 6010
STATION_NAME: 
STATION_LATITUDE_DEGREE: 40.29797
STATION_LONGITUDE_DEGREE: 35.88037
STATION_ELEVATION_M: 740.0
LOCATION: Kahramanmaras_Pazarck_Turkiye
SENSOR_DEPTH_M: 
VS30_M/S: None
SITE_CLASSIFICATION_EC8: unknown
MORPHOLOGIC_CLASSIFICATION: 
EPICENTRAL_DISTANCE_KM: 349.52
EARTHQUAKE_BACKAZIMUTH_DEGREE: 
DATE_TIME_FIRST_SAMPLE_YYYYMMDD_HHMMSS: 2023/02/06 01:17:59.2174410
DATE_TIME_FIRST_SAMPLE_PRECISION: millisecond
SAMPLING_INTERVAL_S: 0.01
NDATA: 18251
DURATION_S: 
STREAM: HNE
UNITS: cm/s^2
INSTRUMENT: sensor = ACEBOX/SARA | digitizer = 
INSTRUMENT_ANALOG/DIGITAL: 
INSTRUMENTAL_FREQUENCY_HZ: 
INSTRUMENTAL_DAMPING: 
FULL_SCALE_G: 
N_BIT_DIGITAL_CONVERTER: 
PGA_CM/S^2: 2.616
TIME_PGA_S: 
BASELINE_CORRECTION: BASELINE REMOVED
FILTER_TYPE: BUTTERWORTH
FILTER_ORDER: 
LOW_CUT_FREQUENCY_HZ: 
HIGH_CUT_FREQUENCY_HZ: 
LATE/NORMAL_TRIGGERED: 
DATABASE_VERSION: 
HEADER_FORMAT: DYNA 1.2
DATA_TYPE: Acceleration
PROCESSING: Automatic Paolucci et al., 2011
DATA_TIMESTAMP_YYYYMMDD_HHMMSS: 
DATA_LICENSE: U (unknown license)
DATA_CITATION: Turkish Accelerometric Archive v 1.0 - Disaster And Emergency Management Presidency, Earthquake Department
DATA_CREATOR: AFAD
ORIGINAL_DATA_MEDIATOR_CITATION: : AFAD - Disaster And Emergency Management Presidency
ORIGINAL_DATA_MEDIATOR: AFAD PROCESS SERVICE
ORIGINAL_DATA_CREATOR_CITATION: AFAD PROCESS SERVICE
ORIGINAL_DATA_CREATOR: network: TK
USER1: GuestUser
USER2: 
USER3: 
USER4: 
USER5: 
[...]
-0.499511
-0.423059
-0.348244
-0.271091
-0.188327
-0.097848
-0.003160
0.095970
0.198607
0.303114
0.408790
0.507687
0.598634
0.686775
0.776553
0.863058
0.950966
1.049160
1.143614
1.238536
1.337900
1.423002
1.500155
1.571463
1.635056
1.700752
1.760604
1.816716
1.869554
1.918651
1.970554
2.012170
2.050045
2.085114
2.104987
2.124158
2.134679
2.124626
2.108727
2.081373
2.036016
1.977099
1.904622
1.820922
1.724598
1.620558
1.507400
1.384189
1.258406
1.122569
0.976913
0.825880
0.659183
0.483367
0.299369
0.102979
-0.103231
-0.308972
-0.510038
-0.714143
-0.905156
-1.073022
-1.228731
-1.361294
-1.470712
-1.562360
-1.620576
-1.652606
-1.667336
-1.652139
-1.613562
-1.559322
-1.483571
-1.394261
-1.291624
-1.177063
-1.055255
-0.919185
-0.774465
-0.626939
-0.472633
-0.321132
-0.174542
-0.029821
0.104846
0.229460
0.343787
0.443150
0.533162
0.614757
0.681623
0.739605
0.799223
0.850892
0.890170
0.930149
0.966855
0.995378
1.019226
1.031149
1.030681
1.013848
0.981350
0.941370
0.885259
0.822601
0.763217
0.696117
0.631589
0.570100
0.502532
0.435900
0.364124
0.287438
0.213558
0.138509
0.064629
-0.003873
-0.067700
-0.128721
-0.192314
-0.255206
-0.315993
-0.379820
-0.439672
-0.493913
-0.543011
-0.580185
-0.605669
-0.614553
-0.608474
-0.592576
-0.566625
-0.539738
-0.516125
-0.489706
-0.463988
-0.445986
-0.434296
-0.421905
-0.413255
-0.412086
-0.406475
-0.396422
-0.387538
-0.373510
-0.356443
-0.341012
-0.331894
-0.327686
-0.323244
-0.327920
-0.341480
-0.350832
-0.352703
-0.349430
-0.342884
-0.325583
-0.297761
-0.261990
-0.214296
-0.163795
-0.107918
-0.046663
0.009916
0.068365
0.124944
0.177314
0.234127
0.292342
0.354065
0.417423
0.478211
0.538530
0.586459
0.620593
0.649584
0.670158
0.686290
0.697044
0.707331
0.719722
0.723229
0.731412
0.746141
0.751986
0.761571
0.774664
0.782145
0.786587
0.785185
0.781210
0.781210
0.783548
0.787756
0.800848
0.828203
0.864441
0.913538
0.975027
1.037918
1.106888
1.181703
1.248569
1.316137
1.388380
1.452908
1.515098
1.579859
1.639478
1.693485
1.740712
1.779288
1.805707
1.825346
1.842881
1.844283
1.839607
1.841010
1.838672
1.841244
1.849660
1.856674
1.868831
1.872338
1.868831
1.870701
1.860648
1.843113
1.824643
1.795418
1.767362
1.737436
1.694184
1.646723
1.591313
1.525382
1.451735
1.368504
1.280362
1.187778
1.089115
0.997233
0.911897
0.823054
0.738887
0.658694
0.572423
0.493633
0.428404
0.362706
0.300750
0.252120
0.198347
0.135221
0.076772
0.024401
-0.012773
-0.043634
-0.083380
-0.102785
-0.101382
-0.100915
-0.095070
-0.087121
-0.078938
-0.066781
-0.058364
-0.051117
-0.047142
-0.039427
-0.017684
0.004293
0.040999
0.100149
0.162106
0.233647
0.310099
0.380940
0.452481
0.522153
0.589019
0.657521
0.729998
0.804580
0.876589
0.950469
1.023413
1.087474
1.138675
1.177953
1.215127
1.253937
1.287370
1.319166
1.354470
1.385564
1.419465
1.454067
1.470666
1.484928
1.500125
1.500124
1.496384
1.488902
1.475809
1.464821
1.451260
1.438869
1.429751
1.415957
1.397486
1.375042
1.346051
1.306539
1.261416
1.217228
1.166962
1.112019
1.058012
1.000732
0.935970
0.859284
0.774182
0.675753
0.560958
0.444527
0.318510
0.177764
0.038187
-0.104195
-0.251955
-0.402053
-0.559867
-0.720252
-0.877831
-1.041723
-1.201641
-1.349634
-1.497160
-1.635569
-1.759247
-1.879887
-1.991175
-2.083758
-2.168861
-2.249287
-2.308204
-2.351223
-2.390735
-2.413647
-2.423700
-2.430013
-2.430481
-2.436560
-2.449652
-2.459238
-2.468122
-2.476305
-2.484488
-2.484021
-2.466720
-2.446380
-2.415986
-2.368993
-2.324572
-2.274773
-2.220532
-2.172604
-2.123974
-2.079085
-2.036300
-1.993749
-1.958680
-1.925013
-1.895789
-1.875682
-1.856043
-1.843652
-1.839444
-1.836639
-1.842951
-1.856979
-1.876852
-1.910753
-1.950966
-1.995621
-2.050798
-2.107377
-2.164423
-2.224275
-2.279218
-2.331822
-2.388401
-2.437265
-2.474205
-2.512081
-2.538967
-2.548319
-2.550891
-2.540604
-2.517225
-2.488000
-2.452697
-2.413653
-2.371336
-2.329954
-2.286701
-2.235967
-2.188039
-2.138240
-2.076985
-2.014796
-1.944656
-1.868439
-1.797364
-1.715769
-1.631135
-1.554917
-1.472153
-1.389856
-1.311067
-1.221990
-1.136187
-1.059969
-0.979309
-0.905429
-0.843005
-0.779412
-0.713949
-0.651993
-0.591907
-0.531354
-0.471268
-0.413520
-0.359747
-0.313923
-0.273476
-0.239576
-0.220171
-0.209650
-0.201935
-0.199363
-0.208014
-0.225548
-0.249396
-0.286102
-0.329589
-0.382193
-0.450462
-0.522472
-0.596352
-0.676778
-0.757672
-0.839267
-0.918992
-0.992405
-1.062077
-1.128943
-1.192536
-1.254726
-1.310603
-1.367416
-1.433113
-1.494135
-1.546505
-1.597707
-1.643298
-1.678835
-1.698474
-1.700111
-1.688888
-1.662002
-1.620386
-1.576666
-1.527803
-1.471691
-1.413710
-1.352689
-1.289330
-1.221529
-1.147649
-1.071899
-0.994512
-0.913618
-0.834127
-0.758143
-0.683094
-0.614826
-0.552870
-0.490913
-0.434568
-0.386640
-0.341985
-0.298732
-0.265767
-0.244258
-0.222982
-0.211526
-0.209656
-0.203110
-0.201707
-0.207085
-0.208488
-0.214800
-0.221581
-0.226490
-0.240285
-0.254546
-0.265769
-0.280264
-0.298500
-0.317906
-0.334973
-0.352742
-0.368874
-0.386175
-0.411425
-0.431766
-0.452340
-0.475720
-0.489514
-0.501204
-0.508218
-0.507049
-0.503308
-0.493957
-0.485072
-0.476656
-0.458186
-0.432001
-0.401373
-0.363265
-0.325623
-0.289151
-0.244496
-0.199841
-0.157524
-0.112401
-0.069382
-0.024961
0.024137
0.080248
0.141970
0.201355
0.265415
0.340697
0.421825
0.510434
0.608395
0.707291
0.815072
0.931503
1.045362
1.164598
1.285237
1.398161
1.503370
1.592447
1.666560
1.720334
1.744882
1.751662
1.739738
1.707474
1.667495
1.615358
1.553869
1.487237
1.405642
1.311889
1.202471
1.077624
0.953477
0.823720
0.692793
0.569816
0.450111
0.343266
0.247409
0.152487
0.065748
-0.019822
-0.111237
-0.203587
-0.297573
-0.384312
-0.461699
-0.534176
-0.589119
-0.630735
-0.667441
-0.690120
-0.705317
-0.712564
-0.711396
-0.714669
-0.713266
-0.704382
-0.693627
-0.678898
-0.663234
-0.638452
-0.603850
-0.567377
-0.521319
-0.471053
-0.424060
-0.373560
-0.332879
-0.303655
-0.273963
-0.255960
-0.248479
-0.234919
-0.221359
-0.209435
-0.188861
-0.164546
-0.146310
-0.133218
-0.125970
-0.132516
-0.153558
-0.182549
-0.223230
-0.279575
-0.341298
-0.410034
-0.483447
-0.549845
-0.616945
-0.674460
-0.716543
-0.762835
-0.793696
-0.810296
-0.836014
-0.855419
-0.873889
-0.902413
-0.930936
-0.966941
-1.016974
-1.076592
-1.138315
-1.195128
-1.255681
-1.310390
-1.355747
-1.409988
-1.461657
-1.514963
-1.578556
-1.639577
-1.706209
-1.770738
-1.821004
-1.863321
-1.894650
-1.919433
-1.929253
-1.922940
-1.918966
-1.900963
-1.873375
-1.852334
-1.818901
-1.781026
-1.745255
-1.699197
-1.654542
-1.603574
-1.545125
-1.491118
-1.429396
-1.362062
-1.296365
-1.233708
-1.181571
-1.130369
-1.081973
-1.044098
-1.010432
-0.980038
-0.951983
-0.919719
-0.883246
-0.847242
-0.806561
-0.760036
-0.717251
-0.680545
-0.649450
-0.628408
-0.619056
-0.617888
-0.618823
-0.623031
-0.633786
-0.646411
-0.666284
-0.697379
-0.737359
-0.791600
-0.857297
-0.926501
-1.001550
-1.081275
-1.161935
-1.239556
-1.319281
-1.402513
-1.476627
-1.548403
-1.619009
-1.678862
-1.736376
-1.792020
-1.839247
-1.886474
-1.925986
-1.955444
-1.986072
-2.009452
-2.028390
-2.051302
-2.067902
-2.087073
-2.111388
-2.130559
-2.146925
-2.155576
-2.155576
-2.146692
-2.116532
-2.068370
-2.010856
-1.941886
-1.869877
-1.794360
-1.714168
-1.641457
-1.568278
-1.493463
-1.421220
-1.344769
-1.267382
-1.183916
-1.092502
-1.004126
-0.914115
-0.826675
-0.744144
-0.666991
-0.601294
-0.543546
-0.495384
-0.461250
-0.434130
-0.409581
-0.392748
-0.381759
-0.366329
-0.353003
-0.349262
-0.347859
-0.345288
-0.346457
-0.359082
-0.376149
-0.388307
-0.403504
-0.420337
-0.426416
-0.422675
-0.412622
-0.398594
-0.380592
-0.354407
-0.327754
-0.305076
-0.287074
-0.269773
-0.245926
-0.232132
-0.223481
-0.205245
-0.186308
-0.166435
-0.149602
-0.133937
-0.113597
-0.104713
-0.105415
-0.114299
-0.134172
-0.163163
-0.201973
-0.237510
-0.271411
-0.309053
-0.338979
-0.369373
-0.403975
-0.433667
-0.464762
-0.502170
-0.543786
-0.577453
-0.603638
-0.631928
-0.656710
-0.679389
-0.695521
-0.703236
-0.714693
-0.720538
-0.726616
-0.737839
-0.737605
-0.739008
-0.743216
-0.737372
-0.729656
-0.716798
-0.699029
-0.677520
-0.647828
-0.619071
-0.582131
-0.537476
-0.493522
-0.438112
-0.383404
-0.331267
-0.266739
-0.207822
-0.152179
-0.090456
-0.034813
0.014518
0.052861
0.087229
0.120896
0.139600
0.153393
0.162745
0.162511
0.162044
0.152458
0.140300
0.134455
0.126506
0.123233
0.127909
0.137494
0.153158
0.167186
0.176070
0.181681
0.179577
0.169991
0.151287
0.126271
0.095410
0.056599
0.016620
-0.031075
-0.093967
-0.163872
-0.242896
-0.337116
-0.442091
-0.553613
-0.673083
-0.796294
-0.918804
-1.042249
-1.163824
-1.283528
-1.400895
-1.513585
-1.626977
-1.739901
-1.851422
-1.962242
-2.063710
-2.151385
-2.230408
-2.298209
-2.347073
-2.387053
-2.417446
-2.427967
-2.425162
-2.408329
-2.369051
-2.303821
-2.220356
-2.124733
-2.005496
-1.870829
-1.731252
-1.584428
-1.434564
-1.276050
-1.118470
-0.962761
-0.791154
-0.618378
-0.448642
-0.271657
-0.103557
0.058464
0.219784
0.371986
0.522785
0.670545
0.808486
0.943854
1.073611
1.196355
1.310915
1.416592
1.521099
1.620696
1.717021
1.808669
1.887693
1.963677
2.027503
2.072392
2.112605
2.142297
2.162404
2.173392
2.168482
2.163105
2.156091
2.142764
2.124528
2.087822
2.039659
1.981444
1.909902
1.833917
1.751854
1.665583
1.575103
1.475973
1.368660
1.248021
1.115925
0.980323
0.843317
0.711456
0.586608
0.465968
0.351875
0.238250
0.129300
0.039522
-0.037865
-0.101458
-0.144243
-0.181417
-0.208772
-0.220695
-0.233554
-0.239399
-0.236828
-0.235893
-0.231918
-0.223502
-0.209474
-0.190069
-0.169261
-0.143777
-0.115955
-0.084393
-0.050492
-0.020333
0.018945
0.065003
0.104982
0.154080
0.213464
0.274251
0.341351
0.406814
0.472511
0.548963
0.622141
0.691813
0.769199
0.847288
0.927480
1.006269
1.074538
1.136962
1.189099
1.233286
1.269758
1.295710
1.316751
1.331013
1.342235
1.348080
1.339663
1.326103
1.309269
1.279811
1.244273
1.206866
1.162678
1.110541
1.053494
0.994811
0.934024
0.863183
0.791407
0.723372
0.654402
0.588471
0.519968
0.451933
0.381326
0.302303
0.227955
0.149165
0.068505
0.003276
-0.057044
-0.107077
-0.141212
-0.162487
-0.169501
-0.171138
-0.164825
-0.147758
-0.130457
-0.112923
-0.096557
-0.085101
-0.076451
-0.075749
-0.081828
-0.089310
-0.099831
-0.110352
-0.120405
-0.131861
-0.137707
-0.141681
-0.147994
-0.149864
-0.149163
-0.149631
-0.154073
-0.162724
-0.170673
-0.180259
-0.191247
-0.203171
-0.216965
-0.225616
-0.238942
-0.258815
-0.273778
-0.295755
-0.321941
-0.342983
-0.363089
-0.374312
-0.373610
-0.361219
-0.336437
-0.301601
-0.253439
-0.198731
-0.142619
-0.079494
-0.011927
0.051432
0.112453
0.179319
0.249458
0.311180
0.374072
0.446783
0.514584
0.580047
0.652290
0.723131
0.797712
0.879073
0.958097
1.035483
1.115442
1.193062
1.260162
1.320248
1.376125
1.417274
1.445797
1.467072
1.474086
1.468241
1.457954
1.440185
1.414000
1.384307
1.351108
1.317441
1.282371
1.247302
1.215505
1.187449
1.166408
1.149808
1.134143
1.121284
1.103516
1.078032
1.052548
1.023790
0.992461
0.964406
0.933544
0.899877
0.871120
0.841662
0.805189
0.766613
0.731309
0.693901
0.656026
0.627035
0.599447
0.570222
0.545673
0.522761
0.501252
0.481379
0.462675
0.449115
0.439061
0.431346
0.427371
0.424332
0.420591
0.416382
0.411005
0.399782
0.383183
0.372896
0.368220
0.362842
0.371025
0.393937
0.422226
0.460335
0.505458
0.557828
0.615342
0.667011
0.716109
0.764271
0.802614
0.838384
0.871350
0.890521
0.908056
0.929565
0.942891
0.949437
0.952009
0.947099
0.934942
0.921381
0.902444
0.879064
0.859659
0.833473
0.803547
0.786714
0.766841
0.740421
0.721250
0.700442
0.676361
0.652747
0.622119
0.588453
0.557591
0.525093
0.489556
0.454720
0.415442
0.371488
0.329872
0.281008
0.224663
0.169019
0.100984
0.024766
-0.055660
-0.148244
-0.242698
-0.338088
-0.436750
-0.527931
-0.613969
-0.691356
-0.756352
-0.812463
-0.854313
-0.880966
-0.896163
-0.891253
-0.870211
-0.844494
-0.804748
-0.754482
-0.699072
-0.634778
-0.578199
-0.522790
-0.462704
-0.412671
-0.364041
-0.313541
-0.263743
-0.207865
-0.151286
-0.096578
-0.035323
0.034582
0.105189
0.170886
0.243597
0.316775
0.379199
0.447234
0.518308
0.583303
0.660690
0.739714
0.810320
0.890513
0.965795
1.027518
1.087603
1.136467
1.171770
1.204034
1.227414
1.237467
1.239337
1.235129
1.218763
1.191408
1.159612
1.121035
1.078250
1.035699
0.990108
0.943816
0.897524
0.844920
0.783899
0.721709
0.651336
0.569740
0.495626
0.421746
0.345294
0.280065
0.217173
0.162465
0.121316
0.076193
0.037149
0.010262
-0.015456
-0.036497
-0.048187
-0.050292
-0.050292
-0.046551
-0.033225
-0.022470
-0.010313
0.012833
0.035277
0.058423
0.086011
0.117106
0.153578
0.191687
0.232134
0.273984
0.316768
0.365164
0.417301
0.477387
0.545188
0.620704
0.712119
0.812184
0.918094
1.033122
1.150021
1.265750
1.387325
1.506795
1.613173
1.721888
1.828266
1.916875
1.998704
2.077026
2.148334
2.214265
2.273649
2.333969
2.389145
2.435436
2.481962
2.520305
2.550464
2.580157
2.600497
2.610550
2.615693
2.614291
2.609147
2.594651
2.570570
2.542514
2.503002
2.449930
2.385870
2.307781
2.214496
2.106949
1.987713
1.860761
1.731003
1.599609
1.471020
1.346640
1.229040
1.124766
1.030078
0.942872
0.866888
0.799554
0.736195
0.676342
0.618361
0.558041
0.501462
0.444415
0.384797
0.332192
0.284030
0.244752
0.216462
0.191680
0.174612
0.159883
0.137672
0.111487
0.081794
0.050232
0.020305
0.003472
0.005576
0.021240
0.048828
0.081092
0.112421
0.151699
0.198926
0.248023
0.298991
0.349257
0.398121
0.437632
0.469896
0.506836
0.540269
0.566220
0.584690
0.594042
0.602458
0.612745
0.623734
0.638931
0.659972
0.683352
0.707433
0.733852
0.756764
0.771493
0.782715
0.788326
0.782247
0.771259
0.755828
0.725200
0.683584
0.634721
0.572297
0.498650
0.409807
0.308573
0.201026
0.080153
-0.049605
-0.185675
-0.332032
-0.479558
-0.629422
-0.778351
-0.919331
-1.053998
-1.180249
-1.301122
-1.411709
-1.507799
-1.600383
-1.685953
-1.764743
-1.845637
-1.918348
-1.990825
-2.063536
-2.124557
-2.186748
-2.243093
-2.284241
-2.327260
-2.360693
-2.383605
-2.412596
-2.432469
-2.442757
-2.454213
-2.454680
-2.442055
-2.416805
-2.375190
-2.316507
-2.239587
-2.149342
-2.047173
-1.933547
-1.816181
-1.692970
-1.563446
-1.432988
-1.303230
-1.173940
-1.044417
-0.918868
-0.806412
-0.704710
-0.605580
-0.510892
-0.426024
-0.346299
-0.267042
-0.197838
-0.134713
-0.069484
-0.017347
0.029179
0.083186
0.133920
0.188628
0.248013
0.309034
0.377770
0.441830
0.499812
0.555222
0.596837
0.627699
0.654351
0.672120
0.681705
0.686615
0.684511
0.675860
0.664872
0.647570
0.621151
0.592862
0.565273
0.529035
0.482275
0.432243
0.379404
0.313006
0.234917
0.154959
0.066115
-0.029274
-0.120455
-0.220754
-0.323157
-0.417144
-0.517677
-0.618210
-0.714067
-0.807586
-0.890818
-0.971478
-1.044423
-1.103340
-1.158049
-1.201769
-1.238709
-1.270505
-1.288040
-1.300899
-1.301835
-1.292717
-1.281027
-1.261622
-1.244788
-1.230293
-1.215330
-1.209018
-1.202939
-1.198263
-1.200368
-1.203407
-1.199900
-1.194991
-1.190081
-1.177222
-1.165065
-1.155245
-1.140750
-1.132334
-1.126255
-1.117137
-1.113864
-1.110123
-1.098433
-1.085575
-1.067339
-1.036010
-0.997433
-0.954649
-0.907889
-0.860195
-0.810630
-0.769248
-0.738387
-0.708227
-0.684380
-0.664741
-0.640660
-0.620553
-0.597408
-0.569820
-0.547609
-0.523528
-0.500616
-0.486355
-0.473496
-0.465547
-0.461572
-0.455260
-0.452454
-0.454559
-0.451519
-0.438193
-0.423230
-0.410371
-0.394941
-0.383251
-0.377173
-0.376004
-0.390265
-0.411307
-0.433986
-0.471627
-0.507165
-0.531947
-0.563510
-0.603489
-0.650950
-0.701451
-0.749613
-0.805257
-0.866746
-0.928234
-0.989256
-1.040223
-1.074124
-1.098673
-1.107557
-1.094465
-1.076696
-1.049576
-1.008194
-0.963071
-0.906259
-0.837289
-0.757096
-0.661239
-0.556498
-0.437963
-0.306102
-0.169330
-0.023675
0.126891
0.272546
0.412357
0.550765
0.688004
0.815657
0.945180
1.077042
1.198149
1.322996
1.447143
1.566379
1.691227
1.806255
1.919880
2.027661
2.120478
2.213295
2.286006
2.339546
2.393553
2.429090
2.448027
2.457847
2.452937
2.435870
2.404541
2.355911
2.289746
2.201371
2.096629
1.976691
1.836880
1.685847
1.528969
1.372325
1.221993
1.073532
0.932786
0.803262
0.683090
0.576712
0.484128
0.402065
0.321873
0.246356
0.180191
0.110520
0.039913
-0.023213
-0.085169
-0.142216
-0.188508
-0.228019
-0.263557
-0.293717
-0.317330
-0.341412
-0.369000
-0.402433
-0.441711
-0.476079
-0.507642
-0.538036
-0.560480
-0.574976
-0.581990
-0.586198
-0.581990
-0.565858
-0.551830
-0.532659
-0.503902
-0.478652
-0.447791
-0.405942
-0.361754
-0.308448
-0.248830
-0.185237
-0.112527
-0.034438
0.050430
0.147923
0.249157
0.352028
0.462147
0.574369
0.683319
0.790398
0.894671
0.994502
1.093165
1.184346
1.266408
1.344964
1.411596
1.466071
1.511661
1.548601
1.576189
1.588113
1.596529
1.599101
1.589047
1.576656
1.553744
1.521713
1.482435
1.419778
1.344962
1.264068
1.169614
1.069081
0.968315
0.867782
0.769587
0.673963
0.583016
0.497914
0.411175
0.327476
0.257336
0.182755
0.106771
0.055569
0.011381
-0.032339
-0.054316
-0.066006
-0.074423
-0.066942
-0.047303
-0.022754
0.007172
0.044813
0.082922
0.120329
0.167089
0.213147
0.249619
0.291469
0.333084
0.369790
0.406029
0.428473
0.441566
0.454425
0.456295
0.449047
0.432681
0.407431
0.379609
0.342435
0.303625
0.268555
0.229511
0.198416
0.173399
0.147214
0.127808
0.108637
0.091102
0.077074
0.060708
0.047849
0.034289
0.022599
0.016988
0.003427
-0.008263
-0.013406
-0.026265
-0.035617
-0.051516
-0.076766
-0.092430
-0.109965
-0.130539
-0.149945
-0.168649
-0.178936
-0.194133
-0.213538
-0.230138
-0.251881
-0.265675
-0.279469
-0.301213
-0.314072
-0.322488
-0.333009
-0.343297
-0.351713
-0.363871
-0.385614
-0.402681
-0.418112
-0.441492
-0.453182
-0.462300
-0.477497
-0.480770
-0.483576
-0.489655
-0.485680
-0.484278
-0.488720
-0.490824
-0.492929
-0.490591
-0.477732
-0.461834
-0.436584
-0.397072
-0.354755
-0.307528
-0.251884
-0.192968
-0.134051
-0.073264
-0.009203
0.053688
0.119151
0.189758
0.254753
0.318346
0.387316
0.457689
0.524321
0.592590
0.665067
0.735907
0.807683
0.877588
0.944922
1.014593
1.078420
1.137337
1.191577
1.238804
1.278316
1.305670
1.330920
1.358274
1.378147
1.403865
1.433791
1.459508
1.499254
1.547182
1.592772
1.648884
1.712009
1.771627
1.828907
1.883148
1.929673
1.971289
2.009164
2.039324
2.065977
2.095435
2.126764
2.151079
2.171185
2.192461
2.201111
2.200410
2.196902
2.175627
2.141960
2.098006
2.034881
1.962403
1.880808
1.784717
1.682548
1.574767
1.461141
1.344243
1.221967
1.095248
0.966660
0.835733
0.699663
0.560554
0.422613
0.279529
0.137380
-0.001028
