EVENT_NAME: 202302060117
EVENT_ID: 13194
EVENT_DATE_YYYYMMDD: 2023/02/06
EVENT_TIME_HHMMSS: 01:17:32.00000
EVENT_LATITUDE_DEGREE: 37.288
EVENT_LONGITUDE_DEGREE: 37.043
EVENT_DEPTH_KM: 8.6
HYPOCENTER_REFERENCE: AFAD
MAGNITUDE_W: 7.7
MAGNITUDE_W_REFERENCE: AFAD
MAGNITUDE_L: 
MAGNITUDE_L_REFERENCE: 
FOCAL_MECHANISM: 
NETWORK: TK
STATION_CODE: 2802
STATION_NAME: 
STATION_LATITUDE_DEGREE: 40.332029
STATION_LONGITUDE_DEGREE: 38.760255
STATION_ELEVATION_M: 1461.0
LOCATION: Kahramanmaras_Pazarck_Turkiye
SENSOR_DEPTH_M: 
VS30_M/S: 309
SITE_CLASSIFICATION_EC8: C
MORPHOLOGIC_CLASSIFICATION: 
EPICENTRAL_DISTANCE_KM: 369.72
EARTHQUAKE_BACKAZIMUTH_DEGREE: 
DATE_TIME_FIRST_SAMPLE_YYYYMMDD_HHMMSS: 2023/02/06 01:17:59.2150570
DATE_TIME_FIRST_SAMPLE_PRECISION: millisecond
SAMPLING_INTERVAL_S: 0.01
NDATA: 21001
DURATION_S: 
STREAM: HNZ
UNITS: cm/s^2
INSTRUMENT: sensor = ACEBOX/SARA | digitizer = 
INSTRUMENT_ANALOG/DIGITAL: 
INSTRUMENTAL_FREQUENCY_HZ: 
INSTRUMENTAL_DAMPING: 
FULL_SCALE_G: 
N_BIT_DIGITAL_CONVERTER: 
PGA_CM/S^2: 5.678
TIME_PGA_S: 
BASELINE_CORRECTION: BASELINE REMOVED
FILTER_TYPE: BUTTERWORTH
FILTER_ORDER: 
LOW_CUT_FREQUENCY_HZ: 
HIGH_CUT_FREQUENCY_HZ: 
LATE/NORMAL_TRIGGERED: 
DATABASE_VERSION: 
HEADER_FORMAT: DYNA 1.2
DATA_TYPE: Acceleration
PROCESSING: Automatic Paolucci et al., 2011
DATA_TIMESTAMP_YYYYMMDD_HHMMSS: 
DATA_LICENSE: U (unknown license)
DATA_CITATION: Turkish Accelerometric Archive v 1.0 - Disaster And Emergency Management Presidency, Earthquake Department
DATA_CREATOR: AFAD
ORIGINAL_DATA_MEDIATOR_CITATION: : AFAD - Disaster And Emergency Management Presidency
ORIGINAL_DATA_MEDIATOR: AFAD PROCESS SERVICE
ORIGINAL_DATA_CREATOR_CITATION: AFAD PROCESS SERVICE
ORIGINAL_DATA_CREATOR: network: TK
USER1: GuestUser
USER2: 
USER3: 
USER4: 
USER5: 
[...]
0.535094
0.498855
0.453031
0.417962
0.385231
0.331691
0.253369
0.157513
0.049499
-0.052670
-0.145488
-0.236201
-0.308210
-0.352865
-0.373439
-0.370166
-0.345617
-0.295116
-0.221704
-0.142680
-0.072541
-0.019936
0.017939
0.051606
0.098600
0.159621
0.217603
0.272312
0.324449
0.385470
0.470573
0.555441
0.624879
0.674678
0.694318
0.698994
0.695955
0.687538
0.693383
0.717932
0.749729
0.781526
0.821973
0.866161
0.897256
0.921571
0.939574
0.941211
0.921572
0.869202
0.783398
0.686840
0.603609
0.540250
0.481567
0.420780
0.361162
0.324456
0.346901
0.416339
0.492791
0.569476
0.645928
0.719808
0.795793
0.873180
0.952204
1.038475
1.124746
1.195821
1.248893
1.284665
1.303836
1.304772
1.274378
1.228087
1.192783
1.168936
1.162390
1.178289
1.211722
1.260586
1.317866
1.378654
1.434765
1.482694
1.522907
1.546287
1.553302
1.549561
1.532962
1.496490
1.435936
1.351770
1.239079
1.113063
0.994060
0.879032
0.772889
0.668148
0.553120
0.437624
0.321193
0.215751
0.137429
0.082487
0.051158
0.022168
-0.017578
-0.054751
-0.091925
-0.112732
-0.097068
-0.065505
-0.042359
-0.033240
-0.044229
-0.078129
-0.120914
-0.155515
-0.181700
-0.197832
-0.200404
-0.189883
-0.160658
-0.113197
-0.059657
-0.008923
0.023342
0.037604
0.061685
0.096989
0.115459
0.105406
0.079688
0.057244
0.048828
0.059115
0.080624
0.104004
0.122475
0.126216
0.113123
0.071507
-0.011958
-0.122310
-0.251132
-0.392345
-0.531221
-0.672902
-0.827909
-0.990632
-1.150315
-1.298542
-1.422221
-1.515506
-1.603413
-1.703712
-1.805413
-1.903374
-1.986606
-2.051835
-2.115194
-2.165694
-2.193515
-2.209647
-2.200996
-2.161952
-2.103269
-2.024946
-1.932129
-1.840948
-1.754676
-1.667937
-1.571612
-1.457051
-1.331970
-1.206654
-1.079702
-0.950178
-0.806860
-0.649514
-0.505027
-0.382050
-0.279646
-0.201090
-0.124404
-0.039068
0.042761
0.122954
0.209693
0.307186
0.421046
0.546595
0.677054
0.804708
0.918801
1.006709
1.062587
1.106775
1.154236
1.198658
1.244015
1.294515
1.347120
1.397854
1.445081
1.492776
1.536730
1.578346
1.611078
1.623002
1.633757
1.649188
1.659943
1.665554
1.659008
1.649423
1.645448
1.635162
1.607807
1.550060
1.462854
1.359749
1.253372
1.164295
1.105145
1.078258
1.072881
1.074752
1.072414
1.056049
1.036410
1.013498
0.981936
0.955750
0.927461
0.887248
0.844464
0.782741
0.696470
0.608563
0.519720
0.422695
0.328007
0.237294
0.148217
0.066389
-0.006556
-0.065239
-0.107790
-0.140989
-0.161563
-0.167641
-0.173252
-0.184708
-0.217205
-0.282435
-0.363094
-0.452171
-0.552937
-0.650197
-0.730389
-0.790241
-0.825544
-0.837000
-0.843312
-0.850560
-0.840974
-0.832791
-0.840272
-0.852897
-0.879316
-0.894980
-0.879315
-0.855701
-0.817358
-0.766624
-0.718228
-0.658843
-0.594782
-0.526046
-0.447490
-0.364258
-0.269803
-0.180726
-0.105443
-0.025952
0.047227
0.111054
0.173945
0.234032
0.304872
0.382259
0.447022
0.500795
0.543346
0.582391
0.628917
0.679651
0.734594
0.789536
0.831386
0.852896
0.847986
0.818996
0.778783
0.734361
0.688771
0.646688
0.617931
0.607644
0.602969
0.594318
0.575615
0.539610
0.508048
0.495189
0.479525
0.453574
0.423414
0.386942
0.346729
0.304412
0.266771
0.241755
0.222116
0.204582
0.189151
0.169980
0.149406
0.124624
0.092126
0.056823
0.027131
0.003752
-0.021498
-0.048852
-0.074102
-0.101222
-0.127174
-0.152424
-0.182583
-0.208768
-0.231446
-0.270490
-0.333849
-0.416379
-0.512002
-0.618613
-0.743929
-0.876959
-0.986142
-1.061424
-1.126420
-1.204508
-1.292415
-1.368633
-1.423809
-1.460281
-1.482024
-1.488103
-1.465424
-1.413988
-1.351330
-1.275580
-1.183697
-1.092750
-1.010687
-0.931897
-0.850068
-0.746028
-0.601307
-0.420348
-0.231673
-0.058897
0.091435
0.208334
0.306529
0.411037
0.505959
0.583112
0.649277
0.702115
0.744199
0.767813
0.781841
0.793765
0.794700
0.801948
0.811768
0.811768
0.818782
0.823692
0.810834
0.771556
0.700716
0.606496
0.493338
0.375972
0.253696
0.120666
-0.007922
-0.143291
-0.291050
-0.427354
-0.548461
-0.657644
-0.749292
-0.820132
-0.856371
-0.856604
-0.841407
-0.819196
-0.794180
-0.768462
-0.734327
-0.695049
-0.655069
-0.609479
-0.550562
-0.465225
-0.358380
-0.244988
-0.132297
-0.037609
0.042350
0.116931
0.170939
0.207411
0.249261
0.296956
0.351197
0.415492
0.465525
0.496152
0.510882
0.488437
0.437704
0.382995
0.330859
0.273345
0.195491
0.112727
0.043523
-0.011185
-0.046255
-0.076181
-0.096988
-0.103067
-0.123407
-0.155671
-0.185830
-0.215990
-0.245682
-0.276543
-0.298987
-0.303195
-0.289167
-0.273269
-0.273269
-0.290102
-0.323535
-0.364449
-0.403259
-0.443238
-0.474333
-0.500284
-0.527638
-0.553589
-0.592166
-0.646173
-0.711168
-0.789724
-0.881372
-0.985645
-1.094828
-1.206583
-1.318572
-1.417234
-1.490880
-1.521741
-1.503271
-1.449731
-1.376318
-1.306647
-1.241651
-1.162393
-1.070277
-0.958989
-0.832505
-0.709761
-0.579536
-0.443465
-0.312071
-0.191665
-0.104692
-0.038294
0.030209
0.092867
0.151317
0.201116
0.232211
0.247642
0.254890
0.263774
0.275932
0.297442
0.336252
0.377635
0.406859
0.411769
0.385117
0.345605
0.292533
0.213744
0.120225
0.020394
-0.072189
-0.143497
-0.204986
-0.259694
-0.304583
-0.352745
-0.402310
-0.443692
-0.477358
-0.507284
-0.543055
-0.583268
-0.624883
-0.681462
-0.755342
-0.832027
-0.900997
-0.961082
-1.014856
-1.050626
-1.058575
-1.044313
-1.005035
-0.947755
-0.888136
-0.821737
-0.740610
-0.640310
-0.518969
-0.389212
-0.251505
-0.096263
0.073942
0.248588
0.412948
0.561643
0.704494
0.835654
0.944838
1.028070
1.078336
1.103821
1.121122
1.143800
1.179338
1.209030
1.226799
1.249478
1.272624
1.276599
1.258363
1.239192
1.222826
1.193835
1.155727
1.109435
1.063143
1.032282
1.004928
0.982016
0.972665
0.967054
0.967756
0.970094
0.963314
0.945546
0.919828
0.896449
0.886863
0.896449
0.925908
0.977110
1.057302
1.144509
1.218857
1.289464
1.350251
1.398180
1.449382
1.494271
1.521859
1.538225
1.546175
1.543603
1.523497
1.486090
1.444006
1.404729
1.366152
1.319627
1.252293
1.166724
1.072036
0.972673
0.881024
0.819068
0.776751
0.730226
0.689779
0.654008
0.609120
0.564231
0.517004
0.474453
0.449905
0.424421
0.396365
0.379298
0.373220
0.371584
0.358024
0.333475
0.309628
0.297471
0.309161
0.337217
0.375560
0.436114
0.514202
0.592992
0.672483
0.745896
0.806216
0.862327
0.908619
0.943222
0.974083
0.981097
0.949769
0.892255
0.817440
0.730468
0.630169
0.521453
0.409465
0.285786
0.148781
0.004996
-0.135048
-0.273222
-0.420514
-0.571547
-0.729594
-0.909150
-1.099227
-1.279952
-1.456001
-1.632050
-1.792668
-1.933180
-2.060833
-2.170017
-2.259561
-2.332271
-2.385343
-2.427660
-2.466470
-2.492655
-2.500604
-2.503176
-2.521178
-2.550636
-2.575652
-2.590381
-2.576119
-2.537543
-2.494991
-2.430930
-2.348867
-2.263297
-2.166271
-2.071116
-1.968478
-1.844799
-1.710132
-1.554890
-1.392635
-1.229912
-1.053394
-0.886931
-0.724675
-0.550262
-0.384032
-0.225283
-0.084303
0.020672
0.098994
0.148793
0.164692
0.169368
0.187371
0.210283
0.228519
0.259615
0.297958
0.343782
0.407843
0.459512
0.498089
0.546485
0.593245
0.633224
0.654266
0.651227
0.642110
0.624809
0.591376
0.541577
0.476114
0.405508
0.331628
0.252371
0.175452
0.109054
0.056450
0.006885
-0.048057
-0.109312
-0.180152
-0.263851
-0.355032
-0.441303
-0.520560
-0.581815
-0.611039
-0.623664
-0.633016
-0.643069
-0.667150
-0.702920
-0.746406
-0.782645
-0.785684
-0.760667
-0.713206
-0.639794
-0.556094
-0.476836
-0.405294
-0.339363
-0.267821
-0.185992
-0.098317
-0.005967
0.087552
0.175927
0.264303
0.349405
0.433339
0.523351
0.594660
0.648433
0.706649
0.756682
0.797363
0.830796
0.845759
0.852540
0.852306
0.836408
0.807885
0.762061
0.700573
0.621549
0.525926
0.428199
0.335616
0.261970
0.205158
0.157697
0.117484
0.056697
-0.026768
-0.120988
-0.221287
-0.297037
-0.351979
-0.398739
-0.433340
-0.473320
-0.511662
-0.552109
-0.610090
-0.661993
-0.701037
-0.726521
-0.740782
-0.764161
-0.796893
-0.829624
-0.860953
-0.898594
-0.949562
-1.005439
-1.064823
-1.120233
-1.158809
-1.190138
-1.232689
-1.296047
-1.368291
-1.435390
-1.493839
-1.533818
-1.560705
-1.583617
-1.606061
-1.639494
-1.689292
-1.749378
-1.816244
-1.881239
-1.931505
-1.970315
-2.015906
-2.065237
-2.103813
-2.123452
-2.110593
-2.068743
-2.016606
-1.956753
-1.890822
-1.815773
-1.717578
-1.601380
-1.479338
-1.354256
-1.231746
-1.107834
-0.974101
-0.824471
-0.661981
-0.504869
-0.358512
-0.214727
-0.080059
0.040113
0.148128
0.246323
0.340309
0.425178
0.496486
0.559144
0.606372
0.636532
0.664120
0.691708
0.718128
0.746651
0.774006
0.781254
0.770733
0.755069
0.714622
0.654770
0.577150
0.475916
0.389411
0.287709
0.168005
0.065135
-0.060180
-0.159076
-0.244412
-0.374637
-0.454361
-0.528241
-0.643503
-0.720188
-0.807628
-0.907927
-0.981105
-1.069013
-1.160895
-1.249036
-1.337645
-1.413395
-1.468571
-1.493587
-1.504575
-1.497327
-1.458751
-1.407315
-1.342787
-1.260958
-1.163698
-1.044227
-0.906053
-0.753616
-0.595336
-0.453420
-0.334651
-0.224065
-0.119791
-0.030714
0.043166
0.108162
0.177600
0.242128
0.286083
0.317645
0.346637
0.371653
0.390123
0.394799
0.386383
0.379603
0.393865
0.427766
0.452315
0.450912
0.431975
0.403686
0.374929
0.342431
0.296373
0.249147
0.202855
0.155394
0.114948
0.067487
0.013714
-0.026265
-0.061568
-0.101080
-0.134746
-0.151813
-0.162334
-0.193896
-0.239487
-0.277128
-0.307989
-0.318276
-0.288817
-0.220548
-0.129133
-0.030704
0.074973
0.184624
0.296613
0.426838
0.567818
0.694069
0.808162
0.921320
1.040557
1.168211
1.297501
1.433571
1.580864
1.734469
1.891581
2.036068
2.163487
2.277347
2.367125
2.436563
2.494545
2.544812
2.590403
2.629681
2.660542
2.679948
2.682753
2.657737
2.599522
2.522837
2.419732
2.283663
2.132864
1.970141
1.806483
1.654281
1.509327
1.377232
1.245137
1.103924
0.972296
0.840902
0.702261
0.572270
0.459346
0.366061
0.288440
0.232095
0.201001
0.173880
0.136239
0.095325
0.063529
0.047163
0.035006
0.020511
0.018874
0.031500
0.039917
0.041553
0.031734
0.005783
-0.023675
-0.059446
-0.108543
-0.154133
-0.191541
-0.230585
-0.276642
-0.321999
-0.351925
-0.370862
-0.401255
-0.438195
-0.461808
-0.478642
-0.497111
-0.514178
-0.529843
-0.541532
-0.560470
-0.599513
-0.641363
-0.677134
-0.720853
-0.780939
-0.855520
-0.940856
-1.035544
-1.141687
-1.250169
-1.336440
-1.401202
-1.463859
-1.524412
-1.587537
-1.651130
-1.704669
-1.751429
-1.782290
-1.783224
-1.762416
-1.722437
-1.657207
-1.562753
-1.445152
-1.318668
-1.199665
-1.094690
-0.995092
-0.892221
-0.784908
-0.680400
-0.567008
-0.429769
-0.283645
-0.133080
0.008602
0.116616
0.205226
0.259233
0.276768
0.305292
0.330542
0.322827
0.314177
0.311605
0.285654
0.244740
0.212242
0.179511
0.146779
0.116853
0.078979
0.044143
0.014451
-0.031841
-0.098940
-0.171651
-0.231970
-0.272417
-0.278028
-0.250673
-0.217708
-0.180534
-0.140320
-0.109927
-0.082806
-0.062231
-0.055919
-0.064803
-0.075791
-0.076726
-0.082571
-0.101508
-0.118575
-0.124186
-0.120912
-0.123952
-0.131667
-0.138447
-0.152007
-0.159488
-0.149902
-0.129328
-0.099635
-0.070878
-0.052408
-0.027625
0.015394
0.059582
0.092548
0.112187
0.124812
0.140711
0.148894
0.146322
0.134165
0.095823
0.045556
-0.009853
-0.083499
-0.158080
-0.242949
-0.366627
-0.516491
-0.663783
-0.796813
-0.924700
-1.046976
-1.134416
-1.168784
-1.180941
-1.202918
-1.225128
-1.244533
-1.264406
-1.271887
-1.277732
-1.286148
-1.289655
-1.291291
-1.287550
-1.288485
-1.278899
-1.234711
-1.188887
-1.148673
-1.085080
-1.010265
-0.943165
-0.888456
-0.841229
-0.797742
-0.755892
-0.696508
-0.627537
-0.579609
-0.548279
-0.506663
-0.414547
-0.230782
-0.001193
0.125292
0.052581
-0.146848
-0.315416
-0.341133
-0.183086
0.067779
0.135814
-0.082552
-0.270291
-0.203659
-0.059639
0.006292
0.093264
0.222788
0.233543
0.192395
0.251312
0.228868
0.075264
0.072692
0.199644
0.135350
-0.089329
-0.107799
0.085084
0.151249
0.045807
-0.060103
-0.114811
-0.130475
-0.147075
-0.171623
-0.135618
-0.039294
0.024767
0.023365
0.046744
0.180243
0.382478
0.570217
0.706755
0.794663
0.899171
1.063063
1.220876
1.303173
1.277689
1.195393
1.185808
1.232801
1.234672
1.175287
1.050908
0.947336
0.963234
1.004383
0.934244
0.793030
0.792563
0.915307
0.843297
0.612072
0.509903
0.499616
0.473197
0.492603
0.575133
0.590798
0.480914
0.416853
0.445844
0.427141
0.406333
0.482785
0.590566
0.659303
0.681981
0.656264
0.637560
0.677540
0.680813
0.646211
0.699517
0.781347
0.822028
0.847044
0.792570
0.665384
0.575139
0.538199
0.459409
0.269099
0.080191
-0.030629
-0.175349
-0.335033
-0.401898
-0.430655
-0.500093
-0.604366
-0.669595
-0.707236
-0.829512
-0.944073
-0.945943
-0.944540
-0.969556
-0.980310
-0.973296
-0.962073
-0.997844
-1.040161
-1.060268
-1.101416
-1.087388
-0.985919
-0.892868
-0.852187
-0.822027
-0.708401
-0.526273
-0.395346
-0.328714
-0.259977
-0.156872
-0.041610
0.067106
0.172315
0.264899
0.372446
0.531662
0.695788
0.833729
0.960915
1.039237
1.120599
1.229782
1.311144
1.446279
1.543305
1.599183
1.733149
1.854490
2.036151
2.151179
2.300810
2.600070
2.660624
2.878290
3.114659
3.167030
3.617557
3.747549
3.802959
4.159734
4.104324
4.616340
5.089079
4.635278
4.796833
5.219538
5.311888
5.513188
5.486535
5.534230
5.678483
5.566495
5.481860
5.482094
5.527451
5.449363
5.152675
4.929632
4.837984
4.769014
4.660299
4.448245
4.194341
4.018760
3.891107
3.704069
3.517967
3.412758
3.301471
3.117940
2.940021
2.788754
2.582078
2.351554
2.160542
1.983791
1.803534
1.627718
1.457982
1.234706
0.954383
0.716611
0.497076
0.232418
-0.018213
-0.244528
-0.519240
-0.855440
-1.200057
-1.492303
-1.704123
-1.864508
-2.050610
-2.347065
-2.672043
-2.834766
-2.910983
-3.095917
-3.345144
-3.473967
-3.459471
-3.515114
-3.702386
-3.860900
-3.908594
-3.802216
-3.693968
-3.774862
-3.843364
-3.756157
-3.649779
-3.590395
-3.559767
-3.497811
-3.397511
-3.284353
-3.159739
-3.101056
-3.055933
-2.940670
-2.881987
-2.865855
-2.753866
-2.578050
-2.446889
-2.391713
-2.321340
-2.167968
-1.982333
-1.808388
-1.651743
-1.543261
-1.478031
-1.387552
-1.291227
-1.196071
-1.049013
-0.917384
-0.869923
-0.871794
-0.821059
-0.723098
-0.710940
-0.744373
-0.756296
-0.765882
-0.745308
-0.692469
-0.635189
-0.675635
-0.783182
-0.801184
-0.801184
-0.832980
-0.882311
-0.988688
-1.059061
-1.061866
-1.120783
-1.315770
-1.518472
-1.566400
-1.603574
-1.774947
-1.983026
-2.114186
-2.192040
-2.301457
-2.381182
-2.432851
-2.554893
-2.625032
-2.624798
-2.704990
-2.810666
-2.834279
-2.785415
-2.723459
-2.670620
-2.601884
-2.538525
-2.459267
-2.339329
-2.261006
-2.202791
-2.055264
-1.843210
-1.657341
-1.494852
-1.237441
-0.902409
-0.681704
-0.553817
-0.381742
-0.143502
0.169319
0.463436
0.644629
0.769711
0.943890
1.245021
1.513187
1.597588
1.676378
1.824839
1.914384
1.936127
2.033855
2.194474
2.208736
2.161275
2.235389
2.311607
2.294307
2.262510
2.316518
2.355095
2.263680
2.205932
2.192372
2.134625
2.147718
2.184424
2.119662
2.020766
1.972604
1.961616
1.902933
1.808947
1.762422
1.689477
1.558083
1.498465
1.448900
1.250874
1.041392
0.982943
0.935249
0.770422
0.608401
0.523065
0.431884
0.327845
0.248354
0.133326
-0.047166
-0.166168
-0.196562
-0.338242
-0.579053
-0.723540
-0.824540
-0.965052
-1.083353
-1.154427
-1.214513
-1.317851
-1.420254
-1.450881
-1.471689
-1.496939
-1.453920
-1.338891
-1.234851
-1.210536
-1.157932
-0.985623
-0.828277
-0.750188
-0.641005
-0.431055
-0.208246
-0.063759
0.104809
0.333697
0.508344
0.641141
0.813684
1.029245
1.206697
1.320323
1.490528
1.759161
2.014000
2.106584
2.093959
2.228393
2.461723
2.601768
2.674011
2.721239
2.764257
2.766829
2.708614
2.687339
2.670272
2.618837
2.560855
2.447698
2.289651
2.107289
1.940592
1.840995
1.699080
1.457334
1.196182
0.981791
0.849695
0.720172
0.512560
0.299571
0.156721
0.032341
-0.135759
-0.262477
-0.321393
-0.414678
-0.486220
-0.491363
-0.561736
-0.700377
-0.748072
-0.663905
-0.597038
-0.628834
-0.657124
-0.602649
-0.492998
-0.426599
-0.435015
-0.406492
-0.303621
-0.199815
-0.171291
-0.224129
-0.252184
-0.243534
-0.289592
-0.351548
-0.333779
-0.301047
-0.408827
-0.560094
-0.525959
-0.425894
-0.486681
-0.640519
-0.734973
-0.749001
-0.778926
-0.875017
-0.997059
-1.126348
-1.161184
-1.060417
-1.046155
-1.205137
-1.313853
-1.240908
-1.192511
-1.316658
-1.412982
-1.393576
-1.345881
-1.265689
-1.225008
-1.239971
-1.219864
-1.142944
-0.975779
-0.825447
-0.821940
-0.810484
-0.711587
-0.633265
-0.532966
-0.344291
-0.202376
-0.205181
-0.181334
0.018563
0.229215
0.253296
0.219630
0.341205
0.506266
0.552324
0.577107
0.671093
0.789161
0.842935
0.831245
0.880109
0.993501
1.090761
1.128403
1.101282
1.137755
1.228702
1.249510
1.262837
1.260499
1.177969
1.087490
1.063409
1.080710
1.004960
0.897647
0.947213
1.033017
1.023899
0.975269
0.949084
0.995142
1.033719
0.965918
0.839668
0.773503
0.793844
0.705703
0.454371
0.245356
0.147396
0.050370
-0.185765
-0.505132
-0.710406
-0.853022
-1.079103
-1.345398
-1.564700
-1.729059
-1.894587
-2.105706
-2.349323
-2.593407
-2.819488
-3.001850
-3.115241
-3.190524
-3.288251
-3.412865
-3.532335
-3.648999
-3.705812
-3.627957
-3.543322
-3.588211
-3.653908
-3.576988
-3.385742
-3.251075
-3.200574
-3.137449
-3.032240
-2.881674
-2.734615
-2.643200
-2.560202
-2.440264
-2.292270
-2.131417
-1.940171
-1.760380
-1.656340
-1.563523
-1.440779
-1.336973
-1.260988
-1.144557
-0.979730
-0.874988
-0.806953
-0.704316
-0.587885
-0.487819
-0.499041
-0.513069
-0.403885
-0.384012
-0.481739
-0.506989
-0.422822
-0.345435
-0.366009
-0.397805
-0.411365
-0.363904
-0.215910
-0.152550
-0.195569
-0.213805
-0.091762
0.139229
0.218955
0.227605
0.345673
0.491797
0.633244
0.698474
0.746636
0.869146
0.953080
1.011763
1.056886
1.060627
1.055952
1.044496
1.079566
1.076526
0.945366
0.810699
0.736820
0.708063
0.671357
0.573396
0.453458
0.360875
0.333755
0.310843
0.223637
0.158875
0.143678
0.175007
0.263149
0.281386
0.271566
0.402961
0.571295
0.659203
0.754359
0.983247
1.322954
1.541555
1.632736
1.837776
2.122074
2.316360
2.413854
2.494514
2.642508
2.830013
2.957199
3.021728
3.085321
3.182581
3.276334
3.329873
3.396272
3.445136
3.430641
3.473660
3.554788
3.513640
3.384350
3.276336
3.187961
3.057268
2.867659
2.679452
2.544318
2.395389
2.133770
1.856019
1.693297
1.578269
1.376268
1.103894
0.914519
0.778449
0.584164
0.384735
0.213596
0.059290
-0.142243
-0.422566
-0.664312
-0.859533
-1.047272
-1.241323
-1.498967
-1.720841
-1.855040
-2.016126
-2.218828
-2.426206
-2.577940
-2.675200
-2.877902
-3.127597
-3.232338
-3.319310
-3.472214
-3.574149
-3.670006
-3.805140
-3.929520
-4.005270
-4.021402
-4.044080
-4.066291
-4.095515
-4.173837
-4.163549
-4.051794
-4.004567
-4.007372
-3.947286
-3.847688
-3.803734
-3.761417
-3.659013
-3.607110
-3.586769
-3.459583
-3.292184
-3.203809
-3.146996
-3.036176
-2.849605
-2.678231
-2.600844
