EVENT_NAME: 202302060117
EVENT_ID: 13194
EVENT_DATE_YYYYMMDD: 2023/02/06
EVENT_TIME_HHMMSS: 01:17:32.00000
EVENT_LATITUDE_DEGREE: 37.288
EVENT_LONGITUDE_DEGREE: 37.043
EVENT_DEPTH_KM: 8.6
HYPOCENTER_REFERENCE: AFAD
MAGNITUDE_W: 7.7
MAGNITUDE_W_REFERENCE: AFAD
MAGNITUDE_L: 
MAGNITUDE_L_REFERENCE: 
FOCAL_MECHANISM: 
NETWORK: TK
STATION_CODE: 1907
STATION_NAME: 
STATION_LATITUDE_DEGREE: 40.174458
STATION_LONGITUDE_DEGREE: 34.857695
STATION_ELEVATION_M: 925.0
LOCATION: Kahramanmaras_Pazarck_Turkiye
SENSOR_DEPTH_M: 
VS30_M/S: None
SITE_CLASSIFICATION_EC8: unknown
MORPHOLOGIC_CLASSIFICATION: 
EPICENTRAL_DISTANCE_KM: 372.72
EARTHQUAKE_BACKAZIMUTH_DEGREE: 
DATE_TIME_FIRST_SAMPLE_YYYYMMDD_HHMMSS: 2023/02/06 01:17:59.5865390
DATE_TIME_FIRST_SAMPLE_PRECISION: millisecond
SAMPLING_INTERVAL_S: 0.01
NDATA: 21001
DURATION_S: 
STREAM: HNE
UNITS: cm/s^2
INSTRUMENT: sensor = GMS+/GEOSIG | digitizer = 
INSTRUMENT_ANALOG/DIGITAL: 
INSTRUMENTAL_FREQUENCY_HZ: 
INSTRUMENTAL_DAMPING: 
FULL_SCALE_G: 
N_BIT_DIGITAL_CONVERTER: 
PGA_CM/S^2: 5.647
TIME_PGA_S: 
BASELINE_CORRECTION: BASELINE REMOVED
FILTER_TYPE: BUTTERWORTH
FILTER_ORDER: 
LOW_CUT_FREQUENCY_HZ: 
HIGH_CUT_FREQUENCY_HZ: 
LATE/NORMAL_TRIGGERED: 
DATABASE_VERSION: 
HEADER_FORMAT: DYNA 1.2
DATA_TYPE: Acceleration
PROCESSING: Automatic Paolucci et al., 2011
DATA_TIMESTAMP_YYYYMMDD_HHMMSS: 
DATA_LICENSE: U (unknown license)
DATA_CITATION: Turkish Accelerometric Archive v 1.0 - Disaster And Emergency Management Presidency, Earthquake Department
DATA_CREATOR: AFAD
ORIGINAL_DATA_MEDIATOR_CITATION: : AFAD - Disaster And Emergency Management Presidency
ORIGINAL_DATA_MEDIATOR: AFAD PROCESS SERVICE
ORIGINAL_DATA_CREATOR_CITATION: AFAD PROCESS SERVICE
ORIGINAL_DATA_CREATOR: network: TK
USER1: GuestUser
USER2: 
USER3: 
USER4: 
USER5: 
[...]
-0.043922
0.043880
0.144410
0.256111
0.371968
0.482370
0.601344
0.740061
0.867868
0.985283
1.116986
1.248170
1.368702
1.483780
1.596780
1.716274
1.830312
1.932402
2.041505
2.155544
2.265686
2.367256
2.466747
2.565460
2.643910
2.700800
2.749377
2.802110
2.846012
2.865495
2.876666
2.889395
2.896409
2.884980
2.859783
2.835885
2.798479
2.729121
2.644178
2.566768
2.490137
2.406752
2.333498
2.276349
2.222838
2.157896
2.084642
2.010090
1.932679
1.855269
1.773703
1.685382
1.599919
1.527185
1.456788
1.384054
1.324308
1.273134
1.222220
1.179359
1.145070
1.113639
1.073375
1.022202
0.977522
0.936219
0.889462
0.843483
0.804259
0.773867
0.745293
0.717239
0.690223
0.663208
0.634634
0.600605
0.560342
0.521117
0.487608
0.444227
0.392534
0.352790
0.321878
0.287849
0.247066
0.212258
0.185243
0.150174
0.100300
0.039774
-0.022050
-0.089589
-0.159206
-0.223888
-0.277140
-0.322339
-0.380007
-0.438454
-0.486251
-0.540282
-0.610678
-0.690167
-0.770694
-0.856677
-0.949413
-1.034617
-1.113845
-1.202426
-1.289187
-1.369715
-1.457776
-1.548174
-1.631299
-1.718581
-1.812097
-1.896781
-1.975749
-2.050822
-2.103294
-2.132388
-2.153169
-2.168754
-2.167195
-2.144075
-2.115760
-2.090821
-2.060948
-2.026658
-1.987692
-1.939374
-1.884823
-1.817023
-1.731299
-1.635184
-1.527120
-1.401132
-1.269689
-1.143701
-1.028883
-0.925494
-0.820548
-0.732745
-0.654295
-0.567012
-0.496355
-0.424658
-0.343350
-0.262043
-0.162811
-0.055006
0.041888
0.129170
0.233078
0.347896
0.438296
0.520903
0.607406
0.698066
0.797038
0.903283
1.027713
1.171885
1.327226
1.479970
1.637131
1.813773
1.985740
2.147057
2.319284
2.498004
2.662698
2.804791
2.941170
3.078588
3.208473
3.327707
3.425120
3.515780
3.610336
3.697618
3.775290
3.835297
3.884393
3.930113
3.973495
4.016617
4.061557
4.112732
4.160270
4.208328
4.253009
4.291974
4.327823
4.358736
4.389389
4.408353
4.419264
4.425499
4.422642
4.408095
4.372508
4.335621
4.320295
4.308866
4.279773
4.256394
4.250680
4.247823
4.243927
4.234316
4.224965
4.224187
4.217693
4.204965
4.207823
4.214318
4.206525
4.185485
4.163405
4.147819
4.100282
4.017937
3.946501
3.879741
3.797915
3.701282
3.598155
3.516848
3.444633
3.352416
3.253964
3.163046
3.079401
2.992640
2.896786
2.807686
2.728198
2.637799
2.540906
2.458041
2.371279
2.269710
2.168661
2.065793
1.955652
1.847070
1.735630
1.613540
1.499242
1.384685
1.250386
1.107514
0.966461
0.835019
0.689549
0.519402
0.360425
0.206642
0.040132
-0.138328
-0.325101
-0.501223
-0.674228
-0.866975
-1.058423
-1.241559
-1.437683
-1.653030
-1.878508
-2.096193
-2.315956
-2.558059
-2.799903
-3.009795
-3.207478
-3.415811
-3.608558
-3.784940
-3.946515
-4.097440
-4.250182
-4.391755
-4.523977
-4.650223
-4.771534
-4.885312
-4.979607
-5.055199
-5.118582
-5.170015
-5.204564
-5.231839
-5.248464
-5.245086
-5.228201
-5.207678
-5.182221
-5.137280
-5.074156
-5.003758
-4.926087
-4.824777
-4.712557
-4.608389
-4.493052
-4.356673
-4.200812
-4.044171
-3.891687
-3.721538
-3.533206
-3.336041
-3.139137
-2.948726
-2.770265
-2.594142
-2.413862
-2.245272
-2.087073
-1.925237
-1.747036
-1.571432
-1.426221
-1.275036
-1.099172
-0.946948
-0.825116
-0.703804
-0.571321
-0.442476
-0.338049
-0.243493
-0.136468
-0.021650
0.080180
0.179412
0.283320
0.370083
0.446975
0.499708
0.554260
0.643880
0.723110
0.783637
0.836110
0.896637
0.983140
1.067046
1.143418
1.221089
1.278499
1.316685
1.354352
1.394876
1.445532
1.499564
1.546323
1.588146
1.621137
1.646855
1.674910
1.714915
1.756998
1.806355
1.871037
1.934941
1.982739
2.002482
2.018068
2.045345
2.076517
2.102495
2.101716
2.089507
2.090028
2.084054
2.048206
2.007943
1.987681
1.951834
1.891049
1.833381
1.788961
1.758309
1.725319
1.702720
1.702721
1.699864
1.695708
1.694670
1.699346
1.715192
1.722207
1.725584
1.732599
1.730781
1.723248
1.706883
1.688700
1.672855
1.651814
1.631293
1.600122
1.559858
1.505827
1.436989
1.377503
1.319056
1.261647
1.198265
1.131245
1.080851
1.023183
0.957462
0.905249
0.851478
0.782640
0.700814
0.611454
0.527550
0.438969
0.333244
0.225701
0.125431
0.041267
-0.037962
-0.134855
-0.223954
-0.283441
-0.340849
-0.409687
-0.478265
-0.530218
-0.568403
-0.627370
-0.700624
-0.758552
-0.811544
-0.881421
-0.952596
-1.010264
-1.058321
-1.094948
-1.144043
-1.198854
-1.229246
-1.260937
-1.301200
-1.338606
-1.370298
-1.380168
-1.387441
-1.391597
-1.370035
-1.345617
-1.328731
-1.296000
-1.247163
-1.204560
-1.177024
-1.159879
-1.136240
-1.113639
-1.118834
-1.140914
-1.162214
-1.187931
-1.226376
-1.274952
-1.324047
-1.369506
-1.423797
-1.485881
-1.541730
-1.599658
-1.658365
-1.720969
-1.792144
-1.856307
-1.920728
-1.995541
-2.073731
-2.144647
-2.200756
-2.259982
-2.324144
-2.375318
-2.426492
-2.489095
-2.551439
-2.604431
-2.653007
-2.704181
-2.751978
-2.789903
-2.808606
-2.820555
-2.838478
-2.840036
-2.826787
-2.802369
-2.776911
-2.748076
-2.688329
-2.625984
-2.578186
-2.522855
-2.458951
-2.391931
-2.316338
-2.232432
-2.145149
-2.045917
-1.938373
-1.839141
-1.739909
-1.629767
-1.520404
-1.413639
-1.287651
-1.133608
-0.975668
-0.840329
-0.703430
-0.546790
-0.396124
-0.257147
-0.113495
0.041327
0.195370
0.332268
0.456438
0.584504
0.710492
0.827129
0.937271
1.034424
1.135735
1.248474
1.333419
1.407194
1.506945
1.611373
1.699954
1.780223
1.872181
1.970634
2.064670
2.163902
2.254302
2.324440
2.383928
2.434323
2.470431
2.505501
2.544207
2.568625
2.588888
2.610709
2.619022
2.614866
2.611230
2.616166
2.613050
2.599023
2.593828
2.592530
2.581101
2.559540
2.528369
2.486807
2.448362
2.407579
2.348092
2.287827
2.238731
2.171971
2.080014
1.999487
1.938702
1.863369
1.763100
1.677117
1.606980
1.514763
1.423585
1.349552
1.279155
1.209278
1.132388
1.055237
0.986139
0.920159
0.838333
0.738582
0.645586
0.562980
0.465049
0.350232
0.241649
0.124754
-0.017338
-0.174757
-0.341787
-0.518689
-0.711696
-0.917171
-1.115634
-1.307342
-1.508401
-1.713618
-1.904546
-2.077551
-2.253154
-2.434731
-2.599943
-2.747231
-2.898415
-3.053236
-3.192471
-3.330148
-3.474838
-3.608358
-3.732526
-3.856435
-3.974889
-4.080873
-4.176727
-4.268684
-4.356226
-4.435454
-4.518579
-4.607160
-4.695740
-4.791334
-4.881473
-4.963819
-5.036553
-5.091623
-5.152409
-5.216311
-5.263848
-5.306189
-5.350349
-5.388015
-5.413991
-5.429837
-5.438928
-5.438927
-5.425159
-5.401260
-5.369308
-5.323588
-5.263321
-5.187728
-5.100446
-5.005110
-4.889773
-4.755212
-4.613638
-4.464791
-4.301916
-4.123974
-3.941616
-3.749647
-3.545469
-3.335576
-3.110357
-2.874227
-2.640176
-2.397812
-2.139602
-1.884769
-1.642664
-1.392767
-1.141831
-0.916352
-0.701003
-0.473446
-0.257059
-0.062752
0.129737
0.324823
0.518351
0.692136
0.843841
1.000482
1.154005
1.283630
1.402085
1.517682
1.624187
1.729394
1.834081
1.938768
2.049690
2.158533
2.259064
2.367128
2.490778
2.605076
2.708984
2.819646
2.939659
3.058374
3.158645
3.269826
3.391138
3.497124
3.608045
3.719746
3.834564
3.962111
4.086280
4.202397
4.317735
4.448658
4.578803
4.682711
4.777007
4.878577
4.969756
5.041193
5.108993
5.167441
5.217577
5.268492
5.311094
5.350320
5.386428
5.413704
5.419420
5.407991
5.407731
5.399419
5.356299
5.302787
5.258627
5.199141
5.116016
5.019382
4.912618
4.807413
4.688959
4.548685
4.407112
4.263202
4.098249
3.916672
3.731978
3.550401
3.366486
3.169322
2.969821
2.783049
2.596016
2.386904
2.175973
1.981667
1.786322
1.579547
1.364979
1.168595
0.979485
0.772451
0.562299
0.355784
0.147191
-0.072572
-0.306103
-0.536517
-0.746928
-0.953703
-1.170608
-1.377643
-1.569351
-1.754045
-1.941337
-2.121096
-2.275917
-2.421387
-2.561921
-2.694142
-2.815973
-2.918321
-3.024565
-3.144317
-3.254718
-3.350832
-3.440451
-3.529551
-3.611118
-3.670864
-3.719440
-3.762820
-3.791394
-3.808538
-3.828540
-3.851659
-3.856594
-3.850618
-3.858930
-3.873996
-3.878152
-3.872956
-3.862825
-3.850095
-3.826196
-3.789308
-3.750343
-3.705922
-3.662020
-3.618379
-3.566165
-3.522264
-3.478882
-3.427707
-3.383286
-3.336527
-3.277300
-3.208720
-3.136764
-3.062210
-2.976486
-2.887645
-2.798284
-2.699831
-2.592547
-2.483963
-2.373042
-2.248612
-2.126001
-2.007287
-1.874804
-1.745959
-1.628543
-1.515544
-1.402024
-1.284869
-1.167713
-1.049777
-0.929245
-0.795723
-0.651032
-0.507639
-0.357233
-0.189682
-0.018755
0.133470
0.286474
0.463117
0.632226
0.781593
0.941351
1.116435
1.292039
1.451797
1.608697
1.772871
1.923537
2.065371
2.188761
2.294747
2.402552
2.496328
2.576857
2.657645
2.754020
2.850654
2.923649
2.993787
3.068082
3.139518
3.193031
3.224983
3.259013
3.294083
3.322398
3.345778
3.362923
3.385263
3.408383
3.417736
3.427088
3.423971
3.401891
3.376695
3.339029
3.299545
3.255385
3.203691
3.161350
3.118229
3.066016
3.010167
2.950421
2.882882
2.815862
2.734815
2.638182
2.557395
2.473230
2.370103
2.269054
2.181513
2.104882
2.019938
1.935774
1.877587
1.827452
1.757315
1.682503
1.627692
1.577298
1.513395
1.445337
1.384032
1.340652
1.299609
1.244798
1.200379
1.174402
1.152582
1.120891
1.070237
1.025817
0.991009
0.946070
0.900092
0.857490
0.826059
0.810993
0.794368
0.779562
0.788135
0.803202
0.809437
0.829180
0.861392
0.887109
0.901138
0.915425
0.942961
0.960626
0.967381
0.988163
1.014660
1.028168
1.030247
1.028949
1.027650
1.028170
1.017001
0.994661
0.981674
0.972842
0.957516
0.938554
0.927644
0.922190
0.891278
0.858288
0.853353
0.836469
0.804518
0.782438
0.756462
0.730745
0.714640
0.694639
0.678274
0.672819
0.662689
0.658793
0.663210
0.668406
0.681654
0.685811
0.695423
0.717504
0.720102
0.720363
0.740365
0.762706
0.785047
0.808167
0.832066
0.873370
0.914933
0.940391
0.965589
0.991826
1.018323
1.037546
1.043262
1.059628
1.086125
1.094957
1.098595
1.110545
1.128209
1.153927
1.167176
1.159643
1.155747
1.149773
1.120939
1.080936
1.032619
0.989758
0.948196
0.887671
0.842472
0.803767
0.754931
0.716746
0.667650
0.614918
0.576733
0.526598
0.463475
0.406846
0.363985
0.324501
0.280081
0.242675
0.217998
0.195918
0.171241
0.155915
0.145005
0.115392
0.088117
0.071233
0.042139
0.009149
-0.025399
-0.058909
-0.085404
-0.119433
-0.157619
-0.195284
-0.226976
-0.255809
-0.298411
-0.334778
-0.348545
-0.361532
-0.389587
-0.411926
-0.426992
-0.451150
-0.472970
-0.499206
-0.522065
-0.529857
-0.545183
-0.563366
-0.568821
-0.567002
-0.558689
-0.561286
-0.568299
-0.552453
-0.554011
-0.568038
-0.559205
-0.555308
-0.556346
-0.559203
-0.561540
-0.553747
-0.549850
-0.553226
-0.552966
-0.550887
-0.553484
-0.558419
-0.575304
-0.586473
-0.584394
-0.604136
-0.636866
-0.648295
-0.650113
-0.667517
-0.692714
-0.710637
-0.720768
-0.739470
-0.767005
-0.781552
-0.788565
-0.800773
-0.822334
-0.838439
-0.821293
-0.802849
-0.813499
-0.810901
-0.776091
-0.742581
-0.721799
-0.697640
-0.665688
-0.639191
-0.614772
-0.586717
-0.563077
-0.535541
-0.502550
-0.472936
-0.463843
-0.458128
-0.437346
-0.444359
-0.459425
-0.462282
-0.487998
-0.517352
-0.540211
-0.578136
-0.625153
-0.664897
-0.701264
-0.740229
-0.787246
-0.826990
-0.856084
-0.900244
-0.939208
-0.970640
-1.006487
-1.031684
-1.055582
-1.081818
-1.086753
-1.082077
-1.083635
-1.070386
-1.048305
-1.024146
-0.991674
-0.962060
-0.928290
-0.895559
-0.868282
-0.832694
-0.806456
-0.782038
-0.741254
-0.701508
-0.672154
-0.651892
-0.634746
-0.616302
-0.601495
-0.597078
-0.602273
-0.607208
-0.604350
-0.603051
-0.612402
-0.626688
-0.636559
-0.651105
-0.677861
-0.697343
-0.722800
-0.770596
-0.819952
-0.858916
-0.893984
-0.929312
-0.958406
-0.969315
-0.966717
-0.975029
-0.979704
-0.972430
-0.969832
-0.963597
-0.961258
-0.963596
-0.949048
-0.926708
-0.905926
-0.872934
-0.831631
-0.785651
-0.732139
-0.680704
-0.632386
-0.583809
-0.539908
-0.503540
-0.465613
-0.422491
-0.376771
-0.336247
-0.292346
-0.237534
-0.195191
-0.169214
-0.142197
-0.113363
-0.099854
-0.101932
-0.110244
-0.123751
-0.147130
-0.178561
-0.205316
-0.234929
-0.272595
-0.313378
-0.369228
-0.435728
-0.500929
-0.588730
-0.692896
-0.783035
-0.889539
-1.005915
-1.095274
-1.185673
-1.276591
-1.355560
-1.436347
-1.509342
-1.574803
-1.634029
-1.700789
-1.784174
-1.856129
-1.927564
-2.019782
-2.100309
-2.156938
-2.221619
-2.296952
-2.356957
-2.398779
-2.442420
-2.500088
-2.555678
-2.595681
-2.641919
-2.692833
-2.734136
-2.767645
-2.784010
-2.794660
-2.811025
-2.802452
-2.766863
-2.738808
-2.710752
-2.664513
-2.608922
-2.548136
-2.490726
-2.429161
-2.349152
-2.273039
-2.195887
-2.113021
-2.042623
-1.957159
-1.858966
-1.778957
-1.682583
-1.563348
-1.464896
-1.368262
-1.258379
-1.154471
-1.044589
-0.932628
-0.819629
-0.694160
-0.573887
-0.457770
-0.338277
-0.210210
-0.074871
0.049559
0.158402
0.270103
0.394532
0.504415
0.607024
0.738207
0.877443
1.015121
1.144486
1.262161
1.391786
1.518034
1.628695
1.729746
1.837030
1.962759
2.072122
2.164600
2.279937
2.409822
2.529835
2.655563
2.797397
2.934036
3.068076
3.191986
3.309662
3.440585
3.560858
3.673079
3.782701
3.894662
4.024287
4.144560
4.256261
4.379651
4.493170
4.577336
4.669294
4.778137
4.871395
4.951663
5.025178
5.103109
5.184157
5.251957
5.307808
5.357684
5.417431
5.477958
5.511209
5.533549
5.580568
5.623430
5.627327
5.631744
5.646551
5.633304
5.601093
5.584209
5.576416
5.552258
5.509138
5.472251
5.440300
5.386529
5.317431
5.234306
5.142349
5.052989
4.934276
4.794521
4.669314
4.535274
4.374218
4.199395
4.017558
3.824551
3.618556
3.405547
3.192797
2.979009
2.756908
2.539743
2.333228
2.129051
1.936044
1.737582
1.539379
1.372609
1.198565
1.010234
0.852295
0.695396
0.522911
0.346529
0.161575
-0.005196
-0.171706
-0.361856
-0.537199
-0.700073
-0.870999
-1.045563
-1.229738
-1.410276
-1.576527
-1.750571
-1.924355
-2.079695
-2.227243
-2.360244
-2.481035
-2.604944
-2.709110
-2.796651
-2.890687
-2.976669
-3.052261
-3.126295
-3.198509
-3.281635
-3.356967
-3.414375
-3.482433
-3.561662
-3.632578
-3.692324
-3.769994
-3.860912
-3.936504
-4.008979
-4.087688
-4.179645
-4.265108
-4.330829
-4.401485
-4.472661
-4.542538
-4.604362
-4.662550
-4.733206
-4.796849
-4.846204
-4.891663
-4.945174
-4.994790
-5.012193
-5.004400
-5.005698
-5.019725
-5.005957
-4.979720
-4.970887
-4.945169
-4.897891
-4.838923
-4.773721
-4.721507
-4.662799
-4.583309
-4.503560
-4.424590
-4.337827
-4.239634
-4.136505
-4.036234
-3.939860
-3.838550
-3.726589
-3.619564
-3.512280
-3.396163
-3.281085
-3.153019
-3.026771
-2.905199
-2.756871
-2.609062
-2.476580
-2.339682
-2.205122
-2.066405
-1.934182
-1.812870
-1.665841
-1.532320
-1.421658
-1.287617
-1.160071
-1.040057
-0.911991
-0.790939
-0.659236
-0.519480
-0.395830
-0.273219
-0.129826
0.006293
0.134099
0.260347
0.377503
0.522194
0.666885
0.783262
0.905873
1.033939
1.148497
1.247729
1.360469
1.481781
1.591924
1.698169
1.800778
1.899490
1.993267
2.097175
2.182899
2.237191
2.317979
2.400067
2.441370
2.478518
2.513847
2.531512
2.552813
2.578531
2.588143
2.593339
2.605548
2.608926
2.608926
2.611785
2.611785
2.614124
2.615943
2.629711
2.642700
2.647636
2.677250
2.706864
2.716476
2.735959
2.761417
2.769990
2.768432
2.762978
2.764277
2.770512
2.761680
2.763499
2.760902
2.740121
2.740901
2.748435
2.722978
2.700899
2.704796
2.677781
2.635439
2.607385
2.578811
2.538547
2.465034
2.395157
2.332034
2.237219
2.131754
2.028886
1.913030
1.790420
1.664693
1.531693
1.411421
1.279719
1.122820
0.977090
0.834998
0.686931
0.524317
0.354429
0.206622
0.064269
-0.096786
-0.261219
-0.404610
-0.543066
-0.693990
-0.838940
-0.961290
-1.070912
-1.197938
-1.337692
-1.458744
-1.575119
-1.710977
-1.836185
-1.941650
-2.051791
-2.160113
-2.251811
-2.338053
-2.420919
-2.486899
-2.551321
-2.620419
-2.678087
-2.718090
-2.759133
-2.814983
-2.844855
-2.860441
-2.891353
-2.896288
-2.879662
-2.876284
-2.867971
-2.838617
-2.807704
-2.777310
-2.739384
-2.693924
-2.627682
-2.565857
-2.521696
-2.468703
-2.410774
-2.340896
-2.263744
-2.197762
-2.123208
-2.026055
-1.937214
-1.863439
-1.780053
-1.694848
-1.612242
-1.546520
-1.489630
-1.412218
-1.345977
-1.296101
-1.239471
-1.188296
-1.136342
-1.079193
-1.040227
-1.002820
-0.942553
-0.892937
-0.866440
-0.836826
-0.786430
-0.721487
-0.672131
-0.621735
-0.543804
-0.463016
-0.398333
-0.330793
-0.241952
-0.162203
-0.092324
-0.008679
0.084319
0.179654
0.265378
0.360194
0.467999
0.562035
0.650876
0.741536
0.824143
0.905451
0.996110
1.082873
1.165740
1.253022
1.339006
1.416937
1.473827
1.536172
1.621376
1.689696
1.743728
1.806073
1.865560
1.926087
1.975184
2.002460
2.048699
2.096237
2.110265
2.117280
2.127151
2.125853
2.111566
2.100916
2.086630
2.062212
2.032859
2.001168
1.987661
1.964282
1.916226
1.883495
1.858298
1.825568
1.784266
1.736729
1.699842
1.654124
1.597755
1.556192
1.515929
1.474367
1.422414
1.353835
1.294349
1.228888
1.139529
1.053806
0.993281
0.928339
0.828849
0.743386
0.684159
0.605710
0.523364
0.451928
0.367244
0.293731
0.240219
0.173719
0.106180
0.034225
-0.028638
-0.067863
-0.121374
-0.154364
-0.167352
-0.210733
-0.256192
-0.289961
-0.312820
-0.325808
-0.355940
-0.379578
-0.378279
-0.390747
-0.399059
-0.395162
-0.416203
-0.443738
-0.462700
-0.490755
-0.525043
-0.546084
-0.581931
-0.631806
-0.664277
-0.715191
-0.775196
-0.827149
-0.885337
-0.922743
-0.960928
-1.029247
-1.076004
-1.092109
-1.117826
-1.143542
-1.162245
-1.174194
-1.178089
-1.197571
-1.209260
-1.192375
-1.187179
-1.188997
-1.174709
-1.162759
-1.156264
-1.145873
-1.125611
-1.094698
-1.068980
-1.054432
-1.027416
-0.995983
-0.993645
-0.986631
-0.955458
-0.934416
-0.908958
-0.876747
-0.865576
-0.853886
-0.830246
-0.816998
-0.816477
-0.818815
-0.811281
-0.796733
-0.795954
-0.793615
-0.767118
-0.744777
-0.731529
-0.700096
-0.657753
-0.610995
-0.563457
-0.532544
-0.501631
-0.448897
-0.391228
-0.347067
-0.301347
-0.235366
-0.159773
-0.092752
-0.036901
0.028041
0.090906
0.124416
0.172994
0.238975
0.295605
0.353534
0.395617
0.442376
0.501863
0.531737
0.551480
0.587069
0.613566
0.617463
0.619282
0.628374
0.628635
0.619024
0.601100
0.583956
0.569410
0.530705
0.493299
0.465504
0.416409
0.374067
0.328608
0.271460
0.231716
0.182621
0.123394
0.074818
0.029879
-0.004930
-0.034283
-0.061298
-0.091950
-0.124420
-0.146500
-0.165203
-0.189101
-0.217935
-0.235858
-0.247807
-0.274302
-0.295863
-0.301577
-0.326774
-0.377428
-0.402105
-0.406001
-0.438991
-0.478475
-0.491463
-0.494840
-0.517439
-0.554325
-0.570950
-0.580561
-0.611473
-0.647580
-0.673556
-0.701610
-0.730704
-0.757979
-0.787072
-0.802917
-0.816425
-0.837985
-0.847596
-0.849933
-0.857726
-0.868895
-0.879285
-0.875908
-0.860581
-0.853047
-0.851488
-0.836421
-0.807846
-0.786804
-0.773555
-0.749916
-0.714067
-0.679777
-0.669126
-0.666008
-0.635875
-0.610676
-0.611455
-0.606000
-0.589374
-0.575346
-0.579501
-0.592489
-0.588852
-0.581058
-0.576122
-0.571186
-0.565471
-0.548325
-0.532998
