EVENT_NAME: 202302060117
EVENT_ID: 13194
EVENT_DATE_YYYYMMDD: 2023/02/06
EVENT_TIME_HHMMSS: 01:17:32.00000
EVENT_LATITUDE_DEGREE: 37.288
EVENT_LONGITUDE_DEGREE: 37.043
EVENT_DEPTH_KM: 8.6
HYPOCENTER_REFERENCE: AFAD
MAGNITUDE_W: 7.7
MAGNITUDE_W_REFERENCE: AFAD
MAGNITUDE_L: 
MAGNITUDE_L_REFERENCE: 
FOCAL_MECHANISM: 
NETWORK: TK
STATION_CODE: 0511
STATION_NAME: 
STATION_LATITUDE_DEGREE: 40.785226
STATION_LONGITUDE_DEGREE: 35.028318
STATION_ELEVATION_M: 707.0
LOCATION: Kahramanmaras_Pazarck_Turkiye
SENSOR_DEPTH_M: 
VS30_M/S: 415
SITE_CLASSIFICATION_EC8: B
MORPHOLOGIC_CLASSIFICATION: 
EPICENTRAL_DISTANCE_KM: 426.00
EARTHQUAKE_BACKAZIMUTH_DEGREE: 
DATE_TIME_FIRST_SAMPLE_YYYYMMDD_HHMMSS: 2023/02/06 01:18:06.1734160
DATE_TIME_FIRST_SAMPLE_PRECISION: millisecond
SAMPLING_INTERVAL_S: 0.01
NDATA: 21001
DURATION_S: 
STREAM: HNE
UNITS: cm/s^2
INSTRUMENT: sensor = ACEBOX/SARA | digitizer = 
INSTRUMENT_ANALOG/DIGITAL: 
INSTRUMENTAL_FREQUENCY_HZ: 
INSTRUMENTAL_DAMPING: 
FULL_SCALE_G: 
N_BIT_DIGITAL_CONVERTER: 
PGA_CM/S^2: 3.421
TIME_PGA_S: 
BASELINE_CORRECTION: BASELINE REMOVED
FILTER_TYPE: BUTTERWORTH
FILTER_ORDER: 
LOW_CUT_FREQUENCY_HZ: 
HIGH_CUT_FREQUENCY_HZ: 
LATE/NORMAL_TRIGGERED: 
DATABASE_VERSION: 
HEADER_FORMAT: DYNA 1.2
DATA_TYPE: Acceleration
PROCESSING: Automatic Paolucci et al., 2011
DATA_TIMESTAMP_YYYYMMDD_HHMMSS: 
DATA_LICENSE: U (unknown license)
DATA_CITATION: Turkish Accelerometric Archive v 1.0 - Disaster And Emergency Management Presidency, Earthquake Department
DATA_CREATOR: AFAD
ORIGINAL_DATA_MEDIATOR_CITATION: : AFAD - Disaster And Emergency Management Presidency
ORIGINAL_DATA_MEDIATOR: AFAD PROCESS SERVICE
ORIGINAL_DATA_CREATOR_CITATION: AFAD PROCESS SERVICE
ORIGINAL_DATA_CREATOR: network: TK
USER1: GuestUser
USER2: 
USER3: 
USER4: 
USER5: 
[...]
0.331558
0.313322
0.281760
0.290878
0.257680
0.248328
0.258850
0.224716
0.232432
0.229393
0.208819
0.214197
0.182167
0.170945
0.157386
0.111562
0.104548
0.066440
0.032072
0.022955
-0.031286
-0.045781
-0.064250
-0.108437
-0.103527
-0.129244
-0.142337
-0.126438
-0.143271
-0.121761
-0.114045
-0.117084
-0.081312
-0.086689
-0.071258
-0.051151
-0.070322
-0.049981
-0.062606
-0.082478
-0.069619
-0.106558
-0.120352
-0.132509
-0.175994
-0.172721
-0.193762
-0.218778
-0.216205
-0.242390
-0.240286
-0.251274
-0.278861
-0.269509
-0.300837
-0.319307
-0.319072
-0.363961
-0.375650
-0.399965
-0.437605
-0.438073
-0.471037
-0.479687
-0.471270
-0.484596
-0.457709
-0.448824
-0.433861
-0.392712
-0.382658
-0.335664
-0.292178
-0.262719
-0.186734
-0.139740
-0.076381
0.010592
0.061327
0.150404
0.228259
0.289748
0.388645
0.455979
0.533834
0.621742
0.678556
0.763425
0.826784
0.882428
0.958413
0.997224
1.058947
1.116695
1.144985
1.208812
1.244584
1.281524
1.338338
1.356808
1.400529
1.430221
1.443081
1.489841
1.495920
1.518131
1.552032
1.546188
1.580556
1.592481
1.591546
1.628253
1.621941
1.640645
1.667766
1.658882
1.691614
1.695823
1.694187
1.713826
1.686473
1.690448
1.682265
1.639948
1.639248
1.599503
1.563498
1.543626
1.480501
1.456654
1.415039
1.353785
1.333679
1.276399
1.237355
1.212105
1.153657
1.136356
1.097313
1.055230
1.053126
1.015953
1.005432
1.002861
0.977144
0.992575
0.978548
0.967560
0.981120
0.947454
0.942077
0.934596
0.902333
0.910516
0.895086
0.893684
0.914726
0.913557
0.956343
0.982996
0.999129
1.051500
1.065762
1.098260
1.130992
1.125382
1.155308
1.155309
1.147126
1.163726
1.142919
1.153207
1.157649
1.134504
1.145727
1.120009
1.102709
1.102008
1.060860
1.056886
1.036546
0.998905
1.000776
0.962668
0.939055
0.925027
0.876866
0.867748
0.831744
0.787790
0.779842
0.735421
0.715549
0.692637
0.645410
0.639800
0.597717
0.561245
0.554699
0.503966
0.481521
0.456506
0.413955
0.408344
0.371639
0.355040
0.361586
0.341480
0.366263
0.377486
0.386605
0.435937
0.440847
0.470072
0.509350
0.507948
0.548396
0.566398
0.575985
0.613159
0.613159
0.644021
0.669505
0.670207
0.709486
0.707616
0.714630
0.736842
0.709488
0.722347
0.718373
0.695695
0.716504
0.698736
0.700607
0.714869
0.698036
0.719312
0.710428
0.697570
0.711832
0.679101
0.673958
0.666243
0.629303
0.631876
0.605925
0.584650
0.585585
0.561972
0.573429
0.573195
0.571326
0.609201
0.613878
0.645908
0.688460
0.695708
0.745040
0.765381
0.774967
0.817986
0.806998
0.816818
0.834821
0.811208
0.827341
0.819158
0.805365
0.827576
0.816354
0.834123
0.854464
0.857504
0.899822
0.908707
0.927878
0.964585
0.953831
0.971366
0.971834
0.952430
0.959678
0.928116
0.918531
0.909881
0.868967
0.872006
0.843484
0.817299
0.823612
0.778489
0.768437
0.759553
0.713729
0.712327
0.681700
0.652943
0.651073
0.618109
0.622785
0.616473
0.595432
0.618344
0.605252
0.604785
0.621385
0.605487
0.620217
0.613671
0.600112
0.612737
0.584916
0.581643
0.580007
0.556862
0.579540
0.578606
0.591465
0.643135
0.661605
0.719120
0.777570
0.818719
0.902886
0.953621
1.013707
1.090627
1.129438
1.203786
1.261067
1.308995
1.390357
1.429636
1.497204
1.575994
1.619948
1.704350
1.762566
1.817275
1.889752
1.918978
1.977194
2.011796
2.016472
2.059725
2.054115
2.055986
2.069079
2.034244
2.041024
2.022087
1.987486
1.994734
1.954989
1.939559
1.937923
1.900516
1.900516
1.871759
1.842301
1.839964
1.793673
1.778476
1.756967
1.711378
1.706001
1.665554
1.635161
1.622770
1.570400
1.552398
1.518031
1.473610
1.462154
1.409784
1.383833
1.362792
1.306447
1.292186
1.244024
1.191888
1.171548
1.103280
1.063769
1.020750
0.948274
0.920219
0.856860
0.794203
0.757497
0.684553
0.644106
0.590334
0.526040
0.500556
0.436497
0.398622
0.371502
0.306741
0.297623
0.267697
0.224212
0.227251
0.194287
0.182831
0.180026
0.149633
0.157582
0.140048
0.132099
0.144725
0.122047
0.142154
0.141687
0.124620
0.157353
0.140052
0.137715
0.157354
0.133741
0.145198
0.134911
0.117844
0.135613
0.113637
0.123223
0.137018
0.121821
0.151982
0.155489
0.164374
0.203419
0.210667
0.256024
0.286652
0.300446
0.364274
0.385316
0.410567
0.455690
0.458496
0.484916
0.489358
0.484917
0.505024
0.472059
0.469254
0.474164
0.435588
0.442836
0.426471
0.404260
0.408469
0.368490
0.367556
0.361711
0.321031
0.324305
0.293678
0.271234
0.268896
0.222137
0.214890
0.197356
0.161352
0.156676
0.121607
0.112723
0.103138
0.065030
0.074382
0.054042
0.036274
0.048666
0.014298
0.016403
0.022482
-0.001599
0.010092
-0.004403
-0.008143
-0.000661
-0.031288
-0.021936
-0.029885
-0.058174
-0.043210
-0.063316
-0.072901
-0.063081
-0.081317
-0.065418
-0.062612
-0.064248
-0.041336
-0.050921
-0.026372
-0.014447
-0.039697
-0.015148
-0.023096
-0.034318
-0.020991
-0.049748
-0.037356
-0.036420
-0.060033
-0.034081
-0.049044
-0.049511
-0.028469
-0.048809
-0.021688
-0.013738
-0.021920
0.009175
-0.003216
0.007539
0.027413
0.013619
0.033259
0.027882
0.028350
0.043781
0.020869
0.033495
0.023676
-0.003210
0.013390
-0.012795
-0.018873
-0.018873
-0.061189
-0.053474
-0.081295
-0.135068
-0.143484
-0.196789
-0.243314
-0.286333
-0.346652
-0.364654
-0.424505
-0.477811
-0.489032
-0.547481
-0.576472
-0.598682
-0.643804
-0.660871
-0.706928
-0.728437
-0.737789
-0.788055
-0.780339
-0.778468
-0.799275
-0.773557
-0.767712
-0.744799
-0.712535
-0.705053
-0.664138
-0.648940
-0.634211
-0.597270
-0.601010
-0.573188
-0.552613
-0.560796
-0.530168
-0.536480
-0.535778
-0.513800
-0.534374
-0.516839
-0.511695
-0.526190
-0.499303
-0.515200
-0.516603
-0.505614
-0.532967
-0.518238
-0.532265
-0.555177
-0.543019
-0.576685
-0.582296
-0.592816
-0.624846
-0.609181
-0.641444
-0.659446
-0.645184
-0.681188
-0.679551
-0.693345
-0.726543
-0.717191
-0.750624
-0.766755
-0.770729
-0.805331
-0.798082
-0.818422
-0.836190
-0.816317
-0.840398
-0.832214
-0.817251
-0.835253
-0.816315
-0.820289
-0.824730
-0.813508
-0.837354
-0.829872
-0.836886
-0.860499
-0.842730
-0.860732
-0.864706
-0.854886
-0.879668
-0.863301
-0.872419
-0.895564
-0.885043
-0.916839
-0.922917
-0.926424
-0.960324
-0.950270
-0.977858
-1.005679
-0.998898
-1.040514
-1.057113
-1.071140
-1.103404
-1.108079
-1.144785
-1.156474
-1.157876
-1.199024
-1.194582
-1.205803
-1.228715
-1.218427
-1.241573
-1.235961
-1.227778
-1.246014
-1.217957
-1.217723
-1.214216
-1.176340
-1.177508
-1.147348
-1.119760
-1.114615
-1.069960
-1.061309
-1.042371
-0.997481
-0.987661
-0.946045
-0.917988
-0.900687
-0.851355
-0.850887
-0.838262
-0.811608
-0.819791
-0.800151
-0.803658
-0.809268
-0.788694
-0.808098
-0.800149
-0.798979
-0.830541
-0.824696
-0.852751
-0.874026
-0.877533
-0.932474
-0.952347
-0.982038
-1.022719
-1.010794
-1.061762
-1.102208
-1.088647
-1.125353
-1.140549
-1.138679
-1.162759
-1.177488
-1.182865
-1.177253
-1.218635
-1.246690
-1.219101
-1.271471
-1.314256
-1.300695
-1.341843
-1.382991
-1.429516
-1.468560
-1.496615
-1.584288
-1.618656
-1.640866
-1.729475
-1.750048
-1.765245
-1.804990
-1.813172
-1.835850
-1.826498
-1.824861
-1.843798
-1.818547
-1.832574
-1.837484
-1.815974
-1.844497
-1.836313
-1.833741
-1.855016
-1.829532
-1.835610
-1.836778
-1.814333
-1.811060
-1.775054
-1.770845
-1.771313
-1.721513
-1.712161
-1.700003
-1.675454
-1.658386
-1.613964
-1.609054
-1.588011
-1.540784
-1.544290
-1.514364
-1.494491
-1.501972
-1.465966
-1.464329
-1.451704
-1.427388
-1.448663
-1.414295
-1.393486
-1.411956
-1.383899
-1.375248
-1.365195
-1.354673
-1.360284
-1.327084
-1.329655
-1.331759
-1.302534
-1.315860
-1.300896
-1.291544
-1.300428
-1.274476
-1.288737
-1.279151
-1.250393
-1.270499
-1.246418
-1.234961
-1.235428
-1.195682
-1.199656
-1.182121
-1.149155
-1.149856
-1.119228
-1.118058
-1.116655
-1.091638
-1.116420
-1.113381
-1.119225
-1.155697
-1.151722
-1.183985
-1.209936
-1.216716
-1.261838
-1.262539
-1.282879
-1.324027
-1.309531
-1.336651
-1.356056
-1.349509
-1.384578
-1.390189
-1.407957
-1.436713
-1.440220
-1.484874
-1.503811
-1.516670
-1.565065
-1.575820
-1.607615
-1.639879
-1.651335
-1.695054
-1.702535
-1.719368
-1.747657
-1.730356
-1.747656
-1.735966
-1.701129
-1.704636
-1.656941
-1.623741
-1.595451
-1.518765
-1.489306
-1.434129
-1.356274
-1.320035
-1.254104
-1.208045
-1.165494
-1.106576
-1.086236
-1.030591
-0.987338
-0.970271
-0.909015
-0.882128
-0.851734
-0.808013
-0.796089
-0.749329
-0.728755
-0.724312
-0.694853
-0.713790
-0.718933
-0.733662
-0.794215
-0.827647
-0.895916
-0.977978
-1.048818
-1.158936
-1.241934
-1.335452
-1.449778
-1.525294
-1.626528
-1.711864
-1.775690
-1.858453
-1.901705
-1.961323
-2.015096
-2.020941
-2.070037
-2.096222
-2.092247
-2.115860
-2.114457
-2.123808
-2.121470
-2.105337
-2.129652
-2.108142
-2.095516
-2.117727
-2.086164
-2.082890
-2.076811
-2.036831
-2.028647
-1.989603
-1.957104
-1.930217
-1.869663
-1.855401
-1.814252
-1.763284
-1.765855
-1.725408
-1.708106
-1.714652
-1.695013
-1.712781
-1.708572
-1.717690
-1.753928
-1.744108
-1.777540
-1.807699
-1.802088
-1.831078
-1.831545
-1.839026
-1.847676
-1.818451
-1.826634
-1.807228
-1.774496
-1.777067
-1.743634
-1.729839
-1.716980
-1.686586
-1.692196
-1.666478
-1.652683
-1.655956
-1.617847
-1.622990
-1.615040
-1.579502
-1.584178
-1.556355
-1.538119
-1.528766
-1.483409
-1.470082
-1.442260
-1.412333
-1.406722
-1.363001
-1.352947
-1.347569
-1.312032
-1.316006
-1.292392
-1.274155
-1.285611
-1.254515
-1.258255
-1.264801
-1.249838
-1.277192
-1.265735
-1.261994
-1.287009
-1.261291
-1.261758
-1.253107
-1.215933
-1.204477
-1.152807
-1.114230
-1.085940
-1.023515
-1.001538
-0.954077
-0.901706
-0.890483
-0.847931
-0.833669
-0.826421
-0.806080
-0.827589
-0.821042
-0.837641
-0.874347
-0.862189
-0.898427
-0.926015
-0.918299
-0.947990
-0.947522
-0.951263
-0.960614
-0.944949
-0.970666
-0.970666
-0.968795
-1.008072
-1.010410
-1.042440
-1.079847
-1.096212
-1.160038
-1.188561
-1.223162
-1.294236
-1.319486
-1.370687
-1.422122
-1.448073
-1.500677
-1.522653
-1.548838
-1.577127
-1.570814
-1.592323
-1.595128
-1.587412
-1.598400
-1.578994
-1.579461
-1.570810
-1.542520
-1.547663
-1.517737
-1.492019
-1.482666
-1.440582
-1.430529
-1.398030
-1.353374
-1.350802
-1.298431
-1.256113
-1.233902
-1.168672
-1.127056
-1.070009
-1.012494
-0.972748
-0.890918
-0.844392
-0.796697
-0.713465
-0.667172
-0.601241
-0.539986
-0.489719
-0.418644
-0.387548
-0.328397
-0.265038
-0.252412
-0.200275
-0.169647
-0.158658
-0.120548
-0.117976
-0.093895
-0.072852
-0.083840
-0.056953
-0.061395
-0.067005
-0.047600
-0.075655
-0.076590
-0.081499
-0.121010
-0.128024
-0.164262
-0.201902
-0.224113
-0.278119
-0.304070
-0.347556
-0.403433
-0.427046
-0.490405
-0.531553
-0.556802
-0.616654
-0.641202
-0.680713
-0.718354
-0.728641
-0.771191
-0.776568
-0.792232
-0.835484
-0.826365
-0.852316
-0.871955
-0.859329
-0.887385
-0.879903
-0.874992
-0.881772
-0.847637
-0.849273
-0.829166
-0.792226
-0.789887
-0.741724
-0.709694
-0.686547
-0.631604
-0.611030
-0.559828
-0.507456
-0.483842
-0.424925
-0.401311
-0.375359
-0.331171
-0.331170
-0.304049
-0.293060
-0.305919
-0.290254
-0.304047
-0.302176
-0.293525
-0.308488
-0.280432
-0.265702
-0.250505
-0.204914
-0.181534
-0.132436
-0.086611
-0.056217
0.006441
0.044317
0.091545
0.150696
0.181324
0.242112
0.284196
0.318798
0.384262
0.409980
0.457909
0.516593
0.539038
0.599358
0.638870
0.672771
0.737066
0.753432
0.794113
0.837366
0.835730
0.867527
0.869632
0.860748
0.871737
0.839941
0.834798
0.817498
0.774947
0.774714
0.735436
0.706212
0.701303
0.653843
0.636074
0.608487
0.570846
0.554948
0.501877
0.475224
0.444364
0.387785
0.371654
0.318816
0.274629
0.262004
0.205660
0.179475
0.153991
0.118455
0.118689
0.089932
0.084789
0.095077
0.075205
0.102092
0.113549
0.117524
0.162881
0.174104
0.206836
0.250322
0.264585
0.317657
0.348753
0.370496
0.414217
0.421465
0.451392
0.466121
0.451860
0.479449
0.468461
0.457473
0.470098
0.439939
0.441342
0.434796
0.412352
0.423809
0.391545
0.377518
0.377285
0.329591
0.318603
0.285404
0.237476
0.220877
0.160324
0.120813
0.085744
0.022151
-0.001929
-0.054533
-0.101994
-0.120931
-0.174470
-0.189666
-0.208837
-0.247179
-0.242737
-0.268921
-0.282247
-0.273129
-0.295339
-0.285987
-0.285752
-0.293467
-0.274529
-0.281776
-0.265877
-0.254187
-0.263305
-0.233846
-0.237820
-0.239923
-0.216076
-0.234078
-0.220517
-0.208593
-0.220516
-0.196902
-0.201811
-0.190121
-0.161597
-0.163934
-0.118343
-0.089352
-0.069245
0.002765
0.035731
0.091843
0.170633
0.215990
0.305769
0.383858
0.459375
0.565753
0.634022
0.732685
0.834154
0.901254
1.004359
1.083383
1.163108
1.261538
1.322793
1.410935
1.490427
1.547707
1.633278
1.682843
1.742696
1.816109
1.852348
1.914772
1.959895
1.995667
2.060897
2.088252
2.142727
2.205385
2.235078
2.313868
2.368343
2.411830
2.496231
2.540420
2.600272
2.664567
2.698234
2.767439
2.809757
2.847398
2.907485
2.933671
2.985808
3.029528
3.057117
3.112294
3.131699
3.167237
3.206282
3.207217
3.245794
3.257251
3.255849
3.281567
3.266604
3.278295
3.286478
3.267307
3.292558
3.283908
3.279232
3.306353
3.294196
3.313135
3.327163
3.327397
3.365273
3.362000
3.378366
3.409228
3.392629
3.417880
3.420686
3.399177
3.409698
3.375097
3.357562
3.342600
3.285086
3.266617
3.219858
3.160006
3.129379
3.062514
3.009910
2.948656
2.871737
2.824978
2.738707
2.663892
2.604275
2.509120
2.445995
2.362997
2.262699
2.190924
2.088287
2.002484
1.912706
1.799783
1.725670
1.626540
1.536762
1.475508
1.380587
1.323541
1.266495
1.194719
1.167366
1.109852
1.068704
1.049300
0.991085
0.968173
0.927493
0.867407
0.842859
0.770382
0.704920
0.647172
0.543601
0.467617
0.368487
0.258369
0.170462
0.042576
-0.056320
-0.160827
-0.296663
-0.384804
-0.500767
-0.615795
-0.704871
-0.826211
-0.909676
-1.004130
-1.114014
-1.177840
-1.281646
-1.371891
-1.434548
-1.530404
-1.589087
-1.658057
-1.725857
-1.750172
-1.808621
-1.831532
-1.835506
-1.864497
-1.841584
-1.837375
-1.828023
-1.771911
-1.753441
-1.702940
-1.638178
-1.600302
-1.525954
-1.474986
-1.416068
-1.335408
-1.294493
-1.224119
-1.165669
-1.126625
-1.056953
-1.031468
-0.993125
-0.946599
-0.940987
-0.896331
-0.872717
-0.859390
-0.812397
-0.799070
-0.759324
-0.716304
-0.691989
-0.631903
-0.602677
-0.554748
-0.486947
-0.456319
-0.380802
-0.319780
-0.275124
-0.188385
-0.141625
-0.076395
-0.000177
0.040738
0.118593
0.171899
0.222634
0.302125
0.338598
0.397983
0.449887
0.473267
0.530548
0.540835
0.550188
0.580114
0.560242
0.565386
0.560009
0.533357
0.535929
0.502029
0.484261
0.477715
0.439841
0.439140
0.417865
0.393784
0.402669
0.375549
0.375783
0.377654
0.352638
0.369238
0.361757
0.356147
0.369240
0.352173
0.375787
0.387010
0.379763
0.422080
0.432836
0.455748
0.499469
0.505080
0.543891
0.567973
0.575455
0.612629
0.614266
0.635776
0.659624
0.649805
0.681368
0.685577
0.687448
0.725090
0.715738
0.731169
0.752445
0.745432
0.775826
0.776294
0.782607
0.812534
0.809027
0.841993
0.862334
0.871920
0.921720
0.930838
0.963337
1.014773
1.034412
1.098707
1.142427
1.182875
1.256054
1.287149
1.347002
1.402179
1.423922
1.483307
1.508090
1.536614
1.579166
1.575659
1.610963
1.632239
1.629434
1.666608
1.665907
1.675026
1.701212
1.691627
1.705187
1.702616
1.701214
1.716879
1.690226
1.694435
1.697241
1.670823
1.683916
1.664511
1.647211
1.657498
1.623130
1.621261
1.618456
1.582685
1.585257
1.565151
1.548085
1.546215
1.513717
1.512783
1.494547
1.465557
1.467661
1.427449
1.407810
1.394017
1.345621
1.334399
1.294654
1.254208
1.242752
1.190148
1.168406
1.140818
1.095228
1.092423
1.048937
1.022753
1.020883
0.977865
0.979735
0.967812
0.938354
0.949343
0.925730
0.921522
0.924328
0.897910
0.908665
0.891598
0.875233
0.884819
0.858401
0.860973
0.852557
0.824969
0.834555
0.807903
0.794109
0.790837
0.746650
0.744312
0.723037
0.681655
0.677448
0.638170
0.612687
0.593048
0.542315
0.524780
0.485035
0.444589
0.427522
0.375386
0.352241
0.324419
0.279297
0.271114
0.232305
0.209627
0.207055
0.172454
0.180871
0.176663
0.163104
0.188120
0.178769
0.193265
0.217113
0.207995
0.233947
0.229505
0.222492
0.244469
0.221090
0.222494
0.224131
0.199582
0.214780
0.202623
0.196778
0.219691
0.206131
0.225537
0.248216
0.251022
0.285858
0.297782
0.324436
0.359740
0.360909
0.397616
0.416086
0.419827
0.452793
0.448819
0.465186
0.486695
0.477344
0.503530
0.503998
0.504700
0.524573
0.501661
0.507507
0.500026
0.468698
0.475712
0.436668
0.405340
0.394586
0.339410
0.320707
0.291249
0.247997
0.241451
0.199602
0.180197
0.171547
0.129698
0.126192
0.106553
0.086213
0.092526
0.069615
0.075460
0.078032
0.064239
0.083411
0.071254
0.074294
0.091829
0.070788
0.085751
0.088090
0.076868
0.097910
0.082246
0.084818
0.099548
0.080611
0.091834
0.086223
0.080613
0.099551
0.085991
0.101890
0.114983
0.105398
0.142338
0.155431
0.174603
0.218090
0.226507
0.270228
0.308571
0.330315
0.391336
0.419626
0.461944
0.518757
0.543073
0.605263
0.645009
0.672130
0.734788
0.754194
0.790901
0.838128
0.857768
0.913646
0.944741
0.981448
1.045509
1.071227
1.130378
1.185555
1.216884
1.283751
1.318353
1.362775
1.417250
1.435721
1.486689
1.516850
1.536489
1.583950
1.593770
1.623697
1.648948
1.645441
1.681914
1.690799
1.698748
1.729376
1.726805
1.750185
1.761876
1.761175
1.792738
1.780815
1.782686
1.792973
1.759073
1.760476
1.733824
1.691741
1.686598
1.634228
1.597990
1.567830
1.500264
1.472442
1.415162
1.348531
1.308084
1.225320
1.168742
1.105617
1.016073
0.963236
0.879771
0.808930
0.754690
0.664211
0.611373
0.548716
0.482318
0.448886
0.381085
0.345315
0.313519
0.251563
0.232392
0.183295
0.137237
0.120405
0.061956
0.030861
-0.007013
-0.062423
-0.078788
-0.124144
-0.155239
-0.168097
-0.210882
-0.216025
-0.233793
-0.260445
-0.257873
-0.286162
-0.295046
-0.302293
-0.333855
-0.334322
-0.359572
-0.381782
-0.386224
-0.423865
-0.430177
-0.444204
-0.472960
-0.468050
-0.496105
-0.507561
-0.504287
-0.534914
-0.533277
-0.551279
-0.577464
-0.573021
-0.607155
-0.616740
-0.616272
-0.646198
-0.638248
-0.652042
-0.668173
-0.660224
-0.687577
-0.685940
-0.693421
-0.725685
-0.715865
-0.740413
-0.759350
-0.751868
-0.777585
-0.771272
-0.770337
-0.778753
-0.751866
-0.753502
-0.737837
-0.707910
-0.700662
-0.664657
-0.643614
-0.620702
-0.585164
-0.578617
-0.544950
-0.526246
-0.524609
-0.495617
-0.502865
-0.495149
-0.481354
-0.504967
-0.495615
-0.507538
-0.527878
-0.522266
-0.554296
-0.558504
-0.562010
-0.589130
-0.577206
-0.592870
-0.595441
-0.570892
-0.590530
-0.576035
-0.561772
-0.567149
-0.544704
-0.555458
-0.548912
-0.538156
-0.566445
-0.556392
-0.566211
-0.588655
-0.577899
-0.601512
-0.601512
-0.594965
-0.611798
-0.594029
-0.607822
-0.620213
-0.611796
-0.644995
-0.653177
-0.677725
-0.720276
-0.730796
-0.790414
-0.833199
-0.861721
-0.936068
-0.965526
-1.012753
-1.075878
