EVENT_NAME: 202302060117
EVENT_ID: 13194
EVENT_DATE_YYYYMMDD: 2023/02/06
EVENT_TIME_HHMMSS: 01:17:32.00000
EVENT_LATITUDE_DEGREE: 37.288
EVENT_LONGITUDE_DEGREE: 37.043
EVENT_DEPTH_KM: 8.6
HYPOCENTER_REFERENCE: AFAD
MAGNITUDE_W: 7.7
MAGNITUDE_W_REFERENCE: AFAD
MAGNITUDE_L: 
MAGNITUDE_L_REFERENCE: 
FOCAL_MECHANISM: 
NETWORK: TK
STATION_CODE: 3124
STATION_NAME: 
STATION_LATITUDE_DEGREE: 36.2387
STATION_LONGITUDE_DEGREE: 36.1722
STATION_ELEVATION_M: 84.0
LOCATION: Kahramanmaras_Pazarck_Turkiye
SENSOR_DEPTH_M: 
VS30_M/S: 283
SITE_CLASSIFICATION_EC8: C
MORPHOLOGIC_CLASSIFICATION: 
EPICENTRAL_DISTANCE_KM: 140.11
EARTHQUAKE_BACKAZIMUTH_DEGREE: 
DATE_TIME_FIRST_SAMPLE_YYYYMMDD_HHMMSS: 2023/02/06 01:17:36.1852460
DATE_TIME_FIRST_SAMPLE_PRECISION: millisecond
SAMPLING_INTERVAL_S: 0.01
NDATA: 12501
DURATION_S: 
STREAM: HNE
UNITS: cm/s^2
INSTRUMENT: sensor = GMS+/GEOSIG | digitizer = 
INSTRUMENT_ANALOG/DIGITAL: 
INSTRUMENTAL_FREQUENCY_HZ: 
INSTRUMENTAL_DAMPING: 
FULL_SCALE_G: 
N_BIT_DIGITAL_CONVERTER: 
PGA_CM/S^2: 638.321
TIME_PGA_S: 
BASELINE_CORRECTION: BASELINE REMOVED
FILTER_TYPE: BUTTERWORTH
FILTER_ORDER: 
LOW_CUT_FREQUENCY_HZ: 
HIGH_CUT_FREQUENCY_HZ: 
LATE/NORMAL_TRIGGERED: 
DATABASE_VERSION: 
HEADER_FORMAT: DYNA 1.2
DATA_TYPE: Acceleration
PROCESSING: Automatic Paolucci et al., 2011
DATA_TIMESTAMP_YYYYMMDD_HHMMSS: 
DATA_LICENSE: U (unknown license)
DATA_CITATION: Turkish Accelerometric Archive v 1.0 - Disaster And Emergency Management Presidency, Earthquake Department
DATA_CREATOR: AFAD
ORIGINAL_DATA_MEDIATOR_CITATION: : AFAD - Disaster And Emergency Management Presidency
ORIGINAL_DATA_MEDIATOR: AFAD PROCESS SERVICE
ORIGINAL_DATA_CREATOR_CITATION: AFAD PROCESS SERVICE
ORIGINAL_DATA_CREATOR: network: TK
USER1: GuestUser
USER2: 
USER3: 
USER4: 
USER5: 
[...]
10.860271
14.708030
17.312279
18.599246
18.450995
16.989877
15.092868
13.637725
12.669906
11.980558
11.196395
9.579416
6.779454
3.121219
-0.840166
-4.589060
-7.617098
-9.508912
-10.435687
-11.108150
-12.016742
-13.260174
-15.052756
-17.722834
-21.302620
-24.848116
-27.057366
-27.787497
-27.665330
-27.422630
-27.357092
-27.151279
-26.207466
-24.186395
-21.475381
-18.462516
-15.146242
-10.910650
-5.491035
0.102624
4.529665
6.946103
7.875888
8.411606
8.702623
8.954934
9.387264
9.481636
9.675500
10.518003
11.004105
10.174223
8.458533
7.173797
6.903455
7.250581
7.303650
6.334013
4.617283
2.815350
1.528276
0.642544
-0.319041
-1.005012
-0.912977
-0.053329
1.330531
2.807908
3.774321
3.918569
3.754731
3.983663
4.491846
4.781304
4.569150
3.917209
3.018488
1.889873
0.310560
-1.988050
-4.386670
-5.908834
-6.221778
-5.544746
-4.710815
-4.273289
-4.164110
-4.157280
-4.261630
-4.520543
-4.431106
-3.699523
-2.099796
0.384961
3.119354
5.591382
7.575566
9.087751
10.233924
10.926801
10.742702
9.680068
8.155826
6.145299
3.618873
0.716822
-2.575660
-6.121156
-9.206863
-11.304672
-12.507321
-13.196669
-13.707037
-13.902046
-13.932362
-14.142178
-14.475904
-14.758455
-14.551863
-13.461800
-11.867788
-10.972032
-11.461098
-12.777266
-14.157856
-15.296862
-15.920229
-15.531280
-14.125859
-12.328708
-10.943549
-10.277688
-9.951602
-9.549405
-8.399856
-6.114081
-3.005103
0.579771
4.208286
7.282716
9.008430
9.391924
9.242634
9.618335
11.719674
15.250776
19.044763
22.302069
25.294153
28.909679
32.839784
36.708065
40.276573
43.113835
45.526636
48.256353
51.449237
53.844893
54.316708
53.097434
50.681409
47.439062
43.388318
38.189918
32.098957
26.313222
21.828405
18.651780
16.048462
13.456834
11.725817
10.989711
9.956950
8.780278
8.653328
9.577658
10.429773
10.761314
10.774119
10.049183
7.527432
2.431382
-4.375241
-11.509171
-18.609851
-25.368416
-31.178309
-35.395046
-38.197605
-40.235928
-41.678343
-42.357819
-42.159540
-41.850080
-41.888189
-42.296208
-42.473034
-41.757816
-40.407466
-38.308465
-35.873844
-33.047233
-29.150378
-24.517600
-19.895473
-15.562727
-11.448187
-8.094507
-5.980179
-5.330943
-5.876898
-6.842379
-7.590694
-6.981722
-3.853520
0.444936
2.651741
1.851992
-0.668460
-3.262426
-4.967986
-6.021008
-6.358111
-6.123724
-5.853229
-5.319589
-3.622449
-0.888835
1.416682
2.527266
2.655408
2.490792
1.944316
0.565545
-0.648534
-0.879391
-0.632535
-1.115368
-2.840150
-5.019007
-7.687527
-11.873610
-17.496211
-23.268697
-28.054585
-31.428374
-33.483062
-33.953166
-32.346165
-29.971550
-28.393383
-26.835479
-24.562693
-22.114044
-19.634223
-16.695912
-13.361714
-10.559521
-8.763929
-7.024446
-4.148219
-0.457101
2.830599
5.101566
6.260987
6.240542
4.360937
0.273825
-4.472838
-6.627536
-4.356569
-0.526474
1.323410
1.052289
0.098497
-0.698914
-1.178629
-0.408341
2.727135
9.043208
18.007616
26.386507
30.668598
30.238498
27.242152
23.497933
20.223635
18.307144
17.505316
17.123274
17.067760
17.906887
19.018251
19.171590
18.604853
19.280845
22.347222
26.704126
31.046743
34.003758
35.257474
35.779944
36.162399
36.325869
35.267391
33.811209
33.831287
34.956678
35.818924
35.259461
33.042937
29.158964
24.120582
19.665119
16.773718
14.818521
13.504951
14.027681
15.748460
16.429388
15.984482
15.506586
14.858801
13.490420
11.751350
9.538723
6.607059
3.479789
0.803477
-0.666474
-0.567166
0.702916
2.208867
3.562334
5.626526
9.119702
13.226190
15.682372
15.113557
12.079803
7.693439
3.465013
0.134605
-3.356340
-7.827389
-12.157125
-14.958905
-15.808010
-15.268655
-14.948805
-14.905866
-14.157918
-12.688075
-10.788316
-8.854007
-6.815272
-4.528978
-2.061626
0.082834
1.336811
1.779272
1.270982
0.141328
-0.991703
-2.138502
-3.300628
-4.128951
-4.882461
-6.531132
-8.844289
-10.663887
-11.398434
-10.935451
-9.464829
-8.020962
-6.966228
-5.623671
-3.820805
-1.079658
1.984641
3.853488
4.973943
6.309746
6.619206
4.123433
-0.273583
-4.141710
-6.326022
-7.827405
-10.285252
-13.555394
-15.493966
-15.010202
-12.984715
-10.616594
-9.269621
-9.488269
-10.805476
-11.977732
-12.622659
-14.028447
-16.760869
-19.853590
-21.808267
-22.808817
-24.161612
-26.984953
-31.077520
-34.343246
-35.099614
-33.294670
-30.543911
-28.398411
-26.634511
-24.185342
-21.938533
-21.562313
-22.523378
-23.875653
-25.489255
-26.828282
-26.547657
-24.941955
-23.718891
-23.020818
-21.726318
-18.450568
-13.037188
-7.533409
-3.259111
1.065842
6.226987
11.453335
16.133650
19.399009
20.498423
20.347055
20.114119
19.253325
16.937570
14.178651
13.164854
14.217250
15.501619
15.522477
14.379574
13.135362
12.535635
12.665595
13.087275
13.622473
13.918425
13.872782
14.000924
13.187148
9.679578
4.062433
-1.034917
-3.956970
-6.106213
-10.117733
-15.599799
-20.018894
-22.779112
-24.573252
-26.499615
-29.508430
-32.493607
-33.806657
-34.337806
-36.599789
-40.214383
-42.380512
-42.701508
-41.342066
-37.596656
-33.177408
-30.339107
-28.876797
-27.625159
-26.578737
-26.200179
-25.572503
-22.349486
-15.789490
-8.694373
-3.013951
1.562197
4.878730
7.247111
10.082554
14.121502
17.643772
18.864498
19.371901
21.611177
25.258135
29.174733
34.152742
40.822619
48.169192
55.260154
61.425562
65.104212
65.387695
63.988142
63.727411
65.562488
67.747213
68.078234
66.474243
64.160827
61.121099
56.646932
50.404786
43.319952
37.655009
33.804026
30.976529
29.632566
30.255825
32.405222
35.033890
37.026646
37.443130
35.936553
32.831883
29.014670
26.050794
24.743978
24.335959
24.092113
23.669807
22.266877
18.960887
13.935233
8.807231
5.060155
2.699461
0.726600
-1.272758
-2.908700
-3.913665
-3.984505
-3.695048
-4.493238
-5.889414
-5.751141
-3.851642
-2.009551
-1.738797
-3.578656
-7.100513
-11.217499
-15.236812
-19.966849
-26.476037
-34.299651
-41.935193
-47.882504
-52.014555
-55.072207
-57.361466
-58.898436
-59.487513
-59.598098
-60.193410
-61.496849
-62.818472
-63.452489
-63.905967
-64.720003
-65.566251
-66.597453
-68.129748
-69.798161
-71.859343
-75.259109
-78.993716
-80.918260
-80.626984
-78.740213
-76.751094
-76.146797
-75.862794
-74.530628
-73.266521
-72.973946
-72.016625
-68.099767
-60.111048
-48.509476
-35.626210
-24.899796
-18.059511
-13.544928
-7.928149
0.153567
8.495830
15.351961
19.868883
22.441181
26.119052
32.185488
39.511280
46.428197
52.057964
56.929987
60.348869
61.615055
60.910121
59.259112
57.715388
56.115554
54.863029
53.010701
50.016172
47.432597
44.611854
39.785442
33.424321
27.566371
23.717726
23.292563
26.540517
30.655318
32.343626
32.113288
33.806532
37.774303
41.085382
43.394016
45.623420
47.172493
47.178804
46.208127
45.237191
44.804494
45.623099
47.310888
47.699058
44.651017
37.921806
29.078083
19.773792
11.465191
5.571393
1.844060
-1.371791
-4.089666
-4.966566
-5.392509
-7.870878
-11.466510
-14.563386
-16.844592
-18.267524
-20.584058
-25.679849
-31.648201
-34.762742
-34.866572
-35.582157
-39.593157
-45.218874
-49.800584
-53.154372
-55.871208
-57.065025
-55.322685
-52.217083
-48.692476
-43.908253
-39.775789
-38.821585
-40.671576
-43.203717
-46.383979
-50.905683
-56.943133
-64.099922
-70.326483
-74.993137
-79.014268
-82.784723
-85.880561
-88.522065
-90.303996
-89.289526
-85.702055
-80.973683
-74.705926
-66.211179
-56.536306
-46.659333
-38.126660
-32.925250
-29.803023
-26.811719
-24.740253
-24.462225
-24.332525
-22.365486
-17.652959
-9.461621
1.256480
11.260219
18.165706
22.394804
25.472611
28.128035
30.016624
30.862245
31.937761
34.451092
38.677333
44.589987
49.795553
52.265243
53.547793
55.923188
60.098254
65.242255
69.884384
73.169486
77.067380
83.956502
92.312533
98.129592
99.351357
97.870756
96.637195
96.786378
97.735387
97.808198
95.716104
92.565715
89.926809
87.606638
81.749208
70.575107
57.947865
44.962143
33.955852
28.154012
25.032197
19.736645
11.903420
5.186937
-2.542901
-13.090961
-25.304653
-38.188286
-48.685691
-56.427998
-62.381023
-67.976088
-74.388383
-82.478519
-93.242186
-104.494477
-112.866201
-115.846961
-113.785107
-108.331722
-100.639139
-93.232559
-88.604977
-88.102509
-91.167435
-94.371855
-94.303460
-90.614679
-83.647887
-73.835077
-62.944750
-52.901266
-46.214504
-44.161482
-43.517181
-40.799153
-36.148971
-30.504917
-25.762517
-23.519604
-22.483314
-19.478242
-12.183103
-3.478203
1.878288
3.944818
6.969372
14.074621
24.622054
34.926605
41.782996
48.150763
57.125302
65.333265
69.552752
70.534232
71.839382
76.550090
83.996674
89.254972
88.535232
87.275174
90.405714
94.680011
95.120654
89.567412
83.569447
80.580114
76.265705
71.052239
68.444765
67.070669
64.901684
63.765016
64.156822
63.654247
63.773298
65.434590
64.993061
62.121922
59.594457
56.789040
48.660978
35.255471
22.815781
14.720450
10.501895
6.398937
-0.322222
-10.239825
-19.674000
-21.358519
-18.613734
-23.008671
-34.955582
-43.746052
-45.857889
-45.074092
-42.968077
-40.206668
-35.894964
-30.255845
-27.677572
-32.315912
-46.298883
-59.950650
-59.657555
-49.394568
-38.851550
-33.641569
-33.230020
-32.347512
-32.346137
-35.205066
-40.808443
-46.156989
-46.127558
-40.609232
-30.173239
-17.302182
-9.515821
-17.351904
-38.695919
-52.849038
-53.771657
-56.641237
-63.018204
-59.137714
-49.830153
-46.927949
-45.935559
-44.020993
-40.727060
-34.940913
-27.076882
-13.826044
2.516293
13.161399
20.025583
26.394389
22.932019
11.997165
1.058154
-11.683126
-18.562224
-10.958741
1.845037
6.786679
6.260985
-0.012075
-20.844606
-54.127295
-81.161786
-84.653250
-74.384808
-70.739408
-78.081412
-74.546154
-47.852586
-29.278064
-31.059995
-45.044265
-66.961848
-68.476997
-44.129913
-19.084572
-15.986763
-25.699149
-17.032436
-3.017620
-2.503982
-13.657561
-30.948937
-41.592591
-46.906328
-47.113286
-44.328238
-45.947035
-48.870906
-58.579396
-72.327018
-71.925340
-58.599689
-53.520630
-59.123748
-54.657741
-39.549303
-26.543426
-15.365276
-6.102135
-0.787726
7.908341
26.089834
41.249187
38.990322
29.241048
32.275993
44.850656
47.629469
44.708975
50.187037
53.853219
41.044139
21.073517
10.626247
-2.117631
-41.066638
-88.079100
-93.488951
-51.026950
-27.034448
-55.357388
-60.790618
-19.968791
-0.532359
-11.861541
-36.147688
-50.620321
-37.476767
-24.638700
-22.297076
-21.288061
-20.016680
-26.856553
-49.598639
-75.555093
-87.977119
-81.915098
-71.753680
-71.967392
-89.540356
-124.129418
-147.468450
-132.746546
-102.944075
-100.898067
-122.597444
-131.375965
-126.333533
-132.789209
-150.461664
-164.662321
-173.900112
-187.976339
-204.207342
-199.880311
-166.088325
-135.266524
-136.602694
-155.210054
-168.228247
-165.567887
-155.522585
-152.626097
-151.231326
-138.813304
-107.256880
-68.746729
-54.344599
-65.861853
-83.401307
-97.499615
-103.101434
-105.045720
-115.462857
-139.164006
-158.097894
-162.602713
-162.290395
-144.219563
-114.651143
-103.957201
-111.960834
-105.280046
-71.922911
-52.378935
-56.881416
-56.190877
-50.495388
-52.689831
-60.669566
-70.594183
-67.192186
-47.042171
-34.503097
-29.819665
-17.682452
7.897751
33.833057
45.284743
39.113772
31.329903
49.083039
77.627713
100.261109
122.234954
152.863747
180.481310
180.287340
159.664700
125.952355
114.885019
154.677905
199.443788
228.326680
255.283653
261.272939
233.714756
207.142911
179.787347
147.775963
179.833999
254.631391
302.355251
330.500403
353.377980
370.364021
361.314823
342.370544
327.572421
288.214799
267.574756
303.842071
345.060303
341.155288
282.175837
201.437965
161.106993
163.736180
160.722949
149.549887
162.843587
195.483763
197.831882
160.303546
113.559424
87.352553
99.431838
108.565874
93.505645
73.344614
35.136985
-13.193800
-42.697904
-54.957056
-57.259562
-58.614175
-68.342148
-71.061582
-68.778665
-86.829342
-126.436600
-175.089238
-218.379746
-238.456872
-239.507817
-237.224900
-235.205128
-220.497251
-177.005271
-131.895196
-112.274069
-108.330975
-109.432055
-108.138334
-109.911693
-101.575664
-62.805485
-10.579587
48.900849
106.288336
137.953083
147.318313
129.747427
72.741433
-9.475558
-86.233007
-115.637880
-91.908004
-51.224114
-9.977308
19.146909
20.256454
-21.357511
-93.712932
-149.649462
-170.652921
-168.644319
-170.731998
-187.172114
-212.692937
-251.586613
-279.080114
-270.537050
-244.238069
-221.602595
-206.466880
-190.554200
-162.345146
-130.171513
-107.339655
-89.156084
-58.100492
-10.797196
35.180763
70.148979
93.457512
105.674214
110.435317
115.579318
129.411776
150.613851
177.986193
220.975003
279.568852
349.165431
416.909345
451.241389
469.563157
510.908675
561.286584
599.362144
619.110297
621.503096
605.564851
570.707190
532.639316
513.342273
528.169123
539.454297
502.454589
448.577240
410.700035
397.264395
418.411139
434.077300
399.502265
343.504690
300.581234
256.012668
192.180752
128.240773
126.150497
183.341339
218.816102
193.467245
107.562329
5.061880
-98.046167
-219.344463
-307.757698
-309.700166
-244.224026
-197.177901
-205.209069
-233.663971
-261.086036
-281.415137
-304.622987
-338.524443
-383.980636
-430.914908
-454.715808
-452.902552
-443.021163
-420.840803
-375.328607
-349.097685
-386.677714
-470.147306
-583.758290
-638.321427
-549.983631
-450.413471
-415.545525
-385.928009
-356.444013
-334.996458
-322.709879
-312.320904
-297.550163
-277.596274
-249.907794
-212.602706
-170.659981
-133.058238
-106.125943
-97.322851
-94.189714
-82.159265
-58.890737
-27.967368
8.271633
41.742287
50.830344
43.455090
49.747524
71.066235
104.249325
159.501000
230.708660
301.579920
348.521359
363.863848
370.262528
385.431752
405.835040
400.412721
380.586790
391.689348
412.591910
419.868605
437.921253
480.486642
521.454198
515.505849
465.189658
423.557768
422.577740
452.293968
477.013300
475.010826
448.287797
396.913311
326.556544
263.376905
235.184109
226.184006
225.006295
244.679116
273.857364
291.040829
283.355931
264.936644
245.037978
214.596111
178.312843
144.663881
118.295435
92.782145
54.842857
3.789444
-49.116633
-90.344064
-111.820041
-117.403676
-110.721589
-94.840341
-79.544610
-64.210173
-50.034821
-50.517393
-75.588298
-122.274752
-158.064721
-166.528143
-164.488110
-149.825173
-124.921665
-105.092464
-97.036985
-108.210046
-133.296797
-157.467087
-179.445195
-195.123412
-210.122075
-231.552593
-252.088210
-276.733356
-292.235709
-296.158648
-311.323304
-339.255293
-369.361279
-391.589284
-385.351920
-334.353426
-276.864111
-252.685096
-255.928222
-260.240293
-241.105711
-209.290039
-187.563753
-182.561585
-186.888723
-186.237148
-177.351450
-173.025459
-190.256049
-228.820079
-268.002617
-285.833011
-267.327327
-203.999728
-116.839720
-73.557632
-96.456357
-124.343407
-119.425664
-84.895676
-43.912534
-20.756226
-13.705269
-22.143493
-40.240669
-51.128505
-49.074963
-33.693249
-7.087742
20.856090
52.293020
92.387756
132.674720
168.882289
179.411019
143.714826
86.084610
31.312360
-15.850768
-62.890506
-114.561127
-153.185684
-165.340668
-157.735366
-150.084605
-135.150990
-83.654780
-4.765524
71.912848
130.084834
170.665076
204.566425
226.245953
231.583481
236.212102
243.546206
247.820504
250.038739
222.273261
133.371143
-10.351619
-175.808643
-301.487146
-357.975942
-363.854154
-339.640330
-295.067975
-251.975517
-254.568704
-288.929689
-312.293919
-319.476685
-314.216568
-313.951009
-325.715562
-326.706241
-304.375734
-274.795105
-253.542895
-241.380225
-227.150581
-195.774956
-146.713811
-95.575301
-63.603249
-46.604219
-42.992849
-61.188477
-88.681458
-117.723176
-147.690966
-168.172291
-156.811005
-112.224103
-52.031123
0.718467
33.659195
56.421955
69.895674
78.891254
83.874198
91.230643
105.602639
111.048750
109.768430
105.562345
101.619404
96.188252
82.657018
65.845174
44.568958
31.554662
32.040244
34.747362
31.415915
16.845609
15.238761
29.413593
40.708379
61.229862
82.402063
74.938747
43.040362
1.072073
-42.696928
-81.948304
-108.392343
-86.832827
-6.570697
101.521670
194.948838
246.827946
276.410134
303.075128
328.188528
340.103639
339.890966
344.528159
351.638084
365.699918
389.019101
406.679499
406.144194
387.055484
370.817728
352.712240
284.838335
164.872389
42.319414
-32.628231
-9.848846
81.822032
146.254164
159.668656
143.825747
128.180781
134.342033
146.462361
164.118603
179.815936
184.323505
180.781646
150.976470
93.134802
19.136349
-57.636426
-119.798034
-150.236524
-146.768805
-143.754382
-155.433471
-175.492414
-207.607446
-243.932797
-277.224058
-298.845505
-310.677338
-322.925838
-327.659253
-315.810382
-291.008964
-264.256168
-237.977709
-205.215442
-158.738208
-100.953277
-46.534418
-8.320662
1.579170
-19.406625
-57.016268
-91.858603
-88.902108
-45.764451
-0.201860
34.648161
51.624851
61.217637
77.160710
91.628821
103.762657
110.801924
109.364445
92.518052
57.273336
8.922030
-45.860871
-89.522327
-110.103923
-117.409040
-120.763347
-118.376523
-99.824341
-58.417777
-11.720260
20.998625
39.511063
54.099965
75.626490
103.775798
134.717351
172.703291
211.327481
245.593544
275.686695
301.544590
326.932305
345.364734
361.264166
377.454798
387.892349
393.876180
395.056642
396.973805
402.068450
400.245216
389.853016
379.888655
371.901907
363.493296
350.969960
332.649125
310.966373
282.679021
243.556749
193.888679
138.864195
87.036154
48.519661
28.973500
22.765903
22.194490
20.707135
10.980981
-7.324009
-25.171288
-38.288193
-50.080541
-58.071446
-61.874372
-64.087518
-61.040883
-54.954444
-48.648761
-39.006359
-33.828329
-39.168302
-50.880642
-67.424665
-86.828992
-105.583381
-116.954905
-116.305409
-102.001731
-73.172870
-38.088279
-3.393598
26.299510
41.224293
42.168366
33.599997
14.681436
-7.112237
-21.780996
-23.673848
-13.435279
-0.143397
13.005872
29.221701
47.082380
60.456608
58.539338
33.447651
-7.086199
-48.049187
-81.098864
-100.700095
-103.646567
-92.670516
-74.344072
-54.375896
-38.218254
-21.138437
4.716860
31.151180
54.735067
70.482275
78.288637
86.817154
99.335447
123.342496
149.359628
168.732937
185.245681
197.757219
209.701685
225.911539
239.700357
239.890064
225.046222
197.430110
150.747813
74.706804
-13.026099
-90.762093
-151.631875
-186.857628
-203.313070
-205.632981
-197.523730
-189.211859
-180.539171
-164.808068
-137.878891
-114.119401
-107.445107
-104.187021
-90.719797
-68.493977
-39.850850
-0.574903
51.514617
99.555134
138.291543
167.540189
177.504444
169.249355
147.118503
121.525205
90.071022
53.439406
24.010374
-3.757182
-32.867478
-59.443479
-76.288054
-80.741438
-73.852576
-55.058810
-32.796363
-12.816497
0.042352
11.736660
30.520555
53.969363
78.041613
90.670047
91.166800
83.708679
70.256934
57.059501
41.195031
21.921106
2.721995
-15.766131
-32.932818
-50.670734
-70.296644
-90.443388
-110.487265
-127.461983
-137.340101
-140.650508
-140.908640
