EVENT_NAME: 202302060117
EVENT_ID: 13194
EVENT_DATE_YYYYMMDD: 2023/02/06
EVENT_TIME_HHMMSS: 01:17:32.00000
EVENT_LATITUDE_DEGREE: 37.288
EVENT_LONGITUDE_DEGREE: 37.043
EVENT_DEPTH_KM: 8.6
HYPOCENTER_REFERENCE: AFAD
MAGNITUDE_W: 7.7
MAGNITUDE_W_REFERENCE: AFAD
MAGNITUDE_L: 
MAGNITUDE_L_REFERENCE: 
FOCAL_MECHANISM: 
NETWORK: TK
STATION_CODE: 3804
STATION_NAME: 
STATION_LATITUDE_DEGREE: 38.72268
STATION_LONGITUDE_DEGREE: 36.377902
STATION_ELEVATION_M: 1524.0
LOCATION: Kahramanmaras_Pazarck_Turkiye
SENSOR_DEPTH_M: 
VS30_M/S: 637
SITE_CLASSIFICATION_EC8: B
MORPHOLOGIC_CLASSIFICATION: 
EPICENTRAL_DISTANCE_KM: 169.84
EARTHQUAKE_BACKAZIMUTH_DEGREE: 
DATE_TIME_FIRST_SAMPLE_YYYYMMDD_HHMMSS: 2023/02/06 01:17:41.2992630
DATE_TIME_FIRST_SAMPLE_PRECISION: millisecond
SAMPLING_INTERVAL_S: 0.01
NDATA: 13501
DURATION_S: 
STREAM: HNN
UNITS: cm/s^2
INSTRUMENT: sensor = ACEBOX/SARA | digitizer = 
INSTRUMENT_ANALOG/DIGITAL: 
INSTRUMENTAL_FREQUENCY_HZ: 
INSTRUMENTAL_DAMPING: 
FULL_SCALE_G: 
N_BIT_DIGITAL_CONVERTER: 
PGA_CM/S^2: 12.774
TIME_PGA_S: 
BASELINE_CORRECTION: BASELINE REMOVED
FILTER_TYPE: BUTTERWORTH
FILTER_ORDER: 
LOW_CUT_FREQUENCY_HZ: 
HIGH_CUT_FREQUENCY_HZ: 
LATE/NORMAL_TRIGGERED: 
DATABASE_VERSION: 
HEADER_FORMAT: DYNA 1.2
DATA_TYPE: Acceleration
PROCESSING: Automatic Paolucci et al., 2011
DATA_TIMESTAMP_YYYYMMDD_HHMMSS: 
DATA_LICENSE: U (unknown license)
DATA_CITATION: Turkish Accelerometric Archive v 1.0 - Disaster And Emergency Management Presidency, Earthquake Department
DATA_CREATOR: AFAD
ORIGINAL_DATA_MEDIATOR_CITATION: : AFAD - Disaster And Emergency Management Presidency
ORIGINAL_DATA_MEDIATOR: AFAD PROCESS SERVICE
ORIGINAL_DATA_CREATOR_CITATION: AFAD PROCESS SERVICE
ORIGINAL_DATA_CREATOR: network: TK
USER1: GuestUser
USER2: 
USER3: 
USER4: 
USER5: 
[...]
0.091324
0.318807
0.174086
-0.145517
-0.526841
-0.741469
-0.707803
-0.495750
-0.036106
0.624136
1.347737
2.091912
2.866247
3.789512
4.688928
4.990525
4.569221
3.928382
3.450499
3.147964
2.924920
2.730867
2.573987
2.478831
2.527459
2.742551
2.948291
3.150291
3.489296
3.710700
3.602918
3.229776
2.490508
1.600674
1.106426
1.027401
1.125594
1.348402
1.561624
1.520708
1.063399
0.246977
-0.730998
-1.726274
-2.690689
-3.584731
-4.180682
-4.292438
-4.133925
-4.053968
-4.211315
-4.477611
-4.580951
-4.372639
-3.736478
-2.679014
-1.457893
-0.332628
0.504365
1.034850
1.416639
1.886804
2.729408
3.769103
4.579677
5.249037
6.022204
6.894967
7.700631
8.225271
8.488058
8.573860
8.432411
8.029577
7.389439
6.685708
6.164105
5.868116
5.597845
5.247616
5.002595
4.922869
4.826075
4.612851
4.339307
4.110885
3.932497
3.836171
3.935533
4.141040
4.227777
4.091238
3.918928
3.855100
3.530822
2.666472
1.489535
0.373854
-0.290600
-0.388328
-0.173236
0.077393
0.271444
0.607643
1.401617
2.749924
4.280360
5.322860
5.639888
5.541458
5.284046
4.873964
4.280585
3.571477
2.907959
2.426803
2.051089
1.569466
0.797699
-0.266547
-1.198464
-1.593583
-1.565295
-1.459152
-1.502172
-1.590549
-1.498902
-1.156390
-0.606033
-0.128620
0.120373
0.365625
0.755129
1.261767
1.762793
2.165157
2.455064
2.528241
2.296547
1.673476
0.738753
-0.056627
-0.357291
-0.181477
0.128303
0.265540
0.260162
0.040625
-0.549715
-1.438380
-2.352294
-2.805629
-2.663481
-2.342011
-2.097695
-1.981031
-2.013998
-1.999036
-1.742562
-1.388360
-1.099388
-0.676217
-0.021118
0.656659
1.240449
1.620135
1.811146
1.954930
1.882919
1.589268
1.323205
0.964793
0.468206
0.094830
-0.162114
-0.463246
-0.777237
-0.984851
-1.079306
-1.282477
-1.724589
-2.144958
-2.471107
-2.869499
-3.102362
-2.974009
-2.670541
-2.335979
-2.085349
-1.933383
-1.761777
-1.423941
-0.790352
-0.078908
0.573619
1.441707
2.397235
3.024511
3.352060
3.650852
4.053683
4.416769
4.515664
4.432197
4.418869
4.569199
4.842974
5.139662
5.322490
5.398706
5.515838
5.637645
5.496196
4.968982
4.191604
3.291484
2.295973
1.184500
-0.066551
-1.344254
-2.373899
-2.840325
-2.590631
-1.815127
-0.853520
0.123985
0.958640
1.349547
1.283381
1.041166
0.690235
0.195518
-0.365129
-0.843947
-1.067926
-1.064654
-0.973475
-0.716065
-0.110298
0.729033
1.447023
2.097446
3.027256
4.235519
5.389775
6.070357
6.242431
6.347170
6.485811
6.415203
6.081807
5.335758
3.987682
2.345722
0.817388
-0.536066
-1.550046
-1.905653
-1.666713
-1.256868
-0.969065
-0.829022
-0.908982
-1.276045
-1.707636
-1.924134
-1.831084
-1.499794
-1.093924
-0.702548
-0.343905
-0.101926
-0.137932
-0.401890
-0.527675
-0.483722
-0.697882
-1.343631
-2.317866
-3.469319
-4.457581
-4.978716
-5.092110
-5.012152
-4.862991
-4.652575
-4.045171
-2.579965
-0.486779
1.477117
2.845531
3.654468
4.329439
5.163393
5.767290
5.648285
5.024747
4.282205
3.313114
2.168208
1.320925
1.042705
1.229975
1.514271
1.586981
1.440856
1.142763
0.846775
0.657164
0.475970
0.339431
0.358601
0.544702
0.892357
1.307813
1.708073
2.107865
2.573120
3.254170
4.134883
4.940781
5.510310
5.688462
5.110748
3.637590
1.620386
-0.219600
-1.217448
-1.283381
-0.686264
0.193046
0.911972
1.357120
1.635104
1.905606
2.534519
3.667266
4.927665
5.833161
6.364347
6.858125
7.213028
7.047031
6.583176
6.521919
7.164159
7.971694
8.322388
8.296435
8.146804
7.934514
7.822992
7.884245
8.097701
8.496558
8.818963
8.750225
8.433662
8.085537
7.629864
6.886855
5.734935
4.328175
3.079930
2.159002
1.545750
1.365725
1.472335
1.430016
1.037002
0.221516
-0.972956
-2.238268
-3.251313
-3.747900
-3.641523
-3.159435
-2.478852
-1.546470
-0.381226
0.738194
1.561860
2.158743
2.694138
3.137182
3.253612
2.925827
2.405627
1.945746
1.606505
1.377148
1.094486
0.728358
0.520979
0.446630
0.159759
-0.510071
-1.417440
-2.171905
-2.336266
-1.971777
-1.761361
-2.254675
-3.170927
-3.723158
-3.651384
-3.332485
-2.911652
-2.240421
-1.349889
-0.334742
0.714305
1.612552
2.184419
2.314877
2.153555
2.085285
2.149110
2.102116
1.969785
1.901983
1.860365
1.756090
1.793263
2.251972
2.893276
3.319487
3.668545
4.243685
4.767623
4.621733
3.762059
2.641935
1.573012
0.782075
0.342768
0.099384
0.010773
0.141231
0.520215
1.088341
1.572300
1.720760
1.730344
2.034046
2.543722
2.764192
2.596558
2.283969
2.024687
1.937479
1.985172
2.078456
2.277182
2.708303
3.230137
3.445230
3.417874
3.648397
4.240604
4.916043
5.482766
5.856606
5.848422
5.290581
4.421087
3.585261
2.840849
2.077967
1.191640
0.362827
-0.092377
-0.140775
0.061926
0.241247
0.081329
-0.535196
-1.431576
-2.252673
-2.788538
-3.004802
-2.962720
-2.876684
-2.922042
-3.074947
-3.076117
-2.735476
-2.262037
-1.889366
-1.513421
-0.720850
0.652708
2.049645
3.060817
3.942465
4.798629
5.375172
5.618320
5.739191
5.860765
6.056685
6.367634
6.610315
6.778413
7.072295
7.383011
7.467878
7.161836
6.441505
5.510523
4.362109
2.814604
1.053174
-0.555586
-1.825575
-2.748608
-3.389213
-3.667667
-3.548900
-3.401141
-3.458657
-3.539318
-3.662998
-3.947765
-4.282096
-4.568499
-4.686568
-4.603571
-4.571309
-4.717901
-4.941412
-5.180588
-5.339104
-5.134767
-4.311568
-3.141882
-2.261870
-1.794043
-1.387705
-0.940686
-0.459299
0.085448
0.417205
0.377458
0.299134
0.334436
0.280428
0.223380
0.493648
1.091467
1.687414
1.954410
1.825820
1.490553
1.019684
0.429578
0.044980
0.140135
0.518417
0.740757
0.550445
0.091266
-0.341495
-0.642861
-0.968074
-1.509082
-2.115086
-2.462978
-2.500854
-2.390971
-2.403130
-2.760607
-3.428100
-4.129025
-4.403504
-4.165734
-3.952512
-3.938953
-3.757996
-3.403093
-3.063387
-2.513029
-1.491570
-0.040392
1.804267
3.802998
5.270776
5.909509
6.067788
5.892439
5.334130
4.616371
4.011770
3.595142
3.295880
3.140637
3.374901
3.962198
4.436571
4.616126
4.788901
5.103357
5.377834
5.404018
4.992066
4.069968
2.964105
2.157503
1.947786
2.422627
3.244423
3.749424
3.637901
3.184801
2.758821
2.262000
1.190506
-0.512475
-2.185997
-3.249542
-3.620112
-3.515840
-3.270120
-3.020192
-2.467965
-1.240297
0.505466
2.286532
3.938776
5.364003
6.407439
7.256122
7.957746
8.346082
8.624767
8.953952
9.211595
9.292488
9.140284
8.891289
8.755919
8.821848
9.133966
9.533291
9.601091
9.058913
8.057325
6.837369
5.465445
4.187508
3.285049
2.638599
2.171938
2.194615
2.840829
3.762223
4.618153
5.361160
5.952665
6.288631
6.493202
6.704553
6.584848
5.792274
4.634742
3.608605
2.840579
2.205584
1.448314
0.353674
-0.838928
-1.703745
-2.247091
-2.579786
-2.542146
-2.157785
-1.813637
-1.781841
-1.931707
-1.968181
-1.762674
-1.435593
-1.130255
-0.862091
-0.719242
-0.808320
-1.014063
-1.115299
-1.105715
-1.286441
-1.724111
-2.080419
-2.198956
-2.108010
-1.819740
-1.460395
-1.177969
-0.987893
-0.838030
-0.901157
-1.463675
-2.461756
-3.634719
-4.814461
-5.826804
-6.435614
-6.519315
-6.246475
-5.915887
-5.692845
-5.443151
-4.906588
-4.044813
-2.938719
-1.853667
-1.055251
-0.286059
0.643751
1.553689
2.395825
3.088097
3.460769
3.491395
3.265545
2.905029
2.557605
2.531184
2.896140
3.334743
3.828521
4.460240
5.019014
5.265201
4.914972
3.870364
2.483945
1.189642
0.166544
-0.583479
-1.167740
-1.890409
-2.786087
-3.453112
-3.559024
-3.071792
-2.377415
-1.366945
0.206743
1.378534
2.341777
3.908218
4.714349
4.787760
5.412933
5.593423
5.167910
5.183807
5.101743
4.449915
3.745950
3.317866
2.869441
2.272789
2.231406
2.765631
3.122171
3.328612
3.665981
4.208389
4.747524
4.958642
5.194542
5.073901
4.177053
3.602846
2.783151
0.978936
-0.348566
-1.677705
-3.600689
-4.695796
-5.325180
-5.933755
-5.761682
-5.249200
-4.936848
-4.646941
-3.940173
-2.767681
-2.187631
-2.329314
-2.157240
-1.938174
-1.909184
-1.334980
-0.704663
-0.445851
0.206676
0.844239
0.515519
-0.541012
-1.682178
-2.421680
-2.734268
-3.212385
-4.053355
-4.812496
-5.449595
-6.024738
-6.173668
-5.572810
-4.121398
-2.861934
-2.670923
-2.612709
-2.324672
-2.044818
-1.492590
-0.638296
0.278188
0.629584
0.863380
1.306190
0.842803
0.769389
1.975548
1.919903
0.856124
1.023989
0.972318
-0.280135
-0.761525
-0.822080
-1.327551
-1.003977
-0.279908
0.116611
0.338483
0.074057
-0.122334
-0.189669
-0.534989
-0.511377
0.446489
1.726762
2.752663
4.499361
6.257749
6.763685
7.235252
7.294869
6.399658
5.313669
3.886101
2.848975
2.239464
1.171945
0.075668
-0.591357
-1.049601
-1.664489
-2.058205
-2.247349
-2.257871
-1.270079
-0.151594
0.157251
0.188111
0.453469
0.763483
0.893239
1.322256
0.923163
0.049928
0.380516
-0.371611
-1.725766
-1.035831
0.070028
0.396174
0.298913
0.393366
0.501613
0.063709
-0.092937
-0.578535
-0.956586
-0.297279
-0.212412
-0.381449
-0.773529
-2.271703
-3.961123
-5.643997
-6.602567
-6.854368
-7.305365
-6.998156
-6.259125
-5.458604
-4.332170
-4.006024
-3.940796
-3.681283
-3.812211
-3.573972
-3.319135
-3.469468
-3.503370
-3.903398
-4.400920
-4.503792
-4.490701
-4.251995
-3.676154
-2.583855
-1.789413
-2.192247
-2.922865
-3.783708
-4.828315
-5.475935
-6.084043
-6.621310
-6.707817
-6.511896
-6.205155
-6.107429
-5.998014
-5.500261
-5.082466
-4.972349
-4.968376
-5.262494
-5.821037
-6.142977
-6.106740
-5.954306
-6.032863
-6.470767
-7.127037
-8.021780
-8.818797
-9.141672
-9.121801
-8.937336
-8.790513
-8.541520
-8.098242
-7.716920
-7.477045
-7.759707
-8.489624
-8.889886
-8.741894
-8.048920
-7.022785
-6.215484
-5.768699
-5.538410
-5.334307
-4.993432
-4.690665
-4.559740
-4.408942
-4.310749
-4.364991
-4.332962
-4.168838
-3.706856
-2.714388
-1.528803
-0.642479
-0.340415
-0.438845
-0.476254
-0.249705
0.208770
0.647138
0.930733
0.907352
0.420117
-0.142634
-0.666108
-1.234938
-1.631226
-2.037567
-2.289368
-1.834867
-1.053518
-0.598784
-0.477912
-0.654664
-1.420351
-2.562218
-3.374665
-3.745703
-3.709232
-3.157238
-2.375655
-1.360509
-0.114604
0.894229
1.786866
2.808325
3.768295
4.692728
5.375415
5.392948
4.901038
4.176265
3.035333
1.483385
-0.093111
-1.681531
-3.076133
-3.944224
-4.911211
-6.188447
-7.354629
-8.518005
-9.230854
-9.102735
-8.774952
-8.430337
-7.946845
-7.574641
-7.435533
-7.689205
-8.349450
-8.987250
-9.248637
-8.999644
-8.307839
-7.574185
-7.005357
-6.256038
-5.186417
-4.205639
-3.603846
-3.261335
-2.953425
-2.573506
-2.045593
-1.454321
-1.018290
-0.585767
-0.054815
0.368123
0.873124
1.576852
2.038133
1.874941
1.086809
0.290962
0.213574
0.587181
0.740316
0.533638
0.055521
-0.370458
-0.373967
-0.154900
-0.057408
-0.092713
-0.049462
0.017637
-0.265493
-0.602396
-0.430089
0.052467
0.437062
0.499719
0.054567
-1.062985
-2.773681
-4.600106
-6.160471
-7.357280
-8.137229
-8.340401
-8.008644
-7.498265
-6.782146
-5.891613
-5.124058
-4.325408
-3.458723
-2.629913
-1.855110
-1.229704
-0.467994
0.532891
1.656519
2.900553
3.738949
4.060886
4.259846
4.149726
3.819603
3.530862
3.077528
2.593800
2.385018
2.399044
2.534879
2.722383
2.832500
2.754878
2.435042
1.783448
0.775780
-0.413080
-1.644959
-2.933183
-4.192884
-5.095811
-5.465446
-5.577904
-5.791596
-6.210094
-6.548166
-6.500239
-6.285147
-6.269484
-6.665772
-7.456242
-8.113213
-8.174236
-7.920801
-7.892746
-8.043079
-8.025312
-7.810922
-7.393595
-6.862409
-6.336600
-5.578631
-4.652561
-3.748936
-2.716489
-1.595432
-0.438838
0.510143
0.805428
0.725234
0.840729
1.428260
2.413948
3.327392
3.894817
4.107805
4.231015
4.583112
4.785345
4.549676
4.147076
3.606535
2.883399
2.142260
1.361142
0.349968
-0.828138
-1.903607
-2.611312
-2.907769
-2.985391
-2.758609
-2.191418
-1.486287
-0.774843
-0.162295
0.751851
1.972271
2.913537
3.703771
4.101926
3.829785
3.461786
3.150601
2.975252
2.932699
2.764364
2.521915
2.014573
1.197684
0.281431
-0.534756
-0.941097
-1.232176
-1.586147
-1.745130
-1.873486
-1.940821
-1.737886
-1.426002
-1.208104
-1.073906
-0.892948
-0.569374
0.000388
0.470787
0.233949
-0.673186
-1.926107
-3.077326
-3.703670
-3.906841
-3.825715
-3.567370
-3.010700
-1.758484
-0.063221
1.545770
2.813184
3.819914
4.816824
5.291197
4.808405
3.928858
3.193097
2.840763
2.822759
2.802651
2.521392
1.898321
1.209085
0.658023
0.205624
-0.044540
-0.084755
0.023025
0.100176
-0.263614
-1.298869
-2.933581
-4.731250
-6.278989
-7.536118
-8.418237
-8.924877
-9.221333
-9.370731
-9.423336
-9.191177
-8.414036
-7.257676
-5.968987
-4.693858
-3.603429
-2.680633
-1.826573
-1.064395
-0.617610
-0.849304
-1.637202
-2.420191
-2.965875
-3.518807
-4.398821
-5.414672
-6.199063
-6.748488
-6.933423
-6.761115
-6.555609
-6.378860
-6.311995
-6.328596
-6.182942
-5.922727
-5.577877
-5.241912
-5.044588
-4.671215
-4.064746
-3.433028
-2.778864
-2.245106
-1.725610
-1.092021
-0.650146
-0.314648
-0.016791
-0.093011
-0.171100
0.362190
1.276336
1.987546
2.160788
1.858955
1.234714
0.311214
-0.650629
-1.447646
-2.105085
-2.603776
-3.131925
-3.682051
-3.913512
-3.821631
-3.696083
-3.969628
-4.802882
-5.741580
-6.383121
-6.624868
-6.413517
-5.899164
-5.497502
-5.492594
-5.807520
-6.224148
-6.496523
-6.298498
-5.471559
-4.442618
-3.581311
-2.677452
-1.879971
-1.235393
-0.256953
0.807525
1.560117
1.973703
1.857504
1.652229
1.796481
1.879010
1.912441
2.221520
2.945822
4.352345
5.953855
7.084498
8.036285
9.060316
10.187217
11.379816
12.264269
12.722744
12.773945
12.401504
11.768146
11.142036
10.921797
10.992636
10.967619
10.864045
10.538832
10.078016
9.731761
9.104949
8.172097
7.347025
6.624356
6.042200
5.687060
5.533454
5.567587
5.683783
5.731476
5.484585
5.168490
5.254760
5.596102
6.010623
6.306142
6.233196
6.015062
5.700837
5.155386
4.320729
3.150572
1.913549
0.866370
0.204255
-0.004761
0.045971
0.311797
0.676286
1.037268
1.440800
1.733747
1.804820
1.615209
1.152289
0.675575
0.506305
0.531320
0.473804
0.539734
0.777738
0.873126
0.836886
0.651249
0.208202
-0.340287
-0.815832
-1.114159
-1.111121
-0.716473
-0.149516
0.290489
0.662460
1.263551
2.372450
3.741098
4.807446
5.272000
4.893481
3.784579
2.354907
0.980412
0.196488
-0.035440
-0.097164
0.125176
0.493873
0.699613
0.720653
0.561202
0.396608
0.127739
-0.552144
-1.226183
-1.465593
-1.648190
-2.047283
-2.333686
-2.246481
-1.945586
-1.851600
-2.152265
-2.330420
-1.737745
-0.371202
1.207162
2.278186
2.481121
2.264623
2.267895
2.241942
1.805442
1.254380
0.776497
0.431879
0.166517
-0.250812
-0.500041
-0.283547
0.221220
0.880527
1.587295
2.368177
3.293545
4.202547
4.758282
4.745188
4.391919
3.925726
3.230645
2.259918
1.326130
0.743740
0.417825
0.192209
-0.047902
-0.368439
-0.505680
-0.389250
-0.200577
0.150819
0.735311
1.400229
2.018855
2.657354
3.456004
4.235483
4.651641
4.787709
4.873044
4.824880
4.667300
4.560921
4.462491
4.312625
4.111324
4.022714
4.220739
4.263289
3.595796
2.543473
1.646392
0.862468
0.256230
0.024770
-0.065010
-0.195236
-0.467845
-0.907385
-1.066369
-0.867409
-0.816442
-1.245228
-2.077781
-2.634688
-2.503996
-2.067966
-1.643158
-1.456121
-1.569046
-1.843526
-2.335670
-2.975809
-3.719519
-4.403611
-4.500405
-3.947476
-2.858215
-1.171603
0.497942
1.303606
1.396656
1.480587
1.680950
1.802757
1.709003
1.276711
0.973474
1.380046
2.158824
2.611220
2.512556
2.044727
1.420720
0.748084
0.055575
-0.567496
-0.906737
-0.933391
-0.814390
-0.842680
-1.407068
-2.386446
-3.193516
-3.496752
-3.265528
-2.613703
-1.789803
-0.969877
-0.238093
0.400874
1.299355
2.530998
3.519959
4.044365
4.026829
3.444672
3.017056
3.109872
3.396038
3.522755
3.169252
2.546649
1.904874
1.152045
0.521259
0.283953
0.569185
1.283668
2.057068
2.654185
2.745364
2.280340
1.696547
1.090309
0.467940
-0.095513
-0.627169
-1.075828
-1.624551
-2.366158
-3.112907
-3.746499
-3.935643
-3.509899
-2.797754
-2.213730
-2.109691
-2.470208
-2.962353
-3.293879
-3.333626
-3.098193
-2.461798
-1.556303
-0.805815
-0.200048
0.246270
0.488717
0.710355
0.653073
0.201142
-0.447413
-1.351041
-2.125613
-2.402430
-2.482858
-2.440775
-2.239711
-2.196694
-2.553236
-3.253460
-3.916978
-4.157791
-4.050947
-3.850350
-3.741168
-3.902723
-4.112441
-3.977073
-3.360551
-2.225467
-1.018841
-0.231413
0.352144
0.851066
1.075744
1.116189
1.318890
1.810330
2.319072
2.748790
3.146478
3.427033
3.566609
3.359463
2.669994
1.845857
1.393224
1.532332
1.920668
2.156802
2.097650
1.589373
0.842156
0.377365
0.389521
0.779962
1.379183
2.031008
2.621111
3.062519
3.343074
3.611472
4.155049
4.973806
5.694134
6.088549
6.172481
6.019108
5.628432
4.930078
4.168365
3.823980
3.968232
4.265621
4.541266
4.677802
4.447745
4.045846
3.791941
3.531489
3.202769
2.955176
2.802739
2.812791
2.958679
3.033259
2.974341
2.868663
2.841074
2.818861
2.495752
1.950769
1.542091
1.130138
0.424537
-0.528656
-1.575134
-2.428261
-2.884167
-3.016030
-2.899133
-2.839282
-3.218971
-3.821701
-4.193908
-4.247916
-4.070466
-3.717433
-3.416537
-3.378664
-3.311098
-2.897278
-2.405837
-2.249896
-2.539338
-3.005999
-3.183920
-2.993376
-2.813588
-2.824578
-2.673546
-1.908095
-0.669205
0.404859
1.012263
1.347760
1.612417
1.879413
2.078606
2.148043
2.201114
2.190825
2.001214
1.703589
1.292104
0.793647
0.184136
-0.831480
-2.211353
-3.437154
-4.110959
-4.279060
-4.340316
-4.653606
-5.288835
-5.982512
-6.351680
-6.403584
-6.397740
-6.319654
-6.113679
-5.961713
-5.860480
-5.646557
-5.381899
-5.132205
-4.913139
-4.859834
-5.038457
-5.240693
-5.012274
-4.053940
-2.484227
-0.720462
0.754564
1.686946
1.967501
1.676189
1.191759
0.707798
0.262880
-0.013937
-0.181571
-0.471247
-0.875250
-0.976486
-0.596801
-0.170823
-0.007400
0.000781
0.057592
0.272217
0.607949
1.037199
1.512274
1.881438
2.038315
2.134638
2.525546
3.311337
4.265228
5.130511
5.789350
6.369633
6.922095
7.265074
7.285179
6.918350
6.237297
5.614226
5.312159
5.274750
5.497557
6.053058
6.747669
7.240044
7.335900
7.081527
6.690851
6.244530
5.667283
4.932925
4.075121
3.172429
2.295921
1.443028
0.586159
-0.266734
-1.038968
-1.682146
-2.318777
-3.040043
-3.641605
-3.907667
-3.770664
-3.302837
-2.954714
-3.080498
-3.502503
-3.935731
-4.054502
-3.602105
-2.770256
-2.114923
-2.005040
-2.104873
-1.887910
-1.341995
-0.739267
-0.319602
-0.082767
0.035065
-0.131166
-0.689943
-1.565047
-2.435008
-2.956377
-3.278785
-3.572904
-3.725808
-3.766724
-3.716225
-3.535969
-3.262194
-2.787587
-2.064921
-1.298067
-0.611873
0.054681
0.772438
1.499078
2.041019
2.249798
2.316897
2.667825
3.408260
4.161787
4.521600
4.320065
3.558820
2.396612
1.197465
0.397409
0.219020
0.610863
1.413956
2.461366
3.621700
4.716104
5.475944
5.820326
5.932080
5.879006
5.504228
4.777585
3.844732
2.878213
2.094056
1.649606
1.628562
1.909819
2.023911
1.731663
1.226426
0.800446
0.846035
1.473779
2.218188
2.517915
2.165114
1.448991
0.725154
-0.088228
-1.118574
-2.082756
-2.620724
-2.775500
-2.833950
-2.839797
-2.639200
-2.280089
-2.007716
-2.009588
-2.226787
-2.345323
-2.225621
-2.158288
-2.433937
-2.946889
-3.301327
-3.250595
-2.811525
-1.942735
-0.735875
0.354554
1.012458
1.382791
1.713613
