EVENT_NAME: 202302060117
EVENT_ID: 13194
EVENT_DATE_YYYYMMDD: 2023/02/06
EVENT_TIME_HHMMSS: 01:17:32.00000
EVENT_LATITUDE_DEGREE: 37.288
EVENT_LONGITUDE_DEGREE: 37.043
EVENT_DEPTH_KM: 8.6
HYPOCENTER_REFERENCE: AFAD
MAGNITUDE_W: 7.7
MAGNITUDE_W_REFERENCE: AFAD
MAGNITUDE_L: 
MAGNITUDE_L_REFERENCE: 
FOCAL_MECHANISM: 
NETWORK: TK
STATION_CODE: 4615
STATION_NAME: 
STATION_LATITUDE_DEGREE: 37.38676
STATION_LONGITUDE_DEGREE: 37.13803
STATION_ELEVATION_M: 581.0
LOCATION: Kahramanmaras_Pazarck_Turkiye
SENSOR_DEPTH_M: 
VS30_M/S: 484
SITE_CLASSIFICATION_EC8: B
MORPHOLOGIC_CLASSIFICATION: 
EPICENTRAL_DISTANCE_KM: 13.83
EARTHQUAKE_BACKAZIMUTH_DEGREE: 
DATE_TIME_FIRST_SAMPLE_YYYYMMDD_HHMMSS: 2023/02/06 01:17:04.8060700
DATE_TIME_FIRST_SAMPLE_PRECISION: millisecond
SAMPLING_INTERVAL_S: 0.01
NDATA: 10501
DURATION_S: 
STREAM: HNE
UNITS: cm/s^2
INSTRUMENT: sensor = GMS+/GEOSIG | digitizer = 
INSTRUMENT_ANALOG/DIGITAL: 
INSTRUMENTAL_FREQUENCY_HZ: 
INSTRUMENTAL_DAMPING: 
FULL_SCALE_G: 
N_BIT_DIGITAL_CONVERTER: 
PGA_CM/S^2: 582.121
TIME_PGA_S: 
BASELINE_CORRECTION: BASELINE REMOVED
FILTER_TYPE: BUTTERWORTH
FILTER_ORDER: 
LOW_CUT_FREQUENCY_HZ: 
HIGH_CUT_FREQUENCY_HZ: 
LATE/NORMAL_TRIGGERED: 
DATABASE_VERSION: 
HEADER_FORMAT: DYNA 1.2
DATA_TYPE: Acceleration
PROCESSING: Manual Paolucci et al., 2011
DATA_TIMESTAMP_YYYYMMDD_HHMMSS: 
DATA_LICENSE: U (unknown license)
DATA_CITATION: Turkish Accelerometric Archive v 1.0 - Disaster And Emergency Management Presidency, Earthquake Department
DATA_CREATOR: AFAD
ORIGINAL_DATA_MEDIATOR_CITATION: : AFAD - Disaster And Emergency Management Presidency
ORIGINAL_DATA_MEDIATOR: AFAD PROCESS SERVICE
ORIGINAL_DATA_CREATOR_CITATION: AFAD PROCESS SERVICE
ORIGINAL_DATA_CREATOR: network: TK
USER1: GuestUser
USER2: 
USER3: 
USER4: 
USER5: 
[...]
-0.014280
-0.015055
-0.016609
-0.013488
-0.012964
-0.014259
-0.015813
-0.015549
-0.013726
-0.014242
-0.013978
-0.015012
-0.016827
-0.017082
-0.016299
-0.014476
-0.013952
-0.015247
-0.014983
-0.014199
-0.012896
-0.012113
-0.015226
-0.015481
-0.014438
-0.017291
-0.016248
-0.013386
-0.014421
-0.014676
-0.013893
-0.015187
-0.015183
-0.013880
-0.014136
-0.014391
-0.014647
-0.016201
-0.014898
-0.013335
-0.015929
-0.015665
-0.014621
-0.014357
-0.012535
-0.013050
-0.014344
-0.014860
-0.015895
-0.015890
-0.015626
-0.015882
-0.015878
-0.015354
-0.014570
-0.013007
-0.014302
-0.014298
-0.014553
-0.016108
-0.013506
-0.015839
-0.015575
-0.011934
-0.015307
-0.013744
-0.013740
-0.015294
-0.015290
-0.016325
-0.014243
-0.015537
-0.015533
-0.012671
-0.012927
-0.014481
-0.014997
-0.014733
-0.014209
-0.014205
-0.013681
-0.014716
-0.017309
-0.015227
-0.013664
-0.013660
-0.014435
-0.015989
-0.014686
-0.014941
-0.014158
-0.013894
-0.016228
-0.016223
-0.015440
-0.016475
-0.015171
-0.012829
-0.014124
-0.013860
-0.013856
-0.015150
-0.013587
-0.015142
-0.015657
-0.014874
-0.016168
-0.014605
-0.015121
-0.013558
-0.011216
-0.012770
-0.013025
-0.012242
-0.012757
-0.014312
-0.015346
-0.014823
-0.016637
-0.015853
-0.014290
-0.015845
-0.015321
-0.014797
-0.013494
-0.012191
-0.014005
-0.014520
-0.015555
-0.015032
-0.013209
-0.015543
-0.015019
-0.013456
-0.015010
-0.012928
-0.013963
-0.016037
-0.013954
-0.014210
-0.014725
-0.015240
-0.016275
-0.015751
-0.014708
-0.013145
-0.012622
-0.012877
-0.012873
-0.012089
-0.014163
-0.015977
-0.015713
-0.016229
-0.015705
-0.014662
-0.014657
-0.014133
-0.014649
-0.014645
-0.011783
-0.012818
-0.014632
-0.014368
-0.015662
-0.014879
-0.014875
-0.014611
-0.012788
-0.013563
-0.012520
-0.013555
-0.014070
-0.013806
-0.013802
-0.011459
-0.015612
-0.016646
-0.014044
-0.014819
-0.014296
-0.013512
-0.014027
-0.014543
-0.012201
-0.013235
-0.015050
-0.012188
-0.015561
-0.016076
-0.012954
-0.014509
-0.015544
-0.015020
-0.014496
-0.013713
-0.011890
-0.013185
-0.012921
-0.011617
-0.011873
-0.011869
-0.014202
-0.013419
-0.012376
-0.014709
-0.014185
-0.014701
-0.015476
-0.013393
-0.012350
-0.014424
-0.014939
-0.013376
-0.014671
-0.014927
-0.011805
-0.012320
-0.014914
-0.014390
-0.014126
-0.013862
-0.012559
-0.013854
-0.014888
-0.014884
-0.016179
-0.014876
-0.014352
-0.015906
-0.015123
-0.014079
-0.014854
-0.014071
-0.014846
-0.015881
-0.014578
-0.014054
-0.013790
-0.014045
-0.013522
-0.013517
-0.015332
-0.013509
-0.011686
-0.012461
-0.013756
-0.014271
-0.015826
-0.015302
-0.014778
-0.015553
-0.014250
-0.013726
-0.012943
-0.012679
-0.013973
-0.014748
-0.013445
-0.013701
-0.015255
-0.013173
-0.013688
-0.015243
-0.013680
-0.012117
-0.013152
-0.013407
-0.012364
-0.012619
-0.011576
-0.013390
-0.015724
-0.014681
-0.015715
-0.014412
-0.014148
-0.015183
-0.015439
-0.015175
-0.013092
-0.011789
-0.011785
-0.012820
-0.012816
-0.012552
-0.014885
-0.014621
-0.014357
-0.014353
-0.013310
-0.014604
-0.014340
-0.012777
-0.012773
-0.013808
-0.013284
-0.013020
-0.014575
-0.012752
-0.013007
-0.014562
-0.014038
-0.015333
-0.013510
-0.011947
-0.013761
-0.012978
-0.011675
-0.012710
-0.013225
-0.013221
-0.013736
-0.013732
-0.014247
-0.015282
-0.013459
-0.011896
-0.012931
-0.012667
-0.013442
-0.014737
-0.012135
-0.012131
-0.013685
-0.013161
-0.012378
-0.012633
-0.014967
-0.014703
-0.014439
-0.013655
-0.011053
-0.012088
-0.013123
-0.014677
-0.012595
-0.011552
-0.014665
-0.015180
-0.015695
-0.014912
-0.013349
-0.012825
-0.011782
-0.013856
-0.015150
-0.012808
-0.012025
-0.014099
-0.014354
-0.014350
-0.013307
-0.011484
-0.013558
-0.014073
-0.012770
-0.013805
-0.012242
-0.012498
-0.014571
-0.012749
-0.012745
-0.014039
-0.014295
-0.015849
-0.015845
-0.014282
-0.012979
-0.012195
-0.010632
-0.010888
-0.011923
-0.011139
-0.012953
-0.013988
-0.013724
-0.013980
-0.016573
-0.015790
-0.014746
-0.016301
-0.012660
-0.013175
-0.014729
-0.013167
-0.014201
-0.013158
-0.012375
-0.012890
-0.013145
-0.013141
-0.014176
-0.013392
-0.011570
-0.014423
-0.014419
-0.014414
-0.014670
-0.012328
-0.013363
-0.015696
-0.015173
-0.014129
-0.013086
-0.011783
-0.010740
-0.011515
-0.013329
-0.013844
-0.013580
-0.014875
-0.014870
-0.013048
-0.012784
-0.013819
-0.013814
-0.013031
-0.013286
-0.013282
-0.011719
-0.013274
-0.014568
-0.012226
-0.014300
-0.012997
-0.013252
-0.016106
-0.012205
-0.013759
-0.015314
-0.012971
-0.012967
-0.012703
-0.013219
-0.012955
-0.014769
-0.013725
-0.012942
-0.014496
-0.013453
-0.015007
-0.014224
-0.012921
-0.013696
-0.012133
-0.013947
-0.014722
-0.012899
-0.013934
-0.013151
-0.011848
-0.013662
-0.012878
-0.013134
-0.014169
-0.014164
-0.015978
-0.013376
-0.012073
-0.013108
-0.010766
-0.011801
-0.013875
-0.012572
-0.012827
-0.015421
-0.015157
-0.013854
-0.014369
-0.014365
-0.015400
-0.014356
-0.012793
-0.012010
-0.011486
-0.013820
-0.013556
-0.012512
-0.012768
-0.011984
-0.013279
-0.011976
-0.011452
-0.012227
-0.013262
-0.014557
-0.013773
-0.014029
-0.013245
-0.012721
-0.012717
-0.011414
-0.011929
-0.012704
-0.011141
-0.011917
-0.014510
-0.013986
-0.013722
-0.013718
-0.012934
-0.011891
-0.012406
-0.012142
-0.011619
-0.013952
-0.013169
-0.012905
-0.014459
-0.014455
-0.012892
-0.011589
-0.013143
-0.012879
-0.013395
-0.014949
-0.013126
-0.011304
-0.011299
-0.013373
-0.012850
-0.012586
-0.013361
-0.011018
-0.011014
-0.013348
-0.014383
-0.012560
-0.012816
-0.012811
-0.012288
-0.014362
-0.013318
-0.013054
-0.012790
-0.012007
-0.013821
-0.012518
-0.012513
-0.012769
-0.011206
-0.012501
-0.011977
-0.010414
-0.012748
-0.013523
-0.012480
-0.012995
-0.013510
-0.012727
-0.012203
-0.012978
-0.013233
-0.012710
-0.012446
-0.011402
-0.011658
-0.011913
-0.011390
-0.013204
-0.012940
-0.011377
-0.011632
-0.011368
-0.012923
-0.012918
-0.012654
-0.012910
-0.013425
-0.015239
-0.014456
-0.011854
-0.010291
-0.010027
-0.011841
-0.011837
-0.011833
-0.012868
-0.010525
-0.010521
-0.012855
-0.011812
-0.012846
-0.013881
-0.012059
-0.012314
-0.012310
-0.011267
-0.012561
-0.011518
-0.010994
-0.012808
-0.013064
-0.012020
-0.012016
-0.011492
-0.011228
-0.014341
-0.013558
-0.012515
-0.013290
-0.011467
-0.011463
-0.012238
-0.012493
-0.011970
-0.013004
-0.014039
-0.012736
-0.011953
-0.010390
-0.012204
-0.013498
-0.010897
-0.010633
-0.008810
-0.008806
-0.013477
-0.015551
-0.012949
-0.012425
-0.012161
-0.012417
-0.013971
-0.012149
-0.012664
-0.012920
-0.010577
-0.011612
-0.012128
-0.011864
-0.011600
-0.011076
-0.011591
-0.011587
-0.011063
-0.012358
-0.011834
-0.010791
-0.013644
-0.013899
-0.013895
-0.014670
-0.012328
-0.011544
-0.011021
-0.011276
-0.013350
-0.013346
-0.011523
-0.010740
-0.011515
-0.010731
-0.010987
-0.013320
-0.012797
-0.010974
-0.012528
-0.013563
-0.012260
-0.012516
-0.012252
-0.012507
-0.014321
-0.015616
-0.014053
-0.011451
-0.013005
-0.012482
-0.011179
-0.011954
-0.010651
-0.010906
-0.010123
-0.011417
-0.013231
-0.011928
-0.012703
-0.012959
-0.014773
-0.013470
-0.010348
-0.012682
-0.011639
-0.011634
-0.013189
-0.012146
-0.013700
-0.013436
-0.013951
-0.013687
-0.010046
-0.010042
-0.010557
-0.012112
-0.013146
-0.012103
-0.010800
-0.009757
-0.010532
-0.012606
-0.013641
-0.012857
-0.011554
-0.011030
-0.009987
-0.013360
-0.013875
-0.009714
-0.011009
-0.011264
-0.012040
-0.014373
-0.010992
-0.009949
-0.012023
-0.013057
-0.012793
-0.012270
-0.011226
-0.011482
-0.014075
-0.014071
-0.013028
-0.012764
-0.013539
-0.013535
-0.011972
-0.009889
-0.008586
-0.009621
-0.011695
-0.014029
-0.013245
-0.011942
-0.014276
-0.016350
-0.018683
-0.021536
-0.019974
-0.020489
-0.023862
-0.025156
-0.027230
-0.027486
-0.026962
-0.030335
-0.032928
-0.035262
-0.034478
-0.032656
-0.034470
-0.033946
-0.030305
-0.028482
-0.029777
-0.033409
-0.033665
-0.029245
-0.028981
-0.031314
-0.033648
-0.034683
-0.031821
-0.040389
-0.051295
-0.054928
-0.061677
-0.070765
-0.091023
-0.107903
-0.126862
-0.169979
-0.214396
-0.246603
-0.259067
-0.280883
-0.322962
-0.334387
-0.352567
-0.406594
-0.405291
-0.308913
-0.229939
-0.235390
-0.212526
-0.130955
-0.002885
0.083102
0.006735
0.013493
0.201309
0.336133
0.258207
0.203141
0.401867
0.430965
0.361612
0.477472
0.508129
0.617236
0.667635
0.449694
0.502951
0.581145
0.199550
-0.094243
0.106042
0.073316
-0.486999
-0.695069
-0.841314
-1.132770
-1.230178
-1.459809
-1.321608
-0.940265
-1.062351
-1.462649
-1.350166
-1.107538
-1.510434
-1.450683
-0.703846
-0.239377
-0.545119
-1.130632
-0.878133
-0.744089
-1.713539
-1.701065
-0.017246
0.821030
0.269287
-0.335189
-0.616253
-1.037852
-1.188254
-0.472329
-0.305814
-0.924577
-1.369555
-2.075860
-3.313390
-4.056582
-3.125050
-1.400186
-0.267854
-0.343442
-1.931919
-2.600557
-1.132864
-0.142365
-0.092485
-1.213119
-3.588693
-5.235098
-5.814376
-5.295615
-4.045348
-1.001903
2.664986
3.313890
4.044881
6.006133
6.032374
4.841602
4.892261
6.147984
6.416588
6.695843
8.276275
7.963259
6.349325
6.300753
4.846316
2.181361
-3.414295
-16.443990
-29.751637
-35.170651
-30.959030
-20.782098
-9.936783
-0.099887
7.166086
11.721900
13.113741
11.241858
9.838076
11.597488
13.629657
14.863559
16.381127
14.355202
9.896809
5.135527
-0.063204
-0.483245
1.026790
-4.260002
-13.713732
-20.798638
-24.347843
-22.427115
-13.041436
-2.117411
1.918348
2.692980
5.133504
7.065402
10.591756
11.557318
6.117002
1.042700
-1.429247
-2.406230
-4.552688
-7.608334
-7.399996
-6.806163
-5.980096
-0.066995
4.011366
-0.500799
-6.110223
-7.438672
-3.334854
6.355533
14.158706
15.132320
12.515942
8.273936
3.567984
0.151001
-2.743588
-6.669197
-10.410370
-6.930775
1.512466
5.378597
4.512535
-1.116113
-5.612951
-1.093764
7.392339
11.968934
10.346168
7.145572
3.489602
-0.941774
-0.566665
0.496050
-5.082462
-11.220255
-11.572236
-9.013258
-9.007799
-12.775208
-17.651048
-21.991246
-20.039865
-11.795347
-8.965691
-9.836688
-10.183994
-13.345625
-13.654744
-12.560858
-11.170056
-9.771201
-7.728382
2.630647
10.653324
14.008751
5.089883
-13.783291
-15.509965
0.992317
17.233011
8.392334
6.901010
9.477393
-22.501593
-34.196600
-20.715940
-8.286820
4.015014
0.222147
-14.531887
-27.252718
-32.462360
-39.058383
-37.167788
-27.528575
-24.018846
-7.184582
10.454184
8.192129
-9.945123
-27.232934
-8.564708
23.937979
29.607937
28.062323
15.940257
-15.916898
-24.597299
2.618331
26.903259
33.235107
24.573669
-13.890683
-56.225317
-71.743069
-63.429452
-27.717853
10.287758
25.124666
20.336369
-1.796374
-13.732706
11.328149
41.608261
63.377857
65.811886
23.773388
-14.081548
-15.304532
-0.011210
16.633423
33.684334
30.228386
-13.190779
-49.912607
-48.902625
-27.116145
-13.107117
-4.805709
5.037422
-14.336326
-30.787424
-13.775218
-0.146230
17.109118
41.451714
50.685429
49.500372
39.671538
22.005764
-2.481255
-27.733810
-47.691775
-62.509193
-62.530230
-48.217013
-24.719182
5.495209
31.454601
45.951734
50.242844
40.754305
18.121510
2.652074
-2.411837
-4.268914
-1.294307
1.799014
-3.986274
-28.806575
-61.829828
-87.614128
-62.476641
5.993771
19.643281
-4.835945
-11.554318
-26.500841
-54.190798
-61.443255
-41.887402
-26.606290
-13.149008
17.902874
54.548080
72.447393
78.812490
56.691438
-24.397713
-96.803082
-118.641507
-104.837436
-68.801646
-36.647308
-12.079493
-26.536612
-72.245112
-84.742023
-72.894524
-56.951523
-31.247742
-17.721622
-36.631944
-72.294698
-90.840565
-92.545937
-102.569338
-103.666853
-72.391570
-27.615889
15.896282
37.322204
34.408651
25.650060
-11.520647
-56.736627
-71.174784
-51.557106
4.236892
60.815909
88.184802
79.838462
46.045257
10.317041
-28.834397
-55.700110
-65.515177
-69.696657
-55.842710
-50.945561
-72.696705
-92.747147
-99.641643
-90.240378
-62.446505
-21.494607
27.064854
59.080216
58.264289
49.844695
49.915356
29.114184
-27.467421
-90.848193
-149.279606
-148.861635
-96.359936
-74.615798
-46.226277
-19.262102
-31.696929
-48.845504
-50.643094
-28.554504
-6.491111
-11.384095
-24.183376
-22.220565
-23.604864
-21.440474
-2.408832
16.165617
17.192225
-5.076896
-44.416925
-112.940582
-156.420533
-107.752229
-20.378764
31.460787
55.933267
73.985324
75.593811
84.456577
107.399285
137.946957
170.991260
173.325539
147.604103
95.470763
20.088713
-53.224544
-106.634903
-113.754618
-91.077914
-49.596349
23.041521
67.934617
64.838448
51.424816
17.408730
-27.439159
-37.712976
-10.702822
28.880878
76.756890
125.284399
153.527151
168.300937
178.890900
169.154283
143.221396
117.089786
92.006859
67.045764
42.137661
29.139917
41.976613
80.621252
121.763820
135.530745
119.917917
89.773413
65.439917
59.773084
71.542913
83.187793
83.506793
95.150374
121.783085
139.797735
140.409233
142.248914
159.258002
173.432762
172.754513
164.741975
159.866395
156.367326
156.614369
165.049298
180.202864
199.076047
199.070076
181.046083
156.872344
135.407985
137.649526
158.504739
182.676927
195.344774
199.059979
216.802133
247.127184
290.630783
351.700667
408.881046
466.391071
523.334542
547.631679
548.639063
531.601929
512.491586
506.082856
492.443486
493.189024
509.532587
545.061050
545.223149
538.575433
582.120594
459.871215
202.098054
88.720010
44.080456
-142.456808
-284.854565
-279.158890
-324.133026
-356.932618
-333.432189
-320.820192
-304.582875
-307.483439
-323.423054
-342.863302
-372.465152
-357.954771
-298.921467
-283.948700
-315.331518
-339.965566
-333.024562
-286.715211
-247.829507
-212.733817
-97.849371
58.879791
154.213065
177.599196
161.468651
81.926159
-54.647342
-140.414653
-177.924358
-216.799922
-257.405801
-297.317060
-308.236140
-315.859026
-312.686476
-349.371417
-385.676578
-306.462684
-178.939489
-18.613060
69.776097
106.238166
222.557311
287.705812
249.465640
169.914055
92.773117
165.261880
66.405123
-163.486628
-52.769638
-138.134309
-239.583810
-102.171250
-180.535175
-274.045908
-225.784661
-150.431177
-206.962648
-271.777338
-261.017487
-194.691718
-222.346347
-263.334604
-147.173658
-135.204587
-163.891014
-289.971709
-392.228829
-363.586034
-410.795732
-309.244394
-198.955762
-288.641672
-267.571632
-251.154035
-311.574231
-253.070854
-280.408307
-288.128345
-190.370398
-151.357148
-125.784550
-100.782143
17.345765
115.314125
82.235282
97.867340
118.797366
53.483661
-9.099103
-40.973403
-73.271383
-85.554246
-61.926271
-27.084374
4.484966
12.799362
1.473745
-5.193454
6.862899
27.205069
30.397362
52.484913
56.694976
34.821222
46.246859
40.469624
10.229785
-11.012993
1.743695
-9.968717
-90.144524
-138.223406
-154.106132
-147.702589
-121.665007
-126.748661
-93.479139
-24.082134
7.898678
47.713832
87.468979
95.506462
100.069290
88.966034
49.696142
-0.585572
-25.509261
-61.597256
-139.311762
-191.448478
-212.005728
-233.840517
-265.495052
-278.262901
-255.852718
-232.904296
-212.277160
-193.117973
-165.641276
-106.567449
-30.949781
40.434968
106.130540
172.388249
230.231556
245.467469
228.363314
207.860875
150.836625
92.893575
68.998308
47.127931
25.912169
-13.047300
-37.179736
-35.911804
-41.641761
-45.653353
-41.837618
-13.712281
20.379666
40.825744
32.358872
21.037151
46.453888
74.111903
107.304793
127.384078
123.292478
125.297890
105.916610
57.447037
9.208917
-31.986895
-61.471589
-58.376190
-53.440076
-45.846535
-16.285981
2.288469
15.277389
18.726072
17.448278
32.210374
62.201884
100.817429
139.544674
163.423066
166.087250
172.146860
159.735673
121.881516
91.584787
80.727531
88.849959
100.190392
102.688064
88.764248
59.936247
30.003973
0.711507
-47.391273
-10.818543
89.291343
99.821040
93.986916
101.029229
106.767507
90.361348
66.183453
69.302231
57.727756
62.596850
37.328709
-4.461711
-47.890228
-98.778500
-130.838014
-155.950554
-129.692429
-110.544931
-103.683937
-111.412288
-121.263722
-74.992297
-41.621986
-26.771829
3.456070
48.962479
81.956906
113.847319
133.064435
113.501577
108.579238
120.305946
131.688721
125.461828
98.211138
77.222414
58.720188
33.260598
25.461070
37.365719
51.149269
71.096332
76.060502
67.656234
54.720315
35.733882
28.835749
31.457071
33.031789
29.675851
26.121451
5.581086
-38.089794
-81.574940
-120.092025
-142.451545
-132.629196
-103.744297
-83.808923
-71.874921
-68.228294
-77.240419
-81.693096
-70.368769
-35.864311
9.581312
54.041635
81.962535
81.987996
83.030709
93.974736
116.029816
155.956150
197.279516
237.759935
273.966912
274.508273
246.280595
233.092442
228.679509
208.013676
179.508567
139.687187
85.358289
34.528984
-2.883567
-14.964330
-13.575866
-18.929159
-16.525523
-13.139963
-23.695109
-35.540002
-42.525937
-43.602411
-36.922215
-28.223622
-35.758186
-58.694651
-80.973902
-103.872180
-114.780870
-107.147845
-80.961416
-39.940420
-8.000131
11.865105
29.814554
42.126259
34.447003
12.905493
-17.838556
-56.065740
-86.095687
-118.299891
-153.039171
-181.863795
-185.161544
-127.224981
-40.033873
26.295273
70.017596
81.374913
64.330505
41.681344
9.908614
-12.935633
-0.017370
33.134996
64.113884
77.428293
82.171400
91.561495
68.651267
36.655656
17.764038
-29.244600
-59.373778
-64.021022
-85.899971
-117.774011
-156.571385
-181.266738
-186.051399
-193.517644
-201.678509
-195.587986
-175.888482
-155.766334
-149.429551
-150.015064
-138.485520
-126.771022
-115.321746
-100.932677
-93.160677
-79.261010
-58.764538
-38.650703
-18.157867
4.365834
34.912988
69.466542
98.500287
123.808961
141.168216
146.141218
143.414958
139.602608
144.564179
148.085078
152.429961
156.050870
140.540391
110.238207
69.445556
29.247773
-4.677654
-24.615617
-15.697261
10.930774
39.328868
65.699732
89.134959
102.058158
103.494419
100.596712
102.149089
115.415442
128.705692
127.194627
94.960289
35.197046
-10.832527
-36.507465
-52.942458
-55.085019
-51.079654
-37.859540
-27.875616
-38.238013
-46.176257
-38.980162
-32.823658
-20.261277
12.621450
42.197071
59.120436
60.172241
36.587136
5.856335
-23.137398
-50.048831
-61.958666
-54.282000
-43.182632
-28.742649
-7.539607
7.398611
22.357871
33.948980
35.423946
33.244238
16.736770
-7.787916
-22.946149
-30.569554
-31.348854
-25.847225
-28.136815
-43.176854
-74.986731
-115.549228
-131.908109
-140.589029
-121.722600
-63.194804
-32.998078
-9.714295
10.212247
-0.007539
1.820712
17.206511
41.625999
85.590165
123.005842
138.776617
149.210979
150.140952
126.375828
94.377360
79.504612
84.543334
92.028811
92.977228
93.043733
86.224569
55.315827
14.813596
-7.747244
-23.917792
-43.675996
-59.517679
-72.118497
-85.344837
-105.395539
-129.671886
-141.258051
-125.266474
-94.384739
-69.710159
-44.549034
-14.163196
10.132902
21.664004
25.208542
23.431214
14.632099
10.676617
4.560646
-10.800467
-16.941116
-18.618174
-24.948974
-28.499737
-24.621658
-17.578046
-8.297313
3.284704
9.313142
14.894260
21.703561
24.257344
