EVENT_NAME: 202302060117
EVENT_ID: 13194
EVENT_DATE_YYYYMMDD: 2023/02/06
EVENT_TIME_HHMMSS: 01:17:32.00000
EVENT_LATITUDE_DEGREE: 37.288
EVENT_LONGITUDE_DEGREE: 37.043
EVENT_DEPTH_KM: 8.6
HYPOCENTER_REFERENCE: AFAD
MAGNITUDE_W: 7.7
MAGNITUDE_W_REFERENCE: AFAD
MAGNITUDE_L: 
MAGNITUDE_L_REFERENCE: 
FOCAL_MECHANISM: 
NETWORK: TK
STATION_CODE: 4630
STATION_NAME: 
STATION_LATITUDE_DEGREE: 37.344912
STATION_LONGITUDE_DEGREE: 36.806037
STATION_ELEVATION_M: 531.0
LOCATION: Kahramanmaras_Pazarck_Turkiye
SENSOR_DEPTH_M: 
VS30_M/S: 347
SITE_CLASSIFICATION_EC8: C
MORPHOLOGIC_CLASSIFICATION: 
EPICENTRAL_DISTANCE_KM: 21.89
EARTHQUAKE_BACKAZIMUTH_DEGREE: 
DATE_TIME_FIRST_SAMPLE_YYYYMMDD_HHMMSS: 2023/02/06 01:17:06.0526130
DATE_TIME_FIRST_SAMPLE_PRECISION: millisecond
SAMPLING_INTERVAL_S: 0.01
NDATA: 5370
DURATION_S: 
STREAM: HNN
UNITS: cm/s^2
INSTRUMENT: sensor = ACEBOX/SARA | digitizer = 
INSTRUMENT_ANALOG/DIGITAL: 
INSTRUMENTAL_FREQUENCY_HZ: 
INSTRUMENTAL_DAMPING: 
FULL_SCALE_G: 
N_BIT_DIGITAL_CONVERTER: 
PGA_CM/S^2: 178.562
TIME_PGA_S: 
BASELINE_CORRECTION: BASELINE REMOVED
FILTER_TYPE: BUTTERWORTH
FILTER_ORDER: 
LOW_CUT_FREQUENCY_HZ: 
HIGH_CUT_FREQUENCY_HZ: 
LATE/NORMAL_TRIGGERED: 
DATABASE_VERSION: 
HEADER_FORMAT: DYNA 1.2
DATA_TYPE: Acceleration
PROCESSING: Automatic Paolucci et al., 2011
DATA_TIMESTAMP_YYYYMMDD_HHMMSS: 
DATA_LICENSE: U (unknown license)
DATA_CITATION: Turkish Accelerometric Archive v 1.0 - Disaster And Emergency Management Presidency, Earthquake Department
DATA_CREATOR: AFAD
ORIGINAL_DATA_MEDIATOR_CITATION: : AFAD - Disaster And Emergency Management Presidency
ORIGINAL_DATA_MEDIATOR: AFAD PROCESS SERVICE
ORIGINAL_DATA_CREATOR_CITATION: AFAD PROCESS SERVICE
ORIGINAL_DATA_CREATOR: network: TK
USER1: GuestUser
USER2: 
USER3: 
USER4: 
USER5: 
[...]
-0.044334
-0.043904
-0.041371
-0.041409
-0.045889
-0.045928
-0.043394
-0.042731
-0.043237
-0.042807
-0.043079
-0.046157
-0.043857
-0.040388
-0.045102
-0.047245
-0.045179
-0.044516
-0.041748
-0.045060
-0.046968
-0.039759
-0.044239
-0.047316
-0.041276
-0.047627
-0.049535
-0.043495
-0.044702
-0.043337
-0.043609
-0.044583
-0.043218
-0.048400
-0.043061
-0.038423
-0.050385
-0.048085
-0.039706
-0.045590
-0.047264
-0.044497
-0.043132
-0.044573
-0.048352
-0.043715
-0.043285
-0.049168
-0.044063
-0.039893
-0.045776
-0.046515
-0.043047
-0.046358
-0.048734
-0.043395
-0.044368
-0.049784
-0.045848
-0.041677
-0.044755
-0.047365
-0.046468
-0.045103
-0.046077
-0.045881
-0.044750
-0.047828
-0.047165
-0.042527
-0.044436
-0.046344
-0.045447
-0.047122
-0.045757
-0.044393
-0.046301
-0.046807
-0.046378
-0.046416
-0.047155
-0.046726
-0.045595
-0.048673
-0.047308
-0.042671
-0.045748
-0.048592
-0.046526
-0.046096
-0.046368
-0.047342
-0.047146
-0.045080
-0.047456
-0.048196
-0.045195
-0.045934
-0.045271
-0.043673
-0.048855
-0.048191
-0.044956
-0.048034
-0.047137
-0.048110
-0.048382
-0.044212
-0.050797
-0.049432
-0.042690
-0.050677
-0.049547
-0.043272
-0.048688
-0.049427
-0.046192
-0.047633
-0.047905
-0.046073
-0.045410
-0.048488
-0.050630
-0.048096
-0.045329
-0.048173
-0.050081
-0.045210
-0.047118
-0.051131
-0.046727
-0.047467
-0.048206
-0.048946
-0.052491
-0.046918
-0.046723
-0.052606
-0.047500
-0.046837
-0.049681
-0.047147
-0.047887
-0.048626
-0.050067
-0.049404
-0.045000
-0.047610
-0.050922
-0.048856
-0.049128
-0.048231
-0.046398
-0.049242
-0.051618
-0.050721
-0.046317
-0.045654
-0.050602
-0.049004
-0.048341
-0.051184
-0.047248
-0.048689
-0.052702
-0.049467
-0.047868
-0.048608
-0.052153
-0.052191
-0.044982
-0.048527
-0.053475
-0.048603
-0.048408
-0.050784
-0.051290
-0.048990
-0.046456
-0.052573
-0.050975
-0.047272
-0.053857
-0.051323
-0.047854
-0.050698
-0.049801
-0.050073
-0.048007
-0.049448
-0.054162
-0.048122
-0.046757
-0.051705
-0.049172
-0.047106
-0.047378
-0.050221
-0.050493
-0.043751
-0.046595
-0.050608
-0.044100
-0.042735
-0.042306
-0.036031
-0.034199
-0.032601
-0.025625
-0.018182
-0.014713
-0.009608
-0.000995
0.004811
0.015294
0.028816
0.033921
0.035754
0.033377
0.026325
0.031665
0.046823
0.060345
0.071062
0.067984
0.046203
0.018109
-0.001802
-0.008620
-0.001878
0.015852
0.018152
-0.016956
-0.049726
-0.051167
-0.047698
-0.033241
-0.002184
0.004558
-0.000390
0.003079
-0.031561
-0.056382
0.015122
0.100186
0.100147
0.073690
0.081835
0.065665
0.042948
0.069329
0.066252
0.095438
0.188919
0.112195
-0.060152
-0.019275
0.142240
0.152489
0.060802
0.003718
-0.063186
-0.008984
0.116527
0.080718
0.161340
0.298541
0.165472
0.051574
0.103439
0.223105
0.226808
0.097713
0.266009
0.464933
0.379792
0.451997
0.494978
0.215084
0.204759
0.620646
0.606113
0.235272
0.464589
0.691334
0.411908
0.389893
0.280204
-0.202626
-0.384324
-0.301365
-0.169541
0.150255
0.513304
0.548102
0.540348
0.482329
-0.639703
-1.743264
-1.170031
-0.129672
0.585008
1.098857
0.857773
0.344550
0.020703
-0.315770
0.079543
1.340841
1.393174
-0.102933
-0.114194
1.123257
0.845468
0.310969
0.627960
0.176225
-0.789162
-0.691473
0.041677
0.266318
1.250801
2.726724
1.979938
0.864920
0.524006
-1.315549
-1.523433
0.965534
1.276213
0.646325
1.635249
0.757536
-2.599831
-3.952387
-1.607438
0.390088
-0.355764
-0.189572
1.364440
0.945203
-0.550670
-1.615421
-1.977611
-0.521794
2.329326
4.373611
3.250411
1.703336
2.895664
1.483958
-2.888089
-3.535746
-1.841689
-1.327841
-1.636491
-2.233882
-0.702314
3.366422
3.685517
-0.998182
-0.253576
4.172168
-1.121040
-6.453526
0.634467
6.232003
3.974652
2.711407
-0.388081
-7.533665
-9.996758
-6.048895
-1.189223
3.263174
7.328168
7.412063
2.744730
-1.184271
-4.255002
-8.466431
-6.822874
1.766098
9.205956
11.030004
5.579684
-2.351458
-5.317683
-4.808510
-4.227796
-3.927171
-3.534897
1.344881
10.102888
9.940829
1.474524
0.343608
1.193657
-6.136627
-9.485110
-3.341657
1.662501
1.404351
-0.983926
-2.926118
-0.716071
3.761810
0.991274
-3.918273
2.045156
7.622118
-0.424053
-5.961112
2.010167
2.535004
-13.871524
-17.552232
6.494246
20.909913
0.792322
-17.279543
-3.440888
15.172142
7.424530
-12.452952
-9.663788
10.937921
11.318271
-6.728345
-10.412560
0.237335
9.992020
14.604568
7.448463
-9.397603
-20.687244
-11.943264
8.252573
11.291899
1.374181
-1.286704
-0.168256
2.128998
0.988964
-4.073253
-1.720355
3.712120
3.786196
-0.979332
-7.349411
-9.488226
-1.873020
5.969905
-3.120639
-5.473145
17.657549
20.547479
-12.450237
-32.266464
-20.210513
-2.736543
8.527069
19.777122
22.270999
10.374655
-0.400398
-7.735358
-17.251179
-10.793269
7.486366
6.505782
-3.853345
-4.425018
1.004885
9.257423
6.748974
-0.781674
2.382500
-4.767059
-19.350435
-7.178286
13.820411
-1.745616
-26.681301
-1.998193
32.881048
18.179370
-6.100748
-10.818581
-16.185436
-8.666788
7.978137
5.797939
2.564718
9.403952
1.186875
-17.425764
-12.402902
9.115059
8.390951
1.120285
15.491297
16.305809
-8.791898
-18.779288
-6.813348
2.528451
2.995306
1.891277
3.921300
9.394690
10.345973
0.027292
-12.166910
-13.656470
-1.642135
9.080471
-2.215950
-17.879469
-5.726492
15.815784
10.100104
-12.823055
-17.625757
-1.871834
3.791399
-7.144740
-4.373111
9.111809
-0.085112
-15.282440
-8.075678
5.612880
14.667810
19.016167
10.677048
-4.932231
-15.274525
-13.337786
-3.507351
-0.797445
-2.548625
2.497851
6.203032
6.190836
6.466445
-5.249875
-16.684704
-3.346374
8.271441
3.329630
11.244097
16.307640
-7.793857
-22.738918
-7.613909
4.085034
5.479129
9.541786
3.722533
-9.057798
-7.932103
0.882483
1.695125
-6.857919
-13.680863
-4.716412
13.259286
16.748672
-0.944910
-15.287241
-8.995327
-1.477147
-1.519502
4.736173
12.203853
11.915777
7.520116
-0.233107
-5.981986
-6.718953
-13.882072
-19.501895
-7.990691
-0.261859
-0.670575
12.094484
15.678791
-2.134494
-7.622923
-0.680585
-8.405285
-24.417397
-21.590358
-7.433271
-9.699506
-9.218857
9.370092
15.893698
9.062806
5.502269
4.726258
7.590937
3.367118
-4.575949
1.099909
3.973707
-2.505321
3.346586
16.393371
16.304723
6.747754
2.108711
0.137762
-2.945829
-1.621873
-3.831295
-10.862319
-7.855256
3.481301
8.438466
-7.560786
-30.200115
-22.109365
3.270459
11.532348
13.399883
21.749680
25.827534
22.207145
21.497766
21.937033
12.836903
2.917783
-0.102683
-2.635914
-10.220336
-25.508611
-37.437219
-36.105548
-27.023965
-5.765286
27.855892
43.903464
30.875775
21.740342
21.135236
1.721609
-21.606721
-24.366502
-17.233385
-11.917341
-7.886481
-9.995137
-25.389790
-29.755758
-4.728033
20.380820
47.267701
85.129727
85.333093
41.720045
1.980784
-15.242864
-1.518536
38.079201
61.881595
49.996239
22.223424
-14.865043
-56.978749
-85.278076
-97.856641
-90.669517
-65.985708
-47.350935
-20.788097
15.123125
14.529709
0.707577
21.070579
33.727156
8.753127
-3.999383
17.618643
28.158420
12.396237
8.648195
17.109046
9.711896
-7.180462
-28.383808
-49.114883
-40.403168
-6.690575
12.206985
13.168088
20.600231
22.081532
-5.676554
-37.519312
-38.679920
-6.007492
39.489418
58.845455
45.086916
29.187728
11.830114
-18.202352
-40.936603
-31.116221
5.426487
19.592927
-1.302508
-0.578944
20.637886
20.560929
27.047596
52.782090
60.047536
43.069140
7.042112
-44.326224
-88.381850
-119.995721
-137.961676
-118.683961
-64.184454
-18.974881
-13.738094
-22.625935
-9.995310
16.918925
47.864761
79.332665
92.072240
73.579072
28.031820
0.390866
21.416450
34.889213
20.116694
18.548344
30.107710
47.734349
61.142350
51.006499
45.075492
59.808189
55.085679
16.926187
-11.078789
-14.389163
-27.659534
-50.140114
-57.007479
-49.276310
-26.189569
10.392884
40.119233
52.850625
54.578115
43.336637
16.117687
-0.242081
15.401256
32.254493
22.207485
7.104378
11.181530
8.577224
-37.114281
-92.376044
-97.232519
-62.545226
-30.475995
4.877387
59.192662
88.938883
51.918919
-16.390835
-61.494341
-56.364165
-18.871773
-11.612406
-31.355220
-20.077346
8.315891
13.634039
9.116102
20.007510
27.138522
7.318788
-3.606830
10.831750
11.223556
3.539770
15.739040
19.236842
-7.359271
-30.001172
-23.504919
-11.394259
-20.894883
-23.183095
23.766631
79.292742
80.928349
41.905911
6.797706
-6.567586
-24.121825
-64.480882
-93.484406
-92.617758
-65.058242
-15.234213
20.694076
27.122528
17.033202
-13.535361
-52.149121
-58.008820
-16.053238
14.293843
-8.090647
-15.443843
4.975738
-12.522856
-24.097028
19.402551
51.258793
27.483677
-19.978842
-33.612534
-2.256618
15.973452
5.767461
-8.474337
-24.654315
-29.333338
-30.036872
-33.079548
-0.090091
61.108409
92.640842
68.492820
28.625204
26.476335
33.973240
14.273912
-7.498964
-19.047652
-15.980971
5.284722
22.825558
27.542379
13.397840
-24.740611
-54.903302
-45.258267
-17.941199
-13.548655
-9.687297
14.057816
1.706970
-35.193524
-28.380243
-9.038934
0.101098
22.925284
28.271254
16.947713
16.589965
2.159024
-21.562085
-29.272991
-21.454614
-0.867167
-0.626160
-13.311804
13.405574
16.609727
-60.634122
-120.861270
-103.549323
-51.923651
-12.397223
-12.350034
-19.051403
-10.677758
-27.754115
-30.519507
21.606022
51.840647
41.362516
26.684686
-5.180751
-29.968442
-29.318290
-47.357424
-81.463574
-81.426906
-35.938647
14.103983
30.484249
26.173691
26.880889
22.246054
1.801380
-13.751787
-22.194245
-32.057956
-22.428352
-11.395264
-21.781745
-3.681667
40.169544
47.427976
22.444128
-12.952349
-40.933477
-36.453259
-26.896132
-22.009808
-3.606494
0.717782
0.179075
13.903871
10.852311
10.091964
28.842701
46.875212
80.547123
105.802801
91.549546
64.319374
5.654693
-74.508115
-106.585606
-111.143756
-110.779304
-71.587439
-48.052977
-90.175801
-110.448400
-62.356107
-27.590725
-39.426282
-44.221035
-8.050064
45.777042
63.558688
34.575738
-11.102207
-43.163331
-44.936956
-47.921884
-38.303736
20.379339
49.844069
23.768856
-6.821217
-62.184447
-116.883226
-119.321536
-95.518441
-59.171421
-9.265796
34.997833
50.134297
24.076385
-11.994597
-23.707411
-16.095477
-9.310018
-5.610448
7.668497
11.145024
-16.844521
-48.884838
-58.192345
-46.611937
-18.690036
26.176089
79.887933
125.034848
149.902188
144.389912
125.981612
124.915225
112.031321
62.653768
5.658399
-50.668310
-90.418560
-85.177565
-64.903405
-37.150773
19.697929
48.350213
25.119845
9.176470
0.705022
-12.419226
-10.212452
-10.000436
-20.765669
-25.208557
-9.057412
21.407502
25.647611
14.900848
36.172152
55.795888
31.950633
4.297288
6.923962
5.555508
-10.848681
-5.155288
10.821443
7.713538
-18.602720
-64.309422
-70.245573
-22.477791
-6.731349
-18.099546
1.444465
21.112855
20.415166
17.524224
11.199970
3.071269
-6.712951
-19.958540
-35.003899
-54.927907
-56.147198
-20.194360
15.101507
13.122843
-20.285188
-55.803707
-65.348986
-59.170230
-58.381436
-51.933579
-35.228803
-21.791577
-22.898879
-39.878678
-43.139253
-17.100120
8.637180
30.421669
65.255086
91.577112
83.845866
56.200470
44.772656
55.368310
55.927514
42.506110
45.343202
77.281039
115.629597
119.423855
87.366705
50.180510
24.102959
20.307222
20.496326
13.912791
24.851425
33.357867
33.752011
51.486430
62.953914
64.807888
68.351749
55.570014
38.435442
31.657855
27.055050
25.313456
23.191708
8.142841
-16.347461
-30.549982
-28.996671
-21.107688
-18.670156
-29.377641
-41.462894
-38.522931
-20.566404
-8.561888
-12.794358
-7.119435
6.178681
0.286484
2.937941
35.876430
50.967772
20.963362
-15.589944
-38.951940
-58.894885
-71.838641
-95.540578
-133.996993
-130.319167
-71.224375
-22.579852
-19.136992
-23.191776
4.017277
57.744786
117.119434
146.713219
126.109330
103.574274
105.840433
92.337434
60.235862
35.881397
17.421194
4.156668
-5.378090
-15.684379
-12.581694
8.979519
28.790526
34.358370
36.520489
45.999994
57.777026
66.362491
64.840900
35.736843
-16.472229
-60.200305
-86.446424
-106.476809
-115.844402
-120.799072
-146.447371
-174.714668
-169.285232
-145.928456
-106.006676
-17.073742
88.930602
152.704145
167.537374
144.543609
96.213234
52.574936
31.465109
21.852029
15.555830
3.362095
-14.891664
-2.671119
22.084933
12.102220
14.913126
44.150839
43.852709
41.785435
77.021684
121.116745
147.067970
151.315560
146.806976
133.419940
92.910317
28.508718
-31.180697
-54.017584
-40.868163
-18.180515
-7.912411
-31.197254
-70.805354
-87.860903
-94.086027
-99.278235
-67.803316
1.894883
53.274366
52.582989
18.960800
-23.111290
-52.478135
-60.681418
-76.540859
-98.814062
-85.746236
-50.406181
-24.407495
-4.332531
-5.133325
-24.310116
-21.238292
0.061068
9.016400
11.787327
33.384311
65.110328
67.193190
46.301729
33.505032
10.462403
-27.594219
-42.748295
-29.629267
-25.011809
-43.659283
-41.303814
13.664924
71.550985
89.737334
96.064785
102.503290
87.756957
70.112473
65.119694
39.220764
0.770427
-5.639163
-4.022727
-20.678248
-19.942059
6.441924
37.599112
58.390899
46.827248
27.789098
31.270535
16.854324
-36.519526
-100.352062
-144.618807
-143.015931
-109.949087
-85.914065
-74.885185
-47.638256
5.466884
34.589101
8.346489
-16.150827
2.432511
29.316352
34.867363
31.008734
30.593706
19.059046
-24.976239
-99.713782
-170.645338
-178.562220
-103.914064
-8.757447
42.660379
51.067223
43.813391
32.630128
26.489872
33.350615
41.706491
52.524486
81.397241
96.777556
51.883533
-34.253029
-112.980789
-166.098865
-177.436901
-139.781084
-93.459572
-67.377888
-38.500691
15.292982
67.977988
72.333827
40.924529
24.539511
35.194082
58.795176
71.596473
61.462493
38.112888
3.148001
-26.380632
-25.959835
0.667765
41.026746
76.534434
106.341443
141.183743
143.270813
91.585681
39.917149
16.747100
-20.098686
-84.334289
-118.390639
-110.671393
-118.989003
-129.972836
-92.455194
-31.905949
14.937399
39.546160
36.055295
25.354590
33.180213
46.337116
34.895040
9.618011
1.184905
-14.306306
-53.329446
-68.379715
-44.684635
-23.664662
-30.665058
-49.482970
-53.000722
-40.391606
-26.115516
-31.423921
-59.785204
-66.721773
-34.909953
5.401333
48.941126
100.025556
143.964909
157.635464
129.434098
80.033867
22.528352
-42.752324
-86.745293
-84.056195
-50.296609
-34.231970
-56.837865
-61.763077
-25.663882
-13.227075
-33.718274
-20.033691
37.242159
74.580245
70.734242
75.000536
89.394694
71.339662
34.416256
-2.272652
-29.905189
-26.471914
-25.607838
-41.405791
-23.609883
6.893374
3.269479
-11.585337
-19.096112
-27.564053
-34.620560
-32.338504
-28.246388
-32.587808
-23.347710
5.848854
14.907758
-3.317712
-5.524563
31.328161
71.283841
67.516160
28.593787
-16.183337
-53.934620
-75.211845
-87.230933
-82.019397
-33.330453
26.875578
61.070727
96.334331
130.501191
122.959788
91.990029
66.322792
28.708515
-18.303945
-47.981741
-52.235486
-30.739503
6.832849
36.322127
45.745054
38.069218
22.292540
12.902035
9.972049
14.931552
38.143374
43.749327
14.331982
1.300785
-3.377069
-35.689759
-64.796622
-76.333386
-76.399823
-74.817521
-93.155448
-86.130579
-37.024541
-30.500934
-55.157934
-27.393611
20.874731
36.306715
34.672200
37.250712
51.142206
59.192977
47.880424
29.847369
8.999161
-1.848369
-0.015670
-4.323891
-2.326131
3.498889
-13.210873
-40.979948
-58.144212
-53.793049
-28.359218
-6.732308
-6.460206
-11.547439
-6.859842
-14.459461
-49.328257
-74.343433
-54.531491
-14.558743
6.002519
14.382710
29.863558
50.858046
57.750118
24.467402
-5.686171
18.323835
37.829970
25.087280
34.859733
54.284741
43.020351
29.387126
41.067132
46.213439
23.236975
1.418274
-18.822061
-49.802575
-53.796338
-29.323647
-13.636590
7.309970
48.966058
78.109317
54.939502
-11.277767
-51.870154
-40.674342
-33.926290
-46.979697
-34.008195
1.365760
12.806124
-0.147686
-5.764470
-2.785697
-0.202509
11.044036
19.015082
5.989263
-6.384729
-11.197484
-29.415473
-47.057852
-49.633168
-58.556312
-70.816211
-50.036349
0.740405
19.550058
-21.736473
-56.212022
-36.471856
-21.125208
-47.691629
-66.822129
-54.983842
-39.270600
-39.546987
-53.122697
-53.862937
-30.426436
-6.094726
3.778962
14.686034
41.845289
52.553633
20.654530
-11.156198
-16.613298
-15.020943
-10.284482
0.968375
14.347386
16.599750
5.219630
18.113511
67.586845
102.926666
102.142472
96.931093
105.334663
114.973619
94.034697
36.062991
-3.541603
-5.218201
-17.178372
-33.454441
-11.749910
21.122883
25.678852
27.128123
54.455244
86.920294
92.143053
59.110735
3.389327
-43.970322
-68.483770
-83.693022
-97.390073
-87.902150
-59.178324
-53.754967
-65.643128
-49.792180
-6.260336
22.696352
11.730988
-12.183471
-12.368442
-4.134609
-20.410677
-39.986327
-21.308769
14.670254
23.860553
16.293900
27.169175
60.319719
80.427181
58.062797
18.532785
10.065311
24.359170
7.293568
-42.464606
-77.676617
-84.070075
-70.819420
-41.081848
-0.665120
35.788746
55.629678
64.729497
56.630956
22.978373
0.113196
4.790740
7.026271
-4.104154
-22.133468
-36.249483
-35.140154
-32.179617
-32.949783
-13.687499
29.486869
67.226853
78.980972
72.039727
57.611592
40.152275
30.586188
31.100036
31.248693
32.295833
30.194425
4.907576
-41.261811
-79.907602
-94.749558
-88.671569
-75.437513
-72.851519
-67.223122
-32.168767
17.154234
55.124976
64.458125
30.313165
-25.188707
-61.190952
-60.519291
-38.888874
-28.518133
-39.499629
-54.884930
-51.063552
-32.203866
-31.920074
-47.017337
-45.872938
-30.415002
-15.471888
1.685520
14.827460
14.288986
26.600245
61.416360
78.874431
71.432392
60.872199
50.980432
41.945767
27.600162
9.727024
-0.415139
-5.482032
-3.167243
0.564123
-14.465339
-33.104864
-25.592295
-3.018272
14.802653
42.761962
84.945029
102.081863
73.096575
28.393331
0.364274
-14.643679
-32.845068
-45.471327
-34.934123
-8.215809
15.282648
27.589932
36.929159
51.487677
55.642683
36.090881
17.346381
14.580521
7.846420
-7.023358
-23.075215
-37.174864
-34.671869
-23.160899
-16.795339
-6.108972
0.540886
4.373018
23.488011
30.883915
8.755434
-16.454262
-34.369016
-46.289208
-54.917534
-62.795605
-52.358699
-20.395846
8.586093
8.200756
-22.129100
-30.533682
5.284021
26.309605
11.218888
4.633482
16.189575
15.800265
3.321999
4.810080
12.401439
8.210118
5.983862
8.587624
2.099010
-16.954570
-39.305393
-49.510214
-55.754743
-60.199501
-40.951712
-18.305680
-6.901789
28.328849
74.567364
95.086542
106.501656
119.928127
122.051669
108.312301
76.350306
38.130494
10.775241
-7.756504
-18.177588
-14.936962
2.819434
24.161346
30.348518
27.583594
28.892820
21.740456
4.998430
0.643917
11.798113
11.723961
-6.447034
-15.295598
-14.766553
-20.843917
-17.850649
0.536299
13.290135
10.921731
1.294623
-7.955137
-6.070301
10.588183
15.669962
3.000216
0.125407
-3.561614
-22.491048
-30.276535
-20.554581
-16.141229
-26.123475
-35.008744
-32.328764
-31.568026
-34.889622
-27.031501
-0.009251
29.661922
31.758110
25.211982
38.392031
40.758956
25.730430
18.670182
8.995145
-4.577526
-2.094403
