EVENT_NAME: 202302060117
EVENT_ID: 13194
EVENT_DATE_YYYYMMDD: 2023/02/06
EVENT_TIME_HHMMSS: 01:17:32.00000
EVENT_LATITUDE_DEGREE: 37.288
EVENT_LONGITUDE_DEGREE: 37.043
EVENT_DEPTH_KM: 8.6
HYPOCENTER_REFERENCE: AFAD
MAGNITUDE_W: 7.7
MAGNITUDE_W_REFERENCE: AFAD
MAGNITUDE_L: 
MAGNITUDE_L_REFERENCE: 
FOCAL_MECHANISM: 
NETWORK: TK
STATION_CODE: 5601
STATION_NAME: 
STATION_LATITUDE_DEGREE: 37.912
STATION_LONGITUDE_DEGREE: 41.931
STATION_ELEVATION_M: 890.0
LOCATION: Kahramanmaras_Pazarck_Turkiye
SENSOR_DEPTH_M: 
VS30_M/S: None
SITE_CLASSIFICATION_EC8: unknown
MORPHOLOGIC_CLASSIFICATION: 
EPICENTRAL_DISTANCE_KM: 436.13
EARTHQUAKE_BACKAZIMUTH_DEGREE: 
DATE_TIME_FIRST_SAMPLE_YYYYMMDD_HHMMSS: 2023/02/06 01:18:07.4259060
DATE_TIME_FIRST_SAMPLE_PRECISION: millisecond
SAMPLING_INTERVAL_S: 0.01
NDATA: 21001
DURATION_S: 
STREAM: HNE
UNITS: cm/s^2
INSTRUMENT: sensor = CMG-5T/GURALP | digitizer = 
INSTRUMENT_ANALOG/DIGITAL: 
INSTRUMENTAL_FREQUENCY_HZ: 
INSTRUMENTAL_DAMPING: 
FULL_SCALE_G: 
N_BIT_DIGITAL_CONVERTER: 
PGA_CM/S^2: 17.563
TIME_PGA_S: 
BASELINE_CORRECTION: BASELINE REMOVED
FILTER_TYPE: BUTTERWORTH
FILTER_ORDER: 
LOW_CUT_FREQUENCY_HZ: 
HIGH_CUT_FREQUENCY_HZ: 
LATE/NORMAL_TRIGGERED: 
DATABASE_VERSION: 
HEADER_FORMAT: DYNA 1.2
DATA_TYPE: Acceleration
PROCESSING: Automatic Paolucci et al., 2011
DATA_TIMESTAMP_YYYYMMDD_HHMMSS: 
DATA_LICENSE: U (unknown license)
DATA_CITATION: Turkish Accelerometric Archive v 1.0 - Disaster And Emergency Management Presidency, Earthquake Department
DATA_CREATOR: AFAD
ORIGINAL_DATA_MEDIATOR_CITATION: : AFAD - Disaster And Emergency Management Presidency
ORIGINAL_DATA_MEDIATOR: AFAD PROCESS SERVICE
ORIGINAL_DATA_CREATOR_CITATION: AFAD PROCESS SERVICE
ORIGINAL_DATA_CREATOR: network: TK
USER1: GuestUser
USER2: 
USER3: 
USER4: 
USER5: 
[...]
1.274354
0.300152
-0.513195
-0.633680
-0.032824
0.899441
1.679302
2.170939
2.429119
2.396259
2.019785
1.459298
0.828711
0.109248
-0.531979
-0.992323
-1.334061
-1.482085
-1.281800
-0.869964
-0.678129
-0.880919
-1.065557
-0.810194
-0.355797
-0.325755
-0.619612
-0.399612
0.760791
2.136188
2.489816
1.706825
0.999567
1.160107
1.653935
1.735301
1.401387
1.122864
1.046192
0.879704
0.537340
0.335176
0.355830
0.300751
-0.009066
-0.250035
0.064788
0.735118
1.113469
0.970452
0.619639
0.302624
0.090446
0.098582
0.250673
0.443134
0.815852
1.350676
1.703365
1.693037
1.478982
1.143503
0.631523
0.168675
0.086057
0.381164
0.821478
1.175732
1.358805
1.622305
2.170273
2.738269
2.996449
2.993945
2.753914
2.056357
1.133479
0.589265
0.330458
-0.253186
-1.054642
-1.441444
-1.117232
-0.474442
-0.309207
-0.812738
-1.284661
-1.196724
-0.788330
-0.427191
-0.044459
0.449995
0.743538
0.612100
0.242510
-0.300139
-1.092831
-1.778497
-2.070163
-2.041686
-1.775682
-1.415482
-1.288427
-1.448343
-1.504673
-1.276849
-1.141970
-1.465557
-2.035745
-2.424425
-2.452904
-2.236972
-2.048892
-2.043259
-2.044825
-1.867698
-1.502178
-0.924480
-0.038218
1.048017
2.007509
2.466287
2.193710
1.443891
0.718482
0.326360
0.319787
0.478450
0.603315
0.761665
0.897483
0.797965
0.556370
0.562003
0.895290
1.224508
1.242971
0.887777
0.217133
-0.563355
-1.135734
-1.275308
-1.174227
-1.381085
-1.921230
-2.112128
-1.591700
-0.925751
-0.709819
-0.724215
-0.458838
0.191776
0.966630
1.450756
1.441680
1.216671
1.134053
1.050809
0.602670
-0.119923
-0.642544
-0.669145
-0.335545
0.050317
0.320076
0.651485
1.232938
1.627562
1.313676
0.722521
0.551965
0.556658
0.070339
-0.833136
-1.380479
-1.253737
-1.029042
-1.286910
-1.799516
-1.929390
-1.521935
-1.022787
-0.843782
-0.920767
-0.958009
-1.032178
-1.551355
-2.314318
-2.570622
-2.056765
-1.389252
-1.288484
-1.688430
-1.950992
-1.836454
-1.825502
-2.293044
-2.897656
-3.045680
-2.641668
-2.089632
-1.760413
-1.537596
-1.222147
-0.826271
-0.259527
0.576351
1.519570
2.197410
2.265005
1.845031
1.491715
1.465740
1.538968
1.424742
1.157486
0.950002
0.839844
0.567894
-0.056434
-0.736153
-0.899825
-0.458572
-0.056124
-0.130918
-0.376582
-0.471405
-0.592829
-0.807823
-0.760256
-0.357495
-0.039856
-0.104323
-0.347170
-0.416645
-0.131864
0.285605
0.353201
-0.037357
-0.456079
-0.687034
-0.933949
-1.095429
-0.869483
-0.446381
-0.256110
-0.210734
0.024288
0.290604
0.189209
-0.010764
0.427360
1.469469
2.106939
1.679142
0.708383
0.123799
0.292476
0.705564
0.799447
0.665506
0.577567
0.451449
0.083424
-0.343435
-0.518059
-0.518999
-0.548103
-0.549981
-0.581277
-0.784066
-1.014708
-1.002817
-0.641052
-0.089016
0.318126
0.417642
0.284014
-0.086828
-0.636988
-0.987801
-0.779379
-0.318098
-0.264272
-0.716479
-1.270394
-1.434378
-0.911759
0.037405
0.743723
0.760309
0.311544
-0.129711
-0.443596
-0.752474
-1.154611
-1.559563
-1.764856
-1.700077
-1.441585
-0.937742
-0.099987
0.561893
0.344395
-0.393845
-0.703036
-0.493676
-0.258341
-0.041157
0.420437
1.082004
1.638735
1.931651
2.054639
2.080299
1.944167
1.628717
1.494463
2.062772
3.083288
3.679762
3.535807
3.081095
2.614179
2.081232
1.456904
0.867626
0.536842
0.551549
0.678918
0.593170
0.269896
-0.033975
-0.114090
-0.112213
-0.343793
-0.784422
-1.261039
-1.820587
-2.375128
-2.530976
-2.115384
-1.510148
-1.240389
-1.406877
-1.557404
-1.287646
-0.753447
-0.422977
-0.463035
-0.503719
-0.229579
0.231077
0.634777
1.063199
1.697227
2.295266
2.460501
2.482719
2.976548
3.757034
4.181701
4.085626
3.900987
4.094387
4.523435
4.564118
4.091569
3.573643
3.079813
2.211388
0.994653
0.066768
-0.201115
-0.162623
-0.209878
-0.156991
0.213536
0.583751
0.439795
-0.131019
-0.425502
-0.155430
0.048923
-0.456799
-1.318027
-1.753022
-1.572140
-1.277971
-1.348072
-1.577149
-1.593110
-1.594362
-1.903241
-2.451836
-2.912180
-3.029222
-2.819862
-2.473744
-2.291610
-2.346377
-2.413348
-2.434316
-2.512240
-2.684048
-2.874007
-2.902798
-2.735999
-2.625217
-2.777935
-3.025163
-3.029545
-2.693128
-2.188973
-1.688260
-1.203821
-0.704985
-0.287516
-0.039664
0.248559
0.702643
0.950495
0.605941
-0.131673
-0.568546
-0.306298
0.222580
0.430688
0.292365
0.082065
-0.138562
-0.629888
-1.407247
-1.933935
-1.893566
-1.673253
-1.695472
-1.829101
-1.745858
-1.596896
-1.825347
-2.380201
-2.683447
-2.429961
-1.984953
-1.835991
-1.966177
-1.998411
-1.537129
-0.595476
0.276078
0.674145
0.661313
0.523929
0.400941
0.166544
-0.285351
-0.827687
-1.211359
-1.301801
-1.241716
-1.151901
-0.967264
-0.860550
-0.880892
-0.669341
-0.194603
0.117716
0.083292
0.051996
0.369010
0.877860
1.210520
1.322554
1.540677
2.028559
2.322728
1.981303
1.333504
0.963289
1.049661
1.239306
1.120698
0.701037
0.340523
0.467891
1.034010
1.435832
1.345077
1.014292
0.724191
0.475398
0.077643
-0.443100
-0.772006
-0.768252
-0.649020
-0.566403
-0.393657
-0.030641
0.413429
0.943246
1.622964
2.119295
2.103960
1.822934
1.715280
1.731553
1.578522
1.272460
1.191406
1.633911
2.295478
2.549903
2.404695
2.415335
2.664126
2.715761
2.451947
2.182500
2.051375
2.010379
2.044489
2.112711
2.196892
2.338969
2.467902
2.414075
2.137430
1.801013
1.659560
1.712448
1.764709
1.893329
2.245080
2.690714
3.028695
3.245253
3.406419
3.458055
3.177968
2.466015
1.493065
0.591154
0.005319
-0.240970
-0.110159
0.342047
0.780171
0.930697
0.943214
0.931009
0.572998
-0.264133
-1.202972
-1.820415
-2.118340
-2.468527
-3.104121
-3.842048
-4.199746
-3.891495
-3.206770
-2.746114
-2.670069
-2.630325
-2.455702
-2.434110
-2.842505
-3.478724
-4.016679
-4.422258
-4.821264
-5.209005
-5.343885
-4.978678
-4.334949
-3.931875
-3.906527
-3.842374
-3.269371
-2.187204
-1.056531
-0.330184
0.014056
0.436532
1.182282
1.814432
1.785014
1.194172
0.583613
0.173341
-0.197188
-0.607774
-0.851872
-0.746097
-0.442227
-0.378387
-0.799613
-1.305334
-1.393586
-1.124453
-0.912589
-0.868151
-0.749232
-0.344281
0.480644
1.604119
2.510410
2.770467
2.520736
2.427790
2.697862
2.624945
1.737117
0.486271
-0.364317
-0.458827
-0.186878
-0.370578
-1.245888
-2.283305
-3.018415
-3.358901
-3.252813
-2.809682
-2.342142
-2.086778
-2.134973
-2.485786
-2.913583
-3.067554
-3.001836
-2.970229
-2.862576
-2.494239
-1.945333
-1.413012
-1.028402
-0.834689
-0.868175
-0.926384
-0.613439
0.200533
1.083353
1.433852
1.390352
1.707991
2.553884
3.041140
2.401165
1.175668
0.509092
0.644597
0.843317
0.608607
0.272189
0.271250
0.372644
0.019953
-0.875386
-1.824552
-2.196958
-1.809532
-1.153284
-0.768675
-0.661961
-0.615332
-0.446968
-0.084577
0.223987
0.101624
-0.421309
-0.873204
-0.898240
-0.473260
0.273115
1.176277
2.042198
2.674348
2.888715
2.577333
2.047828
1.982735
2.486890
3.023904
3.258300
3.295227
3.280518
3.114030
2.675279
1.975532
1.252313
0.781954
0.627359
0.712792
0.678054
0.095661
-0.618482
-0.514897
0.379501
0.928095
0.657709
0.306583
0.503738
0.938107
0.903995
0.544107
0.796027
1.909175
2.832052
2.738481
2.241835
2.246529
2.532248
2.445874
2.060011
1.853153
2.066581
2.541633
2.888376
3.181293
3.940499
5.008270
5.649496
5.543406
4.832393
3.765872
2.617360
1.655989
0.943098
0.412654
0.147901
0.207047
0.369778
0.516549
0.829494
1.306736
1.847506
2.530041
3.286431
3.705464
3.300512
2.026195
0.526245
-0.314329
-0.231399
0.086554
-0.024543
-0.426053
-0.715529
-0.806284
-0.812543
-0.773113
-0.595360
-0.254250
-0.010465
-0.078375
-0.168191
0.059945
0.263360
-0.031123
-0.456730
-0.416361
0.020198
0.437667
0.600712
0.523726
0.280880
0.181049
0.630752
1.411864
1.582106
0.708986
-0.178529
0.211088
1.563640
2.329418
2.072802
1.871264
2.513115
3.557415
4.280946
4.721260
5.134348
5.246695
4.820775
4.306291
4.285949
4.470273
3.986145
2.812284
1.698509
0.859187
0.065556
-0.708986
-1.401536
-1.999889
-2.413605
-2.419864
-1.963902
-1.289505
-0.703670
-0.507141
-0.881425
-1.686323
-2.511875
-3.107099
-3.651938
-4.396750
-5.187252
-5.530868
-5.140938
-4.299426
-3.624090
-3.334928
-3.092083
-2.678995
-2.511257
-3.039197
-4.020596
-4.889022
-5.501771
-6.002798
-6.440923
-6.863713
-7.072449
-6.665620
-5.888263
-5.584706
-5.763712
-5.672332
-4.967891
-3.998385
-3.379379
-3.266719
-2.950957
-1.768335
-0.257433
0.419156
0.073976
-0.068415
0.865728
2.277739
3.076689
3.117998
3.110799
3.387130
3.583033
3.299817
2.604763
1.722881
0.749931
-0.137271
-0.543789
-0.498412
-0.715910
-1.673213
-2.925310
-3.769326
-4.250011
-4.789218
-5.191354
-4.983246
-4.406800
-4.093229
-4.009986
-3.726457
-3.297722
-3.058632
-3.131549
-3.162844
-2.624265
-1.568699
-0.685879
-0.448354
-0.592310
-0.632054
-0.529722
-0.569779
-0.769440
-0.670549
0.181602
1.552617
2.641669
2.940844
2.808781
2.847898
3.020644
3.040672
3.168353
3.749493
4.404801
4.647646
4.609466
4.624174
4.613846
4.248638
3.594580
2.997479
3.007179
4.065875
5.849353
7.529559
8.623618
9.314602
9.936737
10.469371
10.556369
9.978983
8.944383
7.936071
7.051685
5.951992
4.753409
3.995453
3.718808
3.550442
3.130468
2.309923
1.382664
0.766160
0.515489
0.341491
0.043879
-0.275640
-0.533821
-0.602044
-0.092569
0.880067
1.775405
2.353728
2.574041
2.450740
2.262033
2.216968
2.030139
1.504389
1.022451
1.020886
1.330702
1.505012
1.392038
1.056559
0.404379
-0.757590
-2.063201
-2.751057
-2.665936
-2.532935
-2.881557
-3.184802
-2.785797
-2.046619
-1.763717
-2.004373
-2.189324
-1.861045
-1.280531
-0.956319
-0.995438
-1.514616
-2.496954
-3.313744
-3.323446
-2.962933
-3.350047
-4.637821
-5.913389
-6.343377
-5.893988
-5.068124
-4.222858
-3.483367
-2.802710
-2.076363
-1.260514
-0.636813
-0.868081
-1.844473
-2.527322
-2.700381
-3.180754
-4.055752
-4.241016
-3.291539
-2.206869
-1.860125
-2.085134
-2.508551
-3.025225
-3.565370
-4.018204
-4.006626
-3.081558
-1.509005
-0.210906
0.261642
0.084827
-0.262857
-0.368320
-0.208406
-0.458763
-1.696465
-3.339432
-4.183761
-3.623275
-2.436898
-1.749356
-1.462698
-0.925684
-0.257545
-0.045681
-0.309495
-0.714761
-1.209842
-1.694283
-1.905835
-2.017557
-2.409679
-3.010536
-3.494351
-3.535974
-3.116314
-2.599954
-1.962483
-0.776732
0.551723
0.988595
0.640911
0.533257
1.090926
1.992836
2.397474
1.590073
0.326084
-0.072610
0.358942
0.567050
-0.041943
-0.907552
-1.043371
-0.135203
1.116580
1.764065
1.584120
0.925994
-0.032873
-1.176065
-2.101134
-2.419401
-2.120851
-1.700565
-1.725288
-2.112716
-2.353998
-2.405322
-2.646917
-3.023078
-3.022140
-2.858783
-3.198017
-3.658048
-3.472159
-3.033410
-3.104449
-3.456827
-3.382972
-3.170482
-3.895266
-5.593937
-6.945551
-7.091385
-6.791583
-6.814429
-6.735880
-6.054910
-5.332006
-5.494426
-6.031129
-5.646832
-4.443555
-3.342299
-2.389066
-1.106614
0.103860
0.358597
0.024057
0.177087
0.628042
0.052847
-2.126510
-4.641031
-5.787979
-5.424649
-4.713636
-4.363763
-4.117163
-3.791700
-3.690619
-4.105586
-4.678590
-4.575945
-3.135768
-0.691974
1.398817
2.112021
1.790311
1.469854
1.326524
0.589536
-0.878807
-2.028258
-2.145301
-1.703109
-1.418329
-1.153890
-0.388425
0.460910
0.290667
-0.589338
-0.548656
0.600168
1.571865
2.186177
3.773751
6.761759
9.244984
9.227771
7.858319
7.548815
7.784150
6.790546
5.174492
4.945728
6.365250
7.640504
7.640504
7.128210
7.187982
7.739706
7.976918
7.717485
7.614838
8.037627
8.432878
7.889603
6.120519
3.980281
2.776377
2.815495
2.863062
1.952701
1.220407
2.400213
5.327196
8.144021
9.071280
8.170308
7.116305
6.547056
5.860139
5.200448
5.187929
5.419196
5.164457
4.723516
4.682832
4.724453
4.388662
4.256598
5.043656
6.159934
6.244428
5.405420
5.381948
6.600246
7.218001
5.936173
4.187118
3.929563
4.523534
4.227173
3.053938
2.387988
2.884007
3.526172
3.118089
2.224628
2.510347
3.990581
4.541991
2.871485
0.257447
-1.187426
-0.825661
0.254628
1.029482
1.623139
2.105701
1.769597
0.482137
-0.632265
-1.205895
-2.348774
-4.452398
-6.683390
-8.422744
-9.090884
-7.587180
-4.161674
-1.216853
-0.338102
-0.542456
-0.562798
-0.968064
-2.297459
-3.294818
-2.956212
-1.710061
-0.360013
-0.312133
-2.637009
-5.163735
-4.786323
-1.695670
1.351484
2.111942
0.744055
-0.715213
-0.619452
-0.160674
-1.300737
-2.966236
-3.055113
-2.742480
-4.738450
-8.245636
-9.780950
-8.012180
-5.442581
-4.995695
-6.861480
-9.468320
-11.148527
-10.956066
-8.995148
-6.469987
-5.050465
-5.682930
-7.974946
-10.463493
-12.387799
-14.078020
-15.398027
-15.372679
-13.961293
-12.977705
-13.252785
-13.128859
-11.271213
-8.831487
-7.669519
-7.696746
-7.421041
-6.274408
-4.882738
-4.413633
-5.425700
-6.406161
-6.227782
-6.535409
-9.190756
-13.236522
-15.797046
-15.234057
-12.686052
-10.694151
-10.366497
-10.909146
-11.218338
-10.737966
-9.555970
-8.224699
-6.866827
-5.087417
-2.920893
-0.686146
1.399951
3.055434
3.048549
0.421993
-3.053586
-4.715642
-4.370776
-2.905564
-0.517474
1.130498
0.156610
-1.823400
-1.547382
0.982785
3.146806
3.535797
3.017245
3.406862
4.741889
4.824819
2.684268
1.074160
1.874676
2.908648
2.388532
1.992341
4.156675
8.157062
10.495081
9.316213
7.375321
8.014669
10.324836
11.174170
9.554987
7.784964
8.046586
9.547788
11.156329
12.789906
14.289856
15.434611
16.022323
16.137799
16.297714
16.810945
17.506936
17.562953
16.229802
14.735485
14.868486
16.251707
17.293503
17.131396
16.006981
14.712949
13.951864
13.489642
12.469124
10.834294
8.901539
6.770377
5.510143
6.919964
10.579240
13.322836
12.302006
8.460594
5.735147
6.285618
9.006996
11.413236
11.571899
9.450125
7.024793
6.101289
6.244618
6.067490
5.294826
4.053368
2.170372
0.738018
1.259072
3.211228
5.209075
6.326917
6.437699
6.581966
7.611558
8.821406
8.875858
7.813406
7.302365
8.323194
9.625361
9.766499
8.630505
6.716214
4.417625
2.560603
2.797816
5.077626
7.026653
7.206596
6.448015
5.576459
4.347520
3.068196
2.199458
1.101330
-0.970060
-3.219203
-4.064158
-3.325919
-2.887795
-4.354887
-6.803063
-8.297694
-8.364978
-8.073000
-8.461680
-9.373918
-9.743507
-9.401458
-8.841286
-8.272350
-8.367800
-9.701889
-11.472851
-12.421078
-12.607594
-12.960285
-13.845296
-14.464304
-13.718555
-12.583813
-12.812264
-13.151811
-11.492886
-8.942064
-7.854890
-8.392219
-9.079136
-8.824712
-7.583256
-6.238215
-6.186266
-7.691537
-9.022810
-8.657915
-7.955978
-9.021873
-10.929279
-11.242539
-9.780456
-8.769328
-9.531665
-10.795967
-10.598186
-8.280822
-5.479331
-4.986128
-6.742695
-7.648361
-5.781639
-2.779236
-1.616330
-2.828683
-4.402489
-4.588379
-3.481803
-2.672213
-2.995799
-2.867492
-1.104668
0.517330
-0.441224
-2.852160
-3.638594
-2.380865
-1.146920
-1.578160
-2.957626
-3.258368
-1.877651
-0.413378
-0.458130
-1.592559
-2.476945
-2.669721
-2.145537
-0.806129
0.972029
2.470727
4.059240
6.536206
9.103301
10.251499
9.796162
9.378692
10.222707
11.238841
11.449766
11.773352
12.268432
11.526436
9.540480
7.788921
7.346415
7.836175
7.904396
6.948659
6.211045
7.211532
9.328924
10.727792
10.965943
11.219741
11.849701
12.097553
11.871293
11.608105
11.153081
9.937911
8.341573
7.004667
5.946283
5.138256
4.400642
3.202371
1.083101
-1.334720
-2.716377
-2.980817
-3.646454
-5.534770
-7.441551
-7.368009
-5.406778
-4.027625
-4.780887
-6.461720
-7.316376
-7.795810
-8.873284
-10.122565
-10.664901
-10.384502
-9.906008
-9.580232
-8.952150
-8.135362
-7.718205
-7.098260
-5.470003
-3.965047
-4.020752
-4.743657
-4.822207
-4.590941
-4.856320
-5.711602
-6.185090
-5.429639
-4.101810
-3.108833
-2.731108
-2.455090
-1.748459
-1.013975
-0.709167
-1.084702
-2.650685
-4.608475
-4.996216
-3.728159
-2.766790
-2.807161
-2.225395
-0.664108
0.064742
-0.753925
-1.800417
-2.062666
-2.168756
-2.717350
-2.903554
-2.491405
-2.657267
-3.602051
-4.277389
-4.314318
-4.430734
-5.357368
-6.709295
-7.357407
-7.319228
-7.829330
-9.314885
-10.569799
-10.340411
-9.164673
-8.381057
-8.133205
-7.656589
-6.565660
-4.994672
-3.356400
-2.621604
-3.405534
-4.807220
-5.553283
-5.875618
-6.777529
-7.837478
-7.800551
-6.782538
-6.212039
-6.921175
-8.060299
-8.036828
-6.385100
-4.263640
-2.721130
-1.555407
-0.485446
0.243718
0.621130
1.232938
2.547937
4.011584
4.849966
5.109397
5.147263
4.967944
4.655937
4.993918
6.550510
8.699509
10.220426
10.078974
8.383432
6.805245
6.702911
7.349144
7.021176
5.642022
4.409327
3.435126
2.004337
0.235565
-0.744269
-0.300199
0.679634
0.704982
-0.525522
-1.884021
-2.301805
-2.105275
-2.414467
-3.292594
-3.654986
-3.251599
-3.212794
-3.814903
-3.535443
-1.725677
0.029636
0.380135
0.224600
0.750036
1.086765
0.258396
-0.651338
0.474328
3.504896
5.652330
5.130336
3.603159
3.640086
4.991699
5.576907
4.498494
3.255472
3.406938
4.398037
4.814254
4.425888
4.151121
4.508504
4.811748
4.340764
3.495809
3.050173
3.059874
3.182861
3.322747
3.505507
3.764313
4.137031
4.492850
4.466875
4.106360
3.496741
2.522852
1.205036
-0.152211
-1.036597
-1.334835
-1.288207
-1.104821
-0.877310
-0.453895
0.359138
1.290152
1.970496
2.047167
1.565229
1.312056
1.687277
2.183609
2.243381
2.240564
2.984122
4.602991
6.298532
7.352533
7.819135
7.702718
6.964165
6.122966
5.693603
5.540259
5.493317
5.242959
4.396127
3.550546
3.335865
2.948124
1.499184
-0.358151
-1.514174
-2.017705
-2.811024
-3.945140
-4.460250
-3.980504
-3.105195
-2.460527
-2.197653
-2.058706
-1.443142
-0.427007
0.099367
-0.024873
-0.298388
-0.470509
-0.398219
-0.042087
0.383205
0.878598
1.807734
3.013827
3.764897
3.682904
3.063897
2.408274
1.951059
1.588667
1.141467
0.743712
0.678932
0.707096
0.435458
0.380066
1.182146
2.349747
2.774727
2.246160
1.466298
0.891729
0.724302
0.672353
-0.051492
-1.531727
-2.969088
-3.687300
-3.781810
-3.472307
-2.678990
-1.882856
-1.974237
-2.901810
-3.923892
-4.634280
-5.133429
-5.798753
-6.689085
-7.715861
-8.867190
-9.873937
-10.394680
-10.369958
-10.200968
-10.853148
-12.571222
-14.270206
-14.936156
-14.509611
-13.491598
-12.165021
-10.510790
-8.512943
-6.607103
-5.349687
-4.608945
-3.774005
-2.744101
-1.819659
-0.905858
0.404446
2.430458
4.920568
6.855199
7.569028
7.786212
8.454977
9.321211
9.517114
8.962260
8.623339
9.212929
10.254099
10.904713
11.061186
11.179166
11.436406
11.543120
11.447984
11.565964
11.987189
12.375554
12.186847
11.166956
9.980890
9.492693
9.640716
9.546519
8.599544
7.047018
5.816827
5.851250
7.030117
8.102895
7.833135
6.215830
4.411070
3.229698
2.511174
1.621155
0.231674
-1.244179
-2.065976
-2.003701
-1.487653
-1.099914
-1.469504
-2.845841
-4.332335
-4.825851
-4.560786
-4.277258
-4.158026
-4.211228
-4.519480
-4.994220
-5.266171
-5.003922
-4.785800
-5.475220
-6.635625
-6.803677
-5.653289
-4.582388
-4.552346
-5.033032
-5.156333
-4.752633
-4.383984
-4.577698
-4.818354
-4.747629
-4.661882
-4.599920
-3.893601
-2.395217
-1.004798
-0.463716
-0.503147
-0.437429
-0.243717
-0.018709
-0.127302
-0.716893
-1.446996
-1.762759
-1.549644
-1.325888
-1.592206
-2.221228
-2.690334
-2.824589
