EVENT_NAME: 202302060117
EVENT_ID: 13194
EVENT_DATE_YYYYMMDD: 2023/02/06
EVENT_TIME_HHMMSS: 01:17:32.00000
EVENT_LATITUDE_DEGREE: 37.288
EVENT_LONGITUDE_DEGREE: 37.043
EVENT_DEPTH_KM: 8.6
HYPOCENTER_REFERENCE: AFAD
MAGNITUDE_W: 7.7
MAGNITUDE_W_REFERENCE: AFAD
MAGNITUDE_L: 
MAGNITUDE_L_REFERENCE: 
FOCAL_MECHANISM: 
NETWORK: TK
STATION_CODE: 5603
STATION_NAME: 
STATION_LATITUDE_DEGREE: 37.74845
STATION_LONGITUDE_DEGREE: 42.176023
STATION_ELEVATION_M: 1170.0
LOCATION: Kahramanmaras_Pazarck_Turkiye
SENSOR_DEPTH_M: 
VS30_M/S: None
SITE_CLASSIFICATION_EC8: unknown
MORPHOLOGIC_CLASSIFICATION: 
EPICENTRAL_DISTANCE_KM: 455.54
EARTHQUAKE_BACKAZIMUTH_DEGREE: 
DATE_TIME_FIRST_SAMPLE_YYYYMMDD_HHMMSS: 2023/02/06 01:18:09.8255180
DATE_TIME_FIRST_SAMPLE_PRECISION: millisecond
SAMPLING_INTERVAL_S: 0.005
NDATA: 49001
DURATION_S: 
STREAM: HNZ
UNITS: cm/s^2
INSTRUMENT: sensor = GEO-A200,/GEObit | digitizer = 
INSTRUMENT_ANALOG/DIGITAL: 
INSTRUMENTAL_FREQUENCY_HZ: 
INSTRUMENTAL_DAMPING: 
FULL_SCALE_G: 
N_BIT_DIGITAL_CONVERTER: 
PGA_CM/S^2: 6.941
TIME_PGA_S: 
BASELINE_CORRECTION: BASELINE REMOVED
FILTER_TYPE: BUTTERWORTH
FILTER_ORDER: 
LOW_CUT_FREQUENCY_HZ: 
HIGH_CUT_FREQUENCY_HZ: 
LATE/NORMAL_TRIGGERED: 
DATABASE_VERSION: 
HEADER_FORMAT: DYNA 1.2
DATA_TYPE: Acceleration
PROCESSING: Automatic Paolucci et al., 2011
DATA_TIMESTAMP_YYYYMMDD_HHMMSS: 
DATA_LICENSE: U (unknown license)
DATA_CITATION: Turkish Accelerometric Archive v 1.0 - Disaster And Emergency Management Presidency, Earthquake Department
DATA_CREATOR: AFAD
ORIGINAL_DATA_MEDIATOR_CITATION: : AFAD - Disaster And Emergency Management Presidency
ORIGINAL_DATA_MEDIATOR: AFAD PROCESS SERVICE
ORIGINAL_DATA_CREATOR_CITATION: AFAD PROCESS SERVICE
ORIGINAL_DATA_CREATOR: network: TK
USER1: GuestUser
USER2: 
USER3: 
USER4: 
USER5: 
[...]
1.484940
1.181018
0.846962
0.478301
0.120703
-0.194048
-0.456302
-0.684420
-0.841207
-0.898649
-0.927134
-0.953972
-0.933020
-0.844033
-0.737155
-0.627922
-0.453244
-0.216651
0.013821
0.212277
0.386484
0.511961
0.562104
0.546567
0.498071
0.430035
0.332573
0.214394
0.087269
-0.020081
-0.109539
-0.174044
-0.156152
-0.096357
-0.029263
0.051249
0.118813
0.170604
0.174606
0.153418
0.170603
0.204738
0.227809
0.251821
0.278187
0.286662
0.272066
0.237695
0.200970
0.171543
0.129874
0.087734
0.059013
0.023230
-0.003372
-0.019381
-0.063875
-0.134264
-0.239260
-0.361206
-0.488331
-0.660891
-0.849459
-1.038734
-1.208705
-1.320527
-1.406454
-1.470488
-1.520867
-1.561359
-1.558299
-1.534522
-1.488381
-1.377735
-1.224244
-1.078287
-0.950691
-0.846638
-0.774601
-0.719278
-0.689616
-0.672902
-0.642533
-0.606750
-0.553546
-0.469032
-0.359329
-0.244681
-0.126503
0.014747
0.168708
0.304779
0.422957
0.510532
0.532190
0.483929
0.356098
0.188953
-0.010680
-0.270345
-0.512823
-0.747062
-0.968589
-1.126789
-1.279103
-1.417293
-1.525584
-1.631051
-1.706384
-1.748524
-1.774891
-1.776539
-1.780070
-1.808791
-1.816560
-1.812323
-1.816796
-1.800317
-1.745465
-1.631760
-1.465556
-1.241676
-0.969771
-0.669616
-0.350863
-0.056357
0.228731
0.526061
0.822214
1.120015
1.395216
1.627101
1.810490
1.952445
2.064974
2.148546
2.213286
2.257308
2.310512
2.378076
2.431751
2.497902
2.557227
2.606899
2.654453
2.673051
2.711423
2.748854
2.762273
2.772160
2.738024
2.681054
2.598422
2.474593
2.328164
2.170200
2.001877
1.785765
1.554822
1.321524
1.063508
0.798194
0.514282
0.220483
-0.073316
-0.342162
-0.571692
-0.780742
-0.956363
-1.108442
-1.250633
-1.380583
-1.519479
-1.678855
-1.857301
-2.039278
-2.198184
-2.344377
-2.480213
-2.593919
-2.695383
-2.803439
-2.931977
-3.060279
-3.186227
-3.301581
-3.375972
-3.419760
-3.447539
-3.478144
-3.514869
-3.554890
-3.602208
-3.645761
-3.671421
-3.670715
-3.651647
-3.600797
-3.516754
-3.404225
-3.260386
-3.109249
-2.940927
-2.730230
-2.506585
-2.280586
-2.041639
-1.815405
-1.588935
-1.366467
-1.166363
-0.958021
-0.748971
-0.540628
-0.337936
-0.161374
-0.018947
0.066038
0.098525
0.086518
0.037081
-0.036605
-0.124651
-0.209636
-0.277436
-0.329228
-0.385492
-0.449290
-0.524859
-0.624911
-0.759098
-0.939898
-1.136706
-1.317270
-1.477824
-1.583997
-1.631316
-1.662391
-1.683579
-1.702883
-1.730192
-1.758677
-1.788575
-1.810940
-1.822476
-1.830245
-1.864380
-1.930532
-2.007984
-2.105211
-2.203145
-2.285070
-2.370055
-2.467518
-2.568511
-2.650907
-2.697284
-2.702228
-2.689281
-2.693518
-2.727418
-2.776621
-2.814994
-2.840654
-2.855015
-2.864196
-2.879263
-2.886797
-2.876439
-2.862078
-2.854781
-2.855016
-2.861608
-2.866788
-2.874321
-2.889153
-2.897863
-2.889389
-2.875735
-2.884210
-2.925172
-2.986616
-3.038408
-3.053710
-3.031111
-2.984734
-2.939299
-2.916464
-2.928470
-2.971081
-3.026404
-3.099383
-3.187664
-3.275239
-3.367522
-3.462395
-3.557268
-3.658262
-3.774087
-3.913218
-4.058705
-4.201838
-4.333907
-4.428073
-4.460090
-4.415126
-4.309895
-4.165586
-3.995615
-3.829883
-3.666740
-3.497240
-3.320679
-3.117986
-2.890810
-2.636796
-2.352414
-2.053906
-1.746453
-1.440648
-1.139552
-0.821976
-0.482035
-0.117376
0.256464
0.615003
0.956591
1.273931
1.569849
1.852819
2.120722
2.379679
2.620510
2.824851
2.978812
3.074391
3.124299
3.140542
3.129478
3.102875
3.062148
3.009415
2.949148
2.870284
2.765994
2.651111
2.540230
2.433586
2.331415
2.255846
2.212294
2.200052
2.220533
2.241721
2.243839
2.217943
2.169918
2.113183
2.060685
2.049149
2.051267
2.052444
2.068923
2.061860
2.057152
2.065156
2.082812
2.132484
2.175565
2.222413
2.295627
2.396149
2.537634
2.714196
2.909826
3.082151
3.225519
3.345110
3.441395
3.520730
3.545448
3.512254
3.414085
3.238700
3.018115
2.763630
2.499493
2.235592
1.966511
1.698137
1.411635
1.091940
0.725162
0.319069
-0.101620
-0.522073
-0.918278
-1.290000
-1.633708
-1.946105
-2.221542
-2.460019
-2.691197
-2.906132
-3.104353
-3.278090
-3.418869
-3.565533
-3.682535
-3.763519
-3.839087
-3.872046
-3.853919
-3.796007
-3.721616
-3.639927
-3.539640
-3.438882
-3.310816
-3.127427
-2.891540
-2.587148
-2.229316
-1.854534
-1.481400
-1.111797
-0.754671
-0.431916
-0.143767
0.110718
0.321650
0.488089
0.613801
0.699021
0.745869
0.763054
0.758816
0.739983
0.716441
0.695018
0.669592
0.635222
0.589551
0.531167
0.454186
0.340244
0.183222
0.001951
-0.178378
-0.342227
-0.482771
-0.605894
-0.713479
-0.785988
-0.825538
-0.846961
-0.849315
-0.840605
-0.836839
-0.834485
-0.815652
-0.763860
-0.668752
-0.534330
-0.353296
-0.115290
0.164384
0.476545
0.806834
1.151482
1.507196
1.855140
2.212031
2.567744
2.906272
3.241033
3.558374
3.839460
4.069226
4.261796
4.459074
4.662709
4.861164
5.033959
5.163673
5.263725
5.331760
5.369662
5.400030
5.438873
5.490900
5.527625
5.541514
5.528801
5.471595
5.382137
5.255483
5.093046
4.905890
4.677536
4.412457
4.113950
3.777304
3.405818
2.989602
2.541370
2.087723
1.638785
1.201617
0.770335
0.341642
-0.064451
-0.437350
-0.785295
-1.100282
-1.389138
-1.666458
-1.931537
-2.177311
-2.378357
-2.548092
-2.699700
-2.823293
-2.935822
-3.045291
-3.162764
-3.287064
-3.428784
-3.599697
-3.780261
-3.973538
-4.168462
-4.348320
-4.495691
-4.594095
-4.658129
-4.695560
-4.743585
-4.817506
-4.881068
-4.923679
-4.938040
-4.933567
-4.921561
-4.900845
-4.891664
-4.893312
-4.915912
-4.964643
-5.035504
-5.150151
-5.296580
-5.465138
-5.642878
-5.821559
-6.015542
-6.206700
-6.383497
-6.513918
-6.579835
-6.592312
-6.548289
-6.468248
-6.356897
-6.211645
-6.039556
-5.835216
-5.584262
-5.287639
-4.978067
-4.658372
-4.330438
-4.008389
-3.680219
-3.344046
-3.001751
-2.644861
-2.272668
-1.880701
-1.471313
-1.041208
-0.593211
-0.145921
0.291952
0.714288
1.109787
1.460792
1.753414
1.977765
2.148912
2.294870
2.413519
2.509098
2.572189
2.597849
2.613151
2.604676
2.578073
2.545821
2.479198
2.385973
2.277682
2.164211
2.064394
1.971640
1.893717
1.824505
1.744463
1.670071
1.600388
1.524819
1.449721
1.375330
1.293640
1.207242
1.139913
1.110957
1.142502
1.225604
1.321889
1.435359
1.546946
1.622514
1.688430
1.758584
1.835800
1.939619
2.079691
2.258371
2.452119
2.651751
2.866450
3.081620
3.298203
3.522318
3.739607
3.942065
4.137695
4.344390
4.548025
4.733768
4.898323
5.011323
5.079828
5.100074
5.058170
4.987545
4.872191
4.717757
4.540254
4.328144
4.121448
3.912399
3.696757
3.485353
3.266887
3.062781
2.862207
2.662338
2.476595
2.295089
2.131475
2.004114
1.919600
1.880991
1.880520
1.915832
1.975157
2.046017
2.128177
2.209395
2.300736
2.405967
2.522733
2.670103
2.842428
3.041118
3.262409
3.477579
3.659791
3.783149
3.845769
3.857069
3.829289
3.768317
3.671089
3.536902
3.382704
3.231803
3.083726
2.940593
2.788749
2.616189
2.424560
2.198325
1.943134
1.668403
1.380018
1.079392
0.765582
0.449889
0.129723
-0.195857
-0.524969
-0.864204
-1.217563
-1.577985
-1.924518
-2.245861
-2.536129
-2.783787
-2.987658
-3.144916
-3.258151
-3.334897
-3.356555
-3.316770
-3.238377
-3.130086
-2.990955
-2.827812
-2.657371
-2.487401
-2.315783
-2.151463
-1.992557
-1.830121
-1.667684
-1.508307
-1.363527
-1.236167
-1.103157
-0.957906
-0.827486
-0.739440
-0.697772
-0.692593
-0.715193
-0.758510
-0.819012
-0.891050
-0.958143
-1.010641
-1.049485
-1.091154
-1.158248
-1.255946
-1.397902
-1.579172
-1.770801
-1.971376
-2.185840
-2.413958
-2.653612
-2.896091
-3.135509
-3.372102
-3.610579
-3.839874
-4.049866
-4.248557
-4.426767
-4.560719
-4.643821
-4.666892
-4.627342
-4.535766
-4.389337
-4.197238
-3.967001
-3.703100
-3.406947
-3.080896
-2.745429
-2.389951
-1.997042
-1.569291
-1.108818
-0.622213
-0.116305
0.390546
0.885625
1.372230
1.841178
2.288939
2.701623
3.050745
3.331831
3.563010
3.768528
3.959450
4.144016
4.314927
4.458531
4.579770
4.672759
4.741500
4.791173
4.803179
4.778931
4.721018
4.619083
4.481364
4.327637
4.165435
3.993346
3.821021
3.658584
3.496382
3.331355
3.167506
3.000360
2.838865
2.687256
2.544830
2.423355
2.326128
2.255503
2.215011
2.208419
2.236669
2.287047
2.356730
2.449955
2.570252
2.733160
2.927378
3.126304
3.328997
3.528159
3.726379
3.924363
4.093392
4.239820
4.373536
4.493127
4.603537
4.681460
4.729720
4.761030
4.765973
4.751377
4.720302
4.681929
4.644498
4.596943
4.539266
4.486062
4.431916
4.361056
4.279837
4.192027
4.093858
4.004635
3.949783
3.924358
3.921768
3.936599
3.950959
3.955667
3.940129
3.905758
3.849494
3.761683
3.651979
3.514496
3.338876
3.131945
2.926897
2.746097
2.574479
2.417692
2.267496
2.108825
1.969459
1.843747
1.730276
1.645055
1.567132
1.502393
1.434592
1.353845
1.294284
1.242492
1.193526
1.150444
1.110659
1.075817
1.045919
1.040504
1.044506
1.044976
1.051097
1.057924
1.065692
1.073696
1.080288
1.081935
1.064279
1.016960
0.940450
0.849579
0.774481
0.716333
0.650652
0.583323
0.518112
0.461377
0.413587
0.361324
0.309297
0.250443
0.185232
0.115785
0.038803
-0.023347
-0.085497
-0.162007
-0.249582
-0.345868
-0.431324
-0.513013
-0.595409
-0.687693
-0.813640
-0.971605
-1.161586
-1.373460
-1.594281
-1.833934
-2.093598
-2.368564
-2.639764
-2.893072
-3.138375
-3.370496
-3.600497
-3.850509
-4.104288
-4.355713
-4.594189
-4.808183
-5.003814
-5.157540
-5.260653
-5.317624
-5.330101
-5.316918
-5.297614
-5.291023
-5.309621
-5.360942
-5.434862
-5.510196
-5.576583
-5.628846
-5.685817
-5.739021
-5.759032
-5.767507
-5.786105
-5.811295
-5.844724
-5.887335
-5.941480
-5.990447
-6.023406
-6.065781
-6.101329
-6.114277
-6.126048
-6.130050
-6.130286
-6.134759
-6.131463
-6.100860
-6.034237
-5.941719
-5.839784
-5.747737
-5.667931
-5.586006
-5.491840
-5.398851
-5.330345
-5.300212
-5.286558
-5.263488
-5.251482
-5.252188
-5.248186
-5.233355
-5.202987
-5.156610
-5.078452
-4.976753
-4.860929
-4.706496
-4.529228
-4.344897
-4.166217
-4.017199
-3.874537
-3.727402
-3.582857
-3.436429
-3.304596
-3.190419
-3.101432
-3.070593
-3.084483
-3.128270
-3.215139
-3.316133
-3.420187
-3.529420
-3.637712
-3.747887
-3.865359
-3.997899
-4.145976
-4.326305
-4.510636
-4.673544
-4.823975
-4.942389
-5.051622
-5.163210
-5.257612
-5.336241
-5.374379
-5.385679
-5.382854
-5.337419
-5.272209
-5.186753
-5.082700
-4.985944
-4.880007
-4.785370
-4.695912
-4.584090
-4.456259
-4.282758
-4.069707
-3.828170
-3.551086
-3.271647
-3.006098
-2.772095
-2.579054
-2.408378
-2.249472
-2.083975
-1.899174
-1.693420
-1.477779
-1.267318
-1.077808
-0.941973
-0.864522
-0.835095
-0.843806
-0.863110
-0.892066
-0.937502
-1.002006
-1.093818
-1.206818
-1.340535
-1.488141
-1.635747
-1.776761
-1.898942
-2.006292
-2.113171
-2.209221
-2.281494
-2.326930
-2.341761
-2.326930
-2.284085
-2.218639
-2.140952
-2.048670
-1.945322
-1.839150
-1.719794
-1.582782
-1.426466
-1.237428
-1.016608
-0.776248
-0.512818
-0.215488
0.102324
0.407423
0.677680
0.901325
1.087539
1.258215
1.414060
1.560959
1.706917
1.859466
2.017195
2.161505
2.279919
2.361843
2.426582
2.488497
2.535580
2.573952
2.608087
2.646224
2.689070
2.735211
2.801834
2.889644
3.012766
3.175673
3.355766
3.548572
3.744438
3.931593
4.104388
4.255996
4.406662
4.572395
4.752958
4.950237
5.139276
5.306185
5.464149
5.609401
5.750179
5.891193
6.020201
6.126138
6.185698
6.194408
6.160272
6.101183
6.041387
5.978531
5.902726
5.807854
5.681906
5.522293
5.334902
5.126559
4.894203
4.648193
4.408068
4.175713
3.953480
3.725126
3.469464
3.186258
2.875038
2.549222
2.238002
1.963271
1.726914
1.515274
1.317054
1.125896
0.932148
0.729219
0.526997
0.330424
0.142562
-0.035177
-0.208208
-0.381945
-0.565570
-0.755786
-0.939411
-1.107734
-1.254634
-1.384819
-1.520889
-1.690154
-1.891199
-2.116022
-2.371213
-2.653948
-2.961401
-3.284392
-3.601027
-3.903301
-4.175207
-4.405209
-4.598485
-4.743502
-4.840023
-4.901466
-4.934425
-4.937721
-4.903115
-4.829901
-4.717608
-4.573769
-4.406153
-4.207697
-3.984994
-3.759701
-3.548533
-3.350313
-3.161274
-3.000721
-2.883484
-2.796380
-2.727639
-2.663606
-2.588273
-2.496226
-2.381343
-2.256573
-2.137217
-2.031751
-1.951004
-1.884617
-1.836592
-1.806694
-1.779857
-1.758905
-1.741014
-1.722652
-1.687340
-1.620246
-1.535497
-1.441095
-1.345281
-1.246642
-1.136232
-1.023468
-0.900110
-0.750151
-0.587008
-0.419863
-0.248480
-0.070741
0.111941
0.285914
0.449527
0.611493
0.784995
0.976152
1.176962
1.391896
1.624252
1.865082
2.108031
2.334501
2.532015
2.702456
2.841822
2.947759
3.023092
3.077473
3.113726
3.139387
3.170697
3.214013
3.282754
3.377391
3.486859
3.610453
3.734046
3.839276
3.910843
3.928263
3.884946
3.792192
3.665774
3.526643
3.393632
3.265095
3.127376
2.963291
2.768837
2.551548
2.324136
2.106612
1.903683
1.711348
1.530313
1.355163
1.169890
0.977320
0.806878
0.666806
0.557101
0.473764
0.393487
0.313445
0.242349
0.187026
0.151008
0.134057
0.153832
0.207036
0.290373
0.406197
0.529555
0.659504
0.797458
0.938472
1.097142
1.267112
1.436141
1.597165
1.751598
1.922745
2.120494
2.347905
2.599094
2.859464
3.129486
3.399508
3.658936
3.912950
4.154251
4.382133
4.607897
4.831071
5.060601
5.295311
5.524606
5.751546
5.975427
6.200249
6.413300
6.600926
6.757949
6.869300
6.933569
6.940866
6.901551
6.843639
6.763126
6.657424
6.523237
6.364331
6.200246
6.027450
5.852301
5.687980
5.527661
5.369697
5.205847
5.025283
4.822590
4.600592
4.373416
4.146710
3.925889
3.705069
3.468005
3.219170
2.966333
2.709494
2.448182
2.180749
1.906725
1.623754
1.331838
1.043689
0.763073
0.493286
0.230326
-0.035930
-0.288531
-0.523477
-0.742885
-0.938986
-1.109663
-1.229019
-1.293288
-1.321303
-1.310945
-1.268570
-1.194179
-1.088948
-0.967003
-0.827637
-0.668731
-0.491934
-0.310429
-0.134809
0.037280
0.193361
0.319073
0.400526
0.435368
0.447609
0.441017
0.414180
0.382163
0.358621
0.359798
0.388048
0.429245
0.477034
0.534711
0.597567
0.653360
0.699501
0.740228
0.770597
0.790842
0.810617
0.831333
0.848989
0.857464
0.860289
0.866174
0.860524
0.843338
0.831096
0.828036
0.836981
0.842396
0.845456
0.860757
0.887124
0.925026
0.958454
0.993296
1.041556
1.087462
1.112416
1.106765
1.082282
1.035198
0.967634
0.895596
0.832034
0.793896
0.768706
0.747048
0.733158
0.706791
0.657118
0.590731
0.517516
0.448068
0.394864
0.362612
0.345426
0.325651
0.282099
0.207236
0.106007
-0.005345
-0.117874
-0.232522
-0.349053
-0.464407
-0.569167
-0.664040
-0.735371
-0.780101
-0.825772
-0.863909
-0.885097
-0.896633
-0.902989
-0.908168
-0.910758
-0.912642
-0.914996
-0.919940
-0.939480
-0.958549
-0.951487
-0.921589
-0.872858
-0.803411
-0.713011
-0.605897
-0.491250
-0.368363
-0.250184
-0.148485
-0.059027
0.013010
0.075631
0.147197
0.221823
0.299746
0.390852
0.502203
0.624855
0.741150
0.863566
0.984099
1.083915
1.164898
1.220220
1.258122
1.272718
1.260005
1.228930
1.177373
1.113575
1.048600
0.984802
0.910882
0.811300
0.683469
0.533980
0.375309
0.223937
0.084335
-0.043026
-0.164265
-0.289742
-0.401329
-0.489375
-0.561648
-0.618854
-0.667586
-0.709255
-0.749511
-0.802480
-0.866749
-0.933842
-0.999759
-1.071326
-1.162667
-1.272607
-1.388667
-1.501903
-1.613255
-1.726254
-1.841608
-1.974383
-2.126933
-2.282308
-2.425441
-2.541266
-2.635433
-2.720183
-2.803520
-2.905926
-3.035641
-3.179951
-3.320730
-3.436555
-3.524601
-3.597580
-3.661378
-3.705401
-3.717407
-3.715289
-3.716937
-3.719527
-3.713877
-3.692925
-3.671032
-3.667736
-3.693397
-3.742599
-3.802159
-3.866663
-3.938230
-4.027218
-4.137863
-4.264753
-4.403648
-4.539248
-4.652248
-4.748769
-4.825986
-4.875188
-4.907911
-4.931453
-4.951699
-4.967707
-4.981832
-5.012908
-5.047985
-5.076235
-5.095304
-5.090360
-5.075059
-5.042807
-4.973830
-4.886020
-4.797269
-4.714402
-4.629888
-4.550789
-4.500410
-4.471454
-4.459684
-4.464863
-4.476634
-4.498057
-4.520657
-4.525366
-4.504885
-4.459921
-4.392592
-4.287832
-4.142345
-3.977790
-3.808761
-3.651268
-3.515433
-3.405023
-3.305443
-3.193149
-3.065790
-2.925953
-2.792237
-2.683475
-2.597313
-2.537517
-2.497968
-2.479135
-2.487845
-2.502206
-2.511387
-2.509269
-2.484786
-2.424049
-2.312933
-2.169094
-1.999359
-1.802787
-1.595150
-1.370328
-1.127144
-0.872659
-0.612289
-0.360630
-0.126391
0.072300
0.227438
0.355975
0.456733
0.533243
0.589036
0.614932
0.616580
0.595392
0.559844
0.518175
0.467325
0.412002
0.352912
0.286525
0.213546
0.127854
0.027802
-0.080254
-0.191606
-0.290246
-0.370523
-0.433850
-0.479050
-0.521190
-0.568509
-0.622654
-0.685511
-0.751663
-0.829821
-0.914571
-0.990846
-1.066180
-1.137746
-1.194953
-1.231678
-1.258044
-1.298065
-1.357155
-1.437903
-1.539367
-1.645070
-1.740649
-1.817394
-1.875542
-1.913209
-1.942872
-1.972299
-1.983128
-1.972770
-1.943108
-1.901911
-1.868246
-1.848943
-1.841409
-1.834818
-1.806804
-1.757131
-1.691215
-1.598226
-1.489935
-1.390119
-1.297836
-1.197784
-1.096085
-1.013454
-0.963311
-0.962369
-1.004744
-1.079136
-1.188134
-1.318790
-1.462629
-1.615415
-1.786562
-1.980781
-2.162757
-2.329432
-2.496813
-2.664430
-2.830398
-2.977062
-3.109131
-3.231077
-3.333247
-3.424825
-3.494979
-3.526996
-3.530762
-3.511694
-3.484857
-3.462257
-3.445307
-3.451193
-3.474029
-3.506281
-3.534531
-3.528175
-3.492627
-3.423651
-3.323128
-3.195533
-3.026975
-2.844057
-2.658314
-2.487167
-2.346860
-2.214321
-2.104146
-2.018690
-1.952068
-1.900983
-1.845660
-1.779509
-1.678045
-1.543152
-1.388954
-1.210980
-1.032064
-0.876219
-0.746034
-0.633976
-0.537456
-0.468950
-0.438346
-0.435286
-0.451530
-0.483782
-0.527805
-0.583364
-0.651164
-0.742035
-0.848914
-0.964739
-1.097984
-1.233584
-1.367065
-1.503607
-1.638971
-1.786577
-1.936537
-2.070489
-2.193848
-2.306612
-2.413962
-2.520841
-2.620658
-2.720710
-2.827589
-2.932820
-3.025103
-3.084899
-3.104674
-3.085135
-3.025575
-2.941061
-2.843363
-2.742606
-2.643967
-2.546975
-2.462461
-2.388776
-2.321212
-2.249411
-2.161836
-2.057782
-1.937250
-1.809890
-1.689357
-1.583185
-1.485252
-1.381669
-1.275497
-1.172385
-1.079160
-1.001473
-0.929201
-0.871760
-0.832916
-0.785833
-0.717798
-0.627869
-0.518166
-0.389158
-0.247909
-0.108072
0.029411
0.153710
0.254939
0.333568
0.385594
0.432913
0.489883
0.549914
0.610886
0.662913
0.707406
0.743660
0.769791
0.791214
0.802514
0.806515
0.809576
0.825348
0.876904
0.956004
1.044755
1.126915
1.189771
1.246741
1.305595
1.365626
1.422597
1.472504
1.522412
1.561727
1.578206
1.573026
1.543834
1.501459
1.463557
1.442840
1.452257
1.484038
1.539831
1.625757
1.717569
1.815502
1.921910
2.016547
2.104828
2.189577
2.261144
2.318349
2.359547
2.399568
2.453242
2.532106
2.639691
2.772701
2.938434
3.116879
3.294853
3.473298
3.637383
3.780515
3.899400
4.007927
4.107272
4.179074
4.232513
4.273004
4.297252
4.308787
4.302901
4.268060
4.193668
4.092910
3.984383
3.871618
3.761679
3.651504
3.534266
3.416087
3.296967
3.191029
3.106750
