EVENT_NAME: 202302060117
EVENT_ID: 13194
EVENT_DATE_YYYYMMDD: 2023/02/06
EVENT_TIME_HHMMSS: 01:17:32.00000
EVENT_LATITUDE_DEGREE: 37.288
EVENT_LONGITUDE_DEGREE: 37.043
EVENT_DEPTH_KM: 8.6
HYPOCENTER_REFERENCE: AFAD
MAGNITUDE_W: 7.7
MAGNITUDE_W_REFERENCE: AFAD
MAGNITUDE_L: 
MAGNITUDE_L_REFERENCE: 
FOCAL_MECHANISM: 
NETWORK: TK
STATION_CODE: 0719
STATION_NAME: 
STATION_LATITUDE_DEGREE: 36.316832
STATION_LONGITUDE_DEGREE: 32.38749
STATION_ELEVATION_M: 197.0
LOCATION: Kahramanmaras_Pazarck_Turkiye
SENSOR_DEPTH_M: 
VS30_M/S: None
SITE_CLASSIFICATION_EC8: unknown
MORPHOLOGIC_CLASSIFICATION: 
EPICENTRAL_DISTANCE_KM: 428.28
EARTHQUAKE_BACKAZIMUTH_DEGREE: 
DATE_TIME_FIRST_SAMPLE_YYYYMMDD_HHMMSS: 2023/02/06 01:18:06.4563820
DATE_TIME_FIRST_SAMPLE_PRECISION: millisecond
SAMPLING_INTERVAL_S: 0.01
NDATA: 21001
DURATION_S: 
STREAM: HNE
UNITS: cm/s^2
INSTRUMENT: sensor = ACEBOX/SARA | digitizer = 
INSTRUMENT_ANALOG/DIGITAL: 
INSTRUMENTAL_FREQUENCY_HZ: 
INSTRUMENTAL_DAMPING: 
FULL_SCALE_G: 
N_BIT_DIGITAL_CONVERTER: 
PGA_CM/S^2: 377.399
TIME_PGA_S: 
BASELINE_CORRECTION: BASELINE REMOVED
FILTER_TYPE: BUTTERWORTH
FILTER_ORDER: 
LOW_CUT_FREQUENCY_HZ: 
HIGH_CUT_FREQUENCY_HZ: 
LATE/NORMAL_TRIGGERED: 
DATABASE_VERSION: 
HEADER_FORMAT: DYNA 1.2
DATA_TYPE: Acceleration
PROCESSING: Automatic Paolucci et al., 2011
DATA_TIMESTAMP_YYYYMMDD_HHMMSS: 
DATA_LICENSE: U (unknown license)
DATA_CITATION: Turkish Accelerometric Archive v 1.0 - Disaster And Emergency Management Presidency, Earthquake Department
DATA_CREATOR: AFAD
ORIGINAL_DATA_MEDIATOR_CITATION: : AFAD - Disaster And Emergency Management Presidency
ORIGINAL_DATA_MEDIATOR: AFAD PROCESS SERVICE
ORIGINAL_DATA_CREATOR_CITATION: AFAD PROCESS SERVICE
ORIGINAL_DATA_CREATOR: network: TK
USER1: GuestUser
USER2: 
USER3: 
USER4: 
USER5: 
[...]
-0.304797
-0.342906
-0.371195
-0.412811
-0.459337
-0.495342
-0.529009
-0.550986
-0.572495
-0.599616
-0.612241
-0.626503
-0.648714
-0.669288
-0.697344
-0.733816
-0.771224
-0.810268
-0.850715
-0.884616
-0.909165
-0.922725
-0.918750
-0.900047
-0.871991
-0.845105
-0.822894
-0.801151
-0.784785
-0.776836
-0.783850
-0.807698
-0.828506
-0.842534
-0.857263
-0.860536
-0.853288
-0.849080
-0.846742
-0.850016
-0.864511
-0.880643
-0.893970
-0.902153
-0.903322
-0.897243
-0.892334
-0.898646
-0.904725
-0.912908
-0.923429
-0.923897
-0.924598
-0.920156
-0.906128
-0.892568
-0.873865
-0.858902
-0.860772
-0.869423
-0.871059
-0.864513
-0.858668
-0.854694
-0.850953
-0.844641
-0.833886
-0.825703
-0.812377
-0.791569
-0.770060
-0.743875
-0.716988
-0.695245
-0.670463
-0.643108
-0.617391
-0.594011
-0.570398
-0.544680
-0.531354
-0.526210
-0.516391
-0.513819
-0.513118
-0.510780
-0.515456
-0.519665
-0.530419
-0.546318
-0.561982
-0.590038
-0.612482
-0.622068
-0.636330
-0.643344
-0.636564
-0.619497
-0.602664
-0.595884
-0.584895
-0.567360
-0.550527
-0.539539
-0.540240
-0.549358
-0.559646
-0.570167
-0.586065
-0.607574
-0.624174
-0.644748
-0.676077
-0.705770
-0.738267
-0.777078
-0.817291
-0.857504
-0.888132
-0.906836
-0.924371
-0.940269
-0.958505
-0.975573
-0.976742
-0.972066
-0.971364
-0.964818
-0.962714
-0.969261
-0.973703
-0.984224
-0.994043
-0.994979
-1.002928
-1.004331
-0.999187
-0.996616
-0.981419
-0.970664
-0.966924
-0.955000
-0.936764
-0.903331
-0.868028
-0.832491
-0.790407
-0.768898
-0.751831
-0.734998
-0.731491
-0.724009
-0.730556
-0.757442
-0.779186
-0.794616
-0.803968
-0.815658
-0.833661
-0.847455
-0.863353
-0.881590
-0.891643
-0.898657
-0.900294
-0.891409
-0.892812
-0.900060
-0.889773
-0.868264
-0.838805
-0.803970
-0.769602
-0.729389
-0.688240
-0.637273
-0.572043
-0.504944
-0.430129
-0.363496
-0.312763
-0.257820
-0.198202
-0.130401
-0.059327
0.007539
0.077912
0.139868
0.188966
0.221230
0.236660
0.255831
0.275470
0.292304
0.312176
0.328308
0.346778
0.355896
0.359637
0.372963
0.377171
0.382549
0.390731
0.380444
0.375067
0.377171
0.367351
0.353323
0.341867
0.338126
0.340932
0.353323
0.376936
0.392133
0.406628
0.426034
0.430476
0.437723
0.453621
0.461103
0.465077
0.452920
0.433047
0.429774
0.427202
0.426734
0.434449
0.430708
0.422292
0.410602
0.386287
0.361270
0.336488
0.311004
0.282714
0.243436
0.198781
0.149683
0.093104
0.038395
-0.011637
-0.050681
-0.071490
-0.078504
-0.082712
-0.087856
-0.083881
-0.073127
-0.074296
-0.077335
-0.067282
-0.063074
-0.072893
-0.085752
-0.092766
-0.095806
-0.104690
-0.108665
-0.102352
-0.088558
-0.061204
-0.037123
-0.021225
0.003324
0.042368
0.095907
0.139160
0.170488
0.213039
0.246472
0.263773
0.282243
0.299310
0.324326
0.356824
0.381373
0.410130
0.448472
0.485880
0.519780
0.547135
0.568644
0.590387
0.612364
0.632938
0.647199
0.660058
0.671514
0.670111
0.663799
0.649537
0.631768
0.630599
0.621481
0.599738
0.592724
0.591321
0.593659
0.599971
0.588281
0.564667
0.544093
0.529130
0.513699
0.499204
0.492424
0.484241
0.468810
0.446599
0.417608
0.393761
0.366874
0.329934
0.300008
0.274991
0.256521
0.252313
0.259794
0.278732
0.298137
0.315672
0.333674
0.342090
0.343493
0.335076
0.319879
0.313099
0.307488
0.302111
0.301175
0.300240
0.306085
0.308189
0.300941
0.301876
0.304214
0.307955
0.322684
0.329230
0.317306
0.307721
0.318943
0.343258
0.357987
0.366637
0.366403
0.359623
0.361961
0.353778
0.344660
0.348634
0.341386
0.342555
0.357284
0.368273
0.389548
0.402641
0.408018
0.428124
0.443087
0.458050
0.474884
0.479793
0.497328
0.516265
0.510420
0.499899
0.481429
0.457582
0.449165
0.450100
0.462725
0.477454
0.494521
0.530292
0.559049
0.579156
0.602535
0.605341
0.594119
0.579857
0.566998
0.570972
0.580324
0.581493
0.575414
0.557412
0.533097
0.508548
0.487272
0.473011
0.468101
0.472075
0.480726
0.493818
0.499429
0.488207
0.471140
0.437473
0.392583
0.360086
0.329926
0.303740
0.281997
0.256981
0.242251
0.223080
0.207649
0.210688
0.196660
0.169774
0.149433
0.124651
0.106181
0.092153
0.080930
0.079527
0.077891
0.073215
0.069474
0.070643
0.081865
0.097295
0.101504
0.092152
0.087008
0.088645
0.091450
0.094957
0.096360
0.099633
0.104776
0.113660
0.123947
0.128857
0.135169
0.132364
0.116232
0.103840
0.092618
0.089345
0.093787
0.094722
0.102203
0.114127
0.129557
0.140078
0.134467
0.133532
0.127453
0.113659
0.106878
0.085135
0.064093
0.052871
0.026452
0.004007
-0.013762
-0.027088
-0.016567
0.000032
0.021308
0.057079
0.096123
0.136569
0.178887
0.225178
0.270067
0.304903
0.339037
0.365690
0.385095
0.409878
0.433491
0.465054
0.502695
0.526542
0.554598
0.583822
0.602058
0.631984
0.664015
0.686927
0.705396
0.702357
0.688329
0.674769
0.656766
0.643440
0.619358
0.583587
0.559039
0.539867
0.528177
0.525605
0.520462
0.518825
0.522098
0.517890
0.503394
0.485392
0.458739
0.419461
0.379481
0.337631
0.299756
0.273571
0.238267
0.199223
0.178649
0.169998
0.169063
0.165556
0.151294
0.140306
0.125109
0.098689
0.076011
0.050995
0.024342
0.011483
-0.005818
-0.033407
-0.055851
-0.078997
-0.108456
-0.140954
-0.171815
-0.191220
-0.202676
-0.212496
-0.220913
-0.227693
-0.233538
-0.238214
-0.245929
-0.259256
-0.265569
-0.261828
-0.256451
-0.246865
-0.231435
-0.216238
-0.208523
-0.209224
-0.209224
-0.209692
-0.217174
-0.230032
-0.250373
-0.264868
-0.261362
-0.253646
-0.241255
-0.221616
-0.214836
-0.213200
-0.213434
-0.215772
-0.199406
-0.180936
-0.162700
-0.130202
-0.108459
-0.090691
-0.065675
-0.053283
-0.040658
-0.025695
-0.020786
-0.015642
-0.016344
-0.014006
0.003295
0.011244
0.017790
0.042806
0.061510
0.072732
0.093072
0.105931
0.111308
0.130947
0.155730
0.174200
0.198281
0.219790
0.225869
0.229375
0.229375
0.229375
0.239896
0.246910
0.253690
0.266549
0.266782
0.262574
0.263977
0.259534
0.247611
0.234284
0.220022
0.193369
0.159235
0.133751
0.108033
0.091667
0.091667
0.089797
0.090264
0.097512
0.101720
0.107097
0.113644
0.118319
0.123697
0.124398
0.121826
0.119488
0.114111
0.110603
0.105460
0.095874
0.090263
0.076703
0.058700
0.047478
0.037191
0.035320
0.036021
0.029943
0.027371
0.031579
0.040463
0.035319
0.023396
0.029474
0.035319
0.037657
0.048879
0.065479
0.090261
0.108030
0.120421
0.141930
0.153854
0.160166
0.169284
0.164140
0.167180
0.188689
0.202717
0.220953
0.240124
0.245735
0.250879
0.238721
0.222121
0.225628
0.222355
0.217445
0.219783
0.217211
0.220718
0.218380
0.206456
0.191493
0.171153
0.159696
0.162268
0.172789
0.187752
0.205754
0.230537
0.239655
0.231472
0.221184
0.198974
0.172554
0.152915
0.136316
0.131640
0.141225
0.156422
0.171385
0.182607
0.191959
0.201778
0.207623
0.215572
0.229834
0.245732
0.268878
0.298336
0.329665
0.363098
0.384373
0.390218
0.394426
0.393023
0.387412
0.375722
0.349069
0.320780
0.300205
0.283839
0.277761
0.288515
0.311661
0.330131
0.338080
0.343223
0.344860
0.342756
0.333170
0.318207
0.306283
0.285942
0.261160
0.247132
0.229363
0.216738
0.216037
0.203411
0.190319
0.186812
0.177693
0.170212
0.166003
0.160626
0.150105
0.129063
0.107320
0.084408
0.065704
0.061729
0.058690
0.055416
0.049104
0.039752
0.036712
0.030400
0.021749
0.017541
0.014034
0.017073
0.028763
0.051909
0.087913
0.130698
0.171613
0.199668
0.220242
0.239647
0.255545
0.263261
0.265598
0.280328
0.300668
0.313760
0.329892
0.338543
0.338309
0.345089
0.343452
0.328489
0.318436
0.313760
0.302771
0.282664
0.262324
0.249231
0.241516
0.231696
0.220006
0.208316
0.195224
0.186339
0.170441
0.149165
0.154075
0.165531
0.165531
0.171142
0.176285
0.178857
0.177220
0.169505
0.173012
0.176285
0.184935
0.214627
0.232162
0.242917
0.267232
0.277519
0.281493
0.302535
0.323109
0.339942
0.364491
0.383896
0.398625
0.423407
0.444683
0.456606
0.472504
0.488636
0.509678
0.540539
0.563685
0.586363
0.616991
0.644812
0.657905
0.658606
0.655801
0.644812
0.630784
0.616756
0.598754
0.592675
0.590337
0.582621
0.581920
0.577244
0.576542
0.584725
0.581919
0.584959
0.594544
0.590570
0.585426
0.575139
0.553629
0.529548
0.495414
0.459409
0.433457
0.406571
0.388568
0.379917
0.360278
0.337600
0.318896
0.301595
0.294347
0.293646
0.293412
0.289905
0.286164
0.288736
0.285229
0.269330
0.245483
0.204334
0.154068
0.115959
0.087669
0.068732
0.058912
0.045352
0.041611
0.055872
0.058444
0.060782
0.078083
0.069198
0.041844
0.030388
0.020101
0.012385
0.003267
-0.016839
-0.031803
-0.048402
-0.062664
-0.070146
-0.080667
-0.083472
-0.085343
-0.091188
-0.087915
-0.087447
-0.092591
-0.103813
-0.121582
-0.137246
-0.157353
-0.173485
-0.173251
-0.163900
-0.141455
-0.103814
-0.067108
-0.043027
-0.027362
-0.016608
-0.017777
-0.020583
-0.013569
-0.004685
0.007239
0.023371
0.038801
0.054466
0.064285
0.067091
0.074338
0.084391
0.090002
0.108706
0.141671
0.169026
0.201290
0.239398
0.259037
0.264415
0.262076
0.263947
0.279845
0.289898
0.303692
0.334553
0.372662
0.418252
0.454958
0.481611
0.506394
0.516914
0.525799
0.535618
0.537488
0.547074
0.556893
0.562037
0.576298
0.585884
0.587287
0.591027
0.585650
0.577701
0.574661
0.566244
0.557828
0.551515
0.540994
0.534915
0.528836
0.518549
0.508730
0.504287
0.511769
0.517614
0.512470
0.509898
0.508495
0.499611
0.483245
0.464074
0.450046
0.433680
0.408663
0.390661
0.376399
0.355357
0.337121
0.329406
0.327535
0.327769
0.337354
0.349512
0.353019
0.357227
0.360734
0.356759
0.350213
0.345069
0.337821
0.323793
0.310701
0.297374
0.278904
0.264876
0.249913
0.235184
0.230274
0.227468
0.230274
0.235651
0.238456
0.245236
0.246171
0.241963
0.234949
0.212504
0.187956
0.167147
0.140027
0.119920
0.106594
0.092332
0.080408
0.071758
0.069186
0.060301
0.048611
0.056560
0.067081
0.070354
0.076433
0.079005
0.090694
0.109164
0.120386
0.136285
0.150079
0.160833
0.178602
0.198007
0.223958
0.252949
0.273289
0.288486
0.302280
0.320750
0.339453
0.344597
0.342025
0.339687
0.339219
0.339687
0.336180
0.327997
0.320281
0.314904
0.308825
0.304850
0.300408
0.288251
0.277730
0.266741
0.248271
0.228866
0.204551
0.182340
0.169247
0.157557
0.150543
0.143763
0.132307
0.126462
0.123890
0.117110
0.110563
0.099341
0.077831
0.056790
0.028032
-0.003063
-0.018260
-0.041406
-0.068059
-0.081385
-0.098452
-0.110844
-0.119027
-0.132353
-0.140069
-0.145446
-0.141705
-0.124872
-0.109442
-0.096349
-0.084426
-0.070865
-0.057305
-0.050759
-0.043044
-0.032055
-0.030887
-0.038836
-0.043979
-0.045850
-0.045616
-0.044681
-0.041876
-0.036264
-0.040707
-0.046318
-0.041876
-0.047721
-0.058476
-0.064321
-0.073906
-0.084895
-0.095416
-0.104534
-0.113185
-0.122303
-0.130954
-0.142877
-0.152229
-0.162750
-0.173505
-0.176545
-0.181688
-0.184026
-0.188468
-0.210679
-0.231254
-0.249022
-0.269830
-0.272168
-0.254634
-0.231955
-0.207874
-0.190573
-0.179585
-0.165324
-0.155504
-0.154335
-0.155037
-0.160180
-0.164623
-0.165090
-0.168130
-0.165324
-0.157609
-0.152699
-0.137736
-0.117162
-0.104070
-0.087704
-0.074378
-0.077417
-0.085834
-0.093082
-0.102434
-0.108045
-0.105941
-0.099161
-0.084432
-0.067131
-0.061754
-0.055675
-0.053103
-0.072041
-0.083965
-0.083965
-0.088875
-0.085368
-0.082796
-0.076250
-0.065495
-0.079289
-0.092382
-0.086771
-0.088174
-0.094720
-0.101501
-0.112957
-0.129089
-0.151300
-0.175849
-0.203437
-0.224245
-0.240845
-0.262120
-0.278954
-0.292046
-0.308178
-0.327584
-0.350730
-0.375279
-0.403334
-0.428585
-0.448457
-0.472071
-0.494516
-0.516025
-0.542678
-0.575410
-0.608609
-0.631288
-0.649056
-0.666123
-0.672670
-0.681554
-0.697920
-0.703765
-0.703532
-0.703064
-0.693712
-0.682022
-0.673138
-0.660279
-0.646486
-0.633861
-0.620300
-0.604870
-0.581256
-0.556474
-0.537770
-0.519768
-0.506442
-0.494284
-0.480958
-0.482828
-0.477217
-0.455942
-0.450331
-0.438875
-0.419937
-0.416664
-0.410586
-0.410820
-0.418067
-0.410118
-0.407079
-0.400065
-0.379725
-0.375751
-0.375751
-0.370373
-0.378790
-0.390714
-0.396559
-0.400534
-0.407782
-0.417835
-0.425784
-0.424615
-0.418537
-0.419472
-0.415731
-0.406146
-0.412224
-0.425785
-0.439345
-0.457815
-0.469739
-0.472778
-0.464596
-0.446359
-0.433968
-0.422746
-0.411992
-0.401705
-0.380195
-0.360323
-0.346996
-0.333202
-0.325487
-0.312628
-0.301874
-0.305615
-0.305615
-0.311927
-0.326423
-0.332034
-0.340918
-0.348634
-0.351440
-0.364532
-0.375755
-0.377625
-0.376924
-0.368040
-0.354947
-0.353778
-0.354480
-0.345829
-0.341153
-0.333906
-0.323151
-0.324086
-0.322450
-0.314501
-0.305617
-0.291121
-0.278263
-0.269846
-0.263534
-0.250909
-0.231971
-0.217476
-0.198772
-0.177497
-0.160663
-0.140557
-0.119281
-0.097538
-0.073224
-0.051247
-0.031608
-0.015476
0.006735
0.038999
0.069626
0.099552
0.133219
0.169457
0.205696
0.230712
0.245909
0.253624
0.257832
0.264846
0.271392
0.288693
0.315346
0.325867
0.349012
0.346908
0.360936
0.384316
0.320956
0.463573
0.235620
0.496070
0.352752
0.041568
1.241883
-0.461330
0.744830
0.764469
-1.188907
2.551849
-1.998781
1.336804
1.518231
-3.680953
6.020932
-5.190582
2.511635
3.487505
-8.984410
13.346735
-11.854506
4.790223
8.366853
-21.574394
30.304752
-26.003215
7.295126
25.750615
-59.470125
82.388236
-61.417890
-0.207195
253.445303
-377.255317
-377.398635
255.280144
-0.307962
-61.954222
83.711060
-60.759752
26.572177
7.164666
-26.832496
31.286932
-22.871503
8.788154
4.560398
-12.745743
13.970971
-10.149893
3.568863
2.196006
-6.067559
6.233217
-4.680206
1.271337
0.915965
-2.847002
2.363170
-2.029179
0.202649
0.182543
-1.312357
0.626056
-0.752179
-0.446840
-0.292768
-0.595301
-0.341632
-0.513940
-0.441697
-0.458297
-0.470220
-0.448010
-0.456427
-0.448478
-0.441697
-0.445906
-0.449647
-0.442165
-0.434684
-0.429541
-0.423929
-0.410369
-0.384652
-0.358233
-0.339295
-0.332281
-0.323865
-0.302122
-0.277339
-0.246946
-0.215149
-0.188029
-0.154596
-0.126307
-0.112980
-0.096147
-0.072066
-0.044478
-0.012214
0.013036
0.024258
0.028232
0.028466
0.028232
0.026362
0.028934
0.036649
0.035012
0.029635
0.030102
0.032440
0.037583
0.039921
0.037583
0.036648
0.033609
0.024958
0.017009
0.011164
-0.003799
-0.020867
-0.030452
-0.043078
-0.043779
-0.034427
-0.034895
-0.020400
-0.003800
-0.007541
-0.000293
0.006487
0.007188
0.030334
0.049271
0.059558
0.076859
0.082938
0.085509
0.087847
0.085042
0.090185
0.093926
0.094861
0.103511
0.116136
0.125020
0.120578
0.118942
0.122448
0.112863
0.107485
0.105615
0.097899
0.102575
0.111693
0.114732
0.118707
0.123850
0.122681
0.114732
0.114966
0.113095
0.101172
0.103276
0.107250
0.098600
0.095092
0.086208
0.072648
0.071245
0.062828
0.048800
0.046930
0.043656
0.036876
0.030797
0.021913
0.024485
0.033369
0.030797
0.028225
0.032433
0.034070
0.032199
0.033602
0.037810
0.045759
0.058384
0.061190
0.056981
0.061891
0.069139
0.077321
0.089011
0.100467
0.123847
0.154942
0.177152
0.198662
0.222977
0.239810
0.249629
0.250564
0.243550
0.229990
0.212923
0.198427
0.180191
0.166864
0.162188
0.141614
0.124079
0.119637
0.112857
0.117065
0.119637
0.114493
0.115194
0.104206
0.092048
0.079189
0.058381
0.052770
0.043886
0.026818
0.020272
0.013258
0.008114
0.005542
0.000165
-0.002173
-0.006849
-0.013629
-0.020410
-0.017370
-0.004044
0.004373
0.011153
0.015361
0.012555
0.009516
0.009750
0.013023
0.016763
0.027518
0.031259
0.020738
0.015828
0.002969
-0.018307
-0.031400
-0.046830
-0.055949
-0.068574
-0.093590
-0.105748
-0.119776
-0.133102
-0.129595
-0.136142
-0.141753
-0.136609
-0.145494
-0.152040
-0.158119
-0.177291
-0.185707
-0.187344
-0.192488
-0.193423
-0.199502
-0.209555
-0.219375
-0.230129
-0.242988
-0.252107
-0.246028
-0.238079
-0.233169
-0.219609
-0.213530
-0.220311
-0.229195
-0.246730
-0.264732
-0.266837
-0.271513
-0.284839
-0.283670
-0.281800
-0.289048
-0.296062
-0.311960
-0.324585
-0.336275
-0.351706
-0.349602
-0.352174
-0.363162
-0.365033
-0.376255
-0.390985
-0.401038
-0.409689
-0.415534
-0.429795
-0.440784
-0.449902
-0.467671
-0.476789
-0.484270
-0.496428
-0.505079
-0.521211
-0.526354
-0.518405
-0.525887
-0.534070
-0.536642
-0.545292
-0.548799
-0.545059
-0.539214
-0.538513
-0.539214
-0.529395
-0.523550
-0.520277
-0.512562
-0.506249
-0.504379
-0.514198
-0.516537
-0.511159
-0.515134
-0.509055
-0.500639
-0.506016
-0.509757
-0.506718
-0.495028
-0.482169
-0.468141
-0.448035
-0.435410
-0.426292
-0.408757
-0.389352
-0.372987
-0.362933
-0.355919
-0.345165
-0.332540
-0.319214
-0.309862
-0.311732
-0.314070
-0.310563
-0.310797
-0.301446
-0.277598
-0.259830
-0.251647
-0.247439
-0.242062
-0.237619
-0.235749
-0.223124
-0.211902
-0.210266
-0.207226
-0.213773
-0.223358
-0.222190
-0.223826
-0.232243
-0.240192
-0.244401
-0.248375
-0.253519
-0.249778
-0.246271
-0.253519
-0.256559
-0.256793
-0.264040
-0.262872
-0.256793
-0.257494
-0.247909
-0.236453
-0.235518
-0.232946
-0.228270
-0.228036
-0.244402
-0.270120
-0.290928
-0.315945
-0.328102
-0.325297
-0.327167
-0.322024
-0.316880
-0.317348
-0.316179
-0.329272
-0.343534
-0.349846
-0.357328
-0.351249
-0.339092
-0.332078
-0.326701
-0.329039
-0.334416
-0.341898
-0.355692
-0.365278
-0.367850
-0.365278
-0.356627
-0.352887
-0.358030
-0.355926
-0.347042
-0.346107
-0.342133
-0.329975
-0.325533
-0.329274
-0.331378
-0.331612
-0.335587
-0.344471
-0.347744
-0.344004
-0.340263
-0.324833
-0.299583
-0.282749
-0.262409
-0.240198
-0.226872
-0.198816
-0.166786
-0.150888
-0.133120
-0.109506
-0.084490
-0.061578
-0.041705
-0.018559
0.005755
0.028200
0.043163
0.051346
0.063035
0.074491
0.082440
0.090389
0.111665
0.132473
0.135979
0.150241
0.170347
0.187415
0.215003
0.237681
0.267607
0.303144
0.316470
0.328160
0.335641
0.329329
0.322549
0.314132
0.316236
0.330497
0.342889
0.350136
0.351305
0.355513
0.357851
0.355747
0.357617
0.350837
0.343122
0.344291
0.339147
0.339147
0.351304
0.363228
0.376554
0.383100
0.383334
0.380762
0.372813
0.370475
0.368137
0.371176
0.388711
0.406012
0.429391
0.455109
0.477553
0.511688
0.541847
0.561253
0.583229
0.608947
0.642146
0.673709
0.692880
0.703868
0.708310
0.708778
0.710882
0.712752
0.708544
0.702465
0.692412
0.680722
0.683060
0.691242
0.699191
0.705270
0.705504
0.710881
0.717895
0.722103
0.721168
0.711582
0.701295
0.684461
0.664822
0.653834
0.646586
0.640507
0.633025
0.627648
0.625544
0.621803
0.616893
0.610113
0.610814
0.613386
0.610113
0.620633
0.627180
0.614087
0.611749
0.611982
0.606605
0.616658
0.631621
0.645649
0.665755
0.679783
0.691940
0.708540
0.712982
0.716957
0.727243
0.723970
0.726308
0.736595
0.727945
0.727243
0.737296
0.733088
0.734257
0.737530
0.730282
0.726541
0.728645
0.730048
0.721631
0.712279
0.711811
0.700589
0.687964
0.686795
0.680482
0.680716
0.683521
0.672299
0.668324
0.658271
0.636995
0.632319
0.622734
0.609875
0.615486
0.618992
0.623201
0.629981
0.634890
0.654763
0.673701
0.686793
0.705497
0.712744
0.711575
0.711108
0.708302
0.715082
0.723499
