EVENT_NAME: 202302060117
EVENT_ID: 13194
EVENT_DATE_YYYYMMDD: 2023/02/06
EVENT_TIME_HHMMSS: 01:17:32.00000
EVENT_LATITUDE_DEGREE: 37.288
EVENT_LONGITUDE_DEGREE: 37.043
EVENT_DEPTH_KM: 8.6
HYPOCENTER_REFERENCE: AFAD
MAGNITUDE_W: 7.7
MAGNITUDE_W_REFERENCE: AFAD
MAGNITUDE_L: 
MAGNITUDE_L_REFERENCE: 
FOCAL_MECHANISM: 
NETWORK: TK
STATION_CODE: 4210
STATION_NAME: 
STATION_LATITUDE_DEGREE: 38.30882
STATION_LONGITUDE_DEGREE: 32.85895
STATION_ELEVATION_M: 204.0
LOCATION: Kahramanmaras_Pazarck_Turkiye
SENSOR_DEPTH_M: 
VS30_M/S: None
SITE_CLASSIFICATION_EC8: unknown
MORPHOLOGIC_CLASSIFICATION: 
EPICENTRAL_DISTANCE_KM: 384.71
EARTHQUAKE_BACKAZIMUTH_DEGREE: 
DATE_TIME_FIRST_SAMPLE_YYYYMMDD_HHMMSS: 2023/02/06 01:18:01.0682120
DATE_TIME_FIRST_SAMPLE_PRECISION: millisecond
SAMPLING_INTERVAL_S: 0.01
NDATA: 21001
DURATION_S: 
STREAM: HNN
UNITS: cm/s^2
INSTRUMENT: sensor = ACEBOX/SARA | digitizer = 
INSTRUMENT_ANALOG/DIGITAL: 
INSTRUMENTAL_FREQUENCY_HZ: 
INSTRUMENTAL_DAMPING: 
FULL_SCALE_G: 
N_BIT_DIGITAL_CONVERTER: 
PGA_CM/S^2: 2.675
TIME_PGA_S: 
BASELINE_CORRECTION: BASELINE REMOVED
FILTER_TYPE: BUTTERWORTH
FILTER_ORDER: 
LOW_CUT_FREQUENCY_HZ: 
HIGH_CUT_FREQUENCY_HZ: 
LATE/NORMAL_TRIGGERED: 
DATABASE_VERSION: 
HEADER_FORMAT: DYNA 1.2
DATA_TYPE: Acceleration
PROCESSING: Automatic Paolucci et al., 2011
DATA_TIMESTAMP_YYYYMMDD_HHMMSS: 
DATA_LICENSE: U (unknown license)
DATA_CITATION: Turkish Accelerometric Archive v 1.0 - Disaster And Emergency Management Presidency, Earthquake Department
DATA_CREATOR: AFAD
ORIGINAL_DATA_MEDIATOR_CITATION: : AFAD - Disaster And Emergency Management Presidency
ORIGINAL_DATA_MEDIATOR: AFAD PROCESS SERVICE
ORIGINAL_DATA_CREATOR_CITATION: AFAD PROCESS SERVICE
ORIGINAL_DATA_CREATOR: network: TK
USER1: GuestUser
USER2: 
USER3: 
USER4: 
USER5: 
[...]
-1.174968
-1.153926
-1.147379
-1.091735
-1.059237
-1.045911
-1.010607
-0.977174
-0.968757
-0.976940
-0.960574
-0.959171
-0.977173
-0.962443
-0.981147
-1.026036
-1.039128
-1.065781
-1.109267
-1.159066
-1.207228
-1.239725
-1.291862
-1.349843
-1.371586
-1.389121
-1.427697
-1.432607
-1.407123
-1.412500
-1.401277
-1.350543
-1.324591
-1.310329
-1.276429
-1.239021
-1.194365
-1.145969
-1.119316
-1.086117
-1.051514
-1.043331
-1.028602
-1.023224
-1.030472
-1.050111
-1.086583
-1.080036
-1.098038
-1.148305
-1.153915
-1.177061
-1.187816
-1.181269
-1.197167
-1.171449
-1.135444
-1.109259
-1.071851
-1.026494
-0.972019
-0.936482
-0.869615
-0.799008
-0.771654
-0.700813
-0.634415
-0.597007
-0.537388
-0.525231
-0.509800
-0.453922
-0.469119
-0.474730
-0.436620
-0.471690
-0.481977
-0.458129
-0.502083
-0.517513
-0.509330
-0.524994
-0.534580
-0.561232
-0.551647
-0.546970
-0.593496
-0.593262
-0.598405
-0.638618
-0.651711
-0.666206
-0.683974
-0.701742
-0.726525
-0.774219
-0.821914
-0.820978
-0.845761
-0.877323
-0.861892
-0.881531
-0.896026
-0.871243
-0.845993
-0.824250
-0.840615
-0.820509
-0.759955
-0.749901
-0.712727
-0.666435
-0.663396
-0.621078
-0.576189
-0.558888
-0.528728
-0.496697
-0.458354
-0.432870
-0.413231
-0.382370
-0.382837
-0.394994
-0.404580
-0.431700
-0.441285
-0.437311
-0.468405
-0.497864
-0.477289
-0.478224
-0.505578
-0.488511
-0.492485
-0.507214
-0.475885
-0.464897
-0.443153
-0.412292
-0.420474
-0.391250
-0.359921
-0.365298
-0.348464
-0.339346
-0.311991
-0.263127
-0.259854
-0.243722
-0.205379
-0.181298
-0.141552
-0.122614
-0.107183
-0.046629
-0.004546
0.020705
0.059048
0.092715
0.153268
0.207743
0.229253
0.278350
0.330721
0.362985
0.386599
0.408576
0.455804
0.480820
0.496485
0.534828
0.541374
0.566858
0.597486
0.588602
0.628581
0.668561
0.670899
0.703865
0.727946
0.739870
0.748755
0.742442
0.754366
0.744781
0.699892
0.655237
0.606607
0.589306
0.568265
0.516596
0.497658
0.465628
0.430091
0.443418
0.436872
0.434067
0.439444
0.418870
0.429859
0.435236
0.416299
0.439913
0.475450
0.475918
0.472645
0.494622
0.511923
0.515197
0.507949
0.481297
0.481297
0.480829
0.439448
0.425654
0.417003
0.371647
0.354112
0.350839
0.317173
0.279298
0.250307
0.241423
0.230201
0.199574
0.196535
0.190690
0.171986
0.194431
0.217110
0.230436
0.252180
0.266208
0.296134
0.307123
0.300810
0.328399
0.337517
0.333075
0.355754
0.351078
0.323958
0.313203
0.285381
0.249143
0.232076
0.195136
0.134817
0.089460
0.037558
-0.047077
-0.139427
-0.203019
-0.253519
-0.335114
-0.402681
-0.425827
-0.461598
-0.477496
-0.449908
-0.454817
-0.454583
-0.401277
-0.367143
-0.333475
-0.259829
-0.211199
-0.162101
-0.092196
-0.077466
-0.056191
-0.002885
0.002727
0.022366
0.059774
0.057903
0.069594
0.077075
0.067724
0.083856
0.095312
0.083622
0.079648
0.100222
0.102794
0.102327
0.156568
0.179481
0.175740
0.221798
0.238398
0.245646
0.285158
0.293341
0.307135
0.335191
0.341036
0.340569
0.329815
0.332854
0.344778
0.325139
0.312281
0.316255
0.303397
0.291707
0.287967
0.282356
0.289604
0.298020
0.294046
0.303398
0.304334
0.282357
0.291241
0.320466
0.323038
0.308543
0.301295
0.301529
0.278384
0.262486
0.290308
0.275813
0.231158
0.246355
0.216663
0.142315
0.164760
0.171774
0.108415
0.099765
0.088777
0.044589
0.036407
0.024951
0.009053
0.007183
-0.016665
-0.026718
-0.003104
-0.012222
-0.026016
0.012795
0.046696
0.067972
0.102808
0.139748
0.183936
0.209420
0.254777
0.311356
0.326553
0.399732
0.463325
0.459584
0.522710
0.555909
0.546557
0.607579
0.634933
0.629322
0.645454
0.641714
0.623244
0.609450
0.613425
0.609684
0.590046
0.578356
0.563159
0.558484
0.564095
0.557081
0.535572
0.516869
0.519908
0.516401
0.504946
0.487879
0.475721
0.502842
0.507752
0.490451
0.509155
0.523417
0.532068
0.534640
0.515702
0.515001
0.506585
0.464268
0.445096
0.436446
0.386180
0.357423
0.348773
0.307625
0.299910
0.280738
0.233044
0.268348
0.305288
0.289624
0.300378
0.323291
0.341293
0.355321
0.358361
0.361868
0.369116
0.379170
0.373091
0.360232
0.366311
0.360700
0.329372
0.315110
0.316981
0.292666
0.269053
0.282146
0.300148
0.287757
0.266482
0.287992
0.321892
0.335219
0.371224
0.411437
0.437155
0.446274
0.438325
0.463341
0.452821
0.393904
0.393437
0.369589
0.302724
0.267187
0.210608
0.159407
0.128779
0.064485
0.000425
-0.037216
-0.085612
-0.163232
-0.231735
-0.293457
-0.365934
-0.426487
-0.503173
-0.575883
-0.628020
-0.711485
-0.780222
-0.809446
-0.851997
-0.913252
-0.953464
-0.964219
-0.986196
-1.003730
-1.013550
-1.038332
-1.033889
-1.025473
-1.052593
-1.061711
-1.055164
-1.069659
-1.081115
-1.089999
-1.123666
-1.154059
-1.174400
-1.202923
-1.221159
-1.235888
-1.263008
-1.289894
-1.293401
-1.285919
-1.307195
-1.312806
-1.282646
-1.279840
-1.289659
-1.266045
-1.241496
-1.248042
-1.246639
-1.216713
-1.190762
-1.158965
-1.118985
-1.110335
-1.101918
-1.051651
-0.999280
-0.962808
-0.919321
-0.876302
-0.815047
-0.748181
-0.711241
-0.649518
-0.563480
-0.478612
-0.381118
-0.311680
-0.235462
-0.116927
-0.025512
0.049304
0.135575
0.191920
0.239148
0.309521
0.364931
0.412158
0.479492
0.519472
0.545891
0.594755
0.626084
0.639177
0.663024
0.709082
0.742516
0.739477
0.761220
0.786003
0.768468
0.769637
0.782964
0.767533
0.750233
0.735737
0.705578
0.656948
0.600369
0.540985
0.473886
0.412163
0.344129
0.263936
0.228399
0.200110
0.120152
0.081341
0.077367
0.015645
-0.016151
0.017516
-0.000253
-0.035322
-0.012877
-0.018956
-0.063377
-0.079041
-0.117852
-0.177236
-0.216280
-0.266312
-0.301382
-0.345803
-0.424826
-0.460597
-0.487951
-0.544062
-0.567208
-0.570948
-0.574923
-0.582638
-0.594327
-0.561596
-0.540787
-0.553178
-0.498236
-0.439085
-0.420147
-0.380635
-0.353515
-0.330602
-0.290155
-0.255553
-0.232874
-0.226795
-0.214638
-0.216040
-0.229133
-0.217443
-0.226093
-0.240822
-0.240588
-0.245731
-0.240120
-0.238951
-0.247601
-0.265136
-0.269344
-0.259524
-0.288047
-0.309790
-0.328026
-0.378994
-0.413829
-0.453341
-0.487475
-0.509919
-0.570239
-0.624246
-0.668667
-0.715894
-0.736935
-0.763822
-0.808711
-0.843312
-0.863653
-0.896852
-0.925141
-0.916490
-0.923504
-0.933323
-0.899890
-0.875341
-0.864118
-0.811981
-0.742310
-0.717059
-0.678716
-0.607174
-0.579352
-0.526514
-0.462219
-0.436034
-0.360049
-0.315160
-0.293884
-0.227720
-0.225849
-0.203638
-0.143552
-0.143084
-0.120873
-0.092817
-0.066398
-0.011455
0.010989
0.042318
0.095624
0.138176
0.190313
0.234501
0.281728
0.328955
0.367532
0.434398
0.493081
0.530255
0.597589
0.659780
0.690407
0.737868
0.803098
0.852196
0.885161
0.917192
0.938935
0.953197
0.981019
0.996683
1.004867
1.023103
1.004633
0.993879
1.021233
1.010713
0.997386
1.011414
1.008375
1.010246
1.000427
0.965825
0.960681
0.955538
0.899193
0.850096
0.836068
0.793050
0.740913
0.705376
0.647395
0.610455
0.588011
0.526990
0.472281
0.444226
0.428796
0.400506
0.367775
0.369646
0.348838
0.314470
0.327329
0.329901
0.310028
0.301144
0.301378
0.319848
0.339254
0.349775
0.368245
0.401445
0.442593
0.480001
0.523020
0.560194
0.593159
0.642023
0.680132
0.727827
0.791654
0.819476
0.845428
0.878393
0.891720
0.903410
0.907853
0.921413
0.923985
0.908321
0.928428
0.922115
0.904113
0.928428
0.914868
0.900841
0.909725
0.903413
0.923286
0.932404
0.932404
0.957421
0.965370
0.977995
1.006519
1.037146
1.050006
1.052344
1.091388
1.103312
1.097233
1.123653
1.110794
1.107054
1.128797
1.103547
1.074323
1.058892
1.021719
0.950878
0.895936
0.858529
0.768049
0.688091
0.619121
0.513912
0.441903
0.346046
0.226810
0.162984
0.074608
-0.025457
-0.104012
-0.210624
-0.296427
-0.364228
-0.449564
-0.505207
-0.565994
-0.650395
-0.675645
-0.680321
-0.718429
-0.714221
-0.693413
-0.708375
-0.693178
-0.675643
-0.691541
-0.683358
-0.681722
-0.702295
-0.706036
-0.733156
-0.775006
-0.785760
-0.803996
-0.841170
-0.871797
-0.898450
-0.933519
-0.969290
-0.984954
-1.006229
-1.039896
-1.054625
-1.073095
-1.095773
-1.109567
-1.122192
-1.117048
-1.104423
-1.072626
-1.023762
-1.010903
-0.985419
-0.926969
-0.893069
-0.855193
-0.814512
-0.793237
-0.761440
-0.737359
-0.722863
-0.700418
-0.695041
-0.701821
-0.703223
-0.709535
-0.733383
-0.754892
-0.759334
-0.790662
-0.824796
-0.814042
-0.830173
-0.885115
-0.910365
-0.922523
-0.946136
-0.964372
-0.969048
-0.967645
-0.960163
-0.947070
-0.929535
-0.902882
-0.883710
-0.850043
-0.790659
-0.745302
-0.684514
-0.591463
-0.521090
-0.467316
-0.373095
-0.265315
-0.195409
-0.101890
0.012437
0.088655
0.183577
0.286916
0.363368
0.443560
0.516271
0.581501
0.631768
0.678527
0.742120
0.783503
0.814130
0.845693
0.866034
0.884504
0.876789
0.871879
0.889414
0.887310
0.895026
0.928459
0.952073
0.975687
1.000236
1.027356
1.072713
1.098197
1.115499
1.168571
1.191249
1.194523
1.242451
1.267468
1.269806
1.301369
1.332698
1.346726
1.354208
1.367534
1.359352
1.357481
1.389044
1.357949
1.316334
1.316568
1.272146
1.234739
1.195695
1.124387
1.085110
1.024322
0.955586
0.914438
0.855521
0.820218
0.787019
0.736753
0.712906
0.663809
0.615179
0.610737
0.592735
0.576603
0.565615
0.542002
0.534520
0.512544
0.498282
0.506699
0.471630
0.448952
0.442405
0.391905
0.365253
0.339535
0.289269
0.261915
0.205103
0.142211
0.110649
0.059915
0.002635
-0.054879
-0.096728
-0.130395
-0.192585
-0.236539
-0.277921
-0.326316
-0.344786
-0.395988
-0.454203
-0.489272
-0.558242
-0.611080
-0.630953
-0.650358
-0.674439
-0.715587
-0.723068
-0.691505
-0.676776
-0.668826
-0.649421
-0.622534
-0.602427
-0.571098
-0.527846
-0.526209
-0.523637
-0.490905
-0.493243
-0.501425
-0.502594
-0.526208
-0.534156
-0.551691
-0.588865
-0.590735
-0.601022
-0.630246
-0.615517
-0.616452
-0.647780
-0.613178
-0.580680
-0.591201
-0.531348
-0.471262
-0.461910
-0.393174
-0.321164
-0.286094
-0.216890
-0.160311
-0.114019
-0.042944
-0.005302
0.040522
0.117208
0.165136
0.217507
0.272684
0.319210
0.378828
0.403611
0.417171
0.444058
0.461126
0.485674
0.478193
0.457385
0.453879
0.426758
0.398235
0.363634
0.336981
0.325057
0.283675
0.256321
0.233176
0.199977
0.203016
0.196938
0.157426
0.137554
0.162804
0.165376
0.129371
0.149946
0.189224
0.204187
0.232243
0.226398
0.224528
0.268950
0.285783
0.305656
0.344467
0.349143
0.365275
0.392864
0.399176
0.424661
0.450378
0.447807
0.447339
0.457861
0.477266
0.486384
0.480540
0.500880
0.525663
0.521221
0.526131
0.541328
0.555122
0.565877
0.545303
0.540394
0.564942
0.551149
0.530575
0.533380
0.527302
0.514210
0.505092
0.477738
0.417652
0.367386
0.330914
0.275738
0.204196
0.120730
0.053631
-0.019314
-0.107455
-0.169177
-0.232536
-0.281867
-0.333536
-0.409988
-0.430795
-0.470073
-0.531094
-0.529691
-0.570372
-0.622041
-0.638640
-0.693348
-0.716260
-0.725378
-0.765123
-0.773774
-0.799257
-0.842977
-0.857940
-0.886463
-0.912181
-0.924572
-0.976007
-1.023234
-1.037729
-1.080046
-1.116752
-1.127273
-1.164212
-1.182215
-1.176837
-1.178006
-1.157198
-1.141065
-1.104827
-1.040065
-0.994006
-0.925270
-0.854663
-0.794109
-0.713449
-0.628580
-0.526177
-0.456505
-0.397822
-0.299860
-0.253802
-0.195586
-0.090845
-0.042916
0.006649
0.063462
0.108585
0.182231
0.239979
0.293285
0.343552
0.383532
0.463724
0.517965
0.541813
0.593716
0.636501
0.677884
0.705940
0.724176
0.774443
0.793147
0.777950
0.802966
0.834062
0.814189
0.797590
0.809046
0.784965
0.761118
0.755741
0.718334
0.707579
0.695188
0.640246
0.620841
0.600267
0.552339
0.532232
0.522413
0.514230
0.511425
0.509321
0.505581
0.483604
0.488748
0.523350
0.526156
0.536910
0.553043
0.527559
0.526390
0.537613
0.516571
0.512597
0.496699
0.461629
0.458356
0.446667
0.416507
0.397336
0.383075
0.389855
0.408559
0.401078
0.402013
0.422354
0.425393
0.455319
0.502313
0.507924
0.528732
0.545800
0.519381
0.516576
0.517043
0.474960
0.427266
0.400847
0.372791
0.315044
0.250983
0.180844
0.099483
0.047113
-0.006894
-0.088957
-0.164473
-0.243964
-0.321818
-0.372786
-0.432404
-0.503011
-0.556082
-0.611258
-0.677423
-0.728156
-0.767434
-0.823078
-0.877552
-0.903504
-0.927818
-0.970369
-1.001698
-1.016193
-1.037702
-1.058977
-1.062484
-1.066459
-1.085396
-1.084694
-1.065055
-1.065756
-1.047052
-1.007073
-0.998890
-0.974575
-0.944648
-0.931322
-0.875911
-0.851830
-0.865858
-0.846920
-0.845517
-0.841776
-0.831723
-0.852063
-0.845049
-0.828449
-0.842009
-0.842944
-0.820967
-0.817693
-0.814420
-0.777947
-0.771634
-0.766491
-0.720900
-0.703365
-0.678115
-0.651462
-0.654267
-0.627614
-0.630653
-0.650292
-0.632055
-0.650759
-0.666891
-0.657772
-0.674372
-0.682555
-0.686061
-0.685827
-0.666656
-0.664084
-0.658706
-0.640470
-0.638833
-0.632053
-0.620830
-0.631818
-0.626909
-0.605165
-0.625973
-0.629947
-0.588097
-0.604229
-0.632518
-0.587395
-0.558404
-0.554429
-0.496915
-0.429347
-0.393810
-0.330918
-0.241841
-0.198355
-0.154635
-0.065090
-0.015525
0.012765
0.088515
0.154914
0.206817
0.270644
0.327457
0.394557
0.467736
0.531095
0.608950
0.714159
0.809081
0.883662
0.989339
1.107640
1.218694
1.335126
1.438464
1.566819
1.697278
1.795941
1.903955
1.986954
2.073926
2.181941
2.238286
2.292294
2.359160
2.422285
2.484242
2.497802
2.533807
2.598569
2.608389
2.633639
2.674554
2.671749
2.658189
2.650474
2.647434
2.621951
2.592025
2.576828
2.517678
2.459462
2.421354
2.361034
2.325263
2.270321
2.190363
2.164412
2.125601
2.051020
1.994675
1.942071
1.892740
1.851358
1.791740
1.728381
1.708041
1.688169
1.622706
1.574544
1.560516
1.527317
1.478220
1.446424
1.417667
1.372778
1.343553
1.302405
1.236475
1.206549
1.167973
1.099003
1.056452
1.004783
0.944463
0.904718
0.852114
0.803016
0.754153
0.695470
0.672792
0.648010
0.601484
0.582547
0.553089
0.503056
0.477105
0.455596
0.427774
0.407200
0.380314
0.342439
0.331451
0.327710
0.263416
0.214085
0.225775
0.177847
0.115657
0.123372
0.078250
-0.005449
-0.028829
-0.048468
-0.069275
-0.103410
-0.159755
-0.173782
-0.194356
-0.248129
-0.291615
-0.335569
-0.376951
-0.421372
-0.472574
-0.514891
-0.562118
-0.625944
-0.674106
-0.702395
-0.754064
-0.785393
-0.804330
-0.860675
-0.877976
-0.902291
-0.964013
-0.967286
-0.982482
-1.021994
-1.016616
-1.030410
-1.061271
-1.065012
-1.072026
-1.077636
-1.072960
-1.084182
-1.084182
-1.080207
-1.105224
-1.097508
-1.077401
-1.093767
-1.079739
-1.053319
-1.049111
-1.021055
-0.974062
-0.940862
-0.916079
-0.864410
-0.809000
-0.770189
-0.700751
-0.636924
-0.588762
-0.499685
-0.423701
-0.344443
-0.241572
-0.187331
-0.099423
0.008825
0.042259
0.125023
0.216906
0.235376
0.289383
0.348300
0.383136
0.414699
0.427792
0.463329
0.488112
0.503309
0.508453
0.490918
0.533002
0.534171
0.496530
0.525755
0.493725
0.465669
0.478528
0.431068
0.429665
0.421015
0.379399
0.398337
0.378698
0.361164
0.393896
0.385479
0.405118
0.459126
0.469647
0.502145
0.551476
0.567141
0.614368
0.656452
0.665804
0.713031
0.723318
0.712330
0.749270
0.738048
0.713266
0.711162
0.670949
0.643595
0.628165
0.582808
0.563871
0.569248
0.524593
0.488121
0.507526
0.490927
0.468015
0.467782
0.446506
0.454923
0.443935
0.410502
0.436921
0.442533
0.426635
0.435987
0.416348
0.400450
0.414244
0.403724
0.371694
0.350652
0.317219
0.269992
0.241002
0.199854
0.135092
0.065421
-0.010329
-0.077897
-0.150374
-0.238515
-0.315902
-0.386976
-0.482599
-0.576117
-0.624513
-0.696756
-0.785599
-0.824409
-0.888236
-0.947620
-0.965388
-1.007939
-1.029682
-1.048619
-1.086728
-1.094210
-1.108237
-1.131850
-1.145410
-1.146579
-1.151255
-1.172297
-1.157333
-1.140967
-1.155229
-1.163879
-1.160372
-1.140031
-1.147980
-1.151721
-1.136757
-1.160605
-1.139329
-1.124366
-1.158500
-1.129742
-1.122027
-1.124832
-1.077371
-1.062642
-1.034586
-0.999984
-0.988527
-0.948782
-0.917453
-0.890800
-0.862042
-0.855262
-0.854560
-0.854326
-0.840532
-0.837259
-0.842168
-0.812476
-0.802188
-0.807566
-0.767118
-0.718021
-0.670092
-0.611175
-0.555064
-0.484457
-0.426007
-0.371532
-0.283624
-0.229850
-0.198288
-0.165790
-0.155736
-0.107807
-0.103365
-0.135863
-0.087700
-0.101728
-0.145448
-0.108741
-0.114820
-0.132121
-0.128847
-0.129782
-0.110143
-0.125340
-0.146849
-0.146381
-0.152693
-0.151992
-0.161577
-0.166954
-0.184723
-0.220026
-0.228910
-0.250887
-0.265616
-0.269356
-0.295074
-0.294606
-0.285488
-0.291800
-0.311205
-0.332714
-0.324063
-0.325934
-0.333181
-0.342533
-0.385551
-0.400046
-0.406359
-0.441194
-0.455222
-0.474393
-0.496837
-0.504319
-0.526997
-0.527464
-0.525126
-0.552246
-0.530971
-0.507357
-0.538452
-0.548972
-0.562065
-0.589419
-0.581937
-0.594094
-0.628229
-0.642490
-0.666337
-0.706784
-0.734605
-0.748633
-0.767804
-0.785339
-0.798431
-0.812459
-0.815498
-0.812692
-0.795859
-0.775752
-0.766867
-0.737409
-0.706781
-0.676855
-0.611625
-0.555514
-0.515534
-0.460825
-0.420378
-0.380165
-0.320312
-0.286412
-0.272851
-0.234508
-0.191022
-0.168109
-0.158290
-0.146600
-0.128831
-0.111763
-0.093293
-0.064770
-0.054716
-0.068276
-0.049338
-0.033674
-0.039051
-0.001176
0.010047
-0.004448
0.029686
0.046520
0.062652
0.096787
0.127648
0.178850
0.213218
0.258108
0.318895
0.351627
0.412414
0.464084
0.481385
0.518559
0.541471
0.549421
0.549889
0.525106
0.499623
0.482322
0.469229
0.442577
0.398155
0.364956
0.352332
0.339005
0.301832
0.283830
0.292714
0.261152
0.220939
0.213457
0.188441
0.137941
0.102872
0.075985
0.033902
0.001872
-0.030625
-0.078554
-0.087204
-0.086502
-0.119935
-0.133261
-0.129988
-0.150796
-0.175344
-0.166226
-0.173941
-0.213453
-0.215323
-0.230286
-0.266056
-0.273538
-0.304399
-0.322401
-0.342975
-0.409139
-0.438597
-0.455431
-0.484421
-0.503125
-0.530713
-0.541000
-0.552689
-0.573029
-0.579809
-0.587992
-0.590330
-0.603656
-0.604357
-0.585419
-0.590796
-0.584718
-0.579340
-0.579340
-0.552687
-0.562272
-0.579807
-0.554089
-0.566947
-0.603186
-0.605757
-0.641061
-0.688287
-0.692262
-0.732241
-0.796535
-0.819213
-0.857789
-0.914602
-0.931669
-0.927694
-0.934708
-0.932837
-0.911094
-0.885376
-0.843760
-0.814301
-0.789986
-0.720080
-0.656487
-0.611598
-0.556188
-0.498674
-0.443030
-0.414740
-0.378267
-0.338288
-0.328234
-0.299009
-0.277266
-0.279604
-0.278902
-0.278434
-0.275161
-0.295034
-0.299476
-0.274459
-0.295734
-0.318179
-0.283810
-0.260197
-0.279602
-0.253182
-0.182809
-0.155221
-0.111033
-0.051181
-0.031074
0.021297
0.093307
0.128143
0.163446
0.213245
0.251121
0.272864
0.303258
0.336691
0.357499
0.387192
0.401454
0.401454
0.438394
0.460137
0.450318
0.474867
0.481414
0.456631
0.468321
0.474634
0.451956
0.441202
0.430447
0.398417
0.387896
0.406367
0.368024
0.323603
0.349321
0.335761
0.285728
0.270765
0.257439
0.253932
0.246919
0.227514
0.239204
0.254167
0.246218
0.257207
0.285263
0.282691
0.290173
0.316125
0.301162
0.311917
0.334361
0.302331
0.294383
0.289707
0.255339
0.239908
0.226816
0.207879
0.174446
0.145455
0.120673
0.053807
0.014062
