EVENT_NAME: 202302060117
EVENT_ID: 13194
EVENT_DATE_YYYYMMDD: 2023/02/06
EVENT_TIME_HHMMSS: 01:17:32.00000
EVENT_LATITUDE_DEGREE: 37.288
EVENT_LONGITUDE_DEGREE: 37.043
EVENT_DEPTH_KM: 8.6
HYPOCENTER_REFERENCE: AFAD
MAGNITUDE_W: 7.7
MAGNITUDE_W_REFERENCE: AFAD
MAGNITUDE_L: 
MAGNITUDE_L_REFERENCE: 
FOCAL_MECHANISM: 
NETWORK: TK
STATION_CODE: 2904
STATION_NAME: 
STATION_LATITUDE_DEGREE: 40.19031
STATION_LONGITUDE_DEGREE: 39.11936
STATION_ELEVATION_M: 1443.0
LOCATION: Kahramanmaras_Pazarck_Turkiye
SENSOR_DEPTH_M: 
VS30_M/S: 521
SITE_CLASSIFICATION_EC8: B
MORPHOLOGIC_CLASSIFICATION: 
EPICENTRAL_DISTANCE_KM: 369.54
EARTHQUAKE_BACKAZIMUTH_DEGREE: 
DATE_TIME_FIRST_SAMPLE_YYYYMMDD_HHMMSS: 2023/02/06 01:17:59.1927630
DATE_TIME_FIRST_SAMPLE_PRECISION: millisecond
SAMPLING_INTERVAL_S: 0.01
NDATA: 21001
DURATION_S: 
STREAM: HNN
UNITS: cm/s^2
INSTRUMENT: sensor = ACEBOX/SARA | digitizer = 
INSTRUMENT_ANALOG/DIGITAL: 
INSTRUMENTAL_FREQUENCY_HZ: 
INSTRUMENTAL_DAMPING: 
FULL_SCALE_G: 
N_BIT_DIGITAL_CONVERTER: 
PGA_CM/S^2: 5.991
TIME_PGA_S: 
BASELINE_CORRECTION: BASELINE REMOVED
FILTER_TYPE: BUTTERWORTH
FILTER_ORDER: 
LOW_CUT_FREQUENCY_HZ: 
HIGH_CUT_FREQUENCY_HZ: 
LATE/NORMAL_TRIGGERED: 
DATABASE_VERSION: 
HEADER_FORMAT: DYNA 1.2
DATA_TYPE: Acceleration
PROCESSING: Automatic Paolucci et al., 2011
DATA_TIMESTAMP_YYYYMMDD_HHMMSS: 
DATA_LICENSE: U (unknown license)
DATA_CITATION: Turkish Accelerometric Archive v 1.0 - Disaster And Emergency Management Presidency, Earthquake Department
DATA_CREATOR: AFAD
ORIGINAL_DATA_MEDIATOR_CITATION: : AFAD - Disaster And Emergency Management Presidency
ORIGINAL_DATA_MEDIATOR: AFAD PROCESS SERVICE
ORIGINAL_DATA_CREATOR_CITATION: AFAD PROCESS SERVICE
ORIGINAL_DATA_CREATOR: network: TK
USER1: GuestUser
USER2: 
USER3: 
USER4: 
USER5: 
[...]
-3.765495
-3.942246
-4.205501
-4.418257
-4.725233
-4.942898
-4.845638
-4.721726
-4.807529
-5.024259
-5.207322
-5.283306
-5.277228
-5.150510
-4.995970
-4.933078
-4.810335
-4.719621
-4.792800
-4.740663
-4.512243
-4.230517
-3.829087
-3.495692
-3.488912
-3.540348
-3.240386
-2.776298
-2.425135
-2.056670
-1.735900
-1.525249
-1.243991
-0.962733
-0.691294
-0.329610
-0.061210
0.053116
0.225659
0.502241
0.711490
0.819971
1.010984
1.273071
1.402361
1.467824
1.650887
1.897777
2.025430
1.993400
1.984282
2.071722
2.176230
2.291024
2.361631
2.419379
2.523419
2.539083
2.567840
2.814496
3.033097
2.990779
2.876920
2.759086
2.588648
2.624419
2.865464
2.973011
2.922744
2.893286
3.014627
3.146722
3.067231
2.933032
2.795559
2.588882
2.538148
2.740617
3.029824
3.185065
3.123343
2.926953
2.677258
2.546097
2.587012
2.612496
2.524822
2.330302
2.103052
1.895673
1.696712
1.567422
1.471565
1.364486
1.238469
1.000230
0.863459
0.945054
0.826051
0.449871
0.146402
-0.039233
-0.159404
-0.264613
-0.428973
-0.599645
-0.648274
-0.496072
-0.242169
-0.133453
-0.259002
-0.372394
-0.246611
-0.057469
-0.030816
-0.105163
-0.222530
-0.356963
-0.364444
-0.264379
-0.150520
0.071354
0.306554
0.340688
0.287616
0.308658
0.418309
0.558353
0.605581
0.560691
0.491488
0.437013
0.399605
0.326660
0.336480
0.431402
0.351443
0.153884
0.055456
0.067847
0.106424
0.069016
0.014775
0.017347
0.038389
0.165808
0.406853
0.549469
0.526791
0.437247
0.298137
0.199241
0.229869
0.248806
0.223556
0.208827
0.221452
0.372485
0.443326
0.236181
0.071120
-0.026139
-0.231881
-0.322828
-0.272795
-0.278874
-0.299916
-0.353689
-0.464275
-0.480875
-0.388057
-0.281680
-0.290798
-0.474328
-0.632375
-0.666276
-0.711633
-0.766809
-0.737818
-0.705320
-0.770783
-0.842559
-0.881369
-0.901710
-0.884642
-0.893059
-0.826193
-0.690357
-0.667211
-0.601280
-0.561067
-0.709762
-0.715841
-0.555690
-0.417282
-0.259001
-0.171794
-0.101889
0.081174
0.258393
0.374824
0.450574
0.475824
0.452444
0.449171
0.566070
0.712661
0.813427
0.925416
1.041614
1.180957
1.254135
1.214390
1.307441
1.526743
1.625873
1.564150
1.447953
1.456370
1.545213
1.498921
1.404467
1.409143
1.376411
1.213688
1.127417
1.172073
1.089542
0.889879
0.790048
0.789814
0.798698
0.736742
0.588515
0.455017
0.380903
0.285747
0.100580
-0.056064
-0.087393
-0.140231
-0.264378
-0.373795
-0.470821
-0.510800
-0.544233
-0.662067
-0.704618
-0.668379
-0.717944
-0.759560
-0.737817
-0.724257
-0.699240
-0.637518
-0.500513
-0.350882
-0.322827
-0.287523
-0.124333
0.003788
0.074629
0.262368
0.525390
0.630832
0.495931
0.323389
0.313803
0.407556
0.504114
0.545497
0.454316
0.306088
0.209062
0.164407
0.144534
0.067147
-0.083184
-0.246375
-0.444635
-0.648974
-0.760962
-0.806319
-0.903813
-1.067938
-1.196527
-1.267835
-1.348027
-1.500697
-1.734027
-1.890905
-1.891606
-1.900256
-1.978111
-2.030949
-1.997750
-1.880617
-1.766524
-1.756939
-1.902594
-2.089164
-2.097581
-1.965953
-1.839469
-1.715323
-1.635130
-1.649392
-1.655003
-1.549560
-1.417932
-1.310386
-1.168003
-1.094825
-1.096929
-0.997097
-0.800708
-0.608059
-0.475028
-0.372391
-0.284717
-0.290094
-0.297810
-0.189094
0.015245
0.232209
0.343263
0.439119
0.613766
0.758720
0.900635
1.112222
1.295519
1.383427
1.564620
1.923031
2.183247
2.296873
2.436917
2.612265
2.791354
2.903810
2.998498
3.117735
3.120774
3.121476
3.207513
3.194888
3.122645
3.088510
3.053441
2.991952
2.836477
2.684509
2.680300
2.601978
2.315577
2.038995
1.827174
1.624472
1.497053
1.384596
1.170438
0.880997
0.601375
0.420650
0.245536
-0.079442
-0.380807
-0.557558
-0.837179
-1.178523
-1.391980
-1.578083
-1.852093
-2.186189
-2.483112
-2.693997
-2.908857
-3.076957
-3.137510
-3.288076
-3.489843
-3.516262
-3.491246
-3.553202
-3.606975
-3.620068
-3.648123
-3.730888
-3.789337
-3.715457
-3.631056
-3.664255
-3.704702
-3.681323
-3.653501
-3.609313
-3.502701
-3.346291
-3.190348
-3.108519
-3.058253
-2.932704
-2.815571
-2.751745
-2.611232
-2.416479
-2.286956
-2.217518
-2.125168
-1.990033
-1.850690
-1.675108
-1.525945
-1.511684
-1.479420
-1.311086
-1.071210
-0.838348
-0.765403
-0.797199
-0.699004
-0.481339
-0.224162
0.014311
0.184983
0.383477
0.611429
0.786544
0.925419
1.044188
1.186103
1.346488
1.410315
1.397222
1.445618
1.530720
1.573271
1.616056
1.655802
1.677545
1.724538
1.775272
1.809173
1.790937
1.739969
1.791872
1.899886
1.919058
1.955063
2.120825
2.244504
2.230476
2.220189
2.211772
2.172728
2.218552
2.289627
2.226501
2.108901
2.127138
2.207564
2.145140
2.025202
1.999952
2.006966
1.957401
1.840035
1.737865
1.707238
1.676844
1.609744
1.489339
1.332928
1.240812
1.172543
1.060321
0.932434
0.766438
0.675257
0.715470
0.653514
0.538953
0.563502
0.526562
0.329938
0.154357
0.046810
-0.058633
-0.174362
-0.263673
-0.349710
-0.464972
-0.565739
-0.653179
-0.708121
-0.731501
-0.809356
-0.876689
-0.887210
-0.909888
-0.901706
-0.857752
-0.824786
-0.823383
-0.876689
-0.878092
-0.817538
-0.777559
-0.657855
-0.490456
-0.420551
-0.358594
-0.267180
-0.280506
-0.324694
-0.215978
-0.085519
-0.056528
0.017118
0.101519
0.068553
-0.031278
-0.129005
-0.121056
-0.044137
-0.093702
-0.206392
-0.222758
-0.198209
-0.268816
-0.453282
-0.592859
-0.662530
-0.799536
-0.951270
-1.082430
-1.269936
-1.471235
-1.627412
-1.714852
-1.785225
-1.917788
-2.051286
-2.131712
-2.195773
-2.278069
-2.295137
-2.217750
-2.271523
-2.404086
-2.362470
-2.252118
-2.203956
-2.243000
-2.323192
-2.317113
-2.303086
-2.290694
-2.182680
-2.141298
-2.206995
-2.228270
-2.219386
-2.216814
-2.214243
-2.208164
-2.161404
-2.139194
-2.168184
-2.157897
-2.126101
-2.112073
-2.103890
-2.051520
-1.870560
-1.648687
-1.542543
-1.515422
-1.409980
-1.182261
-0.963427
-0.830864
-0.789248
-0.758854
-0.561529
-0.267412
-0.017016
0.194805
0.307729
0.394935
0.514639
0.488922
0.401248
0.477232
0.605119
0.634344
0.622888
0.608392
0.572388
0.484246
0.338824
0.285986
0.365243
0.439825
0.489390
0.462737
0.356827
0.332512
0.387688
0.443332
0.485649
0.481908
0.454788
0.425563
0.348878
0.298377
0.413172
0.534045
0.427433
0.241097
0.166048
0.181011
0.226835
0.239461
0.225433
0.211171
0.180076
0.172361
0.205326
0.241331
0.275465
0.322459
0.363841
0.362438
0.371322
0.452918
0.543865
0.610497
0.697236
0.819979
0.982468
1.127423
1.196159
1.293419
1.462688
1.580522
1.650661
1.775976
1.961612
2.147714
2.262041
2.327504
2.431778
2.563172
2.688254
2.800476
2.836481
2.806789
2.796502
2.785981
2.792761
2.827363
2.742962
2.646404
2.692930
2.720985
2.764705
2.878565
2.894697
2.858926
2.806088
2.716777
2.692228
2.702749
2.688955
2.622089
2.511503
2.425466
2.283083
2.111008
2.041337
1.978445
1.832322
1.651597
1.516228
1.440946
1.356779
1.264195
1.174884
1.071780
0.974286
0.883573
0.788651
0.690223
0.649308
0.646035
0.584312
0.542697
0.524694
0.453620
0.418784
0.417849
0.379974
0.315680
0.226369
0.147813
0.080012
-0.014910
-0.117313
-0.189323
-0.186049
-0.143966
-0.200779
-0.346434
-0.399974
-0.346668
-0.336848
-0.383608
-0.412365
-0.464736
-0.573451
-0.620678
-0.579296
-0.566204
-0.569944
-0.581167
-0.669074
-0.763996
-0.791584
-0.838811
-0.954073
-1.065127
-1.195352
-1.411147
-1.591872
-1.660842
-1.745477
-1.907966
-2.037490
-2.084015
-2.151583
-2.225229
-2.181509
-2.126099
-2.234581
-2.398940
-2.446167
-2.466507
-2.498771
-2.390757
-2.254219
-2.296303
-2.434243
-2.515137
-2.510929
-2.495966
-2.499706
-2.503915
-2.556519
-2.667573
-2.796395
-2.876588
-2.878926
-2.917268
-3.054741
-3.198293
-3.260483
-3.285499
-3.326180
-3.341844
-3.370134
-3.460613
-3.548755
-3.492643
-3.276147
-3.186836
-3.274277
-3.239441
-3.003773
-2.678327
-2.470014
-2.413201
-2.282508
-2.094535
-1.830812
-1.348021
-0.844421
-0.560825
-0.506351
-0.463799
-0.159629
0.289495
0.589691
0.719682
0.763402
0.788886
0.914903
1.167170
1.427854
1.584732
1.627517
1.654404
1.740909
1.855002
1.986630
2.112647
2.150288
2.188163
2.334053
2.457965
2.495139
2.524364
2.569253
2.609934
2.604322
2.608297
2.674695
2.715610
2.724027
2.726131
2.725196
2.754187
2.776163
2.778034
2.712337
2.567850
2.537924
2.619286
2.590061
2.450718
2.352055
2.355329
2.391333
2.379176
2.381046
2.463109
2.540262
2.576968
2.646640
2.761902
2.918079
3.099272
3.234874
3.301506
3.319041
3.356449
3.483868
3.594688
3.556345
3.439213
3.351305
3.240953
3.056253
2.910364
2.818014
2.641029
2.432950
2.294308
2.172266
2.033156
1.877681
1.748625
1.637338
1.462457
1.304410
1.183069
1.006085
0.868145
0.816943
0.736283
0.601616
0.473495
0.343971
0.169792
0.026708
0.010109
-0.041327
-0.293594
-0.548433
-0.621845
-0.623482
-0.644991
-0.732197
-0.890011
-1.011585
-1.073541
-1.119600
-1.130354
-1.117028
-1.113521
-1.061618
-1.026548
-1.124042
-1.131991
-0.978152
-0.894219
-0.799765
-0.644523
-0.614831
-0.696192
-0.799765
-0.866864
-0.845823
-0.750901
-0.654577
-0.695959
-0.855175
-0.927652
-0.835536
-0.680996
-0.643588
-0.734769
-0.785035
-0.818468
-0.891413
-0.892348
-0.889543
-1.003636
-1.125912
-1.119131
-1.031457
-1.062085
-1.155838
-1.157007
-1.226211
-1.318794
-1.309209
-1.360410
-1.380984
-1.328847
-1.373737
-1.422834
-1.434524
-1.464684
-1.552124
-1.679310
-1.603559
-1.374204
-1.238134
-1.116559
-1.063955
-1.206805
-1.278815
-1.106506
-0.917130
-0.846056
-0.783866
-0.700166
-0.635638
-0.594724
-0.564564
-0.448367
-0.256887
-0.173421
-0.206854
-0.274655
-0.301308
-0.096969
0.214682
0.319657
0.302824
0.302590
0.326204
0.436089
0.599045
0.744000
0.847572
0.950676
1.136545
1.325921
1.411958
1.450301
1.505711
1.555276
1.588008
1.644119
1.680825
1.573980
1.349067
1.222583
1.222817
1.140754
1.043494
1.041624
0.903683
0.690226
0.666613
0.679706
0.627101
0.555092
0.341167
0.122567
0.080951
0.036529
-0.042962
-0.038987
-0.015140
-0.020050
-0.091358
-0.217374
-0.230467
-0.180902
-0.233273
-0.260627
-0.203814
-0.156353
-0.096735
-0.031739
0.055935
0.156000
0.163248
0.226607
0.436791
0.619152
0.804787
0.996034
1.045365
1.054015
1.186812
1.400269
1.579124
1.726416
1.867864
1.953434
2.019131
2.073839
2.100258
2.136029
2.068462
1.975878
2.068462
2.149356
2.113117
2.078983
2.001128
1.921871
1.876047
1.786970
1.698361
1.584034
1.417103
1.305815
1.264901
1.251341
1.213699
1.086046
0.872823
0.608398
0.408735
0.348883
0.306332
0.199253
0.080250
-0.004151
-0.067276
-0.157755
-0.307619
-0.533701
-0.701334
-0.652003
-0.547729
-0.593787
-0.714660
-0.841378
-1.016493
-1.118428
-1.051796
-1.029351
-1.112583
-1.124741
-1.099491
-1.077046
-0.970902
-0.862654
-0.856108
-0.914791
-0.997789
-1.035664
-0.948457
-0.843716
-0.852834
-0.893515
-0.934897
-1.020701
-1.039171
-0.937469
-0.827584
-0.809114
-0.849327
-0.826415
-0.774278
-0.738741
-0.644053
-0.577187
-0.578824
-0.489046
-0.337545
-0.286109
-0.311126
-0.273484
-0.194695
-0.237713
-0.367938
-0.457015
-0.525752
-0.564562
-0.541182
-0.494657
-0.479226
-0.525985
-0.589812
-0.667199
-0.718868
-0.614127
-0.486240
-0.469406
-0.453040
-0.485538
-0.558015
-0.533700
-0.512425
-0.531363
-0.527388
-0.615062
-0.769836
-0.820102
-0.842547
-0.978383
-1.161212
-1.265252
-1.258706
-1.297984
-1.483619
-1.623429
-1.682346
-1.743367
-1.713675
-1.728170
-1.891829
-2.016910
-2.113468
-2.238784
-2.303078
-2.281335
-2.250240
-2.320613
-2.429328
-2.474919
-2.517236
-2.556514
-2.576621
-2.592753
-2.594857
-2.613561
-2.636940
-2.637642
-2.605378
-2.545525
-2.512326
-2.457618
-2.370645
-2.400571
-2.472347
-2.380698
-2.296765
-2.395194
-2.465800
-2.422314
-2.341187
-2.274788
-2.343524
-2.417872
-2.401272
-2.423015
-2.344927
-2.200908
-2.227795
-2.304948
-2.310559
-2.289283
-2.269644
-2.232237
-2.172619
-2.187582
-2.246966
-2.251408
-2.216339
-2.167709
-2.174255
-2.251642
-2.287880
-2.240887
-2.144563
-2.006155
-1.891126
-1.855355
-1.802283
-1.680241
-1.462108
-1.227142
-1.219193
-1.206100
-0.979083
-0.871303
-0.788538
-0.595889
-0.561755
-0.581160
-0.540479
-0.483433
-0.335205
-0.259923
-0.311592
-0.327490
-0.399500
-0.539077
-0.597993
-0.595422
-0.574614
-0.591681
-0.683329
-0.748091
-0.769133
-0.801397
-0.837636
-0.866159
-0.844182
-0.761418
-0.645688
-0.535102
-0.502370
-0.500032
-0.452571
-0.377055
-0.289147
-0.197732
-0.058623
0.112517
0.234325
0.342807
0.456900
0.561641
0.634586
0.647211
0.710804
0.842899
0.934080
1.032743
1.121586
1.106623
1.080905
1.120651
1.164371
1.154084
1.119014
1.140757
1.158993
1.104519
1.108727
1.225860
1.330133
1.355851
1.414066
1.573516
1.720808
1.846358
1.969335
2.043916
2.167829
2.332188
2.450022
2.549620
2.568090
2.523668
2.527643
2.569493
2.628643
2.642905
2.567622
2.462647
2.371934
2.349957
2.368895
2.289404
2.118965
1.991780
1.923745
1.869270
1.896157
2.003703
2.012822
1.905041
1.858749
1.917900
2.005340
2.060750
2.013757
1.972375
2.138371
2.285663
2.109146
1.815497
1.680830
1.785337
2.064725
2.176714
1.926551
1.656281
1.963491
2.946140
3.699201
3.494863
2.967650
2.982145
3.484809
3.861924
3.597266
2.905694
2.416824
2.384560
2.917617
3.763262
4.202801
4.097125
3.821478
3.687044
3.947728
4.449691
4.679981
4.208178
3.096940
2.364219
3.035451
4.346353
4.565654
3.760223
3.404150
3.955677
5.036055
5.991350
5.710326
4.311283
3.622049
4.272005
4.819325
4.521701
4.023713
3.626023
3.478965
3.923414
4.519363
4.572201
3.913127
2.607135
1.357021
1.224224
2.088573
2.800485
2.774768
2.349724
2.090911
2.510109
3.617373
4.294450
3.599137
2.381287
1.779259
1.722680
2.151231
3.087822
3.599371
3.055091
2.226046
2.044151
2.506602
3.034517
3.257092
3.054857
2.349725
1.490286
1.117145
1.420848
1.857348
1.419679
-0.001107
-0.928113
-0.405342
0.711040
1.364503
1.423888
1.114340
0.571229
0.291374
0.804325
1.456853
1.371517
1.022692
1.129069
1.424121
1.478596
1.405652
1.261165
0.944370
0.632016
0.349589
0.039574
-0.124785
-0.290080
-0.687535
-1.098785
-1.185290
-0.919930
-0.803966
-1.476835
-2.792880
-3.572360
-2.951862
-1.698942
-1.156065
-1.564509
-2.216335
-2.461823
-2.193423
-1.850443
-1.916607
-2.336975
-2.777215
-2.943679
-2.726715
-2.512089
-2.550665
-2.581059
-2.508816
-2.373681
-2.251405
-2.385371
-2.749159
-3.041172
-3.092841
-3.000257
-2.958174
-2.996750
-3.165552
-3.453123
-3.423664
-2.901127
-2.346560
-2.043559
-1.940221
-2.019712
-2.235974
-2.500399
-2.638339
-2.319440
-1.530374
-1.010876
-1.377704
-2.026492
-2.092656
-1.727699
-1.450649
-1.408332
-1.523360
-1.658495
-1.690759
-1.499279
-1.149050
-0.954765
-1.056934
-1.257065
-1.318553
-1.171261
-0.814253
-0.541645
-0.861012
-1.463975
-1.658728
-1.603318
-1.572223
-1.470989
-1.432179
-1.490862
-1.500447
-1.584848
-1.727698
-1.683511
-1.547908
-1.597239
-1.913100
-2.386539
-2.857407
-3.143107
-2.996750
-2.468836
-1.845064
-1.384718
-1.448310
-1.853715
-2.021815
-1.996331
-1.972718
-2.052676
-2.404307
-2.736533
-2.745184
-2.576850
-2.326687
-1.988616
-1.798071
-2.047065
-2.388409
-2.259353
-1.972484
-1.929231
-1.868444
-1.798772
-2.034674
-2.473511
-2.701464
-2.408983
-1.739388
-1.171027
-1.027241
-1.364844
-1.969444
-2.287876
-2.016437
-1.647739
-1.687952
-1.993058
-2.253274
-2.320841
-2.313126
-2.415295
-2.483798
-2.416231
-2.307047
-2.305644
-2.579421
-2.820934
-2.687435
-2.495955
-2.475615
-2.483097
-2.556509
-2.792644
-2.911647
-2.517465
-1.779834
-1.269922
-1.192769
-1.283483
-1.351284
-1.471456
-1.565208
-1.473326
-1.284885
-1.134320
-1.059739
-1.011343
-1.084989
-1.363207
-1.442932
-1.228306
-1.219890
-1.437087
-1.492965
-1.264311
-0.887897
-0.634695
-0.688001
-0.843008
-0.656204
-0.180193
0.073477
0.063657
0.065528
0.073243
0.054773
0.026718
-0.017236
0.015495
0.148058
0.365724
0.638565
0.785156
0.817888
0.865348
0.778142
0.490104
0.214925
0.234096
0.529382
0.637162
0.372270
-0.000636
-0.347124
-0.566192
-0.504470
-0.348761
-0.485766
-0.853529
-1.108368
-1.186456
-1.054594
-0.729382
-0.420536
-0.148162
0.016197
-0.087375
-0.197727
-0.048565
0.200196
0.282492
0.017366
-0.538838
-0.935358
-0.846515
-0.495117
-0.208950
-0.196558
-0.484830
-0.740604
-0.860542
-1.206562
-1.759025
-2.148765
-2.412956
-2.679485
-2.794981
-2.735830
-2.654936
-2.733258
-2.982720
-3.088396
-2.952093
-2.782122
-2.613554
-2.352169
-1.970612
-1.577131
-1.322759
-1.296574
-1.389392
-1.337722
-1.187157
-1.122863
-1.107900
-1.092937
-1.104626
-1.292132
-1.596536
-1.693796
-1.662467
-1.640022
-1.519383
-1.445503
-1.572922
-1.851375
-2.126554
-2.283198
-2.517229
-2.871666
-3.007035
-2.747753
-2.271041
-1.904447
-1.738684
-1.695899
-1.830333
-2.010824
-1.957519
-1.662466
-1.393833
-1.351750
-1.354555
-1.197677
-0.926239
-0.582557
-0.345954
-0.392012
-0.512651
-0.586765
-0.662282
-0.617393
-0.576712
-0.754398
-0.975804
-1.129876
-1.228772
-1.187156
-1.068154
-1.006431
-1.042436
-1.119121
-1.105795
-0.983051
-0.878076
-0.850956
-0.783155
-0.637966
-0.517327
-0.370269
-0.169203
-0.048096
-0.037575
-0.107480
-0.186036
-0.223444
-0.454669
-0.917588
-1.180376
-1.137825
-1.052021
-0.953593
-0.901690
-1.040098
-1.208198
-1.190897
-1.014847
-0.830381
-0.739434
-0.784323
-1.048047
-1.370687
-1.297976
-0.870594
-0.682855
-0.953592
-1.307328
-1.392430
-1.228538
-0.967153
-0.698286
-0.594714
-0.724705
-0.820562
-0.750422
-0.723770
-0.844175
-1.116315
-1.541826
-1.945828
-2.223345
-2.365961
-2.274547
-2.015266
-1.792924
-1.717408
-1.739619
-1.645632
-1.381909
-1.119354
-0.938395
-0.845344
-0.834823
-0.825237
-0.707871
-0.462150
-0.194218
-0.015597
0.021576
-0.012324
0.000535
-0.024482
-0.171072
-0.272307
-0.193985
0.008250
0.246490
0.430722
0.495951
0.547387
0.657973
0.654933
0.516525
0.354738
0.103406
-0.151901
-0.235834
-0.166864
0.069038
0.463921
0.897381
1.239427
1.327568
1.242934
1.350948
1.698137
1.917906
1.873251
1.770147
1.692760
1.581940
1.502449
1.580303
1.797033
1.984305
1.974485
1.778330
1.621685
1.592227
1.569315
1.562067
1.525595
1.402851
1.435817
1.653014
1.736948
1.609762
1.521153
1.663769
1.837714
1.826492
1.772251
1.738117
1.742091
1.893124
2.013764
2.025454
2.108685
2.127389
1.954847
1.757990
1.569783
1.370354
1.229374
1.139596
1.051454
0.959338
0.940167
1.032283
1.158767
1.241999
1.213242
1.106163
1.018723
0.994174
1.072964
1.194538
1.274263
1.278939
1.210670
1.189862
1.169756
1.070626
0.994174
0.854130
0.661714
0.593212
0.611682
0.625008
0.525645
0.348894
0.241581
0.159518
0.115564
0.160687
0.275482
0.425813
0.502499
0.521203
0.514189
0.491510
0.535698
0.489172
0.215396
-0.107946
-0.289139
-0.246120
-0.081059
-0.039443
-0.200296
-0.379852
-0.383593
-0.269733
-0.259446
-0.434327
-0.600323
-0.596582
-0.596348
-0.701557
-0.719793
-0.640302
-0.669760
-0.815416
-0.903090
-0.890699
-0.827340
-0.721430
-0.684022
-0.747381
-0.701791
-0.478982
-0.257108
-0.193515
-0.205907
-0.161719
-0.186501
-0.298490
-0.347354
-0.384294
-0.453965
-0.493945
-0.461213
