EVENT_NAME: 202302060117
EVENT_ID: 13194
EVENT_DATE_YYYYMMDD: 2023/02/06
EVENT_TIME_HHMMSS: 01:17:32.00000
EVENT_LATITUDE_DEGREE: 37.288
EVENT_LONGITUDE_DEGREE: 37.043
EVENT_DEPTH_KM: 8.6
HYPOCENTER_REFERENCE: AFAD
MAGNITUDE_W: 7.7
MAGNITUDE_W_REFERENCE: AFAD
MAGNITUDE_L: 
MAGNITUDE_L_REFERENCE: 
FOCAL_MECHANISM: 
NETWORK: TK
STATION_CODE: 0137
STATION_NAME: 
STATION_LATITUDE_DEGREE: 37.704858
STATION_LONGITUDE_DEGREE: 35.723258
STATION_ELEVATION_M: 500.0
LOCATION: Kahramanmaras_Pazarck_Turkiye
SENSOR_DEPTH_M: 
VS30_M/S: None
SITE_CLASSIFICATION_EC8: unknown
MORPHOLOGIC_CLASSIFICATION: 
EPICENTRAL_DISTANCE_KM: 125.32
EARTHQUAKE_BACKAZIMUTH_DEGREE: 
DATE_TIME_FIRST_SAMPLE_YYYYMMDD_HHMMSS: 2023/02/06 01:17:33.6420280
DATE_TIME_FIRST_SAMPLE_PRECISION: millisecond
SAMPLING_INTERVAL_S: 0.01
NDATA: 12501
DURATION_S: 
STREAM: HNN
UNITS: cm/s^2
INSTRUMENT: sensor = ACEBOX/SARA | digitizer = 
INSTRUMENT_ANALOG/DIGITAL: 
INSTRUMENTAL_FREQUENCY_HZ: 
INSTRUMENTAL_DAMPING: 
FULL_SCALE_G: 
N_BIT_DIGITAL_CONVERTER: 
PGA_CM/S^2: 25.628
TIME_PGA_S: 
BASELINE_CORRECTION: BASELINE REMOVED
FILTER_TYPE: BUTTERWORTH
FILTER_ORDER: 
LOW_CUT_FREQUENCY_HZ: 
HIGH_CUT_FREQUENCY_HZ: 
LATE/NORMAL_TRIGGERED: 
DATABASE_VERSION: 
HEADER_FORMAT: DYNA 1.2
DATA_TYPE: Acceleration
PROCESSING: Automatic Paolucci et al., 2011
DATA_TIMESTAMP_YYYYMMDD_HHMMSS: 
DATA_LICENSE: U (unknown license)
DATA_CITATION: Turkish Accelerometric Archive v 1.0 - Disaster And Emergency Management Presidency, Earthquake Department
DATA_CREATOR: AFAD
ORIGINAL_DATA_MEDIATOR_CITATION: : AFAD - Disaster And Emergency Management Presidency
ORIGINAL_DATA_MEDIATOR: AFAD PROCESS SERVICE
ORIGINAL_DATA_CREATOR_CITATION: AFAD PROCESS SERVICE
ORIGINAL_DATA_CREATOR: network: TK
USER1: GuestUser
USER2: 
USER3: 
USER4: 
USER5: 
[...]
6.003528
6.948301
7.757473
8.077306
7.765185
6.091196
2.778755
-0.458169
-2.023443
-1.825886
-0.861006
-0.550290
-1.349644
-2.666158
-3.815740
-4.551735
-5.118929
-5.445311
-5.557067
-6.109531
-6.743591
-6.771180
-7.027423
-7.758041
-7.416698
-5.106314
-1.777510
1.058216
2.791587
3.579249
3.628112
3.320667
2.934433
2.496529
1.993163
1.286159
0.931954
1.779235
3.262443
3.878732
2.953595
1.734808
1.931197
3.425394
5.491693
7.805817
9.232447
8.585295
6.208043
3.438012
1.172281
-0.239388
-0.733636
-0.969773
-1.594247
-2.580405
-3.545053
-3.541314
-2.082654
-0.208536
0.793284
0.461992
-0.733415
-1.941446
-2.791067
-2.941400
-2.094353
-0.630316
1.322358
3.837547
5.745799
5.617677
3.665937
1.338016
0.346013
1.686372
4.384391
6.468692
6.824764
5.717733
4.488660
3.902061
3.560014
3.304940
3.325747
3.423239
2.891583
1.281186
-0.494037
-1.058425
-0.635253
-0.691132
-1.775953
-3.207728
-3.875688
-2.862880
-0.685293
1.197475
1.738013
0.822696
-0.076724
0.162684
0.928836
1.895587
2.951881
3.809215
5.073355
7.157189
9.021254
9.256452
8.255799
7.431195
6.568715
4.982867
2.802473
0.811454
0.544690
1.660136
2.418807
2.932926
3.312378
3.158304
3.017089
2.884525
2.327619
1.145772
-0.550896
-1.556459
-1.447277
-1.746538
-3.145816
-4.514700
-5.122575
-4.972478
-3.835289
-2.009568
0.081982
1.982752
1.986258
-0.214945
-2.246878
-2.414745
-0.819548
1.553961
3.771994
5.169633
5.028652
3.547779
1.125171
-1.749134
-2.957867
-1.671516
0.361818
2.191514
3.299946
2.879109
1.864194
1.565634
1.777921
1.442187
-0.692851
-3.730580
-4.739417
-3.222541
-1.213055
-0.344032
-0.873818
-1.644181
-1.527517
-0.456961
0.730494
1.037937
0.469574
-0.486190
-1.097337
-0.631147
0.195559
0.268269
-0.244450
-0.453232
0.191112
1.416910
2.507105
2.671230
1.284811
-1.456463
-4.102348
-4.608520
-2.522816
0.238328
1.645553
1.087010
-0.808619
-2.697001
-3.272143
-1.799222
0.980159
3.499557
4.929927
4.339588
2.135346
1.169529
2.884430
6.221651
8.791550
8.193729
4.518668
-0.332392
-3.719648
-3.754719
-1.854650
-0.646153
-1.204930
-2.765761
-3.802420
-3.767117
-2.574753
-0.886738
-0.026131
0.443566
1.161323
1.328019
0.737914
-0.199615
-0.517346
1.134430
3.597951
4.679496
4.518174
3.468190
1.342270
-1.205420
-3.451512
-4.315394
-3.269152
-1.607322
-0.232128
0.775771
0.971458
0.020136
-1.702016
-2.829388
-2.497864
-1.293342
0.464812
2.554023
3.876613
3.557479
1.429922
-1.841838
-4.657693
-6.190235
-7.120984
-7.741249
-7.509089
-6.546781
-5.793721
-6.119870
-7.546034
-8.845247
-8.688838
-7.311072
-6.034773
-5.705588
-6.202642
-6.358586
-5.074339
-2.781257
-0.435102
0.943599
0.068495
-2.575520
-4.824651
-5.209950
-3.312686
0.060773
3.050571
4.432546
3.899721
1.924133
-0.185187
-1.665827
-2.034292
-0.742564
0.761219
0.504976
-1.168546
-2.954524
-3.594429
-2.034067
1.044107
3.834943
5.623491
6.169874
4.767323
2.114658
-0.123718
-1.692499
-2.795555
-3.496948
-4.156492
-4.317112
-3.162154
-0.996258
0.831568
1.295187
0.642424
-0.588052
-1.999955
-2.935379
-2.910598
-1.802634
-0.267990
0.692214
1.097617
1.589058
3.008440
5.916175
9.433888
11.852519
11.871690
9.467785
6.204208
4.404435
5.066314
6.270135
6.288370
5.835737
5.362998
4.861735
4.697842
4.762369
4.907556
4.559197
2.735343
-0.097112
-2.551517
-4.031688
-3.817999
-1.759883
-0.019497
0.549330
1.299117
2.071816
2.578220
3.080415
3.003962
2.575644
2.342547
1.927556
0.756698
-1.661936
-5.023007
-7.898013
-9.117501
-8.629333
-6.749604
-4.270887
-2.821345
-3.249663
-4.790856
-5.777247
-5.002211
-2.865071
-0.146244
2.575856
4.417476
5.462783
6.399607
6.949731
6.671511
5.276441
2.564860
-0.394781
-2.200165
-2.637367
-2.187542
-1.511869
-0.966889
-0.686100
-0.584399
0.144813
1.512760
2.179315
1.093559
-1.303799
-2.477229
-0.319515
3.898420
7.327289
8.225537
6.733676
4.410197
2.563432
1.489366
0.927316
0.475385
-0.038971
-0.898878
-2.456437
-4.241714
-5.428938
-5.577166
-4.749057
-3.503621
-2.339311
-2.170277
-3.510872
-4.874379
-5.201930
-4.772679
-3.864612
-3.096589
-1.984183
-0.124093
0.640189
-0.054190
-0.431073
0.413402
1.944773
2.383375
1.352796
0.591551
0.775548
1.684317
3.085930
4.312897
4.868398
4.497361
3.493200
2.480623
1.328703
-0.507542
-3.525632
-7.539465
-10.602444
-10.424292
-7.178719
-3.032326
0.602051
3.286978
4.572160
4.438895
3.633228
3.097130
3.041718
3.028157
2.746898
2.192797
1.865012
2.281404
3.538998
5.219064
5.728039
3.742398
-0.280553
-4.689269
-7.120762
-6.342218
-3.370890
-0.491444
-0.339944
-3.065788
-5.542637
-5.133026
-1.428743
3.901366
7.614065
7.457186
3.540847
-2.224127
-6.813569
-8.236928
-6.872020
-4.258402
-2.194909
-1.968828
-3.242089
-4.370630
-4.094516
-2.205435
0.884428
3.531713
4.197333
3.309603
1.702480
0.331258
-0.253938
-0.362187
1.155857
4.709808
8.375280
10.010457
7.354052
1.434304
-3.277180
-5.055210
-4.916803
-4.151585
-3.768159
-3.799255
-4.438458
-5.925644
-7.877618
-9.943920
-11.305089
-11.190763
-9.805516
-7.604783
-5.698635
-5.542460
-6.361219
-5.505055
-1.784874
3.136090
6.380260
6.741008
5.157497
2.557671
-0.221712
-1.861334
-2.090690
-1.264919
0.249150
0.808860
-0.429332
-2.883269
-6.097749
-7.727317
-6.177944
-3.466832
-1.629654
-2.012147
-3.777552
-4.101830
-2.959965
-1.787941
-1.977318
-3.735240
-4.741038
-4.410917
-3.374027
-2.766156
-4.636301
-6.619838
-5.775364
-3.494439
-1.516515
-1.473498
-3.489533
-5.286734
-6.237121
-7.076922
-7.416864
-6.410836
-4.412805
-1.924736
1.212354
4.191632
6.813433
9.852329
12.969313
14.802048
13.488808
10.066249
7.664682
6.211631
4.602403
2.316332
-0.618760
-2.227053
-2.037210
-0.790137
1.838444
5.338154
8.770063
10.498525
8.705533
3.798828
-2.100579
-5.620398
-4.505420
-0.008565
4.675562
6.769449
6.529806
5.624308
5.355674
7.967656
11.787200
11.754701
8.148143
4.537377
2.256450
1.115752
0.580121
1.339026
4.102275
7.060978
8.150472
7.039232
4.802025
3.275094
3.222254
4.114657
5.115309
5.309125
4.657531
3.653371
2.190032
0.371790
-1.202836
-2.042403
-1.883188
-1.014399
0.107125
1.492607
2.982829
4.355919
5.988057
7.515219
7.655029
6.122954
3.400618
0.186372
-2.478217
-4.027826
-4.227257
-3.972886
-5.657397
-9.802156
-13.985024
-15.390614
-12.993025
-8.470218
-4.819241
-3.764583
-4.301616
-4.486317
-3.540375
-1.360684
0.899199
1.883485
2.019320
2.133645
3.073509
4.628493
5.301361
5.210412
4.875847
4.045165
2.947251
1.860560
1.197978
0.262320
-2.574110
-6.663225
-10.321686
-12.907485
-13.469535
-11.083401
-6.332174
-0.866463
3.501570
5.588443
6.118227
6.837386
7.128229
4.419219
-1.219505
-6.349720
-8.508137
-8.451559
-7.617606
-6.255972
-4.449188
-2.189538
0.619067
3.040270
3.592264
1.664137
-1.683373
-3.939752
-3.638155
-3.194175
-5.634786
-8.922210
-9.368998
-6.656249
-2.059563
2.895302
6.773997
8.573066
7.959814
6.041740
4.609263
5.301536
6.837349
5.628850
1.730747
-2.358602
-4.314084
-2.994300
-1.202479
-0.512076
0.667196
1.774225
2.708711
4.722639
6.226422
5.408364
3.442830
1.908183
0.853289
-0.155781
-1.385089
-2.221850
-2.109863
-2.450740
-3.814481
-5.011992
-5.436335
-4.537386
-2.690388
-0.731636
1.936925
4.752544
5.391277
3.040444
-0.277842
-2.374770
-3.029404
-2.581450
-2.143782
-3.319082
-6.419235
-10.165838
-10.936668
-6.763856
-1.152255
2.132361
2.426009
0.745707
-0.978081
-1.666615
-1.972190
-2.876285
-4.003656
-4.998699
-6.972884
-9.097167
-9.783831
-9.099508
-5.978081
-1.724141
0.673448
1.818352
1.418792
-0.590229
-2.339969
-3.912959
-4.081060
-2.509242
-1.833102
-2.755667
-4.947050
-5.944664
-2.978479
1.476526
3.735942
2.387398
-1.275972
-4.295699
-5.689132
-5.507707
-4.357893
-3.759139
-4.657156
-7.078361
-8.863638
-8.538661
-7.548297
-6.508602
-5.882962
-6.235763
-6.856029
-7.953708
-9.134619
-9.243336
-8.478119
-6.619432
-3.569781
-0.182762
2.680786
4.001038
3.104424
0.493609
-0.658311
2.479013
7.421720
10.698855
11.955982
11.727327
10.861574
9.997458
9.402677
10.400055
13.673917
17.090161
17.435479
13.462327
7.195156
2.179034
0.207888
0.632463
0.989704
-1.384976
-5.588886
-8.685532
-9.988485
-8.920033
-4.679419
0.981513
6.037144
8.924071
8.172646
5.535879
3.572214
2.424736
1.965323
1.115937
-0.830193
-2.473321
-4.044440
-5.425014
-4.859694
-2.932036
-0.730135
1.483223
3.794074
5.876972
5.111519
0.858512
-4.347687
-8.527282
-10.771036
-12.503708
-15.044151
-16.763263
-15.965782
-12.191828
-6.529259
-1.438792
1.038990
1.312298
2.207506
4.190106
5.107291
4.613043
3.359654
1.927879
1.388040
2.042671
2.884340
2.300547
0.036453
-2.436422
-4.402425
-5.348603
-4.146185
-1.204549
1.961532
4.523949
6.753439
8.599267
8.763859
7.033758
3.362672
-1.754450
-4.944381
-5.326874
-4.631095
-3.207738
-2.102814
-1.505463
-0.749364
0.462640
3.476519
7.178932
9.317006
10.560573
11.625986
12.062017
11.370677
9.524145
7.432360
6.290025
6.381438
6.349407
4.819904
1.938352
-1.057762
-3.051118
-4.916822
-7.512206
-9.204198
-8.960115
-6.184008
-0.643949
3.930060
5.548637
5.432439
2.987853
1.396394
3.851732
6.862572
7.894084
5.917327
1.619898
-1.021077
-1.478619
-0.810662
1.229920
3.737160
5.036370
2.867198
-1.658884
-4.226681
-3.547267
-0.827739
1.794998
2.219806
0.362753
-2.602498
-5.563074
-8.583502
-10.879627
-10.423723
-6.983865
-1.480279
3.528826
5.776085
5.271783
1.772772
-1.422303
-1.021342
0.254021
1.334397
2.488653
2.516006
1.725302
-0.160975
-2.797041
-4.789696
-5.278801
-4.250094
-4.149329
-4.953359
-4.075451
-1.989513
-0.132696
-0.045725
-2.196194
-4.426153
-5.462110
-5.059045
-3.668420
-2.586407
-2.346065
-4.073828
-8.205962
-12.018729
-12.442604
-8.805422
-2.942956
2.577697
6.228207
7.189346
5.581521
2.843754
0.722744
0.598830
2.627020
4.610789
4.005253
1.661668
0.416462
1.080211
3.047147
5.856687
8.804636
11.044646
11.646907
10.218638
7.755349
5.863694
5.323153
5.365469
5.057323
4.236460
2.440428
-0.284012
-3.109687
-5.721204
-7.354513
-6.918015
-4.214852
0.493122
5.813646
8.679765
7.045989
2.790176
-0.850516
-3.255590
-5.082951
-6.866825
-8.458752
-8.808981
-8.856443
-10.227198
-12.525894
-15.051607
-17.553706
-20.413983
-23.518111
-25.421923
-24.674474
-20.473606
-14.259043
-7.727683
-1.821264
1.092316
1.744375
3.027220
4.622184
6.545399
10.262774
15.068242
17.737972
16.271828
11.577645
4.983158
-0.890765
-2.558676
0.725005
6.242385
9.960696
10.154980
7.447841
3.558856
0.045817
-2.697328
-4.141261
-5.993170
-9.029964
-9.719667
-8.668983
-8.948606
-9.080703
-7.448565
-4.425802
-0.641093
1.611075
-0.849409
-6.869456
-11.611800
-12.339379
-9.368284
-5.252518
-2.155641
-0.581953
-0.477213
0.262754
2.837095
6.574343
11.371862
15.795772
18.668906
19.255268
17.170964
14.648290
11.554684
6.200024
0.722153
-2.591223
-3.628583
-3.183434
-2.086225
-0.589690
0.490920
0.424287
-0.030918
0.673045
2.880323
4.890043
5.758833
5.889057
4.926512
3.106867
1.539956
0.474775
-0.018305
0.111452
0.812608
2.998612
6.599088
9.143269
9.896562
10.644245
11.734674
13.018220
14.061656
13.251781
11.898327
12.175844
13.039489
13.417538
12.375503
9.472441
6.828660
5.392443
4.524820
4.879723
6.905107
9.557536
10.481735
8.055386
3.647839
-1.113911
-5.918680
-9.969686
-12.092333
-11.457575
-8.691520
-5.105773
-1.178681
1.631093
2.264215
1.061327
-2.272857
-6.112745
-8.965073
-12.120869
-13.423589
-10.179185
-5.148103
-0.944663
0.719972
-1.690479
-4.836924
-5.278101
-3.927689
-1.480066
1.507628
2.903864
1.754983
-0.548623
-2.193855
-3.038332
-4.417036
-6.185246
-5.739162
-2.849897
-0.437811
0.591597
0.535017
-0.149309
-0.189991
0.187357
0.618010
0.012240
-3.088848
-5.935331
-6.740998
-6.828205
-5.777755
-4.859868
-5.658521
-5.912660
-4.702293
-3.792355
-4.689670
-7.369923
-9.647343
-10.293326
-10.718839
-12.171422
-13.923500
-14.400682
-13.229592
-10.854681
-8.172092
-6.449943
-5.316729
-4.237755
-3.621701
-2.169120
1.077856
4.858122
7.980250
9.097566
7.640072
5.424375
3.881311
3.142511
3.464448
3.712974
1.879301
-1.198408
-3.504819
-5.299916
-7.353124
-9.542403
-11.115860
-11.540905
-11.245386
-10.377999
-9.726875
-9.729214
-8.815536
-7.189009
-5.507073
-2.762528
0.489590
3.932020
8.116522
11.708816
13.744955
14.685988
14.158540
12.053195
9.821131
7.894874
5.462680
2.753202
0.332464
-1.825252
-3.902542
-5.693430
-6.774510
-6.843481
-5.600850
-4.213498
-4.150842
-5.248287
-7.453932
-10.043939
-11.995914
-13.671306
-14.502223
-13.850163
-11.779422
-7.147666
0.223493
8.178678
13.987136
15.626755
12.411106
5.035736
-3.827753
-9.946462
-10.684562
-6.569029
0.106816
5.330314
5.987049
4.246661
3.221693
3.266113
4.468531
5.436918
4.266060
1.346633
-2.018413
-4.720409
-6.717740
-7.513120
-5.453601
-0.567940
5.818464
11.195333
12.700051
10.157504
5.611081
2.590420
3.597851
7.517227
11.452501
12.321992
10.067952
7.512312
5.109109
2.278758
-0.545981
-3.849772
-8.159826
-13.075882
-17.733592
-20.886116
-21.362128
-19.548798
-17.142324
-14.387492
-11.592680
-10.202289
-9.369037
-8.216652
-7.137678
-4.700109
-1.308647
0.268548
0.227632
0.251478
1.299356
3.966281
7.101734
9.224145
10.504417
11.211419
11.402430
12.120421
14.186252
17.112224
20.539457
23.976275
25.627584
25.032569
23.352968
19.841332
14.310155
8.978875
4.110747
-0.310361
-2.584040
-2.804746
-1.439371
1.308213
4.395972
7.881888
10.857893
11.629422
10.326469
7.340877
4.509591
4.116810
5.253999
6.238518
6.849195
7.465717
7.450519
5.884076
4.030530
2.649723
0.939027
-1.059707
-3.477640
-5.914977
-6.983900
-6.991382
-6.970809
-6.613802
-5.906567
-5.475913
-4.442531
-2.930799
-3.286172
-4.577435
-4.315583
-2.777199
0.094298
2.861288
1.868817
-2.012219
-5.931831
-10.130597
-13.556898
-14.013271
-13.082759
-12.907646
-12.887073
-13.231458
-14.566208
-15.883890
-17.183570
-17.979417
-15.991674
-11.327654
-5.920859
-1.272737
0.659128
-0.823147
-3.490308
-4.951308
-5.094159
-4.577235
-3.693249
-2.593000
-1.290517
-0.700647
-1.500703
-2.739596
-3.404750
-2.484993
0.385101
3.331413
4.427921
3.581106
1.750005
0.531920
0.542440
0.075779
-2.456013
-6.750168
-10.989849
-12.874958
-11.997985
-9.516462
-6.215948
-2.974116
-0.378967
2.260836
5.312357
7.675579
8.702649
8.338859
6.365141
3.869121
2.128031
1.708130
2.168242
1.039234
-1.877856
-4.348861
-7.065820
-11.309241
-15.958301
-20.045079
-22.767649
-22.574534
-20.047888
-17.143893
-14.411506
-12.154896
-8.900205
-3.780046
0.420354
3.529389
5.917627
5.541212
4.429271
5.354873
7.138278
8.028109
6.757887
3.233392
-0.999742
-4.840565
-7.518480
-7.986777
-6.953161
-5.894762
-5.132350
-5.093307
-5.543134
-5.499181
-3.940924
-0.081166
3.935002
5.434577
4.779242
3.115305
1.208688
-0.028569
0.155662
1.005514
1.332595
1.110253
-0.539889
-2.769849
-2.626532
-1.025022
0.177630
1.735653
3.390469
4.601070
6.546028
9.581885
11.498787
10.126630
6.725580
4.436002
4.000670
3.675691
2.260749
0.062352
-1.674062
-2.389249
-2.556415
-1.763376
-0.825382
-1.227982
-1.616788
-1.750054
-2.040665
-1.142885
0.600072
3.458477
7.067604
8.466412
8.333146
8.010972
6.516539
4.654810
2.989705
1.629471
1.455525
1.793828
1.337455
0.253102
0.197924
1.593225
3.157094
4.867787
6.321070
6.795210
7.426227
7.921876
7.072957
5.705710
4.692899
4.140668
3.830886
3.543548
3.921830
5.428886
7.589406
9.212425
8.988680
7.010053
4.628826
3.049057
2.286175
1.568650
1.173064
1.368517
1.231745
0.791270
0.378382
-0.986060
-3.522060
-6.147137
-8.074563
-9.121742
-9.623004
-9.837164
-9.237475
-7.480022
-5.225049
-3.250164
-1.758539
-0.546301
0.712696
2.095138
3.410714
4.325327
4.710390
5.229185
6.434877
8.001083
9.746612
11.679413
13.027721
12.650137
10.200408
5.834009
0.160917
-4.864790
-7.651421
-7.671528
-4.801902
-0.849560
2.029885
3.272984
3.893013
6.507801
11.259963
15.645531
18.367865
18.575008
16.857298
15.214170
14.562810
15.169512
15.692749
14.527970
12.300583
9.574739
6.344829
3.987683
4.590412
7.499550
9.905790
10.625417
8.962182
5.989448
4.210951
2.833417
2.502359
4.464852
5.233108
3.825881
2.140202
0.964668
1.471773
2.628367
3.183400
3.224314
1.410046
-2.374899
-7.186214
-11.787813
-14.060324
-14.237076
-13.787017
-12.467701
-10.287075
-9.325234
-9.242939
-6.257816
-1.453751
1.910590
3.915868
2.935789
-0.801929
-3.503224
-4.110864
-2.402275
1.202410
4.258373
5.282871
3.973371
1.647555
0.857319
2.526163
5.509181
7.808576
8.089599
6.933938
6.360900
7.241379
8.288789
8.619611
8.820208
9.895441
11.987224
13.189875
11.723965
8.443321
5.191667
3.097310
2.530117
3.243665
4.702559
5.973713
6.522902
6.692871
6.292142
5.189552
4.144945
3.572608
3.757541
4.769882
5.575078
5.280960
4.509194
4.479501
4.843054
4.237986
2.622679
0.465197
-2.160114
-4.782853
-6.841673
-8.081735
-8.675581
-8.632563
-7.526236
-5.605593
-2.913652
0.777538
4.614617
8.348826
11.794295
13.181647
11.722517
8.226312
3.821102
0.044574
-2.077605
-2.538187
-2.236122
-2.263477
-2.621422
-3.029634
-3.079667
-2.114320
-0.295846
2.270779
4.663927
5.187632
4.223918
2.109221
-0.569396
-1.220756
-0.100167
1.023929
2.380186
3.512231
4.278150
4.651756
3.294796
0.900243
-0.970370
-1.959100
-1.185466
0.973183
2.687383
3.247560
2.401681
0.985102
0.676021
1.015727
1.229183
1.458537
0.902566
-0.221533
-0.721626
-0.899080
-1.099679
-1.204889
-1.448039
-1.750340
-1.748237
-0.742677
1.352847
3.087388
3.787142
3.928588
3.450238
2.458001
1.333435
0.585282
0.834275
1.311922
1.014530
0.410865
-0.028208
-0.300583
-0.311339
-0.125705
0.263333
1.021302
1.887052
2.158256
1.879101
1.972618
2.660215
3.386388
3.441096
2.058651
-0.604769
-3.543134
-5.724463
-6.387748
-5.821258
-4.841882
-3.778340
-2.309860
0.341867
4.003599
7.860317
11.181406
12.286097
10.551320
7.467065
4.279005
2.070788
1.307906
0.860417
0.342321
0.572377
1.747908
3.263147
3.967811
3.039634
0.836094
-1.473123
-2.573140
-2.481493
-1.906586
-1.165684
-1.622759
-3.293008
-4.333641
-4.713329
-4.287117
-3.046357
-2.543927
-2.257293
-1.498388
-0.925586
0.176065
1.721698
2.465172
2.392693
1.953621
1.571829
1.568788
1.656929
1.082020
-0.551055
-2.197223
-2.604966
-1.780131
0.222575
3.118153
5.193103
4.767824
1.816133
-2.023053
-4.853404
-6.403715
-7.253803
-7.566391
-7.955431
-9.040719
-10.397680
-11.439482
-11.701803
-10.629610
-8.421630
-5.773877
-3.117006
-1.192389
-0.824159
-1.829489
-3.154886
-3.663163
-3.058331
-2.229053
-1.938912
-1.905480
-1.678464
-1.302987
-0.934757
-0.496856
0.009314
-0.072750
-1.365417
-3.262215
-4.768572
-5.671031
-5.825572
-4.734441
-2.564570
-0.256057
1.474743
2.231076
2.004058
1.166127
-0.087729
-0.970315
-0.548312
0.343390
0.421243
-0.407803
-1.858750
-3.408126
-4.346589
-4.309417
-2.886528
-0.262389
1.779362
1.556552
-0.746820
-3.754156
-6.189623
-7.295485
-6.595263
-4.460696
-2.399540
-1.710073
-2.329403
-2.748369
-1.513220
1.333495
4.828295
