EVENT_NAME: 202302060117
EVENT_ID: 13194
EVENT_DATE_YYYYMMDD: 2023/02/06
EVENT_TIME_HHMMSS: 01:17:32.00000
EVENT_LATITUDE_DEGREE: 37.288
EVENT_LONGITUDE_DEGREE: 37.043
EVENT_DEPTH_KM: 8.6
HYPOCENTER_REFERENCE: AFAD
MAGNITUDE_W: 7.7
MAGNITUDE_W_REFERENCE: AFAD
MAGNITUDE_L: 
MAGNITUDE_L_REFERENCE: 
FOCAL_MECHANISM: 
NETWORK: TK
STATION_CODE: 4213
STATION_NAME: 
STATION_LATITUDE_DEGREE: 37.42439
STATION_LONGITUDE_DEGREE: 31.84955
STATION_ELEVATION_M: 1149.0
LOCATION: Kahramanmaras_Pazarck_Turkiye
SENSOR_DEPTH_M: 
VS30_M/S: None
SITE_CLASSIFICATION_EC8: unknown
MORPHOLOGIC_CLASSIFICATION: 
EPICENTRAL_DISTANCE_KM: 459.22
EARTHQUAKE_BACKAZIMUTH_DEGREE: 
DATE_TIME_FIRST_SAMPLE_YYYYMMDD_HHMMSS: 2023/02/06 01:18:10.2814040
DATE_TIME_FIRST_SAMPLE_PRECISION: millisecond
SAMPLING_INTERVAL_S: 0.01
NDATA: 24501
DURATION_S: 
STREAM: HNN
UNITS: cm/s^2
INSTRUMENT: sensor = GMS+/GEOSIG | digitizer = 
INSTRUMENT_ANALOG/DIGITAL: 
INSTRUMENTAL_FREQUENCY_HZ: 
INSTRUMENTAL_DAMPING: 
FULL_SCALE_G: 
N_BIT_DIGITAL_CONVERTER: 
PGA_CM/S^2: 2.181
TIME_PGA_S: 
BASELINE_CORRECTION: BASELINE REMOVED
FILTER_TYPE: BUTTERWORTH
FILTER_ORDER: 
LOW_CUT_FREQUENCY_HZ: 
HIGH_CUT_FREQUENCY_HZ: 
LATE/NORMAL_TRIGGERED: 
DATABASE_VERSION: 
HEADER_FORMAT: DYNA 1.2
DATA_TYPE: Acceleration
PROCESSING: Automatic Paolucci et al., 2011
DATA_TIMESTAMP_YYYYMMDD_HHMMSS: 
DATA_LICENSE: U (unknown license)
DATA_CITATION: Turkish Accelerometric Archive v 1.0 - Disaster And Emergency Management Presidency, Earthquake Department
DATA_CREATOR: AFAD
ORIGINAL_DATA_MEDIATOR_CITATION: : AFAD - Disaster And Emergency Management Presidency
ORIGINAL_DATA_MEDIATOR: AFAD PROCESS SERVICE
ORIGINAL_DATA_CREATOR_CITATION: AFAD PROCESS SERVICE
ORIGINAL_DATA_CREATOR: network: TK
USER1: GuestUser
USER2: 
USER3: 
USER4: 
USER5: 
[...]
-0.967153
-0.950009
-0.924551
-0.882728
-0.843243
-0.806096
-0.757000
-0.713619
-0.668679
-0.609451
-0.539054
-0.454889
-0.372543
-0.279026
-0.181353
-0.070692
0.061530
0.180244
0.307011
0.436895
0.563403
0.694326
0.808104
0.928637
1.040857
1.133334
1.236982
1.313873
1.388427
1.455707
1.493893
1.545067
1.566628
1.589228
1.596762
1.579357
1.581696
1.540652
1.505324
1.477789
1.415705
1.364271
1.309979
1.247895
1.187629
1.129441
1.081124
1.018521
0.962930
0.913834
0.836424
0.789925
0.722646
0.643676
0.595100
0.515351
0.468334
0.412224
0.348841
0.327540
0.283639
0.264417
0.261819
0.229089
0.216620
0.199475
0.158692
0.124663
0.081281
0.043615
-0.009637
-0.052239
-0.084710
-0.156405
-0.195890
-0.253558
-0.321357
-0.372272
-0.442409
-0.482153
-0.549953
-0.605543
-0.647105
-0.736465
-0.770495
-0.835956
-0.913107
-0.932070
-1.011039
-1.029223
-1.047926
-1.087930
-1.058576
-1.072084
-1.037275
-1.008181
-0.972073
-0.888167
-0.866087
-0.778285
-0.711005
-0.693860
-0.615670
-0.586056
-0.569171
-0.520594
-0.496696
-0.469680
-0.435390
-0.406815
-0.379020
-0.358239
-0.326806
-0.302648
-0.276671
-0.242122
-0.215885
-0.182634
-0.174322
-0.157956
-0.128862
-0.119250
-0.103145
-0.094052
-0.087818
-0.085480
-0.071452
-0.056905
-0.061321
-0.044696
-0.038721
-0.042357
-0.028330
-0.045474
-0.061320
-0.070152
-0.114052
-0.146523
-0.186268
-0.231207
-0.259262
-0.297967
-0.321866
-0.351999
-0.381352
-0.403173
-0.430188
-0.444995
-0.467854
-0.473049
-0.477465
-0.478244
-0.459021
-0.457203
-0.430706
-0.401352
-0.377454
-0.329396
-0.288613
-0.236399
-0.186783
-0.143142
-0.089890
-0.053262
-0.013777
0.027786
0.061296
0.090650
0.112471
0.142604
0.169100
0.201831
0.233783
0.256383
0.294569
0.315351
0.338990
0.361849
0.362109
0.379254
0.383930
0.389126
0.416661
0.429910
0.447834
0.477188
0.494852
0.507581
0.522128
0.532259
0.529922
0.518232
0.501867
0.471214
0.439783
0.400038
0.356398
0.321849
0.269895
0.237424
0.211448
0.168846
0.151701
0.136895
0.123387
0.124167
0.128843
0.128323
0.131960
0.160795
0.180537
0.208073
0.241063
0.256130
0.290679
0.304447
0.331203
0.360557
0.363155
0.403939
0.421084
0.436930
0.481350
0.513042
0.546552
0.589414
0.635653
0.670982
0.715402
0.751770
0.772552
0.789956
0.792814
0.776189
0.752290
0.736704
0.694622
0.656437
0.630720
0.575129
0.536424
0.510707
0.472002
0.450182
0.434076
0.422127
0.403684
0.393553
0.399268
0.391215
0.408620
0.424726
0.433558
0.464731
0.498760
0.541103
0.574093
0.615656
0.668130
0.711771
0.757490
0.800092
0.843474
0.884257
0.919846
0.958551
0.995179
1.031027
1.061680
1.093112
1.118309
1.137532
1.152080
1.147404
1.151820
1.129480
1.090775
1.058824
0.980114
0.900885
0.808148
0.698526
0.601893
0.492791
0.392520
0.293289
0.196136
0.100282
0.004947
-0.084413
-0.179488
-0.271705
-0.365221
-0.454322
-0.549656
-0.632522
-0.701360
-0.770978
-0.823970
-0.877223
-0.915928
-0.948659
-0.978791
-0.985545
-0.995157
-0.981908
-0.960607
-0.941124
-0.899042
-0.860076
-0.803707
-0.744220
-0.692006
-0.622388
-0.567837
-0.510947
-0.446784
-0.399506
-0.358723
-0.308847
-0.251958
-0.209875
-0.163377
-0.113501
-0.072977
-0.029336
0.010409
0.030671
0.051453
0.063662
0.053011
0.059766
0.053012
0.040803
0.037686
0.023918
0.009891
-0.028035
-0.061025
-0.103887
-0.158957
-0.215067
-0.277671
-0.331703
-0.398723
-0.449377
-0.500032
-0.550427
-0.583677
-0.620823
-0.653814
-0.696675
-0.731484
-0.767332
-0.794867
-0.813570
-0.837988
-0.841105
-0.845781
-0.856691
-0.858509
-0.845520
-0.833571
-0.815387
-0.787072
-0.768109
-0.732261
-0.686801
-0.635367
-0.574062
-0.505223
-0.427552
-0.360012
-0.287537
-0.213763
-0.154276
-0.091412
-0.019456
0.048084
0.100817
0.152511
0.198750
0.221090
0.236417
0.237716
0.230962
0.228624
0.200050
0.164462
0.143161
0.122380
0.096923
0.055360
0.027825
0.017954
-0.015037
-0.048547
-0.057898
-0.076861
-0.116086
-0.129074
-0.126216
-0.156089
-0.170636
-0.164402
-0.194535
-0.210640
-0.218433
-0.241812
-0.251423
-0.283115
-0.305195
-0.329093
-0.371695
-0.391437
-0.425207
-0.463652
-0.503916
-0.550674
-0.593795
-0.655880
-0.735369
-0.813818
-0.888631
-0.970198
-1.039556
-1.108654
-1.174635
-1.227887
-1.268671
-1.294388
-1.319845
-1.326339
-1.325559
-1.325040
-1.325039
-1.310232
-1.290490
-1.276982
-1.242952
-1.216975
-1.163982
-1.100079
-1.049944
-0.980066
-0.919020
-0.850442
-0.780304
-0.717440
-0.658992
-0.618468
-0.577684
-0.542616
-0.517937
-0.495078
-0.479751
-0.470919
-0.455592
-0.444942
-0.438447
-0.434811
-0.436629
-0.424679
-0.415847
-0.404417
-0.382596
-0.369867
-0.358438
-0.349086
-0.338435
-0.327784
-0.323368
-0.318432
-0.308821
-0.298430
-0.291156
-0.276609
-0.263361
-0.262841
-0.260503
-0.256606
-0.266477
-0.282843
-0.299467
-0.325184
-0.348044
-0.369345
-0.386489
-0.392204
-0.384930
-0.367006
-0.355576
-0.316351
-0.255825
-0.208287
-0.155554
-0.086196
-0.009045
0.064210
0.146297
0.225267
0.288390
0.352553
0.429964
0.496205
0.537768
0.591800
0.627648
0.649729
0.681680
0.682720
0.687655
0.683759
0.659601
0.643495
0.608687
0.575696
0.550759
0.501143
0.451528
0.426590
0.383209
0.340607
0.315410
0.289693
0.270211
0.246312
0.238519
0.222414
0.200853
0.212024
0.224233
0.220336
0.240079
0.261380
0.264757
0.291514
0.307100
0.338532
0.360612
0.368665
0.409969
0.424256
0.452571
0.483743
0.498550
0.525566
0.544010
0.563493
0.576741
0.600380
0.604277
0.617525
0.655451
0.665842
0.710263
0.755722
0.803260
0.882230
0.950808
1.038350
1.112904
1.190315
1.277857
1.314744
1.367737
1.416574
1.429562
1.471385
1.467229
1.458397
1.473464
1.413977
1.373973
1.330852
1.242011
1.171354
1.080955
0.971074
0.861712
0.757025
0.638311
0.515441
0.422445
0.313602
0.231775
0.177484
0.084487
0.028637
-0.017082
-0.079426
-0.122547
-0.166967
-0.203075
-0.225155
-0.224375
-0.236065
-0.226713
-0.206451
-0.193722
-0.146444
-0.142807
-0.082541
-0.012923
0.000066
0.075658
0.132288
0.183462
0.253600
0.308930
0.333349
0.383484
0.433100
0.429983
0.468689
0.465052
0.466611
0.489471
0.480119
0.501940
0.508434
0.544802
0.581169
0.583767
0.624811
0.656503
0.672349
0.694949
0.700664
0.708976
0.711834
0.695729
0.670531
0.631047
0.585588
0.519347
0.441676
0.362967
0.275945
0.197235
0.109694
0.022672
-0.038633
-0.107731
-0.175790
-0.215275
-0.258656
-0.296063
-0.307752
-0.325156
-0.333209
-0.318402
-0.306452
-0.271903
-0.227223
-0.184880
-0.117341
-0.052399
0.018259
0.083460
0.155936
0.249452
0.318551
0.401417
0.484543
0.551563
0.639365
0.713399
0.768470
0.846660
0.901991
0.940437
0.998885
1.020706
1.053177
1.092142
1.093961
1.114482
1.127211
1.116301
1.119159
1.112924
1.098637
1.096300
1.094222
1.092663
1.073441
1.064089
1.066427
1.039152
1.009279
0.983562
0.946935
0.903294
0.864589
0.824065
0.767695
0.716521
0.671841
0.601704
0.553907
0.505590
0.437012
0.402983
0.334923
0.276995
0.239329
0.169192
0.114641
0.068402
0.008396
-0.055507
-0.110577
-0.187468
-0.229031
-0.280465
-0.347225
-0.368006
-0.424376
-0.445417
-0.468016
-0.516073
-0.525425
-0.536854
-0.545167
-0.546985
-0.534516
-0.523086
-0.499967
-0.469054
-0.450610
-0.413463
-0.377875
-0.334234
-0.277864
-0.257082
-0.209285
-0.147979
-0.137848
-0.093688
-0.059398
-0.052384
0.006064
0.040353
0.058537
0.112829
0.142443
0.168420
0.200631
0.221153
0.250247
0.254663
0.267392
0.283498
0.287654
0.311293
0.316229
0.312592
0.310255
0.316230
0.310515
0.295189
0.299085
0.266355
0.244794
0.227650
0.150759
0.108157
0.072309
-0.010557
-0.070303
-0.130569
-0.200447
-0.266427
-0.349813
-0.404104
-0.466968
-0.540742
-0.580226
-0.645688
-0.688809
-0.735307
-0.794274
-0.816874
-0.866749
-0.898701
-0.930912
-0.963123
-0.983384
-1.024428
-1.025986
-1.028843
-1.037415
-1.026245
-0.999229
-0.972473
-0.957146
-0.903894
-0.861552
-0.823365
-0.772451
-0.731667
-0.677895
-0.633474
-0.585937
-0.542296
-0.516578
-0.480990
-0.441245
-0.424620
-0.406696
-0.362016
-0.346689
-0.341234
-0.317595
-0.316296
-0.327206
-0.343571
-0.370587
-0.402019
-0.440984
-0.498652
-0.562555
-0.607234
-0.659188
-0.719194
-0.767511
-0.832712
-0.894277
-0.946750
-1.007276
-1.063126
-1.129366
-1.179502
-1.219765
-1.283149
-1.334582
-1.357182
-1.385756
-1.422643
-1.433813
-1.459530
-1.479792
-1.475895
-1.500833
-1.503170
-1.491221
-1.499533
-1.479791
-1.462386
-1.435370
-1.392248
-1.369648
-1.307044
-1.233270
-1.167548
-1.078708
-1.001297
-0.915833
-0.824394
-0.751140
-0.685678
-0.609306
-0.552676
-0.509035
-0.435780
-0.400452
-0.351615
-0.283036
-0.274204
-0.249006
-0.227705
-0.225627
-0.215496
-0.216535
-0.209261
-0.196013
-0.187960
-0.193675
-0.186141
-0.171594
-0.163541
-0.148474
-0.141980
-0.126913
-0.097819
-0.065608
-0.036254
0.000374
0.050249
0.081941
0.108698
0.144286
0.159612
0.162470
0.175459
0.177797
0.154158
0.142988
0.118051
0.052070
0.006091
-0.044304
-0.099634
-0.138080
-0.200684
-0.247182
-0.275497
-0.307448
-0.337321
-0.363557
-0.368493
-0.391092
-0.399665
-0.392131
-0.419407
-0.418108
-0.419406
-0.445123
-0.459930
-0.489543
-0.508506
-0.523572
-0.570071
-0.598385
-0.616309
-0.657352
-0.681510
-0.722554
-0.763337
-0.784638
-0.841267
-0.879712
-0.905170
-0.941797
-0.951927
-0.968293
-0.961019
-0.943614
-0.955823
-0.940497
-0.934522
-0.922053
-0.885945
-0.869060
-0.825419
-0.783076
-0.742293
-0.692417
-0.657608
-0.609551
-0.569027
-0.525645
-0.482783
-0.466418
-0.430830
-0.406931
-0.403034
-0.379395
-0.379655
-0.382252
-0.370303
-0.385629
-0.399136
-0.405111
-0.427711
-0.452388
-0.480443
-0.491613
-0.494990
-0.521486
-0.534994
-0.549281
-0.559152
-0.563308
-0.584869
-0.592402
-0.615521
-0.639419
-0.657083
-0.694490
-0.703581
-0.727220
-0.769043
-0.785668
-0.816840
-0.838920
-0.845933
-0.855025
-0.861519
-0.866974
-0.860220
-0.858921
-0.844633
-0.806967
-0.776574
-0.735530
-0.697344
-0.667211
-0.611880
-0.567460
-0.538366
-0.490828
-0.456798
-0.429522
-0.401987
-0.398610
-0.373931
-0.360164
-0.379646
-0.353409
-0.340940
-0.365099
-0.344836
-0.354448
-0.385620
-0.384321
-0.413934
-0.454458
-0.499138
-0.532647
-0.566157
-0.605642
-0.615773
-0.640970
-0.650581
-0.650321
-0.647464
-0.634995
-0.627721
-0.602523
-0.583560
-0.562519
-0.533425
-0.484068
-0.451857
-0.420425
-0.364834
-0.357561
-0.307945
-0.251575
-0.232872
-0.161955
-0.110780
-0.066360
0.003258
0.051315
0.108984
0.185096
0.248739
0.298355
0.362778
0.426941
0.482012
0.555266
0.618650
0.661252
0.707751
0.755029
0.794513
0.830621
0.868028
0.893745
0.904136
0.903877
0.914008
0.920762
0.895824
0.888551
0.864653
0.826986
0.813479
0.765941
0.721002
0.690609
0.627745
0.566440
0.524358
0.461234
0.405644
0.361744
0.299919
0.259136
0.216014
0.167958
0.118862
0.063012
0.027424
-0.010762
-0.045051
-0.082458
-0.116747
-0.148698
-0.184546
-0.196755
-0.223511
-0.238837
-0.245591
-0.275464
-0.291829
-0.297024
-0.303518
-0.333911
-0.343003
-0.337288
-0.354172
-0.334430
-0.324299
-0.323779
-0.281696
-0.245069
-0.209481
-0.156748
-0.102196
-0.058035
-0.008939
0.042235
0.071070
0.112893
0.157573
0.185108
0.223294
0.251090
0.270053
0.299667
0.309538
0.316552
0.333437
0.334736
0.342789
0.341490
0.320709
0.334737
0.343309
0.322528
0.330061
0.343570
0.351882
0.367988
0.389809
0.415266
0.413188
0.432671
0.459947
0.450855
0.458908
0.458129
0.444881
0.443063
0.440465
0.437608
0.429036
0.416827
0.398383
0.386434
0.363575
0.330844
0.323311
0.306686
0.287723
0.292919
0.288763
0.280450
0.299673
0.316818
0.319416
0.329547
0.353706
0.358122
0.351368
0.366175
0.346173
0.357863
0.378904
0.355266
0.380983
0.382801
0.358124
0.392413
0.433457
0.414494
0.412156
0.458135
0.432158
0.424885
0.478397
0.463071
0.433198
0.446966
0.448005
0.402806
0.394493
0.407222
0.366439
0.364880
0.359166
0.325136
0.310589
0.290587
0.287470
0.255259
0.237336
0.234998
0.190058
0.185382
0.172914
0.136546
0.113947
0.078878
0.061994
0.016275
-0.021651
-0.036718
-0.104257
-0.142183
-0.172056
-0.223750
-0.277262
-0.330514
-0.357530
-0.411562
-0.425329
-0.431304
-0.467411
-0.449227
-0.451045
-0.444811
-0.418834
-0.400130
-0.356749
-0.331551
-0.305574
-0.275181
-0.242970
-0.199848
-0.169715
-0.138283
-0.118281
-0.094382
-0.054637
-0.032557
-0.007619
0.015501
0.056025
0.088236
0.093951
0.146165
0.178896
0.202015
0.241500
0.271373
0.323847
0.351123
0.373723
0.415805
0.450095
0.471656
0.484125
0.493736
0.494775
0.487242
0.472696
0.465162
0.449836
0.433211
0.425418
0.408793
0.379700
0.350086
0.315278
0.272936
0.238906
0.192148
0.120712
0.068759
0.051614
-0.004496
-0.072295
-0.109182
-0.161135
-0.215946
-0.276472
-0.316216
-0.342452
-0.387652
-0.408173
-0.438047
-0.473635
-0.479090
-0.483765
-0.485324
-0.484804
-0.475712
-0.441163
-0.405834
-0.379857
-0.335956
-0.283223
-0.246076
-0.191265
-0.125803
-0.076187
-0.001374
0.073180
0.144356
0.246445
0.326194
0.411138
0.520501
0.612199
0.712210
0.802090
0.889112
0.994578
1.081081
1.152517
1.230708
1.324484
1.393842
1.441120
1.511777
1.586331
1.647376
1.705305
1.768948
1.818824
1.871817
1.941694
1.986634
2.025860
2.074956
2.112882
2.146912
2.173149
2.179903
2.173928
2.180423
2.180942
2.139380
2.111325
2.083270
2.031317
2.000145
1.942996
1.881431
1.828958
1.769212
1.707127
1.615170
1.538538
1.467102
1.379301
1.298513
1.209933
1.129664
1.075373
1.015107
0.938995
0.886522
0.842882
0.776901
0.727285
0.680008
0.618962
0.577659
0.517653
0.476870
0.450114
0.389848
0.365949
0.320490
0.268017
0.237365
0.169565
0.122548
0.080465
0.023836
-0.026039
-0.054873
-0.072277
-0.105787
-0.106826
-0.105527
-0.101371
-0.071497
-0.057210
-0.007854
0.049036
0.084104
0.157359
0.232172
0.295556
0.366473
0.423882
0.484148
0.543635
0.598446
0.648322
0.680014
0.728071
0.763919
0.784441
0.809898
0.823926
0.832239
0.818211
0.822108
0.803145
0.768596
0.761583
0.722618
0.701057
0.669885
0.634817
0.627024
0.601826
0.593254
0.573252
0.541561
0.531430
0.525456
0.499479
0.475321
0.457397
0.448305
0.441032
0.400768
0.386221
0.360504
0.341541
0.325955
0.265689
0.255039
0.225426
0.178668
0.144638
0.104115
0.085152
0.032159
0.004624
-0.041614
-0.092529
-0.077462
-0.132273
-0.169420
-0.160068
-0.192798
-0.212021
-0.202150
-0.201890
-0.241115
-0.222671
-0.214098
-0.263194
-0.237217
-0.252284
-0.276182
-0.229943
-0.227086
-0.225007
-0.183444
-0.141102
-0.139803
-0.096422
-0.033558
-0.037714
0.018137
0.051647
0.034762
0.077364
0.104900
0.125941
0.119187
0.120746
0.146463
0.120487
0.161011
0.180493
0.138151
0.173740
0.179195
0.150361
0.192444
0.206731
0.190885
0.222058
0.226993
0.232708
0.260244
0.258945
0.273752
0.314276
0.309341
0.331941
0.375322
0.377660
0.402598
0.397403
0.412730
0.402859
0.396624
0.403378
0.335579
0.314019
0.246219
0.209073
0.171147
0.066460
0.024118
-0.049655
-0.128365
-0.216166
-0.277471
-0.344751
-0.456971
-0.514379
-0.605298
-0.699593
-0.770770
-0.868442
-0.956763
-1.021185
-1.087686
-1.167434
-1.197308
-1.228999
-1.279913
-1.277316
-1.280433
-1.290304
-1.264067
-1.222504
-1.183019
-1.143534
-1.087684
-1.021703
-0.926887
-0.850775
-0.805575
-0.709201
-0.612048
-0.548924
-0.481124
-0.394881
-0.317470
-0.284999
-0.239020
-0.149140
-0.104200
-0.088874
-0.019256
0.034257
0.045427
0.078158
0.117383
0.141801
0.152192
0.157128
0.174792
0.170117
0.146738
0.117384
0.084913
0.056079
-0.015097
-0.071207
-0.123160
-0.200311
-0.260577
-0.337468
-0.400592
-0.467611
-0.552036
-0.618017
-0.686336
-0.757252
-0.830766
-0.879602
-0.930517
-0.995459
-1.021695
-1.054426
-1.083260
-1.106379
-1.130797
-1.109236
-1.115990
-1.126120
-1.096767
-1.075725
-1.060658
-1.042734
-0.993118
-0.960128
-0.934670
-0.876222
-0.829983
-0.779329
-0.735428
-0.684253
-0.632819
-0.599049
-0.540601
-0.512806
-0.485270
-0.441109
-0.433316
-0.396689
-0.365516
-0.353827
-0.323174
-0.317978
-0.300574
-0.282390
-0.288105
-0.273817
-0.267323
-0.279272
-0.277973
-0.284727
-0.311483
-0.330965
-0.361877
-0.406038
-0.449419
-0.501112
-0.555923
-0.622683
-0.697237
-0.774647
-0.851798
-0.929988
-1.015192
-1.088186
-1.163259
-1.241709
-1.286389
-1.322496
-1.367956
-1.374969
-1.381463
-1.385879
-1.350291
-1.329769
-1.286647
-1.238330
-1.192091
-1.112343
-1.052596
-0.976743
-0.886344
-0.791009
-0.695674
-0.606054
-0.507861
-0.436165
-0.354858
-0.264978
-0.200295
-0.135353
-0.074308
-0.024172
0.029080
0.061292
0.082853
0.109089
0.121558
0.132988
0.131949
0.125715
0.121040
0.094284
0.055838
0.024926
-0.002869
-0.047549
-0.095086
-0.128077
-0.167821
-0.207046
-0.233282
-0.259778
-0.278741
-0.291210
-0.308095
-0.311991
-0.310432
-0.318745
-0.323161
-0.319004
-0.324459
-0.336668
-0.343682
-0.357969
-0.379010
-0.397453
-0.409922
-0.423949
-0.441873
-0.456939
-0.467330
-0.471746
-0.474863
-0.476681
-0.473563
-0.466030
-0.458497
-0.435117
-0.411998
-0.395892
-0.365759
-0.336145
-0.294842
-0.252759
-0.222106
-0.177426
-0.125472
-0.064687
-0.002602
0.067016
0.142349
0.208330
0.288079
0.370945
0.441862
0.513818
0.584995
0.656171
0.718775
0.768651
0.825540
0.869961
0.895938
0.920876
0.933864
0.933605
0.918019
0.894380
0.865286
0.817229
0.761120
0.697217
0.617209
0.535901
0.447580
0.354324
0.276134
0.190411
0.113520
0.043642
-0.033509
-0.093255
-0.157418
-0.218463
-0.282366
-0.348606
-0.399261
-0.460826
-0.516156
-0.572266
-0.636688
-0.679290
-0.722671
-0.763714
-0.790210
-0.817226
-0.834890
-0.848917
-0.853593
-0.855931
-0.856190
-0.833850
-0.810211
-0.778000
-0.735917
-0.693575
-0.644738
-0.586031
-0.525764
-0.473810
-0.411466
-0.352498
-0.293271
-0.230927
-0.179233
-0.123382
-0.078702
-0.039997
0.003125
0.025465
0.040532
0.057157
0.063132
0.071445
0.076381
0.076900
0.083914
0.093006
0.112489
0.130673
0.145220
0.163924
0.183666
0.208604
0.233802
0.254064
0.274326
0.303420
0.329657
0.355374
0.381091
0.403691
0.432006
0.454346
0.476427
0.492532
0.499546
0.500845
0.487597
0.471752
0.445775
0.417460
0.388107
0.346544
0.315632
0.283681
0.246794
0.223415
0.197698
0.168864
0.145745
0.124184
0.106260
0.089635
0.075608
0.073530
0.076907
0.077427
0.092753
0.111717
0.125744
0.146526
0.160554
0.182114
0.206273
0.215105
0.231471
0.244979
0.247577
0.255370
0.249655
0.238485
0.237706
0.220042
0.204976
0.191468
0.167310
0.147048
0.111460
0.077691
0.039505
-0.012449
-0.066220
-0.123369
-0.198182
-0.270397
-0.324689
-0.408853
-0.473016
-0.526528
-0.596665
-0.639527
-0.697455
-0.757981
-0.804998
-0.858251
-0.902411
-0.941116
-0.984757
-1.027878
-1.063207
-1.090222
-1.116978
-1.142176
-1.149449
-1.156462
-1.149708
-1.127108
-1.098274
-1.048398
-1.004757
-0.940594
-0.873054
-0.805774
-0.708361
-0.633028
-0.540031
-0.440020
-0.360531
-0.265456
-0.189344
-0.120245
-0.052186
0.002625
0.049383
0.097181
0.151992
0.190698
0.231741
0.269148
0.305256
