EVENT_NAME: 202302060117
EVENT_ID: 13194
EVENT_DATE_YYYYMMDD: 2023/02/06
EVENT_TIME_HHMMSS: 01:17:32.00000
EVENT_LATITUDE_DEGREE: 37.288
EVENT_LONGITUDE_DEGREE: 37.043
EVENT_DEPTH_KM: 8.6
HYPOCENTER_REFERENCE: AFAD
MAGNITUDE_W: 7.7
MAGNITUDE_W_REFERENCE: AFAD
MAGNITUDE_L: 
MAGNITUDE_L_REFERENCE: 
FOCAL_MECHANISM: 
NETWORK: TK
STATION_CODE: 7001
STATION_NAME: 
STATION_LATITUDE_DEGREE: 37.17167
STATION_LONGITUDE_DEGREE: 33.22583
STATION_ELEVATION_M: 1060.0
LOCATION: Kahramanmaras_Pazarck_Turkiye
SENSOR_DEPTH_M: 
VS30_M/S: 538
SITE_CLASSIFICATION_EC8: B
MORPHOLOGIC_CLASSIFICATION: 
EPICENTRAL_DISTANCE_KM: 338.18
EARTHQUAKE_BACKAZIMUTH_DEGREE: 
DATE_TIME_FIRST_SAMPLE_YYYYMMDD_HHMMSS: 2023/02/06 01:17:57.8146140
DATE_TIME_FIRST_SAMPLE_PRECISION: millisecond
SAMPLING_INTERVAL_S: 0.01
NDATA: 18251
DURATION_S: 
STREAM: HNE
UNITS: cm/s^2
INSTRUMENT: sensor = CMG-5T/GURALP | digitizer = 
INSTRUMENT_ANALOG/DIGITAL: 
INSTRUMENTAL_FREQUENCY_HZ: 
INSTRUMENTAL_DAMPING: 
FULL_SCALE_G: 
N_BIT_DIGITAL_CONVERTER: 
PGA_CM/S^2: 4.308
TIME_PGA_S: 
BASELINE_CORRECTION: BASELINE REMOVED
FILTER_TYPE: BUTTERWORTH
FILTER_ORDER: 
LOW_CUT_FREQUENCY_HZ: 
HIGH_CUT_FREQUENCY_HZ: 
LATE/NORMAL_TRIGGERED: 
DATABASE_VERSION: 
HEADER_FORMAT: DYNA 1.2
DATA_TYPE: Acceleration
PROCESSING: Automatic Paolucci et al., 2011
DATA_TIMESTAMP_YYYYMMDD_HHMMSS: 
DATA_LICENSE: U (unknown license)
DATA_CITATION: Turkish Accelerometric Archive v 1.0 - Disaster And Emergency Management Presidency, Earthquake Department
DATA_CREATOR: AFAD
ORIGINAL_DATA_MEDIATOR_CITATION: : AFAD - Disaster And Emergency Management Presidency
ORIGINAL_DATA_MEDIATOR: AFAD PROCESS SERVICE
ORIGINAL_DATA_CREATOR_CITATION: AFAD PROCESS SERVICE
ORIGINAL_DATA_CREATOR: network: TK
USER1: GuestUser
USER2: 
USER3: 
USER4: 
USER5: 
[...]
2.250251
1.979963
1.714691
1.432487
1.108580
0.745791
0.361366
0.004848
-0.274847
-0.452322
-0.526321
-0.526319
-0.486809
-0.423469
-0.331908
-0.210558
-0.068827
0.069768
0.187355
0.290204
0.382392
0.464547
0.549837
0.611609
0.649865
0.688748
0.738606
0.832989
0.955906
1.086662
1.195783
1.263513
1.283269
1.267906
1.237805
1.203628
1.192968
1.187953
1.177920
1.182625
1.173533
1.143432
1.125874
1.114587
1.122741
1.154098
1.178557
1.164135
1.098602
1.002340
0.892595
0.775638
0.641748
0.503469
0.369266
0.245411
0.125318
-0.022995
-0.204232
-0.390486
-0.567334
-0.715960
-0.818807
-0.865840
-0.859568
-0.843575
-0.868972
-0.947675
-1.048954
-1.154936
-1.248062
-1.317672
-1.378501
-1.450306
-1.522423
-1.610219
-1.720905
-1.833159
-1.964853
-2.119438
-2.282175
-2.441149
-2.561555
-2.649664
-2.723350
-2.754078
-2.757839
-2.734948
-2.672862
-2.578165
-2.462460
-2.343305
-2.218820
-2.058589
-1.854459
-1.600473
-1.289733
-0.922552
-0.525895
-0.120773
0.274629
0.631463
0.954119
1.223469
1.442336
1.604762
1.717959
1.796350
1.837115
1.871921
1.931499
2.018670
2.119011
2.211827
2.267955
2.261685
2.182042
2.034356
1.827093
1.580008
1.340449
1.115627
0.891745
0.659711
0.395067
0.080253
-0.277206
-0.643758
-0.972368
-1.218826
-1.403199
-1.530504
-1.605130
-1.664078
-1.726789
-1.781661
-1.826499
-1.844998
-1.818657
-1.757198
-1.694798
-1.639610
-1.595083
-1.574700
-1.576267
-1.595393
-1.591943
-1.565916
-1.521702
-1.473726
-1.444564
-1.449579
-1.479680
-1.506959
-1.499432
-1.461803
-1.412886
-1.357071
-1.314739
-1.291848
-1.287143
-1.303134
-1.347658
-1.388733
-1.433258
-1.466180
-1.484679
-1.520110
-1.566516
-1.627346
-1.702286
-1.775031
-1.822377
-1.836172
-1.795722
-1.696322
-1.530446
-1.304054
-1.029687
-0.699819
-0.316646
0.105409
0.557565
0.991222
1.357776
1.645627
1.861358
2.039775
2.197498
2.356475
2.524545
2.697946
2.837168
2.917127
2.929985
2.870409
2.766308
2.639944
2.500097
2.325759
2.101877
1.836919
1.555656
1.284740
1.079046
0.951741
0.888403
0.879624
0.894677
0.905339
0.917883
0.928231
0.922902
0.920395
0.910049
0.880889
0.826330
0.747941
0.656383
0.540994
0.400833
0.232138
0.017664
-0.231616
-0.493439
-0.739269
-0.943710
-1.094532
-1.221209
-1.355098
-1.502784
-1.672733
-1.842682
-1.996326
-2.120808
-2.199825
-2.228985
-2.212992
-2.155609
-2.069692
-1.966842
-1.856154
-1.752364
-1.661743
-1.581471
-1.489909
-1.403679
-1.328423
-1.231218
-1.109241
-0.972527
-0.839889
-0.709447
-0.596563
-0.515350
-0.481484
-0.507195
-0.562067
-0.628854
-0.688116
-0.720411
-0.721351
-0.691561
-0.634492
-0.552651
-0.452623
-0.369215
-0.321239
-0.303365
-0.319041
-0.356040
-0.398370
-0.445089
-0.493063
-0.541036
-0.591832
-0.646704
-0.686838
-0.680880
-0.619420
-0.494935
-0.317772
-0.121168
0.076691
0.284897
0.494984
0.679359
0.818895
0.884117
0.890076
0.851823
0.786917
0.704138
0.573384
0.378351
0.115274
-0.193896
-0.497736
-0.759872
-0.978736
-1.140532
-1.255608
-1.348421
-1.417717
-1.456283
-1.459731
-1.423357
-1.344965
-1.232396
-1.088783
-0.931688
-0.784313
-0.648540
-0.527817
-0.434688
-0.379500
-0.355668
-0.348142
-0.336225
-0.302673
-0.258459
-0.222712
-0.201075
-0.196370
-0.219573
-0.252182
-0.291689
-0.349383
-0.428399
-0.525916
-0.640678
-0.759516
-0.846058
-0.895599
-0.922251
-0.916292
-0.892460
-0.869882
-0.799643
-0.677353
-0.505206
-0.285712
-0.081583
0.090250
0.228218
0.332008
0.449595
0.589758
0.716438
0.821169
0.912416
0.985791
1.044428
1.082998
1.096795
1.100246
1.083001
1.059172
1.028444
0.981411
0.931556
0.875430
0.841253
0.825890
0.810527
0.785130
0.748131
0.724928
0.716464
0.722422
0.738415
0.760679
0.798935
0.872623
0.955405
1.027839
1.096510
1.151384
1.202183
1.266150
1.334821
1.386560
1.390324
1.320401
1.210029
1.075199
0.908072
0.723386
0.506716
0.259945
0.009097
-0.242691
-0.462183
-0.644047
-0.808665
-0.958860
-1.112190
-1.263012
-1.398155
-1.509782
-1.588171
-1.638026
-1.675965
-1.726134
-1.801074
-1.895141
-1.991716
-2.060385
-2.094562
-2.120586
-2.154450
-2.192076
-2.227193
-2.252904
-2.237225
-2.165731
-2.051907
-1.910804
-1.753395
-1.591282
-1.426661
-1.262667
-1.087386
-0.900188
-0.724906
-0.538650
-0.332325
-0.114712
0.127985
0.399217
0.671076
0.899977
1.087174
1.210091
1.270924
1.290052
1.268731
1.228597
1.155852
1.042657
0.902497
0.751362
0.614964
0.515566
0.459440
0.462577
0.512748
0.611834
0.782413
0.980271
1.170604
1.338047
1.449990
1.502669
1.527442
1.534028
1.509885
1.453759
1.363768
1.232074
1.072786
0.892490
0.693066
0.503676
0.328710
0.168168
0.022991
-0.099611
-0.183017
-0.218761
-0.216565
-0.185835
-0.133782
-0.070128
0.017670
0.145291
0.296742
0.450389
0.578950
0.665494
0.714097
0.727582
0.724761
0.735110
0.763959
0.779952
0.795631
0.770234
0.710345
0.662371
0.632898
0.649831
0.726028
0.839225
0.955557
1.089449
1.213934
1.313648
1.377616
1.414304
1.425907
1.403018
1.351282
1.266935
1.159385
1.047445
0.954005
0.884395
0.834540
0.801304
0.760542
0.712569
0.670239
0.617876
0.589970
0.591853
0.615685
0.659585
0.693764
0.694706
0.662411
0.587157
0.470200
0.338192
0.180786
-0.003587
-0.182629
-0.336587
-0.455739
-0.531619
-0.569559
-0.585549
-0.600599
-0.591504
-0.524087
-0.403365
-0.261948
-0.085725
0.117464
0.302780
0.493740
0.680624
0.849635
1.019586
1.177309
1.316531
1.424084
1.472687
1.470180
1.437257
1.393360
1.363573
1.376116
1.419389
1.489628
1.569274
1.649547
1.767134
1.876254
1.938341
1.947749
1.893817
1.810098
1.725124
1.632311
1.537617
1.405923
1.206185
0.958473
0.699159
0.469007
0.310973
0.218787
0.158585
0.129111
0.097443
0.062639
0.013098
-0.053690
-0.108562
-0.146815
-0.171271
-0.218304
-0.286032
-0.358777
-0.428073
-0.453470
-0.423367
-0.340272
-0.235541
-0.143353
-0.053673
0.041964
0.117220
0.157985
0.168020
0.132275
0.020021
-0.145224
-0.313919
-0.460978
-0.565079
-0.654129
-0.735026
-0.831602
-0.943856
-1.032592
-1.070218
-1.067708
-1.037292
-0.989943
-0.959212
-0.937262
-0.935693
-0.967675
-1.026623
-1.110656
-1.200961
-1.294714
-1.426408
-1.588205
-1.771637
-1.960713
-2.150103
-2.342314
-2.511636
-2.650856
-2.733321
-2.743668
-2.679073
-2.533893
-2.294958
-1.961641
-1.562790
-1.120040
-0.669765
-0.248651
0.142988
0.522712
0.916860
1.314143
1.698257
2.058226
2.347958
2.565571
2.716082
2.795727
2.814856
2.768450
2.651180
2.471824
2.232891
1.923408
1.565949
1.161770
0.720904
0.291954
-0.117556
-0.494769
-0.809269
-1.047574
-1.210939
-1.306573
-1.361132
-1.377122
-1.347646
-1.274585
-1.186160
-1.126582
-1.101182
-1.117172
-1.167027
-1.217509
-1.254195
-1.287117
-1.305303
-1.312513
-1.304673
-1.268612
-1.195551
-1.065109
-0.881987
-0.670019
-0.446135
-0.229149
-0.010596
0.207958
0.415223
0.624056
0.822228
1.011620
1.196622
1.366260
1.512381
1.637493
1.733444
1.773268
1.758218
1.713694
1.650356
1.580433
1.507688
1.417384
1.277223
1.092537
0.864892
0.589901
0.302366
0.009188
-0.278347
-0.540169
-0.771889
-0.960966
-1.126838
-1.276719
-1.378312
-1.440709
-1.455132
-1.425342
-1.346323
-1.234381
-1.100489
-0.948724
-0.795391
-0.649270
-0.528235
-0.423190
-0.320027
-0.198364
-0.046913
0.145301
0.360092
0.580213
0.784656
0.949277
1.074389
1.149959
1.172223
1.138987
1.055267
0.933607
0.773692
0.604057
0.439752
0.285167
0.140617
0.001711
-0.108348
-0.181093
-0.231262
-0.250074
-0.239412
-0.239724
-0.245680
-0.240976
-0.217144
-0.145337
-0.038411
0.071964
0.160703
0.209933
0.241918
0.277038
0.333166
0.430685
0.570221
0.725122
0.877514
1.006075
1.090424
1.150002
1.183555
1.177598
1.151574
1.113007
1.086669
1.081653
1.091062
1.109249
1.086047
1.012362
0.903243
0.768413
0.628880
0.510042
0.410017
0.316263
0.225959
0.157917
0.150393
0.222827
0.361109
0.543289
0.746165
0.943396
1.132788
1.313714
1.489937
1.653931
1.779043
1.833604
1.800681
1.697521
1.554538
1.399640
1.271395
1.141895
1.019294
0.899201
0.765626
0.646474
0.563695
0.562128
0.620765
0.719225
0.841202
0.970390
1.082646
1.165114
1.220302
1.243821
1.226262
1.185501
1.142544
1.103977
1.084851
1.079208
1.082345
1.080779
1.080780
1.085485
1.095834
1.099284
1.074200
1.025913
0.987346
0.967593
0.970730
1.002401
1.034699
1.054769
1.075778
1.098983
1.126264
1.169851
1.201208
1.204658
1.197448
1.193686
1.200899
1.220655
1.238843
1.258285
1.257032
1.231321
1.203729
1.149484
1.065765
0.942223
0.744053
0.477214
0.168358
-0.163702
-0.492627
-0.785805
-1.027246
-1.202839
-1.306627
-1.348956
-1.353658
-1.339547
-1.305367
-1.278086
-1.266483
-1.232931
-1.169590
-1.080224
-0.963892
-0.862296
-0.782024
-0.730598
-0.713665
-0.683561
-0.629001
-0.552177
-0.447446
-0.317630
-0.184679
-0.068033
0.020079
0.079657
0.100980
0.071820
0.015380
-0.072102
-0.186237
-0.320126
-0.496660
-0.732143
-1.009644
-1.310661
-1.609484
-1.895450
-2.170756
-2.405298
-2.599078
-2.754916
-2.848043
-2.872186
-2.829854
-2.712894
-2.514722
-2.224677
-1.880385
-1.513517
-1.140065
-0.793578
-0.494753
-0.260208
-0.112520
-0.052942
-0.076771
-0.163940
-0.294380
-0.443320
-0.557769
-0.645565
-0.712979
-0.777258
-0.828367
-0.853451
-0.864738
-0.841846
-0.790108
-0.728648
-0.659664
-0.590679
-0.526397
-0.459608
-0.401911
-0.358952
-0.328849
-0.298746
-0.255473
-0.174573
-0.052910
0.118609
0.342180
0.599615
0.893736
1.217333
1.547514
1.836619
2.053604
2.164293
2.160218
2.081515
1.948567
1.788024
1.630618
1.475407
1.339009
1.226441
1.144917
1.107291
1.095377
1.099768
1.095693
1.070609
1.029534
0.981247
0.935782
0.894079
0.852063
0.804717
0.747336
0.689956
0.645745
0.615017
0.605612
0.606554
0.620038
0.640421
0.672405
0.710034
0.741705
0.756130
0.747352
0.731988
0.724151
0.725093
0.705967
0.642001
0.525044
0.369519
0.190791
0.009867
-0.148166
-0.262615
-0.325640
-0.327206
-0.261671
-0.104262
0.131851
0.404651
0.672433
0.863707
0.959658
0.963736
0.875626
0.732957
0.563008
0.378635
0.212449
0.066331
-0.061601
-0.174168
-0.264786
-0.314954
-0.315894
-0.284536
-0.231230
-0.169143
-0.111447
-0.054377
0.015548
0.126550
0.285527
0.470216
0.658667
0.843983
0.982265
1.056894
1.096404
1.108007
1.087313
1.051882
0.987603
0.905451
0.845876
0.816716
0.812014
0.824871
0.839923
0.822679
0.747425
0.621375
0.446723
0.211867
-0.072846
-0.385465
-0.707805
-1.017602
-1.280992
-1.497975
-1.666670
-1.802127
-1.907482
-1.980227
-2.029455
-2.064573
-2.087148
-2.079621
-2.057984
-2.053593
-2.074914
-2.109718
-2.168980
-2.241724
-2.303181
-2.335790
-2.322619
-2.279974
-2.212243
-2.133538
-2.051697
-1.951670
-1.852270
-1.764158
-1.685766
-1.611138
-1.514246
-1.394151
-1.258377
-1.105358
-0.952653
-0.801201
-0.645674
-0.467883
-0.244626
0.029114
0.320413
0.589450
0.823995
0.998337
1.105576
1.181145
1.245427
1.313157
1.405659
1.521678
1.657451
1.798241
1.941227
2.050974
2.104908
2.087977
2.001749
1.862529
1.683173
1.511029
1.355504
1.214090
1.065776
0.908683
0.735913
0.552794
0.372498
0.195023
0.040439
-0.064916
-0.128255
-0.163999
-0.149574
-0.117590
-0.084664
-0.069926
-0.091874
-0.156153
-0.253982
-0.360278
-0.473786
-0.595447
-0.731218
-0.871692
-0.999623
-1.075817
-1.077384
-1.004323
-0.866668
-0.665361
-0.418900
-0.145160
0.141436
0.411727
0.673238
0.930046
1.174939
1.395687
1.585079
1.747192
1.863211
1.927179
1.962299
1.968571
1.955089
1.942235
1.959168
1.992720
2.039756
2.109995
2.177725
2.257371
2.345170
2.438926
2.541461
2.624556
2.655914
2.629262
2.544602
2.422001
2.294696
2.177112
2.057647
1.907139
1.725588
1.540902
1.384122
1.226716
1.073386
0.928522
0.776446
0.621548
0.455048
0.288548
0.139294
0.004151
-0.132874
-0.274916
-0.427306
-0.600077
-0.794483
-0.987322
-1.168873
-1.330356
-1.431635
-1.466752
-1.439471
-1.340071
-1.193950
-1.019609
-0.812971
-0.579053
-0.338550
-0.095539
0.131167
0.319932
0.474519
0.548835
0.525946
0.418396
0.260676
0.095430
-0.044417
-0.146637
-0.206525
-0.238194
-0.268608
-0.282403
-0.300902
-0.338215
-0.390578
-0.470222
-0.577772
-0.716992
-0.870635
-1.005779
-1.123677
-1.210218
-1.220878
-1.144995
-0.985078
-0.731405
-0.415648
-0.071984
0.250672
0.518768
0.735754
0.894731
0.992250
1.020471
0.979082
0.871846
0.714753
0.512194
0.293329
0.077287
-0.134993
-0.332222
-0.504679
-0.652051
-0.779356
-0.890042
-0.996024
-1.104829
-1.219277
-1.296099
-1.332784
-1.345639
-1.320239
-1.277907
-1.228049
-1.174429
-1.134606
-1.130215
-1.157807
-1.198255
-1.257517
-1.313016
-1.349074
-1.373217
-1.387326
-1.395164
-1.382306
-1.356279
-1.320219
-1.284158
-1.255309
-1.239943
-1.223323
-1.182559
-1.117337
-1.011979
-0.876519
-0.720678
-0.554489
-0.373250
-0.190442
-0.042754
0.049434
0.060410
0.004598
-0.107029
-0.257850
-0.406164
-0.544756
-0.684917
-0.834484
-0.986247
-1.120450
-1.223924
-1.295414
-1.337117
-1.366904
-1.381326
-1.377876
-1.366586
-1.324254
-1.250253
-1.165276
-1.087198
-1.038909
-1.023229
-1.004101
-0.968981
-0.927589
-0.868011
-0.768925
-0.612770
-0.422437
-0.205138
0.058255
0.367741
0.725516
1.131892
1.539210
1.904196
2.210233
2.457634
2.658942
2.818546
2.953692
3.071906
3.175068
3.254087
3.329657
3.434387
3.563262
3.714714
3.883097
4.052108
4.196975
4.290731
4.307664
4.229275
4.040199
3.762385
3.436596
3.083528
2.728264
2.404357
2.109610
1.848102
1.643975
1.478729
1.354246
1.278680
1.219731
1.157020
1.094936
1.007141
0.882345
0.740303
0.587286
0.440854
0.307278
0.159906
-0.011611
-0.223891
-0.478501
-0.752866
-1.056392
-1.378731
-1.690096
-1.996131
-2.309377
-2.607886
-2.888209
-3.111463
-3.270437
-3.367954
-3.381749
-3.329383
-3.230296
-3.106752
-2.969411
-2.857468
-2.766534
-2.695355
-2.630760
-2.561775
-2.488714
-2.419102
-2.370185
-2.334438
-2.327225
-2.305588
-2.252281
-2.179220
-2.092990
-2.002056
-1.909554
-1.826772
-1.745245
-1.688176
-1.668106
-1.683783
-1.738969
-1.825510
-1.920832
-1.991382
-2.039355
-2.047507
-1.996395
-1.912673
-1.785993
-1.616668
-1.418497
-1.194613
-0.957245
-0.735556
-0.527037
-0.317577
-0.111252
0.113259
0.337143
0.535001
0.709656
0.864870
0.997821
1.154290
1.336470
1.513006
1.706475
1.904647
2.104387
2.285626
2.417323
2.512647
2.637446
2.814295
2.972645
3.125978
3.271472
3.343905
3.334186
3.212839
2.980178
2.688881
2.363092
2.012532
1.657896
1.310158
0.982487
0.700597
0.472326
0.259105
0.046199
-0.120301
-0.260148
-0.398427
-0.528867
-0.645511
-0.715120
-0.750865
-0.781279
-0.817024
-0.836777
-0.838657
-0.836461
-0.830815
-0.822975
-0.828304
-0.855583
-0.899480
-0.996369
-1.123988
-1.277945
-1.447894
-1.610631
-1.773995
-1.906630
-2.009790
-2.091315
-2.164374
-2.249974
-2.328050
-2.375710
-2.380726
-2.325538
-2.214849
-2.077822
-1.918845
-1.742622
-1.591798
-1.463864
-1.355684
-1.281996
-1.223045
-1.162526
-1.114550
-1.060303
-1.013895
-1.000724
-1.037096
-1.132103
-1.250315
-1.370094
-1.469805
-1.543177
-1.619685
-1.726294
-1.839802
-1.964598
-2.081242
-2.144266
-2.158689
-2.121060
-2.036084
-1.936684
-1.840419
-1.756383
-1.687712
-1.623431
-1.576709
-1.554131
-1.549427
-1.561341
-1.572941
-1.573253
-1.575447
-1.557573
-1.517436
-1.448137
-1.346542
-1.236481
-1.116699
-0.983748
-0.866162
-0.772405
-0.686488
-0.600571
-0.512459
-0.450059
-0.408041
-0.393929
-0.400513
-0.390478
-0.353790
-0.310517
-0.260346
-0.226480
-0.245606
-0.304554
-0.393918
-0.485477
-0.557594
-0.621560
-0.667025
-0.683642
-0.662946
-0.602741
-0.516824
-0.397669
-0.241515
-0.062783
0.140406
0.376518
0.632699
0.916473
1.210595
1.502835
1.789745
2.058155
2.303047
2.502787
2.626018
2.668664
2.619122
2.473004
2.251004
1.962215
1.645206
1.310951
0.962899
0.623941
0.297525
-0.030772
-0.347781
-0.672629
-1.014096
-1.365597
-1.731522
-2.110930
-2.495041
-2.857830
-3.188322
-3.494043
-3.750535
-3.921111
-4.013924
-4.009219
-3.906683
-3.714783
-3.447627
-3.152251
-2.858130
-2.559304
-2.266751
-1.993951
-1.736830
-1.489742
-1.258019
-1.065805
-0.904947
-0.756631
-0.607061
-0.453728
-0.285031
-0.120724
0.000939
0.089365
0.158350
0.205699
0.245836
0.258379
0.222321
0.171526
0.100348
0.042654
0.003461
-0.045767
-0.115690
-0.233901
-0.360579
-0.463739
-0.547459
-0.594805
-0.596685
-0.576616
-0.536479
-0.479410
-0.408544
-0.311025
-0.171175
0.027310
0.268127
0.518977
0.753208
0.935702
1.041687
1.086528
1.095622
1.113183
1.157083
1.227322
1.325154
1.419851
1.501378
1.585414
1.672271
1.752231
1.827173
1.862920
1.845989
1.761016
1.596711
1.389448
1.152084
0.897473
0.671710
0.487651
0.353762
0.286347
0.240569
0.216739
0.193537
0.146191
0.074386
-0.014350
-0.126917
-0.262375
-0.412569
-0.562137
-0.663729
-0.729889
-0.764066
-0.771590
-0.766572
-0.748384
-0.689120
-0.606966
-0.500040
-0.372106
-0.239155
-0.093661
0.024867
0.135241
0.237150
0.299236
0.323382
0.324010
0.299554
0.263182
0.229005
0.206116
0.199846
0.217094
0.264756
0.312732
0.353496
0.399591
0.440042
0.462620
0.452587
0.392071
0.287970
0.154080
0.000750
-0.155088
-0.299012
-0.436350
-0.576197
-0.701934
-0.794433
-0.854009
-0.876270
-0.850243
-0.792860
-0.726071
-0.651128
-0.582143
-0.537930
-0.536675
-0.607852
-0.763063
-1.002309
-1.307716
-1.646675
-1.988142
-2.317380
-2.598643
-2.812177
-2.952651
-3.005642
-2.977106
-2.868613
-2.672322
-2.399523
-2.082511
-1.745431
-1.430615
-1.158129
-0.943652
-0.780912
-0.664266
-0.601553
-0.568627
-0.564863
-0.579599
-0.584929
-0.573012
-0.527858
-0.459187
-0.362295
-0.223073
-0.063469
0.093940
0.220307
0.300266
0.336327
0.350438
0.370194
0.406255
0.452977
0.511614
0.574641
0.628261
0.665890
0.699129
0.717630
0.708852
0.681259
0.648650
0.628897
0.635483
0.674993
0.751503
0.837107
0.906405
0.971000
1.027756
1.092351
1.165412
1.243490
1.313415
1.375188
1.442292
1.538556
1.681855
1.843654
2.010156
2.159412
2.273863
2.341280
2.367934
2.382046
2.402115
2.427201
2.460440
2.483331
2.482392
2.450410
2.359792
2.209911
2.009233
1.763402
1.491860
1.209969
0.907070
0.611384
0.353637
0.140417
-0.018557
-0.129557
-0.202929
-0.268462
-0.333368
-0.389180
-0.449696
-0.524636
-0.585779
-0.641592
-0.693642
-0.727819
-0.763877
-0.780808
-0.776417
-0.758229
-0.735338
-0.705235
-0.688928
-0.704291
-0.752892
-0.835985
-0.934441
-1.029763
-1.116932
-1.194066
-1.257718
-1.336734
-1.435818
-1.555597
-1.666597
-1.762859
-1.842502
-1.894865
-1.908661
-1.891100
-1.834658
-1.735885
-1.627391
-1.507296
-1.375286
-1.234495
-1.125375
-1.043534
-0.962948
-0.882048
-0.798325
-0.690146
-0.551237
-0.363726
-0.126045
0.167136
0.512682
0.886448
1.270562
1.635862
1.947856
2.180834
2.358311
2.448304
2.453009
2.380891
2.236967
2.036917
1.783560
1.485679
1.159263
0.815914
0.473193
0.157438
-0.123825
-0.359935
-0.566257
-0.757215
-0.932808
-1.125019
-1.352350
-1.594732
-1.868469
-2.118376
-2.315918
-2.466427
-2.556731
-2.585891
-2.534152
-2.407786
-2.191114
-1.902009
-1.574650
