EVENT_NAME: 202302060117
EVENT_ID: 13194
EVENT_DATE_YYYYMMDD: 2023/02/06
EVENT_TIME_HHMMSS: 01:17:32.00000
EVENT_LATITUDE_DEGREE: 37.288
EVENT_LONGITUDE_DEGREE: 37.043
EVENT_DEPTH_KM: 8.6
HYPOCENTER_REFERENCE: AFAD
MAGNITUDE_W: 7.7
MAGNITUDE_W_REFERENCE: AFAD
MAGNITUDE_L: 
MAGNITUDE_L_REFERENCE: 
FOCAL_MECHANISM: 
NETWORK: TK
STATION_CODE: 4004
STATION_NAME: 
STATION_LATITUDE_DEGREE: 39.45045
STATION_LONGITUDE_DEGREE: 33.96249
STATION_ELEVATION_M: 1163.0
LOCATION: Kahramanmaras_Pazarck_Turkiye
SENSOR_DEPTH_M: 
VS30_M/S: None
SITE_CLASSIFICATION_EC8: unknown
MORPHOLOGIC_CLASSIFICATION: 
EPICENTRAL_DISTANCE_KM: 360.43
EARTHQUAKE_BACKAZIMUTH_DEGREE: 
DATE_TIME_FIRST_SAMPLE_YYYYMMDD_HHMMSS: 2023/02/06 01:17:58.0663720
DATE_TIME_FIRST_SAMPLE_PRECISION: millisecond
SAMPLING_INTERVAL_S: 0.01
NDATA: 21001
DURATION_S: 
STREAM: HNZ
UNITS: cm/s^2
INSTRUMENT: sensor = ACEBOX/SARA | digitizer = 
INSTRUMENT_ANALOG/DIGITAL: 
INSTRUMENTAL_FREQUENCY_HZ: 
INSTRUMENTAL_DAMPING: 
FULL_SCALE_G: 
N_BIT_DIGITAL_CONVERTER: 
PGA_CM/S^2: 1.249
TIME_PGA_S: 
BASELINE_CORRECTION: BASELINE REMOVED
FILTER_TYPE: BUTTERWORTH
FILTER_ORDER: 
LOW_CUT_FREQUENCY_HZ: 
HIGH_CUT_FREQUENCY_HZ: 
LATE/NORMAL_TRIGGERED: 
DATABASE_VERSION: 
HEADER_FORMAT: DYNA 1.2
DATA_TYPE: Acceleration
PROCESSING: Automatic Paolucci et al., 2011
DATA_TIMESTAMP_YYYYMMDD_HHMMSS: 
DATA_LICENSE: U (unknown license)
DATA_CITATION: Turkish Accelerometric Archive v 1.0 - Disaster And Emergency Management Presidency, Earthquake Department
DATA_CREATOR: AFAD
ORIGINAL_DATA_MEDIATOR_CITATION: : AFAD - Disaster And Emergency Management Presidency
ORIGINAL_DATA_MEDIATOR: AFAD PROCESS SERVICE
ORIGINAL_DATA_CREATOR_CITATION: AFAD PROCESS SERVICE
ORIGINAL_DATA_CREATOR: network: TK
USER1: GuestUser
USER2: 
USER3: 
USER4: 
USER5: 
[...]
0.388737
0.357174
0.246354
0.171305
0.200530
0.145120
0.062355
0.060485
-0.005446
-0.069740
-0.091250
-0.138243
-0.189445
-0.247193
-0.263559
-0.277119
-0.316631
-0.294186
-0.298862
-0.377418
-0.381159
-0.313358
-0.346791
-0.394486
-0.303071
-0.324347
-0.439375
-0.372977
-0.366197
-0.454104
-0.411086
-0.423711
-0.481459
-0.413190
-0.360820
-0.386304
-0.416464
-0.387473
-0.319204
-0.337908
-0.341181
-0.236674
-0.221477
-0.255378
-0.186408
-0.147831
-0.153676
-0.109488
-0.109021
-0.140584
-0.095461
-0.070912
-0.128193
-0.134973
-0.122582
-0.176589
-0.168874
-0.142922
-0.186408
-0.151339
-0.098968
-0.112529
-0.076056
-0.054781
-0.072783
-0.044962
-0.014568
-0.002878
-0.013633
0.004369
0.063988
0.050895
0.036399
0.061883
0.038971
0.046920
0.060246
0.027047
0.047621
0.050660
0.008109
0.022838
0.026112
0.004368
0.029151
0.021435
-0.018544
-0.004516
-0.003113
-0.033975
-0.038651
-0.048704
-0.042158
-0.040521
-0.113466
-0.141990
-0.110895
-0.138249
-0.174254
-0.188282
-0.207453
-0.202777
-0.185009
-0.170747
-0.158356
-0.164435
-0.192257
-0.204882
-0.189451
-0.182671
-0.194595
-0.203947
-0.190387
-0.169579
-0.179632
-0.186646
-0.180568
-0.192491
-0.181035
-0.147135
-0.158357
-0.193894
-0.193661
-0.188985
-0.222885
-0.234809
-0.212598
-0.202078
-0.182439
-0.181036
-0.217041
-0.195064
-0.137082
-0.154383
-0.188518
-0.140122
-0.076997
-0.083076
-0.097103
-0.056189
-0.019015
-0.010832
0.016522
0.048786
0.063982
0.070996
0.074737
0.075205
0.070762
0.092973
0.113781
0.086193
0.088764
0.117755
0.106767
0.099519
0.093674
0.077776
0.079412
0.083387
0.091803
0.087595
0.063046
0.069125
0.084321
0.077074
0.088763
0.100921
0.085023
0.088997
0.109805
0.100453
0.082217
0.087126
0.077307
0.045043
0.049485
0.045043
0.005998
0.008103
0.002959
-0.013875
-0.013641
-0.073727
-0.119551
-0.130773
-0.165142
-0.138956
-0.131007
-0.174961
-0.142931
-0.124228
-0.160700
-0.162804
-0.165376
-0.190392
-0.216812
-0.242062
-0.271520
-0.320852
-0.359428
-0.365039
-0.382808
-0.418345
-0.432373
-0.443362
-0.476795
-0.483107
-0.475860
-0.507656
-0.527295
-0.521684
-0.530335
-0.540388
-0.551377
-0.559793
-0.557923
-0.567509
-0.567743
-0.527764
-0.498071
-0.498539
-0.461132
-0.398006
-0.371354
-0.352182
-0.317814
-0.284147
-0.250481
-0.219152
-0.190161
-0.168886
-0.158832
-0.142700
-0.119087
-0.104124
-0.087758
-0.060404
-0.054559
-0.064379
-0.055962
-0.062508
-0.092902
-0.100851
-0.089162
-0.089395
-0.092435
-0.072095
-0.061340
-0.068354
-0.044039
-0.028375
-0.037259
-0.015048
0.003188
0.007630
0.021658
0.002252
-0.027206
-0.018556
-0.006398
-0.024401
-0.048950
-0.051054
-0.049184
-0.062043
-0.074200
-0.073966
-0.087994
-0.110673
-0.088696
-0.064147
-0.074200
-0.065550
-0.062978
-0.079812
-0.055731
-0.024870
-0.044041
-0.059004
-0.036793
-0.042872
-0.065083
-0.063213
-0.066486
-0.042405
-0.020896
-0.044509
-0.021363
0.000613
-0.026507
0.001549
0.035215
0.035449
0.069350
0.091326
0.094366
0.128734
0.144632
0.132007
0.146502
0.178766
0.176194
0.164972
0.205653
0.235345
0.224824
0.254048
0.284676
0.279532
0.297301
0.303146
0.273220
0.264803
0.266907
0.261997
0.272518
0.266907
0.235110
0.221082
0.217108
0.212432
0.194663
0.153748
0.142760
0.152579
0.137382
0.117276
0.130836
0.166607
0.160294
0.158891
0.197000
0.186947
0.188350
0.224121
0.222951
0.240019
0.259891
0.265736
0.307586
0.330264
0.334472
0.355046
0.370009
0.398299
0.426822
0.440148
0.464229
0.485037
0.503040
0.519172
0.509118
0.522211
0.567567
0.558449
0.529458
0.535771
0.511923
0.478490
0.478724
0.450668
0.400636
0.371177
0.339381
0.314130
0.299167
0.264331
0.242588
0.242588
0.232535
0.233704
0.229262
0.201206
0.194426
0.207284
0.220143
0.217104
0.208687
0.226222
0.225053
0.233937
0.288645
0.291451
0.283268
0.325351
0.338444
0.348263
0.381462
0.395724
0.412090
0.443886
0.468201
0.475449
0.488307
0.505375
0.491113
0.473812
0.470772
0.471006
0.462122
0.416999
0.388709
0.402503
0.396424
0.373512
0.354808
0.350600
0.353172
0.337040
0.325583
0.314595
0.293319
0.284902
0.280694
0.284669
0.288175
0.292384
0.321141
0.340078
0.347092
0.368134
0.391046
0.417932
0.441078
0.465861
0.510984
0.545352
0.568731
0.609880
0.642144
0.670667
0.717660
0.744313
0.766991
0.808841
0.822167
0.826609
0.837130
0.817023
0.788266
0.776109
0.776342
0.757872
0.725141
0.735895
0.749923
0.726309
0.717893
0.718594
0.701527
0.680017
0.664353
0.651728
0.617827
0.588602
0.588836
0.565222
0.527815
0.497889
0.440374
0.388705
0.369300
0.337503
0.282093
0.230190
0.195354
0.162857
0.124748
0.078689
0.025851
0.011356
0.013694
-0.014830
-0.027689
-0.015064
0.004575
0.024916
0.024915
0.042450
0.061388
0.042216
0.049931
0.071441
0.068869
0.076818
0.076350
0.083598
0.112121
0.113524
0.115862
0.130123
0.120771
0.115394
0.103003
0.060451
0.041280
0.054139
0.056944
0.042916
0.021407
0.009249
0.003638
-0.004077
0.006210
0.021407
0.027018
0.039877
0.052969
0.048059
0.040344
0.059281
0.089675
0.106275
0.116562
0.127550
0.145786
0.152099
0.153969
0.172906
0.161684
0.156774
0.189506
0.187869
0.172438
0.171036
0.165658
0.174075
0.182024
0.174075
0.148123
0.119600
0.113755
0.090843
0.055305
0.046421
0.026782
-0.014834
-0.033070
-0.029330
-0.055983
-0.102275
-0.116302
-0.123784
-0.144124
-0.171479
-0.211458
-0.236475
-0.259854
-0.308484
-0.343320
-0.376286
-0.423045
-0.436839
-0.448062
-0.483833
-0.485937
-0.484534
-0.527085
-0.542984
-0.529657
-0.544854
-0.570104
-0.602602
-0.634866
-0.636971
-0.640244
-0.657779
-0.668533
-0.671339
-0.673677
-0.687939
-0.694251
-0.681159
-0.675080
-0.677886
-0.680224
-0.674145
-0.666196
-0.670638
-0.672275
-0.673444
-0.667132
-0.639076
-0.633932
-0.639310
-0.621541
-0.619437
-0.625282
-0.618736
-0.624347
-0.641181
-0.654040
-0.647493
-0.623646
-0.613827
-0.627153
-0.647961
-0.659885
-0.670172
-0.679758
-0.669938
-0.682797
-0.722777
-0.715529
-0.686071
-0.681629
-0.664328
-0.637675
-0.616867
-0.575719
-0.527790
-0.492487
-0.455080
-0.428661
-0.417906
-0.396864
-0.370913
-0.351040
-0.343792
-0.354781
-0.352677
-0.344260
-0.366003
-0.383772
-0.377460
-0.375823
-0.384941
-0.402710
-0.424453
-0.439416
-0.449937
-0.469343
-0.499970
-0.514466
-0.521012
-0.551406
-0.579228
-0.584605
-0.578293
-0.574786
-0.587411
-0.581332
-0.567538
-0.590217
-0.590684
-0.567305
-0.572916
-0.579696
-0.582034
-0.576189
-0.563564
-0.573384
-0.583437
-0.593724
-0.606115
-0.600271
-0.611727
-0.634639
-0.638614
-0.645861
-0.651940
-0.662929
-0.689348
-0.687478
-0.665501
-0.651005
-0.624352
-0.594894
-0.563098
-0.522651
-0.500206
-0.493193
-0.478463
-0.460461
-0.446901
-0.410662
-0.387283
-0.398037
-0.370216
-0.364605
-0.364838
-0.320651
-0.340757
-0.305220
-0.319716
-0.487349
-0.398038
-0.325093
-0.509092
-0.430770
-0.385647
-0.595831
-0.534342
-0.456254
-0.632537
-0.661762
-0.589753
-0.683272
-0.771413
-0.703378
-0.720212
-0.868673
-0.840384
-0.798534
-0.944891
-0.966868
-0.903275
-0.952373
-0.999600
-1.037943
-1.051737
-1.050334
-1.099198
-1.082598
-1.055946
-1.101536
-1.062258
-1.034904
-1.108316
-1.061323
-1.000068
-1.082131
-1.074416
-1.029527
-1.108083
-1.094055
-1.016435
-1.048932
-1.062493
-1.061791
-1.086106
-1.050803
-1.067169
-1.120709
-1.113929
-1.160688
-1.192251
-1.148063
-1.146894
-1.153908
-1.145492
-1.137075
-1.112760
-1.109721
-1.078626
-1.038880
-1.055013
-1.041219
-1.009422
-0.992823
-0.950739
-0.921047
-0.884341
-0.863065
-0.887147
-0.846934
-0.799473
-0.821450
-0.821216
-0.790823
-0.758792
-0.764871
-0.791524
-0.752714
-0.749908
-0.788251
-0.732140
-0.710631
-0.757156
-0.710865
-0.678601
-0.736115
-0.723022
-0.670652
-0.672756
-0.646337
-0.630439
-0.668080
-0.637453
-0.586251
-0.573860
-0.538557
-0.539024
-0.539726
-0.477536
-0.440596
-0.432413
-0.402253
-0.376068
-0.402721
-0.355260
-0.250285
-0.362508
-0.420490
-0.259170
-0.290499
-0.325802
-0.194408
-0.248182
-0.337025
-0.282784
-0.282784
-0.281147
-0.221062
-0.241168
-0.305930
-0.300319
-0.237428
-0.223400
-0.315516
-0.366952
-0.302657
-0.274134
-0.326972
-0.373498
-0.355028
-0.337260
-0.379811
-0.364147
-0.315049
-0.352924
-0.366251
-0.306399
-0.284188
-0.332818
-0.390332
-0.380513
-0.341936
-0.333052
-0.323700
-0.319726
-0.336326
-0.368356
-0.401088
-0.383553
-0.370928
-0.414414
-0.423766
-0.434053
-0.474266
-0.467019
-0.479878
-0.480112
-0.445977
-0.477306
-0.463045
-0.446211
-0.458369
-0.417454
-0.494841
-0.444341
-0.272033
-0.461175
-0.562643
-0.430314
-0.478008
-0.402258
-0.373267
-0.561007
-0.481282
-0.391971
-0.477775
-0.480814
-0.490634
-0.468423
-0.504194
-0.569891
-0.462812
-0.534354
-0.642836
-0.481750
-0.459306
-0.496012
-0.405766
-0.439199
-0.442005
-0.327444
-0.348019
-0.331653
-0.177347
-0.225509
-0.269463
-0.126379
-0.125912
-0.114923
-0.084763
-0.092479
0.115367
0.123784
-0.018833
0.160490
0.225953
0.083336
0.083804
0.159554
0.186908
0.160957
0.154878
0.111625
0.054111
0.097597
0.095961
0.084037
0.104845
0.088947
0.137810
0.100636
0.012495
0.107183
0.172412
0.171243
0.181998
0.167268
0.258215
0.285803
0.208416
0.319704
0.366931
0.196259
0.194622
0.309884
0.262891
0.188543
0.142953
0.067904
0.070943
0.064163
-0.034032
-0.089208
-0.083364
-0.095989
-0.212186
-0.256140
-0.138072
-0.179688
-0.267830
-0.217096
-0.248659
-0.286768
-0.260349
-0.240242
-0.199795
-0.221772
-0.258479
-0.268064
-0.309914
-0.268532
-0.184365
-0.212421
-0.231592
-0.157245
-0.132930
-0.167532
-0.169403
-0.144153
-0.085236
-0.062558
-0.082664
-0.037541
-0.031463
-0.058583
-0.018838
-0.030528
-0.038944
-0.031697
-0.096225
-0.062792
0.000099
-0.058116
-0.083834
-0.074716
-0.090848
-0.093186
-0.086874
-0.063728
-0.050401
-0.038478
-0.019306
-0.041050
-0.052506
-0.058117
-0.072145
-0.023515
-0.014631
-0.061858
-0.040583
-0.042687
-0.070509
-0.041518
-0.041752
-0.035439
-0.022814
-0.055312
-0.010657
0.029556
-0.000370
0.038206
0.061820
0.057144
0.094317
0.081926
0.081926
0.131725
0.127984
0.118632
0.140141
0.141310
0.157910
0.184796
0.175211
0.207241
0.249090
0.217528
0.216593
0.223139
0.207708
0.241141
0.235530
0.214254
0.221502
0.197421
0.178951
0.145518
0.124008
0.135464
0.099693
0.073741
0.060415
0.029086
0.039841
0.048959
0.012252
-0.036611
-0.041287
-0.028896
-0.045496
-0.054614
-0.112596
-0.160992
-0.127325
-0.149068
-0.174552
-0.164733
-0.193958
-0.196062
-0.191620
-0.207050
-0.222949
-0.233937
-0.206115
-0.222481
-0.252174
-0.200037
-0.202609
-0.267371
-0.236977
-0.187880
-0.212896
-0.207986
-0.188114
-0.202609
-0.185776
-0.178061
-0.165903
-0.150473
-0.199103
-0.192790
-0.160526
-0.192556
-0.176658
-0.167540
-0.201675
-0.188816
-0.155851
-0.141589
-0.167541
-0.182504
-0.145096
-0.139953
-0.128497
-0.087816
-0.114469
-0.130367
-0.089687
-0.104884
-0.122418
-0.073087
-0.068645
-0.108858
-0.108157
-0.108859
-0.107222
-0.099741
-0.138083
-0.150709
-0.135746
-0.145565
-0.118912
-0.109093
-0.116107
-0.061165
-0.053683
-0.056021
0.015521
0.053630
0.083556
0.119560
0.140368
0.189232
0.211209
0.241368
0.290933
0.286491
0.294440
0.313611
0.313611
0.299583
0.266150
0.252356
0.218222
0.213312
0.264046
0.225703
0.188296
0.245108
0.262175
0.232483
0.249316
0.291400
0.277839
0.269189
0.326235
0.350550
0.342133
0.360136
0.389360
0.418351
0.425833
0.445004
0.469786
0.446874
0.445939
0.466747
0.473994
0.515143
0.547640
0.574995
0.617546
0.633678
0.671319
0.698907
0.699608
0.733509
0.734678
0.744731
0.789854
0.772553
0.758992
0.765071
0.750809
0.760629
0.756186
0.718311
0.690022
0.681839
0.669681
0.650977
0.636949
0.602347
0.597905
0.607257
0.556991
0.546703
0.576162
0.560497
0.544599
0.553483
0.560029
0.544365
0.540390
0.546235
0.538754
0.550210
0.549041
0.570316
0.612399
0.604918
0.621284
0.615205
0.585045
0.627596
0.627128
0.596267
0.606788
0.605385
0.595098
0.562600
0.566341
0.604917
0.591824
0.595799
0.610528
0.607021
0.635310
0.642324
0.630868
0.662898
0.729297
0.773952
0.765301
0.783771
0.820945
0.797565
0.803878
0.851572
0.846195
0.822815
0.812762
0.806683
0.790317
0.755247
0.764131
0.781666
0.767872
0.778393
0.770911
0.758988
0.770210
0.754545
0.786342
0.840115
0.845025
0.873782
0.897395
0.904409
0.939946
0.964728
0.989979
1.023645
1.045388
1.072743
1.091680
1.094719
1.094719
1.089108
1.084900
1.096356
1.101032
1.087237
1.100330
1.111786
1.080457
1.058948
1.037672
1.013591
1.024112
0.998394
0.936671
0.931528
0.919370
0.857180
0.841048
0.841983
0.796159
0.761791
0.744489
0.723681
0.701237
0.669674
0.653308
0.636709
0.600470
0.574051
0.552308
0.522381
0.510925
0.525654
0.498066
0.440318
0.439383
0.433304
0.397066
0.393559
0.387947
0.370179
0.351475
0.345162
0.364334
0.346331
0.335576
0.370646
0.365035
0.367840
0.398468
0.394025
0.404546
0.418106
0.422315
0.461125
0.472113
0.463463
0.484972
0.500870
0.524484
0.560722
0.586206
0.616132
0.639044
0.666398
0.712690
0.737706
0.761086
0.803637
0.825146
0.826315
0.828887
0.865359
0.929420
0.965658
0.991609
1.019197
1.049825
1.094012
1.121133
1.143344
1.146149
1.145214
1.202494
1.231952
1.214885
1.222367
1.237797
1.246681
1.216054
1.202961
1.249019
1.227042
1.177009
1.170931
1.114585
1.062215
1.072969
1.055668
1.006805
0.993712
1.005402
0.982256
0.941341
0.945549
0.945783
0.893413
0.884996
0.928248
0.904401
0.878917
0.902296
0.880319
0.867227
0.874241
0.869331
0.913285
0.913986
0.877747
0.891775
0.873071
0.866291
0.889203
0.877747
0.884527
0.862550
0.815323
0.820700
0.815323
0.797086
0.794515
0.787033
0.788436
0.780253
0.753366
0.745183
0.762250
0.760614
0.725778
0.712919
0.708710
0.665224
0.639039
0.651664
0.645585
0.625478
0.624075
0.610515
0.579420
0.568899
0.564457
0.553702
0.559781
0.555572
0.529621
0.518398
0.525178
0.527049
0.516762
0.507176
0.502266
0.482627
0.454805
0.444518
0.443816
0.423476
0.389575
0.369702
0.359883
0.346323
0.330424
0.316396
0.312422
0.319903
0.311720
0.281560
0.273377
0.281794
0.262623
0.244854
0.243451
0.231527
0.227786
0.223110
0.199263
0.187339
0.172844
0.143385
0.136371
0.127721
0.094755
0.064829
0.038878
0.023213
0.023681
0.012225
-0.009051
-0.000868
0.015965
-0.006246
-0.001804
0.036773
0.021810
0.028356
0.077687
0.064361
0.047761
0.083766
0.111354
0.118134
0.138942
0.165594
0.156944
0.157879
0.196455
0.191779
0.170738
0.192948
0.194117
0.173777
0.183129
0.186402
0.166061
0.162087
0.160450
0.141279
0.134732
0.135667
0.133329
0.138239
0.131693
0.110417
0.091479
0.076750
0.064592
0.042615
0.027419
0.028587
-0.002040
-0.035239
-0.031499
-0.045760
-0.051839
-0.035707
-0.055112
-0.058853
-0.044358
-0.056983
-0.055580
-0.049502
-0.050437
-0.039682
-0.037344
-0.029162
-0.014666
-0.008821
0.004739
0.014324
0.005908
-0.004613
-0.005549
-0.008354
-0.017239
-0.023084
-0.020512
-0.011160
-0.014667
-0.012563
0.008946
-0.001341
-0.018408
-0.004614
-0.000873
-0.002978
-0.000874
-0.011862
-0.018642
-0.019110
-0.038281
-0.073117
-0.102108
-0.130631
-0.151907
-0.157752
-0.185574
-0.206616
-0.185107
-0.174586
-0.179729
-0.172949
-0.162896
-0.145128
-0.128528
-0.118709
-0.105382
-0.101875
-0.116605
-0.124788
-0.112163
-0.120579
-0.165235
-0.193524
-0.193992
-0.201240
-0.222048
-0.237946
-0.242622
-0.237245
-0.225555
-0.233037
-0.244960
-0.226958
-0.226023
-0.251039
-0.245428
-0.229296
-0.242857
-0.251273
-0.235141
-0.232570
-0.234440
-0.243091
-0.286109
-0.288681
-0.262964
-0.306684
-0.348300
-0.345728
-0.357418
-0.378460
-0.404178
-0.427557
-0.439715
-0.452574
-0.456081
-0.467069
-0.489046
-0.496294
-0.514998
-0.540248
-0.538846
-0.535105
-0.545626
-0.557082
-0.561992
-0.562927
-0.566434
-0.559186
-0.556381
-0.566434
-0.548198
-0.530430
-0.539314
-0.536275
-0.527858
-0.528326
-0.532300
-0.536976
-0.526923
-0.513831
-0.503076
-0.489516
-0.492555
-0.493958
-0.484372
-0.494192
-0.506817
-0.504947
-0.505648
-0.508454
-0.515234
-0.524820
-0.532301
-0.548901
-0.561760
-0.567605
-0.572515
-0.562695
-0.564566
-0.589348
-0.582802
-0.553110
-0.549603
-0.539316
-0.501207
-0.473385
-0.446499
-0.418209
-0.406052
-0.381971
-0.344330
-0.311364
-0.274892
-0.245200
-0.232341
-0.233744
-0.242394
-0.251746
-0.264605
-0.263670
-0.263203
-0.286816
-0.293830
-0.290791
-0.310196
-0.322120
-0.317210
-0.303650
-0.288220
-0.281439
-0.272555
-0.264606
-0.255722
-0.235849
-0.219717
-0.208963
-0.192831
-0.176699
-0.169919
-0.166880
-0.158697
-0.155190
-0.139759
-0.101183
-0.085752
-0.084116
-0.062840
-0.045072
-0.031512
-0.004157
0.025301
0.040732
0.047044
0.052889
0.050317
0.044005
0.042368
0.045641
0.043069
0.026937
0.012442
-0.008133
-0.036656
-0.059101
-0.074298
-0.084351
-0.122226
-0.160803
-0.170388
-0.206393
-0.236319
-0.243567
-0.275831
-0.287989
-0.272558
-0.274429
-0.286820
-0.291262
-0.287755
-0.293133
-0.292198
-0.286119
-0.297575
-0.305291
-0.297809
-0.285418
-0.287990
-0.303654
-0.295238
-0.276300
-0.262506
-0.244738
-0.236321
-0.228606
-0.211305
-0.188159
-0.166416
-0.150518
-0.125501
-0.103525
-0.097212
-0.099316
-0.114046
-0.121527
-0.131814
-0.156363
-0.156129
-0.158935
-0.179977
-0.181614
-0.176938
-0.169222
-0.159169
-0.159403
-0.150285
-0.132750
-0.118255
-0.110774
-0.091836
-0.067287
-0.075003
-0.069625
-0.040401
-0.036426
-0.024737
-0.006033
0.003319
0.038856
0.065041
0.072289
0.107358
0.123257
0.115074
0.147338
0.174224
0.172120
0.195266
0.208125
0.198773
0.222386
0.246000
0.230803
0.224022
0.237349
0.233608
0.229166
0.230569
0.216774
0.210462
0.213501
0.209760
0.201811
0.198772
0.206721
0.199005
0.185445
0.186848
0.177963
0.177028
0.186848
0.188952
0.206486
0.216072
0.217708
0.237347
0.248102
0.248803
0.248569
0.242724
0.242257
0.245997
0.249037
0.252076
0.258856
0.265870
0.265169
0.261895
0.251141
0.243659
0.249738
0.239684
0.226358
0.239450
0.246230
0.249270
0.266804
0.273117
0.273818
0.273351
0.265401
0.268908
0.272649
0.266570
0.252776
0.233838
0.235241
0.241320
0.229162
0.218174
0.217940
0.225889
0.227525
0.223083
0.231266
0.237578
0.237578
0.246930
0.258152
0.263530
0.266101
0.261192
0.254879
0.259789
0.268673
0.274050
0.277791
0.277557
0.276622
0.272881
0.267036
0.269841
0.266101
0.251137
0.242253
0.247630
0.255579
0.253241
0.266334
0.292052
0.299299
0.316600
0.343019
0.362424
0.398195
0.423445
0.428589
0.453839
0.480725
0.492181
0.499663
0.503170
0.516730
0.529589
0.529121
0.538707
0.546889
0.548994
0.556475
0.551799
0.543382
0.543850
0.546421
0.549928
0.549227
0.552266
0.558579
0.556241
0.545953
0.530990
0.526081
0.522106
0.513689
0.511351
0.515092
0.530055
0.530055
0.513923
0.515559
0.515091
0.495920
0.469033
0.442614
0.427885
0.412688
0.391412
0.366630
0.343250
0.337872
0.326416
0.296023
0.285969
0.290879
0.275682
0.259784
0.268902
0.278955
0.280592
0.291814
0.298360
0.301165
