EVENT_NAME: 202302060117
EVENT_ID: 13194
EVENT_DATE_YYYYMMDD: 2023/02/06
EVENT_TIME_HHMMSS: 01:17:32.00000
EVENT_LATITUDE_DEGREE: 37.288
EVENT_LONGITUDE_DEGREE: 37.043
EVENT_DEPTH_KM: 8.6
HYPOCENTER_REFERENCE: AFAD
MAGNITUDE_W: 7.7
MAGNITUDE_W_REFERENCE: AFAD
MAGNITUDE_L: 
MAGNITUDE_L_REFERENCE: 
FOCAL_MECHANISM: 
NETWORK: TK
STATION_CODE: 6305
STATION_NAME: 
STATION_LATITUDE_DEGREE: 37.16045
STATION_LONGITUDE_DEGREE: 38.786937
STATION_ELEVATION_M: 547.0
LOCATION: Kahramanmaras_Pazarck_Turkiye
SENSOR_DEPTH_M: 
VS30_M/S: None
SITE_CLASSIFICATION_EC8: unknown
MORPHOLOGIC_CLASSIFICATION: 
EPICENTRAL_DISTANCE_KM: 155.06
EARTHQUAKE_BACKAZIMUTH_DEGREE: 
DATE_TIME_FIRST_SAMPLE_YYYYMMDD_HHMMSS: 2023/02/06 01:17:38.7566880
DATE_TIME_FIRST_SAMPLE_PRECISION: millisecond
SAMPLING_INTERVAL_S: 0.005
NDATA: 27001
DURATION_S: 
STREAM: HNE
UNITS: cm/s^2
INSTRUMENT: sensor = GEO-A200,/GEObit | digitizer = 
INSTRUMENT_ANALOG/DIGITAL: 
INSTRUMENTAL_FREQUENCY_HZ: 
INSTRUMENTAL_DAMPING: 
FULL_SCALE_G: 
N_BIT_DIGITAL_CONVERTER: 
PGA_CM/S^2: 104.090
TIME_PGA_S: 
BASELINE_CORRECTION: BASELINE REMOVED
FILTER_TYPE: BUTTERWORTH
FILTER_ORDER: 
LOW_CUT_FREQUENCY_HZ: 
HIGH_CUT_FREQUENCY_HZ: 
LATE/NORMAL_TRIGGERED: 
DATABASE_VERSION: 
HEADER_FORMAT: DYNA 1.2
DATA_TYPE: Acceleration
PROCESSING: Automatic Paolucci et al., 2011
DATA_TIMESTAMP_YYYYMMDD_HHMMSS: 
DATA_LICENSE: U (unknown license)
DATA_CITATION: Turkish Accelerometric Archive v 1.0 - Disaster And Emergency Management Presidency, Earthquake Department
DATA_CREATOR: AFAD
ORIGINAL_DATA_MEDIATOR_CITATION: : AFAD - Disaster And Emergency Management Presidency
ORIGINAL_DATA_MEDIATOR: AFAD PROCESS SERVICE
ORIGINAL_DATA_CREATOR_CITATION: AFAD PROCESS SERVICE
ORIGINAL_DATA_CREATOR: network: TK
USER1: GuestUser
USER2: 
USER3: 
USER4: 
USER5: 
[...]
21.424534
2.064864
-17.091172
-28.028835
-30.082371
-21.508994
-1.963584
16.684656
27.385252
30.245554
25.447068
18.153879
8.348331
1.658984
4.494332
10.266024
16.453696
17.634776
13.733696
9.391211
0.032247
-2.973782
2.324724
7.421949
17.310124
23.820080
24.892398
19.970319
8.162558
-1.622038
-10.174703
-13.951719
-15.831988
-14.947061
-8.370011
-5.904973
-2.784300
2.439343
7.860971
17.664162
28.635957
39.286645
46.461416
48.278590
47.819527
45.578365
44.760292
47.376468
51.970845
58.074002
62.709105
63.542241
62.682029
60.800111
56.272119
48.839799
39.816538
32.308414
25.717236
18.629094
13.836729
12.162449
12.598673
11.662657
11.242673
13.245590
13.735489
17.022600
20.066292
20.950041
22.600070
20.424825
17.829597
11.463241
0.313938
-10.305208
-20.953545
-25.847375
-25.003646
-21.713709
-19.146029
-20.085576
-24.415113
-33.779021
-43.291477
-50.972866
-55.134081
-50.832798
-41.810953
-29.895610
-14.538015
-1.363668
5.270823
8.390554
11.153158
11.613630
12.539519
19.920515
31.071697
42.663107
56.221182
69.452736
79.084543
82.484183
79.006852
71.737440
57.997385
39.796432
27.329506
23.547782
23.733994
24.310761
28.529178
30.228409
20.923826
9.491318
-0.883467
-15.298695
-30.494799
-41.772638
-48.625599
-55.510813
-58.478704
-50.269044
-39.332561
-29.746424
-19.849303
-9.222628
-1.019324
-2.271504
-7.698315
-14.527970
-21.820452
-23.609616
-18.881288
-9.468888
1.908529
15.465427
27.150062
31.347292
29.036211
21.831539
10.699186
-0.578889
-5.967798
-5.532987
-3.155052
-0.251433
4.373077
9.570353
9.749032
13.030023
24.373540
33.086519
40.101442
45.171595
45.487050
39.571751
28.073091
20.573913
14.082551
9.579277
9.924630
8.437741
4.018746
-4.203866
-13.997172
-25.145063
-34.735911
-38.118370
-37.165879
-31.299785
-23.701030
-17.742889
-13.769069
-12.873549
-11.728016
-10.548820
-13.045643
-16.521327
-17.485122
-16.219292
-13.866547
-9.554198
-3.888444
0.018989
1.693265
2.020256
-0.219493
-5.647717
-9.878850
-10.827814
-8.667639
-3.304865
-0.022462
-1.420599
-7.007728
-15.017523
-20.993325
-24.850146
-25.512844
-22.563555
-18.376919
-13.784661
-11.476880
-11.887683
-16.273955
-22.970365
-27.171130
-29.903369
-30.853745
-31.765278
-33.062893
-34.247743
-37.384192
-37.426334
-33.625074
-26.963274
-16.954566
-7.874102
-2.001417
-3.260659
-11.506577
-23.311984
-35.842001
-43.610730
-44.982972
-39.430452
-29.483187
-20.609890
-17.150925
-21.237984
-30.168020
-41.763671
-51.543795
-54.520161
-52.970419
-48.889014
-40.319404
-27.149059
-12.967131
2.227791
19.741326
32.631762
36.616411
34.547808
29.105695
20.662264
10.519365
0.698750
-14.321733
-33.010939
-45.322726
-46.864467
-36.843988
-17.696902
6.187695
23.258883
29.437845
30.585967
22.218339
4.911025
-7.236441
-6.267706
1.466178
11.045723
20.245071
27.371111
31.342812
28.424594
26.096563
28.027443
30.932239
34.295154
38.517338
45.426324
47.943155
50.132522
54.929591
57.291047
64.436155
72.864752
81.982411
91.616573
93.483419
89.043708
74.217443
52.156374
32.160610
16.200817
7.666279
6.338296
12.772213
22.669570
27.726774
28.086958
25.289979
22.371525
22.416253
22.028756
21.612303
19.361254
8.733397
-4.485918
-16.143248
-25.259263
-27.585881
-23.665972
-14.322549
-4.213788
3.206286
7.839741
10.037348
13.191449
14.666093
15.982066
21.394278
24.254816
23.953952
20.846930
14.023396
9.898906
9.008326
13.886849
24.489748
32.962131
36.458999
31.030775
19.358613
6.067261
-10.965323
-24.682072
-30.879400
-32.791686
-30.779116
-25.839385
-19.135446
-17.049662
-22.375950
-30.869761
-42.126413
-52.539570
-60.758885
-64.783559
-60.621406
-57.728852
-57.084520
-54.254822
-53.893461
-54.927174
-55.446033
-53.590721
-52.613511
-53.776468
-53.456540
-52.791491
-46.665734
-36.046592
-24.376788
-11.646200
-3.871825
-2.606230
-7.682507
-15.474542
-19.797017
-22.139408
-22.089502
-16.895521
-12.215453
-12.619429
-13.251523
-10.864642
-9.283590
-6.952974
1.980119
10.145285
11.439130
9.899507
4.652554
-2.512804
-5.267879
-2.845451
3.336571
14.426310
26.937255
34.013857
34.483275
28.462509
16.254070
1.428982
-8.631992
-11.420496
-10.316633
-6.791751
-3.314424
0.110406
-2.651967
-11.854144
-15.548293
-18.196961
-18.980662
-12.394431
-3.115041
5.368407
6.712160
6.123382
3.367836
-5.241328
-11.956100
-15.973240
-17.533108
-18.945135
-17.975694
-13.832139
-11.387581
-9.606661
-8.869811
-8.332123
-5.379538
0.600732
9.037333
18.952346
25.966092
26.626432
19.892592
6.502129
-8.160757
-19.042157
-22.948651
-23.315667
-22.852370
-21.679058
-26.219764
-36.341711
-44.546902
-48.732600
-48.655620
-40.776014
-25.789435
-14.553032
-11.052633
-11.227785
-19.646733
-33.493903
-44.336223
-52.362026
-55.547207
-52.754940
-48.372673
-44.876983
-40.041541
-35.706357
-35.893279
-36.449805
-31.834476
-24.552356
-19.516574
-11.364827
-2.926578
-0.992873
1.795862
2.023272
2.231849
4.973031
2.147802
1.068418
-3.265592
-12.699419
-18.809878
-21.604738
-17.775464
-14.262589
-12.104768
-11.390517
-19.012347
-30.954531
-42.555597
-48.588604
-50.841301
-50.776328
-43.969042
-35.867203
-31.471988
-26.543086
-19.681653
-14.201642
-7.641778
-1.112517
1.127935
-0.107530
-4.087710
-9.566313
-14.169168
-13.440557
-6.475777
4.786521
18.758693
32.055692
42.056867
46.524354
46.925031
44.305555
38.571997
33.220519
28.660274
21.609799
10.086891
-0.047062
-4.934535
-9.242414
-8.382677
-2.367565
0.862576
4.146391
5.675181
4.063286
2.091675
-0.302507
-0.098874
0.283910
0.916235
3.050750
3.975933
3.977108
3.436827
3.228482
2.973995
5.871729
11.782551
15.970364
18.866214
19.076910
15.823224
10.809332
5.482573
0.769308
-1.986003
-1.441958
1.754283
7.918413
15.996946
23.839827
29.527004
30.535525
26.386551
20.857099
18.003856
17.178014
17.841415
18.916322
17.638953
13.482447
6.886795
0.789049
-1.622790
-0.550001
3.601558
10.419438
17.914139
23.606496
29.555691
38.803300
48.084338
56.936448
66.007494
70.487694
67.335943
58.163664
48.176139
41.089880
38.907337
42.249065
50.351139
61.606846
70.758170
75.840564
76.411210
71.854967
64.509987
54.136380
42.045413
31.686873
21.894037
12.871953
7.908676
7.380636
10.123937
14.642038
22.999775
33.084758
39.993038
45.376293
45.125102
36.925562
22.697489
6.357735
-6.100716
-14.891386
-18.550694
-15.511240
-4.581113
7.434045
13.083321
14.603635
11.900823
9.272166
4.615165
-1.793095
-3.181580
-3.950451
-4.127486
-6.433622
-9.586786
-9.529346
-16.150894
-24.688727
-30.666882
-39.500869
-45.005838
-45.719856
-39.676965
-29.889077
-23.347340
-16.979810
-17.005472
-24.069837
-33.904106
-44.243342
-49.324092
-52.719969
-51.251917
-44.574580
-38.624443
-31.093723
-26.231914
-25.183373
-24.484661
-24.183095
-23.834681
-22.842404
-20.103577
-19.616738
-22.207964
-24.518574
-26.529970
-26.298087
-22.164890
-14.888655
-7.871848
-3.336561
-1.985511
-4.867946
-12.132414
-23.906275
-34.000915
-37.092870
-33.696055
-23.480415
-8.362474
5.077658
11.119372
11.195880
6.147147
-5.500767
-19.681992
-29.443517
-33.682655
-37.474737
-39.887282
-37.857527
-34.614203
-35.754089
-39.080048
-38.985648
-39.670240
-41.547684
-42.886261
-44.678956
-48.893375
-54.022620
-53.866776
-53.171359
-50.143205
-42.164018
-33.799926
-25.668660
-18.411964
-10.539655
-4.726295
0.363632
4.700699
7.060036
10.472624
11.679364
11.452892
11.288099
9.950699
7.585002
5.517342
4.918442
3.813632
3.100085
4.816501
7.568747
10.958029
16.138827
22.636777
28.710507
32.327907
31.464635
24.187925
11.509596
-2.144062
-12.702706
-17.782043
-16.906533
-11.178393
-5.007907
-2.696359
-3.160131
-4.528606
-6.655356
-9.159948
-10.594104
-11.489393
-14.898689
-19.398667
-24.355353
-31.474334
-38.515628
-44.831605
-49.355596
-49.111000
-41.897621
-28.460550
-12.607875
4.151858
18.760359
29.233308
35.891811
38.055282
37.395174
32.539718
22.449316
7.519939
-12.366592
-27.649800
-35.495510
-38.209623
-30.371450
-18.206801
-7.972564
0.769606
7.141373
9.349573
4.175363
-1.722044
-3.842202
-4.399669
-2.586262
0.318534
3.809280
9.281052
14.221255
19.841103
29.808143
38.996427
44.524227
44.881352
39.534111
30.680114
19.009365
10.780868
7.020332
8.341720
17.971644
29.535510
37.438894
40.986846
38.980394
33.627033
28.684237
26.877417
29.855428
30.004209
25.276583
17.969975
7.814599
-1.068825
-10.287952
-14.627141
-15.694755
-22.228492
-28.727387
-33.845332
-35.215455
-32.354211
-25.131415
-12.980892
-5.554462
-2.378467
-3.313070
-10.207464
-16.388313
-19.620340
-18.727410
-11.268492
1.212320
11.179125
16.652073
19.206335
13.921480
4.098511
-1.254144
-1.802665
1.983999
12.013895
21.806962
23.917465
20.643297
14.328026
4.537780
-3.044971
-5.201618
-5.840304
-2.574144
3.203197
4.475383
3.518416
1.402260
-3.026859
-5.799825
-3.864943
2.659844
10.736729
17.224321
20.615251
20.469762
15.056605
9.755977
13.650461
20.870668
30.621596
43.028251
48.054145
47.562830
43.758035
35.059413
24.795981
16.984641
9.485463
0.201832
-7.617276
-17.124552
-28.071162
-36.405125
-42.248387
-45.998094
-44.513799
-34.587721
-23.319537
-14.386209
-6.159835
-1.848899
-6.223636
-16.957665
-24.085827
-27.628604
-28.368989
-25.521635
-23.069779
-19.724285
-20.370739
-25.515993
-28.589585
-29.694630
-25.634648
-19.437089
-12.639454
-5.306719
-4.916166
-5.278944
-3.978037
-1.938159
3.917811
11.031845
20.692373
27.434685
30.291456
31.643919
30.153734
28.410948
25.107353
23.539010
22.221856
17.080840
11.439800
6.774560
3.965574
2.685145
4.524448
9.286912
11.322081
9.511495
5.698931
-0.259920
-7.177150
-11.964806
-12.252487
-10.178238
-9.084027
-10.682503
-14.444688
-18.083279
-21.029512
-21.639947
-19.847727
-16.584628
-12.391872
-8.242196
-2.920620
2.073493
5.456419
9.183523
10.318697
7.237806
4.020138
2.246512
1.725064
0.720307
2.256159
7.928505
10.195324
6.259402
-1.852564
-9.236152
-14.616822
-17.996691
-14.166710
-6.579255
-0.836049
3.494897
5.025334
1.936440
-5.082254
-14.698764
-25.994024
-36.703805
-42.383689
-41.368341
-33.628807
-21.892852
-11.037352
-2.075774
2.672329
6.841074
15.249424
24.707495
34.489968
41.762672
42.405592
35.801465
22.354973
6.624947
-5.231310
-13.601763
-18.292193
-13.456986
-5.208482
-0.412119
5.972596
13.003057
21.546065
33.343700
43.514845
52.459474
56.211061
53.703173
50.169341
45.863346
44.928036
45.707026
47.544681
50.074459
45.861453
36.965552
25.875810
15.780464
11.346167
13.024446
20.040546
28.272806
31.792744
29.710723
24.796648
16.240452
10.548092
12.839394
16.858413
21.211959
29.018351
34.836185
31.340020
26.091654
22.672706
16.304231
16.138967
22.914708
29.968004
40.333603
45.737340
44.175589
42.017293
35.314998
26.071623
18.506764
15.948261
19.186171
23.658602
31.441452
41.118695
44.246665
44.639573
45.705299
42.508113
37.554017
33.101593
31.272173
29.341760
23.561590
21.970411
22.820732
21.286760
19.296551
17.239484
15.056235
9.556445
2.200400
-3.491490
-9.976025
-18.176742
-22.391867
-24.233999
-28.439237
-29.689062
-27.793259
-27.110790
-28.139560
-29.271442
-31.589820
-35.204399
-37.659319
-40.469952
-42.619066
-42.071020
-39.186470
-35.792009
-31.544165
-25.857929
-22.624728
-22.667340
-23.827236
-24.292185
-22.854266
-18.404906
-10.815096
-2.941846
1.684782
1.970340
-1.044399
-5.139462
-6.417066
-3.130661
2.178909
7.386544
12.748141
16.092223
17.121460
18.251455
18.638712
18.737350
15.796061
8.312420
1.941826
-5.092640
-12.237988
-13.751950
-13.456034
-13.026637
-13.350572
-15.070287
-15.555952
-16.318466
-14.471630
-9.686802
-5.236029
-1.653942
-0.165173
-1.398519
-5.025340
-9.419145
-16.558608
-23.922186
-28.968565
-34.525325
-38.643695
-39.769691
-35.867202
-28.616863
-19.232477
-5.607779
8.430544
19.890357
25.951375
26.272480
22.082780
15.203217
13.208771
18.193703
25.114224
29.650924
31.844528
31.046702
24.169728
16.706569
13.179800
10.970184
9.800165
8.630616
3.809295
-5.535309
-12.346130
-15.462805
-18.413746
-17.394632
-13.512860
-10.060957
-8.059688
-5.032240
-0.276368
3.639539
6.453229
4.363440
-1.288429
-8.364800
-15.311221
-19.675600
-23.778667
-25.866573
-26.138010
-24.901842
-18.975717
-5.444715
13.794183
27.623693
32.300465
29.934062
19.906516
5.348625
-5.587861
-4.762495
4.117865
14.464866
26.649996
37.677820
44.714166
47.784460
48.881025
50.266211
46.911532
40.205941
35.922781
29.246852
17.675920
2.745366
-16.041538
-35.595662
-52.513362
-65.519626
-70.141785
-71.265192
-75.302108
-78.440675
-83.423256
-85.858166
-81.562061
-74.571150
-63.712826
-56.890001
-57.579066
-61.001310
-65.175002
-65.512825
-61.121849
-50.413955
-34.158718
-18.907531
-4.368242
10.453781
20.714385
23.768905
23.970184
22.129465
16.663339
13.802562
13.470153
12.750485
13.818330
16.745961
21.457103
25.276490
29.072336
35.610542
39.479602
38.587138
33.597023
25.987435
22.544475
22.797074
25.465513
32.341776
41.573376
51.938505
59.396481
64.651906
71.640227
79.686037
86.893766
90.431596
88.308613
77.262657
60.994705
46.796530
37.236992
33.412892
32.126107
34.736868
40.618970
43.591566
46.952833
54.905183
68.559543
84.029432
95.078444
103.108481
104.089693
98.900887
92.720274
80.774088
64.160310
44.955779
27.266856
15.167885
7.820079
8.851906
14.018578
15.258983
12.284500
7.115470
1.949971
-3.897529
-9.828836
-9.896873
-6.726293
-4.661461
-1.643195
-2.400059
-9.668294
-18.645178
-24.125193
-26.698998
-28.328785
-24.127317
-15.737565
-10.607852
-8.812572
-8.223563
-10.697081
-14.760833
-16.310814
-17.038957
-19.026812
-19.777084
-16.693608
-12.954968
-12.519451
-13.862030
-15.946405
-19.302968
-23.314693
-25.990198
-24.057670
-17.851871
-9.862561
-0.341870
10.085173
18.063183
20.073634
17.210738
11.297793
3.346852
-3.333785
-8.082362
-13.536011
-18.478571
-20.930430
-24.267218
-30.213593
-36.458945
-41.486961
-45.133557
-47.030305
-46.867399
-45.780015
-43.517434
-38.611366
-31.388571
-23.637737
-18.414800
-14.832947
-9.201093
-1.644477
8.512779
20.170812
28.855541
31.692066
27.141002
16.935247
4.834157
-3.247675
-4.563417
-1.243818
8.370569
22.434318
34.265852
42.293064
49.310342
55.141123
56.554794
55.506485
52.031743
41.880369
27.902308
14.060082
2.081644
-3.928999
-5.507465
-3.296205
5.329671
13.371714
17.019953
18.343460
19.022633
18.710235
15.943860
16.199049
18.638192
20.276214
22.530320
22.423440
19.981703
16.271545
11.803348
11.434920
15.309630
21.075672
28.161926
30.108344
26.547911
17.731345
1.660907
-13.563682
-23.697871
-24.879897
-16.769347
-6.093234
3.782699
6.523410
2.493793
-1.982173
-5.707397
-5.315196
-0.609939
2.449290
3.545856
1.054918
-5.886324
-8.610089
-6.724409
-1.609057
7.423146
14.185468
19.083766
22.619948
20.309338
12.291774
3.855876
-1.969259
-7.063898
-9.300116
-7.579698
-6.828017
-10.955331
-20.020732
-30.590676
-39.271642
-43.145649
-40.446136
-32.368780
-19.876669
-9.366759
-6.429947
-5.678030
-5.600345
-5.471103
-0.789388
6.342302
10.794723
8.340038
-0.996797
-13.072932
-21.178541
-20.522910
-13.098833
-2.871659
4.028146
4.077346
-3.351913
-18.229263
-32.540438
-41.005528
-44.647179
-42.594118
-36.042258
-28.448682
-20.216423
-9.172355
0.843887
5.312316
5.985133
2.456481
-4.494413
-8.454818
-7.871224
-8.646215
-11.302415
-13.156083
-14.320687
-13.755691
-11.769724
-5.876322
3.102206
11.180739
18.182715
22.639844
24.128848
19.788011
12.460687
7.436672
3.170227
-0.766166
-2.523313
-0.808309
-1.649217
-2.076970
1.207317
2.839925
6.653662
9.966669
9.193561
5.047413
-1.950800
-8.146715
-14.153120
-17.755457
-17.586431
-16.957872
-15.399655
-13.165324
-12.076762
-9.540628
-4.443874
1.683531
7.654620
11.271785
11.674815
8.475510
2.665677
-4.184694
-10.026779
-11.778276
-9.924848
-6.423272
-0.733034
6.167006
9.199633
7.984885
6.414423
3.489613
-0.182172
-2.273139
-3.977082
-7.398148
-14.073606
-23.556399
-35.730703
-46.955103
-53.057558
-53.280734
-47.092356
-37.563896
-29.131769
-25.398309
-26.133279
-29.623558
-34.810245
-37.760951
-34.960444
-26.964307
-17.471159
-7.660436
0.735203
3.833510
1.526196
-0.940729
-1.014887
-1.921947
-1.572592
-0.710029
-5.189527
-12.681171
-19.604286
-26.072342
-29.471515
-26.106010
-19.847714
-16.287755
-14.921638
-16.079887
-19.974140
-22.900362
-22.429061
-19.203393
-13.561887
-5.810817
2.666981
8.975186
12.223924
14.948627
15.014071
11.827243
10.594838
11.876912
13.191944
14.609381
18.122963
22.729110
25.507958
27.511582
28.254082
24.734847
19.114524
15.014753
13.014186
14.169605
19.252941
25.300069
28.588593
29.740011
27.509443
18.794576
8.779508
2.088749
-2.519050
-4.861677
-4.857912
-4.526919
-5.871381
-6.611060
-6.803632
-8.383746
-8.727456
-8.423065
-7.020929
-3.782313
-0.611497
2.738235
6.184017
7.161227
2.758710
-2.895983
-4.622761
-4.025042
-4.021984
-3.165777
1.629173
8.766749
14.922639
22.228066
32.482313
40.746354
45.720692
47.890284
43.219393
31.407865
17.855436
5.932086
-1.020927
2.251824
14.462614
31.499666
48.330965
59.792426
64.535114
62.873311
57.048176
49.663175
42.804093
38.447248
37.034279
36.076840
36.395827
36.772962
32.380568
28.659582
24.715420
16.736465
10.079605
1.894896
-8.631732
-16.791957
-22.446180
-28.316986
-33.352300
-33.717903
-34.113639
-34.725016
-30.616774
-25.160069
-21.113270
-18.134083
-19.063978
-25.403967
-35.522619
-45.421863
-49.753048
-49.381563
-44.046568
-32.212680
-17.365702
-5.648344
0.893158
4.214640
2.923852
0.231162
-3.434973
-5.237555
-3.146827
-3.174844
-1.440536
-0.073242
0.475982
1.482383
-2.354193
-5.245103
-8.220292
-12.618571
-15.171659
-18.590842
-21.481046
-25.417674
-29.565235
-29.726026
-25.782104
-18.999771
-15.499608
-17.082312
-23.372629
-33.477626
-42.172482
-49.738989
-52.811875
-50.106241
-48.105678
-44.954637
-40.476321
-37.623317
-36.385972
-37.274198
-37.931246
-38.666923
-40.835812
-43.477652
-46.034272
-49.139881
-53.623851
-55.629362
-53.704603
-49.317863
-42.956925
-35.536145
-29.139895
-27.524472
-30.042483
-34.995402
-40.715777
-46.145648
-51.029119
-54.109774
-53.892017
-48.157050
-40.057800
-29.579201
-16.449348
-4.677138
4.391319
8.744629
9.876978
8.819252
6.217904
4.245587
4.203210
5.244924
4.024055
3.204335
2.005359
-2.072754
-4.536855
-4.714360
-3.051148
1.123011
7.172493
13.551323
16.057324
14.837867
11.856322
6.288026
1.170316
-0.471948
1.770858
7.054533
13.003728
17.425780
18.523052
15.903341
9.984040
4.632797
4.038135
6.896789
12.385275
21.289648
30.789151
37.763583
42.568657
46.428065
49.253761
49.791920
49.694927
50.287702
48.431210
44.814748
40.969226
35.222014
30.275451
27.303087
26.066916
27.969781
28.654605
27.046476
25.210465
21.295731
15.676114
11.133525
9.597670
9.991048
11.428025
14.587070
18.695548
21.079133
19.298680
14.600246
8.323819
1.701330
