EVENT_NAME: 202302060117
EVENT_ID: 13194
EVENT_DATE_YYYYMMDD: 2023/02/06
EVENT_TIME_HHMMSS: 01:17:32.00000
EVENT_LATITUDE_DEGREE: 37.288
EVENT_LONGITUDE_DEGREE: 37.043
EVENT_DEPTH_KM: 8.6
HYPOCENTER_REFERENCE: AFAD
MAGNITUDE_W: 7.7
MAGNITUDE_W_REFERENCE: AFAD
MAGNITUDE_L: 
MAGNITUDE_L_REFERENCE: 
FOCAL_MECHANISM: 
NETWORK: TK
STATION_CODE: 5813
STATION_NAME: 
STATION_LATITUDE_DEGREE: 40.213954
STATION_LONGITUDE_DEGREE: 37.540207
STATION_ELEVATION_M: 1303.0
LOCATION: Kahramanmaras_Pazarck_Turkiye
SENSOR_DEPTH_M: 
VS30_M/S: 978
SITE_CLASSIFICATION_EC8: A
MORPHOLOGIC_CLASSIFICATION: 
EPICENTRAL_DISTANCE_KM: 328.19
EARTHQUAKE_BACKAZIMUTH_DEGREE: 
DATE_TIME_FIRST_SAMPLE_YYYYMMDD_HHMMSS: 2023/02/06 01:18:06.0601540
DATE_TIME_FIRST_SAMPLE_PRECISION: millisecond
SAMPLING_INTERVAL_S: 0.01
NDATA: 18251
DURATION_S: 
STREAM: HNN
UNITS: cm/s^2
INSTRUMENT: sensor = ACEBOX/SARA | digitizer = 
INSTRUMENT_ANALOG/DIGITAL: 
INSTRUMENTAL_FREQUENCY_HZ: 
INSTRUMENTAL_DAMPING: 
FULL_SCALE_G: 
N_BIT_DIGITAL_CONVERTER: 
PGA_CM/S^2: 4.884
TIME_PGA_S: 
BASELINE_CORRECTION: BASELINE REMOVED
FILTER_TYPE: BUTTERWORTH
FILTER_ORDER: 
LOW_CUT_FREQUENCY_HZ: 
HIGH_CUT_FREQUENCY_HZ: 
LATE/NORMAL_TRIGGERED: 
DATABASE_VERSION: 
HEADER_FORMAT: DYNA 1.2
DATA_TYPE: Acceleration
PROCESSING: Automatic Paolucci et al., 2011
DATA_TIMESTAMP_YYYYMMDD_HHMMSS: 
DATA_LICENSE: U (unknown license)
DATA_CITATION: Turkish Accelerometric Archive v 1.0 - Disaster And Emergency Management Presidency, Earthquake Department
DATA_CREATOR: AFAD
ORIGINAL_DATA_MEDIATOR_CITATION: : AFAD - Disaster And Emergency Management Presidency
ORIGINAL_DATA_MEDIATOR: AFAD PROCESS SERVICE
ORIGINAL_DATA_CREATOR_CITATION: AFAD PROCESS SERVICE
ORIGINAL_DATA_CREATOR: network: TK
USER1: GuestUser
USER2: 
USER3: 
USER4: 
USER5: 
[...]
-0.958347
-1.007912
-1.063556
-1.114524
-1.168063
-1.224408
-1.264154
-1.302496
-1.337566
-1.352061
-1.362348
-1.365621
-1.347385
-1.314419
-1.277479
-1.240773
-1.197287
-1.149826
-1.097221
-1.032459
-0.979621
-0.941980
-0.904806
-0.881192
-0.864359
-0.838173
-0.811287
-0.786036
-0.762189
-0.745355
-0.737172
-0.741147
-0.756344
-0.776450
-0.805675
-0.851265
-0.908078
-0.957876
-0.998323
-1.041576
-1.088803
-1.142108
-1.196115
-1.226275
-1.237497
-1.251759
-1.266254
-1.285192
-1.316053
-1.346447
-1.379879
-1.419391
-1.450720
-1.474801
-1.496544
-1.517586
-1.547512
-1.588894
-1.643368
-1.707896
-1.767514
-1.817313
-1.858228
-1.889323
-1.924626
-1.965307
-1.998739
-2.037783
-2.082439
-2.124055
-2.185076
-2.253578
-2.301506
-2.325120
-2.314131
-2.277191
-2.232770
-2.181802
-2.127795
-2.070514
-2.001310
-1.919247
-1.836249
-1.749043
-1.655757
-1.567382
-1.465680
-1.339897
-1.201021
-1.050222
-0.894513
-0.733193
-0.559481
-0.372443
-0.178859
0.013790
0.217661
0.432755
0.642003
0.856396
1.075931
1.307157
1.567607
1.834136
2.096924
2.362986
2.612214
2.835724
3.029074
3.184783
3.302384
3.366210
3.369250
3.329037
3.260067
3.181745
3.110670
3.055260
3.017619
2.995408
2.986057
2.979043
2.968522
2.957534
2.943740
2.930413
2.908904
2.862145
2.803929
2.742207
2.677445
2.623204
2.570834
2.502565
2.415593
2.316229
2.216865
2.129425
2.062325
2.029126
2.032867
2.062559
2.109786
2.163560
2.208917
2.252169
2.291447
2.311320
2.315762
2.305242
2.273445
2.235336
2.199565
2.164262
2.146260
2.150702
2.159353
2.168237
2.181330
2.194189
2.210788
2.236272
2.264796
2.286305
2.299632
2.310620
2.320206
2.334468
2.351067
2.359484
2.360419
2.348730
2.323480
2.291917
2.250769
2.201905
2.145326
2.081500
2.014634
1.942157
1.859860
1.760263
1.633077
1.470588
1.280511
1.090200
0.907137
0.740907
0.603902
0.477885
0.367533
0.279158
0.195692
0.111759
0.021280
-0.073174
-0.162485
-0.249691
-0.317258
-0.362147
-0.406335
-0.453562
-0.507101
-0.570928
-0.632183
-0.685488
-0.731313
-0.765447
-0.790463
-0.812206
-0.831377
-0.851484
-0.872993
-0.892632
-0.922090
-0.971655
-1.038989
-1.110765
-1.168045
-1.206621
-1.218779
-1.198672
-1.151211
-1.080838
-1.012101
-0.961835
-0.921856
-0.895203
-0.885851
-0.892397
-0.907827
-0.917179
-0.908061
-0.875096
-0.831142
-0.783914
-0.734583
-0.699280
-0.679407
-0.660937
-0.636622
-0.593603
-0.526737
-0.440933
-0.340634
-0.234256
-0.125774
-0.012850
0.098905
0.203646
0.299503
0.378995
0.447497
0.530963
0.627989
0.723144
0.819703
0.902000
0.971204
1.051162
1.131121
1.222302
1.338266
1.447683
1.553827
1.663244
1.751620
1.823162
1.879273
1.908030
1.914109
1.895172
1.856829
1.805627
1.735021
1.649685
1.551256
1.445112
1.343411
1.235163
1.111484
0.973076
0.818068
0.666802
0.533070
0.414535
0.318678
0.241759
0.173022
0.120652
0.090960
0.075062
0.079036
0.115509
0.181206
0.274959
0.396066
0.530967
0.661659
0.769674
0.847528
0.904809
0.947828
0.972376
0.972610
0.956245
0.927955
0.887742
0.849867
0.815499
0.773182
0.726422
0.674753
0.615369
0.558089
0.505251
0.449139
0.395132
0.342995
0.281039
0.207393
0.122759
0.025499
-0.074800
-0.169721
-0.266981
-0.376398
-0.491660
-0.600843
-0.692492
-0.755383
-0.795362
-0.809390
-0.792557
-0.766137
-0.724521
-0.664202
-0.605051
-0.537483
-0.461265
-0.397906
-0.346704
-0.301582
-0.258563
-0.212505
-0.172291
-0.148210
-0.134182
-0.129272
-0.132078
-0.128103
-0.100983
-0.042300
0.044907
0.156195
0.291563
0.435115
0.571419
0.688084
0.777160
0.840753
0.884474
0.925154
0.982435
1.062160
1.160121
1.277253
1.422208
1.579320
1.734327
1.891439
2.035926
2.163346
2.280946
2.381712
2.460268
2.503989
2.513107
2.496507
2.454190
2.406262
2.359268
2.309470
2.262243
2.200520
2.120562
2.035460
1.927445
1.787167
1.629822
1.467566
1.312325
1.173917
1.050005
0.924923
0.790958
0.651147
0.507128
0.371759
0.265382
0.180046
0.104062
0.037196
-0.030138
-0.107992
-0.193562
-0.284275
-0.375456
-0.457285
-0.526489
-0.578625
-0.605512
-0.608084
-0.596394
-0.573248
-0.544257
-0.522747
-0.504044
-0.479027
-0.451439
-0.421045
-0.387846
-0.364466
-0.359790
-0.373117
-0.395093
-0.409589
-0.418707
-0.429461
-0.436008
-0.453308
-0.493989
-0.537943
-0.584702
-0.646191
-0.715161
-0.793717
-0.882092
-0.972571
-1.064921
-1.153297
-1.234658
-1.321163
-1.415149
-1.504927
-1.584652
-1.657129
-1.731477
-1.803019
-1.859364
-1.911500
-1.965741
-2.015072
-2.070950
-2.132438
-2.194161
-2.259624
-2.315268
-2.358754
-2.389381
-2.408552
-2.429594
-2.445258
-2.452038
-2.450402
-2.436608
-2.422346
-2.404577
-2.368339
-2.311058
-2.245361
-2.186678
-2.141555
-2.112564
-2.088015
-2.062531
-2.043126
-2.021149
-1.995431
-1.973220
-1.943996
-1.907055
-1.871518
-1.849541
-1.848606
-1.865439
-1.889053
-1.904951
-1.905886
-1.881103
-1.827564
-1.761867
-1.683544
-1.581609
-1.465645
-1.342434
-1.214313
-1.091803
-0.973502
-0.844445
-0.709778
-0.587034
-0.474578
-0.378487
-0.309283
-0.258315
-0.218102
-0.189345
-0.167602
-0.156613
-0.151236
-0.146092
-0.140715
-0.127154
-0.104943
-0.081330
-0.061457
-0.051170
-0.048598
-0.052572
-0.072445
-0.107515
-0.156846
-0.221841
-0.293617
-0.373809
-0.462652
-0.551495
-0.645949
-0.747651
-0.846781
-0.937494
-1.006230
-1.050184
-1.073798
-1.073797
-1.066783
-1.067719
-1.082681
-1.123596
-1.171758
-1.216413
-1.263874
-1.295437
-1.314608
-1.331441
-1.314841
-1.271121
-1.228336
-1.166380
-1.085954
-1.027037
-0.986590
-0.952221
-0.934219
-0.912242
-0.856832
-0.770093
-0.651324
-0.502629
-0.344582
-0.193081
-0.053504
0.072045
0.182632
0.270539
0.338808
0.397725
0.446355
0.493816
0.548291
0.592713
0.621703
0.640174
0.648123
0.656773
0.675010
0.696753
0.725978
0.771101
0.819497
0.862983
0.913250
0.966789
1.019627
1.075739
1.126239
1.175103
1.230045
1.280078
1.320993
1.341567
1.325669
1.280078
1.215317
1.132085
1.032020
0.910679
0.766894
0.604872
0.433031
0.262827
0.101273
-0.043213
-0.164086
-0.265554
-0.359073
-0.450955
-0.545176
-0.651086
-0.761672
-0.862906
-0.950346
-1.011367
-1.040358
-1.044566
-1.025161
-0.991260
-0.955489
-0.921822
-0.904989
-0.905456
-0.908729
-0.921588
-0.937720
-0.946838
-0.954787
-0.947305
-0.907793
-0.839758
-0.743434
-0.627470
-0.504960
-0.382918
-0.260876
-0.142808
-0.038768
0.053114
0.134008
0.204381
0.275923
0.347699
0.421579
0.501538
0.574483
0.634569
0.681328
0.708682
0.727620
0.753338
0.796357
0.855975
0.924712
1.000462
1.077615
1.156873
1.242442
1.325674
1.409608
1.496814
1.574435
1.642236
1.699984
1.743938
1.774566
1.787658
1.781346
1.751420
1.696712
1.615116
1.499621
1.365421
1.222571
1.072473
0.944352
0.844755
0.763394
0.700268
0.644858
0.598567
0.564666
0.533571
0.515569
0.514400
0.520245
0.537780
0.569576
0.611192
0.658887
0.720610
0.799633
0.886840
0.979891
1.061954
1.126248
1.184464
1.232626
1.274009
1.305571
1.323340
1.347187
1.377815
1.415223
1.456605
1.486765
1.509443
1.519964
1.514821
1.502429
1.480453
1.458476
1.445617
1.442344
1.448656
1.464087
1.496351
1.543345
1.602729
1.665621
1.715887
1.759607
1.798184
1.827175
1.849620
1.866219
1.889833
1.919058
1.955063
2.002290
2.042970
2.081080
2.120124
2.157765
2.204291
2.249648
2.298745
2.357195
2.401149
2.428269
2.436452
2.413072
2.367248
2.297811
2.207097
2.107967
1.998550
1.878145
1.761246
1.645984
1.526280
1.408446
1.287106
1.155478
1.018940
0.879130
0.742358
0.614705
0.494066
0.386519
0.292299
0.209301
0.142903
0.093805
0.062711
0.046812
0.040968
0.037694
0.040033
0.056866
0.074635
0.089364
0.099184
0.086792
0.069258
0.054762
0.037461
0.033955
0.024135
-0.006492
-0.037821
-0.067981
-0.081073
-0.075462
-0.069617
-0.065175
-0.066344
-0.067279
-0.064239
-0.058161
-0.044133
-0.042262
-0.061901
-0.096269
-0.144431
-0.196100
-0.244029
-0.276526
-0.289151
-0.289385
-0.272318
-0.249873
-0.241223
-0.251977
-0.285878
-0.331468
-0.380566
-0.429663
-0.476188
-0.526221
-0.569473
-0.594490
-0.601036
-0.584670
-0.545392
-0.495125
-0.440417
-0.381500
-0.320946
-0.254781
-0.170381
-0.077329
0.012449
0.091940
0.142207
0.167925
0.187330
0.199721
0.210710
0.228011
0.260275
0.307502
0.350988
0.398917
0.458535
0.509737
0.570057
0.648145
0.723428
0.806660
0.898542
0.992061
1.087217
1.165539
1.223053
1.265838
1.287348
1.294829
1.299271
1.294829
1.274957
1.243628
1.197570
1.140757
1.091192
1.048641
1.007026
0.974060
0.960968
0.966345
0.979905
1.006325
1.041628
1.068515
1.091661
1.113170
1.115275
1.097740
1.060332
0.998376
0.915378
0.807130
0.673398
0.528210
0.378580
0.228716
0.085866
-0.053477
-0.189079
-0.327020
-0.471506
-0.614590
-0.757206
-0.904732
-1.044543
-1.159805
-1.255662
-1.339127
-1.399681
-1.445973
-1.488524
-1.517281
-1.544869
-1.578769
-1.603551
-1.628802
-1.654987
-1.662234
-1.656389
-1.647973
-1.637452
-1.634412
-1.642361
-1.648907
-1.650544
-1.643296
-1.622722
-1.594198
-1.560532
-1.536450
-1.524293
-1.520084
-1.532476
-1.553283
-1.583209
-1.631605
-1.690055
-1.758090
-1.824254
-1.882937
-1.941854
-1.995160
-2.046829
-2.095225
-2.135438
-2.168169
-2.176820
-2.166532
-2.146192
-2.117435
-2.096627
-2.080495
-2.072546
-2.076988
-2.075351
-2.068571
-2.056881
-2.035371
-2.011758
-1.980896
-1.951672
-1.930396
-1.915901
-1.920109
-1.935773
-1.952840
-1.975285
-1.999366
-2.019940
-2.042150
-2.067868
-2.089845
-2.106444
-2.118368
-2.107146
-2.071608
-2.019705
-1.946994
-1.860022
-1.756216
-1.624821
-1.475191
-1.317378
-1.153018
-0.990529
-0.843237
-0.709271
-0.594710
-0.509374
-0.439001
-0.380785
-0.328648
-0.266692
-0.201229
-0.136467
-0.076615
-0.025179
0.017372
0.048233
0.082602
0.115801
0.141051
0.177056
0.212593
0.235038
0.245559
0.236908
0.220309
0.211659
0.215399
0.242754
0.300268
0.386305
0.501568
0.638807
0.783995
0.935496
1.088399
1.239666
1.392102
1.519054
1.618885
1.711235
1.784648
1.849644
1.906924
1.940591
1.965841
1.977999
1.977765
1.980804
1.973323
1.961633
1.956490
1.949242
1.941527
1.916511
1.867881
1.805925
1.720822
1.621926
1.519056
1.407301
1.299520
1.197117
1.099857
1.020834
0.964957
0.936433
0.940408
0.965658
0.999325
1.032758
1.062451
1.079518
1.066893
1.023407
0.955606
0.862554
0.752904
0.636706
0.518639
0.402909
0.288582
0.171918
0.052915
-0.059775
-0.160074
-0.251255
-0.328174
-0.387091
-0.435721
-0.477570
-0.511471
-0.545138
-0.590027
-0.642631
-0.696872
-0.757425
-0.807925
-0.835046
-0.851645
-0.858191
-0.858425
-0.876661
-0.911029
-0.958256
-1.031435
-1.115836
-1.198132
-1.270843
-1.314095
-1.327422
-1.312692
-1.257516
-1.183402
-1.117004
-1.051073
-0.987948
-0.938382
-0.891389
-0.836447
-0.775192
-0.710664
-0.659462
-0.636316
-0.645902
-0.684712
-0.727730
-0.761865
-0.795064
-0.824055
-0.856319
-0.889985
-0.900974
-0.906351
-0.915235
-0.915235
-0.940017
-0.992388
-1.046629
-1.106481
-1.160254
-1.197428
-1.218469
-1.216131
-1.199999
-1.177555
-1.146226
-1.116066
-1.084503
-1.046394
-1.013195
-0.989347
-0.973917
-0.974618
-0.991919
-1.018104
-1.045692
-1.073748
-1.098998
-1.122377
-1.148796
-1.169370
-1.177086
-1.178021
-1.164928
-1.138275
-1.100166
-1.048263
-0.996594
-0.950769
-0.911725
-0.882500
-0.852574
-0.823349
-0.794826
-0.758587
-0.722115
-0.693825
-0.676057
-0.673251
-0.690084
-0.727024
-0.781499
-0.855379
-0.947495
-1.052937
-1.169602
-1.300295
-1.450626
-1.609608
-1.776773
-1.948848
-2.112272
-2.269618
-2.417611
-2.554850
-2.689283
-2.816235
-2.933835
-3.025250
-3.074581
-3.093051
-3.075984
-3.033666
-2.985738
-2.927990
-2.868605
-2.806883
-2.732769
-2.643224
-2.530066
-2.404985
-2.279435
-2.165109
-2.079772
-2.014777
-1.973862
-1.957964
-1.947209
-1.937623
-1.926401
-1.914243
-1.899046
-1.879875
-1.868185
-1.854157
-1.845740
-1.858833
-1.879641
-1.905358
-1.926400
-1.936219
-1.935986
-1.913073
-1.878705
-1.837323
-1.786355
-1.746843
-1.719021
-1.698915
-1.680678
-1.654961
-1.634854
-1.621527
-1.607499
-1.600018
-1.585289
-1.550920
-1.502057
-1.439633
-1.376507
-1.330917
-1.301692
-1.285326
-1.284391
-1.288599
-1.287196
-1.270129
-1.229682
-1.166556
-1.089637
-1.010847
-0.933460
-0.865893
-0.809548
-0.747825
-0.688674
-0.636537
-0.578088
-0.512157
-0.431965
-0.335874
-0.229730
-0.118676
-0.017208
0.076077
0.161647
0.235527
0.309173
0.375572
0.429112
0.483586
0.531047
0.569156
0.610071
0.653791
0.698680
0.746843
0.797343
0.841998
0.880575
0.914709
0.926166
0.915177
0.888758
0.835686
0.771392
0.712475
0.660339
0.623866
0.600487
0.581082
0.557234
0.527308
0.495045
0.456936
0.417892
0.381185
0.340972
0.294914
0.239738
0.185965
0.142245
0.112787
0.117697
0.156039
0.215424
0.292110
0.383524
0.493877
0.615919
0.746144
0.888059
1.025532
1.158797
1.293464
1.431171
1.581035
1.734640
1.891518
2.057514
2.213223
2.352332
2.484428
2.603898
2.710510
2.814784
2.912511
3.000653
3.087392
3.166883
3.232814
3.289626
3.337555
3.376132
3.406759
3.425931
3.426164
3.409331
3.386185
3.367014
3.362806
3.380574
3.420788
3.484848
3.572288
3.684044
3.815672
3.954313
4.088981
4.207984
4.308049
4.393385
4.459316
4.511687
4.557277
4.594451
4.627650
4.653134
4.674878
4.704102
4.738003
4.777749
4.821936
4.853967
4.873372
4.883893
4.872905
4.839238
4.789205
4.722573
4.650564
4.576684
4.488309
4.378424
4.234872
4.055784
3.853783
3.629338
3.389929
3.148417
2.902462
2.648559
2.388576
2.122047
1.840789
1.551816
1.266116
0.976207
0.687000
0.401300
0.118172
-0.151864
-0.422368
-0.694507
-0.954958
-1.205588
-1.431436
-1.629462
-1.806914
-1.957947
-2.100797
-2.239673
-2.360780
-2.473236
-2.565118
-2.630582
-2.678276
-2.700019
-2.697915
-2.670093
-2.618657
-2.564650
-2.505499
-2.438166
-2.368494
-2.294614
-2.224007
-2.169766
-2.146153
-2.151296
-2.180521
-2.233592
-2.293444
-2.358206
-2.424838
-2.478144
-2.525371
-2.559272
-2.562778
-2.534956
-2.473000
-2.381585
-2.266089
-2.139137
-2.014290
-1.893884
-1.788675
-1.697260
-1.615431
-1.540382
-1.462761
-1.390050
-1.319210
-1.238082
-1.151343
-1.052213
-0.938120
-0.816077
-0.691931
-0.576435
-0.473330
-0.386124
-0.311542
-0.244676
-0.187864
-0.127778
-0.061379
0.002214
0.069080
0.142025
0.223854
0.321815
0.435908
0.562860
0.699632
0.844119
0.985800
1.117895
1.242743
1.363149
1.480515
1.588062
1.674801
1.729743
1.747044
1.729743
1.679477
1.610039
1.539199
1.468358
1.401726
1.347018
1.316157
1.312416
1.336731
1.393544
1.474672
1.577309
1.692103
1.795909
1.885687
1.950917
1.980843
1.980609
1.948579
1.902989
1.862542
1.820225
1.773933
1.717822
1.646514
1.563750
1.468594
1.355436
1.232459
1.113456
0.997259
0.892518
0.820275
0.770710
0.728860
0.700337
0.673451
0.631133
0.575723
0.511897
0.438017
0.367644
0.317612
0.281139
0.255889
0.246771
0.237419
0.227132
0.224795
0.225496
0.235783
0.258228
0.288154
0.331173
0.379335
0.433810
0.501845
0.573621
0.656385
0.744994
0.822381
0.892988
0.952840
1.000535
1.046827
1.078857
1.096392
1.104108
1.086573
1.056413
1.013628
0.937644
0.850672
0.755283
0.646801
0.554451
0.475194
0.410432
0.369751
0.341696
0.336085
0.344268
0.354087
0.369284
0.371856
0.369284
0.372090
0.375130
0.394301
0.425864
0.464440
0.512369
0.561700
0.614538
0.677430
0.749206
0.819579
0.892524
0.978327
1.062495
1.153208
1.256079
1.363158
1.491279
1.627817
1.760614
1.894580
2.011946
2.106868
2.178877
2.219792
2.237327
2.234054
2.211375
2.178644
2.141938
2.095880
2.045146
2.002595
1.955602
1.895282
1.824442
1.730923
1.614726
1.488709
1.350067
1.196463
1.039585
0.882473
0.720218
0.556560
0.391265
0.221295
0.057871
-0.091993
-0.225959
-0.341221
-0.439416
-0.527090
-0.600268
-0.651002
-0.676954
-0.672745
-0.640949
-0.583201
-0.502540
-0.407619
-0.299604
-0.190655
-0.081237
0.038233
0.155599
0.279746
0.412309
0.545340
0.683280
0.809063
0.920351
1.026729
1.116273
1.198336
1.271047
1.325989
1.372048
1.403143
1.418807
1.427925
1.427224
1.416002
1.400571
1.381634
1.346331
1.296999
1.246967
1.196467
1.156721
1.133108
1.113703
1.104585
1.102948
1.097805
1.094999
1.092194
1.088219
1.083777
1.075361
1.071152
1.067178
1.063905
1.076062
1.087519
1.093831
1.105054
1.099209
1.080505
1.068815
1.055021
1.045669
1.050346
1.051047
1.049177
1.058061
1.065075
1.069751
1.080506
1.088455
1.095703
1.105289
1.119317
1.150178
1.187352
1.218447
1.237385
1.234111
1.217980
1.195301
1.163271
1.134047
1.111368
1.098042
1.088690
1.076533
1.067649
1.051517
1.031644
1.025565
1.024630
1.030475
1.047543
1.066480
1.091029
1.126800
1.165844
1.197407
1.231308
1.277600
1.323424
1.374158
1.440323
1.514203
1.592525
1.672951
1.749637
1.821647
1.888980
1.955613
2.020374
2.083967
2.149197
2.212322
2.266330
2.308413
2.342314
2.369434
2.386268
2.396789
2.403101
2.406842
2.406842
2.400296
2.383697
2.354238
2.315428
2.263993
2.203205
2.142184
2.074851
2.012193
1.963330
1.922883
1.898334
1.887346
1.885709
1.897633
1.910025
1.917740
1.920546
1.911194
1.890386
1.860694
1.820013
1.769747
1.712934
1.649108
1.580605
1.504387
1.425364
1.351250
1.275968
1.206062
1.145509
1.078643
1.005932
0.933455
0.862848
0.799957
0.748989
0.711114
0.682357
0.666927
0.657809
0.637468
0.614323
0.589072
0.551899
0.512153
0.474512
0.434065
0.398528
0.378889
0.373044
0.380760
0.406244
0.429857
0.440378
0.448795
0.454173
0.459082
0.473110
0.482462
0.478020
0.469370
0.457212
0.440613
0.424013
0.406712
0.376085
0.323013
0.254745
0.174085
0.082436
-0.012252
-0.116058
-0.228046
-0.339100
-0.452258
-0.566351
-0.677638
-0.782847
-0.885484
-0.982743
-1.062702
-1.130503
-1.186381
-1.229165
-1.262364
-1.285744
-1.303045
-1.306318
-1.298603
-1.295096
-1.284575
-1.275924
-1.276859
-1.277561
-1.286445
-1.297433
-1.302109
-1.300472
-1.287146
-1.263065
-1.238516
-1.218643
-1.199939
-1.196198
-1.216772
-1.247867
-1.304680
-1.384872
-1.456882
-1.526553
-1.587808
-1.632697
-1.681561
-1.731359
-1.780457
-1.838672
-1.898758
-1.953466
-2.004668
-2.053999
-2.097251
-2.140971
-2.181886
-2.205733
-2.217189
-2.222566
-2.220228
-2.214383
-2.198485
-2.167624
-2.129281
-2.081586
-2.023137
-1.975208
-1.946217
-1.934060
-1.945516
-1.969830
-1.992743
-2.008407
-2.006536
-1.993444
-1.970531
-1.934059
-1.891040
-1.840774
-1.790975
-1.746553
-1.700729
-1.664958
-1.637603
-1.609080
-1.589909
-1.581959
-1.587337
-1.613990
-1.655372
-1.704469
-1.767828
-1.848955
-1.939201
-2.036227
-2.142371
-2.241501
-2.324966
-2.402587
-2.472025
-2.519485
-2.563439
-2.613472
-2.647840
-2.678701
-2.713770
-2.729435
-2.737851
-2.738553
-2.720550
-2.699508
-2.665841
-2.621420
-2.583545
-2.550579
-2.525095
-2.501715
-2.477167
-2.457527
-2.426900
-2.388090
-2.351383
-2.302052
-2.235186
-2.160371
-2.073632
-1.975203
-1.873034
-1.760109
-1.633391
-1.506673
-1.378552
-1.244352
-1.113192
-0.984136
-0.862795
-0.762963
-0.676224
-0.605618
-0.560027
-0.531504
-0.523087
-0.531270
-0.544362
