EVENT_NAME: 202302060117
EVENT_ID: 13194
EVENT_DATE_YYYYMMDD: 2023/02/06
EVENT_TIME_HHMMSS: 01:17:32.00000
EVENT_LATITUDE_DEGREE: 37.288
EVENT_LONGITUDE_DEGREE: 37.043
EVENT_DEPTH_KM: 8.6
HYPOCENTER_REFERENCE: AFAD
MAGNITUDE_W: 7.7
MAGNITUDE_W_REFERENCE: AFAD
MAGNITUDE_L: 
MAGNITUDE_L_REFERENCE: 
FOCAL_MECHANISM: 
NETWORK: TK
STATION_CODE: 3135
STATION_NAME: 
STATION_LATITUDE_DEGREE: 36.40886
STATION_LONGITUDE_DEGREE: 35.8831
STATION_ELEVATION_M: 3.0
LOCATION: Kahramanmaras_Pazarck_Turkiye
SENSOR_DEPTH_M: 
VS30_M/S: 460
SITE_CLASSIFICATION_EC8: B
MORPHOLOGIC_CLASSIFICATION: 
EPICENTRAL_DISTANCE_KM: 142.15
EARTHQUAKE_BACKAZIMUTH_DEGREE: 
DATE_TIME_FIRST_SAMPLE_YYYYMMDD_HHMMSS: 2023/02/06 01:17:36.5370290
DATE_TIME_FIRST_SAMPLE_PRECISION: millisecond
SAMPLING_INTERVAL_S: 0.01
NDATA: 12501
DURATION_S: 
STREAM: HNZ
UNITS: cm/s^2
INSTRUMENT: sensor = GMS+/GEOSIG | digitizer = 
INSTRUMENT_ANALOG/DIGITAL: 
INSTRUMENTAL_FREQUENCY_HZ: 
INSTRUMENTAL_DAMPING: 
FULL_SCALE_G: 
N_BIT_DIGITAL_CONVERTER: 
PGA_CM/S^2: 588.966
TIME_PGA_S: 
BASELINE_CORRECTION: BASELINE REMOVED
FILTER_TYPE: BUTTERWORTH
FILTER_ORDER: 
LOW_CUT_FREQUENCY_HZ: 
HIGH_CUT_FREQUENCY_HZ: 
LATE/NORMAL_TRIGGERED: 
DATABASE_VERSION: 
HEADER_FORMAT: DYNA 1.2
DATA_TYPE: Acceleration
PROCESSING: Automatic Paolucci et al., 2011
DATA_TIMESTAMP_YYYYMMDD_HHMMSS: 
DATA_LICENSE: U (unknown license)
DATA_CITATION: Turkish Accelerometric Archive v 1.0 - Disaster And Emergency Management Presidency, Earthquake Department
DATA_CREATOR: AFAD
ORIGINAL_DATA_MEDIATOR_CITATION: : AFAD - Disaster And Emergency Management Presidency
ORIGINAL_DATA_MEDIATOR: AFAD PROCESS SERVICE
ORIGINAL_DATA_CREATOR_CITATION: AFAD PROCESS SERVICE
ORIGINAL_DATA_CREATOR: network: TK
USER1: GuestUser
USER2: 
USER3: 
USER4: 
USER5: 
[...]
52.983518
75.178349
89.271537
80.002498
41.887529
1.334638
-4.153739
15.939309
28.852892
20.245481
-4.470658
-21.596638
-14.696164
20.565253
71.077125
110.423912
122.992523
96.940657
37.873327
-20.197014
-44.547140
-31.400805
-1.824150
25.193792
31.486409
9.965156
-20.267935
-41.469414
-47.885942
-39.601424
-18.992476
-2.704509
-9.057913
-32.560676
-59.735259
-70.535111
-53.596165
-24.110688
-5.131265
-6.123579
-21.468330
-36.978814
-38.676658
-28.501289
-13.294216
-1.551667
-8.655281
-44.290765
-99.079198
-146.259547
-159.031817
-134.293859
-85.925332
-17.320624
46.422787
71.359728
53.239876
-1.761567
-65.536411
-96.725707
-73.727414
-8.364090
61.312680
93.956935
67.377480
-2.375403
-76.207162
-113.525683
-98.675530
-49.814743
8.751753
45.112508
34.700749
-2.035891
-32.145852
-38.960084
-14.378766
20.222581
39.694264
39.889869
22.340207
6.171731
1.464476
-0.377799
7.837361
20.535596
8.373781
-27.832933
-62.401030
-83.175191
-73.807700
-31.531770
8.042573
30.345987
35.126495
6.168346
-30.319436
-36.493082
-18.393752
13.986059
46.708504
61.434488
55.135894
32.053435
10.456849
-2.165015
-17.262727
-22.165068
-4.371226
8.432994
-2.033056
-9.974162
2.764597
19.234142
24.807722
21.698040
21.351249
29.782016
26.320348
5.054187
-3.787015
13.293764
42.337376
72.687881
100.879973
113.198427
95.520440
58.810037
27.793486
16.504231
25.326989
38.238493
32.237853
17.790080
15.737913
9.463478
0.297566
12.863319
30.793020
31.021616
19.667159
13.822900
21.222129
27.015213
24.368437
27.210817
27.254457
-1.139996
-42.063575
-61.409273
-65.545558
-64.137097
-46.833177
-27.770108
-28.271980
-31.844310
-24.629516
-24.998906
-43.024983
-61.556047
-59.252686
-50.539031
-59.177614
-65.190203
-54.887029
-42.874841
-24.843051
5.893988
34.704068
40.408312
12.285576
-34.718651
-76.261517
-98.000456
-95.435768
-79.153775
-62.145211
-41.700957
-30.904743
-51.742547
-74.173508
-56.260172
1.500264
66.717339
99.730204
83.524322
21.718519
-51.582275
-95.880759
-100.078609
-60.790530
-2.005309
37.289264
47.662316
31.733347
-5.557119
-46.148195
-50.092772
-6.133026
38.267027
55.451973
49.278847
15.021173
-39.685173
-82.401931
-93.150608
-77.745852
-43.508960
1.178396
41.073553
56.285562
46.274366
26.832295
0.566380
-21.747685
-17.127973
11.076069
33.184916
36.992074
27.214409
13.955854
11.864721
12.844565
19.205242
34.085268
23.669612
-10.467011
-25.247806
-8.715137
14.387842
22.098013
12.265797
-10.358431
-35.842704
-48.733688
-50.531542
-49.903424
-43.023471
-32.481050
-32.729389
-46.347204
-42.052981
-1.291238
41.838549
46.997800
11.001238
-40.643743
-86.407318
-104.130245
-82.705107
-53.083511
-48.636805
-66.953561
-83.684434
-78.110854
-50.997318
-21.450536
-10.151411
-9.726172
13.378106
52.422783
61.435171
32.772118
-2.598662
-26.113115
-41.643861
-55.946164
-44.934862
14.118959
62.259150
49.221138
4.841086
-43.444316
-65.711623
-25.487600
61.264495
122.653370
116.907043
72.752730
34.245511
36.400805
79.055997
129.429672
143.773537
100.364498
38.584152
-7.730651
-32.028564
-14.240437
31.111665
63.562393
76.775228
61.350988
16.080971
-19.858701
-24.722596
-9.107167
9.045674
10.976788
-10.031164
-34.923945
-50.811871
-70.516048
-92.414745
-102.472959
-86.946371
-37.811789
15.589482
27.686354
-13.166569
-79.854970
-123.012294
-115.775939
-83.546534
-44.086228
-8.198511
-2.080457
-29.326216
-78.196616
-111.884620
-100.007252
-63.779498
-42.287859
-38.556813
-17.648094
17.904263
44.193815
56.503178
58.580281
55.828299
26.485434
-26.241221
-60.882573
-63.701835
-47.284762
-30.769757
-10.577478
14.483632
19.407532
15.738050
26.965998
34.181052
38.441765
67.329776
90.417169
73.087011
38.385912
-3.663242
-45.325601
-54.329158
-20.259297
56.900348
132.201614
125.559088
64.323215
7.471186
-45.136495
-66.934401
-34.914368
24.243100
53.940028
36.674552
7.304930
-29.787072
-72.105346
-80.283880
-30.038010
41.774053
84.263252
76.604514
27.901664
-6.923084
-11.612415
-3.090469
34.419499
87.384360
125.681165
132.193806
102.734044
57.859135
14.203836
-22.610994
-42.297507
-31.067221
0.204421
23.307140
37.544760
60.774765
79.010993
55.698120
8.987430
-11.642040
6.076730
41.656882
68.288029
82.183274
86.700638
80.260211
55.154420
17.390658
-7.541089
-14.463385
5.994117
50.176484
89.239085
112.977717
114.972474
90.588838
40.169961
-16.905468
-37.563513
-16.323070
19.586208
49.138186
59.456167
44.168305
7.224630
-10.163716
6.651581
15.002339
10.608624
12.168790
9.055470
2.589846
23.580912
65.928798
74.432820
50.985647
35.443732
15.483683
-15.197507
-22.460618
15.511217
73.997704
110.673298
103.093269
41.697120
-30.885935
-54.508971
-34.519570
-1.830115
21.421451
46.313192
84.046561
90.721557
49.510674
9.161182
5.261545
24.435275
44.925508
52.318762
48.499913
39.351926
25.097940
23.075386
24.857913
18.784278
17.716112
24.261744
24.371625
-0.845607
-32.127900
-39.049417
-15.588477
19.900756
42.588626
55.048394
57.820377
49.204913
34.532181
11.764561
-25.446155
-70.882683
-89.347507
-68.684528
-41.951292
-8.029498
47.259506
72.571032
37.051665
-27.994224
-88.319870
-111.320502
-75.025468
1.372277
52.143398
32.674311
-30.091075
-84.110335
-113.499179
-118.460228
-85.963001
-26.168323
25.014270
57.203152
71.045405
57.363947
46.325369
46.588513
42.233763
53.198566
76.290375
100.602055
124.677865
143.138532
140.217960
103.588344
62.237187
37.676909
33.046025
48.316482
63.588757
55.645313
34.622554
33.360082
47.407811
57.511224
62.186526
61.626206
45.037166
-5.810067
-64.359940
-79.459730
-47.734534
-6.799006
2.983074
-21.684489
-51.514160
-74.698447
-102.724549
-114.654392
-67.799273
-11.174282
-15.559685
-53.957801
-91.483616
-119.022133
-120.855576
-90.341158
-39.244029
1.141050
1.849437
-30.273465
-63.784567
-79.779517
-85.915236
-99.939068
-103.705704
-88.463821
-94.071952
-127.676830
-143.526570
-106.681088
-45.507561
-9.683487
-2.239059
-5.898410
-24.623781
-55.864512
-67.095319
-51.704849
-32.692955
-10.153932
7.085566
-1.145701
-8.847561
-2.634952
-8.552466
-25.556355
-45.298718
-55.826593
-56.631094
-58.104239
-24.362464
36.293865
71.613210
89.856970
98.216561
88.542283
66.834776
22.977897
-40.808377
-97.781457
-130.454028
-119.851341
-51.632648
30.887048
63.185811
47.518688
19.322438
-14.580134
-48.504007
-60.888703
-35.283380
10.871925
22.036490
-23.563432
-78.605138
-111.164970
-120.144888
-74.846298
13.174243
62.901357
42.083035
-28.232246
-112.488232
-140.597200
-96.892287
-32.826504
23.281029
44.839428
36.398789
13.911978
-18.632787
-8.527036
46.051243
95.689515
125.615299
117.274930
62.592223
-7.833979
-44.876106
-24.639147
13.180984
20.730879
13.880019
19.082390
32.152093
52.510105
63.998860
39.561971
-16.668693
-78.541257
-119.894752
-140.889975
-148.106069
-112.214975
-50.112258
-13.151959
11.560802
16.602897
-17.011852
-52.114292
-66.126435
-52.873335
-27.783391
-33.409186
-65.623266
-78.578673
-49.721314
-15.095290
-17.671929
-44.931456
-63.464079
-67.189671
-82.445582
-94.203718
-58.478356
-1.236676
44.956814
75.397977
68.529973
20.424849
-22.639478
-18.275377
3.836587
2.542942
-5.482328
2.798813
2.211217
-20.560299
-39.782347
-39.858200
-28.573103
-25.147803
-10.537417
14.003118
19.692295
22.824576
33.513765
39.850024
24.740622
17.008110
34.286832
41.391225
44.780676
39.316977
11.177616
1.950399
28.621810
44.283477
34.902218
17.515950
-7.847271
-11.535197
20.720445
47.417573
40.364094
31.314818
40.416307
35.473442
19.333801
32.140359
77.543894
114.379245
119.867361
101.502288
45.794537
-33.341683
-72.277259
-40.645320
34.647373
108.866705
154.868487
157.462529
114.022577
48.770433
-13.282929
-57.552320
-67.053332
-38.849810
-11.163225
-9.838929
-17.462599
-21.833195
-20.400835
-26.611887
-51.944195
-77.120643
-82.467967
-70.366419
-50.181413
-19.024589
15.361151
29.181583
20.730812
9.066193
8.901239
25.561195
34.974924
4.794047
-47.968975
-83.690702
-88.948925
-61.594324
-11.131288
27.788180
39.739323
39.894663
33.155503
12.897501
-8.740128
-14.269029
-9.643342
-3.891302
11.556836
29.970225
27.214866
15.513619
11.205627
6.137295
0.465781
9.293994
26.671168
40.263264
58.289599
50.409019
7.528608
-29.588852
-51.164917
-61.018434
-40.320906
14.324393
54.249164
47.421423
11.461230
-33.989326
-79.690816
-97.246713
-68.557164
-25.624541
-3.214363
-7.926554
-24.025152
-47.757030
-69.945887
-64.099032
-38.202508
-13.084249
-3.228395
-9.909367
-11.584351
-5.210946
-7.324158
-16.263293
-19.880302
-8.360894
9.133956
0.066496
-21.325393
-16.227708
7.482089
35.427402
50.605381
41.066443
24.069048
2.024881
-26.250338
-44.028596
-35.434954
-2.809662
21.211857
8.270218
-23.639934
-30.871094
-9.459983
12.695882
35.337253
49.884516
30.275674
9.860253
36.064082
107.682098
175.230329
166.130658
93.939853
36.090056
22.042585
19.608559
11.359628
38.838138
71.755409
40.240624
-8.946953
-31.398695
-58.846034
-74.892419
-33.153689
58.436324
133.236497
114.131345
22.928385
-47.396507
-53.627301
-12.124960
36.014192
43.560709
14.611132
-6.678408
-29.348615
-44.045506
-14.719526
30.798567
61.258694
78.591708
53.812445
-33.910924
-124.087800
-173.460591
-154.498053
-47.062716
70.783859
134.328807
171.900081
163.758174
60.947225
-55.782869
-110.693912
-129.341353
-118.542801
-45.159922
76.961914
138.705371
88.949423
-5.827164
-92.166230
-151.021329
-143.755361
-54.451306
49.429366
111.686645
162.307880
222.071906
219.794520
110.691472
-35.608005
-136.080004
-162.685175
-132.792382
-70.812276
9.594988
67.666626
60.180893
44.110870
56.830405
34.858195
7.745437
29.617895
42.719550
-10.282979
-102.565014
-172.569873
-179.723362
-102.815432
-17.844826
-2.204200
-17.103709
-37.204811
-34.087857
21.504297
96.379543
153.065838
149.893812
61.613760
-54.240136
-129.516985
-164.062222
-179.471656
-174.888571
-115.764613
-30.002754
3.586277
-13.390336
-38.608867
-37.345616
-20.992446
-45.702091
-90.433089
-73.393873
-15.411595
18.326024
34.103547
51.131334
59.876421
21.314651
-34.231525
-45.250621
-12.945623
47.613034
77.913922
34.172640
-62.488823
-155.784473
-163.608164
-82.705263
9.291806
102.846443
202.563296
241.757079
189.234862
64.889931
-79.975886
-176.873738
-186.642571
-116.329370
-5.043753
125.764722
234.163798
242.674314
143.114880
35.112209
-41.230727
-92.999358
-57.870682
19.407937
63.848773
77.507889
62.072998
18.493811
-69.890927
-159.721273
-183.284043
-117.357802
-50.323131
-60.088847
-43.078724
49.257082
106.722682
32.309302
-90.045287
-119.260866
-51.993444
26.070713
49.201747
40.404966
14.686382
-37.122772
-81.522046
-73.734464
-31.210456
-5.559933
12.663566
6.202877
-46.686132
-99.518253
-120.484902
-107.476244
-58.140861
29.485873
99.840897
103.282821
53.242946
-34.840720
-112.187919
-127.798673
-71.525668
19.518832
87.072779
131.757537
146.846416
102.362457
35.595087
-10.870382
-36.444015
-40.981641
-45.568104
-48.641160
-5.904401
83.129236
169.197622
183.849571
105.439921
-18.339495
-133.191726
-195.331591
-184.024154
-91.862651
52.066961
157.535075
185.763536
176.178099
135.787303
57.777437
2.387122
42.866757
137.102765
164.965992
93.980769
-13.101804
-82.291510
-91.415859
-55.755439
12.142441
55.665517
30.778190
-12.113651
-14.686133
16.435103
61.917348
87.746072
36.178502
-60.832868
-109.021897
-97.866684
-73.858933
-29.618897
58.344236
131.445007
117.886679
48.925828
12.592868
27.502767
48.582673
47.969620
18.235284
-18.409138
-37.452206
-64.741606
-113.138449
-133.238772
-100.011338
-45.942723
11.335324
46.353078
55.811228
72.994875
61.132053
17.309204
18.039411
56.790030
76.128453
67.814840
45.909909
14.836210
-13.533825
-3.257147
52.138882
109.225220
130.182256
116.307532
99.510417
98.039091
95.592856
78.960435
51.069412
11.973040
-22.900284
-37.090627
-43.986947
-48.178043
-28.305018
21.094787
71.590034
90.861956
74.051334
32.239608
-21.125556
-59.582639
-64.334055
-29.625943
32.886168
98.625116
161.287373
196.454494
179.621012
115.346115
21.505731
-59.879040
-101.554908
-104.966440
-81.721888
-46.952991
-25.049360
-34.881577
-51.360735
-47.498246
-33.435710
-29.301764
-34.795596
-38.047372
-35.596982
-22.324660
-6.910032
-13.094847
-42.057152
-76.413279
-108.630737
-131.596040
-135.038745
-132.178181
-116.239601
-67.094888
-21.277282
-12.373997
-37.590969
-83.459750
-110.334561
-97.263299
-92.564098
-124.623876
-141.628025
-116.297277
-66.880326
-5.998259
26.488577
2.994646
-34.416352
-49.669925
-49.932031
-40.729234
-9.564357
56.570218
133.663622
178.593601
178.344743
156.572293
137.238286
112.554358
80.079730
56.348371
61.254088
96.551093
126.477656
126.428559
81.511048
-3.221613
-97.820259
-194.842800
-276.819063
-350.887990
-405.391197
-421.431607
-463.073965
-504.100412
-507.212692
-419.313982
-174.117481
85.466786
362.172097
576.771313
490.350941
315.072793
211.607229
62.709554
-129.514294
-302.384133
-427.920619
-519.515049
-541.116052
-472.235730
-369.668444
-250.736299
-130.612078
-27.547856
78.686833
194.982334
356.330425
534.218199
588.966367
503.060075
355.980255
193.249159
40.751619
-79.142708
-121.181990
-112.350141
-100.848398
-58.524151
2.643661
59.921189
120.368925
157.609513
162.615240
164.832359
165.438397
158.383100
143.550091
95.497960
16.896342
-22.423430
1.144534
27.310956
28.287163
15.465537
-6.147414
-46.748102
-89.947508
-122.434345
-115.646350
-79.231304
-96.491844
-79.457303
-15.681162
-14.909651
-31.827038
-49.626077
-59.838334
-44.373311
-22.625801
-6.281204
-12.181053
-30.003731
-45.761773
-55.114199
-60.967030
-59.021369
-50.307974
-37.266326
-8.174398
29.389083
58.981324
62.168676
53.322539
42.513854
19.972752
12.407790
6.089194
-4.423354
12.023332
32.718782
44.610697
52.529981
65.353164
103.900905
133.546919
129.951211
118.770799
99.766437
66.501335
15.291465
-45.325120
-88.642981
-106.180174
-95.353827
-68.522398
-44.511011
-22.554907
-7.204182
-0.233570
11.535735
31.709311
51.991211
57.448934
45.999662
40.595969
41.705178
26.957373
12.950426
37.157419
95.890166
150.283231
178.007482
179.715715
155.751864
109.318087
60.066348
33.851867
27.781610
66.241809
159.532003
222.330378
217.572468
168.597642
96.188891
25.852829
-34.499833
-71.404802
-81.066871
-67.815590
-44.909775
-31.644207
-25.089483
-19.752033
-11.660003
-7.941425
-0.720397
2.732697
-14.451471
-24.471760
-49.481177
-79.153168
-82.917726
-99.075551
-99.276092
-70.047786
-35.257588
0.003310
15.832527
16.428954
1.672317
-25.272631
-60.764723
-109.624473
-138.807321
-130.831407
-100.567406
-64.815287
-44.046323
-29.715447
-24.132515
-21.832271
-25.050017
-47.763865
-30.282783
-16.779527
-41.157709
-26.012979
0.265143
14.042194
18.528645
18.862187
35.979853
47.183124
52.011429
56.858698
54.641319
51.552677
55.566351
71.737683
86.824224
79.545526
53.605101
29.988819
11.150708
-21.869432
-57.734551
-75.259015
-91.016798
-110.518875
-123.395831
-113.260207
-70.349924
-17.644831
20.875634
37.819776
40.280037
26.654689
-8.189541
-50.716409
-86.429303
-99.066234
-86.140183
-60.747349
-26.273809
5.178631
18.582136
17.307454
4.155663
-24.892885
-60.306268
-81.335521
-65.729184
-16.545505
16.221100
12.119105
-6.240773
-29.817830
-54.240432
-72.912551
-75.536986
-55.997504
-21.661380
4.826375
5.563076
-6.623936
-17.898644
-30.102282
-43.443184
-47.123576
-25.923137
13.403907
50.380052
79.821628
104.954954
122.296540
125.413755
109.715978
68.319621
14.126317
-13.615079
8.011639
50.110667
71.207718
78.051823
80.413632
62.754089
25.551945
-10.337073
-21.106532
-10.912980
4.622700
25.737156
39.192614
37.116029
31.803774
31.857286
43.601653
58.596236
69.301791
71.603854
56.392883
42.093178
29.155695
9.268382
8.067994
22.275221
30.922634
28.132986
11.770983
-10.024585
-32.085896
-53.753919
-62.136630
-54.042002
-43.560627
-30.900578
-9.429461
13.510644
17.641473
-6.095861
-37.645196
-45.345756
-26.242944
-6.262115
1.877193
-3.356092
-13.595106
-22.125105
-36.193617
-49.173442
-45.612024
-33.350199
-37.313739
-51.688257
-52.802143
-40.292499
-27.001214
-20.956156
-21.056946
-30.662385
-50.083675
-65.495966
-62.233282
-30.355342
16.449901
51.495451
75.641918
90.080338
75.557752
33.087514
-15.138401
-50.532561
-60.737804
-42.468846
-1.587610
43.112215
75.653861
91.434762
88.746423
70.530976
34.778857
-4.376223
-34.496314
-55.709223
-55.275931
-48.528719
-58.547449
-71.304393
-57.000013
-14.831367
25.117302
49.472883
65.137927
73.002920
47.927262
-10.290108
-56.233962
-72.081624
-64.137662
-34.208242
0.046834
12.382953
6.444138
5.801991
9.988930
5.827187
-3.076099
-6.389180
-3.625510
-5.581822
-22.676111
-38.973691
-24.555793
18.659978
63.073018
85.456960
75.310165
39.184499
-4.804862
-41.794516
-59.805525
-45.493612
-7.548273
26.673293
47.894513
62.477884
63.793088
42.988794
16.331929
-0.436611
-10.706017
-14.398878
-2.558657
23.383326
51.033283
75.643176
91.079624
83.415431
48.134530
2.722680
-33.054637
-62.674675
-81.762163
-74.192006
-50.364534
-27.124398
-11.372072
-10.406255
-19.266680
-27.896690
-41.703356
-63.370339
-74.532827
-60.660701
-27.995145
1.713213
10.442713
4.558190
-2.014199
-8.938054
-26.663578
-45.497533
-46.290085
-42.407335
-47.977019
-54.646561
-55.071802
-54.121831
-50.279085
-33.693164
-2.459189
41.834619
80.533544
93.607144
72.495285
20.764320
-25.043675
-35.982763
-16.373662
17.911287
52.971643
73.623193
63.610697
32.168387
-1.691583
-28.241424
-39.369622
-40.186593
-35.623510
-20.990005
0.733867
20.614685
34.382384
39.983499
36.046716
39.289918
65.266190
91.330264
86.116201
51.019736
22.136140
26.774815
46.085183
61.315895
73.150921
65.738183
29.942422
-8.976788
-16.330559
4.474254
22.217701
34.147802
53.210870
74.088937
73.754875
46.393779
12.672006
-12.285458
-21.703085
-22.409395
-14.786765
11.918156
42.133321
47.373359
24.841089
7.467030
10.998575
15.969753
17.109614
25.447124
38.184065
35.224268
14.193197
-12.027778
-42.000841
-68.609389
-73.646809
-45.979708
-1.998921
32.760105
59.467104
77.006374
66.449925
26.724655
-17.244704
-42.431802
-50.104048
-47.577546
-38.368774
-31.332960
-28.551366
-27.617501
-29.147794
-28.296795
-21.132396
-7.946837
14.845720
39.176881
48.955585
40.904077
19.599470
-6.660989
-28.057554
-36.008012
-34.329392
-28.904140
-17.674633
-8.559637
-7.482120
-9.789899
-3.317002
8.852865
4.847502
-9.632222
-11.742837
2.639213
16.987754
18.098521
16.563811
22.696152
21.145337
-3.373898
-36.953319
-57.278861
-54.302440
-34.619046
-14.404686
-6.481246
-13.650581
-27.154617
-43.119175
-56.762706
-57.026891
-43.334265
-21.705728
-0.971053
7.122535
-4.311410
-27.292300
-32.539093
-3.746157
