EVENT_NAME: 202302060117
EVENT_ID: 13194
EVENT_DATE_YYYYMMDD: 2023/02/06
EVENT_TIME_HHMMSS: 01:17:32.00000
EVENT_LATITUDE_DEGREE: 37.288
EVENT_LONGITUDE_DEGREE: 37.043
EVENT_DEPTH_KM: 8.6
HYPOCENTER_REFERENCE: AFAD
MAGNITUDE_W: 7.7
MAGNITUDE_W_REFERENCE: AFAD
MAGNITUDE_L: 
MAGNITUDE_L_REFERENCE: 
FOCAL_MECHANISM: 
NETWORK: TK
STATION_CODE: 5104
STATION_NAME: 
STATION_LATITUDE_DEGREE: 38.18488
STATION_LONGITUDE_DEGREE: 34.48289
STATION_ELEVATION_M: 1544.0
LOCATION: Kahramanmaras_Pazarck_Turkiye
SENSOR_DEPTH_M: 
VS30_M/S: None
SITE_CLASSIFICATION_EC8: unknown
MORPHOLOGIC_CLASSIFICATION: 
EPICENTRAL_DISTANCE_KM: 246.22
EARTHQUAKE_BACKAZIMUTH_DEGREE: 
DATE_TIME_FIRST_SAMPLE_YYYYMMDD_HHMMSS: 2023/02/06 01:17:54.4456810
DATE_TIME_FIRST_SAMPLE_PRECISION: millisecond
SAMPLING_INTERVAL_S: 0.01
NDATA: 14501
DURATION_S: 
STREAM: HNE
UNITS: cm/s^2
INSTRUMENT: sensor = ACEBOX/SARA | digitizer = 
INSTRUMENT_ANALOG/DIGITAL: 
INSTRUMENTAL_FREQUENCY_HZ: 
INSTRUMENTAL_DAMPING: 
FULL_SCALE_G: 
N_BIT_DIGITAL_CONVERTER: 
PGA_CM/S^2: 31.770
TIME_PGA_S: 
BASELINE_CORRECTION: BASELINE REMOVED
FILTER_TYPE: BUTTERWORTH
FILTER_ORDER: 
LOW_CUT_FREQUENCY_HZ: 
HIGH_CUT_FREQUENCY_HZ: 
LATE/NORMAL_TRIGGERED: 
DATABASE_VERSION: 
HEADER_FORMAT: DYNA 1.2
DATA_TYPE: Acceleration
PROCESSING: Automatic Paolucci et al., 2011
DATA_TIMESTAMP_YYYYMMDD_HHMMSS: 
DATA_LICENSE: U (unknown license)
DATA_CITATION: Turkish Accelerometric Archive v 1.0 - Disaster And Emergency Management Presidency, Earthquake Department
DATA_CREATOR: AFAD
ORIGINAL_DATA_MEDIATOR_CITATION: : AFAD - Disaster And Emergency Management Presidency
ORIGINAL_DATA_MEDIATOR: AFAD PROCESS SERVICE
ORIGINAL_DATA_CREATOR_CITATION: AFAD PROCESS SERVICE
ORIGINAL_DATA_CREATOR: network: TK
USER1: GuestUser
USER2: 
USER3: 
USER4: 
USER5: 
[...]
7.792741
7.632352
7.362780
6.912951
6.276084
5.499405
4.626637
3.668298
2.620181
1.548918
0.522077
-0.424338
-1.161504
-1.581875
-1.728704
-1.639163
-1.325644
-0.851273
-0.245508
0.504510
1.394105
2.395922
3.457358
4.530484
5.583737
6.598414
7.568903
8.466447
9.271173
10.021425
10.774015
11.552088
12.358452
13.198481
14.042252
14.849784
15.618506
16.348418
17.044662
17.711682
18.339658
18.882532
19.235796
19.420492
19.504188
19.394533
19.096672
18.632113
17.948252
17.191213
16.384375
15.398682
14.314794
13.171522
12.019366
10.992524
10.015482
9.055039
8.185777
7.398812
6.782987
6.367993
6.035296
5.790039
5.609777
5.411046
5.277077
5.242003
5.170925
5.013576
4.841965
4.663341
4.387222
4.001921
3.550455
3.034928
2.512621
1.961090
1.319079
0.721256
0.220926
-0.257427
-0.659795
-0.986180
-1.348569
-1.766135
-2.146994
-2.428957
-2.595892
-2.580232
-2.459128
-2.401150
-2.314181
-2.135564
-1.977053
-1.839584
-1.795633
-1.911133
-2.042297
-2.180942
-2.404222
-2.650414
-2.934248
-3.306457
-3.705786
-4.066773
-4.351308
-4.547701
-4.712064
-4.892092
-5.084276
-5.284644
-5.495299
-5.746167
-6.099205
-6.538981
-6.975952
-7.369904
-7.693951
-7.909515
-8.025716
-8.052606
-7.996966
-7.896437
-7.787491
-7.690469
-7.593914
-7.497360
-7.409222
-7.280169
-7.062274
-6.732857
-6.286074
-5.779907
-5.286598
-4.837244
-4.429972
-4.048419
-3.712690
-3.444294
-3.238790
-3.103425
-3.061345
-3.145048
-3.339805
-3.562150
-3.752230
-3.899059
-4.011519
-4.087273
-4.099200
-4.089384
-4.125159
-4.173558
-4.225699
-4.354291
-4.589495
-4.926634
-5.332042
-5.736749
-6.101476
-6.390687
-6.537048
-6.485382
-6.234989
-5.837069
-5.353814
-4.795276
-4.156312
-3.509866
-2.918129
-2.360058
-1.816951
-1.309614
-0.880600
-0.538091
-0.261278
-0.086168
-0.045257
-0.095527
-0.185776
-0.283507
-0.356456
-0.381709
-0.332849
-0.181352
0.080029
0.446620
0.907664
1.409857
1.846119
2.138596
2.274195
2.185114
1.823193
1.275402
0.503634
-0.549393
-1.639359
-2.623182
-3.646750
-4.748640
-5.859648
-6.897712
-7.805316
-8.567733
-9.070868
-9.363820
-9.574709
-9.615627
-9.516968
-9.202748
-8.634624
-8.249564
-8.049437
-7.687990
-7.251494
-6.831364
-6.381542
-5.886830
-5.396094
-4.961001
-4.492241
-4.019272
-3.628367
-3.316251
-3.088069
-2.894255
-2.787647
-2.729201
-2.584718
-2.486059
-2.398622
-2.244320
-2.227958
-2.203646
-1.922392
-1.611445
-1.453870
-1.275018
-0.992595
-0.787091
-0.709006
-0.653366
-0.615962
-0.579727
-0.545362
-0.612700
-0.758359
-0.803719
-0.662743
-0.437600
-0.178089
0.183592
0.619620
1.108487
1.705368
2.389221
3.103234
3.815845
4.520740
5.215114
5.864599
6.509642
7.209394
7.900962
8.510936
9.011025
9.422738
9.778574
10.077129
10.360956
10.599425
10.724971
10.812875
10.868982
10.843027
10.790419
10.709054
10.544457
10.327490
10.116601
9.869006
9.524619
9.167607
8.859459
8.557155
8.256956
7.964238
7.646504
7.262839
6.814880
6.361076
5.958239
5.626945
5.343345
5.108375
4.973705
4.926708
4.915482
4.965745
5.118177
5.335838
5.609845
5.958901
6.322920
6.649297
6.894547
6.977541
6.902021
6.701653
6.375035
5.942038
5.405236
4.762758
4.022552
3.195607
2.305070
1.349303
0.341400
-0.653178
-1.541611
-2.229446
-2.665949
-2.843405
-2.778881
-2.497392
-2.065806
-1.563146
-0.992450
-0.401648
0.127431
0.630793
1.116153
1.518281
1.878091
2.285830
2.719754
3.140819
3.621503
4.158531
4.643657
5.068697
5.454459
5.701345
5.724253
5.553578
5.227895
4.799107
4.285451
3.614215
2.841511
2.045194
1.140161
0.128985
-0.910715
-1.991564
-3.129459
-4.318322
-5.527057
-6.682721
-7.752814
-8.772642
-9.755295
-10.674590
-11.497326
-12.175809
-12.713780
-13.165013
-13.542131
-13.840694
-14.074962
-14.246339
-14.288427
-14.156335
-13.905240
-13.553846
-13.040665
-12.318235
-11.396610
-10.325121
-9.113353
-7.807131
-6.498806
-5.200533
-3.937798
-2.771153
-1.753437
-0.853789
-0.006043
0.573536
0.793536
0.899209
0.900140
0.743960
0.325459
-0.502187
-1.373786
-2.134333
-3.166084
-4.442153
-5.604596
-6.589354
-7.538808
-8.353829
-8.868421
-9.210703
-9.396576
-9.391670
-9.369463
-9.375077
-9.402202
-9.498296
-9.632967
-9.790784
-9.979929
-10.205547
-10.445894
-10.629429
-10.697234
-10.630605
-10.451286
-10.181254
-9.825886
-9.405054
-8.940970
-8.432465
-7.879538
-7.300660
-6.687413
-6.058736
-5.462790
-4.909396
-4.440402
-4.058147
-3.710728
-3.420355
-3.180717
-2.966328
-2.823716
-2.738150
-2.638556
-2.477005
-2.188269
-1.727459
-1.091300
-0.272078
0.704490
1.772238
2.904281
4.084486
5.263054
6.394629
7.448818
8.412059
9.273832
9.990884
10.505235
10.783684
10.830206
10.680338
10.403285
10.035752
9.528408
8.868862
8.112291
7.317143
6.563143
5.878347
5.271639
4.837474
4.635937
4.645519
4.812447
5.069620
5.390620
5.756042
6.111176
6.416278
6.651708
6.804141
6.862353
6.849958
6.820028
6.783084
6.747777
6.732811
6.736314
6.769276
6.809485
6.807845
6.757341
6.647687
6.452930
6.188268
5.876612
5.519367
5.134766
4.708083
4.214299
3.685446
3.119186
2.529779
1.980820
1.458747
0.988811
0.631565
0.405245
0.367366
0.508343
0.770192
1.214871
1.886099
2.607360
3.238375
3.949115
4.762258
5.456633
6.104481
6.813117
7.480605
8.124011
8.754793
9.328294
9.958140
10.646202
11.202869
11.655497
12.070016
12.271779
12.258683
12.113491
11.638178
10.798375
9.814786
8.712896
7.418357
5.942625
4.361216
2.864209
1.530392
0.199614
-1.123916
-2.244276
-3.190223
-4.086372
-4.917992
-5.644638
-6.255320
-6.804513
-7.353473
-7.872974
-8.365822
-8.807703
-9.117722
-9.321597
-9.451358
-9.479417
-9.405073
-9.219442
-8.955254
-8.676338
-8.401396
-8.161757
-7.980568
-7.833513
-7.732984
-7.729948
-7.812482
-7.963519
-8.236364
-8.606235
-8.952960
-9.209673
-9.373335
-9.453063
-9.439507
-9.339913
-9.189818
-8.972858
-8.661210
-8.268434
-7.817677
-7.357100
-6.913356
-6.449740
-5.950586
-5.437639
-4.925860
-4.430447
-3.970572
-3.550676
-3.150652
-2.752031
-2.367672
-2.033813
-1.786927
-1.616726
-1.491882
-1.400237
-1.309528
-1.210869
-1.104962
-0.959310
-0.778589
-0.555082
-0.324561
-0.175169
-0.072301
-0.014557
-0.073478
-0.205109
-0.389579
-0.661255
-0.987172
-1.333663
-1.700728
-2.091174
-2.476943
-2.805665
-3.063080
-3.266019
-3.412848
-3.475041
-3.438105
-3.323080
-3.137917
-2.885887
-2.599956
-2.311220
-2.065035
-1.872858
-1.668523
-1.454602
-1.260787
-1.029332
-0.728906
-0.380318
-0.026352
0.294882
0.626870
1.004215
1.424813
1.895911
2.408858
2.979320
3.615946
4.286239
4.980146
5.679196
6.395781
7.165438
7.973438
8.820482
9.671734
10.511530
11.441104
12.423751
13.314982
14.101005
14.751192
15.196104
15.491386
15.736870
15.870131
15.821030
15.745977
15.659001
15.458399
15.247277
14.969756
14.590767
14.282618
13.797485
12.840082
11.729541
10.811650
9.916670
8.821794
7.694654
6.687451
5.717890
4.762825
3.913436
3.284518
2.833753
2.416889
2.059877
1.755937
1.375545
0.933898
0.532231
0.120744
-0.393847
-0.964316
-1.565413
-2.206021
-2.897363
-3.750727
-4.720989
-5.674652
-6.632523
-7.514176
-8.227027
-8.816668
-9.277252
-9.585634
-9.733631
-9.727556
-9.594763
-9.360502
-9.130917
-8.945285
-8.706114
-8.445668
-8.271025
-8.159507
-8.066459
-8.034199
-8.092184
-8.193422
-8.266604
-8.274323
-8.299577
-8.420220
-8.504391
-8.411343
-8.157677
-7.787112
-7.312507
-6.730589
-6.069414
-5.375273
-4.656117
-3.919659
-3.138780
-2.304361
-1.483736
-0.623600
0.277451
1.033548
1.639079
2.203696
2.731139
3.188209
3.572568
4.003453
4.513361
4.967626
5.394770
5.918472
6.529614
7.115974
7.595255
7.997383
8.349711
8.675154
9.015559
9.301489
9.456026
9.587650
9.788010
9.921505
9.954233
10.004963
10.024833
10.041429
10.191289
10.417367
10.656071
10.963043
11.433907
12.042244
12.582078
13.046630
13.580151
14.135182
14.651871
15.145881
15.588689
15.966034
16.270668
16.462612
16.536255
16.523392
16.451613
16.336581
16.167075
15.962031
15.783406
15.606652
15.356719
15.043660
14.694598
14.294567
13.824163
13.300921
12.725542
12.027420
11.215672
10.402756
9.638235
8.935203
8.303245
7.700279
7.096610
6.510010
5.982325
5.558447
5.230426
4.980026
4.784568
4.524114
4.139046
3.706284
3.248505
2.741161
2.140299
1.441241
0.698230
-0.126143
-0.938826
-1.573589
-2.131900
-2.656311
-3.092815
-3.527213
-3.984758
-4.456565
-4.919253
-5.334481
-5.798338
-6.327659
-6.826820
-7.297691
-7.751261
-8.174906
-8.558571
-8.884955
-9.219523
-9.660468
-10.159395
-10.607822
-11.020244
-11.396427
-11.692886
-11.971809
-12.262891
-12.513759
-12.669471
-12.636743
-12.465140
-12.350115
-12.283954
-12.059045
-11.618341
-11.169921
-10.890069
-10.709114
-10.470177
-10.121121
-9.758739
-9.458781
-9.170746
-8.856760
-8.525707
-8.276249
-8.207516
-8.194193
-8.191859
-8.332842
-8.551212
-8.696638
-8.694070
-8.532052
-8.290543
-7.934707
-7.394873
-6.767365
-6.108528
-5.382123
-4.635612
-3.927911
-3.243123
-2.614913
-2.088172
-1.687914
-1.503218
-1.455527
-1.401290
-1.371601
-1.336535
-1.285337
-1.221047
-1.047339
-0.847913
-0.655034
-0.314863
0.079082
0.380443
0.681570
1.046056
1.425038
1.829971
2.269740
2.703898
3.135718
3.528728
3.822374
4.059440
4.283415
4.498037
4.740247
5.045349
5.401886
5.774088
6.169201
6.591670
6.983276
7.340982
7.691909
7.989763
8.214672
8.349336
8.313795
8.080228
7.649102
7.023223
6.236492
5.271607
4.103786
2.777684
1.388223
0.003438
-1.349550
-2.618605
-3.847915
-5.113229
-6.265853
-7.197072
-7.991285
-8.638673
-9.073773
-9.308743
-9.384263
-9.389410
-9.377023
-9.320214
-9.249844
-9.193503
-9.054163
-8.756777
-8.282172
-7.602293
-6.784240
-5.887865
-4.867110
-3.697659
-2.363148
-0.863343
0.753830
2.474340
4.253066
6.038572
7.859382
9.695388
11.483699
13.184571
14.730435
16.094404
17.310848
18.386779
19.311911
20.065670
20.627949
21.043871
21.369313
21.587676
21.664592
21.592111
21.337736
20.837172
20.075691
19.128107
18.057779
16.853486
15.523877
14.137456
12.708483
11.227374
9.753279
8.295082
6.784280
5.203106
3.566521
1.912168
0.295456
-1.260936
-2.754203
-4.212634
-5.631787
-6.947601
-8.166390
-9.311766
-10.374145
-11.374333
-12.297836
-13.106544
-13.812616
-14.452756
-15.072556
-15.673419
-16.236874
-16.812253
-17.403763
-17.977272
-18.602215
-19.312495
-20.066261
-20.884555
-21.745634
-22.549900
-23.246620
-23.902892
-24.577167
-25.104851
-25.330469
-25.344735
-25.242569
-24.981655
-24.459122
-23.682918
-22.807819
-21.872166
-20.842526
-19.819901
-18.896171
-18.073208
-17.371820
-16.813048
-16.340782
-15.884179
-15.433655
-14.992016
-14.537518
-14.049119
-13.510220
-12.881543
-12.119367
-11.260400
-10.400497
-9.586185
-8.839908
-8.139688
-7.386631
-6.545900
-5.712416
-5.018977
-4.470960
-3.936970
-3.416541
-2.991034
-2.621872
-2.310925
-2.087418
-1.891266
-1.672436
-1.416197
-1.159024
-0.980640
-0.879410
-0.773971
-0.607511
-0.388680
-0.140157
0.144137
0.474255
0.840845
1.242505
1.692561
2.122277
2.443511
2.705360
2.967209
3.231163
3.564554
3.977904
4.373953
4.732127
5.106900
5.527732
6.013559
6.581916
7.211295
7.884160
8.611032
9.370402
10.164841
11.008846
11.798142
12.418402
12.835960
13.057830
13.123991
13.038652
12.795733
12.436383
12.019285
11.648713
11.394805
11.262472
11.280939
11.431267
11.696623
12.092438
12.546235
13.022009
13.555530
14.111497
14.645018
15.130845
15.564302
15.986770
16.386326
16.731641
17.066435
17.415958
17.747947
18.045333
18.338745
18.641509
18.897046
19.065142
19.141824
19.131767
19.086875
19.007614
18.837873
18.601033
18.343852
18.107012
17.860586
17.484403
16.981034
16.378067
15.611442
14.700330
13.676996
12.557805
11.407051
10.206031
8.928559
7.654594
6.470875
5.418082
4.504165
3.714628
3.037548
2.458662
1.963008
1.559938
1.246179
0.988998
0.781382
0.614447
0.436992
0.179577
-0.203854
-0.700443
-1.309488
-2.076581
-3.000084
-4.045629
-5.203396
-6.448604
-7.730051
-9.022018
-10.304867
-11.545399
-12.741042
-13.878002
-14.912792
-15.879547
-16.865708
-17.878287
-18.883853
-19.911162
-21.007207
-22.163104
-23.335134
-24.498279
-25.660722
-26.785758
-27.772153
-28.577120
-29.207909
-29.648387
-29.907438
-29.997219
-29.904172
-29.672249
-29.353119
-28.946549
-28.492752
-28.022590
-27.536295
-27.093486
-26.709361
-26.358201
-26.056607
-25.769273
-25.472354
-25.199984
-24.880153
-24.438981
-23.889328
-23.202669
-22.384850
-21.466497
-20.438027
-19.365135
-18.307907
-17.330638
-16.542511
-15.908924
-15.420292
-15.162651
-15.089008
-15.194922
-15.542115
-16.039639
-16.570830
-17.074667
-17.506026
-17.874261
-18.189657
-18.437719
-18.613305
-18.728804
-18.811572
-18.880312
-18.953494
-19.033223
-19.069465
-19.007746
-18.813932
-18.466746
-17.964086
-17.293559
-16.462413
-15.494262
-14.373442
-13.081482
-11.653218
-10.147100
-8.579727
-6.968867
-5.358943
-3.721664
-2.043471
-0.419285
1.100861
2.573547
4.079899
5.622022
7.186590
8.843040
10.539469
12.153134
13.739211
15.305649
16.773892
18.171295
19.501130
20.736511
21.886323
22.891647
23.701050
24.354977
24.875406
25.249010
25.540786
25.847290
26.176473
26.544233
26.964129
27.437331
28.003818
28.614025
29.243404
29.855248
30.367494
30.796275
31.056020
31.312959
31.697085
31.769558
31.614079
31.449482
31.017655
30.519430
30.053468
29.471075
28.786747
27.837760
26.693787
25.480142
24.218100
22.989960
21.731192
20.516611
19.122474
17.420894
15.994260
14.699954
13.029937
11.232500
9.424074
7.506232
5.631174
3.896629
2.171903
0.364179
-1.472536
-3.395289
-5.365970
-7.134649
-8.638437
-9.981606
-11.232659
-12.389024
-13.410488
-14.260111
-14.948179
-15.540392
-16.033707
-16.466002
-16.898297
-17.223045
-17.413126
-17.531431
-17.671479
-18.046260
-18.569034
-18.914824
-19.041312
-19.105142
-19.218771
-19.390616
-19.648264
-20.033565
-20.376550
-20.547459
-20.622745
-20.623217
-20.544197
-20.391063
-20.119394
-19.725917
-19.201981
-18.553665
-17.930833
-17.437290
-16.916160
-16.170350
-15.230489
-14.260701
-13.303773
-12.302890
-11.301073
-10.382253
-9.538249
-8.751992
-8.060190
-7.507730
-7.067961
-6.653209
-6.236352
-5.877477
-5.643683
-5.505045
-5.334844
-5.070657
-4.761814
-4.502537
-4.382836
-4.394062
-4.459996
-4.550012
-4.655224
-4.766282
-4.902823
-5.086124
-5.311742
-5.609603
-5.989060
-6.333213
-6.578703
-6.757796
-6.856462
-6.876572
-6.792642
-6.596256
-6.372750
-6.045671
-5.501629
-4.815437
-4.063783
-3.278695
-2.462512
-1.560994
-0.570632
0.448720
1.481867
2.580009
3.758577
5.013130
6.327534
7.640536
8.914728
10.131405
11.293374
12.420507
13.490593
14.505036
15.450275
16.280719
17.017177
17.721137
18.396339
18.932433
19.294581
19.610438
19.986380
20.497457
21.075167
21.610091
22.137768
22.591565
22.993459
23.499626
23.985220
24.302479
24.532999
24.756740
24.921095
25.018351
25.218011
25.443388
25.397326
25.156979
24.929958
24.601937
24.121246
23.781535
23.598468
23.148171
22.398379
21.690438
21.078587
20.423249
19.645402
18.757203
17.778757
16.705624
15.637869
14.582270
13.431049
12.271879
11.114111
9.831729
8.596341
7.574643
6.677326
5.878904
5.134256
4.358747
3.637245
3.010665
2.374265
1.728046
1.155707
0.616099
0.001910
-0.637997
-1.147211
-1.522927
-1.886719
-2.263136
-2.589053
-2.820282
-2.980671
-3.124694
-3.286719
-3.502517
-3.751281
-3.973392
-4.200881
-4.432577
-4.601850
-4.737690
-4.899248
-5.049349
-5.132818
-5.175373
-5.181455
-5.076016
-4.846899
-4.525899
-4.101560
-3.567337
-2.946843
-2.317698
-1.767343
-1.302791
-0.911185
-0.584106
-0.291629
-0.052458
0.126861
0.272980
0.323477
0.247723
0.122872
-0.051311
-0.322987
-0.697534
-1.159287
-1.668501
-2.234060
-2.890567
-3.592664
-4.302008
-5.038005
-5.839934
-6.718080
-7.579626
-8.339705
-9.057232
-9.777332
-10.412329
-10.882732
-11.192284
-11.303341
-11.135010
-10.747378
-10.293815
-9.849838
-9.450048
-9.081821
-8.652339
-8.121155
-7.507441
-6.797402
-6.011847
-5.197067
-4.321734
-3.400109
-2.529218
-1.719348
-0.975408
-0.321247
0.285687
0.837912
1.328415
1.788525
2.180132
2.477284
2.707337
2.919621
3.183575
3.506913
3.842408
4.240328
4.628194
4.764260
4.961114
5.462371
5.597269
5.410695
5.698730
6.103429
6.057134
5.940699
6.019017
6.063903
5.973186
5.884807
5.856280
5.837105
5.769066
5.551164
5.210050
4.823345
4.340317
3.816373
3.353217
2.894737
2.438595
1.979881
1.322206
0.456217
-0.428475
-1.367876
-2.401030
-3.424832
-4.458687
-5.528079
-6.515175
-7.287645
-7.875181
-8.412684
-8.855734
-9.055400
-9.058677
-9.056109
-9.164595
-9.311423
-9.411959
-9.573985
-9.716604
-9.556691
-9.236158
-8.972672
-8.604679
-8.121891
-7.630921
-7.019077
-6.205934
-5.266540
-4.370633
-3.612432
-2.940034
-2.396693
-2.059795
-1.873462
-1.768491
-1.723605
-1.757743
-1.912521
-2.175546
-2.469199
-2.760982
-3.071001
-3.371434
-3.641473
-3.887899
-4.041975
-4.047590
-3.987274
-3.955949
-3.923688
-3.858463
-3.816616
-3.766821
-3.610181
-3.377322
-3.140489
-2.902721
-2.654666
-2.366397
-2.009159
-1.578274
-1.040310
-0.413036
0.213537
0.792416
1.324301
1.803114
2.191214
2.456804
2.626303
2.730573
2.789720
2.840217
2.923679
3.103933
3.423764
3.848102
4.332527
4.867217
5.429029
6.003932
6.629336
7.304539
7.946777
8.507419
8.995116
9.406596
9.742793
10.039010
10.355568
10.721691
11.092256
11.448092
11.849518
12.341190
12.911184
13.500584
14.048601
14.509412
14.795576
14.873894
14.812870
14.651546
14.381974
13.976566
13.452623
12.888934
12.328986
11.754542
11.135911
10.571521
10.120288
9.652690
9.269727
9.032185
8.755365
8.656232
8.783414
8.738521
8.727997
9.082663
9.528979
9.857694
10.149236
10.470703
10.786326
11.067113
11.337613
11.585434
11.766857
11.825303
11.802621
11.739726
11.524395
11.151952
10.659338
9.988102
9.139648
8.141330
7.054403
5.952747
4.880783
3.861891
2.822892
1.736432
0.680367
-0.291065
-1.211061
-2.161684
-3.090330
-3.945097
-4.823009
-5.733653
-6.642427
-7.573411
-8.480782
-9.330171
-10.157583
-10.943847
-11.630279
-12.240494
-12.828264
-13.390316
-13.949563
-14.557205
-15.223765
-15.950177
-16.714464
-17.496519
-18.311774
-19.136614
-19.932697
-20.688100
-21.377338
-21.973057
-22.495598
-22.944960
-23.313895
-23.698028
-24.092915
-24.373943
-24.637436
-25.011282
-25.466488
-25.991133
-26.491931
-26.899209
-27.268379
-27.532339
-27.627031
-27.601784
-27.429246
-27.083931
-26.607455
-25.983922
-25.187846
-24.261778
-23.207356
-21.965195
-20.561012
-19.096510
-17.613304
-16.087546
-14.502872
-12.895520
-11.309209
-9.756565
-8.237120
-6.744094
-5.306011
-3.959810
-2.695905
-1.528092
-0.479748
0.470868
1.349007
2.163553
2.900712
3.561887
4.158534
4.667741
5.114523
5.522496
5.829936
6.046896
6.293782
6.637928
7.049875
7.486371
7.949754
8.472521
9.064726
9.691065
10.299168
10.862616
11.357561
11.788212
12.212317
12.616782
12.934275
13.201970
13.456805
13.659737
13.827133
14.012296
