EVENT_NAME: 202302060117
EVENT_ID: 13194
EVENT_DATE_YYYYMMDD: 2023/02/06
EVENT_TIME_HHMMSS: 01:17:32.00000
EVENT_LATITUDE_DEGREE: 37.288
EVENT_LONGITUDE_DEGREE: 37.043
EVENT_DEPTH_KM: 8.6
HYPOCENTER_REFERENCE: AFAD
MAGNITUDE_W: 7.7
MAGNITUDE_W_REFERENCE: AFAD
MAGNITUDE_L: 
MAGNITUDE_L_REFERENCE: 
FOCAL_MECHANISM: 
NETWORK: TK
STATION_CODE: 5204
STATION_NAME: 
STATION_LATITUDE_DEGREE: 41.02264
STATION_LONGITUDE_DEGREE: 37.56312
STATION_ELEVATION_M: 42.0
LOCATION: Kahramanmaras_Pazarck_Turkiye
SENSOR_DEPTH_M: 
VS30_M/S: None
SITE_CLASSIFICATION_EC8: unknown
MORPHOLOGIC_CLASSIFICATION: 
EPICENTRAL_DISTANCE_KM: 417.69
EARTHQUAKE_BACKAZIMUTH_DEGREE: 
DATE_TIME_FIRST_SAMPLE_YYYYMMDD_HHMMSS: 2023/02/06 01:18:05.1458790
DATE_TIME_FIRST_SAMPLE_PRECISION: millisecond
SAMPLING_INTERVAL_S: 0.01
NDATA: 21001
DURATION_S: 
STREAM: HNN
UNITS: cm/s^2
INSTRUMENT: sensor = ACEBOX/SARA | digitizer = 
INSTRUMENT_ANALOG/DIGITAL: 
INSTRUMENTAL_FREQUENCY_HZ: 
INSTRUMENTAL_DAMPING: 
FULL_SCALE_G: 
N_BIT_DIGITAL_CONVERTER: 
PGA_CM/S^2: 4.559
TIME_PGA_S: 
BASELINE_CORRECTION: BASELINE REMOVED
FILTER_TYPE: BUTTERWORTH
FILTER_ORDER: 
LOW_CUT_FREQUENCY_HZ: 
HIGH_CUT_FREQUENCY_HZ: 
LATE/NORMAL_TRIGGERED: 
DATABASE_VERSION: 
HEADER_FORMAT: DYNA 1.2
DATA_TYPE: Acceleration
PROCESSING: Automatic Paolucci et al., 2011
DATA_TIMESTAMP_YYYYMMDD_HHMMSS: 
DATA_LICENSE: U (unknown license)
DATA_CITATION: Turkish Accelerometric Archive v 1.0 - Disaster And Emergency Management Presidency, Earthquake Department
DATA_CREATOR: AFAD
ORIGINAL_DATA_MEDIATOR_CITATION: : AFAD - Disaster And Emergency Management Presidency
ORIGINAL_DATA_MEDIATOR: AFAD PROCESS SERVICE
ORIGINAL_DATA_CREATOR_CITATION: AFAD PROCESS SERVICE
ORIGINAL_DATA_CREATOR: network: TK
USER1: GuestUser
USER2: 
USER3: 
USER4: 
USER5: 
[...]
0.389114
0.301206
0.217740
0.140352
0.058055
-0.019332
-0.100460
-0.190706
-0.274640
-0.356937
-0.436428
-0.507971
-0.576941
-0.640301
-0.697348
-0.749251
-0.794842
-0.831315
-0.854695
-0.856800
-0.839733
-0.807937
-0.749254
-0.670933
-0.586532
-0.483194
-0.370271
-0.250567
-0.112393
0.029755
0.172605
0.320598
0.461110
0.599284
0.730911
0.843601
0.942029
1.027131
1.097270
1.151043
1.191255
1.223285
1.239183
1.243859
1.241988
1.226791
1.205515
1.182602
1.157585
1.132569
1.110124
1.093991
1.074118
1.058921
1.055180
1.041151
1.027123
1.025486
1.021511
1.011925
1.000468
0.996961
0.990882
0.973814
0.961890
0.947161
0.926586
0.910687
0.885904
0.853640
0.825818
0.791683
0.747027
0.698163
0.645324
0.581030
0.510890
0.443556
0.366403
0.284807
0.209524
0.125590
0.044696
-0.026846
-0.103532
-0.172035
-0.236564
-0.303197
-0.352528
-0.384091
-0.400457
-0.403263
-0.392509
-0.364688
-0.328917
-0.280522
-0.225112
-0.172742
-0.111020
-0.051870
0.002839
0.063158
0.117165
0.168600
0.210683
0.242946
0.286666
0.317527
0.334126
0.357973
0.377611
0.397718
0.418291
0.431617
0.449152
0.461776
0.473700
0.487493
0.490298
0.499650
0.507131
0.499649
0.497544
0.490296
0.471826
0.452654
0.423429
0.383917
0.334585
0.280578
0.227038
0.159703
0.084187
0.008903
-0.071523
-0.154054
-0.248509
-0.353484
-0.455420
-0.560863
-0.670982
-0.777828
-0.885609
-0.996429
-1.109821
-1.222746
-1.331462
-1.436671
-1.532996
-1.622774
-1.711852
-1.796954
-1.880888
-1.965055
-2.041975
-2.112115
-2.178514
-2.237197
-2.289334
-2.338198
-2.373268
-2.395012
-2.412080
-2.412781
-2.404365
-2.393611
-2.369998
-2.346385
-2.315758
-2.266661
-2.220603
-2.165193
-2.097393
-2.035904
-1.963661
-1.885807
-1.818007
-1.745062
-1.668845
-1.605720
-1.553584
-1.499811
-1.446271
-1.407228
-1.374029
-1.338258
-1.310203
-1.287525
-1.264847
-1.239831
-1.217153
-1.200321
-1.180214
-1.155198
-1.132287
-1.103063
-1.064019
-1.025443
-0.984762
-0.930522
-0.867163
-0.798895
-0.717300
-0.634770
-0.561592
-0.490284
-0.428562
-0.373153
-0.319613
-0.281972
-0.249943
-0.224693
-0.212770
-0.198509
-0.197340
-0.211134
-0.229839
-0.273325
-0.327099
-0.384380
-0.457325
-0.529335
-0.605553
-0.690188
-0.772018
-0.855951
-0.934975
-1.007921
-1.072449
-1.121781
-1.166436
-1.202208
-1.223250
-1.228862
-1.212730
-1.187714
-1.151476
-1.094664
-1.025460
-0.939189
-0.835150
-0.720590
-0.587559
-0.443073
-0.296483
-0.137969
0.026157
0.183034
0.339678
0.493984
0.638704
0.777579
0.907570
1.021195
1.123832
1.215480
1.291697
1.354121
1.399477
1.430338
1.453717
1.467277
1.472654
1.476160
1.471250
1.458157
1.440388
1.413735
1.384042
1.351778
1.312733
1.273688
1.230903
1.182039
1.129668
1.073089
1.017444
0.955955
0.889089
0.822924
0.740861
0.649445
0.560836
0.459367
0.350651
0.241000
0.119659
-0.002618
-0.124894
-0.254418
-0.373188
-0.476293
-0.581268
-0.684607
-0.775788
-0.864865
-0.958852
-1.041149
-1.115263
-1.195924
-1.269571
-1.332229
-1.392315
-1.443985
-1.493550
-1.540076
-1.579121
-1.620269
-1.653001
-1.679655
-1.706776
-1.722207
-1.734365
-1.739275
-1.734833
-1.727352
-1.698361
-1.663292
-1.627989
-1.566501
-1.496596
-1.421080
-1.325224
-1.222353
-1.112235
-0.991830
-0.859501
-0.718522
-0.573802
-0.414352
-0.247655
-0.076282
0.106313
0.287038
0.471971
0.661346
0.844409
1.028407
1.208664
1.375128
1.526862
1.658489
1.770244
1.863762
1.934135
1.977855
2.000532
1.998428
1.969203
1.922677
1.854641
1.768136
1.675552
1.565667
1.448066
1.334674
1.213333
1.098070
0.994732
0.887652
0.789924
0.704588
0.623694
0.554255
0.484583
0.410937
0.348980
0.289829
0.226469
0.170124
0.116350
0.059771
0.010673
-0.025566
-0.055960
-0.078639
-0.089394
-0.096876
-0.102254
-0.104124
-0.101086
-0.091500
-0.075135
-0.048950
-0.019258
0.019552
0.080572
0.145334
0.208225
0.289586
0.377259
0.458153
0.542319
0.629993
0.709951
0.785701
0.858178
0.922004
0.984661
1.037032
1.079348
1.120730
1.144109
1.155097
1.167021
1.163747
1.147147
1.126339
1.094308
1.051757
1.012478
0.973434
0.932752
0.905398
0.887863
0.878276
0.887628
0.910306
0.941868
0.977171
1.017617
1.059467
1.096874
1.145270
1.188522
1.223825
1.271753
1.308458
1.339787
1.384675
1.426291
1.467673
1.506483
1.539915
1.572179
1.596493
1.618236
1.631562
1.631094
1.625249
1.612623
1.596724
1.574279
1.542483
1.508114
1.459484
1.393553
1.320140
1.231998
1.134738
1.037244
0.928294
0.817240
0.717875
0.616173
0.518913
0.442461
0.373023
0.312469
0.272489
0.243965
0.232743
0.242796
0.262668
0.301478
0.354783
0.409725
0.477994
0.550704
0.618271
0.687241
0.746859
0.799229
0.847625
0.874978
0.886434
0.887603
0.868197
0.836634
0.795018
0.738204
0.675546
0.613590
0.547658
0.482896
0.428187
0.385402
0.351968
0.326952
0.317599
0.330458
0.358045
0.402700
0.467696
0.540640
0.618260
0.702427
0.787996
0.874033
0.955628
1.034885
1.109232
1.165109
1.216544
1.260965
1.280837
1.288552
1.279901
1.254417
1.219347
1.165807
1.105019
1.035581
0.951881
0.870753
0.781910
0.686520
0.589961
0.484051
0.375335
0.259137
0.143173
0.029080
-0.099042
-0.219682
-0.340321
-0.465871
-0.568976
-0.669042
-0.764899
-0.838545
-0.904944
-0.964329
-1.011323
-1.045691
-1.071643
-1.090114
-1.091985
-1.088244
-1.078191
-1.048266
-1.012729
-0.968308
-0.902144
-0.836681
-0.776128
-0.702482
-0.623693
-0.547943
-0.469154
-0.393170
-0.319758
-0.249152
-0.192339
-0.139268
-0.080819
-0.032657
0.002880
0.035377
0.057353
0.064367
0.065302
0.058054
0.043792
0.030698
0.011760
-0.012087
-0.029623
-0.047158
-0.065161
-0.069837
-0.070071
-0.073345
-0.066097
-0.047628
-0.023781
0.003339
0.026718
0.054306
0.089843
0.129822
0.172139
0.216326
0.263553
0.307974
0.351693
0.390737
0.415285
0.436560
0.450588
0.450120
0.445911
0.430012
0.412711
0.403359
0.385590
0.368522
0.349350
0.327840
0.316150
0.301187
0.286223
0.280378
0.278741
0.281078
0.283182
0.293469
0.314978
0.337889
0.363607
0.390961
0.422289
0.455488
0.488453
0.529601
0.565839
0.599973
0.641588
0.670579
0.699569
0.741185
0.776488
0.814596
0.855510
0.894320
0.940378
0.982461
1.030389
1.091643
1.149157
1.218828
1.292474
1.357002
1.432284
1.500552
1.549416
1.600149
1.642232
1.662806
1.673794
1.680106
1.670052
1.643399
1.611602
1.571389
1.519251
1.463607
1.407729
1.350449
1.292700
1.233549
1.176502
1.119221
1.056563
0.998347
0.947145
0.900619
0.859237
0.822296
0.799384
0.785823
0.775068
0.773197
0.771326
0.770157
0.772495
0.766182
0.755193
0.744438
0.727838
0.709133
0.698144
0.686922
0.667984
0.662606
0.665879
0.658397
0.651382
0.638757
0.620520
0.608596
0.590827
0.576098
0.571655
0.564173
0.559263
0.557392
0.557626
0.560898
0.557391
0.552481
0.549207
0.546869
0.545933
0.545465
0.550608
0.556920
0.558557
0.557387
0.555049
0.555282
0.550840
0.546631
0.544526
0.533303
0.525588
0.528159
0.532133
0.537510
0.546862
0.561357
0.580995
0.605076
0.630793
0.651367
0.672408
0.690410
0.697424
0.695787
0.683863
0.658144
0.615593
0.559014
0.487004
0.397225
0.300433
0.194756
0.082766
-0.029223
-0.147057
-0.264658
-0.384128
-0.505937
-0.616991
-0.725006
-0.835125
-0.940100
-1.038763
-1.138128
-1.236790
-1.325166
-1.416114
-1.511503
-1.598944
-1.688956
-1.780839
-1.873657
-1.972554
-2.063969
-2.153747
-2.248202
-2.334941
-2.416771
-2.498834
-2.584404
-2.671611
-2.756012
-2.836205
-2.907981
-2.971107
-3.032362
-3.094319
-3.151833
-3.203269
-3.250731
-3.291646
-3.326014
-3.353369
-3.371605
-3.388205
-3.398025
-3.399662
-3.402702
-3.403404
-3.405742
-3.412991
-3.415797
-3.424681
-3.439878
-3.451101
-3.465597
-3.481963
-3.496693
-3.517735
-3.539479
-3.559819
-3.585070
-3.613594
-3.641650
-3.675317
-3.718804
-3.760654
-3.803673
-3.858616
-3.903739
-3.949330
-4.011053
-4.061787
-4.120003
-4.192247
-4.248826
-4.314056
-4.382559
-4.430488
-4.477014
-4.516059
-4.537568
-4.550428
-4.547623
-4.530322
-4.505306
-4.472809
-4.433531
-4.387474
-4.335103
-4.276654
-4.216101
-4.156250
-4.096632
-4.040755
-3.984644
-3.926429
-3.872890
-3.824260
-3.774929
-3.725832
-3.679541
-3.635354
-3.585321
-3.532016
-3.480347
-3.420262
-3.356903
-3.296584
-3.217561
-3.128718
-3.044786
-2.950799
-2.854242
-2.759554
-2.651073
-2.537681
-2.430369
-2.323290
-2.212003
-2.100248
-1.988260
-1.873466
-1.759607
-1.641774
-1.520433
-1.408679
-1.293885
-1.173479
-1.056114
-0.947398
-0.846165
-0.739320
-0.642528
-0.558829
-0.468584
-0.382780
-0.298848
-0.209304
-0.122565
-0.028813
0.062367
0.150742
0.251742
0.350872
0.455379
0.574148
0.692215
0.812620
0.933726
1.045949
1.156534
1.262210
1.352456
1.440363
1.523594
1.590460
1.656390
1.719983
1.766742
1.803448
1.835711
1.856519
1.863532
1.869377
1.874987
1.868675
1.862362
1.855347
1.837578
1.818874
1.794792
1.758787
1.717405
1.673450
1.626457
1.576658
1.529898
1.487112
1.443859
1.404581
1.365303
1.329297
1.299839
1.268743
1.245129
1.229231
1.205850
1.186211
1.178028
1.166337
1.150205
1.146464
1.147399
1.141086
1.142722
1.151372
1.160022
1.177790
1.206781
1.240447
1.276451
1.323210
1.375814
1.427483
1.488971
1.551629
1.611480
1.680918
1.747783
1.811376
1.879878
1.948614
2.013375
2.072058
2.125129
2.173291
2.217479
2.255353
2.274524
2.273355
2.257456
2.223789
2.170483
2.100343
2.013838
1.915876
1.803653
1.675532
1.547878
1.416484
1.279244
1.147850
1.012481
0.873605
0.743613
0.621337
0.503502
0.391747
0.291447
0.193720
0.101837
0.032866
-0.030961
-0.078188
-0.093619
-0.108583
-0.117000
-0.103440
-0.090348
-0.070242
-0.040316
-0.021145
0.001533
0.026315
0.032159
0.036134
0.041511
0.029119
0.008778
-0.014368
-0.049438
-0.093626
-0.139451
-0.183172
-0.226658
-0.264768
-0.297500
-0.326023
-0.343559
-0.356184
-0.366705
-0.368810
-0.370213
-0.370447
-0.367642
-0.371150
-0.373956
-0.372787
-0.371619
-0.362735
-0.350811
-0.342395
-0.332576
-0.325563
-0.322757
-0.319952
-0.323460
-0.331643
-0.337956
-0.345905
-0.357128
-0.369987
-0.380743
-0.393602
-0.414878
-0.439895
-0.472627
-0.516113
-0.567082
-0.624830
-0.685851
-0.751081
-0.826832
-0.910766
-0.997037
-1.087751
-1.189687
-1.293493
-1.395663
-1.502275
-1.604445
-1.705212
-1.803174
-1.887341
-1.970106
-2.053572
-2.128855
-2.198293
-2.266328
-2.332026
-2.393047
-2.458511
-2.527715
-2.591309
-2.660747
-2.728549
-2.779517
-2.830485
-2.872101
-2.892676
-2.904600
-2.902263
-2.887534
-2.870233
-2.839840
-2.795185
-2.741178
-2.672910
-2.596926
-2.514630
-2.415500
-2.301642
-2.185211
-2.056623
-1.913539
-1.767650
-1.615682
-1.459039
-1.300758
-1.133126
-0.967131
-0.803005
-0.629061
-0.462364
-0.307824
-0.148608
0.005697
0.150885
0.298644
0.430272
0.541559
0.651443
0.740987
0.807853
0.869809
0.911892
0.940882
0.963794
0.966833
0.962390
0.954207
0.938776
0.919604
0.895523
0.870740
0.838241
0.800600
0.766699
0.726485
0.686973
0.648630
0.605143
0.560721
0.516065
0.479593
0.443821
0.409686
0.392853
0.377188
0.367134
0.369939
0.368770
0.377887
0.396825
0.407345
0.418567
0.432360
0.442413
0.445452
0.444750
0.443581
0.436800
0.425578
0.406640
0.382558
0.359879
0.330421
0.305404
0.288804
0.266826
0.252564
0.249992
0.245550
0.246484
0.260044
0.276410
0.294412
0.315921
0.331585
0.347716
0.367822
0.379512
0.386058
0.386525
0.379510
0.370392
0.351922
0.333685
0.319423
0.295341
0.270558
0.247880
0.222863
0.202756
0.186857
0.179609
0.175868
0.165580
0.163476
0.165580
0.167683
0.177970
0.187321
0.202752
0.225430
0.245302
0.276163
0.310063
0.336248
0.366173
0.391423
0.401476
0.408256
0.418309
0.421581
0.420412
0.419944
0.413397
0.412462
0.414331
0.411058
0.416201
0.417837
0.418071
0.424383
0.425084
0.435604
0.446358
0.446358
0.452202
0.457112
0.468334
0.486336
0.499662
0.523041
0.548758
0.571904
0.597621
0.619597
0.644847
0.669863
0.685995
0.696515
0.700022
0.700489
0.698852
0.695812
0.696279
0.696746
0.697915
0.703292
0.709370
0.712175
0.718955
0.728306
0.731345
0.737657
0.744203
0.747944
0.760802
0.770387
0.778102
0.788623
0.796805
0.808728
0.813170
0.814105
0.817845
0.811532
0.805219
0.797971
0.782306
0.766875
0.748405
0.733208
0.718478
0.697436
0.678965
0.659092
0.633140
0.599239
0.561831
0.527930
0.487483
0.443529
0.408926
0.377597
0.345099
0.313068
0.280804
0.247838
0.217678
0.195466
0.177931
0.164604
0.151511
0.135846
0.127429
0.126727
0.130234
0.143326
0.163432
0.187045
0.213230
0.241286
0.276822
0.316334
0.360521
0.409150
0.452402
0.496823
0.550363
0.603902
0.653934
0.709344
0.768260
0.821799
0.876741
0.930280
0.979845
1.028708
1.073129
1.121057
1.165478
1.204054
1.250112
1.288922
1.322588
1.361866
1.394129
1.426393
1.457488
1.479932
1.498401
1.505181
1.504479
1.503544
1.496763
1.489982
1.484137
1.476889
1.478525
1.487643
1.500969
1.526452
1.556846
1.587473
1.628387
1.670704
1.712787
1.768196
1.827814
1.885562
1.946115
1.999654
2.047114
2.092938
2.135489
2.181079
2.226201
2.271557
2.320421
2.363205
2.402716
2.443163
2.476596
2.513535
2.557489
2.600974
2.653111
2.711326
2.775152
2.856279
2.940680
3.025548
3.124444
3.224041
3.324339
3.430249
3.534756
3.638795
3.736288
3.836119
3.939925
4.029001
4.118078
4.205050
4.278228
4.354445
4.420376
4.467369
4.508283
4.534701
4.550833
4.559016
4.553638
4.542415
4.527218
4.501266
4.463624
4.417098
4.365896
4.310252
4.251101
4.190781
4.123447
4.045358
3.962359
3.877958
3.791453
3.706818
3.622416
3.537548
3.455718
3.372954
3.289020
3.203917
3.119048
3.033478
2.944167
2.858129
2.773728
2.683248
2.594171
2.509536
2.423498
2.332784
2.234355
2.133355
2.028379
1.920832
1.817026
1.710414
1.599359
1.486435
1.370705
1.261755
1.154909
1.045492
0.944958
0.846062
0.748334
0.656919
0.559893
0.458892
0.359528
0.265073
0.178568
0.090893
0.009531
-0.067388
-0.152725
-0.242036
-0.336724
-0.433283
-0.527971
-0.624997
-0.714776
-0.805724
-0.904153
-1.000244
-1.097270
-1.191023
-1.275191
-1.347902
-1.417106
-1.493091
-1.558321
-1.613264
-1.670310
-1.721279
-1.766402
-1.806148
-1.839114
-1.867404
-1.884004
-1.899201
-1.917438
-1.925387
-1.936844
-1.957184
-1.977993
-2.002542
-2.025688
-2.051173
-2.081567
-2.106817
-2.139315
-2.174152
-2.200571
-2.234706
-2.269075
-2.295260
-2.320745
-2.332902
-2.341787
-2.352308
-2.351374
-2.349971
-2.343893
-2.327761
-2.305551
-2.274457
-2.244531
-2.211332
-2.167846
-2.123425
-2.071055
-2.015412
-1.961405
-1.900618
-1.841702
-1.780213
-1.714283
-1.651626
-1.581955
-1.510413
-1.443547
-1.374110
-1.306309
-1.238742
-1.167434
-1.097763
-1.033002
-0.967072
-0.897400
-0.832171
-0.770215
-0.709195
-0.656825
-0.609832
-0.572425
-0.547876
-0.525666
-0.510703
-0.510002
-0.515848
-0.526837
-0.555127
-0.600016
-0.650283
-0.710135
-0.773963
-0.837790
-0.908397
-0.975263
-1.039090
-1.102216
-1.164407
-1.229870
-1.281306
-1.320351
-1.365941
-1.406856
-1.442160
-1.484244
-1.524458
-1.559762
-1.596000
-1.625459
-1.648138
-1.670817
-1.687651
-1.697938
-1.701446
-1.696770
-1.690224
-1.674560
-1.652350
-1.632945
-1.608163
-1.583147
-1.556261
-1.523062
-1.494072
-1.461107
-1.422531
-1.386059
-1.345846
-1.303295
-1.269395
-1.239937
-1.207907
-1.177748
-1.150160
-1.119065
-1.085165
-1.055941
-1.028587
-0.996557
-0.973646
-0.953773
-0.923146
-0.893221
-0.862827
-0.825420
-0.780999
-0.732370
-0.688183
-0.633708
-0.576428
-0.526630
-0.464908
-0.405758
-0.347309
-0.276001
-0.213110
-0.150686
-0.086626
-0.037997
0.010632
0.062301
0.102748
0.138518
0.168210
0.184809
0.193459
0.194160
0.184574
0.169611
0.142256
0.107420
0.069310
0.020446
-0.030522
-0.077516
-0.123340
-0.165190
-0.206339
-0.241877
-0.272505
-0.307575
-0.331422
-0.345684
-0.367662
-0.386600
-0.397355
-0.409279
-0.416527
-0.415358
-0.417463
-0.425646
-0.425881
-0.422140
-0.423310
-0.419803
-0.415361
-0.417934
-0.417934
-0.418402
-0.422611
-0.424949
-0.434769
-0.451603
-0.464930
-0.488076
-0.518236
-0.543253
-0.570374
-0.597963
-0.620875
-0.645658
-0.665531
-0.682599
-0.705979
-0.728892
-0.752272
-0.784536
-0.816567
-0.842519
-0.863795
-0.884136
-0.906814
-0.928558
-0.953808
-0.981864
-1.003842
-1.029326
-1.060655
-1.090348
-1.128691
-1.173347
-1.218003
-1.271543
-1.332564
-1.394988
-1.458582
-1.525682
-1.599796
-1.676482
-1.755974
-1.843648
-1.927348
-2.006839
-2.085629
-2.155068
-2.222168
-2.288333
-2.350523
-2.419494
-2.479580
-2.524236
-2.574970
-2.614015
-2.639266
-2.678310
-2.711977
-2.732084
-2.763180
-2.795678
-2.819058
-2.843841
-2.865117
-2.878444
-2.883588
-2.882887
-2.882654
-2.878913
-2.876809
-2.881720
-2.890137
-2.912348
-2.946249
-2.982020
-3.029248
-3.081385
-3.130249
-3.181919
-3.233822
-3.285258
-3.341370
-3.402859
-3.473700
-3.549918
-3.625669
-3.701420
-3.765480
-3.806863
-3.826269
-3.820658
-3.793304
-3.750520
-3.699552
-3.648351
-3.591305
-3.537064
-3.490071
-3.436532
-3.377382
-3.303970
-3.202970
-3.072979
-2.914933
-2.769044
-2.656821
-2.567044
-2.512336
-2.484047
-2.462070
-2.438457
-2.409934
-2.385152
-2.355928
-2.331613
-2.320625
-2.299116
-2.288128
-2.291402
-2.292104
-2.316887
-2.355230
-2.390767
-2.425837
-2.440099
-2.435891
-2.422799
-2.399654
-2.375105
-2.347985
-2.324840
-2.305903
-2.272470
-2.228517
-2.175445
-2.098760
-2.018334
-1.942117
-1.842753
-1.737779
-1.639350
-1.529700
-1.426128
-1.329804
-1.238624
-1.165212
-1.097879
-1.034052
-0.964615
-0.884189
-0.820363
-0.774539
-0.734560
-0.702297
-0.678216
-0.658110
-0.634730
-0.603870
-0.562020
-0.516664
-0.475282
-0.436005
-0.406079
-0.375920
-0.335473
-0.293858
-0.246164
-0.195898
-0.148905
-0.095833
-0.037852
0.027845
0.101958
0.169993
0.231247
0.293671
0.358900
0.421323
0.471355
0.507126
0.526063
0.528634
0.524893
0.522087
0.526763
0.538452
0.557857
0.599706
0.664000
0.733905
0.810122
0.882365
0.939178
0.986170
1.021006
1.043450
1.061218
1.074544
1.082493
1.086233
1.091610
1.097455
1.102831
1.111949
1.123872
1.139536
1.151927
1.153797
1.146081
1.124805
1.104465
1.085760
1.067991
1.076875
1.101190
1.133687
1.186993
1.248247
1.318152
1.377068
1.410969
1.446973
1.476665
1.500746
1.543530
1.592393
1.653648
1.738048
1.829229
1.924384
2.018136
2.110252
2.207511
2.293548
2.367194
2.433124
2.476376
2.488767
2.471232
2.433356
2.402962
2.388232
2.384491
2.404130
2.440134
2.477775
2.523365
2.557967
2.570591
2.563577
2.529208
2.486423
2.449249
2.423531
2.415114
2.410203
2.414879
2.424698
2.429841
2.438959
2.440361
2.447141
2.477768
2.512369
2.560531
2.632307
2.703614
2.774221
2.853711
2.930396
3.001938
3.075116
3.145021
3.207444
3.265893
3.315692
3.354034
3.376946
3.386063
3.390271
3.389102
3.390037
3.394946
3.391439
3.381385
3.361979
3.328546
3.288332
3.251626
3.228713
3.215386
3.207904
3.197383
3.172366
3.155299
3.148752
3.141972
3.147115
3.160674
3.173533
3.178442
3.179143
3.184053
3.179142
3.169322
3.152956
3.116951
3.074867
3.029276
2.989063
2.976203
2.977372
2.978774
