EVENT_NAME: 202302060117
EVENT_ID: 13194
EVENT_DATE_YYYYMMDD: 2023/02/06
EVENT_TIME_HHMMSS: 01:17:32.00000
EVENT_LATITUDE_DEGREE: 37.288
EVENT_LONGITUDE_DEGREE: 37.043
EVENT_DEPTH_KM: 8.6
HYPOCENTER_REFERENCE: AFAD
MAGNITUDE_W: 7.7
MAGNITUDE_W_REFERENCE: AFAD
MAGNITUDE_L: 
MAGNITUDE_L_REFERENCE: 
FOCAL_MECHANISM: 
NETWORK: TK
STATION_CODE: 4620
STATION_NAME: 
STATION_LATITUDE_DEGREE: 37.58568
STATION_LONGITUDE_DEGREE: 36.89845
STATION_ELEVATION_M: 698.0
LOCATION: Kahramanmaras_Pazarck_Turkiye
SENSOR_DEPTH_M: 
VS30_M/S: 484
SITE_CLASSIFICATION_EC8: B
MORPHOLOGIC_CLASSIFICATION: 
EPICENTRAL_DISTANCE_KM: 35.48
EARTHQUAKE_BACKAZIMUTH_DEGREE: 
DATE_TIME_FIRST_SAMPLE_YYYYMMDD_HHMMSS: 2023/02/06 01:17:08.2897500
DATE_TIME_FIRST_SAMPLE_PRECISION: millisecond
SAMPLING_INTERVAL_S: 0.01
NDATA: 10501
DURATION_S: 
STREAM: HNN
UNITS: cm/s^2
INSTRUMENT: sensor = GMS+/GEOSIG | digitizer = 
INSTRUMENT_ANALOG/DIGITAL: 
INSTRUMENTAL_FREQUENCY_HZ: 
INSTRUMENTAL_DAMPING: 
FULL_SCALE_G: 
N_BIT_DIGITAL_CONVERTER: 
PGA_CM/S^2: 300.405
TIME_PGA_S: 
BASELINE_CORRECTION: BASELINE REMOVED
FILTER_TYPE: BUTTERWORTH
FILTER_ORDER: 
LOW_CUT_FREQUENCY_HZ: 
HIGH_CUT_FREQUENCY_HZ: 
LATE/NORMAL_TRIGGERED: 
DATABASE_VERSION: 
HEADER_FORMAT: DYNA 1.2
DATA_TYPE: Acceleration
PROCESSING: Automatic Paolucci et al., 2011
DATA_TIMESTAMP_YYYYMMDD_HHMMSS: 
DATA_LICENSE: U (unknown license)
DATA_CITATION: Turkish Accelerometric Archive v 1.0 - Disaster And Emergency Management Presidency, Earthquake Department
DATA_CREATOR: AFAD
ORIGINAL_DATA_MEDIATOR_CITATION: : AFAD - Disaster And Emergency Management Presidency
ORIGINAL_DATA_MEDIATOR: AFAD PROCESS SERVICE
ORIGINAL_DATA_CREATOR_CITATION: AFAD PROCESS SERVICE
ORIGINAL_DATA_CREATOR: network: TK
USER1: GuestUser
USER2: 
USER3: 
USER4: 
USER5: 
[...]
49.925452
23.200802
1.321344
-6.672999
-11.296853
-26.939803
-46.157419
-54.427635
-50.895816
-35.447143
-10.015848
6.907787
3.654209
-5.239451
-3.980341
11.062575
27.715532
32.386434
30.580802
28.742179
28.937280
28.661940
21.313121
4.308208
-19.536914
-38.807783
-43.719719
-25.744803
1.813211
17.040042
27.375703
34.147089
31.575661
24.045263
17.727203
19.128666
28.982197
36.506650
29.751919
11.838338
-9.825253
-27.543748
-36.448578
-30.906414
-10.620603
10.826371
27.540893
35.944141
34.492053
30.198364
24.287100
10.475774
-5.440712
-13.304911
-15.542017
-8.604381
6.988464
18.211232
16.727712
6.350258
-1.538879
-3.541415
3.838867
18.572139
26.559238
26.195837
19.760362
4.002075
-10.184356
-6.686566
5.310830
6.230424
-4.033252
-11.708080
-11.678192
-9.490672
-4.702874
-1.878922
-6.772156
-19.075010
-35.217753
-40.433098
-27.230379
-4.116994
21.550170
42.318631
47.238130
39.757349
24.811876
2.117006
-12.842494
-9.179492
2.878950
7.743379
-6.716847
-39.910757
-73.506268
-88.891008
-80.262023
-54.907619
-31.377047
-17.345668
-10.338413
-13.919299
-16.336684
-3.968080
15.907558
32.956921
41.112090
36.170800
21.856043
11.835251
9.838170
3.812348
-14.157603
-34.570931
-40.132547
-33.921741
-25.857231
-17.008222
-18.554345
-33.090684
-47.423104
-50.081554
-39.544314
-20.020921
2.894002
16.816538
19.391113
18.951081
22.809948
30.368430
36.932521
35.420427
22.660641
19.326015
30.045094
35.254235
25.316048
0.449519
-15.228500
-1.483385
22.510354
27.049554
9.425354
-18.490071
-41.780849
-41.123101
-21.431899
2.207777
13.207924
-4.299640
-37.316128
-54.690951
-46.315758
-25.235317
-5.770891
-0.269771
-9.170185
-21.838272
-26.718257
-18.772721
-0.006292
15.787093
16.557579
6.360404
-11.984911
-34.375852
-54.020267
-62.618051
-54.343129
-37.984489
-21.316205
-3.330639
10.524358
13.491962
11.819331
13.334832
16.907175
18.186287
5.221545
-22.924555
-41.754078
-38.397601
-26.626723
-22.877997
-25.289927
-26.336517
-28.563493
-25.668884
-12.752948
0.965670
11.356142
16.708935
21.200857
34.196541
49.560790
52.912330
43.033631
31.013664
18.038271
6.611355
7.493282
16.143309
28.919230
45.444381
61.132041
67.403113
54.097815
29.428449
5.107952
-9.479820
-7.666106
5.130337
14.089747
13.949747
10.895151
4.188218
1.157780
2.294020
-1.141656
-11.885902
-24.894026
-30.097942
-26.151793
-15.827042
-11.902193
-16.316934
-16.157162
-8.698951
2.097019
12.149793
20.945290
22.027238
11.719402
-4.556862
-22.683713
-36.091359
-46.825215
-61.280765
-66.885244
-55.857301
-40.259781
-25.004895
-10.115502
2.468710
8.154265
3.826547
2.376017
8.971280
11.761722
10.059737
10.096120
10.526310
11.343555
17.918296
31.936427
41.380824
38.149846
25.463574
7.152808
-3.097619
-1.145968
1.524721
5.306697
12.348760
16.023452
10.707316
-1.633983
-3.905639
12.040490
28.717865
32.103435
27.059536
23.275252
28.308011
41.155108
46.667139
37.476045
16.374332
-6.315602
-21.322640
-36.787908
-56.635462
-76.218831
-82.674829
-67.570348
-47.136209
-37.015896
-38.335762
-47.132268
-57.149684
-50.786394
-23.622967
-1.204460
6.909146
10.643065
15.312148
20.537914
20.370898
9.765888
-5.863814
-7.958048
5.918769
15.139766
9.952995
-0.748649
-6.187136
-4.952184
6.634779
21.925253
26.354051
23.455836
21.061310
26.033023
30.467796
26.090461
12.794255
-6.878734
-15.233635
-12.706338
-11.119401
-17.117428
-27.589697
-27.061574
-16.947755
-6.371808
-4.837085
-18.067829
-33.494652
-44.323063
-43.404509
-24.451567
-11.408864
-15.875039
-22.860963
-23.344117
-11.227487
10.392752
28.506385
35.537798
32.792845
24.774343
13.722272
6.423328
8.573442
14.651507
21.553295
28.585228
31.847149
31.466863
28.322127
26.684825
26.070489
18.756478
11.700157
9.975053
11.414702
18.588727
19.690678
9.163857
-0.174005
-1.243975
9.590700
20.748527
17.418837
9.392542
5.414211
9.954969
28.944279
49.982638
56.006412
43.207661
15.402896
-14.911486
-32.232017
-32.615160
-18.432596
3.535733
23.743354
34.096679
29.634920
13.958720
-5.940267
-18.814350
-19.888476
-13.130599
-1.424402
6.180579
1.804543
-7.610731
-10.077212
-3.589753
5.315106
6.635261
2.151422
-0.382080
-0.207501
0.251524
-0.190846
5.091030
19.605058
42.694545
61.591637
64.099452
56.192131
40.656465
22.550916
12.956662
14.024842
16.555516
16.035216
15.146825
16.104344
21.384142
25.282234
22.092819
13.635569
6.844731
5.741771
-0.774492
-15.922324
-28.940059
-35.687516
-34.062653
-22.116951
-9.189845
-3.669242
2.787304
10.707124
16.198632
24.782678
40.400720
55.575078
59.853990
56.308952
43.887125
28.622397
22.417076
24.723570
29.217570
32.722114
32.593284
16.812917
-11.150826
-37.703249
-54.230968
-50.891377
-37.904524
-37.214566
-42.753323
-38.898871
-25.821620
-10.973270
-0.257829
0.964394
-13.068514
-24.208127
-23.652469
-24.648664
-28.420739
-36.087514
-40.795274
-30.955510
-14.312684
-7.805742
-8.803496
-10.909419
-15.730437
-9.596523
6.155040
11.278198
0.004025
-20.244610
-37.053139
-43.615641
-40.637646
-34.093298
-24.635393
-10.773123
-2.066467
-1.733689
-5.344448
-12.341802
-20.856720
-20.080778
-2.359136
22.140891
38.517714
47.845736
58.466882
59.322832
47.627315
38.976539
32.882398
25.239521
22.827071
26.140946
21.839204
2.463129
-24.446475
-39.440784
-31.302760
-12.575816
7.944826
22.352609
19.041882
6.187021
-4.451500
-10.436018
-7.806633
1.577499
13.430724
19.290583
13.706107
6.341961
-1.568217
-7.657162
-6.033857
1.005868
3.765917
-4.896809
-14.905912
-21.474648
-20.922367
-10.901025
1.107022
7.851651
9.539118
19.267961
38.146350
57.276195
71.871010
77.183539
73.416919
61.980651
40.387977
14.875664
-1.524769
-3.475611
3.483846
4.990775
2.829521
1.323141
-4.587863
-6.070603
-4.429115
-6.645960
-9.328828
-14.605219
-23.829304
-29.862658
-26.131857
-21.933213
-23.921981
-26.768244
-26.279605
-19.479905
-9.511296
6.242604
20.003565
12.961791
-10.100131
-33.561576
-44.257245
-39.521142
-26.665472
-14.968627
-12.519001
-16.555779
-22.138437
-24.977945
-23.821703
-18.690493
-9.125044
0.651077
9.273049
10.040938
-2.913933
-19.730774
-24.029919
-10.214147
6.369712
9.772427
1.657552
-8.393634
-13.670804
-2.836649
20.342718
31.000751
25.501998
8.674247
-8.032712
-11.628405
-6.796707
1.676678
-1.896415
-19.137197
-32.000630
-31.900085
-17.767137
2.921056
16.846449
13.487405
-0.283137
-9.087177
-8.916495
-2.476313
10.470795
22.698865
19.941183
6.985013
-0.281460
0.126391
0.197322
-6.067486
-16.729386
-24.916477
-23.981557
-19.034782
-18.626931
-13.768477
-3.464508
3.644576
4.984993
4.177909
11.833804
14.183420
5.909567
0.042463
-10.707498
-17.309225
-10.538099
4.505336
20.605766
26.616811
20.117692
-3.384017
-30.519879
-44.834115
-46.556622
-31.482534
-1.740651
18.735831
10.039855
-19.726677
-46.951120
-39.573956
3.455576
57.928145
100.549842
108.003638
85.808821
47.345519
3.875191
-19.181016
-13.131266
9.389329
35.096237
49.751319
52.232118
48.577458
36.387343
17.513919
1.640036
-13.930958
-30.749617
-28.253492
-4.781627
24.489037
47.930769
53.612168
49.002861
46.585735
45.255738
44.858568
44.721425
34.942737
14.609677
0.183480
1.624688
15.716593
33.367059
43.284493
43.321135
42.240516
47.585256
45.385556
24.046675
-5.976508
-38.116020
-58.450897
-40.696784
13.611612
54.137760
54.716278
38.564184
23.491165
20.708545
48.560358
98.761822
120.150349
101.341607
56.515550
2.605668
-23.770113
-20.313886
-6.694239
-5.266800
-24.285693
-54.307837
-76.215090
-68.908323
-45.755972
-36.405871
-39.968573
-35.961898
-17.164297
10.500223
21.285542
3.414303
-30.421753
-66.114630
-81.469757
-63.261569
-17.271202
16.732953
18.952945
10.411011
2.632535
-3.093255
-16.121380
-35.515379
-52.014524
-57.989171
-54.871681
-51.375710
-49.336777
-61.327129
-90.137715
-116.140470
-122.824543
-106.984660
-84.258848
-66.615915
-43.847242
-20.472011
-9.875802
0.942767
15.776310
21.360556
8.343080
-23.772793
-43.297714
-32.673191
-7.752081
8.480312
-2.154312
-25.931894
-53.814070
-80.155821
-84.223772
-59.857526
-27.351971
-4.277551
14.723708
23.901064
15.828011
-4.477253
-35.551976
-66.966736
-73.293369
-53.604504
-31.547854
-14.978802
-0.569461
11.320652
20.886360
37.188891
53.620006
48.845227
14.274027
-29.183053
-45.106293
-32.836140
2.899888
37.892980
41.293357
37.748839
25.871745
6.812587
8.753068
33.557283
59.528895
51.108013
14.852738
-27.371743
-55.408481
-51.221267
-26.913209
-4.785123
1.013172
-2.421725
-15.946007
-24.272593
-12.793694
-10.902309
-18.936656
-22.236213
-24.584500
-28.845719
-38.897943
-47.049446
-46.719006
-44.515380
-49.724751
-65.831386
-94.067885
-116.341671
-105.263333
-63.862806
-15.569596
15.470608
32.019917
33.649197
22.067458
23.048097
37.533811
63.626734
90.548317
102.699236
90.180515
38.854545
-16.699408
-44.855639
-51.884424
-34.021208
1.436868
30.025122
36.621424
36.753661
47.473778
64.072704
77.110211
76.914620
69.322398
60.812935
53.411642
43.575805
33.269787
30.856558
23.078342
9.192982
1.258905
4.909179
11.588087
2.899124
-16.497732
-37.094456
-52.851704
-62.911461
-75.202885
-91.292116
-104.124637
-113.662781
-134.638506
-145.414444
-121.770353
-81.230956
-35.526593
15.196226
66.008145
100.604052
112.839656
111.707602
109.535178
117.556047
131.132832
125.846830
82.052310
19.380456
-38.208779
-94.191868
-142.821967
-170.936375
-183.513024
-186.496964
-184.946914
-176.554057
-144.505694
-85.783582
-17.565133
26.368392
35.123365
33.617765
25.494837
7.568787
-6.294753
-19.702919
-46.125978
-68.661090
-66.243415
-55.750854
-51.935368
-46.244618
-39.813269
-40.095102
-41.812413
-29.667468
3.979247
52.717699
97.028146
107.079621
87.485602
56.116302
9.497326
-33.553218
-54.905867
-43.238116
2.803945
54.157221
88.315939
92.727852
62.016804
10.860202
-27.782600
-38.812850
-18.892013
22.419674
44.494767
35.172231
8.987639
-19.801646
-46.552532
-69.272079
-78.881659
-80.996415
-76.647365
-70.451626
-67.346086
-57.999881
-37.653543
-8.423402
9.953634
9.100571
-4.083415
-21.616436
-21.464457
1.195893
30.255366
44.033731
34.728339
14.391383
1.202721
4.058624
17.925051
34.455917
42.921249
55.983174
70.205223
70.275375
59.084328
36.690010
6.081831
-39.180897
-84.764957
-112.655185
-118.269015
-101.932715
-80.781876
-61.303943
-40.166093
-11.427952
15.574418
25.449771
19.682158
-1.004965
-33.157205
-63.989565
-78.983095
-78.224038
-70.011200
-50.729132
-29.362946
-24.573070
-38.710145
-65.373749
-106.071575
-152.295444
-171.242901
-157.309454
-122.651723
-75.042742
-40.290974
-25.010631
-12.098851
-2.240644
7.198818
22.099381
30.563154
22.886767
-2.709710
-15.580417
1.533369
34.661587
70.485416
78.750208
65.962367
41.718242
4.783674
-15.401058
-9.684590
19.593347
58.618297
73.593933
67.070136
60.892610
53.956302
52.044685
65.560684
87.435236
98.351219
87.277587
51.956697
3.354394
-30.233584
-50.514430
-70.061692
-88.409605
-96.939330
-70.528710
-16.412283
41.931088
100.079633
139.918696
152.872558
139.783906
102.804398
64.149128
34.844723
12.565482
-4.832979
-12.655875
-13.759614
-12.377115
12.309945
58.873879
105.097778
133.098956
134.297281
121.299808
103.744187
97.956832
109.107125
129.937670
143.716295
111.469759
30.302948
-75.277631
-159.673877
-193.456680
-187.182231
-139.643387
-73.228248
-23.656201
-11.368644
-27.498658
-36.908736
-27.634227
0.735042
37.325967
47.301330
19.001448
-18.137817
-33.534507
-7.302867
54.586076
110.324234
136.482360
136.102594
128.165140
138.460277
161.170503
186.811949
184.343130
110.760763
-20.382798
-152.293714
-221.774086
-222.437778
-178.804025
-116.145909
-72.825956
-48.595049
-40.410267
-39.205968
-9.523831
46.666064
112.413859
160.272737
173.177503
162.157123
129.429757
98.207226
73.169250
43.492078
13.716195
-17.483736
-41.255084
-61.339546
-67.475509
-51.669136
-34.227523
-19.661022
-3.877248
12.456714
20.949321
24.314889
20.826741
3.798449
-19.197492
-40.077363
-52.222538
-58.587357
-58.361603
-49.738333
-31.889404
-10.403724
1.999689
4.362034
-3.613087
-8.082898
2.374334
20.297037
39.458053
48.051191
40.940059
27.719705
16.690233
14.225830
23.745040
41.201979
54.196365
49.724735
29.345956
0.998017
-19.127228
-29.803416
-43.609546
-39.219713
-24.463841
-12.146411
19.917538
56.745371
86.349318
107.999950
123.053256
126.894719
114.037261
115.079724
119.905708
108.632314
102.301525
84.182727
36.920566
3.180104
-4.221968
-12.494003
-27.243091
-52.406795
-99.572842
-153.176977
-155.410966
-95.844868
8.877988
138.299837
224.817637
253.856069
219.350591
114.903379
6.384305
-68.297660
-96.654431
-70.471887
-21.172077
23.384631
52.132642
54.486934
32.360696
-4.558026
-59.745706
-108.077332
-91.183570
0.079151
114.938151
187.961527
187.841009
135.918092
43.164333
-72.401206
-148.703862
-158.874801
-119.127436
-53.993472
14.033268
70.010153
92.152266
70.244753
22.902064
-32.974261
-76.197291
-91.851930
-99.885239
-89.893770
-61.543983
-29.882674
5.259005
24.819025
29.038710
4.181792
-45.258523
-90.472934
-121.432839
-125.243880
-105.423832
-63.192047
-7.858088
64.117384
162.614122
247.809963
291.320066
300.404685
268.687296
195.796172
103.916792
15.998872
-46.645187
-80.005088
-96.765559
-128.143172
-181.070612
-234.465114
-262.608876
-222.624862
-126.200813
4.531826
144.037606
222.159187
218.838588
159.319278
82.064832
19.920047
-6.511324
14.543400
32.771590
4.827590
-46.201985
-115.076058
-160.286832
-133.888941
-78.590570
-27.486931
-15.799698
-36.901930
-57.202778
-82.714312
-91.319889
-77.278119
-47.626115
-11.678376
41.859289
97.935665
116.830159
111.036310
86.696331
70.779326
78.822275
106.754875
132.296571
111.622956
62.517481
2.649302
-53.375350
-79.997651
-82.156568
-90.211436
-123.958132
-150.134671
-135.426337
-86.918299
-24.149522
34.409716
72.915910
90.885890
78.402498
29.880202
-21.604486
-46.326845
-53.097161
-52.808025
-24.293804
33.155965
74.798336
69.992385
35.601724
-8.588421
-45.054108
-43.994240
-3.384446
44.648996
85.919639
111.157926
85.029445
22.936353
-34.622749
-70.308092
-63.674384
-17.331512
28.989799
32.043906
-3.188143
-48.299426
-82.084307
-100.396113
-95.677154
-53.647209
-7.167958
14.913109
18.349594
9.808180
-4.430465
-23.263884
-54.450827
-89.289327
-121.396887
-146.262118
-149.077208
-135.816041
-107.631206
-79.068669
-54.802434
-17.167502
40.109522
107.966114
152.488272
166.836568
155.988415
126.038227
83.296028
26.408946
-19.593341
-28.509340
-17.237995
-18.433692
-17.310701
-10.381896
-15.493075
-22.180525
-30.717004
-43.381195
-39.202294
-12.508007
12.766647
32.354722
39.984121
24.625617
1.258468
-31.109899
-56.834182
-55.764443
-32.635732
-3.136731
-1.885934
-26.184351
-65.528526
-100.864742
-107.925219
-95.869894
-52.390704
-3.851234
10.091045
7.439089
11.262628
21.686350
27.074471
25.883190
11.796770
1.646873
11.188423
38.678119
76.608926
93.252012
89.352911
59.887969
-0.407528
-73.991972
-141.441738
-156.206412
-118.888397
-47.899264
33.101844
55.777780
23.513580
-25.093140
-75.834373
-106.435279
-100.184469
-59.093325
-27.752570
-19.328801
-25.612572
-36.639965
-25.797757
0.135410
34.945105
63.059543
61.549007
22.836068
-27.739693
-71.294965
-110.890596
-119.875174
-93.873169
-61.331767
-33.063027
5.603962
42.199563
61.307586
83.088103
113.423296
132.320648
129.242153
110.138835
80.947170
57.304667
48.898591
56.482011
54.467786
15.001000
-30.717360
-61.873131
-90.450965
-97.993052
-75.328285
-51.121277
-33.963591
-17.637162
-23.639345
-74.703989
-138.179045
-170.169450
-181.921856
-176.008744
-124.626114
-41.286835
31.174144
73.635044
79.741683
56.779512
39.571201
45.858119
68.660303
100.743215
139.182648
186.643301
219.323939
231.740861
247.274738
238.439006
176.751153
65.880400
-78.930072
-198.564615
-249.061406
-248.128825
-191.444851
-98.955766
-34.741381
9.680768
39.571238
46.120522
40.597871
16.626242
0.428168
-0.929104
8.425153
28.353005
29.353905
8.105164
-26.426291
-59.800480
-80.594108
-92.377685
-95.298761
-96.098831
-92.134758
-86.425044
-97.351647
-114.960261
-98.799304
-24.429551
84.955099
182.919053
232.497335
248.210971
243.887668
210.437108
168.828536
109.355724
54.312734
29.416072
-5.986905
-46.586538
-88.636975
-140.475208
-174.449720
-167.411813
-107.767005
-14.560961
73.860419
124.894440
126.985327
83.504347
9.391535
-52.538942
-91.194992
-101.110838
-69.053383
-26.763150
7.931988
28.011284
44.563711
74.274422
103.201154
137.965910
139.983542
92.673843
38.082071
-17.923100
-60.885063
-99.169644
-132.247178
-143.431991
-129.529716
-74.996361
19.868561
134.114249
220.662702
269.773920
292.465443
265.462062
188.078772
98.451839
24.371757
-31.727449
-61.124331
-66.107444
-74.090098
-88.667479
-90.404792
-69.292140
-8.036770
81.916201
168.001227
223.709512
237.643738
217.623699
163.169084
112.375118
83.419062
78.080846
88.547690
68.952631
27.743322
-24.636787
-69.464143
-81.090301
-64.771666
-34.958865
-17.534657
-22.598299
-49.719094
-61.107305
-38.654769
-1.134395
30.620690
36.455612
32.544301
18.420474
-7.816071
-44.778694
-90.762797
-117.079871
-127.951663
-143.756708
-162.363609
-159.091298
-111.329054
-32.882763
48.521505
111.567715
154.401122
181.264517
198.530267
210.475190
209.103111
207.660894
184.547279
115.503058
36.384517
-34.437296
-81.681014
-98.931147
-103.241722
-93.016462
-73.332533
-65.688587
-81.908481
-114.512977
-131.141487
-111.102455
-78.169842
-45.704551
-14.657074
8.834273
37.466948
71.571374
86.842625
74.335074
34.904137
-22.622234
-79.099143
-116.335042
-101.732433
-46.301840
10.854132
34.934374
7.968140
-40.169699
-83.282067
-91.011447
-75.750067
-69.550171
-69.384164
-70.717798
-62.182328
-51.844070
-28.545730
0.846246
15.587571
31.108460
44.723431
62.778356
79.077249
70.270872
21.971197
-54.995166
-116.037496
-140.486838
-130.923987
-105.118367
-91.615355
-107.550544
-141.512068
-165.468890
-148.183918
-78.442450
3.964523
57.321648
68.259192
45.291306
5.346028
-19.246966
-18.222686
-17.431938
-10.798489
12.237745
53.881416
106.509892
155.932833
181.001491
152.786813
85.509533
13.689432
-28.082794
-39.629203
-50.975332
-73.541097
-104.382288
-120.389432
-99.192095
-39.144647
42.624336
108.025341
119.140825
63.692598
-28.025726
-74.836151
-53.296959
-13.758708
5.426727
-19.000275
-46.324988
-46.070401
-30.099075
-1.261703
0.654619
-35.663259
-89.026590
-144.229077
-169.075344
-147.851771
-98.520528
-65.142414
-54.023812
-41.700667
-25.489575
6.416175
45.944556
54.834608
33.405068
9.147175
-9.637408
-18.639910
-36.997435
-79.242698
-130.578020
-181.653055
-222.069552
-232.593255
-185.847743
-76.961587
56.357301
152.351954
170.292841
122.608037
55.688198
-1.135501
-36.302867
