EVENT_NAME: 202302060117
EVENT_ID: 13194
EVENT_DATE_YYYYMMDD: 2023/02/06
EVENT_TIME_HHMMSS: 01:17:32.00000
EVENT_LATITUDE_DEGREE: 37.288
EVENT_LONGITUDE_DEGREE: 37.043
EVENT_DEPTH_KM: 8.6
HYPOCENTER_REFERENCE: AFAD
MAGNITUDE_W: 7.7
MAGNITUDE_W_REFERENCE: AFAD
MAGNITUDE_L: 
MAGNITUDE_L_REFERENCE: 
FOCAL_MECHANISM: 
NETWORK: TK
STATION_CODE: 6601
STATION_NAME: 
STATION_LATITUDE_DEGREE: 39.82429
STATION_LONGITUDE_DEGREE: 34.81589
STATION_ELEVATION_M: 1295.0
LOCATION: Kahramanmaras_Pazarck_Turkiye
SENSOR_DEPTH_M: 
VS30_M/S: 906
SITE_CLASSIFICATION_EC8: unknown
MORPHOLOGIC_CLASSIFICATION: 
EPICENTRAL_DISTANCE_KM: 342.08
EARTHQUAKE_BACKAZIMUTH_DEGREE: 
DATE_TIME_FIRST_SAMPLE_YYYYMMDD_HHMMSS: 2023/02/06 01:17:58.2973880
DATE_TIME_FIRST_SAMPLE_PRECISION: millisecond
SAMPLING_INTERVAL_S: 0.01
NDATA: 18251
DURATION_S: 
STREAM: HNN
UNITS: cm/s^2
INSTRUMENT: sensor = CMG-5T/GURALP | digitizer = 
INSTRUMENT_ANALOG/DIGITAL: 
INSTRUMENTAL_FREQUENCY_HZ: 
INSTRUMENTAL_DAMPING: 
FULL_SCALE_G: 
N_BIT_DIGITAL_CONVERTER: 
PGA_CM/S^2: 2.894
TIME_PGA_S: 
BASELINE_CORRECTION: BASELINE REMOVED
FILTER_TYPE: BUTTERWORTH
FILTER_ORDER: 
LOW_CUT_FREQUENCY_HZ: 
HIGH_CUT_FREQUENCY_HZ: 
LATE/NORMAL_TRIGGERED: 
DATABASE_VERSION: 
HEADER_FORMAT: DYNA 1.2
DATA_TYPE: Acceleration
PROCESSING: Automatic Paolucci et al., 2011
DATA_TIMESTAMP_YYYYMMDD_HHMMSS: 
DATA_LICENSE: U (unknown license)
DATA_CITATION: Turkish Accelerometric Archive v 1.0 - Disaster And Emergency Management Presidency, Earthquake Department
DATA_CREATOR: AFAD
ORIGINAL_DATA_MEDIATOR_CITATION: : AFAD - Disaster And Emergency Management Presidency
ORIGINAL_DATA_MEDIATOR: AFAD PROCESS SERVICE
ORIGINAL_DATA_CREATOR_CITATION: AFAD PROCESS SERVICE
ORIGINAL_DATA_CREATOR: network: TK
USER1: GuestUser
USER2: 
USER3: 
USER4: 
USER5: 
[...]
-0.388724
-0.321161
-0.271510
-0.192319
-0.123813
-0.039594
0.028598
0.096476
0.146127
0.176924
0.196407
0.197036
0.195150
0.186352
0.187923
0.181953
0.172525
0.157756
0.146129
0.133873
0.133873
0.136702
0.142673
0.146130
0.142987
0.146444
0.124761
0.126018
0.105278
0.120362
0.110935
0.134190
0.122563
0.129790
0.102137
0.091767
0.055628
0.043687
0.001264
-0.019476
-0.058129
-0.072270
-0.089239
-0.098038
-0.120978
-0.129776
-0.152088
-0.146117
-0.149259
-0.126633
-0.100236
-0.062212
-0.020731
0.028606
0.073544
0.114396
0.148964
0.181331
0.210242
0.245752
0.268064
0.300746
0.330914
0.378680
0.416076
0.476412
0.521663
0.591112
0.639821
0.703299
0.746980
0.800717
0.836541
0.872051
0.891220
0.900334
0.908504
0.911647
0.924531
0.928931
0.941187
0.938987
0.935845
0.928618
0.924847
0.917305
0.907249
0.889966
0.881795
0.873311
0.875511
0.864827
0.864198
0.846286
0.822404
0.796007
0.746670
0.713674
0.671879
0.677222
0.664024
0.700477
0.701419
0.746986
0.763012
0.806379
0.834661
0.869857
0.894055
0.919823
0.932393
0.934279
0.926737
0.902540
0.869858
0.837805
0.810152
0.771185
0.763643
0.729076
0.726877
0.700480
0.684768
0.655543
0.630717
0.582009
0.536129
0.477993
0.428971
0.386233
0.352923
0.324955
0.326527
0.334069
0.369893
0.405404
0.442799
0.484909
0.506278
0.517591
0.517905
0.526390
0.527647
0.557815
0.587355
0.641405
0.682258
0.738194
0.760192
0.794131
0.791617
0.807015
0.810158
0.834041
0.858552
0.886835
0.915117
0.940572
0.964769
0.970111
0.953771
0.931459
0.887150
0.858240
0.814245
0.785963
0.762709
0.766794
0.781250
0.822731
0.857298
0.898151
0.923919
0.943717
0.944031
0.941203
0.922034
0.894695
0.854786
0.807020
0.758940
0.695148
0.641726
0.569763
0.521684
0.461977
0.424581
0.380273
0.348220
0.318995
0.309253
0.304540
0.318052
0.342564
0.375246
0.411699
0.441553
0.489004
0.529857
0.582650
0.624446
0.679439
0.722491
0.787541
0.834364
0.901299
0.943408
1.000287
1.029513
1.059052
1.069108
1.082307
1.083564
1.067852
1.063767
1.032971
0.999660
0.948124
0.879304
0.803570
0.724380
0.660902
0.618479
0.599310
0.592396
0.598682
0.597739
0.608738
0.589255
0.587684
0.542746
0.533633
0.494667
0.480840
0.438417
0.421762
0.383109
0.365197
0.328116
0.310204
0.277837
0.258982
0.233843
0.219073
0.200847
0.192362
0.193934
0.191420
0.198962
0.209647
0.225045
0.241386
0.267155
0.298580
0.334090
0.367400
0.399454
0.431193
0.480530
0.527982
0.599945
0.665937
0.731301
0.778438
0.807977
0.813634
0.804835
0.771839
0.731930
0.674109
0.601203
0.530812
0.451307
0.382801
0.321523
0.280671
0.259617
0.251132
0.253646
0.271244
0.277215
0.306126
0.307069
0.311783
0.288215
0.259304
0.214052
0.173515
0.125749
0.087725
0.048130
0.018591
0.000051
-0.005606
0.004450
0.026762
0.063844
0.102811
0.133293
0.163775
0.174774
0.194257
0.210913
0.231653
0.281305
0.325300
0.377151
0.399148
0.415489
0.402291
0.391292
0.364267
0.353583
0.324358
0.316502
0.291048
0.290420
0.263080
0.261824
0.240769
0.239512
0.235427
0.247055
0.260568
0.290107
0.313676
0.346044
0.372441
0.394752
0.418635
0.441890
0.472372
0.512910
0.552506
0.582988
0.616298
0.625412
0.630126
0.617870
0.606557
0.590845
0.589588
0.587074
0.606244
0.620071
0.666894
0.697062
0.753627
0.790394
0.833760
0.860786
0.867385
0.864871
0.845388
0.830305
0.816792
0.807365
0.808308
0.806422
0.818364
0.834077
0.852617
0.872415
0.890956
0.904155
0.921753
0.918925
0.928038
0.929924
0.948779
0.958835
0.983975
0.968891
0.971719
0.925525
0.908242
0.865504
0.829994
0.787571
0.725350
0.671614
0.596509
0.527688
0.465153
0.394448
0.338826
0.275977
0.219726
0.182645
0.151849
0.140222
0.143993
0.152478
0.185474
0.215014
0.261523
0.317773
0.393821
0.474583
0.576400
0.662190
0.759921
0.819314
0.895362
0.934015
0.982409
0.995608
1.003150
0.996237
0.977068
0.956956
0.931188
0.902277
0.864253
0.841314
0.811774
0.812403
0.805176
0.830944
0.854513
0.904164
0.945331
0.999067
1.037092
1.082029
1.111883
1.155878
1.191074
1.236326
1.274350
1.307975
1.337200
1.363597
1.396907
1.422047
1.465728
1.495267
1.549947
1.582314
1.632594
1.652392
1.671876
1.680989
1.685703
1.684760
1.686332
1.680361
1.698588
1.710215
1.743211
1.765523
1.796005
1.813603
1.830887
1.823031
1.826488
1.793178
1.777780
1.738185
1.708646
1.666851
1.644539
1.617200
1.598660
1.585147
1.575406
1.575406
1.589861
1.617515
1.660253
1.706762
1.756099
1.789724
1.816749
1.823035
1.817693
1.783440
1.732217
1.686023
1.618774
1.568495
1.498418
1.442167
1.384032
1.340351
1.311126
1.279388
1.262418
1.243564
1.227851
1.216853
1.209311
1.209940
1.235080
1.263991
1.310185
1.348524
1.389376
1.431486
1.473909
1.518533
1.568498
1.625063
1.680057
1.723109
1.776845
1.807013
1.844095
1.851637
1.853523
1.840953
1.811728
1.784074
1.731909
1.692629
1.638264
1.588613
1.539905
1.495910
1.456001
1.424262
1.395665
1.362670
1.354499
1.340044
1.360785
1.379011
1.417664
1.451603
1.500311
1.538021
1.588930
1.640466
1.693260
1.746997
1.813303
1.870497
1.959115
2.024479
2.114982
2.159920
2.214285
2.213971
2.208629
2.141066
2.064389
1.939633
1.833732
1.692006
1.594589
1.468576
1.381529
1.291969
1.226920
1.178526
1.152129
1.128246
1.129504
1.121647
1.143645
1.145531
1.164071
1.170357
1.178841
1.174442
1.167215
1.142389
1.111593
1.064770
1.016062
0.960755
0.901048
0.850768
0.794832
0.751780
0.724441
0.729155
0.760266
0.828143
0.900106
0.989981
1.060373
1.143649
1.195814
1.251436
1.283490
1.311144
1.332827
1.336284
1.332827
1.319315
1.291347
1.260865
1.221584
1.187017
1.164392
1.147108
1.133910
1.128882
1.121340
1.116313
1.113170
1.105000
1.094630
1.071376
1.044036
1.016697
0.976788
0.936564
0.881257
0.845118
0.791382
0.758386
0.721619
0.698365
0.673540
0.652799
0.633945
0.609748
0.590893
0.563239
0.531815
0.494419
0.460481
0.428742
0.406431
0.395432
0.384119
0.376578
0.372807
0.352067
0.330069
0.276647
0.233910
0.160690
0.113239
0.048818
-0.000204
-0.046713
-0.076880
-0.095735
-0.086936
-0.063367
-0.028800
0.026508
0.078045
0.138381
0.190232
0.257167
0.305247
0.386323
0.424661
0.488768
0.515165
0.556960
0.579586
0.595613
0.598756
0.599385
0.589329
0.577388
0.553505
0.537478
0.518938
0.495369
0.468659
0.453575
0.426235
0.410523
0.391983
0.391354
0.397640
0.419009
0.443206
0.479030
0.524282
0.579904
0.626099
0.677321
0.727601
0.762797
0.789509
0.796422
0.779139
0.776311
0.730745
0.700263
0.642441
0.585563
0.518314
0.432524
0.336679
0.238634
0.132732
0.040972
-0.045760
-0.115209
-0.165803
-0.208540
-0.221738
-0.242479
-0.226138
-0.200998
-0.160145
-0.101381
-0.028789
0.042231
0.112623
0.187414
0.266919
0.325683
0.386333
0.440384
0.498206
0.532459
0.566398
0.572683
0.577397
0.569227
0.537174
0.508263
0.457355
0.402362
0.338256
0.275720
0.201558
0.128967
0.068003
0.012067
-0.034756
-0.066809
-0.079693
-0.090063
-0.083149
-0.066180
-0.037583
-0.000816
0.055435
0.114514
0.175792
0.255611
0.320347
0.398280
0.465215
0.534664
0.583373
0.645280
0.664449
0.672620
0.634282
0.589030
0.513611
0.424365
0.350516
0.267241
0.209734
0.143742
0.109175
0.065180
0.054496
0.035641
0.044755
0.055439
0.096920
0.147200
0.222305
0.285155
0.380372
0.463648
0.549752
0.625801
0.689593
0.729503
0.763442
0.774126
0.782297
0.777269
0.766585
0.733589
0.708449
0.664455
0.620460
0.556354
0.506703
0.426570
0.374719
0.316898
0.266618
0.219481
0.182400
0.128664
0.083726
0.027790
-0.005205
-0.063027
-0.101679
-0.140646
-0.179927
-0.212922
-0.230834
-0.239005
-0.239005
-0.224863
-0.209151
-0.189353
-0.157928
-0.137502
-0.116447
-0.088479
-0.060825
-0.046055
-0.026571
-0.026571
-0.027199
-0.031599
-0.030341
-0.029399
-0.011172
-0.016200
-0.017457
-0.019970
-0.031283
-0.029083
-0.033797
-0.012114
-0.000486
0.032510
0.044137
0.061735
0.081219
0.104788
0.116101
0.132128
0.152240
0.177694
0.180522
0.190578
0.178009
0.173924
0.152869
0.123330
0.081850
0.042254
-0.011482
-0.051705
-0.097585
-0.121782
-0.138123
-0.119268
-0.106069
-0.060189
-0.020279
0.050112
0.102278
0.192467
0.237090
0.302768
0.312196
0.329480
0.297741
0.267573
0.204410
0.140618
0.062370
-0.022791
-0.118322
-0.205369
-0.303414
-0.377576
-0.478450
-0.542871
-0.622689
-0.654428
-0.685853
-0.676739
-0.664169
-0.626145
-0.580265
-0.532185
-0.478448
-0.433825
-0.393601
-0.368775
-0.352434
-0.358090
-0.360918
-0.370660
-0.384487
-0.378516
-0.354004
-0.309695
-0.240560
-0.178968
-0.107633
-0.070866
-0.031585
-0.040069
-0.036612
-0.054839
-0.075264
-0.096633
-0.095376
-0.114859
-0.101975
-0.098518
-0.074635
-0.050123
0.003927
0.032210
0.091603
0.132770
0.180221
0.208818
0.216989
0.207876
0.191221
0.174880
0.154454
0.142198
0.116744
0.104175
0.071179
0.043525
0.013986
-0.023409
-0.062376
-0.107942
-0.152565
-0.201901
-0.216985
-0.234583
-0.215414
-0.198444
-0.156649
-0.115168
-0.068659
-0.034720
0.002361
0.021845
0.040386
0.057355
0.078724
0.101979
0.123348
0.142203
0.157601
0.167343
0.172057
0.153516
0.123035
0.084068
0.040073
-0.006121
-0.061428
-0.108565
-0.172986
-0.220123
-0.277002
-0.308112
-0.349907
-0.373475
-0.380703
-0.370018
-0.352734
-0.331365
-0.296169
-0.252803
-0.211636
-0.142187
-0.094107
-0.017431
0.040077
0.116439
0.160749
0.198458
0.205686
0.200030
0.164520
0.133724
0.074646
0.037564
-0.010515
-0.036912
-0.074936
-0.081221
-0.090962
-0.099132
-0.088448
-0.091276
-0.078077
-0.079648
-0.077763
-0.096617
-0.118929
-0.138412
-0.192462
-0.240856
-0.314390
-0.380697
-0.480941
-0.570188
-0.690230
-0.782933
-0.906747
-0.982166
-1.079269
-1.128605
-1.170714
-1.194597
-1.212823
-1.211566
-1.215337
-1.182655
-1.152801
-1.092151
-1.020503
-0.933770
-0.850494
-0.770046
-0.692427
-0.629577
-0.581811
-0.539388
-0.513933
-0.483765
-0.468681
-0.444170
-0.436313
-0.416516
-0.400175
-0.375035
-0.350523
-0.324440
-0.293958
-0.281388
-0.244621
-0.226394
-0.193084
-0.164801
-0.145318
-0.121120
-0.107608
-0.082153
-0.063927
-0.044443
-0.033444
-0.018046
-0.016160
-0.008618
-0.008304
-0.025273
-0.047585
-0.064554
-0.095350
-0.099121
-0.113262
-0.135573
-0.165112
-0.208164
-0.261586
-0.328206
-0.394513
-0.475274
-0.540638
-0.607258
-0.659423
-0.702789
-0.720701
-0.759668
-0.772552
-0.786064
-0.819374
-0.830687
-0.848599
-0.861169
-0.871853
-0.886308
-0.891964
-0.906734
-0.917418
-0.920875
-0.919618
-0.922446
-0.903905
-0.895734
-0.872165
-0.841369
-0.805859
-0.758407
-0.698386
-0.624851
-0.554774
-0.472755
-0.393564
-0.324744
-0.253724
-0.199359
-0.154107
-0.107284
-0.054490
-0.021808
0.026901
0.073724
0.127775
0.191882
0.267930
0.345863
0.429454
0.522157
0.611404
0.693737
0.767585
0.820379
0.850547
0.842691
0.825407
0.789583
0.756902
0.715735
0.674569
0.630260
0.574010
0.519960
0.467795
0.413430
0.376349
0.343981
0.333926
0.311614
0.308786
0.281761
0.252536
0.200371
0.148520
0.079700
0.003652
-0.086851
-0.165413
-0.246174
-0.315309
-0.393870
-0.452949
-0.513284
-0.555393
-0.585875
-0.609758
-0.599702
-0.598445
-0.577390
-0.544394
-0.509826
-0.470859
-0.427179
-0.394183
-0.347045
-0.305878
-0.252456
-0.207519
-0.178293
-0.158181
-0.163209
-0.196833
-0.228887
-0.285137
-0.329446
-0.406436
-0.450431
-0.519879
-0.555075
-0.615725
-0.666947
-0.746451
-0.833812
-0.960454
-1.052214
-1.161887
-1.246733
-1.319639
-1.361748
-1.386887
-1.394744
-1.380602
-1.349177
-1.347606
-1.314924
-1.280356
-1.253959
-1.233219
-1.210907
-1.193623
-1.194252
-1.214049
-1.244845
-1.283812
-1.314608
-1.337548
-1.368972
-1.398197
-1.397883
-1.387513
-1.352002
-1.336918
-1.293866
-1.218132
-1.133914
-1.066979
-1.005072
-0.944736
-0.891313
-0.866488
-0.838519
-0.834434
-0.843547
-0.892255
-0.944420
-0.993129
-1.044037
-1.089288
-1.132968
-1.144281
-1.169735
-1.179791
-1.193932
-1.200531
-1.204616
-1.207444
-1.188903
-1.172876
-1.137052
-1.088658
-1.077030
-1.043720
-1.036178
-1.026436
-1.064774
-1.079229
-1.146478
-1.195186
-1.264949
-1.346339
-1.439042
-1.509119
-1.597109
-1.689812
-1.772144
-1.849763
-1.901928
-1.965406
-2.023228
-2.067851
-2.116559
-2.161496
-2.214604
-2.257342
-2.283110
-2.329304
-2.345959
-2.370785
-2.361985
-2.346901
-2.322704
-2.293479
-2.252626
-2.222144
-2.184749
-2.150810
-2.087331
-2.035794
-1.977344
-1.931150
-1.893440
-1.882441
-1.859186
-1.886840
-1.889982
-1.935234
-1.949689
-1.987084
-1.993998
-2.026993
-2.029507
-2.071616
-2.076644
-2.132894
-2.149549
-2.192601
-2.206428
-2.232196
-2.216169
-2.214912
-2.188515
-2.156462
-2.095812
-2.063444
-2.021963
-2.003422
-1.975454
-1.956285
-1.942457
-1.946857
-1.960998
-1.973568
-2.015048
-2.048672
-2.098009
-2.136347
-2.172171
-2.198882
-2.234078
-2.268017
-2.296927
-2.322067
-2.346892
-2.364176
-2.373603
-2.369203
-2.360404
-2.339349
-2.314838
-2.286241
-2.270843
-2.234390
-2.250731
-2.265500
-2.307609
-2.337148
-2.386799
-2.439907
-2.497414
-2.542666
-2.591688
-2.623741
-2.674649
-2.696332
-2.722729
-2.756039
-2.774580
-2.773637
-2.786521
-2.778979
-2.777407
-2.759495
-2.741583
-2.717071
-2.705129
-2.677475
-2.663334
-2.661134
-2.664905
-2.686588
-2.694758
-2.732782
-2.759807
-2.793117
-2.821714
-2.849053
-2.859109
-2.866651
-2.877963
-2.893676
-2.887391
-2.882048
-2.864764
-2.844024
-2.800343
-2.742207
-2.660502
-2.562143
-2.437072
-2.321743
-2.193843
-2.083857
-1.981726
-1.910391
-1.850998
-1.804175
-1.773693
-1.757038
-1.752324
-1.752952
-1.758608
-1.768664
-1.785005
-1.826800
-1.852882
-1.908189
-1.940871
-1.998064
-2.056514
-2.112136
-2.157702
-2.202639
-2.228407
-2.265488
-2.253546
-2.286857
-2.312311
-2.350963
-2.360704
-2.406584
-2.430467
-2.463463
-2.463777
-2.486717
-2.456863
-2.463462
-2.412868
-2.412868
-2.379558
-2.367616
-2.340276
-2.329592
-2.276483
-2.248201
-2.191636
-2.130043
-2.035455
-1.961292
-1.859161
-1.771171
-1.659928
-1.561882
-1.462579
-1.379618
-1.309540
-1.264288
-1.219665
-1.198610
-1.194525
-1.214322
-1.227835
-1.245747
-1.278428
-1.308596
-1.347877
-1.388100
-1.422353
-1.465719
-1.518513
-1.561250
-1.616244
-1.667780
-1.754198
-1.790651
-1.854757
-1.886496
-1.906293
-1.930490
-1.939289
-1.911635
-1.889323
-1.855384
-1.831501
-1.759853
-1.745397
-1.705487
-1.704859
-1.681290
-1.679404
-1.670605
-1.657407
-1.634152
-1.630695
-1.600213
-1.561246
-1.521336
-1.494625
-1.459743
-1.410721
-1.355413
-1.304819
-1.253596
-1.209601
-1.186661
-1.161835
-1.167177
-1.196088
-1.242911
-1.284705
-1.345355
-1.424545
-1.489909
-1.551816
-1.619379
-1.660859
-1.704854
-1.737850
-1.785929
-1.805413
-1.835266
-1.855692
-1.872347
-1.872347
-1.879574
-1.859777
-1.868575
-1.839036
-1.836522
-1.807925
-1.790955
-1.754817
-1.745075
-1.722763
-1.721820
-1.705165
-1.704536
-1.718363
-1.709878
-1.709249
-1.701707
-1.692594
-1.695422
-1.661483
-1.648599
-1.615288
-1.598004
-1.575378
-1.541754
-1.509072
-1.485189
-1.448421
-1.420139
-1.361374
-1.332149
-1.282184
-1.244159
-1.196079
-1.181624
-1.139829
-1.144228
-1.134800
-1.153026
-1.163082
-1.171881
-1.187907
-1.204877
-1.195763
-1.190107
-1.161824
-1.144540
-1.106516
-1.077291
-1.018841
-0.989301
-0.939021
-0.899112
-0.858888
-0.819607
-0.779697
-0.734131
-0.683537
-0.643627
-0.590205
-0.537725
-0.500644
-0.442822
-0.389085
-0.336920
-0.314294
-0.264642
-0.247673
-0.206821
-0.178538
-0.143656
-0.094005
-0.043411
-0.014186
0.048036
0.082917
0.117171
0.169650
0.214588
0.251041
0.302578
0.334317
0.391196
0.424821
0.460331
0.473844
0.487356
0.468187
0.443676
0.393711
0.318606
0.258899
0.160854
0.080406
-0.034294
-0.114113
-0.195189
-0.239812
-0.288520
-0.298576
-0.324344
-0.322458
-0.313659
-0.266207
-0.227869
-0.159991
-0.098084
0.007818
0.095493
0.209565
0.307611
0.410998
0.493332
0.568123
0.613060
0.680938
0.715820
0.751330
0.776470
0.802867
0.828950
0.858489
0.887086
0.908141
0.950250
0.957792
0.996131
1.037297
1.064951
1.099833
1.131572
1.166768
1.188137
1.202593
1.234961
1.254444
1.281784
1.301582
1.322322
1.340863
1.361918
1.393343
1.416283
1.448022
1.472220
1.511815
1.516843
1.535384
1.522814
1.492647
1.483848
1.485105
1.483534
1.482277
1.492019
1.508989
1.514331
1.521873
1.513074
1.506475
1.501762
1.476622
1.452425
1.417858
1.372606
1.316985
1.252878
1.185315
1.109582
1.034791
0.968485
0.916320
0.880810
0.847814
0.826445
0.839015
0.854728
0.883325
0.895266
0.936433
0.963458
1.004625
1.058362
1.084759
1.121840
1.150437
1.188147
1.193175
1.203545
1.211087
1.205745
1.201974
1.213602
1.241256
1.272367
1.322018
1.385182
1.448032
1.521566
1.607356
1.696917
1.782706
1.856869
1.922233
1.954915
2.015251
2.041648
2.064588
2.086586
2.096013
2.117696
2.118639
2.118954
2.112669
2.092243
2.062390
2.030965
1.998912
1.963716
1.915008
1.885469
1.855301
1.812249
1.764484
1.716718
1.675552
1.596676
1.548596
1.478205
1.424154
1.345907
1.306312
1.257289
1.212352
1.170557
1.134104
1.115564
1.107708
1.097338
1.103937
1.098595
1.126564
1.141648
1.159246
1.157675
1.157361
1.138192
1.110538
1.067486
1.032291
0.992067
0.967870
0.897164
0.866997
0.829916
0.801634
0.749154
0.718987
0.688819
0.672478
0.648910
0.662737
0.671222
0.690391
0.724330
0.755755
0.766125
0.798179
0.794408
0.787181
0.745386
0.729359
0.684108
0.671538
0.619687
0.604918
0.584492
0.586692
0.577893
0.571608
0.558724
0.554953
0.527928
0.508445
0.474821
0.436797
0.385260
0.343780
0.312669
0.290672
0.268675
0.268989
0.270561
0.279674
0.297272
0.310785
0.324298
0.351952
0.377406
0.417630
0.466967
0.501849
0.550243
0.584182
0.639176
0.677200
0.709882
0.751363
0.783730
0.818298
0.869206
0.907859
0.971337
1.025074
1.105836
1.159258
1.241277
1.288729
1.355035
1.385517
1.426370
1.427627
1.454652
1.454024
1.463452
1.469423
1.468480
1.489849
1.505562
1.536672
1.547671
1.575325
1.595751
1.617121
1.630005
1.637233
1.635662
1.637233
1.628749
1.640376
1.618379
1.626235
1.596696
1.586640
1.559929
1.535418
1.495823
1.492995
1.463770
1.463142
1.453086
1.474769
1.481683
1.491425
1.479169
1.488911
1.448059
1.427319
1.367926
1.332731
1.262339
1.205460
1.118728
1.064363
0.982345
0.917610
0.839362
0.774627
0.694494
0.623475
0.551512
0.509717
0.474207
0.455353
0.450639
0.439012
0.441212
0.446554
0.444040
0.426757
0.404760
0.383705
0.335626
0.285032
0.241980
0.197043
0.149906
0.112510
0.090827
0.052804
0.045890
0.025150
0.015409
0.011952
0.023265
0.032378
0.066317
0.108427
0.173476
0.237269
0.323059
0.393450
0.469813
0.538948
0.612796
0.664961
0.712413
0.758608
0.775577
0.796318
0.815487
0.827429
0.841256
0.841884
0.858540
0.862625
0.882737
0.896879
0.921704
0.922647
0.938046
0.928618
0.927361
0.900651
0.878339
0.841258
0.814861
0.775266
0.759868
0.749813
0.758297
0.762069
0.802292
0.844088
0.888711
0.945904
1.015353
1.102086
1.181591
1.252297
1.341858
1.411935
1.475099
1.531978
1.561203
1.593571
1.591686
1.588544
1.570632
