EVENT_NAME: 202302060117
EVENT_ID: 13194
EVENT_DATE_YYYYMMDD: 2023/02/06
EVENT_TIME_HHMMSS: 01:17:32.00000
EVENT_LATITUDE_DEGREE: 37.288
EVENT_LONGITUDE_DEGREE: 37.043
EVENT_DEPTH_KM: 8.6
HYPOCENTER_REFERENCE: AFAD
MAGNITUDE_W: 7.7
MAGNITUDE_W_REFERENCE: AFAD
MAGNITUDE_L: 
MAGNITUDE_L_REFERENCE: 
FOCAL_MECHANISM: 
NETWORK: TK
STATION_CODE: 2902
STATION_NAME: 
STATION_LATITUDE_DEGREE: 40.12439
STATION_LONGITUDE_DEGREE: 39.43658
STATION_ELEVATION_M: 1416.0
LOCATION: Kahramanmaras_Pazarck_Turkiye
SENSOR_DEPTH_M: 
VS30_M/S: 594
SITE_CLASSIFICATION_EC8: B
MORPHOLOGIC_CLASSIFICATION: 
EPICENTRAL_DISTANCE_KM: 377.60
EARTHQUAKE_BACKAZIMUTH_DEGREE: 
DATE_TIME_FIRST_SAMPLE_YYYYMMDD_HHMMSS: 2023/02/06 01:18:00.1894990
DATE_TIME_FIRST_SAMPLE_PRECISION: millisecond
SAMPLING_INTERVAL_S: 0.01
NDATA: 21001
DURATION_S: 
STREAM: HNE
UNITS: cm/s^2
INSTRUMENT: sensor = CMG-5T/GURALP | digitizer = 
INSTRUMENT_ANALOG/DIGITAL: 
INSTRUMENTAL_FREQUENCY_HZ: 
INSTRUMENTAL_DAMPING: 
FULL_SCALE_G: 
N_BIT_DIGITAL_CONVERTER: 
PGA_CM/S^2: 13.544
TIME_PGA_S: 
BASELINE_CORRECTION: BASELINE REMOVED
FILTER_TYPE: BUTTERWORTH
FILTER_ORDER: 
LOW_CUT_FREQUENCY_HZ: 
HIGH_CUT_FREQUENCY_HZ: 
LATE/NORMAL_TRIGGERED: 
DATABASE_VERSION: 
HEADER_FORMAT: DYNA 1.2
DATA_TYPE: Acceleration
PROCESSING: Automatic Paolucci et al., 2011
DATA_TIMESTAMP_YYYYMMDD_HHMMSS: 
DATA_LICENSE: U (unknown license)
DATA_CITATION: Turkish Accelerometric Archive v 1.0 - Disaster And Emergency Management Presidency, Earthquake Department
DATA_CREATOR: AFAD
ORIGINAL_DATA_MEDIATOR_CITATION: : AFAD - Disaster And Emergency Management Presidency
ORIGINAL_DATA_MEDIATOR: AFAD PROCESS SERVICE
ORIGINAL_DATA_CREATOR_CITATION: AFAD PROCESS SERVICE
ORIGINAL_DATA_CREATOR: network: TK
USER1: GuestUser
USER2: 
USER3: 
USER4: 
USER5: 
[...]
4.311646
4.350609
4.451160
4.430422
4.338983
4.359408
4.277710
4.034189
3.933638
3.851940
3.598992
3.425856
3.241722
2.931900
2.852716
2.974949
2.898907
2.485077
2.065592
1.892456
1.861662
1.733774
1.500936
1.346339
1.149951
0.804308
0.697158
0.935652
0.965189
0.573355
0.287413
0.406503
0.601635
0.608862
0.568642
0.860239
1.277839
1.065740
0.468091
0.211686
0.104851
-0.193974
-0.464832
-0.479601
-0.509138
-0.665306
-0.786909
-0.803249
-0.836556
-1.140094
-1.447088
-1.596029
-1.841750
-1.968381
-1.928790
-2.128949
-2.544978
-2.767446
-2.622276
-2.389752
-2.410491
-2.592739
-2.586455
-2.500672
-2.581113
-2.579228
-2.255265
-1.743399
-1.271753
-1.175915
-1.373875
-1.398384
-1.101759
-0.797278
-0.800421
-0.857609
-0.629798
-0.406701
-0.491855
-0.574810
-0.480229
-0.329717
-0.234508
-0.333173
-0.623828
-0.745432
-0.674104
-0.585807
-0.502853
-0.543387
-0.599319
-0.519192
-0.286983
-0.004498
0.109879
0.036665
-0.003555
0.093853
0.309724
0.665736
0.936281
0.816877
0.647826
0.721668
0.791425
0.694016
0.666051
0.825989
0.967703
1.044059
1.077995
0.910829
0.626459
0.689303
0.800223
0.381995
-0.105991
-0.108819
0.054576
-0.032149
-0.266244
-0.318405
-0.169150
-0.254304
-0.592720
-0.665305
-0.533332
-0.518878
-0.530190
-0.415499
-0.217225
-0.111019
-0.242363
-0.361453
-0.120131
0.199746
0.339889
0.402733
0.416245
0.462435
0.677363
0.926540
0.965818
0.869666
0.993784
1.243904
1.260872
1.169433
1.390017
1.795048
1.938962
1.926393
1.984209
2.101414
2.133150
1.987980
1.825213
1.925450
2.102985
2.022544
1.732204
1.472029
1.284753
1.206512
1.394730
1.556554
1.265900
0.866210
1.061656
1.596146
1.658362
1.380590
1.434951
1.593004
1.394416
1.153408
1.319631
1.650506
1.746344
1.607772
1.566609
1.842182
2.103614
2.149490
2.164887
2.211392
2.197880
2.112098
2.008719
1.925764
1.861035
1.884287
2.001178
2.097329
2.035742
1.933620
2.001492
2.144777
2.223018
2.271722
2.324511
2.200394
1.989551
1.994579
2.155460
2.217362
2.038570
1.887744
2.010604
2.153575
2.183426
2.313514
2.452400
2.253812
1.906283
1.746030
1.626626
1.380905
1.217510
1.245790
1.153409
0.747749
0.262277
0.095740
0.242795
0.270132
0.118678
0.045778
-0.018009
-0.239535
-0.462003
-0.511964
-0.440322
-0.401987
-0.396959
-0.371193
-0.448806
-0.535845
-0.538359
-0.561297
-0.617543
-0.537416
-0.320918
-0.209998
-0.257445
-0.330030
-0.347312
-0.257759
-0.129243
-0.184232
-0.343227
-0.385333
-0.364909
-0.393817
-0.293266
-0.078653
-0.066713
-0.268129
-0.301436
-0.007325
0.199119
0.066517
0.001159
0.161412
0.140045
0.040751
0.220800
0.403991
0.270761
0.039808
0.004616
0.101082
0.066203
-0.146839
-0.250532
-0.230422
-0.306149
-0.362709
-0.379363
-0.421468
-0.509136
-0.535845
-0.468602
-0.438436
-0.543386
-0.646451
-0.574494
-0.549671
-0.595861
-0.610944
-0.657449
-0.799477
-1.015975
-1.216448
-1.193510
-1.115898
-1.334596
-1.623365
-1.558007
-1.359733
-1.438603
-1.544810
-1.447401
-1.387385
-1.395240
-1.239701
-1.159574
-1.466568
-1.752510
-1.668299
-1.618966
-1.706948
-1.605768
-1.429176
-1.515273
-1.717003
-1.718260
-1.649759
-1.694065
-1.647874
-1.444573
-1.345907
-1.381100
-1.334910
-1.226817
-1.083218
-0.820215
-0.702696
-0.719350
-0.533331
-0.373392
-0.494996
-0.521391
-0.223509
0.057091
0.133133
0.235883
0.442641
0.581212
0.585926
0.585926
0.694018
0.907060
1.084281
1.109733
1.171006
1.330630
1.349169
1.162522
1.040290
1.174776
1.291353
1.124815
0.857413
0.687733
0.549162
0.319780
0.056777
-0.037175
0.030697
0.006816
-0.185174
-0.330344
-0.312747
-0.325002
-0.494367
-0.690756
-0.731604
-0.673159
-0.722806
-0.886515
-1.014404
-1.074106
-1.142292
-1.175285
-1.095787
-1.008748
-1.072849
-1.233416
-1.196652
-0.933649
-0.867976
-1.005920
-0.975754
-0.772139
-0.643937
-0.598689
-0.453833
-0.267814
-0.244561
-0.362394
-0.379048
-0.195543
0.003045
0.007444
-0.043459
0.083172
0.213574
0.140360
0.113023
0.234626
0.264792
0.240911
0.302184
0.348689
0.275475
0.169268
0.185608
0.303441
0.295271
0.148844
-0.025549
-0.173233
-0.212196
-0.143382
-0.161607
-0.425238
-0.754856
-0.908196
-0.915424
-1.123438
-1.501446
-1.616451
-1.575288
-1.769477
-2.009542
-2.009856
-2.022111
-2.207816
-2.369011
-2.468620
-2.586138
-2.629187
-2.643327
-2.818348
-3.083551
-3.247888
-3.333357
-3.498009
-3.705709
-3.824485
-3.841767
-3.863134
-3.953001
-3.925664
-3.824799
-3.960542
-4.238628
-4.351434
-4.350177
-4.386627
-4.412078
-4.406422
-4.481521
-4.586786
-4.590870
-4.597155
-4.730699
-4.875241
-4.911690
-4.966679
-4.981447
-4.846647
-4.739811
-4.735098
-4.722215
-4.651515
-4.593384
-4.608153
-4.565104
-4.448842
-4.374058
-4.265023
-4.102885
-4.016788
-3.977196
-3.856535
-3.672087
-3.493295
-3.383632
-3.330843
-3.230920
-3.097376
-2.965717
-2.820547
-2.681976
-2.571684
-2.511668
-2.484959
-2.370896
-2.101609
-1.848346
-1.671125
-1.537581
-1.415663
-1.239385
-1.053995
-0.893113
-0.729404
-0.591147
-0.522018
-0.327829
0.009016
0.290873
0.468094
0.594411
0.733296
0.877838
1.084282
1.288525
1.411072
1.514765
1.611231
1.679103
1.754830
1.909427
2.083820
2.197882
2.249729
2.254756
2.241873
2.363477
2.567721
2.628051
2.623966
2.733944
2.864974
2.836694
2.791446
2.851148
2.937559
2.917135
2.823811
2.836066
2.953899
3.062934
3.062305
3.054764
3.133633
3.181395
3.088071
2.994433
3.045651
3.039367
2.826639
2.639677
2.623338
2.545411
2.291206
1.969443
1.673447
1.394418
1.122617
0.889465
0.705645
0.556390
0.354974
0.117737
-0.009208
-0.128298
-0.403242
-0.606543
-0.719977
-0.967583
-1.203564
-1.293117
-1.472851
-1.729570
-1.776389
-1.749366
-1.948268
-2.237980
-2.346387
-2.396034
-2.544032
-2.636099
-2.556915
-2.510096
-2.646468
-2.813948
-2.850083
-2.800122
-2.838771
-2.921097
-2.878678
-2.806721
-2.838457
-2.855739
-2.774984
-2.727851
-2.767757
-2.805778
-2.817719
-2.849769
-2.891561
-2.806407
-2.593993
-2.450708
-2.377180
-2.283856
-2.207501
-2.092181
-1.895165
-1.702547
-1.521870
-1.283690
-1.007804
-0.747628
-0.525160
-0.390359
-0.286666
-0.133640
0.033212
0.198806
0.424103
0.690249
0.898577
1.049404
1.172578
1.270616
1.380907
1.514451
1.595206
1.592378
1.614374
1.685702
1.753888
1.825530
1.890260
1.899372
1.841870
1.778397
1.731578
1.728436
1.759544
1.812647
1.836842
1.787510
1.688216
1.559385
1.442809
1.261503
0.966449
0.704389
0.600696
0.447670
0.207919
0.081602
-0.066082
-0.396643
-0.689497
-0.748885
-0.749199
-0.815814
-0.987065
-1.173084
-1.194451
-1.042682
-0.941817
-1.018487
-1.090129
-1.133492
-1.201992
-1.295316
-1.426346
-1.517470
-1.487305
-1.469394
-1.618649
-1.749051
-1.731141
-1.771361
-1.859343
-1.842375
-1.915274
-2.090924
-2.128631
-2.009541
-1.927215
-2.028080
-2.232009
-2.279457
-2.136800
-2.103807
-2.199016
-2.316849
-2.486843
-2.575768
-2.448508
-2.271601
-2.155968
-2.167280
-2.268459
-2.226039
-2.068300
-2.033421
-2.063901
-1.970577
-1.826664
-1.639074
-1.397123
-1.178111
-1.030113
-0.845351
-0.634822
-0.425865
-0.286665
-0.283837
-0.167261
0.223631
0.710045
1.025838
1.071086
0.883810
0.725128
0.847046
1.159382
1.415786
1.655223
2.037945
2.095447
1.294183
0.524655
0.575873
1.151526
1.760173
2.462772
3.252096
3.276919
2.598201
2.248473
2.272982
2.061826
2.192227
3.064820
3.392867
2.584376
1.971958
2.174317
2.216108
1.807306
2.202597
2.989407
2.691525
2.025376
1.824588
1.210286
0.558905
1.180121
2.226163
2.817528
3.258381
3.470480
2.371962
0.740525
0.551364
1.810763
2.729860
2.908338
3.151545
2.417838
0.655999
-0.109444
0.838876
1.698586
1.676276
1.695444
2.080993
2.017206
1.192061
0.316955
-0.037173
0.122452
0.753094
1.898116
2.166147
1.225997
0.391425
-0.407954
-1.216760
-0.597429
1.322463
1.951848
1.027409
1.361741
2.669844
2.323258
1.058831
1.310837
2.754055
3.392867
2.537243
1.375566
1.548074
1.808249
0.268565
-0.917621
1.022382
3.730970
3.796956
2.625853
2.708493
2.841409
1.601492
1.400076
3.012031
3.318397
1.913828
1.701414
2.866233
2.992550
2.181230
2.688698
3.726256
2.744315
1.306124
2.238733
3.371186
2.141324
1.425842
3.411093
5.009851
3.872369
2.812501
4.155797
4.908671
3.004490
1.636056
2.956414
4.167423
3.263094
2.679899
3.649587
4.149199
3.654300
3.665298
4.096409
3.849117
3.581715
3.873312
3.476136
1.798509
0.911148
2.153265
3.217218
2.379190
1.467948
2.328914
3.209048
1.961904
0.332980
0.912090
2.171175
1.496228
0.715074
1.724038
2.987522
2.973068
2.430722
2.536301
3.083988
3.138977
2.780765
3.109126
3.894051
3.838434
2.757198
2.436064
3.276292
3.505359
2.849579
3.287604
4.420058
3.781246
2.599773
3.265294
4.032308
2.694982
1.905658
3.442515
4.388007
3.550607
2.990979
2.840467
1.744149
1.114135
2.543528
4.157683
4.151398
3.542123
3.281948
2.778565
2.158921
2.409041
3.534896
4.099238
3.408265
2.601030
2.618941
3.082103
2.916194
2.245332
1.876436
1.843757
1.453180
0.769120
0.807141
1.505026
1.888691
1.299211
0.471238
0.751209
1.836530
2.028519
1.164410
0.841077
1.452237
1.912886
2.072824
2.454289
2.544785
2.299692
1.816106
0.910520
0.649402
1.621917
2.208568
1.319950
0.542252
0.610124
0.616094
0.307843
0.091659
0.089459
-0.082106
-0.273781
-0.782505
-1.497673
-0.995861
0.172100
-0.099702
-1.397750
-1.241582
0.273907
0.859302
0.294332
0.227088
0.754666
0.945084
0.802742
0.812169
1.048463
0.655058
-0.387214
-0.789103
-0.129239
0.474695
0.656001
0.850504
0.465897
-0.431519
-0.311801
0.474381
0.086946
-0.999317
-1.190992
-0.689495
-0.625708
-0.811727
-0.844720
-1.120293
-1.634359
-1.773559
-1.583769
-1.508042
-1.403406
-1.527838
-2.061071
-2.177962
-1.791784
-1.917158
-2.431538
-2.476158
-2.492183
-2.996508
-2.862021
-1.971518
-2.259031
-3.443017
-3.336181
-2.389432
-2.207813
-2.172306
-1.274261
-0.617224
-0.846920
-0.723117
-0.309916
-0.584231
-1.168997
-0.937101
-0.593972
-1.253208
-1.662010
-1.175910
-0.792874
-0.654302
-0.241101
0.063379
-0.082733
-0.681954
-1.585026
-1.906474
-1.193820
-1.035767
-1.850543
-1.993199
-1.563973
-1.352188
-1.295942
-1.126577
-1.168054
-1.126263
-0.896881
-1.213930
-1.716999
-1.698145
-1.385181
-1.459023
-1.596652
-1.478505
-1.884793
-2.430595
-1.990057
-1.567115
-2.166649
-2.398230
-1.713228
-1.842059
-2.644580
-2.545286
-2.001997
-2.007653
-2.217553
-2.444107
-2.700511
-2.652750
-2.658406
-2.774668
-2.374350
-1.670494
-1.602622
-1.943238
-1.788955
-1.469392
-1.350616
-1.025083
-0.905993
-1.674264
-2.277255
-1.727368
-1.210788
-1.276146
-0.955640
-0.824610
-2.007653
-3.136965
-2.767755
-2.030905
-2.143711
-2.436565
-2.105690
-1.740251
-2.016765
-2.144339
-1.876623
-2.037504
-2.455104
-2.240491
-1.316995
-0.441888
0.039185
0.179642
0.237458
-0.056653
-0.563177
-0.552494
-0.372445
-0.660272
-1.200418
-1.417860
-0.994918
-0.434032
-0.483679
-0.501590
0.130623
0.590643
0.601327
0.880041
0.983420
0.124653
-1.134746
-1.759418
-1.675207
-1.304426
-0.935530
-0.761451
-0.790674
-0.761451
-0.647389
-0.823353
-0.627593
0.166130
0.491978
0.125596
-0.018946
0.302817
0.109885
-0.788160
-1.560202
-1.782356
-1.788641
-1.902074
-2.025249
-2.235777
-2.176075
-1.635615
-1.478504
-1.728310
-1.666723
-1.589738
-1.829175
-2.027134
-1.945123
-2.033419
-2.578907
-3.077262
-3.273336
-3.381428
-3.359747
-3.304758
-3.755666
-4.142472
-3.657000
-3.253540
-3.598241
-3.721730
-3.434532
-3.822909
-4.818363
-5.016008
-4.576726
-4.542162
-4.455437
-3.871928
-3.651030
-4.347973
-4.857326
-4.438469
-3.959596
-4.207516
-4.605949
-4.402962
-3.992589
-4.047577
-4.305553
-4.081199
-3.546080
-3.396511
-3.629977
-3.703191
-3.431704
-3.119682
-3.235944
-3.513401
-3.220233
-2.353296
-1.809065
-1.906159
-1.807179
-1.174966
-0.680381
-0.778419
-0.927674
-0.589886
-0.371188
-1.039851
-2.023992
-2.336328
-1.896418
-1.563658
-1.798381
-2.061070
-1.962090
-1.827289
-1.812207
-1.565857
-1.368212
-1.543547
-1.936953
-2.706166
-3.505545
-3.716388
-3.777347
-4.036265
-3.836421
-2.706481
-1.709770
-1.707571
-1.813149
-1.228383
-0.645817
-0.594599
-0.372759
0.044213
0.096374
-0.018317
-0.079590
-0.625078
-1.704429
-2.400115
-2.497209
-2.730047
-3.166500
-3.281191
-3.210177
-3.365717
-3.613323
-3.815368
-3.891409
-3.697849
-3.219290
-2.587391
-2.089350
-1.806550
-1.457765
-0.963180
-0.769306
-0.807955
-0.498133
-0.285405
-1.285571
-2.626354
-2.574193
-1.890133
-2.244575
-2.746701
-2.077095
-1.387379
-1.698772
-2.212524
-2.265314
-2.371206
-2.664060
-2.130513
-0.912905
-0.751395
-1.536634
-1.225869
0.038243
0.288678
-0.187053
-0.284462
-0.553750
-1.121548
-0.904107
-0.138663
-0.017374
-0.259639
-0.145890
0.073436
0.228976
0.691195
1.023956
0.608555
-0.131122
-0.789101
-1.345273
-1.412202
-1.332076
-1.699086
-1.691859
-0.943698
-0.628534
-1.354071
-1.943865
-1.822575
-1.954863
-2.239233
-1.956748
-1.481331
-1.235296
-0.904735
-0.671583
-0.923588
-0.939299
0.006507
1.289473
2.069684
2.592863
3.307088
4.059962
4.585026
4.962092
4.892021
4.042995
2.572439
0.874386
-0.651787
-1.968060
-3.274592
-4.500684
-5.452146
-6.085930
-5.806902
-4.138072
-1.375753
1.583270
3.889340
5.413314
6.347808
6.776406
6.688738
6.213950
5.759900
4.879138
2.742432
-0.311171
-3.690935
-6.995287
-10.216684
-12.883795
-13.543660
-11.662731
-8.156963
-3.725814
0.591902
3.345109
4.415975
4.387067
3.015491
0.017819
-3.306328
-6.090644
-7.916270
-7.934809
-6.820266
-5.643192
-4.149070
-3.052437
-3.172156
-3.194151
-1.531606
0.746499
2.322947
4.021314
5.648980
7.181752
8.534475
8.575009
6.710106
4.320138
3.473940
3.363963
2.659792
1.813909
1.131734
0.415938
-0.509758
-1.933181
-3.435787
-4.005156
-3.548593
-2.668145
-1.997282
-1.548888
-0.570089
0.697795
1.002275
0.357493
-0.007632
0.572734
2.207628
3.808900
4.286831
4.356588
4.876310
4.787071
3.867031
3.578890
3.970096
3.993976
4.050851
5.301452
6.427307
6.076007
4.950152
3.978265
3.029945
1.868898
1.499373
2.169293
2.218626
1.245168
0.323871
-0.007004
0.020962
-0.264351
-0.357046
0.874387
3.170402
5.076469
6.035787
6.201382
5.609389
5.143398
5.386920
6.010963
6.252914
5.547173
4.933498
5.268458
5.934293
6.184728
6.359121
6.515289
6.102088
5.428397
4.757849
4.288088
4.238127
4.163970
3.566321
2.837956
2.357512
2.188147
1.779973
0.584047
-0.661527
-1.090125
-0.963493
-1.347786
-2.063268
-2.180473
-1.671434
-0.964750
-0.463253
-0.407636
-0.162229
0.961427
2.356884
2.746832
2.224282
2.067800
2.591607
3.306775
3.921392
4.592254
5.040962
4.925643
4.360673
3.533957
2.631827
2.008726
1.697019
1.259623
0.459929
-0.659641
-1.386121
-0.955009
0.138481
0.829768
0.813743
0.577448
0.488838
0.256314
-0.204963
-0.483991
-0.362388
-0.202763
-0.299543
-0.857601
-1.678661
-2.140566
-2.100660
-1.866565
-1.543860
-1.100494
-0.824921
-0.743224
-0.485877
0.099204
0.789548
1.418933
1.691363
1.480206
1.202435
0.923406
0.585932
0.413739
0.167704
-0.058221
0.235261
1.040925
1.582328
1.281619
0.810601
0.520260
0.180901
0.064639
0.229920
0.273282
-0.027742
-0.502844
-0.848488
-0.600567
0.124970
0.483496
0.651605
1.429617
2.672676
3.593659
4.040796
4.388953
4.916531
5.321562
5.117633
4.214561
2.955476
2.029465
1.575101
1.017044
0.019706
-0.587056
-0.187052
0.396143
0.554511
1.110682
2.514623
3.845665
4.536323
4.961151
5.499098
6.006879
5.880562
4.796813
3.742286
3.203711
2.717296
2.563328
2.872207
3.010465
2.723266
2.629000
3.158149
3.725632
3.626653
3.339140
3.641107
3.826183
2.908657
1.719015
1.325924
1.443443
1.130164
0.536914
0.457731
0.715706
0.540999
-0.202449
-0.812038
-0.790042
-0.357360
0.023477
0.022848
-0.270006
-0.102212
0.721048
1.637632
2.035436
2.231196
2.656023
2.776684
2.382965
2.230882
2.442981
2.198831
1.521370
1.492462
2.076913
2.004957
1.352319
1.039040
0.653805
-0.514156
-1.686202
-2.304903
-2.348580
-2.078978
-1.861223
-1.559885
-1.082897
-0.728769
-0.743852
-1.057759
-1.462162
-1.521235
-1.325161
-1.515265
-2.349208
-3.074431
-3.200120
-3.327065
-3.846787
-4.040348
-3.227457
-2.091861
-1.415028
-0.880852
-0.041881
0.754042
0.930634
0.669202
0.403371
-0.013915
-1.040162
-2.582046
-4.060458
-5.084819
-5.369818
-4.939963
-4.329431
-3.819136
-3.111195
-2.197439
-1.381407
-0.755163
-0.294201
0.002738
0.076266
-0.124207
-0.387839
-0.389410
-0.235441
-0.351075
-0.503472
-0.193964
0.411855
0.817514
0.755613
0.301249
-0.314311
-0.796012
-1.119660
-1.428854
-1.621786
-1.823202
-2.264683
-2.681026
-2.571048
-2.107886
-2.052583
-2.119512
-1.554542
-0.469536
0.426937
0.602901
0.386089
0.327958
0.460245
0.595046
0.570851
0.355295
0.100776
0.055528
-0.019571
-0.402293
-0.825235
-0.933327
-0.456024
0.455532
1.374629
1.979191
2.531592
3.299863
3.842524
3.755798
3.346054
3.133954
3.121386
2.848327
2.071258
1.131422
0.490725
0.223008
0.160792
0.179331
0.255687
0.380119
0.366293
0.293394
0.375091
0.658205
1.042183
1.463240
1.796628
1.909434
2.012499
2.114935
2.006528
1.692307
1.398196
1.344464
1.226945
0.732047
0.126542
-0.104411
0.048929
-0.076445
-0.448797
-0.667181
-0.756734
-0.842831
-1.195073
-1.845197
-2.416137
-2.655888
-2.650546
-2.290448
-1.571196
-0.901590
-0.473621
-0.319652
-0.511956
-0.845030
-1.061529
-1.429796
-1.864050
-1.539774
-0.810780
-0.716199
-0.913530
-0.560974
-0.072360
-0.317767
-0.754849
-0.751078
-0.724369
-0.897191
-1.091065
-1.177162
-1.370094
-1.936007
-2.817397
-3.337120
-3.219287
-3.128791
-3.326122
-3.474120
-3.562416
-3.592581
-3.081658
-2.225719
-1.716680
-1.562712
-1.179990
-0.825862
-1.207327
-1.877876
-2.282907
-2.736957
-3.413475
-3.939482
-3.999812
-3.646313
-3.145759
-2.809856
-2.610011
-2.133652
-1.539459
-1.287139
-1.264201
-1.075354
-0.851000
-0.893420
-1.259174
-2.009534
-2.846620
-3.318894
-3.500514
-3.858727
-4.272556
-4.085595
-3.283702
-2.391313
-1.687143
-1.146054
-0.953122
-1.163964
-1.232150
-1.079125
-1.168364
-1.336158
-1.114632
-0.807637
-0.655554
-0.274090
0.071240
-0.016742
-0.042194
0.292766
0.439193
0.162678
0.000854
0.151052
0.018451
-0.645499
-1.193501
-1.389261
-1.772297
-2.380001
-2.566334
-2.051011
-1.279912
-0.776215
-0.461994
-0.135518
0.156080
0.423796
0.661662
0.880360
1.095916
1.330011
1.638576
1.990190
1.880212
1.226003
0.968342
1.351692
1.453814
0.938491
0.554512
0.585934
0.597875
0.543515
0.711623
1.068893
1.566619
2.212030
2.773858
3.020521
2.919656
2.523423
1.942742
1.385942
0.958915
0.609187
0.311619
0.156080
0.199757
0.337385
0.613272
1.116340
1.651459
1.960967
2.072516
2.165840
1.998988
1.339752
0.584049
0.158908
-0.162541
-0.586425
-0.854456
-0.779043
-0.693260
-0.997427
-1.442050
-1.745273
-1.892015
-1.807175
-1.610473
-1.445506
-1.243462
-1.138512
-1.315733
-1.622099
-1.800262
-1.830742
-1.948575
-2.472382
-3.215829
-3.574670
-3.557388
-3.555503
-3.535707
-3.409704
-3.322036
-3.315123
-3.321722
-3.416931
-3.647884
-3.738379
-3.792425
-4.177975
-4.672559
-4.891886
-4.885601
-5.045540
