EVENT_NAME: 202302060117
EVENT_ID: 13194
EVENT_DATE_YYYYMMDD: 2023/02/06
EVENT_TIME_HHMMSS: 01:17:32.00000
EVENT_LATITUDE_DEGREE: 37.288
EVENT_LONGITUDE_DEGREE: 37.043
EVENT_DEPTH_KM: 8.6
HYPOCENTER_REFERENCE: AFAD
MAGNITUDE_W: 7.7
MAGNITUDE_W_REFERENCE: AFAD
MAGNITUDE_L: 
MAGNITUDE_L_REFERENCE: 
FOCAL_MECHANISM: 
NETWORK: TK
STATION_CODE: 5817
STATION_NAME: 
STATION_LATITUDE_DEGREE: 39.45554
STATION_LONGITUDE_DEGREE: 37.04523
STATION_ELEVATION_M: 1389.0
LOCATION: Kahramanmaras_Pazarck_Turkiye
SENSOR_DEPTH_M: 
VS30_M/S: None
SITE_CLASSIFICATION_EC8: unknown
MORPHOLOGIC_CLASSIFICATION: 
EPICENTRAL_DISTANCE_KM: 241.02
EARTHQUAKE_BACKAZIMUTH_DEGREE: 
DATE_TIME_FIRST_SAMPLE_YYYYMMDD_HHMMSS: 2023/02/06 01:17:53.5510940
DATE_TIME_FIRST_SAMPLE_PRECISION: millisecond
SAMPLING_INTERVAL_S: 0.01
NDATA: 14501
DURATION_S: 
STREAM: HNN
UNITS: cm/s^2
INSTRUMENT: sensor = ACEBOX/SARA | digitizer = 
INSTRUMENT_ANALOG/DIGITAL: 
INSTRUMENTAL_FREQUENCY_HZ: 
INSTRUMENTAL_DAMPING: 
FULL_SCALE_G: 
N_BIT_DIGITAL_CONVERTER: 
PGA_CM/S^2: 8.292
TIME_PGA_S: 
BASELINE_CORRECTION: BASELINE REMOVED
FILTER_TYPE: BUTTERWORTH
FILTER_ORDER: 
LOW_CUT_FREQUENCY_HZ: 
HIGH_CUT_FREQUENCY_HZ: 
LATE/NORMAL_TRIGGERED: 
DATABASE_VERSION: 
HEADER_FORMAT: DYNA 1.2
DATA_TYPE: Acceleration
PROCESSING: Automatic Paolucci et al., 2011
DATA_TIMESTAMP_YYYYMMDD_HHMMSS: 
DATA_LICENSE: U (unknown license)
DATA_CITATION: Turkish Accelerometric Archive v 1.0 - Disaster And Emergency Management Presidency, Earthquake Department
DATA_CREATOR: AFAD
ORIGINAL_DATA_MEDIATOR_CITATION: : AFAD - Disaster And Emergency Management Presidency
ORIGINAL_DATA_MEDIATOR: AFAD PROCESS SERVICE
ORIGINAL_DATA_CREATOR_CITATION: AFAD PROCESS SERVICE
ORIGINAL_DATA_CREATOR: network: TK
USER1: GuestUser
USER2: 
USER3: 
USER4: 
USER5: 
[...]
-5.947896
-6.070171
-6.169767
-6.200159
-6.192443
-6.217458
-6.268892
-6.322430
-6.432781
-6.534715
-6.528869
-6.491460
-6.431841
-6.312135
-6.155490
-5.938291
-5.677839
-5.425571
-5.197851
-4.912851
-4.524512
-4.145993
-3.805817
-3.494865
-3.247507
-3.070755
-2.817317
-2.341772
-2.026846
-1.928884
-1.517165
-0.976858
-0.793794
-0.962127
-0.976621
-0.595062
-0.602075
-0.982462
-0.908113
-0.740012
-0.779990
-0.707745
-0.668466
-0.720601
-0.776010
-0.945512
-1.122495
-1.137223
-1.132312
-1.248975
-1.394396
-1.544726
-1.713994
-1.775014
-1.737138
-1.732460
-1.705105
-1.554772
-1.328689
-1.091617
-0.864598
-0.646230
-0.454749
-0.376660
-0.435575
-0.560188
-0.683865
-0.746522
-0.717763
-0.600630
-0.437204
-0.327084
-0.258113
-0.094220
0.163426
0.412422
0.676848
1.042040
1.505428
1.990324
2.442490
2.857715
3.221739
3.538301
3.863982
4.231045
4.615409
4.949507
5.231468
5.570007
5.955073
6.265323
6.506135
6.734323
6.904061
6.958537
6.910844
6.789972
6.614391
6.381998
6.070114
5.696975
5.306067
4.928719
4.602807
4.350775
4.157660
3.958934
3.682353
3.340075
2.993355
2.680535
2.418450
2.202890
2.038766
1.918128
1.776448
1.621208
1.552005
1.556215
1.569075
1.642956
1.764064
1.805915
1.763132
1.702112
1.642027
1.617480
1.622858
1.584751
1.514145
1.497313
1.554127
1.650219
1.737894
1.762211
1.730649
1.707271
1.694881
1.636900
1.539642
1.487740
1.487742
1.476754
1.474184
1.470444
1.421582
1.415037
1.495465
1.543862
1.477932
1.327134
1.107133
0.802028
0.512355
0.350568
0.250972
0.189952
0.269211
0.479630
0.759954
1.133797
1.576377
1.959338
2.206229
2.369655
2.528872
2.652552
2.696507
2.744671
2.824864
2.844505
2.770860
2.601124
2.372706
2.232896
2.232430
2.265396
2.234770
2.069477
1.739356
1.364815
1.135928
1.078182
1.055271
0.994017
0.886238
0.691252
0.432440
0.157730
-0.206993
-0.681132
-1.097524
-1.361246
-1.585223
-1.861803
-2.164803
-2.468037
-2.738539
-2.927914
-3.064216
-3.197480
-3.284451
-3.308531
-3.348275
-3.383811
-3.368145
-3.370014
-3.388717
-3.409991
-3.472647
-3.506079
-3.495557
-3.549797
-3.669967
-3.835494
-4.090332
-4.418348
-4.813932
-5.320335
-5.826973
-6.164809
-6.353716
-6.465937
-6.523450
-6.622111
-6.794184
-6.919031
-6.999690
-7.146045
-7.281179
-7.298712
-7.317181
-7.402516
-7.397137
-7.278835
-7.177833
-7.048308
-6.853553
-6.708130
-6.574163
-6.327506
-6.013047
-5.719163
-5.436033
-5.151267
-4.915598
-4.698866
-4.368042
-3.932242
-3.504392
-3.098519
-2.707141
-2.351534
-2.009955
-1.709056
-1.581636
-1.633537
-1.713962
-1.793452
-1.891879
-1.956172
-2.038234
-2.231349
-2.513541
-2.810229
-3.087511
-3.323411
-3.441711
-3.458543
-3.480519
-3.499689
-3.513482
-3.570995
-3.606764
-3.535689
-3.407567
-3.330880
-3.321293
-3.310537
-3.219588
-3.039563
-2.865149
-2.719025
-2.623166
-2.675536
-2.758532
-2.721357
-2.620823
-2.488727
-2.408065
-2.440328
-2.432611
-2.378837
-2.409930
-2.451545
-2.446868
-2.442892
-2.362231
-2.197636
-2.105051
-2.055952
-1.922219
-1.744532
-1.576664
-1.393366
-1.160035
-0.849551
-0.502360
-0.215958
-0.044583
0.043326
0.093360
0.125158
0.157189
0.220784
0.338619
0.473755
0.584342
0.665003
0.656120
0.554654
0.505324
0.557228
0.659399
0.885248
1.248103
1.562795
1.761758
1.916299
2.014028
2.126719
2.417565
2.810111
3.124102
3.374968
3.599649
3.720523
3.686858
3.579780
3.600589
3.804929
4.018387
4.203556
4.453487
4.669049
4.718381
4.630475
4.465182
4.271131
4.063520
3.794655
3.522049
3.407255
3.487449
3.640588
3.753747
3.800040
3.797937
3.826228
3.902213
3.840492
3.526270
3.118061
2.805709
2.597397
2.414803
2.311466
2.339990
2.328302
2.167918
1.990467
1.823537
1.619901
1.537840
1.606343
1.594187
1.466301
1.318075
1.152548
1.089424
1.236484
1.460229
1.626694
1.748738
1.877327
2.060158
2.291619
2.469072
2.478893
2.319211
2.071621
1.790130
1.514952
1.265725
0.974883
0.655517
0.490224
0.531140
0.640324
0.792060
1.042926
1.327458
1.559153
1.737775
1.866832
1.914294
1.905645
1.917570
1.907752
1.815637
1.731471
1.720017
1.749243
1.771455
1.662740
1.327476
0.874846
0.457052
0.075262
-0.270055
-0.528868
-0.774120
-1.009786
-1.102135
-1.089508
-1.064491
-0.989207
-0.901765
-0.860382
-0.815491
-0.712619
-0.540076
-0.354206
-0.201768
-0.017301
0.203405
0.372675
0.563221
0.880719
1.180682
1.324937
1.408170
1.494910
1.581650
1.733152
1.925568
2.049248
2.078942
2.005765
1.823638
1.694817
1.771036
1.920901
1.997588
2.001330
1.908280
1.711892
1.482070
1.303918
1.177201
1.035755
0.887529
0.716625
0.503169
0.347227
0.266802
0.205315
0.199004
0.301408
0.463431
0.575889
0.649303
0.740017
0.757086
0.652580
0.557893
0.528903
0.474898
0.412241
0.421594
0.492670
0.645808
0.859734
1.054255
1.253919
1.430203
1.519749
1.582642
1.642729
1.655355
1.598778
1.502922
1.472530
1.562309
1.729008
1.959767
2.242663
2.495867
2.727327
3.028693
3.312758
3.416566
3.366534
3.198202
2.840727
2.336661
1.837505
1.448000
1.217478
1.108997
1.009634
0.892971
0.805766
0.693544
0.478686
0.248865
0.084974
-0.086164
-0.233689
-0.252859
-0.217321
-0.179678
-0.126137
-0.152555
-0.272024
-0.402248
-0.588349
-0.890882
-1.273606
-1.648616
-1.931276
-2.120650
-2.261395
-2.355614
-2.415231
-2.507579
-2.648090
-2.761247
-2.799121
-2.765920
-2.708872
-2.665619
-2.615351
-2.567187
-2.494241
-2.305566
-2.076209
-1.940138
-1.870465
-1.799156
-1.751927
-1.776942
-1.848951
-1.983149
-2.255054
-2.606684
-2.912723
-3.134595
-3.301291
-3.447881
-3.546075
-3.585819
-3.613873
-3.622289
-3.610831
-3.588385
-3.458159
-3.182511
-2.819656
-2.334292
-1.760786
-1.270745
-0.850143
-0.414577
-0.034889
0.320250
0.787145
1.292616
1.670667
1.932755
2.150188
2.296780
2.402925
2.564714
2.713177
2.708268
2.585760
2.464420
2.382593
2.347992
2.372542
2.382129
2.316433
2.301705
2.458584
2.681862
2.831260
2.898829
2.930159
2.943720
2.869608
2.668777
2.443865
2.234384
2.002693
1.809577
1.696888
1.597058
1.504476
1.481565
1.442288
1.289386
1.126665
0.995973
0.823432
0.677544
0.602262
0.510381
0.450998
0.520905
0.623777
0.722441
0.958343
1.280517
1.488364
1.612980
1.766352
1.889798
1.974200
2.146043
2.401818
2.662971
2.958258
3.223386
3.334441
3.326259
3.218480
3.010869
2.859136
2.840433
2.862645
2.895612
2.890236
2.732190
2.470105
2.224152
2.023555
1.881173
1.755859
1.594541
1.444210
1.309544
1.122274
0.950668
0.936174
1.054243
1.215798
1.438141
1.707009
1.949692
2.145849
2.257839
2.236798
2.113121
1.905277
1.630098
1.393964
1.231710
1.092836
1.035323
1.087929
1.138898
1.170228
1.284323
1.437227
1.504328
1.520228
1.535426
1.509242
1.436532
1.306075
1.125117
0.973384
0.849239
0.700779
0.560969
0.443604
0.272700
0.013420
-0.269707
-0.533897
-0.804165
-1.081214
-1.293734
-1.373691
-1.363871
-1.311733
-1.166309
-0.936485
-0.745004
-0.675331
-0.671823
-0.644000
-0.630672
-0.635814
-0.569181
-0.481973
-0.443863
-0.367176
-0.200477
-0.013672
0.122867
0.240702
0.405530
0.569891
0.621562
0.553762
0.479649
0.468428
0.502798
0.593746
0.767459
0.986996
1.174269
1.326004
1.501120
1.680911
1.821191
1.911672
1.940898
1.952822
1.962643
1.897415
1.763451
1.622238
1.455308
1.231566
0.943295
0.562207
0.121500
-0.314063
-0.745184
-1.103827
-1.285253
-1.355157
-1.385783
-1.291094
-1.033214
-0.671529
-0.182657
0.418904
0.993346
1.526171
2.058762
2.552777
3.046558
3.557173
4.013079
4.386454
4.654153
4.828568
4.944298
4.960666
4.873460
4.783917
4.755395
4.725237
4.641539
4.512718
4.283130
3.916070
3.422057
2.730019
1.832239
0.845849
-0.126045
-0.962804
-1.604576
-2.147218
-2.631879
-3.047101
-3.493419
-3.977846
-4.333450
-4.493834
-4.502015
-4.374828
-4.190361
-4.048912
-3.906061
-3.692369
-3.481015
-3.329279
-3.180583
-3.000324
-2.764187
-2.400397
-1.977925
-1.690119
-1.540253
-1.423354
-1.347602
-1.263667
-1.063769
-0.774093
-0.432982
-0.001858
0.535643
1.103538
1.539571
1.767057
1.887464
1.930951
1.825510
1.639642
1.498664
1.436241
1.458453
1.501941
1.470613
1.382941
1.267212
1.125299
1.059135
1.075970
1.001156
0.810379
0.623343
0.458049
0.341386
0.354480
0.466937
0.568173
0.595762
0.528897
0.363136
0.120924
-0.177634
-0.512664
-0.820808
-1.037770
-1.175476
-1.311077
-1.476604
-1.654055
-1.887617
-2.180330
-2.438674
-2.665457
-2.948350
-3.308864
-3.714735
-4.094186
-4.352531
-4.452829
-4.445580
-4.381518
-4.284023
-4.184892
-4.051159
-3.799825
-3.469001
-3.191482
-3.013561
-2.932432
-2.977086
-3.072241
-3.093749
-3.063354
-3.004435
-2.909045
-2.893613
-2.984559
-3.066153
-3.150786
-3.231912
-3.161304
-2.974499
-2.837025
-2.736725
-2.643672
-2.592002
-2.529810
-2.455461
-2.445173
-2.465746
-2.476266
-2.519517
-2.558793
-2.509461
-2.430670
-2.397703
-2.343695
-2.287582
-2.361695
-2.514363
-2.613024
-2.673576
-2.721036
-2.719398
-2.655804
-2.561582
-2.495182
-2.461281
-2.436964
-2.449121
-2.468758
-2.446312
-2.437427
-2.463377
-2.472260
-2.477636
-2.505457
-2.491661
-2.402583
-2.329637
-2.328467
-2.369848
-2.454715
-2.528126
-2.504511
-2.409588
-2.252241
-2.038783
-1.882839
-1.804983
-1.737415
-1.715203
-1.797030
-1.974481
-2.178819
-2.363751
-2.573466
-2.784817
-2.868282
-2.761435
-2.501919
-2.132518
-1.685730
-1.268868
-0.980127
-0.809688
-0.692788
-0.597865
-0.585472
-0.650467
-0.771105
-1.009577
-1.292704
-1.556192
-1.731305
-1.823887
-2.036408
-2.094856
-1.894023
-1.996658
-2.138806
-1.812190
-1.477157
-1.325187
-1.103079
-0.910896
-0.727130
-0.431142
-0.236855
-0.200615
-0.154088
-0.126031
-0.161801
-0.226561
-0.356317
-0.545224
-0.723143
-0.906906
-1.194943
-1.595436
-2.037780
-2.480590
-2.838533
-3.032116
-3.069288
-3.032814
-3.044970
-3.135916
-3.293728
-3.537110
-3.816496
-4.061748
-4.246681
-4.420625
-4.637120
-4.808725
-4.906919
-5.014231
-5.065197
-4.986406
-4.847296
-4.703275
-4.595260
-4.545927
-4.453576
-4.191254
-3.766209
-3.275468
-2.769529
-2.231560
-1.658054
-1.089926
-0.582818
-0.172035
0.131201
0.370611
0.638544
0.973109
1.354668
1.748851
2.110303
2.445570
2.777095
3.078695
3.342186
3.587441
3.803471
3.919903
3.892784
3.799734
3.695228
3.562666
3.454185
3.409999
3.331444
3.133185
2.855903
2.553137
2.237746
1.895702
1.481180
1.036499
0.686038
0.441722
0.251412
0.138022
0.111370
0.152987
0.324362
0.633209
0.951409
1.199469
1.372246
1.496862
1.628958
1.758951
1.843821
1.863227
1.799869
1.726926
1.704483
1.631773
1.473961
1.349816
1.257000
1.090771
0.842480
0.510255
0.118412
-0.203759
-0.466546
-0.827528
-1.268936
-1.683924
-2.104524
-2.525358
-2.838178
-3.042515
-3.204535
-3.340838
-3.435291
-3.493973
-3.549615
-3.605491
-3.692463
-3.807957
-3.926491
-4.027023
-4.076586
-4.207745
-4.387534
-4.457672
-4.492974
-4.488764
-4.515182
-4.681878
-4.862602
-4.844365
-4.811164
-5.286473
-5.655871
-5.302602
-5.053607
-5.106678
-5.026718
-4.778891
-4.511894
-4.510256
-4.630192
-4.694252
-4.705239
-4.639774
-4.494117
-4.364358
-4.647953
-4.622234
-3.924816
-3.827087
-3.942816
-3.602873
-3.391987
-3.027028
-2.508698
-2.060507
-1.370804
-0.740953
-0.348172
0.045310
0.356729
0.414712
0.391801
0.563877
0.753254
0.829474
0.954089
1.083380
1.167314
1.232311
1.241431
1.230911
1.313910
1.528070
1.748075
1.879002
1.940726
1.971355
2.033780
2.123559
2.205857
2.282310
2.281844
2.135488
1.913148
1.730788
1.572742
1.390615
1.246364
1.150274
1.003685
0.767785
0.534690
0.373839
0.234731
0.093051
-0.038810
-0.133730
-0.107310
0.057986
0.293188
0.491917
0.539846
0.432535
0.261163
0.095635
-0.082049
-0.282646
-0.406323
-0.402815
-0.278434
0.008203
0.370356
0.623794
0.697675
0.605093
0.420862
0.213017
-0.018207
-0.168304
-0.098163
0.107580
0.274746
0.372007
0.430224
0.441214
0.419939
0.371311
0.261661
0.136581
0.064105
0.019451
-0.031983
-0.086690
-0.132046
-0.167815
-0.185115
-0.149343
-0.052549
0.090536
0.216554
0.231051
0.173070
0.138236
0.166059
0.324575
0.614017
0.923800
1.179107
1.320089
1.313777
1.255095
1.228210
1.214885
1.246683
1.325474
1.338334
1.321735
1.365223
1.349092
1.220505
1.114129
1.047264
0.982270
1.063165
1.289014
1.375988
1.272885
1.162534
1.091461
1.060834
1.035819
0.927573
0.750356
0.590439
0.510716
0.488506
0.497626
0.593952
0.691914
0.624114
0.438246
0.216608
-0.079378
-0.419318
-0.692158
-0.847164
-0.924550
-0.948162
-0.848563
-0.598399
-0.329765
-0.172184
-0.045465
0.160980
0.301493
0.242578
0.093884
-0.085204
-0.334664
-0.613349
-0.877305
-1.184279
-1.595995
-1.996956
-2.227245
-2.370562
-2.569522
-2.765676
-2.873689
-2.878130
-2.743228
-2.472489
-2.139795
-1.808269
-1.563716
-1.453362
-1.354465
-1.180518
-1.041641
-1.000024
-0.974071
-0.922635
-0.842675
-0.687198
-0.490573
-0.319432
-0.097791
0.221109
0.504707
0.664392
0.788072
0.979553
1.267826
1.654061
2.026501
2.227568
2.317581
2.411335
2.470253
2.466748
2.406897
2.314081
2.289533
2.370662
2.446648
2.435894
2.391240
2.379552
2.399426
2.468163
2.611482
2.762517
2.852764
2.885263
2.870301
2.863288
2.939040
3.085866
3.277815
3.534993
3.847348
4.160403
4.464107
4.799608
5.179530
5.596158
6.011383
6.375406
6.699918
6.955928
7.124497
7.301716
7.460934
7.533178
7.645402
7.837117
7.956121
8.004752
8.125861
8.267777
8.291859
8.260532
8.237153
8.114879
7.880849
7.647053
7.435702
7.249133
7.116805
7.016741
6.951746
6.952683
6.985182
6.989625
6.924865
6.825268
6.770094
6.747417
6.712348
6.644548
6.515727
6.346226
6.212729
6.144929
6.100976
6.070350
6.062168
5.993433
5.774834
5.452195
5.122776
4.820010
4.576862
4.468615
4.489191
4.547641
4.627367
4.775129
4.940892
4.995602
4.896941
4.646311
4.181758
3.541154
2.912007
2.400928
1.994589
1.681770
1.442129
1.195474
0.870965
0.515594
0.223817
0.026727
-0.067492
-0.063283
0.023691
0.196235
0.426994
0.686510
0.988344
1.354472
1.817392
2.360504
2.868313
3.276290
3.634703
3.950097
4.207041
4.465389
4.736127
4.958470
5.149483
5.356395
5.549279
5.726031
5.926163
6.101278
6.191525
6.188020
6.083514
5.951653
5.848316
5.664319
5.346824
5.023016
4.738719
4.391298
3.984492
3.580258
3.122484
2.630108
2.211379
1.849696
1.528693
1.303782
1.178468
1.109265
1.070456
1.050351
0.981849
0.796917
0.546521
0.257315
-0.116058
-0.531748
-0.942996
-1.378559
-1.786300
-2.084624
-2.308367
-2.472725
-2.546837
-2.578399
-2.579566
-2.499139
-2.359093
-2.184913
-1.933346
-1.613977
-1.357968
-1.290633
-1.400283
-1.605789
-1.875356
-2.217167
-2.572537
-2.813815
-2.869457
-2.750219
-2.530215
-2.329849
-2.168294
-1.957875
-1.652301
-1.241985
-0.749139
-0.295571
0.001586
0.148646
0.191666
0.120593
-0.051948
-0.274989
-0.508785
-0.678755
-0.750529
-0.778817
-0.790038
-0.804766
-0.815520
-0.707036
-0.421101
-0.001434
0.493750
0.950825
1.283520
1.496277
1.605929
1.660639
1.783851
2.086386
2.523588
2.928760
3.239946
3.542481
3.864421
4.133055
4.324303
4.501990
4.688795
4.824399
4.919556
5.012608
5.002556
4.840770
4.677113
4.585232
4.439344
4.126758
3.661970
3.134993
2.642851
2.242124
1.951281
1.772427
1.673065
1.617189
1.653896
1.813815
1.972097
1.994776
1.859409
1.657409
1.567633
1.644553
1.761687
1.786237
1.659052
1.454949
1.335012
1.316076
1.272825
1.168318
1.049785
0.921431
0.798689
0.701898
0.595054
0.497094
0.469975
0.468807
0.384408
0.205320
0.018518
-0.144204
-0.314641
-0.444397
-0.453280
-0.382672
-0.314168
-0.241690
-0.221348
-0.411658
-0.792278
-1.238128
-1.745701
-2.213762
-2.495486
-2.723905
-3.005162
-3.180508
-3.210199
-3.254620
-3.376193
-3.494727
-3.571879
-3.676151
-3.813155
-3.936598
-4.084825
-4.188629
-4.104461
-3.878378
-3.607639
-3.372204
-3.314922
-3.403297
-3.505465
-3.676369
-3.919751
-4.121049
-4.343623
-4.647792
-4.894213
-5.042439
-5.147646
-5.086156
-4.791337
-4.407206
-4.031025
-3.707916
-3.461726
-3.269310
-3.103546
-2.909026
-2.742093
-2.671018
-2.555287
-2.316812
-2.026902
-1.784687
-1.672463
-1.667318
-1.735352
-1.827701
-1.879836
-1.847337
-1.621020
-1.240397
-0.892505
-0.616389
-0.354769
-0.082160
0.130363
0.239548
0.289582
0.182971
-0.089869
-0.335822
-0.545771
-0.719949
-0.675058
-0.434480
-0.215176
-0.064843
0.035924
-0.030706
-0.291623
-0.466268
-0.336042
-0.079331
0.103967
0.186499
0.055106
-0.292315
-0.651427
-0.973832
-1.271688
-1.423889
-1.386714
-1.252981
-1.102180
-0.972187
-0.887084
-0.798707
-0.676898
-0.605121
-0.633409
-0.709859
-0.760358
-0.760824
-0.735573
-0.630363
-0.391187
-0.098004
0.196114
0.531147
0.900080
1.225527
1.457689
1.582772
1.597970
1.603817
1.707156
1.832005
1.883442
1.856557
1.701083
1.410708
1.146051
1.045285
1.058145
1.050431
0.943587
0.735509
0.528600
0.402351
0.278673
0.123901
-0.006557
-0.177695
-0.447262
-0.699528
-0.806606
-0.808709
-0.820865
-0.816188
-0.772467
-0.804729
-0.917886
-1.001116
-0.980307
-0.820155
-0.566016
-0.306967
-0.088599
0.133743
0.432537
0.758686
0.957181
0.929127
0.753312
0.593163
0.538222
0.674527
1.046967
1.580961
2.195616
2.796242
3.288387
3.644929
3.880598
4.065532
4.217268
4.248131
4.144092
4.010361
3.911467
3.788958
3.552824
3.178750
2.743421
2.345733
1.991999
1.681751
1.385765
0.975686
0.530070
0.251385
0.086091
-0.003919
0.076274
0.196214
0.179615
0.111582
0.076279
0.015727
-0.061892
-0.105845
-0.138809
-0.157511
-0.119167
-0.049494
-0.013722
-0.007876
0.005686
0.022053
0.075360
0.224290
0.414135
0.603979
0.854611
1.113426
1.249731
1.258850
1.205780
1.142188
1.057555
0.874025
0.572428
0.223370
-0.114933
-0.451834
-0.810244
-1.096644
-1.163275
-0.986055
-0.687027
-0.405300
-0.165189
0.059257
0.221982
0.301240
0.379096
0.533637
0.757149
1.003338
1.210484
1.310784
1.300031
1.241349
1.184304
1.119543
1.008725
0.855823
0.665045
0.384958
0.077749
-0.080296
-0.075853
-0.008050
0.125215
0.282095
0.300566
0.130129
-0.111149
-0.370662
-0.640463
-0.778636
-0.719952
-0.557461
-0.318987
-0.062276
0.106995
0.198878
0.215713
0.126170
-0.023459
-0.175426
-0.262397
-0.192257
0.031956
0.264352
0.390370
0.422869
0.355069
0.205674
0.049498
-0.173075
-0.556268
-1.067113
-1.628459
-2.167361
-2.659035
-3.118212
-3.543721
-3.895819
-4.104832
-4.211443
-4.366916
-4.628534
-4.934106
-5.153173
-5.151535
-4.913528
-4.541555
-4.170985
-3.879439
-3.663409
-3.500918
-3.323231
-3.045011
-2.710914
-2.423575
-2.215495
-2.095555
-2.060484
-2.071004
-2.103033
-2.162416
-2.233957
-2.261076
-2.210575
-2.152124
-2.132717
-2.116350
-2.148847
-2.260367
-2.374225
-2.504215
-2.646362
-2.663662
-2.534605
-2.383570
-2.234874
-1.978865
-1.543767
-0.933788
-0.212523
0.435097
0.826709
0.960910
0.950858
0.923037
0.952263
0.952966
0.769203
0.418742
0.056123
-0.258099
-0.558995
-0.847967
-1.074515
-1.244718
-1.421000
-1.625571
-1.878772
-2.188319
-2.477291
-2.679992
-2.784030
-2.836867
-2.945582
-3.096613
-3.161841
-3.125835
-3.033718
-2.856966
-2.609140
-2.372068
-2.134061
-1.861920
-1.638876
-1.493453
-1.412090
-1.499529
