EVENT_NAME: 202302060117
EVENT_ID: 13194
EVENT_DATE_YYYYMMDD: 2023/02/06
EVENT_TIME_HHMMSS: 01:17:32.00000
EVENT_LATITUDE_DEGREE: 37.288
EVENT_LONGITUDE_DEGREE: 37.043
EVENT_DEPTH_KM: 8.6
HYPOCENTER_REFERENCE: AFAD
MAGNITUDE_W: 7.7
MAGNITUDE_W_REFERENCE: AFAD
MAGNITUDE_L: 
MAGNITUDE_L_REFERENCE: 
FOCAL_MECHANISM: 
NETWORK: TK
STATION_CODE: 5802
STATION_NAME: 
STATION_LATITUDE_DEGREE: 39.89281
STATION_LONGITUDE_DEGREE: 37.74792
STATION_ELEVATION_M: 1349.0
LOCATION: Kahramanmaras_Pazarck_Turkiye
SENSOR_DEPTH_M: 
VS30_M/S: 282
SITE_CLASSIFICATION_EC8: unknown
MORPHOLOGIC_CLASSIFICATION: 
EPICENTRAL_DISTANCE_KM: 296.05
EARTHQUAKE_BACKAZIMUTH_DEGREE: 
DATE_TIME_FIRST_SAMPLE_YYYYMMDD_HHMMSS: 2023/02/06 01:18:00.5251330
DATE_TIME_FIRST_SAMPLE_PRECISION: millisecond
SAMPLING_INTERVAL_S: 0.01
NDATA: 18251
DURATION_S: 
STREAM: HNZ
UNITS: cm/s^2
INSTRUMENT: sensor = GMS+/GEOSIG | digitizer = 
INSTRUMENT_ANALOG/DIGITAL: 
INSTRUMENTAL_FREQUENCY_HZ: 
INSTRUMENTAL_DAMPING: 
FULL_SCALE_G: 
N_BIT_DIGITAL_CONVERTER: 
PGA_CM/S^2: 6.091
TIME_PGA_S: 
BASELINE_CORRECTION: BASELINE REMOVED
FILTER_TYPE: BUTTERWORTH
FILTER_ORDER: 
LOW_CUT_FREQUENCY_HZ: 
HIGH_CUT_FREQUENCY_HZ: 
LATE/NORMAL_TRIGGERED: 
DATABASE_VERSION: 
HEADER_FORMAT: DYNA 1.2
DATA_TYPE: Acceleration
PROCESSING: Automatic Paolucci et al., 2011
DATA_TIMESTAMP_YYYYMMDD_HHMMSS: 
DATA_LICENSE: U (unknown license)
DATA_CITATION: Turkish Accelerometric Archive v 1.0 - Disaster And Emergency Management Presidency, Earthquake Department
DATA_CREATOR: AFAD
ORIGINAL_DATA_MEDIATOR_CITATION: : AFAD - Disaster And Emergency Management Presidency
ORIGINAL_DATA_MEDIATOR: AFAD PROCESS SERVICE
ORIGINAL_DATA_CREATOR_CITATION: AFAD PROCESS SERVICE
ORIGINAL_DATA_CREATOR: network: TK
USER1: GuestUser
USER2: 
USER3: 
USER4: 
USER5: 
[...]
-2.728754
-2.740444
-2.774474
-2.843573
-2.931635
-2.984368
-2.997876
-2.959951
-2.862798
-2.717069
-2.527698
-2.312351
-2.075183
-1.812299
-1.554869
-1.350952
-1.210158
-1.122616
-1.076638
-1.064429
-1.079756
-1.114825
-1.181586
-1.283675
-1.400571
-1.477982
-1.469150
-1.369140
-1.202370
-1.027806
-0.898961
-0.853762
-0.893507
-0.951955
-0.969880
-0.923641
-0.823631
-0.720504
-0.641795
-0.592439
-0.558929
-0.502300
-0.425929
-0.375015
-0.366703
-0.381770
-0.401772
-0.418138
-0.442816
-0.494770
-0.606471
-0.792205
-1.027556
-1.303949
-1.574368
-1.786599
-1.931550
-2.003246
-2.009481
-1.942721
-1.791796
-1.565279
-1.300576
-1.043666
-0.806498
-0.600762
-0.435031
-0.288262
-0.139675
0.012029
0.157238
0.266600
0.301409
0.246857
0.096711
-0.133444
-0.376068
-0.572712
-0.711948
-0.814297
-0.886773
-0.903918
-0.831963
-0.659477
-0.437376
-0.237095
-0.111368
-0.080976
-0.104875
-0.112928
-0.033180
0.181908
0.504799
0.862759
1.191884
1.405153
1.459964
1.410088
1.310856
1.231627
1.224872
1.292931
1.423334
1.576337
1.708039
1.805971
1.884940
1.951700
2.003134
2.037683
2.056645
2.048852
2.014822
2.000534
2.037940
2.113273
2.173278
2.150938
2.047290
1.926498
1.859477
1.887012
1.990399
2.107814
2.191719
2.223150
2.227306
2.231462
2.225747
2.205484
2.177169
2.146256
2.122357
2.108330
2.093522
2.037412
1.889344
1.643343
1.332920
1.034446
0.821436
0.698566
0.660639
0.686096
0.717528
0.715969
0.697525
0.711552
0.778571
0.886375
1.000412
1.094188
1.164585
1.221474
1.283818
1.340966
1.342524
1.211081
0.893644
0.406319
-0.151143
-0.673537
-1.097998
-1.374651
-1.519862
-1.586103
-1.577791
-1.464532
-1.222689
-0.885770
-0.525473
-0.223103
-0.076335
-0.126730
-0.320258
-0.573272
-0.808622
-0.982407
-1.093329
-1.168142
-1.231006
-1.275687
-1.306600
-1.349722
-1.436225
-1.587150
-1.788471
-2.014469
-2.212673
-2.348012
-2.429320
-2.448024
-2.415033
-2.351910
-2.269824
-2.179425
-2.079415
-1.953688
-1.769772
-1.520655
-1.227638
-0.938776
-0.720052
-0.579518
-0.469377
-0.342091
-0.181555
-0.006471
0.154324
0.255114
0.256672
0.162116
-0.011409
-0.227017
-0.454574
-0.684729
-0.896440
-1.063731
-1.184783
-1.282716
-1.359868
-1.414160
-1.445072
-1.440657
-1.385846
-1.277783
-1.144003
-1.021912
-0.958529
-0.958010
-0.971778
-0.961648
-0.918267
-0.875666
-0.861898
-0.893331
-0.978535
-1.103484
-1.273892
-1.504566
-1.794208
-2.108008
-2.370374
-2.506752
-2.489089
-2.313746
-2.012156
-1.670042
-1.350527
-1.044521
-0.703446
-0.300807
0.164437
0.688129
1.236499
1.747981
2.171922
2.485202
2.676910
2.743151
2.685482
2.547545
2.404152
2.308817
2.304141
2.397137
2.550140
2.714313
2.841859
2.922906
3.009928
3.148384
3.323727
3.494654
3.639863
3.760655
3.887941
4.062505
4.300452
4.569571
4.780502
4.861809
4.796087
4.621263
4.418124
4.246937
4.132898
4.041459
3.920667
3.721424
3.409443
3.015374
2.585978
2.152165
1.724586
1.303762
0.911252
0.574852
0.322357
0.207020
0.252479
0.412496
0.647585
0.921900
1.206085
1.489752
1.761988
2.002792
2.160991
2.193721
2.104880
1.912392
1.654701
1.382464
1.097239
0.803700
0.509643
0.215066
0.014524
-0.052496
-0.047042
0.004392
0.074269
0.133756
0.185709
0.243896
0.335854
0.478206
0.661083
0.842400
0.945008
0.909939
0.741089
0.504181
0.286495
0.147259
0.090109
0.108293
0.194275
0.336368
0.565743
0.884997
1.257244
1.613386
1.847436
1.899649
1.760673
1.486357
1.166842
0.861615
0.583663
0.305711
0.004120
-0.350984
-0.757261
-1.172630
-1.571894
-1.951675
-2.316130
-2.627852
-2.852292
-2.988930
-3.039066
-3.026078
-2.969708
-2.886323
-2.779040
-2.635388
-2.470956
-2.303666
-2.166249
-2.103126
-2.137675
-2.280288
-2.509404
-2.797747
-3.123496
-3.460675
-3.786684
-4.076326
-4.298428
-4.426234
-4.476370
-4.501048
-4.538455
-4.608073
-4.671977
-4.666782
-4.576643
-4.414028
-4.202058
-3.977619
-3.768506
-3.580175
-3.405871
-3.271831
-3.216241
-3.223775
-3.269495
-3.366648
-3.517574
-3.686683
-3.834491
-3.910344
-3.880991
-3.772408
-3.634732
-3.518616
-3.467961
-3.499134
-3.558102
-3.537840
-3.368212
-3.046880
-2.652812
-2.290436
-2.020798
-1.887797
-1.897149
-1.986509
-2.080286
-2.131201
-2.132500
-2.093535
-2.015086
-1.905464
-1.765190
-1.582314
-1.333457
-0.999395
-0.609744
-0.231782
0.068249
0.290091
0.484397
0.696367
0.966525
1.295391
1.650234
1.992088
2.265883
2.437329
2.510064
2.493438
2.383037
2.179898
1.907660
1.591003
1.247070
0.913008
0.661812
0.566477
0.642848
0.863650
1.177969
1.520343
1.817257
2.007147
2.074427
2.030266
1.922461
1.798552
1.689709
1.627883
1.620869
1.655418
1.695422
1.708670
1.668145
1.553847
1.369931
1.130944
0.868578
0.640501
0.515553
0.535035
0.704663
0.988069
1.337716
1.725809
2.111564
2.448223
2.699159
2.842810
2.882554
2.856836
2.824625
2.837093
2.916322
3.046985
3.194273
3.306492
3.352990
3.315064
3.186738
2.991392
2.736559
2.461465
2.242220
2.136754
2.172342
2.336255
2.598880
2.895534
3.123870
3.201540
3.091918
2.842540
2.544586
2.241696
1.960107
1.740863
1.607861
1.512526
1.374589
1.191452
1.020524
0.885185
0.746209
0.570085
0.366687
0.163288
0.000933
-0.084012
-0.062711
0.068731
0.269271
0.476046
0.608787
0.628529
0.544624
0.369799
0.148996
-0.072586
-0.271829
-0.434703
-0.558094
-0.632128
-0.623816
-0.487178
-0.217539
0.143797
0.533709
0.884914
1.157151
1.356652
1.522384
1.685777
1.853587
2.000355
2.086598
2.085818
1.976455
1.763705
1.475882
1.157666
0.876077
0.661248
0.496295
0.324329
0.117293
-0.106108
-0.327950
-0.519659
-0.689548
-0.840213
-0.930094
-0.935289
-0.865152
-0.780209
-0.741763
-0.795536
-0.956852
-1.208568
-1.525485
-1.865262
-2.186595
-2.445584
-2.604563
-2.651321
-2.589237
-2.441429
-2.251020
-2.060091
-1.881631
-1.698495
-1.494837
-1.281308
-1.080508
-0.932181
-0.864642
-0.865681
-0.921272
-1.016607
-1.127009
-1.236112
-1.328850
-1.372231
-1.341579
-1.270143
-1.229100
-1.274560
-1.419511
-1.604466
-1.735909
-1.759808
-1.668370
-1.510951
-1.329894
-1.131431
-0.926475
-0.715544
-0.508769
-0.331867
-0.210816
-0.148732
-0.123794
-0.124834
-0.153149
-0.197570
-0.239133
-0.258616
-0.235237
-0.168218
-0.074961
0.012840
0.088692
0.151815
0.190780
0.227666
0.279619
0.313649
0.287412
0.203246
0.066348
-0.120945
-0.360191
-0.643599
-0.928045
-1.182098
-1.390173
-1.543696
-1.640330
-1.685790
-1.671763
-1.575909
-1.393033
-1.137681
-0.839988
-0.525149
-0.205375
0.128426
0.493140
0.891623
1.305433
1.684174
1.979011
2.161627
2.218256
2.157470
2.010701
1.810939
1.584161
1.352447
1.140996
0.974225
0.869278
0.822259
0.799659
0.755758
0.668476
0.547943
0.404291
0.277004
0.214919
0.227647
0.318826
0.460399
0.626909
0.825372
1.051629
1.315033
1.594543
1.831451
1.990689
2.053033
2.025237
1.933538
1.800797
1.628310
1.414001
1.187743
0.989020
0.829263
0.712107
0.667167
0.707950
0.821728
0.983303
1.160984
1.358926
1.599211
1.914309
2.319547
2.776478
3.227435
3.622542
3.937380
4.145973
4.212733
4.139478
3.959459
3.722810
3.472393
3.220158
2.966624
2.695686
2.403187
2.095101
1.761299
1.424899
1.086681
0.745865
0.449989
0.196975
-0.005904
-0.150596
-0.286455
-0.434263
-0.595579
-0.756636
-0.887559
-0.984973
-1.060046
-1.132002
-1.210452
-1.290721
-1.358261
-1.392811
-1.381381
-1.334104
-1.286827
-1.246303
-1.193571
-1.128889
-1.073559
-1.060311
-1.127072
-1.296181
-1.526076
-1.738307
-1.872348
-1.937030
-2.005090
-2.114712
-2.259923
-2.400198
-2.484104
-2.502547
-2.473973
-2.444101
-2.446439
-2.472936
-2.497614
-2.502290
-2.497615
-2.507746
-2.548270
-2.606978
-2.678675
-2.750891
-2.798428
-2.830380
-2.849604
-2.850903
-2.836096
-2.786741
-2.696602
-2.587500
-2.475800
-2.388778
-2.338643
-2.311108
-2.313966
-2.349555
-2.397093
-2.422550
-2.389041
-2.275003
-2.033419
-1.632858
-1.100074
-0.476112
0.183439
0.797010
1.285893
1.605147
1.745421
1.724640
1.568778
1.310309
1.002743
0.692580
0.428396
0.230712
0.093034
0.004193
-0.075556
-0.157903
-0.228300
-0.273760
-0.252719
-0.135045
0.087576
0.410987
0.800378
1.213409
1.604359
1.951149
2.270923
2.551991
2.773833
2.927875
3.004246
2.998011
2.898000
2.734346
2.572510
2.454575
2.390672
2.380800
2.417427
2.460288
2.484187
2.509643
2.586015
2.749928
2.976705
3.211535
3.384800
3.435454
3.349730
3.147890
2.870198
2.544188
2.180253
1.771898
1.297041
0.763478
0.223680
-0.253774
-0.621866
-0.863970
-0.992555
-1.036976
-1.024248
-0.975152
-0.905275
-0.830982
-0.781107
-0.766560
-0.783186
-0.836698
-0.931774
-1.064256
-1.218558
-1.385849
-1.570545
-1.790828
-2.033192
-2.249579
-2.414013
-2.480774
-2.427002
-2.303093
-2.169573
-2.076057
-2.020467
-1.961760
-1.870062
-1.735503
-1.579642
-1.460409
-1.442226
-1.519637
-1.647963
-1.774470
-1.859415
-1.921240
-1.966700
-2.005406
-2.061776
-2.125939
-2.182309
-2.215300
-2.228029
-2.223094
-2.184389
-2.133475
-2.076326
-2.011644
-1.952418
-1.892931
-1.850849
-1.822535
-1.783830
-1.709796
-1.574458
-1.394439
-1.213641
-1.069210
-0.949718
-0.830744
-0.718005
-0.624489
-0.556171
-0.486813
-0.370178
-0.169378
0.112730
0.435881
0.739030
0.967365
1.118810
1.198298
1.206350
1.156215
1.047372
0.872288
0.637717
0.386001
0.163899
-0.012224
-0.134575
-0.207310
-0.265499
-0.353301
-0.480068
-0.622161
-0.755423
-0.877774
-1.010775
-1.149752
-1.262231
-1.312627
-1.260674
-1.074680
-0.751529
-0.304729
0.247797
0.848900
1.434936
1.964862
2.386205
2.662338
2.789624
2.794819
2.721044
2.587003
2.401009
2.182544
1.948493
1.724572
1.535980
1.393887
1.297772
1.259326
1.301149
1.389729
1.451813
1.440902
1.334657
1.152559
0.976436
0.856683
0.768621
0.661336
0.476122
0.192195
-0.157193
-0.513076
-0.815966
-1.052355
-1.238869
-1.385898
-1.511626
-1.610338
-1.657097
-1.657617
-1.629043
-1.588259
-1.549035
-1.512408
-1.463053
-1.397332
-1.351353
-1.347717
-1.371356
-1.385644
-1.343562
-1.244850
-1.118863
-0.997033
-0.925337
-0.945859
-1.073406
-1.284338
-1.548262
-1.835306
-2.112998
-2.350687
-2.522653
-2.647083
-2.729170
-2.772811
-2.785280
-2.744757
-2.656436
-2.519019
-2.349391
-2.170412
-1.970651
-1.765434
-1.559179
-1.370588
-1.217585
-1.080688
-0.964572
-0.890019
-0.865082
-0.881967
-0.939116
-1.035750
-1.163816
-1.341758
-1.559963
-1.766219
-1.928834
-2.037678
-2.081839
-2.049108
-1.964944
-1.870389
-1.829606
-1.867792
-1.949879
-2.103662
-2.300826
-2.507082
-2.729184
-2.929206
-3.146113
-3.390815
-3.619411
-3.830343
-3.990100
-4.068810
-4.096606
-4.108036
-4.072968
-3.951137
-3.724360
-3.398092
-3.019351
-2.611256
-2.185497
-1.743892
-1.280726
-0.817040
-0.363226
0.063832
0.438936
0.752216
0.978473
1.091472
1.090692
0.982369
0.762864
0.437375
0.037591
-0.383493
-0.757039
-1.012651
-1.113442
-1.060709
-0.866144
-0.543772
-0.117493
0.371390
0.872481
1.355390
1.795176
2.170021
2.479664
2.737873
2.943868
3.077908
3.127524
3.087519
2.964129
2.777095
2.543564
2.288471
2.037535
1.806081
1.610995
1.438769
1.273296
1.119773
0.974562
0.860264
0.808570
0.834026
0.930140
1.064440
1.214325
1.313037
1.318232
1.261862
1.175359
1.107819
1.094050
1.128599
1.189384
1.248871
1.284718
1.306539
1.340048
1.365245
1.371220
1.369401
1.357451
1.348359
1.353813
1.373036
1.407844
1.457460
1.509413
1.533831
1.518244
1.463692
1.376670
1.262891
1.130409
1.000784
0.896617
0.861288
0.905448
1.024681
1.215610
1.434335
1.690725
2.032839
2.481458
3.000993
3.533777
4.023958
4.423741
4.769492
5.070822
5.324615
5.532948
5.651402
5.658935
5.560223
5.399945
5.216289
5.000422
4.707923
4.354118
3.959271
3.551694
3.251402
3.060472
2.920197
2.830837
2.777584
2.714200
2.610292
2.458588
2.259605
2.028411
1.764227
1.501861
1.257938
1.021029
0.805162
0.616050
0.485127
0.400442
0.347969
0.332122
0.309003
0.264322
0.193405
0.146906
0.166908
0.174960
0.176519
0.210288
0.219120
0.188726
0.147683
0.077025
-0.024285
-0.130530
-0.268467
-0.465372
-0.744882
-1.116870
-1.547826
-2.005797
-2.441428
-2.824327
-3.155531
-3.439718
-3.705461
-3.957436
-4.161094
-4.283965
-4.314618
-4.259028
-4.149926
-4.020302
-3.872754
-3.713257
-3.542331
-3.376599
-3.247235
-3.170344
-3.158655
-3.170085
-3.147486
-3.065919
-2.939932
-2.836805
-2.801736
-2.853171
-2.929283
-2.958637
-2.948767
-2.912399
-2.894995
-2.923051
-2.970329
-2.989033
-2.944613
-2.847460
-2.700691
-2.532882
-2.395985
-2.328185
-2.325588
-2.351306
-2.389492
-2.431575
-2.486906
-2.567954
-2.673420
-2.802005
-2.933189
-3.045409
-3.144121
-3.247249
-3.357391
-3.463377
-3.543646
-3.563908
-3.503383
-3.379474
-3.225432
-3.048530
-2.831624
-2.562245
-2.235198
-1.869965
-1.500056
-1.151188
-0.828556
-0.544111
-0.318373
-0.152382
-0.051332
-0.003795
-0.002237
-0.016005
0.018024
0.133880
0.345331
0.624321
0.929288
1.250621
1.585981
1.953552
2.369440
2.798316
3.186150
3.503066
3.745429
3.925708
4.042343
4.103388
4.126247
4.105725
4.062863
4.029353
4.027534
4.076889
4.147805
4.205733
4.237944
4.248334
4.242359
4.218720
4.183911
4.120267
4.020256
3.904399
3.797894
3.742563
3.771137
3.873225
4.024670
4.211962
4.404969
4.593560
4.772280
4.919828
5.031528
5.114913
5.194661
5.276747
5.372342
5.487678
5.613665
5.741211
5.858366
5.972663
6.060724
6.090857
6.050333
5.936294
5.761730
5.527159
5.240894
4.929692
4.632517
4.384698
4.212212
4.121552
4.078430
4.040504
3.985952
3.908281
3.786969
3.623575
3.421215
3.178851
2.941942
2.699838
2.445265
2.203421
1.964694
1.745969
1.557377
1.392943
1.247733
1.117069
0.993419
0.862496
0.719883
0.569217
0.441930
0.375429
0.384001
0.459593
0.579346
0.720139
0.857297
0.969256
1.046926
1.078877
1.061472
1.023546
1.005102
1.007180
1.015232
1.051080
1.122515
1.201225
1.264348
1.307469
1.332926
1.336043
1.326691
1.329288
1.352407
1.392411
1.447481
1.524891
1.631396
1.726471
1.790633
1.839988
1.880771
1.953766
2.036891
2.090663
2.133524
2.116379
2.052735
2.004678
1.901290
1.750884
1.617103
1.466957
1.318629
1.200694
1.118866
1.064575
0.993398
0.906115
0.825847
0.764541
0.706612
0.647645
0.575169
0.438011
0.272279
0.093818
-0.132181
-0.391689
-0.677435
-0.956426
-1.231261
-1.521941
-1.788983
-2.013943
-2.165647
-2.191105
-2.119669
-2.051351
-1.989786
-1.866137
-1.756515
-1.757035
-1.811327
-1.847435
-1.855748
-1.841981
-1.828733
-1.820941
-1.778599
-1.699630
-1.606374
-1.495453
-1.416744
-1.393365
-1.385313
-1.419083
-1.495715
-1.575984
-1.640147
-1.695997
-1.791332
-1.871861
-1.861211
-1.787697
-1.675737
-1.526891
-1.365056
-1.229457
-1.130746
-1.059310
-1.021125
-1.030737
-1.077235
-1.136723
-1.198028
-1.224265
-1.188418
-1.097499
-0.954627
-0.761880
-0.546533
-0.364696
-0.228837
-0.111683
-0.012192
0.080025
0.165229
0.224975
0.266797
0.269914
0.211466
0.088336
-0.112466
-0.376910
-0.673046
-0.965804
-1.245835
-1.533658
-1.818624
-2.083068
-2.294260
-2.381282
-2.330888
-2.183340
-1.986176
-1.804859
-1.682768
-1.607696
-1.552106
-1.484307
-1.361437
-1.191549
-1.001659
-0.806314
-0.647856
-0.524467
-0.411208
-0.308081
-0.212487
-0.111697
-0.002076
0.092479
0.172747
0.251716
0.338998
0.456672
0.605259
0.785278
0.997248
1.221687
1.446126
1.655759
1.837336
1.983845
2.082296
2.141783
2.187761
2.231402
2.279199
2.332711
2.356349
2.336606
2.294783
2.237374
2.197370
2.196070
2.239971
2.338422
2.453239
2.551691
2.630400
2.688328
2.713525
2.702874
2.665727
2.595070
2.470640
2.267242
1.995005
1.657046
1.302722
1.013081
0.786043
0.621869
0.519520
0.443408
0.374569
0.325992
0.311964
0.338200
0.405740
0.482371
0.536142
0.529907
0.434572
0.282348
0.103887
-0.094836
-0.306288
-0.529948
-0.754648
-0.972074
-1.166641
-1.318086
-1.429267
-1.493170
-1.511874
-1.490833
-1.427190
-1.335493
-1.227689
-1.142226
-1.113912
-1.121186
-1.144306
-1.159372
-1.159892
-1.184571
-1.256787
-1.382775
-1.552663
-1.748529
-1.931925
-2.061810
-2.157145
-2.240271
-2.290407
-2.274301
-2.176629
-1.988038
-1.705411
-1.369012
-1.017286
-0.674393
-0.371764
-0.113295
0.086206
0.196867
0.220505
0.162317
0.003079
-0.273574
-0.655174
-1.102235
-1.558907
-1.971679
-2.294831
-2.528363
-2.723189
-2.903728
-3.081669
-3.249740
-3.371831
-3.445086
-3.465868
-3.452360
-3.435216
-3.390536
-3.316243
-3.220909
-3.095441
-2.954388
-2.790475
-2.593051
-2.369911
-2.127028
-1.901550
-1.735299
-1.641264
-1.623860
-1.682568
-1.814790
-2.021306
-2.292764
-2.619552
-2.980890
-3.343786
-3.686940
-3.986972
-4.221543
-4.385457
-4.490923
-4.562619
-4.616911
-4.648603
-4.663930
-4.658475
-4.594313
-4.458975
-4.245446
-3.940219
-3.569790
-3.168189
-2.759835
-2.380834
-2.039759
-1.737389
-1.488012
-1.301500
-1.211360
-1.202529
-1.231363
-1.296046
-1.367483
-1.444634
-1.516071
-1.562829
-1.605951
-1.662841
-1.767787
-1.898191
-2.049636
-2.227318
-2.374867
-2.477216
-2.527092
-2.550471
-2.572292
-2.590996
-2.630741
-2.674122
-2.703996
-2.728155
-2.737507
-2.738806
-2.753613
-2.792579
-2.850248
-2.919346
-2.973119
-2.984549
-2.978575
-2.961171
-2.932856
-2.907919
-2.860642
-2.771802
-2.633346
-2.440338
-2.202651
-1.977173
-1.832483
-1.766762
-1.776634
-1.837160
-1.926520
-2.042377
-2.163170
-2.317732
-2.509182
-2.696215
-2.852855
-2.974167
-3.081971
-3.173410
-3.244587
-3.289008
-3.290307
-3.234977
-3.109509
-2.936504
-2.733366
-2.536462
-2.380602
-2.228898
-2.094079
-1.999264
-1.910424
-1.843144
-1.837430
-1.901333
-2.024983
-2.176948
-2.320600
-2.424767
-2.482956
-2.501140
-2.459577
-2.371776
-2.266311
-2.143441
-1.997971
-1.824447
-1.607281
-1.324394
-1.005660
-0.689782
-0.408454
-0.209732
-0.107903
-0.089720
-0.144272
-0.279092
-0.475996
-0.674979
-0.845387
-0.978908
-1.071645
-1.131652
-1.170878
-1.212441
-1.261018
-1.295827
-1.296607
-1.266994
-1.234004
-1.182051
-1.080741
-0.932155
-0.725380
-0.437038
-0.093625
0.278622
0.684639
1.058185
1.353281
1.579538
1.711500
1.765012
1.783715
1.737216
1.618761
1.471992
1.290414
1.110134
0.979471
0.882317
0.823349
0.775032
0.707492
0.634237
0.551890
0.484870
0.459672
0.472140
0.509546
0.542536
0.574747
0.612673
0.621764
0.581500
0.501751
0.388232
0.257568
0.158336
0.118072
0.118072
0.129241
0.134176
0.130279
0.135994
0.160931
0.214962
0.328740
0.460183
0.588248
0.751641
0.882044
0.958676
1.037125
1.062582
1.027513
0.951400
0.800215
0.613701
0.422252
0.239375
0.103256
-0.004548
-0.107416
-0.182490
-0.201194
-0.150539
-0.028708
0.148193
0.363800
0.613956
0.873464
1.132192
1.381050
1.589903
1.737970
1.826031
1.882140
1.891232
1.838758
1.737968
1.614578
1.517164
1.429103
1.374551
1.380006
1.401306
1.475080
1.601327
1.750953
1.944739
2.135928
2.292827
2.395175
2.418294
2.411540
2.381926
2.360625
2.400628
2.463752
2.547137
2.629743
2.673123
2.666109
2.596751
2.511027
2.371791
2.178783
2.003439
1.805496
1.611968
1.442339
1.271931
1.137631
1.023073
0.952935
0.973196
1.069570
1.252186
1.498186
1.768604
2.053050
2.328403
