EVENT_NAME: 202302060117
EVENT_ID: 13194
EVENT_DATE_YYYYMMDD: 2023/02/06
EVENT_TIME_HHMMSS: 01:17:32.00000
EVENT_LATITUDE_DEGREE: 37.288
EVENT_LONGITUDE_DEGREE: 37.043
EVENT_DEPTH_KM: 8.6
HYPOCENTER_REFERENCE: AFAD
MAGNITUDE_W: 7.7
MAGNITUDE_W_REFERENCE: AFAD
MAGNITUDE_L: 
MAGNITUDE_L_REFERENCE: 
FOCAL_MECHANISM: 
NETWORK: TK
STATION_CODE: 8003
STATION_NAME: 
STATION_LATITUDE_DEGREE: 37.08417
STATION_LONGITUDE_DEGREE: 36.26936
STATION_ELEVATION_M: 122.0
LOCATION: Kahramanmaras_Pazarck_Turkiye
SENSOR_DEPTH_M: 
VS30_M/S: 350
SITE_CLASSIFICATION_EC8: unknown
MORPHOLOGIC_CLASSIFICATION: 
EPICENTRAL_DISTANCE_KM: 72.18
EARTHQUAKE_BACKAZIMUTH_DEGREE: 
DATE_TIME_FIRST_SAMPLE_YYYYMMDD_HHMMSS: 2023/02/06 01:17:19.5251700
DATE_TIME_FIRST_SAMPLE_PRECISION: millisecond
SAMPLING_INTERVAL_S: 0.01
NDATA: 10501
DURATION_S: 
STREAM: HNN
UNITS: cm/s^2
INSTRUMENT: sensor = GMS+/GEOSIG | digitizer = 
INSTRUMENT_ANALOG/DIGITAL: 
INSTRUMENTAL_FREQUENCY_HZ: 
INSTRUMENTAL_DAMPING: 
FULL_SCALE_G: 
N_BIT_DIGITAL_CONVERTER: 
PGA_CM/S^2: 141.567
TIME_PGA_S: 
BASELINE_CORRECTION: BASELINE REMOVED
FILTER_TYPE: BUTTERWORTH
FILTER_ORDER: 
LOW_CUT_FREQUENCY_HZ: 
HIGH_CUT_FREQUENCY_HZ: 
LATE/NORMAL_TRIGGERED: 
DATABASE_VERSION: 
HEADER_FORMAT: DYNA 1.2
DATA_TYPE: Acceleration
PROCESSING: Automatic Paolucci et al., 2011
DATA_TIMESTAMP_YYYYMMDD_HHMMSS: 
DATA_LICENSE: U (unknown license)
DATA_CITATION: Turkish Accelerometric Archive v 1.0 - Disaster And Emergency Management Presidency, Earthquake Department
DATA_CREATOR: AFAD
ORIGINAL_DATA_MEDIATOR_CITATION: : AFAD - Disaster And Emergency Management Presidency
ORIGINAL_DATA_MEDIATOR: AFAD PROCESS SERVICE
ORIGINAL_DATA_CREATOR_CITATION: AFAD PROCESS SERVICE
ORIGINAL_DATA_CREATOR: network: TK
USER1: GuestUser
USER2: 
USER3: 
USER4: 
USER5: 
[...]
3.095676
0.547874
-5.745782
-10.222881
-8.694665
-3.189401
-0.036077
-0.792779
-0.648867
1.664109
2.119224
-1.005523
-4.993739
-6.080866
-4.908272
-5.436379
-7.196824
-6.146062
-2.326952
0.917031
2.292504
2.792299
2.880622
4.424943
8.572400
12.751547
15.510284
15.491063
13.500982
13.366424
14.202099
12.602190
8.776330
4.147526
1.115257
0.639104
-2.865164
-8.146244
-6.537760
0.521695
9.055852
18.168772
24.909232
28.762111
28.222055
22.146345
14.807383
11.107770
12.549743
16.467564
20.802833
24.861968
26.974402
24.198523
15.971415
6.261551
-1.266002
-3.173736
0.354953
4.714899
8.187998
11.048823
13.101511
13.890947
13.004101
11.283920
9.216948
8.079945
8.915360
8.402320
6.279498
5.887250
5.487469
3.179432
1.604201
2.666913
4.443727
4.721940
5.691915
9.306847
12.969057
14.487662
13.383650
9.164760
4.604796
5.485410
10.094214
10.498934
4.035650
-4.740608
-9.611255
-10.758648
-11.451707
-12.858349
-14.877783
-16.413530
-16.152462
-14.124971
-11.521316
-4.749424
6.826095
16.709747
22.188774
22.471662
18.351225
14.020636
10.160745
6.621409
7.711137
14.213909
24.728277
38.530268
49.231669
53.486669
53.206900
51.684402
51.061220
47.115087
40.906376
37.114545
33.577027
30.858037
30.309669
27.767841
25.346546
27.690953
32.609920
38.074399
39.728863
35.190199
28.860955
20.242896
10.469909
5.879032
5.371966
5.897998
7.614806
8.536204
8.611019
9.632688
9.135233
4.875820
-1.042990
-6.774248
-11.113670
-10.591275
-4.026938
5.566552
12.145436
10.587869
6.162724
6.486137
9.288775
9.026930
5.412521
2.441297
1.078036
-0.935943
-3.586873
-4.864151
-1.682512
3.125794
2.065943
-1.894478
-3.834942
-7.443117
-14.160714
-21.687748
-26.922070
-27.010650
-27.221060
-34.000482
-41.482056
-41.344638
-30.945087
-14.945200
-1.607934
7.414327
11.595813
11.545679
9.142828
6.638666
8.002969
11.828573
14.106219
15.666127
19.224690
23.360196
24.625268
18.047945
4.341552
-9.069485
-16.430527
-14.877633
-8.080024
0.259567
9.241044
14.440561
12.521656
8.240423
5.774707
4.248053
3.977116
5.122434
9.529139
18.678167
28.547271
31.154044
25.582023
18.714540
14.376677
14.265758
12.292303
3.484353
-5.510369
-12.323041
-17.774270
-20.547291
-21.386859
-19.262995
-14.930065
-14.547165
-20.849653
-30.553282
-35.766304
-32.395294
-27.190322
-26.981208
-33.124198
-39.968821
-42.860816
-43.364505
-40.780072
-34.253921
-24.495218
-16.076138
-16.167575
-22.405121
-26.934952
-28.237947
-27.888817
-29.569254
-35.992014
-42.264369
-43.403970
-40.614320
-34.903581
-26.348902
-17.631609
-9.831556
-6.295853
-6.781877
-3.448534
7.644078
24.558348
38.363976
42.564684
38.165256
31.777305
29.741765
29.584087
29.160667
26.660922
21.910028
21.498817
29.501748
39.209537
45.382404
50.891304
54.547279
56.662830
59.535865
64.778763
71.416614
71.336347
58.381982
36.157019
20.287279
20.894098
31.791884
39.946520
34.476588
19.807235
8.836718
3.708641
0.273991
-2.568648
-4.139203
-0.614151
10.097381
23.857549
36.082489
44.772507
51.870407
58.985712
64.377976
67.871336
70.522010
73.688322
77.245586
76.562917
68.180468
55.247404
42.112500
30.915984
23.565073
20.225758
19.685442
19.544390
18.125019
14.843633
10.818530
10.457974
14.649850
20.080820
24.264384
25.950799
22.801374
16.824375
10.975182
3.237477
-4.225914
-10.746867
-18.691088
-26.843383
-31.009539
-26.759215
-16.598911
-7.844470
-4.230318
-7.115818
-16.487464
-26.150050
-34.987353
-42.866892
-41.316596
-30.570775
-17.782398
-8.446078
-5.823979
-7.737168
-7.641312
-2.330875
2.370147
1.875290
-1.477533
-2.808322
-1.397261
-3.813621
-11.824603
-20.234328
-27.004138
-32.865800
-38.594980
-40.998091
-34.966798
-22.563398
-8.749198
1.002751
1.307980
-2.446444
-1.545827
3.071029
9.199476
15.053347
17.777016
18.141472
15.853437
12.486067
8.649556
-1.438789
-16.252313
-29.818432
-38.387655
-36.350034
-24.626186
-8.421342
7.580364
20.356011
32.014657
41.954938
50.974861
60.538738
65.972305
62.457387
48.087287
28.550662
12.002668
1.955885
-0.734270
-0.666729
-3.526772
-7.762286
-11.324482
-11.886359
-5.544124
1.530917
2.441665
-4.525829
-18.977496
-32.911446
-40.874890
-42.631959
-39.232894
-36.033331
-36.746132
-37.739224
-35.027505
-32.063292
-34.671879
-44.112624
-54.206424
-56.269240
-49.560212
-39.748516
-30.403364
-21.524235
-11.577720
-0.856317
6.135598
6.232753
1.983731
-2.428166
-5.108710
-6.517430
-8.263069
-11.343915
-12.115944
-4.002870
10.582581
24.436525
36.081143
46.045063
55.600108
61.423587
59.424674
51.688008
40.125219
31.817583
31.801219
33.999117
35.728653
37.727309
39.026151
37.789397
31.472102
22.638436
17.523607
18.759325
22.220214
20.832276
11.514661
-0.404269
-7.642960
-7.429429
-1.985731
1.457494
1.716225
1.075379
1.552574
7.916110
16.297524
21.225842
24.082771
26.090000
28.174379
26.423545
16.551846
4.575247
-1.177312
2.662839
10.249622
14.284599
13.981191
9.899979
8.250194
12.871727
20.075613
24.656362
23.162178
14.792457
-0.061071
-17.639305
-32.934179
-37.970818
-32.184746
-21.373983
-11.040413
-10.394888
-17.700860
-24.837982
-26.617910
-23.019603
-20.546351
-22.896730
-26.382035
-24.605220
-18.215188
-8.146841
5.215362
19.162563
28.969324
32.619584
33.213675
29.422623
29.002320
37.018500
46.421061
54.831049
61.022360
64.012550
63.645499
63.677452
65.837943
65.106439
58.834344
49.696489
42.639375
39.305255
39.311491
41.931512
40.879194
30.845140
12.529425
-10.639015
-31.479415
-50.230761
-66.870453
-73.964194
-71.066482
-62.070717
-51.452442
-41.098610
-36.039629
-37.670970
-37.696166
-36.464345
-33.315956
-27.572226
-23.279559
-19.941280
-18.620878
-14.299118
-7.745172
-9.710314
-18.227843
-27.962125
-37.552236
-47.062078
-57.786076
-67.513864
-69.502126
-59.042829
-41.741764
-29.831403
-32.360242
-45.027824
-56.232652
-54.656638
-39.020426
-21.896003
-13.242353
-16.874686
-23.721908
-23.042093
-16.715704
-14.869012
-28.795689
-53.540660
-76.023312
-84.847367
-77.802720
-67.207044
-65.518551
-73.908015
-79.467826
-76.405680
-68.731355
-57.119467
-46.818109
-43.595427
-44.778928
-42.918209
-36.525838
-28.778778
-20.009531
-8.298412
5.829588
14.856784
14.997840
6.053512
-6.817987
-9.058743
3.502856
22.934017
40.595120
52.452748
57.942945
61.117051
64.252971
60.118506
49.186694
39.064578
33.928189
33.811295
35.862943
35.271713
29.015204
25.919032
25.602116
18.864777
14.872146
23.136144
35.080535
38.712611
35.773598
23.625553
2.930364
-9.042858
-19.118475
-37.014665
-56.127348
-74.216026
-88.837322
-98.965412
-101.150838
-96.826999
-86.501743
-68.959873
-49.131526
-30.715018
-19.084167
-10.326090
0.569097
13.488916
24.788823
30.291228
38.106867
47.077694
52.564514
44.961628
5.212981
-47.092068
-78.032505
-85.974388
-81.760431
-76.550784
-80.535362
-91.202211
-96.445885
-95.430451
-99.486465
-106.348234
-99.312418
-73.030137
-38.748303
-6.788794
18.399604
30.017207
31.672449
33.147413
36.952235
44.443684
53.502313
66.535131
84.960731
104.127189
117.862419
114.078901
93.639064
69.768991
49.215894
34.415878
24.491706
16.673992
12.818518
15.326838
21.820778
27.704004
31.645204
34.151706
34.705014
39.392268
42.183475
29.224435
8.308702
-11.439893
-25.200318
-29.862631
-30.208640
-33.798632
-45.191791
-55.038813
-59.925305
-66.611211
-75.202773
-84.659883
-87.545903
-75.635282
-59.794893
-52.454110
-50.188672
-49.384429
-43.277803
-32.444180
-30.739322
-37.205464
-46.251101
-52.982985
-56.278919
-64.655394
-74.600347
-81.331192
-85.639182
-85.927263
-79.962990
-67.510494
-56.070053
-48.080889
-42.667064
-42.000498
-44.730138
-49.755607
-52.766056
-51.145882
-47.300016
-40.190686
-30.647071
-18.640076
0.191541
25.523331
46.045778
50.434559
44.638878
39.310260
39.421702
43.878282
47.241759
47.772466
45.066465
42.292924
42.287211
44.701496
42.597637
28.335600
10.330307
-6.313801
-23.875150
-39.507203
-50.454341
-55.806598
-59.233455
-60.440595
-57.743164
-54.711670
-52.600795
-48.212793
-36.877039
-26.358775
-21.023660
-14.320866
-9.594387
-6.548087
-6.475870
-13.976668
-24.877308
-33.565244
-30.255020
-19.488158
-17.287143
-26.096651
-37.094184
-40.747818
-40.922381
-43.936207
-46.433874
-46.980684
-46.258527
-43.037144
-37.365369
-30.701282
-22.595222
-10.237541
6.026271
23.376172
37.086724
42.893578
42.187270
35.222634
24.932968
15.623667
5.534542
-4.617447
-12.327877
-20.962301
-31.110393
-37.080898
-40.387482
-40.271364
-32.059839
-20.768505
-12.447358
-12.255388
-22.122411
-35.995315
-48.379490
-58.095848
-63.956470
-66.269962
-68.114313
-67.857660
-62.186146
-54.257508
-49.557006
-45.514236
-38.427246
-32.872367
-28.051592
-18.485377
-8.240389
-1.369266
5.906835
9.020675
3.319809
-2.944492
-2.651213
3.139016
2.150600
-13.727972
-37.533363
-56.545256
-58.159713
-45.511611
-35.012050
-35.260646
-39.926336
-39.316400
-33.249258
-20.925087
-0.891004
20.498548
39.727610
56.894635
68.875912
71.334097
65.920795
60.909354
56.901656
51.414060
47.065806
38.904419
25.015409
14.119965
13.352612
20.836787
28.669571
34.389922
36.988901
36.099198
32.772871
27.022909
17.833621
3.905645
-9.932190
-20.585012
-28.205562
-30.029910
-26.132870
-20.166519
-13.498535
-6.741710
-4.498612
-4.592127
-1.423736
3.606151
10.218026
14.551216
11.661559
2.331216
-10.134006
-21.052050
-26.923583
-26.009458
-21.379872
-16.518574
-13.906346
-10.356097
-1.733359
5.799393
11.535850
12.391007
0.688464
-18.396944
-35.228865
-42.333256
-38.347635
-27.914315
-14.069462
0.731336
10.024535
15.547463
21.352238
21.940614
17.787965
12.585335
8.439960
5.489777
8.531401
10.924385
3.127193
0.431842
0.570560
1.267519
4.353823
-0.693726
-6.397969
-13.952798
-23.582133
-29.542247
-32.159407
-24.069713
-9.921452
7.338050
28.506540
43.872593
52.806274
57.190898
54.286175
48.157212
42.417121
34.350809
28.123654
28.440573
37.397112
55.725040
70.872109
76.206445
76.558951
76.696110
73.754760
61.473453
43.464264
27.656348
15.636109
2.822798
-6.869402
-13.427241
-18.126442
-21.089353
-26.210676
-33.457161
-34.075926
-31.093010
-29.890802
-19.146280
-3.323294
15.454291
24.889064
38.958356
39.334761
10.430126
4.260899
-3.692674
-1.258907
11.059809
1.672058
5.514287
6.632070
3.392505
11.255422
17.833527
24.231353
11.148922
1.051484
10.254284
0.234258
1.605314
10.534319
9.343024
16.984099
28.441425
24.669856
5.662119
8.384748
-5.688437
-31.161538
-28.187973
-18.734238
-26.102034
-34.428373
-23.817372
-39.686073
-47.475213
-45.884393
-76.027601
-86.653666
-79.118317
-74.647190
-47.947462
-4.350869
15.448383
13.806911
8.850541
12.138165
35.708729
61.491216
75.004605
69.105797
53.638696
55.851401
60.487221
52.314664
46.643412
44.065737
37.409185
25.870555
17.064684
15.461398
15.940411
8.168936
-3.491265
-28.409242
-77.094685
-114.143304
-132.680602
-128.539380
-80.884433
-35.380105
-15.116647
14.104908
39.784787
53.138938
65.295818
60.889896
48.113212
44.953137
45.591389
43.172951
39.700375
44.966391
52.621494
44.105783
31.531719
23.504372
20.665889
40.172903
49.483507
15.391566
-13.076919
-20.564988
-41.710874
-64.177161
-77.422726
-81.805269
-70.499648
-41.839971
0.116966
29.249940
43.591988
49.304546
48.661622
58.433573
74.137845
91.057051
93.510300
88.406901
98.048189
85.574655
52.722067
43.901908
59.921798
83.496517
95.562739
75.401632
32.059356
10.422508
23.786790
38.566807
35.838466
17.186351
-10.377622
-22.775304
-4.875734
26.296678
51.410783
68.488187
82.210169
89.629403
80.471026
54.118871
18.424422
-20.271386
-47.548055
-50.913088
-40.839286
-33.853605
-32.884929
-35.516117
-29.227654
-0.563561
35.022568
53.130212
45.882169
19.619894
-7.206598
-21.446814
-21.350699
-8.304113
14.885111
45.429664
76.828074
103.046193
112.653191
94.299290
60.130718
28.062889
3.153225
-12.856271
-18.925487
-15.253926
-3.711916
8.277155
16.823001
17.593215
4.386875
-12.589737
-19.921165
-13.898445
2.392642
19.313147
30.214569
31.732914
25.493810
14.716040
0.235799
-7.073030
-4.564969
3.796442
11.981731
8.575396
2.051585
-3.051814
-8.988029
-12.963256
-14.866834
-11.422829
-3.327680
10.714856
21.903322
19.908566
13.349687
6.221657
-0.144994
-1.610603
2.809610
12.268800
22.979293
27.423404
14.956104
-7.720076
-27.355412
-46.213003
-63.375349
-75.114519
-81.720676
-83.297466
-81.405834
-79.343795
-81.757297
-89.055475
-95.759564
-99.495026
-101.037786
-96.071541
-87.289046
-84.100913
-85.438456
-87.351126
-88.952853
-91.184518
-92.243331
-88.912585
-87.698688
-90.760571
-92.280471
-90.148554
-81.603487
-62.120372
-31.528801
5.460854
45.018835
79.428215
102.043872
105.924546
85.467564
58.630941
42.724573
38.921832
44.206293
47.913702
43.424914
38.764159
48.052163
69.691872
90.203148
100.007051
84.477347
46.596431
10.746381
-17.227765
-36.192900
-41.315782
-39.439737
-32.925275
-20.005196
-6.692868
-3.157685
-9.687210
-16.317005
-18.558801
-15.936962
-12.559458
-12.991450
-11.059814
-0.693514
17.598305
38.252455
52.513975
53.332765
44.280893
36.968947
30.945450
22.729512
19.360323
25.693467
41.017958
62.191902
80.257724
89.972526
97.845054
110.552383
126.343677
138.456397
141.566859
133.754860
118.947311
102.315931
87.470975
77.759552
72.857214
71.486160
68.590269
59.244340
41.675458
18.341805
-5.603340
-29.264820
-44.881546
-50.673330
-52.308308
-45.559276
-30.644959
-15.272411
-4.240586
2.744056
3.786246
-2.813156
-12.418074
-19.422714
-21.440071
-20.779999
-22.504856
-32.721267
-50.150654
-68.174131
-85.320111
-98.553467
-104.372267
-107.361934
-109.725301
-107.236723
-97.879361
-82.037413
-65.654108
-56.767446
-55.271701
-58.034072
-59.370576
-48.918812
-27.811888
-11.455599
-9.635923
-15.840478
-21.690970
-22.629250
-12.103193
3.007509
10.308288
9.108681
3.821107
-0.906928
-4.187276
-3.515254
2.196005
6.903001
9.957614
13.813870
19.834772
30.260819
43.464305
57.467875
66.673013
66.586252
60.314417
48.361717
37.268070
31.286395
24.519183
21.169736
23.650522
30.487875
43.053890
53.827506
56.950697
52.647383
44.401052
34.839516
18.668185
-0.872336
-11.056796
-10.773907
-4.450375
4.133658
11.454179
22.385734
35.092284
39.434306
29.904722
8.522186
-15.665323
-40.901256
-64.377001
-79.609531
-89.759701
-98.283464
-106.391339
-111.507727
-110.337990
-104.093688
-93.782458
-84.036484
-77.284334
-71.595415
-66.671773
-61.866324
-58.168786
-57.814981
-61.387567
-67.042194
-72.701756
-76.299281
-74.755478
-66.761639
-53.033682
-33.275212
-8.631547
13.524580
29.385231
40.046108
44.966634
42.015412
27.354372
8.358844
-6.763804
-19.387744
-27.969176
-35.765070
-46.738445
-56.610923
-58.504889
-51.965750
-42.338230
-32.681875
-29.060189
-35.041344
-47.554363
-59.834371
-64.976735
-63.749070
-58.600728
-50.992644
-43.084008
-35.616458
-26.503538
-13.228097
-0.221515
6.784947
10.459625
19.262642
38.333506
61.428434
77.525215
83.871866
86.032877
88.928772
92.798276
98.420694
102.898056
101.934578
98.936858
93.147412
81.983107
68.669224
55.693298
45.902646
41.459058
34.895503
18.321792
0.183238
-10.286966
-10.250597
2.149426
18.384403
31.512556
42.950659
48.679322
46.421161
38.639815
30.995366
30.380756
34.497820
42.927550
49.782308
47.647277
41.033847
29.507686
16.416942
6.481860
1.128564
4.159538
12.086098
19.155164
23.076881
24.603020
26.779097
33.149907
42.825484
48.450241
47.454032
45.479278
43.575181
38.257213
30.166483
22.151345
14.235439
10.387498
18.947372
31.284272
35.463680
37.760029
45.268623
59.255568
78.043285
93.182821
97.641739
89.196166
66.561809
38.618055
17.742067
7.698142
8.951784
16.658320
26.017500
36.727214
44.607275
49.202311
52.162368
50.263726
46.124066
44.163339
44.164899
46.842589
52.964281
59.344962
61.251141
58.980251
55.721464
52.673868
50.417785
47.964538
43.410289
37.055847
29.530892
18.558296
0.303107
-24.514600
-49.374388
-70.287523
-88.560896
-104.037088
-115.521426
-122.801421
-121.830147
-110.419320
-97.298441
-91.290527
-91.312346
-93.224496
-91.939942
-81.992128
-65.001486
-44.992340
-22.901675
-1.008692
20.536980
40.910580
55.217040
58.753003
50.367176
37.634653
24.814328
12.121549
5.208867
5.947388
12.365996
20.207611
27.134325
34.481082
41.350127
49.843241
59.378024
63.308055
59.765081
46.782661
30.771347
25.627944
27.829479
34.705277
40.203527
35.213127
28.934538
26.118395
29.334583
32.531549
26.591957
15.103722
-0.848885
-18.802224
-38.614202
-59.845812
-80.503076
-100.350902
-113.671800
-116.239344
-107.077328
-86.552543
-64.204967
-48.921000
-40.433342
-40.299040
-43.062969
-43.025821
-45.380096
-50.027083
-55.013846
-59.081291
-59.383140
-56.757664
-53.201180
-50.479070
-50.234107
-54.988638
-65.464558
-78.049533
-88.350888
-93.941612
-95.699719
-95.714784
-95.056271
-94.351519
-94.800397
-94.373596
-88.090848
-77.260083
-67.115884
-61.123556
-59.357133
-57.256128
-51.205872
-39.614506
-22.615811
-2.467170
17.233630
31.760893
38.689685
38.573570
35.718982
36.364766
47.017850
66.140927
80.436217
80.204766
66.411090
49.659178
36.635715
26.512041
19.205550
13.707044
13.783937
22.305885
36.986151
52.738999
64.811195
75.016699
84.562392
91.004638
92.503761
90.578103
82.814160
66.945719
51.761766
40.597202
32.526214
31.591310
33.728163
32.154231
27.496853
22.937927
20.472472
20.165168
20.236865
18.196649
13.434585
7.964394
3.528079
1.854396
4.898098
11.067588
19.471861
27.340752
32.485458
40.461893
52.198469
63.173925
68.623858
67.246050
62.535680
54.183104
41.779187
30.215359
18.827395
5.663397
-4.509893
-12.196164
-18.492677
-22.988219
-26.091665
-24.529419
-15.208166
-1.402278
9.819178
17.968359
23.730273
25.270958
19.446963
6.621702
-6.408255
-12.192766
-10.648184
-11.033159
-14.809923
-18.165863
-20.574170
-21.091367
-22.609449
-25.868496
-25.271548
-21.750652
-21.292160
-25.715746
-34.301854
-41.769141
-43.624921
-41.439233
-38.449822
-38.016008
-41.990456
-48.142538
-50.936600
-46.931237
-37.975477
-27.517998
-17.760593
-9.767013
-1.950595
4.706479
8.383236
11.644364
13.172320
13.444818
16.851676
24.101541
34.170147
42.101383
46.148309
46.688887
40.038570
27.444763
10.533353
-7.417388
-19.096033
-24.106955
-24.663116
-22.833309
-21.200407
-20.930766
-22.479501
-24.036808
-25.308890
-25.335905
-23.980174
-26.199630
-32.930475
-40.872618
-49.564191
-58.727503
-63.515025
-63.163557
-63.960004
-67.632601
-71.868376
-75.355759
-78.958998
-83.574293
-87.503022
-88.906286
-84.895728
-76.168823
-67.126300
-58.007405
-50.545830
-48.450540
-49.339724
-49.963426
-51.398902
-54.683406
-61.407497
-73.310581
-87.973180
-101.334082
-109.886939
-111.897801
-108.652779
-101.737236
-91.533550
-78.085883
-62.156912
-45.131721
-29.233923
-17.543066
-10.486988
-6.113274
-4.098253
-6.207047
-12.971662
-18.792021
-17.041703
