EVENT_NAME: 202302060117
EVENT_ID: 13194
EVENT_DATE_YYYYMMDD: 2023/02/06
EVENT_TIME_HHMMSS: 01:17:32.00000
EVENT_LATITUDE_DEGREE: 37.288
EVENT_LONGITUDE_DEGREE: 37.043
EVENT_DEPTH_KM: 8.6
HYPOCENTER_REFERENCE: AFAD
MAGNITUDE_W: 7.7
MAGNITUDE_W_REFERENCE: AFAD
MAGNITUDE_L: 
MAGNITUDE_L_REFERENCE: 
FOCAL_MECHANISM: 
NETWORK: TK
STATION_CODE: 3134
STATION_NAME: 
STATION_LATITUDE_DEGREE: 36.82763
STATION_LONGITUDE_DEGREE: 36.20485
STATION_ELEVATION_M: 29.0
LOCATION: Kahramanmaras_Pazarck_Turkiye
SENSOR_DEPTH_M: 
VS30_M/S: 374
SITE_CLASSIFICATION_EC8: B
MORPHOLOGIC_CLASSIFICATION: 
EPICENTRAL_DISTANCE_KM: 90.29
EARTHQUAKE_BACKAZIMUTH_DEGREE: 
DATE_TIME_FIRST_SAMPLE_YYYYMMDD_HHMMSS: 2023/02/06 01:17:25.1268070
DATE_TIME_FIRST_SAMPLE_PRECISION: millisecond
SAMPLING_INTERVAL_S: 0.01
NDATA: 11251
DURATION_S: 
STREAM: HNZ
UNITS: cm/s^2
INSTRUMENT: sensor = GMS+/GEOSIG | digitizer = 
INSTRUMENT_ANALOG/DIGITAL: 
INSTRUMENTAL_FREQUENCY_HZ: 
INSTRUMENTAL_DAMPING: 
FULL_SCALE_G: 
N_BIT_DIGITAL_CONVERTER: 
PGA_CM/S^2: 141.510
TIME_PGA_S: 
BASELINE_CORRECTION: BASELINE REMOVED
FILTER_TYPE: BUTTERWORTH
FILTER_ORDER: 
LOW_CUT_FREQUENCY_HZ: 
HIGH_CUT_FREQUENCY_HZ: 
LATE/NORMAL_TRIGGERED: 
DATABASE_VERSION: 
HEADER_FORMAT: DYNA 1.2
DATA_TYPE: Acceleration
PROCESSING: Automatic Paolucci et al., 2011
DATA_TIMESTAMP_YYYYMMDD_HHMMSS: 
DATA_LICENSE: U (unknown license)
DATA_CITATION: Turkish Accelerometric Archive v 1.0 - Disaster And Emergency Management Presidency, Earthquake Department
DATA_CREATOR: AFAD
ORIGINAL_DATA_MEDIATOR_CITATION: : AFAD - Disaster And Emergency Management Presidency
ORIGINAL_DATA_MEDIATOR: AFAD PROCESS SERVICE
ORIGINAL_DATA_CREATOR_CITATION: AFAD PROCESS SERVICE
ORIGINAL_DATA_CREATOR: network: TK
USER1: GuestUser
USER2: 
USER3: 
USER4: 
USER5: 
[...]
-4.579242
-0.513101
0.768848
-8.393172
-12.162410
-4.592259
10.767812
25.847335
40.527074
41.370015
0.258099
-35.305954
-28.120000
-12.757071
-1.309364
-7.828505
-16.525541
9.609185
31.609444
32.507975
44.002700
44.497553
17.460901
-6.855200
-13.864264
-6.993668
-2.382274
-5.291680
-0.863422
-3.301350
-16.759672
-24.840798
-27.611228
-19.918986
-5.874379
11.714241
27.220822
22.226258
17.377165
25.667912
29.814842
14.460993
-17.163679
-29.682680
-10.210223
21.536789
28.625850
13.233036
11.772095
8.273795
-8.194718
-14.838548
-5.972674
0.097577
2.637842
10.527247
7.027389
2.286099
1.210394
-11.304451
-13.690165
-7.397293
-20.234250
-39.087692
-31.937326
-0.462292
32.167152
41.396440
21.973847
0.956798
-14.089226
-28.779627
-40.534131
-46.156814
-36.611907
-19.412419
-15.354330
-11.186359
4.591679
4.690125
-1.211288
3.050719
2.755876
4.867264
11.094935
7.477401
3.363710
2.223843
-2.776435
-3.377025
-19.982955
-50.341258
-42.716816
-3.851384
17.656356
11.060323
0.579201
2.950617
6.567360
-1.603386
-19.455163
-16.897494
7.820457
13.497160
13.106983
18.307531
16.291207
11.667852
2.142935
5.132079
14.829210
8.090565
-3.081280
-9.294415
-6.913388
9.210142
23.038102
7.351491
-13.881685
-12.464657
-4.022725
17.054319
33.110569
18.953471
8.295188
8.288948
4.791686
2.514295
6.610830
31.406192
56.274289
40.503513
5.706555
-5.026023
-10.675201
-17.229152
-8.762541
-5.348417
1.563742
16.825361
23.101089
8.675391
-13.997159
-9.233281
10.667015
24.808775
30.806550
26.575964
9.641947
-12.562501
-19.928745
-14.564284
4.814657
18.893294
5.318855
-2.110773
8.822334
1.618185
-32.862896
-61.603365
-54.902397
-8.035594
33.242303
20.115964
-15.387822
-16.800965
4.334007
18.022991
22.291232
11.320188
4.479714
3.694170
-1.447163
-0.052214
-6.342500
-5.750495
15.665546
27.346784
8.360341
-17.117183
-11.040697
22.749649
47.971550
36.685407
9.758118
-7.274351
-15.149221
-12.716760
0.426712
3.766283
-2.896510
2.013877
-4.034825
-17.662256
-34.696543
-61.234440
-48.752597
-10.472682
6.807334
5.619410
-2.303517
3.898176
15.154175
14.701653
12.864309
11.424929
5.823028
-14.537847
-21.554704
1.955586
12.906097
7.867113
5.684797
11.828043
26.718974
28.634757
17.348614
0.447588
-10.795174
2.764706
7.485983
-14.250624
-30.096992
-20.620145
7.541810
33.095954
25.182378
-9.296104
-12.397479
6.720915
4.716280
-10.429754
-12.255669
-7.679862
-21.403667
-39.627432
-49.186637
-40.393239
-19.797285
-3.987555
3.020458
0.199632
-2.242192
-9.279311
-8.847582
-1.292238
-7.137541
-9.550531
-9.532873
-8.703180
7.613358
3.850354
-22.809374
-29.086412
-23.274890
-13.226812
-2.793759
4.404145
16.742076
20.636771
13.895528
7.133763
9.017335
8.750028
-0.154822
-5.176921
-13.766413
-19.877199
-15.866388
-3.133869
24.562841
43.505631
37.689422
21.772137
1.959372
-12.644527
-13.212645
-13.965458
-11.715614
3.751222
6.176410
2.683565
12.633710
13.041540
15.947038
42.926789
54.195256
21.200308
-21.089656
-38.147582
-25.967070
-1.545254
9.973889
4.652018
-11.674662
-38.955495
-50.022653
-24.090806
-7.391371
-8.397718
-12.793776
-32.241308
-27.890460
-15.096896
-14.890646
4.984972
13.344558
-3.339822
-22.055847
-29.607566
-7.551976
23.879937
36.084348
34.696921
27.881385
22.337931
22.927859
12.995886
-7.389927
3.284191
31.797871
34.334240
32.106464
29.318110
24.714497
30.688634
28.121861
18.828658
0.961295
-11.357425
1.060515
7.789538
2.217250
3.601548
15.790113
21.169641
7.046833
-17.292648
-37.748599
-34.907522
-4.318816
11.153735
-0.268007
-1.685046
-3.208071
-3.075855
-0.657941
-1.211252
13.534728
11.510351
-3.693612
-8.795459
-26.919993
-41.065920
-33.383290
-33.625919
-42.370752
-40.797083
-23.085073
5.975159
9.561249
-14.569638
-31.849666
-24.046762
-11.016549
-3.765653
25.213531
30.431484
3.809422
-3.719177
-11.491439
-16.497173
-24.414126
-52.685973
-66.293142
-57.676386
-37.861555
3.828854
45.395352
47.989129
34.371050
24.574157
2.074612
-9.966676
-5.358399
-16.273073
-36.021675
-41.606691
-25.649933
2.812573
33.608574
61.278528
52.055982
17.817525
-0.946297
-27.505755
-47.561922
-43.823868
-33.535245
-12.854088
2.108539
17.620575
38.139897
45.545096
37.895704
27.976460
7.833011
-45.969608
-78.578281
-56.730505
-8.905678
51.074210
74.255375
55.122682
50.839363
68.448505
81.060232
50.345787
-17.078282
-64.720504
-54.984668
-6.079985
-1.205446
-5.972193
30.006958
32.287714
24.043194
13.935619
-9.472854
22.776029
55.553800
38.608353
18.458929
16.291420
39.919385
70.735908
62.647768
-2.359940
-47.595153
-25.041068
3.127900
5.261109
-10.760863
-34.034256
-42.467368
-42.694671
-25.297759
20.036154
40.278304
5.887104
-52.179605
-70.838741
-57.359389
-50.331114
-25.726162
-1.367989
15.104928
17.268270
-20.341195
-37.939958
-16.330130
-18.885993
-48.316925
-59.202765
-21.879315
30.269349
25.884461
3.279451
13.944477
10.459425
-1.237671
-27.201221
-83.512418
-84.246268
-51.833991
-40.517207
-9.785109
1.578693
-19.485894
-25.499007
-44.666769
-75.081442
-76.393275
-46.408010
3.531328
15.581177
-18.634160
-38.190794
-35.298024
-22.429127
-2.078654
52.234137
114.492450
102.099436
47.702729
11.571602
9.785692
26.070278
-6.837388
-59.424033
-75.124152
-44.931072
35.942729
74.141857
42.026483
24.250558
44.133189
60.157228
32.517915
-0.028674
0.723349
-0.098822
-15.894017
-23.457685
-14.997050
56.108699
133.643963
85.024754
12.241673
26.592286
44.267929
17.027100
-14.696803
-21.330762
5.742764
51.965343
70.639015
57.420718
50.805982
26.996168
12.564496
25.794210
4.308800
-5.907359
-9.148229
-6.048944
45.936327
82.038088
68.695103
10.958559
-17.609424
-8.945650
-12.687872
6.930575
12.473497
6.550263
18.525818
-13.988299
-79.867788
-88.730036
-17.576491
51.425138
61.428015
27.996138
-19.485028
-26.134054
8.156605
30.515864
32.283839
18.598999
-0.235480
-26.086031
-42.854316
-32.013167
-19.368450
-9.860690
5.084013
27.240912
6.820810
-35.199515
-20.641087
-23.952354
-49.553788
-28.603770
14.800587
27.619089
-23.869257
-34.681583
7.462380
-0.384955
11.655023
41.676656
24.080231
6.692919
-1.749804
-21.891955
-44.857263
-35.101165
-22.188627
-34.338238
-24.807359
-5.895221
19.543587
35.013020
16.037228
-12.547121
-47.353171
-32.479385
41.360161
77.351781
50.684779
28.372527
34.637085
36.653658
40.115839
35.986302
14.342953
-1.151430
-13.058938
-20.905753
-15.527524
-14.578078
-19.954760
-8.712789
-10.027480
-23.054588
-28.418801
-34.177602
-5.560274
29.123154
23.595547
14.920072
34.602941
57.105072
50.692695
28.245884
-9.948579
-46.545210
-23.525621
31.678694
54.413317
32.573843
-11.641001
-28.705682
-35.923079
-61.837793
-78.270458
-89.662326
-67.632453
-6.990676
13.512800
-3.332636
-19.217969
-43.205205
-37.204572
-18.708062
-24.362956
14.612358
36.016450
-7.454419
-1.385467
22.595783
7.009702
3.092396
5.702538
-0.853490
-23.954917
-58.488730
-65.683269
-52.784758
-29.802316
-6.994438
0.235677
-8.464217
-25.143661
-24.548538
-17.919007
-28.076458
-39.424685
-24.286715
-6.184273
-14.281505
-27.083653
-28.499914
-23.079862
-28.916073
-30.145561
-11.461239
-5.349945
-11.517101
-26.649887
-24.180798
28.554163
71.486521
75.796845
40.043681
-9.346779
-9.337693
6.413069
5.053698
-26.786062
-78.152837
-88.350292
-68.035147
-47.111626
-17.535495
11.918285
14.855216
11.036362
9.305263
10.981020
30.594012
38.192478
45.567024
33.009317
20.817623
42.119367
22.779639
-0.471414
-3.974390
13.568511
44.951068
39.055629
42.077244
34.228870
20.184512
20.617799
-5.906590
-19.394525
-17.794361
-41.847577
-63.537166
-36.102821
22.317161
70.927527
69.586859
10.015314
-38.596362
-22.457246
39.219706
95.063050
95.675317
59.159734
52.437714
34.915323
-13.690898
-27.948786
-15.974789
4.460109
12.733971
-9.849998
-31.350475
-38.696458
-13.553267
6.176101
-3.117102
8.511663
2.423217
-2.262742
5.907473
-1.902975
24.356439
45.889376
36.265228
11.401276
-4.481720
7.166788
-15.011684
-40.058253
-40.493370
-50.276495
-43.808020
-35.138011
-27.399531
-6.642780
-3.713124
-36.304392
-69.304016
-80.291685
-92.631707
-85.026227
-75.628609
-66.051750
-9.033996
45.295421
54.598484
12.959758
-35.124849
-22.261407
10.927317
20.683934
6.628406
-16.217150
-20.774264
-23.432475
-27.757876
-19.315684
-27.563841
-40.900332
-25.843669
-21.400085
-22.493713
6.558206
25.259153
10.066360
4.533558
3.603583
-32.371423
-54.641333
-49.151923
-25.034815
18.054184
26.737181
17.170442
17.396954
18.539927
27.649463
52.838633
77.889347
80.205692
49.123675
-13.105815
-30.706396
6.206880
10.982448
5.511210
-9.833547
-85.072994
-124.788138
-101.686722
-86.389774
-33.000718
45.684279
36.627465
-25.951413
-35.205910
-18.261255
3.156345
37.588318
44.021985
30.903179
36.261406
40.778765
24.631585
23.799023
18.149325
2.257497
-1.411471
-8.396896
2.334631
4.281586
-18.229389
-28.285790
-8.810215
31.098445
68.705821
99.666774
78.319820
4.377135
-23.570263
6.119906
-4.519674
-52.983802
-52.176968
-23.165053
5.496954
25.879119
-21.903637
-80.815631
-73.123389
-74.301442
-94.543604
-69.204547
-20.686659
21.266115
39.750415
20.949966
-3.772932
-4.266497
-4.063364
-8.912977
20.101276
52.189882
63.307164
59.570656
38.069140
69.661330
124.197522
101.596408
41.780162
-5.830109
-54.539198
-86.650935
-84.074303
-55.858057
19.759601
87.249120
66.653155
28.381801
43.479247
57.211872
33.811193
0.326323
-41.017307
-66.514054
-59.848934
-23.979406
8.195444
25.800690
44.604245
19.512216
-17.761110
-62.789287
-98.082402
-60.626990
-30.922274
-29.176380
3.776734
39.777446
60.007386
77.223240
41.789331
-23.726223
-32.314416
-34.641942
-72.116588
-75.547349
-35.283067
1.722687
31.486370
66.936373
84.806842
77.656205
74.265968
55.826076
17.298331
17.465616
49.385633
36.277738
-5.352935
-7.409783
19.773366
64.572936
100.169708
85.391246
71.644841
78.505566
52.850101
24.884520
28.468012
18.983101
17.251482
27.639595
10.008102
-6.320396
-32.809197
-60.696068
-63.913819
-56.704486
-38.107966
-50.465651
-72.817388
-52.443016
-33.676348
-31.271942
-7.556694
11.469482
9.477056
-4.621074
-61.057999
-62.124092
6.182916
5.900543
-12.684819
-14.409683
-30.149807
-5.104288
35.598742
11.905304
-19.913155
4.300067
27.560201
15.701530
-22.437603
-42.398955
-16.255917
16.798507
14.429158
0.375967
12.214365
22.504546
28.319705
9.198702
-38.611850
-48.754234
-32.329893
-14.526185
19.284943
57.686949
76.131245
41.767060
-17.559004
-27.181073
9.045636
25.100067
5.840348
-25.011774
-51.892045
-59.647682
-85.459787
-96.824120
-42.910072
-15.384549
-20.181689
-26.514317
-53.919060
-32.078298
33.018239
50.487626
38.280866
25.604186
-13.667794
-44.369771
-36.486859
-9.809219
17.371073
16.003649
7.159065
1.199723
-15.360488
-17.699964
-19.882539
-31.772383
-42.428848
-50.942487
-52.597734
-50.344513
-31.413412
-16.758091
-32.906310
-11.529234
60.757939
74.545116
20.008394
-30.564011
-63.631434
-69.848206
-42.157470
-10.807384
3.097468
4.308240
-35.503278
-69.139333
-17.331484
30.731551
17.755878
-23.798683
-60.302057
-62.124854
-26.342868
30.479801
43.348958
34.819733
20.313767
-0.997859
37.068267
64.995391
12.365884
-51.188941
-64.308786
-29.458327
52.150618
77.762431
5.517329
-31.602994
-33.273567
-24.633951
-20.423898
-32.754568
-34.986499
-47.938534
-36.113124
15.895006
78.429971
91.891919
29.165493
-27.247793
-42.213808
-41.616348
-26.571634
-7.927836
8.043469
19.676650
15.763760
28.220406
43.529563
76.264212
86.572577
21.070011
-9.386225
-0.182134
-6.732447
-49.098004
-32.255436
13.489429
-19.846334
40.617502
89.197994
18.657489
-6.273223
-33.023091
-43.580324
10.493480
18.953596
0.311865
28.403163
46.376240
38.752305
48.652835
26.583206
2.714424
19.608945
15.098589
33.607048
50.215824
-4.968500
-43.610803
-36.917888
-37.992813
-40.299558
-27.821872
-22.434810
23.451370
63.201831
12.841917
-28.623284
-48.839469
-21.153929
46.063614
31.218910
-24.630420
-86.447138
-103.477269
-64.395711
-59.719374
-32.638314
43.084290
59.885554
25.318750
27.709648
33.811591
19.179118
-2.138742
-22.408699
-17.535718
-12.043710
-11.701342
-16.860339
2.814218
46.661220
66.128222
74.775631
60.070423
54.080169
87.000552
70.633089
3.144857
-34.692165
-15.378945
49.377816
108.000676
95.702997
14.706574
-25.605777
-11.942250
5.132810
13.476810
-0.637426
12.753085
29.765800
29.015065
33.067439
61.905309
91.087632
72.453954
78.255865
90.056856
52.765087
7.712491
4.637093
19.057324
-9.518972
-52.957889
-63.853600
-8.599410
40.942224
7.090561
-25.048452
12.410597
63.631110
80.058828
75.521716
60.009149
55.096413
46.957099
43.100318
45.323147
10.947792
7.447673
32.314991
32.642553
48.028601
47.748046
20.551378
35.340739
55.054002
57.687264
61.587673
10.697313
-26.594456
-11.198537
4.126207
26.053471
9.319216
-54.164693
-97.152134
-66.773061
-18.575466
-8.812094
13.133354
33.101189
27.674112
34.783435
15.659055
-68.913594
-115.095401
-82.406211
-41.231442
-16.644154
-13.831653
-1.984682
40.369433
54.081017
42.366517
30.659291
2.544083
-7.302426
-15.458625
-3.293179
20.579747
6.207302
7.715249
9.628953
56.619147
141.510259
107.893167
19.701692
-21.168381
-44.972999
-25.022829
8.772193
-3.078945
-12.966237
16.892262
62.886245
71.864858
46.551247
14.220526
0.877281
27.044218
24.205988
-14.608541
-34.670943
-47.694414
-42.010697
2.547549
51.410928
64.121107
35.313878
10.087030
14.892471
17.442347
4.247430
8.032503
26.785923
-1.057308
-50.384125
-23.008228
32.693282
38.621700
36.769030
15.923427
1.861924
50.475147
99.232802
94.134850
59.451671
59.185922
56.212093
39.200666
34.308191
7.807961
15.437079
46.405306
30.541793
-10.715334
-32.498438
-50.117983
-57.627100
-19.358095
-7.675558
-14.340429
7.730487
15.894727
13.201708
22.000041
42.994479
29.302626
7.002064
22.308363
3.420112
-29.040233
-21.437611
9.477364
32.791009
30.675194
21.474468
-4.479730
-13.173389
-16.400751
-11.980806
43.925922
48.693696
7.555284
-25.160154
-53.681898
-43.504717
0.351377
29.351083
3.655354
-23.591190
-39.324560
-39.652392
-18.735625
-8.241267
19.521944
28.919303
2.743003
-21.187863
-33.593605
-41.382752
-38.228656
-20.677961
-44.126178
-73.431383
-70.437823
-94.078009
-118.343455
-82.067650
-30.379034
-40.982507
-34.996161
18.761247
55.406442
70.284384
22.507603
-19.954587
-35.699387
-25.089951
39.722140
57.570009
46.382319
16.773965
-34.949731
-46.119497
-14.661867
6.035656
-20.780193
-38.342069
-44.893941
-42.518369
-8.108476
9.821479
29.440186
48.075152
23.327056
2.161680
-14.859359
-32.213941
-39.040907
-25.017601
28.828387
36.785073
-0.880502
-16.733105
-25.098937
-22.521266
-2.255737
1.546741
-15.034511
-5.162817
-18.350460
-57.535938
-40.741687
-1.292038
25.628486
9.327783
-28.837326
-25.171227
-4.608783
22.336678
39.961666
21.097834
8.612083
38.342516
33.221965
-7.615377
-10.340088
-28.549306
-44.215915
-15.260629
-9.724721
-39.561930
-56.284755
-38.524688
17.570631
53.956578
35.379789
10.708584
-34.185034
-41.155912
14.121658
11.229916
-11.795919
23.002067
55.825297
70.724800
87.089134
43.682428
-18.585507
-0.557100
24.519331
5.936308
2.553604
-1.824790
-46.358369
-65.248439
-11.406347
31.218706
40.494493
46.366801
21.510382
-5.386514
-11.046343
-1.441170
8.642496
-4.566709
-26.162001
-28.334966
-12.356127
6.586144
28.115964
13.650781
-28.696851
-39.325521
-29.004168
-11.320472
14.221463
21.011791
4.749274
-26.721356
-34.198781
-3.970633
12.916355
23.374086
7.983610
-19.932875
-9.919866
2.102188
21.264482
35.529372
18.182584
-12.111037
-23.713317
-4.676750
-10.421004
-30.809675
-39.571133
-36.573157
-18.166787
-42.701353
-76.280000
-47.078974
-0.743656
14.565502
-4.204555
-43.313141
-50.640421
-40.234643
-62.318559
-69.380615
-75.138637
-92.660768
-93.450988
-112.887609
-119.432727
-100.552021
-74.982550
-39.979868
-18.721765
4.204567
30.720112
31.125604
3.800610
-10.494164
-17.123707
-30.630086
-23.816379
-19.883759
-20.273936
-29.705595
-48.050931
-58.823253
-73.295709
-52.079689
-14.833131
-20.827541
-30.425192
-28.003901
-37.231383
-39.073923
-47.945522
-50.012501
-15.152171
-8.767861
-40.503714
-57.871023
-53.647462
-36.052607
-9.428739
13.100148
-3.756198
-34.904196
-28.899926
-12.842637
-8.769742
6.247956
14.390895
-12.708880
-24.957203
-23.281965
-20.353347
22.058696
36.262021
17.666009
45.192052
68.021750
36.928043
18.510751
25.626569
14.731636
-4.104661
-19.825042
0.040964
38.193593
45.127053
42.183357
30.011405
18.181309
17.726709
2.986173
-9.688949
9.341124
36.310743
37.871164
15.436301
16.393800
39.927989
17.643532
-1.141591
13.376833
2.668933
-2.881274
25.763589
40.182002
7.060807
-1.517515
19.531474
11.408266
19.523410
31.957975
21.216825
19.602102
18.796816
8.854713
18.418063
38.163017
22.076623
1.246607
25.026536
43.648773
36.492421
31.131325
13.038743
34.149557
58.510328
25.755145
11.780145
-2.696467
-18.777666
13.723971
43.079559
36.495995
25.758742
4.153059
-28.995931
-32.377076
-25.630390
-16.106524
11.587588
12.319868
-2.456256
10.020911
9.124446
-12.174191
-23.159523
-24.550846
-8.260545
16.833810
29.347864
8.026107
-6.398551
21.007738
4.267248
-31.799195
-37.108598
-42.272270
2.995142
29.901378
-13.226077
-35.587945
-15.066544
19.686242
15.980387
-3.195947
10.401340
33.825907
38.334433
32.574853
34.564410
21.402483
-4.089848
-25.669035
-27.212322
-8.292391
-34.896528
-84.248283
-67.602360
-22.910853
13.703170
35.422620
11.751003
-11.190667
-0.151575
10.514230
15.653473
33.229365
21.058453
-11.387865
-4.660921
-16.559077
-43.256990
-24.252635
-3.824231
20.022459
44.356213
27.334914
2.901138
-14.132890
-15.023899
11.791678
35.123767
41.534834
14.276081
-11.948016
8.287380
13.632879
-1.735777
8.441665
-1.065587
-15.723517
11.417030
3.906874
-18.890105
5.378447
25.720089
34.834040
25.351207
2.670084
-7.702714
-20.319129
-23.559739
-22.994490
-22.426643
-3.869607
19.547166
27.165115
4.682455
-25.597918
-35.793036
-15.406974
22.412632
47.074733
51.435971
21.283664
-2.478353
3.781529
11.768088
10.993714
-4.712380
-10.714583
-29.244874
-43.752399
-24.183827
-22.548074
-11.176739
32.877557
36.904474
7.838775
4.970672
-4.444103
11.894515
69.815742
61.211444
30.382960
24.556620
-4.698190
-16.115256
-10.864053
-11.017581
12.705978
17.419202
-5.057483
13.256410
38.303227
11.472052
-24.654918
-32.083766
1.540068
59.158926
55.258765
-7.770031
-33.563953
-26.614907
-26.495939
-8.533512
-1.814880
-27.173171
-30.938253
-21.673635
-19.814482
5.278834
22.726401
-0.531926
-11.752088
-18.041335
-28.726894
21.308039
74.855294
53.408070
15.017222
-19.978718
-46.024874
-9.277330
25.853678
-6.404568
-47.471804
-52.385840
-23.519395
11.011550
27.189111
12.646777
-7.400039
0.997993
-26.081520
