EVENT_NAME: 202302060117
EVENT_ID: 13194
EVENT_DATE_YYYYMMDD: 2023/02/06
EVENT_TIME_HHMMSS: 01:17:32.00000
EVENT_LATITUDE_DEGREE: 37.288
EVENT_LONGITUDE_DEGREE: 37.043
EVENT_DEPTH_KM: 8.6
HYPOCENTER_REFERENCE: AFAD
MAGNITUDE_W: 7.7
MAGNITUDE_W_REFERENCE: AFAD
MAGNITUDE_L: 
MAGNITUDE_L_REFERENCE: 
FOCAL_MECHANISM: 
NETWORK: TK
STATION_CODE: 0119
STATION_NAME: 
STATION_LATITUDE_DEGREE: 36.568
STATION_LONGITUDE_DEGREE: 35.39
STATION_ELEVATION_M: 22.0
LOCATION: Kahramanmaras_Pazarck_Turkiye
SENSOR_DEPTH_M: 
VS30_M/S: 485
SITE_CLASSIFICATION_EC8: B
MORPHOLOGIC_CLASSIFICATION: 
EPICENTRAL_DISTANCE_KM: 167.32
EARTHQUAKE_BACKAZIMUTH_DEGREE: 
DATE_TIME_FIRST_SAMPLE_YYYYMMDD_HHMMSS: 2023/02/06 01:17:40.8668310
DATE_TIME_FIRST_SAMPLE_PRECISION: millisecond
SAMPLING_INTERVAL_S: 0.01
NDATA: 13501
DURATION_S: 
STREAM: HNN
UNITS: cm/s^2
INSTRUMENT: sensor = CMG-5T/GURALP | digitizer = 
INSTRUMENT_ANALOG/DIGITAL: 
INSTRUMENTAL_FREQUENCY_HZ: 
INSTRUMENTAL_DAMPING: 
FULL_SCALE_G: 
N_BIT_DIGITAL_CONVERTER: 
PGA_CM/S^2: 43.463
TIME_PGA_S: 
BASELINE_CORRECTION: BASELINE REMOVED
FILTER_TYPE: BUTTERWORTH
FILTER_ORDER: 
LOW_CUT_FREQUENCY_HZ: 
HIGH_CUT_FREQUENCY_HZ: 
LATE/NORMAL_TRIGGERED: 
DATABASE_VERSION: 
HEADER_FORMAT: DYNA 1.2
DATA_TYPE: Acceleration
PROCESSING: Automatic Paolucci et al., 2011
DATA_TIMESTAMP_YYYYMMDD_HHMMSS: 
DATA_LICENSE: U (unknown license)
DATA_CITATION: Turkish Accelerometric Archive v 1.0 - Disaster And Emergency Management Presidency, Earthquake Department
DATA_CREATOR: AFAD
ORIGINAL_DATA_MEDIATOR_CITATION: : AFAD - Disaster And Emergency Management Presidency
ORIGINAL_DATA_MEDIATOR: AFAD PROCESS SERVICE
ORIGINAL_DATA_CREATOR_CITATION: AFAD PROCESS SERVICE
ORIGINAL_DATA_CREATOR: network: TK
USER1: GuestUser
USER2: 
USER3: 
USER4: 
USER5: 
[...]
1.255148
2.827142
3.205219
2.265881
0.463955
-1.204998
-1.999360
-1.728357
-0.814596
0.316154
1.392893
2.450050
3.402344
4.455710
5.655947
6.244065
5.918426
4.867278
3.374253
1.863226
0.651940
-0.192642
-0.898565
-1.781049
-2.830303
-3.516644
-3.601920
-3.075709
-2.205852
-1.524242
-1.281034
-1.357150
-1.331247
-0.953170
-0.364421
0.115045
0.245494
-0.128786
-0.824918
-1.588958
-1.964185
-1.944599
-1.829626
-1.630952
-1.226344
-0.578846
0.369342
1.504830
2.233817
2.376269
2.351636
2.739189
3.718014
5.098602
6.191134
6.411918
5.611555
4.079365
2.356717
0.904753
-0.057325
-0.741139
-1.523499
-2.331442
-2.614441
-1.891771
-0.089838
1.966356
3.571514
4.272075
4.001710
3.472347
3.459084
3.830213
4.050364
3.619547
2.305926
0.458833
-1.224018
-1.702213
-0.733810
1.281006
3.410793
4.501430
4.126202
2.811002
1.496118
1.067827
1.900098
3.653074
5.533655
6.589864
6.387407
5.238344
4.016004
3.275021
3.227963
3.757017
4.252590
3.988226
2.638283
0.632316
-1.399550
-2.884678
-3.535327
-3.169253
-2.033133
-0.946602
-0.384068
-0.554940
-1.375834
-2.202728
-2.487307
-2.187876
-1.835699
-1.958562
-2.573204
-3.189110
-3.010651
-1.967392
-0.344862
1.318097
2.570133
3.292488
3.623503
4.066961
4.903970
5.980709
6.700537
6.723597
6.081160
5.361971
5.499369
6.755196
8.454794
9.564381
9.381507
7.873638
5.644365
3.669984
2.586618
2.000718
1.097388
-0.884258
-4.090142
-7.210114
-8.812107
-8.262523
-6.084096
-3.756270
-2.393054
-2.425268
-3.356393
-3.970720
-3.341857
-1.228811
1.604692
3.970735
5.130543
5.112859
4.833018
4.776169
5.216784
5.961880
6.369963
6.119496
5.470426
4.727232
4.180813
4.033946
3.923717
3.561124
2.682746
1.450930
0.217220
-0.788131
-1.784637
-2.907800
-3.988323
-4.592858
-4.445036
-3.620978
-2.468118
-1.510139
-1.076472
-1.148167
-1.359152
-1.303243
-0.695858
0.499010
1.999937
3.029930
3.207126
2.651548
1.731161
0.782980
0.021151
-0.487682
-1.057158
-1.902687
-2.946256
-4.036886
-4.730807
-4.859039
-4.500861
-4.022343
-3.834724
-4.072241
-4.421253
-4.453150
-4.056122
-2.902631
-1.306317
-0.031223
0.253994
-0.507835
-1.918107
-3.344486
-4.494180
-5.199472
-5.574700
-5.789791
-5.938869
-6.357053
-6.917369
-7.374086
-7.346288
-6.340615
-4.306847
-1.958807
-0.094651
0.598645
0.090128
-1.390894
-3.027630
-3.986550
-3.850731
-2.900332
-2.004891
-1.752839
-2.413911
-3.421473
-4.231627
-4.422713
-3.874077
-2.499174
-0.727878
0.717775
1.401912
1.489721
1.412026
1.346648
1.516895
1.489419
0.761386
-0.808390
-3.037979
-5.427072
-6.991794
-6.931779
-5.255239
-2.731586
-0.349435
1.267726
1.823311
1.939232
2.383637
3.757908
6.214285
9.037048
11.271698
12.272633
11.974789
10.568939
8.733848
6.978984
5.580399
4.650853
4.071270
3.819856
3.775640
3.910828
4.213416
4.604443
4.858391
4.809753
4.353036
3.554568
2.634813
1.861929
1.490492
1.451014
1.378688
1.038204
0.701194
0.745101
1.326902
2.493974
3.718532
4.102926
3.289613
1.490529
-0.921937
-3.182795
-4.332805
-4.104757
-2.914943
-1.762715
-1.296200
-1.697643
-2.794590
-4.181805
-5.024492
-4.610092
-2.970822
-0.759861
1.196523
2.571426
3.525615
4.340830
4.794079
4.995280
4.973173
4.664275
3.648185
2.643467
2.158323
1.670653
1.449244
1.185512
0.985582
1.638449
2.768567
3.535457
4.067985
3.933752
3.107805
2.439468
2.292600
2.896195
4.048423
5.029459
5.329521
4.994091
4.365551
4.149828
4.731629
5.726879
6.660538
7.148215
6.768249
5.329236
3.482774
2.129356
1.594624
1.852678
2.476487
2.620834
1.710239
-0.313415
-2.684821
-4.590346
-5.519261
-5.341117
-4.661087
-4.143088
-4.174038
-4.534104
-4.827842
-4.340165
-2.632356
0.308536
3.813538
6.862767
8.954335
9.924949
9.906317
9.017200
7.464480
5.494521
3.702701
2.695772
2.713463
3.643332
4.912740
5.899462
6.148672
5.398845
3.923508
2.302249
1.089068
0.708156
1.127609
2.084641
3.534084
5.222311
6.622166
7.355260
7.292725
6.314222
4.471235
2.143732
-0.153449
-1.649631
-2.033071
-1.787651
-1.787016
-2.808475
-4.720949
-6.766081
-8.176668
-8.139394
-6.351674
-3.469847
-0.644240
1.152323
1.464388
0.650127
-0.596533
-1.685268
-2.313492
-2.754101
-3.603737
-5.213942
-7.354461
-9.312733
-10.288078
-9.953588
-8.530676
-6.810548
-5.462809
-4.866479
-5.129895
-5.611880
-5.351300
-4.144114
-2.623604
-1.446424
-1.315658
-2.515573
-4.577445
-6.542982
-7.575811
-7.756159
-7.726465
-7.991145
-8.741919
-9.669886
-9.729263
-7.888796
-4.337048
-0.175076
3.153049
4.742730
4.459731
2.847315
1.024859
-0.411313
-1.308010
-1.968135
-2.683218
-3.773217
-5.230550
-6.708097
-7.846105
-8.479067
-8.930099
-9.243420
-9.469566
-9.639174
-9.691602
-9.281940
-8.089283
-6.212177
-4.048279
-2.063468
-0.537273
0.737189
2.298760
4.163864
5.899468
6.888401
6.740270
5.679330
4.245054
3.108310
2.654751
2.738455
2.758673
2.045801
0.252086
-2.159117
-4.034321
-4.558630
-3.639184
-1.798401
0.202202
1.305157
0.856336
-0.976859
-3.427860
-5.670082
-7.268285
-8.264160
-8.891752
-9.103685
-8.661806
-7.438196
-5.659004
-3.643239
-1.951222
-0.924072
-0.368170
0.197838
0.899346
1.633072
2.458709
3.218966
3.760970
4.115674
4.623566
5.384770
6.055641
6.498151
6.858857
7.332952
7.862638
8.433068
9.065721
9.694268
9.861672
8.964659
7.041761
4.284386
1.098400
-2.029153
-4.706302
-6.826607
-8.493665
-9.586506
-9.910565
-9.492375
-8.524605
-7.295309
-6.095072
-5.116562
-4.288713
-3.296622
-2.005420
-0.784968
-0.072089
0.226709
0.290830
0.282306
0.568786
1.473702
2.728266
3.857121
4.634117
4.841319
4.627175
4.669819
5.178658
6.170434
7.109778
7.195377
6.235825
4.651520
3.212506
2.667982
3.494252
5.053927
6.240899
6.360610
5.334413
3.547648
1.999350
1.191722
0.938729
0.732797
0.041719
-1.294959
-2.927274
-4.064018
-4.344806
-3.746897
-2.740276
-1.960437
-1.600048
-1.527714
-1.335989
-0.738712
0.064185
0.569234
0.348457
-0.306930
-0.938629
-1.504946
-2.351107
-3.563656
-4.875066
-5.916739
-6.458736
-6.560121
-5.980531
-4.924953
-3.903804
-3.176395
-2.628075
-2.261053
-2.195668
-2.343167
-2.524462
-2.637217
-2.905056
-3.661200
-4.959975
-6.542070
-7.999719
-8.615940
-8.157006
-7.039206
-5.941620
-4.989642
-4.375624
-4.267915
-4.356034
-4.227164
-3.670947
-3.084408
-2.945430
-3.327291
-3.846231
-4.171238
-4.075848
-3.638075
-3.283055
-3.373385
-3.888534
-4.695846
-5.320596
-5.488941
-5.097914
-4.028439
-2.541725
-1.135869
0.124695
1.333776
2.690675
4.058945
4.914589
4.890588
3.833122
2.272506
0.727682
-0.206286
-0.489917
-0.232495
0.094414
0.253291
0.356893
0.543565
0.983548
1.479754
2.079558
2.588713
2.830343
2.873302
2.934896
2.930793
2.787400
2.621266
2.564416
2.700236
3.019564
3.482605
3.873316
4.028087
3.783306
3.294372
3.015479
3.168986
3.998414
5.587463
7.507525
8.956337
9.498972
9.020777
7.699576
6.151594
5.238788
5.481680
6.640225
8.155050
9.338547
9.946879
9.905190
9.234010
8.306675
7.748886
7.837643
8.373014
8.950709
9.132958
8.550533
7.367674
6.226824
5.658295
5.866760
6.372757
6.650709
6.535743
6.052810
5.405951
5.010509
5.086948
5.581574
5.892691
5.379436
3.501074
0.534289
-2.370589
-4.395506
-4.952664
-4.251156
-3.068606
-1.934066
-1.183601
-0.936918
-0.632118
0.066863
1.173924
2.265193
2.886159
2.746557
2.022945
1.513165
1.678675
2.663501
3.906694
4.503340
3.978399
2.489481
0.924127
0.379919
1.055844
2.544453
3.796173
4.120240
3.198274
1.518582
0.047036
-0.626355
-0.289654
0.559356
1.184429
0.905220
-0.123187
-1.563780
-2.566604
-2.636719
-1.583669
0.210368
2.153803
3.696738
4.514795
4.731788
4.214744
3.386586
2.578327
2.274481
2.179098
1.837350
1.020879
-0.147766
-1.341995
-2.214688
-2.644242
-2.718148
-2.238051
-1.529594
-1.004330
-1.146776
-1.527373
-1.127818
0.662113
3.438762
6.385655
8.624726
9.669565
9.200214
7.660759
6.259332
5.673432
6.182587
6.963374
7.006649
5.724613
3.295091
0.332728
-1.998565
-2.671640
-1.547207
0.260411
1.270190
1.024462
-0.454981
-2.222164
-3.236358
-2.795111
-1.320399
-0.538664
-1.675093
-4.694309
-8.663921
-12.359690
-14.666346
-15.497978
-15.304674
-14.756353
-14.420600
-14.255723
-13.843218
-12.583917
-10.490137
-8.390672
-7.302562
-7.611777
-8.699880
-9.887792
-10.849555
-11.130343
-10.846706
-10.379559
-9.998955
-9.407679
-8.395057
-7.043527
-5.701473
-4.932373
-4.431429
-3.566626
-1.762482
0.937732
4.102246
7.000814
8.839702
9.308428
8.689679
8.107253
8.629358
10.207353
11.881367
12.648572
11.986236
9.792970
6.923468
4.185359
2.181919
1.359131
1.393878
1.647510
1.387568
0.483290
-0.605445
-1.216929
-1.353058
-1.143645
-0.719138
0.219259
1.714185
3.344927
4.729305
5.410283
5.469351
5.119707
4.864503
5.111502
5.878707
6.661073
7.030622
6.682558
5.706898
4.604265
4.087852
4.622276
5.745761
6.509808
5.997185
4.105241
1.633710
-0.138526
-0.474588
0.685536
2.325438
2.944193
1.871882
-0.379184
-2.450847
-3.609701
-4.066734
-4.534822
-5.751477
-8.255856
-11.577025
-14.645514
-16.832463
-18.129344
-18.983086
-19.935373
-21.203195
-22.449224
-23.079343
-22.531654
-20.697820
-18.136581
-15.711474
-13.880482
-12.688773
-11.746902
-10.622469
-9.083640
-7.259281
-5.344273
-3.847136
-3.269757
-3.560021
-4.030636
-4.029685
-3.252688
-1.697118
0.036591
1.618376
2.939268
4.375762
6.333410
8.891490
11.632448
13.946060
15.594806
16.665860
17.467177
18.443160
19.669297
20.899224
21.531245
21.044522
19.314926
16.661465
13.891771
11.885173
11.063017
11.058598
11.391192
11.354241
10.503342
8.861236
6.802839
4.746021
3.267526
2.506328
1.910952
0.557850
-1.701744
-4.014718
-5.291700
-5.139772
-4.160947
-3.319832
-3.769600
-5.764196
-8.717715
-11.435925
-13.144044
-13.598550
-13.312702
-13.187305
-13.969349
-15.606717
-16.813580
-16.939286
-16.235882
-15.397294
-15.346755
-16.776609
-19.607262
-22.888319
-25.549676
-26.820341
-26.693049
-25.823824
-24.869319
-24.109694
-23.628965
-23.521889
-23.403441
-22.781843
-21.273651
-19.060164
-16.458812
-13.511287
-10.090302
-6.365468
-2.586307
0.787932
3.026687
4.310309
5.134367
5.749017
6.224060
6.917041
7.565486
7.838385
7.599289
6.765446
5.773361
5.179249
5.028275
4.967320
5.071238
5.422468
5.899406
6.647660
7.845687
9.352931
11.166235
12.989962
14.474465
15.109328
14.683249
13.327620
11.404091
9.285682
7.421848
6.313531
5.815121
5.387147
4.682486
3.996146
3.554905
3.567227
3.571336
2.815192
0.754268
-2.547319
-6.345739
-9.648906
-11.427459
-11.352599
-9.684271
-7.526689
-5.854255
-4.995453
-4.937964
-5.059248
-5.041557
-4.773712
-4.131267
-3.367221
-2.703298
-2.077910
-1.702044
-1.732047
-1.820797
-1.835323
-1.677394
-1.191612
-0.349866
0.673495
1.572094
1.998812
1.751820
1.219299
0.606551
-0.141380
-0.881732
-1.994155
-3.513711
-5.091383
-6.343729
-7.063550
-7.275167
-7.331385
-7.477621
-7.501938
-6.988676
-5.879089
-4.441963
-2.697199
-1.060456
0.388356
1.368129
1.460993
0.549134
-0.980529
-2.515561
-3.302974
-3.442893
-3.049339
-2.335828
-1.418594
-0.460614
0.233630
1.019786
1.331219
1.453140
1.540319
1.691931
2.087064
2.602536
3.067472
3.525459
3.894376
4.519449
5.525754
6.487839
7.249043
7.471406
7.006792
5.856782
4.320487
2.588047
1.005953
-0.438746
-1.399245
-1.767208
-1.522736
-0.650353
0.005989
-0.120664
-0.724883
-1.346159
-1.502186
-0.991767
0.137404
1.638647
3.301921
4.992991
6.499919
7.765538
8.601598
8.753842
8.617398
8.928830
9.995778
11.967639
14.453074
16.895553
18.433435
18.704438
17.668451
16.520020
16.164375
16.591409
17.541808
18.488101
19.318477
19.573687
19.056011
18.008969
17.069947
16.349810
15.991323
16.142934
16.675147
17.109761
17.196939
17.288855
17.417726
17.496376
17.565551
17.585769
17.246232
15.657505
12.448147
8.234067
4.156434
0.844740
-1.445492
-2.631510
-2.947357
-2.884815
-2.861123
-2.661502
-2.136870
-0.634679
2.039950
5.465042
8.612816
10.308623
10.007305
8.062614
5.345667
2.425628
-0.252153
-2.097667
-2.809276
-2.917294
-2.868649
-2.887597
-3.127640
-3.068889
-1.875600
0.656581
3.858997
6.528889
7.924006
7.993812
7.168813
6.297384
6.202000
6.972680
8.147965
8.822626
8.514674
7.268330
5.298371
3.361892
1.839809
0.879941
0.727705
1.490804
2.975307
4.942430
6.775949
8.032407
8.784136
9.262022
9.957213
10.756320
11.597118
12.223770
11.996992
10.874777
9.125598
7.291139
5.893817
4.754862
3.034109
0.247675
-3.425352
-7.430023
-11.062622
-13.580899
-14.580248
-14.800077
-14.711003
-14.266913
-13.668057
-13.056882
-11.850959
-9.772025
-7.556642
-5.946115
-5.595517
-6.213634
-7.269520
-7.906272
-7.504822
-6.206356
-4.741751
-3.824201
-3.481815
-3.381687
-3.167536
-2.268305
-0.472689
1.303660
2.258481
1.733856
0.196929
-2.014341
-4.401539
-6.441933
-8.136470
-9.943766
-11.799703
-12.870750
-13.103845
-12.617747
-11.786108
-10.838236
-10.297811
-10.361294
-11.019840
-11.273781
-9.784856
-6.192995
-1.418272
2.873514
6.162790
8.956179
11.745462
14.402404
16.644634
18.465834
18.991098
17.729908
15.278592
12.676931
10.777722
9.560120
8.845984
7.866218
6.386144
4.548842
2.867886
1.911177
2.080793
3.107312
4.071924
3.999282
2.438665
0.207813
-1.968397
-4.059959
-5.915264
-7.438926
-9.040603
-11.509922
-15.245804
-19.769734
-24.321775
-28.587971
-32.435664
-35.677555
-38.583381
-41.035961
-42.880211
-43.462637
-42.841986
-41.573525
-40.133873
-38.723279
-37.403651
-36.663293
-36.716984
-36.903964
-36.337324
-34.927362
-32.941603
-30.816239
-28.396501
-25.667861
-22.565253
-19.372312
-15.842043
-11.789671
-7.472932
-3.352969
-0.148973
2.115682
3.843074
5.319681
6.335145
7.206581
8.277636
9.604213
11.032179
12.362231
13.214084
13.372961
12.945933
12.020178
11.063468
10.762782
11.594736
13.486687
15.792087
17.553907
17.831543
16.153746
12.914066
9.307367
6.290678
4.268919
3.149863
2.617341
2.235165
2.013125
2.493538
3.465415
4.516254
5.400009
5.972966
5.913589
5.699446
6.030777
6.957803
7.583823
6.921802
5.012803
2.209944
-1.000993
-3.823434
-5.336357
-6.122191
-6.807900
-7.835044
-8.955364
-9.941448
-10.858675
-10.894047
-9.638220
-7.252910
-4.856230
-3.077670
-2.267824
-2.921632
-4.945602
-6.961044
-7.710555
-7.570629
-7.075372
-6.354596
-5.614870
-5.261429
-5.198572
-4.814493
-3.170170
-0.143998
3.585258
7.417481
10.686226
13.050374
14.525086
15.478328
16.182994
16.357663
14.907279
11.374489
6.308559
0.766641
-3.731074
-6.620791
-8.041169
-8.951449
-10.054081
-11.083436
-10.934667
-8.673486
-4.262308
1.078420
5.331672
7.045799
5.886629
3.162418
0.486532
-0.710540
0.081302
1.716782
2.462193
1.695942
-0.791697
-3.730687
-5.478919
-4.803310
-1.642902
2.095830
4.476402
4.897435
4.131500
3.451160
3.793862
5.193085
7.125149
7.819708
6.463448
3.124906
-1.117285
-4.513311
-5.242924
-3.378452
-0.726564
0.881121
0.318278
-2.226214
-5.773533
-8.877397
-10.524557
-9.824943
-7.125677
-4.145304
-2.372429
-1.717667
-1.710083
-2.071413
-2.093835
-0.991512
1.472761
4.979342
8.098058
9.955581
10.520958
9.927793
8.743671
7.779065
7.668521
8.401614
9.940760
12.233525
15.067344
17.826621
20.264363
22.689470
24.886533
26.369456
26.889350
26.180900
24.492048
22.467447
20.140260
16.953643
13.039305
9.155921
5.787689
3.534412
2.811432
2.878080
2.460844
0.543317
-2.473373
-5.029551
-5.906034
-4.768020
-1.877664
1.584698
3.946319
4.645932
4.242278
3.551199
3.165233
2.827592
1.963427
-0.220680
-4.432233
-9.935301
-14.966172
-18.425053
-20.380483
-20.846044
-20.271192
-19.126229
-17.631934
-15.596271
-12.895426
-9.748284
-6.498805
-3.748056
-1.282204
1.121110
2.985581
4.301104
5.532926
6.801387
7.587228
7.204420
5.589161
3.189961
0.949001
-0.457164
-1.134661
-1.499465
-2.292248
-3.802644
-5.415060
-6.226793
-5.596351
-3.362018
0.126559
3.109775
4.177671
3.423738
2.147072
1.619604
2.065589
3.291410
4.434478
4.858669
4.040303
2.523274
1.594359
2.008128
3.714674
5.748126
7.589540
8.995081
9.950533
10.808072
11.629604
12.277734
12.752461
13.135592
13.589789
13.818784
13.600219
13.200670
12.552232
11.294517
9.736111
8.450601
7.564327
6.933891
6.402002
5.965183
5.075750
3.241291
0.758390
-1.562164
-3.281337
-4.400710
-5.456280
-6.406357
-6.710834
-6.608810
-6.782209
-7.669115
-9.456829
-12.165563
-14.942522
-16.713179
-17.045135
-16.383108
-15.660122
-15.415965
-15.677802
-16.836340
-18.708070
-20.264896
-20.598431
-19.993257
-18.959158
-17.678063
-15.990152
-13.683489
-10.711959
-6.639373
-1.812535
2.619805
5.455834
6.490565
6.308639
5.662727
5.326033
5.801076
7.012052
8.357265
9.170585
9.707535
10.206899
10.809861
11.382819
11.851545
12.227727
12.439350
12.885967
13.156655
12.774794
11.356311
8.950477
5.628992
1.944909
-1.263186
-3.726504
-5.358819
-6.120964
-6.241300
-6.148436
-5.610854
-4.153514
-0.939096
4.012504
9.538004
14.534770
18.468697
21.704910
24.409545
25.983118
25.519768
23.129727
19.538821
15.135546
10.468219
6.283513
3.129113
1.105775
0.049256
-0.355661
-0.062232
0.915962
2.675571
4.925697
7.364701
10.042805
13.141307
16.192431
18.115335
18.997194
19.310837
19.191133
18.599548
17.881306
17.383844
17.011459
16.257526
14.667852
12.766116
11.013463
9.489169
8.728919
8.663542
8.675863
8.178085
6.994911
5.430189
3.618471
1.628613
0.094844
-0.672671
-1.461979
-3.071868
-5.216177
-7.055058
-8.041457
-7.936591
-7.110006
-5.895555
-4.479592
-3.334629
-2.592691
-2.473612
-2.748715
-3.160581
-4.390502
-6.784333
-9.788072
-12.201486
-13.523003
-13.757361
-13.656917
-13.815471
-14.088363
-14.486016
-14.992638
-14.953153
-13.496761
-10.204327
-5.661123
-1.172877
1.977424
3.325795
3.496358
3.108813
2.707685
2.248441
1.644538
0.723835
-0.672854
-2.234102
-3.072999
-2.682604
-1.126719
1.085189
2.957557
3.839101
3.733610
2.506848
0.391597
-1.450126
-2.258386
-2.162048
-1.257131
0.413092
2.174281
3.458534
3.753542
3.613940
3.864413
4.448109
4.897252
5.240902
5.460106
4.828407
3.330645
1.302253
-0.800363
-2.618714
-4.020773
-5.093715
-6.328374
-8.470471
-11.971360
-16.092581
-19.592838
-21.204306
-20.782957
-19.197698
-17.103918
-14.683233
-11.929009
-8.791342
-5.237384
-1.735224
1.558473
4.499365
7.354661
10.707738
14.177681
17.073406
19.007365
19.860166
19.423979
17.551934
15.243066
13.247523
11.850202
10.906443
9.743483
8.161704
6.618776
5.867685
5.939703
6.561933
7.289025
7.542973
7.204068
6.201876
4.594514
2.907241
1.266399
-0.766099
-3.357021
-6.129558
-8.178795
-8.531282
-7.629208
-6.563839
-6.368324
-7.396100
-9.958279
-13.545711
-16.447115
-17.841910
-17.631865
-16.010915
-13.458520
-10.794945
-8.883411
-7.821517
-7.162017
-6.511045
-5.483262
-4.122573
-2.675024
-1.503214
-0.312452
1.167313
3.257302
5.453418
6.863696
7.083216
6.481207
5.765492
5.288560
5.540297
6.106621
6.284133
5.686862
4.198892
1.832224
-0.393891
-1.787738
-2.641164
-3.765274
-5.485711
-7.835323
-10.703562
-12.993794
-13.698770
-12.438522
-10.322633
-9.056067
-9.416133
-11.308077
-13.495342
-14.391408
-13.507338
-11.341860
