EVENT_NAME: 202302060117
EVENT_ID: 13194
EVENT_DATE_YYYYMMDD: 2023/02/06
EVENT_TIME_HHMMSS: 01:17:32.00000
EVENT_LATITUDE_DEGREE: 37.288
EVENT_LONGITUDE_DEGREE: 37.043
EVENT_DEPTH_KM: 8.6
HYPOCENTER_REFERENCE: AFAD
MAGNITUDE_W: 7.7
MAGNITUDE_W_REFERENCE: AFAD
MAGNITUDE_L: 
MAGNITUDE_L_REFERENCE: 
FOCAL_MECHANISM: 
NETWORK: TK
STATION_CODE: 5508
STATION_NAME: 
STATION_LATITUDE_DEGREE: 41.3268
STATION_LONGITUDE_DEGREE: 36.305
STATION_ELEVATION_M: 10.0
LOCATION: Kahramanmaras_Pazarck_Turkiye
SENSOR_DEPTH_M: 
VS30_M/S: None
SITE_CLASSIFICATION_EC8: unknown
MORPHOLOGIC_CLASSIFICATION: 
EPICENTRAL_DISTANCE_KM: 453.56
EARTHQUAKE_BACKAZIMUTH_DEGREE: 
DATE_TIME_FIRST_SAMPLE_YYYYMMDD_HHMMSS: 2023/02/06 01:18:09.5806730
DATE_TIME_FIRST_SAMPLE_PRECISION: millisecond
SAMPLING_INTERVAL_S: 0.01
NDATA: 24501
DURATION_S: 
STREAM: HNE
UNITS: cm/s^2
INSTRUMENT: sensor = CMG-5T/GURALP | digitizer = 
INSTRUMENT_ANALOG/DIGITAL: 
INSTRUMENTAL_FREQUENCY_HZ: 
INSTRUMENTAL_DAMPING: 
FULL_SCALE_G: 
N_BIT_DIGITAL_CONVERTER: 
PGA_CM/S^2: 5.330
TIME_PGA_S: 
BASELINE_CORRECTION: BASELINE REMOVED
FILTER_TYPE: BUTTERWORTH
FILTER_ORDER: 
LOW_CUT_FREQUENCY_HZ: 
HIGH_CUT_FREQUENCY_HZ: 
LATE/NORMAL_TRIGGERED: 
DATABASE_VERSION: 
HEADER_FORMAT: DYNA 1.2
DATA_TYPE: Acceleration
PROCESSING: Automatic Paolucci et al., 2011
DATA_TIMESTAMP_YYYYMMDD_HHMMSS: 
DATA_LICENSE: U (unknown license)
DATA_CITATION: Turkish Accelerometric Archive v 1.0 - Disaster And Emergency Management Presidency, Earthquake Department
DATA_CREATOR: AFAD
ORIGINAL_DATA_MEDIATOR_CITATION: : AFAD - Disaster And Emergency Management Presidency
ORIGINAL_DATA_MEDIATOR: AFAD PROCESS SERVICE
ORIGINAL_DATA_CREATOR_CITATION: AFAD PROCESS SERVICE
ORIGINAL_DATA_CREATOR: network: TK
USER1: GuestUser
USER2: 
USER3: 
USER4: 
USER5: 
[...]
-0.706271
-0.761976
-0.804705
-0.858511
-0.898391
-0.942385
-0.973087
-1.019613
-1.060442
-1.077534
-1.105386
-1.120262
-1.151280
-1.175334
-1.191792
-1.214264
-1.244649
-1.273767
-1.313964
-1.333271
-1.360490
-1.385811
-1.412397
-1.429488
-1.435819
-1.456708
-1.455442
-1.458923
-1.445946
-1.431703
-1.431070
-1.407015
-1.399419
-1.370933
-1.353842
-1.340232
-1.316177
-1.309214
-1.282627
-1.262687
-1.255723
-1.225022
-1.198752
-1.168683
-1.123423
-1.090506
-1.030686
-0.987957
-0.935733
-0.885408
-0.827804
-0.765451
-0.716076
-0.664169
-0.612894
-0.560670
-0.517625
-0.481543
-0.446727
-0.402416
-0.364118
-0.331835
-0.298601
-0.265368
-0.228653
-0.193520
-0.143828
-0.099201
-0.036215
0.021073
0.072347
0.141662
0.194203
0.258771
0.295802
0.345810
0.392970
0.432217
0.479377
0.509129
0.540780
0.578128
0.611045
0.652191
0.687007
0.716759
0.748093
0.765818
0.800001
0.819308
0.839565
0.869000
0.884192
0.905082
0.912678
0.928187
0.931986
0.918376
0.915844
0.906982
0.899702
0.888941
0.868368
0.850961
0.835452
0.818677
0.799054
0.765187
0.753160
0.723409
0.693657
0.668337
0.635103
0.617063
0.595224
0.590793
0.574651
0.570536
0.577816
0.572119
0.581298
0.580665
0.596174
0.621179
0.635422
0.654729
0.670554
0.679100
0.691760
0.674669
0.680050
0.680050
0.660743
0.653464
0.629409
0.633524
0.608836
0.590163
0.582567
0.581617
0.585732
0.584149
0.586049
0.587315
0.577503
0.586049
0.575921
0.561995
0.555348
0.526230
0.514835
0.485400
0.473373
0.459130
0.443622
0.438874
0.425581
0.425898
0.413554
0.400894
0.399628
0.387601
0.376840
0.360698
0.347088
0.327781
0.295181
0.265430
0.243591
0.204977
0.176808
0.152120
0.136612
0.111608
0.087870
0.069512
0.057485
0.063182
0.054004
0.055270
0.071095
0.094834
0.115407
0.134714
0.164149
0.208461
0.228084
0.260052
0.284739
0.314175
0.347092
0.365449
0.403747
0.434132
0.469897
0.516740
0.541428
0.582891
0.631633
0.670247
0.706646
0.747792
0.790204
0.826919
0.856987
0.879460
0.900349
0.923771
0.929468
0.942445
0.950675
0.946560
0.957005
0.952574
0.969666
0.957005
0.957322
0.975996
0.980427
0.986125
1.005115
1.020624
1.048161
1.057972
1.075697
1.095954
1.095637
1.109247
1.093738
1.090890
1.095005
1.082345
1.075065
1.063038
1.062088
1.055125
1.039617
1.040883
1.027590
1.029805
1.019361
1.019361
1.007967
0.999738
0.995307
0.982013
0.963023
0.955427
0.938336
0.912382
0.878833
0.861108
0.850980
0.799073
0.782931
0.755712
0.734506
0.717098
0.687663
0.676902
0.654113
0.629426
0.605371
0.572771
0.549666
0.519915
0.495227
0.472439
0.451233
0.432559
0.415151
0.391097
0.383184
0.368941
0.367676
0.363878
0.363245
0.366410
0.356598
0.374639
0.377805
0.377805
0.375589
0.378755
0.388566
0.374957
0.361980
0.366095
0.361347
0.368311
0.373375
0.380022
0.404709
0.429081
0.453452
0.466429
0.496497
0.528781
0.535744
0.547455
0.554419
0.575308
0.576891
0.578157
0.585120
0.583854
0.584171
0.572144
0.555369
0.533530
0.502513
0.475293
0.439211
0.398698
0.368630
0.318939
0.288238
0.240445
0.193602
0.154672
0.099916
0.062885
0.007496
-0.049792
-0.096318
-0.146010
-0.202665
-0.271030
-0.326419
-0.382757
-0.448274
-0.528350
-0.594817
-0.661600
-0.731548
-0.818904
-0.885687
-0.952470
-1.025267
-1.088568
-1.165796
-1.225299
-1.292715
-1.349054
-1.419951
-1.480088
-1.529463
-1.576306
-1.629479
-1.675689
-1.715885
-1.754815
-1.790581
-1.820016
-1.848185
-1.869707
-1.882684
-1.918133
-1.934274
-1.950100
-1.966875
-1.978902
-2.009919
-2.009603
-2.019098
-2.036822
-2.043785
-2.050748
-2.046317
-2.058028
-2.057394
-2.061192
-2.068788
-2.074169
-2.073536
-2.084930
-2.085563
-2.092842
-2.092842
-2.091260
-2.101388
-2.100438
-2.103603
-2.099805
-2.113731
-2.121327
-2.122909
-2.133354
-2.142216
-2.159624
-2.165637
-2.162156
-2.161839
-2.159307
-2.148862
-2.131137
-2.108665
-2.084294
-2.059923
-2.036501
-2.001052
-1.967502
-1.950411
-1.915595
-1.895654
-1.864320
-1.840265
-1.831087
-1.799752
-1.772216
-1.753858
-1.729170
-1.707648
-1.668084
-1.652575
-1.628837
-1.594654
-1.579145
-1.542746
-1.523123
-1.486724
-1.462353
-1.441463
-1.407597
-1.381643
-1.362969
-1.337965
-1.301250
-1.266434
-1.235732
-1.204082
-1.166734
-1.123688
-1.081909
-1.043295
-1.000883
-0.950242
-0.903398
-0.858138
-0.823638
-0.773630
-0.730585
-0.693553
-0.655255
-0.622971
-0.572014
-0.536565
-0.499533
-0.458070
-0.416608
-0.369448
-0.327669
-0.291903
-0.243794
-0.200749
-0.148208
-0.112443
-0.075411
-0.014009
0.025238
0.066068
0.095187
0.131902
0.166401
0.179695
0.211029
0.221474
0.243313
0.265153
0.287941
0.318326
0.340482
0.370550
0.414545
0.438600
0.470567
0.506016
0.532286
0.569001
0.578813
0.618377
0.645280
0.671550
0.695605
0.714912
0.742448
0.772200
0.794989
0.809549
0.837718
0.864305
0.888676
0.914946
0.939001
0.966537
0.999138
1.023192
1.048513
1.077632
1.102003
1.136819
1.149480
1.180497
1.207717
1.226391
1.261840
1.271019
1.303620
1.333055
1.359642
1.382114
1.403320
1.436237
1.475484
1.490360
1.523277
1.550180
1.578983
1.609684
1.625826
1.663491
1.691344
1.727742
1.754329
1.782498
1.817314
1.844534
1.880616
1.906886
1.941702
1.976202
2.013550
2.045834
2.063242
2.095209
2.112934
2.125911
2.139837
2.144585
2.144585
2.149016
2.131608
2.120214
2.094577
2.076220
2.045202
2.003107
1.971140
1.937907
1.913852
1.871440
1.830927
1.795162
1.749902
1.703059
1.652101
1.593864
1.537209
1.463146
1.388451
1.304893
1.211839
1.129864
1.028898
0.926350
0.833930
0.741826
0.668396
0.578508
0.519322
0.464249
0.414874
0.374361
0.327835
0.283524
0.242378
0.199017
0.157871
0.106913
0.061336
0.020823
-0.033300
-0.085207
-0.146609
-0.187438
-0.242511
-0.293152
-0.336513
-0.368797
-0.392851
-0.432731
-0.460900
-0.482106
-0.516289
-0.534013
-0.577691
-0.612190
-0.645107
-0.691000
-0.736894
-0.788801
-0.834378
-0.875840
-0.935027
-0.979655
-1.018269
-1.054350
-1.077772
-1.109739
-1.121450
-1.140756
-1.148985
-1.165444
-1.184434
-1.199626
-1.217351
-1.247735
-1.275904
-1.314518
-1.342371
-1.377186
-1.408521
-1.443336
-1.474354
-1.490812
-1.521830
-1.541453
-1.560760
-1.572787
-1.577535
-1.588612
-1.589245
-1.607286
-1.606653
-1.606336
-1.631340
-1.644000
-1.656977
-1.663624
-1.692109
-1.714581
-1.726292
-1.735470
-1.758259
-1.773451
-1.796239
-1.799404
-1.817129
-1.832004
-1.837701
-1.840233
-1.837385
-1.844981
-1.839283
-1.846246
-1.849411
-1.847196
-1.852893
-1.861755
-1.863021
-1.868718
-1.863654
-1.878529
-1.879795
-1.868401
-1.873465
-1.864286
-1.856057
-1.841814
-1.816493
-1.798135
-1.763003
-1.727554
-1.684509
-1.646211
-1.605065
-1.561387
-1.522773
-1.482576
-1.431302
-1.392054
-1.347110
-1.311345
-1.268933
-1.227470
-1.207846
-1.165751
-1.141063
-1.092954
-1.064784
-1.031551
-0.980276
-0.939763
-0.887539
-0.850508
-0.803981
-0.753023
-0.721056
-0.679910
-0.645727
-0.611544
-0.577994
-0.554255
-0.530517
-0.507729
-0.491587
-0.455188
-0.437147
-0.414358
-0.383973
-0.348841
-0.312759
-0.284590
-0.236797
-0.197866
-0.151656
-0.110193
-0.060185
-0.019039
0.032236
0.074015
0.119592
0.158206
0.208531
0.260438
0.296837
0.341148
0.374698
0.426606
0.462688
0.499086
0.544980
0.590874
0.651010
0.694688
0.745013
0.802934
0.858007
0.904217
0.950111
1.003917
1.054875
1.102668
1.144764
1.191923
1.243198
1.295422
1.326440
1.369801
1.403984
1.444497
1.475515
1.494506
1.526790
1.548946
1.579963
1.603385
1.625857
1.653394
1.675233
1.699921
1.718911
1.732205
1.753411
1.763539
1.771452
1.785062
1.780314
1.787911
1.778099
1.762274
1.746132
1.711316
1.696441
1.662574
1.622695
1.576168
1.533756
1.488179
1.425511
1.364741
1.302073
1.234974
1.159645
1.079885
1.000125
0.911503
0.816867
0.705773
0.597211
0.492764
0.374707
0.262030
0.143656
0.021168
-0.076633
-0.188044
-0.296289
-0.390608
-0.496638
-0.584627
-0.686859
-0.784027
-0.866635
-0.961904
-1.048311
-1.133768
-1.216692
-1.299617
-1.387290
-1.472747
-1.565800
-1.645876
-1.725953
-1.797483
-1.876294
-1.952888
-2.013341
-2.075060
-2.142160
-2.201663
-2.258001
-2.307376
-2.363082
-2.421319
-2.460249
-2.502978
-2.534945
-2.573242
-2.603310
-2.623883
-2.653951
-2.675474
-2.700478
-2.725165
-2.740990
-2.763462
-2.785934
-2.805874
-2.819167
-2.827396
-2.839740
-2.843538
-2.849868
-2.858730
-2.844487
-2.858730
-2.853032
-2.864110
-2.862527
-2.859995
-2.879935
-2.873288
-2.881834
-2.886265
-2.886898
-2.885948
-2.878668
-2.871072
-2.864742
-2.846068
-2.840054
-2.815366
-2.795426
-2.771371
-2.750165
-2.725794
-2.696358
-2.678317
-2.663125
-2.645400
-2.629575
-2.616281
-2.614699
-2.603621
-2.593492
-2.588428
-2.577034
-2.569754
-2.557410
-2.554878
-2.552346
-2.541901
-2.538419
-2.526708
-2.500438
-2.483979
-2.448847
-2.429856
-2.379848
-2.345665
-2.316229
-2.274450
-2.242166
-2.206717
-2.179498
-2.147214
-2.109233
-2.078215
-2.041816
-2.008583
-1.978831
-1.937685
-1.915846
-1.870268
-1.842099
-1.815196
-1.771201
-1.752843
-1.719293
-1.693340
-1.677514
-1.649978
-1.642382
-1.625606
-1.623391
-1.608515
-1.601551
-1.610414
-1.609147
-1.611046
-1.614528
-1.624972
-1.644596
-1.648394
-1.653141
-1.670866
-1.684792
-1.691438
-1.694287
-1.710428
-1.710428
-1.710112
-1.709479
-1.695869
-1.687639
-1.663901
-1.638264
-1.611044
-1.556288
-1.523055
-1.476844
-1.429368
-1.382208
-1.338847
-1.307512
-1.266999
-1.231233
-1.203064
-1.168881
-1.148308
-1.119822
-1.092602
-1.077726
-1.060318
-1.047658
-1.025502
-1.010943
-0.999548
-0.977709
-0.956820
-0.935613
-0.922953
-0.915990
-0.898898
-0.909026
-0.895733
-0.896999
-0.903012
-0.913457
-0.938777
-0.954286
-0.983721
-1.014422
-1.046073
-1.100829
-1.151786
-1.207175
-1.261614
-1.317952
-1.392965
-1.452151
-1.512921
-1.570209
-1.627496
-1.690481
-1.755049
-1.821199
-1.886716
-1.953499
-2.036424
-2.103840
-2.168724
-2.232342
-2.300074
-2.351032
-2.387430
-2.428892
-2.461809
-2.487130
-2.511817
-2.520679
-2.544101
-2.558343
-2.570054
-2.582714
-2.576700
-2.591260
-2.591259
-2.582081
-2.579232
-2.568470
-2.563406
-2.555810
-2.537136
-2.536503
-2.492824
-2.485861
-2.477632
-2.449779
-2.433320
-2.379514
-2.363055
-2.333937
-2.279181
-2.259557
-2.208283
-2.174416
-2.126940
-2.069968
-2.034519
-1.976282
-1.925324
-1.853476
-1.794289
-1.739217
-1.670851
-1.611348
-1.552160
-1.500253
-1.456258
-1.395489
-1.361939
-1.316994
-1.277747
-1.234702
-1.187859
-1.148295
-1.095755
-1.055558
-1.015678
-0.961872
-0.919460
-0.875465
-0.818810
-0.762155
-0.710247
-0.675431
-0.624473
-0.582378
-0.544397
-0.503567
-0.470334
-0.432353
-0.401335
-0.374748
-0.342148
-0.329804
-0.296254
-0.276947
-0.255107
-0.228837
-0.211429
-0.184209
-0.167434
-0.139581
-0.113311
-0.097486
-0.063619
-0.037982
-0.017092
0.008229
0.026903
0.061086
0.079760
0.107296
0.138630
0.163002
0.188006
0.212377
0.242129
0.274413
0.295303
0.327586
0.355439
0.386774
0.407030
0.420957
0.451658
0.469699
0.498818
0.526987
0.541230
0.576679
0.611495
0.646628
0.676696
0.706132
0.755507
0.783993
0.815327
0.845396
0.874514
0.902367
0.924839
0.952059
0.982444
1.010930
1.051443
1.086259
1.109364
1.143231
1.163804
1.209065
1.234069
1.237234
1.269518
1.263504
1.307499
1.325540
1.313197
1.344531
1.342316
1.364155
1.372068
1.362256
1.382513
1.370485
1.364155
1.352445
1.338835
1.329340
1.291992
1.264456
1.237237
1.217930
1.165390
1.134688
1.084680
1.062208
1.009985
0.977068
0.944784
0.863442
0.882749
0.823879
0.752032
0.741587
0.724812
0.650433
0.614035
0.599476
0.564027
0.510854
0.479520
0.481419
0.427929
0.413053
0.411471
0.379504
0.348803
0.344688
0.334877
0.318418
0.312721
0.313354
0.294681
0.282020
0.286135
0.266828
0.245306
0.237077
0.230430
0.205743
0.194665
0.187702
0.165547
0.139277
0.106044
0.086104
0.056669
0.010142
-0.025940
-0.069618
-0.106016
-0.152542
-0.216160
-0.262054
-0.307631
-0.360804
-0.414294
-0.457339
-0.494370
-0.544378
-0.586790
-0.622555
-0.665284
-0.698200
-0.736498
-0.776694
-0.821638
-0.855821
-0.883357
-0.926402
-0.957736
-0.990652
-1.017555
-1.037495
-1.062499
-1.081806
-1.091301
-1.109026
-1.111557
-1.129915
-1.140676
-1.140992
-1.160932
-1.146373
-1.166313
-1.169477
-1.168844
-1.179922
-1.152386
-1.159982
-1.153018
-1.126748
-1.131179
-1.118202
-1.107757
-1.093514
-1.078955
-1.084019
-1.062813
-1.044772
-1.024515
-1.011221
-0.993813
-0.960263
-0.938108
-0.909305
-0.882719
-0.847903
-0.810238
-0.788715
-0.742505
-0.705790
-0.666860
-0.624131
-0.591214
-0.545637
-0.522215
-0.480436
-0.438657
-0.412386
-0.375355
-0.340855
-0.308571
-0.269324
-0.241788
-0.196844
-0.149368
-0.104423
-0.038273
0.029143
0.106371
0.177902
0.261144
0.348817
0.431109
0.522580
0.612152
0.703622
0.798575
0.894477
0.994177
1.089446
1.187880
1.291378
1.395509
1.497425
1.590162
1.689862
1.803488
1.909202
2.015232
2.113983
2.224128
2.337121
2.426376
2.530191
2.632107
2.740036
2.840053
2.942285
3.057810
3.157827
3.267655
3.367672
3.481615
3.607268
3.702537
3.815214
3.922511
4.030123
4.146915
4.238069
4.336820
4.419745
4.504253
4.603003
4.666305
4.741634
4.810316
4.874251
4.942933
4.993575
5.055610
5.101504
5.147714
5.196457
5.225259
5.257226
5.276850
5.299955
5.321161
5.319262
5.329707
5.330024
5.328758
5.319579
5.303754
5.299640
5.277801
5.260077
5.236339
5.208170
5.184432
5.144235
5.102456
5.048334
4.989147
4.937556
4.863810
4.790697
4.710620
4.625480
4.541606
4.446020
4.350435
4.250419
4.145655
4.048171
3.943407
3.834845
3.734195
3.625950
3.522135
3.420853
3.328116
3.232848
3.128400
3.029017
2.934698
2.850823
2.754922
2.656488
2.568182
2.477978
2.401699
2.317192
2.241547
2.173814
2.098169
2.039299
1.967135
1.902884
1.848761
1.780079
1.721525
1.653793
1.597455
1.545231
1.476232
1.425591
1.371785
1.320511
1.276517
1.231256
1.191376
1.148648
1.111933
1.081548
1.039453
1.014133
0.991028
0.965391
0.946717
0.925511
0.915066
0.896709
0.884998
0.874554
0.850183
0.840371
0.822330
0.800175
0.776753
0.750800
0.741305
0.718833
0.701109
0.681169
0.669142
0.666293
0.645087
0.630528
0.626730
0.613753
0.606790
0.592864
0.584002
0.579888
0.571342
0.573241
0.561847
0.559315
0.558682
0.550137
0.549187
0.546655
0.558999
0.561215
0.561848
0.582421
0.593499
0.616604
0.645407
0.667562
0.697631
0.728016
0.761882
0.791317
0.808092
0.849239
0.872344
0.888169
0.910641
0.932797
0.961599
0.966980
0.984388
1.000214
1.013507
1.029016
1.035980
1.046741
1.052755
1.056553
1.067631
1.066998
1.067315
1.068264
1.074595
1.078709
1.070797
1.072696
1.068581
1.073013
1.064784
1.055922
1.069848
1.066683
1.071747
1.074279
1.068266
1.087890
1.086624
1.075863
1.085991
1.082193
1.083776
1.076496
1.069850
1.076180
1.063836
1.069850
1.067002
1.067002
1.075864
1.077447
1.083777
1.084410
1.100552
1.109414
1.117327
1.129988
1.140433
1.162588
1.170818
1.186010
1.205001
1.212597
1.233487
1.250895
1.264188
1.280330
1.286977
1.310082
1.326541
1.334454
1.352178
1.362940
1.380981
1.389843
1.402187
1.424659
1.443650
1.460741
1.476567
1.499039
1.530690
1.555061
1.582281
1.612349
1.644317
1.678183
1.706036
1.739586
1.773452
1.814915
1.861125
1.893093
1.948165
2.006719
2.058310
2.118763
2.162441
2.228275
2.274802
2.326709
2.380516
2.424511
2.480533
2.527692
2.574852
2.626443
2.681199
2.741019
2.792927
2.847683
2.915099
2.972070
3.037904
3.094876
3.153746
3.206920
3.247749
3.290478
3.319597
3.343652
3.370238
3.383215
3.393660
3.391445
3.401573
3.404105
3.395560
3.399041
3.388597
3.387964
3.377203
3.362011
3.353148
3.342704
3.336690
3.324347
3.313902
3.306939
3.286683
3.274339
3.254399
3.232560
3.215785
3.195213
3.170525
3.141406
3.119568
3.091399
3.063862
3.038858
3.008474
2.983153
2.959732
2.924283
2.894532
2.855918
2.821102
2.784387
2.729948
2.691651
2.644175
2.589103
2.539727
2.479908
2.431166
2.372928
2.315007
2.261201
2.194102
2.144094
2.082691
2.022238
1.964634
1.895003
1.834550
1.762703
1.690539
1.613628
1.531969
1.454424
1.364536
1.274965
1.190457
1.105317
1.025557
0.941366
0.861923
0.783113
0.701137
0.627074
0.533388
0.459009
0.383047
0.295375
0.220363
0.141236
0.074769
-0.001192
-0.081269
-0.138873
-0.205340
-0.277820
-0.341438
-0.408537
-0.474371
-0.546851
-0.604139
-0.661743
-0.724728
-0.784864
-0.849115
-0.900389
-0.960526
-1.018446
-1.071936
-1.134288
-1.183663
-1.246964
-1.307734
-1.366288
-1.440667
-1.501753
-1.565371
-1.628039
-1.685327
-1.750844
-1.806549
-1.860988
-1.924923
-1.979362
-2.047411
-2.105965
-2.166418
-2.231302
-2.287323
-2.349042
-2.406646
-2.462352
-2.518057
-2.571547
-2.625353
-2.675361
-2.720621
-2.765882
-2.805762
-2.848174
-2.874444
-2.907993
-2.933314
-2.954203
-2.972244
-2.974776
-2.989335
-2.983638
-2.974143
-2.969711
-2.946606
-2.933313
-2.907675
-2.875075
-2.853869
-2.818420
-2.791517
-2.758916
-2.716820
-2.684220
-2.645606
-2.612372
-2.573125
-2.532929
-2.500645
-2.457916
-2.425949
-2.387335
-2.355051
-2.333845
-2.303143
-2.280671
-2.249653
-2.227814
-2.209140
-2.177172
-2.156916
-2.125898
-2.107540
-2.075573
-2.030312
-2.001826
-1.960364
-1.917002
-1.869209
-1.823315
-1.784701
-1.735642
-1.690065
-1.653034
-1.607773
-1.570425
-1.526114
-1.493513
-1.457748
-1.417551
-1.390331
-1.347603
-1.310888
-1.273540
-1.239040
-1.205807
-1.159913
-1.126363
-1.094079
-1.058313
-1.031094
-0.998493
-0.976971
-0.955764
-0.927595
-0.913669
-0.891196
-0.872206
-0.858279
-0.835807
-0.827894
-0.808587
-0.792762
-0.775354
-0.765542
-0.761111
-0.746551
-0.735790
-0.713951
-0.698125
-0.688313
-0.680717
-0.670272
-0.645584
-0.628809
-0.616782
-0.600007
-0.578801
-0.548732
-0.534806
-0.512650
-0.478784
-0.455362
-0.424977
-0.389844
-0.348065
-0.302488
-0.263241
-0.208485
-0.164807
-0.121762
-0.064790
-0.008768
0.047254
0.102959
0.162147
0.231145
0.285901
0.341923
0.412505
0.465995
0.528980
0.574241
0.627098
0.669510
0.700844
0.738192
0.756233
0.781554
0.792948
0.809407
0.823017
0.823334
0.839792
0.834728
0.837577
0.844857
0.829348
0.826499
0.807193
0.789785
0.775859
0.743575
0.734713
0.714773
0.684388
0.676476
0.657485
0.637862
0.603996
0.576143
0.549873
0.521071
0.490687
0.448908
0.418840
0.384340
0.353956
0.318507
0.275146
0.245711
0.209629
0.175130
0.149809
0.107714
0.083026
0.050742
0.008647
-0.018256
-0.052755
-0.083140
-0.120488
-0.152771
-0.174294
-0.214806
-0.245824
-0.268613
-0.297731
-0.318304
-0.345840
-0.366729
-0.391100
-0.416104
-0.428132
-0.451236
-0.471493
-0.483520
-0.496180
-0.510106
-0.524349
-0.540174
-0.549036
-0.549353
-0.549036
-0.547770
-0.541756
-0.536059
-0.518967
-0.504091
-0.502192
-0.469275
-0.451867
-0.431294
-0.411354
-0.396162
-0.350268
-0.323048
-0.297727
-0.256898
-0.215435
-0.169541
-0.128395
-0.086299
-0.029011
0.013717
0.052964
0.098542
0.138105
0.177352
0.215333
0.249833
0.283066
0.318832
0.351432
0.371056
0.405872
0.432775
0.450500
0.470440
0.487215
