EVENT_NAME: 202302060117
EVENT_ID: 13194
EVENT_DATE_YYYYMMDD: 2023/02/06
EVENT_TIME_HHMMSS: 01:17:32.00000
EVENT_LATITUDE_DEGREE: 37.288
EVENT_LONGITUDE_DEGREE: 37.043
EVENT_DEPTH_KM: 8.6
HYPOCENTER_REFERENCE: AFAD
MAGNITUDE_W: 7.7
MAGNITUDE_W_REFERENCE: AFAD
MAGNITUDE_L: 
MAGNITUDE_L_REFERENCE: 
FOCAL_MECHANISM: 
NETWORK: TK
STATION_CODE: 3141
STATION_NAME: 
STATION_LATITUDE_DEGREE: 36.3726
STATION_LONGITUDE_DEGREE: 36.21973
STATION_ELEVATION_M: 111.0
LOCATION: Kahramanmaras_Pazarck_Turkiye
SENSOR_DEPTH_M: 
VS30_M/S: 338
SITE_CLASSIFICATION_EC8: C
MORPHOLOGIC_CLASSIFICATION: 
EPICENTRAL_DISTANCE_KM: 125.42
EARTHQUAKE_BACKAZIMUTH_DEGREE: 
DATE_TIME_FIRST_SAMPLE_YYYYMMDD_HHMMSS: 2023/02/06 01:17:33.6594550
DATE_TIME_FIRST_SAMPLE_PRECISION: millisecond
SAMPLING_INTERVAL_S: 0.01
NDATA: 12501
DURATION_S: 
STREAM: HNN
UNITS: cm/s^2
INSTRUMENT: sensor = GMS+/GEOSIG | digitizer = 
INSTRUMENT_ANALOG/DIGITAL: 
INSTRUMENTAL_FREQUENCY_HZ: 
INSTRUMENTAL_DAMPING: 
FULL_SCALE_G: 
N_BIT_DIGITAL_CONVERTER: 
PGA_CM/S^2: 961.116
TIME_PGA_S: 
BASELINE_CORRECTION: BASELINE REMOVED
FILTER_TYPE: BUTTERWORTH
FILTER_ORDER: 
LOW_CUT_FREQUENCY_HZ: 
HIGH_CUT_FREQUENCY_HZ: 
LATE/NORMAL_TRIGGERED: 
DATABASE_VERSION: 
HEADER_FORMAT: DYNA 1.2
DATA_TYPE: Acceleration
PROCESSING: Automatic Paolucci et al., 2011
DATA_TIMESTAMP_YYYYMMDD_HHMMSS: 
DATA_LICENSE: U (unknown license)
DATA_CITATION: Turkish Accelerometric Archive v 1.0 - Disaster And Emergency Management Presidency, Earthquake Department
DATA_CREATOR: AFAD
ORIGINAL_DATA_MEDIATOR_CITATION: : AFAD - Disaster And Emergency Management Presidency
ORIGINAL_DATA_MEDIATOR: AFAD PROCESS SERVICE
ORIGINAL_DATA_CREATOR_CITATION: AFAD PROCESS SERVICE
ORIGINAL_DATA_CREATOR: network: TK
USER1: GuestUser
USER2: 
USER3: 
USER4: 
USER5: 
[...]
0.168993
-5.675549
-9.168672
-10.910699
-13.837008
-14.005101
-9.321509
-7.517704
-15.388435
-26.711483
-32.254174
-31.574904
-28.575907
-23.425772
-13.273025
-1.214622
2.144414
-5.669169
-11.467212
-6.343313
2.791922
5.695585
0.243292
-5.919465
-5.699725
0.514940
10.731589
23.254198
33.538906
36.949635
36.294997
36.081444
34.289282
28.891021
21.214336
11.041542
-6.065498
-29.423594
-46.744163
-45.386899
-28.530062
-11.556589
0.040207
9.788494
18.355357
26.323715
37.005868
50.813289
60.946033
64.555225
62.631621
50.372110
28.214662
7.629070
-1.085648
-3.251616
-12.486129
-27.273961
-36.109731
-32.560285
-22.224403
-19.634020
-27.603204
-37.043713
-41.801906
-41.453580
-37.806462
-31.881179
-24.093620
-16.717273
-13.257967
-10.546013
-0.512760
13.106589
12.808612
-4.459484
-20.102472
-22.032831
-15.222778
-8.996684
-4.022931
3.304320
12.832064
18.239889
11.385370
-4.623371
-18.018068
-17.525571
-1.864186
15.494782
20.410607
14.521385
7.967936
3.704342
2.790455
1.962032
-5.525802
-19.325736
-34.318785
-39.388179
-30.044091
-16.462668
-6.907907
-1.669191
-0.186719
-1.160352
1.893196
10.809447
21.805400
33.794965
42.922927
44.201741
35.688084
19.753896
3.688785
-8.867380
-19.054722
-26.415270
-30.109193
-32.375692
-34.214872
-31.181325
-21.847108
-13.100226
-8.907075
-2.527198
14.202352
39.139530
60.842337
66.762685
54.977250
41.591126
39.416326
40.509146
35.174529
22.503286
3.780749
-18.184730
-40.061109
-57.227636
-62.647977
-51.114564
-28.552185
-15.667459
-24.532323
-39.762280
-43.901445
-40.180033
-35.620870
-27.971247
-12.741856
12.815387
42.524242
60.005561
56.884686
45.474097
41.627690
40.084905
27.011801
5.122433
-15.500565
-33.067914
-47.861721
-58.133747
-62.173162
-56.064482
-36.339288
-8.848852
13.492725
23.650667
25.125086
29.063144
38.470097
45.632395
50.880203
58.661528
65.172068
59.980063
40.694609
23.975923
23.124899
26.302098
18.748023
1.330560
-20.628425
-40.726173
-52.798910
-59.260141
-68.474393
-79.398956
-85.093871
-85.743834
-77.872110
-53.980238
-15.665013
20.998609
35.471555
30.840649
28.034093
38.259055
57.436139
73.695769
81.669322
76.260931
53.992562
31.568592
23.159881
14.486986
-12.708141
-45.047193
-51.348407
-30.083568
-11.416928
-14.685352
-30.244954
-37.055053
-27.077131
-10.702164
-10.762713
-39.786347
-60.571700
-33.102824
13.449642
30.386747
11.159222
-10.042800
-5.193995
1.806468
-16.653963
-45.244824
-59.427396
-60.037095
-55.255830
-44.226367
-39.697077
-41.843043
-19.254167
27.375191
63.620586
74.565105
65.549576
58.295793
64.602935
67.698826
65.188145
65.449968
56.381966
26.511489
-8.734885
-23.883275
-17.403647
-11.141965
-20.558316
-30.566418
-21.253242
-3.586448
5.305125
6.353005
4.746317
-3.274560
-11.853939
-7.331922
-2.442594
-8.357533
-13.119362
-5.872120
11.613875
21.670507
12.087125
-7.778650
-21.076713
-21.577049
-14.080170
-5.647607
2.658968
11.129717
16.802506
26.836018
45.327315
64.289830
73.351032
63.280585
38.052161
3.448453
-42.523479
-78.523700
-75.397936
-47.344582
-32.483283
-41.145787
-50.173785
-56.037290
-79.369408
-104.513148
-100.821350
-71.356417
-37.891318
-10.620905
15.357163
42.751486
64.949930
75.012017
70.683481
52.523082
36.295097
29.215359
19.266484
10.304986
5.775390
4.844878
10.622353
15.132940
3.577140
-26.149945
-54.731713
-64.739815
-51.979259
-34.311427
-26.053168
-11.220183
13.867660
34.739470
42.585217
37.169292
21.043655
8.519181
21.151672
45.657895
53.135291
39.555121
25.049656
28.814190
36.765143
27.904436
5.753742
-18.449898
-38.707143
-53.173902
-69.096920
-98.156142
-127.862446
-118.528228
-59.983315
5.424666
45.182902
64.784966
85.849524
112.302188
113.967537
82.796921
50.198881
33.910629
23.411566
10.950216
1.057970
-9.553833
-27.693970
-47.427783
-53.426887
-42.670959
-31.622793
-31.410586
-36.200210
-39.799578
-44.197732
-42.905670
-27.538602
-11.275855
-9.048368
-18.188586
-21.302707
6.113436
50.908573
65.347490
48.069523
27.900338
2.762833
-32.237801
-61.199869
-65.524249
-53.091001
-45.070949
-37.497958
-27.970733
-32.143409
-50.487723
-54.095923
-14.983469
43.155426
73.884389
78.148716
81.756090
85.486854
78.988995
68.575136
55.732706
26.163819
-13.727725
-31.871758
-21.354818
-24.222939
-61.578628
-93.427498
-88.467772
-75.358607
-90.880543
-121.361475
-128.669030
-94.654002
-41.347570
-3.764370
17.038342
36.760419
59.698682
81.298881
96.611138
95.799600
64.605345
20.136690
6.575223
28.311021
31.537315
-13.835592
-65.116402
-69.286220
-38.995744
-27.476619
-33.455721
-21.789566
2.721592
8.138769
-15.464028
-36.089105
-35.348530
-26.268365
-13.503912
-1.377190
5.507416
10.873159
15.964327
13.358832
2.823401
1.806646
12.149802
15.159450
8.511965
7.590025
22.905139
50.734054
70.647839
70.531440
57.367417
48.017567
54.317955
57.469956
51.553978
56.877638
74.196342
88.031818
82.167274
60.157894
46.662927
42.618577
26.437090
-7.476155
-39.275928
-35.681023
-1.264395
20.166955
3.136287
-30.114030
-31.953211
-2.206430
18.199876
4.172644
-30.295725
-46.280308
-34.050977
-14.626854
-11.924251
-23.368870
-24.500702
-22.644684
-29.319963
-32.721908
-30.449221
-20.029434
2.153944
15.726535
6.354605
-6.815133
-6.595392
9.410185
19.585791
0.893127
-23.803292
-31.244108
-15.089944
11.505593
11.898079
-9.560853
-26.235899
-38.849733
-54.144892
-66.382063
-66.185442
-58.880791
-51.556398
-39.158478
-25.397555
-25.483042
-27.015177
-0.154937
42.569590
64.463326
52.010029
27.244771
24.538745
41.307780
52.720920
54.288856
56.881836
76.068791
110.214742
108.857691
49.576809
-11.853392
-39.042285
-41.226437
-40.970589
-45.439660
-36.282604
-8.453950
23.491247
38.383459
36.179305
25.077320
16.626267
32.441694
57.439138
57.707974
22.263137
-8.631605
8.479285
38.030721
28.775686
-15.371636
-50.821409
-44.157086
-21.653414
-32.088575
-60.115739
-52.957078
-12.218737
28.555712
51.231610
41.139343
9.788189
-4.555700
7.439061
23.234746
25.864873
23.892951
40.308702
75.529572
100.620013
94.703775
76.696120
69.476886
55.998544
21.401590
-14.837098
-30.076147
-28.413655
-33.813994
-52.986189
-69.873205
-67.418162
-41.283454
-11.634086
-5.916877
-26.021639
-41.738661
-25.992332
6.911408
27.999865
23.187900
-1.721529
-7.465541
29.756582
72.962978
82.317977
64.062243
46.940656
51.960128
75.401562
94.315501
99.276006
92.440969
74.919340
71.677413
98.633507
116.905819
95.411299
65.031157
54.739648
34.687100
-12.409887
-46.994373
-48.991232
-48.610695
-61.138806
-66.579928
-62.203122
-63.479385
-71.698985
-82.019069
-93.433035
-100.810467
-95.220804
-75.854090
-57.653214
-50.601058
-37.084577
-6.881124
25.584908
53.613064
65.942406
53.422608
39.600853
41.409333
55.315207
77.764587
101.333307
112.529022
100.034161
69.483872
39.919141
22.932634
14.525481
12.351200
0.251967
-42.142442
-95.647384
-120.128456
-106.544695
-103.203323
-131.345305
-150.108885
-129.567500
-77.061672
-32.322385
-15.428921
-13.554199
-10.465842
11.195922
41.114929
56.473165
53.095899
43.334576
47.555002
65.026710
91.507688
119.871984
127.874891
124.713232
123.789994
112.824127
92.966405
67.756684
34.663526
0.459081
-25.906088
-38.136764
-51.129080
-78.452013
-98.158811
-100.396215
-105.257016
-122.667205
-147.422592
-158.087907
-135.930506
-101.905347
-76.134314
-54.835706
-37.508689
-21.549091
7.628539
57.829965
108.840309
145.020762
168.971341
182.207793
186.189752
179.183528
169.921479
170.094461
177.469249
181.678246
169.947103
160.652064
172.400304
177.108575
151.300868
94.298151
21.033182
-35.416749
-46.775124
-10.357503
28.742481
24.675791
-7.047351
-30.912773
-27.171359
4.484717
38.826532
55.058887
51.488353
44.103388
53.483065
70.337823
78.932222
84.340826
77.316678
48.656980
16.550160
-1.891048
-4.626167
0.642163
16.987256
43.964132
58.556312
50.256184
27.499192
-2.145028
-27.803627
-37.413246
-35.627624
-39.429611
-62.800954
-100.638254
-131.865759
-140.289017
-130.706461
-138.377171
-175.861446
-210.305397
-220.315318
-209.783310
-198.015327
-197.345409
-189.074682
-155.706736
-117.173825
-105.062688
-121.671753
-150.752535
-177.630486
-188.890410
-180.009487
-161.808611
-137.904531
-93.448391
-19.763165
62.557267
129.100953
164.750181
157.201042
120.470873
64.844926
-5.996667
-65.219881
-85.275806
-63.502602
-24.378718
12.174242
49.069317
78.189277
68.798903
29.296492
3.464886
-3.908909
-19.562548
-38.332362
-34.385732
-24.004649
-38.480500
-76.674980
-115.173909
-135.370109
-148.510493
-168.632659
-178.798700
-156.042793
-110.628630
-63.592995
-11.228740
50.467937
112.430616
169.051168
221.477507
261.492913
276.510333
267.810163
253.196116
251.950245
244.870247
213.314136
187.970894
186.184187
190.808812
176.341794
133.176654
87.750235
59.495774
47.158073
45.103545
36.790689
17.914629
21.684618
72.707950
127.888868
133.016664
105.699186
91.288537
85.925605
66.585859
46.087809
49.602965
76.897017
100.972285
104.354960
112.662055
151.046379
195.828267
220.384366
218.925745
179.739211
131.649132
128.039893
160.652174
172.090771
130.014579
87.625366
92.067634
97.526633
74.750418
40.816132
6.491674
-31.994266
-75.307474
-103.711301
-119.527035
-137.711852
-148.048300
-129.866907
-86.472179
-34.582261
17.103999
61.095933
96.371615
122.763233
134.597197
107.046967
45.694696
3.937758
-3.397592
-7.776263
-40.786035
-121.455689
-234.274220
-332.071931
-353.304345
-276.499566
-191.524826
-179.133919
-227.948751
-278.676255
-288.580969
-286.086961
-298.659751
-332.847312
-386.917249
-449.255339
-490.186475
-485.873571
-455.852995
-407.694643
-368.461397
-370.019249
-401.929943
-410.561795
-327.393741
-213.243426
-141.950662
-111.192085
-87.709868
-4.545970
112.219169
224.596827
291.694079
289.734886
214.712068
27.365860
-139.198655
-211.145041
-257.065799
-278.649160
-281.062167
-215.126078
-71.496780
87.013324
214.456483
301.660552
407.708705
464.232623
386.238320
246.264169
170.974570
166.203129
55.376498
-158.123404
-247.898443
-109.238245
98.419430
165.650723
103.486157
25.017777
29.867361
140.467688
288.049874
423.280876
481.536926
506.987406
558.630804
591.041765
518.861327
309.604214
153.130385
67.362266
-21.564630
-103.858871
-196.365369
-191.281215
-128.069052
-140.429872
-238.214075
-379.722155
-448.487164
-384.901714
-303.369419
-278.238194
-279.067137
-298.446627
-316.161524
-273.268668
-128.450931
34.913975
151.184516
229.071229
248.592245
197.025951
69.974995
-3.932120
-13.589535
-54.960198
-87.021038
-143.601373
-202.489226
-206.487337
-169.835145
-116.727955
-71.743188
-10.590984
50.570051
115.069884
193.600301
269.610450
342.680027
361.284842
312.552096
199.655635
15.705372
-185.039406
-353.960795
-456.304964
-453.523392
-310.847962
-117.113068
-53.563986
-87.335658
-119.768226
-196.840872
-310.924993
-402.778175
-423.709778
-365.093169
-236.742641
-85.240296
10.890437
66.807537
61.438111
-19.853167
-100.778431
-131.774483
-154.855406
-213.586619
-286.593118
-334.383166
-289.760775
-185.866357
-96.171374
-25.520237
23.794601
68.101894
111.667809
177.101247
262.538374
281.834172
246.243346
264.278749
218.814144
-0.136729
-165.182900
-140.300793
10.281194
181.079360
291.769566
315.665853
214.878733
64.501137
-12.841928
-2.071973
19.504587
-17.993975
-93.723622
-94.500091
14.771782
145.111613
247.217788
317.953609
343.546961
293.261842
200.123588
77.609999
-79.195814
-214.522457
-321.330478
-396.630988
-356.256322
-142.252257
97.372719
239.117921
321.385100
343.496262
282.127106
176.706765
118.766806
101.578198
195.555975
324.859073
298.229200
257.095706
216.941796
211.488984
162.907423
-29.826631
-188.368473
-376.213436
-507.590307
-530.550178
-522.929650
-432.275863
-337.096660
-279.604846
-261.702703
-303.051546
-297.586572
-105.397557
76.649339
146.730805
198.703849
189.645978
183.155653
178.224455
119.980307
41.520760
-18.202247
-35.631659
5.418663
-21.963237
-168.282219
-296.004415
-340.666857
-217.275039
-68.486750
21.570090
166.353018
176.254568
43.639124
-80.579583
-204.760623
-233.242121
-209.302452
-227.726775
-261.163606
-281.077438
-245.429509
-269.547686
-350.238899
-335.481247
-266.791358
-190.069185
-126.024206
-104.956531
-118.906612
-131.675787
-91.638040
-13.254911
54.534103
75.833750
45.709480
-27.932931
-78.823309
-57.721605
-24.908523
-22.484912
-78.986017
-174.141109
-174.294136
-48.522843
74.799358
154.406773
240.853878
329.449263
345.722661
253.547367
170.209898
145.658688
122.434114
195.022340
259.542694
194.226365
153.321725
129.829590
174.037132
257.690952
293.431358
325.966228
282.851224
195.214335
102.745503
63.068008
75.845969
53.396542
19.995559
-32.407188
-102.347387
-152.929160
-166.453481
-189.355424
-192.674502
-109.136019
34.749411
164.970268
258.166403
330.581884
424.315219
530.231670
569.708318
653.432276
632.923575
677.039678
719.778492
692.401527
659.397730
330.058218
302.510586
-112.693914
43.162141
710.944661
-260.993153
-568.946491
-328.418822
-666.927621
-632.688674
-732.046551
-817.175120
-895.691557
-961.116470
-884.075302
-833.254588
-736.522752
-625.364184
-482.766944
-311.816035
-119.713003
43.933232
197.696856
387.564325
552.275089
664.431425
588.967781
294.383400
136.045995
195.917802
269.888773
350.453173
420.172263
437.786323
418.388390
423.857520
244.570872
-123.916445
-242.449091
-414.385866
-683.365963
-577.802017
-424.736909
-286.063723
-45.353177
125.617475
262.272524
352.132979
421.006004
394.787085
264.750356
158.686571
77.592197
42.906402
37.517493
70.897388
147.691257
213.680599
239.524367
253.680656
246.207369
206.471945
113.332393
-65.703320
-230.519596
-502.384935
-738.155002
-649.412328
-511.766524
-375.529182
-237.873247
-90.011550
180.350985
244.008650
179.144576
157.489779
27.170163
-39.235373
-28.030827
-3.931920
70.352071
116.617494
121.722690
98.832956
45.353731
-15.397957
-26.056777
15.109142
91.194624
181.914911
249.565468
276.157368
198.221772
69.513497
-6.731789
-24.677100
14.298196
73.602151
128.001687
151.410390
120.123918
45.785588
-52.009265
-113.873539
-122.755807
-95.915309
-58.477060
-48.996074
-23.713924
13.000871
-0.017681
-54.270755
-154.029973
-235.350865
-253.147069
-253.435694
-238.273064
-259.842138
-319.977916
-377.195461
-414.688828
-407.106225
-383.424246
-268.456701
-91.621010
-2.760921
52.856927
95.842001
105.613927
126.114788
177.119417
294.024831
417.104928
510.317948
569.064181
476.250377
315.416083
227.478643
199.637213
228.724443
263.525529
283.174871
310.855717
312.976699
239.214275
120.361854
18.588915
-75.501128
-157.221283
-242.619492
-337.248553
-401.688686
-438.687195
-427.067020
-375.091898
-322.627373
-254.679121
-190.788185
-143.612275
-107.616777
-103.268025
-115.771458
-130.237178
-142.343166
-134.160239
-91.386877
-16.636862
100.463118
250.548688
368.695273
421.921697
468.923042
508.969102
459.147929
342.655760
199.130582
127.862449
103.616467
98.784760
154.437677
168.913481
221.627123
219.719884
262.035016
245.533755
226.456375
272.587498
171.814925
328.393135
-44.326061
31.083764
697.599656
89.967391
-87.469710
242.327985
153.965825
179.917136
123.370052
151.974893
155.107152
92.233160
-17.965612
-191.508792
-275.944560
-353.598827
-365.146834
-299.313872
-264.874903
-280.510618
-304.795825
-337.574923
-396.750339
-460.792507
-484.424398
-448.204720
-420.728051
-395.220942
-327.507781
-246.618930
-165.254704
-129.575603
-146.414823
-157.288471
-122.821707
-48.696954
9.063719
16.660609
-0.491111
11.014247
44.813667
73.200043
59.568438
1.410533
-61.446574
-132.491046
-185.833113
-222.975793
-256.079602
-289.375898
-331.047113
-353.197547
-340.955747
-291.696239
-236.963161
-202.121811
-197.699805
-197.154835
-148.300305
-55.087805
25.356583
67.414545
107.992349
129.169906
145.812694
160.343049
137.883231
133.287913
130.773856
94.292805
17.939456
-73.882554
-86.400793
-31.943589
-1.195662
-59.020285
-181.863520
-274.843056
-285.781127
-196.087703
-76.230546
2.023478
26.732839
-12.007933
-57.839590
-64.878805
-21.688255
44.337714
100.737723
163.375280
215.091933
254.972780
265.322949
197.827686
111.617963
91.684908
142.627712
223.070541
263.937987
262.239601
268.873790
270.139876
246.618387
197.129976
76.217336
-97.392344
-241.812942
-310.941626
-271.750463
-208.109683
-204.981321
-220.696784
-187.184667
-80.429426
25.665486
91.542608
133.594595
127.976571
79.413194
61.691543
71.961445
49.465779
5.602123
-58.589152
-169.109516
-278.417544
-317.202217
-296.683951
-273.447734
-324.198616
-430.956242
-508.974964
-525.647931
-460.579987
-301.868303
-128.623903
-87.403692
-132.272909
-186.716393
-208.536402
-103.175595
67.639715
190.103902
219.793794
182.221458
110.667840
86.714357
124.009474
139.235228
181.848834
265.605263
362.993013
461.116166
538.636087
597.300233
624.348285
630.295128
629.744917
614.061405
584.024676
559.060436
509.135356
393.303517
229.371750
119.241297
105.009888
109.531905
54.910220
-48.264946
-136.681658
-232.281732
-162.298719
45.947851
141.347597
179.356037
117.453837
19.454287
5.451473
-11.972743
-48.650699
-117.236727
-209.225248
-310.037306
-357.473550
-289.593877
-189.057479
-131.484099
-140.965132
-137.984318
-60.100203
-2.031705
17.514769
40.781639
77.488382
140.306996
193.646939
200.225798
153.084651
132.417751
194.526939
228.834725
224.891685
204.585603
163.646415
198.620246
253.340855
319.048608
396.411629
390.292252
327.181352
235.723278
259.200300
338.413128
491.148071
428.379285
-52.770679
-89.493314
-43.436225
-243.938639
-82.607456
86.110228
136.340230
139.983192
86.732562
33.401145
-32.613960
-36.039024
-58.760168
-76.345441
-93.313764
-135.248643
-173.601062
-216.407203
-234.888675
-255.016816
-238.797969
-183.440149
-116.948416
-59.335551
-43.694688
-54.738744
-153.669303
-273.218161
-291.387912
-204.558169
-73.270445
-51.662453
-148.798275
-276.594505
-344.693469
-318.106505
-264.858260
-175.251339
-103.635424
-94.233147
-77.259415
-49.173330
-70.732013
-166.173109
-287.616975
-329.007120
-237.515062
-127.146709
-34.020451
32.727932
55.205108
102.248796
140.362701
161.081768
141.576550
39.796078
-62.874620
-114.958112
-115.259726
-53.667735
23.809583
96.064008
183.355878
264.944803
254.779281
58.164554
-102.319573
-134.147142
-184.443690
-191.743192
-182.536261
-147.249929
-95.767587
-41.252714
70.146399
127.241547
160.424278
217.892452
239.685140
237.668018
194.592239
113.368241
90.393563
140.693961
191.455967
199.991658
143.133892
77.254904
60.018240
41.180107
10.392389
31.081842
95.669476
168.147561
210.269945
187.057580
132.865552
58.001712
-20.597591
-72.588086
