EVENT_NAME: 202302060117
EVENT_ID: 13194
EVENT_DATE_YYYYMMDD: 2023/02/06
EVENT_TIME_HHMMSS: 01:17:32.00000
EVENT_LATITUDE_DEGREE: 37.288
EVENT_LONGITUDE_DEGREE: 37.043
EVENT_DEPTH_KM: 8.6
HYPOCENTER_REFERENCE: AFAD
MAGNITUDE_W: 7.7
MAGNITUDE_W_REFERENCE: AFAD
MAGNITUDE_L: 
MAGNITUDE_L_REFERENCE: 
FOCAL_MECHANISM: 
NETWORK: TK
STATION_CODE: 5814
STATION_NAME: 
STATION_LATITUDE_DEGREE: 40.061759
STATION_LONGITUDE_DEGREE: 38.603635
STATION_ELEVATION_M: 1320.0
LOCATION: Kahramanmaras_Pazarck_Turkiye
SENSOR_DEPTH_M: 
VS30_M/S: 804
SITE_CLASSIFICATION_EC8: A
MORPHOLOGIC_CLASSIFICATION: 
EPICENTRAL_DISTANCE_KM: 336.86
EARTHQUAKE_BACKAZIMUTH_DEGREE: 
DATE_TIME_FIRST_SAMPLE_YYYYMMDD_HHMMSS: 2023/02/06 01:17:57.6510680
DATE_TIME_FIRST_SAMPLE_PRECISION: millisecond
SAMPLING_INTERVAL_S: 0.01
NDATA: 18251
DURATION_S: 
STREAM: HNN
UNITS: cm/s^2
INSTRUMENT: sensor = ACEBOX/SARA | digitizer = 
INSTRUMENT_ANALOG/DIGITAL: 
INSTRUMENTAL_FREQUENCY_HZ: 
INSTRUMENTAL_DAMPING: 
FULL_SCALE_G: 
N_BIT_DIGITAL_CONVERTER: 
PGA_CM/S^2: 3.640
TIME_PGA_S: 
BASELINE_CORRECTION: BASELINE REMOVED
FILTER_TYPE: BUTTERWORTH
FILTER_ORDER: 
LOW_CUT_FREQUENCY_HZ: 
HIGH_CUT_FREQUENCY_HZ: 
LATE/NORMAL_TRIGGERED: 
DATABASE_VERSION: 
HEADER_FORMAT: DYNA 1.2
DATA_TYPE: Acceleration
PROCESSING: Automatic Paolucci et al., 2011
DATA_TIMESTAMP_YYYYMMDD_HHMMSS: 
DATA_LICENSE: U (unknown license)
DATA_CITATION: Turkish Accelerometric Archive v 1.0 - Disaster And Emergency Management Presidency, Earthquake Department
DATA_CREATOR: AFAD
ORIGINAL_DATA_MEDIATOR_CITATION: : AFAD - Disaster And Emergency Management Presidency
ORIGINAL_DATA_MEDIATOR: AFAD PROCESS SERVICE
ORIGINAL_DATA_CREATOR_CITATION: AFAD PROCESS SERVICE
ORIGINAL_DATA_CREATOR: network: TK
USER1: GuestUser
USER2: 
USER3: 
USER4: 
USER5: 
[...]
0.742829
0.798472
0.798939
0.902276
0.976156
0.969842
1.045826
1.075050
1.037174
1.073178
1.051434
0.973111
0.968434
0.920037
0.776251
0.645558
0.578691
0.478859
0.292054
0.169778
0.086077
-0.070334
-0.190039
-0.282857
-0.435060
-0.574637
-0.632854
-0.665586
-0.762613
-0.896112
-1.002023
-1.041068
-1.046212
-1.144875
-1.275568
-1.332850
-1.358100
-1.299418
-1.265986
-1.345945
-1.308538
-1.262949
-1.266456
-1.089940
-0.962521
-0.899865
-0.756781
-0.723349
-0.647132
-0.551743
-0.564837
-0.471085
-0.439289
-0.537017
-0.571620
-0.566010
-0.544267
-0.596639
-0.693198
-0.754453
-0.779704
-0.747675
-0.782979
-0.877901
-0.959263
-0.963239
-0.880475
-0.893101
-0.880710
-0.822730
-0.815249
-0.671698
-0.530018
-0.429486
-0.219303
-0.026888
0.190309
0.476710
0.743004
0.997608
1.280035
1.557084
1.794855
2.116092
2.372566
2.484555
2.720221
2.881307
2.901413
3.009894
3.054315
3.076758
3.067873
2.903046
2.809058
2.730736
2.611031
2.572219
2.463035
2.347305
2.322288
2.299843
2.325560
2.386814
2.442457
2.457419
2.531532
2.700567
2.748260
2.849962
2.996552
2.986965
3.113683
3.207668
3.169559
3.267285
3.257699
3.261439
3.370855
3.291129
3.221457
3.196440
3.160201
3.181008
3.093333
2.953755
2.857664
2.875198
2.920554
2.758298
2.707563
2.763206
2.658932
2.674596
2.668282
2.539225
2.562371
2.550446
2.479371
2.472356
2.383513
2.278537
2.224529
2.162104
2.146205
2.120955
2.022759
1.955658
1.918250
1.898143
1.864943
1.754590
1.668084
1.578539
1.531779
1.529440
1.351286
1.241400
1.201888
1.004328
0.948684
0.894910
0.717924
0.689868
0.636795
0.519194
0.427545
0.322102
0.316724
0.311579
0.240037
0.234892
0.275572
0.324435
0.396678
0.477337
0.497911
0.513107
0.578803
0.582075
0.590257
0.587217
0.520584
0.527130
0.480370
0.407424
0.389889
0.257559
0.177365
0.124994
-0.019727
-0.060409
-0.169125
-0.360840
-0.419523
-0.509536
-0.632982
-0.688159
-0.747778
-0.844804
-0.945572
-0.911906
-0.885020
-1.015479
-1.032781
-1.027171
-1.037926
-0.874035
-0.841538
-0.833122
-0.720199
-0.676012
-0.450398
-0.343554
-0.328591
-0.030968
0.036131
0.084058
0.243274
0.233921
0.478706
0.560301
0.411838
0.558896
0.627398
0.777963
0.995627
0.936943
1.049633
1.185235
1.164192
1.342812
1.518393
1.520263
1.582686
1.781647
1.913508
1.988322
2.145901
2.169747
2.202011
2.384839
2.354445
2.307685
2.338078
2.209722
2.226555
2.245024
2.033203
1.955815
1.917939
1.760593
1.640187
1.514637
1.325962
1.132377
1.090526
1.054287
0.819320
0.691432
0.648880
0.544840
0.549047
0.477738
0.349851
0.301454
0.222430
0.243471
0.155094
-0.162871
-0.303384
-0.278602
-0.270887
-0.386618
-0.663902
-0.926691
-1.029329
-0.998468
-1.198599
-1.527319
-1.610318
-1.796421
-2.069965
-2.187565
-2.360342
-2.583853
-2.779542
-2.883817
-2.955827
-3.115511
-3.261869
-3.383678
-3.364741
-3.260235
-3.320555
-3.373160
-3.333883
-3.241067
-3.070395
-2.963317
-2.921702
-2.858811
-2.727184
-2.550434
-2.454344
-2.417872
-2.361762
-2.253748
-2.140357
-2.138488
-2.123759
-2.004056
-1.977871
-2.006161
-1.939296
-1.920359
-1.935557
-1.866354
-1.855600
-1.931818
-1.970396
-1.907505
-1.823105
-1.900960
-1.948656
-1.895584
-1.963854
-1.935331
-1.890677
-1.920370
-1.763960
-1.766533
-1.795758
-1.641219
-1.697097
-1.582304
-1.377264
-1.420517
-1.303619
-1.232546
-1.170123
-0.926507
-0.886294
-0.869228
-0.719598
-0.659513
-0.683829
-0.605274
-0.484869
-0.559451
-0.583299
-0.564830
-0.629359
-0.547530
-0.523216
-0.529763
-0.464768
-0.458223
-0.337584
-0.335247
-0.426896
-0.234248
-0.132079
-0.188192
-0.050720
0.004456
-0.111275
0.046772
0.247369
0.100777
0.146133
0.385775
0.255081
0.199437
0.406347
0.296227
0.148700
0.356545
0.378054
0.179092
0.283365
0.376415
0.269102
0.338305
0.418496
0.457306
0.616287
0.719158
0.850083
0.989192
1.068215
1.334041
1.557785
1.653407
1.923676
2.094581
2.161680
2.458835
2.673928
2.747340
2.956120
3.076525
3.096864
3.256080
3.429790
3.519100
3.496655
3.381158
3.330891
3.268466
3.148995
3.086804
2.937641
2.686776
2.461161
2.236948
2.166808
2.112099
1.795771
1.597510
1.607562
1.497677
1.353189
1.238862
1.185555
1.216883
1.166382
1.133416
1.188825
1.173160
1.162405
1.278601
1.402981
1.427996
1.496264
1.678158
1.746192
1.670207
1.669037
1.745021
1.813990
1.859580
1.804169
1.723041
1.746420
1.728183
1.638638
1.616426
1.540208
1.377016
1.270872
1.157713
1.011121
0.836474
0.600572
0.457955
0.308324
0.022856
-0.083054
-0.186861
-0.541299
-0.658899
-0.633416
-0.782346
-0.832379
-0.927302
-1.098910
-1.088857
-0.968218
-0.825135
-0.924967
-0.984820
-0.719227
-0.702862
-0.690706
-0.448025
-0.421373
-0.423945
-0.363626
-0.372745
-0.470707
-0.540613
-0.539912
-0.777919
-0.878686
-0.819770
-1.151529
-1.352595
-1.358909
-1.559274
-1.621932
-1.646248
-1.834689
-1.987593
-2.000921
-1.891972
-1.892440
-2.035992
-2.001157
-1.858776
-1.846385
-1.805705
-1.752634
-1.694887
-1.457583
-1.372014
-1.465066
-1.308189
-1.002149
-0.890395
-0.997942
-0.867017
-0.541338
-0.502061
-0.457640
-0.344717
-0.283696
-0.083333
0.002938
0.003405
0.056943
0.064892
0.137134
0.191608
0.230886
0.211947
0.121233
0.282319
0.451120
0.364848
0.328608
0.455092
0.571288
0.587420
0.663871
0.731905
0.682573
0.755984
0.889716
0.959620
1.036071
1.094052
1.147123
1.146655
1.193648
1.363384
1.446615
1.471630
1.498049
1.497346
1.530311
1.620556
1.724361
1.641129
1.539660
1.633646
1.631541
1.580572
1.528669
1.464841
1.573556
1.485180
1.247174
1.272657
1.310531
1.306088
1.263770
1.119049
1.085148
1.081172
1.111331
1.124423
0.849945
0.714809
0.795702
0.559800
0.418819
0.516546
0.294204
0.100853
0.074199
-0.132712
-0.137856
-0.075667
-0.383345
-0.554485
-0.528067
-0.720951
-0.803716
-0.707158
-0.826395
-0.915707
-0.774962
-0.713707
-0.673963
-0.467988
-0.362312
-0.391772
-0.187901
0.073717
0.104110
0.159753
0.187107
0.172844
0.379988
0.545749
0.591105
0.635292
0.575907
0.606300
0.737459
0.845941
0.933614
0.890828
0.874462
0.942262
1.051912
1.234741
1.237078
1.119477
1.056118
1.032971
1.101473
1.085106
1.045594
0.960257
0.684609
0.646967
0.684608
0.529366
0.485878
0.302347
0.037220
-0.045545
-0.208502
-0.287760
-0.304595
-0.531846
-0.726366
-0.787856
-0.745305
-0.680077
-0.814277
-0.958998
-0.969520
-1.060702
-1.087589
-0.955027
-1.007398
-1.084318
-0.978643
-1.047614
-1.196309
-1.209403
-1.287959
-1.392468
-1.379610
-1.336358
-1.447178
-1.557999
-1.498148
-1.514982
-1.528309
-1.534856
-1.623232
-1.491371
-1.475006
-1.618559
-1.406038
-1.280489
-1.392947
-1.274178
-1.102806
-1.076621
-1.060490
-0.985675
-0.827629
-0.670051
-0.627500
-0.513408
-0.328943
-0.331281
-0.210643
0.048871
0.127427
0.263963
0.291551
0.270041
0.644817
0.865053
0.721735
0.726644
0.918590
1.067285
1.044138
1.004859
0.998312
0.959267
0.981010
0.946407
0.818285
0.674032
0.562977
0.602956
0.588927
0.400252
0.363311
0.430177
0.264647
0.075505
0.039733
0.014015
0.016819
-0.104990
-0.250179
-0.225397
-0.338088
-0.446337
-0.457092
-0.542195
-0.569550
-0.736716
-0.901544
-0.831873
-0.890557
-1.018211
-1.027797
-1.001613
-1.091158
-1.238217
-1.169715
-1.192161
-1.340623
-1.272355
-1.234013
-1.214608
-1.157329
-1.269318
-1.315143
-1.165514
-1.064982
-1.107300
-1.082752
-0.953463
-1.000690
-1.100756
-0.988768
-0.913486
-1.029684
-1.092109
-1.081823
-1.172537
-1.285462
-1.300659
-1.255069
-1.293647
-1.425042
-1.486765
-1.462684
-1.391611
-1.385065
-1.446555
-1.339476
-1.228891
-1.302538
-1.292252
-1.081601
-0.910228
-0.949039
-0.950911
-0.864640
-0.887085
-0.829338
-0.832145
-1.018949
-0.969853
-0.901818
-1.019185
-1.022927
-1.099613
-1.258596
-1.246673
-1.207396
-1.234517
-1.297877
-1.360302
-1.402853
-1.407764
-1.399816
-1.450083
-1.345109
-1.256734
-1.437928
-1.409171
-1.273803
-1.292742
-1.124642
-1.080923
-1.240373
-1.088172
-0.904876
-0.906513
-0.787745
-0.758287
-0.878927
-0.736779
-0.592293
-0.745899
-0.809493
-0.741692
-0.748941
-0.794064
-0.847838
-0.792195
-0.719018
-0.791262
-0.785417
-0.716682
-0.693537
-0.584354
-0.578276
-0.661742
-0.562146
-0.473303
-0.426545
-0.351964
-0.395685
-0.423274
-0.423275
-0.383764
-0.216132
-0.232966
-0.351502
-0.292586
-0.261959
-0.247464
-0.129865
-0.131269
-0.206552
-0.104851
-0.086616
-0.231804
-0.192761
-0.135248
-0.244666
-0.421183
-0.548603
-0.487116
-0.475660
-0.556087
-0.600042
-0.732839
-0.754350
-0.698940
-0.795032
-0.850209
-0.852547
-0.932273
-0.971084
-0.902349
-0.959162
-1.131471
-1.093129
-0.948176
-0.898612
-0.881311
-0.829877
-0.726305
-0.592574
-0.452296
-0.445049
-0.428217
-0.214994
-0.168236
-0.202371
-0.056014
0.004538
0.021371
0.018798
-0.010427
0.085195
0.020666
-0.048304
0.075607
-0.030304
-0.090390
0.002427
-0.075896
0.005464
0.112777
0.116517
0.274797
0.338155
0.401981
0.496200
0.531035
0.748232
0.797095
0.769039
0.924747
0.911654
1.043514
1.229616
1.103131
1.151293
1.280582
1.226106
1.191270
1.216987
1.274500
1.208335
1.108970
1.047948
0.959105
1.071327
1.054960
0.830981
0.890599
0.880077
0.662411
0.546681
0.483789
0.501323
0.393308
0.190371
0.191773
0.066457
-0.207321
-0.264602
-0.284709
-0.446965
-0.623249
-0.789947
-0.924381
-0.962959
-1.033098
-1.175949
-1.266897
-1.267366
-1.298228
-1.418634
-1.423778
-1.419804
-1.485268
-1.433366
-1.494856
-1.557280
-1.519640
-1.662257
-1.766765
-1.835502
-1.855843
-1.764663
-1.899565
-1.981395
-1.873381
-1.880396
-1.855380
-1.792723
-1.812597
-1.778697
-1.698505
-1.719314
-1.729368
-1.700612
-1.721888
-1.632344
-1.586988
-1.662272
-1.609434
-1.567585
-1.608968
-1.699916
-1.752755
-1.629077
-1.587228
-1.646613
-1.617390
-1.595881
-1.549824
-1.391310
-1.248227
-1.287739
-1.295923
-1.050670
-0.913900
-0.849138
-0.584013
-0.577701
-0.657895
-0.401887
-0.398615
-0.533517
-0.375938
-0.336427
-0.413113
-0.494709
-0.582852
-0.594309
-0.754227
-0.896844
-0.973062
-1.118485
-1.130877
-1.251751
-1.402083
-1.393434
-1.540259
-1.609931
-1.649444
-1.723558
-1.521792
-1.603622
-1.861735
-1.691297
-1.625133
-1.659502
-1.483921
-1.463582
-1.421733
-1.161283
-0.986404
-0.882832
-0.777391
-0.674988
-0.513669
-0.379704
-0.257662
-0.106162
-0.013346
0.064508
0.161066
0.266741
0.373118
0.393692
0.312329
0.261361
0.349735
0.338512
0.135809
0.120612
0.211792
0.129027
0.114531
0.189111
0.090916
0.039012
0.202669
0.257143
0.251765
0.332425
0.300160
0.359076
0.548685
0.564816
0.531382
0.538629
0.575335
0.657397
0.692232
0.665812
0.571123
0.578370
0.723791
0.714439
0.626296
0.577432
0.495836
0.404888
0.289625
0.242865
0.139526
-0.082582
-0.106430
-0.192702
-0.375766
-0.373663
-0.563741
-0.685082
-0.571925
-0.772524
-0.925428
-0.815544
-0.835184
-0.982009
-1.050045
-0.943200
-0.982713
-1.105925
-1.047476
-1.137723
-1.203187
-1.115280
-1.256260
-1.369419
-1.277771
-1.330142
-1.488891
-1.513909
-1.564643
-1.708663
-1.735551
-1.772258
-1.913706
-1.996003
-2.043698
-2.115241
-2.172522
-2.182810
-2.201281
-2.218583
-2.170889
-2.183281
-2.229106
-2.231211
-2.289894
-2.271893
-2.171361
-2.155230
-2.112679
-2.075506
-2.054231
-1.961882
-1.930788
-1.828853
-1.696057
-1.710086
-1.578225
-1.467873
-1.487513
-1.301411
-1.200645
-1.230806
-1.065746
-0.900218
-0.899751
-0.906532
-0.801090
-0.777010
-0.786830
-0.643279
-0.622472
-0.620836
-0.516563
-0.517733
-0.463259
-0.401771
-0.340751
-0.200239
-0.185979
-0.082173
0.092473
0.122632
0.248881
0.394303
0.491795
0.689587
0.844828
0.906549
1.007081
1.145722
1.238539
1.315224
1.374608
1.394246
1.412481
1.400791
1.474436
1.550419
1.479111
1.532416
1.614010
1.572861
1.649078
1.721321
1.664040
1.703551
1.849907
1.822318
1.736046
1.809925
1.818341
1.847799
1.849201
1.639250
1.638548
1.663096
1.502009
1.464133
1.325724
1.201344
1.225424
1.092860
0.999574
0.959594
0.844565
0.819080
0.798739
0.747303
0.728131
0.734677
0.755718
0.715504
0.709892
0.786810
0.839414
0.878457
0.877054
0.865597
0.885002
0.838008
0.767166
0.791948
0.809950
0.601168
0.456914
0.600231
0.528221
0.348196
0.354742
0.310787
0.340946
0.295355
0.167935
0.284833
0.302834
0.216095
0.190142
0.204637
0.338836
0.248356
0.102699
0.249289
0.347250
0.331117
0.320128
0.282953
0.238999
0.277107
0.282951
0.145711
0.176104
0.222629
0.084688
0.116250
0.209534
0.146174
0.005661
-0.047879
0.030676
-0.011876
-0.055363
0.052183
0.090058
0.106890
0.240154
0.364533
0.350739
0.362194
0.457349
0.496860
0.595989
0.689507
0.696286
0.807573
0.968191
1.084621
1.122963
1.165748
1.297842
1.270487
1.225364
1.347639
1.324492
1.289889
1.382472
1.346934
1.292693
1.315838
1.319812
1.323084
1.312329
1.354411
1.413328
1.363996
1.355344
1.366566
1.336639
1.437872
1.491178
1.386669
1.342481
1.317230
1.270937
1.248025
1.254103
1.238905
1.053503
0.939877
0.988506
0.881192
0.782997
0.723845
0.572344
0.572577
0.557847
0.466665
0.542648
0.553169
0.543115
0.647621
0.626111
0.673571
0.800055
0.747917
0.881181
1.150982
1.172725
1.259229
1.420314
1.482036
1.678893
1.787841
1.765162
1.973007
2.110713
2.048756
2.167291
2.348249
2.437559
2.612204
2.753885
2.819815
2.990954
3.068106
3.060156
3.215163
3.339075
3.423943
3.562116
3.565388
3.577311
3.639968
3.553696
3.518626
3.506702
3.335795
3.317324
3.336729
3.046352
2.770704
2.644920
2.437541
2.131032
1.829199
1.580906
1.254290
0.909672
0.663717
0.331490
0.001835
-0.214895
-0.475814
-0.689272
-0.806171
-1.036228
-1.311175
-1.367053
-1.404695
-1.672394
-1.849379
-1.851250
-1.908297
-1.959967
-2.053954
-2.168282
-2.159165
-2.194235
-2.209199
-2.140931
-2.162441
-2.114046
-2.042037
-2.040869
-1.929114
-1.833258
-1.719166
-1.533064
-1.476018
-1.393255
-1.249236
-1.151276
-0.985281
-0.817415
-0.708934
-0.567487
-0.464851
-0.455266
-0.347253
-0.175880
-0.152033
-0.120705
-0.015731
0.057447
0.090879
0.086436
0.202399
0.330987
0.373771
0.537662
0.614347
0.612709
0.774964
0.902616
1.057623
1.282068
1.327891
1.294925
1.424682
1.648659
1.700795
1.730253
1.906067
1.966854
2.027173
2.103390
2.011273
2.010337
2.026468
1.964044
1.980409
1.915880
1.847844
1.817918
1.688393
1.618487
1.567518
1.489196
1.505794
1.494338
1.402922
1.394972
1.442432
1.385853
1.350549
1.395671
1.390994
1.414607
1.442194
1.479367
1.532906
1.507421
1.615201
1.669441
1.527526
1.601638
1.628524
1.476088
1.521678
1.531496
1.414363
1.418571
1.442885
1.345157
1.250234
1.287174
1.293953
1.241114
1.281560
1.332761
1.381390
1.413420
1.387234
1.428147
1.430017
1.424171
1.500388
1.407570
1.356835
1.406166
1.289734
1.292305
1.215619
0.927346
0.863519
0.764855
0.606808
0.563555
0.402467
0.279957
0.160720
0.005477
-0.016033
-0.109319
-0.200500
-0.193955
-0.272979
-0.385904
-0.398763
-0.310155
-0.326521
-0.401805
-0.357852
-0.384272
-0.403678
-0.296833
-0.267843
-0.293328
-0.290757
-0.281405
-0.281406
-0.295435
-0.315074
-0.354821
-0.339858
-0.323961
-0.380073
-0.412338
-0.448343
-0.430342
-0.374231
-0.419589
-0.436890
-0.425201
-0.453258
-0.430113
-0.369794
-0.357169
-0.383589
-0.317893
-0.252898
-0.254068
-0.202633
-0.218298
-0.207311
-0.118234
-0.168735
-0.201702
-0.171309
-0.173881
-0.162426
-0.163829
-0.079663
0.047054
0.042845
0.043078
0.153196
0.270094
0.392135
0.513709
0.538491
0.614240
0.737451
0.724591
0.800341
0.923083
0.898300
0.937110
0.963061
0.935238
1.010286
1.015663
0.995322
1.055874
1.046989
1.075746
1.114555
1.047688
1.094447
1.104733
1.015422
1.108706
1.097717
0.983857
1.089533
1.121095
1.050020
1.081114
1.083919
1.047679
1.038794
1.052821
1.058198
1.054924
1.029907
0.969586
0.994134
1.006291
0.902484
0.815979
0.718251
0.656527
0.641564
0.559266
0.546640
0.529105
0.424129
0.433714
0.442364
0.371756
0.372925
0.406591
0.387418
0.341360
0.363102
0.356555
0.297170
0.360528
0.351409
0.272853
0.293894
0.190087
0.113868
0.139819
0.026660
-0.054936
-0.149624
-0.280318
-0.270265
-0.374306
-0.465955
-0.395583
-0.516691
-0.585662
-0.487935
-0.563452
-0.594548
-0.561817
-0.638504
-0.638504
-0.625179
-0.638038
-0.622141
-0.627753
-0.593619
-0.621442
-0.694387
-0.675684
-0.704676
-0.772945
-0.775752
-0.741618
-0.735774
-0.788145
-0.783470
-0.781600
-0.846363
-0.833972
-0.831168
-0.880967
-0.915336
-0.989918
-1.014935
-1.045797
-1.181167
-1.261126
-1.333136
-1.445360
-1.556414
-1.709085
-1.750935
-1.770341
-1.947560
-2.050899
-2.063759
-2.108649
-2.154474
-2.260618
-2.348059
-2.345021
-2.366765
-2.397627
-2.399264
-2.388744
-2.354610
-2.366535
-2.363028
-2.254313
-2.223453
-2.251042
-2.196801
-2.159161
-2.095569
-2.031275
-2.044602
-1.932381
-1.755397
-1.708872
-1.651826
-1.541007
-1.516459
-1.471571
-1.307446
-1.218837
-1.205278
-1.181197
-1.197330
-1.142622
-1.083706
-1.131402
-1.134676
-1.088852
-1.033677
-0.985983
-0.995803
-0.980373
-0.920288
-0.894571
-0.880076
-0.827707
-0.783286
-0.767155
-0.771364
-0.784223
-0.743543
-0.728113
-0.759677
-0.718529
-0.681824
-0.696788
-0.737937
-0.765526
-0.709649
-0.699596
-0.753137
-0.750799
-0.724615
-0.681597
-0.598366
-0.499003
-0.474922
-0.454817
-0.308928
-0.230139
-0.207929
-0.122360
-0.120724
-0.097813
-0.013646
-0.023233
-0.031416
-0.030716
-0.067890
-0.078412
-0.101325
-0.145046
-0.183155
-0.241372
-0.289301
-0.292107
-0.321099
-0.380952
-0.370198
-0.366458
-0.414387
-0.421869
-0.444782
-0.465123
-0.475879
-0.509546
-0.458345
-0.429823
-0.461620
-0.443151
-0.454608
-0.421643
-0.372546
-0.430996
-0.428893
-0.386109
-0.373952
-0.321115
-0.306152
-0.315973
-0.284878
-0.274592
-0.277165
-0.274126
-0.321354
-0.369049
-0.355256
-0.373960
-0.412304
-0.380508
-0.361104
-0.387056
-0.364378
-0.289096
-0.254729
-0.242339
-0.200490
-0.185060
-0.149056
-0.088737
-0.106038
-0.098558
-0.060450
-0.084999
-0.050398
0.011558
-0.034033
-0.050166
-0.021410
-0.088510
-0.100201
-0.044091
-0.105112
-0.105347
-0.064199
-0.178995
-0.184606
-0.077762
-0.084309
-0.041057
0.025808
0.014117
0.120027
0.243471
0.210037
0.235053
0.340495
0.392865
0.464406
0.502748
0.504617
0.551142
0.565169
0.588782
0.617538
0.571713
0.531266
0.489415
0.455514
0.451539
0.378827
0.301907
0.288112
0.226623
0.134740
0.074185
-0.016763
-0.083629
-0.082695
-0.133897
-0.229755
-0.277918
-0.260851
-0.247526
-0.340110
-0.424278
-0.424045
-0.450231
-0.469169
-0.514994
-0.650130
-0.715828
-0.707412
-0.768434
-0.879488
-0.961552
-1.014858
-1.060683
-1.097390
-1.198859
-1.313187
-1.294951
-1.261986
-1.299161
-1.357377
-1.431492
-1.427518
-1.380525
-1.383332
-1.349899
-1.322780
-1.326287
-1.240017
-1.169879
-1.168944
-1.085479
-1.004820
-0.963439
-0.845606
-0.778974
-0.768454
-0.675871
-0.572533
-0.494446
-0.422905
-0.340843
-0.247558
-0.213892
-0.153807
-0.028492
0.053803
0.075078
0.064790
0.108510
0.137967
0.124874
0.143811
0.049122
-0.015173
-0.017511
-0.132073
-0.201278
-0.273756
-0.371250
-0.463133
-0.443962
-0.464537
