EVENT_NAME: 202302060117
EVENT_ID: 13194
EVENT_DATE_YYYYMMDD: 2023/02/06
EVENT_TIME_HHMMSS: 01:17:32.00000
EVENT_LATITUDE_DEGREE: 37.288
EVENT_LONGITUDE_DEGREE: 37.043
EVENT_DEPTH_KM: 8.6
HYPOCENTER_REFERENCE: AFAD
MAGNITUDE_W: 7.7
MAGNITUDE_W_REFERENCE: AFAD
MAGNITUDE_L: 
MAGNITUDE_L_REFERENCE: 
FOCAL_MECHANISM: 
NETWORK: TK
STATION_CODE: 4413
STATION_NAME: 
STATION_LATITUDE_DEGREE: 38.313533
STATION_LONGITUDE_DEGREE: 39.039342
STATION_ELEVATION_M: 930.0
LOCATION: Kahramanmaras_Pazarck_Turkiye
SENSOR_DEPTH_M: 
VS30_M/S: None
SITE_CLASSIFICATION_EC8: unknown
MORPHOLOGIC_CLASSIFICATION: 
EPICENTRAL_DISTANCE_KM: 209.20
EARTHQUAKE_BACKAZIMUTH_DEGREE: 
DATE_TIME_FIRST_SAMPLE_YYYYMMDD_HHMMSS: 2023/02/06 01:17:48.0738080
DATE_TIME_FIRST_SAMPLE_PRECISION: millisecond
SAMPLING_INTERVAL_S: 0.005
NDATA: 9303
DURATION_S: 
STREAM: HNN
UNITS: cm/s^2
INSTRUMENT: sensor = GEO-A200,/GEObit | digitizer = 
INSTRUMENT_ANALOG/DIGITAL: 
INSTRUMENTAL_FREQUENCY_HZ: 
INSTRUMENTAL_DAMPING: 
FULL_SCALE_G: 
N_BIT_DIGITAL_CONVERTER: 
PGA_CM/S^2: 13.153
TIME_PGA_S: 
BASELINE_CORRECTION: BASELINE REMOVED
FILTER_TYPE: BUTTERWORTH
FILTER_ORDER: 
LOW_CUT_FREQUENCY_HZ: 
HIGH_CUT_FREQUENCY_HZ: 
LATE/NORMAL_TRIGGERED: 
DATABASE_VERSION: 
HEADER_FORMAT: DYNA 1.2
DATA_TYPE: Acceleration
PROCESSING: Automatic Paolucci et al., 2011
DATA_TIMESTAMP_YYYYMMDD_HHMMSS: 
DATA_LICENSE: U (unknown license)
DATA_CITATION: Turkish Accelerometric Archive v 1.0 - Disaster And Emergency Management Presidency, Earthquake Department
DATA_CREATOR: AFAD
ORIGINAL_DATA_MEDIATOR_CITATION: : AFAD - Disaster And Emergency Management Presidency
ORIGINAL_DATA_MEDIATOR: AFAD PROCESS SERVICE
ORIGINAL_DATA_CREATOR_CITATION: AFAD PROCESS SERVICE
ORIGINAL_DATA_CREATOR: network: TK
USER1: GuestUser
USER2: 
USER3: 
USER4: 
USER5: 
[...]
0.004894
-0.043866
-0.114990
-0.271100
-0.532205
-0.859462
-1.169769
-1.396267
-1.472806
-1.354185
-1.097140
-0.787361
-0.507245
-0.263618
-0.034822
0.176317
0.426771
0.660981
0.786665
0.788284
0.561550
0.094691
-0.467040
-0.994872
-1.364974
-1.446692
-1.203772
-0.760747
-0.246628
0.277615
0.700393
0.926129
0.986837
0.975038
0.965122
1.027478
1.235793
1.608192
2.120428
2.693402
3.142076
3.371814
3.416749
3.271469
2.996474
2.724069
2.510518
2.326394
2.111666
1.846088
1.507061
1.055504
0.492125
-0.178133
-0.946559
-1.831281
-2.862903
-3.925364
-4.844692
-5.580396
-6.091748
-6.284347
-6.167374
-5.833112
-5.315696
-4.661739
-3.982828
-3.299444
-2.650431
-2.121245
-1.637258
-1.128553
-0.629971
-0.157755
0.200519
0.301720
0.098291
-0.340317
-0.886040
-1.423759
-1.844241
-2.060852
-2.080420
-1.975924
-1.819166
-1.623799
-1.351216
-0.961396
-0.452456
0.116752
0.668538
1.106618
1.372610
1.512889
1.555000
1.506240
1.416518
1.317614
1.193992
0.988445
0.668486
0.284965
-0.097144
-0.449826
-0.808628
-1.211454
-1.646296
-2.135048
-2.645929
-3.066411
-3.384487
-3.654067
-3.833482
-3.866234
-3.800817
-3.655829
-3.380421
-3.032270
-2.676821
-2.253336
-1.775235
-1.296898
-0.761356
-0.136119
0.538083
1.228530
1.870480
2.342932
2.629404
2.796521
2.847813
2.832011
2.826568
2.801585
2.703152
2.523031
2.277463
1.990933
1.719234
1.531579
1.417844
1.325297
1.255821
1.184461
1.002927
0.629293
0.045432
-0.696627
-1.483416
-2.201228
-2.767197
-3.109756
-3.186060
-3.030243
-2.691508
-2.220469
-1.703289
-1.216007
-0.849493
-0.678609
-0.692763
-0.786017
-0.826772
-0.778776
-0.653093
-0.449251
-0.182318
0.112159
0.396748
0.658266
0.922139
1.191191
1.418338
1.579570
1.626624
1.529369
1.336299
1.070721
0.755470
0.433863
0.154396
-0.048561
-0.190311
-0.298160
-0.387176
-0.456652
-0.547551
-0.741327
-1.050222
-1.425268
-1.812556
-2.164767
-2.402566
-2.465451
-2.398857
-2.254340
-2.065801
-1.890209
-1.787361
-1.766202
-1.825085
-2.019332
-2.319516
-2.668431
-3.031471
-3.287162
-3.345574
-3.166686
-2.789108
-2.341846
-1.879753
-1.418131
-1.002886
-0.701111
-0.506451
-0.387124
-0.386917
-0.407427
-0.324119
-0.162652
0.087331
0.422299
0.783870
1.143557
1.549150
2.051263
2.618352
3.239586
3.799847
4.139994
4.199055
3.884040
3.204836
2.297043
1.316507
0.413658
-0.305566
-0.726519
-0.860499
-0.856526
-0.831836
-0.874240
-1.031997
-1.307227
-1.638486
-1.941495
-2.152221
-2.189916
-2.013148
-1.674177
-1.272822
-0.916901
-0.712354
-0.726743
-0.972310
-1.403150
-1.883663
-2.260357
-2.464021
-2.459106
-2.213125
-1.740438
-1.090483
-0.352012
0.378220
1.080201
1.748989
2.304072
2.672940
2.842175
2.812719
2.630243
2.343949
1.957838
1.504869
1.040600
0.617764
0.265553
-0.034867
-0.274549
-0.400290
-0.393256
-0.306416
-0.200037
-0.084947
-0.007524
-0.022619
-0.113518
-0.259270
-0.423854
-0.530762
-0.525611
-0.440184
-0.339690
-0.222717
-0.134935
-0.138966
-0.203263
-0.326886
-0.507714
-0.679125
-0.813106
-0.915069
-0.949469
-0.897235
-0.776260
-0.575950
-0.292067
0.077507
0.548075
1.089268
1.623163
2.070189
2.403038
2.626890
2.735153
2.740303
2.636221
2.380766
1.962874
1.411736
0.734180
-0.043192
-0.769243
-1.244812
-1.362314
-1.157531
-0.770535
-0.312680
0.163067
0.582314
0.885737
1.087930
1.199018
1.198518
1.102911
0.941151
0.755144
0.618103
0.605833
0.743522
0.948306
1.159445
1.352458
1.436001
1.343690
1.025849
0.462941
-0.278177
-1.116287
-1.920967
-2.517540
-2.773230
-2.637189
-2.145669
-1.393543
-0.586802
-0.005117
0.174476
-0.092514
-0.741349
-1.630073
-2.584949
-3.403755
-3.924288
-4.062035
-3.777681
-3.074052
-2.041546
-0.858374
0.283836
1.168736
1.641658
1.722612
1.478928
1.003830
0.407492
-0.274301
-1.003413
-1.746415
-2.445393
-2.978404
-3.239509
-3.137838
-2.644435
-1.808501
-0.752925
0.311833
1.196733
1.804078
2.115975
2.130778
1.829416
1.251441
0.510794
-0.266814
-0.966734
-1.465845
-1.698464
-1.676835
-1.443095
-1.070461
-0.647918
-0.278814
-0.044604
0.024815
-0.073382
-0.305531
-0.623371
-0.986647
-1.326145
-1.563238
-1.630831
-1.487020
-1.150169
-0.649468
-0.024938
0.633727
1.213764
1.621240
1.812134
1.774438
1.490263
0.975850
0.349615
-0.274737
-0.825168
-1.209396
-1.346201
-1.209924
-0.868364
-0.460417
-0.121682
0.073213
0.135335
0.136012
0.158348
0.241186
0.380994
0.553761
0.727233
0.878577
1.008498
1.165257
1.383929
1.621906
1.821746
1.969323
2.067227
2.104865
2.083884
2.007816
1.855709
1.641687
1.391882
1.133366
0.906397
0.713798
0.563103
0.456431
0.376360
0.328307
0.282843
0.198535
0.048547
-0.192077
-0.527809
-0.969949
-1.494014
-1.996656
-2.338508
-2.414341
-2.198493
-1.735223
-1.126231
-0.504526
0.020423
0.399414
0.620676
0.708929
0.731500
0.749363
0.807011
0.935284
1.126649
1.348146
1.537392
1.621171
1.549812
1.276230
0.788654
0.137230
-0.585291
-1.269203
-1.825519
-2.209512
-2.425181
-2.489479
-2.417705
-2.217631
-1.930452
-1.635740
-1.387404
-1.258425
-1.306479
-1.521207
-1.875772
-2.310143
-2.765937
-3.196071
-3.532509
-3.733348
-3.803530
-3.804265
-3.790404
-3.724987
-3.523971
-3.138388
-2.610614
-2.073424
-1.679837
-1.536733
-1.675421
-2.044582
-2.506262
-2.864594
-2.978328
-2.786022
-2.280613
-1.531312
-0.672544
0.116777
0.671389
0.884647
0.749254
0.359847
-0.135732
-0.579049
-0.885118
-1.054176
-1.134717
-1.177591
-1.186566
-1.126328
-0.942732
-0.620712
-0.226183
0.117966
0.293558
0.273048
0.098341
-0.200431
-0.567002
-0.886961
-1.093685
-1.181524
-1.130703
-0.897905
-0.412271
0.369517
1.416148
2.612267
3.740352
4.583583
5.006597
4.970315
4.541593
3.820250
2.948005
2.070110
1.214815
0.356460
-0.460698
-1.139666
-1.647252
-2.017590
-2.328838
-2.694468
-3.148850
-3.647254
-4.121175
-4.444665
-4.485892
-4.219900
-3.710960
-3.065713
-2.368675
-1.627850
-0.851477
-0.082872
0.624053
1.233987
1.715620
1.994088
1.990293
1.665861
1.064344
0.325816
-0.353859
-0.779520
-0.835577
-0.527917
0.032579
0.710078
1.398170
1.996333
2.443360
2.737601
2.907543
2.983553
2.989175
2.940179
2.858461
2.819353
2.868056
2.993268
3.148850
3.223683
3.160328
2.929591
2.460849
1.743979
0.868438
-0.027348
-0.847095
-1.571499
-2.222453
-2.814788
-3.337676
-3.759334
-4.029621
-4.128995
-4.049689
-3.781108
-3.361154
-2.818784
-2.166005
-1.442835
-0.685766
0.049880
0.708310
1.260331
1.681227
1.980647
2.126576
2.043681
1.747028
1.313599
0.809073
0.299605
-0.161133
-0.557367
-0.903693
-1.229066
-1.558677
-1.866395
-2.082064
-2.177672
-2.168990
-2.085211
-1.944932
-1.768163
-1.591865
-1.386611
-1.102493
-0.750339
-0.341686
0.096159
0.501988
0.818829
1.013960
1.109275
1.139380
1.157007
1.212772
1.325037
1.501805
1.673159
1.815087
1.954189
2.037968
2.043825
1.990121
1.885097
1.694146
1.374893
0.941934
0.457891
-0.008026
-0.427096
-0.740463
-0.873502
-0.790193
-0.472410
0.003808
0.519811
1.014862
1.456238
1.838290
2.125939
2.294233
2.411206
2.533358
2.640915
2.700211
2.718309
2.674493
2.498608
2.177472
1.739099
1.224216
0.677786
0.133241
-0.402830
-0.959618
-1.498749
-1.988914
-2.418106
-2.671678
-2.710315
-2.614529
-2.479900
-2.419897
-2.468422
-2.608052
-2.831255
-3.106956
-3.392544
-3.605860
-3.721478
-3.767883
-3.726479
-3.603620
-3.363760
-2.964053
-2.452993
-1.871545
-1.267731
-0.749845
-0.412522
-0.280718
-0.316530
-0.461575
-0.686191
-0.955535
-1.205811
-1.405708
-1.587713
-1.753239
-1.866268
-1.962582
-2.060308
-2.106243
-2.052126
-1.885480
-1.640676
-1.320304
-0.921067
-0.493580
-0.075745
0.298537
0.584539
0.804624
1.016235
1.253034
1.542096
1.842223
2.100681
2.310408
2.467166
2.593556
2.737837
2.927319
3.109266
3.232125
3.325085
3.397094
3.459921
3.565830
3.695751
3.800718
3.876728
3.890825
3.839946
3.785536
3.793041
3.927670
4.193661
4.531690
4.851592
5.060377
5.048342
4.684360
3.932177
2.846646
1.538175
0.117646
-1.329014
-2.690688
-3.909466
-4.920606
-5.610168
-5.902113
-5.777606
-5.310570
-4.570686
-3.675428
-2.844673
-2.193071
-1.775471
-1.645080
-1.788712
-2.157873
-2.648509
-3.125726
-3.489236
-3.675008
-3.592406
-3.156209
-2.415619
-1.481753
-0.475378
0.436830
1.134575
1.588192
1.793682
1.731503
1.371524
0.744818
-0.032790
-0.856539
-1.659807
-2.372205
-2.948532
-3.376311
-3.619289
-3.633208
-3.415947
-2.995052
-2.419724
-1.755409
-1.085915
-0.490576
-0.012946
0.351920
0.642865
0.868601
1.041603
1.179999
1.278138
1.327076
1.310568
1.271696
1.261309
1.296828
1.399912
1.523947
1.619733
1.699039
1.745858
1.734059
1.613497
1.305544
0.785952
0.075674
-0.721709
-1.489429
-2.164866
-2.625839
-2.810434
-2.790217
-2.655588
-2.489178
-2.336186
-2.234986
-2.194523
-2.162535
-2.101591
-1.998272
-1.908607
-1.926528
-2.049914
-2.242984
-2.494202
-2.736709
-2.882225
-2.913328
-2.846263
-2.664080
-2.395970
-2.081718
-1.659882
-1.051360
-0.235672
0.717734
1.685736
2.551567
3.189045
3.487523
3.417105
3.030994
2.410645
1.649045
0.834713
0.040626
-0.630574
-1.036931
-1.069211
-0.758962
-0.231423
0.413588
1.130165
1.945853
2.863476
3.814292
4.769582
5.682496
6.423086
6.877646
7.025694
6.891713
6.572460
6.171518
5.713135
5.354097
5.162910
4.992205
4.885533
4.824296
4.677132
4.484298
4.237318
3.895936
3.470275
3.031196
2.632372
2.258974
1.951492
1.692976
1.439169
1.130746
0.725330
0.260355
-0.260884
-0.735276
-1.050292
-1.208991
-1.191363
-1.029190
-0.810518
-0.614680
-0.473224
-0.340007
-0.203495
-0.038026
0.212428
0.549986
1.007606
1.603180
2.237832
2.770550
3.070206
3.036513
2.629685
1.977790
1.336959
0.854563
0.626416
0.711137
1.042338
1.509140
1.952870
2.216272
2.208945
1.902876
1.300653
0.445123
-0.508105
-1.434025
-2.204570
-2.626465
-2.651212
-2.350614
-1.815778
-1.125332
-0.428294
0.054516
0.271305
0.245616
-0.070576
-0.627128
-1.296445
-1.977532
-2.532907
-2.848393
-2.928463
-2.816669
-2.521015
-2.093999
-1.616134
-1.115903
-0.657813
-0.296478
-0.009299
0.198309
0.255016
0.117740
-0.183386
-0.637532
-1.212918
-1.829501
-2.383699
-2.732849
-2.787495
-2.506201
-1.901917
-1.111184
-0.309385
0.339392
0.699079
0.698109
0.336246
-0.278454
-0.963543
-1.539399
-1.916329
-2.120463
-2.201711
-2.244114
-2.328657
-2.453221
-2.604622
-2.798869
-3.037610
-3.276115
-3.474364
-3.644834
-3.832724
-4.043450
-4.279366
-4.611566
-5.039346
-5.509736
-6.037567
-6.578817
-7.012482
-7.207435
-7.051383
-6.491828
-5.557961
-4.402569
-3.196561
-2.086839
-1.258674
-0.810706
-0.713979
-0.887039
-1.242310
-1.721175
-2.281729
-2.922089
-3.623187
-4.291561
-4.830928
-5.167131
-5.205061
-4.886101
-4.317130
-3.682477
-3.083843
-2.563367
-2.093741
-1.581740
-0.960976
-0.197786
0.721484
1.724328
2.648307
3.358057
3.804848
3.950542
3.770891
3.326632
2.752659
2.175391
1.651326
1.228019
0.982452
0.932986
1.024063
1.120555
1.045899
0.771846
0.390679
0.001979
-0.304797
-0.445605
-0.311682
0.106153
0.702433
1.361804
1.994809
2.590618
3.151586
3.627098
3.994553
4.258897
4.366218
4.308041
4.184184
4.059855
3.930819
3.732099
3.377769
2.877717
2.290325
1.640784
0.951928
0.312039
-0.171770
-0.523510
-0.839938
-1.173315
-1.556601
-1.993562
-2.409335
-2.719878
-2.862098
-2.731471
-2.279736
-1.562923
-0.701094
0.099998
0.647311
0.854920
0.712464
0.288216
-0.235849
-0.667395
-0.900250
-0.878150
-0.616396
-0.151007
0.512837
1.296038
2.105134
2.900340
3.572895
3.968130
4.039903
3.870610
3.565011
3.244111
3.046097
3.045833
3.240964
3.537795
3.872057
4.289892
4.858628
5.599218
6.433033
7.249191
7.888317
8.161606
7.961945
7.241308
6.071026
4.615420
3.019977
1.364268
-0.314276
-1.870640
-3.148271
-4.128808
-4.827316
-5.235085
-5.322924
-5.105663
-4.640981
-3.957832
-3.108951
-2.154368
-1.186131
-0.438243
-0.118812
-0.267859
-0.857840
-1.840966
-3.149672
-4.596568
-5.909747
-6.918062
-7.510868
-7.583876
-7.024321
-5.788886
-4.004697
-1.986976
-0.174301
1.153416
1.930966
2.137868
1.781420
0.970148
-0.069007
-1.066258
-1.812085
-2.205729
-2.193045
-1.736131
-0.887956
0.233301
1.485686
2.637783
3.439816
3.752891
3.577242
2.939236
1.860767
0.461190
-1.113301
-2.714865
-4.200368
-5.413731
-6.195576
-6.446323
-6.109942
-5.282954
-4.160990
-2.942271
-1.822190
-0.989788
-0.626334
-0.807398
-1.503787
-2.609800
-3.959704
-5.312433
-6.354648
-6.871650
-6.815179
-6.174641
-4.982052
-3.415859
-1.784219
-0.393410
0.583773
1.049868
0.985100
0.515887
-0.192744
-0.962112
-1.612360
-1.992585
-2.044876
-1.835855
-1.367877
-0.640706
0.219004
1.070711
1.807299
2.348021
2.601770
2.471321
1.947021
1.149638
0.275275
-0.551535
-1.315488
-2.007405
-2.607273
-3.109209
-3.543580
-3.906149
-4.098984
-4.075236
-3.867156
-3.516415
-3.034077
-2.345278
-1.369037
-0.108648
1.359848
2.903206
4.343217
5.507791
6.247439
6.442100
6.075999
5.275085
4.243935
3.133213
2.029555
1.094454
0.558383
0.535519
1.027274
1.991038
3.230946
4.431067
5.319263
5.783239
5.871021
5.644287
5.108451
4.271989
3.295691
2.435687
1.835348
1.583660
1.716876
2.131886
2.672372
3.191436
3.575606
3.777800
3.814731
3.723597
3.555010
3.407140
3.353437
3.351525
3.287934
3.023062
2.394708
1.319534
-0.118650
-1.714564
-3.208307
-4.320676
-4.821670
-4.637133
-3.865939
-2.707486
-1.343749
0.099086
1.493191
2.733569
3.719698
4.409438
4.852698
5.081023
5.070165
4.761270
4.128679
3.213824
2.163369
1.177418
0.425941
0.100332
0.278278
0.930116
2.014178
3.324946
4.554730
5.465761
5.870413
5.658980
4.887023
3.656239
2.065034
0.364125
-1.151983
-2.353339
-3.198982
-3.710570
-4.035708
-4.306230
-4.559095
-4.797836
-5.008091
-5.103228
-4.940819
-4.453066
-3.676222
-2.738824
-1.820260
-1.065545
-0.649123
-0.757914
-1.395920
-2.452966
-3.781447
-5.124995
-6.246545
-7.022270
-7.426978
-7.483036
-7.184322
-6.586629
-5.829796
-5.005162
-4.151573
-3.329293
-2.616953
-2.080234
-1.779636
-1.737525
-1.923533
-2.279746
-2.707761
-3.120003
-3.439020
-3.557228
-3.406590
-2.965685
-2.221563
-1.254739
-0.266727
0.536955
0.981392
0.990544
0.646102
0.095435
-0.544690
-1.233075
-1.870845
-2.301214
-2.470036
-2.340822
-1.891206
-1.132489
-0.112460
0.971602
1.909706
2.546006
2.792929
2.740638
2.508960
2.193709
1.878694
1.541079
1.101764
0.532499
-0.079611
-0.574719
-0.777206
-0.535462
0.139917
1.147704
2.383139
3.657417
4.840824
5.882982
6.717268
7.303896
7.564943
7.473102
7.056387
6.327275
5.422308
4.522284
3.715013
3.019566
2.464662
2.051007
1.687732
1.387312
1.239207
1.286968
1.572969
2.009166
2.377328
2.463933
2.126082
1.359539
0.280128
-0.903337
-1.974273
-2.789312
-3.268883
-3.453007
-3.429494
-3.178334
-2.605360
-1.706100
-0.591669
0.575730
1.574571
2.193216
2.355153
2.076628
1.411549
0.512702
-0.430403
-1.296292
-1.973377
-2.259201
-1.913874
-0.858769
0.826546
2.930665
5.110118
7.085935
8.631177
9.526906
9.696377
9.210685
8.212728
6.861647
5.277504
3.464537
1.436400
-0.615515
-2.445432
-3.902215
-4.887695
-5.304174
-5.100333
-4.252393
-2.775657
-0.921550
0.901718
2.482743
3.776090
4.676057
5.110135
5.076206
4.469040
3.326773
1.984638
0.691469
-0.441852
-1.302091
-1.870649
-2.180015
-2.229481
-2.057185
-1.774244
-1.450575
-1.134205
-0.936249
-0.910382
-1.064608
-1.395161
-1.826707
-2.335234
-2.918624
-3.474234
-3.907899
-4.186896
-4.294274
-4.270055
-4.174034
-3.981257
-3.642993
-3.199969
-2.723045
-2.263541
-1.888317
-1.643513
-1.548904
-1.610612
-1.770959
-1.879044
-1.781139
-1.411330
-0.748898
0.120465
1.001363
1.763140
2.307864
2.466506
2.112647
1.296902
0.155341
-1.203273
-2.660056
-4.043389
-5.156936
-5.927716
-6.440481
-6.782569
-6.978228
-6.998032
-6.758878
-6.144000
-5.042047
-3.387572
-1.237311
1.193801
3.658107
5.948911
7.849631
9.225844
10.107684
10.551414
10.545735
10.117014
9.369069
8.346629
7.100778
5.722860
4.234532
2.740788
1.400537
0.333603
-0.338539
-0.545969
-0.232188
0.579733
1.751840
3.103806
4.478371
5.760888
6.775032
7.367545
7.451324
6.932439
5.817716
4.246991
2.462510
0.765603
-0.567351
-1.315297
-1.457988
-1.154330
-0.573116
0.030226
0.392738
0.415074
0.177040
-0.092540
-0.261127
-0.381924
-0.505311
-0.680489
-0.921584
-1.180334
-1.422371
-1.578009
-1.551671
-1.292507
-0.812287
-0.195526
0.455606
1.130750
1.875342
2.698328
3.538028
4.290153
4.871131
5.155014
5.015855
4.461892
3.587293
2.491403
1.275451
0.042548
-1.092656
-2.002097
-2.586428
-2.823285
-2.765872
-2.494702
-2.072394
-1.503423
-0.796732
-0.073328
0.489758
0.732208
0.512066
-0.280373
-1.632631
-3.278924
-4.818338
-5.993328
-6.761990
-7.123382
-7.101281
-6.810336
-6.348949
-5.823294
-5.182285
-4.278081
-3.166946
-1.883016
-0.495503
0.755939
1.663204
2.087630
1.983548
1.339656
0.186089
-1.346733
-3.136629
-5.044940
-6.818357
-8.238651
-9.211653
-9.650733
-9.533995
-8.919588
-7.900972
-6.580317
-5.045198
-3.446282
-1.873732
-0.346381
1.036894
2.173689
2.906510
3.082573
2.731304
1.992540
1.109230
0.348808
-0.071674
0.013283
0.673125
1.946226
3.766904
5.952948
8.245400
10.311382
11.936901
12.956459
13.152532
12.422714
10.953689
9.114826
7.180620
5.475473
4.225150
3.389630
3.019292
2.962764
2.883871
2.649838
2.194044
1.541207
0.764541
-0.074510
-1.003020
-2.077722
-3.232702
-4.451243
-5.683910
-6.804990
-7.657460
-8.071585
-7.955083
-7.303480
-6.224833
-4.826962
-3.185199
-1.423375
0.322912
1.894991
3.129720
3.922337
4.250713
4.152281
3.686599
3.009279
2.353381
1.853564
1.547024
1.543935
1.923867
2.596422
3.430001
4.291831
5.094100
5.803144
6.301255
6.489324
6.473052
6.367086
6.178724
5.952932
5.800589
5.886251
6.337986
7.136959
8.128503
9.084263
9.766705
9.958305
9.540413
8.579651
7.287189
5.842648
4.306294
2.834916
1.650039
0.842768
0.504212
0.640960
1.107761
1.721226
2.294671
2.744522
3.073369
3.367140
3.632425
3.709848
3.551149
3.139849
2.493368
1.737654
0.863996
-0.200113
-1.522002
-3.022572
-4.422855
-5.545347
-6.322720
-6.753795
-6.841869
-6.591415
-6.020560
-5.147196
-4.179665
-3.361388
-2.778526
-2.372227
-2.027607
-1.559864
-0.662958
0.726203
2.417403
4.142973
5.571213
6.475418
6.777192
6.521737
5.821110
4.851639
3.869925
3.086903
2.536707
2.103984
1.596869
0.846570
-0.087119
-0.966426
-1.643040
-2.210657
-2.730484
-3.000299
-2.894156
-2.529054
-2.102038
-1.695033
-1.339348
-1.048638
-0.748982
-0.466747
-0.053385
0.825865
2.197370
3.759561
5.077391
5.894727
6.189439
5.951405
5.134483
3.697710
1.723483
-0.581974
-2.895200
-4.857657
-6.256763
0.000000
0.000000
0.000000
0.000000
0.000000
0.000000
0.000000
0.000000
0.000000
0.000000
0.000000
0.000000
0.000000
0.000000
0.000000
0.000000
0.000000
0.000000
0.000000
0.000000
0.000000
0.000000
0.000000
0.000000
0.000000
0.000000
0.000000
0.000000
0.000000
0.000000
0.000000
0.000000
0.000000
0.000000
0.000000
0.000000
0.000000
0.000000
0.000000
0.000000
0.000000
0.000000
0.000000
0.000000
0.000000
0.000000
0.000000
