EVENT_NAME: 202302060117
EVENT_ID: 13194
EVENT_DATE_YYYYMMDD: 2023/02/06
EVENT_TIME_HHMMSS: 01:17:32.00000
EVENT_LATITUDE_DEGREE: 37.288
EVENT_LONGITUDE_DEGREE: 37.043
EVENT_DEPTH_KM: 8.6
HYPOCENTER_REFERENCE: AFAD
MAGNITUDE_W: 7.7
MAGNITUDE_W_REFERENCE: AFAD
MAGNITUDE_L: 
MAGNITUDE_L_REFERENCE: 
FOCAL_MECHANISM: 
NETWORK: TK
STATION_CODE: 7901
STATION_NAME: 
STATION_LATITUDE_DEGREE: 36.7088
STATION_LONGITUDE_DEGREE: 37.1123
STATION_ELEVATION_M: 640.0
LOCATION: Kahramanmaras_Pazarck_Turkiye
SENSOR_DEPTH_M: 
VS30_M/S: 463
SITE_CLASSIFICATION_EC8: B
MORPHOLOGIC_CLASSIFICATION: 
EPICENTRAL_DISTANCE_KM: 64.70
EARTHQUAKE_BACKAZIMUTH_DEGREE: 
DATE_TIME_FIRST_SAMPLE_YYYYMMDD_HHMMSS: 2023/02/06 01:17:18.2453950
DATE_TIME_FIRST_SAMPLE_PRECISION: millisecond
SAMPLING_INTERVAL_S: 0.01
NDATA: 3575
DURATION_S: 
STREAM: HNN
UNITS: cm/s^2
INSTRUMENT: sensor = CMG-5T/GURALP | digitizer = 
INSTRUMENT_ANALOG/DIGITAL: 
INSTRUMENTAL_FREQUENCY_HZ: 
INSTRUMENTAL_DAMPING: 
FULL_SCALE_G: 
N_BIT_DIGITAL_CONVERTER: 
PGA_CM/S^2: 53.114
TIME_PGA_S: 
BASELINE_CORRECTION: BASELINE REMOVED
FILTER_TYPE: BUTTERWORTH
FILTER_ORDER: 
LOW_CUT_FREQUENCY_HZ: 
HIGH_CUT_FREQUENCY_HZ: 
LATE/NORMAL_TRIGGERED: 
DATABASE_VERSION: 
HEADER_FORMAT: DYNA 1.2
DATA_TYPE: Acceleration
PROCESSING: Automatic Paolucci et al., 2011
DATA_TIMESTAMP_YYYYMMDD_HHMMSS: 
DATA_LICENSE: U (unknown license)
DATA_CITATION: Turkish Accelerometric Archive v 1.0 - Disaster And Emergency Management Presidency, Earthquake Department
DATA_CREATOR: AFAD
ORIGINAL_DATA_MEDIATOR_CITATION: : AFAD - Disaster And Emergency Management Presidency
ORIGINAL_DATA_MEDIATOR: AFAD PROCESS SERVICE
ORIGINAL_DATA_CREATOR_CITATION: AFAD PROCESS SERVICE
ORIGINAL_DATA_CREATOR: network: TK
USER1: GuestUser
USER2: 
USER3: 
USER4: 
USER5: 
[...]
0.011957
0.003455
-0.018596
-0.022687
-0.020478
0.026786
0.037188
-0.004712
-0.048816
-0.031799
0.023027
0.043195
-0.005636
-0.040288
-0.008778
0.020212
0.013285
-0.028929
-0.026089
0.015188
0.035987
0.007950
-0.033004
-0.053479
-0.012831
0.026871
0.050505
0.040112
-0.027937
-0.068576
-0.046202
0.004842
0.040764
0.040453
0.012731
-0.020661
-0.029479
-0.029474
-0.014347
0.027246
0.029455
0.014337
-0.019371
-0.044257
-0.032910
0.012148
0.037042
0.024129
0.008380
-0.019341
-0.033515
-0.023429
-0.009877
0.017853
0.028254
0.007465
-0.010805
-0.023403
-0.017098
0.001495
0.012842
0.008435
-0.000697
-0.012351
-0.013922
0.000576
-0.000996
-0.010443
0.011616
0.011305
0.001857
-0.011056
-0.019244
-0.014829
-0.010729
0.011960
0.023307
0.030558
-0.004095
-0.050405
-0.047251
0.000328
0.038770
0.040980
0.000026
-0.033366
-0.023595
-0.006578
0.000358
0.006664
0.001942
-0.004040
0.012978
0.003530
-0.016315
-0.033954
-0.025128
0.016465
0.049550
0.027815
-0.011563
-0.051572
-0.039596
0.003887
0.025946
0.021224
-0.007757
0.008000
0.004224
-0.023183
-0.032630
-0.009626
0.014953
0.022519
0.018427
-0.000157
-0.027879
-0.037957
-0.006446
0.028845
0.023809
-0.000132
-0.022497
-0.016822
0.006497
0.007762
-0.007042
-0.016805
-0.005143
0.015970
0.018810
-0.001980
-0.019304
-0.016149
-0.008584
0.004338
0.020726
0.006237
-0.015498
-0.012028
0.003414
0.002158
-0.007289
-0.011696
-0.002240
0.014148
0.018878
-0.000652
-0.020497
-0.033725
-0.016707
0.017009
0.028670
0.016387
0.004419
-0.017631
-0.033380
-0.013842
-0.021084
0.023659
0.039416
0.021777
-0.001218
-0.054775
-0.034292
-0.008452
0.026209
0.043857
0.015821
-0.022613
-0.035841
-0.026700
-0.004957
0.024349
0.021202
0.010494
-0.006515
-0.018168
-0.025410
-0.019735
0.011146
0.029739
0.015250
-0.004910
-0.028535
-0.028531
-0.001432
0.017792
0.019686
0.002677
-0.016538
-0.014013
0.002690
0.002694
-0.006754
-0.003914
-0.007375
0.003656
0.010907
0.004295
-0.006098
-0.013970
-0.009555
-0.005140
-0.000095
0.008416
0.007790
0.001493
0.003703
-0.015827
-0.024329
-0.015188
0.009706
0.028929
0.018221
-0.015801
-0.026194
-0.023354
0.000595
0.021708
0.018562
0.003128
-0.017977
-0.018288
-0.010407
-0.000951
0.001889
0.007564
0.014500
0.012614
-0.014162
-0.030226
-0.025496
0.001603
0.025238
0.031228
0.005082
-0.021379
-0.029252
-0.017590
0.003524
0.016445
0.013299
0.010468
-0.002131
-0.018195
-0.021026
-0.020707
0.003558
0.020890
0.030031
0.003570
-0.020370
-0.030763
-0.019732
0.007998
0.025646
0.021554
0.003915
-0.017505
-0.030734
-0.023798
-0.002999
0.023785
0.034502
0.023164
-0.009599
-0.042361
-0.047083
-0.013052
0.030431
0.056586
0.032960
-0.015870
-0.052098
-0.052724
-0.015858
0.035817
0.057876
0.037716
-0.009854
-0.052069
-0.058051
-0.023074
0.029230
0.056960
0.043102
-0.002578
-0.044793
-0.058651
-0.025565
0.019808
0.050374
0.040926
0.000917
-0.038462
-0.051060
-0.023960
0.018578
0.042842
0.034024
-0.000628
-0.034651
-0.039058
-0.018259
0.019238
0.033420
0.020191
-0.001229
-0.019498
-0.027371
-0.012243
0.005719
0.017066
0.012029
-0.001829
-0.011907
-0.010958
0.004170
0.014256
0.007014
-0.014406
-0.023224
-0.016288
0.013332
0.028459
0.024683
-0.001463
-0.032335
-0.038317
-0.011848
0.018403
0.039516
0.026918
-0.003324
-0.026634
-0.038918
-0.023475
0.002679
0.032614
0.038605
0.020651
-0.013372
-0.036368
-0.043295
-0.016510
0.014686
0.039895
0.040844
0.015328
-0.022475
-0.049566
-0.043576
-0.007024
0.029527
0.047490
0.036152
-0.001966
-0.034729
-0.051108
-0.033145
0.000571
0.035548
0.048154
0.033351
-0.009179
-0.039421
-0.054539
-0.025234
0.016674
0.042198
0.043777
0.019207
-0.021747
-0.046318
-0.040643
-0.012598
0.023639
0.041602
0.043496
0.006008
-0.027384
-0.049120
-0.044705
-0.005002
0.039741
0.057704
0.035969
-0.015382
-0.048460
-0.053182
-0.020096
0.024018
0.046391
0.037574
0.008592
-0.021965
-0.038974
-0.039285
-0.017856
0.024682
0.051151
0.046430
0.006421
-0.040835
-0.060679
-0.037676
0.008643
0.047400
0.048035
0.020628
-0.015600
-0.037335
-0.041427
-0.021258
0.012143
0.038612
0.035466
0.017512
-0.014306
-0.037301
-0.033516
-0.014293
0.011547
0.026359
0.026678
0.015655
-0.005450
-0.025295
-0.026236
-0.022766
-0.001652
0.021982
0.038369
0.021360
-0.008252
-0.031247
-0.032188
-0.015800
0.003423
0.022331
0.028636
0.019819
0.000604
-0.025227
-0.036880
-0.030889
-0.001269
0.038748
0.049780
0.026784
-0.018266
-0.045987
-0.048818
-0.012897
0.022710
0.038152
0.031225
0.008860
-0.017602
-0.029885
-0.027360
-0.010973
0.010141
0.026844
0.030314
0.011099
-0.014732
-0.034892
-0.023545
-0.002747
0.015216
0.027193
0.019005
-0.001155
-0.014383
-0.019735
-0.009018
-0.005549
0.005483
0.012419
0.011793
0.008016
-0.002692
-0.006153
-0.017176
-0.012761
-0.002990
0.010877
0.016238
0.006475
0.001123
-0.005489
-0.008951
-0.010522
-0.013038
-0.001061
0.012176
0.017536
0.011869
0.000846
-0.013958
-0.021515
-0.011744
-0.000712
0.011895
0.014104
0.013163
0.008757
-0.001006
-0.018645
-0.028093
-0.012966
0.010038
0.024850
0.027375
0.009421
-0.013575
-0.024913
-0.029634
-0.015767
0.011962
0.027720
0.028354
0.020167
-0.003144
-0.027399
-0.041573
-0.028651
0.002860
0.036891
0.046032
0.025872
-0.010986
-0.039968
-0.045320
-0.025151
0.012345
0.037555
0.043545
0.023070
-0.007802
-0.038044
-0.046546
-0.026378
0.009544
0.036328
0.042004
0.026255
-0.003672
-0.032969
-0.044622
-0.030440
0.000441
0.034157
0.043928
0.026604
-0.013090
-0.039236
-0.038917
-0.013077
0.021899
0.039862
0.034195
0.000803
-0.023138
-0.036682
-0.037622
-0.007687
0.023193
0.039266
0.046201
0.021316
-0.025625
-0.057127
-0.053657
-0.012064
0.035830
0.052848
0.042455
0.006227
-0.039453
-0.043230
-0.031883
-0.006044
0.036809
0.046895
0.031146
-0.008232
-0.059269
-0.050127
-0.003494
0.033688
0.067404
0.042518
-0.027422
-0.063020
-0.055769
-0.017012
0.041594
0.069009
0.051685
0.008525
-0.050072
-0.073383
-0.046283
0.003501
0.055491
0.062742
0.035651
-0.004358
-0.052874
-0.061061
-0.024195
0.025905
0.059621
0.050173
0.000397
-0.055050
-0.067018
-0.033302
0.033811
0.082020
0.069737
0.009249
-0.061321
-0.090933
-0.055957
0.016512
0.066297
0.073862
0.042675
-0.007416
-0.057191
-0.068845
-0.040485
0.013081
0.056564
0.063184
0.027901
-0.028806
-0.058733
-0.048016
-0.001383
0.039265
0.051872
0.023835
-0.011763
-0.039484
-0.040740
-0.017106
0.017240
0.042134
0.040878
0.011897
-0.028112
-0.041656
-0.033460
0.002777
0.028301
0.039648
0.022008
-0.009809
-0.030284
-0.024923
-0.004125
0.014153
0.020143
0.008175
-0.001587
-0.013241
-0.007250
-0.001890
0.010402
0.013557
0.003164
-0.005969
-0.016046
-0.007851
0.001606
0.013267
0.014847
0.008550
-0.001843
-0.014441
-0.014437
-0.006871
0.009201
0.018027
0.016771
0.001022
-0.012521
-0.019448
-0.010307
0.002299
0.014591
0.020582
0.006408
-0.007451
-0.017213
-0.013113
-0.000506
0.015566
0.015570
0.010218
-0.003640
-0.013718
-0.015604
-0.007408
0.004884
0.014340
0.019700
0.008677
-0.003921
-0.018410
-0.014310
-0.006429
0.005548
0.016579
0.018789
0.007451
-0.008928
-0.013335
-0.013016
-0.000409
0.008102
0.009682
0.007796
0.005594
-0.002278
-0.006370
-0.005105
-0.004156
0.004040
0.003414
0.006254
0.005628
0.001537
-0.001610
-0.006962
-0.003177
-0.001597
0.003763
0.008494
0.008183
0.003776
-0.004096
-0.006297
-0.009759
-0.001563
0.006633
0.010733
0.009792
0.001920
-0.006268
-0.010044
-0.006574
0.000046
0.008557
0.009822
0.013292
0.002269
-0.008754
-0.013791
-0.008431
0.002286
0.010166
0.018047
0.008915
0.000097
-0.009981
-0.012497
-0.007452
0.002635
0.010831
0.013670
0.006743
-0.004280
-0.008056
-0.006162
-0.002062
0.003614
0.007084
0.008348
0.005517
-0.003616
-0.008022
-0.007073
0.003643
0.008374
0.013419
0.005232
-0.002641
-0.008938
-0.010194
-0.002313
0.006198
0.011558
0.010302
0.004320
-0.007018
-0.006698
-0.006379
0.002762
0.005917
0.008442
0.005295
-0.001317
-0.004778
-0.006665
0.001216
0.004371
0.009101
0.005640
-0.000027
-0.003173
-0.006005
-0.002850
0.001565
0.006296
0.006930
0.006304
0.000637
-0.004715
-0.005341
-0.000925
0.004120
0.001919
0.007279
0.001612
-0.001219
-0.002160
-0.001211
0.005095
0.003839
0.003528
-0.002454
0.000386
-0.000240
0.000394
0.004494
0.001033
0.005133
-0.000534
-0.002735
-0.001156
0.003890
0.007360
0.003268
0.000437
-0.003655
-0.003021
0.000449
0.006755
0.003608
0.007709
0.002357
-0.002680
-0.004251
-0.002672
0.003634
0.000172
0.007423
0.007112
0.002706
-0.002016
-0.000121
-0.006103
0.000832
0.008713
0.002731
0.003050
-0.000726
0.001169
0.004323
0.008108
0.009058
0.005281
-0.000386
-0.000381
-0.003213
0.006559
0.010659
0.004677
-0.000360
-0.001301
-0.000982
-0.003498
0.001547
0.004702
0.004706
0.006286
0.006290
-0.002527
0.001888
0.006618
0.014814
0.021750
0.022069
0.017347
0.007584
0.004438
0.011374
0.019255
0.020204
0.022729
0.016432
0.013600
0.008249
0.012034
0.020860
0.026220
0.038197
0.037571
0.029068
0.020881
0.019310
0.023095
0.028140
0.032870
0.020587
0.002633
-0.004925
-0.002085
0.013357
0.022183
0.016201
0.000453
-0.017187
-0.024114
-0.023795
-0.015599
-0.015595
-0.017481
-0.026613
-0.040157
-0.043618
-0.035107
-0.011158
0.011531
0.029809
0.024457
0.016269
0.006192
0.010292
0.017542
0.007149
-0.001353
0.006843
0.034573
0.061988
0.074279
0.038051
0.000878
-0.022433
-0.017387
0.015699
0.061702
0.082816
0.066752
0.037455
-0.007910
-0.018933
0.001550
0.051335
0.085366
0.092617
0.069936
0.039694
-0.000630
-0.028666
-0.007237
0.032465
0.087290
0.092966
0.067135
0.006332
-0.011308
0.029025
0.061481
0.100238
0.107803
0.132698
0.145935
0.124830
0.057725
-0.032379
-0.056634
0.011424
0.104372
0.126430
0.092408
0.038221
0.007034
-0.010605
0.010193
0.075415
0.151665
0.212792
0.183810
0.034789
-0.118328
-0.139433
-0.027581
0.118613
0.166822
0.054349
-0.130590
-0.217543
-0.185087
-0.050866
0.137232
0.276494
0.272718
0.125587
-0.064077
-0.167099
-0.074151
0.171918
0.374824
0.375143
0.209739
-0.067513
-0.267574
-0.261899
-0.107514
0.101693
0.214805
0.153687
0.000255
-0.110958
-0.140570
-0.096142
-0.022412
0.040920
0.066129
0.047229
-0.020190
-0.095801
-0.075948
0.058589
0.202892
0.281032
0.254886
0.170768
0.086336
0.027108
0.064920
0.101786
0.107147
0.100535
-0.010364
-0.158124
-0.204119
-0.103295
0.088898
0.257777
0.272589
0.104979
-0.084055
-0.163761
-0.107991
0.005751
0.035372
-0.020390
-0.121207
-0.204064
-0.139472
-0.031716
0.018069
0.001059
-0.083689
-0.174423
-0.317773
-0.380151
-0.279011
-0.134708
0.027554
0.184145
0.262916
0.196756
0.053722
-0.059697
-0.124911
-0.095921
-0.001713
0.055003
0.036734
-0.019028
-0.065023
-0.075416
0.012176
0.110480
0.090005
0.006202
-0.047669
0.017553
0.215102
0.368543
0.383040
0.372962
0.278132
0.065468
-0.134908
-0.326778
-0.511716
-0.592998
-0.414353
-0.157572
-0.041309
-0.014524
-0.059574
-0.105569
-0.082565
0.036533
0.148385
0.153430
0.192187
0.378394
0.570588
0.603989
0.377147
0.032156
-0.218945
-0.312515
-0.294867
-0.327630
-0.382447
-0.324156
-0.195290
-0.117150
-0.077448
-0.099183
-0.172274
-0.224885
-0.186443
-0.111769
-0.123737
-0.175088
-0.228960
-0.227380
-0.183897
-0.161208
-0.079602
-0.082119
-0.335426
-0.533912
-0.457662
-0.141649
0.309527
0.570719
0.430205
0.033544
-0.266078
-0.179746
0.154856
0.362802
0.221658
-0.183825
-0.571664
-0.565674
-0.068814
0.458607
0.636623
0.430260
0.028558
-0.305721
-0.364633
-0.061223
0.297954
0.489518
0.533001
0.185489
-0.301595
-0.500081
-0.502282
-0.374047
-0.115690
0.184885
0.358489
0.505313
0.608658
0.571485
0.455231
0.210115
0.085669
0.107728
0.112458
0.121284
-0.080352
-0.552314
-0.905496
-0.936368
-0.854762
-0.719596
-0.485499
-0.418071
-0.537791
-0.420898
-0.241308
0.120390
0.726892
0.964770
0.560862
-0.298628
-1.064229
-1.378343
-0.997742
-0.603278
-0.685505
-0.912662
-0.915808
-0.374209
0.396126
1.034450
1.274217
1.239880
1.037298
0.583610
0.243030
0.172145
-0.014368
-0.344866
-0.559105
-0.663072
-0.810202
-0.668419
-0.101615
0.336958
0.594369
0.682276
0.653295
0.420467
0.211899
0.242149
0.117073
0.147008
-0.025643
-0.616383
-1.048016
-1.257214
-0.885120
-0.114154
0.989519
1.521351
0.813406
0.140434
-0.177776
-0.275126
-0.093330
0.541212
0.763022
0.370141
-0.092683
-0.860175
-1.350095
-0.942398
-0.283595
-0.122278
-0.308161
-0.598646
-0.454658
-0.184014
0.123493
0.224318
-0.532777
-1.345007
-0.820736
0.813189
1.732234
1.557378
0.252703
-1.820098
-2.372400
-0.432233
1.770382
1.771332
0.069046
-1.465310
-1.669467
-0.186773
1.198567
1.102162
0.357355
0.096802
0.578223
1.184726
1.458520
0.881328
0.109740
0.180004
0.303513
0.127712
-0.376071
-1.407271
-1.791014
-1.044624
0.030693
0.547087
0.515270
0.236128
-0.182588
-0.066325
0.748749
1.909764
2.292256
1.609516
0.263883
-1.480936
-2.667462
-2.215342
-0.379145
0.292575
-0.219084
-0.736100
-1.392689
-0.849199
0.431539
1.027644
1.086566
0.946051
1.042465
0.443218
-0.404615
-0.547964
-0.824586
-0.626092
0.554142
0.924661
-0.978635
-3.174311
-3.650053
-2.737939
-1.161670
0.861989
2.124139
2.012295
1.617209
0.975429
0.208253
-0.035288
0.817594
1.778228
1.142434
-0.366718
-0.716434
0.143379
0.825497
1.612215
2.594903
3.282062
3.756867
3.093032
0.742345
-1.479796
-0.711981
1.731343
1.909674
0.049226
-1.775304
-2.785080
-2.746008
-1.966851
-1.134763
-0.739668
-0.016278
0.913480
0.882608
-0.065730
-0.897179
-0.687973
0.357729
2.164624
4.152996
4.050920
1.805464
-0.315227
-1.819967
-2.031056
-1.019697
0.170304
0.071693
-1.107587
-1.546781
-1.858375
-2.089313
-1.274553
0.820310
3.084363
4.355020
3.736869
2.365400
1.734962
1.330109
0.918325
-0.053328
-0.775135
-0.670214
-1.516787
-2.922282
-3.235451
-2.105943
-0.063695
1.642065
1.895695
0.721141
-0.299346
-0.143070
0.990534
1.694706
1.800571
1.356336
0.101126
-0.361699
1.204172
2.961288
2.720898
1.961599
0.621951
-0.563314
0.345964
1.599922
1.390409
-1.409244
-3.272842
-1.100158
1.732901
3.757505
4.509567
4.026578
3.083281
1.954412
1.622654
0.009216
-1.525141
-0.895639
-1.229287
-1.974094
-0.803943
1.478699
1.984381
1.615130
0.490042
-2.684222
-2.882708
1.297878
5.230194
6.901297
6.594744
3.452932
-0.641949
-1.816818
0.121774
2.171584
4.477540
6.305230
5.533013
2.896878
-0.687914
-1.365612
1.292586
4.199369
3.422741
-1.456019
-5.869744
-6.739631
-2.373787
3.162204
4.660337
1.912354
-2.023734
-1.231974
4.177046
9.310700
10.842230
6.708596
0.738771
-1.618217
0.330772
2.044408
2.342778
1.272511
-0.777290
-3.044171
-6.025300
-7.132115
-4.774173
0.117512
3.194430
3.507292
2.254918
0.266239
-2.410854
-3.314768
-1.235342
0.759331
3.897056
6.052097
4.132102
0.803772
0.566533
3.451577
6.020927
6.289050
2.562479
-2.625987
-6.861071
-7.815395
-4.079364
-1.194320
0.170540
1.328404
-0.046530
-2.218576
1.233583
7.719176
9.705658
7.779047
0.560938
-8.750769
-10.399809
-5.190854
0.188235
3.298234
2.830999
-0.269225
-3.249410
-3.206872
0.353354
4.289766
6.894087
6.295470
0.840144
-6.449483
-11.451432
-10.892505
-3.295997
6.578423
10.872432
6.780072
-1.711839
-9.029192
-8.066353
-0.938029
6.036858
10.836860
9.243586
2.707906
-4.469559
-8.456057
-9.004264
-7.184451
-0.370876
7.347562
9.555218
6.449953
1.301815
-5.213071
-9.609467
-4.992833
2.928821
6.968259
6.220302
0.787030
-5.187521
-6.181543
-1.225585
2.507926
2.181839
0.291775
0.116604
2.525271
4.167703
5.747122
8.709357
10.634086
9.566654
7.419813
5.596543
1.582004
-2.545328
-5.833960
-11.043221
-14.150061
-10.678054
-2.676688
2.546759
0.463246
-6.392538
-12.660414
-15.529066
-11.215523
-0.679469
9.300497
14.445494
15.274431
13.114673
6.915166
0.276460
-4.292591
-5.804893
-4.040532
-0.700851
1.188591
-0.257548
-3.249074
-2.897774
-0.271398
0.236805
2.000851
2.553162
-4.085859
-11.450471
-12.309961
-7.884255
1.482912
10.646863
11.964149
4.056681
-6.915413
-14.174164
-11.949179
-0.312607
10.499127
14.996353
10.921321
4.771595
3.893201
3.866425
0.309673
-8.873173
-16.599794
-14.208455
-5.487169
3.440484
6.477703
1.385646
-5.606876
-9.101875
-10.539192
-9.620777
-5.998799
-3.491832
2.725642
11.133440
14.359383
13.360635
11.286574
9.113583
6.217520
2.683138
-1.331086
-6.499073
-11.425407
-11.355459
-7.814767
-3.660962
-0.552538
1.832185
2.156390
-0.326939
-5.117480
-10.090129
-7.104264
3.114205
13.485796
15.206363
6.323458
-3.266451
-4.716370
0.337888
1.672818
-6.570508
-14.363923
-13.807516
-2.902522
14.784850
21.628671
14.528712
4.837668
0.709391
1.516904
6.822898
9.339317
0.676641
-8.906021
-11.899753
-11.190225
-11.460861
-11.481966
-14.242551
-18.149653
-15.835505
-11.685165
-12.362863
-12.547486
-2.985610
13.090526
29.142088
35.472669
28.123180
13.962955
-2.551742
-13.512493
-14.912632
-10.299779
-6.483091
-7.705535
-11.514022
-15.245319
-14.546818
-11.951633
-7.111618
-4.102124
-7.332784
-10.296271
-9.061846
-1.649335
6.553041
14.064482
22.805932
28.717794
28.038206
18.600788
-0.730579
-16.297564
-18.383597
-16.334418
-15.426085
-13.529081
-11.884759
-11.337174
-12.471084
-17.222872
-16.220020
-2.828543
12.280663
17.635807
11.312795
-1.064168
-1.269271
13.166328
24.917898
21.626746
6.577096
-2.766118
2.825639
11.968166
7.774986
-10.512890
-21.751528
-14.132965
-3.292875
-2.008040
-14.990556
-26.497628
-25.779594
-11.312173
9.372402
13.551098
5.020118
-3.533860
-5.635647
1.860356
16.358653
29.399464
32.129181
25.514735
14.755940
9.564007
11.270397
14.036347
4.280715
-27.505126
-51.002897
-53.114451
-37.697428
-15.540875
-4.124533
-0.807852
-4.507642
-3.343792
4.182772
13.668403
20.590360
26.588234
34.697036
31.248667
20.038700
4.619480
-8.356419
-13.594666
-12.607567
-12.435223
-15.496064
-9.252755
-9.414378
-12.268537
-4.898875
7.324346
21.092009
25.620111
21.537833
13.728980
3.384809
-8.273179
-15.059334
-23.791324
-33.843432
-30.752336
-17.646622
-5.730903
3.593100
10.803970
11.997436
14.082848
19.711152
25.698315
26.831919
15.876838
4.317151
1.779946
-5.845855
-7.876122
-0.427379
1.283737
-10.642370
-31.774012
-42.276975
-28.519394
8.609623
41.407457
42.665511
10.318857
-15.268103
-13.536193
2.443534
21.315862
29.986423
25.328838
11.036287
-7.433696
-28.196713
-38.711334
-27.088625
-10.839204
0.138569
14.169941
19.597550
7.185615
-9.326246
-18.896621
-13.809911
12.047697
40.484732
46.236542
27.440468
1.913686
-16.653337
-15.937192
-2.431347
7.518688
1.166375
-11.441530
-27.667943
-48.183320
-47.879909
-28.309715
-2.226206
16.026391
21.017636
8.808917
-5.350362
0.526212
16.993028
30.566297
37.648621
37.004950
26.373440
10.829770
2.087698
0.906528
-2.414240
-10.158820
-13.341275
-6.678301
1.754071
5.709702
-0.305177
-13.050765
-17.412820
-9.447687
6.888062
13.531502
-0.524751
-16.231939
-22.267613
-20.013957
-13.869893
-4.788804
3.057865
13.914339
