EVENT_NAME: 202302060117
EVENT_ID: 13194
EVENT_DATE_YYYYMMDD: 2023/02/06
EVENT_TIME_HHMMSS: 01:17:32.00000
EVENT_LATITUDE_DEGREE: 37.288
EVENT_LONGITUDE_DEGREE: 37.043
EVENT_DEPTH_KM: 8.6
HYPOCENTER_REFERENCE: AFAD
MAGNITUDE_W: 7.7
MAGNITUDE_W_REFERENCE: AFAD
MAGNITUDE_L: 
MAGNITUDE_L_REFERENCE: 
FOCAL_MECHANISM: 
NETWORK: TK
STATION_CODE: 0210
STATION_NAME: 
STATION_LATITUDE_DEGREE: 37.7672
STATION_LONGITUDE_DEGREE: 38.2866
STATION_ELEVATION_M: 741.0
LOCATION: Kahramanmaras_Pazarck_Turkiye
SENSOR_DEPTH_M: 
VS30_M/S: None
SITE_CLASSIFICATION_EC8: unknown
MORPHOLOGIC_CLASSIFICATION: 
EPICENTRAL_DISTANCE_KM: 121.92
EARTHQUAKE_BACKAZIMUTH_DEGREE: 
DATE_TIME_FIRST_SAMPLE_YYYYMMDD_HHMMSS: 2023/02/06 01:17:33.0591560
DATE_TIME_FIRST_SAMPLE_PRECISION: millisecond
SAMPLING_INTERVAL_S: 0.01
NDATA: 3540
DURATION_S: 
STREAM: HNE
UNITS: cm/s^2
INSTRUMENT: sensor = ACEBOX/SARA | digitizer = 
INSTRUMENT_ANALOG/DIGITAL: 
INSTRUMENTAL_FREQUENCY_HZ: 
INSTRUMENTAL_DAMPING: 
FULL_SCALE_G: 
N_BIT_DIGITAL_CONVERTER: 
PGA_CM/S^2: 61.375
TIME_PGA_S: 
BASELINE_CORRECTION: BASELINE REMOVED
FILTER_TYPE: BUTTERWORTH
FILTER_ORDER: 
LOW_CUT_FREQUENCY_HZ: 
HIGH_CUT_FREQUENCY_HZ: 
LATE/NORMAL_TRIGGERED: 
DATABASE_VERSION: 
HEADER_FORMAT: DYNA 1.2
DATA_TYPE: Acceleration
PROCESSING: Automatic Paolucci et al., 2011
DATA_TIMESTAMP_YYYYMMDD_HHMMSS: 
DATA_LICENSE: U (unknown license)
DATA_CITATION: Turkish Accelerometric Archive v 1.0 - Disaster And Emergency Management Presidency, Earthquake Department
DATA_CREATOR: AFAD
ORIGINAL_DATA_MEDIATOR_CITATION: : AFAD - Disaster And Emergency Management Presidency
ORIGINAL_DATA_MEDIATOR: AFAD PROCESS SERVICE
ORIGINAL_DATA_CREATOR_CITATION: AFAD PROCESS SERVICE
ORIGINAL_DATA_CREATOR: network: TK
USER1: GuestUser
USER2: 
USER3: 
USER4: 
USER5: 
[...]
-0.124213
-0.126770
-0.123015
-0.121597
-0.123920
-0.123438
-0.126697
-0.129488
-0.126901
-0.125717
-0.125001
-0.123350
-0.128479
-0.129867
-0.125410
-0.127734
-0.127485
-0.124899
-0.128625
-0.129078
-0.129531
-0.129282
-0.126929
-0.130422
-0.128537
-0.124314
-0.130378
-0.132467
-0.128712
-0.129632
-0.131020
-0.131473
-0.130290
-0.129340
-0.132832
-0.132817
-0.130699
-0.133489
-0.130903
-0.128784
-0.135316
-0.134600
-0.128506
-0.134103
-0.135491
-0.129865
-0.136631
-0.138019
-0.128886
-0.132612
-0.135403
-0.132816
-0.138413
-0.136528
-0.132305
-0.136966
-0.135549
-0.135768
-0.141130
-0.137141
-0.134555
-0.138047
-0.135928
-0.138485
-0.141977
-0.136352
-0.137974
-0.141232
-0.133502
-0.136761
-0.141422
-0.137666
-0.141626
-0.139741
-0.137389
-0.141816
-0.137827
-0.140852
-0.147149
-0.140121
-0.139405
-0.143365
-0.141246
-0.141231
-0.144490
-0.145644
-0.142122
-0.141172
-0.143963
-0.144182
-0.143466
-0.145322
-0.146476
-0.143890
-0.144343
-0.146900
-0.142677
-0.143831
-0.146856
-0.143802
-0.147995
-0.146344
-0.141654
-0.150056
-0.148171
-0.142779
-0.150713
-0.145789
-0.141566
-0.150201
-0.148550
-0.148068
-0.151794
-0.147571
-0.148258
-0.150347
-0.147761
-0.150318
-0.151472
-0.149353
-0.150508
-0.149791
-0.146737
-0.150230
-0.155826
-0.153240
-0.152290
-0.150405
-0.145480
-0.152480
-0.158076
-0.151515
-0.152903
-0.155694
-0.150536
-0.153794
-0.156585
-0.152830
-0.156088
-0.157009
-0.150448
-0.154174
-0.157432
-0.152274
-0.156935
-0.158324
-0.151061
-0.154086
-0.157578
-0.157330
-0.158016
-0.154027
-0.156584
-0.158908
-0.153983
-0.156073
-0.161669
-0.162122
-0.158834
-0.156014
-0.158337
-0.159258
-0.160646
-0.161800
-0.159681
-0.158731
-0.159184
-0.159403
-0.159389
-0.161946
-0.164737
-0.160748
-0.159330
-0.162822
-0.163041
-0.162793
-0.163480
-0.162764
-0.163217
-0.161098
-0.159680
-0.164342
-0.164093
-0.161740
-0.166635
-0.163581
-0.163801
-0.168929
-0.161199
-0.164692
-0.171691
-0.163260
-0.165349
-0.167439
-0.164151
-0.170916
-0.167161
-0.162704
-0.169703
-0.165714
-0.166167
-0.174569
-0.169411
-0.164954
-0.167511
-0.168431
-0.170989
-0.169337
-0.167686
-0.170477
-0.168124
-0.168811
-0.172069
-0.170652
-0.172040
-0.171324
-0.172712
-0.173633
-0.166136
-0.170798
-0.177096
-0.169599
-0.174962
-0.176818
-0.165113
-0.172112
-0.178177
-0.169278
-0.176043
-0.177665
-0.167129
-0.178337
-0.179491
-0.167787
-0.180631
-0.177811
-0.167743
-0.181054
-0.176598
-0.172842
-0.180777
-0.171878
-0.174435
-0.181434
-0.174873
-0.179067
-0.180455
-0.174595
-0.178321
-0.181346
-0.179227
-0.180148
-0.177795
-0.176845
-0.181039
-0.176816
-0.179373
-0.185203
-0.178174
-0.182134
-0.183522
-0.176494
-0.182792
-0.180673
-0.180424
-0.186255
-0.177356
-0.182952
-0.189484
-0.178247
-0.180804
-0.185465
-0.181476
-0.185436
-0.186356
-0.181666
-0.183989
-0.187248
-0.181388
-0.182776
-0.189074
-0.183916
-0.185304
-0.187627
-0.180832
-0.186663
-0.188284
-0.184061
-0.189658
-0.184733
-0.183550
-0.192186
-0.185858
-0.185844
-0.190505
-0.183243
-0.189307
-0.191396
-0.186238
-0.192302
-0.188079
-0.186895
-0.196934
-0.190841
-0.188020
-0.193617
-0.187757
-0.189613
-0.196378
-0.187713
-0.188400
-0.196568
-0.190475
-0.194201
-0.198394
-0.185988
-0.191351
-0.198350
-0.188282
-0.197620
-0.199008
-0.187303
-0.196874
-0.195457
-0.189130
-0.201974
-0.197283
-0.191891
-0.199592
-0.190927
-0.193016
-0.202587
-0.193454
-0.195778
-0.201140
-0.193176
-0.196669
-0.199693
-0.194068
-0.197794
-0.200351
-0.198466
-0.200088
-0.198670
-0.195850
-0.200511
-0.204003
-0.198611
-0.196960
-0.199284
-0.198801
-0.201592
-0.202746
-0.199459
-0.200847
-0.201767
-0.201519
-0.202439
-0.202191
-0.203813
-0.202161
-0.200043
-0.202600
-0.203286
-0.203038
-0.205361
-0.204411
-0.203695
-0.206019
-0.204835
-0.203184
-0.206208
-0.205960
-0.203607
-0.206866
-0.207786
-0.204498
-0.206354
-0.208911
-0.207260
-0.207713
-0.208166
-0.205813
-0.209072
-0.209758
-0.205068
-0.207859
-0.208545
-0.205959
-0.210386
-0.209436
-0.207551
-0.212680
-0.211029
-0.210079
-0.211935
-0.209115
-0.212841
-0.213294
-0.207200
-0.211160
-0.214419
-0.210196
-0.213454
-0.214141
-0.211321
-0.214345
-0.213162
-0.210107
-0.212898
-0.217092
-0.215675
-0.210049
-0.214242
-0.217033
-0.211875
-0.217705
-0.217223
-0.210896
-0.217428
-0.217647
-0.214359
-0.217384
-0.218070
-0.217588
-0.216638
-0.215688
-0.216609
-0.219633
-0.218684
-0.216799
-0.219823
-0.217237
-0.217690
-0.222585
-0.218128
-0.219750
-0.222073
-0.217149
-0.219238
-0.218522
-0.218507
-0.224104
-0.222920
-0.221035
-0.220553
-0.219135
-0.222628
-0.224483
-0.221663
-0.220947
-0.223972
-0.223022
-0.220903
-0.223226
-0.223913
-0.228341
-0.227625
-0.220128
-0.225491
-0.225243
-0.220552
-0.228486
-0.225666
-0.222846
-0.228209
-0.222115
-0.223503
-0.230736
-0.227448
-0.226031
-0.228588
-0.227638
-0.225519
-0.228544
-0.229231
-0.228515
-0.231773
-0.226849
-0.224029
-0.232898
-0.230312
-0.227725
-0.232854
-0.227930
-0.229084
-0.233745
-0.230224
-0.232547
-0.232532
-0.229478
-0.234139
-0.232488
-0.229200
-0.236901
-0.232912
-0.226818
-0.237325
-0.235206
-0.227943
-0.236345
-0.231889
-0.228835
-0.240977
-0.234650
-0.228790
-0.238829
-0.232268
-0.231786
-0.243929
-0.234094
-0.232443
-0.241547
-0.232414
-0.237075
-0.242672
-0.231902
-0.239603
-0.239822
-0.228585
-0.241663
-0.242350
-0.233685
-0.240918
-0.236461
-0.236914
-0.244848
-0.235715
-0.237337
-0.245505
-0.237074
-0.237293
-0.242656
-0.239134
-0.242627
-0.243079
-0.237220
-0.243284
-0.245140
-0.238812
-0.242305
-0.240653
-0.239704
-0.246703
-0.241311
-0.239660
-0.243152
-0.236357
-0.243590
-0.250355
-0.239352
-0.241909
-0.245402
-0.237906
-0.239060
-0.235538
-0.229679
-0.230132
-0.222402
-0.223790
-0.235699
-0.238022
-0.242216
-0.241266
-0.230496
-0.230014
-0.225791
-0.213619
-0.214072
-0.218967
-0.218251
-0.229458
-0.252590
-0.262862
-0.264250
-0.255117
-0.222371
-0.197106
-0.185636
-0.179075
-0.200102
-0.216453
-0.213399
-0.212215
-0.186483
-0.171037
-0.192766
-0.197427
-0.204894
-0.212127
-0.162547
-0.111097
-0.080923
-0.041163
-0.039511
-0.066851
-0.087878
-0.128778
-0.138816
-0.124306
-0.139722
-0.112587
-0.091531
-0.136639
-0.144106
-0.161158
-0.209306
-0.217474
-0.240605
-0.234278
-0.206208
-0.203621
-0.121778
-0.113112
-0.214800
-0.202394
-0.239553
-0.289103
-0.128002
-0.012725
0.063507
0.151430
-0.017123
-0.196665
-0.278947
-0.426692
-0.302999
-0.077837
-0.165964
-0.238894
-0.317202
-0.591197
-0.644255
-0.416755
-0.180605
0.050167
0.169418
0.090643
-0.070662
-0.226824
-0.386259
-0.573048
-0.647615
-0.591723
-0.598254
-0.519918
-0.333567
-0.430110
-0.691247
-0.770256
-0.521948
0.154909
0.731702
1.016482
1.291442
0.680311
-0.632680
-1.127147
-1.123391
-0.987307
-0.527179
-0.359064
-0.096261
0.198104
-0.095998
0.023253
0.246778
0.001539
0.249613
0.082229
-0.593197
-0.281297
-0.069462
-0.377124
-0.339234
-0.732934
-1.015347
-0.291028
0.171438
0.329499
1.083978
1.341637
0.626232
0.530390
0.759993
0.079190
-0.012911
0.348554
-0.842862
-1.520626
-0.528843
-0.245232
0.207414
1.338306
0.910472
0.316641
0.188535
-1.676451
-3.160114
-2.647615
-2.739483
-2.853328
-1.655570
-1.186558
-1.412157
-1.622794
-2.831044
-3.499221
-2.824935
-2.166548
-0.470801
1.507138
1.729728
1.990193
2.166724
0.727483
-0.420213
-0.687896
-0.598104
0.102835
0.221853
0.102865
0.185644
-1.040842
-2.159547
-2.174496
-2.455739
-1.670633
0.162586
1.135197
2.160880
2.785134
1.721838
0.445086
-0.761527
-1.849371
-1.591712
-1.360705
-1.876213
-1.616450
-1.428696
-2.050115
-2.449426
-2.517914
-1.489425
0.848095
2.452660
2.354246
1.421644
0.934191
0.976991
1.075434
2.104624
3.307993
3.243012
2.692435
1.502187
0.038631
-0.268330
-0.080576
0.698451
1.444513
0.113052
-1.303043
-1.546412
-2.367493
-2.736878
-2.530186
-2.894895
-2.017206
-0.011444
1.283339
1.765912
0.373897
-2.457607
-3.825773
-3.496806
-2.002593
1.108562
3.697180
4.091611
2.943447
-0.326427
-3.616641
-3.418367
-1.601981
0.372218
2.102332
0.976379
-1.159110
-1.819807
-2.314507
-1.871914
-0.646802
-0.417432
-0.732576
-2.385274
-4.430050
-3.739399
-2.457707
-2.081747
-0.527681
0.693690
0.610239
0.614696
0.862536
2.023120
2.861766
1.619615
-0.164711
-1.740022
-2.112213
-0.116504
1.105101
0.174369
-0.201563
-0.380169
-1.959922
-3.148767
-2.428423
-1.300804
-0.417269
1.194544
1.575414
-0.058347
-0.292129
-0.195556
-1.523510
-0.644184
1.437562
1.320444
0.388075
-0.633370
-0.559476
0.956247
0.440037
-0.337792
1.383204
1.837020
1.456646
2.958808
3.408415
3.253890
4.512903
2.997443
-1.691814
-4.322486
-3.770710
-0.899197
3.131716
4.473961
2.409312
0.170952
-1.396410
-2.750082
-2.794021
-1.048242
1.192018
2.299998
1.433326
-0.902294
-2.511038
-1.870653
-0.440500
0.736917
2.207283
1.943574
-1.221558
-3.278726
-2.667097
-1.784030
-0.276491
0.270843
-2.081143
-1.893857
1.062057
0.939796
0.201479
0.165722
-1.398367
-1.105170
0.469235
0.658626
2.334967
4.988347
5.412703
2.984500
-0.723043
-2.082092
-0.680229
1.194139
2.286454
1.471218
-0.128642
-2.289616
-5.213469
-4.392593
-0.822961
-0.163638
-0.023345
0.872113
-0.562686
-0.903080
1.782797
2.854071
2.166488
1.093139
-2.534444
-5.658195
-3.729119
0.464050
3.685323
5.308826
4.972406
3.793615
2.088546
0.925420
1.637113
1.770626
1.283407
0.332101
-3.035734
-3.219016
0.479437
0.277919
0.080375
2.444314
1.632350
1.824546
3.436126
1.024054
0.170708
1.496120
-0.272542
-1.337474
-0.771903
-1.037015
0.187864
1.696338
0.637251
-1.299277
-2.604084
-3.828700
-4.493838
-1.979334
3.003134
5.419677
4.225689
1.770833
-0.001570
0.606552
1.675020
0.232272
-1.867213
-0.391938
3.426921
3.862968
1.947715
0.940999
-1.772671
-4.927750
-4.617487
-2.431234
0.582895
4.777233
8.026328
9.791278
9.992125
6.717341
2.778339
1.400587
-0.093363
-1.338553
-0.320818
-0.573772
-5.293891
-11.392945
-11.531339
-5.807265
-2.316891
-1.955426
-1.975752
-4.174133
-7.402157
-7.005155
-2.143326
2.576354
5.931360
11.783788
14.120138
6.649629
-0.203188
-1.622556
-4.808030
-8.372956
-10.240513
-12.190368
-9.487657
-3.243385
-1.737482
-2.243872
0.270398
1.797577
2.444976
6.010633
10.482721
13.871160
13.518141
6.453737
-2.276939
-9.565554
-17.271498
-19.496999
-13.216956
-7.982454
-8.991275
-10.327645
-8.787141
-7.422919
-5.263319
-0.058509
7.326693
17.076989
21.887149
14.750736
6.657624
5.391860
3.011585
-2.294195
-5.091565
-5.038946
-1.554183
2.217215
-2.108253
-6.146852
0.434088
5.954056
3.983861
1.562437
1.828513
3.179876
3.587867
7.393400
12.289831
7.284713
-2.538965
-6.050352
-4.782221
-8.035261
-15.761779
-13.444599
-5.781879
-8.344750
-10.503853
-4.509744
-0.183311
-0.129523
2.924118
12.843917
17.286079
13.658963
14.246744
9.718573
-2.115528
-5.546956
-5.671789
-8.686590
-10.132144
-8.627176
-0.285743
10.050683
9.718705
1.041101
-7.179430
-17.438206
-26.702641
-24.363251
-13.524863
-0.267374
9.728409
11.016179
11.744238
10.166355
-4.022085
-16.332432
-11.382227
-2.045051
1.354376
-0.849149
-16.235566
-23.236377
-4.575366
1.049343
-6.274341
2.996203
14.218486
22.169011
19.224115
0.802074
-3.039668
2.522617
1.172453
3.117193
4.299754
1.342935
-2.764634
-5.348079
-0.714437
4.530118
3.613180
-1.318525
-8.366563
-12.756559
-8.738972
-1.001671
3.395603
9.846318
18.709119
17.195063
0.806824
-12.885965
-5.613453
3.750142
-0.894460
3.029842
12.194943
4.808601
-5.107194
-8.863834
-11.329445
-6.001892
3.173263
15.670910
28.941024
18.683183
-5.139574
-10.695752
-4.914164
-3.459931
-4.036460
5.024134
20.262820
12.433666
-14.767696
-28.189515
-23.363223
-5.855768
7.912568
0.695261
1.146037
16.848811
12.021146
-7.929695
-18.130255
-16.711325
-7.688372
6.332932
24.634597
29.742146
10.188293
-10.802479
-16.840044
-11.414063
-5.663571
-6.672391
-4.092190
4.197341
8.273611
2.357152
-8.560698
-9.009107
-4.053058
-6.574780
-10.480583
-11.444514
-4.737324
6.895975
8.621648
4.402323
3.009841
0.058867
-9.058043
-19.796804
-17.295159
-1.449534
9.586179
12.142065
14.480754
11.477877
-0.603115
-6.225924
2.215808
15.171231
16.889188
2.468821
-3.389189
5.188380
10.168978
14.214620
14.045833
9.435600
8.196255
1.840959
-5.311119
-12.760586
-21.390964
-11.116962
11.016172
25.991135
27.754215
5.947024
-19.300728
-11.871572
10.401841
6.836213
-7.183425
-1.248233
4.207675
-8.978009
-23.237523
-23.428521
-8.737387
8.935363
16.853857
18.489751
19.828723
12.918392
-8.725843
-27.189032
-19.620766
7.232033
27.617065
25.897267
7.052755
-10.854464
-20.917084
-26.501317
-19.957551
-6.547626
-4.197715
-2.368237
8.464774
10.871731
-1.841214
-15.029002
-17.409043
-12.254033
-3.130547
-1.183703
-16.437557
-25.154439
-18.681981
-16.224290
-15.514467
-8.928617
4.776360
8.314429
-11.741855
-20.171167
-5.596932
8.342543
23.718469
36.470020
33.646699
13.418574
-10.733370
-11.371856
-2.091259
-10.477084
-13.406783
1.091234
9.086180
9.056035
7.372241
-3.962235
-16.014704
-11.908508
2.004782
5.597793
-1.277234
3.830082
17.029121
18.540635
12.766792
-2.548317
-19.362534
-10.483600
8.108441
10.527088
4.301081
-3.538828
-11.119689
-14.707995
-14.623346
-14.717084
-12.493189
-0.154758
15.120869
19.304919
11.754919
6.270283
7.438817
3.640795
2.755887
7.746538
6.201387
13.672627
23.502647
9.290360
-6.641272
-5.353736
0.874872
3.519133
-5.783645
-20.754137
-17.927981
2.806578
15.838218
11.237571
0.356193
-9.586255
-15.333211
-14.832402
-11.385748
-9.841269
-7.000618
5.293392
14.872782
3.705003
-21.306614
-35.944178
-26.330654
-17.595272
-25.821648
-26.419219
-14.642836
7.335525
31.680848
21.450596
-8.284193
-12.846966
-1.281935
7.916833
11.783854
9.062469
3.686081
-1.529687
-2.298164
-2.469055
-11.224047
-19.716718
-15.062969
6.581296
38.597508
48.675821
19.837878
-6.364468
-4.284359
-0.509220
-2.913810
-5.782254
-8.159490
6.141903
17.850251
-3.497996
-23.602208
-12.235672
8.001600
8.666534
-10.812270
-14.248374
1.992602
1.027969
-4.541769
-2.951933
-9.479304
-12.600950
-19.739000
-20.303138
7.144208
5.951155
-24.208443
-18.604308
6.372502
31.387187
51.526031
34.125684
-1.046996
-16.506591
-18.276656
-13.668731
-3.304483
3.268742
4.458784
9.149707
11.643871
-0.423092
-21.950662
-36.082991
-35.867181
-26.249682
-2.572317
18.111274
5.728684
-8.164236
2.325327
8.682055
8.675523
9.166045
3.647041
4.133588
7.910598
1.495449
-9.731247
-22.982628
-30.909977
-20.071822
-5.207913
-5.564907
-4.936912
7.452253
12.290001
8.648623
4.059431
-7.987426
-9.607860
6.992930
16.333145
22.550998
31.635205
19.640953
-3.123405
-4.525005
3.142391
-4.629950
-12.216423
-6.241252
-2.473594
-3.809497
-6.881578
-12.578268
-10.290547
-3.779746
-6.255411
-10.276943
-2.562787
11.737437
17.977968
14.675363
3.592686
-1.398170
12.636929
16.157229
0.909687
-11.425676
-19.929803
-15.965522
-11.017655
-17.070418
-10.769100
-3.464089
-7.193609
-6.182421
-4.387077
-4.673698
-5.662645
-6.119237
-1.259980
6.222015
16.275078
23.284569
22.815820
25.192851
24.116931
-0.658317
-30.482416
-25.150655
-1.675758
0.383075
-7.854991
-10.841970
-13.308984
-12.173416
-7.814953
-4.221942
-3.134302
0.177685
12.610103
18.616369
14.596240
11.299713
-8.557375
-32.001849
-21.213260
6.791693
19.938595
17.996222
23.101200
39.435227
27.729948
-15.166692
-37.829815
-18.237356
18.487299
28.565847
1.491670
-18.588694
-3.543592
18.652434
13.989128
-1.741439
0.926437
7.744681
1.889477
-10.661213
-18.901149
-10.623309
3.579656
9.942697
14.852221
22.724423
27.907723
10.994376
-19.890930
-25.700076
-9.887650
-1.079791
-3.593097
2.039094
23.167133
19.270683
-20.505933
-40.192583
-18.972661
16.092735
45.366505
47.520728
17.503044
-14.287290
-32.892394
-39.741471
-22.374528
5.935063
8.837904
-7.528591
-12.161269
-12.774505
-24.627544
-29.930285
-18.931278
3.067657
21.485285
9.574030
-15.020492
-17.953932
-15.035893
-18.435525
-13.660435
2.136092
16.014780
9.054416
-15.440976
-30.751877
-25.215777
-8.366461
7.643757
16.037327
11.694090
-2.266865
-8.193143
2.682185
10.685314
2.074341
4.416771
22.612993
19.808843
3.230527
-10.781162
-29.498255
-31.641693
-16.418671
-0.954136
16.947501
13.754546
-9.743467
-13.310029
0.774400
8.999636
4.391507
-2.592470
4.752753
15.628549
15.777492
4.555706
-10.993902
-9.132627
4.854309
13.682976
22.568456
21.503992
0.945979
-27.151762
-41.567219
-23.983779
10.116268
29.716442
22.424554
4.910816
2.021564
1.106028
-15.168585
-25.857781
-12.447155
6.052302
17.548830
29.118302
14.392830
-24.148401
-38.197965
-27.505934
1.334376
38.854410
38.341239
0.977412
-29.299086
-27.709484
0.482741
18.841452
11.876880
5.730364
14.253926
25.421033
22.675800
2.167353
-8.704907
1.954860
3.111002
-3.820137
-1.171900
-3.988441
-8.144173
1.145075
14.732451
15.054872
-4.514178
-25.653411
-29.007452
-7.406206
21.684033
22.640513
10.936636
18.109551
25.643682
16.967481
-0.161428
-16.617233
-22.687765
-11.167857
14.913645
35.298677
29.052798
1.384075
-19.306734
-18.939190
-12.054314
-5.002038
3.306897
7.453540
10.534301
8.597540
-3.327509
-15.669184
-17.654576
-1.390922
13.166479
7.628538
7.173817
12.731193
0.500103
-20.078250
-31.896453
-20.906096
12.420082
30.826254
12.682899
-17.044642
-30.066200
-22.256889
-8.827092
-0.415753
16.005480
37.944329
39.006485
22.331143
1.163621
-22.493842
-28.804015
-9.522273
13.627178
22.443688
12.722646
-5.846921
-10.511629
4.538617
10.338674
0.741545
4.803787
11.944905
-0.001185
-12.433808
-14.711446
-12.513036
-8.432557
-8.884005
-6.097361
8.196317
12.144232
-1.535932
-5.673662
-1.671272
-3.766080
-2.077582
-5.166497
-14.935701
-12.277645
4.381360
29.827402
34.045119
-0.234455
-28.736198
-20.259395
3.971602
5.634850
0.571985
26.629640
41.376885
19.565251
-1.194996
-9.002641
-4.531955
2.303123
13.489167
41.972235
43.437457
-0.456562
-36.694188
-47.391333
-40.186154
-7.083253
29.404332
34.006178
11.259122
-7.597782
-4.102030
7.964495
12.261002
17.640458
33.018955
42.053832
24.143573
-8.605331
-35.857193
-49.530110
-37.587029
-11.636220
4.785715
4.887665
-6.896637
-6.884465
8.087459
17.260977
19.425954
25.031960
46.019487
61.374605
36.090147
-8.825800
-29.132948
-10.470067
18.637473
19.181768
-7.840973
-33.019755
-28.559356
-1.696269
16.349154
16.375821
10.393665
18.754270
28.592941
13.274559
-6.538809
-14.391343
-1.457196
36.576724
49.808495
22.299222
-7.035540
-30.685054
-40.273533
-23.366469
1.261750
15.792030
13.301870
0.163180
-8.114397
-7.702899
-3.719447
-5.626283
-1.665509
18.464684
14.755973
-16.879822
-20.921694
2.300234
14.492542
16.063675
24.639607
35.484308
23.699537
-2.512862
-12.243490
-16.826369
-20.481073
-1.424010
16.441389
6.480004
-16.593200
-36.293644
-39.390508
-32.840897
-15.973812
32.032263
56.674977
18.273790
