EVENT_NAME: 202302060117
EVENT_ID: 13194
EVENT_DATE_YYYYMMDD: 2023/02/06
EVENT_TIME_HHMMSS: 01:17:32.00000
EVENT_LATITUDE_DEGREE: 37.288
EVENT_LONGITUDE_DEGREE: 37.043
EVENT_DEPTH_KM: 8.6
HYPOCENTER_REFERENCE: AFAD
MAGNITUDE_W: 7.7
MAGNITUDE_W_REFERENCE: AFAD
MAGNITUDE_L: 
MAGNITUDE_L_REFERENCE: 
FOCAL_MECHANISM: 
NETWORK: TK
STATION_CODE: 6011
STATION_NAME: 
STATION_LATITUDE_DEGREE: 40.11287
STATION_LONGITUDE_DEGREE: 36.30716
STATION_ELEVATION_M: 1172.0
LOCATION: Kahramanmaras_Pazarck_Turkiye
SENSOR_DEPTH_M: 
VS30_M/S: None
SITE_CLASSIFICATION_EC8: unknown
MORPHOLOGIC_CLASSIFICATION: 
EPICENTRAL_DISTANCE_KM: 320.53
EARTHQUAKE_BACKAZIMUTH_DEGREE: 
DATE_TIME_FIRST_SAMPLE_YYYYMMDD_HHMMSS: 2023/02/06 01:18:04.7409610
DATE_TIME_FIRST_SAMPLE_PRECISION: millisecond
SAMPLING_INTERVAL_S: 0.01
NDATA: 18251
DURATION_S: 
STREAM: HNE
UNITS: cm/s^2
INSTRUMENT: sensor = ACEBOX/SARA | digitizer = 
INSTRUMENT_ANALOG/DIGITAL: 
INSTRUMENTAL_FREQUENCY_HZ: 
INSTRUMENTAL_DAMPING: 
FULL_SCALE_G: 
N_BIT_DIGITAL_CONVERTER: 
PGA_CM/S^2: 6.631
TIME_PGA_S: 
BASELINE_CORRECTION: BASELINE REMOVED
FILTER_TYPE: BUTTERWORTH
FILTER_ORDER: 
LOW_CUT_FREQUENCY_HZ: 
HIGH_CUT_FREQUENCY_HZ: 
LATE/NORMAL_TRIGGERED: 
DATABASE_VERSION: 
HEADER_FORMAT: DYNA 1.2
DATA_TYPE: Acceleration
PROCESSING: Automatic Paolucci et al., 2011
DATA_TIMESTAMP_YYYYMMDD_HHMMSS: 
DATA_LICENSE: U (unknown license)
DATA_CITATION: Turkish Accelerometric Archive v 1.0 - Disaster And Emergency Management Presidency, Earthquake Department
DATA_CREATOR: AFAD
ORIGINAL_DATA_MEDIATOR_CITATION: : AFAD - Disaster And Emergency Management Presidency
ORIGINAL_DATA_MEDIATOR: AFAD PROCESS SERVICE
ORIGINAL_DATA_CREATOR_CITATION: AFAD PROCESS SERVICE
ORIGINAL_DATA_CREATOR: network: TK
USER1: GuestUser
USER2: 
USER3: 
USER4: 
USER5: 
[...]
0.224918
0.181665
0.149868
0.138879
0.144957
0.167635
0.207847
0.252034
0.302300
0.362853
0.421535
0.482088
0.550122
0.621196
0.696946
0.771293
0.841899
0.908063
0.953653
0.974694
0.979603
0.972354
0.948273
0.913436
0.865975
0.786483
0.683611
0.562270
0.415211
0.263242
0.115248
-0.029707
-0.165778
-0.296004
-0.422956
-0.544999
-0.661898
-0.774356
-0.882137
-0.979631
-1.059590
-1.128795
-1.199870
-1.265568
-1.324953
-1.381299
-1.421980
-1.445594
-1.445595
-1.417306
-1.372418
-1.309994
-1.242428
-1.175796
-1.100280
-1.020556
-0.928207
-0.828610
-0.734624
-0.650925
-0.601595
-0.587801
-0.601128
-0.639706
-0.683426
-0.730420
-0.772505
-0.795651
-0.806640
-0.799861
-0.772741
-0.727385
-0.657948
-0.571444
-0.466469
-0.342557
-0.217476
-0.098942
0.016086
0.115449
0.197979
0.274897
0.331475
0.370051
0.403718
0.415874
0.404184
0.378699
0.342460
0.301077
0.255486
0.214337
0.192126
0.187683
0.201944
0.236311
0.281200
0.332401
0.387109
0.443219
0.504941
0.565260
0.618799
0.673507
0.724006
0.766089
0.809107
0.852593
0.891636
0.924835
0.968087
1.027003
1.092466
1.166345
1.252849
1.348004
1.444562
1.537379
1.621779
1.694957
1.765095
1.826583
1.872407
1.913321
1.951896
1.991641
2.031620
2.065520
2.096147
2.123968
2.150386
2.175168
2.197378
2.226602
2.257930
2.290895
2.337420
2.389556
2.445433
2.511129
2.579164
2.645795
2.712427
2.773447
2.819037
2.843118
2.839610
2.807579
2.748662
2.657246
2.534969
2.391417
2.224485
2.034875
1.839420
1.640224
1.437287
1.246274
1.062275
0.886927
0.736828
0.598186
0.474039
0.377480
0.290039
0.215691
0.157241
0.099726
0.044081
-0.009693
-0.055050
-0.088250
-0.106954
-0.101578
-0.072354
-0.020451
0.044544
0.111643
0.189029
0.257531
0.314343
0.376299
0.425395
0.463504
0.502547
0.538785
0.582037
0.626458
0.675321
0.741952
0.814896
0.900699
0.997023
1.092412
1.197386
1.305867
1.420895
1.555795
1.697943
1.850846
2.010529
2.158990
2.300202
2.429024
2.543350
2.655339
2.759845
2.856637
2.946882
3.020761
3.077573
3.119656
3.144204
3.152152
3.150048
3.143033
3.131576
3.116846
3.096739
3.073359
3.056758
3.044133
3.035482
3.047405
3.076862
3.109126
3.147234
3.179030
3.197265
3.218306
3.243556
3.280261
3.340347
3.409082
3.483897
3.567128
3.644982
3.720264
3.791571
3.849319
3.895376
3.928341
3.940965
3.926235
3.882047
3.821726
3.751119
3.679810
3.627205
3.592602
3.570625
3.562208
3.549816
3.525968
3.496976
3.453022
3.395507
3.334953
3.267618
3.192803
3.108401
3.011141
2.905464
2.793240
2.679614
2.570196
2.467325
2.370766
2.276779
2.190273
2.112652
2.034095
1.955539
1.877917
1.792347
1.699529
1.605775
1.507814
1.408215
1.312592
1.218137
1.120643
1.023616
0.935942
0.860191
0.801039
0.764332
0.733704
0.703778
0.672682
0.626857
0.573083
0.516503
0.456884
0.405214
0.365234
0.346998
0.337645
0.321279
0.311225
0.286909
0.235473
0.177023
0.104311
0.019910
-0.069635
-0.174377
-0.286600
-0.403967
-0.526244
-0.639636
-0.743443
-0.836962
-0.917389
-0.989166
-1.057201
-1.125471
-1.197481
-1.280246
-1.371194
-1.464246
-1.559870
-1.645908
-1.718619
-1.777537
-1.811438
-1.830376
-1.830377
-1.805829
-1.777774
-1.739198
-1.679347
-1.615988
-1.555435
-1.503299
-1.470334
-1.455138
-1.458646
-1.476649
-1.502367
-1.528787
-1.545621
-1.552402
-1.544687
-1.516399
-1.476420
-1.434337
-1.394125
-1.355315
-1.326091
-1.311362
-1.304115
-1.301778
-1.298272
-1.287985
-1.270217
-1.239123
-1.208029
-1.180207
-1.151217
-1.134618
-1.126670
-1.120826
-1.129009
-1.150052
-1.186525
-1.240299
-1.298982
-1.355562
-1.401621
-1.421962
-1.409571
-1.361877
-1.284491
-1.186998
-1.079218
-0.969100
-0.862957
-0.767335
-0.689481
-0.630331
-0.585676
-0.550841
-0.514837
-0.462233
-0.396771
-0.320320
-0.231477
-0.152922
-0.091200
-0.040701
-0.009139
0.019150
0.042061
0.041593
0.025461
-0.011714
-0.075307
-0.156670
-0.253228
-0.355866
-0.451957
-0.538931
-0.618656
-0.693472
-0.761742
-0.818321
-0.857366
-0.876304
-0.869992
-0.844743
-0.814584
-0.782087
-0.761045
-0.756370
-0.750993
-0.747955
-0.751229
-0.752866
-0.758478
-0.768765
-0.786535
-0.825579
-0.882860
-0.946922
-1.021737
-1.100995
-1.165524
-1.218363
-1.273773
-1.322170
-1.360514
-1.399558
-1.429719
-1.443981
-1.447956
-1.432994
-1.406576
-1.385067
-1.359818
-1.334101
-1.327087
-1.335738
-1.354677
-1.378992
-1.394190
-1.393489
-1.371747
-1.320546
-1.242224
-1.135146
-1.001648
-0.852486
-0.688127
-0.519560
-0.359877
-0.205806
-0.065995
0.060254
0.179724
0.289374
0.396687
0.492075
0.567124
0.631885
0.681215
0.721194
0.757666
0.784084
0.806060
0.831544
0.866379
0.913138
0.967612
1.030970
1.101109
1.176157
1.248633
1.310589
1.357114
1.381194
1.383298
1.368802
1.340979
1.305441
1.260552
1.219870
1.195087
1.176850
1.160951
1.149495
1.138505
1.125880
1.110682
1.097589
1.092679
1.092210
1.091976
1.095716
1.104132
1.116523
1.129147
1.137563
1.147382
1.149719
1.138029
1.128442
1.112076
1.087994
1.074433
1.059236
1.042869
1.029308
1.010136
0.987223
0.959635
0.936020
0.921992
0.909834
0.908664
0.913106
0.922457
0.941861
0.955655
0.969682
0.983943
0.975058
0.947002
0.902112
0.829166
0.732607
0.620618
0.501381
0.385183
0.286987
0.204924
0.128939
0.065579
0.012273
-0.039397
-0.076572
-0.102991
-0.122397
-0.126840
-0.128243
-0.130114
-0.130816
-0.148820
-0.185994
-0.230884
-0.283255
-0.339367
-0.389400
-0.425172
-0.453462
-0.489000
-0.532487
-0.582286
-0.648218
-0.728411
-0.812579
-0.894642
-0.967588
-1.029778
-1.077474
-1.100620
-1.101088
-1.083554
-1.047316
-0.996583
-0.937433
-0.865190
-0.778218
-0.691480
-0.606145
-0.515900
-0.431733
-0.353178
-0.270882
-0.191626
-0.110966
-0.026332
0.055496
0.129843
0.195539
0.252351
0.296772
0.332075
0.369482
0.395433
0.402913
0.398003
0.376727
0.346332
0.312899
0.275724
0.247434
0.235042
0.241588
0.262863
0.295126
0.342820
0.384669
0.417634
0.460418
0.498994
0.540142
0.594616
0.646051
0.704733
0.774872
0.852258
0.941801
1.034151
1.127201
1.213004
1.289222
1.359594
1.409158
1.443760
1.472048
1.489582
1.497999
1.490984
1.481164
1.469239
1.440014
1.410087
1.380862
1.347662
1.323347
1.301135
1.277053
1.259986
1.249932
1.243618
1.237305
1.234967
1.240343
1.249461
1.270268
1.307207
1.350459
1.397218
1.447717
1.494009
1.535624
1.577473
1.614880
1.637558
1.648078
1.653688
1.656727
1.667715
1.690392
1.725929
1.781572
1.848671
1.917407
1.992923
2.061191
2.110054
2.143720
2.151902
2.129457
2.082931
2.010920
1.913193
1.791384
1.652975
1.504981
1.345998
1.186314
1.032708
0.878869
0.733212
0.602987
0.476502
0.352355
0.238729
0.131415
0.025972
-0.075029
-0.171355
-0.269784
-0.366343
-0.453784
-0.536081
-0.611832
-0.680803
-0.750709
-0.817809
-0.881870
-0.946633
-1.013733
-1.082470
-1.156585
-1.238415
-1.313932
-1.381266
-1.449302
-1.504712
-1.541185
-1.559656
-1.561059
-1.555449
-1.549137
-1.545631
-1.542826
-1.540255
-1.541658
-1.546101
-1.561065
-1.585614
-1.606657
-1.622555
-1.629804
-1.630740
-1.628636
-1.621155
-1.605725
-1.573930
-1.529041
-1.472697
-1.408637
-1.350656
-1.290103
-1.234460
-1.195416
-1.164322
-1.151931
-1.150763
-1.145854
-1.147024
-1.141413
-1.122009
-1.097461
-1.058417
-0.999969
-0.921881
-0.821816
-0.707256
-0.578902
-0.430442
-0.267252
-0.093541
0.096535
0.299237
0.518772
0.763323
1.026578
1.306667
1.603121
1.900510
2.188548
2.467467
2.737503
2.999822
3.256064
3.495471
3.714772
3.923787
4.112226
4.280560
4.432761
4.555270
4.650425
4.716355
4.747683
4.746514
4.699520
4.618625
4.511546
4.374306
4.230754
4.082993
3.934999
3.798461
3.655844
3.513460
3.374818
3.230097
3.093325
2.964268
2.840121
2.726495
2.621285
2.529636
2.451313
2.387954
2.346103
2.320853
2.307058
2.301212
2.302147
2.311264
2.325058
2.341423
2.367607
2.406885
2.448032
2.496428
2.555578
2.610753
2.665695
2.714090
2.742145
2.759679
2.764822
2.750560
2.726244
2.697253
2.657974
2.609344
2.560713
2.510680
2.459244
2.407574
2.354034
2.300260
2.240407
2.172839
2.095685
1.997723
1.882461
1.750832
1.596993
1.430529
1.256817
1.077727
0.906353
0.749942
0.605689
0.478035
0.371189
0.274863
0.193969
0.134818
0.090629
0.065846
0.067248
0.098109
0.160298
0.238853
0.332138
0.438982
0.539515
0.634202
0.723278
0.786169
0.819367
0.818899
0.783127
0.722106
0.627183
0.499529
0.353639
0.193254
0.030062
-0.133363
-0.301931
-0.461148
-0.601193
-0.714585
-0.790102
-0.835927
-0.858373
-0.852061
-0.821902
-0.785430
-0.746153
-0.701732
-0.662221
-0.625048
-0.589511
-0.570574
-0.557015
-0.542754
-0.541819
-0.547197
-0.546029
-0.534106
-0.506986
-0.472618
-0.441758
-0.409962
-0.361333
-0.298208
-0.243500
-0.200249
-0.138293
-0.040099
0.079371
0.199542
0.319479
0.451107
0.581331
0.695190
0.801567
0.896955
0.979018
1.053832
1.114151
1.153194
1.163949
1.154128
1.137528
1.104562
1.060140
1.011509
0.947214
0.873334
0.791972
0.694945
0.595815
0.504867
0.412984
0.328348
0.268729
0.228048
0.197420
0.174975
0.158608
0.150892
0.147618
0.138500
0.131251
0.134758
0.142238
0.154629
0.177774
0.214246
0.263810
0.325298
0.406893
0.505321
0.608191
0.717608
0.818374
0.902774
0.985771
1.056377
1.106877
1.144050
1.164156
1.166493
1.150594
1.124408
1.096586
1.068529
1.054267
1.056371
1.074840
1.119494
1.180982
1.249952
1.322428
1.392567
1.456159
1.506425
1.547105
1.567445
1.568379
1.578899
1.590822
1.602745
1.623085
1.640619
1.667505
1.701405
1.739513
1.797495
1.847994
1.885401
1.918366
1.923976
1.908545
1.881658
1.837002
1.784630
1.729220
1.666561
1.595720
1.516930
1.432528
1.351400
1.271441
1.185636
1.108950
1.043019
0.976386
0.924248
0.890113
0.866032
0.857614
0.862523
0.871173
0.873510
0.863690
0.847090
0.816228
0.771105
0.724344
0.664492
0.592481
0.524913
0.451968
0.376217
0.307012
0.234301
0.164395
0.106179
0.059886
0.028556
0.007280
0.000032
0.009851
0.028554
0.061051
0.102199
0.139138
0.170700
0.184961
0.178648
0.161580
0.127912
0.075307
0.007038
-0.080169
-0.178365
-0.287315
-0.408189
-0.529764
-0.643858
-0.743690
-0.828559
-0.890750
-0.916000
-0.917404
-0.904312
-0.874153
-0.839084
-0.803313
-0.768478
-0.740657
-0.711901
-0.681040
-0.638957
-0.573729
-0.490965
-0.390199
-0.274938
-0.156871
-0.038102
0.076691
0.183536
0.286640
0.383899
0.474144
0.556908
0.627748
0.688768
0.734124
0.764049
0.788364
0.800754
0.801689
0.806832
0.817352
0.830210
0.844705
0.862473
0.882111
0.897307
0.914140
0.929804
0.935414
0.938687
0.943128
0.951778
0.974923
1.010694
1.053478
1.101172
1.146995
1.185104
1.213392
1.233966
1.245188
1.253604
1.266929
1.275579
1.275111
1.268798
1.252665
1.237935
1.228115
1.209411
1.189303
1.167793
1.128281
1.076144
1.011381
0.931422
0.848423
0.765892
0.687335
0.612520
0.541445
0.493282
0.466394
0.443481
0.420101
0.391343
0.356974
0.310448
0.252232
0.199159
0.143983
0.085766
0.040409
-0.005884
-0.059190
-0.109223
-0.157152
-0.207419
-0.260258
-0.305148
-0.332269
-0.353312
-0.371548
-0.379031
-0.393059
-0.419245
-0.446366
-0.490555
-0.556954
-0.630133
-0.719444
-0.819510
-0.921680
-1.037878
-1.152673
-1.255311
-1.353506
-1.430192
-1.476953
-1.505944
-1.521142
-1.519973
-1.505245
-1.487243
-1.467137
-1.452642
-1.460592
-1.487947
-1.528862
-1.581467
-1.635007
-1.681768
-1.725488
-1.769443
-1.804981
-1.835375
-1.869510
-1.895228
-1.905049
-1.902478
-1.882839
-1.852212
-1.822755
-1.794933
-1.767346
-1.737654
-1.707028
-1.679206
-1.650216
-1.618187
-1.590599
-1.568389
-1.544776
-1.512981
-1.480951
-1.453130
-1.419464
-1.386499
-1.368030
-1.366160
-1.379487
-1.403101
-1.428820
-1.449161
-1.467865
-1.484232
-1.491012
-1.496390
-1.501067
-1.500132
-1.498029
-1.488444
-1.466234
-1.431866
-1.390719
-1.349805
-1.303981
-1.254417
-1.206957
-1.158561
-1.103620
-1.037689
-0.975968
-0.924065
-0.874033
-0.832886
-0.799453
-0.780750
-0.784024
-0.798754
-0.833357
-0.886195
-0.946282
-1.027410
-1.122099
-1.213047
-1.294876
-1.355197
-1.398917
-1.418791
-1.408972
-1.385593
-1.336730
-1.269163
-1.208844
-1.144317
-1.089843
-1.054072
-1.021809
-1.001002
-0.982065
-0.955179
-0.927591
-0.894393
-0.864935
-0.839686
-0.808825
-0.781939
-0.750377
-0.710632
-0.671121
-0.627168
-0.587189
-0.555160
-0.529677
-0.514013
-0.504662
-0.504896
-0.508637
-0.511677
-0.516354
-0.506301
-0.491573
-0.475909
-0.438035
-0.395952
-0.355739
-0.310150
-0.278120
-0.265729
-0.272510
-0.303138
-0.355276
-0.421441
-0.499296
-0.596089
-0.702935
-0.811885
-0.932759
-1.055971
-1.177780
-1.309175
-1.448285
-1.593473
-1.740299
-1.878474
-2.004725
-2.115779
-2.207896
-2.288790
-2.353553
-2.400313
-2.451048
-2.494067
-2.518149
-2.545971
-2.573093
-2.599045
-2.639258
-2.684850
-2.737455
-2.805257
-2.885683
-2.974995
-3.067579
-3.168580
-3.283609
-3.397469
-3.500340
-3.601342
-3.701641
-3.794927
-3.884472
-3.973316
-4.067537
-4.163394
-4.250134
-4.332665
-4.407013
-4.467333
-4.519237
-4.551034
-4.571609
-4.594522
-4.612525
-4.630995
-4.649934
-4.673080
-4.711891
-4.757482
-4.810555
-4.874382
-4.943587
-5.020507
-5.100934
-5.181828
-5.265996
-5.358580
-5.463322
-5.574610
-5.699926
-5.842076
-5.982822
-6.117023
-6.242339
-6.351990
-6.442704
-6.511208
-6.563813
-6.599350
-6.618756
-6.631382
-6.629045
-6.612913
-6.593275
-6.563583
-6.523839
-6.480119
-6.427282
-6.366261
-6.302669
-6.233232
-6.158651
-6.083369
-6.003411
-5.917608
-5.831338
-5.748107
-5.665811
-5.582346
-5.503790
-5.429911
-5.354395
-5.280750
-5.209209
-5.130653
-5.045318
-4.952969
-4.844955
-4.725719
-4.601573
-4.471349
-4.334578
-4.187521
-4.036021
-3.884053
-3.722500
-3.559310
-3.396120
-3.224514
-3.050569
-2.874287
-2.686080
-2.487353
-2.281613
-2.070260
-1.852830
-1.628853
-1.408616
-1.201239
-0.999940
-0.809863
-0.637088
-0.471560
-0.316086
-0.179315
-0.055169
0.053546
0.132101
0.188212
0.236373
0.270507
0.295990
0.324279
0.349295
0.373609
0.395118
0.410080
0.420834
0.418963
0.409143
0.391607
0.358641
0.316323
0.266056
0.208074
0.148923
0.082757
0.014020
-0.049106
-0.107556
-0.156654
-0.198037
-0.233808
-0.267242
-0.308391
-0.352813
-0.399573
-0.462465
-0.534943
-0.613967
-0.705383
-0.797967
-0.894994
-0.999268
-1.094424
-1.176721
-1.252706
-1.315598
-1.367736
-1.427121
-1.492117
-1.554074
-1.618837
-1.676585
-1.728489
-1.785302
-1.838141
-1.894721
-1.962990
-2.033831
-2.107478
-2.185801
-2.269969
-2.354838
-2.432693
-2.504937
-2.562452
-2.604770
-2.637736
-2.658077
-2.675378
-2.689173
-2.691512
-2.689642
-2.689175
-2.688474
-2.684968
-2.682163
-2.684034
-2.688477
-2.694556
-2.703208
-2.713963
-2.722146
-2.727992
-2.731032
-2.723317
-2.707420
-2.680066
-2.640555
-2.597771
-2.550077
-2.495837
-2.429906
-2.344805
-2.241467
-2.118724
-1.976342
-1.811750
-1.631727
-1.442819
-1.244092
-1.045833
-0.842664
-0.633649
-0.433753
-0.230818
-0.024142
0.177624
0.382898
0.588872
0.793211
1.003628
1.215447
1.425396
1.634644
1.848568
2.057582
2.250464
2.440541
2.625708
2.793807
2.954425
3.107562
3.244099
3.368244
3.482103
3.580063
3.667971
3.747461
3.812690
3.869502
3.912052
3.940809
3.973773
4.003933
4.033390
4.072901
4.113114
4.159405
4.213178
4.266717
4.318385
4.360234
4.403954
4.455155
4.501680
4.554283
4.611095
4.661361
4.707185
4.745761
4.781531
4.809586
4.824081
4.832029
4.820339
4.791347
4.750432
4.686605
4.614127
4.531128
4.430361
4.334269
4.232099
4.118473
4.005782
3.881401
3.746500
3.605052
3.454018
3.299244
3.140962
2.984084
2.841934
2.717787
2.601122
2.487262
2.380883
2.279415
2.188701
2.112950
2.039069
1.969864
1.906037
1.835663
1.765524
1.700293
1.640908
1.592512
1.556740
1.535698
1.521669
1.515823
1.519797
1.523070
1.530083
1.539201
1.544577
1.555331
1.571930
1.599518
1.644874
1.701686
1.777903
1.873759
1.978733
2.087682
2.192657
2.290149
2.374783
2.442818
2.495655
2.524178
2.536335
2.536334
2.506641
2.459881
2.406808
2.339006
2.260216
2.170437
2.072008
1.966565
1.847795
1.715465
1.561860
1.396097
1.225658
1.048205
0.878468
0.717147
0.568919
0.439160
0.320391
0.224066
0.147847
0.081448
0.036324
0.008502
-0.007163
-0.011840
-0.013945
-0.012543
-0.003191
0.010368
0.019486
0.031409
0.048241
0.059697
0.076997
0.101078
0.125626
0.157421
0.192023
0.230131
0.267772
0.295827
0.319206
0.336039
0.346325
0.348428
0.345856
0.350999
0.354739
0.364090
0.386067
0.409913
0.448021
0.483324
0.504599
0.528913
0.532420
0.521430
0.512779
0.491503
0.477475
0.472330
0.459237
0.450820
0.444039
0.435622
0.424165
0.403824
0.383483
0.354725
0.318486
0.286221
0.249514
0.215847
0.186621
0.159968
0.141965
0.120922
0.111804
0.115544
0.106191
0.107827
0.116243
0.112502
0.121152
0.124892
0.120916
0.130969
0.130501
0.129097
0.143826
0.158321
0.178427
0.209755
0.247863
0.292050
0.332730
0.368734
0.396789
0.415726
0.433962
0.441209
0.434194
0.424374
0.414320
0.410579
0.409877
0.411513
0.424137
0.438632
0.452425
0.467387
0.472063
0.463178
0.440733
0.405896
0.358201
0.305830
0.251354
0.187059
0.123232
0.066418
0.015918
-0.024998
-0.061471
-0.086721
-0.106829
-0.137457
-0.169254
-0.211338
-0.270022
-0.333382
-0.409133
-0.490027
-0.561570
-0.627735
-0.684548
-0.728269
-0.757728
-0.768016
-0.764977
-0.752587
-0.728039
-0.703724
-0.679878
-0.646212
-0.610441
-0.569527
-0.525107
-0.491440
-0.461047
-0.439305
-0.444917
-0.466661
-0.497289
-0.538204
-0.582626
-0.631023
-0.691577
-0.768263
-0.848456
-0.914154
-0.965122
-1.005336
-1.042978
-1.097687
-1.163385
-1.217159
-1.264621
-1.306705
-1.337801
-1.379183
-1.428515
-1.475042
-1.533024
-1.589603
-1.633558
-1.677980
-1.725208
-1.781788
-1.845381
-1.903363
-1.949188
-1.978881
-2.004833
-2.032422
-2.043879
-2.042009
-2.033126
-2.008811
-1.981691
-1.953870
-1.914827
-1.875316
-1.838376
-1.793488
-1.739248
-1.664667
-1.573253
-1.482540
-1.380839
-1.263240
-1.153823
-1.045810
-0.928678
-0.822067
-0.725977
-0.637369
-0.565126
-0.496156
-0.428590
-0.364062
-0.297898
-0.238982
-0.185677
-0.137048
-0.099173
-0.069248
-0.047739
-0.037920
-0.034180
-0.033246
-0.044235
-0.067381
-0.087722
-0.104557
-0.121157
-0.131912
-0.131913
-0.114379
-0.083050
-0.040266
0.019585
0.084814
0.154952
0.234209
0.312297
0.389449
0.462393
0.530428
0.600566
0.668834
0.734998
0.803266
0.877847
0.952661
1.021397
1.097848
1.176637
1.247243
1.315979
1.373960
1.422589
1.464672
1.493195
1.524523
1.553981
1.569644
1.586010
1.600037
1.605413
1.610089
1.613595
1.617569
1.631128
1.652170
1.676250
1.706409
1.735633
1.757142
1.774676
1.786131
1.789871
1.789871
1.788000
1.791272
1.800390
1.808104
1.822131
1.841770
1.853927
1.861174
1.860004
1.853457
1.849248
1.840129
1.838492
1.846908
1.855558
1.875196
1.892029
1.903017
1.930838
1.954918
1.973388
2.003781
2.029030
2.048668
2.067839
2.081165
2.099167
2.113661
2.120207
2.129091
2.127453
2.118802
2.110852
2.087940
2.053337
2.014760
1.967065
1.910719
1.846190
1.776284
