EVENT_NAME: 202302060117
EVENT_ID: 13194
EVENT_DATE_YYYYMMDD: 2023/02/06
EVENT_TIME_HHMMSS: 01:17:32.00000
EVENT_LATITUDE_DEGREE: 37.288
EVENT_LONGITUDE_DEGREE: 37.043
EVENT_DEPTH_KM: 8.6
HYPOCENTER_REFERENCE: AFAD
MAGNITUDE_W: 7.7
MAGNITUDE_W_REFERENCE: AFAD
MAGNITUDE_L: 
MAGNITUDE_L_REFERENCE: 
FOCAL_MECHANISM: 
NETWORK: TK
STATION_CODE: 2409
STATION_NAME: 
STATION_LATITUDE_DEGREE: 39.2808
STATION_LONGITUDE_DEGREE: 38.49109
STATION_ELEVATION_M: 897.0
LOCATION: Kahramanmaras_Pazarck_Turkiye
SENSOR_DEPTH_M: 
VS30_M/S: 875
SITE_CLASSIFICATION_EC8: A
MORPHOLOGIC_CLASSIFICATION: 
EPICENTRAL_DISTANCE_KM: 255.09
EARTHQUAKE_BACKAZIMUTH_DEGREE: 
DATE_TIME_FIRST_SAMPLE_YYYYMMDD_HHMMSS: 2023/02/06 01:17:53.4737600
DATE_TIME_FIRST_SAMPLE_PRECISION: millisecond
SAMPLING_INTERVAL_S: 0.01
NDATA: 18251
DURATION_S: 
STREAM: HNZ
UNITS: cm/s^2
INSTRUMENT: sensor = CMG-5T/GURALP | digitizer = 
INSTRUMENT_ANALOG/DIGITAL: 
INSTRUMENTAL_FREQUENCY_HZ: 
INSTRUMENTAL_DAMPING: 
FULL_SCALE_G: 
N_BIT_DIGITAL_CONVERTER: 
PGA_CM/S^2: 13.073
TIME_PGA_S: 
BASELINE_CORRECTION: BASELINE REMOVED
FILTER_TYPE: BUTTERWORTH
FILTER_ORDER: 
LOW_CUT_FREQUENCY_HZ: 
HIGH_CUT_FREQUENCY_HZ: 
LATE/NORMAL_TRIGGERED: 
DATABASE_VERSION: 
HEADER_FORMAT: DYNA 1.2
DATA_TYPE: Acceleration
PROCESSING: Automatic Paolucci et al., 2011
DATA_TIMESTAMP_YYYYMMDD_HHMMSS: 
DATA_LICENSE: U (unknown license)
DATA_CITATION: Turkish Accelerometric Archive v 1.0 - Disaster And Emergency Management Presidency, Earthquake Department
DATA_CREATOR: AFAD
ORIGINAL_DATA_MEDIATOR_CITATION: : AFAD - Disaster And Emergency Management Presidency
ORIGINAL_DATA_MEDIATOR: AFAD PROCESS SERVICE
ORIGINAL_DATA_CREATOR_CITATION: AFAD PROCESS SERVICE
ORIGINAL_DATA_CREATOR: network: TK
USER1: GuestUser
USER2: 
USER3: 
USER4: 
USER5: 
[...]
-1.651049
-1.642190
-1.638393
-1.746911
-1.875993
-1.759565
-1.374847
-0.848075
-0.257394
0.404156
1.086903
1.610512
1.863932
1.873108
1.674421
1.243513
0.575003
-0.276374
-1.148000
-1.848464
-2.350242
-2.774823
-3.189280
-3.553749
-3.758446
-3.721746
-3.497116
-3.100376
-2.476475
-1.702927
-0.978101
-0.496887
-0.266879
-0.247896
-0.489293
-0.934123
-1.375788
-1.511831
-1.355223
-1.179632
-1.092944
-0.984109
-0.884765
-0.936019
-1.232782
-1.800051
-2.571700
-3.328797
-3.788812
-3.927070
-3.810009
-3.497109
-3.096889
-2.798543
-2.694770
-2.499563
-1.948430
-1.029980
0.006480
0.930942
1.788964
2.532140
2.952292
2.880474
2.506830
2.128757
1.828513
1.505173
1.169811
1.051485
1.223596
1.438418
1.455819
1.290669
1.086605
0.837931
0.533890
0.253894
0.187139
0.345961
0.509846
0.622478
0.790476
1.182470
1.660204
2.065486
2.365414
2.435967
2.220197
1.954754
1.839593
1.799096
1.747527
1.803526
1.936406
1.889898
1.735189
1.752274
1.982915
2.298978
2.580873
2.803921
2.890293
2.758046
2.471407
2.131615
1.856365
1.655781
1.586177
1.635849
1.712730
1.766515
1.799418
1.817452
1.781069
1.777589
1.940208
2.172431
2.301831
2.326825
2.402124
2.641623
2.956105
3.085821
2.805825
2.003803
0.864521
-0.137137
-0.818935
-1.238137
-1.401073
-1.097981
-0.483571
-0.071961
-0.063419
-0.223823
-0.321267
-0.289629
-0.126377
0.122298
0.325730
0.167857
-0.577850
-1.720296
-2.909250
-3.917236
-4.655982
-5.092585
-5.082144
-4.785696
-4.503169
-4.366493
-4.276324
-4.067197
-3.685010
-3.157605
-2.503332
-1.702259
-0.794565
0.087818
0.886044
1.583977
2.152196
2.383469
2.260398
1.874415
1.367575
0.969886
0.737980
0.726591
0.740196
0.512403
-0.047273
-0.799940
-1.448201
-1.975289
-2.598873
-3.154752
-3.402793
-3.575536
-3.884639
-4.170329
-4.235187
-3.884954
-3.410385
-2.764970
-2.077160
-1.471610
-1.184020
-1.088473
-0.880612
-0.705653
-0.455397
-0.364912
-0.533226
-0.924903
-1.269440
-1.377009
-1.211859
-0.867954
-0.490513
-0.233612
-0.350989
-1.002098
-2.003439
-2.747247
-3.126270
-3.204731
-3.121840
-3.003197
-2.961751
-2.896260
-2.601078
-2.290076
-2.050577
-1.854737
-1.736095
-1.761721
-2.001853
-2.143275
-2.132517
-2.034756
-1.892701
-1.777539
-1.190021
-0.782841
-0.884082
-1.404526
-1.697810
-1.625042
-1.695278
-1.608590
-1.267532
-0.752782
-0.483859
-0.296879
-0.094712
0.035320
0.101128
0.490275
1.215101
2.137664
3.031753
3.495249
3.398437
3.105470
2.673929
2.019972
1.507121
1.069885
0.835448
0.745280
0.672513
0.796534
1.226494
1.598241
2.163295
3.014673
3.861937
4.505137
4.885426
5.345759
5.723200
5.869367
5.829820
5.734590
5.747562
5.793121
5.733326
5.808308
5.929798
5.484019
4.815509
4.157124
3.765763
3.457925
3.074790
2.582820
2.243661
1.819080
1.244535
0.651640
0.519077
0.309951
-0.306989
-0.884382
-1.621862
-2.227096
-2.564990
-2.139459
-1.050480
-0.163667
0.390313
0.687394
1.134755
1.943422
2.750823
3.565817
3.775261
3.577207
3.106118
2.891930
2.560048
1.939311
1.351162
1.045856
0.813317
0.757951
0.728844
0.408352
0.070142
-0.106714
-0.635700
-1.427914
-2.074594
-2.768098
-3.096816
-3.287909
-3.208181
-2.810492
-2.227087
-1.626915
-1.202966
-0.830270
-0.590771
-0.427519
-0.309192
-0.037106
0.359002
0.694365
1.533087
2.258229
2.448690
2.565751
2.748302
3.142195
2.948571
2.194322
1.865921
1.591303
1.542265
1.351172
1.047764
0.572562
0.167280
0.359956
0.631410
0.850661
1.064218
1.757722
2.432560
2.739132
2.458504
2.039301
1.747283
1.065169
0.371032
-0.242744
-0.747053
-1.045715
-1.568374
-2.178670
-2.640584
-2.403615
-2.210623
-2.806682
-3.433114
-3.680206
-3.766577
-3.341046
-2.406461
-1.646200
-1.233957
-1.146320
-1.001101
-1.016604
-1.329503
-1.419987
-1.204216
-1.245978
-1.593995
-1.929674
-2.240991
-2.311860
-2.750678
-3.357810
-3.695703
-3.690008
-4.110793
-5.092835
-5.461733
-5.375994
-5.052654
-4.871051
-4.364211
-3.734615
-3.443229
-3.192656
-2.790221
-2.846220
-2.974986
-2.317233
-1.545583
-1.097273
-0.683448
-0.206664
0.398887
0.616873
0.732985
0.709573
0.699449
0.625100
0.777279
0.899402
0.602954
0.110984
-0.543288
-1.054874
-1.707248
-2.139106
-2.375758
-2.236867
-1.708196
-0.887191
0.053406
0.687114
1.236033
1.685293
2.080767
2.076655
1.817540
1.872274
1.886511
1.631193
1.247425
0.724450
0.371687
-0.027267
-0.430018
-0.724251
-0.442673
0.527663
1.497051
2.043439
2.062738
2.283571
2.270284
2.190240
2.069067
1.877025
2.226941
2.316477
1.949476
1.596081
1.549257
1.280967
0.379918
0.006274
0.212238
0.596639
0.649475
0.498246
1.182575
1.736872
1.528062
1.119616
0.710221
0.661183
0.122072
-0.415140
-0.689757
-0.639769
-0.707474
-1.117185
-1.465835
-1.099467
-0.139888
0.746924
2.094702
3.612375
4.591570
5.115495
5.697318
5.710289
5.253121
4.970911
5.124355
5.395176
5.320511
4.840247
4.150223
3.698434
3.844601
3.875290
4.097389
4.342267
4.101503
3.774999
3.157426
2.208921
1.728024
1.548953
1.312935
0.802614
0.322983
-0.030412
-0.248714
-0.449299
-0.445185
-0.239222
0.272048
1.008263
1.753338
2.171592
2.389894
2.609145
2.890723
3.119783
3.585494
3.700340
3.289679
3.447869
3.814870
3.942371
3.830373
3.512412
3.250766
3.493113
3.812657
3.914848
3.569678
2.973303
2.545241
2.270941
1.661277
1.317057
1.013649
1.216448
1.370209
0.845336
0.698536
0.752637
0.455557
0.323943
0.303062
0.966827
1.554977
1.884645
2.221589
1.815042
1.448991
1.245559
0.870017
0.618179
0.703285
0.363178
0.307811
0.326478
0.480239
0.506499
0.028133
-0.827674
-1.781241
-2.996455
-4.410988
-5.203835
-5.464848
-5.706562
-6.003326
-6.270033
-5.897021
-5.700866
-5.690741
-5.276284
-4.593853
-4.392002
-4.729263
-5.250656
-5.776479
-6.286166
-7.055601
-7.521944
-7.547887
-7.571299
-8.089528
-8.435647
-8.018026
-7.190693
-6.486432
-5.679980
-4.522663
-3.418181
-3.151157
-3.565930
-4.180972
-4.584356
-4.761844
-5.008620
-5.187691
-5.186109
-5.055127
-5.193068
-5.569243
-5.441109
-5.364545
-5.311393
-5.049114
-4.643199
-4.292334
-3.946214
-3.745313
-3.727912
-3.875344
-4.308468
-4.851691
-4.683377
-4.052199
-4.068967
-4.190140
-4.038911
-3.538398
-3.484929
-3.741196
-3.432410
-3.175826
-3.022065
-2.829073
-2.521552
-1.851143
-1.188644
-0.735272
-0.490710
-0.213245
0.250884
0.306251
0.113893
-0.046195
0.110729
0.783669
1.415163
1.816965
2.177638
2.426629
2.379806
1.869169
1.197179
0.906743
0.704260
0.891557
1.138966
1.021906
0.665979
0.251206
0.201851
0.155027
-0.002213
-0.037015
0.023414
-0.248356
-0.460646
-0.705840
-1.185471
-1.718887
-2.035583
-1.847653
-1.819811
-1.804308
-1.255073
-0.483423
-0.072446
0.145224
0.735905
0.717555
0.427119
0.434080
0.649851
0.800131
0.548926
0.530260
0.645423
1.093733
1.433841
1.808435
2.687338
3.417858
3.748475
3.558331
3.153682
2.792061
2.538008
2.391525
2.265289
2.012502
1.469595
0.910553
0.501158
0.659981
0.913085
0.857402
0.499577
-0.043963
-1.095608
-2.051707
-2.405736
-2.503497
-2.238054
-1.947934
-2.028294
-1.874533
-1.684072
-1.368958
-1.132938
-0.991833
-0.787451
-0.248340
0.212942
0.454656
0.689726
1.096591
1.773010
2.818013
3.359655
3.189126
2.805042
2.084329
0.819760
-0.762137
-1.663186
-1.715705
-1.545176
-1.459437
-0.946902
-0.674815
-0.189805
-0.269848
-0.200245
-0.179680
-0.048066
0.607790
0.889684
0.488515
0.146509
-0.206254
-0.628304
-1.074399
-1.326553
-1.016185
-0.801046
-0.651082
-0.598563
-0.730493
-1.165514
-1.717597
-2.024485
-1.852374
-1.821685
-1.772962
-1.449305
-1.159818
-0.812749
-0.382472
0.265157
0.968785
1.239923
1.640460
2.235570
2.701281
2.943312
2.953753
2.605419
2.656989
2.618075
2.359593
2.276385
2.175461
1.733479
1.067183
0.499599
0.121525
0.162971
0.581542
1.085535
1.299091
1.082372
1.158619
1.305103
1.263341
1.312697
1.423114
1.731268
1.751200
1.762590
1.927740
2.032462
1.802455
1.504425
1.776512
1.986905
2.307081
2.545315
2.491531
2.762669
2.717743
2.071063
1.434824
0.617616
-0.364742
-0.910181
-0.987693
-0.903852
-0.897208
-0.366956
-0.025898
0.105083
0.152857
0.408175
0.594523
0.702725
1.054856
1.362377
1.723683
2.198253
2.876255
3.673848
3.998770
4.197773
4.186067
4.227830
4.267377
4.182272
4.253774
4.296485
4.042749
3.323302
2.262165
1.600616
0.770436
-0.314113
-1.237625
-1.788125
-2.160187
-2.725557
-2.864764
-3.025168
-3.575985
-3.781948
-4.060045
-4.173942
-4.069852
-4.018599
-3.533588
-3.050160
-2.712899
-2.656583
-2.297809
-2.247504
-2.538573
-2.865709
-2.859698
-2.809393
-2.941639
-2.755924
-2.200361
-1.943461
-1.801406
-1.558426
-0.931994
-0.408386
0.025371
0.253164
0.207922
0.569861
1.147570
1.966045
2.491551
2.724723
2.919297
2.499145
1.531657
0.810628
0.343019
0.188310
-0.012907
-0.275186
-0.776647
-1.766282
-2.693591
-3.232701
-4.001820
-4.980382
-5.520125
-5.461594
-5.096808
-5.006956
-4.961397
-4.817444
-4.207464
-3.257060
-2.550584
-2.426246
-2.545837
-2.651192
-2.483194
-2.387014
-2.349681
-2.240846
-2.289252
-3.096020
-4.616856
-6.132631
-6.890992
-7.322534
-7.818300
-8.006546
-7.890751
-7.183958
-6.588848
-6.488555
-6.537910
-6.027590
-5.630849
-5.609968
-6.007973
-6.080424
-5.739999
-5.447031
-5.712157
-5.976018
-5.579277
-4.573190
-3.157707
-1.959261
-0.912044
0.064303
0.926438
1.307992
1.120379
0.941942
1.428850
2.003712
2.298262
2.197970
2.107169
2.503909
2.918367
3.255944
3.294859
3.312893
3.587827
3.817519
3.762153
3.915914
3.997224
4.048161
3.710901
3.268919
3.354341
3.832708
4.454077
4.637261
4.680606
4.461988
4.038039
3.729569
3.376806
3.243611
2.938621
2.671281
2.699439
2.483985
1.737329
1.161835
1.365267
1.994230
2.598832
2.939889
3.614727
4.232301
4.594239
4.841648
4.699278
4.428141
4.686623
5.183972
5.793003
6.252703
6.717781
7.009483
7.058206
6.802572
6.624450
6.508339
6.241315
5.362413
4.211108
3.394849
2.801004
2.162551
1.412415
0.575275
-0.142274
-0.670311
-1.010103
-1.077175
-0.784840
-0.248892
0.406646
0.552498
0.315213
0.033636
0.071285
0.585719
1.375719
2.000885
2.440969
3.110429
3.606196
3.831775
3.535011
3.185728
2.690911
2.082830
1.937928
1.894901
1.677232
0.956203
0.163040
-0.219147
-0.684541
-1.032558
-1.737452
-2.059526
-1.966826
-1.901652
-1.806738
-1.790286
-1.768771
-1.719100
-1.593180
-1.412527
-1.476436
-1.634942
-1.347985
-0.725350
0.489865
1.862320
3.149352
4.350962
5.007450
4.680630
3.942517
3.077852
2.395105
1.687997
0.541437
-0.630749
-1.696315
-2.327176
-3.059278
-3.870158
-4.632317
-4.971792
-4.916109
-4.900289
-4.727546
-4.476340
-3.484490
-2.765042
-2.282247
-1.558054
-0.548802
0.406348
0.463297
-0.183699
-0.968321
-1.637463
-2.052237
-2.245228
-2.013954
-1.468199
-1.263501
-1.732692
-2.854257
-4.076115
-4.786071
-4.969887
-4.892690
-5.204956
-5.738372
-5.769693
-5.601063
-5.220774
-5.049929
-4.921478
-4.938563
-4.980325
-5.171101
-5.080933
-4.732598
-4.652871
-4.671220
-4.444376
-4.215000
-4.182413
-3.695821
-2.617599
-1.452373
-0.880991
-0.956289
-1.356825
-1.991166
-2.885887
-3.421201
-3.298446
-2.659042
-1.990848
-1.736162
-1.288485
-1.236598
-1.237547
-1.270134
-1.314743
-1.042973
-0.878139
-0.190646
0.927440
2.182202
3.400580
4.353832
5.195086
5.889223
5.933200
5.856004
5.935099
6.204022
6.426437
5.631375
4.267147
2.654876
1.012866
0.125738
-0.312764
0.220653
1.142267
1.801919
2.041418
1.823749
1.227058
0.437374
-0.205192
-0.786065
-1.166986
-1.343209
-1.376745
-1.265695
-1.016704
-0.567129
-0.443424
-0.964184
-1.492222
-1.720331
-1.718433
-1.392561
-1.025561
-0.637995
-0.611103
-0.987278
-1.348583
-1.906360
-2.347709
-2.474577
-2.021205
-1.860484
-2.343912
-2.709963
-2.961168
-3.227243
-3.234519
-3.395240
-3.455668
-2.890297
-2.115483
-1.445391
-1.157169
-0.719299
0.212439
1.099884
2.596992
4.363656
6.037621
7.118058
7.692603
7.891923
7.533465
6.784278
6.067679
5.613674
5.084688
4.801529
4.634797
5.041978
5.684861
6.151521
6.296740
6.612803
6.998787
6.912416
6.704238
6.913365
7.635976
8.348147
8.848660
10.017050
11.378116
11.883374
11.659694
10.827932
9.835133
8.645546
7.363576
6.094578
5.403922
5.499152
5.880074
5.717455
4.973014
4.259262
3.566074
2.696663
1.853512
0.962587
-0.097917
-0.564576
-0.744596
-0.617728
-0.318116
0.399433
1.184371
1.847187
1.633631
1.651348
2.103455
1.956339
0.936964
-0.210861
-0.207064
0.339324
0.401651
0.445628
1.168556
1.999052
2.636558
2.701416
3.029818
4.025465
4.996434
5.877868
6.370788
6.699823
6.742218
6.297072
5.908558
5.668743
5.494418
5.095463
4.880326
4.346594
3.531916
2.255325
1.110347
0.423488
-0.653785
-1.964862
-2.844713
-3.294921
-3.135782
-3.098765
-2.974744
-2.623246
-2.127162
-1.696886
-1.867731
-2.375203
-3.363256
-4.119403
-4.336756
-4.636051
-4.378201
-3.555930
-2.969678
-2.424556
-2.172718
-1.663663
-1.623482
-1.683278
-1.808247
-1.783569
-1.580770
-1.607978
-1.583617
-1.172639
-0.531970
-0.444333
-1.057160
-1.695297
-2.081913
-2.581792
-3.175004
-3.846045
-4.306060
-4.624654
-4.526576
-3.701142
-2.500165
-1.176748
-0.205463
0.114397
-0.170028
-1.005586
-1.410868
-1.942385
-2.355577
-2.328684
-1.626638
-0.613906
0.203303
0.891112
1.249254
1.012286
0.358962
-0.794874
-2.390059
-3.777700
-4.711020
-5.704451
-7.095889
-8.393361
-9.788911
-11.392956
-12.526860
-12.973271
-13.072930
-12.683783
-11.811524
-11.085433
-11.143646
-10.882633
-9.543081
-7.873546
-6.850058
-5.901551
-4.194050
-3.131647
-2.979785
-2.500153
-1.003994
0.236847
0.723123
0.905358
1.038870
0.938262
0.129596
-0.563275
-1.206474
-1.441861
-1.059041
-0.354147
0.068220
0.032786
0.288421
0.290636
-0.406348
-1.071062
-1.084982
-0.840104
-1.030564
-1.255193
-0.850544
-0.423747
-0.239930
0.244131
0.546906
0.668080
0.317532
-0.185512
-0.984686
-1.802527
-2.649475
-3.715358
-4.596158
-4.968853
-4.636654
-4.244343
-3.533438
-2.723822
-1.797463
-0.975508
-0.529096
-0.099136
0.186871
0.659543
1.290404
2.067116
2.847941
3.180456
3.318715
3.156096
2.656216
2.139252
2.078824
2.535993
2.852373
2.942541
2.986202
2.893187
2.500243
1.705498
1.246115
1.233460
1.553004
2.431907
3.067830
3.425023
3.418696
3.590806
3.263037
2.361356
1.914944
1.536871
1.011681
0.734849
0.876904
1.039840
1.280605
1.381214
1.529596
1.830157
2.502780
3.658832
4.267863
4.284948
4.078668
4.259954
4.366891
4.556086
5.076214
5.441633
5.965874
5.950372
6.491065
7.286444
7.741714
8.092263
8.480778
8.986352
9.532108
9.308427
8.597206
7.346558
5.663419
4.582666
4.030268
3.442435
2.801134
2.596436
2.707169
3.028295
3.283930
3.649665
3.649665
2.808096
1.750439
0.685189
-0.178843
-0.938470
-1.847112
-2.873131
-3.082574
-3.078777
-3.134776
-3.672621
-4.501219
-5.977446
-6.794971
-6.680757
-6.786428
-7.012006
-6.537120
-5.773379
-5.542106
-5.304821
-4.956170
-4.486346
-4.464832
-4.338913
-4.063662
-3.803281
-4.201603
-4.895423
-5.646192
-5.956560
-6.844954
-7.413171
-7.709302
-7.852622
-7.529598
-7.673234
-7.766566
-7.786181
-7.419813
-7.055344
-7.027502
-6.899684
-6.331150
-6.399488
-6.693088
-6.662715
-6.360888
-6.178021
-6.340323
-6.469722
-6.354243
-6.607347
-7.014211
-6.907590
-6.571595
-6.398851
-6.295711
-6.272299
-5.426300
-4.544866
-3.930773
-3.223031
-2.759219
-2.401709
-2.579514
-3.059462
-3.300859
-3.428360
-3.926974
-4.257907
-4.211082
-3.492584
-3.379320
-3.501442
-3.304337
-2.918038
-2.346972
-2.225482
-2.380824
-2.133415
-1.269698
-0.895105
-0.840687
-0.725525
0.081244
0.889910
1.562217
1.889987
2.033940
2.505029
2.455674
2.144673
2.161758
2.046913
1.528050
0.963946
0.695340
1.156305
1.537859
1.854555
2.261420
2.350956
2.024452
1.489455
0.974705
0.606756
0.237858
0.105611
0.371370
0.109092
-0.167740
0.122380
0.249882
0.237543
0.308412
0.229001
0.148958
-0.033277
-0.063649
-0.561630
-1.725274
-2.881641
-3.067672
-2.994588
-2.831336
-1.846446
-0.592001
0.522921
1.379994
2.062425
2.408861
2.761308
3.237460
3.975574
4.395410
4.423251
3.902175
3.354522
2.571482
2.078247
1.446437
0.985156
0.676370
0.227744
0.093599
0.124288
0.423900
0.500148
0.711806
1.500857
2.617361
3.750633
4.347958
4.558351
4.796268
4.785512
4.654531
4.440975
4.734892
4.707367
3.790816
2.935642
2.425638
1.485991
0.570072
0.154982
0.454278
0.236293
-1.014356
-1.499365
-1.546822
-1.860354
-3.158459
-4.354690
-4.953280
-5.338314
-6.131477
-6.673435
-6.597820
-6.054280
-5.137728
-4.894432
-4.169922
-2.972425
-1.926157
-1.288652
-0.630582
0.277111
0.665626
0.110380
-0.439804
-0.538198
-0.485679
-1.006439
-1.202278
-0.785922
-0.237636
-0.060780
0.200867
1.053510
1.623310
1.889385
2.220002
2.577512
2.894524
2.836943
2.125722
1.246504
0.527690
0.520729
0.624186
0.751371
1.082620
1.291431
1.100022
0.209414
-0.537558
-0.817554
-1.463601
-1.946712
-2.517461
-3.096752
-3.455209
-3.250828
-2.622814
-2.021693
-2.009037
-2.000178
-1.640138
-1.349701
-0.975740
-0.238259
1.395842
2.712930
3.744645
4.592542
5.081033
5.225302
4.729219
4.411891
4.293881
3.733573
3.392200
3.170418
2.467739
1.945397
2.206410
2.938829
3.744332
3.873415
4.266675
4.905762
4.944677
4.689043
4.744093
5.505619
6.086176
6.043782
6.095352
6.151351
5.736578
4.727960
4.306542
4.382474
4.207200
3.947452
3.540272
3.629492
3.895883
3.850958
3.545019
3.200166
2.754071
2.323795
2.024500
1.220263
0.321745
-0.313228
-0.824181
-0.789379
-0.955478
-1.076018
-1.128221
-1.133599
-1.010843
-1.458204
-2.245672
-2.687971
-2.439929
-1.882468
-0.971611
-0.225904
-0.036708
0.178114
0.298022
0.404958
0.736208
1.354414
2.414286
3.297618
3.727262
4.397038
4.841235
5.142429
5.079469
5.238609
5.188621
4.744424
4.059146
3.309643
2.991682
2.391194
1.862208
1.575568
1.764130
1.936558
1.859361
1.941304
1.852085
1.013047
0.091433
-1.189271
-2.319063
-3.472582
-3.994608
-3.944937
-3.727583
-3.186890
-2.545272
-1.941303
-1.300002
-0.305304
0.930475
2.044132
2.618677
2.844573
2.866087
2.939803
3.375775
3.732651
3.841170
4.248034
4.492279
4.300870
3.549469
2.709481
2.153919
2.163411
2.099819
1.793880
1.404417
1.135811
0.742551
0.339800
0.077205
-0.302766
-0.039222
-0.082249
-0.197095
-0.435961
-0.240122
0.010451
-0.254042
-0.688431
-0.767209
-0.306244
0.009820
0.392639
0.903593
1.351270
1.652464
1.832484
2.273834
2.723410
3.208420
3.605793
3.650086
3.562766
3.371040
3.874717
4.233808
4.372382
4.464765
4.718502
4.895991
4.464766
4.077834
3.645027
3.043590
2.476954
2.179558
2.219422
2.137796
2.267829
2.593383
2.278902
1.901778
1.524338
1.462011
1.026673
1.197518
1.587615
2.239673
2.411784
2.320351
2.260555
2.478225
2.884140
3.074917
2.931914
2.878446
3.147052
3.251774
3.239752
3.164454
3.327706
3.093269
2.366546
1.561993
1.381340
1.025413
0.953912
0.980488
0.950432
0.439796
0.058875
0.001927
0.044322
-0.338181
-0.125573
-0.116398
-0.404303
-1.240178
-1.950450
-2.195960
-2.314602
-2.089656
-1.567946
-1.052247
-0.523260
-0.030024
0.543573
1.221258
1.725251
2.357694
2.893325
2.855360
2.346306
1.899894
1.851488
2.059983
2.135914
