EVENT_NAME: 202302060117
EVENT_ID: 13194
EVENT_DATE_YYYYMMDD: 2023/02/06
EVENT_TIME_HHMMSS: 01:17:32.00000
EVENT_LATITUDE_DEGREE: 37.288
EVENT_LONGITUDE_DEGREE: 37.043
EVENT_DEPTH_KM: 8.6
HYPOCENTER_REFERENCE: AFAD
MAGNITUDE_W: 7.7
MAGNITUDE_W_REFERENCE: AFAD
MAGNITUDE_L: 
MAGNITUDE_L_REFERENCE: 
FOCAL_MECHANISM: 
NETWORK: TK
STATION_CODE: 5808
STATION_NAME: 
STATION_LATITUDE_DEGREE: 39.8662
STATION_LONGITUDE_DEGREE: 36.5932
STATION_ELEVATION_M: 1381.0
LOCATION: Kahramanmaras_Pazarck_Turkiye
SENSOR_DEPTH_M: 
VS30_M/S: 691
SITE_CLASSIFICATION_EC8: B
MORPHOLOGIC_CLASSIFICATION: 
EPICENTRAL_DISTANCE_KM: 289.34
EARTHQUAKE_BACKAZIMUTH_DEGREE: 
DATE_TIME_FIRST_SAMPLE_YYYYMMDD_HHMMSS: 2023/02/06 01:17:59.3695470
DATE_TIME_FIRST_SAMPLE_PRECISION: millisecond
SAMPLING_INTERVAL_S: 0.01
NDATA: 18251
DURATION_S: 
STREAM: HNZ
UNITS: cm/s^2
INSTRUMENT: sensor = GMS+/GEOSIG | digitizer = 
INSTRUMENT_ANALOG/DIGITAL: 
INSTRUMENTAL_FREQUENCY_HZ: 
INSTRUMENTAL_DAMPING: 
FULL_SCALE_G: 
N_BIT_DIGITAL_CONVERTER: 
PGA_CM/S^2: 3.219
TIME_PGA_S: 
BASELINE_CORRECTION: BASELINE REMOVED
FILTER_TYPE: BUTTERWORTH
FILTER_ORDER: 
LOW_CUT_FREQUENCY_HZ: 
HIGH_CUT_FREQUENCY_HZ: 
LATE/NORMAL_TRIGGERED: 
DATABASE_VERSION: 
HEADER_FORMAT: DYNA 1.2
DATA_TYPE: Acceleration
PROCESSING: Automatic Paolucci et al., 2011
DATA_TIMESTAMP_YYYYMMDD_HHMMSS: 
DATA_LICENSE: U (unknown license)
DATA_CITATION: Turkish Accelerometric Archive v 1.0 - Disaster And Emergency Management Presidency, Earthquake Department
DATA_CREATOR: AFAD
ORIGINAL_DATA_MEDIATOR_CITATION: : AFAD - Disaster And Emergency Management Presidency
ORIGINAL_DATA_MEDIATOR: AFAD PROCESS SERVICE
ORIGINAL_DATA_CREATOR_CITATION: AFAD PROCESS SERVICE
ORIGINAL_DATA_CREATOR: network: TK
USER1: GuestUser
USER2: 
USER3: 
USER4: 
USER5: 
[...]
0.810685
0.736391
0.672489
0.608326
0.536631
0.462597
0.395317
0.346221
0.309594
0.279721
0.255563
0.226729
0.189063
0.163346
0.148799
0.138669
0.144124
0.162048
0.175037
0.177895
0.177895
0.166725
0.164388
0.190624
0.245955
0.321028
0.405453
0.511958
0.611450
0.697953
0.790950
0.889922
1.003440
1.108387
1.205800
1.290225
1.331788
1.340620
1.307630
1.242948
1.178526
1.103713
1.029679
0.969154
0.911226
0.862649
0.830958
0.829659
0.868365
0.935385
1.011498
1.085532
1.159306
1.216455
1.232561
1.215676
1.188661
1.161126
1.139825
1.121901
1.095145
1.041374
0.953832
0.834599
0.695104
0.571195
0.466508
0.358445
0.250642
0.149332
0.063349
-0.011204
-0.095888
-0.189404
-0.279024
-0.367085
-0.465537
-0.560092
-0.641399
-0.707640
-0.742708
-0.771282
-0.811806
-0.867915
-0.936494
-1.004813
-1.088977
-1.188208
-1.290557
-1.406673
-1.551103
-1.704366
-1.840744
-1.954522
-2.036609
-2.088302
-2.118435
-2.147269
-2.177402
-2.185714
-2.177661
-2.172206
-2.168049
-2.149865
-2.115316
-2.088560
-2.088040
-2.092196
-2.081285
-2.055568
-2.009069
-1.956076
-1.899187
-1.849571
-1.835803
-1.829828
-1.808527
-1.762548
-1.686436
-1.604608
-1.539926
-1.499662
-1.470048
-1.435239
-1.392377
-1.315226
-1.183003
-1.020908
-0.843746
-0.663986
-0.494617
-0.333301
-0.194065
-0.073793
0.042064
0.171948
0.327030
0.500555
0.690186
0.887090
1.082696
1.257000
1.398574
1.509495
1.585607
1.634444
1.659642
1.674449
1.687178
1.696010
1.702764
1.704063
1.710558
1.722767
1.728482
1.723807
1.699129
1.662502
1.630031
1.613926
1.624836
1.640423
1.651073
1.657308
1.647177
1.624838
1.585613
1.534179
1.484044
1.430272
1.377280
1.324547
1.264022
1.192066
1.105823
1.017503
0.936975
0.851511
0.749163
0.641360
0.541869
0.451470
0.379774
0.314313
0.248072
0.193521
0.150400
0.115851
0.070132
0.012464
-0.040529
-0.097677
-0.173269
-0.267045
-0.370693
-0.484211
-0.597210
-0.688908
-0.760863
-0.812297
-0.844248
-0.874121
-0.911527
-0.938803
-0.938803
-0.922697
-0.898798
-0.873340
-0.842428
-0.800865
-0.750210
-0.692021
-0.638249
-0.594868
-0.566553
-0.536419
-0.495376
-0.463944
-0.434330
-0.386013
-0.328084
-0.261064
-0.178717
-0.100007
-0.030649
0.034553
0.093520
0.150670
0.198467
0.235354
0.283412
0.357186
0.439273
0.524737
0.624228
0.704757
0.751515
0.777492
0.788403
0.807626
0.834902
0.857242
0.891272
0.929718
0.940628
0.929458
0.921146
0.900884
0.849710
0.769182
0.665795
0.583449
0.539029
0.503441
0.484738
0.482920
0.480322
0.473828
0.463957
0.444475
0.406030
0.350439
0.268353
0.183149
0.138470
0.124962
0.130677
0.153277
0.196139
0.261341
0.330180
0.395122
0.462922
0.543190
0.637226
0.721911
0.778800
0.809713
0.833872
0.867902
0.895957
0.911023
0.919077
0.904270
0.898296
0.916220
0.917779
0.916480
0.919078
0.914143
0.902194
0.890764
0.893622
0.908688
0.939341
0.964799
0.978567
1.007142
1.038314
1.062992
1.086891
1.105075
1.114427
1.107933
1.098841
1.083255
1.055461
1.033900
1.009222
0.990779
0.992598
1.011821
1.048448
1.096246
1.158850
1.232624
1.304061
1.357833
1.394980
1.431348
1.451090
1.460442
1.489796
1.523307
1.544088
1.551622
1.543829
1.524087
1.507722
1.500708
1.493175
1.491097
1.486162
1.462004
1.424338
1.380697
1.347967
1.326146
1.310041
1.319133
1.347188
1.378101
1.404338
1.412910
1.397584
1.374205
1.361477
1.343293
1.319655
1.299393
1.272377
1.236789
1.193928
1.145611
1.089762
1.026119
0.958839
0.885585
0.803758
0.715437
0.622441
0.542432
0.485543
0.418264
0.324747
0.215385
0.094594
-0.028536
-0.153225
-0.280770
-0.412992
-0.545733
-0.666005
-0.775368
-0.875118
-0.954087
-1.019549
-1.090985
-1.167876
-1.258015
-1.366857
-1.481934
-1.601427
-1.722739
-1.837556
-1.940683
-2.018873
-2.077061
-2.130054
-2.185903
-2.241753
-2.271367
-2.287992
-2.304357
-2.304356
-2.300719
-2.280197
-2.246687
-2.222788
-2.192915
-2.173172
-2.182264
-2.214215
-2.269805
-2.341761
-2.411378
-2.456058
-2.473722
-2.479696
-2.486450
-2.497880
-2.509569
-2.516582
-2.507490
-2.482033
-2.447743
-2.410856
-2.373969
-2.337861
-2.318638
-2.302791
-2.263826
-2.212911
-2.154723
-2.074974
-1.972885
-1.868458
-1.775980
-1.684542
-1.592844
-1.498028
-1.387886
-1.266315
-1.141106
-1.022132
-0.908094
-0.809642
-0.723918
-0.645468
-0.592215
-0.567537
-0.569355
-0.589876
-0.612476
-0.617411
-0.602345
-0.581563
-0.548832
-0.492462
-0.427520
-0.367513
-0.313741
-0.281789
-0.271918
-0.268541
-0.264644
-0.269839
-0.278411
-0.289581
-0.323350
-0.359458
-0.396864
-0.474794
-0.579481
-0.659229
-0.710143
-0.743653
-0.763655
-0.786255
-0.800542
-0.803399
-0.794567
-0.779759
-0.768070
-0.744950
-0.712219
-0.665461
-0.594544
-0.510379
-0.437903
-0.379195
-0.322566
-0.273729
-0.222814
-0.167743
-0.118387
-0.071109
-0.027208
0.001107
0.026564
0.048645
0.057737
0.065790
0.058257
0.044749
0.034359
0.004745
-0.031362
-0.073964
-0.134230
-0.197873
-0.253982
-0.304896
-0.364643
-0.436858
-0.510112
-0.592978
-0.700782
-0.829366
-0.967563
-1.095888
-1.194080
-1.268113
-1.312793
-1.327080
-1.328898
-1.309935
-1.273048
-1.236161
-1.203689
-1.161607
-1.112510
-1.077701
-1.050685
-1.024968
-0.986002
-0.910410
-0.790656
-0.643887
-0.488806
-0.336062
-0.200722
-0.070319
0.053071
0.166330
0.287902
0.419085
0.565594
0.707947
0.812894
0.873680
0.895760
0.900956
0.916023
0.952131
1.000708
1.064091
1.133969
1.183065
1.215277
1.240994
1.266971
1.301261
1.341525
1.380231
1.410884
1.446212
1.496607
1.540249
1.563368
1.568044
1.542847
1.509857
1.486998
1.457384
1.422835
1.369583
1.288016
1.187746
1.069292
0.934213
0.779911
0.617816
0.465852
0.333111
0.214657
0.116725
0.044250
-0.016536
-0.072126
-0.112649
-0.114467
-0.103557
-0.104855
-0.111869
-0.136547
-0.162263
-0.173173
-0.175771
-0.173433
-0.169796
-0.165120
-0.161483
-0.160184
-0.150052
-0.134986
-0.122257
-0.113165
-0.112385
-0.112125
-0.120697
-0.140699
-0.167715
-0.199406
-0.218629
-0.227980
-0.220706
-0.185378
-0.136541
-0.079652
-0.004838
0.080626
0.171285
0.273634
0.375723
0.463005
0.537039
0.594708
0.639128
0.683029
0.710046
0.703552
0.675237
0.634714
0.582760
0.530028
0.486387
0.443785
0.404301
0.375986
0.350529
0.323254
0.299615
0.295719
0.302473
0.294680
0.282731
0.270263
0.259872
0.252339
0.214933
0.150511
0.078555
0.010496
-0.042496
-0.079123
-0.092891
-0.087695
-0.077824
-0.072628
-0.073667
-0.083018
-0.101981
-0.151597
-0.239917
-0.345643
-0.452147
-0.548002
-0.636063
-0.722046
-0.804132
-0.883101
-0.950900
-1.008569
-1.066497
-1.137413
-1.233787
-1.350422
-1.477708
-1.608371
-1.722149
-1.812289
-1.883984
-1.936457
-1.985293
-2.035948
-2.082706
-2.118554
-2.124268
-2.110500
-2.082185
-2.031011
-1.972303
-1.908400
-1.836704
-1.759033
-1.689674
-1.632266
-1.583948
-1.552257
-1.509914
-1.452765
-1.394577
-1.330933
-1.268589
-1.215856
-1.165460
-1.104934
-1.040771
-0.976089
-0.909848
-0.845685
-0.781782
-0.731127
-0.700214
-0.683848
-0.666963
-0.633713
-0.581499
-0.506686
-0.432911
-0.378879
-0.340174
-0.314197
-0.294454
-0.284323
-0.278348
-0.276529
-0.292635
-0.330301
-0.379657
-0.428493
-0.487460
-0.541751
-0.586171
-0.620200
-0.623058
-0.607731
-0.564090
-0.494212
-0.422516
-0.334714
-0.233145
-0.136770
-0.061178
-0.012081
0.017532
0.044289
0.095204
0.162743
0.230543
0.305616
0.370039
0.417837
0.463036
0.501482
0.536032
0.566425
0.592402
0.619678
0.644096
0.655007
0.644356
0.618899
0.593442
0.560192
0.533177
0.542009
0.563830
0.582274
0.590846
0.589807
0.580196
0.555259
0.525905
0.498889
0.483823
0.473692
0.460704
0.460185
0.469277
0.474213
0.464342
0.433430
0.385893
0.315756
0.233409
0.167429
0.111319
0.046377
-0.016486
-0.063244
-0.105327
-0.135459
-0.145850
-0.147668
-0.130523
-0.118833
-0.116495
-0.088700
-0.030252
0.063265
0.165354
0.242505
0.309526
0.378364
0.448242
0.512405
0.561761
0.613455
0.677359
0.737365
0.789059
0.845689
0.918164
0.989601
1.046490
1.095067
1.127019
1.146242
1.155853
1.161828
1.175596
1.203652
1.247033
1.283661
1.313534
1.323146
1.306261
1.289896
1.268595
1.253009
1.258205
1.261842
1.251451
1.245737
1.246776
1.236126
1.220280
1.209630
1.198201
1.172224
1.120790
1.052212
0.985971
0.923627
0.858166
0.789068
0.723606
0.667497
0.611387
0.569825
0.548004
0.536575
0.534757
0.535796
0.548525
0.562293
0.575541
0.599960
0.625677
0.657109
0.689321
0.722831
0.778421
0.856612
0.951947
1.059751
1.163918
1.258733
1.347574
1.426284
1.486291
1.515125
1.520841
1.508891
1.470706
1.415375
1.349914
1.296402
1.275102
1.268348
1.281856
1.308353
1.332251
1.369139
1.395635
1.405247
1.418755
1.429406
1.430965
1.421094
1.411223
1.403950
1.384727
1.350178
1.317707
1.297705
1.269131
1.230166
1.184707
1.115349
1.031704
0.954813
0.888313
0.830125
0.765443
0.704138
0.668550
0.639456
0.613740
0.599453
0.577373
0.537888
0.485415
0.412161
0.319164
0.225388
0.150575
0.094726
0.054981
0.033161
0.001470
-0.054120
-0.127375
-0.211280
-0.287132
-0.360905
-0.440394
-0.512090
-0.575213
-0.636778
-0.691329
-0.731853
-0.747438
-0.727696
-0.664572
-0.570016
-0.456757
-0.324795
-0.191274
-0.052038
0.091354
0.213445
0.331900
0.451653
0.566211
0.659728
0.719994
0.767532
0.795327
0.804160
0.807277
0.794029
0.755064
0.698695
0.650898
0.618427
0.589853
0.571929
0.576865
0.590113
0.588035
0.573229
0.556084
0.540499
0.529848
0.531147
0.537902
0.542058
0.550890
0.551150
0.546215
0.541799
0.518940
0.490885
0.470883
0.450362
0.426723
0.418931
0.435816
0.461533
0.484653
0.495044
0.495304
0.480497
0.451663
0.428284
0.409062
0.388540
0.359187
0.311130
0.250344
0.179428
0.106433
0.048765
0.014216
0.006423
0.023049
0.060456
0.106695
0.145920
0.174235
0.183327
0.182808
0.185925
0.187484
0.190861
0.202291
0.222294
0.258401
0.311654
0.383350
0.463619
0.534536
0.596361
0.648315
0.695073
0.747806
0.806514
0.854312
0.884705
0.901590
0.894057
0.867041
0.821582
0.763654
0.719494
0.688062
0.657669
0.629095
0.605457
0.598963
0.610912
0.636110
0.678452
0.736900
0.798466
0.848861
0.893022
0.931208
0.962900
0.992513
1.009658
1.016413
1.017452
1.021089
1.020310
0.996671
0.960823
0.906532
0.828862
0.737164
0.638452
0.552989
0.475578
0.395310
0.319718
0.244645
0.179963
0.138661
0.125153
0.141778
0.169834
0.206461
0.260753
0.333488
0.427524
0.529613
0.636638
0.727297
0.786525
0.836920
0.874327
0.896147
0.910954
0.922125
0.933035
0.946543
0.976157
1.022656
1.075908
1.137474
1.204234
1.265799
1.315675
1.353082
1.391268
1.426857
1.461925
1.500371
1.528167
1.547390
1.552326
1.554404
1.557522
1.550508
1.540377
1.519596
1.485307
1.445823
1.409975
1.381660
1.347371
1.297496
1.240347
1.173847
1.102931
1.042405
0.990711
0.950188
0.912002
0.862387
0.799263
0.718995
0.628856
0.547289
0.476373
0.412470
0.371947
0.363634
0.377402
0.407795
0.453515
0.504429
0.560540
0.629119
0.689125
0.745235
0.813814
0.875379
0.926814
0.973312
1.001108
1.006303
0.997991
0.981886
0.960325
0.927595
0.879798
0.819792
0.744979
0.658736
0.570415
0.483653
0.408840
0.340002
0.267527
0.205183
0.151930
0.102055
0.049842
-0.015619
-0.086016
-0.171999
-0.283439
-0.393580
-0.493071
-0.595420
-0.685299
-0.755176
-0.815702
-0.858304
-0.876487
-0.888177
-0.899606
-0.896749
-0.874668
-0.851548
-0.838560
-0.833104
-0.845313
-0.868692
-0.901682
-0.947661
-0.983769
-1.006108
-1.012862
-0.996237
-0.962726
-0.910513
-0.838817
-0.761925
-0.690489
-0.626845
-0.570735
-0.523977
-0.483972
-0.425524
-0.340580
-0.246803
-0.151468
-0.066004
0.011147
0.086999
0.174801
0.279228
0.372225
0.454572
0.527567
0.582898
0.634592
0.674337
0.698495
0.726291
0.748111
0.746813
0.736163
0.719278
0.682131
0.643686
0.615112
0.596149
0.602903
0.621607
0.635894
0.648363
0.666028
0.698239
0.739283
0.771234
0.791756
0.805005
0.810720
0.819033
0.838775
0.857998
0.870987
0.877222
0.876183
0.875923
0.863714
0.847349
0.827607
0.781369
0.728376
0.670708
0.609923
0.561866
0.511731
0.462375
0.426528
0.409643
0.410942
0.424450
0.456142
0.495887
0.533813
0.580572
0.616939
0.638241
0.661360
0.677466
0.680324
0.662140
0.622915
0.567066
0.485758
0.388865
0.289634
0.191182
0.086756
-0.012995
-0.092743
-0.158205
-0.209898
-0.251461
-0.285750
-0.323416
-0.379785
-0.437973
-0.492784
-0.543958
-0.579286
-0.601626
-0.601366
-0.577987
-0.550191
-0.518239
-0.479794
-0.434074
-0.373288
-0.296656
-0.213271
-0.130924
-0.061825
-0.007014
0.044420
0.079489
0.088841
0.078710
0.058189
0.042083
0.027017
0.014548
0.014549
0.016367
0.012731
0.004159
-0.001816
0.003640
0.019486
0.054814
0.107288
0.156384
0.195869
0.223665
0.238212
0.244446
0.241589
0.229380
0.217691
0.208599
0.191715
0.165478
0.148854
0.149114
0.150672
0.154569
0.163661
0.165740
0.162103
0.157687
0.145738
0.133789
0.134829
0.143661
0.153532
0.160287
0.159507
0.150156
0.150676
0.173536
0.206786
0.235880
0.250428
0.264196
0.287575
0.311993
0.337451
0.370701
0.403692
0.410706
0.383691
0.324464
0.239520
0.124443
-0.027261
-0.193513
-0.357426
-0.519261
-0.682395
-0.860596
-1.055941
-1.253884
-1.452866
-1.638080
-1.801993
-1.960711
-2.114494
-2.272952
-2.444398
-2.616884
-2.778719
-2.926007
-3.051475
-3.130704
-3.174864
-3.201360
-3.214608
-3.219284
-3.198762
-3.173305
-3.140054
-3.112518
-3.084463
-3.034068
-3.019001
-2.997440
-2.974061
-2.968086
-2.934056
-2.920548
-2.899247
-2.860021
-2.823394
-2.772999
-2.740008
-2.710134
-2.684677
-2.671948
-2.661557
-2.661037
-2.673246
-2.669349
-2.685195
-2.701300
-2.651684
-2.626227
-2.582326
-2.547517
-2.533229
-2.470625
-2.464650
-2.435296
-2.377887
-2.363600
-2.322037
-2.260212
-2.199166
-2.113962
-2.017847
-1.946151
-1.880170
-1.824060
-1.794706
-1.781717
-1.775482
-1.770806
-1.760156
-1.749765
-1.748725
-1.743530
-1.748465
-1.757297
-1.755738
-1.762492
-1.767947
-1.767687
-1.761972
-1.737813
-1.706121
-1.674689
-1.639100
-1.600135
-1.570002
-1.553896
-1.550259
-1.564546
-1.593120
-1.635202
-1.690013
-1.750019
-1.810285
-1.859641
-1.902242
-1.939649
-1.965106
-1.990822
-2.018877
-2.034203
-2.022773
-1.980950
-1.923801
-1.865093
-1.811581
-1.767420
-1.743261
-1.744820
-1.754951
-1.768978
-1.792097
-1.820931
-1.849765
-1.881456
-1.912628
-1.933669
-1.950554
-1.961983
-1.971335
-1.976530
-1.960684
-1.925355
-1.877817
-1.821707
-1.764818
-1.698057
-1.627920
-1.576745
-1.537260
-1.495437
-1.451796
-1.415168
-1.386334
-1.361396
-1.344251
-1.334380
-1.338276
-1.351784
-1.361135
-1.366590
-1.364771
-1.358537
-1.352302
-1.333598
-1.310739
-1.286060
-1.247874
-1.227352
-1.229690
-1.240860
-1.263719
-1.292293
-1.332038
-1.372301
-1.415942
-1.466597
-1.505821
-1.548943
-1.598298
-1.644017
-1.699348
-1.761692
-1.824815
-1.884561
-1.920409
-1.940671
-1.954178
-1.950022
-1.930799
-1.893132
-1.853387
-1.813903
-1.765585
-1.722983
-1.681420
-1.640636
-1.602450
-1.559588
-1.513609
-1.468929
-1.431782
-1.405285
-1.387621
-1.371775
-1.354370
-1.330991
-1.308131
-1.292804
-1.288128
-1.293843
-1.292284
-1.286049
-1.281893
-1.266306
-1.246304
-1.231497
-1.219807
-1.222405
-1.233574
-1.244744
-1.254875
-1.258771
-1.264746
-1.264745
-1.243444
-1.208895
-1.162656
-1.108624
-1.056670
-0.999261
-0.928344
-0.849634
-0.769106
-0.702345
-0.654028
-0.623116
-0.614024
-0.617660
-0.635844
-0.670392
-0.717410
-0.776377
-0.831448
-0.882102
-0.938991
-0.998478
-1.053548
-1.091734
-1.096669
-1.073030
-1.041858
-1.010686
-0.971980
-0.925221
-0.871969
-0.804948
-0.725459
-0.641034
-0.548816
-0.451143
-0.353990
-0.256057
-0.154228
-0.056815
0.035143
0.125283
0.211007
0.295691
0.378817
0.459346
0.532600
0.601959
0.675473
0.741454
0.801201
0.855753
0.905888
0.969791
1.041228
1.114742
1.190595
1.256576
1.306971
1.338923
1.355029
1.354769
1.346977
1.341782
1.336327
1.329053
1.317364
1.304116
1.289829
1.277620
1.272945
1.278400
1.304897
1.351915
1.407246
1.457901
1.500503
1.539468
1.564926
1.575057
1.582591
1.592722
1.595060
1.582332
1.560511
1.532457
1.504921
1.485439
1.470892
1.458424
1.446734
1.439981
1.438422
1.448813
1.472193
1.497131
1.529342
1.558436
1.572984
1.574542
1.564931
1.544410
1.511679
1.476871
1.434269
1.381017
1.332960
1.286981
1.241522
1.203077
1.174762
1.146188
1.108262
1.067479
1.018902
0.966949
0.919152
0.877589
0.847197
0.809790
0.748745
0.667698
0.580936
0.500668
0.436505
0.391825
0.357276
0.327923
0.298050
0.265319
0.234147
0.207651
0.194144
0.199339
0.227654
0.274932
0.335199
0.408194
0.492878
0.590032
0.698615
0.820966
0.947213
1.060213
1.152171
1.225425
1.291147
1.352193
1.403367
1.444151
1.481558
1.513510
1.541824
1.572477
1.603390
1.647811
1.697946
1.746263
1.797957
1.840300
1.883681
1.931998
1.980575
2.026814
2.066039
2.098770
2.121630
2.133060
2.137736
2.139814
2.134619
2.126047
2.119553
2.115137
2.113060
2.107345
2.102929
2.101890
2.094877
2.068640
2.022921
1.964214
1.896415
1.827057
1.756141
1.678730
1.593786
1.507544
1.426756
1.356619
1.303107
1.260765
1.222320
1.181277
1.138935
1.098671
1.058407
1.032431
1.006194
0.984374
0.966970
0.917874
0.879428
0.847477
0.797602
0.764092
0.735258
0.718374
0.715257
0.714218
0.725128
0.738896
0.758639
0.780979
0.794227
0.806177
0.826179
0.849299
0.866184
0.888005
0.923853
0.967235
1.025163
1.094262
1.174270
1.267008
1.360524
1.455080
1.547298
1.637438
1.721863
1.793039
1.849409
1.894609
1.940328
1.988386
2.030728
2.063199
2.083721
2.090735
2.091775
2.092554
2.094373
2.110998
2.139833
2.170745
2.208672
2.246338
2.276991
2.306085
2.324269
2.322711
2.306346
2.282447
2.258549
2.239586
2.226858
2.217506
2.213610
2.216208
2.220624
2.217507
2.216209
2.223483
2.239848
2.269462
2.300115
2.332846
2.367395
2.396749
2.434935
2.485850
2.539882
2.593135
2.632620
2.653921
2.661195
2.641193
2.597032
2.540923
2.470006
2.389219
2.303496
2.221929
2.146337
2.062692
1.965539
1.853059
1.724474
1.585239
1.443406
1.299495
1.160519
1.030116
0.903090
0.773726
0.645920
0.536038
0.438366
0.351604
0.273414
0.192886
0.108462
0.029492
-0.038047
-0.106366
-0.169489
-0.218325
-0.264044
-0.314958
-0.362236
-0.401201
-0.429256
-0.434970
-0.426657
-0.415227
-0.408213
-0.405356
-0.398342
-0.399640
-0.406394
-0.411329
-0.414446
-0.415745
-0.423278
-0.436526
-0.456788
-0.479127
-0.488479
-0.486400
-0.471593
-0.445616
-0.423276
-0.404313
-0.390025
-0.390545
-0.411586
-0.450551
-0.487437
-0.509777
-0.511076
-0.494710
-0.468993
-0.437820
-0.406648
-0.375476
-0.350797
-0.327678
-0.304298
-0.288452
-0.279101
-0.266372
-0.246629
-0.236238
-0.224289
-0.207663
-0.195973
-0.174672
-0.161943
-0.159865
-0.159085
-0.169736
-0.184542
-0.214415
-0.262212
-0.316763
-0.369496
-0.411058
-0.441711
-0.456258
-0.453140
-0.439372
-0.429501
-0.432358
-0.437034
-0.434695
-0.426642
-0.413914
-0.404562
-0.406899
-0.416510
-0.438590
-0.467684
-0.503272
-0.550030
-0.597048
-0.641208
-0.683031
-0.731087
