EVENT_NAME: 202302060117
EVENT_ID: 13194
EVENT_DATE_YYYYMMDD: 2023/02/06
EVENT_TIME_HHMMSS: 01:17:32.00000
EVENT_LATITUDE_DEGREE: 37.288
EVENT_LONGITUDE_DEGREE: 37.043
EVENT_DEPTH_KM: 8.6
HYPOCENTER_REFERENCE: AFAD
MAGNITUDE_W: 7.7
MAGNITUDE_W_REFERENCE: AFAD
MAGNITUDE_L: 
MAGNITUDE_L_REFERENCE: 
FOCAL_MECHANISM: 
NETWORK: TK
STATION_CODE: 2104
STATION_NAME: 
STATION_LATITUDE_DEGREE: 38.2644
STATION_LONGITUDE_DEGREE: 39.759
STATION_ELEVATION_M: 919.0
LOCATION: Kahramanmaras_Pazarck_Turkiye
SENSOR_DEPTH_M: 
VS30_M/S: None
SITE_CLASSIFICATION_EC8: unknown
MORPHOLOGIC_CLASSIFICATION: 
EPICENTRAL_DISTANCE_KM: 262.22
EARTHQUAKE_BACKAZIMUTH_DEGREE: 
DATE_TIME_FIRST_SAMPLE_YYYYMMDD_HHMMSS: 2023/02/06 01:17:54.7016190
DATE_TIME_FIRST_SAMPLE_PRECISION: millisecond
SAMPLING_INTERVAL_S: 0.01
NDATA: 18251
DURATION_S: 
STREAM: HNZ
UNITS: cm/s^2
INSTRUMENT: sensor = GMS+/GEOSIG | digitizer = 
INSTRUMENT_ANALOG/DIGITAL: 
INSTRUMENTAL_FREQUENCY_HZ: 
INSTRUMENTAL_DAMPING: 
FULL_SCALE_G: 
N_BIT_DIGITAL_CONVERTER: 
PGA_CM/S^2: 80.515
TIME_PGA_S: 
BASELINE_CORRECTION: BASELINE REMOVED
FILTER_TYPE: BUTTERWORTH
FILTER_ORDER: 
LOW_CUT_FREQUENCY_HZ: 
HIGH_CUT_FREQUENCY_HZ: 
LATE/NORMAL_TRIGGERED: 
DATABASE_VERSION: 
HEADER_FORMAT: DYNA 1.2
DATA_TYPE: Acceleration
PROCESSING: Automatic Paolucci et al., 2011
DATA_TIMESTAMP_YYYYMMDD_HHMMSS: 
DATA_LICENSE: U (unknown license)
DATA_CITATION: Turkish Accelerometric Archive v 1.0 - Disaster And Emergency Management Presidency, Earthquake Department
DATA_CREATOR: AFAD
ORIGINAL_DATA_MEDIATOR_CITATION: : AFAD - Disaster And Emergency Management Presidency
ORIGINAL_DATA_MEDIATOR: AFAD PROCESS SERVICE
ORIGINAL_DATA_CREATOR_CITATION: AFAD PROCESS SERVICE
ORIGINAL_DATA_CREATOR: network: TK
USER1: GuestUser
USER2: 
USER3: 
USER4: 
USER5: 
[...]
3.550574
3.125075
2.925833
3.234178
3.690591
4.079204
3.823073
2.671262
1.363851
0.929259
1.016802
1.209550
1.562575
1.439185
1.027194
1.607516
2.825308
3.392901
3.227949
2.562684
1.685448
0.491035
-1.124201
-2.410052
-3.495362
-4.192579
-3.793835
-3.330408
-3.408078
-3.691485
-4.101138
-4.198032
-3.385477
-1.880122
-0.889366
-0.380221
0.365573
1.202286
1.969121
2.165506
1.771958
1.561027
1.576354
0.899918
-0.691160
-2.126637
-2.755535
-2.664356
-2.263793
-2.083774
-2.354971
-2.912173
-3.252209
-3.348063
-3.646536
-3.634846
-2.899962
-2.179365
-1.256150
0.003725
0.656782
0.908757
1.550125
2.501655
3.477863
4.434069
5.142457
5.609000
5.752393
5.293643
4.605778
4.278471
4.551747
4.857754
4.451737
3.422797
2.319822
1.140476
-0.041987
-0.520739
-0.663870
-0.765699
-0.606981
-0.843109
-1.556172
-1.920106
-1.516686
-0.885450
-0.159658
0.626920
1.078397
1.226725
0.940720
0.628740
0.212852
-0.482027
-1.171191
-1.727614
-1.261849
-0.575542
-0.449295
-0.184851
-0.462282
-1.186775
-1.288084
-0.938955
-0.497609
-0.442019
-1.355362
-2.745380
-4.084743
-5.241229
-6.189122
-7.091296
-7.423798
-7.359635
-7.730324
-8.062826
-8.523394
-9.931336
-11.237189
-11.286025
-10.591925
-9.737288
-8.964998
-8.607557
-8.753546
-9.384522
-9.963544
-10.479183
-11.447857
-12.585900
-13.681341
-14.254129
-14.312057
-14.372582
-14.393363
-14.473112
-14.289196
-13.778751
-13.138683
-12.220663
-11.053005
-9.341394
-7.251561
-5.365386
-3.894579
-2.971104
-2.385327
-1.822669
-1.050119
-0.188988
0.634477
1.440537
1.694590
1.594580
1.608608
1.543666
1.491713
1.607570
1.931761
1.975402
1.568866
1.262340
1.041278
0.989584
0.944385
0.584607
0.457321
0.499404
0.143522
-0.529796
-1.429372
-2.618589
-3.724940
-4.028349
-3.444650
-2.468701
-1.469114
-0.997895
-1.273768
-1.822397
-2.679631
-3.652721
-3.854820
-3.866769
-4.322402
-4.593080
-4.735692
-4.868433
-4.854145
-4.474624
-3.541797
-2.595462
-1.692768
-0.717339
0.207695
1.359506
2.492354
3.207236
3.897699
4.788964
5.851934
7.184544
8.033466
7.959692
7.855006
7.771361
7.299104
6.938286
6.475380
5.391369
4.328919
3.840296
3.317903
2.528988
1.855930
0.493447
-1.296873
-2.126312
-2.096957
-1.501309
-0.885659
-0.468471
0.339148
1.296133
1.743454
1.717997
1.861129
2.400668
3.688857
5.649066
7.091818
7.479652
7.128965
6.775681
6.948168
7.125590
6.801659
6.339792
5.978715
5.856885
6.187570
6.723731
7.254957
7.736307
8.144143
8.895912
10.274241
11.159270
11.022373
10.803649
11.108877
12.114179
13.007781
13.326776
13.402369
12.816073
11.686862
10.527778
9.064766
7.221453
5.397623
4.268932
4.467654
5.019662
4.639881
3.556649
1.965311
-0.207907
-2.130449
-3.044312
-3.394998
-3.623853
-3.827771
-4.485503
-5.641989
-6.349337
-6.324399
-6.073982
-5.185835
-3.926740
-3.156008
-2.328387
-1.106438
-0.026323
0.734538
0.938976
-0.040089
-1.470891
-2.237206
-2.660367
-2.574643
-1.914053
-1.511153
-1.373475
-1.113967
-0.448441
-0.153864
-1.208521
-2.623217
-3.937383
-5.274148
-5.774720
-5.040876
-3.856334
-3.457070
-3.248476
-2.314090
-1.114741
-0.128922
0.011094
-0.584294
-1.415032
-2.218493
-2.798815
-3.032605
-2.114066
-0.711059
-0.343487
-0.460382
-0.737554
-1.587774
-2.655679
-3.490054
-3.962571
-4.345728
-4.457168
-4.319231
-4.454310
-4.465220
-3.963348
-3.358608
-3.284314
-3.528755
-3.463293
-3.296002
-3.472904
-3.896066
-4.233763
-4.637962
-4.714593
-4.165703
-4.083097
-4.742907
-5.674434
-6.681814
-7.174593
-6.846506
-6.127728
-5.571304
-5.173599
-4.811223
-4.702639
-4.753553
-4.524178
-3.766435
-2.881665
-2.186266
-1.565680
-1.441510
-1.981827
-2.465255
-2.309394
-1.617891
-0.706625
0.375309
1.409445
1.982234
2.173943
2.423581
2.688284
2.404099
1.718831
1.597780
1.919373
1.742212
1.166047
0.653265
0.256340
0.136328
0.197633
0.228546
0.488574
1.006292
1.598303
2.019907
2.125114
2.194212
2.252401
2.589580
3.353298
3.866600
4.122212
4.251836
3.808413
3.242119
2.921826
2.533733
2.413720
2.306956
1.606103
0.995648
1.045005
0.951748
0.119192
-0.993393
-2.510178
-4.203345
-4.751714
-4.664432
-5.211763
-5.978337
-6.118092
-5.505559
-4.863672
-4.308288
-3.509761
-2.880083
-2.430165
-1.865429
-1.236790
-0.622439
0.060751
0.528854
0.436896
-0.009645
-1.069757
-2.742143
-4.079427
-4.830676
-5.753891
-7.067797
-8.393132
-9.417656
-9.709375
-9.569880
-9.199190
-8.417289
-7.721370
-6.801272
-5.354883
-4.057083
-3.403766
-3.706915
-4.530119
-5.213568
-5.615948
-5.832074
-6.389017
-7.050905
-7.491471
-8.192844
-8.257526
-7.364963
-6.812696
-6.260169
-4.873008
-3.066841
-1.285612
0.845265
3.210971
5.141307
6.786678
8.149420
9.387994
10.463953
10.980892
11.968010
13.699624
14.671416
14.515815
13.880423
12.730431
11.397562
10.430707
9.363321
7.984992
6.820193
6.030499
5.237948
4.583333
4.070292
2.953290
1.587171
0.648889
0.175073
-0.048327
-0.680342
-1.971908
-3.587404
-5.147050
-6.651106
-7.601597
-7.369623
-6.786704
-6.253660
-5.943756
-6.767999
-7.972023
-8.430254
-8.296213
-7.613283
-6.507970
-6.004539
-6.754229
-7.504439
-7.413779
-7.057897
-6.726692
-6.706170
-6.969834
-7.053479
-6.933466
-6.908008
-6.836052
-6.310541
-5.365246
-3.938340
-2.073466
-0.533301
0.393291
1.464575
3.014870
4.453465
5.913881
7.565745
8.261144
8.143989
8.264522
8.415707
8.704050
9.322298
9.612979
9.199689
8.424282
7.977481
7.571724
6.683058
6.291329
6.036497
5.369673
5.604763
6.241455
6.625392
7.294555
7.597445
7.093235
5.894407
4.442824
3.952123
4.072655
4.083566
3.947708
2.839019
1.800986
1.774750
2.391440
4.107207
6.307442
8.294407
9.634290
10.666868
11.845436
12.075071
11.774260
11.708279
11.619699
11.639961
11.642040
11.901808
12.411473
12.617469
13.153631
13.957353
14.517933
14.837448
14.422339
14.029310
13.959173
13.182987
11.902851
10.466855
8.518076
6.614757
5.843766
5.684269
5.410214
5.361898
5.217207
4.857169
5.126029
5.707650
5.957547
6.243292
6.580731
6.710096
6.949603
7.135597
7.491739
7.944515
8.294163
9.221275
8.958390
8.818895
8.752914
8.366120
9.268035
9.119448
9.554300
10.139558
9.124385
8.421713
10.761703
8.682781
3.003475
8.250527
7.439532
-0.587816
5.378275
5.196178
-2.721808
0.732586
4.301019
2.008307
1.515268
4.985248
4.495327
0.916504
1.586446
3.163498
-1.239568
-3.903748
-0.077366
-4.486407
-5.945523
-2.610622
-10.775906
-11.063209
-3.111973
-8.133806
-13.292017
-10.597963
-9.161966
-9.941789
-11.193610
-6.150995
-3.574356
-10.166487
-7.934301
-1.123705
-4.279105
-7.733239
-4.625635
-0.643392
-2.501772
-5.881872
-1.963012
0.675451
0.159812
1.315000
1.253436
3.534718
5.784049
4.989419
5.180089
7.491504
8.157290
8.405109
8.182228
7.613337
10.103733
9.075571
14.088833
11.355815
4.410141
15.270259
9.809937
7.959871
14.969449
8.431090
12.723756
11.024614
7.018733
8.711381
2.237965
3.058572
1.636863
-4.123490
-0.029028
1.366186
-2.527475
-3.958277
-2.882317
-4.975527
-8.377447
-8.308608
-9.056220
-9.451846
-11.929772
-12.639198
-11.509207
-14.465366
-15.585225
-17.179940
-18.426825
-18.159784
-19.495510
-19.564868
-19.443036
-21.527933
-21.879918
-20.300529
-20.181555
-19.247948
-19.920487
-18.856218
-16.518046
-20.944751
-21.794971
-18.971813
-21.032032
-22.130071
-22.648827
-24.188990
-24.566693
-25.823449
-26.706140
-26.593141
-26.781213
-26.318825
-26.184525
-24.907246
-22.276056
-21.343489
-19.137539
-17.661018
-17.540485
-14.088948
-11.799613
-10.927312
-9.822259
-8.580828
-7.030533
-7.843346
-8.715906
-8.541601
-8.119478
-7.409532
-6.557233
-6.787907
-8.219228
-8.872024
-10.096310
-10.505963
-9.718866
-9.497803
-8.679534
-8.008813
-7.482003
-7.502784
-7.938674
-7.636044
-6.578269
-4.413623
-2.607716
-1.042094
0.136993
1.157881
3.165368
4.563180
5.867735
7.521937
9.163411
10.775012
11.945267
12.945114
13.613237
14.423973
15.186912
14.988969
14.286817
13.798194
13.352173
12.962261
12.766656
12.489225
12.288165
12.141656
12.222964
12.324014
11.747849
10.882562
10.520966
10.981535
12.274400
13.927563
15.007679
15.328752
14.635172
13.323085
12.707176
12.484035
12.209461
11.763959
11.503932
12.501182
13.652214
14.015370
14.941443
16.361334
17.655499
19.453353
21.483699
23.313505
24.778856
25.694019
26.393314
26.848169
27.178334
27.044034
26.317464
25.191890
23.233500
21.488119
19.715204
17.530816
16.086506
14.753118
13.664951
13.396611
13.398170
13.015272
12.137776
10.955053
9.459310
8.479726
7.754194
6.675638
6.158700
6.495620
7.329995
8.144627
7.992404
6.289106
3.636616
1.019454
-1.730708
-4.339297
-6.696171
-8.970699
-10.064581
-11.033775
-12.155193
-12.781233
-13.698993
-13.491178
-12.738370
-12.298063
-11.973613
-11.950753
-11.854898
-11.555385
-10.268495
-9.960150
-7.937596
-7.007886
-7.433126
-2.017224
-0.944902
-1.256623
2.292846
2.453903
2.756792
3.295552
3.267757
2.990585
2.518327
0.049233
-3.152146
-3.484129
-6.107265
-9.498795
-10.543321
-9.981963
-10.957391
-11.684221
-8.613244
-11.267553
-11.775398
-8.957176
-11.364185
-7.945899
-6.137134
-7.524814
-4.969477
-6.021017
-0.983077
4.231504
-1.965519
2.984879
5.041981
0.459156
5.125627
-0.757856
5.675817
10.703885
0.306674
6.629686
6.392778
4.949248
5.556585
1.573045
5.106928
1.712021
-1.538195
-0.454183
-1.187767
-3.958711
-6.881359
-4.695672
-3.863635
-2.132801
-1.517670
-5.064541
-1.577156
-3.183560
-8.602319
-4.105216
-8.194742
-12.331286
-8.831693
-12.824065
-14.237982
-13.402048
-14.960655
-14.496969
-15.282247
-15.352125
-13.816116
-12.302189
-9.117433
-4.549414
-2.183707
-2.415939
-0.573405
2.325345
3.138160
3.408838
3.953572
3.219988
2.449776
4.362967
5.376582
4.447912
5.239685
4.828473
2.327947
1.282642
1.667098
1.092752
-0.673929
-0.131014
-2.008876
-5.636535
-3.924664
-2.935727
-3.203547
-4.585252
-5.268442
-2.724534
-4.944510
-5.250776
-3.042749
-5.057508
-4.410945
-4.455106
-7.218516
-8.071594
-8.566451
-9.112743
-9.611757
-9.971275
-9.611236
-9.135081
-9.519018
-9.658253
-10.442752
-10.609523
-7.372294
-5.326362
-3.783080
-0.804061
1.460856
3.243383
4.773936
7.076779
8.833590
9.642508
10.184384
10.017094
8.756700
6.170971
4.781213
3.932032
2.605138
2.209771
1.875710
1.660363
2.650858
4.220377
4.878109
5.315559
6.066289
6.776494
7.790369
8.623705
9.863837
11.269182
12.194995
13.387850
14.489526
14.810080
14.631880
14.170273
12.893773
12.493991
12.564908
11.028381
10.286225
9.725646
7.896101
6.899891
6.623239
6.050710
4.991637
4.733168
5.714312
6.276450
8.060277
11.034620
12.190328
13.214333
14.959455
15.549648
15.025956
14.649812
15.159218
15.475096
15.175064
14.508760
14.144046
14.437584
14.530841
14.577080
14.008449
12.687789
11.155678
9.003761
6.931853
4.605891
1.933139
0.087748
-1.979744
-3.731359
-4.018402
-3.978657
-4.348047
-5.229699
-5.514924
-5.214891
-4.676392
-4.063599
-4.470655
-5.326071
-6.729077
-8.235211
-9.215834
-10.706642
-12.200047
-13.596819
-14.429635
-14.340794
-15.447145
-17.153820
-18.768277
-21.497399
-23.478908
-23.987533
-23.984156
-23.299667
-22.605826
-22.359566
-21.455313
-19.162601
-16.819235
-14.879028
-13.783846
-13.341461
-11.834027
-10.560644
-9.186991
-7.211715
-6.056527
-4.119697
-1.594233
1.123719
4.669552
7.168260
8.367869
8.698813
8.066279
6.926937
5.561597
4.573181
3.897525
4.103261
5.268061
5.816172
6.010738
6.097241
4.845940
2.782603
1.555200
0.709656
-1.184571
-2.746555
-2.734606
-3.002946
-2.961382
-2.156881
-2.238967
-2.637970
-3.976034
-5.501651
-6.342000
-7.611745
-8.312339
-8.626917
-8.357278
-8.010487
-8.848239
-8.815248
-7.630965
-6.380962
-5.310458
-3.953949
-1.597334
-1.025844
-0.981943
0.495098
2.776640
5.000773
3.911047
4.832444
5.592525
5.986594
7.911474
5.909443
8.219820
6.552110
1.869274
3.550233
1.590284
1.155433
3.261372
6.006340
9.792717
9.900521
8.251515
7.375059
6.652904
6.568480
8.794432
9.676084
10.296930
11.691365
11.142216
10.797764
10.456429
9.171098
8.544538
8.422967
8.097738
7.637689
5.087028
3.840143
4.545932
4.120173
3.848197
3.300346
2.263613
2.153212
3.740914
3.846380
3.212027
2.185165
4.436314
6.594986
5.507338
9.778183
9.619725
9.417106
10.430981
9.792212
15.303708
11.175737
10.312788
18.152324
8.120607
0.157422
12.380542
12.499256
-0.853334
3.281133
5.875695
0.437973
2.151663
-0.388867
0.834640
0.062610
-2.063070
-1.468461
-6.398596
-3.042134
-5.724498
-10.423699
-4.533980
-5.057932
-5.890748
-5.902697
-4.647498
-0.499783
-7.935899
-4.837387
5.218490
-1.298827
-1.392084
0.718791
1.154422
-0.302876
-4.164066
-1.502743
-4.161467
-7.387005
-7.660540
-8.075130
-7.358689
-8.352301
-12.380522
-11.763053
-9.049517
-11.689019
-13.104494
-14.515293
-15.207055
-15.720356
-16.401986
-17.445474
-18.933684
-19.283850
-19.278135
-16.843590
-17.057898
-16.750852
-13.405041
-12.721331
-13.071498
-11.354951
-7.623385
-5.052201
-5.633562
-5.944763
-3.072509
0.363702
1.475509
3.628725
2.927612
-1.059825
3.031780
3.120621
-2.247743
-2.384900
1.119630
-1.101905
-8.347612
1.850098
8.193891
-0.320782
2.973855
6.731659
6.255504
9.904984
10.127346
16.216047
11.827008
9.733279
20.790301
3.857070
6.265638
16.435813
0.486322
5.974699
9.332200
-2.892738
4.163599
-13.359046
-38.602773
45.670617
80.515367
-32.403411
-51.813269
30.071035
14.566008
-17.799256
43.106451
24.513822
-30.860387
-11.776016
9.622627
27.440888
1.059378
2.690721
-0.578978
-34.408294
20.995269
-6.454927
-38.503015
19.719290
-24.432425
-25.423439
0.850268
-30.356171
-5.329350
-17.338940
-17.513244
1.376820
-30.415397
-16.276488
-3.452784
-3.727878
3.069989
-9.413937
-19.249790
-23.197223
4.996689
23.741024
-0.489608
-18.253058
-17.909385
-6.875742
-4.450808
-19.215757
-13.211480
14.208843
18.114194
2.242894
2.633066
-2.493714
-23.543228
-0.811716
11.374777
-4.967482
6.809097
-2.809330
2.469155
-1.416453
-19.392393
16.050862
10.565603
-5.783930
13.568521
33.324911
27.503772
5.883808
43.555093
21.161020
-26.764343
21.891488
29.636729
-1.444503
10.400655
38.920056
7.228110
4.632509
54.405602
14.858274
19.149901
41.002358
19.749706
32.171548
21.281298
32.661471
18.932477
4.855654
34.691819
22.537797
21.726542
18.336571
6.866779
10.947474
13.618408
16.418187
0.807953
-6.796492
-15.463389
-32.328821
-9.409497
2.348379
-19.309511
-11.308659
-22.076559
-29.363308
-3.134541
-16.552333
-15.355062
-5.105658
-14.582771
-15.120231
-15.005673
1.519984
0.027358
-7.162239
-5.040454
-9.945651
-6.135895
-4.167373
3.281992
1.458941
-7.181459
-11.411000
-3.810190
2.826361
-1.443444
2.746613
-18.907121
-7.323030
11.384677
-18.621635
-15.479482
-5.749354
-2.910870
-16.248913
-23.960124
-6.923764
-21.311529
-15.545460
-15.315046
-28.615423
-16.881965
-27.211117
-19.706681
-9.912650
-27.193451
-31.798097
-19.212601
1.566755
-3.065426
0.892139
8.748041
-11.956501
12.099048
19.846886
-13.231701
10.467966
14.480342
-7.649287
14.549960
28.376888
17.463778
3.893242
-6.164971
-12.261205
-5.817401
7.402708
2.651553
-0.207192
3.883893
-8.345461
-14.422211
-5.734273
7.019034
6.739004
-14.393895
-8.179986
7.167623
0.552633
4.006507
2.165792
-14.208419
-15.134491
-2.375469
-3.071387
-13.152720
-9.608187
-14.687169
-19.198298
-0.801793
-3.922644
-13.997223
-12.965425
-9.773656
-1.489397
-9.573374
-6.543181
-3.888612
-12.595253
-5.603599
-9.766899
-15.312944
-4.925344
4.191471
-5.420201
-5.776343
11.998018
-2.490537
-5.776082
19.618571
16.688909
6.770450
16.580326
24.675215
4.019249
-10.875064
6.629658
9.787917
9.191490
14.441140
5.987253
7.070486
10.870891
19.606887
25.370618
6.369114
1.611465
4.564767
1.193239
6.505754
0.954773
-7.377542
-4.663227
-3.223593
-5.179905
-1.272215
-0.174436
-3.886779
5.597608
8.758465
-3.352955
-0.124558
12.021151
6.239497
-3.115525
-2.428698
-4.841682
-7.621458
-5.231333
-3.313207
-4.725565
-7.912137
-4.144463
0.354978
0.675532
2.125037
-3.642330
-2.636248
4.596990
-0.075975
1.182081
2.543785
-5.809052
-4.664514
4.737007
6.018183
1.510690
3.846264
1.448606
2.067374
15.140455
18.950471
21.712844
16.155109
5.115493
8.753802
7.426389
9.772353
15.664410
11.457469
10.224351
14.245558
12.612917
4.862482
10.544906
16.321365
13.114011
16.181351
17.830358
20.306207
18.581608
16.034064
16.036922
5.842850
3.828350
7.999963
8.895384
5.482553
-0.630045
5.049781
1.445501
-7.953681
-1.338951
3.079962
4.241385
4.933926
2.724860
4.085265
-2.666103
-11.507823
-10.737351
-12.180102
-15.550590
-15.724115
-14.702187
-13.806507
-14.845319
-16.171693
-10.501998
-4.924781
-3.334221
-1.142559
-4.670986
-6.030611
-3.683348
-1.620530
-2.558292
-8.528278
-6.344669
-5.106095
-10.812157
-11.444691
-12.460903
-15.329520
-10.944896
-6.122305
-6.355056
-5.352612
-9.654368
-13.629596
-9.088593
-10.640965
-8.582304
-0.071008
-6.592221
-13.888063
-14.123932
-16.135834
-16.268835
-17.863809
-18.146956
-17.971353
-19.394101
-18.232419
-16.908121
-17.815231
-21.018428
-20.495515
-17.098530
-14.919856
-10.128176
-3.725936
-1.074224
-1.508556
1.498518
3.793308
2.958934
5.378932
5.793003
4.533388
2.373419
3.074273
10.488309
8.014540
3.264684
3.873061
2.471873
2.101184
-0.563515
-3.450315
-8.397855
-8.449808
-0.434408
1.959353
3.790718
1.605031
-7.318776
-11.704438
-10.465604
-7.768693
-8.224066
-12.015379
-18.558413
-20.248722
-14.888151
-9.984511
-6.732476
-11.682873
-16.796145
-11.903935
-7.954943
-6.139424
-5.704573
-9.563944
-11.396866
-11.720537
-11.455573
-10.806932
-18.086668
-20.913982
-17.193585
-20.156758
-18.950655
-15.045823
-11.654552
-10.711854
-10.445332
-2.088078
0.419202
0.128523
-2.202894
-5.749765
-3.559921
-7.976235
-4.714848
0.947833
-9.451716
-12.666863
-6.821045
-8.074685
-9.810454
-9.160514
-15.622241
-21.332978
-13.035731
-1.061988
3.349132
4.588745
4.886179
3.493824
6.957050
7.167982
7.361509
8.089639
2.740239
18.915208
23.301390
9.731114
16.136212
8.693342
6.178010
15.272745
8.063666
7.852994
7.326185
8.028079
16.966953
15.506019
14.018328
15.733836
11.505074
10.338457
17.568838
16.026336
3.803996
5.422350
6.330240
-0.491006
6.753402
10.927354
7.367494
5.792002
4.080911
9.493956
12.157876
12.791710
16.239870
9.740997
8.026529
13.179286
14.092110
18.492060
15.990755
10.512250
15.412512
17.191144
14.546187
12.725474
7.190599
2.732722
4.164304
4.681762
-3.012304
-10.375945
-8.048424
-2.974636
2.524911
2.669082
-4.696377
-9.909399
-14.095819
-13.784357
-10.156957
-8.566138
-8.219867
-6.171077
0.376893
4.191326
8.763502
10.433810
2.380225
-1.980239
2.814038
4.653975
0.185448
2.457118
3.333576
1.481950
7.335301
12.253488
12.420519
8.217994
7.289064
12.860567
18.699371
21.100406
19.860794
17.635882
10.798271
3.210191
1.221928
0.025437
-2.424434
2.377636
4.183283
-8.883043
-12.092995
-6.832174
-14.551178
-17.589163
-11.093146
-13.944359
-18.354698
-13.410795
-6.826457
-7.621866
-19.302070
-22.362915
-12.830731
