EVENT_NAME: 202302060117
EVENT_ID: 13194
EVENT_DATE_YYYYMMDD: 2023/02/06
EVENT_TIME_HHMMSS: 01:17:32.00000
EVENT_LATITUDE_DEGREE: 37.288
EVENT_LONGITUDE_DEGREE: 37.043
EVENT_DEPTH_KM: 8.6
HYPOCENTER_REFERENCE: AFAD
MAGNITUDE_W: 7.7
MAGNITUDE_W_REFERENCE: AFAD
MAGNITUDE_L: 
MAGNITUDE_L_REFERENCE: 
FOCAL_MECHANISM: 
NETWORK: TK
STATION_CODE: 3305
STATION_NAME: 
STATION_LATITUDE_DEGREE: 36.92142
STATION_LONGITUDE_DEGREE: 34.89897
STATION_ELEVATION_M: 15.0
LOCATION: Kahramanmaras_Pazarck_Turkiye
SENSOR_DEPTH_M: 
VS30_M/S: 362
SITE_CLASSIFICATION_EC8: B
MORPHOLOGIC_CLASSIFICATION: 
EPICENTRAL_DISTANCE_KM: 194.45
EARTHQUAKE_BACKAZIMUTH_DEGREE: 
DATE_TIME_FIRST_SAMPLE_YYYYMMDD_HHMMSS: 2023/02/06 01:17:45.5351020
DATE_TIME_FIRST_SAMPLE_PRECISION: millisecond
SAMPLING_INTERVAL_S: 0.01
NDATA: 13501
DURATION_S: 
STREAM: HNE
UNITS: cm/s^2
INSTRUMENT: sensor = CMG-5T/GURALP | digitizer = 
INSTRUMENT_ANALOG/DIGITAL: 
INSTRUMENTAL_FREQUENCY_HZ: 
INSTRUMENTAL_DAMPING: 
FULL_SCALE_G: 
N_BIT_DIGITAL_CONVERTER: 
PGA_CM/S^2: 17.471
TIME_PGA_S: 
BASELINE_CORRECTION: BASELINE REMOVED
FILTER_TYPE: BUTTERWORTH
FILTER_ORDER: 
LOW_CUT_FREQUENCY_HZ: 
HIGH_CUT_FREQUENCY_HZ: 
LATE/NORMAL_TRIGGERED: 
DATABASE_VERSION: 
HEADER_FORMAT: DYNA 1.2
DATA_TYPE: Acceleration
PROCESSING: Automatic Paolucci et al., 2011
DATA_TIMESTAMP_YYYYMMDD_HHMMSS: 
DATA_LICENSE: U (unknown license)
DATA_CITATION: Turkish Accelerometric Archive v 1.0 - Disaster And Emergency Management Presidency, Earthquake Department
DATA_CREATOR: AFAD
ORIGINAL_DATA_MEDIATOR_CITATION: : AFAD - Disaster And Emergency Management Presidency
ORIGINAL_DATA_MEDIATOR: AFAD PROCESS SERVICE
ORIGINAL_DATA_CREATOR_CITATION: AFAD PROCESS SERVICE
ORIGINAL_DATA_CREATOR: network: TK
USER1: GuestUser
USER2: 
USER3: 
USER4: 
USER5: 
[...]
2.689054
0.180329
-2.020334
-3.435685
-3.763847
-2.830685
-1.670187
-1.140971
-1.861016
-3.782999
-5.799629
-6.311206
-4.966056
-3.451101
-2.971373
-3.008484
-2.023669
0.163085
1.777634
1.848159
1.067182
0.333219
-0.055566
0.012176
0.338492
0.800281
1.632302
3.075499
4.345798
4.180946
2.871067
1.770274
1.953384
2.496210
1.414593
-1.334458
-3.314280
-2.891463
-1.239488
-0.539538
-0.116721
1.095120
2.443363
2.015915
-0.186912
-2.067759
-2.380766
-2.271269
-3.561972
-5.143416
-5.727060
-4.664301
-3.202546
-2.519298
-2.265668
-1.805116
-0.779473
-0.606260
-1.572198
-2.577727
-2.526069
-1.939013
-1.853642
-2.187681
-2.909582
-3.214856
-2.670792
-1.497614
-0.518985
0.234474
0.523674
0.115403
-1.222313
-2.947891
-4.124772
-4.376228
-3.553795
-2.330819
-1.031137
-0.254481
-0.382526
-1.138140
-1.656522
-0.944200
0.624573
1.459997
0.421682
-1.671344
-3.447957
-4.833924
-6.175352
-7.377905
-7.464813
-6.177812
-4.740182
-4.434898
-5.103600
-5.086893
-3.884640
-2.378345
-1.215992
-0.329844
1.076547
2.420768
3.443318
4.175744
5.237884
6.525504
6.884606
6.246216
5.318940
5.128107
5.184714
4.703139
3.426664
2.301746
2.069466
2.217316
1.576761
-0.287692
-2.008631
-2.695890
-2.404525
-1.938406
-1.463007
-0.306531
1.771968
3.426417
3.835007
3.658711
3.790787
4.392070
4.624050
4.558483
3.605535
1.919547
0.038701
-1.371083
-2.175257
-3.066654
-4.938840
-7.437977
-9.208095
-10.097327
-10.148356
-10.553225
-11.095113
-11.409666
-11.860311
-12.128160
-12.195582
-11.644405
-11.443356
-11.001980
-9.611364
-7.586374
-5.796761
-4.675854
-3.891465
-3.528342
-2.947782
-1.809554
-0.833399
-0.875769
-1.388892
-2.281836
-3.506039
-5.080988
-6.715942
-7.597750
-7.487944
-6.585094
-5.095192
-2.923903
-1.134290
-0.367841
-0.086373
0.097974
0.773180
1.444675
1.896876
2.238038
2.648793
3.611957
4.509859
5.455702
5.704693
3.986538
0.623837
-2.861657
-4.497229
-4.785182
-4.005742
-2.345107
-0.305889
1.344539
2.285743
2.726499
2.261627
1.376725
0.349546
-0.401429
-0.151820
0.967232
2.411047
3.027487
2.213415
0.236376
-1.540237
-2.335442
-2.709999
-3.353956
-3.840171
-4.511655
-5.798028
-7.435456
-9.715609
-11.820388
-13.247183
-13.529260
-13.349861
-13.135512
-12.804556
-12.858988
-12.875067
-11.990155
-10.242917
-8.247929
-5.987871
-3.604093
-2.016762
-1.407128
-1.525585
-1.960764
-2.462444
-2.937523
-3.053506
-2.624193
-1.958266
-1.607825
-1.663184
-2.122180
-3.278029
-5.157020
-7.303245
-8.730040
-9.079853
-8.467744
-7.288380
-5.777755
-3.978554
-2.475971
-1.474454
-0.863582
-0.132702
0.384761
0.756544
1.836314
3.231880
3.896569
3.024349
1.404551
0.271282
-0.318857
-1.327479
-3.534637
-6.155638
-7.832037
-7.986682
-7.404575
-6.692872
-5.996633
-4.882840
-3.735952
-3.773682
-4.495892
-5.317387
-5.881854
-6.484675
-7.467934
-7.823314
-6.960673
-5.326947
-3.787248
-2.406529
-1.036327
0.436873
1.537675
1.536134
0.641025
-0.950936
-2.199265
-2.631661
-2.451334
-1.936036
-1.946238
-2.677109
-3.877496
-4.364638
-3.229503
-1.063163
1.533722
3.820998
5.042427
5.209763
5.389781
6.630696
8.068016
8.689095
8.535687
8.493627
9.066455
9.598146
9.730841
9.068944
8.211879
7.424098
6.550949
5.316539
3.757983
2.537800
1.914257
2.242119
3.188581
3.883582
3.827604
3.043225
1.892635
0.971236
0.703696
0.549360
-0.015107
-0.125213
0.635979
1.932568
3.281120
4.313876
4.955678
4.854542
3.860148
2.142921
0.698496
-0.108153
-0.623442
-0.880156
-0.560335
0.927092
2.824032
4.212174
4.492405
4.060318
3.550597
2.879730
1.636969
0.319357
0.180486
1.258710
2.649326
3.488152
4.163049
4.249657
4.062226
4.003464
4.540413
5.629463
6.662219
7.815912
8.747218
9.088071
8.137907
6.794933
6.047669
6.567298
7.941831
9.147795
9.658144
9.487725
9.855487
10.565644
10.792675
9.875297
8.471390
8.236946
9.485284
11.043541
12.147127
12.838108
12.861001
12.240859
11.060886
10.143817
9.709565
9.678949
9.307794
8.480422
7.620883
7.175187
7.073123
6.720217
5.710049
4.047259
3.127406
2.984824
3.273714
3.230727
2.752245
2.370574
2.614616
3.721604
4.803849
5.537203
5.914863
5.898166
5.416591
4.946460
4.089086
2.279378
0.093562
-1.817287
-2.671877
-2.448867
-1.906351
-1.998517
-2.489062
-2.975585
-3.393135
-3.933168
-4.379482
-4.340506
-4.106670
-4.172546
-4.183367
-3.253917
-1.835773
-0.650222
-0.039659
0.100458
-0.286471
-0.948368
-1.210030
-0.483790
0.659696
0.969310
0.379789
-0.535114
-0.964417
-0.763986
-0.317353
-0.315802
-0.803253
-1.305551
-1.465454
-1.361215
-1.377603
-1.076341
-0.171325
1.352290
2.321640
2.372680
1.893270
1.383549
0.624532
-0.698029
-1.781810
-2.698879
-3.495939
-5.306884
-7.953867
-10.495068
-11.920007
-11.883814
-11.214485
-10.661452
-10.865276
-10.639482
-9.810554
-8.577681
-7.014475
-4.714827
-2.332905
-1.556249
-2.713643
-5.291961
-7.505924
-8.245764
-8.193796
-8.537733
-8.913218
-8.433180
-7.494760
-7.136277
-7.979732
-8.917524
-9.316207
-9.077422
-8.788222
-8.658312
-8.148890
-7.073450
-5.414980
-3.956009
-2.906241
-1.795231
-0.912176
-0.421622
-0.258307
0.513092
2.092690
3.354328
3.767867
2.932453
1.763305
0.875929
0.703963
0.682936
0.114138
-0.691273
-1.646386
-2.201884
-3.289067
-5.133417
-7.382330
-9.471026
-10.524187
-10.832554
-10.236219
-9.455542
-8.634965
-7.738300
-6.897000
-5.751349
-4.348670
-2.804023
-1.273603
-0.303634
0.048663
-0.066082
0.074345
0.485409
0.271687
-0.768483
-2.467461
-4.189637
-5.736750
-6.795478
-7.197253
-7.046310
-6.757729
-7.166000
-7.618810
-7.958725
-8.045943
-7.917579
-7.724880
-6.942656
-5.610188
-3.387865
-0.899235
1.108435
2.062938
2.080264
2.124808
1.849536
0.947932
-0.285860
-0.844450
-0.060680
1.251993
2.039475
1.916069
1.627807
1.542445
1.232840
0.595688
-0.068683
-0.394371
-0.189610
0.625400
2.225721
3.439109
3.668614
2.883616
1.994694
1.145980
0.645229
1.427762
2.921375
4.311991
4.844919
5.129171
5.328365
5.188257
4.449035
3.132970
2.215901
1.751337
1.355748
0.567657
-0.757997
-2.291500
-3.559624
-4.191209
-4.148521
-3.924583
-3.764670
-3.215349
-2.344047
-1.737815
-1.452945
-1.253751
-1.791928
-3.318626
-5.896635
-7.993063
-8.542684
-8.051821
-7.960263
-8.852279
-9.378702
-8.677515
-6.774080
-5.125817
-4.711350
-5.523566
-6.516414
-6.860969
-6.546715
-5.296212
-3.408242
-1.719460
-0.979920
-0.773921
-0.441419
0.084704
0.400813
0.426181
0.287001
0.035854
-0.679242
-2.396160
-4.470319
-5.805561
-5.898346
-5.879783
-6.697567
-8.554907
-10.003353
-10.004894
-8.903473
-7.660084
-6.937555
-6.284927
-5.742411
-5.050193
-4.258072
-3.323054
-2.428864
-2.105332
-2.164712
-1.961188
-0.881109
0.802724
2.587078
4.182761
5.448110
6.624382
7.733536
8.253783
8.222548
8.204614
8.495051
8.835285
8.620945
7.704495
5.776326
3.910325
3.404316
4.491509
5.720671
5.852437
4.897015
3.482593
2.419225
1.688045
1.349986
1.208331
1.420206
1.659918
1.505583
1.223815
1.103812
1.037317
0.478417
-0.398133
-0.912494
-0.593292
0.127691
0.436995
0.211521
0.221423
0.883639
1.505645
1.251406
0.368360
-0.056304
0.117837
0.522096
0.931304
1.572488
2.332751
2.875577
2.976104
2.387821
1.065879
-1.197263
-3.636705
-5.367850
-5.715498
-4.949049
-4.031352
-3.780814
-4.197745
-3.958343
-2.547003
-0.404789
1.600716
2.824619
3.381982
3.847793
4.495471
5.270581
6.080642
6.685637
6.659351
5.990341
5.204415
4.723149
4.475405
3.919598
2.636009
0.915070
-0.060147
0.257200
0.888485
0.822300
0.409080
0.753645
1.439676
1.759188
1.549487
1.274525
1.218546
1.300206
1.470635
1.175568
0.402324
-0.690737
-1.881845
-2.770768
-3.310491
-3.859493
-4.613870
-5.351236
-5.709710
-5.459791
-4.310119
-2.181823
0.223606
2.083121
2.897512
3.034846
2.936493
2.387800
1.261645
0.249621
0.096522
0.150655
-0.159259
-0.770739
-0.790530
-0.432665
-0.243678
-0.884233
-2.528156
-4.213216
-5.393809
-5.905386
-5.824344
-4.536106
-1.936746
1.140172
3.536322
4.937763
5.579256
5.665555
5.704223
6.331178
7.714371
9.137155
9.712766
9.015609
7.771611
6.215529
4.438297
2.922115
2.392599
3.124716
4.100871
4.824637
5.253022
6.101745
7.278017
8.007350
7.465771
5.880306
4.355772
3.887188
5.175117
7.542811
9.888235
11.082756
10.889139
10.098574
9.964033
10.944518
11.921910
11.753965
10.401093
8.978628
8.076406
7.975888
7.968779
7.031606
5.369125
4.312871
4.208023
4.334532
4.278244
4.251030
4.695808
5.233066
5.545773
5.510209
5.633933
6.300479
7.314368
8.305369
9.258327
10.274690
10.963815
10.882474
9.718893
8.150439
7.484831
8.125705
8.738742
8.208607
7.567743
7.839931
8.304504
7.502185
5.858572
4.313315
3.188397
1.867073
0.186653
-0.897129
-0.344096
1.472117
2.729425
2.655198
1.961134
1.739989
2.056717
2.662949
2.757291
2.349329
1.993639
2.171182
3.406839
5.149129
7.040502
8.209350
8.704853
8.653514
8.234727
8.290406
8.598783
8.234123
6.858672
5.924283
6.553712
8.312086
9.534753
9.428668
8.709860
8.704916
9.543742
10.188636
9.844700
8.872576
8.252435
8.242232
8.189656
7.630447
7.341566
7.684584
8.389483
8.438667
7.960803
8.028236
8.747672
9.526184
9.656404
10.095305
11.617992
14.084971
16.140582
16.714957
16.107806
14.931853
13.720950
12.321992
10.911899
9.654910
8.703200
7.901500
7.397655
7.258475
7.245799
6.840002
5.630336
3.964453
2.694782
2.381466
2.552823
2.806454
2.781715
3.032561
3.894894
5.118488
5.980821
6.108257
6.008049
5.708651
5.635043
6.014868
6.979269
8.100176
9.055917
9.577092
9.508432
9.022836
8.160514
7.174162
5.784483
4.053956
2.438797
1.493273
1.023452
0.608685
-0.140124
-1.237206
-2.378517
-3.398892
-4.218531
-4.379981
-3.397331
-1.756491
0.002192
1.374560
2.373293
2.947977
2.985407
2.512493
1.334684
0.352662
-0.343567
-0.866588
-1.325584
-1.578895
-1.690857
-1.737866
-1.841786
-2.364497
-3.055777
-3.228052
-2.232721
-0.918811
0.219107
1.075254
1.526218
1.270741
0.684623
0.355223
0.430079
0.972286
1.362936
1.518519
1.947832
3.253081
4.720095
5.443861
5.264472
4.420088
3.659216
2.968554
2.774938
2.976915
3.383958
3.365714
2.954969
2.320291
1.559728
1.118981
0.926910
0.475337
-0.718245
-2.201642
-2.928801
-2.201942
-0.652654
0.848691
1.817113
2.652227
3.880152
5.110551
5.942572
6.353946
6.485094
6.053316
4.822617
2.771965
0.272519
-2.265590
-4.405939
-5.904491
-6.923011
-7.441392
-7.598821
-7.180024
-6.128400
-4.853771
-4.247230
-3.868952
-3.077139
-1.940458
-1.305770
-1.260917
-0.722112
0.479213
1.854673
2.264500
1.964794
1.325167
0.416449
-0.955600
-2.720768
-3.750113
-4.154672
-4.229518
-4.357254
-4.208785
-3.805144
-3.435836
-3.457173
-4.592607
-6.585111
-8.787629
-10.591460
-11.951137
-12.445084
-11.601310
-9.261762
-6.263096
-3.869421
-2.677375
-1.998148
-0.828372
0.304598
0.751850
0.690304
0.658761
0.955384
1.106018
0.312978
-1.043296
-2.568139
-4.332071
-7.274125
-11.178410
-14.626788
-16.511037
-16.441749
-15.454150
-13.720830
-11.329629
-8.601291
-6.532381
-5.574475
-5.709015
-6.133988
-5.730347
-4.598306
-3.406260
-3.213870
-3.558735
-3.340055
-2.215746
-1.455482
-2.276668
-3.770272
-5.144795
-5.994746
-7.178122
-8.716573
-10.244200
-11.248182
-11.914409
-12.782299
-13.597918
-14.001549
-13.450063
-12.581854
-11.539509
-9.796909
-7.339209
-5.041107
-3.830813
-4.168563
-5.115015
-5.857639
-6.285087
-6.758929
-7.756106
-8.157882
-8.170558
-8.515423
-9.616525
-11.217455
-12.482177
-13.576475
-14.322192
-15.162554
-15.652171
-15.688354
-15.132228
-13.903066
-11.954783
-9.524919
-7.806136
-7.274136
-7.176701
-6.212609
-4.349692
-2.831335
-1.967766
-1.009241
0.000937
0.078576
-1.093975
-2.516749
-2.952547
-2.266825
-1.851121
-2.912633
-4.907302
-6.578134
-7.605932
-8.051938
-7.860476
-6.953914
-5.354211
-3.888744
-3.058270
-2.713087
-2.715865
-2.475844
-2.024880
-1.242038
-0.908917
-0.897468
-0.246388
1.309395
3.176023
4.390957
4.863572
4.442311
4.006203
3.787842
3.359158
2.837992
2.439929
2.464677
2.629848
2.668206
2.478920
3.039994
5.316135
7.923537
9.130429
8.706075
7.806327
7.413212
7.356615
6.966592
6.327584
5.603209
4.672222
3.760720
3.816708
4.504905
5.236713
5.344354
4.898967
4.315014
3.271751
2.058064
0.720966
-0.666239
-2.055917
-3.045362
-3.019067
-2.283857
-1.627827
-1.333678
-0.466397
1.305276
3.264076
4.403232
4.429527
3.955376
3.549270
3.149350
2.097117
0.705583
-0.311699
-0.832555
-1.916337
-3.945338
-6.144763
-7.758066
-9.058357
-10.708775
-12.355482
-12.934487
-12.006892
-10.457296
-9.363607
-9.068530
-8.921299
-8.890673
-9.491019
-10.954930
-12.856190
-13.970902
-14.292569
-14.145028
-13.822733
-13.001228
-11.683916
-10.030395
-8.765045
-8.214486
-8.020241
-8.024257
-8.083638
-8.513560
-9.118855
-9.964784
-10.493064
-10.580591
-10.562956
-10.526763
-10.491807
-10.378289
-10.472002
-10.865427
-12.161697
-14.182966
-15.936381
-16.737463
-16.800246
-16.658272
-16.241641
-15.784182
-14.849473
-13.261833
-11.063016
-8.841312
-7.077680
-5.738098
-4.776790
-4.226541
-3.958992
-3.124805
-1.286323
1.187461
3.507213
4.964020
5.920998
6.829416
7.695460
7.990537
6.625293
3.820568
0.257749
-3.046495
-5.773895
-8.328706
-9.694568
-9.644766
-8.544892
-7.121490
-5.335588
-3.527727
-1.925859
-0.917227
-0.414611
0.688666
2.294555
4.394086
6.728995
10.339146
14.662542
17.413149
17.471302
15.085369
12.740573
11.725147
11.672880
11.298323
10.087729
8.298125
6.435218
5.045539
4.320855
4.430352
5.299798
6.112952
5.773964
4.927106
4.166852
3.502791
2.580154
1.810931
1.624428
2.576767
4.305447
6.098463
7.730023
9.413856
11.144393
12.346645
13.104744
12.856072
11.455877
10.068054
9.123457
8.262681
6.950636
5.115566
2.709838
-0.286653
-2.929924
-3.907306
-3.607899
-2.060777
0.181960
2.698427
5.188913
6.885118
8.192532
9.433138
10.822208
12.055700
12.836068
13.025365
12.728132
12.243155
11.760962
11.610647
11.282175
10.563986
9.213589
7.391818
5.446328
3.905092
2.930184
1.873930
0.960573
0.621895
1.178948
2.409966
3.734702
4.634150
6.033117
7.921088
9.800707
10.875219
11.133798
11.223191
11.150201
10.331180
9.167908
8.141657
6.626712
4.011278
0.798587
-1.644258
-3.396745
-5.020873
-6.292399
-7.062551
-7.071516
-7.015837
-7.110787
-7.243472
-6.822201
-6.099672
-5.620562
-5.503642
-5.626738
-4.959883
-4.159411
-3.829692
-3.997947
-4.114548
-3.895249
-4.001953
-4.326713
-4.276292
-2.805258
-0.487980
1.106156
1.568873
1.341543
1.137719
0.471492
-0.503107
-1.566165
-3.104307
-4.737096
-5.670867
-5.722206
-4.799560
-3.554005
-2.272572
-0.916288
0.149564
0.655583
0.682497
0.514243
0.146490
-0.311887
-0.259611
0.221665
1.298342
3.041250
4.411762
4.734367
3.919985
2.051201
-0.562686
-2.438584
-3.120894
-2.842520
-1.240342
0.498855
1.708222
2.214550
2.495708
2.826354
3.525686
4.527513
5.702238
7.763416
9.755001
12.032999
13.732915
13.468159
11.632470
9.013015
6.660177
3.855143
1.282702
-0.571854
-2.062983
-2.332997
-1.431074
0.018618
0.887446
0.791259
0.416701
0.817249
2.605316
4.830732
6.375689
6.669529
5.943298
4.961585
4.155246
4.187108
5.048513
6.234682
7.207125
7.368584
7.328071
7.176519
7.281376
6.690309
5.754683
5.167018
4.293870
3.500830
2.632012
1.918462
1.041293
0.263409
-0.855014
-2.379857
-3.980478
-5.208393
-5.496965
-4.644530
-2.715732
-0.271332
2.212659
3.517600
4.462206
5.139268
5.752923
6.839807
7.020752
7.106742
7.339341
8.309619
10.136347
11.894412
12.637664
11.179630
8.060656
4.297412
0.654484
-2.192924
-4.425754
-6.534245
-8.471075
-9.345151
-8.625097
-6.582786
-3.975075
-2.242683
-1.373236
-1.157031
-0.555438
0.832394
2.171048
2.655107
2.472316
2.250243
1.741450
0.237949
-2.537083
-5.085089
-6.908097
-7.886098
-8.688726
-9.520428
-9.682496
-9.557844
-8.975428
-9.056769
-9.645980
-10.677180
-11.741166
-11.460317
-10.063515
-8.325555
-7.326512
-6.455519
-5.619168
-5.018813
-5.066749
-5.953507
-7.182350
-7.487005
-6.465383
-4.784953
-3.562905
-2.633764
-1.450997
0.094578
1.532518
1.500355
1.036720
1.300557
2.673234
4.330158
5.512924
5.703149
4.483585
2.359628
-0.526752
-2.689061
-3.750882
-3.876763
-4.244515
-5.257776
-6.558067
-7.820315
-8.581806
-9.246795
-9.440721
-9.166368
-7.781010
-5.738080
-3.958983
-2.537437
-1.358382
0.213484
1.648330
2.601906
3.147516
4.318839
6.163816
7.855381
9.353943
10.109876
10.258964
9.855642
8.667008
6.730796
4.195162
1.837994
0.013749
-1.723583
-3.007790
-3.595764
-3.230477
-3.134589
-4.008356
-5.514022
-6.499446
-6.830701
-6.982253
-6.781204
-5.991557
-4.449383
-2.414805
-0.938203
-0.284030
0.524175
2.174603
4.042160
5.365658
5.741462
5.197099
3.685866
2.014724
0.025004
-2.040804
-3.716276
-4.897796
-5.121724
-5.283174
-4.939537
-4.770345
-3.878939
-2.272122
-0.489004
1.817449
4.322781
6.665113
7.545694
7.225264
6.549140
6.259331
6.694830
7.007536
7.085176
7.565832
7.804307
7.052095
5.149288
2.444467
-0.224785
-3.233648
-5.692266
-7.431454
-7.192051
-5.313978
-2.667605
-0.142478
1.571976
2.784435
3.639035
4.529514
5.211525
5.651663
5.583003
5.744772
5.970256
5.756225
4.702137
2.870469
0.940443
-1.266096
-3.257363
-5.668040
-7.963348
-9.590260
-10.332265
-10.424432
-10.762492
-10.704029
-10.460605
-10.779798
-12.061840
-13.487398
-14.175276
-14.094853
-13.471300
-12.272449
-10.308701
-7.062286
-3.150877
0.482162
2.579219
3.110910
3.546100
4.530296
5.165293
4.148630
2.362120
0.507873
-1.111925
-2.439744
-4.249761
-6.418566
-9.249272
-11.925947
-14.706237
-16.909684
-17.416003
-16.367781
-14.284952
-11.911690
-9.380686
-6.535742
-3.332011
-0.473458
1.860522
3.515590
3.746332
2.665644
1.824353
1.167715
0.257141
-1.498748
-4.859285
-8.731094
-12.177307
-13.962271
-14.008042
-12.255545
-10.031985
-8.831897
-9.241714
-10.635414
-10.671906
-9.407794
-7.286302
-5.405755
-3.944000
-2.913718
-2.505747
-2.480070
-1.776099
-0.619622
-0.003183
-1.060365
-3.945508
-6.172152
-6.924982
-6.512990
-6.246678
-6.435037
-5.915409
-4.886982
-3.790510
-4.284457
-4.714379
-4.334863
-3.075390
-2.059336
-1.226696
0.113814
1.987247
3.937387
4.096990
3.244256
2.423379
1.835096
1.686327
1.943360
2.616710
3.355323
3.919800
4.399838
4.380975
4.261900
4.018486
3.202558
1.801126
0.318657
-0.388397
-0.326223
-0.013517
0.215061
0.969757
2.059115
2.710815
2.980219
3.735534
5.214610
5.973018
6.292839
4.790265
3.583383
3.781339
5.012976
6.313895
6.148734
4.934737
2.442405
-0.202103
-2.229867
-3.301586
-3.754705
-3.866666
-3.858620
-4.569077
-5.787713
-7.617216
-8.665118
-8.792854
-7.830927
-6.281949
-4.329026
-1.099314
3.093558
7.576553
10.996175
12.189458
11.370438
9.440721
7.859586
7.677413
7.851554
8.521811
8.744821
8.107669
6.792531
5.232428
4.041938
3.239620
2.691236
1.973047
1.218360
0.686370
0.490897
0.756900
1.388494
2.461769
3.920741
5.191968
5.462610
5.275179
5.597783
6.458260
8.006928
9.630447
10.572888
10.736513
10.310921
10.282780
11.099336
12.172611
12.888953
12.746680
12.285519
10.869241
8.575479
6.543385
5.224535
5.222066
5.619830
