EVENT_NAME: 202302060117
EVENT_ID: 13194
EVENT_DATE_YYYYMMDD: 2023/02/06
EVENT_TIME_HHMMSS: 01:17:32.00000
EVENT_LATITUDE_DEGREE: 37.288
EVENT_LONGITUDE_DEGREE: 37.043
EVENT_DEPTH_KM: 8.6
HYPOCENTER_REFERENCE: AFAD
MAGNITUDE_W: 7.7
MAGNITUDE_W_REFERENCE: AFAD
MAGNITUDE_L: 
MAGNITUDE_L_REFERENCE: 
FOCAL_MECHANISM: 
NETWORK: TK
STATION_CODE: 2509
STATION_NAME: 
STATION_LATITUDE_DEGREE: 39.87333
STATION_LONGITUDE_DEGREE: 41.22269
STATION_ELEVATION_M: 1930.0
LOCATION: Kahramanmaras_Pazarck_Turkiye
SENSOR_DEPTH_M: 
VS30_M/S: 495
SITE_CLASSIFICATION_EC8: B
MORPHOLOGIC_CLASSIFICATION: 
EPICENTRAL_DISTANCE_KM: 463.20
EARTHQUAKE_BACKAZIMUTH_DEGREE: 
DATE_TIME_FIRST_SAMPLE_YYYYMMDD_HHMMSS: 2023/02/06 01:18:10.7730080
DATE_TIME_FIRST_SAMPLE_PRECISION: millisecond
SAMPLING_INTERVAL_S: 0.01
NDATA: 24501
DURATION_S: 
STREAM: HNE
UNITS: cm/s^2
INSTRUMENT: sensor = CMG-5T/GURALP | digitizer = 
INSTRUMENT_ANALOG/DIGITAL: 
INSTRUMENTAL_FREQUENCY_HZ: 
INSTRUMENTAL_DAMPING: 
FULL_SCALE_G: 
N_BIT_DIGITAL_CONVERTER: 
PGA_CM/S^2: 5.947
TIME_PGA_S: 
BASELINE_CORRECTION: BASELINE REMOVED
FILTER_TYPE: BUTTERWORTH
FILTER_ORDER: 
LOW_CUT_FREQUENCY_HZ: 
HIGH_CUT_FREQUENCY_HZ: 
LATE/NORMAL_TRIGGERED: 
DATABASE_VERSION: 
HEADER_FORMAT: DYNA 1.2
DATA_TYPE: Acceleration
PROCESSING: Automatic Paolucci et al., 2011
DATA_TIMESTAMP_YYYYMMDD_HHMMSS: 
DATA_LICENSE: U (unknown license)
DATA_CITATION: Turkish Accelerometric Archive v 1.0 - Disaster And Emergency Management Presidency, Earthquake Department
DATA_CREATOR: AFAD
ORIGINAL_DATA_MEDIATOR_CITATION: : AFAD - Disaster And Emergency Management Presidency
ORIGINAL_DATA_MEDIATOR: AFAD PROCESS SERVICE
ORIGINAL_DATA_CREATOR_CITATION: AFAD PROCESS SERVICE
ORIGINAL_DATA_CREATOR: network: TK
USER1: GuestUser
USER2: 
USER3: 
USER4: 
USER5: 
[...]
-1.956333
-2.024368
-2.091784
-2.155798
-2.221977
-2.299289
-2.382786
-2.479889
-2.570189
-2.663272
-2.758829
-2.858407
-2.944377
-3.015504
-3.080137
-3.150336
-3.222391
-3.275891
-3.315784
-3.345472
-3.368666
-3.389696
-3.419693
-3.452783
-3.488965
-3.520818
-3.550197
-3.568134
-3.581123
-3.595658
-3.619471
-3.647922
-3.664003
-3.671426
-3.659984
-3.641430
-3.627206
-3.612981
-3.618858
-3.617931
-3.627209
-3.638652
-3.666484
-3.708233
-3.781525
-3.841828
-3.911099
-3.969856
-4.047168
-4.100050
-4.157570
-4.192206
-4.242923
-4.229317
-4.254366
-4.241379
-4.250347
-4.274469
-4.283129
-4.297355
-4.284676
-4.275709
-4.259938
-4.233344
-4.235509
-4.205513
-4.206751
-4.208607
-4.226544
-4.284683
-4.328906
-4.426318
-4.501774
-4.583725
-4.609084
-4.678046
-4.710826
-4.721651
-4.754741
-4.822775
-4.835764
-4.894212
-4.944001
-4.987605
-5.007088
-5.001213
-4.996266
-4.957921
-4.943696
-4.920503
-4.904733
-4.909063
-4.863605
-4.848762
-4.760937
-4.740218
-4.691049
-4.630129
-4.540139
-4.475199
-4.358924
-4.269553
-4.130084
-4.031436
-3.907430
-3.802906
-3.727761
-3.627566
-3.569429
-3.504179
-3.494593
-3.488409
-3.487173
-3.504182
-3.546549
-3.529851
-3.540984
-3.551190
-3.555520
-3.555830
-3.561088
-3.586756
-3.598817
-3.591396
-3.590160
-3.567586
-3.544702
-3.511305
-3.480690
-3.446056
-3.421626
-3.396269
-3.356995
-3.304734
-3.229897
-3.166194
-3.093522
-3.040333
-2.987453
-2.935810
-2.899010
-2.863757
-2.843966
-2.822011
-2.797890
-2.765421
-2.743465
-2.724292
-2.724293
-2.729242
-2.732644
-2.718729
-2.698938
-2.667087
-2.616990
-2.544937
-2.471028
-2.394645
-2.321974
-2.253013
-2.197350
-2.140759
-2.091590
-2.059429
-2.028505
-1.987376
-1.946866
-1.911304
-1.881617
-1.856569
-1.846983
-1.849149
-1.859045
-1.880693
-1.912546
-1.934503
-1.955532
-1.966047
-1.986149
-2.006250
-2.020167
-2.031919
-2.037795
-2.053258
-2.058207
-2.045529
-2.021718
-1.984300
-1.958324
-1.923380
-1.894930
-1.853802
-1.822878
-1.786388
-1.740002
-1.672897
-1.598679
-1.518276
-1.431070
-1.333349
-1.221094
-1.098634
-0.979885
-0.871960
-0.765580
-0.663221
-0.555914
-0.452318
-0.356453
-0.259660
-0.164414
-0.077208
0.001958
0.062878
0.134004
0.207603
0.280584
0.353565
0.420980
0.479426
0.521483
0.558900
0.596937
0.642704
0.682287
0.720323
0.767946
0.823918
0.884220
0.941121
1.000186
1.048118
1.096359
1.119242
1.138415
1.157896
1.164699
1.161297
1.143978
1.128206
1.117382
1.121401
1.149851
1.182630
1.218811
1.243859
1.268598
1.306016
1.348072
1.395386
1.438370
1.470840
1.504856
1.534234
1.565776
1.594535
1.625768
1.637209
1.645558
1.641228
1.633805
1.621126
1.609992
1.605971
1.607826
1.622978
1.640914
1.657303
1.672764
1.678021
1.676165
1.667196
1.653588
1.635652
1.625755
1.638124
1.645854
1.645854
1.647708
1.634101
1.607505
1.590496
1.575033
1.571940
1.558951
1.567609
1.586782
1.600388
1.615849
1.610282
1.612137
1.614610
1.618629
1.624814
1.622957
1.609968
1.592650
1.612750
1.621718
1.655734
1.648930
1.694079
1.720982
1.774481
1.806951
1.848389
1.900959
1.960643
2.003009
2.095472
2.185152
2.275760
2.376263
2.449554
2.494393
2.524389
2.607266
2.666949
2.709624
2.693543
2.690141
2.633548
2.681480
2.641896
2.579738
2.518816
2.518506
2.441194
2.407176
2.368829
2.302032
2.326152
2.202145
2.259663
2.236160
2.215131
2.219769
2.184514
2.220695
2.212345
2.271410
2.234609
2.341297
2.238937
2.275427
2.238317
2.233987
2.210483
2.136883
2.172754
2.101937
2.121418
2.074103
2.141518
2.038848
2.145536
2.122342
2.135330
2.156049
2.103786
2.145842
2.153572
2.210163
2.161921
2.234283
2.193771
2.263969
2.220365
2.275719
2.284686
2.347771
2.384571
2.447037
2.499608
2.548777
2.595472
2.603203
2.689481
2.726281
2.857090
2.915846
3.056242
3.149633
3.251683
3.338889
3.388677
3.489180
3.530618
3.618443
3.636069
3.742449
3.713688
3.749560
3.779556
3.762547
3.829652
3.762545
3.842329
3.798416
3.843565
3.831194
3.862737
3.856860
3.901391
3.896133
3.907574
3.887473
3.883761
3.845723
3.813561
3.785110
3.755112
3.707797
3.676254
3.625537
3.587808
3.511424
3.481736
3.418340
3.375355
3.310413
3.260005
3.210525
3.165375
3.124554
3.079713
3.034563
2.981372
2.928181
2.873753
2.806647
2.728716
2.667176
2.605017
2.564815
2.520592
2.484410
2.445135
2.411427
2.385759
2.364420
2.337515
2.304425
2.254636
2.203301
2.150729
2.105579
2.054553
2.008165
1.951264
1.893434
1.828183
1.766643
1.701701
1.646654
1.593773
1.549859
1.491412
1.437293
1.368331
1.293802
1.226077
1.160207
1.089390
1.026612
0.970948
0.915283
0.843538
0.774266
0.696645
0.612839
0.551918
0.491614
0.430383
0.379976
0.329259
0.302972
0.268646
0.245761
0.236483
0.218237
0.210195
0.186692
0.168137
0.160714
0.152673
0.153291
0.152362
0.157619
0.172462
0.185449
0.199983
0.213589
0.220701
0.225339
0.231214
0.240800
0.250076
0.265538
0.289658
0.323365
0.358928
0.388614
0.406859
0.420156
0.427268
0.429432
0.425720
0.413968
0.397577
0.386753
0.374692
0.369434
0.361393
0.360155
0.362938
0.357371
0.350567
0.346236
0.348400
0.358914
0.376849
0.402825
0.426327
0.456014
0.481062
0.503636
0.524355
0.544455
0.566101
0.580016
0.585891
0.598570
0.620216
0.645883
0.667529
0.691031
0.714842
0.737725
0.762773
0.782255
0.803901
0.831423
0.847194
0.858326
0.857088
0.856778
0.855232
0.854922
0.852447
0.850281
0.837602
0.820902
0.807294
0.804201
0.799871
0.803891
0.803271
0.802343
0.796467
0.788425
0.776673
0.746676
0.708948
0.643696
0.575662
0.498659
0.432790
0.357024
0.289299
0.224048
0.156941
0.093854
0.033860
-0.027371
-0.081489
-0.138082
-0.191582
-0.244772
-0.282501
-0.304767
-0.323013
-0.343733
-0.367546
-0.395069
-0.416717
-0.445478
-0.479186
-0.507637
-0.533924
-0.565777
-0.592063
-0.613402
-0.631648
-0.656079
-0.683293
-0.709270
-0.736484
-0.766791
-0.792768
-0.811633
-0.831735
-0.844414
-0.850600
-0.852765
-0.855549
-0.863590
-0.871941
-0.888022
-0.903176
-0.928844
-0.949873
-0.969356
-0.986984
-1.010178
-1.031516
-1.053164
-1.084089
-1.136662
-1.195419
-1.258505
-1.312933
-1.363340
-1.410656
-1.466011
-1.531571
-1.603626
-1.677227
-1.742478
-1.812368
-1.876692
-1.945654
-2.022656
-2.108008
-2.193670
-2.280877
-2.372105
-2.460859
-2.549304
-2.637439
-2.722173
-2.800721
-2.873085
-2.952562
-3.033275
-3.114916
-3.191300
-3.254078
-3.305722
-3.339740
-3.359532
-3.370666
-3.364791
-3.344072
-3.320879
-3.294285
-3.263361
-3.240787
-3.207080
-3.181414
-3.144615
-3.118020
-3.069470
-3.032052
-2.994015
-2.971132
-2.936498
-2.907739
-2.884546
-2.866610
-2.849912
-2.835687
-2.825483
-2.811259
-2.796725
-2.785593
-2.767039
-2.734878
-2.709212
-2.672103
-2.626954
-2.575620
-2.529234
-2.493672
-2.446977
-2.407394
-2.349566
-2.295449
-2.230509
-2.159692
-2.086712
-2.026100
-1.967963
-1.908589
-1.837464
-1.806231
-1.754588
-1.722118
-1.678206
-1.638005
-1.628728
-1.596258
-1.598114
-1.568428
-1.576159
-1.565027
-1.573687
-1.577708
-1.599046
-1.606778
-1.632137
-1.638323
-1.663681
-1.673578
-1.689659
-1.690588
-1.689351
-1.681003
-1.677911
-1.662449
-1.651008
-1.647298
-1.655957
-1.658741
-1.666782
-1.663072
-1.704512
-1.673279
-1.656271
-1.668332
-1.650087
-1.676683
-1.663386
-1.671737
-1.620094
-1.603086
-1.560720
-1.528559
-1.497017
-1.480937
-1.434861
-1.408885
-1.371467
-1.346419
-1.334050
-1.324773
-1.301890
-1.309003
-1.304365
-1.313643
-1.335291
-1.330344
-1.344570
-1.338077
-1.349829
-1.362199
-1.376734
-1.396527
-1.406423
-1.432091
-1.452193
-1.477551
-1.502292
-1.540020
-1.585171
-1.615477
-1.638671
-1.659701
-1.677328
-1.690626
-1.698358
-1.702070
-1.688155
-1.672075
-1.654448
-1.633111
-1.607754
-1.579614
-1.548381
-1.502922
-1.470762
-1.429633
-1.401492
-1.360364
-1.336862
-1.300062
-1.280890
-1.251203
-1.240690
-1.226156
-1.216570
-1.211314
-1.213788
-1.212243
-1.211625
-1.200493
-1.178847
-1.161839
-1.148851
-1.138029
-1.137720
-1.127206
-1.127207
-1.105561
-1.098758
-1.083915
-1.080205
-1.070310
-1.065053
-1.038150
-1.022379
-1.002279
-0.982179
-0.958058
-0.929918
-0.893119
-0.852299
-0.831580
-0.786431
-0.755199
-0.722729
-0.684692
-0.671086
-0.607692
-0.575531
-0.515539
-0.489254
-0.460185
-0.415655
-0.397410
-0.371125
-0.358138
-0.345150
-0.328452
-0.316701
-0.295055
-0.288252
-0.277120
-0.255164
-0.253309
-0.210325
-0.219913
-0.196411
-0.175074
-0.130852
-0.103640
-0.077045
-0.074572
-0.044885
-0.030042
0.016962
0.020054
0.054070
0.060254
0.076643
0.052831
0.088702
0.080043
0.080661
0.138489
0.144054
0.147764
0.171885
0.220126
0.198788
0.226000
0.257543
0.285683
0.321245
0.378455
0.419893
0.446796
0.525653
0.515757
0.566472
0.546370
0.578840
0.570181
0.579766
0.549460
0.578837
0.547603
0.539871
0.545128
0.551930
0.549765
0.525643
0.524715
0.537393
0.549143
0.528423
0.537700
0.541410
0.557181
0.535533
0.538934
0.553777
0.545117
0.528418
0.542951
0.547280
0.570782
0.560267
0.575110
0.556554
0.551915
0.533669
0.526556
0.515731
0.523153
0.519441
0.522223
0.507379
0.516965
0.501502
0.494698
0.473978
0.427900
0.426353
0.391407
0.381202
0.360481
0.353987
0.327082
0.332029
0.292445
0.281621
0.224410
0.198432
0.145860
0.135654
0.086793
0.054322
0.017521
-0.029176
-0.071852
-0.128754
-0.154422
-0.203283
-0.207922
-0.244105
-0.247507
-0.285545
-0.286473
-0.314306
-0.315544
-0.338738
-0.339975
-0.361005
-0.355130
-0.362552
-0.356059
-0.366574
-0.361318
-0.370905
-0.370906
-0.376473
-0.392245
-0.405852
-0.414203
-0.419770
-0.426265
-0.439254
-0.432142
-0.422865
-0.417609
-0.393798
-0.386995
-0.384212
-0.389780
-0.389162
-0.385761
-0.385762
-0.382361
-0.395040
-0.409266
-0.409576
-0.418545
-0.421947
-0.432462
-0.438030
-0.441432
-0.437103
-0.434012
-0.433394
-0.425354
-0.413913
-0.391339
-0.373403
-0.353922
-0.332584
-0.293002
-0.254347
-0.216929
-0.181058
-0.142712
-0.090451
-0.042828
0.008197
0.056129
0.104680
0.150138
0.192813
0.232086
0.274143
0.307231
0.351143
0.404642
0.469273
0.536069
0.607504
0.681722
0.756249
0.838816
0.918291
0.993128
1.086209
1.175580
1.271755
1.367310
1.471216
1.565844
1.668821
1.773964
1.887456
1.989815
2.085061
2.164845
2.253289
2.341732
2.426773
2.495115
2.563767
2.632728
2.698287
2.766320
2.830023
2.861256
2.895582
2.929289
2.976911
3.024534
3.069065
3.096278
3.133386
3.167402
3.185029
3.185956
3.176368
3.217497
3.212858
3.246255
3.240070
3.280889
3.269756
3.292330
3.276558
3.286453
3.274701
3.292636
3.296346
3.349226
3.367471
3.434576
3.431483
3.475704
3.466736
3.490238
3.545282
3.574351
3.591358
3.619189
3.674234
3.650422
3.719692
3.735153
3.767932
3.794217
3.775662
3.789268
3.774733
3.814315
3.814315
3.810603
3.856680
3.820807
3.896880
3.882345
3.942956
3.968313
4.004803
4.042221
4.094792
4.107780
4.160969
4.186945
4.244463
4.280644
4.324247
4.368159
4.425368
4.478558
4.532984
4.582462
4.636270
4.692243
4.728114
4.770480
4.800785
4.830472
4.846861
4.853664
4.854282
4.848096
4.846240
4.827066
4.796141
4.762123
4.737383
4.694088
4.660998
4.607189
4.567296
4.509157
4.451328
4.374325
4.292993
4.265470
4.190941
4.132493
4.082395
4.021164
3.979106
3.907051
3.853242
3.801907
3.740985
3.712843
3.655632
3.634603
3.566568
3.509358
3.420913
3.367722
3.277113
3.219902
3.134859
3.071154
2.997863
2.936013
2.871071
2.789430
2.722942
2.662329
2.609447
2.546979
2.511725
2.454823
2.403797
2.348442
2.321227
2.281025
2.250409
2.212990
2.178354
2.137224
2.101969
2.060220
2.022801
1.988783
1.955384
1.922295
1.891988
1.867248
1.843435
1.821787
1.804778
1.798593
1.795499
1.785912
1.770140
1.756223
1.751893
1.747254
1.745088
1.736738
1.738283
1.733335
1.725912
1.700863
1.682926
1.659732
1.639630
1.612725
1.591077
1.571285
1.551493
1.534484
1.518093
1.507269
1.498609
1.494588
1.491804
1.490567
1.476650
1.472320
1.463660
1.452527
1.429023
1.409231
1.386965
1.363461
1.329135
1.297900
1.258935
1.208836
1.152244
1.095342
1.039059
0.970097
0.896805
0.810835
0.719607
0.627142
0.540862
0.450562
0.373560
0.294393
0.222338
0.149356
0.087197
0.012668
-0.064953
-0.145666
-0.226070
-0.304619
-0.385023
-0.464191
-0.547997
-0.624999
-0.701692
-0.775912
-0.850131
-0.924041
-0.998879
-1.066295
-1.133402
-1.195251
-1.255245
-1.304416
-1.350185
-1.397809
-1.440795
-1.484090
-1.530477
-1.578411
-1.621087
-1.668402
-1.712934
-1.762105
-1.807255
-1.847457
-1.887660
-1.922296
-1.959406
-1.992496
-2.029606
-2.065479
-2.092075
-2.115578
-2.145885
-2.182685
-2.228145
-2.263709
-2.300200
-2.327105
-2.359267
-2.396377
-2.442146
-2.488534
-2.530901
-2.584401
-2.636354
-2.688927
-2.741499
-2.796545
-2.853138
-2.920863
-2.988279
-3.062189
-3.139810
-3.219596
-3.289176
-3.357211
-3.429265
-3.499464
-3.566262
-3.642337
-3.711299
-3.779952
-3.849842
-3.914165
-3.986529
-4.045596
-4.102497
-4.160636
-4.224650
-4.282170
-4.334124
-4.378037
-4.419477
-4.458133
-4.495243
-4.532662
-4.577194
-4.602862
-4.649868
-4.677082
-4.732747
-4.766146
-4.841912
-4.878094
-4.958189
-5.011380
-5.093021
-5.189197
-5.265581
-5.345676
-5.418039
-5.490403
-5.549160
-5.599568
-5.659562
-5.717082
-5.741204
-5.794085
-5.818207
-5.853771
-5.880676
-5.880986
-5.923662
-5.895831
-5.947166
-5.874495
-5.910368
-5.867074
-5.822235
-5.819761
-5.829039
-5.829968
-5.740906
-5.788221
-5.701324
-5.767194
-5.604223
-5.642570
-5.565260
-5.568971
-5.484549
-5.450532
-5.393941
-5.327455
-5.296840
-5.259422
-5.200976
-5.153971
-5.122120
-5.084393
-5.042646
-4.953893
-4.970902
-4.904416
-4.863287
-4.784121
-4.745157
-4.691349
-4.646819
-4.607236
-4.562397
-4.533328
-4.497457
-4.476738
-4.437774
-4.428497
-4.400357
-4.394482
-4.364486
-4.366342
-4.340676
-4.317174
-4.307279
-4.267387
-4.242648
-4.204612
-4.171833
-4.144311
-4.124829
-4.098235
-4.064218
-4.029275
-4.005773
-3.960624
-3.922587
-3.878985
-3.839093
-3.794872
-3.741992
-3.694369
-3.648911
-3.598814
-3.538821
-3.481921
-3.415125
-3.363173
-3.304108
-3.245661
-3.192472
-3.130005
-3.075888
-3.003835
-2.937039
-2.880757
-2.816126
-2.744691
-2.681606
-2.618212
-2.572444
-2.514926
-2.463592
-2.407929
-2.368655
-2.330928
-2.310519
-2.282069
-2.266917
-2.248054
-2.229809
-2.205070
-2.183733
-2.163324
-2.144460
-2.131473
-2.107353
-2.072409
-2.029115
-1.976235
-1.919953
-1.862435
-1.803988
-1.739357
-1.667304
-1.603600
-1.540824
-1.486089
-1.435064
-1.386514
-1.332397
-1.285392
-1.231894
-1.170045
-1.109434
-1.048514
-0.994397
-0.947392
-0.903790
-0.852765
-0.797720
-0.737418
-0.679281
-0.618670
-0.559296
-0.501777
-0.442094
-0.381483
-0.320562
-0.268301
-0.230264
-0.189445
-0.160377
-0.130999
-0.103786
-0.079666
-0.059257
-0.043177
-0.037611
-0.032664
-0.027098
-0.020914
-0.013802
-0.005144
-0.002980
0.001040
0.002894
0.022685
0.038147
0.057628
0.073090
0.091644
0.113290
0.125659
0.146996
0.166787
0.192145
0.208225
0.221831
0.234818
0.258938
0.280894
0.292335
0.300375
0.305631
0.310579
0.322329
0.334698
0.355417
0.374899
0.396854
0.419119
0.449115
0.478802
0.507561
0.548999
0.593220
0.641461
0.690630
0.741655
0.788969
0.838447
0.887307
0.938641
0.985954
1.035124
1.086148
1.141193
1.192836
1.237366
1.279423
1.325809
1.371885
1.419199
1.456926
1.489087
1.519392
1.545368
1.564850
1.579074
1.592062
1.612780
1.635973
1.660402
1.681740
1.705860
1.731217
1.755956
1.776984
1.798940
1.821204
1.843160
1.848416
1.870991
1.889854
1.908098
1.928508
1.949227
1.973347
1.991901
2.025917
2.049419
2.094258
2.110029
2.130129
2.156724
2.174968
2.212386
2.225992
2.256297
2.280727
2.296807
2.316907
2.321545
2.341027
2.351540
2.378135
2.383082
2.405965
2.439363
2.465648
2.476780
2.510178
2.512651
2.535225
2.559036
2.595526
2.621811
2.639437
2.653971
2.680565
2.706541
2.733754
2.739938
2.772099
2.792508
2.820958
2.837966
2.887753
2.903833
2.931974
2.945580
3.024436
3.028456
3.066801
3.086902
3.147822
3.166994
3.228843
3.244923
3.270898
3.312027
3.339549
3.384698
3.385007
3.462935
3.457059
3.522618
3.514577
3.550758
3.620028
3.632088
3.667650
3.710016
3.714654
3.765060
3.748669
3.818867
3.807733
3.874220
3.886898
3.911019
3.927408
3.945653
3.944415
3.956166
3.949052
3.949670
3.935444
3.930805
3.913486
3.907610
3.897713
3.889672
3.872045
3.846995
3.842665
3.809575
3.821017
3.792875
3.785761
3.777411
3.744012
3.731332
3.718962
3.682470
3.653400
3.621238
3.613816
3.588148
3.582581
3.557531
3.542068
3.511762
3.485784
3.447437
3.408163
3.361466
3.318790
3.282607
3.250136
3.221685
3.194470
3.150557
3.123652
3.073554
3.070151
3.040772
3.031185
3.018196
3.013248
3.003042
3.003969
2.997165
3.011389
3.038293
3.026850
3.055918
3.074781
3.097974
3.125805
3.128897
3.161367
3.173736
3.200021
3.218266
3.235892
3.267743
3.285060
3.303924
3.322787
3.345670
3.356493
3.374428
3.371954
3.367933
3.370097
3.368859
3.350304
3.331748
3.307627
3.286906
3.244539
3.196915
3.153929
3.118675
3.084966
3.051567
3.013220
2.974255
2.927249
2.873440
2.827980
2.781593
2.730876
2.676448
2.620474
2.555532
2.488735
2.416990
2.346172
2.275973
2.206083
2.131863
2.056716
1.985899
1.908587
1.826637
1.747779
1.673250
1.597484
1.532542
1.471930
1.417193
1.359673
1.299988
1.246797
1.202265
1.150311
1.097430
1.061248
1.025684
0.995686
0.961669
0.930435
0.898272
0.862090
0.814466
0.776428
0.746740
0.713650
0.679942
0.643141
0.603866
0.557479
0.514493
0.469033
0.422955
0.373785
0.318429
0.261837
0.203389
0.139993
0.084638
0.022788
-0.038134
-0.091015
-0.143896
-0.195541
-0.250278
-0.300995
-0.345836
-0.392842
-0.437374
-0.486544
-0.539426
-0.580556
-0.627252
-0.667146
-0.708585
-0.752808
-0.780331
-0.809092
-0.842800
-0.870633
-0.896301
-0.912691
-0.926299
-0.937123
-0.945473
-0.949494
-0.944547
-0.941146
-0.939601
-0.929705
-0.925686
-0.926924
-0.935583
-0.930636
-0.928163
-0.930638
-0.938988
-0.940226
-0.937752
-0.934042
-0.935589
-0.938991
-0.945486
-0.953527
-0.964661
-0.972393
-0.993113
-1.015379
-1.036718
-1.055273
-1.080632
-1.099496
-1.116815
-1.132896
-1.143720
-1.159183
-1.175265
-1.192274
-1.207118
-1.227220
-1.246703
-1.277319
-1.307316
-1.335768
-1.353086
-1.382156
-1.414009
-1.448026
-1.477405
-1.509876
-1.548842
-1.588426
-1.627701
-1.666975
-1.702539
-1.737794
-1.780161
-1.832424
-1.886233
-1.932930
-1.989213
-2.047352
-2.105490
-2.159918
-2.217438
-2.275577
-2.328458
-2.376701
-2.421233
-2.466383
-2.507513
-2.552355
-2.585754
-2.618225
-2.642347
-2.676674
-2.705743
-2.734194
-2.756770
-2.775635
-2.797901
-2.828517
-2.853876
-2.880162
-2.901191
-2.916036
-2.926860
-2.937375
-2.954693
-2.969229
-2.977579
-2.988713
-2.997063
-3.008506
-3.019639
-3.028608
-3.042525
-3.056751
-3.067884
-3.079018
-3.078709
-3.098192
-3.102522
-3.106852
-3.116440
-3.109328
-3.128192
-3.119844
-3.127266
-3.129432
-3.128505
-3.124485
-3.117682
-3.114900
-3.109953
-3.099748
-3.089544
