EVENT_NAME: 202302060117
EVENT_ID: 13194
EVENT_DATE_YYYYMMDD: 2023/02/06
EVENT_TIME_HHMMSS: 01:17:32.00000
EVENT_LATITUDE_DEGREE: 37.288
EVENT_LONGITUDE_DEGREE: 37.043
EVENT_DEPTH_KM: 8.6
HYPOCENTER_REFERENCE: AFAD
MAGNITUDE_W: 7.7
MAGNITUDE_W_REFERENCE: AFAD
MAGNITUDE_L: 
MAGNITUDE_L_REFERENCE: 
FOCAL_MECHANISM: 
NETWORK: TK
STATION_CODE: 2310
STATION_NAME: 
STATION_LATITUDE_DEGREE: 38.57266
STATION_LONGITUDE_DEGREE: 38.824528
STATION_ELEVATION_M: 1240.0
LOCATION: Kahramanmaras_Pazarck_Turkiye
SENSOR_DEPTH_M: 
VS30_M/S: None
SITE_CLASSIFICATION_EC8: unknown
MORPHOLOGIC_CLASSIFICATION: 
EPICENTRAL_DISTANCE_KM: 211.70
EARTHQUAKE_BACKAZIMUTH_DEGREE: 
DATE_TIME_FIRST_SAMPLE_YYYYMMDD_HHMMSS: 2023/02/06 01:17:48.5035850
DATE_TIME_FIRST_SAMPLE_PRECISION: millisecond
SAMPLING_INTERVAL_S: 0.005
NDATA: 29001
DURATION_S: 
STREAM: HNZ
UNITS: cm/s^2
INSTRUMENT: sensor = GEO-A200,/GEObit | digitizer = 
INSTRUMENT_ANALOG/DIGITAL: 
INSTRUMENTAL_FREQUENCY_HZ: 
INSTRUMENTAL_DAMPING: 
FULL_SCALE_G: 
N_BIT_DIGITAL_CONVERTER: 
PGA_CM/S^2: 49.170
TIME_PGA_S: 
BASELINE_CORRECTION: BASELINE REMOVED
FILTER_TYPE: BUTTERWORTH
FILTER_ORDER: 
LOW_CUT_FREQUENCY_HZ: 
HIGH_CUT_FREQUENCY_HZ: 
LATE/NORMAL_TRIGGERED: 
DATABASE_VERSION: 
HEADER_FORMAT: DYNA 1.2
DATA_TYPE: Acceleration
PROCESSING: Automatic Paolucci et al., 2011
DATA_TIMESTAMP_YYYYMMDD_HHMMSS: 
DATA_LICENSE: U (unknown license)
DATA_CITATION: Turkish Accelerometric Archive v 1.0 - Disaster And Emergency Management Presidency, Earthquake Department
DATA_CREATOR: AFAD
ORIGINAL_DATA_MEDIATOR_CITATION: : AFAD - Disaster And Emergency Management Presidency
ORIGINAL_DATA_MEDIATOR: AFAD PROCESS SERVICE
ORIGINAL_DATA_CREATOR_CITATION: AFAD PROCESS SERVICE
ORIGINAL_DATA_CREATOR: network: TK
USER1: GuestUser
USER2: 
USER3: 
USER4: 
USER5: 
[...]
-11.081556
-8.965166
-7.172473
-6.215977
-6.121575
-6.132404
-5.458878
-4.179863
-2.714633
-0.932534
1.142894
2.791277
3.178301
2.380712
1.318045
0.368377
-0.893217
-2.528886
-3.904657
-4.255191
-3.395451
-1.995903
-0.732896
0.297520
1.070156
1.528276
2.018412
3.007395
4.423894
5.787894
6.768638
7.413442
8.127224
9.110086
9.830695
9.777962
9.276291
8.533554
6.759930
3.396307
-0.669797
-4.043072
-6.231499
-7.658355
-8.933132
-10.164122
-10.920984
-10.654728
-9.141709
-6.810855
-4.693288
-3.510557
-2.789713
-1.579439
0.281760
1.989468
3.041778
3.574760
3.837014
4.430969
5.918327
7.768462
8.393492
6.864936
3.782635
0.476218
-2.255784
-4.374763
-5.868241
-6.630047
-6.491151
-5.363744
-3.451224
-1.257147
0.722467
1.939097
2.136376
1.977941
2.176633
2.657588
3.048615
3.412803
4.010525
4.884154
5.356870
4.554808
2.485267
-0.458610
-3.718650
-6.570243
-8.388596
-9.000912
-8.810696
-8.238635
-7.357943
-6.122009
-4.976003
-4.443492
-4.305538
-3.951707
-2.869735
-0.639874
2.772010
6.647428
9.751153
10.879266
9.653691
6.944054
4.053852
1.636130
-0.434824
-2.402194
-4.009379
-4.794020
-4.804613
-4.613220
-4.755646
-5.147613
-5.358781
-5.129485
-3.871893
-1.123411
2.286119
4.964683
6.321621
6.902157
7.279765
7.106734
6.152123
4.894060
3.562548
1.772210
-0.581479
-3.164933
-5.722021
-7.788267
-8.764772
-8.539243
-7.791091
-7.259992
-7.000798
-6.907338
-7.147933
-7.879605
-8.829273
-9.496441
-9.758930
-9.641927
-8.983939
-7.888548
-6.447096
-4.358014
-1.597526
1.192154
2.960364
3.336088
3.186599
3.425311
4.087537
4.832158
5.382326
5.389859
4.750470
3.817988
2.859845
1.725140
0.365849
-0.859491
-1.292420
-0.716122
0.055337
0.226956
-0.383478
-1.697569
-3.747571
-6.352213
-8.779116
-10.322503
-10.463752
-9.172966
-6.843053
-3.958972
-1.341146
0.219427
0.595622
0.458375
0.523350
1.037264
1.870872
2.622320
3.079734
3.204976
3.014996
2.527685
1.646994
0.726047
0.345145
0.525474
0.831279
1.107423
1.745871
2.751804
3.605423
3.933358
3.667809
3.135534
2.685419
2.263083
1.695260
1.103896
0.711928
0.301834
-0.459972
-1.591380
-3.292967
-5.511997
-7.439112
-8.332986
-8.149832
-7.384730
-6.077229
-3.976141
-1.560537
0.392239
1.501048
1.737171
1.538480
1.817213
2.871171
4.259184
5.607412
6.720694
7.515930
7.966987
8.098350
7.902249
7.421530
6.802857
6.312721
6.090960
6.108381
6.321668
6.326142
5.661092
4.432927
3.474314
3.459483
3.998821
4.230000
3.828146
2.921088
1.215971
-1.448467
-4.349969
-6.667639
-7.744902
-7.247938
-5.741511
-4.220252
-3.358865
-3.296715
-4.070291
-5.733505
-8.025750
-10.266909
-11.421860
-10.991048
-9.323361
-7.198496
-5.326703
-3.810153
-2.645550
-2.014870
-1.890099
-1.875032
-1.431037
-0.299392
1.332512
3.081182
4.570424
5.410624
5.437933
4.730038
3.456908
2.149644
1.595946
2.188253
3.592039
5.209582
6.884332
8.643361
9.997003
10.216176
9.104071
7.205206
5.352483
3.932454
2.750666
1.543218
-0.079739
-2.561259
-5.684993
-8.613803
-10.730663
-12.157990
-13.064576
-13.218538
-12.623641
-11.573450
-10.513372
-9.619497
-8.712674
-7.926149
-6.955057
-5.001104
-2.227198
0.141794
1.253429
1.276971
0.541767
-0.703819
-1.947050
-2.439069
-1.827693
-0.467695
1.164680
2.534801
3.177723
3.073669
2.408384
1.332298
-0.088201
-1.689265
-2.869405
-2.988996
-2.002603
-0.345274
1.333714
2.300332
2.257487
1.729449
1.456131
1.556655
1.725919
1.818673
1.961336
2.263610
2.245013
1.291343
-0.645188
-3.047373
-5.142339
-6.422295
-6.692082
-6.152272
-5.079010
-3.769862
-2.649046
-1.850044
-1.256560
-0.599513
0.195958
0.975185
1.599980
2.142143
2.791421
3.394557
3.253072
1.538773
-1.446536
-4.380054
-6.296575
-7.093223
-6.813313
-5.284756
-2.689059
0.380059
3.107589
5.007632
6.123975
6.436372
5.779562
4.412267
3.129721
2.540475
2.830508
3.900945
5.338866
6.447205
6.714638
6.442497
6.412835
6.817516
6.820812
5.733191
4.009004
2.597450
1.935461
1.667087
1.128691
0.102278
-0.969335
-1.626851
-1.769749
-1.533155
-1.110348
-0.474489
0.506490
1.777266
3.008257
3.691670
3.616337
3.306295
3.445190
4.022666
4.521278
4.578955
4.461483
4.719970
5.262133
5.619731
5.673406
5.469536
5.104642
4.635458
4.050214
3.552545
3.370569
3.426363
3.210958
2.097912
-0.062265
-2.958823
-6.090090
-9.035379
-11.543736
-13.255681
-13.772183
-13.015085
-11.369762
-9.509034
-7.855001
-6.324326
-4.828257
-3.384450
-1.861779
-0.178554
1.527976
2.963308
3.830581
3.854358
2.843247
0.865989
-1.703812
-4.357656
-6.712992
-8.542174
-9.823778
-10.712238
-11.436612
-12.235143
-13.161269
-14.049493
-14.540806
-14.333168
-13.528045
-12.362500
-10.753667
-8.664350
-6.741236
-5.708937
-5.406427
-5.086261
-4.226521
-2.890535
-1.511939
-0.405954
0.273692
0.309476
-0.293659
-1.144923
-2.042799
-3.096756
-4.138472
-4.700645
-4.618013
-4.035594
-3.168085
-2.465604
-2.449124
-3.224113
-4.567161
-6.504634
-9.105038
-11.921319
-14.146000
-15.170059
-14.976076
-14.029233
-13.008939
-12.454534
-12.473838
-12.772110
-13.004700
-13.176318
-13.323217
-13.270248
-12.919949
-12.199105
-10.994716
-9.355750
-7.562115
-6.041092
-5.034453
-4.269350
-3.447042
-2.792820
-2.607312
-2.786699
-2.966556
-2.933598
-2.767864
-2.515027
-2.157665
-1.750631
-1.388090
-1.262848
-1.372081
-1.583484
-1.976863
-2.509139
-3.075549
-3.766965
-4.521238
-4.979592
-5.001721
-5.009254
-5.413227
-6.121593
-6.837964
-7.542093
-8.368402
-9.109727
-9.690027
-10.418404
-11.295092
-12.176725
-12.753493
-12.537146
-11.422215
-9.784426
-8.465154
-7.989143
-8.056942
-8.136277
-8.011271
-7.832119
-7.643785
-7.225215
-6.389488
-5.179450
-3.852174
-2.840120
-2.357753
-1.933062
-0.869923
0.855912
2.568093
3.839340
4.936379
6.110869
6.970138
6.836422
5.375431
2.866368
0.023249
-2.588690
-4.616328
-5.820951
-6.340278
-6.431619
-6.173132
-5.688881
-5.177086
-4.771229
-4.645516
-4.895292
-5.430157
-6.175954
-6.909745
-7.174353
-6.730593
-5.909462
-5.273132
-4.796650
-3.948210
-2.596451
-1.113565
0.226658
1.648100
3.554264
5.814258
7.782571
9.106551
10.012197
10.841568
11.794296
12.689584
13.087437
12.824713
12.005937
10.880414
9.722403
8.525078
7.122234
5.446544
3.486471
1.358311
-0.781149
-2.897774
-4.849372
-6.387580
-7.395395
-8.004181
-8.514091
-8.959969
-9.009406
-8.498788
-7.623746
-6.520587
-5.156351
-3.676996
-2.351604
-1.297175
-0.561735
-0.044761
0.693974
1.973225
3.477298
4.515248
4.652967
4.170835
3.785459
3.925768
4.480879
4.983728
5.129215
5.046585
4.793749
4.182609
3.268960
2.401453
1.932033
1.911553
2.241842
2.929728
3.642568
3.978271
3.989572
3.963441
3.941077
3.648455
3.206109
3.119005
3.541107
4.173905
4.789283
5.298017
5.491765
5.241047
4.741966
4.382486
4.329753
4.485128
4.792817
5.359464
6.157525
6.971594
7.694792
8.428348
9.400381
10.593705
11.872956
13.311584
14.898994
16.347038
17.265396
17.532829
17.293412
16.516304
15.099806
13.367381
11.900033
10.922116
10.147597
9.244778
8.330187
7.727758
7.164879
5.905874
3.901072
1.842124
0.183148
-1.189091
-2.438443
-3.482042
-4.426295
-5.594193
-6.872501
-7.662322
-7.596876
-6.771742
-5.411508
-3.824569
-2.389708
-1.208390
-0.093930
1.016998
2.010218
2.738125
3.072652
3.049110
2.969069
3.242388
3.999486
4.904190
5.416926
5.256608
4.511988
3.396823
2.122988
0.864454
-0.388194
-1.696400
-2.865711
-3.635756
-3.964396
-4.078102
-4.375667
-5.099336
-6.251696
-7.716925
-9.204283
-10.272836
-10.677280
-10.506132
-9.987746
-9.513382
-9.342470
-9.267372
-9.042078
-8.829497
-8.998996
-9.534567
-9.975501
-9.920178
-9.307625
-8.259788
-6.959820
-5.867725
-5.441857
-5.643608
-6.210961
-6.952050
-7.612862
-7.968104
-7.900304
-7.359318
-6.530418
-5.794742
-5.479991
-5.630186
-5.908918
-5.757545
-4.867908
-3.340293
-1.315009
0.984064
3.270895
5.244859
6.645113
7.488609
7.971448
8.351880
8.917585
9.813344
10.622469
10.713811
9.874318
8.354708
6.332250
3.715131
0.665082
-2.370136
-4.762433
-6.254970
-6.822793
-6.698493
-6.518870
-6.496976
-6.647406
-6.964747
-7.547401
-8.232932
-8.367118
-7.536570
-6.140318
-5.086596
-4.784321
-5.049399
-5.447016
-5.813794
-5.939270
-5.585440
-4.786437
-3.538261
-2.043134
-0.477853
0.982668
2.182584
2.820326
2.568667
1.530483
0.090915
-1.066155
-1.480722
-1.061445
-0.068460
1.007156
1.884316
2.450492
2.788079
3.130374
3.622158
4.073922
4.180566
3.749284
2.880600
2.033103
1.773675
2.348561
3.286223
3.975992
4.176802
3.954806
3.599563
3.441364
3.516933
3.612277
3.559073
3.366033
3.290700
3.379923
3.427713
3.184058
2.668733
2.220030
1.931175
1.816057
1.892332
2.286890
3.080713
4.137967
5.506440
7.272767
9.355257
11.242822
12.461101
12.889087
12.520426
11.486950
9.753112
7.439915
4.777596
2.030763
-0.386017
-2.302774
-3.839804
-5.157192
-6.013399
-6.141465
-5.594593
-4.574535
-3.277157
-1.911980
-0.681695
0.562008
2.029591
3.608997
4.936744
5.930435
6.749448
7.249707
7.201212
6.544637
5.371324
3.835000
2.252299
0.984113
0.189114
-0.150120
-0.126814
0.078940
0.190763
0.206066
0.253150
0.293406
0.238790
-0.015459
-0.463455
-0.989139
-1.438076
-1.720575
-2.007782
-2.603855
-3.415804
-4.027650
-4.275778
-4.299084
-4.367825
-4.551449
-4.625369
-4.387599
-3.738792
-2.678243
-1.352615
0.098725
1.728746
3.528737
5.240211
6.516166
7.141667
7.247369
7.272088
7.664998
8.379015
8.895283
8.929183
8.715190
8.454114
7.776588
6.330898
4.564102
3.374310
3.043786
3.219643
3.759923
4.616131
5.656199
6.615520
7.159802
7.298933
7.186169
6.979004
6.720517
6.436135
6.301007
6.200014
5.761670
4.784694
3.465423
2.275396
1.507704
1.131275
1.065594
1.220263
1.480869
1.755364
1.910974
1.806686
1.330675
0.778860
0.787806
1.500176
2.302003
2.558371
2.309066
1.965124
1.708521
1.316318
0.650562
0.000814
-0.250139
0.083446
0.794168
1.522545
1.957359
2.049171
2.128507
2.245038
2.170883
1.739836
0.964847
0.001290
-1.082800
-2.253523
-3.599631
-5.014010
-6.096217
-6.806467
-7.525662
-8.512055
-9.602972
-10.587010
-11.526084
-12.468454
-13.278991
-13.724633
-13.582912
-12.896439
-11.895449
-10.760744
-9.630982
-8.544537
-7.381582
-6.014050
-4.505269
-2.947050
-1.304317
0.357721
1.693236
2.335216
2.274479
1.931713
1.885101
2.349578
3.002622
3.528071
4.109784
5.154796
6.698654
8.273823
9.370627
9.732461
9.504108
9.158047
9.005263
9.039634
9.088130
9.061528
8.897679
8.286304
6.810482
4.356271
1.398740
-1.298185
-3.440470
-5.317912
-7.141679
-8.711433
-9.726546
-10.193846
-10.496591
-11.207782
-12.689254
-14.798110
-16.864120
-18.173975
-18.688829
-18.925657
-19.294318
-19.631433
-19.540562
-19.002166
-18.349827
-17.895945
-17.666179
-17.455952
-17.282450
-17.341774
-17.263616
-16.620223
-15.468333
-14.209798
-13.231409
-12.353072
-11.565369
-10.859121
-10.020804
-8.947543
-7.341299
-5.375104
-3.324395
-1.227074
0.893789
3.083864
4.805226
5.572212
5.683800
5.882020
6.802262
8.285383
9.776037
10.899914
11.671843
12.272390
12.539116
12.270036
11.487043
10.616711
10.053125
9.770391
9.651977
9.555928
9.474239
9.447402
9.440575
9.330165
9.070502
8.879816
9.222346
10.439447
12.194474
13.833911
14.896579
15.285016
15.211096
14.792056
13.898417
12.564551
11.096497
9.647747
8.245375
7.046402
6.380646
6.501650
7.155871
7.723460
8.096123
8.779772
10.112227
11.890559
13.665832
15.111051
16.019757
16.594879
17.240625
17.982657
18.586499
18.829920
18.826389
18.881006
18.877475
18.350143
17.111620
15.307628
13.140389
10.828369
8.733167
7.167416
6.071555
5.299391
4.858928
4.625867
4.167983
3.365686
2.483347
1.680344
1.025888
0.639335
0.738681
1.144303
1.339463
1.002113
0.205936
-0.799761
-1.992613
-3.384863
-4.847266
-6.000333
-6.542967
-6.715526
-7.033102
-7.748295
-8.714207
-9.725083
-10.648148
-11.487406
-12.248034
-12.667074
-12.410235
-11.362869
-9.718723
-7.890012
-6.235037
-4.911293
-4.035074
-3.685716
-3.774703
-4.270724
-5.151179
-6.200663
-7.114548
-7.561367
-7.681193
-8.097408
-9.366300
-11.567204
-14.122644
-16.500109
-18.698894
-20.986902
-23.353773
-25.401186
-26.833692
-27.836093
-29.005639
-30.624829
-32.397041
-33.800355
-34.356642
-33.989158
-32.981106
-31.235496
-28.471477
-25.190955
-22.280036
-20.133748
-18.449581
-16.803082
-15.254279
-13.871916
-12.591488
-11.638524
-11.219483
-11.051160
-10.697094
-10.091840
-9.391947
-8.723601
-8.394018
-8.846723
-10.013679
-11.255734
-12.157376
-12.960380
-14.007745
-15.268162
-16.436531
-17.256249
-17.851145
-18.535734
-19.420662
-20.342080
-21.185575
-21.826613
-22.106522
-22.080390
-21.880051
-21.639455
-21.295512
-20.711680
-19.724816
-18.173189
-16.067392
-13.453568
-10.371267
-6.919362
-3.443209
-0.182697
2.861938
5.643849
8.057570
10.044010
11.742537
13.509334
15.712357
18.452600
21.348452
23.682602
25.001167
25.355233
25.167843
24.491022
23.255559
21.875080
20.839015
20.262246
19.314462
17.285883
14.292805
10.794288
7.074951
3.204713
-0.389382
-3.281938
-5.411275
-7.356752
-9.642876
-12.153587
-14.621688
-16.968785
-19.118133
-20.496022
-20.566176
-19.200527
-16.610715
-13.079711
-8.873062
-4.358725
0.278264
4.789776
8.912381
12.808987
16.934888
21.357413
25.685536
29.726923
33.613876
37.527667
41.499606
45.202465
47.923403
49.169695
49.165458
48.505352
47.356052
45.310523
42.087443
38.006978
33.727352
29.717983
25.971338
22.048366
17.761912
13.479932
9.572733
5.931319
2.290376
-1.098437
-3.708964
-5.449630
-6.850590
-8.349247
-10.159125
-12.715978
-16.110205
-19.721486
-22.635229
-24.376600
-25.155591
-25.361580
-25.169245
-24.387899
-22.834388
-20.787210
-18.731793
-16.630940
-13.904117
-10.144052
-5.268116
0.407999
6.285159
11.905952
16.719503
19.990137
21.247024
20.811740
19.699164
18.615780
17.358895
15.409416
12.908121
10.600574
9.096737
8.337992
7.626094
6.295524
4.196791
1.642292
-1.222720
-4.512187
-7.937960
-10.742941
-12.229828
-12.451118
-12.317637
-12.808479
-13.970256
-15.206190
-16.402809
-17.766573
-19.267585
-20.680316
-21.749104
-22.488075
-22.883102
-22.412034
-20.566608
-17.581769
-14.531248
-12.258071
-10.193943
-7.068325
-2.551633
2.240024
5.775502
7.485564
8.065158
8.214883
7.965343
7.523703
7.433303
7.707799
7.670133
7.142566
6.634303
6.315315
5.593059
3.641226
0.843072
-1.689062
-4.074061
-7.158245
-10.771645
-13.415366
-13.814396
-12.491357
-11.091338
-10.669708
-10.815194
-10.195815
-8.254574
-6.090865
-5.281269
-6.019298
-7.052774
-7.284894
-6.547335
-5.226886
-3.752476
-2.411310
-1.369594
-0.572475
0.081040
0.494431
0.691239
1.154773
2.357514
4.323473
6.520140
7.890262
7.875666
6.884330
5.396737
3.443491
1.137827
-0.917354
-2.352214
-3.545302
-5.246888
-7.847293
-10.950310
-13.386394
-14.112181
-13.558247
-12.836226
-12.342087
-12.207429
-12.805856
-14.105823
-15.529854
-16.661498
-17.206015
-16.993434
-16.303193
-15.476412
-14.497788
-13.290103
-12.282993
-12.274989
-13.001247
-12.679197
-10.387187
-7.167637
-4.457528
-2.695204
-1.337089
-0.201441
0.329657
0.511399
1.502972
3.884440
6.887171
9.376931
10.467849
10.263273
9.564559
8.594645
7.423922
6.460836
6.159268
6.866929
8.401606
9.901442
10.803085
11.693665
13.212098
14.724882
15.094485
14.484052
14.329855
15.508348
17.508678
19.047592
19.136580
17.123774
12.918538
7.983514
4.070665
1.505102
-0.288532
-1.584261
-2.030845
-1.442069
-0.333024
0.591455
0.907148
0.751539
0.476809
-0.096193
-1.120253
-1.888650
-1.128491
1.633174
5.259522
8.165262
9.701116
10.426669
11.275108
12.588024
14.227461
16.373984
19.660392
23.879988
27.550124
29.380483
29.112345
26.921800
22.892185
17.779656
13.242485
10.276244
8.416458
7.181701
6.775138
7.103309
8.064983
9.409680
10.522021
10.820529
9.944311
8.250258
6.063950
3.946619
2.240324
0.723540
-0.845272
-2.362057
-2.344400
-0.617388
1.375644
2.244329
1.087966
-1.320339
-4.076824
-6.796584
-9.271748
-10.863865
-10.469543
-8.815981
-8.282528
-9.745638
-11.810942
-13.073477
-13.558198
-14.447129
-16.047015
-17.257995
-16.976201
-15.121123
-13.364213
-13.340436
-14.518222
-15.083455
-14.191228
-13.091364
-13.831747
-16.208742
-17.837349
-17.509414
-16.130818
-15.443874
-15.888103
-16.195085
-15.741438
-14.450417
-12.672319
-11.884852
-11.957360
-11.688985
-11.466752
-12.077421
-13.400929
-13.589732
-11.702873
-10.126292
-10.534973
-12.271401
-14.562469
-16.821521
-19.007358
-20.950010
-21.677916
-21.262171
-20.328040
-19.309159
-19.107878
-19.603899
-19.768690
-19.465473
-19.389904
-19.616845
-18.623154
-15.937999
-12.974111
-10.087205
-7.330954
-4.604601
-1.671553
-0.058718
-0.491176
-1.466269
-1.907909
-1.932156
-1.643301
-1.063706
-0.343097
-0.346863
-1.680024
-2.822026
-3.159612
-3.704129
-4.430387
-4.458401
-3.653278
-2.777059
-1.735579
-0.843352
-1.419179
-4.263003
-8.816654
-13.036956
-15.863831
-17.664056
-18.468237
-18.070384
-16.953334
-15.926214
-15.422188
-14.877435
-13.415501
-11.522521
-9.994671
-8.659627
-7.052441
-5.541777
-4.252874
-2.851442
-1.582314
-0.332490
0.649901
1.137213
1.773072
2.558420
2.798544
2.462842
2.141499
1.839696
1.600279
2.013905
3.495849
5.220507
5.661206
4.964611
4.365713
4.456819
4.770629
4.443166
3.475371
2.954867
3.219239
3.054449
1.856182
-0.691490
-4.590449
-8.221034
-10.768470
-13.134871
-15.685367
-17.975729
-19.122910
-18.394533
-17.007932
-16.538512
-17.323860
-19.064290
-20.907125
-22.613656
-24.085476
-24.487801
-23.233740
-20.758341
-17.642139
-13.869597
-9.967342
-5.904532
-0.844501
4.515921
9.103473
13.029270
16.822528
20.532449
23.386162
25.441109
27.412012
29.014018
29.731802
29.170570
27.769139
26.263655
24.694607
23.417476
22.283713
21.176788
20.720552
20.654636
20.139546
18.949990
17.299489
15.222649
12.666267
9.497804
6.302268
4.397518
4.148213
4.566076
3.929277
1.825364
-0.390841
-1.637839
-1.447623
-0.541271
-0.827772
-2.665899
-4.466596
-4.992515
-4.220114
-3.008428
-1.731296
0.395923
3.556854
7.003109
10.343662
13.195021
15.126845
16.489904
17.508549
17.847549
17.793874
18.263059
20.040450
22.590005
24.268051
24.741944
24.640480
23.513308
20.866292
17.655924
15.307650
14.431903
14.302425
13.709648
12.694064
12.047141
11.912719
11.037207
7.892521
3.569578
0.343202
-0.990664
-0.778083
-0.576096
-1.368977
-1.929266
-1.418884
-0.626944
-0.093256
-0.186009
-0.586216
0.026101
1.253796
2.316700
3.790404
5.769076
7.405688
8.406913
9.557862
11.107605
13.040842
15.217263
16.812442
17.368731
16.782074
15.391473
13.740736
11.653774
9.186615
7.280452
6.578913
6.435074
5.872901
4.699353
3.074512
1.583623
0.625480
-0.435774
-2.315806
-4.794736
-6.917481
-7.932595
-7.864794
-7.568876
-7.750381
-7.916349
-7.342169
-6.442409
-6.336942
-7.788517
-9.859000
-10.886590
-10.702965
-9.297532
-6.468537
-2.479884
2.436073
7.667958
12.110964
15.209039
17.023861
16.963124
15.153482
13.227544
12.782608
13.643996
14.263376
14.459949
14.135781
