EVENT_NAME: 202302060117
EVENT_ID: 13194
EVENT_DATE_YYYYMMDD: 2023/02/06
EVENT_TIME_HHMMSS: 01:17:32.00000
EVENT_LATITUDE_DEGREE: 37.288
EVENT_LONGITUDE_DEGREE: 37.043
EVENT_DEPTH_KM: 8.6
HYPOCENTER_REFERENCE: AFAD
MAGNITUDE_W: 7.7
MAGNITUDE_W_REFERENCE: AFAD
MAGNITUDE_L: 
MAGNITUDE_L_REFERENCE: 
FOCAL_MECHANISM: 
NETWORK: TK
STATION_CODE: 2709
STATION_NAME: 
STATION_LATITUDE_DEGREE: 37.128525
STATION_LONGITUDE_DEGREE: 36.670482
STATION_ELEVATION_M: 531.0
LOCATION: Kahramanmaras_Pazarck_Turkiye
SENSOR_DEPTH_M: 
VS30_M/S: 555
SITE_CLASSIFICATION_EC8: B
MORPHOLOGIC_CLASSIFICATION: 
EPICENTRAL_DISTANCE_KM: 37.45
EARTHQUAKE_BACKAZIMUTH_DEGREE: 
DATE_TIME_FIRST_SAMPLE_YYYYMMDD_HHMMSS: 2023/02/06 01:17:08.6216750
DATE_TIME_FIRST_SAMPLE_PRECISION: millisecond
SAMPLING_INTERVAL_S: 0.01
NDATA: 6196
DURATION_S: 
STREAM: HNZ
UNITS: cm/s^2
INSTRUMENT: sensor = ACEBOX/SARA | digitizer = 
INSTRUMENT_ANALOG/DIGITAL: 
INSTRUMENTAL_FREQUENCY_HZ: 
INSTRUMENTAL_DAMPING: 
FULL_SCALE_G: 
N_BIT_DIGITAL_CONVERTER: 
PGA_CM/S^2: 106.661
TIME_PGA_S: 
BASELINE_CORRECTION: BASELINE REMOVED
FILTER_TYPE: BUTTERWORTH
FILTER_ORDER: 
LOW_CUT_FREQUENCY_HZ: 
HIGH_CUT_FREQUENCY_HZ: 
LATE/NORMAL_TRIGGERED: 
DATABASE_VERSION: 
HEADER_FORMAT: DYNA 1.2
DATA_TYPE: Acceleration
PROCESSING: Automatic Paolucci et al., 2011
DATA_TIMESTAMP_YYYYMMDD_HHMMSS: 
DATA_LICENSE: U (unknown license)
DATA_CITATION: Turkish Accelerometric Archive v 1.0 - Disaster And Emergency Management Presidency, Earthquake Department
DATA_CREATOR: AFAD
ORIGINAL_DATA_MEDIATOR_CITATION: : AFAD - Disaster And Emergency Management Presidency
ORIGINAL_DATA_MEDIATOR: AFAD PROCESS SERVICE
ORIGINAL_DATA_CREATOR_CITATION: AFAD PROCESS SERVICE
ORIGINAL_DATA_CREATOR: network: TK
USER1: GuestUser
USER2: 
USER3: 
USER4: 
USER5: 
[...]
-0.014657
-0.012830
-0.009833
-0.014786
-0.009919
-0.010195
-0.014213
-0.010982
-0.012662
-0.012471
-0.011111
-0.012089
-0.011430
-0.013110
-0.011282
-0.010390
-0.012770
-0.011176
-0.011921
-0.011028
-0.012941
-0.015556
-0.011624
-0.010732
-0.010541
-0.010817
-0.013432
-0.014176
-0.012816
-0.010755
-0.015707
-0.013412
-0.006675
-0.015368
-0.014943
-0.009842
-0.015730
-0.013201
-0.011374
-0.012585
-0.010992
-0.015243
-0.013883
-0.010886
-0.011630
-0.012608
-0.016392
-0.014330
-0.011801
-0.014182
-0.012355
-0.014735
-0.014778
-0.011080
-0.015098
-0.013738
-0.010507
-0.015460
-0.017139
-0.014610
-0.011380
-0.011890
-0.014505
-0.013612
-0.015058
-0.013698
-0.011870
-0.016589
-0.013592
-0.011297
-0.013912
-0.013019
-0.015166
-0.013806
-0.012680
-0.014593
-0.011830
-0.015614
-0.016358
-0.011725
-0.015275
-0.016720
-0.013724
-0.013533
-0.013108
-0.015255
-0.017168
-0.014873
-0.013747
-0.015660
-0.014534
-0.013407
-0.015321
-0.014194
-0.015172
-0.017319
-0.014790
-0.014132
-0.015811
-0.015854
-0.015429
-0.015706
-0.016917
-0.015791
-0.014665
-0.016578
-0.014517
-0.014326
-0.017876
-0.016282
-0.014922
-0.016367
-0.015007
-0.015752
-0.016262
-0.014668
-0.014010
-0.016624
-0.019706
-0.016710
-0.012778
-0.017029
-0.018007
-0.014777
-0.016222
-0.017668
-0.015840
-0.014714
-0.017796
-0.017138
-0.012271
-0.016522
-0.021007
-0.016140
-0.015949
-0.017862
-0.016268
-0.015609
-0.013548
-0.017332
-0.021583
-0.016716
-0.014888
-0.018906
-0.017546
-0.014315
-0.017865
-0.020246
-0.015612
-0.015655
-0.018737
-0.018546
-0.018589
-0.015826
-0.016103
-0.021289
-0.017825
-0.014829
-0.020249
-0.019356
-0.016360
-0.018273
-0.016913
-0.016254
-0.019103
-0.020782
-0.019188
-0.014789
-0.018572
-0.023291
-0.015385
-0.015194
-0.022718
-0.016682
-0.015790
-0.021911
-0.018447
-0.019659
-0.020169
-0.015068
-0.019787
-0.019362
-0.016366
-0.022487
-0.018789
-0.013689
-0.019109
-0.021957
-0.019896
-0.019471
-0.021150
-0.020024
-0.018430
-0.020110
-0.018750
-0.020195
-0.022108
-0.017943
-0.017752
-0.021068
-0.018773
-0.018114
-0.019092
-0.018667
-0.020814
-0.020623
-0.018795
-0.019306
-0.017946
-0.020794
-0.023409
-0.019711
-0.020455
-0.020732
-0.018904
-0.022454
-0.020626
-0.018565
-0.021179
-0.020988
-0.023135
-0.021074
-0.019480
-0.024433
-0.020267
-0.017972
-0.022223
-0.019460
-0.020672
-0.023287
-0.022628
-0.023372
-0.020609
-0.019483
-0.022098
-0.020738
-0.019611
-0.023161
-0.023204
-0.020207
-0.022822
-0.022163
-0.018933
-0.022249
-0.022058
-0.021166
-0.024949
-0.021485
-0.017787
-0.022272
-0.023016
-0.020487
-0.022166
-0.022677
-0.020849
-0.021593
-0.020935
-0.020744
-0.023826
-0.023635
-0.022041
-0.022785
-0.022361
-0.023338
-0.024083
-0.020852
-0.023467
-0.025614
-0.022150
-0.021725
-0.023170
-0.023213
-0.023022
-0.023065
-0.024511
-0.021982
-0.022258
-0.024873
-0.024214
-0.023088
-0.022195
-0.026680
-0.025087
-0.019284
-0.024705
-0.023578
-0.021049
-0.026470
-0.023473
-0.021412
-0.024260
-0.025939
-0.024345
-0.019712
-0.023496
-0.024240
-0.023114
-0.026430
-0.023199
-0.024879
-0.025857
-0.022159
-0.025942
-0.024349
-0.022989
-0.025603
-0.022607
-0.025455
-0.026199
-0.023904
-0.027921
-0.024691
-0.022162
-0.026881
-0.022247
-0.022758
-0.030282
-0.024246
-0.020782
-0.027371
-0.026245
-0.023015
-0.024460
-0.026373
-0.025247
-0.022718
-0.026268
-0.027012
-0.022613
-0.024760
-0.026439
-0.023676
-0.026525
-0.026567
-0.023571
-0.026887
-0.027865
-0.025803
-0.024677
-0.023551
-0.027568
-0.028546
-0.024381
-0.026761
-0.028675
-0.024509
-0.023850
-0.028803
-0.026742
-0.023277
-0.028931
-0.028506
-0.024808
-0.027657
-0.026764
-0.025638
-0.025447
-0.026191
-0.029507
-0.026978
-0.025618
-0.026129
-0.024067
-0.026916
-0.026491
-0.024663
-0.029148
-0.029191
-0.025961
-0.025302
-0.025579
-0.028193
-0.028002
-0.027110
-0.027153
-0.026494
-0.028875
-0.028450
-0.025687
-0.028769
-0.028344
-0.026517
-0.028664
-0.025667
-0.026645
-0.030195
-0.026263
-0.027475
-0.030090
-0.026625
-0.027837
-0.028581
-0.026988
-0.029602
-0.029879
-0.028986
-0.028094
-0.025565
-0.028647
-0.031729
-0.027330
-0.026437
-0.029987
-0.029329
-0.029371
-0.030116
-0.026651
-0.027162
-0.030010
-0.027247
-0.029628
-0.032476
-0.025505
-0.027652
-0.035177
-0.028673
-0.024274
-0.030863
-0.031841
-0.028143
-0.029822
-0.031034
-0.027804
-0.029483
-0.031396
-0.029335
-0.028676
-0.028251
-0.030398
-0.031142
-0.030016
-0.029825
-0.026127
-0.029209
-0.033460
-0.026957
-0.027701
-0.033121
-0.030125
-0.029934
-0.032548
-0.028616
-0.027023
-0.031975
-0.029212
-0.029021
-0.035611
-0.028406
-0.026344
-0.033401
-0.028768
-0.029980
-0.033295
-0.027961
-0.031277
-0.032021
-0.028791
-0.031873
-0.030747
-0.030789
-0.031066
-0.028771
-0.032087
-0.030493
-0.029367
-0.032215
-0.030621
-0.030664
-0.030707
-0.030516
-0.031494
-0.030835
-0.032515
-0.029284
-0.029795
-0.035916
-0.031517
-0.029222
-0.033940
-0.031645
-0.029818
-0.032666
-0.033644
-0.031115
-0.031625
-0.034006
-0.032880
-0.031987
-0.031329
-0.032774
-0.032350
-0.028184
-0.032435
-0.035985
-0.032754
-0.032563
-0.033074
-0.029843
-0.030354
-0.035540
-0.034180
-0.030950
-0.034733
-0.035244
-0.032013
-0.032290
-0.033034
-0.034246
-0.034289
-0.031994
-0.032036
-0.034417
-0.034927
-0.030996
-0.032675
-0.035757
-0.031124
-0.034206
-0.037055
-0.032889
-0.035270
-0.033208
-0.028809
-0.037035
-0.035441
-0.030808
-0.036695
-0.034400
-0.031637
-0.035187
-0.032658
-0.032701
-0.035783
-0.034657
-0.035635
-0.034743
-0.031512
-0.035296
-0.036040
-0.033745
-0.036827
-0.035701
-0.031535
-0.033448
-0.036297
-0.035872
-0.034044
-0.034321
-0.036000
-0.035575
-0.033982
-0.034492
-0.035704
-0.036214
-0.036023
-0.033260
-0.034004
-0.037087
-0.032453
-0.034367
-0.039787
-0.034218
-0.034495
-0.037577
-0.035048
-0.035559
-0.035601
-0.037748
-0.036388
-0.032924
-0.038344
-0.034412
-0.032117
-0.040343
-0.033606
-0.033181
-0.041407
-0.034202
-0.034478
-0.038729
-0.033862
-0.037178
-0.036286
-0.034225
-0.039177
-0.035011
-0.034587
-0.040474
-0.037244
-0.033312
-0.034992
-0.035970
-0.036480
-0.036990
-0.035864
-0.035673
-0.038288
-0.035759
-0.035568
-0.040053
-0.036822
-0.035696
-0.038544
-0.036717
-0.038630
-0.038205
-0.035676
-0.037356
-0.036229
-0.037909
-0.038653
-0.035890
-0.037102
-0.037145
-0.036252
-0.038399
-0.038676
-0.037783
-0.038761
-0.040441
-0.035574
-0.035149
-0.041738
-0.037573
-0.035277
-0.040697
-0.038402
-0.036808
-0.039423
-0.039466
-0.037171
-0.037681
-0.040296
-0.036364
-0.038043
-0.040190
-0.032985
-0.036535
-0.042423
-0.038257
-0.038300
-0.038343
-0.038385
-0.040065
-0.039406
-0.037111
-0.036452
-0.041405
-0.040279
-0.037282
-0.041767
-0.038303
-0.038580
-0.043766
-0.038431
-0.037305
-0.040153
-0.039495
-0.041642
-0.040048
-0.036818
-0.040835
-0.041813
-0.038115
-0.038392
-0.040539
-0.041049
-0.039923
-0.037628
-0.040008
-0.039817
-0.037288
-0.041773
-0.041115
-0.037650
-0.041902
-0.040308
-0.038246
-0.043667
-0.040202
-0.036738
-0.043795
-0.040565
-0.036399
-0.043456
-0.041628
-0.038398
-0.041480
-0.040354
-0.041332
-0.040907
-0.041183
-0.043330
-0.037528
-0.039675
-0.042524
-0.037189
-0.036998
-0.033534
-0.034278
-0.040867
-0.045586
-0.059189
-0.066246
-0.060911
-0.045289
-0.013536
-0.009838
-0.033260
-0.029095
-0.016512
-0.026608
-0.040913
-0.065738
-0.095707
-0.072136
-0.002040
0.054029
0.062169
-0.001701
-0.096899
-0.157729
-0.151693
-0.072245
0.054898
0.232074
0.321575
0.145717
-0.145403
-0.361007
-0.396354
-0.126594
0.279469
0.475582
0.385527
0.136724
-0.217288
-0.521968
-0.456548
-0.027807
0.406546
0.574136
0.357363
-0.197481
-0.654597
-0.530961
0.022862
0.548863
0.670395
0.252790
-0.250385
-0.508773
-0.502737
-0.122860
0.333470
0.529583
0.392301
-0.124200
-0.612411
-0.610116
-0.172490
0.291788
0.446987
0.385455
0.205389
0.038882
-0.040885
-0.257658
-0.277574
-0.081928
-0.126626
-0.006731
0.037180
-0.164864
-0.069050
-0.586018
-1.161202
-0.334070
0.522053
0.734064
0.529916
0.019026
0.050312
-0.468760
-1.209707
-0.450142
0.237413
0.437968
0.238730
-0.969577
-1.167646
-0.440346
0.326233
1.570459
1.502615
0.418922
-0.551379
-1.771143
-1.637921
-0.530232
0.331034
1.234852
0.974826
0.398473
0.432799
-0.231696
-0.296501
0.242359
-0.283026
-0.309488
0.024098
-0.555762
0.030091
1.289514
0.162569
-1.716503
-1.210141
0.613669
1.387495
0.952122
0.537323
0.753542
0.989635
0.709503
-0.037522
-0.560803
-0.183731
-0.067109
-0.721784
-0.822593
0.054805
1.368001
1.066828
-0.355404
0.717449
2.111072
0.775579
-1.174801
-2.033581
-1.027828
0.800190
1.275925
0.657722
0.074355
-0.229624
-0.881961
-0.998201
0.271977
1.296433
0.825055
-0.894099
-0.880581
1.438879
1.563917
-0.407270
-1.379208
-1.231023
-0.464679
0.165362
0.283854
0.013308
-1.490752
-4.180399
-4.768208
-1.139483
3.664306
4.903856
0.689150
-4.241677
-5.100223
-3.481454
-1.718665
-1.130006
0.675801
4.359000
3.898377
-0.288273
-4.097341
-4.766979
-1.315473
0.543874
1.453302
3.069266
0.780816
-1.424637
-1.065099
0.657710
5.829029
8.272635
3.121337
-2.934990
-3.415720
-1.026355
-1.416137
-2.219975
-1.365957
-0.923187
-0.126917
1.075927
3.170942
4.219012
1.227767
-1.788026
-3.390048
-2.290075
1.416972
-1.302133
-5.787576
-2.520069
2.276707
5.377050
4.538376
-0.807207
-1.219668
2.196067
3.038630
2.020166
0.081476
-0.390369
-1.133186
-3.534327
-2.170163
2.274748
4.190206
1.480220
-3.012939
-4.566799
-2.665602
0.021621
-0.013491
-1.762338
-1.723336
-1.011466
1.989279
5.482868
1.704194
-2.609174
0.456333
1.134536
-4.920856
-10.235812
-10.861029
-5.061263
2.671071
2.848247
-1.162822
-0.268824
3.246275
3.400539
0.572016
-1.895990
-2.169108
0.760095
4.223992
2.648156
-1.792398
-3.225618
-0.759334
4.517194
7.110197
4.636579
3.239130
2.152164
0.621918
3.796140
5.363241
0.743831
-1.881287
-1.153051
-1.024739
-1.764049
-2.756561
-1.289760
2.114753
3.205141
2.279261
0.468224
-1.763881
-1.767898
-1.722818
-4.819272
-4.717379
0.608480
2.099830
-0.511261
-1.360689
-1.581437
-1.499183
-0.730968
-0.521762
0.132360
0.450983
-0.571455
-1.111570
-0.315767
0.668711
-0.307202
-2.899822
-2.104487
2.509693
3.117289
-0.696688
-2.516141
-3.189286
-2.680119
-0.070516
1.059617
2.466098
2.817920
-2.121090
-5.340521
-4.225117
-3.707532
-1.841405
1.014619
1.423254
1.564191
2.300610
0.692042
-2.899361
-2.922550
0.866560
2.549390
2.484819
1.063990
-1.386014
0.702922
3.380325
2.638911
4.096361
5.489048
2.559993
-2.605566
-7.640667
-7.542515
-2.094380
0.623003
-0.306852
0.445231
2.404643
4.366159
5.591448
3.497049
1.137758
-0.926948
-5.653904
-6.753729
-2.940538
-1.083763
-0.574829
-0.839998
-3.701486
-5.852697
-3.728926
0.874500
2.845134
2.279302
2.183168
1.436143
0.074465
-1.275990
-2.483362
-1.418459
0.319314
0.039649
0.071637
1.578651
1.066359
-1.136990
-0.149473
1.701925
-0.777772
-4.338780
-4.209300
-1.774811
0.367898
2.012619
1.460581
-0.415919
-0.924237
-3.025650
-3.914823
0.506006
4.462281
5.840239
4.199875
0.616889
-0.541386
-2.877531
-4.894776
-2.623245
-0.967302
1.451756
4.437772
3.268509
1.092281
-0.781881
-2.315633
-2.525626
-3.745623
-4.684128
-4.227565
-2.792092
0.922670
3.007631
1.285437
-0.202024
-0.558841
0.649614
2.531639
0.571440
-2.633963
-2.862192
-2.156634
-0.884586
-0.250571
-0.926989
0.551034
2.062491
1.291385
0.556985
0.748889
2.820290
3.419938
0.131069
-1.610062
-1.108142
-0.659762
-0.157141
-0.320608
1.386771
4.000114
3.015317
2.069097
3.088878
1.749878
-0.776110
-1.447619
-1.877849
-2.550994
-0.958877
1.233864
0.760850
1.291994
3.058524
0.979790
-1.542458
-1.933878
-2.564004
-1.873643
-1.358163
-2.659755
-2.881438
-2.594612
-2.383769
-0.082546
2.902301
2.866488
0.297247
-1.322544
0.000005
3.621014
5.406949
3.973962
1.777628
-1.105836
-2.295907
-0.230351
1.647933
2.742295
3.008080
1.504955
-0.274519
-1.452432
-2.134696
-1.775626
0.590126
3.039109
2.359886
0.543706
0.182212
-0.164084
-0.315160
1.391985
1.995373
0.521472
2.517356
6.319559
5.070103
-0.038176
-3.447451
-2.297912
-1.708552
-5.621660
-7.251036
-3.537910
2.838634
9.090564
12.256369
15.181832
14.886503
4.895134
-5.597262
-8.281298
-3.390068
6.672758
6.751972
-7.622628
-15.362763
-7.408088
8.155052
21.277582
17.631705
2.600836
-3.504589
-3.748248
-0.966104
12.247140
21.066397
15.240828
3.011786
-6.764256
-0.005220
9.243757
-0.428712
-4.385774
6.652688
17.668003
27.903604
20.906243
1.404469
-2.177348
-0.612352
-5.906967
-13.415643
-15.232992
4.055707
24.128329
26.401497
30.841264
31.857772
25.075270
20.776397
0.638928
-25.763138
-34.527539
-41.777401
-44.544668
-24.932160
4.137915
33.849297
59.763576
55.999398
23.050073
-6.654614
-34.438423
-56.294769
-34.030766
10.901051
17.114872
-3.586048
-1.754289
1.130960
-31.083774
-61.780696
-58.194990
-18.709715
28.115159
24.256526
2.382879
6.496031
3.975420
21.004001
53.653980
30.648053
-9.593877
-22.421674
-40.169033
-38.611519
-3.931946
5.484664
-5.116916
-17.632594
-56.386404
-56.181406
12.089457
61.014531
81.923445
65.326836
-28.171539
-92.581559
-44.609910
43.108209
88.778124
52.130126
-44.988131
-106.661087
-80.094747
-25.537029
-5.961460
-0.997753
18.686531
45.127556
45.956324
6.052232
-15.851575
1.844497
-12.634610
-49.458424
-31.988200
13.220433
34.257936
49.561327
53.330564
17.777205
-33.716218
-56.991012
-25.979952
16.535336
2.837579
-12.407682
30.496879
55.479477
25.575127
-28.343708
-80.282982
-69.505673
-32.949643
-29.025866
6.817784
35.640268
14.911292
27.224416
39.946451
12.551915
-9.843100
-24.742575
-17.001590
10.912591
25.455908
36.320424
25.408829
-25.215102
-43.870062
-12.328984
-2.603294
9.013114
35.709446
17.464566
7.391835
15.630574
-9.239185
-9.806887
-6.575618
-34.755011
-32.172530
-14.343427
11.237926
32.854310
-7.959487
-28.583020
8.528512
19.154555
28.575840
33.539080
0.281844
-1.880824
11.091842
-5.982649
-17.298012
-30.436993
-41.718689
-34.564769
-21.636291
12.423953
38.156573
26.062665
6.882128
-11.467960
-7.009957
20.207275
31.404952
40.256942
39.740441
19.905038
5.311837
-24.603734
-52.611754
-34.973196
-5.332188
4.571655
-5.188722
-24.303094
-17.992247
12.168025
18.159504
0.471997
-1.747951
2.256954
2.436233
14.714054
19.070356
10.911957
4.656201
-5.540676
2.683802
11.601021
-20.153834
-49.959054
-60.720551
-53.405779
3.381196
59.185521
72.097634
60.169021
16.260683
-24.923684
-27.170284
-14.123271
1.995839
7.452624
-4.476690
-11.318109
-7.347339
2.010354
13.682406
30.754006
48.981733
36.983214
1.119373
-24.377431
-42.546561
-42.958087
-16.424010
9.230521
24.668112
26.255318
10.064114
-1.649640
10.157313
31.985986
26.785824
-4.965290
-25.177106
-17.819081
6.932992
12.029730
-18.684727
-41.324996
-36.910479
-30.802334
-22.000377
0.688669
29.259354
51.287455
36.934832
-5.871386
-17.036183
-10.842235
-19.157044
-9.968854
0.118754
-10.162290
-4.181798
11.746766
10.769217
6.538847
2.317828
-10.767380
-16.478155
-12.611658
-8.624523
15.214573
31.940152
-11.109916
-54.352867
-34.003663
-11.585354
-23.612630
-22.855403
5.684654
44.787905
64.173396
39.075685
-0.229185
-37.784550
-62.667636
-30.663171
24.117823
53.527372
70.254822
52.825895
16.245231
13.775353
9.697419
-17.471503
-27.895163
-24.318107
-13.454293
0.913208
-1.963944
12.966540
47.049229
29.402402
-15.507289
-27.751295
-26.849348
-18.356004
-2.144778
-7.027209
-18.707296
-15.456387
-6.221438
20.687181
48.195257
31.969217
3.019929
-18.879202
-54.561851
-51.378978
-0.337103
32.190132
45.043795
21.540114
-49.931987
-77.792948
-41.533841
-4.120710
20.411360
8.588891
-29.339147
-22.937820
13.110168
19.541888
-6.925642
-39.422335
-47.019386
-27.750092
2.426078
26.887775
26.396992
15.841704
8.271306
1.841838
11.019975
19.453935
13.228572
10.883543
3.391700
-6.965328
3.216033
10.589254
-10.579494
-30.370008
-24.762423
-18.419780
-15.718062
-0.892552
6.121323
12.611726
33.860348
27.271430
-8.247794
-38.342922
-58.697355
-49.294072
-24.139399
-19.411828
-14.342444
1.252492
17.338636
18.072015
-17.912700
-48.686775
-40.041696
-22.782591
-14.749828
-8.707380
9.821244
27.575064
19.841476
-0.293655
-17.243532
-5.623149
26.371730
22.370013
3.903259
5.806093
6.221741
3.835096
-0.208938
-1.555653
-4.415504
-29.050063
-39.600208
-15.429822
10.485393
30.879720
33.676828
2.094983
-31.621431
-27.125085
-0.975605
3.466968
-6.416621
-13.944468
-24.551191
-20.842975
-5.261366
9.927698
20.397331
-5.550935
-37.632639
-25.659690
-5.326151
5.830145
12.800767
5.265672
7.424747
15.850290
0.940996
-13.965259
-1.531729
14.857416
9.546902
4.667043
16.088932
16.467407
5.125157
3.757400
1.783174
-2.316972
1.585997
-6.270803
-19.558947
-7.192050
16.035666
32.503835
36.351627
14.363887
-5.720744
-0.750257
11.286753
20.390542
9.948178
-19.669770
-30.200977
-16.167806
-2.048599
0.812336
1.737663
16.951977
31.679525
31.434229
33.003200
36.302738
26.949168
7.090853
-17.041744
-35.234019
-25.634113
3.940497
3.251454
-20.058878
-11.916229
0.777984
-7.102429
1.960679
12.503256
10.202415
16.090556
-0.257994
-35.355682
-42.121818
-24.198261
7.913517
38.916394
53.788195
60.525488
39.290809
-2.528785
-24.678780
-27.539566
-9.945897
9.239931
-4.568412
-16.104246
-12.694122
-26.749822
-19.420087
22.823763
38.164795
23.993833
7.715889
-1.335615
6.411682
10.660204
12.436786
25.034909
33.137578
41.468199
40.857011
19.226279
2.116484
4.268078
14.728592
13.048950
12.171700
19.673744
10.564726
7.637541
15.178629
8.018311
5.534874
10.876163
24.919621
55.017469
81.266547
84.295114
52.616944
11.753348
-10.032158
-13.054498
0.671931
12.376480
36.345801
78.950400
87.196153
59.666950
32.162996
23.130898
22.835803
-2.605825
-30.345913
-33.853148
-28.735135
-11.758691
13.025179
31.439009
31.472633
14.224431
8.523943
13.269283
12.398813
2.684962
-13.074186
-3.864253
13.799322
-6.386310
-32.869738
-43.117114
-52.473724
-48.315215
-32.689417
-17.784884
-16.027239
-44.754887
-69.562223
-56.100219
-32.747889
-20.228322
-9.719646
-10.101947
-20.384861
-15.077940
-9.276303
-13.765955
-0.237085
5.558238
-12.494928
-14.438060
-7.991143
-7.885509
-7.594708
-17.639383
-29.798988
-37.622355
-42.118786
-37.235506
-34.502225
-39.996971
-57.308064
-70.497546
-45.086866
-17.425653
-22.021916
-25.650024
-26.754526
-27.465546
-15.845631
-12.641716
-9.702226
3.703667
12.736849
30.669290
50.505309
48.954021
32.879014
13.656861
7.136680
15.559885
25.904202
29.449929
17.015145
-3.825586
-29.478566
-54.955029
-58.678995
-45.316589
-28.349497
-14.223041
4.044432
36.562315
46.320503
28.234137
27.412999
28.959057
-0.510897
-41.104691
-46.989645
-3.581485
46.556763
64.853928
48.285375
18.016769
6.527929
7.737553
6.088772
11.347531
8.762392
-15.342383
-42.554323
-55.349623
