EVENT_NAME: 202302060117
EVENT_ID: 13194
EVENT_DATE_YYYYMMDD: 2023/02/06
EVENT_TIME_HHMMSS: 01:17:32.00000
EVENT_LATITUDE_DEGREE: 37.288
EVENT_LONGITUDE_DEGREE: 37.043
EVENT_DEPTH_KM: 8.6
HYPOCENTER_REFERENCE: AFAD
MAGNITUDE_W: 7.7
MAGNITUDE_W_REFERENCE: AFAD
MAGNITUDE_L: 
MAGNITUDE_L_REFERENCE: 
FOCAL_MECHANISM: 
NETWORK: TK
STATION_CODE: 6608
STATION_NAME: 
STATION_LATITUDE_DEGREE: 39.99367
STATION_LONGITUDE_DEGREE: 35.792573
STATION_ELEVATION_M: 943.0
LOCATION: Kahramanmaras_Pazarck_Turkiye
SENSOR_DEPTH_M: 
VS30_M/S: None
SITE_CLASSIFICATION_EC8: unknown
MORPHOLOGIC_CLASSIFICATION: 
EPICENTRAL_DISTANCE_KM: 319.85
EARTHQUAKE_BACKAZIMUTH_DEGREE: 
DATE_TIME_FIRST_SAMPLE_YYYYMMDD_HHMMSS: 2023/02/06 01:18:04.6230790
DATE_TIME_FIRST_SAMPLE_PRECISION: millisecond
SAMPLING_INTERVAL_S: 0.01
NDATA: 18251
DURATION_S: 
STREAM: HNE
UNITS: cm/s^2
INSTRUMENT: sensor = ACEBOX/SARA | digitizer = 
INSTRUMENT_ANALOG/DIGITAL: 
INSTRUMENTAL_FREQUENCY_HZ: 
INSTRUMENTAL_DAMPING: 
FULL_SCALE_G: 
N_BIT_DIGITAL_CONVERTER: 
PGA_CM/S^2: 12.354
TIME_PGA_S: 
BASELINE_CORRECTION: BASELINE REMOVED
FILTER_TYPE: BUTTERWORTH
FILTER_ORDER: 
LOW_CUT_FREQUENCY_HZ: 
HIGH_CUT_FREQUENCY_HZ: 
LATE/NORMAL_TRIGGERED: 
DATABASE_VERSION: 
HEADER_FORMAT: DYNA 1.2
DATA_TYPE: Acceleration
PROCESSING: Automatic Paolucci et al., 2011
DATA_TIMESTAMP_YYYYMMDD_HHMMSS: 
DATA_LICENSE: U (unknown license)
DATA_CITATION: Turkish Accelerometric Archive v 1.0 - Disaster And Emergency Management Presidency, Earthquake Department
DATA_CREATOR: AFAD
ORIGINAL_DATA_MEDIATOR_CITATION: : AFAD - Disaster And Emergency Management Presidency
ORIGINAL_DATA_MEDIATOR: AFAD PROCESS SERVICE
ORIGINAL_DATA_CREATOR_CITATION: AFAD PROCESS SERVICE
ORIGINAL_DATA_CREATOR: network: TK
USER1: GuestUser
USER2: 
USER3: 
USER4: 
USER5: 
[...]
8.231784
8.042877
7.786401
7.483634
7.150474
6.815676
6.486490
6.156602
5.828819
5.474149
5.061497
4.587357
4.058975
3.478691
2.844633
2.186260
1.545188
0.920950
0.305596
-0.299003
-0.887471
-1.450220
-1.990058
-2.506048
-2.968733
-3.347250
-3.635054
-3.828638
-3.923559
-3.939925
-3.889892
-3.772058
-3.619388
-3.445208
-3.246246
-3.045180
-2.842712
-2.627852
-2.391015
-2.114432
-1.794597
-1.428003
-1.018623
-0.583292
-0.123647
0.360080
0.864381
1.380840
1.891453
2.399495
2.897016
3.352921
3.760430
4.130532
4.460654
4.727884
4.946017
5.139836
5.276374
5.351189
5.391636
5.394676
5.369426
5.312848
5.217927
5.096352
4.925681
4.696793
4.439851
4.174959
3.924328
3.696844
3.497649
3.349422
3.224341
3.070970
2.867333
2.582101
2.198440
1.737626
1.206906
0.613529
-0.009774
-0.646170
-1.281630
-1.890438
-2.461137
-2.987414
-3.474414
-3.932188
-4.343437
-4.691795
-4.980768
-5.215734
-5.396225
-5.510318
-5.551699
-5.525046
-5.427552
-5.271142
-5.085039
-4.869010
-4.628198
-4.385750
-4.132080
-3.857601
-3.565121
-3.233362
-2.858117
-2.449907
-2.005691
-1.549553
-1.110481
-0.695958
-0.320713
0.013150
0.314047
0.590162
0.855990
1.127897
1.398634
1.659786
1.933563
2.219264
2.486260
2.721928
2.924865
3.096005
3.229270
3.316242
3.371653
3.405554
3.414672
3.405554
3.382643
3.334013
3.251249
3.150483
3.026337
2.844677
2.601294
2.304138
1.947364
1.539622
1.084653
0.579651
0.040281
-0.522936
-1.100883
-1.684440
-2.268699
-2.830747
-3.364039
-3.870443
-4.313255
-4.682888
-4.974667
-5.164510
-5.257327
-5.257560
-5.169652
-5.023061
-4.851687
-4.684756
-4.543542
-4.441606
-4.365387
-4.290572
-4.207807
-4.102364
-3.981958
-3.847525
-3.696959
-3.559720
-3.438612
-3.335507
-3.267472
-3.228895
-3.233804
-3.277524
-3.334103
-3.399098
-3.456846
-3.514827
-3.581225
-3.637804
-3.688070
-3.725009
-3.731088
-3.707006
-3.661415
-3.606706
-3.542178
-3.484430
-3.450295
-3.425045
-3.411250
-3.410315
-3.406807
-3.391610
-3.348123
-3.274477
-3.180023
-3.070371
-2.958382
-2.842418
-2.726221
-2.632701
-2.567939
-2.533571
-2.527725
-2.530063
-2.540584
-2.549000
-2.518606
-2.441219
-2.324086
-2.162999
-1.948139
-1.687922
-1.398247
-1.072567
-0.722105
-0.376085
-0.048768
0.246284
0.518425
0.780278
1.008698
1.195035
1.329937
1.402882
1.433977
1.423223
1.360098
1.266579
1.171892
1.081413
0.994440
0.923366
0.863281
0.807170
0.767658
0.742409
0.724407
0.732590
0.783090
0.873103
0.995613
1.140334
1.289730
1.444738
1.611670
1.772055
1.904619
1.997437
2.043027
2.038819
1.977331
1.849678
1.636923
1.336728
0.986032
0.611723
0.225490
-0.155599
-0.527804
-0.880370
-1.196697
-1.483098
-1.759680
-2.041639
-2.334119
-2.641095
-2.945031
-3.213897
-3.445356
-3.630991
-3.756072
-3.834628
-3.871100
-3.866891
-3.834393
-3.774540
-3.683827
-3.551263
-3.363290
-3.122011
-2.847299
-2.566975
-2.306057
-2.084651
-1.898548
-1.731383
-1.594845
-1.498520
-1.442174
-1.430952
-1.446850
-1.468125
-1.495946
-1.525404
-1.553226
-1.594374
-1.647913
-1.704024
-1.760135
-1.805491
-1.835885
-1.847107
-1.825129
-1.791228
-1.765744
-1.753820
-1.792396
-1.883577
-2.004450
-2.159223
-2.330129
-2.489110
-2.608113
-2.663756
-2.664925
-2.616528
-2.531894
-2.440245
-2.332931
-2.191016
-2.011459
-1.795197
-1.558593
-1.311703
-1.044239
-0.771163
-0.503699
-0.237169
0.009721
0.241414
0.478485
0.715088
0.952627
1.199517
1.464643
1.737251
1.979699
2.191754
2.389547
2.569571
2.753102
2.954870
3.147519
3.348819
3.607866
3.885618
4.147471
4.440887
4.762592
5.075647
5.380987
5.653829
5.879210
6.054792
6.161404
6.215645
6.228972
6.205826
6.170523
6.113945
6.031648
5.931350
5.806268
5.670199
5.541611
5.435701
5.352236
5.273914
5.204009
5.130129
5.036143
4.937247
4.820816
4.681240
4.539091
4.388293
4.229077
4.072199
3.923972
3.795384
3.685500
3.607879
3.556912
3.499398
3.477188
3.509218
3.542886
3.585203
3.646225
3.696491
3.758448
3.845421
3.922107
3.960216
3.963957
3.955073
3.929122
3.887507
3.873479
3.898028
3.938709
3.997860
4.090211
4.194017
4.278184
4.358143
4.429452
4.441843
4.393682
4.293850
4.125517
3.911593
3.664703
3.390927
3.133516
2.917722
2.750090
2.632256
2.545518
2.478184
2.422775
2.366664
2.286238
2.153208
1.961962
1.724190
1.459532
1.170793
0.850725
0.516629
0.185339
-0.128417
-0.413182
-0.672229
-0.894336
-1.081607
-1.236614
-1.332471
-1.374320
-1.374086
-1.327794
-1.252277
-1.142626
-0.997671
-0.857159
-0.745871
-0.668250
-0.623594
-0.598577
-0.566313
-0.509500
-0.426735
-0.321994
-0.210472
-0.094742
0.020053
0.111234
0.189323
0.266476
0.334044
0.384311
0.390857
0.334746
0.214107
0.035486
-0.188725
-0.430938
-0.654916
-0.859722
-1.050734
-1.215093
-1.369633
-1.519029
-1.658605
-1.810339
-1.979608
-2.148410
-2.305989
-2.451644
-2.572517
-2.648267
-2.677023
-2.655514
-2.579295
-2.442524
-2.237717
-1.996204
-1.741365
-1.467354
-1.198954
-0.959078
-0.741880
-0.552036
-0.399132
-0.284805
-0.188948
-0.090285
0.003000
0.065892
0.089038
0.067062
-0.016871
-0.170242
-0.377620
-0.614456
-0.859007
-1.102156
-1.320756
-1.486518
-1.595935
-1.648305
-1.652747
-1.642693
-1.652746
-1.715871
-1.831133
-1.986374
-2.175749
-2.378685
-2.591674
-2.802559
-2.972295
-3.111170
-3.233446
-3.322289
-3.390090
-3.452981
-3.510027
-3.566372
-3.609390
-3.609623
-3.563097
-3.461395
-3.290021
-3.079370
-2.866146
-2.655261
-2.446480
-2.257103
-2.104667
-1.979118
-1.857543
-1.737371
-1.621407
-1.505209
-1.367502
-1.204779
-1.043225
-0.889152
-0.740690
-0.604153
-0.471589
-0.346273
-0.238493
-0.150117
-0.086757
-0.042336
-0.015215
-0.011006
-0.033684
-0.091432
-0.174663
-0.270987
-0.390223
-0.533073
-0.675455
-0.806615
-0.948062
-1.078287
-1.144685
-1.190977
-1.268363
-1.322370
-1.330786
-1.340372
-1.348554
-1.340605
-1.347618
-1.366088
-1.362581
-1.336863
-1.285427
-1.203831
-1.093245
-0.945952
-0.765928
-0.550600
-0.305814
-0.041389
0.253430
0.549651
0.844236
1.189555
1.547733
1.858450
2.142747
2.389871
2.569896
2.673702
2.699888
2.675339
2.586263
2.428918
2.247024
2.032866
1.796263
1.566909
1.360232
1.221123
1.118019
1.044373
1.035022
1.006733
0.984288
1.048583
1.101188
1.107734
1.122698
1.139999
1.158937
1.176706
1.199151
1.238195
1.247080
1.212946
1.172499
1.112881
1.013986
0.905972
0.829286
0.785800
0.749095
0.705375
0.657447
0.617702
0.585906
0.558552
0.555045
0.588011
0.650903
0.740447
0.850099
0.964660
1.070102
1.176481
1.298523
1.441841
1.609240
1.793473
1.998981
2.216647
2.405555
2.559628
2.693127
2.810961
2.924587
3.054111
3.225952
3.439409
3.671337
3.926410
4.182886
4.408968
4.646974
4.903216
5.119713
5.292723
5.436742
5.537743
5.590114
5.590348
5.530964
5.410559
5.244096
5.043966
4.798946
4.504596
4.178917
3.826351
3.435676
3.020219
2.605463
2.185329
1.745089
1.281937
0.806862
0.335994
-0.115936
-0.537705
-0.935862
-1.316717
-1.675128
-2.003613
-2.288144
-2.521006
-2.696587
-2.818161
-2.894846
-2.910043
-2.861413
-2.776310
-2.652397
-2.492246
-2.329289
-2.165163
-1.982800
-1.786176
-1.584877
-1.385213
-1.183914
-0.975132
-0.760974
-0.527176
-0.273272
-0.015393
0.252773
0.548059
0.895950
1.305329
1.756558
2.239584
2.736169
3.231352
3.729808
4.217042
4.682065
5.120903
5.523502
5.905060
6.268381
6.601075
6.911091
7.201935
7.474777
7.734292
7.985624
8.229008
8.440828
8.610332
8.748506
8.845532
8.898137
8.920114
8.903515
8.837351
8.726064
8.577603
8.410672
8.241637
8.072836
7.922037
7.795085
7.675147
7.561990
7.453976
7.348534
7.261795
7.197735
7.141390
7.077798
6.999944
6.902684
6.784851
6.645274
6.472732
6.279616
6.072706
5.836805
5.596462
5.358223
5.085849
4.779575
4.452259
4.107175
3.758116
3.415136
3.087352
2.757932
2.413315
2.070569
1.721510
1.361463
1.002584
0.633185
0.241809
-0.170142
-0.603602
-1.044309
-1.478470
-1.914034
-2.354508
-2.782824
-3.190099
-3.581475
-3.950874
-4.284970
-4.578152
-4.830652
-5.041771
-5.203324
-5.308533
-5.355993
-5.342433
-5.273462
-5.153758
-4.980981
-4.773369
-4.544949
-4.281459
-4.002538
-3.761960
-3.548737
-3.330136
-3.121355
-2.926835
-2.732082
-2.527976
-2.293945
-2.020869
-1.710620
-1.356183
-0.969482
-0.565246
-0.163348
0.198336
0.508819
0.771140
0.987169
1.185430
1.383924
1.598550
1.836322
2.061937
2.261600
2.440456
2.588216
2.715636
2.847030
2.989881
3.153305
3.354839
3.579285
3.805367
4.029111
4.230645
4.414410
4.589524
4.740324
4.875459
4.978096
5.029766
5.042158
4.998672
4.911232
4.796438
4.638625
4.457900
4.264550
4.060445
3.870369
3.687072
3.500268
3.322349
3.151210
2.995969
2.870654
2.755392
2.636857
2.511308
2.353963
2.159444
1.939675
1.695591
1.443792
1.205553
0.991862
0.806461
0.636725
0.471197
0.293511
0.081224
-0.175018
-0.481292
-0.839469
-1.239496
-1.657057
-2.059890
-2.434900
-2.772269
-3.066386
-3.322160
-3.543331
-3.747202
-3.934240
-4.096027
-4.242618
-4.360685
-4.433396
-4.451164
-4.399494
-4.303637
-4.189310
-4.052304
-3.912026
-3.780397
-3.636845
-3.484643
-3.332207
-3.165509
-2.983848
-2.792368
-2.589198
-2.381585
-2.174675
-1.971271
-1.786103
-1.627354
-1.493855
-1.385139
-1.290451
-1.197633
-1.108790
-1.029299
-0.960562
-0.894397
-0.825426
-0.761132
-0.711566
-0.687719
-0.699876
-0.735179
-0.787783
-0.856986
-0.912396
-0.963130
-1.026255
-1.075352
-1.125150
-1.186638
-1.276416
-1.411551
-1.533593
-1.692341
-1.932684
-2.107564
-2.176767
-2.196874
-2.158531
-2.076935
-1.966582
-1.857632
-1.741435
-1.536160
-1.283893
-1.078385
-0.902101
-0.735637
-0.597463
-0.497865
-0.438714
-0.410190
-0.411125
-0.453676
-0.517736
-0.580393
-0.653571
-0.732127
-0.770703
-0.743582
-0.674612
-0.578754
-0.450399
-0.318537
-0.199768
-0.088480
0.004104
0.079621
0.137369
0.178752
0.232525
0.301262
0.371402
0.441074
0.504433
0.557739
0.591640
0.598187
0.583224
0.543947
0.477081
0.399227
0.310852
0.197227
0.061391
-0.092681
-0.265223
-0.451559
-0.643039
-0.823063
-0.986954
-1.142663
-1.285512
-1.394695
-1.462496
-1.506684
-1.533336
-1.538012
-1.529595
-1.508319
-1.485406
-1.474184
-1.453375
-1.420877
-1.398900
-1.372714
-1.328292
-1.275220
-1.199703
-1.082337
-0.933875
-0.759930
-0.554655
-0.331612
-0.096178
0.155388
0.411864
0.659690
0.891617
1.098294
1.279721
1.441041
1.582255
1.694011
1.769761
1.823301
1.865385
1.883388
1.877076
1.853930
1.808574
1.737968
1.642111
1.521004
1.379791
1.220108
1.047098
0.874323
0.722822
0.613873
0.543734
0.479908
0.401352
0.314146
0.209873
0.070063
-0.084477
-0.234574
-0.381399
-0.510221
-0.608883
-0.673644
-0.701700
-0.696322
-0.663824
-0.601633
-0.498762
-0.373914
-0.259119
-0.160223
-0.076055
0.003904
0.095319
0.196553
0.312050
0.458875
0.648251
0.875970
1.138291
1.427264
1.715303
1.984404
2.217500
2.406409
2.570301
2.708943
2.814152
2.890838
2.937364
2.961446
2.982955
2.998854
2.999322
2.995581
3.014285
3.073437
3.175373
3.320327
3.500585
3.701417
3.922824
4.161765
4.405382
4.653909
4.897058
5.132726
5.374473
5.615051
5.851888
6.078672
6.268515
6.431472
6.563568
6.634175
6.669947
6.680234
6.645165
6.580871
6.476364
6.328604
6.161907
5.970194
5.731721
5.426850
5.081999
4.690857
4.205728
3.685295
3.119974
2.462536
1.825907
1.256844
0.701109
0.161271
-0.340925
-0.815299
-1.312819
-1.826472
-2.334279
-2.895392
-3.482457
-4.026736
-4.543662
-5.022478
-5.427649
-5.766888
-6.064745
-6.327533
-6.548237
-6.748368
-6.962058
-7.193283
-7.413753
-7.595180
-7.749018
-7.897011
-8.028171
-8.122157
-8.178035
-8.202817
-8.197205
-8.156290
-8.066746
-7.910335
-7.680278
-7.393642
-7.076145
-6.733398
-6.361660
-5.971218
-5.577737
-5.194309
-4.829819
-4.492449
-4.181031
-3.889485
-3.625528
-3.389159
-3.171493
-2.977675
-2.803963
-2.633992
-2.463787
-2.285166
-2.088074
-1.877423
-1.650405
-1.394163
-1.110567
-0.807799
-0.483522
-0.137501
0.208753
0.531627
0.825043
1.078714
1.299652
1.490665
1.639360
1.768651
1.890693
1.983277
2.056924
2.117945
2.153249
2.162367
2.142495
2.093398
2.018817
1.916180
1.781046
1.626740
1.471967
1.310881
1.146521
0.993151
0.835338
0.669810
0.507321
0.348807
0.200112
0.055860
-0.085354
-0.205525
-0.302317
-0.383444
-0.441425
-0.459895
-0.438385
-0.393028
-0.339021
-0.299742
-0.296469
-0.335980
-0.426927
-0.566036
-0.734837
-0.923278
-1.121070
-1.303431
-1.462179
-1.605263
-1.735020
-1.858932
-1.969752
-2.043631
-2.091092
-2.129200
-2.149774
-2.162866
-2.175959
-2.164970
-2.128263
-2.071918
-1.991024
-1.901479
-1.810298
-1.708829
-1.608764
-1.517115
-1.431077
-1.360236
-1.312307
-1.301085
-1.339427
-1.414710
-1.517814
-1.670717
-1.889083
-2.155378
-2.453937
-2.782421
-3.126337
-3.476331
-3.815571
-4.112493
-4.353771
-4.547823
-4.705402
-4.834223
-4.949485
-5.057733
-5.151018
-5.229106
-5.279605
-5.303686
-5.326130
-5.343431
-5.349276
-5.339690
-5.297372
-5.222323
-5.114776
-4.960703
-4.754259
-4.501057
-4.223539
-3.942047
-3.689078
-3.504845
-3.391921
-3.343992
-3.372982
-3.478425
-3.648862
-3.871203
-4.128380
-4.426004
-4.784648
-5.184909
-5.615095
-6.124305
-6.716046
-7.331166
-7.949326
-8.558134
-9.147536
-9.718001
-10.241940
-10.705560
-11.104418
-11.433370
-11.721408
-11.961050
-12.135930
-12.262882
-12.333488
-12.354296
-12.339332
-12.272933
-12.156502
-11.982323
-11.742680
-11.453473
-11.114466
-10.735247
-10.330076
-9.900122
-9.440476
-8.953476
-8.458060
-7.944874
-7.409946
-6.884369
-6.351077
-5.784586
-5.195650
-4.582166
-3.933378
-3.255132
-2.575015
-1.889288
-1.174102
-0.478788
0.155738
0.770158
1.389253
1.976085
2.503064
2.983518
3.406457
3.760427
4.087743
4.394252
4.659144
4.875407
5.034156
5.160641
5.266785
5.349082
5.422728
5.516482
5.673360
5.834914
5.944565
6.054450
6.122486
6.134176
6.170883
6.183976
6.127865
6.062635
5.997640
5.898978
5.743269
5.533554
5.274273
4.941346
4.542956
4.125862
3.713444
3.303831
2.908480
2.543523
2.211999
1.906660
1.594307
1.260445
0.933363
0.630596
0.348403
0.086784
-0.126205
-0.268119
-0.361170
-0.407228
-0.396940
-0.348544
-0.280509
-0.200550
-0.096743
0.025533
0.151316
0.305389
0.493129
0.702845
0.934305
1.164362
1.379222
1.577482
1.742076
1.869729
1.959976
2.006969
2.009307
1.963016
1.882590
1.799359
1.717062
1.630791
1.561588
1.511556
1.458484
1.394190
1.318908
1.231000
1.112465
0.966109
0.821622
0.690462
0.591333
0.548081
0.545743
0.566785
0.612610
0.679710
0.749382
0.816482
0.894337
0.963541
1.005391
1.039526
1.074128
1.099613
1.123694
1.167648
1.229839
1.294133
1.350713
1.387653
1.402149
1.394901
1.357728
1.285251
1.173496
1.020359
0.845947
0.677380
0.514657
0.355909
0.224749
0.134270
0.074418
0.033972
0.015736
0.016204
0.013399
0.005684
-0.009513
-0.052064
-0.104434
-0.152830
-0.207070
-0.245880
-0.259206
-0.268090
-0.290301
-0.339865
-0.407900
-0.494638
-0.622759
-0.776363
-0.951711
-1.168207
-1.400601
-1.641879
-1.907005
-2.163247
-2.417384
-2.684380
-2.927529
-3.160624
-3.404475
-3.640609
-3.886798
-4.146780
-4.401385
-4.612737
-4.752547
-4.868744
-4.967173
-5.041987
-5.144624
-5.226453
-5.249365
-5.284434
-5.346156
-5.411385
-5.463521
-5.491343
-5.519632
-5.508409
-5.411617
-5.306642
-5.201666
-4.981195
-4.651307
-4.304585
-3.930509
-3.506634
-3.075979
-2.659119
-2.237114
-1.809499
-1.400119
-1.007573
-0.631159
-0.305947
-0.035209
0.185729
0.333723
0.410409
0.424905
0.390303
0.333491
0.263118
0.183628
0.094551
-0.006449
-0.101604
-0.182497
-0.268067
-0.364859
-0.452298
-0.529919
-0.615488
-0.693109
-0.744310
-0.782418
-0.813981
-0.835957
-0.863779
-0.915681
-1.003823
-1.135918
-1.309629
-1.546231
-1.852272
-2.199694
-2.579614
-2.975433
-3.352781
-3.704646
-4.013959
-4.267862
-4.472902
-4.634690
-4.759771
-4.853523
-4.922025
-4.959900
-4.958731
-4.921089
-4.836220
-4.709034
-4.556598
-4.363247
-4.122202
-3.837904
-3.513160
-3.158723
-2.780672
-2.394205
-2.005633
-1.614490
-1.223581
-0.810461
-0.377935
0.051083
0.481504
0.894390
1.263089
1.588535
1.855064
2.047246
2.178874
2.249481
2.257197
2.222128
2.145443
2.033220
1.924505
1.823037
1.732324
1.678551
1.654471
1.650263
1.660550
1.672942
1.692113
1.709181
1.747056
1.835900
1.953032
2.100559
2.287129
2.481883
2.670558
2.843568
3.003252
3.156389
3.281471
3.373588
3.436713
3.457756
3.423622
3.339455
3.219517
3.067549
2.868354
2.612347
2.303267
1.942986
1.544830
1.123995
0.687028
0.260816
-0.134535
-0.506506
-0.851590
-1.160202
-1.445435
-1.736980
-2.041383
-2.328252
-2.595482
-2.848684
-3.076402
-3.287521
-3.466609
-3.593327
-3.685443
-3.768207
-3.880429
-4.001302
-4.071908
-4.109783
-4.085702
-4.008314
-4.080557
-4.274375
-4.284194
-4.132225
-3.984933
-3.738978
-3.437613
-3.251510
-3.068914
-2.827401
-2.613242
-2.382951
-2.102394
-1.792145
-1.461322
-1.139850
-0.800844
-0.429106
-0.066252
0.285146
0.627659
0.961990
1.286033
1.575474
1.842237
2.109468
2.355189
2.560230
2.740722
2.915368
3.081131
3.227489
3.343920
3.422009
3.469937
3.498929
3.514360
3.513191
3.503606
3.505009
3.505243
3.496593
3.487943
3.464329
3.407751
3.312128
3.181202
3.012868
2.788423
2.525635
2.239234
1.924543
1.615230
1.327660
1.058326
0.839258
0.688225
0.601954
0.582550
0.619022
0.687291
0.783850
0.915011
1.063005
1.213571
1.353148
1.460227
1.543927
1.612430
1.653111
1.674855
1.684908
1.678596
1.651710
1.594196
1.514939
1.427967
1.343800
1.274363
1.223162
1.194639
1.192535
1.210070
1.234385
1.246075
1.230645
1.184821
1.107201
0.997317
0.858441
0.706473
0.548661
0.381730
0.212461
0.040620
-0.121869
-0.253964
-0.364316
-0.465316
-0.554392
-0.639961
-0.736052
-0.832142
-0.918647
-1.014503
-1.112932
-1.187980
-1.233570
-1.234739
-1.200604
-1.141219
-1.031802
-0.878664
-0.696536
-0.488690
-0.283649
-0.107833
0.023561
0.108898
0.146773
0.116146
0.027771
-0.101285
-0.285517
-0.523054
-0.812963
-1.167867
-1.580986
-2.043670
-2.540022
-3.051570
-3.576678
-4.092201
-4.576161
-5.030428
-5.443314
-5.809908
-6.146342
-6.451914
-6.712598
-6.941017
-7.157280
-7.359046
-7.551929
-7.739668
-7.916652
-8.071893
-8.194636
-8.288622
-8.335147
-8.340992
-8.325561
-8.301947
-8.278333
-8.230404
-8.210064
-8.175695
-8.104153
-8.080539
-7.935117
-7.891396
-8.160263
-8.072121
-7.529945
-7.139035
-7.255700
-7.713007
-7.654323
-7.140670
-6.890741
-6.562489
-6.040186
-5.646471
-5.246677
-4.768561
-4.197862
-3.574090
-2.939097
-2.225079
-1.594060
-1.050247
-0.378548
0.331261
0.899623
1.354593
1.784079
2.172884
2.488043
2.781459
3.076979
3.362446
3.662875
3.991127
4.340187
4.709821
5.099093
5.504498
5.928607
6.354118
6.763498
7.157914
7.511883
7.814184
8.073465
8.293936
8.506458
8.686483
8.790289
8.864403
8.920515
8.910462
8.849441
8.766443
8.641830
8.490096
8.337660
8.160676
7.982055
7.814423
7.611955
7.405045
7.214734
7.007356
6.774728
6.507966
6.217123
5.929552
5.664894
5.407951
5.135578
4.871621
4.599949
4.313080
4.025042
3.668034
