EVENT_NAME: 202302060117
EVENT_ID: 13194
EVENT_DATE_YYYYMMDD: 2023/02/06
EVENT_TIME_HHMMSS: 01:17:32.00000
EVENT_LATITUDE_DEGREE: 37.288
EVENT_LONGITUDE_DEGREE: 37.043
EVENT_DEPTH_KM: 8.6
HYPOCENTER_REFERENCE: AFAD
MAGNITUDE_W: 7.7
MAGNITUDE_W_REFERENCE: AFAD
MAGNITUDE_L: 
MAGNITUDE_L_REFERENCE: 
FOCAL_MECHANISM: 
NETWORK: TK
STATION_CODE: 3145
STATION_NAME: 
STATION_LATITUDE_DEGREE: 36.64536
STATION_LONGITUDE_DEGREE: 36.4064
STATION_ELEVATION_M: 695.0
LOCATION: Kahramanmaras_Pazarck_Turkiye
SENSOR_DEPTH_M: 
VS30_M/S: 533
SITE_CLASSIFICATION_EC8: B
MORPHOLOGIC_CLASSIFICATION: 
EPICENTRAL_DISTANCE_KM: 91.13
EARTHQUAKE_BACKAZIMUTH_DEGREE: 
DATE_TIME_FIRST_SAMPLE_YYYYMMDD_HHMMSS: 2023/02/06 01:17:25.2714330
DATE_TIME_FIRST_SAMPLE_PRECISION: millisecond
SAMPLING_INTERVAL_S: 0.01
NDATA: 11251
DURATION_S: 
STREAM: HNE
UNITS: cm/s^2
INSTRUMENT: sensor = ACEBOX/SARA | digitizer = 
INSTRUMENT_ANALOG/DIGITAL: 
INSTRUMENTAL_FREQUENCY_HZ: 
INSTRUMENTAL_DAMPING: 
FULL_SCALE_G: 
N_BIT_DIGITAL_CONVERTER: 
PGA_CM/S^2: 696.392
TIME_PGA_S: 
BASELINE_CORRECTION: BASELINE REMOVED
FILTER_TYPE: BUTTERWORTH
FILTER_ORDER: 
LOW_CUT_FREQUENCY_HZ: 
HIGH_CUT_FREQUENCY_HZ: 
LATE/NORMAL_TRIGGERED: 
DATABASE_VERSION: 
HEADER_FORMAT: DYNA 1.2
DATA_TYPE: Acceleration
PROCESSING: Automatic Paolucci et al., 2011
DATA_TIMESTAMP_YYYYMMDD_HHMMSS: 
DATA_LICENSE: U (unknown license)
DATA_CITATION: Turkish Accelerometric Archive v 1.0 - Disaster And Emergency Management Presidency, Earthquake Department
DATA_CREATOR: AFAD
ORIGINAL_DATA_MEDIATOR_CITATION: : AFAD - Disaster And Emergency Management Presidency
ORIGINAL_DATA_MEDIATOR: AFAD PROCESS SERVICE
ORIGINAL_DATA_CREATOR_CITATION: AFAD PROCESS SERVICE
ORIGINAL_DATA_CREATOR: network: TK
USER1: GuestUser
USER2: 
USER3: 
USER4: 
USER5: 
[...]
0.499583
-3.134356
-4.147661
-3.106123
-3.467134
-4.749306
-4.622382
-4.688107
-6.628886
-9.250483
-11.269116
-12.307906
-12.689491
-12.951839
-12.583870
-10.092788
-5.024559
1.243751
7.111801
10.805302
10.875413
7.890495
2.753474
-3.414126
-7.998918
-10.048647
-11.362382
-13.332152
-15.684414
-17.284317
-16.791266
-14.063815
-11.633989
-12.095065
-14.578721
-16.317032
-15.403614
-11.838000
-8.291089
-7.629471
-8.561181
-7.869169
-5.527718
-2.552676
1.707550
6.543852
9.149729
8.144606
4.928229
1.381731
-2.024022
-5.621723
-8.981183
-11.274529
-12.949714
-13.713792
-12.065081
-9.953920
-10.499631
-12.068672
-11.522316
-8.485318
-3.495644
2.784356
8.452275
12.317150
14.543339
13.933334
10.396421
7.450314
5.893430
2.281468
-3.910681
-10.018429
-14.490063
-16.495604
-15.197122
-10.729050
-5.459288
-2.807354
-2.030941
0.818552
5.792795
10.365140
14.164317
16.619628
16.143355
13.415848
10.119746
6.324721
1.906392
-2.144641
-4.326699
-5.083528
-7.606930
-12.321246
-15.504892
-15.493230
-12.948375
-8.255858
-3.398046
-0.692338
0.678387
2.844257
5.658914
7.891650
10.329894
13.697481
15.623709
14.276775
12.089807
11.869542
12.353942
11.318426
9.197156
6.758388
4.037895
1.802298
0.908463
1.252585
1.273131
-0.382182
-2.770683
-4.784173
-6.962490
-10.184244
-13.754590
-15.538258
-15.118853
-13.522046
-11.131965
-9.327779
-8.594385
-6.591472
-3.045964
0.170123
3.465000
7.320756
10.645559
13.981818
18.166527
20.850492
19.829705
16.445695
11.370163
3.754656
-3.045365
-5.044594
-4.998797
-5.791398
-4.700996
-1.696261
-1.112965
-2.872551
-3.603897
-3.133525
-2.887364
-3.730699
-5.033679
-3.415597
0.485984
1.080970
-0.569199
0.285302
2.766097
5.940802
10.728007
16.471442
21.452465
22.264415
18.592601
15.225892
13.661527
12.120074
10.903598
9.916011
7.487297
3.339939
-0.822382
-2.866032
-2.792413
-4.021046
-8.732323
-13.353120
-14.152267
-12.951278
-12.252486
-11.720158
-11.392168
-11.748036
-11.754376
-10.681275
-9.721565
-9.633452
-8.900759
-6.957932
-5.786168
-5.021679
-1.420060
4.642275
8.896656
9.692708
9.887667
11.906712
14.017172
13.985113
13.270133
14.304191
16.655929
18.116433
17.964670
16.946455
14.833368
10.835173
5.183330
-0.994090
-5.523706
-6.496564
-4.791041
-2.136535
0.844352
2.958085
3.760449
3.992348
4.278488
6.830123
11.523342
13.457986
11.729728
10.618930
10.526084
8.667602
6.265774
5.494683
3.788636
-0.919601
-6.002148
-8.861750
-9.516878
-9.460795
-10.188400
-10.617680
-8.632535
-5.549011
-3.427329
-0.601449
4.151154
7.244731
6.048129
5.233083
8.874682
11.654971
9.458184
7.337147
7.121558
4.548591
0.897117
-0.822724
-4.145712
-11.093026
-16.784848
-17.461719
-16.092163
-16.716430
-18.993643
-21.481274
-22.568225
-20.217656
-16.026868
-12.490712
-9.499304
-8.135593
-9.777579
-12.173795
-13.398219
-15.114085
-17.417017
-17.602212
-15.345161
-12.664236
-10.444827
-8.572606
-7.305920
-5.961848
-3.712512
-1.637590
0.354101
2.778317
3.936287
4.143871
5.770137
9.094238
11.560304
10.162869
6.315474
3.390408
0.569148
-3.141008
-6.797626
-11.529476
-15.575834
-14.092652
-9.630893
-6.822314
-4.413529
-3.035556
-3.788177
-2.887151
0.841420
4.247818
5.598437
4.905200
3.158940
2.199642
1.432525
-1.375876
-4.584070
-5.646472
-5.393298
-4.189036
-1.836362
0.532444
2.863374
5.766407
7.692401
6.825453
6.222695
10.045486
15.465580
17.836256
17.689404
16.539093
14.638761
13.468344
13.486786
12.018277
8.245697
4.709953
2.390656
1.948751
4.174940
6.164293
5.982371
4.823410
2.226128
-1.544348
-3.930277
-4.339451
-4.668198
-6.088778
-7.445765
-8.008075
-8.024469
-6.011737
-1.972917
0.790305
0.823476
-0.819913
-2.429401
-1.337596
1.860723
4.184406
7.081827
10.010811
8.140873
3.953770
2.039410
0.116165
-2.645710
-3.605709
-2.442128
-1.383289
-2.477488
-4.122513
-3.091028
0.043932
1.520333
-0.364568
-2.258588
-1.598139
-1.108595
-1.403208
0.130241
2.135492
2.682783
2.772767
2.416666
1.832145
1.677811
0.967974
1.341320
5.738317
11.788495
14.853783
13.099808
7.964891
3.310427
1.401911
1.534213
1.915976
-0.312140
-5.600429
-10.303522
-11.966317
-11.119531
-8.287806
-3.997655
-1.193986
-1.117796
0.119665
2.967288
3.573964
3.080390
3.837397
3.294024
0.134226
-2.422375
-2.901453
-2.871555
-1.989233
-0.098308
0.849945
1.237787
1.964869
1.002999
-1.006049
-0.915598
-1.705627
-5.258905
-5.155595
-2.409908
-4.796772
-8.558131
-6.738281
-1.068725
5.953114
12.654183
16.354932
18.879447
22.861220
24.916971
22.348447
18.477204
16.627839
15.612663
11.490088
3.030574
-4.800026
-8.388842
-10.853795
-12.578077
-10.994830
-9.360148
-9.448084
-8.436705
-6.313853
-3.367568
-0.399306
-0.020583
-0.887999
-0.386765
0.712989
1.382089
2.136525
2.902417
3.799469
6.614593
9.559710
9.584698
10.337263
13.124566
12.816394
10.349571
8.616871
3.411815
-4.780937
-8.091768
-5.659603
-3.141635
-1.865130
2.190757
9.663357
12.840868
8.115096
2.675774
-1.797730
-11.173964
-20.366900
-19.940716
-15.651733
-13.664251
-7.081717
3.091476
6.409732
4.150989
2.598080
-0.707140
-6.882456
-9.327535
-5.519707
-1.334530
-0.141959
0.881344
2.678516
3.031288
3.117297
4.948369
4.269394
-0.895683
-4.227322
-6.430188
-11.708657
-12.584022
-8.591962
-8.475091
-8.445193
-6.233031
-7.406721
-9.380466
-9.585300
-10.124699
-10.750134
-10.818197
-9.803078
-7.952367
-6.243570
-5.685992
-6.752603
-6.020144
-4.730546
-9.380568
-15.743856
-16.752252
-13.769495
-7.435955
2.600233
13.717031
20.321542
18.529691
14.865359
14.454315
12.088493
7.232028
5.069375
4.974192
3.794890
4.318568
8.923177
12.031718
12.271566
13.773451
13.261174
10.111896
9.574135
7.142148
-1.220341
-6.825892
-4.017547
1.779194
3.178910
-1.580295
-6.902016
-6.904149
-3.094216
-0.521539
1.129743
5.422233
9.057051
5.250336
-3.886723
-10.402915
-14.244466
-19.016997
-19.314883
-13.606283
-11.722607
-13.628784
-10.564899
-3.811693
2.235913
8.060710
11.782735
10.860377
8.509517
8.250676
7.134266
2.139627
-1.875168
-1.244645
-0.817759
-1.599605
0.523714
3.151333
2.994427
1.433802
-0.632292
-2.053807
-1.899529
-0.054195
4.421591
7.874048
7.329038
8.788607
12.990851
13.486940
12.192143
12.855632
13.924759
14.128836
11.697550
7.856233
6.568450
6.058743
4.622499
5.697938
9.640901
11.650361
7.551867
-1.590570
-9.149263
-9.758801
-7.192670
-7.564202
-7.337914
-4.837948
-8.492695
-16.777796
-19.516526
-18.742685
-19.957757
-19.521753
-15.846488
-16.832205
-24.018226
-24.330607
-14.783992
-7.756541
-5.166330
-1.221029
3.200985
6.546596
10.497274
15.210599
15.100686
7.181945
-1.174933
-4.870127
-6.092681
-7.195530
-10.094411
-12.775859
-13.211919
-16.588447
-23.160750
-25.552758
-24.526884
-25.279505
-24.383856
-17.904660
-9.484947
-1.989201
3.872068
4.812373
0.295615
-5.526432
-10.013497
-13.305858
-14.942701
-13.935998
-12.392964
-12.482770
-11.036996
-5.657115
0.406623
3.369040
2.586259
1.661563
2.807141
2.603710
1.799653
2.976794
3.693822
5.679434
7.499752
2.946756
-0.855283
0.164980
-3.062152
-7.887989
-6.710146
-2.578041
1.065895
2.302421
2.004067
3.730866
2.460150
-5.990948
-14.289610
-19.535581
-26.334667
-32.227789
-31.441557
-26.015618
-21.642468
-19.785445
-17.256254
-11.610078
-6.281866
-5.857786
-8.211451
-7.504242
-2.194734
4.585826
10.046601
13.507006
15.039987
14.154802
11.269015
9.032248
9.128545
9.474069
5.839195
1.168833
3.808843
8.863278
6.673973
1.961060
2.117442
5.795980
7.407517
5.224524
2.121772
1.277268
9.056844
21.518444
23.974457
22.735771
28.725862
29.657984
19.626417
10.020361
7.771437
11.081277
13.659097
13.820623
16.025771
18.675367
19.992086
25.813376
36.080555
43.133021
43.440904
39.856764
37.521335
34.801777
27.539305
22.984439
25.792550
25.460062
18.246921
14.539102
12.583593
1.971975
-5.133152
6.823212
24.516260
27.130553
15.968342
10.471273
15.564518
13.839534
2.151279
-4.458899
-1.791066
-1.610369
-11.136700
-17.867284
-15.194074
-15.685076
-17.474121
-9.089945
-1.321591
-6.100436
-12.156982
-9.468107
-4.757588
-0.104583
12.786035
28.289338
29.136591
19.216779
12.664115
1.202410
-18.261241
-25.954835
-26.734811
-41.002785
-47.636109
-29.629071
-21.362028
-30.490203
-24.122295
-11.878360
-17.104692
-22.542610
-17.353274
-10.677221
-4.521367
-7.798532
-27.850884
-45.155650
-45.425480
-42.313199
-41.666544
-36.975897
-33.191215
-37.173278
-43.389040
-34.844947
-17.106075
-20.472784
-31.310718
-18.734557
-4.348806
-12.072560
-25.920166
-23.297924
-5.636907
10.886219
22.212266
27.506811
22.779402
12.551679
5.346487
6.337292
11.230173
14.619738
18.061439
23.184143
25.263040
18.193918
16.807005
27.982019
22.314277
-3.427063
-13.482244
1.977572
10.159513
-9.102370
-22.710334
-7.594668
10.392965
11.664560
-0.978055
-14.383083
-13.070106
2.393685
21.041093
36.624354
50.486400
55.527976
36.019904
-2.126719
-34.566352
-46.713317
-47.944287
-53.769374
-54.902384
-38.968894
-16.246400
-1.047034
5.821434
16.017539
32.512375
46.139455
51.066704
49.565464
57.103060
68.801779
59.371071
48.840814
63.383911
74.949132
58.029898
28.411029
12.106214
4.281693
-19.247224
-48.885030
-57.427309
-48.961070
-52.011217
-70.367370
-68.668393
-43.915136
-32.104895
-28.455582
-9.115198
13.593502
15.286634
0.357949
0.434373
17.349811
22.593154
21.469730
27.445560
28.463485
28.791241
34.382475
26.425391
8.072511
-1.290864
-8.154244
-16.998355
-22.685034
-29.513111
-30.483164
-21.873608
-21.421706
-28.010608
-19.241368
1.283198
4.432653
-12.566073
-20.504219
-11.590025
-7.932529
-15.195936
-11.675445
8.155445
22.656224
25.291793
28.910947
38.095410
44.945642
42.872768
40.036311
44.957482
52.973661
54.782990
46.470300
40.624171
44.791580
42.352579
25.705484
6.863500
-6.531007
-12.790956
-9.745074
-2.229922
3.488965
15.273254
38.688256
64.850843
84.716569
86.863501
70.204249
51.965229
32.492694
11.508894
8.149901
14.465204
15.209353
19.772814
25.331550
28.075834
31.856074
25.857276
9.535393
-4.235060
-16.636864
-29.953283
-32.911314
-32.609510
-43.112880
-39.268579
-10.903856
9.410527
5.036620
-17.729651
-31.687375
-13.544970
7.875742
0.799606
-15.440448
-17.068874
-20.079743
-41.844426
-56.496529
-39.889703
-25.444801
-33.250618
-34.670965
-36.888793
-41.105589
-25.386959
-26.797954
-56.465919
-74.746088
-70.756366
-50.316902
-26.280934
-2.789013
4.459609
-5.506261
9.918720
36.813560
64.030105
93.448787
78.802997
61.726651
65.469483
31.475099
23.747604
86.496891
118.906308
88.031013
61.468810
57.484175
55.377166
57.638893
48.565895
35.630331
44.044433
28.507174
-12.542276
-20.127155
-7.745046
-16.969078
-37.960593
-29.205849
-6.019968
-13.022224
-13.538944
13.030684
14.826453
-5.787012
11.654703
62.640715
74.694807
42.980647
31.839244
70.347262
118.458269
97.524034
29.674871
13.946833
32.927403
21.915290
-8.479084
-12.740535
27.542472
55.699350
38.426614
34.576179
50.992693
30.735535
-18.137473
-40.936008
-20.416585
1.856551
-12.676081
-33.399899
-29.780044
-18.197288
1.391856
31.915697
46.804814
36.827722
33.229788
39.016476
14.073319
-5.061846
26.073843
41.884121
34.252950
49.318117
53.237466
40.761081
33.469618
24.866785
39.981984
63.199428
45.465643
16.070753
6.706209
-6.015196
-15.320121
12.417558
50.094895
44.035076
11.880676
1.471994
8.651412
2.589722
-15.410123
-11.375044
11.989691
3.173636
-34.497210
-30.935103
30.313907
89.851054
104.283799
80.915968
51.318142
48.098492
71.777217
96.574896
102.575742
59.633235
0.160093
31.035332
99.492078
73.616070
34.141010
64.880179
74.681868
38.263240
30.949332
58.382140
74.343451
81.460212
95.092669
90.627814
67.906433
46.198329
18.128601
-5.746336
-6.640405
-2.346278
-19.381944
-46.361943
-58.291710
-73.847673
-95.383468
-78.306243
-33.848318
-13.989139
-34.476120
-81.938161
-111.360172
-91.025683
-62.009834
-76.612372
-120.410109
-143.971992
-142.273716
-141.055660
-148.327952
-165.684856
-188.565453
-210.794223
-218.369750
-198.678905
-187.461340
-199.425242
-202.060399
-180.701410
-138.801695
-140.804197
-221.634486
-292.387177
-323.092034
-352.912435
-377.392206
-396.504225
-419.227711
-446.578278
-430.333605
-333.679505
-260.356736
-265.625853
-257.244951
-212.200195
-189.390260
-207.777040
-243.309109
-258.987816
-242.889499
-220.448263
-209.033139
-210.361603
-224.339669
-207.211943
-140.820561
-107.866163
-138.890621
-161.489960
-142.813327
-117.556938
-123.127654
-166.196879
-221.551916
-243.029029
-213.108150
-173.825562
-160.045111
-147.893760
-110.187433
-90.282196
-106.631199
-89.831490
-57.468833
-91.701223
-161.437364
-179.286177
-126.449426
-83.462086
-120.590990
-204.870724
-272.039069
-286.458310
-277.009889
-292.811339
-311.598146
-313.595270
-309.450073
-277.990341
-234.425755
-232.393618
-256.070529
-260.616043
-259.904392
-289.570955
-309.461753
-238.926549
-150.817038
-166.005939
-207.044401
-191.017627
-165.883046
-150.370625
-128.250627
-91.603401
-46.082634
-12.396918
2.229645
-10.781201
-34.981584
-35.747298
-5.247771
58.158720
125.832480
178.296558
246.004452
342.758850
470.899596
578.402356
591.407535
551.601652
524.916238
547.779712
618.144244
669.050297
696.392392
694.893256
656.004326
648.937542
644.783638
632.090055
645.170984
577.535277
435.077900
308.182536
202.743448
190.469765
193.492268
15.778731
-258.332692
-461.843420
-581.906526
-633.623211
-622.773643
-568.257292
-529.790656
-548.854747
-553.057281
-508.298927
-478.361449
-445.470878
-371.583254
-323.143061
-332.011253
-330.752750
-288.714160
-258.639209
-264.953633
-275.771928
-282.207694
-288.631535
-281.911996
-240.016957
-149.556615
-43.993437
27.880023
90.230452
212.948738
351.588618
427.677442
513.770919
605.765673
580.380171
472.992150
373.728583
314.720463
312.318169
304.707572
236.123350
166.451737
168.157260
190.887704
165.588240
132.926968
116.401915
79.301534
-11.015546
-149.276964
-259.812131
-304.924978
-281.072541
-175.683308
-80.717225
-3.051672
201.642481
436.655230
494.293710
424.900549
331.322932
262.799965
262.953776
269.489784
219.637399
97.277936
-37.273587
-6.806792
160.700270
243.983036
210.664560
184.914335
231.611570
286.167666
276.675001
240.115160
211.827767
204.414495
238.114239
284.011419
325.095182
367.540346
383.555898
370.160690
352.075742
331.202528
306.062280
277.269417
245.924190
223.694017
219.787704
234.835569
259.518688
278.016232
290.101652
306.923103
326.449589
349.019180
377.141456
380.706369
344.594717
315.958966
314.528566
283.627787
207.281262
159.942666
178.753732
219.235466
256.409204
303.185462
348.033828
364.827458
352.374452
309.112812
226.635421
129.007033
42.956051
-46.226411
-148.283621
-236.547494
-303.740389
-357.782421
-375.011437
-359.872858
-353.128069
-341.697748
-286.835378
-220.604148
-193.526244
-173.356582
-136.763363
-119.295696
-100.705101
-46.903235
19.974912
73.379090
96.766971
93.993874
85.550491
80.281842
67.218625
37.661947
20.435035
37.639213
69.959786
85.722370
64.860378
25.242468
-0.695262
0.743265
15.154266
12.655881
-4.464186
-32.432679
-75.848859
-113.850295
-153.574582
-206.215467
-252.850101
-296.423393
-325.377575
-314.030487
-286.503459
-271.909861
-259.964252
-243.361635
-234.876926
-225.633078
-206.993853
-209.983446
-249.284327
-303.888174
-351.828565
-387.119589
-411.101839
-392.394111
-322.230411
-258.792590
-228.607053
-207.149636
-174.394433
-124.375874
-67.245904
-10.914352
38.868773
71.704636
89.108477
104.513818
142.159124
202.058657
254.048828
281.359828
270.179147
231.754071
201.681168
189.708616
184.331017
142.903516
81.274763
94.696101
167.609023
217.523776
242.448407
271.183232
309.788743
345.410067
372.113427
372.808245
317.038217
227.625231
161.883516
135.374852
125.980149
134.011291
145.990099
119.464603
75.905105
46.538270
24.665807
25.929453
45.261887
60.918093
70.077540
52.337677
12.352939
-16.201450
-38.052170
-52.935031
-36.709996
4.398783
36.796275
34.928675
18.978062
2.096001
-40.383119
-90.942507
-132.363929
-170.570171
-200.305003
-244.339343
-304.647843
-361.400988
-409.333196
-436.005284
-454.572088
-469.479497
-464.901073
-436.543831
-382.070967
-324.223706
-266.417361
-211.921818
-182.782290
-156.279060
-144.775093
-151.933526
-145.448486
-159.383298
-171.520210
-162.566504
-193.072399
-221.309993
-219.034472
-235.619845
-253.650318
-258.909381
-245.256584
-196.379190
-159.137652
-156.460935
-152.653107
-144.307274
-131.686691
-113.009825
-127.175629
-151.279220
-134.688994
-119.477938
-98.808418
-50.165522
-40.077899
-29.068414
30.843510
68.729160
99.580084
145.582005
172.036372
211.665448
256.263183
274.668611
314.804793
381.822985
432.771122
479.297919
527.098677
533.869885
505.706872
481.138726
455.909636
436.332594
438.402607
440.793389
424.781288
402.644400
386.297735
366.019301
345.112420
339.634054
340.651045
336.284619
330.112577
324.546537
320.015986
318.297548
318.814212
316.344817
295.902258
264.223636
247.469462
217.254878
169.376443
153.629001
131.665824
84.529695
71.285754
77.186535
77.981651
76.408869
64.461567
62.237659
64.702556
62.988560
72.142864
70.351014
54.098803
42.011690
28.360941
26.079753
45.546621
66.243963
74.149088
67.664927
55.393816
54.274834
59.938077
51.373354
33.819593
20.813190
5.577763
-4.989200
-7.318316
-21.853053
-44.496813
-63.521393
-85.659450
-102.349563
-103.484443
-101.917094
-113.817169
-137.336267
-160.006447
-176.661023
-178.361225
-166.694769
-171.003447
-195.401388
-211.586734
-211.293112
-201.118283
-184.971103
-174.769387
-172.383047
-163.666645
-154.733981
-155.371574
-157.002572
-153.544738
-140.322830
-128.040085
-118.489260
-104.004846
-103.995055
-91.862174
-58.073354
-43.401200
-10.282209
40.924975
70.323083
97.245745
92.680825
69.282133
84.659886
108.910480
120.846036
118.561107
94.011665
62.047109
33.825413
16.972343
0.237574
-18.786771
-32.178706
-53.188692
-75.284899
-91.797561
-89.497491
-56.858719
-42.863877
-63.879474
-82.273501
-91.251344
-92.769418
-89.489037
-94.009769
-106.990688
-115.730058
-104.135846
-77.386895
-54.206392
-35.981455
-18.431258
-6.073931
-3.253897
-0.452098
16.820816
41.252368
56.582427
58.056023
43.810494
23.470337
18.061877
30.664925
50.485527
73.992645
93.217766
103.381373
116.925454
130.899489
133.605898
127.792501
112.623005
94.009442
73.958025
45.234600
26.672706
32.879060
57.400858
83.254132
77.248086
39.810336
8.510933
3.937363
20.070982
34.894402
36.848686
28.828243
13.721638
8.145078
28.743524
62.357230
74.628987
50.056399
14.716979
-3.672841
-5.599826
0.330882
2.037106
-5.662334
-5.366374
12.305865
29.184130
25.536630
4.603798
-19.760710
-44.338676
-62.301582
-71.749357
-84.576204
-87.932860
-65.295935
-29.460454
4.525692
25.804722
32.036092
28.147548
