EVENT_NAME: 202302060117
EVENT_ID: 13194
EVENT_DATE_YYYYMMDD: 2023/02/06
EVENT_TIME_HHMMSS: 01:17:32.00000
EVENT_LATITUDE_DEGREE: 37.288
EVENT_LONGITUDE_DEGREE: 37.043
EVENT_DEPTH_KM: 8.6
HYPOCENTER_REFERENCE: AFAD
MAGNITUDE_W: 7.7
MAGNITUDE_W_REFERENCE: AFAD
MAGNITUDE_L: 
MAGNITUDE_L_REFERENCE: 
FOCAL_MECHANISM: 
NETWORK: TK
STATION_CODE: 1909
STATION_NAME: 
STATION_LATITUDE_DEGREE: 40.725295
STATION_LONGITUDE_DEGREE: 34.467468
STATION_ELEVATION_M: 1080.0
LOCATION: Kahramanmaras_Pazarck_Turkiye
SENSOR_DEPTH_M: 
VS30_M/S: None
SITE_CLASSIFICATION_EC8: unknown
MORPHOLOGIC_CLASSIFICATION: 
EPICENTRAL_DISTANCE_KM: 442.22
EARTHQUAKE_BACKAZIMUTH_DEGREE: 
DATE_TIME_FIRST_SAMPLE_YYYYMMDD_HHMMSS: 2023/02/06 01:18:08.1798270
DATE_TIME_FIRST_SAMPLE_PRECISION: millisecond
SAMPLING_INTERVAL_S: 0.01
NDATA: 21001
DURATION_S: 
STREAM: HNE
UNITS: cm/s^2
INSTRUMENT: sensor = ACEBOX/SARA | digitizer = 
INSTRUMENT_ANALOG/DIGITAL: 
INSTRUMENTAL_FREQUENCY_HZ: 
INSTRUMENTAL_DAMPING: 
FULL_SCALE_G: 
N_BIT_DIGITAL_CONVERTER: 
PGA_CM/S^2: 2.397
TIME_PGA_S: 
BASELINE_CORRECTION: BASELINE REMOVED
FILTER_TYPE: BUTTERWORTH
FILTER_ORDER: 
LOW_CUT_FREQUENCY_HZ: 
HIGH_CUT_FREQUENCY_HZ: 
LATE/NORMAL_TRIGGERED: 
DATABASE_VERSION: 
HEADER_FORMAT: DYNA 1.2
DATA_TYPE: Acceleration
PROCESSING: Automatic Paolucci et al., 2011
DATA_TIMESTAMP_YYYYMMDD_HHMMSS: 
DATA_LICENSE: U (unknown license)
DATA_CITATION: Turkish Accelerometric Archive v 1.0 - Disaster And Emergency Management Presidency, Earthquake Department
DATA_CREATOR: AFAD
ORIGINAL_DATA_MEDIATOR_CITATION: : AFAD - Disaster And Emergency Management Presidency
ORIGINAL_DATA_MEDIATOR: AFAD PROCESS SERVICE
ORIGINAL_DATA_CREATOR_CITATION: AFAD PROCESS SERVICE
ORIGINAL_DATA_CREATOR: network: TK
USER1: GuestUser
USER2: 
USER3: 
USER4: 
USER5: 
[...]
-1.908067
-1.959970
-1.993403
-1.995507
-1.986623
-1.962775
-1.925134
-1.879309
-1.816417
-1.748616
-1.673333
-1.591504
-1.512948
-1.417792
-1.326144
-1.248523
-1.158277
-1.069434
-0.983396
-0.898294
-0.828856
-0.762925
-0.708216
-0.670107
-0.634102
-0.609553
-0.596694
-0.588277
-0.578925
-0.563962
-0.550869
-0.531931
-0.508084
-0.491952
-0.469975
-0.439113
-0.406148
-0.369207
-0.334372
-0.300938
-0.259088
-0.209991
-0.170245
-0.130032
-0.074622
-0.026226
0.011182
0.054435
0.095817
0.129718
0.154968
0.176010
0.194246
0.200559
0.205001
0.211548
0.204300
0.192611
0.182090
0.168062
0.154970
0.140007
0.110783
0.079454
0.068699
0.065426
0.059348
0.060283
0.065661
0.078286
0.092080
0.098393
0.111486
0.129488
0.131593
0.118734
0.113824
0.110785
0.092549
0.085535
0.090445
0.098628
0.129022
0.158247
0.190511
0.243116
0.292681
0.362119
0.448156
0.528583
0.620933
0.700658
0.784358
0.895645
0.979579
1.053459
1.139730
1.212675
1.279541
1.332847
1.385452
1.439459
1.462839
1.485050
1.510300
1.508664
1.505157
1.497442
1.475933
1.462840
1.439928
1.401819
1.363477
1.313678
1.251021
1.182986
1.114016
1.046448
0.963451
0.872971
0.798624
0.734096
0.674945
0.621406
0.573712
0.541915
0.520172
0.502404
0.501469
0.518536
0.543319
0.577687
0.631461
0.694586
0.755841
0.824578
0.901497
0.974442
1.046920
1.115656
1.168728
1.215254
1.265521
1.299422
1.310878
1.318827
1.318126
1.298721
1.266223
1.222036
1.169431
1.107242
1.028920
0.941012
0.844921
0.745792
0.654845
0.569976
0.483238
0.396032
0.327529
0.283342
0.242895
0.211800
0.202214
0.204319
0.217879
0.236817
0.268380
0.320517
0.376862
0.434376
0.496800
0.570213
0.654848
0.727559
0.795828
0.875553
0.947329
1.002505
1.049498
1.084101
1.102103
1.108416
1.110754
1.108182
1.086206
1.047629
1.004143
0.952007
0.900104
0.846097
0.786946
0.730134
0.657657
0.580036
0.520886
0.458929
0.401182
0.354890
0.301351
0.255059
0.230510
0.214846
0.198948
0.190298
0.195441
0.205027
0.208768
0.217419
0.233084
0.243137
0.265815
0.309068
0.344138
0.369388
0.403990
0.450282
0.499146
0.544971
0.592899
0.636152
0.670286
0.702317
0.730606
0.759831
0.783211
0.789991
0.791394
0.789524
0.780406
0.758663
0.728036
0.706994
0.687356
0.660469
0.634985
0.605761
0.581212
0.570224
0.558067
0.545909
0.537493
0.520426
0.499618
0.490734
0.481148
0.463614
0.448885
0.433454
0.411010
0.387163
0.377344
0.384124
0.388332
0.385293
0.389268
0.400256
0.405166
0.398620
0.396984
0.395815
0.373604
0.346952
0.325209
0.291542
0.260447
0.236132
0.203635
0.178151
0.159448
0.137003
0.119001
0.102635
0.094686
0.090946
0.079724
0.075515
0.065229
0.045356
0.039044
0.032264
0.021977
0.012391
-0.010755
-0.032030
-0.049331
-0.073178
-0.095155
-0.120171
-0.146356
-0.171372
-0.206208
-0.232159
-0.246187
-0.268397
-0.289673
-0.303467
-0.316091
-0.327781
-0.345550
-0.360045
-0.365422
-0.377345
-0.386697
-0.396984
-0.421065
-0.430417
-0.425741
-0.431352
-0.430416
-0.421532
-0.414050
-0.396281
-0.372434
-0.350223
-0.321933
-0.289903
-0.261613
-0.238935
-0.218127
-0.190772
-0.167626
-0.165288
-0.169730
-0.175341
-0.192174
-0.208774
-0.232387
-0.269093
-0.297616
-0.320294
-0.350220
-0.375002
-0.388095
-0.396745
-0.397213
-0.382249
-0.356999
-0.327541
-0.289198
-0.241970
-0.187963
-0.121097
-0.043476
0.036950
0.114571
0.194296
0.283373
0.371515
0.457553
0.545460
0.609287
0.655579
0.705145
0.729927
0.727589
0.710990
0.671946
0.619576
0.546163
0.449138
0.348839
0.235915
0.117614
0.015211
-0.086725
-0.188426
-0.273528
-0.347876
-0.419184
-0.478802
-0.518080
-0.543797
-0.566475
-0.574191
-0.563436
-0.543563
-0.502648
-0.443030
-0.384814
-0.318182
-0.234014
-0.150782
-0.079474
-0.002788
0.087458
0.167183
0.227736
0.288290
0.355156
0.425997
0.494967
0.562301
0.634311
0.710763
0.778564
0.836546
0.900840
0.964667
1.017739
1.072448
1.118740
1.143990
1.160122
1.174150
1.183503
1.185373
1.177190
1.150070
1.115468
1.090920
1.048836
0.990855
0.939420
0.883542
0.823924
0.757526
0.692296
0.638757
0.566514
0.490998
0.438627
0.386257
0.329912
0.275203
0.232419
0.200155
0.164852
0.145914
0.135627
0.118794
0.112248
0.111313
0.120665
0.135160
0.137031
0.146149
0.162281
0.177712
0.202495
0.223537
0.244345
0.272635
0.296716
0.320096
0.346983
0.377610
0.411043
0.433956
0.460375
0.501757
0.524903
0.541269
0.576105
0.599485
0.612812
0.625671
0.618657
0.616787
0.622164
0.611644
0.609306
0.601591
0.574470
0.557871
0.537998
0.512047
0.492876
0.466223
0.449156
0.436999
0.411983
0.390474
0.368497
0.348858
0.336467
0.317296
0.299995
0.283629
0.262588
0.244118
0.230324
0.224012
0.212088
0.191982
0.180058
0.174915
0.170005
0.161822
0.153640
0.145691
0.127455
0.107582
0.097061
0.088177
0.079527
0.085372
0.106882
0.125118
0.139146
0.165331
0.199466
0.230561
0.259786
0.285972
0.312391
0.343252
0.371074
0.396091
0.428823
0.459216
0.475349
0.483999
0.490546
0.493819
0.489611
0.470206
0.442852
0.415498
0.384870
0.357516
0.331565
0.297664
0.264232
0.231968
0.202276
0.172584
0.137514
0.115771
0.109225
0.102913
0.104316
0.122552
0.154115
0.188951
0.220981
0.257687
0.304447
0.356350
0.401707
0.443089
0.490550
0.536375
0.586174
0.649065
0.712892
0.772277
0.829557
0.885201
0.935000
0.976850
1.016362
1.046055
1.062654
1.082527
1.105206
1.124611
1.148225
1.179086
1.207843
1.229821
1.258812
1.300194
1.337835
1.371269
1.413586
1.466892
1.518328
1.557372
1.593143
1.630551
1.659074
1.678947
1.688767
1.684792
1.676843
1.658374
1.631020
1.610446
1.585196
1.557374
1.537501
1.509913
1.482793
1.459881
1.419201
1.376182
1.346256
1.311187
1.266999
1.225617
1.197796
1.174650
1.147997
1.134905
1.133736
1.134204
1.140049
1.143088
1.149635
1.165533
1.176989
1.187978
1.200136
1.211124
1.227256
1.240583
1.254611
1.270509
1.266769
1.258586
1.268406
1.274718
1.269809
1.269575
1.274018
1.273083
1.259055
1.242689
1.241754
1.241521
1.227025
1.217206
1.212998
1.195697
1.164836
1.138183
1.121116
1.101945
1.079267
1.066876
1.061031
1.049809
1.044665
1.051212
1.060564
1.072488
1.082307
1.092361
1.111532
1.127431
1.138887
1.154084
1.166242
1.179101
1.189388
1.191025
1.200611
1.205988
1.198741
1.201546
1.199442
1.184479
1.174894
1.160632
1.142396
1.128369
1.111536
1.097975
1.090728
1.081142
1.072024
1.074596
1.086520
1.092132
1.089794
1.084884
1.086053
1.092132
1.085118
1.075767
1.071091
1.058700
1.044672
1.029242
1.011473
0.997212
0.979677
0.958636
0.938763
0.920059
0.898550
0.874236
0.850856
0.826541
0.803395
0.786328
0.764819
0.746817
0.744947
0.746817
0.754767
0.768795
0.777679
0.796383
0.830050
0.858807
0.883824
0.918660
0.951158
0.970797
0.996047
1.026675
1.043742
1.054497
1.061277
1.055900
1.046315
1.031819
1.003296
0.965655
0.926845
0.887099
0.841743
0.793815
0.746354
0.702634
0.660551
0.614960
0.579190
0.551368
0.521208
0.492218
0.463461
0.448498
0.436808
0.410389
0.396362
0.391686
0.375320
0.354045
0.333237
0.326457
0.321314
0.307754
0.304481
0.292089
0.265437
0.247435
0.234576
0.224990
0.215639
0.197636
0.179167
0.160229
0.135447
0.119315
0.109028
0.087285
0.059931
0.032343
-0.001557
-0.041537
-0.085023
-0.129444
-0.176905
-0.234886
-0.294972
-0.338692
-0.372592
-0.416078
-0.455590
-0.469384
-0.464006
-0.461434
-0.467513
-0.460031
-0.427066
-0.390593
-0.376331
-0.374695
-0.350146
-0.301282
-0.270420
-0.268784
-0.272291
-0.275797
-0.272524
-0.262237
-0.264341
-0.278836
-0.298241
-0.322088
-0.347806
-0.372588
-0.394565
-0.428699
-0.474757
-0.509593
-0.547468
-0.599370
-0.644493
-0.689148
-0.744558
-0.802306
-0.864028
-0.923880
-0.976017
-1.030959
-1.079588
-1.108345
-1.138973
-1.174276
-1.193915
-1.209813
-1.224074
-1.220567
-1.209812
-1.196252
-1.174976
-1.151129
-1.120969
-1.090107
-1.068364
-1.044750
-1.027449
-1.029787
-1.041944
-1.066025
-1.104835
-1.149023
-1.203497
-1.271065
-1.336294
-1.400822
-1.471896
-1.538762
-1.598380
-1.647477
-1.680910
-1.716915
-1.754088
-1.766479
-1.759933
-1.743333
-1.710134
-1.663374
-1.610302
-1.547176
-1.470958
-1.394506
-1.313612
-1.220795
-1.135692
-1.049655
-0.962448
-0.890439
-0.818429
-0.752732
-0.710882
-0.679085
-0.648691
-0.630455
-0.631390
-0.637001
-0.654068
-0.687735
-0.715790
-0.756003
-0.812348
-0.857003
-0.906802
-0.960575
-0.999853
-1.036091
-1.069056
-1.089163
-1.108802
-1.123764
-1.117686
-1.107165
-1.092435
-1.057833
-1.025803
-0.990031
-0.936959
-0.890433
-0.843206
-0.792238
-0.756467
-0.722099
-0.691939
-0.683756
-0.680716
-0.674403
-0.680482
-0.697315
-0.720461
-0.749919
-0.784287
-0.824734
-0.867285
-0.907732
-0.952621
-1.003588
-1.054556
-1.097341
-1.135216
-1.170986
-1.199510
-1.218447
-1.220551
-1.203484
-1.181974
-1.153918
-1.109029
-1.057360
-0.992598
-0.914743
-0.843668
-0.770957
-0.694038
-0.628574
-0.563345
-0.506532
-0.473333
-0.446446
-0.431249
-0.439899
-0.462110
-0.491334
-0.531079
-0.585788
-0.648679
-0.712038
-0.778670
-0.845536
-0.913337
-0.974124
-1.020416
-1.065305
-1.097802
-1.109492
-1.111362
-1.099906
-1.069278
-1.024155
-0.968745
-0.895800
-0.807892
-0.718582
-0.620854
-0.520789
-0.425399
-0.316683
-0.203993
-0.102992
-0.006668
0.087786
0.169148
0.234378
0.285813
0.324156
0.360863
0.394530
0.412532
0.429366
0.451343
0.468176
0.482672
0.497168
0.510728
0.518210
0.521717
0.527562
0.532004
0.538317
0.547903
0.555384
0.559125
0.564269
0.574089
0.580401
0.573154
0.556321
0.536916
0.515173
0.480103
0.430305
0.379805
0.335383
0.287455
0.238358
0.202821
0.176168
0.146008
0.119356
0.099717
0.086390
0.083117
0.082182
0.083819
0.096444
0.111641
0.130112
0.156998
0.176170
0.188328
0.199082
0.195342
0.187861
0.175703
0.141335
0.098550
0.057402
0.013215
-0.031908
-0.084512
-0.136883
-0.177797
-0.219880
-0.265003
-0.302878
-0.338181
-0.371380
-0.393825
-0.404345
-0.410658
-0.409956
-0.401539
-0.388446
-0.361560
-0.322749
-0.283705
-0.239984
-0.185042
-0.136412
-0.101108
-0.059960
-0.016473
0.015323
0.043145
0.071902
0.095282
0.104401
0.097854
0.084294
0.062318
0.020000
-0.042891
-0.117706
-0.200937
-0.295859
-0.400132
-0.497392
-0.585066
-0.681624
-0.783325
-0.877312
-0.965921
-1.052659
-1.142905
-1.235255
-1.322695
-1.414109
-1.500614
-1.570285
-1.636918
-1.702381
-1.757790
-1.804550
-1.845464
-1.884040
-1.916304
-1.942957
-1.960492
-1.965401
-1.972415
-1.972649
-1.955347
-1.932435
-1.905314
-1.870946
-1.827460
-1.789584
-1.762230
-1.724588
-1.689285
-1.660761
-1.623120
-1.592025
-1.568177
-1.543394
-1.523755
-1.509961
-1.500609
-1.500843
-1.520014
-1.545030
-1.564669
-1.594361
-1.634574
-1.675254
-1.715000
-1.755446
-1.798933
-1.834937
-1.863227
-1.897127
-1.938509
-1.972176
-1.991113
-2.014960
-2.044652
-2.062888
-2.068967
-2.068967
-2.067096
-2.061251
-2.047924
-2.029688
-2.010283
-1.994384
-1.973576
-1.945754
-1.924712
-1.905307
-1.873744
-1.828153
-1.774847
-1.710553
-1.637842
-1.559987
-1.467637
-1.373417
-1.281768
-1.183105
-1.091690
-1.003783
-0.915875
-0.840124
-0.769517
-0.705924
-0.651449
-0.607963
-0.584115
-0.566346
-0.551149
-0.548811
-0.560969
-0.583647
-0.610533
-0.647239
-0.706156
-0.774425
-0.841291
-0.913300
-0.985309
-1.057085
-1.134939
-1.202039
-1.256981
-1.310754
-1.347460
-1.360553
-1.364060
-1.353071
-1.319404
-1.272644
-1.218871
-1.155979
-1.085606
-1.010089
-0.935975
-0.862563
-0.782370
-0.708724
-0.647235
-0.587383
-0.533609
-0.485447
-0.444065
-0.418347
-0.394499
-0.370886
-0.358728
-0.352415
-0.351246
-0.362702
-0.377665
-0.386549
-0.391225
-0.393095
-0.394264
-0.396134
-0.393796
-0.385613
-0.370182
-0.349841
-0.330202
-0.309862
-0.291392
-0.276195
-0.261465
-0.250944
-0.250243
-0.263569
-0.282506
-0.298404
-0.321550
-0.358724
-0.407587
-0.456684
-0.508587
-0.571712
-0.631798
-0.686740
-0.749164
-0.817433
-0.876116
-0.920771
-0.972673
-1.030187
-1.079285
-1.126512
-1.167426
-1.204599
-1.235694
-1.255567
-1.277544
-1.289233
-1.286428
-1.279647
-1.257203
-1.230550
-1.199221
-1.154565
-1.112482
-1.066657
-1.017092
-0.971969
-0.930119
-0.898322
-0.864655
-0.828183
-0.806206
-0.793581
-0.784462
-0.773006
-0.762719
-0.759212
-0.755705
-0.759211
-0.768797
-0.771836
-0.776278
-0.775109
-0.767627
-0.771134
-0.766692
-0.747520
-0.734427
-0.713619
-0.686265
-0.667561
-0.637635
-0.596018
-0.559780
-0.524476
-0.488471
-0.453869
-0.421605
-0.390743
-0.367130
-0.352868
-0.343048
-0.337905
-0.332059
-0.330890
-0.346321
-0.361985
-0.372740
-0.391911
-0.417628
-0.448957
-0.493378
-0.551360
-0.621733
-0.699587
-0.782351
-0.881481
-0.995808
-1.113174
-1.239190
-1.368012
-1.487249
-1.610460
-1.737178
-1.850335
-1.961155
-2.068000
-2.154505
-2.225813
-2.286834
-2.326579
-2.346686
-2.355570
-2.348790
-2.320266
-2.277715
-2.227215
-2.165959
-2.087871
-2.000431
-1.918601
-1.830226
-1.737642
-1.660956
-1.573750
-1.480698
-1.412196
-1.342290
-1.276827
-1.219780
-1.144263
-1.101712
-1.103816
-1.076462
-1.037417
-1.029468
-1.029234
-1.040222
-1.070850
-1.101477
-1.149405
-1.215803
-1.270512
-1.337144
-1.430896
-1.523012
-1.616063
-1.718934
-1.826247
-1.934261
-2.037365
-2.132755
-2.210141
-2.277942
-2.344808
-2.382449
-2.395074
-2.397412
-2.366784
-2.318388
-2.261108
-2.172498
-2.061678
-1.935428
-1.794915
-1.643648
-1.473678
-1.293887
-1.111058
-0.923552
-0.732306
-0.532643
-0.343734
-0.167451
0.009066
0.173660
0.321653
0.450008
0.561530
0.666037
0.746697
0.791821
0.819643
0.834840
0.822682
0.787847
0.742023
0.679131
0.603147
0.514772
0.415408
0.315110
0.210135
0.103056
-0.009167
-0.127468
-0.234547
-0.344665
-0.462967
-0.570981
-0.674319
-0.770643
-0.857382
-0.938977
-1.007246
-1.066630
-1.115260
-1.147991
-1.171838
-1.182125
-1.177449
-1.165291
-1.140742
-1.106140
-1.061952
-0.996489
-0.923310
-0.860419
-0.788409
-0.700501
-0.612359
-0.522347
-0.426022
-0.328529
-0.230568
-0.127930
-0.022254
0.077578
0.168525
0.244275
0.307167
0.369357
0.409804
0.423599
0.440432
0.448615
0.431081
0.402324
0.374034
0.345278
0.303428
0.253396
0.209909
0.168060
0.126912
0.080386
0.028951
-0.005183
-0.033239
-0.065503
-0.086310
-0.110625
-0.126056
-0.134472
-0.150136
-0.147564
-0.151305
-0.154344
-0.162293
-0.176555
-0.148499
-0.173749
-0.175853
-0.127690
-0.225885
-0.212091
-0.088178
-0.172812
-0.213025
-0.203440
-0.266798
-0.232430
-0.244821
-0.304439
-0.281059
-0.292282
-0.317999
-0.305374
-0.281760
-0.276616
-0.291112
-0.262354
-0.231727
-0.234766
-0.220972
-0.204138
-0.203904
-0.207177
-0.203904
-0.202033
-0.215126
-0.232660
-0.257443
-0.295785
-0.335531
-0.373406
-0.416892
-0.472302
-0.522802
-0.552728
-0.578211
-0.604630
-0.620528
-0.632218
-0.641804
-0.641803
-0.632685
-0.617254
-0.603460
-0.591770
-0.569793
-0.543841
-0.520695
-0.489600
-0.461544
-0.442373
-0.416421
-0.384624
-0.351893
-0.326876
-0.316121
-0.300223
-0.274505
-0.249722
-0.230083
-0.222601
-0.215587
-0.202962
-0.196649
-0.197584
-0.206001
-0.216756
-0.225172
-0.242239
-0.267489
-0.285959
-0.301389
-0.326873
-0.348850
-0.359137
-0.371995
-0.387426
-0.400518
-0.410338
-0.410571
-0.402154
-0.396543
-0.394439
-0.382515
-0.364279
-0.341834
-0.313310
-0.287593
-0.259771
-0.236858
-0.225636
-0.204828
-0.189631
-0.183786
-0.170459
-0.166017
-0.165783
-0.166718
-0.177005
-0.175368
-0.177238
-0.187291
-0.191733
-0.201319
-0.198981
-0.187057
-0.186355
-0.171392
-0.143804
-0.115046
-0.074366
-0.027606
0.026635
0.089994
0.159900
0.252718
0.357693
0.460564
0.580736
0.710260
0.843057
0.984037
1.115898
1.242383
1.360918
1.451866
1.533695
1.605938
1.649191
1.663219
1.650126
1.623474
1.582092
1.506809
1.414693
1.318603
1.207783
1.082000
0.955750
0.837215
0.722888
0.621654
0.535149
0.457061
0.404457
0.372661
0.347878
0.348112
0.371258
0.403289
0.450282
0.512473
0.581209
0.655089
0.737854
0.822956
0.905253
0.989420
1.068444
1.134141
1.186745
1.225556
1.256885
1.278628
1.282369
1.271381
1.246131
1.215270
1.188617
1.147001
1.091592
1.042260
0.981473
0.908295
0.839559
0.771290
0.698346
0.622829
0.551755
0.482785
0.417088
0.357704
0.298553
0.250625
0.210178
0.171368
0.146820
0.120167
0.101229
0.100528
0.097957
0.112218
0.136066
0.149159
0.176046
0.211349
0.242678
0.277046
0.306973
0.341107
0.376878
0.405402
0.438367
0.469930
0.503831
0.544278
0.577945
0.618158
0.660242
0.684323
0.708171
0.734122
0.749319
0.760542
0.767088
0.764283
0.757737
0.754698
0.748853
0.735293
0.721967
0.706068
0.692508
0.689703
0.685495
0.679182
0.680819
0.689236
0.705134
0.721968
0.741607
0.774573
0.810110
0.838867
0.868092
0.892875
0.909241
0.921398
0.932153
0.939167
0.941038
0.942908
0.944545
0.939869
0.946650
0.967458
0.981018
0.990137
1.004866
1.018193
1.027545
1.042975
1.063784
1.072200
1.073370
1.085060
1.102361
1.121532
1.143042
1.170864
1.208973
1.247082
1.280281
1.317923
1.364449
1.415884
1.463345
1.506598
1.551721
1.595909
1.639863
1.686389
1.727771
1.756061
1.782714
1.810536
1.824798
1.826201
1.819187
1.812407
1.809134
1.792535
1.770558
1.752088
1.729644
1.709303
1.683586
1.659972
1.645243
1.617188
1.581183
1.554297
1.535359
1.513616
1.476910
1.444179
1.424073
1.392276
1.353232
1.322137
1.295719
1.262987
1.224878
1.195420
1.171807
1.142816
1.111721
1.086939
1.065897
1.042985
1.014696
0.977990
0.938478
0.895694
0.849402
0.809657
0.761728
0.699538
0.639219
0.573990
0.506422
0.438154
0.354688
0.267482
0.185186
0.100785
0.008669
-0.079940
-0.155223
-0.230973
-0.299943
-0.349040
-0.392059
-0.425725
-0.448403
-0.463366
-0.461729
-0.449338
-0.432037
-0.406085
-0.374055
-0.336413
-0.291290
-0.235179
-0.167144
-0.103317
-0.054453
-0.000679
0.068992
0.128377
0.175370
0.220727
0.256265
0.288061
0.310272
0.317286
0.330613
0.336692
0.317521
0.292271
0.264449
0.234289
0.197349
0.146849
0.099155
0.056838
0.012183
-0.029901
-0.067308
-0.101910
-0.138616
-0.170880
-0.192389
-0.217639
-0.248266
-0.276322
-0.303910
-0.336641
-0.370308
-0.390648
-0.405143
-0.427587
-0.443719
-0.447460
-0.448161
-0.451200
-0.452603
-0.446524
-0.436237
-0.424079
-0.408882
-0.386204
-0.350199
-0.311388
-0.273279
-0.219505
-0.152406
-0.086708
-0.019375
0.059649
0.137738
0.209514
0.282692
0.348389
0.410112
0.479082
0.531453
0.569329
0.616322
0.656301
0.681084
0.701658
0.719895
0.728779
0.724103
0.716856
0.710310
0.697217
0.680384
0.657238
0.631053
0.604400
0.567928
0.530287
0.495919
0.452667
0.411986
0.380891
0.354239
0.334834
0.319169
0.310753
0.308415
0.309117
0.324547
0.350733
0.384867
0.428120
0.476282
0.536369
0.608144
0.690675
0.778349
0.860646
0.956737
1.056335
1.142372
1.237294
1.331047
1.414045
1.495407
1.564611
1.636387
1.710033
1.761235
1.798409
1.831608
1.855456
1.860366
1.847039
1.822958
1.779005
1.722192
1.662106
1.592435
1.517152
1.432284
1.342272
1.262080
1.184460
1.101462
1.019867
0.950897
0.889174
