EVENT_NAME: 202302060117
EVENT_ID: 13194
EVENT_DATE_YYYYMMDD: 2023/02/06
EVENT_TIME_HHMMSS: 01:17:32.00000
EVENT_LATITUDE_DEGREE: 37.288
EVENT_LONGITUDE_DEGREE: 37.043
EVENT_DEPTH_KM: 8.6
HYPOCENTER_REFERENCE: AFAD
MAGNITUDE_W: 7.7
MAGNITUDE_W_REFERENCE: AFAD
MAGNITUDE_L: 
MAGNITUDE_L_REFERENCE: 
FOCAL_MECHANISM: 
NETWORK: TK
STATION_CODE: 6306
STATION_NAME: 
STATION_LATITUDE_DEGREE: 36.727695
STATION_LONGITUDE_DEGREE: 38.947
STATION_ELEVATION_M: 362.0
LOCATION: Kahramanmaras_Pazarck_Turkiye
SENSOR_DEPTH_M: 
VS30_M/S: None
SITE_CLASSIFICATION_EC8: unknown
MORPHOLOGIC_CLASSIFICATION: 
EPICENTRAL_DISTANCE_KM: 180.18
EARTHQUAKE_BACKAZIMUTH_DEGREE: 
DATE_TIME_FIRST_SAMPLE_YYYYMMDD_HHMMSS: 2023/02/06 01:17:43.0781870
DATE_TIME_FIRST_SAMPLE_PRECISION: millisecond
SAMPLING_INTERVAL_S: 0.005
NDATA: 27001
DURATION_S: 
STREAM: HNE
UNITS: cm/s^2
INSTRUMENT: sensor = GEO-A200,/GEObit | digitizer = 
INSTRUMENT_ANALOG/DIGITAL: 
INSTRUMENTAL_FREQUENCY_HZ: 
INSTRUMENTAL_DAMPING: 
FULL_SCALE_G: 
N_BIT_DIGITAL_CONVERTER: 
PGA_CM/S^2: 55.989
TIME_PGA_S: 
BASELINE_CORRECTION: BASELINE REMOVED
FILTER_TYPE: BUTTERWORTH
FILTER_ORDER: 
LOW_CUT_FREQUENCY_HZ: 
HIGH_CUT_FREQUENCY_HZ: 
LATE/NORMAL_TRIGGERED: 
DATABASE_VERSION: 
HEADER_FORMAT: DYNA 1.2
DATA_TYPE: Acceleration
PROCESSING: Automatic Paolucci et al., 2011
DATA_TIMESTAMP_YYYYMMDD_HHMMSS: 
DATA_LICENSE: U (unknown license)
DATA_CITATION: Turkish Accelerometric Archive v 1.0 - Disaster And Emergency Management Presidency, Earthquake Department
DATA_CREATOR: AFAD
ORIGINAL_DATA_MEDIATOR_CITATION: : AFAD - Disaster And Emergency Management Presidency
ORIGINAL_DATA_MEDIATOR: AFAD PROCESS SERVICE
ORIGINAL_DATA_CREATOR_CITATION: AFAD PROCESS SERVICE
ORIGINAL_DATA_CREATOR: network: TK
USER1: GuestUser
USER2: 
USER3: 
USER4: 
USER5: 
[...]
38.595337
36.588650
33.528713
31.212690
31.122996
33.070827
35.673585
37.483463
37.049120
34.014843
28.655126
22.159764
15.902171
10.377663
5.800235
1.846893
-2.176837
-6.507079
-11.104518
-15.644987
-18.952111
-20.169448
-19.668248
-18.356746
-16.837843
-15.591316
-14.833983
-13.929280
-12.395075
-10.298696
-7.697821
-5.057160
-3.042471
-1.737090
-1.084753
-1.236597
-2.306798
-4.312778
-6.488964
-7.615666
-7.557283
-6.665763
-5.589442
-5.040688
-4.487226
-3.386421
-1.816903
-0.074355
1.134270
1.205836
0.487817
-0.336846
-1.384448
-2.645101
-3.947893
-5.316367
-6.537941
-7.252429
-6.960985
-5.356155
-2.692423
0.205311
2.823843
5.190714
7.645161
10.764186
14.096735
16.407813
17.490726
17.819601
18.024177
18.685460
19.620061
20.262746
19.612997
16.952090
12.444815
6.969039
1.674297
-2.851576
-6.496757
-9.756798
-12.935621
-15.867257
-18.265911
-19.511968
-19.221465
-17.595212
-15.297788
-12.955871
-11.173066
-10.236346
-10.040952
-10.714713
-11.742540
-11.985489
-10.454109
-6.799983
-1.828940
2.920342
6.242767
8.233915
9.650648
11.330105
13.596454
16.087154
18.537363
20.221528
20.761337
20.310279
19.114836
18.029803
17.068835
15.641036
13.431892
10.641977
7.847824
4.994346
1.906394
-1.724192
-5.835261
-9.736340
-12.612418
-13.710399
-13.784791
-14.400639
-16.463119
-20.188107
-25.003306
-29.568258
-32.339104
-32.458932
-30.025202
-26.150020
-22.280017
-19.106375
-16.778112
-15.119371
-13.713468
-12.510493
-11.227241
-9.966118
-9.407947
-8.837535
-7.244711
-4.495053
-0.997713
2.417466
5.452448
7.958450
9.589412
10.246693
9.992207
9.037359
7.582959
6.015323
4.925111
4.901805
6.322775
8.998277
12.309638
15.475276
17.562238
17.703722
15.810742
12.531867
8.373479
3.490480
-1.844047
-7.200232
-12.018726
-15.772670
-18.255368
-19.343932
-19.803935
-20.602467
-22.038505
-24.468940
-27.401282
-29.791696
-30.422141
-28.584014
-24.954371
-20.663680
-16.838170
-13.881111
-11.822870
-10.551388
-9.379724
-7.964639
-6.391354
-4.640095
-2.783135
-0.911343
0.453834
0.520456
-0.900516
-3.676777
-7.150576
-10.154013
-11.800984
-11.772735
-9.989930
-6.947885
-3.954336
-1.733422
-0.787286
-0.712189
0.357776
2.757370
6.082150
9.293223
10.644746
9.631044
6.744137
3.965993
2.556086
2.859772
4.701901
6.887032
9.076635
10.829307
12.245098
13.727512
14.886229
15.286200
14.111473
11.585695
8.846394
6.609000
5.310209
4.868333
5.077853
6.023518
8.269621
11.608290
15.242877
18.865457
21.732117
23.360253
23.331297
21.514120
18.877461
16.605460
14.857732
12.774535
9.894455
5.988904
1.300594
-3.319445
-6.734861
-8.145945
-7.906292
-7.283617
-7.648748
-9.365167
-11.927435
-13.830067
-14.432968
-14.390358
-13.941185
-13.718718
-13.819947
-14.337392
-15.237153
-15.933984
-16.843868
-18.407501
-21.462024
-26.164224
-31.509579
-37.008191
-41.524412
-44.005932
-44.438156
-42.782947
-39.255239
-34.654976
-29.986913
-26.425306
-24.732665
-24.504312
-24.691469
-24.386135
-23.283682
-21.822691
-20.319796
-18.521925
-16.359394
-13.813136
-10.645143
-6.891201
-2.753766
1.388378
4.591447
6.051261
5.698372
3.928279
1.779637
0.306167
-0.505312
-0.985797
-1.055951
-0.695530
0.365018
2.008457
3.472037
4.354847
4.346842
3.380930
1.673457
-0.045551
-0.881985
-0.724021
0.165380
1.123758
1.656504
1.935000
2.312136
2.765076
3.001197
3.004728
2.830284
2.781082
3.141032
3.720861
4.170740
4.052090
3.274982
2.513646
2.595334
3.968515
6.218385
8.107598
8.394099
6.584926
3.112540
-1.256310
-5.327830
-8.162004
-9.344970
-8.678508
-6.784587
-4.603223
-3.294781
-3.866607
-6.687598
-11.625213
-17.805589
-24.045291
-29.006683
-31.601438
-31.929609
-30.717217
-28.517962
-25.948397
-23.383069
-21.152268
-19.789916
-19.344510
-19.362638
-19.267059
-18.809411
-17.594194
-15.582330
-13.541980
-12.120068
-11.925851
-12.644576
-13.338348
-13.292442
-12.052036
-10.024163
-7.581252
-4.996856
-2.788184
-1.143098
-0.315611
-0.440853
-1.294472
-2.746989
-4.573818
-6.309540
-7.297582
-7.189762
-6.177238
-4.594537
-2.824445
-0.878262
1.450237
4.020037
6.524863
8.673975
10.125549
10.619687
10.249848
9.420006
8.563797
7.864140
7.550095
8.077426
9.457669
11.428336
13.422779
14.637290
14.678958
13.423249
11.536624
9.997239
9.195882
8.997190
8.746943
8.059057
7.434733
7.604467
8.786019
10.611670
12.358691
13.423948
13.400170
12.678384
12.256754
12.874249
14.712612
16.967426
18.769064
19.559590
19.278974
18.198178
16.297664
13.655826
10.138710
5.985030
2.264986
0.132588
0.245587
2.442724
5.751495
8.926785
11.292479
12.806439
13.606147
13.508684
12.521349
11.062475
9.474594
8.177451
7.518992
7.592912
8.251605
9.252829
10.237103
10.729122
10.436263
9.341814
7.480379
4.945184
2.139025
-0.689499
-3.321214
-5.432896
-6.948976
-7.661110
-7.419574
-6.385863
-4.996673
-3.775571
-2.958443
-2.564828
-2.295277
-1.728867
-0.768841
0.312895
1.361437
2.377256
3.214159
3.578112
2.790409
0.083831
-4.721009
-10.603820
-16.126915
-20.238691
-22.067874
-21.355741
-18.332059
-13.806187
-9.112699
-5.345338
-3.248017
-2.887125
-3.401981
-3.801011
-3.436823
-1.796210
0.926375
4.092013
7.255533
9.854054
11.577298
12.501305
12.902924
13.347389
14.195828
15.291218
16.777869
18.815865
20.792181
21.834603
21.246062
19.059283
15.981924
12.980841
10.807009
9.722447
9.906306
11.031830
12.537550
14.047272
14.925844
14.925608
13.963462
11.897921
8.898015
5.062382
0.919766
-3.121620
-7.183724
-11.563639
-16.484775
-21.711246
-26.647684
-30.331709
-32.122754
-31.464061
-28.034992
-22.473055
-16.028308
-10.106184
-5.638696
-2.981321
-1.618263
-0.607622
0.855252
2.936800
4.981858
6.346093
6.471804
5.851482
5.698226
6.694977
8.877282
11.716869
14.815649
18.028371
21.467797
25.194903
28.689417
31.290057
32.821908
33.080394
31.963580
30.015041
28.129830
27.364727
27.658055
28.247536
28.455878
27.562710
25.553198
22.202051
17.352952
11.339486
4.580457
-2.038970
-8.028424
-13.077862
-16.722337
-18.735851
-18.825309
-17.265914
-14.691406
-11.524120
-8.519742
-6.199953
-4.783927
-4.098396
-3.370961
-2.018497
0.389808
3.803339
7.668869
11.505207
14.909557
17.651917
19.816096
21.316401
21.859741
21.261784
19.616461
17.783511
16.528508
16.066621
16.159846
16.375722
16.475773
16.281319
16.128062
16.342996
16.958844
17.788214
18.458913
18.464327
17.733596
17.202026
17.187429
17.581280
18.360506
19.042506
19.604208
19.968866
19.775118
18.983649
17.230977
13.899605
8.869942
2.997489
-1.754618
-3.466093
-2.112216
0.499724
2.247922
2.230736
0.642619
-2.249231
-5.840738
-9.642236
-13.356159
-16.929774
-20.662059
-24.341376
-27.482297
-29.515585
-29.868710
-28.667147
-26.428342
-23.088261
-18.317556
-12.340816
-6.272263
-1.010246
3.308695
6.364158
8.293156
9.553808
10.373055
10.713702
10.610589
10.340802
10.313257
11.647595
14.814881
19.828299
26.256332
32.543586
37.146438
38.946193
38.107170
35.219557
30.806919
25.753244
20.606108
15.622116
11.559777
9.428791
9.077550
9.774851
10.767129
10.825041
9.083904
5.885306
1.942559
-2.528227
-7.493621
-13.284384
-19.922880
-26.304772
-31.660015
-35.646079
-37.995767
-38.948261
-38.671412
-37.657240
-36.308307
-34.163198
-30.827354
-26.063241
-20.008578
-13.666943
-7.860173
-3.067811
0.333008
2.282487
3.440498
4.569552
5.672476
6.752564
7.268359
7.090149
7.218686
8.454619
11.005350
13.931570
15.938491
15.990753
13.605753
9.114957
3.354798
-2.213967
-6.273245
-8.074414
-8.103135
-7.517891
-6.870969
-6.700058
-7.435262
-9.426647
-12.243870
-14.790601
-16.423682
-16.720542
-15.851622
-14.081059
-11.406499
-7.606886
-2.600295
3.464020
10.472118
17.510114
23.662474
28.282512
31.457803
33.967336
35.925761
37.683376
39.549989
41.156703
42.020914
41.552907
39.386137
36.112678
32.304353
28.117950
24.152132
20.617831
17.730218
15.688925
13.819722
11.799146
9.973259
8.767693
8.663639
9.650973
11.696502
14.781863
18.110409
20.995431
22.831675
23.681762
24.139410
23.746971
22.237483
19.344220
15.276702
11.476617
8.496015
6.834683
6.532409
6.672716
7.024427
7.197928
6.819849
5.885954
4.640838
2.880867
0.649123
-1.354973
-2.946857
-3.472541
-3.270790
-3.053267
-3.130013
-4.312979
-6.389113
-8.819783
-11.564028
-14.424097
-17.472735
-21.405595
-26.139340
-31.303425
-36.489640
-40.826003
-43.776707
-44.849499
-43.684426
-40.428859
-35.580232
-30.029830
-24.808775
-20.338697
-16.922340
-14.211291
-11.602882
-9.082755
-7.018628
-6.497888
-7.546902
-9.840326
-12.403771
-13.619930
-13.617341
-12.364458
-10.463475
-9.194112
-9.260029
-11.491538
-15.072451
-18.789670
-21.820651
-23.217139
-23.241152
-22.731477
-22.214740
-21.869856
-21.913644
-21.523325
-19.525821
-16.068738
-11.673993
-7.759967
-5.353781
-4.301237
-4.280521
-4.646593
-5.400396
-6.541928
-7.841190
-8.968833
-9.309480
-8.565096
-7.041955
-5.255619
-3.557564
-2.793404
-2.867561
-3.176898
-3.631016
-4.334440
-5.831686
-8.130759
-10.731164
-12.855559
-14.305957
-15.338021
-16.019551
-16.756168
-17.703248
-18.827359
-19.838236
-20.151575
-19.627069
-18.696470
-18.017531
-17.798595
-17.834379
-17.966919
-18.239766
-18.387608
-17.754340
-16.236849
-14.319857
-12.282803
-9.706411
-5.690686
0.534418
8.746198
18.017585
26.888529
33.386009
36.341186
35.520525
31.780471
26.329884
20.678017
16.301398
13.161654
11.257844
10.209536
9.721048
9.961407
10.876704
13.181661
16.603667
20.461899
23.962299
25.837857
25.991583
25.015783
24.015971
23.837525
24.222665
24.496689
23.781494
21.531153
18.099258
14.327893
11.014648
8.711102
7.811106
8.252982
9.908426
12.837471
16.708180
20.839730
24.202176
26.068318
26.249117
25.109232
23.329722
21.070670
18.012145
13.426476
7.368516
1.026174
-4.302232
-7.581106
-8.872835
-9.050103
-8.813275
-8.741003
-8.649898
-7.950478
-6.753153
-5.537230
-5.019550
-5.348663
-6.676645
-9.144276
-11.961028
-14.609694
-16.686534
-18.352809
-20.076761
-21.679003
-23.229924
-25.030857
-26.774348
-28.073374
-29.167353
-30.037922
-30.671662
-30.970876
-30.927325
-30.575849
-29.755425
-28.572225
-26.428057
-23.413320
-20.080066
-17.145136
-15.798086
-16.478439
-19.329091
-23.128471
-26.076585
-27.090994
-25.766308
-22.716495
-18.928888
-15.277822
-12.050505
-9.438330
-7.233895
-4.793809
-1.893720
1.517928
5.022800
8.654091
12.327286
15.367683
17.538688
18.450219
18.381712
17.691707
16.331944
14.475688
12.240648
9.701451
7.053492
5.361085
5.531055
7.489245
10.052453
11.548286
11.205284
9.153869
6.757098
5.495268
5.330947
5.541644
5.761051
5.742923
5.573659
5.427229
5.136255
5.154146
5.677475
5.981161
5.994108
6.186207
6.743671
7.484525
7.628834
6.865144
5.653222
4.627985
4.780770
6.534618
9.609856
13.678079
18.306357
22.924041
27.080545
30.582121
33.059168
34.477549
34.881051
33.772006
30.914291
26.378295
20.714657
14.889288
9.269437
3.989762
-0.274328
-3.392649
-5.698078
-7.363647
-8.925162
-10.386860
-11.692242
-13.329325
-15.857223
-19.090897
-21.688007
-22.812825
-22.148011
-20.116842
-18.021641
-16.583721
-15.880769
-15.716920
-15.941272
-16.228245
-16.325237
-16.334654
-16.238134
-16.030498
-15.624876
-14.999141
-14.124807
-12.931719
-11.675069
-10.413240
-9.313613
-8.515318
-7.382732
-5.577328
-3.577234
-1.849752
-0.421249
0.902024
2.414336
4.196670
6.266682
9.110742
12.927069
17.243185
21.188050
23.878384
25.048401
25.166579
25.025564
25.164694
25.822446
27.026127
28.489237
29.717166
30.044629
29.091900
27.307447
25.721919
24.846407
24.300712
23.698046
22.536268
20.490032
17.903516
15.693901
15.236252
16.897817
19.681846
22.289548
23.819987
24.347318
24.183468
23.701806
23.564793
23.638478
23.190245
21.500194
18.393879
14.634992
11.319157
9.231017
8.261808
8.048756
8.662956
9.890885
11.355408
13.047577
14.724444
16.114104
17.207611
18.019325
18.660127
19.045031
18.742992
17.088017
14.160383
10.711068
7.353329
4.660876
2.796381
1.516894
0.190560
-1.658868
-4.091422
-7.130408
-10.151266
-12.336163
-13.209792
-12.476236
-10.215537
-6.980922
-3.617535
-0.591734
1.951700
4.249359
6.946520
10.267297
13.782763
16.801031
19.000051
20.332034
21.016623
21.549604
22.090119
22.591554
22.795424
22.341541
21.479683
20.885022
20.808511
20.960118
20.614998
19.306320
17.253963
14.843302
12.414044
9.727947
6.342194
1.897540
-3.540334
-9.075906
-13.759979
-17.141730
-19.601356
-21.688791
-24.002930
-26.649006
-28.877690
-30.441324
-31.701035
-33.177329
-34.996625
-36.917619
-38.499145
-39.308741
-39.332989
-38.598963
-37.588558
-37.067583
-37.221781
-37.590914
-37.573729
-36.838290
-35.118106
-32.424242
-28.664178
-23.514219
-17.266515
-10.861788
-5.355173
-1.187370
1.488603
2.959011
4.164340
5.403334
6.626319
7.535966
7.588699
7.240283
6.918939
6.699295
6.814884
6.926000
7.216032
8.027275
9.252379
10.807772
11.923643
12.077369
11.055663
9.237780
7.816338
7.441791
8.713272
11.154064
13.430301
14.680830
14.212116
12.266638
9.504030
6.893267
5.324925
4.831022
5.159426
5.947363
6.856068
7.281229
6.828759
5.261123
2.610809
-0.324358
-3.492586
-7.178024
-11.624091
-17.246061
-23.967187
-31.222473
-37.663926
-42.727489
-46.812898
-50.380157
-53.615244
-55.706916
-55.989415
-53.932351
-49.475927
-43.775801
-38.272246
-33.995916
-31.464017
-30.833574
-30.826747
-29.633895
-26.862343
-22.829668
-18.590298
-15.854765
-15.614877
-17.400743
-19.970544
-22.481256
-24.202618
-24.534791
-23.605840
-22.056097
-20.478811
-19.619308
-20.294952
-21.849169
-23.087928
-23.745681
-23.506734
-22.531171
-21.480510
-20.572747
-20.235867
-20.580046
-21.197778
-21.300655
-19.760329
-17.074233
-14.574587
-13.289687
-13.639516
-14.872155
-16.363280
-17.270574
-16.887082
-15.305087
-13.280275
-11.959827
-11.905682
-13.097358
-14.868629
-16.693809
-18.137145
-18.753465
-18.568899
-17.716459
-16.844243
-16.355285
-16.310085
-16.710764
-17.022220
-17.276234
-17.542255
-17.345212
-16.518196
-14.851687
-12.479872
-10.274025
-8.986065
-8.946515
-10.355245
-13.003205
-16.288200
-19.673011
-22.901036
-26.035835
-29.275395
-32.611947
-35.780882
-38.461329
-40.052270
-40.406807
-39.585206
-37.401724
-34.385575
-31.046670
-27.971667
-25.880703
-24.451023
-23.115038
-21.351537
-18.880611
-16.234301
-14.225968
-13.407662
-13.310672
-12.917763
-11.413220
-8.515250
-4.700099
-0.598918
3.378905
6.971823
9.841073
11.904023
13.111941
13.660931
14.318212
15.254225
16.418827
17.800012
19.061135
20.102850
20.905854
21.718509
23.275785
25.935750
28.827128
30.550373
30.168998
27.992106
25.678908
24.413311
24.607529
26.085470
27.835316
28.929764
29.044411
28.381009
27.707247
27.898169
28.780743
29.761956
30.594858
31.213295
31.702489
32.312922
33.181135
33.730831
33.423848
31.718259
28.375116
24.135509
20.080468
16.794766
14.067236
11.702011
9.614813
8.036113
7.106454
6.705776
6.874333
7.264652
7.306320
6.777575
5.494793
3.117797
-0.172848
-4.022135
-7.959703
-11.733422
-15.076800
-17.519006
-19.218946
-20.248656
-21.058723
-22.176714
-23.205247
-23.349793
-22.315140
-20.307042
-17.554559
-15.251015
-14.521461
-15.222060
-16.710595
-17.732772
-17.543498
-16.422448
-14.929440
-14.050869
-14.224842
-15.335299
-16.970735
-18.020691
-17.474291
-15.355077
-12.477352
-9.707684
-8.073897
-7.626372
-7.774685
-8.419725
-8.814989
-8.307668
-6.763105
-4.160582
-1.025312
1.965176
4.497310
6.830047
9.331341
12.189761
15.003923
17.289105
19.175964
20.833763
22.285102
23.307748
24.001047
24.918698
26.632291
29.391130
32.661293
35.248749
36.368152
36.042100
34.583933
33.032776
32.515802
33.576351
35.884368
38.037012
38.862615
38.244647
36.918313
35.804089
35.232263
34.733180
33.903574
32.462827
30.052403
26.835443
22.987332
18.691461
14.682091
11.858276
10.853520
11.715377
13.921460
16.588016
18.695224
19.656662
19.461266
18.462160
17.145243
16.207816
16.410037
18.015103
20.762407
23.701104
25.791362
26.713486
26.722902
26.308569
25.666589
24.674545
22.938587
20.124895
16.448168
12.817346
10.461538
9.980583
11.186854
13.252864
15.234830
16.682403
17.496470
18.001437
18.200363
17.532252
15.866683
13.251447
10.109584
7.066832
4.451125
2.513651
1.213212
0.538509
0.658571
1.979254
4.457478
7.179121
9.129306
9.550230
8.134202
4.981511
0.757441
-3.408716
-6.625205
-8.684154
-9.967642
-11.082809
-12.326512
-13.625302
-14.970234
-16.115769
-16.832140
-16.956205
-15.941092
-13.573514
-10.274395
-6.881345
-4.072598
-2.089690
-1.125897
-1.044915
-1.392389
-1.908657
-2.709543
-3.906869
-5.488394
-7.247423
-8.846840
-10.189182
-11.176282
-11.825795
-12.084989
-11.847925
-11.175343
-10.092900
-8.968790
-7.892704
-6.508458
-4.779329
-2.584075
0.157579
3.085211
5.715513
7.646866
8.711416
8.677751
7.294211
4.692393
1.317233
-2.123843
-5.381530
-8.653342
-11.883249
-14.964610
-17.479795
-19.054728
-19.786166
-19.713423
-19.073092
-18.331062
-17.627169
-16.755424
-15.229222
-12.534416
-8.680657
-4.273200
-0.436626
1.618555
1.289913
-1.107328
-4.332528
-6.947529
-8.040095
-7.548076
-5.757974
-3.057988
-0.517144
1.128413
1.726604
1.783574
2.031467
1.896573
1.075206
-0.392142
-2.601993
-4.939910
-6.802521
-7.891085
-8.393464
-8.619699
-9.148915
-10.573182
-12.839297
-15.754924
-18.906203
-21.869385
-24.318653
-26.153250
-27.108804
-26.662692
-24.792783
-21.893165
-18.900087
-16.442109
-14.483449
-12.710767
-10.795659
-8.855361
-6.628797
-3.973541
-1.070627
2.018736
5.030412
7.496159
8.601672
8.044442
5.827764
2.207537
-1.812663
-5.376861
-7.897461
-9.264993
-9.987720
-10.664071
-11.560300
-12.687237
-13.831830
-14.098792
-12.631210
-9.281476
-4.725942
0.026870
4.190437
6.896072
7.816548
6.984823
4.631369
1.426886
-1.696614
-3.683996
-4.351166
-3.669637
-1.862349
0.228615
2.215761
3.724070
4.346745
3.871204
2.292033
-0.146171
-2.724212
-4.485124
-4.687818
-2.933263
0.144800
3.467696
5.925203
6.824021
6.927839
7.280491
8.308317
9.772839
10.881177
11.393442
11.595899
11.637096
11.376961
11.003355
11.225822
12.383598
14.251623
16.214992
17.809228
18.864362
19.105192
18.332321
16.602248
14.075292
10.980513
7.221626
2.839828
-1.380004
-4.850507
-7.127451
-7.800742
-6.464286
-3.131267
1.300203
5.892933
9.697490
12.355336
13.963932
14.334712
13.834217
12.976125
11.961482
11.054424
9.881345
7.769192
4.426049
0.327692
-3.083486
-4.768123
-4.493158
-2.862432
-0.836678
0.990385
2.452082
4.009358
6.013454
8.495915
10.976728
12.815090
13.776293
13.924840
13.580661
13.207056
12.988589
12.244674
10.490589
7.942917
5.230689
3.063213
1.766070
1.169526
0.746483
0.163121
-0.965228
-2.735086
-4.719879
-6.338835
-7.114296
-7.021307
-6.446186
-5.789376
-5.074654
-4.459277
-4.279420
-4.863252
-6.086945
-7.345244
-8.366244
-8.914293
-8.806944
-8.219346
-7.811606
-8.384138
-10.118684
-12.301461
-13.524212
-12.604443
-9.242703
-4.142417
