EVENT_NAME: 202302060117
EVENT_ID: 13194
EVENT_DATE_YYYYMMDD: 2023/02/06
EVENT_TIME_HHMMSS: 01:17:32.00000
EVENT_LATITUDE_DEGREE: 37.288
EVENT_LONGITUDE_DEGREE: 37.043
EVENT_DEPTH_KM: 8.6
HYPOCENTER_REFERENCE: AFAD
MAGNITUDE_W: 7.7
MAGNITUDE_W_REFERENCE: AFAD
MAGNITUDE_L: 
MAGNITUDE_L_REFERENCE: 
FOCAL_MECHANISM: 
NETWORK: TK
STATION_CODE: 2413
STATION_NAME: 
STATION_LATITUDE_DEGREE: 39.80771
STATION_LONGITUDE_DEGREE: 40.03856
STATION_ELEVATION_M: 1522.0
LOCATION: Kahramanmaras_Pazarck_Turkiye
SENSOR_DEPTH_M: 
VS30_M/S: 435
SITE_CLASSIFICATION_EC8: B
MORPHOLOGIC_CLASSIFICATION: 
EPICENTRAL_DISTANCE_KM: 382.53
EARTHQUAKE_BACKAZIMUTH_DEGREE: 
DATE_TIME_FIRST_SAMPLE_YYYYMMDD_HHMMSS: 2023/02/06 01:18:00.7985860
DATE_TIME_FIRST_SAMPLE_PRECISION: millisecond
SAMPLING_INTERVAL_S: 0.01
NDATA: 21001
DURATION_S: 
STREAM: HNE
UNITS: cm/s^2
INSTRUMENT: sensor = ACEBOX/SARA | digitizer = 
INSTRUMENT_ANALOG/DIGITAL: 
INSTRUMENTAL_FREQUENCY_HZ: 
INSTRUMENTAL_DAMPING: 
FULL_SCALE_G: 
N_BIT_DIGITAL_CONVERTER: 
PGA_CM/S^2: 64.854
TIME_PGA_S: 
BASELINE_CORRECTION: BASELINE REMOVED
FILTER_TYPE: BUTTERWORTH
FILTER_ORDER: 
LOW_CUT_FREQUENCY_HZ: 
HIGH_CUT_FREQUENCY_HZ: 
LATE/NORMAL_TRIGGERED: 
DATABASE_VERSION: 
HEADER_FORMAT: DYNA 1.2
DATA_TYPE: Acceleration
PROCESSING: Automatic Paolucci et al., 2011
DATA_TIMESTAMP_YYYYMMDD_HHMMSS: 
DATA_LICENSE: U (unknown license)
DATA_CITATION: Turkish Accelerometric Archive v 1.0 - Disaster And Emergency Management Presidency, Earthquake Department
DATA_CREATOR: AFAD
ORIGINAL_DATA_MEDIATOR_CITATION: : AFAD - Disaster And Emergency Management Presidency
ORIGINAL_DATA_MEDIATOR: AFAD PROCESS SERVICE
ORIGINAL_DATA_CREATOR_CITATION: AFAD PROCESS SERVICE
ORIGINAL_DATA_CREATOR: network: TK
USER1: GuestUser
USER2: 
USER3: 
USER4: 
USER5: 
[...]
-2.859027
-2.864638
-2.914203
-2.958390
-3.013098
-3.122749
-3.231231
-3.333400
-3.465963
-3.592681
-3.703500
-3.796551
-3.832088
-3.836530
-3.840972
-3.792108
-3.697654
-3.630086
-3.587535
-3.560648
-3.540307
-3.490275
-3.430890
-3.374311
-3.323343
-3.288507
-3.222342
-3.146357
-3.124848
-3.125081
-3.111755
-3.072944
-3.029925
-3.024080
-3.011221
-2.953473
-2.870942
-2.781631
-2.709622
-2.628494
-2.500373
-2.344897
-2.189188
-2.035349
-1.854624
-1.627606
-1.364350
-1.084027
-0.821940
-0.564763
-0.269710
0.037733
0.318992
0.581546
0.830774
1.057792
1.270547
1.495928
1.758483
2.052132
2.329650
2.559239
2.748381
2.938225
3.168515
3.375426
3.478297
3.537214
3.627928
3.707887
3.733371
3.757219
3.787846
3.759089
3.705316
3.642425
3.528566
3.410265
3.279105
3.102588
2.915317
2.727578
2.566726
2.413121
2.244086
2.092819
1.904379
1.678297
1.487285
1.290194
1.045642
0.804598
0.629484
0.520768
0.433562
0.333731
0.261254
0.254240
0.246993
0.226653
0.213560
0.166567
0.138512
0.146695
0.124017
0.096663
0.082869
0.056450
0.033772
0.040319
0.040319
0.021148
0.052009
0.074220
0.028864
0.034475
0.075624
0.037515
-0.023974
-0.020700
0.001745
-0.028181
-0.087799
-0.174304
-0.291436
-0.363913
-0.423531
-0.567550
-0.748041
-0.867511
-0.927597
-1.023921
-1.169577
-1.290216
-1.392853
-1.490814
-1.614492
-1.822104
-2.027378
-2.166253
-2.323598
-2.522326
-2.703986
-2.830470
-2.903415
-2.950641
-2.996232
-3.036211
-3.016338
-2.938249
-2.891489
-2.871616
-2.833507
-2.812699
-2.794229
-2.751678
-2.743728
-2.773654
-2.789084
-2.769211
-2.733908
-2.754949
-2.824854
-2.867405
-2.869977
-2.867171
-2.925386
-3.036907
-3.132998
-3.200331
-3.218333
-3.246155
-3.358611
-3.448857
-3.460313
-3.533023
-3.736193
-3.907800
-3.957598
-4.013943
-4.093668
-4.166145
-4.279302
-4.356455
-4.321619
-4.210799
-4.154921
-4.261767
-4.311565
-4.105589
-3.866415
-3.815914
-3.882079
-3.883481
-3.762374
-3.641500
-3.635188
-3.702054
-3.769621
-3.809132
-3.761204
-3.707430
-3.786219
-3.824328
-3.723094
-3.678672
-3.719352
-3.780373
-3.828301
-3.733146
-3.556161
-3.519221
-3.627936
-3.739457
-3.726832
-3.576500
-3.439729
-3.388293
-3.331714
-3.225336
-3.107969
-3.025906
-2.920697
-2.705136
-2.474144
-2.300432
-2.152205
-2.031565
-1.829330
-1.543162
-1.408962
-1.430939
-1.396804
-1.227535
-1.015714
-0.902322
-0.903959
-0.915648
-0.806231
-0.577109
-0.406671
-0.344714
-0.287668
-0.187602
-0.083796
-0.075847
-0.124476
-0.093147
-0.016695
0.010192
-0.017396
-0.013655
0.076123
0.166135
0.179462
0.141120
0.166370
0.322781
0.447395
0.417703
0.350136
0.326756
0.336576
0.419808
0.584168
0.708080
0.705743
0.650333
0.644488
0.739410
0.904939
0.966194
0.843684
0.749230
0.821708
0.933697
0.926683
0.861922
0.923878
0.953571
0.875716
0.918034
0.981393
1.088239
1.238571
1.209346
1.348924
1.605633
1.670863
1.943938
2.219585
2.282010
2.542460
2.699572
2.572387
2.537785
2.587116
2.687883
2.775323
2.613536
2.313107
2.123965
2.072062
2.050787
1.915185
1.630654
1.322275
1.082166
0.847901
0.538120
0.191165
-0.130072
-0.436346
-0.733736
-1.011253
-1.291342
-1.569794
-1.775068
-1.918853
-2.104956
-2.269081
-2.332440
-2.443493
-2.620010
-2.702073
-2.738545
-2.826219
-2.913892
-3.029622
-3.198189
-3.258509
-3.208008
-3.265522
-3.393877
-3.418893
-3.412346
-3.462145
-3.506332
-3.544207
-3.641233
-3.777770
-3.904254
-3.993798
-3.963872
-3.874094
-3.956156
-4.120282
-4.055052
-3.799511
-3.596575
-3.495341
-3.388963
-3.254061
-3.187897
-3.129681
-2.929550
-2.660683
-2.445356
-2.279359
-2.117805
-1.900841
-1.635715
-1.419218
-1.269120
-1.071561
-0.825372
-0.695381
-0.654700
-0.542477
-0.393782
-0.261452
-0.113458
-0.051268
-0.130291
-0.159282
-0.084467
-0.057813
-0.102468
-0.202533
-0.237837
-0.067632
0.055813
-0.002168
0.009054
0.120342
0.199132
0.251503
0.379156
0.627917
0.860311
0.982821
1.103695
1.325335
1.622258
1.857458
1.925493
1.972253
2.242523
2.668969
2.968230
3.065724
3.177947
3.477675
3.818318
3.994601
4.019851
4.032711
4.193330
4.440921
4.522517
4.494227
4.589617
4.725453
4.800035
4.935170
5.031962
4.936106
4.858953
4.946627
5.057915
5.068436
4.909454
4.639418
4.506154
4.566474
4.493997
4.136989
3.815518
3.724337
3.670330
3.496151
3.241547
3.021777
2.885240
2.776758
2.702177
2.672953
2.578499
2.393098
2.203722
2.043571
1.945611
1.907034
1.818192
1.617126
1.403903
1.283732
1.183667
1.036608
0.913865
0.785978
0.590524
0.385016
0.186289
-0.018517
-0.219816
-0.437949
-0.667070
-0.879825
-1.044185
-1.169266
-1.386931
-1.708636
-1.937523
-2.062370
-2.270684
-2.605247
-2.975816
-3.257074
-3.382622
-3.497650
-3.710640
-3.932279
-4.106458
-4.234111
-4.294664
-4.310095
-4.378363
-4.562829
-4.762959
-4.844554
-4.797093
-4.685104
-4.653074
-4.853671
-5.142411
-5.202730
-5.024343
-4.816029
-4.787038
-5.001897
-5.112483
-4.853436
-4.485439
-4.256785
-4.131235
-3.960563
-3.629272
-3.168925
-2.786666
-2.659246
-2.499329
-2.090417
-1.810328
-1.691559
-1.435317
-1.191933
-1.082048
-1.031782
-1.036458
-0.926806
-0.630819
-0.551561
-0.977072
-1.473891
-1.591023
-1.567409
-1.727560
-2.060955
-2.464489
-2.813782
-2.996143
-3.053423
-3.196741
-3.452515
-3.658958
-3.854646
-4.019706
-4.087741
-4.291378
-4.656102
-4.870494
-4.881950
-4.877040
-4.915382
-5.021993
-5.245270
-5.359830
-5.205290
-5.126967
-5.320785
-5.496367
-5.391391
-5.033448
-4.755930
-4.787960
-4.894104
-4.856462
-4.742135
-4.610507
-4.505765
-4.487529
-4.417390
-4.121168
-3.837572
-3.748027
-3.546728
-3.203279
-2.915241
-2.702485
-2.617616
-2.485988
-2.219225
-1.871802
-1.409117
-1.115000
-0.997868
-0.891723
-0.592930
0.071054
0.325894
0.340389
0.761692
0.844223
1.020039
1.685426
1.832952
1.760943
1.960138
2.163542
2.363205
2.543931
2.613135
2.535047
2.692627
3.078860
3.203006
3.286940
3.395656
3.481693
3.758510
3.949756
4.033923
4.149186
4.159005
4.242705
4.438861
4.468086
4.287829
4.149187
4.258604
4.413846
4.357969
4.171866
4.045382
4.143811
4.342539
4.283856
4.107339
4.174206
4.310276
4.274973
4.228681
4.321733
4.449152
4.506667
4.506433
4.486093
4.629177
4.988991
5.197773
5.184213
5.330102
5.633104
5.818272
5.912960
5.983333
5.951303
5.905245
5.967669
6.048563
6.062358
6.006480
5.875554
5.747433
5.727327
5.743693
5.660461
5.564371
5.573256
5.533276
5.349044
5.177204
5.052824
4.912779
4.820664
4.699323
4.449394
4.260486
4.162993
3.989282
3.844795
3.791022
3.669214
3.525429
3.452718
3.356861
3.275266
3.347510
3.471189
3.504622
3.530574
3.593933
3.653786
3.765775
3.880569
3.894130
3.955619
4.157620
4.285741
4.309822
4.445425
4.649764
4.812487
5.055169
5.354897
5.537493
5.647846
5.768719
5.827169
5.887021
6.034314
6.063539
5.936821
5.914376
5.993868
6.007896
5.965111
5.923729
5.828340
5.679412
5.677775
5.812910
5.822730
5.649253
5.364722
5.126015
5.064293
4.931964
4.570981
4.235716
3.934351
3.462315
3.005008
2.748298
2.490187
2.085016
1.560843
0.970271
0.477894
0.190792
-0.003727
-0.318418
-0.819913
-1.249399
-1.376584
-1.385702
-1.562219
-1.900055
-2.124968
-2.037528
-1.805601
-1.698755
-1.754632
-1.885091
-1.945878
-1.837162
-1.742474
-1.778011
-1.709976
-1.509377
-1.435497
-1.478282
-1.416793
-1.177618
-0.885138
-0.704412
-0.646898
-0.587980
-0.454950
-0.286382
-0.114540
0.002826
-0.037153
-0.075495
0.097982
0.313076
0.365447
0.294139
0.283385
0.531444
0.940589
1.220445
1.300871
1.337811
1.447463
1.612991
1.814291
1.922539
1.786703
1.621175
1.603640
1.628657
1.704174
1.740880
1.631697
1.615098
1.787173
1.941479
1.943817
1.859651
1.845155
1.890045
1.956210
2.048560
1.988708
1.806814
1.831597
2.127117
2.477813
2.626040
2.502829
2.468228
2.841602
3.379336
3.729331
3.864934
3.874987
3.969909
4.325749
4.667560
4.759677
4.778147
4.825374
4.963315
5.270291
5.460602
5.370824
5.363577
5.590127
5.824158
5.974724
5.962800
5.705390
5.375034
5.281048
5.568151
5.930771
5.940825
5.648344
5.428809
5.510405
5.691130
5.687156
5.554593
5.421563
5.364984
5.270530
4.967529
4.772776
4.896221
5.043514
5.040241
4.821407
4.440551
4.226627
4.302144
4.504145
4.690014
4.708017
4.631098
4.776052
5.062688
5.143114
5.032528
4.959116
5.172340
5.747949
6.185384
5.988760
5.542442
5.543377
5.927740
6.148445
6.019857
5.647184
5.300697
5.331792
5.508075
5.330156
4.888981
4.442428
4.141765
4.138258
4.116749
3.725373
3.145556
2.624656
2.446736
2.600341
2.440658
1.828577
1.272140
0.994856
0.894324
0.754279
0.586647
0.527029
0.406156
0.121859
-0.272089
-0.693392
-0.984469
-1.139009
-1.029358
-0.582571
-0.366776
-0.727057
-1.138073
-1.136669
-0.781064
-0.194232
0.321759
0.346775
-0.080138
-0.802338
-1.183194
-0.483204
0.133553
-0.370046
-1.283024
-2.068349
-1.744773
-0.283306
0.179613
-0.548198
-0.832028
-0.175759
1.132337
2.288699
1.984529
0.508567
0.441935
1.801466
2.453995
2.862439
2.178114
-0.183238
-0.081068
3.080806
4.765784
2.910369
-0.872471
-2.300270
1.180737
4.794776
4.037506
1.991079
0.761306
-0.135306
0.464618
0.745408
1.421316
5.239694
5.344903
-0.436436
-2.313360
0.224042
0.474205
0.014092
-0.204742
-2.488473
-1.397107
3.950070
3.342899
-2.013864
-2.439141
0.402665
1.905982
1.889616
-0.430587
-2.636231
-0.528548
2.542613
2.775943
4.972235
8.147436
5.156467
2.234236
5.680875
7.616015
5.505060
4.057388
3.084324
3.432916
7.044616
8.535074
3.379611
0.139181
4.720906
7.467089
5.798712
5.418324
2.994080
1.131885
6.682700
11.676376
8.736844
3.219228
1.096116
3.857261
10.834006
15.191520
9.056913
1.542202
4.850901
10.207430
8.772383
6.120655
4.966865
2.576289
-0.676532
-1.319475
1.378312
3.913610
3.623935
0.210496
-2.846170
-0.469620
5.350061
8.165448
6.358430
2.718674
-0.336822
-1.094091
0.891783
2.414738
1.003071
-1.372075
-2.723190
-3.428789
-3.539141
-0.452784
4.584145
4.033553
-0.758590
-0.963396
2.198946
3.159853
2.294804
1.880281
2.688285
4.152791
6.114818
6.778335
3.674209
0.489189
0.719947
1.746083
2.036694
2.103794
1.917691
1.457579
1.520704
3.903800
7.027098
7.611124
6.626136
6.187065
6.565115
6.271700
3.346429
-0.545828
-1.904190
-0.781495
0.003596
0.135692
1.741880
3.239118
1.520708
-0.999626
-0.828019
0.134057
-0.780090
-2.803839
-4.938174
-6.410395
-5.638864
-2.544089
0.686522
0.457167
-3.751418
-6.196937
-4.244496
-3.547546
-7.137269
-10.314573
-8.937975
-4.964590
-1.618951
0.914243
0.735622
-3.653688
-6.197869
-3.499849
-1.109973
-1.874723
-4.741779
-8.127865
-7.449151
-3.060542
-1.808324
-3.749075
-3.780637
-2.750059
-2.906936
-2.193387
-0.764418
-0.992370
-0.767457
1.274997
1.099415
-2.610947
-6.158587
-7.868346
-8.934461
-9.783145
-10.157922
-8.852164
-5.515643
-5.021395
-8.299934
-7.439092
-2.649287
-1.221487
-1.597901
-0.311080
1.703083
4.228795
5.004067
0.845750
-4.129456
-3.289422
-0.287933
-2.212552
-5.171723
-4.231157
-2.949714
-2.874898
-1.764361
-0.295646
0.392887
1.178913
2.024325
2.086982
3.090908
6.181708
7.362385
3.960635
-0.610569
-2.925162
-2.577271
-0.787085
0.543455
1.054069
1.551356
2.672180
4.394565
4.810958
3.598953
3.069870
3.025916
2.275661
1.123976
-0.352921
-1.567264
-2.677801
-3.606443
-2.146145
-0.033085
-0.341697
-0.079610
1.972662
2.231710
1.331824
2.740219
5.309184
5.228992
3.028492
3.061925
5.996315
7.756107
5.654504
1.369234
-1.627579
-2.191498
-2.272625
-3.513855
-4.857721
-4.677931
-2.808020
0.744530
4.715109
5.302875
1.957471
0.347543
3.275854
5.466768
2.949707
-1.468126
-4.552379
-5.664085
-5.171941
-4.513568
-4.744793
-5.008283
-3.969755
-1.428846
1.531729
3.606212
4.221567
3.927684
4.957561
7.942217
8.638700
4.816115
0.420960
-1.900179
-2.544992
-1.977098
-1.657029
-2.275890
-3.367957
-4.538112
-4.390118
-3.154967
-2.926547
-3.932810
-4.708783
-3.468488
-1.109941
-0.972234
-2.545222
-3.356732
-3.526702
-2.885396
-1.604888
-1.315915
-1.725060
-1.810863
-1.652816
-1.410836
-2.132100
-4.463760
-6.514863
-6.376689
-5.318522
-6.134708
-8.088785
-8.061431
-6.349801
-4.484800
-2.354906
-1.235952
-2.113160
-3.717944
-5.519585
-7.086494
-7.231682
-6.657710
-6.566295
-6.002609
-4.549793
-3.778729
-3.408862
-0.946041
2.985494
4.034075
1.003128
-2.204805
-3.841385
-6.257446
-9.704552
-11.522326
-10.861848
-9.882939
-10.240882
-10.788435
-9.817008
-7.300647
-5.455285
-6.637364
-9.280442
-10.484030
-10.444284
-10.122111
-9.674156
-8.739668
-6.586628
-4.554462
-4.181322
-3.508453
-0.962167
1.863274
4.422886
8.144471
12.478138
14.852349
14.254296
11.877981
9.022381
6.005929
2.783034
-0.536887
-4.197217
-8.164990
-11.304185
-13.050651
-14.147627
-15.520017
-17.982136
-21.401187
-23.963604
-23.904921
-21.867144
-19.807624
-17.777094
-14.639535
-10.421832
-5.728585
-1.371305
1.602596
2.996262
3.697654
5.176889
8.801916
14.025883
18.699023
22.364496
25.170999
26.079068
25.730242
24.090856
18.509181
9.756980
1.173348
-6.963031
-15.710088
-24.582927
-31.572764
-34.758251
-34.332506
-31.840227
-28.748258
-25.852913
-22.549825
-18.387765
-13.878751
-8.588386
-2.615100
2.577304
7.989945
15.485719
23.524604
30.365746
35.906274
38.354365
35.892013
29.436871
19.835752
6.870058
-8.899568
-25.893122
-41.576943
-53.945754
-62.181496
-64.854032
-62.156011
-57.000314
-49.821335
-38.105754
-21.032708
-0.663823
19.638898
36.698150
47.701818
52.143265
53.366960
53.085001
49.095952
41.061977
31.302111
21.788900
15.052266
13.773629
17.273808
21.534530
22.342533
18.495633
14.185113
12.228932
7.855754
-0.584093
-8.074022
-13.797846
-18.514706
-19.692576
-18.904913
-21.473176
-27.838774
-33.415773
-35.651810
-36.233498
-37.198379
-39.259535
-41.310872
-40.075487
-33.600238
-23.419769
-13.384723
-6.072713
0.821968
9.407472
17.732759
25.335612
32.926074
38.986100
42.332440
42.593358
40.119316
36.418773
31.255828
24.013724
16.453890
9.386667
2.600000
-3.139723
-8.402733
-13.433115
-16.554775
-17.045516
-14.249066
-8.100432
-1.828352
1.861904
4.087420
6.226198
8.174898
10.856553
14.292906
15.987936
15.158657
12.956521
10.945631
11.418136
14.542603
18.816417
23.955749
29.756727
35.422803
39.844845
41.134939
37.690871
29.921555
19.116614
6.687718
-4.379543
-13.430536
-23.467219
-34.259768
-43.608385
-50.859607
-53.291332
-48.812711
-39.406346
-27.749915
-16.544947
-8.049456
-2.179508
1.812815
4.522993
7.139184
9.997824
11.743588
11.355719
10.382889
10.936053
11.522183
9.096537
4.007706
-1.633121
-7.643814
-14.513245
-21.094404
-25.418251
-26.785964
-26.668832
-26.181598
-23.006163
-15.655343
-7.673504
-2.056525
2.145747
5.840680
7.981328
7.149243
3.375288
-2.269513
-8.166815
-12.025171
-13.333968
-12.769113
-10.067352
-6.847262
-5.790498
-5.830945
-3.882946
-0.378792
1.438281
1.605680
3.190124
6.697317
10.799057
14.864324
17.466487
17.775334
17.199491
16.394761
15.437362
15.459807
15.903788
14.971171
13.020600
11.757394
11.672994
11.782645
11.571994
11.843432
13.926800
18.097276
22.126772
24.584449
27.225657
31.027201
34.208480
34.907301
33.445834
29.862190
22.478405
12.487313
2.409014
-7.893729
-17.694277
-25.552670
-31.350608
-34.113858
-32.563080
-27.344258
-21.219938
-16.208260
-12.437577
-11.370760
-14.004486
-18.693757
-24.789553
-31.918967
-38.189409
-42.382797
-43.965136
-42.776745
-38.794242
-31.618770
-22.617575
-14.328994
-7.604517
-1.628892
4.941513
12.324129
19.249906
24.201264
26.466994
26.640238
24.901020
21.342159
17.311728
13.286440
9.240813
5.713280
2.750134
-0.111311
-3.874511
-8.155339
-11.068920
-11.969273
-10.266762
-5.968399
-1.357916
2.189490
4.952039
6.438054
6.167785
6.090398
8.930568
14.191474
19.728261
24.784361
29.010714
32.748899
36.479368
39.271376
40.989318
41.473746
38.945697
33.442811
26.523113
19.207363
12.634621
6.887651
1.408612
-3.606573
-8.207001
-12.581114
-16.531820
-20.033635
-23.488925
-26.718600
-28.962118
-29.928870
-28.950428
-26.177826
-23.073232
-19.547335
-15.428295
-11.169911
-6.276067
-1.828775
-0.006792
-1.123174
-4.098946
-7.429855
-10.236825
-12.545806
-14.209975
-14.794468
-13.835431
-10.671920
-5.164358
0.667949
3.894352
3.913523
1.844651
-1.330315
-4.566069
-7.479650
-10.269319
-12.134320
-12.564974
-12.631606
-13.351468
-14.957421
-17.007823
-18.736753
-19.677319
-19.093293
-16.581142
-12.275999
-5.868317
1.643590
8.263326
13.379044
16.121486
15.192376
11.622993
7.996798
5.716574
4.806401
5.254123
6.732190
8.216335
9.381113
10.457983
11.079417
10.855206
9.748409
7.821453
5.543566
3.974553
4.141251
6.124787
9.245513
12.529430
14.468778
14.081844
12.146704
9.940593
7.701283
4.935228
1.316514
-2.934153
-7.082886
-10.646190
-14.416638
-19.066865
-23.174215
-25.143957
-25.033137
-23.488672
-21.492277
-19.641304
-17.285095
-14.055419
-10.337808
-6.556605
-3.064609
0.287577
3.723695
7.077985
10.084852
12.413005
14.093540
15.231899
15.282867
13.661951
10.893558
8.725790
7.839698
7.047827
5.784855
3.703826
0.277761
-3.085647
-5.150076
-6.586760
-7.773047
-9.066881
-11.025634
-12.462318
-11.576694
-8.755930
-5.556881
-2.636753
-0.605990
0.714965
2.681200
4.220054
3.110452
0.360529
-2.054129
-4.089334
-5.961582
-7.556313
-9.135613
-9.721275
-7.620373
-3.967524
-1.171776
0.896628
3.184335
5.598292
8.266854
10.947340
12.944670
15.062640
18.236204
22.014602
25.620925
27.370430
25.963672
23.027647
20.891675
20.289881
20.589843
20.663022
19.869982
17.535984
14.072278
11.440890
9.822312
8.324373
7.184144
6.208274
5.253914
5.113870
6.216224
8.301228
10.470399
11.546101
11.259699
10.200364
8.609842
6.326344
3.370913
0.023638
-3.063421
-5.682418
-8.142432
-9.997380
-11.138310
-12.175902
-12.697503
-12.396372
-12.080278
-12.006164
-11.814216
-11.211487
-9.900585
-8.134714
-6.281403
-4.351173
-2.709214
-1.443903
-0.288477
0.477209
1.050714
2.134365
3.668309
5.440025
7.055564
7.053460
5.039765
2.939798
1.718675
0.669627
-0.458445
-2.234135
-4.900125
-6.690076
-6.661319
-6.256850
-6.191854
-5.938651
-5.552885
-4.408214
-1.711362
0.908337
2.044124
2.426383
1.837448
-0.701357
-4.432059
-8.130030
-11.449250
-13.866246
-15.328414
-17.028353
-19.318631
-21.226183
-22.044707
-21.612883
-20.337753
-18.982196
-17.913274
-16.969902
-15.399252
-12.319674
-8.083267
-4.287569
-2.188537
-1.648698
-1.435475
-0.937487
-1.095300
-2.149257
-2.881978
-3.305618
-4.443509
-6.219901
-7.828659
-8.611179
-8.822999
-9.405387
-10.488336
-11.343566
-10.917821
-8.841468
-6.259644
-4.017996
-2.126108
-1.096932
-0.940054
-0.900542
-1.270175
-2.675764
-4.366118
-5.212698
-4.905254
-3.910680
-3.279428
-3.291819
-2.857891
-1.179226
1.620496
4.786579
7.125487
8.554924
10.247149
12.411644
14.085399
14.592973
13.810454
11.963923
9.360591
6.012615
2.225333
-1.052037
-3.434898
-5.364661
-6.859794
-7.721337
-8.109908
-7.953029
-7.180563
-5.993106
-4.265111
-1.945842
0.580806
3.145796
5.741413
7.987036
9.171220
8.986988
