EVENT_NAME: 202302060117
EVENT_ID: 13194
EVENT_DATE_YYYYMMDD: 2023/02/06
EVENT_TIME_HHMMSS: 01:17:32.00000
EVENT_LATITUDE_DEGREE: 37.288
EVENT_LONGITUDE_DEGREE: 37.043
EVENT_DEPTH_KM: 8.6
HYPOCENTER_REFERENCE: AFAD
MAGNITUDE_W: 7.7
MAGNITUDE_W_REFERENCE: AFAD
MAGNITUDE_L: 
MAGNITUDE_L_REFERENCE: 
FOCAL_MECHANISM: 
NETWORK: TK
STATION_CODE: 3131
STATION_NAME: 
STATION_LATITUDE_DEGREE: 36.19121
STATION_LONGITUDE_DEGREE: 36.16328
STATION_ELEVATION_M: 203.0
LOCATION: Kahramanmaras_Pazarck_Turkiye
SENSOR_DEPTH_M: 
VS30_M/S: 567
SITE_CLASSIFICATION_EC8: B
MORPHOLOGIC_CLASSIFICATION: 
EPICENTRAL_DISTANCE_KM: 144.98
EARTHQUAKE_BACKAZIMUTH_DEGREE: 
DATE_TIME_FIRST_SAMPLE_YYYYMMDD_HHMMSS: 2023/02/06 01:17:37.0224140
DATE_TIME_FIRST_SAMPLE_PRECISION: millisecond
SAMPLING_INTERVAL_S: 0.01
NDATA: 12501
DURATION_S: 
STREAM: HNN
UNITS: cm/s^2
INSTRUMENT: sensor = GMS+/GEOSIG | digitizer = 
INSTRUMENT_ANALOG/DIGITAL: 
INSTRUMENTAL_FREQUENCY_HZ: 
INSTRUMENTAL_DAMPING: 
FULL_SCALE_G: 
N_BIT_DIGITAL_CONVERTER: 
PGA_CM/S^2: 363.033
TIME_PGA_S: 
BASELINE_CORRECTION: BASELINE REMOVED
FILTER_TYPE: BUTTERWORTH
FILTER_ORDER: 
LOW_CUT_FREQUENCY_HZ: 
HIGH_CUT_FREQUENCY_HZ: 
LATE/NORMAL_TRIGGERED: 
DATABASE_VERSION: 
HEADER_FORMAT: DYNA 1.2
DATA_TYPE: Acceleration
PROCESSING: Automatic Paolucci et al., 2011
DATA_TIMESTAMP_YYYYMMDD_HHMMSS: 
DATA_LICENSE: U (unknown license)
DATA_CITATION: Turkish Accelerometric Archive v 1.0 - Disaster And Emergency Management Presidency, Earthquake Department
DATA_CREATOR: AFAD
ORIGINAL_DATA_MEDIATOR_CITATION: : AFAD - Disaster And Emergency Management Presidency
ORIGINAL_DATA_MEDIATOR: AFAD PROCESS SERVICE
ORIGINAL_DATA_CREATOR_CITATION: AFAD PROCESS SERVICE
ORIGINAL_DATA_CREATOR: network: TK
USER1: GuestUser
USER2: 
USER3: 
USER4: 
USER5: 
[...]
0.560264
-0.408416
-1.591924
-2.533068
-3.766970
-4.427565
-3.196011
-1.468299
-2.139544
-2.451791
-0.880979
-0.954498
-2.466353
-4.224727
-5.857893
-6.953858
-7.332086
-7.160124
-8.192447
-9.369460
-8.876686
-8.287017
-8.651217
-7.702030
-4.752890
-3.342615
-4.000092
-2.260951
0.836776
1.129010
1.566974
4.073470
6.401245
7.763723
9.137630
10.873135
12.488886
13.893966
13.940979
12.256639
10.855445
10.438253
9.310076
8.140596
6.850064
4.661254
3.256684
2.439189
1.361148
0.170107
-0.656740
-1.031070
-0.403736
0.721054
1.199022
1.024453
0.682594
1.141339
0.198116
-1.259966
-1.290624
-1.664175
-1.696131
-0.611345
1.903723
4.553610
5.544620
4.690238
2.664303
1.059452
-0.315765
-2.822011
-5.928580
-8.171941
-10.169561
-12.082237
-13.251718
-13.970501
-15.146475
-16.231271
-16.003200
-16.679900
-18.109148
-17.838995
-16.581203
-15.494859
-15.772815
-16.458868
-16.662011
-17.078944
-16.482002
-15.352796
-13.684052
-11.665140
-9.887034
-7.115575
-4.185138
-1.314707
0.171160
0.831745
2.672975
3.085222
2.425666
2.040425
1.742466
1.988721
2.043527
1.961955
1.786866
1.971297
3.263377
3.140762
0.078613
-1.787825
-0.906697
-0.495490
-0.535759
0.224837
2.153609
4.682964
5.971148
6.470157
7.029173
6.948899
5.586412
4.700079
7.420363
11.003857
11.046194
10.136482
10.322211
9.600830
8.097029
7.226801
6.864420
6.360985
6.383579
5.588685
3.202711
3.477021
5.311757
4.441010
3.827693
5.984021
7.430404
6.168966
4.994550
3.188898
-0.808156
-3.787699
-5.586077
-7.942956
-10.559604
-11.696353
-10.958877
-10.369728
-9.501329
-7.408644
-4.397159
-1.035248
0.038628
-1.617138
-3.406165
-6.160229
-8.723884
-7.246329
-4.204452
-3.813246
-4.165496
-2.088137
0.091310
0.944124
1.489371
1.115820
1.273754
3.044067
4.442653
4.157942
3.304600
4.860085
8.122765
9.537976
8.037032
5.114378
4.133229
4.099974
3.519388
4.097886
6.164335
9.092174
9.416359
7.939054
9.602603
12.686303
13.712641
12.280276
10.772318
10.725035
9.280461
7.727303
9.142514
11.896568
12.788347
10.800597
9.743856
9.595264
6.892634
3.348095
1.953656
1.410736
-1.965732
-6.251908
-6.912763
-6.532987
-7.382953
-6.606251
-4.301336
-1.775098
-0.179608
1.289634
3.067481
2.201669
1.295854
2.710285
4.066009
3.383074
1.439485
0.155188
-0.591390
-0.794014
-2.181180
-4.579362
-4.803807
-4.110491
-5.674819
-8.781648
-10.239731
-10.242593
-10.777200
-11.159584
-9.796587
-6.286088
-2.973792
-0.209866
2.397419
2.652506
2.303373
2.944216
1.928518
-1.102459
-1.008948
3.348654
5.050389
3.457487
4.421221
7.175276
8.094330
7.289823
5.494302
3.022606
1.276441
2.767763
5.380504
3.972817
0.495039
0.324366
2.094160
2.119093
1.456939
0.185630
-1.574043
-0.196499
2.574441
2.789004
3.582071
7.555476
9.548670
6.481585
4.322129
2.633893
-2.196497
-4.586886
-4.325045
-5.658959
-8.258461
-10.967326
-12.254221
-11.573634
-10.549634
-10.006984
-8.453837
-5.903700
-4.904897
-5.983719
-7.817166
-9.857907
-11.875530
-11.194683
-8.792095
-8.917048
-8.936536
-7.274026
-6.413680
-8.389479
-11.528780
-11.694776
-11.704133
-13.241185
-13.794496
-14.441063
-12.758032
-9.484701
-9.303388
-8.242501
-6.106174
-4.454315
-2.815964
-3.834259
-3.646712
-0.032825
1.421870
0.766470
3.132691
6.739304
8.301803
10.651919
14.035910
13.212181
10.407982
12.801478
15.126916
13.049547
12.216206
13.085904
12.589742
9.732290
8.923368
9.715395
5.707171
3.067664
4.178687
2.493567
-0.430126
0.137462
3.240904
3.130498
-0.837202
-4.141975
-5.510177
-6.571854
-5.780346
-3.135394
-0.766835
0.699290
1.322728
3.916246
5.227809
4.141974
4.297830
2.217604
-2.467576
-5.397503
-7.164709
-9.669397
-11.318408
-11.583637
-9.676425
-5.899665
-2.766349
-3.820232
-8.070560
-8.774017
-7.383224
-5.148446
-2.043185
-1.233753
0.052093
2.485854
3.057338
-0.008968
-4.799093
-4.725843
-1.208331
-0.664902
-0.378383
1.919779
4.151700
6.896663
7.233837
3.459144
5.361419
11.242041
9.197922
5.273083
4.970449
3.635237
-0.488584
-1.770804
-0.182328
-5.530954
-10.666831
-7.987330
-5.263668
-6.231828
-7.786025
-4.404891
1.285061
3.365797
4.723859
7.532465
8.352807
7.680522
8.419038
5.140502
-1.806217
-1.343576
3.556162
2.309531
0.446470
3.856698
4.683275
-0.262192
-3.539948
-2.017713
-4.116903
-7.974981
-6.319225
-2.749500
0.882051
0.071310
-1.183893
0.829043
2.218797
1.314539
-5.796093
-8.173754
-4.346338
-4.790027
-10.161513
-17.440475
-15.002558
-5.839769
-5.748855
-13.039507
-14.427192
-5.450397
3.056218
2.145986
-1.405046
1.210033
2.360280
-1.304791
-0.981125
-3.066287
-7.581838
-7.734586
-8.267116
-8.466882
-7.664204
-1.796571
4.720481
0.165186
-4.884448
-1.652161
4.503295
8.046265
4.230269
-0.826119
-0.357242
3.404712
11.074355
13.408624
5.887039
8.215853
19.798121
19.496006
12.943095
12.774760
8.985521
0.351609
2.455984
8.555070
2.734445
-5.199651
-5.739714
-4.036940
-1.461606
-2.166621
-8.959557
-13.769165
-10.456350
-0.517375
7.031996
4.612252
-4.677053
-8.213539
0.582458
4.245440
-5.002563
-6.597283
-2.968330
-4.530320
-1.647160
-1.025281
-0.801886
9.423874
13.211025
4.812723
3.752086
13.905370
17.165192
12.256873
12.841345
15.939852
12.411160
7.869892
4.445366
-0.143959
0.344400
-1.279414
-7.708675
-5.522733
0.699223
-2.934675
-9.872043
-8.040684
-5.270783
-6.233229
-5.713957
-6.227783
-6.517430
-1.775631
2.613403
3.280482
3.908855
2.035924
0.817867
5.183522
7.684562
5.213645
2.479063
1.903412
2.393329
1.265152
1.932231
4.873578
3.254959
1.125897
3.251313
1.915581
-5.201805
-4.626424
0.952606
-2.425161
-5.656419
-4.899461
-4.117564
-0.347817
3.009419
1.985928
-2.821862
-5.932847
-3.151517
-1.756049
-5.946890
-7.716694
-6.558134
-7.634877
-5.754941
-0.108111
-1.320713
-10.815236
-14.118969
-4.634068
0.273982
-6.416605
-6.349071
5.341260
10.758975
6.146271
8.258439
15.434003
14.332582
7.365861
3.972768
5.671125
4.082640
-0.551625
-0.525394
3.059658
2.302690
-4.232297
-4.754955
-0.966505
-4.622483
-7.392654
-3.262349
-0.611941
-0.973284
-2.861282
-7.891173
-9.871909
-8.564242
-12.061243
-13.819877
-7.406731
-1.818609
-3.550486
-2.242820
2.236354
-3.450231
-7.405462
-1.749540
-0.874907
-6.464858
-5.778036
-0.556187
-1.376279
-1.982842
-2.183388
-5.181374
-7.349143
-6.968068
-7.355907
-12.207857
-9.095583
-4.904232
-11.069309
-9.999590
-5.014649
-4.439527
-2.132793
-2.443740
-2.219046
-1.047758
-0.586934
-0.274179
-3.476083
-0.725665
3.345932
-1.180529
-2.600685
3.473723
1.596895
-8.711221
-5.202801
3.011576
0.676257
-0.911969
-0.521803
1.118367
1.036275
-0.463110
-2.570353
-5.873307
1.689572
6.752184
0.195896
-5.332490
-8.967947
-7.904462
-6.333910
-8.998355
-10.494104
-8.007610
-3.214118
-1.347170
-2.485479
-3.327132
-1.652673
-1.990376
-4.895106
0.575342
11.733928
19.036778
21.137776
17.805209
12.397355
10.090611
10.988104
11.053820
8.489906
6.133546
7.283793
10.416070
8.764461
4.547643
1.104154
-4.606329
-4.128101
3.916906
6.228316
0.304823
-0.480460
5.532903
4.289908
0.525606
2.927415
6.730413
4.896706
1.161238
5.687949
13.419936
15.141153
7.323433
1.933243
2.756443
-2.225651
-5.254810
-4.563313
-3.869478
-4.565141
-10.678005
-12.811744
-14.226964
-13.930314
-7.282339
-13.317272
-20.870289
-10.620891
-2.192466
-7.219760
-13.014667
-11.918971
-8.658629
-4.330641
5.333240
14.177554
13.419806
12.922086
19.389263
21.532343
15.683923
12.193676
16.765587
22.508011
22.846744
20.480253
21.929233
20.485179
14.733392
16.859588
16.418237
7.386881
3.422557
4.031708
3.360722
1.224646
0.292334
-0.588544
-1.553847
-1.396692
-10.920049
-21.482737
-14.175990
-6.213589
-10.311433
-18.510233
-25.151984
-14.347462
-4.070009
-10.886584
-10.204439
-8.077724
-3.518282
2.747056
-1.350529
3.267880
8.792100
6.065311
1.685099
-3.387134
0.360792
6.356751
2.531923
-5.388406
-1.884142
6.750019
3.954651
0.202299
6.105260
16.743271
20.066997
16.893926
18.421876
17.433195
12.943621
12.703850
12.643579
11.846865
11.566311
11.755157
14.938608
15.339425
9.606342
6.450936
5.709553
7.354399
9.423705
7.922501
14.058994
18.012917
11.942914
9.709425
5.143999
-2.390575
-5.360247
-5.995644
-4.732917
-4.697854
-4.072078
0.127585
3.308958
1.149242
-1.480134
1.898663
5.636978
5.757765
4.721546
7.100495
11.447966
12.076600
12.184398
12.180757
15.723207
22.629652
20.952065
15.144169
15.101562
19.380974
19.996619
17.640779
21.362988
26.831098
26.703807
21.296732
19.503030
24.770599
25.955136
19.666409
16.288901
18.417954
11.824260
-1.687833
-4.451769
4.413845
6.183899
-8.046193
-9.642472
5.821248
8.192664
0.876556
-0.110308
5.239348
8.217063
8.923366
11.770937
12.626348
13.988047
12.986117
3.239619
-5.683154
-4.747995
-1.323479
-4.576558
-7.587013
-1.442987
-0.470421
-10.150158
-9.451647
-4.364877
-10.024705
-14.660789
-15.997300
-18.080124
-25.181405
-35.569009
-27.049406
-13.556026
-16.067207
-14.495616
-8.470564
-4.182320
0.051632
-0.996017
1.554899
7.698146
6.227075
0.974822
8.733825
22.224867
20.175813
15.865739
19.725625
20.664162
17.957375
18.401833
22.519409
21.022621
17.989826
24.945367
21.907376
8.807015
9.079247
7.529986
-0.132394
-1.009635
0.894459
-4.626654
-13.668401
-8.009361
-3.312243
-13.660623
-19.130561
-13.183959
-12.211912
-14.982861
-5.047263
-1.173349
-6.205838
-2.812754
-3.379053
-3.259305
3.607135
0.900089
-4.602840
-1.990359
-0.131725
0.775640
1.902508
7.543623
7.382043
-4.046452
10.352739
24.209794
7.587499
1.253832
6.601410
8.813848
9.592887
14.851105
15.458697
3.701076
1.038450
3.090871
7.411586
6.730210
-4.922725
1.981902
10.590086
2.907964
-1.827350
6.275066
17.166351
7.362445
-6.236151
-9.906937
-13.022598
-11.084994
-11.918854
-10.402074
-5.248544
-13.479815
-22.308033
-17.521814
-3.939593
-10.085967
-29.511417
-18.820673
-13.874437
-23.517028
-20.846618
-22.483941
-21.006126
-19.340759
-14.779499
-9.324377
-12.468094
-7.178185
-7.468091
-15.941985
-7.920357
3.121074
-4.415578
-11.785199
-6.097585
4.381448
3.820863
-5.291281
0.610641
3.564457
3.952286
9.551319
-1.577404
-5.726682
-0.528731
-3.464373
1.594342
7.740187
2.921227
-4.149921
10.473969
32.403053
20.167199
8.030837
20.741017
20.821280
13.198126
10.732144
4.864761
12.433094
20.809046
14.653840
18.197329
25.810602
26.772778
27.422452
34.473068
47.353916
44.120839
37.255947
40.576555
38.745446
37.295936
40.641223
44.887384
42.194105
33.786192
26.837655
26.845962
24.679233
17.037895
20.032235
17.683668
20.894914
22.998510
12.743127
24.194731
24.848821
22.566755
38.355964
28.162926
23.943510
36.917614
30.629147
29.282765
29.309256
20.419993
32.353207
34.518627
2.245315
-10.482798
-1.240001
9.846629
11.578497
-2.450794
23.044383
34.938112
6.856935
16.447302
26.476677
15.652922
1.023047
-11.706106
0.524283
20.728507
16.269846
13.180161
20.438072
10.675469
4.275301
-6.747696
-9.260436
-0.610948
-8.941970
-6.463010
0.114828
-3.308139
-13.819653
-8.153600
6.675507
-7.141294
-13.372872
8.358528
24.484396
12.838736
8.547105
27.888640
41.239148
53.381215
58.148471
56.401267
69.257956
85.024565
77.124498
56.805446
55.435684
61.663096
53.531056
47.673544
58.801477
61.882060
46.620690
48.383470
69.801590
56.873455
29.699387
50.265209
70.497748
32.603318
9.062884
51.525323
50.929930
-0.466198
6.347250
32.393915
40.889360
41.693596
33.505187
53.643690
70.308057
65.902908
58.975152
36.790707
25.239341
27.324234
14.656127
-8.731304
-4.040940
25.912115
28.154947
-1.762790
-17.100272
6.259613
11.913976
-21.558684
-36.678741
-26.288549
-11.610107
-16.896390
-55.417640
-53.487050
-10.283752
-22.327118
-46.713356
-44.113604
-43.887351
-20.251852
-16.623419
-28.525730
-3.839989
-8.760259
-16.157675
8.385973
-10.975315
-39.554987
-35.114519
-30.294010
-35.007504
-49.933515
-52.210385
-48.078782
-57.909963
-50.886883
-50.416968
-71.869647
-74.024167
-81.130903
-101.573864
-114.137545
-113.915708
-103.063908
-111.273618
-103.130159
-83.856163
-104.575777
-110.666301
-98.473579
-106.522233
-112.009316
-99.937906
-95.372230
-109.506467
-87.424640
-45.716307
-62.904636
-88.297995
-68.551482
-59.835234
-71.795214
-80.481079
-97.496662
-104.996946
-95.421126
-91.350568
-87.498474
-67.190343
-54.605111
-66.341691
-62.075268
-63.327614
-84.173215
-85.378543
-88.378608
-82.190682
-59.484632
-61.691625
-68.385330
-57.581068
-67.655652
-83.113927
-43.099021
-15.658442
-54.187485
-41.949823
12.694173
3.902323
-2.511352
19.400587
23.771177
30.909595
47.253408
68.584765
49.763016
19.492514
34.635681
47.984110
66.640897
92.590928
136.601844
163.151420
143.080186
170.633765
203.199046
208.257242
206.333655
186.710002
178.408074
170.165633
176.779839
188.161046
165.105858
145.438564
176.794626
197.558650
176.291185
191.407335
200.557656
171.872258
163.112099
171.433760
168.940502
157.878540
158.594975
140.306009
121.326581
129.618887
120.649096
93.767527
90.120380
111.465505
92.749741
51.570286
35.688589
28.138170
17.048932
-15.269060
-34.897129
-23.101073
-4.508968
7.986643
-4.323244
-21.363246
-20.303138
-16.508972
-50.588191
-108.561902
-147.562944
-214.351620
-283.670176
-287.726717
-265.627225
-250.137009
-277.932702
-326.557885
-339.157933
-363.032948
-360.992736
-295.882430
-263.227269
-278.088597
-291.788763
-290.462133
-283.257475
-276.689248
-266.205539
-252.029489
-233.711439
-216.152431
-211.748071
-185.416701
-141.049383
-157.990673
-180.107319
-165.762680
-127.357556
-30.499454
61.656849
107.434186
137.591938
185.600942
236.287374
312.877603
360.304727
228.997232
112.945388
152.615062
194.629921
183.692907
147.194210
133.416374
128.120480
124.166807
152.583075
158.920109
117.504005
80.204443
89.905471
96.841270
43.815618
-7.516347
-28.792124
-49.090395
-32.140543
14.355313
-0.614598
-70.963653
-73.475874
-1.033619
64.207869
94.339904
35.830032
-17.966871
64.935200
125.890777
78.831215
63.646476
128.219841
195.982377
201.741427
167.058248
144.715604
139.825467
133.163454
119.600187
114.785903
120.286743
90.193404
23.859062
-23.018922
-29.577808
0.112622
8.671450
-40.608348
-95.639149
-114.342964
-85.765640
-42.206460
-41.858117
-88.965736
-133.003417
-130.314824
-106.026269
-109.760698
-129.514754
-144.304646
-134.486722
-84.668175
-47.391483
-31.227169
-3.764250
34.440853
67.891423
66.125516
59.102165
58.737446
70.620005
106.080660
101.091292
71.933896
113.149969
195.607576
147.157996
-2.735114
-66.202138
-64.402731
-87.161263
-132.441675
-174.000651
-187.940322
-160.865756
-135.466432
-120.580177
-96.791415
-89.861331
-94.524170
-114.271213
-136.535407
-137.854254
-139.353380
-112.847186
-85.547400
-116.529666
-126.966626
-59.296568
33.832306
65.700370
49.877641
40.716660
17.373390
-8.187519
1.071904
47.187719
69.612700
57.404122
56.493370
72.035800
108.059891
141.595405
111.188785
25.823846
-15.566541
5.930288
33.710644
15.075928
-38.025836
-58.274751
-66.266776
-84.157777
-87.336822
-90.122578
-90.699787
-77.285377
-87.375288
-116.834274
-104.816116
-40.200928
45.574435
83.052967
16.909554
-22.451526
44.542877
78.680533
62.912875
62.646868
71.516898
68.160172
53.654466
67.724271
89.864546
99.688964
96.047273
68.204043
50.017945
43.059537
33.598005
34.216767
33.661118
19.107615
19.391277
51.528980
83.155979
94.576931
97.004197
108.234479
118.601033
122.968506
131.205482
110.423783
65.488863
41.995967
58.174308
112.013023
152.686181
165.810171
194.351128
184.980254
105.604784
59.448435
67.502274
64.146327
40.417302
14.602600
-5.684501
-20.301127
-19.640283
-19.361297
-43.886511
-65.153716
-64.177513
-57.148718
-58.838513
-82.416613
-109.107253
-101.785959
-55.886011
-28.024347
-63.930254
-105.992141
-108.684381
-92.611246
-68.396464
-48.693072
-38.165203
-31.540087
-50.179219
-95.924356
-157.111916
-185.335446
-115.499183
-30.274787
-38.051724
-143.665314
-270.661960
-293.765984
-255.216949
-228.696467
-190.378885
-217.630883
-274.918807
-249.929658
-174.462925
-114.844892
-130.407594
-142.737483
-76.110912
7.410705
67.849603
108.101937
156.293038
175.294797
145.398621
125.891604
123.150527
131.429586
138.846734
101.987480
47.921977
52.153072
101.676782
112.345965
57.447646
31.756334
68.454003
61.954345
22.637945
16.478583
19.716585
20.002844
20.214291
29.335776
29.403831
6.787391
-8.948575
-19.361118
-29.400374
-15.992198
13.933582
3.266467
-44.108454
-76.406703
-56.696298
-2.334669
-10.440213
-65.142407
-89.851797
-74.810460
-31.717044
-11.952867
-31.911620
-70.337016
-87.091273
-51.659972
-17.492183
-4.598347
3.398084
-4.264555
-22.496112
-13.412033
37.267125
46.039483
5.361120
-20.254860
-31.203044
-39.770974
-66.182363
-87.399952
-99.210306
-121.126411
-125.857310
-98.543497
-58.142316
-56.413825
-84.623588
-102.309113
-96.859706
-55.244890
-14.924497
-5.880942
-21.987077
-30.118338
3.034538
35.903488
37.804984
13.639549
-12.442455
-10.966978
-10.819435
-20.300190
-15.117305
29.332618
98.040710
120.106171
124.210500
150.346005
149.150548
128.111419
104.171722
76.626706
83.688752
112.084238
108.495279
82.257156
93.164546
134.510762
129.095895
80.492272
52.820489
47.570055
30.111567
10.328936
15.549487
33.785450
53.311421
64.400648
68.780331
70.378418
41.685487
13.512352
9.718696
-10.944289
-49.375399
-62.358865
-47.133872
-55.095244
-86.807457
-108.195195
-92.821095
-63.682932
-74.319654
-93.778614
-89.472447
-80.042356
-81.230800
-84.871452
-79.675060
-60.788378
-34.202435
-18.306461
-3.130305
7.031811
3.319463
-0.168186
-12.134141
-40.677705
-62.879815
-43.435152
-5.413185
-9.032017
-44.828562
-70.693919
-66.764154
-38.623760
-21.381409
-24.693975
-36.656812
-54.946038
-68.777386
-71.421569
-63.191346
-51.538942
-40.865083
-33.516513
-35.061618
-39.505473
-34.764973
-7.888609
25.420388
45.200151
35.592890
7.397414
28.751112
81.919366
68.394804
-1.295739
-10.363983
37.322130
2.839751
-80.925278
-71.630527
-6.994298
23.318276
40.589460
77.647428
114.642791
123.824543
92.943327
71.181784
94.910540
101.078205
85.240669
76.093196
62.347572
48.854441
33.764518
45.735658
76.764931
59.451914
11.479787
-12.562779
-14.582999
-18.120004
-27.369825
-29.830871
-40.325760
-57.658780
-42.172980
-18.061066
-30.948418
-55.119568
-57.919872
-52.542421
-73.570120
-100.020214
-80.238372
-40.818075
-28.534435
-46.537915
-60.839703
-40.886934
-6.100897
15.551274
12.917742
-10.523201
-26.844425
-10.361895
8.804816
7.375568
9.008205
10.550701
0.270121
-8.838646
-6.019650
-6.162267
-12.037443
-17.870537
-33.805746
-51.326837
-71.131289
-83.809267
-79.473226
-75.920645
-64.267981
-49.317822
-56.907726
-75.778312
-68.417533
-19.203207
45.632264
64.796638
32.851673
25.735845
31.947670
23.691461
30.497636
27.993208
13.488801
7.302423
13.118102
34.422704
45.936393
31.251707
20.222475
33.302305
29.648144
-0.035541
-14.852449
