EVENT_NAME: 202302060117
EVENT_ID: 13194
EVENT_DATE_YYYYMMDD: 2023/02/06
EVENT_TIME_HHMMSS: 01:17:32.00000
EVENT_LATITUDE_DEGREE: 37.288
EVENT_LONGITUDE_DEGREE: 37.043
EVENT_DEPTH_KM: 8.6
HYPOCENTER_REFERENCE: AFAD
MAGNITUDE_W: 7.7
MAGNITUDE_W_REFERENCE: AFAD
MAGNITUDE_L: 
MAGNITUDE_L_REFERENCE: 
FOCAL_MECHANISM: 
NETWORK: TK
STATION_CODE: 0603
STATION_NAME: 
STATION_LATITUDE_DEGREE: 39.55831
STATION_LONGITUDE_DEGREE: 33.11857
STATION_ELEVATION_M: 1305.0
LOCATION: Kahramanmaras_Pazarck_Turkiye
SENSOR_DEPTH_M: 
VS30_M/S: 450
SITE_CLASSIFICATION_EC8: B
MORPHOLOGIC_CLASSIFICATION: 
EPICENTRAL_DISTANCE_KM: 424.91
EARTHQUAKE_BACKAZIMUTH_DEGREE: 
DATE_TIME_FIRST_SAMPLE_YYYYMMDD_HHMMSS: 2023/02/06 01:18:06.0389260
DATE_TIME_FIRST_SAMPLE_PRECISION: millisecond
SAMPLING_INTERVAL_S: 0.01
NDATA: 21001
DURATION_S: 
STREAM: HNZ
UNITS: cm/s^2
INSTRUMENT: sensor = CMG-5T/GURALP | digitizer = 
INSTRUMENT_ANALOG/DIGITAL: 
INSTRUMENTAL_FREQUENCY_HZ: 
INSTRUMENTAL_DAMPING: 
FULL_SCALE_G: 
N_BIT_DIGITAL_CONVERTER: 
PGA_CM/S^2: 2.098
TIME_PGA_S: 
BASELINE_CORRECTION: BASELINE REMOVED
FILTER_TYPE: BUTTERWORTH
FILTER_ORDER: 
LOW_CUT_FREQUENCY_HZ: 
HIGH_CUT_FREQUENCY_HZ: 
LATE/NORMAL_TRIGGERED: 
DATABASE_VERSION: 
HEADER_FORMAT: DYNA 1.2
DATA_TYPE: Acceleration
PROCESSING: Automatic Paolucci et al., 2011
DATA_TIMESTAMP_YYYYMMDD_HHMMSS: 
DATA_LICENSE: U (unknown license)
DATA_CITATION: Turkish Accelerometric Archive v 1.0 - Disaster And Emergency Management Presidency, Earthquake Department
DATA_CREATOR: AFAD
ORIGINAL_DATA_MEDIATOR_CITATION: : AFAD - Disaster And Emergency Management Presidency
ORIGINAL_DATA_MEDIATOR: AFAD PROCESS SERVICE
ORIGINAL_DATA_CREATOR_CITATION: AFAD PROCESS SERVICE
ORIGINAL_DATA_CREATOR: network: TK
USER1: GuestUser
USER2: 
USER3: 
USER4: 
USER5: 
[...]
-0.256406
-0.266129
-0.272402
-0.282439
-0.287457
-0.294044
-0.304394
-0.315372
-0.326036
-0.340778
-0.354265
-0.373398
-0.391276
-0.413231
-0.441460
-0.459338
-0.486939
-0.510463
-0.535869
-0.559079
-0.579466
-0.601735
-0.615850
-0.635296
-0.650978
-0.660388
-0.673561
-0.683912
-0.693949
-0.707749
-0.718100
-0.735037
-0.749779
-0.772675
-0.789926
-0.806549
-0.827564
-0.844187
-0.863006
-0.870848
-0.884335
-0.890294
-0.891549
-0.891549
-0.891235
-0.894999
-0.891235
-0.891863
-0.897508
-0.901900
-0.918209
-0.934833
-0.950829
-0.976549
-1.004463
-1.027360
-1.052766
-1.081935
-1.106713
-1.127101
-1.141529
-1.158466
-1.167875
-1.174148
-1.177599
-1.177285
-1.176031
-1.169130
-1.160975
-1.153448
-1.139334
-1.128983
-1.116751
-1.100441
-1.086014
-1.061863
-1.042103
-1.013247
-0.979373
-0.946753
-0.904411
-0.867400
-0.819412
-0.773305
-0.729081
-0.680779
-0.634986
-0.587939
-0.546223
-0.507331
-0.468438
-0.437387
-0.404454
-0.382185
-0.366189
-0.341097
-0.330746
-0.315064
-0.304086
-0.297186
-0.294363
-0.288090
-0.288718
-0.294050
-0.295932
-0.308164
-0.316005
-0.328238
-0.341411
-0.354584
-0.370581
-0.385009
-0.399750
-0.417628
-0.433311
-0.445543
-0.461539
-0.480672
-0.487572
-0.506078
-0.520506
-0.530229
-0.540893
-0.547793
-0.565672
-0.565672
-0.575395
-0.575081
-0.571004
-0.575395
-0.561908
-0.559713
-0.544971
-0.530230
-0.515175
-0.488828
-0.469382
-0.443663
-0.420453
-0.393479
-0.362114
-0.335140
-0.310675
-0.285584
-0.265510
-0.241673
-0.218776
-0.201212
-0.180825
-0.166711
-0.155106
-0.137541
-0.124054
-0.110254
-0.094258
-0.079830
-0.059443
-0.042506
-0.025255
-0.013336
0.001091
0.019283
0.031829
0.044061
0.057234
0.072290
0.082640
0.093304
0.102400
0.112750
0.124041
0.129060
0.137842
0.146310
0.153211
0.165757
0.169207
0.177675
0.185516
0.194298
0.199317
0.203394
0.210608
0.211549
0.215626
0.211549
0.215313
0.214685
0.214058
0.218135
0.215626
0.211235
0.203707
0.193670
0.186456
0.175479
0.163873
0.152268
0.135331
0.119021
0.102711
0.085147
0.071346
0.057859
0.034649
0.019908
0.002343
-0.016789
-0.034668
-0.050977
-0.068228
-0.082970
-0.098339
-0.114335
-0.125313
-0.139113
-0.146641
-0.156364
-0.165774
-0.170792
-0.173301
-0.179888
-0.180829
-0.188357
-0.194630
-0.197766
-0.211567
-0.222545
-0.233523
-0.251714
-0.275238
-0.294057
-0.314758
-0.337968
-0.362433
-0.383448
-0.406658
-0.424850
-0.442100
-0.457156
-0.465311
-0.475034
-0.478170
-0.480680
-0.476916
-0.465938
-0.455274
-0.441474
-0.427046
-0.407286
-0.391290
-0.375921
-0.350515
-0.339224
-0.322914
-0.309114
-0.295313
-0.283395
-0.279004
-0.267085
-0.271476
-0.273358
-0.273985
-0.284336
-0.295000
-0.304410
-0.320720
-0.339539
-0.354280
-0.377177
-0.396623
-0.417638
-0.447748
-0.466881
-0.496991
-0.525220
-0.544980
-0.567876
-0.584186
-0.605514
-0.612415
-0.619942
-0.630293
-0.626529
-0.628097
-0.615238
-0.602692
-0.590773
-0.564740
-0.547176
-0.517379
-0.498560
-0.472528
-0.440849
-0.413875
-0.382824
-0.357732
-0.325112
-0.298766
-0.271165
-0.244818
-0.221922
-0.196203
-0.171424
-0.153860
-0.122809
-0.102735
-0.081721
-0.052552
-0.036242
-0.012404
0.011119
0.029311
0.046562
0.065067
0.071653
0.079808
0.097059
0.101136
0.107409
0.117132
0.117760
0.123405
0.125601
0.126228
0.129051
0.129678
0.129364
0.138146
0.142537
0.142224
0.154770
0.159474
0.166688
0.180175
0.192407
0.198053
0.209972
0.222831
0.226909
0.242591
0.249805
0.256078
0.267369
0.273956
0.278974
0.290579
0.298420
0.306889
0.320062
0.321316
0.334490
0.342645
0.343585
0.350799
0.354249
0.353622
0.357072
0.355504
0.351426
0.350799
0.346721
0.336057
0.329784
0.326961
0.322570
0.319120
0.314102
0.307201
0.304692
0.306260
0.299673
0.297164
0.291518
0.293087
0.288695
0.275208
0.267053
0.261721
0.251057
0.243843
0.227220
0.212792
0.205578
0.185190
0.177036
0.169508
0.165744
0.152884
0.151002
0.153512
0.156648
0.160098
0.165744
0.174212
0.180485
0.185503
0.187699
0.195226
0.192090
0.193344
0.194913
0.195226
0.190835
0.189894
0.188639
0.185503
0.189267
0.188326
0.189266
0.195853
0.193030
0.198989
0.208399
0.213104
0.218749
0.227531
0.234432
0.241645
0.252309
0.255760
0.261405
0.273951
0.279597
0.288065
0.300611
0.306884
0.319116
0.324448
0.335740
0.340758
0.351108
0.355813
0.358009
0.364909
0.359890
0.362713
0.356440
0.357381
0.358008
0.354872
0.356126
0.352990
0.358322
0.355812
0.356126
0.358949
0.358949
0.362085
0.366163
0.363967
0.357380
0.360203
0.360203
0.355184
0.345461
0.339816
0.333542
0.334483
0.321624
0.316919
0.313782
0.301236
0.304059
0.292140
0.285240
0.273949
0.268616
0.256070
0.249797
0.244465
0.230351
0.226901
0.212786
0.209336
0.196163
0.184244
0.173894
0.162602
0.155388
0.143783
0.140333
0.132805
0.125905
0.123082
0.119632
0.114927
0.110222
0.104263
0.099558
0.097990
0.097362
0.093285
0.085757
0.083561
0.076034
0.071643
0.066311
0.055646
0.055646
0.045610
0.040277
0.040277
0.033063
0.028986
0.018635
0.018949
0.014244
0.007657
0.007971
-0.004575
-0.001125
-0.012103
-0.011789
-0.009907
-0.020571
-0.006144
-0.009908
0.002325
0.005775
0.008598
0.019575
0.018634
0.020516
0.018321
0.015498
0.003893
-0.002380
-0.015554
-0.028727
-0.042214
-0.058838
-0.078911
-0.091144
-0.107140
-0.133800
-0.148228
-0.172693
-0.197158
-0.227268
-0.259574
-0.293448
-0.320736
-0.353355
-0.390680
-0.410126
-0.442746
-0.465015
-0.488539
-0.512063
-0.526804
-0.541859
-0.560051
-0.570715
-0.580125
-0.591730
-0.598317
-0.609294
-0.611176
-0.627800
-0.634700
-0.647560
-0.661674
-0.674220
-0.692098
-0.699940
-0.716563
-0.727541
-0.733814
-0.750124
-0.746360
-0.754515
-0.760475
-0.755770
-0.760475
-0.755770
-0.756397
-0.754829
-0.761102
-0.752634
-0.755770
-0.753888
-0.748870
-0.756084
-0.756084
-0.753575
-0.753575
-0.753261
-0.751066
-0.750752
-0.742911
-0.744793
-0.746989
-0.742911
-0.740402
-0.741657
-0.746048
-0.756712
-0.757653
-0.771140
-0.774277
-0.788077
-0.799369
-0.800310
-0.815051
-0.821952
-0.824461
-0.830734
-0.840457
-0.838262
-0.847671
-0.844221
-0.847672
-0.851749
-0.851122
-0.850808
-0.848299
-0.846731
-0.839203
-0.837008
-0.823835
-0.811916
-0.800311
-0.783060
-0.766751
-0.737581
-0.711862
-0.687084
-0.658228
-0.629686
-0.597694
-0.570720
-0.537473
-0.509245
-0.478821
-0.450906
-0.430205
-0.403545
-0.380021
-0.360575
-0.330151
-0.310391
-0.283104
-0.261776
-0.238879
-0.207201
-0.187127
-0.151685
-0.133493
-0.107460
-0.086132
-0.065431
-0.045044
-0.023402
-0.003329
0.014863
0.035250
0.042777
0.063792
0.076965
0.092020
0.097979
0.109898
0.119621
0.121503
0.122130
0.120562
0.120876
0.109270
0.107075
0.095470
0.089510
0.072573
0.063791
0.057832
0.043717
0.038072
0.019252
0.020193
0.006393
-0.009603
-0.016817
-0.027482
-0.046614
-0.057278
-0.071393
-0.091780
-0.103699
-0.118127
-0.136319
-0.155138
-0.165174
-0.189012
-0.196853
-0.207204
-0.222259
-0.229159
-0.232296
-0.240451
-0.248292
-0.244842
-0.242646
-0.246097
-0.236060
-0.231355
-0.234805
-0.223514
-0.224141
-0.219123
-0.220064
-0.218496
-0.215360
-0.226024
-0.226965
-0.244529
-0.256762
-0.268367
-0.289381
-0.307573
-0.331724
-0.348348
-0.369676
-0.390063
-0.405746
-0.425506
-0.446520
-0.454362
-0.477572
-0.486040
-0.496391
-0.516151
-0.516151
-0.530579
-0.534343
-0.543439
-0.550025
-0.544380
-0.544066
-0.537793
-0.525247
-0.519288
-0.503292
-0.490119
-0.473809
-0.447462
-0.421429
-0.399160
-0.367795
-0.336431
-0.304752
-0.265232
-0.234808
-0.188702
-0.151377
-0.117503
-0.080179
-0.044109
-0.010863
0.021130
0.050926
0.081350
0.106756
0.129652
0.155058
0.171367
0.197400
0.214024
0.235038
0.245702
0.265462
0.278635
0.289927
0.312196
0.318469
0.345442
0.343874
0.360184
0.371475
0.372416
0.388412
0.381512
0.395626
0.399390
0.403781
0.412563
0.414758
0.429500
0.446437
0.462433
0.482193
0.500384
0.528299
0.546491
0.573151
0.609221
0.634626
0.677910
0.705825
0.745031
0.780473
0.824384
0.870177
0.914715
0.967722
1.006614
1.064326
1.107923
1.159989
1.205468
1.245301
1.284194
1.313363
1.347237
1.369193
1.394285
1.410281
1.420004
1.433177
1.434432
1.444782
1.449487
1.445096
1.448232
1.442900
1.434745
1.425963
1.417808
1.401498
1.386756
1.369192
1.355078
1.336259
1.317126
1.297366
1.276979
1.260669
1.247495
1.226794
1.211739
1.200448
1.184765
1.178492
1.161555
1.161869
1.147441
1.134895
1.133013
1.112625
1.105411
1.090670
1.076242
1.063382
1.047072
1.030449
1.010689
0.996888
0.981206
0.963641
0.943568
0.938863
0.917534
0.903734
0.896206
0.880524
0.870173
0.854491
0.841004
0.834731
0.828144
0.812775
0.808384
0.799915
0.799915
0.789565
0.787369
0.783291
0.777646
0.769804
0.760395
0.751299
0.735303
0.721816
0.702683
0.693274
0.675082
0.665359
0.652813
0.643403
0.634307
0.631171
0.628661
0.628975
0.632111
0.632111
0.643716
0.651557
0.669749
0.682609
0.708014
0.723383
0.746907
0.774821
0.788936
0.821869
0.842883
0.871739
0.895890
0.915963
0.935410
0.955170
0.977125
0.987162
1.007863
1.021036
1.026054
1.039855
1.045500
1.042050
1.046755
1.043618
1.039227
1.029817
1.011939
1.003471
0.986847
0.971478
0.961442
0.940741
0.926313
0.910316
0.892125
0.875501
0.852918
0.837549
0.818417
0.800852
0.781406
0.759450
0.746277
0.729967
0.711462
0.702680
0.694525
0.678215
0.673510
0.672569
0.662846
0.666296
0.665669
0.667550
0.671628
0.676019
0.687310
0.690760
0.699229
0.707697
0.719616
0.725575
0.740317
0.749412
0.765095
0.773563
0.781404
0.801164
0.799596
0.816847
0.816219
0.818101
0.822806
0.825315
0.823747
0.819669
0.823747
0.822492
0.821551
0.821237
0.826569
0.819669
0.825628
0.825942
0.824687
0.826569
0.825628
0.819668
0.811200
0.806809
0.796458
0.787049
0.772934
0.761329
0.751920
0.740628
0.726514
0.714282
0.701736
0.682289
0.677584
0.663784
0.651865
0.646847
0.632105
0.630537
0.613599
0.612031
0.601053
0.585684
0.586939
0.564356
0.558710
0.551183
0.529541
0.531109
0.517308
0.506958
0.504762
0.492530
0.491275
0.484061
0.480611
0.474652
0.469947
0.465242
0.459910
0.450814
0.445168
0.437327
0.426976
0.426663
0.414744
0.410667
0.400002
0.397179
0.397493
0.389024
0.394984
0.393729
0.394356
0.396552
0.398120
0.409411
0.412861
0.419762
0.433562
0.439521
0.452381
0.460536
0.469004
0.482491
0.481550
0.483432
0.489391
0.487509
0.485314
0.487509
0.490332
0.486255
0.487823
0.492527
0.502251
0.514169
0.516365
0.531733
0.538320
0.544907
0.563726
0.567489
0.579722
0.594149
0.599168
0.614536
0.625514
0.633983
0.643392
0.651547
0.652488
0.655938
0.660329
0.666916
0.667856
0.674757
0.680402
0.676011
0.692007
0.693575
0.695144
0.702671
0.709885
0.716785
0.722745
0.729331
0.739368
0.749405
0.757559
0.771046
0.790179
0.791433
0.800529
0.823112
0.835658
0.848204
0.857927
0.880196
0.897133
0.919088
0.940730
0.959863
0.976172
0.996873
1.016319
1.035766
1.050194
1.068385
1.091909
1.101318
1.117314
1.128919
1.143974
1.148679
1.159970
1.167184
1.174398
1.177535
1.177221
1.183494
1.176594
1.176907
1.175339
1.160911
1.153697
1.141151
1.127350
1.108217
1.085948
1.070893
1.042351
1.023845
0.998753
0.978680
0.957038
0.938219
0.914695
0.892112
0.878625
0.856356
0.838792
0.824050
0.814954
0.797390
0.784530
0.772925
0.759438
0.743442
0.725564
0.707685
0.687612
0.662520
0.635860
0.606690
0.579402
0.550547
0.523259
0.493776
0.463665
0.435437
0.406895
0.372707
0.358906
0.329423
0.292412
0.292099
0.251951
0.244110
0.229996
0.216822
0.209608
0.192671
0.196121
0.191417
0.198944
0.203962
0.216195
0.225918
0.230309
0.243482
0.267633
0.277670
0.296175
0.306212
0.326599
0.343850
0.353259
0.364550
0.379606
0.396229
0.398738
0.404070
0.404070
0.420693
0.424143
0.433867
0.445472
0.451431
0.456449
0.463977
0.462408
0.454567
0.452058
0.442335
0.422261
0.411283
0.388073
0.357649
0.332243
0.290214
0.258222
0.215565
0.179496
0.137466
0.096692
0.060309
0.026121
-0.020927
-0.055428
-0.086480
-0.127254
-0.153287
-0.177125
-0.200021
-0.226681
-0.243932
-0.265574
-0.280316
-0.298508
-0.310740
-0.317954
-0.326736
-0.336459
-0.343046
-0.350260
-0.363120
-0.371902
-0.376607
-0.385703
-0.399503
-0.419263
-0.426477
-0.440905
-0.458783
-0.469134
-0.493599
-0.508654
-0.532805
-0.546292
-0.567934
-0.587380
-0.610904
-0.634114
-0.657638
-0.685553
-0.712840
-0.746715
-0.769925
-0.805367
-0.827950
-0.854924
-0.883153
-0.902285
-0.926436
-0.942119
-0.954665
-0.971916
-0.978816
-0.993558
-1.005790
-1.008927
-1.014886
-1.024923
-1.029000
-1.029941
-1.038724
-1.038410
-1.046879
-1.051583
-1.055347
-1.067893
-1.072598
-1.082635
-1.097063
-1.107100
-1.121841
-1.133446
-1.147874
-1.169203
-1.189276
-1.209350
-1.230365
-1.257025
-1.281176
-1.303131
-1.326028
-1.357393
-1.381858
-1.403813
-1.444588
-1.461525
-1.485362
-1.521746
-1.551856
-1.578830
-1.606118
-1.635601
-1.658811
-1.684217
-1.710877
-1.736910
-1.764198
-1.793053
-1.813754
-1.843237
-1.866134
-1.895303
-1.923532
-1.944547
-1.966816
-1.988771
-2.004767
-2.015118
-2.032682
-2.035505
-2.042719
-2.045229
-2.043347
-2.048679
-2.044288
-2.048365
-2.048052
-2.044602
-2.049620
-2.051188
-2.063421
-2.065930
-2.071576
-2.074085
-2.076594
-2.084122
-2.088199
-2.092904
-2.092591
-2.098236
-2.096041
-2.095414
-2.096982
-2.091023
-2.080672
-2.075027
-2.069067
-2.060913
-2.054012
-2.042407
-2.031116
-2.021393
-2.011043
-1.998183
-1.985951
-1.974032
-1.961800
-1.948313
-1.930435
-1.923221
-1.914439
-1.902207
-1.894679
-1.886211
-1.881192
-1.875860
-1.869901
-1.857669
-1.856101
-1.851710
-1.840418
-1.834459
-1.821599
-1.807485
-1.792116
-1.771102
-1.749460
-1.728759
-1.697081
-1.665402
-1.635919
-1.602672
-1.569739
-1.533983
-1.497914
-1.466549
-1.430793
-1.395978
-1.363672
-1.328543
-1.293728
-1.261108
-1.228175
-1.192733
-1.163877
-1.137217
-1.102716
-1.075428
-1.052218
-1.021794
-0.995134
-0.967533
-0.942127
-0.915467
-0.895707
-0.869361
-0.844269
-0.822313
-0.799103
-0.782794
-0.752056
-0.732923
-0.711909
-0.689013
-0.676780
-0.649493
-0.630988
-0.608719
-0.585509
-0.560730
-0.529679
-0.510546
-0.477300
-0.445307
-0.413942
-0.383832
-0.358740
-0.322043
-0.291306
-0.260254
-0.225439
-0.197838
-0.169296
-0.145145
-0.115976
-0.095902
-0.076142
-0.051991
-0.040386
-0.024704
-0.010904
0.003211
0.011052
0.015129
0.012306
0.009797
0.009797
0.004779
0.001015
-0.009649
-0.022823
-0.035055
-0.056070
-0.073634
-0.092767
-0.117232
-0.136051
-0.161143
-0.183412
-0.209759
-0.233910
-0.254297
-0.274057
-0.288485
-0.302599
-0.316086
-0.327064
-0.333651
-0.341178
-0.340551
-0.343060
-0.349647
-0.349333
-0.345570
-0.343374
-0.335533
-0.328946
-0.318282
-0.305737
-0.299777
-0.285663
-0.277508
-0.265590
-0.256494
-0.246457
-0.236734
-0.232657
-0.215406
-0.213524
-0.203487
-0.194078
-0.190001
-0.183414
-0.180278
-0.169927
-0.170241
-0.163968
-0.159263
-0.153618
-0.149540
-0.147972
-0.138563
-0.132290
-0.124762
-0.116294
-0.107511
-0.100611
-0.095593
-0.088693
-0.083047
-0.078342
-0.072069
-0.067051
-0.059524
-0.055133
-0.048546
-0.037882
-0.029727
-0.024081
-0.018749
-0.009654
-0.003067
0.004774
0.013556
0.022338
0.026416
0.035198
0.042725
0.045862
0.051194
0.055899
0.058094
0.057467
0.061544
0.060603
0.063426
0.062798
0.064367
0.063112
0.063112
0.067817
0.064366
0.065621
0.065307
0.068444
0.071580
0.074717
0.076598
0.076912
0.072835
0.070012
0.065307
0.058406
0.051820
0.041156
0.027355
0.013241
0.002263
-0.013733
-0.026907
-0.042903
-0.056704
-0.075523
-0.094655
-0.114729
-0.133548
-0.148917
-0.164599
-0.179027
-0.189378
-0.193455
-0.199728
-0.201924
-0.199101
-0.190319
-0.184046
-0.174950
-0.160523
-0.149231
-0.139822
-0.121944
-0.112221
-0.101243
-0.092147
-0.085874
-0.082424
-0.081170
-0.058901
-0.048550
-0.024399
-0.005267
0.013866
0.041153
0.050876
0.078478
0.109215
0.141207
0.174768
0.210210
0.243143
0.271999
0.306187
0.343197
0.375503
0.407182
0.440115
0.464580
0.485594
0.514136
0.541424
0.558988
0.581257
0.600703
0.631127
0.649946
0.662178
0.691975
0.716440
0.734631
0.748746
0.765055
0.780738
0.790461
0.805516
0.818689
0.828099
0.845977
0.862914
0.878282
0.890828
0.905570
0.919684
0.935994
0.953872
0.968927
0.978336
0.990882
1.009074
1.024129
1.036675
1.052985
1.069608
1.085290
1.098150
1.113832
1.128260
1.132965
1.149588
1.154607
1.164330
1.169034
1.178130
1.181894
1.182521
1.190676
1.186285
1.191617
1.188480
1.187226
1.180639
1.177502
1.172484
1.162133
1.163701
1.157428
1.150214
1.149587
1.149901
1.150214
1.152410
1.158055
1.152410
1.148332
1.157428
1.164014
1.161505
1.164955
1.170915
1.175619
1.178442
1.176560
1.183774
1.187538
1.187851
1.183460
1.181265
1.174678
1.173737
1.165268
1.150213
1.144567
1.127630
1.117280
1.109125
1.100029
1.083405
1.068036
1.055490
1.035103
1.016598
1.006247
0.989310
0.972059
0.956690
0.934421
0.919680
0.904311
0.888942
0.871064
0.862909
0.847226
0.832798
0.826839
0.815861
0.812724
0.803629
0.808333
0.809274
0.797042
0.801433
0.807706
0.799551
0.797669
0.795787
0.791396
0.785750
0.786377
0.784809
0.776340
0.774458
0.766931
0.765990
0.768812
0.764421
0.756580
0.753130
0.746229
0.740897
0.729292
0.718628
0.712355
0.700750
0.689772
0.669071
0.660289
0.642724
0.622964
0.606341
0.577485
0.553648
0.524478
0.501895
0.471158
0.442929
0.412505
0.378944
0.347893
0.317155
0.291122
0.264776
0.237488
0.209260
0.194518
0.176013
0.154371
0.133670
0.127083
0.119869
0.109519
0.103246
0.095718
0.092895
0.096031
0.097600
0.095718
0.106695
0.118614
0.128337
0.134924
0.137433
0.149979
0.164093
0.171934
0.190126
0.201731
0.215218
0.229332
0.237800
0.259442
0.279202
0.292689
0.308685
0.329699
0.341932
0.350400
0.366710
0.379569
0.386783
0.397761
0.400897
0.402152
0.403406
0.397133
0.391174
0.377373
0.367023
0.351968
0.333776
0.313702
0.288610
0.266027
0.239681
0.217411
0.191065
0.170050
0.151545
0.129276
0.100106
0.088501
0.075328
0.065291
0.049295
0.008520
0.021066
-0.000262
-0.019395
-0.013436
-0.025041
-0.029745
-0.045114
-0.037587
-0.036646
-0.037901
-0.029746
-0.022218
-0.016886
-0.009986
-0.001831
0.007265
0.016360
0.020751
0.029534
0.034238
0.041139
0.048666
0.059644
0.061212
0.062780
0.069680
0.064976
0.066857
0.068112
0.063093
0.064348
0.061525
0.054938
0.048979
0.048352
0.046783
0.043647
0.045529
0.038315
0.036433
0.037060
0.037373
0.040196
0.042078
0.038942
0.039255
0.040196
0.036119
0.039255
0.040196
0.038314
0.036746
0.032354
0.023259
0.018867
0.008203
0.002244
-0.002775
-0.017203
-0.030062
-0.039472
-0.046059
-0.067387
-0.084951
-0.101575
-0.126980
-0.149563
-0.167441
-0.198179
-0.229858
-0.260909
-0.291647
-0.321130
-0.347163
-0.375705
-0.410834
-0.433730
-0.456313
-0.482660
-0.507752
-0.520925
-0.539744
-0.558563
-0.573305
-0.587733
-0.599338
-0.609061
-0.619098
-0.629449
-0.635408
-0.638545
-0.641054
-0.646072
-0.644818
-0.642936
