EVENT_NAME: 202302060117
EVENT_ID: 13194
EVENT_DATE_YYYYMMDD: 2023/02/06
EVENT_TIME_HHMMSS: 01:17:32.00000
EVENT_LATITUDE_DEGREE: 37.288
EVENT_LONGITUDE_DEGREE: 37.043
EVENT_DEPTH_KM: 8.6
HYPOCENTER_REFERENCE: AFAD
MAGNITUDE_W: 7.7
MAGNITUDE_W_REFERENCE: AFAD
MAGNITUDE_L: 
MAGNITUDE_L_REFERENCE: 
FOCAL_MECHANISM: 
NETWORK: TK
STATION_CODE: 3302
STATION_NAME: 
STATION_LATITUDE_DEGREE: 36.1613
STATION_LONGITUDE_DEGREE: 33.57584
STATION_ELEVATION_M: 17.0
LOCATION: Kahramanmaras_Pazarck_Turkiye
SENSOR_DEPTH_M: 
VS30_M/S: 1007
SITE_CLASSIFICATION_EC8: A
MORPHOLOGIC_CLASSIFICATION: 
EPICENTRAL_DISTANCE_KM: 333.41
EARTHQUAKE_BACKAZIMUTH_DEGREE: 
DATE_TIME_FIRST_SAMPLE_YYYYMMDD_HHMMSS: 2023/02/06 01:17:57.2254070
DATE_TIME_FIRST_SAMPLE_PRECISION: millisecond
SAMPLING_INTERVAL_S: 0.01
NDATA: 18251
DURATION_S: 
STREAM: HNE
UNITS: cm/s^2
INSTRUMENT: sensor = CMG-5T/GURALP | digitizer = 
INSTRUMENT_ANALOG/DIGITAL: 
INSTRUMENTAL_FREQUENCY_HZ: 
INSTRUMENTAL_DAMPING: 
FULL_SCALE_G: 
N_BIT_DIGITAL_CONVERTER: 
PGA_CM/S^2: 6.868
TIME_PGA_S: 
BASELINE_CORRECTION: BASELINE REMOVED
FILTER_TYPE: BUTTERWORTH
FILTER_ORDER: 
LOW_CUT_FREQUENCY_HZ: 
HIGH_CUT_FREQUENCY_HZ: 
LATE/NORMAL_TRIGGERED: 
DATABASE_VERSION: 
HEADER_FORMAT: DYNA 1.2
DATA_TYPE: Acceleration
PROCESSING: Automatic Paolucci et al., 2011
DATA_TIMESTAMP_YYYYMMDD_HHMMSS: 
DATA_LICENSE: U (unknown license)
DATA_CITATION: Turkish Accelerometric Archive v 1.0 - Disaster And Emergency Management Presidency, Earthquake Department
DATA_CREATOR: AFAD
ORIGINAL_DATA_MEDIATOR_CITATION: : AFAD - Disaster And Emergency Management Presidency
ORIGINAL_DATA_MEDIATOR: AFAD PROCESS SERVICE
ORIGINAL_DATA_CREATOR_CITATION: AFAD PROCESS SERVICE
ORIGINAL_DATA_CREATOR: network: TK
USER1: GuestUser
USER2: 
USER3: 
USER4: 
USER5: 
[...]
-0.305787
-0.391704
-0.523933
-0.597713
-0.654884
-0.656481
-0.485285
-0.247336
-0.066239
0.230480
0.691686
1.133410
1.448972
1.818832
2.119382
2.148767
2.015899
1.718862
1.247755
0.638988
-0.095301
-0.601861
-0.746227
-0.726424
-0.378283
0.057052
0.239427
0.310652
0.403596
0.482807
0.576709
0.643463
0.724589
0.777609
0.789746
0.778887
0.713411
0.614719
0.508360
0.552437
0.714690
0.920700
1.002785
0.910799
0.885567
0.894191
1.000550
1.189951
1.189313
0.939546
0.745354
0.625262
0.474189
0.330142
0.385717
0.586297
0.630374
0.645386
0.664230
0.809555
1.090623
1.236267
1.242655
1.353486
1.499449
1.532667
1.568759
1.645733
1.784031
1.823317
1.726541
1.609323
1.413854
1.172072
1.066991
1.070185
1.110429
1.196347
1.312926
1.451225
1.551515
1.402358
1.008863
0.427245
-0.250830
-0.835642
-1.251494
-1.625186
-2.180294
-2.682382
-2.933746
-2.997305
-2.831858
-2.607004
-2.397481
-2.198817
-2.128230
-2.178694
-2.268125
-2.380552
-2.436126
-2.299425
-2.048061
-1.749746
-1.507325
-1.300676
-1.080612
-0.926344
-0.723848
-0.459069
-0.378901
-0.481426
-0.676257
-0.785809
-0.723846
-0.431280
0.090931
0.653066
1.179749
1.573243
1.753382
1.838342
1.856867
1.702919
1.443570
1.141742
0.899641
0.692993
0.493691
0.284807
0.205916
0.354435
0.526589
0.625602
0.720143
0.960967
1.204346
1.194765
1.037942
0.884633
0.821712
0.858443
0.933182
1.257048
1.750833
2.272725
2.724349
2.878937
2.721475
2.189683
1.396945
0.628481
0.186758
-0.082172
-0.383361
-0.704034
-0.847442
-0.723836
-0.448836
-0.176392
0.209437
0.595267
0.836729
0.961294
0.989081
1.065098
1.041463
0.909553
0.880169
0.928717
0.877295
0.890071
0.958421
1.219048
1.555052
1.670034
1.602961
1.464025
1.361819
1.169543
0.760718
0.246173
-0.364191
-1.023741
-1.545313
-1.855125
-1.996936
-1.896966
-1.690317
-1.493250
-1.288517
-0.968164
-0.725424
-0.654518
-0.556144
-0.355244
-0.055013
0.115544
0.267577
0.435579
0.456340
0.430788
0.396933
0.303989
0.285464
0.315488
0.345192
0.431428
0.476783
0.315489
0.037615
-0.348852
-0.810697
-1.364528
-1.910373
-2.262346
-2.394576
-2.272567
-2.067515
-1.870448
-1.694461
-1.602156
-1.559676
-1.531569
-1.360053
-1.141906
-0.851257
-0.497048
-0.125910
0.201789
0.517671
0.904458
1.266972
1.480967
1.398244
1.283901
1.257710
1.221938
1.100888
0.960674
0.878590
0.897754
0.962910
0.952371
0.705798
0.364046
0.073716
-0.199047
-0.368007
-0.411444
-0.420068
-0.454881
-0.573696
-0.770763
-1.142219
-1.727030
-2.359113
-2.978100
-3.382773
-3.536402
-3.554926
-3.399381
-3.219561
-3.089887
-2.863755
-2.461636
-2.011609
-1.504729
-0.909376
-0.442740
-0.126539
0.152932
0.367246
0.481590
0.456997
0.210424
-0.189458
-0.648748
-1.051504
-1.308617
-1.342153
-1.222061
-1.035853
-0.714222
-0.503102
-0.282719
0.164115
0.589230
0.900321
1.208218
1.486091
1.524738
1.461498
1.282318
0.911501
0.441991
0.088740
-0.125574
-0.250776
-0.186578
-0.069359
-0.180828
-0.367674
-0.337331
-0.220752
-0.004202
0.320623
0.605524
0.780552
0.886592
0.913102
0.830059
0.613510
0.380991
0.285492
0.051695
-0.223623
-0.332537
-0.508842
-0.779689
-0.944177
-0.843568
-0.653208
-0.601466
-0.662150
-0.872312
-1.133577
-1.197456
-1.041591
-0.937468
-0.863048
-0.830470
-0.946410
-1.042867
-0.938425
-0.596672
-0.258113
0.037328
0.435933
1.025536
1.621847
2.011189
2.259040
2.552884
2.876112
3.044433
2.989497
2.918273
2.790834
2.640719
2.542345
2.431835
2.472398
2.641359
2.638804
2.573967
2.517115
2.251059
1.761746
1.148828
0.480973
-0.107672
-0.685776
-1.266755
-1.599565
-1.765650
-2.009028
-2.144452
-2.057576
-1.935567
-1.837512
-1.786090
-1.744249
-1.826972
-2.003597
-2.057574
-2.080890
-2.008387
-1.771396
-1.632139
-1.572731
-1.555484
-1.519392
-1.523544
-1.671423
-1.758937
-1.727317
-1.468926
-1.020815
-0.443349
0.076946
0.443292
0.816984
1.110509
1.360915
1.526042
1.541373
1.382954
1.183332
1.055894
0.862021
0.656331
0.530809
0.349393
0.160631
0.092281
0.194807
0.353866
0.520271
0.890769
1.259032
1.444600
1.595036
1.775494
1.916667
1.978310
1.869077
1.660832
1.538504
1.336647
1.063884
0.744808
0.481947
0.365048
0.194172
-0.052081
-0.276615
-0.527021
-0.762414
-0.821183
-0.683523
-0.307915
0.243361
0.884387
1.416180
1.712259
1.583224
1.175996
0.854365
0.389007
-0.119150
-0.563748
-1.049866
-1.479452
-1.770740
-1.996872
-2.183079
-2.349164
-2.401864
-2.148264
-1.601779
-1.015370
-0.473675
0.069296
0.479080
0.632390
0.741304
0.985322
1.439502
2.002595
2.467635
2.696641
2.891153
2.768505
2.331893
1.993654
1.713225
1.483900
1.298012
1.253617
1.364447
1.575248
1.790840
1.886978
1.888256
1.790202
1.530214
1.091366
0.572988
0.239221
-0.057816
-0.551920
-0.832668
-0.979589
-1.175378
-1.306010
-1.289082
-1.115651
-1.016318
-0.802324
-0.544891
-0.499537
-0.511993
-0.353573
-0.053661
0.253917
0.564050
0.874182
1.041865
1.157806
1.229670
1.290994
1.336348
1.290356
1.176012
1.043464
0.660509
0.264779
0.053660
-0.089748
-0.067710
-0.007344
0.179822
0.284903
0.137343
-0.228684
-0.708095
-1.063901
-0.971276
-0.718315
-0.668489
-0.635272
-0.620260
-0.567240
-0.501764
-0.478768
-0.476531
-0.552228
-0.709689
-0.775804
-0.652198
-0.443952
-0.500165
-0.720547
-1.028125
-1.488372
-1.856315
-2.179543
-2.268653
-2.023039
-1.771036
-1.583870
-1.278209
-0.956578
-0.663373
-0.298624
0.054308
0.368912
0.650299
1.028144
1.259705
1.290368
1.276634
0.985027
0.545220
0.068683
-0.430531
-0.770367
-1.027480
-1.309186
-1.508488
-1.613888
-1.657326
-1.587378
-1.432471
-1.239237
-1.025242
-0.681253
-0.562438
-0.682530
-0.701375
-0.754074
-0.702332
-0.474603
-0.189064
0.062939
0.024612
-0.200881
-0.337901
-0.253900
-0.002855
0.146941
0.254897
0.207307
0.099352
-0.049805
-0.208864
-0.270506
-0.420622
-0.585429
-0.732670
-0.851804
-0.868093
-0.999045
-1.118179
-0.973812
-0.775787
-0.548378
-0.403053
-0.275614
-0.123901
-0.098669
-0.049481
0.039311
0.219450
0.354554
0.242447
0.209549
0.276942
0.155252
0.133534
0.483272
1.002927
1.394506
1.613292
1.780016
1.592531
1.203509
0.934578
0.643290
0.376596
0.195819
0.193264
0.182724
0.007696
0.001628
0.018236
-0.043726
-0.220671
-0.490878
-0.519943
-0.422527
-0.207574
0.046025
0.110224
0.143761
0.459962
1.004211
1.768843
2.623544
3.279901
3.658704
3.454291
2.862452
2.244104
1.770442
1.547824
1.302529
1.124626
0.907118
0.693443
0.624454
0.458369
0.272481
0.095537
-0.055537
-0.225135
-0.491510
-0.723710
-0.853704
-0.986252
-0.898738
-0.793018
-0.745428
-0.657913
-0.571996
-0.440724
-0.189360
0.051783
0.200302
0.400244
0.597949
0.729860
0.797891
0.926927
1.194900
1.375358
1.335753
1.226201
1.052450
0.931081
0.601785
0.168366
-0.136337
-0.654395
-1.165427
-1.407847
-1.599484
-1.675819
-1.647712
-1.557642
-1.357381
-1.080146
-0.625647
-0.061595
0.456463
1.026903
1.560932
1.885118
2.249228
2.632502
2.794755
2.820307
2.634100
2.313108
1.943569
1.551991
1.249843
0.928532
0.802691
0.979317
1.129113
1.120490
1.167122
1.255275
1.313724
1.303504
1.120172
0.791514
0.454553
0.143143
-0.317743
-0.700698
-1.054906
-1.375259
-1.460857
-1.429556
-1.227379
-0.993581
-0.724651
-0.291231
0.107693
0.355544
0.589661
0.883824
1.212801
1.559344
1.907166
2.229755
2.445027
2.451415
2.306091
1.900140
1.387192
0.803339
0.189142
-0.320931
-0.753392
-1.115585
-1.329580
-1.499178
-1.704549
-1.892672
-1.890117
-1.754054
-1.646418
-1.404955
-1.058731
-0.673540
-0.235011
0.254622
0.657060
0.922797
1.147970
1.302238
1.368673
1.413388
1.357175
1.102618
0.701138
0.210229
-0.232452
-0.465930
-0.597201
-0.663954
-0.662676
-0.656927
-0.638402
-0.571968
-0.559191
-0.619876
-0.668743
-0.861338
-0.972168
-0.785322
-0.563981
-0.163140
0.433809
1.142228
1.809763
2.296521
2.730579
2.930840
2.908163
2.748147
2.426836
1.908139
1.255615
0.590316
-0.128003
-0.876665
-1.601052
-2.124860
-2.333105
-2.337576
-2.272739
-2.132205
-1.824308
-1.383862
-0.772540
-0.247454
0.032336
0.276035
0.455215
0.498334
0.641423
0.853182
1.004576
0.996910
0.842324
0.623538
0.215032
-0.233398
-0.486678
-0.568762
-0.556305
-0.508396
-0.351573
0.072265
0.610765
1.078359
1.511140
1.845546
1.823828
1.447581
0.918982
0.495465
0.005833
-0.462081
-0.593991
-0.534583
-0.339432
-0.098289
0.047675
0.230050
0.318203
0.283709
0.094946
-0.110744
-0.203687
-0.311643
-0.322821
-0.272037
-0.299824
-0.484434
-0.624648
-0.646367
-0.608039
-0.340386
0.094630
0.615563
1.054732
1.360393
1.515938
1.540532
1.729295
2.091169
2.419827
2.656499
2.814919
2.773079
2.607313
2.469335
2.280572
2.033680
1.822241
1.601859
1.308335
1.086675
0.939435
0.882902
0.913564
0.975527
0.953489
0.761213
0.411157
-0.001501
-0.359543
-0.579605
-0.733873
-0.773797
-0.559163
-0.353153
-0.107539
0.080905
0.191096
0.485898
0.898876
1.103928
1.109038
1.119898
1.055700
0.951258
0.668913
0.489413
0.431603
0.376987
0.406691
0.506023
0.607271
0.585233
0.394235
0.097198
-0.040780
-0.062179
-0.141708
-0.229542
-0.438745
-0.665835
-0.909852
-1.256715
-1.511911
-1.691730
-1.781160
-1.891671
-1.967687
-1.856218
-1.633599
-1.338478
-0.987463
-0.542545
-0.067285
0.289799
0.450135
0.485588
0.426820
0.524874
0.773683
0.870779
0.988956
0.804026
0.194302
-0.730346
-1.767421
-2.497239
-2.949182
-3.215557
-3.156788
-2.814397
-2.470728
-2.296018
-2.232139
-2.120989
-1.998980
-2.164427
-2.279089
-2.082022
-1.659782
-1.092536
-0.325349
0.645931
1.472525
1.898598
1.896363
1.532253
1.162713
0.951593
0.717477
0.493582
0.200377
-0.180022
-0.543493
-0.912394
-1.173339
-1.444825
-1.839277
-2.290582
-2.747636
-3.086194
-3.388342
-3.589560
-3.497255
-3.514821
-3.506836
-3.349055
-3.128992
-2.877308
-2.844091
-2.770630
-2.554399
-2.271096
-1.873449
-1.471330
-1.006610
-0.531350
-0.010098
0.488798
0.900498
1.190189
1.306769
1.302936
1.329446
1.606043
1.903400
2.090885
2.236210
2.483741
2.453079
2.117395
1.708251
1.184763
0.750386
0.452391
0.248936
0.092114
-0.129866
-0.396880
-0.642175
-0.921645
-1.096034
-1.294059
-1.588541
-1.846292
-2.007906
-1.865455
-1.615688
-1.299487
-0.690081
0.077425
0.778178
1.501927
2.317342
3.098263
3.814347
4.360193
4.559815
4.480925
4.319631
3.980434
3.327910
2.542199
1.745947
0.929574
0.256609
-0.166269
-0.463945
-0.727765
-0.825819
-0.823583
-0.757788
-0.462986
0.098830
0.672783
1.102050
1.345749
1.393339
1.306464
1.108439
0.841745
0.703447
0.661926
0.423019
-0.136561
-0.850089
-1.628454
-2.334956
-2.700982
-2.790093
-2.746655
-2.526592
-2.097005
-1.728743
-1.424040
-1.114865
-0.945905
-0.817508
-0.645354
-0.483420
-0.341928
-0.407723
-0.522066
-0.592652
-0.539313
-0.549534
-0.894480
-1.449907
-2.034719
-2.717585
-3.357972
-3.761368
-4.013051
-4.225448
-4.255471
-4.204367
-3.905413
-3.458580
-3.070834
-2.748884
-2.498478
-2.296620
-2.214855
-1.987764
-1.673799
-1.314160
-0.854231
-0.450516
-0.083850
0.356596
0.936937
1.702527
2.301712
2.785915
3.076564
3.064108
2.743436
2.278717
2.061528
1.959961
1.865740
1.868615
1.839230
1.844660
1.865741
2.022883
2.243266
2.373579
2.562023
2.830953
3.056127
3.203049
3.221574
2.993846
2.364319
1.489816
0.488832
-0.727104
-1.952622
-2.992891
-3.736123
-4.200204
-4.354791
-4.189983
-3.867074
-3.593352
-3.457290
-3.444514
-3.489548
-3.605169
-3.769657
-3.933187
-4.118116
-4.340734
-4.620524
-4.912451
-4.981121
-4.694304
-4.066054
-3.158972
-2.233046
-1.393995
-0.755843
-0.378318
-0.051577
0.323073
0.753618
1.333959
1.724260
1.935380
1.852018
1.584366
1.257625
0.890960
0.763841
0.852952
0.859979
0.797059
0.578912
0.161463
-0.336793
-0.998579
-1.597444
-2.020962
-2.389862
-2.524327
-2.653043
-2.776649
-2.921335
-3.155451
-3.279695
-3.300136
-3.337186
-3.219329
-2.811781
-2.179698
-1.269741
-0.145152
1.031500
1.855219
2.182280
2.174934
1.954233
1.655599
1.290850
0.934086
0.639285
0.272620
-0.102030
-0.273865
-0.319219
-0.493927
-0.682370
-1.060533
-1.462651
-1.660995
-1.714654
-1.510560
-1.107483
-0.503188
0.339376
1.059612
1.579268
2.071136
2.562686
3.054235
3.320291
3.280686
3.067011
2.745700
2.392769
1.973084
1.565217
1.146810
0.817195
0.859355
1.240074
1.993527
2.943727
3.793318
4.399210
4.695929
4.775778
4.703275
4.496307
4.239195
3.979208
3.724331
3.387050
2.884322
2.201776
1.389874
0.491416
-0.355299
-0.907533
-1.140052
-1.165923
-1.160493
-1.255672
-1.559736
-1.909473
-2.296899
-2.733831
-3.162140
-3.516987
-3.683392
-3.525930
-3.130838
-2.546345
-1.840482
-1.226285
-0.724196
-0.173878
0.112939
-0.024720
-0.367431
-0.722917
-0.968532
-1.136214
-1.302938
-1.628720
-2.084177
-2.522706
-2.770237
-2.823895
-2.674099
-2.242915
-1.672476
-1.179010
-0.999510
-1.024103
-1.227238
-1.376395
-1.484031
-1.821312
-2.357256
-3.030221
-3.809545
-4.566830
-5.269498
-5.480938
-5.032507
-4.260848
-3.363987
-2.309345
-1.309638
-0.514345
0.105920
0.447034
0.719159
0.783997
0.578945
0.165968
-0.415650
-0.867913
-1.263324
-1.571859
-1.765412
-1.741138
-1.341255
-0.869508
-0.471542
-0.135538
0.017771
0.155750
0.544454
0.878861
1.250956
1.526914
1.695235
2.022296
2.335942
2.578043
2.567823
2.355106
2.206269
2.044974
2.052640
2.219364
2.517680
2.978567
3.664627
4.610995
5.669150
6.535030
6.868160
6.497981
5.539158
4.423831
3.600431
3.252610
3.283592
3.439137
3.591169
3.433069
2.780226
1.892947
0.951691
-0.112533
-1.400653
-2.617228
-3.583397
-4.359207
-4.984902
-5.450898
-5.535538
-5.097967
-4.433944
-3.687837
-2.792893
-1.905933
-1.076464
-0.272866
0.471644
1.050388
1.377449
1.349023
1.058693
0.620483
0.199841
-0.131052
-0.435755
-0.860231
-1.311216
-1.559705
-1.763798
-1.950644
-1.928605
-1.736649
-1.717804
-2.083192
-2.668642
-3.275812
-3.523023
-3.310625
-2.745296
-2.059555
-1.401921
-1.024396
-1.112229
-1.486879
-1.951598
-2.297822
-2.640213
-3.024765
-3.339049
-3.416981
-3.131122
-2.615619
-1.945528
-1.258190
-0.712663
-0.457147
-0.563185
-0.928892
-1.361353
-1.502845
-1.167160
-0.217599
1.251299
2.825597
4.264790
5.392574
5.965888
5.943212
5.275038
4.286830
3.149465
2.035096
1.186464
0.431734
-0.264227
-0.857024
-1.520726
-2.008442
-2.256293
-2.294300
-2.057948
-1.852896
-1.673076
-1.395841
-1.042271
-0.546250
0.028341
0.627207
1.136642
1.557925
1.983359
2.259636
2.411987
2.471076
2.379729
1.995497
1.399826
0.519254
-0.573396
-1.489739
-1.895051
-2.032072
-2.019615
-1.858959
-1.549146
-1.126905
-0.713608
-0.497697
-0.559659
-1.006812
-1.962761
-2.951926
-3.790019
-4.246753
-4.252182
-3.928955
-3.405785
-2.770189
-2.090517
-1.518799
-1.091129
-0.679110
-0.127834
0.317723
0.530440
0.625620
0.489238
0.300476
0.043044
-0.210555
-0.313081
-0.518132
-0.710088
-0.924082
-1.112525
-1.300010
-1.402535
-1.244754
-1.019580
-0.780992
-0.611393
-0.438600
-0.268362
-0.025941
0.405561
1.023591
1.776724
2.223878
2.273065
1.981138
1.548358
1.077251
0.768715
0.623072
0.672578
0.908292
1.210120
1.513226
1.864880
2.144351
2.284246
2.329281
2.382301
2.309160
2.132535
1.673884
0.972812
0.272699
-0.388129
-0.986994
-1.283073
-1.230053
-1.145733
-0.870095
-0.421664
0.142068
0.933210
1.692731
2.204722
2.588315
2.561806
2.336632
2.040554
1.824323
1.816658
2.125513
2.425745
2.938374
3.517437
3.922111
3.930735
3.625074
2.826587
1.851155
0.835480
-0.282083
-1.161697
-1.686143
-2.040671
-2.163957
-2.123074
-2.170983
-2.214740
-2.062389
-1.744590
-1.551356
-1.509835
-1.362274
-1.306379
-1.262303
-1.199382
-1.075456
-0.755742
-0.240877
0.502036
1.184264
1.813153
2.183651
2.316200
2.206648
2.018205
1.591813
1.200236
1.037664
0.793966
0.440076
0.073092
-0.335095
-1.007101
-1.700508
-1.824113
-1.737237
-1.749694
-1.714879
-1.810378
-2.027886
-2.144465
-2.143506
-1.860842
-1.125914
-0.232566
0.357996
0.783430
0.962930
0.914063
0.937060
1.050765
1.194493
1.192577
1.109854
0.933548
0.691766
0.660785
0.840605
1.398907
2.349746
3.181770
3.694399
3.997825
4.010601
3.818006
3.548437
3.062318
2.243070
1.288080
0.362154
-0.301229
-0.580699
-0.647453
-0.913189
-1.371201
-2.006158
-2.387515
-2.374739
-2.300639
-1.927266
-1.285282
-0.611678
0.107919
0.794618
1.624087
2.317813
2.887614
3.344030
3.590922
3.619029
3.286220
2.875798
2.445892
1.625367
0.824325
0.126766
-0.570472
-1.111208
-1.398663
-1.437310
-1.361293
-1.013791
-0.534699
-0.039956
0.268261
0.531442
0.656645
0.564660
0.376217
-0.054966
-0.503077
-0.797239
-1.042854
-1.324879
-1.728594
-2.217268
-2.846156
-3.231666
-3.234221
-2.980621
-2.694762
-2.331929
-2.085356
-2.135182
-2.501527
-3.102628
-3.483986
-3.795076
-4.383082
-4.858980
-5.018997
-4.811709
-4.332616
-3.643043
-2.712325
-1.711980
-0.919881
-0.247235
0.311707
0.670707
0.975410
1.194196
1.537226
1.779647
1.750902
1.507843
1.018210
0.322249
-0.461546
-1.203181
-1.998474
-2.633431
-2.766299
-2.641415
-2.371845
-2.302217
-2.553261
-2.699544
-2.738510
-2.813248
-2.984443
-3.128810
-3.116672
-3.012230
-3.049280
-3.248901
-3.260719
-2.974860
-2.551981
-2.025298
-1.269929
-0.527655
-0.131605
0.254863
0.783462
1.340487
1.848964
2.210200
2.311768
2.388742
2.523847
2.749659
3.075762
3.444344
3.904273
4.078024
3.965278
3.764059
3.328085
2.705265
2.014734
1.372111
0.864274
0.495053
0.259340
0.451297
0.804548
0.805187
0.701384
0.704258
0.510386
0.154580
-0.206975
-0.478460
-0.709063
-1.039956
-1.375959
-1.566957
-1.718030
-1.807461
-1.772647
-1.616782
-1.414285
-1.240214
-1.035482
-0.708421
-0.239230
0.358358
0.885680
1.207949
1.337624
1.367328
1.254262
1.090732
0.900373
0.669770
0.365387
-0.104762
-0.601101
-1.019828
-1.334112
-1.548107
-1.527346
-1.350081
-0.939020
-0.144365
0.616115
1.138006
1.469539
1.682256
1.791809
1.564400
1.337310
1.155255
0.842248
0.275642
-0.266052
-0.791456
-1.509456
-2.194877
-2.828237
-3.397398
-3.639499
-3.552943
-3.440516
-3.424546
-3.637263
-4.208021
-4.770795
-5.079330
-5.371576
-5.463242
-5.123725
-4.510487
-3.613306
-2.442404
-1.676814
-1.313023
-1.267349
-1.460264
-1.609421
-1.805529
-2.009622
-2.098733
-2.036451
-1.833954
-1.749314
-1.907734
-2.007704
-1.834592
-1.440778
-1.084013
-0.955297
-1.044408
-1.358692
-1.689266
-1.733342
-1.519666
-1.152043
-0.758548
-0.062905
0.820541
1.757646
2.563161
2.896928
2.729246
2.048297
0.967464
-0.076318
-1.190367
-2.190393
-2.710367
-3.134524
-3.455515
-3.243437
-2.585163
-1.634963
-0.647394
0.213695
1.033263
1.477222
1.622866
1.233524
0.425136
-0.409762
-0.958163
-1.051746
-0.855317
-0.534006
-0.152329
-0.012753
-0.125180
-0.418703
-0.673261
-0.881506
-1.102847
-1.387108
-1.454500
-1.481329
-1.532112
-1.461845
-1.338559
-1.241143
-1.332490
-1.337600
-1.331531
-1.257431
-0.789837
-0.163183
0.289719
0.752842
1.199356
1.653217
1.980916
2.228447
2.216949
1.870087
1.239601
0.514256
-0.037978
-0.376856
-0.474910
-0.524735
-0.515472
-0.407836
-0.366314
-0.224503
-0.121338
-0.182981
-0.067360
0.130665
0.294196
0.386501
