EVENT_NAME: 202302060117
EVENT_ID: 13194
EVENT_DATE_YYYYMMDD: 2023/02/06
EVENT_TIME_HHMMSS: 01:17:32.00000
EVENT_LATITUDE_DEGREE: 37.288
EVENT_LONGITUDE_DEGREE: 37.043
EVENT_DEPTH_KM: 8.6
HYPOCENTER_REFERENCE: AFAD
MAGNITUDE_W: 7.7
MAGNITUDE_W_REFERENCE: AFAD
MAGNITUDE_L: 
MAGNITUDE_L_REFERENCE: 
FOCAL_MECHANISM: 
NETWORK: TK
STATION_CODE: 2716
STATION_NAME: 
STATION_LATITUDE_DEGREE: 36.85643
STATION_LONGITUDE_DEGREE: 36.68833
STATION_ELEVATION_M: 415.0
LOCATION: Kahramanmaras_Pazarck_Turkiye
SENSOR_DEPTH_M: 
VS30_M/S: None
SITE_CLASSIFICATION_EC8: unknown
MORPHOLOGIC_CLASSIFICATION: 
EPICENTRAL_DISTANCE_KM: 57.38
EARTHQUAKE_BACKAZIMUTH_DEGREE: 
DATE_TIME_FIRST_SAMPLE_YYYYMMDD_HHMMSS: 2023/02/06 01:17:16.9977600
DATE_TIME_FIRST_SAMPLE_PRECISION: millisecond
SAMPLING_INTERVAL_S: 0.01
NDATA: 10501
DURATION_S: 
STREAM: HNE
UNITS: cm/s^2
INSTRUMENT: sensor = ACEBOX/SARA | digitizer = 
INSTRUMENT_ANALOG/DIGITAL: 
INSTRUMENTAL_FREQUENCY_HZ: 
INSTRUMENTAL_DAMPING: 
FULL_SCALE_G: 
N_BIT_DIGITAL_CONVERTER: 
PGA_CM/S^2: 229.003
TIME_PGA_S: 
BASELINE_CORRECTION: BASELINE REMOVED
FILTER_TYPE: BUTTERWORTH
FILTER_ORDER: 
LOW_CUT_FREQUENCY_HZ: 
HIGH_CUT_FREQUENCY_HZ: 
LATE/NORMAL_TRIGGERED: 
DATABASE_VERSION: 
HEADER_FORMAT: DYNA 1.2
DATA_TYPE: Acceleration
PROCESSING: Automatic Paolucci et al., 2011
DATA_TIMESTAMP_YYYYMMDD_HHMMSS: 
DATA_LICENSE: U (unknown license)
DATA_CITATION: Turkish Accelerometric Archive v 1.0 - Disaster And Emergency Management Presidency, Earthquake Department
DATA_CREATOR: AFAD
ORIGINAL_DATA_MEDIATOR_CITATION: : AFAD - Disaster And Emergency Management Presidency
ORIGINAL_DATA_MEDIATOR: AFAD PROCESS SERVICE
ORIGINAL_DATA_CREATOR_CITATION: AFAD PROCESS SERVICE
ORIGINAL_DATA_CREATOR: network: TK
USER1: GuestUser
USER2: 
USER3: 
USER4: 
USER5: 
[...]
-0.126894
-0.183241
-0.158227
-0.136486
-0.131110
-0.147244
-0.172730
-0.160341
-0.159642
-0.193077
-0.199859
-0.160817
-0.149363
-0.191214
-0.184904
-0.112663
-0.092792
-0.124356
-0.114071
-0.082277
-0.055626
-0.000452
0.045136
0.048875
0.043730
0.057054
0.083471
0.090249
0.109652
0.148695
0.134431
0.115024
0.154767
0.212747
0.250153
0.228407
0.201986
0.255056
0.333376
0.381069
0.389250
0.368907
0.344123
0.314195
0.313024
0.303670
0.235633
0.210848
0.210846
0.146550
0.111712
0.115451
0.076639
0.027773
0.002755
0.000882
0.017012
0.047872
0.061430
0.028696
0.032201
0.076387
0.058850
0.006945
-0.008488
0.025879
0.034060
-0.041225
-0.116978
-0.175429
-0.251649
-0.312672
-0.330676
-0.277373
-0.214015
-0.206536
-0.171702
-0.093148
-0.057847
-0.061356
-0.062995
-0.071647
-0.093626
-0.094329
-0.068146
-0.092229
-0.153252
-0.142967
-0.140164
-0.227840
-0.274367
-0.265017
-0.290737
-0.329316
-0.379350
-0.426112
-0.400396
-0.306178
-0.185540
-0.047602
0.094778
0.166085
0.128207
0.102020
0.139426
0.144333
0.136148
0.153214
0.159057
0.185006
0.202305
0.166064
0.127953
0.077217
0.046588
0.103165
0.196448
0.264013
0.281546
0.318718
0.375529
0.331573
0.318478
0.403111
0.436074
0.514862
0.667763
0.713118
0.635028
0.524907
0.422969
0.274039
0.146617
0.156435
0.146379
0.069458
0.027372
-0.093269
-0.307897
-0.467349
-0.555492
-0.608332
-0.604126
-0.522065
-0.396752
-0.321939
-0.340177
-0.414994
-0.502904
-0.557147
-0.554110
-0.462697
-0.269582
-0.127436
-0.153623
-0.288526
-0.495205
-0.702117
-0.786053
-0.736256
-0.654429
-0.646949
-0.706803
-0.776009
-0.858542
-0.929151
-0.901798
-0.748897
-0.540352
-0.308427
-0.071358
0.081075
0.121754
0.084578
0.023555
0.009292
0.001574
0.054410
0.251032
0.435028
0.552860
0.673731
0.787355
0.881339
0.886948
0.868710
0.943290
1.011322
1.031427
0.965728
0.767934
0.582998
0.458616
0.401567
0.463054
0.498355
0.404367
0.286297
0.205401
0.086864
-0.116775
-0.270382
-0.259630
-0.204455
-0.220823
-0.274131
-0.354559
-0.479643
-0.587192
-0.608703
-0.544878
-0.478950
-0.507709
-0.610581
-0.760681
-0.974842
-1.168895
-1.260546
-1.253534
-1.084501
-0.722584
-0.369786
-0.181114
-0.047852
0.000309
-0.203565
-0.457704
-0.519896
-0.525977
-0.536967
-0.442282
-0.288679
-0.134375
0.026476
0.157400
0.234084
0.251383
0.256758
0.294865
0.372484
0.507383
0.572376
0.551800
0.687634
0.893842
0.953692
0.938960
0.889861
0.842632
0.882609
1.007923
1.188178
1.303205
1.235401
0.993887
0.628226
0.214870
-0.151258
-0.356534
-0.352796
-0.233795
-0.149162
-0.184468
-0.285236
-0.380160
-0.469472
-0.567669
-0.721042
-0.893119
-0.916501
-0.707956
-0.399345
-0.204127
-0.182619
-0.292038
-0.500354
-0.666819
-0.671731
-0.573071
-0.442146
-0.330159
-0.315666
-0.421578
-0.633868
-0.897360
-1.055409
-0.973114
-0.675492
-0.271492
0.147470
0.470108
0.595656
0.526683
0.348060
0.268333
0.441341
0.694308
0.869654
1.010865
1.061831
0.958491
0.822419
0.782437
0.823584
0.962224
1.235297
1.392874
1.169829
0.663189
0.104879
-0.314088
-0.449692
-0.264527
0.116093
0.500220
0.799479
0.941625
0.816074
0.427969
-0.008533
-0.252152
-0.339594
-0.380744
-0.326973
-0.266655
-0.377945
-0.605665
-0.736594
-0.657806
-0.436870
-0.194658
-0.052511
-0.144629
-0.467739
-0.839011
-1.011322
-0.825221
-0.441795
-0.234419
-0.254528
-0.205900
0.059925
0.420439
0.677146
0.791705
0.837060
0.781648
0.710104
0.670824
0.459936
0.177274
0.074868
0.166982
0.448940
0.657719
0.509256
0.206252
-0.050693
-0.221367
-0.200795
-0.013525
0.168601
0.227516
0.235697
0.295781
0.346513
0.394673
0.471123
0.404488
0.140997
-0.074566
-0.009339
0.348369
0.799128
1.043444
0.897085
0.468065
0.055878
-0.119939
-0.101237
-0.081367
-0.122283
-0.166707
-0.158759
-0.084414
-0.168817
-0.600409
-1.057250
-1.174385
-1.033875
-0.790494
-0.487495
-0.267961
-0.111786
0.177185
0.392043
0.197755
-0.273348
-0.748894
-1.097955
-1.204335
-1.012156
-0.504350
0.321887
1.149060
1.446215
1.078683
0.309722
-0.430248
-0.610976
-0.170504
0.484360
1.101583
1.534574
1.698697
1.613593
1.157687
0.325132
-0.480067
-0.809022
-0.675526
-0.401517
0.001547
0.576219
1.033992
1.309870
1.564707
1.689319
1.566106
1.393562
1.328564
1.200207
0.976929
0.821686
0.528034
0.063243
-0.059736
0.180372
0.228298
-0.136428
-0.648913
-0.968750
-1.049178
-0.903992
-0.662949
-0.863549
-1.442199
-1.758295
-1.727904
-1.415786
-1.007111
-1.067199
-1.670398
-2.332280
-2.481211
-1.822372
-0.894900
-0.466586
-0.456067
-0.523402
-0.865917
-1.474961
-1.946766
-2.138949
-2.066474
-1.917547
-1.902353
-1.777741
-1.362519
-0.921345
-0.738284
-0.755587
-0.612739
-0.185827
0.325018
0.989468
1.912263
2.630019
2.817289
2.764916
2.696879
2.783616
3.158625
3.539946
3.787535
4.171896
4.901341
5.684560
5.807068
5.208077
4.587811
4.462260
4.898991
5.299952
5.142604
4.881450
4.891268
4.867652
4.523968
4.043513
3.718299
3.409918
3.301902
3.561883
3.260048
2.013673
0.614628
-0.420628
-1.066144
-1.486280
-1.753980
-1.797001
-1.625629
-1.398848
-1.364715
-1.743469
-2.991948
-5.113661
-7.457948
-9.469542
-9.906511
-8.234862
-5.992515
-4.207007
-2.865013
-1.858284
-1.352115
-2.453535
-5.421126
-8.832698
-11.340176
-12.294304
-11.974238
-11.023854
-9.586003
-7.850528
-5.869565
-3.866159
-2.867846
-3.077798
-3.889077
-4.707837
-4.407176
-3.049751
-1.502015
0.534591
2.535894
3.843754
5.397802
7.026198
7.527457
7.250406
7.348365
8.166185
9.628118
11.891039
14.257767
15.073250
13.771465
10.985067
7.526502
4.855600
4.218968
5.449441
7.843055
9.909354
9.546031
6.632915
2.713535
-1.321340
-4.535353
-5.272284
-3.259058
-0.111213
2.723810
4.460221
4.801563
3.900740
1.541723
-1.947937
-5.033127
-6.430769
-6.105326
-5.437603
-5.383831
-5.356479
-5.437141
-6.245848
-7.404081
-7.844324
-5.919473
-2.062521
0.409883
0.820429
0.958133
0.642271
-0.441849
-2.215437
-5.225812
-8.622421
-11.169878
-12.133592
-10.794871
-7.924311
-4.704690
-1.826181
-0.486290
-1.246601
-3.515138
-6.397393
-9.137732
-11.155405
-11.715585
-10.139794
-6.495364
-1.762608
3.408752
8.487528
12.105305
14.069667
14.339000
11.722105
7.529650
4.217209
2.487341
3.384185
7.469557
12.745657
16.095970
15.873159
12.674109
7.868638
3.272416
0.334517
-1.581687
-3.388942
-4.409936
-3.909612
-2.084125
0.934897
4.728022
7.576839
7.818350
5.218756
0.962709
-3.093910
-5.616818
-6.420381
-6.420617
-5.912811
-4.567076
-3.385233
-2.581908
-1.568632
-1.849659
-4.334926
-7.285215
-8.285402
-6.315896
-3.199848
-1.231043
-0.611483
-0.636267
-0.707343
-0.841078
-1.416688
-2.922111
-6.286222
-10.315720
-11.942249
-11.155991
-9.419347
-5.845758
-0.562643
4.147902
7.226075
8.356249
7.255529
4.365793
-0.186943
-5.703158
-9.857269
-10.460468
-7.004713
-0.540454
7.495389
15.066678
20.375277
23.082413
21.763795
16.324265
10.555783
6.171615
2.911544
1.524189
1.420615
2.282390
4.275275
5.935935
6.175108
4.181517
-0.430604
-5.843948
-10.200762
-13.061741
-14.435068
-14.190284
-12.087514
-8.733460
-4.854064
-0.488604
3.164710
4.041916
1.924646
-1.447414
-4.562297
-6.796700
-7.817227
-7.831023
-7.164703
-5.998290
-4.457334
-2.380048
-1.428495
-3.474223
-5.973284
-5.736449
-3.141068
0.158745
2.142512
1.073356
-2.869170
-7.731220
-10.830438
-10.628907
-7.225756
-1.708844
3.580583
6.682837
7.551158
6.917098
5.791362
5.213647
5.276770
5.312306
5.019823
5.648268
8.696983
12.001939
11.834070
8.869753
5.704370
3.418064
2.904643
3.434660
4.820608
9.502630
16.597206
21.909078
23.100273
20.808122
17.639700
14.153781
9.164545
4.153332
0.804652
-1.402396
-3.116366
-5.188045
-8.522464
-12.136738
-14.936462
-17.921588
-20.869072
-21.349995
-18.453716
-13.583020
-9.590700
-8.674684
-10.347272
-13.186274
-15.463695
-15.748696
-14.429848
-11.997423
-8.843734
-5.819802
-3.544956
-3.086014
-3.844455
-3.606919
-3.461733
-4.952426
-5.537623
-4.683329
-4.687072
-3.414750
0.166789
2.582614
4.801582
7.226993
6.066187
3.508443
3.580684
5.969155
10.214912
15.254643
19.975008
24.274538
27.174089
27.783597
25.755404
21.110785
14.893413
9.326698
5.910684
4.237629
5.601132
10.552255
14.104101
12.923656
8.852075
3.207038
-2.410411
-4.932618
-3.905782
-0.720998
3.128940
4.677845
3.074227
1.042995
-0.279131
-1.385462
-3.229189
-7.492250
-12.357807
-14.448658
-14.989199
-16.028664
-17.070934
-18.910687
-21.753664
-22.686751
-21.085241
-18.699810
-16.115651
-13.251870
-8.498306
-3.148091
-2.922947
-8.228276
-14.268431
-17.183183
-14.978945
-9.913963
-5.332707
-1.201044
3.095446
7.632748
12.800601
17.903925
19.868989
15.919216
7.583407
-0.283406
-3.315057
-1.124379
4.252957
12.665682
22.655369
29.062347
28.125286
21.716433
15.879916
13.963712
14.370751
14.845591
14.198906
13.199421
13.010043
12.593180
12.347457
13.704882
14.684725
14.079188
12.646008
8.576999
2.048676
-3.044132
-5.126333
-4.734958
-4.126853
-6.211859
-9.360877
-10.281339
-9.095988
-7.664450
-7.568829
-9.716960
-13.155418
-15.422552
-15.949066
-15.681838
-15.699374
-17.720086
-19.946773
-19.704795
-19.691938
-21.456408
-21.702833
-18.012111
-11.487767
-4.936068
0.182220
3.220647
3.051610
0.840119
-0.073329
1.232193
2.823649
2.636376
0.178697
-1.642586
-1.273890
-1.222222
-0.382425
3.515208
8.337274
12.429192
14.836366
14.553470
13.350815
13.647268
13.586244
9.794986
5.612585
4.592058
4.590653
7.457239
15.086276
22.237664
25.969768
27.702204
26.965039
23.338608
20.235415
18.970102
15.460335
10.403298
7.717433
4.595069
-0.296206
-3.346327
-4.580311
-4.923995
-3.704744
-2.951685
-4.631754
-7.080081
-8.993013
-11.506803
-14.175601
-15.607845
-15.850762
-13.987166
-11.400903
-11.865694
-13.450607
-13.746363
-15.610430
-19.698378
-23.964245
-25.465459
-21.305272
-14.693020
-9.195046
-3.715541
0.059348
-0.294857
-3.160279
-5.523270
-6.295738
-7.926008
-10.626369
-10.590600
-6.453091
0.053017
5.769124
7.901119
6.222453
3.065253
1.615240
1.597236
1.695195
3.936373
9.709060
17.563477
23.757232
25.829843
25.186898
22.119008
18.310215
17.726889
18.466622
18.191908
18.616949
18.677734
16.967038
14.047142
9.893965
5.915669
3.460562
3.172989
6.282725
9.813529
9.360428
5.673910
-0.629266
-10.150895
-18.152141
-18.963653
-13.780604
-7.782069
-3.983567
-2.142883
-1.390760
-2.268904
-5.952616
-12.579368
-20.049192
-24.704332
-26.070645
-26.526551
-24.375852
-18.992672
-14.866387
-10.280923
-3.317039
-1.604476
-7.139629
-14.761655
-23.049537
-29.983264
-33.034788
-31.544333
-25.236251
-17.405681
-11.390079
-7.398694
-6.567313
-9.446528
-14.872497
-22.124423
-29.728213
-35.670641
-38.438802
-36.282258
-29.744587
-23.312827
-19.800960
-16.903980
-12.838949
-10.507525
-11.741509
-12.357800
-9.672641
-6.354358
-2.438490
2.751808
6.331476
7.646349
6.783869
4.062233
3.993261
8.857411
16.527362
25.058856
32.662175
38.892403
44.765622
48.874373
46.355205
35.335637
22.486137
14.646913
11.266436
10.410035
11.110255
10.959688
8.718505
5.122000
1.658993
-0.313557
-1.148916
-0.956737
1.714862
7.932699
16.101573
20.795519
18.544283
10.458636
-2.393201
-15.817141
-24.645094
-30.257867
-32.688659
-29.314967
-23.691209
-19.889901
-18.636516
-21.930956
-30.783691
-42.176166
-51.756946
-58.049368
-59.061946
-50.073144
-34.574492
-21.988486
-13.696400
-8.506804
-8.590973
-12.845150
-18.103720
-23.043859
-25.366403
-21.903166
-11.900152
2.976132
19.401791
33.836666
44.556035
49.673855
47.334711
39.251169
29.117224
20.668023
16.697208
16.002828
16.866473
21.844015
31.894957
42.362293
49.177715
51.621128
50.300405
46.687300
41.085750
33.323445
25.525602
19.877760
16.800752
15.430932
14.000091
10.534979
4.291421
-2.907666
-10.565464
-20.328839
-30.365758
-37.547311
-41.117397
-40.576860
-35.653559
-27.335054
-17.857149
-10.086197
-7.226157
-11.178502
-19.437393
-27.268902
-30.214515
-24.929764
-13.195247
0.590139
14.148040
23.547390
24.412671
18.422549
10.327785
3.471210
0.932871
4.637855
14.822763
30.774047
48.515984
62.634298
71.386029
75.519562
76.566504
78.317644
83.661780
91.002310
97.027264
98.918214
94.336487
82.995915
67.770568
53.309737
40.341001
25.476636
9.921401
-3.980888
-18.733497
-33.582431
-44.864320
-53.466191
-62.790730
-73.482748
-82.393232
-88.413513
-93.256859
-96.551532
-97.576969
-96.887971
-96.229600
-96.426926
-95.721095
-95.219368
-97.996647
-104.287900
-113.547910
-124.866038
-136.248226
-146.101146
-152.780736
-154.033190
-149.955768
-142.406924
-131.423831
-117.525287
-102.018686
-87.113411
-75.684234
-64.678697
-50.850292
-36.545175
-21.450758
-3.525290
18.071029
43.893468
71.376334
97.372484
120.107162
138.137839
151.006038
159.349559
165.271408
170.040169
174.271897
179.374988
184.816851
189.866636
194.247528
196.666860
197.164846
195.712963
191.981323
186.827494
180.633968
173.707722
165.544923
155.654829
145.620248
135.924440
125.994834
115.532872
102.889348
86.402898
65.394107
40.551042
14.506726
-11.051759
-36.212789
-59.257019
-78.302614
-95.067282
-111.203504
-127.506423
-145.044961
-161.969079
-176.679605
-189.372928
-199.436733
-207.096401
-212.466025
-216.083339
-219.789962
-223.840736
-227.348632
-229.002750
-228.207373
-225.681897
-221.051778
-212.760160
-199.321262
-180.936616
-160.443586
-140.715074
-121.415579
-101.644048
-82.602665
-63.205443
-43.057265
-25.656905
-11.452554
0.156413
9.003066
18.073696
29.023355
41.823286
57.557139
75.672918
94.778360
114.176284
132.803377
150.384462
167.749752
183.875916
196.752533
206.464469
212.743794
214.578633
213.019203
209.628907
205.272794
199.732966
190.981932
177.379372
159.488735
139.734501
120.573177
102.700543
86.474309
72.800674
61.331747
50.306567
37.044416
18.751180
-4.444082
-30.212050
-56.664108
-80.723251
-98.973936
-110.040497
-114.447578
-114.165153
-110.700747
-106.353990
-103.866623
-102.688521
-101.940605
-100.987416
-99.000842
-96.804319
-94.840892
-95.843416
-101.365008
-108.695957
-117.754434
-123.543491
-118.901915
-107.645982
-92.040484
-69.413587
-42.419590
-14.753661
11.698160
35.063623
54.159012
69.417789
81.916121
91.839878
98.018670
96.255603
85.999850
76.526149
76.400832
85.401557
100.698676
121.405864
143.919136
162.270582
172.225434
169.853793
157.287188
142.817940
129.402885
117.641946
110.084213
105.640427
100.482389
90.771618
73.971178
51.377944
25.933318
-0.478761
-26.159055
-50.070672
-71.847487
-91.376107
-109.627492
-126.023930
-138.135800
-145.380945
-148.186514
-147.266758
-144.131071
-139.341970
-133.163411
-126.746847
-122.176347
-121.373957
-122.664286
-123.478370
-123.804987
-121.235089
-113.060370
-100.493067
-84.571943
-68.962705
-58.807956
-52.664467
-47.121136
-40.034743
-28.367794
-11.181827
9.739987
31.061127
50.166803
66.516478
78.629045
84.608408
84.471167
80.117860
74.439857
69.678340
67.240300
68.251705
73.052262
80.717304
90.303457
100.858934
110.905668
120.439919
129.214094
136.347013
142.009581
143.785970
138.334751
124.946816
105.788064
86.176913
68.641649
53.194428
41.452893
32.236369
24.043410
17.091680
9.087395
-0.766227
-10.058267
-16.776434
-19.766937
-20.316830
-21.880234
-26.531633
-34.344204
-45.789284
-61.513087
-78.737869
-93.474814
-104.558677
-110.913990
-111.715682
-107.382486
-98.066836
-87.292992
-79.197530
-73.314725
-68.912091
-64.307690
-57.795035
-51.372626
-44.870493
-38.964542
-36.877202
-35.639949
-32.316757
-27.900094
-21.474880
-13.420800
-4.616231
5.901605
16.911116
25.692773
30.335283
30.557389
28.604244
28.036115
31.479713
39.015698
48.561872
57.844323
65.388959
69.408633
68.430657
64.185598
60.310173
58.626830
58.779732
60.178071
62.587350
64.523189
63.843305
60.534604
55.915469
49.996188
42.556523
35.169931
29.570718
25.183510
20.176740
14.170252
7.164515
-1.075671
-8.246469
-13.102207
-18.049593
-23.636882
-29.538394
-37.265396
-46.861139
-55.865375
-60.944155
-61.830483
-60.772084
-57.955063
-54.048313
-50.063942
-45.939526
-44.132977
-46.532440
-52.828836
-62.127423
-70.128435
-72.629133
-68.977689
-59.839491
-48.019171
-36.748508
-27.020206
-19.618187
-15.722191
-15.335025
-17.056476
-19.357979
-20.052826
-16.605955
-9.415054
0.666983
14.098166
28.296906
40.468156
50.262389
56.821101
61.366820
66.444427
71.551024
76.283079
81.597523
87.028164
91.821941
95.455148
94.895903
87.395685
76.129226
65.529324
56.506384
49.915403
45.303517
40.161845
34.277867
28.036180
20.099930
9.971596
-1.595292
-14.035179
-26.441632
-37.658760
-47.738697
-57.009462
-65.028476
-71.136432
-73.957665
-72.470249
-67.605865
-60.966025
-53.669916
-46.637062
-41.320748
-38.957995
-39.668975
-44.433765
-52.859820
-59.947854
-62.705027
-62.752724
-60.199426
-55.060097
-49.609583
-44.055965
-37.540738
-31.920955
-28.528325
-25.980405
-24.349905
-25.059949
-26.878192
-27.457778
-25.134069
-18.805880
-10.018144
-1.354789
7.027776
15.269362
22.268081
28.503452
35.613926
43.760824
52.952094
63.279618
72.774357
78.702986
79.903533
76.624057
69.962001
61.673419
52.745167
44.440920
40.690810
43.458733
50.053451
57.415257
62.219789
61.405939
55.041975
44.755127
32.960755
23.047515
17.079604
14.807560
14.775060
14.458730
11.294984
6.049974
1.189327
-2.956135
-6.440651
-8.599069
-8.974082
-8.322491
-9.219106
-12.713442
-17.755983
-23.731142
-29.606469
-35.318138
-41.990714
-48.458951
-53.598285
-58.079479
-61.574750
-63.662562
-64.986324
-66.363158
-67.589193
-66.899961
-63.403057
-56.819562
-47.506951
-39.065703
-33.620099
-29.228453
-24.441222
-18.925245
-13.228076
-8.044792
-2.666288
2.867457
7.552051
10.920366
12.656776
12.439343
10.037074
6.023241
1.923136
-1.351898
-4.200019
-6.137732
-4.847407
-0.185258
5.410678
11.295820
17.960209
24.860032
31.317978
36.974467
41.656256
45.258836
47.913134
50.383434
53.716913
58.480297
63.556735
65.696913
62.700331
56.403935
48.504391
37.757430
25.699334
16.743027
11.684587
8.517801
5.643028
1.441455
-4.053016
-8.612533
-12.702116
-19.876889
-30.576623
-41.477188
-49.921480
-55.359840
-58.324392
-59.405238
-59.193654
-58.338425
-57.184170
-55.035575
-51.134670
-47.164795
-45.226383
-45.275483
-44.628802
-39.078924
-29.951949
-22.135407
-16.080060
-12.918655
-14.933756
-19.941695
-24.699238
-26.392867
-22.908121
-15.125012
-5.207334
4.969625
12.888804
15.132555
11.504253
6.835319
4.916310
6.331716
11.622312
21.120091
32.660322
41.838265
45.679552
44.518513
40.218278
34.581190
29.056558
24.783444
21.835024
18.494527
12.449697
4.347684
-0.663762
1.751128
10.205703
20.043890
26.973872
28.035310
23.306992
16.060210
8.226597
-0.600889
-9.624530
-17.549324
-22.635118
-22.368591
-18.777233
-16.521325
-16.132289
-17.100679
-19.586647
-21.967641
-23.989522
-26.972075
-30.435082
-32.627401
-31.160559
-24.772986
-15.723865
-7.431546
-2.005347
