EVENT_NAME: 202302060117
EVENT_ID: 13194
EVENT_DATE_YYYYMMDD: 2023/02/06
EVENT_TIME_HHMMSS: 01:17:32.00000
EVENT_LATITUDE_DEGREE: 37.288
EVENT_LONGITUDE_DEGREE: 37.043
EVENT_DEPTH_KM: 8.6
HYPOCENTER_REFERENCE: AFAD
MAGNITUDE_W: 7.7
MAGNITUDE_W_REFERENCE: AFAD
MAGNITUDE_L: 
MAGNITUDE_L_REFERENCE: 
FOCAL_MECHANISM: 
NETWORK: TK
STATION_CODE: 8003
STATION_NAME: 
STATION_LATITUDE_DEGREE: 37.08417
STATION_LONGITUDE_DEGREE: 36.26936
STATION_ELEVATION_M: 122.0
LOCATION: Kahramanmaras_Pazarck_Turkiye
SENSOR_DEPTH_M: 
VS30_M/S: 350
SITE_CLASSIFICATION_EC8: unknown
MORPHOLOGIC_CLASSIFICATION: 
EPICENTRAL_DISTANCE_KM: 72.18
EARTHQUAKE_BACKAZIMUTH_DEGREE: 
DATE_TIME_FIRST_SAMPLE_YYYYMMDD_HHMMSS: 2023/02/06 01:17:19.5251700
DATE_TIME_FIRST_SAMPLE_PRECISION: millisecond
SAMPLING_INTERVAL_S: 0.01
NDATA: 10501
DURATION_S: 
STREAM: HNZ
UNITS: cm/s^2
INSTRUMENT: sensor = GMS+/GEOSIG | digitizer = 
INSTRUMENT_ANALOG/DIGITAL: 
INSTRUMENTAL_FREQUENCY_HZ: 
INSTRUMENTAL_DAMPING: 
FULL_SCALE_G: 
N_BIT_DIGITAL_CONVERTER: 
PGA_CM/S^2: 139.894
TIME_PGA_S: 
BASELINE_CORRECTION: BASELINE REMOVED
FILTER_TYPE: BUTTERWORTH
FILTER_ORDER: 
LOW_CUT_FREQUENCY_HZ: 
HIGH_CUT_FREQUENCY_HZ: 
LATE/NORMAL_TRIGGERED: 
DATABASE_VERSION: 
HEADER_FORMAT: DYNA 1.2
DATA_TYPE: Acceleration
PROCESSING: Automatic Paolucci et al., 2011
DATA_TIMESTAMP_YYYYMMDD_HHMMSS: 
DATA_LICENSE: U (unknown license)
DATA_CITATION: Turkish Accelerometric Archive v 1.0 - Disaster And Emergency Management Presidency, Earthquake Department
DATA_CREATOR: AFAD
ORIGINAL_DATA_MEDIATOR_CITATION: : AFAD - Disaster And Emergency Management Presidency
ORIGINAL_DATA_MEDIATOR: AFAD PROCESS SERVICE
ORIGINAL_DATA_CREATOR_CITATION: AFAD PROCESS SERVICE
ORIGINAL_DATA_CREATOR: network: TK
USER1: GuestUser
USER2: 
USER3: 
USER4: 
USER5: 
[...]
8.210223
21.391618
21.649558
11.341179
-0.866883
-1.488777
4.189741
5.783669
9.527955
13.796452
12.386423
13.432240
21.613102
26.353079
25.291918
25.552976
19.744816
0.704857
-12.417328
-4.155418
7.074600
9.050646
11.470375
11.350353
12.205760
25.183757
27.793117
5.132773
-20.225781
-25.948477
-14.930949
-4.934049
-3.562743
-13.838911
-31.134269
-43.066717
-45.982361
-44.539879
-33.226994
-4.061819
22.524380
27.457623
14.025015
-3.563360
-16.022618
-26.863002
-27.172654
-8.247531
12.813924
15.792674
8.554751
-1.220324
-16.556772
-18.579593
-4.245868
5.914945
9.105926
1.827220
-17.666813
-34.088051
-43.268518
-48.456872
-43.738456
-28.164859
-16.525186
-11.538171
3.430947
11.432050
-8.314997
-25.261746
-25.783109
-35.331927
-41.282699
-26.186815
-11.911797
4.769711
24.627401
26.095861
23.490639
29.473086
28.462320
17.298265
10.411549
20.275707
36.361567
29.869698
9.423616
12.176368
29.162323
29.954607
19.557127
11.845128
4.666692
-10.868477
-33.795343
-35.618404
-11.267248
-5.116472
-20.953752
-26.788668
-26.021842
-21.362133
-7.896812
-2.104776
-5.524369
-0.342268
4.654359
-5.995615
-7.950118
6.531156
7.012237
5.991340
23.102245
29.596434
21.239171
16.981826
10.404493
4.885195
5.474860
1.721464
-8.683809
-21.312695
-20.494175
-6.344106
3.065719
5.578965
-1.046165
-7.953144
-14.138746
-34.385327
-51.378054
-49.158087
-32.017309
-16.141861
-19.151541
-32.094747
-40.475388
-39.335276
-25.419257
-13.255373
-24.739462
-43.528485
-53.197835
-57.797555
-43.781006
-14.013429
12.061806
25.669480
18.669246
6.267137
7.871195
5.589644
-3.552897
-2.013781
0.527780
-7.586340
-13.725704
-9.209647
-2.007071
8.654056
10.194471
-0.484598
4.120040
14.640632
18.427000
26.097418
26.249114
10.133883
-9.011022
-22.170614
-29.904953
-26.250807
-6.124776
11.282523
3.513115
-10.115098
-7.921107
0.928398
10.652022
17.828881
17.419998
3.306278
-10.896542
-9.456657
-12.947168
-17.276469
2.184296
24.650576
29.026358
29.207927
30.104117
30.398165
30.741830
20.157577
0.969291
-7.043520
3.532403
23.755327
39.371527
48.358709
49.404266
19.177401
-26.909334
-45.334162
-35.835237
-16.864394
6.295466
23.016718
12.182568
-8.631085
-17.767392
-28.950150
-40.495285
-34.273072
-7.968202
14.546395
15.984980
0.804654
-14.474904
-26.414626
-42.526481
-49.960268
-53.984602
-57.281066
-43.256724
-18.392007
2.421889
13.128475
21.260241
25.846954
17.175892
3.332851
-7.315565
-5.666307
14.047472
28.937100
27.453297
24.503883
25.013020
33.671595
44.549628
43.577567
36.497844
34.250063
45.281878
53.273110
43.068897
34.981274
27.702048
7.836807
-5.895573
1.022817
15.719438
26.020007
28.883680
22.572349
10.768746
0.899374
-3.479802
-5.488077
-6.461177
-9.754004
-11.274434
-5.065730
-1.266893
-2.461574
-3.669504
-7.293275
-12.390710
-4.076587
5.365709
-1.306699
-0.839126
8.673567
16.080580
23.844775
26.174105
17.534215
9.494129
11.572524
9.608150
-1.865549
-4.584289
7.383471
3.338615
-10.403117
-0.505968
4.598723
-4.294700
11.376830
34.542405
26.979513
12.732792
9.917678
1.329741
-8.972923
-20.339597
-36.776161
-41.456928
-25.210272
-0.214632
10.153216
4.706134
3.902923
4.658059
-9.993120
-35.725480
-56.012584
-62.658496
-43.716747
-12.278603
-2.960736
-4.181914
5.378056
11.237892
-4.990079
-23.768191
-20.598512
-11.696794
-0.880845
9.833014
6.192098
8.062418
13.964596
9.948056
8.163961
-0.710500
-6.431118
4.889559
13.275119
4.775244
-18.428795
-32.242742
-36.677249
-36.203441
-17.778631
2.850570
14.255412
23.032442
31.932861
29.456225
4.934384
-18.032226
-19.826972
-18.772323
-12.241247
8.147669
13.751114
5.508929
-0.059206
-0.268068
15.989239
30.394660
27.459014
25.109664
17.803942
1.721182
-3.511852
-5.576756
-12.180066
-10.258831
-0.999932
10.816643
26.823014
38.318774
24.714979
-11.180800
-36.324266
-33.943242
-16.362678
-1.780095
-1.974150
-19.668771
-38.730030
-41.479423
-32.205976
-23.184245
-27.340541
-38.082473
-27.632538
-9.632708
-9.629080
-6.755016
-3.359599
-24.461855
-54.161910
-61.983011
-45.652710
-24.181860
3.350154
27.661565
25.590426
16.217211
12.802293
6.322893
3.338930
16.425510
44.767480
68.338813
77.831763
70.950502
40.996654
0.940691
-23.760650
-20.031171
5.233069
32.814439
45.870366
45.623578
41.027755
38.826473
28.219880
-8.608986
-44.490738
-50.256296
-38.703906
-27.644815
-24.954927
-21.840838
-6.058907
9.469491
7.425629
4.643246
25.136848
41.116982
30.365439
20.038616
13.469596
-2.121424
-14.071797
-7.992197
4.920078
11.503887
10.467145
4.226991
0.821425
-4.487981
0.407077
9.660781
-2.526500
-12.776951
-21.399696
-41.774342
-37.443241
-4.441034
10.776422
8.019236
5.479996
-14.917510
-44.217522
-52.338655
-41.196958
-41.416471
-42.748310
-27.306415
-22.791397
-24.991381
-30.497690
-31.085034
0.163220
25.748273
10.001912
-14.271851
-19.888562
-20.975959
-21.503297
-9.389808
-0.210657
-13.257510
-28.158846
-26.383861
-16.583086
-1.845161
31.559166
58.537355
42.176903
14.139363
-3.368745
-14.834390
-15.327179
-5.565888
8.952532
21.684529
24.274666
3.170591
-2.906948
23.423639
37.197305
29.050974
11.477146
20.549791
55.010076
69.003245
70.354289
66.213320
57.527191
48.859506
18.526397
-24.277911
-48.346457
-45.997904
-16.772982
22.487554
27.594322
-6.647515
-42.164553
-58.845559
-58.908951
-43.059480
-19.278255
-14.688944
-18.112174
-15.661533
-21.593342
-24.926693
-19.842264
-14.458323
-19.940214
-28.861693
-35.662946
-44.825229
-37.234559
-16.013347
-3.053274
-27.151694
-66.684744
-61.118705
-43.264605
-42.551811
-17.282375
27.647855
43.726182
28.308687
16.248692
1.330471
-24.397212
-26.275343
-5.193886
2.473155
9.302185
26.867943
21.440343
20.545694
41.187363
36.285014
15.972713
7.212030
5.698614
7.129147
5.433373
-10.415597
-8.206279
28.084330
28.605156
-14.193437
-23.802521
22.138207
53.240211
36.395292
31.346693
27.918007
-2.740851
-6.222269
21.581202
40.532302
51.789856
60.663000
39.198627
0.278889
1.953344
18.144151
18.776677
19.839638
18.581833
5.538617
-34.039113
-66.843914
-59.325720
-31.756299
-17.337370
-14.419406
15.581962
38.890669
20.475193
20.213078
52.169719
56.887096
48.960009
64.289944
52.373861
6.427141
-24.427062
-11.480238
48.840463
106.316964
111.733896
73.566706
37.424666
10.763896
-15.375780
-19.642737
-8.599492
-2.862006
-0.809849
8.169540
9.375634
-7.473961
-10.571703
1.629588
16.384397
40.344862
43.253994
13.995025
-12.556902
-12.913573
5.000014
9.224611
10.983231
37.667623
65.060921
71.647327
73.938991
78.095009
78.518422
74.175613
56.714784
45.577485
42.573520
25.035539
8.131133
-5.864133
-41.355713
-74.071414
-45.954403
-11.340855
-25.272218
-22.728060
-4.253374
-5.128800
-8.385000
-8.415142
-23.230755
-48.862844
-46.124120
-32.518004
-35.837068
-16.797906
19.131625
28.015160
22.010875
5.676400
-10.849265
7.571129
23.581916
10.230615
-2.041869
-8.763113
-23.143355
-59.183046
-87.720899
-80.049442
-73.368739
-70.377260
-50.386829
-31.389230
-26.341429
-27.234260
-15.481589
-5.609637
-25.319018
-47.387870
-44.801110
-35.658587
-28.460946
0.242621
44.100530
51.466240
32.354846
34.017871
36.622036
19.724383
3.107280
-3.846716
-5.808233
-5.796033
-12.593908
-17.846165
-4.726854
6.612786
-0.854252
-14.773925
-13.216625
2.608428
4.814628
-12.483067
-33.855222
-38.837839
-27.608341
-18.826375
-14.438385
8.834215
60.967550
91.291290
89.265871
85.141267
66.577722
37.484226
10.065193
-3.251559
2.288243
21.441962
48.402487
54.732503
48.980972
32.668317
-1.494550
-21.749444
-17.799941
11.041563
45.093492
70.551779
84.333757
69.411900
52.128232
42.813984
23.713500
3.946191
-18.650510
-38.620438
-25.744010
5.518011
20.964063
29.890200
40.600422
39.336642
32.892571
41.109281
51.167486
31.313415
-10.454419
-23.822864
-4.221305
2.457839
-6.789648
-10.559149
-17.075177
-23.299485
-16.245236
-19.881736
-33.749975
-42.923688
-51.483310
-36.374177
-13.352514
-10.349865
-6.448420
-3.342383
-13.515943
-25.146801
-29.864195
-29.596124
-14.224885
20.188641
40.666397
27.909965
13.798583
6.990576
-21.994857
-49.601442
-49.573915
-53.035072
-64.519161
-58.013802
-40.855100
-32.630857
-30.286720
-27.929854
-25.461808
-32.068495
-38.003421
-18.857235
11.942399
32.198314
34.885864
24.114318
7.809976
-16.827722
-54.775408
-97.057842
-102.114233
-50.391851
-0.630197
23.025560
58.085389
76.003652
53.103282
35.302416
33.121656
21.072831
4.182193
-0.931867
-1.721051
11.015621
44.998452
69.713543
68.244806
56.837608
58.433613
63.676760
56.631586
45.496105
31.711512
23.175788
36.728132
57.533196
62.143548
59.450785
52.827214
29.396398
-3.907677
-20.753896
-15.543999
-18.334695
-29.168585
-30.060637
-20.646136
4.828516
35.014579
56.682851
59.137390
40.960640
26.188149
17.782310
1.084678
-16.855683
-13.777182
4.633601
24.077481
33.758243
24.502963
11.116074
-15.136081
-45.862479
-46.344357
-34.555318
-35.419575
-49.253525
-57.207887
-32.978822
-6.888520
-17.939576
-31.098649
-34.748916
-53.481310
-66.224234
-60.953032
-49.505329
-36.621368
-17.775214
-6.928094
3.593278
23.597737
2.229478
-20.149018
-17.950351
-41.767961
-56.671115
-55.332540
-49.991461
-41.953471
-39.783898
-29.365395
-23.456463
-12.875864
0.314363
-12.344916
-40.433631
-67.158564
-75.377629
-68.209342
-68.885008
-74.738627
-72.190313
-58.454833
-39.978588
-37.480669
-47.111833
-31.254049
2.808530
15.574556
10.111108
13.930467
12.038309
3.383612
12.028160
20.961051
40.107756
68.524280
84.311147
75.598782
45.493489
36.053514
41.519282
38.793009
75.178173
123.957905
85.235850
28.705925
25.967702
39.369381
17.922932
41.641813
105.983721
20.846593
-31.015822
8.811268
26.189993
78.014724
61.685963
59.124902
104.322434
64.512731
17.688255
-6.824494
0.288462
-3.210880
-48.905885
-2.024278
16.995401
-15.863432
8.928810
1.992218
-26.534985
-29.994063
-15.008580
-46.061766
-10.055603
58.061253
9.481525
11.943856
70.569571
41.464125
-71.320882
-63.642151
11.666380
-3.306392
8.111698
-20.258865
-70.091973
-23.658725
15.080716
-5.871914
-46.868496
-79.268838
-78.934266
-69.409105
-84.357978
-75.343001
-34.083292
-28.999382
-46.294220
-47.225497
-39.478187
-52.170717
-75.596857
-84.585875
-95.388333
-107.812522
-116.117051
-73.890745
-8.611075
6.657815
13.296695
39.379204
44.124376
-13.903631
-40.741563
-11.147771
-49.196767
-74.712220
-36.123964
-60.194328
-85.835509
-43.675444
-29.514204
-38.059279
-18.660339
37.061430
77.989676
37.129991
5.612600
11.808836
-24.088503
-57.183984
-21.294976
52.216480
88.398506
69.678582
55.427964
65.318099
29.791710
-40.941026
-47.844887
-6.956386
12.073424
6.532305
34.996886
99.857031
99.298521
67.002086
71.927017
55.045471
7.193353
-14.113081
9.596708
23.868089
47.198357
78.534153
58.734373
77.792238
118.502019
88.422443
52.021934
34.732552
18.190781
8.365570
-1.368722
-12.009345
-20.808472
2.413472
45.814969
33.421432
-12.014325
-32.847721
-50.210877
-71.814486
-76.025852
-68.598317
-66.096501
-60.056126
-34.466657
-6.491478
3.622057
17.072572
8.969362
-47.538742
-91.548113
-97.213661
-93.601337
-85.840779
-73.357380
-59.165748
-48.246412
-67.490289
-99.629564
-102.959019
-83.735941
-56.312251
-40.425892
-52.970094
-80.965552
-78.089670
-37.174932
-20.966462
-38.625494
-52.536335
-57.138652
-57.198667
-40.253495
-1.319228
20.499191
8.452185
8.051094
31.788678
40.334255
36.656711
49.298049
55.405703
35.897123
16.873011
-4.014677
-39.699006
-61.955930
-50.565116
-31.215012
-33.897384
-27.699590
-3.231539
-0.093551
-13.290290
-7.240044
23.894171
42.489649
58.639152
95.108742
108.303904
83.058350
54.503352
38.022887
17.677335
22.842811
64.233963
65.737751
34.797304
19.108871
-3.737207
-18.724786
6.344368
35.017543
26.896669
22.646078
38.274227
35.385079
39.676177
75.698445
96.421682
68.563642
31.836085
20.545783
10.631732
-6.736361
-0.668710
13.687615
5.821054
13.151696
29.153651
13.844999
-8.473751
-18.367540
-22.806723
-29.228455
-14.371297
32.366918
59.213145
62.749357
73.880923
76.651858
66.344518
62.271348
54.403488
25.504818
4.795850
0.762944
-21.530088
-50.108465
-39.939858
-3.079838
9.458631
9.219636
32.645758
53.489527
40.008602
12.887524
-10.220141
-36.575684
-61.848514
-82.272516
-97.842235
-99.646592
-98.516870
-107.244561
-100.421506
-73.771144
-33.203456
9.727860
8.407451
-18.153828
-21.451851
4.564158
24.373271
16.796352
35.703032
73.087004
83.142352
88.457194
101.965637
101.834705
78.189321
52.105755
35.456701
31.730840
34.811939
15.723923
-11.845255
-18.972776
-21.106259
-22.984130
-20.658957
-30.253494
-34.241979
-8.069071
29.494141
48.055070
38.514045
15.605103
-10.999557
-38.492624
-61.777970
-71.516678
-55.401204
-20.861171
2.981359
-0.551234
-11.173932
-7.719288
4.690077
1.726116
-24.147557
-42.742014
-51.167855
-62.369836
-60.569913
-42.905184
-23.314535
-8.341521
-2.392324
-9.455683
-19.233876
-19.198816
-9.245817
1.129565
6.934590
8.035737
-7.120172
-25.182883
-28.130479
-28.759645
-17.867066
9.058390
33.438380
66.347590
95.582643
92.874553
84.803295
83.864485
65.946724
43.711360
39.581041
45.254624
74.047811
120.907078
139.894026
131.511307
116.187328
84.010126
49.075748
50.656946
64.343850
62.563651
63.865339
66.460932
63.779338
42.128452
7.411240
-13.570224
-18.941195
-16.247670
-18.703784
-17.975664
-12.530417
-20.061618
-30.650806
-42.285041
-51.774113
-49.489982
-36.828123
3.801130
46.184596
53.303007
56.005884
49.270612
21.993932
4.250475
0.462271
7.299873
15.359164
25.274237
35.093196
31.521898
36.911813
49.561463
41.894145
35.720231
38.463112
27.478817
18.015202
19.414823
17.458502
4.734541
-8.295947
-12.995417
-23.611881
-31.641057
-21.503882
-2.292235
4.478607
-8.023252
-9.413539
0.088243
-1.432707
-5.008162
-9.098736
-15.873232
-23.059461
-29.463269
-29.168441
-24.230002
-22.364877
-14.778364
6.044884
15.074408
8.433692
3.808515
-19.952206
-72.446896
-117.096595
-126.817639
-113.122423
-98.898839
-77.369283
-46.656670
-39.821406
-51.234578
-54.946151
-58.007265
-51.332537
-30.945440
-22.559101
-32.149482
-28.355840
1.281074
13.867860
-4.383963
-23.938262
-32.499183
-34.110012
-34.945955
-32.287758
-34.872198
-54.599762
-69.099757
-58.200943
-42.808144
-43.492121
-39.814336
-19.325670
-6.901238
-10.260826
-13.553393
-11.502274
-18.687464
-34.163666
-24.754102
11.593656
34.698965
35.408123
59.271954
102.310814
109.452085
93.557916
70.943291
24.722256
-17.326906
-27.345125
-15.239948
6.758489
27.989573
37.644358
37.849566
37.604077
39.405298
43.327006
46.741387
38.163321
23.483567
12.018441
-13.610271
-35.184006
-27.715946
-10.553089
2.436078
11.155180
22.388315
23.269699
14.914255
13.142888
-3.696057
-28.020474
-24.499589
-0.100636
2.468980
-12.767197
-7.341173
-3.277373
-27.585945
-50.023668
-43.160348
-31.254154
-41.397840
-44.929654
-15.644466
7.380315
12.705548
37.073069
61.240829
55.967791
45.271838
36.783393
11.087141
-1.336789
25.077704
45.711321
44.261028
40.868710
24.457602
0.301774
-8.502549
-2.799613
10.570633
27.196291
42.980301
45.019990
31.747658
21.583970
19.353853
10.541477
-10.034749
-31.847210
-52.294332
-55.833938
-36.878162
-29.011619
-38.486923
-40.771590
-40.696526
-55.031828
-73.686291
-83.502670
-87.909122
-96.260410
-105.508417
-101.244855
-83.629221
-66.649500
-62.635055
-63.427356
-61.823038
-66.179355
-70.180310
-67.664466
-49.195755
-20.313987
-12.689807
-20.123335
-14.795764
-1.566312
-0.185134
-2.129246
-5.050086
-19.295508
-22.761860
-3.286808
24.647067
36.634828
35.663028
44.663977
38.345374
14.455548
16.593169
38.404314
35.708694
10.332996
9.358078
29.212651
39.218383
46.159373
46.949838
26.572594
-6.857728
-14.467119
9.770258
17.168180
0.588224
-9.088660
-8.714862
6.359461
32.406382
44.380116
56.561145
59.391567
37.792115
20.133342
13.586403
16.094973
16.926741
24.526502
35.301667
36.857148
46.577915
49.281051
36.077039
18.347869
2.915567
-7.685830
-29.083443
-54.749302
-53.549702
-42.676086
-44.004028
-43.306820
-39.776063
-22.992207
-12.839965
-30.595112
-45.450989
-56.247472
-64.151180
-62.237218
-62.884829
-64.816991
-66.130647
-66.384189
-63.216847
-57.399094
-47.819641
-36.297903
-30.866425
-42.840176
-58.272998
-62.897395
-70.427816
-82.314026
-80.183418
-53.683722
-26.970237
-21.338996
-33.757730
-57.017619
-78.458093
-100.088977
-117.270036
-105.132908
-62.602154
-30.791243
-24.120671
-12.649329
3.017526
11.662074
21.496099
29.396153
10.079022
-24.784700
-28.248454
-4.162002
15.414100
18.493120
24.864959
42.224721
45.489994
43.384307
52.801664
59.870201
51.641523
44.661290
52.064667
54.402830
53.032545
62.538483
70.265531
62.763944
64.910917
84.013202
76.243795
52.315264
41.102113
24.596710
19.821647
43.803413
63.735656
63.300017
57.989572
61.022614
61.838016
43.885446
18.980447
6.610030
9.910892
17.187762
23.325550
29.673750
22.778461
16.299840
21.342706
14.783038
10.842089
34.854248
53.695467
24.988764
-18.253252
-29.412891
-24.871897
-24.456537
-6.649195
24.492554
23.823383
3.166629
-7.967552
-18.258787
-25.290194
-20.658281
-13.659882
-11.711112
-11.047934
-16.039643
-24.532504
-26.039687
-12.501111
1.084223
4.776296
20.975934
39.758964
43.637031
34.330836
15.043838
-2.273080
-17.609527
-26.086283
-17.342503
-13.480802
-26.438555
-36.636792
-39.627769
-27.965237
-1.946112
15.705370
25.767471
26.416363
10.392050
5.257468
26.606746
43.069529
43.063546
55.666957
75.605695
77.963859
71.418738
62.040328
48.021683
36.462521
33.308150
35.990245
28.193302
19.647968
29.178844
38.695693
34.452375
18.907074
12.304024
25.356055
26.836204
14.507090
4.388601
-8.214309
-15.493275
-16.101660
-14.940246
-13.410482
-11.159602
-2.083579
8.284789
12.989956
4.094195
-13.771613
-10.872871
11.751607
15.822421
2.585159
6.261386
12.476064
-2.658024
-17.778604
-22.000880
-29.773405
-41.260871
-37.281495
-22.792169
-22.927257
-27.398132
-20.164903
-14.297534
-12.385910
-5.199180
-6.885083
-18.109663
-22.269596
-27.461326
-32.365234
-28.246622
-14.699994
11.391347
37.217206
48.806743
50.507175
45.387659
31.128989
18.204227
4.520424
-13.882584
-4.475357
30.973084
49.731437
39.108738
20.254514
12.614730
-1.521849
-23.101299
-25.693012
-13.549390
-3.729392
-5.019409
-14.184030
-25.265739
-37.614335
-50.469219
-63.489056
-70.665414
-61.373005
-45.665107
-50.981526
-61.972316
-53.047998
-47.912395
-56.989994
-55.991714
-39.366836
-32.123216
-33.393750
-17.148912
-0.185816
-0.942269
-2.454906
6.079760
11.472793
1.699536
-12.124803
-22.281478
-26.615974
-23.101063
-15.745743
-3.487304
11.190874
21.737702
23.251881
15.880178
11.695567
11.688545
8.330776
9.854825
18.482229
23.777849
20.352540
24.346723
44.133496
53.424087
53.371346
55.489484
51.363322
47.900607
