EVENT_NAME: 202302060117
EVENT_ID: 13194
EVENT_DATE_YYYYMMDD: 2023/02/06
EVENT_TIME_HHMMSS: 01:17:32.00000
EVENT_LATITUDE_DEGREE: 37.288
EVENT_LONGITUDE_DEGREE: 37.043
EVENT_DEPTH_KM: 8.6
HYPOCENTER_REFERENCE: AFAD
MAGNITUDE_W: 7.7
MAGNITUDE_W_REFERENCE: AFAD
MAGNITUDE_L: 
MAGNITUDE_L_REFERENCE: 
FOCAL_MECHANISM: 
NETWORK: TK
STATION_CODE: 0201
STATION_NAME: 
STATION_LATITUDE_DEGREE: 37.76121
STATION_LONGITUDE_DEGREE: 38.26742
STATION_ELEVATION_M: 671.0
LOCATION: Kahramanmaras_Pazarck_Turkiye
SENSOR_DEPTH_M: 
VS30_M/S: 391
SITE_CLASSIFICATION_EC8: B
MORPHOLOGIC_CLASSIFICATION: 
EPICENTRAL_DISTANCE_KM: 120.12
EARTHQUAKE_BACKAZIMUTH_DEGREE: 
DATE_TIME_FIRST_SAMPLE_YYYYMMDD_HHMMSS: 2023/02/06 01:17:32.7483820
DATE_TIME_FIRST_SAMPLE_PRECISION: millisecond
SAMPLING_INTERVAL_S: 0.01
NDATA: 4725
DURATION_S: 
STREAM: HNZ
UNITS: cm/s^2
INSTRUMENT: sensor = CMG-5T/GURALP | digitizer = 
INSTRUMENT_ANALOG/DIGITAL: 
INSTRUMENTAL_FREQUENCY_HZ: 
INSTRUMENTAL_DAMPING: 
FULL_SCALE_G: 
N_BIT_DIGITAL_CONVERTER: 
PGA_CM/S^2: 318.965
TIME_PGA_S: 
BASELINE_CORRECTION: BASELINE REMOVED
FILTER_TYPE: BUTTERWORTH
FILTER_ORDER: 
LOW_CUT_FREQUENCY_HZ: 
HIGH_CUT_FREQUENCY_HZ: 
LATE/NORMAL_TRIGGERED: 
DATABASE_VERSION: 
HEADER_FORMAT: DYNA 1.2
DATA_TYPE: Acceleration
PROCESSING: Automatic Paolucci et al., 2011
DATA_TIMESTAMP_YYYYMMDD_HHMMSS: 
DATA_LICENSE: U (unknown license)
DATA_CITATION: Turkish Accelerometric Archive v 1.0 - Disaster And Emergency Management Presidency, Earthquake Department
DATA_CREATOR: AFAD
ORIGINAL_DATA_MEDIATOR_CITATION: : AFAD - Disaster And Emergency Management Presidency
ORIGINAL_DATA_MEDIATOR: AFAD PROCESS SERVICE
ORIGINAL_DATA_CREATOR_CITATION: AFAD PROCESS SERVICE
ORIGINAL_DATA_CREATOR: network: TK
USER1: GuestUser
USER2: 
USER3: 
USER4: 
USER5: 
[...]
-12.589649
-8.077602
1.946054
2.349503
-5.303917
-13.866893
-18.723647
-14.864135
-5.063813
0.078934
-7.119085
-17.903548
-18.621136
-10.064124
-4.077324
-4.929661
-9.334756
-12.026168
-3.041202
11.852134
13.305503
0.678845
-11.444999
-12.734023
-3.117733
4.661354
4.326802
-1.263585
-9.562054
-13.944691
-9.224283
-6.941834
-19.808045
-31.863891
-28.302573
-19.965151
-12.567230
-0.236620
10.661657
12.528006
4.895796
-3.643474
2.102525
11.255927
10.091046
4.851880
-3.128432
-8.438716
6.489555
35.072395
39.810895
18.035028
5.520037
10.555484
13.149852
9.729798
4.615398
-2.909511
-5.968364
2.104551
12.014045
6.857224
-5.348342
-17.498388
-18.400008
2.508375
11.912560
2.601602
-5.499110
-10.481879
-4.334753
3.759372
-0.879662
-4.650938
-3.939313
-11.194725
-17.637275
-14.298044
-7.080412
5.578337
12.456601
7.116996
8.930319
11.038718
5.911218
6.616605
2.587060
-4.204840
3.368380
12.811243
8.578951
2.394670
-2.218787
-6.979470
-2.138661
2.988490
-1.944372
-17.948489
-29.970024
-32.978970
-29.304114
-11.054528
5.174446
9.285364
2.242682
-12.778267
-23.820999
-29.281005
-25.130784
-7.259868
3.267849
-2.522167
2.226314
30.755504
51.343235
36.994160
13.949406
13.959213
33.414678
39.457623
9.086515
-16.449849
-9.069394
9.119679
22.995535
24.311659
17.487320
7.073416
-3.033559
-0.240811
5.704816
3.592326
7.533560
18.141753
29.691941
34.393011
17.101292
-5.176141
1.503743
13.221119
3.937610
-5.106969
-13.120968
-23.148092
-20.801387
-12.302391
-22.549730
-36.548832
-27.203911
-0.770818
20.176868
17.045650
-0.658426
-13.698065
-19.668993
-11.239867
5.817563
7.582227
1.464696
-2.250434
-3.997979
4.836018
22.026326
22.352419
2.089360
1.709268
22.127314
26.824017
26.355340
29.587895
14.469628
-10.096667
-12.767492
4.307406
11.204386
6.098097
-4.114931
-27.696186
-43.700303
-39.042278
-23.798969
3.846866
24.351626
17.281495
7.365414
14.223092
13.406937
-3.761886
-33.409966
-56.439124
-27.767075
21.097365
21.329882
-9.870931
-22.069012
-33.069323
-49.842633
-26.143198
3.288686
-7.472072
-16.143596
-3.918415
6.114599
11.793223
14.392582
0.155174
-18.943804
-17.595240
-12.192977
-12.660406
0.494294
-5.464782
-43.177217
-37.388798
14.150660
34.197523
23.081177
15.986092
2.945206
1.887626
33.550979
52.322093
34.244962
16.815998
22.348644
27.936811
14.343205
1.929900
3.830560
-0.630680
-18.149476
-18.353022
21.674128
48.605044
30.360101
6.518706
-10.806701
-26.871330
-22.887674
7.954707
16.917839
-11.112005
-24.136048
-11.839749
-10.404472
-18.477112
-19.496638
-12.278381
-3.978390
8.350972
20.050881
-3.747469
-30.232690
-21.799197
-8.913372
8.617552
30.367493
7.079443
-28.802028
-24.336769
-19.914555
-20.362021
-8.308396
-12.584981
-34.684620
-17.711407
35.311538
46.909762
9.879805
-24.087106
-22.490255
3.959682
17.051374
16.704346
8.352227
-25.387607
-51.791729
-26.650604
9.964775
4.942080
-29.941873
-52.573646
-46.583727
-23.273567
-0.181750
-6.875708
-11.804827
19.803628
34.852300
12.193078
-4.320715
1.167014
9.605498
7.527943
-2.806734
-9.425830
0.274054
11.093104
15.605774
21.369864
23.489491
29.481282
16.988750
-9.865783
-8.111725
13.524677
26.381806
17.644779
6.323191
9.306834
21.041678
28.536919
7.618205
-21.696745
-28.252834
-28.578652
-35.809110
-27.768011
-3.801574
-3.814225
-15.592463
6.874892
24.742065
-0.532286
-27.091744
-2.684253
48.054197
43.904876
-8.424710
-41.054113
-29.058504
-8.405270
2.867310
16.188574
14.441029
0.380792
-6.212728
-15.436972
-13.079039
4.823693
17.886688
26.838591
20.127790
8.350800
-5.251541
-11.708439
-0.210030
2.968251
9.921376
15.605614
4.992082
0.190226
-1.703921
-1.646078
-0.926967
6.746691
5.259287
-19.447372
-28.876235
-9.924832
0.732644
-19.580323
-28.064072
9.759058
42.027533
13.647092
-24.986128
-41.418822
-45.039129
-19.906738
-3.041449
-20.673160
-13.776180
24.459306
30.146040
-7.442251
-40.948146
-49.881058
-28.608354
-1.660593
-14.606656
-26.162184
10.702107
56.432385
64.500932
49.354592
-1.149643
-65.227348
-62.676648
-6.497706
35.618677
29.920989
-25.895852
-72.759992
-45.904560
16.626302
44.934653
34.180133
-9.713914
-51.188093
-22.236565
42.724770
54.887567
24.744784
18.308471
17.833556
15.291865
38.359353
41.415361
0.040372
-37.340181
-44.939951
-15.740136
32.447440
56.660918
37.954334
3.639945
2.316610
33.649328
37.475777
-5.944153
-41.667169
-39.623650
3.539534
31.429290
10.370836
-9.351980
-4.690212
15.798952
35.110310
11.504726
-29.227710
-18.778596
17.813078
39.343428
15.710394
-34.657221
-45.199635
-21.578804
-8.254420
2.779230
2.484604
-14.566937
-11.276365
15.240323
29.039447
6.332189
-25.463141
-24.096487
25.962604
55.244766
16.098751
-27.917569
-37.974013
-22.542928
6.082332
20.124754
4.052638
-29.903668
-33.729841
-7.022883
10.060749
17.682005
11.540768
-7.878238
-14.468638
-3.129308
-4.093936
-15.494751
4.505948
24.016310
-25.302633
-54.406727
-16.325952
9.646749
9.419498
3.492238
3.951208
5.243002
-8.020594
-12.631556
24.148517
33.830934
-2.142865
-21.493873
-16.533911
-3.797807
9.666940
14.470943
-0.168216
-9.899017
-5.515481
2.005337
3.587216
11.125501
26.444919
10.359079
-24.924755
-22.537501
5.128297
24.268100
14.788081
-6.125018
-7.395950
9.511136
30.669678
12.175199
-14.239528
-10.042520
10.686822
26.547108
23.394056
-16.299689
-47.948418
-12.559505
18.418249
0.806501
-19.403532
-38.544307
-47.642536
2.694786
57.873715
43.678105
-2.951472
-2.419513
33.837160
48.875226
20.500400
-28.557779
-37.112645
-7.290239
-7.365898
-11.373608
15.326488
15.693754
-20.802821
-31.079480
25.489985
50.283632
-5.745938
-51.394218
-38.896420
8.555027
49.384433
47.511497
20.940810
-13.046064
-23.227900
15.186628
33.750004
7.048935
-16.622152
-36.728005
-44.174935
1.164196
40.286781
26.211571
-3.729713
-25.893607
-23.601801
8.092120
36.701785
35.699726
-5.116927
-35.897274
-28.007768
-15.535547
-13.302381
-23.719404
-27.150064
-19.181954
-5.634237
9.544818
6.386151
-12.268654
-5.298062
16.040770
-2.574109
-40.573510
-21.922797
27.844337
27.083080
11.883091
0.660693
-20.783293
-8.191919
24.492033
27.311606
5.522015
-15.880797
-28.455052
-16.261063
-11.344146
-14.861519
-2.258916
-16.064628
-12.502063
30.350449
52.441006
25.903383
-15.375535
-21.168670
-21.287374
-1.450744
40.557715
45.810882
17.644417
-15.034269
-14.456145
10.471003
10.717245
-1.285574
6.106733
16.365576
19.191388
-12.038745
-45.623868
-23.452212
-17.985693
-18.073205
11.833419
20.880145
1.438056
-22.541207
-15.919964
7.359628
10.699483
-4.403812
-30.343175
-30.498685
-5.502914
-8.408302
-18.150333
-2.792861
28.742605
41.040775
6.006476
-39.549475
-32.338081
15.908759
39.059841
26.874861
28.663854
38.207155
20.484364
4.543878
0.155627
-8.452890
-18.504967
-12.410867
4.235454
0.183451
-20.923661
-16.066632
13.698381
25.647201
22.321970
18.090925
9.388209
3.180846
-29.014989
-53.878231
-6.592101
23.910289
-17.599449
-14.030646
32.967895
16.312491
-5.954337
4.894033
-0.491736
9.985451
35.329947
18.570986
-15.971728
-11.931927
21.509988
9.744851
-16.799635
-14.837838
-19.176807
-13.728379
14.923707
18.069548
10.497850
35.271535
23.782134
-28.528737
-52.468698
-49.339701
-6.321871
68.534160
65.265698
1.456867
-19.232274
-16.269218
-33.240284
-18.257115
15.576570
16.595747
6.878671
14.520513
34.949789
25.846569
8.257903
21.756961
28.260299
1.222358
-28.884867
-65.547383
-78.989397
-41.397088
9.590898
18.675054
-2.092691
14.461302
67.320178
94.407678
62.362188
5.462364
-14.698386
16.766586
39.352470
15.734409
-21.344831
-26.292042
4.287704
29.473121
8.245608
-18.212164
12.113679
19.885904
-29.044388
-18.719418
5.286945
-26.679941
-34.462496
-4.232100
14.477254
14.267470
1.854789
-20.482532
-33.516556
-8.148354
16.446913
1.105312
-6.611116
6.869227
14.511693
15.946970
17.467089
-2.376127
-18.501893
-15.689181
-13.769806
-2.110446
2.891937
-2.148849
-7.446033
-17.793186
-16.404697
-14.162173
-11.671362
16.903992
37.819238
3.574718
-49.499730
-7.421401
102.411361
107.435579
11.033702
-75.003104
-98.292402
7.823532
159.384825
154.241105
-2.555162
-132.085960
-121.056053
-16.517805
55.814800
17.600175
-100.195605
-140.847565
-10.066320
131.238450
126.401659
20.129417
-66.559300
-60.347919
-9.600111
24.667765
-6.134416
-49.740873
-38.666050
-58.696418
-43.681433
54.031402
118.046374
88.606032
-16.154651
-81.095124
-53.507306
7.470823
64.595503
79.959838
27.575354
-17.945663
5.076908
14.523514
-3.828730
-8.223220
-31.809465
-28.413465
18.510839
33.311224
8.372497
15.074839
71.074740
111.485550
51.691741
-28.393026
-10.313124
23.700850
-9.359001
-30.169790
-3.289405
-19.121966
-75.428520
-79.703233
-19.808711
27.919096
20.340536
-32.115689
-50.504739
-68.069075
-56.466484
6.822964
6.452230
-5.651651
1.039462
-29.106441
-31.621931
-9.464623
-49.823380
-78.011055
-17.471485
56.571685
53.812275
10.271944
-8.520105
-16.932737
-67.990317
-131.356222
-91.871812
45.751690
71.592137
5.592387
-21.098700
-8.495474
35.826801
54.614759
1.858468
-27.581250
49.165634
94.450491
53.185298
-20.795837
-77.880317
-77.960342
10.599540
59.118998
14.486950
-33.284250
-72.147667
-72.105420
-52.046705
-10.290276
61.730411
76.314948
15.614078
23.567840
57.307325
16.057104
-12.194826
-10.209324
-47.745213
-96.538261
-84.414142
-20.721694
2.223521
-45.995595
-48.804913
30.536514
92.284459
51.613783
-25.032388
-38.751386
-4.094235
-15.926746
-70.799720
-50.904450
9.068676
97.347831
151.531739
89.203276
45.463317
24.744855
-40.915527
-57.839181
-2.380149
30.707426
32.180757
46.837035
26.987580
-45.140756
-44.125321
43.282956
89.215981
62.803749
-16.764480
-58.299171
15.906197
40.881381
-12.267929
-15.207004
-23.160491
-39.375465
10.498969
-0.118306
-59.942683
-47.226541
19.607556
49.678249
21.572297
4.367292
-16.379867
23.601743
57.820960
-0.823739
-77.120561
-60.288959
-2.362023
-6.207535
-68.764323
-59.670186
22.935162
38.869684
-0.205837
-49.867267
-22.301284
66.339074
99.787851
43.412675
-21.626989
-45.331763
17.695674
47.564868
-8.839629
-51.794176
-17.087117
-0.770806
-22.511115
18.769950
28.796101
-10.346171
-10.251522
36.189931
46.261623
21.304182
-14.331497
-13.448316
-18.284484
-55.294477
-29.168936
64.449026
76.832038
-4.613944
-49.845500
-61.933785
-60.610175
-26.018526
-19.405393
-32.288448
1.590777
14.334367
-35.328934
-38.024089
17.805503
27.674448
26.524540
38.352960
14.209627
-35.557856
-21.786804
39.251213
68.754838
37.607674
13.552927
41.915552
65.916924
14.072061
-46.524004
-63.463254
-83.906603
-74.472474
-14.911082
50.307898
16.911799
-9.695071
13.165926
-6.384711
-32.360256
-25.113303
-41.210372
-61.570127
-24.035834
7.086027
27.303198
27.329848
-34.271219
-109.430784
-48.243670
45.274478
19.222824
-61.492643
-112.328137
-75.250493
-14.044664
-2.765846
17.852453
41.987327
17.622532
38.275142
46.792853
19.870945
-22.720528
-76.967168
-89.789087
-56.129453
-14.178386
-4.280122
-39.017473
-54.028440
18.888078
52.713030
30.178575
-1.292984
-25.496829
-21.748984
17.862066
39.851561
39.511395
37.306577
55.081421
60.944077
-13.712050
-68.156447
-66.414866
-50.255138
7.757264
96.829318
78.758425
-35.910055
-88.094910
-59.602527
-13.330134
64.129174
65.166442
-10.454139
-2.129194
30.642094
26.282539
26.750244
21.508581
8.224399
-31.224802
-66.403831
-28.510207
42.982712
61.188005
26.610980
18.074205
16.794539
26.522496
40.485690
8.727789
-42.507585
-43.104772
-2.577928
28.790973
40.114084
16.973883
2.449509
22.695377
13.803638
-40.229650
-54.977357
-23.051369
-25.491998
-70.781571
-30.643378
46.892662
19.031878
-0.567418
19.270459
27.617862
33.433107
17.717203
-5.042457
-19.117667
-43.572918
-28.804350
2.985018
5.034152
-2.026622
-23.003977
-40.537121
-56.085212
-29.148681
1.953841
-14.791396
-26.454224
-49.857685
-55.065659
32.504192
45.026320
-11.847303
-48.484865
-82.144848
-31.926055
63.881578
74.826020
22.667365
-44.772827
-65.007190
32.530970
53.704485
-8.922173
-7.844979
0.420702
-33.307280
-13.722681
-0.864928
6.491821
34.228112
28.420629
44.388214
80.686060
76.038292
45.333430
19.893761
-14.206027
-46.650150
-79.480428
-31.244817
63.807973
79.997645
-1.188196
-51.066098
-46.059972
19.978107
92.029362
56.311961
-32.848402
-66.536458
-6.592029
57.518390
83.960841
48.693228
-70.534261
-129.607537
-33.862911
-6.111647
-89.712989
-74.807800
26.034831
66.573528
41.398991
-8.705988
-35.672812
-24.649144
15.200836
30.960684
-16.904717
-66.372133
-30.986963
62.529313
29.660357
-70.604325
-64.900124
-51.849605
-66.886773
-15.573768
51.928459
70.840561
13.624451
-24.925799
35.413520
49.400419
-51.881119
-42.328460
-18.982741
-110.656548
-124.728639
0.803633
23.400122
-70.100907
-18.940743
5.588397
8.457254
81.802349
171.860691
52.582048
-170.878806
-202.932406
-33.163775
75.302781
41.801877
13.130727
-97.543317
-47.210986
97.059511
30.858885
-77.569966
-87.884056
-200.648582
-215.575330
-19.002871
82.621429
53.929693
56.081136
27.023830
-2.399668
18.408277
37.485696
38.850479
4.012066
42.653048
61.837143
30.436701
-8.223968
-29.330457
-39.330756
-25.153586
-34.553129
-38.956353
-22.128494
25.730943
45.809622
20.396778
78.094766
77.778306
-6.539826
-65.254395
-38.331589
-20.394546
10.442845
13.798295
-79.782585
-109.447509
-40.112445
64.235532
90.069741
3.775290
-73.984432
-19.691977
56.358704
36.108745
38.834119
91.570723
78.261586
36.373803
22.598035
-56.288962
-65.077768
49.382001
16.738874
-101.648304
-32.823540
125.805214
89.229412
-14.897452
2.400781
18.150023
-36.873296
-62.281772
18.580572
80.115788
51.571277
62.309852
95.287631
38.434595
36.910384
102.270976
55.362543
11.375544
18.221369
-33.161231
-13.569770
99.123914
105.935428
-61.890921
-185.298748
-95.113767
91.293874
107.588974
-34.330625
-49.570541
9.008931
4.890801
-30.131021
-10.359270
-5.623890
7.976230
9.609888
-69.945240
-43.764177
63.326816
45.766223
-53.530262
-59.725149
-12.615565
48.502303
7.348153
-77.399804
-47.561802
27.160104
38.869995
3.704690
-17.234610
-17.668975
44.227443
87.132981
42.846540
52.858967
102.152608
-1.782113
-102.635074
-29.774077
54.014067
-7.617568
-61.859218
-36.388083
-46.942350
-39.188841
61.630708
107.555000
51.641464
38.553166
72.817299
34.535300
-90.908735
-101.424949
-3.190585
34.034908
41.264393
40.878687
-9.820186
-29.629092
24.381389
121.199640
131.767284
24.785737
-38.146601
-40.088784
-25.633382
-8.279004
29.940887
60.174402
17.740760
-56.935954
-70.825884
49.160467
144.368592
66.863396
-55.965510
-80.372103
-12.974056
48.244874
50.446224
46.424166
45.050924
-26.459812
-44.764021
13.983263
3.775226
-62.988102
-25.658429
16.401186
-47.892991
-110.231435
-70.223625
54.047870
81.110416
-5.082973
-107.455604
-79.987563
28.730400
60.789890
-43.860998
-108.829544
-48.419108
27.616601
46.168124
-8.785949
-45.820272
-72.184468
-13.148348
41.358084
14.635805
3.785214
27.696131
26.780786
-6.515500
-19.251953
7.367045
19.838642
1.554396
51.847426
56.753738
16.349441
6.791443
-16.874029
-11.708200
42.963549
35.674450
5.901602
22.023276
1.172561
-35.455644
-32.050910
23.534762
35.338852
-5.650605
-34.737231
-15.042836
4.219239
27.846308
91.861281
124.448537
55.480566
-24.202450
-29.797828
-38.696429
-39.130171
8.941995
76.122946
71.917479
-2.582689
-33.870216
18.545111
39.242637
43.456489
63.762869
63.417088
33.367256
-17.186263
-52.144453
-34.851835
31.057110
76.206594
71.407233
51.676931
66.172259
10.715997
-83.635324
-82.993569
-13.281707
29.927017
-1.228256
-43.813491
-41.093731
20.167620
84.464567
71.633291
27.153460
6.879171
-56.881624
-113.249938
-99.340394
-82.020951
-73.884405
-51.324099
-32.580433
-27.995398
-10.949820
-23.595816
-36.473881
23.420641
59.333579
41.607045
52.771077
47.025977
4.348415
3.447418
41.588705
23.000027
-36.025213
-71.538619
-52.188583
10.554383
27.706013
-5.323893
1.170711
9.967278
-23.029565
-38.968803
-27.116678
5.769397
4.497841
10.034230
31.053656
38.785955
-29.667974
-113.333572
-97.262429
-37.114005
39.878048
86.569660
73.205002
26.086336
26.961406
47.587815
39.973696
29.369522
44.895430
99.025688
119.454340
43.931077
-14.570139
-46.503962
-82.928796
-41.016407
64.407691
28.203072
-113.119514
-67.583250
53.219081
100.648693
13.022348
-57.146512
-0.955717
78.206668
18.480234
-97.445280
-105.267136
-118.188869
-80.509222
43.920103
159.454745
149.619763
41.761100
-134.250627
-143.740627
21.276853
149.240846
132.730796
41.577893
-4.761599
-1.044946
88.503096
151.530533
137.784086
28.037065
-46.388243
-35.227953
35.571258
69.355036
18.100947
-53.348029
-57.514818
-19.034786
-31.128062
-15.620245
16.423648
20.664325
13.063931
0.908895
-62.515651
-105.644249
-51.904514
22.920325
55.515068
53.196711
44.435354
52.962423
53.888648
26.053441
-12.090690
-13.010402
16.341007
19.664018
-30.814017
-120.914504
-167.319499
-174.851895
-119.729735
-42.937934
38.725418
121.197888
157.001030
115.800716
10.506028
-31.713014
-22.904594
42.683698
24.692033
-34.598963
-29.592836
-18.130609
4.699819
41.750014
49.244630
13.960173
34.259690
76.457796
63.628391
3.935645
-46.276635
-78.566045
-95.152203
-84.328163
-0.433966
47.840948
28.831802
15.091594
15.786999
-39.324281
-95.789913
-91.875504
-35.813219
47.085332
33.521046
20.362255
-55.430506
-91.307610
-24.755488
26.209415
49.032982
-24.947529
-47.584293
-77.664693
-56.692054
23.405465
60.451292
156.809775
247.163192
243.618369
78.863176
-69.614833
-88.608383
-129.634022
-194.421655
-145.121152
-50.381529
40.401089
55.958813
34.981458
10.186839
6.915881
95.883130
138.353853
86.684912
-77.793297
-156.566756
-95.949206
-97.732310
-150.166700
-206.371568
-209.648141
-154.384369
-35.593916
149.554196
235.438437
223.599687
111.874475
67.505064
35.319834
-9.460687
-26.437368
-36.270478
-49.600825
-162.909962
-201.825157
-183.283615
-69.892481
22.243866
52.189792
59.909614
34.085037
22.468997
25.542473
96.366015
151.162532
124.771510
38.114609
-73.314279
-158.204471
-178.685250
-94.327541
10.193239
31.321213
-42.974336
-102.604699
-112.736628
-94.931215
-29.783977
32.901597
123.862008
148.517163
106.425384
103.391485
35.760399
-114.758185
-272.371056
-318.965074
-219.494887
-57.786868
38.376977
18.888724
74.008389
152.684181
189.867252
166.793178
74.217301
43.571080
42.713128
-24.710221
-10.020255
-8.488283
-44.050972
-0.722472
-18.896921
-32.124335
-29.182489
-52.572225
50.267311
153.469298
69.194835
-9.591725
-46.374642
28.563736
30.585421
-15.613084
14.253614
7.202198
14.405482
16.614318
56.496114
122.623402
111.510800
-17.204643
-45.614404
24.058156
126.604489
58.604714
-67.982193
-114.581826
-72.492267
78.717804
68.877208
40.471189
