EVENT_NAME: 202302060117
EVENT_ID: 13194
EVENT_DATE_YYYYMMDD: 2023/02/06
EVENT_TIME_HHMMSS: 01:17:32.00000
EVENT_LATITUDE_DEGREE: 37.288
EVENT_LONGITUDE_DEGREE: 37.043
EVENT_DEPTH_KM: 8.6
HYPOCENTER_REFERENCE: AFAD
MAGNITUDE_W: 7.7
MAGNITUDE_W_REFERENCE: AFAD
MAGNITUDE_L: 
MAGNITUDE_L_REFERENCE: 
FOCAL_MECHANISM: 
NETWORK: TK
STATION_CODE: 3134
STATION_NAME: 
STATION_LATITUDE_DEGREE: 36.82763
STATION_LONGITUDE_DEGREE: 36.20485
STATION_ELEVATION_M: 29.0
LOCATION: Kahramanmaras_Pazarck_Turkiye
SENSOR_DEPTH_M: 
VS30_M/S: 374
SITE_CLASSIFICATION_EC8: B
MORPHOLOGIC_CLASSIFICATION: 
EPICENTRAL_DISTANCE_KM: 90.29
EARTHQUAKE_BACKAZIMUTH_DEGREE: 
DATE_TIME_FIRST_SAMPLE_YYYYMMDD_HHMMSS: 2023/02/06 01:17:25.1268070
DATE_TIME_FIRST_SAMPLE_PRECISION: millisecond
SAMPLING_INTERVAL_S: 0.01
NDATA: 11251
DURATION_S: 
STREAM: HNN
UNITS: cm/s^2
INSTRUMENT: sensor = GMS+/GEOSIG | digitizer = 
INSTRUMENT_ANALOG/DIGITAL: 
INSTRUMENTAL_FREQUENCY_HZ: 
INSTRUMENTAL_DAMPING: 
FULL_SCALE_G: 
N_BIT_DIGITAL_CONVERTER: 
PGA_CM/S^2: 246.107
TIME_PGA_S: 
BASELINE_CORRECTION: BASELINE REMOVED
FILTER_TYPE: BUTTERWORTH
FILTER_ORDER: 
LOW_CUT_FREQUENCY_HZ: 
HIGH_CUT_FREQUENCY_HZ: 
LATE/NORMAL_TRIGGERED: 
DATABASE_VERSION: 
HEADER_FORMAT: DYNA 1.2
DATA_TYPE: Acceleration
PROCESSING: Automatic Paolucci et al., 2011
DATA_TIMESTAMP_YYYYMMDD_HHMMSS: 
DATA_LICENSE: U (unknown license)
DATA_CITATION: Turkish Accelerometric Archive v 1.0 - Disaster And Emergency Management Presidency, Earthquake Department
DATA_CREATOR: AFAD
ORIGINAL_DATA_MEDIATOR_CITATION: : AFAD - Disaster And Emergency Management Presidency
ORIGINAL_DATA_MEDIATOR: AFAD PROCESS SERVICE
ORIGINAL_DATA_CREATOR_CITATION: AFAD PROCESS SERVICE
ORIGINAL_DATA_CREATOR: network: TK
USER1: GuestUser
USER2: 
USER3: 
USER4: 
USER5: 
[...]
-90.616534
-96.395580
-98.480207
-77.090646
-62.475053
-69.401495
-74.783096
-71.080614
-49.904582
-36.462621
-40.078840
-45.165085
-58.318943
-62.814996
-49.769960
-42.027566
-43.509532
-41.418909
-27.653537
-18.017435
-20.046472
-18.702422
-19.272862
-20.757426
-14.952122
-10.379157
-3.770910
8.386239
18.528369
28.468659
30.208854
11.948479
-16.909130
-39.207858
-51.948944
-76.470246
-96.066609
-83.022871
-68.554567
-68.547803
-78.329873
-91.482692
-95.590651
-91.488905
-77.429995
-65.535211
-56.665945
-39.374483
-28.210946
-35.385206
-55.607089
-66.106119
-59.289798
-51.519090
-47.487741
-39.014101
-15.339621
16.053083
44.503656
65.093391
69.531017
61.310412
35.931096
-3.819620
-38.766968
-60.665913
-71.806050
-79.757276
-70.912947
-41.325110
-9.302988
21.460038
40.756909
38.886071
21.146010
-4.050948
-31.272019
-51.872643
-70.043140
-95.002151
-101.714543
-90.466062
-82.307521
-74.083518
-64.625877
-50.362789
-43.731683
-50.596040
-61.549144
-80.325159
-101.283484
-118.765855
-130.898305
-136.244059
-125.291454
-90.796081
-53.793169
-26.860421
0.784872
37.744402
72.169637
90.805139
85.640184
53.991889
19.678894
2.726710
13.795951
42.873084
67.561698
76.293807
56.107771
32.565534
37.856758
56.607596
45.817886
6.185364
-27.050892
-58.908040
-80.617355
-82.320383
-72.022653
-46.093907
-8.393258
38.723458
68.414942
71.271621
66.896360
52.585755
28.048607
2.453944
-8.843872
-11.574802
3.294844
47.368379
83.391187
105.125720
118.658340
127.496694
139.493047
141.196356
145.360446
137.732631
82.848355
11.863664
-40.324221
-61.793251
-45.915186
-19.246361
-4.849493
0.668768
-7.205827
-23.712249
-31.080556
-30.538930
-17.062419
0.152671
-0.170469
-1.393966
9.779962
22.695114
26.244593
25.670257
23.345604
19.423378
21.639469
17.622428
7.577213
1.195245
-0.235806
8.278618
22.798356
29.329452
17.866943
5.439656
4.388126
6.166767
-3.161229
-28.157127
-50.944219
-66.631333
-70.176116
-62.543085
-61.853910
-61.520358
-51.021047
-32.002128
-14.369851
-8.103199
-9.558668
-6.382215
1.841528
-7.888849
-34.506738
-52.952847
-54.275056
-43.754704
-23.991031
1.879787
14.408664
10.081201
1.256635
-7.786396
-21.686827
-41.947415
-46.588678
-31.066755
-15.810575
-14.149608
-25.571593
-32.909247
-26.240475
-10.571003
1.167400
-4.195239
-26.559688
-52.411002
-70.350045
-81.443423
-85.486441
-89.839362
-100.079403
-101.542665
-90.280416
-71.182528
-54.530095
-52.198148
-48.628406
-35.908340
-22.227132
-7.932872
1.161873
-0.903791
-19.048570
-39.728684
-45.429281
-46.514581
-47.750806
-49.872060
-50.100646
-52.396205
-72.563537
-81.221851
-50.830552
-5.615337
16.557424
-1.708406
-30.456652
-37.825219
-30.781082
-24.744324
-24.978625
-25.299947
-18.562856
-16.907604
-19.560603
-11.441287
-4.484951
-0.002645
1.240874
-2.635112
-1.233654
-11.296274
-37.459829
-64.413338
-81.546061
-87.464603
-89.184516
-86.373817
-78.202287
-67.436195
-60.909515
-51.555522
-28.974665
1.293764
33.900104
55.244985
57.560047
48.283225
34.606454
24.023779
10.562356
0.967319
13.688944
29.517653
22.820067
-1.336521
-15.260591
-10.042103
-10.576175
-17.438454
-20.457726
-25.859070
-27.666265
-26.058811
-27.535841
-25.151680
-6.088601
29.068400
58.946917
69.445189
64.218409
61.342788
62.757495
52.318471
42.330925
42.159748
42.034550
43.299111
55.425088
82.455769
106.337284
108.675725
104.224612
108.162705
104.522587
85.605778
64.528998
49.324013
38.415329
26.641358
22.780958
27.994510
34.667959
44.873212
38.965320
21.002898
21.416979
23.016900
13.801384
10.268031
10.743157
9.963084
11.000867
19.692713
36.412426
56.289877
77.706454
98.519850
111.337589
101.881008
76.215948
57.915048
42.762016
30.784647
42.376282
64.089773
75.306563
82.444476
93.345128
102.275700
104.902484
103.243356
92.007884
86.106487
85.832183
73.891181
63.848044
51.879248
35.742994
21.655271
-0.279522
-25.125015
-45.747980
-55.995035
-51.786265
-32.409126
-11.336741
0.717540
18.522563
28.573514
18.536871
4.587604
-5.366432
-11.394856
-13.533515
4.029924
39.635544
60.732087
54.127758
26.883309
-5.033327
-15.075425
-11.500488
-15.920169
-18.418606
-16.690620
-6.401202
0.888416
-13.444009
-27.255599
-23.106835
-1.293593
14.368865
5.859138
-9.444040
-15.871987
-18.395622
-28.865557
-30.883164
-12.543798
12.741502
30.157133
38.185272
47.115324
48.104271
38.492089
27.304674
15.612271
12.451685
18.920955
25.068374
27.518515
31.093192
28.557608
9.355833
-8.724264
-17.947054
-20.739289
-11.401920
-2.498364
-3.268566
-4.645845
1.612235
11.606296
14.375953
3.554551
-11.373003
-15.235222
-4.000768
19.207168
44.647810
64.211203
65.832944
43.018577
20.652829
15.841678
21.841808
35.523275
39.181597
17.570995
-9.733981
-31.164304
-42.347043
-36.540960
-32.093982
-39.011592
-59.304652
-91.050879
-108.308551
-103.927035
-86.823904
-64.813758
-44.365076
-13.440733
24.839458
56.089030
69.334087
53.189261
22.854353
-0.954406
-15.366839
-30.902769
-44.415367
-44.301318
-38.829037
-24.165646
0.473092
19.764247
29.050182
36.299796
40.364914
22.463278
-2.695235
-15.969106
-18.400523
-4.924272
8.895911
7.757359
-13.355788
-41.999607
-50.748840
-43.087754
-38.950680
-45.421748
-57.025311
-68.266758
-63.932519
-45.088944
-40.337518
-42.115100
-38.950077
-44.170623
-53.523296
-58.237035
-57.429406
-49.430622
-33.441116
-11.496431
15.384624
34.747216
21.302158
-12.210232
-36.779851
-53.364204
-54.983327
-47.738908
-55.915873
-74.552392
-90.251197
-90.943728
-74.159332
-51.700567
-28.853448
-12.052687
-15.993876
-49.768111
-89.963810
-105.236075
-101.952338
-92.796288
-79.883214
-71.030053
-56.619417
-34.531340
-25.290605
-30.816898
-42.209269
-48.522659
-49.270001
-54.975273
-66.186586
-66.616232
-36.803696
-2.408854
7.794321
7.142574
7.203370
10.876499
11.305905
4.031894
-5.723939
-20.337173
-25.831514
-17.371902
-11.559844
-10.264630
-17.495780
-27.103286
-32.319156
-44.339386
-59.500211
-58.961962
-27.299878
13.335369
28.425038
25.426547
30.995203
49.302877
55.448737
33.765140
2.833544
-8.519862
2.010620
16.877409
35.859181
62.051072
82.737960
82.668872
57.631411
31.177436
17.861742
13.652993
26.891037
46.409749
54.821824
53.700936
47.649912
44.899500
47.445756
60.733934
86.882444
99.692650
87.799186
70.958961
62.494174
61.388872
55.364604
42.156975
31.058400
19.220007
8.845147
5.574159
5.820690
10.819414
20.403562
33.324169
44.612914
41.001631
32.283570
34.640195
43.082144
51.751909
56.564380
56.644139
58.821004
64.474344
62.214374
51.477137
44.608623
42.951055
45.918914
55.246931
67.423562
74.749288
69.339372
56.358779
51.434369
57.339684
71.319884
92.251214
108.875852
118.125939
119.051502
104.921696
88.182262
78.334211
73.395773
72.117465
56.440741
23.503218
-2.589940
-13.758651
-14.312985
-9.710147
-5.627364
-2.190105
2.531188
12.783719
24.087530
31.379226
39.722463
46.230439
43.991770
33.011390
18.359450
5.267157
1.893822
10.741527
23.146755
24.759665
-0.909033
-34.696257
-49.592898
-50.573251
-42.693181
-41.529150
-53.449370
-55.479446
-45.081186
-33.947262
-23.041675
-19.612468
-29.228027
-39.149333
-43.458872
-52.131734
-68.842853
-86.804496
-91.770469
-81.937204
-80.585101
-90.416008
-83.859455
-62.183370
-45.501583
-32.462522
-16.344951
0.026154
8.181059
11.427908
15.081555
12.157617
1.988493
-7.581607
-13.358056
-20.484518
-27.113785
-31.652440
-44.047776
-64.781142
-82.792660
-90.502302
-88.554032
-85.173662
-83.993785
-78.982592
-74.464958
-72.009361
-68.310255
-71.274457
-74.273467
-66.740187
-55.045944
-53.314840
-67.390354
-83.173843
-86.837599
-80.260265
-78.533837
-86.553122
-83.315105
-62.541973
-46.209054
-40.307896
-35.790262
-36.856079
-44.789121
-56.005630
-63.543305
-58.186880
-50.610479
-46.013355
-44.451620
-49.585923
-51.226606
-47.081739
-37.597861
-25.642552
-19.715936
-19.949457
-25.743570
-27.107341
-23.785679
-24.041280
-18.995537
-8.527139
-5.033770
-17.988645
-37.368361
-46.945734
-46.009520
-39.725724
-35.110936
-24.387706
-3.603664
12.913430
17.043231
18.104913
30.067756
43.301643
47.681081
49.638183
52.649943
55.564549
54.941376
54.500820
55.965922
52.431790
45.980983
40.390269
35.626395
35.025043
38.040699
42.321425
48.884472
56.422168
59.103243
55.465464
48.972056
38.710194
26.680092
17.127137
15.124856
22.172630
26.832098
21.477512
6.476445
-12.606097
-31.901128
-44.320362
-35.299391
-12.817766
10.397704
25.335149
29.053218
38.217841
48.702344
50.965193
48.706002
42.857597
30.330040
1.628552
-32.694833
-51.967264
-50.914674
-33.727379
-12.253653
3.151634
14.122683
27.541785
41.546923
52.343148
60.496235
65.623804
61.611699
43.984378
24.063565
7.943418
-7.139996
-15.004460
-8.375172
10.460611
28.854528
41.588362
51.765560
57.597620
54.848247
45.110857
33.845252
17.956297
0.571080
-6.070137
-4.602697
-0.449517
10.761557
27.522574
38.371532
31.760708
11.407382
-7.024440
-11.310341
-4.172947
0.235585
-2.551455
-11.995047
-19.638448
-19.629086
-21.028705
-21.823845
-23.143975
-30.321352
-36.396534
-39.161753
-41.992434
-43.494661
-33.593597
-11.898808
7.000877
14.186328
9.754958
-1.248541
-12.865872
-16.997730
-13.115748
-6.411387
-2.800603
-12.678527
-25.402469
-28.750348
-29.659525
-30.446352
-29.178154
-22.406773
-16.823571
-18.551277
-19.440712
-17.799748
-14.671872
-12.608524
-11.517749
-5.450339
3.182020
8.359984
11.226014
17.711390
25.299741
27.494011
26.505345
31.244562
37.210922
32.558489
26.988815
25.670503
23.182976
20.704281
14.175284
9.961599
16.610370
26.326740
39.393596
50.862620
41.733087
13.255519
-16.418280
-26.010720
-10.344365
11.196900
25.193726
27.406180
27.123043
33.389175
36.472111
39.037850
46.859472
52.280060
46.556604
34.129576
30.074869
34.385988
37.785581
35.100890
33.368249
32.984842
27.858072
27.688714
29.311495
33.830428
42.857634
37.050532
24.905613
23.962406
29.967212
34.773968
28.519546
15.884445
6.103154
-3.234973
-5.915508
-3.167413
-3.832408
-0.650760
4.724888
4.486691
-0.646832
-14.388545
-28.089215
-33.311319
-35.725072
-28.724316
-14.509025
-9.384054
-11.194626
-10.465447
-7.503562
-7.857096
-15.441270
-25.063583
-30.772492
-29.142957
-10.140664
18.798273
36.008168
39.881318
30.969730
10.367547
-12.239526
-26.230616
-17.467594
2.815355
12.288842
10.469438
3.849523
-0.844473
0.554907
3.571862
-1.995214
-12.777391
-16.155142
-12.339141
-13.421584
-24.362219
-29.224544
-24.617030
-18.181270
-8.858188
-4.442643
-5.716015
-16.435587
-36.586554
-47.509006
-48.635609
-43.181511
-33.439944
-28.889578
-32.414878
-34.649652
-24.596103
-10.358992
6.994295
23.232658
22.461418
4.119735
-23.799592
-40.180547
-36.826673
-25.943685
-16.675934
-19.028902
-32.731390
-42.499173
-37.025852
-28.784444
-24.832325
-17.516470
-11.743118
-8.027647
-7.907624
-10.238511
-15.370475
-21.912201
-15.570476
-15.213544
-17.966554
-8.873887
-3.498759
2.001318
2.990005
6.150092
9.814129
2.890025
1.325454
-3.406728
-18.420524
-30.892751
-17.168422
6.158748
7.647748
10.641324
17.026170
6.146321
-22.532827
-33.662833
-16.892985
-7.144404
4.648031
18.393402
22.251226
24.379255
24.694104
36.399777
45.005379
37.135720
34.228927
31.376167
23.111660
12.060884
5.486428
7.574972
7.251052
18.803462
30.210921
22.867032
11.101114
-7.723477
-18.023785
-16.931970
-20.071255
-23.030780
-28.480181
-25.452056
-17.156877
-20.937529
-29.048252
-32.233256
-23.590767
-10.965256
-3.126748
8.889087
12.944594
1.227253
-6.096633
-9.908977
-12.960201
2.164537
26.086056
29.168213
2.049232
-35.693738
-54.113352
-52.539148
-34.256671
4.478374
27.015589
20.712851
15.753632
21.801039
33.001983
31.696919
24.062091
30.026113
37.169222
30.000417
8.021203
-11.285777
-17.965439
-12.882810
8.098916
26.120845
27.836363
23.789449
26.193871
43.584305
52.823741
41.183551
32.000765
25.448909
12.326223
-4.275015
-14.299189
-14.687531
-12.176084
-6.534434
4.104112
19.847877
21.871219
7.396961
-2.527202
-0.142782
12.742757
14.253577
5.862564
7.570808
19.533651
36.342725
36.504830
17.980011
-5.203227
-26.516395
-29.147314
-7.436680
24.486470
52.078250
63.280492
37.600625
-5.783985
-26.028208
-27.457441
-17.555856
-4.587192
3.782541
15.798636
20.819701
14.503454
17.393902
30.121502
33.777486
21.183688
-0.981779
-14.713101
-21.086237
-27.283770
-22.487924
-10.734714
-7.180818
-18.596829
-23.461233
-6.910888
8.849242
6.313398
-12.645234
-29.924986
-38.944377
-44.344163
-47.494877
-53.325618
-54.635097
-44.956913
-31.565347
-27.521789
-31.428948
-26.907677
-14.331522
-6.857469
-7.177233
-13.588035
-23.888342
-29.604785
-35.073668
-44.603244
-51.125227
-49.367887
-33.792711
-16.543851
-7.322598
3.153333
13.448206
16.056546
11.171101
7.646580
8.849836
3.177034
-5.660260
-3.615097
2.226315
5.459916
11.652275
24.673932
36.474679
38.392037
43.779114
62.486831
83.979780
97.310301
111.859393
129.615320
132.192229
120.830250
109.214738
113.824070
130.845114
133.480210
127.387104
129.654109
133.898728
128.431662
103.999460
64.901281
32.963865
14.211488
-11.096131
-53.002142
-107.555734
-163.452845
-208.240980
-238.807082
-246.106810
-235.215510
-225.526935
-220.937086
-221.369329
-224.510952
-220.893673
-206.839179
-189.973996
-167.889556
-126.042491
-66.104669
-2.443074
50.626744
76.517044
69.673209
48.515122
31.880893
22.436521
16.382900
7.104520
2.394418
8.745754
13.024142
15.804449
18.352523
13.006769
3.581620
-1.336815
13.093823
41.103050
57.962778
62.646663
58.879779
45.123000
29.259243
14.741084
-6.125803
-31.298863
-45.545045
-42.399765
-30.675389
-27.135780
-32.846248
-30.911227
-14.531550
11.116387
36.287649
59.052941
85.781772
105.595841
105.811978
95.859240
87.136763
66.581857
18.371799
-36.991229
-69.574949
-67.679152
-34.151675
13.424311
47.764602
45.338899
20.365861
1.120965
-8.393804
-7.393947
-5.214484
-14.402725
-31.681697
-39.060914
-17.885922
16.741413
44.957155
60.453621
52.426803
20.101293
-16.155805
-31.370401
-30.593945
-20.533123
-2.081277
11.268207
13.093087
-7.396617
-37.665804
-54.348609
-54.795400
-37.912552
-23.747137
-25.915150
-33.236698
-36.720955
-30.824213
-19.071522
-1.875395
34.117020
85.980476
122.470606
122.677651
97.712925
73.659985
59.439520
43.248455
30.894682
27.447053
24.342837
33.783333
56.704226
79.306903
82.338665
45.776080
-1.495177
-29.471652
-40.192524
-36.574206
-28.486321
-20.583651
-5.592953
12.262205
23.597968
30.853557
39.594498
53.637562
63.685915
69.705788
75.567202
69.687105
64.361094
73.621311
92.063805
99.506686
80.509089
52.821216
34.798008
29.949970
35.927760
46.251727
49.142435
42.310549
33.919536
17.407918
-9.656772
-28.663981
-29.306896
-20.532704
-10.851923
-7.838604
-14.151734
-26.649158
-41.986885
-55.365702
-65.166476
-71.226851
-75.596656
-74.317289
-63.764986
-44.683463
-26.146413
-22.820334
-25.331501
-21.101429
-14.907512
-15.141813
-16.748467
-7.810362
4.038703
6.197644
-5.363057
-22.672162
-31.431267
-21.776981
0.043275
-3.026912
-31.073265
-43.697716
-36.375367
-33.269831
-49.910554
-62.308227
-52.447946
-32.141877
-11.140409
-1.315197
-3.205258
-13.540634
-15.136897
5.403742
21.151664
19.779060
14.315112
6.471430
-6.944533
-19.066853
-19.346093
-9.067585
-0.536537
-0.021406
6.265767
26.095941
39.547254
33.024752
18.768179
13.634656
13.689477
5.399514
-3.148918
-6.799426
-9.264094
0.308624
20.597808
39.622962
52.985694
53.380032
39.463755
25.127693
20.019108
15.963362
8.950158
10.526700
24.403513
38.853633
48.302702
58.455222
65.821212
57.907912
35.404747
18.413857
20.366023
28.244275
25.359823
11.932429
-2.049309
-12.362605
-20.387865
-19.364369
-4.164298
14.623687
21.642887
14.177946
-0.098109
-16.093308
-23.850747
-14.397263
5.948811
20.944444
17.583317
-0.551071
-16.396125
-8.624118
7.593724
1.477238
-17.545296
-36.648619
-45.455261
-43.018627
-45.154429
-54.814408
-62.420662
-55.842808
-44.384954
-41.341763
-45.193851
-48.590046
-42.861633
-30.882685
-15.870946
-6.117429
-13.566004
-26.540882
-28.602390
-28.436388
-37.823871
-47.193949
-48.679292
-45.381268
-35.084316
-19.182872
-3.640428
12.470649
26.157832
28.721751
20.396200
8.259593
-5.803452
-17.194265
-19.077572
-15.996195
-4.679655
15.681485
28.904722
33.058681
28.320265
15.735299
8.428038
-0.501474
-25.805198
-56.440917
-68.096174
-62.034739
-55.869916
-45.640245
-30.215735
-18.727748
-11.130045
-7.168054
-4.356056
-2.723924
-2.054491
2.760577
7.595648
5.342951
-2.898955
-3.546806
10.437811
26.494077
38.206763
43.632286
32.380189
0.349516
-33.845024
-45.405466
-32.551099
-6.872770
19.471864
32.026978
29.432946
27.043091
28.558848
29.272960
25.692329
13.751328
-0.241321
-10.083657
-8.944564
-0.303893
5.463744
11.052402
14.715919
16.177124
14.695159
9.518254
1.126462
-18.575626
-37.464120
-39.017003
-30.559728
-23.393760
-22.186867
-27.001396
-28.340229
-24.063400
-26.978765
-26.455062
-15.118260
-5.585806
-3.785344
-16.319395
-32.450194
-40.632094
-42.436951
-39.971483
-35.107318
-21.752898
-1.067568
18.875345
27.201697
16.529921
-3.569611
-17.822547
-20.076283
-13.734559
-0.190768
16.009929
24.709307
24.301482
21.030235
24.770644
35.020836
34.028014
20.150702
8.975497
3.888472
0.962716
-0.922149
0.938059
13.375498
37.637313
58.953619
58.704253
32.783061
-6.384217
-35.476655
-38.223690
-20.142014
4.494126
16.865065
3.084906
-21.538485
-34.603502
-27.538064
-5.554673
10.171947
6.384281
-9.723398
-28.012088
-39.051175
-34.247536
-17.714856
2.414830
22.409957
36.119220
31.110645
6.919248
-14.647194
-19.095710
-7.583564
3.416579
-3.741576
-22.081960
-41.146837
-55.332753
-53.526056
-32.951647
-8.718407
7.416569
18.708691
26.586683
32.368608
38.593177
46.984211
51.423655
34.006227
0.455651
-17.783683
-4.878922
23.026917
42.820984
44.433374
27.352604
9.561889
8.111875
12.521446
9.699857
10.260446
20.688321
27.323843
26.917836
21.786651
18.764781
26.692908
38.161932
42.807892
32.099749
10.938805
-4.014985
-4.242531
6.831386
20.196715
29.128846
22.390476
-3.200290
-32.343903
-47.406016
-37.208816
-6.329413
24.193848
37.708025
32.316292
18.187525
7.882282
7.380161
15.456097
19.553687
17.682589
15.942933
10.079202
5.940850
6.086330
4.810101
2.888608
1.386121
0.418756
-3.993392
-11.177523
-17.489094
-23.240605
-24.455010
-17.903652
-8.596937
-5.562837
-7.684091
-5.602820
1.250128
5.405126
3.022026
-2.367629
-9.009365
-15.491343
-16.855374
-15.316239
-13.758140
-8.906444
-3.858364
-1.155988
-0.926343
-8.859904
-16.390306
-11.453147
0.865319
6.391372
-1.459324
-7.500476
-6.578549
-6.164209
-3.652762
0.926177
8.024606
16.387845
23.963207
35.877733
48.390765
51.095479
46.097554
36.880219
26.215718
27.991242
42.903490
55.599397
59.318245
56.325470
47.526881
34.297690
