EVENT_NAME: 202302060117
EVENT_ID: 13194
EVENT_DATE_YYYYMMDD: 2023/02/06
EVENT_TIME_HHMMSS: 01:17:32.00000
EVENT_LATITUDE_DEGREE: 37.288
EVENT_LONGITUDE_DEGREE: 37.043
EVENT_DEPTH_KM: 8.6
HYPOCENTER_REFERENCE: AFAD
MAGNITUDE_W: 7.7
MAGNITUDE_W_REFERENCE: AFAD
MAGNITUDE_L: 
MAGNITUDE_L_REFERENCE: 
FOCAL_MECHANISM: 
NETWORK: TK
STATION_CODE: 2304
STATION_NAME: 
STATION_LATITUDE_DEGREE: 38.72096
STATION_LONGITUDE_DEGREE: 39.86293
STATION_ELEVATION_M: 957.0
LOCATION: Kahramanmaras_Pazarck_Turkiye
SENSOR_DEPTH_M: 
VS30_M/S: 489
SITE_CLASSIFICATION_EC8: B
MORPHOLOGIC_CLASSIFICATION: 
EPICENTRAL_DISTANCE_KM: 293.97
EARTHQUAKE_BACKAZIMUTH_DEGREE: 
DATE_TIME_FIRST_SAMPLE_YYYYMMDD_HHMMSS: 2023/02/06 01:18:00.1682390
DATE_TIME_FIRST_SAMPLE_PRECISION: millisecond
SAMPLING_INTERVAL_S: 0.01
NDATA: 18251
DURATION_S: 
STREAM: HNZ
UNITS: cm/s^2
INSTRUMENT: sensor = CMG-5T/GURALP | digitizer = 
INSTRUMENT_ANALOG/DIGITAL: 
INSTRUMENTAL_FREQUENCY_HZ: 
INSTRUMENTAL_DAMPING: 
FULL_SCALE_G: 
N_BIT_DIGITAL_CONVERTER: 
PGA_CM/S^2: 21.218
TIME_PGA_S: 
BASELINE_CORRECTION: BASELINE REMOVED
FILTER_TYPE: BUTTERWORTH
FILTER_ORDER: 
LOW_CUT_FREQUENCY_HZ: 
HIGH_CUT_FREQUENCY_HZ: 
LATE/NORMAL_TRIGGERED: 
DATABASE_VERSION: 
HEADER_FORMAT: DYNA 1.2
DATA_TYPE: Acceleration
PROCESSING: Automatic Paolucci et al., 2011
DATA_TIMESTAMP_YYYYMMDD_HHMMSS: 
DATA_LICENSE: U (unknown license)
DATA_CITATION: Turkish Accelerometric Archive v 1.0 - Disaster And Emergency Management Presidency, Earthquake Department
DATA_CREATOR: AFAD
ORIGINAL_DATA_MEDIATOR_CITATION: : AFAD - Disaster And Emergency Management Presidency
ORIGINAL_DATA_MEDIATOR: AFAD PROCESS SERVICE
ORIGINAL_DATA_CREATOR_CITATION: AFAD PROCESS SERVICE
ORIGINAL_DATA_CREATOR: network: TK
USER1: GuestUser
USER2: 
USER3: 
USER4: 
USER5: 
[...]
-3.574891
-3.417447
-3.247459
-3.037011
-2.787360
-2.458046
-2.016452
-1.520600
-1.056738
-0.657170
-0.304648
0.014630
0.311326
0.582304
0.874609
1.264768
1.781633
2.335508
2.762675
2.980336
3.022049
2.995077
2.995390
3.046199
3.111121
3.148130
3.075681
2.897852
2.729432
2.639733
2.637224
2.672351
2.676742
2.598648
2.407019
2.120360
1.872904
1.765015
1.777560
1.849696
1.985185
2.134474
2.190614
2.189360
2.224487
2.345236
2.525574
2.695249
2.827916
2.929219
2.956505
2.890643
2.779617
2.682705
2.587988
2.458459
2.261498
1.998047
1.730833
1.532618
1.452642
1.464246
1.491532
1.480869
1.407793
1.250036
1.011049
0.730035
0.444630
0.200624
0.023109
-0.121162
-0.235324
-0.317495
-0.377712
-0.441379
-0.486856
-0.474624
-0.448592
-0.454238
-0.490619
-0.540800
-0.572790
-0.587217
-0.657157
-0.817422
-1.056410
-1.340247
-1.536580
-1.551321
-1.476362
-1.419281
-1.401404
-1.422731
-1.465698
-1.475107
-1.441862
-1.420221
-1.453466
-1.543478
-1.684612
-1.862755
-2.059402
-2.244758
-2.342925
-2.331634
-2.246953
-2.108014
-1.946807
-1.855540
-1.926734
-2.084491
-2.209943
-2.262320
-2.187989
-1.934260
-1.537202
-1.098431
-0.642410
-0.165375
0.286569
0.631878
0.822253
0.912893
1.035523
1.302737
1.697600
2.094972
2.338665
2.309497
2.026915
1.611352
1.144982
0.676729
0.297549
0.073929
-0.000715
0.050721
0.182446
0.330167
0.440879
0.502038
0.549710
0.612750
0.668577
0.734126
0.832607
0.920424
1.024237
1.221511
1.530439
1.877630
2.167740
2.376932
2.533435
2.659515
2.761446
2.865258
2.977225
3.049674
3.030229
2.948999
2.864945
2.755174
2.565741
2.361567
2.285981
2.388853
2.571387
2.730085
2.864633
2.958096
2.995732
2.992282
2.939906
2.793440
2.525598
2.188758
1.860385
1.563062
1.306511
1.097319
0.910394
0.735702
0.548463
0.332998
0.137292
0.003372
-0.037714
0.019367
0.092757
0.104675
0.038499
-0.069390
-0.180416
-0.277641
-0.355108
-0.389608
-0.363890
-0.333467
-0.364516
-0.433515
-0.453274
-0.395565
-0.303985
-0.224322
-0.186372
-0.168495
-0.117059
-0.023910
0.079588
0.134161
0.082411
-0.072836
-0.268229
-0.398386
-0.361691
-0.171002
0.067672
0.258360
0.364682
0.382245
0.357782
0.342101
0.301015
0.175876
-0.048371
-0.312449
-0.547986
-0.726129
-0.807987
-0.769723
-0.622943
-0.391796
-0.099177
0.239859
0.617786
1.023626
1.432602
1.767561
1.916850
1.882037
1.746862
1.631759
1.622037
1.754390
2.033836
2.382281
2.689014
2.818544
2.731354
2.455358
2.012510
1.454245
0.864931
0.321721
-0.180090
-0.655870
-1.059201
-1.339901
-1.476958
-1.521494
-1.526825
-1.528080
-1.582965
-1.726922
-1.975946
-2.309336
-2.688831
-3.054839
-3.327072
-3.451897
-3.421161
-3.319544
-3.246467
-3.245840
-3.319230
-3.409869
-3.384465
-3.163354
-2.787936
-2.362337
-2.022674
-1.838885
-1.826026
-1.968728
-2.223397
-2.498139
-2.659659
-2.621710
-2.386172
-2.066581
-1.813479
-1.738835
-1.902237
-2.219946
-2.516642
-2.634253
-2.544868
-2.319053
-2.030511
-1.760787
-1.593308
-1.561317
-1.587348
-1.640666
-1.683947
-1.603970
-1.323583
-0.894221
-0.460781
-0.160635
-0.052118
-0.083481
-0.179766
-0.254724
-0.243747
-0.158125
-0.070621
-0.064349
-0.118607
-0.146206
-0.137424
-0.110452
-0.069993
0.001202
0.085569
0.120382
0.007475
-0.288280
-0.609439
-0.778486
-0.745241
-0.569294
-0.355710
-0.211753
-0.170353
-0.192307
-0.196698
-0.128326
-0.017300
0.102194
0.216356
0.320796
0.364705
0.325187
0.297588
0.328638
0.386973
0.426177
0.425550
0.413319
0.386660
0.347457
0.259640
0.075538
-0.148081
-0.315874
-0.335319
-0.147454
0.227964
0.666108
1.032117
1.249150
1.276437
1.154748
0.992600
0.888788
0.878125
0.914193
0.888161
0.698414
0.338678
-0.077825
-0.423133
-0.592808
-0.560190
-0.408392
-0.225545
-0.098523
-0.067474
-0.065278
-0.007883
0.146110
0.390743
0.682108
0.948068
1.107393
1.184860
1.230651
1.286164
1.347322
1.387468
1.440472
1.508216
1.598542
1.701728
1.791740
1.830317
1.801149
1.757555
1.712706
1.571571
1.253862
0.833282
0.452533
0.171519
-0.038928
-0.239339
-0.462645
-0.667446
-0.778785
-0.753381
-0.606915
-0.397722
-0.234633
-0.211738
-0.307082
-0.425948
-0.526937
-0.589350
-0.593741
-0.570532
-0.508746
-0.404934
-0.281362
-0.160300
-0.072169
-0.062760
-0.151832
-0.290770
-0.403364
-0.429395
-0.350987
-0.190721
-0.000346
0.201006
0.402044
0.591478
0.745471
0.818548
0.844893
0.907620
1.016764
1.131553
1.251361
1.420723
1.648106
1.878939
2.039519
2.096914
2.053319
1.960484
1.886467
1.861691
1.893995
1.969580
2.060220
2.133610
2.149606
2.077471
1.971777
1.890546
1.838170
1.763526
1.650932
1.530184
1.379954
1.211220
1.049073
0.920170
0.845840
0.802559
0.809145
0.878458
0.969098
1.055347
1.170450
1.299039
1.392502
1.475614
1.576918
1.699548
1.766979
1.701744
1.519524
1.261718
0.961259
0.665191
0.376336
0.072740
-0.246851
-0.587141
-0.925864
-1.205937
-1.389411
-1.497301
-1.599544
-1.738797
-1.909099
-2.070305
-2.165963
-2.213635
-2.285456
-2.400873
-2.445408
-2.335010
-2.085359
-1.829121
-1.706491
-1.708059
-1.819711
-1.974332
-2.016358
-1.858601
-1.528347
-1.114666
-0.736739
-0.502456
-0.463879
-0.589959
-0.745520
-0.796328
-0.737365
-0.623830
-0.528486
-0.481127
-0.477677
-0.546990
-0.693142
-0.876303
-1.034373
-1.114976
-1.095531
-1.020886
-0.911742
-0.767785
-0.597169
-0.440039
-0.335913
-0.276009
-0.270677
-0.329013
-0.392680
-0.394875
-0.345007
-0.323680
-0.366334
-0.378566
-0.301725
-0.154946
0.010025
0.133596
0.216709
0.263440
0.239918
0.144261
0.008772
-0.102567
-0.169685
-0.236802
-0.356922
-0.509975
-0.636996
-0.683099
-0.635427
-0.501820
-0.305172
-0.060853
0.153672
0.260934
0.299198
0.350320
0.460091
0.665207
0.942458
1.248563
1.580072
1.837564
1.925695
1.810906
1.590736
1.361471
1.245428
1.253896
1.414789
1.658168
1.898097
2.005045
1.966782
1.832234
1.676987
1.565334
1.484731
1.324778
1.039374
0.697828
0.306730
-0.047988
-0.380438
-0.633852
-0.884444
-0.923334
-0.985433
-0.928979
-1.128763
-1.509198
-1.798367
-2.123289
-2.042372
-1.819693
-1.415735
-1.073876
-0.822343
-0.724176
-0.716648
-0.707239
-0.519374
-0.027285
0.638243
1.329801
1.838513
2.175040
2.340952
2.368238
2.332798
2.372002
2.479891
2.673716
2.915213
3.145105
3.257699
3.227277
3.047880
2.831160
2.611618
2.392076
2.214247
2.102908
2.081267
2.131135
2.243102
2.373259
2.454804
2.447590
2.373260
2.258784
2.131136
2.010702
1.959580
2.027638
2.185709
2.354129
2.476133
2.455747
2.296422
2.098207
1.971499
1.956445
1.959268
1.890896
1.775794
1.699581
1.700209
1.749136
1.822526
1.884939
1.899366
1.829112
1.627447
1.319147
1.057578
0.969134
1.050051
1.239485
1.444287
1.577581
1.565036
1.454010
1.347689
1.329499
1.402575
1.540887
1.781443
2.153725
2.577755
2.905187
3.051967
3.076431
3.096817
3.157662
3.222270
3.200316
3.057927
2.798867
2.476140
2.180699
1.945789
1.745378
1.624316
1.592640
1.592013
1.573509
1.524269
1.461542
1.349890
1.156065
0.933700
0.756498
0.591528
0.373240
0.090972
-0.183456
-0.389198
-0.544132
-0.785002
-1.121842
-1.453038
-1.708647
-1.902472
-2.119505
-2.359120
-2.572703
-2.756491
-2.946552
-3.107131
-3.193380
-3.200593
-3.212197
-3.303464
-3.474707
-3.691427
-3.948605
-4.299559
-4.742407
-5.197487
-5.547500
-5.677657
-5.606149
-5.447137
-5.322311
-5.282166
-5.341129
-5.531190
-5.775509
-5.921975
-5.879007
-5.738186
-5.625278
-5.597365
-5.588583
-5.550320
-5.564120
-5.663227
-5.761707
-5.732539
-5.595796
-5.455288
-5.390994
-5.417652
-5.376880
-5.248290
-5.159219
-5.097433
-5.023102
-4.854681
-4.631062
-4.475814
-4.375451
-4.311784
-4.236825
-4.075932
-3.826594
-3.519862
-3.220030
-2.906711
-2.507457
-2.064609
-1.679155
-1.466199
-1.409431
-1.265787
-0.959055
-0.716304
-0.721949
-0.885978
-1.024603
-1.092975
-1.079489
-0.965640
-0.856182
-0.912322
-1.089838
-1.289308
-1.365206
-1.149114
-0.801923
-0.467277
-0.120086
0.113256
0.152774
0.042062
-0.247734
-0.606215
-0.780281
-0.710027
-0.476998
-0.186261
0.107612
0.382668
0.614756
0.711982
0.732995
0.929643
1.224143
1.333915
1.171767
0.881344
0.720137
0.913335
1.262094
1.515822
1.639394
1.477246
1.000526
0.289208
-0.421482
-0.720373
-0.452531
0.142743
0.674977
0.928078
0.944387
0.762794
0.367932
-0.101262
-0.487029
-0.730407
-0.860564
-1.124956
-1.592581
-1.938517
-1.982739
-1.812750
-1.486886
-1.129973
-1.024906
-1.191758
-1.323797
-1.299333
-1.122758
-0.869344
-0.652310
-0.375373
-0.060486
0.108562
0.062458
0.019177
0.077199
0.042386
-0.123839
-0.285986
-0.286927
-0.229846
-0.319231
-0.335853
-0.159592
0.084728
0.439132
0.617276
0.051170
-0.868085
-1.429173
-1.811804
-2.148958
-2.387318
-2.038245
-1.314069
-1.416626
-1.748763
-1.711754
-1.915928
-2.113516
-2.227051
-2.281936
-1.947604
-1.489074
-1.318772
-1.339785
-1.442656
-1.457083
-1.037129
-0.662025
-0.648539
-0.587380
-0.032565
0.330621
0.007580
0.096024
0.446665
-0.021587
-1.005451
-1.826225
-1.898674
-1.415053
-1.511025
-1.464607
-0.411430
0.388018
0.446353
0.127076
-0.642890
-0.805979
-0.644458
-1.261058
-1.566222
-1.624244
-2.254644
-2.209794
-1.130900
-0.763950
-1.575944
-2.171531
-2.071168
-1.904002
-1.898984
-2.102844
-2.461012
-2.615319
-2.229865
-1.804580
-0.710317
0.176321
-0.165538
-0.306986
-0.512728
-0.737916
-1.024262
-1.353575
-0.900377
-0.296949
-0.397938
-0.159577
0.293621
-0.244258
-0.905080
-0.995092
-1.468363
-1.625806
-0.383823
0.339726
0.811743
1.051671
0.096976
-0.613401
-1.076635
-1.381172
-1.286141
-1.337263
-1.176369
-1.049662
-0.869010
-0.363121
-0.432120
-0.011853
1.148586
1.220408
1.141373
1.361543
0.414688
-0.509586
-0.958079
-0.872144
-0.509585
-1.005437
-0.430863
1.397298
2.383044
2.255082
2.344781
2.064081
0.553002
-0.301645
0.033941
1.243306
2.059063
1.379109
0.670615
0.708564
0.622629
0.150927
-0.473200
-0.529027
0.268853
0.331580
-0.288784
-0.395419
0.296767
1.662008
2.411588
1.510837
1.021885
0.748712
0.086635
1.421453
1.983168
0.288928
-0.828856
-0.874960
-0.833560
-0.460338
1.019378
1.672360
1.051996
0.774432
-0.413920
-2.365651
-2.319234
-1.571848
-1.107359
1.011539
2.018298
1.209127
0.680971
-0.382555
-1.182002
-0.759854
0.181356
0.969827
1.957455
2.425394
2.196443
2.007009
1.202543
0.247848
0.317788
0.101695
-0.651021
-0.683012
-0.649453
-0.175241
1.343052
2.411910
2.136228
1.574826
0.371421
-0.401055
0.149056
0.192651
0.011999
1.004331
1.967809
1.234537
0.111735
0.780398
2.061272
1.993841
0.563679
-1.042744
-0.248314
1.045732
0.311833
-0.415165
1.288798
2.404700
0.804864
-0.661052
-1.310270
-1.456736
-1.426627
-1.645229
-2.018137
-1.814590
-1.283924
-0.785249
-0.529639
-0.087104
0.266360
-0.680181
-0.221965
1.556329
1.841421
2.969555
4.504157
3.484853
2.781063
3.944324
3.900416
2.674115
1.980675
0.870417
0.341634
1.911676
2.029602
1.375366
2.194886
1.944608
0.655581
-1.266670
-0.882157
1.411435
1.020963
-0.021236
0.306509
0.868852
1.129480
0.075677
-0.955231
0.583447
3.057063
5.557652
5.742695
2.464927
0.922798
2.428546
4.893380
7.460145
6.490081
-0.476000
-7.456507
-10.350703
-7.964277
-1.667173
3.288840
6.308803
8.511127
6.540891
0.871992
-0.242028
-0.658845
-7.821259
-14.384636
-9.373424
1.308569
10.655431
17.439919
10.052003
-0.126610
-0.565067
-2.721915
-4.470413
-6.853389
-6.339973
3.173741
9.258202
11.447354
10.057964
1.482010
-11.375961
-12.598185
4.006121
8.828527
5.421543
5.828951
1.552893
4.503543
4.037486
-1.806106
-8.379519
-12.064381
-5.943225
-1.767528
0.395906
-1.762510
0.628621
11.014232
10.334591
1.282858
-2.475708
-12.354489
-20.580429
-7.315677
11.998724
14.527853
1.849592
-6.026648
-0.503589
11.459905
15.412609
8.732561
-0.041921
-11.256461
-12.004160
4.281810
7.256296
4.344850
8.125685
3.826104
2.863567
0.777601
-11.075180
-14.835942
-6.557938
-2.964342
-3.622969
3.222050
8.421128
8.242985
8.194059
5.200128
9.638648
15.657247
6.946431
-6.444715
-5.787342
0.452681
-3.229672
-2.489187
0.907134
6.594224
14.662408
15.589818
14.595604
5.399287
-6.646378
-11.205960
-9.027786
2.602317
6.035960
1.071793
5.271326
1.647622
1.182819
10.642275
4.234146
2.557469
8.184028
1.626296
-1.691617
1.918915
1.947769
-1.658685
-0.620877
2.938533
-2.359652
-0.561286
5.609111
3.286038
2.567508
-1.152481
2.307193
7.276379
0.819951
1.147069
3.937453
0.558696
0.679444
0.655609
7.090710
13.165136
6.053216
-3.498760
-7.768546
2.219693
8.474770
5.960696
5.767812
2.716486
-0.210641
-2.935162
-5.417873
-4.652611
-5.532662
-1.112019
6.971533
11.311573
8.313251
-2.069536
-6.006559
-7.336672
-1.859402
0.552428
-3.333472
7.497182
17.306651
14.134577
8.245195
-1.864419
-12.003828
-6.529381
6.852356
7.900828
-0.295631
-0.037512
3.115745
1.562012
3.742382
3.221439
-3.956970
-11.148552
-13.037871
-7.491916
-4.484498
-5.626119
1.400807
12.774986
15.957724
7.310889
-3.378631
-5.190796
-4.646958
-2.805624
2.617387
3.593410
5.849052
14.537913
14.919917
7.365777
-4.472264
-15.952136
-13.946773
-4.878103
1.041702
7.240952
12.356604
6.471927
-2.055100
-2.319178
0.888023
0.409734
0.133425
1.316759
0.549928
0.580665
-2.378767
-7.674443
-3.683789
8.137315
16.417200
18.768814
13.956130
6.144184
-1.872877
-10.263161
-12.492770
-7.399386
2.181445
15.643158
21.217968
19.179360
19.077743
10.042632
-3.525716
-9.916595
-15.546917
-16.927839
-9.090174
-2.576351
0.714276
5.197960
8.935513
6.494515
5.793548
4.014627
-7.985247
-14.891738
-14.053713
-14.926237
-10.018837
5.114849
10.337136
5.892030
8.852403
14.781302
13.230392
3.284808
-4.087113
-3.515361
-3.519438
-3.389595
-2.301291
-1.647996
1.525961
2.195565
-0.986859
2.469053
10.956562
9.159451
3.415908
0.458358
-4.258353
-7.018315
-5.557103
-3.185731
2.527390
7.526057
11.658159
15.952722
17.856783
15.525870
10.494585
7.221208
-1.242152
-6.743571
-8.100343
-6.110975
0.824684
5.495919
4.296904
5.358549
3.764357
-2.583241
-2.351467
-1.385480
-5.618571
-9.473422
-2.838850
0.372742
-4.810340
-5.959174
0.254817
1.819527
6.541257
8.621892
2.052243
-0.060069
-0.003928
4.006484
6.804082
6.337398
2.786456
-1.482389
-5.868219
-3.110138
1.082181
2.710872
-2.822851
-9.044369
-8.692474
-4.704956
1.885394
5.895806
9.132803
5.047118
-1.456355
-5.957288
-3.022005
-1.101009
-1.769986
-2.345814
-3.180075
-6.471016
-9.500701
-7.486556
-2.787721
6.098729
11.094260
11.772960
7.450483
0.888361
-8.470418
-12.209225
-12.890748
-9.829699
-1.702239
6.007464
9.990277
4.831030
-1.531936
-6.267465
-5.158776
-3.262243
0.221582
0.711789
-3.946274
-6.557887
-1.927111
9.866394
14.995532
12.783800
8.957803
3.295804
-2.670731
-4.651631
-3.354135
-1.161220
0.356446
3.251270
6.234224
4.675473
0.633070
-5.546421
-6.840153
-2.729378
4.762036
12.021990
10.806980
8.003110
5.759701
2.838846
3.381116
8.078069
7.995898
2.429557
-1.488021
-4.126607
-7.465533
-1.608141
7.561205
9.592599
11.522064
9.056289
1.527866
-2.560327
-1.224881
1.828326
9.214361
14.177587
9.217811
1.294212
-3.868798
-2.466236
1.033271
3.015111
8.289148
11.401005
6.328321
0.578191
0.748807
-0.198361
-1.333709
2.343940
8.232382
9.136269
5.682240
1.031705
-4.575408
-7.540485
-11.351741
-11.433599
-7.151267
-0.851968
4.553794
7.996846
9.418854
7.703914
3.425033
-2.830671
-5.398376
-4.411376
-4.953019
-3.108862
2.491979
4.284386
4.222287
3.987063
4.395098
3.625446
-1.446298
-5.572440
-5.442596
-4.428624
-3.690020
0.197449
6.011873
8.602160
4.906634
0.947030
0.538681
-0.885521
-3.751491
-7.835293
-8.574523
-4.099622
-0.198039
3.390539
5.752815
2.850151
-1.160575
-3.973227
-8.673316
-12.711328
-12.489590
-8.703110
-4.426424
-1.568295
-0.692948
-0.591959
0.041265
-0.678207
-3.210158
-4.331079
-6.201580
-8.964678
-7.256324
-4.488208
-3.481449
-0.729328
0.184283
-2.168584
-3.722945
-6.338008
-8.772733
-10.806323
-12.514049
-9.970807
-5.843723
-2.804315
-0.620182
2.026873
4.983168
5.470866
3.280147
0.024333
-4.286539
-7.123654
-5.162826
-2.832226
-2.743468
-2.168267
-0.495667
-0.879239
-2.335746
-2.683877
-2.803371
-1.463535
1.157802
4.038198
4.274991
1.793848
2.866470
5.526383
3.097930
0.509526
1.837444
3.360755
4.591133
7.536452
7.759758
1.709169
-2.586648
-2.805563
-2.387492
-0.832818
0.904704
3.057474
3.269176
-0.287411
-4.843857
-7.084443
-7.062803
-7.444179
-5.479588
-1.321454
2.718440
6.357512
6.454111
3.813643
0.473463
-3.349712
-8.328933
-9.279865
-4.724046
-1.392020
0.059156
-1.522177
-4.141004
-9.263242
-12.426848
-6.873993
-3.318660
-2.575979
-0.896480
-1.645746
-3.434076
-3.327441
-1.464153
1.091948
3.632682
2.298491
-3.022589
-6.631239
-7.018575
-6.062310
-2.798342
0.556266
0.440223
-1.224536
-2.784228
-4.558444
-4.899989
-4.051614
-2.812767
1.277622
1.747129
-0.932857
0.106206
-4.303146
-10.716920
-5.914900
-1.469166
-2.412258
-0.763808
-1.317995
-6.838232
-10.883458
-8.433991
-5.862209
-2.763524
-0.242550
-3.104756
-4.567535
-3.540704
-3.204804
-4.028087
-5.282302
-4.625242
-2.056910
-1.180308
0.708698
-1.871866
-10.007794
-12.568286
-11.613590
-8.678621
-1.689331
1.229642
-2.852906
-3.622245
-5.177232
-8.862408
-5.816728
0.123149
3.574670
1.982674
-0.521364
-5.531949
-10.965310
-9.856934
-7.403704
-4.277106
0.413261
3.458314
1.525086
-0.828094
-1.680546
-5.758389
-4.614260
0.227278
-2.448316
3.414407
11.155159
2.743235
-3.383253
-0.972363
-1.013135
-3.993894
-1.901968
-0.224977
-0.218705
2.765818
0.063251
-4.771073
-2.346383
-1.776514
-4.366487
-2.207130
-0.386183
1.087261
3.760347
4.684934
3.724907
0.718430
0.503592
1.326563
-0.715808
0.564124
1.328759
-0.480897
0.811580
2.826980
1.015128
0.125981
-0.228109
-2.774801
-2.745947
-0.558677
2.871830
5.237243
5.615797
3.105173
-0.090110
-2.683846
-4.575361
-6.621809
-8.446520
-5.798525
-4.160425
-5.214228
-7.810474
-9.280467
-8.028448
-9.190768
-13.036837
-12.979442
-8.990356
-4.927567
-1.157396
0.990669
4.647933
7.280246
4.596811
-0.726465
-3.868117
-5.040159
-7.297369
-8.344586
-8.594551
-7.666200
-4.619892
-4.013013
-3.125748
0.248932
-2.454575
-5.534442
-5.195719
-7.800433
-5.032630
-0.222142
-4.434533
-7.952857
-8.100578
-8.882776
-6.209690
0.498272
5.157903
-0.542045
-3.691224
-3.424009
-8.765162
-10.229824
-10.065794
-9.332208
-6.893092
-4.991541
-4.717426
-7.648317
-7.131138
-5.310190
-6.477842
-5.328067
0.177743
5.176410
1.950705
-0.419725
1.883902
4.321450
5.634941
2.521517
0.644429
-2.302771
-4.628666
-0.248167
0.947398
-0.889230
1.302744
5.157909
6.816709
0.799051
-1.976592
3.245382
3.272668
1.357317
-0.192652
-1.013427
-0.179166
-1.187179
-3.350298
-6.090188
-3.763665
2.243643
1.317174
-1.544404
1.834667
3.058459
-0.855982
-4.554644
-7.489926
-7.718563
-3.039487
-0.125845
-0.738996
1.370493
5.026816
5.314103
4.356271
6.445374
6.820478
4.489879
4.366308
5.505419
5.947954
5.872056
2.509293
-0.671249
0.412977
-1.013107
-2.109251
1.259157
1.443573
-0.758437
0.272158
1.567144
0.724729
