EVENT_NAME: 202302060117
EVENT_ID: 13194
EVENT_DATE_YYYYMMDD: 2023/02/06
EVENT_TIME_HHMMSS: 01:17:32.00000
EVENT_LATITUDE_DEGREE: 37.288
EVENT_LONGITUDE_DEGREE: 37.043
EVENT_DEPTH_KM: 8.6
HYPOCENTER_REFERENCE: AFAD
MAGNITUDE_W: 7.7
MAGNITUDE_W_REFERENCE: AFAD
MAGNITUDE_L: 
MAGNITUDE_L_REFERENCE: 
FOCAL_MECHANISM: 
NETWORK: TK
STATION_CODE: 2803
STATION_NAME: 
STATION_LATITUDE_DEGREE: 40.295188
STATION_LONGITUDE_DEGREE: 38.427003
STATION_ELEVATION_M: 1359.0
LOCATION: Kahramanmaras_Pazarck_Turkiye
SENSOR_DEPTH_M: 
VS30_M/S: 425
SITE_CLASSIFICATION_EC8: B
MORPHOLOGIC_CLASSIFICATION: 
EPICENTRAL_DISTANCE_KM: 355.23
EARTHQUAKE_BACKAZIMUTH_DEGREE: 
DATE_TIME_FIRST_SAMPLE_YYYYMMDD_HHMMSS: 2023/02/06 01:17:57.4236970
DATE_TIME_FIRST_SAMPLE_PRECISION: millisecond
SAMPLING_INTERVAL_S: 0.01
NDATA: 21001
DURATION_S: 
STREAM: HNZ
UNITS: cm/s^2
INSTRUMENT: sensor = ACEBOX/SARA | digitizer = 
INSTRUMENT_ANALOG/DIGITAL: 
INSTRUMENTAL_FREQUENCY_HZ: 
INSTRUMENTAL_DAMPING: 
FULL_SCALE_G: 
N_BIT_DIGITAL_CONVERTER: 
PGA_CM/S^2: 3.733
TIME_PGA_S: 
BASELINE_CORRECTION: BASELINE REMOVED
FILTER_TYPE: BUTTERWORTH
FILTER_ORDER: 
LOW_CUT_FREQUENCY_HZ: 
HIGH_CUT_FREQUENCY_HZ: 
LATE/NORMAL_TRIGGERED: 
DATABASE_VERSION: 
HEADER_FORMAT: DYNA 1.2
DATA_TYPE: Acceleration
PROCESSING: Automatic Paolucci et al., 2011
DATA_TIMESTAMP_YYYYMMDD_HHMMSS: 
DATA_LICENSE: U (unknown license)
DATA_CITATION: Turkish Accelerometric Archive v 1.0 - Disaster And Emergency Management Presidency, Earthquake Department
DATA_CREATOR: AFAD
ORIGINAL_DATA_MEDIATOR_CITATION: : AFAD - Disaster And Emergency Management Presidency
ORIGINAL_DATA_MEDIATOR: AFAD PROCESS SERVICE
ORIGINAL_DATA_CREATOR_CITATION: AFAD PROCESS SERVICE
ORIGINAL_DATA_CREATOR: network: TK
USER1: GuestUser
USER2: 
USER3: 
USER4: 
USER5: 
[...]
0.309780
0.275646
0.222106
0.176516
0.093751
0.003505
-0.071544
-0.178389
-0.260452
-0.255308
-0.242917
-0.260920
-0.248762
-0.223746
-0.219538
-0.212524
-0.213693
-0.240346
-0.282430
-0.339242
-0.440009
-0.584262
-0.692043
-0.739504
-0.795849
-0.896148
-1.006968
-1.093473
-1.142570
-1.155897
-1.167587
-1.203358
-1.247078
-1.278641
-1.295007
-1.283551
-1.266016
-1.298748
-1.321660
-1.290799
-1.284252
-1.295475
-1.282616
-1.237727
-1.142805
-1.040402
-0.977277
-0.954365
-0.946416
-0.929816
-0.920932
-0.935661
-0.963483
-0.970731
-0.950391
-0.932389
-0.921166
-0.914386
-0.936831
-0.959042
-0.932389
-0.887734
-0.854768
-0.839104
-0.838403
-0.810815
-0.767796
-0.719868
-0.649729
-0.599228
-0.589175
-0.588941
-0.570939
-0.561821
-0.602502
-0.665627
-0.725246
-0.775278
-0.814556
-0.855003
-0.908075
-0.958342
-0.985930
-1.026143
-1.076176
-1.115688
-1.188165
-1.267188
-1.303895
-1.315818
-1.302726
-1.256434
-1.212714
-1.190036
-1.168760
-1.138834
-1.100725
-1.054200
-0.990373
-0.922572
-0.891010
-0.879787
-0.857810
-0.833028
-0.806609
-0.778787
-0.762655
-0.756343
-0.747459
-0.762188
-0.819702
-0.884230
-0.915559
-0.877450
-0.794920
-0.733899
-0.703973
-0.682230
-0.626352
-0.513194
-0.392789
-0.308856
-0.219779
-0.098438
0.024539
0.157336
0.260440
0.289665
0.351153
0.497277
0.641296
0.742296
0.808694
0.833477
0.843530
0.865273
0.865741
0.783444
0.632645
0.523695
0.449114
0.324733
0.193573
0.072466
-0.038354
-0.099609
-0.136315
-0.134445
-0.096804
-0.075528
-0.042797
-0.004688
-0.014975
-0.035081
-0.049577
-0.120651
-0.192661
-0.182608
-0.147772
-0.143330
-0.169048
-0.231705
-0.310963
-0.343461
-0.295766
-0.229602
-0.206456
-0.195000
-0.130472
-0.018951
0.098416
0.214145
0.316315
0.403755
0.483479
0.545669
0.612769
0.705820
0.814069
0.920446
1.020979
1.114498
1.188378
1.257815
1.347827
1.435735
1.514525
1.621136
1.727748
1.817058
1.957804
2.123566
2.243036
2.351986
2.485484
2.605422
2.668781
2.715774
2.795733
2.891356
2.990953
3.093356
3.189447
3.266834
3.324816
3.375783
3.404073
3.403605
3.387941
3.360820
3.332063
3.309151
3.286940
3.264495
3.248363
3.241583
3.233400
3.213060
3.192018
3.169807
3.151337
3.140816
3.067871
2.947465
2.869143
2.807888
2.728397
2.647737
2.589521
2.538554
2.467713
2.407627
2.326733
2.209834
2.116783
2.045942
2.005729
1.997780
1.976972
1.940266
1.912678
1.877140
1.795545
1.680049
1.554266
1.426613
1.305272
1.176683
1.056745
0.980293
0.931664
0.859186
0.753042
0.645262
0.537247
0.447937
0.383175
0.306957
0.241727
0.202449
0.153118
0.107527
0.081810
0.045805
0.013541
0.017515
0.042298
0.031777
-0.068055
-0.224465
-0.346274
-0.407762
-0.477434
-0.565342
-0.585215
-0.550847
-0.539858
-0.564641
-0.599944
-0.612336
-0.625896
-0.653952
-0.684345
-0.738119
-0.798906
-0.843094
-0.884476
-0.923754
-0.945965
-0.950407
-0.944562
-0.932171
-0.944562
-0.963500
-0.934042
-0.869046
-0.798439
-0.748874
-0.726430
-0.716844
-0.707960
-0.650680
-0.556460
-0.490061
-0.434184
-0.374799
-0.349783
-0.345575
-0.353992
-0.379008
-0.367318
-0.302323
-0.209038
-0.128845
-0.088632
-0.024104
0.063570
0.115005
0.144463
0.174857
0.226292
0.269545
0.256686
0.202211
0.151243
0.155451
0.179766
0.146567
0.074791
0.017277
-0.011480
-0.034392
-0.070631
-0.108039
-0.124171
-0.122300
-0.133757
-0.164384
-0.209741
-0.262579
-0.289700
-0.295077
-0.335524
-0.407300
-0.470659
-0.541733
-0.622627
-0.697676
-0.764309
-0.811068
-0.850346
-0.896872
-0.956023
-1.007458
-1.041826
-1.098639
-1.163401
-1.210394
-1.264168
-1.327995
-1.385275
-1.415435
-1.439984
-1.490718
-1.556181
-1.632399
-1.695758
-1.736673
-1.787641
-1.849363
-1.904539
-1.944519
-1.980290
-1.996890
-2.006943
-2.076147
-2.046455
-1.920204
-2.007645
-2.059548
-1.834635
-1.753273
-1.837440
-1.800267
-1.725218
-1.686641
-1.647364
-1.606215
-1.579329
-1.552208
-1.513398
-1.509190
-1.502643
-1.468275
-1.450039
-1.408657
-1.326127
-1.259027
-1.235881
-1.200110
-1.094200
-0.975431
-0.886822
-0.794239
-0.711474
-0.662845
-0.608370
-0.548050
-0.508539
-0.470664
-0.412214
-0.318929
-0.231255
-0.190107
-0.138204
-0.039776
0.071278
0.159420
0.225350
0.303205
0.398126
0.473409
0.510583
0.517830
0.508946
0.515726
0.534664
0.533962
0.524143
0.518298
0.537235
0.581656
0.620701
0.667226
0.728481
0.785995
0.817090
0.813583
0.799321
0.795814
0.803997
0.785293
0.766823
0.814985
0.869226
0.904763
0.958303
0.994541
0.999217
0.989631
0.966719
0.922999
0.845378
0.756769
0.691773
0.629349
0.540506
0.435531
0.314892
0.174847
0.045090
-0.054976
-0.145689
-0.228220
-0.300463
-0.406607
-0.529351
-0.623571
-0.693009
-0.730650
-0.765486
-0.833989
-0.905531
-0.952290
-0.981515
-0.988997
-0.982684
-1.023599
-1.079710
-1.071294
-1.039030
-1.007233
-0.961175
-0.924235
-0.891504
-0.846615
-0.799855
-0.758473
-0.708441
-0.634327
-0.538704
-0.444484
-0.366396
-0.280592
-0.180995
-0.078124
0.018902
0.091379
0.152634
0.216460
0.268130
0.297588
0.325410
0.366090
0.391808
0.378014
0.335930
0.304368
0.295717
0.287300
0.266025
0.223707
0.164556
0.101431
0.046956
0.010484
-0.036977
-0.105480
-0.151304
-0.178191
-0.253474
-0.361254
-0.435836
-0.501065
-0.593883
-0.689740
-0.764789
-0.828849
-0.890104
-0.938968
-0.991806
-1.046281
-1.095145
-1.164115
-1.250386
-1.353958
-1.476468
-1.588925
-1.671455
-1.737386
-1.831840
-1.934010
-1.988952
-2.031503
-2.110995
-2.198435
-2.253845
-2.294526
-2.325387
-2.349936
-2.403709
-2.456781
-2.458652
-2.420777
-2.365367
-2.299903
-2.229297
-2.164067
-2.109826
-2.050442
-1.989655
-1.943129
-1.881641
-1.803786
-1.737388
-1.674263
-1.631010
-1.627971
-1.640362
-1.626335
-1.575133
-1.537258
-1.537024
-1.551052
-1.549182
-1.532582
-1.524399
-1.503825
-1.469223
-1.437427
-1.382251
-1.314917
-1.267924
-1.233790
-1.187732
-1.136764
-1.108241
-1.074808
-0.978250
-0.827918
-0.689978
-0.571209
-0.444023
-0.324787
-0.206719
-0.079534
0.020765
0.095113
0.193541
0.310908
0.399283
0.457732
0.506128
0.562006
0.621156
0.641496
0.632612
0.654823
0.705557
0.712337
0.679839
0.670954
0.688255
0.741795
0.818714
0.860330
0.870383
0.880203
0.904517
0.930001
0.931404
0.921818
0.932339
0.953147
0.952913
0.939119
0.911531
0.868278
0.844898
0.825259
0.782007
0.751146
0.760030
0.780604
0.774291
0.754418
0.749041
0.731740
0.684279
0.647105
0.631908
0.604554
0.562938
0.542598
0.553118
0.536986
0.478069
0.424062
0.397175
0.414476
0.447442
0.448611
0.432946
0.438323
0.474328
0.501682
0.509631
0.527634
0.559664
0.598708
0.605254
0.568314
0.550779
0.549610
0.514073
0.471054
0.445336
0.400213
0.365845
0.364442
0.344102
0.300382
0.258999
0.221124
0.175534
0.119890
0.057232
0.003926
-0.022025
-0.060368
-0.102452
-0.096607
-0.082111
-0.085618
-0.071123
-0.029273
-0.004257
-0.005426
-0.009635
-0.042600
-0.073929
-0.054524
-0.026702
-0.023897
-0.034184
-0.033015
0.002756
0.074064
0.145840
0.202652
0.269285
0.327968
0.365141
0.409329
0.451646
0.487885
0.543528
0.605718
0.648269
0.693860
0.759557
0.840684
0.927891
0.998731
1.065130
1.144153
1.214526
1.252869
1.273910
1.316929
1.362285
1.380522
1.404836
1.438503
1.435230
1.403200
1.395718
1.401329
1.390341
1.379586
1.382158
1.402965
1.425176
1.416759
1.372338
1.323474
1.304303
1.305004
1.282793
1.219200
1.146957
1.085234
1.017199
0.953606
0.898430
0.849800
0.817302
0.808418
0.824316
0.841383
0.856814
0.877855
0.887207
0.885804
0.880427
0.868737
0.854241
0.861723
0.909184
0.973712
1.008547
0.987272
0.928589
0.863827
0.811924
0.750669
0.670476
0.611092
0.553110
0.494427
0.477593
0.479697
0.497700
0.531834
0.550771
0.572281
0.604311
0.619741
0.631899
0.659487
0.706012
0.793920
0.903103
0.990543
1.063956
1.153266
1.259176
1.330251
1.389167
1.493207
1.587661
1.647279
1.723030
1.829407
1.957762
2.102249
2.237383
2.328564
2.397768
2.471414
2.543424
2.602574
2.635306
2.678324
2.741683
2.792885
2.825617
2.815797
2.771142
2.731864
2.713394
2.718303
2.717134
2.676687
2.609821
2.531967
2.447799
2.390285
2.348435
2.294194
2.265671
2.252578
2.221016
2.170048
2.084244
1.979035
1.871021
1.755291
1.637457
1.533651
1.431482
1.306400
1.187397
1.090371
1.004100
0.932324
0.867095
0.816127
0.788071
0.762821
0.729154
0.695487
0.659716
0.608281
0.558482
0.525516
0.501669
0.469171
0.400902
0.297798
0.179964
0.063533
-0.037000
-0.127480
-0.212816
-0.283423
-0.341638
-0.395412
-0.457836
-0.529378
-0.589230
-0.654927
-0.746810
-0.846407
-0.953253
-1.049343
-1.131874
-1.220249
-1.299974
-1.376192
-1.445163
-1.510158
-1.588480
-1.669842
-1.759386
-1.836306
-1.887040
-1.929357
-1.961154
-2.008848
-2.057712
-2.072909
-2.093249
-2.138606
-2.199627
-2.264389
-2.297822
-2.299927
-2.309045
-2.331255
-2.366559
-2.390640
-2.359078
-2.333360
-2.351129
-2.345050
-2.304603
-2.256909
-2.217864
-2.208746
-2.226047
-2.221372
-2.175547
-2.134165
-2.107513
-2.071742
-2.018904
-1.955545
-1.914396
-1.907149
-1.900135
-1.863662
-1.831866
-1.838646
-1.871378
-1.919774
-1.944089
-1.922580
-1.887510
-1.851038
-1.792355
-1.693693
-1.582639
-1.500342
-1.456389
-1.406824
-1.297640
-1.167182
-1.068753
-1.005160
-0.956998
-0.880079
-0.769025
-0.676208
-0.611914
-0.511615
-0.383494
-0.298392
-0.243683
-0.188039
-0.127018
-0.071609
-0.022745
0.039679
0.123144
0.238874
0.372138
0.481555
0.574840
0.678880
0.790635
0.900754
1.008768
1.075166
1.089662
1.113041
1.161203
1.207963
1.223393
1.215210
1.225497
1.253553
1.289791
1.321822
1.346136
1.395000
1.459528
1.501378
1.526160
1.544630
1.547669
1.536915
1.528264
1.545799
1.582271
1.608222
1.639084
1.665503
1.663398
1.669711
1.698702
1.724887
1.737278
1.744526
1.761593
1.789415
1.821211
1.836642
1.829628
1.826588
1.858384
1.916132
1.949331
1.944422
1.934836
1.957047
2.001702
2.007547
1.975984
1.952137
1.931562
1.903974
1.871944
1.828458
1.783335
1.751772
1.723950
1.699401
1.673450
1.632067
1.587412
1.564500
1.576190
1.583671
1.548835
1.473786
1.387515
1.342626
1.316674
1.262901
1.195100
1.119349
1.045703
0.983980
0.927869
0.860769
0.770056
0.670224
0.577407
0.509372
0.470795
0.446480
0.429880
0.400656
0.353428
0.301058
0.244245
0.190472
0.135295
0.071469
0.028917
0.007408
-0.030000
-0.073486
-0.125623
-0.203010
-0.276422
-0.335807
-0.379761
-0.413895
-0.455044
-0.508349
-0.573813
-0.619637
-0.642082
-0.679957
-0.731626
-0.752200
-0.717365
-0.691881
-0.705909
-0.716430
-0.734198
-0.771372
-0.803169
-0.815092
-0.820236
-0.847590
-0.896922
-0.951864
-0.996286
-1.022705
-1.050527
-1.078349
-1.094948
-1.125810
-1.159477
-1.166724
-1.196417
-1.243176
-1.260010
-1.256269
-1.228915
-1.216991
-1.241072
-1.243644
-1.236864
-1.245749
-1.246684
-1.245515
-1.245983
-1.233124
-1.195950
-1.148489
-1.130721
-1.154101
-1.180754
-1.184728
-1.184261
-1.209745
-1.256972
-1.299289
-1.334826
-1.348854
-1.335762
-1.324072
-1.304199
-1.273338
-1.252764
-1.249257
-1.266792
-1.283625
-1.285262
-1.289938
-1.306070
-1.320098
-1.326177
-1.324307
-1.313318
-1.312617
-1.324774
-1.328515
-1.326177
-1.339270
-1.369430
-1.400993
-1.426944
-1.421333
-1.403565
-1.420866
-1.428815
-1.410111
-1.390005
-1.350493
-1.290173
-1.223541
-1.175145
-1.141245
-1.094251
-1.036971
-0.976652
-0.928957
-0.896927
-0.856246
-0.798031
-0.733970
-0.694926
-0.693290
-0.702408
-0.698667
-0.686744
-0.677626
-0.675522
-0.689316
-0.705448
-0.727191
-0.769041
-0.815800
-0.866301
-0.920308
-0.963560
-0.999799
-1.035336
-1.076251
-1.118802
-1.127920
-1.080693
-1.008684
-0.945325
-0.886642
-0.830297
-0.780498
-0.726491
-0.661028
-0.579199
-0.484745
-0.426763
-0.398240
-0.341427
-0.281809
-0.226633
-0.158130
-0.092199
-0.016917
0.065614
0.143234
0.235350
0.349911
0.447404
0.498840
0.547002
0.591891
0.619946
0.661328
0.703879
0.752743
0.797164
0.804646
0.805347
0.819141
0.848132
0.869407
0.866836
0.891384
0.928558
0.946326
0.966667
0.958250
0.935104
0.952405
0.986539
1.012724
1.012724
1.007581
0.996125
0.961523
0.952404
0.917569
0.935103
0.993319
0.782667
0.640986
0.857716
0.847195
0.584407
0.502812
0.485744
0.402045
0.294966
0.169183
0.052518
-0.049418
-0.133117
-0.186189
-0.198347
-0.189229
-0.226637
-0.276903
-0.266149
-0.229209
-0.213778
-0.216350
-0.203257
-0.176137
-0.178475
-0.178475
-0.164915
-0.169825
-0.164214
-0.124936
-0.070929
-0.038431
-0.003128
0.061868
0.117979
0.178299
0.252413
0.327695
0.409057
0.476390
0.536476
0.582768
0.614330
0.649400
0.656881
0.642386
0.640282
0.664596
0.707615
0.750400
0.803472
0.867532
0.926917
0.966428
0.972975
0.976715
1.016461
1.054570
1.036333
1.002666
0.994717
0.977884
0.944451
0.912654
0.867064
0.819837
0.790378
0.743385
0.655009
0.544423
0.443423
0.373985
0.325355
0.286311
0.224588
0.134576
0.056721
-0.034460
-0.152995
-0.283220
-0.423265
-0.541566
-0.662673
-0.805056
-0.925929
-1.025760
-1.115071
-1.188016
-1.270313
-1.389082
-1.518372
-1.623580
-1.727387
-1.860885
-2.011450
-2.158041
-2.301359
-2.440001
-2.585189
-2.749782
-2.892399
-2.989191
-3.061434
-3.130171
-3.210130
-3.284477
-3.336614
-3.392959
-3.467307
-3.528094
-3.568541
-3.607819
-3.633771
-3.632602
-3.628394
-3.666503
-3.719575
-3.732901
-3.725654
-3.705781
-3.680063
-3.650605
-3.588415
-3.521549
-3.477595
-3.444162
-3.407690
-3.370049
-3.340590
-3.308092
-3.272555
-3.234914
-3.187687
-3.128303
-3.052319
-2.981946
-2.904325
-2.821795
-2.784855
-2.764748
-2.718690
-2.667489
-2.620729
-2.579815
-2.542641
-2.489336
-2.423639
-2.352330
-2.267462
-2.182828
-2.108714
-2.040913
-1.976385
-1.923780
-1.899699
-1.877956
-1.848030
-1.842186
-1.843355
-1.811324
-1.755213
-1.721780
-1.712662
-1.685542
-1.630833
-1.567007
-1.503648
-1.430703
-1.362902
-1.317545
-1.273825
-1.220520
-1.158797
-1.077903
-0.978072
-0.890398
-0.827741
-0.756199
-0.672733
-0.593242
-0.520064
-0.442677
-0.349859
-0.248158
-0.144585
-0.040078
0.070274
0.177821
0.287238
0.417463
0.521269
0.588836
0.672302
0.776341
0.893474
0.997280
1.065081
1.120958
1.178005
1.233415
1.288357
1.341195
1.390994
1.425596
1.428167
1.419283
1.421387
1.422088
1.428401
1.453651
1.498774
1.546234
1.557690
1.532908
1.488486
1.441025
1.394734
1.334648
1.274094
1.228503
1.191563
1.149947
1.099681
1.039595
0.961740
0.890666
0.827774
0.746413
0.658271
0.592808
0.565921
0.558440
0.527578
0.469597
0.420499
0.390807
0.373272
0.366492
0.323707
0.239306
0.180155
0.156308
0.128018
0.076349
0.019770
-0.014832
-0.023717
-0.017404
-0.035874
-0.092687
-0.150669
-0.212625
-0.286038
-0.340045
-0.378154
-0.412756
-0.433330
-0.440578
-0.443617
-0.471205
-0.508847
-0.527083
-0.560516
-0.610783
-0.665024
-0.710614
-0.726279
-0.753633
-0.789170
-0.819096
-0.869129
-0.909576
-0.935995
-0.970831
-1.003797
-1.018058
-1.002160
-0.964753
-0.919162
-0.876611
-0.849958
-0.836165
-0.811616
-0.780287
-0.769065
-0.766026
-0.761817
-0.752232
-0.733996
-0.723007
-0.712253
-0.712019
-0.730489
-0.740542
-0.745920
-0.769299
-0.804837
-0.831957
-0.852064
-0.870534
-0.881289
-0.881055
-0.864689
-0.840141
-0.818631
-0.802266
-0.791043
-0.788939
-0.785900
-0.752701
-0.703837
-0.655675
-0.584133
-0.490381
-0.392420
-0.317137
-0.259623
-0.191354
-0.127761
-0.084743
-0.061129
-0.046868
-0.020215
0.016024
0.056470
0.100892
0.133390
0.157704
0.190904
0.241638
0.322298
0.418154
0.502087
0.581111
0.649146
0.698945
0.735183
0.764641
0.798776
0.820285
0.847172
0.905855
0.955887
0.970616
0.964304
0.950510
0.931806
0.923155
0.930871
0.936014
0.935313
0.928766
0.926194
0.930169
0.903516
0.860497
0.835481
0.812335
0.782642
0.752249
0.707593
0.643533
0.573394
0.507696
0.465379
0.452988
0.456728
0.467015
0.483615
0.490863
0.471691
0.462807
0.476133
0.469821
0.446908
0.415112
0.371626
0.330711
0.304058
0.296576
0.293537
0.293069
0.286523
0.261740
0.221761
0.154895
0.073767
0.003394
-0.058328
-0.126130
-0.200945
-0.269214
-0.335378
-0.407856
-0.482203
-0.535743
-0.561227
-0.582269
-0.588348
-0.569644
-0.559591
-0.575956
-0.592556
-0.593258
-0.614299
-0.657084
-0.705948
-0.762761
-0.805312
-0.833602
-0.854877
-0.863528
-0.851137
-0.815366
-0.786609
-0.766035
-0.727926
-0.687011
-0.663865
-0.643759
-0.621081
-0.608222
-0.592558
-0.568710
-0.555852
-0.559826
-0.561463
-0.550474
-0.545331
-0.533875
-0.507222
-0.479400
-0.450410
-0.415808
-0.367412
-0.328368
-0.303351
-0.268983
-0.252150
-0.243499
-0.212404
-0.180608
-0.155592
-0.127536
-0.111404
-0.102754
-0.064879
0.004091
0.085920
0.177569
0.258463
0.321822
0.390558
0.480336
0.571283
0.645864
0.726290
0.817705
0.895326
0.942787
0.985805
1.055243
1.122810
1.181026
1.246255
1.296288
1.328785
1.368297
1.411549
1.458309
1.520966
1.575207
1.607237
1.630617
1.646048
1.664985
1.706835
1.767388
1.818824
1.859738
1.915148
1.985053
2.064077
2.141230
2.210200
2.270052
2.321487
2.375260
2.419916
2.435580
2.411031
2.355621
2.291794
2.212303
2.114108
2.003288
1.895040
1.817186
1.769257
1.739799
1.727407
1.736993
1.750553
1.768555
1.813678
1.839396
1.832616
1.824433
1.796611
1.753358
1.712911
1.673867
1.655163
1.681816
1.745175
1.833784
1.967048
2.129771
2.277765
2.399573
2.496365
2.522083
2.447969
2.322186
2.162035
1.964710
1.775802
1.632484
1.547615
1.494076
1.428846
1.371566
1.379515
1.460642
1.592504
1.755928
1.885919
1.944836
1.950915
1.903688
1.816014
1.704726
1.588763
1.513714
1.521195
1.604427
1.726937
1.873761
2.028301
2.187984
2.340186
2.412196
2.395596
2.316573
2.163435
1.959798
1.743068
1.555562
1.439131
1.366186
1.297216
1.242274
1.196449
1.160445
1.161847
1.162782
1.108308
1.023205
0.956105
0.891110
0.802968
0.711787
0.614527
0.517969
0.444089
0.374651
0.314799
0.296329
0.318773
0.325320
0.269910
0.191587
0.135008
0.099705
0.068610
0.025591
-0.052497
-0.127312
-0.115623
-0.105102
-0.214987
-0.385893
-0.516819
-0.535523
-0.431483
-0.267124
-0.146484
-0.165188
-0.263851
-0.315520
-0.329080
-0.348018
-0.336328
-0.262448
-0.153967
-0.066994
-0.030288
-0.025846
-0.007610
0.104847
0.332098
0.574545
0.680923
0.545788
0.317134
0.294690
0.547892
0.906303
1.158337
1.199017
1.094042
1.004965
1.004264
1.023903
1.043308
1.135190
1.330177
1.521423
1.572157
1.523761
1.470221
1.421358
1.441230
1.617981
1.851077
1.902980
1.698407
1.403589
1.234319
1.282248
1.455725
1.571922
1.574260
1.559297
1.549244
1.483547
1.390495
1.342099
1.323162
1.294872
1.302587
1.347009
1.331344
1.219355
1.071128
1.004963
1.046345
1.078843
1.030680
0.937863
0.867724
0.829615
0.800624
0.810443
0.861177
0.862112
0.746616
0.611949
0.595349
0.709676
0.904195
1.097078
1.178673
1.107365
0.983686
0.943005
0.986258
1.034420
1.088661
1.193869
1.280608
1.259333
1.178205
1.139628
1.227068
1.430706
1.617743
1.672920
1.595533
1.449175
1.280841
1.148278
1.103389
1.143836
1.231276
1.320587
1.438888
1.587349
1.624990
1.502247
