EVENT_NAME: 202302060117
EVENT_ID: 13194
EVENT_DATE_YYYYMMDD: 2023/02/06
EVENT_TIME_HHMMSS: 01:17:32.00000
EVENT_LATITUDE_DEGREE: 37.288
EVENT_LONGITUDE_DEGREE: 37.043
EVENT_DEPTH_KM: 8.6
HYPOCENTER_REFERENCE: AFAD
MAGNITUDE_W: 7.7
MAGNITUDE_W_REFERENCE: AFAD
MAGNITUDE_L: 
MAGNITUDE_L_REFERENCE: 
FOCAL_MECHANISM: 
NETWORK: TK
STATION_CODE: 0120
STATION_NAME: 
STATION_LATITUDE_DEGREE: 36.77006
STATION_LONGITUDE_DEGREE: 35.79005
STATION_ELEVATION_M: 35.0
LOCATION: Kahramanmaras_Pazarck_Turkiye
SENSOR_DEPTH_M: 
VS30_M/S: 439
SITE_CLASSIFICATION_EC8: B
MORPHOLOGIC_CLASSIFICATION: 
EPICENTRAL_DISTANCE_KM: 125.25
EARTHQUAKE_BACKAZIMUTH_DEGREE: 
DATE_TIME_FIRST_SAMPLE_YYYYMMDD_HHMMSS: 2023/02/06 01:17:33.6307180
DATE_TIME_FIRST_SAMPLE_PRECISION: millisecond
SAMPLING_INTERVAL_S: 0.01
NDATA: 12501
DURATION_S: 
STREAM: HNE
UNITS: cm/s^2
INSTRUMENT: sensor = CMG-5T/GURALP | digitizer = 
INSTRUMENT_ANALOG/DIGITAL: 
INSTRUMENTAL_FREQUENCY_HZ: 
INSTRUMENTAL_DAMPING: 
FULL_SCALE_G: 
N_BIT_DIGITAL_CONVERTER: 
PGA_CM/S^2: 115.981
TIME_PGA_S: 
BASELINE_CORRECTION: BASELINE REMOVED
FILTER_TYPE: BUTTERWORTH
FILTER_ORDER: 
LOW_CUT_FREQUENCY_HZ: 
HIGH_CUT_FREQUENCY_HZ: 
LATE/NORMAL_TRIGGERED: 
DATABASE_VERSION: 
HEADER_FORMAT: DYNA 1.2
DATA_TYPE: Acceleration
PROCESSING: Automatic Paolucci et al., 2011
DATA_TIMESTAMP_YYYYMMDD_HHMMSS: 
DATA_LICENSE: U (unknown license)
DATA_CITATION: Turkish Accelerometric Archive v 1.0 - Disaster And Emergency Management Presidency, Earthquake Department
DATA_CREATOR: AFAD
ORIGINAL_DATA_MEDIATOR_CITATION: : AFAD - Disaster And Emergency Management Presidency
ORIGINAL_DATA_MEDIATOR: AFAD PROCESS SERVICE
ORIGINAL_DATA_CREATOR_CITATION: AFAD PROCESS SERVICE
ORIGINAL_DATA_CREATOR: network: TK
USER1: GuestUser
USER2: 
USER3: 
USER4: 
USER5: 
[...]
33.255859
35.442767
36.985950
38.030874
38.851627
39.190659
38.996214
38.446219
36.690542
33.655071
29.959950
26.209705
22.446599
18.649499
15.293084
12.461265
9.835548
7.526794
6.334912
6.542565
7.156910
6.488399
3.625037
-0.601417
-4.907188
-8.388244
-10.440059
-10.799264
-9.659710
-7.036711
-3.077262
1.568172
6.265363
10.180712
12.460106
12.723495
11.074391
8.506248
5.774877
1.864467
-3.952006
-10.163840
-13.794956
-13.353945
-9.183494
-3.047876
2.458411
5.867845
7.186245
7.764147
7.970269
7.066562
4.642354
0.750013
-3.840566
-8.654396
-13.854399
-19.210587
-24.038505
-27.482199
-29.530646
-31.206393
-33.786479
-37.727514
-42.652817
-47.449497
-51.421156
-54.720916
-57.883784
-60.448558
-61.483644
-60.488637
-57.828582
-54.209065
-50.191736
-46.196457
-42.510179
-39.248048
-36.226012
-33.279926
-30.360482
-27.856611
-24.714222
-19.223860
-11.441567
-3.464198
2.269628
3.731657
0.862476
-4.300166
-9.507825
-15.478951
-24.265685
-35.270544
-46.151680
-55.134410
-61.659838
-66.134349
-69.473308
-71.950190
-71.762137
-66.793615
-56.638544
-44.706032
-33.528719
-23.023917
-11.633764
0.399195
11.290782
19.744974
25.894680
29.827791
30.741643
28.663490
24.331076
20.012136
17.344464
16.695859
16.259175
14.792285
12.131045
9.428767
7.350002
5.555432
2.855604
-0.203754
-1.059074
1.841689
6.629221
10.769660
12.937581
13.623281
14.717510
18.490456
26.194962
35.217543
42.109890
46.331483
48.564940
49.374363
49.022508
47.166382
44.491973
42.170663
39.879059
35.866976
29.676272
22.797745
17.240967
13.359957
10.751083
9.046549
7.646727
6.137576
5.290831
5.942538
8.233263
10.379746
10.743278
10.200020
10.025481
9.572872
7.450008
2.771231
-3.066372
-7.202178
-8.359455
-8.297880
-9.869505
-14.127196
-20.156508
-26.543207
-31.750867
-34.665066
-35.546110
-35.728306
-35.971750
-36.334630
-36.833482
-37.296197
-38.067606
-38.954775
-39.295911
-39.511794
-40.073120
-39.948459
-37.533093
-33.047211
-27.959253
-22.795041
-17.732502
-13.228858
-9.721426
-7.169475
-4.999104
-3.514413
-4.239886
-7.894276
-13.581820
-20.176765
-27.766085
-35.978611
-42.929412
-46.370044
-45.557865
-41.558911
-35.709937
-28.473678
-20.243044
-11.714129
-3.803827
2.904468
8.114617
12.054465
15.373558
17.360488
16.910942
13.805953
8.986305
5.154293
3.973742
5.092777
7.055514
9.694745
13.796903
19.235816
25.387359
31.167428
35.300517
36.595336
35.283406
32.916466
30.502670
28.377356
26.825944
25.566382
23.994757
21.830244
19.093054
16.301354
14.099172
12.760599
12.747757
14.986420
20.198100
28.052972
36.461534
43.081324
46.392147
46.767622
44.944571
41.371335
37.084858
33.383306
30.667553
28.174441
25.787288
24.217807
23.631369
22.820149
21.226168
19.754991
18.997670
17.819262
15.055736
11.354184
7.726437
4.249668
1.035045
-1.965515
-4.684329
-6.733695
-8.044400
-9.449121
-11.316271
-12.492535
-11.551734
-7.973253
-2.067624
5.018576
12.654177
21.157061
30.001408
37.171212
40.536241
39.875080
36.640550
32.560175
28.724488
24.604607
19.809764
15.476431
12.411560
10.621277
10.079245
11.052508
13.885591
17.335143
20.086153
22.530306
25.913096
30.348754
34.005021
35.173974
33.648898
30.579128
27.657886
25.884753
25.203992
25.039252
25.572136
27.320197
29.493017
31.122255
31.290096
30.649147
30.903656
32.150701
32.695835
31.567958
29.102713
25.681681
21.601305
17.395982
12.836334
7.879795
3.163656
-0.517990
-2.206906
-1.960972
-0.878380
0.516581
2.064052
3.555479
4.764550
6.029051
8.604583
12.477671
16.677827
20.878902
25.152863
28.651414
30.175303
30.154498
29.851643
29.591967
28.946118
28.144697
28.539159
30.747504
33.511988
34.965136
34.202608
31.681014
29.852451
30.126865
31.188326
29.903958
25.144946
18.793771
14.178694
12.634631
12.523484
11.651627
9.600118
7.402224
5.959222
4.878812
3.023606
-0.404470
-4.875919
-9.179241
-12.858437
-16.312543
-19.824224
-22.819270
-24.112826
-21.868956
-15.691076
-7.768524
-0.634244
5.095601
9.975006
13.825738
15.789700
16.004091
15.177558
13.556934
10.498801
6.246929
1.925539
-1.826849
-5.208070
-8.807642
-13.419964
-19.230312
-26.400996
-35.338401
-45.752209
-56.867316
-67.163833
-74.733246
-79.273294
-81.997927
-84.098129
-85.003673
-83.020111
-77.000253
-66.484733
-52.479869
-35.872237
-17.222569
2.062248
20.528169
36.828332
50.314419
60.620774
67.761179
71.916624
74.035239
74.958278
75.501575
75.361641
74.675061
72.661833
68.407511
60.669663
49.972579
36.973153
23.533042
10.551378
-0.543517
-10.162928
-16.005432
-17.938118
-16.476089
-11.535742
-4.542640
4.152259
11.707012
17.524443
22.088111
26.765395
31.532715
35.001561
36.191338
35.390530
32.882411
29.917376
26.497569
21.490193
14.251829
5.811763
-2.309196
-9.116674
-14.257573
-17.471278
-18.336398
-16.305062
-11.499155
-6.199583
-3.056275
-2.348525
-3.716498
-6.103650
-9.160864
-13.587296
-20.915083
-29.460496
-37.474576
-44.625048
-50.693253
-54.026700
-53.221871
-49.115425
-43.354956
-36.331843
-28.200432
-18.530146
-8.508903
0.228258
7.199616
12.876481
17.101137
19.965456
21.304068
21.963738
23.109722
26.188107
30.957264
34.966936
35.590775
32.787437
29.311281
26.066033
21.209328
14.587740
6.996583
-0.845694
-7.545068
-12.901563
-17.287570
-21.937253
-25.459652
-24.583775
-18.365777
-9.964259
-2.402462
2.207754
4.736125
7.226214
10.150558
12.413414
13.806538
15.157094
18.141767
21.494240
23.070497
22.450067
19.271273
15.364538
11.743222
6.701240
1.653746
-2.173366
-3.795521
-2.820420
0.034712
4.026623
7.399308
9.166355
10.519973
12.823254
16.499733
22.235703
28.384796
32.962857
37.418114
42.980138
47.083827
48.932948
49.311791
47.195971
41.868263
36.172144
31.011340
24.317478
17.005615
10.466713
5.615521
2.444384
2.062824
5.496145
9.761837
13.206489
15.897475
17.487207
17.973236
17.278082
14.350408
9.262490
3.781661
-1.076881
-5.744939
-8.661894
-7.956900
-3.808193
2.664906
10.845622
19.649544
27.895490
33.836950
36.122162
34.967029
31.424724
26.852214
21.993060
15.895455
8.840838
2.133807
-4.300666
-10.440532
-15.793964
-20.211821
-23.305478
-24.998376
-25.204765
-23.170060
-18.205519
-11.081651
-3.172574
4.491815
11.799123
18.777525
24.478583
27.375670
26.735334
23.212935
18.326831
13.469514
8.801457
3.501924
-3.099453
-10.528607
-18.290341
-26.539617
-35.502747
-44.497420
-51.937292
-55.651400
-55.672511
-53.502141
-50.288090
-44.668187
-36.223795
-27.127410
-19.047448
-14.028395
-11.188881
-7.432473
-2.144232
2.990275
6.008635
6.242932
5.645775
5.975926
8.440904
12.430976
15.830917
18.377968
20.900213
23.687666
25.162250
21.860653
14.141180
7.317777
4.091209
3.111861
4.002438
6.920656
10.303447
11.172587
9.437735
7.920621
5.795614
2.111824
-1.488973
-3.636643
-4.239005
-2.951842
-1.130590
1.556109
6.298317
11.018781
14.287650
18.151856
25.755608
35.989384
43.340791
45.639478
46.288735
50.489503
56.645946
62.643142
66.500917
66.468475
64.175646
62.837073
62.166724
60.230975
53.113884
41.078820
29.781499
21.433306
15.715138
10.803616
2.667345
-8.990120
-18.892501
-25.333405
-30.499722
-37.706236
-46.512263
-53.344854
-54.159137
-49.663762
-42.136877
-34.086009
-26.904567
-20.469136
-15.072484
-10.408981
-5.909012
-4.125734
-4.568849
-2.908068
-0.049567
1.115098
-0.279211
-3.258946
-3.257089
3.589016
14.075443
21.641833
25.489809
29.331353
35.563132
42.764479
46.223525
43.048100
34.163981
23.868690
15.292958
7.447619
0.711189
-3.817834
-5.498482
-5.789394
-4.771113
-4.825911
-6.087311
-7.407509
-8.881136
-10.494410
-13.234661
-16.897014
-20.241179
-21.179185
-19.154892
-15.011391
-12.640124
-13.237587
-14.030739
-13.167112
-10.976835
-9.339941
-9.679240
-10.096937
-7.964234
-3.815833
1.234150
5.841304
11.246224
18.208395
24.710588
29.491076
32.560273
34.241572
35.835592
37.337738
37.220773
34.820146
29.565018
21.192020
11.202360
0.545394
-11.636667
-26.577067
-40.735627
-50.357182
-54.702152
-56.150667
-56.570201
-52.740294
-43.596135
-32.355429
-21.541015
-12.410024
-4.603538
2.116394
5.158948
5.075975
3.956060
2.180477
0.556178
0.072026
-0.824331
-2.136260
-3.108259
-2.246775
0.417873
2.403579
2.555496
2.921477
4.576439
7.034373
9.131858
10.782839
13.263435
13.705977
11.655999
10.816298
11.757099
12.155848
8.857620
2.365573
-6.008038
-16.129689
-26.844841
-35.768466
-42.695073
-48.868627
-56.030429
-63.466933
-70.281149
-74.474835
-77.151694
-81.029949
-87.584470
-94.618569
-98.991407
-98.364200
-93.539919
-84.595430
-73.782854
-62.757743
-51.443233
-39.194984
-26.115895
-15.141928
-6.038499
1.198679
7.278255
12.559452
19.983133
26.722052
29.678857
26.212807
17.982825
8.154249
-0.487631
-5.572793
-7.577447
-9.391923
-11.203337
-11.796205
-12.137342
-14.665366
-19.764616
-24.552721
-23.500141
-15.400580
-4.330452
5.119951
13.447664
21.651348
26.764112
26.939915
22.959682
17.738853
14.198386
13.192700
17.360088
25.162899
31.569849
36.274696
41.358366
48.434153
56.586388
62.655245
64.318782
62.890173
62.010354
62.614899
62.434541
59.999615
54.912309
48.005607
39.446107
33.587372
32.965410
31.243419
23.496384
11.008692
-3.202236
-13.800402
-19.864933
-24.108537
-33.257863
-46.149185
-53.856408
-54.204588
-51.292494
-49.612114
-49.383024
-48.170891
-41.269050
-29.275902
-19.559985
-14.145572
-10.207867
-6.728915
-11.142791
-24.701112
-30.529835
-23.607475
-1.938549
19.079610
22.021409
8.509024
-18.590182
-36.083739
-32.747497
-21.197485
-13.155191
-18.994939
-25.870097
-13.295699
13.289057
31.769065
26.147363
10.495252
11.365923
28.642086
45.446020
48.942428
39.326692
31.945924
33.643455
36.409470
34.774759
33.696800
35.015812
34.935290
30.685867
22.279489
12.558099
-1.632923
-16.500744
-28.012437
-38.544455
-46.714719
-48.046249
-44.985014
-48.446470
-51.803804
-48.326690
-40.526635
-30.982521
-25.811878
-28.647984
-39.462665
-45.970637
-37.832183
-30.155545
-31.611716
-37.121945
-35.844275
-24.528233
-17.310348
-20.875622
-29.870295
-28.114578
-13.870231
0.100028
2.248961
1.043604
2.187139
-2.163344
-0.365059
6.644273
9.210311
10.484918
10.926236
12.574154
16.487666
22.917585
32.950158
39.823518
37.142678
27.148424
16.769834
11.191925
6.786625
-0.806982
-8.263698
-9.921990
-9.011507
-14.688026
-23.199753
-28.210497
-24.727565
-16.308897
-6.871050
-0.016983
-0.915484
-3.319480
1.478465
8.752392
4.796964
-9.372008
-22.576618
-30.779344
-27.536200
-15.747624
-8.196239
-6.975837
-6.174377
2.816660
16.939735
23.511138
18.776625
12.547029
11.669660
20.146207
25.494166
18.954039
6.054754
-8.026326
-12.761145
-9.538213
-2.707115
-0.323598
-12.220546
-27.955037
-29.432951
-20.125870
-14.193904
-18.665047
-31.865063
-34.800699
-26.462267
-15.216049
-2.144004
-3.870894
-7.865215
2.392754
13.619372
24.679701
34.874277
38.170707
34.755187
34.023284
46.206302
63.931113
62.254446
42.333906
33.220716
51.240439
68.889914
58.536436
37.962370
31.932445
38.615628
37.510413
17.006171
-0.498717
-8.825472
-22.829379
-40.965436
-60.343312
-68.801752
-68.134427
-67.061941
-64.754679
-67.933166
-67.899765
-56.021766
-42.773937
-38.340423
-42.317288
-42.899132
-40.771023
-41.623280
-42.622535
-36.452617
-26.178723
-19.750030
-22.084508
-23.183598
-16.678650
-11.257805
-17.582949
-28.305451
-26.656614
-21.934924
-16.951090
-9.501685
-3.839519
-3.053984
-15.666930
-27.450874
-27.461267
-25.445549
-26.603438
-23.091412
-16.713555
-14.386693
-15.178621
-16.993709
-8.641803
6.875294
13.588488
12.887516
17.984354
25.177433
27.678241
18.231245
2.591383
-6.443101
-9.038194
-5.861811
-0.691168
-2.527081
-8.535569
-15.668891
-22.181763
-24.681919
-28.005872
-29.686520
-31.549076
-36.385875
-46.731390
-57.614364
-63.867541
-64.375274
-57.408509
-55.669024
-59.437337
-56.541780
-47.638022
-33.799142
-14.201650
1.016553
5.068794
2.267293
2.005168
10.108404
19.864745
25.112868
33.621265
39.212994
37.048787
32.612556
32.570620
42.179964
41.994094
27.050324
14.075704
12.919346
12.436725
5.089951
-8.717347
-24.360578
-32.925897
-51.160564
-73.872519
-78.417467
-69.493191
-58.528411
-51.531634
-42.179535
-23.128076
-9.235297
-9.569083
-7.385850
-2.367104
3.110396
13.736164
23.009559
33.513748
45.867344
54.602668
57.870618
60.609377
66.541650
71.773848
69.789406
59.446035
53.626499
47.969886
44.679620
44.054901
32.106811
11.405960
-9.049895
-19.206764
-13.243867
-9.751135
-19.915048
-28.594596
-30.046173
-20.249101
-5.739853
-3.344087
-13.214005
-24.238770
-27.858555
-22.645037
-12.480166
-9.693326
-17.248346
-23.511017
-27.904068
-27.305035
-32.187463
-41.014621
-39.050659
-32.887785
-24.587021
-19.090534
-20.196362
-24.627081
-28.601496
-27.516760
-18.438137
-5.703879
4.615645
10.877130
14.180603
19.587973
29.317978
38.879241
40.380775
36.824689
40.442676
47.782446
52.421449
49.984992
35.561225
17.533272
7.845568
12.268058
24.504669
31.176214
29.979432
27.376072
21.429751
19.167853
18.221272
18.213329
18.570429
12.455062
-1.240150
-14.667399
-22.246000
-32.238417
-49.483610
-73.092247
-88.994254
-89.745451
-79.982678
-63.713140
-45.792639
-21.816164
14.484183
55.892680
89.490730
109.065560
115.980569
110.160728
93.274759
69.220230
43.165316
20.169167
-3.074734
-26.923161
-37.840740
-27.636976
-8.848580
3.417430
9.317241
10.463532
10.692316
7.932464
1.054243
-5.559077
-10.294814
-15.364971
-22.723382
-30.163254
-37.977357
-52.060887
-71.106489
-85.129995
-93.456750
-93.900171
-85.560515
-65.707615
-30.300582
0.660707
21.607204
37.993728
47.347359
49.776199
47.879344
46.449510
53.863697
72.830327
92.652908
102.284608
96.930258
81.626345
68.962869
54.740304
28.297378
-5.982331
-39.848918
-62.870179
-74.295205
-81.105440
-84.197872
-85.475503
-83.561152
-76.270381
-61.265630
-35.703729
-9.298739
10.465657
19.419332
22.381038
24.716474
26.941663
29.896324
31.791688
31.159008
24.947480
13.404856
5.109032
4.239319
0.946296
-13.151321
-27.429009
-32.231508
-29.608815
-24.778103
-18.622578
-12.357419
-10.380288
-13.405041
-16.427956
-17.684761
-19.002204
-17.073153
-11.363214
-4.957488
-0.635447
6.278337
21.835859
48.411121
77.278007
91.477030
89.904180
81.675423
65.823028
47.251492
28.481204
6.534859
-12.308009
-24.007123
-24.113064
-13.231276
-2.643482
-1.661032
-8.716568
-16.902451
-22.682481
-22.172871
-16.896267
-13.250107
-11.445697
-8.744299
-0.980688
11.511637
22.508879
30.585778
39.115612
43.923663
40.297753
28.829547
13.896802
0.119517
-11.896866
-24.209081
-39.595985
-56.090268
-73.946724
-87.678380
-87.726440
-73.008946
-52.519671
-36.186128
-26.157535
-18.198847
-7.128106
7.456784
22.529215
32.717054
34.312605
27.591794
15.528249
1.995346
-4.609705
-0.193953
10.071978
19.926624
25.162803
26.913314
25.578722
18.108531
5.476904
-7.027019
-15.012312
-19.319615
-18.698226
-10.692069
-0.033533
8.681272
13.526684
17.945805
25.468709
34.308462
35.335624
24.531967
7.784727
-2.539046
-2.380698
0.391749
2.731472
1.981194
-1.719745
-3.374362
-4.743866
-8.109774
-9.737135
-9.110540
-4.185811
5.860544
14.924773
15.200413
6.439403
-4.841381
-17.014561
-29.836366
-41.413595
-47.394521
-49.984100
-50.221726
-45.147856
-41.438609
-44.414362
-51.725612
-57.425406
-57.298295
-51.428191
-44.684372
-41.522383
-39.270857
-30.130679
-10.532574
13.262299
32.843867
45.124577
48.736439
45.545089
38.058055
28.892498
22.067563
16.606334
10.712687
4.437155
-1.322663
-6.738875
-11.326697
-14.041837
-14.989643
-13.617344
-6.853925
5.673006
14.943031
17.852675
19.217012
23.285177
27.495133
24.638202
18.344295
16.457851
19.481418
24.982499
27.417770
23.764605
19.042648
16.173162
13.138609
7.710760
0.368273
-6.159604
-11.389620
-18.227111
-25.995276
-29.822695
-30.762538
-30.249866
-26.486107
-20.871716
-14.887383
-8.994003
-5.236064
-5.774115
-8.148405
-9.898876
-11.046047
-13.741587
-18.604722
-20.889589
-17.811511
-14.095527
-12.368597
-10.969655
-8.731298
-4.658846
2.431948
10.126961
15.416427
15.839369
9.336297
-0.116517
-10.208463
-20.790092
-28.765585
-31.768595
-26.437479
-15.762100
-5.217487
2.554087
6.846729
11.103234
17.414943
23.696639
27.283695
27.689182
27.064463
27.555392
26.929143
24.498197
22.435664
20.078217
14.350861
4.240847
-6.742881
-11.810281
-11.832924
-11.119356
-8.114776
2.528142
17.494918
27.151730
26.092758
18.146664
10.538664
-0.133002
-16.238354
-31.241229
-40.753148
-43.145813
-41.086915
-38.885614
-39.267480
-43.018644
-47.485193
-46.477324
-37.945347
-26.240681
-15.614607
-8.388760
-2.467206
3.662287
6.668704
6.275507
5.380987
5.312408
7.895290
13.435570
20.858944
27.034680
29.973417
30.880532
30.459466
27.642347
23.789817
19.659217
16.089656
13.764059
10.479918
3.689589
-5.746382
-15.971850
-26.296847
-33.622184
-36.132753
-34.100498
-27.496327
-19.243337
-13.681620
-11.139775
-9.481751
-9.915373
-15.240936
-25.447723
-35.973617
-41.030605
-39.269376
-30.680437
-17.061133
-3.225316
7.003560
12.583039
14.484528
14.805491
12.945078
7.933721
2.361324
-1.120650
-0.869511
2.388945
5.650157
8.555820
11.524875
13.445657
15.165543
17.199635
17.381257
15.516863
13.642057
14.583777
20.234917
29.672765
38.526299
45.031553
47.080039
42.634621
32.491532
20.880617
10.607681
2.704155
-1.921947
-2.418656
0.418715
2.749557
2.428327
0.265039
-3.843511
-9.747264
-17.504098
-27.686998
-37.049165
-40.810434
-35.943278
-26.051883
-18.285210
-14.354548
-9.240254
1.384902
15.055960
25.004929
28.245929
28.079045
29.009434
29.313554
26.087599
18.394769
8.790671
-1.620994
-11.403020
-16.678054
-16.351884
-11.232077
-2.977863
3.331702
4.921128
4.125219
2.553288
1.928264
2.379381
2.306208
0.956916
-3.254225
-8.676256
-10.682747
-7.919794
-2.004672
3.496409
6.783039
9.113576
10.107663
7.236339
-1.701066
-14.141903
-25.163300
-32.098176
-36.459989
-39.591927
-40.894670
-40.499289
-37.998175
-34.544029
-31.470851
-29.593249
-28.112540
-25.343768
-21.381564
-19.528768
-23.178258
-31.300749
-40.163124
-47.702526
-53.161000
-55.786410
-53.090831
-45.489835
-36.455617
-26.288909
-13.748810
-0.029671
10.578335
14.711424
11.163606
1.825021
-8.884619
-17.506287
-21.864119
-21.953829
-18.144134
-10.698710
-0.357137
10.968399
20.158189
24.467061
23.978928
22.169658
21.429179
21.678482
19.090739
11.747946
3.165171
-2.956933
-4.573882
-2.726599
-0.512435
0.534633
0.940120
2.607332
6.395590
10.293789
12.508259
12.571365
11.145819
8.857277
6.247791
4.568062
3.324731
1.872235
0.822757
-0.106062
-1.443410
-3.472257
-5.489773
-6.423185
-6.519020
-6.035135
-5.143639
-3.089641
1.204226
8.697424
18.772259
29.802882
39.661815
46.224031
48.377252
45.393230
38.660169
30.809929
23.224591
16.109337
9.692320
5.833052
4.241828
1.428996
-3.435976
-8.438453
-11.232297
-10.240047
-4.854420
3.689195
12.954627
