EVENT_NAME: 202302060117
EVENT_ID: 13194
EVENT_DATE_YYYYMMDD: 2023/02/06
EVENT_TIME_HHMMSS: 01:17:32.00000
EVENT_LATITUDE_DEGREE: 37.288
EVENT_LONGITUDE_DEGREE: 37.043
EVENT_DEPTH_KM: 8.6
HYPOCENTER_REFERENCE: AFAD
MAGNITUDE_W: 7.7
MAGNITUDE_W_REFERENCE: AFAD
MAGNITUDE_L: 
MAGNITUDE_L_REFERENCE: 
FOCAL_MECHANISM: 
NETWORK: TK
STATION_CODE: 4611
STATION_NAME: 
STATION_LATITUDE_DEGREE: 37.7472
STATION_LONGITUDE_DEGREE: 37.28426
STATION_ELEVATION_M: 1097.0
LOCATION: Kahramanmaras_Pazarck_Turkiye
SENSOR_DEPTH_M: 
VS30_M/S: 731
SITE_CLASSIFICATION_EC8: B
MORPHOLOGIC_CLASSIFICATION: 
EPICENTRAL_DISTANCE_KM: 55.32
EARTHQUAKE_BACKAZIMUTH_DEGREE: 
DATE_TIME_FIRST_SAMPLE_YYYYMMDD_HHMMSS: 2023/02/06 01:17:16.6455890
DATE_TIME_FIRST_SAMPLE_PRECISION: millisecond
SAMPLING_INTERVAL_S: 0.01
NDATA: 10501
DURATION_S: 
STREAM: HNN
UNITS: cm/s^2
INSTRUMENT: sensor = CMG-5T/GURALP | digitizer = 
INSTRUMENT_ANALOG/DIGITAL: 
INSTRUMENTAL_FREQUENCY_HZ: 
INSTRUMENTAL_DAMPING: 
FULL_SCALE_G: 
N_BIT_DIGITAL_CONVERTER: 
PGA_CM/S^2: 349.721
TIME_PGA_S: 
BASELINE_CORRECTION: BASELINE REMOVED
FILTER_TYPE: BUTTERWORTH
FILTER_ORDER: 
LOW_CUT_FREQUENCY_HZ: 
HIGH_CUT_FREQUENCY_HZ: 
LATE/NORMAL_TRIGGERED: 
DATABASE_VERSION: 
HEADER_FORMAT: DYNA 1.2
DATA_TYPE: Acceleration
PROCESSING: Automatic Paolucci et al., 2011
DATA_TIMESTAMP_YYYYMMDD_HHMMSS: 
DATA_LICENSE: U (unknown license)
DATA_CITATION: Turkish Accelerometric Archive v 1.0 - Disaster And Emergency Management Presidency, Earthquake Department
DATA_CREATOR: AFAD
ORIGINAL_DATA_MEDIATOR_CITATION: : AFAD - Disaster And Emergency Management Presidency
ORIGINAL_DATA_MEDIATOR: AFAD PROCESS SERVICE
ORIGINAL_DATA_CREATOR_CITATION: AFAD PROCESS SERVICE
ORIGINAL_DATA_CREATOR: network: TK
USER1: GuestUser
USER2: 
USER3: 
USER4: 
USER5: 
[...]
-4.823961
-6.722745
-6.725164
-5.766942
-8.761156
-15.649869
-23.355125
-29.598407
-31.464769
-26.050375
-17.186380
-11.093834
-10.566699
-11.989065
-9.786814
-3.706275
2.012222
3.980617
5.209019
5.388522
-0.080844
-6.437301
-5.330180
0.354695
3.209582
7.004095
16.005282
24.436989
25.976998
19.812369
10.863083
10.663432
17.048074
20.147924
21.157780
18.506695
9.283325
-1.825302
-4.997235
3.117160
16.567014
25.804758
25.101372
18.692680
11.321246
-1.607495
-16.520259
-15.694125
-0.058814
11.199879
7.473176
-5.403931
-15.241510
-18.441061
-15.354120
-8.522780
-2.590541
-0.454934
-7.222065
-17.323820
-13.931274
-1.007972
1.354887
-6.358475
-17.654127
-30.676230
-36.014107
-31.324997
-21.824277
-2.196603
21.731440
25.987961
5.146543
-12.691372
-12.109001
3.169372
22.374965
33.689494
31.256054
9.478611
-15.872716
-21.960193
0.454540
23.748860
15.469320
-11.376703
-24.227692
-24.702026
-17.380159
-5.203455
-4.003272
-13.705460
-22.111384
-26.151497
-13.172357
-2.025639
-22.380133
-48.363982
-45.281843
-19.647762
3.490153
5.065887
-15.297313
-41.105244
-52.478947
-41.004111
-9.287073
28.671428
47.081490
27.550446
-3.147147
-22.064582
-38.055365
-42.761922
-32.380115
-9.965982
9.508290
8.122249
-9.878675
-17.518188
-3.545386
22.656974
41.038817
34.858578
8.509085
-18.604717
-29.650001
-15.483269
13.284902
29.768879
32.445147
35.746432
18.358817
-13.811858
-19.008642
8.860730
44.518496
57.845868
38.093876
-5.491913
-26.129195
-8.243583
14.936661
35.973175
31.322756
-4.230575
-38.617929
-47.515881
-22.995844
4.668791
-0.278826
-24.031286
-33.603488
-20.586523
-9.705183
-13.026916
-19.068163
-20.751703
5.764066
51.336846
67.504412
36.231336
-16.191448
-59.491746
-87.650846
-94.580385
-55.188128
-2.613778
10.146516
10.974151
23.646486
7.828618
-26.953799
-37.838777
-9.754162
31.298803
42.021038
24.085257
8.174027
-9.258618
-37.990799
-41.382479
-5.256400
28.329384
25.251414
6.244219
-14.086859
-38.489853
-47.361388
-16.196719
29.243673
47.692761
27.062984
-16.055394
-44.513793
-40.153101
-0.560610
62.878286
101.625113
99.013654
70.463393
29.109293
-5.567154
3.497675
30.328654
42.853891
31.216011
-1.989154
-15.859322
1.826357
26.723746
31.780001
17.243688
1.656374
2.379239
2.653605
-8.723701
-7.883158
-5.406524
-19.978861
-41.176617
-44.410691
-18.300793
7.753268
7.170562
-7.941536
-20.616907
-4.112516
34.681742
41.583328
1.663885
-44.604494
-70.769063
-69.619613
-35.535797
14.228078
40.154554
33.993227
12.219387
-2.537874
2.510276
-1.786207
-26.943004
-27.278345
1.392862
4.579770
-14.862115
-8.977307
20.173319
29.018701
3.980183
-33.916511
-40.341714
-3.671972
35.872186
47.119171
25.473816
-16.469878
-52.284684
-70.232472
-61.394895
-35.212348
-13.955487
-6.132587
-0.603516
15.062416
30.500796
29.659017
18.213265
-11.131025
-35.585953
-41.115659
-34.050764
-25.283734
-25.833117
-39.700885
-50.439064
-39.135642
-12.855230
1.861168
0.109482
-0.364551
7.050377
21.538323
37.201854
38.001570
25.306685
5.795754
-21.536894
-37.176143
-29.109480
-7.540110
4.566047
0.586275
-7.253171
3.010358
36.558017
68.500805
64.854556
62.043463
72.427973
47.732884
-2.042434
-16.694624
14.733921
57.169909
83.081975
74.487525
35.401437
6.142104
4.133747
39.622801
88.074801
117.192105
101.241849
31.042109
-35.173675
-36.554613
4.014729
15.825790
-12.109660
-41.402616
-44.485990
-45.245514
-48.939795
-31.178466
-3.350822
0.257868
-10.647523
-20.224228
-28.538291
-18.467792
8.554715
24.294796
11.953548
-21.937875
-47.751210
-31.956192
-0.810735
18.864671
13.597340
3.209194
-2.128984
-6.982939
8.184961
41.313240
29.910117
-34.169442
-88.445361
-106.925404
-89.262240
-61.534563
-51.264731
-41.550869
3.276514
52.101963
72.763227
72.940928
81.984143
81.951704
60.334868
31.939811
9.328412
4.509280
25.395394
32.159188
16.963936
-8.566310
-38.539820
-60.478470
-47.741892
-4.871815
33.430715
53.967996
44.183252
10.981089
-4.278106
17.378021
28.999956
13.856638
-17.168773
-50.677741
-51.642002
-12.110752
34.646618
62.182167
63.741090
26.989659
-16.473948
-22.097316
7.351709
41.007740
57.075040
43.407506
22.203746
10.607594
-5.516178
-11.422335
-20.449373
-39.006268
-19.073590
38.669607
55.004686
26.578408
-25.124495
-66.300577
-46.517399
27.222568
60.377866
23.631238
-31.130105
-46.081895
-18.291176
28.556254
50.026557
38.656456
49.691199
68.281081
51.094901
22.808516
43.646598
56.602622
-3.549716
-80.688886
-79.093038
-9.437295
45.067642
50.073464
25.611630
-5.890499
-32.913941
-43.882374
-15.282315
26.625620
20.580471
-24.930202
-55.900677
-53.672908
-39.362080
-17.164992
-9.031084
-24.727371
-45.558583
-40.459099
-0.597028
15.045789
-14.627521
-63.881390
-96.756936
-102.624367
-79.946358
-49.826985
-33.611987
-50.287527
-83.592059
-83.834037
-41.001485
10.842477
37.547372
37.511031
8.627248
-11.255331
29.253671
88.149637
101.302893
79.006404
43.516115
4.844604
-21.633375
-25.287429
2.537813
38.398515
59.119819
78.303797
100.854221
112.263614
107.287777
107.037093
104.935073
97.115440
99.949013
126.244735
146.641522
135.863116
119.271632
116.727418
105.147176
74.038610
32.361494
-12.907218
-55.263387
-75.596266
-77.295417
-72.121783
-76.105758
-106.278300
-141.664420
-159.402669
-132.135799
-84.525260
-61.384943
-43.466308
-18.341067
-29.256665
-60.378141
-81.616424
-89.614976
-74.900379
-37.278702
6.012255
50.508817
76.193031
57.815356
9.907284
-25.214059
-57.633000
-71.925851
-43.524524
16.344691
46.717733
33.036090
18.348776
14.738851
19.145173
15.567069
8.442699
23.512434
58.528672
74.943904
64.622702
36.116872
18.046301
10.205354
-10.678093
-23.084785
7.764974
33.746987
11.050031
-40.444834
-92.688998
-136.467215
-138.104224
-91.916635
-26.473902
37.643748
65.091338
22.655916
-62.380020
-141.993440
-166.321984
-129.715285
-64.614780
-5.358573
31.472075
52.053786
54.497699
24.586631
-28.869442
-47.491480
-26.129849
2.923812
13.179836
0.160435
-31.987425
-61.340721
-72.131736
-69.481586
-51.158882
-22.455854
-5.180249
-7.730167
5.517352
40.167646
75.600263
100.423202
92.881254
38.394594
-29.321890
-77.395372
-82.101628
-50.294530
-21.094972
-28.487720
-50.198218
-75.093841
-89.025551
-52.263948
47.154247
170.862543
266.990843
303.109417
277.544648
190.905943
79.507322
-1.997959
-54.571743
-53.743508
-6.235337
41.030272
50.135027
32.410588
12.200490
-0.238324
-32.448325
-56.161459
-46.604002
-8.547936
33.228812
51.988608
36.068071
-16.078528
-58.824356
-73.763538
-51.918585
-1.436030
47.398725
67.656220
73.034890
84.293582
88.882726
76.193244
76.096863
75.224764
32.603218
-44.097659
-97.587054
-107.975500
-106.022415
-126.370904
-161.710793
-174.315018
-165.547987
-122.721139
-45.015227
37.450961
92.291222
103.420828
55.293010
-27.234153
-94.401871
-102.789183
-60.424343
-9.210801
25.994564
75.295230
135.786761
166.748195
139.120750
57.039084
-39.777610
-93.037352
-114.500485
-125.244669
-119.709894
-100.761273
-90.317324
-85.522543
-70.377459
-53.142080
-16.458229
33.616053
85.486433
125.050105
160.906604
191.218405
196.225127
134.965950
76.846867
35.032860
-17.244327
-63.145260
-63.982235
-31.414730
9.594706
54.199340
49.843717
-19.641247
-100.903366
-120.924037
-42.288704
45.136491
95.209572
106.929973
72.477776
21.850490
-5.811478
19.569534
49.029066
23.440882
-68.779747
-183.175266
-262.676711
-293.263229
-258.466737
-170.080901
-68.257202
33.988879
110.775278
145.649522
158.467454
158.809965
170.856383
181.555502
155.044802
58.183978
-41.543457
-87.205431
-66.905008
-23.594237
-8.327872
-5.705040
-27.378313
-77.460135
-144.202770
-181.049664
-167.213152
-77.902699
49.777546
101.414371
121.106588
112.852565
90.420686
71.770429
5.212117
-35.835479
-15.131287
8.336549
24.917791
17.727979
-26.721487
-64.940896
-95.818309
-126.282646
-128.417087
-92.541075
-30.816021
16.413263
45.505350
89.044574
107.123215
108.150483
100.101497
72.972384
18.935424
-15.384084
-10.060351
-7.116604
-52.849726
-129.503171
-189.192001
-200.314737
-182.164348
-131.996403
-56.573513
23.626163
106.594885
153.279006
142.642294
105.934993
62.077823
16.410746
-43.739792
-70.333047
-41.270980
16.359342
55.432187
75.348053
58.022580
24.248535
12.894045
26.104939
74.306272
105.628246
90.435996
65.186737
41.971635
16.598394
-6.018709
-15.177535
-8.320679
-28.350956
-74.186146
-115.986344
-114.696100
-69.698805
2.559074
58.916247
83.928013
77.969921
53.673798
41.258700
36.490302
14.959024
-2.817350
-19.200495
-45.566198
-72.065491
-59.896892
2.126260
64.865690
118.709587
168.852315
204.593837
196.015898
160.503995
115.183649
69.881615
26.109101
-9.816779
-21.740749
-27.796105
-46.147363
-74.601860
-97.946648
-97.171848
-51.576854
24.849305
100.057252
130.269085
62.565810
-67.462936
-184.955621
-241.609127
-219.988423
-135.998419
-54.650477
-4.087169
7.552478
-16.372898
-28.834827
11.517170
75.068342
110.002625
97.114712
49.855373
-10.040595
-59.238328
-93.031885
-97.747148
-65.136413
-43.567044
-58.131576
-95.272066
-133.203584
-145.787694
-114.811250
-85.791512
-68.787888
-45.694702
-19.921028
-13.182150
-15.111555
-9.822644
-4.388737
-8.562438
-26.372135
-49.944475
-72.860877
-82.507829
-71.563747
-28.981262
5.017899
-12.294666
-85.427963
-158.383242
-188.266691
-165.825240
-126.757499
-107.802574
-99.867699
-114.879529
-125.937122
-115.469757
-88.279438
-79.172281
-87.716297
-101.534832
-108.938687
-103.798076
-64.865425
-10.126332
34.372332
55.799406
50.088680
36.860339
25.208050
-5.274599
-44.113922
-67.064548
-53.284774
5.828837
74.067335
129.862533
176.712965
187.666654
117.918114
1.360253
-72.697661
-60.869189
6.506534
82.783193
144.887699
161.937854
147.478092
137.858159
151.027025
154.795721
112.378312
29.141175
-45.374844
-60.405287
-13.110258
67.521105
125.604730
134.252280
101.012892
52.663226
-19.713267
-57.514497
-21.067504
65.672034
126.369201
141.250410
142.238952
137.646171
123.141679
97.053661
63.556701
25.548333
2.273491
-13.340241
-29.444800
-43.915969
-47.364387
-27.337146
-0.103598
39.312074
85.251699
119.357430
140.396046
136.827548
71.802059
-31.067873
-108.551071
-127.901395
-86.577350
-29.385620
6.844628
5.091742
3.517775
46.046224
85.706560
93.485931
93.643219
106.891939
101.044321
60.470741
18.761204
7.808381
52.757344
111.375325
121.435018
83.354301
31.985820
-16.117081
-52.967878
-68.909729
-40.725747
21.258979
81.812951
114.203038
111.578670
80.718069
40.833449
1.490990
-24.490157
-34.506655
-34.579621
-27.812224
-28.037092
-12.588205
34.357991
95.714399
135.865562
134.567179
117.735835
104.362197
101.137429
92.373366
62.739683
6.410995
-49.187607
-91.609219
-118.995904
-124.401927
-115.940801
-97.754988
-72.915237
-52.146201
-34.888908
-12.620072
0.677580
5.819693
19.244029
22.805888
-16.476531
-62.348945
-79.614979
-53.556115
-1.183200
43.881942
84.414359
121.149544
136.614642
117.478962
82.046611
32.428899
-23.536248
-54.992746
-61.620885
-45.390576
-15.058662
10.528887
12.908257
-13.593737
-41.980388
-67.197225
-94.196951
-108.865052
-98.019436
-81.367646
-57.841271
-41.955593
-59.233034
-84.328590
-77.511961
-37.280344
-20.839595
-50.068008
-95.920309
-109.460857
-85.208298
-52.071613
-23.520187
-29.484282
-66.605259
-99.923900
-108.606909
-76.625395
8.364877
91.435067
146.612153
176.322352
173.487244
141.443553
97.058331
56.222376
8.828547
-25.155938
-16.887540
7.698241
11.692989
13.085000
27.371211
49.408293
47.167281
14.080094
-34.845056
-80.555963
-93.892675
-58.025069
1.910491
28.515719
11.458324
-45.193980
-117.334215
-143.982106
-122.860335
-67.633717
3.262154
58.818693
65.443494
20.803702
-6.813236
-1.055713
6.476894
24.081819
34.489444
3.585614
-65.258122
-122.692749
-147.866057
-149.505467
-144.606817
-128.076609
-108.976987
-98.481704
-88.850397
-79.468557
-64.561831
-33.901498
-3.269984
10.948682
25.912446
32.866567
23.060209
30.543583
57.742307
78.516446
85.839814
85.575020
103.261599
136.467030
151.582095
116.769958
54.840133
4.477324
-26.395586
-60.056755
-76.561181
-43.149513
24.132547
65.538247
41.648296
-27.500144
-86.206418
-117.335999
-132.229850
-126.745209
-99.960461
-82.596597
-81.318362
-96.226323
-126.834756
-155.608665
-144.228692
-84.150837
-27.193865
-21.449550
-65.147914
-124.224936
-149.130165
-118.241980
-64.781439
-17.447385
23.295173
10.668434
-37.258251
-67.863081
-48.607655
19.650055
72.034378
77.768186
41.638169
34.796589
25.819984
11.127567
27.311644
84.974088
144.380695
168.617343
142.386130
78.924083
17.086721
-30.348836
-57.465040
-42.114919
23.644525
90.445664
145.214778
184.230885
209.948121
207.701105
188.604150
189.743692
217.286746
218.625922
166.241865
54.827034
-31.272212
-68.469440
-81.106386
-56.238716
22.580639
149.760450
262.416575
324.069280
313.802114
217.500864
73.928284
-38.452892
-129.921819
-205.872195
-233.488232
-175.926956
-106.907638
-65.763412
-46.695611
-43.370010
-53.226201
-65.828624
-55.364862
-55.886628
-90.651934
-148.490629
-235.836306
-304.295786
-347.372135
-349.720619
-252.262732
-121.044627
-7.725360
65.097796
86.726305
70.643060
24.122513
-11.964574
-67.195430
-137.371755
-171.191130
-167.616063
-142.823444
-96.489956
-45.273112
0.756873
32.331616
31.255981
21.022138
16.581258
21.827540
38.997175
49.010336
46.293207
40.706163
22.676120
25.621967
57.195810
75.550035
61.719492
35.909159
4.966904
-37.222654
-94.919355
-144.512751
-159.623347
-154.227866
-138.022474
-104.682554
-51.141859
15.489366
53.685326
49.231538
8.823368
-13.061546
-3.111427
14.283958
11.408623
-13.473490
-42.814178
-62.656830
-76.511689
-101.467652
-146.239232
-188.455507
-202.399225
-185.018549
-137.136930
-69.440293
-8.226481
34.083422
47.103089
49.257909
27.915456
-24.359929
-85.241154
-148.556702
-174.763300
-141.594193
-70.505294
-15.792618
34.067621
95.924162
151.992243
151.088322
109.689192
55.355034
15.739993
-1.674640
-11.397542
-7.492855
-6.336201
-17.152433
-9.148812
40.720134
98.870102
126.734671
140.912510
144.977804
105.792951
25.989805
-50.769011
-92.731017
-102.438609
-104.595865
-111.172369
-108.076722
-102.520033
-92.687592
-90.841077
-103.358244
-99.706025
-56.555561
-13.203062
14.747063
23.322866
27.729188
32.888712
16.136321
30.337576
62.050711
54.074674
14.780847
-20.643998
-57.782387
-96.303798
-128.359496
-149.141175
-145.207669
-95.837056
-26.746890
42.424030
108.790179
150.675599
145.135987
92.872610
34.280711
14.975418
39.429411
78.899420
102.405381
114.882586
103.030964
56.478596
-5.992489
-45.107396
-37.800540
8.108464
49.187246
59.397639
45.225469
26.711203
-17.681224
-37.240187
-40.981300
-1.782672
71.195988
130.496324
139.482800
135.260467
73.610729
-32.730718
-99.398903
-102.364899
-23.637405
27.223402
41.826325
28.258158
17.944161
-62.357317
-92.904209
-109.707334
-72.701669
-24.254772
35.882822
91.426152
82.027166
30.972395
-15.940213
-37.234033
-14.579440
43.129835
81.874560
94.191158
88.651846
79.419471
42.081149
3.860538
-2.173504
38.045205
82.595202
79.766698
17.806254
-47.989550
-97.863032
-99.600008
-35.939864
41.530391
81.698666
58.891236
-9.659805
-64.129053
-84.487750
-57.453535
-8.219814
25.966672
44.129669
51.217379
29.130130
-2.114428
-28.153513
-23.976244
-6.017983
-22.233016
-54.954259
-58.776725
-45.615664
-37.891830
-17.323928
35.684811
103.633916
172.013508
223.876983
241.557259
227.579018
182.246064
129.442026
83.047564
48.839430
25.097476
21.913235
23.904146
41.366176
56.308024
61.417715
51.093812
42.515273
50.063190
75.844669
102.846162
136.411532
150.946910
101.633601
52.848644
25.076503
32.263879
56.855965
91.819969
110.020191
105.561299
72.508936
28.765242
-6.739157
-21.309693
-16.804005
10.603058
35.761322
39.682220
18.932662
-24.489217
-58.656224
-71.232230
-83.899496
-73.627562
-39.238742
-10.410531
10.149566
17.090178
7.948463
-8.190919
0.231181
43.335414
111.826080
176.530621
213.491256
214.120759
159.442871
79.916209
14.109899
-16.629721
-25.484144
-13.670982
31.099362
57.228173
42.036823
-1.154203
-37.063272
-55.087611
-61.653908
-55.748387
-30.005633
13.490361
64.746532
114.854736
127.008326
103.983851
71.038959
46.599041
16.699981
-26.162926
-43.604877
-26.089712
7.707714
37.972983
30.785572
1.355425
-12.437893
-7.932505
-4.404569
-11.315196
-20.315516
-29.228479
-30.181632
-39.693794
-69.316369
-90.358021
-91.570247
-100.413563
-115.256080
-124.098796
-130.192577
-137.060276
-131.784574
-109.522342
-75.537592
-31.040129
29.048232
84.635992
122.559670
133.219463
110.900458
47.539579
-21.168466
-55.649182
-68.607643
-85.809434
-98.473098
-94.588824
-63.271052
-3.090529
61.409875
125.841234
167.009776
150.485236
63.584456
-45.519433
-110.818405
-97.555876
-32.198700
47.016019
103.350977
127.186558
125.038608
101.824407
77.693394
72.263055
87.429753
98.506825
100.040530
63.988266
2.671150
-50.725483
-51.762692
-6.226837
34.467389
44.800564
28.986599
-17.054528
-69.413669
-90.152419
-82.500933
-61.923425
-29.730870
-1.758229
-2.890001
-14.109402
-25.571665
-30.941964
-32.015798
-30.847736
-25.499986
-6.059036
-0.357050
-22.134193
-65.312010
-95.625346
-91.768091
-59.745149
-31.622108
-10.819450
-8.834543
-35.196944
-67.701142
-77.142157
-54.687797
-11.567053
32.540750
68.791412
104.278064
107.584452
87.063047
57.128864
27.194981
-1.173959
-2.339053
22.892159
43.020567
37.889227
20.331399
18.181647
41.085707
56.334061
44.681171
20.696055
-12.481191
-57.150403
-103.269582
-128.696859
-128.679164
-112.848423
-85.958605
-60.038133
-37.368229
-29.391026
-45.298353
-66.188705
-62.795559
-34.732858
-17.228800
-17.646996
-23.802319
-49.458349
-83.876023
-71.573535
-24.712896
14.603110
27.179982
9.639865
-15.673636
-29.560916
-25.790719
-6.211977
16.471135
52.085373
89.358817
111.424117
108.216760
80.193351
37.840185
8.057302
13.069728
52.498310
91.649506
105.719874
88.509077
35.617981
-13.468377
-25.578772
-1.906800
50.039831
114.697841
171.674927
165.769071
72.127595
-38.698544
-98.105485
-108.020216
-89.638373
-59.938980
-33.060570
-24.549610
-23.106265
-13.067887
-8.138916
6.399764
21.293581
30.416048
28.956757
20.397731
13.711954
12.314505
2.511749
-4.768124
-8.627815
-16.545314
-23.994800
-24.353256
-3.507970
25.379381
37.879401
28.245058
7.964413
-16.210729
-47.352018
-79.499878
-101.451437
-97.440779
-69.218672
-39.978286
-16.022325
18.174668
53.463188
101.913987
152.369223
188.808711
204.106297
168.037522
128.678853
89.245733
50.745937
14.841971
-14.119563
-35.651442
-34.543721
2.992699
50.596333
69.955328
63.699738
35.219425
9.419599
-9.743100
-24.447525
-28.912420
-38.473515
-47.765330
