EVENT_NAME: 202302060117
EVENT_ID: 13194
EVENT_DATE_YYYYMMDD: 2023/02/06
EVENT_TIME_HHMMSS: 01:17:32.00000
EVENT_LATITUDE_DEGREE: 37.288
EVENT_LONGITUDE_DEGREE: 37.043
EVENT_DEPTH_KM: 8.6
HYPOCENTER_REFERENCE: AFAD
MAGNITUDE_W: 7.7
MAGNITUDE_W_REFERENCE: AFAD
MAGNITUDE_L: 
MAGNITUDE_L_REFERENCE: 
FOCAL_MECHANISM: 
NETWORK: TK
STATION_CODE: 3804
STATION_NAME: 
STATION_LATITUDE_DEGREE: 38.72268
STATION_LONGITUDE_DEGREE: 36.377902
STATION_ELEVATION_M: 1524.0
LOCATION: Kahramanmaras_Pazarck_Turkiye
SENSOR_DEPTH_M: 
VS30_M/S: 637
SITE_CLASSIFICATION_EC8: B
MORPHOLOGIC_CLASSIFICATION: 
EPICENTRAL_DISTANCE_KM: 169.84
EARTHQUAKE_BACKAZIMUTH_DEGREE: 
DATE_TIME_FIRST_SAMPLE_YYYYMMDD_HHMMSS: 2023/02/06 01:17:41.2992630
DATE_TIME_FIRST_SAMPLE_PRECISION: millisecond
SAMPLING_INTERVAL_S: 0.01
NDATA: 13501
DURATION_S: 
STREAM: HNZ
UNITS: cm/s^2
INSTRUMENT: sensor = ACEBOX/SARA | digitizer = 
INSTRUMENT_ANALOG/DIGITAL: 
INSTRUMENTAL_FREQUENCY_HZ: 
INSTRUMENTAL_DAMPING: 
FULL_SCALE_G: 
N_BIT_DIGITAL_CONVERTER: 
PGA_CM/S^2: 14.693
TIME_PGA_S: 
BASELINE_CORRECTION: BASELINE REMOVED
FILTER_TYPE: BUTTERWORTH
FILTER_ORDER: 
LOW_CUT_FREQUENCY_HZ: 
HIGH_CUT_FREQUENCY_HZ: 
LATE/NORMAL_TRIGGERED: 
DATABASE_VERSION: 
HEADER_FORMAT: DYNA 1.2
DATA_TYPE: Acceleration
PROCESSING: Automatic Paolucci et al., 2011
DATA_TIMESTAMP_YYYYMMDD_HHMMSS: 
DATA_LICENSE: U (unknown license)
DATA_CITATION: Turkish Accelerometric Archive v 1.0 - Disaster And Emergency Management Presidency, Earthquake Department
DATA_CREATOR: AFAD
ORIGINAL_DATA_MEDIATOR_CITATION: : AFAD - Disaster And Emergency Management Presidency
ORIGINAL_DATA_MEDIATOR: AFAD PROCESS SERVICE
ORIGINAL_DATA_CREATOR_CITATION: AFAD PROCESS SERVICE
ORIGINAL_DATA_CREATOR: network: TK
USER1: GuestUser
USER2: 
USER3: 
USER4: 
USER5: 
[...]
-1.304582
-0.455432
0.227955
0.547087
0.773401
1.090662
1.484608
1.906610
2.267592
2.183189
1.397161
0.440461
-0.151984
-0.501045
-0.690188
-0.666811
-0.628703
-0.806391
-1.283573
-1.815931
-1.920908
-1.631703
-1.405856
-1.342265
-1.256697
-0.951360
-0.287144
0.526001
1.098569
1.263394
1.006917
0.445568
-0.157397
-0.611901
-0.923321
-1.254146
-1.767566
-2.469661
-3.219918
-3.737314
-3.897467
-3.919913
-3.824292
-3.367220
-2.656478
-2.039956
-1.549685
-0.965194
-0.204887
0.576695
1.168201
1.614985
2.095671
2.438649
2.552975
2.782562
3.223268
3.739023
4.186275
4.336605
4.336603
4.419599
4.580216
5.020221
5.754810
6.488230
7.114337
7.504076
7.542183
7.351402
7.142620
7.076687
7.031796
6.820675
6.576355
6.350973
5.973155
5.494102
5.076772
4.741505
4.406238
3.742954
2.474134
0.897403
-0.572716
-1.907934
-3.086741
-3.884693
-4.237261
-4.349486
-4.410041
-4.486027
-4.609941
-4.764483
-4.896347
-5.014650
-5.132018
-5.104665
-4.783196
-4.213200
-3.473234
-2.526123
-1.337499
-0.120119
0.765971
1.208781
1.270736
1.154771
1.357705
2.185111
3.400154
4.630861
5.874193
7.241671
8.358519
8.914020
9.237359
9.580338
9.860426
9.935005
9.620078
9.132609
8.914007
8.786819
8.351955
7.698957
7.011591
6.327733
5.861305
5.748145
5.696708
5.398615
4.873271
4.399362
4.242716
4.242246
4.086068
3.804808
3.409689
2.650080
1.435267
-0.052387
-1.566226
-2.756957
-3.373015
-3.550235
-3.507452
-3.521949
-3.979258
-4.831217
-5.752614
-6.536304
-6.934930
-6.858013
-6.346934
-5.457337
-4.470948
-3.408108
-2.075933
-0.808753
0.118485
0.918303
1.593976
1.940929
1.942798
1.729806
1.440130
1.141569
0.960608
1.014380
1.146006
1.147874
1.019985
0.829672
0.634216
0.377739
-0.159062
-0.981328
-1.804764
-2.481142
-3.021683
-3.386408
-3.512894
-3.382671
-3.021222
-2.532588
-2.043953
-1.573555
-1.134252
-0.742176
-0.360153
-0.119343
-0.116306
-0.105787
0.136659
0.515175
0.806718
0.968037
1.011521
0.782866
0.302644
-0.116088
-0.145081
0.326019
1.028344
1.654685
2.137007
2.353969
2.174411
1.752171
1.326658
0.973155
0.758060
0.732106
0.768577
0.863730
1.141947
1.623568
2.463600
3.534389
4.253548
4.581797
4.853234
5.002629
4.934125
4.649825
4.123312
3.492759
2.847243
2.038770
1.004449
-0.007193
-0.643825
-0.816369
-0.674222
-0.330776
0.024828
0.135646
0.084209
0.161360
0.488440
1.024302
1.656956
2.388739
3.163541
3.593259
3.525924
3.321115
3.279965
3.321112
3.170778
2.792259
2.473825
2.353418
2.189524
1.751386
1.101428
0.308853
-0.671694
-1.640786
-2.095757
-1.809591
-1.226269
-0.807072
-0.474147
-0.126959
0.052595
-0.069916
-0.409860
-0.793523
-1.130426
-1.245223
-0.861329
-0.075071
0.642451
0.944983
0.834395
0.424313
-0.385095
-1.564370
-2.695951
-3.562172
-4.162799
-4.344695
-4.217277
-4.307758
-4.865367
-5.506908
-5.840773
-5.881923
-5.703303
-5.351908
-4.797810
-3.917565
-2.825500
-1.767569
-0.952086
-0.455269
-0.186871
-0.076287
0.084797
0.350389
0.488328
0.612472
0.850944
1.097130
1.435433
1.913547
2.408494
2.697933
2.618908
2.347233
2.005420
1.483583
0.866122
0.445987
0.363455
0.493210
0.684455
0.706430
0.164486
-0.948391
-2.150111
-3.079223
-3.763082
-4.327002
-4.575765
-4.276740
-3.755374
-3.549634
-3.664430
-3.782266
-4.013961
-4.542578
-4.896081
-4.688471
-4.345960
-4.293591
-4.384540
-4.449070
-4.529732
-4.498405
-4.063544
-3.159218
-2.135889
-1.457411
-1.150905
-0.897003
-0.410239
0.487541
1.701181
3.006703
4.204444
4.910744
4.925472
4.478449
3.803709
3.047840
2.421496
2.057939
1.882122
1.856402
2.025903
2.168050
2.002052
1.564850
0.995084
0.348633
-0.306001
-0.872962
-1.395033
-1.913363
-2.240681
-2.338176
-2.453908
-2.673445
-2.894853
-3.014092
-3.057112
-3.188274
-3.377184
-3.549261
-3.823507
-4.025977
-3.854138
-3.373920
-2.688428
-1.875751
-1.063775
-0.197090
0.795845
1.849568
2.801121
3.429566
3.688611
3.714327
3.552070
3.165134
2.827996
2.831969
2.878493
2.849968
3.119300
3.574970
3.791464
3.630610
3.163715
2.682558
2.455072
2.391711
2.295384
2.223373
2.243712
2.122369
1.780556
1.487840
1.378654
1.439674
1.691238
2.021825
2.130539
1.876867
1.558200
1.476369
1.648909
2.137544
2.892006
3.509463
3.553415
2.851320
1.738911
0.755557
-0.077230
-1.004706
-1.874667
-2.341328
-2.351150
-2.169257
-2.075740
-2.006772
-1.804773
-1.759652
-2.160850
-2.738331
-3.202420
-3.795332
-4.727717
-5.491768
-5.594641
-5.209813
-4.530867
-3.666053
-2.711928
-1.640905
-0.733305
-0.138995
0.440587
0.959148
1.246015
1.529142
2.046066
2.672874
3.033622
3.133919
3.302017
3.504484
3.720978
4.042682
4.156305
3.888839
3.442752
2.788352
1.805700
0.669678
-0.349914
-1.167271
-1.780523
-2.090073
-2.114389
-2.061787
-2.032564
-2.018772
-2.059688
-2.271978
-2.863487
-3.892197
-5.052768
-6.008533
-6.598873
-6.720216
-6.477068
-6.113048
-5.760717
-5.603373
-5.788075
-6.225278
-6.693342
-7.023933
-7.437054
-8.141253
-8.658649
-8.571912
-8.079536
-7.383758
-6.583939
-5.945440
-5.666990
-5.595450
-5.339677
-4.723156
-4.007270
-3.438443
-2.868447
-2.136196
-1.276993
-0.285694
0.826477
1.995462
3.148782
4.087944
4.706102
5.197542
5.786475
6.402296
6.747145
6.673263
6.282820
5.880453
5.812182
5.964149
5.897515
5.414254
4.465503
3.185695
2.016706
1.167553
0.428050
-0.280357
-0.869294
-1.496808
-2.403943
-3.514248
-4.477495
-5.052872
-5.301400
-5.352603
-5.216301
-4.906756
-4.502756
-4.014121
-3.358088
-2.447449
-1.300208
-0.127249
0.858205
1.512368
1.620146
1.210298
0.765146
0.662040
0.692899
0.479908
0.073800
-0.206291
-0.046843
0.748300
2.030910
3.376645
4.347837
4.753707
4.744354
4.517569
4.106785
3.418718
2.556705
1.877756
1.490119
1.424420
1.802702
2.360540
2.791895
3.117339
3.270006
3.249898
3.323776
3.560611
3.814045
4.108394
4.520811
5.035397
5.551619
5.729070
5.267552
4.286537
3.194468
2.433456
2.117127
2.060312
2.220929
2.589392
2.943593
3.060256
3.043654
3.094386
2.986838
2.504045
1.822056
1.039535
0.283433
-0.011855
0.423708
1.283145
1.936138
2.129019
2.122471
2.125976
2.185125
2.297112
2.356963
2.344570
2.280274
2.109833
1.860838
1.534689
1.148454
0.877715
0.824875
0.893375
0.818325
0.514153
0.268897
0.157374
0.007275
-0.210626
-0.573949
-1.030791
-1.323740
-1.594246
-2.082182
-2.553753
-2.852314
-3.154148
-3.565633
-4.040477
-4.352131
-4.336936
-4.155745
-3.961461
-3.859527
-3.878701
-3.782378
-3.619657
-3.619659
-3.542274
-3.367395
-3.520066
-3.937396
-4.310305
-4.755690
-5.394894
-5.981961
-6.250362
-6.265327
-6.371239
-6.707909
-6.963451
-6.890040
-6.546828
-6.042996
-5.564649
-5.201096
-4.821411
-4.431673
-4.076537
-3.672303
-3.207048
-2.613906
-1.716594
-0.611203
0.340350
0.932557
1.178042
1.201420
1.272025
1.587884
2.032564
2.274542
2.196452
2.150392
2.533117
3.317037
4.070330
4.424297
4.424296
4.215279
3.846345
3.349524
2.750300
2.212097
1.880103
1.767645
1.947199
2.384632
2.837028
3.041365
2.877003
2.341606
1.430730
0.228776
-1.186634
-2.689719
-3.793243
-4.150254
-3.959711
-3.555243
-3.221383
-3.068013
-3.021490
-3.014010
-2.901088
-2.551095
-1.941587
-1.118389
-0.268538
0.478677
1.120214
1.653270
2.132553
2.553854
2.815237
2.926055
3.102337
3.574372
4.314572
5.078386
5.590634
5.714778
5.509970
5.081885
4.630655
4.349161
4.261485
4.464186
4.891332
5.166042
5.102681
4.583649
3.508414
2.285418
1.321003
0.362198
-0.926494
-2.347048
-3.411763
-3.945524
-4.244786
-4.532826
-4.734829
-4.801229
-4.723376
-4.427624
-3.833080
-2.948159
-1.893268
-0.732934
0.508762
1.685228
2.603816
3.098529
3.082161
2.691017
2.244462
1.953383
1.758628
1.463106
0.896146
0.090712
-0.698355
-1.304593
-1.754655
-2.074491
-2.228799
-2.236516
-2.140895
-1.925570
-1.751626
-1.910377
-2.315081
-2.589795
-2.482718
-2.019100
-1.521815
-1.109866
-0.398189
0.723803
1.845326
2.686060
3.254419
3.685773
4.005138
4.077380
3.960479
3.698858
3.222612
2.780031
2.586212
2.450841
2.172621
1.754823
1.432883
1.470756
1.705720
1.838048
1.950269
2.219601
2.683921
3.356086
4.104002
4.759334
5.413263
6.111146
6.568451
6.734212
6.985308
7.426950
7.831885
8.071057
8.136753
8.119216
7.971922
7.513677
6.808075
5.833607
4.376580
2.547582
0.722793
-0.767900
-1.928705
-3.085770
-4.262240
-5.206315
-5.814891
-6.091241
-6.199257
-6.326678
-6.407340
-6.234800
-5.744763
-5.328605
-5.493668
-6.147367
-6.921705
-7.709370
-8.338754
-8.453083
-8.081113
-7.602298
-7.104078
-6.397077
-5.349667
-4.084358
-2.919582
-1.896721
-0.858663
0.166770
1.087930
1.838651
2.430156
2.830649
2.909437
2.879977
2.947309
2.713977
1.894282
0.736282
-0.533472
-1.704331
-2.423259
-2.648642
-2.602819
-2.378376
-2.138969
-2.147621
-2.455534
-2.891802
-3.251150
-3.533813
-3.825827
-3.978265
-3.903218
-3.787256
-3.711975
-3.572400
-3.246722
-2.720680
-2.254724
-1.982586
-1.628385
-1.119878
-0.663040
-0.359105
-0.250157
-0.262317
-0.282893
-0.277985
-0.153373
0.099828
0.385527
0.513879
0.059142
-1.002066
-1.925099
-2.046909
-1.327517
-0.169053
0.994320
2.057862
3.027651
3.912806
4.845889
5.751852
6.352709
6.522677
6.305478
5.842791
5.220421
4.454266
3.611892
2.771156
1.962215
1.163562
0.531139
0.237254
-0.001455
-0.386989
-0.679705
-0.873758
-1.176060
-1.480933
-1.600172
-1.565572
-1.389524
-1.036024
-0.682759
-0.528454
-0.552303
-0.593454
-0.441955
-0.057828
0.418883
0.987710
1.780515
2.760825
3.636861
4.082477
3.989658
3.494941
2.911381
2.680855
2.958605
3.210169
2.924233
2.375509
1.961686
1.581296
1.095931
0.610800
0.193002
-0.267580
-0.846230
-1.430491
-1.968694
-2.490766
-2.799614
-2.729009
-2.444245
-2.112956
-1.705450
-1.274096
-1.015284
-0.916623
-0.916625
-1.112315
-1.330450
-1.437998
-1.751990
-2.446603
-3.380625
-4.338494
-5.125458
-5.638645
-5.609889
-4.912942
-4.066597
-3.544997
-3.289693
-3.162509
-3.059172
-2.847120
-2.531495
-2.160929
-1.737523
-1.384024
-1.185064
-1.002704
-0.785041
-0.533710
-0.154259
0.200877
0.285510
0.129098
-0.177646
-0.611810
-1.150480
-1.658524
-1.949603
-2.037045
-2.024422
-2.067676
-2.472147
-3.341641
-4.368247
-4.983603
-4.720583
-3.642779
-2.165416
-0.711199
0.324287
0.842146
1.068460
1.123401
1.007436
0.820396
0.667958
0.537965
0.354900
0.069666
-0.216971
-0.380865
-0.531900
-0.662127
-0.564168
-0.337386
-0.184952
-0.129076
-0.190333
-0.260474
-0.219094
-0.178415
-0.147322
0.053508
0.424777
0.872029
1.387784
1.936504
2.407604
2.533151
2.188532
1.705739
1.205879
0.489990
-0.329472
-1.065935
-1.723608
-2.253629
-2.514314
-2.461010
-2.341776
-2.321437
-2.185135
-1.965367
-1.990386
-2.178127
-2.283103
-2.367506
-2.544726
-2.839079
-3.157512
-3.371672
-3.440878
-3.211759
-2.649712
-1.958843
-1.281066
-0.761571
-0.495745
-0.528011
-0.802725
-1.282946
-2.063363
-2.995515
-4.067711
-5.021605
-5.590903
-6.067150
-5.962645
-6.010809
-7.084641
-7.266304
-6.829572
-6.807597
-6.025781
-5.301245
-4.911741
-4.091582
-3.425261
-2.789334
-2.640641
-2.937098
-2.610017
-2.356115
-2.227061
-1.566352
-0.733100
0.154626
0.909790
1.502464
2.018920
2.230972
2.463599
2.732464
2.714226
2.738539
3.049721
3.568282
4.058085
4.601662
5.383478
5.807585
5.951602
6.137235
5.929388
6.001162
6.608331
6.936815
7.335905
7.643580
7.296857
7.007180
6.579096
5.757297
5.431148
4.905336
4.105981
4.235737
3.978792
3.470515
4.262852
4.701921
4.618454
5.011699
4.963067
4.881236
5.040217
5.192885
5.785325
6.009067
5.739030
5.515050
4.861585
4.338812
4.371074
4.068071
3.724855
3.950000
3.807382
3.192493
2.987451
2.579006
1.794614
1.623940
1.744578
2.039161
3.102235
4.071790
4.258593
4.214637
3.949509
3.242037
2.481258
1.871747
1.360197
1.524321
2.617321
3.565835
4.204100
5.139053
5.804906
6.326740
6.875460
6.641427
6.200016
5.807469
4.749768
3.454763
2.181268
1.258468
1.273663
1.560530
1.676024
1.777257
1.837575
1.841547
1.399903
0.816810
0.619484
0.371423
0.309231
0.435480
0.249375
0.097873
-0.385856
-1.263298
-1.934298
-2.792102
-3.769377
-4.636766
-5.449214
-6.035579
-6.552039
-6.867667
-7.097726
-7.247124
-6.947865
-6.751010
-6.558830
-5.988834
-5.499732
-4.988653
-4.611306
-4.568056
-4.419362
-4.396920
-4.326548
-3.750006
-3.388090
-3.159672
-2.456178
-1.914705
-1.780975
-1.896239
-2.432571
-3.072710
-3.516459
-3.892407
-4.492566
-5.106052
-5.162633
-4.896573
-4.512213
-3.894756
-3.257192
-2.400327
-1.171724
0.155073
1.571415
2.642205
2.843502
2.772193
2.774529
2.573695
2.461237
2.419385
2.093236
1.507806
0.813894
0.299538
-0.101894
-0.449786
-0.500054
-0.423604
-0.439037
-0.688266
-1.172462
-1.686117
-2.121683
-2.351040
-2.496463
-2.681399
-2.945358
-3.281560
-3.274314
-3.015502
-2.803918
-2.471927
-2.089904
-1.672812
-1.298504
-1.165709
-1.137422
-1.204757
-1.369118
-1.655054
-2.151641
-2.724213
-3.394044
-3.950016
-3.995374
-3.706402
-3.250733
-2.656189
-2.244474
-2.150489
-2.164752
-2.037802
-1.775250
-1.714932
-1.724052
-1.247341
-0.381358
0.562714
1.444595
1.945621
2.015992
1.634901
0.590760
-0.912792
-2.461233
-3.746184
-4.535252
-4.784248
-4.575001
-3.940477
-3.022825
-2.061920
-1.015211
0.085972
1.162607
2.274779
3.043970
3.568843
4.391340
5.237684
6.213786
7.653507
9.041092
10.312013
11.625951
12.739526
13.764024
14.548412
14.692897
14.355292
13.614386
12.385780
10.928753
9.565714
8.425716
7.483979
6.743775
6.194817
5.730027
5.324620
4.955920
4.734279
4.852344
5.214494
5.836160
6.838447
7.942903
8.761425
9.134330
9.123574
8.766096
8.009526
7.006300
5.883838
4.456504
2.587994
0.574063
-1.090108
-2.314974
-3.268635
-3.912748
-4.167121
-4.065655
-3.770371
-3.455448
-3.059397
-2.497350
-1.877322
-1.368113
-1.052722
-0.831552
-0.633294
-0.435971
-0.109358
0.287862
0.621957
0.917942
1.011459
0.722718
0.219818
-0.216449
-0.447443
-0.606427
-0.939590
-1.313200
-1.467742
-1.613165
-1.885073
-2.080062
-2.161893
-1.945632
-1.335657
-0.819434
-0.688744
-0.617905
-0.120854
0.665872
1.093018
1.143049
0.985234
0.382737
-0.525568
-1.465434
-2.423771
-3.252584
-3.876357
-4.260722
-4.158554
-3.699846
-3.323902
-3.000094
-2.630696
-2.292861
-1.832282
-1.424074
-1.530687
-1.993608
-2.555191
-3.295395
-3.944885
-4.159279
-4.042149
-3.772816
-3.719980
-4.276419
-5.186126
-6.148905
-7.094617
-7.775436
-8.278102
-8.726995
-8.833140
-8.677433
-8.481980
-8.218259
-7.965058
-7.384542
-6.138170
-4.829141
-3.753676
-2.514084
-1.257893
-0.105041
1.273660
2.697717
3.976119
5.254754
6.231791
6.665951
6.617787
6.015991
5.172448
4.470120
3.931683
3.609742
3.400726
3.345781
3.669121
4.107022
4.428023
4.734530
4.893978
4.694313
4.338004
4.107011
3.835103
3.412395
3.010028
2.650914
2.262809
1.778145
1.359179
1.282258
1.385127
1.351458
1.221465
1.296980
1.570521
1.718512
1.760828
1.656552
1.175162
0.596278
0.154867
-0.251007
-0.615265
-1.096655
-1.822597
-2.558827
-3.145660
-3.612321
-4.102596
-4.626537
-4.812875
-4.686627
-4.758872
-5.001789
-5.010909
-4.655305
-4.129964
-3.655124
-3.202962
-2.994650
-3.302797
-3.763146
-4.148211
-4.564139
-4.977962
-5.456780
-5.855874
-5.824313
-5.247303
-4.178852
-3.000281
-1.966899
-0.980978
-0.200331
0.407073
1.193799
2.244014
3.447133
4.552992
5.383672
5.880256
5.927949
5.640610
5.210187
4.798702
4.640887
4.649536
4.578460
4.363598
3.967778
3.486387
2.987930
2.351298
1.676791
1.097673
0.567653
0.114085
-0.294829
-0.628693
-0.642021
-0.279170
0.248743
0.910387
1.880644
2.967800
3.938524
4.870438
5.579777
5.951279
6.087581
5.797437
5.002524
4.147760
3.741652
3.618439
3.460390
3.394925
3.340215
3.298597
3.567462
4.269554
5.385232
6.392897
6.853709
7.000532
6.881060
6.531765
6.254480
6.012732
5.734277
5.733574
6.096192
6.502530
6.847145
7.141961
7.236180
6.979469
6.450150
5.970864
5.496721
4.683339
3.394880
1.690964
-0.010147
-1.354016
-2.228185
-2.529552
-2.526047
-2.333400
-1.896902
-1.624997
-1.692333
-1.787256
-1.540836
-0.934134
-0.322522
0.293064
0.872880
1.047291
0.797593
0.187615
-0.655226
-1.527292
-2.489837
-3.424560
-4.305978
-5.256599
-5.971086
-6.335577
-6.557219
-6.702643
-6.795228
-6.860927
-7.029497
-7.100807
-6.632279
-5.837838
-5.022822
-4.227913
-3.489350
-2.494778
-1.400141
-0.613882
0.303770
1.369884
2.109850
2.611577
2.879273
2.933045
3.008092
3.204246
3.554239
3.704802
3.499527
3.317397
3.096690
2.787141
2.745757
2.940274
3.127310
3.243272
3.399447
3.677430
3.866570
4.066231
4.495715
4.782582
4.754057
4.618921
4.383017
3.921734
3.308949
2.969708
2.708320
2.017681
1.219028
0.228427
-1.114974
-2.148827
-2.839466
-3.467681
-4.134005
-5.025943
-5.622362
-5.643172
-5.609273
-5.661412
-5.892639
-6.490460
-7.219676
-7.852099
-8.309642
-8.619659
-8.877306
-8.973866
-8.929212
-8.893209
-8.750361
-8.447362
-7.987718
-7.344310
-6.825048
-6.705345
-6.914596
-7.203103
-7.334499
-7.493483
-7.721204
-7.403709
-6.398149
-5.271715
-4.294211
-3.413498
-2.709069
-2.370298
-2.401395
-2.609944
-3.042003
-3.901912
-5.084927
-6.315404
-7.300160
-7.761210
-7.752562
-7.441379
-6.853147
-6.246211
-5.861617
-5.598129
-5.490116
-5.551139
-5.428865
-4.945374
-4.261987
-3.584678
-3.102122
-2.721034
-2.213228
-1.642999
-1.123503
-0.671808
-0.239987
0.219891
0.557025
0.719979
0.720445
0.447836
0.034480
-0.427739
-1.071852
-1.953036
-3.031310
-3.940316
-4.446021
-4.806071
-4.912918
-4.577888
-3.922089
-2.788408
-1.286028
0.145744
1.462722
2.527200
3.015834
2.909922
2.368446
1.794238
1.671492
1.993196
2.402105
2.569736
2.323312
1.821347
1.338320
1.131174
1.474387
2.151462
2.803053
3.455579
3.788739
3.505375
2.939350
2.293600
1.674269
1.232156
0.896422
0.690912
0.544553
0.249499
-0.027786
-0.038075
0.083264
0.060818
-0.187944
-0.660684
-1.371430
-2.213569
-3.033031
-3.717825
-4.112710
-4.032052
-3.487306
-2.904451
-2.761369
-3.109963
-3.791484
-4.433025
-4.545016
-4.164629
-3.467915
-2.625078
-2.052277
-1.723559
-1.476204
-1.237031
-0.825316
-0.397702
0.121793
0.708389
0.970006
1.141845
1.383356
1.720958
2.344961
3.043077
3.748910
4.382498
4.938700
5.699708
6.356911
6.700357
6.859337
6.641437
6.082659
5.385708
4.522293
3.419937
2.197877
1.152567
0.338951
-0.277808
-0.551119
-0.575903
-0.672697
-0.897846
-1.132346
-1.430673
-1.808258
-1.997869
-1.728536
-1.028549
-0.247668
0.251955
0.478269
0.519649
0.117048
-0.790087
-1.707743
-2.288965
-2.467354
-2.242910
-1.926351
-1.736743
-1.545966
-1.378335
-1.204392
-0.779117
-0.133137
0.614311
1.426054
2.011246
2.254160
2.481877
2.887513
3.491410
4.245638
4.928558
5.427479
5.677641
5.695641
5.853219
6.253010
6.554607
6.646487
6.551330
6.229389
5.803175
5.335813
4.738225
3.935363
2.768713
1.339743
0.121423
-0.739888
-1.306614
-1.485471
-1.383771
-1.236948
-1.066044
-0.778709
-0.445316
-0.319769
-0.418900
-0.507044
-0.637037
-1.159576
-2.099442
-3.040478
-3.790969
-4.457060
-4.913667
-5.002980
-4.856858
-4.666082
-4.514115
-4.402362
-4.407507
-4.551762
-4.507108
