EVENT_NAME: 202302060117
EVENT_ID: 13194
EVENT_DATE_YYYYMMDD: 2023/02/06
EVENT_TIME_HHMMSS: 01:17:32.00000
EVENT_LATITUDE_DEGREE: 37.288
EVENT_LONGITUDE_DEGREE: 37.043
EVENT_DEPTH_KM: 8.6
HYPOCENTER_REFERENCE: AFAD
MAGNITUDE_W: 7.7
MAGNITUDE_W_REFERENCE: AFAD
MAGNITUDE_L: 
MAGNITUDE_L_REFERENCE: 
FOCAL_MECHANISM: 
NETWORK: TK
STATION_CODE: 3115
STATION_NAME: 
STATION_LATITUDE_DEGREE: 36.54634
STATION_LONGITUDE_DEGREE: 36.16459
STATION_ELEVATION_M: 180.0
LOCATION: Kahramanmaras_Pazarck_Turkiye
SENSOR_DEPTH_M: 
VS30_M/S: 424
SITE_CLASSIFICATION_EC8: B
MORPHOLOGIC_CLASSIFICATION: 
EPICENTRAL_DISTANCE_KM: 113.57
EARTHQUAKE_BACKAZIMUTH_DEGREE: 
DATE_TIME_FIRST_SAMPLE_YYYYMMDD_HHMMSS: 2023/02/06 01:17:31.6243800
DATE_TIME_FIRST_SAMPLE_PRECISION: millisecond
SAMPLING_INTERVAL_S: 0.01
NDATA: 12501
DURATION_S: 
STREAM: HNE
UNITS: cm/s^2
INSTRUMENT: sensor = CMG-5T/GURALP | digitizer = 
INSTRUMENT_ANALOG/DIGITAL: 
INSTRUMENTAL_FREQUENCY_HZ: 
INSTRUMENTAL_DAMPING: 
FULL_SCALE_G: 
N_BIT_DIGITAL_CONVERTER: 
PGA_CM/S^2: 241.500
TIME_PGA_S: 
BASELINE_CORRECTION: BASELINE REMOVED
FILTER_TYPE: BUTTERWORTH
FILTER_ORDER: 
LOW_CUT_FREQUENCY_HZ: 
HIGH_CUT_FREQUENCY_HZ: 
LATE/NORMAL_TRIGGERED: 
DATABASE_VERSION: 
HEADER_FORMAT: DYNA 1.2
DATA_TYPE: Acceleration
PROCESSING: Automatic Paolucci et al., 2011
DATA_TIMESTAMP_YYYYMMDD_HHMMSS: 
DATA_LICENSE: U (unknown license)
DATA_CITATION: Turkish Accelerometric Archive v 1.0 - Disaster And Emergency Management Presidency, Earthquake Department
DATA_CREATOR: AFAD
ORIGINAL_DATA_MEDIATOR_CITATION: : AFAD - Disaster And Emergency Management Presidency
ORIGINAL_DATA_MEDIATOR: AFAD PROCESS SERVICE
ORIGINAL_DATA_CREATOR_CITATION: AFAD PROCESS SERVICE
ORIGINAL_DATA_CREATOR: network: TK
USER1: GuestUser
USER2: 
USER3: 
USER4: 
USER5: 
[...]
0.176279
-1.087935
-2.951858
-4.943283
-7.530218
-10.292955
-9.561237
-6.631983
-2.581911
2.656479
7.364161
11.468534
17.218433
23.038232
25.536679
25.159280
23.707564
19.844708
15.867552
15.480552
17.449791
18.940521
18.564322
18.057921
15.598788
10.984421
7.677475
8.812100
10.037026
8.657911
8.344113
11.171365
14.850630
16.566064
16.440669
15.860767
15.036360
12.522327
9.327582
5.879034
2.620389
-1.078364
-5.434727
-10.435500
-14.374556
-13.500035
-9.948272
-7.548527
-8.222631
-8.300025
-5.659076
-4.189946
-7.340889
-10.933440
-12.017351
-14.324981
-21.389787
-24.497830
-20.108753
-16.945496
-19.274126
-22.534271
-23.702483
-23.661676
-25.513599
-29.883162
-32.930004
-32.194985
-30.062245
-28.431112
-24.379840
-15.674294
-6.535241
-1.356251
4.786354
12.953091
19.116097
22.565859
26.636030
29.135077
27.440357
24.839022
24.833029
28.197589
32.338262
35.851625
36.804147
36.887555
37.440171
35.994455
31.644092
26.633118
23.177370
18.885208
11.004089
4.957199
5.889620
8.995877
10.450307
9.054091
6.635759
2.605502
-4.845111
-12.870532
-16.680887
-17.695796
-18.457201
-18.429894
-15.325438
-11.060863
-9.796936
-10.299437
-9.611519
-8.474494
-9.194799
-11.884335
-15.107280
-15.807484
-15.853978
-18.104008
-17.348289
-12.686807
-8.376332
-6.969602
-7.378502
-6.406180
-4.558144
-3.987828
-4.412328
-2.772795
2.362694
8.777404
11.267750
10.940752
14.009508
17.225866
12.785502
3.942567
-1.073806
-3.655641
-11.818465
-19.383679
-20.561191
-18.797456
-18.939952
-21.201981
-18.511531
-12.409427
-10.600391
-10.716786
-3.728768
5.215282
7.696029
8.647951
14.552352
17.825411
15.322778
14.392470
17.940033
20.164876
19.028164
19.836684
21.917224
19.978000
15.321032
11.074171
7.966128
6.868417
6.543519
6.784129
9.082773
10.622104
6.742449
0.720459
-0.451053
1.072379
1.136286
-0.591435
-3.691377
-6.308912
-7.854530
-10.884572
-13.401006
-11.870674
-10.250942
-11.305452
-9.265112
-4.138624
-2.419589
-3.353197
-1.796166
-1.469154
-5.140906
-5.230300
2.821235
9.592950
6.054100
-0.533698
-3.772243
-5.024756
-7.172484
-7.075276
-7.597877
-9.432100
-9.438993
-8.731575
-6.933040
-3.239374
-2.969963
-6.494712
-9.748258
-7.939522
-0.290293
5.007499
4.350495
2.239368
5.752731
11.122224
11.225432
11.495743
15.862320
16.870643
13.626998
13.525603
15.051734
9.953159
4.072472
3.433469
0.501228
-7.578194
-11.686753
-8.410094
-5.887947
-5.732837
-5.366525
-1.686959
6.398177
11.223461
9.257536
9.441146
13.883324
17.019881
11.223795
3.160273
-0.556480
-4.051829
-9.617512
-8.599588
-3.551701
-4.637412
-7.454750
-6.027320
-4.556990
-5.649601
-7.497023
-10.624267
-10.315555
-8.344817
-10.635047
-10.653040
-3.247115
2.102578
-2.813894
-8.642381
-6.435839
-4.646603
-7.072735
-7.973643
-1.514233
6.861008
7.587926
9.532564
17.090592
23.541002
26.535657
23.595616
19.328955
18.047941
13.400274
6.243066
4.555546
6.421882
8.245618
8.394727
6.582405
2.048439
-3.527143
-5.469667
-5.472961
-6.858376
-4.842337
-4.157719
-6.819355
-10.153602
-13.720952
-15.024766
-13.168030
-9.759968
-7.209921
-3.254951
2.635650
4.483387
1.791150
-0.668882
-4.027729
-11.345739
-21.979103
-22.662807
-10.608007
-6.217430
-10.498792
-7.240133
-0.694922
-1.144622
-1.820526
0.923625
1.557841
-2.892423
-8.924313
-9.619117
-7.198972
-7.023162
-8.514779
-1.301757
8.443006
7.050390
6.044181
14.088517
20.932833
19.819522
17.386190
19.449629
20.187048
14.387362
9.211386
5.831239
1.284073
0.142261
-0.873848
-4.417798
-1.788249
6.283086
11.197472
13.859121
18.100896
21.443556
24.063205
25.486734
25.644244
25.694651
23.750927
21.474797
13.878983
6.687574
5.270058
-1.727547
-11.659799
-11.392788
-5.576288
-8.364526
-18.176176
-17.156153
-11.713459
-14.033390
-15.611708
-10.930726
-5.007425
-1.620964
-0.777044
0.196479
8.914025
16.768157
10.779468
1.995635
0.994225
-2.015116
-13.586594
-24.924069
-25.296368
-22.747821
-19.259358
-13.987967
-14.984276
-14.147556
-5.141105
-2.211251
-6.557114
-7.491022
-3.062645
-0.540498
-1.916013
0.981440
1.746759
-5.730853
-13.020963
-13.701067
-10.676112
-5.859828
1.579397
6.762287
9.217233
11.428275
10.605669
6.511810
6.725120
12.625022
13.798047
8.393467
7.158354
10.652817
9.103299
3.145810
0.222270
3.239126
8.569618
7.760211
2.206829
1.469124
0.713419
-3.927648
-6.828088
-9.210719
-12.737869
-11.846248
-5.802345
-3.560102
-8.518275
-12.010624
-7.408543
-7.418437
-14.268439
-18.301097
-17.258274
-16.681058
-17.672567
-20.252001
-25.712982
-25.055065
-21.243497
-21.817099
-28.017592
-30.757829
-26.058247
-17.773007
-8.232248
-1.387032
3.834859
8.744144
5.687702
-0.317487
-2.850421
2.180366
10.522306
16.061602
19.218259
22.866924
26.481689
31.760880
34.796635
28.898848
22.100146
22.821664
24.465997
21.257453
20.132441
19.579539
18.055222
17.445919
17.362224
14.430284
15.614710
21.219406
22.409532
17.632562
9.749043
3.355047
1.137119
-2.436232
-12.075379
-21.701926
-22.051725
-13.976189
-14.415990
-23.525028
-19.249353
-3.776599
-0.172635
-4.416796
-6.628724
-11.327693
-13.480820
-11.728186
-7.599213
-0.483392
8.301655
8.511365
1.775064
-2.679400
-2.931097
-7.108657
-17.804122
-24.890528
-22.299080
-21.507061
-26.607436
-26.595129
-22.331154
-19.837807
-16.384445
-11.201855
-4.722945
-1.338284
-2.033988
-3.462904
2.677901
11.428448
9.650626
10.138140
14.661920
16.246252
13.598416
14.014830
17.481992
11.788508
4.169892
4.534705
8.178570
8.950789
8.729092
9.959119
12.194761
11.360455
6.487784
6.551091
11.682980
11.636786
2.855653
-5.590076
-6.692887
-8.809714
-16.313427
-20.756791
-16.275913
-11.237025
-14.118565
-14.276960
-4.422996
5.632872
7.438307
6.907006
11.688189
13.254821
2.627457
-9.221825
-2.891117
9.655090
4.598216
3.221801
18.282949
27.137297
16.347031
7.159391
11.728771
21.175329
23.441572
13.871425
11.651097
28.017265
36.682311
20.706462
7.666160
7.532065
11.002527
-0.263247
-16.714003
-16.147287
-15.012662
-15.764768
-11.123686
-2.702845
3.826766
0.853125
-3.663140
-3.292327
-5.497656
-5.981257
-5.560643
-10.096709
-16.926012
-18.535531
-16.053284
-16.396183
-16.816483
-8.517743
-6.229600
-3.716753
0.108315
-9.549133
-13.130583
-4.249834
-6.412562
-11.146031
1.451777
15.132303
7.031280
4.236742
17.426160
22.952555
4.941174
-8.251831
4.262276
4.709890
-19.393988
-33.313904
-23.663943
-13.782078
-16.504315
-18.276437
-0.016038
16.607535
12.567077
-5.594907
-9.418761
-10.057165
-26.543922
-48.783871
-44.476095
-34.001721
-25.785482
-18.309956
-6.374858
5.913345
11.641944
26.493988
26.698598
13.398792
-2.836861
-12.605610
-16.784671
-31.668202
-33.350022
-14.767718
4.200992
6.908542
5.379425
21.600391
30.525841
10.870433
1.010182
13.547089
37.767984
32.376004
16.238153
16.842369
27.290343
20.677644
1.263740
4.460598
8.312066
19.823557
31.685454
33.434189
34.640515
34.495619
31.004770
19.008485
2.933635
-2.313743
-11.668185
-25.715603
-28.868647
-24.532071
-39.298300
-39.210692
-19.097764
2.420387
0.050956
-7.476457
-29.083996
-32.531345
-24.623211
-28.044459
-31.246704
-27.372735
-14.132017
9.948176
28.447678
22.559791
25.173439
47.866409
55.349436
24.520949
12.819869
30.349456
35.088339
13.518000
-7.094423
0.298902
18.066994
26.968143
25.479826
25.605234
26.701459
20.905673
12.045038
-2.450887
-10.394408
-6.908345
-17.281004
-23.164992
-4.800191
17.039265
23.175270
26.601032
22.183468
-0.703892
-12.720877
-4.259235
-5.968356
-13.868075
-10.625617
0.071661
6.098165
-6.253026
-8.423854
6.066384
17.990682
3.606659
-13.344506
-7.736809
8.084251
8.980672
-18.379459
-33.055087
-18.334445
-12.362243
-19.025343
-13.675950
9.486527
20.735814
-0.299316
-27.227440
-31.373799
-27.296127
-33.249416
-47.343635
-40.454318
-10.732235
1.507367
-0.311855
7.291173
25.180166
27.924017
18.125267
14.293613
10.517159
0.219801
-9.001140
-0.301594
2.326455
-6.217075
-14.386199
-7.951989
-1.602981
-7.089762
-19.764958
-28.402089
-28.049577
-41.499985
-60.837388
-58.933551
-32.310518
-25.315299
-46.182426
-42.452760
-17.881460
-4.284936
-7.195576
-17.112827
-2.214882
28.617518
26.267887
-10.113388
-24.267308
10.643057
26.457217
2.944948
-3.488348
22.349872
47.939988
37.713731
27.400773
30.307226
37.616250
25.625665
11.661348
1.428191
2.270911
13.910804
24.754185
24.668390
14.795239
17.026381
30.199899
35.275387
23.238601
3.637194
-4.979237
7.491370
3.841218
-13.943660
-9.846488
2.150411
-9.535669
-25.130512
-21.423646
-8.757736
-15.490737
-25.199486
-24.458767
-20.094891
-17.674745
-11.958747
-11.210528
-18.665041
-33.883977
-39.707664
-45.922856
-49.786011
-52.417647
-42.784186
-33.622933
-45.054909
-56.632387
-53.941037
-18.965571
3.881901
-4.272222
2.387591
25.109061
20.292491
1.339995
-2.430759
5.701478
13.472509
34.692755
49.553500
49.420605
37.720424
19.080533
28.064483
34.813098
20.819381
32.350072
42.816346
6.066965
-61.057602
-59.702474
-39.361241
-33.124135
-39.886836
-36.687578
-26.789813
-18.263970
-36.896061
-60.081026
-36.279238
4.777026
25.222060
3.845224
8.703509
39.432407
40.144926
23.934473
27.008629
16.964475
9.233358
3.961380
8.093053
15.125773
11.413220
-22.672719
-59.213596
-67.606224
-57.542556
-36.490013
-35.683293
-40.669966
-23.013777
-8.243334
-20.054516
-35.747160
-17.259057
17.628808
46.094470
27.671182
5.019626
16.095210
34.877617
37.808671
9.609127
-5.857014
30.419873
47.621855
4.157767
-39.096319
-2.516127
46.238860
25.978343
-43.443961
-52.931306
1.956379
27.874700
-26.536864
-52.120966
-10.746097
14.247309
12.729592
1.052212
15.630652
19.841226
11.511899
-7.239894
-29.932550
-24.482656
-11.978449
-6.693858
-23.123014
-35.967413
-2.170365
13.102586
-23.329990
-28.445065
10.062357
27.927050
14.431341
-4.660658
-9.962036
2.067263
-10.200226
-22.925223
-34.282498
-17.757027
-8.561573
-3.137179
15.872932
3.655543
-26.264229
-53.037851
-20.635525
-1.705216
-18.143972
-22.576536
-15.224312
-20.762093
-41.027711
-47.158602
-44.157647
-40.455881
-8.482263
6.243179
-24.266402
-33.497543
5.240584
34.405257
-25.474494
-49.333869
-6.434976
47.163888
18.192131
-3.252505
35.239018
45.040481
55.108649
51.740202
37.777985
14.905326
22.504455
43.887904
53.724768
48.412289
75.236025
62.003420
25.059636
39.860980
50.723560
35.742527
5.769355
-7.837656
23.659554
22.286439
15.455337
-3.017452
8.901145
53.438665
28.948680
5.678814
6.586935
12.907143
28.791504
17.754034
-18.878045
-6.490840
-4.411500
-17.702906
-45.110738
-59.839766
-43.674601
-20.459623
-11.065266
-22.722545
-42.734359
-26.772597
-20.808195
-35.857629
-15.277892
4.477130
-1.784263
6.009268
33.809220
39.393516
-8.283840
-37.472500
9.933065
-14.729723
-94.213288
-80.685164
-10.442034
-44.024564
-61.565238
-20.903181
4.236928
-7.458452
-25.053727
-48.293292
-58.549249
-17.342983
-14.768935
-32.864018
-4.589759
76.287642
47.209083
-0.412472
54.135908
98.385723
38.413570
-21.681285
25.652279
56.326577
37.210578
1.952820
1.036912
13.742123
46.435452
70.842050
33.848165
2.544170
68.914539
104.193010
8.851192
-27.690286
46.820113
46.592716
-30.107705
-44.140122
-8.253841
-14.957442
-27.590637
-45.470317
-79.203449
-51.333297
-4.297937
-28.685921
-96.170494
-102.112982
-54.450913
-77.223670
-108.408263
-93.747921
-46.663661
-29.414878
-26.211120
25.307511
-2.289624
-2.575522
15.815079
53.490589
37.459539
-23.809234
-44.907965
-3.688199
36.055544
-10.310491
-48.336393
-0.626623
36.591379
9.185948
-46.637739
-40.337031
9.692376
24.523420
-31.518970
-51.651385
-10.371618
30.896449
-1.520863
-57.762756
-34.441276
-13.702537
-5.653702
-55.655495
-52.560039
-23.380365
5.197799
-13.699197
-29.947150
-13.103973
20.563472
26.603175
10.473124
14.128689
44.181377
40.043418
19.073389
28.144641
61.974089
78.695463
96.615957
78.689477
74.843722
72.243587
64.868576
4.399315
-14.650683
23.842940
15.406511
-21.634774
-28.563079
30.788978
21.319333
-19.940620
-32.616116
0.903127
9.240567
-59.952233
-83.082897
-53.591218
-24.869052
-43.656846
-60.940415
-25.072435
15.703625
41.272740
4.747463
16.238853
18.001388
39.827644
-2.984534
-70.047300
-46.742020
-30.335951
-51.767987
-58.698691
-41.919716
-15.042879
-20.196955
-12.084218
2.604023
-16.781080
-30.926600
-23.594475
1.896939
2.402754
-21.945929
-2.956518
20.071857
-0.563666
-14.559484
11.762944
47.738027
54.598843
42.318454
1.218703
25.749202
62.870303
50.311509
-13.860411
-19.294992
79.734200
92.330808
15.184280
0.612454
59.144597
72.310915
33.304297
32.755595
55.012358
58.308518
58.799332
54.169065
47.181060
50.462219
91.125777
92.388804
62.339730
51.343661
61.470929
75.213856
46.122097
64.618300
79.776649
42.245456
15.687838
40.459841
79.987580
63.404821
16.933485
2.985668
48.640705
67.255110
36.824730
-3.571210
3.701214
50.623771
44.097173
-1.268946
-2.187254
-0.899026
-4.203572
-4.161865
-14.873529
-21.108222
-23.126048
-9.657926
4.143502
-12.603959
-20.777583
-13.362358
-22.497797
-15.956486
-3.335277
17.802768
33.349923
35.414263
31.180002
8.373644
-1.555608
-16.673743
-53.398524
-93.345956
-115.328501
-124.072434
-157.745866
-166.994408
-210.799602
-241.499986
-196.828365
-177.625951
-157.196817
-184.270143
-170.539517
-149.436872
-173.733954
-164.648902
-113.441676
-89.011079
-118.876250
-84.357691
-17.133208
-15.090169
-12.953228
21.072723
37.847799
31.469703
7.371225
1.397836
8.735660
-34.230721
-47.280323
-48.104729
-51.902483
-27.585887
-51.995771
-21.556077
4.064339
3.197332
-36.030089
-42.126179
-23.675577
-8.728431
-5.695676
14.560955
30.606718
-7.283581
-46.346599
-34.916110
-38.457960
-43.201629
-63.371545
-99.131810
-108.112147
-81.094008
-84.316353
-100.562206
-97.041643
-55.394970
-54.651851
-108.581307
-108.637101
-122.238712
-120.702081
-125.531551
-165.196679
-189.028454
-119.784339
-58.726155
-27.755153
-69.925321
-48.080465
-2.115222
15.083160
-12.536776
-20.960904
-14.003186
-19.092460
-1.213367
16.996331
-9.276283
-12.390626
4.817956
18.458281
-4.319576
-34.086646
-19.841511
-13.712106
-16.955751
-10.471441
1.004049
2.831685
34.631901
25.865168
33.638599
30.810460
-0.513034
16.912151
52.613329
64.302723
61.584686
57.714031
81.743223
120.341847
135.100890
119.400145
121.837991
135.935524
143.058844
136.062139
115.734421
119.335385
149.917881
140.941444
99.879194
73.449078
49.505402
55.892811
63.044632
51.964561
40.882691
48.784824
64.972790
56.862467
20.428091
25.315476
66.478241
62.808889
28.927554
27.648940
106.411307
168.389305
179.901996
166.566190
178.669890
174.048923
137.575846
59.868610
-16.840211
-41.431898
-63.143838
-117.951108
-145.072136
-142.728491
-111.007177
-75.185997
-62.203283
-45.360106
-17.859559
19.683348
21.315381
26.507871
45.959889
56.997672
35.603137
15.651024
28.722240
4.410158
-15.505654
-7.700422
-3.529449
-62.543686
-97.287235
-29.916651
-21.493709
-29.243426
-38.809373
-20.722677
26.082579
67.955156
35.582545
38.836103
81.528293
129.904674
101.205922
28.578066
41.305777
99.247811
104.989909
59.573689
35.775215
68.761350
99.206744
111.820453
54.998350
53.816638
132.488404
152.602532
146.504341
85.142866
88.625929
96.239757
76.403447
11.687918
-87.597464
-95.476783
-86.710036
-110.012002
-110.644705
-115.527277
-49.001805
15.907840
31.968904
0.829012
5.689997
-3.691447
-26.300402
-76.757902
-101.555092
-67.881347
-31.875064
-58.028875
-65.825093
-31.278034
-35.906801
-42.126494
-41.453276
-91.180865
-93.392794
-61.382275
-71.917837
-64.665514
-21.280013
-2.227301
-38.482575
-38.940375
-39.448876
-36.328220
-22.662994
-3.777685
7.351899
18.339582
31.109293
49.061587
35.529577
70.832049
117.714706
124.839827
90.606286
91.027499
64.509482
-0.646454
-45.747669
-71.732278
-67.521404
-49.251705
-53.132560
-52.721247
-44.407807
-42.542670
-35.746055
-38.626694
-52.246605
-67.158937
-66.688823
-65.003989
-52.583783
-22.221491
-12.024621
-13.135832
-12.888621
9.833149
42.395977
2.244241
-34.999248
-30.607171
-11.145553
-7.698191
-44.137067
-113.919077
-78.922610
-34.895999
-81.974245
-117.141701
-129.909599
-59.990773
2.767238
-42.350477
-94.987213
-63.391901
-18.608677
-22.090826
-33.893608
-77.015391
-50.126554
-12.532946
-6.771347
-23.861714
-25.957541
1.866711
55.534277
58.991839
47.442261
79.129075
100.989831
111.606108
77.795874
62.736239
43.433337
20.774282
12.417955
46.128001
66.795638
55.128158
54.271651
29.752866
51.029513
105.545192
101.857540
96.576562
111.943415
153.977394
203.604495
177.873990
119.470562
147.311915
136.830654
75.715483
23.606156
17.399363
30.207475
17.740782
5.571394
7.211527
46.334560
73.696505
76.278653
82.193254
89.348675
112.175447
106.996771
79.629740
84.729828
80.016760
60.676357
62.569994
70.776332
73.249279
49.677908
11.815509
35.305592
52.092667
35.756813
38.054256
53.593312
66.960032
71.055705
55.096056
33.106611
20.627018
-25.039706
-42.063171
18.649407
49.655510
57.864548
32.650951
66.458799
108.019670
115.124391
93.610753
38.679281
46.815418
84.344826
77.870729
16.020246
14.094222
62.099497
115.044351
121.819666
80.244707
97.153585
119.361447
101.279864
66.869020
15.080399
8.664503
-12.663432
-59.151269
-87.577017
-104.015173
-119.432713
-127.855041
-130.396375
-163.229793
-146.681822
-97.335526
-71.986013
-72.336412
-61.668835
-38.210852
-23.073503
-17.025400
-7.811646
25.962001
37.693696
7.801524
10.278371
2.730257
34.031864
70.709258
2.542474
19.734556
39.572980
24.712549
54.955440
55.672458
47.643736
88.659499
125.213291
91.955366
64.805538
44.776024
27.554256
31.765430
29.918607
-6.789374
-6.618964
22.003001
25.422762
49.353852
40.097211
32.132990
47.651945
64.261717
39.418327
19.696618
44.059115
60.637987
58.424858
20.840263
0.035237
11.366425
2.534291
-2.536384
-51.179155
-31.594235
38.852899
64.038309
18.829392
31.251998
86.991396
99.096897
63.240330
25.211728
55.008212
82.315255
103.906908
53.066601
65.651209
112.537166
149.623166
148.239551
120.551815
89.011117
98.172670
129.245674
73.673392
31.907330
67.039399
61.325814
5.880734
-57.858579
-4.243814
-10.948015
-48.633411
-68.356620
-26.588445
-15.185556
-34.263454
-42.422078
-19.603106
-22.327443
-60.395345
-83.106902
-66.448228
-67.336836
-88.982475
-122.444104
-144.027943
-126.098449
-92.953312
-82.766342
-94.834928
-38.561521
19.436314
15.886964
-28.208635
-18.813678
-28.156421
-47.768928
-67.125831
-76.022166
-62.437342
-88.935559
-73.825811
-51.697750
-55.995312
-54.133176
-85.067264
-68.502492
-62.620591
-101.735510
-142.535256
-108.170599
-80.614252
-87.041848
-94.902267
-105.214025
-73.075704
-39.748164
-81.873631
-80.512503
-90.337053
-65.370347
-55.989190
-65.461235
-116.736848
-50.983290
-21.430110
-49.308949
-95.929688
-58.460582
13.315273
-28.983297
-118.113216
