EVENT_NAME: 202302060117
EVENT_ID: 13194
EVENT_DATE_YYYYMMDD: 2023/02/06
EVENT_TIME_HHMMSS: 01:17:32.00000
EVENT_LATITUDE_DEGREE: 37.288
EVENT_LONGITUDE_DEGREE: 37.043
EVENT_DEPTH_KM: 8.6
HYPOCENTER_REFERENCE: AFAD
MAGNITUDE_W: 7.7
MAGNITUDE_W_REFERENCE: AFAD
MAGNITUDE_L: 
MAGNITUDE_L_REFERENCE: 
FOCAL_MECHANISM: 
NETWORK: TK
STATION_CODE: 5810
STATION_NAME: 
STATION_LATITUDE_DEGREE: 39.3704
STATION_LONGITUDE_DEGREE: 38.1179
STATION_ELEVATION_M: 1037.0
LOCATION: Kahramanmaras_Pazarck_Turkiye
SENSOR_DEPTH_M: 
VS30_M/S: 528
SITE_CLASSIFICATION_EC8: B
MORPHOLOGIC_CLASSIFICATION: 
EPICENTRAL_DISTANCE_KM: 249.81
EARTHQUAKE_BACKAZIMUTH_DEGREE: 
DATE_TIME_FIRST_SAMPLE_YYYYMMDD_HHMMSS: 2023/02/06 01:17:55.0643590
DATE_TIME_FIRST_SAMPLE_PRECISION: millisecond
SAMPLING_INTERVAL_S: 0.01
NDATA: 14501
DURATION_S: 
STREAM: HNN
UNITS: cm/s^2
INSTRUMENT: sensor = GMS+/GEOSIG | digitizer = 
INSTRUMENT_ANALOG/DIGITAL: 
INSTRUMENTAL_FREQUENCY_HZ: 
INSTRUMENTAL_DAMPING: 
FULL_SCALE_G: 
N_BIT_DIGITAL_CONVERTER: 
PGA_CM/S^2: 17.854
TIME_PGA_S: 
BASELINE_CORRECTION: BASELINE REMOVED
FILTER_TYPE: BUTTERWORTH
FILTER_ORDER: 
LOW_CUT_FREQUENCY_HZ: 
HIGH_CUT_FREQUENCY_HZ: 
LATE/NORMAL_TRIGGERED: 
DATABASE_VERSION: 
HEADER_FORMAT: DYNA 1.2
DATA_TYPE: Acceleration
PROCESSING: Automatic Paolucci et al., 2011
DATA_TIMESTAMP_YYYYMMDD_HHMMSS: 
DATA_LICENSE: U (unknown license)
DATA_CITATION: Turkish Accelerometric Archive v 1.0 - Disaster And Emergency Management Presidency, Earthquake Department
DATA_CREATOR: AFAD
ORIGINAL_DATA_MEDIATOR_CITATION: : AFAD - Disaster And Emergency Management Presidency
ORIGINAL_DATA_MEDIATOR: AFAD PROCESS SERVICE
ORIGINAL_DATA_CREATOR_CITATION: AFAD PROCESS SERVICE
ORIGINAL_DATA_CREATOR: network: TK
USER1: GuestUser
USER2: 
USER3: 
USER4: 
USER5: 
[...]
-0.453334
0.368572
1.104235
1.426087
1.406345
1.302439
1.340884
1.604809
2.060182
2.608033
3.008596
2.922613
2.290858
1.473888
0.638994
-0.389427
-1.482270
-2.105193
-1.736063
-0.154336
2.276053
4.609809
5.778245
5.321573
3.770240
2.003558
0.634322
-0.115628
-0.347081
-0.301621
-0.235899
-0.310972
-0.660619
-1.221978
-1.685403
-1.864643
-1.778659
-1.579417
-1.449533
-1.370823
-1.045333
-0.268887
0.882665
2.118901
2.922103
3.028868
2.627787
2.017592
1.472859
1.192570
1.262968
1.680155
2.327757
2.813263
2.770142
2.142024
1.055415
-0.014309
-0.438250
-0.016127
0.907089
1.779130
2.130077
1.788482
0.884230
-0.301091
-1.206381
-1.341201
-0.658011
0.604202
1.899405
2.548046
2.203594
1.071526
-0.280566
-1.223264
-1.407179
-0.971548
-0.287579
0.253258
0.296640
-0.354858
-1.541217
-2.735890
-3.425054
-3.325043
-2.513787
-1.451336
-0.632028
-0.324203
-0.495649
-0.826074
-0.896730
-0.568383
-0.123920
0.044150
-0.261596
-0.975438
-1.922292
-2.912267
-3.718067
-4.063558
-3.723522
-2.836674
-1.701747
-0.437716
0.780596
1.769273
2.504156
2.972778
3.025251
2.464673
1.253375
-0.535127
-2.637948
-4.625432
-6.046102
-6.434195
-5.747369
-4.526199
-3.363218
-2.395063
-1.425608
-0.478754
0.374324
1.185060
1.835519
2.141007
1.912151
1.176229
0.306526
-0.374585
-0.827620
-1.218830
-1.780188
-2.674309
-3.687663
-4.371112
-4.414234
-3.762476
-2.694569
-1.555227
-0.517973
0.370174
1.012320
1.341966
1.302482
0.873865
0.379527
0.300298
0.891790
1.878129
2.602622
2.522094
1.687200
0.799314
0.541105
1.139091
2.320776
3.475964
4.004072
3.575456
2.296618
0.718788
-0.501341
-1.018799
-0.883719
-0.460037
-0.225986
-0.641355
-1.986433
-4.005609
-5.802163
-6.412877
-5.677734
-4.116788
-2.569350
-1.859664
-1.974481
-2.223858
-1.989807
-1.248169
-0.552510
-0.460032
-1.133351
-2.049812
-2.441281
-2.283342
-2.083321
-2.049551
-2.354258
-2.962374
-3.263445
-3.010431
-2.522327
-1.986165
-1.487930
-1.262192
-1.128411
-0.646021
0.129646
1.110010
2.314814
3.190752
3.151008
2.642123
2.098689
1.368741
0.821410
0.927916
1.232364
1.203530
1.187944
1.014679
-0.030627
-1.622484
-2.891190
-3.575159
-3.600096
-2.740264
-1.804840
-1.620924
-1.961479
-2.610379
-2.978730
-2.199166
-0.407286
1.261463
2.017128
1.759699
0.528139
-0.879023
-1.313095
-0.895648
-0.487293
-0.362863
-0.434299
-0.404426
0.203951
1.331604
2.483935
3.264278
3.130758
1.961542
0.538015
-0.356886
-0.362340
0.580358
2.375354
4.525194
6.308241
7.218988
6.682308
5.015117
3.659129
3.089978
2.555116
1.780488
1.110028
0.703751
0.411512
0.013029
-0.462606
-0.669381
-0.576903
-0.547289
-0.325967
0.328908
1.098861
1.825952
2.360554
2.609412
2.692019
2.935422
3.141937
2.444461
1.411364
1.574499
2.716958
3.504315
3.238833
1.811668
-0.219457
-1.571289
-1.726630
-1.473356
-0.912776
0.352034
1.877391
3.306115
4.105162
3.484317
1.762835
0.055900
-0.810685
-0.828089
-0.466232
-0.066709
0.153834
0.183708
0.101102
-0.019430
-0.221269
-0.767821
-1.619600
-2.527228
-3.342899
-3.951795
-3.886853
-2.768292
-1.575957
-1.531017
-2.401758
-3.226781
-3.443427
-2.887264
-1.668172
-0.484150
-0.100992
-0.535583
-1.421132
-2.325124
-2.746987
-2.259662
-0.880034
0.952889
2.869457
4.026463
3.803843
2.691257
1.330333
0.414132
0.285547
0.387896
0.486088
1.023808
1.711414
1.827791
1.297605
0.294641
-0.829115
-1.541918
-1.755187
-2.084053
-3.002851
-3.848396
-3.157932
-0.539471
2.583459
4.907863
6.027463
5.770553
4.258444
2.076393
0.362705
0.302179
1.701290
2.911808
2.966879
1.791949
-0.861320
-4.717834
-8.672541
-11.277753
-12.028482
-11.832876
-11.439068
-10.827574
-9.654462
-7.694512
-4.846936
-1.315131
2.158226
5.306094
8.110289
10.042703
10.548472
9.768129
9.076367
9.426795
10.325592
11.066450
10.925137
9.466281
6.874576
3.633972
0.180877
-2.803077
-4.348955
-4.571316
-4.418573
-4.684315
-5.422575
-5.816902
-5.502323
-4.991359
-4.953952
-5.494529
-5.880284
-5.522324
-4.881736
-4.181921
-2.794240
-0.680248
1.383088
2.659848
3.031317
2.597764
1.556874
0.473383
-0.456067
-1.100291
-1.418766
-1.751788
-1.681131
-0.827273
-0.210065
-0.840781
-1.966355
-2.339901
-1.998306
-1.307582
-0.470870
0.012559
-0.017574
0.151795
1.571687
4.124686
6.462598
7.375163
6.662879
5.570296
4.912044
4.265222
3.458643
2.558288
2.085770
2.232540
2.481657
2.767662
2.865335
2.330214
1.078652
-0.184339
-0.661533
-0.591655
-0.041466
1.304911
3.036005
4.693585
6.310121
7.512587
7.787422
7.281654
6.549108
5.824096
5.020115
4.419792
4.185481
4.079756
3.709327
2.733639
1.284135
-0.393966
-1.649164
-1.704754
-1.038449
-0.837129
-1.238730
-1.363678
-1.253016
-1.430178
-1.546034
-1.332504
-1.139237
-1.032212
-0.690617
-0.743869
-1.852558
-3.368823
-4.388152
-4.903272
-5.281494
-4.989774
-4.326586
-4.075390
-3.608587
-2.544577
-0.795819
1.388570
2.948476
3.035239
1.490659
-1.204433
-3.800553
-4.703506
-3.840816
-1.987891
-0.069245
0.817343
0.856049
0.397818
-0.693207
-2.180637
-3.279196
-3.277637
-2.070235
-0.335764
0.431850
-0.423565
-2.724070
-5.772186
-8.278427
-9.754168
-10.283835
-9.703253
-7.778113
-5.273170
-3.342575
-2.136732
-1.535369
-1.389119
-1.121298
-0.236009
1.123877
2.619621
4.060294
5.080663
5.020397
3.754808
2.165808
0.698119
-0.786194
-1.765000
-2.000089
-2.460917
-3.565970
-4.296177
-3.806514
-2.302977
-0.291074
1.761093
3.237614
3.993799
4.178234
3.628306
2.647942
2.083726
2.282969
2.890566
3.410362
3.414519
3.052143
2.918622
3.125398
3.180209
2.239590
0.702543
-0.119102
-0.024287
0.653708
1.313519
1.628617
1.585496
0.633707
-0.606425
-0.585643
0.611368
1.851760
2.759649
3.236583
3.240480
3.409330
3.554280
2.809266
1.320017
0.044557
0.018061
1.056354
2.708997
4.434116
5.122762
4.752073
3.418165
1.334567
-0.412112
-1.012436
0.058068
2.972924
6.149886
7.334169
6.464206
4.582707
2.178296
-0.348466
-2.270229
-2.985110
-2.690014
-1.288565
1.308075
3.631699
4.181369
3.198667
1.886579
1.006226
0.587481
0.632940
1.071689
1.400815
1.285478
0.894268
0.787504
1.492514
2.633675
3.219712
2.975011
2.259350
1.212226
0.209003
-0.550039
-1.565731
-2.551550
-2.700656
-1.814328
-0.371317
0.767766
1.390170
1.750988
1.652536
0.730360
-0.418073
-0.865393
-0.262731
1.781123
4.817810
7.607718
9.576759
10.231115
9.270234
7.509007
5.609065
3.391946
0.915839
-1.191658
-2.404774
-2.877551
-3.189532
-3.162256
-2.193841
-0.511844
1.367578
2.401194
1.775414
0.401761
-0.518856
-1.350113
-2.717531
-3.653734
-3.943635
-4.287308
-4.706833
-4.670724
-3.412668
-1.545456
0.297078
2.128702
3.535606
4.282439
4.461159
4.461939
4.246592
3.898503
3.784985
3.280516
1.895433
0.070304
-1.518176
-2.251761
-2.400607
-2.829484
-3.615801
-4.533561
-5.203242
-5.252338
-4.587072
-2.466327
0.810646
3.664197
5.417891
5.899241
5.071880
3.427290
1.279529
-0.799653
-1.595582
-0.825889
0.751422
2.109229
2.640975
2.249245
1.264465
0.511918
0.496592
0.682586
0.303325
-0.452080
-1.635063
-2.500090
-2.200577
-1.899246
-1.827030
-1.643634
-2.003152
-2.729982
-3.051835
-2.728163
-2.166805
-1.916908
-1.579209
-1.004862
-0.481949
0.524912
2.169243
3.629139
4.309732
4.689513
4.740687
4.051783
3.265726
2.623839
1.674907
0.516603
-0.196460
-0.421419
-0.293093
-0.002153
-0.435186
-1.356322
-1.974829
-2.174850
-1.892482
-1.504649
-1.036806
-0.204510
0.537908
0.633502
0.092666
-0.459860
-0.830549
-1.260205
-1.416585
-0.787946
0.523363
1.852336
2.803087
2.831921
1.769990
0.903405
1.523731
3.423934
5.436616
7.258109
8.827367
9.513155
9.308458
8.806327
8.404986
7.740500
6.316972
4.372090
2.765685
1.727653
0.449855
-0.970816
-1.834804
-1.514509
0.150603
1.438793
1.038231
-0.827422
-3.651359
-6.316318
-7.433060
-6.609595
-4.765502
-2.591504
-0.924313
-0.375683
-0.480889
-1.169014
-1.896104
-2.365504
-2.663198
-2.367322
-1.678937
-0.877033
-0.212027
0.511168
1.652328
3.068583
4.387425
5.018402
4.616022
2.820766
0.444409
-1.050295
-1.420724
-0.959376
-0.269951
0.522082
1.526864
2.772192
4.244557
4.798902
4.129480
3.233541
2.645686
2.561002
2.730112
2.444887
1.262423
0.027487
-0.240333
-0.017452
0.083338
0.007746
-0.351253
-1.154975
-2.773069
-4.937195
-6.364619
-6.437614
-5.939119
-5.745851
-5.612071
-5.156437
-4.499224
-3.673422
-3.109985
-3.010493
-2.805017
-2.198198
-1.245629
-0.443465
-0.604521
-1.429544
-2.038440
-2.219238
-1.698663
-0.523212
0.762379
1.834702
1.896007
0.285187
-2.108834
-3.676533
-3.625359
-2.220793
-0.721413
-0.134597
-0.091994
-0.223437
-0.628934
-1.252896
-1.646444
-1.503052
-1.403561
-1.821787
-2.285472
-2.448606
-2.237934
-1.070537
0.913571
3.095102
5.083107
6.279858
6.868752
6.855244
5.939822
4.482784
2.303072
-0.229665
-2.067523
-3.301680
-4.239442
-5.002899
-5.631537
-6.050023
-6.530853
-7.146503
-7.780856
-8.028934
-7.610188
-6.845950
-6.273421
-6.263030
-6.224065
-5.752846
-5.172004
-4.785209
-4.836124
-5.247855
-5.791290
-6.026899
-5.609192
-5.161611
-5.747647
-7.253522
-8.620161
-8.737316
-7.189098
-4.917168
-3.262186
-3.000340
-3.834194
-5.175116
-6.404338
-6.581239
-5.519048
-3.730286
-1.885673
-0.562156
-0.284723
-1.258073
-2.781612
-3.921473
-4.330607
-4.341777
-4.157082
-3.408950
-2.101018
-1.038307
-0.841143
-1.439128
-2.504177
-3.569744
-4.397105
-5.359545
-6.624874
-7.619005
-8.135164
-8.429481
-8.628463
-8.473900
-7.085960
-4.369307
-1.421980
0.777216
2.045403
2.820811
3.413082
3.471010
2.670146
1.583797
0.726823
0.351978
0.585510
0.663700
0.586809
1.307925
2.350374
2.599752
2.002546
1.374947
1.378584
1.841490
2.565464
3.501668
4.312144
4.741801
4.798690
4.856359
5.166002
4.897663
3.338796
1.182462
-0.402901
-0.500054
0.948412
2.999800
4.372933
4.420471
3.727671
2.893556
1.729017
0.563438
1.002706
3.308926
5.696973
6.935027
6.540960
4.445672
1.335731
-1.614973
-3.558297
-4.493720
-4.376825
-2.838219
-0.043635
3.697543
7.502104
9.461534
8.599364
5.294078
1.042716
-2.199967
-3.389184
-2.719502
-1.528206
-1.040102
-1.279348
-1.522230
-1.495214
-1.203235
-0.544723
0.144961
0.529418
0.613843
0.555655
0.632287
1.006873
1.525110
2.218951
3.212563
4.010571
4.068499
3.259842
2.126475
1.609277
1.598367
1.664089
1.932429
2.185184
2.487814
3.103204
3.723271
4.167994
4.231118
4.048761
4.144615
4.144876
3.284005
1.386660
-1.079316
-3.808957
-6.387413
-7.499739
-6.195964
-2.685460
1.961009
6.280950
8.606393
7.907877
4.776375
0.722957
-2.941069
-5.399513
-5.953338
-4.870365
-3.273051
-2.002007
-1.818091
-3.183690
-5.902681
-8.399570
-8.951836
-8.124995
-7.381279
-6.822258
-5.788381
-4.347188
-2.691168
-1.246078
-1.441943
-3.950781
-7.718195
-10.479788
-10.614607
-8.829482
-7.055526
-6.526898
-6.793160
-7.020976
-7.303603
-7.663901
-7.303862
-5.789935
-3.934932
-2.690123
-2.685187
-4.104559
-6.226343
-8.540356
-10.924505
-12.581305
-12.576629
-11.073611
-9.330308
-8.113815
-7.091108
-6.126590
-5.152979
-3.737763
-2.033685
-0.684191
-0.112181
-0.072437
-0.298694
-0.576126
-0.041523
1.257317
2.085977
1.106392
-1.620651
-4.158064
-5.308316
-5.222592
-4.715785
-4.114162
-2.588285
0.188115
3.215451
4.920048
4.850171
3.612377
2.313538
2.083384
3.002703
4.400514
5.131501
4.489615
2.622923
0.643232
0.153050
1.117829
2.233272
2.202880
0.868972
-0.204908
-0.335571
-0.201011
0.127076
0.872870
2.123133
3.935534
6.256301
7.933104
7.172503
4.550666
2.059232
0.665578
0.888199
3.193640
6.862862
10.077230
11.767281
11.711691
10.399344
8.528495
6.422297
4.265445
2.004165
0.221638
-0.635856
-0.666508
0.028891
1.034972
1.810380
2.001829
1.623348
0.991333
0.943276
1.328772
1.579448
1.935590
2.094828
1.966763
1.520482
0.552847
-0.631175
-1.931573
-2.775559
-2.000411
0.301133
2.390447
1.824673
-1.825586
-6.175659
-9.404834
-11.126056
-11.737549
-11.267109
-9.368465
-7.203299
-5.348296
-3.978540
-4.506388
-6.421916
-7.579961
-6.440099
-3.294829
-0.740531
-0.310874
-1.365791
-2.187437
-1.081864
1.983917
5.623266
8.211074
8.730351
6.903663
3.474207
-0.310352
-3.477442
-5.497657
-6.218512
-5.790934
-5.094236
-4.939154
-5.686506
-7.282780
-8.661628
-8.845543
-8.090398
-7.001450
-5.959521
-5.295034
-4.742507
-3.816175
-2.338874
-0.232156
1.774811
2.884021
3.037804
2.189402
0.735481
-0.787798
-2.037541
-2.821780
-2.841002
-1.444230
0.718598
2.386828
3.051315
2.644518
1.792220
1.263852
1.460237
2.250971
3.124831
3.396029
2.962996
2.669199
2.671797
3.162499
4.528618
5.993970
6.597411
6.468047
6.446486
6.857699
7.712596
8.534242
8.995330
8.896619
7.396719
4.228070
0.185043
-3.058679
-4.674955
-5.004600
-4.233608
-2.804105
-1.994149
-3.156870
-5.878198
-8.036869
-7.533179
-4.280365
-0.677383
1.272175
0.729261
-2.187933
-5.436850
-6.835180
-5.338137
-1.533576
3.101203
7.175404
8.540225
5.648229
0.075688
-4.713393
-6.693864
-5.431651
-1.860621
2.444253
5.954757
7.309707
6.690940
4.776711
2.249429
-0.092898
-1.441873
-1.110149
-0.254733
-0.220703
-0.150825
1.239713
3.930389
6.553007
7.258017
5.469775
1.855624
-2.018554
-4.215671
-4.256974
-2.725901
-0.576841
1.081518
2.088119
2.800662
2.823522
1.465975
-1.203919
-4.115398
-5.123816
-2.982289
0.893189
4.205230
5.472378
4.936737
4.253288
5.184037
8.623884
13.300486
16.856969
17.854218
16.386790
13.731442
11.236372
9.412282
7.757820
5.809821
3.266953
0.239358
-1.914118
-1.878789
0.131295
2.316204
3.061998
2.300359
0.561732
-1.359251
-2.136477
-1.138708
1.150108
4.344994
7.844587
10.741260
12.204533
10.942581
6.690959
3.457628
4.160301
3.394505
-1.787345
-6.453296
-9.291520
-10.100957
-6.252495
-2.305840
-3.176582
-6.184694
-8.116068
-6.808656
-3.256589
-0.776844
0.015968
0.237030
0.912168
2.070733
3.491144
4.433323
4.326039
3.639992
2.853415
3.102013
4.460860
5.409792
4.766088
2.254911
-0.416282
-0.856588
1.406770
4.827394
7.551581
8.417128
6.813841
3.648049
0.809565
-1.044918
-2.202443
-3.101759
-4.431251
-6.456921
-8.838213
-10.058083
-8.487786
-4.638545
-0.391339
2.060611
2.010736
1.011149
0.034682
-1.325463
-2.145809
-0.647468
2.448187
4.761421
4.769474
2.870051
0.305622
-1.927342
-2.886665
-3.202023
-3.476857
-2.681967
-0.524075
2.100101
3.852496
3.887045
2.713154
0.987516
-1.194794
-2.810809
-2.552340
-1.214015
-0.502771
-0.959442
-1.655360
-0.805919
1.491209
2.889021
2.021136
-0.095452
-1.624446
-2.040594
-1.211155
1.307555
5.199659
9.274119
11.633072
11.082883
7.515231
2.337537
-1.695619
-3.658425
-3.963912
-2.432320
0.570857
3.289329
3.956932
2.685109
1.023374
0.745423
2.183238
3.827570
4.899632
5.359941
4.948729
4.082663
3.398175
2.981507
2.688230
2.781487
2.963065
2.333128
1.548369
2.019329
3.699768
6.040277
8.667830
10.543614
11.421630
12.004030
12.620720
12.872435
11.993900
9.900171
7.005577
4.276196
2.140644
-0.202202
-2.806635
-4.238476
-3.157841
-0.378583
1.944002
2.796041
2.367684
1.095341
-0.363256
-0.974749
-0.287143
0.353705
-0.609774
-2.812606
-4.777750
-5.685898
-5.370280
-4.102612
-2.986909
-2.644015
-3.056786
-4.045722
-5.012837
-5.811623
-5.947482
-4.510445
-1.610396
0.865193
0.850126
-0.792126
-2.411259
-3.635805
-3.858945
-2.542441
-0.339869
1.686062
3.771219
6.140043
8.232994
9.365842
7.830874
3.563147
-0.572618
-2.664529
-2.941182
-2.578026
-2.546334
-2.925335
-3.310570
-3.198090
-2.567633
-1.831711
-0.773676
0.902347
2.681238
3.960076
4.001639
2.720724
1.550210
1.410975
1.927913
2.633184
3.196620
3.564452
4.047881
4.906933
6.332021
7.732170
8.569402
9.521192
10.182562
9.567172
8.128058
7.097819
7.296022
7.976354
8.220017
7.720483
6.160577
3.727851
1.340844
0.116038
-0.027093
0.471661
1.196414
1.240056
0.544397
-0.317253
-0.674433
-0.492855
-0.464800
-0.772365
-0.997323
-0.954461
-0.946928
-1.256571
-2.209140
-3.084557
-2.793097
-1.396065
0.748319
3.194294
5.518698
6.839359
6.548679
4.844601
2.424084
0.778714
0.119683
-0.297504
-0.439856
0.073446
0.785989
0.463878
-0.897566
-2.885829
-5.079050
-7.061078
-8.769312
-9.377428
-8.510323
-5.990574
-2.102627
1.044981
1.317738
-1.331115
-4.602372
-6.762342
-7.918569
-8.364071
-8.259124
-7.535670
-5.735998
-3.290282
-1.428006
-0.133062
1.067845
1.759867
1.373592
-0.608956
-3.901254
-6.346709
-5.976020
-3.279629
-0.004475
1.960930
1.570759
-0.248656
-1.972475
-2.836983
-2.791003
-1.909610
-0.137473
2.185372
4.516270
6.877820
9.217031
10.610686
10.995922
10.456124
7.639201
2.769073
-1.859991
-4.432213
-4.766794
-3.255983
0.003065
3.442133
5.023341
4.258325
1.536217
-2.093000
-4.930445
-6.265132
-7.220559
-7.901930
-6.872209
-4.218680
-1.530861
-0.560627
-1.339151
-2.109103
-2.703192
-4.087235
-6.306692
-8.262225
-8.757082
-7.846855
-5.941977
-3.449503
-0.838575
1.483490
2.505678
0.535078
-4.298683
-8.681747
-10.322441
-9.917462
-9.215569
-8.923849
-7.717746
-5.287877
-2.980098
-1.611381
-1.038073
-0.351766
1.041110
2.643099
2.984435
1.829247
0.064904
-2.013759
-3.843044
-4.856918
-4.335044
-2.422113
-1.073917
-2.032201
-5.095124
-8.609004
-11.202527
-12.017159
-11.106672
-9.041257
-6.302523
-3.734977
-1.542016
0.500020
2.026417
2.537381
1.743530
0.294545
-0.872592
-1.880491
-2.415353
-1.665663
0.485995
3.290190
5.339760
6.069968
5.820331
4.800223
2.900540
0.510416
-1.393683
-2.408336
-2.820587
-2.940080
-2.805520
-2.859292
-3.366878
-3.860437
-3.887193
-3.216212
-1.983613
-0.786342
-0.548135
-1.393679
-2.467819
-2.918776
-2.086219
-0.052496
1.912389
2.527779
1.806144
0.556142
-0.443965
-0.764778
-0.431755
0.586276
2.688058
5.227290
6.385336
5.356136
2.756638
0.147789
-0.948171
-0.304466
0.955409
1.195435
0.030636
-1.682793
-3.047354
-3.514416
-3.090475
-1.863071
-0.169124
1.375716
2.012148
0.706814
-2.348836
-5.369936
-6.464338
-5.304214
-3.070210
-0.973623
0.166239
0.209881
-0.194058
0.104675
1.268176
2.062027
1.837068
1.176219
1.105303
2.110085
3.537251
4.113157
3.425032
1.782260
-0.467850
-2.515860
-3.928218
-5.086782
-6.336785
-7.359751
-7.553538
-6.779429
-5.531504
-4.621017
-4.134211
-3.947698
-4.203049
-4.496587
-4.762848
-5.380836
-6.100133
-6.203520
-5.455129
-4.410342
-3.681433
-3.328668
-3.048118
-2.823678
-2.684442
-2.939534
-3.441146
-3.002917
-1.740964
-0.673317
-0.531744
-1.094141
-1.051798
0.116119
1.842277
3.107607
3.559343
3.229438
2.133738
0.508889
-1.394949
-3.158513
-4.428778
-4.708288
-4.341236
-4.092118
-3.856249
-3.545306
-3.197996
-2.630922
-1.771870
-0.656166
0.898805
2.438450
3.007602
2.593272
1.770847
0.907379
-0.036617
-1.122707
-1.603277
-0.827610
0.653847
1.840467
2.148812
2.148553
2.920843
4.425159
5.627365
5.816217
5.755172
6.301204
6.528502
5.501899
4.031613
3.038520
2.323120
1.414452
-0.367036
-2.951986
-4.925443
-5.363411
-4.942847
-4.978175
-5.700849
-6.586657
-6.787717
-6.329746
-6.462747
-7.242051
-7.815878
-7.287250
-5.333015
-2.769105
-0.396905
1.314447
1.846971
1.087930
-0.475093
-2.328277
-3.834152
-4.931411
-5.914373
-5.846833
