EVENT_NAME: 202302060117
EVENT_ID: 13194
EVENT_DATE_YYYYMMDD: 2023/02/06
EVENT_TIME_HHMMSS: 01:17:32.00000
EVENT_LATITUDE_DEGREE: 37.288
EVENT_LONGITUDE_DEGREE: 37.043
EVENT_DEPTH_KM: 8.6
HYPOCENTER_REFERENCE: AFAD
MAGNITUDE_W: 7.7
MAGNITUDE_W_REFERENCE: AFAD
MAGNITUDE_L: 
MAGNITUDE_L_REFERENCE: 
FOCAL_MECHANISM: 
NETWORK: TK
STATION_CODE: 0142
STATION_NAME: 
STATION_LATITUDE_DEGREE: 37.62072
STATION_LONGITUDE_DEGREE: 35.611148
STATION_ELEVATION_M: 370.0
LOCATION: Kahramanmaras_Pazarck_Turkiye
SENSOR_DEPTH_M: 
VS30_M/S: None
SITE_CLASSIFICATION_EC8: unknown
MORPHOLOGIC_CLASSIFICATION: 
EPICENTRAL_DISTANCE_KM: 131.69
EARTHQUAKE_BACKAZIMUTH_DEGREE: 
DATE_TIME_FIRST_SAMPLE_YYYYMMDD_HHMMSS: 2023/02/06 01:17:34.7382980
DATE_TIME_FIRST_SAMPLE_PRECISION: millisecond
SAMPLING_INTERVAL_S: 0.01
NDATA: 12501
DURATION_S: 
STREAM: HNE
UNITS: cm/s^2
INSTRUMENT: sensor = ACEBOX/SARA | digitizer = 
INSTRUMENT_ANALOG/DIGITAL: 
INSTRUMENTAL_FREQUENCY_HZ: 
INSTRUMENTAL_DAMPING: 
FULL_SCALE_G: 
N_BIT_DIGITAL_CONVERTER: 
PGA_CM/S^2: 11.959
TIME_PGA_S: 
BASELINE_CORRECTION: BASELINE REMOVED
FILTER_TYPE: BUTTERWORTH
FILTER_ORDER: 
LOW_CUT_FREQUENCY_HZ: 
HIGH_CUT_FREQUENCY_HZ: 
LATE/NORMAL_TRIGGERED: 
DATABASE_VERSION: 
HEADER_FORMAT: DYNA 1.2
DATA_TYPE: Acceleration
PROCESSING: Automatic Paolucci et al., 2011
DATA_TIMESTAMP_YYYYMMDD_HHMMSS: 
DATA_LICENSE: U (unknown license)
DATA_CITATION: Turkish Accelerometric Archive v 1.0 - Disaster And Emergency Management Presidency, Earthquake Department
DATA_CREATOR: AFAD
ORIGINAL_DATA_MEDIATOR_CITATION: : AFAD - Disaster And Emergency Management Presidency
ORIGINAL_DATA_MEDIATOR: AFAD PROCESS SERVICE
ORIGINAL_DATA_CREATOR_CITATION: AFAD PROCESS SERVICE
ORIGINAL_DATA_CREATOR: network: TK
USER1: GuestUser
USER2: 
USER3: 
USER4: 
USER5: 
[...]
-1.254018
-1.048976
-0.991460
-1.042660
-1.045464
-1.163063
-1.494820
-1.698455
-1.528717
-1.118167
-0.594226
-0.057426
0.042173
-0.344292
-0.321145
0.445946
1.288786
1.622650
1.394933
1.187323
1.395872
1.785847
2.031336
1.721556
0.935765
0.311995
0.082408
0.043599
-0.186690
-0.793626
-1.617058
-2.456389
-2.917436
-2.876987
-2.859918
-3.276543
-4.026797
-4.709951
-4.932525
-4.358551
-3.134855
-2.158282
-1.657954
-1.111101
-0.488029
0.074722
0.301039
0.133642
0.222720
0.728893
1.286267
1.662916
1.777712
1.714589
1.289780
0.416315
-0.454344
-0.676216
0.129918
1.496699
2.734189
3.645766
4.356979
5.057204
5.604992
5.939324
6.056692
5.777773
5.345951
4.873682
4.255290
3.457107
2.095708
0.390626
-0.764331
-1.068734
-0.870005
-0.593187
-0.437710
-0.737437
-1.459869
-1.740658
-1.320756
-0.759408
-0.542910
-0.863210
-1.570446
-2.424973
-3.017881
-3.283474
-3.432401
-2.992393
-1.865021
-0.480472
0.817104
1.374479
1.327019
1.173650
0.834645
0.450518
-0.229129
-1.251523
-1.908024
-2.108387
-1.853079
-1.290327
-0.964646
-0.708870
-0.424571
-0.322166
-0.312813
-0.508500
-0.807525
-0.789287
-0.523692
-0.313039
-0.124831
0.006097
-0.113839
-0.192159
-0.048606
0.112248
0.418056
0.896173
1.602476
2.535329
2.956165
2.583962
1.790923
0.757307
-0.242643
-0.988221
-1.509587
-1.955904
-2.203494
-2.114182
-2.288827
-2.968474
-3.753096
-4.200816
-3.773433
-2.777923
-1.618521
-0.110059
1.394661
2.299225
2.107279
1.431606
1.591057
2.235638
2.858242
3.393171
3.173637
2.735035
2.768937
2.688980
2.515504
2.603647
2.548706
2.171359
1.973568
2.171128
2.422930
2.390433
1.869535
1.208358
0.789394
0.393811
0.237870
0.443379
0.669463
1.065751
1.449180
1.493369
1.286694
0.666665
-0.207034
-1.050105
-1.799892
-1.973835
-1.462753
-1.121875
-1.613783
-2.335280
-2.573985
-2.544291
-2.365902
-2.234039
-2.202943
-1.716877
-0.960307
-0.222441
0.601228
1.337925
1.878466
1.542267
0.083373
-1.530060
-2.933310
-3.924842
-4.359470
-4.509566
-3.822201
-2.308596
-1.063156
-0.292325
0.429643
1.262898
2.150394
2.737460
2.305170
0.753693
-0.794744
-1.627061
-2.007915
-2.404668
-3.132945
-3.928789
-4.557001
-4.827035
-4.561907
-4.233421
-3.654537
-2.440894
-1.204105
-0.299542
0.032920
-0.263066
-0.569339
-0.668935
-0.736501
-0.718029
-0.360786
0.172741
0.518295
1.033586
1.934175
2.931789
3.776032
4.289687
4.571648
4.465973
4.056595
3.804096
3.372040
2.765572
2.306395
1.602667
0.818746
0.393003
0.131853
-0.220010
-0.539142
-0.573976
-0.607174
-0.827175
-1.142566
-1.650139
-1.961088
-1.869671
-1.576020
-1.082940
-0.789056
-0.870182
-1.170843
-1.611316
-1.796716
-1.635862
-1.222740
-0.907580
-1.184394
-1.666950
-2.135479
-2.507916
-2.601200
-2.944179
-3.330410
-3.301885
-3.129341
-2.718792
-2.299358
-2.223606
-2.150192
-1.673244
-0.688489
0.300943
1.010052
1.546150
1.780183
1.887030
1.801929
1.513425
1.613258
1.956941
1.968633
1.361697
0.209311
-0.942372
-1.864233
-2.544816
-2.850621
-2.671998
-2.015728
-1.324622
-1.017177
-1.222683
-1.723943
-2.080482
-2.193171
-1.921263
-1.618026
-1.755965
-1.664315
-1.415553
-1.466286
-1.118394
-0.383100
0.564248
1.989946
3.242633
3.952911
4.275085
4.189750
4.145564
4.477792
5.017397
5.464653
5.631118
5.484529
4.790153
3.717960
2.920245
2.587553
2.391866
1.992542
1.488711
0.935782
0.301257
-0.239046
-0.836397
-1.276168
-1.322926
-1.489154
-1.832367
-2.090010
-1.946691
-1.148505
-0.266153
0.052514
-0.298414
-0.731405
-0.785177
-0.968940
-1.464355
-2.110803
-2.747665
-3.064926
-3.406502
-3.867081
-4.037284
-3.830138
-3.240266
-2.667461
-2.269537
-1.736711
-1.350944
-1.364503
-1.718003
-2.176010
-2.265787
-1.963719
-1.558079
-1.419904
-1.792575
-2.367481
-2.792990
-2.773116
-2.161267
-1.172069
-0.082105
0.734784
1.193029
1.301044
0.872262
0.369599
0.265327
0.526247
1.028678
1.288195
1.208238
1.129683
1.043881
1.044351
1.150730
1.041081
0.450276
-0.368480
-0.744191
-0.700937
-0.542888
-0.250406
-0.285240
-0.928649
-1.706491
-2.163563
-2.041753
-1.193769
-0.049564
0.567897
0.910411
1.612272
2.266438
2.833165
3.380485
3.395216
3.052939
2.539054
1.829948
1.303906
0.998802
0.599478
0.020597
-0.162231
0.326174
1.074326
2.032897
2.526444
1.869242
0.921429
0.472774
0.439576
0.214665
-0.673296
-1.807211
-2.735852
-3.435372
-3.949724
-4.022200
-3.403337
-2.485681
-1.738230
-1.273907
-0.897726
-0.393190
0.308671
1.072489
1.351176
1.449840
2.035037
2.576746
2.934692
3.381480
3.512875
3.211512
2.746491
2.161999
1.292743
0.127031
-1.502067
-3.779484
-5.900959
-7.200403
-7.681322
-7.001906
-5.359479
-3.604361
-2.124423
-0.881555
0.181523
0.852055
1.295336
2.207147
3.414010
4.314599
4.988872
5.387731
5.315256
4.934401
4.362769
3.638233
2.851506
2.105461
1.430022
0.944894
0.779835
0.622257
0.456730
0.619922
1.116509
2.128385
3.354654
4.128524
4.873404
5.972486
7.004469
7.567922
7.466455
6.927087
6.341660
5.811175
4.870377
3.052838
1.066265
-0.142232
-0.155557
0.808625
1.546023
1.582497
1.395460
1.262665
1.351276
1.275293
0.961539
0.846045
0.887428
1.254024
1.973186
2.677619
3.033927
2.699365
1.899546
1.077283
0.625354
0.799067
1.280691
1.802060
2.191334
2.245811
2.220562
2.708732
3.717335
4.438835
4.714951
4.942905
4.974469
5.000189
5.234455
4.763823
3.470224
2.510488
1.627905
0.539112
0.095600
-0.141936
-0.192902
0.512232
0.908520
0.728497
0.448176
-0.094232
-0.352810
-0.259757
-0.724779
-1.857992
-2.990271
-3.700546
-3.950707
-3.658459
-2.840635
-1.543526
-0.035766
0.834429
0.724780
-0.083456
-1.180197
-1.761883
-1.615057
-1.237940
-0.955979
-1.117298
-1.330753
-0.822710
-0.332670
-0.365633
-0.252708
-0.385269
-0.769397
-0.478084
0.007515
0.170941
0.123247
-0.350424
-1.094599
-1.911018
-2.402458
-2.091740
-1.438977
-0.753949
0.094737
0.855281
1.365428
1.584497
1.405878
1.115737
1.158290
1.503844
1.773413
1.588014
0.897846
0.042851
-0.825938
-1.749202
-2.505769
-2.648150
-2.132859
-1.622712
-1.275054
-0.825927
-0.657592
-0.454421
0.302617
0.963563
1.634796
2.490028
2.722424
2.770588
3.037586
2.578176
1.300943
-0.026790
-1.043339
-1.709659
-1.922881
-1.920074
-2.068066
-1.957478
-1.752203
-2.126978
-2.626134
-3.046967
-3.472009
-3.256680
-2.602046
-2.211604
-1.636928
-0.538547
0.687487
2.186363
3.729660
4.808636
6.085872
7.361472
7.802649
8.034577
8.374754
8.721243
9.195385
9.240510
8.707453
7.787229
6.417646
5.167066
4.253154
3.266765
2.434448
1.882455
1.430058
1.386574
1.592317
1.494124
1.262198
0.865212
-0.197161
-1.952743
-3.980699
-5.357062
-5.725291
-5.824654
-5.375761
-4.227581
-3.347099
-2.321663
-1.546857
-2.176939
-2.520620
-1.953426
-1.732019
-1.503597
-1.572332
-2.522249
-3.550254
-4.384908
-4.887805
-4.692582
-4.122116
-3.564741
-2.973233
-2.357877
-1.694592
-0.473701
0.889806
1.457233
1.808164
2.030040
1.550055
1.164525
0.906648
-0.026902
-1.151232
-1.885588
-2.105823
-1.688260
-0.956706
-0.077861
1.006259
2.012757
2.970626
3.790789
4.069243
3.988117
3.530109
2.822407
2.597729
2.772143
3.143181
3.699152
4.101753
4.536851
4.967507
4.835180
3.899291
2.243306
0.722690
0.401688
1.079702
1.564131
1.240324
0.517190
-0.241948
-0.988461
-1.482005
-1.863327
-2.344480
-2.047323
-1.234642
-1.341719
-1.720937
-2.184088
-3.140317
-3.244823
-3.114129
-3.390008
-2.733270
-1.962672
-1.563345
-0.723778
-0.309487
-0.849791
-1.532010
-1.580405
-1.186688
-0.944005
-0.811207
-0.998243
-1.398503
-1.333038
-0.949375
-0.375635
0.291157
0.477962
0.491758
0.446169
-0.278367
-1.434961
-3.176749
-5.291444
-6.365974
-6.812526
-7.115058
-6.733031
-6.313831
-6.049171
-5.929699
-5.992355
-5.538086
-4.767722
-3.814997
-2.836086
-2.332018
-1.707076
-0.717878
0.539251
1.782820
2.245273
2.398178
2.913936
3.472012
3.614162
3.587043
3.697397
3.240091
2.477212
1.959587
1.313139
1.444768
2.136810
1.820016
1.446176
1.588092
1.165154
0.976482
1.533388
1.682786
1.856733
2.250917
1.589740
0.265280
-1.026683
-2.341557
-3.080121
-3.285861
-3.485522
-3.782209
-3.923889
-3.180412
-1.787213
-0.538967
0.512888
1.078445
1.124738
1.204231
1.475437
1.844839
2.029774
2.000083
1.676977
0.658791
-0.333443
-0.953471
-1.788594
-2.331703
-2.928118
-3.943031
-3.977631
-3.620621
-3.727465
-3.185755
-2.493246
-2.104907
-1.405151
-1.037854
-1.100977
-1.022186
-0.646940
0.043465
0.334544
0.155925
0.080410
-0.301614
-1.000666
-1.509407
-2.033813
-2.458387
-2.395728
-2.524549
-3.451086
-4.574246
-5.436957
-6.045997
-6.019810
-5.186087
-4.087706
-3.104353
-1.878085
-0.249452
1.268595
2.288187
2.635611
2.832704
3.597690
4.000290
3.459986
2.696640
1.578155
0.362177
-0.329394
-0.965087
-1.522224
-1.282113
-0.304137
0.274279
0.113194
0.009623
-0.210378
-0.383153
-0.194711
-0.535819
-1.188112
-1.994010
-3.457579
-5.013031
-6.268521
-6.479872
-5.516626
-4.545430
-3.502927
-2.911418
-2.792647
-1.724894
-0.895613
-0.573907
0.084468
-0.247990
-0.290072
0.592047
0.064601
-0.481781
0.215638
0.426992
0.296768
0.683938
1.216296
1.306543
0.927793
0.434015
-0.192326
-0.910550
-1.310342
-0.976945
0.113487
1.859253
3.752544
4.913116
5.426770
5.353125
5.259608
5.924763
6.112737
5.931078
5.698451
4.005761
1.988560
0.632069
-0.649840
-1.370167
-1.708938
-1.966113
-2.168113
-2.419911
-2.392555
-2.599932
-3.104465
-3.035960
-2.442348
-1.774387
-1.223092
-0.809035
-0.381886
0.105583
0.801131
2.100812
3.393245
3.754463
3.929345
4.218086
4.045078
3.807775
3.393488
2.491967
1.718801
1.369509
1.455081
1.656849
0.985151
-0.160454
-0.376948
-0.445917
-0.927772
-0.913508
-1.276360
-2.217159
-2.677972
-3.146734
-3.864490
-4.739124
-5.943412
-6.942192
-7.097198
-6.148915
-4.682537
-3.710640
-3.279283
-3.000829
-3.355498
-4.080501
-4.243223
-4.976176
-6.537940
-7.629070
-8.551165
-8.875206
-8.166565
-7.648235
-7.692655
-8.022074
-8.394511
-8.618721
-8.203028
-7.077994
-6.157299
-4.906716
-3.339104
-2.532736
-1.610404
-0.745119
-0.755404
-0.539374
0.066396
0.497988
0.762180
0.554336
0.182366
0.278692
0.451470
0.529326
0.529795
0.031341
-0.124367
0.409628
0.659559
0.791422
0.628467
0.070160
-0.263700
-0.957375
-1.979068
-2.870769
-3.825128
-4.797957
-5.971384
-6.795050
-6.910778
-6.914985
-6.604033
-6.303836
-6.596081
-6.799015
-6.649851
-6.422131
-5.827349
-4.700445
-3.068538
-0.656217
1.945247
3.624381
4.504395
4.578978
3.496966
2.436463
2.125514
1.682236
1.163909
0.749388
-0.291710
-1.406921
-2.203233
-3.201078
-3.457318
-2.603489
-1.644451
-0.591661
0.233178
0.095005
-0.210800
-0.127333
-0.133410
-0.103950
-0.357619
-1.001729
-0.964553
-0.590476
-0.072380
0.548587
-0.028890
-0.428916
-0.034732
-0.291908
-0.115857
0.030268
-0.324401
0.299839
0.700336
0.902572
1.897615
2.247377
2.111776
2.363811
2.691129
3.284742
3.717969
3.217177
2.231022
1.035150
0.283494
0.992836
1.711531
1.633911
1.824458
1.794066
1.546242
1.566818
1.335594
1.043349
0.847896
0.454417
-0.206527
-1.145689
-2.443028
-3.892803
-5.038642
-5.861841
-5.920990
-5.567253
-5.870019
-5.896670
-5.639726
-5.614006
-4.412521
-2.769860
-1.800768
-0.834483
-0.739793
-1.385306
-1.610451
-2.219492
-2.867810
-2.974654
-3.285602
-3.007382
-2.116379
-1.732483
-1.516686
-1.434856
-1.317722
-0.885429
-0.464358
0.873899
2.418365
2.578985
3.035359
4.148236
4.376891
3.953018
3.297686
3.466489
4.639919
5.187708
5.212258
4.611400
3.343052
2.586485
2.215918
2.906557
3.679025
2.789895
2.595377
2.231824
0.429015
0.273541
0.498690
-0.166462
-0.035534
0.134672
0.569537
1.395544
1.616951
1.529279
1.168531
0.941516
0.930295
1.316997
2.377036
2.498144
1.821536
1.400002
1.112666
1.681964
2.852121
3.954710
4.977809
5.700244
6.241486
6.448866
6.501472
6.505682
6.369613
6.819908
7.326081
7.084804
6.595935
6.126472
5.730888
5.416433
5.177961
4.888054
4.778872
5.164873
4.967082
4.288370
4.145989
3.919675
4.080997
4.815589
4.344957
2.753734
1.321961
0.324818
-0.267623
-0.346411
-0.193039
-0.552384
-0.826626
-0.671851
-1.234599
-1.957733
-2.607921
-3.909002
-4.161735
-3.115958
-2.345127
-1.162813
0.200928
0.947912
1.903911
2.255543
1.996498
2.349767
1.924491
1.044714
1.047053
0.409957
-0.575964
-0.860260
-1.328087
-1.559779
-1.218667
-1.293480
-1.913275
-2.726421
-3.414251
-3.816381
-4.261529
-4.699897
-5.179414
-5.789389
-5.595336
-5.020427
-5.053625
-4.766520
-4.486196
-4.493910
-3.418207
-2.250154
-1.934292
-1.355175
-0.799204
-0.868406
-0.662195
-0.083312
-0.100144
-0.153915
0.328410
0.647311
1.337950
2.360580
2.524941
2.468832
2.413423
1.247244
-0.283659
-0.958396
-1.321482
-1.628456
-1.683864
-1.627518
-1.185406
-0.452917
0.731268
1.663886
1.126622
1.316467
2.615212
2.780742
3.116944
3.739314
3.138457
2.121206
0.534893
-1.668411
-3.041734
-3.463970
-3.645629
-3.557252
-2.721426
-1.506380
-0.832341
-0.434416
-0.159703
-0.761028
-1.578148
-2.063275
-3.080526
-3.903257
-3.871225
-3.901383
-3.522864
-2.295193
-1.319088
-0.920228
-0.750957
-0.787194
-0.777607
-0.414986
0.593617
2.503508
4.733000
7.021877
9.438641
10.833243
11.222985
11.382436
10.553627
9.683668
9.929625
9.532639
8.496451
8.319000
8.119339
7.854448
8.702900
9.702151
10.233574
11.011886
10.993652
10.011471
10.308395
11.586332
11.958773
11.808209
11.693416
11.175791
10.480713
10.088403
9.454814
8.736590
8.873597
9.049414
9.015047
9.123063
8.422140
7.334517
6.146127
4.551865
3.277672
2.372410
2.388076
2.556412
1.224236
0.006388
-0.735917
-1.756440
-2.084456
-2.523292
-3.438841
-3.715421
-3.665621
-3.540772
-2.887073
-2.146168
-2.152245
-1.947437
-0.968994
-0.279992
1.059434
3.081314
3.890021
4.088750
4.646124
5.332087
5.550923
4.880160
3.937257
2.609992
0.787777
-0.589053
-1.170272
-1.630617
-2.604615
-3.165961
-2.952502
-2.760085
-2.571409
-2.607179
-2.364730
-1.688119
-1.762465
-1.476529
-0.121906
0.417933
0.178760
0.869866
2.267508
3.200828
3.706533
3.505235
2.257695
1.510480
1.809742
1.660347
1.295158
1.388912
0.741061
0.384054
1.639547
2.252098
2.608874
4.216465
5.074737
5.696171
7.364316
8.059397
7.481452
7.034667
6.371152
4.944055
3.839832
3.356107
2.138259
0.597069
-0.266811
-0.817402
-0.485642
1.078230
2.507901
2.839427
2.860003
3.514637
3.855515
3.942957
4.972134
5.515013
5.437861
6.044099
5.996172
5.281222
5.042750
4.815267
4.230074
3.307278
2.765337
2.315513
1.474545
1.349465
1.031503
-0.148938
-1.330548
-2.343590
-2.060694
-1.571822
-2.419803
-2.664120
-2.419333
-3.077236
-3.638816
-3.287885
-2.619223
-2.248185
-1.500500
-0.187727
0.685508
1.283563
2.268552
2.993559
3.033774
3.328126
3.693085
3.080771
1.843050
0.561609
-0.765423
-2.099468
-2.319704
-1.406724
-1.259196
-1.011603
-0.165490
-0.346681
0.018980
1.290838
1.460577
2.186519
4.145975
4.151822
2.822919
2.797905
2.203360
1.212061
2.203831
3.044801
3.068182
3.729129
3.989346
3.736379
3.679802
3.533446
2.862450
2.115937
2.163399
2.064271
1.472064
1.330618
1.215825
0.772313
0.195537
-0.179472
-0.037088
0.005698
-0.177831
0.132653
0.830773
1.182874
1.292526
1.806882
2.593611
3.148647
3.539324
4.170812
4.620406
4.318575
4.087819
4.005056
2.845657
1.352863
0.750135
-0.016485
-0.910524
-0.644695
-0.019987
0.215916
0.403189
0.482448
0.176643
-0.286976
-0.104846
-0.178023
-0.775607
-0.321571
0.069105
-0.077484
0.213361
0.138080
0.253578
0.491585
-0.311274
-0.873321
-0.988113
-1.878880
-2.477867
-1.863680
-1.825803
-2.743456
-2.624217
-1.949243
-2.079934
-2.017509
-1.512271
-1.381110
-0.870027
0.272542
1.455557
2.919831
3.278711
2.414832
2.523316
2.079804
0.511259
0.330769
0.561061
-0.286218
-1.348825
-1.998079
-2.489987
-3.188805
-3.341707
-2.613661
-1.747674
-0.983857
-0.309584
0.259012
0.594513
0.602697
0.478085
0.507077
0.696221
1.140671
2.677188
4.500809
4.765469
4.295304
4.144974
3.294421
1.812849
1.318603
0.785547
-1.254332
-2.417239
-2.378894
-3.029083
-3.191337
-2.556809
-2.162859
-1.868741
-1.322355
-0.549186
-0.553393
-1.006023
-1.091357
-1.814724
-2.881306
-3.267771
-3.419504
-4.004230
-4.532376
-4.357260
-4.207862
-3.481219
-1.936753
-1.834348
-2.531997
-2.645154
-3.143374
-3.466948
-3.129343
-2.971061
-3.281542
-3.741420
-3.629195
-3.313100
-3.187783
-2.650048
-1.889504
-1.160990
-0.785978
-0.922747
-0.801639
-0.758385
-1.236732
-1.557735
-1.567553
-1.653588
-2.051744
-2.182902
-2.063898
-2.713619
-3.050753
-2.214225
-1.837810
-1.947693
-1.465835
-1.000811
-1.095497
-1.381196
-1.319939
-0.986777
-1.009687
-0.877123
-0.186484
0.293971
0.780271
1.561857
2.314919
3.144901
3.593559
3.400678
2.841670
1.480972
-0.798550
-2.678512
-3.447002
-4.720027
-6.348657
-6.630381
-6.969386
-7.854774
-7.867632
-7.666798
-8.157771
-8.699244
-8.152858
-7.337372
-7.316094
-6.993920
-6.540118
-6.629895
-7.016126
-7.652521
-7.627035
-6.807808
-6.403805
-6.898986
-7.178606
-6.386032
-6.078587
-6.089808
-4.858396
-4.218959
-4.458366
-3.648958
-3.297325
-3.589337
-2.560627
-1.852687
-2.051647
-1.806159
-1.949007
-1.982439
-1.312374
-0.976172
-0.814617
-0.959803
-1.570012
-2.106342
-2.616252
-2.879039
-2.684985
-2.566916
-2.541665
-2.070328
-1.764519
-1.538903
-0.652343
-0.502009
-0.793787
-0.553442
-0.864624
-0.810849
-0.666829
-1.768714
-2.117538
-1.320287
-1.035053
-1.407023
-1.728727
-2.162887
-3.837341
-5.234278
-4.992296
-5.476723
-6.568321
-6.391568
-6.179513
-6.583513
-7.099268
-7.875006
-8.128674
-7.897915
-7.650556
-6.533939
-5.502657
-5.400720
-5.018226
-4.533563
-4.501765
-4.660746
-4.697450
-4.336933
-3.654244
-2.616416
-1.551936
-0.470622
0.618408
1.391810
2.482476
3.413225
4.207436
5.386009
5.275658
4.333457
3.731197
2.763979
1.799567
1.083214
0.607672
0.406841
0.108751
-0.522266
-1.421683
-1.501172
-1.163567
-1.100207
-0.363276
0.214205
0.592724
1.277518
0.864867
0.311938
0.446373
0.078845
-0.220414
-0.026594
-0.181132
-0.809344
-1.165416
-1.202120
-1.321122
-0.805363
-0.303867
-0.246819
0.589943
0.487542
-0.475702
0.019716
-0.216417
-1.317367
-1.553968
-2.713835
-3.695782
-3.099130
-3.043251
-3.454031
-3.554328
-3.747911
-3.957859
-4.159625
-3.621188
-2.635497
-2.424844
-1.846428
-1.252348
-1.975715
-1.482401
-0.220596
-0.593034
0.002450
0.526858
-1.091485
-1.039580
-0.582037
-1.776272
-1.333225
-0.903270
-1.909298
-1.945301
-1.907659
-1.791460
-1.064349
-0.849721
-0.369033
-0.094553
-0.184096
0.652900
0.709013
0.256383
1.025110
1.063922
0.258492
0.557520
1.207244
0.646366
-0.134515
0.463306
0.756957
0.427538
0.915241
0.045049
-1.582880
-1.199217
-0.764119
-1.090264
-0.726241
-0.130991
-0.060149
-0.201127
0.010461
-0.115087
-0.338362
0.564097
1.105106
0.532538
0.379402
0.116616
-1.180490
-2.184882
-2.371918
-2.690582
-2.675384
-1.916944
-1.712837
-1.811030
-0.693010
0.393213
0.382928
1.646604
3.714308
3.931274
4.055655
4.270049
2.150444
0.367508
0.669342
0.117816
-0.565806
0.154525
0.067086
-0.161332
0.853350
1.315802
1.821741
