EVENT_NAME: 202302060117
EVENT_ID: 13194
EVENT_DATE_YYYYMMDD: 2023/02/06
EVENT_TIME_HHMMSS: 01:17:32.00000
EVENT_LATITUDE_DEGREE: 37.288
EVENT_LONGITUDE_DEGREE: 37.043
EVENT_DEPTH_KM: 8.6
HYPOCENTER_REFERENCE: AFAD
MAGNITUDE_W: 7.7
MAGNITUDE_W_REFERENCE: AFAD
MAGNITUDE_L: 
MAGNITUDE_L_REFERENCE: 
FOCAL_MECHANISM: 
NETWORK: TK
STATION_CODE: 0124
STATION_NAME: 
STATION_LATITUDE_DEGREE: 37.4087
STATION_LONGITUDE_DEGREE: 34.87911
STATION_ELEVATION_M: 791.0
LOCATION: Kahramanmaras_Pazarck_Turkiye
SENSOR_DEPTH_M: 
VS30_M/S: 583
SITE_CLASSIFICATION_EC8: B
MORPHOLOGIC_CLASSIFICATION: 
EPICENTRAL_DISTANCE_KM: 191.74
EARTHQUAKE_BACKAZIMUTH_DEGREE: 
DATE_TIME_FIRST_SAMPLE_YYYYMMDD_HHMMSS: 2023/02/06 01:17:45.0691670
DATE_TIME_FIRST_SAMPLE_PRECISION: millisecond
SAMPLING_INTERVAL_S: 0.01
NDATA: 13501
DURATION_S: 
STREAM: HNZ
UNITS: cm/s^2
INSTRUMENT: sensor = CMG-5T/GURALP | digitizer = 
INSTRUMENT_ANALOG/DIGITAL: 
INSTRUMENTAL_FREQUENCY_HZ: 
INSTRUMENTAL_DAMPING: 
FULL_SCALE_G: 
N_BIT_DIGITAL_CONVERTER: 
PGA_CM/S^2: 11.149
TIME_PGA_S: 
BASELINE_CORRECTION: BASELINE REMOVED
FILTER_TYPE: BUTTERWORTH
FILTER_ORDER: 
LOW_CUT_FREQUENCY_HZ: 
HIGH_CUT_FREQUENCY_HZ: 
LATE/NORMAL_TRIGGERED: 
DATABASE_VERSION: 
HEADER_FORMAT: DYNA 1.2
DATA_TYPE: Acceleration
PROCESSING: Automatic Paolucci et al., 2011
DATA_TIMESTAMP_YYYYMMDD_HHMMSS: 
DATA_LICENSE: U (unknown license)
DATA_CITATION: Turkish Accelerometric Archive v 1.0 - Disaster And Emergency Management Presidency, Earthquake Department
DATA_CREATOR: AFAD
ORIGINAL_DATA_MEDIATOR_CITATION: : AFAD - Disaster And Emergency Management Presidency
ORIGINAL_DATA_MEDIATOR: AFAD PROCESS SERVICE
ORIGINAL_DATA_CREATOR_CITATION: AFAD PROCESS SERVICE
ORIGINAL_DATA_CREATOR: network: TK
USER1: GuestUser
USER2: 
USER3: 
USER4: 
USER5: 
[...]
-0.232246
-0.852994
-1.174589
-0.885270
-0.119704
0.822956
1.628183
2.044481
2.073385
1.879692
1.587613
1.234043
0.847883
0.532131
0.625293
1.306001
2.181021
2.662499
2.466654
1.903400
1.622082
1.738611
1.729083
1.193807
0.332937
-0.351454
-0.515939
-0.124238
0.507585
0.899901
0.813202
0.320048
-0.399700
-1.089933
-1.750343
-2.352336
-2.605675
-2.358171
-1.574158
-0.434112
0.459048
0.640757
0.077196
-0.774451
-1.263608
-1.218716
-0.866984
-0.479280
-0.392882
-0.729542
-1.238376
-1.531685
-1.319537
-0.668345
0.015746
0.415441
0.455413
0.184856
-0.331664
-1.170705
-2.180691
-2.852169
-2.903203
-2.425415
-1.911347
-1.813266
-1.960226
-1.988816
-1.843079
-1.606027
-1.542381
-1.651216
-1.722850
-1.804630
-1.843058
-1.686560
-1.325605
-0.776794
-0.201850
0.349727
0.987699
1.531898
1.772023
1.588476
1.058120
0.530223
0.344832
0.530538
0.934844
1.481810
1.934694
2.186503
2.254454
2.121944
1.883363
1.599278
1.303510
1.140870
1.238029
1.490760
1.784383
1.965477
2.033428
2.130895
2.283703
2.364567
2.110920
1.485868
0.805474
0.369199
0.177350
0.028238
-0.302580
-0.792352
-1.187428
-1.334696
-1.232002
-1.049678
-0.994333
-1.007243
-0.924226
-0.618305
-0.199241
0.173090
0.536505
0.922672
1.307916
1.629210
1.750658
1.414613
0.550054
-0.424882
-1.038866
-1.004120
-0.313573
0.528549
0.938697
0.723482
0.367145
0.306887
0.479681
0.679222
0.705359
0.598368
0.668164
0.925507
1.156102
1.087235
0.657724
0.240511
0.158117
0.370571
0.568883
0.579033
0.615623
0.837916
1.240993
1.516169
1.214251
0.323866
-0.799264
-1.693339
-2.151751
-2.335913
-2.339291
-2.174185
-1.811999
-1.312997
-0.797084
-0.333439
0.006917
0.220294
0.313764
0.136366
-0.480078
-1.402746
-2.300204
-2.578140
-2.026255
-1.001504
0.116712
1.071056
1.833240
2.419252
2.489048
1.907654
1.026492
0.513968
0.906591
2.081687
3.313970
3.979305
3.917818
3.289691
2.353494
1.204231
0.022993
-0.749945
-0.872309
-0.242330
1.013011
2.256362
2.863897
2.559212
1.590733
0.328941
-0.978968
-1.906556
-2.123616
-1.793713
-1.272881
-0.731143
-0.112232
0.555563
0.849186
0.414755
-0.499612
-1.445955
-2.087610
-2.345868
-2.379377
-2.238560
-2.003046
-1.712190
-1.462226
-1.425943
-1.600881
-1.885889
-2.077737
-1.967665
-1.640529
-1.335838
-1.333068
-1.507699
-1.397319
-0.900468
-0.099545
0.730279
1.178551
0.951653
0.124296
-0.790994
-1.249406
-1.277996
-1.142097
-0.825723
-0.373146
0.012713
0.154453
-0.156688
-0.855222
-1.687806
-2.369122
-2.611086
-2.476417
-2.221534
-1.979256
-1.751736
-1.422141
-0.984015
-0.300232
0.642428
1.495004
1.780326
1.357271
0.530221
-0.231341
-0.491137
0.003869
1.129772
2.346681
3.215860
3.515324
3.190963
2.350999
1.319492
0.563771
0.393752
0.618812
1.035417
1.630961
2.362706
2.969318
3.097838
2.724591
2.287701
2.144738
2.353811
2.708924
2.865115
2.739677
2.438374
2.006404
1.578737
1.132931
0.748309
0.499889
0.224105
-0.107328
-0.423081
-0.662277
-0.748976
-0.874107
-1.159421
-1.468410
-1.561873
-1.363869
-0.961407
-0.334503
0.421839
1.048128
1.056125
0.237069
-0.967536
-1.978751
-2.349538
-2.026707
-1.280819
-0.443923
0.065533
0.034791
-0.352906
-0.833762
-1.150130
-1.137213
-0.858656
-0.429753
0.057874
0.567638
0.865565
0.589166
-0.282157
-1.180845
-1.580840
-1.377609
-0.806047
-0.113040
0.413018
0.423168
-0.287357
-1.412023
-2.423547
-2.940990
-2.842908
-2.226765
-1.282568
-0.271346
0.567702
1.019664
0.851490
-0.043815
-1.327436
-2.195070
-2.109287
-1.142030
0.286408
1.436908
1.654589
0.970505
-0.156006
-1.122025
-1.390430
-0.931397
-0.032088
0.904731
1.506116
1.669993
1.487983
1.116581
0.679998
0.311363
0.153950
0.271708
0.532126
0.657571
0.398082
-0.258945
-1.011591
-1.537336
-1.738100
-1.743016
-1.587133
-1.250159
-0.641395
0.155839
0.824864
1.201807
1.385976
1.496970
1.509579
1.368768
1.270079
1.384148
1.504366
1.431810
1.157257
0.817522
0.691469
0.771103
0.828601
0.690865
0.244136
-0.340947
-0.691135
-0.566305
-0.102967
0.305029
0.474748
0.406803
0.230943
0.098433
0.113809
0.354242
0.866465
1.534261
2.063087
2.131652
1.803909
1.220363
0.605149
0.278328
0.278639
0.636212
1.291710
1.943517
2.333066
2.226075
1.556442
0.714941
0.037314
-0.366063
-0.607104
-0.964671
-1.587571
-2.401708
-3.193708
-3.659807
-3.634592
-3.357572
-3.145117
-2.909603
-2.522207
-2.091766
-1.764016
-1.544490
-1.401828
-1.276690
-1.088217
-0.947399
-0.995051
-1.185362
-1.422099
-1.370136
-0.879127
-0.271285
0.034636
-0.123085
-0.480344
-0.589795
-0.393635
0.040802
0.606829
1.118438
1.598071
1.996843
2.321211
2.675710
2.871870
2.691705
2.216075
1.701707
1.488952
1.635918
1.996566
2.373509
2.515864
2.428551
2.237010
2.017490
1.793667
1.455777
0.932800
0.281921
-0.438442
-1.059805
-1.511760
-1.773093
-1.761407
-1.650412
-1.699294
-1.994140
-2.365235
-2.395362
-1.908965
-1.246396
-0.828869
-0.798120
-0.904496
-0.890965
-0.772899
-0.712634
-0.799333
-1.054824
-1.268810
-1.311850
-1.215613
-1.152582
-1.182094
-1.184243
-1.092310
-0.924744
-0.741497
-0.606214
-0.510284
-0.334417
0.024079
0.357671
0.294646
-0.138247
-0.663684
-1.075363
-1.234006
-1.073819
-0.721472
-0.391569
-0.129615
0.249481
0.909282
1.830420
2.876693
3.767700
4.191991
4.182464
3.951876
3.654263
3.266873
2.846893
2.665191
2.746362
2.885950
2.942833
2.812475
2.476123
2.054606
1.651229
1.357305
1.206041
1.012655
0.545327
-0.179033
-0.971341
-1.626216
-1.941354
-1.965025
-2.002838
-2.217438
-2.576235
-3.031879
-3.547170
-4.150086
-4.746545
-5.164988
-5.223708
-4.721016
-3.627088
-2.293346
-1.168365
-0.537157
-0.394494
-0.553752
-0.897176
-1.377725
-1.947128
-2.318222
-2.196774
-1.541277
-0.641968
0.190623
0.687781
0.590321
-0.036576
-0.979537
-1.938485
-2.599509
-2.881135
-2.649925
-1.898810
-1.018256
-0.511874
-0.694806
-1.337691
-1.938762
-2.361509
-2.632373
-2.739364
-2.641282
-2.407306
-2.453421
-2.950879
-3.665708
-4.309208
-4.510280
-4.128725
-3.258010
-2.108433
-0.985604
-0.054627
0.674966
1.133385
1.292650
1.331085
1.462987
1.847001
2.427787
2.809957
2.854849
2.711578
2.573227
2.580917
2.649790
2.745719
2.853639
2.907447
2.835506
2.418293
1.579252
0.518229
-0.319889
-0.536334
-0.080375
0.795260
1.654599
2.168052
2.205873
1.772057
0.911802
-0.060982
-0.678040
-0.717084
-0.312470
0.252328
0.740263
1.081541
1.307831
1.370555
1.215294
0.789165
0.148432
-0.489533
-0.902749
-1.096442
-1.147784
-1.104429
-1.135786
-1.397119
-1.810643
-2.194650
-2.461210
-2.582652
-2.577729
-2.452591
-2.178338
-1.806007
-1.486558
-1.372181
-1.485936
-1.634741
-1.470557
-0.847035
-0.066096
0.545127
0.842132
0.920229
0.917773
0.844910
0.677965
0.544840
0.673975
1.197881
1.987121
2.562988
2.449540
1.768224
1.062926
0.852937
1.380226
2.472616
3.853707
5.186527
5.870310
5.706440
4.984232
4.030511
3.135205
2.295242
1.499860
1.023001
1.082650
1.523237
1.998565
2.167669
1.968134
1.582589
1.168758
0.862229
0.660235
0.525880
0.468082
0.421967
0.232271
-0.101929
-0.417682
-0.757108
-1.148802
-1.540804
-1.946641
-2.407205
-2.833027
-3.014114
-2.765380
-2.189513
-1.606883
-1.308648
-1.393810
-1.781815
-2.270049
-2.597486
-2.691256
-2.706010
-2.777336
-2.839746
-2.766261
-2.663568
-2.820059
-3.319670
-3.896144
-4.220813
-4.196828
-3.980377
-3.787906
-3.687980
-3.696893
-3.699657
-3.471829
-2.993426
-2.390811
-1.776820
-1.137618
-0.432928
0.045167
-0.045529
-0.684109
-1.443211
-1.885636
-1.933288
-1.701771
-1.281784
-0.681321
-0.021212
0.428598
0.586633
0.707773
0.994325
1.561582
2.364965
3.226457
3.953284
4.337913
4.388032
4.325929
4.394188
4.575897
4.741619
4.639239
4.041858
2.970381
1.744562
0.815130
0.459715
0.627589
1.019290
1.363028
1.577942
1.639129
1.449740
0.932605
0.193179
-0.440790
-0.661231
-0.333788
0.345690
0.939081
1.182282
1.019949
0.695280
0.560926
0.820113
1.411660
2.004129
2.205823
1.996449
1.570013
1.013216
0.320831
-0.412446
-0.968628
-1.095296
-0.910512
-0.922807
-1.343095
-1.916187
-2.193201
-1.904804
-1.181667
-0.561527
-0.453915
-0.855447
-1.407018
-1.744293
-1.709239
-1.430067
-1.096475
-0.879101
-0.763495
-0.643276
-0.548269
-0.544269
-0.687232
-0.841571
-0.876925
-0.932571
-1.224342
-1.820186
-2.598351
-3.301497
-3.679971
-3.648914
-3.301487
-2.742838
-2.065511
-1.447831
-1.134224
-1.305473
-1.895783
-2.530059
-2.802768
-2.535586
-1.833971
-0.950035
-0.177397
0.205388
0.209388
0.038139
-0.080535
0.078115
0.573735
1.207403
1.781732
2.111327
2.209101
2.287506
2.356687
2.354538
2.319491
2.265998
2.391135
2.866464
3.458933
3.903208
4.028961
3.907520
3.714134
3.520748
3.398385
3.371639
3.349813
3.306466
3.283717
3.281569
3.203171
3.022084
2.763210
2.500954
2.393964
2.548002
2.844392
3.019952
2.908349
2.538484
2.020426
1.568779
1.352026
1.271476
1.263486
1.356648
1.592777
1.972487
2.210768
2.036752
1.588179
1.037531
0.471817
-0.053620
-0.531401
-0.827477
-1.028242
-1.436846
-2.140606
-3.015312
-3.751971
-3.934595
-3.515224
-2.766875
-1.920756
-1.181324
-0.791160
-0.865868
-1.315671
-1.975158
-2.547328
-2.622959
-2.044018
-1.161004
-0.479066
-0.220186
-0.120874
0.078667
0.233013
0.341241
0.593972
0.920492
1.067459
0.895595
0.567852
0.342491
0.415054
0.791689
1.378931
2.087003
2.767712
3.085623
2.721908
1.769724
0.706548
0.014163
-0.250860
-0.373531
-0.600736
-0.968142
-1.433010
-1.959677
-2.397796
-2.572120
-2.500787
-2.471575
-2.631141
-2.791322
-2.755961
-2.322446
-1.346889
0.000997
1.323671
2.124902
2.256803
1.981020
1.740286
1.830989
2.055434
2.095099
1.885726
1.616399
1.437156
1.414100
1.570906
1.918641
2.267913
2.418262
2.362308
2.283296
2.342638
2.452710
2.504981
2.352179
1.842115
1.130668
0.565877
0.370954
0.486560
0.703627
0.971423
1.298251
1.541451
1.411094
0.789731
-0.112338
-0.845307
-1.036848
-0.631619
0.357159
1.745936
3.030178
3.677067
3.416348
2.374695
1.083388
0.031281
-0.560567
-0.751185
-0.619591
-0.220511
0.352281
0.916464
1.214698
1.117853
0.729849
0.277279
-0.081210
-0.350845
-0.614945
-0.893188
-1.180348
-1.488722
-1.794328
-2.030758
-2.101162
-2.035363
-2.075021
-2.334202
-2.675166
-2.788921
-2.613668
-2.322198
-1.907745
-1.191065
-0.292371
0.393257
0.517780
0.112250
-0.466069
-0.888509
-1.021326
-0.895573
-0.596109
-0.244070
-0.044835
0.009280
0.038492
0.057250
0.031427
0.056027
0.384392
1.247729
2.474784
3.568405
4.144271
4.088010
3.697853
3.407927
3.469114
3.794404
4.100940
4.133227
3.884806
3.465441
2.861603
2.037320
1.032561
0.118194
-0.317159
-0.187102
0.250102
0.600604
0.618133
0.330973
-0.019215
-0.330048
-0.653487
-1.021507
-1.355707
-1.549093
-1.477145
-1.021801
-0.260232
0.536694
1.135620
1.529780
1.702266
1.549157
1.055080
0.233872
-0.653132
-1.134295
-0.992555
-0.444975
0.093997
0.391924
0.608991
1.021906
1.698617
2.421140
2.883248
2.961652
2.697244
2.197941
1.567970
0.863594
0.193346
-0.253998
-0.470750
-0.601107
-0.821242
-1.267048
-1.918849
-2.576491
-2.983251
-3.042586
-2.832591
-2.550037
-2.249650
-1.868095
-1.569860
-1.583385
-1.900060
-2.378149
-2.772918
-2.845781
-2.542012
-2.033478
-1.541855
-1.123405
-0.677285
-0.205646
0.112266
0.040633
-0.453444
-1.047443
-1.410544
-1.368112
-0.992091
-0.466033
0.154415
0.736738
1.182550
1.592699
1.940434
2.139053
2.024376
1.574880
1.082033
0.769355
0.687883
0.778278
0.933239
1.125094
1.273291
1.297583
1.156772
0.770919
0.101286
-0.732835
-1.525451
-2.051195
-2.242736
-2.255646
-2.255027
-2.334040
-2.443183
-2.500674
-2.517888
-2.571996
-2.739248
-2.965532
-2.985820
-2.555688
-1.792274
-0.969214
-0.267291
0.240628
0.515189
0.485676
0.203744
-0.045599
0.037725
0.547181
1.311517
2.027890
2.437731
2.455874
2.133665
1.539358
0.870340
0.366117
0.138604
0.236993
0.547833
0.781502
0.724627
0.361526
-0.248154
-0.839386
-1.183117
-1.275658
-1.151750
-0.910702
-0.581414
-0.099014
0.472548
1.006600
1.398916
1.569557
1.572327
1.493007
1.375563
1.233830
1.130528
1.110547
1.038606
0.757288
0.317324
-0.133402
-0.381514
-0.225016
0.292126
0.855079
1.180985
1.127799
0.856012
0.759782
1.060169
1.627734
2.227582
2.612826
2.621438
2.268483
1.614530
0.878487
0.272804
-0.121042
-0.210816
-0.008507
0.218091
0.164597
-0.300271
-1.092272
-1.913480
-2.445066
-2.561588
-2.399556
-2.331605
-2.612308
-3.182633
-3.839046
-4.365406
-4.677469
-4.819510
-4.911435
-5.027035
-5.038407
-4.875145
-4.650700
-4.535708
-4.592584
-4.662680
-4.460064
-4.025627
-3.741843
-3.862669
-4.327538
-4.761660
-4.834524
-4.541823
-4.050200
-3.579175
-3.341817
-3.408839
-3.527205
-3.408524
-3.066939
-2.851102
-3.158553
-3.933029
-4.707504
-5.018952
-4.706575
-3.905037
-2.895966
-1.916104
-1.099193
-0.561144
-0.398497
-0.694880
-1.285497
-1.774962
-1.710701
-0.826150
0.666854
2.285915
3.522809
3.987992
3.708212
2.958025
2.087316
1.561572
1.603697
2.089171
2.797243
3.430604
3.748208
3.779264
3.665817
3.567127
3.562211
3.576050
3.525016
3.468448
3.440780
3.339016
3.054009
2.677688
2.439721
2.408671
2.570703
2.868631
3.264636
3.668942
3.995155
4.208840
4.353962
4.472028
4.531370
4.596247
4.827456
5.422077
6.351209
7.306475
8.036069
8.490798
8.652215
8.609482
8.542460
8.646691
9.050383
9.727094
10.519101
11.149080
11.125717
10.317729
9.056552
7.738497
6.659333
5.793237
4.980944
4.178183
3.423385
2.733152
2.092727
1.355146
0.505652
-0.302336
-0.936305
-1.286800
-1.465735
-1.662810
-1.963498
-2.323832
-2.680168
-3.037735
-3.389767
-3.684306
-3.935800
-4.270615
-4.802816
-5.506884
-6.174058
-6.642001
-6.828930
-6.804023
-6.946371
-7.434606
-8.163271
-8.790475
-8.915913
-8.501768
-7.704842
-6.792620
-6.070405
-5.728204
-5.883158
-6.363707
-6.716969
-6.665621
-6.335411
-6.031949
-5.904660
-5.896970
-5.823792
-5.635626
-5.433933
-5.218096
-4.862982
-4.384886
-3.830849
-3.148296
-2.409479
-1.818855
-1.516623
-1.547365
-1.813310
-2.093706
-2.144432
-1.828673
-1.207610
-0.404842
0.399155
1.028212
1.313226
1.130601
0.681413
0.359818
0.400406
0.750293
1.104484
1.304948
1.388579
1.459297
1.511568
1.508804
1.455618
1.378758
1.387062
1.573998
1.995830
2.457938
2.675619
2.464401
1.966635
1.570329
1.455959
1.495317
1.409541
1.088254
0.586798
-0.007201
-0.616266
-1.073140
-1.133398
-0.701421
0.064145
0.848774
1.396354
1.705042
1.908888
1.927954
1.579303
0.875543
0.085694
-0.450811
-0.490777
-0.064026
0.557036
1.179636
1.776409
2.313536
2.635445
2.505395
1.929228
1.129234
0.383044
-0.015107
-0.013873
0.259150
0.510344
0.483599
0.334487
0.288372
0.397522
0.483613
0.292686
-0.084865
-0.266875
-0.023982
0.428903
0.715146
0.642590
0.287176
-0.138953
-0.490370
-0.813502
-1.007503
-0.870067
-0.352002
0.382203
1.053996
1.419255
1.296892
0.711809
0.051706
-0.237913
0.075080
0.979001
2.282920
3.763011
5.085070
5.994218
6.413282
6.413286
6.183313
5.914908
5.587165
5.201005
4.881870
4.776109
4.841600
4.915085
4.794259
4.361366
3.658220
2.791816
2.004120
1.580450
1.603205
1.907589
2.322349
2.723889
3.122661
3.543877
3.895609
4.010908
3.805532
3.340663
2.775257
2.148360
1.500556
0.923774
0.468745
0.138541
-0.128633
-0.353994
-0.515405
-0.707561
-1.079885
-1.704630
-2.583025
-3.516147
-4.161492
-4.405300
-4.457871
-4.609443
-4.998063
-5.388834
-5.616040
-5.708888
-5.792820
-6.025252
-6.352381
-6.490425
-6.139923
-5.228931
-4.129469
-3.426931
-3.401409
-3.896715
-4.498093
-4.819688
-4.692705
-4.249045
-3.701772
-3.217219
-2.690853
-2.048884
-1.472095
-1.252262
-1.367246
-1.643952
-2.011050
-2.427648
-2.927874
-3.464379
-3.818256
-3.863756
-3.566751
-2.961984
-2.251453
-1.646993
-1.391802
-1.510476
-1.805937
-2.053742
-2.168419
-2.035595
-1.504310
-0.583787
0.424669
1.306452
2.010835
2.563027
3.021753
3.248658
3.094934
2.631911
2.091716
1.861128
2.087726
2.632232
3.264670
3.644995
3.745536
3.741850
3.704344
3.636707
3.546934
3.502049
3.498978
3.409204
3.200446
3.018436
2.896380
2.725746
2.464413
2.258114
2.409077
3.121146
4.108080
4.825683
5.091942
5.052899
5.011396
5.068586
5.164823
5.164211
4.927167
4.580361
4.394969
4.480753
4.636943
4.590213
4.144407
3.407134
2.574242
1.676170
0.726753
-0.234963
-1.139492
-1.862930
-2.223263
-2.303506
-2.394816
-2.695504
-3.131164
-3.377432
-3.301794
-3.148064
-3.226769
-3.596019
-4.031371
-4.146356
-3.768798
-3.116990
-2.437512
-1.801077
-1.227670
-0.775093
-0.514675
-0.449799
-0.469780
-0.305596
0.401861
1.679032
3.113620
4.299169
5.054589
5.435529
5.555133
5.503791
5.522857
5.912405
6.583890
7.106874
7.335009
7.409109
7.474293
7.478293
7.293516
7.090600
7.067851
7.165933
7.243722
7.196070
6.863715
6.217141
5.498315
5.161348
5.379644
5.854665
6.046520
5.672659
4.899413
4.052071
3.352614
2.748162
2.298973
2.152936
2.164315
1.964780
1.359712
0.456413
-0.319292
-0.806604
-1.148491
-1.497756
-1.912817
-2.232566
-2.321110
-2.285749
-2.330019
-2.603651
-2.955683
-3.087270
-3.001795
-2.688495
-2.166433
-1.590567
-1.202555
-1.316003
-1.902316
-2.570719
-3.060799
-3.313523
-3.406064
-3.400833
-3.319355
-3.307360
-3.536411
-3.952701
-4.483058
-5.023252
-5.351611
-5.240616
-4.709331
-4.105793
-3.811248
-3.919776
-4.267504
-4.748668
-5.245819
-5.602156
-5.566795
-5.034587
-4.143580
-3.120674
-2.134663
-1.329128
-0.860256
-0.803373
-1.023815
-1.302981
-1.377074
-1.066233
-0.443327
0.297028
0.908867
1.266133
1.355913
1.219714
0.837243
0.396971
0.232794
0.417578
0.847710
1.339334
1.760858
1.938263
1.793455
1.460792
1.225593
1.353805
1.805460
2.395776
2.921528
3.216073
3.279412
3.266502
3.311086
3.427923
3.603790
3.967205
4.504025
5.058369
5.474052
5.647460
5.610261
5.470680
5.344012
5.362155
5.594902
5.954628
6.259011
6.453019
6.488379
6.236885
5.645652
4.764183
3.741591
2.795864
2.022618
1.498718
1.253373
1.072593
0.667063
-0.066828
-1.038690
-2.121850
-3.186870
-4.153197
-4.936589
-5.473401
-5.806372
-6.011133
-6.117817
-6.149481
-6.097210
-5.935178
-5.724876
-5.445396
-5.139167
-4.891970
-4.684435
-4.413564
-4.009257
-3.664904
-3.590497
-3.723314
-3.778038
-3.513930
-2.909778
-2.110392
-1.390944
-0.934063
-0.740978
-0.804925
-1.007842
-1.176016
-1.065022
-0.619209
0.024298
0.607850
0.976492
1.077341
0.972502
0.847064
0.722241
0.615865
0.579896
0.705956
0.933168
0.996815
0.648472
-0.021469
-0.595176
-0.814081
-0.640673
-0.107850
0.645725
1.489692
2.273705
2.937504
3.454646
3.745195
3.868180
3.874332
3.842668
3.922917
4.183027
4.644520
5.275729
5.921387
6.559359
7.141067
7.540147
7.555523
7.122938
6.597501
6.377982
6.515110
6.782906
6.826261
6.423498
5.670545
4.764786
3.877782
3.134975
2.555426
2.118843
1.870423
1.633072
1.230309
0.628316
-0.098197
-0.738622
-0.961523
-0.670052
-0.138152
0.197285
0.048480
-0.484029
-1.123224
-1.616378
-1.833745
-1.860183
-1.684623
-1.307372
-0.898761
-0.562710
-0.422814
-0.669697
-1.379607
-2.311807
-3.047543
-3.345156
-3.211717
-2.754221
