EVENT_NAME: 202302060117
EVENT_ID: 13194
EVENT_DATE_YYYYMMDD: 2023/02/06
EVENT_TIME_HHMMSS: 01:17:32.00000
EVENT_LATITUDE_DEGREE: 37.288
EVENT_LONGITUDE_DEGREE: 37.043
EVENT_DEPTH_KM: 8.6
HYPOCENTER_REFERENCE: AFAD
MAGNITUDE_W: 7.7
MAGNITUDE_W_REFERENCE: AFAD
MAGNITUDE_L: 
MAGNITUDE_L_REFERENCE: 
FOCAL_MECHANISM: 
NETWORK: TK
STATION_CODE: 2906
STATION_NAME: 
STATION_LATITUDE_DEGREE: 40.70208
STATION_LONGITUDE_DEGREE: 39.0867
STATION_ELEVATION_M: 612.0
LOCATION: Kahramanmaras_Pazarck_Turkiye
SENSOR_DEPTH_M: 
VS30_M/S: None
SITE_CLASSIFICATION_EC8: unknown
MORPHOLOGIC_CLASSIFICATION: 
EPICENTRAL_DISTANCE_KM: 418.67
EARTHQUAKE_BACKAZIMUTH_DEGREE: 
DATE_TIME_FIRST_SAMPLE_YYYYMMDD_HHMMSS: 2023/02/06 01:18:05.2674180
DATE_TIME_FIRST_SAMPLE_PRECISION: millisecond
SAMPLING_INTERVAL_S: 0.01
NDATA: 21001
DURATION_S: 
STREAM: HNE
UNITS: cm/s^2
INSTRUMENT: sensor = ACEBOX/SARA | digitizer = 
INSTRUMENT_ANALOG/DIGITAL: 
INSTRUMENTAL_FREQUENCY_HZ: 
INSTRUMENTAL_DAMPING: 
FULL_SCALE_G: 
N_BIT_DIGITAL_CONVERTER: 
PGA_CM/S^2: 3.105
TIME_PGA_S: 
BASELINE_CORRECTION: BASELINE REMOVED
FILTER_TYPE: BUTTERWORTH
FILTER_ORDER: 
LOW_CUT_FREQUENCY_HZ: 
HIGH_CUT_FREQUENCY_HZ: 
LATE/NORMAL_TRIGGERED: 
DATABASE_VERSION: 
HEADER_FORMAT: DYNA 1.2
DATA_TYPE: Acceleration
PROCESSING: Automatic Paolucci et al., 2011
DATA_TIMESTAMP_YYYYMMDD_HHMMSS: 
DATA_LICENSE: U (unknown license)
DATA_CITATION: Turkish Accelerometric Archive v 1.0 - Disaster And Emergency Management Presidency, Earthquake Department
DATA_CREATOR: AFAD
ORIGINAL_DATA_MEDIATOR_CITATION: : AFAD - Disaster And Emergency Management Presidency
ORIGINAL_DATA_MEDIATOR: AFAD PROCESS SERVICE
ORIGINAL_DATA_CREATOR_CITATION: AFAD PROCESS SERVICE
ORIGINAL_DATA_CREATOR: network: TK
USER1: GuestUser
USER2: 
USER3: 
USER4: 
USER5: 
[...]
-0.383292
-0.301697
-0.196955
-0.087304
0.025152
0.146727
0.275316
0.410919
0.545352
0.662485
0.746886
0.781722
0.770266
0.736599
0.691477
0.641912
0.601699
0.568967
0.537171
0.514493
0.497660
0.474748
0.435470
0.366734
0.259421
0.117974
-0.033526
-0.180117
-0.316888
-0.429345
-0.522396
-0.603757
-0.669688
-0.721123
-0.758063
-0.786586
-0.814407
-0.841294
-0.867713
-0.881507
-0.867245
-0.820953
-0.743098
-0.650280
-0.545539
-0.422795
-0.300987
-0.190868
-0.081217
0.022355
0.114238
0.200977
0.284910
0.361830
0.419578
0.453946
0.468208
0.464234
0.453713
0.448336
0.454415
0.473119
0.493226
0.502578
0.495330
0.478731
0.464002
0.453013
0.446000
0.442960
0.438285
0.423556
0.413970
0.425660
0.441559
0.446235
0.438052
0.403684
0.345702
0.276031
0.206126
0.149313
0.111672
0.103723
0.132247
0.175967
0.216648
0.241898
0.238625
0.215947
0.182280
0.128040
0.050185
-0.046606
-0.159063
-0.284144
-0.406888
-0.510927
-0.591353
-0.641619
-0.658453
-0.644892
-0.596262
-0.521914
-0.435877
-0.346800
-0.276894
-0.230135
-0.185947
-0.134044
-0.069749
0.007170
0.089935
0.173634
0.245644
0.298716
0.323967
0.312043
0.272064
0.215719
0.150490
0.082689
0.014420
-0.055251
-0.135444
-0.222416
-0.301673
-0.379995
-0.457849
-0.524248
-0.578254
-0.617766
-0.629923
-0.603972
-0.552770
-0.488475
-0.413192
-0.342586
-0.283668
-0.228726
-0.176823
-0.129829
-0.090084
-0.047532
0.009514
0.070068
0.126413
0.175745
0.214322
0.244248
0.267628
0.279785
0.274642
0.256172
0.220635
0.162420
0.095554
0.027052
-0.049867
-0.123747
-0.177520
-0.215629
-0.248127
-0.268233
-0.289041
-0.325513
-0.364791
-0.393781
-0.396119
-0.357075
-0.278285
-0.172141
-0.056879
0.058851
0.167099
0.260385
0.341980
0.406041
0.449294
0.476882
0.482961
0.469167
0.438306
0.389676
0.332162
0.273479
0.216199
0.159153
0.089014
-0.003803
-0.111116
-0.231054
-0.353330
-0.450589
-0.521196
-0.569124
-0.589231
-0.604661
-0.617520
-0.620793
-0.629910
-0.629676
-0.607466
-0.575201
-0.528208
-0.464615
-0.386526
-0.296982
-0.200657
-0.101761
-0.007774
0.082238
0.167107
0.241221
0.314633
0.395060
0.472447
0.531831
0.572278
0.593788
0.594723
0.590048
0.584670
0.575553
0.568305
0.570643
0.585139
0.607817
0.634470
0.662292
0.682867
0.693388
0.691518
0.671178
0.624418
0.556851
0.487647
0.428497
0.389687
0.360228
0.329835
0.308559
0.279101
0.232342
0.180673
0.122224
0.075465
0.046708
0.019821
-0.012910
-0.060371
-0.121392
-0.189427
-0.261436
-0.321288
-0.358929
-0.367346
-0.342797
-0.285750
-0.203453
-0.117883
-0.029975
0.046477
0.083417
0.095574
0.086924
0.052089
0.012811
-0.024363
-0.062004
-0.089592
-0.092397
-0.071121
-0.037454
0.004863
0.049752
0.104461
0.175769
0.245909
0.319555
0.407931
0.491630
0.574161
0.669317
0.766576
0.863369
0.946367
0.987983
0.999439
0.993361
0.962266
0.917845
0.851213
0.748810
0.628404
0.488126
0.334288
0.186995
0.038534
-0.110160
-0.254413
-0.408252
-0.571442
-0.737204
-0.898992
-1.052129
-1.188900
-1.296914
-1.370560
-1.403759
-1.396979
-1.354895
-1.287327
-1.215318
-1.138164
-1.047217
-0.947853
-0.819264
-0.659347
-0.486570
-0.292285
-0.085608
0.114523
0.306471
0.486027
0.648750
0.782249
0.879275
0.953155
1.009968
1.044102
1.036855
0.972093
0.856130
0.691771
0.482055
0.245920
-0.013361
-0.285033
-0.548757
-0.801959
-1.028508
-1.215078
-1.373826
-1.491426
-1.553382
-1.567410
-1.524391
-1.425261
-1.278670
-1.078539
-0.844040
-0.592007
-0.321035
-0.050298
0.205009
0.445353
0.659511
0.845614
1.017455
1.174333
1.296609
1.371191
1.395740
1.373295
1.320691
1.247747
1.154462
1.044343
0.922535
0.795584
0.663254
0.522509
0.376853
0.218339
0.054447
-0.082090
-0.174674
-0.226577
-0.249021
-0.269595
-0.298819
-0.328511
-0.366620
-0.416886
-0.479544
-0.554359
-0.622627
-0.671257
-0.686220
-0.643201
-0.549916
-0.427172
-0.288764
-0.150590
-0.012649
0.121083
0.247100
0.376624
0.500069
0.610188
0.714929
0.810085
0.887706
0.937505
0.953169
0.942649
0.916697
0.875549
0.812892
0.717970
0.586109
0.421983
0.233075
0.032244
-0.161808
-0.336454
-0.485149
-0.613971
-0.732740
-0.843560
-0.954613
-1.062394
-1.160121
-1.251535
-1.316764
-1.331493
-1.281694
-1.156145
-0.966302
-0.725490
-0.444466
-0.151284
0.140028
0.414974
0.647836
0.826457
0.946863
1.006949
1.020042
0.993857
0.928861
0.839551
0.742525
0.655085
0.604351
0.590791
0.579803
0.542863
0.459164
0.320756
0.130212
-0.107794
-0.378063
-0.661191
-0.932396
-1.171103
-1.364687
-1.498652
-1.573467
-1.600588
-1.578377
-1.510342
-1.416121
-1.320498
-1.249189
-1.225810
-1.267425
-1.364451
-1.482518
-1.585623
-1.636824
-1.612977
-1.515951
-1.346447
-1.113819
-0.851966
-0.592217
-0.359588
-0.177694
-0.051911
0.033425
0.102630
0.175808
0.267223
0.389733
0.538195
0.702554
0.879539
1.044834
1.174592
1.260161
1.294764
1.284009
1.234912
1.144666
1.011636
0.845406
0.663278
0.482086
0.304634
0.131390
-0.031333
-0.175819
-0.304641
-0.431827
-0.569767
-0.726177
-0.900122
-1.069391
-1.208033
-1.307163
-1.353688
-1.328905
-1.232814
-1.072663
-0.853595
-0.598989
-0.331525
-0.063827
0.167866
0.346020
0.484896
0.586831
0.675908
0.783455
0.910875
1.068922
1.257129
1.447440
1.618814
1.748104
1.818945
1.832038
1.791123
1.714438
1.616477
1.499111
1.374030
1.240765
1.085758
0.896382
0.671470
0.421073
0.147998
-0.136767
-0.419661
-0.704193
-0.972825
-1.204051
-1.392257
-1.519677
-1.572748
-1.541653
-1.425923
-1.243328
-1.010699
-0.761237
-0.525569
-0.317490
-0.151493
-0.022437
0.077395
0.154782
0.230532
0.310257
0.397931
0.500335
0.610921
0.714727
0.805675
0.881659
0.934731
0.957643
0.946187
0.905507
0.855007
0.808715
0.764995
0.728757
0.711690
0.711222
0.703975
0.675218
0.628693
0.573049
0.512496
0.445396
0.365905
0.269113
0.172088
0.099845
0.041863
-0.019158
-0.090232
-0.173698
-0.255760
-0.332445
-0.395804
-0.441628
-0.495869
-0.556423
-0.604585
-0.650409
-0.688517
-0.698337
-0.669813
-0.597570
-0.494465
-0.369383
-0.224896
-0.080409
0.051452
0.160636
0.242465
0.313774
0.379003
0.432309
0.483979
0.531673
0.567678
0.603216
0.639922
0.671251
0.702814
0.730870
0.741625
0.736247
0.710062
0.658627
0.602048
0.535416
0.444236
0.343002
0.234987
0.125103
0.029012
-0.059129
-0.144932
-0.227930
-0.321683
-0.432736
-0.547297
-0.643855
-0.708149
-0.736672
-0.734100
-0.711655
-0.670273
-0.597796
-0.504978
-0.411926
-0.320511
-0.245229
-0.200339
-0.170881
-0.149839
-0.138149
-0.123887
-0.101676
-0.080166
-0.071749
-0.084842
-0.121782
-0.176490
-0.232367
-0.278192
-0.311624
-0.326821
-0.328224
-0.317469
-0.285672
-0.241250
-0.188178
-0.119909
-0.039717
0.049127
0.126046
0.168130
0.183561
0.177248
0.155038
0.133061
0.108746
0.090043
0.080457
0.067131
0.061520
0.073911
0.103136
0.152935
0.213489
0.276614
0.333895
0.366627
0.362652
0.309113
0.201800
0.055443
-0.112423
-0.282627
-0.445584
-0.599422
-0.732219
-0.834388
-0.898214
-0.918321
-0.897513
-0.837894
-0.749051
-0.638465
-0.503564
-0.348322
-0.183027
-0.025915
0.106882
0.212792
0.304441
0.390478
0.465528
0.536836
0.607443
0.665892
0.714756
0.742111
0.735097
0.704002
0.656074
0.597859
0.531694
0.447527
0.342786
0.221679
0.092624
-0.046953
-0.216924
-0.417989
-0.627471
-0.833914
-1.027498
-1.193260
-1.332135
-1.445059
-1.523849
-1.562893
-1.555879
-1.497195
-1.384505
-1.220379
-1.013234
-0.767046
-0.497711
-0.235858
0.000044
0.205318
0.381835
0.531465
0.653274
0.754275
0.843352
0.918868
0.966563
0.990177
0.994619
0.971707
0.933832
0.885904
0.821142
0.752640
0.687644
0.631533
0.587346
0.542924
0.501543
0.459459
0.413635
0.369214
0.318012
0.274994
0.247172
0.212337
0.184515
0.178436
0.188022
0.214442
0.255824
0.297440
0.321054
0.315677
0.271255
0.179373
0.043771
-0.129940
-0.319082
-0.501678
-0.673518
-0.817537
-0.934202
-1.037774
-1.122642
-1.195353
-1.253568
-1.282325
-1.276012
-1.221070
-1.116328
-0.974647
-0.788544
-0.551240
-0.269748
0.042839
0.369220
0.680872
0.957455
1.195227
1.383668
1.512022
1.576083
1.566731
1.496592
1.381097
1.220712
1.029700
0.823491
0.607462
0.394239
0.199019
0.028815
-0.118711
-0.246364
-0.359054
-0.464964
-0.567601
-0.665796
-0.760484
-0.850028
-0.930688
-0.993579
-1.024440
-1.024206
-0.994280
-0.924608
-0.826880
-0.718632
-0.607344
-0.507045
-0.417968
-0.336373
-0.269039
-0.204511
-0.144425
-0.088547
-0.014433
0.077449
0.182425
0.300492
0.414819
0.524938
0.628511
0.706599
0.758268
0.775336
0.746111
0.679012
0.581051
0.455034
0.305404
0.136603
-0.044122
-0.225783
-0.403001
-0.572036
-0.726342
-0.878076
-1.029109
-1.166815
-1.295638
-1.402015
-1.472388
-1.516809
-1.525927
-1.488987
-1.402949
-1.261502
-1.074230
-0.856798
-0.619494
-0.367227
-0.107478
0.153674
0.417164
0.661950
0.877511
1.078343
1.250418
1.389060
1.502686
1.575397
1.603453
1.592464
1.549446
1.484217
1.394205
1.272864
1.122533
0.948354
0.755705
0.563524
0.384903
0.215167
0.064835
-0.050427
-0.128515
-0.158675
-0.133424
-0.055570
0.067876
0.217974
0.379995
0.539211
0.678321
0.788206
0.861385
0.893649
0.880556
0.818834
0.723913
0.596026
0.427224
0.228731
0.007559
-0.225537
-0.451853
-0.666245
-0.862400
-1.028864
-1.163765
-1.259855
-1.302874
-1.301237
-1.256114
-1.161660
-1.033071
-0.861463
-0.627900
-0.350616
-0.046446
0.269415
0.576624
0.856246
1.080224
1.248325
1.371770
1.437467
1.451729
1.435129
1.391643
1.321738
1.214192
1.049598
0.819542
0.533141
0.215177
-0.121491
-0.471953
-0.827091
-1.175449
-1.500661
-1.795245
-2.060839
-2.288089
-2.454319
-2.538953
-2.549708
-2.500610
-2.401012
-2.246706
-2.017351
-1.729780
-1.402697
-1.024881
-0.600539
-0.142296
0.329040
0.790790
1.225419
1.602768
1.906471
2.117122
2.214850
2.204797
2.096081
1.900627
1.625214
1.285974
0.914237
0.504624
0.061578
-0.373518
-0.767934
-1.093380
-1.345647
-1.531749
-1.618020
-1.576170
-1.428410
-1.222201
-0.993079
-0.729823
-0.396896
0.009444
0.457634
0.906758
1.328061
1.723880
2.086032
2.388332
2.616752
2.745575
2.789061
2.771994
2.667721
2.491204
2.274942
1.998126
1.663095
1.285746
0.878238
0.481718
0.126580
-0.177356
-0.443417
-0.670434
-0.808608
-0.855835
-0.858641
-0.814453
-0.698489
-0.506074
-0.253572
0.016931
0.272004
0.505568
0.712712
0.867019
0.937158
0.946744
0.941834
0.911675
0.836626
0.712246
0.529651
0.306141
0.075149
-0.161453
-0.408109
-0.652895
-0.885289
-1.109033
-1.332777
-1.537817
-1.697500
-1.815334
-1.899734
-1.941584
-1.924750
-1.853676
-1.749636
-1.619177
-1.471651
-1.308460
-1.121656
-0.923629
-0.719758
-0.521264
-0.362281
-0.253799
-0.196753
-0.170567
-0.136432
-0.092011
-0.055304
-0.033795
-0.029586
-0.041042
-0.057642
-0.086866
-0.150459
-0.247251
-0.370462
-0.516351
-0.664344
-0.805792
-0.936952
-1.035380
-1.105052
-1.156253
-1.163033
-1.105519
-0.987217
-0.815376
-0.599581
-0.343339
-0.048988
0.272717
0.613828
0.955172
1.270331
1.539666
1.737692
1.852954
1.901818
1.907429
1.882881
1.843603
1.801987
1.750786
1.686024
1.614249
1.532654
1.448019
1.362684
1.267528
1.163489
1.042382
0.908884
0.788011
0.690284
0.613598
0.558189
0.527328
0.520314
0.522886
0.518210
0.496701
0.455553
0.389388
0.296805
0.173828
0.006663
-0.194403
-0.418146
-0.650775
-0.856048
-1.030929
-1.177519
-1.282494
-1.357777
-1.400795
-1.398924
-1.361283
-1.293715
-1.195754
-1.056645
-0.881296
-0.691453
-0.496232
-0.314805
-0.156758
-0.010868
0.127306
0.260571
0.377470
0.464209
0.518917
0.532478
0.508397
0.461638
0.409033
0.377471
0.382381
0.410904
0.452053
0.507697
0.566614
0.617816
0.656159
0.666680
0.661302
0.647742
0.610803
0.559367
0.503256
0.448080
0.394775
0.323467
0.233221
0.129415
0.015089
-0.097134
-0.206083
-0.304044
-0.385405
-0.452037
-0.499732
-0.540178
-0.572676
-0.586938
-0.599095
-0.602368
-0.587171
-0.576416
-0.577585
-0.586235
-0.613823
-0.651698
-0.675311
-0.681857
-0.676947
-0.672973
-0.679986
-0.694715
-0.716225
-0.734928
-0.727446
-0.681154
-0.594415
-0.473776
-0.344486
-0.226652
-0.106480
0.027720
0.171739
0.332826
0.514019
0.705265
0.890900
1.049415
1.171224
1.256326
1.313607
1.351950
1.362938
1.337221
1.269186
1.163276
1.031181
0.875472
0.701995
0.523841
0.339375
0.149065
-0.031193
-0.193214
-0.337467
-0.465588
-0.591370
-0.705230
-0.776538
-0.800385
-0.777239
-0.707333
-0.605631
-0.479848
-0.344011
-0.216826
-0.102265
-0.010616
0.061394
0.125454
0.182034
0.249835
0.346393
0.463058
0.588374
0.700597
0.792713
0.866593
0.914054
0.942110
0.938136
0.885298
0.792247
0.650800
0.471243
0.278127
0.078698
-0.112314
-0.281583
-0.418354
-0.517484
-0.581778
-0.600014
-0.572660
-0.512340
-0.437057
-0.354760
-0.263813
-0.180581
-0.106701
-0.045679
-0.019260
-0.019026
-0.038197
-0.076072
-0.120494
-0.168889
-0.211908
-0.238794
-0.254926
-0.268486
-0.291398
-0.328104
-0.376734
-0.437989
-0.502750
-0.566109
-0.624091
-0.661498
-0.665706
-0.627831
-0.535247
-0.387721
-0.188759
0.060469
0.345234
0.653146
0.975318
1.286035
1.575944
1.836161
2.035590
2.175401
2.270790
2.325031
2.341865
2.322928
2.273363
2.195508
2.080013
1.921031
1.704301
1.412990
1.050137
0.622288
0.135522
-0.393795
-0.941582
-1.477912
-1.976368
-2.403048
-2.732702
-2.966265
-3.091346
-3.105140
-3.027753
-2.853574
-2.593357
-2.270016
-1.892900
-1.491470
-1.096119
-0.720640
-0.364567
-0.020417
0.309003
0.625097
0.930437
1.215436
1.475652
1.696591
1.862120
1.966627
2.015257
2.014556
1.962186
1.866095
1.730259
1.562861
1.391721
1.223387
1.054352
0.891629
0.729374
0.567587
0.409306
0.258040
0.122671
0.003435
-0.093123
-0.163964
-0.214698
-0.247663
-0.263093
-0.262392
-0.255378
-0.250935
-0.241349
-0.223581
-0.201837
-0.171677
-0.136140
-0.103876
-0.080963
-0.072079
-0.075586
-0.086808
-0.099900
-0.101303
-0.079326
-0.043788
-0.012927
0.004608
0.003907
-0.020174
-0.061088
-0.108315
-0.159750
-0.200898
-0.215628
-0.216095
-0.202768
-0.175180
-0.141981
-0.098260
-0.063424
-0.051033
-0.037005
-0.031861
-0.044954
-0.062021
-0.091011
-0.139173
-0.206507
-0.291141
-0.386296
-0.476308
-0.546915
-0.592271
-0.598817
-0.565384
-0.505766
-0.420897
-0.325975
-0.231521
-0.131689
-0.028585
0.079898
0.195861
0.319540
0.450934
0.577886
0.691278
0.789473
0.865691
0.913386
0.936299
0.938169
0.924142
0.890475
0.829922
0.738039
0.600333
0.417971
0.210827
-0.017826
-0.257936
-0.510437
-0.773459
-1.022920
-1.251807
-1.446794
-1.588943
-1.687605
-1.744885
-1.753302
-1.708412
-1.609983
-1.471575
-1.310021
-1.137479
-0.947635
-0.737685
-0.518617
-0.291833
-0.068557
0.140926
0.333809
0.482738
0.589116
0.663697
0.693156
0.690818
0.662997
0.607353
0.544929
0.477128
0.402313
0.335448
0.272790
0.209197
0.154723
0.109366
0.073362
0.052086
0.037825
0.036189
0.048112
0.050217
0.037826
0.016550
-0.012440
-0.029040
-0.017583
0.019357
0.075234
0.151453
0.248011
0.348076
0.435984
0.506825
0.549143
0.558027
0.535817
0.487654
0.426867
0.365846
0.314645
0.284953
0.281914
0.300384
0.322829
0.326803
0.306931
0.264614
0.200320
0.125739
0.044611
-0.042127
-0.116942
-0.172118
-0.215137
-0.245530
-0.252778
-0.235710
-0.198537
-0.147101
-0.108992
-0.098237
-0.102679
-0.130267
-0.175389
-0.219343
-0.270778
-0.313095
-0.330163
-0.340917
-0.337176
-0.304678
-0.256282
-0.195962
-0.125589
-0.064100
-0.017574
0.016561
0.028017
0.025445
0.016561
-0.007987
-0.046564
-0.102441
-0.170242
-0.226821
-0.266566
-0.290180
-0.291348
-0.270774
-0.236639
-0.197829
-0.164162
-0.139379
-0.116233
-0.098464
-0.079994
-0.048665
-0.012894
0.030125
0.081093
0.125748
0.162689
0.187705
0.198927
0.197057
0.172976
0.139777
0.111020
0.088810
0.082731
0.092083
0.115230
0.148195
0.179992
0.212256
0.243585
0.266264
0.284266
0.290579
0.272109
0.218803
0.129493
0.017738
-0.112487
-0.249959
-0.374105
-0.486094
-0.581249
-0.648817
-0.696044
-0.723398
-0.726203
-0.718020
-0.711473
-0.696510
-0.673832
-0.643905
-0.598549
-0.554127
-0.512745
-0.466219
-0.421096
-0.360308
-0.286662
-0.213016
-0.128381
-0.049357
0.006521
0.049306
0.081570
0.107989
0.138617
0.171816
0.207587
0.259257
0.328227
0.401172
0.482066
0.559921
0.620007
0.675885
0.717968
0.737841
0.750233
0.744388
0.723580
0.696928
0.653675
0.609955
0.574418
0.540284
0.514567
0.481835
0.437648
0.384810
0.305319
0.209696
0.113372
0.018684
-0.074367
-0.169990
-0.258599
-0.345338
-0.440727
-0.531907
-0.618880
-0.704917
-0.787447
-0.867406
-0.941052
-1.015165
-1.087175
-1.148897
-1.202670
-1.233531
-1.237973
-1.240077
-1.250598
-1.265561
-1.285901
-1.308579
-1.317463
-1.302500
-1.268365
-1.219034
-1.147959
-1.064961
-0.978222
-0.876520
-0.766635
-0.647866
-0.502444
-0.348138
-0.202715
-0.062905
0.054228
0.150085
0.227238
0.273998
0.306964
0.327304
0.333383
0.332214
0.306731
0.265583
0.225136
0.178143
0.136995
0.106367
0.089067
0.097250
0.124137
0.170662
0.232853
0.306733
0.393706
0.486523
0.588225
0.692967
0.795838
0.900345
0.987318
1.049976
1.080370
1.063770
1.013036
0.927467
0.816881
0.710737
0.609035
0.516218
0.438364
0.362146
0.289903
0.221167
0.151495
0.083694
0.014257
-0.050739
-0.104044
-0.159688
-0.225619
-0.304174
-0.393251
-0.479522
-0.570001
-0.659312
-0.725242
-0.764286
-0.763818
-0.735061
-0.702563
-0.633826
-0.527916
-0.433929
-0.371739
-0.312822
-0.201067
-0.058684
0.035770
0.081595
0.111053
0.145889
0.188207
0.200598
0.170205
0.131161
0.103807
0.063360
-0.031328
-0.199662
-0.398155
-0.571165
-0.748617
-0.941733
-1.087623
-1.141630
-1.106326
-1.052552
-1.032913
-0.979607
-0.849382
-0.685490
-0.514584
-0.354900
-0.220233
-0.060082
0.157818
0.385770
0.607644
0.816893
0.978681
1.116855
1.247080
1.357433
1.435755
1.438093
1.388061
1.290567
1.082254
0.834897
0.610686
0.357483
0.094462
-0.125775
-0.290135
-0.433686
-0.555260
-0.608800
-0.648779
-0.670288
-0.609500
-0.532347
-0.425268
-0.245711
-0.061713
0.124390
0.350238
0.638744
0.950396
1.205236
1.464049
1.738528
1.919487
2.013941
2.029840
1.951985
1.845608
1.714214
1.517357
1.269999
0.988975
0.687377
0.382739
0.087454
-0.183050
-0.437187
-0.709093
-0.982870
-1.237007
-1.497925
-1.707173
-1.825240
-1.928579
-1.979312
-1.901692
-1.753230
-1.576713
-1.351800
-1.060956
-0.743225
-0.433911
-0.117116
0.161337
0.392563
0.628464
0.819945
0.949702
1.084603
1.205944
1.264160
1.295489
1.311855
1.263927
1.197762
1.127390
0.976591
0.817609
0.673356
0.461536
0.242936
0.029479
-0.213670
-0.414969
-0.567171
-0.681732
-0.750936
-0.788577
-0.742518
-0.621879
-0.502876
-0.378963
-0.274923
-0.212499
-0.135580
-0.064973
-0.021252
0.044445
0.115052
0.184490
0.268891
0.325470
0.393739
0.472295
0.460371
0.464112
0.521393
0.500118
0.498481
0.534954
0.500118
0.478375
0.453125
0.378778
0.331785
0.285727
0.256970
0.288065
0.324538
0.352828
0.381819
0.408706
0.419694
0.393743
0.346516
0.297185
0.220733
0.064323
-0.094191
-0.163161
-0.241483
-0.357212
