EVENT_NAME: 202302060117
EVENT_ID: 13194
EVENT_DATE_YYYYMMDD: 2023/02/06
EVENT_TIME_HHMMSS: 01:17:32.00000
EVENT_LATITUDE_DEGREE: 37.288
EVENT_LONGITUDE_DEGREE: 37.043
EVENT_DEPTH_KM: 8.6
HYPOCENTER_REFERENCE: AFAD
MAGNITUDE_W: 7.7
MAGNITUDE_W_REFERENCE: AFAD
MAGNITUDE_L: 
MAGNITUDE_L_REFERENCE: 
FOCAL_MECHANISM: 
NETWORK: TK
STATION_CODE: 3803
STATION_NAME: 
STATION_LATITUDE_DEGREE: 38.39485
STATION_LONGITUDE_DEGREE: 35.479116
STATION_ELEVATION_M: 1271.0
LOCATION: Kahramanmaras_Pazarck_Turkiye
SENSOR_DEPTH_M: 
VS30_M/S: 499
SITE_CLASSIFICATION_EC8: C
MORPHOLOGIC_CLASSIFICATION: 
EPICENTRAL_DISTANCE_KM: 184.40
EARTHQUAKE_BACKAZIMUTH_DEGREE: 
DATE_TIME_FIRST_SAMPLE_YYYYMMDD_HHMMSS: 2023/02/06 01:17:43.8056830
DATE_TIME_FIRST_SAMPLE_PRECISION: millisecond
SAMPLING_INTERVAL_S: 0.01
NDATA: 13501
DURATION_S: 
STREAM: HNN
UNITS: cm/s^2
INSTRUMENT: sensor = ACEBOX/SARA | digitizer = 
INSTRUMENT_ANALOG/DIGITAL: 
INSTRUMENTAL_FREQUENCY_HZ: 
INSTRUMENTAL_DAMPING: 
FULL_SCALE_G: 
N_BIT_DIGITAL_CONVERTER: 
PGA_CM/S^2: 23.632
TIME_PGA_S: 
BASELINE_CORRECTION: BASELINE REMOVED
FILTER_TYPE: BUTTERWORTH
FILTER_ORDER: 
LOW_CUT_FREQUENCY_HZ: 
HIGH_CUT_FREQUENCY_HZ: 
LATE/NORMAL_TRIGGERED: 
DATABASE_VERSION: 
HEADER_FORMAT: DYNA 1.2
DATA_TYPE: Acceleration
PROCESSING: Automatic Paolucci et al., 2011
DATA_TIMESTAMP_YYYYMMDD_HHMMSS: 
DATA_LICENSE: U (unknown license)
DATA_CITATION: Turkish Accelerometric Archive v 1.0 - Disaster And Emergency Management Presidency, Earthquake Department
DATA_CREATOR: AFAD
ORIGINAL_DATA_MEDIATOR_CITATION: : AFAD - Disaster And Emergency Management Presidency
ORIGINAL_DATA_MEDIATOR: AFAD PROCESS SERVICE
ORIGINAL_DATA_CREATOR_CITATION: AFAD PROCESS SERVICE
ORIGINAL_DATA_CREATOR: network: TK
USER1: GuestUser
USER2: 
USER3: 
USER4: 
USER5: 
[...]
4.192934
5.336438
5.723607
5.484200
4.716177
3.297263
2.013951
1.161294
0.565813
0.455696
0.610471
0.794705
1.230504
1.694827
2.066566
2.602430
3.058804
3.347311
3.631843
3.740794
3.764643
3.800649
3.732381
3.717887
3.924332
4.362936
4.838715
5.123014
5.213729
5.139382
4.986246
4.730707
4.277376
3.777518
3.347333
2.962270
2.543774
2.054204
1.563231
1.232643
1.266545
1.586848
2.121544
2.906169
3.760933
4.495525
5.026246
5.492673
5.733252
5.623368
5.612381
5.243918
4.368114
3.661814
2.633809
1.565357
1.070643
0.461602
0.219156
0.577335
0.657996
0.833813
1.165338
1.159495
1.116711
0.999814
0.774201
0.788931
0.767891
0.400597
0.055045
-0.108144
-0.298687
-0.325105
-0.247951
-0.318322
-0.221763
-0.128944
-0.171026
-0.073298
-0.318082
-0.882234
-1.477013
-2.381807
-3.050933
-3.331723
-3.925566
-4.710422
-5.582953
-6.623583
-7.295983
-7.426674
-7.302526
-7.023137
-6.872103
-6.932889
-6.808741
-6.573073
-6.422973
-6.191513
-5.985770
-5.744256
-5.311496
-5.033042
-4.922923
-4.915440
-5.316401
-5.924974
-6.359134
-6.675227
-7.260186
-8.272527
-9.189946
-9.971529
-10.765503
-10.938045
-10.478632
-9.884084
-9.250492
-8.653139
-7.958526
-7.167121
-6.471105
-5.741656
-5.072761
-4.685124
-4.318996
-3.726786
-2.956657
-1.894748
-0.561869
0.812393
2.271756
3.601597
4.639190
5.612489
6.243042
6.576672
7.056191
7.311967
7.280639
7.202786
6.697318
6.026087
5.673756
5.467080
5.616478
6.198634
6.870101
7.720891
8.691151
9.591272
10.529501
11.361587
11.811181
11.882490
11.711352
11.459086
11.495092
12.035398
12.643506
12.827974
12.441274
11.565003
10.535829
9.523255
8.524941
7.601210
6.719795
6.003208
5.494466
4.955799
4.464592
4.017573
3.341666
2.592815
1.978163
1.464512
1.055368
0.591983
-0.098419
-0.961831
-1.921801
-2.998670
-4.205063
-5.399298
-6.469621
-7.434734
-8.315681
-9.166936
-9.871600
-10.186991
-10.094406
-9.640604
-9.007947
-8.630130
-8.787240
-9.536092
-10.676319
-11.790830
-12.602806
-12.795220
-12.075591
-10.599394
-8.659810
-6.523370
-4.503126
-2.679974
-0.996165
0.520713
1.839565
2.925321
3.776110
4.534082
5.277559
5.873977
6.249690
6.326143
5.944120
5.117180
3.733335
1.909718
0.214923
-1.220123
-1.961961
-1.557724
-0.735458
0.334400
1.936146
3.612708
5.261447
6.807316
8.081045
9.225250
10.047282
10.480744
10.656560
10.585254
10.359173
9.971538
9.559823
9.272019
9.078904
9.112338
9.351748
9.736580
10.250467
10.559549
10.464862
9.929234
8.930687
7.834413
6.940841
6.266337
5.819552
5.607265
5.827270
6.467408
7.240343
8.112876
8.932570
9.607076
10.284622
10.725097
10.741231
10.488263
10.066728
9.641920
9.269716
8.719592
7.880729
6.778610
5.486647
4.223442
3.238923
2.833988
3.000920
3.516678
4.449998
5.297982
5.657563
5.959397
5.842500
5.320432
5.099494
4.573218
3.610676
2.668007
1.199527
-0.689319
-2.619782
-4.849272
-7.121078
-9.273415
-11.443753
-13.312494
-14.766010
-15.944581
-16.718448
-17.066104
-17.097197
-16.685245
-15.733923
-14.299809
-12.340587
-9.808795
-6.715422
-3.183679
0.457247
3.784417
6.395933
8.144505
9.033871
9.182099
8.928197
8.356330
7.467200
6.397345
5.151675
3.679455
1.958007
0.373798
-1.038337
-2.624650
-3.666917
-4.022287
-4.334172
-4.241820
-3.809528
-3.272027
-2.288908
-1.168316
0.013998
1.399248
2.607981
3.641366
4.459658
4.742320
4.662362
4.340893
3.560011
2.325563
0.704414
-1.272808
-3.396622
-5.565791
-7.772369
-9.888233
-11.928346
-13.988566
-15.895650
-17.538074
-19.102410
-20.567383
-21.766528
-22.618016
-22.892259
-22.560967
-21.757404
-20.390858
-18.499904
-16.365802
-14.185875
-11.979061
-9.945725
-8.137770
-6.203330
-4.302089
-2.420721
-0.165511
1.953628
3.864455
5.969800
7.632801
8.703127
9.569113
9.901574
9.684144
9.192937
8.380493
7.456527
6.609481
5.667513
4.543651
3.361339
2.323281
1.471325
0.736735
0.172817
-0.091840
0.117176
0.771810
1.592673
2.183013
2.089963
1.318199
0.297675
-0.515470
-0.757215
-0.403713
0.408267
1.516934
2.688728
3.721645
4.452029
4.655200
4.150667
3.132014
1.601812
-0.367695
-2.250931
-4.096525
-5.437585
-5.795060
-5.870107
-5.287483
-4.058644
-2.969848
-1.090117
1.455469
3.795547
6.410571
8.677470
10.134730
11.691587
13.227169
14.327887
15.210006
15.782109
16.177228
16.809884
17.366089
17.276546
16.568142
15.574505
14.617106
13.872229
13.288906
12.889348
12.790453
12.935876
13.245893
13.741077
14.238365
14.423066
14.314351
14.211950
14.305937
14.542074
14.667624
14.359481
13.493497
12.194053
10.574073
8.905697
7.530737
6.220772
4.673503
2.986189
1.205824
-0.440575
-1.640889
-2.489338
-3.002054
-2.992701
-2.468993
-1.489615
-0.104599
1.550219
3.484659
5.706436
7.996481
10.286994
12.509706
14.402296
15.930396
17.159236
18.160357
19.028682
19.619722
19.853755
19.845339
19.624636
19.076383
17.980576
16.397302
14.627225
12.799866
11.069300
9.559439
8.197805
7.060382
6.405985
6.364137
6.761827
7.352400
7.970328
8.355393
8.464110
8.610001
9.004184
9.594290
10.147689
10.507972
10.695713
10.837629
11.102055
11.381678
11.591629
11.730038
11.489462
10.992410
10.569940
10.057691
9.477408
8.877485
8.110164
7.276912
6.278833
4.761957
2.769071
0.725450
-1.139783
-2.765374
-3.964987
-4.823489
-5.497292
-5.972133
-6.479238
-6.970444
-6.985640
-6.530202
-5.958566
-5.417324
-5.030856
-4.951364
-5.096317
-5.476703
-6.053480
-6.431295
-6.677950
-7.063948
-7.487821
-8.133100
-9.078809
-9.826024
-10.000669
-9.624488
-8.851319
-7.754107
-6.424735
-5.011897
-3.634362
-2.537150
-1.963878
-1.962240
-2.590218
-3.947410
-5.862676
-7.983450
-10.070323
-11.945142
-13.631520
-15.110287
-16.066282
-16.317847
-15.793906
-14.761222
-13.817615
-13.144745
-12.679487
-12.187343
-11.311537
-10.008584
-8.285263
-6.235561
-4.112447
-2.116752
-0.331942
1.275883
2.548676
3.336808
3.672309
3.651268
3.610355
3.860519
4.365990
4.835456
5.283179
5.798236
6.137010
6.364028
6.286175
5.922154
5.762939
5.269394
4.653807
4.492021
4.075162
3.798113
3.897245
3.742940
3.782686
3.792040
3.403470
3.193054
2.979130
2.499613
1.779987
0.551617
-0.849996
-1.878001
-2.634568
-3.200356
-3.481379
-3.667481
-3.835813
-3.921382
-4.151437
-4.675609
-5.391495
-6.262856
-7.191264
-8.011891
-8.731284
-9.406022
-10.024180
-10.535494
-10.954457
-11.351210
-11.584538
-11.532166
-11.215136
-10.361541
-8.765406
-6.591090
-4.038724
-1.460173
0.799012
2.619125
3.845393
4.492778
4.783390
4.850023
4.890004
4.973237
4.887902
4.563860
4.064705
3.419192
2.618671
1.660571
0.655946
-0.430743
-1.636200
-2.815005
-4.001525
-5.095695
-5.834025
-6.145442
-5.945310
-5.349126
-4.471917
-3.125010
-1.296714
0.703423
2.603728
4.530687
6.565192
8.377356
9.408871
9.627238
10.093899
10.581368
10.110034
9.813814
9.873200
9.375914
9.002541
8.720349
8.174200
7.846184
7.700062
7.820235
8.332720
9.201044
10.488099
11.584610
11.869610
11.320655
9.991753
7.972213
5.463570
2.623869
-0.474411
-3.647740
-6.691311
-9.310307
-11.122702
-12.164034
-12.675347
-12.917794
-13.077476
-13.078410
-13.033052
-12.850922
-12.534593
-12.606134
-12.509808
-11.580463
-10.411475
-9.231265
-8.141769
-7.459781
-6.976988
-6.783637
-7.052502
-7.628110
-8.585275
-9.845441
-11.295450
-13.012222
-14.786742
-16.501176
-18.119052
-19.270970
-19.967684
-20.460528
-20.617404
-20.502842
-20.107724
-19.106836
-17.755487
-16.489006
-15.443463
-14.771061
-13.994853
-12.365752
-10.211309
-7.458813
-3.127483
1.822474
5.942684
9.704951
12.990739
15.418725
17.470999
18.764834
19.123714
18.864668
17.900957
16.815905
15.852662
14.492197
12.946564
11.417064
9.738868
8.103925
6.578867
5.036274
3.610813
2.512435
1.778780
1.450063
1.686901
2.426403
3.445059
4.559571
5.570746
6.615587
7.923684
9.512338
11.461974
13.676036
15.742104
17.338239
18.558194
19.355678
19.751264
20.224939
20.425304
20.375273
20.718722
20.745143
20.446117
20.231025
19.516308
18.830582
18.466561
17.766807
17.001356
16.425047
15.836814
15.408967
15.228243
14.978081
14.722074
14.558184
14.080069
13.416788
12.636841
11.372467
9.865411
8.223454
6.537076
5.255634
4.183909
3.152631
2.397700
1.865813
1.633420
1.905795
2.646466
3.771500
5.041721
6.260975
7.443991
8.409341
9.010903
9.329102
9.244469
8.639169
7.754247
6.841972
5.951907
5.149750
4.458412
3.898703
3.629136
3.527669
3.340867
3.150557
2.925411
2.500369
2.018047
1.591368
1.102967
0.522450
-0.041001
-0.595566
-1.285968
-2.084619
-2.856850
-3.622067
-4.407157
-5.243682
-6.209731
-7.191678
-8.018384
-8.654078
-8.970404
-8.852803
-8.438279
-7.951512
-7.722156
-7.919012
-8.291449
-8.775175
-9.401984
-9.931767
-10.399594
-10.898049
-11.329403
-11.821078
-12.466824
-13.314104
-14.382557
-15.386013
-16.303900
-17.397602
-18.651690
-19.901335
-20.864344
-21.446265
-21.864527
-21.948458
-21.437844
-20.541464
-19.361722
-17.871263
-16.291026
-14.751002
-13.385157
-12.434302
-11.926493
-11.974187
-12.398528
-12.704567
-13.140364
-13.712464
-14.060353
-14.583123
-15.098411
-15.254820
-15.455417
-15.461494
-15.015408
-14.616782
-14.687387
-14.639458
-13.620802
-12.557724
-12.007364
-11.086669
-10.145167
-9.314250
-8.047535
-6.727982
-5.370788
-3.969172
-2.850918
-1.799764
-0.824361
0.090022
1.238903
2.351779
3.047795
3.394517
3.493181
3.353138
3.162594
3.026993
2.777766
2.466350
2.222968
1.838373
1.246399
0.547113
-0.439510
-1.755554
-3.230813
-4.806839
-6.249601
-7.374398
-8.303040
-9.075738
-9.739487
-10.359283
-10.804665
-11.003859
-10.983751
-10.758136
-10.389202
-9.784134
-8.756594
-7.428156
-5.954063
-4.354187
-2.874249
-1.615016
-0.452341
0.481680
1.245497
2.048125
2.764013
3.412568
4.022546
4.332095
4.361087
4.299600
3.926227
2.933525
1.380177
-0.617385
-2.885451
-5.159830
-7.546665
-9.941449
-11.746362
-12.691136
-12.859702
-12.580080
-12.194780
-11.798960
-11.485203
-10.887850
-9.800925
-8.883503
-8.128571
-7.113656
-6.028601
-4.987033
-4.242154
-4.080832
-4.407446
-4.854465
-4.993807
-5.130343
-5.200481
-4.952187
-4.997075
-4.866849
-4.654092
-5.161197
-5.383537
-5.651467
-6.570990
-7.131869
-7.903866
-8.833677
-8.996866
-9.192085
-9.172445
-8.131111
-6.943419
-5.896941
-4.456048
-3.090203
-2.118774
-1.173998
-0.482190
0.040582
0.849521
1.559097
1.979232
2.212797
2.002615
1.546945
1.202329
0.912188
0.775418
0.929959
1.219401
1.545550
1.901157
2.193405
2.244140
1.965455
1.531762
1.027930
0.451388
-0.056185
-0.462290
-0.740507
-0.770198
-0.471871
0.288205
1.497639
2.885461
4.227926
5.434789
6.388216
6.947694
7.199495
7.366895
7.506239
7.666392
7.888033
7.989502
7.793815
7.192256
6.150690
4.861300
3.496626
2.092909
0.608064
-1.012150
-2.688241
-4.285309
-5.649281
-6.743685
-7.680743
-8.477757
-9.173536
-9.865809
-10.715894
-11.801881
-12.824743
-13.613574
-14.088415
-14.091920
-14.000972
-14.097061
-14.264459
-14.708672
-15.511063
-16.550291
-17.898365
-19.379001
-20.686394
-21.668342
-22.149963
-22.238571
-22.202798
-22.033762
-21.780324
-21.575516
-21.451603
-21.389177
-21.179226
-20.825957
-20.440892
-19.820860
-19.031559
-18.299305
-17.655192
-17.073270
-16.448095
-15.847702
-15.376599
-14.964180
-14.445382
-13.845457
-13.239453
-12.411108
-11.625081
-10.908023
-10.208500
-9.909706
-9.483726
-9.403533
-9.443277
-8.689046
-9.203398
-9.552223
-8.412226
-9.121799
-9.321461
-7.665006
-7.370186
-6.482457
-4.542640
-3.346298
-1.885765
-0.688254
-0.074067
0.601842
0.970541
1.220472
1.505238
1.984991
2.598944
2.843965
3.188584
3.492054
3.397133
3.601941
3.507488
3.075900
3.363939
3.322558
3.027741
3.731706
4.465831
5.141740
6.383672
7.249892
7.268598
7.125515
7.356975
7.403736
7.089280
7.033638
6.851511
6.618650
6.956021
7.541217
8.147688
8.361380
8.107945
8.203102
8.398558
8.247292
8.208717
8.345723
8.580925
9.072835
9.680242
10.185947
10.738645
11.525374
12.244068
12.856150
13.686366
14.379342
14.609634
14.537158
14.016726
12.829037
11.056154
8.928600
6.565613
4.012548
1.418335
-1.086568
-3.291509
-5.276914
-7.378750
-9.457908
-11.342780
-12.945927
-14.058800
-14.712964
-14.862827
-14.405518
-13.457001
-12.193793
-10.768798
-9.264779
-7.871579
-6.763613
-5.926150
-5.315938
-4.876164
-4.556795
-4.229478
-3.826644
-3.343851
-2.641757
-1.681784
-0.412731
1.068610
2.503191
3.848929
4.929775
5.739183
6.427483
6.929915
7.415045
7.976394
8.569772
8.974944
9.060282
9.322136
9.598486
9.722166
10.186254
10.444835
10.447642
11.031202
11.684199
11.989539
12.430482
12.817652
12.922160
13.054958
13.126735
12.921463
12.533594
12.022281
11.520787
11.134088
10.822671
10.586537
10.364898
10.243559
10.365135
10.543523
10.666736
10.786909
10.771947
10.710927
10.831334
10.922516
10.915270
10.963434
10.956187
11.013936
11.404379
12.179418
13.247639
14.200598
14.708641
14.772936
14.411721
13.622890
12.334669
10.556642
8.478185
6.203105
3.777928
1.359764
-0.818992
-2.489472
-3.510463
-4.102671
-4.470666
-4.556001
-4.505266
-4.454530
-4.271933
-4.004000
-3.742848
-3.436806
-3.159755
-2.964766
-2.765102
-2.615471
-2.587414
-2.668306
-3.049161
-3.834952
-4.876518
-6.179469
-7.756196
-9.497283
-11.328382
-13.182159
-15.033131
-16.822380
-18.513668
-20.061872
-21.317830
-22.353551
-23.210183
-23.631718
-23.573267
-23.063120
-21.920786
-20.194893
-18.105445
-15.686578
-13.057994
-10.480144
-8.034156
-5.790168
-3.928205
-2.428395
-1.075175
0.296515
1.749099
3.231608
4.535497
5.526097
6.269808
6.889605
7.583751
8.394795
9.109748
9.578513
9.630651
9.190880
8.426364
7.449326
6.416178
5.581055
5.122814
5.134271
5.615193
6.489129
7.575586
8.694073
9.725822
10.592510
11.319387
11.852913
12.156383
12.351371
12.462426
12.455648
12.342725
12.064741
11.548050
10.776988
9.706900
8.477829
7.274008
5.952587
4.806514
4.045271
3.318163
3.142816
3.443481
3.434364
3.744848
4.065853
3.722874
3.861283
4.247985
4.123606
4.375173
4.875968
5.115144
5.600742
6.158350
6.402670
6.587371
6.658680
6.445458
6.198102
5.926665
5.451590
4.945888
4.361863
3.550822
2.703308
1.757366
0.650103
-0.457159
-1.547589
-2.474360
-3.044824
-3.249395
-3.140444
-2.741819
-2.132775
-1.499651
-0.792413
-0.059224
0.511711
0.991230
1.282543
1.522887
2.018539
2.622439
3.366149
4.100507
4.388079
4.220682
3.526539
2.198572
0.424987
-1.569069
-3.529224
-5.221681
-6.450284
-7.191888
-7.620437
-7.813786
-7.802796
-7.633759
-7.299428
-6.835105
-6.281005
-5.478845
-4.210961
-2.530893
-0.582893
1.547937
3.721551
5.882541
7.981808
9.864111
11.448790
12.732572
13.755203
14.662805
15.603372
16.552123
17.370181
17.943219
18.244351
18.339976
18.163928
17.517947
16.399696
14.995277
13.460867
11.859357
10.217166
8.457609
6.498156
4.510179
2.620163
0.868789
-0.498690
-1.294067
-1.686611
-2.112121
-2.710641
-3.353582
-3.894587
-4.045853
-4.014055
-3.870035
-3.211894
-2.584615
-2.106966
-1.062358
0.097979
1.123882
2.553320
4.151793
5.694623
7.238154
8.385164
8.949318
9.022732
8.575245
7.814470
6.929549
5.873020
4.767862
3.709930
2.694784
1.809395
1.090704
0.502938
-0.083424
-0.650147
-0.913402
-0.871551
-0.702981
-0.326333
0.279203
1.061490
2.136258
3.409051
4.580611
5.581966
6.481385
7.217380
7.638684
7.730568
7.464040
6.737166
5.804316
4.916355
4.050839
3.332147
2.775711
2.329627
2.124822
2.118043
2.166207
2.181171
2.133010
2.062638
1.980577
1.940599
1.854329
1.574241
1.328989
1.376217
1.740708
2.385289
3.176928
3.975580
4.717420
5.343531
5.789383
6.030196
6.069241
5.852746
5.452253
4.999623
4.355746
3.544938
2.801231
2.045599
1.226141
0.539480
0.164236
0.077966
0.120051
0.407857
1.003574
1.685094
2.458497
3.297596
4.121032
5.004085
5.712492
6.105039
6.648853
7.484679
8.027791
8.055615
7.890321
7.672657
7.409870
6.981555
6.303778
5.522663
4.528558
3.342740
2.308889
1.511408
1.039373
0.952869
1.062521
1.261250
1.505803
1.705935
1.818159
2.011744
2.398213
2.841026
3.388580
3.961385
4.252464
4.291042
4.131827
3.808019
3.503850
3.143570
2.617995
2.014565
1.317149
0.575078
-0.039106
-0.524935
-0.917480
-1.229598
-1.582630
-2.046483
-2.591697
-3.141119
-3.682125
-4.221026
-4.630872
-4.966603
-5.286203
-5.375278
-5.279888
-5.162988
-4.978520
-4.769972
-4.594623
-4.397063
-4.113933
-3.771185
-3.409499
-2.910808
-2.293115
-1.794658
-1.512931
-1.504513
-1.867131
-2.514748
-3.242792
-3.946520
-4.531246
-4.786084
-4.602084
-4.093106
-3.399194
-2.648236
-1.987056
-1.477611
-1.053735
-0.627288
-0.206217
0.259976
0.887021
1.497701
1.881363
2.213591
2.626244
2.986059
3.170293
3.112312
2.798558
2.286309
1.659734
1.002999
0.403076
-0.061945
-0.403054
-0.634980
-0.768243
-0.895895
-1.024716
-1.098595
-1.098827
-1.033597
-0.988940
-0.969300
-0.922539
-0.847956
-0.636369
-0.276320
0.071806
0.296019
0.292981
0.107581
-0.142815
-0.403030
-0.497249
-0.308807
0.203911
1.028048
2.024026
3.063723
3.967585
4.657990
5.034638
5.043758
4.770216
4.074670
3.173851
2.074304
0.626866
-0.489748
-1.613143
-3.036266
-4.035748
-5.327009
-6.918933
-7.905556
-8.897089
-9.667216
-9.586555
-9.260640
-8.645051
-7.616809
-6.762746
-6.070471
-5.374689
-4.937721
-4.722626
-4.607831
-4.710934
-4.821986
-4.739221
-4.680303
-4.597069
-4.461700
-4.616706
-4.957581
-5.365790
-6.053854
-6.946491
-7.971690
-8.885602
-9.467055
-9.894435
-10.016944
-9.888588
-9.502587
-8.757942
-8.578384
-8.636364
-8.097227
-8.148427
-8.737361
-8.905928
-9.251946
-9.774248
-10.163052
-10.623163
-10.977599
-11.261895
-11.536605
-11.719434
-11.757074
-11.445421
-10.968005
-10.464639
-9.748049
-8.839277
-7.703489
-6.308420
-4.863317
-3.654117
-2.874635
-2.421301
-2.100530
-1.721777
-1.144063
-0.619888
-0.294675
0.049944
0.393627
0.658754
0.833636
0.859822
0.810960
0.568747
0.362306
0.754385
1.528723
2.460640
3.461761
4.312083
5.065145
5.664837
6.346123
6.766492
6.977145
7.734649
7.253262
6.310592
7.058277
6.170317
4.478093
5.022608
4.324725
2.609122
2.308693
1.525006
0.451644
0.037357
-0.437718
-0.780463
-0.970305
-1.373838
-1.910869
-2.472683
-3.240706
-4.303313
-5.491703
-6.611123
-7.464482
-8.065573
-8.374418
-8.602136
-8.950258
-9.277340
-9.879132
-10.203174
-9.976390
-10.175817
-10.354905
-10.383427
-10.693674
-10.436496
-9.888708
-9.476522
-8.590195
-7.536002
-6.593330
-5.621901
-4.952071
-4.657018
-4.488448
-4.507619
-4.759183
-5.033192
-5.429244
-6.073354
-6.694786
-7.232752
-7.767679
-8.181966
-8.446623
-8.535699
-8.353336
-7.943254
-7.390556
-6.744105
-6.033828
-5.266270
-4.464111
-3.684863
-3.037010
-2.520316
-2.047109
-1.569460
-0.974211
-0.274688
0.498480
1.421513
2.371199
3.438719
4.806901
6.211557
7.460269
8.529659
9.398919
10.115976
10.469479
10.184949
9.371569
8.318314
7.197491
6.134416
5.281993
4.576628
3.804630
2.931867
2.031982
1.135137
0.293234
-0.412364
-0.984231
-1.375840
-1.405999
-1.119596
-0.702734
-0.143490
0.487063
1.000015
1.472287
1.985707
2.366096
2.661851
3.078012
