EVENT_NAME: 202302060117
EVENT_ID: 13194
EVENT_DATE_YYYYMMDD: 2023/02/06
EVENT_TIME_HHMMSS: 01:17:32.00000
EVENT_LATITUDE_DEGREE: 37.288
EVENT_LONGITUDE_DEGREE: 37.043
EVENT_DEPTH_KM: 8.6
HYPOCENTER_REFERENCE: AFAD
MAGNITUDE_W: 7.7
MAGNITUDE_W_REFERENCE: AFAD
MAGNITUDE_L: 
MAGNITUDE_L_REFERENCE: 
FOCAL_MECHANISM: 
NETWORK: TK
STATION_CODE: 3804
STATION_NAME: 
STATION_LATITUDE_DEGREE: 38.72268
STATION_LONGITUDE_DEGREE: 36.377902
STATION_ELEVATION_M: 1524.0
LOCATION: Kahramanmaras_Pazarck_Turkiye
SENSOR_DEPTH_M: 
VS30_M/S: 637
SITE_CLASSIFICATION_EC8: B
MORPHOLOGIC_CLASSIFICATION: 
EPICENTRAL_DISTANCE_KM: 169.84
EARTHQUAKE_BACKAZIMUTH_DEGREE: 
DATE_TIME_FIRST_SAMPLE_YYYYMMDD_HHMMSS: 2023/02/06 01:17:41.2992630
DATE_TIME_FIRST_SAMPLE_PRECISION: millisecond
SAMPLING_INTERVAL_S: 0.01
NDATA: 13501
DURATION_S: 
STREAM: HNE
UNITS: cm/s^2
INSTRUMENT: sensor = ACEBOX/SARA | digitizer = 
INSTRUMENT_ANALOG/DIGITAL: 
INSTRUMENTAL_FREQUENCY_HZ: 
INSTRUMENTAL_DAMPING: 
FULL_SCALE_G: 
N_BIT_DIGITAL_CONVERTER: 
PGA_CM/S^2: 17.684
TIME_PGA_S: 
BASELINE_CORRECTION: BASELINE REMOVED
FILTER_TYPE: BUTTERWORTH
FILTER_ORDER: 
LOW_CUT_FREQUENCY_HZ: 
HIGH_CUT_FREQUENCY_HZ: 
LATE/NORMAL_TRIGGERED: 
DATABASE_VERSION: 
HEADER_FORMAT: DYNA 1.2
DATA_TYPE: Acceleration
PROCESSING: Automatic Paolucci et al., 2011
DATA_TIMESTAMP_YYYYMMDD_HHMMSS: 
DATA_LICENSE: U (unknown license)
DATA_CITATION: Turkish Accelerometric Archive v 1.0 - Disaster And Emergency Management Presidency, Earthquake Department
DATA_CREATOR: AFAD
ORIGINAL_DATA_MEDIATOR_CITATION: : AFAD - Disaster And Emergency Management Presidency
ORIGINAL_DATA_MEDIATOR: AFAD PROCESS SERVICE
ORIGINAL_DATA_CREATOR_CITATION: AFAD PROCESS SERVICE
ORIGINAL_DATA_CREATOR: network: TK
USER1: GuestUser
USER2: 
USER3: 
USER4: 
USER5: 
[...]
-0.782948
-0.448618
-0.096754
0.179126
0.176788
-0.194015
-0.572534
-0.887693
-1.341026
-1.716739
-1.659693
-1.190229
-0.624440
-0.046728
0.603696
1.054924
1.149143
1.061936
1.057728
1.447233
2.087136
2.503996
2.684253
2.898177
3.200710
3.386578
3.270848
2.876899
2.302692
1.731525
1.278191
0.791892
0.110606
-0.674953
-1.188840
-1.091113
-0.334780
0.955313
2.524092
4.034188
5.079495
5.465260
5.580287
5.754466
5.920461
6.125501
6.395302
6.638451
6.943088
7.418164
8.021360
8.575225
8.938545
9.173043
9.251131
8.972912
8.300043
7.310612
6.121285
4.956272
3.836383
2.620403
1.498175
0.708174
0.157113
-0.189843
-0.241746
-0.095390
0.081594
0.213455
0.273307
0.256706
0.188437
0.032494
-0.319138
-0.786967
-1.286826
-1.998739
-2.942580
-3.881042
-4.599502
-4.889177
-4.755212
-4.578930
-4.676190
-4.855279
-4.711962
-4.161838
-3.332559
-2.459561
-1.919022
-1.764951
-1.636596
-1.256443
-0.795629
-0.717307
-0.988980
-1.093956
-0.897333
-0.609295
-0.467849
-0.529338
-0.449848
0.011434
0.789043
1.596111
2.066510
2.369277
2.769771
3.150626
3.472564
3.618921
3.552522
3.561172
3.680642
3.739324
3.685083
3.540829
3.318253
2.993275
2.690507
2.588570
2.732823
2.982050
3.113443
3.212807
3.369918
3.424626
3.386984
3.140795
2.498319
1.813760
1.515201
1.594457
1.858414
2.164688
2.404095
2.390768
2.090338
1.784998
1.688206
1.764189
1.885296
1.953564
2.078411
2.461370
3.081634
3.759412
4.318186
4.721018
5.079195
5.312758
5.153542
4.401883
3.025985
1.382156
-0.077908
-1.269340
-2.038066
-2.139534
-1.842379
-1.549431
-1.317739
-1.187281
-1.181202
-1.111765
-0.819052
-0.324337
0.260623
0.705071
0.716760
0.281429
-0.343278
-0.973128
-1.478599
-1.770846
-1.854546
-1.643661
-1.096342
-0.276650
0.742939
1.539954
1.645629
1.279502
0.945873
0.808633
0.838325
1.003152
1.202580
1.272719
1.170782
0.957325
0.593068
0.019095
-0.616600
-1.049827
-1.258609
-1.444946
-1.545947
-1.236867
-0.707317
-0.649102
-1.151767
-1.701425
-2.055628
-2.054226
-1.554602
-0.822817
-0.151586
0.363235
0.612696
0.482237
-0.068122
-0.773022
-1.218172
-1.312393
-1.282468
-1.291353
-1.218175
-1.104316
-1.289017
-1.714294
-1.965393
-1.851535
-1.582902
-1.618674
-2.160616
-2.943370
-3.675858
-4.311085
-4.854898
-5.278773
-5.582009
-5.691661
-5.683011
-5.884778
-6.213264
-6.243425
-6.022487
-5.739826
-5.185961
-4.344759
-3.500284
-2.608816
-1.520958
-0.356414
0.728872
1.651669
2.421329
2.965141
3.044164
2.761503
2.546642
2.553422
2.684348
2.836549
2.999973
3.329626
3.899857
4.569218
5.250035
5.987899
6.721086
7.263963
7.602969
7.859677
8.062847
8.301787
8.616711
8.679368
8.234685
7.501964
6.809456
6.345134
6.084215
5.776538
5.387732
5.140140
5.003135
4.894184
4.969233
5.238333
5.633917
6.194796
6.656779
6.666364
6.275688
5.602352
4.756472
4.120543
3.899137
3.889083
3.989147
4.239076
4.582056
4.978342
5.358496
5.590889
5.660093
5.642557
5.609825
5.660792
5.939712
6.456403
6.926335
7.076900
6.928204
6.505498
5.738643
4.817715
3.983993
3.069611
1.840772
0.458796
-0.690084
-1.412051
-1.861176
-2.275933
-2.775091
-3.311188
-3.595019
-3.396058
-2.909526
-2.582912
-2.744467
-3.293891
-3.722208
-3.636873
-3.120181
-2.487994
-1.919400
-1.419542
-1.001279
-0.736387
-0.643337
-0.537427
-0.141843
0.481694
0.990670
1.186825
1.002125
0.392147
-0.591439
-1.593494
-2.153673
-2.291848
-2.202304
-1.903512
-1.620851
-1.541595
-1.654753
-2.018309
-2.463225
-2.628053
-2.213531
-0.997318
0.795906
2.545410
3.755077
4.326711
4.618255
4.920788
5.179835
5.431166
5.781160
6.187733
6.511776
6.626569
6.668652
6.867146
7.270679
7.811452
8.252159
8.428208
8.431246
8.341701
8.248883
8.127542
7.761415
7.135773
6.386920
5.676877
5.147559
4.580366
3.656165
2.414000
1.161313
0.280832
-0.060980
0.011497
0.372479
0.932657
1.638490
2.523646
3.496476
4.296997
4.815325
5.226340
5.678269
6.129731
6.545890
6.846552
6.851228
6.488140
5.856653
5.260002
4.917021
4.627345
4.064828
3.075631
1.968601
1.281938
0.871857
0.353995
-0.136980
-0.430162
-0.497029
-0.353712
-0.102380
0.085826
-0.056323
-0.428763
-0.642922
-0.639649
-0.449105
-0.139792
0.124866
0.496603
1.132531
1.866186
2.476163
2.911493
3.335834
3.759007
3.991400
3.992101
3.624104
2.668807
1.435526
0.466436
-0.222331
-0.723593
-0.810333
-0.543337
-0.283822
-0.222568
-0.387630
-0.681981
-1.082009
-1.593791
-2.006210
-2.190677
-2.178988
-1.929059
-1.439021
-0.893105
-0.413119
0.224679
1.156127
2.060220
2.627645
2.812345
2.581820
1.999197
1.406520
1.068215
0.901283
0.822726
0.814777
0.759600
0.644103
0.593135
0.647843
0.668183
0.560402
0.404926
0.167621
-0.118781
-0.147071
0.204793
0.775959
1.363491
1.893976
2.473559
3.047063
3.400330
3.465793
3.277586
2.942320
2.565438
2.115144
1.662979
1.417492
1.358340
1.278615
1.082225
0.728489
0.137916
-0.782544
-2.039205
-3.431702
-4.735590
-5.902707
-6.940066
-7.850707
-8.576180
-9.008940
-9.172832
-9.096615
-8.821436
-8.618968
-8.584367
-8.342153
-7.536021
-6.274919
-4.998621
-3.938584
-3.009007
-2.096263
-1.039734
0.262283
1.804876
3.606050
5.416575
6.897680
8.037441
8.848717
9.316077
9.494932
9.418012
9.375460
9.650639
9.996425
10.117765
10.029623
9.673782
8.890561
7.712222
6.346612
5.011161
3.815989
2.694697
1.568729
0.558724
-0.076972
-0.291598
-0.396574
-0.590860
-0.841023
-1.279628
-1.974240
-2.690595
-3.197235
-3.411394
-3.438982
-3.484807
-3.613162
-3.775185
-3.996825
-4.324376
-4.554900
-4.463954
-4.148796
-3.625090
-2.797215
-1.791653
-0.639735
0.671400
1.967337
3.113177
3.924219
4.332896
4.554535
4.615790
4.388071
3.834438
3.003522
2.129821
1.521480
1.344962
1.559120
2.070200
2.818117
3.617703
4.408873
5.337982
6.332789
7.154820
7.747963
8.270733
8.842133
9.374021
9.682399
9.621611
9.211530
8.596175
7.813187
6.815808
5.612219
4.270689
2.984102
2.084450
1.721830
1.594877
1.344012
1.075145
1.197888
1.886420
2.813192
3.551055
4.210597
5.155605
6.312901
7.355636
8.121321
8.617439
8.984266
9.350392
9.598684
9.493241
9.076380
8.620708
8.192859
7.697909
7.147316
6.565628
5.863300
5.035190
4.370971
4.155409
4.309247
4.560111
4.680516
4.592608
4.457706
4.526208
4.912207
5.570112
6.405235
7.374792
8.396485
9.296370
9.978122
10.433559
10.653094
10.485461
9.661325
8.249656
6.453158
4.267386
1.964249
-0.089193
-1.852960
-3.178124
-3.710247
-3.359552
-2.472292
-1.443584
-0.496472
0.237651
0.812558
1.249056
1.379748
1.101763
0.434037
-0.370226
-0.877566
-0.822625
-0.316922
0.176156
0.369973
0.376519
0.262425
0.012729
-0.352930
-0.832215
-1.323891
-1.749169
-2.179824
-2.624040
-3.050720
-3.428771
-3.671220
-3.876494
-4.180197
-4.524815
-4.956873
-5.557967
-6.290688
-7.064557
-7.585926
-7.640167
-7.361949
-6.849700
-6.158830
-5.511913
-4.985636
-4.433641
-3.788362
-3.108012
-2.421818
-1.680681
-0.831998
0.214712
1.583595
3.219240
4.907255
6.354226
7.271880
7.754904
8.126407
8.465880
8.745969
8.998703
9.108821
8.824523
8.186490
7.439974
6.738582
6.346270
6.287352
6.331072
6.287117
5.927536
5.513715
5.228715
5.071369
5.242742
5.010347
4.529659
4.536205
3.760465
2.953864
3.701780
3.992390
3.721184
4.444085
4.599560
3.857253
3.480838
2.998046
2.374742
2.150998
2.361882
2.828073
3.159364
3.950767
5.223325
5.954642
6.674971
7.647099
8.315525
8.705966
8.760674
8.864947
8.648917
7.683100
7.063771
6.400254
4.995599
3.619935
2.224866
0.624991
-0.851439
-2.103190
-3.364527
-4.871117
-6.277409
-7.675517
-9.324256
-10.549588
-11.152785
-11.564971
-11.673921
-11.515640
-11.119121
-10.052538
-8.801490
-7.564937
-6.128019
-5.420316
-4.824133
-3.908116
-3.903441
-3.668475
-2.727909
-2.059717
-1.152818
-0.363753
0.262589
1.097011
1.771983
2.845346
3.785912
4.431191
5.882838
6.996881
7.457695
8.372309
8.909341
8.856035
8.893442
8.408078
7.240026
6.053972
4.897610
3.495294
1.788573
-0.010030
-1.643572
-2.978555
-3.885689
-4.310967
-4.562066
-5.129726
-5.418232
-4.917907
-4.742092
-4.757055
-3.933155
-3.247194
-3.477017
-3.693047
-3.540144
-3.573577
-3.575448
-3.434235
-3.231534
-2.593969
-2.259873
-2.070265
-1.462158
-1.496995
-1.652704
-1.456081
-1.375656
-1.330300
-1.625352
-1.434808
-1.335211
-2.214290
-2.413018
-2.480820
-2.906799
-2.738699
-2.199563
-1.197041
-0.629148
-0.292013
0.841903
1.497002
2.281391
3.907451
4.741405
5.057265
5.751408
6.031029
5.678930
5.563433
5.273056
4.213253
3.536175
3.493156
3.394727
3.279932
2.787788
1.708345
0.593833
-0.312599
-1.267428
-2.377498
-3.582490
-5.077858
-6.533012
-7.655941
-8.936683
-9.933362
-10.521129
-11.741083
-12.983950
-13.180340
-12.788263
-12.408343
-11.880429
-11.073829
-10.829980
-10.962076
-10.546151
-10.181194
-9.673153
-8.580151
-7.313438
-5.525825
-3.624820
-1.712827
0.571839
1.954750
2.358985
2.925709
3.748441
4.536804
4.930752
5.072433
4.989434
4.334333
3.589221
2.785893
1.714400
1.193966
1.014643
0.327746
-0.197597
-0.223081
-0.264698
0.044381
0.557332
0.302960
-0.741413
-2.364902
-4.542724
-6.919507
-9.293953
-11.392986
-12.878300
-13.703137
-13.747560
-13.119815
-12.048790
-10.401689
-8.585085
-7.079898
-5.526784
-4.186892
-3.526416
-2.917374
-2.129478
-1.657208
-1.450298
-1.200603
-1.347662
-2.164317
-2.834848
-3.334473
-4.065090
-4.528010
-5.004723
-5.647666
-5.688815
-5.256758
-4.778409
-4.138741
-3.067482
-1.615602
-0.044952
1.666677
3.127675
4.038081
4.587738
4.478086
3.783942
3.006799
2.119538
1.294233
0.812376
0.507504
0.439702
0.807698
1.435210
2.196453
2.859969
2.940862
2.418559
1.581798
0.601953
-0.495492
-1.731813
-3.027284
-4.372788
-5.526110
-6.060338
-5.856467
-4.979260
-3.880180
-2.975853
-2.169253
-1.536832
-1.143819
-0.728362
-0.275030
-0.062976
-0.278538
-0.942289
-2.044644
-3.441583
-4.855356
-6.032993
-6.902486
-7.647364
-8.185099
-8.242146
-7.977956
-7.692256
-7.542159
-7.411934
-7.087658
-6.840301
-6.994374
-7.555488
-8.382897
-9.123100
-9.594903
-9.810933
-9.585085
-8.914789
-8.262963
-7.789524
-7.117124
-6.449633
-6.105016
-5.632747
-5.152761
-5.066958
-4.901431
-4.558451
-4.575051
-5.022539
-5.706163
-6.612596
-7.531420
-8.181610
-8.764000
-9.304072
-9.395721
-8.984239
-8.249882
-7.253205
-5.907936
-4.182980
-2.394198
-1.022276
-0.470983
-0.644929
-1.122343
-1.672235
-1.884758
-1.627815
-1.318502
-1.123515
-1.159988
-1.436337
-1.741210
-2.113415
-2.393038
-2.478374
-2.770621
-3.240087
-3.563429
-3.782732
-3.887006
-3.811724
-3.688747
-3.624453
-3.694593
-3.907817
-4.102103
-4.185335
-4.193519
-4.152371
-4.196559
-4.483897
-4.909876
-5.336557
-5.819115
-6.325053
-6.762722
-7.128147
-7.123004
-6.383270
-5.186229
-4.000410
-2.984328
-2.251841
-1.551385
-0.606377
0.243943
1.120916
2.436960
3.821507
5.030472
5.969401
6.167193
5.633901
4.622727
3.236308
1.952995
1.223547
1.080462
1.296023
1.366862
0.981564
0.362468
-0.131546
-0.275098
-0.078475
0.308926
0.936438
1.786758
2.515971
3.003905
3.357640
3.518959
3.458405
3.080354
2.344827
1.639694
1.164618
0.762953
0.334636
-0.322802
-1.256355
-2.185934
-2.924266
-3.335750
-3.399344
-3.404721
-3.535882
-3.789085
-4.160356
-4.447460
-4.540512
-4.585869
-4.489779
-4.103079
-3.545707
-2.986230
-2.311960
-1.039869
0.944134
3.226228
5.553446
7.757452
9.666406
11.050251
11.691790
11.724989
11.178604
10.277549
9.697965
9.564934
9.769973
10.295783
10.688562
10.610706
10.053099
9.048939
7.780589
6.291767
4.489190
2.480637
0.359861
-1.788269
-3.631761
-5.086916
-6.486660
-7.838711
-8.784889
-9.134650
-8.937092
-8.535663
-8.563719
-9.303688
-10.380792
-11.410436
-12.152743
-12.452939
-12.439847
-12.037950
-11.116322
-9.891225
-8.296728
-6.314830
-4.357246
-2.638135
-1.268785
-0.452132
-0.358613
-1.027274
-2.278324
-3.914204
-5.677036
-7.368560
-8.917701
-10.031512
-10.438086
-10.043437
-9.057047
-8.008934
-7.125649
-6.516374
-6.335883
-6.572486
-7.169839
-7.816055
-8.312641
-8.602083
-8.414578
-7.952127
-7.524045
-7.135708
-6.797638
-6.171062
-5.208519
-4.309336
-3.422543
-2.502084
-1.589106
-0.685714
-0.160139
-0.132785
-0.362842
-0.728268
-1.053480
-1.146065
-0.879770
-0.417320
-0.216722
-0.300189
-0.348585
-0.150793
0.426919
1.250586
2.083138
2.683996
2.869631
2.859810
2.695450
2.259184
2.036375
2.430089
3.337455
4.610247
5.909692
6.924605
7.634880
7.813968
7.333982
6.490207
5.324727
3.853674
2.274607
0.569990
-0.952030
-1.862671
-2.204250
-2.025162
-1.479246
-1.106807
-1.366557
-2.088757
-2.695695
-2.970174
-3.047094
-3.152303
-3.282295
-3.059720
-2.608492
-2.362772
-2.290529
-2.253590
-2.025171
-1.630755
-1.530457
-1.684997
-1.799091
-1.862451
-1.973505
-2.276039
-2.581145
-2.798344
-3.185746
-3.560290
-3.681164
-3.414168
-2.460509
-1.079937
0.306012
1.824057
3.488460
4.974708
5.988452
6.352942
6.095297
5.362575
4.243154
2.921263
1.730533
0.803994
0.153102
-0.117402
-0.363124
-1.009340
-1.769649
-2.670705
-3.809532
-4.618471
-5.256270
-5.917216
-6.045104
-5.796578
-5.385796
-4.829593
-4.625021
-4.780731
-5.204606
-5.885424
-6.203623
-5.935458
-5.321273
-4.508127
-3.733557
-2.801174
-1.470401
-0.075801
1.249829
2.696332
4.258331
5.590975
6.452050
7.230594
8.227505
9.381995
10.817744
12.501785
14.309271
16.134292
17.406382
17.683665
17.156685
15.975775
14.140232
12.064813
10.224126
8.579362
7.080020
5.916644
5.101392
4.446759
3.832573
3.314478
2.820697
2.137775
1.402014
0.800220
0.326078
0.275811
0.781514
1.436146
2.227315
3.336683
4.331723
4.927906
5.303851
5.575055
6.006878
6.806464
7.610492
8.013325
8.152433
8.391374
8.788828
9.295700
9.808183
9.747395
8.906660
7.873977
6.754087
5.377488
4.008605
2.583843
0.976487
-0.530571
-1.946916
-3.504941
-5.131002
-6.651620
-8.205437
-9.794324
-10.668259
-10.413888
-9.482440
-8.032196
-6.324775
-5.029071
-3.967866
-2.690165
-1.224490
0.544185
2.315667
3.628905
4.903801
6.423717
7.927500
9.166625
9.774731
9.783615
9.601018
9.273702
8.763555
8.105883
7.264914
6.400565
5.710395
5.143202
4.574139
3.928624
3.285213
2.715215
2.079753
1.453877
0.872189
0.290501
0.157937
0.383083
0.457430
0.567782
0.671354
0.559598
0.229709
-0.507220
-1.436097
-2.351648
-3.204775
-3.776643
-4.343135
-4.902145
-5.033306
-4.876428
-4.494638
-3.728952
-2.694634
-1.634832
-0.786382
-0.135725
0.525453
1.182891
1.733483
2.275424
2.638511
2.562292
2.424585
2.460122
2.584034
2.949458
3.328443
3.346678
3.018193
2.475081
1.973118
1.744230
1.778363
1.757555
1.375530
0.710142
-0.032165
-0.506540
-0.562886
-0.442013
-0.045026
0.722062
1.650704
2.679178
3.618107
4.272972
4.597482
4.639098
4.794339
5.203016
5.644424
6.135398
6.493575
6.447282
6.340904
6.561608
6.843801
6.681778
5.999791
5.074889
4.042206
2.940786
1.834691
0.784473
-0.016050
-0.635847
-1.447825
-2.408967
-3.255781
-3.827182
-3.992010
-3.984763
-4.157306
-4.566451
-5.199341
-6.005241
-6.863044
-7.461098
-7.303285
-6.452497
-5.575291
-4.942402
-4.444648
-4.252000
-4.511516
-5.056030
-5.668579
-6.091753
-6.162594
-6.061828
-6.077961
-6.312226
-6.556311
-6.531763
-6.302409
-6.082640
-6.081471
-6.443624
-6.788242
-6.565200
-5.605463
-3.927968
-1.793867
0.368056
2.154968
3.274622
3.894652
4.341672
4.605862
4.609135
4.398249
4.085661
3.793180
3.552369
3.382865
3.256848
2.931635
2.338023
1.770830
1.407041
1.318432
1.576309
2.117783
2.793457
3.378183
3.923398
4.547636
5.018035
5.377849
5.674303
5.682719
5.570496
5.408941
5.300459
5.655362
6.001849
5.814343
5.584988
5.418757
4.997921
4.392854
3.536921
2.493250
1.579335
0.553900
-0.899384
-2.492246
-3.853414
-4.916491
-5.834379
-6.787104
-7.678106
-8.299540
-8.660289
-8.722480
-8.468577
-8.206958
-8.147341
-8.202517
-8.134483
-7.736561
-7.213089
-6.813063
-6.499775
-6.345937
-6.412570
-6.667175
-7.179893
-7.806938
-8.208135
-8.340699
-8.371093
-8.381147
-8.359404
-8.197150
-7.844818
-7.387043
-6.927398
-6.600550
-6.343374
-5.952933
-5.558752
-5.318642
-5.032475
-4.528876
-3.950463
-3.487311
-3.056189
-2.551655
-2.157941
-2.063488
-2.282323
-2.704094
-3.076299
-3.286250
-3.344700
-2.981613
-2.110719
-1.263906
-0.761944
-0.415924
-0.195220
-0.167633
-0.382493
-0.915084
-1.434582
-1.560132
-1.363743
-0.957871
-0.396057
0.337131
1.240289
2.036368
2.680946
3.290455
3.712225
4.023876
4.376442
4.622630
4.741164
4.853854
5.091859
5.493522
5.784833
5.742281
5.321679
4.388126
3.105514
1.983052
1.190245
0.490022
-0.354922
-1.333598
-2.129444
-2.520120
-2.629772
-2.575064
-2.307133
-1.816860
-1.120379
-0.217688
0.764493
1.720724
2.680227
3.506466
3.947173
3.916779
3.424167
2.483600
1.281648
0.165032
-0.703759
-1.256223
-1.417076
-1.346470
-1.165511
-0.964680
-0.900854
-0.764317
-0.377383
0.176482
0.826905
1.269717
1.270885
0.879040
0.165490
-0.638539
-1.391367
-2.096968
-2.574616
-2.790645
-2.844887
-2.609454
-2.068915
-1.556432
-1.340638
-1.389736
-1.580515
-1.815949
-1.966749
-1.962307
-1.815717
-1.410547
-0.602077
0.538152
1.889032
3.308414
4.570919
5.510316
6.045477
6.077273
5.448124
4.290827
2.997460
1.683051
0.391554
-0.730439
-1.620740
-2.265787
-2.811003
-3.186014
-3.066077
-2.508705
-1.660021
-0.558369
0.615526
1.692630
2.443352
2.736767
2.782591
2.762016
2.675744
2.571236
2.607942
2.816021
3.082549
3.396538
3.625659
3.582172
3.306291
2.808302
2.204870
1.712727
1.288384
1.049443
1.242792
1.751535
2.275240
2.549717
2.591333
2.531947
2.187563
1.639542
1.301003
1.218940
1.270141
1.329524
1.210989
0.981633
0.823118
0.727494
0.573187
0.364406
0.302449
0.394097
0.428231
0.600305
1.323439
2.456420
3.456838
3.869256
3.480450
2.466003
1.194146
-0.002897
-0.925695
-1.741882
-2.616752
-3.454682
-4.218732
-4.857233
-5.294435
-5.590423
-5.842690
-6.076722
-6.093088
-5.769981
-5.432846
-5.372995
-5.448512
-5.510936
-5.715509
-6.051711
-6.160193
-5.909095
-5.605393
-5.670390
-6.131906
-6.519776
-6.539182
-6.245533
-5.736791
-5.192979
-4.655714
-3.971857
-3.202899
-2.523017
-2.003052
-1.741901
-1.858333
-2.328734
-2.938244
-3.513853
-3.954094
-4.008336
-3.582825
-2.848469
-1.955597
-1.046360
-0.114913
0.854878
1.654698
2.199445
2.438151
2.262101
1.791233
1.206038
0.645391
0.264535
0.177094
0.290018
0.266871
0.019513
-0.319260
-0.754357
-1.213536
-1.585040
-1.771377
-1.659155
-1.399173
-1.147608
-0.876170
-0.677677
-0.649388
-0.661546
-0.535763
-0.312721
-0.161221
-0.110254
-0.092019
-0.061859
-0.016269
0.065793
0.173573
0.127748
-0.178995
-0.643083
-1.171933
-1.788924
-2.639480
-3.664681
-4.529732
-5.159582
-5.642374
-5.833855
-5.677211
-5.415826
-5.211488
-4.920879
-4.464741
-4.002290
-3.522305
-2.884741
-2.183349
-1.500194
-0.795764
-0.231378
-0.028442
-0.086659
-0.175502
-0.233017
-0.272529
-0.383116
-0.587689
-0.707861
-0.810499
-1.073054
-1.337012
-1.522881
-1.733767
-2.026014
-2.518859
-3.240592
-4.001369
-4.531856
-4.650859
-4.389007
-3.798435
-2.893874
-1.817238
-0.740836
0.246255
1.185418
