EVENT_NAME: 202302060117
EVENT_ID: 13194
EVENT_DATE_YYYYMMDD: 2023/02/06
EVENT_TIME_HHMMSS: 01:17:32.00000
EVENT_LATITUDE_DEGREE: 37.288
EVENT_LONGITUDE_DEGREE: 37.043
EVENT_DEPTH_KM: 8.6
HYPOCENTER_REFERENCE: AFAD
MAGNITUDE_W: 7.7
MAGNITUDE_W_REFERENCE: AFAD
MAGNITUDE_L: 
MAGNITUDE_L_REFERENCE: 
FOCAL_MECHANISM: 
NETWORK: TK
STATION_CODE: 4624
STATION_NAME: 
STATION_LATITUDE_DEGREE: 37.5361
STATION_LONGITUDE_DEGREE: 36.91765
STATION_ELEVATION_M: 466.0
LOCATION: Kahramanmaras_Pazarck_Turkiye
SENSOR_DEPTH_M: 
VS30_M/S: 280
SITE_CLASSIFICATION_EC8: C
MORPHOLOGIC_CLASSIFICATION: 
EPICENTRAL_DISTANCE_KM: 29.73
EARTHQUAKE_BACKAZIMUTH_DEGREE: 
DATE_TIME_FIRST_SAMPLE_YYYYMMDD_HHMMSS: 2023/02/06 01:17:07.3320300
DATE_TIME_FIRST_SAMPLE_PRECISION: millisecond
SAMPLING_INTERVAL_S: 0.01
NDATA: 10501
DURATION_S: 
STREAM: HNN
UNITS: cm/s^2
INSTRUMENT: sensor = GMS+/GEOSIG | digitizer = 
INSTRUMENT_ANALOG/DIGITAL: 
INSTRUMENTAL_FREQUENCY_HZ: 
INSTRUMENTAL_DAMPING: 
FULL_SCALE_G: 
N_BIT_DIGITAL_CONVERTER: 
PGA_CM/S^2: 357.602
TIME_PGA_S: 
BASELINE_CORRECTION: BASELINE REMOVED
FILTER_TYPE: BUTTERWORTH
FILTER_ORDER: 
LOW_CUT_FREQUENCY_HZ: 
HIGH_CUT_FREQUENCY_HZ: 
LATE/NORMAL_TRIGGERED: 
DATABASE_VERSION: 
HEADER_FORMAT: DYNA 1.2
DATA_TYPE: Acceleration
PROCESSING: Automatic Paolucci et al., 2011
DATA_TIMESTAMP_YYYYMMDD_HHMMSS: 
DATA_LICENSE: U (unknown license)
DATA_CITATION: Turkish Accelerometric Archive v 1.0 - Disaster And Emergency Management Presidency, Earthquake Department
DATA_CREATOR: AFAD
ORIGINAL_DATA_MEDIATOR_CITATION: : AFAD - Disaster And Emergency Management Presidency
ORIGINAL_DATA_MEDIATOR: AFAD PROCESS SERVICE
ORIGINAL_DATA_CREATOR_CITATION: AFAD PROCESS SERVICE
ORIGINAL_DATA_CREATOR: network: TK
USER1: GuestUser
USER2: 
USER3: 
USER4: 
USER5: 
[...]
-62.884575
-82.846201
-95.330147
-95.775669
-83.820130
-64.425617
-44.645349
-30.270851
-22.855016
-19.101129
-17.559167
-19.620185
-23.003942
-24.728821
-25.020560
-24.727302
-26.041747
-31.795107
-43.642882
-63.233040
-88.323005
-112.294668
-129.669525
-136.911875
-131.639126
-114.142996
-88.905004
-62.989537
-39.362884
-15.993143
6.805889
26.746694
42.793837
55.043434
63.704856
68.455991
70.368902
70.785031
69.932712
66.285811
56.861151
40.538873
20.793374
4.302507
-5.992115
-12.290988
-17.415969
-22.052067
-25.101243
-25.880826
-22.438661
-14.054411
-4.376777
2.314305
3.717552
0.545506
-2.206755
1.089940
8.389918
15.229588
19.008152
14.322438
-0.347455
-21.342698
-42.979568
-57.047319
-57.587397
-46.089309
-30.028397
-16.498665
-9.898761
-10.267911
-12.513365
-10.080398
0.309520
18.132697
42.510857
70.718776
97.178198
116.225401
124.096869
121.103543
113.343996
107.641810
105.046189
102.317567
94.385274
79.201819
59.130311
37.262248
17.289193
3.392888
0.562437
9.654034
24.674835
39.696415
52.281371
61.299455
65.956035
66.572185
63.234407
54.646200
39.758361
18.816630
-4.687711
-26.195736
-44.916450
-59.989764
-69.624576
-70.663667
-60.888101
-44.886676
-27.071032
-10.315502
3.023561
12.608978
17.292574
16.235039
8.822801
-3.375661
-17.688893
-32.385543
-45.014700
-54.530019
-58.613331
-55.548868
-47.847808
-37.187472
-24.956059
-14.036735
-7.237849
-5.220251
-6.796023
-12.630950
-23.063769
-33.783892
-37.768232
-31.151963
-16.802143
-2.711051
4.559833
4.368104
-1.570470
-9.632647
-14.330310
-14.520740
-12.696150
-11.082751
-10.774166
-11.284111
-11.860036
-11.891488
-12.106595
-12.952419
-12.517848
-11.266565
-12.584388
-17.697160
-24.673507
-30.580130
-33.296803
-32.666626
-28.304103
-19.644759
-9.310172
-1.834071
-0.651107
-4.207350
-7.425894
-7.183811
-2.519957
5.839615
16.418903
27.247050
34.252451
33.442994
25.498232
14.671865
4.278530
-3.880280
-6.693587
-1.305500
10.272856
24.905563
41.813058
60.295786
79.115952
97.167725
115.251449
136.130016
159.894345
181.647291
196.125956
200.982038
196.993282
186.476557
171.194650
151.247052
124.612507
90.661599
48.849334
-0.189154
-51.212530
-95.924584
-123.747827
-129.128419
-113.463135
-86.118424
-60.760159
-43.710831
-35.021873
-28.789801
-20.840143
-13.845912
-8.715255
-7.915450
-14.050928
-24.933405
-37.824668
-49.111344
-56.024568
-57.919595
-54.583415
-46.281252
-31.329810
-7.769658
21.582539
48.430053
64.825286
68.141204
60.868981
48.077989
33.229634
18.613772
7.473865
2.225494
2.854112
7.972819
15.547892
24.242045
32.727084
35.200835
26.142188
6.753610
-16.304450
-36.413365
-52.985019
-70.054909
-91.257187
-114.271605
-133.569265
-144.999853
-145.678126
-133.665179
-105.951598
-63.707119
-13.585957
33.876221
67.146757
79.306214
66.691604
34.176173
-5.518204
-43.216264
-73.848637
-94.287717
-106.956358
-117.021606
-126.489907
-135.766758
-143.315115
-145.212999
-135.144414
-111.046543
-79.482682
-42.139504
3.839398
56.446539
106.380149
141.063043
151.644410
137.792006
111.809739
85.950082
69.444668
65.318235
63.682976
57.007180
40.382013
15.259058
-9.455022
-27.526837
-31.731200
-18.209780
6.393080
29.808021
43.099547
42.352434
29.745617
11.484432
-3.958271
-11.834974
-10.300025
3.071769
20.961706
36.431905
46.823901
51.393978
51.653726
47.515603
43.226036
40.991752
37.981022
33.834067
31.152983
32.055137
36.545725
41.036573
40.930568
36.538132
30.347843
25.276893
21.769747
16.328888
8.009541
-2.600440
-16.236458
-34.621812
-56.900049
-78.059205
-93.329682
-97.335583
-86.151555
-60.380518
-21.292739
26.760670
71.453462
99.945307
107.779628
97.339276
71.763805
34.777249
-7.927838
-53.515830
-97.758223
-131.210377
-148.316115
-147.403310
-128.510928
-98.721022
-65.441134
-29.720467
6.553766
40.016011
69.590829
94.469302
113.500400
124.449598
127.450418
127.419485
127.284646
126.617802
122.684896
111.291195
91.096817
64.059113
34.801172
6.404102
-22.614593
-52.130483
-77.976892
-95.525534
-103.377818
-101.756107
-88.845141
-68.016969
-48.113830
-31.693660
-15.399737
0.438813
11.347487
16.481001
17.643183
16.244313
15.380825
17.017083
20.463404
22.975860
21.394113
15.840255
8.301510
1.205410
-4.179339
-8.585542
-11.941764
-14.027200
-14.515584
-13.225596
-9.895391
-4.390409
0.468010
1.414845
-4.198240
-16.775444
-31.696793
-44.669103
-53.654496
-55.980218
-50.645643
-40.781236
-30.140902
-20.471321
-12.727659
-6.548579
-0.774218
4.452813
7.835751
8.134983
5.369215
2.829704
4.571947
10.413848
16.543312
17.185699
9.578895
-2.552547
-14.290960
-23.524171
-31.111752
-40.311453
-54.384919
-71.769128
-87.693701
-99.377302
-106.373652
-109.654800
-108.780961
-103.253639
-96.856614
-94.612498
-96.172684
-96.876156
-95.271589
-94.465549
-96.439545
-99.515737
-99.794488
-92.308515
-74.588207
-47.789528
-14.154018
21.708742
52.844765
75.464297
90.069469
97.447378
97.987416
92.883735
85.563975
81.319607
82.122790
83.242629
79.055670
68.310350
51.178896
28.663491
3.547810
-19.867171
-34.977112
-37.513246
-27.005134
-6.106564
17.119006
35.017775
43.297858
41.694551
35.225011
27.438967
18.830758
10.982889
6.696439
6.359240
7.083713
7.469449
9.703953
17.311756
30.622244
44.879847
57.071515
67.359344
75.819965
82.691067
86.979816
90.320411
93.725949
93.589291
87.623961
73.431520
49.575454
18.811638
-13.217507
-39.232765
-54.998100
-60.516110
-56.966141
-47.500737
-36.624015
-28.127805
-24.643298
-27.157871
-35.744260
-46.308262
-50.977350
-44.978290
-28.912443
-8.369236
9.971918
22.002271
26.427917
23.973090
16.101323
8.029015
5.332344
8.039366
15.020349
24.841375
35.743815
47.779103
58.673230
65.108701
66.816396
65.263743
63.090764
61.723067
58.167603
47.303309
26.958266
-2.362019
-37.493573
-70.888837
-95.977503
-110.286319
-114.002838
-107.009646
-90.095397
-67.252984
-40.462359
-10.975342
18.367503
41.860374
53.073237
48.284915
26.977691
-1.514454
-29.098710
-53.966053
-72.259710
-82.134028
-84.046978
-82.293825
-81.402061
-81.862130
-82.993699
-83.503903
-82.694486
-79.736269
-73.223907
-62.326402
-48.697698
-34.005764
-19.847133
-11.761097
-14.874435
-28.971540
-47.996963
-65.653409
-79.466588
-87.217823
-89.127137
-87.823122
-84.662545
-80.923725
-75.066498
-64.503834
-49.258854
-28.374312
-1.849429
27.812151
57.556338
83.346337
101.199647
108.911358
107.768099
101.322718
93.956199
88.174785
83.707276
81.874593
81.797682
81.247734
79.796391
76.471861
72.477649
65.208284
55.558146
47.069430
42.468141
46.994577
57.712062
75.122468
87.827697
99.433329
102.675472
82.031176
81.925691
75.520053
37.033857
11.835570
-1.807202
-12.450953
-25.650040
-30.226132
-28.228796
-34.344013
-39.191042
-48.466335
-57.170399
-65.634177
-69.325240
-63.990146
-64.678810
-54.861681
-37.113577
-30.139607
-23.351631
-10.290520
5.061485
19.181150
34.496787
44.245338
43.702663
35.311880
17.667643
-0.865000
-14.826766
-23.107668
-25.325066
-25.256767
-27.985649
-36.565024
-45.446769
-50.988938
-53.207635
-49.265417
-38.609497
-24.972480
-11.047381
3.583249
17.237930
27.334050
33.266870
33.815220
27.991463
17.580205
5.543838
-5.277074
-12.205624
-14.855277
-14.081188
-8.906891
0.463957
8.009157
8.102134
0.672751
-11.542855
-23.443363
-31.507358
-32.540735
-21.383982
0.564049
24.897011
43.766533
52.554721
51.135849
43.163552
31.566972
18.355156
5.397133
-6.174769
-15.735027
-24.791076
-34.670590
-45.282129
-55.814959
-64.327054
-68.452449
-64.619852
-52.226604
-34.587343
-16.161245
-4.149336
-3.041186
-9.787639
-18.720038
-26.739873
-32.019416
-33.730268
-33.435191
-32.230667
-31.831683
-34.177148
-38.605691
-42.226097
-42.396784
-40.132926
-37.904397
-35.937974
-30.773028
-19.108429
-1.560086
19.281594
39.757261
56.415898
67.727733
73.787839
74.714671
72.194123
69.667860
70.200104
74.448589
78.762795
79.547274
75.973367
68.314870
55.896904
37.822492
15.577506
-6.192365
-19.814615
-20.472627
-11.818218
-3.317852
-0.937359
-2.428447
-4.451539
-4.444545
1.434243
12.126530
23.672416
35.563792
47.948208
60.274696
71.359752
77.370502
73.681518
62.473032
51.638352
46.161645
46.626870
48.081550
43.290111
30.188176
11.857633
-7.998527
-26.725996
-41.777749
-51.184744
-52.837408
-45.973580
-34.142989
-21.341126
-8.018428
2.562419
2.702934
-8.473081
-23.246882
-33.992722
-39.098480
-38.231395
-29.530748
-17.727952
-9.407086
-7.340392
-10.929625
-15.384405
-17.923397
-17.360500
-13.546087
-10.105481
-9.510113
-11.255773
-13.586690
-13.003271
-7.641162
1.056888
10.102766
13.773527
9.581113
1.777664
-6.670528
-15.358746
-21.376030
-21.290846
-14.801343
-5.481150
1.795709
6.733358
10.353464
12.030246
11.634860
9.497469
5.822513
-2.313179
-13.824294
-21.439671
-21.718422
-14.607554
-1.027167
14.526937
24.696572
26.190218
20.757671
11.416657
1.769636
-7.774777
-17.004611
-23.230749
-26.760235
-30.402981
-34.777492
-37.460395
-39.173584
-42.928550
-45.278170
-40.208819
-25.549875
-4.031759
17.590004
33.483625
39.492297
34.220806
21.600741
9.190049
3.003656
3.944516
12.219403
26.062936
38.402931
44.717090
46.355167
44.608727
43.028539
45.855054
49.124993
47.866657
39.412750
21.890865
-1.644389
-25.835816
-45.498969
-59.757910
-69.435064
-73.724372
-76.114776
-78.843398
-79.191767
-74.182942
-60.388246
-36.879788
-8.707976
14.300428
23.424497
17.894018
5.571127
-3.129040
-4.152545
-0.077845
2.390709
-3.481364
-16.562258
-31.581539
-44.148092
-50.947537
-49.192046
-35.634258
-12.087095
13.401314
33.361342
44.857871
48.481354
46.722965
42.907474
39.344737
36.494284
33.598891
29.753007
22.696651
10.718732
-4.467580
-17.365857
-20.596610
-13.765773
-3.050625
6.627528
14.204679
21.275802
27.785826
31.952224
31.712179
26.669284
20.761103
20.327011
28.855951
43.849216
57.626767
61.147122
50.208016
26.676918
-2.074735
-26.533723
-42.984066
-53.189848
-61.272806
-68.781418
-72.414812
-71.676052
-69.661831
-69.423903
-73.922324
-82.561706
-88.857981
-87.924394
-82.377590
-75.475316
-66.120314
-52.207683
-33.923938
-15.479915
-2.155659
4.134082
4.786859
1.993554
-3.071161
-7.467752
-5.642643
4.747275
19.415051
32.786325
40.511544
38.743024
28.265525
9.986155
-14.176437
-34.892430
-43.828986
-37.664193
-17.295031
9.719255
36.139971
59.461396
75.543088
79.850800
69.233026
44.731436
15.850938
-7.878102
-22.234976
-27.474255
-24.658910
-16.321418
-8.981696
-7.544160
-13.008658
-22.252519
-31.510668
-36.676432
-34.542978
-27.292096
-15.714000
-1.660835
8.831951
11.512477
4.295065
-10.779028
-26.210561
-32.504498
-27.758558
-16.552709
-2.182367
10.604429
17.834790
19.262195
17.268196
12.568975
6.536624
3.456276
2.524209
1.929840
1.709537
1.710037
1.126059
-2.742944
-7.727911
-8.299939
-1.584179
14.202417
38.218462
64.265891
83.354397
89.208508
80.444697
60.591914
36.401006
14.165372
-0.733118
-5.005281
2.269240
20.587275
45.650444
68.739896
82.276382
85.110690
78.901698
66.020306
50.892961
39.893588
36.784666
38.705630
40.771804
38.793392
33.522421
26.266304
14.387097
1.019160
-6.917809
-6.247888
-0.781091
2.563401
1.217523
-4.707543
-13.525905
-22.264258
-29.194366
-34.170240
-35.533263
-29.354702
-16.021354
0.424793
16.991473
30.056221
38.229799
41.475839
37.922453
28.465842
17.587521
9.518590
6.396419
10.151085
21.366545
36.494630
52.181476
65.427022
73.209390
76.970809
76.636208
68.681056
52.605818
32.436377
14.303517
0.757899
-8.087998
-12.352628
-12.612935
-8.948409
-2.655551
5.258779
14.414539
24.942394
37.391232
50.000347
60.659645
66.932241
66.430869
62.787604
59.965465
53.566842
39.264520
20.155192
3.231812
-6.009192
-8.340109
-7.827867
-5.585310
-0.843267
4.883038
9.168409
11.133274
12.368191
15.771391
21.450157
29.861942
41.689156
54.921714
68.178431
79.299595
86.345521
90.862605
93.550924
93.131379
90.867741
87.612310
81.443841
71.967227
59.195977
43.366480
27.534124
15.836236
10.951540
12.866789
19.796598
28.002647
32.944192
33.972074
33.044683
31.841937
32.809813
37.205846
43.681061
49.258258
51.714864
51.383120
49.386005
48.166374
49.936673
53.777062
58.246869
62.790969
64.722844
60.313004
49.829530
37.365845
28.017297
23.789294
22.876450
23.983042
27.426505
33.272563
37.786790
36.530532
30.402328
22.918394
16.739534
11.995633
8.013890
6.906220
9.567263
12.321042
13.653632
16.710561
21.718867
25.595364
25.621321
20.339700
10.997126
-0.453983
-11.973671
-21.182204
-24.690909
-18.686134
-5.602682
9.787248
25.503188
40.461644
57.062613
77.244743
100.391344
124.006826
142.124060
150.230098
143.371945
118.487977
82.202015
40.844604
-1.970105
-41.234047
-72.806000
-90.336199
-88.246126
-65.934939
-32.517114
-1.673330
20.220151
28.918460
24.951265
17.762167
14.539986
17.674326
27.644719
41.680479
57.147042
71.691168
80.147893
79.422342
70.668402
58.792313
49.713144
45.547746
46.585239
52.228677
59.353572
64.225759
66.154257
65.032819
59.665474
50.700344
40.033993
30.013685
21.623941
12.543993
-0.692761
-21.915820
-55.356024
-102.546784
-160.532979
-220.323522
-273.138517
-314.887139
-342.950147
-356.606426
-357.601617
-352.702933
-346.888568
-340.844827
-335.107093
-329.089589
-322.756726
-315.667680
-306.735839
-294.665483
-281.251866
-270.922994
-266.401233
-266.472430
-268.238612
-271.264148
-274.873644
-278.374036
-278.654605
-272.088212
-259.205301
-240.983380
-219.231213
-191.094730
-151.439099
-99.359806
-37.388811
21.322097
65.135834
93.702233
110.422175
120.184234
120.225517
106.521441
85.776614
67.232022
56.357078
53.416485
57.169333
68.407393
87.733587
114.195346
142.178306
168.829437
195.507063
220.215129
244.175583
265.122729
273.953519
267.622436
244.678414
208.329588
171.700213
142.337326
123.001741
114.333006
112.456682
116.533980
122.254829
125.228892
122.474033
111.980169
97.425092
79.749164
62.992555
48.214597
36.800895
30.704641
27.204248
24.661880
15.481142
6.083238
-0.444490
-9.091144
-12.745579
-11.012947
-4.845557
-0.033116
-1.723706
-8.056867
-19.051565
-31.775537
-47.517753
-65.230048
-80.621318
-90.369908
-86.892155
-71.528201
-51.370230
-32.700469
-21.609957
-21.819870
-39.227198
-71.339469
-110.243631
-148.983881
-181.402678
-209.019664
-230.963580
-244.874951
-251.631535
-253.195877
-254.193925
-255.960107
-257.675374
-257.176380
-254.178938
-249.581325
-240.260092
-226.812187
-208.926146
-185.814094
-158.168053
-127.891342
-101.277359
-80.226825
-66.081962
-57.378977
-51.155996
-47.556932
-43.094658
-38.178570
-36.895596
-40.784082
-46.991256
-50.721284
-50.129292
-45.219439
-38.196893
-30.357376
-21.382934
-12.933482
-6.383194
-1.023422
2.329642
2.996446
1.634723
-4.133184
-15.128141
-29.366820
-45.159950
-60.802674
-74.326992
-83.949335
-90.490051
-94.750265
-94.324265
-85.874294
-72.057258
-58.936141
-47.019827
-35.371073
-26.209858
-22.538578
-22.175182
-17.900981
-6.461341
11.624981
33.881617
58.264714
82.525200
98.700669
106.152351
110.174838
109.449546
102.443845
89.150461
74.185991
62.272235
53.006553
44.037786
31.387068
20.141175
14.642908
13.353919
18.869292
28.497311
38.374187
47.565535
55.236982
59.221023
55.809730
45.982690
30.926262
14.037430
2.554889
-1.302684
-0.012957
6.910099
21.628529
40.847179
62.606880
83.895361
95.973510
98.193727
96.101536
90.413378
78.045548
57.261236
29.696203
-0.338444
-30.581944
-63.833817
-98.862242
-132.675993
-159.546147
-174.552700
-182.703977
-182.347595
-171.419958
-153.054126
-127.296338
-100.648325
-83.220775
-78.219223
-83.735155
-93.803519
-103.088944
-112.226820
-118.329827
-119.509973
-112.018286
-91.681334
-63.816049
-30.100530
7.463450
45.862325
79.169748
103.837550
126.730098
146.662071
161.084886
171.630405
178.887521
184.185728
188.979465
195.738087
203.444083
210.848748
216.132667
215.497515
207.682897
191.678575
167.145813
133.950050
95.922604
60.245018
30.745234
9.735444
-0.032369
3.396807
18.081988
38.754819
58.711210
69.667941
66.865805
53.306159
33.111781
13.136387
-2.495947
-11.318205
-8.521044
-3.337654
-0.830914
-2.861279
-17.447268
-38.772416
-57.884601
-71.351250
-79.513697
-84.230323
-82.872796
-72.703681
-52.375562
-20.776892
16.767346
57.243585
101.926505
147.069475
186.853432
200.784246
179.768222
145.392074
116.206608
102.743077
103.314287
108.943697
115.615037
122.318589
129.501671
129.452036
120.139596
108.699916
98.896515
95.280785
99.034152
107.755061
118.905060
130.610442
140.330938
144.767495
141.374906
126.809958
105.928234
88.308935
80.101808
83.422661
93.012494
102.141758
105.731731
98.852537
77.342694
40.339253
-7.269733
-54.991978
-95.094190
-126.430794
-144.576123
-152.165522
-156.545749
-155.249787
-152.282737
-152.083775
-150.737417
-147.756081
-141.239822
-130.195030
-114.670279
-93.086182
-65.380135
-26.481207
27.053046
86.159320
136.434525
173.146466
199.294946
212.401776
212.391106
199.750519
175.366604
152.373226
128.508847
101.058371
83.838855
76.119832
78.581632
87.169280
96.341926
113.177985
131.248720
144.709095
150.084453
141.857843
124.695476
106.876935
91.873759
78.286318
69.389247
62.657601
55.343036
48.959220
42.035865
37.899301
36.734741
42.748868
51.586673
55.567337
60.758519
61.179843
55.709630
45.609574
27.787916
6.100651
-17.688136
-36.019718
-49.271798
-59.824371
-67.369350
-77.302375
-88.290838
-101.233016
-117.134729
-132.808626
-143.953728
-148.414223
-148.891696
-147.907715
-143.894061
-130.515773
-109.347824
-85.352302
-59.810641
-32.505155
-4.203719
15.585121
21.775111
17.944814
11.087180
8.363234
9.705175
13.233064
16.151796
16.820679
13.225211
0.296022
-19.764316
-42.182307
-64.073749
-79.885323
-86.933886
-86.978326
-84.456519
-86.129184
-97.720568
-119.149104
-143.870198
-166.915789
-185.627412
-198.497114
-206.488894
-211.620629
-215.105435
-214.147691
-208.106028
-199.074697
-188.032242
-174.354441
-154.383503
-126.784740
-93.298077
-57.073719
-21.384224
11.085707
36.041332
49.922791
50.005896
37.260104
18.153893
-0.437976
-12.586563
-20.449498
-30.550593
-44.284803
-65.225235
-92.567387
-118.406522
-138.303986
-146.658921
-136.163538
-107.578695
-68.096588
-21.815576
26.124315
68.195789
96.715169
106.423196
102.911634
89.729691
68.094640
43.872820
16.469362
-12.372950
-37.689172
-57.347909
-68.569903
-72.554503
-69.979444
-61.777032
-52.606205
-42.226937
-24.848223
3.974567
41.715449
80.426305
113.985184
140.476816
157.084539
156.051942
135.417257
109.062742
87.853710
69.689419
53.948761
41.224010
33.057926
30.319692
26.444195
16.606504
1.805427
-16.484073
-36.728067
-54.537515
-62.503578
-57.467477
-43.237930
-25.807522
-12.461186
-7.456517
-8.746804
-9.653154
-5.812505
-2.280980
-4.821530
-13.627423
-23.978155
-32.042670
