EVENT_NAME: 202302060117
EVENT_ID: 13194
EVENT_DATE_YYYYMMDD: 2023/02/06
EVENT_TIME_HHMMSS: 01:17:32.00000
EVENT_LATITUDE_DEGREE: 37.288
EVENT_LONGITUDE_DEGREE: 37.043
EVENT_DEPTH_KM: 8.6
HYPOCENTER_REFERENCE: AFAD
MAGNITUDE_W: 7.7
MAGNITUDE_W_REFERENCE: AFAD
MAGNITUDE_L: 
MAGNITUDE_L_REFERENCE: 
FOCAL_MECHANISM: 
NETWORK: TK
STATION_CODE: 1201
STATION_NAME: 
STATION_LATITUDE_DEGREE: 38.89708
STATION_LONGITUDE_DEGREE: 40.5032
STATION_ELEVATION_M: 1133.0
LOCATION: Kahramanmaras_Pazarck_Turkiye
SENSOR_DEPTH_M: 
VS30_M/S: 529
SITE_CLASSIFICATION_EC8: B
MORPHOLOGIC_CLASSIFICATION: 
EPICENTRAL_DISTANCE_KM: 351.68
EARTHQUAKE_BACKAZIMUTH_DEGREE: 
DATE_TIME_FIRST_SAMPLE_YYYYMMDD_HHMMSS: 2023/02/06 01:17:56.9842900
DATE_TIME_FIRST_SAMPLE_PRECISION: millisecond
SAMPLING_INTERVAL_S: 0.01
NDATA: 4702
DURATION_S: 
STREAM: HNE
UNITS: cm/s^2
INSTRUMENT: sensor = CMG-5T/GURALP | digitizer = 
INSTRUMENT_ANALOG/DIGITAL: 
INSTRUMENTAL_FREQUENCY_HZ: 
INSTRUMENTAL_DAMPING: 
FULL_SCALE_G: 
N_BIT_DIGITAL_CONVERTER: 
PGA_CM/S^2: 4.272
TIME_PGA_S: 
BASELINE_CORRECTION: BASELINE REMOVED
FILTER_TYPE: BUTTERWORTH
FILTER_ORDER: 
LOW_CUT_FREQUENCY_HZ: 
HIGH_CUT_FREQUENCY_HZ: 
LATE/NORMAL_TRIGGERED: 
DATABASE_VERSION: 
HEADER_FORMAT: DYNA 1.2
DATA_TYPE: Acceleration
PROCESSING: Automatic Paolucci et al., 2011
DATA_TIMESTAMP_YYYYMMDD_HHMMSS: 
DATA_LICENSE: U (unknown license)
DATA_CITATION: Turkish Accelerometric Archive v 1.0 - Disaster And Emergency Management Presidency, Earthquake Department
DATA_CREATOR: AFAD
ORIGINAL_DATA_MEDIATOR_CITATION: : AFAD - Disaster And Emergency Management Presidency
ORIGINAL_DATA_MEDIATOR: AFAD PROCESS SERVICE
ORIGINAL_DATA_CREATOR_CITATION: AFAD PROCESS SERVICE
ORIGINAL_DATA_CREATOR: network: TK
USER1: GuestUser
USER2: 
USER3: 
USER4: 
USER5: 
[...]
0.006716
0.011131
0.016496
0.016481
0.014883
0.009487
0.003459
0.000595
-0.001319
0.000248
0.003081
0.005913
0.010962
0.014427
0.015045
0.017245
0.013748
0.012783
0.009287
0.004524
0.001027
-0.002153
-0.004700
-0.007247
-0.006630
-0.004430
-0.004129
-0.003511
-0.003527
-0.008922
-0.014951
-0.023511
-0.032071
-0.039998
-0.045710
-0.049207
-0.045108
-0.034047
-0.018239
0.000734
0.016226
0.027287
0.032335
0.026940
0.014898
0.000958
-0.015514
-0.030087
-0.044977
-0.053854
-0.056717
-0.051353
-0.040608
-0.028598
-0.019752
-0.014071
-0.013453
-0.019482
-0.030574
-0.042932
-0.049276
-0.052773
-0.047725
-0.036664
-0.021172
-0.005364
0.008229
0.017075
0.021490
0.018626
0.011332
0.002139
-0.010219
-0.020362
-0.027972
-0.031469
-0.028320
-0.020423
-0.009679
0.006446
0.017824
0.025087
0.024122
0.010498
-0.004708
-0.021813
-0.038285
-0.048427
-0.053823
-0.050674
-0.038979
-0.026336
-0.015275
-0.009594
-0.010242
-0.016271
-0.028312
-0.041303
-0.055243
-0.068234
-0.074262
-0.076493
-0.072394
-0.066080
-0.054070
-0.036046
-0.019289
-0.005063
0.002201
0.004084
0.003119
0.002154
-0.001026
-0.002940
-0.005487
-0.013098
-0.022924
-0.038763
-0.058400
-0.073290
-0.082483
-0.085980
-0.080615
-0.071769
-0.060075
-0.047115
-0.034155
-0.022461
-0.012982
-0.006035
-0.002886
-0.004484
-0.006398
-0.009895
-0.013708
-0.015622
-0.017220
-0.016919
-0.017567
-0.013469
-0.007471
-0.001790
0.006423
0.010522
0.012405
0.015871
0.015539
0.014891
0.010444
0.005049
-0.001612
-0.010173
-0.015885
-0.020964
-0.021612
-0.023210
-0.021959
-0.021342
-0.024206
-0.025803
-0.029300
-0.029948
-0.026799
-0.025549
-0.022399
-0.018301
-0.016417
-0.014534
-0.017081
-0.022160
-0.026923
-0.035799
-0.044676
-0.052920
-0.058948
-0.059597
-0.057080
-0.052032
-0.048250
-0.045417
-0.041318
-0.039435
-0.039767
-0.041681
-0.044228
-0.044560
-0.042677
-0.039211
-0.035112
-0.027532
-0.016788
-0.008258
-0.005742
-0.007340
-0.013368
-0.020663
-0.025425
-0.031137
-0.035900
-0.037181
-0.036247
-0.032465
-0.026467
-0.022052
-0.018586
-0.019868
-0.027162
-0.037621
-0.051245
-0.063286
-0.069948
-0.075660
-0.077890
-0.075057
-0.067161
-0.053568
-0.037443
-0.021952
-0.008675
0.002386
0.009966
0.009317
0.005188
-0.001473
-0.006869
-0.010999
-0.016711
-0.020207
-0.021172
-0.016440
-0.006962
0.007264
0.018958
0.025905
0.022092
0.010051
-0.005472
-0.021627
-0.034302
-0.040963
-0.040029
-0.037513
-0.033731
-0.032797
-0.034711
-0.041056
-0.054047
-0.068620
-0.084776
-0.098083
-0.104428
-0.101911
-0.089584
-0.070928
-0.045942
-0.017158
0.006245
0.021737
0.024254
0.017592
0.003968
-0.015352
-0.032141
-0.046397
-0.055274
-0.058138
-0.053090
-0.040130
-0.019574
0.005728
0.028499
0.044307
0.050938
0.048707
0.036982
0.017345
-0.004823
-0.028258
-0.051376
-0.066899
-0.075775
-0.075158
-0.070426
-0.065062
-0.056849
-0.047053
-0.033461
-0.014804
0.004802
0.026623
0.042431
0.046530
0.043983
0.032258
0.017685
0.003112
-0.006715
-0.011477
-0.010543
-0.004546
0.005250
0.014095
0.021359
0.026724
0.027025
0.025427
0.018765
0.012737
0.007341
0.002579
0.001298
0.001915
0.003482
0.005365
0.009781
0.011348
0.008484
-0.000393
-0.015599
-0.029856
-0.042530
-0.049508
-0.050473
-0.049539
-0.042908
-0.032164
-0.018254
-0.002130
0.007349
0.008916
0.006369
-0.003141
-0.013283
-0.023426
-0.031353
-0.030419
-0.023156
-0.009879
0.004663
0.014775
0.019190
0.016010
0.009665
-0.001111
-0.009038
-0.017282
-0.026158
-0.030288
-0.029987
-0.025572
-0.018941
-0.007564
0.000333
0.006647
0.012011
0.015161
0.017361
0.014180
0.006570
-0.004522
-0.019096
-0.035251
-0.051723
-0.068195
-0.078338
-0.085949
-0.094509
-0.100854
-0.107515
-0.115126
-0.120522
-0.123069
-0.121818
-0.114871
-0.102544
-0.087369
-0.071244
-0.053537
-0.036780
-0.025086
-0.018771
-0.016572
-0.015005
-0.010273
-0.001744
0.008685
0.016897
0.022895
0.024778
0.026345
0.026013
0.020934
0.013640
0.005396
-0.001582
-0.009509
-0.013006
-0.016502
-0.017151
-0.010836
-0.002307
0.010336
0.022030
0.024863
0.018518
0.005528
-0.011894
-0.028050
-0.039775
-0.045487
-0.041388
-0.027478
-0.003758
0.022177
0.043049
0.057591
0.063589
0.064523
0.061026
0.055314
0.044539
0.028700
0.010962
-0.003928
-0.017868
-0.028644
-0.033090
-0.029308
-0.018563
-0.009717
-0.009100
-0.022091
-0.046158
-0.073707
-0.098091
-0.118677
-0.131035
-0.137380
-0.140243
-0.134879
-0.125716
-0.115288
-0.103594
-0.097597
-0.093498
-0.086551
-0.077705
-0.064429
-0.055266
-0.052434
-0.054981
-0.064490
-0.077481
-0.095219
-0.116755
-0.136708
-0.153497
-0.166488
-0.170617
-0.166835
-0.150077
-0.119078
-0.077952
-0.034294
0.002085
0.028337
0.040664
0.046028
0.044431
0.036503
0.024145
0.006724
-0.012280
-0.029068
-0.040160
-0.044607
-0.041457
-0.033244
-0.025664
-0.019983
-0.020948
-0.028876
-0.040284
-0.053591
-0.060886
-0.062800
-0.060284
-0.056185
-0.052086
-0.050519
-0.048636
-0.047385
-0.047084
-0.045834
-0.043634
-0.036687
-0.029424
-0.022477
-0.017745
-0.015229
-0.017143
-0.023171
-0.028883
-0.034279
-0.038725
-0.042221
-0.046351
-0.047316
-0.043534
-0.031840
-0.018247
0.000093
0.019383
0.035191
0.047518
0.051617
0.051918
0.047788
0.040178
0.027820
0.014512
0.002787
-0.004191
-0.011801
-0.018463
-0.027656
-0.039064
-0.048574
-0.057767
-0.065378
-0.071723
-0.075220
-0.073020
-0.068288
-0.058809
-0.045533
-0.029725
-0.009169
0.009171
0.029093
0.045851
0.055330
0.057530
0.051185
0.041358
0.032798
0.025504
0.026121
0.032435
0.041914
0.052659
0.063087
0.073515
0.082045
0.093106
0.101635
0.109215
0.111731
0.109501
0.109802
0.107887
0.101543
0.088552
0.062585
0.027441
-0.016564
-0.064050
-0.105840
-0.140984
-0.164102
-0.172663
-0.169830
-0.152439
-0.123023
-0.084428
-0.038239
0.008268
0.051293
0.081342
0.100632
0.109794
0.111361
0.105016
0.086329
0.060995
0.030282
0.001467
-0.022284
-0.040971
-0.049215
-0.047331
-0.041334
-0.033121
-0.025541
-0.022392
-0.023989
-0.033499
-0.043325
-0.051253
-0.052850
-0.046536
-0.040855
-0.028845
-0.013986
0.003405
0.020795
0.032806
0.038171
0.035940
0.028962
0.020085
0.011525
0.003914
-0.002431
-0.009409
-0.016703
-0.023997
-0.027177
-0.030674
-0.032588
-0.033553
-0.033569
-0.032635
-0.033599
-0.037096
-0.040909
-0.043140
-0.039674
-0.029879
-0.018818
-0.004908
0.006469
0.010884
0.003274
-0.013515
-0.038848
-0.066080
-0.092047
-0.115165
-0.131320
-0.144628
-0.155087
-0.163331
-0.170308
-0.175704
-0.177935
-0.183330
-0.188726
-0.196653
-0.204580
-0.205862
-0.200180
-0.187537
-0.172678
-0.158452
-0.145492
-0.138545
-0.142358
-0.156615
-0.179733
-0.204434
-0.224387
-0.237378
-0.241507
-0.232978
-0.213056
-0.188386
-0.162134
-0.139680
-0.118808
-0.101417
-0.090356
-0.085941
-0.086906
-0.087238
-0.087570
-0.084737
-0.084436
-0.089199
-0.097759
-0.112015
-0.126905
-0.135782
-0.139911
-0.138345
-0.130132
-0.117172
-0.099465
-0.082074
-0.063734
-0.041280
-0.020091
-0.001118
0.013740
0.029232
0.045990
0.060216
0.073809
0.081389
0.086753
0.090535
0.098432
0.108227
0.119605
0.128767
0.135081
0.135066
0.124290
0.108134
0.081535
0.055569
0.030552
0.015346
0.010583
0.016581
0.034604
0.062122
0.100717
0.137729
0.170943
0.188650
0.190533
0.180391
0.162336
0.146497
0.134772
0.125896
0.117968
0.107193
0.095151
0.084059
0.072334
0.063458
0.055530
0.052667
0.056765
0.067194
0.083002
0.100392
0.116517
0.128528
0.131677
0.125016
0.111708
0.089540
0.058193
0.019885
-0.014626
-0.041542
-0.056115
-0.063093
-0.062792
-0.057428
-0.049848
-0.036888
-0.023928
-0.010335
-0.000856
-0.000239
-0.005950
-0.017992
-0.034148
-0.050620
-0.070573
-0.087678
-0.100669
-0.109862
-0.111460
-0.107994
-0.097882
-0.081125
-0.061202
-0.035583
-0.002369
0.034960
0.070706
0.099806
0.116563
0.120662
0.115583
0.101010
0.082323
0.063635
0.049062
0.037337
0.026878
0.021482
0.019885
0.021452
0.029031
0.036928
0.048938
0.066645
0.085302
0.101427
0.104260
0.093168
0.066568
0.025095
-0.017645
-0.054054
-0.075274
-0.072124
-0.053468
-0.023102
0.009480
0.033516
0.041096
0.023675
-0.013685
-0.058640
-0.099164
-0.124180
-0.132741
-0.131174
-0.126442
-0.124242
-0.129005
-0.145160
-0.172076
-0.211334
-0.256289
-0.304092
-0.350629
-0.392102
-0.426297
-0.446883
-0.450380
-0.430774
-0.389331
-0.333331
-0.268786
-0.208355
-0.165330
-0.152053
-0.166943
-0.197656
-0.236282
-0.276173
-0.308468
-0.328105
-0.332551
-0.318325
-0.292074
-0.256644
-0.216784
-0.174708
-0.129151
-0.082012
-0.032658
0.015747
0.061621
0.101481
0.128049
0.141642
0.142892
0.134649
0.117860
0.098540
0.083334
0.070976
0.062732
0.051324
0.035168
0.016164
0.000325
-0.008235
-0.004770
0.013887
0.048684
0.099304
0.157836
0.217318
0.271103
0.312546
0.338481
0.350175
0.350476
0.341599
0.324811
0.300427
0.264650
0.217796
0.161449
0.102569
0.052234
0.016457
0.001568
0.006932
0.027488
0.059436
0.092650
0.125548
0.156547
0.177735
0.188164
0.186566
0.174841
0.156786
0.141264
0.130805
0.129840
0.137736
0.154810
0.179480
0.210479
0.244643
0.277224
0.300944
0.303460
0.281608
0.235388
0.170812
0.086298
-0.008976
-0.112795
-0.217880
-0.318534
-0.410643
-0.484081
-0.538213
-0.575572
-0.604703
-0.629087
-0.641129
-0.633232
-0.608563
-0.562690
-0.509537
-0.455752
-0.410512
-0.386475
-0.379845
-0.385240
-0.398864
-0.415969
-0.431492
-0.447331
-0.455891
-0.454324
-0.438833
-0.412581
-0.374936
-0.327797
-0.274961
-0.225290
-0.193342
-0.186078
-0.206981
-0.251619
-0.317461
-0.395329
-0.478893
-0.560243
-0.629249
-0.675470
-0.690043
-0.671387
-0.632792
-0.579324
-0.526488
-0.482830
-0.446135
-0.420516
-0.391099
-0.354720
-0.311379
-0.257910
-0.192732
-0.114895
-0.023766
0.078440
0.186658
0.292978
0.386639
0.459413
0.509400
0.539133
0.549245
0.541317
0.515035
0.472928
0.426391
0.386500
0.359584
0.346910
0.340249
0.334220
0.316482
0.287351
0.244295
0.188580
0.120523
0.037592
-0.058948
-0.166565
-0.275764
-0.373253
-0.443209
-0.477404
-0.471406
-0.434078
-0.374280
-0.308469
-0.245506
-0.188872
-0.142366
-0.100607
-0.070557
-0.059496
-0.071538
-0.110796
-0.169675
-0.235517
-0.299144
-0.347897
-0.374179
-0.371346
-0.337816
-0.278967
-0.205561
-0.131521
-0.064128
-0.006228
0.045025
0.087100
0.119682
0.146567
0.168388
0.189893
0.213296
0.241764
0.273395
0.300913
0.323367
0.339492
0.355933
0.373640
0.393246
0.415068
0.432142
0.442253
0.449200
0.456464
0.458980
0.449787
0.420973
0.373486
0.313657
0.253195
0.199063
0.158855
0.137636
0.142368
0.182544
0.257217
0.361321
0.478084
0.587252
0.672052
0.720141
0.737531
0.734035
0.723259
0.722927
0.735571
0.759291
0.783960
0.798186
0.802601
0.795623
0.771872
0.726918
0.656962
0.569283
0.475275
0.389495
0.323337
0.279964
0.260011
0.254299
0.250486
0.244457
0.227985
0.192208
0.140924
0.077298
0.012405
-0.045842
-0.089530
-0.104104
-0.090827
-0.059828
-0.029146
-0.019667
-0.041836
-0.092803
-0.168456
-0.258033
-0.352674
-0.446999
-0.536893
-0.621091
-0.698642
-0.759420
-0.803426
-0.835089
-0.866751
-0.906642
-0.956344
-1.018072
-1.084863
-1.150389
-1.205787
-1.240615
-1.253289
-1.245393
-1.217242
-1.178648
-1.134357
-1.091015
-1.046725
-0.998003
-0.953712
-0.924296
-0.916399
-0.923377
-0.924658
-0.904736
-0.856014
-0.775962
-0.672807
-0.560474
-0.453205
-0.361443
-0.291201
-0.241530
-0.212747
-0.194407
-0.175434
-0.149182
-0.118183
-0.090349
-0.073275
-0.074872
-0.095459
-0.128071
-0.161316
-0.183168
-0.181601
-0.152185
-0.087956
0.003806
0.108543
0.215180
0.305043
0.373069
0.411347
0.425257
0.432836
0.446746
0.470466
0.504946
0.542908
0.580236
0.611235
0.621663
0.608356
0.567199
0.495027
0.393107
0.261755
0.112681
-0.040824
-0.180088
-0.283907
-0.346584
-0.365588
-0.353894
-0.324477
-0.294744
-0.274505
-0.265976
-0.275486
-0.296705
-0.325836
-0.354967
-0.382516
-0.404368
-0.416093
-0.417374
-0.406629
-0.383226
-0.352543
-0.318380
-0.285798
-0.259230
-0.241839
-0.228563
-0.212122
-0.194098
-0.173859
-0.152671
-0.128951
-0.103965
-0.087207
-0.094185
-0.126481
-0.175233
-0.225251
-0.263560
-0.287944
-0.303783
-0.309495
-0.301599
-0.278512
-0.229790
-0.154485
-0.058292
0.044863
0.140106
0.223640
0.289451
0.337539
0.367589
0.375802
0.369773
0.359631
0.346007
0.327003
0.304834
0.273805
0.237711
0.205099
0.182930
0.168990
0.156316
0.132248
0.085078
0.017337
-0.069392
-0.168780
-0.264054
-0.340656
-0.383079
-0.382462
-0.347665
-0.287550
-0.216676
-0.141687
-0.071129
-0.015445
0.024416
0.046237
0.056981
0.063295
0.072774
0.095861
0.144899
0.214508
0.292029
0.361005
0.407511
0.427117
0.423620
0.400502
0.354281
0.287807
0.201394
0.108652
0.025720
-0.026830
-0.040454
-0.020531
0.021861
0.068683
0.119304
0.162012
0.185099
0.186666
0.158485
0.098972
0.021421
-0.064676
-0.145075
-0.205854
-0.244796
-0.253356
-0.223306
-0.152748
-0.051808
0.061790
0.168110
0.254175
0.318721
0.376620
0.431987
0.492735
0.564559
0.648726
0.745551
0.851871
0.958507
1.047737
1.108168
1.132205
1.114467
1.058119
0.977719
0.881179
0.773563
0.656452
0.540924
0.444067
0.376010
0.330739
0.299076
0.275958
0.254739
0.237001
0.208503
0.159118
0.086313
-0.008328
-0.117210
-0.228625
-0.331810
-0.416008
-0.472039
-0.501487
-0.498021
-0.465123
-0.415769
-0.365781
-0.334782
-0.328785
-0.341775
-0.366476
-0.388012
-0.399736
-0.402284
-0.391539
-0.368135
-0.339985
-0.316898
-0.317229
-0.345095
-0.395746
-0.467284
-0.558128
-0.668909
-0.793299
-0.920220
-1.034166
-1.124693
-1.188003
-1.222514
-1.228859
-1.221596
-1.212750
-1.214348
-1.235883
-1.278939
-1.346680
-1.427713
-1.508429
-1.572055
-1.593275
-1.556896
-1.464817
-1.330648
-1.176857
-1.018003
-0.865478
-0.736688
-0.643028
-0.587027
-0.559509
-0.547182
-0.540235
-0.530124
-0.520012
-0.515597
-0.524157
-0.547275
-0.577039
-0.603638
-0.619477
-0.624240
-0.615711
-0.585661
-0.523331
-0.421758
-0.284741
-0.123988
0.040563
0.193721
0.327891
0.431046
0.512047
0.572479
0.626264
0.685112
0.745543
0.816734
0.896470
0.983802
1.074614
1.160680
1.229023
1.263819
1.257791
1.213153
1.137500
1.042542
0.936508
0.832056
0.736149
0.659864
0.610162
0.584196
0.585763
0.608217
0.647761
0.697748
0.750267
0.801837
0.840431
0.854341
0.839768
0.796395
0.739415
0.686232
0.649189
0.637147
0.645993
0.663067
0.667799
0.645314
0.598777
0.534201
0.468359
0.419606
0.397438
0.404068
0.435700
0.477459
0.520168
0.549268
0.553050
0.526451
0.463774
0.357107
0.204234
0.011486
-0.221137
-0.489206
-0.785124
-1.082625
-1.356074
-1.585533
-1.760875
-1.888429
-1.969778
-2.007137
-2.001140
-1.953684
-1.873632
-1.775224
-1.681247
-1.605941
-1.559752
-1.547108
-1.555985
-1.581635
-1.624374
-1.678190
-1.729474
-1.772847
-1.789002
-1.768130
-1.710547
-1.613722
-1.489996
-1.343801
-1.185263
-1.026725
-0.884011
-0.768197
-0.671371
-0.578660
-0.472973
-0.348614
-0.213496
-0.085339
0.025728
0.109894
0.162413
0.184235
0.184536
0.165848
0.130388
0.070242
-0.023133
-0.136446
-0.265899
-0.395036
-0.520375
-0.634954
-0.728012
-0.788474
-0.804946
-0.777745
-0.717630
-0.638211
-0.547082
-0.451206
-0.342354
-0.222743
-0.086042
0.056040
0.182297
0.283870
0.350630
0.385427
0.393007
0.368940
0.325884
0.261624
0.182807
0.098609
0.010931
-0.073267
-0.156515
-0.225522
-0.276806
-0.301190
-0.295509
-0.261345
-0.209142
-0.147129
-0.083849
-0.028798
0.019923
0.061682
0.087618
0.100894
0.111322
0.125548
0.161611
0.234384
0.355895
0.532788
0.766647
1.045761
1.349560
1.653993
1.944184
2.207474
2.438485
2.635000
2.791006
2.904288
2.980859
3.030213
3.065327
3.099490
3.135236
3.163071
3.157992
3.104809
2.994344
2.842421
2.666130
2.480977
2.299939
2.141686
2.015714
1.929618
1.885296
1.870090
1.883683
1.911517
1.926376
1.915284
1.873178
1.801006
1.705099
1.580077
1.433850
1.269585
1.099307
0.931560
0.767928
0.614106
0.458386
0.293804
0.121627
-0.053715
-0.227474
-0.394904
-0.543979
-0.664255
-0.760478
-0.842144
-0.928240
-1.043135
-1.190944
-1.376097
-1.588782
-1.804000
-2.000862
-2.164811
-2.286352
-2.367068
-2.413605
-2.437356
-2.456677
-2.473465
-2.489621
-2.507992
-2.527945
-2.557393
-2.601081
-2.659328
-2.736880
-2.832470
-2.946100
-3.077768
-3.217665
-3.352498
-3.456950
-3.515196
-3.520275
-3.464908
-3.346562
-3.177897
-2.980750
-2.778222
-2.579808
-2.391205
-2.214945
-2.050078
-1.900401
-1.763700
-1.635543
-1.507387
-1.366888
-1.213097
-1.050129
-0.873552
-0.675771
-0.450457
-0.202990
0.052072
0.285298
0.474850
0.607121
0.673248
0.682094
0.645051
0.582691
0.509570
0.432651
0.363011
0.299068
0.245569
0.201564
0.173065
0.172734
0.200884
0.255935
0.326177
0.403065
0.470458
0.525509
0.561888
0.584026
0.593821
0.592856
0.579232
0.543772
0.492171
0.426646
0.359538
0.300025
0.254121
0.226889
0.215164
0.212301
0.213234
0.213536
0.220483
0.231860
0.238174
0.224234
0.175481
0.088436
-0.024877
-0.146102
-0.256250
-0.332852
-0.369579
-0.363581
-0.312012
-0.219300
-0.090827
0.066761
0.239224
0.426877
0.629722
0.845541
1.059779
1.253445
1.418629
1.550267
1.667346
1.787274
1.918596
2.064158
2.220481
2.379652
2.529328
2.651788
2.737537
2.782144
2.794155
2.794139
2.808682
2.857087
2.952014
3.097260
3.285546
3.501682
3.717502
3.914649
4.078884
4.198179
4.263990
4.271570
4.222818
4.130708
4.006319
3.859776
3.703422
3.538208
3.355903
3.153978
2.931481
2.693161
2.438384
2.157973
1.850029
1.511070
1.154072
0.788846
0.417924
0.044153
-0.326454
-0.691680
-1.048994
-1.400295
-1.743052
-2.081694
-2.418754
-2.749801
-3.070088
-3.358411
-3.597047
-3.772073
-3.881588
-3.928442
-3.927824
-3.891129
-3.831647
-3.758874
-3.675023
-3.596237
-3.539604
-3.510187
-3.504822
-3.506104
-3.500423
-3.484298
-3.453615
-3.410907
-3.351109
-3.279918
-3.210309
-3.149561
-3.097042
-3.047055
-2.984092
-2.902141
-2.803100
-2.696147
-2.588561
-2.468950
-2.333198
-2.179724
-2.018021
-1.860433
-1.711072
-1.570574
-1.437037
-1.310147
-1.189902
-1.056682
-0.899410
-0.719668
-0.519356
-0.311448
-0.108920
0.078100
0.239803
0.378719
0.494850
0.584396
0.644195
0.678042
0.689419
0.678327
0.646348
0.589367
0.508651
0.400085
0.271581
0.138964
0.012359
-0.091460
-0.162682
-0.199409
-0.202589
-0.182350
-0.152617
-0.125732
-0.107392
-0.106774
-0.129893
-0.180544
-0.251766
-0.320772
-0.371107
-0.386946
-0.363543
-0.299314
-0.197741
-0.063572
0.099080
0.277556
0.456348
0.621532
0.765196
0.892403
1.007584
1.103460
1.175600
1.219575
1.248042
1.276509
1.310673
1.355597
1.407166
1.457470
1.516635
1.585928
1.662182
1.743501
1.819755
1.889364
1.947896
1.982377
1.981412
1.938672
1.863969
1.771860
1.686080
1.629416
1.608197
1.632866
1.700576
1.807212
1.945496
2.103084
2.257508
2.390412
2.498314
2.581847
2.650823
2.704608
2.744785
2.778632
2.811530
2.842529
2.864983
2.864651
2.827608
2.740879
2.606362
2.443996
2.270869
2.101541
1.947719
1.809721
1.699573
