EVENT_NAME: 202302060117
EVENT_ID: 13194
EVENT_DATE_YYYYMMDD: 2023/02/06
EVENT_TIME_HHMMSS: 01:17:32.00000
EVENT_LATITUDE_DEGREE: 37.288
EVENT_LONGITUDE_DEGREE: 37.043
EVENT_DEPTH_KM: 8.6
HYPOCENTER_REFERENCE: AFAD
MAGNITUDE_W: 7.7
MAGNITUDE_W_REFERENCE: AFAD
MAGNITUDE_L: 
MAGNITUDE_L_REFERENCE: 
FOCAL_MECHANISM: 
NETWORK: TK
STATION_CODE: 2412
STATION_NAME: 
STATION_LATITUDE_DEGREE: 39.59168
STATION_LONGITUDE_DEGREE: 39.69179
STATION_ELEVATION_M: 1238.0
LOCATION: Kahramanmaras_Pazarck_Turkiye
SENSOR_DEPTH_M: 
VS30_M/S: 955
SITE_CLASSIFICATION_EC8: A
MORPHOLOGIC_CLASSIFICATION: 
EPICENTRAL_DISTANCE_KM: 344.69
EARTHQUAKE_BACKAZIMUTH_DEGREE: 
DATE_TIME_FIRST_SAMPLE_YYYYMMDD_HHMMSS: 2023/02/06 01:17:58.6201970
DATE_TIME_FIRST_SAMPLE_PRECISION: millisecond
SAMPLING_INTERVAL_S: 0.01
NDATA: 18251
DURATION_S: 
STREAM: HNN
UNITS: cm/s^2
INSTRUMENT: sensor = ACEBOX/SARA | digitizer = 
INSTRUMENT_ANALOG/DIGITAL: 
INSTRUMENTAL_FREQUENCY_HZ: 
INSTRUMENTAL_DAMPING: 
FULL_SCALE_G: 
N_BIT_DIGITAL_CONVERTER: 
PGA_CM/S^2: 8.215
TIME_PGA_S: 
BASELINE_CORRECTION: BASELINE REMOVED
FILTER_TYPE: BUTTERWORTH
FILTER_ORDER: 
LOW_CUT_FREQUENCY_HZ: 
HIGH_CUT_FREQUENCY_HZ: 
LATE/NORMAL_TRIGGERED: 
DATABASE_VERSION: 
HEADER_FORMAT: DYNA 1.2
DATA_TYPE: Acceleration
PROCESSING: Automatic Paolucci et al., 2011
DATA_TIMESTAMP_YYYYMMDD_HHMMSS: 
DATA_LICENSE: U (unknown license)
DATA_CITATION: Turkish Accelerometric Archive v 1.0 - Disaster And Emergency Management Presidency, Earthquake Department
DATA_CREATOR: AFAD
ORIGINAL_DATA_MEDIATOR_CITATION: : AFAD - Disaster And Emergency Management Presidency
ORIGINAL_DATA_MEDIATOR: AFAD PROCESS SERVICE
ORIGINAL_DATA_CREATOR_CITATION: AFAD PROCESS SERVICE
ORIGINAL_DATA_CREATOR: network: TK
USER1: GuestUser
USER2: 
USER3: 
USER4: 
USER5: 
[...]
0.049261
0.022140
-0.011526
-0.043790
-0.051973
-0.060390
-0.059922
-0.029061
0.003671
0.036168
0.087370
0.146755
0.199827
0.251028
0.305503
0.341274
0.353899
0.364420
0.363251
0.341508
0.316024
0.290073
0.266693
0.258276
0.262251
0.287267
0.336131
0.385462
0.431286
0.464018
0.472668
0.480618
0.485527
0.493944
0.534625
0.586995
0.645211
0.713714
0.776371
0.840666
0.889997
0.906363
0.893270
0.831781
0.753927
0.690568
0.617389
0.539535
0.454199
0.367226
0.312284
0.278851
0.262018
0.258744
0.251731
0.233494
0.178786
0.093917
0.002035
-0.101303
-0.196692
-0.290679
-0.398459
-0.483094
-0.548090
-0.607007
-0.637868
-0.651194
-0.646986
-0.607240
-0.550895
-0.493381
-0.441478
-0.404304
-0.382561
-0.362922
-0.338607
-0.330190
-0.335334
-0.329957
-0.315227
-0.278989
-0.210954
-0.137541
-0.073247
-0.012927
0.043652
0.092048
0.122909
0.131326
0.126182
0.110518
0.075214
0.033365
-0.001003
-0.049166
-0.111356
-0.171442
-0.231294
-0.288808
-0.352401
-0.423241
-0.497355
-0.586432
-0.682288
-0.782120
-0.897148
-1.024568
-1.163209
-1.291564
-1.402618
-1.503852
-1.557158
-1.564639
-1.571887
-1.566977
-1.535414
-1.509930
-1.507592
-1.518113
-1.549208
-1.612801
-1.686915
-1.748170
-1.804749
-1.870446
-1.931467
-1.981032
-2.034805
-2.093488
-2.152873
-2.215297
-2.266498
-2.301568
-2.323311
-2.321207
-2.300399
-2.272109
-2.235637
-2.199164
-2.158951
-2.092553
-2.021011
-1.976589
-1.934038
-1.874654
-1.804982
-1.725023
-1.643194
-1.555520
-1.452182
-1.352117
-1.262105
-1.180743
-1.125801
-1.070391
-0.980613
-0.894108
-0.814383
-0.711044
-0.613551
-0.524474
-0.415758
-0.312186
-0.250230
-0.235968
-0.253269
-0.310783
-0.417395
-0.534293
-0.646282
-0.745880
-0.812044
-0.867922
-0.906732
-0.928943
-0.964013
-0.971026
-0.938996
-0.899251
-0.846179
-0.793808
-0.736528
-0.662180
-0.603263
-0.544814
-0.467895
-0.393781
-0.330656
-0.267998
-0.196222
-0.156477
-0.159750
-0.156944
-0.179856
-0.248593
-0.314523
-0.384195
-0.464154
-0.526577
-0.563284
-0.571466
-0.546216
-0.500158
-0.464153
-0.426512
-0.368063
-0.327382
-0.290676
-0.225680
-0.172608
-0.118133
-0.014561
0.103273
0.207313
0.334264
0.487869
0.625108
0.749021
0.879480
1.001522
1.120057
1.230877
1.301484
1.358998
1.421422
1.483846
1.575728
1.662701
1.710395
1.763000
1.804850
1.806019
1.806486
1.812097
1.780301
1.711565
1.647504
1.588587
1.512837
1.431008
1.359466
1.290028
1.193938
1.083819
0.995678
0.890936
0.771700
0.692676
0.609445
0.500729
0.419134
0.339409
0.237707
0.166633
0.139746
0.128290
0.147228
0.194221
0.198663
0.172010
0.183232
0.198897
0.189077
0.184869
0.165464
0.121276
0.087376
0.063528
0.045994
0.064230
0.111457
0.164061
0.244721
0.337539
0.407444
0.486468
0.571336
0.629084
0.681455
0.731254
0.766791
0.815421
0.876442
0.923669
0.968792
1.022098
1.058336
1.064649
1.074936
1.108836
1.110239
1.060207
1.023033
1.001290
0.968091
0.925072
0.855167
0.773805
0.697821
0.608043
0.532059
0.492547
0.456309
0.400197
0.348060
0.329824
0.332396
0.352269
0.370973
0.374713
0.437137
0.495119
0.486936
0.583027
0.671402
0.639372
0.753933
0.866389
0.844646
0.950323
1.000823
0.972066
1.045244
0.984925
0.923436
0.984223
0.914552
0.874339
0.971598
1.021865
1.040101
1.125203
1.235088
1.263611
1.303591
1.398045
1.423061
1.460235
1.532244
1.555624
1.608696
1.678134
1.725595
1.808827
1.904683
1.998202
2.124219
2.270342
2.410387
2.545989
2.675747
2.767396
2.838002
2.921702
2.982021
3.029950
3.097751
3.138198
3.160409
3.182853
3.161578
3.156902
3.197583
3.193608
3.155265
3.129548
3.085594
3.032288
2.997219
2.956304
2.903232
2.877047
2.856707
2.802232
2.752433
2.722741
2.701699
2.706375
2.716662
2.723676
2.751966
2.798024
2.849693
2.907908
2.974774
3.042108
3.116923
3.188699
3.227743
3.270060
3.312144
3.287128
3.228678
3.174437
3.104298
3.036965
2.969865
2.887335
2.802232
2.700531
2.574514
2.453173
2.339314
2.211427
2.064135
1.900243
1.713205
1.496475
1.272497
1.057170
0.836699
0.625112
0.429658
0.229060
0.041087
-0.132157
-0.300958
-0.445913
-0.573332
-0.676670
-0.730210
-0.751486
-0.748914
-0.715715
-0.660772
-0.588295
-0.504596
-0.423702
-0.352160
-0.284826
-0.228013
-0.184995
-0.142911
-0.101997
-0.043080
0.051141
0.133204
0.195160
0.283301
0.352038
0.349700
0.344089
0.360455
0.339647
0.303174
0.294290
0.290549
0.286341
0.293589
0.308552
0.309253
0.291485
0.305746
0.359520
0.414930
0.488576
0.592148
0.710449
0.848857
1.009476
1.198151
1.416284
1.641664
1.867980
2.112532
2.369943
2.600233
2.791713
2.984830
3.191974
3.393273
3.583117
3.743034
3.877234
3.991327
4.046737
4.078066
4.125994
4.151946
4.171818
4.200576
4.190289
4.154050
4.126696
4.079235
4.001380
3.923058
3.828838
3.707731
3.610238
3.529811
3.432318
3.335292
3.218627
3.063620
2.905807
2.730459
2.517937
2.312195
2.095933
1.824728
1.551887
1.283254
0.958509
0.617165
0.290784
-0.042610
-0.352392
-0.642534
-0.944366
-1.232638
-1.530730
-1.873477
-2.199156
-2.478310
-2.751619
-2.983546
-3.141125
-3.273455
-3.384041
-3.439918
-3.469377
-3.494861
-3.481300
-3.423786
-3.362999
-3.292392
-3.194431
-3.096002
-3.000847
-2.909198
-2.830642
-2.729642
-2.617653
-2.544942
-2.459606
-2.324471
-2.180686
-2.014690
-1.824145
-1.653473
-1.480930
-1.275423
-1.086982
-0.929870
-0.754756
-0.612841
-0.530077
-0.417620
-0.316152
-0.271965
-0.179615
-0.049390
0.045298
0.157287
0.317438
0.460289
0.559185
0.660419
0.762121
0.832026
0.892580
0.952198
1.017428
1.089203
1.124507
1.138535
1.163317
1.175475
1.171033
1.178748
1.209609
1.217324
1.182956
1.152095
1.121701
1.082424
1.047120
0.994750
0.915960
0.827818
0.760485
0.671408
0.539780
0.469641
0.396463
0.219712
0.119647
0.124089
0.045065
0.002280
0.126427
0.174823
0.127128
0.210828
0.272550
0.222751
0.262965
0.273252
0.149339
0.108892
0.118946
0.061899
0.077330
0.110061
0.023790
-0.028580
-0.018995
-0.073937
-0.135426
-0.141972
-0.131919
-0.172833
-0.198317
-0.094044
-0.033490
-0.036529
0.064237
0.085980
0.041325
0.101645
0.063068
-0.015955
0.033142
-0.060610
-0.263546
-0.265650
-0.257935
-0.441934
-0.566080
-0.582679
-0.730907
-0.932440
-1.011697
-1.097501
-1.263965
-1.368238
-1.386942
-1.418504
-1.483033
-1.521609
-1.487241
-1.433935
-1.406815
-1.325453
-1.183538
-1.082070
-0.998838
-0.837050
-0.620554
-0.441699
-0.247881
0.035715
0.276994
0.482034
0.814727
1.179919
1.483621
1.799014
2.154152
2.535475
2.855310
3.133529
3.422736
3.610475
3.737427
3.858534
3.934285
4.001618
4.009333
3.992968
3.987123
3.897111
3.809671
3.732985
3.596214
3.466690
3.323372
3.147089
2.959116
2.756180
2.549971
2.320149
2.096638
1.865880
1.599352
1.352696
1.109079
0.899129
0.718170
0.460525
0.255953
0.163369
0.037352
-0.026708
0.030572
0.094165
0.166175
0.210129
0.235145
0.312298
0.377761
0.442056
0.560123
0.703908
0.835069
0.967164
1.176179
1.361113
1.493442
1.687260
1.802522
1.884117
2.019720
2.026500
2.050113
2.149945
2.165843
2.246503
2.366207
2.430268
2.547634
2.651206
2.718540
2.809253
2.824684
2.720410
2.628528
2.595329
2.446868
2.272221
2.252115
2.130540
1.920356
1.847178
1.722330
1.578311
1.547450
1.455801
1.372803
1.293780
1.068399
0.948929
0.923211
0.694090
0.495830
0.508922
0.431302
0.251746
0.246368
0.235380
0.067513
0.095803
0.160799
-0.044008
-0.087962
-0.047515
-0.261205
-0.282247
-0.183117
-0.353555
-0.420421
-0.336254
-0.354490
-0.301886
-0.186390
-0.119992
-0.053827
0.038055
0.193063
0.308793
0.376594
0.491388
0.545395
0.584440
0.648032
0.623484
0.623484
0.687310
0.707417
0.700871
0.721913
0.738746
0.655514
0.568542
0.545629
0.457254
0.397636
0.370983
0.239589
0.181607
0.228834
0.203584
0.155656
0.226263
0.404416
0.452578
0.393194
0.540720
0.705313
0.738279
0.964361
1.244684
1.381923
1.629046
1.862142
1.938594
2.108565
2.316644
2.455754
2.615203
2.736077
2.896228
3.141247
3.262354
3.331091
3.463654
3.504335
3.497788
3.529585
3.499425
3.510881
3.571201
3.444249
3.255107
3.165563
2.968471
2.649104
2.403851
2.183380
1.873365
1.598420
1.417461
1.187170
1.006445
0.987507
0.925317
0.840917
0.877623
0.869907
0.851671
1.008315
1.121240
1.122175
1.238138
1.354102
1.436632
1.631619
1.740569
1.726775
1.813513
1.961040
2.019255
1.994239
1.980912
1.962910
1.963144
2.039596
2.026737
1.945375
1.922697
1.852324
1.779146
1.743141
1.718592
1.757636
1.682120
1.520098
1.541841
1.627645
1.608707
1.553765
1.554233
1.609175
1.686094
1.829412
1.935322
1.983718
2.140830
2.254690
2.311268
2.467679
2.519816
2.467913
2.483577
2.481707
2.399644
2.293032
2.277836
2.298644
2.178238
2.022295
1.991434
1.973198
1.859572
1.770262
1.723269
1.657104
1.642843
1.594446
1.511448
1.501629
1.421670
1.283730
1.175949
1.066766
1.007382
0.934671
0.875520
0.857518
0.687080
0.509861
0.502146
0.493495
0.471051
0.545399
0.651542
0.602445
0.612498
0.929294
1.019539
0.945893
1.186003
1.183198
1.051336
1.313657
1.412085
1.344752
1.485731
1.548623
1.528049
1.650559
1.756703
1.636531
1.566859
1.724205
1.685862
1.438505
1.403201
1.416995
1.072378
0.742958
0.802810
0.655284
0.290560
0.200314
0.021927
-0.283178
-0.453383
-0.612832
-0.802910
-1.075050
-1.261386
-1.389974
-1.634293
-1.713550
-1.815719
-2.048347
-2.132047
-2.291730
-2.464273
-2.550310
-2.653882
-2.640322
-2.760026
-2.870612
-2.693394
-2.738049
-2.846999
-2.679366
-2.604785
-2.572754
-2.425228
-2.270455
-2.119655
-1.941034
-1.656970
-1.382726
-1.134433
-0.830029
-0.591089
-0.274995
0.012576
0.100951
0.382911
0.701343
0.729866
0.792524
1.044323
1.252637
1.234634
1.273679
1.449962
1.441779
1.540675
1.770498
1.779382
1.864718
2.083553
2.171928
2.059939
1.924103
2.016453
1.969226
1.824271
2.015751
2.068122
1.952626
2.036092
2.079111
2.122597
2.103659
2.007101
2.183384
2.294906
2.264044
2.350783
2.236223
2.202322
2.372994
2.216350
2.143873
2.328806
2.288359
2.268720
2.386554
2.405726
2.383281
2.376267
2.386554
2.364110
2.343068
2.342133
2.275267
2.306596
2.422793
2.463240
2.546940
2.581308
2.498076
2.547407
2.671787
2.654253
2.592998
2.625262
2.655188
2.620586
2.676230
2.706623
2.534315
2.489659
2.524028
2.389360
2.431444
2.479606
2.318754
2.354525
2.376268
2.220559
2.196712
2.200920
2.138730
2.089866
2.100621
2.105765
2.084255
2.184321
2.173332
2.098049
2.265448
2.242770
2.051991
2.173098
2.386555
2.465111
2.551382
2.737251
2.795233
2.758293
3.005417
3.185441
3.141019
3.300001
3.356814
3.134707
3.089350
3.248099
3.320576
3.330395
3.340682
3.106651
2.749877
2.556760
2.326236
2.032353
1.862850
1.839704
1.729586
1.370473
1.195125
1.195826
1.030298
0.958522
0.916906
0.800008
0.792293
0.681473
0.485317
0.352988
0.184420
-0.018282
-0.200411
-0.130505
0.055364
0.019827
0.104929
0.248948
0.094408
-0.069952
-0.214438
-0.419011
-0.527960
-0.606516
-0.693956
-0.819038
-0.943886
-1.061953
-1.236366
-1.314454
-1.415688
-1.590101
-1.745342
-2.071723
-2.260398
-2.305521
-2.593559
-2.640786
-2.545397
-2.838111
-3.010419
-2.991482
-3.274143
-3.579248
-3.660376
-3.823098
-4.080743
-4.261468
-4.483576
-4.804345
-5.176785
-5.536598
-5.722233
-5.861343
-6.104024
-6.328470
-6.578867
-6.753981
-6.817574
-6.999234
-6.993857
-6.862463
-6.929095
-6.815703
-6.769645
-6.843057
-6.609494
-6.632874
-6.722652
-6.464072
-6.260902
-5.802426
-5.385331
-5.398891
-5.107346
-4.705215
-4.548804
-4.247206
-3.845075
-3.603562
-3.461647
-3.089208
-2.767269
-2.813795
-2.518743
-2.023326
-2.064475
-1.959266
-1.385527
-1.206205
-1.324740
-1.141443
-1.071537
-1.278916
-1.294580
-1.390671
-1.750485
-1.815714
-1.789061
-2.083412
-2.227899
-2.319547
-2.704377
-3.016497
-3.294248
-3.468427
-3.548152
-3.917084
-4.003589
-4.148777
-4.898564
-5.032998
-4.825620
-5.184498
-5.480018
-5.519530
-5.489838
-5.702593
-6.047912
-5.967719
-5.935221
-5.980110
-5.850820
-5.965849
-6.010504
-5.770394
-5.469965
-5.299059
-5.468796
-5.502229
-5.276848
-5.151766
-5.013125
-4.899967
-4.933867
-5.019437
-4.866534
-4.620345
-4.670845
-4.496900
-4.242295
-4.274325
-3.897678
-3.746177
-4.202549
-4.069285
-3.750385
-3.992132
-4.240424
-4.508356
-4.787744
-4.567507
-4.412499
-4.677625
-4.390756
-3.773063
-3.786624
-4.176130
-4.631333
-4.833802
-4.692588
-4.702641
-4.625021
-4.436112
-4.521916
-4.559090
-4.402913
-4.267077
-4.273156
-4.269415
-4.212134
-4.460895
-4.628060
-4.388885
-4.429800
-4.626423
-4.308693
-4.086585
-4.556050
-4.817435
-4.532670
-4.395197
-4.245100
-4.204419
-4.492691
-4.288352
-3.967582
-4.134981
-3.973895
-3.588129
-3.606599
-3.616419
-3.350825
-3.155136
-3.165190
-3.126146
-2.930925
-2.818702
-2.893050
-2.767500
-2.454680
-2.561993
-2.624183
-2.327494
-2.523416
-2.807246
-2.726118
-2.769371
-2.746225
-2.862422
-3.207039
-3.480816
-3.993065
-4.212835
-3.996105
-4.086584
-4.167712
-4.123758
-4.217043
-4.328564
-4.471882
-4.445931
-4.367375
-4.399639
-4.256555
-4.227564
-4.244865
-4.026732
-4.071153
-4.090792
-4.000313
-4.314536
-4.300275
-4.137084
-4.543891
-4.685105
-4.737008
-5.210915
-5.348388
-5.351193
-5.764079
-6.113606
-6.173692
-6.299007
-6.541221
-6.728960
-6.966031
-7.186268
-7.342912
-7.638899
-7.801388
-7.799985
-7.960137
-8.073996
-8.164475
-8.215209
-7.990998
-7.935120
-8.063007
-7.987257
-7.793907
-7.536496
-7.410479
-7.201698
-6.767536
-6.713763
-6.627258
-6.213671
-6.163404
-6.210865
-6.041362
-5.885887
-5.693939
-5.527709
-5.486093
-5.536126
-5.534957
-5.322669
-5.076013
-5.102666
-5.313083
-5.372234
-5.400523
-5.483755
-5.456635
-5.555765
-5.683886
-5.588496
-5.449621
-5.314954
-5.314720
-5.208576
-4.780493
-4.716666
-4.802002
-4.441253
-4.167944
-3.997973
-3.565448
-3.148120
-2.898659
-2.628389
-2.185343
-1.724762
-1.393004
-1.120864
-0.859946
-0.496859
-0.158554
0.089972
0.403728
0.567854
0.729641
1.103250
1.336813
1.471013
1.600069
1.739880
1.978587
2.030256
2.058078
2.214722
2.214254
2.230620
2.241375
2.171703
2.157675
2.071170
2.104136
2.131958
1.910318
1.936270
2.065326
1.925047
1.867767
1.830593
1.545828
1.352244
1.456752
1.458154
1.319045
1.407187
1.426826
1.269246
1.436879
1.731463
1.695225
1.581833
1.709954
1.823346
1.688679
1.611058
1.669975
1.642621
1.524553
1.361830
1.311096
1.251946
0.951516
0.764712
0.649684
0.328446
0.228147
0.327511
0.090441
-0.273581
-0.353073
-0.463191
-0.692312
-0.608145
-0.525615
-0.692312
-0.693014
-0.697456
-0.848255
-0.866725
-0.755437
-0.585701
-0.502469
-0.544786
-0.528654
-0.501767
-0.571673
-0.599027
-0.540344
-0.647890
-0.815289
-0.792143
-0.802197
-0.836799
-0.805236
-0.866257
-0.890572
-0.817627
-0.781389
-0.808041
-0.867426
-0.917692
-0.915120
-0.793078
-0.650462
-0.523510
-0.345824
-0.255111
-0.171879
0.038539
0.199625
0.156373
0.048124
0.116861
0.236331
0.357672
0.453529
0.311614
0.454464
1.032411
1.139724
0.826202
1.003888
1.397836
1.255688
1.254986
1.660625
1.634673
1.643557
1.849065
1.643090
1.719775
2.093150
2.117231
2.108580
2.097826
2.232025
2.616622
2.571499
2.477746
2.851121
2.847380
2.596749
2.767655
2.813713
2.694009
2.735157
2.659874
2.599555
2.726974
2.894373
2.885957
2.673669
2.707803
2.837093
2.719025
2.618025
2.536430
2.447353
2.254003
2.001502
1.980226
1.792721
1.606852
1.721179
1.514970
1.266911
1.277899
1.245401
1.296837
1.179003
0.878807
0.775469
0.777573
0.739464
0.464051
0.224877
0.308342
0.211550
-0.014298
0.029890
0.105874
0.039008
0.136969
0.398121
0.394380
0.513850
0.839530
0.643140
0.555466
0.867352
0.778976
0.808201
1.123126
1.056026
1.081276
1.329335
1.244701
1.181809
1.327231
1.180173
1.005059
1.188823
1.341961
1.381472
1.435012
1.419581
1.437584
1.463301
1.476160
1.466107
1.360898
1.403449
1.420517
1.268782
1.387785
1.568277
1.580434
1.732168
1.964797
2.114661
2.109050
2.029091
2.011790
1.965498
1.964096
1.997529
1.993554
1.955211
1.646365
1.401813
1.541156
1.491358
1.307827
1.309931
1.092733
0.910138
1.040830
0.888161
0.557805
0.432022
0.396485
0.389238
0.167364
0.077820
0.350895
0.240543
0.090211
0.260883
0.195186
0.260883
0.466391
0.320501
0.216228
0.318631
0.360948
0.216695
0.035970
-0.069472
-0.299996
-0.379721
-0.236404
-0.313557
-0.440976
-0.526780
-0.651394
-0.701660
-0.858304
-0.985724
-1.007233
-1.205493
-1.347642
-1.379438
-1.604585
-1.912028
-2.045293
-2.103508
-2.379623
-2.609445
-2.526915
-2.571336
-2.786196
-2.867324
-2.974637
-3.134554
-3.061142
-2.931150
-3.168455
-3.376534
-3.171260
-3.075169
-3.123799
-3.143204
-3.340529
-3.255661
-3.045945
-3.279040
-3.135021
-2.734994
-2.964583
-2.963414
-2.475012
-2.431058
-2.562452
-2.333097
-2.102806
-1.941486
-1.546836
-1.328470
-1.390426
-1.154758
-0.929611
-0.863213
-0.584527
-0.500360
-0.538936
-0.278720
-0.045156
0.089745
0.269535
0.464054
0.654599
0.762847
0.941001
1.184384
1.224363
1.208933
1.298944
1.436417
1.551679
1.577865
1.755083
2.057617
2.167268
2.254474
2.357111
2.427484
2.636265
2.686765
2.436602
2.262891
2.336771
2.569867
2.706872
2.631823
2.556307
2.458346
2.296324
2.407378
2.633694
2.535966
2.467464
2.562152
2.391012
2.129861
2.135238
2.264060
2.346123
2.464892
2.412989
2.073749
2.025587
2.157449
2.053175
2.085907
2.080763
1.862864
1.767943
1.573190
1.353654
1.404388
1.308531
1.026572
1.086658
1.180644
0.908037
0.852393
0.857069
0.365861
0.029894
0.087876
0.052572
-0.080926
-0.195019
-0.303267
-0.523972
-0.843572
-1.114777
-1.275630
-1.282410
-1.338053
-1.396737
-1.371486
-1.645263
-1.904077
-1.785541
-1.776423
-1.884671
-1.785775
-1.636612
-1.758421
-1.961123
-1.830430
-1.687580
-1.579098
-1.312569
-1.340391
-1.316544
-0.963510
-0.922362
-0.939195
-0.612580
-0.311215
-0.213722
-0.194551
-0.277081
-0.454767
-0.270067
0.116867
0.098865
0.128791
0.331493
0.304841
0.543314
0.908038
0.804699
0.897049
1.287257
1.279775
1.216416
1.264579
1.260838
1.471489
1.575295
1.572957
1.761164
1.651046
1.399947
1.390362
1.296375
1.091569
0.787866
0.404906
0.297126
0.355107
0.173915
-0.024813
0.060757
-0.003771
-0.213487
0.035507
0.228156
-0.085366
-0.186601
-0.158311
-0.366157
-0.358675
-0.186834
-0.080924
-0.099160
-0.245985
-0.101031
0.008153
-0.188237
-0.117396
-0.015461
0.102607
0.456108
0.567630
0.755603
1.018391
0.873203
0.954097
1.293337
1.453488
1.753450
2.073050
2.138280
2.108588
2.032136
1.930902
1.969712
2.221746
2.415096
2.453673
2.590444
2.757375
2.929918
3.141037
3.152025
3.126541
3.243440
3.410605
3.672692
3.733479
3.504358
3.378575
3.266118
3.086796
2.981353
2.876145
2.751764
2.515162
2.320876
2.333267
2.202107
2.179663
2.452738
2.411823
2.286976
2.388911
2.195327
1.898638
1.973454
2.090586
2.102510
2.275052
2.300536
2.024655
2.192288
2.622943
2.503005
2.400601
2.581093
2.476352
2.394990
2.505810
2.543218
2.492016
2.343555
2.459519
2.673911
2.512123
2.487107
2.575248
2.376053
2.288847
2.347997
2.286976
2.107654
2.015772
2.199770
2.322514
2.188080
