EVENT_NAME: 202302060117
EVENT_ID: 13194
EVENT_DATE_YYYYMMDD: 2023/02/06
EVENT_TIME_HHMMSS: 01:17:32.00000
EVENT_LATITUDE_DEGREE: 37.288
EVENT_LONGITUDE_DEGREE: 37.043
EVENT_DEPTH_KM: 8.6
HYPOCENTER_REFERENCE: AFAD
MAGNITUDE_W: 7.7
MAGNITUDE_W_REFERENCE: AFAD
MAGNITUDE_L: 
MAGNITUDE_L_REFERENCE: 
FOCAL_MECHANISM: 
NETWORK: TK
STATION_CODE: 2904
STATION_NAME: 
STATION_LATITUDE_DEGREE: 40.19031
STATION_LONGITUDE_DEGREE: 39.11936
STATION_ELEVATION_M: 1443.0
LOCATION: Kahramanmaras_Pazarck_Turkiye
SENSOR_DEPTH_M: 
VS30_M/S: 521
SITE_CLASSIFICATION_EC8: B
MORPHOLOGIC_CLASSIFICATION: 
EPICENTRAL_DISTANCE_KM: 369.54
EARTHQUAKE_BACKAZIMUTH_DEGREE: 
DATE_TIME_FIRST_SAMPLE_YYYYMMDD_HHMMSS: 2023/02/06 01:17:59.1927630
DATE_TIME_FIRST_SAMPLE_PRECISION: millisecond
SAMPLING_INTERVAL_S: 0.01
NDATA: 21001
DURATION_S: 
STREAM: HNE
UNITS: cm/s^2
INSTRUMENT: sensor = ACEBOX/SARA | digitizer = 
INSTRUMENT_ANALOG/DIGITAL: 
INSTRUMENTAL_FREQUENCY_HZ: 
INSTRUMENTAL_DAMPING: 
FULL_SCALE_G: 
N_BIT_DIGITAL_CONVERTER: 
PGA_CM/S^2: 8.878
TIME_PGA_S: 
BASELINE_CORRECTION: BASELINE REMOVED
FILTER_TYPE: BUTTERWORTH
FILTER_ORDER: 
LOW_CUT_FREQUENCY_HZ: 
HIGH_CUT_FREQUENCY_HZ: 
LATE/NORMAL_TRIGGERED: 
DATABASE_VERSION: 
HEADER_FORMAT: DYNA 1.2
DATA_TYPE: Acceleration
PROCESSING: Automatic Paolucci et al., 2011
DATA_TIMESTAMP_YYYYMMDD_HHMMSS: 
DATA_LICENSE: U (unknown license)
DATA_CITATION: Turkish Accelerometric Archive v 1.0 - Disaster And Emergency Management Presidency, Earthquake Department
DATA_CREATOR: AFAD
ORIGINAL_DATA_MEDIATOR_CITATION: : AFAD - Disaster And Emergency Management Presidency
ORIGINAL_DATA_MEDIATOR: AFAD PROCESS SERVICE
ORIGINAL_DATA_CREATOR_CITATION: AFAD PROCESS SERVICE
ORIGINAL_DATA_CREATOR: network: TK
USER1: GuestUser
USER2: 
USER3: 
USER4: 
USER5: 
[...]
-0.183890
-0.304295
-0.594672
-0.905388
-1.055252
-1.197401
-1.348434
-1.482868
-1.616366
-1.625251
-1.615431
-1.737240
-1.858814
-1.966595
-2.053100
-2.002133
-1.934331
-2.047489
-2.219097
-2.155504
-1.937371
-1.805743
-1.757348
-1.858582
-2.041411
-2.095886
-2.125111
-2.157843
-2.096588
-2.000497
-1.930592
-1.999329
-2.129320
-2.080924
-1.973378
-1.974079
-2.091445
-2.360079
-2.554598
-2.557871
-2.663782
-2.810840
-2.804294
-2.884486
-3.112907
-3.275162
-3.277266
-3.144002
-3.035988
-3.036923
-3.108465
-3.182111
-3.095373
-2.977305
-3.062174
-3.181410
-3.260434
-3.369384
-3.350446
-3.233080
-3.218818
-3.248745
-3.286854
-3.415910
-3.495635
-3.436250
-3.399311
-3.421755
-3.480438
-3.581673
-3.668879
-3.782037
-3.866672
-3.853346
-3.843059
-3.751878
-3.595234
-3.527433
-3.454254
-3.482076
-3.619082
-3.533746
-3.326368
-3.199416
-3.095142
-3.037628
-2.965151
-2.755201
-2.473943
-2.278021
-2.105479
-1.848068
-1.682072
-1.517479
-1.236923
-1.104126
-0.960107
-0.684226
-0.529453
-0.396188
-0.272276
-0.164495
0.120036
0.406437
0.627609
0.885721
1.057329
1.185216
1.324792
1.441925
1.609090
1.709389
1.699569
1.791217
1.917468
1.946926
1.943653
1.888009
1.834937
1.781865
1.606751
1.482137
1.434442
1.284811
1.122322
1.018750
1.003553
1.033479
0.932946
0.769755
0.638127
0.508136
0.365286
0.227112
0.171701
0.060648
-0.197932
-0.388477
-0.541848
-0.773074
-0.980218
-1.110210
-1.179648
-1.243474
-1.305431
-1.377207
-1.488260
-1.505562
-1.499483
-1.585988
-1.529409
-1.333955
-1.222667
-1.161179
-1.061347
-0.936734
-0.841578
-0.729122
-0.540681
-0.374452
-0.277426
-0.195129
-0.116807
-0.047837
0.046149
0.185025
0.291168
0.365983
0.438227
0.407132
0.377439
0.484518
0.488259
0.340966
0.347045
0.454825
0.439629
0.400818
0.381179
0.277373
0.173333
0.154629
0.176840
0.237393
0.315949
0.325301
0.321560
0.412741
0.552551
0.713404
0.875659
0.930367
0.894830
0.945798
1.179829
1.410587
1.510184
1.701196
1.960945
2.109406
2.217187
2.195677
2.099820
2.176973
2.231682
2.193339
2.251320
2.242903
2.129746
2.118289
2.142137
2.117822
2.119692
2.098884
1.987362
1.840304
1.707741
1.586867
1.439341
1.301868
1.230794
1.169539
1.157147
1.233131
1.292516
1.360083
1.462720
1.523273
1.561382
1.577982
1.600894
1.722001
1.854564
1.920494
2.018923
2.153122
2.259968
2.352551
2.423625
2.439757
2.365410
2.262539
2.244069
2.176501
1.971461
1.833988
1.770395
1.627077
1.474174
1.326180
1.066899
0.777925
0.549505
0.329735
0.143867
-0.056030
-0.337288
-0.544901
-0.702948
-0.910793
-0.966437
-0.923185
-1.041720
-1.266633
-1.522641
-1.715524
-1.713420
-1.670635
-1.698691
-1.760881
-1.854167
-1.872637
-1.834995
-1.894380
-2.044244
-2.241569
-2.467885
-2.680641
-2.852482
-2.956989
-3.001878
-3.117608
-3.330364
-3.414297
-3.427858
-3.578423
-3.676852
-3.668201
-3.707480
-3.759149
-3.826483
-3.920703
-4.007676
-4.074074
-4.067996
-4.044382
-4.035264
-3.960683
-3.834433
-3.714027
-3.636640
-3.606481
-3.571177
-3.508753
-3.455915
-3.404948
-3.297167
-3.180503
-3.099609
-2.989023
-2.849680
-2.713844
-2.583852
-2.468123
-2.354030
-2.256069
-2.175877
-2.107140
-2.029052
-1.899529
-1.784267
-1.718336
-1.688878
-1.738443
-1.738209
-1.609387
-1.588345
-1.712492
-1.757381
-1.742652
-1.708050
-1.577825
-1.541119
-1.615700
-1.516570
-1.331403
-1.216609
-1.108594
-1.056692
-1.037988
-0.915478
-0.665315
-0.393643
-0.213152
-0.050896
0.141519
0.285538
0.431661
0.625946
0.793579
0.933623
1.060809
1.093774
1.076005
1.118323
1.082318
0.920530
0.835895
0.809476
0.728114
0.601396
0.433062
0.316397
0.304006
0.291147
0.220072
0.073715
-0.119869
-0.270668
-0.382657
-0.542575
-0.752291
-0.914079
-1.052721
-1.252618
-1.420017
-1.509093
-1.607756
-1.743826
-1.938112
-2.156946
-2.276650
-2.291847
-2.284833
-2.300966
-2.416462
-2.611682
-2.720164
-2.784693
-2.920529
-2.993006
-3.000722
-3.095643
-3.241065
-3.337390
-3.315179
-3.221894
-3.194540
-3.198982
-3.184487
-3.214881
-3.262809
-3.232416
-3.159705
-3.165784
-3.195944
-3.154562
-3.103127
-3.037430
-2.971265
-2.980149
-2.980851
-2.941573
-2.924506
-2.894113
-2.826545
-2.758510
-2.702867
-2.640209
-2.588540
-2.565160
-2.558614
-2.590645
-2.626649
-2.599061
-2.550666
-2.587606
-2.669669
-2.652368
-2.694919
-2.917728
-3.029951
-3.008675
-3.015222
-3.012416
-3.101493
-3.270061
-3.335057
-3.400286
-3.584752
-3.736253
-3.756827
-3.773661
-3.812238
-3.778337
-3.777870
-3.862270
-3.829539
-3.652788
-3.553425
-3.542202
-3.453593
-3.363114
-3.332720
-3.234760
-3.078349
-2.908379
-2.742617
-2.624081
-2.437044
-2.145966
-1.978801
-1.965943
-1.847641
-1.621559
-1.456031
-1.297517
-1.155836
-1.083592
-0.990307
-0.868499
-0.736871
-0.635170
-0.580929
-0.477824
-0.403711
-0.461225
-0.553341
-0.609686
-0.609219
-0.599400
-0.698764
-0.813324
-0.786671
-0.803739
-0.991244
-1.116794
-1.104636
-1.070970
-1.078217
-1.196986
-1.340538
-1.358307
-1.310612
-1.321601
-1.385661
-1.418861
-1.408340
-1.352696
-1.247020
-1.162853
-1.065594
-0.875750
-0.695493
-0.616236
-0.518508
-0.292193
-0.062370
0.107367
0.305159
0.479104
0.628968
0.805017
0.930800
1.080430
1.267935
1.346491
1.421540
1.555739
1.628450
1.710513
1.840270
1.896615
1.883757
1.895212
1.914150
1.867390
1.831152
1.860142
1.895680
1.967455
1.986159
1.907603
1.929813
1.965584
1.909239
1.923734
1.954829
1.933554
1.933554
1.925604
1.902458
1.874403
1.857803
1.897081
1.937294
1.898249
1.804263
1.765219
1.789767
1.750489
1.634526
1.536564
1.490974
1.441876
1.342746
1.276815
1.278452
1.215326
1.054474
0.919105
0.834704
0.761525
0.728794
0.684138
0.598568
0.574721
0.584540
0.609323
0.713129
0.792386
0.843120
0.942250
1.001868
1.082762
1.244783
1.360045
1.452628
1.557370
1.656499
1.826704
2.023561
2.156124
2.242863
2.333810
2.467308
2.613431
2.773582
2.953840
3.092014
3.206340
3.265491
3.254035
3.328850
3.474973
3.543943
3.539501
3.505600
3.480350
3.504898
3.548151
3.575739
3.587896
3.562880
3.545111
3.556567
3.502092
3.473803
3.544409
3.543708
3.531784
3.593273
3.559372
3.495779
3.531316
3.568022
3.621795
3.733550
3.753890
3.722562
3.810002
3.847175
3.738459
3.758098
3.886219
3.906559
3.936485
3.990492
3.919184
3.837823
3.836186
3.845304
3.854889
3.818417
3.710636
3.624131
3.632548
3.691932
3.670656
3.583684
3.548380
3.539028
3.557264
3.626468
3.625533
3.544639
3.493905
3.476838
3.440365
3.328844
3.202125
3.157002
3.083122
2.921335
2.795552
2.714891
2.584432
2.398096
2.261558
2.183937
2.013265
1.762401
1.621888
1.619317
1.597573
1.473661
1.297144
1.104495
0.929848
0.798921
0.718963
0.674073
0.548057
0.379489
0.289710
0.185437
0.080695
0.012426
-0.081093
-0.094887
-0.092315
-0.180691
-0.188406
-0.171806
-0.297589
-0.470132
-0.568795
-0.524373
-0.446519
-0.533725
-0.702995
-0.840234
-0.950352
-1.001086
-1.057432
-1.211270
-1.488086
-1.798102
-1.897933
-1.824053
-1.830366
-1.943056
-2.128458
-2.297026
-2.334200
-2.281362
-2.124718
-1.994726
-2.091285
-2.213093
-2.193454
-2.104378
-1.980231
-1.920146
-1.934407
-1.887414
-1.777763
-1.712768
-1.740824
-1.806053
-1.847669
-1.841824
-1.820081
-1.833876
-1.786415
-1.652683
-1.581375
-1.580440
-1.567581
-1.504923
-1.387090
-1.259203
-1.176205
-1.140200
-1.027744
-0.802130
-0.579555
-0.415897
-0.379658
-0.368904
-0.196361
-0.010259
0.130721
0.306302
0.407770
0.516486
0.710070
0.852219
1.003018
1.130437
1.106590
1.133944
1.263234
1.322384
1.402810
1.533971
1.559454
1.535373
1.571845
1.643153
1.753506
1.886302
1.978886
2.010916
1.995485
2.014189
2.098356
2.132958
2.046687
1.931892
1.920670
1.974910
1.978184
1.949426
1.940308
1.945452
1.927683
1.892847
1.852634
1.751633
1.709316
1.809381
1.835566
1.753503
1.688040
1.571609
1.400703
1.349969
1.457983
1.555242
1.529057
1.423381
1.354410
1.393688
1.443721
1.425017
1.396260
1.420107
1.542850
1.702066
1.760048
1.708612
1.653903
1.748591
2.009743
2.224836
2.290299
2.300352
2.315549
2.402288
2.586754
2.748307
2.848840
2.910563
2.880169
2.849775
2.936514
3.071415
3.158153
3.110692
2.999872
3.006652
3.068609
3.053412
2.991689
2.923654
2.800910
2.654553
2.589090
2.527133
2.412806
2.313442
2.228574
2.189296
2.157499
2.099517
2.110272
2.094607
2.007401
2.001088
1.988697
1.884189
1.863615
1.932585
1.995944
2.084553
2.072396
1.922765
1.851925
1.832987
1.771966
1.827142
2.060004
2.244704
2.194203
2.045274
1.969290
1.951755
1.962977
1.987994
2.043871
2.097410
2.091565
2.071459
1.993604
1.892837
1.889564
1.810073
1.602695
1.450259
1.345985
1.258779
1.167364
1.033632
0.872779
0.667739
0.500807
0.388584
0.252982
0.206222
0.264672
0.335044
0.376193
0.325692
0.345565
0.535642
0.663997
0.703508
0.815731
0.976349
1.112186
1.243580
1.382923
1.454464
1.439501
1.489768
1.696211
1.897510
1.938424
1.925098
1.930475
1.925097
1.992665
2.015577
1.917616
1.927903
1.884884
1.685455
1.658334
1.619524
1.384323
1.223471
1.062852
0.860851
0.768735
0.640848
0.489113
0.401205
0.200841
-0.064753
-0.282185
-0.546376
-0.812905
-1.035246
-1.268576
-1.523181
-1.814492
-2.058109
-2.247485
-2.534588
-2.871724
-3.144799
-3.366206
-3.565635
-3.715733
-3.806914
-3.961921
-4.110383
-4.107344
-4.135633
-4.231490
-4.290875
-4.392810
-4.434193
-4.336232
-4.246220
-4.184965
-4.155039
-4.177718
-4.192681
-4.162521
-4.056377
-3.934101
-3.889446
-3.883835
-3.897162
-3.935505
-3.931530
-3.891083
-3.969405
-4.194552
-4.387669
-4.512984
-4.626376
-4.711245
-4.866720
-5.117585
-5.315611
-5.444433
-5.612066
-5.847968
-6.085272
-6.295456
-6.456542
-6.508679
-6.521538
-6.610615
-6.797185
-6.987730
-7.042673
-7.039633
-7.046414
-6.986562
-6.963182
-6.986094
-6.903096
-6.777547
-6.667429
-6.520604
-6.384534
-6.235372
-5.980533
-5.734578
-5.548710
-5.242435
-4.904598
-4.717561
-4.523275
-4.281061
-4.092855
-3.874021
-3.654485
-3.571721
-3.540392
-3.408998
-3.225234
-3.119090
-3.059238
-2.947483
-2.801126
-2.722804
-2.769330
-2.823571
-2.798788
-2.795749
-2.822168
-2.850926
-2.943276
-3.035392
-3.116987
-3.214247
-3.209571
-3.230847
-3.383984
-3.513274
-3.692363
-3.868179
-3.858593
-3.825394
-3.804586
-3.782142
-3.863737
-3.938552
-3.979701
-3.980168
-3.861166
-3.803885
-3.834513
-3.736786
-3.590663
-3.567049
-3.583649
-3.539228
-3.439864
-3.317354
-3.226641
-3.205833
-3.263114
-3.310107
-3.229213
-3.121900
-3.040305
-2.923874
-2.891844
-2.917796
-2.834330
-2.677686
-2.523848
-2.408118
-2.338914
-2.279997
-2.214534
-2.139252
-2.057423
-1.926496
-1.752785
-1.633081
-1.527872
-1.381983
-1.297582
-1.297349
-1.280983
-1.211078
-1.131820
-1.136497
-1.239367
-1.305065
-1.355097
-1.451188
-1.485089
-1.551020
-1.687557
-1.717717
-1.748111
-1.814276
-1.835552
-1.975129
-2.144866
-2.195366
-2.269480
-2.355985
-2.399705
-2.456284
-2.512395
-2.527592
-2.507486
-2.571079
-2.726788
-2.803941
-2.753675
-2.643557
-2.598901
-2.641686
-2.653844
-2.657117
-2.647999
-2.565469
-2.497668
-2.490888
-2.484342
-2.448337
-2.401811
-2.354117
-2.324191
-2.285381
-2.160533
-2.078704
-2.097642
-2.013241
-1.891199
-1.875067
-1.832049
-1.752558
-1.722398
-1.681250
-1.586094
-1.464052
-1.387133
-1.395316
-1.420566
-1.427346
-1.387367
-1.279587
-1.214357
-1.193550
-1.123644
-1.101434
-1.115929
-1.026385
-0.952739
-0.940348
-0.803810
-0.594562
-0.440957
-0.307225
-0.189859
-0.108732
-0.077169
-0.063609
-0.000250
0.086021
0.175799
0.297841
0.421520
0.529300
0.642692
0.711428
0.709791
0.743692
0.854512
1.030327
1.215027
1.265059
1.288673
1.466359
1.680049
1.824770
1.970659
2.175465
2.355957
2.420952
2.423290
2.449008
2.538318
2.597001
2.580635
2.603080
2.600508
2.563100
2.588584
2.550241
2.460229
2.446201
2.432641
2.404585
2.402247
2.348941
2.239290
2.162604
2.100414
2.009467
1.901686
1.732417
1.565953
1.503529
1.460978
1.432455
1.440637
1.386162
1.294981
1.214321
1.162652
1.240273
1.353430
1.331921
1.197955
0.978653
0.735270
0.506148
0.231904
0.018681
-0.060810
-0.079280
-0.091672
-0.220962
-0.489829
-0.699077
-0.570021
-0.176073
-0.181918
-0.807793
-1.424083
-1.540982
-1.252009
-1.083441
-1.223018
-1.151009
-0.589194
0.242423
0.867363
0.753971
0.053748
-0.599014
-0.744903
-0.249721
0.439280
0.889807
1.153530
1.036397
0.500768
0.345760
0.899158
1.201458
0.522978
-0.591066
-1.228397
-1.216240
-1.309525
-2.271367
-3.752006
-4.470231
-3.525222
-1.748130
-0.901550
-1.339686
-2.080122
-2.267394
-1.774549
-1.322853
-1.369379
-1.350909
-0.686223
0.568800
2.042658
3.468821
4.419207
4.282669
3.341869
2.611954
2.563090
2.990705
3.279445
2.837100
1.950541
1.498611
1.702014
1.939318
1.814704
1.492532
0.864318
-0.321735
-1.475759
-1.862460
-1.852406
-1.960187
-1.915766
-1.625390
-1.310231
-1.039026
-0.786525
-0.169768
0.789969
1.312506
1.378203
1.805117
2.931084
4.066637
4.407046
4.295992
4.347428
4.758677
5.879033
7.126342
7.186661
6.303375
5.776863
5.937482
6.121480
5.667680
4.792577
4.329424
4.292016
4.068038
3.651879
3.310769
3.050552
2.752695
2.383061
2.254706
2.518429
2.819326
3.025536
3.203221
3.332277
3.803846
4.900823
5.968809
6.279759
5.971848
5.731972
6.103476
6.992606
7.868177
8.316133
8.297195
8.314028
8.672205
8.877713
8.734161
8.546890
8.362424
8.136575
7.774189
7.342366
7.086358
6.907736
6.798553
6.715321
6.265729
5.558960
4.998547
4.808236
5.131578
5.605251
5.702978
5.363271
4.928875
4.825771
4.995741
5.197040
5.406055
5.515004
5.686612
6.034969
6.083599
5.792521
5.642190
5.796028
6.084768
5.976987
5.203819
4.400726
4.161551
4.403999
4.695310
4.566020
4.077617
3.734870
3.701905
3.789812
3.851301
3.833065
3.577758
2.987654
2.470494
2.413214
2.710136
3.093797
3.286212
3.322684
3.329698
3.098940
2.710603
2.512109
2.699848
3.195030
3.433270
3.189887
2.852751
2.590430
2.514914
2.681845
2.762271
2.580377
2.262412
1.920367
1.629289
1.430094
1.336808
1.274618
1.244692
1.512156
2.095948
2.597676
2.765309
2.732811
2.737955
2.700781
2.387492
1.814221
1.208920
0.925090
1.141119
1.669734
2.182685
2.342836
2.209805
2.248382
2.580374
2.905820
3.007989
2.897403
2.641862
2.373930
2.274099
2.246744
2.063681
1.723974
1.383565
1.248663
1.291682
1.233233
1.074952
1.081030
1.295656
1.365094
0.934673
0.299212
0.071961
0.299212
0.580236
0.610162
0.281443
-0.256291
-0.715937
-0.901806
-0.761527
-0.621717
-0.837745
-1.125082
-1.171608
-1.056580
-0.739083
-0.238524
0.199846
0.347606
0.136253
-0.164878
-0.458060
-1.010289
-1.656271
-2.020293
-2.145141
-2.226269
-2.452585
-2.773822
-2.797904
-2.584447
-2.621855
-2.869212
-2.970914
-2.912465
-2.892592
-3.124519
-3.590945
-3.831756
-3.508648
-2.975591
-2.729169
-2.779435
-2.868512
-2.735014
-2.330545
-1.996448
-1.922101
-1.862950
-1.717061
-1.704904
-1.910178
-2.080149
-2.031519
-1.895683
-1.844014
-1.898722
-1.909711
-1.748157
-1.537506
-1.414061
-1.444221
-1.668199
-1.938235
-2.034092
-1.808010
-1.376888
-0.982472
-0.554857
-0.228008
-0.321294
-0.545038
-0.528672
-0.210708
0.344327
0.783164
0.898894
0.804439
0.587242
0.317673
-0.023437
-0.472094
-0.955353
-1.288514
-1.232169
-0.958159
-0.918647
-1.124623
-1.293191
-1.313298
-1.160862
-0.791462
-0.293474
0.142791
0.434103
0.635402
0.854236
1.041975
1.034026
0.956405
1.108841
1.526169
1.968747
2.215871
2.332302
2.484270
2.620340
2.620807
2.500168
2.417871
2.409922
2.264733
2.051978
2.043795
2.155550
2.254680
2.318974
2.295126
2.287177
2.348900
2.474682
2.825378
3.289232
3.497311
3.448448
3.410572
3.463878
3.476737
3.348148
3.135626
2.955836
2.844548
2.778150
2.825377
2.926377
2.830988
2.667563
2.724376
2.900659
3.021532
2.904400
2.535000
2.225452
1.974821
1.741024
1.755987
1.843895
1.757156
1.606356
1.491094
1.506057
1.587185
1.491795
1.266648
1.041034
0.769829
0.546085
0.519198
0.550527
0.364658
-0.022744
-0.379285
-0.721798
-1.159233
-1.580536
-1.874185
-1.990617
-2.026154
-2.165497
-2.256444
-2.156847
-1.984772
-1.724556
-1.437687
-1.231478
-1.052857
-1.022931
-1.136089
-1.126737
-0.944375
-0.659610
-0.443114
-0.489640
-0.640205
-0.760144
-0.932218
-1.020126
-0.900422
-0.792408
-0.938765
-1.362406
-1.826260
-2.014934
-1.962798
-1.958589
-2.155447
-2.562722
-3.011846
-3.224602
-3.170361
-3.116120
-3.246346
-3.425902
-3.471960
-3.360673
-3.111913
-2.846787
-2.675647
-2.600598
-2.710717
-2.978649
-3.212680
-3.353426
-3.346880
-3.175974
-2.968128
-2.820836
-2.837903
-2.973038
-3.002263
-2.976779
-3.058608
-3.206836
-3.357869
-3.421696
-3.396446
-3.498615
-3.748077
-3.924127
-3.947740
-3.868016
-3.877368
-4.166809
-4.506984
-4.595827
-4.423752
-4.129402
-3.969952
-3.972991
-3.909165
-3.759769
-3.572497
-3.349455
-3.182757
-3.156104
-3.328413
-3.705762
-4.139924
-4.308024
-4.054822
-3.661809
-3.408372
-3.294046
-3.202163
-3.071705
-2.989408
-2.994318
-2.929556
-2.664197
-2.363533
-2.260663
-2.246635
-2.206422
-2.242894
-2.320281
-2.369613
-2.445597
-2.497968
-2.411930
-2.269782
-2.345298
-2.633337
-2.688513
-2.406787
-2.183044
-2.192863
-2.412165
-2.681266
-2.766134
-2.908751
-3.254303
-3.462149
-3.564786
-3.697817
-3.665787
-3.512650
-3.383828
-3.293114
-3.307142
-3.444849
-3.683556
-3.936992
-4.079375
-4.114679
-4.094806
-4.102989
-4.156529
-4.197677
-4.263608
-4.327669
-4.381910
-4.496938
-4.633476
-4.765805
-4.803213
-4.652180
-4.432644
-4.230410
-4.081247
-4.031916
-4.021863
-3.995210
-3.904964
-3.704600
-3.491377
-3.345722
-3.229758
-3.201703
-3.255009
-3.257113
-3.237474
-3.185337
-3.051839
-2.971413
-2.963464
-2.952943
-2.950606
-2.952476
-2.923018
-2.764737
-2.438122
-2.031315
-1.668696
-1.476515
-1.374111
-1.166500
-0.884073
-0.691424
-0.674123
-0.711764
-0.609829
-0.471187
-0.533377
-0.792191
-1.086776
-1.268203
-1.325015
-1.406845
-1.570970
-1.750293
-1.917692
-1.975206
-1.905768
-1.928681
-2.011445
-1.996950
-2.039267
-2.157335
-2.266518
-2.425501
-2.508966
-2.447945
-2.338996
-2.174403
-2.021032
-1.959076
-1.927747
-1.872571
-1.810147
-1.759179
-1.718733
-1.783495
-1.963986
-2.086028
-2.037866
-1.841009
-1.697224
-1.652803
-1.494288
-1.325253
-1.363596
-1.556478
-1.767831
-1.847556
-1.751700
-1.575650
-1.472078
-1.506914
-1.577521
-1.687873
-1.863221
-1.962585
-1.935465
-1.903903
-1.967729
-2.014723
-1.956040
-1.954637
-2.064756
-2.168094
-2.201060
-2.138402
-1.998124
-1.800331
-1.573548
-1.438413
-1.473249
-1.551572
-1.514866
-1.393291
-1.248571
-1.055922
-0.841530
-0.664312
-0.508603
-0.347750
-0.262181
-0.347984
-0.518423
-0.610539
-0.589263
-0.499953
-0.361779
-0.153466
0.100906
0.300568
0.370240
0.318337
0.284670
0.414193
0.622507
0.724910
0.640976
0.434533
0.258016
0.137143
0.085006
0.222713
0.483163
0.653835
0.625311
0.448327
0.295891
0.250066
0.284668
0.326284
0.279057
0.191616
0.153975
0.185070
0.289577
0.413723
0.559145
0.761146
0.891839
0.831285
0.689837
0.681187
0.860509
1.078642
