EVENT_NAME: 202302060117
EVENT_ID: 13194
EVENT_DATE_YYYYMMDD: 2023/02/06
EVENT_TIME_HHMMSS: 01:17:32.00000
EVENT_LATITUDE_DEGREE: 37.288
EVENT_LONGITUDE_DEGREE: 37.043
EVENT_DEPTH_KM: 8.6
HYPOCENTER_REFERENCE: AFAD
MAGNITUDE_W: 7.7
MAGNITUDE_W_REFERENCE: AFAD
MAGNITUDE_L: 
MAGNITUDE_L_REFERENCE: 
FOCAL_MECHANISM: 
NETWORK: TK
STATION_CODE: 2413
STATION_NAME: 
STATION_LATITUDE_DEGREE: 39.80771
STATION_LONGITUDE_DEGREE: 40.03856
STATION_ELEVATION_M: 1522.0
LOCATION: Kahramanmaras_Pazarck_Turkiye
SENSOR_DEPTH_M: 
VS30_M/S: 435
SITE_CLASSIFICATION_EC8: B
MORPHOLOGIC_CLASSIFICATION: 
EPICENTRAL_DISTANCE_KM: 382.53
EARTHQUAKE_BACKAZIMUTH_DEGREE: 
DATE_TIME_FIRST_SAMPLE_YYYYMMDD_HHMMSS: 2023/02/06 01:18:00.7985860
DATE_TIME_FIRST_SAMPLE_PRECISION: millisecond
SAMPLING_INTERVAL_S: 0.01
NDATA: 21001
DURATION_S: 
STREAM: HNN
UNITS: cm/s^2
INSTRUMENT: sensor = ACEBOX/SARA | digitizer = 
INSTRUMENT_ANALOG/DIGITAL: 
INSTRUMENTAL_FREQUENCY_HZ: 
INSTRUMENTAL_DAMPING: 
FULL_SCALE_G: 
N_BIT_DIGITAL_CONVERTER: 
PGA_CM/S^2: 58.589
TIME_PGA_S: 
BASELINE_CORRECTION: BASELINE REMOVED
FILTER_TYPE: BUTTERWORTH
FILTER_ORDER: 
LOW_CUT_FREQUENCY_HZ: 
HIGH_CUT_FREQUENCY_HZ: 
LATE/NORMAL_TRIGGERED: 
DATABASE_VERSION: 
HEADER_FORMAT: DYNA 1.2
DATA_TYPE: Acceleration
PROCESSING: Automatic Paolucci et al., 2011
DATA_TIMESTAMP_YYYYMMDD_HHMMSS: 
DATA_LICENSE: U (unknown license)
DATA_CITATION: Turkish Accelerometric Archive v 1.0 - Disaster And Emergency Management Presidency, Earthquake Department
DATA_CREATOR: AFAD
ORIGINAL_DATA_MEDIATOR_CITATION: : AFAD - Disaster And Emergency Management Presidency
ORIGINAL_DATA_MEDIATOR: AFAD PROCESS SERVICE
ORIGINAL_DATA_CREATOR_CITATION: AFAD PROCESS SERVICE
ORIGINAL_DATA_CREATOR: network: TK
USER1: GuestUser
USER2: 
USER3: 
USER4: 
USER5: 
[...]
0.104567
0.105502
0.098956
0.091240
0.119530
0.141273
0.187798
0.255132
0.327609
0.437259
0.560470
0.702853
0.865809
1.027129
1.198970
1.342755
1.451471
1.576552
1.714025
1.855940
2.005804
2.145848
2.276775
2.427574
2.589361
2.730809
2.850746
2.947772
3.027731
3.089687
3.101377
3.071450
3.031003
2.977464
2.899141
2.798141
2.704388
2.633781
2.572058
2.498412
2.408400
2.337559
2.272096
2.181149
2.100255
2.019361
1.930518
1.865054
1.790239
1.717294
1.690407
1.701162
1.731789
1.741141
1.737634
1.764988
1.793745
1.815488
1.834192
1.811747
1.786497
1.801226
1.791173
1.751427
1.735762
1.707706
1.656972
1.627280
1.608342
1.600159
1.613486
1.630553
1.637333
1.641307
1.654400
1.654633
1.637800
1.596417
1.494248
1.377115
1.260918
1.115730
0.988076
0.873749
0.745628
0.645563
0.594829
0.582437
0.564669
0.520948
0.468578
0.387918
0.278734
0.178669
0.094969
0.027635
-0.033386
-0.105162
-0.146778
-0.119891
-0.062143
-0.005331
0.045403
0.087019
0.147572
0.232674
0.310996
0.364302
0.405450
0.466939
0.530765
0.568640
0.623349
0.671745
0.679694
0.712893
0.761990
0.823011
0.950898
1.083928
1.205970
1.373135
1.570928
1.777604
1.934950
2.021455
2.089490
2.123624
2.122688
2.088086
2.002984
1.921622
1.831844
1.702788
1.585188
1.442104
1.238232
1.054000
0.879587
0.658882
0.441685
0.251841
0.049373
-0.159409
-0.330548
-0.449317
-0.558501
-0.688492
-0.803988
-0.872023
-0.942864
-1.074960
-1.220849
-1.344528
-1.475221
-1.588613
-1.662727
-1.733334
-1.815630
-1.886705
-1.938608
-2.010150
-2.102734
-2.169834
-2.225244
-2.296786
-2.372536
-2.463951
-2.554665
-2.597216
-2.615219
-2.646548
-2.680214
-2.700087
-2.691671
-2.696113
-2.738430
-2.773968
-2.824234
-2.877774
-2.903726
-2.979009
-3.066215
-3.110169
-3.190829
-3.293700
-3.380205
-3.452683
-3.500611
-3.519783
-3.485882
-3.467880
-3.478869
-3.414808
-3.318718
-3.200884
-3.049383
-2.925003
-2.760410
-2.572204
-2.425379
-2.261955
-2.147862
-2.079593
-1.953811
-1.874320
-1.861461
-1.803245
-1.771917
-1.799037
-1.784542
-1.769112
-1.832705
-1.906585
-1.881335
-1.763033
-1.683309
-1.689387
-1.669047
-1.562903
-1.436887
-1.381945
-1.396206
-1.341966
-1.161942
-0.949186
-0.751862
-0.582359
-0.443483
-0.298529
-0.157783
-0.022649
0.127683
0.260246
0.391874
0.551557
0.671729
0.742803
0.843102
0.966079
1.055857
1.111033
1.100278
0.988757
0.909499
0.968650
1.006759
0.910902
0.758700
0.613745
0.535657
0.489365
0.366621
0.232655
0.163451
0.144747
0.194312
0.290636
0.398417
0.505496
0.588727
0.642033
0.671725
0.757763
0.937319
1.049541
1.034110
1.017745
1.064971
1.176259
1.273285
1.261595
1.252944
1.345995
1.432734
1.440449
1.424317
1.473648
1.600366
1.713757
1.759815
1.777818
1.814757
1.841878
1.836267
1.834630
1.838604
1.860114
1.928148
2.000392
2.039436
2.073570
2.132954
2.191403
2.235825
2.265751
2.251489
2.233954
2.237227
2.228576
2.179479
2.049721
1.944746
1.958306
2.007871
2.049487
2.064684
2.098350
2.220159
2.359268
2.483882
2.589792
2.703417
2.943760
3.204210
3.324850
3.428188
3.577117
3.699626
3.824240
3.922435
3.950023
3.980650
4.010342
4.013849
4.004263
3.972701
4.004029
4.084222
4.041670
3.889702
3.820030
3.945345
4.128642
4.183351
4.141969
4.081649
4.078609
4.188260
4.276635
4.241799
4.150385
4.074166
4.034187
3.999585
3.938564
3.824704
3.622703
3.402934
3.214025
2.961524
2.665069
2.443195
2.244234
1.999916
1.766352
1.532788
1.286834
1.102835
0.908082
0.646930
0.464802
0.317509
0.043966
-0.262074
-0.461971
-0.569986
-0.685949
-0.866674
-1.048101
-1.172014
-1.239348
-1.292654
-1.394823
-1.558248
-1.778485
-2.010646
-2.172200
-2.239767
-2.293307
-2.489697
-2.775631
-2.940692
-3.001479
-3.068112
-3.192726
-3.365736
-3.488012
-3.571478
-3.687441
-3.807847
-3.917030
-4.021538
-4.122071
-4.219798
-4.312148
-4.435593
-4.647881
-4.930542
-5.156391
-5.247338
-5.283343
-5.315373
-5.294098
-5.219049
-5.116646
-4.986187
-4.860638
-4.741402
-4.610008
-4.486095
-4.348623
-4.212085
-4.090511
-3.899265
-3.690718
-3.619410
-3.598368
-3.481002
-3.391224
-3.453882
-3.541322
-3.556519
-3.563065
-3.571950
-3.552311
-3.532906
-3.519580
-3.502980
-3.537582
-3.665703
-3.838480
-3.927089
-3.920777
-3.963562
-4.046326
-4.019673
-3.841052
-3.636480
-3.553482
-3.509996
-3.355222
-3.126335
-2.905630
-2.718592
-2.580652
-2.502564
-2.419566
-2.240478
-2.033333
-1.900770
-1.792522
-1.632138
-1.405588
-1.085754
-0.743942
-0.533057
-0.328719
0.052371
0.446787
0.700924
0.892638
1.126669
1.400913
1.622553
1.794160
1.968806
2.143686
2.331192
2.487134
2.612216
2.771665
2.899552
2.988629
3.092668
3.165379
3.265211
3.430271
3.520283
3.536883
3.590422
3.643961
3.661496
3.677394
3.674121
3.634609
3.593694
3.553481
3.491291
3.436582
3.419749
3.384211
3.284146
3.162338
3.038659
2.888327
2.707368
2.502327
2.303833
2.126849
1.938408
1.711391
1.492089
1.353914
1.234678
1.072656
0.923727
0.755159
0.550586
0.374069
0.201994
0.057741
-0.051442
-0.221880
-0.436273
-0.585903
-0.591047
-0.500567
-0.501970
-0.630091
-0.726182
-0.673578
-0.482098
-0.262095
-0.133974
-0.117608
-0.061497
0.115955
0.247816
0.274469
0.255531
0.200121
0.257401
0.421293
0.463143
0.468754
0.574196
0.597576
0.488159
0.413577
0.416616
0.459635
0.499614
0.397211
0.207134
0.236592
0.445139
0.526500
0.515979
0.550815
0.611368
0.768246
0.987080
1.069610
1.087379
1.194692
1.305745
1.381262
1.462623
1.498861
1.477352
1.464259
1.513356
1.599861
1.665091
1.693614
1.682158
1.692912
1.779417
1.825709
1.725877
1.590508
1.596119
1.668129
1.633761
1.498859
1.255009
1.006014
0.969074
0.968607
0.789050
0.590790
0.462669
0.372657
0.356525
0.337821
0.275163
0.307895
0.397439
0.417311
0.502881
0.697634
0.870878
1.060020
1.242381
1.373308
1.557306
1.752059
1.973699
2.271089
2.384480
2.224563
2.137590
2.420251
2.730500
2.593260
2.441760
2.650307
2.788715
2.716471
2.606586
2.566841
2.629966
2.541590
2.316677
2.209130
2.144602
2.080074
2.020222
1.923663
1.900517
1.961071
1.987957
1.929508
1.857732
1.877604
1.885787
1.796009
1.738261
1.773330
1.854692
1.925766
1.919453
1.855860
1.831545
1.853054
1.858899
1.851885
1.780109
1.589798
1.460508
1.488564
1.558703
1.664847
1.722127
1.570860
1.350623
1.191640
1.008811
0.799095
0.566466
0.254113
-0.077178
-0.343239
-0.557632
-0.750982
-0.916511
-1.065907
-1.226059
-1.353478
-1.472715
-1.683133
-1.900330
-2.024711
-2.142077
-2.268561
-2.294981
-2.268562
-2.322803
-2.382421
-2.427310
-2.557068
-2.626974
-2.566888
-2.542573
-2.571564
-2.563615
-2.466122
-2.390605
-2.479916
-2.584190
-2.575072
-2.520831
-2.469629
-2.520364
-2.687763
-2.835523
-2.955461
-3.063943
-3.103922
-3.156760
-3.253553
-3.302183
-3.382609
-3.538084
-3.659659
-3.781468
-3.910524
-3.963830
-4.016668
-4.133333
-4.233398
-4.264026
-4.272910
-4.320371
-4.360351
-4.330191
-4.242517
-4.102707
-3.960558
-3.874053
-3.791523
-3.718344
-3.743361
-3.797836
-3.691224
-3.441997
-3.265480
-3.206563
-3.187158
-3.185755
-3.109771
-2.935826
-2.814486
-2.805134
-2.861479
-2.938399
-2.939334
-2.794380
-2.580221
-2.453737
-2.457011
-2.506108
-2.493717
-2.301068
-2.025655
-1.943359
-2.002276
-1.989885
-1.927695
-1.788118
-1.498443
-1.219757
-1.082518
-0.971698
-0.807573
-0.678751
-0.617262
-0.537537
-0.391414
-0.217937
-0.060591
0.110548
0.334993
0.593573
0.828305
0.989158
1.113070
1.233008
1.311096
1.393860
1.481300
1.476157
1.483171
1.619240
1.714863
1.642152
1.534138
1.481533
1.413966
1.312264
1.175726
0.987052
0.842331
0.818250
0.904287
0.997806
0.900780
0.667450
0.550785
0.572060
0.637524
0.685452
0.645940
0.591699
0.641264
0.718183
0.720521
0.658564
0.573462
0.555460
0.645004
0.722391
0.671890
0.533248
0.419389
0.370759
0.402789
0.517116
0.617648
0.687554
0.832040
1.104180
1.449499
1.725847
1.899558
2.061579
2.241136
2.440097
2.583415
2.592532
2.573595
2.614042
2.700546
2.762269
2.647474
2.386556
2.156733
1.933691
1.670201
1.454874
1.282331
1.123349
1.055080
1.003177
0.756053
0.296875
-0.252315
-0.769708
-1.074112
-1.146824
-1.212988
-1.374542
-1.575374
-1.734824
-1.810341
-1.923265
-2.150282
-2.465675
-2.906383
-3.320906
-3.439441
-3.307112
-3.144623
-3.032868
-2.964132
-2.948935
-3.012762
-3.170575
-3.308048
-3.272511
-3.116568
-2.999436
-2.965535
-2.864769
-2.624893
-2.425698
-2.320489
-2.310202
-2.447909
-2.553352
-2.525296
-2.400682
-2.145142
-1.909241
-1.832322
-1.774340
-1.570469
-1.246894
-0.945529
-0.635280
-0.164880
0.451409
1.030525
1.346151
1.399457
1.437799
1.555399
1.666453
1.714381
1.709939
1.814680
2.131007
2.417175
2.506018
2.482170
2.311966
2.117914
2.161868
2.299574
2.314303
2.219148
2.069284
1.974596
1.893935
1.597013
1.082425
0.608050
0.301775
0.050677
-0.260040
-0.612372
-0.856924
-0.883110
-0.879837
-1.162731
-1.814558
-2.611106
-3.219213
-3.514031
-3.660155
-3.935100
-4.315489
-4.415788
-4.168664
-3.842985
-3.506551
-3.141827
-2.742501
-2.413549
-2.416822
-2.575103
-2.517121
-2.484624
-2.882547
-3.665066
-4.265925
-3.759521
-2.284728
-1.305117
-1.333641
-1.840747
-2.345282
-2.137904
-1.792117
-2.594510
-3.619945
-3.908451
-3.692188
-2.284495
-0.492673
-0.589465
-2.147023
-3.370718
-3.063275
-1.349774
-0.650955
-1.732267
-3.024231
-4.128689
-4.865385
-5.177972
-5.032550
-3.866837
-2.803293
-3.203554
-4.445719
-4.781920
-3.957551
-4.111623
-4.877076
-5.192702
-7.035259
-8.362993
-6.346726
-5.350282
-6.412891
-4.511418
-2.008151
-3.943758
-7.196346
-8.944448
-9.593703
-8.160994
-7.327507
-9.260776
-9.879638
-9.286728
-10.718035
-10.154350
-5.766209
-3.799039
-4.603068
-4.438241
-6.498229
-9.891797
-8.194429
-4.590444
-3.701313
-1.556223
2.411082
3.419450
1.079841
-2.331262
-5.783746
-7.185361
-6.357485
-7.155435
-8.286780
-4.178027
2.763647
6.373009
5.003191
-0.783993
-6.495192
-5.893866
-0.667796
2.249526
1.843420
1.623183
0.590501
-2.945917
-5.448015
-5.021336
-4.236244
-4.271080
-4.141791
-4.607749
-6.061968
-5.344444
-3.088301
-3.336360
-4.196032
-3.958728
-4.530830
-4.705477
-4.076563
-3.449518
-0.078162
5.598903
8.510614
8.132330
7.440290
6.467459
4.114991
-0.069980
-4.634872
-4.902102
-0.903701
2.374604
5.467508
9.550309
11.081447
9.511265
6.077250
0.728904
-4.247237
-6.806616
-6.287586
-2.176963
2.533584
5.491354
8.209013
9.438786
8.562982
9.264841
10.531554
8.463150
4.242641
0.970415
-0.086349
-0.070217
0.117756
2.073470
4.583985
4.313715
2.043543
-0.445930
-3.021908
-4.813731
-5.185936
-4.108365
-1.423905
1.645386
3.395826
3.846820
3.756808
3.775044
4.657395
5.785701
5.738707
4.880204
4.114517
3.056351
0.822652
-2.677761
-5.326918
-4.999368
-3.255942
-3.072411
-4.597004
-5.625712
-5.123515
-3.434096
-0.498772
1.624341
-0.158831
-3.747619
-4.924321
-3.546554
-1.296021
0.082915
-0.164677
0.464004
2.812264
4.137660
3.876275
2.367347
-1.022479
-4.427737
-5.580357
-4.952846
-3.978145
-3.052074
-1.679451
-0.261236
0.691721
1.790802
2.860892
3.788833
5.388240
6.370656
5.184836
3.684559
2.641122
0.001317
-2.636618
-2.553620
-2.076440
-2.417317
-2.201522
-2.746270
-2.968845
-0.199516
1.435662
-1.371542
-4.096450
-3.863120
-2.938920
-2.519254
-2.068726
-1.165334
1.111851
5.016032
8.708626
10.253558
9.163829
5.576911
0.801134
-2.588926
-3.466835
-2.578873
-0.553020
1.838726
3.512480
4.431537
5.213355
5.698952
5.048294
3.377111
1.978302
1.245581
0.895352
1.504160
3.179318
4.896325
5.770259
5.557269
4.957345
4.894454
4.684738
2.978953
0.678154
-0.216121
-0.084493
-0.059243
0.270644
0.479659
0.079164
1.117925
4.307855
6.546464
5.816315
4.083877
4.013738
6.002417
8.281005
8.557821
6.782130
4.598931
2.967962
3.310708
5.542069
6.874480
7.334359
9.070537
11.876104
13.523440
11.836358
8.921140
8.561326
9.815414
11.496650
13.655534
13.483927
9.847444
5.395243
2.446358
1.562136
1.099451
-0.041246
0.008319
1.923820
3.824826
4.514294
3.986847
2.845215
1.972216
1.543197
0.740104
-1.405922
-4.246325
-5.483112
-4.277654
-2.371505
-1.563735
-1.920276
-2.114796
-0.707336
2.971230
7.923523
10.896022
9.646141
6.024855
2.864851
0.981848
0.121708
-0.745914
-2.747686
-5.144810
-6.120212
-5.025106
-3.430609
-3.671186
-5.018794
-4.970398
-3.994294
-3.997568
-4.755539
-4.110960
-0.981350
2.284564
3.289191
2.558341
1.141295
-0.220808
-0.978077
-1.981301
-3.659498
-4.391284
-3.581410
-3.097684
-3.456095
-2.960679
-1.479106
-0.187610
0.784519
1.279468
0.899079
-0.337241
-2.169510
-3.677736
-4.830123
-6.839611
-9.641905
-11.984320
-12.217182
-9.750153
-7.023610
-6.615400
-8.291960
-10.290693
-11.641340
-12.660229
-12.454487
-9.497186
-5.134295
-1.449416
2.050061
6.230356
10.102506
12.448428
13.609465
14.720235
15.822122
16.221681
16.551803
17.523230
17.968614
16.270778
11.184051
2.938956
-5.506269
-11.920263
-17.282637
-23.317880
-30.151073
-36.199642
-39.983417
-41.469900
-41.221374
-39.725773
-37.356939
-33.958696
-29.214482
-23.621116
-17.785770
-11.545955
-4.653378
3.768934
14.570602
26.062205
35.887067
43.375827
48.758541
52.773308
55.293408
55.669588
54.610954
52.620638
49.506224
44.293948
34.783776
21.353059
7.378061
-4.948900
-14.990259
-23.620651
-33.842502
-46.002999
-55.225366
-58.588774
-57.806488
-54.225416
-49.148508
-43.912385
-37.685428
-29.744037
-20.651428
-11.206018
-1.111354
10.975731
24.001278
34.681838
41.957609
47.436414
51.731036
54.607443
56.349467
54.831888
48.859771
41.970701
35.747017
29.084029
21.743964
13.167578
5.570102
1.724605
-2.065015
-10.124475
-20.771368
-29.748248
-33.622503
-32.359530
-30.155290
-30.005660
-30.986907
-30.852941
-26.786973
-18.219005
-8.016326
1.842203
9.665761
14.106272
16.219098
16.969821
17.712828
17.536779
13.193761
7.710747
4.022595
-1.576382
-9.381236
-15.396606
-18.294757
-18.545856
-15.045911
-7.866698
-0.658962
5.196022
9.616427
9.882021
5.442444
-2.555059
-11.319651
-14.607776
-10.287904
-2.460839
4.008331
7.142383
9.083602
11.955567
15.345861
17.626787
16.977766
13.894448
10.138728
5.871928
0.572913
-5.831730
-11.982468
-15.453189
-14.709947
-9.824987
-3.582601
-0.134792
-1.007558
-5.385645
-12.094692
-19.742434
-27.528585
-34.893433
-40.463419
-42.981649
-41.795362
-36.459641
-26.923986
-14.228561
-0.596777
11.824871
21.556448
28.152804
32.540477
35.719419
38.387513
40.954841
42.904943
44.058499
45.187038
46.437152
46.310434
42.007395
32.224850
19.330697
5.771624
-7.887046
-19.708771
-27.707443
-32.314886
-34.363184
-34.993735
-35.624520
-36.171372
-35.006828
-30.349587
-23.414693
-17.741836
-13.950813
-10.056686
-4.961309
1.158101
7.138635
11.547817
13.124078
11.249024
8.104684
6.748894
6.234774
4.386840
2.714955
2.849155
3.981669
5.585518
6.295092
5.004999
4.126856
4.455575
3.907788
3.000187
3.317917
4.547925
5.173566
4.530623
4.415361
5.929198
7.724527
8.122216
6.258384
3.804916
3.317682
3.707188
2.448891
0.018101
-1.593464
-1.105295
1.691154
4.725842
4.652897
0.059950
-6.653539
-11.078152
-11.894105
-10.744757
-8.315838
-4.783629
-0.827078
2.193115
3.451178
4.191380
4.797616
4.173144
2.210416
-0.605673
-3.707695
-6.386778
-7.867884
-8.753040
-11.147124
-14.362772
-15.997483
-16.744465
-17.998320
-18.833678
-18.192840
-16.614474
-14.933238
-13.600360
-12.886110
-12.101720
-10.816770
-9.319767
-6.668038
-2.466468
1.707982
5.103420
8.597520
13.178543
18.690781
23.016966
23.922930
21.623066
17.634251
13.058371
8.670230
4.845306
2.345078
1.893616
2.387863
2.914608
4.371866
6.758001
8.753461
9.931565
10.534528
10.791003
10.804563
10.299561
9.730966
9.625991
9.199077
8.330988
7.086952
3.599398
-2.285513
-7.627079
-11.666862
-15.861653
-20.297488
-24.012527
-24.588603
-20.438235
-14.305732
-9.387807
-6.209801
-4.000651
-2.811792
-3.997378
-7.256979
-11.704739
-16.799415
-19.499072
-18.276780
-15.599802
-12.655827
-8.419888
-3.566491
-0.552143
-0.008097
-1.416725
-4.517812
-6.755018
-6.096879
-4.702045
-4.981667
-6.685114
-8.477404
-9.442986
-9.144427
-7.716628
-5.509582
-2.525160
0.309398
2.362138
4.585316
6.632679
7.730824
8.893030
11.240355
14.831948
18.365092
20.869762
22.867794
23.921752
23.478472
22.771235
21.823655
19.098280
14.941364
10.476538
5.855301
2.026871
-0.306426
-1.718562
-2.138696
-1.643981
-0.889751
0.125864
1.120671
1.556002
1.797280
2.719844
4.576428
6.607893
8.280011
9.640009
10.480043
10.856456
10.897604
9.807641
7.223480
4.134083
1.065727
-2.024138
-4.860098
-7.890111
-10.848348
-12.154807
-12.592710
-14.062359
-15.978796
-16.831221
-15.775860
-12.934990
-9.025666
-3.942446
2.245934
8.200283
12.699711
15.347231
16.451455
16.963471
17.092060
15.708447
12.327271
7.580485
2.300875
-2.104333
-4.281453
-4.027783
-2.512310
-1.700098
-2.265420
-2.857161
-1.960315
0.118376
1.893833
3.400890
5.522834
7.720060
8.860056
8.091096
5.254668
1.476036
-2.089606
-4.957363
-6.757135
-7.926823
-9.334049
-10.698022
-11.151589
-10.248664
-8.224681
-5.820778
-3.404717
-1.351510
-0.451858
-1.152548
-3.056360
-4.773834
-5.244235
-4.278418
-1.951668
0.165132
0.665926
0.404073
-0.489968
-2.411080
-4.195421
-5.847667
-8.340413
-10.619937
-11.673661
-12.329696
-12.538477
-11.526603
-10.284672
-9.158237
-7.292769
-5.812364
-5.283515
-4.848886
-5.204726
-5.864268
-5.168721
-3.737181
-2.397523
-1.135251
0.086573
1.437687
2.260887
1.978226
0.617292
-1.815368
-4.144691
-5.417249
-6.305211
-6.696120
-6.104847
-5.684948
-6.214031
-7.096382
-8.243859
-9.547746
-10.041059
-9.156604
-6.753870
-3.086058
0.638332
3.272526
4.628082
4.968491
4.665723
4.327419
3.769344
2.005344
-0.414224
-2.105748
-2.847119
-2.371108
-0.351099
2.580017
5.943658
9.356163
11.458000
11.561338
10.433032
8.281630
5.281777
2.441374
0.049862
-1.922452
-3.269592
-4.111496
-4.580494
-5.026345
-5.791798
-6.917765
-8.464335
-9.714215
-9.713280
-8.802873
-7.554162
-5.909165
-4.111498
-2.325521
-0.723074
-0.081535
-0.113331
-0.118475
-0.631426
-1.321362
-1.502321
-1.878034
-2.496194
-3.089338
-4.047439
-4.380834
-3.474402
-3.088403
-3.385793
-2.226860
0.649781
4.168196
8.108615
11.763801
14.529155
17.674430
21.717018
25.237537
27.636297
28.561433
27.555637
25.782518
23.816517
20.790245
16.437407
11.056797
5.903437
3.035212
3.107923
4.700316
5.967965
6.416154
6.287799
5.389784
3.665997
1.084173
-2.427929
-5.892104
-8.293435
-9.925107
-11.117940
-11.658012
-11.255881
-9.807040
-8.064782
-6.954479
-6.917540
-7.837298
-8.142170
-6.792225
-4.975854
-3.242715
-0.923680
1.759144
4.250955
6.508267
8.362279
9.634136
10.253699
9.780727
8.522196
7.732896
7.630493
7.842313
8.337496
8.605194
8.267123
7.591448
6.947571
6.532814
5.706107
3.660381
1.029226
-0.869909
-1.659910
-1.701526
-1.514255
-1.748754
-2.541560
-3.364761
-3.864619
-4.150787
-4.603419
-5.405811
-6.196046
-6.568018
-6.596541
-6.680708
-6.984879
-7.332769
-7.462059
-6.874994
-5.366067
