EVENT_NAME: 202302060117
EVENT_ID: 13194
EVENT_DATE_YYYYMMDD: 2023/02/06
EVENT_TIME_HHMMSS: 01:17:32.00000
EVENT_LATITUDE_DEGREE: 37.288
EVENT_LONGITUDE_DEGREE: 37.043
EVENT_DEPTH_KM: 8.6
HYPOCENTER_REFERENCE: AFAD
MAGNITUDE_W: 7.7
MAGNITUDE_W_REFERENCE: AFAD
MAGNITUDE_L: 
MAGNITUDE_L_REFERENCE: 
FOCAL_MECHANISM: 
NETWORK: TK
STATION_CODE: 4618
STATION_NAME: 
STATION_LATITUDE_DEGREE: 37.60011
STATION_LONGITUDE_DEGREE: 36.87231
STATION_ELEVATION_M: 831.0
LOCATION: Kahramanmaras_Pazarck_Turkiye
SENSOR_DEPTH_M: 
VS30_M/S: 715
SITE_CLASSIFICATION_EC8: B
MORPHOLOGIC_CLASSIFICATION: 
EPICENTRAL_DISTANCE_KM: 37.84
EARTHQUAKE_BACKAZIMUTH_DEGREE: 
DATE_TIME_FIRST_SAMPLE_YYYYMMDD_HHMMSS: 2023/02/06 01:17:08.6857060
DATE_TIME_FIRST_SAMPLE_PRECISION: millisecond
SAMPLING_INTERVAL_S: 0.01
NDATA: 5666
DURATION_S: 
STREAM: HNE
UNITS: cm/s^2
INSTRUMENT: sensor = GMS+/GEOSIG | digitizer = 
INSTRUMENT_ANALOG/DIGITAL: 
INSTRUMENTAL_FREQUENCY_HZ: 
INSTRUMENTAL_DAMPING: 
FULL_SCALE_G: 
N_BIT_DIGITAL_CONVERTER: 
PGA_CM/S^2: 101.353
TIME_PGA_S: 
BASELINE_CORRECTION: BASELINE REMOVED
FILTER_TYPE: BUTTERWORTH
FILTER_ORDER: 
LOW_CUT_FREQUENCY_HZ: 
HIGH_CUT_FREQUENCY_HZ: 
LATE/NORMAL_TRIGGERED: 
DATABASE_VERSION: 
HEADER_FORMAT: DYNA 1.2
DATA_TYPE: Acceleration
PROCESSING: Automatic Paolucci et al., 2011
DATA_TIMESTAMP_YYYYMMDD_HHMMSS: 
DATA_LICENSE: U (unknown license)
DATA_CITATION: Turkish Accelerometric Archive v 1.0 - Disaster And Emergency Management Presidency, Earthquake Department
DATA_CREATOR: AFAD
ORIGINAL_DATA_MEDIATOR_CITATION: : AFAD - Disaster And Emergency Management Presidency
ORIGINAL_DATA_MEDIATOR: AFAD PROCESS SERVICE
ORIGINAL_DATA_CREATOR_CITATION: AFAD PROCESS SERVICE
ORIGINAL_DATA_CREATOR: network: TK
USER1: GuestUser
USER2: 
USER3: 
USER4: 
USER5: 
[...]
0.358468
0.358437
0.367499
0.351883
0.368218
0.360394
0.357767
0.368906
0.357187
0.366508
0.362321
0.362811
0.363819
0.360932
0.367655
0.361910
0.364218
0.366266
0.366755
0.367764
0.366175
0.368483
0.366634
0.367903
0.368912
0.370180
0.371189
0.369860
0.373726
0.374215
0.374705
0.378831
0.378801
0.381628
0.382896
0.382866
0.387252
0.387222
0.389529
0.392616
0.392586
0.397232
0.399539
0.399769
0.402336
0.402826
0.403315
0.407181
0.406891
0.406601
0.408129
0.409138
0.413005
0.414793
0.415542
0.417849
0.419897
0.421426
0.424513
0.429678
0.433284
0.439229
0.448550
0.458391
0.465634
0.468461
0.468951
0.467881
0.475904
0.488083
0.491949
0.489581
0.489291
0.493417
0.489750
0.483225
0.476181
0.459007
0.449105
0.465700
0.488529
0.481485
0.444828
0.410508
0.396970
0.405252
0.412236
0.393762
0.358663
0.343826
0.377566
0.432606
0.454396
0.430208
0.395369
0.378713
0.389334
0.426190
0.447721
0.405608
0.318296
0.275404
0.284466
0.256640
0.203357
0.180468
0.163293
0.130272
0.169726
0.312828
0.414367
0.366540
0.212987
0.110608
0.184611
0.373173
0.502507
0.472084
0.322947
0.179525
0.183651
0.280774
0.283861
0.161999
0.061958
0.133624
0.280363
0.370991
0.402133
0.328589
0.212702
0.204879
0.333953
0.529268
0.604311
0.519596
0.474886
0.399263
0.267011
0.268540
0.355272
0.433951
0.405087
0.305306
0.230982
0.166010
0.361325
0.666782
0.609083
0.410590
0.337565
0.366888
0.468168
0.561654
0.525516
0.263899
0.092942
0.139930
0.322516
0.629272
0.727174
0.646875
0.528651
0.493552
0.828103
1.317475
1.437977
0.946466
0.406378
0.361408
0.601923
0.934656
1.152051
1.185271
1.239273
1.146505
0.966456
0.979154
1.159143
1.330560
0.982181
0.549897
0.826519
1.294851
1.386778
0.871368
-0.044604
-0.513775
-0.432757
-0.182371
0.463641
0.928596
0.433967
-0.317312
-0.901041
-1.211234
-1.041116
-0.827098
-0.944543
-1.211615
-0.894728
-0.201957
0.218837
0.266344
-0.252703
-0.389111
0.312492
0.935385
1.310460
1.882698
2.083469
1.201526
0.839899
1.625667
1.509260
0.442363
0.479480
0.955344
0.133928
-0.464088
0.281675
0.651295
-0.002571
0.174041
1.326081
1.314621
0.672185
1.178702
2.043959
1.763899
0.234355
-1.206348
-1.492123
-1.271870
-1.278135
-0.993979
-0.401219
-0.370337
-0.226456
0.695431
0.972313
-0.464234
-1.654521
-1.079685
-0.537060
0.371578
2.047311
2.697480
2.885781
2.770934
2.113431
1.750505
1.875942
2.500134
3.115494
2.917001
1.802827
0.407583
-0.436174
-0.183969
0.761036
1.844498
2.679622
2.027314
0.828455
1.312892
2.484155
2.500750
2.030020
2.437566
2.875245
2.542971
2.385262
2.208070
1.458349
0.581083
-0.706877
-1.824429
-1.917975
-2.051007
-2.151307
-1.715967
-1.127623
-0.404459
0.229864
0.427257
-0.384028
-1.707056
-2.152588
-1.336168
0.136166
0.887904
-0.320047
-2.713059
-3.562011
-2.436986
-1.062325
0.479368
2.162634
3.114653
3.001104
2.337367
0.916925
-1.583631
-1.480793
1.827321
2.860128
0.967689
-0.673036
0.289374
2.426455
2.460194
1.434340
0.203010
-0.298632
1.440484
4.298420
6.119623
5.408089
3.481619
2.820220
2.540420
0.550567
-1.117173
-1.600891
-1.742495
0.161054
2.617129
3.711242
3.124136
0.954524
0.106871
1.389055
3.954753
6.214184
6.172331
4.341197
1.973122
0.886483
1.130894
0.548724
-1.224482
-1.808731
-1.234414
-0.963766
0.590135
2.445627
2.643021
1.155559
-1.182382
-2.937145
-4.799451
-6.053121
-4.088787
0.789884
4.611040
4.713359
4.155607
5.354925
6.223559
5.348630
3.062902
0.861338
1.834659
5.639709
8.059936
7.862223
5.293348
1.350560
-0.727614
-0.027570
0.848597
-0.422218
-1.386506
-0.180434
0.894196
0.803506
0.215361
0.872544
3.821139
7.483317
9.007605
8.568048
8.031857
5.936798
2.297679
-0.868922
-2.402882
-1.678420
-0.293887
0.075992
-0.268230
0.540916
3.028684
4.450623
2.934068
0.759001
0.090847
-0.846166
-2.499100
-2.460684
-1.301110
-0.700817
1.428730
4.896082
6.104752
4.979667
4.411005
5.573956
5.986696
5.138004
3.666129
1.201421
-1.643847
-4.815644
-4.884253
-0.485114
3.856098
5.277518
4.438697
3.968746
4.113667
2.340201
-0.233350
-0.126616
2.373880
5.925397
8.112872
6.880243
4.985725
3.820636
3.070136
2.778127
2.702244
2.012011
-1.792581
-3.160549
0.668140
0.449386
-3.199865
-4.316377
-1.583909
4.109395
7.560641
6.209038
2.128573
0.311207
3.427872
7.708298
8.581088
4.460878
-0.177568
0.862253
4.846023
5.266298
3.289693
2.457626
1.895978
-0.550287
-1.249093
2.362690
2.306550
-1.366858
-2.807302
-2.496130
-0.013299
2.823337
2.971115
-1.802151
-7.146127
-6.892104
-5.710970
-6.764879
-4.510903
0.386732
2.198063
1.084667
-2.700701
-3.587319
-1.014608
0.670996
6.682255
10.975669
10.878486
10.227217
5.492397
5.581208
11.926009
12.555136
6.795532
1.623003
1.408404
3.377934
3.145671
0.144542
-3.824482
-7.346186
-8.505560
-6.486674
-2.129098
4.135695
8.594841
8.302312
2.860663
-0.289053
0.883249
-0.586548
3.141871
8.268880
3.438206
-0.966449
1.101533
5.294676
8.848791
9.204902
5.556432
-0.176157
-4.172457
-4.083387
-1.594321
0.157524
-1.223433
-4.603823
-6.944103
-6.040400
-2.273276
-1.468026
-1.383372
2.832112
3.577356
0.688447
0.283438
-3.081626
-7.896455
-6.010570
-3.933236
-2.489736
3.286434
7.631801
6.398653
0.738020
-0.597997
1.678059
-0.608708
-1.541565
0.441733
2.500104
2.235370
-3.211994
-5.293025
0.118690
7.853510
11.485035
6.495902
2.358028
5.193885
9.174018
12.378485
14.934571
12.263088
3.517711
2.886185
12.598877
17.901489
16.665483
11.850914
6.252626
6.455474
11.793415
12.475535
7.031029
2.949525
-0.819218
-4.758889
-5.442368
-4.869351
-5.548414
-5.137491
-5.159862
-8.518691
-9.123981
-8.597721
-9.129496
-4.656843
2.943417
9.902050
8.680071
-3.872984
-9.800399
-1.054562
10.299863
7.880614
-8.800673
-14.724970
-8.814501
-7.046811
-6.520032
-4.190723
-4.048141
-8.598785
-8.786368
-2.117636
-0.663485
-7.296690
-15.469538
-11.620587
1.561046
2.575669
-2.030046
2.175826
10.647607
15.605767
10.184900
1.646558
2.625853
10.084539
12.717776
7.967889
5.098462
7.260740
6.894957
4.622996
4.732328
4.577996
2.594897
-1.455434
-3.380864
-5.412540
-9.170373
-3.730863
1.161836
-2.320123
-5.311122
-4.085047
5.734150
12.251697
10.575904
6.266324
-1.010585
-1.715106
-2.276495
-6.631275
-7.913000
-12.512481
-13.874734
-5.834947
-1.618684
-7.914450
-11.920621
-1.769960
6.779232
2.207546
-5.027021
-11.510339
-14.230399
-8.917136
5.141214
17.585366
12.755211
2.224708
5.420863
15.348383
21.049739
17.671168
3.012174
0.341210
17.350783
31.247557
24.870744
1.891903
-5.729458
5.231939
10.632743
8.203623
4.706597
0.686918
-5.614043
-9.689312
-11.519408
-11.690885
-11.435823
-11.302852
-2.484541
5.850083
3.766714
2.413553
5.166283
8.669743
6.741715
-8.259653
-23.120746
-24.323242
-17.418641
-9.234683
-2.266439
-0.449912
-6.028199
-7.466824
0.141229
5.561257
2.798854
-4.096975
-7.061737
-4.703594
1.198563
8.651794
14.787222
15.166453
7.436509
-4.976532
-16.691056
-14.057040
-1.605354
0.884231
-5.648183
-17.469472
-27.516287
-26.309955
-19.061161
-12.012129
-8.902218
-4.437097
6.550277
17.674808
26.278031
25.482072
14.961441
7.033294
1.976361
-1.792901
-5.631522
-13.753976
-16.915122
-13.711175
-14.907436
-13.155592
-4.634455
-1.047869
-4.865189
-9.022805
-7.834397
-6.374012
-7.457015
-0.570857
11.660805
14.232997
12.555125
12.856426
15.301851
26.009195
33.021080
29.903055
22.114144
11.836136
2.219497
-3.930799
2.178133
6.617277
-4.387821
-14.125772
-14.646377
-12.372918
-13.962209
-14.791678
-5.933622
4.617342
7.698159
9.690808
14.431543
14.954945
12.132536
7.010142
-2.544931
-4.818970
-2.994131
-5.099840
-3.106671
-3.678450
-8.107264
-12.271374
-18.565841
-21.952206
-21.112666
-15.120629
-8.020943
-5.663579
-5.813495
-4.685613
-2.538142
-1.285831
0.901125
-3.443524
-9.057659
1.497981
13.773803
6.890962
-5.611179
-8.067315
-10.659829
-10.545821
-3.847216
-1.080718
1.300285
0.948009
-1.731527
-2.890382
-6.495212
-7.205967
-8.018292
-12.998333
-9.812829
2.845372
2.702989
-11.280089
-17.150355
-13.733657
-8.965907
-6.825709
-7.687650
-10.584872
-11.467074
-4.539613
2.805555
2.919822
-1.193633
-2.205200
-3.663567
-9.246529
-7.441173
-0.938692
-0.862351
0.035637
10.318780
16.217040
5.649131
-6.544406
-7.706118
1.388846
8.186942
3.312367
0.390987
2.275313
1.576507
-0.405812
-3.915567
-10.730609
-23.467580
-36.886701
-39.393492
-33.383012
-34.394838
-39.572563
-37.148699
-28.587038
-17.976328
-18.000257
-22.685461
-20.702683
-22.211185
-19.954612
-10.150481
-6.943157
-15.202508
-20.056302
-13.254049
-9.160657
-5.511467
1.483533
6.311550
9.861768
11.683490
17.434462
22.954240
21.819284
18.839196
14.650408
8.381138
-1.653986
-17.475442
-35.507262
-45.428869
-42.509108
-29.445669
-18.495182
-22.277433
-29.361854
-32.158286
-36.336424
-34.079331
-24.738366
-17.704660
-12.092924
-7.646247
-3.805609
-0.463205
-0.378291
-2.610767
-2.087365
7.664033
19.002873
17.102380
5.381102
-2.536914
-10.892640
-16.924741
-9.069909
-5.423577
-11.578548
-18.306568
-11.909293
13.441688
26.593448
28.668184
34.662039
34.472118
26.865824
22.087622
23.092114
22.131203
19.993802
5.421051
-11.484416
-5.075712
8.815088
6.457404
-10.243885
-19.242277
-17.343923
-15.985627
-22.772613
-32.689804
-31.330728
-23.149627
-4.810042
18.681260
23.453427
19.738715
22.919283
20.416909
9.945633
1.076347
-7.752675
-17.147213
-24.443085
-30.004487
-28.791660
-22.856253
-20.533958
-16.373805
-11.549945
-7.317057
1.159919
-2.835082
-8.845103
4.845156
18.638802
28.659060
36.910298
39.538080
39.424272
26.342589
8.549235
-4.308269
-16.888080
-27.680688
-35.077090
-34.727733
-33.423988
-38.276223
-45.280896
-40.947217
-11.768556
12.006153
15.655343
25.555588
38.870222
42.340691
33.224366
18.506145
7.182051
2.599455
1.440081
-3.995853
-6.466536
-5.932484
-5.801850
-10.453285
-26.216033
-35.887223
-31.805520
-21.195589
-11.024666
-7.893194
-8.752277
-9.870868
-5.358989
1.592890
15.710467
32.089843
21.680653
1.731225
2.313595
16.833033
20.106338
8.817054
0.313261
-6.115246
-6.604420
-1.478190
-2.462221
-17.582822
-38.408707
-47.382680
-50.777097
-56.166273
-51.100569
-25.190048
6.666561
30.225923
45.876910
57.030795
67.334460
64.682199
59.166516
68.003791
74.972814
71.453189
48.881404
13.900765
-7.409327
-20.642195
-27.127071
-20.085572
-14.593329
-15.938958
-11.335900
3.062226
12.562169
16.728556
24.162824
25.121338
13.634370
3.367272
2.706912
-2.846697
-8.346793
-2.266176
1.616285
-2.161031
-6.381251
-7.988725
-13.567791
-20.478427
-19.635510
-18.811037
-20.292004
-11.894517
1.740411
16.686388
30.051418
29.251822
23.221020
15.018817
4.830169
-2.362055
-11.516048
-17.480869
-11.430904
7.047657
25.239954
33.340526
31.574334
26.166455
24.911486
22.770189
15.795130
3.882402
-10.048722
-19.522748
-28.308389
-42.548637
-58.118637
-58.810170
-52.121176
-47.740480
-30.384116
-11.678778
6.950189
35.745952
64.481969
86.040339
88.846581
79.233579
69.148839
53.787173
28.944237
3.307710
-8.492538
-12.564690
-17.816968
-23.660218
-26.231690
-24.279045
-26.091996
-37.061506
-47.045976
-48.138590
-45.833180
-35.824093
-22.293851
-11.384927
4.634411
16.684755
12.785089
4.144917
3.353894
5.916734
12.526239
24.112377
30.080255
24.362993
17.357801
22.219068
30.338604
25.897841
10.974923
0.592228
-2.510470
8.888116
31.381910
33.336114
27.845369
35.749557
37.929759
30.233325
19.187183
22.646742
42.442066
52.028771
55.446248
59.829282
60.039923
61.080523
63.193705
60.588722
44.611146
16.665802
-0.456051
-5.371930
-16.294422
-30.932115
-45.352901
-55.782874
-55.112703
-40.323366
-24.313379
-21.897568
-22.102555
-20.387078
-16.039632
-0.395399
13.333306
15.963166
10.755828
-2.481456
-11.482445
-12.856648
-12.737444
-16.284086
-31.258438
-57.022511
-74.946528
-69.276864
-48.717821
-23.203706
-5.717718
3.606102
11.690829
14.957120
17.173949
21.628939
29.841731
34.072282
36.028564
35.042974
21.848811
19.428783
34.851434
48.312578
56.456791
54.606434
42.634220
35.560449
32.708427
26.856605
25.599558
26.138546
14.211531
-1.974119
-2.147674
-0.797171
-9.664639
-15.737264
-16.910146
-1.480482
8.774606
-1.856167
-0.330580
0.317771
-9.390047
-19.191900
-27.654650
-24.090664
-21.312476
-19.308916
-12.658888
-6.419552
-1.343198
-2.760262
-2.308296
-3.461956
-7.231998
-7.186309
-7.001904
-2.351309
0.654175
-0.832766
-0.210393
4.420200
15.053250
20.288323
10.449323
-2.190235
-7.176251
-7.725171
-10.118183
-9.867797
3.801161
17.317635
19.509266
23.615648
28.143372
26.207811
15.443777
-4.646444
-13.813165
-4.334264
13.237188
29.005590
28.692280
16.622133
2.840115
-10.350930
-15.843233
-7.281053
7.289819
8.861385
-2.295158
-13.896944
-18.337966
-13.867910
-4.854253
13.401167
33.663814
35.247589
26.002678
16.520599
10.398358
16.483132
14.114278
5.208364
14.346970
22.952791
24.193672
30.182072
39.909571
45.281801
43.505738
40.723333
37.298523
30.354896
8.823222
-9.581626
-9.965853
-14.928749
-19.492902
-13.712836
-2.681042
4.453194
3.547353
2.057034
-2.213321
-7.561453
-9.827699
-9.100119
-6.745613
-5.118717
-1.428484
9.065591
24.603059
33.963246
32.007164
25.351620
22.526613
13.632908
-8.264778
-30.393139
-54.008152
-81.691909
-101.353254
-95.511623
-70.245067
-48.661240
-28.933975
-7.678754
11.225306
29.440463
42.922907
48.220584
48.166262
46.413318
45.726202
41.539492
30.977298
27.731987
35.943480
34.122737
18.955897
10.572116
12.381629
16.125634
13.309460
8.750762
13.010666
14.554177
10.576580
8.003549
-2.971936
-16.553412
-21.527739
-19.989943
-9.024130
5.198913
18.803189
24.448695
15.178327
4.112702
-11.469767
-30.085546
-37.769771
-36.977509
-34.094115
-26.955463
-15.393223
-11.437767
-12.514276
-13.808729
-19.757185
-29.017942
-45.229309
-55.644475
-47.660538
-31.663020
-10.351950
11.050299
12.991255
-2.722657
-13.621250
-13.064598
-0.370549
16.737736
29.359570
39.750516
29.032462
8.848723
6.809515
7.094190
2.268711
-4.322411
-3.583661
-0.631948
-5.587052
-4.314479
3.264220
11.162174
12.591906
13.677186
14.822992
3.974794
-8.140553
-3.707383
15.000293
21.942820
19.944915
19.872409
22.786975
28.237915
25.255229
20.216741
11.545138
-8.410005
-29.835953
-44.603790
-51.590538
-43.433856
-29.277054
-25.549414
-26.379403
-27.594887
-29.811517
-21.362596
4.734439
18.191686
9.621652
9.094553
16.742350
16.463329
7.128019
-6.178883
-18.399695
-27.580703
-33.208606
-31.207903
-27.009824
-21.583043
-9.122265
1.242185
10.220513
19.739419
20.280225
15.190043
17.114633
25.397303
25.587942
24.132432
34.811721
39.378671
21.548430
-0.498364
-8.002310
-8.601105
-10.730453
-12.182846
-11.173418
-14.960605
-28.498960
-35.096316
-26.687918
-8.637974
14.016096
27.518803
31.297097
35.646101
44.137365
52.267811
44.918426
35.032668
40.453475
32.205034
7.366254
-4.905732
-10.311013
-16.641588
-15.780747
-5.297323
1.765217
-5.069567
-10.957238
-9.132398
-3.699902
5.767570
12.093927
10.265391
6.555095
11.635866
16.591688
-5.750202
-37.048371
-48.343889
-52.918952
-51.460126
-46.304802
-46.324575
-45.582448
-36.425659
-21.717889
-12.852560
-8.144036
-1.610903
9.382964
11.769162
2.576984
-7.222271
-12.466756
-6.475759
0.158424
3.560055
2.006352
-4.387865
-6.049371
-6.026022
-0.694835
5.054058
5.973347
7.520754
7.524880
6.818281
-0.164831
-10.192422
-4.066346
10.998865
16.758669
17.730950
17.013441
14.623805
8.447273
-2.500676
-6.612573
-9.680982
-16.416535
-24.340266
-28.952995
-16.334019
-3.684910
0.099878
2.006025
-1.189410
-2.217342
-6.095448
-8.073871
-7.403440
-10.835004
-16.542656
-25.829389
-19.825923
-10.824995
-16.560701
-25.578314
-30.137272
-23.957683
-16.915145
-16.088594
-19.151548
-15.905778
-8.146280
-6.922024
-3.184773
1.562715
-6.258668
-23.883172
-32.042253
-23.962981
-9.903333
1.111836
14.361529
33.509252
44.162044
44.329045
44.187961
41.773647
29.059536
10.832370
-4.686716
-12.229368
-15.977849
-22.100609
-15.805164
-6.435625
-14.816807
-21.500926
-15.788140
-15.772844
-17.583457
-11.983150
-7.179552
-2.145540
2.240352
6.146971
9.088033
7.383666
9.613743
12.791714
4.880711
-14.785829
-22.250031
1.696905
29.296177
40.465388
42.047604
27.554862
5.317399
2.663579
12.750078
11.630448
11.697178
26.320004
33.011595
17.937752
-2.971258
-15.312863
-29.167615
-37.509573
-22.698675
-13.465514
-20.253021
-18.381423
-2.507815
15.263138
17.573744
6.179773
-4.534385
-11.121091
-12.921313
-8.187333
-9.605955
-13.570304
-1.292403
8.285470
2.750045
0.484059
1.423869
-1.020837
-4.648527
-9.786507
-7.563183
-10.025813
-24.835213
-22.573963
-14.445596
-9.844876
10.114362
25.493632
21.354200
14.381999
11.086552
1.936197
-1.388343
1.982635
1.716343
5.297473
8.595197
20.160034
32.725498
23.454091
-1.965010
-18.672534
-21.545857
-29.464133
-25.029146
-5.360848
9.540969
22.170335
26.558824
16.933873
4.421082
2.319789
5.959886
5.805035
3.788686
-2.131715
-6.098402
-1.238953
-6.396156
-10.476102
5.277234
18.396523
19.621818
6.991352
-5.738865
-6.965000
-19.247377
-34.303816
-34.174482
-24.165654
-17.156626
-16.616079
-3.045054
6.201095
-1.408317
-3.604425
-5.022788
-7.593482
-13.131504
-16.705422
-9.928107
-8.746193
-12.082163
-10.158092
-7.445626
-8.975170
-11.400913
-11.263006
-10.900920
-8.874241
-7.340082
-11.280272
-22.668788
-31.526904
-20.293790
-8.385799
-13.044767
-9.205427
3.706567
10.091632
19.602745
31.022632
28.275816
8.936064
-8.751565
-16.521513
-28.023288
-38.378707
-35.210088
-21.556456
-10.043052
-8.508893
-10.228587
-5.600332
3.361890
6.240608
11.105771
20.566489
19.041361
8.480206
2.437974
7.622912
3.052265
-16.004080
-14.537461
-3.114457
-1.284422
-8.543407
-27.436618
-37.046243
-39.321321
-38.783112
-31.315334
-24.868963
-9.492031
9.402938
13.112913
9.830715
9.114245
2.412202
0.000746
7.200963
19.524323
27.781536
21.956210
28.076832
36.342876
26.583365
8.140332
-8.872419
-10.652119
-9.127052
-2.103477
16.319234
25.088709
23.148991
25.147356
33.831887
44.930441
49.507522
32.722327
9.321883
0.665087
-1.533100
0.295376
5.534345
6.055929
-4.774345
-16.965804
-18.727320
-21.513621
-24.150296
-27.512502
-29.937986
-15.826903
1.057722
3.204674
0.344599
11.555113
25.614762
22.658313
13.680963
9.537115
-0.746089
-31.169359
-57.482840
-64.700263
-68.822290
-65.514176
-55.015166
-40.434942
-36.647297
-45.640752
-44.046327
-37.689576
-22.377586
-9.575474
-13.665031
-7.793267
4.764144
11.472361
12.279949
9.303238
14.178273
18.097101
10.112324
4.636906
10.885333
15.482676
10.050379
5.326469
9.347126
11.528627
7.061108
2.004436
-7.548040
-9.561272
9.876872
29.214225
34.577364
39.444605
42.712195
24.296438
-7.417100
-22.452497
-24.972536
-28.596329
-25.447193
-15.514217
-4.120566
-6.196402
-19.876071
-8.350718
16.123806
17.203112
7.879491
11.562710
18.162604
20.188763
31.254067
42.327684
47.430534
43.111863
20.084964
