EVENT_NAME: 202302060117
EVENT_ID: 13194
EVENT_DATE_YYYYMMDD: 2023/02/06
EVENT_TIME_HHMMSS: 01:17:32.00000
EVENT_LATITUDE_DEGREE: 37.288
EVENT_LONGITUDE_DEGREE: 37.043
EVENT_DEPTH_KM: 8.6
HYPOCENTER_REFERENCE: AFAD
MAGNITUDE_W: 7.7
MAGNITUDE_W_REFERENCE: AFAD
MAGNITUDE_L: 
MAGNITUDE_L_REFERENCE: 
FOCAL_MECHANISM: 
NETWORK: TK
STATION_CODE: 3802
STATION_NAME: 
STATION_LATITUDE_DEGREE: 38.47812
STATION_LONGITUDE_DEGREE: 36.50359
STATION_ELEVATION_M: 1595.0
LOCATION: Kahramanmaras_Pazarck_Turkiye
SENSOR_DEPTH_M: 
VS30_M/S: 305
SITE_CLASSIFICATION_EC8: C
MORPHOLOGIC_CLASSIFICATION: 
EPICENTRAL_DISTANCE_KM: 140.55
EARTHQUAKE_BACKAZIMUTH_DEGREE: 
DATE_TIME_FIRST_SAMPLE_YYYYMMDD_HHMMSS: 2023/02/06 01:17:36.2607660
DATE_TIME_FIRST_SAMPLE_PRECISION: millisecond
SAMPLING_INTERVAL_S: 0.01
NDATA: 12501
DURATION_S: 
STREAM: HNN
UNITS: cm/s^2
INSTRUMENT: sensor = GMS+/GEOSIG | digitizer = 
INSTRUMENT_ANALOG/DIGITAL: 
INSTRUMENTAL_FREQUENCY_HZ: 
INSTRUMENTAL_DAMPING: 
FULL_SCALE_G: 
N_BIT_DIGITAL_CONVERTER: 
PGA_CM/S^2: 99.067
TIME_PGA_S: 
BASELINE_CORRECTION: BASELINE REMOVED
FILTER_TYPE: BUTTERWORTH
FILTER_ORDER: 
LOW_CUT_FREQUENCY_HZ: 
HIGH_CUT_FREQUENCY_HZ: 
LATE/NORMAL_TRIGGERED: 
DATABASE_VERSION: 
HEADER_FORMAT: DYNA 1.2
DATA_TYPE: Acceleration
PROCESSING: Automatic Paolucci et al., 2011
DATA_TIMESTAMP_YYYYMMDD_HHMMSS: 
DATA_LICENSE: U (unknown license)
DATA_CITATION: Turkish Accelerometric Archive v 1.0 - Disaster And Emergency Management Presidency, Earthquake Department
DATA_CREATOR: AFAD
ORIGINAL_DATA_MEDIATOR_CITATION: : AFAD - Disaster And Emergency Management Presidency
ORIGINAL_DATA_MEDIATOR: AFAD PROCESS SERVICE
ORIGINAL_DATA_CREATOR_CITATION: AFAD PROCESS SERVICE
ORIGINAL_DATA_CREATOR: network: TK
USER1: GuestUser
USER2: 
USER3: 
USER4: 
USER5: 
[...]
-65.017897
-67.552972
-69.370048
-70.216111
-69.879451
-69.447716
-68.320842
-64.494459
-56.907677
-47.086110
-37.120633
-27.773403
-18.558135
-8.913211
0.783407
10.263898
18.843514
25.634368
30.710234
34.312696
36.983631
39.043851
39.839521
39.114249
37.128325
35.185521
34.907051
35.740647
36.520990
36.957141
36.786735
35.899368
34.507273
32.597719
30.191490
27.926055
26.466160
25.619577
24.071880
20.461627
14.796089
8.887928
5.054793
3.828170
4.191586
4.956604
5.561344
6.627173
8.629724
11.032579
13.222423
14.840518
15.728925
16.540961
18.136976
20.120045
21.337058
21.189511
19.831705
17.571725
15.093280
13.174375
11.673956
9.871947
7.171920
3.838319
0.364963
-3.527919
-8.150228
-13.086857
-17.391211
-20.094095
-20.205535
-17.651496
-13.868754
-10.529177
-8.664562
-8.896015
-11.467716
-15.418786
-19.014492
-20.933917
-20.712854
-19.038389
-16.811917
-13.760422
-9.417881
-4.122511
2.291939
9.957172
17.778784
23.717600
26.010832
24.995140
21.711934
17.048321
12.158451
7.360018
3.188926
0.599300
-0.215851
0.247316
0.761138
0.400061
-0.635893
-2.087735
-4.392655
-8.120583
-13.452319
-19.926774
-26.497343
-32.188598
-36.523344
-39.964229
-43.507463
-47.513603
-51.385183
-53.848302
-53.514759
-49.799298
-43.738652
-37.164704
-31.171597
-26.121189
-22.020751
-18.447643
-15.023381
-11.728744
-8.319549
-4.098839
1.100677
5.771565
7.511491
5.278267
0.146553
-5.492749
-8.604508
-7.402820
-2.772716
3.811362
11.704931
20.498336
29.609956
37.979680
44.505830
48.386244
49.141650
46.869461
42.335992
36.861643
31.507308
26.988905
24.086779
22.637534
21.600022
20.483540
19.529154
19.228603
20.027390
22.414658
26.495613
31.065192
34.545043
35.811413
33.963684
29.606598
25.017798
22.365569
22.602738
25.151062
28.710143
31.774106
33.248550
33.938754
35.063810
36.403174
37.281710
37.721498
38.631985
40.560503
42.815289
43.768638
42.065601
37.906457
32.459644
27.362219
23.686764
20.835552
17.749769
13.641021
8.681792
4.273012
0.884860
-2.018825
-4.706384
-7.150279
-8.676415
-8.890463
-8.137135
-6.780886
-5.369047
-4.731056
-5.207989
-6.636712
-9.502471
-14.653928
-22.514764
-31.429479
-38.435938
-42.502345
-44.021986
-43.942756
-43.652335
-44.576848
-47.171409
-50.462148
-54.031099
-58.178033
-62.451475
-65.838068
-67.731516
-68.515495
-68.508220
-67.426286
-65.904045
-63.960981
-59.967308
-52.828105
-43.266047
-34.183780
-26.905342
-19.644568
-12.027652
-4.950015
1.164923
5.965435
8.962638
10.284858
11.884250
14.329966
17.863330
22.524087
25.275030
24.858882
21.437999
16.219782
11.284712
6.220797
2.301679
1.049858
1.174547
1.765520
2.348960
3.084364
5.039638
8.598978
13.695106
19.896027
25.595856
29.221438
30.218428
29.026873
27.344617
26.233850
25.081260
23.576166
22.147443
21.170717
20.650922
20.251399
19.684846
18.594861
16.554904
13.737202
11.166800
9.627676
8.883701
8.542107
8.938773
10.775853
14.241677
18.677735
22.709334
24.701495
23.422139
18.998032
12.719702
5.407755
-2.136164
-8.546456
-13.076808
-15.712673
-16.876432
-17.188932
-17.431295
-18.281774
-19.250708
-19.220574
-17.596244
-14.014044
-8.647757
-2.510220
3.928389
11.181890
19.687731
28.353070
35.463958
40.892589
44.591945
45.821687
44.373222
40.397735
33.491026
23.170967
11.572330
1.758818
-5.969017
-12.135388
-16.850694
-21.046465
-25.435763
-29.867922
-33.866269
-36.938284
-39.219045
-41.104440
-42.614470
-43.884994
-45.143829
-46.342397
-47.157029
-46.959345
-44.969521
-40.385916
-33.079163
-24.290953
-15.897591
-9.030365
-3.528740
1.248393
5.802385
10.712000
15.728899
19.505405
21.436002
21.835266
21.436263
21.091032
20.211199
17.713791
13.747915
9.486423
6.661188
6.242183
8.056922
11.226611
14.711918
18.412313
22.249086
24.940283
24.737665
21.045324
15.036114
8.169149
1.189706
-5.379305
-10.757279
-14.027757
-14.726012
-12.809703
-8.813173
-4.446214
-1.241196
0.863704
2.795859
5.383927
8.624793
11.658623
14.007446
15.649699
16.362243
16.394455
16.234179
15.483711
13.207105
9.000165
3.670247
-1.057788
-3.402712
-2.599509
0.317945
3.607647
6.307936
8.425564
10.207573
11.305873
10.979086
9.004331
6.285600
4.074457
2.174255
-1.067388
-6.597327
-13.366618
-19.070861
-21.954025
-22.031435
-20.463994
-18.423776
-17.364182
-18.070231
-19.676375
-21.277064
-21.893492
-21.618657
-21.391879
-20.676997
-19.121506
-16.841002
-14.047197
-11.154681
-8.255410
-5.396144
-2.950168
-1.071266
1.148452
4.513226
9.942377
17.549421
25.757829
33.977146
41.322865
46.361844
49.539845
51.681632
52.875527
53.176339
53.455590
54.749235
56.610993
57.654481
56.858553
54.010458
49.659606
44.950534
40.693978
36.630169
32.121378
26.929138
21.894317
18.192105
15.847440
14.118686
12.057168
9.247000
6.904413
6.382540
7.102358
7.713073
7.564227
6.475800
4.561052
1.981557
-0.964470
-4.043758
-7.461264
-10.589908
-12.009020
-11.162955
-9.014933
-7.847535
-9.265088
-12.799749
-16.639638
-18.551009
-17.775082
-15.739799
-14.134693
-13.724518
-14.224571
-14.179370
-12.227214
-9.100646
-6.909503
-5.617676
-3.499008
-0.045393
4.057383
7.100824
8.270041
7.179795
3.918410
0.728201
-1.906624
-3.616936
-3.424187
-2.792690
-2.016763
-0.528292
1.252678
3.411090
6.213208
10.212855
15.983601
23.046691
30.050295
35.295530
37.125336
35.281244
31.295626
26.533301
21.512508
16.343906
11.087243
6.305436
2.706352
0.036978
-2.716302
-5.896380
-9.763804
-14.794469
-20.440783
-25.645493
-29.547985
-31.559368
-31.561964
-30.070376
-28.091463
-26.345822
-25.256095
-24.549266
-23.087291
-20.282576
-15.981598
-10.057070
-2.739666
5.620705
14.687386
24.349714
33.579270
40.115811
42.725180
41.555446
37.330322
31.405536
25.253712
19.530506
14.093565
8.693250
3.348266
-1.084413
-3.865488
-5.444616
-6.284964
-6.580580
-6.032209
-3.862107
-0.520971
2.521692
3.676880
2.069437
-1.547311
-6.313272
-11.879578
-17.804884
-23.681093
-28.687080
-31.443217
-30.992519
-27.995835
-23.975666
-19.831328
-15.773752
-11.540053
-6.547313
-0.454196
6.054810
11.449151
14.710279
15.772470
14.827955
12.271320
8.756141
4.771822
0.733470
-2.702479
-4.886607
-5.127151
-3.198634
0.178350
4.464782
8.995395
12.406408
13.860590
13.795129
13.205197
12.368225
11.307334
10.942621
12.173662
14.445073
16.769737
19.224025
22.359165
26.566887
31.907456
37.709114
42.525212
44.654530
43.309453
39.286168
33.902739
27.982109
22.224354
17.367733
13.662145
10.495575
7.207693
4.085283
1.567353
-0.390776
-1.877947
-2.854154
-3.519938
-4.338726
-5.075947
-4.581088
-2.098485
1.932335
6.664528
11.377758
15.368313
18.112762
19.398614
19.393160
18.062629
15.044127
10.432728
4.834210
-1.168246
-7.586072
-14.686308
-21.989682
-28.500764
-33.645208
-37.348458
-40.044849
-41.927126
-42.718378
-42.375484
-40.374231
-37.111545
-33.827818
-30.660207
-28.157602
-27.336735
-28.710387
-32.422210
-37.805899
-43.690421
-48.224410
-49.590269
-48.112448
-44.708189
-40.369284
-36.552254
-32.648720
-28.591144
-24.532270
-16.900028
-5.267619
5.806028
13.537502
18.334117
22.372211
24.911183
24.544132
23.372060
21.466923
18.155142
14.863624
12.743918
12.811718
14.538397
16.859943
20.165751
24.350873
29.042802
34.217379
38.983083
42.106013
43.151840
41.684931
36.864419
28.648479
18.178534
7.000981
-3.724576
-12.948674
-19.451444
-22.643991
-22.937268
-21.296313
-18.678891
-15.520112
-11.758412
-7.621088
-3.879130
-1.433934
-1.144292
-3.338810
-7.299751
-11.644888
-15.183965
-17.137160
-16.941294
-14.656894
-11.005335
-6.622530
-1.757855
3.297749
8.054100
11.978675
14.559210
15.990792
16.912190
17.294049
16.466689
13.797575
9.370870
3.835217
-1.561981
-5.378490
-7.538460
-9.069271
-10.770491
-12.956697
-15.590223
-18.284535
-20.206557
-20.724793
-20.176942
-18.759647
-16.208985
-12.798232
-9.048481
-5.609413
-2.807295
-0.384179
1.862295
4.029799
5.749463
6.235750
4.856643
2.219999
0.361620
0.703735
3.185559
7.187284
12.233017
17.596187
22.506840
26.765476
30.375992
33.492428
36.225967
38.191891
39.103937
39.449170
39.262138
37.790553
34.859852
30.927746
26.395576
21.240482
15.616507
10.154108
5.217480
0.926634
-2.667774
-5.793821
-8.539826
-10.827082
-12.913278
-15.108316
-17.569356
-20.191713
-21.993722
-21.541205
-18.376712
-13.164727
-7.021735
-0.820814
5.653903
13.153923
21.799260
31.047518
40.118875
48.143886
54.064777
56.923784
56.880143
54.915519
51.210710
45.557382
38.667038
31.536410
24.462670
17.564534
11.425179
6.341002
1.941574
-2.015470
-5.569874
-9.031021
-12.793239
-16.795223
-20.601082
-23.913642
-26.642763
-28.606607
-29.480206
-29.143546
-27.795869
-26.056982
-24.840488
-24.591110
-24.795547
-24.922313
-25.225461
-25.480812
-25.116097
-24.764890
-25.323390
-26.488189
-27.763908
-29.567216
-32.679235
-36.459897
-39.315005
-41.241703
-42.848627
-43.736513
-43.017474
-41.522509
-39.748034
-36.561979
-33.232013
-30.684988
-28.969740
-28.843751
-29.421994
-29.870353
-29.833465
-28.407598
-25.097634
-19.951371
-12.759955
-3.171920
7.637543
17.725891
27.296002
36.803769
44.761240
49.918933
51.923044
50.941381
47.706492
43.455651
39.811627
37.706988
36.778319
35.903941
34.570553
33.629934
34.020885
35.557154
36.890543
36.371268
33.153524
27.423044
20.172922
11.933344
2.553125
-7.368450
-16.417984
-23.177145
-27.210821
-28.931003
-28.532778
-26.304748
-22.923607
-18.729134
-13.613264
-8.397383
-5.362513
-5.537077
-8.195021
-12.178561
-15.758942
-17.941511
-18.409872
-17.759412
-17.432104
-17.957614
-19.430237
-22.000640
-25.715321
-30.352437
-35.561043
-40.785235
-45.320522
-48.674904
-50.007513
-48.285770
-43.175615
-35.654294
-27.367696
-19.251247
-11.420022
-3.977930
2.780972
8.667834
13.617193
17.447472
19.698881
20.653269
21.722734
24.008953
27.612454
32.164109
37.128534
41.822022
45.874142
48.655219
49.577136
49.398416
48.453641
46.415503
44.193968
42.212459
38.864311
32.914328
24.994005
16.204498
7.872703
2.137287
0.318653
1.283951
2.680724
2.846977
0.974570
-3.223538
-9.203655
-15.632131
-21.471973
-26.343919
-29.398010
-30.303560
-29.982227
-29.348132
-29.204740
-28.909123
-27.870830
-26.298973
-23.867285
-21.920323
-21.265708
-21.413255
-22.254642
-23.179156
-24.086524
-25.505376
-27.825362
-30.660209
-33.527267
-36.769169
-40.793493
-45.759476
-51.465537
-57.561770
-63.523183
-68.458254
-71.872642
-73.497490
-72.931455
-70.292731
-65.880832
-59.854995
-52.426930
-43.832768
-34.655166
-25.216498
-15.349992
-5.928988
1.174627
4.794234
5.465735
4.178586
0.554304
-5.711297
-13.906715
-22.876500
-30.790849
-36.387808
-39.414882
-40.062743
-38.856120
-36.043092
-31.721073
-25.693157
-18.112090
-10.668179
-4.816646
-0.840378
1.224259
1.872380
2.159165
2.958731
4.462269
6.614707
9.748808
13.923279
17.945266
21.772428
27.155080
34.098677
42.177461
50.638882
57.304008
61.320021
62.407930
60.708789
57.162957
52.536751
48.040689
43.862323
38.841009
32.852580
27.036897
23.011794
22.225997
24.871993
30.329718
37.583998
44.795416
50.248206
52.942779
52.480912
48.972228
42.772607
34.498480
24.973051
15.185516
6.090003
-1.347931
-7.187254
-12.210645
-16.497854
-19.169566
-19.077867
-17.242346
-14.572191
-11.869565
-10.852832
-11.464325
-13.356474
-14.901573
-14.268258
-11.228972
-6.149210
-0.285468
5.802454
11.228228
15.548169
19.680818
23.133394
25.061912
25.482737
24.978788
24.071419
22.252785
19.596659
17.415388
16.736615
17.562678
18.802811
18.627209
15.605849
9.998759
3.710558
-0.994878
-3.212775
-3.714127
-3.626844
-3.922719
-5.136354
-6.952131
-8.687380
-10.154548
-11.857845
-14.065612
-16.359102
-18.469196
-20.563185
-22.731207
-24.824676
-26.400687
-26.889310
-26.154685
-24.441775
-22.109318
-20.329647
-20.938542
-24.797914
-31.474728
-39.459214
-46.601272
-51.540758
-53.821260
-53.927764
-53.158331
-52.085229
-50.245032
-47.179250
-43.501195
-40.962482
-40.843248
-42.845279
-45.930542
-49.053731
-51.378133
-52.720353
-53.361719
-53.398865
-52.676450
-51.302277
-49.686779
-48.271823
-47.177939
-45.905075
-43.837582
-40.513591
-35.549685
-29.109517
-22.012917
-15.139716
-8.713837
-2.433427
3.450318
8.102242
10.781230
11.282063
10.368720
8.848039
7.025508
5.537818
5.214668
6.644431
9.695406
13.441001
16.709921
18.621294
19.384493
19.314617
18.058899
15.787230
13.193707
10.751110
8.426968
5.937353
3.463324
1.360503
-0.316038
-1.323158
-0.978445
1.365702
6.132704
13.667533
23.029570
32.431870
40.148797
44.301448
45.468326
45.130629
43.067033
39.773696
35.670663
29.972914
22.374443
13.826780
6.391963
1.484429
-1.231185
-2.207651
-1.391200
0.803580
3.422821
5.870875
8.139688
9.917281
11.218719
12.690825
14.059283
14.656231
14.851577
15.433458
16.379793
16.985053
16.492794
14.222163
10.146405
5.412655
1.807597
0.293410
0.482522
1.559781
2.941487
4.291761
5.104576
4.767138
2.834985
-0.877098
-5.956858
-11.292491
-15.617106
-18.496113
-20.136547
-20.640496
-20.271105
-19.580901
-19.036686
-18.347002
-16.689422
-13.671437
-9.091468
-3.157329
3.514551
10.764155
18.486537
26.304253
34.037545
42.241536
51.182749
60.295149
69.238440
77.886634
86.491448
93.834568
97.906691
99.066555
97.835516
94.745058
90.468499
85.410299
80.927485
76.306474
69.845527
61.490093
51.533968
41.478612
33.090967
26.786400
22.429573
19.273394
16.406076
13.732805
11.648428
10.081509
8.261576
5.843397
3.755123
3.586275
6.010950
10.161522
14.605893
17.827016
18.900637
17.939237
15.354287
11.852097
7.808290
3.124935
-1.721814
-6.002269
-9.469910
-12.483217
-15.796037
-20.347949
-25.799178
-31.510695
-37.468991
-42.866708
-47.726185
-52.110028
-55.858219
-59.428988
-61.997312
-62.123559
-59.330533
-53.950739
-46.515660
-37.842528
-28.197344
-18.023013
-8.223008
1.056163
8.923495
14.394208
16.897073
16.205312
13.470736
9.379132
3.888158
-2.460569
-8.791112
-14.708885
-20.765373
-27.000322
-32.319069
-35.947507
-37.826927
-38.038117
-37.096458
-36.275071
-36.697713
-38.379449
-40.466424
-41.932294
-42.033083
-40.544352
-37.640925
-33.938972
-30.126617
-27.111230
-25.596522
-25.630291
-27.646349
-30.583285
-32.620124
-33.114981
-31.230624
-27.571532
-23.338613
-18.714224
-14.184390
-9.538959
-4.365680
0.847343
5.379515
8.021356
7.929918
5.828396
2.946272
-0.177956
-3.804056
-8.329212
-13.685106
-19.531183
-25.351022
-30.350255
-33.278618
-33.140940
-30.218291
-25.578575
-20.385554
-15.359303
-11.008449
-8.087358
-6.644347
-5.908943
-5.229649
-4.413198
-3.417506
-2.152436
-0.982700
-0.684486
-1.545616
-3.199817
-4.914284
-5.667870
-4.749070
-2.200746
0.950499
3.043970
2.882135
0.064433
-4.990130
-11.367432
-17.828898
-22.831508
-25.143962
-24.368034
-21.492922
-18.154124
-15.015867
-11.419899
-6.471059
0.115877
8.115951
16.448267
23.662803
28.813742
31.455582
31.778215
30.182981
26.718716
21.328013
14.354025
6.638139
-0.951500
-7.490377
-12.103335
-15.308351
-18.301396
-21.406401
-24.707791
-27.865010
-29.749885
-29.708841
-27.977227
-24.815071
-20.328099
-13.771296
-4.135724
7.458759
18.675798
27.434654
32.352061
33.586479
32.153600
29.478511
27.050461
25.348722
24.099759
23.180960
23.053415
24.328617
26.656917
28.763636
29.434098
28.075253
24.974923
21.603916
19.814375
20.143502
21.931745
24.665544
28.264369
32.333375
35.662821
37.155448
36.805802
35.054447
32.118031
28.614282
25.164825
21.337665
16.426493
10.763813
5.609499
1.714799
-1.125762
-2.944137
-3.600050
-3.685253
-3.771495
-3.438732
-1.503460
3.156258
10.300136
18.442303
25.609301
30.033669
31.475382
31.231720
30.974291
31.427327
32.370545
33.618211
35.220201
37.744107
42.153928
48.503955
55.183369
60.678760
64.668277
66.516526
64.873235
59.000922
49.768252
38.753573
27.337813
17.015675
9.204974
4.458236
2.202671
2.020835
3.681272
6.206477
8.813509
11.602897
14.611790
16.923206
17.486383
16.074026
13.071629
8.696619
2.979127
-3.580012
-10.536856
-17.851660
-25.425972
-33.043666
-40.548880
-47.780558
-54.032392
-57.903713
-58.264789
-54.836891
-48.089158
-39.449277
-30.426756
-21.613350
-13.338701
-6.321590
-1.282611
1.903184
3.896384
5.243541
6.961907
9.673885
12.065569
12.418335
10.285121
6.057399
0.430307
-6.088828
-12.946700
-19.309195
-24.863812
-29.523009
-33.106247
-35.958498
-38.929203
-42.516337
-46.243746
-49.196268
-50.266511
-49.247700
-45.971506
-40.611714
-34.713423
-27.573960
-18.947067
-9.478265
0.752435
10.302284
18.162083
22.963115
24.793700
24.974499
24.336770
24.032583
24.064015
23.061831
19.745375
15.696114
11.569441
5.745965
-1.371156
-9.437209
-17.514432
-23.566504
-27.418342
-29.182945
-29.277500
-28.815112
-27.527442
-25.093415
-21.761891
-17.702497
-13.622841
-10.438345
-8.907792
-8.726992
-8.801545
-8.735563
-8.338117
-6.998493
-4.589924
-1.722605
1.041846
2.941789
2.945167
0.651417
-3.219644
-7.256956
-10.237792
-11.288293
-9.971009
-6.634549
-2.163942
2.368230
6.087588
8.419006
8.925034
7.688799
5.096057
1.470736
-2.866608
-7.518012
-11.528308
-14.041562
-15.224284
-15.835517
-16.569101
-17.643760
-18.846485
-19.676703
-19.641373
-18.500472
-15.956304
-11.555315
-4.942922
4.065051
15.170391
26.839426
37.081817
44.500010
48.691107
50.443242
50.478831
49.261819
47.209653
44.538201
41.813496
39.559750
38.142717
37.602141
37.126247
35.693108
32.477182
26.956595
19.238890
10.405223
1.795216
-5.813645
-12.081585
-17.542165
-22.180061
-26.426746
-30.658884
-32.415694
-31.285963
-28.097051
-22.436967
-15.801974
-9.385705
-3.171276
2.981847
9.265115
15.164705
19.694539
22.008033
22.093757
20.480079
17.706018
13.936787
9.012886
3.380859
-2.473790
-8.483780
-14.205167
-19.030615
-23.326657
-28.299913
-34.090139
-39.729180
-44.443967
-47.617811
-49.079264
-49.510738
-50.023000
-51.249103
-52.921229
-54.574911
-56.311718
-58.542344
-61.185482
-63.514041
-64.388419
-62.833448
-58.310887
-50.773980
-40.879938
-29.563927
-17.525761
-5.155872
6.813456
17.815147
27.621907
35.509241
41.474812
45.926456
49.191220
51.753052
52.995523
52.677568
51.669669
50.736064
50.412394
50.371351
49.972868
48.805732
46.795648
44.290188
41.078937
36.993828
32.236958
26.683121
20.401414
14.009046
8.442220
3.947976
-0.068295
-3.959099
-8.267868
-13.790534
-20.550733
-27.588884
-33.528997
-37.198218
-38.417568
-37.907902
-36.293963
-34.004628
-30.505034
-25.608667
-19.934296
-13.547381
-7.345421
-2.357357
0.616467
1.182243
-0.353245
-3.975967
-8.966368
-14.225888
-18.866901
-22.379223
-24.830652
-26.327694
-26.961007
-26.508490
-24.879225
-22.418183
-19.897654
-18.268649
-17.405699
-16.172060
-14.196524
-12.489329
-10.659003
-8.186791
-6.569475
-5.707045
-5.139711
-4.645112
-2.123544
2.871275
8.447973
13.764125
19.293545
24.588656
28.639218
32.351822
37.135708
42.651102
47.850098
51.626085
53.614090
54.244547
53.399263
