EVENT_NAME: 202302060117
EVENT_ID: 13194
EVENT_DATE_YYYYMMDD: 2023/02/06
EVENT_TIME_HHMMSS: 01:17:32.00000
EVENT_LATITUDE_DEGREE: 37.288
EVENT_LONGITUDE_DEGREE: 37.043
EVENT_DEPTH_KM: 8.6
HYPOCENTER_REFERENCE: AFAD
MAGNITUDE_W: 7.7
MAGNITUDE_W_REFERENCE: AFAD
MAGNITUDE_L: 
MAGNITUDE_L_REFERENCE: 
FOCAL_MECHANISM: 
NETWORK: TK
STATION_CODE: 7103
STATION_NAME: 
STATION_LATITUDE_DEGREE: 39.94027
STATION_LONGITUDE_DEGREE: 34.03267
STATION_ELEVATION_M: 684.0
LOCATION: Kahramanmaras_Pazarck_Turkiye
SENSOR_DEPTH_M: 
VS30_M/S: None
SITE_CLASSIFICATION_EC8: unknown
MORPHOLOGIC_CLASSIFICATION: 
EPICENTRAL_DISTANCE_KM: 394.14
EARTHQUAKE_BACKAZIMUTH_DEGREE: 
DATE_TIME_FIRST_SAMPLE_YYYYMMDD_HHMMSS: 2023/02/06 01:18:02.2342290
DATE_TIME_FIRST_SAMPLE_PRECISION: millisecond
SAMPLING_INTERVAL_S: 0.01
NDATA: 21001
DURATION_S: 
STREAM: HNZ
UNITS: cm/s^2
INSTRUMENT: sensor = GMS+/GEOSIG | digitizer = 
INSTRUMENT_ANALOG/DIGITAL: 
INSTRUMENTAL_FREQUENCY_HZ: 
INSTRUMENTAL_DAMPING: 
FULL_SCALE_G: 
N_BIT_DIGITAL_CONVERTER: 
PGA_CM/S^2: 1.761
TIME_PGA_S: 
BASELINE_CORRECTION: BASELINE REMOVED
FILTER_TYPE: BUTTERWORTH
FILTER_ORDER: 
LOW_CUT_FREQUENCY_HZ: 
HIGH_CUT_FREQUENCY_HZ: 
LATE/NORMAL_TRIGGERED: 
DATABASE_VERSION: 
HEADER_FORMAT: DYNA 1.2
DATA_TYPE: Acceleration
PROCESSING: Automatic Paolucci et al., 2011
DATA_TIMESTAMP_YYYYMMDD_HHMMSS: 
DATA_LICENSE: U (unknown license)
DATA_CITATION: Turkish Accelerometric Archive v 1.0 - Disaster And Emergency Management Presidency, Earthquake Department
DATA_CREATOR: AFAD
ORIGINAL_DATA_MEDIATOR_CITATION: : AFAD - Disaster And Emergency Management Presidency
ORIGINAL_DATA_MEDIATOR: AFAD PROCESS SERVICE
ORIGINAL_DATA_CREATOR_CITATION: AFAD PROCESS SERVICE
ORIGINAL_DATA_CREATOR: network: TK
USER1: GuestUser
USER2: 
USER3: 
USER4: 
USER5: 
[...]
-0.039829
-0.048142
-0.048402
-0.043727
-0.034635
-0.024765
-0.006841
0.005368
0.031604
0.060697
0.079400
0.118365
0.159928
0.203049
0.255781
0.304617
0.357350
0.409303
0.462295
0.530094
0.580229
0.625948
0.687512
0.733491
0.777391
0.806485
0.830643
0.865971
0.883894
0.893505
0.896882
0.908051
0.915844
0.903375
0.887788
0.872462
0.854277
0.819728
0.779204
0.743875
0.697895
0.653735
0.604118
0.546709
0.493716
0.428254
0.367468
0.312397
0.243818
0.179915
0.124064
0.074188
0.028988
-0.012835
-0.053619
-0.096481
-0.129991
-0.149474
-0.165840
-0.182206
-0.196753
-0.206105
-0.206885
-0.208964
-0.201950
-0.186624
-0.182988
-0.176235
-0.171299
-0.181691
-0.174158
-0.160910
-0.168963
-0.169743
-0.177277
-0.192343
-0.195721
-0.205073
-0.211568
-0.218841
-0.231311
-0.239883
-0.250794
-0.251574
-0.245080
-0.251834
-0.252354
-0.247159
-0.258070
-0.250277
-0.241186
-0.245602
-0.233134
-0.237550
-0.240408
-0.221186
-0.216251
-0.213394
-0.203523
-0.196510
-0.190276
-0.175989
-0.161442
-0.154169
-0.144038
-0.143519
-0.155209
-0.157028
-0.160665
-0.171056
-0.180408
-0.207165
-0.229765
-0.243793
-0.272368
-0.299644
-0.336272
-0.369003
-0.407449
-0.463299
-0.509538
-0.568246
-0.617603
-0.668258
-0.732161
-0.785934
-0.850616
-0.897635
-0.939198
-0.988554
-1.036612
-1.089085
-1.124154
-1.160262
-1.182603
-1.197410
-1.217932
-1.221569
-1.215855
-1.198711
-1.188060
-1.172215
-1.137666
-1.102858
-1.072206
-1.041294
-0.997393
-0.946479
-0.899202
-0.860757
-0.821532
-0.778671
-0.743602
-0.713470
-0.685675
-0.659179
-0.641255
-0.632164
-0.624371
-0.626710
-0.630607
-0.633724
-0.642817
-0.656065
-0.683861
-0.708279
-0.722567
-0.742569
-0.758675
-0.775301
-0.790108
-0.797902
-0.809072
-0.815567
-0.816346
-0.816866
-0.820763
-0.827258
-0.826739
-0.831415
-0.831156
-0.826220
-0.821285
-0.810635
-0.812454
-0.809597
-0.798687
-0.792713
-0.782582
-0.780245
-0.771933
-0.756087
-0.744398
-0.716863
-0.689848
-0.671664
-0.651922
-0.626985
-0.590098
-0.559446
-0.532690
-0.499441
-0.471126
-0.446968
-0.418394
-0.382027
-0.352154
-0.332932
-0.307994
-0.279940
-0.254223
-0.229026
-0.221493
-0.216558
-0.202012
-0.201233
-0.203571
-0.201753
-0.204091
-0.216041
-0.218379
-0.223315
-0.250072
-0.254229
-0.258905
-0.276310
-0.282545
-0.296832
-0.308782
-0.325148
-0.339955
-0.348787
-0.370089
-0.384896
-0.396586
-0.416069
-0.438150
-0.463088
-0.492182
-0.522835
-0.548812
-0.578946
-0.608820
-0.638433
-0.675840
-0.706494
-0.735068
-0.768839
-0.811181
-0.859498
-0.901841
-0.938988
-0.980032
-1.037181
-1.088096
-1.132257
-1.184211
-1.228372
-1.277469
-1.325266
-1.362414
-1.403457
-1.443982
-1.477492
-1.505028
-1.526849
-1.538279
-1.542695
-1.533604
-1.523733
-1.513603
-1.492822
-1.475677
-1.440609
-1.413334
-1.396449
-1.362160
-1.333327
-1.305272
-1.274360
-1.232798
-1.190716
-1.159284
-1.124735
-1.093044
-1.063691
-1.038234
-1.020310
-1.005244
-0.993035
-0.980827
-0.967579
-0.961085
-0.962384
-0.958748
-0.946280
-0.937448
-0.935630
-0.936150
-0.933812
-0.922123
-0.917708
-0.914591
-0.896667
-0.878224
-0.865496
-0.845494
-0.817180
-0.794581
-0.764188
-0.730678
-0.705222
-0.673011
-0.642099
-0.615863
-0.576119
-0.538972
-0.513775
-0.474291
-0.426754
-0.381554
-0.341291
-0.299469
-0.248554
-0.207771
-0.163871
-0.122828
-0.094254
-0.066199
-0.039184
-0.006454
0.017445
0.034329
0.060046
0.085762
0.104985
0.124467
0.154600
0.182914
0.205513
0.232009
0.262661
0.301107
0.337214
0.363450
0.395401
0.430470
0.452809
0.473330
0.498527
0.515412
0.528660
0.536452
0.541907
0.552817
0.561908
0.575416
0.585806
0.593859
0.605808
0.615159
0.633862
0.648149
0.648668
0.644771
0.643731
0.647887
0.635678
0.616454
0.609960
0.596192
0.570994
0.552550
0.539041
0.530988
0.530468
0.533845
0.540858
0.554885
0.576705
0.603201
0.636191
0.668142
0.701652
0.742435
0.785556
0.828418
0.868941
0.910504
0.946091
0.973107
0.991290
1.008694
1.029735
1.034410
1.042203
1.050515
1.043761
1.045579
1.040123
1.021939
1.018042
1.016223
1.000117
0.986349
0.973101
0.955436
0.938031
0.912833
0.897507
0.882959
0.849189
0.827108
0.804768
0.768400
0.742942
0.703977
0.654361
0.624227
0.593314
0.555647
0.521617
0.488107
0.458233
0.426022
0.383939
0.356403
0.329906
0.299253
0.280290
0.251715
0.234050
0.214827
0.187811
0.170146
0.144948
0.128323
0.111697
0.095072
0.075069
0.051949
0.047533
0.032985
0.016100
0.008566
-0.001045
-0.002604
-0.002605
-0.003644
0.002330
0.010123
0.014019
0.028825
0.044411
0.050385
0.070387
0.097662
0.127015
0.153771
0.184683
0.218452
0.241052
0.273782
0.300798
0.323657
0.354829
0.375869
0.395611
0.410158
0.429900
0.449122
0.453278
0.461331
0.463928
0.465226
0.471460
0.462368
0.442885
0.430416
0.418466
0.397424
0.371447
0.346769
0.319753
0.292476
0.265200
0.233249
0.202596
0.167786
0.129600
0.097908
0.066216
0.028809
-0.001584
-0.026523
-0.057176
-0.080555
-0.093284
-0.097701
-0.097441
-0.094065
-0.081856
-0.062893
-0.042892
-0.021331
0.015555
0.053221
0.085432
0.124397
0.158166
0.193235
0.228563
0.262072
0.300258
0.330390
0.363121
0.403125
0.432997
0.455337
0.476638
0.498198
0.516122
0.527551
0.537941
0.545734
0.547812
0.552747
0.557942
0.548330
0.536640
0.532483
0.525729
0.519234
0.515597
0.508323
0.503647
0.510401
0.510400
0.500788
0.505983
0.510918
0.509359
0.518711
0.527283
0.536894
0.542348
0.542867
0.555076
0.555336
0.550919
0.560011
0.567543
0.569102
0.571959
0.586245
0.594817
0.602090
0.616637
0.621832
0.627027
0.628585
0.621311
0.623909
0.630402
0.619751
0.604684
0.595332
0.588318
0.576109
0.564938
0.559743
0.541558
0.531687
0.530388
0.514801
0.498955
0.481290
0.467262
0.462067
0.451156
0.432452
0.415827
0.400500
0.383355
0.366989
0.348545
0.327244
0.306462
0.291655
0.279185
0.262300
0.247233
0.234244
0.224892
0.221255
0.218917
0.214760
0.215020
0.221513
0.229826
0.241515
0.250866
0.262555
0.281518
0.293726
0.301779
0.311390
0.326975
0.341262
0.348276
0.362303
0.372173
0.381005
0.386200
0.383082
0.384641
0.381783
0.368015
0.348012
0.329308
0.308527
0.279952
0.245142
0.211632
0.168510
0.119414
0.085124
0.052133
0.013947
-0.028136
-0.060608
-0.078013
-0.101132
-0.126590
-0.138540
-0.145814
-0.162959
-0.168934
-0.169973
-0.179066
-0.173091
-0.161142
-0.153609
-0.138803
-0.113606
-0.087110
-0.052561
-0.007622
0.032901
0.080179
0.127456
0.172396
0.223569
0.270068
0.317345
0.367480
0.411120
0.446968
0.487491
0.526976
0.549575
0.571655
0.598151
0.618412
0.636855
0.653220
0.665689
0.679976
0.694522
0.709848
0.711666
0.707509
0.718159
0.725433
0.724653
0.729588
0.736082
0.738419
0.742835
0.746212
0.749588
0.758420
0.763095
0.765952
0.765692
0.768549
0.779199
0.785173
0.787251
0.784393
0.783873
0.790367
0.788289
0.778677
0.771403
0.756855
0.739191
0.720227
0.696848
0.665935
0.625411
0.592160
0.558390
0.514489
0.466951
0.421751
0.376291
0.324337
0.272123
0.221728
0.177827
0.127691
0.071061
0.015211
-0.040380
-0.094412
-0.157796
-0.216504
-0.272354
-0.339375
-0.401720
-0.457310
-0.516278
-0.577844
-0.633175
-0.694740
-0.758124
-0.809558
-0.865149
-0.917363
-0.965940
-1.011659
-1.052703
-1.095565
-1.126738
-1.157391
-1.187264
-1.200773
-1.214801
-1.230387
-1.242077
-1.253247
-1.261560
-1.274549
-1.291435
-1.301826
-1.310918
-1.323907
-1.332480
-1.331181
-1.324687
-1.315076
-1.296114
-1.275073
-1.254292
-1.219483
-1.180519
-1.137657
-1.086224
-1.032712
-0.975823
-0.918675
-0.856071
-0.788791
-0.725149
-0.657869
-0.586174
-0.514218
-0.433431
-0.360696
-0.300431
-0.226397
-0.145610
-0.067420
0.008432
0.077270
0.154421
0.240403
0.310540
0.371326
0.442761
0.509781
0.558357
0.608492
0.658627
0.697851
0.730582
0.757597
0.795003
0.821499
0.832149
0.846696
0.849293
0.872152
0.884101
0.862280
0.871112
0.870073
0.858643
0.863058
0.860200
0.858122
0.847471
0.860978
0.871109
0.856821
0.861237
0.858119
0.862795
0.874484
0.878380
0.894225
0.909811
0.934229
0.946438
0.925915
0.944359
0.976050
0.965399
0.966697
0.978646
0.961501
0.943057
0.955006
0.974748
0.987217
0.991632
0.987995
0.996047
1.004100
1.016049
1.037349
1.044103
1.049038
1.071638
1.093458
1.105926
1.132942
1.161516
1.176582
1.191128
1.208532
1.240483
1.266720
1.286721
1.316075
1.324127
1.326205
1.339972
1.355558
1.375300
1.389067
1.395301
1.393482
1.404392
1.427251
1.437901
1.448811
1.448031
1.452707
1.468812
1.468552
1.475305
1.478682
1.467512
1.443353
1.423350
1.427506
1.418933
1.386202
1.349834
1.318402
1.283852
1.254238
1.224365
1.177866
1.132926
1.087206
1.041486
0.998365
0.963296
0.931863
0.886663
0.846918
0.821980
0.811069
0.803016
0.781195
0.772103
0.769505
0.750801
0.746904
0.749761
0.747943
0.751579
0.728459
0.693650
0.680401
0.657282
0.630785
0.614679
0.578571
0.543502
0.507134
0.462713
0.439593
0.414915
0.379066
0.337763
0.309188
0.291264
0.261650
0.243725
0.218527
0.186056
0.164495
0.142414
0.140336
0.145271
0.148388
0.144231
0.131762
0.147867
0.163453
0.172284
0.196962
0.216704
0.231510
0.237484
0.244238
0.264499
0.288657
0.300866
0.298788
0.305022
0.307359
0.304241
0.315931
0.319827
0.317488
0.315670
0.305538
0.309175
0.324760
0.330475
0.325539
0.321902
0.321641
0.318004
0.320342
0.320082
0.307612
0.309690
0.318522
0.308650
0.314624
0.324755
0.315922
0.321897
0.335404
0.347353
0.353068
0.359561
0.378264
0.397487
0.426840
0.454895
0.476715
0.517758
0.562957
0.604260
0.664266
0.731545
0.778043
0.816229
0.875455
0.932084
0.969490
1.012352
1.048199
1.066642
1.080669
1.088722
1.099632
1.113399
1.113139
1.093916
1.076511
1.069237
1.045078
1.011568
0.980655
0.936754
0.883501
0.836482
0.799855
0.747121
0.689712
0.642694
0.592558
0.550735
0.510730
0.471505
0.427864
0.377209
0.342659
0.308889
0.277716
0.251219
0.219008
0.197187
0.174587
0.150947
0.135361
0.118216
0.103409
0.092758
0.089640
0.072495
0.045739
0.028853
0.008071
-0.006476
-0.033752
-0.064405
-0.087005
-0.124672
-0.152727
-0.178705
-0.212994
-0.239491
-0.268326
-0.301057
-0.321579
-0.337425
-0.366779
-0.400809
-0.425748
-0.439256
-0.449907
-0.469130
-0.502900
-0.533553
-0.547321
-0.557972
-0.575377
-0.587587
-0.593562
-0.617980
-0.636164
-0.634866
-0.649673
-0.659285
-0.663702
-0.687860
-0.705785
-0.718774
-0.733061
-0.745011
-0.767351
-0.788133
-0.801642
-0.815929
-0.821904
-0.818008
-0.824763
-0.832556
-0.835414
-0.840869
-0.844507
-0.846585
-0.844248
-0.855678
-0.869446
-0.864511
-0.866589
-0.874123
-0.873604
-0.867370
-0.863214
-0.854902
-0.836978
-0.819574
-0.801391
-0.774895
-0.745022
-0.722682
-0.690991
-0.647610
-0.605268
-0.571239
-0.536690
-0.485776
-0.442136
-0.404470
-0.359790
-0.322644
-0.288615
-0.248091
-0.212763
-0.181072
-0.141068
-0.109896
-0.090414
-0.064957
-0.032487
-0.009887
0.000763
0.019466
0.044663
0.063366
0.071158
0.076873
0.095316
0.109603
0.115837
0.119993
0.116355
0.115316
0.101028
0.085961
0.081805
0.053749
0.027772
0.009328
-0.015350
-0.037950
-0.061849
-0.072500
-0.078735
-0.087308
-0.086269
-0.079256
-0.081594
-0.086530
-0.065749
-0.042111
-0.018732
0.024389
0.051145
0.063613
0.092187
0.131931
0.176351
0.219992
0.258177
0.287531
0.302857
0.324157
0.354290
0.376889
0.398709
0.409619
0.411177
0.417671
0.419749
0.418709
0.415072
0.418709
0.420786
0.406758
0.403901
0.397406
0.385976
0.381559
0.364934
0.350906
0.331423
0.301549
0.270896
0.230892
0.196862
0.163611
0.120749
0.079185
0.041259
0.007489
-0.024203
-0.064987
-0.115123
-0.154089
-0.184222
-0.209680
-0.240073
-0.287611
-0.322420
-0.353593
-0.388142
-0.414639
-0.451267
-0.484777
-0.514131
-0.547642
-0.582451
-0.618559
-0.644796
-0.674410
-0.707401
-0.738314
-0.779618
-0.816765
-0.853912
-0.896514
-0.932882
-0.966912
-1.000423
-1.031855
-1.059910
-1.081472
-1.100435
-1.123815
-1.138622
-1.139401
-1.134466
-1.132908
-1.131090
-1.108231
-1.082514
-1.052641
-1.024067
-0.998870
-0.951853
-0.903796
-0.861714
-0.827685
-0.775212
-0.713128
-0.680138
-0.640913
-0.603247
-0.560126
-0.511810
-0.486093
-0.452064
-0.424010
-0.400631
-0.375953
-0.371018
-0.350497
-0.336730
-0.341925
-0.336730
-0.334653
-0.318807
-0.302442
-0.303741
-0.300105
-0.297768
-0.294911
-0.287637
-0.278026
-0.263740
-0.253349
-0.242959
-0.225295
-0.205034
-0.189968
-0.174901
-0.160355
-0.148666
-0.139834
-0.142952
-0.149966
-0.153083
-0.165293
-0.180879
-0.194647
-0.218547
-0.256473
-0.300634
-0.331547
-0.354926
-0.388956
-0.432338
-0.472602
-0.513127
-0.550014
-0.576511
-0.617814
-0.663274
-0.706656
-0.742764
-0.762247
-0.799654
-0.836022
-0.861480
-0.886158
-0.896809
-0.914733
-0.935515
-0.947984
-0.957856
-0.953960
-0.944868
-0.949285
-0.953182
-0.944869
-0.942792
-0.945909
-0.944871
-0.945650
-0.947729
-0.950067
-0.953445
-0.958640
-0.969551
-0.985657
-1.002542
-1.023065
-1.035274
-1.051900
-1.080474
-1.095801
-1.113985
-1.136845
-1.155029
-1.179708
-1.200490
-1.219973
-1.237118
-1.261536
-1.298684
-1.327518
-1.352197
-1.382850
-1.422335
-1.454027
-1.482602
-1.523386
-1.551441
-1.574301
-1.602356
-1.628593
-1.656908
-1.676911
-1.687822
-1.700551
-1.724450
-1.744452
-1.744193
-1.748609
-1.756922
-1.757702
-1.760820
-1.750689
-1.735103
-1.726012
-1.701334
-1.687048
-1.682372
-1.657695
-1.647045
-1.632498
-1.605742
-1.593014
-1.573792
-1.557427
-1.547036
-1.535607
-1.528853
-1.510930
-1.483395
-1.472485
-1.463913
-1.441833
-1.419753
-1.401570
-1.379750
-1.357151
-1.345721
-1.320005
-1.285456
-1.259220
-1.225450
-1.193499
-1.160249
-1.128038
-1.094269
-1.052707
-1.021535
-0.996857
-0.963348
-0.922565
-0.883080
-0.846453
-0.813983
-0.777875
-0.735793
-0.684100
-0.632666
-0.593702
-0.552139
-0.511876
-0.468235
-0.418879
-0.374979
-0.346145
-0.320688
-0.294452
-0.277048
-0.259125
-0.243279
-0.228992
-0.230551
-0.239124
-0.236007
-0.238346
-0.246918
-0.250556
-0.240685
-0.239906
-0.245881
-0.238348
-0.244583
-0.245103
-0.231595
-0.222764
-0.201983
-0.189774
-0.190294
-0.176527
-0.159122
-0.143277
-0.132627
-0.123536
-0.110807
-0.113405
-0.111068
-0.098859
-0.108211
-0.126136
-0.132111
-0.135748
-0.152893
-0.172636
-0.188742
-0.207186
-0.219395
-0.238099
-0.259140
-0.275247
-0.293171
-0.300185
-0.306420
-0.316291
-0.324345
-0.334216
-0.341750
-0.338633
-0.332399
-0.333958
-0.325646
-0.312398
-0.305125
-0.297852
-0.286163
-0.264862
-0.248238
-0.237847
-0.223301
-0.209793
-0.211612
-0.207196
-0.194208
-0.197066
-0.202781
-0.202522
-0.199146
-0.197847
-0.196549
-0.198367
-0.203823
-0.207980
-0.214474
-0.220190
-0.229801
-0.239673
-0.256818
-0.279678
-0.291108
-0.310331
-0.329555
-0.349297
-0.379951
-0.403330
-0.428528
-0.455544
-0.482041
-0.516850
-0.551400
-0.576078
-0.598678
-0.620759
-0.643619
-0.664661
-0.673753
-0.679468
-0.673494
-0.664662
-0.662065
-0.641544
-0.607255
-0.570888
-0.525948
-0.469839
-0.420224
-0.376063
-0.311122
-0.238907
-0.180719
-0.120973
-0.053693
0.014625
0.087100
0.152042
0.213346
0.284522
0.355439
0.417783
0.482464
0.543769
0.595463
0.651572
0.702486
0.753400
0.798859
0.840681
0.891076
0.928482
0.965629
1.003035
1.036025
1.077068
1.112136
1.139931
1.164349
1.191364
1.218120
1.229549
1.238121
1.249291
1.262279
1.277605
1.285657
1.298385
1.310334
1.319426
1.337089
1.345142
1.362286
1.390860
1.401770
1.422031
1.443592
1.459957
1.486193
1.496583
1.512169
1.539444
1.545678
1.558147
1.578668
1.592175
1.608021
1.614515
1.628542
1.649842
1.661531
1.677117
1.686728
1.688806
1.701274
1.704651
1.700234
1.696078
1.677634
1.663346
1.652695
1.639447
1.622821
1.599701
1.586193
1.570347
1.555799
1.544369
1.528003
1.519690
1.519170
1.517871
1.514753
1.510077
1.512415
1.522545
1.522805
1.525662
1.526960
1.515790
1.519686
1.521764
1.509035
1.509813
1.512411
1.510852
1.518644
1.526956
1.533970
1.542022
1.548516
1.556828
1.554750
1.543839
1.545917
1.543319
1.529031
1.515782
1.494741
1.475518
1.461749
1.450059
1.433953
1.409015
1.394468
1.382778
1.366672
1.356021
1.348228
1.344590
1.333160
1.312638
1.303286
1.296791
1.274971
1.256786
1.239641
1.200935
1.167685
1.144305
1.104820
1.053905
1.005328
0.957011
0.896744
0.823489
0.746598
0.672823
0.587359
0.491764
0.412275
0.330188
0.230956
0.141076
0.056391
-0.029333
-0.114017
-0.193767
-0.260268
-0.330665
-0.397686
-0.451718
-0.502633
-0.549651
-0.584201
-0.616153
-0.649923
-0.676160
-0.692526
-0.695124
-0.706034
-0.712009
-0.702658
-0.705776
-0.707595
-0.697984
-0.683697
-0.673566
-0.667072
-0.652786
-0.633823
-0.623692
-0.614081
-0.603431
-0.605510
-0.607329
-0.610966
-0.621876
-0.636424
-0.647854
-0.655388
-0.671234
-0.680846
-0.685262
-0.691497
-0.691757
-0.691758
-0.683445
-0.674354
-0.667081
-0.649937
-0.635130
-0.614609
-0.595127
-0.583438
-0.559799
-0.540837
-0.521354
-0.497196
-0.483949
-0.464466
-0.449660
-0.433815
-0.406539
-0.396409
-0.382382
-0.347314
-0.324714
-0.313025
-0.296400
-0.271203
-0.251981
-0.243149
-0.231720
-0.222628
-0.218732
-0.216395
-0.219252
-0.222370
-0.227306
-0.243152
-0.261856
-0.285236
-0.308615
-0.340307
-0.384728
-0.414082
-0.445514
-0.492273
-0.537473
-0.578777
-0.618262
-0.654370
-0.695673
-0.738795
-0.773345
-0.808933
-0.840885
-0.871019
-0.898555
-0.923233
-0.947392
-0.964797
-0.996229
-1.014933
-1.018570
-1.030000
-1.024285
-1.029481
-1.029741
-1.018572
-1.022209
-1.009481
-0.997012
-0.986882
-0.966360
-0.956490
-0.943761
-0.921162
-0.901420
-0.882977
-0.864534
-0.842974
-0.806087
-0.780890
-0.765304
-0.724781
-0.691791
-0.659320
-0.610224
-0.567103
-0.523463
-0.482420
-0.429168
-0.373058
-0.328638
-0.266814
-0.205769
-0.155894
-0.100564
-0.047831
-0.000034
0.041788
0.094780
0.149591
0.186997
0.228819
0.263108
0.295059
0.338959
0.369612
0.399485
0.435852
0.466244
0.500533
0.533523
0.560539
0.590412
0.618986
0.649378
0.675874
0.690940
0.703668
0.715098
0.724189
0.726786
0.730683
0.726006
0.720551
0.723668
0.713017
0.703405
0.697430
0.695092
0.688597
0.670673
0.660541
0.643396
0.615081
0.585207
0.556892
0.528317
0.491430
0.450906
0.411161
0.358947
0.297641
0.257377
0.216853
0.161002
0.113204
0.066965
0.018388
-0.031747
-0.079545
-0.126563
-0.178258
-0.225016
-0.270216
-0.313858
-0.347888
-0.385814
-0.422961
-0.452575
-0.488943
-0.514401
-0.527650
-0.547392
-0.564537
-0.575448
-0.581423
-0.583242
-0.580904
-0.571293
-0.557786
-0.534667
-0.507392
-0.485572
-0.455439
-0.413617
-0.373873
-0.334648
-0.292306
-0.255679
-0.218533
-0.181646
-0.142162
-0.103197
-0.067610
-0.026047
0.009281
0.050064
0.090328
0.124876
0.174492
0.220210
0.258136
0.303335
0.341001
0.376329
0.418411
0.458935
0.499458
0.531669
0.561282
0.584661
0.602325
0.626483
0.644926
0.654537
0.657394
0.652977
0.645184
0.644404
0.641287
0.628038
0.611412
0.596605
0.592968
0.576862
0.554262
0.543091
0.519972
0.490098
0.469576
0.447495
