EVENT_NAME: 202302060117
EVENT_ID: 13194
EVENT_DATE_YYYYMMDD: 2023/02/06
EVENT_TIME_HHMMSS: 01:17:32.00000
EVENT_LATITUDE_DEGREE: 37.288
EVENT_LONGITUDE_DEGREE: 37.043
EVENT_DEPTH_KM: 8.6
HYPOCENTER_REFERENCE: AFAD
MAGNITUDE_W: 7.7
MAGNITUDE_W_REFERENCE: AFAD
MAGNITUDE_L: 
MAGNITUDE_L_REFERENCE: 
FOCAL_MECHANISM: 
NETWORK: TK
STATION_CODE: 1910
STATION_NAME: 
STATION_LATITUDE_DEGREE: 40.02767
STATION_LONGITUDE_DEGREE: 34.60089
STATION_ELEVATION_M: 210.0
LOCATION: Kahramanmaras_Pazarck_Turkiye
SENSOR_DEPTH_M: 
VS30_M/S: None
SITE_CLASSIFICATION_EC8: unknown
MORPHOLOGIC_CLASSIFICATION: 
EPICENTRAL_DISTANCE_KM: 371.14
EARTHQUAKE_BACKAZIMUTH_DEGREE: 
DATE_TIME_FIRST_SAMPLE_YYYYMMDD_HHMMSS: 2023/02/06 01:17:59.3901740
DATE_TIME_FIRST_SAMPLE_PRECISION: millisecond
SAMPLING_INTERVAL_S: 0.01
NDATA: 21001
DURATION_S: 
STREAM: HNE
UNITS: cm/s^2
INSTRUMENT: sensor = ACEBOX/SARA | digitizer = 
INSTRUMENT_ANALOG/DIGITAL: 
INSTRUMENTAL_FREQUENCY_HZ: 
INSTRUMENTAL_DAMPING: 
FULL_SCALE_G: 
N_BIT_DIGITAL_CONVERTER: 
PGA_CM/S^2: 5.521
TIME_PGA_S: 
BASELINE_CORRECTION: BASELINE REMOVED
FILTER_TYPE: BUTTERWORTH
FILTER_ORDER: 
LOW_CUT_FREQUENCY_HZ: 
HIGH_CUT_FREQUENCY_HZ: 
LATE/NORMAL_TRIGGERED: 
DATABASE_VERSION: 
HEADER_FORMAT: DYNA 1.2
DATA_TYPE: Acceleration
PROCESSING: Automatic Paolucci et al., 2011
DATA_TIMESTAMP_YYYYMMDD_HHMMSS: 
DATA_LICENSE: U (unknown license)
DATA_CITATION: Turkish Accelerometric Archive v 1.0 - Disaster And Emergency Management Presidency, Earthquake Department
DATA_CREATOR: AFAD
ORIGINAL_DATA_MEDIATOR_CITATION: : AFAD - Disaster And Emergency Management Presidency
ORIGINAL_DATA_MEDIATOR: AFAD PROCESS SERVICE
ORIGINAL_DATA_CREATOR_CITATION: AFAD PROCESS SERVICE
ORIGINAL_DATA_CREATOR: network: TK
USER1: GuestUser
USER2: 
USER3: 
USER4: 
USER5: 
[...]
-0.863760
-0.811622
-0.779358
-0.753873
-0.747559
-0.740778
-0.730490
-0.737270
-0.747088
-0.754101
-0.768596
-0.788234
-0.804833
-0.815820
-0.817456
-0.800154
-0.768591
-0.714115
-0.634623
-0.547884
-0.434491
-0.295147
-0.154166
0.005284
0.175723
0.335875
0.494858
0.645191
0.767234
0.853740
0.907046
0.915931
0.870809
0.776590
0.626961
0.431273
0.208231
-0.035852
-0.273389
-0.491521
-0.689079
-0.844553
-0.957710
-1.034161
-1.075776
-1.084192
-1.055668
-1.004466
-0.939937
-0.851093
-0.743779
-0.630387
-0.513721
-0.405706
-0.314056
-0.243916
-0.211184
-0.211884
-0.236900
-0.293244
-0.373436
-0.470227
-0.581513
-0.693501
-0.804788
-0.911399
-1.005852
-1.103812
-1.208319
-1.317501
-1.446790
-1.587068
-1.728047
-1.872065
-1.996444
-2.091833
-2.150515
-2.154489
-2.107261
-2.012338
-1.871591
-1.703724
-1.515049
-1.314216
-1.121566
-0.946685
-0.789339
-0.650462
-0.534965
-0.439575
-0.359616
-0.299061
-0.250431
-0.203203
-0.163223
-0.127451
-0.095186
-0.067129
-0.038371
-0.009613
0.028263
0.084375
0.160360
0.259724
0.374286
0.495861
0.622814
0.738077
0.822245
0.872746
0.886307
0.862694
0.817339
0.763800
0.711664
0.682206
0.682675
0.705588
0.742061
0.772689
0.784614
0.772224
0.722659
0.634752
0.507334
0.337598
0.135598
-0.100536
-0.362856
-0.637100
-0.923266
-1.204056
-1.465674
-1.714668
-1.939580
-2.134098
-2.306640
-2.456035
-2.568491
-2.633486
-2.655929
-2.636991
-2.578073
-2.478007
-2.336559
-2.175238
-2.002928
-1.828047
-1.669298
-1.527148
-1.408612
-1.320470
-1.253603
-1.211051
-1.194451
-1.202867
-1.237935
-1.301761
-1.398552
-1.529712
-1.684718
-1.856558
-2.041491
-2.221047
-2.381431
-2.517734
-2.613122
-2.664790
-2.684896
-2.675777
-2.646786
-2.609845
-2.571267
-2.533157
-2.501594
-2.471433
-2.422803
-2.363417
-2.297018
-2.207706
-2.109978
-2.001963
-1.879686
-1.755539
-1.613156
-1.458615
-1.300801
-1.131998
-0.961793
-0.785743
-0.608991
-0.440890
-0.266477
-0.098142
0.053594
0.204160
0.343971
0.468586
0.588525
0.686487
0.762940
0.832612
0.882412
0.913975
0.940863
0.953956
0.953957
0.942034
0.907667
0.855999
0.780951
0.678314
0.564222
0.441012
0.312424
0.187110
0.073018
-0.014889
-0.080819
-0.131552
-0.157737
-0.160541
-0.150020
-0.127341
-0.080346
-0.011142
0.072559
0.179405
0.309163
0.448507
0.594164
0.761330
0.940419
1.110625
1.279895
1.437007
1.565363
1.670806
1.743284
1.783031
1.804307
1.801502
1.782566
1.760356
1.732067
1.708221
1.685543
1.664736
1.653515
1.639488
1.633644
1.639489
1.644634
1.663339
1.693032
1.733246
1.794969
1.865343
1.937353
2.003285
2.054254
2.085116
2.083948
2.043735
1.973129
1.870026
1.726007
1.550660
1.352401
1.128658
0.885743
0.631373
0.377236
0.132217
-0.110697
-0.348468
-0.568003
-0.780991
-0.989070
-1.178211
-1.359403
-1.526801
-1.675028
-1.813435
-1.931268
-2.035540
-2.128357
-2.201535
-2.267465
-2.315626
-2.339706
-2.345083
-2.321936
-2.268396
-2.184228
-2.068965
-1.931959
-1.780457
-1.608382
-1.421577
-1.235941
-1.034173
-0.809493
-0.574993
-0.324362
-0.056429
0.218049
0.499776
0.786179
1.069074
1.346125
1.597691
1.816059
2.014086
2.173537
2.296982
2.398919
2.462045
2.494778
2.510209
2.498754
2.458775
2.397989
2.315693
2.209316
2.085872
1.951673
1.814435
1.681172
1.549545
1.422360
1.305462
1.194877
1.097618
1.017894
0.951263
0.903569
0.869435
0.839510
0.825483
0.828757
0.845591
0.876220
0.915265
0.967169
1.034269
1.109319
1.188110
1.273213
1.363927
1.449497
1.524547
1.591180
1.639110
1.660620
1.667635
1.659920
1.627423
1.583470
1.529698
1.459793
1.387784
1.304086
1.198878
1.088760
0.963212
0.820830
0.674007
0.512921
0.346225
0.181398
0.014234
-0.143578
-0.288532
-0.419223
-0.533549
-0.633848
-0.719884
-0.793296
-0.855251
-0.918375
-0.973784
-1.010490
-1.038778
-1.044155
-1.021242
-0.981495
-0.911122
-0.813627
-0.699533
-0.562761
-0.409857
-0.254615
-0.096099
0.056571
0.197786
0.331986
0.448886
0.553394
0.643173
0.707000
0.753761
0.775739
0.773869
0.753763
0.705134
0.635464
0.551999
0.453805
0.342051
0.233102
0.129764
0.021050
-0.074339
-0.161311
-0.247815
-0.320525
-0.399314
-0.472258
-0.522055
-0.580036
-0.628665
-0.653213
-0.682905
-0.699269
-0.702542
-0.713997
-0.717269
-0.720308
-0.735971
-0.758883
-0.796289
-0.844451
-0.897989
-0.951061
-1.002495
-1.054163
-1.088531
-1.113079
-1.130379
-1.122896
-1.101854
-1.060003
-0.985421
-0.894707
-0.782717
-0.641269
-0.481351
-0.306236
-0.119197
0.081636
0.299302
0.529827
0.772743
1.029220
1.302296
1.587062
1.872295
2.163607
2.457725
2.745998
3.034505
3.315296
3.576682
3.825911
4.049656
4.229681
4.373233
4.477274
4.534321
4.556065
4.545311
4.497851
4.423037
4.329051
4.214959
4.090112
3.954978
3.806752
3.656888
3.493465
3.312741
3.128977
2.927678
2.708143
2.479958
2.231666
1.975425
1.724796
1.467853
1.216055
0.986233
0.761788
0.548332
0.361997
0.187117
0.022992
-0.126637
-0.259901
-0.373525
-0.478499
-0.571550
-0.652911
-0.734505
-0.814930
-0.904941
-1.003837
-1.105771
-1.214720
-1.320629
-1.422564
-1.512342
-1.574297
-1.616847
-1.628536
-1.603285
-1.561902
-1.495737
-1.400580
-1.295137
-1.171691
-1.021826
-0.859102
-0.679078
-0.473101
-0.261514
-0.050160
0.159790
0.345660
0.505344
0.634168
0.724882
0.792684
0.831729
0.844822
0.853474
0.848565
0.834304
0.823083
0.809056
0.793392
0.777261
0.760896
0.741725
0.724893
0.716711
0.716712
0.734014
0.763473
0.806259
0.878269
0.957761
1.036785
1.129370
1.211901
1.274560
1.323190
1.347039
1.347741
1.331142
1.300983
1.265914
1.227105
1.195777
1.179412
1.167255
1.166555
1.174271
1.178714
1.180352
1.177781
1.173807
1.163521
1.144818
1.125180
1.102970
1.084501
1.073513
1.068604
1.082633
1.112326
1.154878
1.221979
1.307315
1.403641
1.512357
1.633231
1.760886
1.887137
2.009648
2.120001
2.214456
2.305638
2.387234
2.455503
2.527280
2.595316
2.651428
2.707073
2.758509
2.798489
2.827481
2.841977
2.839640
2.824210
2.787037
2.722744
2.639045
2.533370
2.410861
2.281806
2.146906
2.015279
1.885756
1.755999
1.631386
1.497889
1.349194
1.187174
1.001072
0.789954
0.552651
0.298280
0.029180
-0.263767
-0.559052
-0.849895
-1.139569
-1.407967
-1.658831
-1.900576
-2.118241
-2.309954
-2.476650
-2.608511
-2.701795
-2.757672
-2.776609
-2.757670
-2.705766
-2.623235
-2.510544
-2.374473
-2.208944
-2.012086
-1.800966
-1.566934
-1.307886
-1.038083
-0.749576
-0.448211
-0.139130
0.183979
0.496333
0.791854
1.077087
1.338240
1.572038
1.778715
1.950557
2.094110
2.217555
2.317855
2.398049
2.468890
2.529444
2.580881
2.626472
2.650086
2.650087
2.638164
2.599121
2.514020
2.384965
2.223645
2.037777
1.824555
1.578134
1.308566
1.036193
0.765457
0.492616
0.226790
-0.013553
-0.213916
-0.372196
-0.489562
-0.559466
-0.569285
-0.531409
-0.468984
-0.382946
-0.286854
-0.203622
-0.126234
-0.064978
-0.041831
-0.044168
-0.066612
-0.109162
-0.162000
-0.220448
-0.277260
-0.324486
-0.357918
-0.371945
-0.369139
-0.353474
-0.315831
-0.264863
-0.209218
-0.138610
-0.068938
-0.002539
0.065263
0.115764
0.160888
0.202271
0.231263
0.254643
0.272647
0.300469
0.335774
0.377157
0.451973
0.548766
0.665665
0.814829
0.983865
1.174410
1.369632
1.554099
1.737163
1.898484
2.031048
2.153792
2.253391
2.318621
2.360706
2.382683
2.377073
2.340368
2.283322
2.204533
2.101196
1.978219
1.844722
1.706549
1.558322
1.417109
1.292262
1.176300
1.078573
0.993706
0.929880
0.890603
0.861379
0.852963
0.859744
0.886164
0.932223
0.979685
1.047487
1.135863
1.234527
1.349088
1.475807
1.623568
1.776940
1.921427
2.066149
2.186789
2.274464
2.336655
2.350683
2.316550
2.247113
2.141905
2.010278
1.859012
1.700966
1.550167
1.399837
1.261663
1.140791
1.022023
0.914477
0.821894
0.734221
0.655900
0.593711
0.544380
0.506272
0.492947
0.502299
0.520770
0.555607
0.607043
0.660116
0.713890
0.764391
0.803670
0.827051
0.826116
0.806244
0.761590
0.684671
0.589751
0.473788
0.332575
0.178270
0.015080
-0.153253
-0.326963
-0.488984
-0.625754
-0.744289
-0.834767
-0.891112
-0.911685
-0.890642
-0.842246
-0.768365
-0.660583
-0.545788
-0.427252
-0.290713
-0.159552
-0.032366
0.098328
0.208681
0.307812
0.402734
0.475446
0.530389
0.564992
0.575046
0.571774
0.547694
0.505144
0.463295
0.414900
0.365569
0.330267
0.299874
0.279534
0.276730
0.292863
0.336584
0.405788
0.494632
0.602881
0.734977
0.886947
1.037045
1.189716
1.335840
1.444323
1.525217
1.576654
1.581330
1.559121
1.508387
1.419078
1.306622
1.171021
1.014377
0.852590
0.681685
0.502364
0.335200
0.182998
0.038980
-0.083529
-0.172838
-0.234794
-0.259575
-0.232922
-0.163249
-0.054299
0.093462
0.258056
0.434106
0.616469
0.786674
0.946592
1.094821
1.223410
1.341479
1.442012
1.512152
1.554938
1.571305
1.551433
1.490646
1.394557
1.267372
1.109559
0.930004
0.739226
0.549150
0.366555
0.190039
0.029187
-0.118104
-0.257914
-0.375513
-0.480955
-0.581721
-0.657002
-0.715217
-0.760339
-0.776003
-0.770157
-0.745140
-0.693470
-0.631045
-0.570023
-0.513443
-0.468787
-0.438159
-0.424598
-0.422726
-0.427168
-0.443065
-0.463171
-0.477198
-0.489588
-0.498705
-0.491223
-0.461764
-0.416640
-0.350007
-0.252512
-0.137951
-0.012635
0.132320
0.289667
0.458002
0.635221
0.807998
0.982645
1.152383
1.303885
1.444164
1.561063
1.644997
1.691991
1.695265
1.655988
1.568315
1.432012
1.262510
1.066589
0.846587
0.616531
0.396061
0.186579
-0.002094
-0.155932
-0.288026
-0.393234
-0.458229
-0.501013
-0.516209
-0.493530
-0.455186
-0.395100
-0.297371
-0.176264
-0.029438
0.146846
0.340197
0.540796
0.734615
0.916978
1.084611
1.221150
1.322852
1.386680
1.393227
1.349742
1.258094
1.109400
0.928675
0.715921
0.469733
0.219337
-0.032929
-0.275610
-0.501224
-0.725201
-0.922525
-1.074960
-1.206820
-1.309690
-1.368840
-1.407883
-1.424482
-1.407648
-1.390346
-1.373278
-1.338208
-1.316931
-1.311553
-1.299862
-1.303135
-1.323006
-1.344047
-1.373271
-1.405534
-1.437330
-1.466320
-1.483386
-1.497179
-1.504660
-1.501152
-1.495073
-1.486187
-1.475432
-1.456260
-1.429840
-1.394769
-1.332578
-1.243735
-1.120756
-0.946810
-0.724936
-0.448119
-0.116360
0.257717
0.675046
1.123703
1.582648
2.053049
2.528828
2.978421
3.398321
3.791335
4.138058
4.436150
4.682106
4.872417
5.016671
5.098735
5.113231
5.075824
4.978799
4.817714
4.611272
4.367656
4.086165
3.778722
3.458655
3.139990
2.824365
2.519494
2.233327
1.954174
1.708220
1.486113
1.285049
1.123963
0.963813
0.852526
0.750591
0.637434
0.601898
0.495989
0.428656
0.423747
0.172650
0.057856
0.182003
0.086147
-0.041505
-0.124970
-0.301720
-0.425398
-0.518682
-0.599107
-0.672986
-0.773285
-0.823550
-0.865399
-0.917535
-0.943953
-0.951668
-0.936236
-0.931559
-0.917063
-0.875446
-0.853001
-0.823775
-0.768364
-0.714356
-0.646788
-0.568465
-0.509080
-0.462787
-0.432860
-0.444783
-0.498322
-0.592541
-0.728844
-0.892969
-1.083279
-1.300242
-1.526791
-1.751703
-1.972173
-2.179316
-2.367288
-2.536791
-2.685251
-2.814540
-2.918813
-2.986379
-3.033839
-3.066804
-3.066335
-3.048332
-3.024718
-2.979126
-2.923949
-2.872981
-2.815933
-2.759821
-2.715399
-2.675419
-2.641751
-2.622579
-2.609719
-2.593119
-2.576986
-2.551969
-2.516197
-2.478321
-2.434366
-2.396957
-2.371707
-2.351131
-2.352533
-2.374509
-2.397655
-2.424073
-2.442776
-2.433423
-2.395313
-2.322368
-2.197987
-2.030353
-1.844016
-1.641780
-1.426920
-1.222580
-1.044192
-0.889651
-0.758022
-0.659125
-0.588518
-0.543628
-0.530534
-0.542223
-0.593891
-0.693254
-0.822310
-0.981759
-1.170900
-1.375238
-1.585187
-1.786251
-1.963001
-2.115436
-2.247063
-2.350167
-2.427319
-2.493249
-2.547957
-2.593313
-2.637967
-2.676543
-2.713014
-2.748317
-2.769358
-2.781281
-2.784085
-2.758133
-2.711840
-2.648948
-2.556363
-2.440165
-2.300587
-2.130850
-1.944512
-1.741342
-1.519935
-1.292917
-1.060755
-0.830698
-0.616539
-0.415940
-0.236383
-0.083245
0.056099
0.175804
0.282884
0.397680
0.507098
0.616282
0.739260
0.864109
0.989191
1.107961
1.205923
1.281440
1.330539
1.347607
1.333813
1.298511
1.240530
1.160338
1.067054
0.954599
0.834428
0.714257
0.578421
0.434403
0.285008
0.124623
-0.036462
-0.201522
-0.373362
-0.542630
-0.708859
-0.873452
-1.032433
-1.178322
-1.309949
-1.433159
-1.537432
-1.627443
-1.714181
-1.783618
-1.833649
-1.861471
-1.861470
-1.831075
-1.755090
-1.638658
-1.490898
-1.311808
-1.106066
-0.884659
-0.668395
-0.457743
-0.261353
-0.095122
0.045859
0.157381
0.241315
0.299765
0.326653
0.335772
0.333435
0.307250
0.259323
0.199238
0.128398
0.045167
-0.032453
-0.092070
-0.145609
-0.178106
-0.174598
-0.147243
-0.099548
-0.034084
0.037459
0.111106
0.182415
0.238761
0.276404
0.292770
0.287160
0.261911
0.216087
0.150391
0.069732
-0.022851
-0.124786
-0.240982
-0.364426
-0.494884
-0.648254
-0.816821
-0.987259
-1.167282
-1.355020
-1.540187
-1.716001
-1.872878
-2.015494
-2.154369
-2.273137
-2.373435
-2.467421
-2.541767
-2.602554
-2.654222
-2.686719
-2.704019
-2.704720
-2.694899
-2.678766
-2.658425
-2.646968
-2.639486
-2.642992
-2.672917
-2.726222
-2.807816
-2.919571
-3.051665
-3.201996
-3.374771
-3.561341
-3.747676
-3.939389
-4.135310
-4.317438
-4.489745
-4.658312
-4.817527
-4.965286
-5.097381
-5.218721
-5.326033
-5.410667
-5.475895
-5.514705
-5.521250
-5.494129
-5.431237
-5.341691
-5.223857
-5.091760
-4.969951
-4.847207
-4.737555
-4.664609
-4.613641
-4.586286
-4.594000
-4.618314
-4.659695
-4.727496
-4.796231
-4.859122
-4.927156
-4.980695
-5.014594
-5.033064
-5.023711
-4.995888
-4.946088
-4.862622
-4.756009
-4.611756
-4.434770
-4.235808
-3.998970
-3.742728
-3.465210
-3.157532
-2.846814
-2.525342
-2.194752
-1.877020
-1.567940
-1.268912
-0.996304
-0.753154
-0.536656
-0.360139
-0.222431
-0.119092
-0.063681
-0.040534
-0.036793
-0.059470
-0.086356
-0.101318
-0.109734
-0.103187
-0.073728
-0.023226
0.052291
0.150720
0.266685
0.397846
0.535553
0.676768
0.820320
0.959197
1.092228
1.209595
1.313402
1.407857
1.476360
1.524523
1.553048
1.550243
1.527565
1.481274
1.411838
1.345206
1.272496
1.195578
1.140636
1.095982
1.059043
1.041742
1.041977
1.063020
1.096220
1.131992
1.175946
1.218732
1.257076
1.287704
1.295420
1.285835
1.258014
1.198397
1.117504
1.016271
0.889553
0.748341
0.593568
0.423832
0.252693
0.089036
-0.068543
-0.212795
-0.345123
-0.469035
-0.584764
-0.696518
-0.799388
-0.901556
-1.006764
-1.103322
-1.200814
-1.293631
-1.367744
-1.428296
-1.456819
-1.450272
-1.416604
-1.348100
-1.250372
-1.132070
-1.000675
-0.871852
-0.751446
-0.649977
-0.573524
-0.520685
-0.490524
-0.478834
-0.483275
-0.493561
-0.504549
-0.517641
-0.520211
-0.519977
-0.517170
-0.489348
-0.452874
-0.420142
-0.379227
-0.335973
-0.305111
-0.295525
-0.289445
-0.288509
-0.326149
-0.374311
-0.414055
-0.472738
-0.534226
-0.579348
-0.622365
-0.653693
-0.654628
-0.630312
-0.587994
-0.516685
-0.425503
-0.331983
-0.230748
-0.140034
-0.071764
-0.021029
-0.011677
-0.041134
-0.100985
-0.202453
-0.328702
-0.468278
-0.614635
-0.750470
-0.880694
-1.000397
-1.094383
-1.168964
-1.230451
-1.268793
-1.291003
-1.304329
-1.289365
-1.262244
-1.245409
-1.208001
-1.164747
-1.141133
-1.122195
-1.110504
-1.109334
-1.120789
-1.134582
-1.146739
-1.174560
-1.200511
-1.232072
-1.284442
-1.341955
-1.420043
-1.519406
-1.624848
-1.743148
-1.869632
-2.004999
-2.135691
-2.250251
-2.365512
-2.469551
-2.561433
-2.653314
-2.734908
-2.807618
-2.866301
-2.900668
-2.908149
-2.877287
-2.809251
-2.715497
-2.597195
-2.453175
-2.306116
-2.168642
-2.021816
-1.885278
-1.769547
-1.647972
-1.537151
-1.437319
-1.326732
-1.220120
-1.113273
-0.993802
-0.872928
-0.744572
-0.607566
-0.474067
-0.336126
-0.192106
-0.048788
0.101311
0.253982
0.411562
0.569843
0.719241
0.866300
1.001903
1.123946
1.232195
1.313090
1.376450
1.415963
1.422510
1.407548
1.368504
1.307017
1.232202
1.141490
1.040958
0.928268
0.796174
0.663144
0.530582
0.385862
0.249793
0.127752
0.014127
-0.086872
-0.182261
-0.271804
-0.352230
-0.430317
-0.511678
-0.589298
-0.653357
-0.720690
-0.784516
-0.830105
-0.882007
-0.922453
-0.952846
-1.021348
-1.071380
-1.073717
-1.116969
-1.178223
-1.209784
-1.241814
-1.271271
-1.301430
-1.310547
-1.290440
-1.293712
-1.280853
-1.230585
-1.185929
-1.131687
-1.059677
-0.971301
-0.864455
-0.755972
-0.639306
-0.504404
-0.361553
-0.226885
-0.098763
0.027488
0.135036
0.218035
0.290980
0.351301
0.388242
0.412791
0.428223
0.437575
0.446227
0.437811
0.424018
0.412796
0.382637
0.335411
0.271351
0.185549
0.075899
-0.056663
-0.203721
-0.371353
-0.552545
-0.731867
-0.908149
-1.088406
-1.267727
-1.429280
-1.588495
-1.744905
-1.877233
-2.007224
-2.141189
-2.260892
-2.378257
-2.491648
-2.590777
-2.685464
-2.766591
-2.826910
-2.873435
-2.898918
-2.910139
-2.904294
-2.867586
-2.796044
-2.690600
-2.553594
-2.366322
-2.136264
-1.884464
-1.597594
-1.297163
-0.996032
-0.697004
-0.438657
-0.218419
-0.033719
0.089961
0.150282
0.148646
0.102589
0.019591
-0.108996
-0.256288
-0.415970
-0.587810
-0.758248
-0.931023
-1.101460
-1.268858
-1.433918
-1.597576
-1.767779
-1.921851
-2.065869
-2.219941
-2.358581
-2.478519
-2.592845
-2.690805
-2.766788
-2.828743
-2.869657
-2.884853
-2.882748
-2.841599
-2.770991
-2.694539
-2.590498
-2.477339
-2.364414
-2.239332
-2.126407
-2.017457
-1.901960
-1.797218
-1.702295
-1.603866
-1.506605
-1.417060
-1.315124
-1.196821
-1.060750
-0.894052
-0.704675
-0.490283
-0.242924
0.015656
0.273770
0.545209
0.817350
1.073593
1.320016
1.551710
1.763063
1.949634
2.111890
2.272510
2.429623
2.575981
2.731924
2.904234
3.082856
3.265920
3.449218
3.622229
3.782614
3.919620
4.024596
4.090294
4.100582
4.068319
3.996778
3.870294
3.695882
3.487804
3.253774
2.994259
2.727498
2.460502
2.186259
1.927680
1.684999
1.452839
1.248501
1.069413
0.905522
0.758465
0.633852
0.531216
0.435827
0.345582
0.266326
0.192914
0.124413
0.065730
0.016634
-0.018669
-0.049061
-0.075246
-0.075946
-0.061684
-0.037602
-0.004636
0.036046
0.097769
0.151543
0.194563
0.259326
0.316373
0.358691
0.408023
0.462265
0.522820
0.583374
0.639252
0.698871
0.762933
0.813901
0.843595
0.870248
0.892460
0.891292
0.877966
0.860432
0.837755
0.813441
0.781879
0.761072
0.752656
0.744474
0.754996
0.782117
0.820694
0.883353
0.962845
1.058936
1.169523
1.282215
1.398179
1.511805
1.625198
1.742565
1.855724
1.977533
2.108226
2.236348
2.383174
2.534208
2.672383
2.819676
2.963696
3.096727
3.225550
3.342450
3.451634
3.551700
3.641245
3.719334
3.785734
3.846288
3.890477
3.922508
3.949629
3.952903
3.941915
3.927655
3.893755
3.845594
3.791821
3.726359
3.657623
3.581406
3.485784
3.383148
3.266718
3.118023
2.947352
2.754470
2.518102
2.243391
1.942495
1.615881
1.270563
0.913790
0.567537
0.255652
-0.027943
-0.270156
-0.452751
-0.580170
-0.651477
-0.668310
-0.652644
-0.614768
-0.549538
-0.480333
-0.422117
-0.362030
-0.307788
-0.259859
-0.208890
-0.159792
-0.117941
-0.070713
-0.023252
