EVENT_NAME: 202302060117
EVENT_ID: 13194
EVENT_DATE_YYYYMMDD: 2023/02/06
EVENT_TIME_HHMMSS: 01:17:32.00000
EVENT_LATITUDE_DEGREE: 37.288
EVENT_LONGITUDE_DEGREE: 37.043
EVENT_DEPTH_KM: 8.6
HYPOCENTER_REFERENCE: AFAD
MAGNITUDE_W: 7.7
MAGNITUDE_W_REFERENCE: AFAD
MAGNITUDE_L: 
MAGNITUDE_L_REFERENCE: 
FOCAL_MECHANISM: 
NETWORK: TK
STATION_CODE: 0509
STATION_NAME: 
STATION_LATITUDE_DEGREE: 40.76096
STATION_LONGITUDE_DEGREE: 36.32186
STATION_ELEVATION_M: 214.0
LOCATION: Kahramanmaras_Pazarck_Turkiye
SENSOR_DEPTH_M: 
VS30_M/S: 373
SITE_CLASSIFICATION_EC8: B
MORPHOLOGIC_CLASSIFICATION: 
EPICENTRAL_DISTANCE_KM: 391.16
EARTHQUAKE_BACKAZIMUTH_DEGREE: 
DATE_TIME_FIRST_SAMPLE_YYYYMMDD_HHMMSS: 2023/02/06 01:18:01.8665920
DATE_TIME_FIRST_SAMPLE_PRECISION: millisecond
SAMPLING_INTERVAL_S: 0.01
NDATA: 21001
DURATION_S: 
STREAM: HNN
UNITS: cm/s^2
INSTRUMENT: sensor = GMS+/GEOSIG | digitizer = 
INSTRUMENT_ANALOG/DIGITAL: 
INSTRUMENTAL_FREQUENCY_HZ: 
INSTRUMENTAL_DAMPING: 
FULL_SCALE_G: 
N_BIT_DIGITAL_CONVERTER: 
PGA_CM/S^2: 4.724
TIME_PGA_S: 
BASELINE_CORRECTION: BASELINE REMOVED
FILTER_TYPE: BUTTERWORTH
FILTER_ORDER: 
LOW_CUT_FREQUENCY_HZ: 
HIGH_CUT_FREQUENCY_HZ: 
LATE/NORMAL_TRIGGERED: 
DATABASE_VERSION: 
HEADER_FORMAT: DYNA 1.2
DATA_TYPE: Acceleration
PROCESSING: Automatic Paolucci et al., 2011
DATA_TIMESTAMP_YYYYMMDD_HHMMSS: 
DATA_LICENSE: U (unknown license)
DATA_CITATION: Turkish Accelerometric Archive v 1.0 - Disaster And Emergency Management Presidency, Earthquake Department
DATA_CREATOR: AFAD
ORIGINAL_DATA_MEDIATOR_CITATION: : AFAD - Disaster And Emergency Management Presidency
ORIGINAL_DATA_MEDIATOR: AFAD PROCESS SERVICE
ORIGINAL_DATA_CREATOR_CITATION: AFAD PROCESS SERVICE
ORIGINAL_DATA_CREATOR: network: TK
USER1: GuestUser
USER2: 
USER3: 
USER4: 
USER5: 
[...]
1.067066
1.028360
0.982381
0.929648
0.878474
0.819506
0.749369
0.681309
0.615848
0.551685
0.494535
0.450115
0.418423
0.395044
0.376600
0.368807
0.373742
0.390367
0.405953
0.419461
0.441541
0.448295
0.446995
0.448294
0.434526
0.412186
0.379715
0.341788
0.304382
0.270092
0.233724
0.190862
0.155014
0.122024
0.090332
0.055263
0.011622
-0.031240
-0.076440
-0.125537
-0.175152
-0.231782
-0.292048
-0.348678
-0.404009
-0.461158
-0.514411
-0.555974
-0.589484
-0.612084
-0.618319
-0.610526
-0.588705
-0.557014
-0.515711
-0.467914
-0.409207
-0.342706
-0.279063
-0.204510
-0.123463
-0.043454
0.038113
0.121758
0.215534
0.315804
0.417373
0.516084
0.615575
0.720781
0.824688
0.918204
1.016396
1.124460
1.221872
1.310193
1.398774
1.486835
1.564246
1.631525
1.699325
1.763747
1.824532
1.882201
1.939090
1.995199
2.047672
2.096249
2.144046
2.198337
2.249511
2.297308
2.341209
2.382771
2.433166
2.480703
2.523565
2.564868
2.597858
2.629550
2.658124
2.678645
2.688516
2.696309
2.702024
2.691893
2.671631
2.642796
2.608247
2.572918
2.534732
2.489013
2.433682
2.377832
2.318345
2.250805
2.179628
2.104555
2.025585
1.948954
1.872062
1.796210
1.727890
1.663728
1.609176
1.561898
1.522673
1.490202
1.454613
1.425000
1.400581
1.375384
1.345250
1.308103
1.274853
1.235887
1.181076
1.114835
1.040022
0.960013
0.870653
0.771941
0.675047
0.578153
0.477623
0.383067
0.292928
0.208762
0.138625
0.078878
0.029262
-0.007365
-0.034381
-0.048149
-0.048149
-0.039318
-0.020614
0.003804
0.038352
0.080175
0.129011
0.188757
0.243568
0.299678
0.362282
0.420989
0.477359
0.526455
0.568277
0.602826
0.631920
0.651142
0.646466
0.635816
0.621528
0.592434
0.566197
0.529050
0.482032
0.440469
0.391373
0.340977
0.288244
0.229536
0.170569
0.109523
0.048997
-0.020101
-0.097253
-0.172585
-0.246360
-0.322472
-0.407157
-0.492101
-0.575227
-0.660171
-0.751090
-0.844607
-0.929032
-1.015015
-1.105414
-1.186462
-1.260756
-1.330374
-1.394277
-1.444932
-1.477923
-1.498185
-1.501043
-1.495328
-1.477664
-1.435841
-1.389603
-1.349079
-1.308816
-1.268811
-1.235821
-1.212442
-1.191401
-1.175556
-1.166204
-1.162308
-1.166724
-1.171920
-1.171400
-1.166985
-1.159451
-1.141008
-1.103862
-1.056324
-1.003592
-0.938650
-0.856044
-0.760190
-0.664595
-0.566663
-0.457301
-0.341445
-0.230784
-0.131812
-0.025567
0.092367
0.199911
0.300701
0.403568
0.498903
0.592939
0.689313
0.771919
0.842575
0.915570
0.978433
1.015580
1.041816
1.062857
1.067273
1.060519
1.038439
1.001551
0.963365
0.919724
0.861536
0.795554
0.736067
0.674502
0.602806
0.535786
0.476299
0.410317
0.341738
0.275757
0.216790
0.166654
0.108726
0.050797
-0.002455
-0.056487
-0.115195
-0.184553
-0.253652
-0.310801
-0.356520
-0.405876
-0.460688
-0.504329
-0.535501
-0.564076
-0.586156
-0.601483
-0.615251
-0.631097
-0.641747
-0.640449
-0.644865
-0.658633
-0.664868
-0.665907
-0.673181
-0.676558
-0.666427
-0.656036
-0.644347
-0.622527
-0.597070
-0.568236
-0.527712
-0.473681
-0.412376
-0.336783
-0.241709
-0.141179
-0.025842
0.109757
0.247953
0.389786
0.543309
0.702806
0.853991
0.999201
1.142593
1.284686
1.417946
1.532763
1.636670
1.725251
1.795648
1.850199
1.889164
1.919557
1.940857
1.953586
1.954625
1.941376
1.924751
1.904489
1.875395
1.842404
1.809153
1.769149
1.728105
1.688101
1.636667
1.587311
1.534318
1.478727
1.428332
1.371443
1.317411
1.271172
1.231687
1.189345
1.145963
1.117648
1.097126
1.077124
1.065954
1.062057
1.058160
1.059719
1.061537
1.059458
1.059978
1.063355
1.060237
1.048028
1.033481
1.012959
0.990359
0.968019
0.933209
0.896062
0.861773
0.821768
0.778387
0.731109
0.687727
0.653178
0.623824
0.602523
0.586937
0.580183
0.586157
0.595249
0.602262
0.620706
0.657333
0.691622
0.712403
0.737860
0.761758
0.768512
0.770850
0.773188
0.768252
0.754224
0.731105
0.696555
0.653953
0.611351
0.568229
0.522770
0.475752
0.425876
0.375221
0.333658
0.294952
0.255208
0.220918
0.186109
0.149481
0.108698
0.062978
0.025831
-0.005081
-0.047943
-0.099118
-0.150812
-0.206922
-0.275241
-0.351873
-0.430063
-0.512929
-0.599952
-0.700222
-0.816599
-0.935313
-1.052468
-1.169364
-1.286520
-1.398999
-1.502907
-1.597203
-1.678510
-1.750466
-1.806836
-1.839047
-1.851776
-1.852296
-1.843724
-1.821904
-1.792810
-1.759300
-1.723712
-1.691501
-1.661628
-1.640327
-1.628118
-1.621105
-1.617208
-1.620326
-1.640588
-1.660590
-1.675917
-1.707349
-1.745535
-1.776707
-1.804762
-1.843468
-1.883992
-1.910489
-1.936985
-1.961923
-1.983224
-1.999070
-2.006344
-2.014397
-2.022190
-2.033360
-2.042712
-2.054142
-2.067131
-2.074145
-2.088173
-2.101681
-2.113630
-2.130775
-2.142725
-2.146102
-2.134672
-2.108176
-2.078823
-2.039598
-1.978293
-1.892829
-1.790481
-1.680080
-1.556431
-1.422910
-1.297442
-1.173793
-1.047026
-0.928053
-0.821548
-0.725954
-0.635035
-0.552689
-0.482292
-0.417350
-0.360721
-0.315782
-0.284090
-0.261491
-0.244606
-0.238372
-0.235774
-0.233177
-0.236294
-0.243308
-0.252920
-0.262791
-0.279416
-0.303575
-0.330851
-0.370076
-0.412938
-0.460735
-0.519703
-0.575293
-0.628806
-0.680760
-0.728557
-0.773237
-0.813502
-0.849869
-0.872210
-0.894810
-0.924423
-0.948322
-0.967545
-0.977936
-0.992483
-1.011706
-1.024176
-1.042879
-1.066258
-1.090157
-1.119251
-1.153801
-1.191987
-1.230173
-1.272775
-1.321871
-1.362915
-1.393048
-1.425519
-1.448379
-1.459809
-1.476435
-1.486566
-1.482410
-1.466824
-1.436171
-1.396687
-1.350968
-1.291741
-1.221604
-1.139777
-1.048859
-0.950667
-0.844162
-0.741294
-0.644141
-0.543351
-0.441003
-0.348266
-0.246957
-0.132919
-0.028752
0.070999
0.167113
0.265824
0.374667
0.487406
0.596508
0.697298
0.801205
0.907190
1.003304
1.087468
1.162801
1.229301
1.287749
1.337884
1.379706
1.410099
1.424646
1.428282
1.418151
1.390096
1.344636
1.287747
1.222285
1.143316
1.064346
0.980960
0.891340
0.813410
0.743012
0.683006
0.629493
0.586631
0.564291
0.544029
0.526884
0.519610
0.523247
0.533637
0.544807
0.567926
0.594942
0.616503
0.639622
0.664299
0.685600
0.694952
0.697030
0.698328
0.686638
0.663779
0.638581
0.607668
0.577275
0.543246
0.501163
0.459340
0.412841
0.364784
0.313090
0.268150
0.237497
0.207884
0.183725
0.166840
0.166580
0.181386
0.199570
0.231002
0.268668
0.312049
0.365301
0.423749
0.494925
0.561165
0.616496
0.670527
0.710531
0.743522
0.772875
0.791319
0.800410
0.796254
0.785603
0.770017
0.744040
0.714426
0.678838
0.630780
0.577268
0.524275
0.465048
0.398807
0.325552
0.242426
0.152546
0.056172
-0.042800
-0.144109
-0.253212
-0.363094
-0.467261
-0.569091
-0.677934
-0.782880
-0.869643
-0.956146
-1.041090
-1.106292
-1.159804
-1.206303
-1.237216
-1.245269
-1.245529
-1.251244
-1.241113
-1.215916
-1.191757
-1.168638
-1.139285
-1.104996
-1.082915
-1.060056
-1.026806
-0.998232
-0.970697
-0.936667
-0.899261
-0.866790
-0.829643
-0.774833
-0.715086
-0.649625
-0.569876
-0.488569
-0.401287
-0.307511
-0.216853
-0.131649
-0.056316
0.022133
0.090972
0.142405
0.191242
0.234623
0.267093
0.287875
0.308916
0.329957
0.348660
0.374636
0.409705
0.447111
0.482180
0.534393
0.601153
0.667913
0.735453
0.803512
0.877545
0.942227
0.996519
1.051070
1.094451
1.125363
1.146144
1.152378
1.143026
1.131337
1.121465
1.103541
1.074447
1.049509
1.026130
0.995737
0.970799
0.940665
0.907934
0.874684
0.836238
0.797273
0.750254
0.711809
0.673882
0.624526
0.569715
0.510488
0.455157
0.396189
0.339560
0.282670
0.218507
0.160059
0.102391
0.046800
-0.001257
-0.044119
-0.073213
-0.094774
-0.105425
-0.099970
-0.084904
-0.058667
-0.025677
0.018743
0.074593
0.136158
0.208113
0.291239
0.385015
0.483727
0.581139
0.681929
0.789733
0.901433
1.013392
1.132106
1.254976
1.376807
1.499157
1.615793
1.724116
1.827244
1.929073
2.023888
2.105974
2.180268
2.238455
2.277940
2.309891
2.334829
2.343661
2.338205
2.328074
2.307033
2.263391
2.202865
2.141560
2.072981
1.992193
1.909586
1.828279
1.743335
1.648779
1.545391
1.439405
1.334199
1.230032
1.119631
1.007411
0.897269
0.781932
0.668673
0.561388
0.463456
0.372017
0.275643
0.176411
0.073543
-0.029065
-0.133492
-0.240777
-0.349879
-0.465736
-0.581073
-0.694852
-0.816424
-0.946308
-1.077231
-1.211012
-1.364794
-1.523253
-1.671321
-1.818869
-1.964080
-2.110589
-2.254241
-2.390100
-2.523101
-2.642075
-2.751957
-2.859501
-2.953797
-3.034066
-3.106281
-3.171743
-3.225256
-3.262403
-3.289678
-3.303446
-3.301628
-3.289160
-3.268898
-3.246558
-3.223958
-3.204476
-3.179279
-3.141353
-3.101609
-3.056929
-2.999001
-2.931981
-2.865221
-2.789628
-2.695852
-2.597141
-2.492454
-2.380235
-2.268275
-2.152679
-2.030848
-1.911614
-1.794459
-1.665095
-1.526639
-1.392859
-1.264014
-1.138806
-1.019313
-0.900599
-0.786302
-0.681615
-0.571474
-0.461073
-0.370933
-0.292484
-0.212995
-0.137403
-0.074020
-0.014533
0.038460
0.065735
0.085217
0.115090
0.139508
0.157432
0.181850
0.211723
0.240298
0.268093
0.298225
0.334073
0.376935
0.420316
0.468632
0.527340
0.583190
0.641118
0.709956
0.787886
0.865037
0.936473
1.014663
1.089736
1.148443
1.193902
1.231308
1.260662
1.271312
1.268974
1.263259
1.248192
1.215981
1.169482
1.118048
1.054405
0.978812
0.893868
0.792558
0.684494
0.566819
0.435896
0.299258
0.155866
0.016630
-0.115852
-0.243138
-0.367567
-0.483164
-0.576681
-0.662145
-0.747609
-0.814889
-0.850477
-0.874376
-0.901132
-0.911264
-0.898016
-0.879053
-0.856973
-0.825541
-0.784758
-0.732285
-0.680591
-0.621104
-0.550188
-0.480830
-0.399783
-0.309124
-0.215868
-0.124170
-0.039745
0.048576
0.133260
0.209891
0.288860
0.355361
0.414328
0.473814
0.520572
0.562395
0.600321
0.634350
0.663704
0.684745
0.702409
0.713059
0.722670
0.736698
0.748906
0.751764
0.749945
0.760076
0.769687
0.765790
0.756438
0.742671
0.729942
0.714355
0.692015
0.663960
0.631749
0.594861
0.550701
0.503682
0.458742
0.413802
0.360550
0.314571
0.274306
0.229366
0.187284
0.143642
0.107275
0.069608
0.030383
-0.006244
-0.050405
-0.098722
-0.150936
-0.205487
-0.270689
-0.339788
-0.404730
-0.472530
-0.544226
-0.619039
-0.692554
-0.775939
-0.858806
-0.938295
-1.028434
-1.118314
-1.208194
-1.295217
-1.378862
-1.471340
-1.573688
-1.666426
-1.747733
-1.838912
-1.935286
-2.025426
-2.101019
-2.168039
-2.238176
-2.309873
-2.372477
-2.409104
-2.432743
-2.456902
-2.470670
-2.473528
-2.463397
-2.434823
-2.398196
-2.362088
-2.324941
-2.274287
-2.207787
-2.143364
-2.083358
-2.028807
-1.971658
-1.905418
-1.847230
-1.809044
-1.778132
-1.739946
-1.711372
-1.697345
-1.698384
-1.704099
-1.694228
-1.687994
-1.703840
-1.727219
-1.733714
-1.730597
-1.731896
-1.725402
-1.706439
-1.674228
-1.627470
-1.566425
-1.492131
-1.405369
-1.313671
-1.214700
-1.097285
-0.985065
-0.878820
-0.752054
-0.613338
-0.474362
-0.334867
-0.198749
-0.057955
0.099984
0.262598
0.414043
0.564188
0.725244
0.890976
1.040083
1.169966
1.300889
1.426097
1.543772
1.655991
1.736000
1.807436
1.890561
1.963036
2.017327
2.048759
2.071878
2.084347
2.081229
2.077593
2.059409
2.026418
1.992648
1.952643
1.900949
1.839124
1.773663
1.703006
1.634167
1.557275
1.463759
1.378814
1.301144
1.222174
1.139567
1.059039
0.994617
0.932792
0.868629
0.806804
0.756149
0.728353
0.703156
0.673022
0.650942
0.650162
0.665229
0.675100
0.685750
0.703414
0.731729
0.768356
0.795891
0.818231
0.843688
0.872262
0.894082
0.901096
0.909148
0.921357
0.921877
0.909408
0.888106
0.874858
0.863428
0.839010
0.821345
0.806798
0.789134
0.779002
0.769391
0.764195
0.770689
0.784716
0.790431
0.785755
0.793288
0.816927
0.833032
0.841345
0.863684
0.894337
0.919534
0.944731
0.974605
1.001880
1.032013
1.070718
1.105527
1.137998
1.179041
1.222162
1.261127
1.306067
1.357500
1.412571
1.488683
1.569730
1.641426
1.725331
1.811573
1.889244
1.960680
2.035493
2.115241
2.178884
2.224863
2.262529
2.297598
2.320717
2.316560
2.295519
2.272659
2.243045
2.186935
2.108225
2.025359
1.930284
1.818583
1.697791
1.582194
1.467896
1.338791
1.216700
1.112273
1.013821
0.924980
0.847569
0.784705
0.734310
0.697942
0.675342
0.666510
0.670406
0.679498
0.694304
0.712488
0.735088
0.776131
0.822369
0.856139
0.890947
0.922119
0.953032
0.991477
1.021870
1.039534
1.048366
1.059276
1.063432
1.054080
1.037974
1.002386
0.956926
0.911207
0.850421
0.770152
0.680013
0.602342
0.521814
0.414269
0.307245
0.214767
0.132680
0.046177
-0.047079
-0.125530
-0.206318
-0.284248
-0.349190
-0.420367
-0.482971
-0.535185
-0.585060
-0.639092
-0.701697
-0.758586
-0.816515
-0.871066
-0.921461
-0.978091
-1.027966
-1.065113
-1.094727
-1.132394
-1.173437
-1.207207
-1.249030
-1.292152
-1.332936
-1.381512
-1.429829
-1.471912
-1.514514
-1.567247
-1.617642
-1.663102
-1.721290
-1.789090
-1.858968
-1.924689
-1.994567
-2.072238
-2.146272
-2.228359
-2.319797
-2.415912
-2.520858
-2.618791
-2.708930
-2.798551
-2.892587
-2.992598
-3.082737
-3.176254
-3.271329
-3.354975
-3.440698
-3.523564
-3.610327
-3.700727
-3.775540
-3.848275
-3.930622
-4.012449
-4.085444
-4.148048
-4.209613
-4.276634
-4.340537
-4.388334
-4.429897
-4.486527
-4.538741
-4.572511
-4.598488
-4.627322
-4.667067
-4.697460
-4.704734
-4.707851
-4.715384
-4.718502
-4.720061
-4.718502
-4.713307
-4.713567
-4.719542
-4.716165
-4.703177
-4.709412
-4.723959
-4.718764
-4.709412
-4.700321
-4.684995
-4.675643
-4.677202
-4.677981
-4.663694
-4.646810
-4.637458
-4.630185
-4.621353
-4.597974
-4.566283
-4.527577
-4.476144
-4.415618
-4.346520
-4.280799
-4.212740
-4.128315
-4.026746
-3.912708
-3.791917
-3.666449
-3.536825
-3.389796
-3.222766
-3.048981
-2.867663
-2.686346
-2.506327
-2.319034
-2.129144
-1.936916
-1.741051
-1.549083
-1.360492
-1.171381
-0.990063
-0.820954
-0.654963
-0.489491
-0.336228
-0.196733
-0.059835
0.070048
0.194477
0.323322
0.446452
0.553735
0.656344
0.763887
0.870132
0.976117
1.087817
1.193283
1.279526
1.351481
1.424476
1.494613
1.554359
1.611508
1.662422
1.708401
1.743729
1.764251
1.790487
1.815944
1.828932
1.835167
1.834907
1.830750
1.822697
1.812306
1.804513
1.806591
1.814643
1.819579
1.829450
1.833866
1.828930
1.827371
1.833345
1.843996
1.846333
1.853867
1.876986
1.904781
1.935693
1.964007
2.004531
2.065576
2.128440
2.191563
2.259103
2.331058
2.409248
2.497829
2.585890
2.666677
2.755778
2.839942
2.911378
2.978398
3.044899
3.122569
3.189069
3.230112
3.270116
3.314796
3.361814
3.402598
3.429613
3.454291
3.482346
3.511699
3.521310
3.520011
3.528584
3.526505
3.513257
3.490137
3.444937
3.392204
3.341809
3.274269
3.195819
3.114771
3.015280
2.913970
2.806946
2.679659
2.547957
2.420930
2.298319
2.167396
2.036473
1.917759
1.793589
1.671498
1.566812
1.472516
1.389649
1.316654
1.235607
1.148065
1.073771
1.008569
0.936093
0.861280
0.790363
0.712433
0.623072
0.529815
0.439156
0.351614
0.257318
0.152632
0.035216
-0.080640
-0.184288
-0.307938
-0.446135
-0.560952
-0.668496
-0.783054
-0.897872
-1.009312
-1.105167
-1.200502
-1.305968
-1.401043
-1.484949
-1.570412
-1.670683
-1.766278
-1.840312
-1.914606
-1.989679
-2.063713
-2.130733
-2.189701
-2.245032
-2.290231
-2.340107
-2.384787
-2.412842
-2.438300
-2.459861
-2.464797
-2.447912
-2.433365
-2.431287
-2.417520
-2.384270
-2.351279
-2.321666
-2.283740
-2.238021
-2.178275
-2.112813
-2.050469
-1.978514
-1.896427
-1.801872
-1.700303
-1.588083
-1.460018
-1.341824
-1.228305
-1.114268
-1.007503
-0.891387
-0.777609
-0.676300
-0.576289
-0.467187
-0.352110
-0.257035
-0.165597
-0.060911
0.045594
0.148981
0.246394
0.351600
0.461741
0.561752
0.655788
0.746706
0.832429
0.905943
0.971405
1.028294
1.075312
1.115835
1.142331
1.152982
1.154540
1.150383
1.133758
1.105183
1.081544
1.051151
1.009328
0.977896
0.955816
0.934255
0.914253
0.902303
0.898406
0.899445
0.909836
0.924642
0.938929
0.958152
0.984908
1.016080
1.050369
1.087256
1.125701
1.168822
1.206489
1.236102
1.270391
1.311434
1.349100
1.378714
1.408067
1.429108
1.428588
1.421834
1.422094
1.410924
1.378452
1.344682
1.309614
1.272466
1.231423
1.177911
1.122580
1.074003
1.033219
0.992435
0.954249
0.923597
0.896840
0.875539
0.858654
0.849302
0.847224
0.852938
0.871382
0.895020
0.920218
0.948792
0.990095
1.039451
1.088546
1.139980
1.196350
1.269085
1.349872
1.424166
1.496900
1.570674
1.648864
1.728613
1.800828
1.874862
1.958767
2.034619
2.099301
2.168658
2.240874
2.304517
2.368679
2.439076
2.497783
2.554672
2.613899
2.661956
2.705857
2.744302
2.771577
2.780929
2.787942
2.804308
2.811581
2.809762
2.801969
2.791318
2.777291
2.759626
2.743001
2.726635
2.715985
2.695203
2.654419
2.613895
2.580905
2.544277
2.492583
2.433875
2.380363
2.324513
2.255934
2.177743
2.093059
2.010193
1.928106
1.837446
1.739514
1.651972
1.579756
1.506501
1.425973
1.342847
1.263618
1.184908
1.104899
1.022293
0.939946
0.867471
0.788761
0.713428
0.654720
0.585362
0.504834
0.431839
0.368455
0.306370
0.238830
0.178044
0.121934
0.059330
0.003740
-0.036265
-0.065879
-0.090817
-0.111858
-0.130821
-0.150304
-0.147707
-0.127445
-0.104066
-0.067179
-0.014706
0.048937
0.113878
0.186613
0.266622
0.341435
0.418066
0.494697
0.564315
0.627698
0.683028
0.724591
0.755763
0.786935
0.813171
0.831874
0.857851
0.881490
0.899933
0.920714
0.935780
0.956302
0.987993
1.019685
1.043064
1.066183
1.097095
1.124371
1.151126
1.178921
1.203599
1.227238
1.256851
1.287244
1.306207
1.326988
1.352185
1.379720
1.409593
1.428037
1.435050
1.442324
1.451935
1.449077
1.431153
1.407254
1.381537
1.350624
1.295813
1.224377
1.153979
1.080465
1.006431
0.931877
0.853167
0.777055
0.714711
0.655483
0.595477
0.550537
0.516247
0.489750
0.466111
0.444810
0.432341
0.421171
0.413897
0.409221
0.408961
0.406623
0.395453
0.387140
0.375191
0.365839
0.367657
0.369215
0.368696
0.374670
0.381943
0.387918
0.404023
0.427142
0.461172
0.498058
0.527932
0.559883
0.592873
0.628201
0.659373
0.684051
0.712106
0.738862
0.758604
0.767436
0.767436
0.766137
0.763019
0.753667
0.741458
0.727170
0.703272
0.671840
0.634433
0.596247
0.560139
0.518316
0.475454
0.429735
0.371287
0.307124
0.249455
0.192825
0.132299
0.072552
0.014364
-0.047201
-0.113702
-0.173449
-0.230598
-0.283331
-0.326193
-0.366717
-0.402305
-0.437634
-0.469585
-0.490887
-0.503356
-0.513487
-0.523618
-0.521800
-0.514267
-0.508552
-0.505955
-0.503097
-0.496084
-0.486732
-0.472186
-0.469328
-0.475303
-0.476602
-0.482058
-0.501540
-0.532973
-0.566223
-0.608306
-0.656103
-0.711174
-0.780013
-0.852748
-0.924964
-0.999258
-1.080305
-1.165769
-1.255389
-1.353062
-1.460087
-1.575424
-1.698295
-1.825062
-1.952608
-2.082232
-2.205622
-2.325116
-2.447467
-2.562544
-2.669309
-2.776853
-2.882059
-2.971160
-3.042077
-3.105460
-3.169363
-3.217680
-3.269374
-3.311197
-3.327822
-3.367307
-3.373023
-3.368347
-3.385752
-3.370425
-3.364971
-3.350164
-3.330941
-3.315615
-3.270156
-3.236646
-3.208072
-3.167029
-3.123128
-3.085202
-3.055589
-3.014286
-2.972983
-2.937915
-2.900508
-2.865700
-2.827254
