EVENT_NAME: 202302060117
EVENT_ID: 13194
EVENT_DATE_YYYYMMDD: 2023/02/06
EVENT_TIME_HHMMSS: 01:17:32.00000
EVENT_LATITUDE_DEGREE: 37.288
EVENT_LONGITUDE_DEGREE: 37.043
EVENT_DEPTH_KM: 8.6
HYPOCENTER_REFERENCE: AFAD
MAGNITUDE_W: 7.7
MAGNITUDE_W_REFERENCE: AFAD
MAGNITUDE_L: 
MAGNITUDE_L_REFERENCE: 
FOCAL_MECHANISM: 
NETWORK: TK
STATION_CODE: 2717
STATION_NAME: 
STATION_LATITUDE_DEGREE: 36.85548
STATION_LONGITUDE_DEGREE: 36.690996
STATION_ELEVATION_M: 41.0
LOCATION: Kahramanmaras_Pazarck_Turkiye
SENSOR_DEPTH_M: 
VS30_M/S: None
SITE_CLASSIFICATION_EC8: unknown
MORPHOLOGIC_CLASSIFICATION: 
EPICENTRAL_DISTANCE_KM: 57.34
EARTHQUAKE_BACKAZIMUTH_DEGREE: 
DATE_TIME_FIRST_SAMPLE_YYYYMMDD_HHMMSS: 2023/02/06 01:17:16.9908280
DATE_TIME_FIRST_SAMPLE_PRECISION: millisecond
SAMPLING_INTERVAL_S: 0.01
NDATA: 10501
DURATION_S: 
STREAM: HNZ
UNITS: cm/s^2
INSTRUMENT: sensor = ACEBOX/SARA | digitizer = 
INSTRUMENT_ANALOG/DIGITAL: 
INSTRUMENTAL_FREQUENCY_HZ: 
INSTRUMENTAL_DAMPING: 
FULL_SCALE_G: 
N_BIT_DIGITAL_CONVERTER: 
PGA_CM/S^2: 95.706
TIME_PGA_S: 
BASELINE_CORRECTION: BASELINE REMOVED
FILTER_TYPE: BUTTERWORTH
FILTER_ORDER: 
LOW_CUT_FREQUENCY_HZ: 
HIGH_CUT_FREQUENCY_HZ: 
LATE/NORMAL_TRIGGERED: 
DATABASE_VERSION: 
HEADER_FORMAT: DYNA 1.2
DATA_TYPE: Acceleration
PROCESSING: Automatic Paolucci et al., 2011
DATA_TIMESTAMP_YYYYMMDD_HHMMSS: 
DATA_LICENSE: U (unknown license)
DATA_CITATION: Turkish Accelerometric Archive v 1.0 - Disaster And Emergency Management Presidency, Earthquake Department
DATA_CREATOR: AFAD
ORIGINAL_DATA_MEDIATOR_CITATION: : AFAD - Disaster And Emergency Management Presidency
ORIGINAL_DATA_MEDIATOR: AFAD PROCESS SERVICE
ORIGINAL_DATA_CREATOR_CITATION: AFAD PROCESS SERVICE
ORIGINAL_DATA_CREATOR: network: TK
USER1: GuestUser
USER2: 
USER3: 
USER4: 
USER5: 
[...]
9.691042
3.570699
0.210332
-1.113895
-5.020412
-8.568986
-8.208002
-8.617146
-9.156983
-7.953861
-7.589604
-5.479816
-1.786988
-0.355913
-1.654189
-4.447831
-5.155534
-5.096149
-6.651367
-5.371560
-3.772152
-5.442632
-5.093572
-2.882082
-0.858332
1.045480
-0.102931
-1.383671
-0.651417
-1.672409
-3.776583
-4.870753
-4.767881
-6.091874
-8.815845
-7.535336
-4.195541
-2.152386
-1.338303
-2.719576
-3.379351
-2.704844
-0.624983
3.710555
7.230607
10.094859
10.302939
5.856117
-0.395621
-5.056135
-2.220407
4.228658
7.927332
11.109548
11.559608
10.239590
7.643740
-0.237097
-7.283979
-8.160718
-5.115508
-1.730122
1.463783
6.383814
9.374550
8.274301
5.301102
3.427452
3.556275
-0.166477
-6.901708
-11.208252
-13.741211
-14.141003
-13.334869
-11.050669
-7.483389
-5.959731
-3.099454
-1.736415
-5.162245
-4.615159
-3.059471
-5.611601
-8.144325
-10.021482
-6.672803
-2.767686
-5.552678
-4.788628
-1.793917
-1.372848
1.260880
1.005808
-0.548709
-1.026823
-3.954198
-1.329589
3.800158
4.541998
7.079635
6.999210
1.939370
-0.806578
-2.598165
-5.074545
-8.166746
-9.906664
-7.446648
-7.447115
-9.282656
-7.309640
-7.168191
-7.520757
-4.022447
0.803363
6.107289
7.402527
6.006758
6.376627
4.629227
4.407121
5.789331
3.559374
4.935740
8.455792
7.644985
7.170143
6.787418
5.879351
6.898007
7.837873
9.642555
11.847732
9.582003
2.591934
-2.703339
-1.793165
-2.091723
-4.694587
-1.406228
-1.601214
-7.568186
-6.234372
-4.585632
-6.961479
-6.573375
-6.283699
-3.673819
0.959577
3.496979
6.964895
5.951853
0.122587
-2.293473
-4.358370
-9.301778
-12.739064
-11.251177
-8.784148
-7.873272
-4.204758
-1.945808
-3.977973
-2.989711
0.862334
3.401373
3.319312
1.411060
1.779525
1.368978
-3.602486
-3.888653
3.223227
5.461837
3.098850
5.245577
5.400820
1.786081
4.337044
9.626708
11.199230
9.655701
5.980409
3.859402
4.136920
6.214210
7.605539
3.397656
-1.115097
-0.932033
0.966636
2.384851
2.685282
4.907058
8.597549
8.104472
2.350254
-3.863608
-6.128401
-9.412317
-14.559830
-14.502081
-11.738129
-8.486709
-6.148735
-6.950893
-3.917138
-0.646080
-3.044371
-2.348355
-1.966096
-7.780165
-10.723438
-10.150399
-10.066465
-9.194167
-9.725353
-10.358475
-7.579092
-4.114683
-2.331276
-2.233782
-3.942839
-4.744528
-3.067032
-4.009234
-5.578948
-0.680894
2.121869
-0.428624
1.712960
4.777342
4.540272
4.616725
4.909440
8.291085
13.627041
15.869158
14.674689
9.436930
3.896871
1.004566
-2.315354
-3.188820
1.098322
4.820375
3.014059
-2.130649
-4.462074
-3.264096
-2.214345
-1.574441
-2.034787
-4.017387
-5.429989
-6.702546
-6.343198
-2.409558
-1.202462
-7.389672
-12.860293
-10.751207
-7.639598
-7.680511
-9.296283
-12.643090
-13.077484
-11.701352
-13.268261
-14.278731
-16.614832
-21.099063
-21.721898
-17.170799
-9.931499
-5.147773
-2.355063
1.374939
2.174293
0.857548
-0.061040
-3.219172
-7.099505
-6.908024
-3.764852
-0.312601
3.438678
5.671209
9.930996
16.229262
17.977832
21.604731
26.378872
23.862980
21.832218
22.176369
19.247124
14.994587
10.329865
5.947804
6.263899
12.040563
14.700242
10.526728
5.427610
0.385773
-3.648631
-2.335858
2.555415
2.961288
-2.683278
-6.537425
-8.759433
-10.537226
-7.466532
-4.727830
-5.146793
-4.299043
-3.175413
-3.583855
-4.914628
-4.054955
-1.082689
-1.572493
-3.147117
-1.230212
1.140026
3.298443
6.435069
8.837103
9.902518
10.966297
10.136785
2.446493
-5.927890
-7.126802
-7.282977
-5.234678
1.942197
4.226632
2.029874
2.887443
6.249916
8.486656
6.830203
4.954683
5.065270
2.719817
-1.496014
-3.655599
-3.532153
-2.387714
-0.874343
-1.161445
-3.394442
-4.539346
-8.204351
-13.946878
-12.472084
-8.671708
-7.973589
-4.092553
-3.182379
-6.571737
-3.138189
0.634365
-2.486126
-8.952958
-15.254962
-12.657941
-6.506032
-7.826284
-6.899979
-1.673440
0.042633
1.134935
1.934055
0.942522
-0.950767
-2.506219
-1.466521
-3.120402
-6.583874
-2.779757
2.818519
2.205738
-1.964269
-1.646070
5.486384
7.975625
5.146211
5.381880
4.196763
2.070144
2.757275
2.070847
1.165819
0.036813
-4.263185
-4.615049
-1.412960
-4.305733
-4.849077
0.035183
-1.091251
-0.552581
6.011278
11.312165
15.474459
13.616005
8.168530
4.688926
-1.953720
-6.822314
-4.503511
-1.238999
-1.806658
-2.493085
1.264739
6.247428
11.959096
17.304871
19.306411
22.115018
24.251225
21.873508
16.675027
13.221842
14.038731
11.404305
4.614833
1.007810
1.787525
3.843773
-1.814587
-8.915243
-6.914873
-7.880922
-9.767898
-5.578952
-6.454755
-6.952976
-1.094249
3.889374
8.010987
7.655616
3.311431
-0.106451
-5.376707
-9.115826
-9.130554
-4.090819
4.562954
4.810079
5.757660
15.324879
17.140316
14.935609
17.316835
18.423866
17.921671
14.491866
11.467465
7.989265
-1.266300
-4.016223
-3.438275
-10.794705
-14.638798
-14.290439
-12.294277
-4.306826
1.150237
1.025390
-2.792284
-6.448171
-2.316972
0.466151
-3.645173
-7.839494
-12.920609
-12.332608
-6.253177
-10.141926
-14.590619
-13.746843
-22.031916
-25.082268
-16.975113
-15.951314
-15.295511
-12.171979
-12.719297
-11.017719
-8.538065
-6.655762
-7.337981
-11.620912
-11.016779
-6.996868
-5.241049
-3.394751
1.793913
7.313400
8.794740
9.280806
6.559407
-1.875997
-8.349375
-9.646715
-8.949297
-9.792369
-9.936620
-5.582847
-0.801691
0.828344
-0.177451
1.435752
6.587943
7.478712
7.589065
9.521868
7.332358
6.377297
7.918256
7.661548
9.236875
9.727149
6.984708
5.206213
1.200566
-2.857452
-1.221572
-3.114627
-9.057987
-6.006931
-1.512411
-4.159229
-6.199109
-10.335449
-14.780636
-12.733038
-13.457107
-16.890419
-14.611362
-7.793131
-2.153005
-2.918690
-4.164361
-0.152866
4.793583
4.799663
-2.052232
-8.841937
-15.352956
-20.920837
-17.839856
-13.236386
-8.774832
-0.414241
5.026223
8.453458
9.524952
4.322496
-2.364105
-6.149281
-5.099063
-0.478527
6.022675
14.605841
18.560991
13.965473
10.458515
11.829036
12.834832
13.678374
10.114370
1.048180
-2.577079
-0.709739
-1.026299
-2.089608
1.682010
9.142248
15.069945
19.007092
19.062971
16.066626
18.258477
23.510266
21.175567
14.757833
12.155437
7.075959
1.458981
0.391229
-4.311134
-5.852558
-1.539231
-4.574153
-8.145638
-6.776287
-8.004189
-11.589001
-17.900825
-25.510457
-28.114023
-25.622678
-23.063766
-23.706240
-23.130630
-17.492607
-14.683532
-18.141393
-17.330349
-8.930012
-4.950080
-11.681570
-18.517567
-18.374015
-14.952624
-7.007257
3.240780
5.926176
1.826542
2.705387
10.244181
10.269198
4.753688
8.404200
12.062193
6.324341
1.119548
1.873311
5.773752
7.962096
4.897248
-0.172410
-1.108767
2.499661
4.246595
0.496020
-3.130408
-4.876171
-9.434983
-9.697302
-4.744072
-6.708436
-9.866335
-9.147641
-10.779077
-10.794974
-8.327243
-5.296762
-1.919325
-6.005165
-12.024742
-6.976825
1.248398
7.491254
13.509664
10.299395
3.842617
-0.251640
-8.561962
-10.392828
-7.524602
-9.823295
-10.435376
-11.602257
-9.479376
-3.075668
-3.906583
-0.668957
7.022506
3.751450
-1.413832
-4.881746
-9.723920
-6.591035
-1.752132
0.311130
8.742795
11.624114
1.774236
-5.924707
-9.191087
-14.928471
-22.737065
-23.825624
-16.446981
-11.450732
-8.514238
-4.970338
-1.818749
2.427711
1.958481
0.190508
-0.774373
-4.990671
-0.559978
5.163380
0.641975
3.033723
9.917884
10.314172
10.698302
12.984372
17.612156
16.543003
8.960725
7.156512
2.317377
-4.112748
-0.371757
2.462569
4.233818
8.116724
3.760147
-4.104324
-4.297440
-3.711075
-11.928581
-17.138985
-17.040789
-22.094550
-16.496975
-2.129430
-0.814553
0.034132
3.838248
-2.128725
-6.449531
-6.317201
-8.435169
-7.929464
-6.644981
-5.811960
-3.610758
-2.664112
-0.279846
3.630414
7.337271
10.172064
8.041003
5.449361
7.585802
9.949025
8.066257
4.331113
2.974623
-0.184679
-3.759672
-2.917299
-1.800916
5.181908
12.946082
6.080861
-0.778049
-2.589509
-5.727535
7.666945
23.354042
18.489423
16.345036
20.888419
18.182918
12.106294
0.956738
-9.397674
-13.950408
-15.581376
-8.460378
-1.256849
2.302247
9.827013
9.221480
2.704616
4.443835
7.722141
7.865927
6.559002
4.718317
3.932525
1.191020
-3.282690
-5.809803
-2.729523
6.017301
11.427371
8.492982
4.872399
4.102272
-3.905517
-11.537828
-4.720766
-1.878258
-5.354588
-1.213336
-0.916179
-3.788143
-6.459510
-13.494702
-16.180798
-15.821450
-11.450609
-1.881988
0.842453
1.190110
4.031917
5.936665
4.959159
-6.549276
-17.322185
-13.494455
-3.163187
8.927640
13.701079
11.721987
21.041614
27.438542
17.052801
12.110328
23.239781
32.370500
20.943660
10.760621
19.635566
16.863199
13.449760
33.861899
42.370250
33.555159
28.309685
23.052755
23.358095
21.320085
9.629288
0.322287
-14.949583
-25.257002
-12.100527
1.896916
7.459889
11.640186
16.305377
19.260108
12.965586
18.178564
31.506880
28.299650
34.825634
43.394539
27.719836
17.697884
18.064011
15.407374
15.343548
10.981360
4.924609
1.861165
-12.695520
-32.015355
-33.812554
-25.949717
-22.607818
-18.947487
-19.158605
-29.269868
-33.413923
-31.856599
-42.770488
-38.408999
-11.944784
-12.078748
-13.290519
15.789420
25.141078
6.837559
-7.641505
-17.145362
-26.707436
-24.287867
-11.864113
-19.171913
-29.025297
-11.867850
7.996735
16.738182
22.548747
27.433708
25.891349
29.197477
41.491006
30.948620
26.953026
46.249485
31.373433
12.338362
21.384447
23.075036
21.905817
15.519646
12.015026
27.784887
32.472990
31.701928
36.168860
33.874842
36.256536
33.057489
23.960672
17.978737
-1.514577
-19.206716
-22.662940
-22.320426
-22.779369
-25.670973
-13.004771
-2.911508
-12.536707
-0.361245
13.240145
-6.922997
-14.631993
4.018016
5.447453
-20.401639
-38.527472
-37.951629
-41.841546
-35.200768
-4.934776
9.222819
3.029063
-5.370103
-25.352053
-32.029068
-23.481205
-30.623242
-26.560546
-9.533324
1.811923
19.572801
22.942522
17.055040
15.565051
-2.500462
-11.868718
-9.346044
-15.505198
-2.805797
13.520033
16.732175
34.009092
39.321201
26.343817
28.742111
22.912377
5.793509
7.182032
12.751084
10.760769
10.963004
15.256692
19.948303
28.551576
39.502641
31.122179
19.819953
32.964737
30.119893
9.237356
14.212797
14.704941
3.919173
15.120167
15.976100
4.530790
11.228381
14.855747
2.756272
-12.214233
-10.513591
4.940176
5.545010
-5.010468
-13.371992
-16.510485
-13.643428
-11.333510
-13.506187
-17.606990
-10.703891
-13.208093
-31.664749
-25.258001
-20.155141
-32.336211
-26.726245
-23.736912
-28.645952
-20.902352
-15.069109
-24.686125
-29.001320
-14.883003
-17.178424
-33.214343
-41.005402
-42.324252
-23.462890
-19.676074
-37.436950
-35.965195
-38.368630
-44.175919
-42.551261
-41.793991
-24.490420
-8.944070
-18.699260
-27.913910
-8.884682
-1.150668
-27.840962
-33.897012
-29.932978
-37.414957
-39.681153
-52.155171
-52.797177
-41.603898
-36.319612
-26.651392
-30.486601
-13.933286
23.516361
21.022680
22.032685
56.053695
62.336297
26.665849
5.573830
19.162829
22.464749
16.369655
22.700887
26.331759
34.146901
52.275542
65.065657
58.456910
38.296340
32.028704
33.995875
25.040272
12.480917
9.025395
24.172186
31.454270
9.970407
3.087416
18.256885
18.637041
9.312739
-1.656793
-5.358504
3.982165
-3.121063
-20.112511
-21.537505
-15.459944
-11.852918
-8.124085
6.209559
13.757471
16.600213
34.941376
26.230792
-4.740331
-11.077638
-3.996619
-0.420689
-11.984301
-19.514676
-9.483603
-6.803818
-2.223027
1.599326
0.059304
2.996033
1.669702
9.385247
8.063124
-6.935203
-1.199687
-6.397000
-19.996284
-11.086035
-7.513378
-12.216677
-25.472045
-38.183368
-19.618227
-2.553130
-8.099969
-19.355904
-35.708852
-29.663555
-11.103325
-34.141005
-62.582675
-50.920165
-45.318147
-53.973321
-42.578041
-34.776225
-37.448995
-34.608123
-33.390973
-25.754686
-25.600612
-23.300046
7.313602
19.699715
19.524602
30.727934
16.785669
-7.322802
-24.584988
-38.527721
-47.179622
-56.574530
-45.671627
-19.267031
-0.677341
8.375757
17.491982
31.131014
20.490901
3.762708
7.616389
6.346871
6.635378
4.161804
-7.702938
-4.130281
-0.215111
-12.534589
-19.753546
-19.924919
-26.997519
-16.234193
-5.985689
-30.010695
-34.042761
-25.483442
-26.664585
-4.049141
8.369937
-3.683246
-29.516206
-42.690447
-21.213829
-36.232731
-66.394213
-53.887695
-46.957475
-43.527435
-19.456836
1.189100
3.689095
19.561125
40.923182
15.187248
-1.112862
6.920413
-16.684226
-22.478890
-4.479305
10.387630
42.444276
53.123201
37.777918
42.101766
41.294465
28.187090
27.391479
3.604245
-19.288013
-2.625982
-10.299441
-30.222474
-23.851264
-14.892385
6.272581
10.638746
-4.541943
0.364293
2.026359
0.736735
-1.165906
-3.538714
11.267434
13.189015
-4.031321
-17.768312
-12.849918
-1.160054
-10.671393
-2.905348
15.768742
5.749361
13.481505
38.850847
39.242693
21.546345
23.135232
54.960652
50.243326
17.634220
34.462714
54.795596
39.175134
31.276294
30.740432
35.947566
57.858345
68.588004
71.128213
65.636784
32.468200
22.109580
32.175021
14.866543
6.571651
8.294504
12.374735
16.236365
-11.038890
9.885498
62.513732
33.260317
16.447957
34.622422
6.657231
6.407771
16.163664
-2.349104
23.610577
46.898188
31.250840
20.866501
22.494667
12.716331
-6.577554
5.270592
-21.876777
-35.629198
39.057339
30.583124
23.099976
47.548391
8.465205
39.819290
12.762401
-19.102061
30.570741
-25.868386
-7.336211
-25.880775
-86.892040
57.555393
18.303405
-77.011999
51.302722
95.706201
68.464378
23.324206
28.144406
42.225081
-67.875895
-22.658334
61.173885
2.146389
37.736179
69.646233
23.932089
3.849139
5.826363
34.333265
28.705999
12.002121
31.914869
44.838248
60.689703
42.343166
6.119320
38.497904
52.554732
11.616131
34.452513
87.750575
80.836256
67.854197
73.711988
55.112482
25.140375
5.413498
-3.062821
0.855856
-6.414537
-29.120224
-35.584952
-19.419039
-17.909876
-34.494050
-11.230988
13.657434
-5.338359
4.464995
8.072722
-18.726990
-8.874305
-28.019494
-66.258205
-41.415608
-20.249940
-28.499242
-23.195550
-16.754434
-24.454312
-29.465054
-20.375716
-7.340583
-2.941452
-12.755091
-6.369853
24.063304
26.551376
-3.782649
-26.689403
-25.989881
-24.199694
-35.713039
-38.107823
-29.812228
-25.379197
-34.091417
-36.483396
-18.948366
-18.351948
-19.487033
-6.199632
-3.431705
-9.022498
-34.392773
-46.443618
-42.790769
-70.648881
-60.592558
-23.103165
-37.465330
-48.050500
-39.069177
-39.830654
-35.026820
-9.720136
22.519807
10.451427
-4.380671
13.207665
-5.566722
-24.605300
-15.278892
-17.903499
-3.298183
14.044432
18.328768
25.599630
10.294795
1.857754
8.693987
-5.150317
-9.568851
-10.248498
-29.519003
-27.110422
-8.552530
-5.548467
0.563696
8.763434
-0.606691
-4.785115
1.911775
-5.448863
-12.219865
-8.106201
-11.775648
-17.246737
-26.356646
-45.220110
-52.431585
-51.507851
-51.900863
-48.053261
-50.688155
-53.110761
-45.605868
-37.809663
-33.636147
-36.423710
-32.081860
-17.150631
-9.953415
-2.376746
1.792562
2.921103
16.335689
11.580488
-5.956410
-2.508367
-8.072507
-24.894219
-22.298835
-7.532432
4.428403
1.283597
5.235006
24.848260
11.712829
-10.400183
1.790709
18.217072
17.130851
-5.546547
-24.669526
-31.822085
-47.561783
-39.301725
-25.182941
-34.374445
-26.036532
-16.832167
-20.441995
-23.907337
-39.701043
-46.321479
-47.572761
-59.834257
-62.283984
-59.061555
-49.320625
-23.508237
-6.741699
-13.307192
-19.938617
-18.101904
-26.865794
-28.655745
-11.510455
-7.813651
1.882390
22.254082
7.738546
-1.370428
11.559263
1.823244
-3.645740
-7.812941
-19.354109
-3.923722
6.056383
5.554421
12.699033
13.922262
18.088764
4.213598
-0.696377
30.254174
29.998868
20.744940
32.556846
33.062317
33.711339
18.433624
3.604566
16.465989
22.595686
31.874166
41.672376
43.120752
43.696595
25.202531
22.803539
36.979136
40.281055
55.405168
53.733518
36.731315
34.690032
29.112799
24.984174
1.899969
-22.798841
9.575535
32.024983
11.004740
7.862740
18.487424
26.366159
22.463850
16.297448
32.021718
25.402684
12.867879
31.895704
26.594586
20.248862
34.853477
20.315964
5.972503
15.824721
23.420795
10.604264
-5.049865
7.368278
8.175347
1.513295
20.811156
17.705161
12.739542
33.527393
34.838763
31.430233
26.688358
-1.888680
-17.371202
-2.894240
4.437175
-3.773082
12.913965
39.331654
30.980885
19.894219
18.306503
10.318821
13.306517
10.314615
-2.510567
7.660784
19.699240
4.111744
-6.718680
5.807945
10.646614
12.378585
24.788545
25.543244
18.509221
13.571190
11.985811
20.377030
23.480456
21.985558
28.690864
28.663511
19.706973
19.542147
19.854033
-1.286148
-29.068744
-38.707736
-35.708818
-28.105028
-22.340054
-15.211574
-2.399249
-7.485742
-10.346016
2.311535
-19.464575
-39.189582
-28.681562
-38.608593
-36.833837
-12.225037
0.510368
6.347118
-2.292625
-0.337144
13.718983
8.505539
4.679915
3.211903
4.927041
9.928901
-0.051436
-7.438727
-6.221343
2.811181
12.978792
6.212466
7.281622
31.271093
45.187876
31.579707
20.515253
19.824149
7.005046
-5.856608
-8.347015
-9.399569
-21.841090
-39.691276
-43.093727
-40.888082
-23.564171
3.783797
15.884677
24.734840
23.214457
12.106049
0.389534
-4.764058
-1.225769
-21.480093
-19.636834
13.013656
5.862267
-8.767830
-17.265658
-25.289579
-21.825871
-29.954066
-20.441789
-9.387854
-10.891637
12.577168
25.424562
27.502553
36.697567
47.567271
48.669392
8.563577
-11.064638
0.010807
-11.675080
-14.509637
-21.324125
-16.146216
20.071085
20.143798
11.639657
19.929875
14.843383
11.326138
1.938945
-14.172491
-22.099152
-23.144459
-18.346003
-18.852407
-22.357494
-23.497021
-16.235978
-7.437952
-15.397579
-7.974515
10.989952
1.964677
-2.782342
10.356130
14.989526
4.537854
-17.164844
-20.278087
-11.462293
-27.316785
-31.165555
-6.469081
2.447714
7.065678
13.280245
-0.925042
9.914268
30.428810
1.290891
-3.310705
21.789536
-2.043288
-9.442971
16.508293
21.385773
29.942286
15.206981
-16.385107
1.650716
24.610544
19.881761
18.793904
21.835140
23.366279
28.449267
40.600647
35.710544
12.682684
9.366738
10.506501
3.809613
12.585662
21.857361
6.363384
-16.483284
-3.904756
23.622769
15.285092
-2.759614
-2.538441
-0.217768
-2.217902
1.905347
6.109958
-6.565593
-5.515842
13.700424
16.901577
11.603966
-5.796862
-10.365494
8.927925
-5.365036
-24.962155
-21.421061
-21.917177
-13.805346
-6.166955
7.012666
27.385527
15.685845
-15.703307
-34.562329
-10.222396
16.425584
-17.310659
-28.549994
-2.833930
-9.985086
-7.195416
10.046198
7.145009
-2.878580
-5.937349
5.221328
-0.291610
-18.114676
-18.115142
-12.078028
10.235350
25.693792
12.344671
8.917905
2.169582
-18.809513
-13.123796
6.159803
-7.829221
-23.478206
-3.972733
-3.948183
-21.387588
-27.322063
-48.169997
-34.729225
-1.904088
-16.200089
-12.852578
-5.755427
-27.035420
-9.823264
-4.412960
-29.062672
-17.899320
-20.563438
-36.922933
-20.662332
-11.180216
-0.707967
7.143413
-16.790412
-22.114442
-18.751968
-33.745854
-27.049665
-18.457381
-20.591715
-23.948575
-41.126360
-27.712475
5.290114
0.399778
2.060909
28.153386
31.023482
22.220081
24.683370
17.799211
7.321120
10.987296
7.828930
11.060009
27.148301
17.702659
