EVENT_NAME: 202302060117
EVENT_ID: 13194
EVENT_DATE_YYYYMMDD: 2023/02/06
EVENT_TIME_HHMMSS: 01:17:32.00000
EVENT_LATITUDE_DEGREE: 37.288
EVENT_LONGITUDE_DEGREE: 37.043
EVENT_DEPTH_KM: 8.6
HYPOCENTER_REFERENCE: AFAD
MAGNITUDE_W: 7.7
MAGNITUDE_W_REFERENCE: AFAD
MAGNITUDE_L: 
MAGNITUDE_L_REFERENCE: 
FOCAL_MECHANISM: 
NETWORK: TK
STATION_CODE: 4412
STATION_NAME: 
STATION_LATITUDE_DEGREE: 38.59685
STATION_LONGITUDE_DEGREE: 38.18385
STATION_ELEVATION_M: 820.0
LOCATION: Kahramanmaras_Pazarck_Turkiye
SENSOR_DEPTH_M: 
VS30_M/S: None
SITE_CLASSIFICATION_EC8: unknown
MORPHOLOGIC_CLASSIFICATION: 
EPICENTRAL_DISTANCE_KM: 176.60
EARTHQUAKE_BACKAZIMUTH_DEGREE: 
DATE_TIME_FIRST_SAMPLE_YYYYMMDD_HHMMSS: 2023/02/06 01:17:42.4632560
DATE_TIME_FIRST_SAMPLE_PRECISION: millisecond
SAMPLING_INTERVAL_S: 0.01
NDATA: 13501
DURATION_S: 
STREAM: HNE
UNITS: cm/s^2
INSTRUMENT: sensor = ACEBOX/SARA | digitizer = 
INSTRUMENT_ANALOG/DIGITAL: 
INSTRUMENTAL_FREQUENCY_HZ: 
INSTRUMENTAL_DAMPING: 
FULL_SCALE_G: 
N_BIT_DIGITAL_CONVERTER: 
PGA_CM/S^2: 68.897
TIME_PGA_S: 
BASELINE_CORRECTION: BASELINE REMOVED
FILTER_TYPE: BUTTERWORTH
FILTER_ORDER: 
LOW_CUT_FREQUENCY_HZ: 
HIGH_CUT_FREQUENCY_HZ: 
LATE/NORMAL_TRIGGERED: 
DATABASE_VERSION: 
HEADER_FORMAT: DYNA 1.2
DATA_TYPE: Acceleration
PROCESSING: Automatic Paolucci et al., 2011
DATA_TIMESTAMP_YYYYMMDD_HHMMSS: 
DATA_LICENSE: U (unknown license)
DATA_CITATION: Turkish Accelerometric Archive v 1.0 - Disaster And Emergency Management Presidency, Earthquake Department
DATA_CREATOR: AFAD
ORIGINAL_DATA_MEDIATOR_CITATION: : AFAD - Disaster And Emergency Management Presidency
ORIGINAL_DATA_MEDIATOR: AFAD PROCESS SERVICE
ORIGINAL_DATA_CREATOR_CITATION: AFAD PROCESS SERVICE
ORIGINAL_DATA_CREATOR: network: TK
USER1: GuestUser
USER2: 
USER3: 
USER4: 
USER5: 
[...]
-11.573272
-15.647652
-18.974349
-21.939595
-24.620544
-26.629092
-27.624597
-27.747336
-27.523354
-27.236247
-26.500716
-24.497303
-21.209174
-17.875221
-15.510591
-13.968226
-12.583440
-11.092043
-9.694165
-8.661946
-8.361044
-8.904385
-9.995746
-11.517996
-13.562315
-16.234847
-19.342476
-22.106890
-24.141858
-25.899541
-27.687384
-29.446938
-30.958901
-31.689747
-31.526318
-30.973851
-30.048711
-28.653171
-27.150317
-25.637411
-24.404594
-24.082417
-24.381907
-24.559121
-24.569871
-24.506040
-23.912658
-22.622794
-21.533295
-21.340642
-21.518557
-21.240100
-20.085839
-18.349656
-16.838386
-15.728780
-14.863726
-14.655642
-15.353055
-16.668628
-18.642574
-21.572517
-25.074795
-28.392140
-31.045034
-32.489896
-32.496205
-31.688664
-31.027949
-30.983289
-30.890935
-30.199826
-29.583065
-29.231897
-28.701640
-28.469943
-28.950860
-29.220190
-28.060083
-25.357149
-21.931313
-18.465031
-15.307594
-13.097972
-12.432581
-12.625459
-12.498736
-12.165571
-11.912598
-11.146908
-9.652705
-7.812249
-6.174494
-5.278813
-4.945180
-4.772633
-4.755562
-4.474065
-3.749289
-3.053738
-1.958628
0.087337
2.968892
6.510925
9.661581
11.922873
13.794892
14.630254
14.377290
13.904556
13.371970
13.430891
14.530912
16.427246
19.351352
23.208076
27.322211
31.150646
34.843712
38.825050
42.110139
43.356751
43.044869
42.285266
41.408531
40.579023
39.893533
39.228151
38.781135
39.076191
40.490201
42.761546
45.127579
47.445215
50.189298
53.356320
56.439643
59.033628
61.079826
62.810631
64.479013
66.080529
67.285524
67.794739
67.820461
67.713620
67.110895
65.514765
63.349573
61.040829
58.249294
54.974267
51.681938
48.757138
46.734095
45.586856
44.600704
43.480819
42.135320
40.675027
39.429827
37.999693
36.575872
36.487267
37.443269
37.725233
36.887074
35.681152
34.849305
34.697341
34.876201
34.766087
33.890286
31.795935
28.542884
25.357634
23.650919
23.753560
25.015602
26.282320
26.802523
27.054795
27.675764
28.373887
28.396336
27.054578
24.377604
21.352973
18.750580
16.577439
14.926367
14.381857
14.966822
15.529577
15.199927
13.799953
11.048865
7.265094
3.228823
-0.632101
-3.945471
-6.540149
-8.215536
-8.724976
-8.575809
-8.215289
-7.562523
-6.949268
-6.754277
-6.793083
-6.996015
-7.679166
-8.528314
-8.361144
-7.011662
-6.433243
-8.463067
-12.410729
-16.377797
-19.622431
-22.399237
-25.041142
-27.577838
-29.554355
-30.322843
-29.783702
-29.058458
-29.021046
-28.413871
-25.901715
-22.523106
-20.078050
-18.520021
-16.374693
-13.070665
-9.216981
-5.909213
-4.578902
-5.393681
-7.270835
-10.056993
-14.098875
-19.012121
-23.991998
-28.149844
-31.015493
-32.694854
-33.395541
-33.417981
-33.257825
-33.213400
-33.408616
-34.339826
-36.288756
-38.572016
-40.572147
-42.425453
-44.260758
-46.005348
-47.804882
-49.931497
-52.302899
-54.243412
-55.154281
-55.442783
-55.917855
-56.399473
-55.877867
-53.734643
-50.450956
-47.304742
-45.125513
-43.610970
-42.257046
-41.282808
-41.253813
-42.078879
-42.690956
-42.176832
-40.812620
-39.155929
-36.957762
-34.073401
-31.508641
-30.196800
-29.781338
-29.537717
-29.205954
-28.850344
-28.641559
-28.644126
-28.859449
-28.981020
-28.506173
-27.510894
-26.329746
-25.017671
-23.610207
-22.296028
-21.517713
-21.648635
-22.390002
-23.056320
-23.428287
-23.843507
-24.712760
-26.253480
-27.842362
-28.265765
-27.370083
-25.945552
-24.624359
-23.805363
-23.490200
-23.567583
-24.182465
-25.244134
-26.230287
-26.598513
-26.284753
-25.593176
-25.018966
-25.074371
-25.437688
-25.661661
-26.071971
-26.463110
-26.230010
-25.395817
-23.819785
-21.284951
-18.467923
-16.453989
-15.448890
-14.519074
-13.081918
-11.507757
-9.916294
-8.474462
-8.150415
-9.498486
-11.676537
-13.166522
-13.409901
-12.821195
-11.170582
-8.559062
-6.528295
-5.919249
-5.976057
-5.737813
-4.915544
-3.957439
-3.407309
-3.409877
-3.722693
-3.534248
-2.017367
0.291151
2.161534
3.636331
5.274787
6.903423
8.035006
7.894498
6.305850
4.315304
2.505016
1.025786
0.560299
1.207922
2.643208
4.717695
6.553242
7.654198
8.498210
8.804255
8.639199
9.265312
10.703170
11.633453
11.365526
10.064916
7.999088
5.765393
4.776201
5.473389
6.065134
4.655341
1.127812
-3.121215
-6.969748
-10.696939
-14.290633
-16.926225
-18.613535
-19.860372
-20.867099
-21.872189
-22.841040
-23.015449
-21.601906
-19.127158
-17.293248
-17.151796
-18.193592
-19.116152
-19.445334
-19.621613
-19.552872
-19.153308
-18.689217
-17.494742
-15.387289
-14.262019
-15.285111
-16.833780
-17.232634
-16.589219
-15.270364
-13.310905
-10.798749
-7.761952
-4.243065
-0.449233
2.983617
5.071664
5.022104
3.238703
1.597918
1.042420
0.605223
-0.243690
-0.630387
0.661815
3.411275
5.935589
7.854601
9.956209
11.693093
12.123986
12.060397
13.360081
16.599580
20.275345
22.642313
23.443540
23.197122
22.729532
23.401002
25.173423
26.228555
25.632610
23.969147
21.875496
19.165089
15.894503
12.906813
10.130241
7.419366
6.140499
7.579525
11.212739
14.747992
16.905945
18.754117
20.518121
20.757300
19.047779
16.435567
13.234886
9.370222
6.655372
6.155284
5.945105
4.772382
3.617896
3.365867
3.474119
3.249210
2.999285
2.144293
-0.332317
-3.093926
-4.371857
-4.045940
-2.369843
0.314388
3.502452
6.303581
6.965232
4.782739
1.117737
-2.586776
-5.573766
-6.930955
-5.880967
-3.571046
-2.833645
-4.487990
-6.761430
-8.164677
-8.028836
-7.120763
-7.519617
-9.437452
-11.179939
-11.771909
-11.427287
-10.655752
-9.424104
-7.518652
-4.741370
-0.851213
3.062090
5.304912
5.830025
5.727392
5.745866
5.821621
5.394478
4.355955
3.515692
4.023270
6.622398
10.630155
13.456067
13.364657
11.577047
9.929248
9.027731
8.110314
6.143850
3.720078
1.028608
-3.243799
-8.660409
-13.844626
-18.864950
-23.357594
-26.053740
-26.780845
-26.774762
-27.293787
-28.623388
-30.582839
-32.324390
-32.404111
-31.330275
-31.351547
-33.480500
-36.776804
-39.035748
-39.123652
-38.525828
-38.514835
-38.459187
-37.552985
-36.067666
-35.032174
-34.687085
-34.171324
-32.851066
-30.250769
-26.270600
-22.404056
-20.122658
-18.736002
-16.809275
-14.168764
-11.783794
-10.297306
-9.131355
-7.829568
-6.571033
-5.052983
-3.283601
-1.461614
1.314031
5.077003
8.255013
10.213537
11.383463
11.866960
11.857145
11.954877
12.385535
13.064955
14.100213
15.151604
15.574547
15.725351
16.474208
17.809896
19.168730
20.177336
20.788486
21.418808
21.936907
21.177070
19.071029
17.185458
16.716465
17.461348
17.979680
17.421143
16.874997
17.289758
18.169307
18.514630
17.849715
17.445718
18.787718
21.049945
22.915885
24.257185
25.006275
25.324478
26.059073
27.807413
30.103307
31.664376
32.081708
32.344734
32.959392
33.672244
34.313086
34.484932
34.121849
33.823996
34.329937
36.027076
37.830358
38.388904
37.816339
36.421042
34.606312
33.252396
32.540721
31.912980
30.843829
29.516333
28.361379
27.360497
26.666825
26.365464
26.312163
26.256991
25.580152
24.543733
23.720070
22.610473
21.139424
19.428500
17.244838
15.283751
14.235175
13.919085
13.795177
13.390244
13.083039
13.141493
12.927339
12.180595
11.161009
10.082507
8.642787
6.269048
3.713648
2.285853
1.955969
2.162183
2.512883
2.399729
1.418019
-0.131351
-1.622973
-2.992086
-4.686410
-6.638847
-8.345095
-9.897972
-11.638822
-12.944809
-13.194734
-13.136982
-13.335705
-13.605269
-14.492058
-16.511361
-19.235328
-21.588727
-22.183269
-21.068753
-19.596995
-18.008339
-15.801990
-13.087833
-10.236203
-7.678924
-6.328741
-7.071510
-9.542977
-12.774051
-16.749769
-21.883017
-27.323008
-30.897530
-31.666017
-31.081520
-30.417531
-29.541021
-28.250222
-26.397842
-23.650953
-20.315363
-17.505116
-16.175273
-16.061175
-15.890265
-15.112417
-14.628453
-15.477600
-17.297240
-18.504097
-18.599716
-18.862266
-20.112142
-22.134250
-24.604781
-26.762258
-27.882844
-28.578153
-29.876659
-31.782336
-33.781064
-34.860736
-33.616228
-30.393796
-27.183288
-25.237389
-24.793871
-25.688142
-27.365633
-28.875023
-29.283931
-28.521280
-27.516415
-27.321423
-28.078922
-29.238085
-30.113183
-29.820933
-28.431471
-27.305265
-27.487389
-28.874036
-30.448423
-31.782232
-33.377660
-34.926329
-35.728483
-35.795578
-35.616719
-35.771021
-36.035208
-35.661829
-34.221867
-31.695917
-28.799399
-26.015570
-23.106894
-20.249654
-17.483828
-14.596427
-11.959657
-9.323822
-5.974205
-2.443394
0.174204
1.170653
0.588502
-0.127849
0.370378
1.981479
4.702650
8.460010
12.141853
15.800084
20.001659
23.508622
25.862497
27.916410
29.680883
31.060057
31.550568
30.421799
27.964127
24.376044
20.262152
17.085085
15.468849
15.365515
16.610724
18.832270
21.719670
25.159767
29.425637
34.686079
40.440302
45.541997
48.970170
50.901807
51.236376
49.040089
44.887152
39.812821
34.131084
28.930969
24.608062
20.882741
19.126226
20.539535
24.630992
30.145338
35.897924
41.611232
46.910018
50.574327
51.582231
49.670475
45.259894
38.868349
31.681659
25.826912
22.197214
19.988536
18.251192
16.547516
14.746112
12.790169
10.950656
9.478206
7.970451
5.745641
3.412348
3.362788
6.160878
9.274594
11.471591
13.602658
15.984822
18.562675
21.171623
23.191870
24.317842
24.772582
24.654986
23.557546
21.251842
18.606664
16.682283
15.676491
15.193471
14.413060
13.186797
12.656316
13.285936
14.387593
15.513331
16.401765
16.959376
17.268694
16.836875
15.275113
13.021312
10.521556
8.134724
6.282353
4.972157
4.425310
5.117822
6.557082
8.071625
9.800326
11.746693
13.665705
15.352790
16.493725
17.065364
17.234404
17.008794
16.121070
14.394014
12.729615
12.351803
13.468657
15.252768
15.703066
12.857992
6.723857
-1.088474
-8.417313
-13.747185
-17.372441
-20.116749
-22.004190
-22.948025
-22.703469
-20.890366
-17.546827
-12.474358
-5.767645
1.463709
7.996476
12.731577
15.781700
18.488142
20.775385
21.982017
22.317052
21.078866
17.497330
12.177278
5.645220
-1.423636
-7.725870
-12.640986
-15.827872
-17.249823
-17.766978
-17.669480
-17.408324
-18.424870
-20.703454
-22.851579
-23.760111
-22.608889
-19.474365
-15.010937
-9.365664
-3.361044
1.140259
3.285821
3.024206
-0.136495
-5.626284
-11.874979
-18.421299
-25.237653
-31.479335
-36.357043
-40.054075
-43.326297
-46.411949
-48.872427
-50.661907
-52.284222
-53.536202
-53.482424
-51.836487
-49.150853
-46.009549
-42.813302
-40.052620
-38.095499
-36.678449
-35.273089
-33.643050
-31.980046
-30.663062
-29.693734
-29.118121
-29.252550
-29.848261
-30.203395
-29.431860
-26.460058
-20.700224
-12.489026
-3.345211
4.848920
11.456035
16.298214
18.717787
19.086723
18.765256
18.006588
15.995235
12.661524
8.616134
3.784250
-1.617163
-5.903131
-8.005665
-8.709390
-8.832364
-8.156218
-6.160286
-2.922189
1.018935
5.113899
8.461646
10.619365
12.778488
16.077137
19.565865
21.187954
20.442613
18.958472
17.817546
16.664462
15.493142
14.337720
12.462671
9.386137
5.497859
1.832623
-0.825881
-2.685734
-4.003177
-4.536932
-4.530615
-4.628338
-4.998669
-5.566090
-6.375726
-7.582817
-9.659867
-13.012750
-16.764022
-18.885962
-18.147392
-14.738390
-9.632019
-4.244625
0.501932
4.284542
6.897231
8.357299
8.358238
6.804894
4.276147
0.955061
-2.842971
-6.542107
-9.963726
-12.112786
-11.683530
-8.844058
-4.393489
0.798919
5.117626
7.615053
8.897436
9.579660
9.780964
9.130311
7.251286
5.162078
3.744336
1.889159
-1.553969
-6.118389
-10.824723
-15.188545
-18.872016
-21.725040
-23.823366
-24.528261
-22.850293
-19.086153
-14.657795
-10.657519
-7.654857
-5.937144
-5.623617
-7.061232
-9.738908
-12.274669
-14.696571
-17.532527
-19.885926
-21.049297
-21.359775
-21.174136
-21.274898
-22.794109
-25.465939
-28.004272
-29.908079
-31.156786
-31.638170
-31.398757
-30.361160
-28.284803
-25.102584
-21.273214
-17.713413
-14.799593
-12.357576
-10.637993
-9.578419
-7.976670
-5.109376
-1.706686
1.594535
5.186835
9.880787
16.002772
22.892782
29.158086
33.185949
34.351667
33.500649
31.216922
27.688224
23.922222
21.075277
19.604463
18.717908
17.169473
15.461120
14.637925
14.170334
13.637749
13.670952
14.241656
14.437348
14.366980
15.599563
18.885354
23.196112
27.234497
30.060409
30.840828
29.546064
27.585210
26.171676
24.823606
22.945750
20.422848
16.926181
12.933395
9.373603
6.730295
5.513852
5.486268
5.764024
6.031960
5.690620
3.957018
1.665575
0.703036
2.056025
4.966805
7.799731
10.378753
13.823059
17.876173
21.366069
23.981095
25.477168
25.823193
25.933549
25.938931
25.363093
24.928468
25.289221
26.499127
28.575251
30.656284
32.020028
32.815878
33.011103
32.371672
30.299298
26.365663
21.555289
17.639890
15.809496
15.884783
16.787946
17.559247
17.490749
16.406168
14.928807
13.797233
13.002794
12.113901
11.366923
11.288606
11.697521
12.126777
12.376711
12.199263
11.093406
8.990872
6.867296
5.668388
5.020540
4.238492
3.496424
2.961500
2.404366
1.836710
1.112645
-0.225139
-2.107437
-4.199216
-6.379138
-8.123261
-8.774850
-8.142190
-6.094355
-2.537359
2.386883
7.842079
12.517561
16.296197
19.879378
23.388211
26.739232
29.914437
32.858884
35.241750
36.560605
36.981678
37.027273
36.807040
36.281936
35.849415
35.980112
36.094677
35.204615
33.775885
33.425193
34.808576
37.218796
40.321524
44.499252
49.822118
55.824634
61.487208
65.775521
68.314096
68.897191
67.482722
64.484276
60.334613
55.733487
51.642507
48.270453
45.207246
42.405658
40.329075
39.567601
40.332824
41.889451
42.776949
42.059664
39.969754
37.437267
35.243551
33.261890
30.949405
28.126775
24.762671
21.264367
18.644673
17.646129
18.258682
19.856925
21.795342
24.125604
27.310394
31.184186
34.448000
35.586363
34.615641
32.846268
30.790025
28.248887
25.396097
22.360244
19.587413
17.818039
16.925172
16.079765
14.474751
11.853888
8.329399
4.026131
-0.299582
-3.449996
-4.000116
-1.171633
3.412902
7.923791
12.316144
16.337695
19.242163
20.581592
19.996402
17.256536
12.239719
5.741328
-0.204834
-3.563093
-3.426785
-0.620980
3.220314
6.874336
9.493804
11.111218
12.490626
13.627821
14.188237
14.500594
14.519303
13.987184
13.338401
12.870811
13.006418
14.375305
16.607138
19.022034
21.055841
21.927208
21.350201
19.690946
17.998024
17.359294
17.502850
17.445340
16.734367
15.303065
13.354369
11.791438
11.555775
11.797760
10.606099
7.685508
4.157512
0.726541
-2.687362
-6.143115
-9.297971
-11.920938
-13.517769
-13.691710
-13.539504
-14.264972
-15.871623
-17.669052
-18.491546
-18.168668
-17.740815
-17.501402
-17.077056
-16.210832
-14.646724
-12.528283
-10.638028
-9.468803
-8.373693
-6.453979
-3.828665
-1.261567
0.906439
2.710891
4.097079
4.991826
4.823262
2.948446
0.174212
-1.871509
-2.338164
-2.029080
-2.865836
-5.645214
-9.691539
-13.876272
-17.233362
-19.662511
-21.051029
-21.124437
-20.263124
-18.634254
-16.375066
-13.975835
-11.641832
-9.700609
-8.031292
-5.493419
-1.588532
2.709835
6.017135
7.910663
9.217361
10.736580
12.410806
13.669107
14.255008
14.917360
16.408055
18.247343
19.384069
19.104920
17.305854
14.543544
11.539721
8.369902
4.445152
-0.386732
-5.079974
-8.001501
-8.779573
-8.975959
-10.029445
-11.694311
-12.670644
-12.200240
-10.795815
-9.140526
-7.727685
-7.160722
-7.449458
-8.162535
-9.028048
-9.597574
-9.274462
-7.864426
-5.557778
-2.779561
0.178447
3.597268
7.163616
10.171656
13.279294
16.775970
19.516780
20.877484
21.199193
21.960909
24.898576
29.732105
34.647697
37.791573
38.675097
38.795741
39.048246
38.943510
38.273451
36.775282
34.469812
32.083214
30.037258
28.565041
27.572810
26.760836
26.606768
27.692761
29.749714
31.838930
33.183269
33.621175
33.210164
32.039312
30.197227
28.171612
26.523580
25.335426
25.226715
26.255895
26.897673
26.270866
24.631484
22.801791
21.561969
20.306248
18.299337
16.092996
14.128636
11.758637
8.473322
4.709425
1.021277
-2.035150
-3.840762
-4.159190
-3.098915
-1.334209
0.362462
1.443545
1.117636
-0.547697
-2.300939
-3.580039
-5.087560
-7.479301
-10.671097
-14.257309
-17.602710
-20.223807
-22.354163
-24.336058
-26.352555
-28.517280
-30.534946
-32.298708
-34.098943
-35.551521
-36.115436
-36.400430
-37.231341
-38.570528
-40.282387
-42.628772
-45.641713
-48.747472
-50.945161
-51.100165
-48.930756
-45.592360
-42.498283
-40.646137
-40.583475
-41.597215
-42.472314
-43.170194
-43.885610
-43.815700
-42.360775
-39.660179
-36.153449
-32.535666
-28.835820
-25.018608
-22.239222
-21.445242
-22.580557
-24.760712
-26.696082
-27.977988
-28.723563
-29.143458
-29.615958
-30.137789
-30.749399
-30.990673
-29.814669
-27.635674
-25.637170
-23.997078
-22.864092
-22.503573
-21.949469
-20.308442
-18.632812
-18.036625
-18.150246
-18.481766
-19.100623
-20.238978
-21.799103
-23.102518
-23.130336
-21.305777
-18.327196
-14.986696
-11.269549
-7.518969
-4.309864
-2.042493
-1.439993
-2.742240
-4.865115
-6.551724
-7.697326
-8.302389
-7.663183
-5.671226
-3.133352
-1.317445
-1.370512
-3.159992
-5.752566
-8.697472
-11.882254
-14.650877
-15.763981
-14.755609
-12.523542
-10.266459
-8.812002
-8.655821
-10.002255
-12.799168
-16.830530
-21.974767
-27.996211
-34.014148
-38.875023
-41.766623
-42.224861
-40.159258
-36.046994
-31.211127
-27.175548
-24.242323
-21.727595
-19.307322
-17.574880
-17.368432
-18.575289
-20.902503
-24.639514
-29.275242
-33.600020
-36.289853
-36.065871
-33.643960
-31.139052
-29.487738
-28.803175
-28.781194
-28.929651
-29.422725
-30.143518
-30.250125
-28.519085
-23.809703
-16.975103
-10.362377
-5.392544
-2.616665
-2.378421
-4.597854
-8.387002
-12.369033
-15.703445
-18.177951
-20.253833
-22.668019
-25.286544
-27.697925
-29.533930
-30.410198
-31.120937
-32.472515
-33.987283
-35.606559
-37.577699
-38.861008
-38.227647
-36.106400
-33.939563
-32.098171
-29.791990
-26.776235
-23.870365
-21.825336
-20.354980
-18.870831
-17.721947
-17.655076
-18.369790
-18.611766
-17.821293
-16.719403
-15.911629
-14.820259
-12.493036
-8.968772
-5.014087
-1.463404
0.510317
0.585604
0.058863
-0.451979
-1.630313
-3.527106
-5.605092
-7.630707
-9.290429
-10.218367
-10.326610
-9.768532
-9.188710
-9.373640
-10.606682
-12.857210
-15.876464
-19.374067
-23.280113
-27.105032
-29.686383
-30.137842
-29.069384
-28.644336
-30.159572
-32.240363
-33.066832
-32.811287
-32.488409
-32.293184
-32.294582
-32.919752
-33.997553
-34.976458
-35.567961
-35.469995
-34.404577
-32.122711
-29.203047
-27.861747
-29.417196
-31.945008
-33.001767
-32.382668
-30.296023
-26.855224
-22.867340
-18.294261
-14.070709
-12.240540
-11.619336
-9.977841
-7.384324
-5.028111
-4.054808
-4.188536
-4.997236
-6.508965
-6.933069
-4.866531
-1.740423
0.890969
3.153196
5.093718
6.315079
7.142726
7.829860
8.415994
8.922403
8.980156
8.629230
7.695448
5.743713
3.715526
2.994032
3.261734
3.382612
3.636286
4.100846
4.056195
4.831471
7.545861
9.865836
8.911246
5.452921
3.152828
3.366757
4.484546
5.791477
7.690850
10.047063
12.162933
13.633288
14.074468
12.336891
8.500049
4.796704
2.590364
1.365738
0.139242
-1.795894
