EVENT_NAME: 202302060117
EVENT_ID: 13194
EVENT_DATE_YYYYMMDD: 2023/02/06
EVENT_TIME_HHMMSS: 01:17:32.00000
EVENT_LATITUDE_DEGREE: 37.288
EVENT_LONGITUDE_DEGREE: 37.043
EVENT_DEPTH_KM: 8.6
HYPOCENTER_REFERENCE: AFAD
MAGNITUDE_W: 7.7
MAGNITUDE_W_REFERENCE: AFAD
MAGNITUDE_L: 
MAGNITUDE_L_REFERENCE: 
FOCAL_MECHANISM: 
NETWORK: TK
STATION_CODE: 4407
STATION_NAME: 
STATION_LATITUDE_DEGREE: 38.78066
STATION_LONGITUDE_DEGREE: 38.26406
STATION_ELEVATION_M: 1165.0
LOCATION: Kahramanmaras_Pazarck_Turkiye
SENSOR_DEPTH_M: 
VS30_M/S: 735
SITE_CLASSIFICATION_EC8: B
MORPHOLOGIC_CLASSIFICATION: 
EPICENTRAL_DISTANCE_KM: 197.44
EARTHQUAKE_BACKAZIMUTH_DEGREE: 
DATE_TIME_FIRST_SAMPLE_YYYYMMDD_HHMMSS: 2023/02/06 01:17:46.0495340
DATE_TIME_FIRST_SAMPLE_PRECISION: millisecond
SAMPLING_INTERVAL_S: 0.01
NDATA: 13501
DURATION_S: 
STREAM: HNE
UNITS: cm/s^2
INSTRUMENT: sensor = CMG-5T/GURALP | digitizer = 
INSTRUMENT_ANALOG/DIGITAL: 
INSTRUMENTAL_FREQUENCY_HZ: 
INSTRUMENTAL_DAMPING: 
FULL_SCALE_G: 
N_BIT_DIGITAL_CONVERTER: 
PGA_CM/S^2: 33.084
TIME_PGA_S: 
BASELINE_CORRECTION: BASELINE REMOVED
FILTER_TYPE: BUTTERWORTH
FILTER_ORDER: 
LOW_CUT_FREQUENCY_HZ: 
HIGH_CUT_FREQUENCY_HZ: 
LATE/NORMAL_TRIGGERED: 
DATABASE_VERSION: 
HEADER_FORMAT: DYNA 1.2
DATA_TYPE: Acceleration
PROCESSING: Automatic Paolucci et al., 2011
DATA_TIMESTAMP_YYYYMMDD_HHMMSS: 
DATA_LICENSE: U (unknown license)
DATA_CITATION: Turkish Accelerometric Archive v 1.0 - Disaster And Emergency Management Presidency, Earthquake Department
DATA_CREATOR: AFAD
ORIGINAL_DATA_MEDIATOR_CITATION: : AFAD - Disaster And Emergency Management Presidency
ORIGINAL_DATA_MEDIATOR: AFAD PROCESS SERVICE
ORIGINAL_DATA_CREATOR_CITATION: AFAD PROCESS SERVICE
ORIGINAL_DATA_CREATOR: network: TK
USER1: GuestUser
USER2: 
USER3: 
USER4: 
USER5: 
[...]
-6.197163
-4.949748
-4.343611
-4.312012
-4.535119
-4.683426
-4.620231
-3.953481
-2.878234
-1.823621
-0.608770
1.019414
2.948086
5.000564
7.146864
8.744741
9.679094
10.312636
11.255372
12.672053
14.002973
14.624264
14.255749
13.905612
14.327974
15.015359
14.867374
13.976874
13.077992
12.675301
12.734950
12.809752
12.807497
12.665316
12.195242
11.049391
9.789729
9.172635
9.214873
9.243248
8.892466
8.131253
7.127264
5.981736
4.422231
2.808883
1.852610
1.541485
1.284203
1.302582
1.746546
2.242096
1.959988
0.760617
-0.188239
0.207040
1.284544
1.202654
-0.156634
-1.326665
-1.035202
-0.106008
-0.045069
-0.770494
-1.234121
-1.056147
-0.909124
-1.254748
-1.975982
-2.733648
-3.775681
-5.409019
-7.069439
-7.793575
-7.742631
-8.227537
-9.719335
-11.464872
-12.858980
-14.014503
-15.024295
-15.876751
-16.185942
-15.913501
-15.215476
-14.150547
-12.415644
-10.124259
-8.240725
-7.373111
-7.128398
-6.371049
-4.730936
-3.232040
-3.306515
-4.412708
-4.739309
-3.955201
-2.995700
-2.435667
-2.050705
-1.717006
-1.583203
-1.940433
-2.557527
-2.697774
-2.200935
-1.757293
-1.789532
-1.780825
-1.342342
-0.962215
-1.096981
-1.096334
-0.655917
0.005676
0.029214
-1.012497
-2.730952
-3.864228
-3.817154
-3.148468
-2.646793
-2.807996
-3.177801
-3.354803
-3.616276
-4.550947
-5.681966
-6.544094
-7.104767
-7.481986
-7.602244
-7.540338
-7.304008
-6.694324
-6.045951
-5.508810
-4.727925
-3.408290
-1.911328
-0.236072
1.713557
3.726379
5.537370
7.086885
8.277878
8.982673
9.647812
10.827198
12.348341
13.781143
14.851876
15.225877
14.818673
14.048110
13.243372
12.768138
12.867766
13.197596
13.363318
13.366545
13.194379
12.240364
10.569304
9.151983
8.962407
9.562741
9.939643
9.593052
9.090736
9.073973
9.635940
10.595763
11.710022
12.480912
12.469952
12.062103
11.888970
12.254588
12.611178
12.556693
12.433534
12.536064
12.408713
11.661364
10.405894
9.396746
9.233608
9.412871
9.428994
9.332273
9.706918
10.276623
10.267598
9.470275
8.651995
8.473704
8.401486
7.850808
6.623065
5.144485
3.777460
2.769280
1.826227
0.586877
-0.996810
-2.896137
-4.811908
-6.499088
-7.530482
-7.756813
-7.295439
-6.697685
-6.275322
-5.997723
-5.966769
-6.400411
-7.212887
-8.056315
-8.685017
-9.073198
-9.282119
-9.321129
-9.625806
-10.372832
-11.336197
-11.782414
-11.724699
-11.812716
-12.244745
-12.353396
-11.844950
-11.434839
-11.318768
-10.993452
-10.163561
-9.161179
-8.280024
-7.149322
-5.474711
-3.851686
-3.107879
-3.221365
-3.280042
-2.663910
-1.548039
0.301642
2.348639
3.919433
5.307743
6.833399
8.644068
9.891806
10.136841
9.609377
8.890401
8.098881
6.981081
5.782032
4.684544
4.032629
4.033276
4.494328
5.343241
6.879860
8.436791
9.036157
8.775328
8.359096
7.913203
7.730075
8.059905
8.978460
10.223618
11.342713
12.176151
12.662351
13.423890
14.601987
15.529891
15.428012
14.304408
12.813899
11.742203
10.919087
9.746476
8.110882
6.006823
3.723502
1.480805
-0.330181
-1.711715
-2.375237
-2.248204
-2.506776
-3.489486
-4.997728
-6.399896
-7.161109
-7.148855
-6.739389
-6.454374
-6.680383
-7.548959
-9.295463
-11.881528
-14.471785
-16.124790
-16.925659
-17.626904
-18.182095
-18.763079
-19.593611
-20.660792
-21.566768
-22.212557
-22.574624
-22.550441
-22.204812
-21.568368
-21.004467
-20.212298
-19.666129
-19.685149
-20.009816
-19.545863
-17.649754
-15.208769
-12.840650
-10.699831
-8.723764
-7.549859
-6.907612
-6.824427
-6.985631
-6.745754
-6.257619
-5.939396
-5.705000
-5.267807
-4.573329
-3.932048
-3.858214
-4.366010
-5.177197
-5.284236
-4.174813
-3.118588
-2.948030
-2.999291
-2.550169
-1.682555
-0.897479
-0.260068
1.220129
4.061550
7.329522
9.114075
9.259808
9.044117
9.181144
9.440688
9.391362
9.037678
8.560188
8.926450
10.052316
11.771098
13.656889
14.986196
15.125803
14.554814
13.618854
12.281490
10.794850
9.780222
9.474255
9.654163
10.230961
11.326842
12.884740
14.591915
16.531226
18.598858
20.532689
21.514436
21.099171
19.508715
17.605196
16.207864
15.453422
14.821174
14.187959
13.655981
13.055330
12.575905
12.122918
11.384597
10.228752
8.921050
7.386371
5.741104
4.234152
3.268530
2.887441
3.130220
4.298966
5.844290
7.005621
7.581774
7.729119
7.615632
7.330300
6.315993
4.618173
3.382692
3.448144
3.845359
3.442023
2.353240
1.034254
-0.313749
-1.197800
-2.301415
-3.932173
-5.208923
-5.910489
-6.949622
-8.102565
-8.329541
-8.364681
-8.226042
-7.413561
-6.603014
-6.361525
-6.149375
-6.256736
-7.038261
-6.843522
-5.279820
-4.811676
-5.940761
-7.157542
-7.579254
-7.576028
-8.105426
-9.595935
-11.103855
-11.804776
-12.089786
-13.110541
-14.816099
-16.318859
-17.413124
-18.296531
-18.031183
-16.391393
-14.932798
-13.803385
-12.106205
-11.072872
-9.194496
-4.265779
1.060149
3.341540
3.746815
3.620109
4.171436
6.401241
8.063923
6.872290
5.016166
5.897321
8.714560
9.580562
7.518738
6.359669
7.335935
7.713160
8.013651
9.744039
9.718893
6.657915
4.356539
4.776967
5.868012
6.936811
7.272122
6.433852
4.953661
3.845210
1.829814
0.941248
2.305377
2.808664
1.462918
1.276889
3.052093
3.891334
3.399335
3.008252
4.737351
7.382100
8.784918
9.436193
9.355914
8.958383
9.636095
11.279110
12.326952
13.373827
13.808763
13.964168
15.426632
16.254266
15.354094
13.099791
12.001335
14.298524
17.206684
18.461514
18.032064
16.290073
14.581291
14.861470
18.035942
20.609438
20.474672
18.838756
18.611457
19.948181
19.629640
15.121675
8.508037
3.773094
2.122991
3.406517
4.051021
1.692256
-1.375493
-3.978647
-6.624036
-8.253827
-8.091974
-7.715072
-8.219322
-9.527668
-9.893604
-9.794621
-11.046545
-14.411236
-17.676624
-18.097047
-16.652315
-14.935468
-15.479375
-19.003983
-22.374799
-22.167486
-19.141323
-16.751279
-16.271528
-16.501083
-15.983286
-14.606584
-12.242978
-8.126417
-5.777965
-6.508548
-7.505767
-7.217528
-6.696830
-5.689934
-4.478952
-3.545889
-2.290091
-0.575178
0.825705
1.093632
-0.061246
-2.226241
-2.801745
-2.016991
-1.570126
-2.050195
-3.128339
-3.966930
-3.785732
-3.000656
-1.559794
1.181034
3.902840
3.972161
2.765052
2.517764
1.895834
0.901195
1.025648
2.521320
3.691679
2.559370
0.268634
-0.979099
0.520120
1.645663
-1.046476
-5.658579
-7.557585
-6.664501
-5.937136
-6.926294
-8.012821
-6.961755
-5.448995
-4.035538
-3.087966
-2.820684
-1.571657
0.112949
0.821936
0.949291
2.106108
5.038127
7.967566
8.724592
7.546823
6.425476
6.388078
6.547352
4.684780
2.013597
-0.132375
-2.195811
-3.472561
-2.938321
-0.847799
-0.297116
-1.518733
-2.711334
-2.917675
-1.383313
-1.712494
-4.639026
-7.343417
-7.743851
-8.115590
-9.851777
-12.027412
-12.843757
-11.296498
-9.125373
-10.317973
-14.887518
-17.225971
-16.399949
-14.395832
-13.092640
-14.490294
-17.909473
-19.970007
-19.865220
-20.930145
-23.453018
-24.329654
-22.941667
-20.716699
-18.995660
-20.018672
-22.523812
-22.430632
-19.542462
-17.271066
-16.007208
-15.004826
-15.029327
-16.099410
-15.980116
-15.760551
-16.128743
-16.314450
-15.174076
-13.092903
-12.871081
-14.764605
-17.387103
-18.761221
-18.170560
-16.082616
-13.836691
-11.926719
-10.120564
-9.152358
-12.140793
-17.085626
-18.569687
-15.810482
-12.606025
-10.817925
-10.042843
-9.336113
-8.364361
-7.618942
-6.812909
-5.468448
-4.138818
-2.990705
-1.448283
0.272110
0.829563
-0.258898
0.226013
3.083554
5.328512
5.898539
6.351531
7.744676
9.288388
10.864341
11.671341
11.180632
10.941082
11.611057
12.572815
13.913407
15.158565
16.813831
18.160549
18.688663
19.548538
20.109538
20.161449
19.426674
18.606782
18.210218
19.114264
21.163195
21.287971
19.010454
16.539167
16.431806
17.712430
17.540264
14.498953
10.482989
8.866739
9.284265
9.979711
10.214752
10.184770
9.901372
9.017965
7.042226
4.739560
3.730090
5.188040
9.094066
14.849126
19.669835
20.713807
18.868000
15.482675
11.127534
6.067922
3.153641
3.922597
8.517939
12.701240
12.793774
10.868976
9.965902
11.194939
12.571642
12.260194
12.100602
14.173715
15.798675
14.904628
12.561661
10.969270
11.220431
11.536075
9.886940
6.600917
3.593781
0.743983
-1.844340
-3.671125
-3.764622
-1.534172
1.359157
3.462899
4.486560
4.363078
4.463351
5.526024
5.265517
2.343176
-2.644538
-6.963569
-8.721358
-8.887398
-9.335226
-8.940591
-6.781717
-5.230589
-5.793196
-6.893909
-8.208381
-9.798838
-11.064626
-10.610667
-7.948185
-5.172536
-5.370817
-8.495956
-11.944474
-13.851540
-13.166089
-10.602910
-8.889609
-8.705832
-8.253485
-6.168444
-3.334116
-1.749458
-1.551172
-1.847144
-2.951726
-4.679852
-6.241937
-6.500187
-5.616452
-5.491354
-5.556479
-5.554542
-5.809245
-6.101993
-4.364512
-0.417217
2.130164
1.886745
1.073946
1.798731
3.223795
3.139970
0.015799
-1.868053
1.131027
4.321298
2.788875
-1.879650
-3.851521
-0.925306
5.420091
11.103574
13.698350
12.710481
9.423169
5.910169
4.061138
3.801598
2.553865
-1.247372
-5.235930
-4.682668
-1.137099
0.431116
-1.852205
-5.374233
-6.826052
-6.584886
-7.233899
-9.060684
-11.581622
-13.205610
-12.852889
-9.609098
-4.574307
-1.290859
-1.037118
-3.652846
-7.926094
-11.546135
-13.701781
-15.714598
-17.723545
-19.701864
-21.880400
-23.108466
-21.919730
-18.545362
-16.285573
-15.079749
-13.234582
-10.917403
-9.439786
-8.766587
-6.355586
-1.037718
5.197413
9.933650
12.376247
12.401398
9.907864
5.038798
1.066038
-0.185563
-1.069293
-3.330689
-5.174240
-6.821441
-7.739024
-7.667446
-6.602194
-6.962970
-8.431233
-5.653972
-3.239103
-5.976380
-8.125254
-5.922855
-4.492632
-5.784213
-3.395136
0.895850
0.055001
-1.255602
0.790106
2.882241
4.945036
7.766467
7.499190
6.949802
9.391754
10.116861
12.012970
16.635718
20.166133
19.036726
18.158800
19.796978
18.689495
18.789767
21.415172
21.216891
16.745037
13.156269
10.152358
7.464410
8.252710
10.715296
12.065238
15.177485
20.677517
23.134300
21.575762
18.492214
17.206437
18.165616
19.602609
20.755557
19.456883
16.363664
14.631345
12.368337
8.459737
3.717056
-1.500860
-4.517346
-5.575500
-6.515651
-8.508801
-9.152978
-6.403122
-1.598212
2.984557
5.641558
6.414382
5.930122
4.968046
4.837149
5.243391
4.977403
3.891199
2.624767
2.212726
1.584347
0.324685
-1.669431
-3.984671
-6.353108
-7.441569
-6.815442
-5.315579
-4.088153
-5.777913
-11.628402
-16.685756
-15.875855
-11.213772
-8.609647
-10.835256
-16.710248
-21.441644
-22.583303
-21.972652
-20.209055
-16.384277
-10.913263
-6.868600
-5.448372
-5.146592
-4.581401
-1.269903
4.856897
8.623963
7.649636
5.186087
3.898053
4.511606
7.688013
11.604033
14.377103
15.933711
16.834855
16.031407
12.571282
9.402295
9.625407
11.223284
10.495924
8.409920
8.451836
11.597291
15.289880
17.115380
17.212751
17.210174
17.676707
18.757757
20.523289
21.076228
20.376918
20.564887
21.235507
20.329531
18.574321
17.310146
16.133021
15.382771
16.655979
16.933255
15.179658
13.575337
12.570059
10.677502
8.151727
6.431661
5.384146
4.168977
2.656866
1.422997
-0.390246
-1.656034
-1.519974
-0.436989
1.368844
3.716974
5.273583
4.816727
2.349309
-0.692647
-1.887827
-1.272340
-0.585599
-0.059098
0.670846
1.700955
2.831012
3.352032
3.526137
3.512598
3.052841
2.270671
1.011654
-0.422433
-0.908305
-0.015866
1.804798
2.777195
2.101099
1.031661
0.546110
0.613174
1.455317
2.574735
2.895215
2.209446
1.426310
1.054893
1.262207
2.082103
2.224934
2.471582
3.628399
4.743947
3.917285
1.290596
-1.002397
-1.567583
-0.834738
0.752822
3.727721
7.135942
9.161338
9.257741
8.820875
9.274512
10.712472
11.701635
10.412634
7.271374
4.802667
4.348391
5.465873
6.236119
5.549061
3.308298
0.310190
-1.936375
-3.917918
-6.485284
-9.010736
-9.550129
-8.008352
-7.201029
-8.377186
-10.665021
-11.914365
-10.940678
-8.576750
-6.268921
-4.737461
-4.120362
-4.501773
-4.352172
-1.947942
0.966344
2.229235
1.694356
0.042640
-2.492806
-5.117561
-6.790878
-7.317052
-7.388948
-8.304274
-9.447222
-10.000157
-9.739645
-9.715462
-10.464101
-11.462931
-12.547201
-13.478325
-12.607810
-9.911152
-8.232994
-8.619887
-9.501037
-9.092860
-7.735503
-6.735056
-5.944821
-4.647110
-3.061484
-2.255129
-1.613849
-1.180525
-1.747968
-3.306506
-4.699001
-4.315328
-2.670702
-1.304317
-1.289806
-1.580941
-0.819079
0.568263
2.333149
5.033354
8.205892
9.286297
7.471764
5.093977
3.725339
3.452581
3.392615
2.349614
0.724336
-1.013785
-2.804782
-4.000929
-3.488291
-1.469022
0.465776
1.928885
2.816488
3.730206
4.796748
5.619224
5.848139
5.862005
6.008705
6.254708
6.801199
7.253223
6.667403
5.639877
5.149169
6.006787
7.850342
8.144062
6.230226
3.890483
3.015137
3.629334
4.749074
5.080194
4.158097
1.893154
-0.897643
-2.891115
-3.888333
-4.691137
-6.036561
-6.896754
-6.923189
-7.063436
-6.844194
-6.680728
-7.187235
-6.872881
-5.925310
-6.099732
-6.588829
-6.243846
-6.322189
-7.286522
-7.577013
-6.722941
-6.669418
-7.702746
-8.320163
-6.561725
-2.920077
0.568747
2.184357
0.890519
-1.269640
-2.715011
-3.139948
-2.782391
-2.452238
-3.329197
-5.858195
-8.978820
-11.096421
-13.020897
-15.144946
-16.650286
-17.257385
-17.800325
-19.177023
-20.321583
-21.103108
-21.760182
-22.587489
-23.217158
-22.705809
-21.502242
-20.910291
-21.955227
-23.770082
-25.547861
-27.473626
-29.347806
-30.722569
-31.300651
-31.382219
-31.493449
-31.927413
-32.712485
-33.084224
-32.315591
-31.428955
-31.115568
-30.854734
-30.151228
-29.152393
-28.450822
-27.307546
-25.378551
-23.211939
-20.989550
-18.629491
-16.586362
-15.598812
-14.944312
-13.959341
-12.381131
-10.245793
-8.729486
-8.598262
-8.299061
-6.999093
-5.015611
-2.434054
0.408011
2.535611
3.285222
3.003114
2.985383
4.105446
5.291925
5.324168
5.530192
7.128714
9.274692
11.103416
12.522032
13.409635
13.904217
14.655118
14.201809
12.490447
11.651211
11.843048
12.075510
12.319256
12.861878
13.363231
13.693706
14.040946
14.185067
13.881357
13.230409
12.977963
13.381625
13.483832
13.072759
12.888664
12.908656
12.412789
11.377203
10.154296
8.857235
8.189521
8.181786
7.693656
6.190251
4.324132
2.635017
0.984914
-0.288290
-0.703554
-0.419507
0.022845
-0.037121
0.146011
0.854353
1.426960
1.453077
1.430833
0.819865
-0.367577
-1.197786
-0.451077
1.112302
1.692002
0.483281
-0.688685
0.372376
2.644094
4.027245
3.385647
2.686660
3.200587
3.698716
2.951690
2.206275
1.650761
1.088799
0.943716
1.766837
2.580608
2.481307
1.751691
0.955657
0.673872
0.190901
-0.426194
-0.507117
0.252811
1.194579
1.341279
1.361916
1.594700
2.068970
1.838126
0.671963
-0.265931
-0.494519
-1.013278
-2.643069
-4.537883
-6.151553
-6.913733
-7.565648
-8.116326
-8.124061
-8.071828
-8.878501
-9.414993
-9.362115
-9.771898
-11.279817
-13.162057
-14.101564
-14.738648
-15.533069
-15.686857
-14.500056
-13.086276
-12.575573
-13.201372
-13.644042
-12.521078
-11.018313
-10.613038
-10.736197
-10.620126
-10.033656
-9.098014
-8.227499
-7.520446
-6.702807
-5.500529
-4.258273
-4.139300
-4.758329
-5.147801
-5.254517
-5.204541
-4.847628
-4.169915
-3.881999
-3.817514
-3.442224
-2.779665
-2.865746
-3.958721
-5.016231
-4.975927
-3.684019
-2.090333
-1.570280
-2.454977
-3.301306
-2.697748
-1.066018
0.324871
1.138641
2.091694
3.638952
4.912483
5.735926
6.736696
8.118556
9.351140
9.506546
8.680850
8.200781
9.293116
11.435225
13.172061
14.122212
14.584231
15.065273
15.339325
15.270332
15.337718
15.630793
16.241444
17.392780
18.957449
20.368327
21.197896
21.718916
22.256057
23.032106
23.940665
24.148624
23.049845
21.728925
21.741824
22.254784
21.757627
20.283239
18.957160
18.495146
18.236251
17.690087
17.655269
18.088271
17.773277
16.904378
15.975189
15.214943
14.902206
14.733587
14.183876
13.093158
11.915067
11.271212
11.584599
11.608460
10.413925
8.817343
8.550710
9.509566
10.764074
11.178699
10.153431
9.573736
10.704115
12.331654
12.429347
11.392795
10.748618
11.209025
11.023962
9.297125
7.632191
8.050040
10.071889
10.973356
10.670613
10.538749
11.349618
12.228193
12.455174
12.088271
11.756189
11.661725
11.222602
10.630655
9.851387
9.455468
10.321792
12.109569
12.965898
12.369438
11.334820
9.964893
8.555632
7.573245
7.031595
6.536694
6.278122
6.107246
5.969901
5.723903
5.096491
3.537953
1.563503
0.686222
1.082469
2.455625
3.463810
3.679506
2.598783
0.638520
-0.605344
-0.594702
0.033037
-0.312264
-2.258019
-4.408184
-5.236781
-4.761865
-4.228593
-4.362714
-4.639664
-4.579048
-4.711234
-5.082651
-4.974963
-4.480703
-4.576134
-5.141965
-5.464697
-5.303811
-4.718308
-5.469526
-7.769612
-9.518696
-9.123416
-7.423657
-7.283405
-8.975100
-10.355666
-10.265388
-8.552088
-7.259857
-7.624825
-8.426340
-7.546797
-4.834986
-2.907604
-2.823129
-2.828608
-1.400642
0.754686
2.799748
3.596431
3.354947
2.954191
3.167630
4.658466
6.537164
7.583072
8.423603
9.821262
10.878131
11.301461
10.767226
9.618796
8.794713
8.774081
8.851463
8.535179
8.284022
8.268549
7.866503
6.676804
5.511609
5.034442
5.433268
5.050567
3.252154
1.859014
1.723603
1.924791
1.246438
0.168616
-0.892762
-2.374566
-4.040145
-4.365779
-4.139443
-4.449279
-3.866033
-2.301686
-1.140678
-0.740884
-0.108309
0.281812
0.408200
1.027878
2.432308
4.266513
5.094792
4.546372
2.772462
1.225531
1.438326
2.000937
1.082710
-0.454872
-1.739682
-2.357421
-2.032427
-0.990389
0.347624
1.639210
2.265659
1.515408
0.563005
0.468863
0.829000
0.200621
-1.118365
-2.190060
-2.411233
-1.598752
-0.660852
-0.117263
0.354428
0.887378
-0.059222
-2.009168
-3.108591
-3.308484
-3.309449
-3.590590
-3.765658
-3.134372
-1.423006
0.509857
1.036359
-0.062420
-1.435893
-1.355610
0.569193
2.608130
3.118833
2.531078
2.011030
1.917532
1.794051
1.846284
2.612015
3.714990
4.530372
4.908564
4.825707
4.406573
4.003883
3.279103
2.171619
1.242108
0.874560
0.531516
0.688855
1.507785
2.203552
2.195495
1.315634
0.503803
0.243618
0.947447
1.414624
1.481366
0.646643
-0.723929
-2.044849
-3.513756
-4.598993
-4.492272
-3.099127
-2.279553
-2.905675
-4.302362
-4.989098
-4.686028
-3.825507
-3.140057
-2.758318
-2.774114
-3.164553
-3.797446
-3.741666
-3.219678
-3.830647
-5.762538
-8.328614
-9.999996
-9.831695
-8.653598
-8.488521
-9.265854
-9.279716
-9.023396
-9.579877
-10.272416
-10.760545
-10.801167
-9.980625
-9.489589
-10.509699
-13.069327
-15.177255
-15.236577
-13.238908
-10.377821
-8.836688
-8.105455
-7.185288
-6.004612
-5.132808
-5.036404
-5.811158
-6.812568
-7.462226
-7.557658
-7.624717
-8.223756
-9.017855
-9.762947
-9.644942
-8.651910
-7.400949
-7.206854
-7.414485
-6.544615
-5.325894
-4.998321
-5.110841
-4.657849
-3.906949
-4.015599
-5.586389
-7.973849
-10.108537
-10.366465
-9.115503
-7.933538
-7.580816
-8.180178
-8.793081
-8.646059
-8.255293
-8.879481
-9.907006
-9.729677
-8.141472
-6.201193
-5.520579
-6.664495
-7.862254
-7.425060
-6.448472
-5.769147
-5.764308
-6.464908
-7.618496
-7.952512
-7.179366
-6.645126
-6.960443
-7.597527
-7.164525
-5.358692
-3.219485
-1.767339
-1.074150
-0.773015
-1.189891
-1.684147
-1.284031
-0.017916
0.223251
-1.190847
