EVENT_NAME: 202302060117
EVENT_ID: 13194
EVENT_DATE_YYYYMMDD: 2023/02/06
EVENT_TIME_HHMMSS: 01:17:32.00000
EVENT_LATITUDE_DEGREE: 37.288
EVENT_LONGITUDE_DEGREE: 37.043
EVENT_DEPTH_KM: 8.6
HYPOCENTER_REFERENCE: AFAD
MAGNITUDE_W: 7.7
MAGNITUDE_W_REFERENCE: AFAD
MAGNITUDE_L: 
MAGNITUDE_L_REFERENCE: 
FOCAL_MECHANISM: 
NETWORK: TK
STATION_CODE: 3142
STATION_NAME: 
STATION_LATITUDE_DEGREE: 36.49797
STATION_LONGITUDE_DEGREE: 36.36612
STATION_ELEVATION_M: 139.0
LOCATION: Kahramanmaras_Pazarck_Turkiye
SENSOR_DEPTH_M: 
VS30_M/S: 539
SITE_CLASSIFICATION_EC8: B
MORPHOLOGIC_CLASSIFICATION: 
EPICENTRAL_DISTANCE_KM: 106.49
EARTHQUAKE_BACKAZIMUTH_DEGREE: 
DATE_TIME_FIRST_SAMPLE_YYYYMMDD_HHMMSS: 2023/02/06 01:17:30.4077320
DATE_TIME_FIRST_SAMPLE_PRECISION: millisecond
SAMPLING_INTERVAL_S: 0.01
NDATA: 12501
DURATION_S: 
STREAM: HNZ
UNITS: cm/s^2
INSTRUMENT: sensor = GMS+/GEOSIG | digitizer = 
INSTRUMENT_ANALOG/DIGITAL: 
INSTRUMENTAL_FREQUENCY_HZ: 
INSTRUMENTAL_DAMPING: 
FULL_SCALE_G: 
N_BIT_DIGITAL_CONVERTER: 
PGA_CM/S^2: 505.895
TIME_PGA_S: 
BASELINE_CORRECTION: BASELINE REMOVED
FILTER_TYPE: BUTTERWORTH
FILTER_ORDER: 
LOW_CUT_FREQUENCY_HZ: 
HIGH_CUT_FREQUENCY_HZ: 
LATE/NORMAL_TRIGGERED: 
DATABASE_VERSION: 
HEADER_FORMAT: DYNA 1.2
DATA_TYPE: Acceleration
PROCESSING: Automatic Paolucci et al., 2011
DATA_TIMESTAMP_YYYYMMDD_HHMMSS: 
DATA_LICENSE: U (unknown license)
DATA_CITATION: Turkish Accelerometric Archive v 1.0 - Disaster And Emergency Management Presidency, Earthquake Department
DATA_CREATOR: AFAD
ORIGINAL_DATA_MEDIATOR_CITATION: : AFAD - Disaster And Emergency Management Presidency
ORIGINAL_DATA_MEDIATOR: AFAD PROCESS SERVICE
ORIGINAL_DATA_CREATOR_CITATION: AFAD PROCESS SERVICE
ORIGINAL_DATA_CREATOR: network: TK
USER1: GuestUser
USER2: 
USER3: 
USER4: 
USER5: 
[...]
-4.229283
-2.620281
-0.782684
3.892358
8.497264
7.394028
2.532990
-1.636546
-5.560601
-10.124464
-13.578340
-12.835144
-9.682342
-6.856847
-2.956952
1.769784
6.512366
9.283569
8.416203
5.776960
4.551115
6.798366
9.712442
11.563807
12.869399
12.183611
9.701008
7.424921
7.263085
8.208119
7.029292
3.636722
0.099980
-2.870467
-4.124887
-3.966689
-3.653410
-1.696059
0.293762
1.212300
2.147984
0.011132
-4.913030
-8.452629
-8.908262
-7.873867
-7.891533
-8.322488
-7.416419
-4.372719
-0.153309
4.127145
6.786389
5.406501
3.342644
3.205485
3.115605
4.691876
9.572135
14.664624
15.394051
12.150588
7.275523
-0.192546
-7.849466
-12.578283
-14.477966
-13.660997
-10.975517
-8.058844
-7.778036
-8.230812
-5.213868
-1.469315
0.687018
1.345529
0.818719
0.262814
-1.493477
-5.070223
-6.992247
-4.165193
-0.470515
0.537643
0.909111
2.852174
5.720011
6.449438
5.848594
5.278662
3.719534
1.962204
1.579305
3.598480
5.382305
4.387134
2.080913
-0.999935
-4.535638
-5.766419
-5.320658
-4.613830
-1.637151
1.629170
3.412476
3.468585
0.602825
-2.815982
-3.684387
-1.593776
0.335779
1.804506
3.438446
5.218634
8.709395
10.392171
9.972644
9.563509
10.224877
11.834658
11.138739
10.629074
9.963287
6.749698
1.676169
-3.385929
-4.031973
-2.328416
-0.284043
2.723809
5.588009
7.751875
5.689836
0.238606
-2.898093
-4.086792
-4.183946
-2.359337
-1.158431
-0.644091
-2.001380
-5.702554
-6.097921
-4.376960
-5.087426
-6.716951
-6.912038
-6.026750
-4.634394
-1.499256
2.397002
4.615939
5.817884
7.597813
7.911612
4.791019
0.079607
-3.279973
-3.684692
-2.725370
-1.263916
-0.059373
-2.015687
-7.394702
-11.942460
-10.441262
-3.769124
3.477621
6.924221
5.082985
1.387786
-2.645632
-6.237184
-7.577068
-6.696456
-4.145795
-1.836200
-1.136645
-0.660752
0.311299
2.603490
4.569933
2.443731
-0.364621
-0.903900
-0.830906
-0.611663
-0.196554
2.257472
6.055538
7.007847
5.103487
5.165830
6.854841
6.005399
2.077447
-4.054376
-5.677926
-1.119779
1.127472
0.062682
-1.866355
-4.746143
-8.154299
-10.641059
-11.534921
-11.468681
-9.476781
-5.719499
-0.795079
2.312264
0.877045
-3.660322
-9.237800
-12.253447
-10.260508
-3.596163
3.454457
8.178855
10.498322
7.481636
1.083811
-5.569626
-10.591200
-10.377932
-6.105010
-1.005247
3.545626
6.632188
6.013420
1.550086
-1.444259
-1.228913
-1.389710
-2.020947
-0.171660
4.450390
8.731624
9.659255
6.852981
2.819044
-4.014672
-13.636736
-17.497668
-14.929084
-12.124111
-12.693782
-13.027066
-6.346355
1.019883
0.803495
-0.870190
1.995828
3.877846
2.687329
4.314514
11.388254
13.734736
6.369276
1.068710
-0.510939
-2.482059
-3.588931
1.071564
11.169782
15.323989
9.867044
-2.492195
-13.429205
-17.252990
-16.925164
-12.923700
-7.460521
-1.273370
1.585116
-0.816959
-2.415312
-1.707446
-0.089092
0.084432
1.934238
7.088552
8.732882
5.346547
3.590255
6.257811
7.415336
7.620292
8.914195
8.910557
7.649643
3.278268
-0.461872
0.604994
3.345025
5.145736
4.586974
3.016416
3.614141
3.489711
-2.523138
-7.344431
-4.629338
-1.575507
-1.024280
-0.287320
1.229724
3.726353
8.028888
13.887433
16.300936
14.777916
12.613528
9.522289
7.288024
9.948826
18.403752
22.502369
16.481987
9.798677
4.794767
-3.121402
-12.841919
-16.677393
-10.527128
-2.391718
0.766800
0.593014
2.281505
3.197186
-3.361436
-11.804933
-17.882724
-21.102548
-18.093658
-13.225608
-7.106775
0.023074
2.156547
-0.587122
-7.146004
-11.896640
-10.055146
-6.064592
-1.123807
7.169283
16.849014
21.963843
21.372611
19.395256
17.123325
13.009639
5.989930
-0.271257
-0.858593
0.039423
-0.031494
0.229572
-2.399540
-6.998992
-8.814511
-7.776739
-6.795337
-4.397939
1.377480
6.992882
5.364396
-3.881265
-12.655966
-20.230540
-27.329479
-30.518650
-28.396867
-20.502261
-10.525615
-3.856594
-3.164313
-4.699802
-3.266404
-0.589756
1.868687
4.645605
6.134334
5.039931
0.219936
-5.547173
-6.791981
-4.396402
0.618676
6.900383
8.029853
2.065581
-5.207662
-5.580170
1.287313
7.174693
10.720264
14.665099
14.946687
8.335072
-1.097621
-6.701336
-10.221712
-14.458008
-13.596878
-6.571455
1.140794
4.172804
2.834479
0.602552
-1.058925
0.620474
1.557716
-1.694580
-3.337872
-1.994873
-0.970609
-2.255942
-0.749029
7.293905
9.005774
-2.118009
-10.992201
-8.559216
-3.409577
-4.255902
-8.138914
-6.671226
-2.918620
-3.272165
-2.232574
2.313104
4.535158
3.792740
5.276533
9.175130
10.672950
9.352549
6.050378
-1.112463
-10.332407
-13.604704
-12.621743
-11.218738
-1.827349
12.033607
20.405926
20.014455
13.678195
7.248158
-1.759035
-9.749498
-8.654057
1.302587
14.203180
20.569052
21.366019
17.506906
5.066879
-8.250904
-13.749412
-13.936966
-13.194810
-10.829883
-9.525589
-10.616875
-11.768687
-13.768382
-16.466072
-17.629054
-16.466334
-16.221114
-16.982754
-16.134873
-10.952244
-3.630166
-0.170058
4.962176
14.139775
19.935457
16.434044
7.902745
4.867096
6.999270
11.980839
19.572555
26.109355
25.883356
18.964436
12.615967
7.417230
2.081337
0.369725
3.291074
8.505654
13.980263
16.414807
14.605003
10.226094
5.357263
3.955814
3.831644
4.433266
12.928195
21.019965
17.788711
11.426994
10.061393
6.259429
-7.323317
-15.482369
-10.704718
-4.983331
-1.875208
-1.872352
0.040838
2.353031
0.227609
0.543746
-0.282836
-4.689281
-9.184825
-10.219482
-7.762078
-8.731273
-8.242651
-3.233027
0.690767
-0.439744
-5.416899
-8.486058
-10.905277
-13.735709
-14.472152
-9.906212
-1.512592
3.882527
4.268281
-1.095408
-5.686287
-1.717294
5.542180
7.057925
4.956141
8.520416
10.702726
4.564149
-2.204625
-6.846938
-8.849750
-10.505771
-13.101633
-13.514405
-15.331483
-16.877362
-10.965305
-1.043990
4.945998
4.801306
2.903181
4.367232
2.922922
-5.822426
-8.001360
-0.209363
3.945365
-0.238458
-9.065373
-16.346150
-20.087848
-23.304295
-22.511224
-10.033793
7.239474
10.910774
0.910227
-10.506054
-14.532458
-10.544762
-6.105848
-0.288087
7.042563
11.104813
11.548236
5.781647
-7.396900
-21.214996
-23.009214
-12.709157
-1.608495
12.806026
26.418903
28.597576
22.338727
13.008901
9.703613
9.708288
9.389812
14.117067
18.390509
18.892899
13.125011
4.099633
-2.518735
-5.864287
-3.061911
1.310761
9.591642
24.535830
32.415889
22.183110
3.561126
-8.281694
-14.649646
-14.062052
-4.492722
7.349058
18.255153
24.907549
24.209032
14.135231
0.003336
-12.038207
-17.937537
-7.931018
8.900903
16.052833
12.989908
-0.966904
-21.373753
-31.008286
-25.595503
-19.673055
-12.384747
-3.257283
0.466490
1.036419
-7.956227
-20.151813
-25.150268
-19.528112
-2.971285
14.863341
29.308775
29.558930
23.009660
16.491303
6.467637
4.193368
5.819515
15.237140
28.774165
33.155670
31.704086
22.294252
10.455328
-4.070896
-21.475867
-30.026389
-27.237262
-15.056745
-3.143788
1.634901
-1.912231
-9.314578
-14.924267
-24.385795
-32.035702
-32.784873
-28.375833
-20.126904
-13.841820
-11.910446
-14.790234
-12.555971
-7.625837
-4.874636
7.505383
18.807105
18.772555
15.237892
7.291591
-5.438597
-12.989532
-11.733815
-3.921555
12.371608
31.348173
41.932416
37.010073
23.660858
11.574895
-1.719509
-12.450003
-14.855715
-2.814174
15.251126
18.662657
9.530255
-2.204762
-7.297253
-8.453481
-16.728389
-22.058048
-19.766377
-16.562919
-16.790217
-22.708771
-23.266753
-14.640640
-3.503351
2.257001
-1.329355
-3.601287
-3.603106
-5.847502
-3.883657
6.987889
17.710589
15.981053
6.747342
3.141242
1.716934
-14.506873
-28.864766
-16.549430
-1.915924
-4.623226
-6.653833
-2.916293
-5.172898
-10.829865
-12.722795
-7.778892
0.576802
6.557957
8.905479
5.399391
0.661742
-2.581201
-4.791568
-2.029976
5.119097
12.443512
13.431928
8.838970
3.526716
-1.056890
-0.237843
2.872617
2.349444
1.425189
0.205317
0.534183
0.648740
-8.352220
-12.789836
-8.976704
-10.233462
-9.263489
-4.993425
4.799045
18.160208
16.839806
10.209749
10.487959
7.532579
-8.131428
-25.724991
-26.344798
-17.475543
-9.337534
-7.597609
-9.133618
-3.069597
-0.230594
-5.197098
-10.166978
-9.490024
2.066530
11.374274
14.371216
17.103973
8.736588
-3.866314
-18.142121
-29.004837
-24.706718
-7.397083
7.025491
1.157592
0.162161
-0.328022
6.177865
30.169250
31.731233
17.974703
9.805780
23.513992
26.454564
-7.455542
-10.805769
18.068214
28.300991
20.045046
4.491700
-9.939188
-9.590321
-15.807088
-44.563138
-55.701468
-29.956129
6.914030
18.310307
8.624860
-3.563972
-11.698605
-12.301008
-29.447250
-49.620828
-67.421426
-82.619149
-54.823463
-6.750812
5.676485
-16.949562
-44.567829
-56.147245
-64.390721
-80.274751
-20.254594
74.244560
75.496640
44.479050
24.591217
0.319800
-26.891410
-18.553380
40.104034
92.643395
133.837131
138.264096
85.548611
21.482307
-23.375718
-54.759581
-39.843188
22.219784
89.565656
109.205929
55.892978
-17.310663
-89.494455
-96.025021
-82.487736
-91.265296
-60.546181
0.199248
83.622937
103.805864
71.443976
39.947114
18.260907
1.329233
-57.479108
-66.072752
1.512367
53.773516
53.729614
15.525285
20.435158
43.287980
-13.133354
-66.357984
-84.146373
-55.470073
24.231401
37.037439
32.604498
18.245826
-1.571610
-9.187227
-41.482096
-19.494820
-1.625646
20.551520
49.671504
3.117194
-27.723753
-39.840109
-50.944929
-21.492963
-19.808888
-45.728792
-5.821686
51.588583
59.864528
42.917008
-1.724110
-3.481701
24.004342
4.174957
-11.369297
-9.849656
67.589240
122.049064
44.820579
-18.400700
-26.714053
2.958197
-3.039326
-64.747457
-97.515883
-50.962095
19.514760
8.152511
-19.767087
7.102267
88.653808
92.045597
14.353946
25.925567
19.939474
-57.288492
-110.326089
-96.417336
1.107854
45.454914
44.484420
89.275423
43.439632
-40.961306
-35.483061
-48.250395
-83.165803
-25.357050
33.538572
26.347415
4.032051
-44.755743
-27.697044
35.340318
38.134640
30.267827
53.856053
52.808408
41.598122
34.034459
-17.204505
6.440090
16.754174
-28.135542
8.733059
43.473640
67.001600
104.190234
98.960066
18.549164
-14.810753
15.374279
27.902365
61.402296
67.714136
49.389326
-5.039588
-84.570396
-90.532590
-41.265526
4.067093
9.348433
8.493796
47.408848
0.122513
-74.476081
-16.695643
8.768106
-66.903849
-150.534834
-118.189572
-27.657335
35.555630
130.833308
122.443323
64.242578
8.426244
-132.896859
-212.816020
-196.329071
-194.914375
-179.608331
-84.971500
14.385573
1.823196
-14.896508
-8.946005
-18.264920
38.346302
26.219815
37.218129
85.684068
20.693250
5.422272
30.660024
40.700833
3.643639
-66.899979
-43.408647
-4.344488
-16.348364
-10.845182
21.521381
36.183721
80.491815
126.059005
26.789731
-32.346957
1.015556
-37.884432
-8.907061
38.862181
-57.955923
-87.871837
46.225040
56.842793
-49.810384
-33.754649
3.252928
-19.944608
0.019075
-14.678335
-87.001363
-67.560852
-40.527844
-82.507900
-117.560205
-95.289782
11.946832
40.368039
83.646933
271.236000
278.771087
90.655209
-35.939053
-11.066275
38.787085
-14.726926
-30.844488
49.456531
107.105786
29.247883
-12.864395
0.356233
-66.954572
11.429618
56.053071
-21.196195
31.065733
26.431732
-79.126523
-115.141528
-166.922888
-227.079425
-177.517005
-39.080185
92.880620
41.102638
47.087690
168.441391
151.382691
104.933328
-27.219708
-132.211669
-103.779551
-52.434084
-30.844513
-53.819947
-14.869567
34.562710
66.734447
-12.871175
-154.124660
-118.707382
7.624252
77.997979
89.097082
190.333057
222.839895
68.511251
-55.434157
-243.134926
-314.049492
-211.786654
-144.115553
-40.311772
-22.461041
59.781223
215.111011
205.337501
148.219989
21.779251
-166.176091
-162.133843
29.728926
4.653787
-103.253809
75.359756
185.407579
121.185414
74.860999
53.131152
29.319005
46.555904
121.322827
-7.548041
-118.226322
-23.841207
85.856968
135.938664
-57.715726
-185.430366
6.317066
152.195457
72.852981
-26.047682
-20.013274
-18.789249
-60.636823
-165.967002
-217.472748
-143.381742
44.911037
281.040338
224.531202
77.221228
51.334574
-43.030021
-130.657795
-27.272241
217.533828
164.797042
-45.881758
-61.641100
-16.076768
3.721444
-57.360387
-27.191980
82.964425
51.293519
28.908277
86.509995
30.975249
-49.834397
-31.271901
-83.813082
-143.682056
-146.796674
-149.523459
-38.620221
165.968579
263.598195
119.123069
-147.628716
-264.466614
-122.507082
48.261493
36.048243
-64.570525
97.138124
368.352979
274.834968
121.449022
14.913779
-96.565106
-57.238062
-76.425561
-128.629822
23.172576
289.412357
333.037781
244.110128
164.632313
-58.529635
-260.091621
-300.352013
-254.916006
-182.197874
-92.283884
69.009396
220.864008
145.538323
27.624466
117.563394
119.777135
-23.861019
-33.658167
44.994623
80.580490
57.677271
-8.827475
-99.750665
-135.740732
-148.125428
-177.578436
-31.455603
34.750148
19.346429
103.790226
-69.057273
-219.956721
-177.253473
-77.569092
17.965757
-61.562714
-10.724573
15.576668
-68.465789
129.376318
188.048279
-18.230312
-121.012168
-145.670898
-164.380684
-223.772724
-182.225963
-119.158988
-46.664515
98.815132
55.429472
84.347356
142.613300
58.841261
103.442634
69.481354
-75.108850
-157.323840
-90.292807
132.255568
168.739192
77.717810
17.158892
-26.148318
37.760305
22.027980
-65.384447
-104.429126
-53.181071
53.158044
12.988571
-9.262111
55.903529
39.705439
-83.325066
-206.131132
-210.105063
-100.864080
81.781864
124.762284
29.274452
189.318767
505.894558
394.032255
174.820078
188.056032
54.623899
69.014002
186.004642
92.805365
-18.516101
-92.526581
-90.857313
-57.917702
23.524217
10.568031
-107.384791
-91.943667
-7.867701
-27.994781
-198.358639
-334.991372
-345.290392
-250.217930
-157.136070
-54.730620
60.605038
-7.251020
-47.880283
-3.462047
-21.180559
6.360036
-33.028056
-136.983283
-45.515361
120.688052
148.397495
140.147265
118.806550
92.478291
161.514732
191.422852
74.472474
-55.661125
-93.143300
-47.650404
-54.653228
-107.465347
-40.303131
73.622767
133.619805
118.189070
7.495722
-103.582082
-170.124234
-173.580187
-113.089331
-110.743108
-133.894405
-119.638862
-88.009261
12.391300
71.483826
28.526264
-6.489154
-9.995243
2.006294
17.325846
31.580610
38.902168
62.645735
91.868067
87.255886
61.599127
24.493357
39.259344
23.880043
-101.697747
-121.590775
-67.503977
-57.857496
4.444462
48.278480
77.250915
137.265877
125.196019
40.759754
-38.494921
-88.700269
-137.414808
-200.632710
-242.874093
-162.993379
-47.552774
41.241876
106.776906
-0.044861
-78.766492
-4.933175
83.626385
115.777340
58.776204
34.658570
-68.811930
-182.309992
-104.448455
-73.712195
-76.399755
-31.294433
-16.293616
61.485575
142.552130
126.669658
67.979511
-4.723557
-37.976969
-0.350366
59.860461
91.996350
61.637012
32.916810
-20.497711
-104.350278
-72.850041
0.217999
32.172310
70.642121
134.148103
185.005207
144.258529
18.786984
-91.126280
-111.408960
-124.108496
-118.856509
-34.028255
36.603681
87.810692
103.049717
26.801856
-53.944926
-79.957048
-81.151461
-38.538613
38.266968
74.640711
76.361673
73.823479
65.754048
36.373775
-34.846538
-103.309933
-99.404323
-74.972112
-85.376598
-21.672152
89.440199
156.562411
150.010024
56.888159
-10.251460
-35.743007
-41.971203
-85.502593
-134.688871
-82.556047
-18.700936
54.167082
110.053293
56.512525
7.987097
36.330374
32.798309
51.733311
68.706027
-24.394018
-94.267954
-57.312850
7.187264
3.005779
13.993442
16.695807
55.594494
99.798681
20.762211
-23.251308
-70.648045
-63.390909
23.589521
71.670225
73.448076
49.785295
40.489759
57.538587
44.662410
15.127315
-32.842989
-145.333671
-79.253128
-35.786942
12.696922
168.386748
147.871575
182.154186
134.707574
136.270857
249.404982
191.986399
276.399023
125.768955
-131.975377
83.463150
119.714282
-34.191979
-54.574410
-82.818458
3.192519
82.085075
102.725974
36.223826
-18.442256
65.221198
61.741346
73.896146
38.187667
-150.769080
-131.257393
-19.529651
-87.776660
-161.772333
-123.418120
-33.438668
0.639246
65.698641
183.299995
240.959900
177.492102
7.033169
-32.822505
-10.386091
-50.263325
-20.547175
-35.499417
-22.380359
46.992483
23.360355
39.209314
-63.061837
-214.639279
-233.867302
-279.010292
-294.126967
-315.789535
-319.427586
-215.387156
-88.098277
-29.721672
63.901804
150.702216
18.480602
-153.706827
-268.876235
-204.063620
-25.257826
52.477984
143.548201
105.496875
-58.332261
-164.560977
-92.637734
29.499168
-7.515944
20.445734
46.101193
-20.596560
-84.964455
-150.647035
-183.795761
-210.679144
-151.561940
-31.430447
57.964787
75.143239
90.034954
153.999427
79.581631
61.270069
195.671914
175.104008
114.945133
80.168182
-36.361631
-88.000118
8.014781
72.249413
-12.751588
-17.813686
47.004384
66.474509
51.829832
23.126774
93.327496
96.660837
19.399102
-16.873853
-72.909172
-85.276724
-60.803729
-80.881193
-7.818608
165.000575
208.164911
181.329065
150.922709
-1.610159
-172.323924
-149.394210
-83.756312
-132.834007
-138.029366
-120.968849
-100.976851
-36.279572
47.826007
66.145619
15.636343
122.249255
202.278555
144.229516
91.557152
-23.087006
0.579150
86.667798
107.684840
168.920971
68.355455
-48.506341
-51.290795
-56.393157
-2.030486
52.482332
9.381637
-78.674495
-88.117579
-70.565841
-123.252232
-177.087056
-122.595540
-45.121057
-74.364951
-102.027119
-88.680763
-72.319801
-47.976430
-25.675095
-10.801304
-34.011050
-43.452835
-1.894125
11.129599
-12.083783
-12.886727
-16.058234
-26.012022
-18.196126
-16.272285
-35.533039
-131.609505
-154.722617
-26.866145
20.686971
29.916264
-10.430891
-136.371056
-120.647825
-17.152908
24.463211
12.937827
-8.682658
-14.674985
-17.039394
-34.671402
-36.330801
12.942758
-2.181192
-63.082224
-112.280451
-126.541970
-45.613093
-38.661445
-45.272020
45.540767
85.034583
46.245256
-61.495569
-141.898938
-198.489381
-270.929044
-210.298432
-103.535895
8.838149
166.449738
248.438988
285.033534
194.085406
115.941499
179.775309
34.139539
-102.061460
-36.301991
27.161910
151.817262
201.427219
161.640644
189.598945
184.911432
97.894112
-7.916118
-71.849421
-92.934784
-38.447684
13.819180
-47.258754
-67.219841
-20.353033
-4.079093
-44.226486
-103.924533
-106.520395
-84.378297
-91.375667
-126.862564
-86.465275
14.518465
44.220588
3.012822
6.600476
86.372607
68.655394
47.598865
156.567872
224.218192
246.238718
223.578382
114.500271
88.821951
125.497544
116.734273
122.399810
64.547155
19.612758
70.495838
123.893992
115.541413
1.901778
3.565850
46.865006
-32.729705
-54.488127
-131.280202
-268.024895
-167.023751
66.107829
154.978850
56.749687
-111.058574
-132.918045
-69.106835
-54.666597
-70.997947
-135.476243
-102.342326
-19.076317
9.965476
102.978238
147.261135
178.471990
198.357483
71.686590
-16.276025
76.125503
151.123878
-0.366541
-89.438885
-1.363013
148.134465
288.906079
201.340130
61.561347
16.059877
10.441096
45.118814
-3.824061
-129.426529
-113.021146
9.131082
15.115355
102.835605
101.940184
-207.828650
-245.753728
-143.488034
-238.390089
-193.788197
-152.306638
-55.524384
183.036865
81.325513
-79.335753
-0.273828
