EVENT_NAME: 202302060117
EVENT_ID: 13194
EVENT_DATE_YYYYMMDD: 2023/02/06
EVENT_TIME_HHMMSS: 01:17:32.00000
EVENT_LATITUDE_DEGREE: 37.288
EVENT_LONGITUDE_DEGREE: 37.043
EVENT_DEPTH_KM: 8.6
HYPOCENTER_REFERENCE: AFAD
MAGNITUDE_W: 7.7
MAGNITUDE_W_REFERENCE: AFAD
MAGNITUDE_L: 
MAGNITUDE_L_REFERENCE: 
FOCAL_MECHANISM: 
NETWORK: TK
STATION_CODE: 2305
STATION_NAME: 
STATION_LATITUDE_DEGREE: 38.72778
STATION_LONGITUDE_DEGREE: 40.13103
STATION_ELEVATION_M: 600.0
LOCATION: Kahramanmaras_Pazarck_Turkiye
SENSOR_DEPTH_M: 
VS30_M/S: 907
SITE_CLASSIFICATION_EC8: A
MORPHOLOGIC_CLASSIFICATION: 
EPICENTRAL_DISTANCE_KM: 314.34
EARTHQUAKE_BACKAZIMUTH_DEGREE: 
DATE_TIME_FIRST_SAMPLE_YYYYMMDD_HHMMSS: 2023/02/06 01:18:03.6753960
DATE_TIME_FIRST_SAMPLE_PRECISION: millisecond
SAMPLING_INTERVAL_S: 0.01
NDATA: 18251
DURATION_S: 
STREAM: HNZ
UNITS: cm/s^2
INSTRUMENT: sensor = CMG-5T/GURALP | digitizer = 
INSTRUMENT_ANALOG/DIGITAL: 
INSTRUMENTAL_FREQUENCY_HZ: 
INSTRUMENTAL_DAMPING: 
FULL_SCALE_G: 
N_BIT_DIGITAL_CONVERTER: 
PGA_CM/S^2: 43.575
TIME_PGA_S: 
BASELINE_CORRECTION: BASELINE REMOVED
FILTER_TYPE: BUTTERWORTH
FILTER_ORDER: 
LOW_CUT_FREQUENCY_HZ: 
HIGH_CUT_FREQUENCY_HZ: 
LATE/NORMAL_TRIGGERED: 
DATABASE_VERSION: 
HEADER_FORMAT: DYNA 1.2
DATA_TYPE: Acceleration
PROCESSING: Automatic Paolucci et al., 2011
DATA_TIMESTAMP_YYYYMMDD_HHMMSS: 
DATA_LICENSE: U (unknown license)
DATA_CITATION: Turkish Accelerometric Archive v 1.0 - Disaster And Emergency Management Presidency, Earthquake Department
DATA_CREATOR: AFAD
ORIGINAL_DATA_MEDIATOR_CITATION: : AFAD - Disaster And Emergency Management Presidency
ORIGINAL_DATA_MEDIATOR: AFAD PROCESS SERVICE
ORIGINAL_DATA_CREATOR_CITATION: AFAD PROCESS SERVICE
ORIGINAL_DATA_CREATOR: network: TK
USER1: GuestUser
USER2: 
USER3: 
USER4: 
USER5: 
[...]
0.330826
0.280117
0.394288
0.496638
0.403620
0.162522
-0.062089
-0.140174
-0.040935
0.148832
0.248693
0.186785
0.027504
-0.168486
-0.371942
-0.614907
-0.822407
-0.856628
-0.776055
-0.762989
-0.853207
-0.899872
-0.765168
-0.509760
-0.285773
-0.199600
-0.284529
-0.396212
-0.409590
-0.301018
-0.099430
0.081316
0.178999
0.244328
0.339212
0.510313
0.752033
1.022062
1.302047
1.495858
1.514523
1.392574
1.096101
0.546086
-0.064282
-0.439462
-0.592521
-0.680250
-0.755535
-0.808110
-0.744336
-0.587234
-0.475552
-0.416755
-0.397157
-0.393424
-0.447866
-0.606835
-0.772649
-0.883710
-0.944374
-0.988861
-1.118899
-1.314266
-1.441815
-1.491280
-1.530789
-1.588031
-1.677626
-1.803931
-1.950146
-2.120315
-2.268396
-2.319416
-2.216444
-2.067119
-2.061209
-2.118450
-2.075209
-1.945172
-1.802069
-1.709985
-1.699720
-1.679188
-1.559417
-1.388004
-1.224369
-1.036780
-0.809059
-0.628003
-0.523787
-0.339619
-0.027281
0.293768
0.539221
0.627571
0.565663
0.451180
0.331719
0.309320
0.478555
0.707520
0.860578
0.990615
1.163272
1.268110
1.187536
0.982214
0.824800
0.818577
0.855908
0.762891
0.509348
0.190476
-0.055600
-0.044089
0.239006
0.660538
1.140245
1.574532
1.839273
1.833673
1.545599
1.127488
0.761019
0.528942
0.441835
0.442768
0.462989
0.527696
0.697553
0.918430
1.080820
1.143661
1.168548
1.165126
1.088907
1.005534
0.993089
1.003977
0.904427
0.696615
0.543246
0.536712
0.616663
0.677948
0.636572
0.466403
0.295612
0.268858
0.366541
0.481023
0.604527
0.844380
1.255335
1.716999
2.059824
2.238081
2.304655
2.297499
2.187682
2.016269
1.827123
1.588825
1.281774
0.961347
0.769090
0.760068
0.803621
0.792732
0.710292
0.579010
0.412885
0.184852
-0.090778
-0.396272
-0.736610
-1.047082
-1.178676
-1.135434
-1.093437
-1.084104
-0.928246
-0.647018
-0.476538
-0.517603
-0.642353
-0.683417
-0.608444
-0.363613
0.080318
0.521760
0.676062
0.538869
0.310837
0.182355
0.237729
0.367766
0.418163
0.316124
0.079692
-0.205582
-0.417438
-0.493034
-0.496146
-0.546232
-0.669426
-0.740978
-0.669427
-0.490859
-0.317891
-0.246651
-0.307937
-0.493660
-0.742225
-0.980524
-1.140427
-1.106207
-0.798535
-0.366736
-0.080841
-0.017689
-0.130617
-0.344339
-0.533796
-0.678766
-0.744719
-0.662279
-0.522287
-0.503000
-0.709878
-1.076969
-1.323979
-1.263627
-1.057372
-1.029996
-1.361623
-1.905727
-2.341881
-2.518894
-2.558093
-2.591380
-2.596047
-2.492453
-2.298020
-2.106075
-1.973860
-1.809603
-1.540196
-1.295676
-1.234391
-1.352296
-1.545486
-1.755786
-1.950531
-2.044482
-1.967020
-1.852538
-1.904491
-2.107014
-2.280294
-2.312959
-2.187588
-1.918181
-1.505360
-1.025031
-0.674117
-0.580167
-0.728559
-0.950992
-1.044943
-1.010100
-1.072631
-1.388392
-1.829524
-2.154618
-2.283722
-2.277501
-2.178262
-1.991295
-1.764819
-1.629182
-1.688290
-1.883347
-2.022406
-1.996275
-1.836373
-1.667138
-1.612697
-1.614564
-1.514392
-1.285427
-0.989577
-0.682838
-0.402854
-0.179489
-0.113537
-0.232686
-0.396322
-0.456053
-0.342815
-0.111984
0.123826
0.398210
0.783967
1.184033
1.447219
1.535569
1.487971
1.348601
1.186831
1.087281
1.089769
1.147943
1.173764
1.144209
1.130210
1.180918
1.314066
1.466501
1.447524
1.180294
0.812580
0.514862
0.385447
0.423089
0.531038
0.656409
0.777113
0.890040
0.964391
0.950391
0.917104
0.928614
0.867950
0.654539
0.406285
0.232072
0.151498
0.183852
0.325710
0.528854
0.717066
0.828748
0.959719
1.181528
1.397739
1.511288
1.500399
1.376894
1.218858
1.131129
1.107485
1.125217
1.185258
1.211078
1.154148
1.032198
0.865140
0.704926
0.605065
0.612531
0.738212
0.905892
0.996420
1.020685
1.118057
1.398974
1.872771
2.430562
2.893470
3.172521
3.310335
3.417351
3.582542
3.732800
3.749910
3.559831
3.198028
2.769340
2.397582
2.233946
2.345939
2.598547
2.790181
2.894708
2.951327
2.956615
2.900307
2.765602
2.551258
2.328203
2.119147
1.893604
1.647528
1.411718
1.230350
1.133910
1.109333
1.086934
0.967784
0.681266
0.315730
0.023612
-0.149046
-0.208776
-0.174556
-0.037053
0.248531
0.575180
0.772413
0.895295
1.107150
1.391801
1.664941
1.835109
1.855952
1.724981
1.456506
1.138879
0.893425
0.904935
1.213229
1.593074
1.784397
1.716578
1.549209
1.422904
1.302199
1.126431
0.948795
0.871955
0.869155
0.830890
0.723873
0.605034
0.567080
0.634899
0.721071
0.694317
0.477484
0.164833
-0.055733
-0.115774
-0.093998
-0.135374
-0.242702
-0.268834
-0.187639
-0.153419
-0.289057
-0.527044
-0.710590
-0.745744
-0.682592
-0.644328
-0.681038
-0.696282
-0.635930
-0.635308
-0.805788
-1.057775
-1.202745
-1.137416
-0.963204
-0.944227
-1.151416
-1.404025
-1.555529
-1.616192
-1.599394
-1.506377
-1.382873
-1.229193
-1.096978
-1.058714
-1.094801
-1.163242
-1.227950
-1.231995
-1.127779
-0.951389
-0.826641
-0.810464
-0.861484
-0.933969
-1.028231
-1.124671
-1.151114
-1.056231
-0.811711
-0.480707
-0.248943
-0.208812
-0.237433
-0.204457
-0.124506
-0.093709
-0.102420
-0.036157
0.126234
0.269337
0.306357
0.243826
0.129032
-0.024338
-0.152198
-0.106779
0.104765
0.278666
0.233868
-0.048606
-0.473872
-0.886072
-1.173835
-1.320672
-1.377602
-1.357070
-1.268098
-1.213346
-1.281787
-1.418358
-1.482132
-1.436091
-1.346807
-1.210548
-0.916876
-0.439035
0.045027
0.284880
0.214572
-0.064168
-0.347265
-0.421305
-0.300290
-0.150965
-0.056393
0.026358
0.166350
0.332785
0.407447
0.392203
0.423001
0.534683
0.639521
0.631433
0.474641
0.273051
0.184389
0.197766
0.238207
0.356423
0.574811
0.854795
1.161222
1.451473
1.746701
2.111925
2.429241
2.565500
2.567366
2.557099
2.638295
2.821840
3.021873
3.136666
3.092180
2.878146
2.580429
2.329375
2.204626
2.111297
1.905975
1.550083
1.093707
0.613377
0.167579
-0.150671
-0.231867
-0.161872
-0.206358
-0.463012
-0.814860
-1.091734
-1.110089
-0.762597
-0.185518
0.273346
0.424537
0.428581
0.455646
0.483022
0.460934
0.442890
0.555506
0.804070
1.029924
1.199470
1.339151
1.366215
1.335728
1.318617
1.199779
0.861308
0.431686
0.185921
0.194632
0.322802
0.423907
0.409908
0.318757
0.236938
0.153876
0.000817
-0.221616
-0.390851
-0.404540
-0.328945
-0.286014
-0.346989
-0.503159
-0.612975
-0.595243
-0.460851
-0.234375
0.030055
0.294174
0.546160
0.745571
0.878096
1.048887
1.304606
1.455175
1.337892
1.047018
0.769833
0.631707
0.630151
0.634195
0.557354
0.473047
0.391229
0.184351
-0.217894
-0.747377
-1.250417
-1.609109
-1.817232
-1.924871
-1.946025
-1.909939
-1.916161
-2.083530
-2.420757
-2.824558
-3.166451
-3.326042
-3.145297
-2.652213
-2.165040
-1.927053
-2.112466
-2.654392
-3.261960
-3.695937
-3.814153
-3.638385
-3.457640
-3.322314
-3.127881
-2.954290
-2.714126
-2.416720
-1.981811
-1.318870
-0.614864
-0.205153
-0.258973
-0.554513
-0.810233
-1.040132
-1.298340
-1.442066
-1.360249
-1.019601
-0.518429
-0.098763
0.107492
0.100026
-0.087876
-0.332085
-0.538963
-0.660601
-0.723132
-0.661224
-0.443148
-0.264580
-0.131432
-0.114011
-0.389330
-0.694514
-0.778199
-0.525902
-0.029707
0.521552
1.176405
1.811659
2.295099
2.572595
2.610237
2.528418
2.550194
2.782581
3.153405
3.476321
3.518629
3.278775
2.897995
2.456552
2.049641
1.708370
1.440517
1.218084
0.948988
0.724066
0.659980
0.642247
0.525276
0.353551
0.232535
0.173116
-0.043406
-0.471472
-0.889583
-1.256675
-1.477552
-1.650210
-1.956949
-2.196804
-2.222625
-2.153251
-2.022281
-1.795805
-1.509598
-1.284367
-1.177973
-1.042647
-0.939986
-0.823638
-0.781018
-1.109845
-1.464493
-1.528268
-1.428718
-1.186998
-1.036118
-1.043896
-0.909814
-0.692049
-0.559523
-0.581611
-0.767957
-1.005011
-1.081852
-1.002834
-0.759559
-0.434777
-0.277053
-0.245010
-0.359805
-0.489842
-0.386871
-0.186526
0.032484
0.472993
0.896080
1.042605
1.087714
1.236727
1.699324
2.213251
2.407063
2.305957
2.065169
1.836204
1.740075
1.736030
1.688121
1.498665
1.230501
1.155216
1.238900
1.140594
0.827943
0.630087
0.663996
0.761057
0.793099
0.831986
0.908514
1.082416
1.358978
1.423063
1.165788
0.796207
0.512800
0.209483
-0.166319
-0.430750
-0.471504
-0.186231
0.246812
0.497865
0.512797
0.467377
0.458666
0.519640
0.534261
0.297207
0.050197
0.032465
0.186145
0.351335
0.412932
0.489460
0.585899
0.539235
0.307469
0.125790
0.166231
0.266403
0.370619
0.465503
0.589629
0.831038
1.008361
0.906322
0.600516
0.272311
0.018458
-0.170688
-0.378188
-0.561423
-0.599066
-0.406810
-0.088872
0.188623
0.314305
0.254263
0.111471
-0.063987
-0.161671
-0.204291
-0.347706
-0.341796
-0.110653
-0.131497
-0.368240
-0.261224
0.181774
0.701612
1.106345
1.213050
1.119721
1.177585
1.371085
1.665380
2.195795
2.662436
2.831360
2.694789
2.300943
1.706442
1.410590
1.714529
2.112418
2.419468
2.637233
2.494441
2.180546
2.020332
2.065441
2.076329
1.866962
1.537512
1.378854
1.471871
1.273081
0.913767
0.803328
0.718710
0.537964
0.526142
0.398282
-0.210219
-0.936625
-1.171501
-0.797255
-0.082361
0.445566
0.594890
0.612933
0.155313
-0.456920
-0.939428
-1.204792
-1.027157
-0.979560
-1.215992
-1.134175
-0.990761
-0.561451
0.230283
0.541377
0.502179
0.544487
0.511200
0.471068
0.948286
1.431726
1.720110
1.861347
1.982673
1.809393
1.177871
1.224535
2.161550
2.679833
2.307764
1.827745
2.075065
2.624768
2.647788
2.832578
3.341839
3.854833
3.596313
2.777202
2.222831
1.679038
0.923390
0.001617
-0.713589
-1.303735
-1.864327
-1.780332
-1.193920
-1.081616
-1.689183
-1.939925
-1.147880
-1.220987
-2.493674
-2.880987
-2.359905
-2.133117
-2.102319
-2.489943
-3.298166
-3.434115
-3.068269
-2.619049
-2.064368
-2.265647
-3.338922
-3.779432
-4.111059
-4.504905
-3.805565
-2.615319
-2.529146
-3.392122
-3.705706
-3.198622
-2.585145
-3.048054
-3.226311
-2.531016
-2.789847
-4.457001
-5.723466
-5.528722
-5.062081
-4.396339
-3.361018
-2.396937
-1.433479
-1.225668
-2.208727
-2.927977
-3.147610
-2.732299
-2.206551
-2.685636
-3.381554
-2.877582
-1.245893
0.085901
0.877946
1.222016
1.259658
1.246592
1.291078
0.658623
-0.289593
0.043589
0.542584
0.393258
0.352193
-0.318838
-1.101551
-0.648598
-0.648910
-0.815346
-0.232978
-0.885343
-2.389795
-2.816617
-1.736187
-0.056900
1.480527
1.855395
1.531857
1.368843
0.591418
-0.466614
-0.813484
-0.056904
0.593594
1.209560
1.856325
1.587539
0.971261
0.722696
1.403059
2.269767
1.872499
0.408489
-0.564925
-0.547193
-0.523861
-0.079308
0.862063
1.061785
1.113737
1.585356
2.007199
2.353758
2.238963
1.525624
0.890058
0.353731
0.181384
0.802639
1.440382
1.476780
1.040314
0.151517
-0.867006
-1.525281
-1.892373
-1.427910
-0.122248
0.833434
1.057732
0.393234
-0.025499
0.382656
0.629354
0.321059
-0.563071
-1.453424
-2.292134
-3.211107
-3.466516
-2.238316
-1.059891
-0.481568
0.317944
1.002351
0.985863
0.491223
0.148707
-0.228961
-0.601653
-0.541301
-0.335357
-0.637741
-0.893772
-0.764668
-0.407843
-0.245142
-0.093639
-0.932350
-2.015580
-1.354194
-0.454199
-0.347494
-0.542862
-0.948218
-1.084478
-0.526686
-0.438647
-0.757519
-0.510199
-0.509266
-1.275803
-1.924746
-1.922880
-1.244384
-0.595441
-0.608819
-0.902181
-0.643973
0.517963
1.286677
0.800436
0.444233
0.511118
1.346716
1.729051
0.972780
1.324005
2.603224
3.416424
2.217156
1.108104
1.282317
1.519992
1.861262
2.534781
2.434919
1.542078
0.508312
-0.573363
-0.458259
-0.260092
0.562751
1.476746
1.673357
1.112454
-0.170188
-0.566523
0.516396
1.917564
1.907920
0.025488
-0.735760
-1.080453
-0.452976
2.354027
2.233011
-0.435556
-0.921486
0.295204
1.496649
0.701492
-2.296835
-1.491412
-0.393250
-1.319067
-1.540566
-0.355609
-0.891002
-2.330436
-0.885404
0.528519
0.855168
0.182893
-2.564381
-3.329051
-3.193725
-1.312850
1.433801
1.797781
-0.353748
-1.975482
-0.685686
-0.883542
-2.411638
-2.021215
-2.374307
-3.986087
-0.202248
1.396154
0.531623
1.159410
3.121792
-3.531269
-3.819343
1.545788
-1.627996
-2.832242
2.289613
1.217271
-1.258107
6.210021
-1.394989
-15.607641
-4.689789
5.309091
2.030157
1.650311
2.389781
1.798702
-11.950109
-5.974300
9.728804
0.077727
6.761586
20.335561
-13.809833
-12.068016
-1.043770
-7.457600
6.859578
5.606490
-4.138226
-13.102096
15.739140
28.606930
-10.675873
-37.855555
0.102608
20.007040
-5.095155
-6.420106
2.206848
7.038452
-5.580775
-14.098536
-4.188007
7.874983
8.299315
-2.757597
-4.051749
-11.587385
-7.510185
3.432244
5.586260
-3.115358
-16.428325
5.989748
3.752358
-7.737597
-4.846910
-9.986810
7.984793
14.306539
-1.581044
-12.664711
-6.571308
-5.060635
-7.945412
6.915871
5.173431
-3.641424
3.979140
12.281311
-3.532543
-14.218008
1.617622
9.811221
8.007808
4.550617
-0.728031
-0.186727
2.858574
-20.205642
-12.035064
21.483163
20.910127
18.732467
1.368741
-9.690348
-14.155484
-12.934129
-3.160170
6.876974
5.475805
-5.685012
-12.611837
-18.771192
10.006269
26.833978
10.993681
1.561303
7.853806
-1.895577
-15.903217
-1.708299
9.314392
-10.112510
1.221586
22.291065
2.752169
-26.459581
-9.220294
4.964670
-0.669870
12.971301
8.735753
-6.595905
-12.588825
13.272439
7.393380
3.883303
-2.246187
-12.283644
-2.075709
5.216340
15.563956
20.001093
12.935831
-6.573822
-23.596278
-20.884158
7.235961
28.716707
23.236159
-5.206566
-8.860368
4.531928
7.011660
-5.683164
-5.846488
6.380759
-0.753254
-17.428217
3.850006
37.367300
15.648566
-30.248724
-37.682632
-12.477777
18.752040
43.575183
14.923403
-21.795051
-34.174736
-8.100372
37.980773
5.242148
-24.083151
5.501911
36.206912
28.158592
-11.799286
-26.650614
-6.095685
18.943046
-1.625883
-14.675976
-5.583003
5.460842
25.300255
13.674040
-1.697438
-5.044812
-4.646612
7.522150
5.158767
-18.548793
-32.192764
-23.561455
-1.626822
12.544453
12.210338
5.636605
-1.896543
1.429365
2.907996
-7.796757
-17.832036
-8.621780
4.520707
6.904933
1.496559
0.515989
10.034851
10.037339
0.059302
-12.335626
-17.946212
-12.171992
-5.200992
3.560977
10.808228
7.621067
-2.135782
-14.056914
-10.793225
-10.214279
-10.753406
-9.156870
-4.681158
1.691296
2.262154
-2.856902
-3.199729
2.981091
-1.574262
-2.129566
-5.385167
0.208307
8.557765
9.220084
7.440936
2.112824
-3.072184
-6.563906
-3.306128
4.455362
3.509635
-8.911114
-14.732932
-3.504297
1.003458
-4.506332
-5.927100
0.659698
7.704427
5.424728
-1.468810
-7.122948
-6.217353
-3.339110
-3.657671
1.108604
0.617697
-6.646354
-7.307430
-8.232314
-2.499469
-2.227573
-6.690221
-5.369937
5.417566
-4.377858
-2.837320
-3.990547
-6.657558
4.544012
-3.384225
-4.516920
-1.571791
2.426080
3.273812
3.823826
-14.665438
-6.861640
3.831913
-3.525466
-7.002256
1.821310
10.627765
3.571214
2.345503
-1.026137
0.514090
10.144323
-0.244359
-12.479073
0.612705
-6.072088
-11.137325
-1.791121
10.919878
7.887642
1.633403
-0.360089
3.120744
15.168179
9.759805
-1.812279
-2.124618
-7.414465
-6.400609
0.666518
3.494054
2.303184
-0.114329
12.023945
8.939446
3.562492
0.769177
4.036288
7.867413
14.489365
9.781886
2.826441
5.126360
5.791168
5.001300
3.967844
6.679963
7.029633
8.654167
0.449367
7.155625
9.970716
4.107211
6.566411
7.754168
6.210829
6.506991
9.719038
4.247201
-4.004263
-4.286426
-7.239644
-7.606735
3.737005
5.908131
-1.478802
1.771821
-2.471194
-2.072060
7.722120
7.033357
6.852610
1.430548
0.087865
1.228025
1.651735
3.974364
6.166334
3.631849
13.707258
19.080788
13.248393
11.878956
3.044812
-0.086352
0.364423
-0.866888
-2.938465
-1.960696
-3.805175
-0.260567
7.812328
10.383522
7.365285
2.775711
1.684081
-2.142068
-5.874888
-10.065328
-6.461612
-3.809223
-10.330381
-12.511463
-4.649801
5.656440
8.432022
6.916682
2.408615
-5.627883
-7.751413
-3.652125
-3.252680
-6.257540
-10.738853
-2.365129
4.811814
-1.892578
-1.146886
0.540489
2.140758
6.060856
4.730927
1.225206
-0.360131
2.604908
5.870464
7.470110
6.684908
1.738198
2.836049
7.502151
9.493154
4.510979
-0.821799
-4.595061
-6.410919
-1.174581
-1.607624
0.878952
1.349637
5.221826
8.492982
1.877562
-2.558331
-2.083601
0.896681
2.115548
6.777295
4.649721
3.806033
6.536195
5.902496
-1.520524
-9.813053
-6.367373
-0.923224
4.087570
3.598530
-1.621943
-2.399990
-2.524117
1.174482
8.004555
8.568880
5.820673
8.461552
6.867504
2.529917
5.705878
7.454227
8.030995
1.055951
-4.422730
-3.304969
-0.325620
0.719345
-0.432326
2.652795
2.180865
4.407677
6.646000
2.868693
-3.398301
-4.965594
-4.690587
-2.430799
-0.473706
-7.870905
-16.760735
-13.741876
-2.579504
2.949262
2.930596
0.826976
-3.112410
-5.054883
-0.110041
-0.290165
-1.721821
-4.049739
-6.318239
-3.254583
1.795098
0.475436
-6.264421
-8.994585
-6.307664
-3.101838
-9.868450
-8.452971
0.557873
4.128301
4.863417
5.769012
2.780018
0.980337
3.251636
2.388349
0.090606
0.391123
-0.503896
-2.815948
-2.516365
-3.792163
-0.030723
1.876595
0.321124
1.519770
0.650572
0.167753
1.947212
4.180246
3.055018
-0.050014
-0.050326
1.076146
2.437183
-0.256894
-1.961068
-0.892460
-1.477940
-2.022977
-0.301071
1.879699
-0.531593
-0.064952
0.557858
3.514809
6.559177
7.090525
6.724056
3.265932
-0.162638
-2.679080
-1.896989
0.492836
1.856984
0.579319
2.367489
5.409990
4.483862
0.279423
-1.160322
-2.219909
-3.226299
-0.432362
2.221893
2.683246
2.112699
2.423170
-1.818289
-2.941651
-4.682846
-5.054915
-3.376873
-5.083847
-2.198138
0.635619
2.119539
0.087782
-3.143555
-4.603520
-3.756100
-3.239062
-3.436296
-4.090528
-4.225543
-1.180864
1.917012
3.727269
3.013619
3.870372
7.362093
6.679241
4.690726
4.789965
3.581363
4.808629
5.246961
3.703933
2.184859
3.513231
4.116443
0.980923
0.016842
1.173179
1.466540
1.658796
2.832243
1.100692
1.312236
3.442920
3.020454
2.145656
3.573267
6.343872
8.012581
5.494895
1.111888
0.026791
2.914056
5.097004
7.220222
9.012746
4.371842
1.494220
2.372750
5.762743
8.878663
7.353678
4.187050
2.216578
2.039254
2.219066
3.898353
3.501085
1.682116
0.116379
-1.481091
-1.491046
-1.082269
1.357643
0.946998
-3.346414
-4.317339
-0.696514
2.830050
3.528767
0.979039
-1.617665
-0.465062
0.972816
2.682900
4.248015
2.052934
-1.155382
0.694695
2.564993
2.057598
0.961924
0.025530
-2.089600
-4.648662
-4.599821
-3.306913
0.316090
0.761576
-3.161322
-4.665463
0.152453
3.051228
0.852103
-3.653787
-5.118730
-2.488428
1.036269
3.958688
1.293543
-2.622823
-1.232232
0.886631
-0.429921
-0.386057
-0.330060
-1.149794
-4.222783
-4.044216
-2.482523
-3.742144
-6.270407
-7.140849
-6.199790
-7.719485
-7.740640
-6.273831
-4.738582
-6.259833
-8.583707
-7.591939
-6.569062
-8.074758
-7.449459
-4.708408
-2.956948
-1.264285
0.680676
-1.030654
-4.197594
-4.991195
-7.346801
-10.702264
-11.427736
-13.223373
-15.265707
-13.437406
-13.303947
-13.641485
-8.944585
-2.890380
-1.868125
-2.733278
-4.265418
-4.200711
-2.844340
-4.518028
-4.427188
-1.898304
-1.258072
-1.547390
-1.608676
-2.914028
-3.426090
-0.070627
3.655037
5.098514
5.601242
5.234150
7.184399
8.455841
6.899436
4.433392
3.785071
6.290001
4.999271
0.067182
-1.401805
-0.316087
0.455427
-2.280959
-7.305131
-9.279335
-11.913682
-11.795467
-8.897935
-10.150401
-12.559826
-12.780081
-9.093926
