EVENT_NAME: 202302060117
EVENT_ID: 13194
EVENT_DATE_YYYYMMDD: 2023/02/06
EVENT_TIME_HHMMSS: 01:17:32.00000
EVENT_LATITUDE_DEGREE: 37.288
EVENT_LONGITUDE_DEGREE: 37.043
EVENT_DEPTH_KM: 8.6
HYPOCENTER_REFERENCE: AFAD
MAGNITUDE_W: 7.7
MAGNITUDE_W_REFERENCE: AFAD
MAGNITUDE_L: 
MAGNITUDE_L_REFERENCE: 
FOCAL_MECHANISM: 
NETWORK: TK
STATION_CODE: 3145
STATION_NAME: 
STATION_LATITUDE_DEGREE: 36.64536
STATION_LONGITUDE_DEGREE: 36.4064
STATION_ELEVATION_M: 695.0
LOCATION: Kahramanmaras_Pazarck_Turkiye
SENSOR_DEPTH_M: 
VS30_M/S: 533
SITE_CLASSIFICATION_EC8: B
MORPHOLOGIC_CLASSIFICATION: 
EPICENTRAL_DISTANCE_KM: 91.13
EARTHQUAKE_BACKAZIMUTH_DEGREE: 
DATE_TIME_FIRST_SAMPLE_YYYYMMDD_HHMMSS: 2023/02/06 01:17:25.2714330
DATE_TIME_FIRST_SAMPLE_PRECISION: millisecond
SAMPLING_INTERVAL_S: 0.01
NDATA: 11251
DURATION_S: 
STREAM: HNN
UNITS: cm/s^2
INSTRUMENT: sensor = ACEBOX/SARA | digitizer = 
INSTRUMENT_ANALOG/DIGITAL: 
INSTRUMENTAL_FREQUENCY_HZ: 
INSTRUMENTAL_DAMPING: 
FULL_SCALE_G: 
N_BIT_DIGITAL_CONVERTER: 
PGA_CM/S^2: 600.037
TIME_PGA_S: 
BASELINE_CORRECTION: BASELINE REMOVED
FILTER_TYPE: BUTTERWORTH
FILTER_ORDER: 
LOW_CUT_FREQUENCY_HZ: 
HIGH_CUT_FREQUENCY_HZ: 
LATE/NORMAL_TRIGGERED: 
DATABASE_VERSION: 
HEADER_FORMAT: DYNA 1.2
DATA_TYPE: Acceleration
PROCESSING: Automatic Paolucci et al., 2011
DATA_TIMESTAMP_YYYYMMDD_HHMMSS: 
DATA_LICENSE: U (unknown license)
DATA_CITATION: Turkish Accelerometric Archive v 1.0 - Disaster And Emergency Management Presidency, Earthquake Department
DATA_CREATOR: AFAD
ORIGINAL_DATA_MEDIATOR_CITATION: : AFAD - Disaster And Emergency Management Presidency
ORIGINAL_DATA_MEDIATOR: AFAD PROCESS SERVICE
ORIGINAL_DATA_CREATOR_CITATION: AFAD PROCESS SERVICE
ORIGINAL_DATA_CREATOR: network: TK
USER1: GuestUser
USER2: 
USER3: 
USER4: 
USER5: 
[...]
4.528418
3.156737
2.568744
3.143191
4.403365
4.495255
3.034263
1.539837
0.091704
-1.688655
-3.114577
-3.419208
-2.619614
-2.382771
-2.848722
-1.478195
1.885453
5.586471
8.502632
8.792547
6.632501
5.242818
6.660571
10.161225
14.594262
19.030338
20.950756
18.959746
14.868534
9.611142
3.876102
0.255525
-0.846822
-1.924854
-4.058715
-5.786469
-6.303856
-7.386798
-10.093228
-12.758977
-14.506838
-16.154634
-17.590142
-18.217647
-17.822757
-16.403834
-14.569921
-12.286884
-9.535083
-7.901067
-7.749325
-8.022160
-9.341237
-12.209688
-14.741238
-15.189186
-13.708541
-10.173520
-3.811889
3.855967
9.798399
12.561189
12.326463
10.664172
9.381333
8.429084
6.379157
1.467317
-6.139036
-12.876832
-15.780587
-15.613181
-15.322331
-16.062993
-15.726786
-13.393482
-9.912467
-5.023058
0.558859
5.422083
9.938585
14.413004
17.659287
18.060490
15.166320
10.579459
5.929005
1.130089
-2.416842
-1.753786
1.305224
2.356384
1.022344
-1.324506
-2.553571
-0.108279
4.287585
7.407149
9.087223
10.313497
11.868256
13.888505
16.022379
16.610854
12.366506
3.518923
-5.788305
-11.751064
-11.652394
-7.438659
-4.832748
-4.442065
-2.468342
2.355604
8.796492
13.999424
14.662012
12.186574
10.131503
7.598784
3.592441
0.002959
-2.955271
-5.954415
-8.761144
-11.168781
-11.803066
-9.465320
-5.645533
-2.624398
-1.905932
-4.305854
-8.302377
-10.903131
-11.392461
-10.880438
-9.668894
-7.534552
-4.540069
-0.859859
3.256850
7.214811
9.304264
7.524139
2.856617
-1.009213
-2.544553
-3.516207
-5.307789
-6.723190
-4.694290
3.164812
14.877360
23.701578
24.032642
17.187532
9.867581
7.465321
9.396727
11.644929
12.048938
10.294998
6.756249
3.149232
-0.007959
-4.217472
-9.505725
-13.895262
-15.273489
-13.095661
-9.402592
-6.694511
-5.706009
-5.874804
-6.102515
-5.190465
-2.533352
1.596216
5.855074
7.939150
6.951363
4.772848
3.196827
2.634318
3.333847
4.354613
4.042033
2.833074
1.258457
-2.016101
-6.194986
-8.727705
-9.690475
-9.825836
-8.786133
-6.864312
-4.589458
-3.196720
-4.616097
-8.479589
-11.970409
-13.012904
-12.368318
-12.145268
-12.910012
-14.183733
-15.800901
-16.944864
-16.061337
-13.346944
-11.223356
-9.484833
-5.409272
-0.754361
1.368525
3.336638
7.173024
10.355479
11.448021
11.891308
12.779277
14.168274
16.778627
20.769554
23.355826
22.983160
21.615453
19.980048
18.546411
18.971695
20.208022
20.181610
18.161842
13.524948
6.643367
-0.863856
-7.167959
-11.421659
-13.641089
-13.812923
-13.127423
-11.702188
-7.535913
-1.652164
2.664442
4.052269
3.091136
1.434222
0.229004
0.369991
2.817154
5.982776
8.290362
11.183376
13.460335
11.919151
8.734605
6.900473
6.225039
6.979744
7.285558
5.096755
3.424878
4.382051
6.344085
8.120016
9.562552
11.177397
13.586685
16.103052
16.677732
13.279029
6.239868
-1.882710
-9.169930
-13.927229
-14.715587
-13.066841
-10.900469
-7.810363
-3.125293
2.721516
7.146137
7.101722
2.988768
-1.804303
-4.840621
-6.310731
-5.886850
-3.145336
-0.785379
-0.634807
-1.970250
-4.640207
-7.919207
-10.447016
-11.642414
-11.224845
-10.200105
-9.949467
-9.135845
-5.845142
-1.210338
2.776614
5.352833
5.516498
2.074776
-3.707257
-7.895728
-9.910118
-12.590597
-15.204911
-17.069671
-19.086633
-18.149566
-13.390382
-8.634938
-4.972263
-1.300236
2.804783
7.577527
13.371265
17.908108
16.755728
11.407155
6.224344
1.069355
-3.366707
-4.601149
-2.983967
-1.411439
-2.012525
-4.344178
-8.936417
-14.911099
-17.217502
-15.015826
-12.668728
-13.250175
-15.578555
-14.762829
-9.717944
-4.380346
-0.555415
2.288502
5.454357
9.899084
13.664396
14.919661
15.224072
16.233148
17.369878
17.466910
14.682860
9.179045
5.874796
6.374194
7.052914
6.252399
3.052423
-0.876766
-1.645719
-2.434777
-7.379816
-13.469059
-17.381181
-18.191516
-14.747207
-7.584821
-1.038724
2.516638
5.803133
8.850454
9.577336
8.872211
6.793527
3.710683
3.006726
5.834278
7.678010
4.469383
-0.457419
-2.999022
-3.619981
-2.366119
-1.743276
-5.766219
-10.842651
-12.364665
-13.225031
-15.846359
-17.393623
-16.760492
-14.473948
-7.762089
2.695670
11.301286
16.760693
20.210847
21.169189
19.682947
15.832079
10.830695
7.053941
4.681373
1.759850
-3.130247
-8.366597
-11.383276
-11.327158
-7.739064
-2.774840
0.633464
3.246623
4.453959
2.216994
-3.052789
-9.002455
-11.134445
-9.453436
-7.988221
-7.091134
-7.838810
-9.545523
-9.076987
-10.184945
-14.764325
-16.702029
-12.472864
-4.713359
2.521271
8.606553
13.446631
14.292984
11.338027
7.631413
5.306306
5.008923
4.793369
4.500896
5.230116
3.182293
-0.570847
1.143128
5.140834
6.340455
8.609932
10.565419
8.119907
6.042859
7.451962
7.661686
4.404663
1.485711
0.316264
-1.919064
-4.951875
-6.374992
-6.254112
-5.536815
-3.604473
0.351150
2.542539
-0.472504
-3.436812
-3.112762
-2.925016
-0.901494
3.625998
4.805044
3.697086
3.011600
1.081143
0.816725
2.759821
2.472491
0.492937
-1.250950
-2.603694
-3.162462
-2.831398
-0.705706
2.595752
5.771661
10.754823
17.073669
19.918755
17.856670
12.625931
5.113564
-1.037869
-1.916472
-1.569042
-6.216924
-13.246032
-14.229142
-6.726815
3.590665
12.283255
17.232984
15.963238
12.148375
11.058887
9.690245
6.530014
6.678716
8.786640
5.913746
0.059469
-2.007993
-1.358029
-0.855358
0.486645
1.439844
0.350823
-1.461800
-3.005089
-4.815608
-6.150583
-3.547009
1.711332
3.682951
3.225183
2.000327
-2.747154
-7.906818
-10.488635
-13.404079
-14.697906
-11.793670
-8.880315
-6.640296
-0.944053
6.904529
11.058646
9.539906
6.014016
3.754606
3.806049
6.932393
9.741942
7.843749
3.532534
0.106009
-2.603227
-4.001795
-2.871846
-0.178027
2.222611
4.955708
8.640594
11.622919
13.874861
16.002657
18.396748
20.940937
20.085246
15.018632
7.126579
-4.276642
-12.857228
-12.343101
-8.694454
-7.278804
-5.845854
-3.109951
-1.411874
-2.783088
-5.694325
-7.716898
-9.120843
-11.158379
-13.527674
-14.739438
-15.302415
-15.687472
-11.999546
-4.536731
-0.189030
-1.386766
-7.876036
-15.808770
-15.579408
-8.293109
-2.513400
1.130104
2.968693
1.551187
-0.301182
2.957024
10.553104
13.658640
10.837884
7.313397
2.683049
-1.038529
2.168008
11.322581
19.182852
20.748131
19.012428
20.072939
24.391415
28.944391
30.891929
27.166376
19.765765
14.879409
13.844630
16.739047
23.061399
25.731371
22.818498
20.161633
17.024315
10.982065
5.018606
-0.401276
-7.273973
-14.202080
-16.615095
-12.256873
-5.418997
0.609706
6.290987
9.152672
9.323351
9.422722
6.730554
0.444220
-6.281185
-11.776816
-14.235187
-13.197588
-10.905666
-9.666534
-10.156332
-11.560278
-12.983862
-13.616744
-13.130205
-10.878029
-6.937603
-4.121274
-4.075209
-6.961663
-10.466744
-8.568771
-2.962773
-1.200870
-3.443212
-8.002486
-13.629745
-16.242422
-16.166431
-13.584133
-6.825749
-2.428249
-4.073005
-6.041571
-4.991581
-0.385066
5.384824
8.229208
6.972321
2.261547
0.132596
2.611088
2.467544
-0.251979
-1.934143
-2.100366
0.895753
3.759777
3.047170
0.835455
-0.731915
1.205570
7.099138
10.651695
6.243688
-2.387165
-8.303397
-10.811801
-10.255123
-8.227626
-10.946915
-17.480606
-17.879223
-7.856561
4.197331
9.562752
11.808148
14.103810
13.352861
13.598121
17.524753
19.265615
17.966644
15.673568
12.167083
7.781521
0.637853
-6.083344
-5.737317
-3.534706
-3.345089
0.435888
4.534828
3.677735
0.651236
-2.880265
-4.991447
-7.022670
-12.424082
-15.014314
-13.222953
-14.099452
-14.578027
-9.381409
-2.122932
1.771670
-0.977311
-4.772769
-1.408185
3.045192
3.513495
3.799436
-1.453747
-13.890820
-24.310689
-31.775127
-37.567681
-40.648187
-43.806079
-44.242338
-40.442190
-41.575866
-44.836863
-36.919078
-24.706437
-17.920464
-7.966539
2.434875
1.346088
-1.552757
4.877844
8.282874
-2.217421
-14.702890
-17.080601
-12.264838
0.964354
19.055827
17.555557
-1.275637
-3.837814
6.184614
6.078478
-0.361695
-9.770859
-16.737776
-8.336265
5.380394
8.614987
5.854783
7.931144
21.019823
44.113623
67.029269
78.057259
70.689846
50.940297
40.913441
43.806455
36.514793
23.118919
22.156850
25.011989
22.336654
17.515762
14.020500
12.690434
12.594818
15.759505
19.268575
19.539319
22.325021
30.892529
43.215054
50.637189
44.897474
34.526935
29.125057
28.029490
32.649798
43.684335
50.467502
40.367935
21.048339
12.979768
18.841073
21.020071
8.458852
-9.379405
-24.897925
-40.590858
-50.986412
-55.705135
-63.321542
-67.643979
-57.931332
-37.535553
-18.765132
-10.463686
-10.025075
-6.726656
8.629623
30.983454
43.891174
33.815688
1.564064
-31.187886
-51.936451
-65.554901
-66.231737
-59.523853
-60.572660
-61.795179
-57.698810
-50.964740
-34.012795
-8.629886
5.311685
1.974704
1.295764
11.588696
18.771656
13.371881
4.605894
10.636701
21.681993
12.923487
-4.806990
-10.891322
-10.672014
-16.772245
-26.892386
-31.210615
-35.868550
-44.052383
-42.936461
-35.272112
-31.184628
-25.637780
-11.081322
10.212239
26.823308
29.669563
28.493336
42.304449
56.490339
43.675450
21.176445
8.671571
4.123053
13.330230
25.425972
27.944443
30.927002
32.489476
25.126272
12.043920
-5.363449
-22.604120
-28.979296
-26.078099
-27.132985
-30.310049
-27.024957
-23.387999
-26.128564
-27.176670
-10.619374
20.200957
42.609731
48.476880
46.658178
41.237362
23.858751
-4.244609
-28.295794
-45.153505
-43.923256
-18.276858
5.598759
24.333643
43.714742
41.216157
30.691547
42.134527
55.254769
47.672965
28.682321
10.863937
2.063582
2.627508
2.656038
0.440115
1.424408
-3.728710
-16.963499
-16.372686
0.741281
19.783841
42.427114
59.300737
53.419106
39.698721
33.420570
28.944996
30.434993
34.834129
25.612938
12.954226
11.219224
13.953022
18.832378
21.564540
14.399830
4.953726
11.576509
33.739561
38.713839
18.501137
1.330606
-4.759572
-4.556629
-6.123531
-19.174322
-34.379787
-49.913972
-69.120410
-66.133409
-30.971229
-9.962199
-26.081345
-33.448523
-12.561536
6.783324
16.717143
13.375019
-17.885305
-45.442280
-30.919489
-4.185700
13.621944
32.948568
19.167863
-25.800228
-39.819874
-16.464222
9.084215
13.318057
-1.277899
-14.980282
-22.304676
-23.554315
-9.632616
30.960909
47.642584
-2.295335
-36.057056
-26.866946
-22.575824
-5.795486
12.366828
19.572934
19.260120
-4.072138
-5.737703
25.614050
48.300808
49.420237
24.153306
4.304159
5.816133
-3.680237
-19.458272
-15.134185
-2.844625
-1.779437
17.940434
52.913940
52.747250
42.135199
52.527494
62.538700
61.919378
43.512059
20.640615
25.020580
46.008568
54.288973
57.990925
74.525075
91.543887
94.329822
79.989406
70.638925
90.742224
93.348603
45.674542
12.022005
21.962136
27.094695
19.429191
23.249913
20.001073
10.047162
11.410207
-1.104019
-11.529967
-14.078116
-49.496524
-56.453856
-18.844286
-11.338685
3.679055
28.048219
16.937479
24.225414
45.965527
42.527312
32.513314
17.387106
4.548370
3.580457
0.400587
-7.610703
-11.282950
-13.250580
-25.314746
-30.197361
-27.986333
-45.110105
-50.822701
-28.144593
-16.135355
-29.855974
-51.845302
-48.401695
-20.928638
-16.705084
-40.987962
-47.111105
-9.676415
18.216541
-8.983192
-34.826434
-32.297675
-23.598306
-3.523063
-16.374424
-56.035551
-39.010661
1.304879
12.531363
7.657399
-16.905335
-20.878011
16.154548
19.754799
-21.694877
-29.097359
5.766028
20.242294
15.588099
27.321456
49.100146
64.712199
61.027328
44.252615
42.794428
72.340798
111.874754
112.358955
79.810642
54.740335
25.495577
-19.014505
-62.429481
-88.313403
-97.330489
-105.089278
-86.428976
-27.716631
22.047358
37.203974
26.877156
10.980586
15.224013
23.003624
4.929466
-21.071822
-28.074043
-29.626216
-47.483878
-74.682442
-103.821056
-125.581729
-119.772795
-96.353316
-80.822624
-86.047285
-111.951313
-136.631881
-138.835880
-109.243686
-67.286655
-43.629404
-13.232714
34.415176
65.564928
79.729542
63.623490
7.415127
-42.112946
-63.115181
-78.791280
-108.678279
-140.659634
-149.654743
-140.374621
-129.620875
-130.702881
-143.802067
-146.931203
-120.842460
-80.997554
-72.319227
-91.484283
-107.988025
-117.173912
-102.473668
-87.866476
-109.970597
-129.691623
-92.397212
0.719570
81.660892
130.628801
153.806300
92.006208
-19.015689
-116.551459
-185.144764
-167.829030
-134.714212
-161.876771
-167.767286
-136.122819
-110.890243
-98.812503
-61.286632
48.535666
167.176095
208.949361
182.536122
156.216636
170.746442
190.572223
205.773494
248.596744
308.168762
335.991578
342.940274
408.549872
455.190797
355.475102
241.543597
209.274205
155.415738
112.540600
156.468775
197.039388
182.454888
152.191242
107.951429
50.157687
-2.200735
-44.237710
-65.907437
-60.837068
-52.513645
-73.381446
-122.069720
-175.297635
-212.829570
-216.016220
-203.126268
-206.862809
-221.644166
-226.868827
-189.948491
-106.268234
-26.868805
16.986893
15.765075
-14.432640
-22.306224
4.093703
60.254385
138.047626
199.775723
231.937115
233.293848
230.496704
267.758618
295.695528
275.940134
254.426584
222.111835
165.756180
116.309235
60.659648
10.191709
-13.530289
-49.132228
-83.247217
-62.219016
47.354288
212.764457
259.424319
136.381969
21.640358
-37.645011
-140.268910
-279.458235
-345.010772
-296.889443
-230.627083
-182.601143
-98.182788
0.939310
66.883238
88.960721
110.743620
199.214382
283.305654
259.893905
165.654676
44.485276
-114.086075
-299.641839
-463.275603
-563.554282
-600.037169
-551.095445
-406.833408
-241.017366
-109.257637
-2.212617
92.068007
169.565963
208.752262
210.582200
219.088453
249.658388
289.124308
340.414759
397.701876
456.871763
494.749732
460.240328
385.611781
331.761731
260.794449
136.940822
19.316256
-19.635296
-29.136109
-128.380469
-245.793448
-232.084738
-192.542366
-236.032391
-265.091514
-248.150791
-224.676369
-240.768394
-318.660985
-320.344552
-201.243309
-79.785856
23.267076
81.090524
66.617311
60.689155
93.446964
128.530355
150.109382
164.475062
179.396244
190.794570
204.697565
213.964127
194.663936
153.919859
115.504872
85.565502
54.689775
24.465641
6.134773
2.671775
23.016353
68.241635
122.488219
179.268697
233.847741
282.356238
328.161572
366.338568
393.017648
404.782100
398.858152
397.570404
409.956990
415.841440
415.307688
391.962103
314.217973
215.499189
133.942528
60.367003
-3.655332
-57.817968
-111.384421
-150.811985
-168.060371
-179.618132
-194.959668
-197.173019
-174.312549
-148.607001
-138.201846
-131.590286
-109.692126
-59.655530
-0.974279
33.738309
56.028313
86.313483
127.238766
172.401157
187.809573
182.104225
207.309448
241.658949
241.610327
221.383363
197.806786
172.631738
146.077519
117.767717
108.141355
133.938786
162.017144
161.050633
152.318546
149.463421
140.171155
124.456012
103.433203
76.301271
50.336221
42.315813
59.811337
72.774000
67.465640
68.708279
76.887450
82.022113
79.671522
58.799980
41.930579
48.213654
37.990641
-9.124644
-60.398247
-107.120520
-161.017328
-222.450826
-294.552960
-334.018867
-290.140256
-211.248869
-156.482087
-133.907551
-154.328098
-200.111441
-239.070241
-271.702019
-297.332973
-315.493168
-334.289994
-349.328528
-357.321582
-353.762947
-338.484990
-329.317558
-320.310511
-310.474420
-325.289911
-348.732522
-363.038336
-364.593548
-335.222059
-292.097678
-244.362582
-184.402461
-128.128154
-75.000524
-34.072435
-15.047409
-1.381251
17.923864
55.344994
85.398704
73.920201
43.274530
-0.077321
-48.231601
-58.388683
-40.233149
-26.761042
-4.110054
46.461236
109.716262
149.132384
159.163697
169.762903
181.615028
193.635488
229.078459
264.935953
258.816083
222.357510
181.640087
131.686737
86.271859
79.865821
86.613918
84.715258
103.446868
125.401841
140.829428
174.999841
206.054905
223.686733
236.323482
227.755988
193.880174
146.858875
96.247853
30.880483
-42.475740
-90.576247
-113.271875
-115.326011
-104.298956
-95.256840
-89.391327
-92.848012
-96.567720
-107.713062
-127.244245
-134.337179
-156.835717
-183.971155
-199.557477
-227.659901
-257.091696
-303.067688
-328.072298
-295.560443
-264.360659
-216.118924
-158.705790
-113.214447
-26.317140
56.004755
114.343726
170.487574
186.051232
180.088707
165.294023
134.825103
98.736164
58.685765
31.807035
-3.825297
-49.432123
-85.889994
-143.506517
-202.214406
-246.944725
-296.403595
-330.166017
-354.598759
-374.404887
-380.694962
-388.892121
-385.923823
-372.162276
-372.339253
-377.428077
-372.900586
-352.819498
-321.361134
-289.917733
-262.257171
-246.415763
-235.551898
-217.588546
-203.336491
-193.806908
-183.414612
-179.083277
-179.769231
-178.008029
-173.835676
-170.318891
-161.742031
-143.682822
-123.551467
-102.147321
-80.804663
-70.818005
-64.755401
-44.822073
-18.407651
-3.837165
-3.206373
-7.357670
-7.838116
-6.031324
-7.417267
-13.141552
-30.590303
-57.449860
-75.659153
-80.163718
-70.576387
-56.316383
-63.827581
-85.638988
-93.504622
-90.982644
-91.410252
-104.995971
-135.013662
-152.783650
-138.171781
-112.625448
-99.151939
-106.581541
-133.713005
-161.331703
-167.579460
-151.893761
-123.676060
-86.264984
-58.954183
-56.078236
-52.946982
-38.352415
-27.508189
-20.019889
-10.715452
2.554186
26.735143
64.145985
103.024841
126.809512
137.640177
143.241966
149.660877
173.914779
203.206310
196.370085
148.986634
102.280728
94.570101
104.000555
89.245149
57.136375
18.075171
-11.028373
-6.674827
7.473656
20.360334
39.681815
54.766421
72.034227
92.380909
114.279536
133.258738
131.360779
124.497667
114.050443
96.171740
97.592767
94.878388
76.363755
69.444299
57.482536
43.506844
53.123400
72.828309
79.731647
64.539274
52.317997
67.326620
90.072996
105.260474
100.290652
70.954714
56.305919
62.799646
54.392069
32.522914
12.416122
-7.738831
-33.746666
-65.503809
-82.477016
-80.106071
-77.691172
-78.423651
-89.184163
-108.258974
-107.758874
-90.546245
-80.498333
-78.684059
-73.710015
-58.558776
-44.172990
-34.894738
-16.962481
9.784401
38.954825
58.507064
57.225160
51.234113
54.297331
59.423343
58.645273
55.612696
58.095162
54.849128
34.701656
2.308584
-36.273568
-67.454401
-81.541147
-79.551759
-63.489646
-49.806186
-56.178791
-70.148872
-61.541151
-26.508962
1.341911
1.378390
-4.704540
8.592453
40.437985
74.585485
93.985990
95.340852
88.069530
70.426027
41.961684
18.964223
4.751928
-5.614635
-3.756875
15.514105
51.891798
96.902454
127.627631
139.184470
148.515092
160.785715
168.213929
168.724549
178.417089
199.836433
211.172334
229.647001
260.425015
243.892984
181.346144
126.847073
75.695980
16.958632
-30.784633
-60.258979
-72.980583
-66.671089
-39.790241
-6.933302
4.665622
-8.744047
-26.875018
-46.825633
-73.731717
-108.161162
-155.304036
-173.716031
-130.085480
-86.744370
-78.471680
-68.194413
-42.073640
-7.437503
21.207345
35.178842
50.018663
78.565784
108.052068
107.474830
72.842448
27.488591
-12.073172
-33.812570
-35.630804
-15.016658
17.559257
28.201248
13.369157
-5.041202
0.325387
41.945984
70.412912
38.513153
-28.860198
-73.147472
-64.390588
-31.787085
-14.209498
-9.971214
-9.153151
-16.206573
-23.791183
-24.186995
