EVENT_NAME: 202302060117
EVENT_ID: 13194
EVENT_DATE_YYYYMMDD: 2023/02/06
EVENT_TIME_HHMMSS: 01:17:32.00000
EVENT_LATITUDE_DEGREE: 37.288
EVENT_LONGITUDE_DEGREE: 37.043
EVENT_DEPTH_KM: 8.6
HYPOCENTER_REFERENCE: AFAD
MAGNITUDE_W: 7.7
MAGNITUDE_W_REFERENCE: AFAD
MAGNITUDE_L: 
MAGNITUDE_L_REFERENCE: 
FOCAL_MECHANISM: 
NETWORK: TK
STATION_CODE: 4206
STATION_NAME: 
STATION_LATITUDE_DEGREE: 37.52506
STATION_LONGITUDE_DEGREE: 34.04843
STATION_ELEVATION_M: 1032.0
LOCATION: Kahramanmaras_Pazarck_Turkiye
SENSOR_DEPTH_M: 
VS30_M/S: 458
SITE_CLASSIFICATION_EC8: B
MORPHOLOGIC_CLASSIFICATION: 
EPICENTRAL_DISTANCE_KM: 265.80
EARTHQUAKE_BACKAZIMUTH_DEGREE: 
DATE_TIME_FIRST_SAMPLE_YYYYMMDD_HHMMSS: 2023/02/06 01:17:55.3174570
DATE_TIME_FIRST_SAMPLE_PRECISION: millisecond
SAMPLING_INTERVAL_S: 0.01
NDATA: 18251
DURATION_S: 
STREAM: HNN
UNITS: cm/s^2
INSTRUMENT: sensor = GMS+/GEOSIG | digitizer = 
INSTRUMENT_ANALOG/DIGITAL: 
INSTRUMENTAL_FREQUENCY_HZ: 
INSTRUMENTAL_DAMPING: 
FULL_SCALE_G: 
N_BIT_DIGITAL_CONVERTER: 
PGA_CM/S^2: 16.307
TIME_PGA_S: 
BASELINE_CORRECTION: BASELINE REMOVED
FILTER_TYPE: BUTTERWORTH
FILTER_ORDER: 
LOW_CUT_FREQUENCY_HZ: 
HIGH_CUT_FREQUENCY_HZ: 
LATE/NORMAL_TRIGGERED: 
DATABASE_VERSION: 
HEADER_FORMAT: DYNA 1.2
DATA_TYPE: Acceleration
PROCESSING: Automatic Paolucci et al., 2011
DATA_TIMESTAMP_YYYYMMDD_HHMMSS: 
DATA_LICENSE: U (unknown license)
DATA_CITATION: Turkish Accelerometric Archive v 1.0 - Disaster And Emergency Management Presidency, Earthquake Department
DATA_CREATOR: AFAD
ORIGINAL_DATA_MEDIATOR_CITATION: : AFAD - Disaster And Emergency Management Presidency
ORIGINAL_DATA_MEDIATOR: AFAD PROCESS SERVICE
ORIGINAL_DATA_CREATOR_CITATION: AFAD PROCESS SERVICE
ORIGINAL_DATA_CREATOR: network: TK
USER1: GuestUser
USER2: 
USER3: 
USER4: 
USER5: 
[...]
-2.360248
-2.517407
-2.726260
-2.890173
-2.987845
-3.039278
-3.103441
-3.235922
-3.421136
-3.573099
-3.616220
-3.551278
-3.461138
-3.398793
-3.363983
-3.361385
-3.370476
-3.358786
-3.318002
-3.237214
-3.115382
-3.028100
-3.069402
-3.221366
-3.394631
-3.512305
-3.521916
-3.462688
-3.437750
-3.508666
-3.666344
-3.865846
-4.070802
-4.218609
-4.284330
-4.312385
-4.309007
-4.285627
-4.311344
-4.405120
-4.505389
-4.538379
-4.509285
-4.499933
-4.540196
-4.592149
-4.603578
-4.559937
-4.510321
-4.479408
-4.477069
-4.524087
-4.605913
-4.714495
-4.835027
-4.928024
-4.937375
-4.830610
-4.632406
-4.390302
-4.165082
-4.008961
-3.898300
-3.810238
-3.787897
-3.817251
-3.908948
-4.064289
-4.193393
-4.235475
-4.137282
-3.915699
-3.655671
-3.382914
-3.120808
-2.897926
-2.715049
-2.534250
-2.292665
-2.010037
-1.736501
-1.496475
-1.269178
-1.014864
-0.763408
-0.505978
-0.228285
0.037198
0.315670
0.592063
0.811568
0.991068
1.158619
1.294218
1.379942
1.404361
1.380463
1.417870
1.559444
1.737645
1.930394
2.135091
2.324723
2.488377
2.579036
2.554359
2.450712
2.281084
2.085480
1.925203
1.783630
1.601534
1.376056
1.167462
1.005368
0.873666
0.754173
0.632083
0.461936
0.213598
-0.103838
-0.424131
-0.667533
-0.850409
-1.015621
-1.162909
-1.301365
-1.432027
-1.538532
-1.566846
-1.427610
-1.136669
-0.763122
-0.349831
0.036444
0.316475
0.431293
0.425319
0.461687
0.631316
0.854976
1.013955
1.066948
1.044349
0.975511
0.887710
0.827185
0.812638
0.805885
0.788741
0.773155
0.793937
0.886155
1.049030
1.285939
1.542590
1.776382
2.032773
2.394371
2.898841
3.472669
4.028313
4.514339
4.898537
5.166877
5.343780
5.493666
5.646411
5.797596
5.942547
6.067756
6.148025
6.150623
6.076849
5.959435
5.769545
5.435224
4.973357
4.434080
3.828042
3.160958
2.442441
1.710675
1.052683
0.555488
0.201165
-0.079903
-0.312914
-0.499427
-0.646196
-0.777118
-0.928302
-1.109100
-1.307303
-1.506025
-1.665781
-1.784235
-1.901909
-2.042443
-2.197264
-2.336499
-2.433652
-2.503529
-2.564055
-2.646141
-2.838628
-3.151128
-3.472980
-3.731449
-3.943419
-4.171754
-4.420871
-4.617255
-4.755451
-4.868710
-4.943262
-4.940924
-4.914167
-4.968198
-5.114707
-5.278880
-5.365382
-5.344080
-5.203805
-4.920917
-4.513341
-4.033030
-3.529079
-3.026168
-2.536245
-2.106588
-1.774864
-1.500029
-1.251171
-1.068034
-0.987246
-1.002571
-1.065954
-1.114790
-1.142065
-1.139727
-1.081538
-1.007244
-0.963862
-0.976850
-1.057118
-1.164921
-1.313767
-1.523659
-1.759268
-2.062417
-2.484020
-3.004854
-3.563874
-4.091202
-4.565018
-4.958566
-5.224308
-5.369518
-5.452643
-5.505635
-5.478619
-5.310289
-5.046883
-4.753865
-4.433311
-4.060283
-3.595298
-3.057838
-2.489985
-1.884984
-1.322586
-0.930856
-0.735510
-0.668489
-0.591078
-0.381444
-0.038550
0.367208
0.788552
1.159241
1.440830
1.728134
2.124281
2.607190
3.066200
3.444943
3.796669
4.164501
4.510772
4.780931
5.003293
5.261503
5.544391
5.768571
5.900793
6.001844
6.149133
6.337725
6.520862
6.661656
6.739587
6.775176
6.773098
6.681401
6.501382
6.300582
6.137708
6.046530
6.027828
6.065754
6.146802
6.249671
6.388388
6.640623
7.032353
7.467465
7.841532
8.142084
8.387045
8.611226
8.847875
9.069198
9.217006
9.252595
9.170249
9.004518
8.804497
8.590708
8.361594
8.107541
7.841279
7.558393
7.202251
6.783246
6.398011
6.070964
5.773790
5.507269
5.275556
5.098395
4.986176
4.922533
4.918897
4.973968
5.020987
5.040210
5.035795
4.989557
4.908769
4.845386
4.851102
4.895783
4.925137
4.900200
4.812399
4.708492
4.654721
4.677321
4.711611
4.641214
4.418854
4.067648
3.600586
3.034032
2.386172
1.689475
0.992258
0.308030
-0.330219
-0.858067
-1.257070
-1.559180
-1.830117
-2.098976
-2.326792
-2.481613
-2.591235
-2.714624
-2.853859
-2.983483
-3.134407
-3.325596
-3.520941
-3.726936
-3.984106
-4.357392
-4.846015
-5.320091
-5.727147
-6.116538
-6.490084
-6.809078
-7.046506
-7.190676
-7.262632
-7.299778
-7.329391
-7.399528
-7.527073
-7.569155
-7.373549
-7.038968
-6.778160
-6.706464
-6.798681
-6.931162
-7.035848
-7.084424
-7.020001
-6.822577
-6.559171
-6.315768
-6.092367
-5.889488
-5.732328
-5.592053
-5.440607
-5.298254
-5.196165
-5.125247
-5.042121
-4.910159
-4.731178
-4.553756
-4.444133
-4.419455
-4.456081
-4.526478
-4.602589
-4.652724
-4.682857
-4.780789
-4.992499
-5.295648
-5.617759
-5.855966
-6.001176
-6.113655
-6.207170
-6.239381
-6.189505
-6.103002
-6.025850
-5.919085
-5.705036
-5.384741
-5.026261
-4.677912
-4.319431
-3.928480
-3.514150
-3.084493
-2.615871
-2.037887
-1.404313
-0.878022
-0.505514
-0.210937
0.063378
0.304963
0.468358
0.574084
0.686304
0.762157
0.808656
0.925032
1.163500
1.491068
1.829286
2.137372
2.392464
2.616644
2.829655
3.016948
3.185018
3.359063
3.575191
3.833660
4.128498
4.457364
4.768827
5.024179
5.262127
5.539819
5.794912
5.906873
5.867129
5.734388
5.560604
5.377468
5.228621
5.157705
5.110428
4.958724
4.645704
4.216568
3.811331
3.567669
3.455969
3.360635
3.165290
2.816942
2.369103
1.886454
1.483035
1.244049
1.090527
0.889987
0.538781
0.069641
-0.365470
-0.711740
-0.986834
-1.178282
-1.314400
-1.455713
-1.618068
-1.722754
-1.651057
-1.489481
-1.411290
-1.438305
-1.495714
-1.476490
-1.335955
-1.095669
-0.799274
-0.524698
-0.348835
-0.296621
-0.275060
-0.126732
0.179275
0.553602
0.922213
1.278615
1.672943
2.125719
2.595900
3.059326
3.487684
3.833176
4.078397
4.231141
4.340245
4.441814
4.553775
4.692751
4.829130
4.922387
4.981355
5.033829
5.102668
5.220343
5.372828
5.526091
5.638571
5.659093
5.588437
5.479335
5.367895
5.260871
5.188656
5.123715
4.992793
4.796928
4.608337
4.503391
4.473519
4.473000
4.556126
4.767058
5.074364
5.426870
5.765348
6.065640
6.260986
6.271897
6.079409
5.708202
5.217501
4.674326
4.181547
3.793974
3.438872
3.064547
2.694898
2.401101
2.278231
2.317976
2.410194
2.464746
2.457213
2.393830
2.338500
2.334085
2.356945
2.406042
2.454099
2.472543
2.439553
2.341881
2.230181
2.120820
2.015874
1.928073
1.801307
1.595831
1.334245
1.065646
0.842246
0.674696
0.534682
0.382458
0.183736
-0.064082
-0.332941
-0.581538
-0.748309
-0.822602
-0.864424
-0.922871
-1.026778
-1.162896
-1.238747
-1.217446
-1.138216
-1.038724
-0.985991
-1.015604
-1.109380
-1.226534
-1.318232
-1.326544
-1.219000
-1.085218
-1.015860
-1.006248
-1.023132
-1.013780
-0.966242
-0.929354
-1.006505
-1.281079
-1.669432
-2.025313
-2.269235
-2.397040
-2.492114
-2.627973
-2.808770
-3.001777
-3.152442
-3.247257
-3.327525
-3.413767
-3.484943
-3.526765
-3.547286
-3.521049
-3.439741
-3.375058
-3.394021
-3.528580
-3.758994
-3.986810
-4.156697
-4.252551
-4.239303
-4.114354
-3.922904
-3.778473
-3.737688
-3.730674
-3.663134
-3.501558
-3.276079
-3.032676
-2.855513
-2.858110
-3.072678
-3.370112
-3.576367
-3.680274
-3.775608
-3.878216
-3.973290
-4.088887
-4.244487
-4.373072
-4.387618
-4.318259
-4.303712
-4.426062
-4.561920
-4.522435
-4.240326
-3.734817
-3.085397
-2.435977
-1.872020
-1.402879
-0.987769
-0.535512
-0.038576
0.437839
0.857105
1.221560
1.600042
2.085809
2.679639
3.271910
3.776640
4.166812
4.486327
4.877019
5.372656
5.902843
6.382375
6.676174
6.731505
6.539537
6.153782
5.772443
5.537873
5.469815
5.505144
5.529822
5.462283
5.261483
4.919109
4.480881
4.073826
3.750415
3.410120
2.982802
2.473917
1.946069
1.561353
1.428353
1.456668
1.523429
1.579799
1.609413
1.623961
1.655653
1.732285
1.865806
2.013615
2.121939
2.247407
2.502240
2.958133
3.538975
4.039029
4.317500
4.373351
4.302695
4.235415
4.297241
4.489729
4.661956
4.686635
4.540386
4.262175
3.933829
3.605483
3.294021
3.052698
2.833194
2.489002
2.027655
1.556696
1.089634
0.615039
0.156549
-0.296486
-0.766665
-1.255808
-1.691438
-1.943412
-2.014848
-2.006535
-1.950424
-1.804434
-1.515832
-1.033182
-0.314404
0.597902
1.555147
2.373936
2.923086
3.220001
3.381318
3.453793
3.451716
3.343133
3.109603
2.867240
2.705405
2.633450
2.585393
2.453172
2.206393
1.887918
1.580613
1.333055
1.134073
1.038999
1.090433
1.188366
1.188886
1.043417
0.817159
0.610644
0.504140
0.554016
0.752739
1.010430
1.290460
1.616469
1.961701
2.234978
2.370317
2.420973
2.497864
2.685937
3.020259
3.475113
3.970491
4.408201
4.744860
5.051907
5.393242
5.697171
5.837446
5.758737
5.511958
5.146206
4.663038
4.117006
3.613317
3.214833
2.880772
2.523332
2.082766
1.516213
0.835881
0.141262
-0.401912
-0.724023
-0.905081
-1.041459
-1.205631
-1.456827
-1.838685
-2.310163
-2.710725
-2.879313
-2.812812
-2.615128
-2.375622
-2.161313
-1.947004
-1.661778
-1.290569
-0.850262
-0.422943
-0.091219
0.150885
0.412732
0.817970
1.381408
2.053168
2.715057
3.252777
3.615934
3.821930
4.005587
4.328479
4.868537
5.579002
6.328174
7.011104
7.573242
7.988612
8.315141
8.622707
8.926116
9.189781
9.349539
9.418638
9.472410
9.560992
9.723607
9.934539
10.059228
9.980519
9.688800
9.265639
8.808448
8.336969
7.801848
7.130089
6.326887
5.499786
4.811142
4.388500
4.202767
4.112368
3.985862
3.804544
3.547634
3.222405
2.996668
2.797426
2.450117
2.100989
1.734457
1.204791
0.619275
0.066749
-0.490193
-1.063240
-1.535238
-1.878651
-2.182319
-2.390652
-2.498196
-2.543135
-2.481310
-2.310901
-2.052951
-1.646674
-1.054402
-0.457975
0.022856
0.455111
0.818267
1.084789
1.272862
1.442751
1.609782
1.664074
1.585365
1.426387
1.241693
1.077520
0.944000
0.798011
0.524216
0.053258
-0.566808
-1.234411
-1.880193
-2.496622
-3.119026
-3.741429
-4.295773
-4.715038
-5.014810
-5.281851
-5.575648
-5.948154
-6.426646
-6.984367
-7.583651
-8.190988
-8.789493
-9.375789
-9.919742
-10.362906
-10.691512
-10.982971
-11.277807
-11.494712
-11.547704
-11.426392
-11.215980
-11.009983
-10.808143
-10.572793
-10.311206
-10.038449
-9.760237
-9.495533
-9.263560
-9.101724
-9.001712
-8.892350
-8.783506
-8.772336
-8.886373
-9.053144
-9.212381
-9.369280
-9.535271
-9.635801
-9.604109
-9.520463
-9.530593
-9.652164
-9.757370
-9.770098
-9.715546
-9.629043
-9.523317
-9.419669
-9.398367
-9.453957
-9.451359
-9.299394
-9.002479
-8.664520
-8.400336
-8.230447
-8.100562
-7.907554
-7.575830
-7.140199
-6.678331
-6.292835
-6.100606
-6.082681
-6.128660
-6.183990
-6.220097
-6.248151
-6.281661
-6.276465
-6.182428
-5.955391
-5.595352
-5.170631
-4.778380
-4.497831
-4.298588
-4.108178
-3.955953
-3.843733
-3.657219
-3.286270
-2.734002
-2.172643
-1.756754
-1.452566
-1.165781
-0.866268
-0.605721
-0.427259
-0.322572
-0.286464
-0.277372
-0.232431
-0.127485
0.032273
0.229957
0.418289
0.594672
0.800409
1.035240
1.336571
1.697389
2.038725
2.337978
2.664247
3.089748
3.583307
4.041019
4.353780
4.536138
4.746031
5.085808
5.544818
6.072407
6.585969
7.051734
7.475935
7.843248
8.166659
8.499682
8.892971
9.329382
9.718515
9.985037
10.138041
10.211556
10.237533
10.258056
10.306113
10.386642
10.430803
10.374953
10.191298
9.876979
9.474599
9.017149
8.567491
8.201219
7.917812
7.687659
7.473870
7.244496
7.010705
6.793020
6.605208
6.459739
6.352196
6.328557
6.396357
6.413243
6.309336
6.103081
5.816298
5.589001
5.565103
5.745383
6.063339
6.396882
6.611450
6.727048
6.805758
6.843685
6.821865
6.683409
6.385715
5.959956
5.449773
4.909456
4.429405
4.076641
3.859216
3.705694
3.527753
3.326953
3.122256
2.934185
2.859372
2.981204
3.278379
3.636340
3.941568
4.139511
4.219001
4.209130
4.154839
4.103666
4.086522
4.095094
4.115617
4.111721
4.048338
3.989371
4.018725
4.107826
4.137960
4.043405
3.881310
3.780521
3.868323
4.201606
4.659577
5.016239
5.208468
5.336015
5.531101
5.820483
6.074017
6.188056
6.156105
6.092202
6.160262
6.410939
6.778771
7.101403
7.244276
7.230249
7.126342
6.977496
6.787346
6.518487
6.191440
5.920762
5.801269
5.798932
5.793737
5.696325
5.482796
5.170036
4.838313
4.560622
4.322934
4.094599
3.855353
3.590391
3.301529
2.991107
2.657566
2.292332
1.905539
1.566802
1.349636
1.296125
1.403929
1.563427
1.631227
1.543166
1.295088
0.977912
0.694246
0.479678
0.350055
0.255760
0.158607
0.055480
-0.088171
-0.325339
-0.680441
-1.101005
-1.495072
-1.820301
-2.072535
-2.250736
-2.441924
-2.795208
-3.359683
-4.034040
-4.700085
-5.320410
-5.907225
-6.501833
-7.122938
-7.735470
-8.286178
-8.745966
-9.137955
-9.489681
-9.815429
-10.176766
-10.653180
-11.219473
-11.766544
-12.202434
-12.496491
-12.725605
-13.011869
-13.396585
-13.826240
-14.201085
-14.419549
-14.454098
-14.388896
-14.332266
-14.329148
-14.319276
-14.220044
-13.967289
-13.512695
-12.948219
-12.477519
-12.232297
-12.235674
-12.363999
-12.378805
-12.155144
-11.745749
-11.299987
-10.981511
-10.858121
-10.807725
-10.607703
-10.199088
-9.701372
-9.261584
-8.936874
-8.686717
-8.518646
-8.416037
-8.303817
-8.110549
-7.802464
-7.468402
-7.190190
-6.978998
-6.775339
-6.495309
-6.159429
-5.845888
-5.610798
-5.454157
-5.352068
-5.222703
-4.966571
-4.603415
-4.199995
-3.778651
-3.290286
-2.715679
-2.100548
-1.462817
-0.885872
-0.423745
-0.013311
0.359197
0.674556
0.979264
1.370995
1.862476
2.364348
2.791407
3.123651
3.404461
3.706312
4.127396
4.688495
5.278689
5.804200
6.280095
6.764822
7.314492
7.961574
8.662169
9.361205
10.081542
10.879030
11.745876
12.592980
13.324227
13.873377
14.258354
14.577609
14.901021
15.249110
15.593563
15.863722
16.076213
16.248699
16.307408
16.223243
15.988933
15.674615
15.403417
15.181316
14.958696
14.654768
14.194460
13.625568
13.051482
12.529868
12.078133
11.643541
11.143748
10.553296
9.940245
9.420709
9.005861
8.606858
8.149667
7.630651
7.107219
6.597035
6.071525
5.535625
4.965435
4.346408
3.757775
3.264736
2.935610
2.749877
2.579729
2.384904
2.143061
1.966419
1.766138
1.270502
0.893319
0.537698
-0.311223
-1.032339
-1.556550
-2.222594
-2.856687
-3.353103
-3.381417
-3.487142
-3.915759
-4.106428
-4.432436
-4.808839
-4.933527
-4.947554
-4.816371
-4.802343
-4.903132
-4.905210
-4.901313
-4.885466
-4.726228
-4.577121
-4.594005
-4.567249
-4.547246
-4.612967
-4.644658
-4.652710
-4.679725
-4.763630
-4.775579
-4.728300
-4.735054
-4.765446
-4.817919
-4.809865
-4.697125
-4.532432
-4.343320
-4.115503
-3.896778
-3.784558
-3.686885
-3.525828
-3.466341
-3.416465
-3.185530
-3.028630
-3.005250
-2.914851
-2.776653
-2.657939
-2.634040
-2.696903
-2.784964
-2.870167
-2.885233
-2.857437
-2.795612
-2.666767
-2.481552
-2.168791
-1.731341
-1.235443
-0.676942
-0.115583
0.386030
0.782436
1.032333
1.181960
1.256254
1.288466
1.322496
1.356527
1.398350
1.434718
1.446668
1.392117
1.295484
1.246388
1.235219
1.239116
1.244312
1.217816
1.190281
1.128976
0.971298
0.763224
0.516965
0.256158
0.053280
-0.082578
-0.178691
-0.257660
-0.369620
-0.602891
-0.991243
-1.510519
-2.127207
-2.796629
-3.483195
-4.128977
-4.709039
-5.241562
-5.738238
-6.211015
-6.661452
-7.096043
-7.499462
-7.844693
-8.088095
-8.188625
-8.189404
-8.138489
-8.019255
-7.792996
-7.430360
-6.958101
-6.428434
-5.865256
-5.312470
-4.787478
-4.252096
-3.677489
-3.098725
-2.577111
-2.073940
-1.528167
-0.989148
-0.535333
-0.170358
0.121622
0.362427
0.668954
1.074712
1.491900
1.866226
2.141580
2.341862
2.563444
2.828408
3.039600
3.131299
3.166108
3.209490
3.303527
3.447179
3.642785
3.905151
4.236615
4.591199
4.874087
5.095669
5.281404
5.478309
5.764054
6.088245
6.340220
6.415294
6.309049
6.092923
5.858872
5.724833
5.659112
5.588456
5.530528
5.508188
5.518060
5.487148
5.361161
5.120617
4.762917
4.359238
3.979718
3.669296
3.452650
3.275748
3.055466
2.729977
2.302140
1.807023
1.231118
0.584296
-0.119415
-0.864169
-1.592038
-2.266914
-2.872693
-3.423140
-3.934363
-4.434935
-4.982266
-5.577393
-6.190965
-6.797782
-7.400963
-8.003624
-8.555890
-9.023731
-9.406888
-9.768225
-10.199179
-10.704687
-11.217209
-11.632317
-11.884811
-12.022488
-12.171854
-12.460196
-12.848808
-13.185986
-13.401853
-13.486796
-13.491472
-13.483418
-13.487314
-13.478741
-13.426268
-13.341323
-13.289109
-13.363402
-13.570956
-13.846310
-14.106337
-14.294148
-14.412602
-14.455983
-14.442734
-14.431044
-14.416756
-14.323239
-14.097500
-13.798247
-13.573807
-13.538738
-13.651217
-13.762916
-13.790451
-13.703169
-13.504705
-13.229870
-12.903082
-12.620194
-12.455760
-12.370556
-12.288469
-12.067925
-11.612032
-11.013266
-10.397876
-9.841972
-9.400366
-9.037469
-8.713798
-8.406232
-8.020476
-7.541204
-7.013875
-6.479012
-6.024417
-5.670873
-5.377075
-5.139646
-4.912609
-4.617771
-4.232535
-3.754561
-3.218660
-2.708735
-2.291027
-1.982423
-1.755904
-1.577963
-1.403398
-1.209611
-1.032189
-0.890355
-0.751119
-0.570320
-0.345360
-0.106373
0.101182
0.231067
0.320427
0.459663
0.686182
0.991409
1.378204
1.833059
2.291290
2.691073
3.023317
3.353482
3.753785
4.215134
4.670767
5.061978
5.357854
5.548005
5.659706
5.746988
5.829595
5.896096
5.908826
5.820245
5.635551
5.395266
5.125368
4.853911
4.599339
4.337493
4.041099
3.671190
3.248028
2.842791
2.454958
2.058812
1.654874
1.260547
0.883104
0.530340
0.211865
-0.042967
-0.219608
-0.400147
-0.669785
-1.049046
-1.464674
-1.773537
-1.886016
-1.817437
-1.663394
-1.509871
-1.400508
-1.325434
-1.230878
-1.085927
-0.887724
-0.683805
-0.527684
-0.439882
-0.425075
-0.470274
-0.531838
-0.528201
-0.389225
-0.115689
0.197332
0.484117
0.756354
1.070674
1.462664
1.876994
2.253399
2.536027
2.710072
2.848009
3.048550
3.379495
3.841104
4.393890
4.956288
5.420754
5.725982
5.889636
6.016144
6.170187
6.350726
6.584777
6.897538
7.265111
7.645152
7.998956
8.316653
8.582915
8.749687
8.798524
8.754364
8.674096
8.559019
8.421863
8.314839
8.265224
8.258990
8.164435
7.943892
7.695035
7.490339
7.328504
7.159136
6.957296
6.716232
6.467635
6.244495
6.067594
5.912253
5.710154
5.456881
5.143082
4.797331
4.509249
4.333127
4.269484
4.267147
4.250522
4.167397
4.071803
4.074401
4.220911
4.445871
4.653945
4.855006
5.071653
5.261025
5.403378
5.529626
5.669641
5.788875
5.771211
5.545214
5.175565
4.813709
4.515755
4.195202
3.750740
3.163665
2.519181
1.922235
1.446601
1.099291
0.818483
0.496371
0.044895
-0.561663
-1.228746
-1.773479
-2.131698
-2.361852
-2.588109
-2.926586
-3.384557
-3.843826
-4.179445
-4.389597
-4.526494
-4.651702
-4.755089
-4.810939
-4.915365
-5.114866
-5.347098
-5.521402
-5.620632
-5.722721
-5.848188
-5.954692
-5.941444
-5.732590
-5.359562
-4.909384
-4.496093
-4.189306
-3.962009
-3.714969
-3.346358
-2.830718
-2.218964
-1.587467
-1.003249
-0.472542
0.048812
0.573025
1.080612
1.543778
1.894725
2.091370
2.164106
2.179173
2.177095
2.106439
1.965126
1.834983
1.752897
1.744065
1.831088
1.986170
2.130861
2.194245
2.212689
2.324909
2.600783
2.955627
3.282156
3.539067
3.712592
3.832606
3.964828
4.155238
4.372925
4.534760
4.634512
4.760760
4.977926
5.238734
5.404986
5.425508
5.356151
5.265492
5.239776
5.340306
5.570721
5.831529
6.044279
6.224559
6.380420
6.504849
6.579143
6.665127
6.869305
7.159207
7.398194
7.517947
7.569122
7.681602
7.951242
8.313099
8.653136
8.905371
9.052141
9.135527
9.198911
