EVENT_NAME: 202302060117
EVENT_ID: 13194
EVENT_DATE_YYYYMMDD: 2023/02/06
EVENT_TIME_HHMMSS: 01:17:32.00000
EVENT_LATITUDE_DEGREE: 37.288
EVENT_LONGITUDE_DEGREE: 37.043
EVENT_DEPTH_KM: 8.6
HYPOCENTER_REFERENCE: AFAD
MAGNITUDE_W: 7.7
MAGNITUDE_W_REFERENCE: AFAD
MAGNITUDE_L: 
MAGNITUDE_L_REFERENCE: 
FOCAL_MECHANISM: 
NETWORK: TK
STATION_CODE: 0122
STATION_NAME: 
STATION_LATITUDE_DEGREE: 37.4339
STATION_LONGITUDE_DEGREE: 35.82021
STATION_ELEVATION_M: 119.0
LOCATION: Kahramanmaras_Pazarck_Turkiye
SENSOR_DEPTH_M: 
VS30_M/S: 501
SITE_CLASSIFICATION_EC8: B
MORPHOLOGIC_CLASSIFICATION: 
EPICENTRAL_DISTANCE_KM: 109.28
EARTHQUAKE_BACKAZIMUTH_DEGREE: 
DATE_TIME_FIRST_SAMPLE_YYYYMMDD_HHMMSS: 2023/02/06 01:17:30.8869570
DATE_TIME_FIRST_SAMPLE_PRECISION: millisecond
SAMPLING_INTERVAL_S: 0.01
NDATA: 12501
DURATION_S: 
STREAM: HNN
UNITS: cm/s^2
INSTRUMENT: sensor = CMG-5T/GURALP | digitizer = 
INSTRUMENT_ANALOG/DIGITAL: 
INSTRUMENTAL_FREQUENCY_HZ: 
INSTRUMENTAL_DAMPING: 
FULL_SCALE_G: 
N_BIT_DIGITAL_CONVERTER: 
PGA_CM/S^2: 57.343
TIME_PGA_S: 
BASELINE_CORRECTION: BASELINE REMOVED
FILTER_TYPE: BUTTERWORTH
FILTER_ORDER: 
LOW_CUT_FREQUENCY_HZ: 
HIGH_CUT_FREQUENCY_HZ: 
LATE/NORMAL_TRIGGERED: 
DATABASE_VERSION: 
HEADER_FORMAT: DYNA 1.2
DATA_TYPE: Acceleration
PROCESSING: Automatic Paolucci et al., 2011
DATA_TIMESTAMP_YYYYMMDD_HHMMSS: 
DATA_LICENSE: U (unknown license)
DATA_CITATION: Turkish Accelerometric Archive v 1.0 - Disaster And Emergency Management Presidency, Earthquake Department
DATA_CREATOR: AFAD
ORIGINAL_DATA_MEDIATOR_CITATION: : AFAD - Disaster And Emergency Management Presidency
ORIGINAL_DATA_MEDIATOR: AFAD PROCESS SERVICE
ORIGINAL_DATA_CREATOR_CITATION: AFAD PROCESS SERVICE
ORIGINAL_DATA_CREATOR: network: TK
USER1: GuestUser
USER2: 
USER3: 
USER4: 
USER5: 
[...]
-24.235719
-21.825311
-17.474243
-12.356703
-7.181058
-2.230001
2.662625
7.520648
10.944312
11.423853
8.277345
3.465688
-1.441614
-4.891054
-7.162061
-8.379987
-8.287599
-7.685319
-6.228430
-3.810514
-0.873892
3.285885
7.788094
10.910131
13.380604
15.698957
17.731678
18.474979
17.134966
13.089128
6.367170
-0.859459
-5.995266
-7.931024
-6.721899
-2.868319
2.971949
8.962052
13.469156
15.936691
18.039922
19.763509
19.944688
18.256368
15.154256
10.554130
5.300479
0.573369
-2.825800
-5.240765
-7.642347
-9.781147
-10.774158
-10.184936
-8.842299
-6.604249
-4.105377
-2.312259
-0.226981
1.683327
2.614328
2.876462
4.136184
7.878776
12.774013
17.412671
21.292693
23.288528
22.108469
18.534983
13.364900
6.953708
0.180826
-5.877815
-10.386540
-12.781592
-12.544920
-9.103628
-2.554994
4.993839
12.000788
16.311379
16.992330
13.892176
7.883480
1.170988
-4.753488
-9.466888
-12.361387
-13.918806
-14.775040
-14.504092
-12.651890
-8.336076
-2.372089
3.662082
8.184856
9.899629
8.878218
5.688947
1.349643
-2.474545
-4.705401
-4.584287
-2.949164
-1.678017
-1.991715
-3.142721
-3.725729
-2.314215
1.418584
7.062338
12.107736
13.949493
12.243219
7.753428
2.739382
-0.725075
-1.927331
-1.364550
-0.475332
-0.299704
0.699849
2.307878
4.200232
6.722934
9.854765
13.742621
17.492395
20.058513
20.673850
18.713936
13.674754
6.744530
0.393402
-3.572133
-5.467086
-4.893859
-2.127636
3.218735
10.375192
16.002624
16.192943
9.667499
-1.728367
-13.373629
-20.707002
-22.623500
-20.162495
-15.403382
-9.336893
-2.186965
4.591480
9.138083
9.749830
6.848149
2.715153
-1.242875
-4.942365
-8.587993
-11.823617
-13.920961
-13.150892
-8.850095
-2.077200
4.025849
8.392913
9.775375
8.309684
3.853516
-2.036031
-8.563107
-14.684098
-16.915606
-13.611744
-7.785512
-1.323710
4.497625
8.302566
11.130812
13.231759
14.771889
14.121635
10.146960
3.563084
-2.433208
-6.448362
-7.879776
-7.664648
-6.743114
-6.047473
-5.049553
-3.069061
-0.965829
-1.053634
-4.602310
-11.096743
-17.911736
-22.118833
-23.043620
-21.773452
-19.495903
-16.764282
-12.462832
-5.950759
0.848251
5.376574
7.842476
8.561294
8.260326
7.810831
7.045671
5.586836
4.458028
3.694828
3.121613
2.556559
2.031656
1.275311
-0.458383
-1.617223
-2.232548
-4.512043
-8.662993
-12.939295
-15.881781
-16.166100
-13.042104
-8.475261
-5.350938
-3.877075
-3.125940
-2.221053
-1.449026
-2.627780
-5.846756
-10.716518
-15.970822
-19.604045
-20.454404
-19.170199
-17.792961
-16.851840
-15.210841
-11.710464
-7.753730
-3.469255
-0.248307
0.817838
0.710774
-0.168964
-3.078153
-6.387226
-9.510230
-11.655886
-12.453036
-12.096235
-11.671210
-11.272625
-10.868818
-9.380591
-6.298052
-0.948090
6.241664
13.839462
19.698337
22.499815
21.979156
18.975954
13.448750
5.437697
-2.732657
-9.078888
-11.854892
-11.178837
-7.701310
-4.728780
-2.686265
-1.342649
-0.262794
0.412608
1.893980
3.243472
3.801357
3.568614
3.087454
2.928813
2.346132
1.154321
-0.337484
-1.987610
-1.789784
1.287859
6.166774
11.884628
16.938839
19.968496
21.640506
22.311664
21.939860
20.475150
17.958010
15.034458
12.663235
12.226796
13.031140
14.353538
15.968422
17.369491
18.376551
18.451311
15.861050
10.687050
3.644858
-3.450217
-9.601239
-13.798870
-14.836603
-13.052952
-9.197739
-5.907914
-4.469305
-4.498025
-5.299745
-5.945102
-7.105901
-9.505850
-13.626116
-18.939178
-22.357280
-22.235513
-18.406416
-12.414681
-6.664836
-0.639478
5.970526
13.078344
20.424460
26.450144
28.479928
26.205983
20.049411
12.797321
7.413422
4.037104
2.878916
2.511682
2.614516
4.166071
6.163211
7.784951
8.048391
7.931859
9.285268
14.021531
19.822300
23.345201
23.686659
22.276790
20.984763
20.524495
20.454644
19.932027
18.937057
16.694450
12.592791
7.075381
1.389856
-5.064426
-12.503563
-20.235841
-26.238008
-30.927578
-34.165814
-34.688432
-33.154177
-31.064329
-29.170343
-27.244039
-24.697181
-21.483088
-17.277937
-11.953110
-5.979003
-1.121307
2.064060
4.221153
6.584228
9.393540
13.699561
18.047691
20.220127
19.163135
15.085959
10.370601
7.302111
5.954591
6.708663
7.952390
8.883718
10.681732
14.292118
18.779310
21.267083
19.394001
14.031647
7.471601
0.506448
-4.946982
-8.034404
-9.567340
-12.249983
-16.417582
-22.041084
-27.063618
-30.248645
-30.805538
-29.209588
-23.735254
-15.421908
-5.816204
2.856221
8.419345
9.941522
8.766033
7.208941
7.867041
10.529784
12.045105
11.706598
9.437876
5.752422
2.343460
0.574185
-0.568987
-1.153627
-2.279171
-3.564995
-5.089444
-7.598096
-11.400740
-15.220032
-18.181450
-19.720262
-19.154216
-15.239919
-8.797703
-1.241362
5.998336
12.143822
16.607511
18.302045
16.056500
9.432798
0.294562
-10.424275
-20.685124
-29.515857
-35.971771
-39.175731
-39.008590
-35.823550
-28.855446
-18.955949
-7.466710
2.401122
8.737573
11.051682
8.768270
3.734311
-0.665710
-3.744972
-6.935875
-10.418285
-12.684396
-12.165357
-7.991543
-0.757068
7.829831
16.213034
22.020006
25.841595
27.824699
27.862245
26.782402
25.975133
25.257960
24.600198
24.229373
24.092930
23.646372
22.192107
19.315561
15.190726
9.708570
3.722724
-2.982586
-9.691161
-15.736418
-20.571578
-23.977929
-26.039364
-26.230975
-24.096079
-20.361322
-15.677942
-9.673476
-4.112637
1.051909
6.129950
11.251081
15.899205
18.462712
19.641478
21.133622
23.096160
25.720057
27.954516
28.291404
26.593291
23.675941
19.990162
15.332583
10.371419
6.548862
4.381335
3.157208
4.010191
4.529230
3.743832
0.799061
-4.014880
-9.544043
-14.833275
-19.026662
-21.401476
-21.352504
-18.795200
-14.699731
-8.945642
-0.957426
7.472457
15.066664
21.023470
23.648020
22.461432
19.939070
17.220519
14.711214
12.787534
11.826188
10.699338
9.868565
9.742241
10.251160
9.886538
8.237065
4.458904
-0.529681
-6.063087
-10.858422
-14.868679
-18.428128
-21.632741
-24.940508
-26.659513
-26.149940
-24.881731
-23.918413
-23.085669
-21.936935
-19.321199
-14.708655
-8.425414
-2.035428
4.771090
12.191634
20.130231
27.716278
32.779956
33.143938
29.443468
22.986576
14.718291
5.965576
-1.642003
-5.748558
-5.320268
-0.606203
6.999103
14.767954
20.899076
25.403569
28.962378
29.933204
26.584959
18.350624
7.524389
-2.655177
-9.349389
-12.445625
-13.828401
-14.824350
-16.141185
-16.600474
-15.884268
-15.608423
-16.084360
-17.882036
-22.165193
-28.939707
-36.105945
-40.098574
-39.358212
-32.918934
-23.279280
-13.435603
-5.091247
1.759014
8.506447
12.625093
14.368266
13.498974
10.032560
5.172264
0.508483
-3.479250
-7.538472
-10.226990
-11.810197
-11.718463
-10.496934
-9.601514
-9.544708
-9.931202
-10.361764
-10.527913
-8.598019
-6.088375
-4.555100
-3.625404
-1.994525
2.430318
8.832709
15.788734
21.384176
24.693261
26.967545
28.677422
30.083061
31.266397
30.098742
26.034297
19.587850
10.683669
0.057865
-10.177848
-17.961375
-21.421588
-20.544775
-17.623495
-14.617668
-12.585273
-11.396714
-11.840987
-14.083594
-18.620718
-23.876980
-29.443030
-32.904875
-33.525749
-32.147857
-27.281673
-19.864068
-12.770286
-8.932701
-6.029702
-3.092427
1.010877
6.662139
12.729607
17.404499
19.247562
19.138539
18.288180
16.903772
14.911215
13.224854
12.954572
12.889617
11.372024
8.176551
5.048650
3.681543
4.161084
6.051153
8.609110
11.312004
14.328277
17.846934
21.184093
22.990921
22.964813
21.643733
19.537903
17.021742
13.053596
7.047511
1.686137
-0.970065
-1.475707
-0.857758
-0.155915
-1.036632
-4.554298
-10.161478
-17.319228
-25.220273
-31.216891
-34.831181
-36.804153
-36.478037
-32.489965
-23.774124
-11.007216
3.774454
18.201941
29.752876
36.712492
38.865995
36.701406
30.705767
21.227059
9.204437
-2.940272
-13.220054
-19.298608
-20.245265
-17.427465
-12.948108
-9.305079
-6.622423
-4.538451
-3.925725
-5.133204
-7.979391
-12.106512
-16.119380
-18.746529
-16.297275
-8.611013
1.003506
10.036642
16.877436
19.976623
19.426259
16.877455
14.661289
13.870015
11.991384
7.678194
0.866466
-6.297487
-11.167902
-11.599770
-9.022553
-6.110087
-6.510944
-11.497896
-18.141837
-23.533243
-27.169405
-31.174112
-36.118302
-40.502980
-42.046688
-39.717563
-33.700040
-26.107465
-17.693251
-8.445646
0.892055
9.934331
18.059650
24.001766
26.641658
24.174463
18.885231
12.810921
5.965243
-1.794781
-8.406078
-13.871259
-18.123078
-19.485941
-18.411308
-16.341372
-14.452935
-14.144121
-16.419045
-19.757497
-23.612697
-26.426567
-26.939391
-24.950085
-22.275264
-19.701639
-16.081786
-11.768911
-7.632637
-3.614207
-0.386730
2.044243
3.478935
5.524714
8.645119
11.063362
11.670539
10.290701
8.832519
7.618837
6.086228
3.428394
-1.504697
-7.834932
-13.716319
-18.115360
-21.598424
-24.404132
-25.865579
-25.266237
-22.786951
-19.273190
-16.089456
-16.195215
-19.970111
-25.767277
-30.415716
-31.129298
-27.172891
-21.633270
-18.726027
-19.492818
-21.840864
-21.394293
-16.177844
-8.942389
-2.102248
4.820155
12.190101
20.598765
28.689808
35.643875
40.383402
40.849232
37.371392
31.557578
25.305034
18.669254
11.958395
5.690835
0.166569
-4.609833
-8.026303
-9.876861
-10.014284
-6.931092
-1.382657
4.226168
8.454823
9.913671
9.170057
6.561841
1.710033
-3.015118
-5.984697
-5.272408
0.251870
10.158222
21.605677
31.057304
36.273754
36.136657
31.163741
23.079566
13.858089
4.658810
-4.879636
-14.910674
-24.426596
-32.431774
-39.354164
-44.691055
-47.851273
-47.508836
-43.424792
-36.552008
-28.580114
-22.071632
-18.068870
-15.784466
-14.744109
-14.846277
-14.964767
-14.307646
-12.100281
-7.471416
-0.880019
7.072615
16.087798
24.859785
32.254867
36.813875
37.733124
35.054725
30.086380
23.281180
14.674708
6.210235
-2.533013
-10.702062
-16.098691
-18.656962
-17.763827
-14.028416
-8.558653
-2.332864
1.807654
1.868051
-1.281069
-5.417003
-8.442730
-10.098732
-11.331347
-11.386508
-9.978258
-8.030083
-6.613999
-7.425185
-10.231547
-13.732891
-15.835457
-16.220318
-15.901384
-16.718120
-17.512985
-16.798084
-14.110532
-9.454899
-2.561549
5.048001
11.996518
15.664357
13.594107
6.431461
-3.328635
-12.909845
-20.521667
-26.706312
-31.627651
-33.758291
-32.401291
-27.289954
-18.934825
-9.297129
-2.035234
1.971772
2.778074
1.501064
-1.208673
-3.405579
-3.886413
-1.515503
2.835891
8.366372
13.497948
18.530615
21.473439
20.436359
15.259421
7.515719
-3.127713
-15.136624
-26.254040
-34.479235
-37.961646
-38.464677
-38.609934
-38.995122
-38.618083
-35.942935
-32.663882
-29.390378
-26.820996
-26.367244
-26.389109
-26.101512
-24.460187
-21.999508
-18.780845
-13.932289
-6.373989
2.973831
11.623732
17.777052
21.845101
23.231153
21.992009
18.964324
15.220765
12.603410
11.128580
10.509664
11.481796
13.278831
15.583800
17.448081
19.193866
19.233044
18.091178
16.517764
14.310739
12.573454
11.701224
10.502232
9.281695
8.461368
7.855510
8.070311
9.683889
12.283303
15.007742
16.956244
17.305210
15.976623
14.266432
13.541425
14.408771
15.305496
14.707146
11.624619
6.824388
1.044197
-4.658303
-9.276710
-12.106575
-14.269205
-17.086992
-19.353429
-20.977114
-20.583753
-18.180853
-15.189390
-11.398485
-6.957647
-2.396027
3.441630
8.804649
12.873350
14.260056
13.348653
10.721178
7.422552
3.684542
-0.250634
-4.984926
-10.584598
-16.517888
-21.422579
-24.350701
-24.179969
-19.523030
-10.851258
-0.856116
8.795616
17.600901
24.843537
30.013632
32.811193
32.817075
30.992632
29.634013
28.461462
25.059029
18.872098
11.209352
3.490459
-1.348945
-2.596902
0.328948
6.136572
13.034492
17.755412
18.192843
15.015323
10.462857
6.218546
2.285981
-0.854651
-4.149035
-8.290519
-12.724163
-15.984596
-16.329959
-13.582017
-8.816048
-4.089252
-0.783758
1.074974
3.867311
7.775407
9.980813
8.382916
3.102171
-3.260708
-7.845492
-9.608238
-7.919253
-3.943260
0.621624
4.246047
7.175487
9.443896
10.340295
9.556529
6.393373
-0.033162
-5.758185
-7.049559
-4.758300
-0.670012
3.792371
7.325718
8.889025
8.172505
4.956140
-1.010773
-7.353087
-10.628537
-10.023972
-6.482464
-2.714736
0.534938
3.886460
7.927741
11.843018
13.256817
8.939058
-0.795249
-12.367390
-21.141650
-25.935679
-26.958723
-25.408147
-22.660204
-18.982573
-12.748623
-3.063268
8.710623
18.744611
23.948003
24.580316
23.264460
21.998222
21.009454
19.736361
17.122270
13.813197
9.780090
6.168411
4.758541
5.356578
7.331194
8.709739
9.695581
10.638987
10.363808
9.655775
7.375627
4.517689
1.090446
-3.531878
-7.009065
-7.836247
-6.333983
-3.244262
-1.093697
-0.199257
1.186143
2.505276
2.399191
-0.797262
-7.657629
-15.809703
-22.874092
-26.848441
-25.931803
-21.857879
-15.748628
-6.610705
5.429231
19.165327
31.887513
41.323145
47.290397
49.691991
49.485690
47.785619
43.804741
37.791475
29.740923
20.014776
9.257419
-0.644677
-9.738844
-17.482873
-23.259473
-26.412836
-27.752849
-26.359941
-21.013244
-12.448869
-2.701491
6.764825
15.333443
22.278044
28.110804
32.435105
34.034973
31.502490
24.882053
15.739900
5.931165
-4.835332
-15.850574
-25.718720
-32.416522
-36.105893
-36.643526
-35.359648
-31.857639
-26.594183
-20.167962
-13.917690
-9.472935
-7.184288
-8.159998
-11.372772
-15.572035
-18.569035
-18.929741
-16.332938
-11.087762
-5.468491
-1.046586
2.444977
5.436767
8.962606
13.913011
20.754457
29.460505
39.548682
48.819137
54.913046
57.343040
54.168458
44.891814
30.625599
12.507768
-6.133339
-21.183326
-31.850914
-37.790732
-37.285077
-30.904557
-21.427142
-11.088916
-2.341084
4.699488
9.259149
11.035945
12.196757
11.907215
10.883519
7.874767
1.739740
-6.367285
-14.268330
-20.869181
-25.458535
-26.950993
-23.492726
-14.428252
-2.433690
10.234634
21.105930
27.932035
28.678926
23.441271
14.588340
4.410732
-4.571141
-11.139348
-13.574879
-12.614172
-10.522692
-6.690330
0.242192
7.759687
12.916399
15.094385
14.831610
13.803344
12.921648
12.446363
11.146829
8.816411
4.724545
0.633332
-1.790773
-1.954311
-1.640274
-3.156888
-8.357330
-15.549029
-21.168614
-23.245392
-21.571097
-17.364313
-11.700973
-5.834590
-0.043287
6.218410
12.788589
19.527208
25.953428
31.841356
36.304392
37.629401
36.176116
31.453576
24.407140
16.788463
8.776430
2.753371
-0.498902
-1.347955
-0.733923
-0.706823
-2.641601
-6.565026
-10.514239
-12.672953
-12.147711
-8.243860
-1.269554
7.229207
15.177271
20.986202
23.800737
24.242737
23.232425
20.891887
15.854663
9.719310
5.762588
4.603095
7.002404
10.624542
12.906334
13.217433
11.919205
10.132628
9.473234
9.680527
10.329162
10.070957
7.716709
3.851063
0.062783
-3.095150
-4.862467
-5.201301
-3.995768
-1.469149
1.304582
3.765914
5.800595
6.451187
6.405819
5.689625
4.405107
3.871717
4.802392
7.100506
10.737007
14.602991
16.574996
16.218208
14.904637
13.559402
13.294669
14.406189
16.020093
18.245412
20.154088
23.020201
27.568436
31.552917
32.452907
29.456886
23.301946
16.340384
8.727909
0.823600
-6.928590
-14.517235
-21.703712
-28.775610
-34.688334
-36.900256
-35.740424
-32.615121
-28.558498
-25.037556
-22.715612
-21.076898
-18.896954
-15.166766
-9.091791
-3.037381
2.029561
6.261154
9.197450
11.985871
15.387337
17.715484
17.919186
15.408901
13.322330
15.561359
21.614790
28.984410
35.148503
38.476521
39.110792
37.511263
33.385122
27.453138
19.988538
10.970430
0.878349
-9.314274
-18.672528
-26.188052
-32.168022
-34.932273
-35.192110
-32.696176
-25.978448
-13.387815
2.337254
15.442350
22.566490
22.038976
15.031386
3.666206
-9.691865
-22.588356
-33.347345
-40.617389
-44.309698
-44.816973
-41.719091
-36.044326
-29.485899
-24.281527
-19.613490
-15.252628
-11.917428
-10.396884
-9.772406
-9.807328
-10.678579
-11.935350
-13.382107
-12.229783
-7.621156
-1.099943
5.773168
9.819019
9.806621
6.926158
4.134159
1.943455
1.012793
2.496124
5.587477
9.706449
13.742181
17.137119
18.611962
18.233629
16.323007
11.690564
5.068495
-1.142266
-5.153175
-5.709742
-2.897165
1.770546
7.935618
13.778824
17.887024
19.654027
19.526724
18.888222
16.487293
12.771481
10.217128
10.548467
14.026646
16.692653
17.580564
15.701933
11.837267
7.325604
1.755638
-3.727497
-10.018234
-16.130084
-20.273853
-22.550083
-23.912620
-23.877685
-21.629516
-17.149832
-11.686923
-6.101601
-2.957692
-3.217202
-5.978516
-9.470393
-12.293076
-12.995886
-10.227378
-3.603664
4.293802
12.321517
21.537457
31.312908
40.189029
46.686412
50.630742
51.605485
49.232630
43.456682
35.059456
24.768901
14.034395
3.977569
-3.233391
-6.690339
-6.887826
-5.644100
-4.450318
-3.395598
-2.302358
-0.813152
0.987801
2.177339
2.487786
1.950479
-0.767093
-5.858505
-11.718673
-16.152317
-19.661168
-21.508462
-21.884836
-22.425407
-22.489382
-21.817245
-20.517371
-19.526306
-19.643163
-20.502336
-21.400028
-22.418175
-22.963316
-22.599987
-20.996528
-18.654672
-18.539760
-20.414474
-21.958835
-22.338800
-21.027828
-18.005679
-15.593966
-16.511570
-20.116067
-23.591622
-25.744460
-25.841731
-24.074075
-20.328545
-14.104389
-5.534791
4.813555
15.132195
23.650216
27.625230
25.666622
19.572399
11.548615
3.839188
-1.571478
-4.922334
-7.066684
-7.677439
-7.041210
-6.407592
-3.990002
-0.584618
3.483757
6.596981
9.339048
13.154109
17.375582
20.592939
21.641783
20.394805
17.857427
14.271863
9.162170
3.254342
-4.955510
-13.098444
-18.254163
-19.505712
-17.266030
-12.664585
-7.953458
-4.035896
-1.203733
1.292201
4.056465
5.078868
3.017106
-0.807409
-4.959665
-9.343691
-13.037631
-14.375685
-14.606469
-14.866958
-15.209709
-15.287721
-16.247436
-16.001624
-12.548580
-6.885566
-0.505047
5.085172
10.176596
13.475889
14.986640
14.223113
10.248438
5.547116
2.033042
0.844496
3.434770
6.588145
8.539258
9.425864
10.163289
12.028222
13.984232
14.398159
13.061084
10.034705
5.546546
1.608758
-1.610545
-4.736814
-7.584960
-8.491792
-6.317070
-1.913772
3.225312
7.138630
9.557199
10.888084
10.704307
8.008933
2.386084
-5.089289
-11.298416
-15.052421
-16.957820
-16.339218
-12.522199
-6.747870
-1.710961
2.732816
6.288034
5.923085
1.777357
-5.850461
-14.710247
-22.461131
-28.441427
-31.475641
-31.633630
-28.825623
-22.256424
-12.034409
-1.341020
6.713135
10.560187
11.354412
11.020148
11.793480
13.301946
12.750603
8.285621
1.431782
-6.581556
-14.871386
-20.676386
-22.144361
-19.263560
-12.281745
-3.311285
4.102404
8.158701
9.600900
9.844101
8.823016
6.111974
2.313900
-1.788411
-6.138161
-9.706751
-11.730972
-10.755902
-7.410256
-3.790077
-1.006553
0.713443
1.300381
3.048777
5.293355
6.853072
7.257532
6.108811
2.440985
-4.316881
-12.308022
-18.844238
-21.776278
-20.976178
-17.775795
-14.024389
-9.263318
-3.540893
3.257791
9.828622
15.528523
19.445432
21.401115
21.902200
21.554226
20.076131
17.935699
15.503432
11.686099
7.060184
3.456014
2.014806
1.362920
-0.242484
-2.747546
-6.093832
-10.105721
-12.939177
-13.451022
-11.442457
-7.845455
-3.783609
-0.756564
1.019253
1.835675
2.766676
4.570567
7.762462
10.364487
12.001895
14.317311
17.480806
22.293454
28.890074
35.327393
39.288371
38.354771
33.164449
