EVENT_NAME: 202302060117
EVENT_ID: 13194
EVENT_DATE_YYYYMMDD: 2023/02/06
EVENT_TIME_HHMMSS: 01:17:32.00000
EVENT_LATITUDE_DEGREE: 37.288
EVENT_LONGITUDE_DEGREE: 37.043
EVENT_DEPTH_KM: 8.6
HYPOCENTER_REFERENCE: AFAD
MAGNITUDE_W: 7.7
MAGNITUDE_W_REFERENCE: AFAD
MAGNITUDE_L: 
MAGNITUDE_L_REFERENCE: 
FOCAL_MECHANISM: 
NETWORK: TK
STATION_CODE: 6303
STATION_NAME: 
STATION_LATITUDE_DEGREE: 37.7524
STATION_LONGITUDE_DEGREE: 39.3291
STATION_ELEVATION_M: 800.0
LOCATION: Kahramanmaras_Pazarck_Turkiye
SENSOR_DEPTH_M: 
VS30_M/S: 986
SITE_CLASSIFICATION_EC8: A
MORPHOLOGIC_CLASSIFICATION: 
EPICENTRAL_DISTANCE_KM: 208.12
EARTHQUAKE_BACKAZIMUTH_DEGREE: 
DATE_TIME_FIRST_SAMPLE_YYYYMMDD_HHMMSS: 2023/02/06 01:17:47.8876210
DATE_TIME_FIRST_SAMPLE_PRECISION: millisecond
SAMPLING_INTERVAL_S: 0.01
NDATA: 14501
DURATION_S: 
STREAM: HNN
UNITS: cm/s^2
INSTRUMENT: sensor = CMG-5T/GURALP | digitizer = 
INSTRUMENT_ANALOG/DIGITAL: 
INSTRUMENTAL_FREQUENCY_HZ: 
INSTRUMENTAL_DAMPING: 
FULL_SCALE_G: 
N_BIT_DIGITAL_CONVERTER: 
PGA_CM/S^2: 117.423
TIME_PGA_S: 
BASELINE_CORRECTION: BASELINE REMOVED
FILTER_TYPE: BUTTERWORTH
FILTER_ORDER: 
LOW_CUT_FREQUENCY_HZ: 
HIGH_CUT_FREQUENCY_HZ: 
LATE/NORMAL_TRIGGERED: 
DATABASE_VERSION: 
HEADER_FORMAT: DYNA 1.2
DATA_TYPE: Acceleration
PROCESSING: Automatic Paolucci et al., 2011
DATA_TIMESTAMP_YYYYMMDD_HHMMSS: 
DATA_LICENSE: U (unknown license)
DATA_CITATION: Turkish Accelerometric Archive v 1.0 - Disaster And Emergency Management Presidency, Earthquake Department
DATA_CREATOR: AFAD
ORIGINAL_DATA_MEDIATOR_CITATION: : AFAD - Disaster And Emergency Management Presidency
ORIGINAL_DATA_MEDIATOR: AFAD PROCESS SERVICE
ORIGINAL_DATA_CREATOR_CITATION: AFAD PROCESS SERVICE
ORIGINAL_DATA_CREATOR: network: TK
USER1: GuestUser
USER2: 
USER3: 
USER4: 
USER5: 
[...]
5.399535
3.369903
0.413618
1.536114
3.095328
0.050252
-0.730621
2.168666
3.177494
3.021002
0.119505
-3.670231
-2.568202
0.222140
1.204520
0.351543
-0.736953
1.592740
4.062863
1.859109
-2.462436
-2.609797
0.772810
1.262738
-2.066978
-2.637204
1.493210
5.211149
5.968399
2.178034
-3.300331
-5.337520
-0.536755
1.582607
-5.015108
-9.354915
-7.635748
-3.629391
2.663525
8.936291
8.493270
3.978397
-1.616783
-8.630751
-8.526534
0.562082
5.926143
4.227750
5.497917
8.321006
5.442809
4.048262
4.028736
-2.268596
-6.423891
-2.933286
-2.814899
-7.944707
-9.780381
-5.719238
-1.364954
0.801324
3.183599
3.657155
3.385736
5.016426
5.397096
1.629401
-0.823727
-1.396158
-3.531900
-6.379241
-8.440360
-7.602504
-0.717324
7.963540
11.234999
8.883573
6.697766
6.514196
5.349816
5.429474
5.091933
2.268208
-1.610005
-6.746110
-10.094403
-4.213332
2.208051
0.492655
-2.409787
-2.812190
-3.697283
-4.223429
-1.211420
1.150389
-0.071296
-3.931562
-4.724714
1.293324
5.645719
2.616701
-1.233804
2.061584
7.749957
7.527973
9.056646
13.028997
12.354550
8.612674
6.138135
7.170578
10.226353
10.200216
8.775127
10.704939
11.118041
6.942908
-1.121769
-7.921313
-11.347693
-12.090781
-8.861514
-4.816114
-5.022985
-7.021131
-5.154291
-3.438273
-5.280560
-3.311704
1.307698
-0.348818
-2.367745
-1.548151
-4.580004
-5.932358
-1.639788
-1.229206
-3.557961
-1.973557
3.178598
8.377669
11.289235
11.228148
9.298013
6.667615
4.557377
6.427680
8.162590
6.681770
5.098933
7.461372
11.542667
13.952651
13.253644
11.541712
12.383031
9.173594
3.600140
4.187992
6.701253
2.001553
-6.483471
-10.627116
-12.544027
-15.269199
-14.409303
-9.758729
-7.140618
-5.356589
-2.321595
-0.533157
1.713411
3.905507
1.759374
-2.230931
-5.269711
-6.559722
-4.137773
-2.030691
-3.321961
-5.299011
-5.972514
-2.700426
4.497102
10.766719
13.277460
13.571227
12.536257
5.951138
-1.897226
-0.532284
1.465855
-1.561589
-4.398225
-9.088163
-12.814926
-9.237732
-3.209303
-3.397282
-8.550704
-11.868455
-8.030867
-2.153574
0.331348
-4.085916
-14.643076
-18.185327
-16.011492
-15.752676
-12.088894
-3.946767
-3.369305
-11.683357
-17.355364
-17.053410
-14.648779
-10.814025
-5.275843
-6.878831
-14.179642
-16.116074
-12.452922
-9.441228
-6.241559
-1.345705
2.913804
2.228966
-5.836026
-8.967691
-1.217572
8.653486
10.089274
1.132895
-3.745019
-0.916578
-2.384803
-2.230208
4.398357
6.543223
1.786218
-5.271202
-10.824504
-14.031422
-14.272614
-13.374618
-16.572405
-18.515764
-10.529496
2.654272
7.747548
1.311675
-6.953572
-7.823552
0.131545
8.309252
10.802990
8.098284
1.180666
-1.346456
1.299363
0.648845
1.385000
4.346944
1.871146
-1.390559
-1.768087
0.607891
4.012538
-0.315934
-7.303453
-9.098510
-8.395102
-5.723779
-0.252349
5.012529
5.110449
1.101881
0.576051
4.952376
8.041526
6.448929
5.146952
7.663361
10.370579
12.424134
12.312038
9.759413
6.117664
-2.254323
-13.123200
-11.492196
-3.322045
-2.097848
-1.611698
0.935568
4.091785
9.036759
13.835319
14.551322
15.662482
17.434861
17.316153
18.589784
19.264225
17.467908
15.246522
7.305273
-2.436383
-0.891652
0.958499
-5.476429
-8.028110
-6.147417
-11.536359
-20.426616
-23.554187
-24.286255
-23.919125
-18.760357
-10.499525
-6.082583
-5.029673
-4.423873
0.709390
9.572562
10.559349
6.530315
6.490638
8.019941
8.171388
6.594219
2.601394
-0.830024
-4.214212
-9.628028
-19.382279
-29.400072
-27.645640
-18.532465
-13.837810
-11.160190
-7.554343
-3.816252
-0.474894
1.092823
0.467809
-3.319722
-6.561591
-6.546481
-4.791734
-3.085476
-3.971514
-3.151605
1.748657
6.169378
7.113029
5.382520
5.720368
9.826852
13.035653
7.573346
-1.893116
-3.616698
2.180933
4.354768
-3.051524
-9.359561
-8.752502
-12.823099
-25.344080
-30.739635
-25.863302
-22.399775
-21.577033
-19.320389
-14.675798
-8.730494
-4.946748
-0.253667
7.073586
8.945148
8.743315
13.150182
15.176659
9.376501
4.428372
3.854681
9.004318
15.098869
14.712839
13.800353
9.233527
2.720511
3.986900
7.887777
6.041711
2.462306
-1.516034
-2.980167
-4.609289
-8.297008
-6.340747
-1.913099
1.268308
4.414450
10.346529
17.302555
19.740877
15.970348
11.071653
5.290072
-3.802014
-11.722483
-13.944184
-14.097842
-16.491145
-17.504389
-14.746478
-12.487944
-8.287630
1.860511
9.473978
8.871949
4.135725
-0.941184
-1.836983
2.625300
2.292798
-4.388041
-5.831707
1.107945
3.432285
4.000930
9.733385
14.361603
16.360686
11.753242
2.892898
-4.694757
-10.737047
-13.557939
-11.500920
-10.729186
-9.850397
-1.083890
9.663442
15.510193
16.906622
12.427014
3.566039
1.670855
10.608334
19.217409
23.405758
27.803494
28.391346
22.838043
18.404720
16.950979
17.609361
21.069109
20.680876
16.610909
14.295692
9.836236
2.624847
0.024991
3.565975
6.830822
7.859487
9.571097
14.641387
20.334168
17.544448
11.726343
11.717523
13.271386
11.680992
9.461495
13.439828
20.304857
23.392119
23.813092
25.183387
26.529437
24.816560
23.504823
25.738167
25.416685
20.063008
15.440765
13.476625
8.042342
-1.227959
-7.942489
-11.240718
-13.931885
-14.802179
-12.982570
-11.111952
-8.588616
-7.764299
-5.802685
1.637290
6.974272
4.324668
-2.003521
-8.328876
-13.583685
-19.428239
-28.130206
-32.484812
-30.928746
-28.739798
-26.673648
-25.306187
-20.695287
-11.058174
-6.979713
-10.556599
-10.508428
-3.994790
3.964400
10.744730
13.708879
10.439617
7.079359
7.499073
9.336000
14.869459
24.823327
34.202250
39.342126
39.006789
31.842630
23.214657
17.822881
13.421360
11.724226
13.048865
8.771087
-2.438476
-14.734958
-30.512918
-46.891328
-54.370353
-55.957913
-57.901272
-60.161702
-62.347508
-64.095650
-62.730078
-52.858075
-38.225606
-31.856492
-36.767467
-40.869550
-35.382377
-24.552235
-10.324370
3.619171
10.403594
15.340696
18.379468
10.668701
-1.443584
-8.200306
-10.902178
-12.212026
-16.070403
-20.736097
-21.596315
-20.453984
-20.091576
-17.165841
-6.110255
10.393780
25.350246
32.422772
30.386213
24.616912
18.168129
9.605018
-1.989311
-18.253740
-32.448551
-37.013488
-37.576473
-39.252510
-35.646034
-27.637095
-19.401453
-12.252729
-12.231322
-16.509415
-20.873153
-25.348982
-27.985992
-29.316621
-33.884707
-35.487380
-31.980402
-28.412339
-24.096469
-15.655533
-4.001071
5.428545
8.143319
5.666262
8.029331
13.295468
15.118856
15.728748
17.939422
17.018119
13.490037
7.444284
-2.076650
-7.367984
-8.719394
-9.812614
-9.311036
-4.925580
-1.572886
-1.625472
-2.153192
-2.975311
-2.024733
0.901947
4.204892
10.397681
19.393726
28.325853
37.817812
45.611697
47.182877
43.733512
39.162907
37.837316
37.531892
32.119335
22.977815
14.262938
6.391274
-2.427193
-12.308020
-20.417093
-21.861704
-17.241042
-13.724303
-13.708878
-15.493859
-17.614488
-17.556556
-15.343364
-10.150276
-1.686040
7.603145
14.755647
21.357763
29.516263
37.211910
44.118816
50.916778
51.962446
47.278175
42.648690
34.774192
23.418217
14.302200
12.759037
15.255294
18.159303
22.575616
28.008948
31.951701
31.794265
28.784768
28.445338
31.966171
34.332074
32.601564
26.812742
21.317374
16.643809
12.974982
11.805564
7.998511
-0.770208
-8.400369
-12.062584
-14.877493
-16.623431
-16.077456
-14.556655
-9.326413
-1.731209
0.919963
-1.625106
-3.065308
-1.376998
-1.015535
0.949228
6.649566
7.163424
-0.949742
-11.132211
-14.779942
-11.611760
-5.732577
0.641890
4.085265
3.636577
2.580197
3.480711
6.689196
10.648953
9.460014
4.185683
-0.898154
-7.087802
-12.832543
-16.038831
-21.748937
-29.244021
-33.597368
-33.367519
-26.062936
-15.215792
-7.727012
-2.236061
5.624261
13.857070
17.775579
15.139199
11.936689
13.344768
18.715441
22.956058
20.149335
13.959688
13.560119
15.739935
12.571746
8.618594
9.022879
11.445458
12.008121
8.548680
3.472400
3.699730
7.116972
5.587347
-0.029874
-1.854213
-1.803523
-4.287508
-5.802334
-8.405968
-12.254898
-8.578207
-0.245586
2.006965
0.633200
1.641083
4.956938
5.464499
3.572148
3.795070
4.968889
4.193369
2.176331
3.607081
9.865677
15.906701
17.915230
15.591197
6.326249
-4.329464
-5.680244
-1.335406
-0.812731
-5.741339
-13.178802
-17.451228
-16.932961
-15.776461
-14.715679
-13.225735
-12.845695
-13.053195
-14.397049
-17.868769
-22.496050
-24.705471
-23.445379
-26.161735
-33.397054
-35.453765
-29.192965
-21.063747
-14.770831
-11.023609
-9.128746
-10.052883
-10.148921
-3.998639
2.628981
6.413042
9.427255
10.221344
7.751214
7.659584
9.330576
9.460298
9.244611
8.220032
6.894756
4.970289
-0.080487
-9.237436
-18.872667
-25.708735
-28.125653
-27.410910
-25.093497
-22.738929
-23.819240
-25.192061
-23.648904
-22.261291
-20.385636
-16.136202
-13.658837
-12.604352
-5.086291
8.127390
19.245005
25.847120
28.952329
29.037655
27.345559
24.629832
20.979582
19.565199
20.338192
20.553243
18.806045
16.400462
17.124022
19.223233
16.479168
10.774730
7.602447
5.388618
2.284661
1.785594
3.488703
2.303542
-1.047899
-4.289453
-4.219871
-1.384817
-0.347336
0.934482
5.051357
6.911269
6.607104
5.563634
1.878119
-0.454730
-1.664136
-4.180867
-3.865059
0.635638
4.852955
9.977403
15.453241
16.836445
14.626709
12.192159
11.707261
13.981537
16.430565
15.901271
13.870379
9.847957
1.769426
-5.721565
-5.634350
-0.211410
3.108853
1.864183
2.021297
6.337168
9.662154
7.875283
2.567261
-2.428098
-6.376841
-7.323648
-5.685716
-2.985740
1.818173
9.547195
19.234372
28.885969
36.335390
40.199112
38.531261
32.037767
26.191009
24.254892
25.300245
25.521278
25.253638
25.427755
24.724655
22.658498
20.430814
16.166260
8.735094
1.309281
-2.505644
-4.250322
-7.368448
-8.861233
-8.460097
-9.949104
-11.772184
-11.696305
-14.707691
-16.403250
-9.615363
-1.967262
-0.941745
-2.937372
-4.729595
-6.104306
-7.712332
-11.028824
-14.120815
-12.363864
-6.485942
-1.874412
-0.318975
-1.535308
-2.799500
0.216287
6.222990
10.529415
8.973656
3.370605
0.380944
-2.464192
-7.175542
-9.925589
-9.981953
-11.976321
-14.942996
-14.003123
-9.446695
-4.054926
-1.361562
-3.486914
-7.400077
-9.921531
-9.529211
-6.223432
-4.435309
-4.526309
-6.373004
-9.007810
-9.401082
-7.512831
-6.830205
-9.082448
-13.249393
-17.333529
-19.884581
-20.983468
-20.167653
-17.327561
-11.777729
-4.244869
2.274437
5.670583
8.438255
10.897673
9.556338
7.499313
8.343781
10.448974
13.211294
15.434562
14.044738
8.599749
2.218348
-1.964971
-4.076154
-4.820186
-4.425348
-4.014765
-3.119918
0.900607
9.029825
18.629469
25.967742
28.337423
28.243589
26.990732
24.703854
23.258298
22.542918
20.446849
17.692709
16.030840
14.731383
13.915246
11.975665
9.699492
6.283818
1.927008
-3.048200
-9.626078
-16.114849
-20.300057
-21.695863
-22.060167
-22.804515
-22.305770
-17.544679
-11.834895
-8.824145
-6.121965
-1.944636
1.682621
4.953135
9.012705
12.595881
13.169249
11.652534
10.891813
10.325995
10.089211
10.660061
9.211357
5.740895
2.500602
1.097868
0.283935
0.904218
2.508144
2.884091
4.443936
6.288735
6.543773
6.451199
7.947125
11.455049
18.962405
27.270152
30.976441
27.572102
19.395962
10.139200
1.470295
-5.168038
-10.456538
-14.671343
-16.022753
-12.141713
-4.712444
3.386862
7.124007
3.967783
-2.596241
-7.680078
-11.075601
-13.675771
-12.317756
-9.869358
-9.921315
-8.977034
-7.399871
-5.097887
1.094903
7.842486
9.840310
5.273169
-2.157367
-7.324643
-8.082215
-6.315504
-4.018557
-2.127787
-2.571752
-5.591955
-11.699422
-18.870194
-24.775517
-27.593575
-28.216069
-27.037843
-23.133818
-20.683216
-21.130645
-21.589094
-22.109886
-24.133536
-25.654974
-26.640510
-26.997257
-26.733088
-26.039440
-25.362796
-24.351764
-21.562995
-19.214725
-20.210336
-21.027733
-17.813265
-13.551237
-10.710516
-8.230002
-5.852134
-4.908168
-4.588267
-4.165091
-2.765513
1.501238
4.784347
5.669118
10.000417
14.516228
15.592752
17.526973
18.818237
15.407600
13.018705
13.541065
14.567841
14.972755
14.813114
13.044191
9.525241
8.401164
9.678888
12.043532
12.457892
11.893018
12.337606
14.769001
19.686896
26.126541
28.891064
27.099786
22.671186
14.106186
4.263773
-2.668330
-6.093765
-8.861129
-10.917526
-15.152482
-22.191955
-28.752200
-35.292294
-42.531706
-46.861123
-45.116766
-40.367010
-33.953500
-23.289922
-11.984647
-6.960957
-9.542235
-16.701986
-23.512551
-29.290668
-35.837689
-39.682841
-36.901630
-33.887732
-34.236922
-33.488803
-32.366938
-36.069770
-45.493411
-55.724369
-64.084391
-66.972034
-60.360158
-46.016422
-30.354340
-18.190739
-12.978759
-14.090241
-17.179399
-19.910868
-21.841003
-21.595096
-18.785232
-14.445117
-7.330399
-1.967282
-4.121602
-10.568495
-16.044026
-17.735807
-14.565735
-9.428064
-3.277152
3.638571
9.357801
9.453832
5.424797
3.340063
3.092260
3.538107
4.367777
5.202799
6.072456
9.500403
17.393471
28.590117
41.280490
52.014597
57.430611
58.192584
54.236914
48.517047
45.545964
45.740233
45.862712
42.320776
33.873537
21.153245
5.440462
-10.358594
-23.492305
-34.596073
-41.550531
-44.426524
-45.518170
-45.410174
-44.545240
-43.407631
-40.457651
-33.888597
-22.809081
-9.393571
1.329516
10.410890
19.919852
30.271082
38.761767
44.538617
48.774512
49.352918
46.087434
42.402864
41.475264
40.131725
42.621685
52.083103
61.479028
67.178107
71.617090
75.960039
78.946543
81.859684
87.378974
97.339140
107.035762
114.007216
117.422568
117.261983
113.176903
104.572859
89.194780
66.327918
40.742813
14.768220
-7.210719
-24.035295
-35.109780
-38.664626
-35.538636
-31.196946
-28.042303
-21.508199
-12.521915
-7.468627
-9.514318
-16.627783
-23.283748
-25.459479
-24.233392
-21.258223
-17.197709
-11.655749
-2.928285
8.473024
15.950153
15.010274
8.344233
4.442090
3.728599
2.708743
3.367755
6.650234
9.375399
7.491235
5.220415
3.605776
1.305988
1.112342
1.495846
-4.605324
-16.043795
-27.860106
-38.444029
-41.536336
-33.874065
-22.764952
-13.702155
-3.562201
5.636933
10.843561
11.116231
8.524877
5.041821
-3.654163
-15.429226
-25.886258
-32.247193
-33.765482
-32.530895
-30.436407
-28.084673
-26.063234
-20.286069
-7.506904
2.959252
4.913310
5.032326
6.515973
3.838660
-2.945141
-12.016131
-20.238556
-24.135346
-22.521660
-18.386523
-17.795207
-18.288291
-17.609758
-19.655134
-22.938564
-25.660903
-30.099578
-36.023479
-38.190393
-36.726582
-35.552449
-33.937188
-32.205111
-29.581648
-26.425116
-22.551632
-13.263706
1.067435
12.141913
13.473794
3.511417
-9.764929
-21.520155
-29.019962
-35.812579
-45.479611
-55.191039
-66.553942
-75.117053
-79.030531
-79.181356
-78.713783
-74.577701
-63.814626
-52.583974
-47.047681
-49.017174
-55.976355
-61.798239
-61.770849
-56.114592
-46.247942
-40.165986
-42.910365
-49.196362
-52.727277
-54.400796
-53.678811
-48.547122
-40.696246
-30.079898
-17.257597
-1.913215
13.883315
20.077363
12.551108
0.759986
-7.548082
-12.737714
-13.423182
-7.534239
2.565413
10.778700
12.098931
7.042173
4.152955
5.118017
6.029552
8.380026
13.098610
19.017466
20.294875
19.745430
17.776252
13.444946
11.483639
11.258191
7.330544
-1.512168
-12.046972
-25.687619
-36.266819
-38.632414
-38.339277
-39.131170
-36.760229
-30.587906
-22.982941
-15.340507
-7.770492
2.872619
14.465682
25.296139
32.031128
34.385695
30.432229
19.774627
9.109468
6.820386
13.576156
18.306076
18.824657
15.497775
12.632802
11.244867
10.814441
11.135287
10.512792
7.498572
5.273408
6.324743
5.963903
5.947526
6.707925
5.492537
-0.802276
-7.021836
-10.716482
-12.391260
-12.156688
-8.766210
0.420329
7.959487
10.603731
8.491289
6.671043
11.066574
17.479140
18.209942
13.248903
9.954452
12.302407
24.219468
37.073886
43.026117
40.614237
32.154402
21.510339
13.815001
12.313084
10.726469
5.414669
-1.340794
-4.506464
-5.298042
2.223798
17.439399
34.199106
46.874050
54.484997
52.727724
41.311924
32.296665
27.817687
25.031115
21.871742
18.642783
15.730580
14.458516
12.112128
8.778319
3.341202
-0.683739
0.700725
4.932211
4.095293
-4.109815
-10.503810
-10.580327
-4.984839
0.702275
1.034770
-3.148549
-4.620553
-4.926921
-8.414071
-11.331941
-10.991889
-5.547537
5.884629
16.814269
26.053075
36.409028
43.712666
43.232806
39.203772
34.521075
28.721547
24.998248
24.501700
29.157311
36.747163
42.627919
39.177295
29.493889
23.564951
23.220169
22.880739
21.430461
19.869665
15.444213
9.028177
0.719478
-4.925450
-6.422644
-9.194416
-16.496172
-22.267677
-26.896847
-33.350982
-38.343508
-36.112368
-25.803330
-16.101355
-12.208980
-11.982909
-13.126193
-15.823657
-17.431683
-17.807637
-14.150152
-4.816256
6.699665
19.064466
33.862554
48.144576
57.638110
60.610445
57.696983
53.233748
52.545132
56.245438
59.872066
60.464956
57.501115
51.560212
44.837495
38.570705
30.687706
22.245189
13.493474
7.077437
4.869905
5.239869
4.918702
2.899775
1.386524
1.054966
-0.526297
-4.327998
-5.487025
-5.115486
-6.630941
-9.535273
-12.987472
-15.706662
-16.848371
-14.934616
-7.274865
0.988801
1.994796
-0.321050
3.957351
14.327473
25.406674
33.261013
37.401818
38.465433
34.481425
26.887158
19.750392
15.610525
10.483551
3.132991
-3.292806
-7.217620
-10.658168
-12.332002
-7.038156
3.724604
12.897289
13.055663
6.401902
0.195252
-4.849541
-8.962960
-10.953549
-12.244190
-12.607864
-11.593368
-12.510263
-14.671824
-16.949256
-20.109574
-21.699653
-22.323407
-22.829401
-20.225774
-15.748062
-15.532068
-18.535267
-23.438685
-31.695431
-39.596692
-43.383909
-42.047620
-37.191753
-29.439746
-21.280931
-15.540605
-12.200505
-7.885894
-0.861858
5.321485
7.800425
6.277413
4.930725
7.698713
11.612813
11.852108
9.850499
6.077136
1.237006
-0.056154
3.000251
6.004073
6.646397
6.333416
6.407721
8.086270
6.763828
1.185651
-2.539222
-0.903810
3.027609
6.843471
9.182610
7.476975
3.497375
-1.467127
-7.550035
-12.466993
-11.537511
-5.175953
2.290156
9.992730
17.380752
21.768097
23.728766
23.890919
23.720573
23.858795
23.002040
22.378916
19.247881
12.019804
6.704225
6.638730
7.206115
6.304964
6.802135
8.611354
9.093096
8.713993
7.776632
6.221503
3.241289
1.770544
4.940616
7.699787
5.723996
2.628226
-0.336874
-1.762593
2.019579
5.545764
7.472743
12.248948
19.144834
23.390489
22.999737
18.609865
16.294964
18.799408
21.853294
24.929535
29.044521
30.659467
26.361222
20.763523
18.499315
17.729148
19.379360
25.920076
31.652531
34.259936
36.863563
40.630936
45.075902
47.289094
43.616804
36.049615
28.137963
20.974119
12.919518
3.994940
-1.525931
-2.882694
-2.030354
-1.469896
-2.562171
-4.940045
-10.714069
-18.984669
-24.430917
-23.637142
-16.718586
-6.269118
3.958369
10.327799
12.808628
13.244714
14.206627
15.728373
16.921713
17.776257
16.744122
13.876944
12.207519
12.176659
11.852658
9.757533
5.485422
-1.262799
-9.185471
-16.264617
-22.084611
-26.402693
-28.586610
-29.682663
-31.437102
-32.668234
-32.864714
-31.837938
-29.827520
-28.118113
-27.346379
-24.488026
-18.059401
-10.570937
-1.935729
9.104743
17.661235
21.537552
24.598680
28.909197
32.036132
32.447029
29.326385
21.513915
13.522917
7.805569
4.191214
