EVENT_NAME: 202302060117
EVENT_ID: 13194
EVENT_DATE_YYYYMMDD: 2023/02/06
EVENT_TIME_HHMMSS: 01:17:32.00000
EVENT_LATITUDE_DEGREE: 37.288
EVENT_LONGITUDE_DEGREE: 37.043
EVENT_DEPTH_KM: 8.6
HYPOCENTER_REFERENCE: AFAD
MAGNITUDE_W: 7.7
MAGNITUDE_W_REFERENCE: AFAD
MAGNITUDE_L: 
MAGNITUDE_L_REFERENCE: 
FOCAL_MECHANISM: 
NETWORK: TK
STATION_CODE: 4624
STATION_NAME: 
STATION_LATITUDE_DEGREE: 37.5361
STATION_LONGITUDE_DEGREE: 36.91765
STATION_ELEVATION_M: 466.0
LOCATION: Kahramanmaras_Pazarck_Turkiye
SENSOR_DEPTH_M: 
VS30_M/S: 280
SITE_CLASSIFICATION_EC8: C
MORPHOLOGIC_CLASSIFICATION: 
EPICENTRAL_DISTANCE_KM: 29.73
EARTHQUAKE_BACKAZIMUTH_DEGREE: 
DATE_TIME_FIRST_SAMPLE_YYYYMMDD_HHMMSS: 2023/02/06 01:17:07.3320300
DATE_TIME_FIRST_SAMPLE_PRECISION: millisecond
SAMPLING_INTERVAL_S: 0.01
NDATA: 10501
DURATION_S: 
STREAM: HNE
UNITS: cm/s^2
INSTRUMENT: sensor = GMS+/GEOSIG | digitizer = 
INSTRUMENT_ANALOG/DIGITAL: 
INSTRUMENTAL_FREQUENCY_HZ: 
INSTRUMENTAL_DAMPING: 
FULL_SCALE_G: 
N_BIT_DIGITAL_CONVERTER: 
PGA_CM/S^2: 319.957
TIME_PGA_S: 
BASELINE_CORRECTION: BASELINE REMOVED
FILTER_TYPE: BUTTERWORTH
FILTER_ORDER: 
LOW_CUT_FREQUENCY_HZ: 
HIGH_CUT_FREQUENCY_HZ: 
LATE/NORMAL_TRIGGERED: 
DATABASE_VERSION: 
HEADER_FORMAT: DYNA 1.2
DATA_TYPE: Acceleration
PROCESSING: Automatic Paolucci et al., 2011
DATA_TIMESTAMP_YYYYMMDD_HHMMSS: 
DATA_LICENSE: U (unknown license)
DATA_CITATION: Turkish Accelerometric Archive v 1.0 - Disaster And Emergency Management Presidency, Earthquake Department
DATA_CREATOR: AFAD
ORIGINAL_DATA_MEDIATOR_CITATION: : AFAD - Disaster And Emergency Management Presidency
ORIGINAL_DATA_MEDIATOR: AFAD PROCESS SERVICE
ORIGINAL_DATA_CREATOR_CITATION: AFAD PROCESS SERVICE
ORIGINAL_DATA_CREATOR: network: TK
USER1: GuestUser
USER2: 
USER3: 
USER4: 
USER5: 
[...]
-59.937525
-62.539876
-63.432174
-65.894249
-69.456442
-72.378567
-76.519523
-81.230929
-78.688835
-63.945702
-38.421421
-2.542270
38.525225
75.203681
100.575738
111.558731
112.214909
110.302503
114.413335
125.364895
132.662041
131.209683
124.851348
116.151466
106.031172
97.581446
89.940377
82.693896
79.418746
73.278876
59.203616
46.504606
39.676611
33.706629
23.625301
5.303094
-20.173380
-46.706850
-69.406406
-82.565984
-76.036973
-47.492629
-13.129744
15.773079
40.947972
60.151061
70.284352
74.703269
78.354832
80.516625
79.385081
75.291143
67.827756
58.530666
51.257429
49.660640
53.160498
57.414462
59.149457
57.708529
57.363302
63.324461
72.306202
76.665372
75.159502
65.971775
43.868127
15.230017
-9.414161
-29.602799
-46.089745
-53.781209
-50.136401
-43.767406
-44.497609
-53.033058
-63.758092
-68.271815
-61.185601
-41.779893
-14.960409
7.975545
19.794990
21.585315
15.336083
2.690585
-9.297959
-13.799213
-10.678616
-1.493218
9.313652
16.076455
17.744689
13.371761
2.028480
-12.852061
-29.693331
-48.066192
-63.563941
-71.230987
-68.799814
-60.796879
-50.508766
-36.554288
-19.000466
1.343783
21.210579
35.724078
36.202055
21.699736
6.008719
-0.990982
0.892600
7.576693
17.095374
28.556599
38.112426
42.693958
41.361094
36.457719
29.357227
19.036393
13.440996
18.256839
23.263610
23.439218
20.186669
10.697351
-1.590186
-10.835842
-16.457994
-20.539723
-25.941592
-33.815153
-43.505791
-52.782878
-59.223819
-64.143299
-68.801712
-69.373716
-62.426738
-48.230157
-31.442390
-18.549584
-7.739337
7.475015
27.850696
47.342387
62.327105
74.999888
83.073479
85.783903
86.986893
86.844804
84.467413
80.120721
75.706489
71.927650
66.011960
55.376806
39.407838
18.551855
-5.790992
-31.212396
-55.114157
-74.278271
-85.251643
-86.357730
-80.239152
-71.395868
-59.357438
-41.652691
-22.623906
-8.181844
-1.086279
-4.677565
-14.832408
-25.167790
-36.089468
-46.595517
-58.959167
-74.577448
-84.321338
-82.458798
-75.723790
-71.113424
-64.369325
-49.553716
-27.625142
-1.628343
23.924253
40.753582
43.332823
35.858005
25.099722
15.344402
11.944564
19.558626
35.532020
51.829865
63.813483
72.152038
78.817688
84.212813
93.253001
109.389269
121.162736
111.888506
73.113732
10.676698
-58.712505
-114.662614
-142.027602
-142.990556
-131.027719
-119.727290
-111.889048
-100.899821
-86.921445
-71.801908
-53.369810
-30.621409
-6.670282
11.387749
22.215660
26.135044
22.371271
16.775095
10.270251
2.803227
0.913420
6.934845
16.425731
22.958639
32.263791
52.086946
75.325269
95.632112
115.247452
134.345075
146.281416
146.279862
135.508330
118.724210
98.480500
72.623206
42.770941
11.265512
-21.004933
-48.355113
-63.578548
-63.288902
-50.268550
-31.237947
-8.944919
12.548024
22.633519
22.058657
19.272651
16.234929
13.973654
15.671502
19.670115
11.122456
-14.810691
-47.530274
-81.553373
-113.253887
-133.879975
-134.743699
-117.176109
-84.482493
-41.527784
4.622850
45.722037
73.849452
89.156542
88.505308
74.512135
59.545870
48.525740
39.501927
28.044088
9.868131
-14.804621
-45.037966
-79.096394
-104.508706
-109.352333
-97.098816
-82.629218
-77.968717
-81.304912
-83.105099
-77.731275
-67.406275
-52.355836
-33.093520
-15.011330
3.287506
24.511330
42.917710
53.132829
57.841906
54.450381
35.596170
9.966692
-10.016470
-24.603473
-33.789642
-36.422385
-37.739663
-38.447007
-30.242232
-7.845297
24.852736
57.502191
79.447390
89.536781
92.563862
86.924564
69.596750
42.234620
8.549998
-23.082197
-43.694517
-51.269085
-46.697684
-33.233129
-16.381719
0.939871
15.643259
28.242528
42.560940
56.313838
68.129907
81.769286
97.985044
111.535322
119.731265
124.167586
122.541963
112.964584
97.332795
77.762923
55.315862
34.934735
22.127142
17.001666
22.466409
36.623246
48.867931
55.284204
57.428073
54.192668
44.654514
30.187264
14.195436
-1.100474
-16.198960
-28.990448
-38.979299
-48.753582
-57.545163
-63.058732
-65.535095
-62.790642
-52.289519
-40.108477
-29.034046
-18.742815
-15.048911
-18.031042
-19.457423
-15.201380
-11.572158
-13.153361
-15.795975
-20.406851
-31.752210
-44.115600
-48.000684
-41.957958
-28.758366
-9.880507
12.976218
32.175670
37.336484
27.605582
13.380176
5.854184
6.748830
9.355086
4.811230
-10.208286
-27.451157
-39.128500
-48.022169
-57.188595
-62.803734
-63.152078
-61.493715
-58.645615
-53.550522
-46.182720
-37.354502
-27.611641
-18.309347
-12.119852
-11.421332
-18.878225
-32.257827
-44.253645
-52.965477
-58.482424
-57.001742
-49.474961
-41.213298
-32.899680
-23.428277
-15.650821
-10.752892
-3.052327
9.619936
19.097834
19.196031
12.751972
6.003466
2.481278
2.652470
7.871212
16.287438
23.097258
25.226061
19.431163
6.107931
-11.053113
-28.780191
-41.444911
-44.037131
-37.539551
-27.177923
-15.499272
-1.838852
13.742553
29.972598
42.165329
46.961170
46.048610
37.892941
18.261504
-10.812497
-40.787112
-62.963495
-74.439778
-79.420303
-80.815512
-79.189880
-76.502576
-70.142154
-57.248828
-37.047191
-10.810626
17.192621
44.873235
68.240923
85.049731
95.028721
97.764082
97.053102
93.332191
84.239019
70.407681
53.778642
32.651722
7.133944
-13.579426
-26.949676
-38.763917
-47.535496
-50.565424
-52.078048
-53.616389
-49.675185
-39.074051
-26.200208
-12.442375
1.210513
9.038364
7.625231
1.756040
-5.597206
-14.101484
-22.107527
-28.499371
-28.860704
-22.599253
-14.196275
-4.465624
5.975752
14.825790
20.047390
20.636808
18.080956
16.148028
18.824681
24.590755
26.893342
23.165937
15.378879
7.084754
2.308665
-1.723448
-15.293719
-41.692370
-71.335522
-94.412001
-107.447930
-109.192267
-99.689172
-81.924938
-60.987638
-38.839041
-12.609750
15.709894
38.276978
50.861180
51.541776
42.836179
35.091982
37.436652
48.745394
57.863512
57.831306
49.706289
33.782001
10.610707
-15.384784
-36.239987
-47.945125
-49.821944
-43.208767
-33.923878
-25.094101
-15.990790
-3.178771
13.650558
28.869067
39.797768
45.992458
47.955789
48.653530
47.851112
43.846015
37.797843
30.533698
22.825609
15.073879
5.604563
-4.853429
-11.016418
-8.441593
0.936553
9.317190
12.743534
13.915352
12.401429
9.527102
6.795387
2.695734
-0.813726
-3.547778
-0.919701
4.657001
8.222580
5.132126
-0.596531
3.311942
9.307910
26.109444
21.201913
11.462959
21.560402
-34.085779
-58.641116
-28.987824
-66.540130
-86.281188
-74.073390
-79.327711
-73.149386
-56.137959
-38.415028
-29.727605
-19.189335
-2.801611
15.736991
26.622311
37.712588
61.358227
58.484420
54.032262
63.848377
45.469282
23.872960
15.064495
3.317794
-6.357517
-12.595839
-25.609168
-32.687580
-20.809167
-10.265442
-2.979727
4.830720
8.459683
15.268984
25.177317
34.199841
42.014184
51.508187
62.202318
66.569281
53.204486
14.135914
-37.330861
-80.451552
-106.713824
-115.911942
-108.308270
-87.942720
-65.392782
-45.283363
-28.486504
-15.358348
-4.114549
3.266762
5.829377
5.072678
2.528775
4.894227
16.787966
34.514533
52.509441
61.594050
57.407375
48.032356
38.772933
25.494380
3.256173
-27.825314
-63.077635
-94.065606
-113.920183
-120.473603
-116.635008
-108.546350
-95.130890
-73.250893
-44.795131
-12.400248
21.388290
51.869203
70.373516
76.974744
78.282940
73.545037
66.538582
63.480858
61.719377
59.258340
57.159680
55.710439
54.098584
49.826705
41.386071
28.017119
11.539006
1.693286
6.272740
19.557796
32.558406
39.721511
33.524492
14.127366
-7.144764
-25.046406
-42.145885
-55.248055
-57.827286
-52.551654
-46.402163
-41.730492
-42.146116
-50.773784
-62.295525
-70.129342
-70.301563
-59.081143
-38.790925
-16.276835
2.280471
11.971378
12.348306
8.353859
5.604480
4.758940
4.415272
3.634674
-2.635599
-16.722809
-32.545788
-47.358789
-62.403244
-73.815623
-75.917141
-66.604456
-51.458943
-40.202414
-35.091476
-32.683163
-31.159619
-32.451180
-40.162646
-53.869815
-70.492620
-83.495818
-85.772939
-79.300557
-69.760315
-58.373124
-45.792818
-35.964494
-28.549154
-17.440434
-0.755016
14.648967
22.806723
28.595137
35.969173
40.372764
36.918894
26.938356
17.850120
13.152222
7.476817
0.958205
0.037852
0.841839
3.992569
15.780582
30.458514
44.093996
57.161886
68.361525
74.844558
73.730678
65.784382
49.760342
26.006909
4.196798
-1.057782
11.653966
26.368524
28.744367
19.838488
16.830640
25.853683
39.847646
60.448806
81.427408
90.483442
86.100383
72.990160
58.019220
42.950087
27.002420
14.551748
8.646708
7.669986
11.226213
20.737620
32.683053
37.323552
30.057069
20.301749
14.926636
8.880542
3.866246
4.139267
6.092987
5.808026
-0.394448
-10.347451
-17.605622
-21.341600
-21.514341
-15.746968
-5.322997
-1.624156
-11.582874
-23.669352
-29.751034
-33.037872
-36.714103
-43.880056
-56.518800
-74.887245
-93.788214
-104.844971
-107.049877
-103.187383
-96.231313
-90.724748
-88.683486
-91.529759
-92.214762
-79.856558
-63.418439
-49.384992
-30.444269
-11.268975
1.566162
10.688437
15.831847
13.594730
13.390817
31.896429
64.866698
95.822207
115.716019
119.018453
109.006223
97.175877
87.265476
71.789027
47.841287
24.137468
3.899993
-11.083676
-12.938154
-2.958905
12.229211
23.171420
16.998819
-6.485755
-34.061154
-55.064685
-68.162179
-75.634399
-79.022027
-80.347359
-82.461605
-83.132061
-77.860586
-68.371259
-56.526097
-40.756101
-19.858546
1.496980
11.424275
8.983501
7.833772
14.044569
23.444276
27.714086
17.698478
-0.602427
-12.362116
-19.784980
-32.749213
-45.608500
-47.897570
-41.863156
-35.213352
-27.784505
-14.508281
3.858095
22.023411
31.184911
19.107006
-9.947771
-36.776598
-49.639781
-45.215409
-25.235095
5.521432
33.681579
48.133772
54.059862
54.686947
55.211163
64.645419
78.681204
90.010467
97.303716
100.295728
98.969098
96.307001
91.030080
73.979178
49.909087
34.364839
23.953605
4.445039
-23.088018
-46.276457
-60.400554
-66.079076
-67.602610
-78.961997
-102.928960
-122.168147
-118.826488
-95.203188
-70.407296
-56.971575
-55.429847
-57.911925
-65.103076
-79.326404
-87.029557
-82.109028
-66.932602
-47.061650
-34.334056
-26.734801
-14.117868
0.043905
9.511151
16.104066
21.775584
28.097041
38.209551
47.647184
47.194673
35.077803
16.317628
4.202577
7.972074
20.922289
28.776377
26.525492
28.648580
36.852835
38.877991
39.326875
40.423100
31.969737
15.988559
7.543509
4.816730
-6.212752
-22.465907
-35.948117
-49.320185
-62.850193
-65.107572
-52.160214
-37.590606
-29.577020
-25.812459
-19.350467
-7.375161
0.957939
1.386561
-2.627369
-9.842678
-19.360310
-25.475242
-23.678423
-18.205368
-10.187366
1.076695
7.715849
4.116769
-5.528150
-14.097889
-17.506819
-14.934592
-10.493335
-13.901485
-27.618266
-43.527748
-53.269819
-48.184338
-30.679872
-14.994820
-6.585348
-3.487351
-1.910555
2.042078
9.454301
18.134710
21.218420
22.241911
31.130135
39.881201
40.981063
39.575464
36.626843
31.212245
24.212803
16.372492
7.254903
-5.539962
-25.678985
-49.932212
-65.006800
-63.552355
-50.162612
-33.675917
-16.174308
3.833282
18.031162
20.319982
15.671180
4.302961
-14.994673
-30.097835
-30.112118
-19.811796
-14.581364
-25.275225
-44.744566
-59.989042
-62.680493
-53.773566
-45.994551
-47.887994
-57.496286
-63.619011
-55.745440
-35.856824
-12.996722
1.876035
5.194315
2.378955
-3.467117
-12.869413
-24.340759
-34.055296
-40.940699
-45.551575
-49.002587
-52.514126
-52.132522
-44.318178
-31.039617
-18.739081
-15.431711
-19.153661
-19.615784
-13.135608
-5.068511
-0.000434
3.789325
10.825404
17.460661
12.499618
-1.745012
-11.315377
-11.358234
-7.305849
-3.888598
-3.142280
-6.620048
-9.582177
-5.773714
3.558193
14.704320
26.250749
36.034913
42.523401
47.944762
51.107441
49.700543
46.682304
42.283139
35.249148
29.282024
26.666165
26.818134
28.761982
28.688213
23.613651
15.102620
10.991797
14.147463
14.390091
10.062881
6.888262
4.216814
1.081160
-0.935933
3.330500
12.506806
17.328883
14.294799
5.599332
-4.417834
-11.782510
-16.892400
-17.182556
-6.947435
9.113241
23.161755
34.117991
45.018377
60.403917
79.696366
97.916233
111.172974
118.051633
119.267871
117.459372
116.349648
116.774893
120.201496
131.913917
147.080732
152.969675
151.544853
150.707626
147.211414
142.399478
144.136810
149.872491
151.644632
141.933993
113.622411
61.424909
-11.371670
-88.457017
-155.437132
-200.420360
-215.500143
-202.914642
-170.364158
-133.789609
-102.504194
-74.711879
-49.448145
-25.427920
-1.793450
19.183594
33.193922
40.585623
40.919429
34.510959
30.255446
34.740863
46.255341
56.745554
63.495888
69.304563
72.832476
69.358604
58.170924
49.914985
44.584551
32.410792
17.484532
4.515623
-10.109046
-29.233416
-49.092149
-65.460641
-77.529973
-81.939269
-77.712581
-70.700401
-67.165994
-69.347780
-79.736154
-98.355015
-116.324716
-127.738395
-137.850376
-152.521284
-170.394871
-185.650517
-194.739532
-198.699949
-197.290963
-188.170766
-174.330067
-161.260359
-148.962941
-134.233835
-118.243296
-106.219413
-99.628837
-95.680359
-88.900412
-72.699201
-45.370832
-11.804136
19.847032
42.605305
54.246029
57.875252
56.471471
52.938632
51.688893
51.941652
52.652122
53.575602
51.808145
49.327886
51.942195
65.056064
86.900733
110.142953
134.085247
160.835114
187.753050
209.656686
224.382934
235.901568
252.026927
275.370716
301.255296
319.957292
313.263337
271.233152
208.762348
149.034433
103.068244
72.265488
57.514831
55.737244
57.797468
60.460874
67.527345
78.015480
88.824687
97.278839
103.973843
111.356971
116.538307
110.310116
91.218218
77.529752
75.525127
74.152518
68.417367
60.245592
52.514124
43.164822
28.296230
8.494905
-6.398624
-11.185363
-11.646446
-14.723652
-22.422130
-33.101704
-45.803571
-57.021644
-67.138821
-74.847689
-76.913878
-70.747243
-55.344819
-44.085433
-40.961979
-35.062904
-26.034406
-21.313898
-22.761840
-30.618516
-46.307715
-63.957382
-79.494616
-94.126819
-109.509231
-120.783934
-115.763914
-91.244675
-54.570894
-18.737723
10.596574
38.042619
63.892649
88.807775
115.828579
143.183445
164.005148
173.471096
171.369058
159.560792
144.064082
126.082691
103.334040
77.847174
50.071234
20.810980
-6.157342
-26.511712
-40.016782
-52.909060
-71.119825
-93.687938
-113.642266
-128.763352
-141.111156
-150.234201
-162.128710
-180.373505
-199.616588
-215.957545
-224.368566
-224.124898
-220.757262
-221.193928
-227.179236
-230.857804
-227.289627
-219.565164
-213.403464
-210.727590
-211.844068
-215.576149
-215.741616
-209.167924
-197.492131
-184.646862
-175.813709
-173.850638
-174.135858
-170.248946
-161.800509
-149.718179
-136.540147
-124.699141
-115.430877
-110.437873
-106.190922
-96.444425
-85.510788
-83.059354
-85.466618
-85.236199
-82.960368
-84.613007
-94.904488
-108.934548
-120.556041
-129.146302
-136.512536
-140.609851
-136.565259
-124.451497
-104.022044
-75.638757
-40.912716
-2.859049
28.879401
55.502500
90.154247
133.728243
174.995500
204.073666
218.926421
226.485672
229.106736
219.962130
201.647197
180.249858
151.800860
117.535657
87.939263
66.513869
47.829806
32.329719
27.998873
39.003945
61.463485
85.828162
105.345570
123.014989
144.737307
170.658514
198.150797
220.408497
224.035901
211.350658
205.102465
209.023667
205.078056
189.517443
172.994909
155.060277
118.913315
55.512282
-21.834651
-92.688945
-147.302809
-183.266893
-195.307652
-185.985615
-165.312500
-140.185663
-117.336472
-94.100227
-70.979058
-57.744138
-50.195277
-38.033717
-21.363106
-8.400163
-2.549924
-0.252532
0.847330
-0.765564
-4.527778
-13.737586
-30.884862
-46.911499
-57.046599
-57.487680
-46.579761
-30.121380
-18.077755
-6.132582
20.661964
55.051865
90.454601
123.044830
147.390025
167.183825
181.495224
191.038323
197.532786
203.078836
204.087519
188.785895
160.782917
135.331380
119.270714
111.061792
110.643311
116.395357
119.671555
113.040464
94.410432
66.311860
37.303321
14.880678
-3.895083
-24.625857
-49.474472
-76.119903
-100.211035
-122.240909
-144.527693
-170.944008
-201.103319
-229.770523
-248.317688
-256.032531
-263.298235
-266.483504
-261.260086
-247.234432
-221.880299
-192.543663
-164.197263
-143.963935
-137.526881
-139.432794
-149.954948
-164.805356
-173.188842
-167.119619
-141.101259
-86.978348
8.518320
122.595928
214.877188
272.524111
298.879650
306.493712
297.980863
278.134598
264.966447
262.720758
263.635406
257.149525
239.054096
214.582664
185.872338
149.399108
107.474908
73.944069
51.196197
28.606523
11.438206
8.527771
19.038505
33.581617
38.507342
34.532637
24.652629
3.997707
-24.324006
-49.278087
-68.229971
-79.717943
-85.677794
-91.339691
-93.114940
-98.839701
-116.908893
-149.846941
-188.696009
-220.898394
-251.884547
-273.607115
-279.476047
-278.764798
-271.607147
-250.645430
-216.548807
-178.832838
-134.980631
-77.503076
-11.236274
61.923469
138.300439
196.093611
227.839594
249.454888
267.736320
275.248813
269.089201
258.641080
246.164171
222.861435
186.535493
153.011928
137.532362
134.643748
136.216907
137.347681
137.109479
141.598273
151.204236
154.049998
141.771553
121.547845
99.112474
73.000087
40.723408
5.910095
-24.640167
-47.366218
-57.703159
-52.040213
-29.929802
-8.402829
-3.212662
-10.081960
-26.383691
-41.897546
-45.267511
-45.637156
-49.279617
-53.859061
-59.872164
-62.043040
-63.915702
-68.303437
-68.323175
-64.848514
-57.470841
-51.079246
-44.568159
-26.017607
7.484407
47.493088
80.006166
103.075380
124.163345
142.252029
143.482555
121.929875
91.212322
71.048881
70.042025
83.820121
109.303359
135.058834
144.856245
138.024354
127.483236
122.816250
119.527853
113.348758
104.614845
96.708294
95.510769
96.088757
88.886436
69.620233
39.157773
4.605787
-23.544219
-35.796688
-30.961104
-16.356946
-0.686442
9.459839
13.479492
18.374304
24.942541
25.215561
19.845903
14.602752
8.838247
-2.205262
-18.103833
-31.116124
-37.574469
-39.689495
-39.274900
-35.740233
-32.786927
-38.532210
-50.685967
-61.803509
-71.440375
-86.369233
-110.133837
-131.490133
-140.966981
-142.934718
-141.059449
-133.007158
-122.149374
-117.409903
-121.764648
-128.646675
-127.076113
-113.454138
-95.073995
-73.860562
-43.939708
-8.742449
28.961051
66.287369
91.654750
104.179985
107.734394
105.760163
107.361377
118.240203
133.669123
138.334820
126.407580
107.544277
90.914719
81.217847
78.781228
81.468792
86.000708
87.230454
79.599257
63.737572
42.144109
17.059624
0.963369
3.856669
15.874836
20.719253
22.991967
29.935309
33.604795
32.015280
27.729894
25.851257
28.213331
29.988330
30.848426
29.273978
20.348616
0.695879
-27.846636
-59.927191
-83.927145
-90.234565
-83.010154
-71.785578
-70.194235
-79.934488
-87.848313
-88.337711
-80.364390
-62.429748
-43.131844
-37.307582
-45.982008
-59.612286
-69.037701
-68.775590
-60.764083
-48.803324
-37.453279
-29.805966
-22.557138
-11.082664
1.657918
6.830941
2.637512
-9.301157
-28.600870
-43.336201
-46.606674
-48.142417
-51.233131
-57.447814
-68.397807
-77.184972
-81.821824
