EVENT_NAME: 202302060117
EVENT_ID: 13194
EVENT_DATE_YYYYMMDD: 2023/02/06
EVENT_TIME_HHMMSS: 01:17:32.00000
EVENT_LATITUDE_DEGREE: 37.288
EVENT_LONGITUDE_DEGREE: 37.043
EVENT_DEPTH_KM: 8.6
HYPOCENTER_REFERENCE: AFAD
MAGNITUDE_W: 7.7
MAGNITUDE_W_REFERENCE: AFAD
MAGNITUDE_L: 
MAGNITUDE_L_REFERENCE: 
FOCAL_MECHANISM: 
NETWORK: TK
STATION_CODE: 5201
STATION_NAME: 
STATION_LATITUDE_DEGREE: 40.9751
STATION_LONGITUDE_DEGREE: 37.9174
STATION_ELEVATION_M: 4.0
LOCATION: Kahramanmaras_Pazarck_Turkiye
SENSOR_DEPTH_M: 
VS30_M/S: 199
SITE_CLASSIFICATION_EC8: unknown
MORPHOLOGIC_CLASSIFICATION: 
EPICENTRAL_DISTANCE_KM: 416.86
EARTHQUAKE_BACKAZIMUTH_DEGREE: 
DATE_TIME_FIRST_SAMPLE_YYYYMMDD_HHMMSS: 2023/02/06 01:18:05.0437550
DATE_TIME_FIRST_SAMPLE_PRECISION: millisecond
SAMPLING_INTERVAL_S: 0.01
NDATA: 21001
DURATION_S: 
STREAM: HNN
UNITS: cm/s^2
INSTRUMENT: sensor = CMG-5T/GURALP | digitizer = 
INSTRUMENT_ANALOG/DIGITAL: 
INSTRUMENTAL_FREQUENCY_HZ: 
INSTRUMENTAL_DAMPING: 
FULL_SCALE_G: 
N_BIT_DIGITAL_CONVERTER: 
PGA_CM/S^2: 5.085
TIME_PGA_S: 
BASELINE_CORRECTION: BASELINE REMOVED
FILTER_TYPE: BUTTERWORTH
FILTER_ORDER: 
LOW_CUT_FREQUENCY_HZ: 
HIGH_CUT_FREQUENCY_HZ: 
LATE/NORMAL_TRIGGERED: 
DATABASE_VERSION: 
HEADER_FORMAT: DYNA 1.2
DATA_TYPE: Acceleration
PROCESSING: Automatic Paolucci et al., 2011
DATA_TIMESTAMP_YYYYMMDD_HHMMSS: 
DATA_LICENSE: U (unknown license)
DATA_CITATION: Turkish Accelerometric Archive v 1.0 - Disaster And Emergency Management Presidency, Earthquake Department
DATA_CREATOR: AFAD
ORIGINAL_DATA_MEDIATOR_CITATION: : AFAD - Disaster And Emergency Management Presidency
ORIGINAL_DATA_MEDIATOR: AFAD PROCESS SERVICE
ORIGINAL_DATA_CREATOR_CITATION: AFAD PROCESS SERVICE
ORIGINAL_DATA_CREATOR: network: TK
USER1: GuestUser
USER2: 
USER3: 
USER4: 
USER5: 
[...]
0.563528
0.540604
0.521134
0.504804
0.494754
0.485333
0.473085
0.446706
0.404940
0.348101
0.279643
0.200194
0.110382
0.021513
-0.066729
-0.155285
-0.235048
-0.304762
-0.367253
-0.424093
-0.475279
-0.528978
-0.592098
-0.659928
-0.729642
-0.802182
-0.874409
-0.946321
-1.018234
-1.084179
-1.145729
-1.197858
-1.237740
-1.259094
-1.264747
-1.250302
-1.211992
-1.153898
-1.077277
-0.989350
-0.891689
-0.783979
-0.671559
-0.561651
-0.457395
-0.362246
-0.279972
-0.211829
-0.157818
-0.119193
-0.098782
-0.102237
-0.125790
-0.168812
-0.233502
-0.318917
-0.420034
-0.527431
-0.637026
-0.742225
-0.837376
-0.917767
-0.979630
-1.021710
-1.042122
-1.046519
-1.038355
-1.016688
-0.986857
-0.950116
-0.907724
-0.858736
-0.800014
-0.731243
-0.651796
-0.566068
-0.468406
-0.355044
-0.229435
-0.090636
0.062293
0.229668
0.408976
0.592680
0.771673
0.943130
1.101398
1.248047
1.386532
1.511199
1.620793
1.708091
1.768383
1.807322
1.819254
1.808263
1.771835
1.714368
1.636803
1.533488
1.411960
1.266566
1.100446
0.918939
0.725499
0.523580
0.313183
0.099959
-0.112636
-0.323976
-0.524639
-0.719335
-0.913403
-1.100876
-1.275475
-1.432802
-1.572544
-1.694386
-1.799899
-1.889711
-1.955343
-1.996795
-2.020347
-2.028512
-2.030083
-2.026316
-2.017209
-2.005591
-1.996799
-1.990833
-1.988950
-1.978588
-1.958805
-1.930543
-1.897885
-1.862715
-1.809959
-1.741188
-1.655460
-1.551205
-1.430934
-1.288053
-1.114084
-0.913736
-0.695176
-0.467822
-0.233874
0.003842
0.242500
0.482729
0.715107
0.931469
1.137469
1.332478
1.508959
1.658435
1.775879
1.859723
1.909967
1.932576
1.930377
1.907452
1.877619
1.849671
1.832085
1.829258
1.842132
1.868510
1.902424
1.945758
1.987523
2.022693
2.046559
2.048756
2.034938
2.005733
1.953919
1.882320
1.796277
1.694846
1.576458
1.440485
1.287240
1.118294
0.940869
0.758106
0.568120
0.375308
0.187206
0.002245
-0.174866
-0.338787
-0.488578
-0.623295
-0.740741
-0.839660
-0.921621
-0.984427
-1.024936
-1.043464
-1.045035
-1.031847
-1.005783
-0.966217
-0.918800
-0.861962
-0.789737
-0.709033
-0.616082
-0.507116
-0.384647
-0.250559
-0.110191
0.037087
0.186562
0.335095
0.478918
0.611750
0.726996
0.822773
0.893742
0.939589
0.959686
0.958115
0.937703
0.893739
0.830619
0.744262
0.634353
0.505916
0.363662
0.218896
0.076328
-0.058704
-0.172696
-0.266904
-0.330337
-0.357658
-0.349494
-0.307101
-0.241785
-0.159511
-0.067502
0.040522
0.159223
0.279179
0.398508
0.514383
0.629001
0.748330
0.869229
1.002061
1.142116
1.280600
1.421283
1.548776
1.665279
1.767964
1.853064
1.925289
1.990292
2.049328
2.105224
2.157665
2.207281
2.253128
2.291124
2.320328
2.334772
2.335714
2.320954
2.292063
2.253437
2.207903
2.157344
2.106472
2.054343
2.000016
1.949143
1.904237
1.867496
1.842687
1.831695
1.835777
1.852420
1.879111
1.915852
1.955418
1.997497
2.044286
2.092959
2.140062
2.181513
2.210717
2.217624
2.198782
2.153248
2.075369
1.972368
1.848014
1.710156
1.562564
1.402725
1.238175
1.064518
0.882069
0.690199
0.491421
0.296097
0.101401
-0.087015
-0.268522
-0.443121
-0.607670
-0.758403
-0.888724
-1.005228
-1.111369
-1.206833
-1.289423
-1.352228
-1.388656
-1.402159
-1.396508
-1.377667
-1.351289
-1.320201
-1.289742
-1.254571
-1.213121
-1.166646
-1.118287
-1.070555
-1.025650
-0.991108
-0.965045
-0.939295
-0.913232
-0.881830
-0.838809
-0.786368
-0.726704
-0.658247
-0.580683
-0.497781
-0.417392
-0.337630
-0.260066
-0.190040
-0.123153
-0.061919
-0.018584
0.006852
0.012817
-0.001628
-0.036172
-0.092383
-0.173402
-0.283625
-0.415202
-0.568133
-0.738649
-0.930205
-1.140603
-1.370784
-1.621376
-1.883588
-2.154592
-2.424968
-2.693774
-2.950961
-3.193389
-3.417604
-3.617324
-3.794121
-3.946110
-4.072976
-4.176919
-4.259822
-4.317290
-4.349321
-4.355916
-4.332365
-4.284006
-4.214607
-4.121656
-4.009550
-3.878602
-3.736349
-3.585304
-3.427664
-3.269396
-3.110500
-2.946580
-2.776693
-2.607434
-2.427498
-2.240026
-2.047529
-1.847182
-1.635844
-1.416969
-1.193070
-0.961006
-0.725174
-0.485259
-0.243775
-0.006372
0.227890
0.456185
0.680712
0.903983
1.117834
1.328544
1.532031
1.722016
1.894101
2.042634
2.170128
2.269987
2.344724
2.399992
2.432650
2.445524
2.437673
2.409410
2.362306
2.294162
2.203722
2.083136
1.931461
1.753094
1.546151
1.310004
1.054387
0.781812
0.502958
0.225987
-0.044075
-0.294982
-0.525163
-0.733362
-0.917695
-1.076907
-1.205972
-1.308030
-1.378373
-1.415114
-1.420767
-1.389365
-1.326561
-1.233296
-1.122132
-1.004373
-0.886300
-0.775136
-0.665228
-0.555320
-0.442900
-0.327967
-0.206754
-0.081773
0.043208
0.170388
0.298195
0.427573
0.557265
0.688213
0.820730
0.949794
1.073519
1.185312
1.273552
1.336042
1.373411
1.386599
1.376236
1.348915
1.303066
1.234608
1.148565
1.045564
0.926234
0.801251
0.672186
0.539039
0.405578
0.278083
0.162521
0.058264
-0.029349
-0.108798
-0.182281
-0.253879
-0.331758
-0.409951
-0.501333
-0.607160
-0.726490
-0.860893
-1.002833
-1.154822
-1.304298
-1.445924
-1.581270
-1.700914
-1.806113
-1.895296
-1.965953
-2.019024
-2.057335
-2.081202
-2.087483
-2.073038
-2.040695
-1.985427
-1.905665
-1.812086
-1.709401
-1.607343
-1.508426
-1.408567
-1.311848
-1.213872
-1.113071
-1.010072
-0.898593
-0.780521
-0.652085
-0.514543
-0.367894
-0.217162
-0.069257
0.077392
0.227809
0.381995
0.539635
0.695391
0.849576
0.998737
1.135966
1.261575
1.369913
1.461608
1.544510
1.617677
1.679225
1.726956
1.754590
1.763382
1.746424
1.708740
1.654727
1.577476
1.483268
1.375557
1.259053
1.136269
1.007518
0.872487
0.722382
0.565055
0.406158
0.245690
0.088677
-0.062056
-0.198657
-0.316417
-0.415650
-0.499495
-0.567639
-0.622908
-0.667186
-0.705184
-0.747264
-0.792484
-0.842415
-0.900824
-0.977133
-1.065688
-1.161153
-1.264153
-1.377517
-1.497475
-1.622458
-1.751837
-1.881530
-2.010909
-2.134635
-2.247057
-2.339067
-2.412863
-2.462480
-2.488544
-2.490743
-2.468448
-2.432650
-2.379266
-2.312694
-2.236386
-2.148774
-2.047344
-1.935552
-1.814653
-1.685904
-1.551188
-1.412389
-1.271393
-1.121917
-0.963335
-0.793762
-0.613199
-0.427297
-0.238568
-0.054236
0.122873
0.292446
0.445376
0.580720
0.694710
0.787347
0.860828
0.911700
0.939961
0.948125
0.935878
0.912953
0.885946
0.857055
0.830363
0.807752
0.787968
0.767556
0.752482
0.741176
0.727359
0.716681
0.707260
0.698152
0.693127
0.686846
0.677739
0.664549
0.649161
0.643194
0.648532
0.658580
0.674595
0.691866
0.705996
0.723895
0.739281
0.760634
0.787640
0.819042
0.858294
0.898175
0.940254
0.978878
1.021899
1.065548
1.108568
1.153473
1.196180
1.236689
1.276569
1.319590
1.363553
1.405004
1.440488
1.469691
1.497011
1.529669
1.560129
1.588390
1.612884
1.630782
1.640202
1.639574
1.620418
1.574569
1.502343
1.405937
1.279698
1.128965
0.956879
0.759043
0.543621
0.321291
0.096762
-0.130907
-0.364542
-0.607598
-0.859761
-1.121658
-1.390150
-1.667749
-1.948488
-2.225144
-2.491438
-2.742031
-2.973782
-3.186377
-3.377619
-3.540285
-3.673746
-3.774235
-3.842065
-3.875038
-3.877865
-3.852744
-3.798104
-3.726821
-3.636068
-3.524904
-3.399609
-3.254844
-3.087469
-2.899683
-2.693683
-2.466330
-2.217622
-1.948818
-1.663684
-1.367245
-1.064525
-0.757095
-0.444641
-0.127791
0.189374
0.505282
0.814910
1.113548
1.398368
1.664974
1.905203
2.121879
2.313120
2.480808
2.629342
2.752125
2.854496
2.935514
2.995178
3.030662
3.048561
3.057039
3.052014
3.035056
3.012446
2.986381
2.957804
2.923889
2.878669
2.824656
2.757454
2.675807
2.582855
2.485820
2.382191
2.271026
2.160488
2.052777
1.951660
1.863419
1.784912
1.713628
1.655846
1.607800
1.562894
1.522384
1.487526
1.458007
1.427546
1.405564
1.395515
1.398654
1.416867
1.452979
1.507619
1.576390
1.656466
1.743136
1.837657
1.927153
2.011311
2.087305
2.153249
2.198154
2.235208
2.247455
2.244942
2.230182
2.174913
2.113364
2.024808
1.920237
1.806245
1.680635
1.550628
1.414968
1.276797
1.133601
0.992603
0.851291
0.718144
0.603210
0.515282
0.454675
0.420131
0.410396
0.427981
0.465977
0.525013
0.599122
0.686421
0.786908
0.893990
1.005154
1.111294
1.211153
1.294997
1.356546
1.395798
1.410557
1.396425
1.359055
1.300332
1.220883
1.121336
0.998238
0.852216
0.684840
0.495482
0.282572
0.053334
-0.189722
-0.444711
-0.705981
-0.969134
-1.231346
-1.491987
-1.743836
-1.979355
-2.201686
-2.405174
-2.586053
-2.739612
-2.870875
-2.977959
-3.059606
-3.118643
-3.155699
-3.172343
-3.163236
-3.134347
-3.087244
-3.018473
-2.930861
-2.824721
-2.695971
-2.547124
-2.378179
-2.194161
-1.999152
-1.799433
-1.605366
-1.423860
-1.257428
-1.111407
-0.986425
-0.882484
-0.794243
-0.718564
-0.656388
-0.596724
-0.539572
-0.481164
-0.426838
-0.376909
-0.330120
-0.290239
-0.256325
-0.228691
-0.206082
-0.194464
-0.200431
-0.218331
-0.245338
-0.282708
-0.330440
-0.391047
-0.462018
-0.540525
-0.622486
-0.709157
-0.799597
-0.888153
-0.969172
-1.043911
-1.110484
-1.177686
-1.244888
-1.302984
-1.354170
-1.409753
-1.468791
-1.530340
-1.600369
-1.671339
-1.749846
-1.827725
-1.903091
-1.955848
-1.989135
-2.007663
-2.011746
-1.990393
-1.947058
-1.899641
-1.825218
-1.739490
-1.656274
-1.573058
-1.484818
-1.410708
-1.349788
-1.300487
-1.270655
-1.255896
-1.258095
-1.274425
-1.302688
-1.341942
-1.393129
-1.446513
-1.496130
-1.543234
-1.578406
-1.602586
-1.625197
-1.639329
-1.648122
-1.653775
-1.653776
-1.649066
-1.640274
-1.628028
-1.614839
-1.599767
-1.581868
-1.556746
-1.520948
-1.476985
-1.422346
-1.358285
-1.274441
-1.171442
-1.055253
-0.925875
-0.786135
-0.650791
-0.514505
-0.376334
-0.254807
-0.148667
-0.050378
0.045085
0.123904
0.177288
0.211516
0.230043
0.235067
0.225331
0.200837
0.160013
0.108198
0.057325
0.009907
-0.029661
-0.055097
-0.060751
-0.045678
-0.002029
0.071138
0.160321
0.269915
0.399920
0.553478
0.729017
0.920258
1.126258
1.344818
1.571544
1.797327
2.016202
2.223772
2.422549
2.615360
2.801890
2.980569
3.143862
3.291453
3.426483
3.542672
3.634994
3.705021
3.755579
3.789179
3.802053
3.800168
3.792003
3.769392
3.739873
3.702504
3.661052
3.627451
3.598246
3.574693
3.559305
3.559305
3.575633
3.609861
3.652568
3.693391
3.721652
3.742691
3.754310
3.756821
3.746772
3.715055
3.674545
3.602004
3.504970
3.391606
3.249038
3.086059
2.897329
2.674685
2.419382
2.137387
1.840004
1.530375
1.211011
0.893845
0.583274
0.275215
-0.029076
-0.325202
-0.611908
-0.889506
-1.144809
-1.372478
-1.571885
-1.738319
-1.875862
-1.980119
-2.050147
-2.091913
-2.112011
-2.112640
-2.095683
-2.063653
-2.024715
-1.982008
-1.934591
-1.884034
-1.832534
-1.780093
-1.727965
-1.683374
-1.646320
-1.617744
-1.599218
-1.590740
-1.589798
-1.595137
-1.594196
-1.593568
-1.587916
-1.563737
-1.526997
-1.484604
-1.444096
-1.402017
-1.357740
-1.309695
-1.254427
-1.192565
-1.131331
-1.080459
-1.051883
-1.046860
-1.061620
-1.093651
-1.146094
-1.226171
-1.324147
-1.431230
-1.537057
-1.637232
-1.741175
-1.845746
-1.943094
-2.018461
-2.063053
-2.076243
-2.062426
-2.018777
-1.928025
-1.790796
-1.613373
-1.413026
-1.196663
-0.967739
-0.731279
-0.495133
-0.276258
-0.084076
0.075762
0.208594
0.326039
0.427783
0.506916
0.563126
0.596726
0.615881
0.622789
0.611797
0.576940
0.518531
0.437198
0.341105
0.238418
0.120030
-0.024108
-0.183005
-0.344100
-0.506138
-0.668804
-0.840576
-1.015174
-1.188203
-1.354637
-1.513220
-1.671803
-1.824734
-1.966360
-2.090714
-2.189947
-2.265628
-2.320897
-2.350102
-2.366746
-2.362350
-2.327180
-2.262177
-2.168598
-2.054294
-1.914867
-1.753145
-1.573838
-1.373176
-1.149591
-0.908421
-0.656573
-0.395933
-0.122732
0.163658
0.458527
0.766585
1.090972
1.424466
1.755448
2.078265
2.394801
2.700975
2.995530
3.262450
3.493572
3.699886
3.882334
4.032751
4.142973
4.218339
4.264814
4.282398
4.272035
4.234037
4.169033
4.082048
3.982501
3.875104
3.755460
3.624511
3.482571
3.333095
3.183618
3.037282
2.882467
2.720429
2.555879
2.382223
2.201972
2.017639
1.832991
1.654625
1.477828
1.301973
1.130201
0.963453
0.804870
0.649741
0.499636
0.356440
0.220467
0.100195
0.004416
-0.070008
-0.123393
-0.167985
-0.205041
-0.234560
-0.257484
-0.270360
-0.282294
-0.297367
-0.307103
-0.307103
-0.308360
-0.306791
-0.303337
-0.310874
-0.330659
-0.357351
-0.390953
-0.424868
-0.456271
-0.486732
-0.511855
-0.525044
-0.521277
-0.501180
-0.479199
-0.456590
-0.428014
-0.390332
-0.334750
-0.261269
-0.175226
-0.082590
0.018526
0.132830
0.254043
0.371802
0.478570
0.575289
0.670124
0.757736
0.836870
0.903442
0.952116
0.990112
1.020886
1.040983
1.039098
1.013033
0.993249
0.972837
0.929815
0.871720
0.813310
0.761181
0.703400
0.640909
0.574963
0.506191
0.431452
0.349491
0.257795
0.156364
0.047711
-0.058744
-0.143217
-0.209791
-0.263490
-0.305570
-0.332891
-0.350791
-0.362097
-0.358015
-0.347339
-0.332894
-0.316880
-0.307460
-0.304006
-0.308403
-0.316254
-0.329444
-0.358963
-0.407637
-0.472641
-0.548950
-0.640960
-0.756208
-0.892495
-1.037889
-1.190192
-1.350974
-1.527456
-1.717756
-1.914336
-2.112487
-2.310009
-2.511300
-2.709450
-2.899750
-3.078117
-3.245493
-3.404076
-3.564543
-3.723441
-3.874487
-4.003552
-4.119428
-4.241898
-4.376302
-4.511647
-4.636316
-4.748109
-4.847342
-4.935583
-5.006554
-5.059625
-5.083805
-5.085376
-5.063395
-5.021316
-4.955999
-4.863363
-4.748744
-4.617482
-4.473032
-4.318218
-4.157438
-3.997600
-3.845298
-3.696137
-3.555140
-3.420738
-3.293873
-3.171404
-3.052075
-2.937142
-2.821268
-2.704451
-2.582296
-2.445382
-2.294022
-2.126020
-1.942944
-1.741654
-1.515557
-1.270304
-1.004640
-0.728298
-0.456353
-0.189119
0.073720
0.325881
0.562655
0.776506
0.961466
1.123816
1.270151
1.402983
1.523568
1.638500
1.749665
1.853920
1.954408
2.056779
2.164175
2.272513
2.383677
2.501750
2.635524
2.780603
2.930392
3.079867
3.222748
3.360604
3.484016
3.586387
3.664893
3.716706
3.746538
3.754388
3.741198
3.707597
3.657038
3.597687
3.531113
3.456060
3.367819
3.274553
3.180345
3.082682
2.982822
2.887043
2.793777
2.701767
2.609129
2.517119
2.423225
2.329331
2.237321
2.143113
2.051417
1.953755
1.843531
1.717921
1.569386
1.401068
1.208256
0.984356
0.738474
0.476576
0.201490
-0.089298
-0.392019
-0.702590
-1.014732
-1.321849
-1.615149
-1.893690
-2.157157
-2.407122
-2.633534
-2.825718
-2.981789
-3.097665
-3.184023
-3.242432
-3.271637
-3.273522
-3.244004
-3.183084
-3.085109
-2.940030
-2.752872
-2.524890
-2.259854
-1.962473
-1.632119
-1.271619
-0.889765
-0.496606
-0.097481
0.302586
0.705479
1.098010
1.467303
1.809589
2.131150
2.431671
2.711467
2.973991
3.216732
3.439375
3.646003
3.832533
4.003990
4.162572
4.301998
4.418501
4.498891
4.548192
4.567975
4.559496
4.520870
4.450528
4.356948
4.259599
4.158483
4.059878
3.968496
3.885907
3.823415
3.775997
3.737999
3.696862
3.675821
3.676135
3.673936
3.665456
3.645044
3.602964
3.542671
3.462280
3.362105
3.245915
3.115280
2.978993
2.838937
2.698567
2.560396
2.423794
2.295357
2.172259
2.057639
1.952440
1.848183
1.751149
1.650660
1.554254
1.456277
1.353905
1.254044
1.157010
1.062801
0.972990
0.886946
0.794936
0.706381
0.613429
0.518906
0.423756
0.326094
0.231572
0.129199
0.019603
-0.096586
-0.216231
-0.338387
-0.470592
-0.607508
-0.747249
-0.882909
-1.020452
-1.165847
-1.320348
-1.484897
-1.655099
-1.832524
-2.017486
-2.205587
-2.390863
-2.567973
-2.733779
-2.893304
-3.043095
-3.179068
-3.301539
-3.403598
-3.487129
-3.553389
-3.593899
-3.613055
-3.606775
-3.585736
-3.556218
-3.510999
-3.455417
-3.385704
-3.311909
-3.235916
-3.152386
-3.066030
-2.984070
-2.906192
-2.831141
-2.760486
-2.692029
-2.626084
-2.559826
-2.495137
-2.431077
-2.366702
-2.301386
-2.231359
-2.153795
-2.069951
-1.978257
-1.884050
-1.782620
-1.670828
-1.548673
-1.415527
-1.273902
-1.119089
-0.950772
-0.763928
-0.566093
-0.357581
-0.140904
0.083309
0.316315
0.556858
0.802110
1.039827
1.266238
1.479460
1.680122
1.864140
2.032142
2.180676
2.304401
2.410541
2.498153
2.569750
2.628472
2.669295
2.691904
2.692845
2.679656
2.654847
2.619676
2.577282
2.525467
2.463603
2.395459
2.324803
2.247866
2.160253
2.057252
1.945458
1.827698
1.709624
1.589352
1.460601
1.328710
1.197133
1.073720
0.959729
0.853902
0.763776
0.691235
0.638793
0.607075
0.588233
0.576928
0.569390
0.567192
0.562481
0.546151
0.518830
0.480204
0.427133
0.359303
0.276086
0.177168
0.055325
-0.091011
-0.251478
-0.426705
-0.617633
-0.828030
-1.056013
-1.291532
-1.528308
-1.759117
-1.982075
-2.194357
-2.390623
-2.568362
-2.726317
-2.862605
-2.972514
-3.056359
-3.118537
-3.157162
-3.169724
-3.165014
-3.149628
-3.135811
-3.125135
-3.111947
-3.096246
-3.080860
-3.065787
-3.054483
-3.042236
-3.018685
-2.990738
-2.962476
-2.933272
-2.894020
-2.843776
-2.783798
-2.719738
-2.655677
-2.601352
-2.542316
-2.478255
-2.400378
-2.325954
-2.248077
-2.161720
-2.080703
-1.957920
-1.813783
-1.656457
-1.485942
-1.297842
-1.098122
-0.882074
-0.660373
-0.437416
-0.214773
-0.003434
0.194401
0.365544
0.516903
0.645967
0.762155
0.858874
0.940206
1.008349
1.062361
1.102241
1.131131
1.146831
1.152797
1.151227
1.145573
1.138664
1.126103
1.108203
1.078998
1.032207
0.970344
0.900315
0.815214
0.721006
0.618319
0.510608
0.397244
0.284509
0.172087
0.053385
-0.068771
-0.201605
-0.343545
-0.494277
-0.658513
-0.829657
-0.995149
-1.151848
-1.297242
-1.435728
-1.566363
-1.690717
-1.810990
-1.924667
-2.026412
-2.112141
-2.177773
-2.228646
-2.273866
-2.313748
-2.351432
-2.377810
-2.390686
-2.394455
-2.397910
-2.394770
-2.384408
-2.367765
-2.339504
-2.298995
-2.250636
-2.196624
-2.130366
-2.065049
-2.005071
-1.956712
-1.918401
-1.893280
-1.884488
-1.888571
-1.908041
-1.940072
-1.982466
-2.025174
-2.060346
-2.087353
-2.100856
-2.094262
-2.065059
-2.014187
-1.938822
-1.838335
-1.711783
-1.560738
-1.383628
-1.183595
-0.969431
-0.741449
-0.503733
-0.262248
-0.019508
0.224175
0.466602
0.704004
0.932300
1.154943
1.372247
1.586412
1.796808
1.995271
2.178033
2.346978
2.507444
2.655663
2.786297
2.904997
3.009253
3.098436
3.168462
3.218392
3.256074
3.271461
3.273030
3.261411
3.235660
3.198290
3.149616
3.096545
3.023377
2.929168
2.829936
2.729761
2.619224
2.494555
2.362350
2.228889
2.100452
1.983320
1.882517
1.785169
1.695357
1.616850
1.542112
1.475852
1.415872
1.360603
1.303136
1.248809
1.208613
1.180979
1.166219
1.165590
1.184745
1.222427
1.277381
1.346466
1.422773
1.505675
1.594230
1.685296
1.776991
1.868372
1.955670
2.039828
2.120532
2.191187
2.247711
2.290103
2.324331
2.349139
2.360129
2.361070
2.353533
2.336575
2.314593
2.284446
2.246134
2.205310
2.160404
2.105763
2.040759
1.969161
1.891596
1.810577
1.725790
1.635350
1.538001
1.434373
1.327289
1.218008
1.104016
0.990025
0.877917
0.765496
0.657156
0.556354
0.463716
0.380184
0.309842
0.257713
0.221914
0.203072
0.202129
0.222540
0.266817
0.331819
0.421316
0.534678
0.667196
0.822952
1.003202
1.196012
1.395418
1.592311
1.787633
