EVENT_NAME: 202302060117
EVENT_ID: 13194
EVENT_DATE_YYYYMMDD: 2023/02/06
EVENT_TIME_HHMMSS: 01:17:32.00000
EVENT_LATITUDE_DEGREE: 37.288
EVENT_LONGITUDE_DEGREE: 37.043
EVENT_DEPTH_KM: 8.6
HYPOCENTER_REFERENCE: AFAD
MAGNITUDE_W: 7.7
MAGNITUDE_W_REFERENCE: AFAD
MAGNITUDE_L: 
MAGNITUDE_L_REFERENCE: 
FOCAL_MECHANISM: 
NETWORK: TK
STATION_CODE: 4211
STATION_NAME: 
STATION_LATITUDE_DEGREE: 37.1856
STATION_LONGITUDE_DEGREE: 32.24991
STATION_ELEVATION_M: 1138.0
LOCATION: Kahramanmaras_Pazarck_Turkiye
SENSOR_DEPTH_M: 
VS30_M/S: None
SITE_CLASSIFICATION_EC8: unknown
MORPHOLOGIC_CLASSIFICATION: 
EPICENTRAL_DISTANCE_KM: 424.42
EARTHQUAKE_BACKAZIMUTH_DEGREE: 
DATE_TIME_FIRST_SAMPLE_YYYYMMDD_HHMMSS: 2023/02/06 01:18:05.9791560
DATE_TIME_FIRST_SAMPLE_PRECISION: millisecond
SAMPLING_INTERVAL_S: 0.01
NDATA: 21001
DURATION_S: 
STREAM: HNE
UNITS: cm/s^2
INSTRUMENT: sensor = ACEBOX/SARA | digitizer = 
INSTRUMENT_ANALOG/DIGITAL: 
INSTRUMENTAL_FREQUENCY_HZ: 
INSTRUMENTAL_DAMPING: 
FULL_SCALE_G: 
N_BIT_DIGITAL_CONVERTER: 
PGA_CM/S^2: 7.320
TIME_PGA_S: 
BASELINE_CORRECTION: BASELINE REMOVED
FILTER_TYPE: BUTTERWORTH
FILTER_ORDER: 
LOW_CUT_FREQUENCY_HZ: 
HIGH_CUT_FREQUENCY_HZ: 
LATE/NORMAL_TRIGGERED: 
DATABASE_VERSION: 
HEADER_FORMAT: DYNA 1.2
DATA_TYPE: Acceleration
PROCESSING: Automatic Paolucci et al., 2011
DATA_TIMESTAMP_YYYYMMDD_HHMMSS: 
DATA_LICENSE: U (unknown license)
DATA_CITATION: Turkish Accelerometric Archive v 1.0 - Disaster And Emergency Management Presidency, Earthquake Department
DATA_CREATOR: AFAD
ORIGINAL_DATA_MEDIATOR_CITATION: : AFAD - Disaster And Emergency Management Presidency
ORIGINAL_DATA_MEDIATOR: AFAD PROCESS SERVICE
ORIGINAL_DATA_CREATOR_CITATION: AFAD PROCESS SERVICE
ORIGINAL_DATA_CREATOR: network: TK
USER1: GuestUser
USER2: 
USER3: 
USER4: 
USER5: 
[...]
0.455158
0.738520
0.996165
1.180397
1.264331
1.235106
1.105115
0.857524
0.465913
-0.066677
-0.699098
-1.324740
-1.849381
-2.249641
-2.518976
-2.659488
-2.668840
-2.544693
-2.297803
-1.939626
-1.504061
-1.002098
-0.419709
0.217622
0.876697
1.508885
2.037734
2.422565
2.629475
2.615214
2.364817
1.920135
1.377959
0.813806
0.258772
-0.266103
-0.743517
-1.143544
-1.454260
-1.674731
-1.788824
-1.807060
-1.737856
-1.585186
-1.391836
-1.188666
-0.997420
-0.859479
-0.822539
-0.929151
-1.191705
-1.590095
-2.072185
-2.562224
-2.991242
-3.301725
-3.453225
-3.416519
-3.191138
-2.833428
-2.390850
-1.911565
-1.451920
-1.010043
-0.569803
-0.118808
0.344579
0.764479
1.103251
1.358090
1.522216
1.615501
1.634439
1.558221
1.430334
1.314137
1.240491
1.222956
1.243530
1.258494
1.261065
1.264105
1.256624
1.233010
1.197239
1.163339
1.182978
1.307358
1.551443
1.894891
2.298659
2.725573
3.133783
3.495935
3.790286
3.969842
3.997430
3.882168
3.661931
3.387921
3.100117
2.801090
2.474008
2.106946
1.700373
1.268316
0.824569
0.402097
0.050700
-0.214660
-0.407309
-0.538936
-0.607906
-0.615622
-0.590839
-0.559744
-0.552730
-0.607205
-0.731818
-0.920493
-1.154757
-1.414974
-1.710961
-2.050902
-2.411885
-2.731719
-2.953827
-3.057399
-3.027473
-2.852592
-2.523873
-2.033133
-1.370785
-0.543844
0.381292
1.316949
2.195091
2.963817
3.585484
4.027127
4.277290
4.337610
4.237545
4.037415
3.761066
3.420658
3.028112
2.553738
1.982337
1.311105
0.553135
-0.238503
-1.043233
-1.849599
-2.625105
-3.333510
-3.912392
-4.323642
-4.574974
-4.674805
-4.652594
-4.566557
-4.458542
-4.303067
-4.054540
-3.696830
-3.205622
-2.587228
-1.889343
-1.154518
-0.450555
0.176723
0.733629
1.220395
1.630943
1.952882
2.178964
2.324152
2.381666
2.344259
2.217073
2.007825
1.730775
1.391535
1.007640
0.612757
0.224420
-0.147084
-0.485856
-0.779272
-1.017511
-1.198470
-1.316771
-1.360024
-1.339449
-1.279597
-1.194027
-1.091156
-0.950177
-0.752618
-0.522094
-0.266085
0.015407
0.311628
0.621877
0.913890
1.139504
1.280484
1.335894
1.316957
1.248220
1.159378
1.045752
0.869235
0.618371
0.299472
-0.082553
-0.498244
-0.896635
-1.231666
-1.479257
-1.640811
-1.730122
-1.739006
-1.658580
-1.512924
-1.331965
-1.152408
-1.019845
-0.950641
-0.940821
-0.969578
-1.008388
-1.043692
-1.077125
-1.103544
-1.094192
-1.032235
-0.895698
-0.635715
-0.254391
0.246169
0.885137
1.611779
2.385881
3.181260
3.922164
4.578900
5.127155
5.509413
5.710947
5.729183
5.565993
5.245691
4.786980
4.214879
3.559077
2.834306
2.067217
1.273943
0.460329
-0.328269
-1.041818
-1.663953
-2.162876
-2.500245
-2.680035
-2.732406
-2.688452
-2.583009
-2.440860
-2.275332
-2.108868
-1.949184
-1.768225
-1.527648
-1.192382
-0.750973
-0.213707
0.391127
0.996428
1.543514
2.010407
2.357129
2.555856
2.617345
2.528736
2.279742
1.868025
1.284935
0.551513
-0.297872
-1.210383
-2.127570
-3.021610
-3.838498
-4.512301
-4.998600
-5.256244
-5.279857
-5.091183
-4.732538
-4.266580
-3.741237
-3.207010
-2.710892
-2.280705
-1.921125
-1.633321
-1.423838
-1.274442
-1.190041
-1.188170
-1.237969
-1.322370
-1.417291
-1.478780
-1.494210
-1.443476
-1.329383
-1.184195
-1.029655
-0.910652
-0.833031
-0.757047
-0.681062
-0.615365
-0.572113
-0.577256
-0.635472
-0.723145
-0.837238
-0.979855
-1.100494
-1.180452
-1.225341
-1.197987
-1.086466
-0.898960
-0.666098
-0.423650
-0.170915
0.052128
0.240802
0.448648
0.693200
1.020282
1.454210
1.963187
2.528041
3.118380
3.685104
4.164856
4.499888
4.660974
4.648349
4.516254
4.322670
4.119734
3.947192
3.794756
3.675520
3.603510
3.552309
3.502276
3.412498
3.249074
3.009198
2.683986
2.291207
1.857045
1.408622
0.980306
0.598983
0.299722
0.081589
-0.082302
-0.195226
-0.297629
-0.410320
-0.521139
-0.681992
-0.925375
-1.241468
-1.633312
-2.049939
-2.456279
-2.865190
-3.241837
-3.551619
-3.769517
-3.867245
-3.868180
-3.781908
-3.609600
-3.395909
-3.152058
-2.886932
-2.641211
-2.428923
-2.246093
-2.082435
-1.927428
-1.790890
-1.676329
-1.575562
-1.494668
-1.426166
-1.351117
-1.262507
-1.144206
-0.993640
-0.827878
-0.643646
-0.439307
-0.223044
-0.004210
0.195687
0.351630
0.430653
0.399325
0.248759
-0.009586
-0.355606
-0.787430
-1.303186
-1.872950
-2.454638
-2.982552
-3.404088
-3.690256
-3.794062
-3.710830
-3.477500
-3.122128
-2.666925
-2.128256
-1.533475
-0.901755
-0.217898
0.521603
1.270689
1.955949
2.550028
3.066486
3.470254
3.688387
3.650045
3.335354
2.817025
2.182733
1.459832
0.652531
-0.211818
-1.075231
-1.894457
-2.664585
-3.372756
-3.994423
-4.524675
-4.956265
-5.264176
-5.441628
-5.514573
-5.481841
-5.316078
-5.014480
-4.584994
-4.034869
-3.377431
-2.614551
-1.745526
-0.789763
0.219774
1.264380
2.335640
3.375336
4.289951
5.007241
5.480447
5.679642
5.590566
5.228414
4.635270
3.881742
3.074440
2.297532
1.580008
0.948522
0.444221
0.091655
-0.107774
-0.171133
-0.133959
-0.017294
0.178628
0.445391
0.764758
1.081086
1.355564
1.613676
1.864775
2.090623
2.271582
2.371180
2.388247
2.335175
2.200508
2.019082
1.829238
1.607599
1.342940
1.061682
0.788373
0.539847
0.315168
0.070148
-0.245478
-0.624931
-1.052312
-1.531129
-2.034026
-2.513311
-2.926197
-3.245797
-3.447331
-3.492220
-3.391453
-3.187815
-2.912168
-2.615713
-2.324402
-2.027479
-1.700397
-1.313228
-0.875092
-0.389963
0.149408
0.718471
1.299223
1.842334
2.282808
2.600071
2.777524
2.823582
2.770276
2.632803
2.438518
2.196772
1.911305
1.602225
1.247087
0.819706
0.329667
-0.209235
-0.772687
-1.324916
-1.816591
-2.189030
-2.409968
-2.459066
-2.315748
-1.993575
-1.536969
-0.967439
-0.314677
0.356789
1.039477
1.745545
2.416777
3.018104
3.534094
3.916119
4.138928
4.209769
4.135421
3.925939
3.614755
3.234133
2.792958
2.323961
1.859406
1.404436
0.954143
0.509227
0.096809
-0.270253
-0.593127
-0.852408
-1.046693
-1.179958
-1.240979
-1.230692
-1.137406
-0.955746
-0.700439
-0.379202
-0.024531
0.306994
0.573289
0.752611
0.829765
0.786512
0.634778
0.423893
0.187992
-0.048845
-0.258327
-0.440455
-0.592423
-0.695762
-0.768940
-0.839547
-0.908517
-0.988475
-1.098360
-1.225545
-1.327481
-1.366291
-1.330988
-1.211517
-0.988942
-0.681031
-0.340155
0.001891
0.314010
0.555991
0.714739
0.779267
0.743964
0.628702
0.443067
0.200152
-0.071754
-0.313968
-0.447466
-0.454246
-0.347868
-0.143062
0.105231
0.364746
0.635250
0.911832
1.184907
1.440448
1.679389
1.900795
2.108874
2.314616
2.491601
2.620423
2.695005
2.702720
2.653856
2.543270
2.357168
2.098121
1.748828
1.283104
0.696740
0.014286
-0.746958
-1.561040
-2.359457
-3.066460
-3.604661
-3.897843
-3.926132
-3.706363
-3.271734
-2.705243
-2.119814
-1.600784
-1.190236
-0.911550
-0.763322
-0.686636
-0.598495
-0.444890
-0.218340
0.047955
0.313315
0.528409
0.627773
0.584988
0.411978
0.133525
-0.204078
-0.568801
-0.917627
-1.185091
-1.343605
-1.392936
-1.334721
-1.189766
-1.004599
-0.829952
-0.681724
-0.558046
-0.453772
-0.359552
-0.264162
-0.133469
0.041645
0.226812
0.402862
0.551557
0.678509
0.805929
0.922827
1.024529
1.107294
1.162704
1.205723
1.209230
1.127868
0.959768
0.697214
0.356104
-0.010490
-0.367031
-0.690606
-0.967890
-1.181580
-1.308532
-1.354356
-1.359733
-1.365578
-1.381243
-1.405791
-1.447407
-1.518481
-1.634445
-1.777061
-1.896531
-1.962462
-1.958487
-1.875255
-1.725157
-1.536950
-1.357628
-1.231377
-1.186020
-1.237222
-1.381709
-1.589554
-1.796231
-1.939315
-2.004076
-1.962694
-1.781501
-1.469148
-1.025634
-0.446986
0.229389
0.955096
1.680336
2.363725
2.973702
3.478938
3.858157
4.102242
4.242754
4.328558
4.354977
4.292553
4.136611
3.882239
3.516581
3.037764
2.467065
1.847736
1.214379
0.601363
0.033703
-0.482755
-0.938192
-1.344297
-1.722114
-2.059717
-2.332558
-2.510244
-2.588098
-2.602126
-2.559809
-2.468628
-2.363419
-2.265224
-2.203034
-2.202098
-2.258210
-2.366925
-2.501125
-2.622933
-2.718556
-2.773498
-2.797345
-2.803424
-2.783084
-2.761808
-2.761340
-2.791500
-2.861405
-2.948144
-3.021089
-3.041663
-2.991162
-2.890863
-2.730478
-2.482185
-2.154635
-1.774948
-1.372583
-0.977700
-0.603390
-0.239835
0.101977
0.396327
0.631294
0.804771
0.949492
1.095615
1.238232
1.377108
1.517152
1.671459
1.854288
2.061433
2.276292
2.480164
2.659954
2.804908
2.901934
2.926717
2.836237
2.608519
2.262265
1.841430
1.412880
1.014957
0.644623
0.303980
-0.021699
-0.354860
-0.689892
-1.029833
-1.377022
-1.710650
-2.017392
-2.281583
-2.497845
-2.662672
-2.756425
-2.781675
-2.738890
-2.637188
-2.521225
-2.413444
-2.314781
-2.215417
-2.101558
-1.973203
-1.804401
-1.554706
-1.206582
-0.765172
-0.265080
0.265640
0.817869
1.380386
1.949214
2.526460
3.102770
3.636530
4.079576
4.410399
4.604451
4.625726
4.443598
4.066483
3.561014
3.001070
2.440424
1.928408
1.488869
1.150097
0.945758
0.858318
0.840784
0.847330
0.841251
0.797531
0.680633
0.470683
0.156460
-0.265544
-0.749271
-1.249129
-1.729816
-2.161874
-2.555120
-2.887346
-3.119039
-3.259318
-3.315429
-3.312857
-3.272176
-3.165798
-2.997230
-2.768576
-2.474693
-2.148312
-1.801123
-1.448557
-1.108615
-0.762361
-0.410496
-0.046474
0.334382
0.715939
1.102406
1.471806
1.812682
2.130881
2.413308
2.682642
2.942391
3.190684
3.456512
3.692881
3.861682
3.994947
4.094779
4.149487
4.138966
4.037031
3.852565
3.597492
3.278359
2.887450
2.420791
1.938935
1.481160
1.039049
0.634580
0.254426
-0.124559
-0.483906
-0.825951
-1.141811
-1.431486
-1.703392
-1.926668
-2.102717
-2.223590
-2.270116
-2.291859
-2.311731
-2.308224
-2.268011
-2.181039
-2.041929
-1.824497
-1.528276
-1.186932
-0.806544
-0.403945
-0.013270
0.334855
0.609099
0.810866
0.947404
1.039520
1.118310
1.198035
1.288047
1.365901
1.401673
1.391152
1.339950
1.259057
1.132339
0.959796
0.752886
0.506464
0.254898
0.020399
-0.189784
-0.348299
-0.460989
-0.504008
-0.465431
-0.390382
-0.305046
-0.251038
-0.239816
-0.257117
-0.340816
-0.493953
-0.713255
-0.975809
-1.212178
-1.413945
-1.535052
-1.505360
-1.328375
-0.994980
-0.538608
-0.010226
0.565383
1.132575
1.660256
2.111952
2.469662
2.749284
2.899148
2.925801
2.872028
2.724969
2.516189
2.245685
1.918603
1.599937
1.285948
0.982947
0.716418
0.477945
0.286465
0.136835
0.019469
-0.063062
-0.134370
-0.201469
-0.272076
-0.334734
-0.356243
-0.352502
-0.335201
-0.288909
-0.201235
-0.073815
0.075815
0.241811
0.397754
0.515822
0.606535
0.651892
0.653061
0.643709
0.608172
0.556269
0.514654
0.469531
0.422538
0.368063
0.304938
0.278519
0.310549
0.403601
0.553231
0.738632
0.950453
1.147310
1.290628
1.393966
1.472522
1.549442
1.660496
1.826959
2.061458
2.336871
2.596854
2.798621
2.925573
2.961111
2.873904
2.681957
2.419636
2.115934
1.839586
1.617946
1.445637
1.346274
1.320556
1.345339
1.373628
1.359834
1.282214
1.112010
0.862782
0.580355
0.289511
-0.006242
-0.315790
-0.605231
-0.841600
-1.036119
-1.187386
-1.312467
-1.427963
-1.508857
-1.540185
-1.506752
-1.406219
-1.266642
-1.120285
-0.984449
-0.850950
-0.730311
-0.631882
-0.544442
-0.472432
-0.407436
-0.332387
-0.233023
-0.080120
0.104580
0.288345
0.486605
0.686268
0.869565
1.043277
1.183789
1.268424
1.305597
1.303026
1.249253
1.148486
1.029016
0.902298
0.765994
0.612857
0.443120
0.286476
0.156485
0.056420
-0.011615
-0.055569
-0.068895
-0.062583
-0.044346
0.011064
0.108324
0.268241
0.520742
0.856943
1.271232
1.725967
2.160363
2.560858
2.921373
3.218530
3.415621
3.467056
3.361146
3.094617
2.650637
2.038555
1.288534
0.432135
-0.476869
-1.383067
-2.254897
-3.050509
-3.718935
-4.251292
-4.650851
-4.910600
-5.049709
-5.096936
-5.070283
-4.987986
-4.868749
-4.744603
-4.644538
-4.570658
-4.508701
-4.436692
-4.337328
-4.198920
-4.010713
-3.758211
-3.421309
-2.999305
-2.496875
-1.896016
-1.189948
-0.406026
0.419279
1.281289
2.168550
3.013260
3.757437
4.372791
4.857453
5.238543
5.508111
5.652364
5.685329
5.612151
5.459014
5.266131
5.050103
4.834542
4.625995
4.400147
4.175468
3.979546
3.790871
3.610380
3.439474
3.243552
3.004612
2.696701
2.304623
1.848251
1.326883
0.747533
0.139894
-0.476395
-1.077020
-1.635796
-2.141733
-2.589454
-2.962127
-3.265128
-3.520201
-3.708408
-3.815253
-3.857804
-3.834892
-3.753296
-3.641541
-3.520434
-3.425045
-3.390676
-3.398158
-3.405639
-3.403769
-3.378285
-3.292715
-3.107781
-2.803143
-2.399141
-1.913311
-1.370667
-0.817269
-0.258493
0.304023
0.859058
1.417600
1.976609
2.530475
3.060961
3.525282
3.906138
4.193943
4.369525
4.421895
4.336092
4.124739
3.819868
3.435271
3.002980
2.555492
2.091873
1.598327
1.052176
0.464410
-0.133643
-0.737308
-1.327646
-1.875900
-2.362198
-2.755445
-3.034365
-3.193815
-3.250160
-3.210882
-3.095386
-2.961654
-2.820908
-2.652573
-2.453378
-2.212099
-1.942998
-1.644205
-1.309408
-0.983260
-0.684234
-0.409522
-0.163099
0.074673
0.314549
0.574064
0.875662
1.205083
1.528892
1.829556
2.107073
2.340403
2.493774
2.585656
2.647847
2.689696
2.725000
2.762407
2.805894
2.837924
2.827871
2.776670
2.690632
2.585657
2.488865
2.397685
2.312115
2.240807
2.171603
2.092580
2.009815
1.922843
1.803607
1.644157
1.465068
1.245299
0.958897
0.600720
0.149725
-0.384969
-0.989335
-1.676699
-2.428591
-3.225138
-4.061197
-4.897957
-5.681879
-6.361528
-6.883363
-7.205302
-7.319862
-7.250892
-7.025277
-6.694220
-6.299337
-5.845536
-5.350353
-4.811684
-4.201006
-3.517383
-2.764789
-1.962631
-1.153224
-0.375848
0.318530
0.904192
1.393296
1.783504
2.065697
2.236369
2.338772
2.423407
2.493313
2.558542
2.612082
2.623304
2.595950
2.511316
2.352801
2.129525
1.817639
1.442395
1.069021
0.718793
0.411349
0.178487
0.036572
-0.002939
0.069304
0.247224
0.501829
0.791738
1.071827
1.292065
1.421355
1.456424
1.408262
1.280609
1.067386
0.776308
0.431925
0.068604
-0.278351
-0.577845
-0.805563
-0.956830
-1.038893
-1.072092
-1.100381
-1.144335
-1.190159
-1.238088
-1.297004
-1.343764
-1.348907
-1.314305
-1.234112
-1.106459
-0.942333
-0.716953
-0.434058
-0.135966
0.174517
0.470972
0.705237
0.867025
0.940437
0.915888
0.803432
0.623174
0.430526
0.277622
0.186441
0.169374
0.219641
0.333968
0.508614
0.703835
0.889704
1.058506
1.169560
1.206734
1.191771
1.124203
1.022034
0.889939
0.716227
0.531294
0.343555
0.144360
-0.046886
-0.225274
-0.378411
-0.492737
-0.566150
-0.594673
-0.591400
-0.581580
-0.578073
-0.555862
-0.513778
-0.458135
-0.335157
-0.126844
0.137815
0.436608
0.736804
1.028349
1.288799
1.493372
1.638560
1.700283
1.685320
1.608868
1.466486
1.282488
1.078850
0.864692
0.638610
0.396163
0.167977
-0.047818
-0.266419
-0.450651
-0.571056
-0.620621
-0.608931
-0.564276
-0.485720
-0.369990
-0.244908
-0.150688
-0.123100
-0.171496
-0.286290
-0.437089
-0.598877
-0.790824
-1.006619
-1.215400
-1.417868
-1.611920
-1.798256
-1.997218
-2.208103
-2.406129
-2.556694
-2.631041
-2.622858
-2.529807
-2.346977
-2.088164
-1.784695
-1.462288
-1.155312
-0.909358
-0.721151
-0.566143
-0.463038
-0.409732
-0.383781
-0.385885
-0.407160
-0.441762
-0.492964
-0.546503
-0.586015
-0.606589
-0.622487
-0.622721
-0.575026
-0.487118
-0.363907
-0.198612
-0.013678
0.170788
0.344733
0.502780
0.653346
0.792455
0.900703
0.980428
1.041683
1.086573
1.110420
1.103874
1.080728
1.049867
0.994925
0.934371
0.887612
0.845061
0.823318
0.848100
0.941853
1.123280
1.387003
1.727880
2.136558
2.576097
3.021948
3.468501
3.885362
4.236058
4.490429
4.614576
4.609432
4.477337
4.193741
3.779452
3.261358
2.658862
2.016154
1.343285
0.649843
-0.029338
-0.708052
-1.383492
-1.994404
-2.503614
-2.890783
-3.135802
-3.215994
-3.106109
-2.831865
-2.448204
-2.011470
-1.577309
-1.155538
-0.752004
-0.378630
-0.034948
0.265248
0.537856
0.802047
1.047300
1.287176
1.491048
1.599997
1.629690
1.610752
1.551134
1.457381
1.335339
1.196230
1.053848
0.912400
0.745002
0.528272
0.269926
-0.029335
-0.354079
-0.675550
-0.985565
-1.273603
-1.537093
-1.789827
-2.023157
-2.216040
-2.371281
-2.512027
-2.637108
-2.707949
-2.693687
-2.580295
-2.372449
-2.088152
-1.739092
-1.336727
-0.886433
-0.404110
0.077279
0.539263
0.960565
1.334407
1.687675
2.005172
2.241073
2.379715
2.418292
2.378079
2.285262
2.132592
1.922175
1.675051
1.408756
1.150176
0.897675
0.631147
0.350590
0.048290
-0.292820
-0.663856
-1.059675
-1.488692
-1.924257
-2.309087
-2.595956
-2.776681
-2.880721
-2.930286
-2.928649
-2.880487
-2.794683
-2.696956
-2.601333
-2.493786
-2.378991
-2.256715
-2.099837
-1.899940
-1.663805
-1.400549
-1.112978
-0.797352
-0.459515
-0.124483
0.163321
0.367894
0.482922
0.512615
0.457906
0.327915
0.159581
-0.021378
-0.196726
-0.321573
-0.393115
-0.452032
-0.503701
-0.533159
-0.533393
-0.512585
-0.514455
-0.582724
-0.686296
-0.765319
-0.799454
-0.765085
-0.639536
-0.429586
-0.144587
0.187405
0.548154
0.939297
1.317348
1.612634
1.794762
1.879163
1.893425
1.841288
1.712699
1.526129
1.333481
1.164913
1.025336
0.927141
0.858639
0.804865
0.776810
0.759041
0.720699
0.651261
0.538805
0.395721
0.258014
0.140181
0.040583
-0.052702
-0.141311
-0.195318
-0.211216
-0.223607
-0.248623
-0.268029
-0.243713
-0.176614
-0.095953
0.002008
0.110957
0.193722
0.240481
0.276252
0.307815
0.319271
0.309686
0.284903
0.252873
0.235105
0.244457
0.291918
0.393386
0.550965
0.753200
0.968060
1.147382
1.264749
1.310105
1.272698
1.157202
0.972269
0.721638
0.416767
0.057888
-0.354998
-0.797810
-1.260962
-1.759885
-2.281955
-2.786021
-3.246368
-3.653643
-3.991947
-4.250995
-4.434993
-4.548384
-4.590702
-4.555398
-4.430083
-4.211716
-3.908481
-3.519910
-3.027766
-2.429245
-1.764560
-1.068545
-0.357100
0.315769
0.907744
1.418825
1.832412
2.162066
2.445429
2.683434
2.868368
3.000230
3.069668
3.050263
2.921207
2.705880
2.440520
2.141493
1.809034
1.463949
1.161883
0.923877
0.727722
0.567804
0.435943
0.303380
0.140657
-0.084256
-0.384685
-0.748474
-1.166503
-1.616329
-2.055400
-2.437892
-2.726865
-2.915306
-2.999940
-2.974223
-2.854285
-2.651348
-2.373597
-2.040436
-1.679687
-1.314495
-0.932938
-0.522156
-0.100386
0.318579
0.716970
1.092448
1.449457
1.750822
1.963577
2.084217
2.111337
2.034652
1.848783
1.583657
1.267096
0.911490
0.547468
0.176666
-0.221959
-0.639053
-1.059186
-1.472540
-1.864852
-2.205026
-2.446071
-2.578634
-2.602014
-2.508962
-2.324730
-2.076905
-1.770864
-1.425779
-1.056613
-0.667575
-0.286719
0.052287
0.346404
0.590723
0.745964
0.776826
0.678397
0.461667
0.155159
-0.201148
-0.577328
-0.948364
-1.290643
-1.593878
-1.838430
-1.993203
-2.045340
-2.000918
-1.876538
-1.702359
-1.522803
-1.378082
-1.290408
-1.280355
-1.353299
-1.495916
-1.705865
-1.959769
-2.204555
-2.401646
-2.519479
-2.558991
-2.557354
-2.521116
-2.463835
-2.400476
-2.305087
-2.183278
-2.047910
-1.887291
-1.719190
-1.533555
-1.288302
-1.008914
-0.730695
-0.462062
-0.230603
-0.047773
0.099519
0.199117
0.248448
0.264814
0.260372
0.260372
0.289363
0.355061
0.452788
0.568985
0.716278
0.923890
1.196264
1.525217
1.903033
