EVENT_NAME: 202302060117
EVENT_ID: 13194
EVENT_DATE_YYYYMMDD: 2023/02/06
EVENT_TIME_HHMMSS: 01:17:32.00000
EVENT_LATITUDE_DEGREE: 37.288
EVENT_LONGITUDE_DEGREE: 37.043
EVENT_DEPTH_KM: 8.6
HYPOCENTER_REFERENCE: AFAD
MAGNITUDE_W: 7.7
MAGNITUDE_W_REFERENCE: AFAD
MAGNITUDE_L: 
MAGNITUDE_L_REFERENCE: 
FOCAL_MECHANISM: 
NETWORK: TK
STATION_CODE: 4628
STATION_NAME: 
STATION_LATITUDE_DEGREE: 38.241198
STATION_LONGITUDE_DEGREE: 36.922805
STATION_ELEVATION_M: 1228.0
LOCATION: Kahramanmaras_Pazarck_Turkiye
SENSOR_DEPTH_M: 
VS30_M/S: 186
SITE_CLASSIFICATION_EC8: C
MORPHOLOGIC_CLASSIFICATION: 
EPICENTRAL_DISTANCE_KM: 106.52
EARTHQUAKE_BACKAZIMUTH_DEGREE: 
DATE_TIME_FIRST_SAMPLE_YYYYMMDD_HHMMSS: 2023/02/06 01:17:30.4120310
DATE_TIME_FIRST_SAMPLE_PRECISION: millisecond
SAMPLING_INTERVAL_S: 0.01
NDATA: 12501
DURATION_S: 
STREAM: HNZ
UNITS: cm/s^2
INSTRUMENT: sensor = ACEBOX/SARA | digitizer = 
INSTRUMENT_ANALOG/DIGITAL: 
INSTRUMENTAL_FREQUENCY_HZ: 
INSTRUMENTAL_DAMPING: 
FULL_SCALE_G: 
N_BIT_DIGITAL_CONVERTER: 
PGA_CM/S^2: 55.741
TIME_PGA_S: 
BASELINE_CORRECTION: BASELINE REMOVED
FILTER_TYPE: BUTTERWORTH
FILTER_ORDER: 
LOW_CUT_FREQUENCY_HZ: 
HIGH_CUT_FREQUENCY_HZ: 
LATE/NORMAL_TRIGGERED: 
DATABASE_VERSION: 
HEADER_FORMAT: DYNA 1.2
DATA_TYPE: Acceleration
PROCESSING: Automatic Paolucci et al., 2011
DATA_TIMESTAMP_YYYYMMDD_HHMMSS: 
DATA_LICENSE: U (unknown license)
DATA_CITATION: Turkish Accelerometric Archive v 1.0 - Disaster And Emergency Management Presidency, Earthquake Department
DATA_CREATOR: AFAD
ORIGINAL_DATA_MEDIATOR_CITATION: : AFAD - Disaster And Emergency Management Presidency
ORIGINAL_DATA_MEDIATOR: AFAD PROCESS SERVICE
ORIGINAL_DATA_CREATOR_CITATION: AFAD PROCESS SERVICE
ORIGINAL_DATA_CREATOR: network: TK
USER1: GuestUser
USER2: 
USER3: 
USER4: 
USER5: 
[...]
10.443473
9.740912
4.480706
3.226383
5.483461
1.601491
-8.035166
-14.907637
-15.885846
-13.046145
-8.222207
-1.459622
5.241942
7.919387
6.760220
3.050791
-2.075214
-3.267114
-1.064510
-1.469214
-1.653915
1.351080
3.624290
3.509261
2.373006
2.985554
5.311368
4.988259
2.254233
0.184893
-1.782746
-3.766282
-2.791349
1.112363
1.094594
-5.869526
-10.592232
-5.806636
-0.058731
-1.417562
-1.890535
2.640689
3.843342
0.711393
-0.818811
0.587011
2.518176
2.557219
1.938590
2.530798
3.889861
6.021156
6.190892
2.101075
-2.096522
-6.410316
-14.402442
-19.261452
-14.892483
-7.841860
-3.451382
-0.007783
2.402199
1.907015
-0.122813
-1.299983
-0.520972
3.821344
9.004862
9.093003
7.672918
10.748987
13.988949
13.902911
11.933870
7.382304
2.626399
0.867307
-0.227566
0.168018
5.310622
10.626002
10.120765
6.340262
4.368649
2.919339
-1.180530
-7.417775
-14.800158
-21.241273
-23.527812
-21.479748
-15.947405
-9.899070
-9.045243
-11.714274
-9.266183
0.077757
8.292457
8.802602
4.688704
1.953276
1.033750
1.081912
2.855964
3.899401
1.705680
-0.665726
-0.769533
0.184826
3.269781
8.453299
10.925470
8.436464
2.313313
-4.292630
-5.449693
-1.719693
-1.278284
-5.466062
-8.705324
-8.534185
-5.883392
-2.262107
1.781415
6.431642
9.889503
9.334935
5.589736
2.928888
1.991360
-1.321080
-7.778094
-12.828817
-13.778268
-14.050409
-15.622463
-14.610355
-11.078849
-7.351186
-0.838530
6.774843
9.842263
8.593317
5.808791
1.719676
-3.032255
-4.904036
-3.656495
-2.342555
0.427474
4.204935
5.220316
4.978101
5.733266
6.917682
7.407486
5.582932
1.356344
-3.192884
-4.447441
-1.763683
0.174495
-1.005714
-4.185358
-8.180252
-9.420548
-5.402509
-0.150722
0.933629
-1.207487
-1.105318
3.069599
6.813627
5.076746
-0.995671
-3.901304
-0.031726
4.268272
5.095914
5.203693
4.317601
1.594797
-2.708476
-7.588995
-7.955590
-3.727367
-0.555674
-0.175287
-1.280681
-1.096684
0.901347
1.748627
0.270560
-3.711943
-9.421507
-14.826199
-18.284763
-18.106143
-14.671896
-9.543320
-3.453837
2.016083
5.162526
5.938264
6.150318
7.172011
8.371858
9.207448
10.165549
10.052624
6.358158
2.435507
3.537627
6.595928
7.017463
4.376255
0.472307
-1.419347
-1.548638
-1.270420
-0.084835
0.036973
-1.874788
-2.408081
0.783485
2.060017
-3.732779
-8.316842
-5.714914
-2.346831
-1.864040
-4.460360
-8.965634
-9.718228
-4.853376
2.626032
9.360561
11.672114
9.782330
7.498831
6.364680
6.112879
7.204478
7.626949
2.547702
-5.687340
-8.430250
-6.670459
-7.655447
-9.130241
-6.433157
-3.322953
-2.157240
0.266301
1.742496
-2.728877
-8.976642
-9.512507
-4.851759
0.498691
3.754784
3.208165
1.391326
3.303787
6.569466
5.597336
3.011304
2.643540
1.124091
-2.496962
-3.612877
-2.401574
-3.192979
-6.639619
-10.141435
-11.942143
-11.933025
-9.504574
-5.065934
-1.422906
1.479453
6.030082
10.984479
12.843166
10.593802
8.138930
10.364211
15.472681
18.278247
18.167426
16.040806
11.943975
8.499206
6.312499
1.946100
-4.615421
-11.081552
-16.904040
-21.226485
-22.368118
-17.620164
-8.323918
-1.567178
1.074964
2.060419
0.387131
-3.093410
-6.760053
-9.808069
-9.808303
-7.746680
-5.096121
-1.003968
2.372297
4.772225
8.025279
9.785772
9.374288
8.661907
6.639092
3.272644
1.184600
0.850269
0.856113
0.656684
-0.855986
-4.003131
-5.954170
-5.910919
-5.943651
-5.712894
-4.538531
-2.494676
3.273335
12.829564
17.566763
12.560227
5.729606
2.678083
0.012560
-1.774588
-2.259484
-6.667966
-12.505651
-12.870609
-8.536009
-2.980519
0.722829
1.213802
0.766080
0.829906
1.705709
2.968448
3.051445
2.694436
3.660251
4.623028
3.882123
3.243622
2.712200
0.117283
-1.424143
-0.619180
-2.372426
-5.885465
-5.719002
-2.673092
-0.762034
0.189286
2.978721
8.383879
12.222595
9.866152
4.114271
-0.436126
-3.954075
-8.189547
-13.573431
-17.086703
-16.465505
-11.521161
-0.933653
10.715996
16.088189
15.496214
13.629342
13.321430
12.192890
9.716742
9.428469
6.848983
0.049456
-2.199674
-0.564965
-1.754993
-3.805864
-4.676526
-4.741288
-4.400413
-6.056867
-8.996401
-10.466285
-9.632565
-6.884513
-5.075624
-3.531628
2.772481
10.825860
12.070596
7.435331
6.232209
10.784241
14.389628
14.232515
12.544264
9.220134
3.632145
-1.931763
-4.923200
-5.778899
-6.066704
-5.704086
-4.390613
-2.223314
1.141496
5.110905
7.341798
5.673653
0.605629
-4.582099
-6.598134
-5.539267
-4.734537
-5.668091
-5.479885
-2.779293
-1.003838
-1.844106
-2.850838
-2.665671
-1.754097
-0.942821
-0.303386
1.590137
4.359699
5.788900
4.728395
1.237567
-1.550232
0.567970
4.889244
4.752940
1.062683
-0.315085
1.292270
2.364230
1.120895
-0.235831
-0.743406
-2.769260
-3.692059
-1.141565
0.462049
1.193133
3.487151
4.324144
2.753026
1.151513
0.173071
-0.438076
-0.366769
-0.928117
-3.686925
-4.557353
-1.550487
-1.174075
-4.679865
-6.192768
-4.709326
-3.366862
-3.803830
-4.233784
-2.818377
-2.426767
-3.897586
-2.261006
2.533707
4.809255
4.015279
3.833617
6.572785
12.189296
15.655807
13.546955
11.674940
13.284867
13.218468
8.260094
-0.213421
-6.997283
-7.172398
-4.493550
-3.646971
-2.515159
-0.814519
-0.908272
-1.323731
-1.234187
-4.168110
-10.382676
-14.427837
-11.734259
-3.707533
0.344641
-3.602325
-4.913461
1.410520
7.914759
10.526975
10.335494
9.757079
9.546427
8.653087
8.805989
9.026459
5.491444
1.019837
-0.265114
-1.712320
-7.172422
-13.428136
-15.636119
-13.297913
-9.488421
-6.568762
-1.982595
4.798927
8.249306
7.714845
6.690812
4.497325
1.030579
-0.330122
0.889130
0.324041
-2.622741
-2.837601
0.317258
3.650973
5.623052
4.964912
3.162100
2.693102
2.334690
0.801680
-0.979388
-1.671663
-1.392042
-1.502161
-2.008567
-2.749705
-4.962831
-7.804170
-8.076077
-7.013703
-8.596277
-10.072007
-8.091978
-6.174842
-4.969384
-0.161344
8.486582
17.003816
22.367358
22.822561
17.677617
10.924850
6.640047
1.661567
-5.677798
-10.124623
-9.698411
-8.602136
-9.348652
-10.397000
-11.515019
-13.504868
-13.823067
-12.023297
-11.669329
-11.250599
-6.112203
1.803704
6.292143
6.178984
6.178750
7.701237
7.677155
7.348201
9.366104
11.049210
9.268375
5.274416
2.624323
1.613383
-0.553685
-2.718181
-2.352756
-1.773875
-2.506597
-1.693684
1.442939
2.914224
-0.930573
-7.468480
-9.858824
-7.107499
-4.470033
-4.588569
-5.656088
-4.062527
0.150733
1.677896
-0.258414
-1.369185
-1.017789
-0.146194
0.968317
1.567305
3.408691
7.405221
11.103893
14.093224
16.172148
15.692863
13.180477
9.285647
4.271864
-1.480718
-8.460035
-15.018984
-17.771480
-15.717105
-12.297821
-10.120234
-5.385139
1.912842
4.306925
0.584638
-2.374301
-0.029315
3.596646
2.378094
-0.605394
0.274384
2.938503
3.372197
1.642096
-0.637194
-3.050451
-2.628915
3.532811
9.237931
8.978883
6.518867
4.831084
4.302935
3.472486
-1.690226
-9.302665
-12.722886
-8.792054
-0.246765
5.294463
4.526439
2.678270
3.433435
3.535136
-0.181306
-4.577865
-5.956568
-5.927578
-6.941791
-8.925328
-9.921072
-8.046018
-4.790626
-3.429459
-3.705809
-2.239433
0.547430
0.594656
-2.581948
-5.956111
-6.307743
-3.046974
0.865389
3.701349
5.387494
5.747541
5.857191
7.201758
10.024859
11.375272
8.720269
5.186656
4.351064
5.632272
6.436768
4.507706
-0.081735
-3.636390
-2.154584
2.518555
5.775117
6.451725
5.581998
3.313930
-3.336434
-13.619540
-19.771682
-19.954044
-18.892840
-18.569265
-17.962328
-14.482724
-7.988305
-1.197664
4.967569
10.074402
13.261993
14.708028
15.323148
15.502236
13.432428
7.550789
0.193189
-4.371704
-4.833454
-4.919259
-7.516046
-9.650849
-9.041107
-7.377406
-6.293056
-6.449934
-5.079883
-0.359284
2.154036
-0.266935
-3.917213
-6.488282
-6.637913
-4.822946
-3.371299
-3.282691
-4.311868
-3.234998
0.579871
1.833959
0.947165
2.253155
4.485919
7.061428
10.881909
12.718385
10.461072
7.814018
8.777964
10.313543
7.535563
2.469176
-1.422147
-4.269798
-7.242297
-9.873920
-8.593881
-3.393062
0.764554
2.804902
3.596773
2.171310
-0.231659
-1.188125
-1.034988
-1.209402
-0.624676
0.902019
0.179117
-1.857959
-1.817279
-3.205334
-8.283879
-10.134853
-6.148610
-2.606349
-0.170182
4.891995
9.401476
10.106374
9.650235
9.802436
10.465952
10.386226
6.580240
0.779729
-2.226204
-3.587372
-5.616967
-6.889760
-7.146470
-6.191643
-3.711055
-2.159344
-2.132925
-1.628392
-0.429714
-0.240573
-2.317161
-5.796065
-10.156385
-13.905325
-12.484072
-7.673227
-6.472445
-6.388746
-0.683158
6.716758
8.821634
8.582225
11.055565
13.282249
10.890970
6.438768
4.755661
4.880040
4.019899
3.461123
4.103363
4.414780
3.917025
3.991372
5.812885
7.923372
8.776965
8.931505
7.295157
1.593542
-6.585155
-12.593979
-15.181181
-16.141854
-14.493584
-10.275415
-6.484159
-3.272955
-0.235462
1.421225
1.312742
1.371658
4.066639
5.171797
1.101386
-3.229008
-6.285908
-8.874512
-9.996506
-11.322605
-10.871611
-8.593725
-9.761309
-11.700658
-11.730351
-12.713236
-10.794462
-4.262168
-0.496396
0.799775
6.585555
14.755132
19.189330
19.697137
19.249181
17.921679
12.738393
5.590976
1.698484
0.251512
-1.913217
-5.158558
-8.280921
-9.393330
-8.631385
-7.369115
-5.484709
-4.102267
-4.084499
-2.205939
0.590275
-1.399808
-5.686715
-8.397362
-12.140223
-14.832399
-13.361815
-10.249507
-5.688357
0.732650
6.334900
9.099318
9.534180
11.258200
13.993393
11.864668
7.172824
7.351444
9.785039
8.724300
6.634853
7.607215
9.019116
8.495643
9.595425
11.026965
7.830254
2.628965
-0.952108
-3.406981
-5.557682
-6.284559
-3.458886
-1.936867
-7.650171
-15.228944
-18.197001
-17.332887
-15.039103
-13.901447
-14.043830
-11.112481
-4.694513
0.940468
5.727934
9.541166
9.576703
7.596673
5.626696
3.308362
1.040995
-3.492569
-10.071858
-11.954395
-6.799633
1.412962
9.195371
13.331711
12.844711
12.099598
14.098798
15.586449
13.010002
6.686019
-0.229939
-2.458963
0.584843
1.689534
-1.552767
-3.956671
-4.448581
-6.356602
-10.321337
-13.519684
-14.738938
-15.920550
-16.134241
-12.560651
-7.537751
-5.340525
-4.126417
-0.563114
2.314696
3.271160
6.174453
10.036549
11.266088
10.228963
10.418104
15.057576
20.905079
22.608291
21.375243
19.322035
15.249052
8.366761
-0.033108
-6.984135
-12.261876
-17.325925
-20.166095
-21.175399
-23.214112
-23.906152
-20.075619
-13.770809
-10.184593
-9.736405
-6.848308
-2.165584
0.800368
4.913796
9.705236
14.308002
22.145353
28.772102
30.237309
30.058687
27.140896
20.721056
12.651309
2.908742
-3.627061
-4.424778
-4.086708
-4.346224
-6.463025
-12.166978
-17.973100
-20.397345
-22.296948
-27.087455
-31.489391
-31.285287
-25.548604
-15.208453
-4.920439
3.854205
14.423477
24.509724
29.695347
29.534493
24.775783
18.595819
15.004692
12.082226
6.228643
0.063408
-3.181465
-3.610250
-1.661785
-0.477368
-2.110209
-2.912836
-2.754556
-6.599821
-13.418753
-17.398918
-16.327426
-11.342168
-7.473525
-8.578218
-8.990170
-6.203775
-5.715373
-5.487655
-2.457176
-1.423793
-1.880166
-1.213611
-2.427020
-2.657311
0.323370
1.095367
1.509188
3.082409
0.977999
-1.938389
-3.069267
-3.189206
-0.307656
1.848422
1.705103
5.085109
10.960200
14.040244
13.668974
12.620860
12.317858
8.753851
2.355988
1.591470
5.646215
5.799819
3.143882
2.788041
2.751802
1.349953
0.537974
1.427572
4.274286
5.513645
1.181147
-4.207413
-5.498676
-4.477451
-4.848722
-8.237848
-11.183928
-10.071755
-8.943918
-11.577645
-13.000536
-9.577043
-7.517056
-9.094254
-6.899132
-1.717016
-0.525353
-0.174891
2.390565
3.730223
6.637725
13.460396
18.131898
18.870930
18.634093
18.036740
17.291393
13.929856
5.930715
-2.241903
-7.528761
-10.744877
-10.009118
-5.364035
-1.045800
2.796891
7.657301
10.946127
11.212421
10.280504
9.918585
8.692084
2.928747
-4.965185
-7.906589
-5.547108
-3.826127
-5.793298
-8.601204
-8.921040
-7.160080
-5.268427
-4.448267
-4.019951
-3.882245
-6.717272
-11.779919
-14.108073
-11.984025
-8.029112
-5.439574
-4.157898
0.465208
11.499971
22.956503
27.688092
28.820137
29.033593
24.272311
15.663661
7.446855
-0.089133
-6.188437
-9.310566
-10.898284
-11.863400
-9.988113
-6.972363
-6.558075
-6.014263
-2.889564
-2.332192
-8.063966
-11.736221
-6.585434
-1.303721
-0.488237
1.771880
5.467513
6.975504
5.904011
4.827841
5.251481
3.246435
-3.399487
-10.370621
-14.019496
-15.682964
-15.887070
-14.107640
-11.970500
-7.358850
-0.620112
1.877310
0.329103
-1.531222
-2.134888
-2.377336
-3.455376
-0.366682
4.795561
3.765917
2.289253
7.159015
13.564826
16.970316
17.472745
15.969662
14.441796
14.752745
13.815218
10.095970
6.278995
3.312107
2.275449
-0.817690
-7.016825
-7.699748
-5.691430
-6.965626
-8.370982
-9.701991
-8.638448
-4.781963
-3.244045
-3.036434
-3.599886
-4.658054
-2.696963
-2.039760
-6.133083
-7.003044
-0.730030
7.937535
15.355454
17.630534
15.297471
15.176597
15.506250
10.406897
3.336633
-1.477721
-5.837573
-11.689987
-17.043478
-16.815760
-10.348929
-4.708103
-4.437600
-8.288710
-12.993647
-13.681479
-12.157589
-13.096520
-11.641367
-5.737519
-0.847416
3.260401
8.100471
12.518537
18.295901
23.977173
25.443783
25.218869
26.606455
29.306111
30.853614
27.113559
22.022155
20.392587
14.896480
4.178745
-3.563920
-10.220363
-20.536434
-30.738880
-38.273465
-43.370480
-44.159313
-41.092361
-36.308402
-30.885710
-26.410363
-23.154036
-21.145718
-18.106822
-8.670064
4.138519
13.688668
22.942831
35.252957
46.997295
54.336424
55.741077
51.760210
44.965359
35.901506
24.996499
16.950833
11.606928
3.011839
-7.806897
-16.923121
-23.980058
-28.419635
-31.994396
-37.145886
-41.382761
-40.268718
-33.691768
-26.943678
-21.284382
-12.665681
-3.678748
-0.616706
-2.752212
-3.454072
0.780931
4.682773
4.678564
5.348626
8.160505
10.352821
12.078945
14.087263
14.725061
11.979813
7.451393
4.112065
-0.075011
-7.012244
-12.187815
-12.663827
-12.022054
-12.923110
-13.113422
-10.091827
-4.967926
-0.881619
-0.320039
-3.377172
-5.554293
-1.547944
6.374977
12.077759
15.851012
19.274037
18.625716
14.107583
10.790233
9.536144
8.461611
5.762420
1.475279
-1.224846
-1.514522
-1.800925
-3.769265
-6.712773
-9.272620
-12.334430
-15.696669
-18.058958
-20.538378
-23.485394
-24.494697
-21.598184
-18.581966
-18.228933
-13.034660
-0.691568
10.554079
18.565843
25.491385
31.627861
37.609797
40.077760
35.506555
29.355348
27.054782
23.499660
14.524416
5.382241
0.682214
-0.469005
-2.003417
-7.660610
-15.677286
-21.182043
-22.430287
-22.194621
-24.920698
-30.029636
-31.937189
-28.966328
-24.444923
-19.352586
-12.423771
-4.557429
2.587882
7.071177
7.837798
7.594414
7.253771
4.838644
2.036115
0.916693
1.280949
4.130469
8.313101
9.976802
9.687126
9.100762
5.171564
0.447456
1.671150
4.260220
2.208180
-0.432093
0.858233
6.952392
14.112432
15.729373
11.047115
5.915264
6.041046
9.936108
11.264309
7.573117
0.919012
-4.219853
-4.947197
-4.068120
-3.910541
-2.534178
-0.876322
-2.051622
-3.208685
-2.260638
-3.915456
-9.428864
-15.400515
-19.858795
-20.989440
-17.926229
-12.386170
-8.021176
-7.588885
-8.246090
-6.253905
-5.560930
-10.120212
-13.616417
-10.479326
-4.976207
-1.725023
-0.646049
1.661061
7.967976
13.479745
13.674965
13.598279
16.422783
16.987636
13.901511
12.369905
14.125487
16.146196
15.396174
11.107162
5.324654
-0.691652
-6.212308
-9.701967
-14.502760
-22.701096
-26.806577
-23.418388
-19.720651
-19.418118
-17.447910
-9.702441
-0.859294
3.128351
4.783635
8.456823
12.977292
14.582076
11.019239
5.015324
2.905771
5.284657
4.830622
-0.073277
-1.686946
2.700259
8.991508
13.568089
12.444926
5.228071
-1.407096
-3.314415
-5.262181
-11.270771
-16.649746
-16.098453
-11.029962
-8.601979
-13.549130
-17.682199
-13.644287
-9.008789
-9.393854
-10.946970
-10.502055
-8.858929
-8.107271
-6.953950
-4.791560
-3.415664
-1.408281
0.370681
-0.667380
-1.204880
1.877034
6.524222
11.511584
17.419406
21.355850
22.235395
23.140891
23.900263
25.236881
26.519025
22.361875
16.779730
16.571182
17.779914
15.935018
11.020132
5.526129
2.631484
2.037638
3.437615
5.996993
5.375092
0.191338
-6.390991
-11.524011
-14.831776
-17.234745
-18.496549
-17.961154
-16.062488
-15.398271
-17.243166
-15.397103
-5.735198
3.915952
5.505305
1.590837
0.282039
5.186403
10.900875
8.549107
-1.281367
-6.745444
-4.623501
-2.483321
0.550899
5.130986
3.601951
-2.274777
-3.850572
0.101069
4.586936
3.695466
-2.783291
-8.546160
-8.057992
-1.064416
6.927943
9.218922
5.801974
4.658471
9.103189
11.905015
10.942705
10.306308
7.440186
0.531242
-4.841186
-4.854279
-3.582189
-6.473795
-11.335610
-14.865248
-16.901856
-14.521334
-8.989457
-5.232570
0.083044
8.169857
9.728816
2.460292
-3.566301
-2.589497
1.529309
3.770956
2.290317
-1.328631
-2.427479
2.511721
9.472332
11.902888
11.360477
11.635422
11.838357
11.277477
9.954885
7.546538
3.497870
-1.891625
-4.737874
-3.957226
-4.360527
-8.581036
-12.354057
-9.730619
-4.125564
-2.692388
-3.951387
-5.538637
-6.168955
-2.929227
0.113877
-0.743692
-0.401414
4.054060
8.339329
7.102774
2.136218
1.002067
3.644910
3.697514
1.067528
-0.747909
-0.952249
1.720053
7.466088
11.511013
9.356805
2.976243
0.772703
7.027714
13.403364
12.506751
7.978097
4.054511
1.115444
0.902922
2.614785
-0.932622
-9.607203
-13.399863
-10.187957
-6.085517
-6.733604
-13.749393
-20.625605
-20.243581
-14.837254
-13.564229
-17.296569
-16.063757
-12.517989
-18.133566
-27.330684
-26.159360
-14.204606
-3.676482
-0.825325
0.576523
6.134350
15.619037
25.311803
30.681190
29.823387
23.832098
18.260241
16.472392
14.447941
10.957347
8.733466
8.165572
8.816229
8.602070
5.114983
-0.515558
-5.813405
-7.849780
-8.436612
-14.946230
-23.850633
-24.082795
-15.390447
-2.922273
9.293867
16.403173
15.823589
9.916232
4.571392
0.329374
-4.693294
-6.266282
-6.072465
-9.142224
-11.232840
-10.291106
-7.756978
-2.336857
2.674821
5.677946
10.995430
15.752502
14.559667
11.566360
12.228239
15.711818
17.097300
13.103106
9.160348
8.778790
5.486223
1.348478
4.166202
5.851178
-3.006700
-14.629698
-19.696553
-19.823272
-20.068526
-21.326123
-17.494420
-4.677655
7.360332
9.447205
7.091931
8.407975
12.096126
11.748702
8.485125
8.296216
9.594258
9.269513
7.494523
4.491630
2.907887
3.570935
3.242916
0.568041
-2.338995
-3.056987
-2.650415
-3.664394
-5.959817
-6.658871
-4.585090
-4.355736
-7.577697
-8.121276
-3.925318
1.142471
4.924608
8.349270
13.328917
18.711163
21.906937
22.797704
21.103842
18.554282
18.671180
17.571163
9.131081
-1.896436
-6.985502
-10.055728
-19.805543
-29.668047
-29.792195
-25.701912
-22.083433
-15.704275
-8.059339
-0.993753
4.801847
5.131266
0.260099
-3.305777
-1.553000
1.543878
0.531535
-1.262626
1.923796
8.624892
13.155882
13.731256
12.737150
8.201014
0.964520
-0.470996
3.998740
7.271433
4.762554
-1.885005
-2.804530
3.666743
9.023506
10.466735
9.548613
9.260807
10.731157
12.331733
13.395276
9.690056
1.428127
-2.211863
0.830072
1.994148
-3.939394
-8.706053
-5.872899
-4.729631
-10.119360
-15.289554
-16.191778
-13.784135
-11.429797
-9.637508
-7.186379
-4.766578
-0.542563
3.536964
3.144418
2.248272
2.830660
