EVENT_NAME: 202302060117
EVENT_ID: 13194
EVENT_DATE_YYYYMMDD: 2023/02/06
EVENT_TIME_HHMMSS: 01:17:32.00000
EVENT_LATITUDE_DEGREE: 37.288
EVENT_LONGITUDE_DEGREE: 37.043
EVENT_DEPTH_KM: 8.6
HYPOCENTER_REFERENCE: AFAD
MAGNITUDE_W: 7.7
MAGNITUDE_W_REFERENCE: AFAD
MAGNITUDE_L: 
MAGNITUDE_L_REFERENCE: 
FOCAL_MECHANISM: 
NETWORK: TK
STATION_CODE: 4208
STATION_NAME: 
STATION_LATITUDE_DEGREE: 37.67799
STATION_LONGITUDE_DEGREE: 31.74661
STATION_ELEVATION_M: 1143.0
LOCATION: Kahramanmaras_Pazarck_Turkiye
SENSOR_DEPTH_M: 
VS30_M/S: 286
SITE_CLASSIFICATION_EC8: C
MORPHOLOGIC_CLASSIFICATION: 
EPICENTRAL_DISTANCE_KM: 469.28
EARTHQUAKE_BACKAZIMUTH_DEGREE: 
DATE_TIME_FIRST_SAMPLE_YYYYMMDD_HHMMSS: 2023/02/06 01:18:11.5248250
DATE_TIME_FIRST_SAMPLE_PRECISION: millisecond
SAMPLING_INTERVAL_S: 0.01
NDATA: 24501
DURATION_S: 
STREAM: HNN
UNITS: cm/s^2
INSTRUMENT: sensor = GMS+/GEOSIG | digitizer = 
INSTRUMENT_ANALOG/DIGITAL: 
INSTRUMENTAL_FREQUENCY_HZ: 
INSTRUMENTAL_DAMPING: 
FULL_SCALE_G: 
N_BIT_DIGITAL_CONVERTER: 
PGA_CM/S^2: 3.358
TIME_PGA_S: 
BASELINE_CORRECTION: BASELINE REMOVED
FILTER_TYPE: BUTTERWORTH
FILTER_ORDER: 
LOW_CUT_FREQUENCY_HZ: 
HIGH_CUT_FREQUENCY_HZ: 
LATE/NORMAL_TRIGGERED: 
DATABASE_VERSION: 
HEADER_FORMAT: DYNA 1.2
DATA_TYPE: Acceleration
PROCESSING: Automatic Paolucci et al., 2011
DATA_TIMESTAMP_YYYYMMDD_HHMMSS: 
DATA_LICENSE: U (unknown license)
DATA_CITATION: Turkish Accelerometric Archive v 1.0 - Disaster And Emergency Management Presidency, Earthquake Department
DATA_CREATOR: AFAD
ORIGINAL_DATA_MEDIATOR_CITATION: : AFAD - Disaster And Emergency Management Presidency
ORIGINAL_DATA_MEDIATOR: AFAD PROCESS SERVICE
ORIGINAL_DATA_CREATOR_CITATION: AFAD PROCESS SERVICE
ORIGINAL_DATA_CREATOR: network: TK
USER1: GuestUser
USER2: 
USER3: 
USER4: 
USER5: 
[...]
-2.357144
-2.248041
-2.132964
-2.011652
-1.868520
-1.714737
-1.560435
-1.384572
-1.178057
-0.960631
-0.734633
-0.501881
-0.261596
-0.008582
0.243653
0.487835
0.717730
0.922427
1.108680
1.282985
1.435728
1.561716
1.665883
1.753165
1.834212
1.905389
1.958641
1.998386
2.021245
2.030337
2.026441
1.991632
1.933444
1.872139
1.797326
1.707965
1.616008
1.515997
1.409232
1.301429
1.186611
1.051272
0.902166
0.746824
0.584729
0.429908
0.277684
0.119225
-0.032220
-0.175611
-0.307054
-0.419274
-0.523960
-0.628647
-0.729696
-0.821394
-0.906079
-0.996738
-1.082981
-1.155716
-1.219878
-1.259882
-1.282222
-1.301445
-1.312615
-1.311576
-1.302224
-1.288976
-1.273910
-1.264298
-1.254167
-1.237542
-1.227411
-1.227411
-1.228190
-1.222735
-1.193122
-1.132076
-1.057783
-0.981151
-0.897506
-0.799313
-0.685795
-0.560587
-0.440314
-0.339784
-0.250683
-0.165999
-0.073781
0.018436
0.085456
0.139228
0.210145
0.296128
0.378215
0.454067
0.521347
0.579535
0.629151
0.669155
0.697210
0.710718
0.717472
0.719810
0.730980
0.754359
0.775920
0.795922
0.815145
0.840862
0.871515
0.901908
0.922949
0.922949
0.910480
0.883724
0.847356
0.810989
0.772284
0.728643
0.685521
0.655388
0.639282
0.636165
0.639023
0.644478
0.657986
0.676689
0.687080
0.688379
0.692016
0.689158
0.672013
0.649933
0.622658
0.580056
0.524985
0.465238
0.402634
0.334315
0.253268
0.157673
0.055844
-0.043127
-0.146775
-0.262112
-0.375890
-0.488110
-0.614097
-0.754372
-0.901660
-1.053884
-1.214161
-1.375737
-1.526402
-1.671093
-1.818901
-1.947745
-2.047237
-2.125946
-2.182056
-2.223099
-2.253752
-2.274014
-2.281027
-2.271156
-2.255310
-2.235308
-2.211929
-2.180237
-2.124647
-2.046457
-1.956317
-1.858125
-1.747464
-1.618359
-1.474708
-1.325860
-1.173896
-1.019075
-0.856979
-0.694624
-0.543959
-0.404464
-0.279255
-0.160801
-0.052218
0.036623
0.114813
0.188587
0.245216
0.285480
0.331719
0.385491
0.436665
0.484982
0.536676
0.586811
0.628894
0.667599
0.702148
0.728125
0.737217
0.732541
0.714098
0.675133
0.624478
0.559276
0.481865
0.407312
0.326784
0.235865
0.141829
0.042338
-0.063647
-0.182361
-0.312245
-0.448363
-0.599548
-0.761903
-0.925297
-1.085314
-1.239357
-1.380411
-1.501982
-1.605110
-1.682521
-1.723564
-1.732136
-1.710316
-1.657323
-1.574977
-1.473927
-1.364564
-1.243772
-1.108953
-0.963742
-0.811778
-0.653839
-0.490185
-0.319778
-0.141837
0.039481
0.227553
0.412248
0.585254
0.745790
0.887884
1.014391
1.118298
1.202982
1.265586
1.297538
1.309227
1.301174
1.274938
1.227400
1.159341
1.082450
0.993350
0.895157
0.786315
0.656431
0.516156
0.371725
0.220021
0.056627
-0.113781
-0.273538
-0.419008
-0.560582
-0.711247
-0.859575
-0.995953
-1.128175
-1.246629
-1.345081
-1.427427
-1.494967
-1.540426
-1.559389
-1.563545
-1.558090
-1.536530
-1.493408
-1.436259
-1.378850
-1.326637
-1.285594
-1.251564
-1.213378
-1.170776
-1.125576
-1.080377
-1.031800
-0.968417
-0.889447
-0.799568
-0.703194
-0.610716
-0.517460
-0.422125
-0.332765
-0.263406
-0.217168
-0.185476
-0.169111
-0.150667
-0.131444
-0.114819
-0.081828
-0.042344
0.015065
0.101048
0.216905
0.368349
0.530964
0.710983
0.906589
1.091543
1.275719
1.442490
1.584323
1.713688
1.825907
1.932412
2.029825
2.109055
2.183608
2.262837
2.335572
2.394280
2.431946
2.448312
2.446234
2.421556
2.386487
2.337910
2.267513
2.191142
2.110873
2.022033
1.919424
1.805386
1.692387
1.571595
1.441971
1.300398
1.136224
0.961920
0.792551
0.630196
0.469660
0.308604
0.152224
0.008832
-0.111960
-0.219764
-0.320294
-0.406537
-0.483169
-0.544474
-0.586816
-0.622404
-0.655914
-0.679553
-0.683969
-0.672280
-0.659291
-0.648641
-0.631756
-0.607078
-0.570970
-0.517198
-0.470180
-0.429916
-0.380820
-0.333542
-0.282887
-0.229894
-0.173525
-0.128065
-0.082606
-0.023379
0.033770
0.098452
0.133261
0.147808
0.178721
0.184176
0.156381
0.103648
0.027016
-0.070916
-0.193527
-0.334321
-0.486804
-0.651497
-0.815411
-0.952309
-1.065048
-1.168695
-1.264809
-1.334947
-1.378847
-1.406123
-1.414695
-1.431580
-1.461973
-1.478858
-1.476000
-1.471584
-1.472883
-1.479118
-1.485871
-1.472623
-1.436775
-1.387939
-1.334946
-1.265328
-1.158304
-1.037512
-0.912563
-0.776445
-0.646301
-0.528107
-0.412510
-0.293277
-0.183914
-0.097412
-0.024936
0.041824
0.097674
0.140016
0.175085
0.200542
0.221584
0.230676
0.226000
0.228857
0.234312
0.233533
0.224182
0.210414
0.206258
0.208596
0.216648
0.233274
0.248340
0.271719
0.310165
0.349390
0.397187
0.447322
0.488106
0.527591
0.569413
0.613834
0.648902
0.667606
0.685790
0.702934
0.705532
0.699298
0.698518
0.707350
0.710208
0.692803
0.675659
0.667087
0.648903
0.619029
0.578246
0.527331
0.466286
0.403422
0.342896
0.267564
0.180022
0.095078
0.017667
-0.058185
-0.141571
-0.225995
-0.290677
-0.327305
-0.344449
-0.343410
-0.316394
-0.264181
-0.202616
-0.136895
-0.060783
0.022343
0.098975
0.164436
0.239249
0.337702
0.443947
0.539801
0.634616
0.743199
0.861654
0.976471
1.071286
1.150516
1.230784
1.307935
1.379631
1.440676
1.478343
1.499124
1.507437
1.496007
1.465614
1.412881
1.326638
1.214159
1.092328
0.960106
0.807622
0.635136
0.452000
0.270422
0.092741
-0.080005
-0.251971
-0.416924
-0.555640
-0.677471
-0.795405
-0.898014
-0.978542
-1.049718
-1.107127
-1.137260
-1.157262
-1.180901
-1.202461
-1.200903
-1.180641
-1.170250
-1.181680
-1.203241
-1.202202
-1.184537
-1.175965
-1.177524
-1.182199
-1.175965
-1.149469
-1.106347
-1.061667
-1.016207
-0.964514
-0.900611
-0.816965
-0.729943
-0.652532
-0.587850
-0.519531
-0.441860
-0.375620
-0.323406
-0.285480
-0.252749
-0.215343
-0.173780
-0.131178
-0.100265
-0.081302
-0.053507
-0.004671
0.054816
0.113264
0.169634
0.225224
0.279256
0.328871
0.362641
0.375630
0.373032
0.352251
0.326014
0.287828
0.229640
0.158464
0.074819
0.002084
-0.065196
-0.140009
-0.228850
-0.324444
-0.399258
-0.457186
-0.500307
-0.538753
-0.571484
-0.589667
-0.596162
-0.577458
-0.557456
-0.545767
-0.530960
-0.514075
-0.492774
-0.482903
-0.481604
-0.481344
-0.470434
-0.443678
-0.418480
-0.390685
-0.346005
-0.277426
-0.187806
-0.084418
0.030919
0.148594
0.255358
0.352252
0.445768
0.539285
0.617735
0.667610
0.718265
0.783986
0.854383
0.927378
1.010504
1.100903
1.189224
1.287676
1.382232
1.451330
1.513674
1.572382
1.611607
1.629271
1.632388
1.626933
1.608750
1.580435
1.549003
1.503544
1.445356
1.383791
1.312614
1.229748
1.144285
1.058561
0.962447
0.856722
0.747100
0.637997
0.525518
0.409921
0.293545
0.165479
0.038193
-0.082079
-0.210664
-0.347302
-0.486798
-0.627332
-0.766827
-0.904245
-1.045299
-1.194665
-1.352084
-1.501191
-1.641206
-1.786676
-1.932146
-2.076058
-2.203863
-2.315044
-2.409599
-2.465709
-2.504155
-2.540263
-2.563642
-2.556888
-2.524676
-2.493764
-2.459215
-2.415574
-2.361023
-2.288028
-2.203343
-2.118139
-2.029559
-1.924093
-1.802521
-1.676794
-1.551326
-1.427416
-1.300650
-1.157518
-0.994903
-0.834366
-0.686039
-0.535113
-0.378993
-0.227548
-0.091949
0.017933
0.102357
0.164701
0.210680
0.239774
0.243671
0.234839
0.234060
0.240554
0.247308
0.263933
0.285494
0.294845
0.305496
0.314068
0.306275
0.288351
0.266271
0.233540
0.178470
0.118463
0.056898
-0.014538
-0.081818
-0.143642
-0.202610
-0.260278
-0.317167
-0.370939
-0.419256
-0.451987
-0.472508
-0.477444
-0.454325
-0.403670
-0.330156
-0.233782
-0.109093
0.034299
0.185484
0.344981
0.510194
0.683199
0.860621
1.033366
1.199618
1.361713
1.526926
1.685384
1.818385
1.923332
2.000223
2.053735
2.081011
2.075036
2.035032
1.965414
1.896576
1.837608
1.774745
1.713180
1.649536
1.576542
1.505365
1.437566
1.356259
1.258586
1.151821
1.048434
0.947124
0.840879
0.742947
0.661120
0.605529
0.566045
0.524482
0.478763
0.424991
0.376934
0.339267
0.300822
0.243673
0.169899
0.091189
0.017415
-0.042331
-0.110910
-0.189360
-0.268589
-0.337168
-0.389381
-0.437698
-0.467571
-0.481339
-0.487573
-0.482378
-0.465493
-0.439257
-0.413020
-0.386004
-0.358988
-0.339246
-0.335869
-0.349377
-0.374314
-0.414059
-0.468350
-0.534072
-0.603689
-0.670969
-0.732794
-0.789683
-0.838260
-0.873069
-0.898786
-0.921126
-0.937231
-0.935672
-0.924502
-0.910994
-0.895408
-0.880082
-0.854365
-0.822154
-0.786046
-0.748120
-0.712012
-0.676684
-0.643693
-0.597714
-0.542903
-0.485754
-0.421332
-0.351714
-0.271705
-0.183644
-0.093504
0.003909
0.102361
0.196916
0.293550
0.380312
0.456424
0.526562
0.583711
0.629430
0.665278
0.699308
0.727363
0.745806
0.765029
0.785031
0.809190
0.839063
0.866598
0.881665
0.891276
0.898290
0.887640
0.849454
0.791266
0.730480
0.653589
0.560332
0.465777
0.368883
0.275627
0.184708
0.109635
0.060019
0.015339
-0.022067
-0.042329
-0.050902
-0.049603
-0.048823
-0.057655
-0.068306
-0.088048
-0.121298
-0.157666
-0.193514
-0.230141
-0.271184
-0.311189
-0.342621
-0.360804
-0.370156
-0.369636
-0.356648
-0.340283
-0.327554
-0.308591
-0.282614
-0.265469
-0.251702
-0.240272
-0.239233
-0.247805
-0.258455
-0.262092
-0.265209
-0.262352
-0.254819
-0.243649
-0.216113
-0.176628
-0.124415
-0.055836
0.021315
0.092491
0.160810
0.236663
0.316152
0.394861
0.468895
0.546046
0.628393
0.712558
0.799060
0.878030
0.945050
1.007914
1.076752
1.148189
1.212611
1.270280
1.327948
1.392111
1.456793
1.518618
1.582521
1.630578
1.648762
1.656814
1.663049
1.646164
1.602003
1.555505
1.509266
1.449000
1.380681
1.306907
1.224821
1.139876
1.052594
0.960377
0.860366
0.755680
0.651773
0.550723
0.451751
0.354598
0.264719
0.178216
0.091713
0.010146
-0.066485
-0.136363
-0.210657
-0.287288
-0.359504
-0.447565
-0.556148
-0.675121
-0.801628
-0.935149
-1.074904
-1.214659
-1.344803
-1.466634
-1.578334
-1.666396
-1.734195
-1.781473
-1.810047
-1.830309
-1.841219
-1.845635
-1.844856
-1.834985
-1.822516
-1.810307
-1.797578
-1.789785
-1.778355
-1.759392
-1.734714
-1.709517
-1.686657
-1.655745
-1.622494
-1.580932
-1.537031
-1.500663
-1.460139
-1.415979
-1.367142
-1.325320
-1.287653
-1.241155
-1.188162
-1.132312
-1.083476
-1.034120
-0.973334
-0.905275
-0.830721
-0.747336
-0.660833
-0.573551
-0.481333
-0.385479
-0.296898
-0.218708
-0.146233
-0.095838
-0.054535
-0.005179
0.042878
0.084182
0.125485
0.186270
0.261863
0.341612
0.418503
0.488640
0.559038
0.613069
0.636968
0.641904
0.633851
0.591249
0.516436
0.425257
0.311219
0.170944
0.018461
-0.122074
-0.254555
-0.382101
-0.494841
-0.595631
-0.680055
-0.747595
-0.796691
-0.835136
-0.868387
-0.892805
-0.912547
-0.922678
-0.917223
-0.907092
-0.901897
-0.890207
-0.874101
-0.860334
-0.838513
-0.812536
-0.780325
-0.739282
-0.688887
-0.625244
-0.554067
-0.474578
-0.389114
-0.302092
-0.208056
-0.110643
-0.026998
0.058206
0.161594
0.262903
0.360836
0.465782
0.580599
0.707366
0.838809
0.969992
1.102473
1.237033
1.368736
1.495243
1.619671
1.745139
1.857099
1.949577
2.036339
2.116088
2.183887
2.241296
2.288054
2.315330
2.321565
2.311174
2.280002
2.225451
2.150118
2.055043
1.929055
1.784624
1.631102
1.451342
1.259114
1.065847
0.863228
0.648400
0.439027
0.242123
0.034828
-0.176104
-0.383139
-0.595629
-0.808898
-1.027103
-1.256218
-1.491568
-1.734191
-1.971619
-2.195279
-2.402055
-2.578697
-2.731960
-2.849375
-2.925487
-2.970687
-2.978220
-2.963153
-2.931202
-2.877170
-2.814306
-2.740792
-2.654289
-2.564929
-2.457645
-2.333995
-2.210086
-2.084098
-1.958630
-1.817576
-1.663794
-1.496243
-1.313626
-1.128152
-0.924754
-0.723693
-0.541336
-0.371968
-0.211431
-0.064922
0.051194
0.156141
0.253034
0.335381
0.411233
0.479812
0.530986
0.573848
0.623463
0.658012
0.664247
0.649960
0.618008
0.559820
0.466564
0.352266
0.226019
0.081847
-0.082066
-0.252214
-0.406516
-0.546531
-0.685767
-0.816690
-0.927351
-1.019309
-1.108928
-1.196470
-1.269465
-1.328173
-1.367397
-1.396491
-1.418052
-1.418312
-1.387659
-1.332848
-1.272062
-1.180624
-1.056195
-0.926831
-0.775386
-0.604978
-0.426778
-0.235329
-0.036606
0.159259
0.346032
0.517999
0.673080
0.820628
0.965579
1.104555
1.242751
1.387442
1.531873
1.672927
1.808786
1.933474
2.038420
2.117910
2.176617
2.216102
2.239221
2.250391
2.255587
2.263639
2.263899
2.254028
2.244417
2.213764
2.152978
2.072450
1.971920
1.846193
1.693449
1.523561
1.339126
1.141962
0.945577
0.751271
0.558783
0.377985
0.214850
0.066263
-0.073232
-0.209351
-0.343391
-0.467040
-0.571467
-0.674075
-0.780840
-0.887864
-0.998006
-1.091003
-1.171531
-1.252838
-1.318300
-1.356745
-1.381943
-1.399347
-1.396490
-1.368435
-1.316741
-1.251539
-1.167634
-1.064506
-0.952806
-0.826039
-0.685764
-0.534839
-0.381316
-0.233508
-0.083103
0.075615
0.231736
0.392013
0.552290
0.692564
0.834138
0.973374
1.095205
1.197034
1.278601
1.341725
1.382248
1.410044
1.419136
1.404329
1.371858
1.322762
1.254183
1.170538
1.074424
0.961684
0.841152
0.700358
0.537224
0.370453
0.206799
0.046262
-0.102585
-0.229611
-0.346507
-0.445478
-0.516655
-0.560036
-0.574063
-0.566270
-0.537176
-0.491457
-0.431191
-0.365989
-0.302606
-0.229871
-0.152460
-0.062060
0.050159
0.168094
0.290185
0.425005
0.573072
0.734128
0.906095
1.091569
1.276004
1.445373
1.615521
1.787228
1.960493
2.134018
2.290138
2.433790
2.562635
2.665763
2.756682
2.849938
2.938779
3.012553
3.081392
3.153867
3.224524
3.281933
3.320638
3.348433
3.358305
3.345316
3.324795
3.300636
3.251800
3.163479
3.048661
2.926311
2.794089
2.643164
2.472496
2.281047
2.070116
1.847235
1.627211
1.414462
1.199114
0.975194
0.746339
0.530212
0.336425
0.166796
0.018209
-0.121286
-0.248313
-0.346505
-0.415084
-0.476649
-0.534317
-0.569645
-0.578997
-0.571204
-0.564970
-0.566009
-0.559774
-0.554059
-0.562891
-0.578477
-0.591726
-0.596401
-0.597440
-0.585751
-0.553799
-0.521848
-0.488338
-0.437943
-0.365987
-0.280264
-0.202333
-0.131157
-0.057902
0.015612
0.081593
0.134066
0.173811
0.213036
0.244208
0.261093
0.281875
0.295382
0.303435
0.332270
0.373832
0.409680
0.434099
0.463972
0.490468
0.497222
0.501898
0.508392
0.504236
0.473584
0.425007
0.385782
0.353051
0.310190
0.261873
0.214855
0.158225
0.093803
0.031978
-0.013741
-0.046991
-0.078423
-0.102062
-0.127000
-0.147521
-0.164406
-0.184928
-0.199215
-0.215840
-0.237920
-0.270131
-0.314552
-0.359232
-0.398716
-0.426771
-0.437422
-0.440020
-0.439240
-0.422095
-0.390404
-0.345983
-0.283379
-0.210904
-0.133753
-0.062057
0.008080
0.086530
0.158486
0.214336
0.274343
0.340064
0.386562
0.412020
0.422151
0.414358
0.393316
0.362144
0.323179
0.271226
0.188100
0.085492
-0.012181
-0.101541
-0.195317
-0.295068
-0.387026
-0.464697
-0.526002
-0.569123
-0.599516
-0.618219
-0.624973
-0.621856
-0.607829
-0.584450
-0.577176
-0.588346
-0.602373
-0.616920
-0.627311
-0.635624
-0.641858
-0.650430
-0.656925
-0.653028
-0.634065
-0.600035
-0.569383
-0.542367
-0.510415
-0.471970
-0.426510
-0.372478
-0.310913
-0.255583
-0.209344
-0.168041
-0.125439
-0.079980
-0.030364
0.019512
0.060815
0.098481
0.128095
0.160566
0.196414
0.215117
0.218754
0.212000
0.199271
0.189400
0.194855
0.199271
0.192777
0.177191
0.146279
0.108872
0.051983
-0.023869
-0.109593
-0.213240
-0.331175
-0.456123
-0.579772
-0.707578
-0.827331
-0.932537
-1.034886
-1.126844
-1.213086
-1.291017
-1.358037
-1.421420
-1.487921
-1.555980
-1.617545
-1.674694
-1.717815
-1.747689
-1.775484
-1.793408
-1.795486
-1.783017
-1.745870
-1.680668
-1.602218
-1.503247
-1.388170
-1.280626
-1.176978
-1.064499
-0.944226
-0.818758
-0.697706
-0.591721
-0.492230
-0.400012
-0.315588
-0.225188
-0.136607
-0.065691
-0.008802
0.041334
0.086274
0.122641
0.141085
0.139786
0.130434
0.115887
0.092248
0.061856
0.018215
-0.034518
-0.090368
-0.150115
-0.211160
-0.273245
-0.336369
-0.413260
-0.503139
-0.596396
-0.693549
-0.794339
-0.903442
-1.017740
-1.134895
-1.254128
-1.371543
-1.490777
-1.607153
-1.720671
-1.830293
-1.923031
-2.002779
-2.072917
-2.132663
-2.176824
-2.198904
-2.195527
-2.160718
-2.097075
-2.010053
-1.900950
-1.772105
-1.624817
-1.453889
-1.265817
-1.073329
-0.879802
-0.691470
-0.498463
-0.304416
-0.117903
0.064454
0.235901
0.395399
0.542427
0.682702
0.824795
0.965330
1.098331
1.228994
1.358099
1.467981
1.564874
1.651896
1.718917
1.763597
1.790613
1.802562
1.781781
1.723593
1.643064
1.552925
1.456551
1.352644
1.239645
1.109242
0.971305
0.835966
0.696470
0.552559
0.413064
0.281621
0.146542
0.016658
-0.094523
-0.193235
-0.284673
-0.364422
-0.434299
-0.501579
-0.559247
-0.613279
-0.663934
-0.695885
-0.710173
-0.717706
-0.726278
-0.722122
-0.704977
-0.687832
-0.675363
-0.664973
-0.648607
-0.638736
-0.640035
-0.643412
-0.645490
-0.641334
-0.634839
-0.635359
-0.639515
-0.633541
-0.622890
-0.623929
-0.632501
-0.647828
-0.675363
-0.713549
-0.766022
-0.830964
-0.905258
-0.987344
-1.074626
-1.166064
-1.249450
-1.326601
-1.403233
-1.475708
-1.543767
-1.598318
-1.643258
-1.682743
-1.717552
-1.746126
-1.770284
-1.802236
-1.831849
-1.850553
-1.863281
-1.870295
-1.872633
-1.872373
-1.861722
-1.840941
-1.815744
-1.779376
-1.733397
-1.679106
-1.616242
-1.550780
-1.483760
-1.412843
-1.331536
-1.249969
-1.178273
-1.110733
-1.044232
-0.968120
-0.879799
-0.781087
-0.674323
-0.571195
-0.468327
-0.358965
-0.244407
-0.131668
-0.028799
0.074848
0.182132
0.276948
0.359294
0.439822
0.525545
0.607113
0.675172
0.746089
0.817785
0.875453
0.926627
0.974425
1.018585
1.063785
1.106647
1.137559
1.169770
1.209515
1.241726
1.264326
1.278094
1.283029
1.274457
1.253675
1.223023
1.171849
1.099893
1.008714
0.900391
0.788951
0.677510
0.559316
0.441381
0.334097
0.242659
0.158494
0.074589
-0.000743
-0.061010
-0.108547
-0.156604
-0.199206
-0.222585
-0.236872
-0.251160
-0.263369
-0.261810
-0.257913
-0.260251
-0.258433
-0.258693
-0.274019
-0.312724
-0.359223
-0.407020
-0.465208
-0.533267
-0.610418
-0.693544
-0.776929
-0.851223
-0.910710
-0.956169
-0.990459
-1.001888
-0.983964
-0.951753
-0.908372
-0.847326
-0.758745
-0.653020
-0.540021
-0.418969
-0.302593
-0.191412
-0.088284
0.008349
0.102126
0.188888
0.262403
0.321370
0.375142
0.421640
0.476451
0.548927
0.625558
0.705827
0.786355
0.866363
0.936241
0.986116
1.013911
1.028978
1.031056
1.016769
0.995728
0.968972
0.937280
0.893120
0.836230
0.768691
0.691540
0.605816
0.494116
0.370207
0.249675
0.125246
-0.009574
-0.157641
-0.295838
-0.425462
-0.565737
-0.717701
-0.877198
-1.032799
-1.174892
-1.304257
-1.426088
-1.536489
-1.617017
-1.668971
-1.691051
-1.673647
-1.632084
-1.554153
-1.445311
-1.316466
-1.162164
-1.005264
-0.844987
-0.680034
-0.501314
-0.304670
-0.116338
0.057447
0.233050
0.412550
0.574385
0.726350
0.873638
1.001704
1.113404
1.206401
1.284851
1.348754
1.390836
1.425125
1.445647
1.447985
1.435516
1.397850
1.344857
1.281474
1.209518
1.129770
1.040150
0.950270
0.854675
0.757262
0.667123
0.569710
0.461127
0.353843
0.243442
0.130702
0.022379
-0.079450
-0.163874
-0.251156
-0.359480
-0.467803
-0.559241
-0.641847
-0.738481
-0.841349
-0.935904
-1.025265
-1.109689
