EVENT_NAME: 202302060117
EVENT_ID: 13194
EVENT_DATE_YYYYMMDD: 2023/02/06
EVENT_TIME_HHMMSS: 01:17:32.00000
EVENT_LATITUDE_DEGREE: 37.288
EVENT_LONGITUDE_DEGREE: 37.043
EVENT_DEPTH_KM: 8.6
HYPOCENTER_REFERENCE: AFAD
MAGNITUDE_W: 7.7
MAGNITUDE_W_REFERENCE: AFAD
MAGNITUDE_L: 
MAGNITUDE_L_REFERENCE: 
FOCAL_MECHANISM: 
NETWORK: TK
STATION_CODE: 0217
STATION_NAME: 
STATION_LATITUDE_DEGREE: 38.029958
STATION_LONGITUDE_DEGREE: 38.556268
STATION_ELEVATION_M: 798.0
LOCATION: Kahramanmaras_Pazarck_Turkiye
SENSOR_DEPTH_M: 
VS30_M/S: None
SITE_CLASSIFICATION_EC8: unknown
MORPHOLOGIC_CLASSIFICATION: 
EPICENTRAL_DISTANCE_KM: 156.69
EARTHQUAKE_BACKAZIMUTH_DEGREE: 
DATE_TIME_FIRST_SAMPLE_YYYYMMDD_HHMMSS: 2023/02/06 01:17:39.0367100
DATE_TIME_FIRST_SAMPLE_PRECISION: millisecond
SAMPLING_INTERVAL_S: 0.01
NDATA: 4032
DURATION_S: 
STREAM: HNN
UNITS: cm/s^2
INSTRUMENT: sensor = ACEBOX/SARA | digitizer = 
INSTRUMENT_ANALOG/DIGITAL: 
INSTRUMENTAL_FREQUENCY_HZ: 
INSTRUMENTAL_DAMPING: 
FULL_SCALE_G: 
N_BIT_DIGITAL_CONVERTER: 
PGA_CM/S^2: 13.052
TIME_PGA_S: 
BASELINE_CORRECTION: BASELINE REMOVED
FILTER_TYPE: BUTTERWORTH
FILTER_ORDER: 
LOW_CUT_FREQUENCY_HZ: 
HIGH_CUT_FREQUENCY_HZ: 
LATE/NORMAL_TRIGGERED: 
DATABASE_VERSION: 
HEADER_FORMAT: DYNA 1.2
DATA_TYPE: Acceleration
PROCESSING: Automatic Paolucci et al., 2011
DATA_TIMESTAMP_YYYYMMDD_HHMMSS: 
DATA_LICENSE: U (unknown license)
DATA_CITATION: Turkish Accelerometric Archive v 1.0 - Disaster And Emergency Management Presidency, Earthquake Department
DATA_CREATOR: AFAD
ORIGINAL_DATA_MEDIATOR_CITATION: : AFAD - Disaster And Emergency Management Presidency
ORIGINAL_DATA_MEDIATOR: AFAD PROCESS SERVICE
ORIGINAL_DATA_CREATOR_CITATION: AFAD PROCESS SERVICE
ORIGINAL_DATA_CREATOR: network: TK
USER1: GuestUser
USER2: 
USER3: 
USER4: 
USER5: 
[...]
0.022951
0.027561
0.030301
0.036080
0.036482
0.032208
0.028869
0.027166
0.021255
0.008565
-0.003191
-0.015882
-0.025300
-0.037289
-0.057929
-0.066411
-0.062269
-0.057425
-0.053282
-0.050075
-0.044530
-0.038751
-0.027126
-0.013164
-0.008788
-0.005113
0.000666
0.010887
0.017602
0.006781
-0.007546
-0.021406
-0.037604
-0.052866
-0.072337
-0.083859
-0.087432
-0.096616
-0.101825
-0.101190
-0.103126
-0.105530
-0.103024
-0.098180
-0.102688
-0.108598
-0.108430
-0.106626
-0.097340
-0.082910
-0.079469
-0.091458
-0.094330
-0.074289
-0.057755
-0.056886
-0.064199
-0.063563
-0.054277
-0.059487
-0.060254
-0.051435
-0.057580
-0.057412
-0.054672
-0.059180
-0.051998
-0.038504
-0.019164
-0.014087
-0.024206
-0.016790
-0.025740
-0.058070
-0.076372
-0.082750
-0.076503
-0.067685
-0.062140
-0.056127
-0.063674
-0.067247
-0.072222
-0.102448
-0.112099
-0.082005
-0.050508
-0.035611
-0.029364
-0.019611
-0.003545
0.001767
-0.015132
-0.022446
-0.001470
0.022312
0.038612
0.033636
0.011126
0.003579
-0.007008
-0.032090
-0.045950
-0.046717
-0.050757
-0.063448
-0.073334
-0.082284
-0.078141
-0.042903
-0.016784
-0.011940
-0.001719
-0.002252
-0.014709
-0.015476
-0.013672
-0.016076
-0.001646
0.015823
0.003600
-0.013533
-0.019678
-0.027225
-0.028694
-0.036942
-0.055244
-0.066065
-0.082029
-0.096824
-0.095720
-0.104437
-0.121570
-0.114855
-0.105102
-0.113818
-0.113650
-0.094778
-0.074971
-0.066620
-0.066219
-0.063479
-0.061440
-0.054258
-0.034218
-0.003422
0.009605
-0.023193
-0.041729
-0.007426
0.002795
-0.030704
-0.043628
-0.025692
-0.028095
-0.057386
-0.060023
-0.031800
-0.016435
-0.030996
-0.040180
0.008618
0.074483
0.101070
0.120176
0.135073
0.106951
0.065503
0.077829
0.119379
0.116040
0.097037
0.091126
0.061134
0.036052
0.037155
0.014177
-0.034285
-0.078772
-0.124194
-0.160265
-0.179268
-0.198505
-0.211898
-0.235109
-0.271414
-0.281065
-0.290483
-0.311824
-0.311656
-0.327854
-0.361119
-0.380122
-0.410582
-0.430053
-0.417260
-0.410779
-0.416924
-0.412547
-0.389233
-0.356100
-0.327643
-0.295444
-0.241971
-0.203460
-0.227607
-0.259703
-0.251586
-0.268017
-0.327234
-0.385047
-0.425794
-0.444797
-0.445798
-0.418977
-0.368777
-0.333539
-0.291521
-0.216538
-0.131268
-0.034776
0.060080
0.116126
0.150194
0.228217
0.380587
0.531788
0.617993
0.678247
0.721902
0.717861
0.679453
0.600831
0.462124
0.280865
0.078097
-0.103629
-0.224335
-0.300618
-0.352119
-0.358264
-0.287723
-0.165747
-0.043536
0.068620
0.162074
0.231679
0.308299
0.389127
0.425300
0.396009
0.323934
0.220296
0.068028
-0.099904
-0.199567
-0.226754
-0.226586
-0.192517
-0.147694
-0.146824
-0.176816
-0.215692
-0.251295
-0.241542
-0.174975
-0.113085
-0.078782
-0.015255
0.042895
0.034646
0.005589
-0.030248
-0.069357
-0.051421
0.035018
0.141330
0.191063
0.157798
0.107232
0.082384
0.068290
0.096514
0.232051
0.420192
0.546376
0.596811
0.589731
0.520695
0.381286
0.201664
0.058748
-0.024549
-0.048930
-0.010887
0.058719
0.171577
0.284903
0.316166
0.335272
0.401604
0.461157
0.487510
0.480664
0.449737
0.401509
0.331772
0.270685
0.246538
0.242264
0.194737
0.070291
-0.114241
-0.346233
-0.567237
-0.724883
-0.821273
-0.855006
-0.832159
-0.721873
-0.532095
-0.336005
-0.119107
0.096622
0.230288
0.281892
0.280657
0.250431
0.196358
0.160522
0.177757
0.166703
0.107252
0.024189
-0.104933
-0.211377
-0.229211
-0.219925
-0.209236
-0.104327
0.085450
0.184982
0.185384
0.237689
0.349144
0.418984
0.403020
0.337023
0.253960
0.165285
0.100223
0.066958
0.052865
0.054903
0.124976
0.290907
0.418728
0.420065
0.371837
0.321972
0.276316
0.224581
0.150869
0.081366
0.043191
0.044294
0.051476
0.038551
0.043395
0.056188
0.037653
-0.008238
-0.013681
0.113907
0.298073
0.418413
0.473056
0.426464
0.297343
0.178274
0.092872
0.072934
0.119861
0.218692
0.373867
0.487193
0.492505
0.412714
0.257407
0.101632
-0.028191
-0.169938
-0.195020
-0.019504
0.218435
0.434632
0.625579
0.758544
0.845918
0.887936
0.839941
0.714794
0.547797
0.368409
0.232741
0.143598
0.082745
0.113774
0.222424
0.292497
0.349011
0.452751
0.540593
0.610432
0.713939
0.810899
0.821120
0.693401
0.509571
0.398217
0.335260
0.264120
0.233193
0.330621
0.533958
0.702694
0.788900
0.812681
0.771701
0.684896
0.576816
0.509417
0.472177
0.365500
0.203880
0.052781
-0.105565
-0.291032
-0.415478
-0.452484
-0.501647
-0.463838
-0.206727
0.162841
0.551580
0.896365
1.103444
1.185441
1.188181
1.089453
0.889022
0.669655
0.448651
0.170834
-0.135740
-0.391346
-0.601830
-0.869593
-1.218251
-1.547270
-1.823216
-2.008216
-1.979758
-1.675654
-1.123490
-0.465183
0.108022
0.497463
0.622712
0.466937
0.120150
-0.381644
-0.914067
-1.237942
-1.309082
-1.274078
-1.319267
-1.469664
-1.583589
-1.727440
-1.966213
-2.131340
-2.150343
-1.984413
-1.650616
-1.310974
-0.949590
-0.533263
-0.182866
0.005275
-0.021444
-0.147526
-0.152736
0.064162
0.456175
0.877411
1.249317
1.465981
1.376137
1.085228
0.749897
0.411526
0.141425
-0.037964
-0.112143
-0.077841
-0.028575
-0.042903
-0.108666
-0.202250
-0.407356
-0.693824
-0.832064
-0.717803
-0.379330
0.031854
0.289900
0.380548
0.376507
0.281987
0.132993
0.044552
0.025782
-0.066400
-0.185001
-0.283028
-0.517592
-0.913009
-1.387917
-1.756681
-1.825016
-1.671477
-1.470711
-1.348033
-1.327057
-1.358452
-1.392418
-1.359986
-1.334100
-1.346557
-1.304540
-1.263691
-1.245053
-1.199528
-1.168265
-1.175345
-1.223339
-1.327211
-1.574634
-2.046035
-2.570742
-2.863990
-2.807477
-2.471342
-1.910528
-1.025671
0.031494
0.736795
0.956966
0.990099
0.920362
0.775342
0.735297
0.870132
1.177276
1.680809
2.232739
2.533804
2.457053
2.033814
1.367192
0.726288
0.276396
-0.032516
-0.181043
0.051754
0.804749
1.677214
2.216051
2.562473
2.928768
3.185411
3.217376
3.230636
3.303048
3.157560
2.813812
2.439905
2.013393
1.659358
1.397439
1.159601
1.098515
1.206229
1.269756
1.173834
0.906771
0.424148
-0.271231
-0.890392
-1.101343
-0.955519
-0.750311
-0.517748
-0.119190
0.205021
0.146272
-0.186721
-0.584008
-0.921677
-1.039577
-0.791584
-0.271450
0.233720
0.607729
0.732044
0.389699
-0.241853
-0.851662
-1.402321
-1.815974
-2.041888
-2.214730
-2.345956
-2.317031
-2.105744
-1.882300
-1.844958
-1.798965
-1.508421
-1.176027
-0.830541
-0.340100
0.086514
0.322350
0.360861
0.126998
-0.324297
-0.896932
-1.328120
-1.277452
-0.786777
-0.154421
0.436552
0.961128
1.319941
1.489845
1.574180
1.542786
1.641616
2.122939
2.652424
2.862074
2.619561
2.035703
1.286083
0.350595
-0.445317
-0.664451
-0.434226
-0.095052
0.273814
0.739005
0.920132
0.412492
-0.338296
-0.842195
-1.167239
-1.390348
-1.482530
-1.511586
-1.659646
-1.922500
-2.074767
-2.011007
-1.692640
-1.245218
-0.921241
-0.667169
-0.299940
0.267654
0.920117
1.241990
1.088319
0.761872
0.407604
-0.275851
-1.426667
-2.449830
-3.033921
-3.509531
-3.758123
-3.575359
-3.122092
-2.536963
-2.067798
-1.895789
-1.887204
-1.620508
-1.004284
-0.754888
-0.909961
-0.707325
-0.323729
-0.316314
-0.505288
-0.416744
-0.163140
-0.256491
-0.613331
-1.165159
-2.051784
-2.738044
-3.015160
-3.162518
-2.853270
-1.808496
-0.424248
0.802654
1.856547
2.957198
3.806986
3.966136
3.718245
3.478069
3.193706
2.945348
2.802198
2.512457
2.056954
1.821221
2.325690
3.207273
3.288335
2.603477
2.133011
2.067950
1.951687
1.516524
0.878192
0.048146
-0.874718
-1.390306
-1.307608
-0.704009
0.362040
1.536105
2.357836
2.747744
3.014909
3.185983
2.998879
2.626608
2.340842
1.999198
1.431473
0.609610
-0.420567
-1.392762
-1.941316
-1.884101
-1.336146
-0.665448
0.026292
1.008409
2.155119
2.971005
3.062588
2.064909
0.219248
-1.340246
-1.992840
-2.205661
-2.418248
-2.700274
-3.080494
-3.497186
-3.839064
-4.062172
-4.112972
-3.828273
-2.952066
-1.427774
0.281452
1.576389
2.320500
2.473338
1.898365
0.889230
-0.096759
-0.817154
-0.923130
-0.181825
0.906202
1.470055
1.267287
0.654906
-0.154098
-1.110395
-1.939973
-2.165419
-1.492383
-0.100420
1.310481
2.132680
2.559762
2.480439
1.263225
-0.404517
-1.470698
-2.016213
-2.259428
-2.445363
-2.636441
-2.393124
-1.851949
-1.438895
-1.040336
-0.499162
-0.183367
-0.510515
-0.962278
-0.891035
-0.653563
-0.769358
-1.206157
-1.509458
-1.254919
-0.715381
-0.401457
-0.470493
-0.880873
-1.337311
-1.743716
-2.180983
-2.218690
-1.979347
-2.183752
-2.521187
-2.284884
-1.827876
-2.045607
-2.651442
-2.744091
-2.772680
-3.183995
-3.400324
-3.115624
-2.563227
-2.186879
-1.762136
-0.827480
0.037270
0.277548
0.142581
0.338905
0.967754
1.124099
0.774506
0.535032
0.354007
-0.026681
-0.847375
-1.803672
-2.436159
-2.821990
-2.913704
-2.664542
-1.993844
-0.955382
-0.215480
-0.089295
-0.379035
-0.708522
-0.712562
-0.481402
-0.180571
0.039600
0.248549
0.693867
1.022053
0.874461
0.321698
-0.350067
-0.727949
-0.852629
-0.993207
-1.122329
-0.905431
-0.237538
0.275114
0.186907
-0.225110
-0.331320
0.148367
0.943913
2.037317
3.232890
3.933281
3.968519
3.503664
2.924482
2.529767
2.483877
2.909790
3.368434
3.543015
3.590176
3.430427
2.683145
1.344590
0.125037
-0.717400
-1.232755
-1.090672
-0.455277
0.431918
1.224425
1.316241
0.820993
0.021808
-0.521369
-0.339774
-0.190209
-0.381755
-0.235230
0.597958
1.748408
2.642851
3.345346
3.496079
2.437379
1.096954
0.387079
-0.026340
-0.289661
-0.288324
-0.161204
-0.118719
-0.069220
0.089696
-0.073326
-0.624686
-1.273539
-2.108962
-2.636241
-2.270180
-1.384388
-0.490413
-0.205480
-0.832824
-1.614007
-1.978328
-2.027959
-1.911828
-1.573589
-0.755131
0.250132
0.878513
1.235222
1.151691
0.064234
-1.627121
-3.070652
-3.687475
-3.248703
-2.722023
-2.634415
-1.899656
-0.607057
0.188022
0.533742
0.676526
0.760394
0.789787
0.287524
-0.651939
-1.354332
-1.751853
-2.131839
-2.299304
-2.253545
-2.226491
-1.719684
-0.712317
-0.040917
0.264590
0.522402
0.679448
0.892839
1.130779
1.010542
0.637803
0.491848
0.528488
0.288546
-0.120898
-0.208171
-0.170127
-0.441866
-1.003512
-1.946249
-3.119743
-3.824006
-3.853530
-3.581456
-3.352635
-3.165195
-2.775287
-2.272922
-1.771727
-1.346515
-1.379313
-1.814008
-2.222517
-2.350236
-2.167239
-2.224117
-2.726380
-2.866490
-2.338408
-1.649239
-0.731417
0.751259
2.150938
2.770201
2.898256
2.576719
1.477806
0.079165
-0.929502
-1.353442
-1.178160
-0.655455
-0.172963
0.164340
0.355754
0.411800
0.160870
-0.668241
-1.694911
-2.437750
-2.781031
-2.497734
-1.964041
-1.728439
-1.442103
-0.837102
-0.133204
0.369161
0.465419
0.327179
0.204604
0.276080
0.548856
0.763416
0.724773
0.478519
0.438006
0.681324
0.821536
1.127745
1.756827
2.156789
2.261932
2.299975
2.082478
1.554498
1.057846
0.682302
0.286184
0.019122
-0.152785
-0.497936
-0.917434
-1.189172
-1.216124
-0.874846
-0.033709
0.924560
1.098907
0.449586
0.013956
0.237166
0.545713
0.746479
1.338388
2.204541
2.573641
2.152974
1.448243
1.207133
1.413042
1.516315
1.498480
1.559202
1.739160
2.026665
2.267878
2.438484
2.391893
1.924466
1.519463
1.488536
1.566091
1.631255
1.350632
0.834108
0.764839
0.875359
0.699010
0.245845
-0.625349
-1.595674
-2.137448
-2.206718
-1.772622
-1.018224
-0.654735
-0.845579
-0.641540
0.471503
1.396105
1.163879
0.824106
1.513742
2.360490
2.395026
1.940926
1.526338
1.296449
1.225309
1.243947
0.990211
0.435111
0.022860
-0.558893
-1.478717
-2.092267
-2.304153
-2.396569
-2.386348
-2.138121
-1.503193
-0.602672
0.237530
0.617151
0.221967
-0.749760
-1.678936
-2.219541
-2.548326
-2.986528
-3.621119
-4.164530
-4.310485
-4.165129
-3.921812
-3.321486
-2.171737
-1.176762
-0.909363
-0.875295
-0.563709
-0.017157
0.348203
0.157124
-0.425330
-1.069040
-1.373276
-1.286135
-1.518829
-2.286919
-3.202535
-4.041933
-4.338220
-3.823230
-2.968066
-2.320981
-1.928501
-1.379845
-0.595988
0.145317
1.066179
2.255440
3.407761
4.541845
5.379241
5.557563
5.233454
4.317838
2.914521
1.635351
0.671339
-0.133925
-0.616314
-0.445942
0.146902
1.064257
2.463000
3.336868
2.924852
2.041266
1.738199
2.174867
2.448577
2.491297
2.998103
3.028899
1.617866
-0.550669
-2.519542
-3.906493
-4.524952
-4.264334
-3.736018
-3.150889
-2.097932
-1.002892
0.202501
1.631872
2.581257
3.770518
5.656261
6.715063
6.483304
6.086952
5.734320
4.668606
2.561325
-0.435320
-3.173386
-4.447413
-5.209891
-6.157771
-6.122767
-5.232533
-5.241016
-6.264646
-6.502717
-5.438538
-3.735391
-1.465051
0.754087
1.978417
2.051062
1.826083
2.524838
3.866067
4.711880
4.494616
3.535514
2.642109
1.837780
1.280108
1.309501
1.610098
2.106150
2.384303
2.326256
2.440049
2.022889
0.514130
-1.600165
-3.920435
-5.744119
-6.197518
-5.176825
-3.763352
-3.054779
-2.553115
-1.544580
-0.451877
0.426199
1.205614
1.672441
2.008576
3.353779
6.001234
8.545584
10.253173
11.556761
12.032005
10.685267
7.612871
3.804014
-0.149797
-3.953511
-7.325634
-9.989352
-10.842077
-9.743763
-8.632123
-8.171608
-7.192531
-5.155287
-2.487960
0.323854
3.121640
5.412787
6.468784
6.394371
5.957805
5.585067
5.117874
4.811767
5.264333
5.698429
4.787021
2.978534
1.436809
0.203229
-0.926312
-1.576802
-1.632043
-1.337759
-0.252771
1.838480
3.780801
4.204610
2.347960
-0.922929
-3.906482
-6.418232
-8.335201
-9.272794
-9.270756
-7.778961
-4.912906
-0.930002
3.493143
6.144572
7.706973
10.432282
12.828872
13.051849
11.720775
9.506415
6.438228
2.740892
-0.853573
-3.203768
-3.840698
-3.994135
-4.338116
-3.609202
-1.737253
-0.264163
-0.187309
-1.087494
-1.242801
-0.684559
-0.710109
-0.532723
0.318233
0.935159
0.821467
0.242286
0.349065
1.133623
1.986450
3.615717
5.897279
7.895478
8.871049
8.411805
7.190850
5.334200
2.248945
-2.053458
-6.942926
-10.650315
-11.961516
-11.553839
-10.511870
-9.724273
-8.558626
-5.976401
-3.643404
-2.648428
-1.333618
1.097340
3.953809
6.224149
7.011512
6.436539
5.438860
4.925375
5.008542
5.321764
5.632181
6.205386
7.632886
8.953775
8.825589
7.213491
4.365540
1.775468
0.466606
-0.490159
-0.979328
-0.476029
0.157029
-0.516373
-2.153955
-2.829461
-2.935203
-3.634089
-4.679229
-5.340006
-4.031742
-0.890975
2.083795
3.876019
4.165395
3.117449
1.553514
0.878709
1.046510
0.843040
0.907736
1.546639
2.513792
3.672659
4.063035
4.239954
3.935250
2.299539
1.029252
0.311663
0.014441
1.234796
2.271388
1.152836
-1.284566
-3.479989
-5.364460
-7.121980
-7.363091
-5.760476
-3.283694
-0.510924
1.473014
2.547714
3.610724
4.352263
3.847897
2.194884
1.063240
1.171188
1.456121
2.282997
3.924889
4.420707
3.605390
3.164149
2.445391
0.917927
0.145395
0.368372
1.149657
2.476157
3.841934
4.981864
5.493347
5.642911
5.588371
4.367883
2.678632
1.324880
0.479637
0.381610
0.125069
0.373062
1.279662
1.297365
0.850746
0.310141
0.116024
0.190072
-0.448494
-0.750159
-1.470320
-3.007135
-3.018891
-2.184768
-0.995040
1.176404
3.256198
5.066892
5.943099
5.713678
5.411780
4.061067
1.721392
-0.545572
-3.724112
-7.208926
-8.959432
-9.336145
-8.888489
-7.631193
-6.991589
-7.011995
-6.542363
-6.081146
-5.618995
-4.754712
-3.644475
-1.527506
0.626402
0.837221
0.328880
-0.039650
-1.645202
-3.802982
-4.217337
-2.094991
1.368883
4.555007
6.763858
7.785252
7.773964
6.133810
2.360257
-1.170849
-2.464749
-2.382284
-1.678387
0.246167
3.243616
4.633475
3.102504
0.745528
-1.182430
-2.224296
-1.526477
0.293803
2.032721
4.048221
6.629745
7.970506
7.223692
5.466172
3.243864
1.005890
-0.889570
-1.989184
-1.761765
-0.601028
0.877908
1.703848
1.832371
2.262258
2.215433
0.512388
-1.902804
-3.470948
-5.120219
-7.685041
-9.483943
-10.769426
-11.633139
-10.950517
-10.367960
-9.460425
-6.859028
-4.674025
-3.723237
-3.377985
-2.913495
-1.694776
-1.312583
-2.143798
-1.919185
-0.155016
1.799697
3.855878
6.014930
6.408579
4.227418
1.248308
-1.063779
-2.705803
-3.559229
-3.279907
-3.275998
-4.609176
-5.485514
-5.204789
-4.579915
-3.479965
-2.458804
-1.501938
-0.047083
1.170233
1.968352
1.780313
0.678127
0.063642
-0.821113
-1.126518
1.406376
5.091656
7.364100
7.067579
5.000278
2.572461
-0.987869
-5.130589
-8.195503
-10.026201
-10.236451
-8.669373
-6.345962
-5.181717
-5.575264
-5.741326
-5.971214
-7.474129
-8.851962
-8.627115
-7.565040
-6.534293
-5.090427
-3.930859
-3.855174
-3.414766
-2.377473
-2.227909
-3.131601
-4.182118
-4.158570
-2.785311
-1.604700
-1.587699
-1.867854
-1.699352
-1.584623
-2.143464
-2.598967
-1.588094
0.395377
1.879923
2.422033
2.158478
1.718172
1.496700
1.011038
0.035336
-1.387153
-2.783923
-3.225398
-2.513551
-1.108496
0.327421
1.536088
2.650533
3.039272
2.427827
2.081040
2.438917
2.090961
1.099829
1.159615
1.635327
0.913763
-0.614168
-2.106796
-3.032932
-3.041181
-2.146972
-0.819771
-0.108626
0.415014
1.502340
1.840812
1.178399
0.363082
-0.696085
-1.620118
-2.034706
-1.980297
-1.505287
-0.927172
-0.280087
-0.300493
-1.920540
-4.151032
-5.539386
-5.266143
-3.080438
-0.368455
1.892298
4.376328
6.450278
6.879230
5.708074
3.176452
0.072961
-2.841388
-5.370672
-6.772119
-6.730569
-5.568195
-3.618859
-1.543506
-0.212798
-0.053180
-0.377523
-0.784396
-1.222364
-1.201622
-1.292401
-1.396039
-0.477983
0.801056
1.197510
-0.269399
-3.046743
-5.416812
-7.663435
-9.679769
-9.965301
-8.309614
-5.545261
-3.529995
-3.204381
-3.577353
-4.133389
-4.162446
-3.803399
-4.418585
-4.825692
-3.761513
-2.363237
-1.259546
-0.833399
-1.195383
-1.657433
-2.732732
-4.287316
-4.633168
-3.804890
-2.178428
0.914176
4.037876
5.205160
5.152022
4.757073
3.452652
1.387455
-0.146555
-0.515319
-0.730712
-1.252379
-1.331235
-1.618404
-2.543371
-3.300940
-4.246950
-4.982074
-4.360473
-2.979966
-1.660013
-0.891587
-0.540021
-0.106861
-0.810189
-2.731601
-3.467894
-2.996624
-3.292678
-4.137453
-4.414568
-4.285110
-4.359991
-4.645991
-4.426521
-3.814272
-3.549446
-3.329508
-3.054395
-2.513687
-0.546583
2.274583
3.650180
2.980519
1.882541
1.429610
1.603723
2.156354
2.348236
2.579396
3.415623
3.402698
2.075365
0.402948
-1.179224
-2.230443
-2.693427
-2.733706
-2.325094
-1.856864
-1.740966
-2.413667
-4.135883
-5.962373
-6.635074
-6.417474
-5.845438
-4.089453
-1.385887
0.395115
0.728444
0.184098
-0.933986
-2.376815
-3.914565
-4.709074
-3.987174
-2.442541
-1.027900
0.456647
2.484773
4.129471
4.269683
3.885722
3.652794
2.508992
0.967034
0.443028
0.383578
0.313607
0.805918
1.071446
0.115149
-0.851668
-0.665164
-0.184542
-0.045733
0.222601
0.355098
-0.064634
-0.305277
0.137469
0.849316
1.090529
1.082280
2.430757
4.299199
3.978597
2.601699
2.278292
2.063600
1.560637
1.725632
2.606748
3.453730
3.660574
3.696046
4.385916
5.259083
5.359783
4.800475
4.094341
3.474479
3.313327
3.742045
4.160710
3.649096
2.403826
1.370142
0.108039
-1.442103
-2.336443
-3.168126
-4.241555
-4.727451
-4.940506
-5.491165
-5.988050
-5.610065
-3.835376
-0.826705
1.955183
2.837001
2.934194
3.948575
4.791816
5.136835
6.058866
6.171022
4.148143
1.688296
-0.067354
-1.688102
-2.748205
-2.798537
-2.592627
-2.569313
-2.492226
-1.554765
0.082686
0.845266
1.133239
1.668335
1.414365
