EVENT_NAME: 202302060117
EVENT_ID: 13194
EVENT_DATE_YYYYMMDD: 2023/02/06
EVENT_TIME_HHMMSS: 01:17:32.00000
EVENT_LATITUDE_DEGREE: 37.288
EVENT_LONGITUDE_DEGREE: 37.043
EVENT_DEPTH_KM: 8.6
HYPOCENTER_REFERENCE: AFAD
MAGNITUDE_W: 7.7
MAGNITUDE_W_REFERENCE: AFAD
MAGNITUDE_L: 
MAGNITUDE_L_REFERENCE: 
FOCAL_MECHANISM: 
NETWORK: TK
STATION_CODE: 3801
STATION_NAME: 
STATION_LATITUDE_DEGREE: 38.68963
STATION_LONGITUDE_DEGREE: 35.49986
STATION_ELEVATION_M: 1096.0
LOCATION: Kahramanmaras_Pazarck_Turkiye
SENSOR_DEPTH_M: 
VS30_M/S: 407
SITE_CLASSIFICATION_EC8: B
MORPHOLOGIC_CLASSIFICATION: 
EPICENTRAL_DISTANCE_KM: 206.34
EARTHQUAKE_BACKAZIMUTH_DEGREE: 
DATE_TIME_FIRST_SAMPLE_YYYYMMDD_HHMMSS: 2023/02/06 01:17:47.5812080
DATE_TIME_FIRST_SAMPLE_PRECISION: millisecond
SAMPLING_INTERVAL_S: 0.01
NDATA: 14501
DURATION_S: 
STREAM: HNZ
UNITS: cm/s^2
INSTRUMENT: sensor = CMG-5T/GURALP | digitizer = 
INSTRUMENT_ANALOG/DIGITAL: 
INSTRUMENTAL_FREQUENCY_HZ: 
INSTRUMENTAL_DAMPING: 
FULL_SCALE_G: 
N_BIT_DIGITAL_CONVERTER: 
PGA_CM/S^2: 13.754
TIME_PGA_S: 
BASELINE_CORRECTION: BASELINE REMOVED
FILTER_TYPE: BUTTERWORTH
FILTER_ORDER: 
LOW_CUT_FREQUENCY_HZ: 
HIGH_CUT_FREQUENCY_HZ: 
LATE/NORMAL_TRIGGERED: 
DATABASE_VERSION: 
HEADER_FORMAT: DYNA 1.2
DATA_TYPE: Acceleration
PROCESSING: Automatic Paolucci et al., 2011
DATA_TIMESTAMP_YYYYMMDD_HHMMSS: 
DATA_LICENSE: U (unknown license)
DATA_CITATION: Turkish Accelerometric Archive v 1.0 - Disaster And Emergency Management Presidency, Earthquake Department
DATA_CREATOR: AFAD
ORIGINAL_DATA_MEDIATOR_CITATION: : AFAD - Disaster And Emergency Management Presidency
ORIGINAL_DATA_MEDIATOR: AFAD PROCESS SERVICE
ORIGINAL_DATA_CREATOR_CITATION: AFAD PROCESS SERVICE
ORIGINAL_DATA_CREATOR: network: TK
USER1: GuestUser
USER2: 
USER3: 
USER4: 
USER5: 
[...]
0.043351
-0.098680
-0.112193
-0.053750
-0.083603
-0.283765
-0.592018
-0.870420
-0.973801
-0.922899
-0.764220
-0.507817
-0.242617
0.035781
0.202002
0.163979
-0.018271
-0.291960
-0.526371
-0.645149
-0.583250
-0.406660
-0.254579
-0.209333
-0.321826
-0.590173
-0.826156
-0.904713
-0.750747
-0.418617
-0.080517
0.260411
0.482249
0.674864
0.897331
1.194268
1.539595
1.788456
1.915714
1.906599
1.863549
1.836524
1.783732
1.615307
1.230070
0.684265
0.167997
-0.132714
-0.095953
0.146938
0.468384
0.699963
0.748037
0.664452
0.489743
0.271985
0.057999
-0.069892
-0.204695
-0.405799
-0.679173
-0.954119
-1.174391
-1.312022
-1.353187
-1.337478
-1.366703
-1.492707
-1.662389
-1.884232
-2.147237
-2.480314
-2.881577
-3.342227
-3.781511
-4.076567
-4.182462
-4.201631
-4.243111
-4.315069
-4.356235
-4.294649
-4.064956
-3.649871
-3.176342
-2.762200
-2.508312
-2.420646
-2.452385
-2.542254
-2.655376
-2.734248
-2.685860
-2.514297
-2.289317
-2.044855
-1.798507
-1.593323
-1.444384
-1.380599
-1.445645
-1.604015
-1.740389
-1.747618
-1.543063
-1.072675
-0.387361
0.375567
0.978241
1.280520
1.355616
1.252864
0.930785
0.391579
-0.262318
-0.954235
-1.522664
-1.849142
-1.864227
-1.510102
-0.820074
0.115675
1.135321
2.044990
2.643580
2.829596
2.623779
2.093372
1.380401
0.670887
0.084548
-0.278380
-0.393701
-0.305407
-0.162753
-0.145787
-0.292530
-0.558364
-0.893326
-1.203150
-1.488780
-1.767810
-2.069779
-2.450932
-2.941434
-3.530287
-4.095573
-4.455044
-4.534859
-4.430854
-4.242323
-4.045308
-3.795504
-3.496368
-3.102965
-2.698878
-2.323386
-1.952921
-1.647186
-1.311914
-1.027232
-0.768944
-0.506571
-0.267765
0.004034
0.356274
0.787384
1.235147
1.632006
1.872384
1.929256
1.906315
1.836870
1.698296
1.544954
1.361447
1.091214
0.852090
0.646901
0.425373
0.303139
0.300623
0.485697
0.836051
1.242338
1.546816
1.694812
1.551211
1.105957
0.378218
-0.600898
-1.553619
-2.337603
-2.697703
-2.591499
-2.049155
-1.198245
-0.253698
0.530282
1.096821
1.482054
1.552437
1.413549
1.088957
0.668212
0.212903
-0.126772
-0.310594
-0.368413
-0.348933
-0.410523
-0.464885
-0.688299
-1.071337
-1.731832
-2.527128
-3.400980
-4.282373
-4.935327
-5.398806
-5.642015
-5.652073
-5.580747
-5.509420
-5.501253
-5.679733
-5.932055
-6.391448
-6.761917
-7.164437
-7.404190
-7.451640
-7.365545
-7.090604
-6.660123
-6.237497
-5.776222
-5.317147
-4.826964
-4.514316
-4.208581
-4.111174
-4.120603
-3.522642
-3.363648
-2.968674
-2.439213
-2.165214
-1.784066
-1.330333
-1.270633
-0.839523
-0.347769
0.486801
0.790337
0.943989
1.309112
1.781070
1.852710
0.511926
1.083178
1.286791
1.231486
1.062433
1.382937
2.480824
2.957495
3.374151
3.435736
3.110515
2.694169
2.267769
1.468388
1.088178
0.639782
0.476384
0.557137
0.859730
1.505138
2.124152
2.342848
2.482046
2.421085
2.289110
2.028933
1.905127
2.034584
2.091142
2.018555
1.923029
2.067569
2.145494
2.478880
2.702918
2.951151
3.124913
3.230803
3.233315
3.090971
2.937628
2.718300
2.414446
2.015697
1.488745
0.999815
0.635630
0.367283
0.399331
0.652906
1.024313
1.453223
1.852596
2.043955
2.121880
2.064689
1.830906
1.531766
1.259019
1.007326
0.871894
0.856495
0.931278
1.235756
1.759247
2.415025
3.222571
4.095476
4.849291
5.443795
5.765242
5.757384
5.448817
4.936005
4.395228
3.936149
3.642664
3.540540
3.662141
3.958450
4.385789
4.946986
5.530493
6.086348
6.563648
6.842046
6.827590
6.492628
5.914144
5.122618
4.266049
3.443729
2.758410
2.304044
2.037582
2.041351
2.209457
2.449834
2.676700
2.792645
2.702462
2.419346
1.962780
1.374556
0.758994
0.192137
-0.165764
-0.270087
0.004226
0.579877
1.250423
1.855926
2.195911
2.197166
1.944215
1.491106
0.955357
0.461399
0.091872
-0.156679
-0.341129
-0.493529
-0.666667
-0.778532
-0.840121
-0.862119
-0.815616
-0.723866
-0.579955
-0.385140
-0.262595
-0.204152
-0.245632
-0.348070
-0.426942
-0.464651
-0.306285
0.047212
0.545565
1.153581
1.726404
2.155000
2.373067
2.289797
2.051929
1.681460
1.239977
0.863852
0.528261
0.254572
0.040271
-0.198225
-0.395558
-0.468774
-0.429184
-0.254479
-0.045839
0.145834
0.262722
0.222814
-0.053389
-0.596679
-1.412400
-2.346897
-3.222319
-3.905753
-4.247628
-4.228777
-3.887535
-3.305913
-2.594832
-1.848245
-1.102914
-0.470702
-0.025139
0.191043
0.143280
-0.125696
-0.471970
-0.800648
-1.082192
-1.261615
-1.375051
-1.420929
-1.304670
-1.006161
-0.603960
-0.218727
0.069726
0.185357
0.130052
0.042068
-0.062570
-0.174435
-0.354800
-0.710815
-1.164238
-1.555446
-1.658513
-1.284592
-0.492442
0.477871
1.362717
1.970733
2.151722
1.915111
1.346997
0.610460
0.027577
-0.267793
-0.270937
-0.087434
0.246895
0.514295
0.490098
0.072810
-0.718401
-1.662639
-2.703656
-3.454647
-3.838942
-3.752219
-3.247582
-2.597774
-1.913717
-1.436731
-1.047098
-0.846627
-0.761476
-0.730056
-1.032967
-1.299115
-1.533212
-1.714205
-1.484512
-1.113419
-0.493148
-0.084348
0.188080
0.255321
0.041648
-0.329135
-0.686721
-0.868343
-1.457196
-1.696321
-1.834580
-1.906225
-1.917225
-1.993583
-1.844644
-1.763263
-1.701678
-1.696024
-1.634438
-1.575053
-1.539234
-1.598309
-1.648587
-1.736885
-1.925420
-2.071221
-2.297148
-2.622055
-2.993467
-3.276897
-3.412014
-3.290413
-2.935031
-2.546341
-2.205099
-2.049247
-2.039508
-2.097327
-2.156403
-2.118070
-1.914143
-1.634802
-1.377771
-1.243601
-1.296392
-1.538031
-2.022248
-2.611101
-3.133653
-3.531774
-3.654008
-3.482759
-3.114808
-2.568065
-1.905375
-1.096885
-0.181875
0.766129
1.548223
2.016725
2.115074
1.810592
1.200372
0.594237
0.179462
0.143011
0.467285
1.008686
1.561085
1.987481
2.238542
2.281902
2.065402
1.721641
1.378195
1.137185
1.227993
1.607885
2.235697
2.891789
3.376316
3.476865
3.391394
3.087540
2.904033
2.840558
3.210080
3.810869
4.648895
5.406795
5.814024
5.829104
5.351171
4.591696
3.553821
2.408796
1.190244
0.079783
-0.923213
-1.480644
-1.933125
-1.387325
-1.368160
-1.669814
-1.718206
-2.191740
-2.928906
-3.611082
-4.340392
-4.895938
-5.625247
-5.801528
-6.210646
-6.285119
-6.545296
-6.821813
-7.301317
-8.253096
-6.329749
-8.715948
-8.716579
-7.286559
-7.430789
-6.106034
-5.745624
-4.316862
-3.795257
-3.145763
-2.426513
-2.167597
-1.833582
-2.027458
-2.638621
-2.364308
-3.149549
-3.393073
-3.302265
-3.229054
-2.853247
-2.412711
-1.753791
-1.210190
-0.391646
0.197831
0.810247
1.186682
1.314882
1.084870
0.798298
0.156970
-0.462991
-1.171248
-1.651381
-2.054214
-2.356183
-2.530893
-2.520840
-2.157916
-1.597347
-0.794200
0.050739
0.710288
1.261116
1.558995
1.483580
1.105884
0.619781
0.370602
-0.052343
-0.179290
0.125188
0.379391
0.566351
0.979235
1.571855
2.216949
2.736040
3.269272
3.799361
4.196849
4.603135
4.940292
5.062522
4.883100
4.590872
4.436901
4.356773
4.240509
4.151268
4.032490
3.820388
3.500823
3.082278
2.562868
2.126727
1.917453
1.978410
2.192707
2.466077
2.649580
2.640780
2.456958
2.105971
1.667316
1.178071
0.675000
0.108143
-0.566178
-1.278835
-1.834694
-2.135092
-2.223705
-2.076651
-1.691418
-1.084030
-0.313247
0.536719
1.356835
2.028952
2.517250
2.792191
2.888969
2.805384
2.616849
2.445597
2.352271
2.408828
2.684084
3.097597
3.616375
4.137037
4.496504
4.667124
4.603335
4.301995
3.754619
3.022481
2.257350
1.533382
0.945157
0.580659
0.379869
0.350016
0.366039
0.392746
0.370434
0.273023
0.171841
-0.007895
-0.246706
-0.521023
-0.874210
-1.196289
-1.383567
-1.381998
-1.161103
-0.827716
-0.508155
-0.321824
-0.290090
-0.423950
-0.616884
-0.751059
-0.673134
-0.406048
-0.033384
0.321056
0.491990
0.410919
0.063074
-0.455708
-1.069699
-1.627758
-2.021165
-2.190218
-2.155342
-2.036883
-1.905540
-1.840184
-1.882292
-2.070199
-2.375624
-2.738238
-3.153012
-3.360086
-3.287189
-2.897242
-2.257176
-1.566519
-0.930223
-0.497543
-0.351432
-0.509173
-0.914521
-1.465981
-2.039437
-2.564189
-2.865844
-2.899153
-2.601902
-2.006455
-1.230016
-0.380992
0.329774
0.803304
1.019800
0.982091
0.834091
0.732910
0.694258
0.694256
0.647749
0.646490
0.752695
1.029522
1.454347
1.947986
2.554746
3.220893
3.880755
4.424984
4.698355
4.656247
4.313115
3.794019
3.278694
2.846324
2.636422
2.564463
2.575144
2.602165
2.503183
2.280084
1.852112
1.297509
0.683833
0.061672
-0.456481
-0.894193
-1.264348
-1.572601
-1.770563
-1.869859
-1.887458
-1.821159
-1.693902
-1.475834
-1.166957
-0.749359
-0.272687
0.165964
0.498094
0.722131
0.850017
0.950252
0.968160
0.905942
0.686299
0.240103
-0.315757
-0.866589
-1.183641
-1.134624
-0.697230
-0.037367
0.649518
1.232711
1.660364
1.944104
2.164999
2.366727
2.558400
2.815431
3.268536
3.940967
4.743801
5.549148
6.123542
6.332497
6.105313
5.458015
4.603645
3.835686
3.363095
3.310304
3.638663
4.240395
5.018090
5.808355
6.552429
7.199723
7.702160
8.057543
8.178201
8.102158
7.892570
7.627051
7.381642
7.202219
7.062388
6.887051
6.598593
6.119090
5.513269
4.799041
3.995889
3.129265
2.226819
1.431837
0.762857
0.268585
-0.014530
-0.200552
-0.275967
-0.320274
-0.376522
-0.382180
-0.347304
-0.287918
-0.184856
-0.103160
0.029753
0.210428
0.406186
0.580263
0.688353
0.750880
0.671380
0.536891
0.346157
0.147567
-0.032170
-0.166973
-0.224792
-0.138069
0.093196
0.269472
0.404899
0.554780
0.608196
0.514242
0.282658
-0.129602
-0.653726
-1.197331
-1.717055
-2.063643
-2.226412
-2.219187
-2.027514
-1.764513
-1.440239
-1.071031
-0.615098
-0.094435
0.464877
0.953174
1.247283
1.314525
1.067545
0.471779
-0.448578
-1.543013
-2.636191
-3.620020
-4.359385
-4.844231
-5.111950
-5.220672
-5.230730
-5.181399
-5.092162
-4.883207
-4.574016
-4.189097
-3.766157
-3.327506
-2.904566
-2.543214
-2.242192
-2.001186
-1.867330
-1.898754
-2.127510
-2.467814
-2.865620
-3.199325
-3.451019
-3.681659
-3.902559
-4.060300
-4.239094
-4.418517
-4.463767
-4.513416
-4.551753
-4.616485
-4.728350
-4.840843
-4.922857
-4.967165
-4.859075
-4.611156
-4.076982
-3.462681
-2.734947
-1.812081
-0.855593
0.366725
1.474668
2.435869
3.284264
3.814668
4.156538
4.346640
4.481125
4.661171
4.765176
4.958420
5.159206
5.202252
5.169885
4.954641
4.680010
4.537351
4.502470
4.704198
5.149762
5.639317
6.070740
6.196113
5.932479
5.376305
4.558384
3.567957
2.641944
1.932744
1.550021
1.554732
1.933366
2.602027
3.439739
4.309188
5.084369
5.683587
5.952244
5.841951
5.370931
4.544212
3.569181
2.770114
2.349055
2.391159
2.805301
3.432484
4.110257
4.794629
5.443180
5.990552
6.497074
6.982544
7.412711
7.738556
7.856073
7.693618
7.282615
6.759748
6.244737
5.776231
5.425558
5.218170
5.168520
5.248959
5.450687
5.729399
5.875510
5.807322
5.497183
4.935353
4.178706
3.320251
2.405236
1.621252
0.996892
0.529643
0.301830
0.146288
0.104495
-0.005485
-0.239582
-0.612879
-1.064103
-1.537008
-1.996088
-2.410234
-2.692721
-2.870572
-3.040882
-3.051882
-3.142380
-3.141440
-3.144898
-3.135788
-3.103739
-3.196437
-3.278765
-3.431165
-3.629755
-3.869508
-4.214211
-4.651295
-5.155308
-5.661206
-6.123742
-6.555485
-6.810006
-6.968690
-6.981261
-6.804985
-6.424779
-5.869867
-5.217231
-4.435765
-3.772760
-3.174170
-2.605432
-2.362855
-2.257279
-2.360660
-2.591300
-2.801831
-3.075520
-3.240488
-3.478670
-3.698941
-3.877107
-3.982688
-3.942155
-3.765251
-3.551582
-3.411128
-3.312778
-3.342946
-3.477121
-3.642717
-3.804543
-3.913895
-3.864878
-3.640526
-3.319080
-2.942331
-2.500224
-2.044291
-1.579559
-1.130853
-0.726453
-0.315139
0.049984
0.285334
0.389339
0.278102
0.034578
-0.268647
-0.562446
-0.717988
-0.728045
-0.602359
-0.395289
-0.157740
0.020736
0.151135
0.206122
0.164957
0.072259
-0.042434
-0.143615
-0.181952
-0.141734
-0.023903
0.162428
0.370440
0.579081
0.781752
0.966512
1.156928
1.340431
1.596833
1.923307
2.203590
2.418830
2.482929
2.404686
2.220550
2.028558
1.919521
1.998075
2.287470
2.695956
3.177655
3.638301
4.068782
4.401855
4.596042
4.622748
4.497057
4.276158
3.987072
3.726580
3.490912
3.281010
3.142122
3.001663
2.806215
2.632134
2.477221
2.373526
2.343359
2.360010
2.356237
2.274538
2.132507
1.936745
1.686623
1.341606
0.950084
0.573330
0.250623
0.008670
-0.138073
-0.276647
-0.473352
-0.808942
-1.293788
-1.745012
-2.127736
-2.416507
-2.491294
-2.354610
-1.953980
-1.298516
-0.565440
0.138728
0.696783
1.021685
1.140773
1.031736
0.707458
0.281686
-0.182736
-0.560432
-0.898850
-1.158085
-1.378356
-1.647018
-1.923849
-2.182455
-2.381045
-2.487883
-2.468717
-2.444210
-2.468408
-2.588128
-2.883812
-3.284447
-3.778719
-4.294044
-4.704734
-5.004189
-5.145591
-5.275052
-5.281653
-5.482757
-5.846627
-6.299422
-6.582224
-6.694403
-7.160709
-7.389465
-7.413976
-7.429689
-7.350508
-7.119871
-7.065513
-7.165438
-7.402677
-7.941254
-8.525080
-9.040091
-9.402076
-9.565787
-9.415278
-8.967200
-8.271202
-7.452029
-6.566241
-5.654373
-4.736535
-3.825609
-2.972815
-2.274617
-1.797631
-1.547199
-1.489698
-1.493471
-1.459538
-1.351133
-1.090018
-0.652309
-0.041465
0.734345
1.626732
2.605215
3.633659
4.672158
5.587797
6.292908
6.745070
6.882697
6.779944
6.541763
6.246078
5.966419
5.742377
5.616058
5.619512
5.823440
6.201446
6.688172
7.261938
7.825335
8.313633
8.748827
9.118350
9.412459
9.631469
9.843566
10.177581
10.668078
11.242787
11.859287
12.469189
12.986709
13.418447
13.698416
13.753717
13.554813
13.064311
12.386533
11.671678
11.005526
10.512825
10.212113
10.096163
10.170632
10.329625
10.451541
10.431743
10.189791
9.701174
8.995117
8.128492
7.221647
6.368848
5.682901
5.184229
4.791136
4.485397
4.237474
3.989237
3.735658
3.409494
3.014830
2.594400
2.114896
1.600828
1.114725
0.613226
0.074648
-0.437220
-0.901642
-1.283109
-1.605816
-1.888617
-2.188387
-2.471188
-2.733565
-2.980545
-3.197046
-3.380239
-3.564375
-3.811355
-4.122751
-4.496676
-4.899510
-5.267465
-5.580432
-5.894970
-6.238102
-6.606371
-6.992237
-7.297034
-7.630425
-7.944963
-8.152351
-8.415042
-8.555815
-8.676479
-8.694077
-8.498005
-8.200440
-7.711199
-7.087158
-6.558640
-6.048346
-5.534597
-5.363977
-5.420539
-5.596505
-6.065325
-6.601703
-7.196840
-7.829370
-8.237546
-8.429537
-8.227181
-7.638018
-6.927251
-6.327405
-5.603127
-5.106345
-4.954893
-4.902734
-4.985691
-5.105097
-5.514529
-5.947214
-6.530726
-7.056106
-7.466167
-7.704977
-7.773794
-7.730433
-7.438210
-7.144729
-6.613697
-5.941580
-4.871973
-3.955705
-3.293957
-2.723648
-2.124116
-1.954124
-2.297570
-2.305428
-2.193881
-2.164347
-2.595146
-2.803163
-2.861925
-3.182747
-3.314722
-3.408048
-3.578358
-3.567676
-3.925262
-3.981196
-3.972086
-4.238233
-4.105634
-4.116634
-3.877200
-4.144604
-4.438089
-4.680670
-5.050511
-5.167403
-5.554526
-5.486342
-5.551388
-5.874724
-5.966479
-5.835451
-5.637808
-5.550142
-5.420685
-5.328934
-5.338049
-5.602626
-5.989748
-6.303029
-6.620709
-6.948758
-7.114984
-7.255128
-7.357881
-7.323005
-7.128818
-6.813028
-6.434393
-5.987258
-5.534467
-5.217106
-5.031089
-4.921742
-4.982703
-5.187264
-5.377998
-5.464097
-5.458129
-5.308247
-5.005969
-4.536210
-4.044141
-3.682161
-3.533536
-3.605495
-3.809427
-4.106368
-4.429390
-4.479982
-4.295222
-3.912816
-3.557748
-3.352564
-3.264898
-3.313605
-3.471660
-3.711728
-3.888322
-4.107965
-4.228942
-4.455498
-4.502948
-4.538771
-4.467445
-4.040420
-3.753538
-3.218422
-2.795796
-2.751493
-2.691165
-2.905780
-3.354490
-3.808542
-4.383884
-4.839507
-5.065434
-5.231973
-5.264026
-5.250517
-5.273771
-5.188305
-5.154686
-4.989407
-4.886973
-4.634970
-4.360029
-4.066234
-3.319646
-2.836062
-2.351534
-1.845954
-1.227883
-0.737700
-0.129370
0.455080
1.141337
1.848647
1.878182
2.369622
2.639222
2.834351
3.018168
3.073783
3.186587
3.164589
3.331124
3.525625
3.818791
4.036230
4.212821
4.329709
4.340390
4.265603
4.139599
4.012965
4.043128
4.196466
4.443756
4.697959
4.939593
5.158289
5.204163
5.131576
5.030395
4.847830
4.627873
4.477044
4.397230
4.437134
4.541767
4.633518
4.653940
4.644826
4.565011
4.509706
4.525729
4.631620
4.804439
4.954949
5.039472
5.161388
5.281419
5.419988
5.583067
5.697441
5.845123
5.960126
6.083613
6.277485
6.572537
6.895554
7.241196
7.501683
7.621713
7.505764
7.168288
6.661446
6.059710
5.501023
5.002980
4.599832
4.269897
4.108699
3.959128
3.887797
3.912933
3.997142
4.191643
4.447103
4.838935
5.329746
5.891886
6.437686
6.888592
7.199983
7.278536
7.143105
6.818198
6.298788
5.722189
5.147476
4.593816
4.138822
3.834967
3.587673
3.301101
3.017985
2.687422
2.318210
1.994874
1.745066
1.589524
1.507196
1.577894
1.698553
1.736257
1.732799
1.588883
1.420458
1.239150
1.100262
1.012907
0.845739
0.749585
0.612582
0.493804
0.476206
0.428756
0.406759
0.375963
0.254671
0.043512
-0.151621
-0.321931
-0.439452
-0.471819
-0.479363
-0.516443
-0.614796
-0.794847
-1.092417
-1.444661
-1.775224
-2.042943
-2.175861
-2.237450
-2.327320
-2.394565
-2.474380
-2.590330
-2.699995
-2.893243
-3.214065
-3.590191
-3.975114
-4.297193
-4.576852
-4.776385
-4.973404
-5.065158
-4.994775
-4.849293
-4.650079
-4.412844
-4.224313
-4.087629
-4.022273
-4.022589
-3.969174
-4.156766
-4.225268
-4.366356
-4.495503
-4.421977
-4.368876
-4.320174
-4.307922
-4.076028
-3.955998
-3.830940
-3.661263
-3.615703
-3.601565
-3.602196
-3.707462
-3.911708
-4.200794
-4.590430
-4.930420
-5.167659
-5.253130
-5.140640
-4.900263
-4.587301
-4.251401
-4.034590
-3.927757
-3.915819
-3.997832
-4.135149
-4.252356
-4.328714
-4.331544
-4.193603
-3.922118
-3.538456
-3.073725
-2.632246
-2.199879
-1.814646
-1.522737
-1.297756
-1.133421
-1.070893
-1.065868
-1.090065
-1.137514
-1.158569
-1.134691
-1.041055
-0.956217
-0.842785
-0.794083
-0.827707
-0.891182
-0.957171
-1.041698
-1.047671
-1.042331
-0.995514
-0.892138
-0.690095
-0.420181
-0.034948
0.362225
0.771654
1.170713
1.471420
1.742591
1.928922
2.119024
2.255080
2.426328
2.549815
2.705981
2.792704
2.937243
2.998200
3.071097
3.020820
2.980912
2.815943
2.734244
2.639661
2.642801
2.725753
2.986241
3.287891
3.672181
4.204784
4.674857
5.176353
5.412331
5.648937
5.423010
5.189855
4.640280
4.410582
3.734061
3.678756
2.486913
3.419834
3.197991
1.279668
2.661611
1.922875
2.161052
1.882964
1.754760
1.630954
0.998425
0.788208
0.066440
-0.184625
-0.651246
-1.009461
-0.990924
-1.235390
-1.408842
-1.294468
-1.333433
-1.094313
-1.073577
-0.945062
-1.075152
-1.137999
-1.264318
-1.539578
-1.828035
-2.047992
-2.308798
-2.533154
-2.647533
-2.698125
-2.666391
-2.542275
-2.320123
-2.119966
-1.942433
-1.905671
-1.925155
-2.103635
-2.302539
-2.451797
-2.464054
-2.344023
-2.128155
-1.905374
-1.620064
-1.348579
-1.025247
-0.640956
-0.198535
0.279079
0.829593
1.415614
1.978696
2.486790
2.931097
3.257571
3.387656
3.411849
3.330149
3.194404
3.020951
2.861639
2.787480
2.875775
3.156372
3.639014
4.280337
4.993932
5.695586
6.317428
6.766448
6.988600
7.000539
6.898100
6.757327
6.681912
6.732185
6.894950
7.101705
7.310974
7.552294
7.823465
8.064156
8.234462
8.334068
8.363917
8.359516
8.347888
8.331546
