EVENT_NAME: 202302060117
EVENT_ID: 13194
EVENT_DATE_YYYYMMDD: 2023/02/06
EVENT_TIME_HHMMSS: 01:17:32.00000
EVENT_LATITUDE_DEGREE: 37.288
EVENT_LONGITUDE_DEGREE: 37.043
EVENT_DEPTH_KM: 8.6
HYPOCENTER_REFERENCE: AFAD
MAGNITUDE_W: 7.7
MAGNITUDE_W_REFERENCE: AFAD
MAGNITUDE_L: 
MAGNITUDE_L_REFERENCE: 
FOCAL_MECHANISM: 
NETWORK: TK
STATION_CODE: 2707
STATION_NAME: 
STATION_LATITUDE_DEGREE: 36.930889
STATION_LONGITUDE_DEGREE: 36.573771
STATION_ELEVATION_M: 487.0
LOCATION: Kahramanmaras_Pazarck_Turkiye
SENSOR_DEPTH_M: 
VS30_M/S: 558
SITE_CLASSIFICATION_EC8: B
MORPHOLOGIC_CLASSIFICATION: 
EPICENTRAL_DISTANCE_KM: 57.52
EARTHQUAKE_BACKAZIMUTH_DEGREE: 
DATE_TIME_FIRST_SAMPLE_YYYYMMDD_HHMMSS: 2023/02/06 01:17:17.0201970
DATE_TIME_FIRST_SAMPLE_PRECISION: millisecond
SAMPLING_INTERVAL_S: 0.01
NDATA: 4652
DURATION_S: 
STREAM: HNZ
UNITS: cm/s^2
INSTRUMENT: sensor = ACEBOX/SARA | digitizer = 
INSTRUMENT_ANALOG/DIGITAL: 
INSTRUMENTAL_FREQUENCY_HZ: 
INSTRUMENTAL_DAMPING: 
FULL_SCALE_G: 
N_BIT_DIGITAL_CONVERTER: 
PGA_CM/S^2: 45.626
TIME_PGA_S: 
BASELINE_CORRECTION: BASELINE REMOVED
FILTER_TYPE: BUTTERWORTH
FILTER_ORDER: 
LOW_CUT_FREQUENCY_HZ: 
HIGH_CUT_FREQUENCY_HZ: 
LATE/NORMAL_TRIGGERED: 
DATABASE_VERSION: 
HEADER_FORMAT: DYNA 1.2
DATA_TYPE: Acceleration
PROCESSING: Automatic Paolucci et al., 2011
DATA_TIMESTAMP_YYYYMMDD_HHMMSS: 
DATA_LICENSE: U (unknown license)
DATA_CITATION: Turkish Accelerometric Archive v 1.0 - Disaster And Emergency Management Presidency, Earthquake Department
DATA_CREATOR: AFAD
ORIGINAL_DATA_MEDIATOR_CITATION: : AFAD - Disaster And Emergency Management Presidency
ORIGINAL_DATA_MEDIATOR: AFAD PROCESS SERVICE
ORIGINAL_DATA_CREATOR_CITATION: AFAD PROCESS SERVICE
ORIGINAL_DATA_CREATOR: network: TK
USER1: GuestUser
USER2: 
USER3: 
USER4: 
USER5: 
[...]
-0.367965
0.157603
0.560428
0.464330
0.048163
-0.389747
-0.392327
-0.025039
0.044157
-0.074853
0.019359
0.154019
0.236775
0.306205
0.186026
-0.198812
-0.454594
-0.201867
0.282553
0.450880
0.087551
-0.446683
-0.663187
-0.621579
-0.400649
0.017373
0.213054
0.196213
0.418312
0.502705
0.113425
-0.217172
-0.433208
-0.834646
-1.004624
-0.544986
0.266049
0.708853
0.386906
-0.122312
-0.329698
-0.299546
0.127361
0.623003
0.515916
0.213842
0.226927
0.269471
0.300090
0.216383
-0.330476
-0.858164
-0.932286
-0.849997
-0.624390
-0.215253
0.057581
-0.156351
-0.638683
-0.568084
-0.140944
-0.249667
-0.679161
-0.868544
-0.752121
-0.411486
0.012848
0.338754
0.544488
0.631920
0.281684
-0.182411
-0.073235
0.101637
-0.058521
-0.240423
-0.473995
-0.562612
-0.233667
0.266886
0.525458
0.376755
0.088709
-0.312729
-0.852808
-0.983976
-0.541405
0.023441
0.283182
0.249741
0.278724
0.085366
-0.413798
-0.360033
0.224920
0.622835
0.570691
0.066149
-0.369657
-0.502228
-0.603470
-0.437014
-0.244606
-0.531483
-0.715256
-0.592988
-0.588319
-0.146918
0.871495
1.258188
0.743593
0.241155
0.013195
-0.336807
-0.779393
-0.892559
-0.828506
-0.841840
-0.556148
-0.018188
0.397963
0.639936
0.593870
0.436984
0.242223
-0.163890
-0.258586
-0.042565
-0.216050
-0.471364
-0.391647
-0.280835
-0.257697
-0.288332
-0.427917
-0.488244
-0.218450
0.219679
0.614788
0.809066
0.537386
0.110231
-0.074477
-0.055080
0.211909
0.453882
0.349600
-0.117067
-0.766797
-0.942620
-0.504024
0.444951
1.778055
2.039901
0.697195
-0.839328
-1.697372
-1.690366
-1.021246
-0.057775
0.676341
0.247081
-0.736745
-0.956522
-0.499924
0.365586
0.953578
0.409057
-0.472133
-0.621537
-0.154184
0.539017
1.378809
1.971244
1.645790
0.641623
-0.229513
-0.586997
-0.413761
-0.002519
0.204617
0.115533
0.106407
0.359602
0.683403
0.794216
0.342044
-0.110128
0.037858
0.008392
-0.166496
0.072905
0.019825
-0.373430
-0.507169
-0.435401
-0.154151
0.237685
0.576918
0.940231
1.088918
0.872882
0.600734
0.472605
0.275273
-0.132711
-0.361373
-0.395982
-0.444620
0.177507
1.315157
1.652752
0.967017
-0.238683
-1.090882
-0.730842
0.295521
1.400205
2.113746
1.913374
2.184338
3.455486
3.792146
2.757585
1.433116
0.571566
0.680274
1.527781
2.404981
2.530288
1.956542
1.589473
1.395647
1.388625
1.811089
2.024071
1.992500
1.937550
2.197058
3.312964
4.091735
4.016912
4.167003
3.856980
2.844864
2.563130
2.618065
2.205639
1.839972
1.381488
1.158204
1.849768
2.094546
1.245153
0.415399
-0.593912
-2.089988
-3.508677
-5.203014
-7.053059
-7.768721
-7.126253
-5.677186
-4.182995
-4.376119
-6.658924
-9.226025
-11.090332
-12.256521
-12.872818
-13.320781
-13.744897
-15.134596
-15.712784
-10.721454
-2.887851
2.125456
5.734343
8.896210
9.144027
5.123408
0.557573
2.420462
7.422079
7.280157
4.268606
3.054957
3.351170
4.571351
7.115758
11.096383
13.863366
12.327778
9.253570
8.550767
7.271655
2.860828
-1.488043
-5.205894
-10.783370
-15.817734
-14.235402
-7.609361
-4.672875
-6.044572
-8.127012
-11.529471
-11.481550
-2.999159
7.756442
11.526416
7.700082
4.552228
5.049273
5.152136
7.051731
11.001962
9.465439
0.360196
-11.848237
-20.830735
-22.177649
-17.369149
-8.721931
1.142436
8.794379
14.586932
18.677909
18.922921
14.422316
5.539648
-5.440648
-13.032287
-10.736171
0.170697
9.980589
13.022985
8.343525
-2.175489
-10.735516
-10.832316
-3.072359
3.776023
3.741413
2.602579
0.204747
-5.570989
-6.425993
-3.411185
-5.068582
-10.214233
-9.277182
1.610749
9.114465
7.049092
2.888896
-5.042684
-13.384344
-13.665844
-6.941141
5.618440
15.677560
15.521376
11.106340
4.031861
-3.574039
-7.190891
-12.237880
-14.988045
-6.727995
4.815036
13.904364
22.002392
23.219300
15.886241
5.203334
-6.765457
-13.111891
-10.386057
-9.233210
-9.682342
-0.789170
11.263773
13.855408
9.088040
3.604785
-2.968432
-9.780825
-10.904462
-7.091237
-2.374385
3.621105
8.576898
11.381522
12.433368
10.701157
7.453237
-2.683986
-17.545317
-19.793987
-10.616049
-3.716700
-0.514386
1.564298
1.979981
-0.963066
-2.267429
1.652642
4.363280
5.539506
5.771192
1.916802
-1.948809
-3.745082
-4.037803
-0.837594
4.847646
8.618554
5.835424
-1.041496
-3.971451
-0.949863
2.799770
3.381449
1.353250
-3.088438
-6.903082
-6.623935
-4.934992
-1.601284
2.064415
0.268611
-2.778944
-0.761281
3.327591
3.859472
1.142740
1.503482
4.202897
3.167869
0.516834
-1.157162
-4.775182
-8.940055
-8.635892
-5.271791
-2.628253
1.376453
6.305826
6.910652
2.761678
-2.628525
-4.057034
0.325721
5.518819
9.703080
10.115257
1.742034
-8.366899
-11.502129
-9.140316
-6.792532
-8.393349
-10.583336
-9.773470
-6.076909
1.929003
9.119430
9.897733
8.547079
4.454918
-5.877760
-12.703245
-10.282516
-7.270748
-2.449622
8.436439
13.906586
9.507916
3.679810
0.733957
2.297351
5.473012
4.106927
-0.526241
-4.721741
-8.071596
-8.220299
-4.076484
-0.601095
-1.366555
-4.367818
-5.023861
-1.823886
0.256435
-0.195269
0.423351
0.245423
-1.736952
-0.429799
4.107263
5.548148
2.904361
-0.456015
-1.590875
2.132573
4.198398
1.296498
3.819397
6.258596
0.304941
0.170266
6.166691
6.713067
4.647461
0.566054
-3.303065
-1.672336
0.497061
3.434248
9.042803
9.893116
3.999780
-4.591575
-11.122242
-10.589192
-4.457633
1.756691
4.714920
4.601287
3.728046
2.579626
2.662851
5.692855
6.969381
4.298473
1.840555
-0.664123
-3.074347
-1.524746
0.715024
-1.848337
-5.832718
-5.313228
-2.488965
-2.935058
-4.770140
-5.042756
-5.409591
-4.142885
-1.437625
-1.188638
-0.826962
-0.419929
-3.280446
-5.821128
-7.136947
-7.773585
-3.859125
5.846259
16.429553
15.735635
2.289946
-7.466188
-7.636634
-6.933379
-8.755603
-6.527289
0.693064
0.150881
-6.916818
-6.745219
-4.970004
-8.990155
-10.550526
-5.789486
0.164621
2.295208
1.202899
2.251706
3.836610
1.889539
4.527465
12.993257
12.720641
6.832917
7.988335
7.292079
2.438440
5.942586
9.298738
2.493126
-0.792902
2.563717
-0.563329
-6.641832
-1.217275
10.960515
10.611916
0.318750
-3.521144
-6.308483
-12.419016
-10.334487
-0.134856
8.229701
9.433516
6.212483
3.101803
-0.443273
-4.357047
-6.348072
-1.841404
4.188688
1.224131
-3.567318
-6.922083
-13.509796
-15.755193
-10.787009
-3.181825
0.504682
-2.780878
-5.005935
-3.281921
-0.864933
-1.263331
-4.810277
-3.185628
3.329593
6.358429
6.857344
8.232766
5.835167
-1.394086
-1.912422
4.529620
2.783615
-6.802549
-9.842622
-4.492881
-1.233287
-2.350378
-2.717448
1.060475
5.614838
-2.664165
-15.576562
-12.206616
-6.036714
-5.437499
0.900971
3.562511
-3.017720
-9.436632
-8.495372
1.819288
10.587847
10.148300
1.447060
-7.461559
-1.600269
8.395024
4.433087
-1.672536
2.148405
5.424131
-2.298668
-10.450719
-9.908551
-6.716758
-0.095627
8.573568
13.691616
13.960942
5.380809
-0.118578
6.167054
7.160217
1.676962
0.369326
1.658243
7.423675
14.083383
12.487943
6.022271
-1.275484
-6.783755
-3.808927
1.935932
0.616372
-2.803154
-5.338927
-8.142398
-6.137594
-3.109459
-3.782336
-3.850144
-4.431372
-2.394304
7.699183
15.358608
9.687380
-3.096428
-7.197942
-1.405388
1.452542
1.387538
1.665749
-0.787025
-3.211744
-3.006244
1.585526
8.355820
8.765892
3.458687
-0.569882
-0.671825
-0.550960
-3.947340
-7.769232
-9.749502
-7.556492
-3.502922
-4.854512
-4.200823
0.895482
-0.811947
-3.515820
-1.286571
-2.364384
-3.413206
0.689227
3.319672
0.426657
-6.400932
-8.528729
-3.255907
0.505182
8.581701
20.036824
19.472663
16.477947
13.753967
1.521920
-2.827886
6.644637
13.059091
8.698062
-6.571946
-21.070190
-25.179886
-23.772902
-15.027489
0.063416
7.809813
5.310512
1.184450
-0.156385
2.400181
9.614923
16.579268
14.064069
3.223116
-3.752934
-1.418710
6.787566
13.732740
11.075860
1.112348
-7.782944
-12.980733
-10.929169
-2.171599
2.751462
0.124508
-3.134166
-3.858711
-5.140395
-5.585086
0.542265
8.968311
10.487986
5.855753
-0.713257
-6.184120
-6.921291
-2.242314
5.105225
8.203031
6.714436
11.125715
19.786260
20.367472
11.833630
2.924310
-0.271239
-0.104549
2.796634
7.305640
1.588354
-11.203871
-16.261849
-16.991304
-12.527654
3.876022
13.677730
0.026067
-16.930088
-13.610876
-2.513696
0.217516
3.764680
11.272838
14.291854
13.806717
13.710852
11.775237
6.264394
3.257052
3.928510
0.536805
-3.875892
-2.440618
-0.487250
-6.208978
-19.059418
-27.465139
-21.438087
-7.824548
4.340618
19.810273
34.623427
38.987479
39.982045
34.517961
14.877113
-6.624294
-20.530330
-20.771616
-13.893776
-14.153065
-10.262452
-4.571835
-13.099364
-26.157183
-31.937594
-20.040126
1.740887
8.526845
9.961417
14.389529
5.625164
-10.412635
-15.127866
-6.637760
-0.903422
-5.871622
-9.332998
-7.022387
-0.581514
8.381564
11.585982
13.241258
20.930141
27.973276
28.038966
20.324817
6.445669
-6.654234
-7.033461
5.920303
12.681011
3.396212
-10.767234
-21.929658
-27.269595
-22.692788
-10.584435
0.638060
4.511371
0.649734
-6.820330
-12.109300
-13.520741
-14.918623
-13.727200
-7.386626
-3.514015
-3.036843
-3.358322
-4.015768
0.682147
4.332884
-0.818146
-6.260720
-7.809167
-3.932114
3.255975
4.275791
3.849804
5.430968
0.136621
-5.768171
0.190846
9.871448
8.589296
1.310478
0.787700
5.182145
4.994632
-3.944380
-12.950258
-10.482068
-1.534655
3.643012
1.825698
-5.365446
-11.624674
-14.855059
-13.941153
-7.611567
-5.467654
-10.013850
-10.931044
-7.439523
-3.532545
1.188983
7.327790
13.947986
14.484543
10.308682
12.856597
16.867148
14.211203
10.835163
6.700217
3.251933
5.428344
7.651047
9.757319
14.164857
12.961962
4.950658
-0.679890
-1.604566
-1.470140
1.243537
5.062140
3.838905
-3.743849
-17.293577
-29.763162
-32.138083
-27.137167
-18.557984
-7.740894
0.863540
1.676445
-5.610556
-10.753870
-8.808684
-2.013374
11.544521
23.867266
23.099468
10.691606
-5.726815
-13.951343
-8.542918
-0.551268
3.303807
3.700787
-0.443511
-4.239918
-1.939361
3.822097
7.643272
7.751980
3.628490
-4.047316
-4.060416
7.896202
16.946720
19.496739
18.629110
13.009084
12.845418
16.067370
14.488997
17.764489
20.845929
16.085809
13.317642
11.986159
12.228833
14.262160
8.410674
2.717002
4.342586
4.591806
3.975041
1.996174
-3.166311
-5.342504
-6.490456
-12.575272
-22.307324
-27.762757
-26.393648
-26.958978
-27.724438
-23.498794
-20.514379
-18.966415
-18.455109
-20.391659
-21.252976
-23.914532
-23.048087
-10.303104
1.010104
6.893604
15.595063
15.810383
4.258452
-2.530560
0.334617
7.210821
12.538118
12.839007
9.264941
1.897514
-5.083914
-3.238794
2.606597
3.477952
5.161986
9.110113
4.199427
-6.941488
-11.211569
-5.792390
2.488936
7.552275
13.826919
20.679743
19.309683
13.163379
3.237508
-8.096056
-9.678170
-9.609908
-13.230734
-11.999098
-7.704951
0.955359
8.530617
5.122312
4.612159
10.753538
8.306140
2.540692
3.198356
0.375948
-6.129235
-3.324611
2.782634
5.134393
10.056986
12.795446
6.713670
-4.139908
-9.364116
-1.095182
10.222468
13.315365
9.692201
3.430401
1.674108
4.051585
3.140469
-0.897217
-5.165194
-6.960297
-5.852340
-3.896633
1.353277
8.723728
9.327618
2.643347
-0.574179
0.792826
-1.147933
-2.289806
3.255156
8.615184
5.333598
-4.127484
-7.156335
1.668803
15.751573
24.827809
19.462388
3.521147
-10.429543
-16.642479
-20.681569
-29.826089
-33.768386
-28.353181
-26.183551
-19.773305
-2.813191
9.417437
12.921115
11.686424
8.195122
8.465384
6.835809
-2.398489
-4.574916
9.028103
24.362390
27.783070
21.432194
13.364778
4.548743
-2.231152
-1.129507
1.850933
3.823706
6.630435
1.533413
-7.617186
-9.887833
-13.292630
-19.490136
-19.534331
-18.712074
-22.150772
-23.637964
-18.001821
-6.766935
-1.096190
-5.545827
-8.383432
-8.904106
-13.137715
-12.489169
-6.139009
-3.215850
-0.218343
6.689423
11.891639
12.320883
10.601998
12.301228
17.390987
18.160640
14.997823
10.145587
-1.802163
-13.134791
-14.645129
-14.438694
-13.429867
-9.527798
-7.242905
-2.044664
5.780522
12.382482
21.207386
27.458883
27.822898
26.610183
21.861987
9.155332
-7.737697
-15.591890
-11.950973
-6.828717
-2.794786
-0.824351
0.693453
3.008272
-1.250119
-5.371037
2.281841
11.998448
10.443922
-0.434439
-6.538192
-1.807078
-0.223811
-7.455635
-8.932073
-4.666917
-9.632545
-17.612287
-12.935648
1.570529
16.550146
28.503024
36.486725
37.165898
25.724554
8.643786
-0.014202
3.809778
12.835747
13.980411
5.128605
0.661901
0.505015
-7.128240
-17.372308
-21.782200
-20.571138
-18.719238
-20.062177
-19.114838
-14.410143
-11.708390
-10.374584
-6.805677
-1.739999
0.124760
-0.567755
-1.683677
-6.486348
-10.925465
-11.039799
-8.187246
-1.883145
2.316782
3.969721
9.879874
18.708752
24.747728
21.797666
12.726559
4.327150
-4.889379
-10.024744
-10.259250
-15.589836
-23.628261
-27.067193
-25.317462
-20.692024
-16.766810
-14.223571
-14.857403
-19.314054
-20.303024
-15.497329
-11.973545
-7.942420
1.697735
6.250228
2.233583
2.397467
5.852515
7.226300
9.911454
10.222631
3.801615
-6.341453
-15.170113
-17.715004
-14.271412
-9.438129
-9.886326
-17.251649
-20.285644
-16.201213
-12.155359
-2.527596
10.893996
15.584663
14.643154
12.328085
9.148201
10.194436
13.741834
17.977298
20.217536
15.902565
11.656332
9.358565
7.664929
10.635082
11.588266
11.878868
17.965071
17.031511
11.382260
16.089760
24.649771
31.253835
33.478876
22.973422
6.163625
-7.410418
-18.172114
-23.309817
-20.406998
-14.981039
-16.053241
-22.755748
-24.425536
-18.926866
-9.385841
-0.341402
0.654099
-3.897240
-10.413645
-18.456278
-18.330036
-7.661173
3.657413
9.809313
9.923398
5.733743
-1.520058
-6.795935
-2.366888
6.025257
11.248514
15.138192
15.666332
11.336867
4.567259
3.555143
12.925964
15.692479
6.241217
-0.590113
-6.537690
-14.496858
-17.338671
-14.194106
-6.783208
-2.822456
-6.961143
-10.964227
-8.874555
-0.414141
9.601960
15.697748
16.967961
11.282004
3.536526
1.760361
1.906243
-0.434076
-4.825965
-10.613624
-10.051349
0.257232
7.639607
4.797092
-0.782020
0.312845
9.887303
12.383315
0.903160
-4.752638
-3.055043
-8.706165
-18.438919
-28.046124
-32.113035
-25.298320
-19.044485
-16.682906
-12.199618
-8.275338
-0.951880
10.486176
15.276440
18.126421
26.094692
28.599354
25.058487
26.310230
27.866376
22.206137
17.409311
22.067480
31.270434
36.353880
35.725191
27.045928
5.396293
-17.741928
-24.609965
-21.092960
-21.561965
-24.446563
-21.944473
-16.819177
-18.105303
-20.006550
-13.983473
-9.389131
-11.442112
-17.923448
-30.884942
-40.873470
-36.828084
-26.898722
-20.237845
-13.224169
-2.912081
6.582652
11.282905
13.352938
18.510030
26.958053
32.753880
32.835467
31.085954
30.835784
30.623488
31.616885
32.053610
25.644986
15.837651
3.145724
-15.956689
-27.785903
-24.618192
-17.366743
-10.960706
-6.733425
-5.819519
-8.087828
-18.506310
-28.913569
-25.870705
-16.985482
-8.169228
3.264385
12.055389
19.001498
25.964908
23.783338
9.468157
-9.849817
-23.153591
-22.899461
-14.631462
-8.559053
-9.046996
-11.633737
-10.139078
-5.959960
-0.746990
3.797787
5.018669
4.020814
2.233427
2.949072
3.537065
1.426102
4.948483
7.272654
0.160300
-2.849380
1.724856
8.682187
18.010690
23.936274
22.906390
17.716316
18.369538
32.675118
45.626309
42.925242
31.073817
19.117417
12.089931
7.681442
1.171583
-3.297927
-5.934934
-12.859081
-24.139807
-31.720457
-24.011935
-7.384515
-0.977309
-6.611597
-13.708988
-14.088449
-10.740947
-10.566542
-3.581857
10.159570
8.573949
-6.315204
-13.292657
-10.661744
-8.151704
-5.015088
6.407537
19.125165
17.230231
4.598858
-0.122218
9.528224
18.261246
14.751708
9.989717
7.967597
3.123777
1.832741
7.373027
14.610214
16.595613
7.345416
-5.566981
-9.929879
-5.074152
0.818233
-0.251865
-6.547565
-12.430613
-16.952962
-16.560424
-8.002516
0.805788
3.380589
6.632468
12.349972
13.199818
9.738675
3.952419
-4.140014
-10.381473
-14.301092
-15.300817
-8.340914
5.127204
15.836046
16.779410
10.542627
2.785927
-5.564384
-14.123008
-17.575032
-8.028864
7.560730
9.950832
0.369812
-4.360148
-0.445922
5.655945
7.424848
4.971371
6.910712
10.397557
1.121175
-14.393853
-17.339005
-12.723621
-15.396867
-19.576702
-12.404978
-0.294755
2.150055
-1.773539
1.172065
8.797122
7.772848
1.098630
-0.755390
-3.386085
-5.988957
-2.052754
-0.232416
-4.164660
-12.235583
-18.275510
-12.736159
-7.986108
-6.744418
2.001696
5.309452
0.038018
-2.873000
-1.085394
8.294311
11.798223
1.357297
-6.647462
-10.321827
-9.789478
-0.747845
3.088293
0.924959
3.100669
4.269881
4.148065
4.066930
-0.122725
-0.994329
0.413825
-6.096034
-12.740093
-11.841150
-9.548775
-11.724267
-15.581695
-12.251495
-4.946273
-2.914583
-3.612008
-4.746166
-5.086583
-3.520149
-4.637473
-2.778091
7.085106
12.045107
10.058758
11.868107
15.013374
18.888556
26.879505
29.067372
20.517399
5.479317
-9.551049
-11.528982
-0.316774
11.957574
14.528168
2.845778
-6.390624
-4.608162
-3.582735
-1.484646
2.456000
2.844797
1.246551
-1.934502
-3.412109
-4.913095
-3.265533
8.917167
13.869219
7.723616
6.617748
4.168947
0.189710
1.408721
1.354706
3.188838
6.538444
4.482657
0.518383
-7.730226
-15.842765
-9.306970
2.868248
6.148416
3.587627
-0.680116
-7.383793
-17.712262
-26.172458
-26.675130
-22.837121
-16.219030
-6.391603
1.660600
2.808070
-1.899212
-6.535653
-10.265663
-9.946537
-3.464983
-2.150817
-5.913558
-6.393785
-7.045619
-6.176836
-0.932070
6.850332
18.908184
28.110203
27.449952
24.486330
21.260154
11.704384
-1.101869
-11.911961
-20.147477
-22.461376
-15.901500
-3.318539
8.248105
12.607715
9.065679
1.290042
-3.940245
-4.551165
-3.484122
2.484715
10.451349
9.615750
2.726672
-3.538869
-10.104137
-13.330781
-9.194448
-1.895305
5.253740
10.583843
10.086548
5.144767
0.060371
-3.065039
-3.815302
-7.063689
-11.531329
-9.136551
-1.392959
6.978144
10.679614
4.997164
-1.508252
-2.879013
-7.206609
-12.797644
-9.156727
-3.653615
-6.187751
-5.690939
4.376129
13.926272
16.815765
14.791774
12.855224
13.864519
16.344399
17.595908
10.053834
-7.051951
-18.152886
-15.848822
-9.136978
-2.722056
3.387760
6.033168
4.620558
2.073329
0.686903
0.719393
2.109077
4.458498
5.487665
7.393573
12.862083
15.587217
11.840841
6.548131
3.054959
-0.182440
-4.431245
-8.645215
-13.019336
-14.053429
-6.491264
2.310026
2.327554
-5.689129
-16.647448
-23.397417
-22.819477
-18.040903
-7.973600
3.657105
8.696831
12.991679
16.927180
11.928821
9.484930
16.908453
20.383842
14.292247
3.847112
-0.766651
5.681704
10.911741
8.447510
5.581849
4.673305
1.898358
-4.694733
-10.412720
-12.384808
-11.647653
-6.921215
-3.115704
-1.930126
0.612411
-2.648834
-11.105055
-14.487408
-12.690684
-4.501709
7.269508
10.993891
5.485386
-0.092089
1.580021
5.867855
4.982925
2.586027
1.734296
-0.775291
-5.586613
-9.669188
-10.334116
-7.558482
0.000000
0.000000
0.000000
0.000000
0.000000
0.000000
0.000000
0.000000
0.000000
0.000000
0.000000
0.000000
0.000000
0.000000
0.000000
0.000000
0.000000
0.000000
0.000000
0.000000
0.000000
0.000000
0.000000
0.000000
0.000000
0.000000
0.000000
0.000000
0.000000
0.000000
0.000000
