EVENT_NAME: 202302060117
EVENT_ID: 13194
EVENT_DATE_YYYYMMDD: 2023/02/06
EVENT_TIME_HHMMSS: 01:17:32.00000
EVENT_LATITUDE_DEGREE: 37.288
EVENT_LONGITUDE_DEGREE: 37.043
EVENT_DEPTH_KM: 8.6
HYPOCENTER_REFERENCE: AFAD
MAGNITUDE_W: 7.7
MAGNITUDE_W_REFERENCE: AFAD
MAGNITUDE_L: 
MAGNITUDE_L_REFERENCE: 
FOCAL_MECHANISM: 
NETWORK: TK
STATION_CODE: 99003
STATION_NAME: 
STATION_LATITUDE_DEGREE: 35.25042
STATION_LONGITUDE_DEGREE: 33.02121
STATION_ELEVATION_M: 132.0
LOCATION: Kahramanmaras_Pazarck_Turkiye
SENSOR_DEPTH_M: 
VS30_M/S: None
SITE_CLASSIFICATION_EC8: unknown
MORPHOLOGIC_CLASSIFICATION: 
EPICENTRAL_DISTANCE_KM: 425.77
EARTHQUAKE_BACKAZIMUTH_DEGREE: 
DATE_TIME_FIRST_SAMPLE_YYYYMMDD_HHMMSS: 2023/02/06 01:18:06.1453460
DATE_TIME_FIRST_SAMPLE_PRECISION: millisecond
SAMPLING_INTERVAL_S: 0.01
NDATA: 21001
DURATION_S: 
STREAM: HNE
UNITS: cm/s^2
INSTRUMENT: sensor = CMG-5T/GURALP | digitizer = 
INSTRUMENT_ANALOG/DIGITAL: 
INSTRUMENTAL_FREQUENCY_HZ: 
INSTRUMENTAL_DAMPING: 
FULL_SCALE_G: 
N_BIT_DIGITAL_CONVERTER: 
PGA_CM/S^2: 6.892
TIME_PGA_S: 
BASELINE_CORRECTION: BASELINE REMOVED
FILTER_TYPE: BUTTERWORTH
FILTER_ORDER: 
LOW_CUT_FREQUENCY_HZ: 
HIGH_CUT_FREQUENCY_HZ: 
LATE/NORMAL_TRIGGERED: 
DATABASE_VERSION: 
HEADER_FORMAT: DYNA 1.2
DATA_TYPE: Acceleration
PROCESSING: Automatic Paolucci et al., 2011
DATA_TIMESTAMP_YYYYMMDD_HHMMSS: 
DATA_LICENSE: U (unknown license)
DATA_CITATION: Turkish Accelerometric Archive v 1.0 - Disaster And Emergency Management Presidency, Earthquake Department
DATA_CREATOR: AFAD
ORIGINAL_DATA_MEDIATOR_CITATION: : AFAD - Disaster And Emergency Management Presidency
ORIGINAL_DATA_MEDIATOR: AFAD PROCESS SERVICE
ORIGINAL_DATA_CREATOR_CITATION: AFAD PROCESS SERVICE
ORIGINAL_DATA_CREATOR: network: TK
USER1: GuestUser
USER2: 
USER3: 
USER4: 
USER5: 
[...]
-0.243717
-0.171270
-0.072793
0.049518
0.179982
0.312956
0.438089
0.534057
0.559777
0.520267
0.425562
0.293225
0.157438
0.033254
-0.075250
-0.171523
-0.249920
-0.322045
-0.389466
-0.441834
-0.467545
-0.454997
-0.394466
-0.286895
-0.160821
-0.030356
0.078156
0.157189
0.223992
0.295499
0.391466
0.520363
0.679052
0.853735
1.045040
1.236344
1.420435
1.609858
1.803671
2.006265
2.187848
2.341519
2.484528
2.634436
2.798457
2.939271
3.030221
3.080089
3.099223
3.070689
3.007972
2.931770
2.851491
2.792224
2.768708
2.782197
2.802273
2.785656
2.696596
2.522862
2.268846
1.944894
1.593346
1.256223
0.961438
0.705853
0.490723
0.309463
0.148587
0.000256
-0.143372
-0.269751
-0.381390
-0.474527
-0.578326
-0.711918
-0.883770
-1.045587
-1.143428
-1.210849
-1.264157
-1.331265
-1.428478
-1.539177
-1.650817
-1.751794
-1.827055
-1.860293
-1.860916
-1.834255
-1.816375
-1.831737
-1.876892
-1.951526
-2.033373
-2.138427
-2.300871
-2.562414
-2.921803
-3.347989
-3.818081
-4.292250
-4.746034
-5.150895
-5.496172
-5.772768
-5.965005
-6.070686
-6.088870
-6.005133
-5.831704
-5.607471
-5.348742
-5.063042
-4.749431
-4.407909
-4.039104
-3.638624
-3.216192
-2.800345
-2.423386
-2.068379
-1.718704
-1.380318
-1.053849
-0.745256
-0.455793
-0.209294
-0.001369
0.164847
0.294057
0.421072
0.556555
0.686079
0.800863
0.926310
1.067751
1.218600
1.359413
1.479843
1.563894
1.614075
1.663629
1.710361
1.769637
1.851806
1.951537
2.069144
2.199922
2.324742
2.407225
2.462110
2.505079
2.527663
2.542720
2.512305
2.450842
2.371504
2.266764
2.152929
2.039095
1.956620
1.903939
1.875091
1.887326
1.924023
1.989885
2.107805
2.263672
2.437414
2.619624
2.816259
3.031711
3.281346
3.545094
3.811350
4.062553
4.282082
4.461783
4.604478
4.699505
4.712367
4.655609
4.535502
4.368041
4.183644
3.974160
3.762793
3.589373
3.455154
3.391496
3.375193
3.393073
3.432592
3.470856
3.527937
3.610733
3.716737
3.837480
3.984879
4.174615
4.382227
4.592034
4.807486
5.024193
5.232745
5.431576
5.608141
5.746446
5.813562
5.792555
5.712903
5.581820
5.396483
5.142779
4.823219
4.424629
3.959242
3.449636
2.904906
2.330069
1.752097
1.215521
0.747624
0.386981
0.105994
-0.106940
-0.233319
-0.281924
-0.247109
-0.145810
0.028873
0.278195
0.579889
0.927369
1.295547
1.681915
2.052288
2.398828
2.705853
2.943257
3.105396
3.166240
3.123280
2.950801
2.640335
2.186551
1.609520
0.945306
0.216175
-0.510760
-1.193791
-1.804378
-2.306771
-2.729195
-3.092974
-3.372079
-3.573410
-3.721428
-3.832754
-3.914601
-3.968537
-3.988917
-3.956925
-3.865034
-3.715126
-3.514100
-3.283281
-3.044308
-2.817880
-2.582985
-2.333036
-2.062389
-1.762263
-1.460883
-1.155740
-0.848401
-0.517228
-0.166926
0.191531
0.558141
0.915657
1.253729
1.572357
1.914193
2.290839
2.714525
3.170827
3.621170
4.024786
4.340906
4.577997
4.728846
4.795335
4.813528
4.802556
4.750188
4.639803
4.465442
4.231496
3.979361
3.722522
3.474463
3.251494
3.034169
2.816530
2.585720
2.356165
2.130372
1.953816
1.850958
1.771620
1.693850
1.602595
1.509771
1.416635
1.327888
1.228793
1.124680
1.025585
0.920531
0.833039
0.772518
0.755901
0.775349
0.826471
0.907699
1.011507
1.126919
1.242644
1.358056
1.454964
1.522394
1.555327
1.593592
1.647536
1.693641
1.719674
1.721560
1.714665
1.679860
1.620592
1.555053
1.496099
1.457530
1.460043
1.514301
1.611210
1.760491
1.964340
2.224010
2.528527
2.838060
3.140381
3.413223
3.641847
3.808063
3.904344
3.898390
3.769189
3.568171
3.319172
3.047593
2.776014
2.532974
2.308436
2.092052
1.895111
1.711342
1.538236
1.385514
1.250981
1.086969
0.882502
0.641030
0.355339
0.027624
-0.336155
-0.708088
-1.080021
-1.445054
-1.786254
-2.081667
-2.315613
-2.480252
-2.563039
-2.585301
-2.524143
-2.382389
-2.182617
-1.932982
-1.659199
-1.365346
-1.089995
-0.853531
-0.694215
-0.596052
-0.536149
-0.533322
-0.557465
-0.602934
-0.677568
-0.775408
-0.875758
-0.993043
-1.128830
-1.257091
-1.378138
-1.506085
-1.618666
-1.698317
-1.741277
-1.736882
-1.674157
-1.547142
-1.376222
-1.178018
-0.962566
-0.750250
-0.536680
-0.326559
-0.130237
0.048836
0.204076
0.360570
0.518946
0.686416
0.857022
1.033273
1.222069
1.409610
1.597151
1.790650
1.993244
2.199288
2.409409
2.594441
2.747172
2.851921
2.892694
2.870432
2.799561
2.696076
2.563111
2.400040
2.220661
2.036265
1.845910
1.654615
1.493739
1.414401
1.406565
1.458315
1.593483
1.802036
2.061079
2.365282
2.666976
2.929782
3.112306
3.212037
3.257514
3.242779
3.167831
3.007896
2.765797
2.434633
2.039179
1.651880
1.310680
1.033143
0.823972
0.691634
0.646479
0.685371
0.799841
0.982992
1.222278
1.508292
1.800891
2.045822
2.265664
2.471394
2.633847
2.745495
2.817629
2.833314
2.788159
2.693454
2.551395
2.370762
2.135561
1.845793
1.508043
1.150223
0.787071
0.437404
0.142618
-0.090387
-0.245304
-0.340950
-0.406489
-0.452585
-0.493977
-0.523451
-0.556062
-0.586477
-0.589923
-0.540996
-0.419312
-0.242434
-0.030431
0.198506
0.450022
0.706870
0.947097
1.126798
1.252872
1.367970
1.441045
1.476487
1.470219
1.412833
1.308721
1.156312
0.964076
0.737656
0.507787
0.276977
0.030487
-0.222589
-0.468766
-0.706789
-0.932268
-1.143947
-1.357509
-1.562917
-1.746686
-1.879964
-1.950208
-1.980937
-1.982501
-1.949881
-1.870221
-1.771430
-1.659155
-1.552524
-1.453420
-1.345849
-1.227929
-1.084292
-0.936893
-0.807056
-0.722378
-0.663415
-0.599435
-0.523852
-0.436351
-0.359827
-0.278598
-0.191098
-0.097325
-0.001357
0.104960
0.243578
0.414185
0.630577
0.867668
1.083747
1.262821
1.405203
1.482041
1.507447
1.517487
1.517805
1.526904
1.528163
1.533498
1.538207
1.545110
1.583688
1.659272
1.764962
1.857166
1.929614
1.983245
2.029663
2.078903
2.130653
2.181462
2.218158
2.230706
2.196214
2.116876
2.003355
1.873526
1.734916
1.581567
1.424141
1.251976
1.079183
0.915171
0.765585
0.638579
0.510632
0.386134
0.266341
0.177595
0.109860
0.050593
-0.014319
-0.088326
-0.177386
-0.299374
-0.434848
-0.604191
-0.799564
-1.014380
-1.242681
-1.463455
-1.658828
-1.824721
-1.965213
-2.069325
-2.147409
-2.197895
-2.224861
-2.224230
-2.204782
-2.179689
-2.117590
-2.039184
-1.954193
-1.856970
-1.735914
-1.590083
-1.442056
-1.305633
-1.198689
-1.104289
-1.028705
-0.935873
-0.828302
-0.715399
-0.596538
-0.480499
-0.346585
-0.225529
-0.103531
0.019720
0.128546
0.202562
0.212288
0.175914
0.096576
-0.027608
-0.192247
-0.384170
-0.605885
-0.854884
-1.091026
-1.310232
-1.491806
-1.616931
-1.680275
-1.692187
-1.657373
-1.565482
-1.433449
-1.253748
-1.041432
-0.804028
-0.558783
-0.314793
-0.081779
0.114543
0.274487
0.372023
0.406524
0.379558
0.296457
0.176977
0.030527
-0.125645
-0.298437
-0.486597
-0.689182
-0.897099
-1.093726
-1.259619
-1.388821
-1.485721
-1.534953
-1.550942
-1.530240
-1.481313
-1.418901
-1.357430
-1.313520
-1.286546
-1.281210
-1.282460
-1.284024
-1.272103
-1.264258
-1.264881
-1.259545
-1.251701
-1.217513
-1.162001
-1.085476
-0.990135
-0.872529
-0.729520
-0.571458
-0.398656
-0.226168
-0.055249
0.076157
0.150800
0.168366
0.112235
-0.014458
-0.209830
-0.429978
-0.668314
-0.915432
-1.160040
-1.398691
-1.612879
-1.793512
-1.919264
-2.001738
-2.045325
-2.062256
-2.078872
-2.109288
-2.165733
-2.262633
-2.390580
-2.523231
-2.650237
-2.767835
-2.869126
-2.956304
-3.015885
-3.038460
-3.026225
-2.981375
-2.928685
-2.872231
-2.812642
-2.748348
-2.690013
-2.638577
-2.569893
-2.483647
-2.395833
-2.323699
-2.281044
-2.256892
-2.230231
-2.190712
-2.142412
-2.093485
-2.037973
-1.974933
-1.905936
-1.831607
-1.737207
-1.607056
-1.432059
-1.192459
-0.887629
-0.526664
-0.143746
0.234154
0.597001
0.932564
1.260601
1.567626
1.845172
2.089476
2.301165
2.488078
2.638300
2.748380
2.817065
2.877281
2.925268
2.958514
2.989566
3.046646
3.153904
3.308516
3.513306
3.755414
4.012890
4.249040
4.439403
4.558578
4.611895
4.610645
4.547301
4.439425
4.276981
4.062479
3.834491
3.580161
3.307641
3.052056
2.808388
2.595454
2.426738
2.274330
2.120980
1.957909
1.788566
1.603229
1.400644
1.213425
1.026520
0.849650
0.681562
0.502810
0.342248
0.204893
0.088549
-0.016818
-0.105878
-0.175180
-0.249501
-0.352046
-0.472153
-0.591005
-0.712367
-0.808326
-0.882332
-0.933446
-0.991145
-1.063898
-1.139472
-1.220378
-1.289367
-1.348948
-1.378423
-1.393158
-1.380609
-1.367434
-1.365234
-1.361153
-1.363344
-1.348286
-1.328838
-1.278970
-1.180807
-1.028704
-0.836145
-0.625397
-0.387679
-0.157488
0.041657
0.191565
0.305409
0.408589
0.497972
0.587667
0.665133
0.744793
0.826335
0.924812
1.061549
1.233096
1.447293
1.678426
1.914576
2.139749
2.344852
2.497269
2.576930
2.595751
2.538679
2.409791
2.226962
2.011206
1.784786
1.564325
1.351391
1.137829
0.915800
0.672759
0.424701
0.191696
-0.019357
-0.196540
-0.321978
-0.383754
-0.399744
-0.387509
-0.361789
-0.313489
-0.233202
-0.104932
0.092331
0.333498
0.597559
0.866638
1.134462
1.371553
1.565366
1.704925
1.797130
1.848566
1.844807
1.813137
1.736308
1.620278
1.474142
1.303231
1.109426
0.902137
0.718054
0.568782
0.467178
0.398189
0.354288
0.349275
0.387225
0.472531
0.608327
0.794927
0.993130
1.174713
1.338106
1.473275
1.593077
1.689045
1.755848
1.793171
1.812933
1.821091
1.816077
1.806987
1.785039
1.764973
1.743338
1.722331
1.688466
1.634843
1.579026
1.521954
1.484012
1.469590
1.478062
1.500019
1.537029
1.591601
1.675338
1.765975
1.831523
1.883272
1.917773
1.946943
1.980190
2.032880
2.090901
2.133243
2.155513
2.162730
2.170888
2.173088
2.169956
2.146127
2.100344
2.032923
1.923479
1.799609
1.671348
1.549673
1.433330
1.314791
1.189980
1.052938
0.912133
0.757530
0.591323
0.402849
0.212808
0.045347
-0.074133
-0.148767
-0.187963
-0.176355
-0.140600
-0.065957
0.054472
0.221315
0.427045
0.648456
0.874257
1.069638
1.243694
1.393916
1.519049
1.621916
1.698441
1.759285
1.767756
1.742986
1.695636
1.632291
1.565498
1.500272
1.453862
1.391145
1.295813
1.172257
1.021730
0.843920
0.670186
0.504920
0.353139
0.214529
0.070274
-0.082761
-0.251791
-0.420820
-0.599258
-0.799334
-1.025127
-1.244333
-1.451936
-1.636019
-1.763966
-1.830133
-1.811312
-1.707817
-1.519022
-1.271896
-1.002190
-0.718372
-0.452743
-0.230391
-0.066057
0.049668
0.125879
0.152540
0.151917
0.130909
0.103630
0.063493
0.022728
-0.005805
-0.017718
-0.007678
-0.005479
-0.006102
-0.025854
-0.060974
-0.090762
-0.106125
-0.101416
-0.079459
-0.045586
-0.028019
-0.024565
-0.034596
-0.065012
-0.120829
-0.210203
-0.306162
-0.409334
-0.529127
-0.670246
-0.821713
-0.982276
-1.146287
-1.292110
-1.405945
-1.469603
-1.515385
-1.558031
-1.625452
-1.709494
-1.795418
-1.880714
-1.970402
-2.064479
-2.138172
-2.206848
-2.265488
-2.310956
-2.335100
-2.335409
-2.317529
-2.267034
-2.170125
-2.012063
-1.790966
-1.514988
-1.205454
-0.894980
-0.587641
-0.289710
0.000066
0.263500
0.470798
0.593423
0.663989
0.726714
0.748985
0.731741
0.684704
0.628573
0.557702
0.482127
0.387736
0.270138
0.139682
-0.012413
-0.165135
-0.326324
-0.485004
-0.640235
-0.782295
-0.901147
-1.003065
-1.076131
-1.149197
-1.226967
-1.297524
-1.360241
-1.400064
-1.416995
-1.391902
-1.342034
-1.273036
-1.202784
-1.152289
-1.103362
-1.054749
-0.994532
-0.919889
-0.829566
-0.732971
-0.624145
-0.514065
-0.409003
-0.313035
-0.245291
-0.213926
-0.221448
-0.265035
-0.357859
-0.483924
-0.641350
-0.832646
-1.033349
-1.234680
-1.425349
-1.613195
-1.782851
-1.933064
-2.078260
-2.206207
-2.301853
-2.351712
-2.348258
-2.285532
-2.204617
-2.125898
-2.052509
-1.971594
-1.864964
-1.720387
-1.520615
-1.291051
-1.047374
-0.799307
-0.551240
-0.315090
-0.098070
0.096370
0.232166
0.295205
0.284547
0.198310
0.042452
-0.165779
-0.389689
-0.614541
-0.826848
-1.034765
-1.244877
-1.463142
-1.707124
-1.980271
-2.273488
-2.573292
-2.889403
-3.207395
-3.515039
-3.817037
-4.116214
-4.411627
-4.698572
-4.985518
-5.265250
-5.531184
-5.777674
-5.992177
-6.162461
-6.267201
-6.287895
-6.217015
-6.073693
-5.882388
-5.674149
-5.460579
-5.247636
-5.040965
-4.830844
-4.619783
-4.406212
-4.199855
-4.001338
-3.828223
-3.690545
-3.570429
-3.464426
-3.356541
-3.236112
-3.090594
-2.916852
-2.703595
-2.437339
-2.125296
-1.769976
-1.394584
-1.020761
-0.650074
-0.265588
0.124543
0.515928
0.917662
1.326296
1.745592
2.155794
2.553137
2.916298
3.227713
3.497419
3.714753
3.883791
4.002652
4.080745
4.129672
4.156333
4.158219
4.118395
4.044388
3.924281
3.777518
3.615074
3.459216
3.324370
3.209594
3.122102
3.033670
2.948373
2.849591
2.735443
2.613454
2.493661
2.381394
2.282613
2.205783
2.144007
2.096344
2.053070
2.014501
1.978441
1.923564
1.865237
1.800012
1.740744
1.703116
1.664547
1.636640
1.589290
1.516224
1.422146
1.326501
1.228974
1.104790
0.964298
0.797464
0.610245
0.416441
0.224205
0.052039
-0.088766
-0.206678
-0.300755
-0.389188
-0.473857
-0.539710
-0.598037
-0.637860
-0.678938
-0.729425
-0.804686
-0.926361
-1.080337
-1.269124
-1.456970
-1.628194
-1.785621
-1.942419
-2.080088
-2.214621
-2.351663
-2.468634
-2.592817
-2.707279
-2.847457
-3.003315
-3.169836
-3.361759
-3.573439
-3.810207
-4.053875
-4.306010
-4.556577
-4.813103
-5.078723
-5.341208
-5.596165
-5.836697
-6.064371
-6.277619
-6.479577
-6.662719
-6.802897
-6.883175
-6.891639
-6.822641
-6.677123
-6.476724
-6.225835
-5.934490
-5.611157
-5.262736
-4.904907
-4.534847
-4.150988
-3.763053
-3.384525
-3.014465
-2.660713
-2.319505
-1.974847
-1.626739
-1.277064
-0.938051
-0.612523
-0.315847
-0.050845
0.175897
0.357793
0.499234
0.599906
0.666708
0.703718
0.721912
0.693064
0.613099
0.496442
0.351873
0.194134
0.016010
-0.170268
-0.354037
-0.529966
-0.676730
-0.794328
-0.898127
-0.989382
-1.069975
-1.159662
-1.253426
-1.368828
-1.503675
-1.634758
-1.773054
-1.897551
-2.029575
-2.144351
-2.250659
-2.338778
-2.374839
-2.390828
-2.355073
-2.301128
-2.267568
-2.265368
-2.298292
-2.351601
-2.411182
-2.469195
-2.536302
-2.618776
-2.714736
-2.805677
-2.897559
-2.991323
-3.089478
-3.200177
-3.321224
-3.466733
-3.626668
-3.798207
-3.982603
-4.178289
-4.374602
-4.550531
-4.691650
-4.781337
-4.813634
-4.790423
-4.739928
-4.661835
-4.551755
-4.416586
-4.257270
-4.077569
-3.853022
-3.593038
-3.309534
-3.032928
-2.793015
-2.592303
-2.437690
-2.308794
-2.203731
-2.108704
-2.017127
-1.936212
-1.879758
-1.841180
-1.771242
-1.661161
-1.498709
-1.295174
-1.070000
-0.848903
-0.645682
-0.457200
-0.280322
-0.097485
0.081589
0.260662
0.430014
0.597171
0.763073
0.920821
1.078883
1.229732
1.390617
1.564359
1.743747
1.925329
2.102521
2.287553
2.478544
2.664517
2.811916
2.910707
2.959634
2.951798
2.891276
2.768660
2.613430
2.422134
2.208572
1.986230
1.760751
1.540290
1.317320
1.107522
0.908386
0.719913
0.551197
0.392830
0.221292
0.040659
-0.167258
-0.378624
-0.593127
-0.796339
-0.944984
-1.058819
-1.130944
-1.177354
-1.213414
-1.242261
-1.279890
-1.315950
-1.362987
-1.416923
-1.458314
-1.485594
-1.455483
-1.365474
-1.233127
-1.067225
-0.875294
-0.662664
-0.433727
-0.200713
0.040768
0.299498
0.552896
0.810685
1.067219
1.307446
1.520389
1.705108
1.868188
1.988303
2.065455
2.113755
2.118777
2.083344
2.016863
1.932821
1.831531
1.727104
1.612328
1.467447
1.300612
1.103045
0.887601
0.660868
0.438212
0.228727
0.026769
-0.172053
-0.369621
-0.570952
-0.775419
-0.979572
-1.184666
-1.373453
-1.552518
-1.725624
-1.893086
-2.039849
-2.157447
-2.241803
-2.268769
-2.243362
-2.166211
-2.063030
-1.950127
-1.830325
-1.711778
-1.601697
-1.503848
-1.408821
-1.328533
-1.250441
-1.178307
-1.107114
-1.036235
-0.976018
-0.914233
-0.847430
-0.757107
-0.634483
-0.472658
-0.275708
-0.063392
0.159272
0.386955
0.619028
0.849533
1.074394
1.283573
1.448221
1.555479
1.592175
1.574304
1.530090
1.490266
1.472395
1.478044
1.502196
1.544538
1.613535
1.691628
1.791359
1.911788
2.057933
2.229480
2.428311
2.657875
2.897789
3.141779
3.351586
3.509334
3.603734
3.643880
3.629459
3.555452
3.431582
3.267570
3.087878
2.883724
2.676121
2.467264
2.243980
2.008780
1.764485
1.525835
1.293457
1.070487
0.865079
0.675038
0.488133
0.309068
0.137216
-0.024601
-0.171051
-0.289903
-0.380845
-0.462064
-0.517568
-0.576208
-0.653665
-0.729553
-0.805442
-0.842756
-0.840243
-0.787867
-0.682490
-0.534777
-0.354763
-0.184157
-0.010728
0.150157
0.282816
0.388506
0.455309
0.496395
0.527760
0.569161
0.623106
0.695239
0.775213
0.848288
0.907878
0.943320
0.951791
0.936429
0.909777
0.864308
0.802218
0.713786
0.600265
0.477335
0.334335
0.177536
0.007252
-0.166168
-0.336138
-0.484469
-0.595482
-0.667921
-0.698963
-0.704604
-0.682961
-0.651282
-0.622112
-0.602664
-0.589802
-0.572863
-0.561255
-0.540239
-0.517341
-0.498521
-0.490363
-0.469660
-0.420733
-0.366475
-0.308767
-0.262663
-0.223457
-0.193660
-0.175780
-0.160096
-0.131553
-0.088585
-0.039344
0.024322
0.098338
0.191797
0.303445
0.438927
0.574723
0.692330
0.816836
0.953259
1.089369
1.240845
1.415842
1.578608
1.733220
1.872466
1.977842
2.060639
2.114897
2.142185
2.129018
2.076964
2.017069
1.941181
1.841772
1.722919
1.595600
1.449463
1.300818
1.166913
1.037398
0.921681
0.827604
0.766455
0.706247
0.644784
0.581440
0.504297
0.426527
0.345621
0.265656
0.155584
0.035791
-0.085884
-0.235783
-0.399795
-0.574783
-0.761688
-0.952357
-1.130167
-1.306096
-1.465717
-1.618753
-1.774297
-1.923256
-2.068138
-2.195458
-2.321837
-2.440376
-2.555465
-2.672436
-2.802892
-2.952791
-3.106140
-3.275797
-3.462389
-3.642708
-3.781004
-3.887312
-3.971354
-4.013373
-4.022150
-3.996116
-3.923355
-3.800103
-3.654586
-3.487429
-3.295811
-3.093844
-2.873375
-2.666704
-2.465050
-2.259320
-2.060176
-1.882043
-1.723040
-1.590067
-1.490649
-1.389036
-1.308748
-1.257626
-1.224693
-1.206500
-1.215904
-1.252277
-1.296178
-1.351996
-1.404677
-1.468335
-1.549555
-1.652100
-1.773461
-1.892000
-2.012734
-2.112770
-2.194930
-2.265174
-2.335417
-2.411306
-2.493780
-2.589426
-2.692598
-2.825562
-2.950373
-3.054173
-3.168008
-3.266789
-3.350518
-3.437696
-3.488182
-3.497586
-3.447091
-3.378407
-3.359900
-3.325712
-3.259537
-3.172350
-3.051921
-2.901699
-2.720117
-2.508114
-2.263810
-1.998181
-1.725967
-1.428663
-1.115053
-0.795797
-0.462743
-0.124043
0.193645
0.477149
0.733370
0.961366
1.148594
1.274668
1.357778
1.410782
1.442460
1.442151
1.417694
1.396060
1.373484
1.356240
1.331470
1.291646
1.249941
1.232697
1.217648
1.187546
1.177515
1.181283
1.175329
1.159025
1.155267
1.146804
1.115761
1.071233
1.004753
0.931060
0.840432
0.732242
0.646945
0.565726
0.466317
0.356245
0.238961
0.120422
-0.010348
-0.148644
-0.279413
-0.421472
-0.571058
-0.717822
-0.869917
-0.993160
-1.097586
-1.199190
-1.269434
-1.317098
-1.359744
-1.379183
-1.376670
-1.381997
-1.395477
-1.433106
-1.504290
-1.588646
-1.678333
-1.767706
-1.861470
-1.953039
-2.048371
-2.132413
-2.208615
-2.282622
-2.331227
-2.387985
-2.451956
-2.506206
-2.541326
-2.546025
-2.515287
