EVENT_NAME: 202302060117
EVENT_ID: 13194
EVENT_DATE_YYYYMMDD: 2023/02/06
EVENT_TIME_HHMMSS: 01:17:32.00000
EVENT_LATITUDE_DEGREE: 37.288
EVENT_LONGITUDE_DEGREE: 37.043
EVENT_DEPTH_KM: 8.6
HYPOCENTER_REFERENCE: AFAD
MAGNITUDE_W: 7.7
MAGNITUDE_W_REFERENCE: AFAD
MAGNITUDE_L: 
MAGNITUDE_L_REFERENCE: 
FOCAL_MECHANISM: 
NETWORK: TK
STATION_CODE: 2513
STATION_NAME: 
STATION_LATITUDE_DEGREE: 39.36241
STATION_LONGITUDE_DEGREE: 41.70601
STATION_ELEVATION_M: 1728.0
LOCATION: Kahramanmaras_Pazarck_Turkiye
SENSOR_DEPTH_M: 
VS30_M/S: 303
SITE_CLASSIFICATION_EC8: C
MORPHOLOGIC_CLASSIFICATION: 
EPICENTRAL_DISTANCE_KM: 467.52
EARTHQUAKE_BACKAZIMUTH_DEGREE: 
DATE_TIME_FIRST_SAMPLE_YYYYMMDD_HHMMSS: 2023/02/06 01:18:11.3075900
DATE_TIME_FIRST_SAMPLE_PRECISION: millisecond
SAMPLING_INTERVAL_S: 0.01
NDATA: 24501
DURATION_S: 
STREAM: HNZ
UNITS: cm/s^2
INSTRUMENT: sensor = GMS+/GEOSIG | digitizer = 
INSTRUMENT_ANALOG/DIGITAL: 
INSTRUMENTAL_FREQUENCY_HZ: 
INSTRUMENTAL_DAMPING: 
FULL_SCALE_G: 
N_BIT_DIGITAL_CONVERTER: 
PGA_CM/S^2: 3.447
TIME_PGA_S: 
BASELINE_CORRECTION: BASELINE REMOVED
FILTER_TYPE: BUTTERWORTH
FILTER_ORDER: 
LOW_CUT_FREQUENCY_HZ: 
HIGH_CUT_FREQUENCY_HZ: 
LATE/NORMAL_TRIGGERED: 
DATABASE_VERSION: 
HEADER_FORMAT: DYNA 1.2
DATA_TYPE: Acceleration
PROCESSING: Automatic Paolucci et al., 2011
DATA_TIMESTAMP_YYYYMMDD_HHMMSS: 
DATA_LICENSE: U (unknown license)
DATA_CITATION: Turkish Accelerometric Archive v 1.0 - Disaster And Emergency Management Presidency, Earthquake Department
DATA_CREATOR: AFAD
ORIGINAL_DATA_MEDIATOR_CITATION: : AFAD - Disaster And Emergency Management Presidency
ORIGINAL_DATA_MEDIATOR: AFAD PROCESS SERVICE
ORIGINAL_DATA_CREATOR_CITATION: AFAD PROCESS SERVICE
ORIGINAL_DATA_CREATOR: network: TK
USER1: GuestUser
USER2: 
USER3: 
USER4: 
USER5: 
[...]
0.799697
0.891395
0.830090
0.709817
0.748782
0.806970
0.637861
0.469272
0.394199
0.203009
0.052084
0.032601
-0.054941
-0.094685
0.028704
-0.056500
-0.273926
-0.156251
-0.010002
-0.155732
-0.453426
-0.616560
-0.469792
-0.284318
-0.261978
-0.457843
-0.757615
-1.010370
-1.057128
-0.784372
-0.546944
-0.541489
-0.683582
-0.802296
-0.610588
-0.134433
0.158325
-0.033384
-0.417061
-0.753461
-1.037128
-1.198184
-1.152984
-0.905685
-0.834249
-1.112721
-1.381841
-1.477435
-1.388595
-1.112721
-0.861786
-0.811131
-0.748267
-0.384593
0.166115
0.717602
1.209343
1.527039
1.621594
1.650688
1.685237
1.534572
1.243891
1.004645
0.827223
0.790596
0.918661
1.190638
1.603409
1.858501
1.780051
1.641335
1.498202
1.307013
1.155828
0.869564
0.550828
0.516279
0.705909
0.985420
1.312987
1.543401
1.541842
1.562623
1.683415
1.668348
1.517943
1.357926
1.286229
1.309089
1.486250
1.652761
1.663412
1.581325
1.402864
1.347014
1.414294
1.554049
1.824987
1.842391
1.264407
0.540434
0.332359
0.552123
0.724609
0.550824
0.341711
0.550044
0.964114
1.075035
0.864363
0.884625
1.116857
1.201282
1.067761
0.574981
0.018558
-0.136524
0.235464
0.889040
1.099192
0.747985
0.486659
0.545366
0.593423
0.578616
0.665638
0.697070
0.785391
0.965670
0.808250
0.452368
0.226889
-0.003265
-0.056258
0.157011
0.092589
-0.105615
-0.058337
-0.303038
-0.940509
-1.272233
-0.742826
0.470810
1.432210
1.343889
0.521983
0.009721
-0.067430
0.109212
0.494447
0.810845
1.066196
1.270374
1.494034
1.573003
1.471953
1.374020
1.334536
1.489097
1.657946
1.802377
2.001619
2.072276
1.698210
1.067753
0.722261
0.668749
1.028008
1.697430
2.010710
1.850173
1.676128
1.633007
1.478964
1.221274
0.940984
0.520940
-0.165108
-0.855051
-0.969349
-0.688540
-0.629054
-0.548526
-0.139132
0.253118
0.427941
0.329229
-0.106142
-0.680489
-1.025201
-0.976625
-0.885966
-1.140019
-1.666828
-2.050506
-2.001670
-1.582664
-1.036372
-0.650098
-0.487743
-0.523071
-0.746991
-1.182882
-1.759567
-1.949458
-1.521100
-1.063390
-0.928570
-0.872460
-0.827261
-0.842068
-0.968835
-1.189378
-1.202107
-0.980005
-0.953249
-1.259776
-1.357968
-0.971174
-0.543336
-0.548272
-0.903894
-1.260296
-1.643454
-1.832565
-1.477203
-1.081057
-1.368100
-2.135715
-2.391846
-1.743985
-0.767258
-0.242267
-0.391374
-0.676340
-0.777130
-0.683094
-0.498659
-0.419689
-0.330589
-0.238891
-0.226942
-0.335266
-0.581266
-0.811940
-0.804667
-0.400728
0.065036
0.263499
0.101144
-0.412418
-1.007027
-1.470193
-1.559294
-1.205230
-0.656860
-0.304095
-0.328254
-0.333450
-0.077578
0.148160
0.191021
0.153874
0.072567
-0.009000
0.070748
0.447931
0.868755
0.993703
0.852909
0.611325
0.312851
-0.076022
-0.371638
-0.498664
-0.711414
-0.915592
-0.715831
-0.387744
-0.377354
-0.378133
-0.321244
-0.394758
-0.259420
0.220372
0.511312
0.207643
-0.265135
-0.465676
-0.543607
-0.691934
-0.783113
-0.581533
-0.302802
-0.218897
-0.432946
-0.956119
-1.330964
-1.370969
-1.252515
-1.219005
-1.434612
-1.489424
-1.312002
-1.272777
-1.401882
-1.505010
-1.558523
-1.638271
-1.412793
-0.847538
-0.461783
-0.420740
-0.595044
-0.762854
-0.611410
-0.195262
0.084248
0.088924
-0.177338
-0.700511
-1.131206
-1.095878
-0.660507
-0.143569
0.224262
0.213871
-0.004594
-0.061483
0.015668
0.043982
-0.264362
-0.732464
-0.940798
-0.833774
-0.346709
0.403240
0.923296
0.805361
0.172306
-0.598945
-1.175630
-1.158485
-0.693501
-0.322033
-0.229556
-0.459191
-0.633235
-0.447501
-0.013170
0.441424
0.482467
0.241922
0.032029
-0.137859
-0.271899
-0.086425
0.591049
1.001483
0.806916
0.406094
0.059564
-0.285668
-0.831700
-1.274865
-1.352535
-1.059517
-0.533747
-0.066165
-0.000184
-0.568557
-1.119784
-1.175115
-0.930933
-0.383083
0.076706
-0.005900
-0.307491
-0.438154
-0.524397
-0.782607
-1.169401
-1.399816
-1.139009
-0.544920
-0.172413
-0.206962
-0.288010
-0.275541
-0.352692
-0.523100
-0.748059
-0.949639
-1.055365
-0.839498
-0.389840
-0.320742
-0.813262
-1.324745
-1.121867
-0.385944
0.209703
0.482200
0.751319
1.179417
1.164350
0.571559
-0.001489
-0.066431
0.303998
0.585846
0.563506
0.310492
0.016434
-0.227488
-0.408287
-0.604152
-0.864180
-0.885221
-0.637402
-0.269052
0.119561
0.200349
-0.120465
-0.524404
-0.716892
-0.800538
-0.984454
-0.973544
-0.326202
0.555190
0.730793
0.010976
-0.832490
-1.169409
-1.273836
-1.295397
-1.035629
-0.843921
-1.090181
-1.585559
-1.795451
-1.621147
-1.487107
-1.429179
-1.263447
-1.096676
-0.981599
-0.758199
-0.392446
-0.258146
-0.603638
-1.079792
-1.452040
-1.403983
-0.910944
-0.607795
-0.510901
-0.543113
-0.684427
-0.876395
-1.184220
-1.401646
-1.306831
-0.754305
-0.509604
-0.833794
-0.998227
-1.029660
-1.136684
-1.585563
-2.153416
-2.120166
-1.735709
-1.699342
-1.788183
-1.545300
-1.199809
-1.040571
-1.285273
-1.792859
-2.126661
-2.189006
-1.855464
-1.092266
-0.416350
-0.238929
-0.446224
-0.953031
-1.477762
-1.524521
-1.278261
-1.015895
-0.625464
-0.618711
-1.200331
-1.466853
-1.036418
-0.325433
0.164749
0.223456
-0.028519
-0.343098
-0.537924
-0.678978
-0.613257
-0.181783
0.464260
0.946649
0.865601
0.633888
0.745068
0.897812
0.987432
1.112899
1.075233
0.881706
0.947167
1.370589
1.793491
1.988836
2.075079
2.378747
2.592796
2.421349
2.073519
1.685686
1.589572
1.865185
2.238471
2.455637
2.515903
2.416932
2.326792
2.560583
2.610198
2.125471
1.613988
1.567230
1.968052
2.400565
2.520318
2.423684
2.273018
2.014289
1.757898
1.641782
1.742572
1.771146
1.399678
1.087437
1.040159
1.099905
1.340970
1.491375
1.392923
1.144065
0.599072
-0.110095
-0.458184
-0.500526
-0.640282
-0.635866
-0.447274
-0.508060
-0.645218
-0.449353
0.063689
0.652582
0.947159
0.949497
0.780907
0.087587
-0.981359
-1.538041
-1.371790
-0.993308
-0.272712
0.758826
1.285635
1.093147
0.596730
0.216690
0.360081
0.703494
0.643488
0.782723
1.349017
1.588263
1.494487
1.380968
1.252123
1.074442
0.971054
1.086391
1.335508
1.409022
1.328494
1.381227
1.377590
1.150553
0.806360
0.529707
0.481130
0.603481
0.502691
-0.058148
-0.587815
-0.563138
-0.110102
0.176421
0.312799
0.685826
1.205362
1.628523
1.731391
1.441750
1.059371
1.153407
1.600208
1.886472
1.958428
1.945439
1.957388
1.791916
1.443307
1.169512
0.939357
0.965074
1.364077
1.612935
1.592413
1.639171
1.816073
2.128054
2.367560
2.210920
1.867247
1.763339
1.645664
1.108724
0.541910
0.291494
0.257984
0.431768
0.574381
0.579056
0.579576
0.323704
-0.201807
-0.613799
-0.646789
-0.335847
0.291492
0.957797
1.132880
1.052871
0.800117
0.177973
-0.368579
-0.446250
-0.331173
-0.238696
0.123421
0.340327
-0.014516
-0.326238
-0.296105
-0.538988
-1.227633
-1.598842
-1.343490
-0.800315
-0.558731
-0.660561
-0.593541
-0.596918
-0.523663
0.131731
0.873368
1.028450
0.647110
0.218753
-0.007246
0.185762
0.619834
0.859599
1.093650
1.304322
1.066115
0.580348
0.566321
0.932853
1.043774
0.947140
0.647627
0.091464
-0.002832
0.430721
0.805306
1.130795
1.452128
1.773980
2.060764
2.088559
1.622795
0.868169
0.356426
0.442928
1.176773
1.805151
1.861521
1.898667
2.041539
1.777615
1.293667
1.070267
0.837774
0.330967
-0.235587
-0.535879
-0.394046
0.003139
0.217967
0.241346
0.076134
-0.413789
-0.944495
-1.355448
-1.616255
-1.642232
-1.286350
-1.078536
-1.125814
-0.535102
-0.062324
-0.532245
-1.141401
-1.155168
-0.820847
-0.687067
-0.598746
-0.419506
-0.238968
-0.326250
-0.707589
-0.898519
-0.878777
-0.700057
-0.502893
-0.667846
-1.051003
-1.235179
-1.176212
-1.285574
-1.543784
-1.687955
-2.114494
-2.748848
-2.744692
-2.000197
-1.419875
-1.341945
-1.247909
-1.007364
-0.907094
-1.218816
-1.804333
-2.579740
-3.205002
-2.996408
-2.557401
-2.367251
-2.015785
-1.443516
-1.035421
-1.104260
-1.200114
-1.088154
-1.023732
-1.131536
-1.158812
-0.880860
-0.772797
-0.847350
-0.663435
-0.308592
-0.097920
-0.035057
0.064694
0.201851
0.244453
-0.014795
-0.378471
-0.566023
-0.641876
-0.357430
0.383168
1.080905
1.312098
1.109219
0.742946
0.542145
0.646572
0.669431
0.379790
-0.032202
-0.203129
0.059496
0.431223
0.592539
0.587344
0.614619
0.574355
0.575134
0.639037
0.601890
0.841656
1.118308
0.978033
0.637997
0.566041
1.012582
1.504582
1.517311
0.963226
0.373293
0.311987
0.306532
-0.098706
-0.618762
-0.912559
-0.776441
-0.339512
0.076377
0.133266
-0.203134
-0.441081
-0.369905
-0.125723
-0.061561
-0.436406
-0.770468
-0.657989
-0.495634
-0.582656
-0.660327
-0.805797
-0.900093
-0.667601
-0.537977
-0.521352
-0.790731
-1.535226
-1.939685
-1.747457
-1.166356
-0.363933
0.041304
-0.340555
-0.778783
-0.890743
-1.153888
-1.062191
-0.597466
-0.421603
-0.452516
-0.616170
-0.615650
-0.320034
-0.169889
-0.193008
0.014027
0.077410
-0.311463
-0.311203
0.008051
0.035587
0.125986
0.167808
-0.212492
-0.371730
0.152481
0.918537
1.589777
1.852662
1.553929
1.082969
0.616166
0.373023
0.563953
0.512778
0.183133
0.515116
1.072837
1.111802
1.038807
1.035171
1.012830
0.845799
0.477968
0.363930
0.662922
0.914637
0.695133
0.059741
-0.616176
-0.692028
0.217939
1.269999
1.720436
1.681731
1.244541
0.776179
0.511995
0.296388
-0.079497
-0.483436
-0.468889
-0.378490
-0.462135
-0.562925
-0.555392
-0.284195
-0.114826
-0.181327
-0.281338
-0.139505
-0.000269
-0.069887
-0.048067
-0.402650
-0.898028
-0.907120
-0.626051
-0.290431
-0.082357
-0.060796
-0.450708
-1.001157
-0.983493
-0.225750
0.685256
1.022954
1.020357
1.094910
1.101404
1.077765
1.024512
0.817737
0.673306
0.445749
-0.046252
-0.264457
-0.055344
0.210658
0.431980
0.787603
1.001911
0.865273
0.684734
0.232218
-0.393043
-0.775162
-0.654370
-0.041838
0.399768
0.433537
0.261311
0.243387
0.378986
0.731231
1.139586
0.745518
0.103631
-0.057165
-0.031708
0.022843
0.199485
0.480294
0.563939
0.560302
0.544976
0.403662
-0.069116
-0.878293
-1.126372
-0.759060
-0.536179
-0.578782
-0.707886
-0.822964
-1.079355
-1.440432
-1.553691
-1.305873
-1.015452
-0.973630
-0.924014
-0.913104
-0.970773
-0.343174
0.717718
1.246346
1.003982
0.277151
-0.292780
-0.559561
-0.618009
-0.213031
0.431193
0.665763
0.569389
0.760838
1.144255
1.406621
1.598589
1.521438
1.122694
0.460026
-0.458514
-1.014937
-0.998572
-0.924018
-0.972855
-0.905575
-0.758287
-0.528392
-0.024183
-0.029378
-0.458255
-0.364739
-0.020547
0.176357
0.088036
-0.207061
-0.389418
-0.055616
0.662122
1.109702
1.134120
0.711478
0.112193
-0.216154
-0.189138
0.180252
0.531458
0.514313
0.296108
0.078682
-0.230702
-0.620354
-0.787645
-0.672567
-0.206544
0.547822
1.056707
1.372325
1.539096
1.122428
0.428847
0.025428
0.090370
0.415859
0.432224
0.108033
0.159467
0.863438
1.262441
0.725241
-0.217197
-1.142490
-1.454732
-0.986370
-0.632307
-0.488395
-0.155113
0.196872
0.416895
0.451964
0.363123
0.435858
0.896686
1.356475
1.472072
1.465837
1.360631
1.335174
1.573900
1.652350
1.458823
1.571302
1.956798
1.942250
1.304520
0.607822
0.332988
0.327792
0.539503
0.716664
0.882916
1.009163
0.881876
0.785502
0.596651
0.463130
0.456895
0.396629
0.121535
-0.622441
-0.875715
0.059450
1.485056
2.461783
2.610890
2.265139
1.754694
1.367640
0.950453
0.216868
-0.463205
-0.808436
-0.808437
-0.324749
0.621845
1.247107
1.030460
0.698996
0.739260
0.812254
0.845245
0.930708
0.746013
0.146728
-0.220064
0.015026
0.431693
0.673277
0.502610
0.117633
-0.095896
0.041781
0.637688
1.168394
1.012014
0.540275
0.267519
-0.214611
-0.745317
-0.632318
-0.222404
0.159974
0.701070
0.886285
0.143868
-0.815975
-1.157570
-0.647386
0.575601
1.445045
1.129426
0.264659
-0.408140
-0.655440
-0.449703
-0.272022
-0.067066
0.421038
0.682365
0.553000
0.281023
-0.261633
-0.935211
-1.068212
-0.890531
-0.805587
-0.691030
-0.849488
-1.152638
-1.195240
-1.201474
-1.421758
-1.487479
-0.890273
0.180231
1.016683
1.097731
0.662619
0.217377
-0.250725
-0.759870
-0.944306
-0.419834
0.517668
1.072272
1.040061
0.571180
0.069308
0.171137
0.862379
1.208909
0.617677
-0.145781
-0.561669
-0.835205
-0.910798
-0.762730
-0.843778
-1.192646
-1.172385
-1.124328
-1.564894
-1.865446
-1.631915
-1.398384
-1.591131
-1.832196
-1.607497
-1.001459
-0.596221
-0.681685
-1.148488
-1.602043
-1.512943
-1.171348
-1.116017
-1.225380
-1.101731
-0.757798
-0.501407
-0.162670
0.255816
0.228540
-0.101365
-0.051750
0.326213
0.294001
0.004360
0.229838
0.592994
0.667027
0.724436
0.959266
1.262415
1.433342
1.465813
1.267350
1.180328
1.153831
0.848604
0.723395
0.737423
0.762101
0.912766
1.115125
1.409961
1.768960
1.964306
1.633621
1.048883
0.520515
-0.075912
-0.528688
-0.823784
-1.073421
-0.907170
-0.268920
0.545971
1.425026
1.818055
1.244747
0.161254
-0.330227
0.026435
0.523630
0.840547
0.965755
1.199286
1.184999
0.560257
-0.068122
-0.468944
-0.697020
-0.795213
-0.726634
-0.420108
0.122027
0.716636
1.224222
1.530229
0.938477
-0.315683
-0.866131
-0.508171
-0.086048
0.002792
-0.205282
-0.361922
0.087216
0.845998
1.323452
1.526590
1.474896
1.342414
0.917434
-0.098259
-0.786644
-0.648967
-0.374912
-0.380887
-0.512849
-0.447907
-0.037214
0.665198
1.155120
0.779495
-0.170216
-0.990304
-1.446456
-1.395542
-0.983290
-0.945884
-1.499450
-1.958460
-1.841045
-1.668039
-1.651674
-1.194223
-0.834185
-1.120449
-1.699992
-2.330189
-2.696981
-2.685552
-2.281613
-1.909365
-2.071201
-2.589178
-3.206647
-3.447452
-3.227169
-2.868949
-2.466569
-2.413316
-2.743222
-2.912331
-2.562424
-2.166797
-2.131729
-1.870402
-1.612713
-1.940540
-2.503717
-3.068712
-3.400436
-3.189505
-2.657760
-2.231221
-2.169137
-2.419293
-2.681399
-2.762967
-2.760369
-2.630226
-2.321622
-2.111989
-1.751431
-1.071099
-0.882508
-1.582063
-2.263175
-2.233042
-1.917943
-1.484910
-0.996027
-0.985117
-1.430360
-1.647006
-1.470364
-1.388797
-1.509589
-1.598950
-1.260472
-0.868223
-1.175528
-1.565960
-1.393994
-0.906409
-0.601182
-0.528707
-0.334141
-0.223480
-0.120872
0.289561
0.587775
0.413990
0.201499
0.567512
0.989116
1.063929
1.123675
1.051719
0.872479
0.653495
0.604139
0.865205
1.173550
1.393573
1.517482
1.600867
1.545277
1.640352
2.137288
2.243792
1.560083
0.818186
0.365150
0.121748
-0.006058
0.178896
1.099254
1.862971
1.372270
0.160452
-0.619112
-0.849526
-0.955771
-0.799651
-0.549754
-0.548456
-0.610021
-0.610800
-0.706655
-1.115010
-1.448292
-1.417900
-1.546225
-2.090179
-2.749471
-2.814932
-2.266043
-1.827814
-1.838205
-2.276953
-2.704272
-2.903514
-2.939882
-2.890526
-3.064830
-3.177310
-2.823766
-2.460351
-2.578545
-3.092886
-3.282776
-2.762721
-2.345015
-2.550491
-2.992876
-3.214199
-2.945079
-2.320857
-1.815089
-1.654293
-1.452713
-1.103066
-0.993444
-1.054489
-1.173203
-1.211909
-0.951362
-0.519368
-0.217258
-0.113611
0.313707
0.968842
1.136392
0.677122
0.103295
-0.084777
0.020428
0.549835
1.370702
1.739832
1.569684
1.179772
0.622050
0.199148
0.387220
0.834800
0.907534
0.561523
0.136543
-0.004511
0.153687
0.053157
-0.440402
-0.651074
-0.725108
-0.805896
-0.621201
-0.393385
-0.001655
0.510607
0.674520
0.405141
0.163037
0.182260
0.383060
0.705692
0.778946
0.497358
0.126928
0.066143
0.455015
0.904413
0.990656
0.926753
1.117682
1.284973
1.483435
1.597733
1.172753
0.738680
0.849601
1.281595
1.333029
0.846743
0.205636
-0.175184
0.254991
0.996888
1.015591
0.289540
-0.384558
-0.306108
0.396824
1.125213
1.490706
1.515903
1.182881
0.597104
0.325906
0.441503
0.600221
0.664124
0.615547
0.454750
0.063280
-0.285069
0.030549
0.702828
0.990651
1.039747
1.083388
1.050137
1.124690
1.264705
1.091180
0.562812
0.065356
0.135753
0.771925
1.266523
1.475636
1.878795
2.158825
1.658512
0.789588
0.204590
-0.020629
-0.014134
0.050288
0.151337
0.192121
0.083018
-0.082194
-0.108951
-0.017513
-0.178829
-0.298062
-0.109211
-0.088690
-0.231043
-0.273904
-0.320663
-0.331833
-0.151814
-0.104277
-0.252604
-0.103757
0.191339
0.107434
-0.429247
-1.040741
-1.281806
-1.223098
-1.075810
-0.681223
-0.166623
0.029502
-0.044532
-0.195197
-0.628231
-1.432992
-2.114363
-2.344258
-2.272043
-1.854856
-1.210112
-0.619400
-0.124282
0.024305
-0.377816
-1.047238
-1.493779
-1.621585
-1.503911
-1.134001
-1.045940
-1.033991
-0.491336
-0.110516
-0.183251
-0.250531
-0.095190
0.219129
0.377327
0.284590
0.158083
0.312645
0.607481
0.943361
1.430426
1.661619
1.631226
1.719027
1.965027
2.270774
2.466379
2.636267
2.925389
3.143074
3.182039
3.206197
3.349589
3.411154
3.202041
2.995005
2.884344
2.691336
2.536774
2.529501
2.561452
2.575479
2.693674
2.789528
2.486898
1.873586
1.307292
1.149093
1.410159
1.583165
1.489648
1.242868
0.825421
0.275752
-0.133123
-0.096236
0.378620
1.055835
1.378726
1.148052
0.818406
0.456290
0.180416
0.231330
0.414986
0.643582
0.848019
0.911142
0.859708
0.712160
0.538375
0.487200
0.667999
0.908024
1.020763
1.051676
0.977901
0.863603
0.747487
0.756059
0.956600
1.061286
1.088821
1.148048
1.294557
1.389372
1.310143
1.423142
1.793311
2.151531
2.305313
2.292844
2.181144
1.954886
1.637449
1.207793
0.855548
0.767486
0.952960
1.159735
1.143630
1.050892
0.852429
0.494989
0.105077
-0.297823
-0.586166
-0.691632
-0.724623
-0.659681
-0.665396
-1.096611
-1.602639
-1.638747
-1.362873
-1.161553
-1.108821
-1.083623
-1.149604
-1.387812
-1.557181
-1.275852
-0.714753
-0.401474
-0.246912
-0.013381
0.055718
-0.167423
-0.386668
-0.326142
0.045326
0.609282
1.230127
1.731999
1.745766
1.374298
1.283119
1.588347
1.922928
2.113857
2.204516
2.286602
2.274393
2.155159
2.185032
2.360635
2.503508
2.688722
2.952646
3.080452
2.970310
2.703788
2.158275
1.432224
1.040493
1.167780
1.548599
1.833824
1.828629
1.439496
0.762021
0.244823
0.195207
0.459911
0.587976
0.464846
0.311063
0.047918
-0.356541
-0.751648
-0.995050
-1.112206
-1.170654
-1.176629
-1.292225
-1.520302
-1.833063
-2.078543
-1.952816
-1.588881
-1.328854
-1.378210
-1.728377
-2.194661
-2.520670
-2.507162
-2.269214
-2.007888
-1.762667
-1.535890
-1.315087
-1.162084
-1.090648
-1.000249
-0.891147
-0.805424
-0.783603
-0.692425
-0.384080
0.091814
0.599660
0.731882
0.364051
-0.083790
-0.208219
0.107140
0.467178
0.518612
0.437564
0.394183
0.231308
-0.080933
-0.299658
-0.337065
-0.224585
0.058042
0.300145
0.108956
-0.369537
-0.651385
-0.627746
-0.611121
-0.775295
-0.708794
-0.404606
-0.267449
-0.317324
-0.423310
-0.524360
-0.716069
-0.799194
-0.708276
-0.727759
-0.878424
-0.979734
-0.844395
-0.588264
-0.282517
-0.027165
-0.136268
-0.463576
-0.632945
-0.522284
-0.207705
0.149216
0.515489
0.732655
0.670310
0.604848
0.536529
0.459638
0.539646
0.605367
0.465093
0.257538
0.234418
0.281176
0.437297
0.650566
0.552893
0.345338
0.291566
0.295463
0.290007
0.435737
0.637836
0.578609
0.319101
0.005561
-0.189006
-0.327462
-0.498909
-0.503845
-0.320189
-0.210567
-0.354219
-0.418901
-0.339672
-0.168225
0.107908
0.122195
-0.051850
-0.150042
-0.097050
0.077514
0.242467
0.294680
0.247662
0.299095
0.527431
0.856038
1.088010
1.134249
1.006703
0.802785
0.752130
0.943059
1.268288
1.428305
1.461815
1.625209
1.659498
1.298161
1.026703
