EVENT_NAME: 202302060117
EVENT_ID: 13194
EVENT_DATE_YYYYMMDD: 2023/02/06
EVENT_TIME_HHMMSS: 01:17:32.00000
EVENT_LATITUDE_DEGREE: 37.288
EVENT_LONGITUDE_DEGREE: 37.043
EVENT_DEPTH_KM: 8.6
HYPOCENTER_REFERENCE: AFAD
MAGNITUDE_W: 7.7
MAGNITUDE_W_REFERENCE: AFAD
MAGNITUDE_L: 
MAGNITUDE_L_REFERENCE: 
FOCAL_MECHANISM: 
NETWORK: TK
STATION_CODE: 3304
STATION_NAME: 
STATION_LATITUDE_DEGREE: 36.38226
STATION_LONGITUDE_DEGREE: 33.93664
STATION_ELEVATION_M: 10.0
LOCATION: Kahramanmaras_Pazarck_Turkiye
SENSOR_DEPTH_M: 
VS30_M/S: 297
SITE_CLASSIFICATION_EC8: C
MORPHOLOGIC_CLASSIFICATION: 
EPICENTRAL_DISTANCE_KM: 294.21
EARTHQUAKE_BACKAZIMUTH_DEGREE: 
DATE_TIME_FIRST_SAMPLE_YYYYMMDD_HHMMSS: 2023/02/06 01:18:00.2088080
DATE_TIME_FIRST_SAMPLE_PRECISION: millisecond
SAMPLING_INTERVAL_S: 0.01
NDATA: 18251
DURATION_S: 
STREAM: HNZ
UNITS: cm/s^2
INSTRUMENT: sensor = CMG-5T/GURALP | digitizer = 
INSTRUMENT_ANALOG/DIGITAL: 
INSTRUMENTAL_FREQUENCY_HZ: 
INSTRUMENTAL_DAMPING: 
FULL_SCALE_G: 
N_BIT_DIGITAL_CONVERTER: 
PGA_CM/S^2: 8.095
TIME_PGA_S: 
BASELINE_CORRECTION: BASELINE REMOVED
FILTER_TYPE: BUTTERWORTH
FILTER_ORDER: 
LOW_CUT_FREQUENCY_HZ: 
HIGH_CUT_FREQUENCY_HZ: 
LATE/NORMAL_TRIGGERED: 
DATABASE_VERSION: 
HEADER_FORMAT: DYNA 1.2
DATA_TYPE: Acceleration
PROCESSING: Automatic Paolucci et al., 2011
DATA_TIMESTAMP_YYYYMMDD_HHMMSS: 
DATA_LICENSE: U (unknown license)
DATA_CITATION: Turkish Accelerometric Archive v 1.0 - Disaster And Emergency Management Presidency, Earthquake Department
DATA_CREATOR: AFAD
ORIGINAL_DATA_MEDIATOR_CITATION: : AFAD - Disaster And Emergency Management Presidency
ORIGINAL_DATA_MEDIATOR: AFAD PROCESS SERVICE
ORIGINAL_DATA_CREATOR_CITATION: AFAD PROCESS SERVICE
ORIGINAL_DATA_CREATOR: network: TK
USER1: GuestUser
USER2: 
USER3: 
USER4: 
USER5: 
[...]
1.785949
1.796241
1.978926
2.215644
1.997257
1.537970
0.972224
0.324462
-0.161520
-0.254150
-0.325874
-0.235497
0.214784
0.762839
0.593983
-0.240967
-1.210358
-1.819524
-2.280419
-2.732952
-3.067126
-2.951018
-2.475007
-1.953968
-1.378253
-0.844027
-0.409506
-0.134836
0.052030
0.168460
-0.201736
-0.924438
-1.704389
-2.443494
-3.062952
-3.308356
-3.097368
-2.961319
-3.200290
-3.484289
-2.997665
-2.187160
-1.263119
-0.438463
0.018572
0.313184
0.628380
0.880537
0.646068
0.260756
0.443441
0.956117
1.235934
0.941000
0.521916
0.279729
0.126954
0.051049
0.281657
0.516446
0.788865
1.293179
1.950267
2.266107
2.264498
2.314672
2.523730
2.525659
2.550424
2.872374
3.370578
3.788373
3.964626
3.714719
3.454199
3.403703
3.583814
4.291077
5.169767
5.698203
5.528061
4.868077
3.803162
2.354222
0.525759
-1.146713
-2.369548
-2.814362
-2.722698
-2.543552
-2.716589
-3.080995
-3.607181
-4.100883
-4.249797
-3.698204
-2.654839
-1.615656
-1.098155
-0.942487
-1.126781
-1.498906
-1.704428
-1.654898
-1.458383
-1.346778
-1.337451
-1.299178
-0.914510
-0.099502
0.427648
0.167449
-0.404087
-1.039305
-1.552947
-1.778088
-1.629175
-1.264126
-0.775572
-0.289590
0.120486
0.149111
-0.478067
-1.423336
-1.923148
-1.769410
-1.043172
-0.305998
0.689122
2.156073
3.250255
3.609514
3.769685
4.205170
4.928192
5.700424
6.123687
6.044566
5.599109
5.380400
5.732906
6.022050
6.146198
6.049387
5.704600
5.278762
4.214169
2.581578
0.995624
-0.281888
-1.075991
-1.971408
-2.658087
-2.869076
-3.091001
-3.709816
-4.350502
-4.623566
-4.497809
-3.792155
-2.844958
-2.154420
-2.248658
-2.604381
-2.796715
-2.988729
-3.230273
-3.155334
-2.698621
-1.862707
-0.597740
1.149993
2.846265
3.837204
3.965534
3.843636
3.611097
3.019942
2.100404
1.426590
1.295043
1.327849
1.303404
1.296649
1.092414
0.683623
0.323076
0.542427
1.054460
1.131007
1.030658
1.290534
2.388254
3.870643
4.847109
4.681791
3.253113
1.370938
-0.258758
-1.296013
-1.915471
-2.024504
-1.668783
-0.933539
0.359732
1.966269
2.923116
2.484413
0.966322
-0.578464
-1.196635
-1.241986
-1.523734
-2.325877
-3.194599
-3.522983
-3.233195
-2.809288
-2.867825
-3.250886
-2.695112
-1.105621
0.253584
-0.001147
-1.243601
-1.828967
-1.417925
-0.455933
0.201798
0.381267
0.396061
0.443662
0.590646
0.420504
-0.118548
-0.793326
-0.772743
0.302785
1.217176
1.181153
0.517953
-0.302845
-1.025547
-1.701933
-1.876257
-1.820937
-2.068592
-2.671005
-2.902256
-2.845650
-2.752378
-2.568729
-2.154149
-1.450425
-0.809097
-0.811349
-1.779132
-2.756563
-2.720863
-1.457826
0.154180
1.285992
1.487975
1.436192
1.916706
2.578618
2.261491
0.989125
-0.208623
-0.675951
-0.648613
-0.448881
-0.491015
-0.480724
-0.750571
-1.334007
-2.079544
-3.373138
-5.052043
-6.590075
-7.248772
-6.998545
-6.408356
-5.659603
-4.950733
-4.894127
-5.292626
-5.336690
-4.732349
-4.153095
-3.936318
-3.925705
-3.924419
-4.349613
-4.446746
-3.717291
-2.669424
-1.760500
-1.042946
-0.510328
-0.346941
-0.327965
0.212371
1.164393
1.898994
2.312930
2.669295
3.159457
3.481407
3.421262
3.438951
3.607163
3.725200
3.579502
2.908582
1.918929
1.189795
1.401748
2.511368
3.864140
4.512544
4.345296
3.963844
3.598151
2.810802
1.283062
-0.228596
-0.784693
-0.451486
-0.047842
-0.135004
-1.123050
-2.502196
-3.012944
-2.467140
-1.704236
-1.576228
-1.843181
-1.641841
-1.350124
-1.371352
-1.609680
-2.092125
-2.763687
-3.465804
-3.423028
-2.628283
-1.472991
-0.123435
1.107761
1.860373
1.728504
0.726628
-0.386531
-1.054555
-0.914326
-0.224431
0.732737
1.816305
2.596255
2.888294
2.190037
1.067228
-0.142741
-0.641911
-0.130521
0.958515
2.037903
2.701423
2.615548
2.218657
1.945914
1.229967
-0.174267
-1.815863
-2.395118
-1.923610
-1.473651
-1.530902
-1.663735
-2.158401
-2.587777
-2.551755
-2.468775
-2.869526
-3.463576
-3.525329
-3.304049
-3.448139
-4.014850
-4.389549
-4.189496
-3.816728
-3.681966
-3.705767
-3.782637
-3.770094
-3.598988
-3.715740
-3.647877
-2.857956
-1.652812
-0.454100
-0.147267
-0.990579
-1.648633
-1.277152
0.117754
1.635843
2.990545
4.445274
5.698341
6.467034
6.492120
5.307881
3.204425
1.378214
0.625279
0.668699
0.351250
-0.229613
-0.064939
0.928251
2.025328
2.718438
2.931356
2.711683
2.062313
1.266923
0.530392
0.123852
-0.445432
-1.057815
-1.179713
-1.247256
-2.016915
-3.361004
-4.400189
-4.735649
-4.368992
-3.460390
-2.567226
-1.902097
-1.483015
-1.216707
-1.245654
-1.440240
-1.503601
-1.242117
-0.842654
-0.624590
-0.560908
-0.580207
-0.427112
-0.011246
0.611428
1.428366
2.183872
2.610995
2.688507
2.429595
1.890223
0.959749
0.476339
0.705982
0.923724
0.362802
-0.935294
-2.296429
-3.171583
-3.502862
-3.372924
-3.137492
-2.881797
-2.448885
-1.848725
-1.129563
-0.668025
-0.320023
0.032482
0.567673
1.279437
1.495250
1.139528
0.512028
0.071396
-0.018983
0.225133
0.949120
1.862547
2.297389
1.900498
0.937861
-0.240267
-1.023757
-0.783179
0.040192
0.624591
1.369484
2.928742
4.520806
5.247045
4.644633
2.665969
0.555116
-0.491466
-0.209398
0.513624
0.820779
0.908262
0.973230
1.241790
1.412575
1.377517
1.284244
1.467250
1.430905
1.054920
0.542886
-0.237387
-1.686971
-3.035884
-3.181583
-2.179708
-0.930501
-0.292389
-0.076255
-0.324553
-0.794454
-1.077488
-1.529378
-2.328306
-2.959343
-3.291908
-3.609356
-3.930021
-3.960898
-3.732542
-2.774409
-1.441900
-0.793174
-0.795748
-0.942411
-0.792211
-0.466079
0.409073
2.187361
3.837318
4.680951
4.909951
4.661652
4.070176
3.240372
1.950638
0.315152
-1.102911
-1.819180
-1.693424
-1.327410
-1.131860
-0.898036
-0.510474
-0.093000
0.398771
0.652858
0.696599
0.637097
0.767356
1.210239
1.859286
2.615436
3.357434
3.529827
2.266788
0.233448
-1.422300
-2.160440
-2.571483
-3.340177
-4.231734
-4.893648
-5.468400
-5.935406
-6.230019
-5.866257
-4.974379
-4.227878
-3.672425
-2.645785
-1.365701
0.205778
1.270692
1.385192
0.765412
-0.081439
-0.390525
-0.513066
-0.861391
-1.146999
-1.048581
-0.411434
0.057501
0.249513
0.996658
2.419545
3.939242
4.886440
5.094212
4.670304
3.989414
3.338115
2.672985
2.092122
1.606461
1.022060
0.094803
-1.063707
-1.823717
-2.081986
-1.807958
-0.753337
0.855774
2.262580
2.979169
3.000718
2.445585
1.057111
-0.780357
-2.155001
-2.599815
-2.427422
-2.141816
-1.676741
-0.982987
-0.238738
0.971231
2.606715
4.194598
5.017004
5.129573
4.798616
4.322283
3.752034
3.403709
3.040910
2.111080
0.650882
-0.836975
-1.832740
-2.148259
-2.009315
-1.678038
-1.385677
-1.199455
-1.304306
-1.996131
-3.034030
-3.859331
-3.888921
-3.089673
-2.054671
-1.290159
-1.073703
-1.382789
-1.979733
-2.491446
-2.395279
-1.936315
-1.160868
-0.022622
1.157113
1.904579
2.552340
3.443896
4.444162
5.154319
5.157535
4.702107
4.123817
3.314597
2.654614
2.130357
1.543705
1.131054
1.415374
1.964716
2.206581
1.780421
0.934536
-0.065088
-0.892963
-1.550695
-2.286583
-2.759057
-2.752947
-2.493714
-2.575408
-3.120571
-4.081278
-5.101808
-5.395456
-4.441504
-2.779646
-0.997499
0.295128
1.168994
1.312762
0.424100
-0.976275
-2.450945
-3.496562
-3.355368
-2.240601
-0.571346
1.330447
3.160839
4.090990
3.736875
2.461615
0.999488
-0.180892
-0.751141
-0.721230
-0.119141
1.313074
3.277906
4.884444
5.721322
5.707813
4.827192
3.518804
2.331348
1.477743
0.846706
0.413149
0.220814
0.332419
0.836412
1.733757
2.399850
2.022579
0.650508
-0.926119
-2.361873
-3.742628
-5.321506
-6.360691
-6.396392
-5.634775
-4.700121
-4.340861
-4.842282
-5.619339
-5.530570
-4.327034
-2.714063
-1.485119
-0.672684
0.398984
1.533048
2.439721
3.276921
4.073918
4.602676
4.546390
3.630389
2.018061
0.317929
-0.665292
-0.898153
-1.043530
-1.368376
-1.983653
-2.775183
-3.418120
-3.645191
-3.424876
-2.785477
-2.104910
-1.717991
-1.287330
-0.607085
0.052898
0.542095
1.062813
1.527888
1.561658
1.039975
0.115612
-0.936438
-1.840538
-2.638501
-3.328718
-3.547104
-3.400442
-3.213254
-3.074633
-3.172730
-3.553218
-3.906689
-3.918912
-3.389832
-2.458716
-1.311465
-0.348829
0.804854
1.871055
2.436157
2.399490
1.797400
1.533342
1.866549
2.221306
2.046982
1.485738
0.606082
-0.617718
-1.642429
-2.012303
-1.896517
-1.314047
-0.228871
1.503424
2.979701
3.169140
2.465093
1.478978
0.821888
0.828320
1.345821
2.080100
2.960399
3.722338
4.625151
5.138471
4.279398
2.726250
1.406926
0.754340
0.602209
0.709311
1.418825
2.292047
2.765807
2.773847
2.156961
1.216517
0.365807
-0.489727
-1.590021
-2.308220
-2.267052
-1.777533
-1.745692
-1.670110
-1.898467
-2.397958
-2.730845
-2.875257
-3.278581
-4.135401
-4.845559
-4.608841
-3.434573
-2.014259
-0.867008
-0.205095
-0.203488
-0.784029
-1.107267
-1.222733
-1.638278
-2.605096
-3.631416
-3.937607
-3.663258
-3.550045
-3.514023
-3.521100
-3.909307
-4.578296
-4.768058
-4.604349
-4.522334
-4.514616
-4.178192
-3.588325
-2.766562
-1.775945
-0.377180
1.065327
1.954631
2.212256
2.028926
1.541657
0.464199
-0.722935
-1.847352
-2.743733
-3.151559
-3.403717
-3.385385
-3.120685
-2.463275
-1.465260
-0.746097
-0.365932
-0.233100
-0.270088
-1.054221
-2.344919
-3.431383
-4.063064
-4.254755
-3.614070
-2.473574
-1.386789
-0.850312
-0.682100
-0.617775
-0.640290
-0.781807
-0.868326
-0.625818
-0.372053
-0.387814
-0.720379
-0.675673
0.177287
1.231587
1.673184
1.417810
0.823438
0.352894
0.296930
0.375729
0.343244
0.357395
0.653936
0.994541
0.925712
0.516921
-0.079059
-0.362093
0.077573
0.958515
1.455110
1.285611
0.660042
-0.099326
-1.201228
-2.268716
-3.320444
-4.105220
-4.679650
-5.036016
-5.179785
-5.020257
-4.004874
-2.400910
-1.093166
-0.223159
0.433285
0.985201
1.863569
2.722641
2.929126
2.620683
2.540275
2.842928
3.486507
4.087632
4.194412
3.639279
2.848071
2.356621
2.347293
2.122795
1.518453
0.919258
0.672246
0.572219
0.387603
0.677712
1.049193
1.003521
0.420728
-0.490448
-1.094790
-1.210255
-0.896024
-0.625534
-0.608167
-0.658342
0.135439
1.629728
2.469501
2.103808
1.325786
0.895768
0.474111
-0.288151
-0.700480
-0.382711
-0.007692
-0.200670
-0.663495
-1.257866
-2.002439
-2.525087
-2.586518
-2.079953
-1.160415
-0.222867
0.750383
1.595946
1.702726
0.978738
0.239633
-0.399766
-1.258517
-1.754148
-1.291002
0.225801
1.794064
2.611967
2.390042
1.035661
-0.869671
-2.161335
-2.329548
-2.042655
-1.868011
-1.693045
-0.919206
0.044395
0.625900
0.814374
0.516545
-0.338668
-1.355338
-1.654776
-1.228939
-0.499806
-0.054029
-0.145050
-0.698575
-0.852314
-0.327737
0.230611
-0.212595
-1.101579
-1.709459
-1.717500
-1.603965
-1.740337
-1.724256
-1.562477
-1.019567
-0.678319
-0.902174
-1.717826
-2.508070
-2.496170
-1.968055
-1.476285
-1.244712
-1.126675
-0.583122
0.049844
0.304252
-0.444180
-1.795345
-2.831313
-2.682078
-1.384948
-0.076882
0.965518
1.930083
2.757313
3.444956
3.770766
3.480012
2.686553
2.101508
1.716839
1.386847
0.830428
-0.060164
-0.860700
-1.324811
-1.347969
-0.962979
-0.157299
0.900539
1.617772
1.781159
1.768615
2.300911
3.059312
3.458453
3.636957
3.759819
3.726369
3.074426
2.012084
0.808868
0.139879
0.179760
0.841351
1.443441
1.528350
0.858074
-0.370872
-1.618150
-2.260445
-2.336993
-2.186149
-2.379449
-2.832304
-3.261679
-3.366531
-2.813972
-2.303547
-2.318665
-2.414832
-1.884145
-1.087791
-0.381494
0.172351
0.495588
0.462138
-0.227114
-0.957213
-1.515884
-2.177797
-2.979619
-4.144883
-4.809369
-4.377743
-3.298356
-2.513260
-2.609427
-3.334059
-3.873431
-3.633818
-3.272951
-2.946819
-2.580162
-2.159150
-1.684426
-1.487590
-1.166283
-0.543930
0.136636
0.504258
0.808840
1.275846
2.075094
2.865658
2.992058
2.430492
1.443412
0.765095
0.426419
-0.085294
-0.937612
-1.756481
-1.907004
-1.545171
-1.264711
-1.473449
-1.518478
-1.279508
-0.860104
-0.066645
0.870261
1.370072
1.443081
1.468489
1.699740
1.995317
2.472936
2.582932
2.257443
1.839324
1.492608
1.975694
2.814181
2.923856
1.745084
0.012789
-0.853681
-0.889383
-1.106483
-2.330926
-3.893723
-4.844138
-4.841565
-4.161320
-3.726478
-3.855130
-4.315704
-4.202813
-3.870892
-3.128572
-2.036641
-1.423295
-1.571245
-1.849455
-1.073364
0.603289
1.866005
2.145178
1.252335
0.072920
-0.641098
-1.278246
-2.307138
-3.355328
-3.610703
-2.946217
-1.897385
-1.647479
-2.595000
-3.477872
-3.249838
-2.018320
-0.817357
0.193845
1.186714
2.039996
3.047016
4.070761
4.431307
3.972020
3.431361
3.392443
3.448728
2.986224
2.145485
1.583598
1.403807
1.513160
1.883998
2.302759
2.709619
2.705759
2.364832
1.680726
0.705224
0.684639
1.167404
1.439501
0.892088
-0.235223
-1.283092
-2.065938
-2.766447
-3.315469
-3.532247
-3.796949
-4.003757
-3.914988
-3.423860
-2.477949
-1.380551
-0.843752
-0.347157
0.023359
0.589104
0.803309
0.251714
-0.108833
-0.294092
-0.245848
0.028180
0.465916
1.488054
2.609253
3.462534
3.879687
3.805068
3.495661
2.968510
2.436213
1.955376
1.753071
1.522141
1.361326
1.596114
1.902305
1.723157
0.620611
-0.586464
-1.301768
-1.399544
-0.926749
-0.330771
0.395789
0.861186
1.022965
1.035186
0.475551
-0.656585
-2.054064
-2.908955
-3.458942
-4.085798
-4.563739
-4.080653
-2.479261
-0.946377
-0.145521
-0.062219
-0.977577
-2.417511
-3.266935
-2.811830
-1.457450
0.384842
2.234853
3.858758
4.711719
4.300354
2.862028
1.311452
0.900731
1.613783
2.332624
2.754279
3.549668
5.027875
6.907797
8.094930
8.072094
7.244863
6.576195
6.404767
6.263249
5.583003
5.175820
5.892087
7.164130
7.327518
6.281257
4.776996
3.107740
1.497985
0.757916
0.910046
1.208196
1.142904
0.499967
-0.321796
-1.392822
-1.955031
-1.704804
-0.995612
-0.366184
-0.191218
-0.495158
-0.988860
-1.260637
-0.771118
-0.165169
0.290257
0.762730
1.657824
2.534263
2.717913
2.699579
2.918287
3.522627
3.943961
3.741977
2.951412
1.438789
0.330776
0.469719
1.244845
1.680652
1.260604
0.491588
0.111743
-0.077697
-0.124012
-0.322458
-0.860544
-1.463921
-1.764967
-1.789411
-1.760465
-1.463923
-0.631226
0.569737
1.646873
2.125778
1.896778
1.566142
1.368340
1.623070
2.487930
3.484015
3.818509
3.255657
2.051799
0.974340
0.374179
0.227837
-0.395802
-1.557528
-2.212044
-2.178595
-1.671064
-1.400253
-1.492240
-1.474229
-1.268387
-0.982781
-0.671122
-0.141400
0.217538
0.055115
-0.542151
-1.087313
-1.348799
-1.344618
-1.084420
-0.993078
-1.277077
-1.641484
-2.088228
-2.677453
-3.027386
-2.518247
-1.768209
-1.681691
-1.735404
-1.014633
0.106888
0.763976
0.889089
0.929935
0.947946
1.316532
2.110313
2.579248
2.678631
2.948799
3.691762
4.372972
4.536037
4.459489
4.714540
5.262274
5.512501
5.562675
5.274495
4.768250
4.665971
5.057715
5.721879
5.845705
5.412149
5.088911
4.634448
3.419975
2.152112
1.475082
0.972054
0.472563
0.337800
0.557472
0.326220
-0.867668
-1.891737
-2.098866
-2.106264
-2.630199
-3.335532
-4.118057
-4.953329
-5.925293
-6.724542
-6.520308
-5.830414
-5.545451
-5.602058
-5.350866
-4.814711
-4.560624
-4.725942
-4.956229
-4.787375
-4.086867
-2.809034
-1.637339
-1.410270
-1.960578
-2.858889
-3.653957
-3.970119
-3.652672
-2.711585
-1.726757
-0.682749
0.252548
0.792242
0.928934
0.663267
0.430729
0.241610
0.331666
0.918639
1.275003
0.992934
0.756536
0.837586
0.763611
0.519815
0.482184
1.319706
2.467922
3.101531
2.951329
1.997055
1.139591
1.017371
1.650659
2.325436
2.611686
2.390726
2.288447
2.520020
2.558936
2.243739
2.343122
2.586595
2.343121
1.969709
1.960381
2.090962
2.071342
2.233442
2.888279
3.428616
3.885650
4.441747
5.082110
5.232310
4.688113
4.025234
3.936143
4.089881
3.992427
3.898189
4.071225
4.016547
3.038150
1.743271
0.774523
0.157637
-0.108029
0.053107
0.524615
1.012526
1.265647
1.244741
0.724022
-0.063005
-0.478229
0.043132
0.753610
0.850098
0.775480
0.841735
0.424903
-0.334786
-1.343416
-2.059685
-2.373917
-2.157783
-1.495227
-0.977083
-0.738113
-0.278505
0.378261
0.747491
0.497906
0.326155
0.523957
0.989354
1.772842
2.312535
2.343733
1.777343
1.121219
0.427464
-0.266612
-0.534530
-0.440615
-0.703708
-1.108640
-1.341500
-1.457287
-2.132066
-3.203092
-4.236487
-4.858840
-5.032199
-5.175324
-5.009043
-4.175059
-2.906875
-1.879592
-1.268497
-1.018270
-0.585679
0.013194
0.769987
1.470173
1.500728
1.009278
0.669637
0.607883
0.435489
-0.201337
-0.458641
0.264381
1.474028
2.326023
2.542479
2.149448
1.109941
0.242507
-0.153098
0.204232
0.563813
0.353145
0.131864
0.518461
0.846523
0.242824
-0.938199
-1.197755
-0.362484
0.123497
-0.271142
-1.158196
-2.178405
-3.316651
-3.727372
-3.372616
-2.633512
-1.793096
-0.788648
-0.072380
-0.397227
-1.381091
-2.132096
-2.154289
-1.418080
-0.016099
1.323808
1.974464
1.941979
1.455031
0.825924
0.438682
0.846829
1.835195
2.646343
2.828706
2.516082
1.702681
0.871269
0.587913
0.969043
2.065155
3.333017
4.015192
3.889113
3.682948
3.693240
3.674906
3.650462
3.730869
3.603825
3.018459
2.420549
2.115001
1.701064
1.060378
0.904387
1.466916
2.144910
2.801676
3.274149
3.525663
3.985913
4.816681
5.563825
5.538416
5.438711
5.235440
4.920886
4.670015
4.077573
3.031635
1.731930
0.621987
0.108988
0.206441
0.433832
0.628739
0.493654
-0.005837
-0.919264
-2.093533
-3.024329
-3.365578
-3.119532
-2.346014
-1.685710
-1.723663
-2.524199
-3.776623
-4.690051
-4.719963
-3.901417
-2.575340
-1.184294
-0.140608
0.366279
0.182307
-0.483788
-1.482448
-2.094830
-1.793142
-0.763608
0.416128
1.282275
1.891118
2.275143
2.214355
1.207011
-0.024508
-0.275701
0.947776
2.652089
3.581919
3.572591
3.285697
3.282802
3.902259
4.621100
4.319411
3.048010
2.436593
3.038360
3.771674
3.619543
3.034499
2.826083
3.267036
3.951784
4.317154
3.642376
1.783036
0.258835
-0.168289
-0.224575
-0.438781
-0.639478
0.004102
0.778906
0.618734
-0.289226
-1.319726
-2.006084
-2.264996
-1.774190
-0.689979
0.178741
0.242745
0.372683
1.030092
1.504817
1.013688
0.234058
-0.256748
-0.395371
-0.277334
0.071312
0.825210
1.605482
2.244559
2.922553
2.836356
1.461068
-0.781975
-2.432898
-2.826894
-2.711430
-2.615585
-2.312611
-1.546812
-0.570346
0.290011
0.795933
1.139755
1.436296
1.819678
1.987568
2.103997
2.355510
2.643046
2.529511
1.977916
1.314716
0.404826
-0.849850
-1.496004
-1.335511
-0.741141
0.160707
1.194101
2.120393
2.643361
2.618595
2.202728
1.845076
2.088549
2.855312
3.527195
3.880344
4.133144
4.069782
3.542631
3.395324
3.564501
3.771951
3.841101
3.779669
3.281786
2.314647
1.406365
0.947721
0.784655
0.659540
0.179347
-0.536278
-1.085621
-1.412397
-1.707010
-1.665842
-1.199802
-0.726364
-0.461342
-0.143252
-0.221087
-1.021622
-1.622426
-1.487021
-0.998145
-0.976596
-1.199164
-1.334249
-1.377991
-1.450680
-1.644945
-1.706055
-1.453576
-1.159286
-0.870142
-0.607693
-0.170921
0.303481
0.952850
1.697421
1.659147
0.699083
-0.274811
-0.154200
0.720309
1.375146
1.939283
2.609879
3.234804
3.899933
4.430299
4.438339
4.032764
3.611429
3.372458
3.314886
3.005156
2.206872
1.222364
0.479400
0.057744
-0.361018
-1.031937
-1.611835
-1.805778
-1.691279
-1.479969
-1.550085
-2.039927
-2.315242
-1.948585
-1.418219
-1.358075
-1.595116
-1.430764
-0.570728
