EVENT_NAME: 202302060117
EVENT_ID: 13194
EVENT_DATE_YYYYMMDD: 2023/02/06
EVENT_TIME_HHMMSS: 01:17:32.00000
EVENT_LATITUDE_DEGREE: 37.288
EVENT_LONGITUDE_DEGREE: 37.043
EVENT_DEPTH_KM: 8.6
HYPOCENTER_REFERENCE: AFAD
MAGNITUDE_W: 7.7
MAGNITUDE_W_REFERENCE: AFAD
MAGNITUDE_L: 
MAGNITUDE_L_REFERENCE: 
FOCAL_MECHANISM: 
NETWORK: TK
STATION_CODE: 2506
STATION_NAME: 
STATION_LATITUDE_DEGREE: 39.91733
STATION_LONGITUDE_DEGREE: 40.68134
STATION_ELEVATION_M: 1639.0
LOCATION: Kahramanmaras_Pazarck_Turkiye
SENSOR_DEPTH_M: 
VS30_M/S: 365
SITE_CLASSIFICATION_EC8: B
MORPHOLOGIC_CLASSIFICATION: 
EPICENTRAL_DISTANCE_KM: 430.55
EARTHQUAKE_BACKAZIMUTH_DEGREE: 
DATE_TIME_FIRST_SAMPLE_YYYYMMDD_HHMMSS: 2023/02/06 01:18:06.7366850
DATE_TIME_FIRST_SAMPLE_PRECISION: millisecond
SAMPLING_INTERVAL_S: 0.01
NDATA: 21001
DURATION_S: 
STREAM: HNN
UNITS: cm/s^2
INSTRUMENT: sensor = CMG-5T/GURALP | digitizer = 
INSTRUMENT_ANALOG/DIGITAL: 
INSTRUMENTAL_FREQUENCY_HZ: 
INSTRUMENTAL_DAMPING: 
FULL_SCALE_G: 
N_BIT_DIGITAL_CONVERTER: 
PGA_CM/S^2: 10.313
TIME_PGA_S: 
BASELINE_CORRECTION: BASELINE REMOVED
FILTER_TYPE: BUTTERWORTH
FILTER_ORDER: 
LOW_CUT_FREQUENCY_HZ: 
HIGH_CUT_FREQUENCY_HZ: 
LATE/NORMAL_TRIGGERED: 
DATABASE_VERSION: 
HEADER_FORMAT: DYNA 1.2
DATA_TYPE: Acceleration
PROCESSING: Automatic Paolucci et al., 2011
DATA_TIMESTAMP_YYYYMMDD_HHMMSS: 
DATA_LICENSE: U (unknown license)
DATA_CITATION: Turkish Accelerometric Archive v 1.0 - Disaster And Emergency Management Presidency, Earthquake Department
DATA_CREATOR: AFAD
ORIGINAL_DATA_MEDIATOR_CITATION: : AFAD - Disaster And Emergency Management Presidency
ORIGINAL_DATA_MEDIATOR: AFAD PROCESS SERVICE
ORIGINAL_DATA_CREATOR_CITATION: AFAD PROCESS SERVICE
ORIGINAL_DATA_CREATOR: network: TK
USER1: GuestUser
USER2: 
USER3: 
USER4: 
USER5: 
[...]
-0.322649
-0.342540
-0.367322
-0.381017
-0.384930
-0.409386
-0.415256
-0.424386
-0.442647
-0.464168
-0.474276
-0.503950
-0.522536
-0.536558
-0.551558
-0.565905
-0.583514
-0.612861
-0.649382
-0.706120
-0.743619
-0.802640
-0.846987
-0.874704
-0.893617
-0.905356
-0.901117
-0.896878
-0.905356
-0.899160
-0.913834
-0.921008
-0.944159
-0.940899
-0.941877
-0.930790
-0.916768
-0.886443
-0.882204
-0.858074
-0.843074
-0.833292
-0.834596
-0.809814
-0.804596
-0.791553
-0.762206
-0.724380
-0.685251
-0.635034
-0.573731
-0.506884
-0.455363
-0.387538
-0.328192
-0.258084
-0.206889
-0.117869
-0.077109
0.027563
0.088214
0.170061
0.213756
0.302776
0.343210
0.418861
0.469730
0.550272
0.606358
0.682009
0.745594
0.810811
0.839832
0.887440
0.896570
0.922004
0.923635
0.941569
0.921026
0.927874
0.894288
0.867875
0.819941
0.779833
0.731247
0.645162
0.591358
0.489295
0.419513
0.302124
0.230386
0.121801
0.052998
-0.023631
-0.064391
-0.122434
-0.148520
-0.175259
-0.172976
-0.171346
-0.104173
-0.073521
0.022999
0.083324
0.175931
0.212778
0.303755
0.344189
0.417231
0.478208
0.562337
0.623640
0.693748
0.739073
0.775268
0.746899
0.727334
0.651357
0.579294
0.481469
0.400927
0.287451
0.181148
0.070281
-0.041565
-0.151455
-0.257105
-0.339930
-0.460580
-0.547643
-0.651663
-0.717532
-0.801987
-0.843073
-0.912202
-0.977744
-1.041982
-1.083721
-1.127742
-1.135894
-1.134916
-1.102633
-1.082416
-1.016548
-0.985896
-0.916115
-0.881224
-0.815030
-0.788943
-0.701227
-0.650359
-0.558404
-0.500687
-0.411341
-0.366016
-0.306669
-0.266561
-0.240474
-0.237213
-0.245039
-0.250257
-0.283843
-0.302104
-0.304386
-0.301778
-0.302104
-0.294278
-0.292647
-0.307321
-0.314821
-0.311886
-0.307973
-0.272104
-0.235583
-0.164171
-0.121454
-0.046456
-0.011239
0.023978
0.039630
0.062782
0.050390
0.038978
0.007348
-0.011565
-0.058847
-0.073194
-0.097650
-0.097976
-0.110041
-0.096346
-0.114280
-0.110694
-0.138084
-0.155041
-0.210148
-0.207866
-0.253843
-0.255800
-0.298842
-0.296234
-0.330798
-0.331777
-0.344168
-0.337972
-0.348407
-0.335037
-0.312864
-0.308625
-0.289712
-0.265256
-0.246343
-0.219931
-0.179822
-0.129606
-0.078737
-0.007652
0.061152
0.119194
0.185715
0.236583
0.296256
0.317778
0.396689
0.412341
0.481471
0.495492
0.553208
0.554187
0.590708
0.618751
0.664076
0.696358
0.741031
0.754727
0.767770
0.781792
0.788639
0.786031
0.796791
0.805595
0.796465
0.779835
0.769401
0.736466
0.702228
0.633751
0.576360
0.472014
0.408429
0.326256
0.263975
0.177889
0.106803
0.018435
-0.098954
-0.193843
-0.316450
-0.436774
-0.569163
-0.683291
-0.786659
-0.892309
-0.972525
-1.071654
-1.150240
-1.220673
-1.285237
-1.349149
-1.393170
-1.412409
-1.434583
-1.444691
-1.437191
-1.417952
-1.382083
-1.321758
-1.254912
-1.204043
-1.116327
-1.034481
-0.913178
-0.804267
-0.655574
-0.533620
-0.413296
-0.302102
-0.197104
-0.121779
-0.025259
0.041914
0.099956
0.124412
0.159955
0.184411
0.204302
0.230389
0.242454
0.246041
0.217346
0.215063
0.174955
0.135173
0.080392
0.023327
-0.070584
-0.131561
-0.198408
-0.254168
-0.339275
-0.408404
-0.528402
-0.607966
-0.714921
-0.788941
-0.884483
-0.931765
-0.976764
-0.986220
-0.985242
-0.965677
-0.959155
-0.948721
-0.925895
-0.879918
-0.832962
-0.729920
-0.628835
-0.500033
-0.397317
-0.263624
-0.170691
-0.060475
0.049088
0.149195
0.237563
0.332453
0.420821
0.488972
0.547014
0.608318
0.637013
0.646143
0.628535
0.600492
0.544080
0.487015
0.421473
0.344192
0.272780
0.201042
0.131913
0.045828
-0.023628
-0.128300
-0.206559
-0.303732
-0.351665
-0.441338
-0.471337
-0.522532
-0.526771
-0.565249
-0.561988
-0.597531
-0.612204
-0.635682
-0.625900
-0.652964
-0.658182
-0.687855
-0.703833
-0.739050
-0.728289
-0.753071
-0.747528
-0.764810
-0.764158
-0.791549
-0.807201
-0.826440
-0.852852
-0.881547
-0.887743
-0.885786
-0.881221
-0.865569
-0.853830
-0.861330
-0.858395
-0.854156
-0.839157
-0.830678
-0.810787
-0.779810
-0.761223
-0.724376
-0.716550
-0.708072
-0.729267
-0.721441
-0.752093
-0.760897
-0.777853
-0.778179
-0.817309
-0.823831
-0.886764
-0.913177
-0.965350
-0.966328
-0.988828
-0.974806
-0.966980
-0.935350
-0.947741
-0.914807
-0.904373
-0.846004
-0.817961
-0.740354
-0.728941
-0.681333
-0.667963
-0.624595
-0.621660
-0.591660
-0.577965
-0.550574
-0.520901
-0.484706
-0.453728
-0.417859
-0.379055
-0.340904
-0.303404
-0.255470
-0.207537
-0.175907
-0.140364
-0.092104
-0.031127
0.027242
0.101263
0.153436
0.200065
0.207565
0.227130
0.205935
0.223869
0.227782
0.242456
0.228434
0.261695
0.243108
0.242782
0.195174
0.190283
0.132240
0.131914
0.122784
0.130610
0.109089
0.100937
0.065068
0.034416
-0.013192
-0.017757
-0.062430
-0.056234
-0.088516
-0.072538
-0.071886
-0.032430
-0.011235
0.017786
0.039634
0.068981
0.082676
0.093437
0.105176
0.092459
0.067677
0.040938
0.008982
-0.018735
-0.026561
-0.031452
-0.044495
-0.067647
-0.075473
-0.105798
-0.122103
-0.133841
-0.110038
-0.127320
-0.079386
-0.088842
-0.056234
-0.035691
0.006048
0.056916
0.065068
0.124741
0.173979
0.221913
0.245391
0.284521
0.287456
0.260065
0.288108
0.273434
0.255174
0.272782
0.270826
0.255174
0.263326
0.280934
0.316477
0.324629
0.365389
0.377780
0.390172
0.398324
0.412019
0.423106
0.455714
0.494518
0.512126
0.531365
0.544408
0.535930
0.518974
0.514083
0.520604
0.521582
0.525169
0.516039
0.495822
0.495496
0.514409
0.525169
0.528756
0.540169
0.547343
0.534952
0.542452
0.538213
0.545713
0.544734
0.585821
0.614842
0.659841
0.708101
0.764187
0.813752
0.883859
0.968314
1.054074
1.145376
1.242222
1.314286
1.383416
1.457110
1.525913
1.591456
1.665476
1.749279
1.816126
1.870255
1.925037
1.950471
1.937428
1.934167
1.904168
1.866342
1.822647
1.794278
1.727432
1.682432
1.589173
1.528522
1.408198
1.336786
1.221027
1.143094
1.058965
1.012662
0.929837
0.874077
0.809513
0.766470
0.719841
0.699624
0.676146
0.674189
0.672885
0.697993
0.687885
0.680059
0.654951
0.626255
0.592669
0.583865
0.585495
0.596582
0.627234
0.643864
0.645168
0.641255
0.643864
0.623321
0.616473
0.609299
0.594626
0.573104
0.560061
0.543431
0.503323
0.447563
0.417238
0.368325
0.355934
0.348434
0.375825
0.393760
0.470063
0.512453
0.582561
0.627560
0.745275
0.837556
0.969293
1.059944
1.163312
1.212224
1.315592
1.381134
1.473089
1.529827
1.611674
1.629934
1.666781
1.672651
1.703629
1.700368
1.731998
1.706563
1.669390
1.588848
1.521023
1.440481
1.377873
1.362548
1.343635
1.364830
1.385373
1.412438
1.369395
1.291462
1.147660
1.007119
0.882882
0.852231
0.837883
0.842448
0.832014
0.826470
0.763863
0.708429
0.618430
0.567562
0.544084
0.576040
0.620713
0.672234
0.681690
0.663430
0.572127
0.506258
0.451477
0.466803
0.509193
0.647778
0.789297
0.961794
1.058314
1.089292
1.008098
0.918751
0.802340
0.745602
0.698647
0.754733
0.815384
0.920708
1.038097
1.147008
1.169182
1.075597
0.901795
0.689190
0.602127
0.594953
0.772341
0.945164
1.178638
1.297006
1.299941
1.209616
1.019185
0.822232
0.660821
0.614844
0.725386
0.900491
1.147987
1.326027
1.447003
1.446351
1.371027
1.211899
1.019185
0.823862
0.712669
0.725712
0.862340
1.029620
1.160052
1.250377
1.268963
1.193965
1.035489
0.858427
0.745603
0.727994
0.819949
0.981034
1.157444
1.244181
1.223964
1.045598
0.809841
0.603758
0.542780
0.634735
0.873427
1.148639
1.343962
1.428091
1.384722
1.315267
1.254290
1.260812
1.205052
1.113749
1.033533
1.062554
1.179291
1.388962
1.630914
1.860475
2.001016
2.054820
1.991560
1.866997
1.688630
1.629284
1.700043
1.986669
2.332641
2.593180
2.630353
2.386444
2.038842
1.716347
1.634175
1.633197
1.696456
1.712434
1.649175
1.545807
1.395810
1.288203
1.150923
1.012990
0.835928
0.653649
0.534629
0.523542
0.648757
0.871145
1.158423
1.434287
1.640045
1.720587
1.700370
1.580046
1.447005
1.397114
1.478634
1.648523
1.874823
2.185579
2.471226
2.693613
2.789807
2.787525
2.605245
2.377315
2.163079
2.043733
1.994821
2.005256
2.015038
1.995473
1.952757
1.848737
1.662871
1.454179
1.280703
1.166901
1.070707
1.059294
1.063207
1.117663
1.187118
1.327659
1.501134
1.685696
1.819716
1.861454
1.853628
1.814825
1.775695
1.767217
1.890802
2.068516
2.225035
2.334598
2.469270
2.592529
2.713831
2.753939
2.716440
2.570681
2.434379
2.374706
2.487204
2.716114
2.973392
3.151106
3.229039
3.095020
2.901328
2.726874
2.774482
2.920241
3.125672
3.258387
3.410993
3.560664
3.724031
3.811747
3.778487
3.613163
3.376754
3.125346
2.984153
2.922523
2.929697
2.964262
3.022630
3.077412
3.133172
3.105455
2.967196
2.747092
2.490140
2.304925
2.241340
2.288947
2.343729
2.395902
2.372750
2.215905
1.924715
1.648198
1.448962
1.393854
1.483853
1.714718
1.926019
2.144820
2.345686
2.547856
2.550139
2.393620
2.063299
1.793630
1.633850
1.712110
1.949171
2.314382
2.562856
2.643398
2.525031
2.351881
2.191449
2.143189
2.142537
2.148407
2.072104
1.923411
1.715045
1.520374
1.345921
1.240923
1.222662
1.316247
1.453854
1.563091
1.634177
1.633199
1.594069
1.425485
1.245488
1.025709
0.865277
0.694411
0.593978
0.545065
0.556152
0.525827
0.445937
0.317135
0.154094
-0.002099
-0.249921
-0.490895
-0.668609
-0.750782
-0.696000
-0.625240
-0.535894
-0.556111
-0.507851
-0.493177
-0.536220
-0.754042
-0.926539
-0.986538
-0.874692
-0.671544
-0.487634
-0.454700
-0.578284
-0.761542
-0.940887
-1.019798
-0.961104
-0.792846
-0.542089
-0.234921
0.042901
0.224528
0.325287
0.448872
0.646477
0.885821
1.073318
1.148642
1.123860
1.083100
1.060600
1.103969
1.155164
1.145382
0.941907
0.681042
0.493545
0.452459
0.505936
0.612565
0.721476
0.738758
0.667673
0.568544
0.434851
0.296592
0.123769
-0.012533
-0.236225
-0.376440
-0.486981
-0.455351
-0.342201
-0.151117
-0.075466
-0.050358
-0.040902
-0.165791
-0.377418
-0.586762
-0.700890
-0.607305
-0.296549
0.183116
0.620717
1.011689
1.260163
1.363204
1.377878
1.425812
1.477659
1.540919
1.667112
1.813849
1.987650
2.165364
2.343405
2.485250
2.571662
2.572966
2.485576
2.376013
2.297754
2.250798
2.228624
2.157213
1.984063
1.594070
1.121904
0.665065
0.326918
0.144313
0.218659
0.433221
0.624631
0.588762
0.432569
0.086270
-0.259376
-0.565566
-0.589696
-0.509806
-0.235246
-0.005358
0.302462
0.541806
0.820606
0.903104
0.943864
0.827453
0.877018
0.873431
1.117666
1.240924
1.499833
1.524941
1.689286
1.527550
1.454182
1.117666
1.108536
1.006146
1.276794
1.304184
1.626027
1.582006
1.859827
1.717003
1.886240
1.552332
1.672004
1.337119
1.623744
1.217447
0.962451
1.185491
0.762237
0.915496
1.243860
1.535376
1.411791
2.016672
1.563093
1.832762
1.143427
1.291794
0.519633
0.608979
-0.833930
-0.011553
-0.497414
-0.591326
-0.068617
-0.074161
0.353984
0.593980
0.743325
1.009733
0.817345
0.917126
0.784085
0.604740
0.307354
0.161270
0.084967
0.094749
0.034098
-0.124377
-0.321004
-0.662737
-0.922624
-1.196206
-1.252944
-1.435550
-1.418920
-1.518375
-1.395768
-1.474680
-1.481527
-1.626307
-1.606090
-1.783805
-1.547396
-1.513483
-1.195880
-1.068382
-0.711649
-0.790235
-0.496762
-0.502957
-0.446871
-0.391111
-0.105790
0.042903
0.278007
0.356919
0.448222
0.469417
0.509525
0.457678
0.468113
0.408440
0.378115
0.366702
0.393440
0.401266
0.421809
0.450831
0.384636
0.458331
0.540177
0.764847
1.049190
1.336141
1.417662
1.343315
1.055059
0.630502
0.167140
-0.079051
-0.280896
-0.242418
-0.076116
0.215074
0.513765
0.653327
0.828433
0.722457
0.590068
0.223226
0.014534
-0.098290
-0.351655
-0.459262
-0.316438
-0.073834
0.109750
0.525504
0.780173
0.940605
1.105602
1.312338
1.196579
1.189731
1.204731
1.224296
1.289512
1.390924
1.429075
1.420597
1.279730
1.249078
1.151580
1.003539
0.778217
0.554525
0.381702
0.206596
0.118881
0.060838
0.161597
0.289747
0.421484
0.522243
0.416919
0.240183
0.006057
-0.038943
-0.210461
-0.244374
-0.304373
-0.189592
-0.144919
0.053338
0.323660
0.409093
0.709740
0.803978
0.939301
1.034191
1.042017
1.041039
1.151580
1.323099
1.639072
1.925045
2.104064
1.978523
1.685049
1.274187
0.983323
0.845390
0.880281
0.990822
0.983649
0.838869
0.633111
0.382681
0.228118
0.196815
0.132903
0.004101
-0.201331
-0.444587
-0.637627
-0.673170
-0.681648
-0.578281
-0.551542
-0.487630
-0.569802
-0.655888
-0.818928
-0.893927
-1.016860
-0.886101
-0.703496
-0.326872
0.096056
0.321704
0.559743
0.526809
0.544417
0.461919
0.527461
0.603438
0.918433
1.282013
1.664833
1.894720
1.939067
1.715702
1.452554
1.249731
1.097125
0.973867
0.933433
0.892673
0.795500
0.699632
0.610286
0.475289
0.361160
0.290727
0.255836
0.227793
0.169750
0.198772
0.142686
0.133229
0.057905
0.051057
-0.023942
0.047470
0.052035
0.300509
0.509527
1.069735
1.246145
1.818744
1.865047
2.156238
2.126238
2.169933
1.983415
1.917220
1.721898
1.614943
1.376578
1.445707
1.331904
1.376904
1.215493
1.126147
0.841152
0.686590
0.415290
0.310944
0.185403
0.344856
0.551592
0.846696
1.033540
1.241254
1.294731
1.409186
1.510271
1.658638
1.874830
1.968415
2.157216
2.118413
2.260910
2.290910
2.671773
2.748728
3.145569
2.943725
3.100244
2.608187
2.711229
2.075044
2.343409
1.756789
2.280475
1.775049
2.647969
2.057110
2.916334
1.982763
2.915682
1.727442
2.812966
1.156473
2.437973
0.352357
2.370148
-0.085244
3.275676
-0.170025
5.641721
-3.304971
10.312510
-0.282523
1.122561
5.859544
-1.647500
6.177799
-2.595092
5.526615
-2.535745
3.780776
-1.129682
2.384822
-0.629800
1.749289
-0.146547
1.348209
-0.453716
0.736155
-0.049375
0.940608
0.493550
0.911587
0.897565
1.001259
0.732242
0.593331
0.097688
-0.099917
-0.251219
-0.592952
-0.482411
-0.956207
-0.319696
-0.923925
-0.327196
-0.884795
0.151817
-0.737732
0.134535
-0.621647
0.236272
-0.713928
-0.169047
-0.831318
-0.123395
-0.243719
0.523224
0.159317
0.762242
0.365075
0.768111
0.423443
0.653657
0.140405
-0.055570
-0.729906
-0.992728
-1.446633
-1.371634
-1.301201
-1.335765
-1.458046
-1.652064
-1.629890
-1.751193
-1.700976
-1.752171
-1.574783
-1.780866
-1.669346
-1.975863
-1.644564
-1.910320
-1.473045
-1.492936
-0.863925
-0.891968
-0.533605
-0.823817
-0.790883
-1.182833
-1.179572
-1.325982
-1.209571
-1.477936
-1.427720
-1.602499
-1.404242
-1.618477
-1.425111
-1.631194
-1.622390
-1.728693
-1.582282
-1.451850
-1.307396
-1.247723
-1.262722
-1.208919
-1.224897
-1.295004
-1.448589
-1.479893
-1.614564
-1.574130
-1.647824
-1.343591
-1.317504
-1.000553
-0.935337
-0.499692
-0.415563
-0.120786
-0.214045
-0.186002
-0.309261
-0.356868
-0.382955
-0.225458
-0.090460
0.257469
0.482465
0.852241
1.167888
1.513860
1.689944
1.744726
1.738204
1.636141
1.202126
0.771047
0.371923
0.087907
-0.115894
-0.215349
-0.241109
-0.346107
-0.625885
-0.850555
-0.989466
-1.187071
-1.334460
-1.579673
-1.802060
-2.013035
-2.154880
-2.361290
-2.380855
-2.320856
-2.041078
-1.691519
-1.347503
-1.023704
-0.806534
-0.683275
-0.532300
-0.400237
-0.285456
-0.202958
-0.110676
-0.161871
-0.253826
-0.469366
-0.523169
-0.585125
-0.711318
-0.999248
-1.292721
-1.668693
-2.059664
-2.353463
-2.555634
-2.767261
-2.934866
-3.115189
-3.479748
-3.955175
-4.371580
-4.637663
-4.745270
-4.874724
-5.035808
-5.098416
-5.095807
-5.038090
-4.952983
-4.870485
-4.618098
-4.319407
-4.048434
-3.822785
-3.766699
-3.906262
-4.143649
-4.200061
-4.156693
-4.050390
-3.848546
-3.574637
-3.318664
-3.168340
-3.005300
-2.854324
-2.811607
-2.757478
-2.710196
-2.639436
-2.457809
-2.368789
-2.468570
-2.566394
-2.727478
-2.824976
-3.044755
-3.327142
-3.625180
-3.885393
-4.050390
-4.123758
-4.198757
-4.293320
-4.463861
-4.666683
-5.003851
-5.545146
-6.152636
-6.623823
-6.948600
-7.020012
-6.872297
-6.641432
-6.331328
-6.016334
-5.727752
-5.512212
-5.349824
-5.186457
-5.054068
-4.893310
-4.684292
-4.459622
-4.256473
-4.045824
-3.880175
-3.735395
-3.675070
-3.794090
-3.982238
-4.231038
-4.366362
-4.414948
-4.333428
-4.163540
-4.049085
-3.920935
-3.830937
-3.783329
-3.725612
-3.555724
-3.332684
-3.287685
-3.321924
-3.654853
-4.078106
-4.571467
-5.012329
-5.232760
-5.420909
-5.592754
-5.759055
-5.924052
-6.041115
-6.246221
-6.331654
-6.222090
-5.924378
-5.591123
-5.224608
-4.994068
-4.775268
-4.621357
-4.577336
-4.627227
-4.755377
-4.906678
-4.993090
-4.909613
-4.750812
-4.730594
-4.709073
-4.759942
-4.600814
-4.410709
-4.232994
-4.087888
-4.136148
-4.227451
-4.419187
-4.529402
-4.549293
-4.528750
-4.590705
-4.768746
-5.033198
-5.143739
-5.210912
-5.110153
-4.833310
-4.602444
-4.461903
-4.328862
-4.383644
-4.496142
-4.753420
-4.938634
-5.218738
-5.481233
-5.603188
-5.551667
-5.336453
-4.987872
-4.482446
-3.961368
-3.576592
-3.397574
-3.340836
-3.498007
-3.665286
-3.807458
-3.894848
-3.858000
-3.825718
-3.671482
-3.472572
-3.304314
-3.164099
-3.115839
-3.131817
-3.232576
-3.316705
-3.427247
-3.591918
-3.737676
-3.780393
-3.801588
-3.761480
-3.728872
-3.753002
-3.749415
-3.775176
-3.735068
-3.733763
-3.751372
-3.838761
-4.046149
-4.406469
-4.762224
-5.011676
-5.108196
-5.020806
-4.783419
-4.415925
-4.032127
-3.657460
-3.359748
-3.278227
-3.307249
-3.383226
-3.433768
-3.339531
-2.975624
-2.429438
-1.832709
-1.293697
-0.921964
-0.726967
-0.676425
-0.798705
-0.965007
-1.080113
-1.245110
-1.371304
-1.613582
-1.801405
-1.923033
-2.014336
-2.103030
-2.238028
-2.395851
-2.509001
-2.563457
-2.584000
-2.598022
-2.545522
-2.513566
-2.477371
-2.494328
-2.605847
-2.711824
-2.844539
-3.015406
-3.067905
-2.970406
-2.706606
-2.403677
-2.249114
-2.338135
-2.623130
-2.980841
-3.271053
-3.368551
-3.211380
-2.850082
-2.340743
-1.822600
-1.295979
-0.978376
-0.787618
-0.778488
-0.758923
-0.617077
-0.424689
-0.158933
0.258777
0.817354
1.276477
1.746686
2.018638
2.096571
1.954726
1.753534
1.491690
1.306476
1.130392
0.972243
0.730943
0.566598
0.443665
0.370297
0.245408
0.147257
0.051716
0.021390
0.096389
0.243451
0.406166
0.575402
0.784094
0.917461
0.924635
0.855506
0.732247
0.618119
0.534642
0.575076
0.689857
0.787681
0.797790
0.739421
0.664749
0.605402
0.579315
0.478556
0.323668
0.140410
-0.023609
-0.107738
-0.157628
-0.154041
-0.084260
0.042260
0.178236
0.247039
0.217691
0.135845
-0.021652
-0.186649
-0.289365
-0.345451
-0.355886
-0.428602
-0.545665
-0.644141
-0.719466
-0.771313
-0.831964
-0.901419
-0.972505
-1.050112
-1.015222
-0.960440
-0.798378
-0.655228
-0.512078
-0.371863
-0.287082
-0.278930
-0.312190
-0.330451
-0.309256
-0.333060
-0.317082
-0.245344
-0.134476
-0.030130
-0.024261
-0.091433
-0.134150
-0.166106
-0.108716
-0.032413
0.027260
-0.059803
-0.256104
-0.503926
-0.736096
-0.972505
-1.096742
-1.107176
-1.008700
-0.927506
-0.892615
-0.895550
-0.859681
-0.795769
-0.742943
-0.708705
-0.681640
-0.684575
-0.710987
-0.787617
-0.906962
-1.105220
-1.290108
-1.395758
-1.386954
-1.267282
-1.138480
-1.109785
-1.175653
-1.249347
-1.323368
-1.335759
-1.237935
-1.061851
-0.807181
-0.628815
-0.520882
-0.532295
-0.682618
-0.878593
-1.015873
-1.046199
-1.192609
-1.066742
-1.068372
