EVENT_NAME: 202302060117
EVENT_ID: 13194
EVENT_DATE_YYYYMMDD: 2023/02/06
EVENT_TIME_HHMMSS: 01:17:32.00000
EVENT_LATITUDE_DEGREE: 37.288
EVENT_LONGITUDE_DEGREE: 37.043
EVENT_DEPTH_KM: 8.6
HYPOCENTER_REFERENCE: AFAD
MAGNITUDE_W: 7.7
MAGNITUDE_W_REFERENCE: AFAD
MAGNITUDE_L: 
MAGNITUDE_L_REFERENCE: 
FOCAL_MECHANISM: 
NETWORK: TK
STATION_CODE: 1909
STATION_NAME: 
STATION_LATITUDE_DEGREE: 40.725295
STATION_LONGITUDE_DEGREE: 34.467468
STATION_ELEVATION_M: 1080.0
LOCATION: Kahramanmaras_Pazarck_Turkiye
SENSOR_DEPTH_M: 
VS30_M/S: None
SITE_CLASSIFICATION_EC8: unknown
MORPHOLOGIC_CLASSIFICATION: 
EPICENTRAL_DISTANCE_KM: 442.22
EARTHQUAKE_BACKAZIMUTH_DEGREE: 
DATE_TIME_FIRST_SAMPLE_YYYYMMDD_HHMMSS: 2023/02/06 01:18:08.1798270
DATE_TIME_FIRST_SAMPLE_PRECISION: millisecond
SAMPLING_INTERVAL_S: 0.01
NDATA: 21001
DURATION_S: 
STREAM: HNN
UNITS: cm/s^2
INSTRUMENT: sensor = ACEBOX/SARA | digitizer = 
INSTRUMENT_ANALOG/DIGITAL: 
INSTRUMENTAL_FREQUENCY_HZ: 
INSTRUMENTAL_DAMPING: 
FULL_SCALE_G: 
N_BIT_DIGITAL_CONVERTER: 
PGA_CM/S^2: 3.190
TIME_PGA_S: 
BASELINE_CORRECTION: BASELINE REMOVED
FILTER_TYPE: BUTTERWORTH
FILTER_ORDER: 
LOW_CUT_FREQUENCY_HZ: 
HIGH_CUT_FREQUENCY_HZ: 
LATE/NORMAL_TRIGGERED: 
DATABASE_VERSION: 
HEADER_FORMAT: DYNA 1.2
DATA_TYPE: Acceleration
PROCESSING: Automatic Paolucci et al., 2011
DATA_TIMESTAMP_YYYYMMDD_HHMMSS: 
DATA_LICENSE: U (unknown license)
DATA_CITATION: Turkish Accelerometric Archive v 1.0 - Disaster And Emergency Management Presidency, Earthquake Department
DATA_CREATOR: AFAD
ORIGINAL_DATA_MEDIATOR_CITATION: : AFAD - Disaster And Emergency Management Presidency
ORIGINAL_DATA_MEDIATOR: AFAD PROCESS SERVICE
ORIGINAL_DATA_CREATOR_CITATION: AFAD PROCESS SERVICE
ORIGINAL_DATA_CREATOR: network: TK
USER1: GuestUser
USER2: 
USER3: 
USER4: 
USER5: 
[...]
0.246560
0.242352
0.244222
0.251236
0.266900
0.282798
0.302904
0.327920
0.352001
0.369769
0.384265
0.408112
0.429855
0.432894
0.417697
0.393148
0.370235
0.338205
0.287237
0.237204
0.190211
0.131527
0.070740
0.020239
-0.030729
-0.088009
-0.144355
-0.194154
-0.238575
-0.279256
-0.320405
-0.363424
-0.398727
-0.429121
-0.467698
-0.507444
-0.539942
-0.567764
-0.597690
-0.625980
-0.642814
-0.656842
-0.668064
-0.661284
-0.637671
-0.606576
-0.574312
-0.527787
-0.467234
-0.405511
-0.335372
-0.263831
-0.193692
-0.110928
-0.034243
0.026311
0.087565
0.149755
0.200957
0.238832
0.268290
0.285123
0.281382
0.273900
0.269692
0.250286
0.216619
0.182952
0.141102
0.083588
0.024671
-0.035649
-0.106490
-0.186449
-0.261498
-0.318311
-0.370682
-0.423053
-0.458356
-0.483139
-0.497167
-0.485477
-0.467008
-0.452746
-0.417911
-0.365774
-0.315976
-0.258462
-0.196272
-0.136186
-0.069554
-0.004325
0.060437
0.134316
0.198143
0.251215
0.310131
0.363904
0.399675
0.422821
0.443161
0.455552
0.446901
0.430535
0.409493
0.368111
0.325793
0.287684
0.235313
0.175929
0.108127
0.030039
-0.044777
-0.116786
-0.188329
-0.262443
-0.336089
-0.398981
-0.461405
-0.528505
-0.584616
-0.631376
-0.678136
-0.715777
-0.736586
-0.750380
-0.756459
-0.742431
-0.710869
-0.670188
-0.623663
-0.564279
-0.486658
-0.409038
-0.326741
-0.229248
-0.141574
-0.054836
0.044762
0.135007
0.219642
0.301003
0.368570
0.432864
0.493651
0.547190
0.592547
0.614524
0.623174
0.631590
0.616393
0.577583
0.533629
0.479154
0.421639
0.361319
0.283932
0.208182
0.142484
0.086139
0.047095
0.007583
-0.024214
-0.036372
-0.041983
-0.028189
-0.003407
0.017635
0.048963
0.088241
0.127752
0.158613
0.184097
0.218933
0.246521
0.265692
0.286967
0.299592
0.307307
0.313385
0.320399
0.334427
0.344012
0.337699
0.324373
0.318060
0.313851
0.300992
0.280418
0.252362
0.221267
0.187132
0.150426
0.114421
0.069531
0.021603
-0.018844
-0.059058
-0.100674
-0.142290
-0.181802
-0.217573
-0.252877
-0.279998
-0.299169
-0.315769
-0.325589
-0.327693
-0.322784
-0.308522
-0.283039
-0.251710
-0.220381
-0.178532
-0.127564
-0.082909
-0.040358
0.005933
0.048250
0.087528
0.121195
0.149016
0.174968
0.193204
0.200451
0.205127
0.205127
0.189929
0.166082
0.136857
0.093838
0.047312
-0.002954
-0.058598
-0.109099
-0.171289
-0.243065
-0.305022
-0.368849
-0.435247
-0.502581
-0.571551
-0.633508
-0.699907
-0.773085
-0.840185
-0.904714
-0.973450
-1.042421
-1.101572
-1.156748
-1.205846
-1.241149
-1.286506
-1.337708
-1.369271
-1.401301
-1.436839
-1.465128
-1.498796
-1.526384
-1.541113
-1.557012
-1.572910
-1.584366
-1.577820
-1.557480
-1.547661
-1.524983
-1.480328
-1.445258
-1.411592
-1.366469
-1.318775
-1.262196
-1.207488
-1.161664
-1.112567
-1.062534
-1.003150
-0.938622
-0.890694
-0.844636
-0.799981
-0.761638
-0.715113
-0.676771
-0.650352
-0.631180
-0.622063
-0.605229
-0.605463
-0.628843
-0.637260
-0.652925
-0.677474
-0.688463
-0.695711
-0.698750
-0.708570
-0.720026
-0.716052
-0.719325
-0.716520
-0.705064
-0.717923
-0.712780
-0.687062
-0.673035
-0.633289
-0.596817
-0.572970
-0.515924
-0.467294
-0.408845
-0.327718
-0.273243
-0.198195
-0.124549
-0.083868
-0.020743
0.022743
0.048227
0.078152
0.068099
0.061319
0.058747
0.024612
-0.005081
-0.035007
-0.071012
-0.109589
-0.147698
-0.169909
-0.211759
-0.251972
-0.252440
-0.268338
-0.297563
-0.308084
-0.322814
-0.333335
-0.327724
-0.320477
-0.318373
-0.319542
-0.307385
-0.293825
-0.301072
-0.306216
-0.302710
-0.316504
-0.339416
-0.354613
-0.374486
-0.410257
-0.447899
-0.472214
-0.502140
-0.546095
-0.572981
-0.595192
-0.629093
-0.640082
-0.640784
-0.646629
-0.634939
-0.616937
-0.598233
-0.568775
-0.532303
-0.490220
-0.450474
-0.414002
-0.378699
-0.344799
-0.310665
-0.280973
-0.243098
-0.204521
-0.186519
-0.163140
-0.129005
-0.096040
-0.061672
-0.032448
-0.000184
0.031144
0.047978
0.071591
0.101049
0.115544
0.125597
0.148042
0.163005
0.170486
0.191060
0.203217
0.217245
0.245300
0.256522
0.273823
0.300476
0.307489
0.317542
0.321517
0.310762
0.299305
0.270548
0.233842
0.188251
0.124424
0.065975
0.006590
-0.061445
-0.126675
-0.189567
-0.242171
-0.285190
-0.319793
-0.345744
-0.372631
-0.379645
-0.362578
-0.356266
-0.345512
-0.312079
-0.273502
-0.229315
-0.180919
-0.134160
-0.076880
-0.015158
0.041421
0.099870
0.162060
0.222613
0.282231
0.344421
0.404507
0.459215
0.515326
0.566528
0.605572
0.645083
0.681555
0.703298
0.720833
0.727846
0.720832
0.714052
0.700491
0.675709
0.653030
0.639470
0.630819
0.615856
0.598087
0.599489
0.617492
0.630818
0.646014
0.669628
0.697216
0.734389
0.778343
0.821127
0.862275
0.896877
0.931947
0.979641
1.024764
1.060067
1.101215
1.145402
1.182810
1.221854
1.262534
1.301110
1.331971
1.353247
1.369379
1.375925
1.375457
1.366105
1.334776
1.301342
1.274222
1.225592
1.155920
1.097704
1.045333
0.975895
0.911835
0.855255
0.791195
0.746072
0.711937
0.671490
0.644837
0.629172
0.616079
0.607896
0.610701
0.624963
0.629405
0.637120
0.660265
0.675930
0.693698
0.719415
0.740457
0.760096
0.777630
0.801711
0.832338
0.844028
0.854081
0.883072
0.904581
0.922817
0.943625
0.942923
0.940819
0.952041
0.953677
0.945026
0.938947
0.928192
0.902241
0.875120
0.859923
0.833270
0.791887
0.753544
0.710058
0.658856
0.609525
0.559024
0.500808
0.439086
0.385780
0.333175
0.271920
0.209028
0.150579
0.092363
0.036953
-0.010041
-0.061944
-0.116653
-0.154294
-0.186792
-0.221628
-0.248048
-0.262076
-0.275636
-0.295275
-0.305329
-0.311408
-0.323098
-0.327540
-0.335957
-0.349752
-0.348817
-0.341803
-0.338764
-0.329178
-0.307435
-0.281250
-0.248285
-0.200825
-0.146818
-0.086966
-0.019399
0.049571
0.120178
0.190083
0.260456
0.331530
0.398863
0.466197
0.532127
0.593382
0.654637
0.713086
0.761482
0.806838
0.857806
0.898720
0.934958
0.977275
0.999720
1.021930
1.061442
1.079444
1.085289
1.096744
1.098381
1.100952
1.101887
1.090665
1.080144
1.069623
1.054659
1.039228
1.023798
1.007665
0.991533
0.977505
0.954593
0.929576
0.917418
0.896610
0.861540
0.843772
0.833017
0.808234
0.783217
0.761942
0.736458
0.710740
0.693906
0.678475
0.654394
0.639898
0.637326
0.630546
0.626571
0.630545
0.628675
0.618387
0.618621
0.623998
0.617685
0.619322
0.625400
0.607865
0.583316
0.567184
0.551052
0.530477
0.501019
0.468053
0.441400
0.417319
0.390198
0.368922
0.351855
0.327072
0.303224
0.282650
0.260439
0.242203
0.223265
0.206431
0.191234
0.174634
0.171828
0.165048
0.154293
0.165983
0.176503
0.187024
0.215080
0.239862
0.262072
0.285218
0.308598
0.335718
0.347875
0.349511
0.351615
0.341796
0.327768
0.312103
0.289191
0.257861
0.216479
0.177669
0.143768
0.105659
0.066380
0.029908
-0.002123
-0.034855
-0.055429
-0.058469
-0.072029
-0.073198
-0.050988
-0.043740
-0.021763
0.018683
0.046505
0.095368
0.152882
0.205019
0.282639
0.358155
0.428061
0.509656
0.585172
0.666767
0.751869
0.826216
0.901499
0.973742
1.042712
1.104434
1.151661
1.197719
1.245179
1.286094
1.316253
1.342438
1.372598
1.396913
1.415149
1.425202
1.426370
1.428007
1.417953
1.400652
1.385689
1.357399
1.323732
1.293338
1.256632
1.221328
1.190700
1.159839
1.126172
1.093908
1.070528
1.048083
1.029613
1.021196
1.008103
0.998985
1.007869
1.013012
1.012778
1.021428
1.028910
1.030780
1.031247
1.029844
1.028675
1.021661
1.011607
1.010204
1.007866
1.000852
1.002722
1.007631
1.015113
1.033349
1.050649
1.066314
1.085719
1.100915
1.114008
1.135049
1.159831
1.171755
1.172924
1.177366
1.179937
1.180404
1.179703
1.174793
1.171286
1.168947
1.167311
1.159127
1.141125
1.132474
1.121719
1.098573
1.082675
1.061165
1.026563
0.997104
0.970217
0.943330
0.921119
0.895401
0.870151
0.848174
0.821521
0.802349
0.792062
0.774527
0.753719
0.731742
0.715609
0.702049
0.678903
0.664641
0.653418
0.635649
0.627466
0.619517
0.616010
0.619283
0.614139
0.611801
0.607826
0.607124
0.619515
0.623490
0.629802
0.640556
0.640322
0.645466
0.645699
0.638919
0.633308
0.618578
0.614603
0.619747
0.614135
0.613667
0.612031
0.605017
0.610627
0.611796
0.604314
0.606652
0.603145
0.582804
0.559424
0.538382
0.518509
0.486947
0.442993
0.406286
0.366073
0.316508
0.279334
0.242861
0.200076
0.163369
0.128533
0.101880
0.081773
0.053718
0.030805
0.015842
-0.001459
-0.014085
-0.017358
-0.016423
-0.018761
-0.018060
-0.002630
0.023088
0.049273
0.076393
0.116840
0.175055
0.238882
0.308553
0.385706
0.463794
0.547961
0.636102
0.718165
0.799526
0.881121
0.952429
1.015320
1.078445
1.137595
1.182952
1.217554
1.246544
1.271794
1.292602
1.306396
1.313643
1.309435
1.298212
1.298913
1.294003
1.274598
1.261973
1.249347
1.236488
1.233916
1.227837
1.220823
1.219654
1.215913
1.213575
1.213341
1.214276
1.222225
1.227134
1.225030
1.233212
1.248175
1.257293
1.267814
1.284179
1.306156
1.332809
1.356188
1.379100
1.408091
1.441523
1.474021
1.505583
1.542757
1.583905
1.623884
1.662694
1.694724
1.721611
1.750601
1.774215
1.784268
1.781462
1.766031
1.745223
1.723713
1.683266
1.625752
1.571511
1.513529
1.443623
1.373951
1.308488
1.236946
1.159091
1.094095
1.037983
0.975092
0.918279
0.864505
0.810965
0.774493
0.736851
0.695235
0.665543
0.633512
0.602651
0.581141
0.557294
0.536953
0.517781
0.495103
0.486218
0.483412
0.464475
0.442731
0.428469
0.409765
0.387087
0.357161
0.316480
0.267382
0.204256
0.139261
0.082448
0.020725
-0.045908
-0.108098
-0.164677
-0.226867
-0.286486
-0.318049
-0.340727
-0.371589
-0.403853
-0.434013
-0.444768
-0.444534
-0.448042
-0.446873
-0.441496
-0.422558
-0.400114
-0.383982
-0.352420
-0.316182
-0.283918
-0.239496
-0.187360
-0.131950
-0.079580
-0.033288
0.016043
0.061633
0.106522
0.147670
0.169647
0.178998
0.175725
0.170347
0.183440
0.175958
0.124522
0.073087
0.050642
0.049239
0.040354
0.010896
-0.016459
-0.030019
-0.031656
-0.029552
-0.036566
-0.046853
-0.055972
-0.060414
-0.051764
-0.038672
-0.030956
-0.024644
-0.011318
0.004112
0.009723
0.015334
0.035908
0.064665
0.091318
0.121945
0.159352
0.194889
0.225750
0.253806
0.281627
0.307345
0.320437
0.326516
0.331659
0.326281
0.313890
0.294718
0.267831
0.247023
0.231359
0.212655
0.194652
0.177351
0.152334
0.127084
0.108614
0.084299
0.052736
0.016497
-0.023015
-0.051305
-0.078659
-0.114197
-0.140148
-0.153008
-0.154644
-0.152540
-0.150670
-0.136876
-0.120745
-0.107185
-0.084273
-0.054581
-0.020914
0.013921
0.045718
0.078215
0.111414
0.148588
0.187632
0.214051
0.236729
0.270863
0.311309
0.351756
0.387527
0.421194
0.467953
0.524298
0.580175
0.638858
0.698242
0.761133
0.825895
0.887851
0.957055
1.029766
1.096164
1.153911
1.206282
1.265432
1.322011
1.356379
1.379525
1.402670
1.419971
1.431193
1.444987
1.453637
1.443116
1.432361
1.425347
1.405240
1.387238
1.376717
1.359415
1.341646
1.329255
1.318500
1.308680
1.300030
1.290210
1.274078
1.252334
1.236436
1.219836
1.192949
1.167933
1.142916
1.109015
1.076283
1.043552
1.005910
0.965697
0.921742
0.884568
0.850901
0.810688
0.770007
0.728391
0.689347
0.652874
0.607050
0.557017
0.507919
0.450638
0.388682
0.330934
0.272952
0.206553
0.136648
0.067911
0.002681
-0.057872
-0.125440
-0.196047
-0.254263
-0.307569
-0.358537
-0.403192
-0.442471
-0.474033
-0.505129
-0.534821
-0.551421
-0.568956
-0.591868
-0.605429
-0.609404
-0.611742
-0.620860
-0.632784
-0.638863
-0.647046
-0.657100
-0.668322
-0.687260
-0.709237
-0.745008
-0.803692
-0.866350
-0.932748
-1.013642
-1.105291
-1.203486
-1.302383
-1.407358
-1.511632
-1.605151
-1.703346
-1.797566
-1.877993
-1.950470
-2.004711
-2.051471
-2.094256
-2.119039
-2.136106
-2.141250
-2.130963
-2.112026
-2.078827
-2.036977
-1.987413
-1.928262
-1.864903
-1.790556
-1.712000
-1.637887
-1.563540
-1.499012
-1.446641
-1.392868
-1.341901
-1.308234
-1.287426
-1.269424
-1.256799
-1.249318
-1.252592
-1.269893
-1.287895
-1.309171
-1.337928
-1.365049
-1.392170
-1.419057
-1.448282
-1.477507
-1.490366
-1.494107
-1.503693
-1.510005
-1.511175
-1.511175
-1.506967
-1.504863
-1.502993
-1.499720
-1.505331
-1.503928
-1.492473
-1.491538
-1.493174
-1.486161
-1.477277
-1.475407
-1.480083
-1.480551
-1.484058
-1.493176
-1.499723
-1.507204
-1.513283
-1.521700
-1.538768
-1.555367
-1.566590
-1.574072
-1.583424
-1.597686
-1.607505
-1.610779
-1.609610
-1.610312
-1.618962
-1.632523
-1.661514
-1.695181
-1.719964
-1.764385
-1.824004
-1.876842
-1.936461
-1.997248
-2.064115
-2.142671
-2.211407
-2.283651
-2.363844
-2.435853
-2.505759
-2.569820
-2.628737
-2.687186
-2.737921
-2.784680
-2.827465
-2.869315
-2.909996
-2.942728
-2.969615
-2.985046
-2.989021
-2.990190
-2.980137
-2.961200
-2.938288
-2.909998
-2.883580
-2.851550
-2.809466
-2.770656
-2.731846
-2.689529
-2.646043
-2.601154
-2.564682
-2.529613
-2.481451
-2.436796
-2.403830
-2.368527
-2.329951
-2.296752
-2.270801
-2.245785
-2.220301
-2.198792
-2.179387
-2.165827
-2.149227
-2.127017
-2.117899
-2.112990
-2.108781
-2.109951
-2.109249
-2.120940
-2.138007
-2.158114
-2.193417
-2.224513
-2.259582
-2.304238
-2.345620
-2.400095
-2.454103
-2.503200
-2.563286
-2.617294
-2.665924
-2.723438
-2.780719
-2.828414
-2.874472
-2.922868
-2.964251
-3.000957
-3.039534
-3.073201
-3.104530
-3.132352
-3.152693
-3.169526
-3.179814
-3.185425
-3.190101
-3.186127
-3.175138
-3.160877
-3.132120
-3.098454
-3.070398
-3.028549
-2.971736
-2.915158
-2.854604
-2.785401
-2.712456
-2.644187
-2.569606
-2.492220
-2.431666
-2.370178
-2.307053
-2.262632
-2.214937
-2.166308
-2.139421
-2.116977
-2.092896
-2.076530
-2.066010
-2.061802
-2.052684
-2.036552
-2.023460
-2.009432
-1.990728
-1.970622
-1.945840
-1.915914
-1.881312
-1.842268
-1.799484
-1.746412
-1.681416
-1.614083
-1.549321
-1.481754
-1.414187
-1.348257
-1.280689
-1.218733
-1.163557
-1.111888
-1.070974
-1.033567
-0.995692
-0.972312
-0.959220
-0.955947
-0.967403
-0.986809
-1.014163
-1.057416
-1.115164
-1.173380
-1.235804
-1.309216
-1.373511
-1.433363
-1.506308
-1.572239
-1.631858
-1.689606
-1.734262
-1.774241
-1.806038
-1.821001
-1.826379
-1.818430
-1.797622
-1.769567
-1.735900
-1.700363
-1.656877
-1.596557
-1.532731
-1.476386
-1.417002
-1.348499
-1.275555
-1.201675
-1.133640
-1.073555
-1.014872
-0.955020
-0.897740
-0.843967
-0.798844
-0.754189
-0.706495
-0.667685
-0.634018
-0.602222
-0.570192
-0.532551
-0.501923
-0.473167
-0.441370
-0.412146
-0.376375
-0.347385
-0.321667
-0.286130
-0.263452
-0.247086
-0.230721
-0.218797
-0.203835
-0.201497
-0.206641
-0.204771
-0.211083
-0.224410
-0.238204
-0.256207
-0.281457
-0.302032
-0.316761
-0.343414
-0.363755
-0.374276
-0.387369
-0.383628
-0.378719
-0.383395
-0.369601
-0.349027
-0.331259
-0.302736
-0.278187
-0.259484
-0.230961
-0.201736
-0.177422
-0.152639
-0.129727
-0.104945
-0.077123
-0.050705
-0.023584
0.003770
0.032527
0.071804
0.116459
0.153165
0.186364
0.216758
0.238033
0.255100
0.267257
0.263516
0.245981
0.220497
0.187531
0.143577
0.083491
0.010780
-0.071049
-0.160594
-0.248034
-0.339215
-0.442554
-0.539580
-0.624683
-0.710253
-0.791614
-0.862689
-0.924412
-0.980289
-1.027049
-1.054170
-1.071939
-1.090409
-1.092513
-1.077317
-1.052534
-1.021907
-0.987773
-0.943118
-0.900099
-0.856847
-0.796294
-0.752106
-0.716803
-0.663498
-0.627961
-0.601308
-0.585410
-0.601776
-0.582371
-0.542860
-0.560395
-0.589152
-0.598504
-0.611597
-0.620014
-0.636614
-0.659059
-0.669346
-0.688284
-0.718210
-0.748370
-0.778998
-0.806820
-0.846332
-0.894494
-0.935877
-0.982870
-1.033604
-1.085975
-1.154946
-1.220175
-1.277690
-1.349699
-1.420306
-1.487406
-1.568300
-1.645688
-1.706943
-1.767029
-1.825478
-1.876680
-1.922505
-1.951730
-1.968797
-1.988436
-1.992411
-1.976045
-1.965525
-1.953601
-1.924377
-1.895152
-1.871773
-1.850498
-1.834833
-1.822442
-1.814260
-1.812623
-1.818001
-1.833666
-1.854708
-1.881361
-1.915963
-1.949162
-1.977920
-2.003871
-2.024913
-2.040812
-2.050398
-2.052035
-2.043384
-2.028889
-2.014861
-1.994989
-1.966700
-1.933735
-1.897029
-1.856582
-1.807017
-1.753010
-1.707420
-1.662765
-1.610628
-1.561064
-1.514304
-1.471520
-1.433411
-1.389223
-1.347140
-1.318851
-1.294536
-1.274430
-1.258532
-1.242166
-1.233984
-1.234685
-1.237023
-1.248012
-1.262508
-1.274198
-1.297812
-1.330310
-1.360470
-1.392500
-1.423362
-1.451418
-1.485318
-1.512673
-1.534650
-1.566681
-1.592632
-1.605491
-1.620455
-1.637756
-1.647108
-1.644770
-1.641264
-1.639393
-1.622326
-1.593570
-1.564579
-1.526003
-1.478776
-1.426873
-1.370528
-1.312780
-1.248720
-1.184426
-1.118262
-1.053500
-0.993882
-0.918366
-0.853604
-0.798896
-0.733199
-0.679660
-0.620275
-0.585206
-0.540785
-0.467139
-0.461996
-0.389519
-0.344162
-0.473920
-0.381336
-0.182843
-0.221186
-0.234980
-0.215108
-0.237319
-0.185883
-0.143566
-0.102652
-0.037890
-0.010069
0.022896
0.082515
0.156628
0.213674
0.258329
0.331508
0.389957
0.426663
0.479033
0.519246
0.539119
0.561095
0.584709
0.598970
0.605516
0.613231
0.615335
0.607620
0.599670
0.598969
0.602943
0.602475
0.598734
0.602942
0.613463
0.627023
0.640583
0.652506
0.673548
0.694589
0.710487
0.743453
0.788341
0.830892
0.878587
0.934464
1.002031
1.082457
1.164520
1.246115
1.330282
1.418891
1.507499
1.591900
1.676301
1.751349
1.810500
1.866611
1.917345
1.956389
1.984678
2.000576
2.013201
2.020916
2.015304
2.004783
1.995899
1.991456
1.984442
1.967842
1.955919
1.947502
1.930200
1.913601
1.896299
1.874790
1.849539
1.816106
1.786881
1.761865
1.731705
1.701778
1.668813
1.636782
1.613169
1.589321
1.565240
1.543964
1.519883
1.492528
1.473590
1.464706
1.448340
1.424492
1.402515
1.384278
1.367912
1.346637
1.322555
1.297071
1.269249
1.241661
1.211501
1.181808
1.149076
1.106759
1.067013
1.024696
0.975832
0.932111
0.891664
0.850282
0.800950
0.751385
0.716549
0.689195
0.659736
0.627472
0.603157
0.589596
0.571126
0.551954
0.537459
0.517118
0.495375
0.478307
0.456798
0.434353
0.418922
0.395074
0.368421
0.356030
0.338495
0.311842
0.292436
0.272797
0.252690
0.239364
0.226972
0.215282
0.201254
0.189096
0.190966
0.195408
0.198915
0.208033
0.217852
0.239595
0.268820
0.283782
0.310903
0.350414
0.377301
0.415176
0.455155
0.480638
0.519215
0.555687
0.578832
0.612031
0.640788
0.656920
0.674922
0.700874
0.728929
0.742957
0.746697
0.755347
0.764231
0.767037
0.763763
0.752073
0.731733
0.709756
0.688714
0.663229
0.634238
0.600337
0.558955
0.514066
0.467306
0.417040
0.362331
0.305284
0.245899
0.183475
0.119882
0.057926
-0.001459
-0.060143
-0.116488
-0.164884
-0.210709
-0.260508
-0.308436
-0.348416
-0.383252
-0.414113
-0.439831
-0.455028
-0.460640
-0.458536
-0.446846
-0.426740
-0.395879
-0.358939
-0.323168
-0.275006
-0.217960
-0.171201
-0.121636
-0.063187
-0.011986
0.030799
0.071713
0.111926
0.141618
0.157283
0.165699
0.159620
0.142319
0.121277
0.086207
0.040149
-0.012456
-0.078621
-0.150864
-0.220302
-0.291845
-0.372271
-0.455035
-0.525175
-0.584793
-0.636463
-0.675975
-0.708707
