EVENT_NAME: 202302060117
EVENT_ID: 13194
EVENT_DATE_YYYYMMDD: 2023/02/06
EVENT_TIME_HHMMSS: 01:17:32.00000
EVENT_LATITUDE_DEGREE: 37.288
EVENT_LONGITUDE_DEGREE: 37.043
EVENT_DEPTH_KM: 8.6
HYPOCENTER_REFERENCE: AFAD
MAGNITUDE_W: 7.7
MAGNITUDE_W_REFERENCE: AFAD
MAGNITUDE_L: 
MAGNITUDE_L_REFERENCE: 
FOCAL_MECHANISM: 
NETWORK: TK
STATION_CODE: 2308
STATION_NAME: 
STATION_LATITUDE_DEGREE: 38.45063
STATION_LONGITUDE_DEGREE: 39.3102
STATION_ELEVATION_M: 1248.0
LOCATION: Kahramanmaras_Pazarck_Turkiye
SENSOR_DEPTH_M: 
VS30_M/S: 450
SITE_CLASSIFICATION_EC8: B
MORPHOLOGIC_CLASSIFICATION: 
EPICENTRAL_DISTANCE_KM: 237.30
EARTHQUAKE_BACKAZIMUTH_DEGREE: 
DATE_TIME_FIRST_SAMPLE_YYYYMMDD_HHMMSS: 2023/02/06 01:17:52.9113500
DATE_TIME_FIRST_SAMPLE_PRECISION: millisecond
SAMPLING_INTERVAL_S: 0.01
NDATA: 14501
DURATION_S: 
STREAM: HNZ
UNITS: cm/s^2
INSTRUMENT: sensor = CMG-5T/GURALP | digitizer = 
INSTRUMENT_ANALOG/DIGITAL: 
INSTRUMENTAL_FREQUENCY_HZ: 
INSTRUMENTAL_DAMPING: 
FULL_SCALE_G: 
N_BIT_DIGITAL_CONVERTER: 
PGA_CM/S^2: 424.178
TIME_PGA_S: 
BASELINE_CORRECTION: BASELINE REMOVED
FILTER_TYPE: BUTTERWORTH
FILTER_ORDER: 
LOW_CUT_FREQUENCY_HZ: 
HIGH_CUT_FREQUENCY_HZ: 
LATE/NORMAL_TRIGGERED: 
DATABASE_VERSION: 
HEADER_FORMAT: DYNA 1.2
DATA_TYPE: Acceleration
PROCESSING: Automatic Paolucci et al., 2011
DATA_TIMESTAMP_YYYYMMDD_HHMMSS: 
DATA_LICENSE: U (unknown license)
DATA_CITATION: Turkish Accelerometric Archive v 1.0 - Disaster And Emergency Management Presidency, Earthquake Department
DATA_CREATOR: AFAD
ORIGINAL_DATA_MEDIATOR_CITATION: : AFAD - Disaster And Emergency Management Presidency
ORIGINAL_DATA_MEDIATOR: AFAD PROCESS SERVICE
ORIGINAL_DATA_CREATOR_CITATION: AFAD PROCESS SERVICE
ORIGINAL_DATA_CREATOR: network: TK
USER1: GuestUser
USER2: 
USER3: 
USER4: 
USER5: 
[...]
10.473663
11.372977
11.287780
10.355173
8.772318
6.676316
4.825463
4.052479
4.527435
5.691810
6.958357
7.737545
7.866159
7.794672
7.905659
8.228499
8.904535
10.105796
11.570486
12.751508
13.069125
12.470128
11.317834
10.035947
9.029566
8.298039
7.765308
7.410154
6.839883
5.760382
4.142926
1.905906
-0.171163
-1.468392
-2.259002
-2.761703
-3.369186
-4.754552
-7.235414
-9.874267
-11.291622
-11.103272
-9.974804
-8.673982
-7.581748
-6.888738
-6.594624
-6.985359
-8.572784
-10.852565
-12.675019
-13.276954
-12.831050
-11.756117
-11.072247
-11.121536
-11.035358
-10.308725
-8.494430
-6.558702
-5.344710
-4.649741
-4.270103
-3.795147
-3.066556
-2.140148
-1.245404
-0.712017
-0.546190
-0.555003
-0.643790
-0.565446
-0.303975
-0.070904
0.228433
0.616559
1.290963
2.190277
2.995579
3.374238
3.390561
3.237140
2.905163
2.248714
1.336998
0.379582
-0.321261
-0.493288
-0.351616
-0.118871
0.362940
1.190113
1.978767
2.434464
2.868289
3.110828
2.724336
1.846569
1.030497
0.637477
0.799387
1.734282
3.340315
4.754408
5.082144
4.343436
3.000180
1.473145
0.058075
-0.809574
-0.921211
-0.666922
-0.409368
-0.366605
-0.628726
-1.107597
-1.687661
-2.028126
-1.737602
-0.982244
0.082896
1.175783
1.852799
1.734306
0.771667
-0.767773
-2.348016
-3.469627
-4.026840
-4.330419
-4.513544
-4.487755
-4.313114
-4.126069
-4.069922
-4.160669
-4.566419
-5.373678
-6.358514
-6.976770
-7.262395
-7.212124
-6.803107
-6.361447
-6.095732
-6.006942
-5.761140
-5.011330
-3.761758
-2.167476
-0.465472
0.931320
1.661544
1.678193
1.197364
0.636559
0.732204
1.894620
3.634163
5.212777
6.469531
7.614646
8.423213
8.450634
7.819973
7.263086
7.007167
7.438054
8.693503
10.182348
10.997117
10.863935
10.101397
9.026793
7.768409
6.720898
6.271732
6.620686
7.694966
8.767288
9.364328
9.314386
8.656632
7.807264
7.105115
6.666395
6.400030
6.404601
6.871723
7.708689
8.477757
8.211065
6.934075
5.462859
4.389560
3.901223
3.824187
3.635838
2.628478
0.803413
-1.296179
-3.087949
-4.155372
-4.262113
-3.554087
-2.522569
-1.731956
-1.810624
-3.003396
-5.064144
-7.360899
-9.164420
-10.280808
-10.835084
-11.070438
-11.182402
-10.970549
-10.603967
-10.433897
-10.388522
-10.316053
-10.219103
-10.035648
-9.566568
-9.030244
-8.564754
-8.037570
-7.557718
-6.939786
-6.165168
-5.428416
-5.143442
-5.513611
-6.155370
-6.704424
-6.884611
-6.597679
-5.930783
-5.225041
-4.867274
-5.327864
-5.975499
-6.614320
-6.858488
-6.358724
-5.088260
-3.518786
-2.548311
-2.436671
-2.900199
-3.240664
-2.796719
-1.205701
1.062984
2.994141
3.992689
4.186916
3.845146
3.325145
2.918741
2.730066
2.923966
3.674429
4.793429
6.036800
6.936767
7.124791
6.797057
6.533630
6.559745
6.696194
6.717739
6.508499
5.954223
5.134560
4.396178
3.790000
3.044763
2.248929
1.818370
1.947964
2.592336
3.448561
4.081509
4.199351
3.901649
3.771731
4.065192
4.387705
4.622083
4.939700
5.330763
5.552410
5.497897
5.316403
5.189750
5.305633
5.694412
5.987873
5.599750
4.367480
3.014431
1.905226
1.365312
1.396977
1.767476
2.365169
2.880602
3.226618
3.171779
2.821522
2.274427
1.889241
1.841584
2.305768
3.183537
4.292419
5.260283
5.944154
6.510510
6.843795
6.702126
6.030335
5.070961
4.277412
3.987544
4.388074
5.173137
5.773768
5.908585
5.825346
5.826980
5.869417
5.897491
6.027737
6.413251
6.981566
7.384707
7.241079
6.380613
5.023321
3.606945
2.471298
1.642169
1.091810
0.885834
0.935452
0.957324
0.624041
-0.302691
-1.634195
-2.881481
-3.612028
-3.785361
-3.627695
-3.234020
-2.540683
-1.698168
-0.940524
-0.543258
-0.552071
-0.702554
-0.550436
-0.123792
0.381195
0.949836
1.723148
2.523228
3.090563
3.357257
3.543323
3.481629
3.313845
3.222120
3.236484
3.109504
2.591788
1.604014
0.251618
-0.972491
-1.757226
-2.150572
-2.174074
-2.302033
-2.848475
-3.822865
-4.605968
-5.435098
-5.945306
-5.893402
-5.426607
-4.490407
-4.056255
-3.828406
-3.941023
-4.003043
-4.102930
-4.184862
-4.266469
-4.185187
-3.790206
-2.913416
-1.695507
-0.575200
0.095940
0.185383
-0.222979
-0.911091
-1.761112
-2.268709
-2.534095
-2.520384
-2.327789
-2.104510
-1.845977
-1.491147
-1.230329
-1.304754
-1.760448
-2.298076
-2.475000
-2.191005
-1.803859
-1.638032
-1.797002
-2.148239
-2.608503
-2.858547
-2.567371
-1.755213
-0.637192
0.443617
1.013890
0.761888
0.066921
-0.570268
-0.904204
-0.852301
-0.651546
-0.442956
-0.228491
-0.187034
-0.122399
-0.050257
0.139073
0.757984
1.975240
3.622730
5.138995
6.032107
6.171820
5.609057
4.773399
4.290611
4.327825
4.549145
4.243935
3.125263
1.674612
0.648645
0.471395
0.832101
1.201620
1.467335
1.909321
2.472086
2.698956
2.493307
2.018026
1.354070
0.829826
0.606549
0.386211
-0.098210
-0.560106
-0.931255
-1.446686
-1.941552
-1.817507
-1.264861
-0.767382
-0.488937
-0.453028
-0.558464
-0.394922
0.292866
0.930710
1.071402
0.693398
-0.168048
-1.672886
-3.488811
-4.408688
-3.780637
-2.300932
-0.816330
-0.026043
-0.082841
-0.728191
-1.525983
-1.922593
-1.896478
-1.529570
-0.993572
-0.624053
-0.474221
-0.415789
-0.222868
0.316721
1.273160
2.648734
3.688739
4.027248
4.116037
4.259994
4.832552
5.819349
6.850214
7.227241
6.372324
4.952031
3.856535
3.482448
3.974378
4.857371
5.589879
6.091602
6.293990
6.348504
6.003470
5.206983
4.652381
4.807109
5.570629
6.594639
7.511906
7.719843
6.783971
5.039860
3.678324
3.105442
2.977156
3.196844
3.642748
3.835995
3.665274
3.413924
3.148865
2.950070
2.911553
3.038861
2.712107
1.511174
-0.392234
-2.719348
-4.927968
-6.419749
-7.270096
-7.751905
-7.797604
-7.488474
-7.343865
-7.490431
-7.699671
-8.113256
-9.039987
-10.174981
-10.830450
-10.998887
-11.066130
-11.538146
-12.311129
-13.145808
-13.460159
-12.499476
-11.041641
-9.925252
-9.415694
-9.632769
-10.327409
-11.191467
-11.960533
-12.206986
-11.603744
-10.115878
-8.058066
-5.949984
-4.704655
-4.865910
-5.760652
-6.561708
-6.492831
-5.321275
-3.495554
-1.757643
-0.755830
-0.785534
-1.469076
-2.017476
-1.959697
-1.707366
-1.977649
-2.092877
-2.165343
-1.914971
-1.107710
-0.271723
0.508770
1.450520
2.736000
4.215052
5.401624
5.893228
5.622293
4.857143
4.318210
4.539203
5.355931
6.271566
7.162719
8.051588
8.824573
9.366774
9.908974
10.373484
10.579462
10.620593
10.852033
11.192173
11.820224
12.693750
13.351507
13.285569
12.895487
12.745331
12.528909
12.284741
12.008583
11.657672
10.784475
9.070722
6.849698
4.228471
1.591902
-0.556002
-2.667998
-5.032652
-7.417870
-9.551084
-11.576904
-13.449628
-14.717478
-15.372621
-15.794693
-16.324160
-17.152963
-18.132250
-18.619608
-18.266084
-17.394843
-16.446891
-15.102001
-13.497273
-12.299929
-11.788414
-11.975456
-12.774881
-13.839692
-14.554898
-14.366874
-13.486166
-12.486638
-11.807011
-11.520732
-11.755107
-12.336150
-13.241990
-14.592427
-15.651690
-15.636673
-14.434432
-12.808813
-11.788720
-11.539327
-11.676753
-11.952584
-11.942138
-11.215178
-9.608165
-7.740988
-6.174126
-4.999633
-4.189760
-3.494465
-2.592866
-1.572120
-0.696962
0.215409
1.089915
1.685323
1.984333
2.544487
3.647167
4.950274
6.408761
8.036665
9.707006
11.083886
11.722383
11.519345
10.835150
10.162380
9.917233
10.114724
10.646152
10.901094
10.584459
9.946617
9.196483
8.454184
7.348569
5.908364
4.636270
3.763072
3.202594
3.054396
3.211736
3.459824
3.614226
3.399437
2.822637
2.126691
1.235866
0.184438
-0.578100
-0.975037
-1.047829
-0.802353
-0.573525
-0.720744
-1.339653
-2.189674
-3.004440
-3.377548
-2.954821
-1.861934
-0.979268
-0.992651
-1.921015
-3.699074
-5.767982
-7.661271
-9.138037
-10.071297
-10.731989
-11.035241
-10.967342
-10.666373
-10.542003
-10.962443
-11.869262
-12.962147
-13.745902
-14.212369
-13.829466
-12.515260
-11.002912
-10.004037
-9.579025
-9.381208
-9.389368
-9.357703
-8.755766
-7.628604
-6.243890
-5.221512
-4.333950
-3.134321
-1.984962
-0.776846
0.446286
1.487271
2.070927
2.144702
2.113039
2.328483
2.829880
3.525502
4.170854
4.224063
3.737358
3.353152
3.581653
4.328198
5.893755
8.102377
9.739748
10.045939
9.457388
8.827707
8.699748
9.416262
11.135240
13.169875
14.524884
14.933901
14.656438
13.764960
12.725284
12.537588
13.600443
15.618104
17.654371
19.276400
20.206398
20.339909
19.955376
19.799344
20.323591
21.401135
22.587380
23.491917
23.488328
22.160414
19.703382
16.782493
14.299999
12.943686
12.577107
12.454370
12.161238
11.756467
11.430691
10.743885
9.299763
7.386888
5.577165
4.196043
3.072474
1.535972
-0.613890
-2.650808
-4.183719
-5.098047
-5.397381
-5.479967
-5.922931
-6.846398
-7.873017
-9.342275
-11.535879
-13.872785
-15.945611
-17.748153
-19.320235
-20.506152
-21.162600
-21.400893
-21.246164
-20.881215
-20.577961
-19.915961
-18.614486
-16.731967
-14.480256
-12.625810
-11.430098
-10.726968
-10.622836
-10.803350
-11.022383
-11.252841
-11.297235
-11.246964
-11.110515
-10.992999
-10.826193
-10.841534
-11.133361
-11.404949
-10.903879
-9.607300
-8.878382
-8.901558
-9.066403
-8.928649
-8.531057
-7.642189
-5.816142
-3.484782
-1.220994
0.645857
1.967897
3.027161
4.114499
5.467223
6.895352
7.553109
7.420906
7.518509
8.523913
9.939638
11.084753
11.809754
12.631051
13.675626
14.823353
16.318074
17.905828
19.248759
20.459487
21.657157
22.638405
23.090837
22.810109
21.567393
19.517745
17.662648
16.929488
17.153420
17.377678
17.017954
16.109176
15.165143
14.597484
14.192386
13.764438
13.382191
12.709747
11.618169
10.105822
8.204373
6.147216
4.286896
3.070295
2.081542
0.930879
0.132761
-0.152538
-0.468194
-0.847503
-1.390028
-2.133633
-3.052857
-4.178711
-4.586746
-4.000804
-3.118465
-2.246571
-2.158434
-3.005843
-4.438867
-6.382100
-8.253192
-9.665651
-10.390975
-10.255833
-9.492966
-8.237844
-6.890669
-6.032485
-6.450314
-8.246653
-10.143860
-11.733569
-12.427231
-12.464443
-10.925001
-7.663644
-3.488938
-0.479258
0.666184
0.107011
-2.833463
-6.670313
-9.216461
-9.551702
-8.551848
-6.413082
-4.063116
-3.187631
-3.224843
-5.191579
-7.517387
-8.523768
-7.614334
-5.723654
-4.530554
-4.000105
-5.676319
-7.673413
-9.548422
-9.851347
-7.839562
-5.581649
-3.647227
-4.005972
-4.283436
-4.661440
-5.468372
-5.178502
-4.286696
-4.193989
-4.382011
-2.370226
0.172660
1.987282
1.349766
-0.130263
-2.475331
-3.896929
-4.155460
-3.711189
-2.939509
-2.702846
-2.284036
-1.596902
-0.474963
-0.347328
-1.382434
-2.413623
-2.631677
-1.526386
-0.979289
-0.903883
-0.667221
0.357116
0.897684
0.596391
-0.411296
-3.071694
-5.261707
-4.988485
-2.647985
-0.246770
0.993010
1.615838
2.151510
0.444938
-2.690415
-5.414140
-5.690298
-5.084444
-4.546814
-4.040194
-4.678036
-4.194593
-3.118681
-3.377538
-4.335607
-5.306081
-5.618473
-4.615028
-2.850349
-1.447355
-1.015161
-1.464327
-1.511332
-0.818321
-0.052843
0.622867
1.210440
1.804543
2.578508
2.128037
1.765048
1.932181
1.534265
1.577681
2.078099
2.923878
4.516854
6.284144
7.939468
8.258717
7.520335
7.237975
7.711952
8.900155
10.376597
11.636941
12.738968
13.279862
13.381057
14.013351
15.479020
15.137903
17.193103
19.153312
18.945052
22.006634
20.731602
21.585216
20.982302
19.277362
20.755435
20.056878
20.132284
20.066346
21.244757
23.455665
23.733131
22.695086
22.405545
20.044482
17.507474
16.335594
15.479697
15.189176
14.775592
13.781942
13.511006
11.436223
9.219115
9.639231
10.766719
10.036171
8.032223
6.676236
6.470587
6.823785
5.779538
4.423552
2.392509
3.340461
4.749005
5.998251
5.431898
4.525404
2.744733
1.212801
-1.016710
-2.326017
-2.305124
0.092500
-2.198053
-3.495609
-3.571666
-5.914122
-5.289988
-6.530092
-6.325746
-8.707373
-7.964745
-6.534984
-4.149111
-5.760365
-11.098463
-14.939556
-19.193582
-17.768390
-11.457857
-10.082283
-8.281371
-10.425684
-13.517948
-9.951707
-11.449690
-12.660089
-5.690495
-2.315214
-0.493084
-1.536678
-8.070487
-7.727082
-4.135052
2.640643
7.283775
6.638752
6.183384
-0.075571
-0.085363
3.207658
5.742709
5.807017
3.590889
6.660632
6.619176
4.935128
4.296307
2.697131
5.115321
8.766434
8.519981
6.972707
2.744469
0.693188
-0.608285
2.119360
0.521489
-0.210691
0.543362
6.205280
13.871475
6.081239
5.821076
8.121751
12.250431
15.344329
11.197699
14.486475
16.045829
12.533124
11.368099
16.098061
14.551440
8.501726
5.272688
7.319728
10.496866
10.989122
8.476270
13.986399
8.741986
3.698654
7.315492
-1.062969
-5.379017
-6.750672
-9.698654
-4.379813
2.426240
7.551834
4.416155
-9.797557
-19.468026
-6.259387
-8.978869
-5.617951
-4.682077
-12.585910
-14.887889
-10.427230
-2.546898
-2.930778
-10.096228
-17.291382
-13.327876
-11.811284
-12.536609
-9.589930
-1.973353
3.531226
8.624178
0.468995
0.357357
-8.130458
-12.656726
-2.690837
-3.553915
-3.540531
0.120376
-21.377934
-33.237111
-41.285552
-19.936092
13.264059
38.704985
51.546064
78.036133
69.230702
52.944490
31.258810
-52.760840
-131.252409
-35.186208
14.413754
181.072588
37.242920
-1.345925
47.845021
-61.163449
183.671950
233.084868
146.988148
-145.915929
-288.347174
137.594820
112.618080
-253.411069
-361.072039
-252.620455
74.685688
6.975754
71.283643
55.197859
-149.734814
-44.830539
-137.687284
-149.766801
-39.683071
-18.163868
-48.907962
107.860715
192.295911
96.242770
-31.115926
-111.783473
-183.069767
-58.425329
83.369707
271.950557
424.177949
288.727722
91.542197
-197.245280
-246.363104
-117.199904
-9.665587
39.674864
-7.945629
-56.040096
124.512550
75.330746
6.658825
-56.374355
-62.994668
38.860758
-61.986978
29.804630
113.615041
15.966639
59.189151
37.788770
5.799021
-10.798605
-84.857916
-144.612766
-71.386174
-54.777448
81.541736
189.329036
131.316992
0.327749
-110.875306
-99.943512
-17.858933
40.583347
10.463059
-111.865034
-132.909607
-95.265120
-68.153529
-124.830477
-131.725317
-36.056380
-95.177958
-187.662574
-44.301982
208.088951
207.242194
65.693288
13.942485
28.478059
-16.913574
-133.623818
-150.226666
-98.097203
-68.200844
-22.484085
19.599841
87.808887
31.804057
-13.952523
-42.577765
-3.764008
22.871975
18.759946
6.340942
72.399799
93.358523
78.137123
101.879963
94.020851
133.443072
166.775427
10.695192
-144.850352
-182.795151
-152.914134
-12.831220
69.404170
29.138457
64.314485
112.678912
24.581833
-50.421838
-75.612064
-44.697571
-68.782180
-92.856670
-31.677606
88.096832
130.312636
102.462011
50.041049
-11.838857
-56.227045
-89.821521
-82.401454
-22.217674
16.671815
-1.150247
33.272708
85.251034
97.799306
74.707042
21.592744
-50.223018
-68.676395
-68.701529
-57.089130
-37.886269
25.670832
77.329584
68.953408
45.435154
58.657176
56.241926
5.421773
-51.263009
-86.301282
-113.208526
-74.705530
-28.375411
-22.476178
8.161176
37.111870
46.358309
19.319514
-17.369512
-77.798439
-79.284997
-47.520156
-25.746338
-4.576087
-14.759376
-3.279508
37.226133
31.213631
-23.022604
-54.941518
-66.008451
-70.381624
-84.517973
-105.065720
-70.508602
-16.552440
14.925143
8.940715
5.066652
0.068367
-9.947463
25.695685
26.378903
22.754885
28.766409
9.939924
20.733638
34.913077
36.309543
26.702402
8.319208
-7.603689
5.028476
40.281867
50.814438
34.056862
18.868105
13.574402
5.574599
-12.139416
-20.783264
-6.548658
0.524414
4.360287
17.406363
8.994607
4.247672
14.581774
18.550503
9.486866
2.200638
15.278052
25.848488
17.805596
29.036726
48.064294
43.477963
13.076619
5.072899
4.651153
16.951665
10.361384
-6.222205
8.275503
22.432092
39.805642
51.705299
50.668234
32.951935
-1.639456
-16.518431
-0.305337
12.460337
22.496735
5.540363
-19.879342
-29.190086
-24.749993
-21.155025
-26.073988
-35.167656
-37.023732
-39.690658
-42.213630
-36.395352
-28.253224
-39.430490
-42.201221
-51.643189
-41.040110
-0.190413
-4.973581
-26.520855
-15.928875
-25.270302
-34.607813
-28.229708
-27.093407
-21.234652
-21.352165
-13.068366
-3.990039
-15.159797
-12.555543
-2.189125
-3.312693
2.861719
12.228937
22.388725
19.998611
-5.772986
-12.248364
12.786810
17.038880
26.024828
40.523842
41.292911
45.359569
35.805635
19.542273
16.606369
26.254642
39.516162
53.236968
54.748664
31.536600
25.153602
8.860534
-0.211915
22.550331
40.800344
42.757616
36.046556
31.175252
25.803205
23.653995
32.270425
29.242794
18.323733
22.073755
17.999918
11.149472
27.969399
50.756127
55.967247
40.685784
18.909030
1.318733
5.249596
23.225409
35.256943
40.987411
42.410971
30.724475
16.453964
13.763861
9.632898
-0.420145
-12.694541
-13.243594
-5.541492
1.196664
4.994997
1.333440
0.521937
-9.243196
-21.245349
-17.951349
-22.075783
-34.906414
-49.717492
-38.162545
-24.243270
-27.918210
-25.366511
-30.148047
-28.820784
-25.863333
-30.241402
-31.594451
-24.696671
-26.802466
-39.225387
-47.373062
-42.057812
-35.498866
-35.696354
-31.322200
-22.544514
-13.129637
-10.038676
-9.418786
-16.423959
-22.871264
-32.937038
-38.307126
-36.341368
-30.575971
-22.756029
-18.456300
-8.740782
-2.760922
-9.251316
-17.044815
-21.288722
-25.108924
-16.505877
-1.468255
12.929565
20.276186
10.189193
-2.189986
-5.939679
-11.246766
-13.510553
-7.644942
-0.686447
10.898532
18.139063
19.192125
20.024521
19.781332
21.081175
14.500360
12.643305
12.968756
13.115650
26.654309
41.710864
47.488664
47.066266
33.227621
26.251500
27.551996
18.754726
9.157051
-0.447805
2.596150
16.462870
28.728454
33.969931
27.289229
17.154578
13.999966
16.619889
20.082326
19.655358
12.217666
6.488832
14.547068
22.966661
27.768438
23.199408
10.697818
10.119712
12.642359
8.918128
3.758587
-5.881524
-12.846546
-16.449345
-13.443583
-2.203313
10.159547
15.822118
8.760799
1.395248
-2.416140
-6.097935
-5.465314
-6.468104
-7.830293
-4.777851
-4.023798
-3.005011
-4.312686
-1.316716
5.578452
2.677802
-3.844908
-3.740776
-2.847338
-6.260482
-12.248174
-26.695283
-34.539706
-31.218613
-22.694236
-10.840605
-7.384370
-11.224484
-17.213156
-17.760903
-17.642082
-22.760493
-29.024018
-25.640251
-24.604163
-27.404925
-23.703542
-18.345203
-12.420509
-13.672691
-12.388843
-8.756336
-8.404771
-9.734317
-7.951685
-3.447938
-3.525953
-9.637689
-17.061344
-17.746518
-18.897181
-18.480656
-17.044692
-15.929608
-12.656826
-4.815013
8.479803
13.659585
8.639755
2.440537
-7.147998
-14.039573
-15.586521
-7.933710
6.758550
15.668440
19.108027
17.781746
14.041193
13.096181
9.641254
3.413636
-0.764985
-6.137032
-6.690329
-3.080345
2.066467
6.104400
9.600459
11.759137
13.462773
13.682135
11.100080
10.089456
11.371018
11.009989
8.693973
6.942681
4.856799
4.212755
3.973809
1.000039
0.237175
-0.522099
0.789496
6.921798
10.719152
11.898543
13.229723
15.208865
12.829196
4.581633
0.269502
3.591901
5.327201
3.708112
5.415339
11.803563
15.602875
11.861996
7.391873
9.722580
10.260210
8.023844
6.994613
4.243141
2.648208
6.870573
15.372100
18.785900
16.503833
12.010534
3.616078
-5.303929
-12.709304
-17.809762
-17.103694
-14.157015
-10.545073
-5.548418
-11.152556
-22.925883
-29.453489
-32.506908
-31.443727
-26.572420
-18.183511
-9.481230
-2.792365
-1.214078
