EVENT_NAME: 202302060117
EVENT_ID: 13194
EVENT_DATE_YYYYMMDD: 2023/02/06
EVENT_TIME_HHMMSS: 01:17:32.00000
EVENT_LATITUDE_DEGREE: 37.288
EVENT_LONGITUDE_DEGREE: 37.043
EVENT_DEPTH_KM: 8.6
HYPOCENTER_REFERENCE: AFAD
MAGNITUDE_W: 7.7
MAGNITUDE_W_REFERENCE: AFAD
MAGNITUDE_L: 
MAGNITUDE_L_REFERENCE: 
FOCAL_MECHANISM: 
NETWORK: TK
STATION_CODE: 3146
STATION_NAME: 
STATION_LATITUDE_DEGREE: 36.490758
STATION_LONGITUDE_DEGREE: 36.226952
STATION_ELEVATION_M: 698.0
LOCATION: Kahramanmaras_Pazarck_Turkiye
SENSOR_DEPTH_M: 
VS30_M/S: None
SITE_CLASSIFICATION_EC8: unknown
MORPHOLOGIC_CLASSIFICATION: 
EPICENTRAL_DISTANCE_KM: 114.57
EARTHQUAKE_BACKAZIMUTH_DEGREE: 
DATE_TIME_FIRST_SAMPLE_YYYYMMDD_HHMMSS: 2023/02/06 01:17:31.7947850
DATE_TIME_FIRST_SAMPLE_PRECISION: millisecond
SAMPLING_INTERVAL_S: 0.01
NDATA: 8582
DURATION_S: 
STREAM: HNZ
UNITS: cm/s^2
INSTRUMENT: sensor = ACEBOX/SARA | digitizer = 
INSTRUMENT_ANALOG/DIGITAL: 
INSTRUMENTAL_FREQUENCY_HZ: 
INSTRUMENTAL_DAMPING: 
FULL_SCALE_G: 
N_BIT_DIGITAL_CONVERTER: 
PGA_CM/S^2: 341.394
TIME_PGA_S: 
BASELINE_CORRECTION: BASELINE REMOVED
FILTER_TYPE: BUTTERWORTH
FILTER_ORDER: 
LOW_CUT_FREQUENCY_HZ: 
HIGH_CUT_FREQUENCY_HZ: 
LATE/NORMAL_TRIGGERED: 
DATABASE_VERSION: 
HEADER_FORMAT: DYNA 1.2
DATA_TYPE: Acceleration
PROCESSING: Automatic Paolucci et al., 2011
DATA_TIMESTAMP_YYYYMMDD_HHMMSS: 
DATA_LICENSE: U (unknown license)
DATA_CITATION: Turkish Accelerometric Archive v 1.0 - Disaster And Emergency Management Presidency, Earthquake Department
DATA_CREATOR: AFAD
ORIGINAL_DATA_MEDIATOR_CITATION: : AFAD - Disaster And Emergency Management Presidency
ORIGINAL_DATA_MEDIATOR: AFAD PROCESS SERVICE
ORIGINAL_DATA_CREATOR_CITATION: AFAD PROCESS SERVICE
ORIGINAL_DATA_CREATOR: network: TK
USER1: GuestUser
USER2: 
USER3: 
USER4: 
USER5: 
[...]
-55.222599
-16.212565
23.124317
67.217805
115.709487
138.884665
116.280236
57.116226
-16.018339
-31.516735
1.862760
-35.199226
-71.635803
-3.981396
15.772861
-73.570868
-109.285246
-52.055391
-20.276473
-36.184014
-0.421190
64.094723
54.946962
39.580662
45.577586
10.904542
12.577386
42.769289
16.444910
-23.361854
-47.691474
-42.904918
-11.480436
-12.200975
-80.493365
-152.703729
-83.170527
31.080143
-36.898024
-158.078628
-103.112633
51.039047
82.424719
1.808407
-8.012690
24.372932
32.742666
64.677761
61.697338
23.159858
56.837444
104.741827
44.895130
-69.088026
-115.078729
-42.725464
87.623316
92.050994
-42.862394
-118.217566
-74.395750
18.095174
46.194825
31.453231
100.787471
98.991232
-8.368214
-19.583210
-2.461743
9.546109
48.185340
-0.729932
-91.648286
-100.318165
-24.335666
11.084411
-57.673236
-80.354117
-50.602922
-63.743473
-52.735805
-7.429143
32.657761
50.607103
13.404372
-2.274983
55.679877
61.376139
-25.586833
-47.713849
35.993780
74.676965
6.105889
-107.442872
-174.351883
-105.807877
14.080346
-11.379684
-129.251589
-121.037799
-23.558342
11.942161
23.600019
16.257874
-44.585501
-37.031720
51.424097
66.892383
-8.583428
-41.183392
53.232151
167.478379
148.725993
51.032895
30.790519
91.217552
83.051506
-19.153645
-46.471662
5.650190
3.227842
-20.080318
-25.316182
-38.291672
-54.073430
-39.942698
46.036739
92.654535
54.433617
42.333465
60.039892
118.053903
92.812707
-38.453911
-18.853025
26.327620
12.969171
40.931816
-34.373089
-44.851624
53.541279
13.988885
-28.643553
-46.662050
-72.465528
-5.792601
17.517245
-49.315783
-117.001001
-129.889284
-57.211509
5.619193
-8.451169
-76.776992
-94.329764
-15.014719
3.596270
-37.187066
-8.484920
46.171528
88.323797
85.364416
-3.992640
-35.878821
47.995505
76.430421
39.811482
28.336971
12.757214
-17.620975
-49.965399
-35.563462
-9.587860
-90.120706
-132.051285
-55.695411
-39.338696
-61.500314
-35.885460
28.059753
113.453762
102.707763
0.622083
-31.377490
0.765684
11.958753
16.957363
36.366068
46.702972
17.072233
-31.942871
2.230599
122.955582
174.505566
104.996495
8.421884
-7.007074
78.119003
120.587833
66.953363
10.229261
-39.632423
-59.631649
-23.084436
22.862830
37.028398
-22.432067
-59.419938
13.912469
54.180333
15.416303
-43.458733
-77.202667
13.327633
93.976726
27.526191
10.842210
90.346631
110.070495
82.881768
89.905531
105.570206
58.899855
8.403645
34.597380
62.820476
38.849267
-16.524187
-45.976305
17.318251
89.653747
60.042881
-5.684987
23.520291
126.468265
135.122764
47.948673
28.504948
64.975242
47.624003
-14.315180
-65.253266
-79.072530
-78.278296
-88.093781
-64.333408
3.682917
31.387451
-37.019266
-121.505390
-96.515477
-21.287207
-17.670105
-5.445055
55.771511
25.407116
-96.298831
-153.896399
-109.750540
-37.208134
-7.201866
-30.396167
1.840527
101.345603
91.696581
26.471143
102.507416
184.811326
119.197552
25.948940
-19.641502
-40.623612
-57.228570
-77.262399
-55.163623
-16.846798
-14.110644
-22.538309
-52.095635
-61.481168
-13.836767
1.832818
-27.910611
-72.305648
-98.752535
-49.959957
-35.666034
-131.766271
-193.460902
-134.028210
-49.184092
-59.473251
-92.269839
-56.685870
-52.725787
-78.020990
-61.732777
-15.115915
58.260212
61.666196
-6.372992
-33.126855
-52.551876
-50.215983
-35.908500
-90.395162
-121.821230
-109.993869
-103.455704
-70.376171
-66.203099
-95.592092
-123.819813
-156.840846
-111.199387
-30.108183
-31.964742
-42.117364
-1.759722
64.384121
137.019812
153.041730
115.072144
88.171923
48.766121
-14.718229
-18.091898
28.546239
11.306989
-47.055096
-54.584746
-32.781022
-18.329520
-11.385717
-9.609066
-0.697625
-20.309917
-104.856361
-165.312568
-119.525920
-55.580706
-43.865802
-47.912574
-57.546399
-25.987016
54.286832
83.251766
70.658302
76.229482
98.249702
117.970760
93.113927
47.897327
47.065735
95.196668
132.299384
85.774922
3.753255
-16.215812
14.615994
30.364135
7.938092
-44.364435
-88.193916
-32.603915
68.226324
38.610314
-78.130480
-92.882361
16.212144
73.772821
38.066159
31.021639
5.434423
-52.762601
-58.249798
-20.078628
77.657304
136.683189
64.731171
-15.781335
-45.574095
-6.101377
77.615370
104.956349
84.237026
17.321235
-67.920054
-82.484196
-56.694229
-40.745256
-61.890089
-114.631220
-114.665330
-78.614000
-69.769191
-42.799950
7.065992
38.224880
78.623202
109.079997
66.882888
18.386347
48.201602
100.392892
121.168375
120.790584
63.619930
-5.625184
42.387447
93.170342
-15.783600
-120.308488
-89.526949
-52.726065
-66.973879
-70.034260
-66.022508
-59.228802
-14.093514
10.411738
-20.464440
-4.555680
49.886844
46.034358
35.194372
56.206459
29.890264
-9.646933
23.896921
62.982705
61.873596
43.615691
-14.346133
-63.141935
-49.121088
-22.955409
-42.426020
-107.918922
-96.408122
19.289753
32.759306
-35.975896
19.188360
103.514382
101.427766
102.374203
88.364160
51.744754
101.562066
179.042037
151.548439
53.403879
15.951218
77.389190
118.332494
96.053977
106.342718
150.671406
170.617845
143.846914
62.706195
-39.946210
-129.783018
-129.524881
27.154615
149.212243
35.645948
-144.766492
-164.786293
-49.523983
79.028533
105.165456
28.446779
18.387209
97.196785
99.612871
29.388848
-6.947197
7.161792
67.270860
84.331071
-10.511804
-73.680994
-13.720621
57.711716
32.759260
-46.662815
-72.927107
-74.206888
-80.603557
-39.768735
-4.376013
-5.937052
-34.229769
-104.097018
-118.120386
-63.702178
-67.469562
-116.951793
-111.989187
-42.750102
-0.229369
-27.269634
-55.367598
-66.223949
-61.082956
-2.512274
48.264075
23.398124
-24.977778
-32.063213
11.033363
20.235414
-68.182010
-122.066176
-59.120446
-12.870880
-52.786361
-108.976001
-135.890951
-127.740520
-65.134497
14.996969
1.391863
-74.046540
-59.790961
19.850466
35.225701
-17.997988
-71.060123
-67.883494
12.509590
68.895905
13.819139
-27.876007
22.351620
52.952434
22.684597
-8.235767
0.078556
30.505191
29.495211
-7.864865
-25.660319
15.594636
47.157058
21.838242
18.276366
15.017023
-17.123296
9.018770
42.548362
51.008341
109.254279
117.486072
52.114277
49.675329
30.296834
-45.319489
-18.122530
33.035610
-33.966219
-70.784354
22.227705
101.283937
76.842328
7.771160
-49.855633
-60.732558
-19.515010
32.728182
24.340263
-53.048477
-48.251634
-7.929530
-58.030154
7.036818
97.732414
-4.307910
-43.003671
36.958058
109.301737
158.143648
86.387785
37.963487
99.877937
75.627107
-2.015537
10.272872
87.748869
68.070645
-59.100079
-55.932101
22.148963
-22.642827
-42.000515
39.917396
47.737472
-33.731031
-71.413981
-26.147766
68.044033
116.286487
38.777575
-77.447696
-142.058247
-133.461964
-45.268233
-9.964120
-104.909398
-180.867767
-138.881727
-31.047156
60.005915
59.113302
-21.016010
-59.514445
13.468903
137.262943
172.392878
79.678727
18.514582
28.925365
27.560014
49.590989
41.648921
-30.633687
-80.106332
-117.944758
-90.453915
11.827737
62.973252
71.710982
60.743811
61.974545
97.459851
61.142043
-6.040746
8.299936
63.127758
73.402471
11.417464
-40.968997
-47.538208
-30.166578
37.409974
64.158978
0.427038
-29.408975
-15.267956
-8.505112
-0.775983
-7.528958
12.125000
49.039041
2.373132
-30.956513
13.880216
-39.668451
-151.881761
-143.014741
-74.007583
-18.951342
39.134211
61.988152
30.179592
-4.818431
-23.142500
-24.114605
42.141695
122.230376
92.999898
8.111175
-36.097525
-64.658407
-67.246986
0.596563
34.409752
-25.934467
-50.692403
-41.237617
-31.965894
35.991515
73.124157
60.653435
54.744936
40.209317
96.124764
171.527212
145.436631
62.419924
-15.806512
-6.506967
36.000908
20.600473
40.883112
42.504053
-3.764634
9.721752
16.870362
49.082039
148.990883
176.841540
141.518305
73.504601
-28.949076
-82.478805
-101.795812
-81.172062
-4.529086
21.612045
-16.764816
-62.435450
-73.869748
-29.650477
-9.341185
-22.622247
-13.357304
-9.900587
14.411782
57.153220
51.663919
65.473881
110.993532
106.595830
74.407115
40.834788
30.297103
31.858894
-35.228973
-108.086488
-103.925339
-80.375851
-71.657994
-54.563648
2.630669
39.724267
-21.193222
-61.110105
-30.955611
-39.486380
-41.656228
3.087684
36.446604
74.084949
95.520910
55.985117
-9.176494
-52.092295
-55.339948
-33.384957
-0.535949
-10.504338
-88.392001
-129.327540
-89.236427
-18.592922
10.185208
-50.386261
-75.115908
8.984033
88.287389
93.711510
2.944423
-111.076842
-89.056388
19.703086
25.830236
-77.365982
-174.102381
-208.694999
-161.316192
-86.174895
-57.786505
-42.636183
-11.100882
63.050284
151.538365
114.540674
30.680893
72.448098
137.468779
121.890191
80.640663
48.979395
54.152886
94.324892
107.287572
75.767985
24.725859
-2.852841
14.446545
22.662205
-5.438331
-61.294343
-85.046951
-0.671129
75.381275
37.458916
-46.341714
-110.015906
-98.251437
-62.720306
-89.224241
-98.646479
-44.199046
9.727020
18.217159
-15.414319
-65.683278
-107.943511
-107.687011
-68.408578
-41.094252
-54.175886
-73.099645
-76.258221
-115.088181
-159.989856
-140.499322
-62.433689
42.391444
56.263830
-24.197474
-34.153472
12.609747
46.165524
61.537252
30.066061
-0.623312
-32.866268
-86.364903
-58.100659
2.274003
-31.205039
-69.499369
-29.282708
27.334598
42.816678
-8.839634
-98.656803
-134.845321
-101.672504
-60.165281
-2.250401
82.457880
93.790526
24.706031
34.230489
100.373631
75.375351
61.799470
134.871427
138.113753
74.311907
21.894585
-87.080400
-161.223800
-55.556295
65.492497
66.401760
77.637848
125.275702
110.433809
61.117340
68.189966
122.134736
100.203408
12.127327
-1.120770
45.964154
85.680256
62.458835
-49.664931
-125.158043
-117.697547
-47.288775
90.415034
146.329077
58.490067
-43.554933
-79.784599
-26.852406
53.521975
48.096501
-22.018806
-52.090721
-35.638149
7.523891
101.693947
136.381537
20.745902
-71.242074
2.935978
135.038004
165.412502
92.388757
33.641140
53.196670
80.272990
13.928833
-38.794296
37.236599
94.734152
69.889944
27.723697
-16.858143
4.329993
61.326050
52.630454
21.432338
18.343667
-5.775535
-75.288581
-89.677141
-12.956543
39.825786
15.043535
-73.539185
-139.384886
-102.766131
-72.860396
-86.602741
-78.189287
-90.761944
-104.519486
-93.777645
-109.844636
-125.908353
-122.136711
-75.349879
24.349951
66.808494
35.787363
17.346395
12.532066
-2.376459
1.589001
29.850674
7.785614
-18.104369
43.438812
42.105958
-69.788453
-111.409017
-59.708935
12.089763
31.896390
-46.795536
-93.757198
-68.217628
-68.668130
-46.946703
-7.335108
-0.626739
21.161555
6.986218
-33.170074
-29.284572
-25.384108
17.968710
73.218536
53.323115
63.691581
105.060162
67.986019
10.109999
10.864488
48.902159
69.141779
53.633564
-0.636368
-80.661639
-89.122036
-17.355603
35.834703
75.409591
71.873666
-8.213328
-50.523594
-54.153973
-47.354423
40.886535
100.273871
34.392398
-33.855570
-7.854484
82.985598
108.679709
49.275122
19.948319
-3.744437
-15.512597
30.761518
47.348991
60.011944
81.803978
52.354665
49.450695
49.420326
26.189319
40.106594
15.268465
-22.912240
-20.363123
-37.794555
-51.306843
-56.761074
-33.967920
3.387531
-45.787958
-82.076075
-47.330737
-23.060451
-3.677464
-52.997674
-136.542530
-142.214426
-149.866352
-122.527010
-21.031384
-7.902941
-35.646235
12.343952
49.018117
55.977585
62.413114
31.325116
-6.351989
-6.552562
25.942477
42.967619
-34.740021
-98.801382
-17.927610
34.418688
2.338455
37.950713
60.928567
12.668862
-6.658432
15.275284
56.292935
13.092602
-125.369361
-151.401025
-77.850484
-51.921174
-49.684878
-54.548070
-38.305447
27.442577
55.159034
24.702757
-31.514005
-106.573189
-83.797803
55.197735
93.419638
-8.761431
-51.043174
4.734098
62.118727
82.389442
27.015286
-12.103881
67.162301
101.450331
64.537041
43.554463
-40.568340
-77.891476
-11.469181
7.569891
-42.263971
-121.657289
-87.934814
6.595524
-21.222351
-76.497845
-237.440818
-328.925195
-36.810450
146.159782
63.716812
52.069058
4.669259
5.463727
71.751121
-5.913032
-10.278469
98.802007
142.476297
133.904613
22.355520
-85.577430
-3.248504
163.087755
190.867337
27.724332
-93.478951
-27.203714
73.688715
59.824562
-37.199641
-43.374903
9.070992
-18.701994
-60.348744
-101.755617
-66.101276
45.572013
-9.788349
-90.160810
-25.319451
-15.846896
-73.502913
-90.759698
-51.647261
3.533828
3.965676
5.733442
60.412569
128.454612
144.463437
65.518542
-33.819319
-92.481366
-83.043179
20.629333
104.819754
54.800490
-55.251131
-43.167294
102.092842
167.939061
116.535718
79.043078
72.369127
98.756446
114.389793
77.549681
78.326848
66.973211
-15.360575
-64.471303
-83.245666
-61.811107
-44.449531
-154.878969
-198.784901
-86.130131
-46.613225
-111.650690
-151.878757
-56.887605
101.526667
128.818548
83.264812
49.662092
29.324326
73.151051
99.175050
79.860849
65.355624
25.430090
64.857919
123.446370
-46.639946
-220.355498
-105.074250
90.246791
126.375975
26.564440
-28.429561
2.950031
-44.876681
-40.968501
170.943728
251.641918
6.920501
-224.656133
-179.363265
52.748581
246.218414
182.318374
-0.835340
9.961209
48.538484
18.566869
119.449245
107.693008
-156.634648
-247.560483
-0.656519
274.988144
246.613597
-103.191975
-308.468521
-54.455950
255.876043
218.905239
11.659653
-109.585245
-255.495288
-341.393547
1.379921
271.364118
-30.448955
-165.999207
58.175222
60.148729
-13.299592
70.173772
125.643133
44.963463
-144.109062
-234.236012
-30.015713
220.215421
117.205306
-170.842953
-241.499968
-144.356712
-54.689357
-3.665183
-10.493441
-52.804643
-103.285422
-94.800193
57.355794
225.801137
162.396747
-51.774850
-47.622819
183.175553
292.146613
151.042507
-40.561107
-40.014697
60.518151
32.394002
-63.238640
-139.247976
-151.541947
-52.821728
14.056005
-38.975503
-127.334478
-132.690047
-8.532686
117.676714
136.621565
51.044309
-39.813725
-1.846193
93.838869
92.354048
-14.940869
-85.028121
-17.249567
23.876799
-68.896269
-141.916741
-95.660161
-1.113223
-13.065148
-147.163051
-203.509570
-83.376327
74.950972
99.372290
6.299962
-68.572886
-78.111790
1.397775
125.565424
109.300173
-7.288419
0.289209
70.142947
58.361694
-1.115604
-67.155825
-68.501070
-7.507079
14.166888
33.431106
54.030307
-3.061558
-77.977892
-54.837315
53.149458
109.151644
75.354637
-9.120966
-87.359793
-43.353745
4.374355
-28.121102
50.743884
142.399918
97.898972
74.240584
43.256159
-123.141070
-221.804426
-46.396601
128.664971
-4.634047
-189.166228
-135.837982
4.805125
81.099510
91.049479
60.861835
120.396463
193.402022
76.188724
20.980330
155.195182
127.410506
-65.856575
-211.096789
-234.764529
-33.407310
184.350786
78.964356
-191.451381
-202.747505
47.817024
144.455745
38.383354
-2.419855
12.447104
58.123867
133.781155
134.416640
130.592911
47.062083
-253.391225
-291.958163
134.622741
312.682061
38.390200
-173.445996
-174.204409
-50.439593
48.331593
-18.395992
-67.801303
-8.095536
51.623091
88.977372
60.947911
-27.280372
-78.856725
-49.127040
61.479198
183.647880
142.409574
-80.481959
-193.575516
-90.790965
17.048983
85.838944
143.285295
65.994749
-84.223943
-49.083488
77.575738
36.534991
-44.135561
-59.539269
-74.027895
-65.524195
-72.459766
-18.574382
94.512913
40.412251
-55.851176
0.225123
84.799905
114.278726
72.653954
-34.565915
-85.225549
-26.936125
12.169532
-9.402449
7.568919
47.805220
46.076080
12.990519
14.043567
81.676932
60.647127
-97.990839
-145.112886
-8.912862
98.050581
60.124481
-26.917047
-35.266156
-22.511789
-67.416269
-27.753006
117.478607
143.982825
42.927489
5.632642
26.783604
-36.137761
-132.729440
-79.720795
32.744131
-7.923943
-75.538554
-26.632350
16.881087
11.623947
-37.851504
-147.418697
-168.786807
-59.565818
11.585027
-11.833017
-74.589088
-122.195563
-88.591156
22.687950
98.628366
71.150900
43.173108
63.135678
17.194541
-37.062532
21.868899
63.061431
29.666322
34.241292
60.265290
48.837539
-2.153620
-57.152297
-45.212012
31.303078
88.105083
51.509056
-36.682287
-78.529868
-67.209847
-47.520118
-64.134662
-46.229039
53.973688
74.955381
-4.001204
-109.712145
-167.626040
-4.398351
154.459668
41.776192
-94.017210
-119.096150
-75.647007
58.400680
133.886126
45.882990
-78.050343
-95.618078
9.085480
119.021421
111.495278
27.935693
-4.282714
52.514849
103.779835
10.672437
-81.201914
30.082803
118.514072
72.510978
44.268527
15.077327
-19.945245
-60.259817
-73.946284
-4.952686
-27.614396
-120.804091
-69.902193
36.667067
54.932971
3.961686
-65.793106
-105.693858
-61.298070
33.982523
63.215857
43.534360
53.140647
75.424825
75.116939
20.665581
-32.556471
30.547540
131.706498
52.730274
-148.358729
-166.334908
-22.349902
8.331806
-73.017694
-114.267689
-83.565408
5.162316
105.505322
124.090125
52.406506
-26.748339
-50.950072
29.880448
128.856908
49.175318
-124.993332
-163.220563
-59.617956
72.087550
79.742565
-47.500636
-66.516044
77.102601
165.451106
81.959790
-69.846620
-115.508604
-77.942736
-54.309080
-11.183513
54.207269
112.304511
104.998839
9.785630
-47.645942
-25.346802
18.694082
44.837083
7.592268
-78.085988
-107.367200
9.746084
110.679661
20.772246
-78.558367
-30.247644
67.223863
27.188912
-124.879584
-78.778012
94.138003
36.096688
-162.889542
-198.398412
2.953195
207.597135
167.133400
-16.167138
-123.292786
-73.077317
42.428376
42.814401
-43.421228
-83.946686
-91.345877
-89.945640
-76.024625
-82.007238
-87.490226
-35.653841
49.097459
76.720163
14.272705
-36.102865
7.962333
62.223196
41.559517
-14.511588
-53.244055
-87.879224
-89.794934
-1.633701
80.413733
65.513625
33.740368
42.679397
63.085715
58.277699
11.737573
-30.272264
-16.670148
3.864057
12.938923
26.374809
-37.637454
-81.392587
27.759432
101.425702
65.379566
23.104837
11.385540
75.354835
103.173227
7.741651
-59.572531
-19.208344
58.808659
49.586084
-59.757833
-101.296100
-32.542378
3.206184
-48.687199
-86.068551
-55.634668
10.211317
95.844968
99.272461
-25.913091
-92.157885
-12.392779
64.910441
40.716424
-28.164668
-46.590439
25.725184
103.892052
48.208348
-42.085533
11.590369
77.632744
32.972815
-12.008351
-7.927394
3.825385
-13.276626
-59.917753
-71.359766
4.170570
112.313052
109.983287
-1.021759
-65.539258
-48.939160
6.784105
33.707990
-7.940864
7.082506
63.836583
3.201053
-79.474544
-48.811073
8.143836
5.362141
-18.962101
-14.814045
15.575884
30.685758
-2.850798
-11.025027
43.932318
29.603844
-42.803378
-23.382515
36.887405
6.414529
-84.718451
-92.894083
-27.256411
-16.134183
14.366098
85.022229
56.129821
-14.369849
-33.022403
13.951233
64.825543
-6.397262
-53.213269
10.114486
22.491738
44.662290
80.782122
31.341507
-11.212610
-30.067866
-8.339191
74.134689
61.733640
-43.085598
-72.472954
-10.998744
25.750704
-6.554676
-26.995546
-9.947959
4.156353
13.507334
3.457115
-23.937353
-41.768811
-21.718567
71.291388
125.999505
30.966787
-52.081484
0.254059
85.616505
86.048119
-32.213292
-106.624858
-19.585385
