EVENT_NAME: 202302060117
EVENT_ID: 13194
EVENT_DATE_YYYYMMDD: 2023/02/06
EVENT_TIME_HHMMSS: 01:17:32.00000
EVENT_LATITUDE_DEGREE: 37.288
EVENT_LONGITUDE_DEGREE: 37.043
EVENT_DEPTH_KM: 8.6
HYPOCENTER_REFERENCE: AFAD
MAGNITUDE_W: 7.7
MAGNITUDE_W_REFERENCE: AFAD
MAGNITUDE_L: 
MAGNITUDE_L_REFERENCE: 
FOCAL_MECHANISM: 
NETWORK: TK
STATION_CODE: 2708
STATION_NAME: 
STATION_LATITUDE_DEGREE: 37.09933
STATION_LONGITUDE_DEGREE: 36.648373
STATION_ELEVATION_M: 554.0
LOCATION: Kahramanmaras_Pazarck_Turkiye
SENSOR_DEPTH_M: 
VS30_M/S: 523
SITE_CLASSIFICATION_EC8: B
MORPHOLOGIC_CLASSIFICATION: 
EPICENTRAL_DISTANCE_KM: 40.77
EARTHQUAKE_BACKAZIMUTH_DEGREE: 
DATE_TIME_FIRST_SAMPLE_YYYYMMDD_HHMMSS: 2023/02/06 01:17:09.1789020
DATE_TIME_FIRST_SAMPLE_PRECISION: millisecond
SAMPLING_INTERVAL_S: 0.01
NDATA: 10501
DURATION_S: 
STREAM: HNZ
UNITS: cm/s^2
INSTRUMENT: sensor = ACEBOX/SARA | digitizer = 
INSTRUMENT_ANALOG/DIGITAL: 
INSTRUMENTAL_FREQUENCY_HZ: 
INSTRUMENTAL_DAMPING: 
FULL_SCALE_G: 
N_BIT_DIGITAL_CONVERTER: 
PGA_CM/S^2: 1002.726
TIME_PGA_S: 
BASELINE_CORRECTION: BASELINE REMOVED
FILTER_TYPE: BUTTERWORTH
FILTER_ORDER: 
LOW_CUT_FREQUENCY_HZ: 
HIGH_CUT_FREQUENCY_HZ: 
LATE/NORMAL_TRIGGERED: 
DATABASE_VERSION: 
HEADER_FORMAT: DYNA 1.2
DATA_TYPE: Acceleration
PROCESSING: Automatic Paolucci et al., 2011
DATA_TIMESTAMP_YYYYMMDD_HHMMSS: 
DATA_LICENSE: U (unknown license)
DATA_CITATION: Turkish Accelerometric Archive v 1.0 - Disaster And Emergency Management Presidency, Earthquake Department
DATA_CREATOR: AFAD
ORIGINAL_DATA_MEDIATOR_CITATION: : AFAD - Disaster And Emergency Management Presidency
ORIGINAL_DATA_MEDIATOR: AFAD PROCESS SERVICE
ORIGINAL_DATA_CREATOR_CITATION: AFAD PROCESS SERVICE
ORIGINAL_DATA_CREATOR: network: TK
USER1: GuestUser
USER2: 
USER3: 
USER4: 
USER5: 
[...]
-1.496382
-5.088959
-1.931108
4.318245
3.455952
4.892354
11.235693
13.300776
14.614668
16.089647
14.762331
18.157253
20.454263
6.717690
-14.065533
-26.585191
-36.025271
-37.396307
-18.856232
-3.926221
-3.398355
1.812236
6.355804
11.143222
24.210103
24.430993
10.992979
3.940670
0.806569
-7.053743
-17.032492
-20.528979
-20.151211
-18.040771
-0.757824
12.027798
-7.823275
-23.314028
-3.186470
22.683149
35.743016
42.051285
32.208138
3.052869
-19.212628
-17.145207
-11.709235
-19.709592
-20.334580
-0.075862
23.706415
40.901454
49.428927
41.086057
24.009457
13.323237
5.985695
-3.595599
-10.900175
-14.186244
-16.759232
-18.318708
-21.814960
-33.032134
-44.900199
-41.210927
-20.589355
-4.759224
-3.247773
0.885948
13.171011
20.971608
19.196337
19.641439
25.647642
19.067603
4.707026
4.355814
7.650670
-2.361512
-11.342882
-2.359505
7.306327
2.675690
-1.717409
-3.292549
-6.330325
-1.494745
10.907450
14.491514
-6.005307
-35.352523
-39.890577
-21.612822
-10.517788
-7.920348
3.052176
7.086300
-3.438132
-6.691236
-7.291909
-8.209846
0.003170
-1.336537
-15.647783
-23.107601
-11.167155
15.954214
21.572548
1.430164
-4.085630
-2.104480
-14.186937
-19.217601
-4.357963
10.119884
5.685403
-5.369281
-4.505449
5.438836
14.901030
16.611910
12.587509
5.303975
-7.263845
-13.064638
-10.239948
-10.679535
-11.986977
-14.267952
-16.709545
-5.392403
13.752038
12.206355
-10.761469
-23.137108
-15.457150
-3.152448
5.786041
7.172176
5.400880
11.073221
21.080864
24.426221
15.619030
3.206217
-1.159528
-0.421712
0.812455
0.845840
-1.855736
-4.666027
-11.016477
-19.489572
-18.503697
-3.133212
20.321515
23.752675
-1.024973
-12.664619
-5.738891
-11.691651
-15.531352
2.950274
15.369770
3.801666
0.758045
17.898142
17.849698
-1.336923
-7.476254
-0.708339
6.680074
11.680481
8.786958
2.361225
8.875704
25.535114
26.890154
11.174955
-1.803413
-10.600084
-15.409576
-6.724056
8.797696
12.618129
3.555397
0.304164
6.368116
5.427033
-1.891805
-1.719544
5.159658
7.016661
1.115570
-4.157776
-6.247504
-8.417425
-12.166179
-13.434110
-1.220355
16.047161
16.965936
7.631064
7.132326
17.963638
21.714165
3.782568
-12.814748
-6.911883
1.106613
-3.480538
-5.257913
-2.004906
-7.268900
-10.736629
-9.536830
-22.570141
-27.660891
-2.879364
14.722950
6.290068
-0.884283
0.871953
-4.085065
-8.928457
-3.492018
-5.633415
-12.426911
-5.363710
-0.641755
-3.434278
2.563041
8.931397
5.870007
4.741185
12.223585
16.986922
12.753039
8.468422
8.233407
11.950735
14.664372
8.814482
3.858165
2.413951
-3.121014
-1.644866
4.822386
-0.109850
-8.050589
-10.116703
-10.340963
-10.640272
-12.743093
-10.961840
-4.442686
-2.559029
-3.349546
-2.560529
-2.306206
-5.792873
-15.850412
-25.896729
-25.266226
-13.485230
-1.663086
2.863648
3.800426
1.884642
-2.499806
-7.827860
-15.541816
-17.427907
-7.072606
3.621700
3.969775
0.476328
-2.541809
-8.580139
-7.228839
2.078114
-0.202861
-7.800619
-1.684531
12.554843
19.083116
15.777642
11.341524
2.161660
-5.211653
10.389824
26.218786
13.793114
-0.744916
3.664219
9.224804
2.930934
-7.885044
-13.606813
-7.665137
7.097241
13.407147
11.420056
16.954457
21.680152
17.667675
14.311000
5.691781
-8.967122
-6.532639
12.889786
22.305221
17.055255
8.375250
-3.519234
-13.385761
-13.497565
-9.079546
-3.550055
4.165440
10.037911
9.219572
11.913102
32.669575
48.447803
32.881299
8.160229
-3.697081
-7.977256
-7.138674
1.037168
5.903142
-6.086264
-12.967199
2.285218
6.945918
-1.428281
0.129696
-11.905300
-40.037940
-48.230712
-38.562074
-31.845127
-28.635373
-24.182519
-16.852088
-5.825556
5.184377
7.640836
2.800249
-2.909596
-8.586008
-2.995964
17.085069
25.292941
9.223072
-9.222178
-13.078713
-3.750951
11.302271
23.177721
32.367775
36.954829
25.652086
7.410006
-2.872680
-8.564055
-7.036706
7.646883
22.279738
24.699257
21.300264
13.428262
0.115564
-5.364693
-2.630248
-1.715448
2.704675
13.810932
16.808866
7.742160
7.928214
6.023887
-22.708910
-42.045395
-34.691351
-28.787083
-14.527836
9.669431
11.210107
-9.290221
-18.682607
-4.589122
9.546679
16.436870
28.682187
36.296916
33.697977
26.994728
15.275357
2.226850
-5.808810
-1.497403
4.421360
-5.177469
-7.176718
6.992517
7.242164
-0.141670
-2.052075
-13.584408
-17.887027
-1.067233
1.439727
-13.092458
-10.189212
-4.545160
-23.618156
-38.869735
-25.034830
-10.463698
-10.857461
-2.101100
17.159070
20.037300
3.297367
-3.813625
14.896888
32.968667
26.072535
10.931541
10.514399
13.366209
1.287961
-3.734287
7.562982
-0.442752
-18.567933
-5.129782
20.344485
13.905894
-14.465452
-20.446268
-0.433739
11.378586
5.525189
0.941312
13.664277
27.961399
21.517898
7.708614
-5.976991
-22.468865
-27.633261
-16.682713
4.023961
16.618104
8.895732
-1.509464
-4.442031
-6.004079
-9.822738
-9.435852
-2.587277
-6.440071
-10.839015
-5.020317
-13.865383
-22.758846
-8.832292
2.938884
0.430425
-3.445281
-3.389686
-7.219567
-17.857391
-28.212320
-37.703836
-35.150117
-14.049962
2.331930
6.124307
8.480468
7.134916
-0.669519
-13.025753
-28.221922
-34.129559
-18.702963
9.233658
28.683438
28.937995
23.388067
27.937012
31.911517
31.715780
37.796331
37.620233
27.042028
22.204013
25.516404
26.998396
10.712031
-15.650062
-22.103617
-15.286838
-14.769259
-9.115622
7.786937
19.304677
20.163599
23.344363
24.938812
10.182181
-11.889498
-22.752235
-20.016387
-16.398423
-15.735656
-6.053692
7.981343
8.324977
-1.219144
-4.467805
-9.590118
-24.050761
-19.935276
-1.839182
-8.117856
-21.940232
-17.263634
-10.936895
-6.341658
14.044948
40.350365
37.512485
9.891160
-4.522022
-8.598793
-17.508621
-19.776503
-26.074115
-45.370854
-40.772812
-10.086268
3.952041
6.776030
13.660609
13.822349
23.974479
40.819991
26.641775
-1.352690
2.136920
23.336204
22.258818
6.377155
3.005751
10.851003
20.136915
20.446180
10.875874
15.827418
35.013709
39.024920
27.083910
20.707275
28.845008
28.595264
-4.852055
-38.385411
-31.047264
0.036034
20.918289
12.574017
-21.193838
-45.928235
-33.953187
-5.884471
-6.428098
-25.707770
-18.928399
-6.997306
-19.512755
-11.533771
28.160281
36.872687
10.415673
0.463810
6.085183
4.761842
-0.460068
-8.026497
-17.557525
-33.362502
-51.230974
-43.504724
-16.212683
2.811820
20.705445
36.209896
26.711600
2.058098
-5.784913
7.460355
19.235973
16.336137
3.320595
-6.904577
-3.549167
3.560092
-1.515461
-13.175914
-24.108556
-36.733423
-34.443427
-5.009102
17.160208
5.489468
-14.463307
-17.495238
-5.530711
10.760468
24.697542
41.635404
58.088604
57.254367
37.358405
15.849710
12.650146
18.455284
16.519160
22.486086
30.266810
28.427245
40.794605
46.705652
25.005477
11.054278
4.370434
1.053036
22.401717
39.268505
27.225326
-0.622782
-32.794737
-39.175113
-14.335839
-3.359105
-18.386473
-24.455197
-10.229617
-1.260267
-5.589773
-14.387145
-27.059940
-29.981052
-24.951186
-30.442430
-30.712281
-22.352674
-24.977097
-23.640292
-9.428740
-5.787162
-18.712693
-32.420742
-35.502706
-31.198781
-29.510813
-32.397556
-32.229738
-16.557654
-0.127600
-14.331299
-36.772145
-32.642632
-20.987419
-23.770356
-31.898133
-29.872561
-20.998367
-18.778744
-21.219636
-16.350623
4.873211
27.195190
28.397795
19.216528
9.213464
0.329587
0.747568
-1.214975
-5.248961
2.357819
6.076082
2.162034
8.388942
17.689115
14.412631
-2.005830
-15.580849
-0.814730
36.492719
58.454183
51.794887
39.728328
31.806761
11.044113
-13.099946
-8.754872
16.328253
27.963827
24.101682
20.544408
7.511097
-15.607994
-25.694991
-26.590717
-28.534322
-19.114445
-1.015311
0.402153
-17.609169
-25.166480
-15.395206
-5.124540
3.204439
8.361023
11.970337
16.613970
13.869375
-0.300424
-15.483033
-16.883059
-18.456329
-31.684393
-30.919223
-14.067632
4.527619
19.002894
10.999965
-6.572753
-8.711111
-12.789519
-29.971796
-42.425991
-34.044407
-11.972123
-7.906671
-29.214067
-41.401499
-25.598723
-3.796942
6.950903
20.275896
32.959349
24.589125
15.670880
30.654899
50.705070
51.528923
34.733347
21.338118
12.465931
-4.899877
-15.082965
-14.329485
-21.295289
-25.542265
-16.016945
-14.600416
-33.227092
-41.176014
-24.086417
-27.416674
-54.783393
-51.598422
-34.881030
-45.758964
-53.185115
-37.354751
-25.030176
-26.265843
-21.320144
-1.594483
13.551790
19.761164
21.139116
9.099912
-9.328972
-30.894013
-48.207918
-43.586729
-36.206500
-34.789503
-25.760768
-27.796957
-53.968973
-92.993058
-119.270282
-100.398917
-45.619331
8.465176
36.549323
27.217257
6.941842
-1.198092
-26.506227
-54.719526
-29.450532
7.048913
9.173147
29.755207
55.191833
24.121999
-17.436683
-7.237091
36.956856
67.548244
69.120716
61.703684
49.398418
35.225111
33.562998
13.787442
-31.874849
-14.363248
84.373497
137.475821
105.594009
69.011001
41.257347
8.858843
-11.686842
-14.256322
7.299504
17.433164
-9.231463
1.545374
67.857945
81.991643
22.334014
-5.743683
15.449056
7.921670
-19.374442
-3.090979
27.494799
-2.064472
-61.158182
-51.152642
16.747412
36.414858
-2.364909
-0.495047
46.161487
41.933682
-11.359985
-50.696657
-48.971048
-15.957987
-18.042572
-37.415062
10.893951
56.920635
30.303937
1.119678
0.169945
3.385076
10.760163
29.593887
47.671511
38.281930
19.763970
14.427966
7.086450
5.556900
9.119922
23.589119
58.390027
54.395786
11.109343
2.686515
55.346495
141.976282
162.938496
74.823064
-29.448694
-70.572512
-23.897508
39.540526
19.018922
-53.898752
-122.646886
-150.739780
-98.919366
-14.972636
21.389570
-25.945774
-113.265594
-147.917904
-147.192713
-178.134193
-174.052608
-35.695410
170.739110
243.107732
58.136406
-180.123162
-153.444839
1.098612
11.793386
-4.082900
26.756314
38.185913
67.598262
80.569052
39.199746
-12.108047
-30.357141
-5.609281
4.271878
4.918045
28.353601
47.992055
64.160958
25.009454
-58.139189
-59.994419
-36.248614
-58.883044
-15.170017
71.354094
53.261410
-27.923803
-65.127309
-97.082768
-173.191541
-204.204797
-107.490865
-7.073352
-56.362773
-160.264898
-182.947022
-184.906291
-199.938101
-170.283772
-149.708025
-170.359619
-120.358615
-18.221289
-2.680366
-60.559499
-133.014722
-189.571264
-197.267685
-203.976078
-156.681979
14.387899
151.155042
201.066268
224.055504
158.625655
90.510176
140.015296
170.134180
133.708518
163.792800
190.363343
89.757526
-30.848945
-56.615323
7.550522
85.845905
71.940530
-11.934755
-34.441998
41.465847
91.894699
47.526710
42.363717
116.338526
152.189885
133.533517
60.346508
-62.818407
-107.731846
-21.028646
66.088609
76.938624
119.895082
206.837457
196.375916
118.171384
45.637838
-32.085305
-44.760205
-11.970421
-8.658029
-16.600405
-36.242930
22.889727
159.410214
173.335131
112.654171
91.107835
58.317252
70.727163
124.262714
129.947212
128.947680
164.242602
212.369253
199.714227
142.643564
121.979812
44.196349
-101.726859
-163.015224
-68.990897
143.170721
233.981972
85.334324
-51.050423
-53.565429
-35.990469
-73.448580
-120.758908
-94.798108
-36.338319
56.623633
178.201436
122.253001
-85.495323
-162.641455
-104.858275
-120.233066
-195.621977
-150.595244
-79.491466
-179.190149
-334.898241
-372.246701
-273.081873
-180.682671
-164.978557
-23.671772
157.327710
90.806261
-119.829693
-231.423748
-82.740191
202.543391
219.736794
-123.105434
-431.226197
-301.386467
37.163147
156.124525
143.421102
96.219724
52.453762
88.136554
65.588162
19.073914
12.139673
-12.729858
27.664182
59.273524
-23.403784
-114.801262
-115.497558
-69.126257
-153.420974
-253.704385
-100.750288
66.135321
-16.361496
-132.519273
-104.219098
-7.292645
31.912770
-77.967551
-243.051146
-288.698942
-215.985469
-72.799889
83.158736
165.825426
220.750200
261.644567
229.425151
125.863903
-38.233770
-161.899713
-238.984590
-313.992879
-192.142235
14.989702
8.510430
-85.413695
-162.981831
-173.383754
-24.746022
79.405000
8.994100
-119.531319
-182.007841
-217.418356
-403.922691
-527.511948
-289.599666
39.049803
149.700155
82.179924
-10.769033
-50.297886
-80.791878
-76.730868
17.490785
52.715334
-102.472793
-265.163708
-268.734542
-205.577298
-148.343542
-166.757229
-183.228295
10.082717
135.665467
11.776949
29.143361
184.928042
121.648192
-103.100934
-216.706814
-184.174908
-118.243192
-57.036987
-16.854767
32.435727
102.697835
125.879487
135.495754
149.772536
104.506297
28.431658
50.435673
152.443008
111.228243
-15.076803
3.456959
108.489163
171.920183
141.259961
52.012483
-87.570845
-289.834986
-326.894707
-173.000745
-35.044275
95.480715
159.360860
126.831897
67.215182
-26.872133
15.874609
158.008101
259.043774
417.683119
323.780504
37.993225
178.888293
406.008727
261.280690
18.558868
-153.289418
-127.044788
93.937766
283.524622
332.847847
179.537580
14.064010
22.484171
34.688807
-1.388731
-24.587547
-72.742818
-145.735775
-211.088238
-230.937206
-194.650283
-145.601535
-134.913542
-154.646547
-152.253680
-106.463833
-12.758171
97.540316
169.347825
157.653705
118.534932
160.037639
226.312569
284.303594
266.923992
162.118241
110.538775
2.325663
60.827769
213.501777
-74.020979
-153.586913
110.316378
82.317236
38.806582
52.838344
-1.230361
-182.404353
-260.065306
-231.561727
-360.476418
-62.539728
-81.179263
-69.969668
595.214130
-431.022881
-1002.725745
187.079243
-134.402565
-53.732036
570.571141
-204.284012
-250.917262
18.401474
-4.735853
-27.155423
-177.982295
619.812013
795.552927
104.845151
195.194419
127.409763
95.060356
308.929162
127.385070
83.418043
139.159471
174.112815
143.675402
5.535538
19.991876
21.344111
91.353719
103.797530
-70.993796
-15.350563
45.979788
-47.509707
-39.457077
-11.882608
6.940829
8.560061
-36.496695
-44.920459
-41.072906
-42.180920
-8.866962
44.131089
73.448516
53.616849
16.101224
5.728526
9.425280
-11.031328
-69.898488
-153.621103
-214.855695
-226.818214
-176.977361
-52.569911
39.869505
6.419614
-44.276098
-24.339786
24.884777
87.445838
113.209079
39.253111
-57.630420
-71.524338
52.541301
237.241793
262.785031
156.118020
156.382630
225.992678
155.682778
-3.288889
-95.467016
-136.374806
-55.365739
179.694451
311.739825
166.709020
-159.545058
-346.668956
-227.758546
-0.335812
198.568565
224.449173
77.238443
12.852732
-17.298046
-52.264345
24.115770
85.901792
25.484556
-62.730240
-20.120970
95.137526
90.955312
17.879825
13.048590
70.891621
48.573520
-40.058371
-37.180375
-36.347871
-59.989732
-7.459510
21.430068
-18.332582
-96.863729
-173.495741
-191.158471
-169.266679
-101.997409
-44.943443
-19.984465
37.434225
20.817971
-18.092255
43.128212
17.954277
-71.206930
-98.327461
-181.922891
-261.224166
-227.977074
-123.942717
-9.665234
21.365226
43.803403
69.394335
-32.349607
-59.247329
79.853111
122.460276
30.017490
-68.110309
-41.414685
139.869562
276.658682
269.745483
170.399599
104.163149
127.942387
45.788317
-60.555352
-1.046048
36.326397
27.500969
18.615456
-51.986924
-77.587539
-74.141650
-33.909397
71.063188
42.974737
-19.978031
12.508986
-23.039002
-16.759255
90.805441
97.768810
55.248988
17.853067
-44.850005
-70.631111
-134.832824
-213.619979
-159.355214
-13.175861
161.687144
279.329437
265.238662
151.166590
15.492352
23.644347
110.198150
94.717917
50.489271
-6.887899
-82.661875
-151.721661
-233.092743
-192.085219
-56.760371
-28.211903
-56.086664
6.446107
85.365728
76.730845
105.212915
69.099138
-88.010334
16.969032
169.946508
38.125249
-90.360658
-199.758655
-232.727391
-140.842308
-199.014389
-208.734559
-40.505785
118.784919
182.576688
71.819861
29.389116
57.507164
-0.039743
43.151447
-75.882036
-273.443579
-159.775840
-152.672426
-99.491545
241.810096
209.583433
-9.215319
32.937578
67.224367
219.657096
378.959490
64.424499
-300.285488
-223.202579
26.786034
180.768371
166.830967
54.259873
42.010485
138.420245
291.769694
310.116652
-6.404680
-204.995165
-12.502444
133.562116
81.124848
-31.685654
-89.893273
-35.462044
2.781295
54.895124
143.402304
126.296946
50.568561
37.216117
104.707962
85.218340
-73.588735
-145.325032
-138.810319
-95.474174
-4.405746
-56.783396
-156.525566
-86.320270
123.341588
312.453601
199.939320
-93.238524
-160.578030
-40.871307
58.940204
47.345448
-57.545171
-101.679363
-54.311852
-61.944680
-205.885755
-273.318546
-78.294268
151.574921
212.131404
120.380191
-67.190260
-176.894064
-109.310337
2.062683
26.954094
-6.754142
-36.813505
-103.038733
-186.346124
-155.187310
-46.765045
-21.018638
-72.155525
-93.836295
11.152890
225.492095
266.072005
22.519734
-151.541677
-56.598760
92.803021
130.135720
102.042593
41.193065
-21.650519
29.380362
99.021271
28.019799
-15.555384
34.431124
74.780276
155.991578
168.164885
8.009268
-95.016117
3.054306
171.841388
210.322966
92.305565
1.130896
24.987287
48.093890
-30.194575
-77.698020
20.669559
105.541425
63.430982
-85.023081
-239.233702
-214.274255
-20.827875
148.117020
134.579175
12.084790
-27.774185
-65.361352
-167.636014
-234.626694
-158.843697
144.563148
334.066070
164.731339
41.919925
162.123701
309.042789
228.310207
-66.389891
-129.862390
39.432967
70.933359
82.570804
89.649669
-61.365644
-129.752795
-64.922732
-81.617074
-65.890983
166.696332
489.741914
571.137448
213.975138
-213.160123
-307.400342
-355.228296
-391.199691
-92.820655
146.861940
50.461200
-73.150735
12.461333
411.037927
703.205436
580.754304
472.153322
483.501325
308.304127
-73.406662
-200.836507
105.708832
270.140037
182.388861
128.850876
154.228585
239.050886
46.543339
-187.298630
-36.606288
2.592815
-102.857749
-184.248470
-412.497775
-381.682408
-79.471436
9.856606
-110.384909
-137.561317
5.520690
19.458466
126.495949
502.393273
564.551734
213.673193
-310.378282
-449.606238
22.064499
81.761076
-150.258677
22.128181
53.292840
-34.117225
-27.205291
-82.666259
4.324277
-42.791531
-308.176492
-251.722917
13.742607
81.353688
-42.952859
-199.248951
-241.421116
-191.551039
-203.494855
-272.123752
-291.161912
-229.360692
-102.656417
-21.513384
-61.562436
-100.091573
-94.085603
-129.480453
-199.017185
-263.381855
-215.978806
-64.919636
-76.018274
-148.976396
-52.581130
6.912510
-42.357740
-152.188262
-190.227126
107.703019
322.166604
101.002994
-141.139245
-288.383876
-356.334528
-214.944044
-112.200013
-120.031569
-26.248988
10.882178
-131.644892
-211.665093
-182.973775
-138.362733
-10.613151
114.270779
81.537477
-32.471470
-89.416115
-83.175413
-30.932527
110.534642
162.635847
-7.666805
-85.532799
76.664239
225.337041
145.939207
-0.770495
113.003388
210.596397
34.978364
-79.756289
-120.756896
-81.302721
96.556863
29.533919
-78.292960
86.423243
75.894135
-111.170612
-178.611819
-210.299814
-66.024271
187.676808
156.959072
-14.340492
-89.930235
-66.819190
42.297218
-10.575380
-154.937758
-79.411938
7.443931
-22.845254
-16.509630
0.706451
-30.311481
-100.875752
-131.018814
-119.134480
-135.224456
-95.010908
-47.637317
-135.418186
-186.949489
-98.904761
