EVENT_NAME: 202302060117
EVENT_ID: 13194
EVENT_DATE_YYYYMMDD: 2023/02/06
EVENT_TIME_HHMMSS: 01:17:32.00000
EVENT_LATITUDE_DEGREE: 37.288
EVENT_LONGITUDE_DEGREE: 37.043
EVENT_DEPTH_KM: 8.6
HYPOCENTER_REFERENCE: AFAD
MAGNITUDE_W: 7.7
MAGNITUDE_W_REFERENCE: AFAD
MAGNITUDE_L: 
MAGNITUDE_L_REFERENCE: 
FOCAL_MECHANISM: 
NETWORK: TK
STATION_CODE: 0633
STATION_NAME: 
STATION_LATITUDE_DEGREE: 39.921437
STATION_LONGITUDE_DEGREE: 33.224367
STATION_ELEVATION_M: 1099.0
LOCATION: Kahramanmaras_Pazarck_Turkiye
SENSOR_DEPTH_M: 
VS30_M/S: None
SITE_CLASSIFICATION_EC8: unknown
MORPHOLOGIC_CLASSIFICATION: 
EPICENTRAL_DISTANCE_KM: 442.47
EARTHQUAKE_BACKAZIMUTH_DEGREE: 
DATE_TIME_FIRST_SAMPLE_YYYYMMDD_HHMMSS: 2023/02/06 01:18:08.2102090
DATE_TIME_FIRST_SAMPLE_PRECISION: millisecond
SAMPLING_INTERVAL_S: 0.01
NDATA: 21001
DURATION_S: 
STREAM: HNN
UNITS: cm/s^2
INSTRUMENT: sensor = ACEBOX/SARA | digitizer = 
INSTRUMENT_ANALOG/DIGITAL: 
INSTRUMENTAL_FREQUENCY_HZ: 
INSTRUMENTAL_DAMPING: 
FULL_SCALE_G: 
N_BIT_DIGITAL_CONVERTER: 
PGA_CM/S^2: 2.306
TIME_PGA_S: 
BASELINE_CORRECTION: BASELINE REMOVED
FILTER_TYPE: BUTTERWORTH
FILTER_ORDER: 
LOW_CUT_FREQUENCY_HZ: 
HIGH_CUT_FREQUENCY_HZ: 
LATE/NORMAL_TRIGGERED: 
DATABASE_VERSION: 
HEADER_FORMAT: DYNA 1.2
DATA_TYPE: Acceleration
PROCESSING: Automatic Paolucci et al., 2011
DATA_TIMESTAMP_YYYYMMDD_HHMMSS: 
DATA_LICENSE: U (unknown license)
DATA_CITATION: Turkish Accelerometric Archive v 1.0 - Disaster And Emergency Management Presidency, Earthquake Department
DATA_CREATOR: AFAD
ORIGINAL_DATA_MEDIATOR_CITATION: : AFAD - Disaster And Emergency Management Presidency
ORIGINAL_DATA_MEDIATOR: AFAD PROCESS SERVICE
ORIGINAL_DATA_CREATOR_CITATION: AFAD PROCESS SERVICE
ORIGINAL_DATA_CREATOR: network: TK
USER1: GuestUser
USER2: 
USER3: 
USER4: 
USER5: 
[...]
-0.968132
-0.927217
-0.894252
-0.848662
-0.791849
-0.739245
-0.695759
-0.654377
-0.603644
-0.555014
-0.520646
-0.489084
-0.454248
-0.421517
-0.400943
-0.391825
-0.379200
-0.370550
-0.379668
-0.392528
-0.403282
-0.422454
-0.442093
-0.468513
-0.507089
-0.530937
-0.556889
-0.606688
-0.646901
-0.675425
-0.718210
-0.764034
-0.803079
-0.839084
-0.872751
-0.912263
-0.945229
-0.954113
-0.965102
-0.991054
-1.009758
-1.017239
-1.017006
-1.024254
-1.034307
-1.029865
-1.032204
-1.038049
-1.034074
-1.035478
-1.034309
-1.030802
-1.026360
-1.008358
-0.994798
-0.990356
-0.974692
-0.951079
-0.939389
-0.928167
-0.903151
-0.885850
-0.878369
-0.863172
-0.849145
-0.843534
-0.837923
-0.826233
-0.822025
-0.829975
-0.831845
-0.835353
-0.854290
-0.869487
-0.880944
-0.902453
-0.928873
-0.952019
-0.968619
-0.986621
-1.010001
-1.028004
-1.044838
-1.065412
-1.084350
-1.102820
-1.123628
-1.154724
-1.182546
-1.204757
-1.241931
-1.273727
-1.303654
-1.343400
-1.368650
-1.409565
-1.451181
-1.469651
-1.514540
-1.547506
-1.558729
-1.598942
-1.627232
-1.642429
-1.666744
-1.679603
-1.692696
-1.704854
-1.712803
-1.715843
-1.712570
-1.710466
-1.700413
-1.687087
-1.672825
-1.648744
-1.631444
-1.616715
-1.581645
-1.536756
-1.507064
-1.476203
-1.419391
-1.357201
-1.305298
-1.252460
-1.197285
-1.141641
-1.075009
-1.013287
-0.972606
-0.912053
-0.848694
-0.816898
-0.760553
-0.700234
-0.663060
-0.602507
-0.559489
-0.531901
-0.476257
-0.431836
-0.404950
-0.377829
-0.339253
-0.302313
-0.288520
-0.258126
-0.224927
-0.214640
-0.197106
-0.189157
-0.176766
-0.154088
-0.155725
-0.155725
-0.143802
-0.137957
-0.133281
-0.134918
-0.136789
-0.132347
-0.126502
-0.125100
-0.125334
-0.116450
-0.111306
-0.109904
-0.097045
-0.089330
-0.090032
-0.085824
-0.085590
-0.096813
-0.105697
-0.112945
-0.128844
-0.134689
-0.138196
-0.160641
-0.177708
-0.182618
-0.197581
-0.226105
-0.257668
-0.277307
-0.297180
-0.332951
-0.363345
-0.374802
-0.393739
-0.433485
-0.463879
-0.482817
-0.514146
-0.547813
-0.577038
-0.606497
-0.632448
-0.660037
-0.682949
-0.694172
-0.705394
-0.721293
-0.741166
-0.763844
-0.782314
-0.803590
-0.839829
-0.870223
-0.884251
-0.908566
-0.936622
-0.955092
-0.973796
-0.983616
-0.992033
-1.008633
-1.009568
-1.005360
-1.008634
-1.000685
-0.988761
-0.971694
-0.950419
-0.937327
-0.912545
-0.880047
-0.853628
-0.821364
-0.792140
-0.764318
-0.728781
-0.703532
-0.679451
-0.643446
-0.608844
-0.579620
-0.553435
-0.520704
-0.483296
-0.460384
-0.436771
-0.403105
-0.382998
-0.376218
-0.375985
-0.371543
-0.368738
-0.390949
-0.412458
-0.426720
-0.460387
-0.496626
-0.526552
-0.557648
-0.596224
-0.635736
-0.660285
-0.693485
-0.727619
-0.750766
-0.785134
-0.807345
-0.820204
-0.846857
-0.866730
-0.886136
-0.908814
-0.929623
-0.963523
-0.989709
-1.006075
-1.040443
-1.071539
-1.082995
-1.102167
-1.126482
-1.136068
-1.134899
-1.133496
-1.135835
-1.128353
-1.110117
-1.094220
-1.078088
-1.059618
-1.034602
-1.003507
-0.973815
-0.937343
-0.896429
-0.846163
-0.788181
-0.744228
-0.697001
-0.636915
-0.595533
-0.558126
-0.505756
-0.470686
-0.445203
-0.406860
-0.378805
-0.347008
-0.306796
-0.282481
-0.255828
-0.230111
-0.212343
-0.199484
-0.200419
-0.192471
-0.185223
-0.186860
-0.180314
-0.182652
-0.176340
-0.161611
-0.162079
-0.154130
-0.148285
-0.154364
-0.152962
-0.160677
-0.171432
-0.168393
-0.181018
-0.201125
-0.205801
-0.221466
-0.244612
-0.253730
-0.267525
-0.288333
-0.321532
-0.362681
-0.383255
-0.409207
-0.449187
-0.474203
-0.503428
-0.536628
-0.557670
-0.587830
-0.611443
-0.616587
-0.636694
-0.652359
-0.644176
-0.642540
-0.641371
-0.628746
-0.615186
-0.602328
-0.596483
-0.595782
-0.584092
-0.574507
-0.582222
-0.590172
-0.599524
-0.612149
-0.608175
-0.622203
-0.657273
-0.647687
-0.626178
-0.640908
-0.651429
-0.648857
-0.665457
-0.685564
-0.680187
-0.666861
-0.653534
-0.633194
-0.632026
-0.640676
-0.640443
-0.658679
-0.678319
-0.668967
-0.660550
-0.669903
-0.682995
-0.689074
-0.698427
-0.723677
-0.734198
-0.728353
-0.743784
-0.764359
-0.785868
-0.808313
-0.807846
-0.811353
-0.830525
-0.835668
-0.827486
-0.831460
-0.846891
-0.844320
-0.838475
-0.835202
-0.820707
-0.825383
-0.827020
-0.813226
-0.824215
-0.836840
-0.840114
-0.852038
-0.865364
-0.880561
-0.884302
-0.890849
-0.912125
-0.920776
-0.926855
-0.939246
-0.947429
-0.962860
-0.968471
-0.962393
-0.968238
-0.972447
-0.969408
-0.966836
-0.960524
-0.957952
-0.955147
-0.944393
-0.934106
-0.928495
-0.926625
-0.914234
-0.898803
-0.897167
-0.887114
-0.866540
-0.858591
-0.854149
-0.842927
-0.836147
-0.833342
-0.822822
-0.816977
-0.814405
-0.801547
-0.797339
-0.798742
-0.792429
-0.791962
-0.790793
-0.791495
-0.794301
-0.781910
-0.782611
-0.791964
-0.774897
-0.760168
-0.749647
-0.729307
-0.715747
-0.686990
-0.655428
-0.645842
-0.617085
-0.583185
-0.569391
-0.540634
-0.505799
-0.479380
-0.449220
-0.424906
-0.401293
-0.364587
-0.333258
-0.315724
-0.286967
-0.246286
-0.219400
-0.198592
-0.164458
-0.125882
-0.098060
-0.068368
-0.033766
-0.007114
0.025852
0.066766
0.101601
0.138541
0.177819
0.213589
0.251932
0.292612
0.329786
0.362284
0.388702
0.416524
0.447853
0.460244
0.462581
0.486195
0.501859
0.496481
0.506300
0.521263
0.522666
0.525237
0.538797
0.556332
0.569190
0.587894
0.608234
0.622495
0.653590
0.684451
0.700583
0.732145
0.763240
0.781242
0.813506
0.846939
0.877800
0.917311
0.946769
0.975760
1.019012
1.051510
1.076760
1.112998
1.144560
1.166771
1.192021
1.205347
1.213763
1.228960
1.218906
1.195293
1.182434
1.155780
1.116970
1.073483
1.025788
0.980899
0.923852
0.862363
0.812097
0.759258
0.698237
0.633475
0.573622
0.521953
0.475661
0.429369
0.382375
0.353852
0.328835
0.289557
0.266645
0.253084
0.234614
0.219884
0.197673
0.181307
0.177099
0.156992
0.132443
0.119116
0.105790
0.086852
0.062537
0.038923
0.027467
0.015543
-0.008773
-0.018358
-0.023035
-0.045479
-0.053663
-0.056001
-0.071432
-0.072835
-0.081485
-0.101826
-0.102294
-0.111178
-0.135727
-0.147651
-0.161913
-0.187631
-0.211011
-0.232988
-0.256836
-0.275540
-0.306401
-0.345212
-0.351992
-0.358539
-0.382387
-0.382854
-0.377945
-0.367190
-0.340304
-0.324640
-0.291675
-0.240707
-0.204703
-0.164724
-0.112119
-0.061152
-0.021874
0.018806
0.073748
0.115598
0.150667
0.189477
0.221507
0.259850
0.284866
0.301465
0.336067
0.360382
0.379553
0.406439
0.424909
0.451094
0.475409
0.486397
0.510010
0.538533
0.553963
0.566121
0.582252
0.606100
0.624102
0.629479
0.646078
0.668990
0.678342
0.689330
0.698448
0.702422
0.715047
0.717618
0.715046
0.729308
0.737724
0.732580
0.731177
0.738659
0.751751
0.754089
0.749412
0.757595
0.772558
0.777000
0.778402
0.791962
0.800613
0.799911
0.812302
0.819082
0.823991
0.843864
0.845266
0.847370
0.867009
0.872854
0.882673
0.904182
0.926392
0.946499
0.966138
1.002843
1.031834
1.053343
1.090049
1.108519
1.130495
1.162525
1.173046
1.191282
1.214895
1.227053
1.234300
1.242716
1.266563
1.279188
1.284098
1.305373
1.315660
1.328752
1.352366
1.363821
1.383928
1.406372
1.422270
1.443311
1.459443
1.479316
1.502695
1.511813
1.523035
1.537764
1.538933
1.538699
1.541270
1.536126
1.525839
1.512279
1.499653
1.484222
1.460141
1.444476
1.428110
1.404497
1.397716
1.386494
1.367088
1.370361
1.369660
1.360074
1.366386
1.371529
1.375504
1.382751
1.379010
1.384153
1.403324
1.403792
1.397947
1.415481
1.435354
1.437224
1.442601
1.451719
1.456394
1.471123
1.478137
1.469954
1.477669
1.484683
1.480240
1.484916
1.485383
1.478837
1.472991
1.458496
1.448676
1.441896
1.416412
1.391161
1.378302
1.355857
1.325697
1.303954
1.288990
1.271689
1.251349
1.240126
1.235216
1.234514
1.245035
1.250880
1.252750
1.269817
1.290858
1.298340
1.301613
1.311432
1.314237
1.306989
1.299040
1.286882
1.271919
1.255085
1.226795
1.196168
1.173723
1.149642
1.117845
1.089555
1.067110
1.039522
1.012401
0.992996
0.974526
0.958393
0.950444
0.943897
0.931506
0.922621
0.921686
0.917711
0.911632
0.906956
0.900176
0.905085
0.909761
0.898304
0.900175
0.915137
0.920514
0.927294
0.942023
0.956752
0.974988
1.000939
1.022682
1.036009
1.057751
1.083001
1.101003
1.118538
1.138177
1.155244
1.166933
1.185403
1.210185
1.225616
1.236370
1.253905
1.280791
1.305106
1.315393
1.334564
1.371503
1.393714
1.402832
1.424107
1.456605
1.481387
1.490972
1.501493
1.526977
1.555266
1.566955
1.570228
1.592439
1.624001
1.643640
1.662110
1.681515
1.692269
1.692269
1.678708
1.668187
1.661874
1.639663
1.611374
1.587526
1.554560
1.521595
1.490967
1.447714
1.407968
1.373132
1.334322
1.303694
1.267689
1.231217
1.207135
1.178378
1.154764
1.142840
1.122032
1.103094
1.098418
1.091404
1.077142
1.074336
1.077609
1.071764
1.073400
1.081349
1.079011
1.080881
1.088830
1.089531
1.091167
1.100285
1.109637
1.108935
1.106831
1.116884
1.120624
1.114311
1.119221
1.132547
1.139093
1.134651
1.136521
1.145639
1.141430
1.138390
1.140261
1.128337
1.112906
1.093267
1.078537
1.076199
1.057027
1.033180
1.020321
0.999045
0.980575
0.959065
0.925164
0.907863
0.893133
0.871390
0.854089
0.829306
0.814810
0.811069
0.792365
0.784416
0.791196
0.786753
0.789325
0.804288
0.813406
0.818549
0.826498
0.837953
0.851747
0.858995
0.862268
0.879101
0.897571
0.898739
0.902714
0.913468
0.923989
0.939185
0.948069
0.964902
0.991087
1.001140
1.014700
1.035041
1.051640
1.081332
1.109387
1.129260
1.152873
1.168070
1.183734
1.202437
1.216465
1.237039
1.252937
1.256444
1.267198
1.279589
1.282394
1.282862
1.291278
1.297590
1.292680
1.292680
1.296421
1.294784
1.294550
1.293614
1.292913
1.300394
1.305303
1.309278
1.313720
1.313953
1.316291
1.312082
1.308575
1.324005
1.330318
1.327278
1.334292
1.322602
1.309976
1.322835
1.324471
1.312547
1.317691
1.322133
1.303662
1.286829
1.287296
1.279814
1.260876
1.255966
1.242640
1.209440
1.193542
1.179280
1.154030
1.150522
1.139300
1.110776
1.111010
1.125505
1.129713
1.126674
1.124803
1.128310
1.111944
1.114047
1.147948
1.130413
1.091602
1.090433
1.109370
1.136023
1.125502
1.107265
1.105862
1.084587
1.105394
1.101419
1.018655
1.037125
1.093703
1.039930
1.011874
1.035955
1.006262
0.961139
0.970257
1.054657
1.140461
1.118484
1.062606
1.038291
1.029172
1.117781
1.195869
1.114508
1.024028
1.007194
1.085984
1.263903
1.318378
1.226027
1.181606
1.182774
1.174124
1.153783
1.114972
1.075694
1.053717
1.049508
1.024726
0.957158
0.895435
0.867379
0.843766
0.802617
0.753052
0.698811
0.638724
0.586587
0.554557
0.547309
0.520422
0.468519
0.477637
0.492833
0.432046
0.396976
0.407029
0.380142
0.338526
0.320991
0.314912
0.293636
0.254591
0.225600
0.214612
0.203623
0.175333
0.135354
0.105661
0.083450
0.058901
0.026871
-0.003289
-0.015213
-0.028072
-0.051452
-0.070156
-0.096342
-0.126035
-0.142868
-0.160637
-0.173730
-0.181212
-0.208800
-0.232414
-0.239662
-0.251118
-0.261405
-0.277538
-0.292735
-0.297645
-0.313543
-0.326168
-0.330377
-0.348146
-0.364746
-0.370825
-0.378073
-0.384853
-0.394907
-0.410805
-0.413377
-0.409169
-0.415949
-0.417820
-0.422029
-0.432550
-0.432082
-0.441201
-0.451488
-0.448449
-0.460607
-0.468790
-0.460841
-0.471362
-0.480247
-0.478844
-0.496613
-0.507602
-0.512512
-0.535892
-0.542204
-0.545244
-0.565117
-0.571430
-0.581016
-0.593641
-0.595044
-0.608838
-0.616086
-0.615853
-0.628946
-0.632453
-0.634090
-0.640870
-0.635259
-0.637831
-0.640403
-0.626609
-0.621466
-0.621466
-0.614453
-0.608374
-0.606270
-0.606972
-0.602296
-0.598790
-0.599257
-0.594816
-0.598557
-0.601596
-0.595985
-0.595284
-0.595284
-0.591544
-0.581491
-0.570736
-0.564424
-0.547825
-0.526550
-0.504339
-0.477219
-0.452437
-0.418770
-0.392351
-0.375050
-0.334838
-0.300703
-0.281065
-0.253243
-0.233604
-0.211160
-0.187781
-0.179832
-0.161362
-0.141489
-0.132372
-0.114603
-0.096835
-0.079768
-0.057791
-0.038854
-0.021787
-0.001914
0.018426
0.034791
0.049520
0.055131
0.050689
0.046948
0.034556
0.018190
-0.006359
-0.047975
-0.087721
-0.133312
-0.181942
-0.227299
-0.290658
-0.347938
-0.395400
-0.456421
-0.520014
-0.584776
-0.641823
-0.696532
-0.763632
-0.823484
-0.879362
-0.944124
-1.008652
-1.069674
-1.127188
-1.187742
-1.250400
-1.300666
-1.349296
-1.400732
-1.446323
-1.496356
-1.534932
-1.561819
-1.601098
-1.629855
-1.644351
-1.664691
-1.680356
-1.694618
-1.696488
-1.692748
-1.701866
-1.697892
-1.689709
-1.689242
-1.681527
-1.670539
-1.650198
-1.631963
-1.619572
-1.598296
-1.577255
-1.548030
-1.530262
-1.525586
-1.497531
-1.479295
-1.473216
-1.453344
-1.443992
-1.430666
-1.413365
-1.412197
-1.407755
-1.402144
-1.400508
-1.404482
-1.412665
-1.404483
-1.405418
-1.420382
-1.412666
-1.409394
-1.415005
-1.406822
-1.404485
-1.398874
-1.391159
-1.396302
-1.394432
-1.397004
-1.400044
-1.399577
-1.414540
-1.417346
-1.422022
-1.441895
-1.446571
-1.456391
-1.469484
-1.476732
-1.497306
-1.513438
-1.523258
-1.539157
-1.559263
-1.584046
-1.608829
-1.638521
-1.673591
-1.704453
-1.734613
-1.768981
-1.810130
-1.850343
-1.879802
-1.910663
-1.951344
-1.986180
-2.013067
-2.042526
-2.074790
-2.107756
-2.137682
-2.163634
-2.189352
-2.217642
-2.240554
-2.255517
-2.275157
-2.289418
-2.295965
-2.303213
-2.304616
-2.306487
-2.298772
-2.283575
-2.281004
-2.268145
-2.252013
-2.246636
-2.228634
-2.212970
-2.205956
-2.181174
-2.156158
-2.148910
-2.126700
-2.101216
-2.095372
-2.076902
-2.052120
-2.031078
-2.004893
-1.990865
-1.971227
-1.941301
-1.921662
-1.908102
-1.893841
-1.869059
-1.855732
-1.850823
-1.826742
-1.807103
-1.791673
-1.769462
-1.755435
-1.738835
-1.713819
-1.698623
-1.695584
-1.682024
-1.661450
-1.652098
-1.644383
-1.640409
-1.635733
-1.630824
-1.637604
-1.632695
-1.624044
-1.631058
-1.625448
-1.610485
-1.606277
-1.602069
-1.591314
-1.576585
-1.557414
-1.538944
-1.523982
-1.507382
-1.493822
-1.477924
-1.455714
-1.439114
-1.422749
-1.413163
-1.404747
-1.380666
-1.373185
-1.372250
-1.355417
-1.352845
-1.354482
-1.347235
-1.347936
-1.350742
-1.347469
-1.340923
-1.343495
-1.344430
-1.332273
-1.329468
-1.330170
-1.324559
-1.326429
-1.325261
-1.319884
-1.327132
-1.333210
-1.327600
-1.335783
-1.347707
-1.348642
-1.357059
-1.358462
-1.367347
-1.398442
-1.405456
-1.410132
-1.436084
-1.447540
-1.460166
-1.491729
-1.524928
-1.547607
-1.565142
-1.589924
-1.603251
-1.615876
-1.643699
-1.664741
-1.699810
-1.742596
-1.770418
-1.801045
-1.825360
-1.848273
-1.882641
-1.922153
-1.973355
-2.009828
-2.036013
-2.077396
-2.112466
-2.151276
-2.189152
-2.207856
-2.235678
-2.256486
-2.264435
-2.285010
-2.291322
-2.291089
-2.300675
-2.289687
-2.276828
-2.272620
-2.256956
-2.236148
-2.204586
-2.178401
-2.158528
-2.120419
-2.094702
-2.072258
-2.026901
-1.986922
-1.942033
-1.898080
-1.850619
-1.777207
-1.717823
-1.660543
-1.587131
-1.523304
-1.452230
-1.383962
-1.326214
-1.256543
-1.185702
-1.121408
-1.066232
-1.007316
-0.938579
-0.886677
-0.839918
-0.787313
-0.742658
-0.693094
-0.647737
-0.611265
-0.558895
-0.502082
-0.461402
-0.416747
-0.358765
-0.308265
-0.260337
-0.203758
-0.149518
-0.090367
-0.031451
0.015309
0.069316
0.128700
0.178265
0.222218
0.263600
0.309892
0.343558
0.357820
0.376289
0.391252
0.397798
0.404578
0.403409
0.398499
0.392887
0.386107
0.384470
0.384002
0.386808
0.387976
0.384002
0.389379
0.394756
0.391482
0.396392
0.405977
0.408081
0.404340
0.402236
0.402937
0.394988
0.378388
0.360853
0.339343
0.320171
0.299129
0.269671
0.250967
0.236705
0.216130
0.197894
0.186671
0.186671
0.181060
0.174046
0.183865
0.185735
0.196022
0.222674
0.239975
0.268966
0.302632
0.328350
0.363887
0.395917
0.427245
0.458808
0.481018
0.509307
0.536194
0.549052
0.563548
0.585057
0.591369
0.589732
0.606098
0.612878
0.607968
0.611708
0.605863
0.594874
0.588561
0.574300
0.557232
0.545308
0.536190
0.521460
0.507900
0.497846
0.482182
0.472362
0.471894
0.476336
0.487324
0.493403
0.494104
0.503222
0.516548
0.528237
0.543434
0.560501
0.576165
0.599545
0.619651
0.626898
0.647472
0.674359
0.686282
0.701946
0.720182
0.733742
0.748705
0.760395
0.775357
0.787281
0.794528
0.806452
0.814167
0.830532
0.844326
0.843858
0.859756
0.875654
0.882668
0.893656
0.896695
0.909086
0.918672
0.917502
0.932699
0.936907
0.938777
0.956546
0.969170
0.993485
1.014059
1.023177
1.056376
1.090510
1.116929
1.146387
1.166259
1.198289
1.233826
1.249023
1.266791
1.284793
1.301159
1.317758
1.318459
1.321732
1.330850
1.331551
1.334590
1.337162
1.334356
1.332252
1.336460
1.340200
1.338564
1.344642
1.345577
1.353058
1.379945
1.383685
1.388595
1.417819
1.432314
1.447745
1.472059
1.490529
1.516013
1.540327
1.560434
1.586385
1.611401
1.634079
1.659095
1.678968
1.695333
1.713335
1.730168
1.740923
1.748638
1.756119
1.754482
1.750040
1.743260
1.721049
1.710761
1.702578
1.674288
1.661663
1.647401
1.620514
1.608824
1.596666
1.580067
1.559960
1.541490
1.533774
1.521382
1.508757
1.496132
1.485143
1.480701
1.471349
1.470179
1.473452
1.468075
1.461060
1.457086
1.458488
1.454981
1.455215
1.464099
1.466904
1.474151
1.478593
1.483970
1.499167
1.508519
1.522079
1.533768
1.542185
1.559018
1.560420
1.561823
1.571174
1.563693
1.554574
1.544755
1.530493
1.512490
1.481629
1.454508
1.424348
1.386706
1.360521
1.323580
1.285471
1.259987
1.215098
1.172546
1.133736
1.097497
1.112927
1.092821
0.965868
0.903678
0.973817
1.014264
0.961425
0.880765
0.835876
0.862528
0.897598
0.876789
0.831666
0.798467
0.792855
0.797063
0.800336
0.815767
0.792387
0.748666
0.776488
0.826287
0.830729
0.816467
0.807115
0.819506
0.849665
0.874915
0.891281
0.884033
0.875148
0.902034
0.916997
0.906242
0.920971
0.938506
0.934531
0.948559
0.975679
0.984563
0.978484
0.980354
0.995317
1.008877
1.025476
1.039971
1.044647
1.056804
1.058441
1.048855
1.068026
1.086963
1.076676
1.073169
1.085092
1.103328
1.120161
1.115952
1.115718
1.154295
1.201288
1.231915
1.250618
1.246877
1.251319
1.291532
1.339694
1.373828
1.374529
1.370321
1.404923
1.438823
1.443499
1.440459
1.430405
1.423391
1.434146
1.450511
1.448407
1.427131
1.416844
1.430170
1.447938
1.450042
1.443028
1.442093
1.448171
1.459393
1.461029
1.460328
1.474589
1.475758
1.479031
1.511528
1.529998
1.528127
1.527893
1.526958
1.547298
1.572314
1.576055
1.595226
1.617202
1.618371
1.639880
1.665130
1.666533
1.668637
1.670039
1.672844
1.677520
1.662557
1.640814
1.618135
1.593586
1.576986
1.553840
1.508483
1.468971
1.453774
1.429459
1.402572
1.398129
1.382932
1.365865
1.369372
1.372411
1.367033
1.362825
1.374982
1.383398
1.375683
1.366798
1.355576
1.366330
1.380124
1.365628
1.352769
1.335000
1.320037
1.313958
1.279356
1.245221
1.225348
1.191213
1.152169
1.116398
1.090914
1.060753
1.006045
0.963961
0.953674
0.938009
0.897796
0.859686
0.841917
0.818771
0.779493
0.742085
0.712860
0.686909
0.651371
0.611158
0.583569
0.553643
0.513196
0.481867
0.455214
0.421781
0.384840
