EVENT_NAME: 202302060117
EVENT_ID: 13194
EVENT_DATE_YYYYMMDD: 2023/02/06
EVENT_TIME_HHMMSS: 01:17:32.00000
EVENT_LATITUDE_DEGREE: 37.288
EVENT_LONGITUDE_DEGREE: 37.043
EVENT_DEPTH_KM: 8.6
HYPOCENTER_REFERENCE: AFAD
MAGNITUDE_W: 7.7
MAGNITUDE_W_REFERENCE: AFAD
MAGNITUDE_L: 
MAGNITUDE_L_REFERENCE: 
FOCAL_MECHANISM: 
NETWORK: TK
STATION_CODE: 1910
STATION_NAME: 
STATION_LATITUDE_DEGREE: 40.02767
STATION_LONGITUDE_DEGREE: 34.60089
STATION_ELEVATION_M: 210.0
LOCATION: Kahramanmaras_Pazarck_Turkiye
SENSOR_DEPTH_M: 
VS30_M/S: None
SITE_CLASSIFICATION_EC8: unknown
MORPHOLOGIC_CLASSIFICATION: 
EPICENTRAL_DISTANCE_KM: 371.14
EARTHQUAKE_BACKAZIMUTH_DEGREE: 
DATE_TIME_FIRST_SAMPLE_YYYYMMDD_HHMMSS: 2023/02/06 01:17:59.3901740
DATE_TIME_FIRST_SAMPLE_PRECISION: millisecond
SAMPLING_INTERVAL_S: 0.01
NDATA: 21001
DURATION_S: 
STREAM: HNN
UNITS: cm/s^2
INSTRUMENT: sensor = ACEBOX/SARA | digitizer = 
INSTRUMENT_ANALOG/DIGITAL: 
INSTRUMENTAL_FREQUENCY_HZ: 
INSTRUMENTAL_DAMPING: 
FULL_SCALE_G: 
N_BIT_DIGITAL_CONVERTER: 
PGA_CM/S^2: 5.632
TIME_PGA_S: 
BASELINE_CORRECTION: BASELINE REMOVED
FILTER_TYPE: BUTTERWORTH
FILTER_ORDER: 
LOW_CUT_FREQUENCY_HZ: 
HIGH_CUT_FREQUENCY_HZ: 
LATE/NORMAL_TRIGGERED: 
DATABASE_VERSION: 
HEADER_FORMAT: DYNA 1.2
DATA_TYPE: Acceleration
PROCESSING: Automatic Paolucci et al., 2011
DATA_TIMESTAMP_YYYYMMDD_HHMMSS: 
DATA_LICENSE: U (unknown license)
DATA_CITATION: Turkish Accelerometric Archive v 1.0 - Disaster And Emergency Management Presidency, Earthquake Department
DATA_CREATOR: AFAD
ORIGINAL_DATA_MEDIATOR_CITATION: : AFAD - Disaster And Emergency Management Presidency
ORIGINAL_DATA_MEDIATOR: AFAD PROCESS SERVICE
ORIGINAL_DATA_CREATOR_CITATION: AFAD PROCESS SERVICE
ORIGINAL_DATA_CREATOR: network: TK
USER1: GuestUser
USER2: 
USER3: 
USER4: 
USER5: 
[...]
-1.047889
-1.236095
-1.398350
-1.525068
-1.621158
-1.683815
-1.717481
-1.731275
-1.724260
-1.697841
-1.655055
-1.599177
-1.528102
-1.436220
-1.338726
-1.239361
-1.121527
-0.991769
-0.856400
-0.712848
-0.565321
-0.414054
-0.256708
-0.097024
0.058452
0.211823
0.370339
0.517164
0.644350
0.759612
0.846819
0.890072
0.901763
0.884228
0.831391
0.758447
0.675917
0.587776
0.515065
0.458720
0.413598
0.381335
0.353279
0.333641
0.319146
0.294598
0.274258
0.262101
0.248775
0.246438
0.249244
0.246439
0.252284
0.258129
0.253922
0.249012
0.241999
0.236155
0.231947
0.222362
0.217452
0.216284
0.222597
0.237794
0.251121
0.271696
0.291803
0.301623
0.311209
0.312612
0.304430
0.290169
0.274505
0.255802
0.222837
0.191508
0.159479
0.115292
0.077884
0.036737
-0.011659
-0.052573
-0.099566
-0.155209
-0.212489
-0.271171
-0.334764
-0.406773
-0.487432
-0.582821
-0.690601
-0.810305
-0.949414
-1.095770
-1.246335
-1.410460
-1.576690
-1.742685
-1.908915
-2.062986
-2.195549
-2.309408
-2.404797
-2.467921
-2.502757
-2.511874
-2.486156
-2.438227
-2.365282
-2.269892
-2.170060
-2.059473
-1.940938
-1.835728
-1.744781
-1.662484
-1.600059
-1.561248
-1.536465
-1.521969
-1.519163
-1.528047
-1.533190
-1.536229
-1.550958
-1.559140
-1.559140
-1.556334
-1.539734
-1.513080
-1.473568
-1.422366
-1.368826
-1.304297
-1.233222
-1.165654
-1.099022
-1.034259
-0.973004
-0.916892
-0.863820
-0.806539
-0.762117
-0.739905
-0.730553
-0.756972
-0.830617
-0.934890
-1.076337
-1.263141
-1.490157
-1.745697
-2.025786
-2.332761
-2.654466
-2.972196
-3.278937
-3.574924
-3.853376
-4.099096
-4.305305
-4.475275
-4.612046
-4.702993
-4.739465
-4.734554
-4.686625
-4.581182
-4.433656
-4.246384
-4.010482
-3.740679
-3.441652
-3.113400
-2.764107
-2.397512
-2.017825
-1.628785
-1.239513
-0.857487
-0.477099
-0.104425
0.250479
0.586213
0.896930
1.178189
1.428820
1.635263
1.798454
1.919796
1.992273
2.033656
2.040436
2.008407
1.963986
1.896185
1.799393
1.702368
1.595289
1.467169
1.331100
1.181002
1.019916
0.852752
0.679041
0.509305
0.335360
0.158142
-0.015802
-0.205178
-0.405541
-0.605204
-0.812114
-1.036793
-1.273629
-1.509296
-1.756653
-2.009855
-2.250665
-2.489138
-2.716389
-2.918623
-3.100516
-3.255524
-3.375227
-3.456822
-3.503347
-3.506152
-3.467575
-3.406554
-3.309060
-3.178834
-3.036685
-2.868350
-2.675467
-2.475804
-2.267957
-2.058007
-1.854369
-1.665460
-1.495489
-1.342585
-1.209788
-1.094759
-0.993057
-0.895797
-0.797367
-0.700575
-0.606588
-0.518680
-0.429836
-0.340525
-0.258228
-0.176165
-0.101349
-0.032846
0.033553
0.090366
0.148349
0.214280
0.284887
0.356897
0.433349
0.517517
0.598178
0.666213
0.717181
0.744069
0.747108
0.723729
0.669489
0.586257
0.479179
0.352461
0.205637
0.044084
-0.118873
-0.272243
-0.414859
-0.541810
-0.647954
-0.731887
-0.791972
-0.834990
-0.866786
-0.879878
-0.874734
-0.867018
-0.849249
-0.817452
-0.787292
-0.755027
-0.722061
-0.696343
-0.672963
-0.652856
-0.631112
-0.602589
-0.570324
-0.531981
-0.483117
-0.436357
-0.404092
-0.383050
-0.386556
-0.420456
-0.479139
-0.575463
-0.702414
-0.847368
-1.016871
-1.202739
-1.389075
-1.576580
-1.760110
-1.929613
-2.089296
-2.238925
-2.372423
-2.493997
-2.603881
-2.693893
-2.771513
-2.835339
-2.870175
-2.878123
-2.865965
-2.830895
-2.766834
-2.676588
-2.574418
-2.457051
-2.311863
-2.151243
-1.983610
-1.799377
-1.600182
-1.390699
-1.170461
-0.951627
-0.741209
-0.538973
-0.359417
-0.204876
-0.067169
0.039443
0.111921
0.165928
0.192348
0.186971
0.159851
0.106078
0.029627
-0.062488
-0.179153
-0.321067
-0.481685
-0.658436
-0.849448
-1.052617
-1.262566
-1.471581
-1.673113
-1.871607
-2.062619
-2.224640
-2.364917
-2.486258
-2.564579
-2.607364
-2.626768
-2.614377
-2.579073
-2.522727
-2.438092
-2.336623
-2.231882
-2.121061
-1.997148
-1.877677
-1.771533
-1.653465
-1.534929
-1.434162
-1.329420
-1.231692
-1.144018
-1.051434
-0.982229
-0.934534
-0.886138
-0.856912
-0.840546
-0.826985
-0.828388
-0.840545
-0.864158
-0.897122
-0.935231
-0.980821
-1.019163
-1.046517
-1.067324
-1.069896
-1.047918
-1.008172
-0.953229
-0.877946
-0.784660
-0.675710
-0.553668
-0.426481
-0.294152
-0.160185
-0.028089
0.103539
0.235167
0.376615
0.518531
0.649691
0.786931
0.925573
1.049019
1.157735
1.252891
1.330044
1.371661
1.379143
1.358335
1.297782
1.216188
1.122436
1.002030
0.880924
0.762623
0.628892
0.502642
0.386211
0.262299
0.135348
0.006058
-0.120893
-0.239428
-0.347442
-0.442597
-0.519516
-0.571184
-0.610462
-0.632438
-0.640621
-0.658622
-0.667506
-0.674753
-0.698834
-0.726188
-0.756581
-0.791650
-0.840747
-0.895923
-0.943851
-0.998559
-1.043915
-1.076880
-1.115456
-1.146316
-1.172267
-1.198920
-1.218792
-1.244042
-1.273500
-1.305062
-1.343404
-1.390397
-1.449781
-1.511035
-1.576030
-1.654819
-1.734076
-1.820347
-1.918541
-2.029127
-2.160287
-2.299162
-2.458845
-2.637699
-2.813046
-2.997512
-3.179640
-3.350077
-3.504149
-3.632971
-3.752675
-3.851103
-3.931295
-4.001901
-4.053102
-4.105238
-4.142879
-4.159245
-4.174441
-4.175376
-4.167426
-4.144513
-4.119964
-4.109209
-4.072736
-4.058006
-4.052628
-4.022702
-4.107570
-4.191736
-4.131884
-4.162043
-4.291800
-4.349080
-4.394904
-4.494501
-4.596436
-4.595734
-4.544298
-4.559962
-4.558091
-4.504083
-4.442594
-4.356322
-4.264907
-4.172089
-4.064776
-3.964710
-3.875867
-3.788660
-3.702856
-3.621727
-3.543171
-3.465550
-3.387461
-3.308437
-3.231050
-3.155065
-3.085627
-3.006603
-2.912382
-2.818395
-2.709211
-2.572673
-2.410885
-2.221041
-2.012026
-1.778462
-1.504685
-1.210333
-0.904526
-0.578378
-0.245684
0.091919
0.428120
0.755437
1.080182
1.386457
1.680341
1.970484
2.237714
2.479695
2.702504
2.904973
3.063021
3.176880
3.264321
3.307340
3.309679
3.280922
3.219902
3.134099
3.028189
2.908485
2.772650
2.628631
2.490925
2.346205
2.193302
2.042036
1.888665
1.727579
1.560882
1.392549
1.227956
1.061493
0.884743
0.707759
0.528670
0.346777
0.156934
-0.047872
-0.238650
-0.418206
-0.601035
-0.769602
-0.918531
-1.044781
-1.158406
-1.261743
-1.343338
-1.413711
-1.473095
-1.529673
-1.589291
-1.633010
-1.666911
-1.697537
-1.720215
-1.742192
-1.747101
-1.734943
-1.724655
-1.694495
-1.643293
-1.592792
-1.520548
-1.418612
-1.302181
-1.167747
-1.010868
-0.836923
-0.651755
-0.467288
-0.290303
-0.107006
0.076292
0.237846
0.376021
0.494557
0.606079
0.695156
0.755242
0.821174
0.883130
0.929657
0.973845
1.014760
1.058247
1.092615
1.112021
1.125114
1.130024
1.127687
1.109685
1.084669
1.068070
1.040716
1.009622
1.002375
1.001206
1.006350
1.034406
1.068074
1.116704
1.187779
1.260490
1.346762
1.450335
1.554141
1.660987
1.771808
1.869769
1.947858
2.010282
2.050730
2.068966
2.057511
2.010986
1.951602
1.875618
1.773917
1.662396
1.553915
1.444732
1.338822
1.247875
1.158332
1.078373
1.013846
0.946513
0.896013
0.858840
0.822134
0.798755
0.779116
0.762050
0.748256
0.738437
0.734697
0.716929
0.689108
0.658714
0.618969
0.568002
0.494356
0.411593
0.331868
0.228764
0.103917
-0.018125
-0.136893
-0.261039
-0.390328
-0.508395
-0.601446
-0.684678
-0.763701
-0.808589
-0.822383
-0.835475
-0.824720
-0.781467
-0.726524
-0.651942
-0.574788
-0.495297
-0.393828
-0.308959
-0.242093
-0.157691
-0.075394
0.000123
0.082420
0.169393
0.274368
0.395476
0.526169
0.678839
0.842030
1.004286
1.168412
1.331369
1.495262
1.645594
1.785171
1.925684
2.043986
2.139610
2.220738
2.280824
2.327350
2.350029
2.342081
2.323143
2.291114
2.235003
2.163929
2.090050
2.015469
1.939018
1.870282
1.815340
1.765074
1.733278
1.720186
1.717147
1.747074
1.789158
1.834749
1.906759
1.979236
2.053584
2.141259
2.222153
2.312166
2.413400
2.507855
2.602310
2.692790
2.776256
2.863229
2.945760
3.018939
3.100067
3.200133
3.301601
3.404706
3.535166
3.673107
3.814554
3.986162
4.163381
4.339898
4.526235
4.699012
4.850046
4.974192
5.063971
5.112134
5.109095
5.064908
4.983079
4.858232
4.704862
4.527878
4.322604
4.107043
3.878390
3.626591
3.377597
3.127903
2.867453
2.611445
2.361750
2.121174
1.890182
1.676025
1.486415
1.314341
1.167985
1.053191
0.967154
0.905432
0.868259
0.863583
0.881118
0.911513
0.962948
1.028412
1.090837
1.161444
1.238130
1.299151
1.359238
1.417220
1.456031
1.490400
1.515884
1.534355
1.550487
1.553527
1.551189
1.543241
1.528278
1.510744
1.490872
1.474506
1.455569
1.436399
1.427281
1.417228
1.413722
1.423776
1.429153
1.437804
1.457911
1.476850
1.494852
1.518700
1.546756
1.575280
1.608012
1.642381
1.678153
1.725146
1.769802
1.811652
1.864725
1.910082
1.950763
1.995419
2.031190
2.064858
2.099928
2.128218
2.157209
2.186902
2.216828
2.251431
2.285098
2.325546
2.380489
2.439172
2.500428
2.571035
2.649124
2.730018
2.816290
2.909342
3.002861
3.091237
3.174703
3.254195
3.318489
3.364548
3.401722
3.423466
3.422297
3.403360
3.372500
3.327377
3.261213
3.187334
3.109713
3.020871
2.930392
2.835938
2.742888
2.660591
2.577126
2.498103
2.433810
2.370451
2.310366
2.265243
2.232980
2.211471
2.206795
2.228773
2.271558
2.334684
2.425866
2.543232
2.682342
2.834545
3.003581
3.188749
3.369474
3.544589
3.715028
3.873777
4.017562
4.143580
4.259076
4.363584
4.458974
4.545947
4.617255
4.674770
4.722231
4.755899
4.764550
4.748184
4.711946
4.643912
4.541275
4.408011
4.235236
4.028326
3.803413
3.553484
3.278539
2.996113
2.701529
2.393151
2.085474
1.773823
1.461938
1.159171
0.852195
0.548961
0.262092
-0.024543
-0.298553
-0.551521
-0.797007
-1.013036
-1.209191
-1.390150
-1.529960
-1.645455
-1.732661
-1.780355
-1.805371
-1.797655
-1.765157
-1.716059
-1.639373
-1.553569
-1.455607
-1.332396
-1.202871
-1.060722
-0.895193
-0.717507
-0.519246
-0.307192
-0.086486
0.153390
0.389760
0.623557
0.861330
1.084373
1.298765
1.502637
1.683597
1.843047
1.984027
2.104901
2.203330
2.278146
2.330751
2.356469
2.349455
2.316958
2.254768
2.156340
2.041079
1.899398
1.732467
1.559224
1.371953
1.183513
0.996943
0.813179
0.647651
0.492644
0.353769
0.237806
0.140313
0.063862
0.007985
-0.026383
-0.040410
-0.036201
-0.016796
0.020145
0.072984
0.129095
0.193858
0.264933
0.337644
0.413395
0.485405
0.563026
0.643920
0.721542
0.809918
0.890344
0.958146
1.032494
1.083696
1.112454
1.139341
1.125314
1.078788
1.025249
0.941784
0.837277
0.725523
0.605118
0.481673
0.357527
0.245539
0.143838
0.051021
-0.023560
-0.088555
-0.145134
-0.186048
-0.224624
-0.262265
-0.293593
-0.329363
-0.374720
-0.432701
-0.502138
-0.576719
-0.671406
-0.780823
-0.894448
-1.026543
-1.165885
-1.307566
-1.460469
-1.611735
-1.758092
-1.902344
-2.039349
-2.158585
-2.252337
-2.317566
-2.352168
-2.357545
-2.322708
-2.248828
-2.145021
-2.003340
-1.832200
-1.645395
-1.434743
-1.208894
-0.978136
-0.738493
-0.500253
-0.272768
-0.053232
0.149938
0.321780
0.463461
0.579659
0.673179
0.743084
0.784701
0.811588
0.828656
0.827020
0.815798
0.803641
0.788211
0.765065
0.739114
0.717606
0.693057
0.659157
0.628063
0.603281
0.574057
0.546235
0.525662
0.504153
0.489658
0.478670
0.461603
0.441030
0.410403
0.374866
0.333017
0.277607
0.221029
0.164450
0.107872
0.057372
0.020900
-0.000608
-0.015337
-0.011596
0.010148
0.041945
0.084496
0.128684
0.183160
0.243480
0.294682
0.349859
0.405035
0.454835
0.499724
0.535496
0.572904
0.602129
0.620366
0.633693
0.627848
0.609145
0.569868
0.505106
0.431227
0.334201
0.217069
0.091988
-0.054134
-0.212181
-0.378176
-0.552589
-0.724663
-0.900244
-1.065071
-1.209791
-1.342119
-1.436573
-1.497360
-1.537339
-1.529857
-1.494085
-1.443818
-1.359651
-1.271976
-1.189913
-1.094289
-1.014330
-0.954711
-0.895326
-0.849034
-0.815133
-0.776322
-0.737979
-0.702207
-0.662695
-0.622949
-0.588346
-0.565668
-0.554445
-0.554444
-0.581097
-0.622946
-0.667367
-0.724647
-0.785200
-0.837804
-0.880354
-0.908409
-0.924775
-0.921735
-0.904667
-0.880352
-0.838268
-0.789871
-0.741007
-0.686298
-0.636031
-0.597220
-0.569398
-0.549057
-0.538068
-0.543211
-0.558173
-0.575708
-0.600490
-0.633688
-0.664315
-0.698917
-0.738428
-0.762275
-0.779809
-0.795239
-0.789160
-0.772560
-0.746140
-0.697042
-0.646074
-0.587858
-0.513510
-0.444072
-0.368555
-0.292804
-0.231315
-0.168657
-0.115584
-0.075137
-0.040067
-0.016920
0.003888
0.023294
0.046908
0.075666
0.101618
0.139727
0.184617
0.224129
0.271123
0.316480
0.359499
0.410000
0.455825
0.502585
0.562905
0.630005
0.702950
0.786650
0.878299
0.969714
1.057155
1.137582
1.203513
1.252611
1.281369
1.285344
1.264303
1.218479
1.153717
1.066044
0.957796
0.837625
0.694074
0.533222
0.371201
0.197724
0.024481
-0.138008
-0.299795
-0.447321
-0.577779
-0.700522
-0.800353
-0.876103
-0.934785
-0.970790
-0.985986
-0.983414
-0.961202
-0.929406
-0.893868
-0.845004
-0.788424
-0.728805
-0.668485
-0.607464
-0.532414
-0.461573
-0.401253
-0.331113
-0.270092
-0.226371
-0.190833
-0.175636
-0.178675
-0.197378
-0.241565
-0.302820
-0.378336
-0.480972
-0.600676
-0.736745
-0.896428
-1.063593
-1.243616
-1.435096
-1.615353
-1.791636
-1.963944
-2.126900
-2.283310
-2.431303
-2.577426
-2.728692
-2.885803
-3.047357
-3.216625
-3.396181
-3.579010
-3.767918
-3.964541
-4.155319
-4.343525
-4.536407
-4.717834
-4.889206
-5.054501
-5.200156
-5.330380
-5.442135
-5.524899
-5.587088
-5.624963
-5.632444
-5.618883
-5.584047
-5.524896
-5.450548
-5.358197
-5.241532
-5.105695
-4.959104
-4.803628
-4.623604
-4.431188
-4.245319
-4.046123
-3.844589
-3.657551
-3.466070
-3.275993
-3.104385
-2.938622
-2.780809
-2.648713
-2.539529
-2.448347
-2.379610
-2.329577
-2.296845
-2.271361
-2.244941
-2.215950
-2.178308
-2.121729
-2.040600
-1.944977
-1.826207
-1.680785
-1.529751
-1.368197
-1.202902
-1.047894
-0.895925
-0.757984
-0.634539
-0.516237
-0.406351
-0.301844
-0.202245
-0.103115
-0.004686
0.093743
0.201992
0.312813
0.431816
0.565548
0.706295
0.866446
1.044834
1.236549
1.453513
1.683336
1.922511
2.174545
2.422371
2.662715
2.888797
3.088695
3.267550
3.418350
3.537119
3.636951
3.713403
3.765073
3.806222
3.832408
3.838487
3.828434
3.808328
3.775831
3.723461
3.655894
3.580144
3.493406
3.394276
3.289536
3.178482
3.064390
2.961987
2.860753
2.760455
2.677691
2.599136
2.526425
2.465872
2.402046
2.350611
2.304787
2.243299
2.183682
2.121258
2.044339
1.964849
1.881617
1.794178
1.704868
1.614155
1.522039
1.429222
1.341783
1.255278
1.170176
1.094660
1.024522
0.956955
0.897337
0.839356
0.776699
0.718717
0.658632
0.586389
0.518589
0.449619
0.367323
0.287832
0.212082
0.134462
0.065025
-0.001139
-0.065901
-0.127155
-0.189578
-0.257379
-0.331258
-0.415191
-0.515490
-0.630517
-0.757001
-0.903825
-1.067717
-1.241428
-1.429400
-1.623218
-1.819139
-2.020438
-2.219165
-2.411346
-2.597682
-2.774198
-2.936453
-3.090525
-3.235947
-3.362898
-3.476991
-3.581497
-3.670106
-3.745388
-3.807578
-3.862520
-3.904836
-3.929385
-3.952530
-3.956504
-3.949022
-3.952996
-3.912549
-3.843344
-3.790038
-3.720132
-3.636900
-3.551096
-3.473241
-3.389307
-3.286903
-3.222141
-3.174446
-3.121373
-3.101734
-3.064793
-3.015228
-3.001433
-2.979456
-2.942281
-2.904873
-2.845722
-2.770205
-2.682063
-2.579893
-2.469540
-2.349134
-2.228728
-2.103880
-1.971316
-1.838987
-1.703618
-1.574327
-1.451583
-1.325332
-1.202354
-1.084987
-0.980947
-0.881349
-0.786661
-0.719560
-0.662747
-0.610142
-0.583255
-0.568759
-0.559640
-0.561978
-0.567121
-0.579512
-0.592604
-0.601721
-0.613878
-0.608033
-0.588393
-0.567585
-0.524566
-0.468688
-0.402990
-0.312276
-0.215484
-0.108170
0.017146
0.136616
0.251411
0.369713
0.473520
0.559090
0.643491
0.721346
0.785407
0.844792
0.901606
0.952574
1.000269
1.046561
1.091685
1.137042
1.183334
1.232432
1.285037
1.341383
1.402171
1.462023
1.522577
1.584768
1.640646
1.690211
1.728555
1.753805
1.767600
1.765964
1.750066
1.718036
1.675720
1.630597
1.573317
1.507153
1.437950
1.364070
1.289256
1.209999
1.129339
1.054525
0.980879
0.909805
0.846681
0.792440
0.744746
0.699156
0.656372
0.610782
0.558879
0.502067
0.441514
0.374648
0.301237
0.234371
0.175455
0.123085
0.088717
0.064402
0.052012
0.056221
0.066508
0.086148
0.110931
0.142260
0.182006
0.220116
0.270382
0.320182
0.357122
0.407623
0.448772
0.475659
0.517042
0.552579
0.578531
0.601678
0.613602
0.621785
0.619915
0.609863
0.597706
0.577132
0.553519
0.523827
0.491564
0.463976
0.431011
0.395475
0.364848
0.334688
0.303126
0.272032
0.252159
0.230417
0.199790
0.185996
0.179684
0.171736
0.182023
0.202364
0.231355
0.274375
0.324174
0.391274
0.463986
0.532255
0.622034
0.718826
0.806267
0.905164
1.008503
1.106464
1.205829
1.302621
1.403622
1.506026
1.601649
1.698442
1.791728
1.879636
1.962401
2.032540
2.098705
2.161130
2.209526
2.248571
2.285745
2.313334
2.324089
2.323154
2.307490
2.269382
2.213505
2.135183
2.035119
1.919857
1.779579
1.619896
1.452498
1.270370
1.075384
0.872916
0.666240
0.457693
0.248679
0.044808
-0.149945
-0.329500
-0.490586
-0.635540
-0.759452
-0.863491
-0.950230
-1.015692
-1.075544
-1.135863
-1.188701
-1.246916
-1.314015
-1.384855
-1.460605
-1.548278
-1.643667
-1.732743
-1.831405
-1.938250
-2.037146
-2.144692
-2.248030
-2.334535
-2.415194
-2.476448
-2.515726
-2.536300
-2.529519
-2.493747
-2.426647
-2.334998
-2.216462
-2.069637
-1.908317
-1.731799
-1.542657
-1.350942
-1.158761
-0.972891
-0.795906
-0.628507
-0.476304
-0.336025
-0.210476
-0.101526
-0.004967
0.076161
0.146768
0.209660
0.260395
0.305051
0.350642
0.399740
0.450474
0.502845
0.572284
0.656451
0.742723
0.843022
0.960155
1.080094
1.209852
1.346156
1.478720
1.610114
1.740807
1.875007
2.007103
2.136861
2.269659
2.397546
2.526369
2.654257
2.771156
2.883847
2.987186
3.081640
3.164171
3.227297
3.282240
3.326428
3.356121
3.379501
3.399842
3.419949
3.437250
3.457124
3.484946
3.521185
3.570283
3.626395
3.700275
3.798237
3.907421
4.034841
4.174184
4.317269
4.471809
4.627051
4.775279
4.916727
5.050226
5.167359
5.267892
5.362814
5.438098
5.493040
5.529046
5.537463
5.534892
5.507772
5.448621
5.380587
5.286835
5.165494
5.034335
4.884939
4.727828
4.563001
4.381107
4.208565
4.040933
3.863949
3.700058
3.544116
3.390277
3.239712
3.087511
2.941154
2.792927
2.641895
2.494369
2.345441
2.196746
2.048286
1.895149
1.737570
1.583732
1.428959
1.266704
1.107489
0.952248
0.804722
0.661171
0.528842
0.422933
0.328713
0.254600
0.208074
0.176746
0.165992
0.169032
0.180255
0.203869
0.233328
0.257643
0.282426
0.310015
0.325680
0.337838
0.347891
0.343683
0.327552
0.292483
0.237541
0.163428
0.068273
-0.046054
-0.177681
-0.326609
-0.490267
-0.660471
-0.841663
-1.026596
-1.205684
-1.392020
-1.573680
-1.747157
-1.922505
-2.087799
-2.243507
-2.389864
-2.523829
-2.647508
-2.758795
-2.859093
-2.942558
-3.001708
-3.041453
-3.065300
-3.058052
-3.020410
-2.963597
-2.878728
-2.771415
-2.653346
-2.524757
-2.388921
-2.250980
-2.124261
-2.003855
-1.889060
-1.791099
-1.702957
-1.630479
-1.574133
-1.520593
-1.480379
-1.452557
-1.425202
-1.401121
