EVENT_NAME: 202302060117
EVENT_ID: 13194
EVENT_DATE_YYYYMMDD: 2023/02/06
EVENT_TIME_HHMMSS: 01:17:32.00000
EVENT_LATITUDE_DEGREE: 37.288
EVENT_LONGITUDE_DEGREE: 37.043
EVENT_DEPTH_KM: 8.6
HYPOCENTER_REFERENCE: AFAD
MAGNITUDE_W: 7.7
MAGNITUDE_W_REFERENCE: AFAD
MAGNITUDE_L: 
MAGNITUDE_L_REFERENCE: 
FOCAL_MECHANISM: 
NETWORK: TK
STATION_CODE: 5819
STATION_NAME: 
STATION_LATITUDE_DEGREE: 39.6406
STATION_LONGITUDE_DEGREE: 36.53457
STATION_ELEVATION_M: 1252.0
LOCATION: Kahramanmaras_Pazarck_Turkiye
SENSOR_DEPTH_M: 
VS30_M/S: None
SITE_CLASSIFICATION_EC8: unknown
MORPHOLOGIC_CLASSIFICATION: 
EPICENTRAL_DISTANCE_KM: 265.31
EARTHQUAKE_BACKAZIMUTH_DEGREE: 
DATE_TIME_FIRST_SAMPLE_YYYYMMDD_HHMMSS: 2023/02/06 01:17:55.2337770
DATE_TIME_FIRST_SAMPLE_PRECISION: millisecond
SAMPLING_INTERVAL_S: 0.01
NDATA: 17910
DURATION_S: 
STREAM: HNZ
UNITS: cm/s^2
INSTRUMENT: sensor = ACEBOX/SARA | digitizer = 
INSTRUMENT_ANALOG/DIGITAL: 
INSTRUMENTAL_FREQUENCY_HZ: 
INSTRUMENTAL_DAMPING: 
FULL_SCALE_G: 
N_BIT_DIGITAL_CONVERTER: 
PGA_CM/S^2: 5.540
TIME_PGA_S: 
BASELINE_CORRECTION: BASELINE REMOVED
FILTER_TYPE: BUTTERWORTH
FILTER_ORDER: 
LOW_CUT_FREQUENCY_HZ: 
HIGH_CUT_FREQUENCY_HZ: 
LATE/NORMAL_TRIGGERED: 
DATABASE_VERSION: 
HEADER_FORMAT: DYNA 1.2
DATA_TYPE: Acceleration
PROCESSING: Automatic Paolucci et al., 2011
DATA_TIMESTAMP_YYYYMMDD_HHMMSS: 
DATA_LICENSE: U (unknown license)
DATA_CITATION: Turkish Accelerometric Archive v 1.0 - Disaster And Emergency Management Presidency, Earthquake Department
DATA_CREATOR: AFAD
ORIGINAL_DATA_MEDIATOR_CITATION: : AFAD - Disaster And Emergency Management Presidency
ORIGINAL_DATA_MEDIATOR: AFAD PROCESS SERVICE
ORIGINAL_DATA_CREATOR_CITATION: AFAD PROCESS SERVICE
ORIGINAL_DATA_CREATOR: network: TK
USER1: GuestUser
USER2: 
USER3: 
USER4: 
USER5: 
[...]
1.079958
1.193163
1.239736
1.223885
1.196812
1.197327
1.233846
1.273405
1.262932
1.189333
1.081600
1.005663
1.011789
1.071688
1.134393
1.146131
1.071363
0.943991
0.837426
0.829758
0.934547
1.062014
1.126589
1.104660
1.035269
0.998610
1.022739
1.065103
1.070528
1.026154
0.988794
1.036769
1.195565
1.401822
1.580022
1.718945
1.835891
1.961488
2.123790
2.291237
2.403039
2.429739
2.385131
2.305220
2.233959
2.204314
2.209739
2.240414
2.312237
2.428715
2.553143
2.630109
2.625948
2.549076
2.448591
2.368446
2.304199
2.239250
2.173133
2.107717
2.041600
1.958649
1.837589
1.681460
1.515278
1.372241
1.298175
1.314354
1.361395
1.349284
1.228926
1.013880
0.795561
0.668422
0.639245
0.636721
0.582995
0.472456
0.362385
0.286448
0.232722
0.175021
0.087862
-0.032964
-0.163375
-0.268069
-0.308235
-0.276859
-0.224908
-0.213873
-0.264092
-0.355693
-0.456178
-0.539831
-0.597064
-0.630917
-0.647235
-0.658410
-0.663506
-0.625350
-0.519159
-0.366910
-0.211621
-0.069191
0.089605
0.266403
0.415145
0.520635
0.588951
0.634121
0.681396
0.725163
0.733393
0.666107
0.509978
0.322754
0.168261
0.081102
0.073901
0.133100
0.243032
0.363017
0.441854
0.504559
0.601398
0.726761
0.862411
1.002035
1.121319
1.188934
1.203710
1.186223
1.148395
1.095370
1.055438
1.069046
1.139934
1.229058
1.298075
1.346285
1.418576
1.552121
1.723308
1.858023
1.878177
1.772314
1.612444
1.482500
1.432982
1.447759
1.465107
1.441307
1.370280
1.280315
1.202742
1.116518
1.000368
0.881646
0.800566
0.789391
0.842978
0.910593
0.960205
0.970540
0.922892
0.857243
0.818713
0.795849
0.780699
0.761809
0.730060
0.739459
0.826946
0.966805
1.131679
1.288370
1.410226
1.504728
1.588708
1.688587
1.817924
1.958951
2.088055
2.182790
2.240117
2.274767
2.296323
2.319283
2.360712
2.412896
2.435388
2.388209
2.275566
2.138140
1.998611
1.856509
1.732644
1.652499
1.611398
1.581987
1.549536
1.520125
1.467334
1.377603
1.316396
1.322522
1.326544
1.244996
1.063383
0.842258
0.681686
0.624687
0.607901
0.536173
0.365548
0.130395
-0.083014
-0.207113
-0.243305
-0.251908
-0.271266
-0.271686
-0.230724
-0.166149
-0.098300
-0.041206
0.005601
0.049134
0.090564
0.124979
0.123390
0.054935
-0.060046
-0.181807
-0.287670
-0.364075
-0.406812
-0.432249
-0.478961
-0.565652
-0.657020
-0.711681
-0.711867
-0.679322
-0.659402
-0.658653
-0.659541
-0.663936
-0.687035
-0.744034
-0.857144
-1.050681
-1.286769
-1.487554
-1.628954
-1.731543
-1.850499
-2.008265
-2.150132
-2.235421
-2.254077
-2.210778
-2.155320
-2.126048
-2.116649
-2.099301
-2.044077
-1.946536
-1.823512
-1.688563
-1.549874
-1.407211
-1.248415
-1.084710
-0.942280
-0.822996
-0.702543
-0.554268
-0.396641
-0.279695
-0.209275
-0.149610
-0.076617
0.021391
0.143013
0.263466
0.375970
0.495020
0.614070
0.741770
0.908983
1.115941
1.317755
1.464160
1.583210
1.729380
1.885604
2.014474
2.068528
2.036312
2.012512
2.041316
2.086954
2.145684
2.181736
2.157703
2.121745
2.110336
2.111085
2.088220
1.986566
1.812668
1.649525
1.584343
1.625772
1.682398
1.680342
1.620303
1.529169
1.439672
1.360229
1.281253
1.198769
1.109974
1.022581
0.955762
0.937807
0.964741
0.993312
1.012530
1.023800
1.014496
1.003321
1.004771
0.991492
0.926543
0.784909
0.581553
0.363234
0.170632
0.040454
-0.024260
-0.052970
-0.046844
-0.003778
0.051446
0.105266
0.159789
0.209401
0.234698
0.223991
0.185462
0.141088
0.122665
0.138611
0.173727
0.216793
0.239753
0.223434
0.183035
0.107566
-0.016066
-0.161674
-0.307984
-0.439798
-0.535842
-0.576943
-0.566374
-0.570535
-0.621222
-0.654140
-0.618322
-0.507455
-0.371571
-0.306528
-0.318171
-0.342204
-0.330467
-0.246019
-0.116448
-0.008620
0.060397
0.107204
0.177858
0.307663
0.467394
0.636243
0.769788
0.805373
0.796068
0.803831
0.806450
0.814447
0.840913
0.859430
0.868128
0.877995
0.909371
0.988442
1.093464
1.168794
1.196663
1.210271
1.249830
1.310431
1.343444
1.302109
1.193674
1.073784
0.985689
0.933834
0.895538
0.853970
0.836482
0.864585
0.915834
0.945340
0.918501
0.843499
0.734363
0.611900
0.505804
0.400175
0.288467
0.192190
0.097316
-0.016964
-0.148778
-0.261889
-0.307900
-0.296864
-0.280918
-0.292561
-0.321972
-0.333381
-0.303407
-0.242806
-0.184310
-0.142179
-0.132546
-0.196325
-0.337024
-0.498530
-0.604627
-0.617672
-0.583023
-0.557726
-0.542014
-0.532849
-0.529996
-0.513115
-0.481271
-0.443115
-0.400049
-0.359087
-0.330049
-0.334210
-0.381156
-0.466912
-0.598025
-0.766779
-0.969902
-1.203418
-1.419399
-1.569450
-1.653803
-1.717349
-1.784869
-1.836958
-1.860524
-1.840838
-1.764105
-1.632898
-1.467556
-1.301746
-1.140846
-0.975738
-0.810630
-0.643184
-0.477140
-0.330502
-0.241378
-0.254190
-0.365664
-0.498881
-0.572479
-0.603060
-0.647668
-0.703264
-0.724726
-0.651033
-0.463246
-0.215374
0.011223
0.133313
0.149025
0.160762
0.256198
0.447024
0.657957
0.780280
0.799733
0.789960
0.832091
0.951375
1.086791
1.168901
1.179937
1.168528
1.215803
1.338827
1.493181
1.617608
1.684054
1.745590
1.845703
1.991640
2.198597
2.459095
2.745310
3.017264
3.258824
3.502955
3.751763
3.966202
4.112840
4.203601
4.285477
4.335791
4.294690
4.180645
4.030126
3.845941
3.636740
3.424500
3.226755
3.034620
2.845993
2.689397
2.578390
2.487257
2.384433
2.281142
2.220402
2.201044
2.162047
2.041923
1.846516
1.659759
1.544778
1.475388
1.394775
1.298732
1.227938
1.197124
1.197406
1.221768
1.264600
1.321460
1.398894
1.506488
1.627643
1.745056
1.853352
1.928916
1.996063
2.099215
2.205406
2.284009
2.335726
2.340215
2.281112
2.155376
1.998779
1.875616
1.811602
1.802532
1.855651
1.945710
2.018702
2.053585
2.056438
2.057888
2.093239
2.161088
2.254654
2.366924
2.478960
2.563174
2.564157
2.471854
2.345184
2.215006
2.062150
1.886849
1.750826
1.704114
1.717488
1.732732
1.715946
1.672741
1.627432
1.600125
1.598302
1.595777
1.532933
1.368855
1.127390
0.855998
0.580165
0.305968
0.027563
-0.256454
-0.529949
-0.765803
-0.948819
-1.106117
-1.282821
-1.483138
-1.657737
-1.761963
-1.802129
-1.837385
-1.936702
-2.101014
-2.259013
-2.345237
-2.357815
-2.347948
-2.345329
-2.344814
-2.348508
-2.360851
-2.366649
-2.346729
-2.302962
-2.252882
-2.197892
-2.127472
-2.039750
-1.937300
-1.813574
-1.667637
-1.500191
-1.309365
-1.137243
-1.029882
-0.973490
-0.896991
-0.728610
-0.484478
-0.246191
-0.075706
0.023238
0.083371
0.114981
0.131160
0.162537
0.185029
0.165203
0.133688
0.144256
0.224963
0.364354
0.514967
0.618820
0.653002
0.652348
0.676944
0.740818
0.791131
0.792114
0.754520
0.687935
0.598906
0.495381
0.382270
0.261678
0.155581
0.102791
0.110553
0.172089
0.261915
0.351740
0.462607
0.594984
0.717775
0.815549
0.867032
0.900279
0.964153
1.065200
1.210436
1.351931
1.412298
1.394109
1.342019
1.315180
1.361285
1.472620
1.602659
1.693186
1.730641
1.739806
1.757622
1.813547
1.873212
1.909498
1.945317
1.984642
2.031682
2.094154
2.165509
2.226344
2.241822
2.205163
2.149099
2.102854
2.077184
2.071153
2.082656
2.109356
2.147980
2.185669
2.192496
2.137367
2.030335
1.930084
1.871682
1.852792
1.853540
1.836754
1.765727
1.609130
1.406943
1.245203
1.153368
1.119281
1.111145
1.104646
1.095341
1.068502
1.052885
1.069532
1.084776
1.098617
1.123915
1.169553
1.236700
1.310861
1.404895
1.514359
1.598807
1.647952
1.676523
1.686623
1.652770
1.547609
1.372542
1.172692
1.007445
0.894334
0.800629
0.673491
0.508243
0.349776
0.235497
0.200942
0.236760
0.264629
0.245272
0.194117
0.148574
0.139503
0.151007
0.175603
0.223812
0.289323
0.384292
0.515266
0.660501
0.805503
0.931801
1.028173
1.112387
1.198238
1.282686
1.368069
1.452985
1.525977
1.586344
1.645542
1.699830
1.733311
1.746685
1.740653
1.705865
1.645125
1.568720
1.493251
1.430875
1.365926
1.264973
1.108143
0.938687
0.810146
0.706621
0.600524
0.481569
0.355132
0.241787
0.149485
0.072847
-0.008234
-0.092353
-0.144677
-0.164034
-0.163987
-0.170019
-0.243617
-0.399980
-0.608246
-0.822591
-0.981760
-1.060736
-1.092953
-1.136625
-1.231734
-1.369159
-1.510793
-1.618994
-1.681136
-1.727848
-1.777834
-1.819636
-1.839695
-1.824217
-1.791439
-1.787884
-1.817997
-1.831977
-1.777923
-1.641572
-1.456123
-1.297561
-1.240467
-1.279698
-1.350024
-1.382942
-1.321172
-1.182483
-1.042625
-0.953033
-0.915344
-0.873915
-0.784323
-0.659662
-0.550899
-0.511106
-0.533503
-0.569461
-0.582974
-0.560949
-0.537756
-0.558984
-0.628141
-0.712962
-0.762947
-0.763368
-0.747890
-0.732879
-0.725117
-0.723666
-0.698603
-0.645484
-0.584415
-0.532231
-0.523299
-0.549905
-0.548221
-0.475463
-0.337241
-0.182654
-0.076463
-0.048593
-0.076602
-0.112325
-0.124903
-0.122985
-0.151695
-0.233009
-0.329286
-0.406626
-0.465028
-0.497011
-0.503510
-0.505801
-0.499207
-0.456141
-0.371693
-0.281166
-0.235528
-0.240858
-0.272140
-0.301551
-0.287709
-0.240201
-0.215138
-0.240340
-0.310432
-0.382161
-0.404558
-0.371779
-0.323803
-0.331939
-0.443413
-0.624324
-0.780220
-0.840025
-0.823611
-0.784286
-0.761327
-0.772034
-0.778299
-0.730090
-0.637459
-0.530800
-0.417828
-0.330107
-0.300835
-0.299151
-0.267307
-0.180288
-0.052353
0.057579
0.111166
0.134359
0.155214
0.193137
0.277819
0.409026
0.561510
0.702069
0.803351
0.870264
0.912629
0.938394
0.987538
1.068480
1.142407
1.200670
1.271090
1.369566
1.489317
1.615849
1.718066
1.752248
1.702730
1.600140
1.489601
1.394493
1.324635
1.287743
1.274463
1.261418
1.229903
1.171033
1.072886
0.938967
0.797567
0.656167
0.519911
0.395578
0.256983
0.089398
-0.092683
-0.273828
-0.435335
-0.578138
-0.721642
-0.879875
-1.059384
-1.256428
-1.455576
-1.634383
-1.786304
-1.906896
-1.964363
-1.949353
-1.897636
-1.839841
-1.786488
-1.731966
-1.658272
-1.572655
-1.499897
-1.466650
-1.492321
-1.549788
-1.589720
-1.580320
-1.511303
-1.402540
-1.262916
-1.091027
-0.908384
-0.734859
-0.600145
-0.521074
-0.474033
-0.434942
-0.367561
-0.253421
-0.139046
-0.071198
-0.051979
-0.040476
0.003759
0.076751
0.168447
0.271833
0.381064
0.508297
0.657273
0.824719
0.987022
1.108176
1.185844
1.238496
1.295590
1.390792
1.524338
1.684303
1.829538
1.905102
1.930633
1.962243
2.034534
2.158494
2.293208
2.390281
2.460468
2.544682
2.680800
2.884484
3.116225
3.310090
3.432647
3.493248
3.530235
3.568158
3.603275
3.645873
3.694316
3.718679
3.721064
3.730463
3.766048
3.828285
3.901043
3.994376
4.140546
4.317578
4.458138
4.538611
4.578638
4.594350
4.614036
4.663415
4.712793
4.731077
4.736969
4.740757
4.741973
4.736877
4.692737
4.592251
4.433083
4.200735
3.937761
3.708921
3.507902
3.296363
3.046014
2.754516
2.453900
2.176897
1.921404
1.669886
1.427251
1.217583
1.037606
0.873294
0.741480
0.657828
0.598023
0.526996
0.450825
0.406919
0.407200
0.431328
0.457795
0.471870
0.470514
0.444610
0.407717
0.394205
0.391680
0.392896
0.415155
0.449336
0.483518
0.497359
0.481976
0.460982
0.443728
0.456868
0.523080
0.620153
0.722604
0.807286
0.874666
0.935034
0.982775
1.042675
1.125253
1.192867
1.208813
1.172622
1.125910
1.092056
1.070594
1.053107
0.993770
0.874814
0.733648
0.598093
0.478436
0.363221
0.233979
0.099125
-0.013284
-0.078232
-0.098525
-0.112506
-0.159920
-0.232116
-0.289582
-0.320864
-0.336949
-0.338772
-0.320956
-0.306179
-0.329745
-0.371781
-0.382255
-0.357425
-0.330725
-0.340263
-0.403107
-0.497748
-0.599636
-0.692407
-0.724857
-0.681090
-0.619554
-0.570175
-0.532253
-0.501344
-0.449627
-0.377571
-0.319074
-0.293776
-0.298639
-0.307710
-0.304155
-0.288210
-0.279278
-0.315703
-0.392341
-0.484878
-0.572504
-0.604254
-0.567032
-0.492404
-0.389953
-0.264824
-0.109770
0.097656
0.345996
0.582179
0.750326
0.840619
0.876204
0.882564
0.879572
0.865357
0.843895
0.831318
0.841418
0.897109
0.977115
1.028364
1.039166
1.032901
1.050483
1.105005
1.161164
1.189501
1.182534
1.157331
1.136804
1.107861
1.054369
0.980068
0.895715
0.816037
0.755765
0.700169
0.611139
0.497093
0.407596
0.350597
0.326797
0.335495
0.322450
0.275971
0.230896
0.184885
0.161787
0.177732
0.204198
0.229964
0.247546
0.266063
0.278502
0.246986
0.187649
0.117791
0.035308
-0.044136
-0.147895
-0.291632
-0.454542
-0.621660
-0.749967
-0.809772
-0.818141
-0.800091
-0.788120
-0.789242
-0.783350
-0.760858
-0.712181
-0.625161
-0.515930
-0.424234
-0.359191
-0.273107
-0.133015
0.026015
0.174056
0.327006
0.489777
0.656288
0.855063
1.103636
1.368109
1.603356
1.777348
1.879331
1.923566
1.921743
1.892332
1.862453
1.835614
1.805502
1.780065
1.766084
1.770340
1.816679
1.908609
2.016437
2.125200
2.221338
2.288251
2.333188
2.369941
2.409033
2.445552
2.456822
2.418760
2.328094
2.224803
2.147464
2.091633
2.045857
1.994001
1.910816
1.789289
1.661216
1.548806
1.416291
1.237951
1.021268
0.774893
0.526414
0.304120
0.106609
-0.088565
-0.293090
-0.497382
-0.690451
-0.855932
-0.989617
-1.099922
-1.190354
-1.270265
-1.336149
-1.372574
-1.381878
-1.365699
-1.315619
-1.208025
-1.042449
-0.861209
-0.703582
-0.577986
-0.463845
-0.336846
-0.199560
-0.064845
0.058179
0.179334
0.315685
0.469337
0.629769
0.780148
0.906914
1.020820
1.159977
1.340983
1.530874
1.694579
1.829528
1.963775
2.133793
2.354077
2.621588
2.912246
3.185135
3.437449
3.692569
3.972706
4.294224
4.626264
4.925572
5.166430
5.324524
5.414116
5.472145
5.512406
5.539807
5.540322
5.494311
5.411361
5.327942
5.258084
5.182381
5.098262
4.996373
4.864091
4.707027
4.524011
4.329773
4.140444
3.945037
3.737005
3.504892
3.257581
3.024767
2.820008
2.628809
2.417270
2.178844
1.928027
1.664584
1.401844
1.158274
0.950008
0.787099
0.661597
0.571866
0.512763
0.484988
0.496492
0.529972
0.553633
0.542458
0.511644
0.482934
0.446509
0.398160
0.348175
0.311750
0.299874
0.300856
0.305346
0.301185
0.270605
0.221087
0.166660
0.117142
0.069261
-0.002468
-0.116513
-0.273812
-0.458230
-0.642649
-0.813274
-0.966597
-1.105192
-1.239344
-1.368353
-1.483100
-1.584988
-1.674018
-1.758138
-1.861662
-1.984826
-2.104015
-2.228582
-2.366241
-2.489405
-2.587553
-2.673309
-2.757662
-2.833833
-2.881013
-2.879329
-2.831353
-2.757192
-2.675549
-2.596245
-2.498470
-2.351364
-2.171293
-1.996833
-1.845285
-1.721092
-1.627759
-1.565522
-1.515676
-1.446892
-1.364080
-1.288049
-1.202198
-1.101618
-1.007818
-0.923837
-0.847572
-0.771307
-0.685456
-0.605216
-0.524976
-0.447542
-0.389045
-0.316755
-0.211499
-0.103437
-0.019924
0.040677
0.103382
0.189934
0.313193
0.456324
0.574673
0.651172
0.695407
0.741980
0.813803
0.880249
0.927289
0.968251
1.005472
1.048538
1.091137
1.119473
1.127937
1.118165
1.115407
1.135561
1.165067
1.195040
1.237638
1.316008
1.429447
1.548965
1.649311
1.718095
1.766772
1.815683
1.865061
1.904854
1.908175
1.835745
1.696917
1.548970
1.422767
1.316203
1.229278
1.154744
1.088626
1.036537
0.986318
0.930721
0.872787
0.794746
0.683506
0.541638
0.375222
0.212780
0.079329
-0.021858
-0.103172
-0.197111
-0.319106
-0.449985
-0.553510
-0.587129
-0.540556
-0.477617
-0.485753
-0.571276
-0.670358
-0.745360
-0.778044
-0.791557
-0.838503
-0.930572
-1.067763
-1.227633
-1.357344
-1.451517
-1.510620
-1.518756
-1.480599
-1.384929
-1.231744
-1.057518
-0.898722
-0.783881
-0.716032
-0.671096
-0.634342
-0.612785
-0.613673
-0.641214
-0.705695
-0.795426
-0.885156
-0.978394
-1.101792
-1.265636
-1.443743
-1.600339
-1.721399
-1.820248
-1.928215
-2.051379
-2.156540
-2.239023
-2.329923
-2.444670
-2.587005
-2.745005
-2.905810
-3.082748
-3.281895
-3.489928
-3.691647
-3.860869
-3.985202
-4.081245
-4.178458
-4.288295
-4.378727
-4.415152
-4.402480
-4.350530
-4.263744
-4.161994
-4.049724
-3.923193
-3.783335
-3.600224
-3.373160
-3.152408
-2.950827
-2.762573
-2.577124
-2.378817
-2.175366
-1.954147
-1.700195
-1.424267
-1.119115
-0.798999
-0.498990
-0.218853
0.051698
0.315702
0.571056
0.790873
0.945226
1.029207
1.046789
1.016443
0.993578
1.021447
1.086724
1.166964
1.241592
1.272968
1.258053
1.218822
1.166499
1.127970
1.117496
1.113335
1.097484
1.060592
1.000319
0.929292
0.864344
0.813190
0.769049
0.715323
0.645933
0.567892
0.489617
0.409238
0.326755
0.239362
0.134201
0.020389
-0.085474
-0.183154
-0.272885
-0.359576
-0.449541
-0.531790
-0.614975
-0.714525
-0.815712
-0.910820
-1.009669
-1.115766
-1.226772
-1.334271
-1.434991
-1.534307
-1.623103
-1.700442
-1.782224
-1.862135
-1.935734
-2.012372
-2.085737
-2.152322
-2.195761
-2.183089
-2.112435
-2.004841
-1.881816
-1.773521
-1.692579
-1.640629
-1.621177
-1.625805
-1.641188
-1.667326
-1.716610
-1.794885
-1.899111
-2.012923
-2.106862
-2.171577
-2.226238
-2.299136
-2.404765
-2.527929
-2.640805
-2.722353
-2.769533
-2.797775
-2.814561
-2.825035
-2.835274
-2.823070
-2.778835
-2.722910
-2.675168
-2.655949
-2.663851
-2.677598
-2.689006
-2.689427
-2.675351
-2.665017
-2.672217
-2.690172
-2.697840
-2.675582
-2.600954
-2.462498
-2.283830
-2.092069
-1.898204
-1.717665
-1.556064
-1.403347
-1.251565
-1.115915
-1.022349
-0.967593
-0.908863
-0.810153
-0.663281
-0.480638
-0.294722
-0.138264
-0.015473
0.101707
0.243201
0.389138
0.500239
0.574400
0.622844
0.664975
0.720666
0.774954
0.803057
0.802169
0.792163
0.813252
0.885309
0.984954
1.079923
1.153850
1.204164
1.242554
1.308298
1.424309
1.554348
1.651889
1.699163
1.697340
1.676813
1.674756
1.699352
1.731897
1.744570
1.729654
1.707257
1.705668
1.744525
1.810737
1.858012
1.876061
1.881954
1.871480
1.855629
1.838609
1.791663
1.724377
1.657558
1.582323
1.501243
1.410577
1.304480
1.213580
1.157516
1.122728
1.104773
1.092195
1.057173
1.014201
1.003962
1.029493
1.068818
1.104636
1.139286
1.190535
1.273580
1.388656
1.526410
1.664865
1.770589
1.841710
1.903714
1.952157
1.987742
2.029639
2.076679
2.126058
2.183152
2.263859
2.370518
2.477177
2.574484
2.658932
2.708778
2.714203
2.682454
2.642989
2.605162
2.556111
2.509633
2.452400
2.354954
2.232725
2.108626
1.997620
1.894796
1.789167
1.687513
1.593574
1.518105
1.463443
1.426551
1.413272
1.397187
1.364269
1.336728
1.305680
1.262475
1.216464
1.155257
1.069033
0.981173
0.917627
0.876760
0.856233
0.850669
0.834585
0.802835
0.779503
0.771835
0.781468
0.809805
0.839545
0.859932
0.883593
0.921749
0.997079
1.112623
1.234712
1.348151
1.445692
1.521256
1.587935
1.641288
1.676639
1.700534
1.700581
1.675612
1.628900
1.560912
1.493158
1.442004
1.409554
1.399548
1.407544
1.428867
1.447150
1.436209
1.411474
1.400065
1.394268
1.374676
1.330302
1.273770
1.226824
1.215416
1.265496
1.358594
1.457304
1.552741
1.649580
1.755304
1.863365
1.960205
2.043484
2.124659
2.218927
2.315065
2.380575
2.403768
2.401712
2.389134
2.380998
2.398113
2.417332
2.399844
2.351963
2.299640
2.251759
2.187745
2.096378
1.987943
1.868520
1.770840
1.712906
1.655673
1.565475
1.421737
1.225628
1.007776
0.796939
0.608311
0.437219
0.269166
0.107426
-0.037715
-0.145916
-0.203850
-0.218766
-0.197910
-0.170041
-0.158538
-0.153815
-0.163821
-0.200713
-0.252101
-0.307230
-0.352539
-0.379613
-0.382838
-0.353333
-0.300213
-0.239846
-0.181350
