EVENT_NAME: 202302060117
EVENT_ID: 13194
EVENT_DATE_YYYYMMDD: 2023/02/06
EVENT_TIME_HHMMSS: 01:17:32.00000
EVENT_LATITUDE_DEGREE: 37.288
EVENT_LONGITUDE_DEGREE: 37.043
EVENT_DEPTH_KM: 8.6
HYPOCENTER_REFERENCE: AFAD
MAGNITUDE_W: 7.7
MAGNITUDE_W_REFERENCE: AFAD
MAGNITUDE_L: 
MAGNITUDE_L_REFERENCE: 
FOCAL_MECHANISM: 
NETWORK: TK
STATION_CODE: 6204
STATION_NAME: 
STATION_LATITUDE_DEGREE: 39.357775
STATION_LONGITUDE_DEGREE: 39.213415
STATION_ELEVATION_M: 1250.0
LOCATION: Kahramanmaras_Pazarck_Turkiye
SENSOR_DEPTH_M: 
VS30_M/S: None
SITE_CLASSIFICATION_EC8: unknown
MORPHOLOGIC_CLASSIFICATION: 
EPICENTRAL_DISTANCE_KM: 298.00
EARTHQUAKE_BACKAZIMUTH_DEGREE: 
DATE_TIME_FIRST_SAMPLE_YYYYMMDD_HHMMSS: 2023/02/06 01:18:00.8613970
DATE_TIME_FIRST_SAMPLE_PRECISION: millisecond
SAMPLING_INTERVAL_S: 0.005
NDATA: 36501
DURATION_S: 
STREAM: HNZ
UNITS: cm/s^2
INSTRUMENT: sensor = GEO-A200,/GEObit | digitizer = 
INSTRUMENT_ANALOG/DIGITAL: 
INSTRUMENTAL_FREQUENCY_HZ: 
INSTRUMENTAL_DAMPING: 
FULL_SCALE_G: 
N_BIT_DIGITAL_CONVERTER: 
PGA_CM/S^2: 21.186
TIME_PGA_S: 
BASELINE_CORRECTION: BASELINE REMOVED
FILTER_TYPE: BUTTERWORTH
FILTER_ORDER: 
LOW_CUT_FREQUENCY_HZ: 
HIGH_CUT_FREQUENCY_HZ: 
LATE/NORMAL_TRIGGERED: 
DATABASE_VERSION: 
HEADER_FORMAT: DYNA 1.2
DATA_TYPE: Acceleration
PROCESSING: Automatic Paolucci et al., 2011
DATA_TIMESTAMP_YYYYMMDD_HHMMSS: 
DATA_LICENSE: U (unknown license)
DATA_CITATION: Turkish Accelerometric Archive v 1.0 - Disaster And Emergency Management Presidency, Earthquake Department
DATA_CREATOR: AFAD
ORIGINAL_DATA_MEDIATOR_CITATION: : AFAD - Disaster And Emergency Management Presidency
ORIGINAL_DATA_MEDIATOR: AFAD PROCESS SERVICE
ORIGINAL_DATA_CREATOR_CITATION: AFAD PROCESS SERVICE
ORIGINAL_DATA_CREATOR: network: TK
USER1: GuestUser
USER2: 
USER3: 
USER4: 
USER5: 
[...]
4.316742
4.234582
4.187735
4.166077
4.150069
4.116169
4.054255
3.977745
3.903119
3.840263
3.788236
3.746097
3.705841
3.654756
3.590253
3.521041
3.461716
3.417458
3.391092
3.387561
3.406159
3.434409
3.449241
3.433468
3.391565
3.336007
3.269149
3.204410
3.157562
3.129548
3.108361
3.080111
3.045035
3.013725
2.987594
2.959579
2.937686
2.927093
2.918853
2.897431
2.851760
2.807032
2.781372
2.774309
2.784903
2.806327
2.851056
2.906850
2.942633
2.945223
2.900965
2.833166
2.771016
2.704629
2.626001
2.552316
2.513472
2.502408
2.474158
2.406124
2.299716
2.168119
2.015805
1.835947
1.641023
1.445393
1.249998
1.067080
0.910528
0.757508
0.581888
0.395204
0.211344
0.035018
-0.135894
-0.315751
-0.501259
-0.674995
-0.842141
-1.008815
-1.175018
-1.332040
-1.466227
-1.598531
-1.734365
-1.860783
-2.003210
-2.166588
-2.333262
-2.505822
-2.676028
-2.847175
-3.039274
-3.239612
-3.431476
-3.628284
-3.853812
-4.135605
-4.457182
-4.769579
-5.066674
-5.346583
-5.622020
-5.901693
-6.154765
-6.380529
-6.608176
-6.861954
-7.130093
-7.372806
-7.575499
-7.755357
-7.943218
-8.129667
-8.278450
-8.384151
-8.473374
-8.579075
-8.690191
-8.764347
-8.795422
-8.804838
-8.802013
-8.770231
-8.690425
-8.577425
-8.451713
-8.313052
-8.154146
-7.980880
-7.831626
-7.724276
-7.638349
-7.542063
-7.403403
-7.232255
-7.059224
-6.893491
-6.734114
-6.581564
-6.422894
-6.250098
-6.080363
-5.904742
-5.708169
-5.505711
-5.304195
-5.119158
-4.948952
-4.786044
-4.642204
-4.496717
-4.326982
-4.149713
-3.994103
-3.863211
-3.737028
-3.609432
-3.484897
-3.340116
-3.163083
-2.986049
-2.827379
-2.689896
-2.555944
-2.396331
-2.204467
-1.987413
-1.760001
-1.509047
-1.232198
-0.973475
-0.752419
-0.561732
-0.376695
-0.170706
0.046819
0.273525
0.509412
0.738237
0.952936
1.139151
1.286050
1.402346
1.500280
1.581969
1.642942
1.691909
1.739463
1.782309
1.803026
1.795022
1.769833
1.731932
1.689792
1.627643
1.523825
1.464971
1.509230
1.461676
1.208133
0.949411
0.760137
0.607823
0.600761
0.658438
0.606882
0.482348
0.354517
0.297076
0.270003
0.159829
0.038119
-0.068759
-0.139148
-0.164338
-0.202004
-0.231195
-0.294757
-0.377388
-0.464021
-0.565485
-0.632107
-0.673776
-0.686017
-0.687900
-0.698023
-0.719680
-0.770765
-0.833857
-0.905658
-0.991820
-1.050438
-1.022188
-0.938615
-0.872934
-0.838563
-0.835267
-0.873168
-0.946853
-1.051849
-1.188625
-1.327991
-1.446405
-1.557756
-1.667931
-1.777163
-1.916765
-2.169837
-2.566042
-2.920813
-2.973781
-2.698109
-2.436326
-2.503890
-2.682100
-2.577575
-2.235751
-2.094030
-2.339098
-2.637840
-2.655732
-2.445269
-2.374880
-2.503416
-2.468104
-2.147938
-1.776686
-1.636614
-1.678517
-1.663215
-1.515844
-1.311032
-1.142003
-0.975093
-0.795235
-0.600546
-0.385846
-0.183859
0.039316
0.290740
0.559350
0.845146
1.134708
1.424270
1.737373
2.087908
2.436324
2.772969
3.127977
3.528655
3.954287
4.353788
4.713033
5.058860
5.437174
5.866337
6.343761
6.828954
7.283307
7.713412
8.132218
8.560204
8.998549
9.439483
9.877828
10.295221
10.682951
11.056321
11.434871
11.815303
12.175725
12.490241
12.773918
13.069365
13.375406
13.667322
13.931930
14.173938
14.400644
14.597923
14.751415
14.864885
14.953402
15.019083
15.061694
15.080763
15.074172
15.044509
14.982595
14.887958
14.761776
14.608049
14.448673
14.290945
14.128979
13.950298
13.740543
13.503009
13.238872
12.946957
12.643977
12.348294
12.066737
11.801894
11.547645
11.290807
11.015841
10.727928
10.433894
10.116082
9.760605
9.367460
8.970785
8.607773
8.278898
7.960380
7.615496
7.243304
6.872524
6.512337
6.147443
5.759949
5.359977
4.964949
4.584047
4.211619
3.833541
3.452168
3.060671
2.662818
2.258374
1.814851
1.314121
0.776902
0.248629
-0.249040
-0.716811
-1.154920
-1.543121
-1.863522
-2.147433
-2.424047
-2.704191
-2.978686
-3.232700
-3.472588
-3.691054
-3.888803
-4.076665
-4.260760
-4.456155
-4.667323
-4.891909
-5.117437
-5.337316
-5.541186
-5.718689
-5.888894
-6.057687
-6.225774
-6.396450
-6.564537
-6.723678
-6.862102
-6.996054
-7.141070
-7.292206
-7.440283
-7.572115
-7.686763
-7.787756
-7.894634
-8.025055
-8.170070
-8.302139
-8.396069
-8.474462
-8.554033
-8.633132
-8.718588
-8.793215
-8.845241
-8.877728
-8.893736
-8.886438
-8.840296
-8.775557
-8.721175
-8.688923
-8.668206
-8.642781
-8.637131
-8.669853
-8.742125
-8.846179
-8.939168
-9.008851
-9.048636
-9.044869
-9.036629
-9.051460
-9.084418
-9.122790
-9.156219
-9.172463
-9.163752
-9.131500
-9.080650
-9.027916
-8.979655
-8.962470
-8.975888
-8.970238
-8.915150
-8.794146
-8.656663
-8.543898
-8.399824
-8.234326
-8.082482
-7.925930
-7.782797
-7.621537
-7.393418
-7.174011
-7.022873
-6.908461
-6.815236
-6.730956
-6.656094
-6.609246
-6.572285
-6.545212
-6.553216
-6.575345
-6.603359
-6.666450
-6.759439
-6.855018
-6.934353
-7.011098
-7.104558
-7.226032
-7.378111
-7.519360
-7.632830
-7.725348
-7.791735
-7.849883
-7.905676
-7.959821
-8.033035
-8.125083
-8.237141
-8.357202
-8.458902
-8.550478
-8.645822
-8.750111
-8.837920
-8.892537
-8.949742
-9.034492
-9.171033
-9.350184
-9.512385
-9.616674
-9.672468
-9.719551
-9.758865
-9.797002
-9.848087
-9.900820
-9.978036
-10.085856
-10.184730
-10.254178
-10.295375
-10.294198
-10.263358
-10.229458
-10.180491
-10.127993
-10.053837
-9.918708
-9.748031
-9.565348
-9.382194
-9.195038
-8.991167
-8.774349
-8.523160
-8.219473
-7.854342
-7.438598
-7.043805
-6.716105
-6.368866
-5.906038
-5.442504
-5.082553
-4.693645
-4.250357
-3.789883
-3.229592
-2.615156
-2.048274
-1.532713
-1.069414
-0.636013
-0.175774
0.270339
0.691499
1.174573
1.722621
2.250660
2.674409
3.014820
3.344639
3.695879
4.026639
4.319497
4.663205
5.094958
5.495401
5.713632
5.869713
6.118312
6.380801
6.616924
6.822442
7.070100
7.409335
7.776584
8.097927
8.279198
8.449168
8.629497
8.808414
9.035355
9.237342
9.568338
9.945474
10.237390
10.482223
10.665377
10.833464
10.954704
11.167285
11.553603
11.864117
11.991713
12.165450
12.455012
12.840859
13.409153
13.953671
14.327041
14.655917
14.999154
15.361695
15.664911
15.877492
16.124208
16.401999
16.655307
16.838697
17.005607
17.258444
17.480677
17.607331
17.682429
17.778950
17.915256
18.013660
18.061214
18.084521
18.126190
18.187634
18.225065
18.205997
18.163387
18.153735
18.163858
18.169744
18.169509
18.149499
18.084995
17.942333
17.737757
17.598156
17.586856
17.658187
17.784135
17.931506
18.071814
18.182460
18.290987
18.434826
18.553241
18.669066
18.842097
19.059857
19.273380
19.414865
19.519154
19.608377
19.649105
19.653813
19.638041
19.605318
19.573773
19.529515
19.417457
19.240660
19.038673
18.828683
18.581496
18.277103
17.977890
17.721522
17.469863
17.182656
16.854722
16.512427
16.156478
15.768984
15.389023
15.039195
14.694546
14.342835
13.981472
13.626700
13.297825
13.003555
12.715406
12.412190
12.109917
11.797991
11.476177
11.160014
10.849501
10.545814
10.264022
10.013775
9.755759
9.448306
9.119901
8.817157
8.544310
8.306775
8.120326
7.972721
7.845596
7.723180
7.583108
7.406546
7.180547
6.916175
6.646624
6.394494
6.174381
5.987461
5.816078
5.622331
5.366670
5.040148
4.653360
4.257626
3.911094
3.597755
3.313844
3.120568
3.003802
2.896688
2.760618
2.575581
2.334280
2.052252
1.798474
1.542341
1.247130
0.967456
0.734395
0.576666
0.434475
0.280043
0.102068
-0.115220
-0.308496
-0.498477
-0.657853
-0.783565
-0.924108
-1.047466
-1.184478
-1.356802
-1.578328
-1.864829
-2.162630
-2.453604
-2.745990
-3.052972
-3.409156
-3.808892
-4.247237
-4.727249
-5.204908
-5.652198
-6.069826
-6.455437
-6.799850
-7.129197
-7.494091
-7.891473
-8.299449
-8.672112
-8.987805
-9.264889
-9.480294
-9.637552
-9.767030
-9.861903
-9.920756
-9.981729
-10.074247
-10.194309
-10.316489
-10.393235
-10.425957
-10.469509
-10.527656
-10.566500
-10.573562
-10.555435
-10.552138
-10.577799
-10.623469
-10.685854
-10.723991
-10.723284
-10.680438
-10.588626
-10.456322
-10.291766
-10.142512
-10.050228
-10.019624
-10.045284
-10.091425
-10.129327
-10.198304
-10.333667
-10.495398
-10.641826
-10.783547
-10.921500
-11.062985
-11.235780
-11.395391
-11.503212
-11.615034
-11.729917
-11.855864
-11.996878
-12.116940
-12.258189
-12.388374
-12.508906
-12.642622
-12.789522
-12.960433
-13.091795
-13.241284
-13.427498
-13.576987
-13.700344
-13.822760
-13.892443
-14.001205
-14.219906
-14.370101
-14.458147
-14.483336
-14.535127
-14.742293
-14.942396
-15.086470
-15.173339
-15.339307
-15.672655
-15.917723
-15.946208
-15.936791
-16.052145
-16.233179
-16.459178
-16.663755
-16.747327
-16.843847
-17.064196
-17.204504
-17.120695
-17.109866
-17.331863
-17.599766
-17.777976
-17.770442
-17.553153
-17.426970
-17.610594
-17.850012
-17.901803
-17.723828
-17.545147
-17.534082
-17.496180
-17.313261
-16.982266
-16.667986
-16.468353
-16.260244
-16.007643
-15.714314
-15.449706
-15.240892
-15.037022
-14.786774
-14.460252
-14.103596
-13.750472
-13.383223
-12.979249
-12.553616
-12.125865
-11.739312
-11.381008
-10.983861
-10.523858
-9.996997
-9.459307
-8.935035
-8.403230
-7.849060
-7.264522
-6.702819
-6.201619
-5.752680
-5.331521
-4.936728
-4.588312
-4.246252
-3.890538
-3.539768
-3.190646
-2.847409
-2.498522
-2.128213
-1.777678
-1.474933
-1.219271
-0.999392
-0.771980
-0.523851
-0.252651
0.026081
0.290689
0.566126
0.857571
1.182681
1.537689
1.882103
2.232402
2.606949
3.004567
3.409247
3.788267
4.131269
4.457320
4.798909
5.143558
5.456191
5.731393
5.967751
6.170209
6.362544
6.562412
6.775699
6.998639
7.202980
7.372715
7.516084
7.610721
7.621315
7.551632
7.435573
7.299503
7.142716
6.956031
6.762284
6.574423
6.339007
6.015310
5.670661
5.360383
5.069880
4.786440
4.491935
4.206611
3.939414
3.672688
3.401725
3.108161
2.782581
2.430399
2.096580
1.794070
1.467549
1.092767
0.683614
0.267163
-0.143402
-0.551377
-0.964532
-1.392989
-1.835806
-2.279329
-2.714849
-3.150133
-3.603073
-4.062133
-4.497417
-4.903510
-5.286767
-5.646011
-5.965470
-6.232432
-6.462904
-6.699967
-6.964339
-7.251782
-7.535928
-7.799123
-8.063730
-8.312094
-8.519966
-8.697469
-8.864144
-9.049416
-9.261290
-9.490114
-9.705284
-9.899266
-10.093720
-10.270046
-10.392933
-10.457436
-10.508286
-10.596567
-10.710272
-10.794551
-10.824448
-10.831981
-10.832923
-10.800435
-10.705327
-10.521467
-10.255211
-9.961411
-9.692566
-9.469391
-9.249042
-8.991496
-8.708997
-8.435679
-8.198144
-7.944836
-7.603718
-7.186089
-6.785176
-6.444529
-6.110473
-5.720859
-5.250262
-4.768601
-4.342733
-3.954532
-3.572687
-3.183309
-2.784043
-2.374183
-1.942901
-1.503614
-1.084574
-0.674008
-0.288396
0.046601
0.347698
0.619840
0.870087
1.085728
1.246282
1.371759
1.486407
1.593993
1.704638
1.823995
1.946176
2.047405
2.090016
2.100610
2.084131
2.000558
1.909923
1.851305
1.786095
1.750077
1.706290
1.598940
1.527374
1.513956
1.489473
1.405665
1.287722
1.186729
1.085029
0.992747
0.911999
0.824189
0.762982
0.743678
0.739911
0.751918
0.768633
0.790527
0.810773
0.814304
0.819719
0.780640
0.756864
0.782053
0.802770
0.891287
0.999814
1.100808
1.246766
1.391076
1.545039
1.719482
1.920999
2.164890
2.411371
2.644668
2.845243
3.021099
3.167763
3.261930
3.340088
3.396589
3.439435
3.495935
3.569149
3.673204
3.758660
3.777023
3.736767
3.700513
3.695805
3.641895
3.509356
3.357984
3.202845
3.068423
2.949067
2.790162
2.636435
2.499424
2.356997
2.195031
1.987395
1.740208
1.479368
1.268671
1.028076
0.745106
0.473201
0.155860
-0.126638
-0.369117
-0.627838
-0.887737
-1.148813
-1.391056
-1.648366
-1.932748
-2.206065
-2.458666
-2.695259
-2.934677
-3.173389
-3.392796
-3.607966
-3.804538
-3.984866
-4.177436
-4.321275
-4.402964
-4.474059
-4.523261
-4.545390
-4.542094
-4.523731
-4.532206
-4.587764
-4.668040
-4.736546
-4.792104
-4.819176
-4.812584
-4.816115
-4.821530
-4.836831
-4.894273
-4.974785
-5.080486
-5.214908
-5.365103
-5.517182
-5.636067
-5.688093
-5.653722
-5.582626
-5.571091
-5.644069
-5.756833
-5.871716
-5.989424
-6.100775
-6.170693
-6.198472
-6.202945
-6.198472
-6.193292
-6.169044
-6.126433
-6.097948
-6.086647
-6.053454
-5.965878
-5.846287
-5.709981
-5.573204
-5.474564
-5.418770
-5.379220
-5.311891
-5.202893
-5.093660
-5.032216
-5.030332
-5.069175
-5.135092
-5.218429
-5.294232
-5.341551
-5.355204
-5.348377
-5.366739
-5.420649
-5.496217
-5.574846
-5.612512
-5.607333
-5.573904
-5.532705
-5.534118
-5.492920
-5.267155
-5.069406
-5.140266
-5.316356
-5.468906
-5.524934
-5.410286
-5.312118
-5.362261
-5.473142
-5.625926
-5.771884
-5.775650
-5.760348
-5.850277
-5.919018
-5.879468
-5.788126
-5.753755
-5.778002
-5.752577
-5.640754
-5.444417
-5.214886
-5.060453
-4.854464
-4.557369
-4.237673
-3.907149
-3.665141
-3.326848
-2.884737
-2.452983
-1.994628
-1.614902
-1.221757
-0.808837
-0.438527
-0.026314
0.481479
1.102507
1.722357
2.286179
2.809744
3.317772
3.850048
4.392211
4.952737
5.553283
6.182786
6.815585
7.424606
8.021621
8.639353
9.275918
9.912719
10.561290
11.230342
11.896805
12.575981
13.274225
13.957873
14.603855
15.204401
15.780935
16.349701
16.902222
17.414488
17.907214
18.429837
18.956934
19.430356
19.816674
20.109532
20.344948
20.551879
20.727735
20.880049
21.004820
21.098045
21.162079
21.185620
21.168906
21.126767
21.068149
20.997524
20.934433
20.888998
20.839326
20.783061
20.753164
20.751752
20.754106
20.727269
20.656880
20.577310
20.504096
20.443829
20.397924
20.356491
20.327064
20.297166
20.268446
20.246317
20.200411
20.131199
20.047627
19.929213
19.761833
19.563613
19.335024
19.062648
18.767672
18.451744
18.135345
17.846490
17.577645
17.328105
17.071972
16.812544
16.565358
16.295336
15.990708
15.665128
15.329425
15.018912
14.763486
14.576566
14.467568
14.418602
14.389882
14.363986
14.352687
14.356924
14.398122
14.491348
14.621768
14.783970
14.965712
15.162284
15.365684
15.558490
15.749648
15.965525
16.205649
16.468374
16.754169
17.033608
17.286681
17.509855
17.689949
17.840145
18.015765
18.220107
18.417621
18.625493
18.843724
19.062897
19.280186
19.453923
19.587169
19.695225
19.763967
19.800928
19.808932
19.809639
19.815289
19.806579
19.767500
19.686047
19.586466
19.473702
19.332217
19.167426
19.002165
18.875276
18.755685
18.603606
18.447997
18.288385
18.104996
17.906541
17.730685
17.590613
17.454072
17.335658
17.240786
17.148032
17.035033
16.872596
16.695799
16.527712
16.374457
16.248274
16.121621
16.013565
15.936113
15.827822
15.659265
15.502243
15.442918
15.330154
14.994451
14.658513
14.531153
14.471593
14.256894
13.928254
13.633984
13.264381
12.895485
12.562136
12.093188
11.682152
11.293009
10.846661
10.457283
9.987864
9.546224
9.117532
8.531346
7.919500
7.404410
6.943937
6.345510
5.765445
5.176906
4.494670
3.979580
3.292637
2.557198
1.996908
1.325502
0.763800
0.293674
-0.168447
-0.667529
-1.261718
-1.774219
-2.251877
-2.666680
-3.083601
-3.594218
-4.124846
-4.691256
-5.212702
-5.619265
-5.984395
-6.353527
-6.714890
-7.132518
-7.575571
-8.012267
-8.589742
-9.160626
-9.620157
-10.105349
-10.531923
-10.972857
-11.492419
-11.984909
-12.461391
-12.869131
-13.254742
-13.636116
-13.942156
-14.201584
-14.393684
-14.534462
-14.634984
-14.712907
-14.816019
-14.900062
-14.945968
-14.934903
-14.854390
-14.733857
-14.579424
-14.417457
-14.272205
-14.123422
-13.965458
-13.804904
-13.640348
-13.485915
-13.319946
-13.126434
-12.913147
-12.684793
-12.452202
-12.198187
-11.922044
-11.639545
-11.367168
-11.104679
-10.830419
-10.557572
-10.320508
-10.113812
-9.907587
-9.696654
-9.469242
-9.227705
-9.006178
-8.811960
-8.638693
-8.488498
-8.362079
-8.241781
-8.121483
-8.001892
-7.871000
-7.728338
-7.568490
-7.397107
-7.222899
-7.036214
-6.841524
-6.652720
-6.468389
-6.291592
-6.131744
-5.986727
-5.864546
-5.771557
-5.691986
-5.639959
-5.668679
-5.713408
-5.655966
-5.635484
-5.809221
-6.059233
-6.325959
-6.610576
-6.813740
-7.046566
-7.478319
-7.786478
-7.703140
-7.873346
-8.552285
-9.020292
-9.368943
-9.783510
-9.941474
-10.108854
-10.339326
-10.711989
-11.277223
-11.678371
-11.928147
-12.106122
-12.429583
-12.837323
-13.214695
-13.596304
-13.908229
-14.363524
-14.856955
-15.243979
-15.471626
-15.609344
-15.773429
-15.907851
-16.046981
-16.134085
-16.264976
-16.412346
-16.471200
-16.487914
-16.518989
-16.620217
-16.681190
-16.681896
-16.677422
-16.651291
-16.611034
-16.563480
-16.458249
-16.213416
-15.836044
-15.532122
-15.432540
-15.401701
-15.328486
-15.199007
-14.993724
-14.791972
-14.702278
-14.646013
-14.533484
-14.346564
-14.087135
-13.823469
-13.610182
-13.468696
-13.336392
-13.174426
-13.020228
-12.857791
-12.695118
-12.550572
-12.410499
-12.245002
-12.016648
-11.752040
-11.508384
-11.289683
-11.055679
-10.784715
-10.478438
-10.161097
-9.864237
-9.566436
-9.248624
-8.916923
-8.594167
-8.294482
-7.975964
-7.634375
-7.300790
-6.995456
-6.724491
-6.457765
-6.180209
-5.891824
-5.598966
-5.303519
-4.993005
-4.678254
-4.368917
-4.079355
-3.819220
-3.581214
-3.383935
-3.214671
-3.041640
-2.853307
-2.637194
-2.426261
-2.225922
-2.003925
-1.765919
-1.524382
-1.295322
-1.081093
-0.878635
-0.694539
-0.518448
-0.350831
-0.186040
0.006531
0.208283
0.394026
0.567528
0.722197
0.866507
1.003519
1.140767
1.274484
1.397136
1.531323
1.677987
1.842308
2.023108
2.206026
2.394595
2.586930
2.771496
2.924517
3.070946
3.242329
3.409946
3.585096
3.772722
3.930687
4.081118
4.227547
4.354201
4.494509
4.632463
4.748524
4.868586
5.021607
5.184280
5.314465
5.462777
5.644754
5.811900
5.976927
6.172793
6.387963
6.590892
6.786523
7.007815
7.249823
7.495362
7.745845
7.987382
8.232921
8.492585
8.741420
8.982722
9.219315
9.429306
9.627056
9.832810
10.032443
10.246672
10.459488
10.643113
10.837096
11.028019
11.187396
11.342064
11.489670
11.596079
11.650695
11.663173
11.639161
11.571832
11.499324
11.434114
11.344186
11.252609
11.153028
11.024962
10.891717
10.767182
10.641941
10.499750
10.343905
10.199831
10.058346
9.898028
9.717935
9.503707
9.276766
9.050532
8.818648
8.590530
8.380068
8.241173
8.121347
7.919831
7.670761
7.420514
7.207228
7.053266
6.948035
6.969223
7.092110
7.147198
7.065273
6.794075
6.348197
6.006373
5.934336
5.968236
5.953406
5.893610
5.837581
5.674439
5.406065
5.115797
4.843656
4.730422
4.622601
4.471700
4.273951
3.981565
3.742382
3.551460
3.449054
3.358890
3.215522
3.046023
2.933259
2.860987
2.556123
2.140850
1.893899
1.729108
1.476036
1.248860
0.931520
0.391005
-0.018619
-0.430832
-0.920026
-1.314112
-1.819785
-2.287321
-2.690118
-3.161891
-3.620952
-4.097669
-4.527067
-4.943753
-5.480737
-6.086697
-6.604377
-7.114287
-7.619725
-8.008161
-8.397304
-8.878258
-9.496696
-9.976709
-10.350078
-10.840685
-11.175681
-11.379787
-11.868981
-12.625372
-12.956131
-13.008393
-13.363400
-13.620710
-13.850711
-14.353794
-14.608985
-14.653007
-14.969171
-15.324413
-15.576544
-15.735449
