EVENT_NAME: 202302060117
EVENT_ID: 13194
EVENT_DATE_YYYYMMDD: 2023/02/06
EVENT_TIME_HHMMSS: 01:17:32.00000
EVENT_LATITUDE_DEGREE: 37.288
EVENT_LONGITUDE_DEGREE: 37.043
EVENT_DEPTH_KM: 8.6
HYPOCENTER_REFERENCE: AFAD
MAGNITUDE_W: 7.7
MAGNITUDE_W_REFERENCE: AFAD
MAGNITUDE_L: 
MAGNITUDE_L_REFERENCE: 
FOCAL_MECHANISM: 
NETWORK: TK
STATION_CODE: 2712
STATION_NAME: 
STATION_LATITUDE_DEGREE: 37.184
STATION_LONGITUDE_DEGREE: 36.73283
STATION_ELEVATION_M: 536.0
LOCATION: Kahramanmaras_Pazarck_Turkiye
SENSOR_DEPTH_M: 
VS30_M/S: None
SITE_CLASSIFICATION_EC8: unknown
MORPHOLOGIC_CLASSIFICATION: 
EPICENTRAL_DISTANCE_KM: 29.79
EARTHQUAKE_BACKAZIMUTH_DEGREE: 
DATE_TIME_FIRST_SAMPLE_YYYYMMDD_HHMMSS: 2023/02/06 01:17:07.3433620
DATE_TIME_FIRST_SAMPLE_PRECISION: millisecond
SAMPLING_INTERVAL_S: 0.01
NDATA: 10501
DURATION_S: 
STREAM: HNE
UNITS: cm/s^2
INSTRUMENT: sensor = ACEBOX/SARA | digitizer = 
INSTRUMENT_ANALOG/DIGITAL: 
INSTRUMENTAL_FREQUENCY_HZ: 
INSTRUMENTAL_DAMPING: 
FULL_SCALE_G: 
N_BIT_DIGITAL_CONVERTER: 
PGA_CM/S^2: 602.658
TIME_PGA_S: 
BASELINE_CORRECTION: BASELINE REMOVED
FILTER_TYPE: BUTTERWORTH
FILTER_ORDER: 
LOW_CUT_FREQUENCY_HZ: 
HIGH_CUT_FREQUENCY_HZ: 
LATE/NORMAL_TRIGGERED: 
DATABASE_VERSION: 
HEADER_FORMAT: DYNA 1.2
DATA_TYPE: Acceleration
PROCESSING: Automatic Paolucci et al., 2011
DATA_TIMESTAMP_YYYYMMDD_HHMMSS: 
DATA_LICENSE: U (unknown license)
DATA_CITATION: Turkish Accelerometric Archive v 1.0 - Disaster And Emergency Management Presidency, Earthquake Department
DATA_CREATOR: AFAD
ORIGINAL_DATA_MEDIATOR_CITATION: : AFAD - Disaster And Emergency Management Presidency
ORIGINAL_DATA_MEDIATOR: AFAD PROCESS SERVICE
ORIGINAL_DATA_CREATOR_CITATION: AFAD PROCESS SERVICE
ORIGINAL_DATA_CREATOR: network: TK
USER1: GuestUser
USER2: 
USER3: 
USER4: 
USER5: 
[...]
8.710403
11.205957
0.900177
-9.735258
-10.326061
-13.255071
-11.996304
-2.516056
-4.509643
-13.728967
-14.830384
-10.691468
-10.600518
-12.032290
-7.215830
-3.968150
0.265688
7.982870
-4.948454
-28.199121
-28.489495
-15.827968
-6.550656
0.676955
2.728295
0.899302
1.672940
3.316537
1.045667
0.159812
3.780866
3.021262
0.615724
3.470158
2.300706
-6.630347
-14.103907
-16.580987
-17.183713
-11.587072
3.239886
16.157421
22.639920
23.887231
15.661311
5.073337
-0.181955
-4.891331
-10.681084
-15.764535
-21.474095
-23.724625
-16.743670
-8.526395
-6.638012
-6.431333
-6.379661
-8.049438
-11.133455
-12.762084
-8.853459
-3.023955
-2.893260
-8.365750
-12.488762
-17.840379
-23.293698
-14.728532
-6.526454
-13.945072
-15.473636
-7.552115
-6.146990
-9.558557
-9.486078
-5.354877
-2.995626
-2.573854
-0.760519
4.617288
7.776125
0.550857
2.077322
17.294488
14.503185
-5.825017
-15.250551
-13.236152
-13.480233
-7.883358
1.000707
-7.959804
-16.449682
-9.047424
-3.135624
2.688035
7.792533
9.400126
13.698491
13.883428
11.167407
9.766964
7.584937
4.719520
2.985916
6.129791
3.812395
-3.146578
-4.379622
-9.680739
-12.397928
-8.333360
-10.351729
-11.934534
-10.355465
-4.328636
7.782065
16.268908
22.340158
17.398154
-1.399377
-9.606360
-4.403667
-1.797292
-6.614916
-7.757013
-2.241966
-8.100222
-15.350974
-7.568094
1.427258
5.500477
3.180275
1.943958
8.543356
4.949427
3.233826
16.516552
13.993415
-2.618112
-8.325802
-8.648673
-8.464672
-2.615764
5.304589
5.304358
1.073799
4.247599
1.482248
-13.836146
-18.330195
-10.704427
-4.662635
3.567499
12.704532
20.619274
25.765388
19.567893
16.550508
26.584154
30.085972
26.873367
25.362571
20.798150
14.179352
5.233804
0.257665
3.385174
2.982811
-0.728250
-1.839486
2.264594
5.287829
-5.204756
-9.180008
1.597581
4.021126
6.398613
11.729427
9.319681
11.389491
9.909791
-1.667847
-2.607943
7.830172
14.682071
13.256144
12.850275
16.881176
15.511594
9.517035
1.576581
-5.065129
-6.556051
-10.346136
-13.925336
-11.583386
-6.333933
-2.596448
-7.743492
-13.914568
-10.910504
-6.862302
-0.051317
14.454403
16.691845
2.427409
-0.065569
4.963647
-3.047180
-11.600650
-14.830323
-10.645817
4.712094
11.195529
4.489758
-3.595182
-7.389709
1.924075
12.266801
5.635378
-5.476302
-4.808107
-1.112705
-7.798368
-13.246777
-7.034080
-5.501302
-14.551826
-19.447304
-18.178484
-22.853491
-33.201823
-32.784025
-17.475445
-5.125335
-6.350197
-8.411117
-0.626601
8.570285
14.138871
18.188008
16.308047
10.760742
6.332625
1.152849
2.441776
14.259529
25.011868
25.722380
17.846454
10.246409
7.179927
4.781871
2.716976
-1.415154
-8.596001
-13.022949
-16.511202
-21.435671
-22.996966
-21.023715
-19.614149
-15.107937
-3.231735
1.794207
-6.893463
-11.630660
-8.573525
-7.195287
-4.254582
4.413921
9.952581
5.767847
2.064968
3.724698
4.640017
2.751405
-1.026055
1.673605
8.128516
6.540801
5.931996
8.760946
7.332213
8.464028
14.437785
21.300672
23.736842
17.186313
16.239905
27.778504
32.117550
25.743070
20.827017
18.238884
20.479600
21.973567
8.785300
-7.556191
-6.974501
0.896988
-4.475670
-15.680869
-20.143121
-22.292417
-22.003207
-25.774588
-30.448660
-16.005364
0.396218
-1.387419
-4.173812
1.185759
2.384908
-2.829937
-0.118354
6.860965
10.580682
13.273327
4.031792
0.075711
12.651668
8.430461
-4.586666
-3.376763
-3.695660
-7.976953
-2.522226
6.194908
1.316263
-3.866552
3.712924
4.258609
5.197775
19.355605
19.035773
-0.743473
-11.077309
-5.781097
-5.240789
-10.497250
-2.202121
6.991492
0.699776
1.318874
9.298377
6.745548
9.427439
15.093986
6.487911
1.321461
4.765765
3.187403
1.001401
3.645884
9.993950
16.223949
19.015023
19.863242
14.986234
-1.437554
-17.036037
-13.353494
-3.940813
-3.878854
-1.597692
-2.759895
-9.134843
-2.143133
9.097842
7.655550
-2.819267
-7.881209
-3.550112
-6.475848
-13.254329
-12.103811
-11.072061
-7.450071
0.581336
7.827183
16.524912
22.261364
18.764461
6.810877
2.531221
13.157776
17.609513
16.313577
19.456049
19.401343
18.856832
15.511663
6.336993
-0.311964
-3.960836
-0.726248
2.574972
-8.652671
-20.115515
-18.103687
-8.897917
1.107440
2.220084
-7.089019
-11.669339
-8.887149
-11.856839
-20.288501
-20.599449
-12.660860
-11.603860
-15.162252
-11.020764
-7.220387
-3.519608
8.395639
18.576110
24.395092
26.200711
16.896284
0.748845
-11.512884
-11.695711
-3.459498
3.371593
4.698863
-3.338617
-13.838917
-9.503378
8.154163
14.730181
9.488449
13.108335
15.258805
16.050913
27.441518
21.564559
4.346328
6.019618
8.296104
3.766285
0.288787
-5.228124
-2.830297
5.536608
8.502095
4.258210
-1.658962
3.839952
10.926350
8.741985
11.536098
13.526651
3.913144
-2.911863
-2.653515
-3.718225
-2.263302
0.806693
-2.991341
-9.782448
-17.924201
-18.408159
-4.352031
-3.902202
-16.476752
-13.466609
-5.018576
-1.772299
1.461120
5.586242
7.171624
-0.117939
-2.800292
11.082124
25.405717
23.513832
11.476782
6.034686
3.576544
-2.405156
-2.641055
-0.563062
-3.679577
-6.621913
-9.304968
-14.794525
-18.126134
-22.064680
-24.777193
-11.718912
2.914696
3.672669
0.125967
-5.617026
-2.792285
4.691334
-0.287844
1.009968
3.812264
-8.626215
-12.174320
-6.713748
-8.401996
-10.116428
-7.062098
0.882335
8.090541
12.795246
21.119834
28.830237
33.319615
33.671482
28.298356
24.432053
23.120220
16.879939
3.309881
-7.756442
-8.095445
-2.511897
5.879791
8.661280
1.110332
-1.709961
-0.966951
-5.616708
-1.027499
11.848420
10.542899
1.829511
4.779568
11.489552
13.961727
15.450083
13.561003
10.205314
11.596644
16.543797
19.030233
15.736734
10.606991
9.393819
11.289216
10.792867
6.418056
4.227612
8.687297
13.153997
13.114254
11.628942
5.720888
-0.570360
0.203044
1.919352
6.423927
15.465805
16.939198
10.643040
5.702907
3.014708
-0.692846
-3.705087
-2.866454
-3.011639
-8.679818
-14.756907
-14.466295
-12.583055
-15.718508
-18.003406
-18.270400
-18.486893
-10.294868
5.445535
16.637647
17.192450
10.224125
3.751217
-0.867445
-3.812353
1.279988
7.079098
1.480591
-6.443497
-6.835806
-1.637555
3.910223
4.071546
0.729884
-4.524006
-7.657822
-0.206466
4.733439
-5.556444
-15.261366
-10.565077
0.194743
2.742668
0.282890
2.821463
4.150837
2.325584
1.526468
-3.783065
-4.450554
6.664638
7.529457
-4.534947
-9.455441
-7.376513
-4.040224
-0.942641
-0.873435
-0.118501
3.388461
5.651855
4.493158
3.042215
0.624754
-3.995545
-1.931580
2.490464
0.900178
2.745542
4.510246
-1.654751
-7.747739
-8.735296
-6.835924
-10.674873
-15.020927
-9.085747
-6.840122
-6.760862
-0.814928
-1.576169
3.648034
18.198409
19.419535
15.875405
15.627582
13.139748
12.828333
11.378325
10.735385
13.906848
12.945710
13.344337
19.010182
17.737392
7.888452
1.186889
1.656123
5.516820
6.871678
0.679560
-5.057589
-3.002274
-0.538048
-3.134598
-7.587498
-8.657118
-7.245681
-3.833875
2.659612
4.576753
2.570775
1.468891
-1.330361
-2.373094
-3.208215
-5.732990
-1.580280
3.390720
-0.979416
-4.929885
-4.091720
-6.417532
-6.072912
-1.915527
-1.993379
0.642922
3.752428
-1.325880
-4.651877
1.453741
10.989399
12.827048
10.283571
15.106811
19.838870
20.146082
20.482052
18.575905
18.476310
16.893505
4.445440
-9.174651
-12.167253
-7.564717
-6.592352
-13.156441
-14.591954
-9.499847
-14.891677
-26.237154
-26.056192
-21.380478
-24.467769
-28.807277
-25.463038
-22.325476
-27.595030
-26.060149
-13.168799
-8.087680
-11.126574
-15.884580
-21.733951
-18.113130
-14.679581
-24.212895
-22.158750
-2.103852
4.195351
-6.345396
-11.457839
-12.220249
-14.892549
-12.962082
-6.655632
-1.775112
-0.930166
0.836877
5.674846
4.677470
5.326026
11.855752
7.649508
-1.780936
-2.654400
11.077218
31.450314
24.883653
-1.439345
-13.010202
-11.523249
-8.590026
-12.726365
-15.262127
-11.651827
-12.717940
-2.547523
3.904817
-6.694847
3.315887
11.834293
-3.294258
-7.731260
-10.245045
-21.377066
-25.697169
-22.931111
-14.277804
-8.864459
-12.515669
-18.538517
-21.706468
-21.897477
-21.798579
-13.625491
-5.944781
-11.725182
-17.140625
-15.995250
-9.274043
-13.213525
-25.627689
-13.152264
-9.793530
-26.439192
-14.774342
-2.232519
-5.545424
-2.633476
-10.227910
-20.687295
-15.688006
-14.790222
-21.028398
-7.848074
9.345145
-1.218280
-16.871238
-25.103237
-30.535514
-23.213449
-12.158342
0.563037
10.579850
5.839613
-4.867598
-15.432426
-13.609506
-4.005346
-10.602167
-14.849793
-4.064489
0.238787
-2.723656
-4.381510
-1.818622
4.772360
6.999749
14.586239
31.234244
25.062934
5.265451
8.974180
3.873428
-19.408569
-6.559770
9.629758
-23.264813
-59.623091
-67.834983
-57.088723
-37.100691
-17.360951
3.264646
2.207184
-8.451865
11.216099
26.872569
15.793855
-0.711528
1.400131
28.060737
24.097876
0.843000
13.012150
14.208961
-10.747491
-17.063288
-2.741566
5.769826
0.441589
8.657227
7.820236
-21.078974
-20.880478
-4.299807
-0.946684
7.586218
-6.366099
-37.235051
-53.011688
-62.112243
-55.274138
-39.029434
-28.235713
-13.055722
-10.752816
-16.963404
-3.414616
6.784792
1.942152
2.292617
6.207555
16.284921
26.513554
18.468125
1.394381
-9.746056
-2.998431
13.378135
15.634749
12.149068
18.026266
34.943372
44.034581
35.489060
37.833815
38.278033
17.348738
3.195823
6.555025
16.264394
-1.213586
-37.420830
-28.631921
-8.790246
-31.506920
-41.580774
-21.846646
-23.127385
-29.698722
-19.579506
-28.520378
-39.203742
-20.190177
-4.421016
-6.701706
-24.327913
-55.816427
-83.472069
-91.849490
-63.810649
-22.037622
2.352112
20.625942
17.153588
-9.670905
-11.114133
21.660973
45.760097
42.862416
44.318274
47.322338
40.730894
50.500116
43.138778
15.375121
27.179080
46.994804
42.857764
42.250127
39.518910
23.663718
-5.222867
-36.184402
-48.420414
-48.308656
-50.007892
-59.214358
-67.915354
-58.515065
-45.301776
-38.977090
-9.979212
37.461528
49.044315
21.000804
10.989373
21.258453
13.248795
11.759743
29.799777
24.150302
0.029441
-11.399268
-12.243274
-5.684556
2.541837
8.134738
15.039007
12.330235
-10.801898
-40.037308
-46.915387
-40.495779
-45.148576
-37.778582
-30.511693
-58.140916
-84.545976
-94.070874
-89.912553
-53.363492
-12.675751
7.195149
9.771130
0.191289
-9.965095
-24.931624
-23.790224
4.490598
19.344676
33.584101
73.732939
100.389337
93.806076
68.957404
28.395217
-10.763952
-23.556868
-21.308670
-25.450386
-33.215259
-37.052804
-40.634108
-49.085877
-57.878288
-60.642938
-56.213178
-44.943446
-29.155816
-8.321671
20.292077
52.305004
74.544504
75.142560
55.032491
22.898930
-8.798132
-24.894837
-25.453142
-23.996349
-18.508890
-5.055959
4.348538
14.447180
29.533419
39.236475
53.789890
58.568241
25.366928
-14.907454
-38.997921
-56.720687
-66.763679
-76.390980
-75.076803
-48.970530
-28.681835
-24.229163
-29.469025
-52.151332
-58.824137
-33.431179
-8.626924
11.671358
17.261920
-7.691493
-32.265687
-41.841553
-43.269584
-33.498024
-32.580134
-51.564703
-68.333341
-78.957554
-95.684811
-101.913401
-85.680854
-73.700145
-68.988659
-58.104693
-47.403555
-21.627171
14.939893
34.560396
50.042220
67.698592
75.403617
65.990241
38.657473
20.311404
14.916301
4.149706
2.169679
13.130799
32.941613
75.529190
124.101276
145.210132
147.633210
158.449141
181.142909
206.773639
225.187046
234.513222
243.581051
247.933190
246.857258
242.003629
211.059862
169.543316
154.780891
142.153036
113.546307
90.620617
79.436694
75.976263
59.234277
32.111459
40.127435
69.744641
82.325509
86.732590
85.205662
80.458178
84.732696
87.251396
80.364433
65.568576
39.272698
6.465801
-21.783686
-48.792645
-82.821600
-111.597833
-130.425290
-158.303039
-194.703167
-225.869275
-249.377120
-257.439616
-252.803881
-250.030575
-243.604187
-232.335156
-219.851549
-193.103502
-157.954185
-126.379160
-102.071957
-96.618166
-94.242316
-88.038970
-95.049378
-95.273587
-94.190636
-102.809803
-75.335583
-33.977311
-24.133041
-20.845615
-31.061618
-46.776064
-32.441250
-21.648932
-27.167246
-20.515010
-4.909274
5.750014
8.120487
7.699654
5.623070
25.323999
73.700630
91.970486
78.844643
71.823246
64.469623
71.272659
81.087704
61.807616
40.290788
31.443201
16.375905
11.255046
26.879720
16.434362
-7.245791
8.428682
31.996150
57.969626
96.513680
126.739460
159.492355
164.229091
119.986702
75.241181
54.832319
20.983154
-30.513497
-58.135706
-97.517918
-102.415500
-76.555182
-159.724348
-218.723085
-220.804346
-279.584483
-278.881218
-290.529463
-330.291127
-279.358858
-256.675143
-217.046270
-144.054060
-173.560909
-187.183104
-138.954466
-108.830154
-61.163097
-32.323266
-52.289784
-28.366944
19.183682
23.065654
48.655469
85.681944
80.697389
97.354044
142.282633
188.669650
244.564968
234.574345
147.665358
102.044501
103.289941
99.828575
103.962348
106.307337
101.623913
82.694286
87.875470
124.971851
80.083480
3.605358
-61.738170
-166.372029
-215.659295
-284.862582
-395.727372
-391.908057
-400.563229
-430.637036
-384.593468
-419.502904
-472.579323
-441.422795
-456.331343
-466.182154
-457.310714
-491.295716
-439.135310
-380.659104
-389.943892
-305.035971
-204.738110
-139.634454
-101.931603
-200.529985
-221.386569
-108.166500
-126.097813
-175.605082
-159.441038
-144.856996
-44.221532
84.527819
144.477415
207.522252
292.734344
417.398556
559.883496
602.657643
552.034459
484.315552
425.013579
405.230593
416.719393
410.144081
387.455228
384.315567
405.742388
427.527620
428.508870
410.014573
375.676070
336.641983
331.225604
364.276124
391.549279
387.463440
374.836052
371.792950
352.535306
322.523922
315.555597
320.016686
315.369266
304.452106
301.805757
306.107162
301.030023
296.190890
292.930823
281.683307
282.998653
290.764933
284.004220
284.063140
290.254328
281.457475
256.264186
216.326472
183.089154
157.344804
122.456644
89.740928
64.810894
58.332608
57.096057
39.510999
26.683948
13.924699
4.714258
-6.601527
-54.588413
-91.113856
-102.586986
-127.726502
-142.634114
-169.175479
-224.638266
-255.311529
-265.437286
-289.884762
-308.697490
-309.202724
-335.941413
-347.722688
-267.529756
-202.611735
-208.668484
-200.986838
-197.447846
-213.511353
-227.526093
-257.375221
-282.334012
-266.050731
-226.789855
-227.120442
-263.600995
-294.458725
-299.225381
-280.635924
-313.074123
-342.900572
-322.649284
-341.554830
-274.792382
-104.591477
11.032028
110.213740
120.337632
21.994789
-2.147114
47.018817
119.269189
168.648810
168.189869
209.920345
270.852124
295.698229
302.952493
266.878747
213.582325
184.114520
150.254834
121.070626
93.790228
26.463632
14.810945
104.529947
152.844622
199.880894
288.044208
287.365965
282.792893
329.151854
355.521149
386.627410
311.127262
121.925425
4.437860
-51.190222
-93.569948
-61.688415
78.547161
205.840189
202.228024
187.126126
198.747723
164.837303
114.778973
54.201871
44.116561
74.203933
49.902113
60.231746
92.758793
62.968349
25.292156
-26.022367
-19.575638
60.210486
31.999810
-18.312891
20.771468
-22.256812
-118.251863
-87.815197
-15.303440
-57.905507
-100.559478
-16.846026
62.016599
109.951120
114.266786
5.826941
6.026607
118.767158
104.840325
-11.359719
-121.145301
-84.592031
-19.472008
-109.723595
-126.613341
-89.565356
-162.240298
-209.203619
-211.716937
-253.260137
-337.690873
-357.758391
-356.033666
-459.605384
-381.478051
-63.454383
74.274185
-8.263027
-48.234173
-8.283362
21.546366
70.024466
141.670004
155.829704
142.715316
136.500520
149.840293
233.859084
278.553876
110.037486
-107.395137
-152.594224
-187.187333
-207.361229
-115.231543
-142.257803
-219.125198
-174.261136
-73.995306
52.636075
24.377704
-89.539777
-51.800921
-21.641072
-19.683718
88.827674
210.275302
202.494064
132.550108
165.640607
189.636859
181.573662
215.824262
144.896487
65.146840
65.430906
53.193259
55.615401
30.734933
44.989554
99.296921
21.958425
-71.293014
-81.694886
-44.085554
50.965896
129.706713
164.564719
176.523919
187.716966
209.176284
178.225738
98.467206
58.167106
122.498765
186.449801
114.507813
44.575547
50.278800
5.962765
-70.764819
-137.476762
-223.925870
-298.099218
-325.051131
-329.137437
-335.724438
-334.694325
-328.586135
-321.947459
-322.905791
-371.337360
-449.161686
-410.323048
-174.406175
-3.975214
-33.913652
12.173870
130.108227
202.700878
296.172092
342.274343
399.702670
439.379705
359.635435
347.091980
344.807316
369.884647
536.151445
477.999054
220.618194
149.265142
205.376488
235.882358
194.700141
82.656311
-58.012720
-135.707991
-111.384656
-166.613880
-266.951481
-281.018826
-354.342321
-403.692245
-366.704113
-422.490242
-426.257882
-328.627414
-314.053893
-317.879048
-325.721774
-369.016817
-373.737181
-344.869061
-301.496626
-292.191492
-265.690102
-184.110986
-185.125897
-165.460272
-95.105996
-125.604613
-96.228451
-36.198195
-107.435986
-137.635576
-102.891195
-77.765468
-41.993549
-43.712658
-18.749887
44.202835
54.744055
79.627100
115.092044
72.598458
-28.302126
-83.890463
6.142996
105.694810
76.081817
61.243642
119.339226
177.374256
236.960531
306.231858
376.862482
403.925687
386.244304
374.145064
338.307453
300.587774
313.113465
281.128365
128.145465
-23.063147
-27.614008
18.659149
9.920745
30.509169
59.800929
41.122635
6.428993
-44.834327
-80.833726
-124.517808
-138.451420
-10.643805
84.474277
30.638017
5.694891
52.684637
81.522597
102.961341
157.749629
147.488269
40.113605
51.070984
138.382341
72.881235
25.980103
77.178668
84.755338
160.664403
197.289916
79.954553
81.728609
121.625180
18.545137
-80.729387
-161.322341
-233.772838
-227.784586
-180.354366
-190.865421
-300.963589
-388.270266
-369.425736
-392.998342
-413.969721
-147.759735
133.753917
85.613660
63.471659
142.250819
152.433862
268.589957
393.287835
352.255716
116.746824
-176.864897
-186.583379
-110.322917
-127.557046
18.191470
205.673734
337.833485
357.150052
108.654891
-61.178479
33.179528
103.865561
72.323507
67.429198
90.559232
93.203248
81.439741
-61.746352
-157.597149
-130.143737
-326.730060
-269.052272
108.101529
28.101485
-151.222184
-188.440601
-307.838056
-275.097552
-287.679116
-367.760989
-314.741144
-268.746907
-203.300269
-192.009963
-214.612779
-170.529367
-193.087761
-232.413861
-261.378534
-241.056171
-97.166110
9.449654
44.072928
47.938067
54.950117
78.377774
-47.740651
-189.834443
-100.831562
27.613385
53.440036
57.560248
65.419346
80.978322
43.158812
0.827248
49.198268
30.075759
-18.173916
21.115951
-84.587063
-235.109246
-128.904732
58.101520
133.065576
123.079396
108.310893
137.797641
146.795565
161.200752
172.123997
147.879223
190.498831
253.399650
320.089153
347.697106
199.419142
22.569049
-101.647202
-139.186156
-97.163433
-188.722414
-252.763456
-256.456282
-342.640731
-225.562306
-81.741214
-165.938854
-163.536351
-138.995818
-207.973023
-174.823374
-129.839141
-84.186949
57.706250
83.188285
-13.932032
-46.880610
-41.760214
16.505808
96.334952
153.888827
241.535216
179.022506
