EVENT_NAME: 202302060117
EVENT_ID: 13194
EVENT_DATE_YYYYMMDD: 2023/02/06
EVENT_TIME_HHMMSS: 01:17:32.00000
EVENT_LATITUDE_DEGREE: 37.288
EVENT_LONGITUDE_DEGREE: 37.043
EVENT_DEPTH_KM: 8.6
HYPOCENTER_REFERENCE: AFAD
MAGNITUDE_W: 7.7
MAGNITUDE_W_REFERENCE: AFAD
MAGNITUDE_L: 
MAGNITUDE_L_REFERENCE: 
FOCAL_MECHANISM: 
NETWORK: TK
STATION_CODE: 0133
STATION_NAME: 
STATION_LATITUDE_DEGREE: 37.745495
STATION_LONGITUDE_DEGREE: 35.864025
STATION_ELEVATION_M: 546.0
LOCATION: Kahramanmaras_Pazarck_Turkiye
SENSOR_DEPTH_M: 
VS30_M/S: None
SITE_CLASSIFICATION_EC8: unknown
MORPHOLOGIC_CLASSIFICATION: 
EPICENTRAL_DISTANCE_KM: 115.76
EARTHQUAKE_BACKAZIMUTH_DEGREE: 
DATE_TIME_FIRST_SAMPLE_YYYYMMDD_HHMMSS: 2023/02/06 01:17:31.9995260
DATE_TIME_FIRST_SAMPLE_PRECISION: millisecond
SAMPLING_INTERVAL_S: 0.01
NDATA: 12501
DURATION_S: 
STREAM: HNE
UNITS: cm/s^2
INSTRUMENT: sensor = ACEBOX/SARA | digitizer = 
INSTRUMENT_ANALOG/DIGITAL: 
INSTRUMENTAL_FREQUENCY_HZ: 
INSTRUMENTAL_DAMPING: 
FULL_SCALE_G: 
N_BIT_DIGITAL_CONVERTER: 
PGA_CM/S^2: 74.146
TIME_PGA_S: 
BASELINE_CORRECTION: BASELINE REMOVED
FILTER_TYPE: BUTTERWORTH
FILTER_ORDER: 
LOW_CUT_FREQUENCY_HZ: 
HIGH_CUT_FREQUENCY_HZ: 
LATE/NORMAL_TRIGGERED: 
DATABASE_VERSION: 
HEADER_FORMAT: DYNA 1.2
DATA_TYPE: Acceleration
PROCESSING: Automatic Paolucci et al., 2011
DATA_TIMESTAMP_YYYYMMDD_HHMMSS: 
DATA_LICENSE: U (unknown license)
DATA_CITATION: Turkish Accelerometric Archive v 1.0 - Disaster And Emergency Management Presidency, Earthquake Department
DATA_CREATOR: AFAD
ORIGINAL_DATA_MEDIATOR_CITATION: : AFAD - Disaster And Emergency Management Presidency
ORIGINAL_DATA_MEDIATOR: AFAD PROCESS SERVICE
ORIGINAL_DATA_CREATOR_CITATION: AFAD PROCESS SERVICE
ORIGINAL_DATA_CREATOR: network: TK
USER1: GuestUser
USER2: 
USER3: 
USER4: 
USER5: 
[...]
-12.582724
-17.423494
-19.475063
-19.974451
-20.314390
-22.379987
-25.133181
-25.267144
-22.355664
-16.703146
-9.184457
-3.193400
1.088132
5.182392
7.149097
6.496571
4.244872
0.294870
-3.481655
-5.480619
-6.011804
-4.837906
-2.384669
-0.237238
0.278287
-0.174576
0.534534
2.735036
5.902524
10.115319
15.544094
22.361625
29.025083
32.709029
30.591296
21.936357
11.104298
2.339943
-3.972114
-7.430207
-8.715154
-10.377216
-12.821798
-14.797616
-16.929144
-20.152036
-22.157547
-21.396067
-19.455781
-16.159237
-10.942984
-5.528705
-2.016366
-1.169082
-0.592068
0.317639
-0.869113
-2.210873
-1.834223
-1.570965
-0.961453
0.235357
0.272533
-0.192487
0.384293
1.761829
3.245743
4.515264
5.565952
6.877323
8.698840
10.572727
11.495527
10.525505
7.435175
2.219161
-3.855591
-7.848145
-8.143662
-5.736249
-2.341511
0.986362
2.490148
0.527657
-4.527038
-11.775686
-18.446153
-21.846265
-23.019223
-21.557286
-17.008524
-12.866102
-9.974963
-6.376119
-2.605668
0.927245
5.468993
10.135355
13.237613
15.456819
17.408327
18.970096
19.623795
18.283438
14.901095
9.026708
1.472253
-4.828114
-9.759129
-13.583115
-14.948956
-13.989450
-10.927405
-5.358118
2.709059
11.512698
17.610600
18.844351
15.315651
9.210272
3.779398
2.834158
7.480179
12.641958
15.213263
15.528190
12.028247
7.357448
5.048936
2.916240
-0.328864
-4.374022
-9.807234
-16.274765
-21.747723
-22.778767
-18.022393
-10.365530
-3.969536
0.257054
3.786460
5.031432
3.378488
1.721569
0.067456
-1.732780
-2.275422
-2.462457
-2.453570
-2.039980
-1.613766
0.399933
3.765914
6.096174
7.224014
7.938969
8.566249
9.622314
11.185719
13.060307
15.448549
18.466874
22.352587
26.621026
28.656234
27.145204
22.818087
14.741563
3.562549
-6.828334
-14.877972
-20.673804
-23.371120
-24.254404
-25.001851
-24.517421
-22.053429
-17.740569
-11.265083
-3.778893
1.999175
4.886808
6.848369
9.153145
11.384742
14.000469
15.463574
14.180030
11.705288
8.135908
2.698253
-3.866070
-10.100506
-13.538960
-13.172363
-10.571132
-7.492254
-4.461537
-1.719561
0.076940
1.348332
2.738960
4.300962
5.484213
5.222128
4.342118
2.817061
-0.865010
-5.498402
-10.008583
-13.390224
-13.288286
-9.569504
-2.920307
5.467406
13.119125
18.997726
22.692193
23.025590
18.678366
10.483073
1.879336
-5.548167
-10.806499
-10.895340
-6.011780
-0.052987
4.095281
5.457152
5.276897
5.617776
6.038613
5.060642
2.479055
-1.390522
-5.655449
-9.600775
-12.927474
-14.533191
-14.451828
-13.634938
-11.875611
-10.319921
-10.739351
-12.465240
-14.592793
-16.622618
-17.456805
-16.677088
-13.762335
-8.324209
-1.080699
8.166686
18.755834
28.015144
35.394957
41.062205
42.454002
37.086253
25.889705
12.288084
-0.281089
-8.415828
-10.858306
-9.816269
-6.510140
-2.584915
-0.447304
2.185723
6.306636
8.307475
7.570549
5.287988
1.673719
-1.681737
-3.126835
-1.898462
2.016475
6.628129
9.471574
9.964421
8.991593
7.874512
6.543272
2.470293
-5.744639
-16.846734
-28.247855
-34.652261
-32.491271
-24.375230
-13.315214
-1.590279
6.756987
9.981054
9.072286
4.990422
-0.361662
-3.978971
-4.190322
-1.925291
1.402114
4.696787
5.652319
3.125674
-1.193260
-5.695024
-9.465938
-11.650069
-12.004036
-10.112146
-6.224329
-2.134277
1.116442
3.499073
5.176804
6.854068
8.370246
8.404383
6.173725
2.190524
-2.190367
-5.451369
-6.481711
-6.417648
-7.188242
-8.044872
-8.349742
-9.027517
-10.160263
-11.183825
-10.711786
-7.987110
-3.947091
0.707581
3.926504
3.595450
1.454103
-0.214506
-0.877786
-0.260325
0.257538
-1.137528
-2.746284
-2.294585
-1.146872
0.110258
3.349522
7.835860
12.090037
16.226848
18.470603
17.308399
14.826176
13.878131
14.940742
15.890662
14.790648
11.898111
8.201545
4.421046
1.442003
-1.155014
-5.108524
-9.579193
-13.346599
-17.633036
-20.952721
-21.319547
-20.305565
-18.323430
-15.185634
-12.596561
-11.118492
-8.932719
-4.552057
1.143714
7.149267
12.238802
13.443795
10.165025
4.826033
-0.870669
-4.914658
-4.730657
-0.985222
3.662903
7.720457
9.461080
8.978993
9.156915
10.427839
11.252211
10.435326
6.088569
-1.293811
-7.455302
-9.504766
-8.419243
-6.174085
-3.902976
-2.225011
-1.464232
-1.801365
-2.859763
-4.418487
-6.639559
-7.910478
-6.939516
-5.417727
-4.137919
-2.012933
0.676440
3.270656
5.282250
5.321063
3.710436
2.627957
2.755613
3.140913
1.685995
-3.672869
-11.798959
-19.689380
-25.698903
-28.816820
-28.714882
-26.712407
-23.641243
-18.879258
-12.958574
-8.056310
-4.639127
-1.109721
2.560197
5.034242
5.919167
5.181071
3.212735
1.123291
0.140176
0.920126
1.522858
-0.534556
-3.797428
-5.589014
-5.564229
-4.468653
-4.245842
-5.960742
-6.416878
-3.602892
0.065389
3.470181
6.382129
7.477004
7.799413
8.888443
10.045040
11.057385
12.811100
14.973727
16.035169
14.850989
9.893086
0.997804
-8.040094
-14.773687
-19.832122
-22.676731
-24.061744
-25.273513
-23.946711
-18.804571
-12.009018
-5.851730
-2.646835
-3.697050
-7.797618
-13.036077
-18.440532
-23.089588
-24.580979
-21.550029
-15.315354
-6.257345
4.913491
14.639927
21.349677
26.141589
27.778639
24.396764
18.000074
11.371690
5.974248
4.609342
6.900792
8.978551
10.548969
11.264391
10.480705
10.996932
12.296613
12.061883
11.084379
8.804391
4.886419
2.402091
3.929491
8.726078
14.271050
18.664571
20.559500
18.644235
12.356027
1.991796
-11.794525
-26.268443
-36.949235
-43.238379
-46.361908
-45.827913
-44.291629
-43.518225
-40.731827
-35.535914
-29.039153
-21.780213
-15.479375
-10.083098
-3.352539
6.405459
17.756085
27.086469
33.639575
37.452811
37.908718
36.989663
34.881515
29.816300
22.709801
14.384283
6.028371
-0.194141
-4.289565
-6.555760
-6.893828
-5.202303
-1.630813
1.183641
1.685138
1.432172
1.138291
1.054828
2.093825
4.434840
6.914028
7.094522
3.915116
-0.812496
-5.094023
-7.614122
-6.769410
-2.205451
3.394464
6.564757
7.026041
6.110494
2.744984
-3.855578
-11.383613
-18.547627
-25.455398
-30.179737
-31.644007
-30.680059
-26.543481
-18.964707
-9.949949
-0.699992
8.467435
16.231377
22.110445
27.367613
31.608698
33.305835
32.353815
27.683249
18.830986
8.908632
-0.027097
-7.764381
-12.396838
-13.050766
-11.138069
-7.493634
-3.733237
-2.440336
-2.878469
-2.956088
-4.072701
-6.444572
-7.035375
-5.974167
-3.589900
2.678441
11.165518
17.562681
20.718946
19.756873
13.629049
4.544625
-5.279300
-15.342399
-22.379227
-25.374869
-27.618151
-28.705540
-27.140966
-22.042079
-14.286320
-7.985014
-1.163275
5.499482
4.618770
-0.069798
-2.965608
-5.044064
-2.902712
4.076840
11.310530
17.714005
21.937088
21.690668
18.846527
15.806229
12.699767
11.084465
12.240594
14.416080
15.688407
14.909631
12.142409
8.677302
5.057655
2.095446
0.123837
-2.778988
-7.278881
-12.851671
-19.521437
-24.060374
-23.359214
-18.900932
-12.017002
-3.665294
4.860593
12.285061
15.267382
13.113644
7.565403
-1.407967
-11.706968
-20.114783
-24.908560
-24.151054
-17.879908
-9.074165
-1.454476
2.458124
3.325981
3.110189
2.435920
2.173602
2.481048
2.784285
4.322440
6.291249
7.131285
7.940460
7.917784
7.587898
10.398611
15.867132
21.513104
26.031706
26.647998
21.213383
11.559897
-0.661385
-13.652328
-24.574866
-33.819208
-37.281041
-31.177995
-21.542740
-10.358110
1.087437
10.316587
21.842093
30.997129
30.835577
25.869024
17.847676
7.820114
-0.203104
-5.799507
-9.218556
-10.771435
-11.110672
-10.583691
-9.843720
-8.581212
-5.933456
-2.195971
-0.111666
-1.971988
-7.565585
-16.938281
-28.065158
-35.088893
-34.100396
-26.923519
-17.369625
-5.509088
8.150052
17.800738
21.960929
24.446664
23.586760
18.675617
14.943982
12.682463
9.164518
5.806958
3.386691
1.192272
-0.295611
-1.960713
-5.597193
-10.463915
-13.918734
-14.192509
-11.100070
-5.140575
1.962656
6.808106
7.558130
5.931372
2.930118
-2.361646
-7.477830
-9.534542
-11.011670
-13.856046
-16.489302
-17.947727
-17.886002
-15.463626
-9.107144
0.652959
9.544272
15.536498
19.102610
19.234942
16.878034
15.016543
14.560874
15.532304
17.674357
18.855503
17.148786
12.509549
5.496569
-1.464041
-4.973803
-5.327536
-3.008265
3.326708
10.415444
14.427875
15.658586
13.313836
7.522680
1.140251
-4.666336
-9.692741
-13.258614
-14.735509
-14.179303
-12.800832
-11.395474
-10.491144
-10.695247
-10.962007
-9.724983
-5.893745
1.717995
11.480436
19.779306
25.625409
28.736551
28.852751
27.124992
23.571042
18.433817
12.435517
5.443578
0.134746
-1.452969
-2.081647
-3.591975
-6.284382
-11.055948
-16.516515
-19.869399
-19.041053
-13.615317
-5.054360
6.173990
17.920200
25.392130
28.619703
29.331151
25.443105
17.272360
7.681064
-2.953670
-13.586066
-20.903918
-24.292807
-25.920034
-26.810565
-27.641478
-28.826126
-29.265195
-28.300545
-25.392339
-20.426716
-15.178433
-9.700561
-3.143012
2.300959
5.554017
8.057287
9.634252
9.857998
9.258077
7.701691
5.649888
4.697868
6.231113
9.953168
13.504083
14.926274
13.609530
10.243787
7.073733
4.983588
3.397042
2.817928
3.889424
6.456754
9.532593
12.045214
13.498501
13.678059
13.433977
12.567995
9.815970
6.907066
4.992503
2.236269
-1.495600
-5.649006
-10.364461
-13.905084
-14.406811
-11.880395
-7.897422
-5.794647
-8.075571
-13.750062
-20.581850
-27.471385
-33.235888
-36.474679
-36.905799
-34.116829
-28.065218
-20.709954
-13.597839
-7.018781
-1.613854
1.853830
3.639108
5.307722
8.693108
15.163918
24.004496
32.106509
37.189264
38.486841
36.138584
31.928599
28.148801
24.629219
19.696333
14.173577
8.258742
1.302574
-4.558019
-9.552160
-13.323308
-12.774817
-10.525685
-8.803064
-6.330890
-5.274357
-6.406168
-7.240120
-6.113215
-2.823685
2.475333
10.219402
17.577472
21.427647
22.790688
21.170008
16.955113
13.369367
10.244201
6.065077
0.325591
-7.167375
-16.285233
-26.308820
-32.952869
-32.996119
-27.946329
-19.397997
-10.450340
-4.004547
0.835994
4.220913
5.974161
6.715301
5.714651
3.431156
1.447155
0.267182
0.095577
0.615311
1.333773
2.809269
5.183249
6.694050
5.474098
1.518484
-4.104337
-9.769009
-13.265211
-13.068819
-9.132606
-3.765553
0.335487
3.010364
4.586160
6.626979
10.603872
14.835839
20.151690
25.911756
27.851340
28.085140
27.466748
22.660814
15.950368
8.353362
-1.904491
-12.751747
-22.118130
-29.556388
-33.549175
-32.913712
-30.115624
-27.050773
-21.619192
-14.439276
-8.031826
-2.799674
-0.670013
-3.556705
-9.258083
-13.382030
-14.534882
-14.375664
-12.577761
-8.708413
-4.845145
-1.677657
1.768283
4.845525
6.440726
7.985193
10.901349
14.425144
18.221546
21.229117
21.935888
21.795846
22.108903
22.167822
21.233571
18.780105
16.320326
15.851331
16.356102
16.777407
17.381074
17.526732
17.283819
17.782043
17.964641
16.095201
12.998792
9.755325
6.839408
5.539264
5.985351
6.531037
5.524776
2.853410
0.059536
-1.210449
-0.299806
1.532232
2.829341
2.006611
-3.615977
-11.808231
-18.378633
-24.284115
-28.665708
-29.128156
-27.905862
-25.434622
-19.065749
-11.170413
-6.397439
-4.377896
-5.212082
-11.471300
-21.221345
-31.674184
-41.800643
-48.705141
-50.268775
-45.217817
-32.412270
-13.826321
6.550516
26.026298
42.877940
52.696726
53.061920
48.204550
38.864586
23.351672
8.225927
-1.269747
-8.563985
-15.419386
-19.853349
-23.328977
-29.185362
-37.328519
-45.220109
-48.389696
-42.993887
-31.707789
-17.867924
-2.702428
7.439232
9.245085
7.464020
4.935271
3.603096
5.626848
10.362180
18.038448
27.514254
35.671676
41.539289
44.621207
44.947123
42.086382
35.655556
29.301651
25.274495
22.640771
22.269036
23.045479
21.202458
16.404473
10.555569
4.200494
-2.662856
-10.647264
-19.922701
-28.159610
-33.254283
-34.070000
-29.484532
-20.322482
-9.319279
0.149747
6.492669
8.997108
7.259061
5.267578
4.113557
0.649152
-2.360284
-3.657623
-5.501112
-5.374859
-3.140222
-2.951779
-6.541500
-12.759570
-18.955429
-23.111173
-23.674855
-20.243177
-14.805050
-8.458387
-2.496554
1.053893
3.866944
8.790016
14.831106
19.269516
22.057317
23.652518
21.387258
14.721233
7.298640
0.021936
-9.164891
-19.933357
-29.640617
-36.172910
-37.432374
-30.643600
-16.513125
0.586810
18.444247
34.988913
45.272488
47.624023
44.007884
35.037552
22.121893
9.071332
-1.518279
-10.025224
-15.579076
-14.870434
-8.776272
-0.518083
9.656777
19.631038
25.016794
24.495429
20.072922
14.722240
10.677550
9.154129
9.419258
9.151329
7.435025
4.578259
0.451973
-4.274704
-8.519057
-12.455733
-14.731045
-14.399752
-14.151691
-14.454222
-16.914234
-23.782027
-27.622144
-24.775660
-20.210766
-13.324733
-4.741098
0.826319
1.614218
-1.609142
-5.114462
-6.931532
-6.304018
-1.483818
5.848067
14.714597
23.149771
26.902921
26.382490
22.510109
17.084612
14.635120
15.459024
17.807286
21.076710
24.846225
28.407895
29.310823
26.376670
20.203489
11.106440
1.289295
-6.121842
-10.173780
-12.261354
-14.238341
-16.195455
-16.868789
-16.096320
-14.633449
-11.428086
-6.307923
-2.457981
-2.209219
-6.944312
-16.877187
-28.779569
-39.482572
-46.095057
-46.554467
-42.531281
-35.795345
-27.019763
-17.340787
-9.568429
-7.033362
-8.489917
-13.733754
-24.328742
-33.878656
-37.299809
-37.165607
-34.378040
-29.373841
-24.248535
-20.116166
-17.409259
-16.475470
-17.917529
-19.852433
-20.429208
-20.285888
-16.936272
-9.774592
-1.481801
10.223729
25.728699
41.210756
55.105096
65.896713
72.361443
74.145552
72.575606
69.458857
63.172285
53.551062
41.537392
28.505301
15.113163
-0.199153
-11.618277
-19.483448
-26.997222
-23.847737
-17.772279
-17.471613
-10.820780
-5.785720
-7.239235
-4.056083
-3.593863
-8.055881
-11.713170
-17.461541
-22.835836
-26.910218
-32.115011
-38.196075
-45.424617
-51.511994
-56.545880
-61.048112
-61.251747
-55.568600
-44.287179
-30.745171
-17.105904
-2.521628
7.985457
14.525003
22.583763
29.846210
34.203025
35.116941
32.441835
27.490946
21.488905
18.276533
16.772050
16.877028
18.430613
15.922438
19.807450
32.324256
41.139351
54.283202
67.257082
67.838304
66.267189
57.680285
36.746314
16.507657
-3.397840
-25.886329
-43.803614
-52.014338
-53.685050
-50.325849
-37.046629
-23.080046
-12.613875
-1.267925
1.350840
4.476244
10.453508
2.435667
-3.427733
-5.845895
-16.745989
-19.226108
-20.338747
-26.959415
-26.565231
-27.303794
-25.107968
-12.454156
-1.606662
8.001941
17.445015
21.171044
22.191572
20.058174
14.583112
8.985774
0.978688
-7.881291
-13.324323
-17.422553
-21.887377
-26.261955
-29.624425
-30.914282
-30.748283
-28.349053
-24.586552
-19.984718
-11.217552
-3.049374
0.253482
5.559981
11.459390
11.942184
13.593028
19.510907
22.820778
24.456659
29.347467
34.951356
38.301907
39.214186
37.761840
34.840546
31.931175
31.968585
34.782103
36.110776
34.826997
30.460368
22.222992
13.469624
7.160374
3.813802
3.352522
2.708180
-1.844318
-9.911958
-18.942375
-27.056307
-32.367009
-33.039174
-29.271763
-23.315541
-16.510402
-9.878974
-5.801781
-3.920412
-1.293697
2.289950
5.821460
9.630955
13.562492
17.622852
21.686484
23.328913
20.940676
14.362558
4.062856
-5.509269
-10.533336
-10.790043
-5.687415
2.500167
9.347858
12.867444
12.653054
9.892613
5.605241
-0.273589
-7.557073
-14.940388
-19.354011
-19.408483
-15.042317
-7.028445
0.765656
6.084313
7.285566
3.432121
-0.858991
-3.959374
-7.314596
-8.496907
-8.437052
-11.724473
-19.126258
-26.378413
-29.274925
-28.857127
-25.781756
-19.564383
-13.623358
-8.794273
-3.081201
2.516376
7.034511
9.867201
9.113441
3.691918
-5.395545
-14.928159
-21.673441
-24.562238
-24.616243
-23.889598
-23.842603
-25.802055
-29.447654
-32.057296
-33.547751
-34.323722
-31.710100
-25.560294
-17.692079
-8.589414
-0.650124
4.422812
9.777005
17.813555
27.286087
36.841618
44.226808
47.615936
47.747800
44.275445
37.323018
27.621369
13.937919
-1.587853
-14.033581
-20.051052
-18.637278
-13.690359
-9.618544
-8.243580
-11.034181
-15.124462
-16.275911
-14.894401
-11.258150
-4.230903
5.345903
14.549803
19.887163
20.108805
16.254192
10.093403
3.083462
-4.395711
-10.641135
-13.114473
-10.680408
-3.852122
3.816664
9.080846
11.382348
11.192741
11.061116
12.087956
12.444031
11.545551
10.098816
10.160073
12.265186
13.309561
11.611728
6.998442
0.111712
-5.353062
-7.004370
-6.696924
-5.938016
-4.161622
-2.291709
-2.381017
-5.460592
-11.923915
-19.024570
-21.998469
-19.538685
-12.618751
-2.600536
8.597654
20.230239
31.693088
41.173569
46.924751
48.356060
46.545069
42.505756
35.797179
26.416768
15.563667
4.959327
-3.500858
-9.053541
-12.459965
-14.416144
-14.658122
-13.495913
-11.904453
-9.508028
-7.078638
-6.632083
-6.758098
-6.400853
-7.152743
-8.621688
-11.032603
-15.838538
-21.293961
-25.720909
-29.642622
-31.555549
-29.261528
-23.435064
-13.407263
1.991562
18.109782
31.701588
44.340203
53.816944
57.769991
56.554014
49.029251
37.668577
26.684550
16.982901
11.679446
12.926055
17.888872
23.609894
26.825778
25.418788
18.851192
5.674848
-10.776996
-25.116715
-37.235360
-46.265309
-49.471135
-46.675619
-38.452966
-26.739487
-15.082821
-5.773011
1.124946
7.704237
15.062774
21.278745
24.601006
23.830413
17.808031
8.821101
0.865684
-5.645100
-11.485587
-15.411509
-16.868063
-16.060057
-12.601025
-7.965290
-5.060590
-4.748235
-6.118986
-8.377465
-10.407524
-10.866933
-9.023440
-3.938347
4.390216
14.344604
24.854261
34.275125
40.440127
42.551552
40.365550
34.265548
24.410528
11.945864
-0.678485
-12.751540
-21.846952
-26.426571
-29.389481
-30.710199
-30.000622
-28.303485
-24.323786
-19.739954
-16.420031
-12.843164
-9.434398
-7.094318
-5.207572
-3.485653
-2.160721
-0.053504
5.493572
13.799924
21.669308
27.804619
31.972992
33.984119
34.317282
34.812234
35.519005
33.809716
30.288965
26.341067
21.077358
15.783956
10.554381
4.297034
0.040289
-2.235958
-6.822591
-13.040660
-18.577445
-23.514773
-25.858121
-23.313001
-16.623825
-9.162885
-4.255711
-0.722331
3.224637
6.123725
7.987092
9.720467
10.657295
10.180585
8.084829
5.294695
3.357453
3.196837
4.675139
6.166534
6.730923
6.621275
6.057826
6.196938
8.258097
12.124404
17.042332
21.500147
23.444174
22.371514
19.000628
13.783444
8.649960
5.960826
5.361139
5.107237
3.972388
1.706895
-1.715895
-6.411009
-11.096070
-14.607469
-17.443661
-19.485410
-18.836620
-14.631307
-8.953070
-2.986094
4.069209
10.753942
14.445136
13.840539
7.870060
-2.496976
-12.846944
-19.435115
-22.288141
-23.580336
-24.709107
-25.239590
-24.368225
-20.921818
-13.593206
-4.265160
3.999108
10.941252
16.575535
20.095589
21.199582
19.568615
15.899403
12.017436
8.999817
7.672552
8.563790
9.926596
10.050979
10.474622
11.548221
9.899252
5.440506
1.448654
-2.302387
-5.213628
-4.235418
-1.354799
1.495659
6.247825
10.806874
12.101880
10.809684
6.967930
1.373865
-3.039523
-5.284208
-5.673946
-4.666043
-3.977508
-3.978441
-4.523654
-6.808552
-8.708386
-8.409825
-8.256218
-6.908374
-2.620062
1.142440
3.309275
6.000986
9.556109
12.290371
12.697414
11.873749
10.949550
9.548873
7.866471
5.520084
2.099165
-1.764099
-6.500829
-11.605556
-14.707810
-16.408449
-18.103944
