EVENT_NAME: 202302060117
EVENT_ID: 13194
EVENT_DATE_YYYYMMDD: 2023/02/06
EVENT_TIME_HHMMSS: 01:17:32.00000
EVENT_LATITUDE_DEGREE: 37.288
EVENT_LONGITUDE_DEGREE: 37.043
EVENT_DEPTH_KM: 8.6
HYPOCENTER_REFERENCE: AFAD
MAGNITUDE_W: 7.7
MAGNITUDE_W_REFERENCE: AFAD
MAGNITUDE_L: 
MAGNITUDE_L_REFERENCE: 
FOCAL_MECHANISM: 
NETWORK: TK
STATION_CODE: 2411
STATION_NAME: 
STATION_LATITUDE_DEGREE: 39.97017
STATION_LONGITUDE_DEGREE: 40.02086
STATION_ELEVATION_M: 1732.0
LOCATION: Kahramanmaras_Pazarck_Turkiye
SENSOR_DEPTH_M: 
VS30_M/S: 284
SITE_CLASSIFICATION_EC8: C
MORPHOLOGIC_CLASSIFICATION: 
EPICENTRAL_DISTANCE_KM: 394.74
EARTHQUAKE_BACKAZIMUTH_DEGREE: 
DATE_TIME_FIRST_SAMPLE_YYYYMMDD_HHMMSS: 2023/02/06 01:18:02.3089390
DATE_TIME_FIRST_SAMPLE_PRECISION: millisecond
SAMPLING_INTERVAL_S: 0.01
NDATA: 21001
DURATION_S: 
STREAM: HNE
UNITS: cm/s^2
INSTRUMENT: sensor = CMG-5T/GURALP | digitizer = 
INSTRUMENT_ANALOG/DIGITAL: 
INSTRUMENTAL_FREQUENCY_HZ: 
INSTRUMENTAL_DAMPING: 
FULL_SCALE_G: 
N_BIT_DIGITAL_CONVERTER: 
PGA_CM/S^2: 109.414
TIME_PGA_S: 
BASELINE_CORRECTION: BASELINE REMOVED
FILTER_TYPE: BUTTERWORTH
FILTER_ORDER: 
LOW_CUT_FREQUENCY_HZ: 
HIGH_CUT_FREQUENCY_HZ: 
LATE/NORMAL_TRIGGERED: 
DATABASE_VERSION: 
HEADER_FORMAT: DYNA 1.2
DATA_TYPE: Acceleration
PROCESSING: Automatic Paolucci et al., 2011
DATA_TIMESTAMP_YYYYMMDD_HHMMSS: 
DATA_LICENSE: U (unknown license)
DATA_CITATION: Turkish Accelerometric Archive v 1.0 - Disaster And Emergency Management Presidency, Earthquake Department
DATA_CREATOR: AFAD
ORIGINAL_DATA_MEDIATOR_CITATION: : AFAD - Disaster And Emergency Management Presidency
ORIGINAL_DATA_MEDIATOR: AFAD PROCESS SERVICE
ORIGINAL_DATA_CREATOR_CITATION: AFAD PROCESS SERVICE
ORIGINAL_DATA_CREATOR: network: TK
USER1: GuestUser
USER2: 
USER3: 
USER4: 
USER5: 
[...]
0.078078
0.134313
0.182469
0.227716
0.263591
0.286861
0.295265
0.288802
0.270381
0.238709
0.205421
0.172780
0.144340
0.117516
0.097479
0.084552
0.082937
0.088432
0.104915
0.139820
0.196702
0.256493
0.308204
0.357975
0.399021
0.442329
0.472710
0.483052
0.487578
0.490810
0.492750
0.487903
0.473360
0.453323
0.423914
0.368973
0.295286
0.224832
0.159872
0.089094
0.015731
-0.058278
-0.132288
-0.208883
-0.287740
-0.361426
-0.426709
-0.482944
-0.536269
-0.586362
-0.619650
-0.635486
-0.638717
-0.630636
-0.609628
-0.580541
-0.550160
-0.514932
-0.476149
-0.439304
-0.412156
-0.385977
-0.354304
-0.318752
-0.285140
-0.249588
-0.215976
-0.185596
-0.149721
-0.114170
-0.080557
-0.050177
-0.019796
0.003474
0.019634
0.026745
0.029977
0.029655
0.021576
-0.003632
-0.042091
-0.095416
-0.165224
-0.247960
-0.336512
-0.424096
-0.507801
-0.582780
-0.651295
-0.708176
-0.749543
-0.772812
-0.775720
-0.761822
-0.731765
-0.683932
-0.622526
-0.543990
-0.454466
-0.355893
-0.250856
-0.143880
-0.038520
0.066840
0.172201
0.269804
0.365146
0.454669
0.537083
0.605923
0.661835
0.706436
0.732938
0.735201
0.720012
0.691896
0.661517
0.629198
0.605606
0.591064
0.582338
0.582016
0.589127
0.600116
0.618861
0.643425
0.672189
0.713558
0.763006
0.824413
0.895515
0.971788
1.047738
1.132091
1.214182
1.290778
1.357679
1.416823
1.466595
1.506994
1.537698
1.557413
1.567756
1.578422
1.582301
1.581332
1.576485
1.572284
1.565821
1.559681
1.553541
1.543523
1.534798
1.528335
1.520256
1.511207
1.498280
1.477920
1.451419
1.414254
1.374502
1.327640
1.274638
1.212264
1.141486
1.058751
0.968905
0.876797
0.782750
0.693551
0.612431
0.543593
0.485096
0.441466
0.414966
0.404301
0.403332
0.413675
0.432744
0.460216
0.498029
0.539075
0.586261
0.633771
0.680634
0.728790
0.779854
0.831565
0.887477
0.948561
1.015461
1.095290
1.179643
1.265288
1.342531
1.410401
1.464051
1.494755
1.509945
1.509300
1.498312
1.474397
1.435615
1.384229
1.315390
1.228453
1.129558
1.022261
0.910115
0.802171
0.706831
0.624742
0.562690
0.520676
0.497731
0.493530
0.503550
0.519387
0.542657
0.569805
0.599540
0.635091
0.669996
0.707487
0.741099
0.770510
0.794750
0.812203
0.825454
0.836443
0.848402
0.859714
0.872319
0.879107
0.881370
0.884279
0.883311
0.880726
0.876525
0.864891
0.850995
0.836452
0.823525
0.807366
0.791208
0.781189
0.773757
0.771818
0.773435
0.775698
0.776992
0.773114
0.763096
0.751462
0.740474
0.726901
0.712035
0.691998
0.664205
0.620898
0.561432
0.483221
0.388851
0.280260
0.164560
0.045304
-0.075245
-0.199025
-0.328946
-0.465331
-0.605594
-0.749412
-0.894523
-1.035109
-1.170525
-1.296891
-1.416146
-1.523444
-1.623309
-1.709923
-1.781670
-1.836934
-1.878302
-1.893814
-1.886380
-1.854707
-1.801703
-1.720905
-1.611990
-1.478836
-1.333077
-1.179562
-1.023461
-0.875763
-0.733236
-0.603960
-0.494722
-0.411985
-0.354456
-0.326985
-0.326338
-0.353808
-0.407780
-0.487930
-0.589410
-0.707050
-0.833093
-0.965599
-1.102630
-1.229966
-1.344374
-1.436482
-1.504028
-1.548627
-1.564139
-1.554120
-1.514367
-1.443588
-1.346631
-1.225757
-1.078383
-0.912586
-0.742265
-0.575499
-0.418752
-0.285921
-0.177975
-0.095885
-0.043527
-0.027044
-0.048374
-0.108163
-0.209967
-0.344736
-0.509238
-0.695070
-0.895123
-1.098085
-1.297491
-1.484617
-1.658815
-1.812652
-1.943865
-2.052456
-2.128728
-2.163955
-2.159106
-2.112889
-2.024012
-1.896675
-1.732494
-1.531470
-1.305884
-1.069310
-0.837583
-0.626540
-0.439090
-0.271031
-0.129474
-0.009893
0.085771
0.151056
0.179820
0.169156
0.120355
0.039882
-0.070648
-0.207356
-0.361839
-0.532482
-0.703448
-0.865365
-1.015323
-1.143628
-1.246402
-1.320411
-1.365657
-1.373413
-1.346910
-1.292291
-1.214402
-1.115182
-0.998834
-0.869557
-0.729939
-0.584181
-0.438745
-0.298157
-0.164680
-0.044776
0.057029
0.135241
0.192446
0.224443
0.234462
0.220889
0.194388
0.158192
0.118117
0.078689
0.037322
-0.006954
-0.054139
-0.101647
-0.150448
-0.205066
-0.261623
-0.317534
-0.366981
-0.398330
-0.404147
-0.390249
-0.363747
-0.331427
-0.303309
-0.288118
-0.284239
-0.286501
-0.296842
-0.308153
-0.323019
-0.347581
-0.373112
-0.402521
-0.437425
-0.480408
-0.531148
-0.579626
-0.622609
-0.655573
-0.682397
-0.706636
-0.729258
-0.753820
-0.780644
-0.811346
-0.845603
-0.892788
-0.953224
-1.025940
-1.100919
-1.176221
-1.246353
-1.310990
-1.360113
-1.397279
-1.429274
-1.454482
-1.476782
-1.495526
-1.507483
-1.512330
-1.506835
-1.489705
-1.458032
-1.408261
-1.347177
-1.273813
-1.193338
-1.106723
-1.021400
-0.941895
-0.875641
-0.825869
-0.798074
-0.794842
-0.822312
-0.867558
-0.926377
-0.996185
-1.072780
-1.155516
-1.248916
-1.349104
-1.446706
-1.539461
-1.631569
-1.723677
-1.819986
-1.906277
-1.978670
-2.042338
-2.095017
-2.140262
-2.170964
-2.187446
-2.187122
-2.185829
-2.188737
-2.203603
-2.227195
-2.262745
-2.302173
-2.348388
-2.406562
-2.474430
-2.541976
-2.600472
-2.648950
-2.694842
-2.747521
-2.801170
-2.848678
-2.877117
-2.879056
-2.857401
-2.819911
-2.774017
-2.724569
-2.664132
-2.596908
-2.530330
-2.473772
-2.418829
-2.368411
-2.316700
-2.265959
-2.200674
-2.139914
-2.089819
-2.056853
-2.035522
-2.014514
-1.999646
-2.000292
-2.024854
-2.054909
-2.070099
-2.065896
-2.053938
-2.041009
-2.042948
-2.062985
-2.109846
-2.174807
-2.244291
-2.309575
-2.388432
-2.474722
-2.569093
-2.657323
-2.733917
-2.795646
-2.839275
-2.873210
-2.892277
-2.888721
-2.871268
-2.832485
-2.783683
-2.719691
-2.627581
-2.513495
-2.386804
-2.260437
-2.114355
-1.936601
-1.745596
-1.554914
-1.337730
-1.157390
-1.019065
-0.908211
-0.823858
-0.760189
-0.711710
-0.671634
-0.656443
-0.661290
-0.714293
-0.785393
-0.863604
-0.938260
-1.014209
-1.116982
-1.253043
-1.378117
-1.455358
-1.515793
-1.574936
-1.628262
-1.667044
-1.721015
-1.773694
-1.781773
-1.735557
-1.656375
-1.559094
-1.459875
-1.355484
-1.243983
-1.130543
-1.030354
-0.961191
-0.921115
-0.894290
-0.881685
-0.875867
-0.875543
-0.888793
-0.927898
-0.989949
-1.064605
-1.150572
-1.248498
-1.348039
-1.437885
-1.514480
-1.578470
-1.631149
-1.677688
-1.730044
-1.782399
-1.810516
-1.808253
-1.776580
-1.724869
-1.636638
-1.519320
-1.391983
-1.263999
-1.150559
-1.028394
-0.903965
-0.792141
-0.670299
-0.538114
-0.408514
-0.285379
-0.160951
-0.061085
0.005493
0.055588
0.092109
0.143496
0.188420
0.228173
0.246273
0.229467
0.188423
0.139299
0.083388
0.005178
-0.096626
-0.212327
-0.340955
-0.482188
-0.626975
-0.741383
-0.841248
-0.946283
-1.052289
-1.151830
-1.261390
-1.385817
-1.477278
-1.538037
-1.558397
-1.569708
-1.579726
-1.570999
-1.548699
-1.515410
-1.470809
-1.403262
-1.330867
-1.273662
-1.225829
-1.192540
-1.189631
-1.192539
-1.211606
-1.265578
-1.364473
-1.494717
-1.621729
-1.759407
-1.883834
-1.998888
-2.142706
-2.318843
-2.518250
-2.726705
-2.940332
-3.120348
-3.270306
-3.396026
-3.503970
-3.556972
-3.560203
-3.546306
-3.496534
-3.415413
-3.317809
-3.174313
-3.014011
-2.829469
-2.600005
-2.351795
-2.125886
-1.931326
-1.739674
-1.579049
-1.435229
-1.304984
-1.202209
-1.140802
-1.103958
-1.063236
-1.050954
-1.073576
-1.144031
-1.248420
-1.355718
-1.446210
-1.520866
-1.588734
-1.651109
-1.679872
-1.689890
-1.668882
-1.631392
-1.587437
-1.566429
-1.541220
-1.476905
-1.403863
-1.303351
-1.203485
-1.134322
-1.076471
-1.037041
-0.985007
-0.902593
-0.841510
-0.799171
-0.752308
-0.736471
-0.713201
-0.663429
-0.600730
-0.543525
-0.491491
-0.464665
-0.448505
-0.421034
-0.377726
-0.336034
-0.338942
-0.337325
-0.365118
-0.364794
-0.356068
-0.299832
-0.247798
-0.162152
-0.063256
0.035964
0.140354
0.255733
0.356569
0.413127
0.426379
0.435752
0.443832
0.420887
0.375318
0.310681
0.221158
0.114830
0.031771
-0.052903
-0.156000
-0.251663
-0.327611
-0.407761
-0.486942
-0.556103
-0.621387
-0.703153
-0.765527
-0.775222
-0.741933
-0.719309
-0.701533
-0.691837
-0.708318
-0.743869
-0.795578
-0.835653
-0.860537
-0.912247
-0.971713
-1.006616
-1.015665
-1.003383
-0.994656
-1.016956
-1.051536
-1.078037
-1.081268
-1.079328
-1.097103
-1.094193
-1.070600
-1.070599
-1.075446
-1.070274
-1.048297
-1.013392
-0.971053
-0.909324
-0.870217
-0.869570
-0.845977
-0.790387
-0.739646
-0.689551
-0.637194
-0.604551
-0.572232
-0.542174
-0.526984
-0.548960
-0.598084
-0.652702
-0.698917
-0.711844
-0.711197
-0.717337
-0.704732
-0.687279
-0.712487
-0.744482
-0.728968
-0.680166
-0.610356
-0.510490
-0.395435
-0.280702
-0.177281
-0.063841
0.060587
0.184692
0.312353
0.437750
0.551513
0.665923
0.779363
0.879875
0.950977
0.978449
0.978773
0.961645
0.934497
0.908643
0.902180
0.926097
0.939025
0.955185
0.975547
0.983627
0.985244
0.981043
0.982337
1.019181
1.089960
1.180453
1.296479
1.415090
1.507522
1.591875
1.676551
1.738281
1.795163
1.853014
1.897292
1.955790
2.030447
2.101872
2.149705
2.161017
2.138718
2.102198
2.088948
2.075052
2.078931
2.122562
2.160376
2.187524
2.249254
2.417959
2.733392
3.094394
3.370075
3.488685
3.622809
3.884916
4.429812
5.262347
5.753594
5.656315
5.358659
5.038380
5.385808
5.947187
5.823084
5.597499
5.058098
4.089180
3.680670
3.823520
3.752096
2.604132
0.110410
-1.829366
-2.472834
-3.785947
-5.502401
-7.115757
-9.595581
-11.813946
-13.609257
-15.643727
-16.508256
-16.441678
-17.310085
-18.352044
-20.256916
-21.862515
-20.145414
-17.495591
-16.141754
-14.402676
-12.165888
-10.879598
-9.181242
-5.686281
-0.562451
4.036522
5.087854
4.384274
5.445625
8.337840
11.221004
14.019494
15.247288
14.362075
11.762671
9.350070
8.011424
7.809755
8.111937
6.087486
1.500150
-3.208382
-5.156562
-4.113632
-2.238168
-3.050663
-4.543470
-5.392162
-5.907970
-6.150361
-5.236706
-3.587152
-4.222216
-6.415696
-7.833523
-6.773141
-3.947503
-1.604710
-0.592159
-0.459005
-0.161025
-0.002985
0.037414
0.049050
-0.009123
-0.779927
-0.640309
1.020881
2.599657
4.481907
5.041024
5.125700
6.407466
6.807574
7.683415
8.355325
5.559099
2.436130
1.340522
1.414533
3.609306
7.576445
10.016195
10.069522
8.018569
4.786039
3.505890
1.963959
-2.364180
-6.323238
-10.057356
-12.055953
-11.440602
-10.564437
-9.334704
-6.764709
-4.164657
-1.282785
2.581580
4.762456
5.669647
5.363588
2.472345
-1.168049
-3.348277
-5.417006
-7.020020
-6.307712
-6.190394
-9.075496
-11.269945
-10.747672
-9.814303
-9.114599
-6.601808
-1.653469
2.201847
2.953584
1.782349
-0.595024
-2.765557
-1.788881
2.229322
7.611380
11.699714
13.009921
12.083987
10.777337
10.383048
10.668424
11.695840
12.509307
11.335164
7.827277
4.087341
1.605901
-1.026792
-4.648441
-7.353204
-10.105153
-14.436201
-18.639266
-19.994071
-18.089521
-15.160140
-14.380609
-15.694046
-17.740797
-16.840394
-10.457098
-3.466531
1.416201
5.188457
6.965994
7.398744
8.118486
8.964917
9.707605
10.851046
12.999280
16.793514
18.648616
15.517244
12.994436
14.721232
17.008114
18.293435
18.751717
16.171382
12.476046
10.808717
10.596706
10.769290
8.652729
3.793915
-0.994121
-5.389160
-10.118053
-12.445009
-12.455674
-13.543202
-15.980689
-21.218603
-28.908548
-35.030706
-37.752276
-36.635659
-32.487211
-26.999147
-20.606479
-13.100427
-6.864828
-1.949131
4.043753
10.663946
16.474875
21.364394
25.572631
28.502982
30.441467
33.108742
36.207796
36.020671
32.402900
28.139722
23.922114
18.877143
12.969582
6.553969
0.579185
-4.221779
-8.434540
-12.614982
-18.159925
-26.100341
-32.337231
-32.215065
-27.073137
-21.886608
-19.557388
-18.156042
-15.830054
-12.914247
-9.953517
-6.433994
-0.933972
5.657780
11.227610
16.231861
21.053187
25.892288
30.573351
34.244772
36.657375
36.084039
31.614990
26.262344
22.141368
17.775093
11.486170
4.102284
-1.843736
-5.422078
-7.511167
-10.013615
-13.201545
-16.433105
-19.538946
-21.241502
-21.639992
-20.724722
-16.884273
-12.155056
-9.505556
-7.693438
-5.440490
-3.711431
-4.172944
-5.461172
-3.761523
1.387516
7.095994
12.125453
15.982708
18.353942
19.287635
16.492378
9.859259
4.277796
3.201579
3.565490
3.192854
3.874136
5.083185
5.127139
3.386770
-0.032886
-3.472903
-5.028732
-4.700371
-2.390543
3.063909
9.625282
13.029103
11.523369
6.533987
0.925375
-2.711141
-4.388811
-5.465028
-6.588754
-7.796185
-9.838412
-12.493728
-15.585994
-19.186959
-22.946933
-27.788618
-32.080560
-31.693056
-26.483904
-18.462689
-9.770535
-3.630924
-0.534454
1.648684
5.372139
11.784199
19.695206
26.345779
32.374214
39.418107
44.676707
44.916836
41.255435
35.481998
28.658197
22.504690
17.856918
12.882079
6.276107
-0.377049
-6.508580
-12.925486
-18.938083
-22.167381
-22.176106
-19.897304
-15.451200
-8.861387
-2.452882
5.833347
18.330076
29.753818
33.877057
30.982582
26.124738
23.443567
23.626492
25.517792
27.990507
29.323014
27.130828
21.504117
13.896585
4.074243
-8.391781
-22.966287
-37.962877
-49.585379
-54.737002
-53.408050
-51.194532
-52.855397
-58.185420
-62.933704
-63.952070
-59.554444
-50.320949
-37.897261
-21.214919
-0.374758
22.165051
45.236829
66.674243
85.339992
98.953337
105.620392
107.359470
107.470324
107.800947
108.737224
109.406548
108.054652
100.496567
83.268038
56.372296
24.312003
-5.368330
-30.153329
-51.630170
-71.582854
-89.150408
-101.354003
-106.275839
-107.146508
-106.815886
-108.458006
-109.049116
-109.414319
-102.664527
-91.718780
-71.309752
-43.586970
-16.767175
9.183888
32.193937
49.989986
58.061942
60.285156
61.632852
63.281114
61.975110
55.897552
45.516094
38.826417
41.055771
48.817466
55.000708
55.443477
50.006155
43.390811
36.950636
32.150319
25.808392
15.505469
1.197917
-12.637457
-22.813044
-33.553242
-44.318972
-52.362162
-55.347453
-53.101939
-46.818508
-37.626705
-26.868730
-16.307901
-8.742059
-6.582513
-8.244347
-8.481890
-5.268749
0.907059
10.551003
23.062275
35.747099
44.529746
49.000736
49.977735
46.819862
39.175486
29.774904
22.274348
17.725148
16.436596
18.037349
19.042143
17.369320
11.302751
0.806237
-15.051327
-32.629546
-45.733867
-52.463619
-51.660495
-46.129124
-39.223556
-33.523481
-30.009129
-27.508619
-23.369221
-17.244799
-10.546718
-4.889949
0.684729
8.387603
17.942024
26.142608
29.651789
27.629923
22.040703
17.627565
16.539390
16.115368
14.602523
12.606189
11.375488
9.989334
7.474605
3.442830
-0.447389
-2.696780
-3.251047
-3.673777
-4.094244
-2.265967
3.177497
11.365800
17.867060
20.966115
19.726365
14.267066
9.385628
7.987193
8.333652
4.692611
-4.000511
-14.845745
-24.880422
-28.309451
-22.608729
-11.312969
-1.471880
3.472904
2.583167
-3.034171
-8.819244
-8.657649
-3.517982
3.625453
12.155690
18.718678
20.996511
21.128050
23.150240
28.131868
34.839645
38.592833
36.481120
28.725245
18.551919
5.924624
-7.109565
-15.515049
-21.700876
-27.235154
-32.356397
-35.881413
-38.423936
-40.076074
-39.685662
-38.697997
-38.257491
-37.673812
-34.167216
-27.042850
-19.756888
-13.612752
-7.155446
-0.112523
6.554209
13.590022
22.484169
32.697248
42.496969
50.112582
54.238730
54.538649
52.326102
48.680214
42.570983
32.102264
18.572303
6.225213
-2.292418
-7.304101
-9.409673
-9.931621
-10.284219
-10.482979
-11.020118
-9.539268
-5.180101
0.575239
5.179706
6.913290
7.311135
6.713884
4.817091
2.673060
1.771042
2.204438
2.968780
4.803844
7.634329
10.102844
8.914804
2.373470
-6.657061
-13.889048
-18.524539
-21.029249
-22.934121
-24.449228
-24.518389
-21.856608
-15.917050
-9.692117
-5.409546
-2.405832
2.516329
10.516536
19.759080
26.211862
31.260389
36.730677
43.118498
51.874643
60.143420
65.795664
67.450389
63.808380
54.915527
44.551844
35.856136
28.408582
21.030514
13.053577
3.343704
-7.628220
-19.686057
-31.358330
-42.089802
-52.001668
-59.575588
-64.512614
-65.424651
-61.017006
-52.289302
-42.227475
-32.008902
-22.916641
-15.536632
-9.918969
-4.441248
2.742263
12.591755
22.896619
30.330600
34.872045
38.124614
40.320034
40.140989
36.679964
31.664727
26.833383
22.318765
18.611794
15.639430
13.350287
10.389882
5.371089
-1.458528
-8.485614
-13.863469
-17.374265
-19.030928
-18.038092
-14.735105
-11.764033
-10.925682
-11.287975
-11.081457
-10.347496
-9.670738
-9.797104
-11.055599
-12.916194
-13.510860
-11.724920
-8.119752
-4.183640
-0.844456
1.221365
3.103616
5.237953
7.877757
11.401481
15.394152
18.615049
18.628623
15.865686
12.297040
8.531249
4.331093
0.659673
-1.387726
-1.172158
1.009365
4.367293
8.041947
11.760877
14.009300
13.806661
12.422123
12.452826
14.483743
17.571486
20.791737
24.094723
26.306303
28.111957
28.123916
27.181499
25.533562
21.028316
15.936159
10.774840
6.309023
1.455380
-4.321290
-10.163567
-14.405091
-17.530323
-20.638425
-24.616551
-28.706500
-31.025053
-32.403128
-32.230868
-31.025698
-27.922441
-22.381698
-16.996731
-12.860242
-9.135171
-5.122786
-0.673126
3.785582
7.656411
11.427051
15.394513
19.321254
22.953570
27.256501
32.074595
36.141276
38.443025
39.005697
38.439472
37.212972
35.413136
33.961375
32.687366
29.800002
24.369144
17.503329
10.050927
2.681585
-4.573349
-12.617832
-20.314887
-26.667801
-31.178219
-34.078834
-35.905495
-37.441932
-39.132530
-40.664442
-40.939152
-38.972873
-34.512225
-27.993513
-20.963517
-14.328781
-8.137136
-2.067010
3.708368
7.928887
9.259455
8.207154
6.304221
4.251329
3.111767
4.437163
8.245294
12.654554
16.280406
18.782855
20.128936
20.131845
18.834244
16.430692
12.493612
7.460275
2.716193
-0.766485
-2.891448
-4.713261
-7.269358
-10.408163
-13.240586
-15.725581
-18.459108
-21.704889
-25.129393
-28.211964
-30.435823
-31.277728
-29.841801
-26.420204
-22.509624
-19.111296
-16.323795
-13.887277
-10.964360
-6.705058
-1.055077
5.325633
11.731552
17.378301
21.593326
23.929009
24.951902
25.517805
25.257639
22.842776
18.597373
13.891427
9.364850
5.554782
2.285732
-1.277097
-6.019240
-11.716082
-17.485642
-22.468884
-26.199770
-28.780429
-30.974878
-33.138947
-35.328872
-36.825557
-36.838807
-35.329193
-33.213600
-30.779021
-27.604987
-23.227722
-17.937126
-12.311707
-6.453269
-0.735742
4.670878
9.623742
13.911161
17.383821
19.845549
21.209081
21.203588
19.850722
18.178869
16.381295
13.969664
10.648257
6.797790
2.362030
-3.107934
-9.365831
-15.965016
-22.545455
-28.736775
-34.250046
-38.658336
-41.439049
-42.683000
-42.204357
-40.341822
-37.337784
-33.178025
-28.076171
-22.095892
-15.247528
-7.981281
-1.034991
5.209010
10.954332
16.571348
21.292809
24.691459
26.670343
27.294744
26.674869
24.999461
22.312150
19.189180
15.673214
11.638530
7.424800
2.821304
-2.237241
-7.734675
-13.029148
-17.469433
-21.289520
-25.053695
-28.749354
-31.922095
-34.105232
-34.904799
-33.945575
-31.409515
-27.954630
-24.051805
-19.522641
-14.509342
-9.474388
-4.682795
-0.216977
3.912080
7.792281
11.792062
16.014843
20.378534
24.342441
26.942170
27.649630
26.761186
24.619093
21.207517
16.815386
12.547037
8.215990
3.688443
-0.889843
-5.341117
-9.543859
-13.629930
-17.205686
-20.300538
-22.811388
-24.684911
-25.672574
-25.406266
