EVENT_NAME: 202302060117
EVENT_ID: 13194
EVENT_DATE_YYYYMMDD: 2023/02/06
EVENT_TIME_HHMMSS: 01:17:32.00000
EVENT_LATITUDE_DEGREE: 37.288
EVENT_LONGITUDE_DEGREE: 37.043
EVENT_DEPTH_KM: 8.6
HYPOCENTER_REFERENCE: AFAD
MAGNITUDE_W: 7.7
MAGNITUDE_W_REFERENCE: AFAD
MAGNITUDE_L: 
MAGNITUDE_L_REFERENCE: 
FOCAL_MECHANISM: 
NETWORK: TK
STATION_CODE: 6009
STATION_NAME: 
STATION_LATITUDE_DEGREE: 40.00402
STATION_LONGITUDE_DEGREE: 36.22301
STATION_ELEVATION_M: 1099.0
LOCATION: Kahramanmaras_Pazarck_Turkiye
SENSOR_DEPTH_M: 
VS30_M/S: None
SITE_CLASSIFICATION_EC8: unknown
MORPHOLOGIC_CLASSIFICATION: 
EPICENTRAL_DISTANCE_KM: 310.29
EARTHQUAKE_BACKAZIMUTH_DEGREE: 
DATE_TIME_FIRST_SAMPLE_YYYYMMDD_HHMMSS: 2023/02/06 01:18:02.9766360
DATE_TIME_FIRST_SAMPLE_PRECISION: millisecond
SAMPLING_INTERVAL_S: 0.01
NDATA: 18251
DURATION_S: 
STREAM: HNZ
UNITS: cm/s^2
INSTRUMENT: sensor = ACEBOX/SARA | digitizer = 
INSTRUMENT_ANALOG/DIGITAL: 
INSTRUMENTAL_FREQUENCY_HZ: 
INSTRUMENTAL_DAMPING: 
FULL_SCALE_G: 
N_BIT_DIGITAL_CONVERTER: 
PGA_CM/S^2: 3.205
TIME_PGA_S: 
BASELINE_CORRECTION: BASELINE REMOVED
FILTER_TYPE: BUTTERWORTH
FILTER_ORDER: 
LOW_CUT_FREQUENCY_HZ: 
HIGH_CUT_FREQUENCY_HZ: 
LATE/NORMAL_TRIGGERED: 
DATABASE_VERSION: 
HEADER_FORMAT: DYNA 1.2
DATA_TYPE: Acceleration
PROCESSING: Automatic Paolucci et al., 2011
DATA_TIMESTAMP_YYYYMMDD_HHMMSS: 
DATA_LICENSE: U (unknown license)
DATA_CITATION: Turkish Accelerometric Archive v 1.0 - Disaster And Emergency Management Presidency, Earthquake Department
DATA_CREATOR: AFAD
ORIGINAL_DATA_MEDIATOR_CITATION: : AFAD - Disaster And Emergency Management Presidency
ORIGINAL_DATA_MEDIATOR: AFAD PROCESS SERVICE
ORIGINAL_DATA_CREATOR_CITATION: AFAD PROCESS SERVICE
ORIGINAL_DATA_CREATOR: network: TK
USER1: GuestUser
USER2: 
USER3: 
USER4: 
USER5: 
[...]
0.191821
0.308954
0.335373
0.445960
0.559585
0.598864
0.642584
0.703138
0.768133
0.781226
0.778187
0.813023
0.832896
0.857445
0.906309
0.961953
1.047523
1.146186
1.221001
1.274541
1.344446
1.416690
1.457371
1.520496
1.582219
1.616588
1.688364
1.699820
1.650723
1.645112
1.572869
1.468595
1.391910
1.243215
1.130759
1.074648
0.969205
0.866802
0.760893
0.676258
0.651710
0.607288
0.584844
0.610094
0.594664
0.595366
0.666206
0.720915
0.762064
0.832437
0.880599
0.890419
0.910994
0.955181
0.945128
0.887147
0.860027
0.788719
0.691927
0.620619
0.498577
0.395940
0.288394
0.141569
0.065118
-0.066042
-0.232973
-0.276226
-0.329765
-0.408554
-0.434038
-0.504411
-0.609853
-0.664561
-0.715295
-0.795020
-0.834999
-0.837804
-0.839207
-0.800630
-0.722775
-0.633698
-0.539478
-0.448063
-0.365298
-0.300770
-0.238112
-0.186677
-0.159322
-0.118407
-0.082870
-0.060191
-0.014835
0.045252
0.105805
0.135498
0.158176
0.198624
0.211249
0.247488
0.302664
0.312951
0.358542
0.417927
0.427980
0.459309
0.500224
0.533891
0.586028
0.597952
0.598420
0.626242
0.589536
0.543712
0.567793
0.582055
0.604734
0.665287
0.714385
0.759274
0.806268
0.828713
0.856301
0.947248
1.019726
1.052224
1.160004
1.252588
1.300751
1.391932
1.473294
1.579204
1.687219
1.735849
1.784713
1.838019
1.918679
1.977362
1.999339
2.056386
2.051710
2.038150
2.020382
1.894833
1.824928
1.746139
1.562140
1.431214
1.271765
1.080285
0.946553
0.773076
0.616432
0.548631
0.505612
0.462828
0.419809
0.415601
0.433370
0.448801
0.500704
0.535774
0.556816
0.604744
0.622747
0.635840
0.641451
0.622514
0.639114
0.640751
0.614098
0.611994
0.625554
0.654779
0.691953
0.759988
0.838778
0.874550
0.902839
0.912659
0.921544
0.934636
0.885773
0.834805
0.764666
0.656886
0.594229
0.505386
0.417712
0.382175
0.293566
0.225064
0.192566
0.118219
0.096242
0.086891
0.029611
0.009504
-0.019253
-0.060167
-0.054322
-0.055724
-0.061803
-0.065076
-0.076765
-0.079571
-0.123992
-0.185948
-0.255619
-0.382805
-0.467907
-0.524018
-0.632032
-0.708951
-0.771375
-0.868868
-0.940410
-0.985766
-1.036734
-1.080687
-1.093312
-1.103131
-1.126043
-1.134694
-1.151059
-1.168126
-1.175140
-1.188466
-1.177010
-1.151993
-1.119495
-1.051226
-0.982022
-0.929651
-0.894815
-0.892009
-0.892944
-0.882423
-0.890840
-0.906036
-0.919596
-0.966122
-1.012180
-1.042339
-1.094008
-1.145911
-1.192670
-1.242936
-1.308399
-1.371992
-1.387656
-1.433714
-1.503853
-1.514607
-1.524894
-1.527933
-1.501280
-1.485382
-1.458729
-1.402617
-1.329672
-1.264910
-1.197810
-1.134918
-1.106395
-1.069455
-1.048179
-1.059401
-1.061271
-1.081377
-1.086287
-1.097275
-1.146139
-1.136553
-1.124395
-1.128369
-1.079739
-1.049579
-1.010535
-0.957930
-0.945773
-0.915612
-0.887557
-0.851084
-0.793570
-0.756863
-0.690465
-0.640432
-0.590866
-0.491269
-0.443574
-0.382552
-0.296281
-0.269394
-0.182421
-0.074641
-0.022971
0.054884
0.096500
0.115204
0.195864
0.258990
0.313932
0.399035
0.468706
0.545158
0.615064
0.682398
0.778021
0.834834
0.885101
0.953837
0.976983
1.043382
1.167061
1.234395
1.314354
1.419095
1.422135
1.407172
1.434293
1.383793
1.327448
1.337501
1.295886
1.240476
1.227383
1.159115
1.085469
1.072377
1.014863
0.933034
0.914330
0.883937
0.823384
0.781300
0.721916
0.662766
0.630268
0.584444
0.546803
0.518747
0.468247
0.446504
0.454220
0.462403
0.468950
0.425230
0.369586
0.344103
0.291732
0.240063
0.192369
0.135089
0.140700
0.161742
0.163145
0.195409
0.196579
0.198215
0.259938
0.274434
0.270927
0.322830
0.335923
0.334754
0.368421
0.349250
0.329378
0.364681
0.366318
0.358135
0.378710
0.382685
0.369826
0.363748
0.372632
0.356033
0.357903
0.428276
0.444175
0.429680
0.467321
0.477842
0.491403
0.518056
0.532318
0.581415
0.599418
0.598016
0.641502
0.657167
0.666753
0.711642
0.756064
0.811474
0.893771
0.976769
1.032179
1.125464
1.248208
1.312970
1.409061
1.495566
1.498606
1.542560
1.538586
1.478033
1.494399
1.468213
1.436651
1.468682
1.443899
1.415844
1.424027
1.399946
1.352018
1.304323
1.229275
1.116351
1.044809
0.986360
0.876242
0.799323
0.754434
0.709779
0.696219
0.670735
0.626548
0.602233
0.572073
0.508013
0.449798
0.416365
0.369840
0.328224
0.300870
0.243122
0.179296
0.137914
0.075023
-0.000494
-0.032991
-0.065021
-0.134459
-0.192440
-0.220262
-0.249954
-0.315651
-0.378074
-0.390699
-0.418988
-0.462241
-0.483282
-0.531678
-0.580074
-0.601349
-0.656993
-0.741160
-0.838887
-0.957188
-1.061461
-1.161994
-1.241485
-1.252473
-1.252239
-1.260655
-1.228625
-1.182566
-1.156615
-1.135105
-1.099568
-1.077123
-1.080162
-1.055847
-1.030830
-1.032701
-1.017504
-0.975420
-0.880498
-0.790953
-0.739050
-0.572119
-0.360298
-0.226566
-0.048412
0.136288
0.266279
0.435081
0.585881
0.696467
0.861762
1.017237
1.134370
1.282598
1.420305
1.567831
1.739438
1.865923
2.003630
2.111410
2.148351
2.197448
2.207502
2.203527
2.201424
2.149053
2.137597
2.139000
2.141339
2.187397
2.222233
2.294944
2.367889
2.414415
2.520091
2.587893
2.610571
2.663176
2.694505
2.719054
2.723029
2.707598
2.727939
2.716016
2.658502
2.619925
2.557268
2.462580
2.402495
2.322302
2.186934
2.074244
1.960619
1.825952
1.696194
1.555683
1.444629
1.314170
1.147006
1.030107
0.890530
0.737393
0.622833
0.480684
0.343680
0.181424
-0.001872
-0.110354
-0.258348
-0.442346
-0.544749
-0.689001
-0.867856
-0.948282
-1.037359
-1.153322
-1.162674
-1.157062
-1.196574
-1.185351
-1.197275
-1.249879
-1.263906
-1.327031
-1.394599
-1.386182
-1.416341
-1.444397
-1.430135
-1.450241
-1.452813
-1.437850
-1.464035
-1.496298
-1.514768
-1.557085
-1.605481
-1.623717
-1.664865
-1.690349
-1.690115
-1.746927
-1.711390
-1.606882
-1.605713
-1.541419
-1.433170
-1.410725
-1.361862
-1.305282
-1.245430
-1.161730
-1.130869
-1.088084
-1.030803
-1.003449
-0.964404
-0.954818
-0.952480
-0.927230
-0.923255
-0.895901
-0.856155
-0.858726
-0.871117
-0.867844
-0.865740
-0.882105
-0.851945
-0.798639
-0.818512
-0.772921
-0.662101
-0.649242
-0.590792
-0.494000
-0.498442
-0.465710
-0.450747
-0.528835
-0.533744
-0.545200
-0.611598
-0.614871
-0.632406
-0.665605
-0.682906
-0.746264
-0.783204
-0.823417
-0.896128
-0.901271
-0.954109
-1.047160
-1.056278
-1.117065
-1.174579
-1.172241
-1.264123
-1.348757
-1.386632
-1.485294
-1.581853
-1.652693
-1.705063
-1.738262
-1.754862
-1.735690
-1.708102
-1.644509
-1.567589
-1.519894
-1.452560
-1.392942
-1.319529
-1.215723
-1.133660
-1.021671
-0.908747
-0.816163
-0.688275
-0.583534
-0.498431
-0.406549
-0.323083
-0.238682
-0.194728
-0.181167
-0.183038
-0.218107
-0.249202
-0.280297
-0.320977
-0.354410
-0.379660
-0.402104
-0.447460
-0.509650
-0.573944
-0.635667
-0.687803
-0.744849
-0.800493
-0.854968
-0.901961
-0.932588
-0.968826
-0.984023
-0.984256
-1.002492
-1.002024
-0.993607
-1.017922
-1.045510
-1.060940
-1.095776
-1.094841
-1.050419
-1.054627
-1.022363
-0.945443
-0.925336
-0.863380
-0.786227
-0.767523
-0.721932
-0.673536
-0.647584
-0.626074
-0.602928
-0.581419
-0.598486
-0.605967
-0.609707
-0.648517
-0.686392
-0.734087
-0.783885
-0.849816
-0.912473
-0.948010
-1.030073
-1.070987
-1.055790
-1.089691
-1.076832
-1.034982
-1.027734
-0.989157
-0.955256
-0.910601
-0.861269
-0.872725
-0.854021
-0.820120
-0.859865
-0.887921
-0.898909
-0.937252
-0.920418
-0.859864
-0.815910
-0.720988
-0.605258
-0.531612
-0.408167
-0.253860
-0.122700
0.021553
0.114605
0.191992
0.315437
0.395864
0.483538
0.603476
0.693722
0.826519
0.963524
1.040678
1.140509
1.248290
1.310013
1.372437
1.441641
1.471801
1.500792
1.570698
1.636161
1.691572
1.757269
1.785792
1.762179
1.745813
1.739267
1.703964
1.660011
1.619330
1.581221
1.526513
1.426916
1.359816
1.337138
1.287807
1.256478
1.244087
1.201303
1.166935
1.161324
1.173248
1.207148
1.241751
1.276587
1.364962
1.447961
1.457313
1.493551
1.553404
1.571406
1.609749
1.656275
1.666095
1.659783
1.608815
1.510854
1.441183
1.394424
1.299502
1.181902
1.081837
0.991826
0.892462
0.775564
0.710568
0.663809
0.574733
0.519557
0.464848
0.387695
0.301191
0.148287
0.016426
-0.085276
-0.250336
-0.407915
-0.532529
-0.657377
-0.764222
-0.869898
-0.970430
-1.022801
-1.062079
-1.124970
-1.165416
-1.191602
-1.224333
-1.251921
-1.286756
-1.283249
-1.254024
-1.239762
-1.188561
-1.103926
-1.002457
-0.886961
-0.783155
-0.695247
-0.615288
-0.506572
-0.393180
-0.317898
-0.244953
-0.170605
-0.120104
-0.079657
-0.043652
-0.033365
-0.011621
0.018539
-0.012790
-0.019336
0.011993
0.011058
0.050336
0.091952
0.134971
0.243921
0.321542
0.412957
0.556275
0.655873
0.761549
0.879851
0.979449
1.090503
1.203193
1.340666
1.459435
1.559033
1.711703
1.796572
1.861334
2.007457
2.023122
1.981039
2.049542
2.055621
2.010030
1.994834
1.944334
1.878637
1.800081
1.726202
1.655595
1.525370
1.421331
1.361712
1.263284
1.195249
1.170701
1.140307
1.139372
1.139606
1.110148
1.094718
1.082561
1.046790
1.009850
0.960285
0.894589
0.838945
0.747998
0.665000
0.641855
0.560260
0.487315
0.489887
0.430035
0.360598
0.307526
0.220086
0.165144
0.106695
0.039127
-0.036856
-0.157496
-0.242831
-0.324894
-0.426596
-0.477563
-0.520815
-0.577160
-0.633271
-0.694058
-0.750170
-0.800903
-0.832466
-0.869873
-0.915230
-0.913359
-0.887875
-0.864027
-0.797629
-0.712526
-0.626956
-0.514733
-0.433605
-0.354348
-0.233708
-0.176428
-0.134110
-0.058827
-0.038720
-0.028433
0.001727
0.035394
0.084258
0.117223
0.130550
0.131953
0.145514
0.134292
0.093377
0.108107
0.077947
0.010380
0.016927
0.003834
0.001730
0.014355
-0.033807
-0.040586
-0.027260
-0.067005
-0.102542
-0.110959
-0.120778
-0.162861
-0.207516
-0.245157
-0.297060
-0.322310
-0.330025
-0.344053
-0.340545
-0.336804
-0.340077
-0.322309
-0.293785
-0.269704
-0.267132
-0.310618
-0.359481
-0.375847
-0.394550
-0.428684
-0.443647
-0.413955
-0.380755
-0.344283
-0.253803
-0.181559
-0.156543
-0.142281
-0.165661
-0.201431
-0.266660
-0.350593
-0.395950
-0.483156
-0.571064
-0.585793
-0.611276
-0.629278
-0.618524
-0.584389
-0.511678
-0.459775
-0.410677
-0.330017
-0.262215
-0.237900
-0.233925
-0.181087
-0.116792
-0.069097
0.012732
0.077026
0.129397
0.192289
0.242088
0.322514
0.371612
0.386575
0.469573
0.532465
0.555377
0.598630
0.624582
0.669004
0.684434
0.649365
0.665497
0.637442
0.554444
0.533169
0.487111
0.418842
0.376525
0.279967
0.189488
0.129402
0.029571
-0.025605
-0.050153
-0.135723
-0.182950
-0.188561
-0.222929
-0.246308
-0.281845
-0.344035
-0.402250
-0.444100
-0.496236
-0.600276
-0.673220
-0.755283
-0.891820
-0.940216
-1.010355
-1.132163
-1.157881
-1.222642
-1.319434
-1.378351
-1.487534
-1.554400
-1.593677
-1.670129
-1.705198
-1.757101
-1.807601
-1.794976
-1.823031
-1.846411
-1.830045
-1.888260
-1.944137
-1.944371
-1.997443
-2.082778
-2.148008
-2.203651
-2.265373
-2.337616
-2.378998
-2.392792
-2.400040
-2.418042
-2.452644
-2.431134
-2.407286
-2.461293
-2.491219
-2.466670
-2.446797
-2.418274
-2.347199
-2.267240
-2.194763
-2.050276
-1.869550
-1.739793
-1.567952
-1.328075
-1.144077
-0.971768
-0.739373
-0.553504
-0.382364
-0.177558
-0.026057
0.124509
0.263151
0.381686
0.551891
0.666218
0.762777
0.905159
0.990963
1.072325
1.141529
1.167948
1.224528
1.262403
1.260299
1.250480
1.239258
1.235985
1.216346
1.176133
1.149247
1.118853
1.026504
0.951455
0.934388
0.862379
0.825673
0.869860
0.842039
0.796215
0.812113
0.809775
0.757873
0.728181
0.725843
0.693579
0.692878
0.723272
0.737066
0.782657
0.819597
0.841574
0.894179
0.935795
0.970397
1.010844
1.044044
1.080984
1.138498
1.193441
1.203494
1.215184
1.248384
1.266387
1.282285
1.295378
1.298885
1.285559
1.276675
1.307536
1.312914
1.266622
1.253530
1.279949
1.298419
1.325072
1.373469
1.444076
1.525437
1.589030
1.656832
1.721360
1.773263
1.870056
1.956093
2.000749
2.093566
2.168148
2.178435
2.208362
2.207660
2.161369
2.151783
2.120221
2.062707
2.032314
1.943471
1.835223
1.793607
1.727677
1.633924
1.553031
1.436834
1.331391
1.264292
1.161187
1.045925
0.966668
0.885541
0.797867
0.727728
0.658992
0.575293
0.494633
0.426131
0.349913
0.300114
0.289126
0.239328
0.195140
0.231847
0.246342
0.197946
0.183685
0.187660
0.114949
0.023301
-0.020887
-0.107391
-0.199975
-0.224991
-0.273387
-0.336746
-0.377660
-0.411560
-0.440785
-0.495259
-0.534303
-0.574516
-0.646993
-0.696090
-0.776049
-0.868165
-0.928952
-0.995584
-1.004468
-1.008910
-1.038602
-0.986698
-0.927547
-0.900661
-0.831456
-0.729754
-0.634599
-0.554640
-0.454340
-0.340481
-0.250001
-0.158586
-0.046831
0.071237
0.190006
0.321868
0.439001
0.545145
0.690567
0.811674
0.891166
0.971358
0.997778
0.998245
0.984685
0.918521
0.874567
0.829678
0.738264
0.665553
0.588400
0.506338
0.447889
0.356007
0.258046
0.210351
0.159150
0.093921
0.070307
0.051604
-0.008716
-0.012222
0.022146
0.014197
0.065165
0.101638
0.072881
0.140449
0.186975
0.139280
0.156114
0.189313
0.175753
0.167570
0.147932
0.113564
0.106784
0.059089
-0.055237
-0.136131
-0.246015
-0.414115
-0.569824
-0.765980
-0.954888
-1.108258
-1.297166
-1.492153
-1.672177
-1.846356
-2.024041
-2.190505
-2.339199
-2.506832
-2.642902
-2.738525
-2.836719
-2.917145
-2.976062
-3.025627
-3.068645
-3.100441
-3.151175
-3.200740
-3.189284
-3.192323
-3.204714
-3.166371
-3.136211
-3.092490
-3.037782
-3.017441
-2.993827
-2.973720
-2.951276
-2.941924
-2.979565
-2.966706
-2.933039
-2.966471
-2.954548
-2.921114
-2.952209
-2.966938
-2.984706
-3.042922
-3.086174
-3.098565
-3.095525
-3.089914
-3.057650
-3.007617
-2.931866
-2.781768
-2.635177
-2.491626
-2.273960
-2.056762
-1.847747
-1.627978
-1.450525
-1.262084
-1.059616
-0.904608
-0.744924
-0.587345
-0.448936
-0.298604
-0.215840
-0.158092
-0.039790
0.030817
0.074070
0.161744
0.235156
0.302490
0.396944
0.485086
0.526936
0.571124
0.631912
0.647109
0.665111
0.677970
0.655994
0.641031
0.605260
0.595908
0.607832
0.587960
0.597779
0.581648
0.561308
0.606898
0.589364
0.545410
0.563880
0.556165
0.548216
0.567855
0.556867
0.537462
0.525539
0.515720
0.514083
0.493042
0.469662
0.455868
0.442075
0.442075
0.424540
0.395082
0.377080
0.341075
0.302499
0.267897
0.211085
0.149362
0.109383
0.080627
0.042518
0.014462
0.004877
0.002305
0.008852
0.028257
0.059820
0.089513
0.152404
0.242183
0.306477
0.399529
0.504504
0.578618
0.677982
0.772202
0.847018
0.920898
0.971165
1.025873
1.075439
1.108404
1.155398
1.194910
1.234655
1.284221
1.296378
1.302457
1.351087
1.380780
1.391301
1.436658
1.472897
1.489730
1.514513
1.527606
1.546076
1.565482
1.569456
1.594473
1.639128
1.698513
1.781278
1.870822
1.952651
2.026765
2.126597
2.224091
2.280202
2.337717
2.370215
2.387516
2.418845
2.404350
2.398739
2.405285
2.366475
2.347070
2.328367
2.278802
2.236719
2.189492
2.113976
2.016950
1.936992
1.861008
1.774269
1.702026
1.638901
1.594480
1.532524
1.452331
1.413989
1.351565
1.266463
1.216665
1.168035
1.137408
1.119873
1.094623
1.079894
1.050904
1.022848
1.012328
0.978427
0.929096
0.909925
0.887948
0.828798
0.818044
0.841423
0.823889
0.848438
0.903147
0.926994
0.971182
0.998537
1.010460
1.053713
1.066338
1.076626
1.123619
1.117775
1.104916
1.167808
1.188148
1.168509
1.210827
1.240286
1.263198
1.315101
1.335676
1.358588
1.390385
1.429663
1.464966
1.460525
1.496062
1.548433
1.561526
1.589348
1.620911
1.652941
1.652006
1.622080
1.633069
1.605247
1.535342
1.495363
1.451643
1.415171
1.374958
1.327264
1.307391
1.259463
1.182076
1.122458
1.073595
1.015613
0.941500
0.872530
0.782051
0.679180
0.609275
0.496351
0.385531
0.339473
0.251800
0.168568
0.106612
0.013093
-0.022677
-0.047226
-0.078554
-0.052603
-0.041848
-0.025248
0.014498
0.025486
0.045593
0.094691
0.162726
0.223514
0.294822
0.400499
0.476717
0.522775
0.570704
0.620737
0.650897
0.648793
0.655573
0.631025
0.579122
0.566965
0.519036
0.443520
0.411724
0.354444
0.281032
0.274018
0.256951
0.172083
0.113634
0.070849
-0.004200
-0.048387
-0.071767
-0.083690
-0.075975
-0.079247
-0.067557
-0.054231
-0.059842
-0.077142
-0.123902
-0.147749
-0.169258
-0.250853
-0.318186
-0.369388
-0.451918
-0.528369
-0.589858
-0.654152
-0.734344
-0.810562
-0.875791
-0.972583
-1.066101
-1.143254
-1.251268
-1.338475
-1.388507
-1.447657
-1.496053
-1.510081
-1.516627
-1.524108
-1.489038
-1.441110
-1.437603
-1.419132
-1.366995
-1.324912
-1.277684
-1.224378
-1.160551
-1.087606
-1.046458
-1.004608
-0.933300
-0.872746
-0.821076
-0.760990
-0.679395
-0.601306
-0.558755
-0.484875
-0.370548
-0.281003
-0.187016
-0.069182
0.026207
0.106634
0.226104
0.354225
0.448680
0.534484
0.606727
0.671723
0.717781
0.730173
0.749578
0.739759
0.711236
0.685752
0.614444
0.572361
0.541968
0.444240
0.382284
0.355164
0.293442
0.242241
0.189403
0.134460
0.123472
0.094014
0.029252
0.004704
-0.019377
-0.078527
-0.122949
-0.170409
-0.233768
-0.276787
-0.318402
-0.371708
-0.404907
-0.435768
-0.491645
-0.551263
-0.614856
-0.683592
-0.741340
-0.819428
-0.929780
-0.999217
-1.043873
-1.162641
-1.271824
-1.285618
-1.327935
-1.397373
-1.397606
-1.402282
-1.407659
-1.357860
-1.327466
-1.297774
-1.229739
-1.179472
-1.130842
-1.069821
-1.002954
-0.926736
-0.889328
-0.851219
-0.765649
-0.693172
-0.638229
-0.581416
-0.526708
-0.467089
-0.431785
-0.418459
-0.402093
-0.398585
-0.404430
-0.410742
-0.402793
-0.386193
-0.393207
-0.387128
-0.367489
-0.364683
-0.355097
-0.365150
-0.378944
-0.361175
-0.356967
-0.348550
-0.319091
-0.292905
-0.257602
-0.195178
-0.119895
-0.073369
-0.010945
0.100109
0.183341
0.259793
0.368041
0.468808
0.580330
0.717803
0.814128
0.867901
0.940145
0.993451
0.987372
0.973345
0.969838
0.960252
0.944354
0.934068
0.924248
0.918404
0.928691
0.940849
0.966567
0.973814
0.939446
0.924250
0.888947
0.818106
0.747734
0.653981
0.572620
0.478634
0.379036
0.325964
0.221925
0.118587
0.088895
0.019223
-0.044837
-0.076165
-0.146304
-0.177399
-0.168515
-0.180672
-0.165007
-0.130405
-0.111935
-0.086918
-0.059330
-0.030339
0.008004
0.048217
0.074871
0.103862
0.159038
0.184522
0.205330
0.260974
0.253961
0.257468
0.312644
0.274302
0.224503
0.227543
0.178679
0.107371
0.065054
0.030452
-0.034777
-0.106786
-0.134140
-0.156818
-0.172716
-0.162663
-0.161260
-0.156584
-0.135542
-0.096497
-0.055582
-0.024721
0.033729
0.120935
0.208142
0.275709
0.352161
0.435393
0.478646
0.556735
0.632953
0.645812
0.728576
0.806431
0.813679
0.873064
0.925435
0.943671
0.971493
0.991366
1.029008
1.066415
1.098913
1.137256
1.161805
1.181678
1.179574
1.167885
1.156897
1.133049
1.108969
1.053793
1.008202
1.006800
0.984589
0.974770
0.992305
1.001423
1.033688
1.062913
1.078110
1.114582
1.126038
1.103127
1.103828
1.095646
1.042574
0.995815
0.937599
0.840106
0.754069
0.648159
0.519804
0.424182
0.316869
0.207452
0.119544
0.021350
-0.059076
-0.142074
-0.229514
-0.301290
-0.415149
-0.507732
-0.579508
-0.718149
-0.819383
-0.897939
-1.022085
-1.100874
-1.188080
-1.302407
-1.367636
