EVENT_NAME: 202302060117
EVENT_ID: 13194
EVENT_DATE_YYYYMMDD: 2023/02/06
EVENT_TIME_HHMMSS: 01:17:32.00000
EVENT_LATITUDE_DEGREE: 37.288
EVENT_LONGITUDE_DEGREE: 37.043
EVENT_DEPTH_KM: 8.6
HYPOCENTER_REFERENCE: AFAD
MAGNITUDE_W: 7.7
MAGNITUDE_W_REFERENCE: AFAD
MAGNITUDE_L: 
MAGNITUDE_L_REFERENCE: 
FOCAL_MECHANISM: 
NETWORK: TK
STATION_CODE: 7302
STATION_NAME: 
STATION_LATITUDE_DEGREE: 37.33154
STATION_LONGITUDE_DEGREE: 42.21043
STATION_ELEVATION_M: 407.0
LOCATION: Kahramanmaras_Pazarck_Turkiye
SENSOR_DEPTH_M: 
VS30_M/S: None
SITE_CLASSIFICATION_EC8: unknown
MORPHOLOGIC_CLASSIFICATION: 
EPICENTRAL_DISTANCE_KM: 456.98
EARTHQUAKE_BACKAZIMUTH_DEGREE: 
DATE_TIME_FIRST_SAMPLE_YYYYMMDD_HHMMSS: 2023/02/06 01:18:10.0043420
DATE_TIME_FIRST_SAMPLE_PRECISION: millisecond
SAMPLING_INTERVAL_S: 0.01
NDATA: 24501
DURATION_S: 
STREAM: HNE
UNITS: cm/s^2
INSTRUMENT: sensor = GMS+/GEOSIG | digitizer = 
INSTRUMENT_ANALOG/DIGITAL: 
INSTRUMENTAL_FREQUENCY_HZ: 
INSTRUMENTAL_DAMPING: 
FULL_SCALE_G: 
N_BIT_DIGITAL_CONVERTER: 
PGA_CM/S^2: 16.888
TIME_PGA_S: 
BASELINE_CORRECTION: BASELINE REMOVED
FILTER_TYPE: BUTTERWORTH
FILTER_ORDER: 
LOW_CUT_FREQUENCY_HZ: 
HIGH_CUT_FREQUENCY_HZ: 
LATE/NORMAL_TRIGGERED: 
DATABASE_VERSION: 
HEADER_FORMAT: DYNA 1.2
DATA_TYPE: Acceleration
PROCESSING: Automatic Paolucci et al., 2011
DATA_TIMESTAMP_YYYYMMDD_HHMMSS: 
DATA_LICENSE: U (unknown license)
DATA_CITATION: Turkish Accelerometric Archive v 1.0 - Disaster And Emergency Management Presidency, Earthquake Department
DATA_CREATOR: AFAD
ORIGINAL_DATA_MEDIATOR_CITATION: : AFAD - Disaster And Emergency Management Presidency
ORIGINAL_DATA_MEDIATOR: AFAD PROCESS SERVICE
ORIGINAL_DATA_CREATOR_CITATION: AFAD PROCESS SERVICE
ORIGINAL_DATA_CREATOR: network: TK
USER1: GuestUser
USER2: 
USER3: 
USER4: 
USER5: 
[...]
2.344380
2.376072
2.512450
2.471147
2.511930
2.552714
2.665194
3.091213
3.379296
3.542949
3.690238
3.579577
3.381114
3.075887
2.742864
2.487253
2.152931
1.758864
1.364796
1.212572
1.316998
1.522475
1.891086
2.264892
2.603109
2.898985
3.044455
3.225254
3.270713
2.949380
2.418415
1.675219
0.745509
-0.114323
-0.865831
-1.539409
-2.129083
-2.623940
-2.864745
-3.013592
-3.195170
-3.352330
-3.577808
-3.714186
-3.597291
-3.352070
-2.880591
-2.256109
-1.650330
-1.041434
-0.627624
-0.177965
0.193243
0.310918
0.422878
0.275590
0.060762
-0.109646
-0.275378
-0.244466
-0.214333
-0.153807
-0.126011
-0.273819
-0.521638
-0.812578
-1.035459
-1.257041
-1.534733
-1.871652
-2.302607
-2.755642
-2.933583
-2.786814
-2.439764
-1.890095
-1.371858
-0.925057
-0.695163
-0.596711
-0.525274
-0.619050
-0.699838
-0.911549
-1.050785
-1.028185
-0.939084
-0.660613
-0.480594
-0.343177
-0.232256
-0.242647
-0.232516
-0.182640
0.005432
0.390408
0.989952
1.650542
2.253723
2.657403
2.798717
2.788586
2.673508
2.624153
2.534533
2.470370
2.358150
2.364125
2.629868
2.928601
3.580099
4.180942
4.608780
5.007523
5.179230
5.233262
5.035578
4.606961
3.905069
3.096931
2.332693
1.695223
1.404802
1.368435
1.474420
1.619371
1.641971
1.393892
0.913062
0.205454
-0.410715
-0.972074
-1.405107
-1.573696
-1.762288
-1.809306
-2.042318
-2.260782
-2.391186
-2.477689
-2.217401
-1.823593
-1.353673
-1.101698
-0.977788
-1.112608
-1.421732
-1.538108
-1.604608
-1.630845
-1.732934
-1.779692
-1.811384
-1.946982
-2.299228
-2.845520
-3.452857
-4.102796
-4.621293
-4.898465
-4.933794
-4.931716
-4.870670
-4.889114
-5.018218
-5.207849
-5.391505
-5.449953
-5.452550
-5.280064
-5.066795
-4.507514
-3.686907
-2.944231
-2.213504
-1.729037
-1.430303
-1.279898
-1.239894
-1.082214
-0.696719
-0.343175
-0.015607
0.277671
0.289101
0.201819
0.057907
-0.150167
-0.453056
-0.839851
-1.369258
-1.838658
-2.090633
-2.278965
-2.330399
-2.387808
-2.487818
-2.708881
-2.860325
-2.825516
-2.771225
-2.490156
-2.130377
-1.702540
-1.087409
-0.471759
0.181297
0.792791
1.244008
1.709512
2.140467
2.544406
2.906003
3.097193
3.234350
3.082905
2.738973
2.505961
2.314512
2.394520
2.755598
3.146808
3.632834
3.990535
4.057555
3.936243
3.471778
2.992506
2.499727
2.159950
2.176316
2.208527
2.439461
2.694033
3.048616
3.289162
3.263185
3.241624
3.048097
2.932500
2.818202
2.700528
2.601816
2.376597
2.111894
1.569758
0.849681
0.043102
-0.965057
-1.850866
-2.697709
-3.459868
-3.890304
-4.151371
-4.137083
-3.891083
-3.515459
-3.253613
-3.132301
-3.121391
-3.190229
-3.112039
-3.099830
-2.890197
-2.620558
-2.411185
-2.146222
-2.138429
-2.173238
-2.382870
-2.721348
-3.001378
-3.296474
-3.442204
-3.528447
-3.515198
-3.406356
-3.109441
-2.623935
-2.041535
-1.170533
-0.218224
0.687327
1.374673
1.679121
1.686914
1.494686
1.300120
0.953330
0.681612
0.549391
0.363657
0.526012
0.717720
0.992815
1.378310
1.557550
1.873428
2.050070
2.207230
2.509600
2.771965
2.988612
3.009653
2.938477
2.672474
2.268535
1.838619
1.346619
1.078279
1.039054
1.088410
1.231022
1.267909
1.073083
0.767077
0.488086
0.274297
0.103889
0.055832
0.166493
0.493282
0.929951
1.277521
1.509234
1.556252
1.390000
1.035158
0.603163
0.052456
-0.539296
-1.138840
-1.750074
-2.194797
-2.641338
-2.955137
-3.072812
-3.141131
-2.948903
-2.569901
-2.053483
-1.353668
-0.693598
0.006737
0.706811
1.126337
1.287652
1.228945
1.056459
0.906053
0.761882
0.646545
0.570433
0.506271
0.535365
0.603684
0.670964
0.680315
0.628102
0.698239
0.744218
0.812277
1.036197
1.303239
1.717569
2.093972
2.255288
2.212427
1.771081
1.081137
0.269363
-0.618004
-1.348212
-1.911129
-2.158688
-1.970096
-1.444846
-0.738017
-0.019759
0.697201
1.332074
1.893432
2.475572
2.956922
3.208377
3.287087
3.106808
2.828856
2.655072
2.312698
1.997080
1.707438
1.394938
1.223751
1.037497
1.057499
1.261157
1.588205
2.001496
2.451934
3.039788
3.582963
4.001969
4.234201
4.306157
4.229785
4.034959
3.655179
3.080312
2.366210
1.324281
0.093501
-1.164815
-2.344681
-3.229710
-3.709501
-3.833151
-3.752103
-3.590268
-3.531041
-3.474671
-3.379336
-3.217241
-2.956174
-2.697965
-2.320003
-2.021010
-1.655776
-1.256513
-0.893357
-0.412786
-0.219779
-0.195880
-0.183931
-0.123924
0.147793
0.646028
1.267133
1.932399
2.635331
3.178246
3.527114
3.685572
3.561403
3.261112
3.036153
2.899775
2.986797
3.321378
3.812339
4.408507
4.846475
5.270417
5.699813
6.209997
6.789540
7.182309
7.441297
7.374797
7.007485
6.284811
5.247038
4.283299
3.425026
2.767293
2.226457
1.633406
1.066593
0.309889
-0.787371
-1.998409
-3.318290
-4.568293
-5.725819
-6.765150
-7.311702
-7.540817
-7.331704
-6.807752
-6.172100
-5.356169
-4.826242
-4.449838
-4.073435
-3.748465
-3.356215
-2.987085
-2.637178
-2.328833
-2.110368
-2.046725
-2.106732
-2.271944
-2.486252
-2.519243
-2.279217
-1.741498
-0.959856
-0.154835
0.473284
0.896965
1.162448
1.350780
1.464558
1.510537
1.556256
1.659124
1.783813
1.813946
1.836546
1.699129
1.408448
1.115950
0.746560
0.468348
0.218452
0.025444
-0.073787
-0.027029
0.290407
0.720064
1.383251
2.200221
3.043948
3.937809
4.647235
5.020522
5.020262
4.703865
4.318889
3.887674
3.262932
2.428817
1.261940
-0.025470
-1.196244
-2.163100
-2.702638
-3.106837
-3.389464
-3.528440
-3.676768
-3.737034
-3.931080
-4.212149
-4.722593
-5.327333
-5.758028
-6.107156
-6.129756
-6.113650
-6.135211
-6.018575
-5.891029
-5.536706
-5.113024
-4.792471
-4.404377
-4.169807
-3.900687
-3.628970
-3.660142
-3.677287
-3.844577
-4.132140
-4.344111
-4.496595
-4.319693
-3.952381
-3.381930
-2.573792
-1.692660
-0.710737
0.042330
0.612002
1.174139
1.615225
1.998383
2.328808
2.852760
3.585305
4.368506
5.050916
5.428359
5.387835
4.923630
4.341230
3.800134
3.514129
3.327875
3.159286
3.142401
3.135907
3.274623
3.433341
3.758571
4.365129
5.181060
6.314687
7.411947
8.292560
8.841190
8.978867
8.709488
8.008634
7.069313
5.910489
4.723089
3.678822
2.923937
2.614813
2.600006
2.878478
3.374115
3.886377
4.187968
4.178097
3.636740
2.547014
1.272592
-0.029105
-0.973621
-1.525628
-1.711881
-1.451074
-0.899067
0.037136
1.080884
2.023322
2.847306
3.529976
4.102245
4.466180
4.680748
4.714778
4.431631
3.691032
2.778987
2.003580
1.453911
1.257786
1.238563
1.353641
1.426635
1.121928
0.529397
-0.206785
-1.127143
-2.068802
-2.894864
-3.500383
-3.759631
-3.834704
-3.838081
-4.012385
-4.503866
-5.312524
-6.346660
-7.191165
-7.630952
-7.664462
-7.445218
-7.167786
-6.970882
-6.810085
-6.496546
-5.848944
-4.733501
-3.381928
-1.858909
-0.373556
0.728120
1.486642
1.926170
2.215811
2.347254
2.420508
2.397649
2.069302
1.602239
0.991525
0.364965
-0.232501
-0.891792
-1.564851
-2.083348
-2.421306
-2.570672
-2.478455
-2.449880
-2.528590
-2.813036
-3.114367
-3.102157
-2.816153
-2.078932
-1.121946
-0.030661
1.324548
2.659755
3.684280
4.077828
3.709737
2.610139
1.015424
-0.595916
-1.858129
-2.636913
-2.976170
-3.091247
-3.186322
-3.296983
-3.543243
-3.915231
-4.341510
-4.579977
-4.453210
-4.062259
-3.456740
-3.012277
-2.903954
-3.030721
-3.336987
-3.706117
-4.031606
-4.222016
-4.140709
-3.588962
-2.722895
-1.734219
-0.862697
-0.341863
-0.156648
-0.230682
-0.367060
-0.462395
-0.438236
-0.369917
-0.341603
-0.520842
-0.922703
-1.509779
-2.450399
-3.362963
-3.981211
-4.201494
-4.072389
-3.889513
-3.467909
-2.773030
-2.039705
-1.267935
-0.645791
-0.336407
-0.357448
-0.687353
-1.035962
-1.293132
-1.331837
-1.312874
-1.330279
-1.126101
-0.794118
-0.445249
-0.376151
-0.629425
-1.253907
-2.308824
-3.585843
-4.990668
-6.232879
-7.148041
-7.669395
-7.807332
-7.485739
-6.852944
-6.203005
-5.399283
-4.407489
-3.086569
-1.559653
-0.163661
1.139595
2.090086
2.567020
2.581567
2.385962
2.480258
2.868611
3.748704
5.034036
6.466137
8.001625
9.241237
10.162894
10.888945
11.397051
11.789821
12.083878
12.271171
12.226491
12.104140
11.880739
11.420431
10.978046
10.553585
10.086003
9.335274
8.305554
7.119713
5.836979
4.605419
3.427632
2.448047
1.564576
0.976462
0.735397
0.633308
0.802677
1.081408
1.393130
1.775768
2.161783
2.528575
2.808865
2.986286
3.184230
3.282422
3.177216
3.023433
2.863936
2.669889
2.381547
1.998649
1.639130
1.408456
1.276754
1.252076
1.292600
1.388714
1.374946
1.121673
0.846838
0.629153
0.579537
0.338213
-0.485511
-1.758634
-3.375170
-5.081585
-6.632660
-7.830709
-8.673916
-9.317880
-9.707013
-9.917685
-9.997174
-9.899501
-9.806504
-9.739743
-9.623627
-9.297618
-8.465062
-7.113749
-5.349406
-3.433098
-1.854228
-0.919843
-0.711509
-1.052844
-1.552118
-2.168547
-2.907587
-3.554409
-4.207725
-4.911956
-5.648138
-6.618631
-7.746803
-8.952386
-10.148618
-10.904542
-11.126384
-10.671011
-9.587259
-8.518054
-7.636402
-7.122841
-7.117126
-7.490152
-8.059044
-8.394664
-8.257247
-7.547821
-6.376268
-4.743366
-3.014091
-1.664077
-0.627863
-0.104431
0.049352
0.049872
0.137413
0.447057
0.966073
1.812657
2.741067
3.828716
4.944679
5.914133
6.840985
7.605482
8.145799
8.214118
7.820310
7.317659
6.797863
6.263780
5.944006
5.828409
5.605269
5.333811
4.900518
4.229018
3.509202
2.573777
1.448463
0.400559
-0.404202
-0.825546
-0.788399
-0.452779
-0.154305
0.010128
0.206772
0.503947
0.825799
1.005559
0.992051
0.761896
0.367309
0.176899
0.290418
0.660067
1.201424
1.836037
2.531695
3.046036
3.274891
3.094353
2.549100
1.754730
0.902951
0.266779
-0.265745
-0.606041
-0.745796
-0.735146
-0.701895
-0.898280
-1.294946
-1.942027
-2.700810
-3.425042
-4.038355
-4.487493
-4.770900
-4.982351
-5.200556
-5.459025
-5.630212
-5.544229
-5.287059
-4.503599
-3.515701
-2.468317
-1.123239
0.125206
1.289226
2.187244
2.928102
3.767672
4.497100
5.074824
5.510715
5.704242
5.508896
4.886233
3.879632
2.621057
1.165317
-0.298475
-1.565363
-2.641062
-3.345813
-3.872882
-4.337606
-4.569579
-4.601011
-4.349556
-3.837293
-3.195666
-2.560534
-1.799154
-0.876458
0.257688
1.626146
2.815623
3.986137
5.297446
6.547969
7.837717
8.906402
9.532962
9.781560
9.613750
9.370347
9.257348
9.291118
9.393467
9.365412
9.217084
8.851851
8.298026
7.602887
6.753446
5.810228
4.792717
3.913403
3.156699
2.551180
2.271929
2.081779
2.015019
2.040996
1.998394
1.837857
1.360404
0.589153
-0.260808
-0.998029
-1.747979
-2.396619
-2.874852
-3.289701
-3.399583
-3.156700
-2.488577
-1.610042
-0.983482
-0.685788
-0.766575
-1.041150
-1.305334
-1.663294
-1.999953
-2.210365
-2.354796
-2.347783
-2.356355
-2.642359
-3.050974
-3.599864
-4.215514
-4.682836
-4.984946
-4.958710
-4.677121
-4.199668
-3.514400
-2.880566
-2.517151
-2.292711
-2.224393
-2.282840
-2.167503
-2.146982
-2.129577
-2.019695
-2.038658
-1.977613
-2.162048
-2.744448
-3.523492
-4.495803
-5.465517
-6.299891
-6.933725
-7.379746
-7.771217
-7.925778
-7.576910
-7.076337
-6.490041
-5.910499
-5.628651
-5.530199
-5.594361
-5.665018
-5.628391
-5.335632
-4.845970
-4.109008
-3.132021
-2.136071
-1.218051
-0.581879
-0.211710
-0.135338
-0.164952
-0.090138
0.242105
0.839831
1.699663
2.640802
3.304509
3.653637
3.604541
3.546353
3.504530
3.464007
3.582721
3.498036
3.286066
2.917975
2.426234
2.000215
1.796297
2.044895
2.615605
3.489984
4.536589
5.452790
6.118575
6.499655
6.429777
5.980119
5.320828
4.342542
3.339318
2.457926
1.656802
0.881914
0.029356
-0.816708
-1.745119
-2.296087
-2.328298
-2.253744
-1.985404
-1.777070
-1.541201
-1.280394
-1.330269
-1.582504
-2.137888
-2.733536
-3.221380
-3.386852
-3.050452
-2.407267
-1.535486
-0.669420
0.280292
1.100639
1.535750
1.527698
1.167919
0.741640
0.469143
0.416670
0.340558
0.451739
0.410696
0.047021
-0.166509
-0.423939
-0.647599
-1.056214
-1.740442
-2.387784
-3.158256
-3.795207
-4.349291
-4.684392
-4.497359
-4.048480
-3.152800
-1.870066
-0.488361
0.894904
2.032427
2.808094
3.253077
3.621428
4.056020
4.449308
5.084701
5.674374
6.152347
6.765919
7.180768
7.543664
7.541586
7.513271
7.804990
8.171523
8.743272
9.045382
9.116299
8.832892
8.471295
8.525067
8.934721
9.838454
10.950261
12.269362
13.465594
14.569088
15.579845
16.010540
16.181727
15.744797
14.835350
13.812903
12.588357
11.491098
10.246290
9.091881
8.064239
6.915026
5.808155
4.564646
3.426083
2.446498
1.386386
0.398488
-0.597202
-1.686409
-2.608845
-3.526865
-4.431896
-5.339525
-6.533419
-7.924995
-9.381514
-10.711266
-11.807747
-12.615105
-13.038787
-13.007874
-12.580296
-11.735011
-10.621127
-9.446716
-8.197492
-7.001520
-5.781131
-4.449560
-3.001094
-1.483010
0.067285
1.502502
2.766014
3.995495
4.893253
5.671778
6.423806
7.029325
7.790964
8.442203
8.991872
9.355287
9.325154
9.120717
8.734182
8.245559
7.647573
6.944121
6.269244
5.716718
5.149385
4.282539
3.393354
2.574825
1.834227
1.301962
0.632280
0.118200
-0.318470
-0.860606
-1.154923
-1.373388
-1.418587
-1.587696
-1.887208
-2.209061
-2.585984
-2.735351
-2.915630
-3.124483
-3.486859
-4.014708
-4.524112
-5.027802
-5.502398
-6.082460
-6.796562
-7.579503
-8.504796
-9.491135
-10.336160
-11.030779
-11.448226
-11.750596
-12.115570
-12.531978
-13.053332
-13.624821
-14.229561
-14.799492
-15.356434
-15.742969
-15.769206
-15.563469
-15.093809
-14.349574
-13.704830
-13.540137
-13.833934
-14.642332
-15.622696
-16.391869
-16.887506
-16.591371
-15.639321
-14.050321
-12.219217
-10.727889
-9.357354
-8.881718
-9.080441
-9.225911
-9.554517
-9.818182
-10.093795
-10.351745
-10.449937
-10.252514
-9.691155
-8.996016
-8.094102
-7.126986
-5.978812
-4.683089
-3.273848
-1.718618
-0.250669
0.918546
1.790328
2.523912
2.975389
3.639096
4.298387
4.754280
5.396426
5.744775
6.015193
6.009478
5.633854
5.577744
5.623463
5.783480
5.843227
5.600084
5.462148
5.207315
5.018204
5.067300
5.111201
5.159258
5.061586
4.888061
4.531659
4.075247
3.533631
2.898758
2.348050
1.830333
1.702267
1.783315
2.048797
2.358181
2.343115
2.340257
2.175824
2.000741
1.884105
1.573942
1.246115
0.561886
-0.361329
-1.318574
-2.294522
-2.976153
-3.476466
-3.699347
-3.673890
-3.332035
-2.751713
-2.139700
-1.325068
-0.525502
0.243671
0.911534
1.411587
1.889820
2.366494
3.000588
3.905879
4.977941
6.050003
7.002572
7.781876
8.379602
8.756006
9.032659
9.376851
9.776894
10.318770
11.104568
11.974011
12.890213
13.725626
14.336341
14.709887
14.747034
14.584679
14.231395
13.805895
13.358055
12.905539
12.914631
13.118549
13.479626
14.154504
14.590914
14.767816
14.552468
13.973445
13.236744
12.368599
11.595270
10.775962
10.016660
9.202548
8.437791
7.787852
7.171423
6.844375
6.274444
5.586059
4.682326
3.638839
2.564179
1.468478
0.815941
0.179509
0.136128
0.534093
1.148444
2.130626
3.041113
3.874968
4.279686
4.436326
4.358916
3.977836
3.328157
2.319997
0.989206
-0.500043
-1.986695
-3.425550
-4.434488
-5.132744
-5.721119
-6.164542
-6.484317
-6.817079
-7.176598
-7.508582
-7.759517
-7.713019
-7.614047
-7.397661
-7.008528
-6.647191
-6.228185
-5.819570
-5.522136
-5.196387
-4.685683
-4.191085
-3.737271
-3.353593
-3.259298
-3.326577
-3.513091
-3.651027
-3.680641
-3.766105
-3.863777
-4.157315
-4.321488
-4.170044
-3.800654
-3.214617
-2.887050
-2.748334
-2.920300
-3.298003
-3.479580
-3.754675
-3.986647
-4.157575
-4.110037
-3.598554
-2.918222
-2.109564
-1.344807
-0.720585
-0.273784
-0.066489
0.214320
0.611505
0.953360
1.146367
1.195204
0.945307
0.312252
-0.352234
-0.970222
-1.565870
-1.902269
-2.032153
-2.190352
-2.275296
-2.392191
-2.765997
-3.335408
-4.188227
-5.198464
-6.169217
-7.019437
-7.504943
-7.905765
-8.419326
-9.063031
-10.037161
-10.874133
-11.425880
-11.641228
-11.428997
-11.173386
-10.948427
-10.703206
-10.462661
-10.090933
-9.417354
-8.695979
-7.905765
-7.169323
-6.634980
-6.112067
-5.899058
-5.818270
-5.712804
-5.629159
-5.209114
-4.585931
-3.764544
-2.691183
-1.611588
-0.429124
0.592803
1.315477
1.952168
2.477939
3.033323
3.830810
4.696876
5.626326
6.727742
7.557960
8.319600
8.917586
8.947199
8.839136
8.350772
7.747851
7.434311
7.045439
6.788788
6.391083
5.865053
5.315124
4.503090
3.826135
3.156973
2.689390
2.551973
2.543141
2.594056
2.257137
1.685907
0.758276
-0.443670
-1.526383
-2.647282
-3.517244
-4.085617
-4.465917
-4.599178
-4.549822
-4.396299
-4.123802
-3.757530
-3.368397
-2.805480
-2.359199
-2.022280
-1.845378
-1.901488
-2.016305
-2.295815
-2.502850
-2.706768
-2.683129
-2.605199
-2.662088
-2.867045
-3.512048
-4.251348
-5.211970
-6.182463
-7.066972
-7.815883
-8.261126
-8.632074
-8.595447
-8.166050
-7.314012
-6.069983
-4.475008
-2.601302
-0.892029
0.869977
2.544701
3.947967
5.172253
6.095988
6.768268
7.226758
7.672520
7.994632
8.088928
8.123477
7.921637
7.584978
7.196885
6.590846
6.080402
5.760888
5.640356
5.811283
6.058322
6.161450
5.910774
5.273304
4.297356
3.477528
2.965785
2.706277
2.873827
3.060341
3.430250
3.692096
3.334136
2.739268
1.537841
0.091194
-1.138288
-2.514538
-3.445547
-4.074445
-4.725683
-5.236127
-5.817747
-6.431319
-7.194777
-8.134098
-9.044324
-9.773233
-10.298484
-10.489413
-10.416938
-10.241855
-9.967280
-9.569835
-8.951847
-8.272294
-7.318686
-6.287407
-5.180796
-3.758826
-2.508044
-1.285576
-0.109866
0.886604
2.023348
3.154118
4.300474
5.587364
6.732421
7.917482
8.866155
9.502327
9.920813
9.663123
9.261002
8.812383
8.510013
8.579631
8.848751
9.261522
9.363091
9.418422
9.470895
9.529083
9.740014
9.874055
10.069660
10.403202
10.807141
11.346419
11.959991
12.554600
13.031794
13.356504
13.656276
13.750052
13.818111
13.805123
13.677837
13.475997
12.949188
12.251711
11.202768
10.085506
8.821735
7.531208
6.573444
5.695169
4.929113
4.010834
2.998258
1.812677
0.518514
-0.692265
-1.861480
-2.943413
-3.857017
-4.558391
-5.214824
-5.610451
-5.930485
-6.121414
-6.091021
-5.989452
-5.612009
-5.245476
-4.791142
-4.252903
-3.852601
-3.210454
-2.407772
-1.482738
-0.323394
0.822183
1.926456
2.874349
3.573645
4.016549
4.099935
3.989274
3.741195
3.393106
3.320371
3.367909
3.451034
3.707945
3.835231
3.954465
4.002522
3.898615
3.836011
3.566372
3.039562
2.382090
1.525375
0.569689
-0.269621
-0.965539
-1.418575
-1.517806
-1.179069
-0.561340
0.121330
0.593588
0.459028
-0.079211
-1.213618
-2.748326
-4.248226
-5.596162
-6.404040
-6.874480
-6.961243
-7.007741
-7.165420
-7.213217
-7.431682
-7.458958
-7.365181
-7.221530
-6.833956
-6.592372
-6.349229
-6.113620
-6.110502
-6.187913
-6.365594
-6.511844
-6.540678
-6.406638
-6.093098
-5.676949
-5.287298
-5.000773
-4.729836
-4.610602
-4.466171
-4.303037
-4.185362
-4.099379
-4.290568
-4.614239
-5.246514
-5.971786
-6.512363
-6.951630
-7.011896
-6.618608
-6.038026
-5.406790
-4.912452
-4.872967
-5.006228
-5.323665
-5.501086
-5.317690
-4.956872
-4.209000
-3.559840
-2.985753
-2.491934
-2.280223
-2.072669
-1.932134
-1.725879
-1.534949
-1.371295
-1.312328
-1.427925
-1.327914
-1.096980
-0.668103
-0.068039
0.391230
0.745814
1.132868
1.560706
1.975295
2.359752
2.478466
2.436124
2.115050
1.638376
1.291326
0.738021
