EVENT_NAME: 202302060117
EVENT_ID: 13194
EVENT_DATE_YYYYMMDD: 2023/02/06
EVENT_TIME_HHMMSS: 01:17:32.00000
EVENT_LATITUDE_DEGREE: 37.288
EVENT_LONGITUDE_DEGREE: 37.043
EVENT_DEPTH_KM: 8.6
HYPOCENTER_REFERENCE: AFAD
MAGNITUDE_W: 7.7
MAGNITUDE_W_REFERENCE: AFAD
MAGNITUDE_L: 
MAGNITUDE_L_REFERENCE: 
FOCAL_MECHANISM: 
NETWORK: TK
STATION_CODE: 2408
STATION_NAME: 
STATION_LATITUDE_DEGREE: 39.60185
STATION_LONGITUDE_DEGREE: 39.03454
STATION_ELEVATION_M: 1062.0
LOCATION: Kahramanmaras_Pazarck_Turkiye
SENSOR_DEPTH_M: 
VS30_M/S: 416
SITE_CLASSIFICATION_EC8: B
MORPHOLOGIC_CLASSIFICATION: 
EPICENTRAL_DISTANCE_KM: 310.27
EARTHQUAKE_BACKAZIMUTH_DEGREE: 
DATE_TIME_FIRST_SAMPLE_YYYYMMDD_HHMMSS: 2023/02/06 01:18:02.9735460
DATE_TIME_FIRST_SAMPLE_PRECISION: millisecond
SAMPLING_INTERVAL_S: 0.01
NDATA: 18251
DURATION_S: 
STREAM: HNN
UNITS: cm/s^2
INSTRUMENT: sensor = CMG-5T/GURALP | digitizer = 
INSTRUMENT_ANALOG/DIGITAL: 
INSTRUMENTAL_FREQUENCY_HZ: 
INSTRUMENTAL_DAMPING: 
FULL_SCALE_G: 
N_BIT_DIGITAL_CONVERTER: 
PGA_CM/S^2: 36.961
TIME_PGA_S: 
BASELINE_CORRECTION: BASELINE REMOVED
FILTER_TYPE: BUTTERWORTH
FILTER_ORDER: 
LOW_CUT_FREQUENCY_HZ: 
HIGH_CUT_FREQUENCY_HZ: 
LATE/NORMAL_TRIGGERED: 
DATABASE_VERSION: 
HEADER_FORMAT: DYNA 1.2
DATA_TYPE: Acceleration
PROCESSING: Automatic Paolucci et al., 2011
DATA_TIMESTAMP_YYYYMMDD_HHMMSS: 
DATA_LICENSE: U (unknown license)
DATA_CITATION: Turkish Accelerometric Archive v 1.0 - Disaster And Emergency Management Presidency, Earthquake Department
DATA_CREATOR: AFAD
ORIGINAL_DATA_MEDIATOR_CITATION: : AFAD - Disaster And Emergency Management Presidency
ORIGINAL_DATA_MEDIATOR: AFAD PROCESS SERVICE
ORIGINAL_DATA_CREATOR_CITATION: AFAD PROCESS SERVICE
ORIGINAL_DATA_CREATOR: network: TK
USER1: GuestUser
USER2: 
USER3: 
USER4: 
USER5: 
[...]
-0.664641
-0.535934
-0.273299
-0.130769
0.087326
0.167806
0.254429
0.374228
0.465766
0.688162
0.858030
1.071517
1.158755
1.257359
1.371628
1.511700
1.739625
1.735938
1.617675
1.325551
1.066908
0.886595
0.782462
0.736386
0.504160
0.223401
-0.283133
-0.809940
-1.284221
-1.571738
-1.663277
-1.754201
-1.865706
-2.110219
-2.153223
-2.144315
-1.974140
-1.846048
-1.809494
-1.702904
-1.646998
-1.539179
-1.574812
-1.592628
-1.669423
-1.777242
-1.837448
-1.873695
-1.680482
-1.511842
-1.325079
-1.303577
-1.342281
-1.284840
-1.119886
-0.790594
-0.563898
-0.356247
-0.320922
-0.295426
-0.268088
-0.215561
-0.129552
-0.008524
0.154279
0.181925
0.169637
0.070726
-0.056752
-0.114808
-0.187917
-0.267168
-0.523046
-0.797662
-1.171496
-1.561610
-1.921620
-2.324943
-2.745468
-3.271046
-3.711844
-4.148342
-4.435245
-4.461969
-4.386404
-4.199641
-4.177832
-4.121926
-4.118854
-4.002435
-3.783111
-3.729663
-3.743793
-3.975404
-4.121927
-4.306848
-4.314527
-4.331422
-4.333880
-4.277974
-4.223604
-4.019946
-3.830111
-3.526314
-3.280266
-3.036369
-2.774347
-2.597107
-2.366111
-2.214058
-2.042961
-2.037740
-2.054635
-2.046341
-1.907498
-1.656842
-1.545951
-1.560082
-1.914256
-2.233412
-2.487140
-2.607861
-2.660081
-2.844080
-3.069240
-3.313138
-3.285800
-3.154943
-2.913195
-2.723975
-2.628750
-2.408505
-2.119145
-1.587116
-1.017612
-0.355340
0.259320
0.874286
1.559289
2.310949
3.228485
4.170594
5.064169
5.680365
6.113176
6.485166
6.887260
7.432805
7.783292
7.895104
7.653357
7.298568
6.960674
6.585611
6.373659
6.033001
5.712616
5.198403
4.638420
3.890446
3.001477
2.183774
1.447472
0.993466
0.600587
0.288803
-0.194693
-0.720271
-1.173049
-1.533060
-1.785559
-1.946520
-1.931775
-1.892150
-1.880477
-1.959422
-2.032223
-1.908431
-1.721975
-1.468555
-1.390532
-1.351214
-1.363808
-1.338927
-1.254761
-1.295616
-1.278107
-1.388998
-1.405586
-1.469478
-1.535521
-1.678051
-1.866351
-1.849149
-1.887853
-1.626447
-1.443063
-1.145716
-0.941137
-0.861886
-0.770654
-0.874787
-0.728265
-0.561161
-0.164596
0.198486
0.429175
0.627303
0.763997
1.068715
1.243191
1.374970
1.293875
1.024174
0.873043
0.789184
0.961202
1.022944
1.269914
1.422273
1.553744
1.710711
1.851705
2.077787
2.295267
2.633775
2.830368
2.990406
3.142151
3.319699
3.539944
3.613052
3.655442
3.515370
3.469600
3.464685
3.617966
3.892274
4.084566
4.449491
4.749910
5.219582
5.718129
6.318965
6.842086
7.129603
7.316366
7.318516
7.345547
7.337561
7.406061
7.438621
7.430942
7.423262
7.221754
7.054957
6.766519
6.562861
6.281794
5.939907
5.507710
4.934211
4.392352
3.729159
3.139687
2.479872
1.843710
1.209084
0.579679
0.008024
-0.711997
-1.322049
-2.000602
-2.513279
-3.045001
-3.526654
-3.970831
-4.484123
-4.855499
-5.293840
-5.631734
-5.961334
-6.223970
-6.402747
-6.541898
-6.475855
-6.381245
-6.128132
-5.908808
-5.595489
-5.191859
-4.746761
-4.121043
-3.589936
-3.043777
-2.551373
-2.011357
-1.516190
-1.031773
-0.416806
0.242087
0.880092
1.443760
1.776124
2.041832
2.348393
2.765846
3.191899
3.607508
3.868301
4.079331
4.196672
4.329679
4.466372
4.521049
4.508762
4.277765
3.985640
3.558358
3.207870
2.902229
2.531467
2.149647
1.608402
1.165454
0.657999
0.294302
-0.027926
-0.386094
-0.695113
-1.090142
-1.216085
-1.380424
-1.353086
-1.470734
-1.638146
-1.897095
-2.163417
-2.297039
-2.417145
-2.379056
-2.432505
-2.515750
-2.674253
-2.813097
-2.798659
-2.719715
-2.508685
-2.382129
-2.196595
-1.989558
-1.745968
-1.524494
-1.417289
-1.290426
-1.293805
-1.186908
-1.149740
-1.084618
-1.054515
-1.093527
-1.086462
-1.168171
-1.160799
-1.201961
-1.255103
-1.351863
-1.432958
-1.388110
-1.352171
-1.192132
-1.121175
-0.984482
-0.851475
-0.596518
-0.231900
0.178487
0.683177
1.023528
1.398590
1.641567
1.942906
2.267899
2.587055
2.912968
3.094817
3.308304
3.380797
3.533464
3.692581
3.846476
4.039075
4.148123
4.422738
4.666021
5.118492
5.560825
6.025276
6.518293
6.934210
7.459481
7.941440
8.645488
9.311753
10.023480
10.619402
10.926271
11.148974
11.110884
11.207337
11.158496
11.192592
11.173240
11.024566
10.861148
10.576703
10.454754
10.158636
9.931018
9.592509
9.156319
8.736102
8.293768
7.935600
7.528284
7.289301
7.166430
7.155679
7.189775
7.128647
7.156907
7.140012
7.218034
7.245066
7.277626
7.321552
7.299743
7.276397
7.017754
6.703206
6.303876
5.921442
5.524570
5.023258
4.508123
3.758920
3.096955
2.371098
1.719577
1.081878
0.522510
-0.049759
-0.645681
-1.076036
-1.387205
-1.491645
-1.505468
-1.551852
-1.535265
-1.602844
-1.619739
-1.677795
-1.576120
-1.477517
-1.366933
-1.415468
-1.624348
-1.924152
-2.273719
-2.473076
-2.730183
-2.957186
-3.167602
-3.339007
-3.460034
-3.647719
-3.869194
-4.217532
-4.363748
-4.392930
-4.269752
-4.109099
-3.936159
-3.713456
-3.675060
-3.355289
-2.728036
-2.088188
-1.983748
-2.115527
-1.978526
-1.754288
-1.197992
-0.638010
-0.297966
-0.364930
-0.563674
-0.732006
-0.848426
-0.644769
-0.488723
-0.422374
-0.743066
-0.784535
-0.980513
-1.040106
-1.131030
-1.347590
-1.367863
-1.370628
-1.384144
-1.372472
-1.218269
-0.943040
-0.739382
-0.489648
-0.358484
-0.144996
0.068798
0.300102
0.564580
0.773767
1.148829
1.491330
1.901103
2.166503
2.424224
2.644776
2.793450
3.016767
3.113220
3.164211
3.068986
2.871779
2.620201
2.209506
1.792361
1.179544
0.642600
0.144052
-0.105375
-0.310569
-0.657064
-0.897890
-1.155919
-1.140867
-0.967620
-0.648771
-0.306884
-0.139473
0.158795
0.606657
1.178927
1.538630
1.856864
2.147760
2.558762
3.207210
3.823713
4.484142
4.877327
5.290172
5.630830
5.875035
6.218458
6.478022
6.890559
7.112955
7.238590
7.151966
6.897009
6.621779
6.214156
6.017563
5.729739
5.466796
5.035520
4.646942
4.282938
3.979140
3.871321
3.845825
3.981597
4.015386
4.017229
4.045796
4.098016
4.357273
4.542500
4.785476
4.870871
5.034903
5.170982
5.205692
5.223508
5.127976
5.098180
4.945513
4.801140
4.461710
4.016919
3.503320
2.878831
2.283216
1.544457
0.812763
0.005503
-0.873021
-1.762604
-2.641128
-3.285584
-3.928197
-4.461455
-5.115433
-5.730708
-6.346596
-6.893063
-7.442294
-8.008728
-8.519869
-9.101661
-9.655500
-10.132238
-10.578565
-10.929053
-11.368316
-11.668120
-12.084037
-12.355273
-12.494732
-12.411487
-12.097246
-11.694845
-11.081414
-10.486414
-9.724003
-8.933946
-8.043442
-7.044812
-6.032359
-4.900415
-3.942640
-2.918207
-1.923878
-0.923712
0.177514
1.137747
2.273685
3.166032
4.218110
5.072367
5.851980
6.459267
6.958429
7.355607
7.600734
7.906988
8.030780
8.103888
8.093444
7.885792
7.674762
7.386631
7.221984
6.998052
6.929859
6.815282
6.674288
6.502269
6.172976
6.175126
5.968089
5.914026
5.880851
5.946893
6.081744
6.336392
6.703161
6.919105
7.210001
7.441305
7.680595
7.868586
7.931865
8.035690
8.015416
8.034461
7.932785
7.772132
7.572467
7.310446
7.127983
6.861661
6.641415
6.206453
5.616061
4.910169
4.111511
3.455382
2.802325
2.153876
1.412352
0.611851
-0.272203
-1.331346
-2.301409
-3.375912
-4.349661
-5.318188
-6.256304
-7.272751
-8.319915
-9.242365
-10.114132
-10.791455
-11.445127
-12.026919
-12.584751
-13.017870
-13.247945
-13.429179
-13.445152
-13.461740
-13.400919
-13.322282
-13.270063
-13.190504
-13.165930
-13.011421
-12.934320
-12.741106
-12.596733
-12.480621
-12.264983
-12.097880
-11.819885
-11.645717
-11.389225
-11.160686
-10.919553
-10.648009
-10.455717
-10.078505
-9.803889
-9.556920
-9.297663
-9.022126
-8.715564
-8.338659
-7.837962
-7.386413
-6.596663
-5.843775
-5.121911
-4.297143
-3.465309
-2.419989
-1.335964
-0.179139
0.738704
1.667605
2.671149
3.636297
4.598373
5.358019
6.097700
6.689935
7.382003
8.208000
8.975940
9.823439
10.419361
10.984258
11.379287
11.867082
12.299586
12.652839
12.999641
13.014385
13.093022
13.073670
13.136333
13.216199
13.345520
13.597711
13.731947
13.949735
14.031137
14.013013
13.808741
13.434600
13.153533
12.809803
12.540102
12.087631
11.567889
10.965516
10.269147
9.722680
9.017096
8.399979
7.610229
6.810956
6.059910
5.272310
4.665022
3.976026
3.318975
2.500658
1.745311
1.031433
0.390356
-0.044913
-0.456222
-0.656194
-0.911765
-1.104057
-1.329525
-1.498472
-1.407855
-1.339048
-1.189453
-1.180852
-1.152285
-1.083171
-1.096687
-1.093001
-1.276385
-1.356251
-1.457927
-1.381440
-1.262563
-1.185462
-1.008529
-0.940643
-0.769546
-0.584012
-0.216936
0.254272
0.700599
1.175800
1.505708
1.818106
2.083506
2.360886
2.598333
2.816735
3.072920
3.119610
3.240023
3.285178
3.257532
3.150634
2.958035
3.041586
3.232650
3.344155
3.213912
3.045886
2.855744
2.848986
3.110392
3.190872
3.225890
2.958647
2.525221
2.200228
1.743764
1.475906
1.208663
0.917767
0.363621
-0.302338
-1.052462
-1.711048
-2.147239
-2.784015
-3.174437
-3.627522
-4.205321
-4.662706
-4.907833
-5.043912
-5.234669
-5.363069
-5.583007
-5.697891
-5.744582
-5.919673
-6.127631
-6.590546
-7.013528
-7.468149
-7.877308
-8.241619
-8.659994
-9.039664
-9.551727
-9.936926
-10.249631
-10.409363
-10.323354
-10.256390
-10.151029
-10.053654
-9.875492
-9.600262
-9.117381
-8.710680
-8.428692
-8.244080
-8.183259
-7.977758
-7.593174
-7.186473
-6.825541
-6.496862
-6.058215
-5.592229
-4.957603
-4.259084
-3.516946
-2.683270
-1.992431
-1.312036
-0.719186
0.072100
0.959225
1.741910
2.367627
2.746376
3.130960
3.500493
4.105016
4.628751
4.892922
5.056647
5.028079
5.157400
5.305766
5.525704
5.717689
5.831344
5.944692
5.913974
5.990461
6.029780
6.124082
6.335727
6.407606
6.369516
6.029164
5.791717
5.515258
5.052343
4.555332
3.918862
3.283315
2.708588
2.351034
2.035257
1.779072
1.698284
1.638999
1.822383
2.074882
2.581722
3.174572
3.731483
4.340306
4.838853
5.364124
5.860520
6.324356
6.754710
6.993079
7.128850
7.029940
6.920892
6.833654
6.623852
6.333263
5.674677
4.869568
4.020532
3.256892
2.593698
1.887193
1.156728
0.401688
-0.334306
-1.050949
-1.711992
-2.188423
-2.566557
-2.841480
-3.222379
-3.614029
-4.073872
-4.489174
-4.857786
-5.296126
-5.531424
-5.823241
-6.056081
-6.354349
-6.758286
-7.115533
-7.546501
-7.843541
-8.225975
-8.754011
-9.286348
-10.002376
-10.568195
-11.151216
-11.494025
-11.993186
-12.449650
-12.862188
-13.344148
-13.697708
-14.046967
-14.191648
-14.306225
-14.469335
-14.602957
-14.888017
-15.018567
-15.264923
-15.308849
-15.170927
-15.194273
-15.100891
-15.112564
-14.932559
-14.543060
-13.871880
-13.092574
-12.176575
-11.252589
-10.315394
-9.346253
-8.432404
-7.528077
-6.559551
-5.575665
-4.409317
-3.392257
-2.434789
-1.637974
-0.786789
0.156550
1.150265
2.245348
3.243056
4.274554
5.294379
6.173517
7.089823
7.987699
9.054829
10.082641
11.127347
12.128127
12.993750
13.983779
14.858616
15.871684
16.721026
17.468078
18.205301
18.785250
19.424176
20.054809
20.665475
21.050674
21.219006
21.309008
21.212248
21.128081
20.941011
20.729059
20.256929
19.403900
18.504795
17.501864
16.628869
15.729457
14.725912
13.709159
12.692712
11.891289
10.958702
10.054682
9.116565
8.173534
7.415730
6.665913
6.084735
5.518609
5.026513
4.501548
3.770161
2.921126
2.004819
1.331488
0.702391
-0.100260
-1.026397
-2.140833
-3.119804
-4.060992
-4.916171
-5.750769
-6.758000
-7.736356
-8.926665
-9.936353
-10.868019
-11.588962
-12.277037
-13.062179
-13.874661
-14.742434
-15.272313
-15.719869
-16.176026
-16.575662
-17.105542
-17.465245
-17.712215
-17.810512
-17.938604
-17.953042
-17.802526
-17.656003
-17.256674
-16.773793
-16.151454
-15.218253
-14.123477
-12.780810
-11.519544
-10.144009
-8.717483
-7.538233
-6.237342
-5.127207
-3.919390
-2.662425
-1.143439
0.221345
1.435920
2.777972
3.841109
4.978890
6.016224
6.784164
7.507564
8.006111
8.357520
8.419570
8.502200
8.518480
8.477626
8.510186
8.297620
8.013482
7.411723
6.756823
6.060455
5.190531
4.425969
3.604887
2.853534
2.045353
1.237172
0.424998
-0.502982
-1.322528
-2.212111
-3.055003
-3.899738
-4.734950
-5.479853
-6.381415
-7.280520
-8.253348
-9.289453
-10.218969
-11.164150
-11.868813
-12.487159
-12.884338
-13.180456
-13.396401
-13.398244
-13.528487
-13.553062
-13.655659
-13.706957
-13.589002
-13.534632
-13.436336
-13.433878
-13.416677
-13.477805
-13.562586
-13.710645
-14.101066
-14.348343
-14.617737
-14.664121
-14.699139
-14.596235
-14.267250
-13.800649
-13.092915
-12.494843
-11.911823
-11.277504
-10.539974
-9.444277
-8.289601
-7.012977
-5.749868
-4.405972
-2.927226
-1.435578
0.283994
2.055786
3.944613
5.937880
7.854659
9.758845
11.455686
13.296593
15.272965
17.375893
19.368853
21.011324
22.327881
23.440473
24.679622
26.029662
27.136417
27.889613
28.652639
29.343478
29.812229
29.804857
29.613486
28.987767
28.535911
28.198017
27.643563
26.810501
25.870849
24.972051
24.360770
23.944546
23.347702
22.777890
22.200399
21.581746
20.979373
20.217883
19.590014
19.042626
18.349943
17.485549
16.379714
15.213980
13.855032
12.429427
10.920885
9.437530
8.065681
6.481880
4.957057
3.366498
1.841675
0.349413
-1.321934
-3.100484
-5.077164
-6.948174
-8.822257
-10.628146
-12.326524
-14.083265
-15.692869
-17.333190
-18.937265
-20.500792
-22.103024
-23.422039
-24.730610
-25.926754
-27.258363
-28.609632
-29.926497
-31.178547
-32.174413
-33.056009
-33.902894
-34.811829
-35.709091
-36.434949
-36.948855
-36.961142
-36.580858
-35.814760
-34.702475
-33.578518
-32.260425
-30.820075
-29.132142
-27.217205
-25.174484
-23.213471
-21.582672
-20.069215
-18.545314
-17.100971
-15.808374
-14.698853
-13.489193
-12.311480
-11.045607
-9.873115
-8.780182
-7.720731
-6.744218
-5.749582
-5.039390
-4.226602
-3.334255
-2.245930
-1.189551
-0.258807
0.591456
1.242977
1.939652
2.758891
3.457103
4.208456
4.622529
4.698709
4.714989
4.848303
5.096808
4.986225
4.605326
3.928002
3.398123
3.017224
2.622503
2.062520
1.133619
0.162327
-0.816951
-1.725578
-2.567548
-3.344705
-3.918510
-4.451768
-4.832360
-5.258721
-5.705662
-6.010074
-6.210968
-6.104070
-6.118815
-6.275475
-6.365171
-6.337832
-6.025434
-5.644843
-5.218175
-4.794580
-4.319071
-3.627617
-2.972103
-2.190340
-1.385231
-0.449880
0.609878
1.549530
2.335901
2.930901
3.581808
4.251759
4.980995
5.697637
6.286801
6.906990
7.283587
7.531479
7.787663
8.151974
8.482803
8.468365
8.404165
8.117263
7.689673
7.320447
6.812070
6.339326
5.769821
5.162840
4.478758
3.809728
3.430673
3.047009
2.901408
2.749970
2.589931
2.428663
2.289205
2.138688
1.841034
1.640448
1.565189
1.554131
1.442933
1.087530
0.658097
0.217913
-0.114144
-0.473541
-0.996048
-1.548965
-2.253935
-2.916514
-3.559127
-4.390653
-5.369931
-6.582356
-7.678668
-8.843788
-9.804021
-10.728929
-11.759506
-12.654310
-13.577990
-14.061792
-14.401837
-14.653721
-14.845400
-15.134760
-15.340875
-15.348248
-14.941854
-14.290333
-13.498740
-12.470007
-11.479978
-10.395646
-9.328209
-8.183056
-6.949743
-6.075827
-5.318024
-4.608754
-3.547153
-2.385720
-1.598120
-1.149028
-0.840009
-0.332247
0.362585
1.151107
1.712625
1.927033
2.150043
2.285201
2.455683
2.635381
2.855933
3.128706
3.279529
3.537557
3.872072
4.284916
4.570897
4.677180
5.002787
5.354503
5.889604
6.595802
7.400297
8.191890
8.797027
9.461142
10.086245
10.857872
11.617825
12.234942
12.753763
13.253846
14.001205
14.747029
15.373976
15.856242
16.139151
16.301954
16.198436
16.178776
16.167104
16.107511
16.128092
15.879279
15.508210
14.799861
13.937003
13.083667
12.293917
11.653761
10.914081
10.195288
9.320757
8.607493
8.108025
7.513946
7.051338
6.516544
6.011546
5.524671
4.979741
4.505153
3.929197
3.587924
3.328668
3.084155
2.734588
2.185971
1.783570
1.478544
1.406050
1.443218
1.583598
1.878794
2.252934
2.974491
3.675467
4.403475
5.240223
6.144857
7.187720
8.187885
9.151190
9.807011
10.352249
10.932812
11.349342
11.736999
11.977825
12.140014
12.110832
11.829151
11.717646
11.619042
11.602147
11.353027
11.001003
10.552832
10.135994
9.921892
9.640211
9.415665
9.117090
8.876570
8.834794
8.713767
8.878106
9.187739
9.419043
9.541299
9.540684
9.712088
9.662326
9.604269
9.321052
8.967492
8.732502
8.401980
8.171905
7.784863
7.397514
7.056855
6.691929
6.420693
6.004161
5.622341
5.071574
4.515277
4.114719
3.725220
3.423880
2.856832
2.127596
1.422011
0.775712
0.228017
-0.503063
-1.056902
-1.350869
-1.439644
-1.637772
-2.013449
-2.311718
-2.701524
-2.852962
-2.906104
-3.066758
-3.381613
-3.829784
-4.121601
-4.528303
-4.858210
-5.203477
-5.591133
-5.838103
-6.179683
-6.439555
-6.800794
-7.090769
-7.291048
-7.585630
-7.658738
-7.703279
-7.718945
-7.636622
-7.581945
-7.291049
-6.808475
-6.172621
-5.747489
-5.301469
-4.733808
-4.240176
-3.696474
-3.140178
-2.461626
-1.693071
-0.969671
-0.210946
0.464842
1.210973
1.682488
2.001029
2.074444
1.969697
1.911333
1.695696
1.258584
0.583103
-0.249959
-1.090701
-2.140015
-3.004102
-3.826106
-4.439844
-4.949757
-5.427416
-5.814459
-6.237748
-6.042384
-5.828589
-5.461514
-4.965117
-4.615858
-4.091201
-3.403127
-2.745155
-1.979365
-1.164427
-0.117570
0.960925
1.996109
2.695856
3.421407
4.109481
4.768067
5.526485
5.892024
6.030868
6.022881
6.033325
6.032710
5.671164
5.247568
4.621849
4.009340
3.491133
2.901355
2.451955
1.931906
1.547321
1.386361
1.277006
1.112052
1.034950
1.089627
1.111744
1.254581
1.356870
1.404482
1.479740
1.292670
1.029420
0.717636
0.456536
0.342266
0.163489
-0.021431
-0.247206
-0.493562
-0.529194
-0.427519
-0.036177
0.451926
1.053684
1.353488
1.594314
2.019139
2.263958
2.591715
2.712128
2.849435
2.836534
2.761583
2.702605
2.400343
2.266721
2.095316
1.985347
1.865855
1.759572
1.814249
1.958008
2.299280
2.503245
2.775710
3.117905
3.304360
3.622288
3.883387
4.142337
4.386849
4.544737
4.845462
5.068472
5.391929
5.766069
6.031469
6.258472
6.384414
6.480560
6.362604
6.064029
5.881259
5.811837
6.050820
6.189970
6.258471
6.159867
6.002285
5.993377
6.037917
6.290416
6.298402
6.216386
5.888322
5.453974
5.001503
4.415718
3.800444
3.026974
2.210806
1.400168
0.603353
-0.081650
-0.903962
-1.743167
-2.668689
-3.685136
-4.637075
-5.506691
-6.157598
-6.822942
-7.435144
-7.911882
-8.451591
-8.771976
-9.025090
-9.151032
-9.241035
-9.216768
-8.932016
-8.708699
-8.325958
-8.155168
-7.942602
-7.588428
-7.482759
-7.586892
-7.886082
-7.910349
-7.729423
-7.294461
-6.849363
-6.790693
-6.654921
-6.448806
-6.258050
-5.983741
-5.669807
-5.370925
-4.915383
-4.343114
-4.118875
-3.971124
-3.632616
-3.293186
-2.846552
-2.495450
-2.196875
-1.874340
-1.417569
-0.708299
-0.285318
0.071621
0.419037
0.821131
1.374662
1.904848
2.517665
3.041400
3.595853
4.196382
4.621821
4.850974
5.081049
5.465941
5.674206
5.921176
6.066470
5.994283
5.703080
5.392832
5.206990
4.772643
4.445193
4.086410
3.508305
2.961223
2.264855
1.441008
0.800545
0.227047
-0.038046
-0.549188
-1.127908
-1.638742
-2.096742
-2.449074
-2.690207
-2.823829
-2.994619
-3.127012
-3.336507
-3.616959
-3.847956
-4.227319
-4.740610
-5.389674
-5.850746
-6.329326
-7.038904
-7.605337
-8.183443
