EVENT_NAME: 202302060117
EVENT_ID: 13194
EVENT_DATE_YYYYMMDD: 2023/02/06
EVENT_TIME_HHMMSS: 01:17:32.00000
EVENT_LATITUDE_DEGREE: 37.288
EVENT_LONGITUDE_DEGREE: 37.043
EVENT_DEPTH_KM: 8.6
HYPOCENTER_REFERENCE: AFAD
MAGNITUDE_W: 7.7
MAGNITUDE_W_REFERENCE: AFAD
MAGNITUDE_L: 
MAGNITUDE_L_REFERENCE: 
FOCAL_MECHANISM: 
NETWORK: TK
STATION_CODE: 2307
STATION_NAME: 
STATION_LATITUDE_DEGREE: 38.69583
STATION_LONGITUDE_DEGREE: 39.93199
STATION_ELEVATION_M: 880.0
LOCATION: Kahramanmaras_Pazarck_Turkiye
SENSOR_DEPTH_M: 
VS30_M/S: 329
SITE_CLASSIFICATION_EC8: C
MORPHOLOGIC_CLASSIFICATION: 
EPICENTRAL_DISTANCE_KM: 297.63
EARTHQUAKE_BACKAZIMUTH_DEGREE: 
DATE_TIME_FIRST_SAMPLE_YYYYMMDD_HHMMSS: 2023/02/06 01:18:00.7984240
DATE_TIME_FIRST_SAMPLE_PRECISION: millisecond
SAMPLING_INTERVAL_S: 0.01
NDATA: 18251
DURATION_S: 
STREAM: HNZ
UNITS: cm/s^2
INSTRUMENT: sensor = CMG-5T/GURALP | digitizer = 
INSTRUMENT_ANALOG/DIGITAL: 
INSTRUMENTAL_FREQUENCY_HZ: 
INSTRUMENTAL_DAMPING: 
FULL_SCALE_G: 
N_BIT_DIGITAL_CONVERTER: 
PGA_CM/S^2: 30.173
TIME_PGA_S: 
BASELINE_CORRECTION: BASELINE REMOVED
FILTER_TYPE: BUTTERWORTH
FILTER_ORDER: 
LOW_CUT_FREQUENCY_HZ: 
HIGH_CUT_FREQUENCY_HZ: 
LATE/NORMAL_TRIGGERED: 
DATABASE_VERSION: 
HEADER_FORMAT: DYNA 1.2
DATA_TYPE: Acceleration
PROCESSING: Automatic Paolucci et al., 2011
DATA_TIMESTAMP_YYYYMMDD_HHMMSS: 
DATA_LICENSE: U (unknown license)
DATA_CITATION: Turkish Accelerometric Archive v 1.0 - Disaster And Emergency Management Presidency, Earthquake Department
DATA_CREATOR: AFAD
ORIGINAL_DATA_MEDIATOR_CITATION: : AFAD - Disaster And Emergency Management Presidency
ORIGINAL_DATA_MEDIATOR: AFAD PROCESS SERVICE
ORIGINAL_DATA_CREATOR_CITATION: AFAD PROCESS SERVICE
ORIGINAL_DATA_CREATOR: network: TK
USER1: GuestUser
USER2: 
USER3: 
USER4: 
USER5: 
[...]
-1.732390
-1.793190
-1.710224
-1.579635
-1.392438
-1.100112
-0.711042
-0.312987
-0.039830
-0.009578
-0.225527
-0.570567
-0.869781
-1.024030
-1.107594
-1.201041
-1.307668
-1.396922
-1.463114
-1.515229
-1.496958
-1.355886
-1.130651
-0.866778
-0.618181
-0.466925
-0.466625
-0.633753
-0.956928
-1.359774
-1.760524
-2.125930
-2.469472
-2.777971
-2.996915
-3.086469
-3.073290
-3.079280
-3.155955
-3.241615
-3.285942
-3.377893
-3.612112
-3.914321
-4.108705
-4.103912
-3.955053
-3.787025
-3.615103
-3.386573
-3.108923
-2.884586
-2.759089
-2.622809
-2.391883
-2.105846
-1.913557
-1.843470
-1.746427
-1.506516
-1.145301
-0.784985
-0.565141
-0.503140
-0.424667
-0.195238
0.180952
0.617045
1.045651
1.527570
2.067295
2.522857
2.790024
2.883174
2.914624
3.038324
3.305191
3.645440
4.004259
4.335522
4.605685
4.762032
4.727888
4.499359
4.160010
3.860796
3.681688
3.573863
3.463942
3.282138
3.075174
2.898461
2.682512
2.314710
1.633016
0.620958
-0.518693
-1.481330
-2.084851
-2.338838
-2.399040
-2.458942
-2.572457
-2.709634
-2.789304
-2.771333
-2.693458
-2.535614
-2.233703
-1.801802
-1.432800
-1.320781
-1.445678
-1.613705
-1.651143
-1.565182
-1.455559
-1.409433
-1.424708
-1.460948
-1.495691
-1.473527
-1.290223
-0.861019
-0.173034
0.654524
1.414393
1.906495
2.046069
1.921772
1.722895
1.658201
1.797176
2.035590
2.285086
2.498041
2.636717
2.671761
2.568728
2.380634
2.247052
2.288984
2.518413
2.737358
2.689437
2.328523
1.816654
1.349712
0.994189
0.732115
0.543122
0.402950
0.329869
0.320286
0.296325
0.167235
-0.094539
-0.438681
-0.796300
-1.113784
-1.339617
-1.411799
-1.396523
-1.471401
-1.677167
-1.890720
-1.988660
-1.945829
-1.814342
-1.708313
-1.714303
-1.852677
-2.096182
-2.404082
-2.771585
-3.163948
-3.484427
-3.629991
-3.606927
-3.504493
-3.417633
-3.422424
-3.461061
-3.399960
-3.155256
-2.748814
-2.344469
-2.053041
-1.791565
-1.484263
-1.203617
-0.972691
-0.759137
-0.528510
-0.210725
0.256518
0.804330
1.259592
1.581571
1.829569
2.000293
2.040129
1.920025
1.701979
1.489624
1.381800
1.382998
1.359038
1.155968
0.766900
0.332904
0.036985
-0.058859
-0.048375
-0.117263
-0.305956
-0.514417
-0.656386
-0.785476
-1.040961
-1.463874
-1.993115
-2.488511
-2.806595
-2.854816
-2.621493
-2.209960
-1.765181
-1.335078
-0.913062
-0.562629
-0.377829
-0.391905
-0.514406
-0.566221
-0.494936
-0.366444
-0.303545
-0.366742
-0.524885
-0.702795
-0.858242
-0.911256
-0.782464
-0.482949
-0.120536
0.184070
0.368572
0.454833
0.479094
0.454834
0.417695
0.410507
0.425184
0.457832
0.527619
0.615677
0.694750
0.799580
0.957425
1.130245
1.276109
1.385732
1.501046
1.713103
2.049757
2.480459
2.978253
3.472452
3.832169
3.991511
4.060999
4.207163
4.522851
4.928694
5.242885
5.351609
5.283021
5.126376
4.922407
4.660633
4.324279
3.961568
3.650373
3.373024
3.053443
2.663476
2.237867
1.872161
1.615478
1.391442
1.160218
0.954153
0.819672
0.753480
0.698969
0.532739
0.162540
-0.341242
-0.813276
-1.135552
-1.348207
-1.593209
-1.923272
-2.310244
-2.663670
-2.837088
-2.771494
-2.540568
-2.266212
-2.046368
-1.963402
-2.042173
-2.226973
-2.439028
-2.671151
-2.941312
-3.238729
-3.533750
-3.806307
-4.062691
-4.303799
-4.509564
-4.593727
-4.476916
-4.210647
-3.957557
-3.826369
-3.827267
-3.917420
-4.006675
-4.036326
-4.012664
-3.980615
-3.905736
-3.727824
-3.453468
-3.142272
-2.837665
-2.555522
-2.276973
-2.023883
-1.810928
-1.608156
-1.406882
-1.208603
-1.025300
-0.872547
-0.698828
-0.458617
-0.207324
-0.004851
0.125738
0.255128
0.509716
0.905675
1.408260
2.034844
2.744993
3.431481
3.996365
4.377647
4.588805
4.709810
4.772708
4.767917
4.666981
4.475592
4.284204
4.154215
4.044893
3.895736
3.738491
3.648338
3.603711
3.472525
3.164625
2.734224
2.312808
1.975855
1.629917
1.144106
0.574730
0.118271
-0.034780
0.134147
0.371363
0.404310
0.147028
-0.201906
-0.328300
-0.144098
0.185668
0.432468
0.495067
0.451638
0.393234
0.284211
0.095518
-0.079098
-0.169551
-0.259404
-0.464870
-0.823687
-1.257982
-1.671611
-1.950158
-1.983104
-1.759666
-1.332258
-0.751200
-0.150973
0.286318
0.537611
0.682876
0.810770
0.934170
1.051580
1.207628
1.367270
1.409202
1.235185
0.847914
0.321968
-0.239620
-0.661036
-0.857816
-0.889864
-0.822472
-0.701767
-0.526251
-0.305209
-0.131490
-0.127296
-0.318985
-0.631677
-0.957248
-1.194163
-1.355900
-1.520033
-1.707229
-1.872560
-1.904907
-1.775217
-1.510745
-1.014449
-0.261769
0.583760
1.237899
1.496081
1.351716
0.940184
0.431910
-0.002086
-0.243494
-0.298604
-0.256970
-0.227018
-0.283925
-0.403431
-0.561274
-0.724209
-0.820652
-0.827540
-0.776023
-0.726303
-0.719114
-0.732591
-0.722707
-0.665199
-0.515741
-0.227009
0.166853
0.587372
0.992316
1.338555
1.576070
1.731818
1.863605
1.995692
2.131672
2.240696
2.282928
2.190079
1.924411
1.552115
1.216061
0.920741
0.601160
0.283076
0.004828
-0.227294
-0.419582
-0.600188
-0.775403
-0.924561
-1.005129
-1.053351
-1.178547
-1.450505
-1.830588
-2.161550
-2.330775
-2.335567
-2.270871
-2.260986
-2.410443
-2.762072
-3.248482
-3.717521
-3.990078
-3.983189
-3.761847
-3.445559
-3.167909
-3.025040
-3.017252
-3.113096
-3.274833
-3.416802
-3.387149
-3.122378
-2.676401
-2.183699
-1.789837
-1.581375
-1.525665
-1.496611
-1.374409
-1.171038
-0.999715
-0.957183
-1.026670
-1.065306
-0.887095
-0.467475
0.028821
0.503552
0.948630
1.345787
1.655186
1.818721
1.801350
1.621942
1.275704
0.781506
0.256459
-0.170948
-0.408462
-0.505803
-0.607038
-0.788244
-1.052414
-1.344440
-1.578360
-1.667914
-1.552001
-1.233617
-0.758886
-0.235035
0.219628
0.573654
0.824348
0.989980
1.049584
0.995972
0.858196
0.660518
0.511061
0.522443
0.647640
0.710240
0.590135
0.313984
0.025253
-0.147267
-0.145768
-0.033749
0.074675
0.042029
-0.152954
-0.346440
-0.391965
-0.270961
-0.128691
-0.090352
-0.180505
-0.314986
-0.410231
-0.467438
-0.529437
-0.537822
-0.416518
-0.155042
0.125903
0.271468
0.281352
0.248407
0.273866
0.404455
0.659642
1.044818
1.518051
1.993380
2.353996
2.513638
2.516035
2.444751
2.403718
2.400424
2.399227
2.424986
2.551980
2.802675
3.133039
3.507433
3.878532
4.243940
4.608149
4.919944
5.112832
5.166745
5.151471
5.192805
5.399171
5.741516
6.041929
6.118905
5.912241
5.525269
5.111042
4.788166
4.542865
4.318829
4.042079
3.661397
3.229198
2.867985
2.625978
2.475623
2.354021
2.263568
2.252487
2.324670
2.382477
2.285136
2.008385
1.715162
1.619018
1.769675
1.991915
2.066495
1.942197
1.693301
1.422841
1.233249
1.114642
0.950209
0.686937
0.394013
0.167581
0.042984
0.019323
0.015430
-0.125940
-0.486854
-0.963980
-1.359038
-1.608832
-1.793931
-1.968847
-2.082662
-2.091646
-2.088052
-2.177905
-2.378579
-2.595427
-2.646942
-2.401340
-1.883779
-1.263185
-0.767488
-0.565615
-0.697999
-1.042440
-1.354533
-1.416831
-1.229335
-0.960370
-0.732439
-0.622218
-0.612632
-0.629704
-0.587472
-0.428130
-0.156769
0.216726
0.610887
0.971203
1.288989
1.622349
1.975177
2.313329
2.548149
2.637704
2.584991
2.389708
2.085103
1.796671
1.637930
1.678964
1.903001
2.223182
2.509818
2.745536
3.001921
3.265195
3.470063
3.611734
3.700391
3.707880
3.618326
3.461980
3.278977
3.095376
2.911475
2.726675
2.589498
2.546669
2.542177
2.442139
2.148317
1.685868
1.280026
1.097623
1.110203
1.203952
1.327352
1.447458
1.558878
1.652627
1.705342
1.705642
1.650233
1.509162
1.239600
0.816088
0.310209
-0.202858
-0.608699
-0.831836
-0.875265
-0.814164
-0.759052
-0.797689
-0.910006
-1.022024
-1.087018
-1.099297
-1.080427
-1.077132
-1.192744
-1.509030
-2.024194
-2.598661
-3.061709
-3.318991
-3.359126
-3.289937
-3.261183
-3.366312
-3.593343
-3.844335
-4.043811
-4.203751
-4.349913
-4.455641
-4.479601
-4.410712
-4.292703
-4.166607
-4.061776
-4.014752
-4.009060
-3.963534
-3.821563
-3.632269
-3.485207
-3.392058
-3.296512
-3.105421
-2.814592
-2.499203
-2.193099
-1.850454
-1.421250
-0.840790
-0.117163
0.587894
1.100962
1.413057
1.664649
1.983033
2.379291
2.819877
3.207450
3.483303
3.669901
3.797794
3.861591
3.872075
3.927486
4.076644
4.260547
4.385445
4.371069
4.182975
3.869983
3.463843
2.997500
2.525466
2.065712
1.620635
1.120747
0.507043
-0.182139
-0.774577
-1.111230
-1.222350
-1.272368
-1.450878
-1.788130
-2.174802
-2.492885
-2.668999
-2.638448
-2.382662
-2.003177
-1.640465
-1.346640
-1.117811
-0.897368
-0.637089
-0.383700
-0.183623
-0.021586
0.100916
0.102714
-0.118327
-0.499907
-0.801517
-0.849139
-0.625102
-0.248612
0.158129
0.489992
0.693362
0.744580
0.644842
0.412420
0.135071
-0.055719
-0.139583
-0.180615
-0.251899
-0.383086
-0.542426
-0.671217
-0.730819
-0.744896
-0.780238
-0.894352
-1.064176
-1.259159
-1.447253
-1.535909
-1.497271
-1.438266
-1.457134
-1.547587
-1.641334
-1.663198
-1.566155
-1.380755
-1.212128
-1.164504
-1.260648
-1.365177
-1.318752
-1.094715
-0.793403
-0.552892
-0.445665
-0.453752
-0.557083
-0.727806
-0.925484
-1.103096
-1.240572
-1.360677
-1.453825
-1.468500
-1.383438
-1.238772
-1.158202
-1.226790
-1.398411
-1.531394
-1.521809
-1.490958
-1.671265
-2.119637
-2.687516
-3.142177
-3.322784
-3.244610
-3.072389
-2.917239
-2.783655
-2.675231
-2.661752
-2.841460
-3.179311
-3.467143
-3.630677
-3.806492
-4.107203
-4.500764
-4.873359
-5.228283
-5.607767
-6.022593
-6.436820
-6.797135
-7.082572
-7.256888
-7.289235
-7.175119
-6.901962
-6.490129
-5.956993
-5.282487
-4.507942
-3.788209
-3.172707
-2.595542
-1.941103
-1.143496
-0.292276
0.543369
1.357150
2.170032
2.937987
3.598716
4.235784
4.960609
5.730061
6.393486
6.834971
7.046129
7.131491
7.287239
7.621797
8.013862
8.231909
8.217233
8.064482
7.873692
7.671820
7.488219
7.377099
7.404056
7.520868
7.521467
7.243818
6.725060
6.110758
5.523710
5.021126
4.626667
4.378670
4.387057
4.558979
4.645838
4.496382
3.935692
2.983537
1.851973
0.659907
-0.413252
-1.250693
-1.980009
-2.572747
-3.061254
-3.820222
-4.694503
-5.170431
-5.115918
-4.698994
-4.226959
-3.936130
-3.845975
-3.792362
-3.753424
-3.984948
-4.507600
-4.924523
-5.012579
-4.911642
-4.822686
-4.822985
-4.839757
-4.690897
-4.289847
-3.676142
-3.198117
-3.096281
-3.256820
-3.319118
-3.072618
-2.620650
-2.033601
-1.421094
-0.868789
-0.292823
0.334061
0.793516
1.087340
1.418604
1.574352
1.178095
0.386780
-0.190983
-0.203562
0.315497
1.076563
1.625873
1.858596
1.958934
1.922394
1.629770
1.344633
1.409928
1.769345
2.188965
2.274627
1.924795
1.168822
0.286454
-0.111300
0.230147
1.299113
2.437268
2.923979
2.540602
1.238614
-0.700440
-2.733242
-4.454250
-5.485177
-5.625648
-5.243168
-5.025121
-5.058966
-5.104191
-5.256045
-5.602582
-6.330401
-7.109736
-6.955785
-5.413885
-3.285237
-1.745434
-1.374335
-2.196501
-3.727317
-5.242858
-5.948813
-5.625337
-5.017023
-4.359289
-3.524243
-2.812297
-2.297431
-2.156359
-2.525060
-3.085750
-3.232212
-3.024349
-2.791326
-2.421126
-2.305812
-2.799411
-3.111803
-2.342650
-0.880421
0.004943
-0.240658
-0.765705
-0.583600
0.135834
0.551860
-0.151698
-1.591462
-1.920628
-0.807333
0.435053
1.109559
1.109859
0.330524
-0.692316
-1.477342
-1.702876
-1.560606
-1.524963
-1.309911
-0.933421
-1.183814
-1.857720
-1.863111
-0.870820
0.171191
-0.083695
-1.158052
-1.707061
-1.516269
-1.143673
-0.746816
-0.658159
-1.117613
-1.466846
-1.493502
-1.776542
-2.092829
-1.426708
0.296098
1.950615
2.916848
3.060316
2.492738
1.860763
1.383938
1.215611
1.551667
1.878737
2.126136
2.322319
2.236958
2.052758
2.136023
2.684135
3.600349
4.353329
4.686090
4.740602
4.754680
4.798410
4.546519
3.886989
3.020495
2.213006
1.861976
1.785600
1.711322
2.039290
2.335810
2.363965
2.477182
2.637722
2.684148
2.403504
1.796988
1.286617
1.137759
1.047905
0.726827
0.080476
-0.523045
-0.298109
0.825370
1.862288
1.664310
0.853226
0.393772
0.554912
1.211747
2.487079
3.874729
3.845976
1.301604
-2.044268
-3.309116
-0.981291
3.569528
7.900204
8.553745
5.200085
1.383976
-0.706633
-0.430779
2.832728
6.779128
9.524775
9.379212
6.424505
1.668220
-0.840210
-2.441113
-1.150805
1.889264
2.346024
1.917121
-1.745338
-1.232270
2.192376
4.312338
9.428940
11.760359
9.480458
7.471916
5.406467
-0.183965
-9.901103
-13.656411
-12.162134
-6.255713
2.898938
9.357364
17.002164
12.347715
3.671688
3.986178
2.137577
5.140807
4.575924
0.643603
-8.370276
-12.071672
-0.694625
14.509615
22.464712
16.813779
9.365461
-0.217795
-6.645368
-12.802181
-14.387509
-8.817443
-7.274645
6.205291
14.125346
0.274612
-12.021942
-14.445910
-9.568919
-1.645870
1.452605
0.472296
2.754894
4.922778
3.698665
-2.459945
-7.273437
-7.635549
-7.978492
-6.265270
-3.385141
6.166067
9.127365
0.721200
-6.840334
-13.532679
-16.327445
-10.110728
2.508704
6.419462
-1.781236
-4.814416
2.496726
5.092617
8.458857
3.029564
-5.542531
0.974299
6.125944
5.909995
2.690518
-4.134811
-5.831259
0.301894
8.693983
7.125128
0.112304
-7.479781
-10.836137
-4.045251
5.710826
7.601360
-0.321089
-6.415004
-0.996193
4.410638
-0.284246
-8.398984
-7.643908
-2.302970
1.662599
1.002770
-4.463963
-8.782058
-13.116028
-12.972859
-12.237551
-12.460988
0.696970
20.934845
29.580023
24.291203
3.819408
-14.426696
-24.508642
-29.356878
-22.672020
-5.633256
10.860991
18.430314
20.238782
10.670802
-10.338920
-27.198273
-30.172748
-23.756255
-16.145000
-1.262738
9.177429
7.442044
-1.967493
-15.270115
-16.385505
-10.504843
-6.751930
-0.438170
3.218899
-1.640119
-5.111188
-5.732080
-2.329898
-4.227919
-13.172011
-4.979399
8.317235
12.254649
5.983721
-6.007329
-10.303260
-11.933515
-7.879590
0.928824
3.937444
3.265635
3.291094
7.507057
14.275479
12.562258
0.202806
-8.273744
-6.811815
-1.620934
6.084968
13.565635
13.358372
6.440793
-2.719848
-5.743742
-1.994124
4.128247
10.579483
14.249132
12.541303
4.836301
-4.495362
-9.135436
-8.638541
-6.424531
-3.955336
-2.056415
-3.051101
-5.300452
-6.608430
1.762693
14.011027
17.089734
11.082079
-0.388116
-7.598320
-2.146262
7.597534
12.034837
9.433557
1.535069
-7.833734
-8.193150
-3.929565
2.539043
9.060666
10.808332
9.787588
7.262085
4.654516
-0.870921
-5.512792
-4.472878
5.879831
15.741336
18.479196
15.058146
9.261648
2.466870
4.051001
9.766631
12.800711
15.779979
15.401094
8.940574
5.316752
0.555376
-8.037985
-9.450194
-2.450247
3.310011
3.540637
1.954411
-0.135898
3.071900
4.042326
1.825623
-0.202088
-1.771242
1.704321
6.761919
10.145232
10.123368
4.091153
-2.092018
-4.690901
-5.605318
-2.003060
5.944250
11.615852
10.427081
2.457308
-5.141965
-3.884304
0.242103
-4.232338
-10.591024
-10.602405
-3.995720
3.092883
3.041068
-3.549741
-7.845074
-4.657344
1.402428
5.209554
5.001991
1.401232
0.424218
1.336539
0.260385
0.791724
5.837041
14.382481
19.721022
20.715410
21.058355
19.820763
13.279074
4.801925
-1.436057
-3.280165
0.885479
2.931761
5.055616
6.036526
3.529593
1.240706
-3.118722
-6.451715
-4.643847
1.128691
5.433010
3.583211
0.463172
1.665722
2.497174
5.433313
8.025609
5.682510
1.726827
-0.894820
-1.129040
-0.567749
-2.284564
-2.720057
-2.141994
-1.947609
-0.368270
-1.563930
-4.980787
-5.271614
-3.428703
0.470074
4.609361
5.871215
4.355075
3.112391
3.273530
4.017824
3.100412
1.356043
0.141214
1.501308
3.639241
2.741598
1.663048
1.719657
-0.382333
-7.691078
-13.450735
-12.928681
-5.073921
4.957110
10.262405
8.653416
3.561376
0.475781
-1.484838
-3.595214
-5.635205
-7.080360
-5.979944
-3.600303
-2.109620
0.472193
4.429974
6.429831
3.441878
-1.530956
-3.813852
-3.822537
-1.754691
3.637763
5.548964
1.995229
-2.444469
-5.202695
-6.122202
-4.337397
0.728587
3.706657
2.425037
-0.021395
-0.142098
3.179215
5.861965
2.187226
-4.060939
-4.848361
-0.886686
1.962293
1.422570
-1.000799
0.837620
6.081515
10.062359
11.593775
7.553030
3.892069
6.734160
9.432783
10.955214
9.024846
4.801697
1.401612
-2.610978
-3.494545
-1.951746
-1.456948
-0.458966
-0.108534
0.655527
-0.155257
-0.640170
-2.197044
-5.239808
-3.449012
1.880245
5.046710
5.227916
4.172130
3.028885
3.938210
3.651277
1.271637
-3.294157
-7.345385
-7.836288
-7.117453
-5.303894
-3.206995
-1.818147
2.144726
2.157307
-1.650117
-5.463232
-4.970830
-1.145134
0.823274
-0.828846
-4.771650
-6.297973
-2.710092
1.164723
2.315158
2.433467
2.349005
2.098911
1.661321
0.070003
-3.548727
-8.492807
-10.221302
-5.074749
1.678398
5.078484
3.756129
0.344064
-2.198212
-4.568267
-5.497060
-2.994318
-2.382710
-2.374023
-0.172893
4.068828
6.900136
7.236192
3.370663
-1.729764
-5.068148
-4.163914
-0.109390
1.410346
-4.420296
-2.975140
1.432512
-1.192430
2.611700
1.904848
-0.935744
4.975169
4.259331
-0.907288
-1.295458
-1.449408
-7.135085
-7.469042
-4.389137
-8.945047
-8.577842
-5.796852
-5.516207
-3.966220
-3.147347
-5.408080
-8.304980
-14.713984
-16.238810
-13.037902
-10.219173
-5.274792
-2.370702
-4.717694
-3.223417
-1.067813
2.853727
5.358864
4.925169
5.602670
5.874031
3.069980
-0.434635
0.206026
2.086377
-4.390317
-9.278088
-6.434500
-6.006194
-3.350101
-4.351377
-3.837110
-1.724336
3.925101
5.302867
3.252393
0.628051
-4.896488
-7.928469
-3.133546
-2.463532
-9.893280
-8.165981
-1.231928
0.750558
0.718510
-1.840538
-4.908162
-5.964548
-3.949416
3.747800
12.183618
11.566020
10.464408
9.735091
6.999929
-0.785343
-7.716101
-1.202864
-6.186480
-5.387376
0.434282
-4.208487
0.929381
6.342202
9.204360
13.089359
12.699392
7.468677
3.203596
5.327751
4.327374
3.928722
6.353589
11.135634
13.797417
13.309209
10.016351
6.487176
11.535788
16.391513
12.395694
8.493025
6.638135
6.013349
3.465682
-2.174469
-7.833490
-6.840300
-3.335085
-0.454656
1.052800
0.266575
0.229436
-6.715698
-11.719381
-10.075048
-4.894650
-1.055177
-5.315765
-11.001742
-6.316441
-0.901523
1.138469
0.126411
-1.095007
-1.414289
-5.935754
-7.796336
-6.807339
-4.526538
-3.899354
-3.969141
-3.176326
-2.813613
-4.728706
-3.238323
0.929118
3.247658
4.812321
4.386712
-0.332134
-5.954014
-10.194535
-10.694723
-3.505484
1.611417
0.314222
-3.130490
-2.828579
4.371443
6.866397
9.900477
12.830026
7.805676
3.168298
-6.666249
-17.079458
-14.702214
-5.562238
0.974660
8.323541
8.519424
3.223414
-4.220111
-10.012116
-14.566528
-11.371909
-8.126373
-5.807833
-2.757879
-4.745754
-5.088398
1.681223
2.047829
-3.200857
-6.401465
-9.339998
-2.436794
7.159042
6.448295
3.213842
0.357376
-4.294378
-1.585571
2.155062
2.540238
-1.073400
-2.054607
0.395419
2.166447
3.831447
0.731476
-10.493716
-8.539984
-1.572385
2.337175
2.721751
-2.461640
-3.937945
-2.491291
-4.196125
-3.411996
-1.131195
-3.237678
-6.555695
-2.406524
0.323249
2.251222
4.961826
8.930090
10.960498
6.423158
3.216260
6.410879
6.833794
7.086585
8.756377
7.439713
6.289879
0.829137
-0.850238
-1.682887
0.768338
4.661723
5.076851
8.526955
11.816520
5.424888
0.835433
-2.640429
-4.921827
0.511361
4.246603
6.325531
3.132112
-4.294641
-1.863184
1.204441
2.997932
5.133769
3.547243
2.962592
3.177344
2.837995
3.538260
-0.643856
-5.920097
-5.062587
