EVENT_NAME: 202302060117
EVENT_ID: 13194
EVENT_DATE_YYYYMMDD: 2023/02/06
EVENT_TIME_HHMMSS: 01:17:32.00000
EVENT_LATITUDE_DEGREE: 37.288
EVENT_LONGITUDE_DEGREE: 37.043
EVENT_DEPTH_KM: 8.6
HYPOCENTER_REFERENCE: AFAD
MAGNITUDE_W: 7.7
MAGNITUDE_W_REFERENCE: AFAD
MAGNITUDE_L: 
MAGNITUDE_L_REFERENCE: 
FOCAL_MECHANISM: 
NETWORK: TK
STATION_CODE: 0120
STATION_NAME: 
STATION_LATITUDE_DEGREE: 36.77006
STATION_LONGITUDE_DEGREE: 35.79005
STATION_ELEVATION_M: 35.0
LOCATION: Kahramanmaras_Pazarck_Turkiye
SENSOR_DEPTH_M: 
VS30_M/S: 439
SITE_CLASSIFICATION_EC8: B
MORPHOLOGIC_CLASSIFICATION: 
EPICENTRAL_DISTANCE_KM: 125.25
EARTHQUAKE_BACKAZIMUTH_DEGREE: 
DATE_TIME_FIRST_SAMPLE_YYYYMMDD_HHMMSS: 2023/02/06 01:17:33.6307180
DATE_TIME_FIRST_SAMPLE_PRECISION: millisecond
SAMPLING_INTERVAL_S: 0.01
NDATA: 12501
DURATION_S: 
STREAM: HNN
UNITS: cm/s^2
INSTRUMENT: sensor = CMG-5T/GURALP | digitizer = 
INSTRUMENT_ANALOG/DIGITAL: 
INSTRUMENTAL_FREQUENCY_HZ: 
INSTRUMENTAL_DAMPING: 
FULL_SCALE_G: 
N_BIT_DIGITAL_CONVERTER: 
PGA_CM/S^2: 112.462
TIME_PGA_S: 
BASELINE_CORRECTION: BASELINE REMOVED
FILTER_TYPE: BUTTERWORTH
FILTER_ORDER: 
LOW_CUT_FREQUENCY_HZ: 
HIGH_CUT_FREQUENCY_HZ: 
LATE/NORMAL_TRIGGERED: 
DATABASE_VERSION: 
HEADER_FORMAT: DYNA 1.2
DATA_TYPE: Acceleration
PROCESSING: Automatic Paolucci et al., 2011
DATA_TIMESTAMP_YYYYMMDD_HHMMSS: 
DATA_LICENSE: U (unknown license)
DATA_CITATION: Turkish Accelerometric Archive v 1.0 - Disaster And Emergency Management Presidency, Earthquake Department
DATA_CREATOR: AFAD
ORIGINAL_DATA_MEDIATOR_CITATION: : AFAD - Disaster And Emergency Management Presidency
ORIGINAL_DATA_MEDIATOR: AFAD PROCESS SERVICE
ORIGINAL_DATA_CREATOR_CITATION: AFAD PROCESS SERVICE
ORIGINAL_DATA_CREATOR: network: TK
USER1: GuestUser
USER2: 
USER3: 
USER4: 
USER5: 
[...]
4.628850
2.865647
0.933643
-0.186887
-0.034349
1.351666
3.551916
5.876773
7.717016
8.863333
9.507850
9.980497
10.472172
10.407723
8.954194
5.773982
2.040409
-0.692020
-1.824519
-1.902779
-1.912904
-2.757214
-4.240820
-5.645243
-5.980080
-5.103845
-3.425958
-1.419982
0.405222
1.451486
1.781419
1.747969
1.911249
2.421338
3.087339
3.614309
3.900046
3.919078
3.550787
2.588930
1.662982
1.617562
2.160491
2.571449
1.853586
-0.385022
-3.727590
-6.650304
-8.389260
-9.701917
-11.485069
-14.047775
-16.704090
-18.009074
-17.055497
-14.470994
-11.759429
-9.720921
-7.906458
-5.693010
-3.195056
-1.149489
-0.674387
-1.981826
-4.288262
-6.134944
-6.301901
-5.027602
-3.311044
-1.756842
-0.693698
-0.095524
0.144790
0.025098
-0.448156
-1.180444
-1.816361
-2.116517
-2.117435
-2.162855
-2.618615
-3.016983
-2.649300
-1.625747
-0.436463
-0.136914
-1.099385
-2.661868
-4.260873
-5.449844
-5.941513
-5.186201
-2.634537
1.349175
5.286237
7.644853
7.932739
7.254161
6.988686
8.280786
9.978009
9.803072
7.256939
3.491447
1.280461
1.983905
4.348967
5.898258
5.575083
4.305394
3.131155
2.028118
-0.054272
-3.251057
-6.324464
-8.087974
-8.002342
-6.860936
-6.042401
-5.904594
-5.933441
-5.352455
-4.010021
-2.667895
-1.868388
-1.679634
-1.563312
-0.963911
0.104757
1.364325
2.100301
2.474429
3.330408
4.759697
6.620197
8.366525
9.715711
10.703661
11.387156
11.890801
11.742872
10.383872
7.467604
3.110386
-1.969914
-6.709849
-10.103365
-11.950354
-12.535324
-11.549522
-8.583528
-4.259144
-0.229702
2.009526
2.570870
2.235726
1.725643
1.733318
1.908875
1.028656
-1.159619
-3.623807
-5.131352
-5.841542
-6.776084
-8.441382
-10.313231
-11.380665
-11.283064
-10.587907
-10.130606
-10.056944
-9.613147
-8.001553
-5.015916
-1.163869
2.588739
5.308590
6.606521
7.073337
7.516827
7.402966
5.540324
2.056883
-1.586151
-4.055250
-5.153683
-5.547140
-6.129348
-7.104709
-8.150353
-8.526623
-7.971110
-6.198080
-3.190653
0.451160
3.605291
5.681856
6.940503
8.194238
9.869977
11.748278
13.115264
13.334402
12.700326
11.795861
11.176517
11.103783
11.599141
12.490721
13.157336
12.920403
11.596391
9.834109
8.403598
7.494530
7.284299
7.546404
7.748048
7.453416
6.751206
6.043472
5.226170
4.114847
2.324329
-0.233467
-2.719752
-4.350983
-4.992118
-5.208794
-5.520306
-6.163896
-7.026621
-7.726068
-7.928627
-7.780693
-7.517360
-7.585491
-8.334351
-9.695500
-11.087954
-12.121321
-12.729616
-12.987112
-12.764905
-12.047343
-10.780103
-8.724715
-6.077908
-3.409004
-1.846516
-1.872293
-2.806835
-3.331957
-2.595367
-1.150425
-0.062115
0.215950
0.165620
0.676630
2.102850
4.062789
5.835512
7.200350
8.059091
8.691945
9.173492
9.084184
7.800684
5.314705
2.544833
0.672677
0.312060
1.478019
3.283581
4.530872
5.132728
5.876684
7.060445
7.957856
7.656473
5.831274
3.441052
1.664038
0.639264
-0.036552
-0.503054
-1.012217
-1.591662
-1.789924
-0.755016
1.513983
3.801703
4.822186
4.729809
4.390982
4.382699
4.571452
3.903923
1.804039
-0.933914
-3.051906
-3.964044
-4.248854
-4.920066
-6.057170
-6.904549
-6.738507
-5.677204
-4.699382
-4.800352
-5.916586
-6.849900
-6.608051
-5.346642
-4.136795
-3.859037
-4.397663
-4.442162
-3.072414
-0.400747
2.419771
3.966914
3.583892
1.614138
-0.787133
-3.021138
-5.250232
-8.170183
-11.813218
-15.106373
-16.510796
-15.656966
-13.870432
-12.347228
-10.520182
-7.397049
-2.634703
2.861162
7.655734
11.095906
13.543527
15.658763
17.376549
17.832622
15.877600
11.716499
6.791803
2.696074
-0.047096
-1.728353
-3.022289
-4.453106
-6.011906
-7.331314
-8.080789
-8.336750
-8.455828
-8.914044
-9.825261
-10.590081
-10.200607
-8.307882
-5.403270
-2.409653
0.267844
2.780837
5.511431
8.326731
10.623659
11.586136
11.182551
10.254147
9.795317
9.950311
9.958294
9.438082
9.084216
9.961065
11.675475
12.805832
12.167767
9.517897
5.419406
1.696268
-0.619682
-2.336848
-4.739960
-7.758737
-10.213411
-11.243709
-10.770756
-9.213791
-7.279940
-5.125419
-1.849752
2.907684
8.307178
12.789008
15.244915
15.658021
14.766754
13.194143
10.810673
7.139095
2.661876
-1.409914
-3.862746
-4.346128
-3.528207
-2.601024
-1.874255
-0.975002
0.957622
3.643406
5.655827
5.674858
3.631446
1.202859
0.125911
0.650732
1.658018
2.443407
2.908995
3.549215
4.850522
6.386003
7.168937
6.397672
4.015429
0.846879
-2.176194
-4.424624
-5.509859
-5.026778
-2.666012
1.223785
5.635025
9.240008
11.121071
11.667990
11.469421
10.743579
9.649750
8.775977
8.306406
7.590385
6.178595
4.359228
2.724315
1.873252
1.599491
0.801831
-1.362198
-4.516629
-7.796588
-10.253103
-11.449133
-11.665810
-11.470918
-10.922157
-9.626068
-7.780607
-6.126045
-5.521119
-6.145374
-6.957765
-6.721133
-5.134705
-3.318401
-2.900385
-3.923624
-5.126407
-5.070546
-3.473683
-1.660141
-1.450824
-3.353364
-6.357409
-9.195722
-11.514434
-13.455952
-14.836130
-14.957050
-13.144428
-9.589778
-5.839318
-3.196809
-1.887215
-1.520760
-1.486690
-1.464589
-0.978438
0.174938
1.647501
3.363446
4.956319
6.295683
7.190946
7.279033
6.632988
5.517982
4.232947
3.615445
4.524212
6.518525
8.366441
9.209223
9.107025
9.322786
11.705342
16.229832
20.216920
21.138885
18.541804
14.444848
11.068213
9.128536
7.980691
6.213191
3.658465
1.239393
-0.247283
-0.928316
-1.990226
-3.839671
-5.271716
-4.695640
-1.981007
0.304258
-0.040400
-2.315838
-4.560277
-5.532262
-5.542387
-5.714254
-7.014328
-8.175677
-7.315709
-4.211911
-0.291116
2.591399
3.573518
3.295152
3.036736
2.999603
2.006441
-1.323237
-6.810195
-12.736343
-16.616313
-17.596584
-15.863453
-12.458576
-8.659010
-4.942004
-1.595440
1.100780
2.718205
3.055504
1.884947
-0.431616
-2.765981
-4.075569
-4.763968
-5.631603
-6.248798
-5.849811
-4.845287
-4.283022
-4.606810
-5.010703
-4.511662
-2.788658
-0.488969
1.317821
2.311910
2.957348
4.100903
6.222584
8.889033
10.995368
11.953548
11.649095
10.329073
8.790223
7.775270
7.002777
5.976469
5.018601
4.908730
5.221476
4.956001
3.300524
0.117243
-3.483438
-5.591302
-5.159475
-2.469701
0.769138
2.951894
3.961329
5.239618
7.752611
11.124649
14.444819
16.586756
17.237411
16.804362
15.590224
13.573206
11.071268
8.557053
6.708222
5.378379
3.998508
2.250958
0.292560
-1.056312
-1.690695
-1.789517
-1.004435
-0.045948
0.109353
-0.850356
-2.118204
-2.818265
-2.954531
-2.659893
-2.372007
-2.863369
-4.705755
-7.607291
-10.831085
-13.531288
-14.935097
-15.586667
-15.997925
-16.184217
-15.176317
-12.446952
-8.877263
-5.622158
-3.254027
-1.807244
-0.736120
0.209783
0.583605
-0.126892
-2.848272
-6.984513
-10.716552
-12.777151
-13.201607
-13.410610
-14.418811
-16.158688
-17.551142
-17.658558
-16.494133
-14.143496
-10.482654
-6.128807
-2.207705
0.516136
2.396585
4.216573
5.916251
7.040777
7.625139
8.101469
8.429253
8.065566
7.443767
7.683468
9.414144
12.219010
14.065698
13.647688
11.324372
9.192262
8.320023
8.184065
7.885136
7.406971
7.636237
8.966701
11.066898
13.507153
15.523871
16.219028
15.185661
12.864187
9.928276
7.052213
4.072721
0.728925
-2.342948
-3.926607
-3.594833
-2.095261
-0.243355
1.605789
3.755092
6.303687
8.966146
10.997595
12.452051
13.550183
14.379460
14.831851
14.372407
12.290324
8.972309
5.350144
2.134023
-0.168116
-1.121993
-1.214984
-1.315034
-1.688849
-2.376020
-3.389132
-5.024045
-6.968632
-9.307294
-12.458349
-15.972174
-18.969774
-20.566017
-19.940835
-16.627724
-11.189559
-5.651648
-1.064548
2.794865
6.300409
9.002767
10.209852
9.440122
6.631579
3.093201
0.754540
0.090694
0.379194
1.520600
3.420077
5.670968
7.660371
9.553096
11.588228
13.615074
14.498981
13.431547
10.287243
6.289112
3.059794
1.219557
1.014850
1.794715
3.015918
4.266892
5.203282
5.430092
4.908039
4.311406
3.676410
2.378485
0.847307
0.389706
1.145325
2.004679
2.427299
3.056778
4.979887
8.494332
12.272414
14.714510
15.539491
15.179180
14.346533
13.121653
11.052766
7.731989
3.041773
-1.766604
-5.227947
-6.832169
-7.339184
-8.468308
-11.178945
-13.832498
-14.378490
-12.812625
-10.412269
-8.802822
-8.252527
-7.751645
-6.066085
-3.599128
-1.337803
-0.322537
-0.876816
-2.163385
-3.167289
-3.313989
-3.099762
-4.297941
-7.383624
-10.597597
-12.293893
-13.201120
-15.127599
-18.685926
-22.310853
-23.843872
-22.633410
-19.597747
-16.365354
-13.264625
-10.764216
-9.534726
-9.882146
-10.790908
-11.265083
-10.572688
-8.528962
-5.660566
-2.480347
1.283616
6.152461
11.752982
16.642083
19.584138
20.270702
19.121936
16.439841
12.271067
6.880172
0.904612
-4.624086
-8.567280
-10.430842
-10.517695
-8.620059
-4.761260
0.017967
4.284958
7.332284
9.003112
9.813054
10.239357
10.186878
9.730504
9.550350
9.346257
8.534480
7.288423
6.773122
7.398610
8.969693
11.056693
13.932762
17.798313
21.857833
25.221891
27.125051
27.390840
26.945207
26.213227
25.279606
24.305779
23.256759
22.342780
21.302661
19.675113
17.124376
14.162378
11.198845
8.827344
6.804802
4.963644
2.344159
-1.548395
-6.751460
-12.324046
-17.095593
-20.390897
-21.987447
-21.829691
-19.965816
-16.895778
-14.001908
-11.857516
-9.955583
-8.107974
-6.299649
-5.246019
-5.483566
-7.034999
-8.597482
-9.008433
-8.352868
-8.049329
-9.133951
-10.655000
-11.080990
-9.469396
-5.791367
-1.104828
3.057507
6.798452
11.011120
16.033420
20.920066
24.422848
26.405805
27.858113
30.388293
33.935270
37.399995
39.612215
40.260415
39.964249
39.124849
37.827538
35.596910
32.026613
27.272560
22.258859
18.622884
17.397697
18.492146
20.853218
23.672815
26.055064
27.539290
27.852343
26.931305
25.170251
23.108117
21.136522
19.376695
17.349242
14.135269
10.007929
5.471475
0.908628
-3.541277
-7.427692
-10.937220
-14.622608
-19.049187
-24.284785
-29.653275
-34.057142
-36.580257
-36.865375
-35.346161
-33.084528
-30.872001
-28.802802
-26.728078
-25.000778
-23.586221
-22.410440
-21.815643
-22.384653
-23.805650
-25.197490
-25.673506
-25.834018
-26.269829
-26.965287
-26.985233
-25.373331
-22.286414
-18.918673
-16.178872
-13.490633
-9.704572
-4.213311
2.357971
9.340514
15.822484
20.942996
24.576523
27.344866
29.439232
30.173674
29.103170
26.763895
23.476878
19.270661
14.312204
9.006631
3.103502
-3.016614
-8.648434
-13.594921
-18.868575
-24.858561
-31.344208
-37.192708
-41.425933
-43.628632
-43.924798
-42.431672
-39.150173
-33.822189
-27.712809
-22.962432
-21.258150
-22.325278
-24.919596
-27.842003
-30.956229
-34.656963
-39.356386
-44.057958
-46.121627
-43.682906
-36.431509
-27.161863
-17.908176
-9.571847
-2.098860
4.307304
9.431191
13.424111
16.228056
17.195137
16.666332
15.863455
15.125029
13.986698
11.608752
7.916305
3.867840
0.697756
-0.634850
-0.578989
-0.488140
-0.739190
-0.308284
1.945676
6.561319
13.383040
21.982085
31.443858
40.895809
49.152341
55.522289
60.075322
62.254702
61.307577
57.997541
53.570962
49.856111
47.590494
45.959263
43.706537
40.832930
37.816301
35.844399
35.831205
37.680962
40.008274
40.936991
39.927256
37.567418
35.024353
32.822268
30.973744
29.459139
28.263109
27.564889
26.964573
25.995043
25.107766
25.559849
27.643780
30.419490
31.681512
30.608246
27.497089
23.312970
19.003938
15.283255
12.640137
10.974226
9.535735
8.010389
6.577423
4.908442
2.239238
-1.444616
-4.729178
-6.650440
-7.321038
-8.338139
-11.174611
-15.586765
-19.690166
-22.534311
-24.205133
-25.987364
-28.904246
-32.673114
-36.434924
-39.504648
-41.459670
-42.174156
-41.513680
-39.447550
-35.911314
-31.331580
-25.717555
-19.134611
-12.169562
-5.784575
-0.762275
2.051184
2.382958
0.877561
-1.502226
-4.495529
-8.088844
-11.471925
-14.215709
-16.351195
-17.816080
-18.699060
-18.959011
-18.916654
-19.280648
-20.137235
-21.353214
-23.400003
-25.520450
-26.383175
-24.917670
-21.295193
-16.786355
-11.915362
-7.141353
-2.473536
2.139652
6.391605
10.772767
16.037220
22.628758
30.198422
37.800619
44.516456
50.022449
54.882700
59.521054
63.929224
67.854010
70.914532
72.729302
73.455765
73.375971
72.809108
71.353738
68.668574
64.953722
60.527450
55.762654
51.346510
47.634728
44.307198
40.629790
36.084743
30.490366
24.133928
17.894731
11.975949
5.873941
-0.328427
-5.867253
-10.178434
-13.520695
-16.090154
-17.566394
-17.957396
-18.051308
-18.550343
-19.381762
-20.110367
-20.219624
-19.574493
-18.652836
-18.314616
-18.617535
-19.050277
-19.985125
-22.191815
-25.340108
-27.720816
-28.282461
-27.304945
-25.546340
-22.884802
-18.661699
-13.143737
-7.170932
-2.070063
1.347398
2.544355
1.019009
-3.176466
-10.140895
-18.950168
-28.563242
-38.124754
-46.942007
-54.271354
-58.994716
-60.521597
-58.804732
-55.214787
-51.115062
-46.798044
-42.318670
-37.988455
-34.957702
-34.732426
-37.498308
-41.927957
-46.360981
-50.780194
-55.532099
-60.307023
-64.511398
-67.720767
-69.507295
-69.690518
-68.662362
-67.681777
-67.165549
-66.707327
-66.029664
-65.378088
-64.500318
-62.518282
-58.815394
-52.700489
-44.661864
-35.920719
-27.936418
-21.729133
-17.764142
-15.765226
-15.631102
-17.341516
-20.440704
-24.034326
-27.401140
-30.332140
-32.770547
-34.336406
-34.469909
-33.213718
-30.732337
-27.602452
-24.259878
-20.704614
-16.811440
-11.843463
-5.041077
3.883907
15.060701
28.502806
43.515991
58.451528
71.951333
83.770491
94.426149
103.750119
110.363754
112.461803
109.262562
101.841142
92.246176
82.235652
72.092850
60.450171
46.290820
30.676402
16.059752
4.301368
-3.787891
-8.716270
-11.836634
-13.889868
-14.394734
-12.452596
-8.012507
-2.218324
3.734838
8.639284
11.682313
12.675174
11.772551
9.405347
5.358417
-0.570493
-7.214506
-13.317742
-19.115294
-25.445337
-32.538976
-39.746786
-45.433236
-48.416718
-49.598937
-50.950879
-53.229385
-55.268194
-55.746666
-54.684443
-52.180964
-47.790901
-41.505968
-34.436262
-28.224680
-23.389289
-19.811927
-17.649427
-17.837254
-19.931307
-22.473757
-24.412820
-25.797601
-27.374201
-30.026219
-32.438539
-33.424335
-32.891227
-30.463555
-27.643958
-25.481457
-23.309136
-21.123003
-18.734002
-15.020065
-8.824443
-0.540289
7.735885
14.944008
20.641206
25.341863
29.531820
33.877380
37.940276
42.120411
45.509943
47.312130
47.003687
45.067693
40.514667
33.735305
25.435812
16.598917
8.851557
2.639061
-2.494335
-7.857608
-13.828565
-20.326488
-26.933672
-33.339216
-39.916630
-47.434727
-55.578616
-63.505519
-69.794743
-74.510739
-77.837348
-80.069511
-81.190962
-81.880282
-82.230772
-81.059288
-77.202023
-70.428180
-60.804972
-50.015194
-39.275443
-28.929151
-18.496618
-8.425320
0.272858
6.972428
11.503057
12.597505
10.708776
7.127124
2.578087
-2.907029
-9.208836
-16.028710
-22.311182
-26.656430
-29.110183
-29.818224
-28.287654
-25.401150
-21.885785
-18.312106
-14.218519
-9.444817
-3.108323
4.879048
12.532192
17.809842
19.802928
20.046311
20.256242
20.093275
18.289560
15.156612
12.300192
11.005950
11.258541
12.844048
15.279392
19.179318
23.669434
28.219397
32.196971
34.985264
37.265618
39.844290
43.123641
46.616909
49.005603
48.582682
44.684604
38.951811
33.334722
28.860572
25.410892
22.137685
18.424675
15.224821
12.181491
8.238604
4.746570
3.468594
4.472504
7.116242
9.619414
10.671816
10.462812
10.270689
9.855748
8.588514
6.227755
3.537066
1.136102
-1.095140
-2.232858
-2.648719
-3.946644
-7.076523
-11.868020
-17.389659
-22.247141
-25.681169
-28.561836
-31.691714
-34.348643
-36.080847
-36.444841
-36.428879
-37.909723
-40.829367
-43.814384
-45.968898
-47.504066
-48.044840
-47.040623
-44.633208
-41.133188
-35.753643
-28.409865
-20.663727
-14.163342
-10.025867
-8.586143
-8.288436
-7.342839
-6.766149
-7.774350
-9.008744
-8.235632
-4.253147
2.070150
8.509153
14.407685
20.306217
26.551252
32.062155
36.760357
40.512965
42.836594
44.019740
44.663950
46.165364
48.996931
52.719154
56.181117
58.512112
60.390106
62.966016
66.389001
68.057681
65.826132
59.201453
49.684443
38.821626
28.032775
17.897338
8.933075
1.474519
-4.061545
-7.580280
-8.971506
-8.350008
-6.852891
-5.268305
-2.907233
1.347789
7.490009
14.241754
20.443822
25.801883
30.645561
34.929739
37.778186
39.665387
41.359234
43.023617
44.765649
45.583264
43.039893
36.862691
29.098144
20.821669
11.966974
2.864600
-6.703051
-16.375358
-24.288143
-29.041276
-30.924481
-31.256863
-32.083986
-33.291065
-33.504979
-32.546799
-31.532761
-31.428408
-32.004784
-31.381137
-29.176897
-26.950866
-25.693754
-25.881581
-27.465854
-29.216780
-30.882385
-32.811319
-34.587412
-35.081536
-32.660924
-25.447890
-14.697704
-4.172177
3.894070
10.269236
15.311792
19.457860
24.891115
30.013161
32.446664
30.048155
25.467507
23.866353
27.111637
32.988378
37.184473
37.857840
34.151581
26.766070
19.189353
14.801752
13.182490
11.651620
8.514682
5.806806
6.900335
10.526188
13.836844
14.489341
12.494727
9.577538
9.595648
13.615269
16.378702
14.157281
10.461765
7.103544
4.406103
3.140097
0.690334
-4.218403
-11.413629
-19.335315
-28.213950
-37.061587
-45.281283
-53.316832
-61.673104
-69.050022
-75.613318
-80.723082
-82.574982
-80.386087
-75.016977
-69.548428
-63.714654
-57.970191
-52.749319
-47.870961
-43.361816
-39.968908
-38.235777
-37.790446
-36.833186
-33.232499
-25.904681
-16.974172
-9.077033
-4.746511
-2.239349
-0.010863
1.855468
3.127925
4.054187
4.134601
2.512884
0.968816
1.143145
3.203137
5.664262
8.416646
11.327703
13.292553
14.229556
14.469564
14.975664
16.690687
19.678165
22.112282
21.616931
18.857494
15.824599
12.680602
9.640649
8.068959
8.208300
10.060513
13.066405
16.234040
19.400755
23.143234
26.545350
29.711450
32.394779
33.593271
32.587526
30.382371
27.165636
21.758782
15.622093
8.955368
2.369975
-3.218264
-9.182469
-15.266983
-22.116934
-28.719208
-32.900258
-35.653556
-37.890937
-38.846349
-37.309641
-33.710795
-28.773816
-25.116965
-23.272117
-23.162547
-24.874495
-28.254507
-32.954237
-36.619062
-36.860905
-32.767933
-27.128127
-22.251303
-18.222474
-12.881907
-7.146959
-2.209980
0.914994
1.214236
-0.663445
-2.739390
-3.821863
-4.390873
-4.710058
-5.504955
-8.532940
-13.689047
-19.256722
-25.591369
-32.425975
-39.705602
-47.761101
-56.748075
-65.785383
-73.625737
-79.780227
-83.202899
-83.337937
-80.954768
-76.857805
-70.672618
-62.629696
-53.780826
-47.434817
-44.749646
-45.076197
-46.387933
-46.926252
-48.491497
-51.780356
-56.926949
-61.973182
-64.682285
-64.501205
-60.755042
-53.809328
-46.568366
-40.063070
-34.627974
-27.608295
-18.198390
-6.680619
6.358819
18.312098
27.013038
31.198698
33.509743
34.825782
34.917858
34.165929
34.416065
36.252625
37.173976
36.552484
33.254724
27.192308
19.696002
12.253405
7.878694
6.729007
7.812407
11.372582
15.805919
19.885694
22.963711
25.235165
28.642805
35.249074
45.737465
56.530926
64.757074
68.649941
67.098200
62.394787
59.162707
56.913663
51.877558
43.978584
35.427731
27.975313
22.535312
20.045344
18.323881
16.146041
13.784055
12.340347
10.630854
5.637410
-2.520598
-12.818698
-23.819011
-32.269197
-36.469890
