EVENT_NAME: 202302060117
EVENT_ID: 13194
EVENT_DATE_YYYYMMDD: 2023/02/06
EVENT_TIME_HHMMSS: 01:17:32.00000
EVENT_LATITUDE_DEGREE: 37.288
EVENT_LONGITUDE_DEGREE: 37.043
EVENT_DEPTH_KM: 8.6
HYPOCENTER_REFERENCE: AFAD
MAGNITUDE_W: 7.7
MAGNITUDE_W_REFERENCE: AFAD
MAGNITUDE_L: 
MAGNITUDE_L_REFERENCE: 
FOCAL_MECHANISM: 
NETWORK: TK
STATION_CODE: 3144
STATION_NAME: 
STATION_LATITUDE_DEGREE: 36.75691
STATION_LONGITUDE_DEGREE: 36.485742
STATION_ELEVATION_M: 843.0
LOCATION: Kahramanmaras_Pazarck_Turkiye
SENSOR_DEPTH_M: 
VS30_M/S: 485
SITE_CLASSIFICATION_EC8: B
MORPHOLOGIC_CLASSIFICATION: 
EPICENTRAL_DISTANCE_KM: 77.04
EARTHQUAKE_BACKAZIMUTH_DEGREE: 
DATE_TIME_FIRST_SAMPLE_YYYYMMDD_HHMMSS: 2023/02/06 01:17:22.8559990
DATE_TIME_FIRST_SAMPLE_PRECISION: millisecond
SAMPLING_INTERVAL_S: 0.01
NDATA: 11251
DURATION_S: 
STREAM: HNN
UNITS: cm/s^2
INSTRUMENT: sensor = ACEBOX/SARA | digitizer = 
INSTRUMENT_ANALOG/DIGITAL: 
INSTRUMENTAL_FREQUENCY_HZ: 
INSTRUMENTAL_DAMPING: 
FULL_SCALE_G: 
N_BIT_DIGITAL_CONVERTER: 
PGA_CM/S^2: 611.269
TIME_PGA_S: 
BASELINE_CORRECTION: BASELINE REMOVED
FILTER_TYPE: BUTTERWORTH
FILTER_ORDER: 
LOW_CUT_FREQUENCY_HZ: 
HIGH_CUT_FREQUENCY_HZ: 
LATE/NORMAL_TRIGGERED: 
DATABASE_VERSION: 
HEADER_FORMAT: DYNA 1.2
DATA_TYPE: Acceleration
PROCESSING: Manual Paolucci et al., 2011
DATA_TIMESTAMP_YYYYMMDD_HHMMSS: 
DATA_LICENSE: U (unknown license)
DATA_CITATION: Turkish Accelerometric Archive v 1.0 - Disaster And Emergency Management Presidency, Earthquake Department
DATA_CREATOR: AFAD
ORIGINAL_DATA_MEDIATOR_CITATION: : AFAD - Disaster And Emergency Management Presidency
ORIGINAL_DATA_MEDIATOR: AFAD PROCESS SERVICE
ORIGINAL_DATA_CREATOR_CITATION: AFAD PROCESS SERVICE
ORIGINAL_DATA_CREATOR: network: TK
USER1: GuestUser
USER2: 
USER3: 
USER4: 
USER5: 
[...]
-7.997533
-9.268448
-5.909007
-1.120598
1.405122
1.197517
-0.824588
-3.165826
-4.986164
-4.741838
-1.811182
-0.632836
-2.962618
-2.505303
4.226663
10.173070
8.179722
3.512201
4.574116
7.173715
2.637822
-4.603807
-4.119839
0.911018
0.796699
-2.895888
-3.967139
-2.925565
-2.792293
-3.717187
-5.865777
-10.311424
-15.085089
-18.066230
-20.191674
-23.627785
-30.608963
-37.354708
-35.738226
-26.289770
-15.895837
-7.384908
0.089364
7.270923
10.979890
7.661847
3.312758
5.572883
10.792882
14.099251
18.584425
26.270284
34.403631
40.522347
43.209152
43.122421
42.420803
40.150172
35.609135
30.112335
21.776535
10.149103
-1.354884
-11.363269
-18.921460
-22.497615
-22.585282
-20.835535
-19.981700
-21.839446
-24.861501
-27.583128
-30.652411
-33.625603
-34.659213
-34.053203
-34.623427
-36.958353
-36.338315
-29.850199
-21.991331
-15.895761
-8.629100
1.411565
11.343514
18.183494
22.990607
27.609981
28.906628
23.190994
14.175545
8.586863
5.935376
2.743116
0.816166
0.083453
-3.404093
-8.022750
-8.985286
-5.944044
-1.922022
0.906465
3.514481
7.307849
10.226348
10.173751
9.559807
11.195694
14.471202
18.018147
20.367817
18.875965
12.626571
5.321116
-0.480556
-7.142835
-12.222541
-9.912382
-3.910331
-1.724553
-3.102313
-3.080796
-2.032441
-5.796804
-15.731076
-27.845975
-37.338136
-41.983680
-43.994095
-43.018218
-36.552547
-26.949317
-18.721516
-15.078012
-14.417059
-11.876611
-8.636407
-8.715189
-8.623299
-2.951604
2.301829
-1.347739
-6.385829
-2.785811
2.822759
2.705634
2.641348
8.079012
13.164110
11.604924
8.683401
11.887834
16.511650
15.807460
13.591069
14.934476
17.416709
14.387406
5.442797
-1.100713
-3.162096
-4.829764
-4.116909
0.176786
4.265440
6.933308
9.107396
10.887302
11.699054
10.336024
6.243410
-0.047132
-7.352587
-13.434114
-17.129038
-19.224088
-19.338174
-16.738341
-13.193733
-11.233101
-10.060367
-5.770179
2.729060
11.561227
16.550702
16.902341
12.574293
4.036025
-2.937205
-4.048202
-2.715082
-3.120011
-5.222776
-4.054718
0.539406
1.040909
-2.834741
-8.003056
-15.117733
-21.830980
-25.545309
-25.589022
-23.014439
-20.242998
-16.703300
-10.675064
-1.670121
9.229983
19.251476
23.524830
18.727084
12.501538
14.649909
22.404036
26.598133
23.623538
18.100553
13.124653
8.325972
7.123093
8.420441
5.762641
0.703510
0.754953
5.288523
4.510454
-1.711586
-2.965666
0.235026
-0.483192
-5.327931
-7.770404
-5.053672
-3.314914
-6.534996
-7.751436
-0.878256
9.660864
16.789351
20.870523
25.481013
28.755351
27.384138
20.670891
9.479257
-1.203400
-7.325140
-11.896571
-18.297465
-25.113115
-29.028744
-29.659288
-27.886863
-22.613792
-17.207456
-15.264126
-12.038417
-5.588645
-1.505835
-3.208573
-7.134957
-8.571166
-10.970386
-17.802168
-23.693384
-23.946112
-18.831555
-10.860230
-1.535686
8.866196
14.621123
11.722512
6.733052
5.861464
8.866701
13.593856
18.076458
21.687698
24.777571
29.183488
36.298414
42.069941
42.657714
41.181526
40.663673
37.679960
27.849260
14.820681
7.460517
6.382251
4.829144
2.242185
3.747379
8.436424
9.108833
5.225936
2.648328
0.982998
-1.618924
-3.129247
-4.951222
-8.949147
-12.267892
-9.751057
-1.295537
4.678458
6.452753
11.042201
14.296433
7.279249
-4.671758
-11.720037
-13.286237
-11.878770
-8.776974
-5.746252
-3.798714
-3.499679
-1.528995
5.553667
10.987825
8.824039
3.453489
-0.317887
-3.780417
-13.160589
-26.089337
-27.576514
-18.037110
-17.492822
-27.853073
-27.828984
-13.136455
-3.597519
-5.148289
-3.729600
4.220216
9.997822
13.042805
18.696732
23.930057
21.033317
12.374877
7.965468
8.036316
3.375341
-6.417016
-10.219721
-2.906535
5.836789
6.381544
2.611805
2.316526
4.152076
0.773246
-6.886880
-8.372654
-2.790737
-0.485956
-4.113781
-6.104089
-2.084405
1.033289
-3.734064
-10.484484
-12.195873
-10.989705
-9.958652
-9.295595
-7.144653
-1.348109
4.645759
5.558277
3.929419
4.882618
6.066809
1.580714
-7.720902
-13.269371
-9.984746
-3.336246
0.335314
3.215003
9.041238
14.713401
15.140790
10.776972
6.052404
1.679701
-5.659421
-14.407639
-20.184996
-23.252642
-24.902776
-27.030090
-30.322415
-28.572669
-19.307977
-10.158080
-6.381779
-4.931293
-3.108134
-3.681164
-4.278041
1.052544
6.065867
5.039037
5.798418
12.629748
19.938024
22.763238
22.886690
26.021218
32.091070
35.685477
34.514628
28.863989
20.456179
14.772108
15.036774
17.200809
16.549691
11.631306
4.169440
-0.952817
-1.637368
0.743163
4.836260
6.591150
2.525890
-4.443365
-9.626175
-12.581131
-15.892394
-21.988884
-31.573629
-38.319608
-33.493090
-23.472297
-20.437835
-21.261963
-18.202484
-12.307513
-10.730309
-17.624281
-24.327942
-21.609574
-13.532105
-5.955897
2.694376
13.799052
20.805964
18.597756
13.825728
14.266443
20.052232
26.677118
29.686097
30.524969
30.754332
26.286240
19.063315
16.078432
14.425961
7.133130
-4.248814
-11.743412
-10.585640
-8.079326
-12.100631
-14.784383
-9.794908
-5.450245
-4.015892
1.847284
9.995360
12.530899
11.451932
12.424302
13.011141
11.090972
10.867703
13.793449
17.675661
21.019437
24.566616
29.233919
32.567641
36.443306
41.868346
39.287933
26.768331
11.556553
-0.888468
-2.124313
3.655631
-0.150581
-11.576246
-17.350563
-14.858978
-10.262516
-12.303793
-20.861466
-25.980450
-22.951131
-16.843170
-16.424899
-22.388826
-25.158147
-20.688403
-12.597374
-3.005600
3.648278
1.751021
-3.984252
-4.540215
-0.748483
2.844755
7.105250
14.384301
22.158536
24.307841
21.794762
18.959277
12.819534
3.780238
-0.137729
3.314997
6.418663
5.434618
9.700257
18.778144
17.150689
6.025220
0.671036
3.431722
3.929016
-2.227559
-5.931368
-2.668252
2.580037
7.886541
9.628338
6.096136
3.789500
3.937501
2.262118
-1.266343
-3.854705
-5.455040
-8.770979
-8.658047
1.807661
11.872641
9.753276
4.181428
4.694620
5.110787
-0.847295
-5.224908
-0.960905
0.640146
-8.983176
-17.706378
-18.646469
-20.165443
-20.297530
-12.167457
-6.954004
-13.389266
-18.703237
-12.603458
-1.756193
4.142052
2.753070
-2.158769
-5.971527
-6.736504
-5.093837
-4.862370
-7.394153
-3.385458
9.548448
16.994899
16.477980
19.329380
25.048536
26.795477
28.868331
39.497463
48.821540
41.322266
28.368502
29.298555
35.986801
30.756530
21.247769
23.884776
33.643715
39.667042
39.473933
36.672816
36.341299
33.617334
29.441956
29.213778
21.134220
3.396029
-6.948791
-5.574523
-5.484036
-15.698164
-27.274160
-33.491991
-39.047006
-41.278594
-37.607501
-33.282478
-31.471477
-28.399607
-17.702206
-4.554375
1.117086
0.548967
-0.226297
0.624265
-0.937727
-4.039041
-0.293133
6.117829
2.574405
-10.120779
-22.416169
-27.752350
-25.673885
-25.527053
-36.025478
-52.621335
-66.567802
-70.706240
-61.808610
-51.526198
-52.487098
-55.446496
-48.271484
-39.393259
-35.983085
-31.402521
-27.181070
-29.579822
-32.697268
-28.049604
-18.296510
-11.020264
-4.263515
5.348833
11.531142
10.136782
8.460931
18.523339
37.969902
51.063258
52.409470
48.304699
47.096676
48.814626
45.063824
38.014376
32.897965
28.500713
27.598263
29.194171
26.187780
17.418987
8.971666
6.546962
9.741107
14.999216
17.573565
17.324344
20.505631
24.955736
22.933865
16.122657
10.915532
10.666545
17.256362
27.628552
32.547420
32.949091
37.235070
40.352297
34.979176
23.505583
13.300106
13.121025
16.684102
12.111971
6.082581
4.153059
-2.454979
-19.151135
-39.064810
-49.847532
-50.371698
-50.948702
-56.566609
-63.377350
-66.585508
-68.255514
-70.023949
-63.933991
-46.695409
-28.774374
-19.076923
-11.232784
0.759855
6.568789
3.685609
4.545990
9.848286
14.422303
20.896858
27.478960
29.048917
30.196869
36.749512
40.731789
33.454623
25.870481
32.131813
43.163544
42.947056
35.532884
31.974731
29.842040
22.186824
13.476013
11.796889
13.520216
15.675834
23.210426
31.238798
30.925985
23.028321
11.580212
3.886419
1.515722
-6.634443
-18.789088
-22.590156
-24.576490
-34.362301
-43.634693
-42.662089
-34.726768
-30.499004
-31.890091
-31.973782
-30.579408
-29.182929
-22.264393
-10.132645
-5.432612
-14.641644
-26.099573
-28.681389
-24.071601
-17.250324
-10.245049
-3.067933
0.215056
-2.320000
-1.515730
5.631226
10.691074
7.568485
-4.606032
-17.737949
-22.508809
-21.729789
-20.522686
-18.042089
-13.352342
-8.894289
-6.277388
-1.701033
9.347064
25.561614
38.557710
42.123126
42.109339
43.265474
40.062459
31.476028
23.480170
19.592830
21.698650
29.771443
40.240191
48.932079
52.354879
48.367474
35.058572
14.718451
-1.549155
-7.940463
-12.018114
-22.775118
-40.113048
-50.743802
-44.044100
-33.991278
-42.619325
-64.590883
-77.496718
-78.405714
-76.747382
-76.613409
-71.047858
-43.640030
-6.921227
13.199841
25.263787
41.312808
61.723083
74.840052
57.683783
27.986394
19.558712
25.853009
28.739244
25.143917
29.193761
48.186991
65.529612
78.179221
88.544864
78.475223
46.235523
13.282507
-8.591791
-20.534849
-19.433423
-3.546189
-1.049695
-28.027086
-38.003208
-4.112650
33.040081
40.330822
20.465310
-13.020997
-48.245587
-69.975164
-61.201915
-38.660110
-41.272787
-69.775471
-79.512886
-47.868419
-24.183579
-33.284598
-21.976050
4.750258
-8.939032
-30.965766
-6.300381
30.687991
28.053804
4.474189
-13.896424
-41.816018
-70.891038
-63.846485
-5.843714
65.824975
85.558874
47.172644
4.405053
5.576385
54.447736
97.700471
104.568507
82.438669
21.346048
-46.145136
-57.216130
-23.123806
1.636501
7.735344
15.783589
14.507765
-2.471754
-4.641151
15.140677
42.708655
61.886117
48.484398
16.308992
3.839423
8.023700
3.262894
1.251310
25.971170
50.515448
46.099259
35.163399
40.164798
56.172437
62.427690
50.313726
37.840883
29.068350
22.025449
24.765560
24.803209
13.456802
8.267913
19.125699
32.456827
39.417213
43.861940
31.007306
-2.259933
-35.784816
-81.828141
-132.355229
-133.491710
-88.350126
-41.019967
-0.282890
31.804623
51.835445
65.163767
53.472041
15.806842
-1.522671
9.448974
16.800269
13.242584
-5.628589
-31.424135
-28.698752
-6.670367
-9.594695
-29.219630
-28.318802
-13.818220
-12.026858
-14.146456
-0.254917
19.487166
28.095355
27.248081
31.688600
48.035713
46.113907
22.163021
19.867607
17.654490
-11.469394
-16.731696
12.838756
40.881811
48.406817
34.003978
31.014887
51.615941
59.739936
45.352294
30.489108
34.252082
59.494947
87.267497
101.793095
106.553683
106.057105
98.609267
80.521315
57.369782
51.372890
63.456242
69.918640
65.898737
59.649577
59.882213
57.674473
39.085728
38.857316
72.477136
94.763167
89.910946
72.085548
53.833237
46.010155
31.160763
5.936383
-2.212145
-0.079205
-0.307618
7.508466
6.418043
-15.975051
-37.472234
-54.825127
-77.009441
-96.988812
-108.854717
-111.277785
-107.304626
-102.916244
-95.163753
-77.818560
-60.280952
-56.572686
-49.143537
-16.950581
11.912400
9.273772
-0.085125
6.502121
13.508798
9.458970
0.142624
-3.590643
6.825266
16.865697
15.133969
10.825093
-4.214610
-22.204601
-10.073555
11.381794
2.019858
-22.315624
-32.808204
-35.765732
-53.030951
-83.210664
-101.704253
-96.645574
-82.372945
-76.934112
-71.170300
-50.923683
-35.028267
-32.589988
-17.540217
18.213939
47.512485
50.248388
46.082829
59.470302
71.165550
64.698959
62.449136
74.312484
89.225718
99.290230
98.409523
92.210630
91.951357
98.362319
104.758552
104.406461
99.182035
91.560486
81.179661
73.972400
67.750595
54.567710
39.349386
26.333666
15.122159
5.489953
-12.749031
-34.619355
-35.663720
-19.475356
-3.456495
11.099964
21.334213
31.080294
51.057810
79.890865
111.603601
138.165550
158.917637
179.422833
183.255246
157.789354
124.581265
100.535926
84.546304
80.115620
86.580356
92.594564
87.470905
70.225091
50.051901
35.257452
26.431846
13.025217
-11.946427
-36.262270
-54.010982
-73.022199
-96.172095
-124.992978
-160.548858
-196.438134
-221.146990
-232.542261
-235.333092
-229.512701
-227.936433
-242.061754
-259.249119
-267.819885
-264.433792
-257.153571
-263.284663
-279.150138
-289.752135
-290.699942
-284.158520
-279.776217
-285.101176
-296.414852
-307.467142
-314.416992
-320.285530
-334.228490
-360.144441
-389.501421
-400.661258
-376.149712
-327.829654
-283.826897
-249.742288
-210.309332
-161.193195
-122.309663
-114.485864
-118.703091
-125.659955
-148.804942
-146.004744
-148.850517
-238.881862
-295.518774
-210.595417
-75.418740
19.253495
26.641730
-13.494706
-6.708266
48.935023
129.625715
192.785352
198.060527
187.119524
183.979635
192.433284
225.901370
261.003465
294.748367
355.907635
411.119334
370.347904
246.823231
147.757259
110.029402
149.353875
256.079763
288.596528
166.781146
16.377737
-90.399337
-199.649284
-216.799241
-85.454268
0.730191
-45.661257
-115.615496
-157.639611
-166.205702
-146.589870
-135.368529
-142.233276
-166.579981
-216.064801
-254.821366
-260.134869
-245.426442
-198.961098
-161.089908
-173.649490
-186.186626
-179.738490
-165.619700
-166.994186
-216.022400
-248.005859
-224.819475
-200.765470
-183.001078
-164.242347
-132.348418
-29.965315
124.008662
230.983309
271.823257
295.810396
327.572931
375.505119
419.802227
427.417011
403.578348
363.669864
322.292899
288.845403
259.380408
243.791983
237.848864
229.089891
224.542542
221.056632
216.175421
202.100833
169.956522
132.065007
85.148683
23.753529
-53.130226
-145.294971
-254.740139
-410.229574
-559.906108
-611.269489
-586.809378
-527.513241
-452.489327
-384.221687
-311.308028
-253.122194
-232.698359
-223.034107
-214.176924
-211.890613
-209.100235
-210.906545
-240.737900
-303.025458
-361.252192
-370.301307
-318.995659
-244.091216
-193.868517
-184.166624
-195.802005
-204.839898
-209.670843
-207.023082
-182.553385
-138.797752
-91.144952
-56.567030
-40.971576
-38.700929
-57.376413
-97.167999
-129.368655
-138.441150
-134.926001
-122.696526
-105.143253
-92.940665
-85.314892
-86.150008
-106.060644
-134.099708
-162.960570
-200.743837
-232.957118
-245.144728
-249.357280
-244.445425
-225.503397
-212.081790
-209.993739
-206.090954
-194.927828
-171.518402
-136.058597
-96.994807
-56.739353
-17.009942
17.748237
48.012599
77.317925
107.648452
137.454104
164.611300
191.782758
217.702232
234.561828
243.091695
249.198721
255.900060
259.330341
244.355633
209.297975
171.907253
143.593243
122.544717
100.086861
76.688204
58.462078
45.642280
39.956806
38.329351
41.460371
53.791782
66.942652
76.598486
81.608769
85.212762
102.864697
133.844478
158.520151
160.991162
148.787887
143.689010
149.175304
160.765344
176.209297
193.202859
214.452934
232.964074
239.094246
235.707934
231.017968
228.886212
223.046665
209.799486
189.062611
159.766653
130.706128
108.724517
88.685059
63.492242
34.928537
15.451362
10.473826
16.034233
27.900855
40.011795
53.081537
70.201583
85.876762
98.273870
111.010451
124.068269
135.945879
143.799605
143.999041
135.893765
121.862430
106.606231
92.943594
82.944794
80.810700
85.287458
92.122061
97.946426
98.274685
89.597073
64.880034
23.162426
-32.472899
-110.900184
-200.551841
-265.039432
-290.223131
-284.923407
-260.609419
-228.181731
-196.585659
-171.304452
-153.575130
-145.907508
-144.974181
-131.090825
-93.406439
-54.568965
-39.429649
-43.476204
-55.239239
-70.003061
-84.314018
-99.543798
-109.567848
-103.335974
-90.220641
-90.595177
-102.640872
-108.469898
-107.515062
-109.693344
-115.659141
-119.530582
-112.403265
-94.287944
-74.374255
-59.672841
-50.423346
-40.318153
-35.130886
-37.049886
-29.272846
-18.496188
-20.751856
-20.856824
-0.416155
34.128334
63.565521
88.807918
120.074335
144.069658
152.330190
152.645590
149.089775
146.513571
146.674431
149.666342
157.855099
169.651347
183.736471
198.311634
213.558263
228.894202
234.628789
229.353862
224.253583
225.449931
232.232397
241.330158
247.800738
247.944531
244.612694
242.295771
235.234166
217.641163
195.025961
175.096856
160.048035
143.497768
122.522654
103.204928
81.368973
53.309568
26.067050
0.792405
-22.197340
-46.270034
-78.341634
-115.360150
-148.478227
-163.636465
-165.094417
-171.391739
-172.365965
-160.694096
-148.054073
-132.965959
-117.619733
-109.377904
-104.326239
-98.153282
-89.022790
-78.201944
-73.524120
-81.246670
-93.758791
-98.082630
-97.884596
-101.602667
-102.716235
-99.420622
-101.412099
-106.957763
-110.069597
-110.221557
-102.558611
-87.898579
-73.132872
-61.429207
-54.700514
-50.399572
-48.284400
-53.303553
-63.141033
-69.749071
-71.206322
-69.800491
-55.742722
-22.504692
13.334098
35.552094
37.836067
27.763387
29.500976
48.212246
68.184619
82.473146
90.546173
93.254488
93.796204
93.226448
92.213879
94.133596
102.377062
115.419450
124.568178
122.702717
118.768151
124.050574
129.477016
126.389029
124.472133
129.037500
135.144525
143.260338
154.042374
162.677449
169.682724
177.895562
183.943905
187.140856
190.817560
193.172140
191.597055
187.403207
177.592146
154.529457
122.167247
96.188170
83.180633
80.031157
85.209541
96.200591
107.922492
115.511793
119.699343
124.754515
128.926869
135.364250
149.109433
156.336348
151.027053
152.552822
168.682503
186.982991
197.875847
200.863316
199.029418
193.088637
183.883579
171.195409
150.401488
121.910727
92.788713
71.412403
61.486314
55.567977
43.299707
20.918303
-4.212792
-19.972824
-29.277714
-38.856848
-40.925946
-35.990478
-33.520402
-28.972337
-21.174489
-15.206806
-10.282327
-9.039453
1.148504
27.842315
45.104042
50.696480
59.704229
70.948949
88.609067
98.373618
89.203161
77.663871
61.056090
39.914512
25.604023
16.657077
19.294084
27.483542
24.956435
13.955112
2.473570
-3.628298
-11.405790
-35.809307
-78.265246
-124.664410
-162.186525
-193.689998
-206.087558
-184.447276
-151.239172
-121.313816
-97.220766
-85.850964
-81.784287
-88.608821
-102.025504
-99.805124
-85.210555
-75.331678
-73.508520
-71.878244
-65.434784
-62.425805
-66.037498
-69.745749
-71.028119
-66.605369
-52.072991
-32.347975
-16.292876
-5.618854
-2.231826
-8.260280
-16.002937
-20.083627
-22.730204
-23.865984
-24.194228
-21.804111
-11.096890
0.892943
4.293064
5.669436
11.253458
17.901724
26.716356
39.503204
53.211447
65.942183
77.207945
84.674035
86.880855
86.328867
82.749438
74.095440
65.569329
61.793511
61.241991
62.684527
64.979723
62.396271
50.413467
37.158105
28.435136
18.047298
8.088009
1.614872
-7.808319
-20.109087
-30.286976
-38.864055
-50.389551
-61.228385
-61.755122
-54.610738
-45.836553
-36.989657
-27.874128
-12.402118
6.223582
21.972173
40.884743
58.310830
68.871694
83.622672
102.413434
114.983083
117.901115
109.886084
98.022985
91.711869
90.181206
91.800494
92.956395
89.376499
84.498794
76.208818
59.798596
41.951689
24.417369
1.554810
-21.780254
-38.510779
-48.179457
-52.016062
-55.316103
-62.090839
-67.897187
-65.150996
-55.839077
-53.559780
-56.784772
-53.031851
-46.629539
-36.382899
-16.954339
-5.961417
-12.244010
-18.158606
-9.353559
9.470635
20.702263
17.398482
19.083232
41.002201
63.636122
64.317882
51.472367
47.034201
55.413736
60.532267
56.155590
46.499771
34.779755
