EVENT_NAME: 202302060117
EVENT_ID: 13194
EVENT_DATE_YYYYMMDD: 2023/02/06
EVENT_TIME_HHMMSS: 01:17:32.00000
EVENT_LATITUDE_DEGREE: 37.288
EVENT_LONGITUDE_DEGREE: 37.043
EVENT_DEPTH_KM: 8.6
HYPOCENTER_REFERENCE: AFAD
MAGNITUDE_W: 7.7
MAGNITUDE_W_REFERENCE: AFAD
MAGNITUDE_L: 
MAGNITUDE_L_REFERENCE: 
FOCAL_MECHANISM: 
NETWORK: TK
STATION_CODE: 4409
STATION_NAME: 
STATION_LATITUDE_DEGREE: 38.56063
STATION_LONGITUDE_DEGREE: 37.49076
STATION_ELEVATION_M: 1055.0
LOCATION: Kahramanmaras_Pazarck_Turkiye
SENSOR_DEPTH_M: 
VS30_M/S: None
SITE_CLASSIFICATION_EC8: unknown
MORPHOLOGIC_CLASSIFICATION: 
EPICENTRAL_DISTANCE_KM: 146.86
EARTHQUAKE_BACKAZIMUTH_DEGREE: 
DATE_TIME_FIRST_SAMPLE_YYYYMMDD_HHMMSS: 2023/02/06 01:17:37.3461730
DATE_TIME_FIRST_SAMPLE_PRECISION: millisecond
SAMPLING_INTERVAL_S: 0.01
NDATA: 12501
DURATION_S: 
STREAM: HNN
UNITS: cm/s^2
INSTRUMENT: sensor = ACEBOX/SARA | digitizer = 
INSTRUMENT_ANALOG/DIGITAL: 
INSTRUMENTAL_FREQUENCY_HZ: 
INSTRUMENTAL_DAMPING: 
FULL_SCALE_G: 
N_BIT_DIGITAL_CONVERTER: 
PGA_CM/S^2: 38.009
TIME_PGA_S: 
BASELINE_CORRECTION: BASELINE REMOVED
FILTER_TYPE: BUTTERWORTH
FILTER_ORDER: 
LOW_CUT_FREQUENCY_HZ: 
HIGH_CUT_FREQUENCY_HZ: 
LATE/NORMAL_TRIGGERED: 
DATABASE_VERSION: 
HEADER_FORMAT: DYNA 1.2
DATA_TYPE: Acceleration
PROCESSING: Automatic Paolucci et al., 2011
DATA_TIMESTAMP_YYYYMMDD_HHMMSS: 
DATA_LICENSE: U (unknown license)
DATA_CITATION: Turkish Accelerometric Archive v 1.0 - Disaster And Emergency Management Presidency, Earthquake Department
DATA_CREATOR: AFAD
ORIGINAL_DATA_MEDIATOR_CITATION: : AFAD - Disaster And Emergency Management Presidency
ORIGINAL_DATA_MEDIATOR: AFAD PROCESS SERVICE
ORIGINAL_DATA_CREATOR_CITATION: AFAD PROCESS SERVICE
ORIGINAL_DATA_CREATOR: network: TK
USER1: GuestUser
USER2: 
USER3: 
USER4: 
USER5: 
[...]
2.913827
3.606571
4.238060
4.393772
3.460924
1.761220
0.272869
-0.710947
-1.623455
-2.473071
-2.960770
-3.222620
-3.491484
-3.862050
-4.644100
-5.666259
-5.870829
-5.027285
-4.129034
-3.582881
-2.999086
-2.081897
-0.984450
-0.393174
-0.612473
-1.044060
-1.228056
-1.233664
-1.133597
-0.879222
-0.333069
0.432152
1.015946
1.363839
1.643463
1.533581
0.767664
-0.108605
-0.126371
1.044020
2.674291
3.950827
4.810736
5.412299
5.371621
4.135771
2.238509
0.931585
0.251238
-0.601418
-1.333201
-1.282231
-1.064563
-1.528180
-2.184914
-2.228631
-2.054917
-2.425717
-3.255461
-4.059721
-4.603531
-5.152016
-6.040911
-6.685254
-6.363312
-5.322678
-4.068587
-3.113990
-2.730793
-2.217138
-1.133953
-0.334364
-0.571431
-1.392291
-1.781794
-1.403742
-1.022416
-1.369602
-1.879745
-1.691769
-1.176244
-1.069863
-1.523427
-2.229492
-2.393849
-1.697131
-0.728974
0.001412
0.326626
0.536813
1.028725
1.478787
1.548461
1.604575
2.258743
3.546968
4.517931
4.417401
3.548847
2.180902
0.443089
-0.728934
-0.776158
-0.453983
0.015718
1.218140
2.598248
2.931178
2.262755
1.765704
1.750276
1.277307
0.312896
-0.169659
-0.339393
-1.072111
-1.943003
-1.758768
-0.964089
-1.444306
-3.453791
-5.314347
-6.184771
-6.491510
-6.330422
-5.359459
-3.953633
-3.117572
-2.956483
-2.906214
-3.016797
-3.100494
-2.517635
-1.600913
-1.187089
-1.400777
-1.786774
-1.908112
-1.770403
-1.527718
-1.007049
-0.179872
0.467983
0.675598
0.782913
1.043600
1.271087
1.227136
1.050154
1.087331
1.295413
1.357605
1.070739
0.501913
0.173898
0.202658
-0.177962
-1.235892
-2.501901
-3.647505
-4.076754
-3.209364
-1.863624
-1.368673
-1.520171
-1.221375
-0.334112
0.284752
-0.004452
-0.870435
-1.692463
-2.380526
-2.936493
-3.289524
-3.458090
-3.127030
-2.048287
-0.644332
0.587549
1.586100
2.308536
2.428009
1.967899
1.549872
1.300880
0.634327
-0.459608
-1.218277
-1.399000
-1.591179
-2.046613
-2.301449
-2.050816
-1.629511
-1.603323
-1.908192
-2.077458
-2.472106
-3.520450
-4.487667
-4.680079
-4.410508
-4.078513
-3.488640
-2.617509
-2.157393
-2.265639
-2.000744
-0.764655
0.753627
1.546436
1.761532
1.953483
1.881476
1.881478
2.823918
3.894244
3.688038
2.753553
2.472531
2.921191
3.362836
3.396973
3.084623
2.639242
2.104082
1.604227
1.241142
0.612698
-0.240660
-0.493626
-0.164436
-0.132404
-0.475148
-0.542479
-0.175414
0.125485
-0.001931
-0.150624
0.161264
0.509859
0.288222
-0.297672
-0.717101
-0.938972
-1.305330
-1.911797
-2.583261
-3.117952
-3.326029
-3.247003
-3.120516
-2.919915
-2.187426
-0.636646
1.097899
2.058574
2.258006
2.464685
2.994473
3.529170
3.881739
4.288782
4.893852
5.335732
5.228655
4.732306
4.180314
3.649129
3.053884
2.309943
1.510126
0.748417
-0.200330
-1.495564
-2.649819
-2.942296
-2.623160
-2.702883
-3.442614
-4.366111
-5.185802
-5.789463
-5.744806
-4.471543
-2.613553
-1.799703
-2.307741
-3.126731
-3.335275
-2.457831
-1.235069
-0.855380
-1.158612
-1.218228
-0.764892
-0.344756
-0.211255
0.092451
0.590441
0.910746
0.848325
0.267809
-0.411603
-0.594430
-0.245134
0.278341
0.297515
-0.272481
-0.515861
0.027487
0.940468
1.559565
1.423732
0.803237
0.264103
0.033815
0.424025
1.633929
2.862069
3.185179
3.213939
4.200332
5.926226
6.927115
6.455315
5.106775
3.534023
1.844607
0.263205
-0.840783
-1.335963
-1.556899
-2.079433
-2.673042
-2.508212
-1.704415
-1.209229
-1.387848
-1.822240
-2.141371
-2.127574
-1.404904
-0.081142
0.876728
0.795603
0.395345
0.968385
2.290979
2.970864
3.107638
3.755727
4.837743
5.800757
6.133686
5.561821
4.459703
2.554726
-0.415432
-3.119295
-4.682461
-5.504021
-5.708358
-5.443696
-5.017014
-4.295513
-3.327589
-2.602348
-2.579667
-3.324542
-3.931711
-3.253696
-1.549545
0.184765
1.307930
1.209738
0.296996
-0.002028
0.533370
0.991849
0.733272
-0.292861
-1.322969
-1.491768
-1.048018
-0.656405
-0.021176
1.136825
1.977796
2.066876
1.999077
2.054724
1.923332
1.285302
0.214747
-0.779824
-1.303761
-1.492433
-1.713368
-2.040448
-2.399090
-2.886789
-3.426624
-3.742715
-3.767729
-3.441813
-2.637782
-1.576807
-0.597194
0.074275
0.281889
0.407909
0.705769
0.479690
-0.407802
-1.005853
-0.995563
-0.998366
-1.310483
-1.335262
-0.566534
0.521327
1.377028
2.073980
2.710612
3.020864
2.498330
1.280716
0.653675
1.457940
2.938581
3.910245
3.956305
3.448968
2.849281
2.236968
1.598704
0.788132
-0.136300
-0.416386
-0.164584
-0.537956
-1.436202
-2.007132
-2.069787
-1.575771
-0.893314
-0.504507
0.043517
0.842171
1.246643
1.680106
2.764928
3.669492
3.803928
3.922232
4.530108
5.009161
4.370196
2.642436
1.195702
0.712679
0.244386
-0.578812
-0.942831
-0.904954
-1.158855
-1.603301
-2.004494
-2.282476
-1.899280
-0.562425
0.963339
1.631534
1.354487
1.082817
1.668248
2.597595
2.624251
1.839630
1.483091
1.913749
2.390932
2.746774
3.612528
4.502363
4.268334
3.494234
3.441632
3.807060
3.501256
2.642989
2.366409
2.567711
2.102457
1.216836
0.996602
1.283474
1.016246
-0.189444
-1.540789
-2.136268
-1.948293
-1.234507
-0.302822
0.097675
-0.144069
-0.230103
-0.094265
-0.345126
-0.782091
-0.659578
-0.088643
0.184669
0.128560
-0.056605
-0.780438
-2.082920
-3.366231
-4.196442
-4.555318
-4.851303
-5.181188
-4.850363
-3.525665
-1.737814
-0.118766
1.043911
1.769854
1.949881
1.706033
2.043405
3.279260
4.136597
3.848094
3.191828
3.160735
3.741256
4.201372
4.360591
4.351709
3.663413
1.990128
0.246938
-0.197040
0.569350
0.928465
0.438429
0.193646
0.268230
0.076753
0.197161
0.896217
0.994882
-0.042240
-1.253774
-1.678815
-1.348925
-1.047791
-1.091275
-1.297014
-1.913301
-2.694181
-2.636898
-1.660558
-0.630912
0.100876
0.857914
1.974533
3.511519
4.704121
4.640531
3.907579
3.543092
3.651343
3.857788
3.500315
2.427188
1.434488
1.103433
1.258911
1.448523
1.810678
2.790291
3.638510
3.009598
1.098074
-0.556974
-1.331074
-1.777390
-1.798897
-1.056588
-0.499446
-0.975923
-1.583559
-1.437901
-1.386463
-2.178799
-2.939806
-2.675847
-1.715872
-1.218583
-1.743455
-2.752989
-3.246532
-2.339396
-0.323827
1.374011
2.367886
3.354279
4.345816
5.048847
5.689220
6.520372
7.357837
7.688429
7.310849
6.657622
6.058870
5.439777
4.916542
4.769252
4.920989
4.734889
3.520081
1.400711
-0.793707
-2.030726
-1.933697
-1.694754
-2.064852
-2.107401
-1.699655
-1.463050
-0.903804
0.287863
1.229601
1.226564
0.632722
0.028359
-0.476407
-0.966911
-1.593485
-2.032554
-1.630887
-1.060887
-1.083796
-0.501639
1.174924
2.518326
3.262505
4.060926
4.425184
3.946137
3.106573
2.376427
1.934787
1.745413
1.884759
2.317521
2.492170
2.324072
2.281991
2.172343
1.694464
1.516547
1.881741
1.694706
0.949363
0.644962
0.066316
-1.363118
-2.387615
-2.377091
-1.904117
-1.532610
-1.364741
-1.221421
-1.053552
-0.522128
0.634002
1.970156
3.028559
3.415730
3.103613
3.042829
3.680864
3.843590
2.614286
1.114947
0.867826
1.338696
1.103031
0.706981
1.882517
4.122765
4.826030
3.166773
1.077563
0.209944
0.325677
0.738098
1.304825
1.889788
2.389416
2.673482
2.286316
1.539103
1.071745
0.348613
-1.148856
-3.135896
-4.718234
-4.479290
-2.631120
-0.903823
0.445423
1.994099
3.153268
3.263390
2.971847
3.005984
2.939355
2.602455
2.555699
2.728244
2.812881
2.818962
2.444422
1.180750
-0.976495
-2.862067
-3.055648
-2.008000
-1.392176
-1.587861
-1.763206
-1.755021
-2.003545
-2.012894
-1.199978
-0.345914
0.123553
0.958680
2.279169
3.440911
4.002494
4.175507
4.558703
4.807233
4.214325
3.274463
2.452201
1.340731
-0.096652
-1.434437
-2.203861
-2.101222
-1.645081
-1.395382
-1.092145
-0.625717
-0.551600
-1.498944
-2.887697
-3.140663
-2.391808
-2.037135
-2.284957
-2.831806
-3.216634
-2.818708
-2.002052
-1.249923
-0.356815
0.713044
1.726557
2.407144
2.640476
2.642116
2.824714
3.784454
5.422908
6.639124
6.948441
6.793202
6.342911
5.511998
4.668694
4.230794
3.696570
2.518936
1.198218
0.023156
-1.261558
-2.423060
-3.294186
-3.994640
-4.202249
-3.649550
-2.708513
-1.768412
-0.770328
0.293686
0.871635
0.505277
-0.207802
-0.580004
-1.131763
-2.073963
-2.499238
-2.297001
-1.967110
-1.386589
-0.627680
0.160921
1.320791
2.695288
3.400423
2.829961
1.386499
0.166314
-0.342193
-0.604277
-0.809314
-0.532963
0.123308
0.631119
0.920095
0.700328
-0.354796
-1.327624
-1.464159
-1.381860
-1.390508
-1.151097
-0.738909
-0.577587
-0.879182
-1.285987
-1.440057
-1.283410
-0.727437
-0.081921
0.272051
0.137854
-0.632038
-1.334596
-1.552492
-1.930540
-2.335006
-2.119443
-1.294136
-0.358242
-0.012687
-0.074641
0.161263
0.290088
-0.169555
-0.728094
-1.118065
-1.454964
-1.596643
-1.549881
-1.654152
-2.349696
-3.536916
-4.113457
-3.456016
-2.179715
-0.882838
0.195437
1.301067
2.864238
4.239670
4.578211
3.986707
2.943506
2.212425
2.219208
2.373049
2.252646
1.908967
1.251531
0.381574
-0.396267
-0.907111
-1.350388
-1.891392
-1.869880
-1.056497
-0.331489
-0.193078
-0.811469
-1.954034
-2.619418
-2.621987
-2.266145
-1.269231
0.227308
1.648564
2.367493
2.133231
1.894059
2.273047
2.797925
3.382420
3.900050
3.696416
2.494934
0.721351
-0.351309
-0.057890
0.381885
0.440337
1.179840
2.248530
2.142623
0.906773
-0.394540
-1.160925
-1.384198
-1.242047
-0.529197
0.497410
0.708064
-0.217771
-1.534748
-2.422707
-2.582154
-2.584490
-2.800983
-2.805890
-2.308367
-1.417129
-0.497836
0.288193
1.292355
2.159278
1.981829
1.146474
0.535330
0.144891
-0.098255
-0.163950
-0.267519
-0.477233
-0.517209
-0.138221
0.277707
0.250589
-0.327589
-1.551983
-2.872233
-3.318082
-2.503530
-0.563945
1.690799
3.306340
4.004929
3.825142
2.980201
1.880421
1.109127
0.816415
-0.197093
-2.663885
-4.961642
-5.349977
-4.404264
-3.907442
-4.382282
-4.729001
-4.202487
-3.396117
-2.996789
-2.825179
-2.599562
-2.597221
-2.637899
-1.969470
-0.970218
-0.711168
-0.920180
-0.797200
-0.841152
-1.414420
-1.178282
0.606997
2.462414
3.023297
2.621636
2.045796
1.390465
0.493855
-0.150488
0.043566
0.673887
0.885008
0.375567
-0.465166
-1.112548
-1.679503
-2.714521
-3.979829
-4.491609
-4.214557
-4.185563
-4.624164
-4.571089
-3.539807
-2.607187
-2.959283
-3.542137
-2.699295
-1.342801
-0.991635
-0.999815
-0.566820
-0.145047
0.099508
0.472651
1.143184
1.889234
2.025540
1.763924
1.860251
1.788945
1.327666
1.357595
1.651948
1.238831
0.210359
-0.720853
-1.251803
-1.402600
-1.313053
-1.270499
-1.196850
-0.811082
-0.303038
0.007447
0.030596
0.196594
1.193041
2.750601
3.946009
4.298578
3.863484
3.049872
2.247015
1.802803
1.908716
2.343114
2.912646
3.169826
2.613625
1.368657
-0.399315
-1.978847
-2.926892
-4.474627
-6.373526
-6.683772
-5.576973
-4.273785
-3.172129
-2.407843
-1.749702
-0.938189
0.170013
1.447952
1.767321
0.699104
-0.072190
0.495472
1.323585
1.688311
2.167832
3.337990
4.583431
4.389615
3.007642
1.996004
1.144985
0.008031
-0.865433
-1.637428
-2.509957
-3.215789
-4.103982
-5.659432
-7.213246
-7.576564
-7.195940
-7.483040
-8.304367
-8.324238
-7.228193
-6.453387
-6.880765
-7.428550
-6.811556
-5.132421
-4.135975
-4.289343
-4.224579
-4.486897
-5.013639
-4.365083
-3.618799
-3.660179
-3.768424
-3.201229
-2.417538
-2.980753
-3.324666
-1.895227
-0.809236
-0.977334
-1.453343
-1.773642
-2.615543
-2.883706
-1.181192
-0.605113
-0.390250
1.890912
2.961940
3.670582
4.353507
2.794549
2.813957
3.704961
3.022743
3.695381
4.405893
3.813687
2.970617
2.374904
3.737477
5.501247
6.619268
7.765111
8.097339
9.341611
10.193571
9.064333
9.054750
8.827268
7.801602
8.015529
7.915934
8.192986
9.299318
8.575016
6.890042
6.887941
7.560812
8.078208
9.608180
9.879387
8.451590
7.573684
6.781815
8.024450
9.877296
8.504675
6.921636
7.193545
9.037741
10.130044
8.496038
7.718665
8.639828
9.017414
6.783250
4.143214
5.156961
4.253571
0.849486
0.949086
1.837051
1.359406
0.262665
-1.052909
-3.028260
-5.339811
-4.473823
-4.280704
-6.104554
-4.845553
-4.431495
-5.776061
-7.093038
-9.878496
-10.297692
-10.963777
-14.722066
-15.199243
-14.806929
-17.132508
-16.687355
-14.865370
-16.518782
-17.210352
-14.891781
-14.796156
-16.415667
-17.508900
-19.625698
-21.477136
-22.356678
-21.848167
-19.766667
-20.745106
-22.582984
-20.684313
-21.031266
-22.950271
-20.085551
-17.306634
-15.986845
-12.566856
-11.982594
-12.672995
-8.416947
-5.500323
-6.211064
-4.597627
-2.393384
-1.011639
0.601798
0.552470
0.861319
2.718139
4.322225
6.393438
7.424720
6.330318
6.097224
6.985423
6.942173
6.959243
8.923844
11.145388
11.590775
11.144458
10.828835
10.981273
10.893602
10.327347
10.955563
12.244257
12.532297
12.452809
11.959967
10.015945
8.222022
8.608257
9.792911
10.565613
11.079502
10.532887
9.390322
8.740836
8.891404
10.502972
13.501658
16.184718
16.421791
15.423713
15.860449
16.669390
17.094904
17.778764
18.174585
18.796488
19.177113
18.173658
17.421301
17.523941
17.423644
17.448897
17.028532
14.687990
11.787738
10.763942
10.952619
10.835957
11.093137
12.159956
13.271899
13.775968
13.156408
11.853926
10.423557
8.757521
7.755234
7.529389
6.636754
5.085511
3.198770
0.522729
-2.083172
-3.591396
-4.742143
-6.530222
-8.818160
-11.075703
-12.514021
-12.719293
-12.605197
-12.194880
-10.935645
-10.276101
-11.022145
-11.923899
-12.736575
-14.472283
-16.767702
-18.344428
-19.856626
-22.433303
-25.632583
-29.073842
-32.282941
-34.640316
-36.588078
-38.008861
-37.802650
-36.373210
-35.147175
-33.662560
-30.837351
-27.155509
-22.904838
-18.400497
-14.769623
-11.758779
-8.631972
-5.749015
-3.433017
-1.870080
-0.529250
1.749575
4.010865
4.140391
3.083396
3.158915
3.163126
1.299999
-0.569208
-0.814692
-0.267136
-0.242819
-1.369018
-1.600474
0.780754
3.182088
3.821058
4.910089
7.839805
10.607266
11.559291
11.961191
12.528853
12.719401
13.092076
13.615084
13.870393
14.137626
13.936095
13.391584
13.109393
12.361245
11.036552
9.838110
8.599688
6.815584
4.339674
2.228253
2.146895
3.635484
4.570910
4.270951
3.631284
3.162757
3.063630
4.232385
7.011302
9.970944
11.791526
12.873776
14.067080
15.235835
15.334500
14.106600
13.253242
13.572846
13.293227
11.439451
9.301611
8.551592
9.011241
8.381393
6.246126
4.938033
5.205032
5.808231
5.957397
5.923499
6.271158
6.816142
7.013937
6.279115
4.260278
1.675184
-0.891673
-3.484482
-5.444636
-6.117034
-5.691287
-4.492138
-2.900911
-1.541845
-0.884872
-1.134097
-2.280870
-3.688327
-4.434137
-4.348097
-3.716842
-2.742139
-1.533872
0.080267
1.955324
3.512650
4.587653
5.111595
4.864474
4.179684
3.686842
3.188623
2.083232
0.932952
0.435668
-0.023039
-0.887151
-1.746120
-2.031116
-1.425345
-0.482672
0.182952
0.578540
0.400155
-0.712951
-2.367766
-4.082198
-6.048197
-8.180192
-9.391493
-9.436379
-9.612893
-10.707529
-12.315818
-13.784764
-14.517482
-14.389358
-13.882015
-13.198623
-12.314633
-10.992507
-8.459311
-5.054753
-2.185590
-0.253487
0.843960
1.007855
0.321429
-1.023137
-2.406746
-3.088496
-3.025836
-2.322337
-0.393274
2.744288
5.398358
6.599844
7.343089
8.469994
9.813396
10.716090
10.923704
11.097652
11.399721
11.515453
11.721899
11.735228
10.981468
10.191704
10.251091
10.664681
10.304168
9.394933
9.279908
9.390730
8.149269
6.721706
7.212449
9.151800
10.800775
11.748124
12.680042
13.387282
12.817988
11.092099
9.106228
6.735760
3.670213
0.691639
-1.556320
-3.595263
-6.190410
-9.228836
-11.620112
-12.817619
-13.639648
-14.609202
-15.502071
-16.138231
-16.155296
-15.677645
-15.050598
-13.345512
-9.900273
-5.640250
-1.901128
0.548602
2.346974
4.194910
5.332102
5.738912
6.466258
7.514374
8.536304
9.697578
10.536212
10.439422
10.007601
9.647790
9.016306
8.497045
8.325674
8.281723
8.463620
8.335502
7.341866
5.786415
4.119210
2.988335
3.027382
3.715917
3.304905
1.443881
0.303888
0.897034
1.570607
0.801884
-0.783492
-1.560164
-1.941952
-3.368347
-4.897612
-4.569826
-2.408601
-0.249715
0.817573
1.806538
3.571943
5.284277
6.471035
7.538322
7.876395
6.778019
5.028750
3.394510
1.681714
-0.248514
-2.214279
-4.408931
-6.610129
-8.078374
-9.428316
-11.017668
-11.974363
-12.478194
-13.421563
-15.093445
-16.217072
-15.889987
-14.809139
-12.866749
-11.359455
-10.886247
-9.322374
-7.990896
-7.484255
-5.919915
-4.818727
-4.283796
-3.072490
-2.360809
-1.991406
-1.035874
0.333012
1.822069
3.207788
3.963190
3.428732
2.307910
1.771816
2.166702
3.226508
3.555229
2.112235
-0.508396
-2.981033
-4.638887
-6.244604
-7.819459
-8.356489
-8.179034
-7.635219
-6.194792
-4.304070
-2.571630
-0.178946
3.284295
6.452952
8.472496
10.245851
12.123713
12.774607
11.638823
10.149771
9.466851
9.491169
9.746011
9.673536
9.176486
8.562303
8.111077
8.129082
8.343711
8.201097
7.834272
7.570083
7.368085
7.169126
7.272234
8.027869
9.353502
10.746235
11.669503
12.344245
13.433743
14.613486
15.281214
15.948240
16.887406
17.312920
16.921546
15.520869
12.530137
8.842923
5.828110
3.286503
1.087876
-0.191460
-0.960650
-2.416269
-4.580996
-6.009494
-5.765407
-4.224681
-2.019502
0.498731
2.526457
2.478765
0.039561
-3.105010
-6.075869
-9.336169
-12.726461
-15.772135
-18.553384
-20.869611
-22.020125
-22.108498
-21.934082
-21.588527
-21.071599
-20.651696
-19.552145
-16.985516
-13.355577
-9.052536
-4.661119
-1.048481
2.142153
5.560973
8.778493
11.098233
12.147517
11.981991
10.757130
8.583754
6.649318
6.263789
6.447556
5.529904
3.967674
2.998820
2.663324
2.748195
3.584490
5.346857
7.635969
9.143964
8.289203
5.550037
3.028536
1.512130
0.850253
1.055763
1.371860
1.034493
0.341053
-0.215616
-0.992989
-2.692459
-4.359197
-4.545764
-4.346099
-5.518122
-7.830842
-10.005855
-10.892645
-10.390914
-9.190362
-7.155154
-4.357300
-2.224832
-0.972144
1.073585
3.849228
5.200579
4.836560
4.348160
3.991388
3.297246
2.896988
3.445947
4.450810
4.884974
4.299782
2.839721
0.474163
-2.721375
-5.708600
-7.266155
-7.625265
-7.610767
-7.013880
-5.981195
-5.248238
-4.097485
-1.950522
-0.215276
0.113679
-0.180201
-0.246597
-0.482262
-1.628801
-3.408463
-5.318584
-7.410366
-9.646166
-11.610996
-12.417360
-11.601405
-9.947520
-8.263710
-6.797798
-5.721393
-5.108842
-4.963417
-5.235554
-5.762297
-6.537098
-7.943386
-9.904475
-11.419479
-11.849195
-11.032539
-9.196760
-7.501494
-6.169548
-4.319274
-2.427617
-1.435613
-0.921958
0.012766
1.587861
3.588701
5.977878
8.588928
11.022994
13.127406
14.980720
16.557217
17.418061
17.443548
16.941588
15.423779
12.695367
9.392516
5.539306
1.411384
-2.431305
-5.992736
-8.530603
-9.397754
-9.309844
-8.812788
-8.117706
-7.514507
-6.751156
-5.718705
-4.767147
-4.206499
-4.479571
-5.288273
-5.585427
-5.350224
-4.603239
-2.238144
1.364441
3.576634
3.209808
2.220381
2.468910
3.232027
3.108117
2.355059
2.059775
1.995016
0.951582
-1.265983
-3.480742
-4.487002
-4.682688
-5.256658
-5.749500
-5.345261
-5.179263
-6.293538
-7.668965
-8.499176
-9.957834
-12.964932
-16.425363
-18.977491
-20.907485
-23.257145
-25.779113
-27.041148
-26.174927
-23.548446
-20.479386
-18.275611
-16.336961
-13.185371
-9.434793
-6.470708
-4.763051
-4.404871
-4.936757
-6.040511
