EVENT_NAME: 202302060117
EVENT_ID: 13194
EVENT_DATE_YYYYMMDD: 2023/02/06
EVENT_TIME_HHMMSS: 01:17:32.00000
EVENT_LATITUDE_DEGREE: 37.288
EVENT_LONGITUDE_DEGREE: 37.043
EVENT_DEPTH_KM: 8.6
HYPOCENTER_REFERENCE: AFAD
MAGNITUDE_W: 7.7
MAGNITUDE_W_REFERENCE: AFAD
MAGNITUDE_L: 
MAGNITUDE_L_REFERENCE: 
FOCAL_MECHANISM: 
NETWORK: TK
STATION_CODE: 99009
STATION_NAME: 
STATION_LATITUDE_DEGREE: 35.12698
STATION_LONGITUDE_DEGREE: 33.92635
STATION_ELEVATION_M: 10.0
LOCATION: Kahramanmaras_Pazarck_Turkiye
SENSOR_DEPTH_M: 
VS30_M/S: 409
SITE_CLASSIFICATION_EC8: B
MORPHOLOGIC_CLASSIFICATION: 
EPICENTRAL_DISTANCE_KM: 368.65
EARTHQUAKE_BACKAZIMUTH_DEGREE: 
DATE_TIME_FIRST_SAMPLE_YYYYMMDD_HHMMSS: 2023/02/06 01:17:59.0828740
DATE_TIME_FIRST_SAMPLE_PRECISION: millisecond
SAMPLING_INTERVAL_S: 0.01
NDATA: 21001
DURATION_S: 
STREAM: HNZ
UNITS: cm/s^2
INSTRUMENT: sensor = CMG-5T/GURALP | digitizer = 
INSTRUMENT_ANALOG/DIGITAL: 
INSTRUMENTAL_FREQUENCY_HZ: 
INSTRUMENTAL_DAMPING: 
FULL_SCALE_G: 
N_BIT_DIGITAL_CONVERTER: 
PGA_CM/S^2: 7.676
TIME_PGA_S: 
BASELINE_CORRECTION: BASELINE REMOVED
FILTER_TYPE: BUTTERWORTH
FILTER_ORDER: 
LOW_CUT_FREQUENCY_HZ: 
HIGH_CUT_FREQUENCY_HZ: 
LATE/NORMAL_TRIGGERED: 
DATABASE_VERSION: 
HEADER_FORMAT: DYNA 1.2
DATA_TYPE: Acceleration
PROCESSING: Automatic Paolucci et al., 2011
DATA_TIMESTAMP_YYYYMMDD_HHMMSS: 
DATA_LICENSE: U (unknown license)
DATA_CITATION: Turkish Accelerometric Archive v 1.0 - Disaster And Emergency Management Presidency, Earthquake Department
DATA_CREATOR: AFAD
ORIGINAL_DATA_MEDIATOR_CITATION: : AFAD - Disaster And Emergency Management Presidency
ORIGINAL_DATA_MEDIATOR: AFAD PROCESS SERVICE
ORIGINAL_DATA_CREATOR_CITATION: AFAD PROCESS SERVICE
ORIGINAL_DATA_CREATOR: network: TK
USER1: GuestUser
USER2: 
USER3: 
USER4: 
USER5: 
[...]
-0.841670
-0.824035
-0.652711
-0.356673
-0.293373
-0.397618
-0.329908
-0.148507
-0.227872
-0.420300
-0.313223
-0.266929
-0.562026
-0.683907
-0.377791
-0.141906
-0.229460
-0.195448
-0.023180
-0.164903
-0.528655
-0.490550
-0.039563
0.366388
0.451734
0.254897
0.242298
0.372995
0.073174
-0.429150
-0.423483
-0.061308
0.019629
0.044192
0.358182
0.331726
-0.183826
-0.345075
0.050483
0.258654
0.109058
0.064965
0.041973
-0.192026
-0.373745
-0.545387
-0.575307
-0.296906
-0.099757
-0.319899
-0.538151
-0.343208
-0.182592
-0.245266
0.071873
0.614191
0.604426
0.281616
0.210124
0.375148
0.428371
0.609142
0.856680
0.778575
0.404114
0.078784
0.122874
0.605984
1.176016
1.421349
1.211600
0.791474
0.535115
0.195613
-0.084682
-0.021696
0.195608
0.268671
0.247254
0.482510
0.685957
0.662335
0.976324
1.489983
1.502894
0.777280
-0.148633
-0.592694
-0.548290
-0.350197
-0.206903
-0.005030
0.334469
0.553033
0.761834
1.093145
1.049052
0.407841
-0.332575
-0.594918
-0.586101
-0.501700
-0.331321
-0.178264
-0.122522
-0.148348
-0.302039
-0.480294
-0.436205
-0.308657
-0.301415
-0.423297
-0.713669
-1.358660
-1.797367
-1.580378
-1.232375
-1.191750
-1.283713
-1.366228
-1.510785
-1.733131
-1.764626
-1.443393
-1.081849
-0.920603
-1.087206
-1.386396
-1.567171
-1.570007
-1.486866
-1.677088
-2.134062
-2.401759
-2.285234
-2.053128
-1.921172
-2.050297
-2.341299
-2.452473
-2.199581
-1.724975
-1.522787
-1.377289
-1.299186
-1.517123
-1.979766
-2.215024
-2.099759
-2.170622
-2.362419
-2.381002
-2.228260
-2.152047
-1.972220
-1.825147
-1.905142
-2.237086
-2.425734
-2.163394
-1.748625
-1.524392
-1.591790
-1.626120
-1.603446
-1.813510
-2.007512
-1.804695
-1.584556
-1.806903
-2.345130
-2.803048
-3.072320
-3.134364
-2.925878
-2.454735
-2.177908
-2.198696
-2.404350
-2.559615
-2.526234
-2.478995
-2.310191
-1.974786
-1.711816
-1.805353
-1.891962
-1.786460
-1.702374
-1.896691
-2.181080
-2.562784
-3.279579
-3.726160
-3.278638
-2.328163
-1.706166
-1.625229
-1.793407
-1.866158
-1.772309
-1.457060
-1.202908
-1.394706
-1.938287
-2.477143
-2.631464
-2.325033
-1.860504
-1.493605
-1.368892
-1.458966
-1.570769
-1.539277
-1.400077
-1.255523
-1.261194
-1.366069
-1.211752
-0.848318
-0.450870
-0.237975
-0.233568
-0.479849
-0.870686
-1.029415
-0.803923
-0.570557
-0.488360
-0.066663
0.634698
0.869638
0.400697
-0.003997
-0.133437
-0.338777
-0.367438
-0.102893
-0.122736
-0.423186
-0.400827
-0.078965
0.090469
0.157549
0.057083
-0.334699
-0.727110
-0.854031
-0.689636
-0.479576
-0.439895
-0.771524
-1.018121
-0.656891
-0.137248
-0.032061
-0.166226
-0.364952
-0.756734
-1.227879
-1.265673
-0.924284
-0.867597
-1.116713
-1.283631
-1.286152
-1.384413
-1.558575
-1.814304
-2.034761
-1.966736
-1.517324
-0.821633
-0.465442
-0.678340
-1.075791
-1.347897
-1.487415
-1.511037
-1.565837
-1.707245
-1.756692
-1.588517
-1.449317
-1.650248
-1.962981
-1.920466
-1.698123
-1.927713
-2.358862
-2.433818
-2.310365
-2.312886
-2.196676
-1.849618
-1.531850
-1.412491
-1.576259
-1.710108
-1.769633
-1.882696
-2.174013
-2.324554
-2.075127
-1.889001
-1.742243
-1.518010
-1.486203
-1.739728
-1.731856
-1.475815
-1.584155
-1.754851
-1.666986
-1.660689
-1.779106
-1.733442
-1.592038
-1.608731
-1.640541
-1.631724
-1.477092
-1.205934
-1.080906
-1.166256
-1.430803
-1.597406
-1.792668
-1.906676
-1.642132
-1.044070
-0.608200
-0.552458
-0.503015
-0.470578
-0.579863
-0.834332
-1.014792
-1.245957
-1.571602
-1.593334
-1.202815
-0.787101
-0.568223
-0.469334
-0.550589
-0.681289
-0.764434
-0.694520
-0.487924
-0.383681
-0.430294
-0.180551
0.577813
1.220280
1.339325
1.156660
0.942817
0.766137
0.556703
0.417184
0.555755
0.875098
1.262782
1.568898
1.813917
1.955007
1.738014
1.326391
1.004840
0.508500
-0.036656
0.175295
0.986568
1.681315
2.222058
2.759022
2.910189
2.538563
2.163473
2.058283
2.134496
2.292277
2.136067
1.783338
1.700508
1.943007
2.142045
2.122517
2.303604
2.455086
2.353046
2.335093
2.497283
2.497281
2.405004
2.336031
2.189899
1.922832
1.759379
2.098248
2.524985
2.577892
2.361530
2.205635
2.093201
1.827079
1.629612
1.947696
2.247513
1.904547
1.426472
1.425526
1.851947
2.162158
2.034922
1.683137
1.449768
1.467718
1.550544
1.387406
1.314024
1.629588
1.782961
1.400312
1.082855
1.253234
1.486600
1.433374
1.154654
0.855463
0.651383
0.819872
1.274638
1.273377
1.038748
1.117480
1.205976
0.954340
0.737033
0.649479
0.471539
0.264625
0.224941
0.595934
0.994641
1.049753
0.656712
0.287920
0.379250
0.496720
0.188396
-0.251571
-0.385735
-0.278659
-0.210319
-0.334721
-0.668239
-0.851533
-0.827285
-0.786975
-0.627304
-0.415354
-0.387956
-0.683367
-0.841152
-0.771867
-0.878317
-1.221284
-1.285218
-1.338443
-1.543783
-1.524574
-1.258769
-0.990761
-0.957064
-0.918958
-1.000214
-1.147605
-1.212483
-1.057222
-1.116746
-1.334683
-1.420033
-1.288706
-1.045262
-0.903228
-0.687813
-0.611285
-0.518696
-0.611603
-0.988898
-1.383829
-1.283051
-0.915838
-0.892849
-0.913322
-0.484381
0.145490
0.217923
-0.068040
-0.079379
0.127217
0.213823
0.147999
0.097923
0.093197
-0.004119
0.067369
0.335378
0.521189
0.490009
0.522760
0.638970
0.533780
0.226401
-0.040351
-0.059564
-0.028387
0.137583
0.533140
0.996095
1.232295
1.036718
0.788232
0.632022
0.346059
-0.052336
-0.024939
0.624457
0.905379
0.479584
0.251254
0.824435
1.588783
1.780262
1.584056
1.368008
1.237308
1.191641
1.400442
1.721360
1.882920
1.806389
1.493656
1.300599
1.273513
1.413658
1.678517
1.703396
1.425621
1.195401
1.411445
1.797240
1.947148
1.987458
2.105243
2.020208
1.757865
1.894546
2.332620
2.617635
2.681251
2.834938
2.836196
2.493859
2.330721
2.549600
2.718404
2.490074
2.093568
1.625571
1.317248
1.556912
2.163792
2.500142
2.305510
1.886014
1.719726
1.936400
2.165672
2.268654
2.510209
2.694130
2.362186
1.917495
1.887259
2.102044
2.069919
1.823322
1.640343
1.612312
1.723483
1.882524
2.028338
1.948342
1.685684
1.291068
0.981485
0.841966
0.776458
0.758505
0.705279
0.760077
0.894553
1.077529
1.144294
1.179250
1.344590
1.412299
1.285379
1.058938
1.130112
1.355919
1.057044
0.233485
-0.376232
-0.275770
0.063100
0.122621
0.088921
0.157891
0.004830
-0.576228
-1.194763
-1.567964
-1.829992
-2.148394
-2.174535
-1.635052
-1.208630
-1.331457
-1.583092
-1.570811
-1.522628
-1.457438
-1.316663
-1.539639
-2.230925
-2.805684
-2.886624
-2.717505
-2.575786
-2.851671
-3.315258
-3.467374
-3.291641
-3.082840
-3.212596
-3.460767
-3.611623
-3.484705
-3.114657
-2.796888
-2.644776
-2.860194
-3.319687
-3.742962
-3.862324
-3.901693
-4.155848
-4.309223
-4.082471
-3.911147
-3.900126
-3.817300
-3.753369
-3.944537
-4.264198
-4.173498
-3.759674
-3.454188
-3.452930
-3.180197
-2.584025
-2.399789
-3.026198
-3.690715
-3.965970
-3.956209
-3.824882
-3.706153
-3.560654
-3.554987
-3.420826
-3.170768
-2.813003
-2.564205
-2.670025
-3.083852
-3.302734
-3.152826
-2.882613
-2.811124
-2.886396
-2.904978
-2.906240
-2.899313
-2.971750
-3.129219
-3.228110
-3.052693
-2.648632
-2.158908
-1.923338
-1.977193
-2.014042
-1.683676
-1.410629
-1.518968
-1.752022
-1.807138
-1.807454
-1.951381
-2.055627
-2.031378
-1.851866
-1.586692
-1.258845
-1.213181
-1.681178
-2.220979
-2.270111
-2.019423
-1.930613
-2.036748
-2.059110
-1.807163
-1.395229
-1.079979
-0.840945
-0.735443
-0.814178
-0.844729
-0.760328
-0.705845
-0.537986
-0.024012
0.556728
0.893078
0.992281
1.105656
1.177775
0.929289
0.608997
0.351063
-0.035679
-0.349987
-0.291410
0.075803
0.399556
0.680162
0.979664
1.179332
1.123272
0.667873
-0.058056
-0.510620
-0.306543
0.080196
0.376864
0.703766
1.012717
1.172702
1.261198
1.465904
1.330795
0.872247
0.662813
0.878858
0.990973
0.787208
0.800434
1.018998
1.355977
1.558794
1.457384
1.340541
1.472497
1.594061
1.585556
1.614844
1.651689
1.366356
0.890171
0.918829
1.270611
1.442564
1.391228
1.389022
1.209507
0.881342
0.763239
0.905589
1.149977
1.026836
0.649226
0.533643
0.955026
1.617964
1.951795
1.892585
1.826132
1.885023
1.858252
1.810065
1.859509
1.695426
1.205699
0.995635
1.243803
1.412292
1.309936
1.191519
1.356543
1.607231
1.677460
1.566286
1.305517
1.126317
1.129465
1.217331
1.246618
1.186149
1.003799
0.855778
1.024582
1.431477
1.610674
1.442182
1.483752
1.852855
1.932847
1.690030
1.830490
2.244629
2.304780
2.154869
2.420043
2.798910
2.496570
1.785443
1.612857
1.892833
2.069825
2.133126
2.115173
2.082103
2.026673
2.024152
2.115166
2.164295
2.242397
2.405847
2.582840
2.906592
3.296481
3.614880
3.544647
3.137749
3.037598
3.327022
3.345917
2.965787
2.645181
2.656202
3.010189
3.372363
3.475661
3.411097
3.504946
3.459279
2.978370
2.534939
2.532733
2.463761
2.231966
2.362978
2.804201
2.798216
2.623110
2.833171
2.972056
2.749080
2.156999
1.855918
1.808047
1.837964
2.390045
3.135181
3.292648
2.853626
2.279496
1.963614
1.912278
2.245163
2.861491
3.071552
2.762913
2.325465
2.059658
2.127053
2.378685
2.136812
1.351991
0.634565
0.608424
1.232625
2.013979
2.768879
3.198450
3.014526
2.592510
2.390635
2.247337
1.707851
1.018140
0.552663
0.164030
0.200876
1.010575
1.914754
2.143711
2.103712
2.196932
2.126070
1.748775
1.621854
1.978045
2.114725
1.782152
1.605471
1.984022
2.471856
2.411072
1.900874
1.503424
1.136207
0.462243
-0.217705
-0.542406
-0.661768
-0.664289
-0.290462
0.218473
0.294056
0.054388
-0.011750
0.367746
0.649927
0.297512
-0.258351
-0.291106
0.287744
0.789436
0.881395
0.941231
0.826593
0.305058
-0.404809
-1.069640
-1.324425
-1.140504
-0.804784
-0.751246
-0.918794
-1.148699
-1.487886
-1.782983
-1.838098
-1.854476
-2.198388
-2.422624
-2.317122
-2.136980
-1.913692
-1.316890
-0.383737
0.148503
-0.020304
-0.601363
-1.107466
-1.350283
-1.514681
-1.866466
-2.067397
-1.834346
-1.674990
-1.725696
-1.765695
-1.783648
-1.693892
-1.298020
-0.875377
-0.853019
-1.187167
-1.469981
-1.333930
-0.872866
-0.736815
-1.102142
-1.284807
-1.000106
-0.986251
-1.262451
-1.026881
-0.517316
-0.634789
-1.340562
-1.553460
-1.452997
-1.743054
-1.836907
-1.212391
-0.587875
-0.454973
-0.438913
-0.310736
-0.188227
-0.122722
-0.064146
-0.203664
-0.399871
-0.727091
-1.307834
-1.343423
-1.004554
-1.083289
-1.093369
-0.628525
-0.782215
-1.782138
-1.843237
-0.893393
-0.390757
-0.440833
-0.040236
0.365085
0.024007
-0.412495
-0.370610
-0.003397
0.068407
-0.284953
-0.670436
-0.704450
-0.575643
-0.466992
-0.479276
-0.727447
-1.244888
-1.691469
-1.630688
-1.362364
-1.123959
-0.507946
0.271833
0.546771
0.274350
-0.134754
-0.417883
-0.573462
-0.546380
-0.537563
-0.597717
-0.735661
-0.870770
-1.086817
-1.080520
-1.112016
-1.531512
-1.886131
-1.798265
-1.715124
-2.000143
-1.871650
-1.443654
-1.280519
-1.343823
-1.008418
-0.703561
-0.958661
-1.481771
-1.643964
-1.545076
-1.566179
-1.580982
-1.259434
-0.664522
-0.547997
-0.635236
-0.734128
-0.876165
-1.294402
-1.895301
-2.384398
-2.808303
-2.864993
-2.193237
-1.474240
-1.418498
-1.524947
-1.360867
-1.086560
-0.800285
-0.547078
-0.316547
-0.136090
-0.090426
-0.119717
-0.308050
-0.300493
-0.233728
-0.360334
-0.639999
-0.701098
-0.346796
0.147336
0.647138
0.775945
0.457228
-0.012028
-0.078166
-0.073443
-0.494514
-0.787721
-0.366338
0.244321
0.433910
0.773410
1.255575
1.292736
1.049289
0.865994
0.410281
-0.382415
-0.768213
-0.760656
-0.868365
-0.808529
-0.267156
0.426016
0.740006
0.651192
0.352946
-0.002618
-0.367945
-0.882237
-1.410386
-1.640291
-1.554945
-1.547703
-1.405668
-0.805402
-0.287649
-0.440080
-0.833436
-0.917526
-1.172625
-1.870525
-2.552677
-2.883361
-2.869191
-2.624487
-2.374115
-2.368133
-2.474268
-2.102645
-1.617960
-1.809443
-2.537891
-3.112336
-3.531202
-4.258390
-4.744338
-4.553489
-4.045814
-3.774340
-3.643644
-3.337528
-3.006532
-2.927169
-3.349815
-3.993545
-4.375249
-4.346277
-4.216525
-4.269750
-4.363918
-4.296838
-4.148505
-4.117643
-3.942540
-3.759249
-4.134024
-4.760433
-4.926406
-4.607378
-4.402356
-4.381572
-4.305674
-4.233555
-4.201118
-4.080500
-3.881462
-3.821940
-3.889968
-3.807457
-3.475516
-3.233962
-3.354269
-3.406235
-2.962177
-2.702041
-3.009735
-3.141695
-2.725351
-2.340186
-2.246337
-2.036592
-1.688274
-1.484827
-1.306890
-1.102183
-1.185013
-1.619311
-2.299574
-2.861736
-2.783319
-2.201004
-1.623728
-1.279505
-0.998899
-0.609325
-0.188257
0.277531
0.480663
0.341145
0.206666
0.099901
-0.244010
-0.383214
-0.076468
0.088557
0.149023
0.744565
1.829203
2.229485
1.638348
0.989579
1.012883
1.218849
0.902967
0.297974
0.084131
0.449769
0.985474
1.354892
1.766511
2.162069
2.079869
1.751390
1.574709
1.350473
1.027347
1.059154
1.610920
2.270079
2.433215
2.561077
2.912229
3.112526
2.960726
2.869078
3.052999
3.080711
2.778057
2.370843
2.258724
2.295570
2.452721
2.745925
2.893628
2.608295
2.040149
1.655926
1.979363
2.546246
2.727018
2.685130
2.928888
3.451680
3.605367
3.478132
3.868336
4.743856
5.139413
5.128074
5.434190
5.723300
5.092167
4.314274
4.180739
4.075864
3.483783
3.056728
3.370088
3.940750
4.442126
5.122386
5.865318
6.139311
5.722019
5.024120
4.581633
4.424479
4.403691
4.207800
4.085288
4.354872
5.062216
5.725154
5.924822
5.578706
5.093388
4.882065
5.126768
5.600115
5.944338
6.165107
5.919770
5.608927
6.035663
7.204704
7.675531
6.658602
5.077937
4.195800
4.090295
4.096907
4.049980
4.362710
4.919830
5.126426
5.262162
5.600086
5.875024
5.828727
5.668423
5.710308
5.949972
5.892022
5.549056
5.247975
5.240730
5.505905
5.675653
5.622113
5.235370
4.566130
3.898149
3.767449
4.443930
5.370784
5.600686
5.105920
4.547222
4.141583
3.440850
2.681853
2.501708
2.745467
2.932537
3.071422
3.641139
4.183142
4.522327
4.857732
4.776162
4.020944
3.206833
2.901974
2.876147
2.639944
2.681199
3.499716
3.985345
3.621278
3.312954
3.397985
2.990771
2.325625
2.320900
2.707639
2.405614
1.570403
1.458914
2.547960
3.694010
3.761090
3.002723
2.074920
1.400641
0.852336
0.802575
0.969804
1.056410
1.395594
1.988302
2.331265
2.347010
2.342600
2.163085
1.926881
1.702645
1.435578
0.769487
0.047653
-0.032028
0.566034
1.361560
1.894745
2.202121
2.492805
2.556735
2.327775
1.992997
1.530040
1.117787
1.001259
0.918430
0.305563
-0.124326
0.158485
0.674033
0.828980
0.689777
0.621749
0.703316
0.638122
0.312477
0.104303
0.196578
0.320661
0.231532
0.515918
0.900768
0.855730
0.423952
0.373245
0.528507
-0.023892
-1.145695
-1.572435
-0.937840
-0.602120
-0.788879
-0.852813
-0.796756
-1.069807
-0.998633
-0.400886
-0.355852
-1.243343
-1.918252
-2.230670
-3.152173
-4.224532
-4.147374
-3.289805
-3.013293
-3.298942
-3.482236
-3.662066
-3.977948
-3.955589
-3.761275
-3.919690
-4.107708
-3.728212
-3.407609
-3.578306
-3.789944
-3.646650
-3.920646
-4.629568
-4.976944
-4.858214
-4.665160
-4.717441
-4.795547
-4.916799
-5.280236
-6.237013
-6.844841
-6.317640
-5.603682
-5.779103
-6.063491
-5.633291
-5.307334
-5.519917
-5.341350
-4.627392
-4.393396
-4.709908
-4.992407
-5.105156
-5.106102
-4.791483
-4.513081
-4.463953
-4.784874
-5.227991
-5.366564
-5.185792
-5.633003
-6.850231
-7.143123
-6.345707
-5.290359
-4.491998
-3.893307
-3.744029
-3.998814
-3.975195
-3.599163
-3.443271
-3.797576
-4.243527
-4.115349
-3.424067
-3.078584
-3.083309
-2.726804
-2.172203
-2.286212
-2.887111
-2.903174
-2.485256
-2.665716
-3.075134
-3.096236
-3.036085
-3.114191
-2.758000
-1.982629
-1.951452
-2.753910
-2.872643
-2.253166
-2.217894
-2.262302
-1.273090
-0.009884
0.285839
0.161753
0.425667
0.538728
-0.370494
-1.362543
-1.366954
-1.129809
-1.668980
-2.060447
-1.198784
-0.238232
-0.551280
-1.470894
-1.718435
-1.657654
-1.774497
-1.777333
-1.456730
-1.263991
-1.485077
-1.329500
-0.249587
0.869693
0.821822
0.141873
0.100300
0.214935
-0.341873
-0.545323
0.164226
0.109740
-0.918212
-1.302750
-0.639497
-0.402981
-0.860585
-0.884207
-0.885153
-1.522270
-1.976409
-1.503062
-0.994442
-1.085145
-1.053023
-0.644238
-0.450239
-0.541257
-0.840133
-0.935560
-0.547246
0.469050
1.151200
0.507784
-0.759834
-1.580244
-1.671262
-1.441675
-1.190043
-1.282636
-1.540885
-1.582143
-1.109741
-0.561124
-0.213121
-0.063529
-0.268868
-0.643329
-0.891185
-1.137781
-1.589716
-1.707503
-1.263130
-0.550432
0.077863
0.756233
1.446886
1.948262
1.894407
1.006916
-0.156144
-1.056232
-1.652407
-2.286689
-2.682880
-2.459907
-1.890820
-1.127102
-0.179777
0.426158
0.333881
-0.423227
-1.450549
-2.066565
-1.849576
-1.240492
-0.902252
-0.420717
0.676203
1.709191
1.713284
1.094748
0.553372
0.179541
-0.316169
-1.091543
-2.057453
-2.518835
-2.117609
-1.575921
-1.344759
-0.910779
-0.247211
-0.369093
-1.165882
-1.835437
-2.306898
-2.821505
-2.855519
-2.228484
-1.420360
-0.755532
-0.293523
-0.224553
-0.325964
-0.433989
-0.933479
-1.698144
-1.905374
-1.754836
-1.988520
-1.989781
-1.610600
-1.764605
-2.854285
-3.635957
-3.550296
-3.573603
-4.088840
-4.133562
-3.429052
-3.054280
-3.300247
-3.068456
-2.135617
-1.730297
-2.360800
-3.001066
-2.871944
-2.462844
-2.441745
-2.695270
-2.632599
-2.431671
-2.219406
-2.081151
-2.023834
-2.477658
-3.272558
-3.670639
-3.666546
-3.570492
-3.439795
-3.173361
-3.344688
-4.181159
-4.506804
-3.497122
-2.806469
-3.346586
-3.686088
-2.649951
-1.431466
-1.170070
-1.455089
-1.972215
-2.958281
-3.931119
-4.033790
-3.596346
-3.047729
-2.729330
-2.743819
-2.702879
-1.937587
-1.207252
-1.616355
-2.490934
-2.929641
-3.127107
-3.225999
-3.020662
-2.608728
-1.719980
-0.055546
1.176166
0.822807
0.054362
0.323000
0.423778
-0.636297
-1.522213
-1.578903
-1.164449
-0.957538
-0.502772
0.322358
0.638237
0.201734
-0.153515
-0.100922
-0.091161
-0.228475
-0.452710
-0.350673
-0.172106
-0.016214
0.135583
0.594128
0.985592
0.860876
0.715689
1.060542
1.594042
1.466491
1.489795
2.066441
2.251306
1.983294
2.318699
2.988566
3.084935
2.824796
2.811568
3.311054
3.626618
3.475448
3.029812
2.611890
2.365609
2.048152
1.994296
2.425127
2.650619
2.431422
2.092550
1.992084
2.731866
3.767374
4.113487
3.424720
2.338190
1.808782
1.908300
2.218825
2.871685
3.539662
3.222835
2.068594
1.435256
1.915847
2.442418
2.940015
3.765775
4.056774
3.521382
3.234474
3.466895
3.382490
2.964569
2.860009
2.838906
2.466651
1.821660
1.266427
1.480267
2.461290
3.249888
3.095883
2.452782
1.751733
1.432702
1.778815
2.012496
1.646539
1.291289
1.366242
1.415056
1.730305
2.615903
3.343403
3.361668
2.802340
2.515432
2.683921
2.582510
2.070423
1.845872
2.178443
2.248042
1.859725
1.572187
1.506363
1.906960
2.691464
2.913492
2.487382
2.103474
1.679254
0.767513
-0.223277
-0.299808
0.563430
1.322108
0.979142
0.083463
0.126292
1.336904
2.360759
2.219351
1.721121
1.829457
1.970232
1.258160
0.792684
1.577187
2.207687
1.491521
0.964317
1.554191
2.038875
1.911010
1.809284
2.025643
1.869433
1.414035
0.874548
0.667318
0.902574
0.794549
0.132868
-0.276236
0.015078
-0.139242
-0.668965
-0.652275
-0.130743
0.424487
0.887126
1.284259
1.290871
1.157336
1.267877
1.421564
