EVENT_NAME: 202302060117
EVENT_ID: 13194
EVENT_DATE_YYYYMMDD: 2023/02/06
EVENT_TIME_HHMMSS: 01:17:32.00000
EVENT_LATITUDE_DEGREE: 37.288
EVENT_LONGITUDE_DEGREE: 37.043
EVENT_DEPTH_KM: 8.6
HYPOCENTER_REFERENCE: AFAD
MAGNITUDE_W: 7.7
MAGNITUDE_W_REFERENCE: AFAD
MAGNITUDE_L: 
MAGNITUDE_L_REFERENCE: 
FOCAL_MECHANISM: 
NETWORK: TK
STATION_CODE: 2906
STATION_NAME: 
STATION_LATITUDE_DEGREE: 40.70208
STATION_LONGITUDE_DEGREE: 39.0867
STATION_ELEVATION_M: 612.0
LOCATION: Kahramanmaras_Pazarck_Turkiye
SENSOR_DEPTH_M: 
VS30_M/S: None
SITE_CLASSIFICATION_EC8: unknown
MORPHOLOGIC_CLASSIFICATION: 
EPICENTRAL_DISTANCE_KM: 418.67
EARTHQUAKE_BACKAZIMUTH_DEGREE: 
DATE_TIME_FIRST_SAMPLE_YYYYMMDD_HHMMSS: 2023/02/06 01:18:05.2674180
DATE_TIME_FIRST_SAMPLE_PRECISION: millisecond
SAMPLING_INTERVAL_S: 0.01
NDATA: 21001
DURATION_S: 
STREAM: HNN
UNITS: cm/s^2
INSTRUMENT: sensor = ACEBOX/SARA | digitizer = 
INSTRUMENT_ANALOG/DIGITAL: 
INSTRUMENTAL_FREQUENCY_HZ: 
INSTRUMENTAL_DAMPING: 
FULL_SCALE_G: 
N_BIT_DIGITAL_CONVERTER: 
PGA_CM/S^2: 2.852
TIME_PGA_S: 
BASELINE_CORRECTION: BASELINE REMOVED
FILTER_TYPE: BUTTERWORTH
FILTER_ORDER: 
LOW_CUT_FREQUENCY_HZ: 
HIGH_CUT_FREQUENCY_HZ: 
LATE/NORMAL_TRIGGERED: 
DATABASE_VERSION: 
HEADER_FORMAT: DYNA 1.2
DATA_TYPE: Acceleration
PROCESSING: Automatic Paolucci et al., 2011
DATA_TIMESTAMP_YYYYMMDD_HHMMSS: 
DATA_LICENSE: U (unknown license)
DATA_CITATION: Turkish Accelerometric Archive v 1.0 - Disaster And Emergency Management Presidency, Earthquake Department
DATA_CREATOR: AFAD
ORIGINAL_DATA_MEDIATOR_CITATION: : AFAD - Disaster And Emergency Management Presidency
ORIGINAL_DATA_MEDIATOR: AFAD PROCESS SERVICE
ORIGINAL_DATA_CREATOR_CITATION: AFAD PROCESS SERVICE
ORIGINAL_DATA_CREATOR: network: TK
USER1: GuestUser
USER2: 
USER3: 
USER4: 
USER5: 
[...]
-0.773552
-1.134535
-1.499960
-1.840603
-2.148514
-2.402417
-2.579636
-2.681571
-2.704717
-2.664971
-2.588286
-2.493130
-2.397975
-2.301416
-2.191531
-2.053825
-1.874970
-1.641172
-1.344250
-0.991683
-0.584642
-0.142765
0.283214
0.677162
1.025052
1.306544
1.533795
1.697220
1.780452
1.772269
1.662151
1.480724
1.261656
1.030197
0.817675
0.618246
0.427234
0.242768
0.049652
-0.148608
-0.352012
-0.556584
-0.746661
-0.927153
-1.093149
-1.226413
-1.310814
-1.346117
-1.355937
-1.363184
-1.379082
-1.407372
-1.433089
-1.439635
-1.429582
-1.412749
-1.394746
-1.389602
-1.398019
-1.400123
-1.383290
-1.327178
-1.218229
-1.054570
-0.829423
-0.568038
-0.295898
-0.006223
0.279945
0.545773
0.788454
0.997235
1.173285
1.310290
1.409420
1.472546
1.476286
1.431397
1.355647
1.247165
1.126994
0.996067
0.843865
0.694937
0.563776
0.449216
0.342838
0.224069
0.076543
-0.109325
-0.332368
-0.574582
-0.822641
-1.076310
-1.326707
-1.558634
-1.766246
-1.934112
-2.040490
-2.078365
-2.053582
-1.982040
-1.868181
-1.709900
-1.511172
-1.263347
-0.977179
-0.673476
-0.356213
-0.032638
0.295614
0.615682
0.904656
1.154117
1.351209
1.492890
1.584305
1.627791
1.631298
1.586877
1.492890
1.356353
1.178433
0.978771
0.762508
0.537829
0.327879
0.127515
-0.061861
-0.238144
-0.423545
-0.614323
-0.801829
-0.988866
-1.159304
-1.306597
-1.433315
-1.530340
-1.602350
-1.653785
-1.665007
-1.620118
-1.511636
-1.348679
-1.157199
-0.957302
-0.766758
-0.596085
-0.444117
-0.316931
-0.207982
-0.100201
0.009684
0.129154
0.252833
0.372537
0.487098
0.583890
0.670629
0.759472
0.850653
0.947679
1.028807
1.078138
1.104558
1.112273
1.118352
1.128171
1.128171
1.123496
1.116248
1.110637
1.117183
1.121626
1.114144
1.095207
1.061072
1.028341
1.005663
0.974568
0.931315
0.864216
0.759007
0.624106
0.455772
0.251433
0.023949
-0.215693
-0.441775
-0.637230
-0.798082
-0.908200
-0.969455
-0.982781
-0.953323
-0.912175
-0.860739
-0.798315
-0.737761
-0.669493
-0.604497
-0.553763
-0.519628
-0.510042
-0.498586
-0.470530
-0.427979
-0.362984
-0.283025
-0.188337
-0.072373
0.068840
0.238811
0.430525
0.642579
0.857439
1.058739
1.251855
1.406161
1.503889
1.560468
1.567248
1.525165
1.452921
1.354493
1.234087
1.089835
0.911915
0.710148
0.499731
0.287910
0.096197
-0.063019
-0.191140
-0.277177
-0.322534
-0.330717
-0.304999
-0.272501
-0.239068
-0.200257
-0.158408
-0.107673
-0.056939
-0.010414
0.024189
0.028865
0.014369
-0.013453
-0.053899
-0.085696
-0.116089
-0.162615
-0.211244
-0.257770
-0.313180
-0.374902
-0.442470
-0.518220
-0.591632
-0.659667
-0.723494
-0.772591
-0.807894
-0.837820
-0.851380
-0.842262
-0.805088
-0.729805
-0.625298
-0.505360
-0.384019
-0.276940
-0.180849
-0.092473
-0.014853
0.054819
0.119581
0.182239
0.237181
0.279265
0.304515
0.298436
0.251210
0.168679
0.059730
-0.072833
-0.223165
-0.375367
-0.519152
-0.651949
-0.759729
-0.822387
-0.839921
-0.812099
-0.728166
-0.609631
-0.478938
-0.339361
-0.208201
-0.084288
0.044067
0.167278
0.276695
0.362032
0.414402
0.432638
0.417676
0.373722
0.301712
0.221988
0.157460
0.109999
0.098543
0.125897
0.173124
0.247004
0.333042
0.405285
0.456721
0.471450
0.441758
0.370684
0.265475
0.138056
-0.014848
-0.184584
-0.350580
-0.506289
-0.629266
-0.707121
-0.752477
-0.768375
-0.770947
-0.773051
-0.757854
-0.725590
-0.683507
-0.621550
-0.537851
-0.440591
-0.349176
-0.280673
-0.243499
-0.242798
-0.275763
-0.331875
-0.394766
-0.450877
-0.490389
-0.502546
-0.489687
-0.451812
-0.396402
-0.343564
-0.282542
-0.211000
-0.145069
-0.066280
0.025369
0.111173
0.193002
0.259634
0.312005
0.356193
0.379806
0.380742
0.358063
0.306160
0.231579
0.146477
0.059505
-0.026767
-0.106959
-0.181540
-0.250043
-0.306621
-0.357823
-0.408557
-0.457888
-0.511661
-0.561226
-0.595828
-0.614766
-0.610323
-0.578059
-0.532469
-0.481734
-0.420713
-0.344261
-0.246534
-0.127297
0.004331
0.139232
0.280679
0.425166
0.553755
0.665276
0.758327
0.826830
0.884812
0.921051
0.924791
0.912634
0.877798
0.813037
0.722791
0.610101
0.484552
0.347079
0.205866
0.073536
-0.056922
-0.185043
-0.307085
-0.420243
-0.510722
-0.571977
-0.598396
-0.587641
-0.549065
-0.481731
-0.386809
-0.276924
-0.162130
-0.053882
0.033792
0.097152
0.135261
0.143677
0.123805
0.083124
0.026078
-0.030501
-0.062765
-0.066740
-0.044996
0.010180
0.099257
0.211012
0.343108
0.504428
0.682348
0.866112
1.051514
1.214003
1.345397
1.439150
1.478194
1.462997
1.388182
1.253515
1.077934
0.865880
0.626004
0.371399
0.110013
-0.146696
-0.391949
-0.628786
-0.858608
-1.064817
-1.219124
-1.314279
-1.345841
-1.311473
-1.228007
-1.096146
-0.918693
-0.720199
-0.515159
-0.324848
-0.175919
-0.066502
-0.005247
0.002702
-0.030029
-0.108117
-0.227588
-0.378854
-0.559112
-0.754099
-0.957736
-1.152255
-1.312874
-1.434215
-1.498976
-1.496872
-1.432578
-1.295105
-1.088662
-0.822834
-0.502999
-0.140380
0.254504
0.659207
1.052922
1.420451
1.730466
1.976655
2.163459
2.276383
2.317532
2.284800
2.173279
1.998399
1.769278
1.488721
1.167016
0.811644
0.429620
0.034970
-0.350094
-0.701725
-1.004025
-1.255357
-1.458059
-1.610261
-1.716405
-1.776023
-1.792389
-1.780231
-1.734874
-1.657487
-1.551109
-1.411065
-1.246939
-1.066214
-0.876604
-0.689800
-0.497618
-0.291409
-0.065561
0.186005
0.450898
0.717193
0.979747
1.236223
1.486620
1.715274
1.900909
2.045396
2.145227
2.191052
2.182635
2.099637
1.932940
1.698207
1.401285
1.061110
0.701997
0.339846
-0.022072
-0.390303
-0.747078
-1.067614
-1.333441
-1.516738
-1.616569
-1.644157
-1.588513
-1.452443
-1.240155
-0.960534
-0.635555
-0.283690
0.046432
0.327690
0.592582
0.860046
1.149955
1.465348
1.757594
1.987651
2.130267
2.172819
2.104316
1.915174
1.632513
1.278778
0.911015
0.598896
0.344758
0.160059
0.036848
-0.060646
-0.127979
-0.184324
-0.213315
-0.194377
-0.171933
-0.129148
-0.034927
0.079633
0.191856
0.284908
0.347799
0.362061
0.323718
0.264334
0.168243
0.026328
-0.110677
-0.216587
-0.289765
-0.309638
-0.282985
-0.251422
-0.229211
-0.207936
-0.194609
-0.187127
-0.155331
-0.058071
0.124291
0.394327
0.736606
1.088471
1.388199
1.610774
1.733518
1.752689
1.690967
1.560275
1.369964
1.158143
0.968300
0.806980
0.638646
0.432671
0.205420
0.001315
-0.161174
-0.298179
-0.418117
-0.517481
-0.600712
-0.651446
-0.659161
-0.647705
-0.633677
-0.631105
-0.655888
-0.721351
-0.832872
-0.955148
-1.047030
-1.068306
-0.982736
-0.804348
-0.574526
-0.343534
-0.141065
0.042700
0.209163
0.360898
0.502579
0.631401
0.758821
0.887176
1.026987
1.179423
1.302400
1.367162
1.357576
1.262187
1.099464
0.879695
0.616907
0.340091
0.066315
-0.178705
-0.373458
-0.521685
-0.632972
-0.714568
-0.767406
-0.788447
-0.778862
-0.725556
-0.614268
-0.453883
-0.267079
-0.080509
0.079643
0.199581
0.280942
0.324896
0.336352
0.321389
0.274864
0.203790
0.125234
0.034521
-0.077001
-0.208628
-0.360129
-0.515604
-0.657051
-0.783302
-0.882665
-0.931295
-0.928957
-0.875885
-0.761792
-0.583171
-0.344931
-0.066478
0.221794
0.491128
0.716509
0.888584
1.006885
1.082402
1.130331
1.150203
1.146463
1.120278
1.066504
0.999872
0.921316
0.828031
0.741293
0.657827
0.571556
0.489493
0.404625
0.318120
0.220159
0.092038
-0.054552
-0.223354
-0.422783
-0.630161
-0.818134
-0.955139
-1.027850
-1.052165
-1.045151
-1.030187
-1.021069
-1.011484
-0.997689
-0.973842
-0.927316
-0.848760
-0.734199
-0.584569
-0.395661
-0.166773
0.074739
0.298951
0.499316
0.666247
0.800213
0.918047
1.016709
1.098538
1.167976
1.210294
1.226192
1.213333
1.167977
1.108125
1.038687
0.964340
0.892798
0.810501
0.714644
0.604526
0.472431
0.337997
0.212682
0.082691
-0.057354
-0.210257
-0.381163
-0.559784
-0.726949
-0.873072
-0.996750
-1.085359
-1.125105
-1.120663
-1.086294
-1.032755
-0.956303
-0.865356
-0.788436
-0.724376
-0.670602
-0.641377
-0.626882
-0.621738
-0.625713
-0.628986
-0.635532
-0.638805
-0.631557
-0.618932
-0.586434
-0.528219
-0.453403
-0.355676
-0.222645
-0.056883
0.131090
0.328181
0.521766
0.705530
0.865448
0.985386
1.057396
1.061136
0.991465
0.871293
0.704596
0.503063
0.289840
0.063758
-0.166065
-0.381626
-0.575443
-0.735127
-0.849454
-0.912813
-0.925905
-0.900655
-0.843375
-0.756402
-0.647452
-0.521435
-0.386067
-0.255842
-0.147126
-0.064361
-0.007081
0.028690
0.063526
0.111221
0.174112
0.266696
0.393414
0.544448
0.720965
0.919926
1.124265
1.320421
1.504653
1.686080
1.867273
2.027191
2.142687
2.196928
2.176354
2.085407
1.936945
1.742660
1.514006
1.261739
0.995678
0.718161
0.441579
0.176686
-0.069268
-0.282257
-0.476777
-0.650488
-0.777907
-0.870023
-0.924732
-0.933850
-0.908366
-0.840331
-0.731147
-0.586894
-0.406870
-0.214221
-0.020637
0.168739
0.340346
0.494886
0.628385
0.741776
0.843946
0.933490
1.010176
1.061845
1.075406
1.053429
0.996149
0.916190
0.827581
0.732893
0.641245
0.551233
0.462624
0.370975
0.269507
0.172949
0.082470
-0.004736
-0.065290
-0.095450
-0.099424
-0.075810
-0.043546
-0.011048
0.025190
0.062832
0.100239
0.128763
0.136712
0.130400
0.120113
0.106319
0.084809
0.049974
0.001578
-0.055702
-0.111112
-0.154598
-0.189668
-0.219360
-0.246013
-0.277342
-0.302592
-0.320828
-0.336726
-0.329010
-0.295811
-0.255364
-0.206267
-0.154130
-0.101759
-0.036062
0.040390
0.114036
0.185344
0.258991
0.331702
0.406985
0.478293
0.524117
0.550303
0.574384
0.591217
0.602440
0.613194
0.622313
0.630963
0.638679
0.651771
0.668137
0.679126
0.690816
0.696427
0.692219
0.681932
0.651305
0.606416
0.554980
0.485075
0.416105
0.350408
0.272554
0.197037
0.125495
0.056291
-0.002625
-0.048216
-0.070426
-0.076037
-0.076505
-0.064815
-0.058269
-0.075569
-0.113912
-0.173063
-0.251618
-0.351450
-0.468348
-0.589455
-0.713601
-0.829565
-0.917706
-0.965167
-0.956049
-0.890586
-0.776726
-0.628732
-0.469750
-0.306793
-0.141732
0.014912
0.159866
0.279571
0.358594
0.401379
0.409328
0.387352
0.355789
0.323057
0.283078
0.233747
0.173194
0.097911
0.005795
-0.101985
-0.218650
-0.332275
-0.431405
-0.510663
-0.561630
-0.588049
-0.596933
-0.579866
-0.546433
-0.500141
-0.429534
-0.348874
-0.255121
-0.143600
-0.035585
0.065649
0.158233
0.238192
0.308565
0.368651
0.421956
0.464040
0.492330
0.510800
0.501682
0.460066
0.404422
0.341765
0.281679
0.228841
0.175301
0.129945
0.089732
0.037361
-0.015711
-0.064107
-0.113438
-0.154352
-0.181706
-0.190590
-0.186382
-0.176796
-0.156222
-0.133076
-0.116944
-0.102916
-0.095434
-0.103851
-0.128166
-0.166275
-0.222853
-0.300708
-0.391889
-0.477692
-0.539181
-0.579160
-0.590850
-0.578458
-0.572379
-0.567937
-0.555546
-0.547597
-0.552506
-0.576587
-0.612592
-0.651168
-0.683666
-0.692784
-0.684367
-0.671508
-0.658649
-0.642985
-0.624281
-0.603941
-0.564896
-0.517435
-0.482366
-0.448231
-0.420877
-0.406615
-0.398432
-0.396328
-0.391184
-0.383936
-0.386040
-0.387443
-0.377857
-0.353309
-0.305380
-0.236877
-0.167673
-0.104782
-0.055450
-0.036746
-0.045163
-0.075790
-0.127459
-0.184272
-0.231733
-0.259788
-0.254879
-0.218406
-0.164399
-0.101040
-0.036044
0.031056
0.105404
0.179050
0.247786
0.320497
0.388766
0.447683
0.499586
0.530448
0.536059
0.514082
0.454464
0.362348
0.248723
0.119667
-0.011494
-0.136809
-0.266332
-0.407780
-0.549928
-0.691142
-0.836330
-0.974036
-1.108937
-1.235188
-1.332447
-1.404924
-1.443968
-1.447241
-1.438591
-1.405859
-1.339694
-1.249215
-1.132082
-0.989466
-0.823937
-0.648589
-0.474176
-0.300932
-0.151536
-0.036040
0.054907
0.116630
0.148894
0.156376
0.147492
0.126684
0.093251
0.064961
0.053973
0.063091
0.104707
0.171807
0.253169
0.345051
0.431089
0.502631
0.561080
0.606437
0.632856
0.636363
0.631687
0.620699
0.602463
0.584227
0.551028
0.506139
0.455405
0.384097
0.312555
0.250365
0.183499
0.116867
0.053975
0.004878
-0.025048
-0.048194
-0.066664
-0.080224
-0.085133
-0.074145
-0.043517
0.004178
0.056314
0.108685
0.153107
0.178357
0.191683
0.205478
0.225584
0.245691
0.250601
0.240080
0.212960
0.178124
0.155212
0.140950
0.136976
0.153342
0.182099
0.212726
0.242185
0.267435
0.280294
0.279593
0.281463
0.282399
0.276086
0.273047
0.267202
0.255512
0.246862
0.232834
0.207818
0.170177
0.126223
0.095128
0.088348
0.107753
0.147031
0.200805
0.273516
0.359320
0.463593
0.584700
0.698794
0.798157
0.870167
0.894950
0.880454
0.835332
0.757243
0.650164
0.516666
0.347163
0.135109
-0.111079
-0.392103
-0.702352
-1.017511
-1.331968
-1.636606
-1.913655
-2.159142
-2.354597
-2.476639
-2.527373
-2.523398
-2.469859
-2.370495
-2.242374
-2.086898
-1.901263
-1.696924
-1.474115
-1.234239
-0.983608
-0.724561
-0.471592
-0.220494
0.030838
0.266272
0.497264
0.724047
0.931426
1.120100
1.275342
1.388967
1.470796
1.517556
1.529012
1.500489
1.427311
1.315556
1.162418
0.976316
0.760054
0.495863
0.200577
-0.107802
-0.417583
-0.692762
-0.927261
-1.129729
-1.293387
-1.427353
-1.529288
-1.589608
-1.606441
-1.570436
-1.486971
-1.353940
-1.151238
-0.888215
-0.576096
-0.217685
0.161067
0.557821
0.976084
1.371669
1.720963
2.038693
2.322056
2.552112
2.711095
2.788482
2.787780
2.707120
2.535747
2.276700
1.948916
1.582556
1.196089
0.779930
0.314440
-0.188224
-0.668678
-1.103540
-1.518530
-1.913180
-2.261772
-2.517780
-2.674891
-2.787815
-2.851642
-2.825924
-2.718377
-2.542562
-2.325831
-2.105127
-1.866420
-1.581654
-1.279822
-0.994355
-0.712396
-0.439554
-0.169285
0.103323
0.334783
0.537017
0.746967
0.956917
1.152606
1.284234
1.353438
1.425915
1.514758
1.605472
1.675845
1.721669
1.756972
1.761649
1.739905
1.689639
1.594484
1.478754
1.320941
1.111693
0.887481
0.628902
0.350215
0.085791
-0.179335
-0.430433
-0.674751
-0.926317
-1.122005
-1.245684
-1.334527
-1.387131
-1.406069
-1.382689
-1.288235
-1.148658
-0.999495
-0.847994
-0.682933
-0.478360
-0.268878
-0.095868
0.060309
0.193807
0.302055
0.395107
0.432047
0.432982
0.446075
0.436022
0.406563
0.390665
0.390198
0.436723
0.513877
0.592199
0.696706
0.793265
0.852182
0.886550
0.879302
0.844700
0.798876
0.720087
0.603656
0.456597
0.284990
0.068728
-0.210893
-0.514830
-0.812687
-1.099557
-1.365852
-1.594505
-1.774997
-1.895870
-1.915041
-1.850513
-1.758397
-1.616014
-1.434353
-1.236327
-0.987800
-0.742547
-0.535870
-0.315165
-0.128595
-0.002344
0.121568
0.214620
0.270965
0.329882
0.346949
0.337831
0.365419
0.403061
0.431584
0.451925
0.470629
0.518323
0.552692
0.543807
0.521831
0.465719
0.395113
0.319362
0.190540
0.081123
-0.005615
-0.136074
-0.223047
-0.305811
-0.452869
-0.555272
-0.649259
-0.769898
-0.828113
-0.868093
-0.895914
-0.870664
-0.845648
-0.796083
-0.694147
-0.609045
-0.541711
-0.444451
-0.339476
-0.243619
-0.145658
-0.073648
-0.017303
0.057045
0.110584
0.157811
0.246421
0.336900
0.409611
0.479984
0.512950
0.500793
0.479985
0.446552
0.400026
0.331056
0.214158
0.107312
0.042551
-0.037642
-0.162489
-0.339708
-0.529317
-0.697651
-0.884923
-1.086222
-1.279338
-1.459830
-1.608291
-1.713500
-1.749037
-1.728696
-1.673520
-1.545165
-1.373090
-1.171791
-0.902924
-0.623536
-0.343680
-0.036471
0.219771
0.418499
0.602030
0.734125
0.825073
0.873469
0.825307
0.736464
0.664221
0.550361
0.410317
0.281729
0.098665
-0.105907
-0.252732
-0.396049
-0.531885
-0.608805
-0.662110
-0.685256
-0.662812
-0.652291
-0.649485
-0.621429
-0.590100
-0.520896
-0.419662
-0.356770
-0.284994
-0.209945
-0.204100
-0.219998
-0.259744
-0.339001
-0.397684
-0.436027
-0.450522
-0.412881
-0.352561
-0.269563
-0.127648
0.052610
0.232634
0.417568
0.610918
0.796787
0.938001
1.030585
1.100724
1.094879
1.029182
0.955536
0.803802
0.616764
0.429493
0.196163
0.013801
-0.150090
-0.356767
-0.481147
-0.564145
-0.649013
-0.647377
-0.612541
-0.552221
-0.431348
-0.315852
-0.164585
0.055185
0.261628
0.452874
0.644822
0.823677
1.007675
1.178815
1.302026
1.367256
1.385960
1.374737
1.303429
1.168762
0.990609
0.750967
0.493790
0.244562
-0.015888
-0.245944
-0.461973
-0.663974
-0.783678
-0.866442
-0.940088
-0.970014
-0.994796
-0.996433
-0.948270
-0.894965
-0.837450
-0.771519
-0.684079
-0.562037
-0.440228
-0.316783
-0.213445
-0.151488
-0.071296
0.010767
0.069918
0.155488
0.245500
0.298572
0.334577
0.386012
0.458022
0.546397
0.650437
0.754711
0.842385
0.923980
1.054206
1.204303
1.299693
1.398355
1.500291
1.569963
1.643843
1.665118
1.670730
1.700422
1.643609
1.585862
1.566690
1.481822
1.405370
1.336634
1.216930
1.101902
0.967001
0.804278
0.644127
0.454985
0.283378
0.164609
0.042567
-0.081345
-0.172059
-0.230508
-0.264876
-0.285216
-0.292464
-0.277501
-0.233313
-0.140495
-0.001386
0.140763
0.282211
0.393031
0.459897
0.597370
0.759391
0.826024
0.905982
1.013763
1.080629
1.147028
1.192852
1.221843
1.258549
1.271174
1.282864
1.289645
1.252003
1.190748
1.144223
1.097931
1.022649
0.962797
0.936378
0.911829
0.882838
0.847301
0.845197
0.843561
0.791658
0.769213
0.775058
0.787450
0.828832
0.828364
0.833742
0.923754
1.015402
1.081801
1.136977
1.167605
1.229094
1.317235
1.344823
1.317002
1.283569
1.227691
1.150304
1.053279
0.901077
0.717780
0.567448
0.450316
0.296010
0.084891
-0.104952
-0.235879
-0.317006
-0.369377
-0.463831
-0.588445
-0.659051
-0.717033
-0.796056
-0.820137
-0.827385
-0.859415
-0.840945
-0.803537
-0.733398
-0.579092
-0.436241
-0.269310
-0.058191
0.122534
0.339732
0.521393
0.612574
0.705859
0.726667
0.708899
0.708197
0.642267
0.547111
0.394208
0.201559
0.049357
-0.176491
-0.457281
-0.736201
-1.047619
-1.295211
-1.521760
-1.792497
-2.022554
-2.237647
-2.377458
-2.366469
-2.315267
-2.227827
-2.069312
-1.838087
-1.502120
-1.115653
-0.707209
-0.311156
0.044683
0.419928
0.785119
1.125294
1.403981
1.533972
1.632635
1.712360
1.714464
1.755612
1.778758
1.720777
1.696930
1.692488
1.659756
1.625388
1.567874
1.460327
1.322387
1.173692
1.001851
0.812709
0.632685
0.450324
0.234996
0.016396
-0.169473
-0.338508
-0.465927
-0.550796
-0.643379
-0.672370
-0.588437
-0.462420
-0.297359
-0.115698
0.023411
0.192447
0.412450
0.593175
0.759405
0.932415
1.048145
1.144704
1.227702
1.205491
1.110803
0.969356
0.739767
0.484694
0.222140
-0.096759
-0.399059
-0.607606
-0.742273
-0.838597
-0.905697
-0.934922
-0.913178
-0.818257
-0.663249
-0.486031
-0.289173
-0.088341
0.090046
0.256276
0.425545
0.602063
0.746082
0.799621
0.791672
0.745614
0.618896
0.455005
0.291814
0.070642
-0.163623
-0.343413
-0.483457
-0.573469
-0.663715
-0.778977
-0.847245
-0.878808
-0.876002
-0.825502
-0.778508
-0.713279
-0.622098
-0.558739
-0.527410
-0.553127
-0.612044
-0.618123
-0.604095
-0.600588
-0.594743
-0.609939
-0.599419
-0.563647
-0.549853
-0.521096
-0.505198
-0.538865
-0.584689
-0.605497
-0.590767
-0.609471
-0.638695
-0.599417
-0.533720
-0.455398
-0.423602
-0.461009
-0.454229
-0.453060
-0.481115
-0.476673
-0.514314
-0.560840
-0.537928
-0.490700
-0.432719
-0.366554
-0.286595
-0.189335
-0.101428
-0.028249
0.054515
0.181234
0.323616
0.472545
0.647192
0.776248
0.873040
