EVENT_NAME: 202302060117
EVENT_ID: 13194
EVENT_DATE_YYYYMMDD: 2023/02/06
EVENT_TIME_HHMMSS: 01:17:32.00000
EVENT_LATITUDE_DEGREE: 37.288
EVENT_LONGITUDE_DEGREE: 37.043
EVENT_DEPTH_KM: 8.6
HYPOCENTER_REFERENCE: AFAD
MAGNITUDE_W: 7.7
MAGNITUDE_W_REFERENCE: AFAD
MAGNITUDE_L: 
MAGNITUDE_L_REFERENCE: 
FOCAL_MECHANISM: 
NETWORK: TK
STATION_CODE: 99011
STATION_NAME: 
STATION_LATITUDE_DEGREE: 35.22072
STATION_LONGITUDE_DEGREE: 33.41489
STATION_ELEVATION_M: 129.0
LOCATION: Kahramanmaras_Pazarck_Turkiye
SENSOR_DEPTH_M: 
VS30_M/S: None
SITE_CLASSIFICATION_EC8: unknown
MORPHOLOGIC_CLASSIFICATION: 
EPICENTRAL_DISTANCE_KM: 398.29
EARTHQUAKE_BACKAZIMUTH_DEGREE: 
DATE_TIME_FIRST_SAMPLE_YYYYMMDD_HHMMSS: 2023/02/06 01:18:02.7476260
DATE_TIME_FIRST_SAMPLE_PRECISION: millisecond
SAMPLING_INTERVAL_S: 0.01
NDATA: 21001
DURATION_S: 
STREAM: HNE
UNITS: cm/s^2
INSTRUMENT: sensor = CMG-5T/GURALP | digitizer = 
INSTRUMENT_ANALOG/DIGITAL: 
INSTRUMENTAL_FREQUENCY_HZ: 
INSTRUMENTAL_DAMPING: 
FULL_SCALE_G: 
N_BIT_DIGITAL_CONVERTER: 
PGA_CM/S^2: 5.099
TIME_PGA_S: 
BASELINE_CORRECTION: BASELINE REMOVED
FILTER_TYPE: BUTTERWORTH
FILTER_ORDER: 
LOW_CUT_FREQUENCY_HZ: 
HIGH_CUT_FREQUENCY_HZ: 
LATE/NORMAL_TRIGGERED: 
DATABASE_VERSION: 
HEADER_FORMAT: DYNA 1.2
DATA_TYPE: Acceleration
PROCESSING: Automatic Paolucci et al., 2011
DATA_TIMESTAMP_YYYYMMDD_HHMMSS: 
DATA_LICENSE: U (unknown license)
DATA_CITATION: Turkish Accelerometric Archive v 1.0 - Disaster And Emergency Management Presidency, Earthquake Department
DATA_CREATOR: AFAD
ORIGINAL_DATA_MEDIATOR_CITATION: : AFAD - Disaster And Emergency Management Presidency
ORIGINAL_DATA_MEDIATOR: AFAD PROCESS SERVICE
ORIGINAL_DATA_CREATOR_CITATION: AFAD PROCESS SERVICE
ORIGINAL_DATA_CREATOR: network: TK
USER1: GuestUser
USER2: 
USER3: 
USER4: 
USER5: 
[...]
-0.563482
-0.763960
-0.674831
-0.456537
-0.267329
-0.108770
0.070118
0.302798
0.430395
0.302788
0.167675
0.171736
0.310904
0.388149
0.257414
0.076640
-0.044086
-0.039400
0.082568
0.263644
0.539172
0.808131
0.809064
0.484113
0.098488
-0.084475
-0.122010
-0.142344
-0.304040
-0.602721
-0.871690
-0.989602
-0.946760
-0.676237
-0.281865
0.034319
0.169735
0.172545
0.234464
0.369879
0.586610
0.793019
0.993799
1.250561
1.337813
1.058211
0.654134
0.282270
0.073348
0.073343
0.071462
0.028923
0.032045
0.016090
-0.095879
-0.225362
-0.273531
-0.160946
-0.088706
-0.211308
-0.478088
-0.748934
-0.849957
-0.737373
-0.449648
-0.105316
0.184597
0.328457
0.266215
0.161439
0.179886
0.343449
0.582072
0.753453
0.786912
0.830379
0.834127
0.619264
0.199237
-0.190454
-0.298670
-0.188275
0.051599
0.350582
0.708362
1.032053
1.204373
1.304760
1.351042
1.372617
1.358851
1.222487
0.988546
0.732712
0.484384
0.346457
0.459667
0.689220
0.773657
0.671383
0.508123
0.386459
0.359557
0.181911
-0.248437
-0.618112
-0.784499
-0.837046
-0.854878
-0.832678
-0.721657
-0.611261
-0.635661
-0.746692
-0.888998
-1.048192
-1.223336
-1.284640
-1.096058
-0.671975
-0.230065
-0.046173
-0.012089
0.113319
0.432944
0.925206
1.341470
1.555698
1.644514
1.642007
1.547239
1.374597
1.094055
0.801317
0.732820
0.776600
0.725304
0.526078
0.360316
0.338731
0.240210
0.062876
-0.151049
-0.373732
-0.516037
-0.523861
-0.447243
-0.398771
-0.487284
-0.723415
-0.958295
-0.986447
-0.778474
-0.525778
-0.324372
-0.244626
-0.311872
-0.352222
-0.302187
-0.338158
-0.446374
-0.624646
-0.891426
-1.168840
-1.267674
-1.261424
-1.312407
-1.382780
-1.479425
-1.440336
-1.316492
-1.193587
-0.992807
-0.789838
-0.620333
-0.545590
-0.485860
-0.202515
0.163710
0.411089
0.400764
0.260334
0.335076
0.616859
0.753525
0.761339
0.956802
1.369939
1.848127
2.201529
2.428267
2.474862
2.194633
1.641062
1.230730
1.352698
1.680141
1.841202
1.900932
1.959411
2.169261
2.451356
2.745022
2.882314
2.810064
2.820067
2.805676
2.640226
2.422548
2.197676
2.040671
2.030971
1.988119
1.747610
1.342595
0.959472
0.858762
0.891595
0.743347
0.496583
0.491574
0.802129
1.065459
1.195558
1.331599
1.543950
1.593360
1.455120
1.314065
1.227741
1.276212
1.292783
1.222409
1.084482
0.936234
0.830207
0.776409
0.573743
0.232528
-0.071782
-0.263502
-0.223475
0.010143
0.232190
0.271592
0.156808
0.170251
0.351015
0.548980
0.787290
0.971182
0.906125
0.517686
0.095469
-0.160052
-0.276087
-0.295482
-0.281414
-0.220745
0.019441
0.280895
0.352509
0.324669
0.299957
0.241155
0.143885
0.060689
0.024092
-0.050347
-0.212043
-0.391566
-0.503535
-0.634582
-0.909181
-1.309192
-1.663542
-1.804284
-1.857769
-1.910316
-2.056688
-2.155834
-2.134260
-1.991964
-1.911280
-1.964452
-1.880640
-1.673605
-1.439048
-1.196360
-0.822004
-0.342877
-0.093621
-0.148044
-0.240623
-0.333827
-0.472380
-0.545256
-0.500850
-0.360118
-0.141511
0.104930
0.359190
0.530259
0.603437
0.623448
0.645648
0.621562
0.494581
0.396372
0.385734
0.386667
0.293150
0.253426
0.337551
0.450135
0.433867
0.118611
-0.328938
-0.613858
-0.539741
-0.294551
-0.181966
-0.080640
0.129835
0.465723
0.811306
0.961733
0.972362
1.037096
1.181268
1.326066
1.279774
0.938872
0.632061
0.331816
-0.030978
-0.274302
-0.349366
-0.294328
-0.171422
0.014033
0.113482
0.014023
-0.241185
-0.527981
-0.867006
-1.280779
-1.602603
-1.670161
-1.419341
-1.042796
-0.872353
-0.915205
-1.118497
-1.260177
-1.140399
-0.993725
-1.018124
-1.104448
-1.092881
-1.061611
-1.101335
-1.150755
-1.113855
-1.020661
-1.001588
-1.157968
-1.336865
-1.377215
-1.228351
-0.928430
-0.775188
-0.729531
-0.484028
-0.131878
0.240289
0.406041
0.330976
0.256537
0.289371
0.447304
0.530490
0.340334
0.079183
-0.040605
-0.109415
-0.094720
-0.062825
-0.075027
-0.145401
-0.207330
-0.243614
-0.431581
-0.918224
-1.527777
-1.988149
-2.111690
-2.054775
-2.076672
-2.057287
-1.792393
-1.228511
-0.509193
0.050623
0.298316
0.412777
0.491585
0.583841
0.657019
0.635122
0.497507
0.440582
0.443704
0.561606
0.787718
1.005074
1.187089
1.341270
1.534544
1.534851
1.413812
1.258997
1.157974
1.039437
0.771406
0.608145
0.728862
0.966546
1.171705
1.299614
1.279593
1.048154
0.594350
0.148990
-0.117790
-0.276672
-0.495914
-0.740176
-0.868096
-0.810242
-0.628540
-0.312981
0.054495
0.268097
0.337523
0.168946
-0.296117
-0.946953
-1.682232
-2.325562
-2.679912
-2.776556
-2.813466
-2.874770
-2.790958
-2.424733
-1.946545
-1.495878
-1.064915
-0.624256
-0.187038
0.163549
0.346815
0.556352
1.192166
2.182325
2.993592
3.298830
3.323532
3.379822
3.574660
3.831422
3.918987
3.769175
3.486445
3.189641
2.762108
2.141921
1.528302
1.098892
0.948142
0.914986
0.844300
0.695426
0.507146
0.365465
0.312293
0.413306
0.662562
0.878354
0.921509
0.716027
0.230636
-0.190017
-0.342331
-0.273218
-0.150313
0.055784
0.354142
0.618723
0.840769
0.928647
0.867969
0.590242
0.252156
0.026346
-0.104389
-0.269838
-0.449986
-0.516920
-0.463445
-0.513802
-0.698329
-0.814990
-0.873792
-0.973251
-1.290696
-1.702592
-1.976878
-1.897132
-1.516208
-1.085870
-0.782509
-0.782201
-0.923881
-0.966420
-0.926081
-0.795044
-0.688714
-0.669328
-0.709678
-0.854173
-1.013055
-0.994608
-0.684053
-0.266850
0.186631
0.669511
1.026666
1.133621
1.053865
1.028215
1.188024
1.316559
1.302481
1.161426
1.013803
0.783302
0.341695
-0.029543
-0.097415
0.103365
0.411105
0.835814
1.138237
1.260830
1.344016
1.339946
1.176686
0.914910
0.761345
0.868300
1.161966
1.337101
1.237642
1.115039
1.115034
1.123473
1.108456
1.101884
1.231670
1.435890
1.449020
1.093107
0.591139
0.197383
-0.026238
-0.176988
-0.341186
-0.547918
-0.819390
-1.093988
-1.328555
-1.451158
-1.558749
-1.821463
-2.086367
-2.028200
-1.585665
-1.059000
-0.652119
-0.453215
-0.533284
-0.618982
-0.534545
-0.335954
-0.182399
-0.071378
-0.085144
-0.256536
-0.434495
-0.611203
-0.675948
-0.606835
-0.497378
-0.395426
-0.349770
-0.199968
0.128414
0.418014
0.599091
0.754523
0.966874
1.067262
0.896183
0.507743
0.327282
0.513676
0.758241
0.932750
1.027195
1.070037
1.077225
1.034060
0.894257
0.695030
0.497993
0.208383
-0.241043
-0.660757
-0.860296
-0.939114
-1.043890
-1.165867
-1.346329
-1.509589
-1.598415
-1.723832
-1.952144
-2.192966
-2.319321
-2.237386
-2.135435
-2.317460
-2.616140
-2.681197
-2.390971
-1.986278
-1.826781
-1.884019
-1.884024
-1.692001
-1.312329
-0.947043
-0.811940
-0.908897
-1.150345
-1.294214
-1.156922
-0.951764
-0.927374
-1.040282
-1.165699
-1.336153
-1.551329
-1.874404
-2.249708
-2.334155
-2.030794
-1.628916
-1.408120
-1.249561
-0.877082
-0.346977
0.104315
0.516827
0.953732
1.346540
1.690872
1.952951
2.034886
2.105876
2.245669
2.221270
1.951988
1.603893
1.518820
1.694268
1.730542
1.451251
1.029973
0.763819
0.802907
0.962404
0.984917
0.787255
0.608045
0.587398
0.674963
0.695287
0.525459
0.387844
0.495425
0.847263
1.310127
1.759855
2.041950
2.240541
2.337488
2.433810
2.531695
2.517617
2.449120
2.230503
1.953089
1.734473
1.488959
1.184024
0.905985
0.626695
0.378993
0.077810
-0.365986
-0.806967
-1.122536
-1.388066
-1.522865
-1.397145
-1.040303
-0.717238
-0.509578
-0.201838
0.207233
0.757980
1.324051
1.663379
1.704969
1.670562
1.859458
2.032716
1.881340
1.734968
1.900720
2.250682
2.451149
2.424248
2.395157
2.506491
2.464265
2.191855
1.923511
1.831871
1.919436
1.872831
1.606676
1.193842
0.936758
0.981476
1.189762
1.378345
1.650119
2.200865
2.736912
3.070923
3.264823
3.302035
3.272319
3.168168
3.001468
2.808497
2.616777
2.575489
2.501049
2.219570
1.912445
1.604695
1.291941
0.961986
0.449072
-0.104499
-0.683716
-1.384905
-1.995083
-2.427308
-2.705347
-2.779161
-2.771972
-2.750398
-2.666586
-2.548059
-2.492394
-2.560892
-2.692564
-2.625328
-2.377635
-2.231587
-2.307277
-2.430192
-2.423004
-2.285087
-1.984852
-1.783760
-1.711520
-1.535447
-1.278997
-1.061329
-0.863989
-0.803946
-0.836164
-0.778311
-0.603802
-0.361739
-0.148136
-0.042745
-0.132196
-0.226964
-0.116256
0.178349
0.563026
0.797270
0.814466
0.740965
0.664024
0.813513
1.233217
1.813675
2.252457
2.334705
2.232744
2.326564
2.645250
2.792237
2.620533
2.244291
1.865234
1.513699
1.235034
1.058951
0.828450
0.458463
-0.045068
-0.674950
-1.312338
-1.900937
-2.476088
-2.989315
-3.347417
-3.406845
-3.253603
-3.039687
-2.701610
-2.261890
-1.875650
-1.571037
-1.312085
-0.983078
-0.466734
0.060243
0.397695
0.590343
0.568446
0.312612
-0.090840
-0.531508
-0.842699
-1.120425
-1.434430
-1.708716
-1.701215
-1.370957
-0.932800
-0.667281
-0.656966
-0.626634
-0.436487
-0.276990
-0.313274
-0.450889
-0.591005
-0.741443
-0.839026
-0.782736
-0.591964
-0.428714
-0.529111
-0.724897
-0.937259
-1.189965
-1.348534
-1.457376
-1.615944
-1.833623
-1.908688
-1.908693
-1.920895
-1.830515
-1.633176
-1.329501
-1.059291
-0.786578
-0.572663
-0.433495
-0.215826
-0.028494
0.045935
0.072826
0.108162
0.149127
0.199162
0.228243
0.332696
0.432458
0.367401
0.200701
0.049013
-0.043566
0.021794
0.225076
0.455567
0.728592
0.974720
1.037265
0.933428
0.819895
0.833338
0.891504
0.796423
0.658183
0.551531
0.257542
-0.321362
-0.946240
-1.377214
-1.511701
-1.435082
-1.290284
-1.113899
-0.969101
-0.761128
-0.412417
-0.302334
-0.518449
-0.774283
-0.932852
-1.058269
-1.218089
-1.378534
-1.541794
-1.604662
-1.490514
-1.251265
-0.930390
-0.565729
-0.239224
0.069142
0.363747
0.708391
0.947952
0.895718
0.774679
0.739646
0.776546
0.825017
0.873488
1.015784
1.221568
1.406710
1.475197
1.418272
1.296608
1.121150
0.917858
0.745841
0.659830
0.731132
0.869050
0.806808
0.532834
0.136889
-0.117694
-0.180249
-0.082051
0.088705
0.240697
0.420210
0.546555
0.646630
0.622231
0.489620
0.399230
0.298833
0.104298
-0.010799
0.119300
0.429855
0.693810
0.853933
0.984344
1.050017
0.983709
0.780417
0.462971
0.140835
-0.189433
-0.503126
-0.700788
-0.833086
-0.927542
-1.107377
-1.381976
-1.619358
-1.648761
-1.483947
-1.194034
-0.869718
-0.625153
-0.424060
-0.344940
-0.531030
-0.686472
-0.667399
-0.741526
-0.882580
-0.999866
-1.079935
-1.030526
-0.953907
-0.981434
-0.986756
-0.900755
-0.754706
-0.639619
-0.536417
-0.382237
-0.228056
-0.205231
-0.239012
-0.248400
-0.252158
-0.146141
0.036812
0.210071
0.358621
0.471519
0.551578
0.703569
0.853058
0.851802
0.906528
1.297772
1.992696
2.719833
3.221791
3.339067
3.058213
2.555307
2.140597
2.009237
2.010796
1.977639
1.886312
1.735874
1.654554
1.728671
1.774327
1.750866
1.846563
2.079556
2.244682
2.191823
2.108626
2.209952
2.359754
2.297512
1.946602
1.664498
1.573170
1.457135
1.360490
1.252587
1.155630
1.192842
1.331697
1.248814
0.874135
0.405945
0.103824
0.163867
0.448464
0.669260
0.663000
0.508497
0.408725
0.480965
0.464384
0.250771
0.060615
0.215108
0.562255
0.783363
0.890944
0.872800
0.831824
0.789911
0.640725
0.401154
-0.012618
-0.408564
-0.486131
-0.343522
-0.186840
-0.131488
0.012059
0.193136
0.375463
0.527142
0.652237
0.801413
0.866147
0.779198
0.585601
0.472068
0.417019
0.316309
-0.027407
-0.546263
-0.946587
-0.972238
-0.701402
-0.559732
-0.844651
-1.425431
-1.841706
-1.822007
-1.712550
-1.670334
-1.490821
-1.135855
-0.695822
-0.445628
-0.289884
0.045691
0.509806
0.749054
0.600181
0.427225
0.603298
0.882578
1.038322
0.991405
0.932916
1.007971
1.151205
1.256909
1.235950
1.296931
1.404199
1.354467
1.124904
1.019815
0.960388
0.904088
0.992904
1.105176
1.087344
1.023851
1.138312
1.428851
1.754731
1.944565
1.965201
1.790995
1.395049
1.022247
0.822396
0.597837
0.417375
0.307595
0.285072
0.303832
0.113989
-0.267883
-0.570942
-0.655702
-0.698241
-0.766425
-0.884024
-1.011631
-1.022895
-0.886228
-0.710781
-0.549720
-0.383968
-0.226660
-0.181316
-0.226045
-0.153492
0.021017
0.129849
0.126091
0.140785
0.197388
0.332491
0.568611
0.802856
0.899490
0.886037
0.824107
0.725586
0.645518
0.586403
0.487257
0.424389
0.563245
0.779975
0.835327
0.705531
0.553530
0.425297
0.458757
0.617315
0.790886
0.989477
0.951317
0.554120
0.001487
-0.477024
-0.802288
-1.103471
-1.362432
-1.464706
-1.336484
-0.945240
-0.463924
-0.078621
0.096826
0.054600
-0.069254
-0.118361
-0.084276
-0.023608
-0.040814
-0.229406
-0.388601
-0.420193
-0.544047
-0.796754
-1.086364
-1.235238
-1.216791
-1.380676
-1.766614
-1.982416
-1.900480
-1.557400
-1.152707
-0.998839
-1.055765
-1.030437
-0.855928
-0.706439
-0.546316
-0.193540
0.322178
0.764401
0.928589
0.876042
0.699960
0.400028
0.105101
-0.340885
-0.760599
-0.894148
-0.917922
-1.056475
-1.207851
-1.105899
-0.687759
-0.165472
0.202003
0.433120
0.487533
0.528498
0.615125
0.552570
0.415268
0.455295
0.614166
0.711739
0.721429
0.816813
0.981314
1.093586
1.106717
1.053544
1.004750
0.876518
0.728270
0.588153
0.368911
0.172500
0.127459
0.273508
0.572491
0.832381
1.199856
1.532303
1.567952
1.391556
1.125402
0.993104
1.000605
0.918660
0.724437
0.432637
0.229658
0.373205
0.722541
1.100650
1.314878
1.276092
1.133473
0.987727
0.799134
0.635874
0.582702
0.715615
0.911391
0.904506
0.654614
0.335605
0.030982
-0.287714
-0.615793
-0.971081
-1.321991
-1.547175
-1.803634
-2.269010
-2.800376
-3.295150
-3.614785
-3.844035
-4.083919
-4.288149
-4.512083
-4.802319
-5.062531
-5.099441
-4.870513
-4.567777
-4.310702
-4.144012
-4.072397
-4.033934
-3.912905
-3.599222
-3.204538
-2.823614
-2.665056
-2.856776
-3.152016
-3.377200
-3.554222
-3.650866
-3.575186
-3.270886
-2.883394
-2.661973
-2.739852
-3.020394
-3.246516
-3.331902
-3.253719
-2.976316
-2.575064
-2.149730
-1.779752
-1.631827
-1.585232
-1.389143
-1.104547
-0.879372
-0.867180
-0.973207
-1.039828
-1.090185
-1.099573
-1.033900
-0.891604
-0.659549
-0.348682
-0.006226
0.354994
0.779703
1.293545
1.745149
1.960316
1.982829
1.936537
1.941223
2.136061
2.480706
2.780002
2.892899
2.776551
2.567317
2.387169
2.212962
2.059085
1.893010
1.812316
1.881428
1.971182
2.113791
2.308942
2.552255
2.707374
2.645445
2.518776
2.467793
2.503442
2.473413
2.302334
2.013661
1.713730
1.387840
0.987516
0.567176
0.230340
0.160280
0.346048
0.610003
0.783574
0.993424
1.267387
1.451278
1.527271
1.542278
1.511937
1.336167
1.059066
0.759134
0.480783
0.288437
0.220878
0.292180
0.383810
0.461680
0.638066
0.892638
0.993026
0.736567
0.271191
-0.179173
-0.445015
-0.353072
0.032856
0.525118
1.021134
1.432081
1.622540
1.529023
1.265996
1.096794
1.172787
1.266919
1.220002
0.981682
0.698014
0.682058
0.758677
0.607301
0.199784
-0.209297
-0.499846
-0.604934
-0.611194
-0.669371
-0.700025
-0.705972
-0.668135
-0.708797
-0.622171
-0.214351
0.390814
1.098873
1.586757
1.618340
1.307462
1.106359
1.157645
1.040359
0.774518
0.690383
0.754492
0.826106
0.651587
0.325385
0.168067
0.135223
0.165868
0.261877
0.384157
0.473285
0.513312
0.615263
0.672804
0.642775
0.533934
0.334707
0.355657
0.496701
0.431957
0.219283
0.084796
0.199570
0.404103
0.405661
0.262417
0.248339
0.355919
0.331833
0.000314
-0.509473
-0.846309
-1.042720
-1.219741
-1.338278
-1.344538
-1.181913
-0.899819
-0.593642
-0.343448
-0.013502
0.435601
0.711128
0.759286
0.753964
0.800246
0.855911
0.841832
0.742685
0.625399
0.533133
0.413658
0.322331
0.386439
0.723578
1.188005
1.553917
1.629285
1.518879
1.399717
1.391580
1.465384
1.494465
1.408141
1.135731
0.791077
0.637199
0.773240
0.799506
0.602782
0.334438
0.066720
-0.089973
-0.114372
-0.088419
-0.078416
-0.184130
-0.360838
-0.564756
-0.679227
-0.632320
-0.678299
-0.880027
-1.089261
-1.285047
-1.554955
-1.917436
-2.184842
-2.019715
-1.649738
-1.375775
-1.331682
-1.380476
-1.271331
-1.159372
-1.041783
-0.883537
-0.553904
-0.147335
0.113180
0.308956
0.381821
0.312386
0.130048
-0.219923
-0.569895
-0.866386
-1.206349
-1.598542
-2.084559
-2.561819
-2.851743
-2.997176
-3.063484
-3.191091
-3.231128
-2.984061
-2.732928
-2.599076
-2.626916
-2.691035
-2.573759
-2.230991
-1.713708
-1.152328
-0.717925
-0.414250
-0.088371
0.306627
0.638136
0.805452
0.747588
0.597776
0.536160
0.598392
0.824505
1.113167
1.366802
1.518167
1.565387
1.717691
2.005103
2.091417
1.956617
1.592884
1.151278
0.755645
0.380654
0.102302
-0.102241
-0.348380
-0.776539
-1.272564
-1.538718
-1.450215
-1.331376
-1.328253
-1.311370
-1.219739
-1.028029
-0.831627
-0.683389
-0.639609
-0.761586
-0.942986
-1.223527
-1.537219
-1.778354
-1.904397
-2.005107
-2.223724
-2.438900
-2.581519
-2.877072
-3.301165
-3.538547
-3.494767
-3.285230
-3.115412
-2.988128
-2.888053
-2.783913
-2.697599
-2.783610
-2.937175
-2.929048
-2.782687
-2.590351
-2.383003
-2.168149
-1.866039
-1.566117
-1.449779
-1.335944
-1.055100
-0.875587
-0.948462
-1.193037
-1.310323
-1.129246
-0.830576
-0.534720
-0.433082
-0.471555
-0.405882
-0.307371
-0.380247
-0.530371
-0.569470
-0.504736
-0.469400
-0.521322
-0.623908
-0.718676
-0.739636
-0.694605
-0.680223
-0.763420
-0.826600
-0.909171
-1.060546
-1.264776
-1.568148
-1.807094
-1.961284
-1.969108
-1.731736
-1.495615
-1.424001
-1.484054
-1.550049
-1.616357
-1.748654
-1.887207
-1.791824
-1.611060
-1.599180
-1.742424
-2.022653
-2.288494
-2.578731
-2.970298
-3.322146
-3.582045
-3.624897
-3.509497
-3.380337
-3.058210
-2.543117
-1.981112
-1.476652
-1.033804
-0.659136
-0.382358
-0.280719
-0.237565
-0.138428
-0.067752
0.093622
0.324738
0.473289
0.586812
0.647480
0.658422
0.654038
0.699382
0.801020
0.783189
0.710939
0.721567
0.772853
0.882310
0.993018
1.011778
0.933899
0.795659
0.683377
0.568906
0.424098
0.315256
0.243319
0.039714
-0.235510
-0.495410
-0.659296
-0.611137
-0.447887
-0.177364
0.203872
0.586985
0.936634
1.218729
1.414505
1.429824
1.313789
1.237786
1.239971
1.198370
0.985696
0.648547
0.298263
0.107794
-0.133654
-0.421701
-0.539925
-0.564012
-0.591539
-0.665978
-0.759495
-0.707271
-0.519626
-0.314781
-0.130263
-0.032065
-0.011429
-0.040519
0.004824
0.107401
0.164942
0.078931
-0.206614
-0.487468
-0.577857
-0.676691
-0.768645
-0.770526
-0.661069
-0.392735
-0.158178
-0.045280
-0.073746
-0.085322
-0.016210
0.031010
-0.035297
-0.133193
-0.272997
-0.485671
-0.783101
-1.108365
-1.282571
-1.362953
-1.316984
-1.169684
-0.878519
-0.487275
-0.080706
0.258935
0.553227
0.816557
1.168082
1.624691
1.897716
2.030629
2.055644
2.045318
2.040309
2.118179
2.239208
2.227006
1.938020
1.553647
1.442303
1.407270
1.252454
1.116091
1.132661
1.265887
1.396612
1.461346
1.421934
1.407543
1.524506
1.704957
1.856323
1.787201
1.662721
1.540119
1.260516
1.012501
0.868318
0.750720
0.674404
0.611224
0.532718
0.396668
0.113937
-0.208512
-0.560673
-0.903451
-1.037938
-1.043260
-1.004484
-1.035451
-1.210596
-1.381987
-1.541494
-1.596543
-1.548385
-1.501790
-1.489598
-1.429555
-1.282255
-1.077409
-0.841289
-0.590469
-0.358414
-0.293680
-0.246460
-0.081958
0.063778
0.270187
0.680822
1.252523
1.776685
2.016559
2.070347
2.113188
2.272060
2.284565
2.008090
1.610580
1.317217
1.103917
0.896246
0.727357
0.527818
0.425857
0.382067
