EVENT_NAME: 202302060117
EVENT_ID: 13194
EVENT_DATE_YYYYMMDD: 2023/02/06
EVENT_TIME_HHMMSS: 01:17:32.00000
EVENT_LATITUDE_DEGREE: 37.288
EVENT_LONGITUDE_DEGREE: 37.043
EVENT_DEPTH_KM: 8.6
HYPOCENTER_REFERENCE: AFAD
MAGNITUDE_W: 7.7
MAGNITUDE_W_REFERENCE: AFAD
MAGNITUDE_L: 
MAGNITUDE_L_REFERENCE: 
FOCAL_MECHANISM: 
NETWORK: TK
STATION_CODE: 0634
STATION_NAME: 
STATION_LATITUDE_DEGREE: 40.106133
STATION_LONGITUDE_DEGREE: 33.415955
STATION_ELEVATION_M: 710.0
LOCATION: Kahramanmaras_Pazarck_Turkiye
SENSOR_DEPTH_M: 
VS30_M/S: None
SITE_CLASSIFICATION_EC8: unknown
MORPHOLOGIC_CLASSIFICATION: 
EPICENTRAL_DISTANCE_KM: 444.08
EARTHQUAKE_BACKAZIMUTH_DEGREE: 
DATE_TIME_FIRST_SAMPLE_YYYYMMDD_HHMMSS: 2023/02/06 01:18:08.4087050
DATE_TIME_FIRST_SAMPLE_PRECISION: millisecond
SAMPLING_INTERVAL_S: 0.01
NDATA: 21001
DURATION_S: 
STREAM: HNZ
UNITS: cm/s^2
INSTRUMENT: sensor = ACEBOX/SARA | digitizer = 
INSTRUMENT_ANALOG/DIGITAL: 
INSTRUMENTAL_FREQUENCY_HZ: 
INSTRUMENTAL_DAMPING: 
FULL_SCALE_G: 
N_BIT_DIGITAL_CONVERTER: 
PGA_CM/S^2: 2.010
TIME_PGA_S: 
BASELINE_CORRECTION: BASELINE REMOVED
FILTER_TYPE: BUTTERWORTH
FILTER_ORDER: 
LOW_CUT_FREQUENCY_HZ: 
HIGH_CUT_FREQUENCY_HZ: 
LATE/NORMAL_TRIGGERED: 
DATABASE_VERSION: 
HEADER_FORMAT: DYNA 1.2
DATA_TYPE: Acceleration
PROCESSING: Automatic Paolucci et al., 2011
DATA_TIMESTAMP_YYYYMMDD_HHMMSS: 
DATA_LICENSE: U (unknown license)
DATA_CITATION: Turkish Accelerometric Archive v 1.0 - Disaster And Emergency Management Presidency, Earthquake Department
DATA_CREATOR: AFAD
ORIGINAL_DATA_MEDIATOR_CITATION: : AFAD - Disaster And Emergency Management Presidency
ORIGINAL_DATA_MEDIATOR: AFAD PROCESS SERVICE
ORIGINAL_DATA_CREATOR_CITATION: AFAD PROCESS SERVICE
ORIGINAL_DATA_CREATOR: network: TK
USER1: GuestUser
USER2: 
USER3: 
USER4: 
USER5: 
[...]
-0.529298
-0.479500
-0.440222
-0.400945
-0.358160
-0.323091
-0.289659
-0.256927
-0.227937
-0.193569
-0.163176
-0.138160
-0.112676
-0.092804
-0.073867
-0.061008
-0.056333
-0.046280
-0.041838
-0.040670
-0.032020
-0.032488
-0.036229
-0.032255
-0.030852
-0.033191
-0.033425
-0.033659
-0.038102
-0.046986
-0.055637
-0.063820
-0.072705
-0.077615
-0.081824
-0.091176
-0.098892
-0.099828
-0.105439
-0.112454
-0.111519
-0.111987
-0.112689
-0.108481
-0.105208
-0.098896
-0.090479
-0.082765
-0.072244
-0.064763
-0.058918
-0.053542
-0.050970
-0.049568
-0.052608
-0.054245
-0.053076
-0.054713
-0.051908
-0.048635
-0.048402
-0.041388
-0.030634
-0.021750
-0.011931
0.001863
0.017527
0.033191
0.051193
0.070598
0.089301
0.114083
0.140969
0.159205
0.177207
0.197547
0.213211
0.230044
0.244773
0.252254
0.260436
0.270957
0.278672
0.285452
0.295738
0.307661
0.319585
0.332677
0.350445
0.369382
0.386449
0.407958
0.430870
0.452613
0.482538
0.511996
0.537713
0.568808
0.599669
0.629361
0.663027
0.694589
0.721242
0.749063
0.780626
0.808213
0.833463
0.862453
0.890742
0.918798
0.943580
0.966024
0.993612
1.018861
1.039201
1.063516
1.086661
1.103962
1.124302
1.148149
1.166151
1.182282
1.197479
1.204960
1.213376
1.218286
1.215246
1.215479
1.209868
1.197944
1.187422
1.168017
1.145572
1.122659
1.091564
1.056026
1.016748
0.975599
0.929774
0.877403
0.826669
0.776636
0.728006
0.679843
0.629576
0.583752
0.537226
0.488128
0.439030
0.388529
0.339899
0.288697
0.240301
0.192606
0.137663
0.091371
0.043208
-0.015242
-0.069016
-0.126764
-0.186616
-0.245300
-0.311231
-0.375058
-0.441223
-0.514636
-0.588049
-0.659357
-0.730666
-0.804780
-0.876790
-0.943656
-1.009120
-1.069674
-1.129293
-1.185638
-1.229359
-1.268403
-1.305811
-1.336205
-1.360754
-1.378056
-1.391850
-1.399800
-1.398164
-1.393488
-1.381565
-1.362861
-1.342755
-1.317038
-1.287346
-1.251809
-1.207856
-1.164838
-1.115974
-1.059863
-1.004921
-0.939926
-0.872125
-0.805727
-0.729977
-0.659605
-0.586193
-0.502962
-0.427445
-0.345851
-0.265892
-0.196689
-0.112288
-0.029291
0.038744
0.111922
0.183230
0.248926
0.317896
0.380787
0.439938
0.500958
0.560109
0.619726
0.673032
0.723064
0.774499
0.814946
0.850482
0.887422
0.920387
0.953819
0.982342
1.005722
1.030270
1.056455
1.082640
1.103447
1.127996
1.155583
1.178495
1.206316
1.232268
1.254244
1.280429
1.304977
1.328824
1.351736
1.372543
1.397326
1.421406
1.441980
1.462320
1.484297
1.505338
1.517963
1.530587
1.542043
1.543211
1.544614
1.542977
1.531754
1.517258
1.500191
1.481720
1.459042
1.429816
1.403397
1.377913
1.350558
1.324372
1.296550
1.268962
1.243010
1.213317
1.185962
1.159777
1.128447
1.101560
1.077011
1.042876
1.010144
0.982088
0.948655
0.917326
0.886230
0.848822
0.818662
0.790840
0.756939
0.730519
0.705970
0.680252
0.661080
0.637700
0.615255
0.594914
0.570131
0.547219
0.521968
0.497419
0.474507
0.446918
0.426577
0.409276
0.386130
0.368361
0.351761
0.330719
0.315054
0.301259
0.283724
0.267825
0.251225
0.234158
0.219896
0.202594
0.182487
0.162848
0.142507
0.122166
0.099722
0.077744
0.058339
0.037530
0.020463
0.007370
-0.005957
-0.009698
-0.011803
-0.020688
-0.017649
-0.006894
-0.002219
0.008535
0.027940
0.046877
0.068854
0.095272
0.119587
0.145772
0.175230
0.201415
0.233211
0.264072
0.286048
0.313402
0.339587
0.363200
0.390788
0.411829
0.435910
0.462796
0.483370
0.509555
0.535506
0.559119
0.587876
0.612424
0.637907
0.663157
0.683497
0.711085
0.738906
0.762519
0.788003
0.812551
0.839204
0.863986
0.886897
0.912381
0.934825
0.958438
0.984857
1.011042
1.037928
1.065048
1.095441
1.127471
1.158800
1.189660
1.217014
1.244134
1.265877
1.285282
1.306791
1.319649
1.330170
1.340223
1.343495
1.347470
1.350275
1.348872
1.345598
1.339051
1.333206
1.324789
1.315670
1.313566
1.308422
1.301875
1.302342
1.305381
1.310992
1.316135
1.319875
1.328993
1.336474
1.343488
1.352372
1.354008
1.353540
1.352137
1.345824
1.338575
1.327119
1.316130
1.301868
1.279423
1.262122
1.241313
1.210686
1.185669
1.159483
1.129323
1.099163
1.064560
1.026918
0.989744
0.955142
0.918903
0.882430
0.852036
0.820941
0.789378
0.763660
0.734668
0.701936
0.669204
0.633433
0.600467
0.566566
0.525183
0.486373
0.449432
0.408985
0.369940
0.329727
0.290215
0.253976
0.215165
0.178225
0.144090
0.109721
0.080730
0.049868
0.017136
-0.004841
-0.027987
-0.057446
-0.076618
-0.094153
-0.115897
-0.129691
-0.139511
-0.147461
-0.149565
-0.150968
-0.152839
-0.149099
-0.142085
-0.139514
-0.133436
-0.122214
-0.115902
-0.105147
-0.089250
-0.075222
-0.058389
-0.042258
-0.022151
0.002397
0.025075
0.050792
0.079315
0.108773
0.137062
0.169326
0.209071
0.246478
0.286925
0.331579
0.375065
0.423461
0.470220
0.520252
0.574259
0.624291
0.679467
0.731603
0.780233
0.834006
0.879128
0.923082
0.967269
1.000935
1.032498
1.061956
1.082529
1.097960
1.111753
1.121572
1.125546
1.130456
1.137235
1.139105
1.138404
1.142144
1.144482
1.137467
1.132090
1.128582
1.115723
1.103799
1.092109
1.074106
1.058909
1.037633
1.010278
0.988301
0.963518
0.937098
0.908574
0.870699
0.836564
0.811781
0.785829
0.753799
0.722703
0.700258
0.682957
0.671267
0.657472
0.628247
0.605335
0.599489
0.581019
0.557405
0.548520
0.528179
0.493577
0.464352
0.436062
0.411747
0.382288
0.338567
0.301861
0.272636
0.235228
0.195248
0.155502
0.112951
0.069698
0.026679
-0.013535
-0.053515
-0.095599
-0.133240
-0.161296
-0.181403
-0.203381
-0.226527
-0.240555
-0.248505
-0.258325
-0.262534
-0.266041
-0.274926
-0.280537
-0.281005
-0.283343
-0.285916
-0.286150
-0.285215
-0.282410
-0.281943
-0.283112
-0.282879
-0.285451
-0.285919
-0.284049
-0.287323
-0.289193
-0.290596
-0.295507
-0.296910
-0.303223
-0.312341
-0.309068
-0.314446
-0.329176
-0.331280
-0.338996
-0.346712
-0.344141
-0.349284
-0.351389
-0.347649
-0.348117
-0.344143
-0.336428
-0.322400
-0.306970
-0.298788
-0.284760
-0.268161
-0.252497
-0.231923
-0.218597
-0.203634
-0.177216
-0.160617
-0.145888
-0.121807
-0.108481
-0.094687
-0.073646
-0.066632
-0.055644
-0.037175
-0.026888
-0.013095
-0.000470
0.008648
0.023610
0.038339
0.053536
0.066394
0.080889
0.100060
0.110581
0.122738
0.141909
0.157339
0.171834
0.185394
0.194044
0.200823
0.205265
0.210175
0.214850
0.215083
0.212745
0.209472
0.198716
0.189598
0.185857
0.170660
0.155229
0.146110
0.128341
0.104493
0.081347
0.059370
0.032249
-0.000951
-0.028773
-0.061739
-0.105459
-0.140763
-0.177002
-0.224464
-0.267483
-0.310502
-0.363107
-0.410568
-0.450547
-0.495203
-0.539625
-0.582177
-0.627767
-0.674761
-0.716845
-0.752616
-0.787453
-0.820418
-0.848007
-0.873491
-0.897573
-0.917913
-0.936150
-0.953685
-0.967480
-0.983612
-0.999978
-1.009798
-1.020320
-1.025931
-1.024295
-1.028971
-1.025465
-1.011203
-1.008398
-0.999281
-0.973797
-0.954159
-0.933819
-0.901087
-0.865317
-0.828611
-0.783722
-0.732755
-0.680385
-0.625677
-0.567695
-0.507610
-0.446355
-0.385568
-0.322911
-0.263060
-0.207884
-0.156215
-0.106183
-0.056618
-0.012665
0.024742
0.054434
0.080619
0.110077
0.131352
0.146315
0.160342
0.168525
0.177643
0.184890
0.188630
0.196579
0.194708
0.192837
0.201488
0.202189
0.201253
0.205695
0.205928
0.209435
0.213876
0.218786
0.226501
0.227669
0.232345
0.244502
0.251515
0.261334
0.274660
0.281908
0.289389
0.298740
0.310196
0.322353
0.333341
0.342926
0.352044
0.359993
0.362330
0.364434
0.367239
0.364901
0.366069
0.362328
0.352041
0.348533
0.335674
0.318840
0.313229
0.300603
0.280730
0.267403
0.251505
0.230463
0.216668
0.206381
0.193288
0.190248
0.191650
0.185103
0.178089
0.176686
0.178322
0.180192
0.185803
0.187439
0.176918
0.171540
0.170604
0.161018
0.151900
0.147223
0.135299
0.120804
0.108879
0.091812
0.070536
0.052767
0.030556
0.003669
-0.014100
-0.031168
-0.059692
-0.087748
-0.113232
-0.138249
-0.162330
-0.187581
-0.205350
-0.222417
-0.246499
-0.251409
-0.251409
-0.268477
-0.276427
-0.280869
-0.288585
-0.286715
-0.290456
-0.300042
-0.305186
-0.315941
-0.327398
-0.335581
-0.344699
-0.356623
-0.370652
-0.380004
-0.394500
-0.416945
-0.435649
-0.453886
-0.481708
-0.513271
-0.535248
-0.558161
-0.593465
-0.624560
-0.654253
-0.689556
-0.722756
-0.757826
-0.794299
-0.834279
-0.876363
-0.911666
-0.949776
-0.988820
-1.022721
-1.058726
-1.091458
-1.127931
-1.168612
-1.193863
-1.219815
-1.250443
-1.274524
-1.304451
-1.325960
-1.341158
-1.366174
-1.381839
-1.392828
-1.408960
-1.420884
-1.430938
-1.437251
-1.440057
-1.443097
-1.447773
-1.449176
-1.441228
-1.437487
-1.437955
-1.429539
-1.422759
-1.418551
-1.407096
-1.395640
-1.379976
-1.356830
-1.338595
-1.323632
-1.302825
-1.275003
-1.250221
-1.230816
-1.208606
-1.188967
-1.170498
-1.147820
-1.131454
-1.109244
-1.083293
-1.068097
-1.049159
-1.026248
-1.015727
-1.008480
-0.992348
-0.976217
-0.962423
-0.947694
-0.943019
-0.936473
-0.925485
-0.928758
-0.929460
-0.929694
-0.936475
-0.939281
-0.953777
-0.974117
-0.987912
-1.005447
-1.025554
-1.050337
-1.074652
-1.099435
-1.134739
-1.169575
-1.206515
-1.246028
-1.282968
-1.329026
-1.371344
-1.407583
-1.452239
-1.493388
-1.533835
-1.577789
-1.616132
-1.654943
-1.689546
-1.718069
-1.751736
-1.783066
-1.806680
-1.825384
-1.844556
-1.869338
-1.889913
-1.904643
-1.918905
-1.930595
-1.941584
-1.947897
-1.949534
-1.945326
-1.932000
-1.918206
-1.899503
-1.874253
-1.845496
-1.806453
-1.764603
-1.720416
-1.672722
-1.620585
-1.558630
-1.493401
-1.425366
-1.358033
-1.290700
-1.208637
-1.134758
-1.069295
-0.985128
-0.901897
-0.827783
-0.749462
-0.677219
-0.610821
-0.545358
-0.481765
-0.416536
-0.357152
-0.300106
-0.237215
-0.183910
-0.132942
-0.077767
-0.037788
0.002191
0.055029
0.094073
0.121427
0.156496
0.188058
0.206761
0.228504
0.255157
0.273626
0.290225
0.311968
0.327632
0.333710
0.339555
0.349140
0.357790
0.356387
0.349840
0.345398
0.335812
0.326226
0.318276
0.294428
0.267308
0.250708
0.228263
0.197869
0.173086
0.149004
0.120714
0.094529
0.072317
0.041456
0.013400
-0.004603
-0.031256
-0.052299
-0.062118
-0.078485
-0.092981
-0.105606
-0.112620
-0.115426
-0.123142
-0.117765
-0.113557
-0.117532
-0.102569
-0.088542
-0.079658
-0.057448
-0.039446
-0.017235
0.013392
0.035602
0.065761
0.103168
0.138705
0.180788
0.220300
0.264253
0.317792
0.361512
0.403128
0.449185
0.493840
0.537092
0.567252
0.596008
0.634818
0.663107
0.683213
0.706359
0.723192
0.738856
0.756390
0.764573
0.769482
0.782341
0.796368
0.807122
0.814603
0.826059
0.842892
0.853179
0.861829
0.874453
0.883805
0.896897
0.911860
0.917471
0.919808
0.930562
0.942719
0.951136
0.962825
0.973112
0.976618
0.987139
0.999296
1.003270
1.014024
1.025714
1.026415
1.033428
1.041377
1.038337
1.043013
1.043246
1.029919
1.029919
1.028983
1.013319
0.997654
0.982690
0.972169
0.957439
0.936163
0.925175
0.910912
0.888468
0.871868
0.851527
0.830718
0.813885
0.793076
0.775073
0.764085
0.748420
0.730651
0.725507
0.718025
0.705633
0.701191
0.691838
0.680616
0.669159
0.643207
0.621464
0.600889
0.564416
0.524670
0.478612
0.429748
0.386261
0.327578
0.265153
0.210445
0.146384
0.083258
0.020834
-0.050475
-0.119679
-0.187481
-0.256451
-0.324954
-0.391353
-0.449102
-0.503343
-0.557117
-0.610891
-0.662560
-0.704176
-0.743922
-0.783902
-0.809386
-0.834871
-0.867135
-0.886775
-0.899634
-0.916234
-0.930028
-0.944992
-0.957150
-0.957150
-0.956449
-0.953878
-0.945929
-0.946163
-0.948969
-0.941722
-0.929799
-0.916239
-0.900575
-0.882573
-0.862467
-0.844932
-0.824358
-0.800745
-0.777132
-0.746271
-0.719385
-0.695538
-0.662106
-0.634752
-0.611372
-0.582849
-0.557600
-0.527908
-0.494008
-0.464082
-0.432286
-0.399789
-0.368460
-0.336664
-0.299257
-0.262551
-0.234496
-0.202466
-0.168332
-0.137705
-0.105208
-0.075516
-0.041850
-0.006079
0.024548
0.058682
0.093751
0.129288
0.164591
0.196153
0.237067
0.279150
0.317259
0.359810
0.400256
0.438599
0.482318
0.521830
0.557133
0.598748
0.636857
0.671224
0.706995
0.732946
0.759832
0.792096
0.811501
0.829503
0.848908
0.860363
0.872520
0.879300
0.875091
0.871116
0.865037
0.850541
0.832071
0.812198
0.788116
0.761463
0.726159
0.679633
0.634276
0.583542
0.520416
0.456121
0.388086
0.317712
0.248742
0.172757
0.098643
0.026867
-0.049819
-0.124401
-0.200385
-0.275668
-0.348380
-0.422494
-0.491698
-0.558331
-0.623561
-0.687154
-0.754254
-0.816445
-0.873258
-0.927265
-0.977065
-1.032943
-1.080871
-1.117344
-1.158727
-1.195199
-1.228165
-1.262534
-1.287551
-1.308359
-1.328466
-1.346936
-1.361432
-1.371018
-1.380838
-1.386450
-1.387151
-1.384346
-1.375229
-1.365176
-1.354421
-1.341563
-1.327536
-1.310001
-1.293870
-1.277504
-1.255528
-1.226070
-1.199651
-1.182350
-1.156867
-1.127643
-1.106835
-1.077611
-1.047218
-1.024306
-0.992042
-0.959311
-0.934061
-0.903434
-0.864858
-0.826516
-0.790278
-0.743285
-0.690447
-0.643688
-0.586174
-0.521179
-0.459457
-0.390955
-0.321751
-0.248339
-0.165108
-0.084448
0.000186
0.088093
0.175066
0.266012
0.351348
0.436684
0.528332
0.615304
0.706484
0.801639
0.887910
0.975584
1.063024
1.145320
1.233461
1.313419
1.383558
1.461412
1.527109
1.582518
1.649851
1.704092
1.745941
1.799948
1.848578
1.885751
1.918716
1.945368
1.971787
1.989789
1.999608
2.009895
2.009193
2.003114
1.993060
1.970381
1.947703
1.918711
1.878966
1.840856
1.799474
1.754117
1.705253
1.650310
1.596068
1.544165
1.487586
1.429604
1.377466
1.325095
1.270854
1.217782
1.163540
1.115144
1.069787
1.015779
0.966915
0.927169
0.881812
0.833416
0.791332
0.752989
0.710905
0.671626
0.636556
0.595174
0.555895
0.518955
0.476170
0.434086
0.397145
0.361608
0.323499
0.290533
0.261775
0.228108
0.200753
0.176204
0.150252
0.131782
0.112610
0.094841
0.079878
0.060706
0.044807
0.025168
0.000151
-0.019021
-0.041466
-0.069755
-0.096409
-0.129141
-0.169354
-0.209100
-0.251418
-0.299581
-0.346107
-0.394971
-0.448043
-0.497141
-0.544368
-0.594401
-0.644434
-0.689090
-0.730940
-0.779103
-0.824460
-0.860933
-0.900211
-0.938554
-0.970351
-1.004720
-1.037685
-1.062468
-1.087485
-1.111099
-1.128868
-1.148040
-1.169783
-1.187085
-1.198775
-1.212336
-1.226831
-1.232443
-1.239457
-1.250446
-1.245771
-1.241797
-1.247174
-1.240395
-1.233381
-1.228472
-1.214210
-1.206963
-1.200651
-1.184753
-1.171193
-1.158569
-1.145944
-1.137294
-1.124669
-1.113214
-1.109006
-1.099420
-1.089601
-1.085861
-1.076276
-1.063885
-1.057339
-1.052196
-1.041909
-1.029752
-1.022271
-1.014556
-1.008945
-1.005205
-0.996321
-0.990477
-0.989776
-0.987672
-0.987672
-0.983231
-0.975282
-0.972243
-0.966866
-0.961021
-0.954943
-0.940916
-0.929694
-0.921979
-0.909120
-0.900470
-0.892989
-0.879897
-0.869610
-0.861662
-0.853012
-0.845530
-0.837348
-0.830101
-0.821451
-0.808358
-0.797136
-0.788720
-0.779135
-0.765575
-0.749443
-0.737520
-0.719752
-0.696840
-0.681644
-0.660369
-0.633482
-0.612441
-0.585555
-0.552356
-0.522197
-0.494609
-0.464449
-0.433121
-0.405300
-0.374439
-0.340772
-0.307340
-0.272504
-0.240708
-0.207276
-0.174077
-0.143216
-0.107212
-0.071441
-0.038008
-0.001069
0.031896
0.064160
0.100632
0.132428
0.162353
0.193214
0.220334
0.246285
0.269898
0.290005
0.307071
0.319930
0.326242
0.329047
0.332554
0.330917
0.321564
0.310108
0.293508
0.277142
0.262412
0.243007
0.224770
0.204897
0.187362
0.175204
0.158370
0.145744
0.136158
0.123299
0.116752
0.110673
0.105529
0.101554
0.093605
0.091500
0.090097
0.085421
0.081913
0.075367
0.070924
0.070456
0.069053
0.067182
0.065779
0.068116
0.076065
0.086586
0.095469
0.107159
0.122823
0.138253
0.160931
0.185012
0.203949
0.230835
0.258189
0.286011
0.321314
0.351473
0.382334
0.416935
0.449900
0.482398
0.512324
0.546224
0.581527
0.606543
0.635299
0.671070
0.704035
0.734896
0.764120
0.794279
0.825608
0.853195
0.878445
0.907436
0.937127
0.961910
0.986458
1.012175
1.031580
1.049114
1.067818
1.080676
1.092599
1.106627
1.110601
1.113640
1.125096
1.128836
1.131174
1.137719
1.138654
1.142862
1.149408
1.149408
1.147069
1.145199
1.142860
1.138184
1.132338
1.120414
1.103347
1.091656
1.076693
1.055417
1.032972
1.008891
0.987615
0.959559
0.925424
0.893627
0.854115
0.813434
0.777896
0.739319
0.698872
0.655853
0.614704
0.579400
0.539888
0.502012
0.471151
0.439588
0.412233
0.389788
0.365473
0.345600
0.333208
0.321985
0.314036
0.308190
0.303280
0.300942
0.299539
0.302344
0.308422
0.310526
0.312864
0.325722
0.343724
0.358920
0.376922
0.398431
0.426019
0.459218
0.484468
0.512757
0.546423
0.576816
0.615626
0.646487
0.672438
0.711248
0.736264
0.763618
0.801025
0.821365
0.845212
0.874904
0.894776
0.916051
0.940132
0.965615
0.988060
1.006062
1.031311
1.053989
1.069419
1.091630
1.115710
1.135115
1.158261
1.178367
1.191225
1.203850
1.212032
1.216942
1.224423
1.220916
1.211797
1.205250
1.189118
1.170648
1.156619
1.137214
1.114535
1.090687
1.063333
1.032705
1.000440
0.968643
0.934275
0.895230
0.852679
0.806386
0.759860
0.709827
0.654183
0.597838
0.541258
0.481406
0.418280
0.354219
0.286184
0.212537
0.138189
0.062439
-0.013312
-0.090465
-0.175568
-0.258333
-0.338759
-0.425499
-0.510601
-0.594301
-0.678001
-0.758428
-0.840491
-0.919515
-0.994330
-1.071951
-1.143260
-1.206853
-1.269277
-1.327026
-1.378929
-1.427559
-1.470578
-1.504713
-1.539082
-1.572281
-1.591687
-1.607352
-1.622783
-1.626758
-1.626758
-1.622784
-1.609692
-1.596833
-1.578598
-1.553582
-1.529501
-1.500511
-1.468481
-1.436217
-1.403486
-1.369118
-1.329841
-1.293135
-1.251987
-1.211307
-1.181849
-1.141168
-1.099787
-1.068224
-1.031285
-1.000892
-0.972602
-0.941508
-0.916726
-0.885397
-0.854770
-0.829053
-0.793049
-0.759616
-0.731327
-0.697427
-0.662124
-0.622612
-0.580997
-0.542187
-0.503845
-0.464333
-0.422484
-0.382739
-0.343929
-0.303015
-0.262101
-0.221420
-0.182844
-0.144736
-0.108030
-0.073428
-0.033917
0.001854
0.034585
0.073629
0.109633
0.149378
0.191695
0.228635
0.270250
0.311866
0.353013
0.394863
0.430166
0.469209
0.508253
0.541686
0.577223
0.608785
0.638477
0.666064
0.692483
0.721240
0.740177
0.759348
0.781324
0.791845
0.805171
0.818263
0.821536
0.829017
0.835563
0.833458
0.826912
0.823872
0.821533
0.809843
0.796984
0.784592
0.772201
0.762381
0.742507
0.719595
0.703696
0.682187
0.654832
0.627243
0.600590
0.571599
0.535126
0.502394
0.468259
0.426409
0.389703
0.352996
0.314653
0.278648
0.239603
0.204767
0.166424
0.127847
0.098856
0.060279
0.023806
-0.004718
-0.040022
-0.068545
-0.096134
-0.128164
-0.153649
-0.178665
-0.202981
-0.224724
-0.246234
-0.263769
-0.282474
-0.306555
-0.325727
-0.340223
-0.358927
-0.374592
-0.385581
-0.393764
-0.392829
-0.393297
-0.397506
-0.390025
-0.374595
-0.361268
-0.341864
-0.313341
-0.285753
-0.256529
-0.219122
-0.180078
-0.141268
-0.097081
-0.051257
-0.006368
0.044599
0.094631
0.140923
0.193059
0.245196
0.293825
0.346195
0.395292
0.444623
0.496759
0.542116
0.587940
0.635868
0.680289
0.721670
