EVENT_NAME: 202302060117
EVENT_ID: 13194
EVENT_DATE_YYYYMMDD: 2023/02/06
EVENT_TIME_HHMMSS: 01:17:32.00000
EVENT_LATITUDE_DEGREE: 37.288
EVENT_LONGITUDE_DEGREE: 37.043
EVENT_DEPTH_KM: 8.6
HYPOCENTER_REFERENCE: AFAD
MAGNITUDE_W: 7.7
MAGNITUDE_W_REFERENCE: AFAD
MAGNITUDE_L: 
MAGNITUDE_L_REFERENCE: 
FOCAL_MECHANISM: 
NETWORK: TK
STATION_CODE: 0125
STATION_NAME: 
STATION_LATITUDE_DEGREE: 37.01519
STATION_LONGITUDE_DEGREE: 35.79577
STATION_ELEVATION_M: 25.0
LOCATION: Kahramanmaras_Pazarck_Turkiye
SENSOR_DEPTH_M: 
VS30_M/S: 208
SITE_CLASSIFICATION_EC8: C
MORPHOLOGIC_CLASSIFICATION: 
EPICENTRAL_DISTANCE_KM: 114.62
EARTHQUAKE_BACKAZIMUTH_DEGREE: 
DATE_TIME_FIRST_SAMPLE_YYYYMMDD_HHMMSS: 2023/02/06 01:17:31.8047210
DATE_TIME_FIRST_SAMPLE_PRECISION: millisecond
SAMPLING_INTERVAL_S: 0.01
NDATA: 12501
DURATION_S: 
STREAM: HNE
UNITS: cm/s^2
INSTRUMENT: sensor = CMG-5T/GURALP | digitizer = 
INSTRUMENT_ANALOG/DIGITAL: 
INSTRUMENTAL_FREQUENCY_HZ: 
INSTRUMENTAL_DAMPING: 
FULL_SCALE_G: 
N_BIT_DIGITAL_CONVERTER: 
PGA_CM/S^2: 83.123
TIME_PGA_S: 
BASELINE_CORRECTION: BASELINE REMOVED
FILTER_TYPE: BUTTERWORTH
FILTER_ORDER: 
LOW_CUT_FREQUENCY_HZ: 
HIGH_CUT_FREQUENCY_HZ: 
LATE/NORMAL_TRIGGERED: 
DATABASE_VERSION: 
HEADER_FORMAT: DYNA 1.2
DATA_TYPE: Acceleration
PROCESSING: Automatic Paolucci et al., 2011
DATA_TIMESTAMP_YYYYMMDD_HHMMSS: 
DATA_LICENSE: U (unknown license)
DATA_CITATION: Turkish Accelerometric Archive v 1.0 - Disaster And Emergency Management Presidency, Earthquake Department
DATA_CREATOR: AFAD
ORIGINAL_DATA_MEDIATOR_CITATION: : AFAD - Disaster And Emergency Management Presidency
ORIGINAL_DATA_MEDIATOR: AFAD PROCESS SERVICE
ORIGINAL_DATA_CREATOR_CITATION: AFAD PROCESS SERVICE
ORIGINAL_DATA_CREATOR: network: TK
USER1: GuestUser
USER2: 
USER3: 
USER4: 
USER5: 
[...]
-14.042373
-16.470841
-18.774141
-20.531547
-21.608973
-21.821376
-21.342652
-20.596077
-19.717327
-18.827749
-18.087225
-17.839726
-17.954989
-18.182043
-18.282655
-18.241220
-18.165388
-18.063758
-17.967543
-17.531178
-16.414516
-14.673610
-12.719314
-10.971083
-9.903786
-9.797060
-10.601221
-12.143008
-14.074310
-15.810058
-17.034628
-17.781459
-18.167759
-18.487812
-18.881755
-19.226651
-19.142538
-18.349781
-16.920678
-14.950777
-12.547726
-10.068875
-7.706592
-5.451958
-3.394153
-1.634137
-0.015213
1.762956
3.809933
6.143234
8.719543
11.306363
13.503668
15.063034
15.798781
15.731291
15.044654
13.952896
12.479585
10.779826
9.122427
7.632235
6.234088
4.891358
3.725710
2.883012
2.556908
2.749308
3.362116
4.236407
5.157834
5.954413
6.703855
7.507121
8.309751
8.814910
8.814941
8.167160
6.780797
4.697256
2.151902
-0.493459
-2.841030
-4.616908
-5.833515
-6.752651
-7.565729
-8.416070
-9.131372
-9.412887
-9.106149
-8.307659
-7.120292
-5.923688
-4.895884
-4.030830
-3.314193
-2.723041
-2.075517
-1.318431
-0.512935
0.233640
0.563629
0.607612
0.542989
0.618184
1.012507
1.447279
1.411002
0.990624
0.727263
0.906923
1.509859
2.378735
3.203659
3.960426
4.854463
6.129416
8.024472
10.632313
13.407680
15.638426
16.856369
16.926468
15.998733
14.420638
12.542205
10.783844
9.682531
9.027106
8.281867
7.113671
5.561692
3.852378
2.224599
0.853523
-0.281868
-1.014687
-1.264672
-0.941690
-0.048290
1.204050
2.478684
3.898551
5.698060
7.867656
10.390140
13.082381
15.767933
18.454441
21.171843
23.761529
25.963930
27.468833
27.932588
27.310287
25.857040
23.983067
21.750471
18.861465
15.325920
11.497682
7.824868
4.597941
1.875187
-0.741190
-3.678926
-6.632268
-9.245779
-11.473597
-13.191828
-14.325309
-14.978504
-15.262568
-15.091825
-14.453856
-13.291967
-11.531315
-9.089408
-6.284740
-3.683270
-1.706680
-0.633969
-0.485521
-1.131709
-2.378891
-4.158273
-6.180027
-8.277263
-10.537886
-12.779717
-14.511007
-15.812970
-16.863961
-17.538814
-18.178951
-19.225802
-20.491457
-21.737683
-22.987732
-23.995727
-24.675994
-24.689021
-23.988946
-22.919101
-21.666124
-20.390216
-19.384388
-18.955986
-19.099913
-19.755338
-20.609820
-21.019688
-20.646066
-19.407421
-17.251202
-13.931214
-9.501602
-4.492972
0.386669
4.694300
7.822555
9.467596
9.661269
8.519190
6.388830
3.857490
1.429022
-0.848481
-2.868005
-4.535915
-5.740419
-6.582161
-6.800297
-5.848613
-3.806414
-1.262909
1.613101
4.694220
7.148229
8.469364
8.967197
8.874228
7.968469
6.563952
5.485889
5.031432
4.930183
5.003467
5.187586
4.945245
4.114650
2.945817
1.630477
0.736502
0.766153
1.582478
2.847239
4.206274
5.381539
6.473678
7.557217
8.567504
9.383510
9.967973
10.437143
10.970329
11.581863
12.285442
13.022463
13.825730
14.578357
15.435767
16.252092
16.789737
17.043924
16.892353
15.913659
13.807187
11.092714
8.378559
5.846263
3.694565
2.223483
1.241604
0.670898
0.208161
-0.581986
-2.034914
-4.048387
-6.344999
-8.543834
-10.409527
-12.337963
-14.603681
-17.235028
-20.284873
-23.311786
-25.721463
-27.286500
-27.926637
-27.431988
-25.717517
-22.835774
-19.323099
-15.804691
-12.495532
-9.463142
-6.840970
-4.618504
-2.683955
-1.105161
0.210877
1.327222
2.066153
2.392638
2.639500
3.194662
3.953658
4.719343
5.268772
5.518501
5.542737
5.347851
5.306797
5.378488
5.632994
6.131783
6.734719
7.220131
7.252967
6.505179
4.989190
3.153117
1.414184
0.004252
-0.919980
-1.378895
-1.611681
-1.599229
-1.353004
-0.948170
-0.513717
-0.051554
0.423985
0.809390
0.986821
0.819007
0.214541
-0.851101
-2.117711
-3.471588
-4.729918
-5.692687
-6.198739
-5.964935
-5.000830
-3.956783
-3.010832
-2.171576
-1.434874
-0.492745
1.011841
2.789692
4.465626
5.891225
6.841954
7.432468
7.977439
8.718281
9.496387
9.975111
9.849656
9.426093
8.884370
8.341373
8.178018
8.696235
9.636771
10.770632
11.932521
12.735151
12.974369
12.656227
12.009083
11.417038
10.959078
10.572779
10.224698
9.918340
9.909135
10.355373
11.291451
12.377538
13.147045
13.372886
13.033087
12.270012
11.226664
10.143824
8.763512
7.303259
6.137292
5.262108
4.442660
3.604103
2.705032
1.696081
0.843510
0.197003
-0.424343
-0.748536
-0.723982
-0.655475
-0.748443
-1.026456
-1.496200
-2.064676
-2.506712
-2.935689
-3.366577
-3.954482
-4.642074
-5.221061
-5.508946
-5.862760
-6.490157
-7.174883
-7.588573
-7.698421
-7.805722
-8.243299
-9.287602
-11.119853
-13.267092
-15.114313
-16.825537
-18.624347
-20.460420
-22.243305
-23.862486
-25.098839
-25.729422
-25.741175
-25.030589
-23.617092
-21.663752
-19.246051
-16.546485
-13.113433
-8.880967
-3.948456
0.926089
5.571002
9.486250
12.380096
14.593007
16.500803
18.647786
20.847957
23.129980
25.454682
27.784479
29.619977
30.762119
31.281292
31.110929
30.363142
29.334445
28.185040
26.602805
24.495058
22.146850
19.962666
18.174685
16.992793
16.642802
16.956547
17.519034
18.035659
18.138881
17.305101
15.445459
12.645630
9.470300
6.631297
4.350609
2.254010
0.067596
-2.387625
-5.207201
-8.158313
-11.176627
-14.318835
-17.730486
-20.984165
-23.543214
-25.325144
-26.303838
-26.670391
-26.783106
-26.616504
-25.855596
-24.443055
-22.655012
-20.659949
-18.517107
-16.384137
-14.351811
-12.493063
-11.176706
-10.593836
-10.553356
-10.901118
-11.388379
-11.902712
-12.126581
-11.504854
-9.773503
-7.324908
-4.512915
-1.690411
0.652126
2.726493
4.829843
6.955805
9.010107
10.694640
11.641865
11.753368
11.342227
10.587751
9.763207
9.307158
9.581729
10.469078
11.707722
13.115168
14.340436
15.139881
15.544078
15.851772
16.243229
16.748706
17.541144
18.616403
19.487190
19.605700
18.574137
16.175607
12.670319
8.560216
4.100090
-0.455264
-4.699134
-8.417493
-11.567663
-13.923196
-15.340134
-16.519796
-17.656780
-18.237678
-18.310581
-18.342400
-18.282174
-18.031171
-17.831446
-17.602420
-17.084203
-16.591465
-16.545890
-17.118507
-18.598188
-20.847982
-23.220395
-25.097235
-26.304287
-26.266037
-24.806678
-22.183550
-18.519910
-14.254320
-10.040645
-6.137818
-2.732793
0.372850
3.335490
6.064994
8.601174
11.079388
13.577986
16.059704
18.075150
19.277168
20.305927
21.661458
23.214455
24.792612
26.332231
27.393158
27.650530
27.102437
25.810666
23.808021
21.004052
17.468508
13.390890
9.069309
4.825439
0.917577
-2.994106
-6.746543
-9.716765
-11.569400
-12.480573
-12.349324
-11.208774
-9.615330
-8.019656
-6.863500
-6.327766
-5.947775
-5.411404
-4.866752
-4.194385
-3.029630
-1.670277
-0.553615
0.425460
1.510910
2.862301
4.538553
6.554955
8.734106
10.939373
12.747480
13.763818
13.775633
12.780378
10.939527
8.801843
6.840602
6.169253
6.958506
8.380284
10.175652
12.149694
14.364834
16.739857
18.768361
20.098732
20.783838
20.450409
18.718164
15.790938
11.906964
7.472317
3.148825
-0.316652
-2.589695
-3.419972
-2.915132
-1.423605
0.513174
2.378929
3.693056
3.870169
2.508966
0.010112
-2.890042
-6.109324
-9.593591
-13.242519
-16.775834
-19.664204
-21.681817
-22.697774
-22.407597
-21.225007
-19.585700
-17.738099
-15.851960
-14.243228
-13.052039
-12.447510
-12.555448
-13.124880
-13.881904
-14.250368
-13.631189
-12.175970
-10.456084
-8.898310
-7.546282
-6.285025
-5.298625
-4.842833
-4.972109
-5.109030
-4.796240
-3.695183
-1.811911
0.744333
3.699967
6.760702
9.809335
12.733756
15.536513
17.758660
19.331721
20.524504
21.072022
20.394939
18.763338
16.724385
14.133806
10.759099
6.654729
1.591698
-4.373300
-10.426840
-15.533503
-19.486272
-22.730397
-25.086885
-26.354451
-27.058923
-27.387257
-27.140395
-26.255276
-24.672660
-22.349551
-19.663999
-17.210308
-15.308882
-14.134891
-13.900132
-14.473067
-15.599541
-16.954055
-18.387236
-19.797805
-20.949121
-21.684169
-21.962818
-21.664042
-21.114931
-20.858833
-20.845107
-20.942216
-21.081047
-20.923044
-20.111815
-18.574107
-16.205453
-12.894065
-9.285524
-6.071913
-3.821738
-2.762404
-2.773202
-3.526404
-4.888561
-6.806805
-8.733649
-10.417801
-11.430892
-11.993954
-12.019721
-12.007269
-11.853088
-11.677568
-11.898252
-12.498578
-13.448289
-14.726046
-16.210186
-17.322328
-18.229361
-19.417304
-20.621808
-21.041868
-20.383514
-18.639742
-16.260578
-13.693823
-11.211469
-8.620190
-6.135606
-3.835428
-1.773164
-0.062833
1.625522
3.600520
5.740814
7.609117
8.808588
9.344959
9.147525
8.325529
7.076117
5.677333
4.597677
3.951170
3.896739
3.882120
3.658251
3.544262
3.379951
2.785358
1.656655
0.019958
-2.614893
-6.128143
-9.804142
-13.106551
-15.912431
-18.148530
-19.884278
-21.310452
-22.209842
-22.523844
-22.221883
-21.746662
-20.903902
-19.885972
-19.176342
-18.964514
-18.961935
-19.245361
-20.215137
-21.689404
-23.391711
-24.832855
-25.441780
-24.578955
-22.477834
-19.259764
-14.672498
-9.149823
-3.541791
1.367788
5.416166
8.522446
10.742045
11.905845
12.322144
12.446705
11.876318
10.710670
9.079705
7.250001
5.165823
2.935457
1.677128
1.477146
2.001414
3.272227
5.418255
8.322292
11.473161
14.614475
17.472331
19.783656
20.715275
20.316236
18.568066
15.706131
12.273460
8.965637
6.548316
4.889006
4.207783
3.804922
3.465760
3.006844
2.668956
2.761349
3.234659
3.654780
3.893043
4.358072
5.354663
6.687263
8.204906
9.835296
11.131906
12.030721
12.522503
12.958230
13.427400
13.958993
14.216047
14.115753
13.879782
13.637440
13.271206
13.113265
13.516825
13.999052
14.115970
13.922676
13.089215
11.668136
9.407514
6.560230
3.720589
1.735143
-0.159214
-2.852666
-6.133418
-9.382638
-12.717852
-16.271550
-19.324261
-21.433919
-22.394459
-22.339010
-21.381275
-19.680817
-17.390194
-14.897648
-12.603522
-10.674068
-8.408288
-5.510620
-2.083301
1.363765
5.089192
9.515301
14.210218
18.628683
23.318184
28.027433
32.231553
35.386562
37.820187
39.602816
40.661195
41.463506
42.129822
42.822253
43.851649
45.068000
46.062999
46.659564
47.065991
47.299476
47.172429
46.541209
45.329380
43.837915
42.199625
40.693190
39.205547
37.954861
36.475180
34.656305
32.894759
31.604262
30.810931
30.359659
30.181016
30.338382
30.508169
30.634641
30.203116
28.849239
26.514089
23.639415
19.931248
15.597882
11.071192
6.576032
2.532175
-0.434544
-2.158827
-2.933686
-2.747656
-1.808393
-0.259537
1.719601
4.151315
6.687814
9.254250
11.612712
13.726572
15.768134
17.215709
17.873425
17.921867
17.300203
15.971805
14.141465
11.691021
8.819532
5.932754
3.225607
0.800961
-1.253916
-2.849847
-4.149898
-4.815515
-4.801152
-4.566074
-4.575598
-4.938647
-6.017347
-7.678569
-9.693953
-11.880048
-13.877597
-15.414925
-16.196154
-16.386581
-16.082390
-15.599526
-15.568283
-16.140581
-17.357188
-19.217148
-21.052903
-22.568574
-23.892831
-24.493794
-24.698553
-24.534180
-24.614728
-24.838915
-24.800346
-24.528005
-24.185277
-23.664512
-22.836721
-22.119766
-21.112346
-19.785479
-18.476766
-17.064861
-15.464091
-13.790705
-12.079100
-10.412084
-9.251151
-8.381320
-7.610857
-6.539102
-5.082609
-3.436295
-2.000504
-0.716314
0.180271
0.496882
0.618896
0.695364
0.589338
0.535225
1.070004
2.143670
3.476907
4.505029
4.642330
3.697396
2.438430
1.568023
1.659461
3.081557
6.087512
10.164554
14.641622
18.710384
21.811567
23.396413
23.188469
21.306533
17.954758
13.690504
9.431665
5.820638
3.417650
2.851721
4.053103
6.613488
9.885702
13.206645
16.168011
18.334741
19.291521
18.566346
16.210176
12.985161
9.330182
5.673292
2.302408
-1.117206
-4.331074
-7.290467
-10.031375
-12.373850
-14.181896
-15.283846
-15.243048
-14.006951
-11.354840
-7.394684
-3.200119
0.234844
2.920078
5.281406
7.210222
8.653976
9.683372
10.499378
11.219837
11.604606
11.394751
10.882011
10.179768
9.140561
7.969816
6.507652
4.445132
1.592752
-2.079107
-5.843329
-9.285555
-12.112138
-14.078474
-15.300814
-16.119306
-16.420887
-16.181669
-15.886714
-15.549719
-14.888818
-13.986182
-12.690527
-10.891018
-8.712823
-5.973764
-2.511092
1.564676
6.119456
10.914060
15.499733
19.678374
23.312713
26.913610
30.196971
32.592696
33.726239
33.255221
31.795286
30.099349
27.997336
25.730025
23.542655
21.168968
18.434112
15.608804
13.302318
11.944938
11.545899
11.477136
11.768268
12.323430
12.990701
13.627397
14.329065
15.166092
15.828904
15.809825
14.539711
12.165706
9.209816
5.764086
2.426325
-0.291652
-2.268180
-3.656135
-4.594699
-4.672061
-4.031862
-3.226684
-2.457496
-1.273313
0.436381
2.723500
5.689962
9.199771
12.329937
14.811655
16.665626
17.562848
17.477204
17.017652
16.159030
14.495260
12.016471
9.058033
6.330184
4.182626
2.713455
1.875853
1.628097
1.836740
1.829446
1.195997
-0.140363
-1.885666
-3.702630
-5.486789
-7.175400
-8.753177
-10.900416
-14.076702
-18.341274
-23.423096
-28.652060
-33.562851
-37.453833
-39.923067
-40.637413
-39.562154
-36.817362
-32.531708
-27.107765
-21.062126
-14.610410
-7.960274
-1.958905
3.282224
8.129697
12.570776
16.855793
21.370443
26.476850
32.408787
39.197149
46.035832
52.038793
56.685298
59.918019
61.378971
61.155421
59.460121
56.894384
53.268706
48.279247
42.551206
36.866162
30.686818
24.214463
17.852305
11.833800
6.197166
1.282871
-3.127570
-7.642158
-13.342808
-20.441637
-28.374277
-37.026708
-45.635505
-53.739812
-60.701690
-66.606812
-71.975276
-77.040536
-80.747429
-82.526810
-83.035092
-83.122646
-83.086944
-82.193226
-80.329063
-77.737784
-74.516529
-70.809256
-66.771706
-62.379676
-56.979938
-50.529177
-43.396208
-35.871494
-28.562080
-20.987363
-12.998607
-4.567147
4.656720
14.931928
25.312875
34.865425
43.350073
49.779176
54.930809
58.702099
60.735062
62.212894
63.775445
64.301306
63.865003
62.793628
61.513005
60.625718
60.201518
60.672598
61.695624
62.714510
63.981501
65.130649
65.239604
63.575835
60.853081
57.321359
53.189916
48.679787
44.271257
40.678066
37.691601
34.986046
32.332404
29.710612
26.557258
23.047829
19.653377
16.740165
14.307875
12.077509
10.501007
9.124199
6.744142
3.650663
1.138114
-2.064607
-6.903419
-11.257805
-14.562125
-18.747393
-24.368102
-29.236215
-33.347593
-38.230994
-43.458366
-47.639811
-50.515760
-52.244820
-52.550541
-51.169211
-48.962352
-45.724535
-41.712147
-38.064431
-34.486147
-30.304002
-26.190015
-23.228012
-20.983889
-19.041378
-18.225053
-17.319868
-14.437807
-10.547719
-5.737509
0.508461
8.886733
18.982311
29.251468
39.552473
48.484920
55.453548
60.639897
64.740507
68.099033
70.078807
71.451537
72.306718
72.681614
71.596862
68.978574
65.082497
59.857673
53.747442
47.602177
41.691959
35.345726
28.617621
22.130933
15.766228
9.481145
2.782023
-3.814544
-9.444490
-14.249223
-18.602973
-21.644219
-23.357991
-24.411530
-24.845603
-25.149732
-25.322323
-24.548039
-22.145626
-19.057819
-15.342583
-11.110754
-6.438132
-1.293187
4.225985
8.528201
11.874623
14.222575
15.906789
17.206585
18.437267
19.780059
21.119029
22.359903
22.411530
21.834454
20.716579
18.940064
16.863211
14.690492
12.555355
10.521817
8.609306
6.816866
5.305654
4.855975
4.500569
4.023819
3.473177
3.034327
2.636562
2.417789
1.897723
1.202169
1.337877
3.135793
6.268508
10.262742
14.628975
18.470015
21.380104
23.028329
23.066579
21.255985
19.000458
17.013420
15.051543
12.626579
9.973893
6.777542
3.063323
-1.480884
-6.623219
-12.068758
-17.315876
-22.356931
-27.196061
-31.629752
-35.195235
-38.561342
-41.638577
-44.004939
-45.776040
-48.236038
-51.570614
-54.301330
-56.205561
-57.967107
-59.679924
-59.517462
-57.007717
-53.986156
-51.644893
-49.010300
-44.446602
-38.094893
-30.868924
-23.566835
-16.584831
-9.324147
-1.781278
5.642792
12.161710
17.779933
21.949656
25.016443
27.669828
30.969114
34.595172
38.533033
42.087431
45.517935
49.277760
53.729985
58.241131
62.180267
65.834034
68.693801
70.569748
71.031910
69.739502
67.153062
63.344252
58.355112
52.900337
47.141721
41.604456
36.769784
32.548209
29.009161
26.076840
23.195158
20.460302
17.246752
14.472403
12.418481
10.222512
7.730665
5.605401
5.154767
5.847835
7.373760
9.633807
11.569949
13.077082
13.599758
12.981278
11.570710
9.708520
7.141509
3.729858
0.030608
-3.719918
-7.659947
-12.052552
-16.909837
-21.735910
-25.896653
-29.352894
-32.182024
-34.492649
-35.993988
-36.837641
-37.342419
-37.144924
-35.973480
-34.459022
-33.133429
-32.047978
-30.758693
-29.623240
-28.422814
-27.492150
-26.729332
-25.739747
-24.123371
-22.247106
-20.555885
-19.242076
-18.133694
-17.105890
-16.121083
-15.476744
-15.139112
-14.415149
-13.310908
-11.509170
-9.644689
-7.848365
-5.602649
-3.086216
-0.584752
1.664467
4.108921
6.842566
9.646597
13.166279
16.379890
18.275265
18.440593
17.686436
16.078721
14.312716
12.471865
10.396924
7.912720
5.629166
3.286691
1.142636
-0.957148
-2.846409
-3.789113
-4.157259
-3.638723
-2.983874
-3.127801
-4.011584
-5.348263
-6.112930
-6.169272
-5.404224
-3.607900
-1.143381
1.975638
5.500098
9.359610
13.009555
16.106599
18.827822
21.497450
23.573091
24.192588
23.399575
21.884860
20.504548
19.604522
18.267206
15.740006
12.348420
9.058432
6.825519
5.084674
3.009095
0.639230
-2.426858
-5.523839
-8.824655
-12.367525
-16.837843
-22.018078
-27.517760
-32.856286
-37.907214
-43.055281
-47.466359
-51.441104
-54.549551
-56.828009
-58.544011
-58.996557
-57.714597
-55.103571
-51.968309
-48.544811
-44.651220
-40.302186
-36.007614
-32.599086
-30.373435
-29.124280
-29.513446
-31.773113
-35.258973
-39.074153
-43.101449
-46.732859
-49.569952
-52.067532
-54.405230
-56.798663
-59.422048
-62.213914
-64.901316
-66.781978
-67.135154
-66.169138
-64.091904
-61.955113
-59.849215
-57.643630
-54.866989
-51.019261
-46.570220
-42.469291
-38.543851
-33.882058
-28.944133
-24.608475
-20.812980
-16.914293
-12.990127
-8.752883
-4.567872
-1.091823
1.557102
3.411073
4.409894
4.967604
6.047321
8.148760
11.134968
14.808163
19.175988
23.494447
27.145666
29.850328
31.493139
32.038746
31.409756
29.476543
26.798696
23.381631
20.198019
17.857774
15.681233
13.016763
9.896532
6.616418
3.345221
0.622467
-2.347436
-6.046685
-10.394702
-14.171663
-16.182270
-15.450664
-11.772373
-7.018536
-1.743010
5.059365
12.338204
18.684499
23.393110
26.343966
27.350749
25.576463
21.305521
15.884188
9.105443
1.630157
-4.839969
-9.325892
-12.799013
-15.750125
-17.518997
-17.077536
-14.089735
-9.800578
-5.891062
-2.586362
0.505904
3.093680
4.889367
5.690085
6.529979
8.125971
9.529276
9.672629
8.911783
7.888182
6.914903
5.675046
3.652336
0.988822
-1.833301
-5.533506
-9.668452
-13.436495
-16.835407
-20.693265
-25.620299
-31.225402
-36.800567
-41.548291
-45.345636
-48.107882
-49.396469
-49.437841
-47.937715
-45.022849
-40.764266
-34.740603
-27.054414
-18.184391
-8.708279
0.546482
8.519951
15.421695
21.727542
27.281748
31.370893
33.675211
34.702059
35.118677
35.645493
36.684444
37.971818
38.637178
39.214634
40.910633
43.098702
44.811899
45.913911
46.813999
47.974932
50.024775
52.423367
54.342628
55.323295
55.395942
54.353868
52.121592
48.613756
43.515054
