EVENT_NAME: 202302060117
EVENT_ID: 13194
EVENT_DATE_YYYYMMDD: 2023/02/06
EVENT_TIME_HHMMSS: 01:17:32.00000
EVENT_LATITUDE_DEGREE: 37.288
EVENT_LONGITUDE_DEGREE: 37.043
EVENT_DEPTH_KM: 8.6
HYPOCENTER_REFERENCE: AFAD
MAGNITUDE_W: 7.7
MAGNITUDE_W_REFERENCE: AFAD
MAGNITUDE_L: 
MAGNITUDE_L_REFERENCE: 
FOCAL_MECHANISM: 
NETWORK: TK
STATION_CODE: 4619
STATION_NAME: 
STATION_LATITUDE_DEGREE: 37.58702
STATION_LONGITUDE_DEGREE: 36.86616
STATION_ELEVATION_M: 633.0
LOCATION: Kahramanmaras_Pazarck_Turkiye
SENSOR_DEPTH_M: 
VS30_M/S: 545
SITE_CLASSIFICATION_EC8: B
MORPHOLOGIC_CLASSIFICATION: 
EPICENTRAL_DISTANCE_KM: 36.73
EARTHQUAKE_BACKAZIMUTH_DEGREE: 
DATE_TIME_FIRST_SAMPLE_YYYYMMDD_HHMMSS: 2023/02/06 01:17:08.5005960
DATE_TIME_FIRST_SAMPLE_PRECISION: millisecond
SAMPLING_INTERVAL_S: 0.01
NDATA: 2267
DURATION_S: 
STREAM: HNE
UNITS: cm/s^2
INSTRUMENT: sensor = GMS+/GEOSIG | digitizer = 
INSTRUMENT_ANALOG/DIGITAL: 
INSTRUMENTAL_FREQUENCY_HZ: 
INSTRUMENTAL_DAMPING: 
FULL_SCALE_G: 
N_BIT_DIGITAL_CONVERTER: 
PGA_CM/S^2: 0.019
TIME_PGA_S: 
BASELINE_CORRECTION: BASELINE REMOVED
FILTER_TYPE: BUTTERWORTH
FILTER_ORDER: 
LOW_CUT_FREQUENCY_HZ: 
HIGH_CUT_FREQUENCY_HZ: 
LATE/NORMAL_TRIGGERED: 
DATABASE_VERSION: 
HEADER_FORMAT: DYNA 1.2
DATA_TYPE: Acceleration
PROCESSING: Automatic Paolucci et al., 2011
DATA_TIMESTAMP_YYYYMMDD_HHMMSS: 
DATA_LICENSE: U (unknown license)
DATA_CITATION: Turkish Accelerometric Archive v 1.0 - Disaster And Emergency Management Presidency, Earthquake Department
DATA_CREATOR: AFAD
ORIGINAL_DATA_MEDIATOR_CITATION: : AFAD - Disaster And Emergency Management Presidency
ORIGINAL_DATA_MEDIATOR: AFAD PROCESS SERVICE
ORIGINAL_DATA_CREATOR_CITATION: AFAD PROCESS SERVICE
ORIGINAL_DATA_CREATOR: network: TK
USER1: GuestUser
USER2: 
USER3: 
USER4: 
USER5: 
0.005680
0.008538
-0.005489
-0.006528
0.002823
0.006720
-0.000813
-0.007307
-0.000033
0.008539
0.002305
-0.008865
-0.000552
0.008799
-0.000812
-0.005747
0.000228
0.005423
0.003345
-0.007305
-0.001850
0.007242
0.001008
-0.004447
-0.003408
0.006723
0.003346
-0.006265
-0.003147
0.003866
0.005945
-0.006004
-0.005745
0.004646
0.006725
-0.003146
-0.008082
0.004647
0.004907
-0.001068
-0.004704
-0.001587
0.004128
0.000751
-0.005223
-0.001067
0.008025
-0.000807
-0.005222
0.000233
0.002571
0.000233
-0.003923
-0.001585
0.001792
0.001792
-0.006520
-0.001584
0.004910
-0.000545
-0.005480
-0.003142
0.006989
-0.002363
-0.005480
-0.001583
0.003093
0.005691
-0.009635
-0.001323
0.006730
-0.000023
-0.005478
-0.003400
0.009329
0.000756
-0.005997
-0.000282
0.003095
0.001796
-0.005737
-0.002360
0.004914
0.003355
-0.007555
-0.002359
0.005954
0.001278
-0.003398
-0.006255
0.005694
0.002318
-0.005735
-0.003397
0.001539
0.006734
-0.005994
-0.006514
0.005176
0.002059
-0.005214
-0.003655
0.003099
0.003618
-0.002616
-0.004694
0.002839
0.004398
-0.001836
-0.006252
0.002840
0.004399
-0.002615
-0.000017
-0.000017
0.002841
-0.001315
-0.001835
-0.000276
0.000763
0.005439
-0.007289
-0.002613
0.005959
-0.000535
-0.000534
0.001024
0.000245
-0.000534
0.001025
-0.002612
0.001804
0.003363
-0.004170
-0.001312
0.003623
-0.000273
-0.004689
0.001026
0.002845
0.000247
-0.003130
0.000247
0.003625
-0.000791
0.001027
-0.002869
0.001547
0.005444
-0.002869
-0.002089
0.002327
0.000509
-0.003907
0.000249
0.003107
0.002588
-0.003647
-0.003647
0.004926
0.004147
-0.001048
-0.008322
0.002069
0.008304
-0.001827
-0.003126
0.000771
0.004408
-0.001047
-0.003125
0.000512
0.002590
-0.001566
-0.003644
0.001032
-0.000526
0.003370
-0.000007
-0.004423
0.004150
0.001293
-0.005721
-0.001824
0.002852
0.001553
-0.005460
0.001553
0.006749
-0.003382
0.002333
-0.003122
0.001035
0.006750
-0.008576
0.001295
0.002074
0.001035
-0.001302
-0.004419
0.005192
-0.000523
-0.001821
-0.001302
-0.000262
0.003634
-0.000522
-0.007795
0.001037
0.006752
-0.001820
-0.001820
-0.000781
0.005194
-0.000261
-0.004677
-0.000780
0.003377
0.005455
-0.006494
-0.002078
0.006235
0.002598
-0.005714
-0.002597
0.004677
0.001819
-0.001038
-0.005194
0.005716
0.002599
-0.005453
-0.003635
-0.000517
0.008055
-0.003115
-0.006492
0.002860
0.005978
-0.000257
-0.005971
0.001042
0.004939
-0.000516
-0.007010
0.000523
0.005979
0.004161
-0.005710
-0.003632
0.007278
0.001564
-0.002593
-0.007268
0.005720
0.007019
-0.009086
-0.002852
0.004942
0.007799
-0.007787
-0.009345
0.006241
0.007021
-0.003370
-0.010903
0.006501
0.008840
-0.002330
-0.010383
-0.002070
0.016373
-0.003629
-0.011421
0.003126
0.008321
0.000269
-0.012460
0.001048
0.009880
0.004426
-0.009082
-0.004666
0.013258
0.002088
-0.010121
-0.004665
0.009362
0.005206
-0.009081
-0.006223
0.003648
0.009363
-0.004664
-0.011418
0.006506
0.008844
-0.006482
-0.007001
0.003389
0.011442
-0.002845
-0.014015
0.004429
0.011703
-0.002065
-0.014533
0.002092
0.011963
0.000274
-0.007519
-0.004142
0.011704
0.003392
-0.009077
-0.006219
0.008328
0.010146
-0.012453
-0.007258
0.010666
0.008329
-0.010894
-0.009076
0.010927
0.007550
-0.004659
-0.009595
0.004953
0.010927
-0.005698
-0.011153
0.002615
0.009629
-0.002060
-0.009593
-0.000241
0.011448
0.000019
-0.011671
-0.003098
0.014047
0.005994
-0.018164
-0.004396
0.012748
0.004176
-0.011670
-0.008033
0.011190
0.008333
-0.010370
-0.012708
0.009373
0.011711
-0.005434
-0.012707
0.001320
0.013789
-0.005173
-0.010109
0.003399
0.014050
0.002620
-0.018681
-0.003614
0.016388
0.005998
-0.016342
-0.006730
0.014051
0.008077
-0.007769
-0.014003
0.013013
0.015091
-0.014782
-0.008807
0.008337
0.010676
-0.005430
-0.014262
0.005481
0.013014
-0.002052
-0.012962
0.001325
0.015612
-0.002052
-0.013481
0.000806
0.012756
0.004443
-0.013481
-0.006467
0.012756
0.008600
-0.011402
-0.007505
0.012497
0.003925
-0.009583
-0.005426
0.007822
0.008861
-0.006205
-0.011141
0.002108
0.014057
-0.003087
-0.008023
0.004706
0.004966
0.001070
-0.010620
-0.004126
0.012500
0.006785
-0.008801
-0.007502
0.010942
0.006786
-0.012177
-0.006202
0.006526
0.009644
-0.001526
-0.010618
0.004968
0.010683
-0.001266
-0.012955
-0.004383
0.013801
0.001852
-0.011136
-0.002823
0.012763
0.006788
-0.012954
-0.008018
0.010166
0.009387
-0.012434
-0.006459
0.011205
0.007309
-0.009056
-0.015031
0.013025
0.009388
-0.008796
-0.005159
0.000297
0.013805
-0.005418
-0.013211
0.005492
0.009909
0.002376
-0.013470
-0.000482
0.012247
0.003156
-0.009053
-0.007235
0.011469
0.007572
-0.008014
-0.010092
0.004975
0.010430
-0.003857
-0.010091
0.002118
0.010691
0.000040
-0.010870
-0.003856
0.013029
0.000820
-0.010609
-0.004115
0.005756
0.008874
-0.012167
-0.006192
0.010173
0.007316
-0.007751
-0.012167
0.010433
0.007576
-0.006451
-0.008789
0.003161
0.011733
-0.004632
-0.009568
0.001862
0.012513
-0.001514
-0.015022
0.000564
0.013033
0.001863
-0.008787
-0.004631
0.007579
0.009137
-0.011124
-0.007747
0.008878
0.007839
-0.004370
-0.010864
0.006541
0.007320
-0.002031
-0.008525
-0.004109
0.012776
-0.000472
-0.011902
0.000827
0.012777
0.002386
-0.011381
-0.004367
0.008361
0.007842
-0.011381
-0.008783
0.008881
0.010440
-0.005146
-0.013458
0.005245
0.011740
-0.004366
-0.011120
0.000570
0.009143
0.001610
-0.011638
-0.006183
0.014598
0.007585
-0.011378
-0.005663
0.009404
0.008884
-0.006442
-0.010858
0.007326
0.010963
-0.007221
-0.009299
0.004469
0.008106
-0.002804
-0.008519
-0.002024
0.010185
0.003171
-0.011635
-0.000985
0.008627
0.004990
-0.008517
-0.009296
0.011485
0.006809
-0.006439
-0.007477
0.001095
0.010707
-0.004620
-0.010075
0.001096
0.007850
0.001875
-0.010853
0.000577
0.012526
0.001616
-0.010593
-0.004878
0.010968
0.005254
-0.008514
-0.004877
0.005774
0.007332
-0.005136
-0.008513
0.004475
0.011749
-0.001759
-0.013968
0.003697
0.011750
-0.004875
-0.010590
0.000320
0.010451
0.002918
-0.008252
-0.004874
0.008893
0.009933
-0.009550
-0.010329
0.007855
0.006816
-0.007731
-0.008510
0.003699
0.010194
-0.002015
-0.011886
0.001362
0.010714
-0.001755
-0.013704
-0.000196
0.009675
-0.001235
-0.005910
-0.001234
0.007598
0.003442
-0.005650
-0.006169
0.002923
0.008898
-0.005649
-0.007468
0.004742
0.009418
-0.003051
-0.009285
0.003703
0.007600
0.000586
-0.010324
0.003184
0.009679
-0.002011
-0.002790
-0.005647
0.006562
0.006303
-0.009283
-0.006426
0.006563
0.009940
-0.008763
-0.006165
0.006823
0.006044
-0.003567
-0.008503
0.005005
0.005785
-0.000190
-0.010840
-0.000969
0.014618
-0.003826
-0.008501
0.000591
0.007605
0.003448
-0.011618
-0.002266
0.009683
0.002929
-0.006682
-0.007201
0.006826
0.007606
-0.005902
-0.007720
0.002671
0.011763
-0.003563
-0.010837
0.002412
0.010205
0.000594
-0.012914
0.005010
0.007348
-0.002003
-0.005120
-0.004861
0.011245
0.003452
-0.002262
-0.005120
0.001375
0.013064
-0.007197
-0.010574
0.006051
0.009428
-0.004859
-0.009534
0.002155
0.011247
0.000857
-0.012391
-0.001221
0.008131
0.002676
-0.010572
-0.002000
0.008131
0.003715
-0.004077
-0.009792
0.010730
0.008392
-0.007973
-0.008233
0.002158
0.013848
-0.003557
-0.010051
-0.000439
0.009952
0.004497
-0.014466
-0.001737
0.011251
0.003199
-0.009790
-0.006153
0.008914
0.006316
-0.002516
-0.008750
0.000342
0.012032
-0.000697
-0.010568
0.004759
0.010993
-0.000436
-0.008489
-0.006151
0.010994
0.003721
-0.012125
-0.003812
0.008397
0.006059
-0.008747
-0.004851
0.003722
0.006839
-0.002512
-0.012643
0.003723
0.010477
-0.002512
-0.010824
0.001385
0.008659
-0.002511
-0.008226
-0.002251
0.009439
0.003724
-0.007446
-0.003549
0.007102
0.007102
-0.006666
-0.005886
0.006842
0.008141
-0.004068
-0.010042
0.004505
0.011259
-0.002249
-0.008743
0.001129
0.008143
0.002688
-0.010820
-0.007183
0.011520
0.004766
-0.010300
-0.005624
0.007624
0.008664
-0.008481
-0.008741
0.006066
0.006846
-0.000947
-0.008740
-0.002246
0.012302
0.000612
-0.012896
-0.000946
0.011263
0.002431
-0.013414
-0.003543
0.011524
0.005289
-0.007439
-0.006660
0.006848
0.007108
-0.004062
-0.009257
0.002433
0.009707
-0.002762
-0.009776
-0.000164
0.008668
0.001914
-0.007177
-0.006658
0.006331
0.005032
-0.008476
-0.002241
0.007630
0.005033
-0.003539
-0.006916
0.002436
0.008930
-0.005617
-0.008474
0.003995
0.006073
-0.001200
-0.011591
0.004775
0.012048
-0.003537
-0.005875
-0.003277
0.007373
0.004516
-0.009252
-0.004576
0.010491
0.006855
-0.006653
-0.005874
0.001919
0.008933
-0.004315
-0.010029
0.001660
0.007116
0.001661
-0.007691
0.001401
0.006856
-0.000936
-0.003794
0.000882
0.004519
0.001662
-0.006391
-0.008469
0.011014
0.007118
-0.011066
-0.002493
0.007378
0.007118
-0.002233
-0.010286
0.001664
0.012054
0.000625
-0.009766
-0.004310
0.010756
0.006340
-0.013142
-0.003790
0.008419
0.003743
-0.005089
-0.007946
0.004783
0.008939
-0.005608
-0.010023
0.003485
0.007381
0.001407
-0.009244
-0.003009
0.012837
0.002447
-0.010282
-0.005086
0.011279
0.005045
-0.007943
-0.003527
0.003487
0.009462
-0.002228
-0.006904
0.002968
0.008683
0.000890
-0.012098
0.003488
0.012320
-0.001967
-0.006902
0.000631
0.008944
0.002969
-0.006902
-0.004564
0.005308
0.004269
-0.004823
-0.007161
0.004529
0.008686
-0.006900
-0.003783
0.002452
0.005569
0.002192
-0.010796
0.001673
0.007648
-0.000924
-0.006899
-0.003782
0.008947
0.000635
-0.011834
-0.003002
0.008169
0.002973
-0.005599
-0.007677
0.003493
0.010247
-0.002221
-0.007936
-0.002481
0.009209
0.004274
-0.007935
-0.002220
0.008171
0.002196
-0.008714
0.000898
0.005574
0.003755
-0.005077
-0.004297
0.006353
0.002197
-0.001699
-0.008453
0.003497
0.011550
-0.004556
-0.008712
-0.000399
0.009472
-0.000139
-0.009491
0.001160
0.007914
0.001680
-0.005074
-0.002736
0.003499
0.005577
-0.004034
-0.004813
0.006876
0.004019
-0.003514
-0.003774
0.003760
0.007656
-0.003513
-0.006371
0.004540
0.006618
-0.001435
-0.005591
0.001163
0.005060
0.000384
-0.005590
-0.002213
0.007139
0.000385
-0.002732
0.000385
-0.000654
0.001684
-0.001173
-0.003511
0.001685
0.004023
-0.003510
-0.002211
0.000906
-0.000912
0.000907
-0.001691
0.001686
0.000907
0.000647
-0.001431
-0.003509
0.004544
-0.000651
-0.000651
0.001947
-0.001689
0.002727
-0.000650
-0.002208
-0.000130
-0.001948
0.002468
-0.001948
0.000130
0.004027
-0.004026
0.002209
-0.000908
-0.002986
0.002209
-0.000908
0.000391
-0.001427
0.001690
-0.000907
-0.003764
0.000392
0.001951
0.004808
-0.005063
-0.001945
0.005588
-0.003244
-0.003503
0.001432
0.004809
-0.000645
-0.002723
0.002212
0.002472
-0.001684
-0.003762
0.002473
0.002992
-0.000384
-0.003501
0.001174
0.003513
-0.005060
-0.003761
0.002734
0.004552
-0.003500
-0.002981
0.001955
0.000916
-0.004539
-0.004798
0.007930
0.004813
-0.005837
-0.002979
0.004554
0.002736
-0.006096
-0.004018
0.006893
0.002217
-0.008433
0.002737
0.007153
-0.004536
-0.008173
0.001439
0.010531
-0.000639
-0.009212
0.000660
0.009232
-0.002717
-0.007912
0.005336
0.005856
0.000921
-0.009210
0.001181
0.012611
-0.006093
-0.009210
0.003779
0.007676
-0.007131
-0.007131
0.010274
0.003260
-0.009728
-0.006870
0.007417
0.005079
-0.010507
-0.004272
0.010795
0.001183
-0.012584
-0.000895
0.011055
-0.000375
-0.011804
0.006639
0.013913
-0.006868
-0.012063
0.002224
0.011836
-0.003750
-0.007647
0.007939
0.004043
-0.009724
-0.006607
0.011317
0.005343
-0.011802
-0.005827
0.010798
0.004824
-0.010243
0.000668
0.007422
-0.004787
-0.009723
0.006643
0.009501
-0.007644
-0.005825
0.004565
0.008982
-0.004786
-0.007643
0.010281
0.003527
-0.007643
-0.002447
0.006905
0.001450
-0.008421
0.000930
0.005347
-0.001667
-0.003225
0.001191
0.001451
-0.003485
-0.002965
0.002750
-0.001666
-0.002445
0.004049
0.002231
-0.000107
-0.002185
0.001452
0.002232
0.000154
0.000933
-0.000365
0.003791
-0.004262
-0.000884
0.009247
-0.003222
-0.000884
0.004571
-0.003222
-0.002442
0.002753
0.000935
-0.001662
0.000676
-0.001662
-0.000623
0.003534
-0.004519
-0.002700
0.002755
-0.003999
0.000677
0.003794
-0.000102
-0.000102
0.001457
0.000418
-0.003478
0.001717
0.004055
0.006134
-0.001659
-0.009712
0.000939
0.000419
-0.000100
0.004576
0.005096
-0.002178
-0.003996
0.000420
0.003018
0.004057
-0.003995
0.001979
0.003798
-0.003735
-0.002956
0.004838
0.004838
-0.008670
0.002240
0.003280
-0.004513
0.002501
-0.002435
0.000423
0.001982
-0.002694
0.002501
0.004580
-0.001914
-0.001914
0.002502
-0.000355
-0.001654
-0.001394
0.001723
0.001464
0.001204
0.001204
-0.001393
0.001205
-0.003991
-0.001393
0.006660
-0.000613
-0.002172
-0.003990
-0.005029
0.001725
-0.001651
0.003544
0.005882
-0.005288
-0.001651
0.000427
0.004064
0.002246
-0.001390
0.000428
-0.007105
0.001208
0.002507
-0.000610
0.000169
-0.005026
0.001988
0.003287
-0.002428
-0.001389
0.009262
-0.001908
-0.008921
0.005626
-0.003206
0.000171
0.005626
-0.000348
0.001730
-0.001127
-0.004504
-0.001387
0.004588
0.000172
-0.001646
0.004069
-0.002165
-0.007361
0.005888
0.004589
-0.007620
0.001992
-0.000086
-0.003463
0.003031
-0.000605
0.001213
0.000694
-0.003722
-0.002683
0.004331
0.003552
-0.003202
-0.000864
-0.002162
-0.002682
0.002514
0.000176
-0.004240
0.006930
0.003813
-0.009435
0.001216
0.003294
-0.001641
-0.001381
0.000177
0.003814
0.001217
-0.001381
-0.000861
0.002256
-0.001640
-0.003978
0.002257
0.000179
-0.002159
0.001997
0.002257
-0.002159
-0.001639
-0.000080
0.003817
-0.000859
-0.004755
0.003557
-0.000859
-0.001638
-0.001118
0.000441
0.002779
-0.002157
-0.000338
-0.002936
-0.002935
0.000182
0.000702
-0.001896
0.000442
0.000183
-0.001116
0.003820
-0.003714
0.001742
-0.000596
-0.003713
0.004600
-0.002154
-0.001634
0.002262
0.002262
-0.004751
0.000704
0.002523
-0.002413
0.002523
-0.005270
0.000445
0.003822
-0.002152
-0.000334
-0.000334
0.000186
-0.003970
0.002524
0.005902
-0.004749
0.002525
0.005382
-0.003449
-0.000072
-0.001371
0.000448
0.002266
-0.003189
-0.000331
0.002007
0.003306
-0.002409
-0.001110
0.005384
-0.005786
-0.005785
0.005645
0.000969
-0.005265
0.002788
-0.000329
-0.001628
0.002528
-0.003966
0.003827
0.002009
-0.005264
0.000971
0.000971
-0.004484
0.001231
0.005127
-0.008640
-0.002146
0.005907
-0.005522
-0.000846
0.004349
-0.005262
0.000972
0.004350
-0.004223
0.001492
-0.002664
-0.001105
0.006688
-0.004741
-0.002663
0.006429
-0.003702
-0.005001
0.006949
0.000195
-0.003182
0.003053
-0.000064
-0.002921
-0.000064
-0.000064
-0.000323
0.004353
-0.004999
-0.001362
0.007470
-0.004739
-0.002400
0.002016
0.000977
-0.002140
-0.000322
0.002796
-0.003958
0.003056
0.002017
-0.000581
0.000978
-0.003438
0.003316
0.004615
-0.004736
-0.004476
0.004876
-0.001099
-0.002138
0.002538
-0.002657
-0.001098
0.001759
-0.000319
-0.000059
0.004617
-0.002656
-0.002136
0.004358
-0.003175
-0.001357
0.000722
-0.000317
-0.002136
-0.001616
0.001761
-0.002655
0.001502
0.003320
-0.003174
-0.000836
0.000723
-0.000316
-0.001614
0.000204
0.002282
-0.003432
0.001503
0.001504
-0.004990
0.002803
0.000205
-0.001873
0.002284
-0.002652
0.001505
0.002284
-0.003431
-0.001872
0.002285
0.003064
-0.002391
0.000207
0.001246
-0.002131
-0.002130
-0.000052
0.000208
-0.000571
0.001247
-0.002130
0.001507
-0.001350
-0.002649
0.005924
-0.003947
-0.003687
0.003067
0.002807
-0.000310
-0.002648
0.004626
-0.000050
-0.006284
-0.000829
0.003068
0.001510
-0.000309
0.000471
0.004887
-0.000568
-0.006802
0.005147
0.001511
-0.006802
0.002031
0.005667
-0.003164
-0.002645
0.006187
-0.001605
-0.001865
0.000473
0.000213
0.001512
-0.000825
-0.001604
0.001513
0.002552
-0.004981
0.003851
0.004111
-0.004461
0.000475
0.002293
0.000995
-0.003681
-0.001603
0.002294
0.003333
-0.003161
-0.004200
0.004373
-0.001602
-0.002900
0.003334
0.004114
-0.002380
-0.001861
0.005413
-0.002640
-0.003419
0.003855
-0.001860
0.000478
0.002816
-0.004717
0.006973
0.002037
-0.004976
0.007493
-0.000820
-0.001599
0.000220
-0.000300
0.004376
-0.001079
-0.002897
0.002818
0.005676
-0.004195
-0.002117
0.007754
0.000221
-0.004454
0.001520
0.001521
-0.001856
0.000482
0.002560
0.000742
-0.001336
-0.000037
0.001262
-0.002634
-0.000037
0.003600
-0.000296
0.001523
-0.000555
-0.001854
0.002562
0.002562
-0.000815
-0.002893
0.006459
0.001004
-0.005230
0.009317
-0.000554
-0.006009
0.006980
-0.000553
-0.004190
0.002304
0.000226
-0.000553
0.001526
-0.000293
-0.000293
0.003344
0.000487
-0.002890
0.003345
0.001527
-0.006006
0.003345
0.003086
-0.003668
0.002566
0.000229
-0.003148
0.001008
-0.001329
0.001528
0.005425
-0.003927
-0.001848
0.004386
-0.004186
-0.000549
0.006205
-0.002107
-0.001847
0.002309
0.003089
-0.000029
-0.002366
0.003609
0.001271
0.001271
-0.003924
-0.000547
0.006207
-0.006521
0.002571
0.004389
-0.002365
0.000753
-0.001585
-0.000026
-0.000286
0.002312
0.001273
0.000754
-0.002623
-0.004701
0.005949
0.003092
-0.004960
-0.000025
0.002573
-0.002622
-0.000024
0.003353
0.000755
-0.003661
-0.002621
0.004652
-0.000543
-0.004699
0.000756
0.003614
-0.004699
-0.004179
0.007251
-0.000802
-0.003919
0.002316
0.001277
-0.002619
-0.000021
0.001537
-0.002619
-0.001320
-0.003917
0.006214
0.005954
-0.007034
-0.000799
0.004396
0.000240
-0.004436
0.002318
0.001279
-0.003656
-0.005474
0.001540
0.006995
-0.008331
0.001021
0.005956
-0.006512
0.002320
0.005957
-0.003395
-0.001836
0.001282
-0.000277
0.004399
-0.002095
-0.003134
0.000503
-0.002354
-0.000536
0.001543
-0.000016
-0.004432
0.002842
-0.001834
-0.002353
0.002323
-0.003911
0.001024
-0.001054
0.001284
0.001285
-0.002872
0.001804
0.001805
-0.000273
-0.002611
0.001545
0.001805
-0.001312
-0.000792
0.001026
-0.000013
-0.002350
0.000767
-0.000791
-0.000012
-0.001311
-0.000012
0.002846
-0.001830
-0.001830
0.002846
0.002067
-0.006245
0.001288
0.002328
-0.004426
-0.000010
0.002588
0.003627
-0.003127
-0.000529
0.001290
0.000770
-0.000009
-0.004425
0.004407
0.000251
-0.004424
0.004148
0.004148
-0.004943
0.001291
0.003369
-0.005203
0.002850
0.000772
-0.003644
0.002071
-0.001305
-0.003383
0.003890
-0.001825
-0.004162
0.002592
-0.000265
-0.000265
-0.000265
0.000255
-0.004941
0.003372
0.001814
-0.006499
0.005710
-0.001563
-0.003641
-0.002082
-0.000783
0.002334
-0.000783
0.001296
-0.000003
0.001296
-0.001561
0.001036
0.003374
-0.004938
-0.002080
0.002336
-0.000521
0.001037
0.003635
-0.000261
-0.000521
0.002337
-0.001560
-0.000261
0.002337
-0.004417
0.001558
0.006494
-0.004416
0.001299
0.001559
-0.002857
0.003897
0.000261
-0.000778
0.000780
-0.001038
-0.004934
0.001560
0.005976
-0.003375
0.000002
0.001041
-0.001296
0.001821
-0.001556
-0.002075
0.004939
-0.000776
-0.003893
0.004160
-0.004153
-0.000256
0.006498
-0.001295
0.001303
-0.000775
-0.003632
-0.001294
0.002603
0.003382
-0.002073
0.000785
0.000525
0.000006
-0.001293
-0.005709
0.002604
0.002604
-0.003890
0.000526
0.004423
-0.001292
-0.005188
0.003904
0.002605
-0.003889
