EVENT_NAME: 202302060117
EVENT_ID: 13194
EVENT_DATE_YYYYMMDD: 2023/02/06
EVENT_TIME_HHMMSS: 01:17:32.00000
EVENT_LATITUDE_DEGREE: 37.288
EVENT_LONGITUDE_DEGREE: 37.043
EVENT_DEPTH_KM: 8.6
HYPOCENTER_REFERENCE: AFAD
MAGNITUDE_W: 7.7
MAGNITUDE_W_REFERENCE: AFAD
MAGNITUDE_L: 
MAGNITUDE_L_REFERENCE: 
FOCAL_MECHANISM: 
NETWORK: TK
STATION_CODE: 2513
STATION_NAME: 
STATION_LATITUDE_DEGREE: 39.36241
STATION_LONGITUDE_DEGREE: 41.70601
STATION_ELEVATION_M: 1728.0
LOCATION: Kahramanmaras_Pazarck_Turkiye
SENSOR_DEPTH_M: 
VS30_M/S: 303
SITE_CLASSIFICATION_EC8: C
MORPHOLOGIC_CLASSIFICATION: 
EPICENTRAL_DISTANCE_KM: 467.52
EARTHQUAKE_BACKAZIMUTH_DEGREE: 
DATE_TIME_FIRST_SAMPLE_YYYYMMDD_HHMMSS: 2023/02/06 01:18:11.3075900
DATE_TIME_FIRST_SAMPLE_PRECISION: millisecond
SAMPLING_INTERVAL_S: 0.01
NDATA: 24501
DURATION_S: 
STREAM: HNE
UNITS: cm/s^2
INSTRUMENT: sensor = GMS+/GEOSIG | digitizer = 
INSTRUMENT_ANALOG/DIGITAL: 
INSTRUMENTAL_FREQUENCY_HZ: 
INSTRUMENTAL_DAMPING: 
FULL_SCALE_G: 
N_BIT_DIGITAL_CONVERTER: 
PGA_CM/S^2: 7.229
TIME_PGA_S: 
BASELINE_CORRECTION: BASELINE REMOVED
FILTER_TYPE: BUTTERWORTH
FILTER_ORDER: 
LOW_CUT_FREQUENCY_HZ: 
HIGH_CUT_FREQUENCY_HZ: 
LATE/NORMAL_TRIGGERED: 
DATABASE_VERSION: 
HEADER_FORMAT: DYNA 1.2
DATA_TYPE: Acceleration
PROCESSING: Automatic Paolucci et al., 2011
DATA_TIMESTAMP_YYYYMMDD_HHMMSS: 
DATA_LICENSE: U (unknown license)
DATA_CITATION: Turkish Accelerometric Archive v 1.0 - Disaster And Emergency Management Presidency, Earthquake Department
DATA_CREATOR: AFAD
ORIGINAL_DATA_MEDIATOR_CITATION: : AFAD - Disaster And Emergency Management Presidency
ORIGINAL_DATA_MEDIATOR: AFAD PROCESS SERVICE
ORIGINAL_DATA_CREATOR_CITATION: AFAD PROCESS SERVICE
ORIGINAL_DATA_CREATOR: network: TK
USER1: GuestUser
USER2: 
USER3: 
USER4: 
USER5: 
[...]
1.207308
0.818435
0.448006
0.112906
-0.199595
-0.488457
-0.713935
-0.909800
-1.180219
-1.539997
-1.907569
-2.159803
-2.249683
-2.274881
-2.227083
-2.059533
-1.869642
-1.700274
-1.515059
-1.363614
-1.375823
-1.504928
-1.621044
-1.764696
-1.969133
-2.208379
-2.489708
-2.778050
-2.994697
-3.105098
-3.139647
-3.117827
-2.956251
-2.738046
-2.666090
-2.671545
-2.627125
-2.506852
-2.353329
-2.211756
-2.095380
-2.020567
-1.751447
-1.343351
-1.111638
-0.780954
-0.401173
-0.241156
-0.186864
-0.229207
-0.287395
-0.372339
-0.440917
-0.541188
-0.695750
-0.853688
-1.065659
-1.052930
-0.850051
-0.564566
-0.260118
-0.074904
0.076541
0.131612
0.021990
-0.188942
-0.309734
-0.355453
-0.526640
-0.702503
-0.757833
-0.886418
-1.251392
-1.658449
-1.930945
-2.142396
-2.381123
-2.429959
-2.119277
-1.899773
-1.910423
-1.878212
-1.648057
-1.100986
-0.335970
0.475286
1.063660
1.405255
1.541893
1.241341
0.652188
0.197334
0.017055
-0.091008
-0.383507
-0.770041
-0.943566
-0.858622
-0.556512
-0.111270
0.240196
0.402032
0.459181
0.392680
0.172137
-0.036196
-0.182186
-0.263234
-0.374414
-0.655483
-0.744064
-0.330253
0.343844
0.923127
1.340314
1.554363
1.402918
1.126785
1.067818
1.225497
1.392788
1.357979
1.165491
0.884941
0.663619
0.614783
0.610627
0.710118
0.972224
1.138735
0.987031
0.711936
0.471391
0.196037
-0.030480
-0.164780
-0.301158
-0.467410
-0.607165
-0.704318
-0.867712
-1.114491
-1.231647
-1.249830
-1.178914
-0.957332
-0.831864
-0.719644
-0.492607
-0.369217
-0.363502
-0.326615
-0.197250
-0.019569
0.004330
-0.141660
-0.282194
-0.506114
-0.597293
-0.377789
-0.182443
0.017059
0.241238
0.302803
0.149540
-0.220109
-0.610541
-1.027988
-1.488296
-1.727023
-1.774301
-1.623895
-1.056302
-0.202445
0.463600
0.807013
0.980538
0.854291
0.616604
0.563871
0.702067
0.917675
1.018465
1.123151
1.208875
1.248100
1.390453
1.555665
1.595150
1.546054
1.621387
1.785040
1.986361
2.305096
2.710074
3.081542
3.236104
3.204153
2.977895
2.466672
1.957267
1.407598
0.594265
-0.206600
-0.651322
-0.670026
-0.659115
-0.709510
-0.591056
-0.367396
-0.095938
0.136034
0.304364
0.477370
0.737138
0.954563
0.801560
0.349044
0.021477
-0.113342
-0.213613
-0.191532
-0.187376
-0.266865
-0.313623
-0.356485
-0.396489
-0.570534
-0.718601
-0.710808
-0.754969
-0.865370
-1.073964
-1.470110
-1.996399
-2.399559
-2.621401
-2.753882
-2.743751
-2.500089
-2.159533
-1.848591
-1.357110
-0.858875
-0.387396
0.241502
0.895078
1.448124
1.706333
1.731271
1.615155
1.433577
1.371752
1.276677
1.029119
0.826500
0.741815
0.509323
-0.083987
-0.796270
-1.302818
-1.636100
-1.981591
-2.309418
-2.428132
-2.492814
-2.542950
-2.386569
-2.160052
-1.969122
-1.818457
-1.648828
-1.557130
-1.652205
-1.776374
-1.853785
-1.813781
-1.748319
-1.669869
-1.417375
-1.069286
-0.724573
-0.526111
-0.437790
-0.172047
0.185654
0.292678
0.177341
0.058108
-0.128665
-0.605599
-1.316584
-1.859759
-2.142386
-2.395920
-2.664000
-2.864021
-3.016765
-3.287963
-3.606178
-3.736322
-3.498634
-2.933639
-2.378515
-1.899762
-1.432180
-0.976287
-0.658851
-0.537020
-0.398563
-0.323490
-0.445841
-0.668722
-0.817829
-0.969533
-1.232158
-1.396851
-1.471145
-1.406463
-1.160462
-0.953167
-0.847182
-0.812893
-0.798605
-0.785097
-0.652616
-0.454673
-0.537798
-0.925112
-1.372692
-1.678699
-1.944441
-2.215119
-2.240577
-2.048608
-1.839755
-1.751953
-1.598950
-1.129809
-0.571308
-0.083983
0.323593
0.732727
1.168358
1.445011
1.432802
1.207583
1.118223
1.189919
1.260057
1.255641
1.282137
1.438777
1.467092
1.312270
1.084194
0.917943
0.785721
0.734027
0.791695
0.761822
0.780006
0.863392
0.897161
0.791436
0.576608
0.410616
0.160979
-0.188409
-0.440124
-0.561955
-0.675213
-0.755741
-0.726647
-0.713139
-0.692618
-0.602738
-0.515456
-0.451553
-0.273352
0.134224
0.475039
0.671684
0.934309
1.215378
1.335910
1.262916
1.098483
0.712468
0.222545
-0.079045
-0.339852
-0.577540
-0.579098
-0.451033
-0.424017
-0.419341
-0.302186
-0.200616
-0.189186
-0.242179
-0.307121
-0.391286
-0.633649
-0.881208
-1.015248
-1.220465
-1.537901
-1.635054
-1.458152
-1.234752
-0.829254
-0.425834
-0.101904
0.283332
0.537125
0.695584
0.858718
1.026788
1.195118
1.353576
1.451769
1.506580
1.491773
1.226030
0.759227
0.162281
-0.387648
-0.770026
-1.033691
-1.140195
-1.306966
-1.516599
-1.618168
-1.607518
-1.392949
-1.194227
-1.073694
-0.902248
-0.992387
-1.480491
-1.936384
-2.047824
-2.034576
-2.044966
-1.905471
-1.802083
-1.914303
-2.103154
-2.292265
-2.300838
-2.210438
-2.081593
-1.769612
-1.455812
-1.144610
-0.774701
-0.470253
-0.327640
-0.220616
-0.068132
0.010318
0.209300
0.507254
0.836900
1.255646
1.499048
1.499308
1.349422
1.119787
0.844433
0.461536
-0.066832
-0.626113
-1.077070
-1.407495
-1.715319
-2.077696
-2.416693
-2.609441
-2.663732
-2.776471
-2.972856
-3.155732
-3.320685
-3.544345
-3.746185
-3.766706
-3.720468
-3.516550
-3.101960
-2.679577
-2.262910
-1.723112
-0.972902
-0.208405
0.405946
0.964447
1.478009
1.847399
1.985595
1.896755
1.807654
1.920913
2.090022
2.228219
2.405380
2.529550
2.336802
1.792069
1.282923
0.995620
0.808068
0.556093
0.363865
0.298403
0.211381
0.266192
0.409324
0.476864
0.463096
0.407506
0.445432
0.578174
0.728060
0.840799
0.935874
0.913794
0.788066
0.716111
0.568822
0.318406
0.030324
-0.272306
-0.517007
-0.720925
-0.735992
-0.618317
-0.615459
-0.586365
-0.461417
-0.502720
-0.803791
-1.152140
-1.445937
-1.656609
-1.675832
-1.414245
-0.961989
-0.531554
-0.139564
0.279961
0.706241
1.186292
1.696996
1.912863
1.883249
1.921175
1.983779
1.940658
1.827659
1.789473
1.657251
1.321112
0.965749
0.738193
0.681303
0.677407
0.719489
0.728581
0.639741
0.560771
0.469853
0.375297
0.264376
0.109814
-0.029681
-0.068646
0.018896
-0.011497
-0.211518
-0.347377
-0.355430
-0.205024
0.030066
0.323084
0.682343
0.983674
1.240325
1.418266
1.518017
1.641407
1.810776
1.947154
1.995730
2.080675
2.072102
1.739599
1.223181
0.663121
0.039159
-0.544800
-1.013421
-1.352678
-1.465157
-1.374238
-1.010823
-0.478039
-0.080074
0.286458
0.743130
1.063164
1.083946
0.942632
0.736896
0.405172
-0.084490
-0.574932
-0.954972
-1.261758
-1.513993
-1.723885
-1.715832
-1.489834
-1.187724
-0.963804
-0.947698
-0.959128
-0.968220
-1.055762
-1.252926
-1.459441
-1.677906
-1.991446
-2.127564
-1.998200
-1.822077
-1.553217
-1.071088
-0.688709
-0.477258
-0.200605
0.158394
0.369585
0.238403
0.119429
0.232688
0.475051
0.846779
1.185517
1.315920
1.213052
1.002640
0.740015
0.392705
0.198399
0.121508
-0.161639
-0.570254
-0.780147
-0.890548
-1.177851
-1.509055
-1.702842
-1.663357
-1.648551
-1.758432
-1.692711
-1.579972
-1.437619
-1.290850
-1.258898
-1.185904
-1.034459
-0.911069
-0.918602
-0.907952
-0.799369
-0.633896
-0.421666
-0.183978
0.151642
0.439465
0.622082
0.711961
0.643383
0.556620
0.450116
0.298411
0.162812
0.078128
0.102546
0.169826
0.258667
0.352183
0.369328
0.284644
0.294515
0.433491
0.319972
-0.006296
-0.363737
-0.731568
-1.054460
-1.306694
-1.553733
-2.019757
-2.563451
-2.871536
-2.984275
-3.115977
-3.038567
-2.586311
-1.974817
-1.277080
-0.624283
0.017343
0.584157
1.018229
1.308650
1.204223
0.895879
0.608835
0.359978
0.132421
-0.125269
-0.188132
-0.104487
-0.058768
-0.071237
-0.068120
0.256331
0.721056
0.928091
0.886008
0.742616
0.660530
0.703132
0.690403
0.413491
-0.213849
-1.051081
-1.642572
-1.924161
-2.056642
-2.016898
-1.936110
-1.767001
-1.399429
-0.952109
-0.642725
-0.445302
0.034490
0.649361
1.046546
1.310470
1.601930
1.822213
1.672846
1.273064
0.856136
0.660791
0.645205
0.598706
0.491682
0.239707
-0.055649
-0.374644
-0.387632
-0.169167
-0.039024
0.351148
0.875359
1.313328
1.478021
1.542703
1.800133
1.612581
0.958485
0.530128
0.328548
0.015788
-0.255150
-0.383216
-0.529725
-0.537258
-0.327365
0.138658
0.735086
1.154871
1.534132
1.704280
1.454383
1.173314
0.995893
0.747555
0.408558
0.168013
0.052416
-0.187610
-0.580898
-0.943794
-1.229798
-1.513205
-1.628802
-1.254476
-0.710003
-0.352302
-0.036165
0.274258
0.610917
0.924717
1.183186
1.419575
1.603491
1.667134
1.440876
0.931471
0.373490
-0.039541
-0.295932
-0.373083
-0.376460
-0.484523
-0.629474
-0.684804
-0.493615
-0.097988
0.312705
0.743140
1.077721
1.309175
1.506858
1.428408
1.093567
0.640272
-0.004991
-0.637266
-0.930025
-0.926907
-0.868979
-0.943792
-0.997564
-0.834170
-0.665581
-0.463741
-0.227872
-0.100066
0.150091
0.602607
1.093308
1.436462
1.499585
1.451528
1.572061
1.885081
2.285124
2.445401
2.226416
2.131601
2.351625
2.620484
2.745952
2.703350
2.525929
2.112119
1.526602
0.922382
0.292964
-0.250730
-0.577518
-0.838585
-1.024838
-0.909501
-0.557776
-0.315932
-0.324504
-0.297748
-0.169422
-0.092271
-0.020056
0.022546
-0.044214
-0.166824
-0.345025
-0.502444
-0.398277
0.025664
0.584944
0.783667
0.551434
0.323358
0.176589
0.014494
-0.254885
-0.392562
-0.327620
-0.358013
-0.536214
-0.855728
-1.213948
-1.640747
-2.019229
-2.240811
-2.378488
-2.169634
-1.699194
-1.113158
-0.537512
-0.227609
-0.159550
-0.413083
-0.753639
-0.834167
-0.817282
-0.844038
-0.691035
-0.361129
-0.204489
-0.213581
-0.193319
0.031640
0.395835
0.644952
1.019018
1.669996
2.190571
2.245902
1.814687
1.290476
0.948102
0.612222
0.331672
0.355311
0.461816
0.318424
0.088530
-0.245012
-0.652328
-0.981454
-1.138873
-0.862480
-0.161886
0.867574
1.880150
2.535284
2.861033
2.861813
2.646465
2.282530
1.892359
1.630513
1.215404
0.519745
-0.287873
-1.143808
-1.921553
-2.289385
-2.013251
-1.530862
-1.399420
-1.571386
-1.599181
-1.338374
-0.996519
-0.622973
-0.279560
0.074504
0.339467
0.282838
0.018914
-0.109671
-0.015116
-0.146818
-0.252024
0.100481
0.510395
0.774839
0.928621
1.105004
1.334639
1.484525
1.608174
1.811832
2.128490
2.542560
2.862334
2.875063
2.855840
3.018195
3.216917
3.269391
3.178212
3.195357
3.237699
3.133792
2.832201
2.383063
2.024583
1.753905
1.545311
1.444781
1.626619
2.167196
2.654001
2.942084
3.243414
3.590205
3.759054
3.820619
4.005574
3.941411
3.541628
3.149898
2.842593
2.504115
1.937302
1.365033
1.051234
0.889658
0.957717
1.385555
1.948472
2.403586
2.712969
2.905977
3.224972
3.596700
3.763471
3.967908
4.263005
4.333921
3.980377
3.340309
2.781548
2.606465
2.822852
3.263158
3.798540
4.140914
4.218325
4.058308
3.833349
4.002718
4.689804
5.704458
6.418819
6.575200
6.318809
5.515347
4.394708
3.048850
1.666366
0.639243
-0.213055
-0.821692
-1.238099
-1.659183
-1.832968
-1.855048
-1.728022
-1.378374
-0.937028
-0.459315
-0.353070
-0.746878
-1.439939
-2.068837
-2.276391
-2.200799
-1.886220
-1.583590
-1.379153
-1.311873
-1.541767
-1.803613
-2.086760
-2.273793
-2.337177
-2.470957
-2.842685
-3.262470
-3.581724
-4.114508
-4.524162
-4.581052
-4.391681
-4.137628
-3.840193
-3.367416
-3.048421
-2.776184
-2.210669
-1.261996
-0.311246
0.112696
0.053728
-0.461392
-1.271088
-2.134037
-3.118557
-4.039435
-4.552476
-4.724443
-4.765226
-4.498444
-3.643808
-2.360295
-1.101199
-0.292542
0.290377
0.951747
1.219827
1.110725
0.951747
0.775624
0.535339
0.071653
-0.309946
-0.326831
-0.151228
0.060224
0.338955
0.720034
0.925251
1.024482
1.188136
1.182421
1.226062
1.375169
1.499598
1.479076
1.270483
1.122415
1.016430
1.234635
1.751054
2.254224
2.814544
3.567351
4.307950
4.512906
4.261191
3.706847
3.031710
2.383329
1.621170
0.964477
0.608075
0.519495
0.337657
0.144130
0.429875
0.944735
1.360623
1.570776
1.791578
2.080960
2.158631
2.306439
2.580234
2.583611
2.282800
1.938348
1.432320
0.730946
0.199461
0.025417
0.220762
0.495077
0.872001
1.475961
2.192141
2.942351
3.479291
3.827900
3.864527
3.378502
2.695312
1.946401
1.214115
0.823424
0.564696
0.307006
0.187513
0.211671
0.511703
0.844985
1.126054
1.591039
1.986666
2.124602
2.115251
1.911853
1.739367
1.807686
1.812621
1.667931
1.674685
1.914191
1.937310
1.669749
1.345819
1.097481
1.265031
1.572596
1.724820
2.026151
2.581275
3.247840
3.763479
3.889986
3.793093
3.538520
2.923650
2.345406
1.897307
1.391019
1.134368
1.016174
0.896161
0.920579
1.069427
1.295684
1.356990
1.193856
1.199051
1.345820
1.684817
2.417363
2.992229
2.993788
2.641023
2.153958
1.491550
0.763680
0.129847
-0.456709
-0.904549
-1.125871
-1.028718
-0.817787
-0.854933
-0.884287
-0.788433
-0.755442
-0.765053
-0.937799
-1.357064
-1.912708
-2.494069
-3.147385
-3.732382
-3.888503
-3.664323
-3.345068
-3.156996
-2.950221
-2.633823
-2.328336
-1.931930
-1.487987
-1.124831
-0.849997
-0.640364
-0.814928
-1.267184
-1.496559
-1.623845
-1.726194
-1.807761
-1.874261
-1.830101
-1.797110
-1.787758
-1.576048
-1.258351
-0.960398
-0.408650
0.102053
0.342339
0.559245
0.570935
0.422088
0.250901
0.219988
0.291165
0.117640
-0.041858
-0.210187
-0.584513
-0.892857
-0.857529
-0.375659
0.437934
1.347382
2.059405
2.544652
2.870401
3.302655
3.768938
3.811800
3.651523
3.606584
3.779849
4.051566
4.331596
4.709558
5.171166
5.797986
6.276998
6.277777
6.228941
6.372073
6.321159
6.014113
5.838510
5.884749
6.013594
6.221668
6.393894
6.550015
6.797054
6.893168
6.821732
6.540144
5.902154
5.255332
4.719950
4.202233
3.841675
3.731533
3.868431
3.994418
4.190543
4.617862
4.922829
5.319235
5.848902
6.322978
6.859139
7.163068
7.228789
6.971879
6.533650
6.273623
5.931508
5.437949
4.941273
4.683064
4.300426
3.572556
3.022627
2.635054
2.439189
2.477634
2.615312
2.721037
2.537901
2.209554
1.885883
1.520650
1.159572
0.969422
0.960850
0.861359
0.823433
1.065537
1.381414
1.553121
1.722230
2.082268
2.179422
2.044083
1.967711
1.701189
1.284002
0.665494
0.174793
0.106994
0.150115
0.300521
0.628608
1.140350
1.811331
2.614793
3.329155
3.888695
4.197559
4.014163
3.721145
3.430465
3.026786
2.535305
1.942255
1.458567
1.274132
1.329462
1.533380
2.058891
2.783903
3.418516
3.855186
4.177038
4.675273
5.201303
5.545236
5.694083
5.627063
5.317420
4.660986
3.863239
3.056400
2.135263
1.259585
0.697967
0.378712
0.324421
0.631726
0.893313
0.919030
0.598476
0.145441
0.040755
-0.055619
-0.267070
-0.519045
-0.699584
-0.481898
-0.192517
-0.086531
-0.108092
-0.210700
-0.418255
-0.898825
-1.527204
-2.066742
-2.338199
-2.338199
-2.251177
-2.065703
-1.812429
-1.675531
-1.706963
-1.874253
-2.009333
-1.881267
-1.574481
-1.351340
-1.311596
-1.493433
-1.583833
-1.358874
-1.302244
-1.329000
-1.118328
-0.894928
-0.522161
-0.136146
-0.027822
0.040497
-0.115364
-0.679840
-1.194180
-1.409788
-1.573441
-1.834508
-2.205457
-2.490162
-2.291959
-2.053752
-1.967249
-1.581494
-1.158072
-0.951556
-1.089233
-1.430049
-1.575519
-1.418879
-1.084038
-0.785824
-0.351752
0.054265
0.238441
0.461841
0.606792
0.724986
0.927346
1.070737
1.095415
1.065542
1.021382
0.840843
0.877730
1.151785
1.135160
1.086584
1.282189
1.541697
1.638850
1.262966
0.524706
-0.073020
-0.362921
-0.405523
-0.390456
-0.617493
-0.918564
-1.202491
-1.496288
-1.697349
-1.888538
-1.976859
-1.888538
-1.652408
-1.314191
-0.864532
-0.297459
0.359234
0.895915
1.067881
1.109444
1.045801
0.963974
0.834870
0.422618
0.037382
-0.343437
-0.673083
-0.859077
-0.989220
-0.809721
-0.609959
-0.489686
-0.376947
-0.356425
-0.122115
0.071153
0.052190
0.008809
0.068815
0.278188
0.493276
0.746030
0.968391
1.124252
1.024761
0.679530
0.546269
0.754603
1.304272
1.731330
1.535725
1.157243
0.989433
0.898514
0.790970
0.656671
0.500550
0.291697
0.035825
-0.384999
-0.934668
-1.221971
-1.471088
-1.596037
-1.195215
-0.790756
-0.470462
-0.105748
0.281826
0.754084
1.244266
1.845889
2.354774
2.833267
3.374363
3.814930
4.030277
4.093661
4.179644
3.942736
3.458528
2.899248
2.430367
2.178652
1.940185
1.759646
1.339862
0.840328
0.468860
0.072974
-0.238748
-0.750750
-1.219632
-1.510572
-1.749818
-1.594476
-1.337566
-1.202487
-1.437317
-1.865414
-1.849049
-1.766443
-1.645650
-1.440434
-1.197291
-0.809198
-0.688405
-0.625542
-0.391491
-0.177702
-0.200561
-0.553586
-1.031818
-1.372634
-1.185341
-0.645024
-0.146529
0.092198
0.008293
-0.081067
-0.213549
-0.587615
-0.978566
-1.367438
-2.042055
-2.724206
-3.109961
-3.387393
-3.943556
-4.845990
-5.679066
-6.146128
-5.965590
-5.198235
-4.256576
-3.602740
-3.275173
-2.914875
-2.519248
-2.283899
-2.439240
-2.641339
-2.886560
-3.523511
-4.146434
-4.591157
-4.844950
-4.962105
-5.044971
-5.068091
-5.053284
-4.986523
-4.916126
-4.787022
-4.740523
-4.749615
-4.575830
-4.356326
-4.020186
-3.684047
-3.705867
-3.671838
-3.450775
-3.712361
-4.444127
-5.165503
-5.605290
-5.549959
-5.268631
-5.085494
-4.910411
-4.531409
-4.019666
-3.794447
-3.724830
-3.399081
-2.945266
-2.696149
-2.752778
-2.956436
-3.257767
-3.757041
-4.277096
-4.521018
-4.387757
-4.017328
-3.708983
-3.664303
-3.956542
-4.244884
-4.052916
-3.501169
-3.144767
-3.234647
-3.433109
-3.529743
-3.683266
-3.892898
-3.790030
-3.101385
-2.181287
-1.371851
-0.822701
-0.700870
-0.640863
-0.439803
0.021805
0.455877
0.278196
-0.068595
-0.385252
-0.633590
-0.963755
-1.740980
-2.669910
-3.417003
-3.720412
-3.764832
-3.533898
-2.890973
-2.446510
-2.392738
-2.148296
-1.436532
-0.902189
-0.915697
-1.505630
-2.894609
-4.501793
-5.706077
-6.218080
-6.134954
-5.874407
-5.362664
-4.741818
-3.991609
-3.059042
-2.370397
-2.124397
-2.298961
-2.519763
-2.602369
-2.624709
-2.566521
-2.605227
-2.868891
-3.347903
-3.777040
-4.338918
-5.124456
-5.297461
-4.749351
-4.009532
-3.482463
-3.141127
-2.733032
-2.145437
-1.307166
-0.741911
-0.509938
-0.525524
-0.932580
-1.363016
-1.648501
-1.595768
-1.345611
-1.324310
-1.262745
-0.963752
-0.689697
-0.070150
1.078803
2.044101
2.468302
2.417387
1.910061
0.833323
-0.226271
-0.748144
-1.184035
-1.619146
-2.091144
-2.694325
-3.183988
-3.493112
-3.480123
-2.960587
-1.961260
-0.755677
0.008300
0.203646
0.440814
0.806308
0.870990
0.592778
0.160525
-0.240557
-0.343945
-0.392002
-0.647873
-0.818281
-0.853089
-0.861662
-0.581112
0.029083
0.628627
0.968663
0.865535
0.396914
-0.223152
-0.675408
-0.956736
-1.079607
-1.009729
-1.339634
-1.952427
-2.553789
-3.055141
-3.392580
-3.994982
-4.555301
-4.602839
-4.288260
-3.880943
-3.358031
-2.698999
-2.134264
-1.858390
-2.122574
-2.350910
-2.189334
-2.342597
-2.857457
-3.323741
-3.621954
-3.932896
-4.196041
-4.126164
-4.107201
-4.141230
-3.856265
-3.487134
-3.206585
-2.952792
-2.416371
-1.718894
-1.242999
-0.951799
-0.604749
0.093767
0.654866
0.956456
1.227914
1.202716
1.129202
1.059324
1.141411
1.651336
2.254257
2.751713
3.049407
3.359310
3.734155
3.722206
3.342425
2.809122
2.242048
1.778622
1.366890
0.934117
0.459521
-0.110410
-0.536169
-0.742945
-1.003232
-1.250531
-1.400677
-1.519651
-1.642780
-1.775002
-1.650314
-1.096229
-0.519544
-0.166259
-0.066768
-0.180287
-0.337446
-0.416675
-0.427586
-0.789962
-1.073369
-0.950239
-0.784507
-0.306793
0.289894
0.720849
0.995164
0.859565
0.302622
-0.373034
-0.825550
-0.886595
-0.673845
-0.549676
-0.550455
-0.299260
0.114291
0.346783
