EVENT_NAME: 202302060117
EVENT_ID: 13194
EVENT_DATE_YYYYMMDD: 2023/02/06
EVENT_TIME_HHMMSS: 01:17:32.00000
EVENT_LATITUDE_DEGREE: 37.288
EVENT_LONGITUDE_DEGREE: 37.043
EVENT_DEPTH_KM: 8.6
HYPOCENTER_REFERENCE: AFAD
MAGNITUDE_W: 7.7
MAGNITUDE_W_REFERENCE: AFAD
MAGNITUDE_L: 
MAGNITUDE_L_REFERENCE: 
FOCAL_MECHANISM: 
NETWORK: TK
STATION_CODE: 0132
STATION_NAME: 
STATION_LATITUDE_DEGREE: 37.855892
STATION_LONGITUDE_DEGREE: 36.114868
STATION_ELEVATION_M: 761.0
LOCATION: Kahramanmaras_Pazarck_Turkiye
SENSOR_DEPTH_M: 
VS30_M/S: None
SITE_CLASSIFICATION_EC8: unknown
MORPHOLOGIC_CLASSIFICATION: 
EPICENTRAL_DISTANCE_KM: 103.34
EARTHQUAKE_BACKAZIMUTH_DEGREE: 
DATE_TIME_FIRST_SAMPLE_YYYYMMDD_HHMMSS: 2023/02/06 01:17:29.8658600
DATE_TIME_FIRST_SAMPLE_PRECISION: millisecond
SAMPLING_INTERVAL_S: 0.01
NDATA: 12501
DURATION_S: 
STREAM: HNZ
UNITS: cm/s^2
INSTRUMENT: sensor = ACEBOX/SARA | digitizer = 
INSTRUMENT_ANALOG/DIGITAL: 
INSTRUMENTAL_FREQUENCY_HZ: 
INSTRUMENTAL_DAMPING: 
FULL_SCALE_G: 
N_BIT_DIGITAL_CONVERTER: 
PGA_CM/S^2: 29.657
TIME_PGA_S: 
BASELINE_CORRECTION: BASELINE REMOVED
FILTER_TYPE: BUTTERWORTH
FILTER_ORDER: 
LOW_CUT_FREQUENCY_HZ: 
HIGH_CUT_FREQUENCY_HZ: 
LATE/NORMAL_TRIGGERED: 
DATABASE_VERSION: 
HEADER_FORMAT: DYNA 1.2
DATA_TYPE: Acceleration
PROCESSING: Automatic Paolucci et al., 2011
DATA_TIMESTAMP_YYYYMMDD_HHMMSS: 
DATA_LICENSE: U (unknown license)
DATA_CITATION: Turkish Accelerometric Archive v 1.0 - Disaster And Emergency Management Presidency, Earthquake Department
DATA_CREATOR: AFAD
ORIGINAL_DATA_MEDIATOR_CITATION: : AFAD - Disaster And Emergency Management Presidency
ORIGINAL_DATA_MEDIATOR: AFAD PROCESS SERVICE
ORIGINAL_DATA_CREATOR_CITATION: AFAD PROCESS SERVICE
ORIGINAL_DATA_CREATOR: network: TK
USER1: GuestUser
USER2: 
USER3: 
USER4: 
USER5: 
[...]
-1.082261
-1.223944
-1.018205
0.838378
4.514136
5.161285
4.146136
4.088386
4.984061
7.170531
8.230566
8.598795
9.906655
10.719566
12.199735
12.206747
7.775819
4.329879
3.580791
2.102489
1.581587
1.658504
-1.313762
-5.329232
-6.730849
-5.904144
-5.024133
-5.685079
-6.715893
-5.545272
-2.700663
-0.892477
-1.312379
-3.939794
-7.889567
-8.703183
-3.985858
0.178303
-0.105295
-1.751229
-2.629608
-1.968898
-1.281302
-1.879592
-0.239038
4.223682
9.058140
12.671943
11.762469
8.178823
7.205055
8.404200
9.276729
7.503609
4.264346
3.360250
1.578012
-3.585871
-7.808719
-9.418415
-8.924403
-6.763884
-4.611782
-2.035572
1.768307
4.580419
4.655934
3.362565
2.795137
3.720739
5.165838
6.116456
7.065671
7.164565
5.641608
3.670929
0.509052
-2.823028
-3.520681
-3.610227
-4.330558
-4.079930
-2.735597
0.130288
3.044101
3.623683
3.202846
3.737772
6.430881
10.578442
11.922307
8.571990
3.263154
-1.371645
-3.721309
-4.231223
-5.873651
-7.696336
-7.189232
-6.693583
-6.849528
-6.435475
-5.720759
-2.721609
2.012550
4.880539
5.876747
6.676566
8.246045
9.694183
9.471139
9.682957
11.279323
10.500075
7.922224
7.500920
6.911749
3.740053
-0.002576
-2.333302
-1.530912
-0.655343
-2.829660
-3.553264
-1.176249
2.104158
5.379422
5.696917
3.627809
2.701970
1.180883
-2.151899
-4.337203
-5.805920
-9.759433
-14.803144
-17.416999
-18.323667
-19.839142
-20.688296
-18.069769
-11.731527
-4.112543
0.781299
2.289056
4.415206
8.042803
11.936461
16.209805
19.890941
23.493054
25.765561
23.066370
16.960986
9.695968
2.721794
-1.347683
-4.510261
-7.537470
-6.707258
-2.852644
0.676758
3.573971
5.322773
4.044602
0.254746
-2.861072
-2.135133
2.731355
6.649094
6.137543
4.591674
3.124828
-0.613125
-5.717622
-9.044559
-8.112879
-6.064115
-7.971903
-10.701956
-10.644210
-8.626541
-3.134411
5.338400
13.068670
16.309800
13.242144
10.448733
11.649747
9.594667
3.090659
-1.925463
-3.520430
-3.300194
-3.891703
-5.996816
-9.655277
-13.800505
-13.649941
-9.723084
-8.227485
-9.806320
-11.049890
-9.425468
-4.064732
0.989261
0.834252
-3.069463
-6.652642
-7.306107
-4.463134
-2.576626
-5.134136
-8.126743
-8.337396
-8.119499
-9.637547
-12.716892
-15.388963
-13.829537
-7.084254
-0.699954
1.127403
0.146154
-1.788053
-2.517268
-1.335892
-1.852820
-3.499222
-3.333696
-2.681170
-1.560581
0.653711
3.046390
7.221774
13.073951
14.944561
10.314906
4.206717
1.268117
2.980446
8.147598
11.180414
9.606956
7.812794
8.119768
7.420011
3.757341
1.100233
2.494598
3.597418
1.784552
0.579092
0.351605
-1.523685
-4.501796
-6.057485
-4.975239
-4.443820
-5.758932
-3.780541
0.807494
3.838207
7.971740
13.530268
17.259567
18.748386
17.411999
12.974291
5.917352
-3.379364
-11.731539
-16.218345
-17.477345
-15.483757
-9.930607
-3.755789
0.038739
1.139922
1.330231
2.163015
2.743064
2.489626
2.494534
4.472223
7.743746
7.788166
5.123343
3.461276
1.765543
0.638638
-0.331389
-4.526649
-10.228031
-15.197628
-17.552202
-14.752481
-10.122362
-7.352100
-4.690087
0.328604
5.523811
7.072248
5.792674
2.158761
-2.290870
-3.452143
-5.330239
-10.327657
-13.765882
-16.200414
-16.498508
-12.817138
-9.754863
-7.366860
-4.584207
-2.603244
1.567229
7.113600
11.204816
14.045217
13.180633
9.988597
7.783186
4.920336
2.445123
0.103408
-3.345572
-4.014234
-3.096114
-2.949992
-3.170465
-7.362218
-12.895967
-13.338080
-10.818215
-9.425019
-9.482301
-8.980340
-6.455332
-2.598848
-0.195180
-0.904757
-1.110500
-0.006979
0.713115
2.757202
4.029291
5.544062
12.129661
18.444056
18.723676
15.748837
14.767822
17.724654
18.385130
12.863538
7.872666
6.878324
6.560592
6.243327
4.331097
-1.159166
-6.241453
-9.329917
-11.021442
-9.130024
-6.481103
-5.111988
-1.689899
2.855819
5.588440
5.724040
3.370168
0.167377
-2.369559
-3.322051
-2.102800
0.581424
4.027360
7.040538
5.556858
-0.458981
-3.975060
-3.402259
-2.802571
-3.694509
-4.463704
-0.149211
8.885649
16.094084
18.046991
14.694804
11.256111
10.133649
6.182006
-0.123742
-4.783558
-4.594651
2.688599
11.057370
13.334086
9.960624
5.053685
1.546958
-2.136520
-9.008291
-16.476011
-19.276203
-17.390163
-11.956248
-3.555681
2.253712
3.951546
6.000075
8.271881
9.609667
8.957137
4.337302
-0.669703
-3.504496
-7.039279
-11.053346
-13.077331
-11.576588
-6.247181
-1.953497
-3.027563
-5.981126
-6.430720
-5.921745
-7.590358
-8.943345
-6.141287
-1.090332
4.594446
11.300451
17.507065
22.826887
26.235649
24.610990
17.719813
9.898358
6.338091
6.681070
7.884656
9.230158
8.745494
6.441420
4.658948
1.585915
-3.187058
-5.914773
-4.638709
-0.515930
2.751151
2.958527
2.571357
3.656408
4.105764
2.462168
1.248057
0.166041
-2.757829
-4.436963
-3.984334
-2.469797
1.451449
4.807841
5.024101
2.596816
-2.304745
-4.737174
-3.522132
-3.525640
-3.283896
-2.797833
-5.471541
-8.377409
-10.525540
-14.280326
-17.681611
-18.889175
-16.215706
-8.403606
-1.586313
0.951788
4.346990
8.077925
10.538406
12.789871
9.013810
-0.055656
-6.243336
-10.575367
-14.822764
-16.711147
-15.280777
-10.732253
-6.985887
-6.956197
-8.195558
-6.607375
-1.751642
1.924117
3.470216
3.780463
1.095066
-1.675433
-0.843117
2.746838
8.139604
13.110132
14.743438
13.559486
11.785665
9.663017
5.841365
0.943311
-2.439971
-2.169002
3.231947
13.129284
23.083435
28.032687
27.675677
25.282526
22.097036
17.907388
12.754728
6.575932
0.651040
-4.447613
-9.218950
-12.945212
-15.282018
-15.686489
-13.809566
-10.872607
-8.197968
-6.300472
-2.240116
5.369515
11.349813
13.744129
14.572471
12.057278
4.483648
-5.133137
-10.953288
-11.139860
-11.388622
-15.226874
-17.935183
-15.781679
-10.951663
-6.220076
-2.613053
-0.427051
-0.930652
-3.489331
-3.684320
-2.928923
-4.751375
-5.467497
-4.612035
-4.509400
-3.740910
-4.509871
-9.028006
-12.370139
-11.440563
-10.082671
-8.537273
-4.389243
-0.829448
2.357908
7.704148
13.427270
18.090354
18.692614
17.192803
19.463907
21.826427
21.756753
23.089162
25.778764
26.256410
21.882295
14.856919
8.224556
2.112392
-2.958205
-7.759467
-13.206945
-18.435122
-22.191077
-21.327665
-14.420361
-5.907804
-0.616974
1.834622
3.839432
6.610863
10.601079
12.891355
10.714701
6.645457
2.841106
-0.022211
-0.566493
-1.074068
-5.019867
-11.366529
-14.575632
-9.194323
2.301721
12.392876
17.536414
18.087005
16.198856
12.708963
8.909755
9.498221
11.772365
10.208026
9.834650
13.421799
17.805730
22.570282
25.139946
24.100949
21.170299
15.825691
10.374940
6.995399
4.290830
3.379720
3.647650
2.985768
2.533836
1.944431
1.770952
3.137729
2.020643
-3.632343
-10.656550
-15.131197
-14.413675
-10.179609
-5.655166
-1.584758
3.808710
12.411278
18.722400
16.520027
10.547207
6.041464
2.839842
0.611753
-1.854577
-2.999718
-1.551345
-1.197846
-2.073652
-3.133925
-5.257273
-5.539469
-3.507772
-2.944557
-4.637017
-6.378808
-5.836167
-3.658347
-3.702771
-7.136319
-10.474245
-12.207386
-12.411493
-8.979584
-3.775961
0.734688
5.526829
8.234901
8.000400
7.223724
5.845253
3.704837
2.279140
3.667426
5.343283
3.850719
3.051364
2.765896
-1.908181
-7.671987
-10.257319
-11.625736
-13.884219
-16.744731
-18.307901
-16.526368
-12.692796
-9.528352
-6.257530
-1.732854
2.013746
3.002706
2.670712
4.133814
7.206142
9.813213
10.834905
8.417206
2.417732
-4.143089
-6.550501
-1.890222
4.948346
7.984669
8.174978
8.351961
10.265824
11.704142
7.912183
2.310165
1.361881
2.702940
2.529461
1.966241
0.508747
-2.751558
-4.485868
-1.865236
3.418346
6.061890
4.128853
2.893232
5.627255
10.598251
15.172960
17.051519
15.980492
12.165854
7.835927
5.354167
1.678638
-2.867551
-3.828226
-2.095323
0.506371
3.179841
3.058031
1.321383
2.096185
2.552088
-0.985501
-3.777509
-2.666507
-1.667727
-2.709763
-4.016458
-5.299305
-6.484425
-7.777092
-10.909978
-14.521446
-17.423807
-20.343235
-19.879150
-14.762966
-6.447501
5.056024
14.588638
17.915104
18.731522
21.549946
24.335872
20.464655
13.145396
11.096161
11.359181
9.186502
6.715263
4.352973
1.358262
0.766052
5.004093
10.421641
13.350184
15.706625
18.382199
18.789939
16.039312
12.184227
9.764891
9.165433
8.432945
6.405219
3.967647
1.578471
-0.828007
-3.212974
-7.117624
-11.646513
-10.966399
-4.729157
-0.108624
1.137046
1.789105
2.268154
3.809577
4.157232
-0.535315
-5.563127
-7.846393
-10.374679
-12.365932
-12.455011
-9.279110
-0.767021
8.763255
13.604726
13.714142
11.580038
8.818189
5.458755
1.942208
0.231511
1.493781
2.860792
1.236600
-0.367719
0.293926
0.979885
2.350637
5.835383
8.407385
7.579039
6.041119
5.899670
6.478550
7.546534
5.534239
-1.853289
-10.813104
-17.448739
-18.427884
-15.268818
-11.982565
-7.544394
-3.010365
0.958342
5.306735
6.732195
5.455426
2.068170
-4.548996
-10.170887
-14.152223
-17.651702
-17.267341
-13.177761
-6.236790
1.766556
6.306429
9.384602
10.961329
6.944690
1.177845
-3.548135
-7.943993
-10.736703
-12.970638
-14.047042
-13.546251
-14.557659
-15.311424
-12.829200
-9.467665
-7.532293
-6.800977
-5.545020
-1.610448
3.034868
5.166630
6.257526
5.753223
1.217321
-4.889466
-11.111280
-16.314207
-16.069890
-10.586411
-3.916177
3.616769
12.359382
18.866893
21.510203
21.359402
16.805497
10.100657
6.489656
3.829509
0.348500
-1.447533
-2.094919
-1.800337
-0.334663
0.330488
0.995639
3.747899
7.026670
8.411215
8.774067
8.476441
5.110226
0.707354
-0.948868
-1.490344
-2.094478
-1.836602
-0.507232
1.825127
3.681943
5.174971
6.049137
3.627229
0.914945
1.189421
1.358455
1.058725
2.049088
2.983106
1.944577
-1.306376
-5.024222
-8.934951
-13.276100
-17.266086
-22.155491
-25.023250
-19.911976
-9.603389
-0.629083
6.743479
14.714327
20.444696
19.495711
13.338892
5.141023
-3.401698
-9.490715
-11.822845
-11.292127
-11.246305
-15.066320
-17.801049
-14.341319
-10.863820
-10.998022
-9.461742
-5.996167
-3.407799
-0.686635
1.952935
5.806379
12.619230
16.095793
11.550305
4.403354
-0.423158
-2.770017
-3.262162
-3.419977
-3.550906
-3.836140
-6.707640
-9.644370
-7.538326
-2.423779
2.050632
4.826505
5.348572
4.728540
2.179680
-3.403634
-8.980870
-11.743888
-10.204101
-6.066125
-3.734233
-1.726384
0.847956
-0.874431
-5.924454
-9.742131
-10.461995
-6.364933
-0.679687
1.871039
3.924479
8.211617
12.279688
13.110134
10.626036
7.019945
1.796678
-5.457819
-10.315660
-10.750058
-10.588038
-13.733782
-19.328319
-22.207066
-20.475098
-17.442048
-15.471373
-14.765307
-14.544370
-14.502990
-14.752688
-13.211732
-10.685087
-11.126030
-12.813814
-11.447038
-5.390287
2.722008
6.671076
6.243926
4.256648
0.597952
-3.080849
-6.620542
-9.511681
-10.134051
-10.052691
-8.416814
-6.576831
-8.126909
-11.007060
-14.650792
-18.968795
-22.210396
-25.722501
-27.826678
-25.368302
-20.480772
-15.049663
-8.790445
-4.403942
-4.439481
-7.163689
-11.263560
-16.850615
-22.819695
-27.448415
-29.032159
-28.356487
-27.665852
-24.666936
-15.586019
-3.591987
5.246717
9.641636
9.746141
5.560701
0.581752
-1.041972
0.968683
5.346768
11.460331
16.285437
15.979629
11.406786
7.208253
4.594164
0.641118
-2.993730
-3.918634
-4.926770
-5.889315
-5.196810
-4.030864
-4.097499
-6.330264
-8.345599
-9.643877
-11.666225
-13.624045
-16.999612
-20.660645
-21.166585
-19.886079
-17.755720
-14.492146
-11.202620
-10.134169
-12.109991
-13.917012
-14.131406
-12.368577
-7.355264
-0.629620
6.327016
11.126872
12.830784
14.635464
16.614322
18.630821
21.023033
21.111640
19.531870
16.760669
10.897500
4.187516
-1.614399
-7.429172
-12.486443
-15.520432
-15.592209
-14.078608
-14.684612
-16.393438
-15.451003
-12.251256
-7.684496
-2.520851
-0.463204
-1.667261
-2.602452
-4.987186
-10.492646
-14.316169
-13.796205
-10.282468
-5.454557
-2.056081
-0.519801
0.342441
1.268978
3.985232
7.087720
8.039273
7.149673
3.422007
-1.716625
-3.524113
-3.864758
-6.716619
-9.514940
-8.980482
-3.907784
4.164298
9.284223
9.679104
8.348562
6.139878
4.636559
4.036400
1.960980
-0.401310
-1.480754
-0.447138
3.307177
5.410883
3.806330
2.767333
3.295947
3.323533
1.998134
-2.047963
-8.587742
-13.950819
-15.730720
-15.527786
-14.472661
-11.693514
-8.469218
-6.004062
-2.014781
4.221993
9.051775
8.574827
3.709971
0.375787
1.628237
3.633514
2.024286
-2.242283
-4.013299
-1.372093
1.635707
2.257138
1.134442
-0.576489
-0.977219
-1.186236
-5.017239
-10.661809
-13.451012
-12.681587
-8.558340
-2.310110
2.440648
5.119963
7.282352
6.850059
2.976270
0.525839
1.511059
2.437128
1.533032
-0.649000
-2.545098
-3.229892
-4.421324
-5.559685
-5.551738
-7.618040
-11.137860
-11.297078
-8.254910
-4.269837
-1.260868
-0.439774
1.770076
6.046226
7.849268
6.943068
4.909030
2.539259
0.715405
-1.075484
-1.243352
-0.203658
-1.198701
-2.643102
-3.840848
-6.192149
-8.735163
-12.697795
-17.099030
-17.403670
-14.769011
-12.290294
-9.632255
-6.551042
-2.836240
0.078041
-1.137940
-3.962914
-3.680957
-2.408634
-2.709065
-2.968348
-2.348788
-1.974714
-1.833736
0.431290
4.667695
7.693263
8.701863
6.942536
0.345945
-8.722352
-14.584353
-16.022675
-15.244834
-12.780145
-9.918936
-6.730411
-1.809214
0.954034
-0.292575
-1.104087
-0.217997
0.760442
0.206575
-2.653001
-4.577856
-3.938423
-3.904056
-4.777057
-4.054859
-2.048647
1.100834
5.854866
9.812818
11.530525
12.423628
14.483614
18.265283
21.844483
24.863973
27.954303
29.657281
29.172851
25.904831
20.343026
14.815823
9.665735
5.364097
2.297376
-1.629484
-5.176658
-4.641732
-1.640946
0.169578
0.722974
0.407580
-0.041313
1.257897
4.287206
9.364579
15.959764
20.622849
21.864778
19.879136
16.484164
14.099430
11.605513
8.612438
6.040666
3.454165
0.796122
-1.752971
-2.723933
-0.603160
4.259354
9.190604
10.083474
7.737784
4.896677
1.843517
0.510403
0.825326
0.905283
1.583293
3.049668
5.541477
9.176087
10.576064
7.820995
3.908396
1.201489
-0.959501
-2.496019
-2.484798
-1.045778
1.678893
4.743740
5.721011
4.812940
4.175139
3.352639
3.430491
6.200987
8.974054
11.063499
12.657526
11.018840
7.464418
4.728287
3.426034
4.202005
5.009539
3.843122
2.335830
1.413498
0.046015
-1.065926
-1.958099
-3.928544
-3.365328
0.315808
1.315757
-0.179378
-1.395827
-1.845188
-1.505950
-2.010486
-2.070106
-2.103308
-4.917059
-5.931274
-2.464530
1.188317
3.782997
5.678389
5.434537
4.433415
4.545870
3.371738
2.309595
5.146957
7.369198
6.611693
7.033461
8.854740
11.119766
12.738810
11.669186
10.216835
10.572907
11.676194
13.975822
16.965620
16.141716
10.402693
5.430992
4.207295
3.717254
1.492671
-2.234059
-5.932967
-9.335655
-12.656981
-13.910837
-12.014743
-7.247853
-1.726265
0.677169
1.189417
1.828150
1.207650
1.334132
2.512001
0.929893
-2.193641
-3.588009
-3.832563
-3.470881
-3.028071
-4.476914
-6.153242
-6.507915
-8.173255
-9.425708
-7.957931
-6.434042
-4.972578
-2.992550
-0.871076
1.570467
1.967219
0.556017
0.439818
1.397449
1.600384
0.033940
-1.845324
-2.264525
-2.485933
-2.965219
-2.301938
-0.529990
0.660036
0.812704
1.596156
3.029332
3.095027
1.430388
1.328685
5.708407
10.939151
12.767444
12.177338
10.396502
8.633435
7.615714
4.704234
-0.480222
-3.875194
-3.237864
-0.195930
2.504894
4.148721
7.188317
11.685873
13.487279
12.092443
10.085993
7.907000
6.044569
4.691115
2.464662
-1.528597
-6.572541
-11.011652
-14.043069
-15.411954
-15.809411
-16.153563
-14.925194
-11.707678
-7.121746
-0.069020
6.419787
8.058471
7.762481
8.812697
9.788565
9.822697
8.380166
5.135760
2.395420
1.930395
2.848749
3.805446
4.725904
5.499303
5.467505
4.676567
2.150151
-2.222561
-5.940874
-8.043181
-8.594477
-7.443729
-4.634423
-0.894370
1.768579
4.327956
7.628470
8.793714
7.979396
7.583809
8.663950
10.888997
12.555268
12.674737
10.236931
6.864170
5.433095
3.486731
0.048506
-2.948777
-6.471402
-9.514042
-9.820785
-8.067074
-6.028598
-5.679540
-6.760387
-6.898563
-4.730095
-0.170817
5.199505
9.833832
13.410227
14.816282
14.329046
14.163049
13.903064
11.449126
6.896390
2.561553
0.616592
0.524474
0.702158
0.977803
1.781830
3.647998
5.206722
4.287897
1.890070
-0.558724
-3.242017
-6.721858
-9.749300
-9.509660
-8.605568
-9.758658
-9.857322
-9.799576
-11.283256
-12.424422
-14.382944
-16.456026
-16.007137
-14.850544
-13.973338
-11.731926
-9.092357
-8.282017
-8.911635
-10.070804
-12.001971
-13.448944
-12.583896
-10.410285
-8.170743
-5.860828
-6.271845
-9.709368
-11.201231
-9.838662
-7.066296
-3.738895
-1.161984
2.830336
8.165121
11.964558
14.526507
15.558953
14.986616
13.394688
10.900537
9.824366
10.090426
9.221867
8.103847
9.210407
12.785867
15.713007
16.009694
15.334953
13.621451
10.191643
6.631143
3.270071
0.583505
-0.354492
-0.915373
-2.447916
-4.764615
-6.376883
-6.210421
-5.570052
-4.616863
-3.889989
-4.911217
-5.295582
-4.196737
-4.203753
-5.300497
-6.322895
-6.883776
-7.725215
-9.319714
-10.085168
-9.436149
-7.211336
-4.070739
-2.430419
-1.718508
-0.526612
0.990029
2.570730
2.475807
1.595324
3.385041
6.798479
8.289402
7.770136
7.665160
8.617882
10.719483
13.430828
13.254309
10.194603
7.387865
5.404561
5.047083
4.192318
-1.045210
-7.801018
-12.709360
-16.085862
-17.266540
-17.273789
-17.131175
-14.403932
-9.032909
-2.849675
3.384060
7.493980
9.300997
9.834287
6.565332
-0.082695
-4.757006
-5.188831
-3.228677
-0.533230
2.429213
4.864677
5.739077
5.447764
4.979933
3.695216
1.168099
-0.811698
-1.577386
-1.731460
-0.424535
1.906188
2.819164
1.597571
0.068302
-0.641275
-1.576934
-2.395693
-2.322517
-2.364368
-1.449054
1.617663
5.027594
7.665994
9.194091
8.430741
5.847046
3.863508
2.439914
0.272846
-0.161084
1.962962
3.470953
4.265394
4.996944
4.576107
3.718770
3.046368
2.716244
3.215867
3.719464
3.228020
1.057678
-1.745319
-3.021620
-3.687710
-5.025968
-7.113779
-10.256718
-12.437113
-11.543308
-7.633051
-2.802567
-1.086965
-2.070785
-1.809168
0.216449
2.975021
4.660698
3.929612
2.900201
3.461780
5.696880
7.614717
6.098072
2.868862
1.320889
0.647083
-1.026907
-3.832710
-5.192477
-3.526206
-1.451257
-0.418342
-0.990680
-3.629785
-4.451351
-2.145410
-1.815524
-5.299807
-9.262205
-11.572591
-11.771321
-9.438260
-6.684364
-6.068310
-5.596275
-3.308103
-0.592550
1.864424
3.456815
3.029665
1.650727
1.491509
2.398875
2.910187
4.548403
8.153087
10.571952
10.956079
10.141995
8.041091
5.766008
3.342931
1.051248
-0.202842
-1.493639
-2.231739
-1.265456
0.660564
3.161959
5.096162
5.124449
3.927405
2.938441
2.750466
3.018863
2.695987
0.878913
-0.902390
-0.905665
-0.823838
-2.518402
-5.245649
-6.818639
-6.084050
-4.761227
-4.572321
-5.188145
-5.516632
-4.540296
-2.263113
0.606279
3.253096
5.333890
7.453961
8.795956
8.055518
6.661617
6.015867
5.086521
2.895371
-0.424318
-4.941751
-8.749141
-8.196213
-4.882138
-2.664106
-1.544686
-2.039871
-3.772778
-5.205957
-8.077924
-11.228578
-11.877134
-12.039391
-12.250044
-11.005777
-8.884069
-6.407690
-4.868838
-5.182596
-6.074535
-6.966707
-6.643367
-4.476302
-2.790158
-1.586104
0.154281
1.520590
3.052895
3.691861
1.254289
-1.124366
0.012588
2.641870
4.160382
4.380149
