EVENT_NAME: 202302060117
EVENT_ID: 13194
EVENT_DATE_YYYYMMDD: 2023/02/06
EVENT_TIME_HHMMSS: 01:17:32.00000
EVENT_LATITUDE_DEGREE: 37.288
EVENT_LONGITUDE_DEGREE: 37.043
EVENT_DEPTH_KM: 8.6
HYPOCENTER_REFERENCE: AFAD
MAGNITUDE_W: 7.7
MAGNITUDE_W_REFERENCE: AFAD
MAGNITUDE_L: 
MAGNITUDE_L_REFERENCE: 
FOCAL_MECHANISM: 
NETWORK: TK
STATION_CODE: 3126
STATION_NAME: 
STATION_LATITUDE_DEGREE: 36.2202
STATION_LONGITUDE_DEGREE: 36.1375
STATION_ELEVATION_M: 123.0
LOCATION: Kahramanmaras_Pazarck_Turkiye
SENSOR_DEPTH_M: 
VS30_M/S: 350
SITE_CLASSIFICATION_EC8: C
MORPHOLOGIC_CLASSIFICATION: 
EPICENTRAL_DISTANCE_KM: 143.54
EARTHQUAKE_BACKAZIMUTH_DEGREE: 
DATE_TIME_FIRST_SAMPLE_YYYYMMDD_HHMMSS: 2023/02/06 01:17:36.7762850
DATE_TIME_FIRST_SAMPLE_PRECISION: millisecond
SAMPLING_INTERVAL_S: 0.01
NDATA: 12501
DURATION_S: 
STREAM: HNE
UNITS: cm/s^2
INSTRUMENT: sensor = GMS+/GEOSIG | digitizer = 
INSTRUMENT_ANALOG/DIGITAL: 
INSTRUMENTAL_FREQUENCY_HZ: 
INSTRUMENTAL_DAMPING: 
FULL_SCALE_G: 
N_BIT_DIGITAL_CONVERTER: 
PGA_CM/S^2: 1030.179
TIME_PGA_S: 
BASELINE_CORRECTION: BASELINE REMOVED
FILTER_TYPE: BUTTERWORTH
FILTER_ORDER: 
LOW_CUT_FREQUENCY_HZ: 
HIGH_CUT_FREQUENCY_HZ: 
LATE/NORMAL_TRIGGERED: 
DATABASE_VERSION: 
HEADER_FORMAT: DYNA 1.2
DATA_TYPE: Acceleration
PROCESSING: Automatic Paolucci et al., 2011
DATA_TIMESTAMP_YYYYMMDD_HHMMSS: 
DATA_LICENSE: U (unknown license)
DATA_CITATION: Turkish Accelerometric Archive v 1.0 - Disaster And Emergency Management Presidency, Earthquake Department
DATA_CREATOR: AFAD
ORIGINAL_DATA_MEDIATOR_CITATION: : AFAD - Disaster And Emergency Management Presidency
ORIGINAL_DATA_MEDIATOR: AFAD PROCESS SERVICE
ORIGINAL_DATA_CREATOR_CITATION: AFAD PROCESS SERVICE
ORIGINAL_DATA_CREATOR: network: TK
USER1: GuestUser
USER2: 
USER3: 
USER4: 
USER5: 
[...]
-23.976511
5.639367
34.956512
55.759763
64.428995
57.462276
40.550862
23.206674
10.806389
5.380614
2.934376
1.158080
1.444601
6.967004
21.367496
40.350293
54.056425
58.094774
53.651441
42.989004
24.837977
-2.067229
-29.381310
-47.511815
-47.932383
-25.116449
8.889247
32.015083
28.427425
0.392229
-31.817178
-50.203815
-45.696325
-16.833254
20.795166
47.648152
56.051122
43.908267
18.565825
-5.144495
-17.383724
-19.431737
-15.790054
-6.823907
0.579995
0.329836
-9.395619
-26.613299
-40.196307
-45.929648
-42.957387
-30.083032
-11.320517
5.402040
6.228099
-10.213915
-33.025958
-49.940749
-50.264943
-33.914373
-10.089761
6.300033
9.060843
1.764998
-12.373913
-31.868200
-50.156904
-53.873147
-39.596564
-17.760995
-4.294370
-0.821535
2.525312
7.304779
8.826496
3.603859
0.864343
11.191414
30.270066
45.143076
44.924608
32.238319
19.100553
13.696078
19.943494
34.697010
47.113913
55.149571
63.575141
68.072240
57.921286
31.233246
-0.680026
-23.082415
-28.705614
-20.639044
-1.467135
21.198652
36.067505
38.538934
24.285985
2.459242
-7.188282
2.530152
21.451905
33.072879
30.336481
14.844698
-7.067768
-28.967246
-46.869156
-56.865808
-54.851310
-34.548372
2.163846
34.620286
39.200252
12.775876
-25.881231
-50.185640
-44.222151
-16.582068
3.516693
-3.195454
-26.413254
-45.640759
-50.771179
-47.151575
-39.858334
-22.502983
6.528418
38.434670
58.948799
58.530830
46.973752
33.855988
14.917345
-9.912575
-30.250329
-32.721764
-13.190856
20.591440
51.023769
60.804807
47.047235
21.952872
2.334675
-8.313475
-12.175447
-7.133874
8.658713
32.308242
53.056163
64.302552
59.242010
32.637356
-2.204280
-26.283211
-31.267381
-22.383841
-8.882926
3.991689
14.012234
24.509712
38.409891
52.146156
51.729745
27.566129
-7.712436
-35.731527
-44.023582
-36.962573
-29.979235
-26.986452
-24.443327
-18.532051
-9.801254
-2.206163
-2.032900
-9.985958
-15.952051
-13.029146
-2.741560
9.133468
16.775837
12.786319
-3.924295
-26.008988
-49.844256
-72.930354
-89.073375
-89.745658
-72.722289
-45.783580
-20.600381
-8.271539
-10.242921
-19.058668
-27.852854
-32.085776
-32.087337
-31.797179
-29.736184
-24.731238
-20.143740
-16.745978
-17.612048
-24.657736
-37.671852
-55.211386
-67.771687
-68.110688
-53.455364
-25.035717
4.159857
18.479301
15.695884
7.794520
9.205836
21.465581
30.014800
23.148091
0.128234
-32.599410
-63.550501
-79.309845
-67.934351
-33.495622
8.308827
45.818273
66.077311
61.209257
36.414665
3.391145
-26.919878
-48.853386
-53.266066
-35.971241
-11.106518
7.549232
17.516784
19.146045
15.081973
14.647119
22.252601
33.350923
42.803355
43.535378
31.630211
9.651244
-10.807562
-15.824722
0.706386
37.703569
80.157698
111.819508
128.880802
131.350413
120.089990
99.487793
75.089088
53.644723
44.309960
47.368204
52.681494
53.578990
52.557319
59.278811
80.187788
105.531523
119.182064
116.806484
105.134588
93.130450
84.577068
78.944777
72.640986
57.450794
33.043516
11.108450
0.689675
-3.528180
-11.461755
-21.858969
-27.781941
-25.271027
-20.270757
-19.564711
-15.707420
-4.343616
7.487251
14.652687
15.823718
11.506372
-1.389291
-22.157479
-36.172741
-34.842732
-22.145539
-8.622284
-10.204793
-28.943935
-51.971065
-68.528676
-76.197028
-78.773149
-71.735520
-48.839838
-25.937662
-27.775523
-55.296379
-84.362075
-92.293052
-77.168068
-51.908498
-27.983875
-13.756129
-11.053767
-12.545617
-14.787157
-18.516389
-22.527728
-25.446484
-26.387886
-22.849330
-14.764316
-14.848224
-31.083723
-52.198442
-63.054666
-50.813885
-23.243419
-1.402915
15.356010
34.661439
52.628025
58.457214
48.988670
31.089618
8.261730
-17.286709
-43.291039
-62.623751
-60.949290
-33.035671
0.184487
15.608724
15.343758
14.065437
26.187504
48.462600
65.731190
66.592317
50.610093
30.772133
12.716441
-4.114705
-20.307861
-29.418445
-20.331247
2.004635
24.155563
36.772488
38.006122
31.153701
19.032148
0.450426
-21.680246
-36.590668
-35.892935
-17.466040
4.757622
13.257745
4.413164
-10.585839
-15.684567
-9.855118
2.003804
14.108207
16.462221
3.656698
-21.181794
-47.524603
-64.889572
-64.326398
-44.841209
-21.680304
-11.415318
-18.653235
-34.241651
-46.146298
-54.596292
-63.952357
-73.035924
-70.898817
-50.028545
-20.556059
4.803781
18.023368
17.864906
6.179763
-18.092435
-47.357373
-69.416349
-80.306862
-75.634160
-49.497613
-13.540281
7.159843
4.466306
-10.119406
-25.819003
-37.851976
-45.513314
-46.168192
-32.900808
-8.531723
7.923273
4.466019
-6.297208
-5.646753
7.242149
19.818551
28.417385
37.968529
46.180310
45.551409
37.680438
30.687742
33.248271
52.059882
78.144994
96.141453
106.392672
120.615742
133.193182
126.225424
102.284430
71.140071
31.941088
-12.597424
-43.298099
-43.771140
-23.645883
-3.301901
5.871800
3.056952
-8.280362
-21.104588
-25.107875
-17.045980
-2.596393
9.602566
16.150273
19.922360
21.382772
25.152521
34.919792
41.855333
36.463327
16.583285
-7.569940
-23.559957
-31.762912
-35.611117
-35.482795
-30.025593
-17.534916
2.755814
26.557306
43.070750
47.051431
40.972599
28.679598
17.088750
12.643079
12.449289
13.155855
16.718049
20.395061
16.146294
0.808294
-16.553558
-27.352374
-30.323602
-26.199270
-14.732337
-1.304417
-6.129090
-33.625787
-72.163661
-111.846591
-129.348977
-119.516765
-95.922567
-65.704806
-46.837865
-42.824973
-37.688585
-24.982819
-3.708089
10.922297
4.844244
-11.255136
-29.017290
-39.337094
-32.291671
-12.704653
3.066634
-4.867721
-29.931692
-45.247092
-36.110798
-13.051981
8.491868
31.537696
42.361963
30.562002
7.962449
-24.678173
-45.628719
-35.376981
-11.510286
6.870369
10.200072
17.747366
50.204585
89.917383
116.926230
116.860246
87.238907
49.685554
16.221468
-17.117670
-40.136748
-31.028768
-2.388319
7.282059
-5.818560
-12.905032
0.995926
18.766386
28.403514
42.362919
63.830397
81.147563
76.835932
54.093247
26.464587
-11.824948
-49.203477
-73.065502
-75.868660
-48.347810
-7.457485
27.755093
35.313038
11.611030
-22.751334
-59.027148
-87.077930
-104.544988
-97.192260
-60.680323
-25.819211
-17.776280
-55.436397
-96.095016
-84.763682
-43.256668
-4.865310
6.088061
-12.203240
-35.473254
-62.692779
-76.471392
-46.244280
10.705158
71.281476
111.844494
125.925471
136.133828
127.109747
104.998558
98.498902
87.842699
46.118253
-22.074207
-74.686567
-97.292613
-110.152687
-98.108291
-47.537973
6.307758
14.733587
-18.649452
-46.848821
-25.167814
31.187015
65.382602
61.068633
2.869185
-69.486835
-82.182216
-48.095212
12.347325
73.822960
105.654399
110.674411
97.157124
78.197440
52.887728
31.111900
17.493823
-18.505338
-79.790829
-108.345561
-95.947361
-85.373511
-22.182369
87.900001
124.341541
68.449612
-20.176193
-84.568508
-82.328013
-57.396790
-71.253333
-99.100458
-80.069083
12.560778
72.257002
23.287888
-58.892295
-114.463930
-59.898902
76.796172
123.281379
78.655325
27.946805
20.684989
77.414664
92.838122
-1.861577
-115.836315
-137.166641
-56.444282
11.008353
-46.188910
-170.751529
-208.775841
-110.525381
20.912769
37.050848
-45.876687
-81.825973
-42.348266
-18.642368
-48.502174
-87.618031
-126.302933
-145.547323
-100.559158
-62.586027
-117.444859
-194.608404
-222.274211
-196.460555
-99.911316
-24.892680
-57.136377
-119.984372
-140.014819
-130.774358
-118.429929
-73.262785
47.840498
206.426475
277.654317
209.676685
23.209032
-212.288258
-310.251940
-219.177569
-108.843744
-61.986030
-43.929825
-68.584141
-91.583737
-133.611852
-186.679324
-36.317601
212.341085
329.773587
351.347051
255.102772
68.903460
-13.276464
2.422867
-56.301831
-214.685714
-293.958835
-199.735816
-97.679237
-60.463069
-69.662493
-69.641715
3.058232
96.726126
117.495348
-37.734173
-208.096734
-176.359332
-30.743048
71.845796
105.627572
116.044003
118.018756
80.589572
-28.855853
-163.927123
-232.373636
-187.888382
-114.626817
-116.323105
-122.579358
-88.906944
-54.519909
-57.021217
-123.315033
-159.859708
-99.849943
52.826832
166.580761
66.032128
-111.519250
-202.941976
-231.630229
-251.889792
-243.283165
-167.329365
-134.698101
-160.513580
-190.235450
-182.408905
-85.589766
-37.868324
-62.866573
-69.010088
-81.597145
-93.387235
-147.031393
-250.408638
-292.758866
-238.162146
-149.149293
-117.608015
-139.581527
-140.666580
-99.768202
-42.593545
-11.154616
27.067374
68.897020
46.094849
-20.059732
-88.532481
-149.612236
-200.140477
-172.686907
-58.269531
27.504016
81.611593
154.238026
157.387189
70.753285
31.477931
54.668969
93.455434
148.415050
243.752992
340.146371
322.209653
252.693935
228.384070
229.643422
207.871490
142.282424
78.790984
74.044242
117.342876
153.407753
172.922295
164.339560
149.035590
147.809482
133.864617
89.511319
45.144514
54.725791
47.404488
-13.000129
-50.342551
-71.915760
-109.413003
-144.932633
-155.225680
-127.494159
-67.679740
1.756223
38.541956
23.542693
-14.191199
-30.425398
23.087830
84.366041
32.198664
-52.033426
-79.107481
-93.157552
-104.970241
-129.740155
-107.519090
-7.589490
95.246133
186.266732
213.347276
201.118438
228.115595
221.534372
196.210633
207.428188
203.730129
185.350766
161.392108
173.384810
259.358898
332.644102
312.125031
222.195970
137.832697
69.026925
-1.423437
-57.084952
-72.612843
-40.751531
-8.189625
-26.559116
-70.068688
-105.680795
-154.480021
-195.668047
-227.211928
-276.639533
-340.422173
-408.425781
-445.617018
-438.859418
-398.588639
-355.235713
-300.195310
-203.430462
-131.506962
-104.390051
-101.821729
-78.627833
51.429131
278.916211
501.807996
577.277329
603.188657
674.606129
686.368158
670.895598
620.269944
549.215361
483.668897
402.587532
382.250039
389.012834
381.369419
398.946613
400.596656
343.684877
289.587165
245.118531
172.652369
129.148772
132.820848
123.995230
70.082732
7.026404
-48.378201
-94.464411
-108.531626
-128.473493
-150.807823
-126.187022
-59.765925
7.121454
58.258845
119.292614
177.069673
222.709855
270.381682
317.322782
342.375317
321.547122
261.653728
178.310823
92.605849
17.280941
-37.606466
-55.877505
-53.738060
-52.026712
-48.192021
-69.446755
-105.393183
-113.234801
-137.802615
-171.182536
-173.949068
-179.880092
-183.058875
-190.748009
-222.438140
-272.991838
-312.447991
-296.545002
-266.779498
-243.072560
-215.574310
-198.197138
-171.403119
-138.331548
-141.638137
-157.401637
-115.447822
-28.168920
33.167739
76.563007
159.323765
229.895953
330.704867
405.386064
412.738792
407.077926
317.155880
420.257505
595.560327
635.348197
693.480099
582.586728
369.617812
158.629106
-99.115488
-371.810765
-656.114811
-827.087048
-842.753134
-815.063436
-660.805453
-348.175020
-50.294210
162.132046
211.552890
202.969116
198.644756
122.231161
-45.140173
-258.228842
-259.102705
-119.502386
-15.685100
48.053893
-11.091630
-132.725365
-293.447939
-433.608582
-450.279971
-437.132081
-421.426255
-384.379456
-342.788796
-265.559016
-176.291591
-112.844058
-66.484319
-61.156482
-90.569747
-85.125014
-55.614082
9.126056
110.896371
169.540016
241.861481
391.098669
511.250422
448.811043
223.767074
-27.063797
-189.756450
-199.382673
-104.828711
16.762676
138.543434
237.439158
234.183743
207.613638
267.057887
313.240465
294.838242
243.321584
185.272542
139.935503
135.672708
169.010282
168.268641
87.383401
-38.258034
-151.196298
-206.264243
-112.936386
107.582160
283.127085
311.532445
225.097003
122.158505
65.459737
22.322673
-62.182434
-162.132042
-271.110144
-382.403038
-423.813685
-383.033501
-276.911813
-132.193287
-22.409391
16.440197
40.403266
118.215185
172.318347
76.382932
-71.895719
-147.874462
-166.456444
-145.084561
-115.798069
-67.026384
11.466647
88.873848
137.558770
153.651130
181.205230
174.447884
124.021732
54.586542
-81.024786
-154.823817
-118.326686
-86.230284
-44.033586
-17.991075
-18.270329
17.340214
78.213966
143.969537
211.595956
275.071804
309.626650
323.974928
327.403342
266.067197
155.036149
63.864618
28.381875
67.965049
106.133266
54.654534
-39.468999
-122.517327
-163.636254
-153.359318
-150.880096
-145.297167
-101.287029
-34.098578
79.137633
206.801096
270.244732
285.387900
253.722967
135.983152
-24.273917
-195.714515
-352.436403
-439.966766
-465.643789
-438.790543
-379.110165
-316.309454
-257.200825
-209.069208
-171.287006
-147.799313
-129.014718
-101.734673
-75.597348
-65.498873
-31.074690
53.629392
152.862294
269.940474
421.797422
562.586438
601.143268
556.354339
502.752264
439.163931
355.769852
216.838950
37.634928
-95.474315
-176.531782
-244.903741
-303.548951
-354.678295
-423.323270
-501.870339
-505.972078
-443.062005
-416.023284
-386.491571
-314.765494
-245.652942
-163.491988
-60.441277
21.818649
67.878097
115.743191
231.527206
411.035670
576.511731
664.090925
591.578005
405.598716
237.548349
101.309681
33.089686
10.747304
-36.078985
-93.529781
-164.185620
-224.166557
-257.105912
-275.200309
-278.400913
-302.951323
-361.161161
-427.270542
-459.319932
-439.672908
-373.431831
-242.911960
-91.739241
12.862025
35.666009
-27.336547
-124.792383
-239.574480
-348.941455
-396.343649
-387.335160
-335.774088
-227.479961
-83.017826
54.533183
163.783775
322.026078
601.279191
847.786997
999.530946
1030.179402
770.027539
387.210145
104.804743
-97.435239
-204.691340
-213.326808
-168.881299
-95.708314
-15.031414
26.642631
23.382800
28.890657
75.565494
185.406799
349.078252
449.589732
428.217063
356.090158
291.537826
221.559722
119.770697
3.165029
-92.709340
-107.618463
-69.927699
-28.375225
7.961109
-6.866966
-44.732560
-65.444639
-77.718417
-106.616822
-129.679801
-125.424286
-88.967939
6.901488
110.363412
199.121693
265.248732
345.205036
403.646841
273.152941
47.602425
-184.464370
-443.932524
-621.724708
-701.419691
-712.114080
-630.067164
-495.074609
-375.622930
-279.554521
-213.385919
-186.618656
-168.877809
-180.463201
-222.084520
-239.704321
-241.186041
-253.689453
-248.264983
-198.722047
-131.418000
-63.501939
-49.375503
-118.867841
-193.282782
-251.224540
-314.025517
-374.588333
-401.819288
-381.874310
-309.058506
-191.554048
-113.028026
-72.343177
-49.139930
-55.661926
-55.265523
-69.762395
-96.373803
-87.916282
-65.642485
-62.879596
-69.083377
-61.428539
-26.212584
28.566753
91.581773
149.046331
184.670121
226.823698
281.197538
312.240321
283.815473
198.852655
136.845270
129.607873
171.427908
239.675172
294.359175
342.845894
323.603322
256.311737
233.822066
212.302888
181.983812
149.424498
120.305550
138.607236
175.165412
176.634656
148.522309
131.490362
134.740056
165.369548
219.688836
266.949710
305.002850
305.867355
247.098756
183.154541
140.386347
81.257190
7.475823
-34.342400
-21.353487
33.970323
57.267347
-8.310289
-97.103385
-160.374022
-191.460452
-143.297404
-29.985860
92.703826
223.874675
373.099914
502.343545
536.321966
426.224524
232.720277
78.830899
-28.807060
-132.689814
-213.375813
-211.611732
-88.225088
48.419590
118.583163
168.351837
195.694226
157.900588
25.000458
-158.378295
-314.963025
-417.521742
-410.881298
-282.265786
-134.728519
-42.571175
1.514036
35.836129
80.181109
110.905936
132.942825
150.132705
164.681783
238.224677
335.351121
377.418195
376.781761
342.003509
263.987405
149.747185
65.063878
67.157084
108.104299
119.701895
103.470553
71.668202
11.088241
-48.654488
-101.180864
-179.476478
-272.514441
-355.719149
-397.220195
-372.219353
-287.848294
-161.616672
-41.316072
30.467154
57.194673
56.132479
39.415890
30.479351
54.735178
65.807003
41.418169
36.721822
60.660732
122.150913
221.644103
303.783497
348.326679
387.327452
431.732698
430.595690
355.588998
254.537195
160.788767
63.515548
12.508554
40.768963
81.723451
118.005754
163.814785
212.423595
207.750367
109.873187
-13.657893
-154.271312
-316.376111
-430.458653
-448.504993
-388.556794
-297.855969
-195.755748
-104.699821
-16.191697
85.437045
178.937908
251.437314
285.704077
276.903916
242.693257
201.405740
169.591959
150.070657
147.015003
164.255278
198.529574
235.544942
226.048343
186.617647
170.160047
165.511237
157.376602
140.485449
121.610189
85.745068
40.248012
-3.442098
-74.278995
-179.604760
-331.049463
-474.091452
-542.658497
-514.509009
-373.271114
-193.825514
-60.029970
13.859974
47.507190
60.674044
55.322042
40.872189
30.829298
34.180561
49.919896
70.498448
92.806016
122.206806
135.613426
104.335806
47.669249
-24.641312
-107.487021
-178.831505
-223.563025
-245.447176
-255.383302
-238.894537
-191.748999
-132.351248
-73.862685
-18.650835
3.393588
-33.376305
-87.161257
-131.731201
-156.709189
-125.335980
-40.705412
44.272206
58.010549
-10.231527
-88.256722
-162.829082
-264.377302
-387.943971
-473.119798
-416.420516
-245.459975
-86.624882
24.239389
118.044700
203.958782
253.048682
200.715833
70.744846
-34.929528
-124.458546
-206.035807
-219.203447
-150.231949
-46.556236
44.736860
101.197155
111.912579
92.973936
63.224271
44.911928
47.867824
59.558677
72.960361
72.187028
47.664674
15.446694
6.634584
37.775559
87.926871
125.186680
139.413647
142.918433
145.655864
131.925567
82.689672
23.511678
-4.373632
-2.288998
16.163874
60.172713
123.455293
174.103801
209.195067
239.904309
264.272355
271.947975
240.701267
178.852600
101.237059
13.952436
-57.326587
-87.745673
-55.326120
18.742804
95.672811
150.675809
145.581237
96.687196
44.001063
-5.632538
-48.722584
-89.729552
-126.397615
-149.801150
-155.379929
-143.786749
-128.725408
-125.663007
-127.964034
-116.540483
-93.115134
-69.603283
-53.813553
-37.155678
-9.191924
14.810110
33.557298
56.501297
69.386302
61.964210
40.148897
1.650508
-41.466294
-45.487505
-4.172718
44.084885
64.001808
39.632197
-12.923533
-69.199399
-116.465734
-134.209185
-93.021166
-17.660156
39.915063
78.129779
111.458260
138.404244
147.724973
141.021139
107.957615
25.811202
-78.092074
-172.983221
-263.212054
-346.139330
-403.252168
-416.392272
-376.319436
-295.499663
-214.494936
-155.606590
-120.602606
-113.208834
-116.032515
-116.039272
-103.458195
-63.026100
-6.314869
57.625444
139.244782
232.341966
296.533734
266.539628
154.933194
56.431013
-17.157606
-91.695937
-176.058430
-281.342633
-344.346488
-319.771147
-245.190220
-152.543734
-70.302251
-27.589134
-13.430487
-3.611782
11.647502
25.156730
30.293378
13.907214
-39.944497
-85.917448
-99.946738
-106.649273
-106.024794
-98.599850
-82.094719
-57.229996
-34.277944
-16.587752
-10.423202
-13.918383
-27.026795
-62.901527
-106.823611
-136.935911
-158.650694
-178.436701
-199.609348
-215.705351
-221.408818
-217.133821
-196.580206
-173.360594
-152.271858
-123.668295
-98.811885
-77.452990
-55.524164
-41.720619
-48.592523
-77.408842
-101.941327
-104.961133
-81.836076
-39.055938
7.142745
53.268952
93.244635
126.156968
154.667014
177.465803
183.612948
146.432362
83.552416
27.801540
-24.311545
-68.072831
-98.802081
