EVENT_NAME: 202302060117
EVENT_ID: 13194
EVENT_DATE_YYYYMMDD: 2023/02/06
EVENT_TIME_HHMMSS: 01:17:32.00000
EVENT_LATITUDE_DEGREE: 37.288
EVENT_LONGITUDE_DEGREE: 37.043
EVENT_DEPTH_KM: 8.6
HYPOCENTER_REFERENCE: AFAD
MAGNITUDE_W: 7.7
MAGNITUDE_W_REFERENCE: AFAD
MAGNITUDE_L: 
MAGNITUDE_L_REFERENCE: 
FOCAL_MECHANISM: 
NETWORK: TK
STATION_CODE: 5807
STATION_NAME: 
STATION_LATITUDE_DEGREE: 38.7269
STATION_LONGITUDE_DEGREE: 37.2475
STATION_ELEVATION_M: 1360.0
LOCATION: Kahramanmaras_Pazarck_Turkiye
SENSOR_DEPTH_M: 
VS30_M/S: 445
SITE_CLASSIFICATION_EC8: B
MORPHOLOGIC_CLASSIFICATION: 
EPICENTRAL_DISTANCE_KM: 161.00
EARTHQUAKE_BACKAZIMUTH_DEGREE: 
DATE_TIME_FIRST_SAMPLE_YYYYMMDD_HHMMSS: 2023/02/06 01:17:39.7784610
DATE_TIME_FIRST_SAMPLE_PRECISION: millisecond
SAMPLING_INTERVAL_S: 0.01
NDATA: 13501
DURATION_S: 
STREAM: HNZ
UNITS: cm/s^2
INSTRUMENT: sensor = GMS+/GEOSIG | digitizer = 
INSTRUMENT_ANALOG/DIGITAL: 
INSTRUMENTAL_FREQUENCY_HZ: 
INSTRUMENTAL_DAMPING: 
FULL_SCALE_G: 
N_BIT_DIGITAL_CONVERTER: 
PGA_CM/S^2: 27.517
TIME_PGA_S: 
BASELINE_CORRECTION: BASELINE REMOVED
FILTER_TYPE: BUTTERWORTH
FILTER_ORDER: 
LOW_CUT_FREQUENCY_HZ: 
HIGH_CUT_FREQUENCY_HZ: 
LATE/NORMAL_TRIGGERED: 
DATABASE_VERSION: 
HEADER_FORMAT: DYNA 1.2
DATA_TYPE: Acceleration
PROCESSING: Automatic Paolucci et al., 2011
DATA_TIMESTAMP_YYYYMMDD_HHMMSS: 
DATA_LICENSE: U (unknown license)
DATA_CITATION: Turkish Accelerometric Archive v 1.0 - Disaster And Emergency Management Presidency, Earthquake Department
DATA_CREATOR: AFAD
ORIGINAL_DATA_MEDIATOR_CITATION: : AFAD - Disaster And Emergency Management Presidency
ORIGINAL_DATA_MEDIATOR: AFAD PROCESS SERVICE
ORIGINAL_DATA_CREATOR_CITATION: AFAD PROCESS SERVICE
ORIGINAL_DATA_CREATOR: network: TK
USER1: GuestUser
USER2: 
USER3: 
USER4: 
USER5: 
[...]
0.350477
0.404770
0.144485
0.001096
-0.668584
-1.593615
-2.361487
-2.710353
-2.134965
-1.993649
-1.492035
-0.761565
-0.515303
0.404018
1.433481
2.359036
2.478532
1.271393
-0.355532
-1.733858
-2.134937
-1.962969
-2.422236
-3.317134
-3.642102
-3.261799
-2.637315
-2.079331
-1.592524
-1.313531
-1.601351
-2.242456
-2.707439
-2.797836
-2.761466
-3.109033
-3.655842
-3.654281
-2.964076
-2.131257
-1.532490
-1.064646
-0.766950
-0.999440
-1.857451
-2.727931
-2.823523
-2.336196
-1.939528
-1.566239
-1.158661
-0.849275
-0.432605
0.340986
1.405257
2.219372
2.546942
2.420697
1.883239
1.525281
1.896492
2.899978
4.026853
4.658871
4.595230
4.318579
4.278318
4.205065
3.637994
2.816610
2.117058
1.433351
0.671194
-0.138500
-0.789736
-1.044826
-0.763495
0.342339
2.052653
3.240315
3.143683
2.378149
1.845368
1.673404
1.698603
1.753157
1.897850
2.216587
2.479215
2.729114
2.727038
1.997093
0.822684
-0.464983
-1.852401
-3.170721
-3.918331
-3.652067
-2.657413
-1.639900
-1.020091
-0.647322
-0.119731
0.627364
1.312114
1.590847
1.441223
1.260687
1.224841
1.183021
0.893642
0.130186
-0.998503
-2.244608
-3.058718
-2.838952
-2.020421
-1.530237
-1.496205
-1.297220
-0.670398
-0.034224
0.410241
0.907959
1.665704
2.404746
2.578273
2.108615
1.352693
0.874722
1.083318
1.851454
2.660893
2.926378
2.694927
2.280600
1.507792
0.254414
-1.023122
-1.674098
-1.945034
-2.317539
-2.668223
-2.956563
-3.248021
-3.652737
-3.955104
-3.923670
-3.723906
-3.335291
-2.683272
-1.891237
-1.298184
-1.010100
-0.798386
-0.455750
0.297579
1.183390
1.405234
0.885960
0.278625
-0.033873
-0.381700
-1.178926
-2.167081
-2.653624
-2.565041
-2.709469
-3.551115
-4.509916
-4.687595
-3.775288
-2.345523
-1.007456
0.226703
1.356696
2.449282
3.511995
4.117257
4.119597
3.884249
3.855937
3.994655
3.824250
3.153271
2.325134
1.925873
2.101218
2.211102
1.680658
0.975651
0.737446
0.903180
0.980853
0.594580
0.329619
0.972287
2.196836
3.044201
3.068881
2.694038
2.686507
3.368920
4.296813
4.889346
4.852721
4.160442
3.216707
2.388829
1.490034
0.343161
-0.697727
-1.124263
-0.924759
-0.469903
0.070936
0.589954
0.832060
0.710491
0.545021
0.735953
1.311601
1.741259
1.522018
0.852338
0.064464
-0.699511
-1.323991
-1.576483
-1.216182
-0.567280
-0.073459
0.308143
0.664287
0.861193
0.654420
0.035136
-0.634284
-1.043676
-0.800011
0.279586
1.669347
2.783754
3.302772
3.327972
3.323818
3.322781
3.114709
2.804029
2.560369
2.222413
1.456880
0.286887
-1.042863
-2.275979
-3.155551
-3.334269
-2.827979
-2.401178
-2.554179
-2.870054
-2.851868
-2.605606
-2.478058
-2.239588
-1.070630
0.757878
2.001909
2.144524
1.973859
1.667075
0.729835
0.152892
0.310834
0.919472
1.463688
1.073259
0.076532
-0.734461
-1.078911
-1.264903
-1.101247
-0.641975
-0.478319
-0.143216
0.885208
1.935971
2.174960
1.332275
0.051362
-0.424791
0.284118
1.591792
2.493449
2.375257
1.428145
0.357125
-0.485301
-1.116015
-1.394744
-1.724387
-2.135597
-2.116112
-1.861537
-1.737366
-1.707750
-1.712943
-1.832434
-1.968550
-2.129604
-2.448857
-2.658227
-2.613545
-2.206746
-1.302752
-0.513834
-0.443435
-0.869712
-1.067652
-0.676699
-0.029096
0.464725
0.670204
0.602926
0.224447
-0.330675
-1.084779
-2.152163
-3.043944
-3.380601
-3.462685
-3.543731
-3.535676
-3.277724
-2.682333
-2.060966
-1.711576
-1.391020
-0.813814
-0.205435
0.052517
0.022386
0.087071
0.378792
0.515432
0.289956
-0.118137
-0.701054
-1.654920
-2.828808
-3.479005
-3.178711
-2.324852
-1.342407
-0.175528
1.064867
1.981590
2.436446
2.522951
2.791553
3.749320
5.056734
6.029048
6.273751
5.936834
5.452889
4.998297
4.348880
3.365920
2.228139
1.259727
0.851114
0.846960
0.694478
0.152865
-0.827237
-1.934366
-2.765102
-3.320483
-3.556350
-3.161241
-2.019039
-0.623564
0.525652
1.546802
2.687186
3.753016
4.297751
4.272296
4.160338
4.294641
4.392056
4.144759
3.737965
3.344679
2.653698
1.536439
0.409048
-0.409478
-0.855238
-1.200727
-1.826506
-2.607885
-3.173398
-3.477843
-3.780990
-4.174017
-4.354813
-4.050882
-3.496795
-3.076229
-2.748139
-2.166257
-1.279667
-0.492048
0.125163
1.148910
2.698169
3.794132
3.732309
3.087048
2.875339
3.236679
3.455665
3.445277
3.863506
4.923361
5.823199
5.726308
4.840762
3.905080
3.467113
3.413863
3.257745
2.781073
2.067753
1.357030
0.741642
0.141580
-0.444973
-0.871770
-0.927358
-0.728113
-0.565756
-0.373266
0.089383
0.929215
1.759955
2.040766
1.773208
1.224320
0.621921
-0.039706
-0.749389
-1.355166
-1.973671
-2.714527
-3.477203
-4.033884
-4.207926
-3.873083
-2.938695
-1.757269
-0.602858
0.566360
1.608811
2.464749
3.138069
3.397840
3.209770
3.040923
3.272898
3.637095
3.327973
1.852234
-0.191618
-1.728662
-2.160914
-1.581369
-0.593210
0.112062
0.167655
-0.167703
-0.250307
-0.013396
0.094929
0.096750
0.382237
1.139723
1.958513
2.076190
1.623157
1.350663
1.318714
1.606799
2.393638
3.202038
3.843408
4.222411
4.266574
4.126042
3.743406
3.535074
3.622618
3.593527
3.147767
2.135714
1.048587
0.443850
0.168758
-0.289990
-1.091891
-2.029392
-2.772326
-3.263025
-3.836590
-4.322614
-4.145450
-3.511873
-3.105334
-3.093123
-3.135982
-3.084546
-3.374964
-4.083089
-4.412733
-3.885921
-2.828663
-1.666459
-0.734929
0.018400
0.914342
2.012903
3.090682
3.674383
3.649447
3.360588
3.074845
2.705717
1.856019
0.684987
-0.031191
0.120776
0.887093
1.533398
1.589510
1.249217
0.817485
0.426796
0.105725
-0.069876
0.002342
0.220290
0.532273
1.049733
1.783580
2.734852
3.582997
4.018110
3.988239
3.297519
2.114798
0.797776
-0.068547
-0.240511
-0.365977
-0.607299
-0.710944
-0.560536
-0.352979
-0.458183
-0.651448
-0.472466
0.031226
0.189168
-0.394009
-1.185780
-1.357744
-0.731441
-0.018635
0.328677
0.593123
0.871336
0.565592
-0.796889
-2.577076
-3.859028
-4.367132
-4.141911
-3.407285
-2.705650
-2.412889
-2.033106
-0.816091
1.143600
2.855993
3.298120
2.756246
2.342698
2.169695
1.656136
0.870081
0.448739
0.803844
1.643417
2.264784
2.337002
1.914621
0.961015
-0.644088
-2.491036
-3.580500
-3.699732
-3.493214
-3.039917
-1.944992
-0.257018
1.346272
2.218575
2.293130
1.724241
0.599708
-0.830312
-2.283971
-3.618657
-4.471732
-4.414841
-3.795292
-3.400962
-3.456810
-3.954783
-4.620825
-5.008137
-5.101651
-5.022420
-4.806550
-4.209082
-3.157279
-1.801288
-0.274630
1.034602
2.070559
3.372518
5.388060
7.598687
8.953899
8.988450
7.954316
6.467147
5.230135
4.496812
4.065859
4.043781
4.344855
4.606443
4.845172
5.034286
4.692693
3.425288
1.824860
0.947106
1.085305
1.656017
1.947739
1.814221
1.503281
1.104279
0.683717
0.440577
0.342127
-0.036612
-1.074123
-2.357894
-2.940031
-2.630905
-2.339184
-2.751693
-3.661658
-4.527981
-4.852949
-4.467191
-3.500592
-2.294747
-1.290223
-0.662361
-0.194257
0.182928
0.057982
-0.498698
-0.622346
0.082927
0.990038
1.505160
1.829353
2.258492
2.382404
1.824944
0.624559
-0.985740
-2.249249
-2.902563
-3.236882
-3.382870
-3.485216
-3.100497
-1.972843
-0.945978
-0.788556
-0.979224
-0.165888
1.610407
2.890027
3.076542
2.813400
2.851847
3.084082
2.847955
2.002153
1.215059
1.245454
1.978521
2.603525
2.609502
2.262974
1.980349
1.682397
0.914785
-0.616285
-2.407382
-3.731157
-4.471753
-4.978558
-5.517834
-5.992688
-6.276871
-6.208290
-5.846951
-5.532110
-5.200904
-4.632789
-3.868030
-3.115480
-2.465019
-1.636876
-0.565851
0.239172
0.390879
-0.015136
-0.723001
-1.479703
-1.962090
-2.081061
-2.110413
-2.138206
-1.910647
-1.186671
-0.123439
0.693534
1.059289
1.387638
1.859119
2.127721
1.867956
1.336733
1.167366
1.368948
1.120613
-0.027819
-1.574995
-2.617961
-2.912016
-3.266597
-4.053691
-4.676612
-4.683104
-4.244094
-3.923538
-3.996531
-3.963798
-3.155398
-1.598346
0.221850
1.786174
2.693026
3.105800
3.514677
4.025123
4.297362
4.194756
4.359192
5.156162
6.000150
6.448252
6.113673
4.752492
2.973084
1.383046
0.188116
-0.569365
-1.092016
-1.468157
-1.815724
-2.366950
-3.160019
-4.095701
-4.884873
-5.492209
-5.845491
-5.456096
-4.573922
-3.940346
-3.663431
-3.353006
-2.554477
-1.389156
-0.048232
1.820281
3.839460
5.014392
5.082973
4.605262
4.194831
4.115345
4.255881
4.088853
3.564124
3.230065
3.135511
2.804569
1.873563
0.492899
-0.505647
-0.522010
-0.053126
0.257558
0.595779
1.447820
2.495466
2.963050
2.799139
2.400138
2.001137
1.636165
1.398739
1.442123
1.517718
1.501614
1.645008
1.977773
2.354699
2.499652
2.284306
2.016228
1.955185
1.960902
1.611517
0.844164
0.241245
0.039668
-0.147882
-0.496489
-0.529997
0.280741
1.471000
2.362007
2.877129
3.016107
2.825959
2.440206
2.199403
2.330069
2.542821
2.534251
2.591402
3.463445
4.979193
5.852016
5.437688
4.331859
3.278502
2.511929
2.160465
2.178132
2.043055
1.107373
-0.590208
-2.054777
-2.501056
-2.187514
-2.038145
-2.460786
-2.842902
-2.671453
-2.372977
-2.619754
-3.092010
-3.033820
-2.307247
-1.292851
-0.477177
0.041582
0.220824
0.098995
0.120818
0.581129
1.157036
1.334720
1.224061
1.258613
1.402007
0.984562
0.051478
-0.426233
-0.489095
-0.969144
-1.962494
-2.653734
-2.802579
-3.246260
-4.154926
-4.920979
-5.141520
-5.013192
-5.017346
-4.804075
-3.836697
-2.331079
-0.896898
0.004239
0.391295
0.403247
0.253623
0.047629
-0.319940
-0.949875
-1.675665
-1.903219
-1.468365
-0.596582
0.354171
1.143608
1.819786
2.315945
2.624292
2.525323
1.964486
1.138946
0.164039
-0.430827
-0.036757
0.995823
1.502632
1.088305
0.360437
-0.175462
-0.563033
-0.958138
-1.368049
-1.669118
-1.854850
-2.085002
-2.060322
-1.647288
-1.498959
-2.246309
-3.210825
-3.311612
-2.982224
-2.919618
-2.973907
-2.742712
-2.415142
-2.591522
-3.015201
-2.879600
-2.070161
-1.434247
-1.371900
-1.283317
-0.885091
-0.563755
-0.544530
-0.562972
-0.348141
-0.059277
-0.091226
-0.375670
-0.378265
0.069577
0.308306
-0.414106
-2.051421
-3.978637
-5.552309
-6.548257
-7.096105
-7.391719
-7.615377
-7.690707
-7.386257
-6.696311
-5.982207
-5.638532
-5.609175
-5.527606
-5.081842
-4.263571
-3.173323
-1.777587
-0.099224
1.667979
3.110992
4.057848
4.722077
5.238498
5.659584
5.786094
5.375403
4.723388
4.220999
3.671852
2.573815
1.051058
-0.054253
-0.478451
-0.982659
-2.204345
-3.735155
-4.783836
-5.563917
-6.452321
-7.022249
-6.895480
-5.889657
-4.373649
-3.163388
-2.523577
-2.111323
-1.518271
-0.887292
-0.297617
0.587415
1.392438
1.710137
2.130703
3.119382
4.420562
5.520421
6.324405
7.146054
8.130576
9.150687
9.796992
9.683995
8.774810
7.603519
6.616663
5.651108
4.540082
3.451397
2.773146
2.336478
1.505742
0.109492
-1.492754
-2.763537
-3.576868
-4.164460
-4.548135
-5.038055
-5.789562
-6.405729
-6.823434
-6.784986
-6.405203
-6.228558
-6.124389
-6.058925
-6.171922
-6.688858
-7.634151
-8.506190
-8.925972
-8.580739
-7.577772
-6.713522
-6.539995
-6.611429
-6.097606
-5.087626
-4.347025
-4.277665
-4.441576
-4.208562
-3.618886
-2.712554
-1.418907
-0.023172
1.177478
2.058093
2.687773
3.318751
4.032596
4.615517
4.885938
4.695790
3.946102
2.854040
1.584557
-0.090684
-2.019459
-3.215168
-2.952801
-1.680195
-0.339531
0.337167
0.260538
0.160529
0.491736
1.209737
2.164906
3.042923
3.974453
5.135359
6.117284
6.271328
5.659837
5.173554
5.061076
5.457484
6.042484
6.369534
6.988563
7.626815
8.012573
7.916981
7.504472
7.703716
8.287417
8.864363
9.186998
8.834235
7.926608
6.894812
5.731574
4.776150
4.129589
3.511344
2.886864
2.345770
1.915337
0.953418
-0.561806
-2.236787
-3.013491
-2.656827
-1.846349
-1.047041
-0.921311
-1.101068
-1.348884
-1.393302
-1.128856
-1.075602
-1.120279
-0.681009
0.584582
2.305547
3.591141
4.418504
5.209499
6.218440
7.124773
6.900855
6.036609
5.480708
5.463046
5.140417
3.783911
2.061912
0.701769
0.300950
0.474996
0.466167
0.392914
0.399411
0.059637
-0.909036
-2.605318
-4.624492
-6.387275
-7.712868
-7.898600
-7.102409
-6.136330
-5.347412
-5.175963
-5.466381
-5.448195
-4.635119
-3.644103
-3.586432
-4.372487
-4.987615
-4.753043
-4.117388
-3.889829
-3.629020
-2.427072
-0.232030
2.215245
3.682677
4.009987
4.393406
5.532491
7.003559
7.508031
8.682963
10.994380
12.258413
13.860145
14.597628
14.354747
14.849348
15.364210
16.511607
18.604819
20.371763
20.001856
18.304015
15.096663
13.311280
11.474983
9.601539
9.972750
5.745289
6.230278
7.354815
1.790848
0.605010
-1.941233
-4.956617
-5.580837
-6.266102
-5.445233
-5.392498
-5.042848
-5.004141
-6.160625
-7.666757
-8.774665
-8.635947
-7.747798
-6.353621
-6.215163
-7.803641
-9.304578
-9.772158
-9.226383
-8.740095
-8.671774
-8.660342
-8.612283
-8.493307
-9.084536
-9.707717
-8.987379
-7.439679
-5.427774
-2.952963
-0.452175
1.893532
4.145982
6.122558
6.966546
6.875890
7.227098
7.748455
7.517004
6.678995
5.444840
4.214061
3.240713
1.909665
0.830071
0.550044
0.039342
-0.803862
-1.797732
-3.190605
-5.018590
-6.742148
-8.011631
-9.650505
-12.205580
-15.020423
-17.102980
-18.597163
-20.054199
-21.411484
-22.764093
-24.489729
-26.284463
-27.349510
-27.355742
-25.995075
-23.813022
-22.042442
-20.760485
-19.303704
-17.275434
-15.075717
-13.533213
-12.741178
-11.546763
-9.088317
-5.961748
-3.218077
-1.765712
-1.451910
-1.197855
-0.551290
0.390371
1.610763
3.473561
6.034875
8.678535
11.234654
14.088726
17.082554
19.316301
20.764509
21.966457
23.067096
24.158124
25.213563
26.299655
27.069090
27.516932
27.272233
25.922222
24.073456
21.855040
19.775860
17.767336
15.576456
13.555724
12.158694
11.770603
11.070790
9.739222
8.409213
6.817617
5.506051
4.880532
4.583100
4.579985
4.917426
4.926520
4.113968
2.408594
0.394616
-0.848112
-1.544028
-1.968486
-2.392685
-3.548390
-5.171158
-6.658327
-7.523092
-7.814030
-7.931703
-7.726484
-6.991338
-5.467537
-3.406017
-1.410218
0.507132
2.258489
3.667733
4.635111
5.151791
5.440136
5.783811
6.246200
6.128788
5.132840
3.791920
2.614394
1.518176
-0.328252
-2.677331
-4.925101
-6.725810
-7.592913
-7.455753
-7.002716
-7.659407
-8.953049
-10.032902
-10.963908
-11.708920
-12.906188
-14.425568
-15.096546
-14.863532
-14.624544
-14.755984
-15.642050
-16.754894
-16.799571
-15.684126
-14.475423
-13.861589
-13.239703
-11.908390
-9.914149
-8.128762
-7.514668
-7.987444
-8.572958
-8.964166
-9.401873
-9.680862
-9.580589
-9.149372
-8.603337
-7.824031
-6.445701
-4.634856
-3.554219
-3.854509
-4.461064
-3.976855
-1.958716
1.031475
4.171812
6.485048
7.526460
7.964431
8.515920
9.383028
10.184934
10.423403
10.253257
9.833215
8.478787
6.409478
4.686699
3.478521
2.754550
2.197870
1.817052
2.244373
3.071736
3.341117
2.565193
1.009965
-0.240296
-0.495905
0.075846
0.653572
0.582918
0.105726
-0.736699
-1.712645
-2.282054
-2.496360
-2.737942
-3.129150
-3.562181
-4.395254
-5.564468
-6.442481
-6.727704
-6.405849
-5.520038
-4.637345
-4.148979
-3.692304
-3.676196
-4.089485
-4.494721
-4.292879
-3.005986
-2.061727
-2.090819
-2.272395
-2.219659
-2.115230
-1.864033
-1.209675
-0.593243
0.039554
0.662739
0.948486
1.290862
2.086274
3.210812
4.278460
5.354421
6.731193
8.369032
9.582670
9.721389
8.971441
7.409978
5.354697
3.815055
3.246165
2.682731
1.069834
-1.285220
-3.541562
-5.094192
-5.807253
-6.275352
-7.367155
-8.666512
-9.281120
-9.240594
-8.817170
-8.375822
-7.632104
-6.190650
-4.515924
-2.958873
-1.307785
0.553714
2.455477
4.285285
5.855324
7.038050
7.867491
8.603156
9.115940
9.088927
9.203227
9.730558
10.084364
10.178662
10.625206
11.901448
13.490191
14.595765
15.215314
16.134115
17.599468
18.872074
19.227179
18.369687
16.615736
14.396541
11.978364
9.602269
7.071612
4.364573
1.647663
-1.173934
-3.857854
-6.364353
-8.820976
-10.963539
-12.573579
-13.656289
-14.473257
-15.473621
-16.905979
-18.507186
-20.019033
-21.504384
-23.214953
-24.933316
-25.830032
-25.758074
-25.388422
-25.223208
-25.106310
-24.906286
-24.792765
-24.734835
-24.396355
-23.281169
-21.311347
-18.944339
-16.629025
-14.326440
-11.919948
-9.887002
-8.775972
-8.346314
-7.911720
-7.249309
-6.360381
-4.887754
-2.352417
0.794414
2.900614
3.509772
4.126204
5.568957
7.404480
9.336636
11.481022
13.734771
15.371571
16.037358
16.385450
16.970449
17.542720
17.870809
18.463862
19.713088
21.117396
22.049705
22.374417
22.094130
21.421333
20.579168
19.755966
19.048620
18.290619
17.452351
16.427309
15.249783
13.519471
10.637608
6.828114
2.781192
-0.836594
-3.816649
-6.307562
-7.866946
-8.338942
-7.985915
-6.725259
-6.485491
-6.879817
-6.293778
-6.546790
-6.790450
-5.954774
-5.037012
-4.679309
-5.623303
-6.549634
-6.520797
-5.834488
-4.856200
-3.903628
-2.428404
-0.933957
0.189542
1.080548
1.703214
2.114948
2.120665
1.851548
1.694391
2.321473
3.397953
3.663698
2.645410
1.140837
0.404397
0.337119
0.304391
0.133206
-0.398017
-1.252392
-2.295098
-3.058294
-3.333126
-3.940201
-4.939007
-5.679083
-5.920925
-6.135491
-7.168845
-8.987738
-11.230312
-13.742526
-16.085370
-17.707099
-18.625636
-18.807212
-18.203768
-17.127028
-15.586862
-14.072672
-12.660312
-11.021174
-9.225656
-7.326750
-5.841655
-4.592428
-2.836395
-0.496403
1.622526
2.725503
3.364275
4.354512
5.623221
6.539425
6.759710
6.804652
7.429396
8.579651
9.838748
11.357094
13.318344
15.166855
16.066174
16.097868
16.321011
17.566081
19.356404
20.604071
20.942291
20.634469
19.967647
18.718425
17.462190
17.746897
19.327328
20.762028
21.275332
20.723327
19.685557
18.551153
17.275954
15.829309
14.243428
12.607152
11.276363
10.695265
10.152352
8.943394
7.085277
4.409410
1.039702
-2.261166
-4.773120
-6.583440
-8.063855
-9.440363
-10.484109
-10.552685
-9.673628
-8.735864
-8.527787
-9.106028
-9.843767
-9.787655
-8.778454
-7.455714
-6.230126
-5.317819
-4.652551
-4.136910
-3.612696
-2.600638
-1.246465
-0.326365
-0.150759
0.050563
0.711155
0.900788
0.076287
-1.201509
-2.020555
-2.239278
-2.159527
-1.639469
-0.765348
0.161507
0.463879
0.000975
-0.961723
-1.805187
-1.810121
-1.936106
-2.485772
-2.952833
-3.055958
-2.773588
-2.308602
-1.559948
-0.835193
-0.100567
0.141539
-0.306559
-1.007151
-1.544348
-1.670074
-1.963349
-2.143107
-2.981116
-3.342710
-3.291014
-4.376322
-3.965627
-4.018877
-4.942350
-4.443333
-4.056537
-4.111865
-4.419688
-4.860771
-5.387319
-4.826218
-4.368764
-4.760492
-3.834417
-2.143066
0.054833
1.806191
2.160257
2.417429
3.204528
4.223340
4.827822
4.968359
4.930435
4.921865
4.786009
4.148541
3.302479
2.645268
2.337705
2.224968
1.847008
1.112127
0.298017
-0.394263
-0.837165
-0.902624
-0.530894
0.183470
0.861987
0.945374
0.820168
1.157869
1.480763
1.500248
1.447777
1.741836
2.834942
4.324454
5.526402
6.248559
6.490665
6.438714
6.677703
7.455450
8.338144
8.978734
9.529184
10.407462
11.668118
12.639912
12.974236
13.008267
13.112956
13.440266
13.422864
12.652394
11.572801
10.888315
10.787268
10.695572
10.216302
9.464536
8.958770
8.751997
8.489894
8.351440
8.399759
8.576663
8.620826
8.187795
7.516297
6.646856
5.524661
4.503516
3.901895
3.715644
3.304174
2.178602
0.512712
-1.411127
-3.238851
-4.863438
-6.439188
-7.895185
-8.938151
-9.845518
-11.049540
