EVENT_NAME: 202302060117
EVENT_ID: 13194
EVENT_DATE_YYYYMMDD: 2023/02/06
EVENT_TIME_HHMMSS: 01:17:32.00000
EVENT_LATITUDE_DEGREE: 37.288
EVENT_LONGITUDE_DEGREE: 37.043
EVENT_DEPTH_KM: 8.6
HYPOCENTER_REFERENCE: AFAD
MAGNITUDE_W: 7.7
MAGNITUDE_W_REFERENCE: AFAD
MAGNITUDE_L: 
MAGNITUDE_L_REFERENCE: 
FOCAL_MECHANISM: 
NETWORK: TK
STATION_CODE: 4618
STATION_NAME: 
STATION_LATITUDE_DEGREE: 37.60011
STATION_LONGITUDE_DEGREE: 36.87231
STATION_ELEVATION_M: 831.0
LOCATION: Kahramanmaras_Pazarck_Turkiye
SENSOR_DEPTH_M: 
VS30_M/S: 715
SITE_CLASSIFICATION_EC8: B
MORPHOLOGIC_CLASSIFICATION: 
EPICENTRAL_DISTANCE_KM: 37.84
EARTHQUAKE_BACKAZIMUTH_DEGREE: 
DATE_TIME_FIRST_SAMPLE_YYYYMMDD_HHMMSS: 2023/02/06 01:17:08.6857060
DATE_TIME_FIRST_SAMPLE_PRECISION: millisecond
SAMPLING_INTERVAL_S: 0.01
NDATA: 5666
DURATION_S: 
STREAM: HNZ
UNITS: cm/s^2
INSTRUMENT: sensor = GMS+/GEOSIG | digitizer = 
INSTRUMENT_ANALOG/DIGITAL: 
INSTRUMENTAL_FREQUENCY_HZ: 
INSTRUMENTAL_DAMPING: 
FULL_SCALE_G: 
N_BIT_DIGITAL_CONVERTER: 
PGA_CM/S^2: 74.355
TIME_PGA_S: 
BASELINE_CORRECTION: BASELINE REMOVED
FILTER_TYPE: BUTTERWORTH
FILTER_ORDER: 
LOW_CUT_FREQUENCY_HZ: 
HIGH_CUT_FREQUENCY_HZ: 
LATE/NORMAL_TRIGGERED: 
DATABASE_VERSION: 
HEADER_FORMAT: DYNA 1.2
DATA_TYPE: Acceleration
PROCESSING: Automatic Paolucci et al., 2011
DATA_TIMESTAMP_YYYYMMDD_HHMMSS: 
DATA_LICENSE: U (unknown license)
DATA_CITATION: Turkish Accelerometric Archive v 1.0 - Disaster And Emergency Management Presidency, Earthquake Department
DATA_CREATOR: AFAD
ORIGINAL_DATA_MEDIATOR_CITATION: : AFAD - Disaster And Emergency Management Presidency
ORIGINAL_DATA_MEDIATOR: AFAD PROCESS SERVICE
ORIGINAL_DATA_CREATOR_CITATION: AFAD PROCESS SERVICE
ORIGINAL_DATA_CREATOR: network: TK
USER1: GuestUser
USER2: 
USER3: 
USER4: 
USER5: 
[...]
8.358093
1.874058
-1.831500
-2.876255
-2.116402
0.169328
-2.322075
-7.214253
-7.001471
-0.495032
4.792056
-0.999698
-12.959901
-16.290614
-9.084620
-4.785949
-7.501271
-9.176223
-5.374228
1.780331
7.540197
14.315496
16.615253
3.547399
-9.838410
-8.028835
-2.038555
-7.667695
-23.777431
-31.712789
-21.743384
-7.484172
-9.492926
-26.700960
-35.385750
-26.306829
-10.942564
-3.349776
-6.856871
-9.030837
-4.126127
-1.482697
-2.228200
-0.278090
2.019329
3.093501
3.174320
1.997344
2.523146
4.737958
8.085360
10.372128
9.561684
5.484658
-1.839727
-2.138428
9.698708
23.652433
30.603075
27.114164
13.550154
-3.688274
-10.437532
-7.681883
-7.686007
-5.973326
0.979394
10.921264
23.608361
30.056872
27.895374
24.133447
15.736221
2.018168
-10.677958
-18.120277
-13.129844
-5.078825
-13.322528
-27.534400
-31.525443
-23.242711
-8.452273
1.076566
7.184261
8.900319
5.828595
5.904219
4.949344
-0.132984
-9.315489
-17.038877
-17.561758
-12.864343
-7.074084
-7.429935
-7.008560
2.305451
9.060747
4.809677
-2.181166
-1.928380
1.102364
0.363875
2.822091
9.333465
11.943385
16.324922
28.942661
39.142221
38.723766
36.229766
36.063027
34.670962
30.523279
14.164166
-9.644052
-20.815860
-22.190780
-20.857619
-15.312322
-8.432856
-7.169313
-11.347389
-7.859194
2.467652
10.404113
11.390743
7.383076
6.758365
4.256312
-1.388933
-3.037648
-2.583022
-3.380738
-11.981363
-26.015293
-31.146457
-27.352775
-22.847588
-20.498995
-20.628068
-20.804419
-18.923148
-15.304289
-10.365810
-2.630928
7.446540
14.961918
14.487873
10.908562
13.194552
17.272160
20.030927
22.516418
19.788367
12.945332
12.073843
20.213962
24.053623
16.429726
11.744583
13.715474
10.252799
5.043965
3.633716
4.355903
4.920410
-1.217874
-7.831274
-12.715919
-21.274980
-22.607298
-16.470250
-12.025069
-4.251742
2.641491
0.546494
-2.331963
-1.449759
1.389536
4.094271
2.614405
1.672778
5.709083
13.642427
21.766961
18.145048
6.093407
-0.368029
-1.385768
-3.020456
-8.916637
-12.134610
-8.420677
-6.788783
-7.391673
-0.809382
7.722728
6.061284
5.111344
19.364841
29.367237
11.954765
-13.727939
-20.480055
-14.657065
-10.151099
-9.523468
-7.259299
-0.396719
2.465436
4.362553
12.488125
19.689703
20.302787
13.198945
6.141342
7.690110
8.779088
5.532021
8.253641
11.794569
3.551645
-5.881795
-2.581672
0.807032
-8.201688
-11.817366
-1.601441
3.065061
2.844290
6.886051
8.845772
8.984779
8.838042
6.512631
1.705398
-6.596234
-14.474444
-20.724429
-26.397728
-29.727142
-34.400595
-36.381554
-29.929407
-17.262312
-4.798355
-3.492470
-6.887086
-5.808758
-4.740041
-4.718448
-2.033456
5.735975
8.051838
-0.083023
-3.985745
-4.250157
-6.452178
-3.485337
-3.629217
-7.721049
-8.278999
-14.892919
-22.141192
-20.625674
-18.631664
-14.719008
-1.924367
6.831143
0.253851
-13.435108
-15.370347
4.684807
18.440070
12.742611
11.348728
10.874424
5.249441
0.575468
-5.220702
-8.009539
-8.294213
-11.190334
-23.320165
-33.844891
-23.813142
-12.198886
-14.289986
-16.247306
-1.951206
16.278299
13.151764
-1.760702
-13.099020
-17.572712
-21.871839
-24.715747
-19.620368
-19.224709
-18.434464
-8.597021
2.701097
7.748679
7.487644
5.141711
-7.678064
-22.378299
-23.669833
-17.346531
-13.823007
-8.943495
-1.081327
5.518108
18.348078
22.135526
9.858666
5.904770
16.321755
32.731846
35.443335
20.465667
3.653000
-13.145381
-22.329704
-18.764877
-11.834497
-8.032243
-7.334474
-7.950872
-9.102651
-9.862960
-13.830624
-14.593271
-2.340246
11.099918
13.235502
5.331055
4.469437
16.323198
15.552498
5.296892
0.208850
-9.391882
-17.940812
-24.813461
-32.635041
-31.759072
-19.771011
2.472169
20.451778
30.333901
41.508629
47.185369
40.525990
25.480004
14.250008
5.094779
-2.638740
1.890605
6.217851
6.753524
8.387755
-7.851345
-22.413903
-2.646052
15.941414
7.908902
-0.985780
2.551511
13.348537
20.113964
11.791031
-3.537323
-18.962570
-26.868056
-15.015853
-9.045835
-18.188595
-21.073286
-16.760847
-10.453650
-13.971656
-17.698514
-2.617396
10.606901
8.858694
14.238260
27.620756
33.855737
31.114438
14.083045
-2.720011
-6.696767
-14.064013
-24.102453
-22.197024
-14.370964
-11.731431
-11.609568
-14.491661
-22.236610
-25.683959
-12.740991
1.599270
0.539968
6.382699
20.837517
21.810639
15.899652
13.680746
5.826954
-6.665254
-10.174947
-7.220315
-1.136258
12.424698
27.364762
28.765722
17.198288
3.642590
-5.420941
-3.882823
-1.143019
-2.986820
-2.915612
-5.328045
-11.173312
-20.727804
-27.644093
-17.721446
0.793024
18.647685
26.393996
18.421490
13.323836
13.858989
12.629020
12.824917
8.888945
-0.751011
-4.263042
-4.701499
-15.305453
-28.162635
-28.747861
-24.947165
-25.185340
-20.531826
-12.261563
-5.945274
0.188917
1.968099
2.881735
4.876784
-0.763525
1.491811
17.617716
23.567212
18.486703
7.992890
-6.580319
-16.779555
-24.081600
-22.111488
-9.349059
-6.983321
-14.616569
-15.007229
-12.459913
-13.826260
-15.135719
-14.276895
-13.673162
-9.783885
-2.715049
-4.618597
-7.862807
-3.027455
4.311800
8.676712
4.259650
-1.281688
-6.144512
-9.207404
-3.736920
3.215281
8.224158
2.443574
-13.673695
-22.457716
-24.295543
-16.546894
2.312030
10.418379
7.716564
20.107266
40.830544
37.793109
24.423405
31.273517
41.772329
42.730385
42.119442
31.827469
11.548717
-1.869823
-6.427679
-11.233354
-16.900679
-17.307704
-10.990376
-10.783570
-17.984565
-18.122470
-10.582674
2.397701
19.054831
25.398915
14.457522
6.083155
9.731367
13.883270
23.174421
33.965471
37.843578
37.936867
32.643088
25.991242
19.814252
14.661008
8.282698
0.654645
-1.254358
-2.869304
-0.352381
15.432968
29.949870
27.025435
15.560869
2.788891
-19.869335
-31.995010
-16.348117
-1.378699
6.040304
14.503835
12.051917
1.452898
-2.577890
2.573080
6.703941
5.037822
-2.582699
-7.042103
1.811079
12.512770
14.363908
7.164472
3.658675
5.819197
-1.811974
-16.901342
-24.714350
-20.451267
-22.858504
-29.740504
-19.291568
-7.419882
-8.728302
-12.132009
-13.457833
-19.418956
-19.029272
-4.801492
0.723024
1.251424
5.125375
1.283439
5.655624
17.848383
14.272189
3.803054
1.022270
0.811890
3.292445
7.397330
10.349104
17.656927
24.542627
26.666002
25.259650
26.033530
31.664811
25.579259
15.209615
16.409255
14.182816
3.002955
-4.821742
3.184596
16.030412
14.405595
3.081044
-8.626665
-12.215587
-15.802690
-23.550497
-17.764135
1.501845
27.262801
40.013022
20.858546
-4.288256
-10.597208
-10.779793
-11.964043
-2.001652
7.941256
9.262727
16.536261
19.401273
16.300455
24.232240
26.699028
13.422061
2.731084
-6.731190
-25.108440
-35.091810
-23.427679
-5.022310
4.785779
0.699921
-3.238649
4.291016
9.408475
11.273121
8.116713
-1.570002
-6.352038
-6.638530
4.464242
18.136899
13.630996
1.046571
-9.997171
-17.996433
-19.172371
-14.846943
-6.913599
-5.631613
-19.112238
-28.860777
-19.170363
-9.248235
-5.678473
4.350419
10.089763
-0.731618
-22.087107
-34.422155
-31.613253
-30.819111
-35.602965
-36.395226
-33.135886
-32.605668
-33.797712
-34.536979
-36.008533
-33.638119
-23.269970
-4.247653
15.464088
23.860598
23.456950
25.408359
29.149828
33.277831
39.310973
41.713598
44.318582
40.597439
24.456011
11.593634
0.463909
-2.131401
14.840828
27.351023
25.715815
17.128439
1.614091
-13.015227
-23.626456
-28.517594
-24.224118
-13.671794
-6.240582
-7.944887
-8.787023
-12.310484
-20.457294
-13.879938
-0.819555
-1.722477
-11.680129
-28.639566
-45.240523
-41.639328
-29.387602
-22.572819
-16.474995
-14.059382
-14.250539
-12.286662
-9.312028
-6.222576
-1.297085
0.880841
2.036320
-0.193496
-12.915079
-19.637062
-16.200301
-9.383179
-1.985477
-3.118813
-14.285685
-25.724534
-21.590295
-4.811854
10.871666
19.033346
20.414564
22.326228
17.714599
3.707165
1.051070
10.557309
3.967288
-14.064211
-20.463562
-21.665477
-24.281568
-27.316405
-20.299262
-4.545345
1.545725
5.033400
4.145026
-8.628251
-17.328886
-8.637020
8.559129
14.019482
4.868149
-8.655857
-16.902677
-21.514565
-23.906736
-21.186415
-13.496474
-7.245387
-9.253621
-15.087198
-22.094925
-20.129489
-9.244143
-4.028491
-9.216544
-15.844491
-12.999221
-10.324879
-9.784530
-7.396712
-10.499608
-7.409897
11.652684
26.706787
27.596264
26.054313
24.745114
26.084509
36.344075
38.243010
24.040750
13.465110
14.417191
25.447488
34.206894
35.959580
42.031427
39.780570
26.617381
25.822263
28.818458
18.399978
7.200895
1.496942
-3.953217
-12.996486
-18.988261
-9.808811
1.316042
1.078646
-3.373485
-8.530886
-11.664435
-9.920841
-5.671785
0.653595
3.520686
6.076834
7.553646
-6.957738
-17.023713
-10.078007
-10.072780
-20.477233
-20.548638
0.205292
10.462520
7.371573
20.956948
25.713330
13.631815
11.974528
11.708817
7.193562
11.231946
15.861042
17.078346
25.156381
24.545958
10.924279
3.933436
5.634169
19.080567
26.356698
9.029690
-4.141811
-1.648527
1.709525
5.410470
12.044974
19.116928
25.488028
31.352320
29.078343
17.880040
16.630068
25.039567
27.318282
18.019921
6.144403
11.150422
21.917055
29.091097
34.087505
24.830706
12.727631
6.298147
-0.395262
-3.082789
0.770380
1.655441
-3.762247
-5.034299
4.317118
17.869502
20.027686
22.064038
31.465590
29.711929
23.758599
20.472307
20.505069
22.413096
13.331121
5.032087
11.134847
16.525323
6.545590
-7.441322
-8.309954
3.193900
9.637475
-0.300435
-14.437494
-24.130442
-30.047145
-28.616311
-15.118479
-1.183976
-9.048418
-23.479274
-20.717909
-6.887054
9.607201
18.798601
19.737434
23.422793
24.018473
9.103669
-5.364853
-1.097613
8.737232
9.298362
1.566921
0.764530
9.247283
16.411194
24.355708
28.807642
24.001967
8.357995
-10.563468
-12.419998
-1.407365
0.509234
-4.943523
-6.407803
-11.985768
-23.882588
-26.925218
-17.090632
-5.188814
-0.362554
0.065056
-0.161690
-0.363238
1.977043
9.389292
18.678884
17.298769
10.323772
11.653556
12.430034
5.225922
-5.172817
-10.876769
-10.795690
-13.514129
-13.794907
-9.635991
-19.012802
-35.346977
-29.529963
-10.724552
-1.876305
-1.608972
-10.900580
-22.920270
-23.110128
-13.984190
-10.331302
-16.737407
-8.816012
14.325185
14.366000
-0.925726
-7.587443
-8.232415
0.546993
8.101855
16.437580
22.565796
0.599073
-22.383603
-24.378589
-29.265831
-37.457061
-36.653567
-26.555317
-9.677644
3.691344
-2.379921
-19.195706
-20.736618
-0.551579
18.972610
14.841292
5.472534
9.416882
14.470438
11.724983
9.391519
17.665159
19.738918
10.471989
11.121180
6.611381
-4.805387
-0.920786
-3.798983
-13.684420
-15.470033
-15.825624
-17.187815
-26.559691
-27.777711
-15.790429
-8.347007
-5.117281
-2.722968
-7.508641
-22.015349
-27.449143
-20.539284
-11.161631
-6.297445
-0.550827
14.684333
11.040081
-6.205101
-17.815916
-26.490574
-13.963235
5.810331
9.362949
3.015811
-5.554940
-10.433090
-8.678586
-6.915509
-15.925788
-16.595438
0.388740
4.610000
-6.931717
-13.287946
-2.924733
8.126865
-2.620742
-10.765214
-0.930368
5.050560
3.277156
4.483030
5.851259
-2.312176
-16.900970
-22.147212
-18.781107
-21.136392
-21.074016
-16.813011
-18.348467
-20.400083
-19.985202
-15.479755
-13.286503
-19.605586
-20.240427
-13.893746
-15.596493
-14.580509
3.466640
12.773636
1.069045
-2.832898
2.719154
-3.484072
-16.395026
-12.661350
12.821135
25.987504
21.574598
20.655831
5.490611
-13.191087
-12.548130
-3.348937
6.081450
5.687414
2.177721
-0.839972
-12.068668
-26.940350
-38.629096
-32.356968
-13.752617
-8.614896
-7.457858
6.932538
13.947342
4.788736
2.351365
9.898954
17.060787
21.969134
28.850677
31.681140
19.517539
11.055371
12.168248
12.718208
10.582168
2.818776
0.459855
-1.980893
3.735072
21.359318
19.046636
14.581517
21.800759
14.599504
3.078309
5.353648
9.345793
6.435644
0.518682
11.571319
31.423076
21.038365
7.973109
13.808308
13.381540
8.271418
1.252260
-10.133336
-21.440483
-26.002236
-22.673538
-19.054939
-17.965701
-24.614169
-38.076870
-41.596174
-37.202168
-33.472129
-25.166797
-15.877984
-12.775544
-18.469366
-18.976661
-5.723530
2.687008
2.169582
3.840181
8.124305
14.526317
13.276605
-2.654410
-4.682906
18.972891
32.386299
20.907706
13.764899
18.000187
20.743368
19.124006
10.605728
19.204338
36.304632
29.240535
26.120494
40.140200
45.624712
36.533905
28.351507
27.078156
21.640986
10.635170
4.931477
12.935738
25.925984
24.216483
10.649356
10.629385
19.848840
19.323881
18.296790
21.649127
29.362967
35.144653
23.562152
12.449572
9.790879
-1.596276
-6.144261
-1.223446
-4.517531
-4.514642
-2.939118
-11.191654
-13.810343
-4.818704
1.123779
-7.225910
-21.662741
-14.947968
6.924003
9.235190
7.357879
17.839806
17.231201
9.454041
5.908500
8.794813
16.326556
11.509452
1.305280
3.846881
12.311450
15.847962
17.753132
16.440556
19.136459
30.662134
26.534973
12.075542
5.775422
9.299466
19.059238
13.603104
-2.733409
-9.528647
-10.077245
-9.956161
-6.117799
-4.434991
-4.676543
9.118464
15.413971
-3.546458
-19.259788
-22.234878
-25.555720
-30.347627
-20.782421
-4.877839
-6.022864
-0.862023
12.520213
6.790803
4.132630
13.124268
16.172417
11.155291
-2.217790
-13.141260
-23.231134
-26.627827
-12.185479
-6.521727
-14.684642
-23.421126
-25.491964
-22.460441
-29.702219
-34.860139
-30.589263
-23.577576
-9.553454
5.107100
10.170788
1.863182
-11.826556
-28.190865
-45.296031
-40.696808
-27.400815
-21.699917
-5.846249
-0.628259
-3.826230
11.858329
18.706102
19.561030
28.076514
10.055666
-13.037411
-10.900529
-14.202147
-21.391972
-13.651896
6.238306
11.038849
-13.830002
-19.336271
-5.456579
-17.144545
-29.979387
-27.742754
-41.962418
-57.573919
-55.185062
-55.731062
-50.129915
-26.768434
-4.959846
3.024152
4.601495
1.122714
-10.080005
-18.251493
-25.148560
-26.667911
-15.045862
-7.034588
3.307584
26.822587
31.826009
8.018570
-13.434332
-17.801519
-11.757207
-2.562950
0.587547
1.547941
15.150980
22.590245
16.268045
13.543890
3.386217
-17.123728
-25.336259
-11.492416
-2.111125
-10.285730
-11.312821
5.161952
17.369777
19.016478
33.637287
44.689664
31.957431
17.039770
11.739237
6.603138
0.885677
8.666797
13.586573
9.989858
15.239020
11.342014
1.509050
6.921606
14.848976
10.345151
1.187064
3.357977
10.706583
16.183821
22.111237
17.964334
17.282734
27.535546
20.586007
5.212193
-1.166377
-10.558774
-13.500354
-7.537090
-7.920995
-5.514214
-2.678296
-6.033946
-2.528087
6.032337
13.650063
20.978148
21.814892
19.518055
15.327771
-3.190793
-15.387645
-8.696251
-8.795971
-9.091815
-1.870754
-7.481710
-16.482117
-10.111797
1.460636
12.909419
18.720719
14.067528
10.286118
2.193080
-8.461010
-13.325912
-19.845536
-20.782487
-9.655037
4.737437
12.444003
15.327978
15.143575
7.087943
2.835054
7.569876
10.569448
-0.756662
-25.861901
-31.830297
-4.569700
24.407183
30.985838
20.355127
11.999983
9.208808
0.297761
-11.367086
-13.035803
-4.659555
-8.666703
-19.150386
-9.125910
-2.313984
-17.857686
-24.513688
-8.682619
-4.598516
-13.104845
3.197702
26.244863
31.384403
26.281294
16.413262
3.818445
-16.626817
-30.003535
-30.133907
-27.852074
-19.737152
-12.404391
-3.313521
6.994881
15.442565
24.754498
14.407973
7.566497
20.329706
22.134345
20.221446
15.632937
8.059435
11.484506
17.860282
13.616225
-1.099336
-6.154908
0.843531
17.122179
31.899889
24.591610
24.148217
29.239440
16.373946
11.655813
4.055035
-6.718808
7.187380
11.854922
1.561909
3.987134
9.831684
13.864613
9.329876
-4.794194
-18.382882
-13.708587
15.502608
20.951271
-7.486531
-28.297806
-35.755452
-35.722949
-17.896084
14.112291
32.917183
16.951618
-16.199933
-28.970092
-22.860839
-11.236192
2.133055
-2.642747
-26.575134
-43.434300
-50.389814
-51.082584
-29.763918
-5.386485
3.879208
9.439572
-4.067809
-29.634915
-30.142990
-19.622357
-17.802132
-14.665402
-18.980895
-29.271050
-29.662489
-25.392652
-23.285643
-19.110621
3.373363
31.251688
20.606431
-8.525731
-2.183985
35.821133
60.227140
59.672567
58.730161
43.175549
8.818935
-9.619880
-16.471228
-28.436107
-25.314444
-18.128193
-44.711252
-74.354896
-67.629473
-51.144050
-43.219538
-34.600926
-37.060117
-45.166144
-39.547072
-29.170611
-15.298712
10.101427
22.547719
-1.291411
-39.352056
-63.856193
-60.414496
-42.233307
-33.807703
-21.391544
-3.689627
-3.164345
-18.950930
-31.075306
-27.416183
-1.324282
47.135455
65.199748
32.001699
4.391778
1.961421
-0.607653
-16.189021
-16.557859
2.043634
10.435728
14.208369
16.490981
20.435589
21.159074
20.586837
21.540996
0.042635
-23.716487
-38.772085
-56.104549
-64.667247
-66.148672
-67.967535
-72.860232
-71.620848
-73.000444
-72.636997
-47.051124
-25.946507
-23.860019
-14.339493
3.866893
14.465196
7.826858
-7.381743
-10.272668
-1.524952
13.116379
27.133748
22.981909
12.155333
8.743572
15.265597
22.452628
6.175082
-18.184104
-20.344822
-5.306306
2.158677
2.116886
19.600338
48.728926
58.729763
37.348037
2.760229
-7.921136
5.764509
10.147085
19.350694
48.032481
62.147003
59.099437
46.503322
17.202831
-4.728044
-0.394045
10.647942
1.309317
-16.094323
-21.506036
-15.782798
4.388473
16.308215
10.828183
15.721982
23.348281
17.072579
8.489099
3.177656
-6.588547
-21.361777
-31.569846
-31.660733
-23.208373
-15.236843
-11.440043
-6.016577
-10.624309
-27.587122
-33.107159
-24.542579
-4.031532
38.802412
71.809595
52.584462
11.121117
-10.487646
-10.646592
0.739587
5.536233
14.118218
22.191317
-5.862028
-44.079313
-54.586375
-47.915503
-47.855725
-43.888517
-18.291214
2.394657
7.005309
14.883582
26.914506
30.726112
24.900069
21.724178
28.341277
24.904320
17.810349
35.267824
43.387162
19.274236
-0.795662
2.295868
8.529810
4.242892
4.989756
19.123241
37.955928
42.890770
24.942397
23.493443
54.089980
63.592582
46.905382
43.496999
41.478893
24.632715
11.482775
1.278343
-5.706265
12.591040
30.678193
21.001609
9.044264
3.994667
-6.186386
-11.840463
-7.172921
-8.509915
-2.957344
28.175094
53.632901
50.718077
39.534580
36.980314
35.191583
28.951730
25.068491
23.577454
25.361053
29.823637
25.295394
10.515670
-1.662218
-8.720081
-18.286523
-18.753814
-5.629527
0.530641
-2.911772
-19.502858
-40.334136
-27.291936
5.788242
10.099642
1.981406
13.751003
7.531151
-20.031752
-28.307667
-32.656670
-51.861541
-63.580679
-26.223422
14.792666
-0.724800
-11.877384
0.600600
0.000000
0.000000
0.000000
0.000000
0.000000
0.000000
0.000000
0.000000
0.000000
0.000000
0.000000
0.000000
0.000000
0.000000
0.000000
0.000000
0.000000
0.000000
0.000000
0.000000
0.000000
0.000000
0.000000
0.000000
0.000000
0.000000
0.000000
0.000000
0.000000
0.000000
0.000000
0.000000
0.000000
0.000000
0.000000
0.000000
0.000000
0.000000
0.000000
0.000000
0.000000
0.000000
0.000000
0.000000
0.000000
0.000000
0.000000
0.000000
0.000000
0.000000
0.000000
0.000000
0.000000
0.000000
0.000000
0.000000
0.000000
0.000000
0.000000
0.000000
0.000000
0.000000
0.000000
0.000000
0.000000
0.000000
0.000000
0.000000
0.000000
0.000000
0.000000
0.000000
0.000000
0.000000
0.000000
0.000000
0.000000
0.000000
0.000000
0.000000
