EVENT_NAME: 202302060117
EVENT_ID: 13194
EVENT_DATE_YYYYMMDD: 2023/02/06
EVENT_TIME_HHMMSS: 01:17:32.00000
EVENT_LATITUDE_DEGREE: 37.288
EVENT_LONGITUDE_DEGREE: 37.043
EVENT_DEPTH_KM: 8.6
HYPOCENTER_REFERENCE: AFAD
MAGNITUDE_W: 7.7
MAGNITUDE_W_REFERENCE: AFAD
MAGNITUDE_L: 
MAGNITUDE_L_REFERENCE: 
FOCAL_MECHANISM: 
NETWORK: TK
STATION_CODE: 3146
STATION_NAME: 
STATION_LATITUDE_DEGREE: 36.490758
STATION_LONGITUDE_DEGREE: 36.226952
STATION_ELEVATION_M: 698.0
LOCATION: Kahramanmaras_Pazarck_Turkiye
SENSOR_DEPTH_M: 
VS30_M/S: None
SITE_CLASSIFICATION_EC8: unknown
MORPHOLOGIC_CLASSIFICATION: 
EPICENTRAL_DISTANCE_KM: 114.57
EARTHQUAKE_BACKAZIMUTH_DEGREE: 
DATE_TIME_FIRST_SAMPLE_YYYYMMDD_HHMMSS: 2023/02/06 01:17:31.7947850
DATE_TIME_FIRST_SAMPLE_PRECISION: millisecond
SAMPLING_INTERVAL_S: 0.01
NDATA: 8582
DURATION_S: 
STREAM: HNE
UNITS: cm/s^2
INSTRUMENT: sensor = ACEBOX/SARA | digitizer = 
INSTRUMENT_ANALOG/DIGITAL: 
INSTRUMENTAL_FREQUENCY_HZ: 
INSTRUMENTAL_DAMPING: 
FULL_SCALE_G: 
N_BIT_DIGITAL_CONVERTER: 
PGA_CM/S^2: 346.931
TIME_PGA_S: 
BASELINE_CORRECTION: BASELINE REMOVED
FILTER_TYPE: BUTTERWORTH
FILTER_ORDER: 
LOW_CUT_FREQUENCY_HZ: 
HIGH_CUT_FREQUENCY_HZ: 
LATE/NORMAL_TRIGGERED: 
DATABASE_VERSION: 
HEADER_FORMAT: DYNA 1.2
DATA_TYPE: Acceleration
PROCESSING: Automatic Paolucci et al., 2011
DATA_TIMESTAMP_YYYYMMDD_HHMMSS: 
DATA_LICENSE: U (unknown license)
DATA_CITATION: Turkish Accelerometric Archive v 1.0 - Disaster And Emergency Management Presidency, Earthquake Department
DATA_CREATOR: AFAD
ORIGINAL_DATA_MEDIATOR_CITATION: : AFAD - Disaster And Emergency Management Presidency
ORIGINAL_DATA_MEDIATOR: AFAD PROCESS SERVICE
ORIGINAL_DATA_CREATOR_CITATION: AFAD PROCESS SERVICE
ORIGINAL_DATA_CREATOR: network: TK
USER1: GuestUser
USER2: 
USER3: 
USER4: 
USER5: 
[...]
-75.684479
1.574539
108.455903
128.466855
70.235447
-16.442775
-65.322760
-48.657214
3.902759
23.702124
-55.855569
-129.815454
-88.513053
-13.033467
7.347352
-27.867884
-44.465376
-9.753486
6.010538
-0.652441
9.333050
20.091007
16.729246
19.009480
55.417802
84.508037
41.846592
-52.293504
-106.662814
-58.574214
5.816601
-14.175861
-67.660249
-63.985414
13.928002
75.923097
64.484108
45.290064
42.403846
63.030152
115.803582
137.695899
121.877186
105.070212
89.150732
47.947948
-65.785294
-169.975399
-112.270717
62.325349
170.741827
137.544261
62.804429
44.067224
51.171397
52.476931
61.600645
81.243833
87.722833
54.780808
26.438276
17.961265
-14.936105
-49.485954
-68.364372
-64.161857
-44.904200
-42.716549
2.026879
55.619301
20.309611
-64.389751
-173.466453
-235.526057
-194.028202
-168.050744
-193.014671
-214.581992
-217.081275
-182.061942
-138.341844
-120.695050
-115.407014
-92.117290
-38.999009
8.022540
24.001891
31.480140
39.551766
35.481600
29.656784
18.555398
3.375185
27.142791
67.431914
77.184777
68.360576
73.045883
124.943274
161.170170
119.001336
81.979549
101.271574
143.909892
162.093484
131.784717
96.177403
66.682251
52.573999
74.906557
58.390894
-18.010536
-64.643261
-29.833644
48.689983
47.186910
-79.880959
-211.225915
-247.590264
-192.557418
-81.466300
47.944003
144.064848
152.222746
48.885066
-99.284877
-131.512417
-22.204237
98.198091
205.049062
296.728227
308.546454
209.094017
15.307423
-130.339847
-112.582935
-8.816218
79.377965
101.246670
52.219393
-51.085556
-176.950771
-252.331676
-278.939198
-284.978405
-263.833537
-231.336877
-170.676530
-139.502227
-202.780850
-233.708478
-175.083570
-116.035256
-77.497742
-38.126273
11.951475
40.135277
11.922269
-40.097379
-97.096207
-144.502568
-148.649186
-88.085866
37.600281
121.725690
77.742823
-5.651951
-40.025049
-17.495867
22.319115
14.811193
-17.469887
-19.469779
3.878161
42.075967
76.465217
67.325156
-16.125729
-156.164904
-266.524451
-264.948180
-153.298053
-26.315734
25.171109
20.061012
11.506847
-3.792369
-22.822521
-12.453369
13.554482
7.233549
-26.096112
-48.365760
-65.583750
-105.381646
-134.640662
-88.448626
20.942085
106.602373
100.659022
25.593043
-49.099095
-89.856963
-75.056417
-8.282740
71.839826
134.235416
110.076921
-23.108487
-154.223387
-200.576491
-171.767047
-100.688928
-32.301815
-8.934237
-49.167697
-124.014609
-172.417881
-154.691596
-82.833296
-30.154086
-54.186565
-115.497083
-140.366322
-124.657708
-127.752473
-153.512713
-148.031093
-123.369914
-104.191515
-63.313456
-0.511994
50.565938
50.255231
12.256638
9.886177
46.354586
75.284435
73.009831
48.492457
51.924610
67.219403
45.441198
-5.857887
-79.361400
-112.803517
-66.021844
-21.544009
-4.968474
10.675845
14.174397
26.854869
63.747620
94.794270
98.176624
74.267824
46.562624
53.910414
106.147279
163.120409
200.541074
227.517079
221.942661
178.834195
142.981161
130.216775
144.792173
191.389381
231.985947
236.812468
202.761776
120.438028
1.478248
-80.128677
-55.546288
20.318362
70.780940
102.507004
113.143854
86.495184
26.433612
-16.950734
21.829228
90.528459
100.257942
55.127130
13.321851
20.274290
55.515730
79.077595
59.890798
-15.893407
-107.581671
-199.778444
-289.349673
-324.015018
-282.867391
-186.837727
-80.679029
-40.278619
-90.625213
-166.510419
-177.193775
-88.597929
29.697185
106.327755
164.753701
206.097951
188.935371
135.050021
98.574150
122.089489
165.886974
146.317217
122.219977
160.142370
195.239792
182.645844
106.042647
-21.905468
-126.992420
-181.691852
-182.937046
-108.407612
-7.833630
21.619223
-31.610559
-102.828236
-164.832898
-202.372312
-172.627212
-74.077914
51.348483
150.349010
174.990550
115.650475
19.102502
-40.238742
-38.089200
4.166392
50.647636
44.765540
-3.555669
-26.124811
-23.832185
-27.867750
-16.775697
38.999222
103.557905
102.858627
41.322495
-8.940167
-10.875064
28.294405
68.268135
89.542761
110.550156
91.553670
23.882698
4.440361
58.841487
123.349903
162.460922
178.100800
164.035800
101.999809
32.763564
8.863882
51.927712
157.132516
230.476130
216.494596
97.429140
-114.657234
-209.837260
-134.897278
-37.190819
106.854257
223.019477
202.751368
121.371460
-9.291977
-94.209706
-31.266797
62.892022
119.548590
102.019183
3.640810
-64.175116
-83.940094
-79.918070
-42.974819
-25.555978
-76.794977
-164.321883
-192.806330
-136.365790
-37.621739
75.714534
143.041376
125.244737
14.447756
-132.044691
-164.345410
-97.780046
-56.828342
-59.624547
-93.522803
-92.448027
-34.787534
-6.057113
4.339861
22.789982
54.607461
140.149915
198.293902
177.907258
165.844264
182.585794
191.726575
145.376978
38.453550
-55.326732
-110.229100
-114.159924
-52.129759
28.263544
72.714259
58.443283
29.136572
22.319755
9.253770
-12.733684
-54.279682
-110.168207
-96.588551
-11.004948
37.839752
0.927616
-72.098249
-140.360728
-197.433203
-214.481690
-185.489417
-139.997135
-78.584195
-4.867908
44.795317
40.927618
7.155145
-0.123188
18.083316
21.204753
10.438165
20.495665
61.739149
92.707944
79.340595
26.338064
-40.573535
-64.925381
-32.345255
6.539214
33.030091
51.653689
64.412951
79.064801
67.490911
16.800400
-15.448182
14.088138
83.984411
132.080259
113.571708
65.034704
36.251465
18.355229
-11.264069
-49.099705
-50.117882
-9.215509
2.789289
-15.385166
-17.212515
-10.688159
-3.387362
-0.727441
-7.386913
-5.245788
0.173642
-3.354817
10.228814
58.615272
103.349349
117.708251
100.735047
17.142247
-100.398617
-149.739649
-126.763214
-101.316943
-114.804932
-135.055038
-99.863865
-33.372380
12.279585
37.341960
43.883851
44.872823
35.393055
-12.938675
-38.668990
-2.277969
22.993655
39.566384
93.921920
154.766732
164.387499
78.690524
-24.211592
-12.725356
68.960378
106.898670
99.384670
86.532844
58.533059
19.048685
48.684602
159.316309
188.699023
56.605449
-93.828353
-172.793136
-173.471138
-58.509506
84.303692
103.070141
-28.697053
-207.243105
-303.856542
-255.250548
-52.819515
169.264751
255.476099
190.661194
-24.822488
-221.839926
-198.338616
-64.576878
54.107274
135.377784
162.803382
157.170047
80.918481
-50.401459
-147.030092
-161.649660
-58.286944
92.734643
190.356934
213.831358
151.335021
71.017253
34.825446
28.247336
58.643094
80.096575
55.858354
18.794250
-18.688352
-31.294223
-20.207313
-8.059899
26.954758
74.610131
80.256345
29.163002
-10.250765
2.070126
35.487247
89.969734
124.691443
89.870623
28.995904
-31.699727
-90.616394
-135.498446
-150.356252
-107.934664
-37.429348
12.246501
31.714575
11.515904
-47.029259
-85.656766
-33.615590
64.761633
126.473366
149.854505
129.116931
88.381976
87.497998
118.222475
152.690514
171.622491
161.422861
103.186777
-10.723916
-94.306897
-70.437355
35.398000
147.114058
180.660001
143.502611
99.146136
36.178230
-47.048210
-86.352092
-62.024308
-10.602694
33.385102
59.388277
89.226897
105.952529
68.568356
23.597929
27.784312
92.130239
201.730432
248.472827
169.075987
46.738071
-63.297433
-117.886279
-74.908488
7.112045
86.934883
97.557471
-48.126972
-213.634151
-242.181956
-169.932981
-66.015932
7.474274
1.175084
-86.750681
-186.561062
-212.819057
-189.352816
-150.664970
-117.973790
-139.645150
-182.726963
-217.550588
-252.393852
-268.843585
-283.397455
-282.190116
-225.156666
-128.284630
-7.498174
91.080816
112.449428
83.664319
43.824807
17.393802
38.978676
91.742053
111.537209
84.568237
56.995600
50.474536
60.035451
89.960809
134.877248
175.593753
182.100574
144.711959
107.601796
111.335782
149.233159
192.299326
211.229433
201.244896
179.850352
145.626183
93.614484
45.750115
29.595902
64.993987
125.261086
141.578508
95.524431
29.548723
5.937079
43.293917
77.574217
69.404883
34.883557
-14.568295
-44.160941
-36.518566
-44.837063
-83.182611
-93.859888
-56.780568
22.001171
110.757169
139.233218
140.802475
167.242149
174.671535
153.676550
78.850914
-22.122608
-2.755535
86.793270
96.425727
53.852189
12.978125
-0.013278
22.561961
26.935149
9.279958
9.265940
22.806785
28.985122
19.565907
8.406773
-5.984140
-36.505195
-46.067961
-33.923586
-52.484741
-78.833917
-65.061846
-10.717766
51.755211
64.276467
37.367112
31.679770
48.388101
76.669397
107.715111
133.095918
166.931769
177.959762
155.461227
124.164667
29.401502
-115.418126
-208.211783
-244.388861
-241.101662
-195.231330
-120.033002
-30.562987
-1.070154
-63.902692
-136.773783
-160.856762
-133.732996
-85.082114
-54.605462
-35.255455
-16.269939
-21.192297
-40.463027
-64.632277
-135.825171
-220.317856
-237.465473
-186.605441
-77.565192
34.745413
80.740358
112.782751
135.879592
89.695991
33.570863
26.234548
23.212728
-11.552682
-35.897046
-15.562753
-17.786623
-51.972917
-29.332682
18.247409
28.846618
33.642277
39.187724
68.160826
133.812043
159.608307
111.109179
28.373246
-15.767902
16.691351
54.502223
64.057527
75.932100
46.801905
-47.341697
-116.934483
-90.841997
-0.625702
86.925539
117.361510
84.240163
22.257244
-41.801093
-79.723935
-122.833101
-208.813439
-257.707217
-211.830106
-81.598941
86.019212
182.342526
195.207464
186.109019
149.546176
105.609601
93.131851
83.735548
65.613230
82.787052
131.890800
149.292106
98.971930
7.304007
-45.839037
7.274801
138.058897
223.624263
184.861154
90.864376
21.487619
-17.720173
-33.539821
-29.013964
23.269193
101.127198
104.749195
28.102980
-45.979181
-69.623790
-49.446609
-9.304778
38.129657
59.082812
29.233457
-24.423941
-61.956575
-43.390023
14.536765
36.534526
12.554418
-12.330018
-17.789175
-4.283399
13.827248
22.291420
23.264261
39.471330
80.534790
86.066443
19.145025
-45.245772
-46.538427
-5.349886
39.426509
56.142555
28.482945
-51.366292
-149.567213
-197.161313
-185.350566
-128.834276
-49.270953
-5.896875
-13.413681
-67.321710
-134.191926
-134.371473
-86.011201
-55.664306
-65.280144
-92.075405
-83.852980
-63.881306
-53.608946
-32.698811
-26.991576
-34.229930
-45.547110
-58.668738
-47.518470
-35.584980
-44.123948
-48.902521
-15.726445
47.868992
81.174591
68.407400
19.239611
-43.263741
-67.265358
-70.584101
-75.695601
-62.118283
-56.595981
-71.541696
-75.976353
-67.885087
-48.239327
-11.147382
17.990313
2.473199
-68.585496
-130.002157
-95.488996
-13.061422
29.886210
45.323151
29.189046
-33.325995
-81.762467
-73.090916
-26.733118
5.878805
-10.460107
-44.641258
-71.469718
-82.909409
-55.712932
-20.822188
-7.517945
-3.536602
-18.638259
-36.439573
-33.418435
-25.207232
-13.693876
-10.122613
-34.621751
-53.469074
-41.501684
-44.135400
-84.110749
-122.908226
-115.907157
-48.451026
20.350843
47.588000
50.691669
11.963395
-32.428851
-18.533335
17.798068
53.937992
89.846222
101.555266
91.155272
66.069536
38.473052
7.381532
-28.547720
-17.211115
33.342410
49.971717
43.245146
21.413401
-47.499035
-99.037762
-71.856716
-8.180385
33.956204
29.457955
11.936262
19.408666
40.138544
45.334931
30.056757
38.695108
55.944213
37.625739
27.345683
34.755897
51.802766
94.284674
137.190690
162.863510
145.600397
109.556584
114.692184
125.389821
123.864771
112.623575
99.423858
136.954174
132.523725
16.366006
-85.810871
-135.236772
-138.177230
-76.759614
-32.938983
-47.025960
-99.413372
-161.329658
-177.869870
-150.334387
-102.545983
-110.773299
-220.480084
-279.512481
-247.237694
-237.003677
-205.093380
-110.518870
6.241364
96.304990
37.191933
-99.323449
-103.008786
-48.514608
-40.794847
-36.339830
-45.030299
-12.179669
83.547228
119.547808
84.244197
33.843595
-12.642540
-26.722971
-48.681200
-112.841940
-149.594861
-126.685525
-84.436479
-61.122440
-91.136154
-137.455591
-134.838455
-115.315438
-99.087560
-51.284193
10.426371
23.482087
-33.512065
-84.387743
-76.070396
-49.593314
-18.629194
21.708325
55.997042
73.089034
60.438508
36.481078
28.314549
20.124406
-22.748157
-96.786832
-149.843137
-141.889344
-57.296808
70.119438
130.269171
76.529944
-25.116447
-116.213905
-168.812435
-189.251450
-193.148607
-143.372224
-53.806820
6.060018
11.586060
-50.876377
-131.507199
-181.093719
-232.926563
-236.968207
-156.509674
-76.861950
-68.668749
-124.522906
-129.693089
-50.903869
-4.781036
-12.133015
-14.671810
33.062120
134.488760
209.960397
223.600607
209.826451
163.041991
100.198932
74.685582
41.433308
7.185759
60.615223
122.194627
109.451517
16.524595
-128.405618
-152.705561
-39.695903
66.965225
151.392700
192.953446
161.365809
82.780947
28.130845
88.657226
205.192547
215.871715
92.790791
-1.997391
15.673250
20.897693
-5.240598
-3.922673
-26.877346
-41.649583
-2.438032
18.822566
-37.148022
-176.169477
-238.223470
-59.319455
188.013044
258.055909
152.562618
0.995134
-133.753442
-166.920848
30.171191
247.467055
197.855752
12.462480
-117.396460
-157.058988
-137.343556
-77.298564
45.533853
107.854160
70.841257
75.887547
115.066834
126.799492
51.819082
-137.595737
-281.410738
-245.396364
-34.982556
220.537056
301.174444
211.734608
100.657304
-50.180499
-209.640278
-246.980497
-202.005375
-175.700835
-109.558176
65.577962
212.033020
189.259306
60.866742
-66.507869
-124.795388
-127.829365
-130.512179
-86.241956
17.349647
101.473186
75.302163
-91.879237
-277.108384
-346.931460
-231.042355
8.619491
116.938475
23.540218
-83.587550
-86.960300
10.899997
131.631979
196.515874
189.621669
121.341889
37.546153
-35.197986
-85.005210
-42.006844
65.913749
99.487514
46.951641
-21.761833
-62.579319
-51.027386
-53.936984
-85.900333
-71.206166
-5.738480
117.074298
210.428153
169.377337
108.975122
43.763931
-63.390022
-99.291453
-72.765273
-1.027612
103.140068
149.679761
145.096175
52.510364
-97.493952
-178.012084
-185.482131
-58.061209
142.878900
216.907072
183.795311
65.916609
-90.852864
-128.028957
-79.134926
-34.957988
20.163702
63.046806
41.163391
-25.909060
-65.985175
-73.333179
-64.388320
-0.968698
58.120297
-5.931026
-125.786249
-159.211065
-127.802030
-115.100048
-119.749565
-80.869070
24.920929
131.580186
169.216879
121.446964
52.744011
37.311764
14.437517
-29.470535
9.226663
121.483494
203.513846
149.297439
-46.167820
-213.521296
-216.309786
-119.372754
-58.467856
-29.128393
23.610902
76.169472
107.415784
101.162185
82.126421
68.295920
51.773477
96.616036
143.624726
114.467645
79.740110
15.928429
-13.911573
92.206677
143.488947
95.373714
67.999571
2.484911
-6.983869
76.203078
58.784022
3.775744
-28.267565
-38.212122
89.327102
192.645630
141.977330
47.544987
-45.614563
-53.734098
17.155580
78.387795
128.712900
103.857688
-2.618019
-68.646331
-39.216390
0.070445
-32.768242
-77.617328
-73.688355
-29.376750
11.017115
11.443570
-11.035326
-76.884082
-139.445415
-111.413113
-44.918823
8.703524
2.174278
-63.421042
-55.518919
32.342103
100.030161
108.433546
74.121703
62.208105
62.469266
15.378298
-55.027868
-90.137661
-63.958203
-28.517801
-28.509141
7.366124
58.728119
7.885874
-38.855800
-3.668601
2.308436
60.105233
152.399285
101.234166
44.645184
63.328635
55.841755
54.205651
47.557168
14.320558
-29.028485
-79.511851
-82.386612
-69.808777
-76.157065
-75.961601
-112.191517
-137.886996
-89.468508
-17.294347
67.849015
95.193953
-19.164696
-149.496842
-176.029783
-118.621790
-1.087453
103.346521
94.622386
13.822529
-39.141193
-45.854438
-6.194463
58.464518
102.229272
101.265569
27.637910
-54.370679
-56.050737
-32.009355
-19.800686
3.754165
4.461177
-72.728617
-200.220126
-268.841718
-239.725532
-125.160654
36.965133
125.828678
103.148950
30.671808
-46.550718
-81.368031
-44.070811
45.966162
135.463998
156.068795
34.886071
-168.002485
-256.060813
-161.015435
41.899092
199.884330
189.118209
76.580373
-49.444526
-111.706832
-57.170571
19.388457
62.162611
58.855559
11.275253
-28.663389
-79.496983
-84.912654
12.412482
81.161512
25.766065
-106.627237
-179.372779
-146.192729
-83.725364
-8.267053
19.100095
0.256279
26.281198
44.059619
74.223216
126.620934
98.864766
38.408076
-46.902198
-122.520173
-83.428092
-35.133750
10.256128
86.532261
96.608933
92.298189
66.629831
16.415097
51.448692
77.284702
82.692910
95.921637
1.901479
-100.755384
-173.186936
-279.636224
-282.247730
-157.235855
-3.555292
127.973214
162.791014
64.399081
-103.140731
-183.871618
-119.727692
-34.348662
-23.757870
-50.683824
-13.373044
64.151567
57.899604
-21.155425
-76.810387
-41.994925
82.413987
171.089792
124.409138
6.131112
-97.423065
-156.646942
-143.251050
-69.858572
37.888076
166.786830
230.166707
182.536836
107.345074
64.063365
26.573749
-41.043684
-108.188846
-136.377071
-106.401213
35.490357
200.928351
239.577854
188.102018
92.273906
-3.491314
-46.872153
-86.950138
-62.798638
51.425831
100.799381
46.558192
-51.164613
-110.316247
-85.496320
-61.353002
-60.132804
-44.281808
-38.706902
-61.222037
-113.467533
-160.003700
-132.464477
-41.309719
18.659990
0.915255
-34.205994
-17.544189
43.892599
86.814981
61.594578
-20.562005
-84.507886
-53.215982
40.128754
92.857529
88.199362
71.850396
35.141663
-29.791543
-69.290646
-70.864092
-55.927243
-3.949425
71.547696
98.640600
34.717866
-75.682830
-138.512328
-103.663667
-0.763169
76.097692
60.021100
-8.150666
-60.358521
-72.523684
-46.752670
-6.407669
31.590943
76.327591
114.705656
115.690420
76.717594
21.813823
4.124264
39.146870
50.328234
-3.082508
-50.847747
-27.645931
21.191756
18.083898
-38.078403
-108.060929
-136.587225
-84.404601
7.270823
65.260503
64.875215
41.776522
19.526046
-27.856467
-104.355390
-153.548195
-120.487382
-40.171232
11.369853
21.573009
23.050383
21.063818
-25.751270
-92.655854
-89.312778
-16.388595
62.700119
97.762237
83.535449
48.099041
-20.756348
-86.912548
-89.016480
-67.612097
-38.816681
10.068934
32.051498
22.108110
10.287564
-6.121020
-41.121396
-87.243041
-79.515330
-0.544917
44.757989
11.958112
-18.454226
0.885493
44.956521
81.784276
82.145970
37.397884
-24.660784
-80.345438
-95.711053
-37.893447
41.726221
76.755607
89.635976
102.522657
59.587903
-26.855820
-63.420067
-62.924874
-25.807211
86.137267
179.471015
182.253680
71.911668
-107.930790
-179.172080
-100.921061
41.071509
155.419189
135.033246
10.618509
-113.644027
-143.052907
-49.130224
47.668867
66.635680
18.268413
-42.474445
-64.484110
-83.304312
-78.477091
-16.637471
35.149335
35.023094
-9.715406
-55.724594
-67.726567
-55.512988
-24.978355
-20.357810
-63.912594
-83.208106
-35.889634
41.685477
89.940073
85.335212
67.979047
65.806379
48.692663
-6.754921
-71.293477
-96.303696
-55.907961
26.127534
78.393156
53.556414
-12.617086
-45.475646
-28.591265
-2.567048
26.704379
76.608649
120.015926
108.464480
47.856991
10.184312
34.308927
73.777889
68.407576
10.810694
-58.325720
-87.085813
-46.546293
24.250100
46.822768
6.730054
-31.232066
-8.917276
43.408899
54.866378
11.760952
-48.039469
-60.581982
2.821508
78.515019
86.525624
19.873774
-48.267832
-47.515462
