EVENT_NAME: 202302060117
EVENT_ID: 13194
EVENT_DATE_YYYYMMDD: 2023/02/06
EVENT_TIME_HHMMSS: 01:17:32.00000
EVENT_LATITUDE_DEGREE: 37.288
EVENT_LONGITUDE_DEGREE: 37.043
EVENT_DEPTH_KM: 8.6
HYPOCENTER_REFERENCE: AFAD
MAGNITUDE_W: 7.7
MAGNITUDE_W_REFERENCE: AFAD
MAGNITUDE_L: 
MAGNITUDE_L_REFERENCE: 
FOCAL_MECHANISM: 
NETWORK: TK
STATION_CODE: 4701
STATION_NAME: 
STATION_LATITUDE_DEGREE: 37.32632
STATION_LONGITUDE_DEGREE: 40.72374
STATION_ELEVATION_M: 930.0
LOCATION: Kahramanmaras_Pazarck_Turkiye
SENSOR_DEPTH_M: 
VS30_M/S: 709
SITE_CLASSIFICATION_EC8: unknown
MORPHOLOGIC_CLASSIFICATION: 
EPICENTRAL_DISTANCE_KM: 325.55
EARTHQUAKE_BACKAZIMUTH_DEGREE: 
DATE_TIME_FIRST_SAMPLE_YYYYMMDD_HHMMSS: 2023/02/06 01:18:05.6044580
DATE_TIME_FIRST_SAMPLE_PRECISION: millisecond
SAMPLING_INTERVAL_S: 0.01
NDATA: 18251
DURATION_S: 
STREAM: HNN
UNITS: cm/s^2
INSTRUMENT: sensor = CMG-5T/GURALP | digitizer = 
INSTRUMENT_ANALOG/DIGITAL: 
INSTRUMENTAL_FREQUENCY_HZ: 
INSTRUMENTAL_DAMPING: 
FULL_SCALE_G: 
N_BIT_DIGITAL_CONVERTER: 
PGA_CM/S^2: 26.576
TIME_PGA_S: 
BASELINE_CORRECTION: BASELINE REMOVED
FILTER_TYPE: BUTTERWORTH
FILTER_ORDER: 
LOW_CUT_FREQUENCY_HZ: 
HIGH_CUT_FREQUENCY_HZ: 
LATE/NORMAL_TRIGGERED: 
DATABASE_VERSION: 
HEADER_FORMAT: DYNA 1.2
DATA_TYPE: Acceleration
PROCESSING: Automatic Paolucci et al., 2011
DATA_TIMESTAMP_YYYYMMDD_HHMMSS: 
DATA_LICENSE: U (unknown license)
DATA_CITATION: Turkish Accelerometric Archive v 1.0 - Disaster And Emergency Management Presidency, Earthquake Department
DATA_CREATOR: AFAD
ORIGINAL_DATA_MEDIATOR_CITATION: : AFAD - Disaster And Emergency Management Presidency
ORIGINAL_DATA_MEDIATOR: AFAD PROCESS SERVICE
ORIGINAL_DATA_CREATOR_CITATION: AFAD PROCESS SERVICE
ORIGINAL_DATA_CREATOR: network: TK
USER1: GuestUser
USER2: 
USER3: 
USER4: 
USER5: 
[...]
3.728855
3.213369
2.492384
1.620997
0.815470
0.252488
-0.003672
0.086570
0.495667
1.028886
1.381621
1.412019
1.129895
0.882918
1.050736
1.672614
2.470542
3.120917
3.424890
3.274171
2.789082
2.071897
1.193544
0.332289
-0.371597
-1.027988
-1.843647
-2.714718
-3.524677
-4.231097
-4.471741
-4.106024
-3.409103
-2.726431
-2.202711
-1.540620
-0.518512
0.711944
1.819544
2.527547
2.639004
2.140617
1.310075
0.489350
-0.175590
-0.828813
-1.646372
-2.563672
-3.383448
-3.954346
-4.247552
-4.295998
-3.980626
-3.276739
-2.368620
-1.197059
0.106224
1.108067
1.789473
2.045000
1.711580
1.037458
0.306025
-0.452006
-1.300596
-2.129554
-2.618759
-2.309403
-1.048867
0.673328
2.082051
2.658017
2.353094
1.491523
0.458966
-0.382024
-0.873129
-1.091925
-1.137204
-1.249610
-1.769530
-2.798919
-4.099985
-5.389651
-6.367429
-6.786657
-6.754043
-6.528913
-6.150530
-5.674306
-5.260143
-5.100557
-5.399780
-6.073585
-6.803119
-7.141288
-6.909191
-6.454815
-5.958326
-5.151849
-3.845716
-2.195082
-0.605242
0.578352
1.286355
1.539666
1.598244
1.772713
2.067186
2.261603
2.125765
1.749916
1.359185
1.165720
1.278760
1.624529
2.052941
2.298336
1.990881
1.158757
0.318400
-0.380103
-0.995331
-1.436407
-1.613407
-1.447805
-1.067522
-0.837643
-0.971580
-1.503848
-2.426848
-3.327366
-3.739312
-3.559778
-3.095269
-2.632344
-2.146304
-1.727391
-1.416136
-1.204304
-1.109312
-1.117545
-1.349640
-1.793249
-1.930670
-1.383835
-0.341779
0.953588
2.247055
3.210901
3.608916
3.411334
2.813522
2.076706
1.392768
0.945042
0.845301
0.980190
1.009321
0.578060
-0.267996
-1.185930
-1.829971
-1.984806
-1.777091
-1.579509
-1.639670
-1.675766
-1.343929
-0.742633
-0.089408
0.418163
0.787680
1.006794
1.013761
0.868108
0.598649
0.333307
0.120210
0.061949
0.340591
0.757287
0.979568
0.926373
0.649315
0.197156
-0.343661
-0.691329
-0.656182
-0.434535
-0.402554
-0.857246
-1.673538
-2.488881
-3.063262
-3.180418
-2.686145
-1.746679
-0.574802
0.710116
1.833865
2.673273
3.141898
2.977563
2.346821
1.768007
1.464668
1.287668
1.043540
0.813028
0.760466
0.961215
1.420024
2.134360
3.171667
4.462918
5.853909
7.086581
7.846513
7.887677
7.252818
6.366865
5.283963
3.946168
2.654918
1.468476
0.327313
-0.584288
-1.081726
-0.986417
-0.541540
-0.233451
-0.143525
-0.192287
-0.158406
-0.097295
-0.341422
-0.889206
-1.499684
-2.155757
-2.902389
-3.536298
-3.938428
-4.171790
-4.292745
-4.221185
-3.816521
-3.042340
-1.820117
0.012585
2.267048
4.528478
6.314317
7.187605
6.905481
5.464145
3.241346
0.860228
-1.082662
-2.638938
-4.028662
-5.163809
-6.334736
-7.627252
-8.650309
-9.282002
-9.403907
-9.067954
-8.520486
-7.758971
-6.891382
-6.065906
-5.281593
-4.597338
-4.026756
-3.717400
-3.795609
-4.052719
-4.221487
-3.966909
-3.235791
-2.047448
-0.375282
1.457103
3.190063
4.722592
5.887187
6.424839
6.280453
5.706072
4.989837
4.440470
4.194126
4.230540
4.616206
5.220351
5.714307
5.846029
5.606651
5.132328
4.714049
4.694102
5.206422
5.969204
6.456510
6.444795
5.722544
4.282791
2.455157
0.617707
-1.061741
-2.653164
-4.193924
-5.574465
-6.419889
-6.671615
-6.440786
-5.646340
-4.429500
-3.305751
-2.667408
-2.478691
-2.468875
-2.411563
-2.287441
-2.108540
-2.125954
-2.650307
-3.540376
-4.255977
-4.299673
-3.676529
-2.712049
-1.631679
-0.708362
-0.120365
0.144662
0.110465
-0.116564
-0.616218
-1.499322
-2.762390
-4.161297
-5.205885
-5.758418
-6.074106
-6.276437
-6.182079
-5.615613
-4.587489
-3.385530
-2.244049
-1.052223
0.187099
1.046138
1.035373
0.065194
-1.423321
-2.798796
-3.757892
-4.261980
-4.343355
-3.924759
-2.957746
-1.546490
0.165573
1.918798
3.639726
5.233049
6.455589
7.158526
7.320646
7.148395
6.953030
6.974878
7.215840
7.579341
7.740510
7.301967
6.302024
4.925283
3.433601
2.026145
0.536364
-1.144351
-2.855779
-4.236004
-4.950022
-5.088076
-4.848064
-4.428835
-3.965276
-3.433007
-2.967865
-2.658509
-2.276960
-1.464150
-0.189998
1.211759
2.281997
2.811099
3.040662
3.319304
3.824026
4.586174
5.673826
7.010989
8.316172
9.249938
9.573542
9.342714
8.793030
7.890296
6.411913
4.426593
2.285170
0.552844
-0.383455
-0.647214
-0.618716
-0.568370
-0.602883
-0.765951
-0.878674
-0.605098
0.028178
0.667471
1.169659
1.568307
1.894762
2.127491
2.171187
1.974872
1.558177
0.906220
0.044015
-0.855237
-1.489146
-1.659180
-1.433417
-0.837820
-0.054457
0.381237
0.151992
-0.486350
-1.091762
-1.542020
-1.833960
-1.994812
-2.145531
-2.365594
-2.754109
-3.334506
-3.963032
-4.448438
-4.529497
-4.049156
-3.066944
-1.819707
-0.885624
-0.415099
-0.101944
-0.014868
-0.165271
-0.230498
0.131420
1.140863
2.747168
4.524458
6.004108
6.913176
7.257679
7.365020
7.466344
7.500542
7.655062
8.218361
8.915599
9.196774
8.629359
7.056618
4.726796
2.307048
0.434134
-0.772573
-1.663275
-2.690449
-4.005130
-5.411636
-6.601244
-7.281066
-7.264600
-6.618658
-5.252364
-3.106508
-0.644646
1.516092
3.095800
4.283510
5.135583
5.459821
5.340132
4.955101
4.370587
3.628705
2.634145
1.331813
-0.141820
-1.610387
-2.991245
-4.173254
-4.898988
-5.125067
-5.223858
-5.532263
-5.997404
-6.286494
-6.041732
-5.319480
-4.382548
-3.426617
-2.603358
-1.917836
-1.130040
0.075402
1.555052
2.996072
4.296822
5.416138
6.047831
5.979438
5.229956
3.892477
2.383380
1.021520
0.115619
-0.178537
-0.172837
-0.298542
-0.765266
-1.455853
-2.280695
-3.318634
-4.633315
-6.215238
-7.928249
-9.411382
-10.382827
-10.636454
-10.083286
-8.936106
-7.452340
-5.923611
-4.696638
-3.869895
-3.330977
-2.998823
-2.639439
-2.244907
-1.977664
-1.560968
-0.639867
0.848015
2.847902
5.099199
6.983196
8.180721
8.901390
9.450758
10.109365
10.958589
11.807813
12.340715
12.166881
11.053265
9.252545
7.226062
5.259423
3.298484
1.195375
-0.913751
-2.883872
-4.539889
-5.679469
-6.312428
-6.472013
-6.212686
-5.591125
-4.491124
-2.812625
-0.857385
0.854678
1.882169
2.079751
1.833724
1.783379
2.334963
3.299759
4.103387
4.299703
3.801632
2.764326
1.503157
0.190693
-1.127788
-2.263568
-3.411380
-4.927443
-6.782942
-8.657122
-10.307439
-11.715211
-12.713254
-13.308217
-13.776207
-14.194486
-14.541204
-14.682741
-14.522205
-14.290742
-14.128623
-14.026981
-13.882594
-13.572922
-12.954844
-11.783599
-10.081036
-7.877234
-5.282068
-2.568796
0.057400
2.567074
5.012154
7.265034
9.130666
10.262331
10.405135
9.496701
7.923010
6.311006
4.974161
4.058760
3.499578
3.279515
3.408071
3.788037
4.346587
5.034325
5.735362
6.344574
6.741639
6.924339
6.806550
5.846188
4.011587
1.927793
0.115990
-1.142963
-1.781621
-1.852548
-1.287032
-0.035677
1.602608
3.208914
4.548610
5.512140
5.912687
5.265163
3.417264
0.646998
-2.656170
-5.764605
-8.363254
-10.421401
-11.511268
-11.260491
-10.085763
-8.504789
-6.821224
-5.395085
-4.289068
-3.441428
-2.660914
-1.790476
-0.764568
0.168248
0.861053
1.293897
1.431002
1.431952
1.481982
1.782788
1.999686
1.927493
1.702680
1.532329
1.568427
1.733712
2.053834
2.316010
2.208987
1.728331
1.205879
1.038378
1.455390
2.388207
3.594915
5.216419
7.389506
9.795006
11.991208
13.490806
14.038907
13.828977
13.091844
11.861072
10.340576
8.835279
7.307818
5.648318
3.850131
2.060810
0.671719
0.091639
0.418410
1.545008
3.044607
4.331107
5.458339
6.558024
7.378434
7.672274
7.472793
6.926909
5.965280
4.429902
2.315710
0.146740
-1.543474
-2.610227
-3.124447
-3.350526
-3.404987
-3.238118
-3.052885
-3.227668
-3.695026
-4.056626
-4.101271
-3.910972
-3.698507
-3.600665
-3.685207
-3.960999
-4.387826
-4.837135
-5.110077
-5.143957
-4.849799
-4.280167
-3.640241
-2.878409
-2.013670
-1.138482
-0.167353
0.898134
1.845199
2.875540
4.322260
5.981760
7.516189
8.466737
8.607008
8.159915
7.381936
6.286369
4.870047
3.334986
2.017139
0.998515
-0.143915
-1.242965
-1.802781
-1.905054
-1.887639
-1.915502
-1.940516
-1.926267
-1.876238
-1.662507
-0.850330
0.756292
2.728948
4.711419
6.289860
6.630563
5.951375
4.985946
3.870747
2.682722
1.447834
0.106555
-1.395575
-2.944251
-4.289013
-5.039445
-5.209162
-5.192063
-5.280722
-5.648971
-6.311061
-7.137169
-7.800842
-7.754612
-6.649545
-4.746867
-2.388863
-0.024842
2.039005
3.820728
5.179106
5.863361
5.720558
4.875134
3.434748
1.380718
-0.873745
-2.590239
-3.618996
-4.121184
-4.222507
-4.239605
-4.412806
-4.662633
-4.739892
-4.601838
-4.117381
-3.264991
-2.086147
-0.524171
1.427270
3.746961
6.318379
9.146591
11.888993
13.950941
14.757735
14.078230
12.231281
9.688678
7.012453
4.915043
3.827392
3.502838
3.371751
2.860381
1.978861
1.055228
0.262683
-0.296816
-0.746441
-1.261611
-1.781530
-2.339129
-2.973355
-3.586999
-4.291835
-5.148024
-6.124535
-7.051651
-7.755537
-8.005681
-7.740654
-7.452830
-7.669410
-8.600642
-10.077125
-11.652082
-12.861006
-13.341662
-12.770130
-11.086565
-8.591773
-5.816123
-3.055989
-0.376280
2.033969
4.040822
5.533137
6.265522
6.031210
4.975856
3.635210
2.969954
3.508556
4.966991
6.871570
8.676091
9.928711
10.340341
9.854936
8.648545
7.021976
5.241204
3.670996
2.598860
2.019729
1.906690
1.920939
1.640398
0.859253
-0.524455
-2.332458
-4.174658
-5.527652
-6.002292
-5.653673
-4.562855
-2.847309
-0.784095
1.316166
3.138418
4.536692
5.350453
5.628145
5.597431
5.432780
5.345072
5.587933
6.255724
7.125529
7.845881
7.981086
7.294615
5.875443
4.106704
2.461769
1.230998
0.386841
-0.271449
-0.602335
-0.319260
0.445421
1.273430
1.840529
2.260708
3.022223
4.204867
5.316267
6.098363
6.760771
7.461808
8.183743
8.787256
9.086479
8.835385
7.911753
6.490048
4.854613
2.914255
0.645228
-1.292280
-2.634509
-3.794987
-5.304717
-7.194729
-8.928955
-10.099565
-10.672997
-10.877228
-11.002616
-11.147319
-11.239460
-11.102672
-10.638480
-9.959291
-9.140148
-8.183584
-6.860353
-5.115360
-2.931507
-0.426583
1.873160
3.729292
5.278603
6.506209
7.136319
7.118905
6.681945
6.518560
6.891877
7.407364
7.916835
8.215108
8.190411
7.973514
7.559986
7.140441
7.128409
7.408951
7.589118
7.387103
6.776309
6.038226
5.447063
5.091479
4.926828
4.950260
5.090847
5.267848
5.494878
5.849197
6.228530
6.304207
5.731725
4.455674
2.818023
1.093296
-0.703625
-2.522393
-3.974495
-4.700229
-4.700545
-4.137562
-3.312403
-2.556271
-1.880248
-1.017726
0.079109
1.189876
2.042899
2.230033
1.617338
0.604414
-0.238160
-0.589311
-0.557330
-0.519016
-0.715015
-0.955976
-1.213402
-1.520224
-1.750736
-2.044893
-2.450505
-2.905514
-3.399152
-3.968784
-4.868985
-6.037696
-7.002492
-7.486314
-7.421086
-7.083233
-7.034154
-7.570538
-8.595178
-9.709111
-10.380700
-10.235362
-9.350042
-7.994514
-6.341663
-4.466848
-2.479627
-0.498422
1.590439
3.598242
5.068076
5.652590
5.227979
3.998474
2.373171
0.817529
-0.371447
-1.049685
-1.313444
-1.346374
-1.230800
-0.801755
0.105096
1.410596
2.915577
4.267938
5.121278
5.450582
5.432851
5.057635
4.394596
3.587169
2.714198
1.693674
0.442005
-0.929988
-2.253534
-3.319971
-3.991243
-4.236321
-4.132146
-3.782894
-3.498553
-3.660987
-4.460181
-5.451258
-5.884102
-5.442708
-4.192937
-2.623362
-1.161443
-0.039911
0.706089
1.249440
1.668036
2.005256
2.307013
2.668930
3.253761
4.216025
5.463896
6.552498
6.951779
6.335602
4.905031
3.316775
2.026792
1.006585
0.294783
0.050972
0.287501
0.860300
1.552155
2.523917
3.892427
5.358145
6.414767
6.728239
6.415085
5.703916
4.833478
4.111227
3.639754
3.149599
2.131608
0.250461
-2.086644
-4.226483
-5.720381
-6.388487
-6.397353
-6.054117
-5.716580
-5.529130
-5.529129
-5.681432
-5.880913
-6.184885
-6.670924
-7.188944
-7.480567
-7.314015
-6.615828
-5.826765
-5.499044
-5.749188
-6.302671
-6.702901
-6.607909
-5.768501
-4.184360
-2.128429
0.278021
2.951080
5.728313
8.360525
10.426273
11.497460
11.377771
10.093171
7.921984
5.509519
3.338016
1.536029
0.173536
-0.903033
-1.906459
-2.774680
-3.196442
-2.881070
-2.125254
-1.551822
-1.386220
-1.583485
-2.096122
-2.732564
-3.272748
-3.792350
-4.583628
-5.727008
-6.738350
-7.093300
-6.555015
-5.110195
-3.195168
-1.474873
-0.576254
-0.862494
-2.198073
-4.032357
-6.016410
-8.000464
-9.754005
-11.253919
-12.340621
-12.864023
-12.727868
-11.816900
-10.382846
-8.846834
-7.505555
-6.475531
-5.892283
-5.665886
-5.562978
-5.275787
-4.478809
-3.326246
-2.090407
-0.727913
0.921772
2.857381
4.915529
6.893567
8.674973
10.152724
11.280905
12.136462
12.714327
12.836233
12.306498
11.055145
9.048293
6.462944
3.630617
0.888848
-1.449840
-3.497855
-5.453728
-7.130959
-8.298720
-9.003239
-9.435133
-9.733089
-9.666594
-8.920278
-7.740801
-6.478364
-5.244742
-3.996554
-2.656225
-1.225654
0.053881
1.075039
1.886583
2.555956
3.204115
3.681606
3.979246
4.160047
4.340531
4.503600
4.585926
4.764194
5.245484
6.012065
6.834058
7.729511
8.638263
9.583428
10.500729
10.991518
10.927874
10.689446
10.881646
11.783432
13.265298
14.799410
15.799670
16.194518
16.089712
15.508681
14.581566
13.553759
12.634242
11.717892
10.615042
9.225002
7.529089
5.736601
4.238903
3.242127
2.647798
2.278282
1.821690
1.178599
0.602635
0.266999
0.029521
-0.382425
-1.133490
-2.306001
-3.800532
-5.142127
-5.890975
-5.959369
-5.469529
-4.925228
-4.841002
-5.485993
-6.793075
-8.563081
-10.807094
-13.206577
-15.502203
-17.666107
-19.626096
-21.442965
-23.178457
-24.818642
-26.087727
-26.575666
-26.077277
-24.622325
-22.342214
-19.245493
-15.379658
-11.395718
-7.958295
-5.158580
-3.060853
-1.857944
-1.821214
-2.827173
-4.279591
-5.531894
-5.889695
-4.846055
-2.409841
1.012700
4.873785
8.656344
12.061470
14.773159
16.526384
17.394923
17.411388
16.418095
14.480904
11.809746
8.690228
5.497250
2.169701
-1.575177
-5.689255
-9.591818
-12.562200
-14.759667
-16.503076
-17.684769
-18.412719
-18.526075
-17.837704
-16.485342
-14.764414
-13.053934
-11.462511
-10.088301
-9.331853
-9.153585
-9.076958
-9.043394
-8.960434
-8.760635
-8.063398
-6.377933
-4.021512
-1.550468
0.575757
2.050024
2.717498
2.650054
1.850860
0.396542
-1.170183
-2.281265
-2.669463
-2.432934
-1.793958
-0.809846
0.497553
2.104808
3.937826
5.901932
7.895803
9.529022
10.534032
10.958011
10.806025
10.030895
9.079715
8.473037
8.174764
7.960717
7.403752
6.398426
5.243014
4.255737
3.823210
4.212359
5.218002
6.458590
7.782454
8.940083
9.759860
10.019187
9.568928
8.726038
7.954708
7.531680
7.451888
7.553846
7.615590
7.634589
7.779926
7.992391
7.983209
7.645040
7.103273
6.562455
6.089399
5.470688
4.544206
3.241240
1.664383
0.288908
-0.522635
-0.929198
-1.223354
-1.609969
-2.214430
-2.921483
-3.405622
-3.330578
-2.759679
-2.058959
-1.620731
-1.784433
-2.516499
-3.578820
-4.898567
-6.459908
-8.123524
-9.853318
-11.685068
-13.494655
-15.059163
-16.152197
-16.569842
-16.247504
-15.419495
-14.260283
-12.957317
-11.642952
-10.366900
-9.320411
-8.623173
-8.401526
-8.420524
-8.193177
-7.419630
-6.259151
-5.125903
-4.267497
-3.561077
-2.797662
-2.206815
-1.997833
-2.144436
-2.289773
-2.141269
-1.532374
-0.528630
0.592269
1.575114
2.045322
2.065587
1.998777
2.154563
2.610522
3.586401
5.128746
6.890837
8.443314
9.226044
8.923338
7.291703
4.564183
1.256582
-2.133661
-5.007468
-7.057382
-8.389161
-9.245667
-9.523042
-8.967025
-7.281876
-4.690193
-2.022517
-0.032130
0.935200
0.986179
0.364936
-0.739181
-2.019665
-3.209907
-4.364685
-5.035641
-4.946349
-4.164886
-2.649455
-0.685349
1.291740
2.671649
3.113676
2.828069
2.208725
1.271794
0.161028
-0.979819
-2.280884
-3.653510
-5.205669
-6.944328
-8.600978
-9.820351
-10.283909
-9.845364
-8.453740
-6.308516
-3.703218
-0.890205
2.112158
5.377963
8.597223
11.263949
13.103300
14.019334
13.927510
13.094435
11.945356
10.953646
10.405863
10.094292
9.950855
10.021149
10.214615
10.328605
10.285543
10.246280
10.206701
10.117410
9.990755
9.856184
9.748844
9.438539
8.719771
7.690698
6.508689
5.324146
4.395447
3.861913
3.582638
3.225154
2.420261
1.066000
-0.626113
-2.124761
-2.881842
-2.690275
-1.735295
-0.486474
0.371933
0.324437
-0.734716
-2.749167
-5.258840
-7.664022
-9.572400
-10.587224
-10.477034
-9.546117
-8.288114
-6.868942
-5.051755
-2.870119
-0.692598
1.409879
3.326173
5.015121
6.239877
6.633776
6.436827
6.092959
5.707294
5.060719
3.891375
2.208445
0.124967
-2.360325
-4.928259
-7.430016
-10.000484
-12.368936
-14.198470
-15.343116
-15.907682
-16.143893
-16.037502
-15.500167
-14.635111
-13.623136
-12.621926
-11.839829
-11.276846
-10.665734
-9.832976
-8.511645
-6.543739
-3.913426
-0.670418
2.887644
6.360847
9.359094
11.514133
12.630916
12.823432
12.554923
12.455183
12.880428
13.952565
15.516758
17.245285
18.932967
20.471511
21.376463
20.923355
18.811379
15.187457
10.597472
5.507199
0.473604
-3.860537
-7.175737
-9.223752
-10.054926
-9.892807
-8.780774
-6.665948
-3.672451
-0.102040
3.673236
7.093561
9.600702
11.026207
11.676265
11.964723
12.194603
12.349439
12.087263
11.207643
9.740026
7.946272
6.238960
4.896415
3.979748
3.254014
2.432339
1.322523
-0.058019
-1.612394
-3.562884
-5.830013
-7.771953
-8.959346
-9.690779
-10.267377
-10.645125
-10.657790
-10.186949
-9.499844
-8.987840
-8.895065
-9.212969
-9.941236
-11.004506
-12.004132
-12.362249
-11.948403
-11.093163
-10.092903
-9.200300
-8.644283
-8.624334
-8.995750
-9.220879
-8.664229
-7.324850
-5.865781
-4.666989
-3.575854
-2.441656
-1.314740
-0.365776
0.309930
0.797237
0.928642
0.405873
-0.805267
-2.412205
-4.028325
-5.209701
-5.913271
-6.545596
-7.162723
-7.869143
-8.727231
-9.418452
-9.493494
-8.648704
-6.781489
-4.117612
-1.266919
1.280751
3.262589
4.663396
5.189333
5.414463
6.296934
7.708507
9.303096
10.725435
11.943225
12.811764
13.296221
13.430792
13.247459
13.072992
12.967869
12.903275
12.715826
11.900800
10.069999
7.749359
5.575006
3.750855
2.453905
1.456179
0.419190
-0.658329
-1.691835
-2.475514
-2.769353
-2.530291
-1.822288
-0.730836
0.463523
1.187991
1.201924
0.688654
-0.144737
-1.231122
-2.413448
-3.389642
-4.071047
-4.285727
-3.723694
-2.247211
0.117126
3.017848
5.796664
8.264542
10.552569
12.655679
14.660949
16.883115
19.627417
22.475261
24.564122
25.266109
24.540692
22.812165
20.695440
18.588531
16.561098
14.875951
13.657211
12.942243
12.950476
13.733839
15.182142
17.046507
18.817148
19.980160
20.282550
19.745532
18.461248
16.505692
14.218932
11.972069
9.906006
8.172097
6.941958
6.323881
6.205776
6.234590
6.029093
5.226415
3.678372
1.405545
-1.584151
-5.265068
-9.483320
-13.826011
-17.760555
-20.930735
-23.158600
-24.453966
-24.791185
-24.115162
-22.969882
-21.800220
-20.396247
-18.478686
-15.790112
-12.385619
-8.950412
-6.258671
-4.525394
-3.476372
-2.892174
-2.641396
-2.779450
-3.399110
-4.338892
-5.468023
-6.633884
-7.822226
-8.993153
-9.990246
-10.803055
-11.611115
-12.606308
-13.513792
-13.797816
-13.314943
-12.276053
-10.749540
-8.863960
-7.019860
-5.564907
-4.630191
-4.254025
-4.538682
-5.515827
-6.937531
-8.414647
-9.676133
-10.513640
-10.777399
-10.462344
-9.676131
-8.613177
-7.385570
-6.054107
-4.622269
