EVENT_NAME: 202302060117
EVENT_ID: 13194
EVENT_DATE_YYYYMMDD: 2023/02/06
EVENT_TIME_HHMMSS: 01:17:32.00000
EVENT_LATITUDE_DEGREE: 37.288
EVENT_LONGITUDE_DEGREE: 37.043
EVENT_DEPTH_KM: 8.6
HYPOCENTER_REFERENCE: AFAD
MAGNITUDE_W: 7.7
MAGNITUDE_W_REFERENCE: AFAD
MAGNITUDE_L: 
MAGNITUDE_L_REFERENCE: 
FOCAL_MECHANISM: 
NETWORK: TK
STATION_CODE: 7202
STATION_NAME: 
STATION_LATITUDE_DEGREE: 37.569165
STATION_LONGITUDE_DEGREE: 41.38612
STATION_ELEVATION_M: 950.0
LOCATION: Kahramanmaras_Pazarck_Turkiye
SENSOR_DEPTH_M: 
VS30_M/S: None
SITE_CLASSIFICATION_EC8: unknown
MORPHOLOGIC_CLASSIFICATION: 
EPICENTRAL_DISTANCE_KM: 384.74
EARTHQUAKE_BACKAZIMUTH_DEGREE: 
DATE_TIME_FIRST_SAMPLE_YYYYMMDD_HHMMSS: 2023/02/06 01:18:01.0723490
DATE_TIME_FIRST_SAMPLE_PRECISION: millisecond
SAMPLING_INTERVAL_S: 0.005
NDATA: 42001
DURATION_S: 
STREAM: HNN
UNITS: cm/s^2
INSTRUMENT: sensor = GEO-A200,/GEObit | digitizer = 
INSTRUMENT_ANALOG/DIGITAL: 
INSTRUMENTAL_FREQUENCY_HZ: 
INSTRUMENTAL_DAMPING: 
FULL_SCALE_G: 
N_BIT_DIGITAL_CONVERTER: 
PGA_CM/S^2: 19.961
TIME_PGA_S: 
BASELINE_CORRECTION: BASELINE REMOVED
FILTER_TYPE: BUTTERWORTH
FILTER_ORDER: 
LOW_CUT_FREQUENCY_HZ: 
HIGH_CUT_FREQUENCY_HZ: 
LATE/NORMAL_TRIGGERED: 
DATABASE_VERSION: 
HEADER_FORMAT: DYNA 1.2
DATA_TYPE: Acceleration
PROCESSING: Automatic Paolucci et al., 2011
DATA_TIMESTAMP_YYYYMMDD_HHMMSS: 
DATA_LICENSE: U (unknown license)
DATA_CITATION: Turkish Accelerometric Archive v 1.0 - Disaster And Emergency Management Presidency, Earthquake Department
DATA_CREATOR: AFAD
ORIGINAL_DATA_MEDIATOR_CITATION: : AFAD - Disaster And Emergency Management Presidency
ORIGINAL_DATA_MEDIATOR: AFAD PROCESS SERVICE
ORIGINAL_DATA_CREATOR_CITATION: AFAD PROCESS SERVICE
ORIGINAL_DATA_CREATOR: network: TK
USER1: GuestUser
USER2: 
USER3: 
USER4: 
USER5: 
[...]
3.133829
3.587241
3.813240
3.862207
3.773690
3.622789
3.490014
3.332992
3.080390
2.700429
2.116597
1.335487
0.429607
-0.492753
-1.238080
-1.709618
-1.953038
-2.051442
-2.089815
-2.132896
-2.250604
-2.477545
-2.760044
-3.062082
-3.338696
-3.578820
-3.836130
-4.092498
-4.310022
-4.425141
-4.344393
-4.063777
-3.684757
-3.240056
-2.679295
-2.063447
-1.450188
-0.760419
0.027989
0.854770
1.731223
2.615446
3.419156
4.116694
4.725480
5.323907
5.978128
6.696853
7.426643
8.145368
8.862445
9.521845
10.068481
10.525894
10.943287
11.294763
11.550660
11.716158
11.779956
11.744173
11.661542
11.549954
11.332666
10.892202
10.105913
8.926714
7.349192
5.380408
3.123240
0.748834
-1.620392
-3.892156
-5.928504
-7.621616
-8.929116
-9.814516
-10.214252
-10.082890
-9.510358
-8.682871
-7.752742
-6.835797
-6.009251
-5.302062
-4.669499
-4.062596
-3.482061
-2.882691
-2.265195
-1.612857
-0.865176
-0.000022
1.072768
2.369440
3.762396
5.074840
6.163404
6.932743
7.240903
7.053982
6.483805
5.544495
4.257712
2.755522
1.089484
-0.699913
-2.481777
-4.122155
-5.507814
-6.551413
-7.278142
-7.799823
-8.147062
-8.379888
-8.613421
-8.840833
-9.070363
-9.352627
-9.652311
-9.957175
-10.270278
-10.573729
-10.828920
-10.898603
-10.706033
-10.298999
-9.759661
-9.165000
-8.559745
-8.012638
-7.583240
-7.221405
-6.858864
-6.495618
-6.094704
-5.639174
-5.172344
-4.718462
-4.286474
-3.834239
-3.313970
-2.778634
-2.278610
-1.759989
-1.199464
-0.640115
-0.108546
0.371703
0.732596
0.905627
0.829823
0.463986
-0.159866
-0.999124
-1.936079
-2.794877
-3.455454
-3.874730
-4.074127
-4.026102
-3.782682
-3.519487
-3.242167
-2.945543
-2.745204
-2.630556
-2.584885
-2.651037
-2.816299
-3.045594
-3.257233
-3.362935
-3.365995
-3.331389
-3.314674
-3.348574
-3.457807
-3.642138
-3.851187
-4.069417
-4.298242
-4.514589
-4.756597
-5.021439
-5.275218
-5.492978
-5.621279
-5.637758
-5.551361
-5.411523
-5.217070
-4.931275
-4.584036
-4.139571
-3.529608
-2.806410
-1.981041
-1.043850
-0.074878
0.899744
1.869894
2.868764
3.959681
5.112278
6.264875
7.372978
8.425523
9.407443
10.276834
11.033226
11.683209
12.179231
12.488332
12.594034
12.463378
12.064348
11.396944
10.542384
9.616022
8.671769
7.716922
6.755247
5.767913
4.740087
3.692015
2.671722
1.699454
0.766265
-0.101243
-0.904717
-1.632388
-2.261890
-2.769918
-3.084669
-3.175304
-3.089613
-2.922232
-2.669630
-2.250354
-1.648396
-0.815259
0.348874
1.843530
3.581135
5.428209
7.206070
8.759816
9.949608
10.689285
10.963545
10.762500
10.082383
9.024189
7.773423
6.431082
5.092271
3.901772
2.909259
2.110022
1.516067
1.099852
0.832890
0.667864
0.530145
0.416204
0.322273
0.213040
0.043305
-0.184577
-0.360904
-0.430587
-0.353370
-0.038148
0.460227
1.038880
1.643899
2.168641
2.550721
2.830631
3.101595
3.473552
4.043730
4.822721
5.716596
6.680154
7.718338
8.717444
9.582833
10.360176
10.988973
11.342568
11.367992
11.030406
10.298498
9.207580
7.886897
6.423316
4.880399
3.304054
1.719704
0.204096
-1.236885
-2.631960
-3.939931
-5.145025
-6.298328
-7.428560
-8.535486
-9.605452
-10.621978
-11.552106
-12.285191
-12.744959
-12.959423
-13.012627
-12.959658
-12.802871
-12.574517
-12.267770
-11.824953
-11.233352
-10.500738
-9.656065
-8.755363
-7.828060
-6.906642
-5.992050
-5.041205
-4.054341
-3.104673
-2.241638
-1.463353
-0.828201
-0.383735
-0.098175
0.038130
-0.004715
-0.228831
-0.648578
-1.307272
-2.207973
-3.300303
-4.463023
-5.594432
-6.674049
-7.740955
-8.828576
-9.899719
-10.933195
-11.923590
-12.791333
-13.442494
-13.836580
-13.953111
-13.812803
-13.445083
-12.899153
-12.239989
-11.459585
-10.552056
-9.562602
-8.544193
-7.482231
-6.334108
-5.073455
-3.639065
-1.966906
-0.042144
2.086722
4.309285
6.479820
8.481091
10.217284
11.655911
12.818396
13.684491
14.189694
14.281742
13.978761
13.298880
12.279764
11.072787
9.843915
8.675546
7.630770
6.748431
6.010402
5.403028
4.874520
4.394507
3.926500
3.364091
2.605110
1.581521
0.340408
-1.038188
-2.489527
-3.861531
-5.060505
-6.117993
-7.054243
-7.895619
-8.688971
-9.449836
-10.135602
-10.636803
-10.852679
-10.787233
-10.521684
-10.109706
-9.629693
-9.192055
-8.844580
-8.605633
-8.508877
-8.547250
-8.691089
-8.917795
-9.144735
-9.319414
-9.384153
-9.234900
-8.858234
-8.364331
-7.857716
-7.299545
-6.686992
-6.054900
-5.320638
-4.463959
-3.558078
-2.614531
-1.660861
-0.772165
0.011299
0.680352
1.283017
1.873675
2.463863
3.007910
3.442252
3.788785
4.063044
4.267856
4.443006
4.568247
4.619097
4.556241
4.289279
3.830925
3.203070
2.459862
1.810585
1.434155
1.376007
1.611658
2.152409
2.937051
3.817271
4.769058
5.804417
6.853902
7.854655
8.757946
9.525167
10.153492
10.577712
10.765339
10.747212
10.476954
9.895241
8.990067
7.835352
6.518670
5.109941
3.779370
2.671032
1.782572
1.030889
0.257547
-0.627146
-1.629547
-2.780025
-3.969817
-5.051789
-5.979093
-6.723949
-7.287770
-7.657373
-7.854887
-7.921745
-7.797445
-7.469746
-6.978668
-6.277129
-5.390317
-4.403453
-3.337018
-2.208199
-1.031589
0.168561
1.319981
2.328974
3.181651
3.914501
4.501864
5.021662
5.645044
6.374833
7.154531
7.944587
8.634121
9.073878
9.170869
8.914972
8.276759
7.315556
6.095160
4.652295
3.192245
1.834131
0.589722
-0.425863
-1.175427
-1.774796
-2.290357
-2.812745
-3.454253
-4.225005
-5.080978
-5.806765
-6.212151
-6.281128
-6.032293
-5.526149
-4.806953
-3.959926
-3.039450
-1.977488
-0.774277
0.573715
2.072844
3.604225
5.108062
6.526914
7.754609
8.790439
9.621222
10.132075
10.220827
9.910784
9.246205
8.239095
7.000572
5.678240
4.319655
2.988142
1.742556
0.591608
-0.404437
-1.250052
-1.903566
-2.276230
-2.448554
-2.529066
-2.584860
-2.638299
-2.684676
-2.723284
-2.652189
-2.350856
-1.754312
-0.799700
0.459305
1.932303
3.544196
5.165977
6.736672
8.162822
9.273515
9.927500
10.074635
9.712330
8.783379
7.338631
5.544526
3.494759
1.295739
-0.962136
-3.259561
-5.489891
-7.583446
-9.484901
-11.071369
-12.299063
-13.159038
-13.693432
-13.937558
-13.893064
-13.563717
-12.922444
-11.997730
-10.847488
-9.504675
-8.040152
-6.524779
-4.944667
-3.278863
-1.455331
0.644344
2.970960
5.343247
7.582053
9.546129
11.135422
12.298377
13.077839
13.555263
13.789267
13.856360
13.780792
13.541609
13.105148
12.413731
11.489253
10.371262
9.062585
7.541327
5.861634
4.146864
2.417498
0.758758
-0.665274
-1.829406
-2.743526
-3.389036
-3.774177
-3.892356
-3.769468
-3.377501
-2.617578
-1.485698
-0.055546
1.591189
3.408836
5.313822
7.163486
8.880610
10.436710
11.754333
12.807349
13.631775
14.234205
14.691854
15.084292
15.446833
15.835269
16.197339
16.325641
16.057267
15.360906
14.173233
12.455638
10.363732
8.047945
5.562423
3.020166
0.459781
-2.123673
-4.697947
-7.209365
-9.544456
-11.664377
-13.545586
-15.171133
-16.510414
-17.438895
-17.926677
-17.963637
-17.501751
-16.605051
-15.342986
-13.772291
-12.015381
-10.151828
-8.242369
-6.316902
-4.330932
-2.292936
-0.284602
1.624621
3.438266
5.147386
6.677119
8.002511
9.119796
9.969883
10.531821
10.833153
10.916255
10.844924
10.706264
10.605742
10.590910
10.642702
10.629519
10.411524
9.965881
9.210431
8.100916
6.762341
5.245085
3.526313
1.699485
-0.191141
-2.128614
-4.013590
-5.766733
-7.235493
-8.288979
-8.937315
-9.234174
-9.244768
-9.031010
-8.695778
-8.312756
-7.899836
-7.542710
-7.287048
-7.112605
-7.051397
-7.079647
-7.080824
-6.973003
-6.702981
-6.238505
-5.676802
-5.140054
-4.628966
-4.157192
-3.790414
-3.471190
-3.102764
-2.703027
-2.246791
-1.726993
-1.203427
-0.693281
-0.238693
0.170696
0.558191
0.903546
1.143199
1.217826
1.180160
1.025021
0.758765
0.522643
0.371506
0.331250
0.454608
0.695439
1.023609
1.389210
1.731740
2.060381
2.346647
2.565113
2.661869
2.670579
2.689177
2.675994
2.711777
2.961083
3.412140
4.029636
4.759426
5.475091
6.114480
6.623685
6.976809
7.199042
7.277671
7.165848
6.795539
6.180397
5.348437
4.304132
3.175313
2.076626
1.035146
0.117024
-0.650668
-1.289587
-1.814800
-2.239961
-2.517516
-2.650055
-2.705613
-2.762819
-2.876761
-3.011889
-3.159260
-3.286384
-3.246364
-2.966689
-2.455601
-1.763714
-1.047578
-0.411249
0.063585
0.360210
0.577970
0.732873
0.823509
0.851758
0.812444
0.721809
0.581737
0.421418
0.292410
0.186944
0.081242
-0.030345
-0.230919
-0.585691
-1.112316
-1.809618
-2.617095
-3.480130
-4.396134
-5.367224
-6.313832
-7.173807
-7.948560
-8.514971
-8.779108
-8.817481
-8.697183
-8.512146
-8.327815
-8.142543
-7.922429
-7.557299
-6.956046
-6.100309
-5.069658
-3.923888
-2.717852
-1.588091
-0.608525
0.235442
0.937923
1.470199
1.828737
2.006006
2.012126
1.840744
1.512809
1.082234
0.544779
-0.160998
-1.137974
-2.355310
-3.698829
-5.051529
-6.208834
-7.019372
-7.439118
-7.430172
-7.009955
-6.312182
-5.440201
-4.459458
-3.437282
-2.394859
-1.358794
-0.421838
0.314072
0.853175
1.230782
1.452780
1.595206
1.738339
1.862168
1.920316
1.859108
1.618984
1.148858
0.470154
-0.301069
-1.065700
-1.734281
-2.266792
-2.667705
-2.966919
-3.267074
-3.651273
-4.123988
-4.679335
-5.306954
-5.991308
-6.727924
-7.444766
-8.098987
-8.644210
-8.984386
-9.098563
-9.010282
-8.807589
-8.518733
-8.126295
-7.717142
-7.271499
-6.723215
-6.086886
-5.311425
-4.413784
-3.456818
-2.428286
-1.353847
-0.208784
1.049986
2.376555
3.650861
4.778975
5.743239
6.498689
7.019664
7.358193
7.572186
7.688010
7.757694
7.763579
7.623742
7.317937
6.792959
6.030682
5.087135
3.947486
2.579720
1.071880
-0.432663
-1.861638
-3.088155
-3.931180
-4.382472
-4.531020
-4.485820
-4.394243
-4.372114
-4.531019
-4.877552
-5.353798
-5.918796
-6.547121
-7.265140
-7.983394
-8.597594
-9.084199
-9.324794
-9.215797
-8.804289
-8.144889
-7.288446
-6.279453
-5.147808
-4.005570
-2.886638
-1.792659
-0.827454
-0.098371
0.304662
0.379759
0.145285
-0.406059
-1.167159
-2.030194
-2.937958
-3.793224
-4.588930
-5.354502
-6.077700
-6.827736
-7.596133
-8.243763
-8.785690
-9.290186
-9.688275
-9.903445
-9.964418
-9.895676
-9.649195
-9.281946
-8.856079
-8.373476
-7.861682
-7.356714
-6.896476
-6.375736
-5.672313
-4.737476
-3.565104
-2.268668
-0.929622
0.370816
1.497046
2.432824
3.201693
3.783171
4.252119
4.660331
4.946126
5.075134
5.003803
4.686933
4.181259
3.535749
2.680718
1.690323
0.739949
-0.175113
-0.987769
-1.518632
-1.782062
-1.834089
-1.692369
-1.463309
-1.184576
-0.865588
-0.528943
-0.120025
0.371053
0.870370
1.264221
1.529535
1.712924
1.808974
1.853468
1.893724
1.908555
1.853468
1.699741
1.431132
1.048816
0.564801
0.037234
-0.438071
-0.859230
-1.267912
-1.723913
-2.280907
-2.913705
-3.601355
-4.211553
-4.621648
-4.847176
-4.886726
-4.809039
-4.616468
-4.411421
-4.365750
-4.369752
-4.430960
-4.630358
-4.935221
-5.277281
-5.517640
-5.556719
-5.326482
-4.750655
-3.820291
-2.579649
-1.116303
0.411312
1.994484
3.547288
4.944953
6.274818
7.514754
8.616971
9.509433
10.133757
10.541026
10.635193
10.439091
10.119397
9.605013
8.973156
8.329294
7.621398
6.898906
6.095196
5.230043
4.302033
3.228536
2.023442
0.662973
-0.727394
-2.053963
-3.251053
-4.156463
-4.733467
-4.946754
-4.744296
-4.184242
-3.337450
-2.292439
-1.182452
-0.036683
1.148872
2.320302
3.454066
4.477890
5.326800
5.936056
6.177829
6.053765
5.607887
4.841372
3.778705
2.497336
1.072363
-0.513164
-2.158015
-3.685159
-5.096477
-6.462125
-7.775276
-9.042520
-10.343193
-11.748156
-13.195258
-14.554078
-15.810494
-16.874574
-17.608836
-17.963137
-17.871089
-17.376480
-16.500733
-15.239374
-13.707522
-11.970858
-10.087060
-8.125809
-6.049440
-3.813224
-1.408449
1.123214
3.702903
6.297187
8.704080
10.704880
12.263099
13.346012
13.954092
14.159846
14.049200
13.684070
13.198407
12.679079
12.114787
11.565326
11.058005
10.493242
9.723903
8.705023
7.417297
5.776212
3.791891
1.650077
-0.402280
-2.177787
-3.560150
-4.528415
-5.110599
-5.309526
-5.224776
-5.029616
-4.762419
-4.479919
-4.278403
-4.075945
-3.791092
-3.397712
-2.813174
-1.960733
-0.794011
0.624606
2.115731
3.526108
4.715429
5.522200
5.892274
5.878385
5.533971
4.967089
4.270729
3.430529
2.485570
1.490702
0.502661
-0.402278
-1.203869
-1.898346
-2.592823
-3.362163
-4.192239
-5.125899
-6.116294
-7.101274
-8.066244
-8.902207
-9.553603
-10.032674
-10.293515
-10.351898
-10.168744
-9.635527
-8.709871
-7.384715
-5.747867
-3.889258
-1.858324
0.222518
2.200954
4.006594
5.607658
6.917042
7.812800
8.259620
8.310705
8.046333
7.676259
7.384343
7.227556
7.185888
7.209900
7.256983
7.200248
6.995672
6.600173
5.898869
4.881166
3.608271
2.162347
0.575408
-1.110406
-2.813876
-4.462259
-6.043312
-7.563393
-9.010495
-10.384618
-11.571115
-12.507129
-13.152404
-13.342149
-13.046231
-12.283483
-11.125001
-9.738166
-8.262107
-6.812887
-5.427934
-4.107015
-2.779504
-1.435044
-0.097645
1.298607
2.786671
4.341123
5.964081
7.730407
9.546171
11.320736
13.040921
14.611616
15.966671
16.973545
17.598339
17.895670
17.839876
17.396823
16.561332
15.421919
14.048031
12.468390
10.811297
9.188810
7.671083
6.345456
5.235470
4.402333
3.864407
3.602389
3.713270
4.248842
5.155429
6.297432
7.535955
8.831685
10.164139
11.509071
12.894729
14.272384
15.588830
16.853014
17.969827
18.892187
19.576306
19.941436
19.960505
19.547350
18.623107
17.154111
15.199688
12.875897
10.290559
7.669673
5.237590
3.053872
1.149121
-0.457828
-1.804172
-2.931579
-3.860531
-4.518283
-4.853044
-4.902717
-4.676718
-4.159744
-3.347323
-2.282537
-1.026357
0.400028
1.924347
3.426772
4.837855
6.083441
7.123274
7.983248
8.699148
9.378559
10.131184
10.892519
11.533792
12.091728
12.557852
12.773728
12.700279
12.369049
11.727775
10.767749
9.542409
8.048930
6.321683
4.420699
2.409776
0.435342
-1.373123
-2.975835
-4.387154
-5.535513
-6.331454
-6.830065
-7.038644
-6.907753
-6.533676
-5.995515
-5.304334
-4.483203
-3.525295
-2.412955
-1.091565
0.415333
1.998741
3.546836
4.913426
6.050721
6.992385
7.728531
8.328606
8.907965
9.480261
10.029722
10.469244
10.666052
10.530217
9.988525
9.070167
7.890027
6.558749
5.202047
4.013903
3.121441
2.510066
2.180248
2.091261
2.077371
2.045826
1.970728
1.771566
1.425269
0.942196
0.396737
-0.038547
-0.266194
-0.244536
0.061740
0.633095
1.380541
2.209676
3.051994
3.791436
4.317826
4.629046
4.765117
4.791954
4.791719
4.815496
4.927318
5.118947
5.255253
5.174270
4.819263
4.183875
3.234913
2.047004
0.806127
-0.408384
-1.596293
-2.665552
-3.611925
-4.453772
-5.155076
-5.707362
-6.005634
-6.028940
-5.863207
-5.552694
-5.129180
-4.649873
-4.252255
-3.999419
-3.844279
-3.784013
-3.773184
-3.760000
-3.749642
-3.723511
-3.681371
-3.565782
-3.301410
-2.890138
-2.371046
-1.760141
-1.029645
-0.214400
0.674060
1.679993
2.780092
3.891255
4.956042
5.914656
6.663043
7.117161
7.248523
7.092913
6.682818
6.036131
5.176627
4.149978
3.024925
1.794641
0.506681
-0.666633
-1.662913
-2.497698
-3.161571
-3.702792
-4.172918
-4.623033
-5.075032
-5.431687
-5.645445
-5.765271
-5.799642
-5.713715
-5.501605
-5.211102
-4.858684
-4.427166
-3.973520
-3.532821
-3.154978
-2.952520
-2.955345
-3.199472
-3.672658
-4.276264
-4.989575
-5.824124
-6.739892
-7.635650
-8.467610
-9.232006
-9.810423
-10.109401
-10.144478
-9.909768
-9.389263
-8.589555
-7.541483
-6.251874
-4.707781
-2.997013
-1.261526
0.355782
1.727551
2.785039
3.485166
3.859949
4.012263
3.976951
3.811453
3.576508
3.205022
2.688990
2.031944
1.224938
0.355076
-0.540446
-1.489408
-2.512996
-3.601795
-4.719315
-5.859670
-6.985664
-8.014197
-8.952800
-9.821014
-10.590118
-11.258700
-11.770729
-11.981426
-11.733063
-10.925350
-9.540163
-7.700387
-5.579995
-3.301403
-1.073662
0.904539
2.601652
4.009440
5.143439
6.082984
6.838669
7.433566
7.902514
8.218914
8.415251
8.517186
8.476223
8.258464
7.860140
7.305971
6.644923
5.904775
5.104596
4.239207
3.314258
2.358233
1.368780
0.414168
-0.442039
-1.155821
-1.632302
-1.861127
-1.932929
-1.961178
-1.983072
-1.962355
-1.911035
-1.806274
-1.561206
-1.190897
-0.743371
-0.265477
0.171926
0.505040
0.707498
0.861931
1.009301
1.152670
1.256017
1.260019
1.203520
1.117358
1.033079
1.021073
1.125597
1.325936
1.611025
1.925776
2.185440
2.371419
2.494777
2.674870
3.047063
3.642665
4.401411
5.243023
6.121125
6.946729
7.638381
8.166655
8.447506
8.429144
8.158415
7.664277
7.013352
6.279090
5.507867
4.750769
3.980018
3.092029
2.013353
0.771533
-0.586817
-1.989425
-3.249371
-4.210810
-4.858204
-5.192966
-5.266651
-5.163538
-4.939187
-4.654098
-4.288497
-3.848975
-3.408277
-3.072573
-2.935090
-2.971109
-3.190517
-3.580130
-3.955854
-4.199038
-4.316982
-4.271546
-4.069324
-3.732208
-3.242778
-2.583378
-1.697743
-0.591288
0.659477
1.924603
3.067783
4.029928
4.755009
5.248441
5.591678
5.841690
6.055447
6.260495
6.440353
6.605144
6.754633
6.915187
7.144011
7.438752
7.728078
7.924886
8.011284
7.985624
7.821068
7.584946
7.358240
7.140716
6.995229
6.948381
6.943908
6.974748
7.019712
7.038546
7.001821
6.895178
6.701901
6.439648
6.220946
6.093351
6.033555
6.072635
6.193403
6.304049
6.300988
6.084876
5.633349
4.925924
3.999797
2.996454
2.024422
1.140200
0.300000
-0.523956
-1.265516
-1.906789
-2.410108
-2.629987
-2.498389
-2.026616
-1.222905
-0.199552
0.886657
1.877288
2.645686
3.173488
3.444688
3.415731
3.181728
2.914296
2.708307
2.676526
2.922771
3.482825
4.351510
5.430422
6.501094
7.423925
8.123816
8.461403
8.502601
8.423501
8.307676
8.216806
8.232814
8.418322
8.630903
8.705059
8.592766
8.148771
7.231591
5.843343
3.989677
1.704965
-0.878490
-3.534217
-6.014325
-8.162495
-9.925290
-11.381809
-12.584314
-13.563409
-14.417027
-15.083254
-15.437320
-15.460861
-15.081841
-14.228929
-12.914366
-11.157928
-9.044127
-6.632761
-3.979388
-1.249975
1.344074
3.641263
5.597570
7.184744
8.424210
9.439088
10.293884
10.953755
11.417289
11.668478
11.604209
11.190112
10.438665
9.388710
8.153482
6.809021
5.348971
3.801347
2.228297
0.601808
-1.083770
-2.764169
-4.428325
-5.981835
-7.287687
-8.302565
-8.967380
-9.263298
-9.179490
-8.693120
-7.867281
-6.835217
-5.755599
-4.720711
-3.797880
-3.006176
-2.268147
-1.530118
-0.858005
-0.341973
-0.011213
0.065532
-0.127509
-0.488166
-0.890021
-1.241968
-1.518817
-1.737754
-1.900426
-1.981645
-2.024961
-2.052740
-2.012013
-1.940682
-1.895011
-1.842278
-1.874765
-2.095115
-2.440234
-2.890585
-3.353884
-3.701122
-3.937951
-4.071902
-4.104154
-4.054481
-3.954194
-3.828246
-3.690057
-3.565287
-3.416975
-3.196861
-2.935313
-2.638689
-2.322290
-2.020957
-1.733044
-1.492213
-1.352611
-1.351199
-1.488917
-1.707148
-1.959278
-2.217058
-2.402331
-2.530868
-2.678709
-2.872456
-3.145539
-3.502900
-3.911818
-4.268944
-4.509068
-4.638311
-4.689161
-4.706817
-4.701167
-4.722590
-4.752723
-4.692692
-4.497532
-4.131695
-3.526912
-2.675647
-1.650411
-0.530772
0.535662
1.412351
2.032437
2.274680
2.051035
1.439895
0.592398
-0.407649
-1.434063
