EVENT_NAME: 202302060117
EVENT_ID: 13194
EVENT_DATE_YYYYMMDD: 2023/02/06
EVENT_TIME_HHMMSS: 01:17:32.00000
EVENT_LATITUDE_DEGREE: 37.288
EVENT_LONGITUDE_DEGREE: 37.043
EVENT_DEPTH_KM: 8.6
HYPOCENTER_REFERENCE: AFAD
MAGNITUDE_W: 7.7
MAGNITUDE_W_REFERENCE: AFAD
MAGNITUDE_L: 
MAGNITUDE_L_REFERENCE: 
FOCAL_MECHANISM: 
NETWORK: TK
STATION_CODE: 2713
STATION_NAME: 
STATION_LATITUDE_DEGREE: 37.49254
STATION_LONGITUDE_DEGREE: 37.62405
STATION_ELEVATION_M: 653.0
LOCATION: Kahramanmaras_Pazarck_Turkiye
SENSOR_DEPTH_M: 
VS30_M/S: None
SITE_CLASSIFICATION_EC8: unknown
MORPHOLOGIC_CLASSIFICATION: 
EPICENTRAL_DISTANCE_KM: 56.15
EARTHQUAKE_BACKAZIMUTH_DEGREE: 
DATE_TIME_FIRST_SAMPLE_YYYYMMDD_HHMMSS: 2023/02/06 01:17:16.7868210
DATE_TIME_FIRST_SAMPLE_PRECISION: millisecond
SAMPLING_INTERVAL_S: 0.01
NDATA: 2879
DURATION_S: 
STREAM: HNE
UNITS: cm/s^2
INSTRUMENT: sensor = GMS+/GEOSIG | digitizer = 
INSTRUMENT_ANALOG/DIGITAL: 
INSTRUMENTAL_FREQUENCY_HZ: 
INSTRUMENTAL_DAMPING: 
FULL_SCALE_G: 
N_BIT_DIGITAL_CONVERTER: 
PGA_CM/S^2: 2.979
TIME_PGA_S: 
BASELINE_CORRECTION: BASELINE REMOVED
FILTER_TYPE: BUTTERWORTH
FILTER_ORDER: 
LOW_CUT_FREQUENCY_HZ: 
HIGH_CUT_FREQUENCY_HZ: 
LATE/NORMAL_TRIGGERED: 
DATABASE_VERSION: 
HEADER_FORMAT: DYNA 1.2
DATA_TYPE: Acceleration
PROCESSING: Automatic Paolucci et al., 2011
DATA_TIMESTAMP_YYYYMMDD_HHMMSS: 
DATA_LICENSE: U (unknown license)
DATA_CITATION: Turkish Accelerometric Archive v 1.0 - Disaster And Emergency Management Presidency, Earthquake Department
DATA_CREATOR: AFAD
ORIGINAL_DATA_MEDIATOR_CITATION: : AFAD - Disaster And Emergency Management Presidency
ORIGINAL_DATA_MEDIATOR: AFAD PROCESS SERVICE
ORIGINAL_DATA_CREATOR_CITATION: AFAD PROCESS SERVICE
ORIGINAL_DATA_CREATOR: network: TK
USER1: GuestUser
USER2: 
USER3: 
USER4: 
USER5: 
[...]
-0.000321
0.001499
-0.000059
0.000462
0.001242
0.000464
0.000205
-0.000833
0.000207
0.000468
-0.000050
-0.000049
0.000471
0.000732
0.000214
0.000215
-0.000044
-0.000043
0.000737
-0.000041
-0.001339
-0.000558
-0.000557
0.000743
0.002043
-0.000034
0.000486
0.001267
0.000748
0.001009
0.000490
0.001531
0.000233
-0.000545
0.001014
-0.000024
-0.000802
0.000498
0.001278
-0.000019
0.000241
0.002061
0.000244
-0.000015
0.001285
0.000506
-0.000012
0.000768
0.001809
0.001290
0.000512
0.000253
-0.000265
0.000775
0.001036
0.000257
-0.000001
0.001039
0.001300
0.000002
0.000263
0.001043
0.000525
0.000266
0.000787
0.000268
0.000009
0.001569
0.000531
0.000013
0.001312
-0.000245
0.000276
0.001056
0.000537
0.001058
0.000280
0.001060
0.001841
0.000803
0.000804
0.001324
0.002364
0.000807
0.000029
0.000809
0.000550
0.000551
0.000812
0.001073
0.000814
0.001075
0.000557
0.000817
0.001858
0.000820
0.000821
0.000562
-0.000216
0.001084
0.001604
0.000826
0.000827
0.001348
0.001608
0.000311
-0.000208
0.001092
0.000314
0.001094
0.002134
0.001096
0.000318
-0.000720
0.000320
0.000062
0.000322
0.000583
0.000065
0.001884
0.000846
0.000068
0.000848
0.000590
0.001370
0.000852
0.000333
0.001373
-0.000184
0.000077
0.001376
0.000858
-0.000180
-0.000179
0.001121
0.001382
0.000084
0.000085
0.001125
-0.000432
-0.000431
0.001388
0.000610
0.000871
0.000612
0.001133
0.001393
-0.000943
0.000616
0.000877
-0.000421
0.001139
0.002439
0.001921
0.001402
0.001663
0.001144
0.000886
0.000627
0.000888
0.001668
0.001409
0.001411
0.001412
0.000374
0.000375
0.001155
0.001416
0.000897
0.000639
0.001419
-0.000138
-0.000657
0.000383
0.000644
0.000645
0.000386
-0.000392
-0.000131
0.001688
0.000910
-0.000388
0.000133
0.000134
0.000395
0.000136
-0.000382
0.000398
0.000659
0.000660
0.000661
0.000402
0.000663
0.000405
-0.000114
0.001186
0.000927
-0.000111
0.001709
0.000411
-0.000627
0.000673
0.001193
0.001195
0.001196
0.001197
0.000159
0.000679
0.001200
0.000941
0.000163
0.000164
0.001464
-0.000094
-0.000352
0.001207
-0.000610
-0.000609
0.000691
-0.000087
0.000433
-0.000345
-0.000084
0.001735
0.001477
0.001478
-0.000080
0.000181
0.002000
0.001222
0.000444
0.002004
0.001485
0.000967
0.001747
0.001229
0.002009
0.000711
-0.000846
0.002272
0.002273
-0.000324
0.001236
0.001237
0.000199
0.001759
0.001240
-0.000317
-0.000056
0.000464
-0.000054
-0.000573
0.000208
0.002027
0.001249
0.000471
0.000991
-0.000047
0.000734
0.001774
0.000476
0.000217
0.000998
0.000739
0.000480
0.001001
0.002041
-0.000036
-0.000814
0.001265
-0.000293
0.000488
0.001788
0.000490
-0.001068
-0.000287
0.000233
-0.000545
0.001794
0.000756
-0.000802
0.000498
-0.000020
0.000760
0.001021
0.000243
-0.000016
-0.000794
0.000246
0.001026
0.000768
0.001548
0.001289
0.000251
-0.000007
0.000513
0.000774
-0.000264
-0.001302
-0.000521
0.000778
-0.001299
-0.000518
0.000782
-0.000256
0.000524
0.000525
0.000526
0.001047
0.000788
0.000529
0.001310
0.001830
0.000533
0.000014
0.001054
0.001315
0.000017
0.000538
-0.000500
0.000540
0.001061
-0.001796
0.001063
0.000544
-0.001793
0.001326
0.001327
-0.000491
0.001329
0.002109
0.000292
0.001332
0.002112
0.000295
0.000036
0.001336
0.000818
-0.000220
0.000300
0.001341
0.000822
0.000563
0.000045
-0.000214
0.001346
0.001087
0.000049
0.001609
0.001350
0.000572
0.000313
0.000574
0.000835
0.000576
0.000837
0.000578
-0.000200
-0.000199
0.001880
0.001881
0.000843
0.002403
0.000846
-0.000452
0.000848
0.000849
0.002408
0.001370
0.001372
0.001892
0.000335
0.001894
0.001636
0.000078
-0.000440
0.000859
0.001900
0.000602
0.000863
0.001123
0.000605
0.000346
0.001127
0.001128
0.000609
0.000870
0.000352
0.000093
0.000354
0.001654
0.001135
0.000097
0.001397
0.001398
0.000360
0.000101
0.001401
0.001662
0.001923
0.001405
0.000626
0.001926
0.000888
0.001409
0.002449
0.002190
0.001932
0.001413
0.000375
-0.000663
0.000637
0.000898
0.000120
0.000380
0.001161
0.001162
0.000384
0.000385
0.000905
0.001426
0.000388
0.001688
0.001429
-0.000388
0.000392
-0.000126
0.000394
0.001694
0.002215
0.001956
0.000918
0.000659
0.001700
0.002480
0.001702
0.001443
0.001964
0.001445
0.000667
0.001187
0.002228
0.001449
0.001191
0.001452
-0.000106
0.000674
0.002494
0.000157
-0.000102
0.001458
0.000680
0.000161
0.000682
0.001722
0.000944
0.001724
0.002245
0.001207
0.001727
0.000949
0.001210
0.001990
0.002251
0.001213
-0.000344
0.000176
-0.000083
0.000698
0.001738
0.000440
0.000701
0.000962
0.001223
0.002003
0.001225
0.000187
0.000448
0.000968
-0.000070
0.000711
0.000712
0.000193
0.001233
-0.000584
-0.000063
0.000977
-0.000321
0.000719
0.000980
0.000721
0.000982
-0.000316
0.001244
0.001765
-0.000312
0.000208
0.002028
0.002029
0.001250
0.000472
0.000993
0.001773
0.001774
0.001775
0.001776
0.000479
0.000480
0.003078
0.002300
0.000743
0.001523
0.000745
0.001265
0.002825
0.000748
0.001009
0.002309
0.001011
0.001531
0.001013
0.000235
0.002314
0.002315
-0.000022
0.001538
0.001799
0.001280
0.002840
0.000763
0.001543
0.001285
0.000247
0.001027
0.001028
0.002328
0.000511
0.001031
0.002071
0.001293
0.002333
0.000256
0.000777
0.002336
0.001039
-0.000519
0.001041
0.003120
-0.000516
0.000784
0.002344
0.000007
0.000787
0.000529
0.002088
0.002609
0.000532
0.002092
0.000534
0.000795
0.001056
-0.000502
0.002097
0.000799
0.000800
0.001581
0.000283
0.000803
0.001324
0.001845
0.000807
0.002886
0.001068
-0.000489
0.002889
0.000552
0.001073
0.002892
0.002893
0.002375
-0.000741
0.002896
0.002638
0.000820
-0.001257
-0.000476
0.004980
-0.000474
0.000306
0.001087
0.002387
0.002647
-0.000729
0.004468
0.000832
0.000833
0.002393
0.001095
0.001096
-0.000461
0.002917
0.001359
0.001100
0.000062
-0.000716
0.003701
-0.000194
0.000067
0.002146
0.001368
0.000589
-0.001488
0.003449
0.000852
-0.001484
0.003972
0.001635
-0.000182
0.001118
0.002158
-0.000699
0.000341
0.002421
-0.001215
0.001643
0.002943
0.001126
-0.000172
-0.001210
0.002428
0.001910
-0.000167
0.001652
0.001134
0.001654
0.001395
0.001396
0.002177
0.000360
0.001919
0.001661
-0.000157
0.002702
0.004781
-0.005609
-0.000672
0.008421
-0.001189
-0.005085
0.000891
0.008165
-0.006900
0.000374
0.009208
-0.007936
0.003235
0.002717
0.001679
0.000641
0.000901
0.007137
-0.006630
0.004282
0.003244
-0.005328
0.005324
0.000649
-0.000129
0.000132
0.002211
0.001433
0.000135
0.003513
-0.001162
0.002996
0.001958
-0.001938
0.001960
0.004039
0.001962
-0.003232
0.003782
0.003783
-0.000891
0.003266
0.001449
-0.000109
0.001711
0.001192
-0.001924
0.001194
0.002754
-0.000622
0.000678
0.002238
0.002239
-0.000358
0.000422
0.003021
0.000944
-0.001652
0.002765
0.000947
-0.001909
0.003287
-0.002946
0.005887
0.003291
-0.007878
0.009787
0.001995
-0.005018
0.004335
0.001219
0.000441
0.003299
0.001742
-0.005271
0.007718
0.009018
-0.010463
-0.005527
0.016555
0.010321
-0.019551
-0.004483
0.027469
-0.000325
-0.030457
0.011107
0.032929
-0.020842
-0.024478
0.034490
0.010333
-0.035125
0.018648
0.020987
-0.031485
0.015794
0.017353
-0.027845
0.016576
0.010083
-0.020569
0.009566
0.010346
-0.012513
0.002035
0.016843
-0.011211
-0.002897
0.016067
-0.004194
-0.005232
0.008018
0.004642
-0.004189
0.000228
0.005424
0.001009
-0.000808
0.004908
-0.000286
-0.002623
0.005950
0.002055
-0.001581
-0.001580
0.004656
0.004657
-0.003915
0.002321
0.004400
0.000764
-0.000014
0.001546
0.002326
-0.000530
0.003627
0.002849
0.001291
0.001292
0.001813
0.002334
-0.001302
0.003375
0.002337
-0.000779
0.002858
0.001561
0.001302
0.001823
-0.000254
0.001305
0.003384
0.001827
0.001049
0.000790
0.001830
0.002091
0.001053
0.002353
0.001834
0.001056
0.002616
0.001578
-0.000240
0.002099
0.002101
0.002361
0.001843
0.001065
0.002624
0.001846
0.001847
0.001848
0.002109
0.000552
0.000553
0.003671
0.001854
0.000556
0.002115
0.002117
0.001338
0.001859
0.001860
0.000562
0.001602
0.002902
0.001085
0.001346
0.001607
0.000828
0.003167
0.001610
0.001611
0.001352
0.000834
0.003432
0.000576
0.001356
0.001617
-0.000200
0.001879
0.002660
0.001622
0.000064
0.001624
0.001625
0.000587
0.001887
0.000329
0.001109
0.002409
0.000332
0.000593
0.000854
0.000595
0.001376
0.001896
0.001118
-0.000180
0.001120
0.000342
-0.000436
0.002422
0.001124
-0.000433
0.002166
0.000868
0.000090
0.001389
0.001650
0.001651
0.001393
0.001653
0.001395
0.000097
0.001657
0.001398
0.000100
0.001660
0.000622
-0.000416
0.001663
0.001664
0.001405
0.001666
0.001927
0.001409
0.000111
0.001411
0.001931
0.000893
0.001934
0.002454
0.001676
0.000638
0.001418
0.001939
0.000901
0.001681
0.002721
0.001164
0.001425
0.002205
0.002466
0.002986
0.001169
0.001430
0.002990
0.002731
0.001433
0.001174
0.001435
0.001177
0.001697
0.000399
0.000660
0.002220
0.000922
0.001962
0.002223
0.000666
-0.000113
0.001447
0.000929
-0.000109
0.001710
0.000672
0.001712
0.001713
0.000415
0.001456
0.000418
0.001458
0.001199
0.000421
0.000941
0.000683
0.000944
0.000945
0.001205
0.002505
0.001467
-0.000350
0.001729
0.001730
0.000433
0.002512
0.002773
0.000955
0.000956
0.001996
0.000179
0.000180
0.001480
0.000442
0.001742
0.001224
0.000445
0.001745
0.001746
0.001747
0.000450
0.000191
0.002530
0.002011
0.000194
0.001494
0.002015
0.000457
0.001497
0.003057
0.002279
0.002280
0.001761
0.000983
0.002023
0.001764
0.002025
0.002026
0.001508
0.002548
0.000990
0.001251
0.002811
0.000994
0.000735
0.002295
0.002815
0.002037
0.001778
0.003078
0.001780
0.000223
0.001263
0.000745
0.000746
0.002565
0.001527
0.001009
0.002568
0.001530
0.000232
0.001273
0.001793
0.001275
0.000756
0.001796
0.001278
-0.000539
0.001020
0.002320
0.000503
0.000244
0.001544
0.001545
0.000767
0.001807
0.001548
0.000251
0.002849
0.003110
0.001293
0.002073
0.001295
0.000257
0.000518
0.001558
0.001559
0.001300
0.001561
0.001822
0.001304
0.001305
0.002604
0.001566
0.000788
0.002608
0.002609
0.000532
0.000273
0.001313
0.001314
0.000796
0.000797
0.001837
0.001578
0.000021
0.000541
0.000283
0.000803
0.001324
0.000546
0.001326
0.000807
0.000029
-0.000489
0.000551
0.002630
0.002112
0.001593
0.001075
0.000556
0.001596
0.001597
0.001339
0.000301
0.001601
0.001602
-0.000475
0.000565
0.000046
0.000567
0.001607
0.001348
0.003168
0.000831
0.000572
0.002911
0.001613
0.001614
0.001356
0.000837
0.000838
0.000580
0.001620
0.001881
0.001622
0.001623
0.001624
0.002404
0.002146
0.000588
0.001109
0.001889
0.002150
0.001372
0.000334
0.001893
0.002414
0.000597
0.001637
0.001638
-0.000179
0.001380
0.001901
0.000603
0.002163
0.002424
0.001905
0.001906
0.001907
0.002168
0.000351
0.000092
0.002691
0.001913
0.000355
0.001395
0.002435
0.001917
0.001398
0.002179
0.001141
0.000363
0.001403
0.001144
0.000626
0.001146
0.001667
0.001928
0.001149
0.001930
0.002450
0.001672
0.001413
0.001155
0.001415
0.002196
0.002197
0.001419
0.001160
0.001421
0.001941
0.001683
0.000645
0.001945
0.001426
0.000648
0.001688
0.001429
0.000651
0.001172
0.000913
0.001434
0.002734
0.000656
0.000917
0.002477
0.002218
0.001700
0.001181
0.001702
0.000664
-0.000114
0.002484
0.002745
0.001447
0.002488
0.002229
0.000412
0.000413
0.001713
0.000415
0.000156
0.003274
0.000938
0.000159
0.001719
0.001460
0.001721
0.000423
0.000944
0.001984
0.001725
0.000947
0.000429
0.002248
0.001730
0.001471
0.001212
0.000694
0.001474
0.001475
0.002515
0.002516
0.000439
0.000700
0.002000
0.002261
0.001742
0.000964
0.001225
0.002005
0.000967
0.000709
0.002268
0.002010
0.001491
0.002791
0.000974
0.000715
0.002275
0.001237
0.001498
0.002278
0.001500
0.000981
0.002281
0.002542
0.000984
0.002025
0.001766
0.001247
0.001508
0.001250
0.001510
0.001771
0.001513
0.001773
0.002034
0.000217
0.000997
0.002297
0.001779
0.001520
0.001521
0.001003
-0.000035
0.001524
0.002305
0.001786
0.002826
0.001009
0.000750
0.001531
0.000493
0.001533
0.001794
0.001015
0.002056
0.001277
-0.000020
0.001020
0.001800
0.000762
0.001283
0.001024
-0.000274
0.001805
0.001287
0.000249
0.001809
0.001810
0.001031
0.001292
0.001813
0.002333
0.001815
0.000257
0.000778
0.000519
0.000001
0.002080
0.001302
0.000524
0.000525
0.001825
0.001826
0.000528
0.000789
0.000530
0.000791
0.000272
0.000273
0.001054
0.000795
0.002095
0.001577
0.001318
0.001319
0.000800
0.001321
0.000803
0.000284
0.000025
0.001066
0.001586
0.000548
0.001069
0.001330
0.000032
-0.000227
0.000294
0.000555
0.001075
0.001596
0.000558
-0.001260
0.001339
0.002120
-0.000217
0.001083
0.000564
-0.000474
0.000566
0.001087
0.001607
0.001089
0.001350
0.001870
0.000832
0.001093
0.001094
-0.000203
0.000837
0.001877
0.000839
0.000580
0.001101
0.002141
0.001622
0.000584
0.002144
0.002145
0.000588
0.002407
0.000590
-0.000968
0.001891
0.001892
0.000594
0.001115
0.001635
0.000337
0.001637
0.001898
0.001639
0.001121
0.000343
0.002682
0.001124
0.000346
0.001646
0.000868
0.000349
-0.000429
0.002170
0.001391
-0.001205
0.001394
0.001914
0.001136
0.001656
0.000878
0.001399
0.002179
0.001401
0.000883
0.001663
0.001404
0.000626
0.000887
0.000109
0.001149
0.002189
0.000372
0.000113
0.000633
0.000894
0.000895
0.001676
0.001937
0.002197
0.001939
0.001940
0.002201
0.001163
0.000644
0.000126
0.000906
0.001427
0.001687
0.003247
0.001949
0.001431
0.002471
0.001693
0.000655
0.000396
0.002995
0.001957
0.000399
0.001959
0.001440
0.001701
0.001702
0.001184
0.001445
0.002485
0.003005
0.001188
0.001709
0.002489
0.002230
0.002491
0.001973
0.002493
0.002494
0.001716
0.001717
0.002498
0.001460
0.001201
0.002501
0.001723
0.001464
0.000945
0.000947
0.003026
0.001988
0.001469
0.001730
0.000692
0.001732
0.002772
0.002254
0.002515
0.003295
0.002517
0.002518
0.003039
0.002520
0.002261
0.001223
0.001224
0.001745
0.002266
0.002526
0.002787
0.002529
0.001491
0.003050
0.002012
0.001494
0.002534
0.002275
0.002536
0.001498
0.002019
0.002279
0.001241
0.001762
0.002023
0.003842
0.004103
0.002546
0.002287
0.002288
0.001770
0.001251
0.002551
0.002552
0.001254
0.002554
0.002555
0.000738
0.000999
0.002299
0.002040
0.001002
0.002562
0.002043
0.000486
0.001786
0.001267
0.001788
0.001789
0.001530
0.002051
0.001013
0.002832
0.003353
0.000496
0.001796
0.001537
0.000759
0.001799
0.001800
0.002061
0.001283
0.001024
0.001805
0.001026
0.001547
0.001808
0.001549
0.002070
0.001811
0.001033
0.001294
0.002334
0.002854
0.002856
0.000519
0.001299
0.002599
0.001041
0.002341
0.001823
0.001564
0.002604
0.002086
0.001827
0.002867
0.002609
0.001830
0.001831
0.001313
0.001574
0.000536
0.001316
0.002876
0.001578
0.000800
0.001840
0.001581
0.000283
0.002363
0.003403
0.001326
0.001846
0.002107
0.001589
0.002889
0.002630
0.001592
0.000814
0.001074
0.001595
0.001336
0.001337
0.001598
0.001080
0.001081
0.001082
0.000304
0.001084
0.001345
0.001086
0.000828
0.000569
0.002388
0.001610
0.001092
0.003171
0.001353
0.001355
0.003174
0.001876
0.001098
0.001619
0.000840
0.001101
0.000842
0.000324
0.000585
0.001365
0.002925
0.001887
0.001368
0.002149
0.001890
0.002151
0.001373
0.000854
0.001115
0.001636
0.001896
0.001638
0.002158
0.001900
0.002420
0.002941
0.001643
0.001644
0.002165
0.000867
0.001128
0.002687
0.001649
0.002170
0.002691
0.000873
0.001913
0.001395
0.001396
0.002436
0.001138
0.001140
0.000621
0.001401
0.002701
0.001923
0.001664
0.001925
0.001407
0.001408
0.002708
0.001929
0.001151
0.001932
0.002712
0.001934
-0.000143
0.000897
0.002456
0.000899
0.000640
0.001940
0.001681
0.001942
0.002463
0.001944
0.001426
0.002466
0.002207
0.000390
0.001430
0.002730
0.001692
0.001433
0.002214
0.001695
0.001437
0.001178
0.002218
0.001700
0.000921
0.003001
0.002222
0.002223
0.002484
0.001966
0.002746
0.000929
0.002488
0.002230
0.000153
0.001712
0.001713
0.002494
0.002495
0.002236
0.003276
0.001719
0.000421
0.000162
0.000423
0.001204
0.001205
0.002245
0.000427
0.000948
0.002767
0.000950
0.001731
0.002251
0.001992
0.003292
0.001475
0.000697
0.001477
0.001998
0.002259
0.000961
0.001481
0.003041
0.001484
0.000965
0.001486
0.001747
0.003046
0.002788
0.002009
0.001751
0.002271
0.001753
0.001494
0.002275
0.002016
0.002277
0.002018
0.002279
0.000981
0.000722
0.002282
0.001764
0.002804
0.001766
0.000728
0.001248
-0.000049
0.000991
0.002031
0.000993
0.002552
0.002554
0.001516
0.002556
0.002037
0.000999
0.002039
0.002300
0.002301
0.000744
0.001264
0.002304
0.000747
0.001008
0.000489
0.001529
0.002050
0.000752
0.001013
0.000235
0.001535
0.001016
-0.001061
-0.000540
-0.000539
-0.001317
-0.001316
-0.000276
-0.001834
-0.003132
-0.002091
-0.003389
-0.004687
-0.005205
-0.004685
-0.004943
-0.007800
-0.008838
-0.009876
-0.011174
-0.012212
-0.013509
-0.016106
-0.019482
-0.022598
-0.024935
-0.027791
-0.031687
-0.035063
-0.039737
-0.044152
-0.049606
-0.056619
-0.063372
-0.070645
-0.078696
-0.088826
-0.098696
-0.109605
-0.121813
-0.134021
-0.149606
-0.164412
-0.177659
-0.190387
-0.201816
-0.211686
-0.217140
-0.218957
-0.217138
-0.210383
-0.201290
-0.186482
-0.168037
-0.151151
-0.134265
-0.123873
-0.117638
-0.116858
-0.128027
-0.149586
-0.183355
-0.230372
-0.287260
-0.347785
-0.414025
-0.485979
-0.562350
-0.640799
-0.715611
-0.792501
-0.870690
-0.949918
-1.034342
-1.114090
-1.182927
-1.241114
-1.286313
-1.317224
-1.326055
-1.301116
-1.248902
-1.170451
-1.061087
-0.914317
-0.727543
-0.502064
-0.264894
-0.021491
0.275685
0.601435
0.915236
1.222023
1.554527
1.881575
2.166282
2.380072
2.450990
2.612307
2.913379
2.978582
2.705567
2.297992
1.897171
1.424395
0.861998
0.251285
-0.279680
-0.652706
-1.066775
-1.449412
-1.641119
-1.733855
-1.830488
-1.934134
-1.990763
-1.974656
-1.847369
-1.662413
-1.442908
-1.121574
-0.672434
-0.099385
0.492887
1.002033
1.436886
1.797964
1.965256
1.955386
1.872521
1.660551
1.319737
0.861767
0.293915
-0.280690
-0.773988
-1.140520
-1.309368
-1.208057
-0.972707
-0.788270
-0.668516
-0.596300
-0.565126
-0.558371
-0.536550
-0.453943
-0.383025
-0.478618
-0.608501
-0.415752
-0.064545
-0.131045
-0.558622
-0.751108
-0.585635
-0.464063
-0.707984
-1.197645
-1.452996
-1.223880
-0.863581
-0.784610
-0.889815
-0.884878
-0.606146
-0.120379
0.281483
0.527484
0.828816
1.246004
1.551233
1.496942
1.188339
0.914545
0.864151
1.061056
1.219516
1.077164
0.802850
0.645691
0.506457
0.342544
0.386186
0.628031
0.798700
0.623358
0.106940
-0.247122
-0.225041
-0.363756
-0.925373
-1.466988
-1.580246
-1.147212
-0.380895
0.181763
0.317882
0.263072
0.105654
-0.236199
-0.373096
0.049547
0.446214
0.463100
0.369844
0.092154
-0.456475
-0.995493
-1.094463
-0.718578
-0.208133
0.094498
0.073198
0.071121
0.072161
-0.338271
-1.017303
-1.286682
-0.856765
-0.299042
0.008784
0.159970
0.132436
0.190625
0.657169
1.275937
1.661694
1.786903
1.808984
1.833663
1.806908
1.463236
0.660555
-0.075627
0.033477
0.787844
1.146325
0.651208
-0.048086
-0.124716
0.390405
0.767589
0.505744
