EVENT_NAME: 202302060117
EVENT_ID: 13194
EVENT_DATE_YYYYMMDD: 2023/02/06
EVENT_TIME_HHMMSS: 01:17:32.00000
EVENT_LATITUDE_DEGREE: 37.288
EVENT_LONGITUDE_DEGREE: 37.043
EVENT_DEPTH_KM: 8.6
HYPOCENTER_REFERENCE: AFAD
MAGNITUDE_W: 7.7
MAGNITUDE_W_REFERENCE: AFAD
MAGNITUDE_L: 
MAGNITUDE_L_REFERENCE: 
FOCAL_MECHANISM: 
NETWORK: TK
STATION_CODE: 4629
STATION_NAME: 
STATION_LATITUDE_DEGREE: 37.287373
STATION_LONGITUDE_DEGREE: 36.788705
STATION_ELEVATION_M: 494.0
LOCATION: Kahramanmaras_Pazarck_Turkiye
SENSOR_DEPTH_M: 
VS30_M/S: 382
SITE_CLASSIFICATION_EC8: C
MORPHOLOGIC_CLASSIFICATION: 
EPICENTRAL_DISTANCE_KM: 22.50
EARTHQUAKE_BACKAZIMUTH_DEGREE: 
DATE_TIME_FIRST_SAMPLE_YYYYMMDD_HHMMSS: 2023/02/06 01:17:06.1500710
DATE_TIME_FIRST_SAMPLE_PRECISION: millisecond
SAMPLING_INTERVAL_S: 0.01
NDATA: 5367
DURATION_S: 
STREAM: HNZ
UNITS: cm/s^2
INSTRUMENT: sensor = ACEBOX/SARA | digitizer = 
INSTRUMENT_ANALOG/DIGITAL: 
INSTRUMENTAL_FREQUENCY_HZ: 
INSTRUMENTAL_DAMPING: 
FULL_SCALE_G: 
N_BIT_DIGITAL_CONVERTER: 
PGA_CM/S^2: 124.364
TIME_PGA_S: 
BASELINE_CORRECTION: BASELINE REMOVED
FILTER_TYPE: BUTTERWORTH
FILTER_ORDER: 
LOW_CUT_FREQUENCY_HZ: 
HIGH_CUT_FREQUENCY_HZ: 
LATE/NORMAL_TRIGGERED: 
DATABASE_VERSION: 
HEADER_FORMAT: DYNA 1.2
DATA_TYPE: Acceleration
PROCESSING: Automatic Paolucci et al., 2011
DATA_TIMESTAMP_YYYYMMDD_HHMMSS: 
DATA_LICENSE: U (unknown license)
DATA_CITATION: Turkish Accelerometric Archive v 1.0 - Disaster And Emergency Management Presidency, Earthquake Department
DATA_CREATOR: AFAD
ORIGINAL_DATA_MEDIATOR_CITATION: : AFAD - Disaster And Emergency Management Presidency
ORIGINAL_DATA_MEDIATOR: AFAD PROCESS SERVICE
ORIGINAL_DATA_CREATOR_CITATION: AFAD PROCESS SERVICE
ORIGINAL_DATA_CREATOR: network: TK
USER1: GuestUser
USER2: 
USER3: 
USER4: 
USER5: 
[...]
-0.009448
-0.008990
-0.009934
-0.009476
-0.010655
-0.012067
-0.010440
-0.008111
-0.010692
-0.009299
-0.009776
-0.014695
-0.010496
-0.007232
-0.011216
-0.009121
-0.009131
-0.010777
-0.008448
-0.010094
-0.011974
-0.008476
-0.008486
-0.011768
-0.008738
-0.008280
-0.012965
-0.009234
-0.008308
-0.012994
-0.007626
-0.007869
-0.014892
-0.009524
-0.008598
-0.011881
-0.009319
-0.011198
-0.010039
-0.010282
-0.013331
-0.009599
-0.009843
-0.010320
-0.008926
-0.012209
-0.009880
-0.010357
-0.012938
-0.007804
-0.010619
-0.012499
-0.007365
-0.011816
-0.012293
-0.007393
-0.011377
-0.010919
-0.009291
-0.013275
-0.011882
-0.010722
-0.010264
-0.008871
-0.010751
-0.010292
-0.010535
-0.011948
-0.009619
-0.010564
-0.011274
-0.011050
-0.011527
-0.009900
-0.012481
-0.012257
-0.009227
-0.011340
-0.012285
-0.010190
-0.009264
-0.010910
-0.013024
-0.013033
-0.011172
-0.009311
-0.012126
-0.013071
-0.009106
-0.011219
-0.011696
-0.007497
-0.011949
-0.012659
-0.009396
-0.013380
-0.013623
-0.011294
-0.011537
-0.009910
-0.010153
-0.011566
-0.010172
-0.010182
-0.011828
-0.012305
-0.009508
-0.009284
-0.012099
-0.010939
-0.008377
-0.011192
-0.014007
-0.011211
-0.010752
-0.012398
-0.009135
-0.009144
-0.011725
-0.011735
-0.012679
-0.010351
-0.010126
-0.013409
-0.010145
-0.010154
-0.011800
-0.009472
-0.014157
-0.013465
-0.009032
-0.012549
-0.012792
-0.009060
-0.010239
-0.012352
-0.011894
-0.010735
-0.011212
-0.014027
-0.012867
-0.008434
-0.009379
-0.012661
-0.011268
-0.012213
-0.012923
-0.011296
-0.012007
-0.012250
-0.010155
-0.009463
-0.010174
-0.013223
-0.013934
-0.009267
-0.009510
-0.012325
-0.010464
-0.010941
-0.011652
-0.012363
-0.013775
-0.011680
-0.012157
-0.011465
-0.010306
-0.013822
-0.011026
-0.009399
-0.013382
-0.010586
-0.010128
-0.012008
-0.010147
-0.012494
-0.011802
-0.009707
-0.014159
-0.012999
-0.009736
-0.013018
-0.011859
-0.008829
-0.012345
-0.012354
-0.010961
-0.013075
-0.011915
-0.010989
-0.011232
-0.011709
-0.013355
-0.011027
-0.011504
-0.013383
-0.011756
-0.011532
-0.011307
-0.013187
-0.012729
-0.009933
-0.012982
-0.011822
-0.010195
-0.013945
-0.011850
-0.011158
-0.014441
-0.013281
-0.012355
-0.010027
-0.010971
-0.013085
-0.010289
-0.011935
-0.014282
-0.011953
-0.010794
-0.011271
-0.014320
-0.015966
-0.011767
-0.009204
-0.013188
-0.015769
-0.012506
-0.009709
-0.006913
0.000793
0.009901
0.018075
0.026015
0.026005
0.016176
0.005646
-0.009560
-0.025468
-0.019165
0.003738
0.021965
0.028736
0.013296
-0.020147
-0.046809
-0.044480
0.006946
0.111911
0.257791
0.427752
0.605897
0.773987
0.922206
1.053123
1.133773
1.096356
0.940404
0.714313
0.464140
0.314033
0.358211
0.480946
0.513434
0.428556
0.241743
-0.058696
-0.354927
-0.415489
-0.191287
0.058633
-0.038169
-0.606773
-1.293679
-1.669634
-1.653746
-1.161144
-0.225731
0.507916
0.608439
0.454124
0.219382
-0.311815
-0.690576
-0.372621
-0.032689
-0.452131
-0.973976
-0.674257
0.010760
0.359108
0.612301
0.563194
-0.503164
-1.924661
-2.588655
-2.138604
-0.232231
2.761534
5.129657
5.615010
4.463783
2.607424
0.997954
-0.024919
-0.420513
0.045669
0.848520
1.692285
2.648974
2.864993
2.751124
2.535554
0.736708
-1.085049
-0.476718
1.279558
2.299606
1.810492
-0.400538
-3.335872
-4.774436
-2.771504
1.130797
3.126013
2.247861
0.126376
-1.977108
-3.270718
-3.087430
-1.253066
1.387431
3.106767
3.589782
3.693111
2.227661
-0.891204
-2.694024
-3.163966
-3.232478
-0.887969
2.728164
3.307271
-0.528884
-5.656067
-7.335676
-5.524458
-2.818732
1.251201
5.187637
5.704553
4.691968
4.521988
3.199387
1.168848
1.444720
1.631281
-0.280489
-0.900295
-0.947999
-2.095953
-1.667646
-0.881629
-1.184172
-1.522953
-4.096369
-6.870851
-4.335329
1.274159
5.246366
7.824906
9.024744
6.408076
1.889467
-0.102729
-0.870061
-2.389051
-2.953681
-3.173927
-4.812856
-5.352469
-2.499217
-0.292180
-1.082424
-0.335217
1.269324
-0.489309
-0.708854
3.543208
5.366350
2.124274
-4.186392
-12.586269
-16.607825
-12.059075
-5.377860
-0.076750
4.912006
5.919663
1.086597
-5.292805
-7.399328
-3.909679
-1.306122
-1.445475
0.596268
2.226760
0.875636
0.877030
3.023513
4.123052
1.493291
-2.170789
-1.142558
1.764468
1.099072
-1.547757
-3.394063
-4.755474
-5.010322
-0.435854
5.976494
5.495096
2.226834
4.302010
6.662417
6.671058
9.110490
10.999796
5.565871
-7.318706
-19.352494
-22.105467
-18.636626
-12.632488
-2.358744
6.352065
6.998271
1.421730
-3.509064
-1.077114
3.176350
1.839488
-0.228458
-0.831431
-0.336492
3.792826
5.952402
1.174278
-6.126285
-11.703528
-10.893897
-2.111546
5.796637
7.346937
4.450414
-2.535692
-7.613077
-2.875184
4.877290
2.247763
-6.395732
-5.706507
-1.154717
-2.318102
1.239348
8.361972
7.504395
3.565603
2.435183
2.079802
-2.846783
-12.217153
-12.908735
-1.497334
9.176437
10.395213
4.413033
-1.373459
-5.638865
-7.243893
0.411322
12.602203
16.164329
6.763565
-7.597207
-14.994796
-11.738243
-1.589347
7.021163
8.663813
7.874972
0.884892
-15.905736
-21.515009
-4.986254
12.255350
16.498060
11.821637
-0.219165
-9.843906
-5.934124
-0.123102
-1.480539
0.000324
3.012792
-2.740734
-9.795576
-7.760146
-1.556345
0.559744
-3.648616
-5.937267
-1.856345
-5.087432
-13.392622
-8.625038
2.848086
7.834271
8.667281
7.666152
-0.677614
-13.439447
-14.477283
-7.662803
-7.723132
-7.454041
0.684199
11.965375
15.802914
12.388295
14.491059
8.759977
-11.983929
-18.994115
-8.791446
-1.543039
1.673535
7.888090
14.274721
12.344949
3.274775
-5.650679
-6.941717
-1.269805
-2.990562
-6.111297
3.115970
10.403421
6.953032
1.249071
-2.601112
-4.204971
-2.307949
4.940692
11.100071
7.955956
0.497347
-2.502282
0.671039
3.214978
-3.279686
-12.816519
-10.982857
0.256236
6.603822
1.693135
-4.923804
2.844802
14.766115
10.919673
2.439603
-2.929561
-11.548506
-12.486043
1.732329
17.224661
21.080203
16.117145
5.941109
-5.758816
-7.030917
-4.996890
-9.535138
-6.549323
2.183697
6.275374
10.557128
10.829492
7.547203
9.761020
12.740055
17.536864
28.300647
28.667232
10.753442
-4.649599
-8.504925
-12.855434
-12.669574
-5.013892
-6.177745
-10.220810
-3.971419
4.215451
8.600777
6.464094
-0.233272
3.267833
14.877261
17.840164
14.777878
14.032757
8.309156
-0.704907
-2.715339
-7.302684
-16.013980
-11.229796
2.805746
12.482372
16.863022
12.764780
3.170900
-1.870947
-3.350660
-0.627165
12.131610
19.449689
7.737372
-1.388446
3.194438
4.889927
1.702559
2.959678
11.970215
22.332802
20.904057
9.281986
-5.053303
-18.372509
-15.380381
5.689420
20.690076
19.052785
10.684236
2.494309
-8.615981
-23.523371
-27.759553
-14.173604
4.504684
20.411072
27.846751
19.926391
4.248639
-6.768833
-6.553749
3.347322
11.786459
9.491495
-1.377983
-8.487533
-5.193573
1.138817
5.503569
6.659219
1.867301
-2.664167
-1.766161
-3.818209
-7.749987
3.689704
29.665272
47.668821
46.264859
31.389498
11.867184
-8.289657
-21.162544
-16.504376
-8.577957
-15.149540
-26.023460
-28.249687
-14.135122
12.312717
28.643446
28.222836
15.834844
-5.826949
-22.233916
-24.791667
-16.977003
-1.707713
12.457353
12.765722
3.202235
2.957440
8.654135
5.155350
-3.040189
-11.122102
-13.172280
-6.646774
-7.408729
-14.001821
-10.096715
-2.585753
-4.883990
-9.678479
-7.033774
-5.855913
-13.625239
-19.511329
-9.689749
8.653040
16.882227
21.275970
25.560061
19.319301
22.371515
40.644633
42.298973
22.136287
0.227837
-15.892260
-31.922111
-43.570601
-38.461205
-25.409716
-17.628953
-23.263476
-39.119616
-30.029822
6.521800
35.451864
56.513715
61.712188
26.722547
-23.630145
-43.772491
-24.110150
2.706855
7.552527
-1.286655
-15.959781
-39.507383
-54.137023
-37.369560
-0.186219
30.546189
44.459221
36.975127
16.514116
-0.157976
-15.292150
-24.592147
-22.509490
-19.847718
-12.535718
3.579451
20.422196
35.526893
35.158653
6.893256
-27.626686
-39.865281
-27.865880
-2.589599
18.973981
17.335520
3.538433
-1.215376
-11.135170
-34.148078
-45.094008
-34.142252
-14.824762
3.149796
15.594348
22.694995
27.776101
26.515223
8.728853
-20.311348
-35.126155
-22.015983
4.913712
28.616537
36.534072
15.192581
-24.346521
-51.835010
-62.474198
-70.414664
-71.524041
-48.718296
-11.047955
13.620686
26.161329
32.703434
24.388191
14.219637
13.033575
14.044972
17.767483
18.168436
13.485233
13.810202
19.354461
29.986382
42.212801
42.197828
23.255798
0.342021
1.169887
18.485838
18.291544
0.280494
-20.209741
-39.143822
-46.752530
-33.279738
-9.588603
-7.955071
-33.833866
-51.666995
-43.655941
-16.059223
14.765301
24.812027
13.608453
-4.834186
-16.586950
-7.310586
17.397100
39.756292
48.639176
41.566799
16.999373
-11.702991
-21.499574
-31.047162
-46.754840
-38.130536
-17.726123
8.071993
43.907727
51.007205
20.976638
-22.573723
-59.553445
-68.140595
-53.743836
-25.077028
14.701931
44.296915
50.282817
36.394081
6.701585
-29.494917
-44.651769
-35.071234
-24.667032
-1.407019
34.296620
50.502969
51.936371
38.953599
8.310016
-7.408885
-12.380593
-24.709901
-21.882834
-15.350314
-14.103249
15.917713
42.762540
20.474403
-18.084152
-39.167064
-36.683211
-16.297502
9.452686
30.589352
30.611787
16.687046
1.734767
-16.442980
-10.777614
20.818440
33.360251
19.175294
-1.381106
-15.014769
-5.953264
22.575137
32.998277
4.874794
-20.148770
-21.534730
-25.935739
-8.888654
29.369453
27.672777
6.091643
6.922082
14.601378
12.707610
-7.141319
-16.510053
0.328485
7.018818
16.076114
41.877737
42.464092
4.923957
-43.109701
-64.048359
-45.852863
-14.860005
18.401854
48.179668
54.162764
40.023164
13.906831
-18.053499
-28.516637
-18.793486
-17.242017
-20.293080
-13.583576
-3.940851
-5.206638
-16.188807
-31.529190
-44.438549
-28.200169
-1.065668
-8.796886
-9.502261
36.192236
75.427850
71.908490
45.860192
19.324193
-1.274291
-20.129582
-34.482171
-32.562939
-25.344926
-34.224789
-46.548720
-39.100182
-12.690686
14.686497
22.450894
16.849804
11.580004
-7.127761
-32.726467
-37.405928
-25.593331
-13.605152
-4.972665
6.463753
22.039317
20.662008
-5.242037
-31.904754
-38.284155
-36.006979
-48.024636
-40.437924
13.744349
50.337820
25.357274
-21.045881
-38.056044
-21.070449
-2.639986
12.289129
33.744461
36.128950
6.946600
-11.786649
6.432928
15.241231
-11.534177
-41.392201
-65.764874
-73.365632
-52.430733
-42.064873
-50.760972
-46.843240
-26.831373
8.870629
54.426017
73.660742
51.334497
25.068534
21.992454
17.463324
1.435343
-0.454918
8.955881
12.899096
6.358842
-18.990169
-40.990501
-38.927717
-33.512046
-26.799970
-18.227569
-25.749304
-30.515972
0.533231
47.248720
45.298374
-4.144847
-41.007671
-79.959240
-113.806547
-70.490236
2.546384
40.148456
67.469294
59.431568
19.178684
12.886489
20.008645
16.420549
25.219032
28.676884
13.136605
-8.588782
-28.543622
-37.745891
-40.479224
-45.690809
-40.683114
-17.179719
-3.123836
-22.843242
-55.157775
-58.891059
-18.893266
27.611105
42.799501
37.207529
24.818369
11.468068
11.122038
24.278035
32.714132
19.559286
-7.433553
-25.780101
-24.966496
-12.664327
0.438130
21.598877
42.838648
36.265662
25.803693
48.626037
66.690607
40.870028
9.049743
2.899697
-0.985556
-12.877897
-22.496326
-28.608497
-26.693941
-25.383283
-21.289034
9.717851
27.205410
0.786543
-14.115003
-6.203079
-4.221423
-3.285775
7.332352
39.078972
63.723766
48.466147
25.250537
10.126884
-4.515848
-12.492787
-17.690343
-13.697329
-13.048785
-35.518816
-44.978029
-37.284471
-44.047768
-32.724274
11.500339
45.863384
50.186988
22.905175
-9.807046
-26.297478
-55.677153
-68.883668
-21.349187
27.668738
51.588761
82.000632
90.025480
63.432435
49.275066
54.894374
50.918875
38.317661
32.878592
40.302581
64.382287
80.786195
60.602000
27.343395
8.108651
-2.430939
-1.155818
21.794413
46.852327
38.755451
-3.695830
-50.836849
-82.617622
-99.391650
-93.501371
-51.957477
-5.476720
22.385125
33.706280
4.707227
-28.581071
-22.509365
-12.489993
20.919861
87.621510
121.000035
115.618246
91.766941
54.143107
12.243588
-37.453537
-68.296315
-65.252518
-51.543591
-27.740701
-2.125414
6.035971
0.275665
-10.658809
-21.770968
-25.403720
-1.182566
48.869678
87.564519
98.055460
76.278171
31.863929
11.420453
21.726461
19.015806
-2.620738
-27.735249
-58.972210
-90.153994
-114.149318
-119.943058
-93.119273
-63.562866
-51.949464
-27.244350
2.637503
3.139924
-0.948499
25.186286
61.277092
77.663699
75.808041
55.187113
6.814917
-44.977967
-65.186944
-72.442852
-83.602472
-52.396859
22.162482
60.896133
32.147945
-12.306043
-28.420529
-32.443488
-25.486860
12.155894
37.304287
33.861613
42.223830
42.637408
15.474131
-10.606898
-34.603859
-60.494811
-70.324593
-65.605638
-59.636570
-44.778295
-7.818698
38.834134
65.032043
69.056153
73.896448
63.733272
19.032160
-26.317738
-50.113400
-67.982768
-83.437945
-74.881910
-36.654664
-4.754439
-4.739953
-29.798821
-46.433038
-13.320809
38.224933
59.494162
72.968356
80.880514
47.907609
-6.462656
-37.838258
-39.326387
-14.252108
17.025047
21.344209
17.489584
14.301281
-14.523359
-44.975229
-62.527802
-87.095929
-95.105599
-64.286920
-24.613171
-9.192614
-15.105356
-14.732459
5.822520
17.768148
15.302045
39.133926
59.851627
35.057886
11.996582
12.215874
20.215004
45.180335
76.374024
100.575071
121.455495
124.364158
103.785780
79.465478
42.136930
-10.951191
-35.118356
-37.701591
-51.731774
-46.270046
-15.912649
-4.466412
-18.685971
-26.441737
-19.447935
-19.500549
-13.622428
13.177276
30.005993
30.010660
28.283590
23.639900
21.466511
11.097827
-17.609448
-31.072439
-21.023374
-12.921607
0.466083
11.855975
-4.371669
-33.047614
-51.215542
-46.981483
-39.258233
-57.793690
-59.513979
-25.209384
-6.740344
-0.552909
9.270775
11.359744
14.368939
-2.168720
-45.383114
-65.381440
-45.810047
-1.697422
54.188766
95.799760
111.700770
97.909761
56.685917
18.926480
-15.560730
-58.493165
-78.228235
-74.843328
-55.505498
6.503138
71.458556
77.043729
36.899794
-10.167346
-34.460527
-27.975702
-21.244688
-20.457970
-4.173064
-3.799232
-34.587068
-48.739527
-47.420452
-45.708598
-27.248911
-2.694830
15.859078
8.534901
-14.702452
-4.887886
8.585607
1.837274
6.897338
5.151331
-20.643297
-48.650582
-50.019241
-14.555010
17.654528
31.682588
50.641667
53.970229
29.350432
14.514818
22.177981
28.917646
25.264086
20.173609
14.338721
3.180971
8.724763
32.345992
26.729705
-2.196403
-14.974369
-30.748913
-56.661842
-51.411233
-9.246841
21.465226
19.418322
13.048973
9.086334
0.447282
1.721935
15.560854
33.719177
47.056600
52.492143
61.462935
60.381847
38.251523
20.396884
1.465609
-26.985657
-29.198558
-9.788250
-12.457757
-36.397905
-43.795961
-21.992271
-8.941016
-20.920564
-24.278369
-17.646485
-17.452443
-4.889590
22.883411
29.347662
-1.497688
-38.763812
-55.048736
-57.400980
-61.497351
-62.239199
-43.569094
-18.064861
-3.771909
1.743359
4.466153
24.535768
40.696527
12.607179
-11.402640
-7.573518
-6.349131
17.316520
53.898769
68.752133
74.760480
48.649758
-11.090596
-45.588327
-61.726193
-82.624404
-65.133105
-6.673277
30.628833
18.632452
-17.747581
-39.935652
-40.355561
-24.895259
21.514190
69.321279
78.591098
76.245400
66.247519
33.953794
13.685432
9.225974
-15.178495
-47.491391
-41.038362
-4.873441
9.200677
16.992663
42.764126
31.728652
-16.528282
-36.156975
-26.673699
-11.934661
8.993925
30.820527
39.044570
33.587966
35.496210
26.875862
-8.465176
-24.295598
-14.090357
-2.466668
7.796322
1.405464
-6.069044
-0.724915
-7.087016
-15.308740
-16.975256
-26.285307
-34.520123
-40.159089
-50.162582
-70.053127
-94.951143
-74.468875
-7.775175
23.679432
19.058887
28.173698
22.202740
-13.167055
-38.130300
-46.701317
-46.651761
-27.543286
2.040709
16.663783
6.662394
-19.080798
-40.634811
-38.665546
-18.916700
-1.117490
4.977595
-11.075636
-36.729050
-35.592337
-12.045221
18.596473
59.737067
79.249543
62.980517
51.297892
49.859328
37.236838
21.115105
6.945578
-8.262709
-17.265784
-26.051661
-33.637690
-19.842959
-4.487398
-5.744535
7.899630
31.281919
42.662693
61.590676
77.928420
74.257092
69.947965
65.853230
61.838688
57.306986
31.011565
2.018123
-3.929222
-1.099115
-0.488446
-10.238503
-24.798003
-26.825502
-19.796865
-4.565917
8.019380
-4.694291
-28.535075
-37.769375
-30.494782
-14.807463
5.440774
25.285710
30.838853
28.058293
31.424730
15.641535
-24.112660
-36.328109
-20.248711
-20.943098
-27.253764
-19.675235
-12.101849
-2.622782
10.235590
20.606594
30.033992
23.855422
9.790870
22.907589
41.719375
31.642002
18.440163
22.185352
36.816375
49.907610
35.152421
3.624149
-19.421724
-39.281175
-45.973163
-47.897324
-63.074049
-57.945482
-28.799155
-7.835499
10.695263
31.602340
41.211165
44.291200
50.447073
38.646614
-1.044222
-30.445640
-28.741735
1.593217
49.197370
67.649342
43.753148
9.966629
-19.786421
-40.241820
-42.828797
-18.658377
14.432343
18.222187
3.441281
-8.357073
-26.478709
-34.584002
-13.191328
7.315956
3.592258
-0.271485
-2.552654
-17.336600
-21.406786
-17.875288
-22.105391
-17.497724
-10.796870
-5.509087
3.887684
-1.772791
-22.612086
-37.594759
-20.247947
24.139857
46.309440
40.035013
28.227307
6.411441
-20.745524
-31.120053
-21.818204
-8.109511
12.736545
33.838843
33.371239
27.934274
27.710287
20.421414
4.703215
-19.389135
-32.460984
-36.106594
-47.183216
-30.218896
10.332996
21.443501
19.618002
32.892300
38.109710
26.455609
17.219906
20.981928
24.341586
12.220591
-2.640508
-11.695953
-12.741737
8.702138
28.613941
27.336697
32.270277
30.402929
4.477141
-7.729891
7.184728
26.013114
32.386418
25.076036
14.827290
12.858240
18.686328
5.375072
-24.112150
-14.121067
23.038661
20.327071
-14.895432
-30.930427
-17.183858
-9.604160
-32.137784
-53.111746
-32.696111
13.674061
38.694099
40.122124
37.058669
19.259907
-7.477859
-24.301218
-16.099853
15.821180
28.117504
10.700066
-17.855240
-53.085692
-64.800113
-44.976920
-5.118938
44.381545
56.383284
35.059795
26.215235
16.979532
-3.839422
-21.603581
-39.766833
-61.240653
-75.375578
-67.185201
-36.813777
-12.389688
-9.767661
-5.273151
5.034025
-10.043803
-35.849420
-36.574434
-28.498385
-19.134112
9.099470
36.434569
38.926371
23.930371
3.479647
-15.125948
-24.377549
-19.855686
-12.738907
-13.200432
-8.740291
4.505718
13.548753
11.246775
-1.923268
-12.406279
-15.036975
-22.623706
-26.711660
-15.522834
-2.529093
2.253221
-2.326409
-14.027270
-25.504855
-28.400444
-10.205181
20.541956
33.492678
28.587602
26.792264
23.284594
8.097348
-4.755900
-5.522764
-3.866320
-10.101001
-20.604353
-13.725111
6.670651
9.706032
6.927342
11.476793
6.418346
5.223867
7.198275
-6.631310
-8.630987
5.247209
5.876114
4.194869
10.015944
5.971943
-17.163709
-44.430792
-47.363086
-33.089539
-30.876423
-30.615281
-12.500912
7.795253
9.639904
1.227635
-7.525744
-16.877644
-12.824310
-2.924408
-3.846748
6.215877
16.979426
7.047475
9.372346
18.652451
6.643913
-3.771063
-8.450993
-18.295971
