EVENT_NAME: 202302060117
EVENT_ID: 13194
EVENT_DATE_YYYYMMDD: 2023/02/06
EVENT_TIME_HHMMSS: 01:17:32.00000
EVENT_LATITUDE_DEGREE: 37.288
EVENT_LONGITUDE_DEGREE: 37.043
EVENT_DEPTH_KM: 8.6
HYPOCENTER_REFERENCE: AFAD
MAGNITUDE_W: 7.7
MAGNITUDE_W_REFERENCE: AFAD
MAGNITUDE_L: 
MAGNITUDE_L_REFERENCE: 
FOCAL_MECHANISM: 
NETWORK: TK
STATION_CODE: 5807
STATION_NAME: 
STATION_LATITUDE_DEGREE: 38.7269
STATION_LONGITUDE_DEGREE: 37.2475
STATION_ELEVATION_M: 1360.0
LOCATION: Kahramanmaras_Pazarck_Turkiye
SENSOR_DEPTH_M: 
VS30_M/S: 445
SITE_CLASSIFICATION_EC8: B
MORPHOLOGIC_CLASSIFICATION: 
EPICENTRAL_DISTANCE_KM: 161.00
EARTHQUAKE_BACKAZIMUTH_DEGREE: 
DATE_TIME_FIRST_SAMPLE_YYYYMMDD_HHMMSS: 2023/02/06 01:17:39.7784610
DATE_TIME_FIRST_SAMPLE_PRECISION: millisecond
SAMPLING_INTERVAL_S: 0.01
NDATA: 13501
DURATION_S: 
STREAM: HNN
UNITS: cm/s^2
INSTRUMENT: sensor = GMS+/GEOSIG | digitizer = 
INSTRUMENT_ANALOG/DIGITAL: 
INSTRUMENTAL_FREQUENCY_HZ: 
INSTRUMENTAL_DAMPING: 
FULL_SCALE_G: 
N_BIT_DIGITAL_CONVERTER: 
PGA_CM/S^2: 31.474
TIME_PGA_S: 
BASELINE_CORRECTION: BASELINE REMOVED
FILTER_TYPE: BUTTERWORTH
FILTER_ORDER: 
LOW_CUT_FREQUENCY_HZ: 
HIGH_CUT_FREQUENCY_HZ: 
LATE/NORMAL_TRIGGERED: 
DATABASE_VERSION: 
HEADER_FORMAT: DYNA 1.2
DATA_TYPE: Acceleration
PROCESSING: Automatic Paolucci et al., 2011
DATA_TIMESTAMP_YYYYMMDD_HHMMSS: 
DATA_LICENSE: U (unknown license)
DATA_CITATION: Turkish Accelerometric Archive v 1.0 - Disaster And Emergency Management Presidency, Earthquake Department
DATA_CREATOR: AFAD
ORIGINAL_DATA_MEDIATOR_CITATION: : AFAD - Disaster And Emergency Management Presidency
ORIGINAL_DATA_MEDIATOR: AFAD PROCESS SERVICE
ORIGINAL_DATA_CREATOR_CITATION: AFAD PROCESS SERVICE
ORIGINAL_DATA_CREATOR: network: TK
USER1: GuestUser
USER2: 
USER3: 
USER4: 
USER5: 
[...]
1.299917
2.655907
3.355203
3.552887
3.171029
2.635129
2.312757
2.031949
1.844397
1.890897
1.635286
0.994179
0.518545
-0.143602
-1.002394
-1.217222
-0.565983
0.581153
2.011696
3.661483
5.006302
5.375433
4.963702
4.127770
2.949203
2.047290
1.779990
2.320827
3.885150
5.537275
6.226960
5.931085
4.904483
3.542780
2.188611
0.847950
-0.252427
-0.987049
-1.779860
-2.642549
-3.042331
-2.818670
-1.989750
-0.787543
-0.017330
-0.355807
-1.579313
-2.817626
-3.306768
-2.476029
-0.250077
2.598019
5.200115
7.045248
7.401390
5.570806
2.703489
0.858358
0.490528
1.395040
3.107691
4.940095
6.301539
6.050085
4.196901
1.641565
-1.157434
-2.950351
-3.098938
-2.491599
-1.541627
-0.836097
-1.185484
-1.818018
-1.347577
0.660949
3.289542
5.662003
7.587144
8.365149
7.435960
5.068956
2.623761
1.055283
0.239353
0.204805
0.608225
1.277648
1.615607
1.119711
0.482501
0.086355
-0.028981
0.290015
1.404680
2.583248
2.700664
2.024489
0.674216
-1.040252
-2.344286
-3.050074
-2.661721
-1.178964
0.611876
2.172823
3.408799
3.363081
1.182850
-2.444029
-6.937754
-9.644795
-10.378378
-10.024833
-7.599120
-5.811136
-5.321993
-5.774507
-6.429382
-6.315343
-5.631113
-3.076555
-0.312103
1.539783
1.956971
-0.243782
-2.640400
-3.104345
-1.918763
0.471362
3.123334
5.009250
6.106770
6.339783
5.419426
3.851727
2.358322
1.185211
0.801275
1.179238
1.616428
1.436410
0.472672
-1.080480
-2.453353
-2.664803
-2.188648
-1.746262
-1.620014
-1.712231
-1.872766
-2.275666
-2.999378
-3.950388
-4.905554
-5.388462
-4.804762
-3.351620
-1.670141
-0.387406
0.671928
1.801660
2.785661
3.345462
3.070369
2.171313
0.766229
-0.623789
-0.999412
-0.056973
1.760883
3.522890
4.215692
3.047516
0.765456
-1.332169
-2.665557
-2.880904
-2.258759
-1.444386
-0.580137
0.547516
1.330458
1.414104
1.244996
0.756373
-0.087872
-1.032647
-1.550104
-1.288517
-0.321400
1.008353
2.148995
2.628007
1.848964
-0.120855
-2.346806
-3.871643
-4.308312
-3.601223
-2.069630
-0.649218
0.090602
-0.157736
-0.945611
-1.364096
-1.540997
-1.287203
-0.267613
0.920566
1.927167
2.652960
2.786221
2.508530
2.278637
2.159144
2.364881
2.895588
3.272512
3.596443
4.268464
5.390922
6.471557
6.383497
4.509272
1.668970
-0.748689
-1.979988
-1.839193
-0.779599
0.577689
1.735735
2.253973
2.083047
1.238542
0.118164
-0.622434
-0.752317
-0.409682
0.211683
0.739533
0.823439
0.769408
0.643161
0.371445
0.424178
1.329990
3.087840
4.980770
6.383258
6.728490
5.861126
4.396295
2.814050
1.697568
1.380652
1.162448
0.463933
-0.593062
-1.978144
-3.399074
-4.203574
-3.931856
-2.444164
-0.781909
-0.272243
-1.236241
-3.490506
-5.879851
-6.831900
-5.720871
-3.160078
-0.528109
1.404046
2.334795
1.939429
0.847106
-0.091695
-0.417703
0.393813
1.719669
2.609375
2.801345
2.253755
1.297290
0.158209
-0.707337
-0.749679
-0.123897
0.548643
0.700868
0.499548
0.487340
0.752304
1.264827
1.726436
1.753452
1.354190
0.519556
-0.318714
-0.523151
0.254855
2.115314
4.568043
6.607742
7.196117
6.367458
5.090180
4.212165
4.258145
4.854313
4.952766
3.980975
1.914003
-0.540024
-2.086162
-2.305665
-1.222432
1.123793
3.582497
4.728853
4.165677
2.533297
0.745834
-0.185952
0.297477
1.573198
2.600321
2.752546
1.949864
0.332289
-1.278790
-2.060951
-1.453353
0.611024
2.443427
2.974394
2.157944
-0.125155
-2.566713
-3.446806
-2.258627
0.457507
3.221958
4.600807
4.231158
1.818694
-1.501658
-3.745533
-4.397030
-3.088578
-1.409178
-0.482325
-0.304643
-1.635173
-3.274828
-4.382737
-4.436248
-3.109353
-1.008349
0.649490
0.536752
-0.290089
-0.638696
-0.201766
1.458672
3.532140
4.384439
3.439145
1.526994
0.164252
0.277771
1.526996
3.260169
5.054646
6.336861
6.514803
5.812911
5.032050
4.591744
4.257683
3.531892
2.338519
1.137353
0.477284
0.541447
1.080207
1.751188
2.330731
2.629985
2.477502
2.074602
1.514024
0.323768
-1.463694
-3.493520
-5.461001
-6.705289
-6.919597
-6.226535
-5.132392
-4.326331
-4.196186
-4.788716
-5.276819
-4.961460
-3.998760
-2.616793
-1.277169
-0.466693
-0.513450
-1.129359
-1.503944
-1.583951
-1.374837
-0.888551
-0.843610
-1.486016
-2.291295
-2.733679
-2.511837
-1.674864
-0.509024
0.835276
2.165808
3.238390
4.148358
5.068976
5.635791
5.301211
4.283181
2.934207
1.400798
0.340945
0.412122
1.590690
2.856800
3.249050
2.766143
1.558482
0.400438
0.121708
0.401998
0.965695
1.660575
2.015159
2.365847
3.270359
4.263453
4.706618
4.381649
3.216591
1.612525
0.410060
-0.239619
-0.642259
-0.689795
0.010280
1.568629
3.292190
4.479849
4.548429
3.170881
1.088841
-0.449763
-1.242574
-2.010187
-2.622460
-2.916776
-2.883005
-2.308398
-1.726257
-1.392974
-0.987216
-0.179077
0.761544
1.276404
1.397717
0.944682
-0.249990
-1.612731
-2.104731
-1.205413
0.677385
2.839954
4.587933
4.995250
3.360791
0.678169
-1.523624
-2.249414
-0.763021
1.691526
3.177660
3.444702
2.506940
0.919240
0.269821
1.111210
2.650336
3.723697
3.723179
3.188317
2.566434
1.506322
0.313208
-1.063301
-2.448643
-2.527871
-1.697912
-0.506355
0.396079
-0.207880
-1.722067
-3.208198
-4.149337
-4.369359
-4.129852
-3.870084
-3.910607
-3.827480
-3.249496
-1.731151
0.947836
3.429140
4.622255
4.401973
2.895579
1.452050
0.611182
0.221531
0.893031
1.797804
1.775984
0.658983
-1.228490
-2.823724
-3.293903
-2.415627
-0.709730
0.683666
0.781859
-0.904294
-3.464306
-5.547384
-6.662047
-6.292137
-4.568836
-2.788905
-1.792954
-1.504871
-1.351607
-0.721149
-0.200574
-0.304480
-0.405529
-0.208104
0.605749
2.426723
5.203383
8.064208
9.826994
10.027536
8.520883
6.358056
4.986482
4.697101
5.000511
4.915048
3.577504
1.171534
-0.874917
-2.093747
-2.797457
-2.621074
-2.075820
-1.938143
-2.031918
-2.128811
-2.162060
-2.203622
-2.627563
-3.488433
-4.636866
-5.586057
-5.209653
-3.700660
-2.461566
-1.798638
-1.346641
-1.106095
-1.158567
-1.153631
-0.460049
0.763718
1.738108
1.993981
1.810066
1.850071
2.231151
2.845243
3.501418
3.740665
3.360885
2.799268
2.757706
3.470769
4.608554
5.092242
4.248257
2.972797
1.930609
1.019864
0.318491
-0.205979
-1.036716
-2.706504
-4.936351
-6.917340
-7.803927
-7.187237
-5.482120
-3.446837
-1.897061
-1.280891
-1.799387
-2.933793
-3.579055
-3.323183
-2.077855
-0.498985
0.583729
0.943249
0.654647
1.120672
2.717985
4.038906
4.874580
5.192537
4.733788
3.980981
3.106603
2.124421
1.373433
1.391098
2.264439
3.260649
3.554188
2.513818
0.106810
-2.822592
-5.478719
-7.584137
-8.423706
-7.607774
-5.850184
-3.668912
-1.659606
-0.617156
-0.648847
-1.657525
-2.814011
-2.755043
-1.702463
-0.536364
0.538297
1.184081
0.845604
0.024998
-0.328285
0.007076
1.257340
2.446818
2.856992
3.421469
3.914769
3.950877
4.124143
4.484702
4.361832
3.285875
1.637648
0.046051
-1.117969
-2.057548
-3.053498
-3.603166
-3.870207
-4.514430
-5.176058
-5.803917
-6.718039
-7.324596
-6.995989
-5.759753
-3.768891
-1.645287
-0.328003
0.299337
0.723799
0.701979
0.274402
0.055938
0.172575
0.133870
-0.371378
-1.179515
-1.765031
-1.904526
-1.812307
-1.251208
-0.128490
1.196068
2.357491
2.655445
1.614556
-0.222522
-1.785545
-2.465876
-1.981928
-0.764135
0.002441
0.014391
-0.396041
-1.063644
-1.775927
-1.991793
-0.791664
1.994347
5.461471
8.352429
9.248629
7.873938
5.344838
2.487911
0.033365
-1.328857
-1.730458
-1.825272
-1.958013
-1.860599
-1.827608
-2.316230
-2.985651
-3.140732
-2.463776
-1.915405
-2.083734
-2.840177
-4.321373
-5.591118
-5.461753
-3.836644
-1.388590
1.038682
2.692885
2.738605
1.739798
1.081547
0.884124
0.852953
1.004139
1.355606
1.742661
2.147899
2.234922
1.593556
0.493440
-1.062569
-2.638580
-3.373463
-3.330341
-3.018618
-2.279058
-0.860725
0.332130
0.237576
-1.119711
-2.706632
-3.703101
-3.964687
-3.731155
-3.233438
-2.105785
-0.456518
1.227818
2.693430
3.426236
3.304665
3.015544
3.254791
4.510510
6.673339
8.364949
9.007875
9.378305
9.812118
10.248789
10.242036
9.203484
6.749457
3.368839
0.247988
-1.582856
-1.169305
0.782333
2.553171
3.343126
3.192722
2.437837
1.323693
0.602058
0.604137
0.823902
0.948072
0.954827
0.778705
0.193189
-0.792890
-1.689348
-2.019772
-2.041851
-1.955088
-1.498675
-0.249710
1.797522
3.827089
5.392971
6.111490
5.527273
4.103226
2.748797
1.926892
1.241105
0.085399
-1.282798
-2.173282
-2.624238
-3.246901
-4.226225
-5.084757
-5.400634
-5.313611
-5.271788
-5.074363
-4.042824
-2.547859
-1.360199
-0.556217
-0.187605
-0.265275
-0.685579
-1.141471
-1.241221
-0.948981
-0.137985
0.765749
1.014867
0.561313
-0.959887
-3.687969
-6.304870
-7.723462
-7.823992
-6.464625
-3.975009
-1.712689
-0.935462
-1.619690
-3.314156
-5.292028
-6.289536
-5.666352
-3.683802
-1.857633
-1.092875
-0.631527
-0.612823
-0.944286
-0.591001
0.720309
2.198649
2.759229
2.771439
2.506476
1.657036
1.598589
3.132000
5.030385
6.498334
7.057875
6.322732
5.154817
4.377852
4.257840
4.528259
4.543066
4.249270
3.667650
2.868345
1.781996
0.068828
-2.407539
-5.514882
-8.294658
-9.423608
-8.331283
-5.615669
-2.181276
0.968411
2.478442
1.890848
0.032209
-1.624330
-2.089054
-0.840868
2.011644
4.866754
6.423544
6.652141
6.061429
5.534621
5.896738
6.984647
7.520030
6.839958
5.875960
5.500856
5.082630
4.065900
3.068392
2.396633
1.818650
1.276255
0.683465
0.127823
-0.102850
0.001317
0.601902
1.412378
1.768781
1.846452
1.849830
1.910876
2.217923
2.504448
2.190129
1.098585
-0.168302
-0.989688
-0.972023
-0.124139
1.394725
3.160628
4.168528
3.464298
0.889479
-2.229813
-4.673189
-5.457428
-3.913107
-1.575455
0.126806
0.500093
-0.939540
-3.139254
-4.916066
-5.369360
-4.256773
-2.457360
-1.235671
-1.590513
-3.809969
-7.335019
-10.769670
-13.237205
-14.451359
-15.352233
-15.614598
-14.651897
-14.331083
-14.921795
-15.841113
-16.626130
-16.346360
-15.011152
-12.941060
-9.727211
-6.810276
-5.335573
-5.667555
-7.206939
-8.580071
-10.050877
-10.103089
-9.691616
-8.711771
-6.946906
-7.526188
-9.663038
-10.514816
-8.927893
-6.598034
-3.768122
0.038518
2.621392
3.302504
2.922464
1.583621
0.284263
-0.593752
-0.080450
2.200054
4.874625
8.125881
10.005303
10.161165
10.082196
10.012839
10.698627
11.937721
14.418245
17.887707
20.947774
23.377643
24.396714
24.560368
24.743765
24.115388
23.152948
22.846683
22.842787
22.316498
21.343928
19.347612
15.622801
11.628090
7.907175
4.894128
3.599186
3.139657
2.816766
2.277749
-0.215763
-4.830539
-9.188145
-11.779329
-12.338869
-11.738804
-12.287693
-14.429219
-17.630858
-21.737528
-25.487797
-27.790379
-28.059238
-26.427115
-23.093253
-20.894316
-19.707176
-18.921377
-21.961700
-24.261685
-24.329743
-23.495628
-22.308487
-22.787758
-20.238395
-15.989111
-13.715621
-14.900162
-13.278690
-8.018129
-3.954059
3.593499
5.888809
12.062195
14.361921
7.431054
14.543500
13.901355
12.918394
21.224734
23.081556
25.668326
26.860142
26.768704
24.688483
22.903099
22.266409
20.964453
21.643227
22.363045
23.431991
23.687603
22.376815
18.969700
14.095935
10.391126
9.151774
10.065378
11.474101
12.938413
12.736834
10.287743
6.350701
2.424569
1.122873
1.078713
1.028060
-0.278313
-3.660230
-7.944062
-12.304786
-13.177086
-10.583562
-7.686889
-5.156748
-4.121053
-4.694360
-6.271150
-8.729593
-10.995808
-12.466353
-13.408011
-14.558263
-16.393782
-18.418932
-20.467201
-22.351817
-23.356338
-22.699385
-21.324952
-20.094430
-18.765716
-18.254492
-17.957837
-16.540802
-13.778948
-10.460672
-8.302000
-6.944452
-4.766037
-2.167578
0.027462
2.529028
6.226825
10.900310
15.109591
18.290190
20.356645
20.843191
20.740323
21.081659
21.942271
22.827821
22.935106
21.945391
19.834777
17.214499
15.179478
14.229767
14.403293
15.631736
16.787704
16.665355
15.121555
11.696515
6.998094
2.151604
-1.599184
-3.075704
-3.978916
-4.571706
-4.252450
-4.570146
-6.225126
-8.119353
-9.976173
-12.573592
-14.378459
-15.612356
-15.670803
-13.775535
-11.854031
-9.834594
-8.852930
-8.725384
-8.870853
-9.011906
-8.340925
-7.464207
-5.147076
-0.669196
5.275594
10.233785
13.252549
15.981152
17.369093
15.969464
13.194883
12.354275
13.879633
15.995704
18.469215
20.512550
21.040659
19.976650
17.627830
14.366964
11.884622
11.440680
11.717593
12.071398
11.997884
10.087811
6.818113
3.993398
2.532464
2.742097
4.153158
5.317958
5.425243
3.880144
0.650710
-2.952270
-6.269766
-9.082532
-10.195637
-9.407240
-7.573018
-5.972327
-5.686582
-6.578624
-8.959137
-11.943350
-15.628936
-19.072159
-21.588011
-25.444784
-27.607351
-27.719570
-27.693593
-27.053004
-27.464995
-28.744352
-30.061114
-30.848990
-30.408682
-28.226111
-24.400768
-20.177460
-16.566685
-13.554416
-11.283004
-9.705173
-7.712752
-5.613827
-4.007681
-2.674811
-1.340642
0.096135
1.310811
1.824633
1.775018
1.639160
1.364067
0.875184
0.096401
-0.410406
0.290189
2.387297
5.503214
9.115287
12.737752
15.564028
17.060811
17.839856
17.754913
15.840944
13.354186
11.908319
12.360835
15.055928
17.802715
19.247545
18.650599
15.020863
10.500122
7.402650
6.843371
8.461986
10.071768
10.821979
10.492594
8.760202
6.986768
6.466713
6.891434
7.974667
8.384842
6.739992
4.123351
1.240187
-1.968206
-4.085054
-4.010240
-2.576839
-0.828600
0.007334
-1.232798
-4.283771
-8.077941
-11.189959
-13.169910
-13.420325
-11.937309
-11.138003
-12.173177
-15.365724
-20.300794
-25.668638
-29.907270
-31.474449
-31.467175
-29.048735
-24.059891
-19.692672
-16.444533
-14.365869
-13.011438
-12.457872
-13.100797
-12.906490
-12.141732
-11.978857
-11.618038
-10.040727
-7.241467
-3.959298
-0.998203
0.147115
-0.946767
-3.135051
-5.015251
-5.607521
-4.444539
-0.831946
4.276651
8.779209
11.595614
12.054105
10.286905
7.464007
4.994654
3.789852
4.223145
5.729540
7.719104
9.816211
11.227011
12.339598
13.045388
12.846147
12.274918
11.868123
11.824223
11.729928
11.918260
12.487932
12.639897
12.323241
11.430160
10.030271
8.752733
7.278811
5.323019
3.298389
1.062307
-0.943620
-2.013344
-2.403254
-2.233885
-1.607843
-0.830877
0.035190
0.939703
2.250753
3.899500
4.875969
5.205096
5.385895
5.674758
6.310151
7.107639
7.879930
8.184898
7.578601
5.791139
3.357633
1.360538
0.007928
-0.672923
-1.024129
-2.040340
-4.048085
-6.656414
-9.557761
-11.953860
-13.108787
-13.265167
-12.692118
-11.976457
-11.520303
-11.177149
-10.815292
-10.050014
-9.291491
-8.478936
-6.786288
-4.353301
-1.164649
2.705375
6.513573
9.494151
11.534889
12.981537
14.149974
15.397900
16.645826
17.630088
17.861801
17.408247
16.661156
15.350108
12.913226
9.032553
4.999917
1.845296
-0.538593
-1.645204
-0.963312
1.004690
2.477316
2.224043
0.131353
-3.456301
-7.065516
-8.821546
-7.449711
-3.596313
0.279945
2.429266
2.746703
2.438879
2.924126
4.909014
8.522386
12.310842
14.449772
14.390286
11.711560
7.114448
2.342772
-1.969375
-5.532870
-8.083271
-10.265580
-12.363985
-14.182100
-15.109730
-14.846844
-13.835307
-12.739865
-12.460874
-12.921441
-14.523169
-16.498444
-17.857549
-18.114978
-15.558861
-12.288122
-12.143690
-12.643223
-9.986056
-9.920594
-13.751651
-15.525865
-14.284433
-8.428224
-2.716706
-1.169268
0.736910
0.934854
-2.878019
-7.779319
-10.950305
-11.525171
-12.034575
-13.527460
-15.233096
-17.313836
-19.506276
-21.335042
-21.692222
-19.417953
-14.996962
-9.649638
-3.902012
1.755734
6.267903
9.189774
10.137668
10.397436
11.268439
11.379880
10.946588
10.481345
9.465393
8.132265
7.293215
7.715859
8.578289
8.954174
8.113306
6.061920
4.018066
2.359969
1.373890
1.153608
1.597812
2.515053
3.490483
5.047532
6.838113
8.330221
9.539701
9.895844
10.404211
11.677334
12.688092
13.535715
14.363077
14.753769
14.525693
13.313098
11.676041
10.592810
10.068079
9.847537
9.245396
8.060335
6.510820
4.319419
1.495743
-1.537567
-4.058614
-6.383016
-9.026933
-11.243013
-12.580557
-13.406878
-13.845105
-13.359339
-11.776052
-9.079661
-5.404983
-2.300495
-1.503007
-2.637413
-3.897546
-4.046652
-2.406996
1.079869
5.457220
8.718866
9.496872
8.610285
6.778402
5.388385
6.517597
8.936817
11.011584
13.481198
15.920680
16.576335
16.027446
15.639873
15.166577
15.060592
15.755992
16.861305
17.729190
18.006104
17.979868
17.210956
15.956278
14.268826
11.069785
6.846479
3.005811
0.520872
-0.296358
0.695177
3.025297
4.468828
3.939421
2.554340
1.171596
0.307349
0.408140
1.531896
2.924253
3.127912
1.494233
-2.231098
-7.261503
-12.617917
-17.794831
-21.165319
-23.160076
-22.908880
-20.212748
-18.155125
-16.560929
-15.138439
-13.459558
-11.994466
-11.542989
-11.407129
-12.192407
-12.282026
-11.065532
-9.314436
-7.112642
-5.118143
-4.114659
-5.625988
-7.618926
-9.653168
-11.622728
-12.116546
-13.893358
-14.394449
-14.182997
-15.050881
-14.445881
-15.556128
-17.045636
-15.939544
-15.816933
-15.665747
-10.069306
-6.331764
-8.470692
-7.659436
-6.107062
-7.369274
-8.928140
-9.514176
-8.043110
-5.833263
-3.248571
0.100877
2.485807
3.180168
3.461497
4.489659
6.157370
8.165377
10.550567
12.732359
14.284473
15.171061
15.609551
16.237151
17.612623
20.273686
23.890436
27.454972
30.085123
30.754286
28.692768
24.721178
20.942854
17.826419
15.464090
14.728428
14.714661
14.670761
14.422684
13.268796
12.001389
11.471982
11.347295
11.537186
11.902680
11.906577
11.361585
10.612155
9.760897
9.070434
9.023417
9.383716
9.802982
9.824024
9.278513
8.384392
7.112829
5.994789
5.560977
5.768013
6.109609
5.896859
4.819343
3.407245
2.505592
2.100874
2.160881
2.577290
2.907975
2.863556
2.318823
1.802925
2.008662
2.781213
3.098650
2.250249
0.159378
-2.793144
-5.345103
-6.282085
-5.752677
-5.001428
-5.236517
-6.698230
-8.840795
-10.924653
-12.221933
-12.594699
-11.537962
-8.918722
-5.789037
-2.593631
-0.006601
1.515380
2.033098
1.428879
-0.096478
-1.670411
-2.606614
-3.505929
-4.146256
-5.090772
-6.087241
-6.709124
-7.739623
-7.280093
-6.494294
-4.874380
-0.394941
3.041270
3.242071
1.370704
-0.591842
-2.250719
-3.762048
-3.673467
-2.775708
-3.375511
-4.679026
-6.759766
-10.892933
-13.703361
-14.275109
-14.376418
-13.196292
-11.330378
-9.666823
-7.870008
-6.259186
-4.970996
-3.602538
-2.500342
-2.514368
-3.891657
-5.498321
-6.365425
-5.932651
-3.369780
0.100980
3.239757
5.887312
7.246938
7.371368
7.480211
8.162882
9.160392
10.480274
11.827691
12.480748
11.473888
8.771004
5.466757
1.606866
-2.647353
-6.096290
-7.855438
-7.516180
-5.586883
-3.406910
-2.229901
-3.144802
-5.385560
-7.222378
-7.985315
-6.877664
-3.909295
0.059700
3.605273
4.871642
3.952324
2.115246
0.444680
0.137375
1.619352
4.060911
6.233871
6.740159
4.906458
2.261502
0.297657
-0.555939
0.165957
1.767687
3.100816
3.642953
3.148875
2.298655
2.056553
2.533487
2.816635
2.141759
0.741351
-1.285098
-3.033335
-3.495721
-2.999824
-2.038162
-1.752676
-3.505589
-6.370049
-8.242975
-9.063581
-8.428188
-6.091315
-3.976284
-3.556498
-5.312788
-7.933586
-9.648833
-9.116827
-6.136509
-2.767838
-0.138466
1.034127
0.423933
-0.182624
0.645257
2.553773
4.304350
4.870125
3.749487
1.932151
1.337543
2.345703
4.220449
6.038566
6.647982
5.308360
