EVENT_NAME: 202302060117
EVENT_ID: 13194
EVENT_DATE_YYYYMMDD: 2023/02/06
EVENT_TIME_HHMMSS: 01:17:32.00000
EVENT_LATITUDE_DEGREE: 37.288
EVENT_LONGITUDE_DEGREE: 37.043
EVENT_DEPTH_KM: 8.6
HYPOCENTER_REFERENCE: AFAD
MAGNITUDE_W: 7.7
MAGNITUDE_W_REFERENCE: AFAD
MAGNITUDE_L: 
MAGNITUDE_L_REFERENCE: 
FOCAL_MECHANISM: 
NETWORK: TK
STATION_CODE: 3116
STATION_NAME: 
STATION_LATITUDE_DEGREE: 36.61618
STATION_LONGITUDE_DEGREE: 36.20661
STATION_ELEVATION_M: 33.0
LOCATION: Kahramanmaras_Pazarck_Turkiye
SENSOR_DEPTH_M: 
VS30_M/S: 870
SITE_CLASSIFICATION_EC8: A
MORPHOLOGIC_CLASSIFICATION: 
EPICENTRAL_DISTANCE_KM: 105.38
EARTHQUAKE_BACKAZIMUTH_DEGREE: 
DATE_TIME_FIRST_SAMPLE_YYYYMMDD_HHMMSS: 2023/02/06 01:17:30.2162110
DATE_TIME_FIRST_SAMPLE_PRECISION: millisecond
SAMPLING_INTERVAL_S: 0.01
NDATA: 12501
DURATION_S: 
STREAM: HNZ
UNITS: cm/s^2
INSTRUMENT: sensor = CMG-5T/GURALP | digitizer = 
INSTRUMENT_ANALOG/DIGITAL: 
INSTRUMENTAL_FREQUENCY_HZ: 
INSTRUMENTAL_DAMPING: 
FULL_SCALE_G: 
N_BIT_DIGITAL_CONVERTER: 
PGA_CM/S^2: 165.838
TIME_PGA_S: 
BASELINE_CORRECTION: BASELINE REMOVED
FILTER_TYPE: BUTTERWORTH
FILTER_ORDER: 
LOW_CUT_FREQUENCY_HZ: 
HIGH_CUT_FREQUENCY_HZ: 
LATE/NORMAL_TRIGGERED: 
DATABASE_VERSION: 
HEADER_FORMAT: DYNA 1.2
DATA_TYPE: Acceleration
PROCESSING: Automatic Paolucci et al., 2011
DATA_TIMESTAMP_YYYYMMDD_HHMMSS: 
DATA_LICENSE: U (unknown license)
DATA_CITATION: Turkish Accelerometric Archive v 1.0 - Disaster And Emergency Management Presidency, Earthquake Department
DATA_CREATOR: AFAD
ORIGINAL_DATA_MEDIATOR_CITATION: : AFAD - Disaster And Emergency Management Presidency
ORIGINAL_DATA_MEDIATOR: AFAD PROCESS SERVICE
ORIGINAL_DATA_CREATOR_CITATION: AFAD PROCESS SERVICE
ORIGINAL_DATA_CREATOR: network: TK
USER1: GuestUser
USER2: 
USER3: 
USER4: 
USER5: 
[...]
10.977690
11.794296
11.151184
7.649057
3.012059
-3.135808
-8.639664
-10.241465
-10.119421
-11.856126
-14.861709
-17.276525
-18.636934
-16.280743
-13.057695
-13.799219
-14.884136
-11.341026
-3.661648
4.474789
9.371428
9.270925
5.993439
2.677964
2.988455
7.928467
12.535257
11.827235
6.479222
0.629880
-4.487211
-7.989936
-10.692807
-13.028654
-11.042778
-6.108150
-3.084616
-1.715530
-0.371571
1.816812
4.240604
5.309670
4.627971
1.321171
-1.773252
-3.192886
-0.651838
5.831049
10.907760
12.140745
12.162882
12.060882
11.082753
10.060652
8.754085
7.280608
4.899892
2.040281
-0.876164
-2.929041
-2.290114
0.367892
2.086951
3.658842
6.172371
5.412302
0.077151
-5.760825
-9.315896
-10.938635
-9.250386
-5.203255
-3.411808
-5.013608
-8.013209
-9.389770
-8.283613
-5.741966
-2.096856
2.268841
6.000996
7.219623
5.110510
3.420169
1.720855
-2.134536
-3.774624
-3.728857
-3.737530
-2.700172
0.120856
3.170114
3.397448
1.204880
-0.615878
-3.060905
-4.644160
-5.497556
-5.391067
-3.146449
0.045490
1.915906
1.530936
0.611734
1.353260
2.109144
1.610209
0.743054
-1.026854
-2.533832
-3.689342
-3.570888
-2.411786
-2.085143
-2.387854
-2.475794
-2.752481
-2.064498
-0.718445
-0.087893
0.771787
2.762151
4.111794
3.917964
2.655368
1.576135
1.311114
3.562910
7.436850
9.705696
8.574117
5.574217
2.855791
1.132248
-0.554803
-2.744379
-4.530140
-6.376922
-8.363096
-9.112995
-7.603022
-4.861561
-2.540667
-0.981639
-1.911610
-4.253440
-4.476285
-1.432710
-0.808141
-4.560633
-7.910806
-7.809103
-4.359619
-1.313651
-0.526359
0.490660
4.213841
7.874206
8.753628
9.561859
11.742465
13.381060
14.047806
10.081441
2.821436
-4.233371
-9.200900
-11.780234
-12.592649
-10.877778
-7.839887
-6.367304
-6.926363
-6.113646
-2.079975
2.286918
3.854921
2.656038
-0.960054
-3.033870
1.678809
8.183532
9.763200
8.579872
7.295142
7.603538
10.738944
12.250711
9.549036
3.426595
-2.146957
-4.120866
-3.015905
-0.278333
2.015042
3.234865
4.084375
3.401180
1.497864
-1.430845
-4.220162
-5.005059
-4.309298
-5.251832
-7.187454
-5.910498
-2.222912
1.728500
5.122347
5.492961
1.814651
-3.048783
-5.480350
-3.650615
0.234691
2.927095
2.254370
0.768928
-0.517298
-0.591479
-0.557079
-1.408381
-1.674299
0.666038
2.950738
2.994411
2.960612
2.455993
0.863765
0.109080
0.700746
2.706963
4.873809
5.336553
6.596160
6.562360
5.340146
4.776002
3.369230
1.323830
2.409049
3.737454
3.112588
1.091417
-1.258788
-2.169017
-0.065585
4.580390
7.971545
9.109110
8.851866
6.196555
1.685487
-0.376663
0.164152
0.537459
-1.428973
-4.614628
-6.910991
-7.114393
-4.828496
-3.607476
-5.001087
-6.197577
-7.249889
-6.280132
-2.268297
1.707344
4.057851
5.921387
7.640745
8.406500
8.724768
8.002688
5.258537
0.994246
-1.044274
0.926049
3.277154
1.402255
-1.069993
-1.511496
-2.798620
-2.556928
-2.028975
-4.199707
-5.979485
-6.066528
-6.803864
-8.445747
-10.399615
-11.202160
-10.542593
-8.724823
-6.288468
-3.667853
-0.139999
4.230783
5.313010
3.279875
2.562281
2.330761
2.823717
4.368388
6.253759
5.534670
3.099214
-1.215629
-6.898061
-8.796292
-6.522061
-5.035121
-6.751186
-8.285983
-8.542031
-8.020360
-5.093144
1.331414
8.725728
13.857179
15.377621
11.815969
3.495574
-3.414757
-5.773936
-5.597452
-3.597816
-1.054075
-0.098078
1.049059
1.090937
-0.265583
-1.274821
-3.566399
-5.794861
-5.219946
-4.079091
-4.756004
-7.365848
-7.278503
-4.138910
-4.033917
-3.380332
1.883331
4.701068
4.122865
3.045427
0.318327
-1.063619
-0.779152
-0.255088
2.633242
7.128459
9.051819
6.331300
4.522207
5.791685
9.900137
16.572668
21.849492
22.755835
19.003043
12.194714
4.100156
-1.450662
-3.697969
-2.633091
-1.151236
0.079655
1.423016
2.714929
1.669496
-1.423431
-3.716205
-6.271908
-8.925124
-7.864733
-4.766419
-3.835847
-3.609410
-3.417073
-0.872435
1.198692
1.052422
-2.017173
-9.168297
-15.212369
-14.155268
-11.640243
-12.867841
-13.672480
-11.673741
-7.237152
-2.954312
-0.257421
-0.205671
-1.889132
-4.020679
-5.367328
-3.197491
-0.258310
-0.575379
-1.166444
-0.056996
1.735946
5.139964
8.106664
8.861651
10.354872
13.673341
14.984995
13.794488
10.179891
4.764576
1.257364
1.692588
6.103752
10.518206
11.326736
8.378584
5.022728
1.875061
-2.191809
-8.132683
-14.361014
-15.967002
-13.278187
-8.541878
-1.420663
5.784905
7.524005
4.804383
0.602908
-2.407462
-6.164441
-11.346740
-13.642505
-11.866612
-5.266768
2.551103
3.385358
-1.106267
-3.462754
-0.043482
6.521963
13.017114
17.882944
20.429377
20.442241
15.420571
5.507946
-6.656176
-17.431470
-23.770776
-21.434925
-11.497471
-3.358042
-0.265112
0.635248
0.883521
3.128738
7.578488
8.392701
3.199335
-0.610590
0.241612
2.975894
7.664942
13.774225
15.610242
12.090766
6.003022
1.462341
-1.906078
-5.090536
-3.916179
-1.225569
-0.580061
0.244023
0.474050
1.129728
2.889767
3.078515
1.866770
1.100120
0.502175
-0.713757
-1.832774
-4.742338
-5.714187
-1.454080
6.433188
16.343123
22.503257
16.757710
3.053406
-7.607025
-8.693737
-3.497975
-0.683827
-0.881845
0.019114
-0.846546
-3.868581
-9.385299
-14.958252
-14.772196
-8.133766
-1.276377
0.536906
-2.419322
-5.928329
-4.158718
1.073239
3.108770
1.373860
1.122299
4.271164
8.902183
10.449845
11.267648
11.858416
10.348447
7.868123
7.450549
8.961419
9.657479
8.933902
7.339580
3.720496
1.431910
1.535108
2.241637
1.591047
-1.458208
-7.758628
-13.118605
-15.290534
-14.470637
-11.149178
-6.861552
-2.007986
-1.226975
-6.182240
-10.895216
-9.863540
-7.970691
-6.947391
-3.391718
-0.448350
1.247079
1.453176
-1.429468
2.633218
14.726749
22.783918
21.819847
17.248357
11.730442
4.336430
-2.113251
-7.089754
-12.055488
-14.128706
-14.092810
-13.727281
-9.677158
-1.242795
9.916277
17.808032
19.686823
16.192174
9.489733
4.818635
0.027588
-7.614994
-13.507112
-13.866656
-12.077003
-10.976230
-12.465561
-13.149653
-9.898787
-7.644597
-5.529798
0.021621
5.969078
6.709109
1.144532
-6.728376
-8.785142
-2.739273
3.278179
4.641282
1.619247
-2.152987
-5.401757
-4.769111
3.203407
13.330804
19.712887
19.047041
10.580974
0.366833
-5.320684
-4.563005
2.325492
11.405063
14.371464
10.496032
8.357606
13.024818
17.325605
16.205392
12.397562
10.037186
11.850469
14.652951
14.221019
6.314012
-7.380720
-17.801255
-21.388333
-21.827145
-16.128258
-7.321487
-0.547255
4.217472
3.490306
-4.541137
-8.143769
-5.364020
-3.550139
0.459901
6.478250
6.213827
1.435942
-2.409577
-6.760016
-10.650704
-10.938757
-7.171904
3.221115
13.718826
17.322957
14.480993
5.030214
-3.273430
-7.585282
-12.306334
-17.307365
-19.152352
-20.464602
-19.632441
-12.277611
-3.545023
3.172077
6.590752
3.643198
-1.609993
-3.856103
-3.988314
-3.301228
-0.106597
1.642674
-0.650100
-6.045374
-7.584060
-5.144414
-2.628791
1.464405
6.594360
10.972620
10.238575
4.149037
-0.744609
-4.742681
-10.729620
-13.870706
-12.314370
-9.206783
-6.557452
-4.243437
-1.642864
0.073504
0.535650
1.973833
2.716556
3.516112
4.134400
5.891149
5.869912
0.095051
-2.806138
-1.297960
-0.537589
0.868887
1.762368
0.546735
1.594563
4.713217
4.603441
5.425431
9.866507
10.092346
6.048208
4.213990
3.239449
-1.227049
-7.508325
-13.689095
-19.052962
-18.477448
-10.864476
-3.020581
-1.655084
-7.537928
-9.633281
-3.890723
4.692903
5.152955
-1.347877
-3.917938
-0.464266
2.641825
2.790491
5.826587
7.592310
8.107699
9.336796
13.137151
15.348865
8.282392
-1.646983
-4.962757
-1.177956
5.427272
6.788281
-0.460058
-10.027196
-10.622449
-5.229266
0.920698
4.475174
2.806370
-0.198914
-3.654079
-5.202636
-1.204261
8.253999
15.742536
16.968641
13.612786
9.367937
5.211928
-1.542560
-8.091251
-11.335235
-12.905329
-14.247192
-16.504071
-13.007026
-5.930082
-5.392258
-4.975578
-2.134809
-2.009176
-4.840072
-4.555904
2.492624
7.579506
4.915820
1.855497
2.717570
3.962819
7.031221
11.876112
9.227083
1.806449
0.897117
3.786345
9.824137
15.053401
14.960974
5.739621
-3.855635
-9.555117
-10.118363
-5.403291
2.630248
9.151123
7.090469
-2.355226
-10.785100
-14.965038
-15.927016
-14.575877
-5.373666
5.223953
3.248847
-3.720112
-6.392771
-8.869805
-9.435744
-5.044322
-0.976851
2.470539
3.845009
2.141208
3.124725
3.969149
-0.554481
-1.390528
3.990989
8.652818
7.331295
1.282737
-1.748272
0.366228
3.003893
3.867461
0.343199
-1.557126
-1.076733
4.116636
10.297708
8.265470
1.820275
-4.071842
-10.152107
-11.602252
-7.937998
-10.674371
-13.452023
-13.685038
-9.206273
1.346178
11.863333
14.726536
8.429407
4.212078
6.622110
9.894514
6.593697
0.120384
-2.803838
-0.872700
-1.530470
-3.199274
-2.230115
-4.035618
-10.347404
-14.440897
-16.197643
-10.429659
-1.412006
5.956882
7.803368
7.662482
7.494975
10.316301
14.610508
11.921995
9.402785
13.045801
16.904784
14.674826
4.309628
-7.274793
-9.840068
-1.263023
8.329843
6.324226
0.500608
-3.830387
-6.792598
-6.891905
-0.530761
3.058413
-2.701193
-12.648815
-16.218244
-10.445175
-2.306943
5.355085
12.740425
11.377026
7.188412
11.852932
13.552549
8.471952
-2.090667
-6.297228
-2.728095
-0.487365
-0.447880
-3.372102
-9.349768
-12.277579
-8.436244
-10.149618
-13.445948
-17.707847
-17.619604
-4.830912
3.306423
0.131835
-0.888770
-1.719433
-3.104070
-0.722454
4.449678
3.360274
-2.217764
-0.095787
3.007014
6.259975
11.740502
13.895682
1.114171
-17.125131
-24.499999
-21.961045
-15.123997
-9.503779
-6.021990
-7.050073
-8.210967
-12.365780
-17.532524
-17.437701
-16.429357
-11.938926
0.332882
13.187680
17.335317
19.253891
16.739168
10.537459
5.685092
5.038091
10.433967
16.059568
13.210725
9.899438
8.782516
8.104107
12.361521
3.323531
-9.658392
-16.456850
-21.573642
-11.779766
4.251715
22.417736
30.232018
22.818264
4.333680
-2.422602
2.652315
6.749399
0.771733
-6.781711
-10.006851
-9.707727
-5.263361
-6.737436
-13.449747
-17.464271
-12.533831
-7.004248
-9.032298
-8.045491
-2.467151
2.150108
10.923078
20.072345
10.847104
-1.487218
-2.447401
-1.798303
-2.814421
-3.194306
-1.102839
8.764621
28.417281
32.593035
18.776560
2.973313
-1.359179
4.506319
9.737976
-0.282632
-4.818826
-3.355218
0.845663
3.117201
-5.068588
-17.465726
-20.641510
-13.748825
-4.101220
-3.501777
-7.985325
-5.484060
6.474866
15.288517
6.301078
-8.611980
-11.429416
-0.113304
11.040682
12.286231
11.491164
11.180377
5.004691
0.461019
-4.564838
-5.994344
1.490005
14.293055
14.053460
8.107201
8.289967
6.207476
-2.821840
-10.191025
-13.283653
-14.975788
-15.231238
-8.502173
2.656899
10.930035
14.591298
19.720057
30.754993
31.884781
16.508979
-1.672892
-8.349010
-5.140319
7.387538
6.818010
-8.910457
-17.931098
-16.308357
-13.832218
-15.806127
-20.737761
-24.324540
-20.015676
-17.870666
-12.362022
1.943522
13.161820
17.664215
12.532169
-6.434002
-23.677525
-31.622820
-21.807407
0.087177
12.050889
6.511737
-2.730554
-3.401784
2.667416
9.335161
12.402366
12.715848
6.473458
-3.072143
-11.118242
-11.239087
-10.741046
-10.071608
7.434847
27.931631
34.188681
22.130150
2.453861
-5.170774
7.864694
7.427977
-7.694468
-13.621283
-15.128561
-25.459060
-26.954672
-16.905944
-8.601101
3.992863
15.572202
17.724391
8.739345
5.168121
5.094538
1.252010
8.629872
10.801803
0.080051
5.143302
20.459581
29.396171
32.307533
28.530513
14.787921
3.122736
-5.731293
-19.509780
-27.242099
-25.775200
-33.181776
-29.891724
-16.307066
-13.031672
-11.536655
-7.574475
-4.111530
5.673372
14.780761
11.946276
0.048075
-0.178659
5.405365
6.124158
10.468916
16.188442
15.356882
7.313774
-3.262903
-4.805178
7.154944
17.213544
14.461915
5.576478
-3.530909
-22.413026
-35.899270
-48.938923
-47.528558
-27.083522
1.023242
24.038639
35.711305
30.051307
17.480678
6.917461
-0.327887
-4.224258
2.837731
17.220747
24.198383
25.341332
24.245647
22.162857
18.464506
8.813912
-15.896012
-26.576186
-13.704038
-0.913252
-5.597512
-12.258973
-8.498700
-2.858442
0.440284
-4.572412
-21.314905
-26.957554
-15.418297
-3.901175
1.793524
4.352220
14.198144
26.649425
31.111440
26.741558
13.284030
-4.499410
-17.047006
-11.828810
-11.678350
-12.770445
-9.333225
-4.406674
5.700982
15.155055
5.158376
-7.379648
-11.100135
-7.393704
-0.434016
1.632325
-5.332446
-9.760058
-4.527205
7.408090
22.211673
44.752960
44.038358
17.784960
0.576733
-8.916522
-0.066378
18.960518
33.980067
37.396647
21.171038
2.538688
-10.947854
-16.040416
-13.291478
-7.802276
-2.513487
-4.388985
-15.923453
-45.967333
-57.998643
-35.461244
-1.526972
17.003380
15.147624
23.536521
47.427151
30.911692
-4.020750
-20.004069
-7.279688
16.368054
36.607892
30.540489
-6.569865
-33.511544
-37.475815
-23.300390
2.068504
27.906423
30.247059
10.054485
-6.624893
-14.364391
-12.793996
-35.336777
-46.304108
-19.148554
2.820512
19.926442
49.858752
54.151762
39.372710
29.058064
0.298916
-32.687733
-49.564532
-47.432982
-37.237683
-4.931237
5.155181
-4.851368
14.509348
39.720605
27.595070
14.021483
7.030389
7.896650
29.572277
43.548486
34.259532
14.492908
2.521422
8.682453
-0.403696
-28.019896
-33.676005
-35.479115
-49.567493
-49.399684
-24.178855
-17.681909
2.821755
4.057432
12.054478
-24.076548
-55.475155
-66.719175
-48.880395
14.595532
79.956230
92.480797
37.479318
-14.265015
-83.988415
-79.270052
-47.606121
24.569788
122.369443
165.838251
117.016048
69.991273
8.392344
-12.902198
-15.525204
-72.062678
-82.458386
-82.192464
-76.535754
-34.957103
16.785138
-1.543602
-10.468225
1.891525
7.934104
15.662239
10.931615
-0.070116
20.647720
20.842451
14.243806
49.049721
34.046029
-18.550504
-36.591190
-39.046088
-12.478609
29.254988
26.313716
-4.347553
-2.593497
-1.606690
-25.999843
-43.338787
-50.089087
-33.320268
-8.794900
24.109194
51.161850
56.659128
28.438999
8.098060
4.900440
20.432386
27.520697
34.818694
41.362004
35.619149
19.414179
23.715266
30.616625
11.416840
-6.832933
-16.773077
-23.736352
-36.946505
-24.551758
-5.647503
-4.075612
-18.464308
-36.783477
-46.256690
-42.724649
-42.877499
-53.952814
-55.306641
-57.823159
-48.249438
-20.903342
7.195944
-11.591052
-26.781099
1.204222
8.620671
12.186813
47.678916
79.522021
70.625516
54.166591
39.693542
30.361514
17.076580
14.184365
9.981692
8.535436
-10.676913
-39.371750
-59.258321
-62.253734
-61.291754
-76.389970
-69.310034
-40.139291
-20.068457
-21.375323
-27.425975
-33.359371
-31.224232
-12.719006
32.107818
50.849052
74.164768
98.630013
79.637220
68.205052
43.213952
-11.106425
-50.131762
-59.080913
-49.076455
-39.069005
-29.256883
-34.770909
-39.081564
-37.644578
-37.288620
-50.027954
-43.323118
-16.722736
-0.113948
12.607741
6.260957
9.730183
29.225505
47.890462
57.753435
69.272052
57.733097
54.217510
48.938894
35.886378
34.086857
42.060273
42.963026
20.674500
-14.239695
-23.347979
-21.425517
0.554318
15.237354
5.438396
-1.185376
-0.644860
0.770590
-5.612387
-25.377515
-30.423114
-3.756925
6.806893
-2.440184
21.303577
50.049865
34.544544
3.897632
-12.866098
-2.719557
0.939612
-5.281540
-7.169002
1.456799
10.574957
10.235155
9.653363
15.589753
9.387745
5.914334
-5.831614
-16.444186
-16.459440
-0.080079
14.092953
31.059491
19.247736
-10.275072
-15.602445
-1.836220
-20.000144
-37.020522
-51.291364
-53.392102
-34.250941
-35.499777
-28.657943
-28.893351
-16.946689
-19.024394
-31.361707
-33.058928
-29.724307
-1.337863
6.470437
-3.495731
-10.206248
0.504738
10.555261
3.526478
-15.871028
-20.251678
-10.621721
-27.151239
-38.028235
-23.118464
-0.348348
28.355466
49.578520
33.477944
27.179020
12.746652
-4.238131
-7.024158
7.357662
29.459239
61.421695
68.237804
56.758375
38.992583
23.046654
16.534157
26.285557
30.460114
8.710308
-5.810302
3.840594
-3.519318
4.082587
34.060662
54.017231
47.121856
32.088850
25.563490
19.832899
24.423536
38.683613
38.267833
33.897353
31.822042
29.116179
41.410721
33.227922
34.626023
36.118048
22.099366
-6.828188
-30.624591
-49.722376
-31.524649
0.386956
22.214537
7.089101
2.356982
-26.057577
-27.861884
-1.857353
9.758479
-11.512133
0.850309
13.834328
-28.904318
-17.861904
1.369891
-6.991484
-10.924946
-8.226260
-37.659630
-64.525033
-43.750364
-42.283166
-32.970877
-21.613487
-5.038500
-9.663833
-11.066118
-13.707968
-6.744989
14.207060
11.836813
23.747580
29.885279
31.492766
22.148773
17.825854
5.130192
-1.406535
-6.421624
-9.676975
-6.971708
-4.305028
3.577155
-16.188571
-14.008564
-10.887815
-7.604344
-16.974361
-24.592117
-20.555156
-16.885517
-18.331774
-24.354608
-23.046842
-25.267527
-10.417282
-13.281081
-26.995256
-19.498642
9.015527
0.396907
-31.731559
-49.033112
-47.454939
-63.446036
-55.612012
-49.512301
-57.364569
-66.898505
-28.255443
-20.693621
-20.002945
4.639679
5.825702
15.455060
19.345152
37.243757
45.611117
40.920276
33.676723
48.513508
56.779466
38.210530
29.611053
23.625909
22.108461
6.284873
-9.778312
-23.727897
-48.392953
-38.720521
-6.623759
-14.035719
-11.960105
0.128341
-8.017665
-18.999056
5.890046
28.972447
15.163749
26.777487
33.811059
24.931604
25.434131
27.469064
19.055343
30.018490
15.799096
-15.021306
-10.302046
-18.706495
-4.240921
-1.589496
-9.880577
1.153761
18.763114
4.492272
-20.951700
-13.432951
-1.849125
10.464859
6.193090
-7.491472
-25.747825
-13.522979
20.821390
27.886370
20.597051
8.368918
-13.409305
-9.681936
2.801651
9.564816
5.235914
16.641762
36.637515
44.825701
17.171811
22.959537
3.752572
-5.160684
-21.036917
-48.558595
-58.429941
-60.026656
-40.338101
-0.415992
30.871942
7.039644
7.741387
-8.998115
-29.129369
-58.411383
-45.170417
-37.040561
-14.210321
5.797398
-18.874837
-30.790088
-22.337478
-22.278251
-19.387229
-14.295262
-8.051075
9.640836
10.594740
6.300835
12.046385
15.459675
4.145959
-4.789133
-27.401310
-28.969608
-11.534345
-7.216807
5.805799
7.420465
19.717998
45.009419
50.210865
21.050892
20.216641
31.817217
33.689727
40.651808
12.625212
24.664003
47.698843
61.772866
27.691727
-11.710206
-11.449070
-4.538737
3.075432
14.454359
16.995707
27.333986
19.250496
4.998498
-17.908015
-33.643661
-30.121790
-10.149068
18.348948
12.462515
38.918720
30.441585
19.148210
-3.462173
15.646981
1.191880
-18.951339
-8.975596
-9.932788
-14.901513
-19.555561
-19.192126
-37.089831
-35.304665
-35.535287
-39.269833
-37.013250
-29.440061
-29.807980
-9.336322
11.059060
8.286493
17.374140
26.258085
25.523441
30.723989
23.986252
29.542158
5.741567
8.552424
2.166156
-35.524496
-44.296865
-5.448307
13.078157
-9.046151
-39.662552
-50.961012
-25.457214
15.921923
28.567036
34.375701
25.788787
14.185222
16.464239
7.355656
5.432597
18.111212
38.710297
31.267528
18.575754
-6.763225
14.976713
16.425365
20.212260
18.159681
9.940988
6.341945
3.001644
24.045523
22.302238
-12.285615
-12.570976
1.498260
24.135267
16.418203
7.474137
14.593856
25.701479
16.278817
3.798822
-3.429476
-17.053914
-25.558270
-54.283018
-49.053755
-41.566414
-32.648668
-34.571726
-29.065774
-29.679273
-44.553446
-72.088285
