EVENT_NAME: 202302060117
EVENT_ID: 13194
EVENT_DATE_YYYYMMDD: 2023/02/06
EVENT_TIME_HHMMSS: 01:17:32.00000
EVENT_LATITUDE_DEGREE: 37.288
EVENT_LONGITUDE_DEGREE: 37.043
EVENT_DEPTH_KM: 8.6
HYPOCENTER_REFERENCE: AFAD
MAGNITUDE_W: 7.7
MAGNITUDE_W_REFERENCE: AFAD
MAGNITUDE_L: 
MAGNITUDE_L_REFERENCE: 
FOCAL_MECHANISM: 
NETWORK: TK
STATION_CODE: 5802
STATION_NAME: 
STATION_LATITUDE_DEGREE: 39.89281
STATION_LONGITUDE_DEGREE: 37.74792
STATION_ELEVATION_M: 1349.0
LOCATION: Kahramanmaras_Pazarck_Turkiye
SENSOR_DEPTH_M: 
VS30_M/S: 282
SITE_CLASSIFICATION_EC8: unknown
MORPHOLOGIC_CLASSIFICATION: 
EPICENTRAL_DISTANCE_KM: 296.05
EARTHQUAKE_BACKAZIMUTH_DEGREE: 
DATE_TIME_FIRST_SAMPLE_YYYYMMDD_HHMMSS: 2023/02/06 01:18:00.5251330
DATE_TIME_FIRST_SAMPLE_PRECISION: millisecond
SAMPLING_INTERVAL_S: 0.01
NDATA: 18251
DURATION_S: 
STREAM: HNN
UNITS: cm/s^2
INSTRUMENT: sensor = GMS+/GEOSIG | digitizer = 
INSTRUMENT_ANALOG/DIGITAL: 
INSTRUMENTAL_FREQUENCY_HZ: 
INSTRUMENTAL_DAMPING: 
FULL_SCALE_G: 
N_BIT_DIGITAL_CONVERTER: 
PGA_CM/S^2: 11.661
TIME_PGA_S: 
BASELINE_CORRECTION: BASELINE REMOVED
FILTER_TYPE: BUTTERWORTH
FILTER_ORDER: 
LOW_CUT_FREQUENCY_HZ: 
HIGH_CUT_FREQUENCY_HZ: 
LATE/NORMAL_TRIGGERED: 
DATABASE_VERSION: 
HEADER_FORMAT: DYNA 1.2
DATA_TYPE: Acceleration
PROCESSING: Automatic Paolucci et al., 2011
DATA_TIMESTAMP_YYYYMMDD_HHMMSS: 
DATA_LICENSE: U (unknown license)
DATA_CITATION: Turkish Accelerometric Archive v 1.0 - Disaster And Emergency Management Presidency, Earthquake Department
DATA_CREATOR: AFAD
ORIGINAL_DATA_MEDIATOR_CITATION: : AFAD - Disaster And Emergency Management Presidency
ORIGINAL_DATA_MEDIATOR: AFAD PROCESS SERVICE
ORIGINAL_DATA_CREATOR_CITATION: AFAD PROCESS SERVICE
ORIGINAL_DATA_CREATOR: network: TK
USER1: GuestUser
USER2: 
USER3: 
USER4: 
USER5: 
[...]
-4.150266
-4.513162
-4.843587
-5.134009
-5.346759
-5.434561
-5.403649
-5.305457
-5.172717
-5.008024
-4.821252
-4.613438
-4.384843
-4.166118
-4.004284
-3.925315
-3.926874
-3.978568
-4.005325
-3.967919
-3.891547
-3.807383
-3.723479
-3.615935
-3.439294
-3.184981
-2.887288
-2.555305
-2.137339
-1.533119
-0.675106
0.420854
1.707224
3.104775
4.499469
5.806101
6.992460
8.038805
8.895000
9.503635
9.830163
9.887831
9.719761
9.385439
8.971628
8.548466
8.139331
7.726819
7.298201
6.873480
6.458111
6.037806
5.634385
5.267593
4.928595
4.596611
4.198646
3.677551
3.049951
2.377152
1.711106
1.039086
0.325503
-0.426006
-1.191023
-1.950845
-2.678195
-3.336967
-3.920147
-4.433709
-4.869859
-5.269123
-5.690987
-6.132333
-6.528999
-6.804354
-6.934758
-6.939174
-6.862543
-6.738894
-6.560434
-6.342749
-6.095711
-5.804251
-5.467853
-5.080020
-4.629582
-4.109528
-3.526089
-2.914856
-2.334535
-1.801751
-1.262993
-0.689946
-0.115080
0.401858
0.802939
1.060888
1.194668
1.214669
1.107125
0.902947
0.637204
0.334574
0.024930
-0.266271
-0.481099
-0.576954
-0.548120
-0.415120
-0.228347
-0.007545
0.234299
0.441073
0.550175
0.553552
0.521600
0.516664
0.535366
0.539003
0.509908
0.479775
0.496399
0.593032
0.744996
0.904493
1.039572
1.105033
1.051260
0.857733
0.574325
0.300270
0.127004
0.076608
0.082842
0.098168
0.133756
0.225973
0.410927
0.683423
1.007613
1.340635
1.660149
1.957843
2.222805
2.468805
2.712986
2.965220
3.216675
3.425528
3.553333
3.591519
3.541123
3.403446
3.235635
3.087567
2.940798
2.766753
2.544650
2.293714
2.059922
1.854965
1.653644
1.434400
1.243989
1.144238
1.150991
1.243208
1.373352
1.514405
1.683514
1.913927
2.199152
2.497105
2.781031
3.057423
3.352000
3.659824
3.959076
4.252614
4.564075
4.928529
5.340520
5.717703
5.975911
6.084234
6.045788
5.884731
5.634834
5.335321
5.006454
4.634466
4.220136
3.825808
3.543180
3.409139
3.408359
3.497459
3.639292
3.838793
4.104275
4.415477
4.705897
4.923841
5.051647
5.055802
4.906176
4.577309
4.072579
3.434589
2.718928
1.967419
1.207077
0.478687
-0.195151
-0.804048
-1.344625
-1.808831
-2.149387
-2.338499
-2.394349
-2.387856
-2.379544
-2.361360
-2.309148
-2.171211
-1.903651
-1.522832
-1.078369
-0.605332
-0.110215
0.347236
0.728055
1.067311
1.372278
1.659321
1.916231
2.097289
2.207950
2.260422
2.293412
2.320687
2.312634
2.276785
2.178852
1.996755
1.778549
1.542939
1.306550
1.079512
0.827537
0.510879
0.116031
-0.329991
-0.776013
-1.156833
-1.442578
-1.646237
-1.814307
-2.009653
-2.248640
-2.558544
-2.956509
-3.417598
-3.912976
-4.402379
-4.873339
-5.300917
-5.642513
-5.889033
-6.069052
-6.248553
-6.449354
-6.620022
-6.683146
-6.595605
-6.375842
-6.035806
-5.556275
-4.916986
-4.118460
-3.187712
-2.164487
-1.098660
-0.041924
0.958182
1.846587
2.572898
3.116851
3.465719
3.611189
3.594563
3.484681
3.340509
3.178673
2.983847
2.742002
2.452620
2.142976
1.818785
1.476411
1.141829
0.853486
0.665933
0.597094
0.636838
0.764124
0.925439
1.079221
1.205988
1.301062
1.364185
1.394318
1.424710
1.481599
1.551736
1.614859
1.639536
1.626807
1.645510
1.757209
1.960867
2.202451
2.433644
2.637041
2.832906
3.046694
3.285940
3.545448
3.794045
3.996144
4.113818
4.118753
3.991207
3.737153
3.365165
2.847967
2.211535
1.529384
0.853986
0.248467
-0.234182
-0.559672
-0.721248
-0.777878
-0.777879
-0.755799
-0.737096
-0.725407
-0.723589
-0.711121
-0.722811
-0.780220
-0.856852
-0.988555
-1.191954
-1.454840
-1.764484
-2.072049
-2.333376
-2.531840
-2.652892
-2.680688
-2.611330
-2.444300
-2.208691
-1.952560
-1.712795
-1.523684
-1.364447
-1.189364
-0.984668
-0.772697
-0.623331
-0.561247
-0.545662
-0.542545
-0.523583
-0.489034
-0.464097
-0.484359
-0.604373
-0.855569
-1.168849
-1.417708
-1.525512
-1.501614
-1.419008
-1.322375
-1.229119
-1.155605
-1.068064
-0.938959
-0.786216
-0.655554
-0.589054
-0.572169
-0.556324
-0.518398
-0.442027
-0.336822
-0.243306
-0.187196
-0.175507
-0.177066
-0.162000
-0.138622
-0.156546
-0.255259
-0.407743
-0.571657
-0.707516
-0.792201
-0.836362
-0.843896
-0.828570
-0.844936
-0.942869
-1.150164
-1.473316
-1.890764
-2.367438
-2.866713
-3.398198
-3.992808
-4.643267
-5.312170
-5.930418
-6.438005
-6.831035
-7.127690
-7.324335
-7.382004
-7.279396
-7.040151
-6.709466
-6.325010
-5.894316
-5.437904
-4.977336
-4.513391
-4.067110
-3.636675
-3.200785
-2.731385
-2.185873
-1.583472
-0.986526
-0.398931
0.211523
0.878607
1.645181
2.507610
3.418356
4.333778
5.198285
5.961482
6.563364
6.961328
7.157193
7.163686
7.008864
6.723898
6.351650
5.941736
5.503507
5.005791
4.428326
3.780465
3.090001
2.373041
1.632442
0.898337
0.229694
-0.344134
-0.872502
-1.405546
-1.941708
-2.473453
-2.986496
-3.452779
-3.865811
-4.224291
-4.526142
-4.778377
-4.967489
-5.064643
-5.062305
-4.976842
-4.831113
-4.649536
-4.465880
-4.304825
-4.154419
-4.012327
-3.881145
-3.768406
-3.700347
-3.651511
-3.602156
-3.542929
-3.459025
-3.342130
-3.129640
-2.827271
-2.501522
-2.180190
-1.843791
-1.471804
-1.126053
-0.815371
-0.534043
-0.324671
-0.159978
-0.027757
0.062382
0.108880
0.063939
-0.118678
-0.457676
-0.934350
-1.495969
-2.100450
-2.696358
-3.211738
-3.593857
-3.821674
-3.945843
-4.045335
-4.150282
-4.279907
-4.432910
-4.591110
-4.745153
-4.843086
-4.826721
-4.685407
-4.422263
-4.074954
-3.704006
-3.314095
-2.885998
-2.431404
-1.974733
-1.522218
-1.078535
-0.659270
-0.255071
0.143412
0.536441
0.911545
1.243008
1.511868
1.705394
1.850864
1.976071
2.079718
2.174013
2.287272
2.423130
2.529894
2.532231
2.396112
2.155307
1.846442
1.492898
1.111558
0.696188
0.289391
-0.044930
-0.268851
-0.357692
-0.360810
-0.379254
-0.482123
-0.670455
-0.883725
-1.090241
-1.334163
-1.666667
-2.099181
-2.597416
-3.110459
-3.587653
-3.964576
-4.182782
-4.212916
-4.077837
-3.823525
-3.476995
-3.049417
-2.526245
-1.883060
-1.126617
-0.304711
0.524727
1.295458
1.944098
2.467530
2.885756
3.218518
3.486078
3.677267
3.810527
3.947424
4.126664
4.350064
4.565930
4.719453
4.806994
4.845179
4.856349
4.874272
4.905963
4.928303
4.924146
4.853749
4.660221
4.346161
3.945598
3.481912
2.963155
2.393743
1.813161
1.274922
0.785259
0.314299
-0.181858
-0.732047
-1.307953
-1.880742
-2.437685
-2.975146
-3.505592
-4.033701
-4.577396
-5.089918
-5.451256
-5.588674
-5.503990
-5.270979
-4.992768
-4.734819
-4.498430
-4.267757
-4.035785
-3.776537
-3.479882
-3.144782
-2.775912
-2.385222
-1.997649
-1.630078
-1.281729
-0.977801
-0.720632
-0.488919
-0.240582
0.010094
0.211933
0.361819
0.470141
0.632236
0.830958
1.048383
1.415694
1.871327
2.288514
2.655825
3.013525
3.430192
3.981679
4.671622
5.391438
6.039559
6.547924
6.911599
7.175782
7.385934
7.564913
7.658949
7.650116
7.586213
7.501268
7.443080
7.457107
7.532958
7.607251
7.597640
7.424893
7.073167
6.582725
6.012274
5.439745
4.890855
4.389762
3.965560
3.588896
3.255613
3.002079
2.853492
2.790368
2.774521
2.801277
2.886220
3.027014
3.213267
3.420042
3.591228
3.713319
3.782157
3.790988
3.766570
3.713836
3.631749
3.491214
3.275346
3.001291
2.706454
2.455258
2.252898
2.115480
2.036250
1.975464
1.941954
1.923510
1.938835
2.013388
2.135219
2.304587
2.509024
2.757361
3.039988
3.313264
3.566797
3.761882
3.873582
3.925275
3.913065
3.834615
3.676156
3.425220
3.089859
2.677606
2.216778
1.712308
1.164716
0.608293
0.051350
-0.525075
-1.143583
-1.808590
-2.483727
-3.092883
-3.608523
-4.072469
-4.514335
-4.938796
-5.310265
-5.592893
-5.785122
-5.904875
-5.993197
-6.068270
-6.114250
-6.095287
-5.992160
-5.833442
-5.650306
-5.457819
-5.265072
-5.054400
-4.786840
-4.433037
-3.978183
-3.449816
-2.932099
-2.489455
-2.133054
-1.787044
-1.350894
-0.830579
-0.272858
0.281746
0.800502
1.276137
1.655137
1.915165
2.083753
2.188180
2.292606
2.399630
2.499640
2.595234
2.638874
2.620950
2.577568
2.567956
2.630560
2.740181
2.833957
2.869285
2.825643
2.644585
2.290520
1.770984
1.132474
0.462532
-0.197799
-0.841504
-1.452739
-2.004746
-2.475706
-2.846135
-3.077329
-3.193446
-3.247478
-3.270079
-3.314240
-3.386196
-3.465945
-3.537642
-3.588557
-3.597649
-3.504912
-3.302294
-3.036812
-2.740417
-2.427657
-2.104766
-1.785771
-1.501846
-1.269354
-1.065177
-0.854765
-0.624092
-0.359649
-0.056500
0.252623
0.519664
0.655522
0.620973
0.478100
0.262232
-0.039879
-0.444857
-0.945690
-1.506790
-2.084774
-2.668992
-3.245418
-3.754044
-4.203703
-4.641412
-5.065614
-5.443317
-5.746467
-5.950904
-6.063384
-6.204439
-6.400304
-6.546035
-6.621108
-6.653060
-6.666828
-6.654100
-6.607343
-6.554610
-6.511489
-6.456419
-6.312768
-6.021049
-5.582302
-5.025619
-4.344508
-3.507277
-2.563021
-1.606296
-0.694771
0.180127
1.043595
1.872514
2.665585
3.464111
4.301862
5.153121
5.942815
6.644707
7.266071
7.807427
8.261241
8.581794
8.731160
8.715574
8.545945
8.245133
7.838076
7.351790
6.813291
6.211668
5.542765
4.847365
4.155083
3.493714
2.873387
2.303456
1.846524
1.524151
1.308284
1.146448
1.016303
0.927982
0.880963
0.900965
0.954477
1.019678
1.109817
1.168784
1.194760
1.233984
1.299965
1.355035
1.341786
1.244633
1.100981
0.967979
0.853940
0.722757
0.526112
0.253355
-0.056808
-0.362556
-0.594269
-0.696618
-0.669603
-0.547772
-0.384379
-0.208516
-0.017328
0.216203
0.530002
0.940955
1.422044
1.903653
2.322399
2.654901
2.911551
3.122223
3.288993
3.378613
3.343024
3.144041
2.798549
2.353047
1.855591
1.321767
0.745342
0.133068
-0.506221
-1.161876
-1.840131
-2.549557
-3.262621
-3.916977
-4.452619
-4.851623
-5.118665
-5.260499
-5.302062
-5.291412
-5.279723
-5.293491
-5.325183
-5.369604
-5.403115
-5.400777
-5.353760
-5.255308
-5.127243
-4.969045
-4.757854
-4.479903
-4.148440
-3.802689
-3.429663
-2.970654
-2.398386
-1.750005
-1.082922
-0.418696
0.228126
0.821695
1.330060
1.726206
1.985194
2.089620
2.037147
1.856607
1.609827
1.333434
1.021971
0.680116
0.325533
-0.022817
-0.349086
-0.647819
-0.905510
-1.087348
-1.184501
-1.215934
-1.189178
-1.114106
-0.999809
-0.877978
-0.799788
-0.810439
-0.912529
-1.070988
-1.259580
-1.478305
-1.741450
-2.020441
-2.253973
-2.384897
-2.383599
-2.263586
-2.061747
-1.818345
-1.542992
-1.203475
-0.797719
-0.374297
0.020030
0.346558
0.579829
0.721921
0.805046
0.842712
0.816995
0.718802
0.544757
0.335643
0.163157
0.057431
0.006516
-0.033489
-0.073494
-0.079469
-0.049856
0.024437
0.144190
0.274333
0.404216
0.536697
0.661905
0.770487
0.868679
0.988172
1.162735
1.388473
1.649280
1.912424
2.114263
2.239990
2.316621
2.362600
2.378185
2.324673
2.166473
1.877611
1.460163
0.962188
0.401348
-0.188845
-0.746827
-1.218826
-1.556005
-1.774211
-1.893964
-1.927994
-1.936048
-1.961246
-2.022292
-2.116328
-2.208027
-2.290893
-2.381293
-2.493513
-2.629892
-2.755101
-2.825238
-2.832253
-2.789132
-2.690161
-2.520013
-2.282326
-2.010609
-1.748504
-1.507959
-1.287937
-1.073629
-0.860619
-0.681380
-0.541625
-0.423172
-0.295626
-0.122621
0.111169
0.421072
0.789682
1.175437
1.559893
1.910579
2.202817
2.430114
2.585714
2.671437
2.681827
2.644420
2.597142
2.538434
2.446476
2.286198
2.016559
1.616775
1.112565
0.555882
0.020760
-0.422924
-0.754649
-0.989479
-1.155472
-1.266393
-1.308476
-1.265615
-1.109755
-0.820374
-0.409161
0.102061
0.694072
1.349206
1.997326
2.528032
2.872224
3.007562
2.961843
2.773510
2.480751
2.144871
1.800938
1.464018
1.159050
0.917465
0.782905
0.790178
0.887850
0.991757
1.087871
1.195674
1.330753
1.529734
1.812361
2.111873
2.404631
2.702844
2.954559
3.146267
3.311479
3.474613
3.616186
3.686842
3.659566
3.537215
3.393043
3.301604
3.287836
3.356414
3.451489
3.474348
3.337190
3.033780
2.629061
2.182000
1.729744
1.287099
0.870171
0.507274
0.183603
-0.154356
-0.502705
-0.820921
-1.093159
-1.318638
-1.494761
-1.596590
-1.604384
-1.519960
-1.341240
-1.071082
-0.745853
-0.396206
-0.078770
0.118653
0.190348
0.147746
-0.012791
-0.259311
-0.525834
-0.745858
-0.904317
-1.020433
-1.139667
-1.305400
-1.513475
-1.740512
-1.962614
-2.169130
-2.356683
-2.513324
-2.627622
-2.687369
-2.693345
-2.651263
-2.546057
-2.349413
-2.059513
-1.728309
-1.416329
-1.182019
-1.046680
-0.971088
-0.934981
-0.927708
-0.923552
-0.914720
-0.911604
-0.934724
-0.991613
-1.071882
-1.165659
-1.255020
-1.295024
-1.279439
-1.231122
-1.135269
-0.983045
-0.768477
-0.482733
-0.124254
0.292933
0.732460
1.161336
1.557481
1.920896
2.245346
2.550573
2.864891
3.170897
3.464435
3.735632
3.975397
4.121906
4.073588
3.835900
3.436377
2.924633
2.368989
1.766067
1.102360
0.365657
-0.437026
-1.282311
-2.193058
-3.178618
-4.190675
-5.145062
-5.956838
-6.581840
-7.017731
-7.286851
-7.417255
-7.457260
-7.481679
-7.547400
-7.654945
-7.753138
-7.796000
-7.780414
-7.719110
-7.620139
-7.486618
-7.305820
-7.059561
-6.715369
-6.259996
-5.714484
-5.080391
-4.380577
-3.643876
-2.893926
-2.139301
-1.346490
-0.530559
0.300438
1.142345
1.956977
2.754724
3.536884
4.273586
4.928720
5.465660
5.875053
6.150667
6.273536
6.242623
6.108323
5.878428
5.509297
4.965342
4.219288
3.332700
2.375714
1.360281
0.324586
-0.725916
-1.815903
-2.920956
-3.995876
-5.010530
-5.975569
-6.929437
-7.849016
-8.683131
-9.432822
-10.088477
-10.626976
-11.064686
-11.414594
-11.633578
-11.660595
-11.488369
-11.154308
-10.688545
-10.088481
-9.336194
-8.430903
-7.387416
-6.220539
-4.966380
-3.638707
-2.229207
-0.793210
0.577585
1.825769
2.925626
3.868063
4.655679
5.285096
5.767485
6.122327
6.360015
6.514836
6.603416
6.624197
6.613286
6.595881
6.565488
6.518729
6.457164
6.395079
6.341046
6.268571
6.142063
5.938924
5.625124
5.209495
4.718273
4.139250
3.490089
2.795469
2.047597
1.230107
0.363001
-0.493974
-1.267304
-1.928154
-2.418077
-2.809547
-3.197901
-3.492738
-3.880572
-4.270744
-4.387380
-4.484015
-4.569998
-4.496744
-4.386343
-4.258278
-4.054881
-3.835637
-3.642890
-3.429361
-3.202844
-2.986718
-2.740718
-2.467183
-2.176763
-1.846598
-1.485262
-1.094052
-0.698426
-0.309813
0.040353
0.295445
0.485854
0.598593
0.637298
0.639635
0.570277
0.433379
0.212575
-0.094211
-0.421519
-0.706745
-0.869880
-0.933523
-0.939758
-0.860270
-0.696876
-0.453994
-0.133441
0.262185
0.686126
1.092922
1.477638
1.778708
1.950934
2.029643
2.099260
2.197972
2.291747
2.414617
2.625029
2.952855
3.395499
3.906202
4.456131
4.991512
5.479615
5.909790
6.253463
6.489591
6.560248
6.450365
6.185921
5.832117
5.480650
5.160356
4.905263
4.760312
4.728360
4.766805
4.818499
4.844994
4.836681
4.793819
4.696406
4.542363
4.334028
4.075039
3.790852
3.504588
3.205075
2.855167
2.422393
1.903896
1.350070
0.797283
0.253069
-0.276858
-0.800031
-1.293591
-1.718312
-2.057050
-2.285646
-2.390073
-2.385398
-2.250319
-1.959899
-1.502448
-0.860303
-0.067232
0.815719
1.724646
2.606558
3.460155
4.298945
5.123967
5.944054
6.736346
7.459799
8.076747
8.545628
8.861245
9.023080
9.023080
8.898650
8.679146
8.379113
8.007385
7.553830
7.092222
6.626457
6.178357
5.732854
5.220851
4.748853
4.133202
3.434426
2.921124
2.395353
1.765156
1.072614
0.351757
-0.347279
-0.945525
-1.438045
-1.889003
-2.243067
-2.476079
-2.579208
-2.545698
-2.359965
-2.031359
-1.642227
-1.205298
-0.772785
-0.427034
-0.165448
0.009115
0.101852
0.111463
0.062106
-0.031151
-0.134799
-0.200521
-0.289881
-0.398985
-0.502632
-0.608099
-0.676158
-0.704993
-0.700318
-0.655898
-0.549654
-0.367037
-0.150651
0.097687
0.416421
0.816983
1.312100
1.880731
2.497420
3.148658
3.795999
4.420480
4.998723
5.527610
6.016233
6.481737
6.925680
7.282340
7.523664
7.620817
7.584969
7.397935
6.999191
6.490045
5.933102
5.357716
4.823113
4.341243
3.921198
3.524012
3.129164
2.755098
2.402592
2.005666
1.490026
0.846061
0.123127
-0.589677
-1.262217
-1.892934
-2.477932
-3.007859
-3.481676
-3.917567
-4.303843
-4.668557
-5.037948
-5.414612
-5.799069
-6.125078
-6.382768
-6.601493
-6.764368
-6.891396
-6.978938
-7.027255
-7.051674
-7.011930
-6.912699
-6.751384
-6.505644
-6.185091
-5.752578
-5.192778
-4.519980
-3.745872
-2.906043
-2.053225
-1.268727
-0.599825
-0.012750
0.516397
0.973068
1.352069
1.663531
1.919921
2.164882
2.466212
2.832744
3.238241
3.660104
4.086902
4.491620
4.841007
5.167015
5.485230
5.790717
6.113868
6.460657
6.791601
7.042277
7.181512
7.215801
7.166704
7.076045
6.962525
6.825627
6.664051
6.473381
6.255695
6.019825
5.779799
5.522109
5.236363
4.928018
4.597074
4.263271
3.928949
3.589432
3.247058
2.897929
2.567504
2.281758
2.026926
1.792095
1.585059
1.395948
1.203199
0.981357
0.720030
0.443636
0.186725
-0.027843
-0.182925
-0.267351
-0.282158
-0.235660
-0.152535
-0.054603
0.050343
0.140222
0.173472
0.108010
-0.082920
-0.395941
-0.792087
-1.226160
-1.645686
-1.980008
-2.173795
-2.220554
-2.149898
-1.984426
-1.748557
-1.464891
-1.164080
-0.878336
-0.623764
-0.407638
-0.211254
-0.037210
0.092674
0.166188
0.169304
0.110077
0.003052
-0.154888
-0.370755
-0.639875
-0.959910
-1.329820
-1.715056
-2.055353
-2.302393
-2.447604
-2.500337
-2.475919
-2.382144
-2.224725
-2.035095
-1.851180
-1.712464
-1.627520
-1.580503
-1.550111
-1.537123
-1.515822
-1.436074
-1.291644
-1.103832
-0.939140
-0.778863
-0.592091
-0.412592
-0.247639
-0.162176
-0.173866
-0.245563
-0.312843
-0.327910
-0.319339
-0.315443
-0.381424
-0.486111
-0.526895
-0.502737
-0.446628
-0.428704
-0.462735
-0.448708
-0.377792
-0.284535
-0.173615
-0.061136
0.078878
0.245129
0.403068
0.565942
0.734531
0.863115
0.961826
1.019494
0.982347
0.862594
0.694783
0.526193
0.407219
0.357343
0.362018
0.437350
0.577624
0.779723
1.114824
1.569936
2.112072
2.735254
3.416625
4.069161
4.649223
5.222790
5.673746
5.922344
6.063137
6.130936
6.069631
5.806485
5.461513
5.100175
4.678052
4.205533
3.639499
3.076581
2.662251
2.325591
1.894635
1.355616
0.752175
0.028461
-0.727464
-1.489624
-2.336468
-3.174480
-3.949628
-4.687889
-5.378872
-6.004653
-6.579001
-7.077236
-7.402206
-7.566380
-7.624049
-7.574953
-7.445070
-7.211539
-6.850982
-6.395349
-5.882828
-5.387191
-4.931299
-4.486836
-4.056921
-3.665711
-3.341262
-3.076299
-2.872641
-2.748992
-2.705871
-2.769255
-2.913167
-3.087472
-3.276843
-3.441796
-3.545704
-3.565187
-3.479464
-3.300485
-3.075266
-2.819655
-2.561966
-2.360906
-2.230763
-2.149196
-2.089191
-2.070488
-2.113870
-2.221154
-2.414682
-2.688997
-3.046179
-3.483628
-3.950692
-4.401649
-4.821954
-5.224076
-5.594505
-5.886225
-6.068583
-6.140539
-6.095080
-5.914802
-5.622563
-5.267981
-4.887161
-4.482443
-4.053048
-3.608325
-3.170617
-2.773173
-2.401185
-2.048941
-1.731764
-1.435370
-1.150924
-0.854790
-0.561772
-0.321227
-0.136273
0.018808
0.170772
0.349491
0.588737
0.893444
1.256080
1.657421
2.066815
2.457765
2.799099
3.077310
3.276032
3.384615
3.384095
3.254470
3.032368
2.731296
2.344501
1.909909
1.480512
1.128526
0.922530
0.834727
0.773681
0.717052
0.674189
0.626911
0.576256
0.528198
0.437539
0.264013
0.023727
-0.234223
-0.452948
