EVENT_NAME: 202302060117
EVENT_ID: 13194
EVENT_DATE_YYYYMMDD: 2023/02/06
EVENT_TIME_HHMMSS: 01:17:32.00000
EVENT_LATITUDE_DEGREE: 37.288
EVENT_LONGITUDE_DEGREE: 37.043
EVENT_DEPTH_KM: 8.6
HYPOCENTER_REFERENCE: AFAD
MAGNITUDE_W: 7.7
MAGNITUDE_W_REFERENCE: AFAD
MAGNITUDE_L: 
MAGNITUDE_L_REFERENCE: 
FOCAL_MECHANISM: 
NETWORK: TK
STATION_CODE: 2704
STATION_NAME: 
STATION_LATITUDE_DEGREE: 37.00879
STATION_LONGITUDE_DEGREE: 37.80215
STATION_ELEVATION_M: 524.0
LOCATION: Kahramanmaras_Pazarck_Turkiye
SENSOR_DEPTH_M: 
VS30_M/S: 721
SITE_CLASSIFICATION_EC8: B
MORPHOLOGIC_CLASSIFICATION: 
EPICENTRAL_DISTANCE_KM: 74.10
EARTHQUAKE_BACKAZIMUTH_DEGREE: 
DATE_TIME_FIRST_SAMPLE_YYYYMMDD_HHMMSS: 2023/02/06 01:17:19.8531720
DATE_TIME_FIRST_SAMPLE_PRECISION: millisecond
SAMPLING_INTERVAL_S: 0.01
NDATA: 10501
DURATION_S: 
STREAM: HNN
UNITS: cm/s^2
INSTRUMENT: sensor = CMG-5T/GURALP | digitizer = 
INSTRUMENT_ANALOG/DIGITAL: 
INSTRUMENTAL_FREQUENCY_HZ: 
INSTRUMENTAL_DAMPING: 
FULL_SCALE_G: 
N_BIT_DIGITAL_CONVERTER: 
PGA_CM/S^2: 102.235
TIME_PGA_S: 
BASELINE_CORRECTION: BASELINE REMOVED
FILTER_TYPE: BUTTERWORTH
FILTER_ORDER: 
LOW_CUT_FREQUENCY_HZ: 
HIGH_CUT_FREQUENCY_HZ: 
LATE/NORMAL_TRIGGERED: 
DATABASE_VERSION: 
HEADER_FORMAT: DYNA 1.2
DATA_TYPE: Acceleration
PROCESSING: Automatic Paolucci et al., 2011
DATA_TIMESTAMP_YYYYMMDD_HHMMSS: 
DATA_LICENSE: U (unknown license)
DATA_CITATION: Turkish Accelerometric Archive v 1.0 - Disaster And Emergency Management Presidency, Earthquake Department
DATA_CREATOR: AFAD
ORIGINAL_DATA_MEDIATOR_CITATION: : AFAD - Disaster And Emergency Management Presidency
ORIGINAL_DATA_MEDIATOR: AFAD PROCESS SERVICE
ORIGINAL_DATA_CREATOR_CITATION: AFAD PROCESS SERVICE
ORIGINAL_DATA_CREATOR: network: TK
USER1: GuestUser
USER2: 
USER3: 
USER4: 
USER5: 
[...]
-3.529110
1.762362
1.964995
1.423137
1.529222
3.532549
-3.223928
-7.242123
-1.470363
1.544112
-1.711202
5.266947
5.671564
-3.494012
1.919754
8.066365
3.208663
0.690791
-0.973781
0.654082
-7.906460
-10.490230
-5.235231
-3.270523
4.378863
1.356797
0.245766
-0.785882
-8.921920
-1.161887
7.098356
8.019121
8.873682
1.263906
-3.453418
-5.898649
-2.945168
4.400475
6.677508
-0.318653
-2.313020
0.660690
1.313267
-1.578230
7.929166
4.815456
-0.993012
-4.830065
-5.923319
8.321973
4.786823
0.260449
5.630999
-5.280101
-1.783807
-3.117358
-0.975185
-0.196943
-8.698638
4.182724
6.243061
-5.921936
-5.145533
-7.305105
-3.730959
12.791943
7.238177
-2.239111
-3.283018
-4.113907
-6.826714
-9.972300
-6.954453
5.521407
2.231459
0.364289
-4.128370
-6.424334
-1.397986
-3.165236
0.723993
2.774828
1.485414
13.853999
13.262487
2.397975
-0.444482
1.206982
7.436042
0.737800
-3.693865
1.100156
2.228422
1.960883
-0.066587
0.636869
1.918386
0.425454
-3.714422
-7.767865
-4.824804
-5.358694
2.640103
9.575648
-0.467747
-9.805884
-11.072005
0.046362
5.413847
-5.773411
-5.355308
0.029034
-0.781320
4.959177
5.595509
6.137745
12.541817
2.742396
-1.222774
0.100427
0.026903
2.678787
-1.603919
-3.619129
1.273279
-0.907441
-0.748025
6.613863
11.517918
-1.361840
-8.294861
2.650026
5.143142
3.980925
-0.126768
-3.716781
-3.915971
-1.078041
2.729965
-0.023299
7.653059
9.145142
-0.794349
-2.051888
0.596318
-3.427701
-13.730396
-6.056184
6.297996
3.480059
1.753880
-6.175270
-15.358010
-5.124513
-3.184018
-1.235554
6.046337
2.389507
-0.998828
3.332989
5.912538
5.471519
-0.368519
-11.248357
-14.509800
-12.614361
-6.702530
5.510658
14.495777
12.065564
0.975161
-6.520291
0.993315
3.803354
-0.125343
-1.157603
-1.330128
5.185510
14.199133
11.392844
-0.171104
0.387377
11.274028
12.103456
2.109101
-1.598915
-10.106739
-9.898896
1.095338
-2.325180
-7.328777
0.412866
1.951538
-0.466414
4.395956
9.554714
8.021937
8.182886
4.835315
-0.850246
-5.388268
-9.994945
-7.326203
2.056140
8.120609
8.649665
10.828312
6.443848
0.910617
1.807169
-0.055403
-0.942382
2.117455
5.118137
8.384250
0.655551
-8.327657
0.896839
-2.808418
-11.418308
-6.047145
-5.846964
-10.099326
-2.472621
8.221854
0.828161
-8.779390
-1.725229
2.731641
-3.330917
-10.845985
-11.714573
-1.145763
-6.958217
-10.791285
-2.454110
-2.407486
3.503425
4.960874
-3.426189
-6.268646
-2.546153
6.634513
12.035406
11.427956
2.088288
-5.132539
-3.730873
-4.684976
0.151956
5.454155
-1.175736
-8.358250
5.630807
17.136898
5.640380
-3.005370
3.185376
3.537582
-6.451256
-7.597229
-1.472380
0.679294
0.577878
6.026586
3.076241
-0.979348
-4.264392
1.821838
15.347772
6.884390
-1.707416
0.273843
-3.451950
-8.889858
-7.523440
2.250306
5.462167
0.952651
3.255736
-1.425727
-11.477092
-1.671163
3.707968
-1.634312
-0.565813
-1.464746
-0.369581
-1.311424
-2.431956
2.966791
4.148083
7.459251
11.388325
2.674532
3.850612
-0.238384
-7.039917
3.030522
1.780339
7.715464
6.978671
-10.101073
-7.763046
-7.630908
-3.571571
1.579831
-7.582680
-7.214843
6.159678
0.478714
-5.323011
-4.522088
2.384033
10.895300
5.344293
3.062733
0.614437
-1.361847
-0.285992
-5.963891
-4.950256
2.468641
-0.142100
6.500736
3.657360
1.575946
-2.260800
2.167565
7.629758
-3.208702
5.369996
8.165016
8.304816
10.431970
1.243100
1.216163
3.613958
4.127077
-0.380907
-12.405527
-10.521735
3.019830
0.201281
-2.037981
-5.197360
-0.072931
3.249271
-5.161086
0.419724
1.963606
1.019618
0.475001
-0.397879
5.606209
5.796888
2.383113
0.271049
-3.124642
-0.334832
-5.123265
-6.748299
-1.037533
1.614351
12.864820
9.034510
-5.138070
-4.907852
-1.198845
-1.877709
-1.217777
-2.568798
-7.988930
-1.299199
6.634007
5.396084
2.187665
3.069198
-6.147257
-14.209735
2.359449
11.411691
6.161054
-0.019813
-1.799937
-7.140991
-11.670430
-5.517689
-5.777566
-1.326214
11.326498
9.116966
5.837132
4.644265
-2.001258
1.850272
3.014399
0.375153
-6.730735
5.738382
6.062083
-3.978861
-6.347466
-7.084566
-7.821666
-9.085641
-8.432145
-3.390777
4.333701
7.079068
1.501702
0.384540
-1.002955
-5.119537
1.242851
-0.278586
4.554667
11.048237
-3.221503
-5.218936
3.614464
1.929050
6.541928
3.574113
2.705524
-2.012107
-1.856062
13.340610
13.258809
17.209339
20.364805
13.626105
1.973271
-7.469075
-14.063719
-7.076069
4.813148
3.865788
-2.345117
-12.548506
-0.714459
2.972786
-2.534698
7.872279
10.599256
-0.558578
-11.953337
-12.516038
-9.267090
-11.513708
7.354542
9.412733
-1.876897
5.681152
5.333922
4.999258
8.109668
10.586540
7.914191
-12.532774
-14.448984
-11.446769
-11.982804
6.127468
11.637782
2.573658
2.190873
-7.403805
-14.233229
-15.814433
-11.371662
-0.446391
3.424141
10.985868
13.834526
-2.167560
2.759789
8.849084
1.010658
8.265577
5.094245
-2.752763
-5.942179
6.080979
10.966950
-5.415196
-5.278768
1.547969
-10.686604
0.592370
4.481599
-1.717965
4.315853
1.614387
-3.604373
-5.695289
-3.510512
4.128146
13.524282
5.862401
-2.060619
2.649114
3.161007
9.342865
5.603279
-5.345214
-7.936033
-3.362387
-1.110180
-1.717324
10.408206
5.746665
2.436488
-3.557721
-8.783837
-12.146426
-6.766988
4.968059
-9.048511
-3.113387
14.154927
9.311630
-5.623524
-14.121847
-11.640378
-5.333467
-1.938318
4.352348
10.101427
3.776810
-3.786071
-1.551029
-0.368512
-2.387399
2.047402
-0.989989
-3.164273
5.382549
10.224690
14.113307
0.577636
-9.935932
-7.569094
-9.953944
-8.713192
9.631860
16.750999
1.112424
2.443594
6.224322
5.098272
7.046736
7.610427
4.649662
2.422966
2.232664
11.391875
14.276394
12.892270
-5.803654
-10.278843
-5.848945
-8.528037
6.931306
0.692510
5.628441
14.407590
-0.720660
-12.746199
-14.576895
-17.411995
-11.414651
-2.354133
1.661681
5.088707
13.092408
15.329290
11.753989
2.532323
-10.632787
-5.921215
0.031380
7.358633
15.046945
4.781336
-0.630827
8.319351
10.287124
5.067138
8.328959
9.823801
1.804846
-2.506977
2.474009
4.689742
6.205426
14.840826
1.665908
-10.693411
-9.946738
-11.688855
-5.498721
-2.349692
4.460493
9.700780
-2.399545
2.296395
-1.797199
-9.686504
7.625945
20.727681
20.197163
9.662139
11.309313
12.972424
8.049131
6.996641
-3.139011
-2.173803
15.948422
18.242619
16.375143
19.713896
12.031786
6.767970
-4.436759
-11.279362
-7.809427
-8.322474
-4.686415
0.793249
1.532259
7.066481
6.195133
9.075667
8.918161
10.729006
24.083912
12.999945
8.924127
7.948876
-3.371710
-2.246508
-2.370299
-8.131566
-11.142905
-10.869164
-8.175289
-7.931279
-6.576508
-3.375067
-8.836270
-5.333845
13.664054
24.870693
20.134979
20.460519
23.323889
4.690184
-1.401798
0.267137
5.624813
7.867825
-3.094462
-0.458516
3.191643
3.922071
0.882840
-11.358169
-14.360925
-9.433576
-15.795280
-23.497006
-17.884627
-19.027228
-14.108767
3.283066
-0.606705
1.462520
-0.669773
3.538830
10.049258
-2.838469
-6.532386
-6.660774
-2.588257
3.435753
7.973539
14.111874
2.466090
-6.802470
-12.968626
0.926335
24.985182
11.505908
14.183232
14.340196
1.198686
-2.175856
-13.628238
-14.730687
-1.749406
-0.609492
5.690369
-1.219665
-16.007393
-4.758457
-1.677471
-2.316490
7.130219
6.782069
-3.362778
-9.468860
-15.290201
-1.580367
22.343926
14.733230
13.053640
13.407071
2.184259
-8.817566
3.905028
15.425218
0.020503
-16.255594
-11.182351
-4.049113
-5.144513
0.743718
0.157723
-7.531743
0.028451
14.238495
12.833222
9.357228
6.997817
2.596802
-4.495293
3.072870
15.439309
20.851543
17.397923
13.317202
14.495735
-1.524741
-22.068254
-8.645918
-1.831748
-10.955640
-17.966819
-21.605566
3.183061
9.916928
7.247031
7.086154
-15.662636
-26.806064
-12.378711
-5.870122
2.980749
11.971384
2.582062
-20.502040
-15.218843
7.428872
-6.693441
-2.496178
6.458596
-5.214466
-1.105475
1.181979
-14.019219
-31.816788
-21.933928
0.838840
7.669255
7.494585
4.909283
-0.719883
11.327183
21.860438
12.378859
-5.210596
-27.766596
-23.400144
-3.058544
-0.268734
-1.786186
-1.851435
-15.933290
-23.233194
-19.810766
-3.523563
24.134221
30.148730
10.184810
-2.357796
3.495799
3.954973
4.111018
17.080346
18.366767
12.810855
5.200160
19.293733
27.421261
16.513226
10.217727
1.655345
-10.069210
-0.951989
2.438256
-3.347838
9.342267
5.578468
1.239672
2.959486
13.071609
24.969102
20.722563
11.998962
2.421142
-14.533856
-27.270477
-24.328950
-14.461415
-6.155197
0.721193
4.484757
-0.669025
-5.982187
-3.655501
12.280451
27.182269
13.645372
-10.112113
-19.295772
-20.154860
-22.733419
-2.243471
11.018871
7.794208
0.084819
2.313118
10.144566
3.427934
-16.217531
-16.102251
-5.533748
-9.183835
0.606156
6.081529
5.064287
13.715625
9.216530
-5.168149
-7.552079
-10.949609
-2.303788
4.949292
4.496625
6.305325
6.201763
13.239372
21.796308
1.511788
-13.498153
-8.235798
-6.319517
1.947163
7.149750
0.981755
-1.270993
3.846080
8.270767
4.661138
-15.207766
-29.652826
-41.352860
-50.966235
-54.386752
-43.295051
-7.864397
7.631113
-1.476841
-12.038223
-29.513660
-41.748232
-33.974713
-13.943905
-4.231766
9.785795
30.708829
20.036493
6.421132
5.736751
0.342059
18.103532
25.520590
-0.943913
-10.263660
-12.073820
-5.208158
7.830439
5.245137
-0.928374
17.403191
43.594674
41.283690
25.655843
23.485237
20.650750
21.358803
16.515200
6.462303
16.766296
20.579820
14.221181
10.407729
-1.608615
-1.210740
4.378958
-14.532131
-23.683301
-22.257116
-6.161170
8.231549
21.403474
19.596072
1.758351
-10.710389
-16.954395
-19.708886
-20.856697
-19.089376
-14.117891
-1.724173
3.046554
-1.641040
-2.373235
-0.435499
-6.485491
4.229520
14.108090
6.277633
1.045386
-1.874308
-4.327508
-1.949330
1.531946
-6.461569
-13.333290
-12.993651
-10.287517
-6.995352
-5.835209
-4.595070
5.054237
4.941480
-11.237457
-9.972184
-5.221993
-5.505471
24.747765
41.679540
21.134188
-4.588583
-12.008022
-3.937197
-10.186414
7.636973
30.484221
30.624940
33.263338
20.463271
9.997823
11.948739
3.959514
4.492556
-13.609676
-34.490954
-24.897737
9.907961
27.956626
18.842542
8.219860
-2.888321
-12.542460
-8.910692
-0.051239
7.879208
24.163959
17.169331
10.572848
7.113711
-5.528815
-18.715074
-27.679278
-37.755163
-30.163399
0.884288
3.450045
-8.441859
-4.011962
-20.092818
-24.443260
-0.964007
10.035131
5.986286
-4.976614
-19.987781
-34.950520
-39.110319
-32.170790
-13.711413
-4.257041
-28.558873
-33.628060
-11.942452
-8.702392
8.237045
14.368637
8.949425
-4.357595
-10.974307
-2.322662
10.334340
4.546714
-11.434530
-4.071109
-10.859769
-31.960501
-14.075201
-6.193487
-12.464773
5.080924
0.024609
-12.419917
-2.088952
7.661194
5.856550
15.137748
20.117509
4.269594
4.111781
11.390914
-6.098622
-21.707773
-31.762815
-44.432006
-38.683234
-30.399391
-19.183557
-5.900066
-5.108031
3.298106
7.753750
4.749767
-0.018743
-10.484497
-24.326055
-23.537699
-21.672297
-20.201975
-25.245416
-30.852820
-19.994060
7.973597
32.748431
51.890385
50.798051
43.537073
14.486619
-39.679770
-61.680390
-60.018811
-40.990568
-34.514775
-37.598448
-10.799174
7.925326
10.036849
13.454373
3.337723
-9.768845
-20.066637
-22.002769
-24.479876
-25.330075
-15.000029
-10.216736
5.373483
6.797830
5.455390
20.505554
26.437920
15.479925
-13.620489
-26.567370
-13.350390
-3.504616
-13.443802
-25.023075
-22.905422
-17.977460
-9.610249
-9.576498
-4.212691
-4.377553
-22.590125
-8.712635
22.229310
27.736252
25.748015
45.095632
51.242549
33.020475
10.488689
-5.293942
-13.032448
-4.988289
0.991279
1.250921
10.698856
15.651644
20.619758
25.872917
20.462594
10.800179
7.440655
8.414445
13.597723
14.907131
-3.075565
-8.171724
6.302524
23.059286
22.422413
1.459299
9.831415
27.321635
20.049623
11.233765
-4.824717
-8.627748
-14.448170
-24.502906
10.533281
43.125734
49.136259
55.125941
40.117532
10.366110
-0.846588
1.120879
3.008962
-7.217415
-9.033705
-8.874289
-3.350183
-7.215433
-24.576545
-28.448846
-23.287023
-26.000443
-27.831445
-9.670601
7.077886
6.955935
-8.952668
-28.617136
-44.385974
-50.314285
-18.485326
5.229934
-19.225148
-39.045319
-44.697472
-45.997614
-42.310676
-44.594381
-36.961852
-16.056596
-20.026057
-36.289282
-42.368391
-20.817949
3.380969
22.439249
26.695973
26.981974
25.889946
7.702201
-11.269268
-16.955136
-26.319019
-30.357749
-14.303181
-1.740887
6.683027
12.089131
2.260899
-21.784390
-27.873614
0.084848
19.493765
24.993965
50.608918
62.130947
48.811054
10.936736
-15.785228
-0.508253
17.159431
11.503600
-1.230876
9.702977
20.747170
9.605887
13.526073
20.024240
6.493168
-7.387623
-25.252316
-29.017341
-8.871901
-4.397868
-21.031652
-23.516728
-24.983607
-31.613805
-17.198099
4.287058
30.545970
57.524241
63.553462
58.401826
48.155833
8.529248
-31.565977
-35.640875
-29.083246
-19.181076
5.810148
9.532640
-26.949242
-46.413258
-57.697984
-78.479342
-80.293181
-76.449927
-53.935846
-32.619878
-26.154199
-20.981343
4.689087
28.704105
41.808906
43.860660
14.464473
-31.602928
-65.970259
-65.840266
-50.969406
-45.566367
-25.647738
-7.266519
-23.934632
-25.273393
-1.144051
19.385128
14.966643
-8.112862
-22.204525
-23.923961
-35.254662
-34.447302
-27.811209
-10.739363
14.680043
38.467330
58.709931
69.001663
59.286837
51.289031
43.466849
44.557110
61.981738
59.015455
63.021155
73.585061
88.954906
102.235025
85.754185
43.962782
-3.374759
-16.134062
-26.755519
-47.720472
-47.239229
-16.665393
-0.100806
4.299054
16.397611
12.614196
25.105995
13.015171
-22.577858
-29.765275
-15.306352
-6.067757
9.930721
18.972542
20.293292
-4.094667
-41.448238
-46.637881
-42.677237
-20.243459
-5.179809
-10.634269
-17.120718
-30.105912
-41.639516
-38.062305
-37.837604
-26.077424
-5.738276
9.686433
-15.419964
-32.325308
-1.473475
9.405207
24.986538
43.362240
37.976436
26.753624
15.540313
0.571444
-4.138218
12.493492
37.570230
29.434804
22.047548
12.613783
9.580070
14.817904
0.104350
-3.445205
20.826967
27.322376
31.182181
34.590510
28.955828
-0.313162
-28.591846
-45.713887
-35.025848
-6.637365
12.192572
12.677492
-7.698978
2.621566
6.025604
15.616062
18.763558
3.102302
-14.988895
-4.272658
9.070907
9.637051
-7.310591
-26.818437
-16.268630
12.827871
24.986809
23.113203
18.584989
22.811370
30.359304
25.873388
9.101372
-25.063055
-29.499930
-19.532782
-22.183982
-10.509316
4.987420
8.110703
-3.402059
-9.142484
-10.003717
-13.744529
-14.217424
-9.866604
-14.027322
-7.911055
-2.989836
3.949693
10.969832
1.193705
12.637576
20.623500
12.812966
7.352683
11.877902
14.919349
26.696080
34.327689
24.500684
12.087114
6.377952
6.060453
22.305665
24.005249
28.817047
15.449033
-1.101996
-0.511026
6.768413
27.333760
33.058625
32.355240
22.672290
-3.910830
-28.836391
-36.553442
-39.390075
-25.674724
12.793664
28.508629
14.770055
-0.460567
4.727308
29.736002
19.526483
-13.188806
-15.032988
-13.414626
-9.373372
7.125316
17.064879
16.910438
3.782414
-4.539057
-12.954932
-5.116741
6.713015
14.799778
34.952268
14.427451
-11.134407
4.808901
12.834364
15.207639
16.108481
-10.886882
-3.912719
14.966565
4.938188
31.449044
27.500425
2.067604
19.288410
32.769901
29.994261
39.744407
14.299632
-11.523977
-19.032914
-25.465726
-15.426244
-9.726205
4.824362
-14.077225
-50.493516
-45.547470
-23.297287
-16.667630
-16.205391
-11.268234
-10.033612
-14.852694
-20.666067
-1.333468
13.894160
-0.071225
0.242055
6.179019
-3.373975
14.289418
27.576894
44.252740
60.051073
61.916169
34.297381
-14.211301
0.016213
-1.705981
-15.230004
9.702678
19.634578
11.474326
20.409178
31.095991
28.210931
14.461323
11.117430
18.702144
14.725021
24.956986
51.748904
69.298279
57.801761
32.572457
4.294999
-18.923657
-46.048058
-45.669187
-16.125195
-0.673208
11.272712
8.008204
-24.199519
-48.330017
-48.669584
-56.072166
-40.882237
-30.403232
-20.816145
-16.199895
-8.673110
-1.429838
-9.273474
-17.017498
1.005421
23.936957
35.774682
34.294623
-0.487404
-16.596458
-27.897121
-37.138710
-36.243078
-26.803725
-12.243963
6.530191
19.225812
31.195946
39.665223
33.257544
32.585423
49.221424
49.743125
36.362850
41.239933
44.780058
34.355068
21.774149
17.689750
-13.720151
-46.900402
-45.824547
-31.555655
-2.177173
32.776872
47.023083
38.296417
17.577891
-7.440234
-8.050135
-0.004443
5.327794
17.127512
32.299664
35.422334
35.785267
12.168466
-26.664281
-13.464771
10.744568
6.109693
-1.227604
-1.082900
-8.323342
-10.832632
-15.981509
-26.327728
-25.465811
-20.423831
10.885609
46.752108
47.173889
41.445724
33.414202
27.778907
16.614943
-14.804766
-16.392713
-0.815673
21.813346
8.281660
3.751914
34.073194
41.659441
36.849860
31.415322
-4.856300
-33.715191
-35.181457
-46.153245
-4.280855
43.752516
46.132227
47.818632
35.436326
5.412730
16.702125
16.620018
1.858036
13.292712
7.310151
-10.804034
-7.861281
0.018288
6.103905
-0.371204
3.140416
14.595321
7.849265
-7.079453
-24.542936
-15.077530
0.525868
6.104839
24.522838
29.862124
7.184443
-1.480617
6.147007
1.240878
-2.356184
-3.461085
-18.322373
-13.897073
-6.194969
-22.713202
-31.151758
-39.755211
-40.690923
-20.219979
-22.327446
-40.158117
-35.805458
-28.511307
-34.059556
-47.284127
-50.856670
-23.112452
-4.780580
-10.947655
-7.771041
0.238484
7.125908
8.341528
18.499626
22.150704
-3.169631
-20.476798
-18.781811
-12.242879
-1.740886
3.310289
2.568592
-6.077158
-36.247568
-54.090806
-42.187796
-17.569891
-6.348847
-17.775789
-18.832263
-10.468116
-3.843670
15.651374
11.489124
-3.077003
14.028864
32.629231
6.707848
-26.286358
-8.190491
27.779605
27.674205
39.820883
73.546471
70.849909
42.226718
7.199796
-9.451458
-35.890829
-55.341666
-42.794697
-33.626291
-17.565593
-17.628084
-43.904702
-45.416943
-26.866842
-4.616046
11.350863
3.030617
-8.118634
-16.426007
-26.669242
-8.619963
16.557000
16.135290
10.610335
18.316117
12.333250
-15.418559
-11.906020
7.392864
19.678387
22.989555
5.877629
-13.548995
-26.685600
-37.836078
-36.422765
-26.670475
-44.269125
-63.601959
-86.939537
-90.446488
-52.131351
-12.403550
20.667659
40.317486
25.504319
-2.815743
-5.871524
6.584720
6.528972
0.075625
8.428738
-2.352712
-11.360441
14.561321
31.719906
32.702585
24.460497
0.302721
-3.158868
10.291054
15.575170
0.277118
-7.450661
5.715746
30.984047
49.007886
25.711378
9.614584
2.682789
2.207747
14.890496
3.857408
-14.455696
-11.014878
-23.346918
-30.036578
-11.489848
1.301708
1.779579
2.040754
-0.173068
-2.598070
19.950339
12.637869
-17.313699
-19.503921
-11.714770
-12.932464
-6.456671
0.628753
-5.998687
2.907048
11.797457
17.459796
16.361944
-5.259228
-28.178432
-34.236086
-40.293740
-43.341246
-23.039797
-4.131702
-1.000451
-7.720454
-3.588169
6.405338
7.528701
7.936383
2.301088
-4.539064
-7.079004
0.681949
14.798817
13.528098
36.341018
56.583312
42.312959
34.017846
23.980580
5.947618
6.328635
-2.106549
-41.574673
-58.701311
-40.225077
-32.379223
-33.219307
-24.446288
5.755456
-3.689036
-41.529332
-25.353082
-19.459642
-17.461218
