EVENT_NAME: 202302060117
EVENT_ID: 13194
EVENT_DATE_YYYYMMDD: 2023/02/06
EVENT_TIME_HHMMSS: 01:17:32.00000
EVENT_LATITUDE_DEGREE: 37.288
EVENT_LONGITUDE_DEGREE: 37.043
EVENT_DEPTH_KM: 8.6
HYPOCENTER_REFERENCE: AFAD
MAGNITUDE_W: 7.7
MAGNITUDE_W_REFERENCE: AFAD
MAGNITUDE_L: 
MAGNITUDE_L_REFERENCE: 
FOCAL_MECHANISM: 
NETWORK: TK
STATION_CODE: 5202
STATION_NAME: 
STATION_LATITUDE_DEGREE: 40.802083
STATION_LONGITUDE_DEGREE: 37.015082
STATION_ELEVATION_M: 1323.0
LOCATION: Kahramanmaras_Pazarck_Turkiye
SENSOR_DEPTH_M: 
VS30_M/S: 1024
SITE_CLASSIFICATION_EC8: A
MORPHOLOGIC_CLASSIFICATION: 
EPICENTRAL_DISTANCE_KM: 390.76
EARTHQUAKE_BACKAZIMUTH_DEGREE: 
DATE_TIME_FIRST_SAMPLE_YYYYMMDD_HHMMSS: 2023/02/06 01:18:01.8161850
DATE_TIME_FIRST_SAMPLE_PRECISION: millisecond
SAMPLING_INTERVAL_S: 0.01
NDATA: 21001
DURATION_S: 
STREAM: HNN
UNITS: cm/s^2
INSTRUMENT: sensor = ACEBOX/SARA | digitizer = 
INSTRUMENT_ANALOG/DIGITAL: 
INSTRUMENTAL_FREQUENCY_HZ: 
INSTRUMENTAL_DAMPING: 
FULL_SCALE_G: 
N_BIT_DIGITAL_CONVERTER: 
PGA_CM/S^2: 2.798
TIME_PGA_S: 
BASELINE_CORRECTION: BASELINE REMOVED
FILTER_TYPE: BUTTERWORTH
FILTER_ORDER: 
LOW_CUT_FREQUENCY_HZ: 
HIGH_CUT_FREQUENCY_HZ: 
LATE/NORMAL_TRIGGERED: 
DATABASE_VERSION: 
HEADER_FORMAT: DYNA 1.2
DATA_TYPE: Acceleration
PROCESSING: Automatic Paolucci et al., 2011
DATA_TIMESTAMP_YYYYMMDD_HHMMSS: 
DATA_LICENSE: U (unknown license)
DATA_CITATION: Turkish Accelerometric Archive v 1.0 - Disaster And Emergency Management Presidency, Earthquake Department
DATA_CREATOR: AFAD
ORIGINAL_DATA_MEDIATOR_CITATION: : AFAD - Disaster And Emergency Management Presidency
ORIGINAL_DATA_MEDIATOR: AFAD PROCESS SERVICE
ORIGINAL_DATA_CREATOR_CITATION: AFAD PROCESS SERVICE
ORIGINAL_DATA_CREATOR: network: TK
USER1: GuestUser
USER2: 
USER3: 
USER4: 
USER5: 
[...]
0.618961
0.702427
0.791738
0.862812
0.923834
0.980179
1.027640
1.080946
1.125602
1.174934
1.235721
1.282715
1.332514
1.382547
1.420656
1.458064
1.478638
1.487991
1.490329
1.473262
1.455961
1.433050
1.395175
1.364080
1.328543
1.283187
1.246247
1.203463
1.151560
1.109009
1.062484
1.002398
0.942079
0.885033
0.821440
0.749431
0.689112
0.642119
0.594424
0.549769
0.511427
0.486177
0.464902
0.431703
0.408791
0.393361
0.372320
0.356188
0.340056
0.328834
0.326029
0.326731
0.339824
0.363204
0.401313
0.449709
0.500444
0.567076
0.632072
0.687249
0.750608
0.803680
0.837347
0.871482
0.902110
0.921515
0.931335
0.938349
0.947702
0.948170
0.942325
0.937649
0.928298
0.914037
0.903984
0.892995
0.871019
0.848808
0.838288
0.818883
0.793633
0.776333
0.745472
0.708766
0.678606
0.634886
0.588595
0.547681
0.501857
0.462813
0.428445
0.390570
0.358307
0.333057
0.311080
0.285830
0.270868
0.272037
0.268998
0.277649
0.306874
0.329319
0.360414
0.401095
0.428683
0.461415
0.492277
0.514488
0.547220
0.572470
0.598188
0.634427
0.656405
0.683759
0.716024
0.732857
0.752730
0.771902
0.788268
0.806972
0.817727
0.830119
0.842277
0.852564
0.862618
0.866359
0.871970
0.871737
0.861216
0.853267
0.841344
0.821004
0.799495
0.773076
0.738241
0.706445
0.687975
0.668570
0.647996
0.640281
0.628826
0.612460
0.601472
0.583470
0.565468
0.550271
0.527360
0.509825
0.493927
0.467041
0.436414
0.394564
0.343129
0.290291
0.227166
0.157028
0.079875
-0.001252
-0.069989
-0.136153
-0.205590
-0.264975
-0.320150
-0.378833
-0.431203
-0.477027
-0.528930
-0.580365
-0.625955
-0.671312
-0.704277
-0.727890
-0.751503
-0.757348
-0.751269
-0.744722
-0.732798
-0.716666
-0.694688
-0.677855
-0.662424
-0.639277
-0.628289
-0.616131
-0.596492
-0.589711
-0.581294
-0.569136
-0.564694
-0.564460
-0.564226
-0.551600
-0.535000
-0.524713
-0.509516
-0.497826
-0.480290
-0.449663
-0.428854
-0.403370
-0.368066
-0.343517
-0.306343
-0.262389
-0.234099
-0.194120
-0.145022
-0.102470
-0.053373
-0.008016
0.031730
0.075918
0.113092
0.147928
0.186505
0.219471
0.251268
0.295923
0.345956
0.392950
0.444152
0.500965
0.564090
0.630723
0.695953
0.769132
0.841609
0.906137
0.969731
1.025842
1.077979
1.117024
1.148119
1.186696
1.211713
1.229715
1.253563
1.270163
1.285594
1.295414
1.300791
1.304065
1.290271
1.272737
1.248656
1.209145
1.164957
1.112821
1.064191
1.015328
0.955476
0.905678
0.861958
0.822446
0.799768
0.779195
0.763297
0.759089
0.754179
0.749036
0.743659
0.728229
0.710460
0.698303
0.676093
0.647570
0.630737
0.610631
0.583978
0.569717
0.559430
0.541896
0.529972
0.519452
0.498644
0.480642
0.468251
0.445573
0.424532
0.410036
0.386189
0.363044
0.340600
0.313246
0.297582
0.278411
0.250355
0.228379
0.200089
0.169696
0.145382
0.118261
0.086933
0.055838
0.035264
0.010015
-0.025756
-0.045395
-0.057552
-0.067371
-0.071111
-0.075553
-0.068539
-0.061291
-0.057082
-0.044457
-0.034403
-0.025519
-0.022245
-0.017569
-0.000735
0.003941
0.006513
0.015865
0.019373
0.031998
0.041116
0.044156
0.061925
0.073381
0.074551
0.082266
0.074551
0.051873
0.033637
0.003010
-0.035566
-0.064790
-0.097521
-0.130720
-0.155503
-0.169764
-0.165088
-0.153631
-0.141240
-0.116924
-0.080685
-0.040472
-0.004701
0.029668
0.069180
0.100041
0.127864
0.165272
0.194029
0.215772
0.243828
0.272352
0.303447
0.334075
0.373353
0.421282
0.460794
0.514334
0.570913
0.611127
0.668641
0.722883
0.764966
0.819208
0.859187
0.894959
0.931665
0.945459
0.962761
0.992220
1.011625
1.024017
1.044124
1.075920
1.110523
1.146762
1.180195
1.204510
1.230696
1.249166
1.251504
1.255479
1.249167
1.222047
1.191654
1.154246
1.100707
1.045064
0.983575
0.910397
0.841661
0.771522
0.699279
0.638025
0.575367
0.515749
0.470159
0.430414
0.395578
0.360509
0.336662
0.330818
0.315855
0.302762
0.306737
0.306971
0.305803
0.317025
0.332924
0.341575
0.352564
0.371268
0.384361
0.400961
0.421301
0.433459
0.448890
0.468529
0.488402
0.515056
0.544982
0.573506
0.600860
0.629384
0.651127
0.667026
0.684795
0.695082
0.701629
0.707474
0.699058
0.685965
0.670535
0.640142
0.607410
0.575848
0.534466
0.489811
0.449365
0.405411
0.357717
0.319608
0.279162
0.230298
0.185643
0.142391
0.105685
0.068278
0.022922
-0.013784
-0.048386
-0.086728
-0.120862
-0.157802
-0.191468
-0.219758
-0.241500
-0.253424
-0.265581
-0.268386
-0.259735
-0.246175
-0.219989
-0.189595
-0.159669
-0.123196
-0.083450
-0.042068
-0.000685
0.043269
0.089327
0.131177
0.170923
0.210903
0.254623
0.299980
0.333180
0.363808
0.391630
0.406359
0.418985
0.424830
0.421090
0.407997
0.378773
0.350484
0.316116
0.261875
0.213012
0.165785
0.104297
0.042808
-0.012134
-0.068011
-0.123654
-0.173453
-0.217406
-0.250605
-0.277491
-0.299468
-0.307417
-0.318873
-0.332433
-0.337108
-0.354409
-0.376853
-0.393219
-0.410052
-0.425482
-0.445588
-0.463123
-0.475280
-0.489775
-0.495853
-0.503334
-0.512920
-0.510582
-0.512218
-0.516192
-0.516893
-0.523673
-0.523205
-0.516425
-0.509410
-0.494915
-0.479250
-0.457506
-0.434594
-0.418929
-0.397419
-0.378949
-0.362817
-0.346684
-0.349490
-0.357438
-0.361179
-0.380818
-0.410042
-0.437162
-0.471764
-0.516419
-0.561307
-0.611340
-0.673997
-0.737122
-0.797909
-0.863606
-0.927432
-0.992193
-1.059994
-1.117508
-1.169878
-1.224119
-1.267839
-1.303376
-1.334003
-1.353641
-1.370475
-1.385671
-1.390347
-1.395256
-1.411388
-1.421675
-1.425883
-1.446456
-1.468433
-1.485967
-1.520102
-1.554002
-1.583694
-1.621335
-1.657807
-1.695915
-1.731219
-1.759741
-1.790135
-1.814449
-1.834322
-1.855831
-1.872898
-1.878742
-1.878976
-1.877573
-1.863778
-1.846477
-1.834553
-1.813745
-1.798781
-1.795742
-1.784987
-1.778674
-1.782648
-1.782180
-1.789428
-1.801351
-1.804858
-1.814209
-1.824963
-1.829171
-1.830808
-1.831275
-1.833379
-1.822156
-1.804154
-1.791996
-1.759030
-1.720453
-1.688189
-1.633246
-1.568718
-1.498578
-1.415580
-1.331646
-1.232048
-1.125437
-1.024670
-0.913849
-0.809342
-0.715822
-0.626745
-0.552865
-0.486934
-0.432459
-0.382660
-0.324210
-0.275112
-0.224612
-0.159850
-0.099763
-0.036170
0.035372
0.103641
0.172846
0.245089
0.312891
0.374146
0.438441
0.497358
0.546689
0.599995
0.652834
0.700061
0.753134
0.803634
0.841510
0.881489
0.921937
0.952330
0.987167
1.018730
1.038836
1.061749
1.080453
1.092377
1.101495
1.108042
1.120200
1.125811
1.129085
1.142879
1.148257
1.143114
1.137970
1.129320
1.115059
1.094953
1.062689
1.024113
0.994421
0.954208
0.907683
0.874718
0.830530
0.784706
0.749169
0.698903
0.644896
0.593695
0.527765
0.454119
0.383980
0.308931
0.225232
0.147612
0.072330
-0.006694
-0.081508
-0.149543
-0.208927
-0.266909
-0.323487
-0.374922
-0.424721
-0.467505
-0.506549
-0.539982
-0.560088
-0.573180
-0.582298
-0.579726
-0.561256
-0.542084
-0.521276
-0.478958
-0.429627
-0.387309
-0.342420
-0.286074
-0.224351
-0.174786
-0.129897
-0.078695
-0.028428
0.015526
0.047791
0.072807
0.093616
0.104371
0.110683
0.111853
0.107645
0.100631
0.087539
0.072108
0.048261
0.011322
-0.023981
-0.062324
-0.113525
-0.164259
-0.219434
-0.285833
-0.355270
-0.429150
-0.506069
-0.585559
-0.678377
-0.778909
-0.879909
-0.986754
-1.096171
-1.195067
-1.279701
-1.362699
-1.438683
-1.489884
-1.531500
-1.571946
-1.590650
-1.597897
-1.610989
-1.616366
-1.610521
-1.604208
-1.599766
-1.597661
-1.600233
-1.607714
-1.613091
-1.618468
-1.633197
-1.638340
-1.628754
-1.628520
-1.614024
-1.569602
-1.529155
-1.484499
-1.420205
-1.346792
-1.272211
-1.199733
-1.113695
-1.025320
-0.950037
-0.852309
-0.749438
-0.664803
-0.562633
-0.453216
-0.346604
-0.230640
-0.134082
-0.035886
0.077739
0.170090
0.251451
0.331410
0.401316
0.466780
0.522424
0.568950
0.606825
0.641895
0.674861
0.699644
0.725362
0.746638
0.766043
0.793865
0.822155
0.844366
0.871019
0.914272
0.947472
0.977866
1.031873
1.058059
1.070450
1.107858
1.128667
1.141760
1.156723
1.171920
1.197170
1.212835
1.247204
1.291625
1.305420
1.331372
1.359895
1.362234
1.358493
1.339790
1.311968
1.279704
1.230841
1.183848
1.134050
1.066950
1.007098
0.954962
0.895110
0.834089
0.771666
0.716958
0.666458
0.604969
0.557976
0.515192
0.458146
0.421674
0.390111
0.345924
0.307114
0.270408
0.240482
0.216402
0.191152
0.161226
0.126858
0.103479
0.078229
0.043394
0.020482
-0.004300
-0.039136
-0.076309
-0.120029
-0.170997
-0.224302
-0.277607
-0.339797
-0.398480
-0.446642
-0.504857
-0.558396
-0.599544
-0.646303
-0.690491
-0.725560
-0.761798
-0.795231
-0.819312
-0.841288
-0.853679
-0.856718
-0.868174
-0.871915
-0.864667
-0.872849
-0.887110
-0.894592
-0.903008
-0.926855
-0.958885
-0.980862
-1.012424
-1.057546
-1.097525
-1.141479
-1.196187
-1.254870
-1.318696
-1.388368
-1.457571
-1.528178
-1.606967
-1.678041
-1.743270
-1.816682
-1.882145
-1.940594
-1.997173
-2.042295
-2.086483
-2.126462
-2.147737
-2.159426
-2.163167
-2.151243
-2.131604
-2.106353
-2.068945
-2.021016
-1.964671
-1.910664
-1.856656
-1.786517
-1.721287
-1.665409
-1.595971
-1.539392
-1.494035
-1.439559
-1.398411
-1.355859
-1.306294
-1.273562
-1.238492
-1.201084
-1.171625
-1.144271
-1.117384
-1.083249
-1.058233
-1.031813
-0.977806
-0.934085
-0.896444
-0.839864
-0.789364
-0.740032
-0.693272
-0.657033
-0.610975
-0.576607
-0.552759
-0.514182
-0.486827
-0.473968
-0.454797
-0.437729
-0.421831
-0.397749
-0.377175
-0.362679
-0.327843
-0.291604
-0.278511
-0.245545
-0.209774
-0.198317
-0.174704
-0.154129
-0.145244
-0.136827
-0.138464
-0.139632
-0.144542
-0.154361
-0.160907
-0.181247
-0.205094
-0.216316
-0.223096
-0.231746
-0.245773
-0.262373
-0.271490
-0.274062
-0.278971
-0.278737
-0.266813
-0.254422
-0.235484
-0.202518
-0.173761
-0.147107
-0.112271
-0.083046
-0.053587
-0.019687
0.001122
0.023567
0.046947
0.066820
0.091603
0.100721
0.109372
0.126907
0.122933
0.114049
0.107503
0.086461
0.059341
0.026844
-0.017811
-0.072753
-0.126059
-0.176559
-0.235475
-0.289248
-0.339514
-0.398431
-0.451503
-0.497093
-0.544320
-0.587338
-0.614926
-0.629655
-0.643214
-0.652566
-0.650929
-0.644382
-0.635965
-0.618197
-0.589673
-0.562318
-0.538704
-0.511817
-0.482359
-0.456641
-0.433261
-0.408478
-0.387670
-0.362419
-0.335064
-0.320803
-0.299760
-0.278485
-0.276848
-0.268664
-0.260014
-0.261182
-0.261883
-0.265390
-0.256739
-0.241308
-0.238035
-0.218863
-0.184261
-0.156205
-0.123005
-0.090039
-0.060581
-0.022238
0.009092
0.028731
0.053981
0.081804
0.106820
0.127628
0.149372
0.180935
0.205718
0.222551
0.245698
0.254582
0.251076
0.249206
0.238685
0.225593
0.210162
0.189822
0.175561
0.159429
0.147740
0.144467
0.134648
0.122491
0.120387
0.117815
0.106593
0.099346
0.095606
0.090462
0.087657
0.074097
0.064512
0.069422
0.062408
0.060071
0.070592
0.071761
0.075269
0.082984
0.099117
0.130212
0.163879
0.211106
0.275401
0.348112
0.440462
0.542398
0.643633
0.753284
0.862234
0.962066
1.058157
1.149572
1.237948
1.318842
1.392021
1.464030
1.534871
1.599867
1.655745
1.710922
1.770307
1.821041
1.867099
1.916197
1.965762
2.021640
2.077518
2.125447
2.177116
2.236267
2.291210
2.342880
2.397355
2.446219
2.489939
2.537166
2.573405
2.603098
2.636064
2.662951
2.689136
2.711114
2.723271
2.732624
2.733325
2.729117
2.724442
2.716025
2.702465
2.681424
2.657343
2.629755
2.596323
2.568033
2.542082
2.511221
2.478490
2.449500
2.419574
2.379595
2.344759
2.311794
2.261762
2.211496
2.164269
2.102547
2.040591
1.977700
1.896105
1.814276
1.743436
1.656698
1.562711
1.485792
1.408406
1.325642
1.251996
1.191443
1.133462
1.078052
1.039943
1.005108
0.967934
0.945490
0.919539
0.890081
0.878158
0.861558
0.840984
0.829529
0.810591
0.789550
0.773185
0.746064
0.712632
0.684810
0.649273
0.605787
0.565575
0.519517
0.465978
0.415244
0.358665
0.290631
0.216751
0.140767
0.058471
-0.034814
-0.133710
-0.241724
-0.361662
-0.482301
-0.606914
-0.735502
-0.854972
-0.964623
-1.071234
-1.165922
-1.243776
-1.319058
-1.383820
-1.432449
-1.487859
-1.540931
-1.583014
-1.626266
-1.666946
-1.709965
-1.747606
-1.779870
-1.817744
-1.840422
-1.857489
-1.880401
-1.883674
-1.878296
-1.869412
-1.844161
-1.818911
-1.786413
-1.738484
-1.697101
-1.656654
-1.609661
-1.574123
-1.545132
-1.511932
-1.482006
-1.456522
-1.427998
-1.402748
-1.381004
-1.354351
-1.331205
-1.313202
-1.293563
-1.278132
-1.269481
-1.271117
-1.277897
-1.286547
-1.297769
-1.307822
-1.322317
-1.335176
-1.338682
-1.342890
-1.347332
-1.343825
-1.332369
-1.324419
-1.317873
-1.301740
-1.287712
-1.272281
-1.253811
-1.238380
-1.211025
-1.182502
-1.158654
-1.120545
-1.085709
-1.048301
-0.991488
-0.942624
-0.890720
-0.821984
-0.761196
-0.699707
-0.632841
-0.576495
-0.510097
-0.434813
-0.370986
-0.304354
-0.237488
-0.174830
-0.114510
-0.068217
-0.025900
0.017821
0.054995
0.091701
0.127940
0.169089
0.210004
0.246476
0.300250
0.359869
0.413175
0.483080
0.560234
0.632010
0.705423
0.778134
0.845702
0.901813
0.956522
1.013803
1.051211
1.083709
1.123689
1.147536
1.168344
1.198738
1.216741
1.233575
1.260929
1.279867
1.298104
1.324056
1.344163
1.372686
1.411731
1.448905
1.497535
1.553413
1.612798
1.685275
1.761493
1.844959
1.942687
2.043220
2.138142
2.230960
2.331025
2.426181
2.504504
2.578851
2.647588
2.706038
2.749758
2.776411
2.796051
2.798155
2.786700
2.773373
2.741577
2.698793
2.655073
2.598728
2.537941
2.473881
2.406782
2.337812
2.264166
2.200340
2.135812
2.062867
1.999275
1.939189
1.876298
1.816446
1.759634
1.707731
1.654893
1.602289
1.557634
1.518824
1.478378
1.440035
1.406836
1.372001
1.343010
1.319163
1.289939
1.265858
1.249025
1.234764
1.228919
1.230790
1.232427
1.243416
1.270069
1.291111
1.309581
1.342547
1.376214
1.411752
1.450329
1.486801
1.531925
1.575177
1.612585
1.651863
1.677582
1.701195
1.728082
1.738604
1.747488
1.761516
1.766193
1.772973
1.786534
1.797990
1.813655
1.830722
1.840542
1.847323
1.847790
1.842881
1.837270
1.815527
1.780458
1.749363
1.709151
1.654442
1.602306
1.549936
1.491487
1.432336
1.375056
1.318478
1.263302
1.209061
1.159497
1.121154
1.087488
1.059198
1.047743
1.039093
1.033716
1.041899
1.045172
1.054758
1.073930
1.080710
1.094972
1.115313
1.125600
1.143369
1.163009
1.175868
1.190364
1.205093
1.216550
1.221927
1.232215
1.249984
1.257933
1.263077
1.276637
1.285054
1.283886
1.281080
1.275470
1.257234
1.233387
1.204162
1.166054
1.128179
1.082823
1.032323
0.990473
0.943013
0.890409
0.846221
0.804372
0.757613
0.708516
0.664796
0.620375
0.573148
0.531065
0.487111
0.446197
0.410660
0.380033
0.357355
0.325793
0.299842
0.285113
0.254486
0.234613
0.229470
0.214274
0.200714
0.190427
0.186687
0.181310
0.170088
0.178738
0.183882
0.180609
0.187624
0.190897
0.194638
0.191599
0.188794
0.198848
0.198614
0.203524
0.215448
0.218955
0.227606
0.233452
0.235322
0.236024
0.227374
0.218256
0.202592
0.171731
0.142039
0.115854
0.078914
0.038935
0.012517
-0.028398
-0.081235
-0.116305
-0.161427
-0.218240
-0.256816
-0.294457
-0.340748
-0.373714
-0.393118
-0.413458
-0.430058
-0.435902
-0.435902
-0.433797
-0.430758
-0.421873
-0.415794
-0.419301
-0.415092
-0.411351
-0.418365
-0.423975
-0.430054
-0.440107
-0.450627
-0.461148
-0.476578
-0.494814
-0.514219
-0.548119
-0.581084
-0.609373
-0.660341
-0.708737
-0.747079
-0.804593
-0.859301
-0.908866
-0.973393
-1.030673
-1.072523
-1.112034
-1.148272
-1.177964
-1.202513
-1.221450
-1.231737
-1.235477
-1.237113
-1.238048
-1.228229
-1.211395
-1.195496
-1.170012
-1.144762
-1.119277
-1.081402
-1.049138
-1.016639
-0.979232
-0.944629
-0.899038
-0.862566
-0.829132
-0.779333
-0.747069
-0.717844
-0.677397
-0.653081
-0.624558
-0.589488
-0.573356
-0.558626
-0.536181
-0.524959
-0.518412
-0.508358
-0.500175
-0.487784
-0.481938
-0.474456
-0.448505
-0.435879
-0.425124
-0.391691
-0.373688
-0.357088
-0.322486
-0.300275
-0.274557
-0.239955
-0.211899
-0.175660
-0.139888
-0.105286
-0.061098
-0.022521
0.009743
0.035695
0.059075
0.082221
0.085729
0.084092
0.088067
0.076845
0.062350
0.056272
0.047622
0.036633
0.034997
0.040141
0.046454
0.059547
0.067263
0.070302
0.079421
0.078953
0.073343
0.066095
0.048093
0.026584
0.002971
-0.015733
-0.029760
-0.046126
-0.052438
-0.055009
-0.054775
-0.045423
-0.038175
-0.022978
-0.001936
0.007183
0.020743
0.040616
0.039448
0.024251
0.020277
0.010926
-0.023442
-0.059681
-0.094048
-0.142678
-0.198789
-0.255835
-0.316388
-0.389333
-0.472097
-0.551587
-0.641833
-0.744703
-0.842898
-0.943898
-1.049574
-1.147769
-1.238482
-1.328961
-1.409387
-1.471343
-1.536338
-1.599463
-1.643650
-1.683395
-1.714023
-1.734830
-1.752832
-1.765925
-1.777848
-1.782056
-1.785563
-1.788602
-1.778548
-1.774573
-1.764753
-1.742308
-1.729449
-1.704433
-1.673104
-1.649957
-1.616056
-1.584727
-1.555035
-1.521835
-1.496117
-1.464086
-1.429250
-1.396752
-1.358175
-1.324041
-1.291075
-1.249692
-1.214389
-1.186333
-1.153367
-1.118765
-1.090942
-1.073407
-1.060548
-1.041376
-1.027582
-1.026413
-1.021503
-1.017528
-1.023139
-1.028282
-1.029684
-1.036698
-1.046751
-1.046049
-1.039970
-1.041840
-1.042775
-1.037397
-1.028513
-1.014017
-0.996950
-0.979414
-0.951826
-0.911379
-0.869295
-0.828848
-0.782555
-0.727847
-0.669163
-0.608609
-0.549458
-0.491944
-0.426246
-0.364524
-0.304204
-0.234532
-0.182161
-0.137271
-0.086537
-0.053571
-0.020839
0.010022
0.019842
0.028727
0.034104
0.032234
0.031767
0.023584
0.010024
0.002076
-0.007744
-0.026681
-0.038370
-0.043514
-0.054268
-0.053099
-0.050526
-0.056839
-0.055669
-0.052630
-0.043044
-0.033925
-0.032288
-0.020131
-0.014285
-0.013116
-0.003062
-0.006101
-0.009140
-0.004932
-0.012179
-0.022466
-0.030649
-0.041403
-0.056833
-0.069458
-0.080914
-0.097279
-0.108033
-0.121360
-0.131880
-0.129776
-0.141933
-0.158064
-0.164610
-0.181911
-0.201784
-0.216279
-0.230774
-0.247373
-0.264674
-0.279169
-0.294132
-0.302548
-0.302548
-0.310730
-0.321952
-0.319380
-0.314938
-0.319847
-0.325458
-0.328029
-0.333172
-0.353512
-0.380165
-0.399804
-0.430431
-0.466201
-0.499634
-0.543588
-0.580527
-0.614895
-0.656978
-0.692749
-0.729455
-0.772473
-0.812920
-0.854535
-0.907841
-0.959977
-1.001593
-1.050924
-1.096280
-1.130414
-1.166653
-1.192136
-1.214113
-1.228374
-1.222295
-1.223931
-1.217385
-1.194940
-1.183016
-1.158467
-1.131346
-1.118253
-1.089262
-1.058634
-1.047178
-1.034318
-1.022161
-1.025200
-1.033382
-1.044604
-1.061905
-1.077335
-1.100481
-1.131576
-1.154955
-1.183010
-1.218547
-1.248473
-1.278399
-1.312533
-1.342458
-1.366072
-1.390386
-1.412129
-1.427793
-1.446964
-1.463563
-1.465200
-1.461225
-1.459354
-1.451638
-1.436441
-1.416568
-1.392253
-1.371445
-1.353676
-1.330062
-1.308552
-1.289381
-1.269040
-1.250570
-1.226254
-1.203576
-1.185573
-1.158686
-1.132267
-1.108653
-1.077324
-1.046228
-1.019107
-0.992220
-0.966035
-0.943590
-0.925587
-0.901506
-0.882568
-0.881632
-0.869474
-0.848199
-0.840717
-0.829494
-0.815700
-0.813595
-0.807750
-0.801437
