EVENT_NAME: 202302060117
EVENT_ID: 13194
EVENT_DATE_YYYYMMDD: 2023/02/06
EVENT_TIME_HHMMSS: 01:17:32.00000
EVENT_LATITUDE_DEGREE: 37.288
EVENT_LONGITUDE_DEGREE: 37.043
EVENT_DEPTH_KM: 8.6
HYPOCENTER_REFERENCE: AFAD
MAGNITUDE_W: 7.7
MAGNITUDE_W_REFERENCE: AFAD
MAGNITUDE_L: 
MAGNITUDE_L_REFERENCE: 
FOCAL_MECHANISM: 
NETWORK: TK
STATION_CODE: 0510
STATION_NAME: 
STATION_LATITUDE_DEGREE: 40.881525
STATION_LONGITUDE_DEGREE: 35.203395
STATION_ELEVATION_M: 846.0
LOCATION: Kahramanmaras_Pazarck_Turkiye
SENSOR_DEPTH_M: 
VS30_M/S: 363
SITE_CLASSIFICATION_EC8: B
MORPHOLOGIC_CLASSIFICATION: 
EPICENTRAL_DISTANCE_KM: 429.94
EARTHQUAKE_BACKAZIMUTH_DEGREE: 
DATE_TIME_FIRST_SAMPLE_YYYYMMDD_HHMMSS: 2023/02/06 01:18:06.6613890
DATE_TIME_FIRST_SAMPLE_PRECISION: millisecond
SAMPLING_INTERVAL_S: 0.01
NDATA: 21001
DURATION_S: 
STREAM: HNZ
UNITS: cm/s^2
INSTRUMENT: sensor = GMS+/GEOSIG | digitizer = 
INSTRUMENT_ANALOG/DIGITAL: 
INSTRUMENTAL_FREQUENCY_HZ: 
INSTRUMENTAL_DAMPING: 
FULL_SCALE_G: 
N_BIT_DIGITAL_CONVERTER: 
PGA_CM/S^2: 1.973
TIME_PGA_S: 
BASELINE_CORRECTION: BASELINE REMOVED
FILTER_TYPE: BUTTERWORTH
FILTER_ORDER: 
LOW_CUT_FREQUENCY_HZ: 
HIGH_CUT_FREQUENCY_HZ: 
LATE/NORMAL_TRIGGERED: 
DATABASE_VERSION: 
HEADER_FORMAT: DYNA 1.2
DATA_TYPE: Acceleration
PROCESSING: Automatic Paolucci et al., 2011
DATA_TIMESTAMP_YYYYMMDD_HHMMSS: 
DATA_LICENSE: U (unknown license)
DATA_CITATION: Turkish Accelerometric Archive v 1.0 - Disaster And Emergency Management Presidency, Earthquake Department
DATA_CREATOR: AFAD
ORIGINAL_DATA_MEDIATOR_CITATION: : AFAD - Disaster And Emergency Management Presidency
ORIGINAL_DATA_MEDIATOR: AFAD PROCESS SERVICE
ORIGINAL_DATA_CREATOR_CITATION: AFAD PROCESS SERVICE
ORIGINAL_DATA_CREATOR: network: TK
USER1: GuestUser
USER2: 
USER3: 
USER4: 
USER5: 
[...]
0.826542
0.806020
0.786018
0.768873
0.750170
0.731207
0.714841
0.698995
0.683669
0.669382
0.653536
0.639248
0.621844
0.601582
0.583918
0.565734
0.548070
0.530146
0.513521
0.499233
0.483387
0.468840
0.455852
0.442084
0.431693
0.422601
0.414289
0.407535
0.399482
0.392468
0.384935
0.375583
0.362855
0.348827
0.335839
0.318694
0.299990
0.278689
0.254531
0.232451
0.207773
0.181017
0.155559
0.129842
0.108022
0.088279
0.072953
0.063601
0.052171
0.044119
0.043079
0.046456
0.055029
0.069835
0.091916
0.121789
0.156338
0.194264
0.233229
0.275831
0.323628
0.369347
0.415326
0.461045
0.504167
0.544171
0.581058
0.617426
0.650416
0.678471
0.698993
0.713280
0.724450
0.727567
0.724709
0.717955
0.710162
0.699252
0.681588
0.665742
0.646779
0.620802
0.593007
0.562614
0.531182
0.497152
0.456109
0.415065
0.375321
0.328563
0.276609
0.224136
0.166208
0.103863
0.042298
-0.020046
-0.082391
-0.146293
-0.209417
-0.270203
-0.330989
-0.385280
-0.437494
-0.488408
-0.533088
-0.573872
-0.611798
-0.649205
-0.683234
-0.712328
-0.737006
-0.757268
-0.773634
-0.786882
-0.797273
-0.801948
-0.799870
-0.792857
-0.782986
-0.771816
-0.759087
-0.744540
-0.731552
-0.719083
-0.706354
-0.694145
-0.683235
-0.674663
-0.666610
-0.660376
-0.654661
-0.650764
-0.644270
-0.637776
-0.639075
-0.641413
-0.645569
-0.653102
-0.660376
-0.666870
-0.672066
-0.677001
-0.680898
-0.684015
-0.687652
-0.689730
-0.688171
-0.686093
-0.685314
-0.680119
-0.672845
-0.667650
-0.662974
-0.658558
-0.655181
-0.653363
-0.646349
-0.640375
-0.640894
-0.635179
-0.630504
-0.628426
-0.622451
-0.618035
-0.613359
-0.604527
-0.592058
-0.580109
-0.564523
-0.544001
-0.521661
-0.496204
-0.470487
-0.442692
-0.413078
-0.382686
-0.350734
-0.315146
-0.273843
-0.230981
-0.186561
-0.140842
-0.092785
-0.039273
0.014239
0.068271
0.123342
0.175295
0.226989
0.277384
0.322843
0.369602
0.414541
0.451169
0.485458
0.514552
0.539749
0.562609
0.578195
0.586248
0.590144
0.590664
0.588585
0.585208
0.577156
0.571181
0.567804
0.565466
0.567284
0.569362
0.579233
0.592222
0.603911
0.623394
0.647812
0.672230
0.697428
0.721586
0.746264
0.772760
0.795620
0.819259
0.847054
0.871212
0.895630
0.916671
0.932777
0.950441
0.964988
0.974340
0.979795
0.978496
0.970443
0.959013
0.945765
0.931737
0.916671
0.896149
0.872770
0.846793
0.818219
0.792761
0.769902
0.742886
0.712753
0.682879
0.654824
0.628328
0.600013
0.568581
0.538708
0.508575
0.476363
0.446750
0.422851
0.399992
0.371937
0.345440
0.323879
0.306995
0.296344
0.285693
0.272185
0.259717
0.248806
0.242312
0.237896
0.228544
0.218673
0.210101
0.202567
0.197372
0.193216
0.190358
0.182305
0.178928
0.187241
0.192176
0.193215
0.196852
0.203346
0.211139
0.210100
0.206723
0.204905
0.201528
0.201528
0.196852
0.192955
0.195813
0.195293
0.191137
0.183344
0.175550
0.168796
0.162562
0.155548
0.146976
0.145417
0.151132
0.159445
0.169316
0.182564
0.197890
0.211658
0.234257
0.261273
0.285951
0.318422
0.349075
0.372454
0.396872
0.423628
0.450904
0.475322
0.496363
0.510910
0.525457
0.536887
0.541043
0.547277
0.549096
0.541302
0.532211
0.521560
0.507792
0.489608
0.467009
0.442071
0.410639
0.379207
0.352711
0.322837
0.296341
0.274520
0.251401
0.232698
0.216592
0.201006
0.188797
0.176328
0.164898
0.157105
0.149571
0.141519
0.138142
0.136063
0.130868
0.128530
0.132686
0.134505
0.133466
0.137102
0.140219
0.144116
0.156325
0.166196
0.174509
0.191653
0.213474
0.238411
0.266466
0.296599
0.332447
0.365957
0.395051
0.425704
0.454798
0.480515
0.502075
0.517402
0.525714
0.529870
0.530130
0.524155
0.511427
0.494282
0.475059
0.455057
0.427522
0.396349
0.366996
0.334005
0.301794
0.270362
0.240229
0.214252
0.192951
0.174507
0.156323
0.145933
0.139179
0.128528
0.121255
0.117098
0.113202
0.108786
0.101772
0.093459
0.084627
0.073197
0.059949
0.045142
0.027738
0.009294
-0.007071
-0.024995
-0.045257
-0.062662
-0.077728
-0.090977
-0.103186
-0.114875
-0.123967
-0.128383
-0.130461
-0.134358
-0.132540
-0.124227
-0.115395
-0.108901
-0.106044
-0.102147
-0.092536
-0.084483
-0.080586
-0.077210
-0.076430
-0.070715
-0.065001
-0.063702
-0.062923
-0.061624
-0.053311
-0.044999
-0.042921
-0.039024
-0.032790
-0.031491
-0.033569
-0.036686
-0.044999
-0.056169
-0.066820
-0.082665
-0.100070
-0.121371
-0.146828
-0.165532
-0.186053
-0.210731
-0.230474
-0.246060
-0.261646
-0.280090
-0.299053
-0.316197
-0.330485
-0.345551
-0.363475
-0.379841
-0.397505
-0.417247
-0.435431
-0.456213
-0.476215
-0.494918
-0.515959
-0.536481
-0.556743
-0.576745
-0.601423
-0.623503
-0.638310
-0.656494
-0.673379
-0.690784
-0.707928
-0.718839
-0.730009
-0.737542
-0.741698
-0.741958
-0.740659
-0.743777
-0.745595
-0.747673
-0.742218
-0.736243
-0.742478
-0.745335
-0.742998
-0.741179
-0.737283
-0.733127
-0.733906
-0.734945
-0.733646
-0.738322
-0.745336
-0.753129
-0.759883
-0.763000
-0.772352
-0.784041
-0.790536
-0.797809
-0.810018
-0.821708
-0.825864
-0.825864
-0.824306
-0.822487
-0.820150
-0.811577
-0.794173
-0.773651
-0.753649
-0.725854
-0.693903
-0.658055
-0.617531
-0.578306
-0.539860
-0.504792
-0.468684
-0.428160
-0.390494
-0.358023
-0.327890
-0.295419
-0.262688
-0.232296
-0.203461
-0.177744
-0.146832
-0.115140
-0.091242
-0.064486
-0.041626
-0.025261
-0.002661
0.016302
0.028771
0.047214
0.064878
0.080205
0.096050
0.103064
0.106181
0.108779
0.102544
0.091115
0.075009
0.051110
0.024614
-0.003441
-0.031496
-0.063448
-0.102153
-0.142937
-0.178785
-0.205541
-0.228920
-0.250481
-0.263469
-0.269704
-0.275678
-0.279575
-0.284511
-0.289446
-0.289446
-0.291005
-0.294642
-0.303734
-0.308929
-0.304773
-0.306591
-0.309449
-0.308410
-0.306332
-0.300617
-0.290486
-0.276978
-0.261392
-0.241130
-0.218790
-0.195411
-0.169434
-0.148913
-0.137223
-0.127352
-0.113065
-0.097998
-0.082672
-0.070982
-0.060592
-0.046305
-0.034875
-0.025783
-0.021107
-0.021367
-0.022666
-0.024744
-0.033317
-0.050981
-0.068905
-0.089427
-0.113585
-0.140341
-0.170214
-0.199828
-0.232039
-0.265290
-0.301657
-0.334388
-0.360105
-0.391537
-0.426606
-0.463493
-0.500899
-0.534669
-0.563763
-0.587922
-0.614938
-0.644551
-0.671048
-0.694167
-0.719884
-0.748718
-0.774955
-0.801971
-0.834702
-0.864315
-0.886655
-0.907697
-0.927959
-0.948221
-0.969262
-0.985108
-1.000694
-1.019657
-1.032645
-1.043815
-1.056025
-1.062779
-1.067974
-1.076027
-1.085119
-1.091613
-1.098367
-1.104601
-1.108758
-1.111096
-1.109797
-1.111875
-1.114473
-1.117850
-1.122006
-1.122526
-1.124864
-1.125903
-1.122006
-1.117850
-1.108758
-1.093692
-1.085120
-1.076547
-1.061221
-1.044076
-1.026672
-1.007449
-0.984330
-0.961990
-0.944845
-0.928220
-0.913154
-0.900945
-0.887177
-0.877046
-0.868214
-0.853667
-0.843276
-0.837561
-0.829768
-0.823534
-0.816780
-0.805091
-0.795479
-0.786647
-0.775217
-0.764307
-0.750280
-0.732096
-0.713912
-0.698326
-0.678584
-0.659102
-0.642736
-0.621435
-0.601953
-0.581171
-0.554675
-0.528438
-0.502202
-0.480122
-0.458301
-0.434922
-0.412063
-0.390762
-0.370760
-0.347640
-0.327638
-0.312312
-0.296466
-0.275945
-0.253605
-0.237239
-0.222173
-0.206067
-0.187364
-0.162946
-0.138268
-0.116707
-0.094367
-0.069949
-0.048388
-0.025269
-0.000851
0.018891
0.037335
0.058896
0.075521
0.085132
0.096042
0.110589
0.122279
0.135007
0.150334
0.168777
0.190598
0.210600
0.233459
0.253981
0.272424
0.295024
0.313987
0.328014
0.337106
0.343081
0.348016
0.350095
0.351134
0.352692
0.356589
0.358667
0.357368
0.355290
0.351133
0.346977
0.340483
0.331910
0.326715
0.322039
0.318143
0.313986
0.306972
0.303595
0.302816
0.298919
0.295283
0.292425
0.289048
0.288269
0.282034
0.274761
0.274501
0.266708
0.256837
0.249823
0.238653
0.226444
0.212936
0.199947
0.190076
0.178906
0.166957
0.157085
0.147734
0.138382
0.129550
0.121237
0.114743
0.113704
0.118120
0.119938
0.123315
0.132927
0.144356
0.159423
0.176827
0.201245
0.228781
0.252160
0.275539
0.298918
0.320998
0.340481
0.357625
0.373211
0.388538
0.403604
0.417372
0.431139
0.444907
0.459454
0.473481
0.484911
0.496341
0.508810
0.517642
0.522837
0.532708
0.545956
0.555568
0.562062
0.570115
0.580765
0.592455
0.604404
0.621549
0.641810
0.663631
0.688569
0.714286
0.746497
0.779747
0.812997
0.849365
0.881836
0.918723
0.958727
0.993536
1.024968
1.052243
1.078220
1.101339
1.115367
1.127576
1.141863
1.150695
1.152513
1.150175
1.144980
1.135368
1.120302
1.103677
1.082376
1.055620
1.030162
1.001068
0.968857
0.940542
0.911188
0.880276
0.849883
0.822867
0.798709
0.773511
0.751691
0.732468
0.712206
0.694801
0.682332
0.669084
0.657135
0.646744
0.634535
0.625963
0.618949
0.606999
0.597128
0.592193
0.592452
0.597648
0.600765
0.599985
0.604401
0.609597
0.611675
0.616610
0.619987
0.623104
0.631677
0.642587
0.655056
0.667525
0.677915
0.687267
0.698177
0.710126
0.723894
0.738441
0.747533
0.753507
0.761300
0.766496
0.766755
0.765457
0.761040
0.752988
0.745454
0.736882
0.722595
0.707788
0.692721
0.674537
0.655315
0.638170
0.618947
0.595308
0.574786
0.555823
0.536860
0.517118
0.495297
0.470619
0.447500
0.428277
0.408535
0.388532
0.372167
0.360218
0.346190
0.330604
0.317875
0.304108
0.289820
0.277351
0.265402
0.252933
0.243062
0.237087
0.231892
0.228774
0.229814
0.232931
0.238126
0.248517
0.262804
0.280468
0.301769
0.326447
0.353463
0.378400
0.403858
0.424639
0.440485
0.458668
0.475294
0.484905
0.489321
0.489581
0.485944
0.481788
0.472696
0.456850
0.439186
0.416326
0.389570
0.363853
0.334239
0.303327
0.277090
0.249295
0.218902
0.191626
0.167208
0.138374
0.108500
0.084082
0.061482
0.043039
0.029531
0.016283
0.005372
0.000696
-0.005798
-0.014630
-0.014890
-0.009175
-0.000603
0.010827
0.021997
0.034985
0.053948
0.080185
0.104863
0.130060
0.158635
0.187469
0.222278
0.261503
0.297610
0.331640
0.365670
0.396582
0.425416
0.459705
0.490618
0.518413
0.548286
0.576081
0.602318
0.628295
0.655570
0.680508
0.698951
0.719733
0.740774
0.757659
0.773504
0.790389
0.805975
0.814548
0.823380
0.831952
0.833511
0.831432
0.820003
0.803637
0.787791
0.771686
0.757918
0.738955
0.713497
0.685962
0.655829
0.625956
0.596602
0.567508
0.542830
0.519970
0.497630
0.477888
0.460483
0.444897
0.432168
0.423076
0.416063
0.410088
0.405152
0.400217
0.395021
0.389826
0.380994
0.373980
0.369824
0.364628
0.362290
0.360472
0.360991
0.364888
0.367485
0.369044
0.370343
0.373720
0.373720
0.367745
0.361251
0.355536
0.350340
0.342807
0.327481
0.316311
0.305920
0.286957
0.269033
0.249550
0.225911
0.204350
0.187725
0.169541
0.146942
0.125121
0.097326
0.070050
0.049788
0.027188
0.002770
-0.024246
-0.053600
-0.077498
-0.098799
-0.123477
-0.149454
-0.174132
-0.200629
-0.228684
-0.258037
-0.287911
-0.310511
-0.324798
-0.340384
-0.360646
-0.376752
-0.389740
-0.399351
-0.405846
-0.412340
-0.413379
-0.409742
-0.405846
-0.401430
-0.393637
-0.384545
-0.375973
-0.370258
-0.363504
-0.352074
-0.343502
-0.334150
-0.324799
-0.317006
-0.304537
-0.293367
-0.284275
-0.275183
-0.264273
-0.251025
-0.239076
-0.227126
-0.219333
-0.212060
-0.198292
-0.183486
-0.173095
-0.168939
-0.160107
-0.149976
-0.142183
-0.134649
-0.133091
-0.129454
-0.123999
-0.118544
-0.114907
-0.119064
-0.120882
-0.120882
-0.123740
-0.127896
-0.132572
-0.140365
-0.146599
-0.146340
-0.149197
-0.148418
-0.143742
-0.139586
-0.134390
-0.131533
-0.124260
-0.115947
-0.106336
-0.090230
-0.076462
-0.067371
-0.061396
-0.052564
-0.038277
-0.021652
-0.009443
0.003026
0.021210
0.036276
0.050823
0.064071
0.080697
0.105115
0.126156
0.142521
0.157068
0.175512
0.194215
0.204865
0.213697
0.226166
0.236037
0.243311
0.254741
0.265131
0.276041
0.290848
0.307993
0.329554
0.349556
0.369817
0.397093
0.427486
0.458138
0.488791
0.521002
0.559708
0.599192
0.634001
0.666212
0.695826
0.722062
0.748299
0.774016
0.791940
0.806487
0.816618
0.818696
0.820254
0.819215
0.816617
0.812201
0.805447
0.798693
0.785705
0.772197
0.761027
0.749597
0.739726
0.726997
0.710632
0.691928
0.670368
0.648547
0.633221
0.626726
0.621011
0.617115
0.614517
0.616595
0.625687
0.636597
0.649326
0.662574
0.681017
0.698682
0.711930
0.730893
0.746479
0.760246
0.775833
0.790379
0.801030
0.802588
0.800770
0.795055
0.789860
0.783885
0.773754
0.764402
0.752713
0.736607
0.719203
0.706214
0.693745
0.679718
0.668548
0.655559
0.638934
0.622309
0.606723
0.591137
0.575031
0.555808
0.536585
0.513985
0.488528
0.466967
0.445147
0.418650
0.385920
0.349552
0.310587
0.271362
0.229020
0.180703
0.133685
0.083809
0.028479
-0.027891
-0.084780
-0.138552
-0.188428
-0.236225
-0.279866
-0.321169
-0.360394
-0.398840
-0.433909
-0.461704
-0.488980
-0.518074
-0.547428
-0.570027
-0.591848
-0.617045
-0.639126
-0.664064
-0.686923
-0.710822
-0.739137
-0.764854
-0.792389
-0.817587
-0.841485
-0.870579
-0.901752
-0.935781
-0.971629
-1.013192
-1.058911
-1.101513
-1.140998
-1.179704
-1.224643
-1.269583
-1.309847
-1.353748
-1.392454
-1.425444
-1.462851
-1.499738
-1.530650
-1.554549
-1.580006
-1.617673
-1.653521
-1.680017
-1.707033
-1.736647
-1.769118
-1.794835
-1.813538
-1.834060
-1.855101
-1.874844
-1.891728
-1.900820
-1.909912
-1.925498
-1.940045
-1.951475
-1.957710
-1.956931
-1.957190
-1.963425
-1.970958
-1.972517
-1.968880
-1.962386
-1.951995
-1.935890
-1.918485
-1.905497
-1.889911
-1.870428
-1.849907
-1.823151
-1.796135
-1.774055
-1.747039
-1.717166
-1.687552
-1.655341
-1.622350
-1.587022
-1.552473
-1.521041
-1.483894
-1.447267
-1.416614
-1.381806
-1.346737
-1.309850
-1.272184
-1.239193
-1.202826
-1.162562
-1.123597
-1.088788
-1.050342
-1.006182
-0.962541
-0.915263
-0.867725
-0.824864
-0.778885
-0.729789
-0.684329
-0.636792
-0.585358
-0.539639
-0.490543
-0.441447
-0.404560
-0.364815
-0.323252
-0.285326
-0.251297
-0.220904
-0.190511
-0.160638
-0.125050
-0.086344
-0.053094
-0.022182
0.012887
0.052891
0.092895
0.131601
0.170306
0.211869
0.255250
0.297852
0.336298
0.368769
0.398122
0.428255
0.456830
0.479949
0.501250
0.522031
0.542293
0.555801
0.559178
0.558918
0.555022
0.545930
0.532941
0.518394
0.500990
0.476052
0.445140
0.412669
0.378639
0.340453
0.303566
0.268757
0.228493
0.186151
0.150822
0.118871
0.086400
0.053669
0.019899
-0.009195
-0.036471
-0.064786
-0.091801
-0.123493
-0.154146
-0.180123
-0.209736
-0.242467
-0.273379
-0.304552
-0.340919
-0.378845
-0.414434
-0.450282
-0.481973
-0.510548
-0.543798
-0.578607
-0.609000
-0.635756
-0.658616
-0.678098
-0.698360
-0.715505
-0.725896
-0.732910
-0.739923
-0.744599
-0.740443
-0.735507
-0.729273
-0.718882
-0.707972
-0.692126
-0.677320
-0.663292
-0.646927
-0.633679
-0.621470
-0.613157
-0.612898
-0.614716
-0.620691
-0.633679
-0.653941
-0.682775
-0.713948
-0.746938
-0.789540
-0.837857
-0.889551
-0.946700
-1.007226
-1.067492
-1.122823
-1.179452
-1.239978
-1.298166
-1.351938
-1.398696
-1.438960
-1.474808
-1.504422
-1.524164
-1.539231
-1.548842
-1.549102
-1.546764
-1.538452
-1.519749
-1.492473
-1.459223
-1.419478
-1.375837
-1.329079
-1.278684
-1.225172
-1.165426
-1.105679
-1.045932
-0.982029
-0.921244
-0.859679
-0.798114
-0.740445
-0.684336
-0.632382
-0.581727
-0.534190
-0.491068
-0.449506
-0.413138
-0.375472
-0.338065
-0.308192
-0.280397
-0.250524
-0.216494
-0.181166
-0.147136
-0.115704
-0.086091
-0.051282
-0.012836
0.024310
0.058859
0.096266
0.135751
0.178612
0.226410
0.273168
0.325381
0.382010
0.439679
0.500724
0.561250
0.618659
0.676847
0.735814
0.794522
0.854528
0.916353
0.981295
1.041821
1.102087
1.164950
1.220281
1.270936
1.322629
1.372245
1.419263
1.467060
1.513299
1.556161
1.590190
1.617466
1.643962
1.667861
1.690460
1.707605
1.720074
1.729945
1.734361
1.736959
1.737738
1.733062
1.722411
1.711501
1.699812
1.682927
1.663184
1.641623
1.620842
1.602139
1.581097
1.553822
1.525507
1.501868
1.477190
1.448096
1.417443
1.382375
1.347825
1.316134
1.277688
1.236645
1.195082
1.155597
1.121048
1.084680
1.047274
1.014283
0.984150
0.953497
0.922325
0.895049
0.874268
0.855045
0.837381
0.821275
0.804910
0.787245
0.769062
0.750878
0.730356
0.712952
0.696067
0.676324
0.653205
0.626968
0.604368
0.579690
0.553454
0.525659
0.496824
0.469289
0.440195
0.416036
0.392397
0.364342
0.337846
0.309272
0.282515
0.260175
0.240173
0.224068
0.208741
0.192895
0.178088
0.167957
0.160684
0.151852
0.143799
0.141461
0.140162
0.136525
0.132889
0.131070
0.130551
0.123017
0.113146
0.100677
0.080935
0.057815
0.031838
-0.000373
-0.038299
-0.078823
-0.119606
-0.162208
-0.208967
-0.257024
-0.305081
-0.351320
-0.393402
-0.432367
-0.469254
-0.501725
-0.530300
-0.556796
-0.578617
-0.594463
-0.605373
-0.615244
-0.622258
-0.624596
-0.624596
-0.621219
-0.616543
-0.611088
-0.602516
-0.594723
-0.588489
-0.578617
-0.571344
-0.566928
-0.554979
-0.539912
-0.526924
-0.513676
-0.498609
-0.483023
-0.463281
-0.437044
-0.410808
-0.384312
-0.356776
-0.328981
-0.301446
-0.272612
-0.241180
-0.207929
-0.171302
-0.136234
-0.103243
-0.070772
-0.036743
-0.000375
0.033914
0.069243
0.104831
0.137821
0.170812
0.198347
0.217570
0.240429
0.269004
0.294721
0.316541
0.336024
0.357585
0.382262
0.405642
0.427982
0.449802
0.471882
0.498119
0.527213
0.550852
0.574750
0.605922
0.635016
0.663591
0.694763
0.719700
0.748015
0.778148
0.804385
0.835037
0.866989
0.899719
0.934268
0.966480
0.997392
1.032461
1.067269
1.096883
1.125977
1.149096
1.170917
1.191958
1.209362
1.225728
1.233001
1.240274
1.247808
1.241054
1.231702
1.223649
1.212739
1.204946
1.190139
1.170656
1.156369
1.137146
1.116365
1.096363
1.073763
1.051942
1.025965
0.997910
0.970115
0.939203
0.903874
0.865428
0.826203
0.784900
0.742039
0.694501
0.645145
0.596568
0.540718
0.483569
0.423303
0.361738
0.303550
0.238868
0.176783
0.120673
0.061446
-0.000119
-0.061684
-0.120911
-0.178060
-0.236508
-0.294176
-0.349247
-0.404838
-0.458090
-0.504589
-0.549009
-0.593170
-0.635252
-0.675776
-0.711884
-0.743575
-0.773709
-0.802023
-0.824623
-0.839949
-0.851639
-0.860991
-0.868005
-0.866966
-0.860731
-0.853198
-0.840729
-0.823584
-0.802284
-0.782281
-0.757863
-0.731367
-0.706170
-0.676037
-0.647202
-0.617849
-0.587975
-0.558622
-0.529008
-0.500693
-0.471599
-0.444843
-0.417828
-0.391072
-0.366653
-0.347690
-0.331585
-0.311842
-0.293659
-0.274956
-0.259629
-0.247940
-0.235211
-0.226639
-0.219625
-0.214430
-0.210793
-0.208715
-0.207416
-0.203520
-0.201701
-0.198584
-0.192869
-0.188194
-0.182739
-0.175725
-0.167932
-0.156762
-0.140916
-0.125330
-0.108445
-0.089222
-0.068701
-0.049998
-0.032074
-0.009214
0.015204
0.040921
0.071314
0.102486
0.136775
0.173662
0.206913
0.240942
0.273933
0.303546
0.338355
0.370306
0.401219
0.432651
0.458368
0.486682
0.514997
0.538376
0.561495
0.582796
0.606435
0.630593
0.649556
0.666181
0.680988
0.689560
0.695275
0.698912
0.698133
0.694756
0.687742
0.679689
0.667740
0.652154
0.636048
0.612929
0.589030
0.565131
0.537336
0.510580
