EVENT_NAME: 202302060117
EVENT_ID: 13194
EVENT_DATE_YYYYMMDD: 2023/02/06
EVENT_TIME_HHMMSS: 01:17:32.00000
EVENT_LATITUDE_DEGREE: 37.288
EVENT_LONGITUDE_DEGREE: 37.043
EVENT_DEPTH_KM: 8.6
HYPOCENTER_REFERENCE: AFAD
MAGNITUDE_W: 7.7
MAGNITUDE_W_REFERENCE: AFAD
MAGNITUDE_L: 
MAGNITUDE_L_REFERENCE: 
FOCAL_MECHANISM: 
NETWORK: TK
STATION_CODE: 0603
STATION_NAME: 
STATION_LATITUDE_DEGREE: 39.55831
STATION_LONGITUDE_DEGREE: 33.11857
STATION_ELEVATION_M: 1305.0
LOCATION: Kahramanmaras_Pazarck_Turkiye
SENSOR_DEPTH_M: 
VS30_M/S: 450
SITE_CLASSIFICATION_EC8: B
MORPHOLOGIC_CLASSIFICATION: 
EPICENTRAL_DISTANCE_KM: 424.91
EARTHQUAKE_BACKAZIMUTH_DEGREE: 
DATE_TIME_FIRST_SAMPLE_YYYYMMDD_HHMMSS: 2023/02/06 01:18:06.0389260
DATE_TIME_FIRST_SAMPLE_PRECISION: millisecond
SAMPLING_INTERVAL_S: 0.01
NDATA: 21001
DURATION_S: 
STREAM: HNE
UNITS: cm/s^2
INSTRUMENT: sensor = CMG-5T/GURALP | digitizer = 
INSTRUMENT_ANALOG/DIGITAL: 
INSTRUMENTAL_FREQUENCY_HZ: 
INSTRUMENTAL_DAMPING: 
FULL_SCALE_G: 
N_BIT_DIGITAL_CONVERTER: 
PGA_CM/S^2: 2.752
TIME_PGA_S: 
BASELINE_CORRECTION: BASELINE REMOVED
FILTER_TYPE: BUTTERWORTH
FILTER_ORDER: 
LOW_CUT_FREQUENCY_HZ: 
HIGH_CUT_FREQUENCY_HZ: 
LATE/NORMAL_TRIGGERED: 
DATABASE_VERSION: 
HEADER_FORMAT: DYNA 1.2
DATA_TYPE: Acceleration
PROCESSING: Automatic Paolucci et al., 2011
DATA_TIMESTAMP_YYYYMMDD_HHMMSS: 
DATA_LICENSE: U (unknown license)
DATA_CITATION: Turkish Accelerometric Archive v 1.0 - Disaster And Emergency Management Presidency, Earthquake Department
DATA_CREATOR: AFAD
ORIGINAL_DATA_MEDIATOR_CITATION: : AFAD - Disaster And Emergency Management Presidency
ORIGINAL_DATA_MEDIATOR: AFAD PROCESS SERVICE
ORIGINAL_DATA_CREATOR_CITATION: AFAD PROCESS SERVICE
ORIGINAL_DATA_CREATOR: network: TK
USER1: GuestUser
USER2: 
USER3: 
USER4: 
USER5: 
[...]
0.100882
0.097741
0.102139
0.114075
0.122242
0.132922
0.147999
0.164960
0.179095
0.199826
0.211134
0.220557
0.226840
0.226526
0.220244
0.210508
0.196374
0.173446
0.149889
0.119736
0.085815
0.054092
0.018285
-0.015323
-0.037309
-0.063692
-0.082852
-0.090389
-0.099184
-0.099811
-0.100439
-0.092272
-0.080022
-0.072483
-0.058977
-0.041073
-0.022226
-0.005579
0.012011
0.027402
0.045306
0.049704
0.059127
0.066352
0.061012
0.062269
0.058815
0.059757
0.055361
0.050021
0.050022
0.046881
0.038401
0.037460
0.032749
0.029294
0.024897
0.013590
0.015161
0.010764
0.008880
0.007310
0.004798
0.002286
-0.011220
-0.027238
-0.046398
-0.072467
-0.104818
-0.136856
-0.172348
-0.204385
-0.236422
-0.267203
-0.285106
-0.309919
-0.328764
-0.346981
-0.367711
-0.389383
-0.420164
-0.448118
-0.488322
-0.525385
-0.564646
-0.606106
-0.639714
-0.680860
-0.710070
-0.744620
-0.778856
-0.803355
-0.837591
-0.859891
-0.886589
-0.913914
-0.932446
-0.958829
-0.976104
-0.996834
-1.009083
-1.016621
-1.022902
-1.019132
-1.016305
-0.997145
-0.977042
-0.949716
-0.912652
-0.874646
-0.832557
-0.788269
-0.741468
-0.690898
-0.636560
-0.576881
-0.518773
-0.453127
-0.389051
-0.332199
-0.270008
-0.218810
-0.166041
-0.117984
-0.073382
-0.031607
0.009854
0.044405
0.083353
0.117904
0.148371
0.179467
0.202711
0.225954
0.240089
0.252967
0.253910
0.254225
0.250142
0.243861
0.229099
0.214337
0.192979
0.170364
0.150263
0.124507
0.099066
0.073311
0.057292
0.029338
0.002327
-0.027198
-0.062062
-0.098182
-0.136815
-0.177647
-0.212826
-0.247061
-0.276272
-0.291034
-0.293546
-0.289776
-0.268732
-0.237636
-0.195547
-0.146861
-0.094407
-0.034728
0.023065
0.078347
0.134570
0.192050
0.237594
0.287850
0.328055
0.363862
0.391503
0.412862
0.422913
0.426055
0.417260
0.393390
0.368891
0.331200
0.289426
0.237600
0.183577
0.126412
0.060766
-0.003623
-0.070210
-0.139311
-0.204956
-0.274371
-0.332164
-0.389643
-0.443352
-0.487325
-0.531926
-0.570559
-0.609193
-0.645627
-0.683004
-0.721637
-0.752418
-0.784455
-0.809582
-0.831569
-0.852927
-0.867689
-0.879624
-0.889046
-0.889988
-0.889988
-0.889673
-0.880564
-0.873025
-0.862345
-0.852922
-0.842870
-0.836902
-0.826851
-0.824023
-0.821196
-0.816798
-0.818682
-0.808631
-0.800464
-0.796694
-0.786015
-0.778476
-0.769052
-0.754918
-0.746123
-0.731988
-0.715340
-0.697436
-0.682988
-0.669481
-0.657859
-0.648750
-0.644666
-0.633986
-0.622678
-0.616396
-0.613255
-0.608229
-0.609171
-0.613253
-0.615451
-0.630842
-0.634296
-0.652513
-0.661622
-0.674813
-0.688319
-0.699940
-0.720355
-0.730092
-0.750508
-0.766212
-0.788512
-0.797620
-0.808613
-0.818350
-0.819606
-0.821176
-0.820861
-0.817406
-0.807982
-0.801072
-0.795732
-0.788821
-0.782225
-0.775942
-0.768718
-0.764006
-0.760550
-0.758351
-0.755838
-0.756780
-0.750497
-0.750497
-0.743900
-0.740759
-0.730707
-0.722226
-0.717200
-0.703380
-0.697411
-0.683277
-0.676052
-0.665058
-0.658462
-0.659718
-0.662544
-0.669768
-0.683587
-0.698664
-0.721906
-0.746405
-0.771846
-0.800428
-0.828697
-0.851311
-0.876124
-0.901251
-0.921039
-0.944909
-0.967838
-0.988882
-1.014323
-1.041649
-1.065519
-1.100384
-1.121741
-1.160375
-1.185188
-1.219424
-1.242666
-1.264966
-1.287895
-1.295119
-1.307054
-1.304855
-1.304854
-1.290719
-1.284437
-1.256796
-1.242347
-1.212822
-1.191463
-1.164136
-1.143091
-1.121733
-1.098175
-1.083412
-1.064566
-1.052944
-1.037239
-1.032527
-1.015879
-1.022161
-1.011795
-1.022474
-1.027813
-1.034723
-1.053568
-1.063304
-1.081207
-1.094085
-1.108218
-1.117327
-1.122038
-1.128005
-1.122665
-1.114184
-1.111671
-1.095965
-1.089997
-1.078689
-1.070208
-1.059843
-1.052932
-1.044451
-1.035970
-1.033457
-1.030629
-1.036283
-1.046647
-1.063608
-1.080569
-1.107580
-1.139932
-1.165373
-1.203064
-1.235729
-1.269337
-1.304829
-1.331213
-1.363250
-1.384922
-1.405966
-1.425439
-1.434548
-1.446169
-1.447739
-1.447110
-1.452763
-1.443340
-1.443339
-1.432974
-1.420410
-1.408473
-1.379262
-1.352564
-1.318955
-1.276866
-1.232892
-1.187976
-1.147457
-1.105996
-1.069561
-1.044747
-1.016164
-1.000458
-0.986324
-0.972817
-0.971560
-0.966848
-0.961822
-0.962450
-0.960565
-0.960565
-0.956795
-0.951141
-0.945172
-0.935121
-0.922243
-0.906537
-0.892717
-0.869159
-0.848428
-0.826755
-0.807909
-0.785922
-0.772730
-0.759537
-0.750428
-0.754825
-0.751055
-0.761106
-0.766759
-0.777438
-0.785604
-0.795968
-0.813243
-0.828319
-0.845594
-0.865067
-0.881400
-0.896476
-0.908725
-0.914378
-0.918147
-0.913121
-0.908409
-0.899928
-0.890505
-0.877941
-0.864748
-0.845902
-0.828940
-0.807267
-0.782767
-0.766120
-0.742248
-0.726543
-0.706440
-0.689479
-0.676286
-0.658697
-0.647075
-0.633882
-0.626972
-0.617862
-0.610009
-0.608124
-0.597759
-0.594931
-0.589905
-0.580168
-0.583937
-0.573571
-0.579538
-0.576711
-0.577653
-0.589588
-0.588331
-0.604350
-0.608118
-0.622880
-0.627591
-0.633559
-0.636071
-0.630417
-0.627903
-0.610000
-0.597749
-0.580788
-0.554089
-0.529903
-0.507602
-0.481218
-0.459545
-0.441955
-0.423109
-0.415570
-0.413999
-0.413685
-0.431587
-0.439439
-0.459855
-0.473675
-0.484668
-0.498173
-0.493147
-0.495031
-0.483095
-0.469903
-0.450114
-0.424358
-0.398602
-0.370647
-0.337981
-0.302801
-0.273904
-0.245007
-0.215796
-0.193809
-0.176219
-0.163969
-0.160199
-0.159884
-0.163025
-0.165223
-0.176530
-0.188465
-0.199772
-0.220816
-0.229924
-0.243744
-0.262589
-0.282063
-0.293370
-0.308132
-0.328547
-0.339226
-0.360270
-0.375346
-0.391993
-0.414293
-0.431882
-0.455752
-0.473970
-0.503808
-0.528621
-0.549979
-0.583587
-0.604002
-0.624418
-0.641693
-0.658340
-0.662422
-0.662108
-0.662107
-0.647972
-0.633838
-0.616562
-0.591434
-0.566306
-0.530499
-0.499717
-0.463910
-0.419622
-0.382872
-0.326963
-0.283303
-0.229592
-0.170856
-0.113376
-0.048986
0.011635
0.083249
0.150466
0.216426
0.285213
0.352116
0.416506
0.477755
0.533036
0.585176
0.638259
0.679720
0.724008
0.766725
0.797193
0.827661
0.846193
0.864411
0.865982
0.860328
0.853419
0.832689
0.808504
0.771441
0.732494
0.687579
0.633869
0.587383
0.529905
0.485932
0.444472
0.396730
0.371603
0.336738
0.324489
0.312240
0.307215
0.314754
0.322292
0.339882
0.354645
0.383228
0.411183
0.452016
0.489080
0.534310
0.584566
0.622886
0.666231
0.706436
0.738788
0.767685
0.793442
0.814172
0.833333
0.847153
0.862858
0.871654
0.883590
0.894584
0.899924
0.908405
0.915001
0.929136
0.936989
0.951123
0.964002
0.978451
0.994470
1.000124
1.022425
1.032163
1.041272
1.057605
1.072054
1.084304
1.097811
1.112260
1.128279
1.149010
1.164715
1.185446
1.210888
1.235388
1.251721
1.277792
1.294439
1.307632
1.313286
1.316427
1.313915
1.303550
1.294442
1.274026
1.263976
1.240733
1.220632
1.205870
1.187967
1.179172
1.169122
1.157815
1.149963
1.142739
1.136772
1.130805
1.128606
1.125466
1.125781
1.125467
1.117929
1.119186
1.109450
1.105681
1.100656
1.088092
1.082753
1.072389
1.059825
1.049461
1.033442
1.020565
1.003290
0.986644
0.971253
0.950524
0.937018
0.921314
0.911577
0.900584
0.897444
0.894303
0.904041
0.913464
0.926028
0.951785
0.970317
1.002041
1.031252
1.062348
1.095957
1.129565
1.168514
1.203379
1.240756
1.278448
1.311115
1.342210
1.364826
1.395293
1.416966
1.438325
1.460313
1.477588
1.500204
1.510569
1.537582
1.551088
1.566165
1.589723
1.600717
1.620505
1.632127
1.647204
1.661967
1.672019
1.685211
1.698718
1.709397
1.727615
1.738923
1.753372
1.766879
1.777872
1.795776
1.812738
1.832212
1.851059
1.882468
1.903827
1.942147
1.971045
2.003083
2.038262
2.057108
2.091973
2.112390
2.134377
2.155108
2.167358
2.177409
2.184948
2.196570
2.197827
2.202539
2.201911
2.195002
2.193117
2.175214
2.160138
2.137838
2.102032
2.067796
2.028849
1.977966
1.931480
1.874001
1.818407
1.762498
1.710045
1.654765
1.602939
1.559281
1.506827
1.468194
1.417625
1.378992
1.331250
1.292617
1.255868
1.215979
1.186140
1.154417
1.126777
1.101964
1.079978
1.053908
1.033807
1.010564
0.990149
0.966906
0.947747
0.925761
0.908172
0.889955
0.879590
0.869225
0.868284
0.871739
0.875195
0.893727
0.906919
0.929534
0.951522
0.974765
0.998951
1.032245
1.060828
1.090982
1.125219
1.157571
1.190238
1.221019
1.258083
1.288237
1.318704
1.351057
1.384037
1.417332
1.452197
1.489888
1.530093
1.568099
1.612073
1.650079
1.690912
1.731430
1.768808
1.806814
1.838224
1.873717
1.896333
1.924287
1.947531
1.973601
1.995588
2.016005
2.040819
2.065319
2.092332
2.119972
2.152953
2.181850
2.212946
2.238702
2.272625
2.299009
2.324452
2.349266
2.369368
2.388214
2.401721
2.408946
2.411459
2.410203
2.397325
2.380679
2.355866
2.328854
2.299644
2.264151
2.227089
2.189398
2.154220
2.117471
2.079152
2.042717
2.000943
1.961054
1.919594
1.882845
1.846096
1.810918
1.773541
1.743703
1.722973
1.701301
1.684654
1.670520
1.658271
1.638484
1.623093
1.605819
1.593255
1.574410
1.555565
1.542373
1.526983
1.512849
1.501228
1.487723
1.478614
1.479243
1.470449
1.477360
1.479559
1.491809
1.508770
1.524162
1.552431
1.565937
1.587296
1.605200
1.623418
1.632841
1.638810
1.638496
1.631586
1.620593
1.606146
1.594210
1.576936
1.560289
1.534220
1.517573
1.490876
1.464806
1.434968
1.405443
1.371521
1.338228
1.302735
1.264730
1.225155
1.184323
1.147574
1.102031
1.075962
1.026335
0.985503
0.966030
0.931480
0.906353
0.892847
0.868976
0.851388
0.847933
0.839139
0.825005
0.827518
0.825006
0.822494
0.826263
0.823437
0.832546
0.839457
0.850450
0.864585
0.884374
0.904476
0.925835
0.957245
0.992110
1.026033
1.062468
1.099846
1.138794
1.178999
1.215120
1.252184
1.288620
1.323485
1.355523
1.386619
1.411119
1.437189
1.455093
1.468599
1.482734
1.488702
1.493414
1.485248
1.483050
1.470487
1.452270
1.431540
1.400445
1.372491
1.333544
1.288943
1.243085
1.190632
1.139749
1.085097
1.026990
0.976735
0.920198
0.871514
0.819061
0.776030
0.729545
0.688085
0.656990
0.627465
0.610190
0.589775
0.583493
0.579725
0.582866
0.594488
0.605482
0.620245
0.632181
0.645687
0.662021
0.676784
0.692803
0.707566
0.723899
0.741175
0.758451
0.772586
0.797399
0.817816
0.835092
0.854566
0.872156
0.889746
0.903252
0.918015
0.929323
0.940631
0.940317
0.936235
0.924300
0.910480
0.893833
0.869648
0.846092
0.818452
0.793953
0.769768
0.745269
0.726110
0.710720
0.696900
0.686535
0.677741
0.668633
0.662665
0.652929
0.642564
0.631257
0.614297
0.595137
0.576292
0.555876
0.531692
0.509391
0.486463
0.465105
0.438093
0.416107
0.392864
0.370564
0.350463
0.335386
0.324080
0.313715
0.308690
0.301466
0.301781
0.294871
0.291102
0.289532
0.277283
0.272258
0.255612
0.239593
0.220120
0.193736
0.170494
0.138771
0.118041
0.088202
0.064331
0.043288
0.021615
0.005597
-0.013248
-0.021728
-0.030836
-0.032406
-0.034291
-0.035232
-0.031463
-0.035231
-0.030834
-0.035231
-0.039627
-0.047165
-0.063812
-0.067580
-0.090509
-0.109040
-0.123174
-0.139506
-0.156467
-0.172485
-0.183478
-0.196984
-0.209547
-0.222739
-0.233417
-0.239071
-0.249435
-0.265768
-0.276132
-0.288068
-0.296234
-0.312252
-0.324501
-0.335808
-0.347115
-0.359050
-0.366588
-0.366273
-0.376638
-0.379779
-0.383547
-0.387630
-0.395168
-0.409616
-0.419038
-0.436941
-0.464581
-0.496304
-0.533995
-0.579538
-0.637960
-0.705175
-0.771449
-0.848402
-0.929752
-1.012987
-1.101561
-1.183225
-1.275569
-1.361002
-1.443294
-1.529356
-1.607565
-1.687345
-1.765554
-1.837481
-1.904069
-1.966573
-2.018713
-2.070538
-2.116081
-2.158484
-2.193976
-2.220359
-2.247999
-2.267473
-2.280978
-2.293227
-2.297310
-2.297310
-2.293854
-2.285687
-2.276578
-2.261501
-2.252392
-2.237629
-2.221924
-2.207475
-2.190199
-2.174494
-2.156590
-2.137116
-2.119212
-2.104449
-2.087801
-2.074923
-2.057647
-2.049480
-2.038801
-2.025922
-2.016813
-2.000794
-1.987287
-1.971896
-1.948024
-1.927608
-1.903108
-1.874525
-1.845313
-1.813903
-1.785006
-1.749827
-1.719359
-1.683552
-1.652456
-1.619790
-1.584611
-1.552573
-1.520534
-1.487240
-1.456458
-1.429760
-1.403689
-1.373221
-1.351234
-1.332074
-1.308516
-1.292183
-1.269254
-1.254805
-1.235330
-1.222766
-1.213029
-1.199522
-1.192612
-1.187586
-1.184758
-1.183187
-1.180360
-1.176276
-1.174391
-1.166853
-1.163397
-1.157743
-1.148634
-1.143922
-1.139838
-1.133242
-1.126017
-1.115337
-1.102145
-1.083299
-1.063196
-1.044350
-1.012940
-0.990010
-0.961427
-0.929389
-0.905517
-0.875678
-0.858088
-0.833902
-0.818197
-0.800921
-0.790242
-0.783645
-0.771081
-0.769510
-0.762914
-0.757259
-0.748150
-0.743124
-0.732759
-0.722707
-0.704175
-0.690354
-0.673079
-0.656431
-0.642611
-0.625335
-0.621251
-0.607430
-0.605860
-0.608686
-0.612140
-0.624076
-0.639466
-0.660510
-0.685637
-0.715161
-0.743115
-0.776409
-0.811273
-0.841740
-0.882886
-0.922775
-0.955441
-0.992503
-1.032707
-1.070712
-1.106518
-1.143581
-1.179073
-1.223360
-1.260109
-1.305652
-1.353708
-1.403335
-1.454846
-1.502588
-1.560067
-1.611578
-1.661519
-1.709575
-1.761086
-1.805687
-1.851544
-1.896774
-1.936977
-1.980950
-2.018955
-2.057588
-2.098106
-2.138310
-2.178199
-2.212749
-2.257979
-2.296298
-2.338386
-2.384243
-2.421306
-2.464337
-2.502656
-2.542859
-2.571442
-2.609133
-2.637715
-2.659701
-2.682629
-2.704616
-2.723461
-2.731941
-2.745446
-2.745760
-2.751727
-2.743875
-2.734451
-2.724086
-2.703983
-2.690162
-2.664406
-2.642105
-2.620118
-2.591221
-2.567663
-2.546618
-2.521176
-2.500759
-2.475631
-2.455215
-2.436683
-2.410298
-2.388625
-2.360356
-2.333972
-2.299421
-2.267383
-2.236287
-2.199537
-2.166243
-2.133576
-2.106564
-2.083634
-2.062903
-2.041859
-2.028980
-2.012647
-1.999768
-1.987204
-1.974954
-1.960191
-1.939460
-1.932550
-1.906165
-1.893601
-1.882293
-1.857793
-1.845543
-1.829838
-1.812562
-1.798741
-1.785235
-1.768901
-1.761049
-1.745972
-1.740317
-1.730266
-1.725868
-1.713932
-1.706079
-1.690374
-1.669329
-1.654880
-1.622842
-1.594573
-1.560650
-1.528612
-1.485581
-1.455113
-1.419620
-1.381928
-1.351774
-1.320993
-1.295236
-1.269480
-1.245294
-1.224878
-1.200692
-1.181217
-1.157660
-1.138500
-1.128448
-1.108031
-1.098294
-1.090127
-1.080704
-1.066255
-1.059344
-1.049607
-1.041126
-1.035158
-1.022279
-1.012856
-1.004061
-0.989298
-0.974849
-0.960714
-0.934958
-0.915170
-0.880304
-0.852350
-0.813087
-0.773197
-0.740844
-0.700012
-0.669544
-0.634365
-0.606096
-0.571545
-0.544846
-0.509039
-0.479199
-0.438995
-0.402245
-0.369579
-0.312099
-0.269382
-0.221639
-0.165729
-0.115474
-0.062391
-0.013706
0.029640
0.080523
0.119472
0.160619
0.198939
0.229406
0.261759
0.295367
0.323950
0.349078
0.371066
0.388970
0.400906
0.419124
0.421637
0.419125
0.432003
0.423837
0.422581
0.422581
0.420697
0.415358
0.416929
0.430122
0.419129
0.438917
0.448341
0.455251
0.470014
0.471899
0.491059
0.485720
0.500169
0.494202
0.486978
0.492946
0.475672
0.459967
0.454314
0.434841
0.416938
0.404688
0.388670
0.375164
0.360088
0.355691
0.342814
0.344699
0.346270
0.341245
0.355694
0.361348
0.366374
0.382393
0.392445
0.404067
0.408465
0.424170
0.424484
0.441446
0.447100
0.449928
0.460607
0.459351
0.460294
0.455583
0.445847
0.438937
0.432656
0.415695
0.413183
0.399677
0.398107
0.384601
0.389313
0.384916
0.378949
0.381776
0.373925
0.371726
0.357907
0.354452
0.347542
0.326184
0.321159
0.311737
0.302001
0.296347
0.284412
0.282842
0.276561
0.268081
0.265882
0.269024
0.260230
0.265570
0.265884
0.272167
0.280020
0.292270
0.297296
0.313001
0.324309
0.331848
0.349752
0.358861
0.370797
0.372996
0.373311
0.368600
0.362004
0.348184
0.336877
0.313007
0.300129
0.281284
0.262125
0.250504
0.238568
0.220037
0.217839
0.206532
0.195225
0.192713
0.176066
0.166644
0.150626
0.143402
0.137749
0.126756
0.114507
0.117334
0.107597
0.106342
0.097547
0.091894
0.085613
0.079331
0.068024
0.057346
0.049494
0.034418
0.027194
0.017143
0.018714
-0.004214
-0.004528
-0.004527
-0.018975
-0.020545
-0.028083
-0.028711
-0.034364
-0.040331
-0.033421
-0.038760
-0.035304
-0.039701
-0.040329
-0.044098
-0.057603
-0.063885
-0.074878
-0.079903
-0.091838
-0.100318
-0.109426
-0.111938
-0.132040
-0.134238
-0.138007
-0.158423
-0.170986
-0.189203
-0.209619
-0.233489
-0.250764
-0.274635
-0.300076
-0.320178
-0.341536
-0.362580
-0.380483
-0.386136
-0.404667
-0.408436
-0.412832
-0.418800
-0.417543
-0.414402
-0.403408
-0.407491
-0.383619
-0.375452
-0.359433
-0.338702
-0.311061
-0.291273
-0.262061
-0.231908
-0.215574
-0.188562
-0.170972
-0.163433
-0.156837
-0.138304
-0.148669
-0.144585
-0.145841
-0.156206
-0.165942
-0.168455
-0.181646
-0.194524
-0.208029
-0.218080
-0.235983
-0.252315
-0.263308
-0.288435
-0.290633
-0.310421
-0.318587
-0.329894
-0.334291
-0.340258
-0.351565
-0.343398
-0.349051
-0.349365
-0.349050
-0.346537
-0.343710
-0.344338
-0.345594
-0.339625
-0.343708
-0.345592
-0.344963
-0.360354
-0.353757
-0.375115
-0.386108
-0.396473
-0.419401
-0.430708
-0.457720
-0.467142
-0.492897
-0.516140
-0.533101
-0.557286
-0.581470
-0.602828
-0.620417
-0.632981
-0.641775
-0.651511
-0.654652
-0.655279
-0.654651
-0.648368
-0.637375
-0.625438
-0.604708
-0.587746
-0.552567
-0.516446
-0.478440
-0.424101
-0.375101
-0.319820
-0.259199
-0.194809
-0.134503
-0.071997
-0.006979
0.049244
0.109551
0.166089
0.211947
0.264401
0.300523
0.348894
0.380304
0.410143
0.446265
0.451605
0.477675
0.470765
0.476420
0.467939
0.449722
0.443755
0.410776
0.397584
0.372457
0.349843
0.330997
0.309953
0.295820
0.278859
0.262527
0.251220
0.231118
0.225779
0.205049
0.189973
0.178352
0.156052
0.147886
0.130925
0.126842
0.109882
0.114908
0.106742
0.108312
0.110826
0.111454
0.123705
0.117423
0.129673
0.129674
0.133129
0.137841
0.142867
0.146951
0.146637
0.146952
0.148837
0.148209
0.152293
0.151037
0.151980
0.151666
0.144442
0.143501
0.138161
0.129367
0.119945
0.109266
0.096075
0.080370
0.062781
0.046449
0.027918
0.005303
-0.014170
-0.033329
-0.055001
-0.069449
-0.082641
-0.087666
-0.091749
-0.093633
-0.089863
-0.088606
-0.085151
-0.083894
-0.086720
-0.076983
-0.083892
-0.080123
-0.085776
-0.087032
-0.084519
-0.092685
-0.091428
-0.100850
-0.102734
-0.117810
-0.126605
-0.146706
-0.154872
-0.182198
-0.205441
-0.222401
-0.250983
-0.270771
-0.296212
-0.314115
-0.334845
-0.357459
-0.370965
-0.381958
-0.396720
-0.398918
-0.408340
-0.413679
-0.416192
-0.412108
-0.413678
-0.408652
-0.398915
-0.388863
-0.380068
-0.366561
-0.352741
-0.338606
-0.319132
-0.307824
-0.292433
-0.273272
-0.264163
-0.256310
-0.233381
-0.225214
-0.214220
-0.208566
-0.196630
-0.195373
-0.197885
-0.186263
-0.198198
-0.190032
-0.186262
-0.199768
-0.188774
-0.199138
-0.201023
-0.200394
-0.204163
-0.204790
-0.216411
-0.210129
-0.224577
-0.222064
-0.229915
-0.237453
-0.243421
-0.258497
-0.269175
-0.280482
-0.291475
-0.311577
-0.313147
-0.330108
-0.336703
-0.341100
-0.347067
-0.342355
-0.345810
-0.340156
-0.339527
-0.340155
-0.326648
-0.331673
-0.315968
-0.298378
-0.289583
-0.257545
