EVENT_NAME: 202302060117
EVENT_ID: 13194
EVENT_DATE_YYYYMMDD: 2023/02/06
EVENT_TIME_HHMMSS: 01:17:32.00000
EVENT_LATITUDE_DEGREE: 37.288
EVENT_LONGITUDE_DEGREE: 37.043
EVENT_DEPTH_KM: 8.6
HYPOCENTER_REFERENCE: AFAD
MAGNITUDE_W: 7.7
MAGNITUDE_W_REFERENCE: AFAD
MAGNITUDE_L: 
MAGNITUDE_L_REFERENCE: 
FOCAL_MECHANISM: 
NETWORK: TK
STATION_CODE: 4212
STATION_NAME: 
STATION_LATITUDE_DEGREE: 38.2382
STATION_LONGITUDE_DEGREE: 32.21757
STATION_ELEVATION_M: 1141.0
LOCATION: Kahramanmaras_Pazarck_Turkiye
SENSOR_DEPTH_M: 
VS30_M/S: None
SITE_CLASSIFICATION_EC8: unknown
MORPHOLOGIC_CLASSIFICATION: 
EPICENTRAL_DISTANCE_KM: 437.08
EARTHQUAKE_BACKAZIMUTH_DEGREE: 
DATE_TIME_FIRST_SAMPLE_YYYYMMDD_HHMMSS: 2023/02/06 01:18:07.5440730
DATE_TIME_FIRST_SAMPLE_PRECISION: millisecond
SAMPLING_INTERVAL_S: 0.01
NDATA: 21001
DURATION_S: 
STREAM: HNE
UNITS: cm/s^2
INSTRUMENT: sensor = ACEBOX/SARA | digitizer = 
INSTRUMENT_ANALOG/DIGITAL: 
INSTRUMENTAL_FREQUENCY_HZ: 
INSTRUMENTAL_DAMPING: 
FULL_SCALE_G: 
N_BIT_DIGITAL_CONVERTER: 
PGA_CM/S^2: 1.172
TIME_PGA_S: 
BASELINE_CORRECTION: BASELINE REMOVED
FILTER_TYPE: BUTTERWORTH
FILTER_ORDER: 
LOW_CUT_FREQUENCY_HZ: 
HIGH_CUT_FREQUENCY_HZ: 
LATE/NORMAL_TRIGGERED: 
DATABASE_VERSION: 
HEADER_FORMAT: DYNA 1.2
DATA_TYPE: Acceleration
PROCESSING: Automatic Paolucci et al., 2011
DATA_TIMESTAMP_YYYYMMDD_HHMMSS: 
DATA_LICENSE: U (unknown license)
DATA_CITATION: Turkish Accelerometric Archive v 1.0 - Disaster And Emergency Management Presidency, Earthquake Department
DATA_CREATOR: AFAD
ORIGINAL_DATA_MEDIATOR_CITATION: : AFAD - Disaster And Emergency Management Presidency
ORIGINAL_DATA_MEDIATOR: AFAD PROCESS SERVICE
ORIGINAL_DATA_CREATOR_CITATION: AFAD PROCESS SERVICE
ORIGINAL_DATA_CREATOR: network: TK
USER1: GuestUser
USER2: 
USER3: 
USER4: 
USER5: 
[...]
-0.093483
-0.122941
-0.175078
-0.103770
-0.119901
-0.144684
-0.084130
-0.091845
-0.094885
-0.084130
-0.086935
-0.071738
-0.104002
-0.085065
-0.044384
-0.101196
-0.102599
-0.068231
-0.096520
-0.108911
-0.114522
-0.117094
-0.085765
-0.081790
-0.119899
-0.128316
-0.096987
-0.085531
-0.116859
-0.146318
-0.109378
-0.073840
-0.112417
-0.116391
-0.086231
-0.094648
-0.090673
-0.092543
-0.082957
-0.030353
-0.036198
-0.074307
-0.060746
-0.033859
-0.038302
-0.052797
-0.005803
-0.009310
-0.086931
-0.025442
0.014537
-0.041808
-0.018428
-0.038300
-0.029182
-0.002997
-0.058874
0.016175
0.007758
-0.055835
0.065974
0.025060
-0.031519
0.060597
0.032775
0.042595
0.062701
0.026463
0.065273
0.060598
0.084211
0.129568
0.066443
0.081640
0.142427
0.126763
0.132842
0.138921
0.139388
0.173289
0.178433
0.178433
0.203683
0.206489
0.214906
0.215373
0.191059
0.226830
0.250677
0.206490
0.213737
0.221219
0.200645
0.228701
0.220518
0.184981
0.186384
0.170486
0.151081
0.158562
0.178435
0.159030
0.109933
0.118350
0.117648
0.094970
0.097308
0.061304
0.064343
0.103621
0.076501
0.065746
0.080242
0.081177
0.090763
0.097777
0.102921
0.097777
0.101518
0.109233
0.096842
0.103389
0.107130
0.084685
0.090296
0.122794
0.117417
0.086322
0.107364
0.135420
0.104559
0.080244
0.089830
0.081413
0.062008
0.061073
0.039798
0.028809
0.054527
0.026939
0.000286
0.007067
-0.031744
-0.033146
-0.010935
-0.037588
-0.033380
-0.032678
-0.075931
-0.076164
-0.060032
-0.095335
-0.117546
-0.104453
-0.121754
-0.149810
-0.159629
-0.168981
-0.175761
-0.203349
-0.228599
-0.225793
-0.244964
-0.262265
-0.249406
-0.275592
-0.320247
-0.302010
-0.295464
-0.329364
-0.301075
-0.286345
-0.321415
-0.305049
-0.314401
-0.334975
-0.274889
-0.248937
-0.257354
-0.238650
-0.241455
-0.218777
-0.194929
-0.206385
-0.177628
-0.181135
-0.202878
-0.160561
-0.167107
-0.186746
-0.146065
-0.126660
-0.124789
-0.136479
-0.133439
-0.063066
-0.034777
-0.085277
-0.077561
-0.018878
-0.001109
0.001462
-0.006954
0.001697
0.034194
0.030688
0.050561
0.070200
0.048690
0.055237
0.055471
0.043313
0.043547
0.077448
0.085163
0.021804
0.068564
0.126312
0.069499
0.069032
0.087268
0.105505
0.123741
0.109947
0.142913
0.126313
0.108778
0.160214
0.138003
0.125846
0.141744
0.118131
0.131224
0.124210
0.102701
0.134030
0.111118
0.050564
0.049161
0.068567
0.093116
0.080958
0.036537
0.055942
0.075581
0.082829
0.104572
0.058514
0.042383
0.104807
0.117432
0.087973
0.094754
0.120471
0.106444
0.113224
0.128421
0.094287
0.116497
0.119069
0.084701
0.132396
0.105509
0.083766
0.158582
0.095457
0.055010
0.137774
0.112056
0.084702
0.121175
0.112992
0.100601
0.085638
0.089379
0.111122
0.116032
0.130995
0.097562
0.077923
0.119773
0.105745
0.085639
0.102706
0.131230
0.135204
0.085172
0.095693
0.108552
0.079795
0.121879
0.111592
0.086575
0.157884
0.123983
0.069509
0.137777
0.119541
0.075120
0.135440
0.124685
0.076757
0.098968
0.106449
0.116035
0.137311
0.110191
0.086577
0.094293
0.091253
0.086110
0.080031
0.063198
0.085175
0.112529
0.074421
0.043092
0.055483
0.048937
0.009425
-0.007174
0.005919
-0.008577
-0.019331
-0.021669
-0.040373
-0.031254
-0.038502
-0.078247
-0.104199
-0.101393
-0.076377
-0.117525
-0.159141
-0.117992
-0.123136
-0.153529
-0.158439
-0.199119
-0.219693
-0.183455
-0.160776
-0.192339
-0.226941
-0.227408
-0.204730
-0.196547
-0.248917
-0.249151
-0.215952
-0.266685
-0.241201
-0.204028
-0.272296
-0.276972
-0.261775
-0.278375
-0.290532
-0.310872
-0.296610
-0.328874
-0.343837
-0.301520
-0.361138
-0.381478
-0.342434
-0.377737
-0.379608
-0.371892
-0.384283
-0.390362
-0.408364
-0.377737
-0.376334
-0.420054
-0.396674
-0.369553
-0.384048
-0.388491
-0.362071
-0.348511
-0.359967
-0.341029
-0.338925
-0.345004
-0.304556
-0.302686
-0.317649
-0.306427
-0.325832
-0.316246
-0.287489
-0.320220
-0.333079
-0.314375
-0.323960
-0.307361
-0.282111
-0.310867
-0.323259
-0.288423
-0.311101
-0.348508
-0.290059
-0.272524
-0.316010
-0.283980
-0.275563
-0.316711
-0.296838
-0.266445
-0.289824
-0.312035
-0.275329
-0.258963
-0.299409
-0.285615
-0.256390
-0.293798
-0.287251
-0.247038
-0.293096
-0.293330
-0.232309
-0.256156
-0.257792
-0.236750
-0.249609
-0.221553
-0.222255
-0.228099
-0.215474
-0.233710
-0.232541
-0.240256
-0.223423
-0.212668
-0.255921
-0.221552
-0.221085
-0.271818
-0.207290
-0.191158
-0.268311
-0.258024
-0.220616
-0.250075
-0.254049
-0.226227
-0.254516
-0.285144
-0.259893
-0.268544
-0.338449
-0.313900
-0.256854
-0.317875
-0.307354
-0.261997
-0.327928
-0.324654
-0.289351
-0.323251
-0.331434
-0.286077
-0.251943
-0.278128
-0.266672
-0.243759
-0.254046
-0.213833
-0.220379
-0.216872
-0.165437
-0.194661
-0.158656
-0.091089
-0.103480
-0.081971
-0.085945
-0.094128
-0.036146
-0.030067
-0.048069
-0.008558
-0.008791
-0.050173
-0.007388
0.023473
-0.010895
0.016927
0.019265
-0.007154
0.011083
-0.009959
0.010849
0.040775
-0.007621
-0.004815
0.013655
0.033762
0.059246
0.008979
-0.004581
0.002433
-0.008321
0.019968
-0.010191
-0.027025
-0.025622
-0.081032
-0.063730
-0.064666
-0.127089
-0.123348
-0.138078
-0.179460
-0.179927
-0.187642
-0.221309
-0.229258
-0.212191
-0.236973
-0.264327
-0.280927
-0.308281
-0.302670
-0.298227
-0.301267
-0.321607
-0.362287
-0.359949
-0.352701
-0.346389
-0.348025
-0.369067
-0.345687
-0.363456
-0.383094
-0.337971
-0.367430
-0.369300
-0.317864
-0.372807
-0.398758
-0.350596
-0.336100
-0.349894
-0.393146
-0.400862
-0.366026
-0.379352
-0.402965
-0.390107
-0.392912
-0.433593
-0.437801
-0.427981
-0.459310
-0.446217
-0.436865
-0.467259
-0.445515
-0.448555
-0.470765
-0.453698
-0.469596
-0.475675
-0.452996
-0.445281
-0.438267
-0.445982
-0.461646
-0.459308
-0.434526
-0.439669
-0.471933
-0.434993
-0.416523
-0.449254
-0.413483
-0.396182
-0.424238
-0.389168
-0.351293
-0.374672
-0.381686
-0.341473
-0.350824
-0.371632
-0.318093
-0.319963
-0.360176
-0.323002
-0.303597
-0.321365
-0.318092
-0.304765
-0.301726
-0.301258
-0.280918
-0.294945
-0.301725
-0.258940
-0.274605
-0.285593
-0.265954
-0.295646
-0.275773
-0.242808
-0.263849
-0.249588
-0.253328
-0.273668
-0.235092
-0.228078
-0.249587
-0.240001
-0.230649
-0.237195
-0.285591
-0.294943
-0.232519
-0.246781
-0.293072
-0.296345
-0.319959
-0.320894
-0.293539
-0.308035
-0.334688
-0.325336
-0.327440
-0.343571
-0.311307
-0.308268
-0.341935
-0.299851
-0.270159
-0.291434
-0.257066
-0.236725
-0.266417
-0.241167
-0.208669
-0.223398
-0.200720
-0.171261
-0.211007
-0.210305
-0.132451
-0.134087
-0.151855
-0.100420
-0.132918
-0.141334
-0.047581
-0.050387
-0.063012
-0.010173
0.001984
0.012739
0.020454
0.022792
0.072825
0.101115
0.076566
0.093867
0.133379
0.140861
0.178736
0.178502
0.154889
0.221287
0.223859
0.202818
0.257760
0.249344
0.271788
0.317846
0.284414
0.315742
0.341227
0.319483
0.376530
0.385648
0.349176
0.400144
0.423056
0.399677
0.415107
0.420719
0.440358
0.469582
0.455087
0.463270
0.470752
0.473324
0.517044
0.514238
0.502315
0.524292
0.501614
0.495535
0.522656
0.502549
0.488755
0.506057
0.482911
0.469117
0.492730
0.469818
0.443399
0.457194
0.456259
0.435451
0.421657
0.424462
0.407629
0.395238
0.404590
0.369521
0.357831
0.373729
0.344738
0.340296
0.332581
0.305695
0.321593
0.332348
0.319255
0.283952
0.290031
0.345207
0.308735
0.305696
0.360872
0.316684
0.358300
0.424465
0.369523
0.406697
0.454391
0.462574
0.516114
0.499515
0.522895
0.585085
0.556562
0.579006
0.639794
0.655926
0.649613
0.643769
0.680007
0.683748
0.682112
0.713207
0.668318
0.678137
0.742432
0.671358
0.661071
0.734249
0.673696
0.654992
0.710636
0.681178
0.683516
0.695440
0.662007
0.677671
0.668319
0.661773
0.712274
0.703389
0.682582
0.689596
0.681413
0.684686
0.683985
0.686323
0.678842
0.674867
0.706430
0.683518
0.670425
0.705495
0.679076
0.665516
0.674868
0.658970
0.666919
0.650787
0.622732
0.645176
0.651723
0.607769
0.599820
0.619927
0.601691
0.617823
0.628110
0.582987
0.605432
0.636995
0.616888
0.610342
0.604497
0.627643
0.649620
0.628111
0.637697
0.669259
0.677209
0.672767
0.687964
0.707135
0.695913
0.716721
0.728879
0.690068
0.740802
0.792706
0.728411
0.748284
0.822632
0.767690
0.751090
0.826139
0.795278
0.766755
0.835492
0.833388
0.819126
0.858404
0.849052
0.851390
0.876173
0.871731
0.886928
0.903528
0.915685
0.930181
0.918959
0.924102
0.933454
0.920362
0.944209
0.976941
0.963615
0.950990
0.945846
0.947951
0.987462
0.995879
0.957770
0.959407
0.972500
0.952627
0.950523
0.965720
0.960343
0.947952
0.944679
0.946783
0.945848
0.943978
0.946783
0.922235
0.893478
0.903531
0.898622
0.870800
0.873372
0.873606
0.858643
0.880152
0.877347
0.813754
0.840641
0.884595
0.818664
0.826613
0.842979
0.798792
0.854202
0.838771
0.784297
0.852098
0.825913
0.784998
0.838070
0.808846
0.776816
0.810483
0.803001
0.771439
0.779154
0.766997
0.731694
0.777518
0.790845
0.743150
0.781259
0.756710
0.692416
0.764894
0.782429
0.733097
0.763257
0.783364
0.778221
0.775181
0.766297
0.776351
0.768402
0.763960
0.781495
0.762089
0.735670
0.746893
0.781027
0.779625
0.748530
0.776118
0.795289
0.764662
0.782665
0.811889
0.812591
0.795758
0.763728
0.788978
0.819372
0.793654
0.783133
0.782666
0.785705
0.792018
0.759520
0.742921
0.763261
0.752507
0.742687
0.759287
0.733336
0.708787
0.739415
0.752507
0.731466
0.709723
0.711827
0.728193
0.724452
0.724219
0.719075
0.709022
0.715101
0.718608
0.711828
0.671615
0.675122
0.714400
0.655249
0.650807
0.700840
0.640521
0.640988
0.681669
0.648938
0.673954
0.685410
0.633274
0.633040
0.655952
0.663668
0.658056
0.662265
0.694763
0.687749
0.683541
0.710661
0.682606
0.672553
0.701778
0.686113
0.705285
0.749940
0.748070
0.733107
0.712299
0.732873
0.760228
0.733575
0.743862
0.738719
0.704585
0.741057
0.745265
0.709728
0.720483
0.728666
0.728666
0.722354
0.710664
0.723757
0.741526
0.739422
0.709963
0.702482
0.709028
0.682376
0.685415
0.697573
0.685415
0.687286
0.677466
0.684247
0.674895
0.638423
0.665309
0.665777
0.644034
0.642398
0.619486
0.664141
0.666479
0.590027
0.606861
0.640528
0.638891
0.603588
0.566882
0.585586
0.567116
0.577403
0.589093
0.526202
0.543036
0.546776
0.496510
0.502589
0.485054
0.448816
0.423098
0.417020
0.436659
0.420994
0.380314
0.356467
0.380782
0.379145
0.325840
0.330983
0.322800
0.299421
0.315787
0.285861
0.270664
0.271132
0.248454
0.265755
0.261079
0.252896
0.269730
0.244480
0.239336
0.244714
0.224841
0.230686
0.227881
0.234895
0.252430
0.208943
0.199592
0.257807
0.244013
0.192578
0.215724
0.240039
0.235597
0.248456
0.223206
0.212919
0.244014
0.215024
0.211283
0.230688
0.196086
0.206140
0.207776
0.158679
0.168499
0.195619
0.178318
0.161719
0.162654
0.143015
0.132962
0.143016
0.116129
0.114025
0.126884
0.073812
0.051368
0.078254
0.062824
0.031495
0.029859
0.029391
0.020273
0.012324
-0.007315
-0.009419
-0.010587
-0.045423
-0.042150
-0.029758
-0.053606
-0.062022
-0.073011
-0.075115
-0.065061
-0.079323
-0.097559
-0.110184
-0.095221
-0.094052
-0.144318
-0.163021
-0.163255
-0.177283
-0.191544
-0.231290
-0.250929
-0.242278
-0.280621
-0.334862
-0.348655
-0.365956
-0.390505
-0.398922
-0.444746
-0.466021
-0.447317
-0.503195
-0.524470
-0.505065
-0.545044
-0.542706
-0.540602
-0.572164
-0.576840
-0.598349
-0.588530
-0.577073
-0.612377
-0.606765
-0.606999
-0.632249
-0.629677
-0.643471
-0.659369
-0.663110
-0.682982
-0.676670
-0.644406
-0.646744
-0.670825
-0.674331
-0.679709
-0.697477
-0.682982
-0.674097
-0.703789
-0.694437
-0.701685
-0.748912
-0.718284
-0.715712
-0.760835
-0.726467
-0.745872
-0.783747
-0.738858
-0.777668
-0.806191
-0.727869
-0.743299
-0.808061
-0.767146
-0.717581
-0.755456
-0.781642
-0.736986
-0.718750
-0.728335
-0.718048
-0.732310
-0.750078
-0.740726
-0.728335
-0.729270
-0.757559
-0.764807
-0.743999
-0.749610
-0.745168
-0.760598
-0.809462
-0.784913
-0.776730
-0.834244
-0.815072
-0.777665
-0.799408
-0.822086
-0.826995
-0.817176
-0.824423
-0.818111
-0.792627
-0.823488
-0.830735
-0.794029
-0.799640
-0.795198
-0.776260
-0.788184
-0.796133
-0.805017
-0.828864
-0.811329
-0.768778
-0.794963
-0.830968
-0.810627
-0.803380
-0.808055
-0.811562
-0.818342
-0.806652
-0.823485
-0.861828
-0.854814
-0.819978
-0.823953
-0.864633
-0.865568
-0.844293
-0.849202
-0.837980
-0.835642
-0.879362
-0.885207
-0.853176
-0.860424
-0.861826
-0.853410
-0.869775
-0.837277
-0.820678
-0.863462
-0.821613
-0.781399
-0.815066
-0.789114
-0.782334
-0.812728
-0.786542
-0.787477
-0.782334
-0.754278
-0.783970
-0.774150
-0.746328
-0.787009
-0.803375
-0.791919
-0.792620
-0.793789
-0.817636
-0.812726
-0.795893
-0.849900
-0.863226
-0.834936
-0.894321
-0.915362
-0.873513
-0.915128
-0.956510
-0.935702
-0.955107
-0.995788
-0.973811
-0.975447
-1.038806
-1.022207
-0.987371
-1.033662
-1.044885
-1.032026
-1.050963
-1.053768
-1.061717
-1.080187
-1.065926
-1.045819
-1.075745
-1.100293
-1.092578
-1.119231
-1.115256
-1.090473
-1.131622
-1.139337
-1.127881
-1.144948
-1.116892
-1.117593
-1.157806
-1.146116
-1.116658
-1.116424
-1.137933
-1.133725
-1.110812
-1.125308
-1.141673
-1.120398
-1.111513
-1.133958
-1.122735
-1.113617
-1.153596
-1.134892
-1.099121
-1.149621
-1.172300
-1.126008
-1.123436
-1.152660
-1.136996
-1.121565
-1.119694
-1.100523
-1.102627
-1.104731
-1.099120
-1.088833
-1.039735
-1.026409
-1.058672
-1.041605
-0.993443
-0.994845
-0.995313
-0.945982
-0.955801
-0.947618
-0.887298
-0.916523
-0.899923
-0.870464
-0.878413
-0.799624
-0.825341
-0.868360
-0.806871
-0.828380
-0.792843
-0.746083
-0.778113
-0.744446
-0.775308
-0.783023
-0.698388
-0.722937
-0.712649
-0.667059
-0.697920
-0.650693
-0.633626
-0.677579
-0.630586
-0.637132
-0.646250
-0.580553
-0.612115
-0.617960
-0.568863
-0.574708
-0.536131
-0.534494
-0.574006
-0.517661
-0.474174
-0.518829
-0.532156
-0.484227
-0.498722
-0.501528
-0.439571
-0.473472
-0.483759
-0.448689
-0.480953
-0.439103
-0.417126
-0.453598
-0.426478
-0.438401
-0.423906
-0.381355
-0.407306
-0.382991
-0.366625
-0.376912
-0.328282
-0.340439
-0.371067
-0.333893
-0.326177
-0.345115
-0.343946
-0.330385
-0.321735
-0.326411
-0.311447
-0.283158
-0.279183
-0.287834
-0.270065
-0.234528
-0.233125
-0.232657
-0.197120
-0.184494
-0.188937
-0.147320
-0.107107
-0.132591
-0.130253
-0.086065
-0.095885
-0.076245
-0.055437
-0.091208
-0.049125
-0.035798
-0.065023
-0.010548
-0.025043
-0.045617
-0.010547
-0.021302
0.010728
0.008624
-0.013586
0.015872
-0.014287
0.016106
0.037148
-0.003766
0.064970
0.060528
0.030369
0.097702
0.087182
0.106119
0.155918
0.135812
0.156386
0.179532
0.179532
0.195664
0.216239
0.238917
0.255984
0.269311
0.241022
0.250607
0.320045
0.298770
0.302511
0.341555
0.283573
0.300641
0.338750
0.289652
0.322618
0.334542
0.265338
0.303681
0.357688
0.312799
0.297602
0.335711
0.346700
0.339920
0.338050
0.339219
0.342960
0.354416
0.356286
0.333374
0.332673
0.326828
0.303449
0.337817
0.342727
0.313035
0.323322
0.294331
0.308359
0.356522
0.311165
0.318413
0.343429
0.300644
0.335948
0.364939
0.358393
0.401178
0.367979
0.340625
0.427130
0.441391
0.396269
0.416142
0.411699
0.409128
0.464772
0.467110
0.472253
0.497270
0.455420
0.480904
0.528599
0.494699
0.501479
0.513169
0.486516
0.493296
0.524158
0.514806
0.503116
0.540758
0.508494
0.501012
0.570216
0.530471
0.523691
0.561566
0.553383
0.578166
0.554786
0.564606
0.576062
0.550578
0.649007
0.627732
0.562269
0.652748
0.627966
0.633110
0.694131
0.635448
0.674726
0.692962
0.646670
0.727564
0.742995
0.697639
0.729201
0.738553
0.703951
0.686884
0.731072
0.751880
0.703251
0.711434
0.752582
0.729670
0.701614
0.723124
0.738087
0.715175
0.710265
0.727333
0.712136
0.711435
0.763805
0.735049
0.663974
0.703252
0.704889
0.666780
0.708162
0.698109
0.670054
0.698343
0.690394
0.649480
0.636621
0.664677
0.641765
0.586589
0.605059
0.602487
0.563443
0.574432
0.580745
0.536089
0.508969
0.537492
0.502891
0.447481
0.492136
0.476472
0.428076
0.453326
0.405865
0.364717
0.412880
0.395812
0.358873
0.393007
0.391137
0.352093
0.368693
0.371732
0.351392
0.383188
0.385059
0.356769
0.380851
0.393943
0.386228
0.390203
0.370564
0.371499
0.406803
0.395815
0.374773
0.386697
0.394412
0.388100
0.367993
0.382255
0.406804
0.385295
0.376644
0.357005
0.359577
0.399791
0.371034
0.379684
0.413351
0.376879
0.386932
0.396284
0.396518
0.449356
0.425977
0.389271
0.455202
0.468528
0.424341
0.457306
0.473438
0.455904
0.463619
0.442811
0.437902
0.418029
0.398624
0.428083
0.388805
0.395117
0.404236
0.320536
0.358645
0.370335
0.311886
0.336903
0.321706
0.301833
0.272609
0.240812
0.280792
0.277519
0.272375
0.265595
0.227720
0.237072
0.237540
0.230526
0.220005
0.201769
0.193119
0.185404
0.206913
0.178858
0.150101
0.185638
0.167636
0.149400
0.133735
0.113161
0.138412
0.119708
0.111525
0.113629
0.076456
0.093757
0.091653
0.052375
0.047465
0.038581
0.041855
0.046764
0.018475
-0.010983
0.004214
0.019644
-0.032960
-0.049326
-0.022673
-0.051429
-0.072471
-0.084395
-0.097721
-0.074341
-0.071068
-0.085563
-0.098890
-0.101695
-0.083926
-0.102162
-0.103565
-0.063819
-0.058208
-0.060078
-0.068729
-0.071768
-0.033659
-0.034360
-0.093745
-0.108006
-0.029216
-0.011214
-0.099589
-0.097017
-0.064519
-0.098653
-0.088366
-0.081118
-0.078547
-0.061947
-0.115019
-0.130683
-0.088599
-0.104264
-0.123435
-0.125539
-0.129981
-0.116421
-0.135826
-0.166687
-0.145177
-0.127175
-0.150321
-0.177207
-0.191469
-0.201756
-0.189364
-0.182117
-0.233318
-0.219991
-0.173699
-0.242903
-0.245709
-0.215081
-0.259970
-0.212275
-0.223030
-0.277271
-0.209703
-0.238694
-0.275166
-0.233316
-0.254826
-0.241733
-0.250617
-0.282413
-0.225367
-0.216716
-0.240330
-0.225834
-0.251318
-0.261137
-0.225600
-0.242199
-0.275632
-0.263007
-0.257630
-0.251551
-0.262072
-0.299947
-0.276099
-0.284282
-0.342731
-0.309999
-0.293400
-0.321689
-0.313740
-0.342964
-0.341795
-0.297374
-0.327300
-0.332443
-0.310232
-0.340626
-0.317947
-0.299945
-0.326364
-0.294333
-0.301815
-0.326363
-0.274694
-0.278668
-0.297372
-0.259731
-0.268381
-0.275629
-0.249209
-0.265575
-0.290591
-0.266042
-0.240558
-0.284512
-0.310697
-0.270250
-0.284512
-0.320049
-0.314671
-0.326595
-0.332907
-0.341090
-0.345532
-0.336180
-0.372652
-0.380134
-0.339219
-0.354650
-0.372652
-0.348103
-0.371950
-0.410293
-0.367742
-0.357922
-0.408188
-0.377561
-0.356753
-0.405149
-0.390887
-0.354882
-0.370313
-0.382236
-0.375456
-0.376859
-0.356284
-0.300407
-0.306953
-0.347633
-0.309758
-0.278663
-0.281936
-0.263466
-0.276325
-0.275623
-0.248503
-0.271648
-0.289884
-0.295963
-0.289183
-0.263231
-0.314199
-0.334072
-0.279830
-0.316069
-0.342254
-0.298768
-0.326122
-0.363997
-0.356281
-0.371946
-0.382700
-0.387610
-0.421510
-0.421510
-0.418237
-0.458684
-0.457281
-0.461957
-0.506144
-0.496091
-0.501001
-0.514561
-0.490246
-0.522276
