EVENT_NAME: 202302060117
EVENT_ID: 13194
EVENT_DATE_YYYYMMDD: 2023/02/06
EVENT_TIME_HHMMSS: 01:17:32.00000
EVENT_LATITUDE_DEGREE: 37.288
EVENT_LONGITUDE_DEGREE: 37.043
EVENT_DEPTH_KM: 8.6
HYPOCENTER_REFERENCE: AFAD
MAGNITUDE_W: 7.7
MAGNITUDE_W_REFERENCE: AFAD
MAGNITUDE_L: 
MAGNITUDE_L_REFERENCE: 
FOCAL_MECHANISM: 
NETWORK: TK
STATION_CODE: 3805
STATION_NAME: 
STATION_LATITUDE_DEGREE: 38.1057
STATION_LONGITUDE_DEGREE: 35.357183
STATION_ELEVATION_M: 1183.0
LOCATION: Kahramanmaras_Pazarck_Turkiye
SENSOR_DEPTH_M: 
VS30_M/S: 384
SITE_CLASSIFICATION_EC8: B
MORPHOLOGIC_CLASSIFICATION: 
EPICENTRAL_DISTANCE_KM: 173.97
EARTHQUAKE_BACKAZIMUTH_DEGREE: 
DATE_TIME_FIRST_SAMPLE_YYYYMMDD_HHMMSS: 2023/02/06 01:17:42.0103810
DATE_TIME_FIRST_SAMPLE_PRECISION: millisecond
SAMPLING_INTERVAL_S: 0.01
NDATA: 13501
DURATION_S: 
STREAM: HNE
UNITS: cm/s^2
INSTRUMENT: sensor = ACEBOX/SARA | digitizer = 
INSTRUMENT_ANALOG/DIGITAL: 
INSTRUMENTAL_FREQUENCY_HZ: 
INSTRUMENTAL_DAMPING: 
FULL_SCALE_G: 
N_BIT_DIGITAL_CONVERTER: 
PGA_CM/S^2: 23.374
TIME_PGA_S: 
BASELINE_CORRECTION: BASELINE REMOVED
FILTER_TYPE: BUTTERWORTH
FILTER_ORDER: 
LOW_CUT_FREQUENCY_HZ: 
HIGH_CUT_FREQUENCY_HZ: 
LATE/NORMAL_TRIGGERED: 
DATABASE_VERSION: 
HEADER_FORMAT: DYNA 1.2
DATA_TYPE: Acceleration
PROCESSING: Automatic Paolucci et al., 2011
DATA_TIMESTAMP_YYYYMMDD_HHMMSS: 
DATA_LICENSE: U (unknown license)
DATA_CITATION: Turkish Accelerometric Archive v 1.0 - Disaster And Emergency Management Presidency, Earthquake Department
DATA_CREATOR: AFAD
ORIGINAL_DATA_MEDIATOR_CITATION: : AFAD - Disaster And Emergency Management Presidency
ORIGINAL_DATA_MEDIATOR: AFAD PROCESS SERVICE
ORIGINAL_DATA_CREATOR_CITATION: AFAD PROCESS SERVICE
ORIGINAL_DATA_CREATOR: network: TK
USER1: GuestUser
USER2: 
USER3: 
USER4: 
USER5: 
[...]
-2.772191
-3.031706
-2.819652
-2.698779
-3.500236
-5.093330
-6.744173
-7.977687
-8.342177
-7.670010
-6.264655
-4.717852
-3.878754
-3.946789
-4.255635
-4.233191
-3.878754
-3.717902
-3.593288
-2.242641
0.499567
3.209044
5.135066
6.640954
7.664986
7.688365
6.607053
4.600605
2.195065
0.233038
-0.575667
0.338714
2.632733
4.862224
5.859837
5.447886
4.335712
3.188937
2.055020
0.935599
-0.288798
-1.212765
-0.659834
1.608233
4.745091
7.433526
8.234048
6.940915
4.324490
1.004335
-1.786737
-2.500053
-1.358187
0.093460
0.643351
-0.422296
-2.402326
-3.767935
-4.311280
-4.381887
-4.214722
-4.716919
-6.781816
-9.965434
-12.493717
-13.101356
-11.667945
-8.562650
-5.016179
-2.293844
-0.541066
0.908009
2.505079
3.550152
3.380415
2.045667
-0.381149
-2.924396
-4.443844
-4.886890
-4.357105
-3.363233
-2.389468
-0.982008
1.074473
4.026397
7.762711
10.564771
11.342381
10.525493
8.687613
6.402712
4.329164
3.328746
3.222368
2.815093
1.970383
0.919231
0.164300
0.748559
2.550201
5.039674
7.584089
8.822981
8.592457
7.585960
5.741767
3.487494
1.516583
-0.272200
-1.333874
-1.330601
-1.728056
-3.385211
-5.644628
-7.891887
-9.462303
-9.490125
-7.755116
-5.036755
-2.591937
-1.635473
-2.396015
-3.779394
-4.712946
-4.085434
-1.216742
2.502505
5.464015
7.308442
8.004222
8.058931
8.042565
7.566554
5.728907
2.233872
-1.801235
-4.794074
-6.222809
-6.380622
-5.831666
-5.343732
-5.146173
-4.570097
-3.065845
-0.883114
1.341233
2.764591
2.877281
2.176357
1.029348
-0.640900
-2.321435
-3.477095
-3.770276
-3.640753
-4.824468
-7.161272
-8.283733
-7.204057
-4.214491
-0.353096
2.530560
3.790259
3.918380
3.804755
4.727085
6.378629
6.934365
5.539063
2.888971
0.652934
0.203108
1.222697
2.185942
1.621322
-1.258125
-6.039981
-11.085794
-14.797793
-16.403746
-15.679209
-13.141573
-9.388893
-4.312453
1.482446
6.128465
8.205987
7.560006
4.790911
0.925541
-2.620463
-4.235768
-3.038726
0.000405
3.248316
6.062300
7.474903
6.542520
4.183739
0.979547
-3.105358
-6.550127
-8.614791
-10.079999
-10.644619
-9.881271
-8.578553
-7.269756
-5.737682
-4.194386
-2.978173
-1.384143
1.103693
3.809897
5.881107
6.393123
4.686169
1.323229
-2.280756
-4.690738
-5.328771
-4.605870
-3.106528
-1.566038
-0.600689
0.139279
1.312240
2.823739
4.373114
5.994498
7.252795
7.190371
5.438294
2.435168
-0.862542
-3.072160
-3.214543
-1.514369
1.145308
3.900843
6.084743
7.738391
8.847058
8.502207
6.590447
4.326821
2.771602
2.303306
2.791475
3.959058
5.067257
5.154697
4.311624
2.957003
1.177806
-0.607003
-1.718241
-1.638750
-0.843138
-0.455736
-1.217214
-3.263875
-5.274999
-5.625461
-4.217300
-1.585678
1.295172
3.021998
2.854599
1.177572
-0.644644
-1.554350
-1.417111
-0.390741
1.036825
2.240180
2.776745
2.394018
0.965751
-1.395134
-3.831535
-5.574260
-6.727816
-7.254327
-6.735064
-4.876609
-1.744895
1.832905
4.600129
5.417718
3.645067
0.168034
-2.898918
-4.207715
-3.844628
-3.113778
-3.741758
-5.581508
-7.025674
-7.539093
-6.935195
-4.612886
-1.129775
1.961493
3.741859
4.384100
4.823171
5.616445
6.009225
5.686351
5.317886
4.644784
3.713335
3.343702
3.275433
3.339026
3.503385
2.806669
0.422171
-3.778698
-8.686103
-12.816599
-15.242713
-14.345633
-9.380715
-2.358848
3.756120
7.532413
9.478542
9.910365
9.077813
8.238948
7.424165
5.776128
3.749573
2.264025
2.058284
3.327569
4.590542
3.944560
1.323225
-2.074551
-4.998419
-5.981771
-4.195092
-0.589704
2.888030
4.961812
5.485284
4.627715
2.889900
1.180842
0.014895
-0.288106
0.395751
1.404352
2.562116
4.359550
5.719314
4.908038
1.954243
-2.228857
-6.481864
-9.093145
-8.988872
-6.343923
-2.045794
2.527514
5.864268
7.428606
7.577067
6.260555
3.196875
-1.401449
-6.240118
-9.215889
-9.333022
-6.993412
-2.954097
2.099665
7.535217
12.150609
14.467540
13.633117
10.131769
5.632107
1.788714
0.221103
1.380270
3.581004
5.208934
5.391296
4.158249
2.653296
0.955460
-1.484916
-4.275754
-6.948290
-9.000095
-9.974796
-9.993032
-9.186899
-7.586089
-5.394474
-2.765891
0.427546
4.144922
7.303991
8.619802
8.357247
7.058971
3.968873
-0.840571
-5.672225
-8.852569
-8.764662
-5.193876
-0.654702
2.446151
3.501278
2.478181
-0.135672
-2.728017
-3.477571
-2.135107
0.132493
2.567959
5.368616
8.450999
10.667865
11.183622
10.024923
7.133084
3.114577
-0.687201
-3.253359
-3.748776
-2.390180
-0.856236
0.000397
0.960602
2.638331
4.668159
6.184568
6.279256
4.836026
2.559775
0.111684
-1.704921
-2.138614
-1.281748
0.393176
2.249059
3.765935
4.933519
5.089695
3.609057
1.517273
-0.083537
-0.969395
-1.253692
-1.276371
-0.784227
0.501891
2.040277
3.473922
4.356273
3.980561
2.516288
0.558236
-1.404959
-2.752333
-3.221564
-3.246580
-3.401822
-3.361843
-2.794417
-2.887468
-4.261495
-6.094465
-8.190224
-10.200880
-11.194986
-11.049331
-10.052887
-8.712995
-7.454698
-5.890127
-3.839257
-1.841226
-0.283668
0.594007
0.147454
-1.826263
-4.379095
-6.724783
-8.120085
-6.895221
-2.609951
2.932680
7.918641
11.008506
11.173566
9.107032
6.532924
4.385029
2.978037
2.010350
0.762340
-0.329493
-0.112997
1.224791
2.537796
3.180739
2.592505
0.448584
-2.120147
-3.784082
-4.428895
-4.203046
-3.180417
-1.765242
-0.654472
-0.581293
-1.563709
-2.996185
-4.529194
-6.198740
-8.041296
-9.639768
-10.148277
-8.802774
-5.534756
-1.248785
2.880543
5.932298
7.312170
6.851355
4.813578
2.336029
0.846272
1.109294
3.220951
6.229221
8.826007
9.717709
7.670581
3.407755
-1.577972
-6.517407
-9.909571
-10.958386
-10.048914
-7.147023
-3.046920
0.344309
1.399436
-0.221013
-2.952466
-4.702906
-4.372083
-1.784181
2.062017
5.125229
6.650055
7.547369
7.935706
7.789817
7.773918
7.682504
7.252550
6.788229
6.024179
4.310913
1.271782
-2.497497
-5.334627
-5.852956
-4.066043
-1.036966
2.127246
4.135565
3.668438
1.162833
-1.248085
-2.171818
-1.691365
-0.493387
0.534152
1.026762
1.268742
1.469107
1.900696
2.454796
2.517921
2.243677
2.217725
2.585255
3.321248
4.122939
4.519226
4.359074
3.531198
1.940442
0.270662
-0.376489
0.211277
1.196499
1.459520
0.454894
-1.304431
-2.903370
-3.981877
-4.561928
-4.480567
-3.821492
-3.333791
-3.478979
-3.495813
-2.684069
-1.787222
-1.182155
-0.219144
0.550282
0.377974
-0.084010
-0.561424
-1.389066
-2.615566
-3.885319
-3.843470
-1.926800
0.332617
2.042844
3.225390
3.373852
2.748678
1.819567
0.360439
-1.288534
-2.797227
-3.785488
-3.423336
-2.045335
-0.256553
1.883861
3.925613
5.904239
7.804309
8.626107
7.751471
5.568740
3.331066
2.179147
2.070198
2.865108
5.087351
8.363318
10.666923
10.650557
8.519495
4.481582
-0.526355
-4.872413
-8.094840
-10.736282
-13.433367
-15.654441
-15.863222
-13.773075
-10.403121
-7.229557
-5.624071
-5.268465
-4.351513
-1.723631
1.898590
4.988922
6.944168
7.905309
8.282190
8.903623
9.800002
9.857048
8.709571
6.942532
4.961100
3.233104
1.785198
-0.106924
-2.303449
-4.167748
-5.287404
-4.939513
-3.729145
-2.668874
-1.074611
0.626732
1.074220
0.708327
0.259904
-0.021354
0.216885
1.121213
2.315449
2.601383
1.162829
-1.457571
-3.976503
-5.342580
-5.399861
-4.358528
-2.782500
-1.380652
-0.131707
0.742461
0.744565
0.083620
-0.891081
-1.758235
-2.109164
-2.026634
-1.844740
-1.836791
-1.934986
-2.218816
-3.145588
-4.704314
-6.364275
-7.345288
-7.096762
-5.748687
-3.605701
-1.375743
0.017221
0.757657
1.774909
3.524882
5.497429
6.264518
4.773826
1.771636
-1.037906
-2.885840
-3.742473
-3.448356
-2.405386
-1.429984
-0.541788
0.622288
1.762050
2.255596
2.036761
1.416497
0.706221
0.810495
2.515578
5.348967
8.497515
10.445280
9.309259
5.691714
1.496689
-1.956496
-3.303870
-2.647835
-1.440506
-0.929892
-2.052353
-4.117251
-5.516995
-5.736531
-5.012460
-3.904729
-2.644562
-1.038141
0.453719
0.925055
0.182748
-0.879393
-1.260716
-0.525424
1.032367
2.247646
2.271727
0.845797
-1.937559
-4.939516
-7.119676
-8.212444
-8.032888
-6.930534
-5.333932
-3.315093
-1.317062
0.085722
0.504219
-0.059700
-0.854143
-1.097059
-0.366208
1.810210
5.233002
8.500319
9.979087
8.610905
4.623259
-0.148309
-3.615289
-4.936478
-4.372559
-2.616975
-1.152703
-1.520933
-3.794846
-7.006519
-9.716229
-11.173955
-11.822041
-11.212999
-8.771454
-5.192252
-1.291345
1.933888
3.793044
4.288694
3.436270
1.849955
0.295905
-0.830998
-0.942286
0.179240
1.926874
3.318669
3.686199
3.140048
2.225667
1.110220
-0.350311
-1.557640
-1.803128
-1.150366
0.293800
1.678114
1.570099
0.157496
-1.312153
-2.302285
-2.826692
-2.653682
-1.581254
-0.304487
0.252184
-0.097343
-1.024349
-2.546603
-5.207216
-8.146749
-9.675550
-9.932727
-9.324152
-7.891209
-6.674996
-5.860212
-4.726529
-3.344787
-1.656537
0.356457
1.831250
2.404989
2.719913
3.252504
3.916955
4.464976
5.239546
7.195728
10.315986
13.216475
14.420531
12.940594
8.491199
1.693543
-5.930118
-12.418694
-16.290610
-16.929578
-15.075566
-12.214121
-8.590030
-4.026775
0.905646
5.800192
9.870368
12.215589
12.586859
10.768617
7.343020
3.049801
-1.568163
-4.733077
-5.481929
-4.247246
-1.416896
1.575241
3.212523
3.315394
2.286920
0.671381
-1.174215
-2.765439
-3.513357
-3.378456
-2.410301
-0.326700
2.750773
5.655938
7.263762
7.381596
6.293503
4.720515
3.332928
2.397973
2.271255
3.047462
4.475262
6.375566
8.421993
10.092241
10.564745
8.779937
4.856819
0.301513
-3.735465
-6.600183
-7.540983
-6.088401
-2.687586
0.891383
2.939447
3.390208
3.151033
2.888947
2.639485
2.096140
1.144819
0.086886
-0.873319
-1.704468
-2.408198
-3.496057
-4.899308
-5.918898
-6.954854
-8.467756
-9.671812
-9.472850
-7.494692
-4.403424
-1.799624
-0.634846
-0.402218
-1.049837
-1.629888
-0.697270
0.258727
0.568040
0.844155
0.604513
1.016931
2.542458
4.273259
6.132181
7.097296
6.944861
6.156964
4.548205
3.413587
3.259982
3.048395
2.741419
2.028338
1.006644
0.457688
-0.693530
-2.618617
-4.460706
-7.221617
-10.174711
-11.715669
-12.042283
-10.691403
-8.502827
-7.381535
-7.080872
-6.749347
-5.904872
-4.701985
-3.189083
-1.219574
0.121019
0.778691
1.200695
1.088706
1.884785
4.249177
6.712465
8.502885
8.771751
7.179826
4.958518
2.969371
2.041196
2.602309
3.271203
3.123209
2.529364
1.777005
1.696812
3.088373
5.090145
6.379304
6.377199
5.048529
3.176515
1.608670
0.646594
0.290054
-0.260305
-1.223316
-1.477220
-0.146446
2.913960
6.239259
8.105662
8.688519
8.253890
7.211621
6.651677
7.301867
9.580689
12.086528
12.869047
12.083489
9.929047
6.170054
1.676237
-2.192640
-4.514247
-5.108092
-4.213350
-2.436257
-0.822355
0.032642
0.186714
-0.301221
-0.850878
-0.325068
1.426775
3.617221
5.794575
7.484462
7.556705
5.993771
4.515470
3.841199
3.910169
4.354618
3.348588
0.357386
-3.912687
-8.605934
-11.362403
-11.743961
-11.205993
-10.245554
-9.914030
-10.205575
-10.011991
-9.016950
-6.056609
-1.158556
3.907831
8.509896
11.703099
12.872553
12.827196
11.478887
9.158917
6.740284
4.074294
1.536659
-1.002380
-4.193946
-6.930543
-8.189775
-8.215727
-7.170419
-4.926901
-1.968430
0.647761
2.624517
3.714246
3.432988
2.240856
0.467036
-1.609552
-3.125961
-3.836003
-3.747628
-3.050210
-2.418958
-1.927984
-1.263064
0.326991
3.220232
6.340724
9.622536
12.285253
11.591109
8.001620
3.435559
-1.644622
-6.227750
-9.395001
-10.655870
-10.991369
-11.340662
-10.159051
-7.407725
-4.063956
0.188349
4.713495
8.136287
9.317196
8.677761
7.374809
5.377479
3.476005
2.278262
0.806976
-1.146868
-2.985450
-4.437331
-5.419747
-5.415772
-4.258710
-2.942899
-1.923543
-1.339517
-1.523516
-1.448233
-0.431449
0.279763
-0.495042
-2.259743
-3.516404
-4.119367
-4.561010
-3.969737
-2.200827
-0.221733
1.738423
3.695774
5.365320
6.185014
5.892533
5.051331
4.038287
2.593420
0.740810
-1.055922
-2.656732
-3.958749
-4.542774
-4.230655
-2.978203
-0.541100
3.004903
6.725786
9.859371
12.025970
12.259066
10.607522
7.768989
3.552690
-1.120216
-5.263104
-9.118187
-11.916507
-12.486271
-10.393318
-6.161587
-1.430232
2.727385
5.707832
7.038840
6.936203
5.223872
2.644854
0.423079
-2.206907
-4.848816
-6.622168
-8.556373
-9.820281
-9.988147
-10.587604
-11.063147
-11.181215
-11.072265
-9.233216
-5.634842
-1.079770
3.877667
7.849181
10.129406
10.972245
10.503247
8.970239
6.884299
4.328662
1.459501
-0.840596
-2.373605
-3.293129
-3.303183
-2.728275
-1.447300
0.847654
3.249453
5.494141
7.351426
7.877470
7.476741
6.417406
4.562225
2.562089
0.320908
-1.745158
-2.864813
-3.341292
-2.878374
-2.016363
-1.729494
-1.306788
-0.514216
0.745484
2.710316
4.872473
7.223538
9.170836
9.881346
9.536261
8.448402
7.408238
6.470243
5.252861
4.500735
3.757494
2.597859
2.256749
2.607679
2.922837
3.086495
2.526317
1.456928
0.161925
-2.095855
-5.109736
-8.145593
-10.797555
-12.068711
-11.681777
-10.383501
-8.502602
-6.712182
-5.571953
-4.283730
-2.365190
-0.464184
0.907270
1.867710
2.650697
3.154296
3.271195
3.129513
3.131150
3.779470
5.005269
6.254214
6.534770
5.082889
2.745150
0.381694
-1.878892
-3.318382
-4.037776
-4.613852
-4.730985
-4.749923
-5.124700
-5.654484
-6.503402
-7.507094
-7.880000
-6.840304
-4.389875
-1.255823
2.349331
6.083073
9.244012
11.562346
12.858051
13.442777
13.442544
11.921459
8.510123
4.210357
0.371640
-2.520199
-4.619932
-6.064565
-7.687586
-9.871954
-11.032056
-9.617816
-5.573825
0.676745
8.113836
14.832000
19.825676
22.953883
23.373783
20.480308
14.793424
7.769920
1.057600
-4.950288
-10.172150
-13.559638
-14.562161
-13.747612
-11.610471
-8.590278
-5.492698
-2.788599
-0.978073
-0.622233
-0.767889
-0.211919
0.748286
2.044692
3.633111
4.553103
5.215684
6.164200
6.244392
5.377472
4.001575
1.799672
-0.862343
-3.402785
-4.983020
-4.986294
-3.827361
-2.183532
-0.903258
-0.019271
0.666924
1.055028
2.449628
5.106033
7.173268
7.748643
6.783060
4.638438
2.494050
1.063678
0.700123
2.119039
4.817760
7.423197
9.735686
11.221935
11.220532
10.811855
10.259392
8.826448
7.028547
5.275769
3.708860
2.520702
1.047078
-0.366461
-0.582957
-0.124013
0.109551
-0.543679
-2.350698
-3.889318
-4.485267
-4.770734
-4.611985
-4.472408
-4.854199
-5.054096
-4.737301
-4.009958
-3.567379
-4.338677
-6.205782
-8.837404
-11.415954
-12.685473
-12.713061
-11.660973
-8.822207
-4.592113
-0.398258
3.287322
6.621271
9.182287
10.363196
9.854220
7.934978
5.151855
1.772316
-1.530071
-4.226922
-6.544788
-8.536975
-10.269179
-11.853389
-13.197723
-14.126132
-14.068384
-12.542156
-9.536224
-5.433316
-1.002624
2.733456
4.766323
4.843242
3.109402
0.025616
-3.243571
-5.978298
-7.407734
-6.503407
-3.844898
-0.967087
1.092666
2.072745
2.446820
2.326882
1.558858
0.833385
0.616187
0.653595
1.248141
2.378317
2.871863
1.839882
-0.662684
-3.805153
-6.632931
-8.505179
-8.514064
-6.246698
-2.578886
1.254454
3.612065
3.021727
0.515420
-2.162026
-5.196013
-8.217843
-10.146203
-11.118332
-11.306071
-10.792418
-9.547448
-7.362379
-4.784998
-2.167170
0.094819
1.196939
1.290925
0.959401
0.396417
-0.752229
-2.572575
-4.080567
-4.868698
-4.863788
-3.560134
-1.612136
-0.153474
0.510510
0.930643
1.905812
3.059835
3.984269
4.743643
4.525978
3.158731
0.994937
-2.208319
-5.637423
-8.208492
-9.659438
-9.773999
-9.277413
-9.296117
-9.703158
-9.950282
-9.930877
-9.449021
-8.115909
-6.550402
-5.734917
-5.017393
-3.791361
-2.309086
0.275543
4.351097
8.780152
12.831157
16.062703
17.745342
17.492139
15.433788
11.650715
6.176352
0.370932
-3.755590
-5.477741
-4.714393
-1.806422
2.105707
5.857686
8.332897
8.758408
6.829347
2.916282
-1.217721
-4.274387
-5.825865
-4.903067
-1.572625
2.932180
7.394669
10.496924
11.501551
10.286507
7.425997
4.439003
2.578445
2.119734
2.801253
4.279554
5.544864
5.586948
4.748317
3.313503
1.547165
0.245382
-1.164884
-3.559201
-6.527959
-9.189273
-10.301213
-9.418395
-7.360044
-4.846256
-3.090906
-3.234925
-4.804172
-6.852236
-8.091596
-7.353498
-5.331151
-2.790710
0.503727
4.209647
7.709826
10.331863
11.247880
9.710663
5.177568
-0.719033
-5.193913
-7.337366
-6.810153
-4.085714
-0.762753
2.659805
5.107195
5.362735
4.094619
1.406885
-2.714259
-6.936404
-9.785691
-10.427231
-9.420734
-7.512481
-5.347518
-4.094365
-3.423133
-2.800531
-2.688542
-2.648562
-2.699764
-3.199155
-3.542369
-3.800715
-4.007626
-3.635421
-2.699530
-0.959377
1.537344
3.984967
5.933667
6.813213
5.901871
3.295733
0.184592
-1.848275
-2.498231
-2.366837
-1.687189
-1.179381
-2.028533
-4.611525
-8.171790
-11.668228
-14.157467
-14.176405
-11.626612
-8.136486
-4.273922
-0.846454
1.114170
2.322434
3.036217
3.165507
3.003719
2.213251
0.988153
-0.280197
-1.225673
-1.016191
0.469824
2.560907
4.015827
4.031258
2.864142
0.561940
-2.544992
-5.702424
-8.450243
-9.973198
-9.468898
-7.086504
-3.531616
0.885282
5.455083
8.534427
9.513570
8.520866
5.633002
2.141942
-0.549766
-1.907193
-1.966344
-1.269862
0.343105
2.859232
5.150678
6.668958
6.942734
5.349406
2.992028
1.426989
0.576669
-0.283472
-1.317089
-2.261163
-3.008846
-3.460309
-2.782764
-0.771173
1.484269
3.909682
6.926836
9.451379
10.239275
8.970224
5.956343
2.581012
0.700113
0.614777
1.012934
1.189684
1.289282
0.739858
-0.839442
-2.733200
-4.790850
-6.920041
-8.388055
-9.174315
-9.082199
-8.015382
-6.948331
-6.421820
-6.896194
-8.455155
-9.969226
-10.665240
-10.309635
-8.882770
-6.581503
-3.892367
-1.355199
1.160225
2.980571
3.437411
3.257854
2.610937
1.782593
1.142924
0.462340
0.131751
-0.049442
0.188096
1.823742
4.202863
7.166710
10.881749
14.267367
16.731356
17.719617
16.527251
13.214812
8.509174
3.722409
-0.126829
-2.749333
-4.235349
-4.608022
-3.832049
-2.343929
-0.732131
0.383316
0.561703
-0.015308
-0.928287
-1.764813
-2.479765
-3.245919
-3.869223
-3.879743
-2.997626
-1.745175
-0.692152
-0.153015
-0.673916
-1.664515
-2.038824
-2.107327
-2.474388
-3.163389
-3.984017
-4.754146
-5.275280
-5.101335
-4.037791
-2.533773
-1.268696
-0.466538
0.203525
0.926660
1.972903
3.964622
6.580579
8.210146
7.820874
5.719036
2.551317
-0.342392
-1.494077
-0.967799
1.009190
4.500952
8.657634
12.669127
15.803180
16.937330
15.806453
13.197041
10.294682
8.361880
7.652305
7.170917
6.424636
5.450169
3.674479
0.913333
-2.704212
-7.500797
-12.965574
-17.818504
-21.274729
-23.074267
-22.888164
-20.269635
-15.811589
-10.964270
-6.595534
-3.161053
-0.971307
0.254725
1.179394
2.028545
2.310271
1.759211
1.087277
1.352170
2.865773
5.155817
7.567436
9.296367
9.685405
8.865245
7.546394
6.094747
4.583949
3.682427
3.854034
4.443203
4.777299
4.781508
4.408601
3.723341
3.050239
2.296009
1.756638
2.401685
3.646889
4.430344
4.684014
3.519236
0.456024
-3.407476
-6.969143
-9.194660
-9.556344
-8.238896
-5.374646
-1.662647
1.841974
4.733111
7.133507
9.293794
11.318011
13.212704
14.913111
16.345821
17.548708
18.009054
16.796816
13.448137
8.376139
3.118974
-0.604014
-1.339540
1.866055
7.378059
12.019636
14.179455
13.587948
10.647012
6.292538
0.978326
-5.120743
-10.865843
-14.821927
-16.692773
-16.901320
-16.172574
-15.300043
-14.758100
-15.053153
-16.141245
-17.188657
-17.227234
