EVENT_NAME: 202302060117
EVENT_ID: 13194
EVENT_DATE_YYYYMMDD: 2023/02/06
EVENT_TIME_HHMMSS: 01:17:32.00000
EVENT_LATITUDE_DEGREE: 37.288
EVENT_LONGITUDE_DEGREE: 37.043
EVENT_DEPTH_KM: 8.6
HYPOCENTER_REFERENCE: AFAD
MAGNITUDE_W: 7.7
MAGNITUDE_W_REFERENCE: AFAD
MAGNITUDE_L: 
MAGNITUDE_L_REFERENCE: 
FOCAL_MECHANISM: 
NETWORK: TK
STATION_CODE: 5802
STATION_NAME: 
STATION_LATITUDE_DEGREE: 39.89281
STATION_LONGITUDE_DEGREE: 37.74792
STATION_ELEVATION_M: 1349.0
LOCATION: Kahramanmaras_Pazarck_Turkiye
SENSOR_DEPTH_M: 
VS30_M/S: 282
SITE_CLASSIFICATION_EC8: unknown
MORPHOLOGIC_CLASSIFICATION: 
EPICENTRAL_DISTANCE_KM: 296.05
EARTHQUAKE_BACKAZIMUTH_DEGREE: 
DATE_TIME_FIRST_SAMPLE_YYYYMMDD_HHMMSS: 2023/02/06 01:18:00.5251330
DATE_TIME_FIRST_SAMPLE_PRECISION: millisecond
SAMPLING_INTERVAL_S: 0.01
NDATA: 18251
DURATION_S: 
STREAM: HNE
UNITS: cm/s^2
INSTRUMENT: sensor = GMS+/GEOSIG | digitizer = 
INSTRUMENT_ANALOG/DIGITAL: 
INSTRUMENTAL_FREQUENCY_HZ: 
INSTRUMENTAL_DAMPING: 
FULL_SCALE_G: 
N_BIT_DIGITAL_CONVERTER: 
PGA_CM/S^2: 14.344
TIME_PGA_S: 
BASELINE_CORRECTION: BASELINE REMOVED
FILTER_TYPE: BUTTERWORTH
FILTER_ORDER: 
LOW_CUT_FREQUENCY_HZ: 
HIGH_CUT_FREQUENCY_HZ: 
LATE/NORMAL_TRIGGERED: 
DATABASE_VERSION: 
HEADER_FORMAT: DYNA 1.2
DATA_TYPE: Acceleration
PROCESSING: Automatic Paolucci et al., 2011
DATA_TIMESTAMP_YYYYMMDD_HHMMSS: 
DATA_LICENSE: U (unknown license)
DATA_CITATION: Turkish Accelerometric Archive v 1.0 - Disaster And Emergency Management Presidency, Earthquake Department
DATA_CREATOR: AFAD
ORIGINAL_DATA_MEDIATOR_CITATION: : AFAD - Disaster And Emergency Management Presidency
ORIGINAL_DATA_MEDIATOR: AFAD PROCESS SERVICE
ORIGINAL_DATA_CREATOR_CITATION: AFAD PROCESS SERVICE
ORIGINAL_DATA_CREATOR: network: TK
USER1: GuestUser
USER2: 
USER3: 
USER4: 
USER5: 
[...]
-6.453471
-5.848991
-5.180348
-4.523135
-3.905666
-3.333657
-2.823993
-2.384985
-2.033778
-1.765438
-1.541258
-1.345393
-1.194987
-1.112121
-1.118095
-1.218106
-1.380461
-1.583859
-1.834535
-2.148594
-2.541623
-3.009984
-3.551340
-4.137896
-4.710424
-5.200866
-5.577010
-5.877302
-6.145901
-6.410345
-6.667775
-6.875329
-7.011447
-7.112237
-7.208871
-7.299789
-7.394605
-7.508643
-7.630214
-7.696195
-7.636708
-7.431751
-7.094831
-6.638419
-6.068228
-5.370232
-4.540533
-3.626150
-2.654098
-1.615286
-0.487114
0.729640
1.973668
3.173536
4.250275
5.156605
5.930714
6.631568
7.270077
7.792471
8.130689
8.246805
8.140301
7.838710
7.338397
6.618840
5.676922
4.557322
3.349921
2.101217
0.868359
-0.318781
-1.474748
-2.551745
-3.517562
-4.330896
-4.936415
-5.347627
-5.585574
-5.694417
-5.721692
-5.653893
-5.481407
-5.226834
-4.926802
-4.621834
-4.311931
-3.969816
-3.592893
-3.202721
-2.814628
-2.417962
-1.978435
-1.452405
-0.818571
-0.093298
0.660029
1.346855
1.923800
2.417619
2.897151
3.389411
3.853097
4.259114
4.589539
4.857880
5.091411
5.312214
5.525743
5.715894
5.906304
6.128925
6.414150
6.758083
7.125135
7.476342
7.736370
7.860019
7.861578
7.805468
7.758970
7.731954
7.705458
7.641815
7.504918
7.292168
6.999150
6.629500
6.225302
5.799542
5.325206
4.787746
4.187942
3.555408
2.915080
2.282805
1.705860
1.229186
0.876422
0.673543
0.623148
0.710950
0.928636
1.256983
1.641959
1.963032
2.114217
2.090578
1.931341
1.648454
1.231786
0.690949
0.061532
-0.606331
-1.262765
-1.883870
-2.454839
-2.934890
-3.239338
-3.248690
-2.908653
-2.296900
-1.562276
-0.852070
-0.262657
0.171935
0.433522
0.494827
0.380270
0.159467
-0.088092
-0.309674
-0.492030
-0.626071
-0.722444
-0.770761
-0.796478
-0.856744
-0.955975
-1.065077
-1.133136
-1.164308
-1.217301
-1.365628
-1.638904
-1.982577
-2.323392
-2.612254
-2.845785
-2.990216
-2.993853
-2.841888
-2.520815
-2.059467
-1.529540
-0.989483
-0.473583
0.010884
0.463919
0.887341
1.318296
1.773930
2.210340
2.571417
2.789882
2.835082
2.761828
2.620254
2.422052
2.172934
1.878617
1.565078
1.239589
0.893838
0.552243
0.224156
-0.084448
-0.345514
-0.556965
-0.708929
-0.742959
-0.582942
-0.169391
0.468859
1.196729
1.877840
2.406728
2.733257
2.895352
2.962112
2.984712
3.005754
3.076151
3.229414
3.478792
3.802982
4.155747
4.518643
4.896086
5.320807
5.800338
6.311562
6.840709
7.334528
7.731194
7.979532
8.055385
7.992781
7.852246
7.716907
7.637678
7.591959
7.529356
7.417136
7.255820
7.045928
6.797070
6.510546
6.173887
5.795146
5.343929
4.760231
4.024049
3.178764
2.353741
1.692372
1.283498
1.132573
1.188942
1.428189
1.813165
2.272695
2.718716
3.047843
3.208639
3.176168
2.954067
2.572987
2.049555
1.419099
0.738507
0.093503
-0.423175
-0.772823
-0.956478
-0.986611
-0.873352
-0.639561
-0.356933
-0.115089
0.033758
0.101038
0.134029
0.143121
0.124937
0.048046
-0.159249
-0.495129
-0.902444
-1.321970
-1.743053
-2.225702
-2.753031
-3.238537
-3.641696
-3.971861
-4.252930
-4.483604
-4.623618
-4.642062
-4.567768
-4.443339
-4.285140
-4.092132
-3.867433
-3.634421
-3.421931
-3.233339
-3.039033
-2.789655
-2.441306
-2.028015
-1.630051
-1.330798
-1.193640
-1.171560
-1.204810
-1.279363
-1.370542
-1.444056
-1.457044
-1.415481
-1.360670
-1.308197
-1.288714
-1.350538
-1.507958
-1.762530
-2.086720
-2.414028
-2.695876
-2.911743
-3.077734
-3.212294
-3.346334
-3.494142
-3.605842
-3.663770
-3.697020
-3.740661
-3.812097
-3.882494
-3.916004
-3.900158
-3.837554
-3.754168
-3.680394
-3.613373
-3.591033
-3.663249
-3.826642
-4.020689
-4.150053
-4.180706
-4.096021
-3.911846
-3.699355
-3.473357
-3.189950
-2.790946
-2.286477
-1.736548
-1.186100
-0.662927
-0.148067
0.361079
0.820868
1.212079
1.526658
1.770580
2.005670
2.301026
2.684444
3.135401
3.603763
4.044589
4.409563
4.632444
4.672449
4.533993
4.250326
3.894964
3.540641
3.229958
2.957981
2.649897
2.268558
1.855007
1.449250
1.057520
0.698521
0.420829
0.258994
0.240291
0.374851
0.649945
1.034921
1.481722
1.930082
2.315578
2.610934
2.827321
2.977467
3.054098
3.035136
2.888627
2.587556
2.126728
1.528222
0.843994
0.120281
-0.579794
-1.204795
-1.729526
-2.131387
-2.430899
-2.650923
-2.830422
-3.020312
-3.217216
-3.364505
-3.420874
-3.422173
-3.444253
-3.550238
-3.739609
-3.994701
-4.325125
-4.723349
-5.136120
-5.508887
-5.793073
-5.935945
-5.941400
-5.870224
-5.801645
-5.774889
-5.775148
-5.768654
-5.691243
-5.482649
-5.102609
-4.548783
-3.872088
-3.119800
-2.314779
-1.480404
-0.610701
0.309657
1.255472
2.199469
3.107098
3.939655
4.671681
5.264991
5.699063
5.970001
6.074688
6.052348
5.920386
5.655683
5.285774
4.844948
4.364897
3.839906
3.244778
2.627829
2.036078
1.525374
1.133125
0.841925
0.636189
0.514878
0.502669
0.632812
0.919337
1.345096
1.891129
2.514312
3.199320
3.835752
4.311907
4.692727
4.895086
4.928856
4.916647
4.831703
4.693766
4.531671
4.398670
4.385682
4.541543
4.857941
5.298247
5.852332
6.511104
7.243910
8.015161
8.767189
9.411933
9.939002
10.395674
10.818317
11.224075
11.590088
11.877132
12.028836
12.020004
11.838427
11.432929
10.826631
10.119802
9.390894
8.703029
8.073351
7.481081
6.924918
6.425384
6.001183
5.643743
5.338515
5.083164
4.874830
4.702344
4.594801
4.615842
4.789627
5.082385
5.440605
5.834933
6.250562
6.696584
7.181311
7.646296
8.006854
8.204537
8.219864
8.096994
7.923729
7.763712
7.626814
7.477708
7.243657
6.867253
6.339145
5.674919
4.916397
4.120208
3.317785
2.502114
1.654491
0.818299
0.075622
-0.521065
-0.979035
-1.358556
-1.703787
-2.049538
-2.422045
-2.821568
-3.241873
-3.680621
-4.111575
-4.469016
-4.735538
-4.932182
-5.068300
-5.178441
-5.284686
-5.358460
-5.382878
-5.374046
-5.347030
-5.282607
-5.141553
-4.905684
-4.592404
-4.283020
-4.020914
-3.766341
-3.493325
-3.176668
-2.828579
-2.508804
-2.226436
-1.971344
-1.740410
-1.503242
-1.250747
-0.953313
-0.575350
-0.148032
0.296171
0.694915
0.987154
1.190553
1.301734
1.281212
1.116000
0.838048
0.533341
0.293835
0.158756
0.121609
0.146807
0.201098
0.286562
0.428915
0.659589
0.975207
1.357066
1.785164
2.211963
2.607330
2.959056
3.280649
3.601722
3.953188
4.373752
4.829645
5.218258
5.480624
5.613625
5.639862
5.583752
5.455947
5.296969
5.171761
5.111235
5.128899
5.222936
5.356716
5.460883
5.446336
5.290216
5.017460
4.636900
4.172435
3.630819
3.045822
2.498491
2.026233
1.615800
1.212900
0.774932
0.311766
-0.161272
-0.636647
-1.080330
-1.426861
-1.635194
-1.693902
-1.584799
-1.291261
-0.806014
-0.152698
0.600629
1.357853
2.024677
2.510963
2.757743
2.779304
2.627339
2.372507
2.062864
1.733738
1.425134
1.113932
0.770000
0.401129
0.047845
-0.213221
-0.362328
-0.427789
-0.371420
-0.169840
0.056159
0.249686
0.473866
0.700124
0.863778
0.963269
1.030030
1.087438
1.147185
1.230831
1.339674
1.426696
1.429813
1.300449
1.033668
0.695710
0.345802
0.028626
-0.210101
-0.359467
-0.432981
-0.478181
-0.535849
-0.584685
-0.545460
-0.353232
-0.013195
0.448672
0.981197
1.469301
1.785438
1.869603
1.724133
1.377084
0.905345
0.387368
-0.119699
-0.553251
-0.881857
-1.092269
-1.211762
-1.277224
-1.290732
-1.260598
-1.208385
-1.178511
-1.181369
-1.180589
-1.154093
-1.106555
-1.055121
-1.014337
-0.977969
-0.901078
-0.806782
-0.787819
-0.866009
-0.972514
-1.055379
-1.105514
-1.099280
-1.046807
-0.986800
-0.940042
-0.905752
-0.878736
-0.875879
-0.922117
-1.033557
-1.189937
-1.337745
-1.420871
-1.416195
-1.352292
-1.273322
-1.203445
-1.150192
-1.128371
-1.180844
-1.360863
-1.686093
-2.109774
-2.551119
-2.967787
-3.358997
-3.729686
-4.074917
-4.392094
-4.707712
-5.039435
-5.389862
-5.763148
-6.129421
-6.434908
-6.629474
-6.682466
-6.592327
-6.371524
-6.026812
-5.558710
-5.003326
-4.458333
-3.994387
-3.621100
-3.316912
-3.058702
-2.852447
-2.694248
-2.598913
-2.606706
-2.743863
-2.991162
-3.276906
-3.573821
-3.866579
-4.107904
-4.242723
-4.256750
-4.186873
-4.090758
-4.048676
-4.130762
-4.384815
-4.782260
-5.250102
-5.746258
-6.243194
-6.748702
-7.297592
-7.882849
-8.434856
-8.893606
-9.228966
-9.424831
-9.462237
-9.307415
-8.944000
-8.374588
-7.606714
-6.682719
-5.673521
-4.636267
-3.622133
-2.641509
-1.706085
-0.885218
-0.200989
0.379332
0.880425
1.322810
1.689602
1.963398
2.143417
2.228621
2.242389
2.189656
2.082892
1.940020
1.754805
1.543874
1.298913
1.009532
0.675470
0.300365
-0.107470
-0.574533
-1.128617
-1.755697
-2.400960
-3.011675
-3.548095
-4.001650
-4.393120
-4.717310
-4.977597
-5.171644
-5.288539
-5.350364
-5.382056
-5.397122
-5.384913
-5.299189
-5.087478
-4.714971
-4.207644
-3.622906
-2.999203
-2.359654
-1.676724
-0.949894
-0.182539
0.633392
1.473482
2.341886
3.211849
4.026741
4.735388
5.318048
5.782773
6.146968
6.427777
6.599484
6.657152
6.599484
6.438168
6.206455
5.881226
5.414164
4.784486
4.021548
3.163795
2.233306
1.228524
0.177763
-0.844164
-1.773873
-2.565646
-3.225456
-3.764215
-4.168673
-4.423246
-4.534426
-4.550532
-4.520139
-4.471302
-4.401424
-4.277515
-4.061648
-3.737977
-3.313256
-2.808267
-2.235738
-1.574369
-0.822860
-0.006669
0.828744
1.621816
2.350985
3.034434
3.702038
4.370681
4.999579
5.530025
5.920457
6.157625
6.271923
6.307252
6.304135
6.280756
6.235556
6.181265
6.139962
6.146456
6.220490
6.334788
6.424668
6.421032
6.285693
6.026444
5.693162
5.320395
4.905027
4.433288
3.903362
3.341744
2.774671
2.228119
1.727287
1.259185
0.798617
0.321943
-0.163304
-0.591141
-0.918189
-1.141329
-1.294592
-1.410189
-1.447595
-1.393044
-1.273810
-1.106000
-0.923383
-0.754014
-0.585684
-0.383325
-0.118881
0.213882
0.553398
0.808491
0.922529
0.885382
0.729522
0.491055
0.215441
-0.095501
-0.481256
-0.964424
-1.539550
-2.134938
-2.711103
-3.274280
-3.762643
-4.167881
-4.580652
-4.997320
-5.295793
-5.408013
-5.352682
-5.147205
-4.815222
-4.405827
-3.963702
-3.492743
-2.991131
-2.508222
-2.079085
-1.699564
-1.373296
-1.120022
-0.974811
-0.982604
-1.169897
-1.546820
-2.119348
-2.852153
-3.663928
-4.478820
-5.258123
-5.993007
-6.655675
-7.182484
-7.523039
-7.650585
-7.578370
-7.356268
-7.051300
-6.760360
-6.525010
-6.319014
-6.132760
-5.962092
-5.845197
-5.864419
-6.058985
-6.399022
-6.845303
-7.380165
-7.962564
-8.507297
-8.942668
-9.238024
-9.397002
-9.439344
-9.388429
-9.239063
-8.956175
-8.534572
-7.979448
-7.321975
-6.638785
-5.985988
-5.400991
-4.892625
-4.431536
-3.979020
-3.505983
-3.003072
-2.462235
-1.904773
-1.360039
-0.856869
-0.456826
-0.215761
-0.165626
-0.279144
-0.503843
-0.809330
-1.131962
-1.408615
-1.599544
-1.672539
-1.628118
-1.491220
-1.339256
-1.229374
-1.138455
-1.040522
-0.898689
-0.712695
-0.548002
-0.451628
-0.458122
-0.563847
-0.726202
-0.928042
-1.188329
-1.564473
-2.093360
-2.747715
-3.462856
-4.161372
-4.779360
-5.279153
-5.626982
-5.799208
-5.813235
-5.723875
-5.587237
-5.417349
-5.227198
-5.058609
-4.971067
-5.025358
-5.233952
-5.572949
-5.987278
-6.410960
-6.814379
-7.178833
-7.460682
-7.610567
-7.612126
-7.498867
-7.331057
-7.135971
-6.888931
-6.560844
-6.177946
-5.794269
-5.465922
-5.242262
-5.130302
-5.131341
-5.243300
-5.409811
-5.553463
-5.625419
-5.584115
-5.390328
-5.063540
-4.635442
-4.097982
-3.466486
-2.813689
-2.231809
-1.768123
-1.419774
-1.176112
-1.026226
-0.986481
-1.083634
-1.306774
-1.618236
-1.966325
-2.320648
-2.670036
-2.992148
-3.262566
-3.478693
-3.631956
-3.683650
-3.614291
-3.447520
-3.238407
-3.047477
-2.942011
-2.971625
-3.135538
-3.398683
-3.676115
-3.875357
-3.959781
-3.954586
-3.916400
-3.904710
-3.931985
-3.929647
-3.831715
-3.603119
-3.259446
-2.859922
-2.447151
-2.071786
-1.786561
-1.621868
-1.592514
-1.691226
-1.862413
-2.052822
-2.253103
-2.438318
-2.615219
-2.833424
-3.072151
-3.289576
-3.468556
-3.589868
-3.681826
-3.753521
-3.775082
-3.735337
-3.628573
-3.470893
-3.282821
-3.086696
-2.934472
-2.862516
-2.851866
-2.860438
-2.846930
-2.769778
-2.592357
-2.282453
-1.841108
-1.295855
-0.677087
-0.009743
0.715529
1.504444
2.334663
3.167998
3.950160
4.643221
5.216009
5.620468
5.842310
5.884652
5.771653
5.541239
5.230557
4.867661
4.443201
4.027832
3.611424
3.169299
2.820431
2.485590
2.062948
1.594327
1.091416
0.540189
-0.027923
-0.494986
-0.829826
-1.056084
-1.183890
-1.238701
-1.197917
-1.071670
-0.901781
-0.678900
-0.370556
0.032604
0.490835
0.925427
1.296116
1.615111
1.837992
1.961122
2.030740
2.086071
2.199850
2.378830
2.621713
2.917849
3.225154
3.530122
3.815087
4.079012
4.295399
4.434634
4.495160
4.502174
4.504253
4.542958
4.645047
4.781685
4.960666
5.216797
5.508776
5.813484
6.110659
6.369388
6.614609
6.870740
7.148172
7.439632
7.692646
7.858378
7.929035
7.947219
7.963585
7.983847
7.984367
7.946181
7.889032
7.813440
7.693167
7.514187
7.251822
6.906071
6.490442
6.025458
5.554499
5.125103
4.767662
4.488412
4.319563
4.276442
4.373075
4.635701
5.044836
5.567229
6.149369
6.744757
7.327157
7.871111
8.361034
8.784975
9.130986
9.357244
9.444267
9.418810
9.312824
9.168913
9.018508
8.879012
8.758480
8.640805
8.511441
8.363374
8.206474
8.080487
8.007492
8.009570
8.111659
8.308564
8.597166
8.971751
9.439853
10.021734
10.730121
11.548390
12.418093
13.225192
13.855649
14.248678
14.344013
14.152564
13.723168
13.086477
12.267169
11.344214
10.365409
9.367121
8.443646
7.585892
6.890494
6.232502
5.631659
5.319418
4.976005
4.639086
4.468418
4.332820
4.287880
4.289179
4.260085
4.243980
4.255929
4.227095
4.173064
4.123448
4.081366
4.087860
4.162673
4.282167
4.367890
4.424260
4.438028
4.407895
4.387114
4.399583
4.500373
4.692601
4.969254
5.307213
5.665173
6.046772
6.408889
6.695153
6.876731
6.978041
7.064544
7.148449
7.253395
7.387176
7.483290
7.517839
7.467964
7.304570
7.046361
6.712300
6.313037
5.842857
5.296046
4.696761
4.076435
3.447018
2.827991
2.236759
1.696183
1.217171
0.762577
0.330323
-0.049457
-0.363257
-0.594450
-0.718619
-0.738621
-0.704851
-0.645104
-0.584318
-0.553406
-0.512882
-0.439887
-0.365333
-0.304028
-0.249477
-0.169208
-0.065561
0.000161
-0.025556
-0.163493
-0.393907
-0.639127
-0.828758
-0.969032
-1.085928
-1.158143
-1.163079
-1.143856
-1.127490
-1.136842
-1.266206
-1.514544
-1.794833
-2.029144
-2.158508
-2.194616
-2.145779
-2.036157
-1.918222
-1.795871
-1.673520
-1.577666
-1.544415
-1.570392
-1.638971
-1.727032
-1.769634
-1.776387
-1.739500
-1.591173
-1.292699
-0.803556
-0.162449
0.562044
1.339790
2.104806
2.813453
3.438195
3.933573
4.283221
4.472592
4.508959
4.448174
4.360632
4.291534
4.253089
4.296990
4.464540
4.745609
5.103569
5.469323
5.787019
6.014056
6.129394
6.131991
6.018993
5.819751
5.580505
5.327231
5.083309
4.889522
4.770809
4.720154
4.737818
4.787954
4.814190
4.799903
4.726909
4.591830
4.405057
4.151523
3.830710
3.456644
3.050627
2.654481
2.309250
2.042209
1.857254
1.764257
1.805041
2.007400
2.366140
2.833203
3.357674
3.921631
4.494419
5.034217
5.518425
5.962888
6.359034
6.669976
6.863504
6.914938
6.876492
6.816746
6.761415
6.713099
6.643741
6.567629
6.520871
6.516455
6.572045
6.692318
6.876234
7.118598
7.402784
7.703855
7.997393
8.285736
8.559791
8.801115
8.993084
9.125566
9.204535
9.252333
9.313638
9.374164
9.393647
9.355721
9.240904
9.061924
8.837485
8.560832
8.213522
7.772177
7.248745
6.690763
6.144471
5.645977
5.205411
4.815499
4.505077
4.294405
4.195434
4.209461
4.287652
4.415977
4.561188
4.681980
4.775756
4.798616
4.727959
4.566643
4.290770
3.889169
3.351450
2.683067
1.925843
1.056920
0.048501
-0.999403
-1.989118
-2.850768
-3.533438
-4.071158
-4.461069
-4.727331
-4.945017
-5.062432
-5.042949
-4.978007
-4.905531
-4.772530
-4.596927
-4.380540
-4.085703
-3.795023
-3.561491
-3.344585
-3.117288
-2.886094
-2.610480
-2.262131
-1.907548
-1.528027
-1.091357
-0.614682
-0.129176
0.266191
0.582329
0.888076
1.160313
1.390727
1.554900
1.633350
1.619063
1.474113
1.250713
0.974839
0.655845
0.380750
0.170858
0.017595
-0.094884
-0.209442
-0.363224
-0.468950
-0.378550
-0.187361
-0.023187
0.047470
-0.040591
-0.143979
-0.191776
-0.294644
-0.511550
-0.785345
-1.013421
-1.217599
-1.401514
-1.578936
-1.783892
-1.978199
-2.182376
-2.340055
-2.472537
-2.700613
-2.976746
-3.239891
-3.436795
-3.566678
-3.696302
-3.793455
-3.772154
-3.616553
-3.428481
-3.261970
-3.065845
-2.842184
-2.641643
-2.471495
-2.317712
-2.188867
-2.086259
-1.985729
-1.850389
-1.702581
-1.576074
-1.451126
-1.305655
-1.090827
-0.798069
-0.439329
0.041502
0.679232
1.427883
2.222514
3.050394
3.897497
4.708493
5.416101
5.977200
6.381919
6.631815
6.744035
6.713643
6.549469
6.258789
5.820561
5.242058
4.539386
3.738522
2.872975
1.994180
1.151753
0.380502
-0.276711
-0.826639
-1.280973
-1.625685
-1.883894
-2.101579
-2.277962
-2.388103
-2.450188
-2.468631
-2.450447
-2.422392
-2.398233
-2.396675
-2.388881
-2.354332
-2.314847
-2.257179
-2.181066
-2.131451
-2.124177
-2.134048
-2.146517
-2.183144
-2.277180
-2.427845
-2.609942
-2.794117
-2.936210
-3.014140
-2.996996
-2.847629
-2.595394
-2.277698
-1.947273
-1.663866
-1.424879
-1.239145
-1.106144
-1.032110
-1.034447
-1.071594
-1.133159
-1.196282
-1.231091
-1.255249
-1.278888
-1.368508
-1.594766
-1.934022
-2.335364
-2.772293
-3.219873
-3.620695
-3.902283
-4.050870
-4.070612
-3.965406
-3.756553
-3.423790
-2.968157
-2.417189
-1.817904
-1.240700
-0.727918
-0.315666
-0.016413
0.159970
0.191921
0.085676
-0.138763
-0.448926
-0.825849
-1.250050
-1.696071
-2.162095
-2.623442
-3.049981
-3.440672
-3.803308
-4.147500
-4.468573
-4.743407
-4.982134
-5.212028
-5.435169
-5.655712
-5.854434
-6.013672
-6.148491
-6.262789
-6.350850
-6.402544
-6.426442
-6.456315
-6.498657
-6.552689
-6.623605
-6.684391
-6.699197
-6.633476
-6.465406
-6.185636
-5.814427
-5.398539
-4.980052
-4.614039
-4.310370
-4.039692
-3.801225
-3.587176
-3.366893
-3.139855
-2.914636
-2.682144
-2.452249
-2.240538
-2.072468
-1.943883
-1.833741
-1.766981
-1.746978
-1.754512
-1.787242
-1.844910
-1.933751
-2.046230
-2.164684
-2.281580
-2.372498
-2.421335
-2.418217
-2.354834
-2.233782
-2.053503
-1.844389
-1.640212
-1.476558
-1.382262
-1.349271
-1.380962
-1.474479
-1.612675
-1.759963
-1.876599
-1.963361
-2.032979
-2.095063
-2.162343
-2.262354
-2.454842
-2.766823
-3.179854
-3.678868
-4.225939
-4.779504
-5.323718
-5.842994
-6.321746
-6.749843
-7.150145
-7.533303
-7.877235
-8.195191
-8.480676
-8.715246
-8.916047
-9.103079
-9.300503
-9.501044
-9.673529
-9.789126
-9.804452
-9.706519
-9.520525
-9.239197
-8.852662
-8.384820
-7.884247
-7.386531
-6.901285
-6.446690
-6.013397
-5.589716
-5.181360
-4.772745
-4.382834
-4.043317
-3.745623
-3.511052
-3.369219
-3.282975
-3.209461
-3.098800
-2.901376
-2.634075
-2.303130
-1.920752
-1.496550
-1.020396
-0.549956
-0.153550
0.149080
0.366506
0.512755
0.578737
0.544707
0.400017
0.148821
-0.193293
-0.620092
-1.119885
-1.662800
-2.215586
-2.761877
-3.313365
-3.876022
