EVENT_NAME: 202302060117
EVENT_ID: 13194
EVENT_DATE_YYYYMMDD: 2023/02/06
EVENT_TIME_HHMMSS: 01:17:32.00000
EVENT_LATITUDE_DEGREE: 37.288
EVENT_LONGITUDE_DEGREE: 37.043
EVENT_DEPTH_KM: 8.6
HYPOCENTER_REFERENCE: AFAD
MAGNITUDE_W: 7.7
MAGNITUDE_W_REFERENCE: AFAD
MAGNITUDE_L: 
MAGNITUDE_L_REFERENCE: 
FOCAL_MECHANISM: 
NETWORK: TK
STATION_CODE: 0139
STATION_NAME: 
STATION_LATITUDE_DEGREE: 37.400943
STATION_LONGITUDE_DEGREE: 35.445322
STATION_ELEVATION_M: 238.0
LOCATION: Kahramanmaras_Pazarck_Turkiye
SENSOR_DEPTH_M: 
VS30_M/S: None
SITE_CLASSIFICATION_EC8: unknown
MORPHOLOGIC_CLASSIFICATION: 
EPICENTRAL_DISTANCE_KM: 141.79
EARTHQUAKE_BACKAZIMUTH_DEGREE: 
DATE_TIME_FIRST_SAMPLE_YYYYMMDD_HHMMSS: 2023/02/06 01:17:36.4746400
DATE_TIME_FIRST_SAMPLE_PRECISION: millisecond
SAMPLING_INTERVAL_S: 0.01
NDATA: 12501
DURATION_S: 
STREAM: HNE
UNITS: cm/s^2
INSTRUMENT: sensor = GMS+/GEOSIG | digitizer = 
INSTRUMENT_ANALOG/DIGITAL: 
INSTRUMENTAL_FREQUENCY_HZ: 
INSTRUMENTAL_DAMPING: 
FULL_SCALE_G: 
N_BIT_DIGITAL_CONVERTER: 
PGA_CM/S^2: 17.656
TIME_PGA_S: 
BASELINE_CORRECTION: BASELINE REMOVED
FILTER_TYPE: BUTTERWORTH
FILTER_ORDER: 
LOW_CUT_FREQUENCY_HZ: 
HIGH_CUT_FREQUENCY_HZ: 
LATE/NORMAL_TRIGGERED: 
DATABASE_VERSION: 
HEADER_FORMAT: DYNA 1.2
DATA_TYPE: Acceleration
PROCESSING: Automatic Paolucci et al., 2011
DATA_TIMESTAMP_YYYYMMDD_HHMMSS: 
DATA_LICENSE: U (unknown license)
DATA_CITATION: Turkish Accelerometric Archive v 1.0 - Disaster And Emergency Management Presidency, Earthquake Department
DATA_CREATOR: AFAD
ORIGINAL_DATA_MEDIATOR_CITATION: : AFAD - Disaster And Emergency Management Presidency
ORIGINAL_DATA_MEDIATOR: AFAD PROCESS SERVICE
ORIGINAL_DATA_CREATOR_CITATION: AFAD PROCESS SERVICE
ORIGINAL_DATA_CREATOR: network: TK
USER1: GuestUser
USER2: 
USER3: 
USER4: 
USER5: 
[...]
6.771685
6.150060
5.196452
4.029574
2.832303
1.771670
0.883524
-0.008260
-1.045254
-2.001200
-2.340977
-1.851315
-1.019538
-0.555074
-0.753537
-1.345029
-1.900153
-2.077056
-1.600901
-0.621836
0.197471
0.289689
-0.233484
-0.757177
-0.842121
-0.456626
-0.046713
-0.269334
-1.207097
-2.302279
-2.890394
-2.924424
-3.160034
-4.163517
-5.716930
-7.276057
-8.458002
-8.998579
-8.712835
-7.630902
-6.031771
-4.402507
-3.146789
-2.333196
-1.765344
-1.291788
-0.895122
-0.386757
0.339554
0.871558
0.777782
0.155118
-0.480275
-0.634578
-0.094780
1.175744
2.914630
4.543375
5.549975
5.891310
5.967681
6.145362
6.549041
7.164951
7.951787
8.817593
9.582610
10.090455
10.200597
9.755094
8.814994
7.887622
7.498229
7.544208
7.385489
6.516825
5.102908
3.777312
3.060092
3.015931
3.191015
3.010216
2.155319
0.675421
-0.826817
-1.476238
-0.886045
0.395909
1.367701
1.539147
1.249246
1.275482
2.001273
2.997223
3.567933
3.153602
1.579928
-0.599006
-2.495831
-3.584259
-3.831299
-3.559063
-3.152526
-2.832752
-2.730404
-2.673256
-2.328544
-1.638860
-0.817994
-0.108568
0.542150
1.186894
1.701753
2.071403
2.333768
2.439753
2.297659
2.063608
1.912683
1.719415
1.434709
1.185331
1.035185
0.818798
0.242892
-0.810727
-2.165937
-3.452827
-4.465923
-5.304454
-6.033363
-6.556536
-6.800199
-6.702526
-6.062458
-4.788817
-3.116951
-1.351308
0.263149
1.564326
2.528065
3.226061
3.701955
3.877558
3.666106
3.062665
2.183091
1.244289
0.457971
-0.044680
-0.298993
-0.334322
-0.063125
0.510183
1.238831
1.882536
2.229585
2.199712
1.920201
1.657315
1.453137
1.246102
1.175964
1.482490
2.289848
3.470493
4.555803
4.928050
4.528787
3.839882
3.110973
2.198667
0.947625
-0.402909
-1.323007
-1.599141
-1.590569
-1.831374
-2.509629
-3.431026
-4.269298
-4.785197
-5.014572
-5.040030
-4.822345
-4.474256
-4.274495
-4.423862
-4.922357
-5.702700
-6.627215
-7.375606
-7.728631
-7.668106
-7.134283
-6.080925
-4.705194
-3.398562
-2.325461
-1.161961
0.506788
2.612726
4.630343
6.018803
6.437288
5.679285
3.797006
1.449224
-0.444225
-1.433422
-1.506677
-0.999350
-0.561902
-0.689968
-1.344323
-1.953999
-1.898149
-0.892328
0.761874
2.279697
3.310716
4.099890
4.849061
5.444708
5.637196
5.428602
4.906468
3.999618
2.593493
0.714332
-1.248994
-2.660314
-3.060617
-2.598230
-1.844644
-1.234189
-0.888179
-0.648933
-0.292012
0.230640
0.646788
0.558726
-0.030428
-0.710241
-1.005078
-0.744271
-0.245257
0.033993
-0.163691
-0.798824
-1.540461
-1.864652
-1.369015
-0.095114
1.491548
2.659984
3.036387
2.992746
3.061844
3.413310
3.870241
4.317041
4.862554
5.629388
6.573904
7.429319
7.885471
7.779746
7.306188
6.907704
6.783534
6.653390
6.087875
4.964898
3.394601
1.587914
-0.201887
-1.861025
-3.447168
-5.088902
-6.737130
-8.214690
-9.303638
-9.706798
-9.414300
-8.854240
-8.539402
-8.640972
-8.965422
-9.200772
-9.048808
-8.558627
-8.155467
-8.288209
-9.149600
-10.430516
-11.606745
-12.360852
-12.619321
-12.429431
-11.874308
-11.145919
-10.434934
-9.816947
-9.382615
-9.239484
-9.411970
-9.752006
-9.983980
-10.123216
-10.447926
-10.893168
-10.951876
-10.091525
-8.356795
-6.288264
-4.363903
-2.934401
-2.028591
-1.244092
-0.137481
1.235132
2.384086
3.072211
3.437963
3.651752
3.819562
4.131543
4.747712
5.508831
5.978232
5.801070
4.940458
3.532256
1.838828
0.246710
-1.054468
-2.373569
-4.031668
-5.763282
-6.981074
-7.095632
-5.940185
-4.062063
-2.151730
-0.508698
1.004969
2.574486
4.176475
5.789114
7.279921
8.313797
8.627337
8.290158
7.637360
6.877799
6.062127
5.159693
4.021390
2.562013
0.953010
-0.285304
-0.682490
-0.309723
0.250596
0.338138
-0.202700
-1.062532
-1.825211
-2.274350
-2.546587
-2.941175
-3.879717
-5.546128
-7.505298
-9.081311
-9.884254
-9.937507
-9.465249
-8.816869
-8.269538
-7.619079
-6.337904
-4.289894
-1.946269
0.154474
1.675155
2.532389
3.036858
3.626791
4.448956
5.200983
5.478155
5.265665
4.802758
4.086318
2.751630
0.646470
-1.649619
-3.275766
-3.816084
-3.514754
-2.934692
-2.519324
-2.435679
-2.531793
-2.474385
-2.010180
-1.168013
-0.162711
0.828303
1.663456
2.217801
2.504844
2.751883
3.324411
4.481157
5.913777
6.913104
7.140400
6.863228
6.421102
5.809868
5.045630
4.318020
3.697174
3.136335
2.650569
2.320923
2.194675
2.239615
2.334430
2.440674
2.590820
2.729276
2.811882
2.885136
3.051647
3.404671
4.077469
5.133945
6.362907
7.365351
7.791110
7.621741
7.148444
6.698265
6.354592
5.975071
5.474757
4.741432
3.771199
2.806940
1.863982
0.709313
-0.546146
-1.498196
-2.175411
-2.952117
-3.871696
-4.512804
-4.343436
-3.281245
-1.861354
-0.846441
-0.663305
-1.100495
-1.655359
-1.974355
-1.913050
-1.469107
-0.832156
-0.315998
-0.023499
0.253932
0.692940
1.132467
1.117140
0.352383
-0.949574
-2.345308
-3.396589
-3.801308
-3.502055
-2.669500
-1.578215
-0.335226
0.912699
1.941639
2.864335
4.088361
5.854782
7.961240
9.965349
11.495122
12.303779
12.241175
11.521617
10.823101
10.741533
11.323153
12.234938
13.103082
13.644698
13.736915
13.374279
12.699921
12.029979
11.655913
11.527847
11.183395
10.228747
8.791191
7.495208
6.868128
6.808641
6.815654
6.426522
5.562274
4.459039
3.288784
2.029429
0.505889
-1.413017
-3.680791
-6.148067
-8.574300
-10.647768
-12.150006
-13.057895
-13.534050
-13.779272
-13.815380
-13.514569
-12.751891
-11.578000
-10.180708
-8.648078
-7.098823
-5.795567
-4.989767
-4.605831
-4.122923
-3.144117
-1.767348
-0.249524
1.289860
2.761705
3.992485
4.772308
4.953625
4.597483
3.892213
2.800668
1.275050
-0.314730
-1.661367
-2.861495
-4.018762
-5.030818
-5.716346
-5.865972
-5.330331
-4.362956
-3.547025
-3.248812
-3.326223
-3.412726
-3.345966
-3.315314
-3.541053
-3.876673
-4.041886
-3.903430
-3.516636
-2.965149
-2.199614
-1.193793
-0.050295
0.906171
1.349075
1.332449
1.306212
1.794316
3.053151
5.017775
7.292562
9.360055
10.918922
11.864996
12.141389
11.783428
11.036595
10.295737
9.876471
9.827894
10.041942
10.531345
11.279736
11.982148
12.376735
12.537271
12.551818
12.195935
11.164137
9.398754
7.032268
4.384712
1.991470
0.280379
-0.710896
-1.316416
-1.896478
-2.364060
-2.369776
-1.783999
-0.929363
-0.421777
-0.557376
-1.337460
-2.633962
-4.019045
-5.087730
-5.871710
-6.906107
-8.601093
-10.746516
-12.804658
-14.207665
-14.661740
-14.159609
-12.839988
-11.033562
-9.100889
-7.265889
-5.551421
-3.770452
-1.758290
0.285563
1.861055
2.642697
2.833106
3.002994
3.606175
4.703694
6.051629
7.308126
8.216534
8.857641
9.541350
10.336239
10.914742
10.995530
10.661728
10.152062
9.770723
9.679284
9.724743
9.674348
9.384706
8.880756
8.251078
7.423457
6.142801
4.305722
2.209135
0.227625
-1.322411
-2.231339
-2.653203
-2.976874
-3.547325
-4.328967
-4.924615
-5.095283
-4.919940
-4.485089
-3.740335
-2.771920
-1.895983
-1.484511
-1.679857
-2.232903
-2.824395
-3.341593
-3.725531
-3.799825
-3.442384
-2.848036
-2.429550
-2.366687
-2.510079
-2.523587
-1.982751
-0.729631
1.006658
2.718268
3.928267
4.498197
4.488066
4.155563
3.888261
4.039965
4.733545
5.696505
6.602055
7.238226
7.514100
7.360576
6.729340
5.807423
4.871999
4.190367
3.808768
3.496786
3.252344
3.339885
3.830846
4.514815
5.140076
5.599086
5.949772
6.078357
5.682990
4.631449
3.079595
1.595540
0.517243
-0.308040
-1.241646
-2.530355
-3.888163
-5.135049
-5.989946
-6.300109
-6.503248
-6.682228
-6.909785
-7.425944
-8.031204
-8.425272
-8.574120
-8.458264
-8.219018
-8.343967
-9.002479
-9.848283
-10.388081
-10.267030
-9.408757
-8.130180
-7.101759
-6.607681
-6.331808
-6.074118
-6.056714
-6.509230
-7.266974
-7.871454
-7.959256
-7.432966
-6.486372
-5.382359
-4.336014
-3.614639
-3.179528
-2.945478
-3.004965
-3.072505
-2.708311
-1.993430
-1.380638
-1.361675
-2.279695
-3.753878
-5.110387
-5.983208
-6.244534
-6.060359
-5.845532
-5.960869
-6.387408
-7.015268
-7.379203
-7.136061
-6.131019
-4.261989
-2.245671
-0.076089
2.235585
4.335548
6.625662
8.641980
9.856395
10.255658
9.939260
9.502850
9.220222
8.868496
8.085555
6.590590
4.576609
2.703422
1.395231
0.602678
0.232768
0.058983
-0.137921
-0.330929
-0.542381
-0.856700
-1.219856
-1.373120
-1.207388
-0.823451
-0.325736
-0.011418
-0.032719
-0.131691
0.144442
1.069215
2.328570
3.301401
3.725082
3.684557
3.368939
3.155929
3.289449
3.797555
4.602056
5.402660
5.859072
5.785038
5.355641
4.892994
4.517110
4.192140
3.771835
3.040588
1.860462
0.306010
-1.307409
-2.650669
-3.627397
-4.131347
-4.054456
-3.513100
-2.741850
-1.869030
-1.015433
-0.689424
-1.359107
-2.866280
-4.544901
-5.662683
-5.889720
-5.278227
-4.194995
-3.095398
-2.040481
-0.987122
-0.007018
1.039067
2.298421
3.543489
4.259668
4.116016
3.310216
2.344139
1.685367
1.498593
1.672378
1.917079
1.708485
0.800595
-0.776976
-3.052543
-5.728932
-8.108147
-9.571420
-10.209410
-10.658030
-11.373691
-12.261838
-12.825015
-12.894633
-12.784752
-12.774621
-12.845019
-12.685781
-11.875306
-10.291761
-8.413120
-6.882827
-6.022476
-5.710495
-5.439558
-4.759226
-3.531563
-1.962046
-0.472537
0.526011
0.837472
0.688884
0.609135
0.997488
1.739385
2.481541
2.995882
3.319032
3.529964
3.456968
2.941589
2.066430
1.286087
1.068401
1.508447
2.201768
2.530114
2.243330
1.453375
0.680046
0.314552
0.301303
0.655626
1.486883
2.833520
4.246657
5.124412
5.381323
5.313263
5.360800
5.650701
5.967358
6.153611
6.232580
6.288430
6.261673
6.051780
5.626020
5.054530
4.452388
3.867131
3.263430
2.629336
2.155519
2.080186
2.419962
2.855852
3.062886
3.061847
3.025999
3.108345
3.369411
3.731787
3.942199
3.667364
2.894294
2.042515
1.586881
1.642212
1.888211
1.915487
1.545317
0.847061
-0.073038
-1.134969
-2.120789
-2.758260
-2.912043
-2.810214
-2.874897
-3.213635
-3.733431
-4.372200
-5.024738
-5.551288
-5.753128
-5.099552
-3.189739
-0.556991
1.731044
3.076642
3.721905
4.141949
4.763314
5.712765
6.493108
6.564803
5.771991
4.381713
2.773230
1.257483
0.133208
-0.592065
-1.152125
-1.686987
-2.049624
-1.926234
-1.199404
-0.096690
1.005765
1.779353
2.079645
2.126143
2.267976
2.664641
3.370950
4.335987
5.299726
5.940053
6.028374
5.504941
4.472883
3.096632
1.611798
0.254770
-0.966659
-2.417983
-4.444952
-6.844429
-9.077654
-10.675227
-11.432191
-11.475832
-11.209831
-10.983833
-10.670553
-9.951516
-8.641766
-6.579729
-3.930356
-1.348004
0.590644
1.787394
2.356026
2.346674
1.884287
1.326824
1.172262
1.781677
3.128833
4.912919
6.838319
8.732806
10.536374
12.111087
13.195358
13.615662
13.409666
12.662832
11.356979
9.416512
6.811039
3.869167
1.120562
-1.248262
-3.307702
-5.059577
-6.536099
-7.847927
-8.880245
-9.246778
-8.654248
-7.217732
-5.431048
-3.955567
-3.256791
-3.284327
-3.633456
-3.851401
-3.648783
-3.117038
-2.624778
-2.485543
-2.891820
-3.944920
-5.569249
-7.397496
-8.990913
-10.207406
-11.050614
-11.618726
-12.036174
-12.253340
-12.344519
-12.404006
-12.350494
-12.192036
-12.140862
-12.452844
-13.111096
-13.848838
-14.409417
-14.631779
-14.277456
-13.186431
-11.596652
-9.894653
-8.406183
-7.273855
-6.276087
-4.968155
-3.051848
-0.607172
1.869974
3.752252
4.927442
5.887804
7.045849
8.381315
9.693403
10.794818
11.562172
11.828174
11.448393
10.618954
9.703531
8.941891
8.380533
7.915548
7.442250
6.841407
6.095872
5.340467
4.640392
4.089164
3.757700
3.591967
3.437925
2.969563
1.862691
0.028210
-2.213068
-4.419797
-6.301297
-7.709499
-8.816890
-9.847909
-10.796322
-11.501333
-11.768115
-11.630958
-11.217667
-10.529802
-9.632824
-8.648564
-7.706905
-6.883701
-6.047509
-5.076756
-4.028073
-3.053425
-2.268666
-1.534303
-0.470813
0.958430
2.197782
2.676015
2.213887
1.068310
-0.133377
-0.814229
-0.937099
-0.879691
-1.027759
-1.564700
-2.403491
-3.210850
-3.571408
-3.456851
-3.281768
-3.409834
-3.912745
-4.499821
-4.751536
-4.545800
-3.995612
-3.322294
-2.848737
-2.710022
-2.780159
-2.834971
-2.616766
-1.927862
-0.801768
0.409269
1.298714
1.564976
1.152984
0.473171
0.149499
0.566427
1.582119
2.775492
3.923926
5.074957
6.283917
7.510800
8.806522
10.153419
11.431476
12.571338
13.571444
14.516739
15.365141
16.046771
16.620598
17.123768
17.483806
17.556021
17.319892
16.864259
16.227307
15.332666
14.117472
12.671083
11.071692
9.386837
7.653405
5.680727
3.269821
0.517839
-2.237520
-4.591797
-6.272756
-7.239872
-7.675763
-7.952156
-8.454808
-9.408676
-10.759210
-12.135720
-13.050623
-13.179988
-12.444326
-11.007809
-9.266845
-7.607708
-6.228081
-5.211609
-4.649212
-4.586089
-4.828972
-4.888459
-4.212803
-2.693421
-0.689312
1.398183
3.358911
5.270283
7.296732
9.372797
11.089603
12.038794
12.268948
12.080097
11.710706
11.311183
10.924128
10.457844
9.787903
8.996389
8.382298
8.257609
8.758701
9.863493
11.459507
13.194496
14.679070
15.798669
16.517966
16.789164
16.736430
16.557450
16.347817
16.131689
15.797627
15.158598
14.168622
12.988496
11.925266
11.202071
10.799950
10.493943
9.888424
8.749861
7.408159
6.491697
6.327524
6.688081
6.994607
6.686262
5.478601
3.520210
1.331924
-0.532430
-1.815165
-2.639409
-3.319741
-4.047871
-4.793665
-5.528809
-6.271486
-6.967664
-7.481485
-7.635788
-7.344848
-6.688155
-5.888590
-5.205660
-4.912383
-5.260472
-6.269151
-7.774767
-9.466116
-11.007839
-12.416561
-13.953868
-15.639762
-17.055238
-17.655822
-17.155769
-15.601318
-13.356923
-10.908351
-8.633824
-6.803499
-5.538170
-5.000711
-5.201252
-5.672471
-5.995103
-6.046797
-5.863921
-5.481283
-4.834981
-3.965538
-2.924129
-1.650487
-0.104349
1.684932
3.705666
6.013184
8.471887
10.698358
12.448414
13.818170
15.014401
16.007753
16.459489
16.057368
14.914649
13.535540
12.374897
11.564161
10.977864
10.410271
9.754616
9.017135
8.207957
7.233567
5.943300
4.268835
2.132504
-0.447772
-3.162606
-5.610140
-7.424620
-8.300557
-8.200807
-7.250836
-5.525717
-3.283401
-0.923670
1.157591
2.604238
3.312624
3.448223
3.246643
2.639565
1.438138
-0.223858
-2.098863
-4.055955
-5.977719
-7.576331
-8.578516
-8.933619
-8.706322
-8.099765
-7.459437
-7.009779
-6.720398
-6.414651
-5.774843
-4.477043
-2.464881
0.021617
2.655663
5.218793
7.518778
9.354038
10.649240
11.425686
11.741564
11.678699
11.286190
10.590531
9.680823
8.736307
7.831275
6.761290
5.345815
3.620436
1.690879
-0.129055
-1.409452
-1.887685
-1.593888
-0.846276
0.039792
0.907936
1.804135
2.816970
3.888512
4.896152
5.699613
6.148232
6.266686
6.364878
6.649323
7.166781
8.037003
9.303631
10.678322
11.634788
11.835328
11.358134
10.561166
9.666005
8.795782
7.975175
7.004681
5.720648
4.077356
2.272228
0.569969
-0.901097
-2.016022
-2.618684
-2.626737
-2.216044
-1.833406
-1.923546
-2.433731
-2.937161
-3.067305
-2.772469
-2.272936
-1.701707
-1.131516
-0.557430
-0.064131
0.204209
0.382150
0.581132
0.946885
1.723850
2.772533
3.631845
4.093972
4.370624
4.700789
5.140575
5.470480
5.454115
5.184995
4.801057
4.274767
3.401946
2.174543
0.775692
-0.498990
-1.341937
-1.849004
-2.008762
-1.995774
-2.070328
-2.096305
-2.335292
-2.692213
-2.982114
-3.401121
-3.483467
-3.534642
-3.745314
-3.654136
-3.204738
-2.127740
-0.682392
0.937520
1.977111
2.312991
2.786028
2.711994
2.271167
1.848005
0.923750
-0.132986
-1.013340
-1.503003
-1.969287
-2.729628
-3.195392
-3.845332
-4.455267
-4.895574
-4.992468
-3.795977
-2.717941
-2.048260
-1.251811
-0.097663
1.616026
3.317505
5.798808
8.241665
9.831445
11.301990
12.530432
13.596260
13.819920
12.804227
11.418365
9.940285
8.352843
6.884114
5.738537
4.919229
3.475439
1.625891
0.807361
0.855938
1.513929
2.671195
3.909508
4.765703
5.150679
5.382651
5.270171
4.988842
4.439693
3.501930
2.218936
0.529665
-0.839572
-1.909297
-2.993829
-4.039655
-5.256927
-6.404842
-7.279741
-7.614842
-7.227528
-6.213914
-4.319947
-1.790847
0.901128
3.521147
5.832562
7.729906
9.172137
10.399540
11.398867
12.002308
12.191418
11.912427
11.296257
10.300307
9.029781
7.709900
6.320141
5.101830
4.203032
3.443470
2.571689
1.328959
-0.434866
-2.662116
-4.935606
-7.295338
-9.704686
-11.735292
-13.356244
-14.361287
-15.014603
-15.309180
-15.344250
-15.853135
-16.515544
-17.143143
-17.467334
-16.940785
-15.677794
-14.010084
-12.496677
-11.568007
-11.381234
-11.552681
-11.349803
-10.634922
-9.628321
-8.780179
-8.399880
-8.240123
-8.202197
-8.170246
-8.052312
-8.023478
-8.160376
-8.272856
-8.060366
-7.304442
-5.843507
-4.210087
-2.679015
-1.210288
-0.134849
0.735633
1.519353
2.231636
2.853260
3.187062
3.040292
2.295018
1.130738
-0.289414
-1.615270
-2.590439
-3.319608
-3.831351
-4.295557
-4.797689
-5.075381
-5.268129
-5.579851
-6.048213
-6.869599
-7.635915
-8.095445
-8.355473
-8.178312
-7.846588
-7.619032
-7.416673
-7.318221
-7.273282
-7.316923
-7.568119
-8.160391
-8.916835
-9.420006
-9.532746
-9.201542
-8.478608
-7.766585
-7.401611
-7.287833
-7.379791
-7.402651
-7.262117
-7.419017
-7.960634
-8.777864
-9.573793
-9.967602
-9.834601
-8.986979
-7.622678
-6.211359
-4.798742
-3.432623
-2.127289
-0.815202
0.581830
2.023541
3.003645
3.229124
2.631137
1.336194
-0.197216
-1.595547
-2.902960
-4.373247
-6.040697
-8.082474
-10.329207
-12.207069
-13.479153
-14.364183
-15.060881
-15.121927
-14.396915
-13.268224
-11.991465
-10.690547
-9.380798
-8.204569
-7.176927
-6.045898
-4.775633
-3.671880
-2.944530
-2.442659
-2.005989
-1.614519
-1.379430
-1.387743
-1.513211
-1.760511
-2.194064
-2.789972
-3.412895
-3.755270
-3.668768
-3.113904
-2.116915
-0.761966
0.908602
2.637616
4.169727
5.420250
6.259040
6.574398
6.308395
5.623387
4.973707
4.591588
4.162451
3.486275
2.555006
1.154077
-0.535454
-2.286809
-4.175063
-6.106178
-7.915981
-9.202872
-9.511477
-8.967523
-8.151332
-7.522694
-7.119015
-6.394523
-4.827603
-2.737511
-0.760418
0.575828
1.035617
0.979766
1.107052
1.968962
3.348849
4.626387
5.585190
6.214867
6.416966
6.151743
5.581032
5.055521
4.893166
5.151635
5.606748
5.809367
5.584147
5.204107
4.865109
4.449220
3.691737
2.583306
1.410454
0.406970
-0.391817
-1.021754
-1.493233
-1.947568
-2.718300
-3.939209
-5.439369
-7.040060
-8.409297
-9.291469
-9.801394
-10.189488
-10.621482
-10.973987
-11.090624
-11.035553
-10.841247
-10.360937
-9.435903
-8.073681
-6.515853
-5.135187
-4.143133
-3.487220
-2.992362
-2.371777
-1.441029
-0.377020
0.640750
1.592280
2.491077
3.451958
4.505836
5.504903
6.385256
7.107411
7.549535
7.764363
7.986464
8.401053
8.921108
9.185811
9.047355
8.802913
8.816680
9.178796
9.781717
10.495819
11.145238
11.578011
11.798814
11.932594
12.056503
12.080141
11.870508
11.326554
10.375803
9.080080
7.626938
6.170678
4.749748
3.314789
1.869960
0.688275
0.169518
0.588783
1.913080
3.571438
4.917295
5.694520
5.916621
5.836872
5.820247
6.001045
6.102354
5.755823
4.899887
3.795873
2.850578
2.259086
1.940090
1.762668
1.617718
1.417956
1.101558
0.628001
-0.106104
-1.169854
-2.433106
-3.643625
-4.576192
-5.117808
-5.285359
-5.231328
-5.074428
-4.867653
-4.697246
-4.639578
-4.730757
-4.929999
-5.188988
-5.413947
-5.480448
