EVENT_NAME: 202302060117
EVENT_ID: 13194
EVENT_DATE_YYYYMMDD: 2023/02/06
EVENT_TIME_HHMMSS: 01:17:32.00000
EVENT_LATITUDE_DEGREE: 37.288
EVENT_LONGITUDE_DEGREE: 37.043
EVENT_DEPTH_KM: 8.6
HYPOCENTER_REFERENCE: AFAD
MAGNITUDE_W: 7.7
MAGNITUDE_W_REFERENCE: AFAD
MAGNITUDE_L: 
MAGNITUDE_L_REFERENCE: 
FOCAL_MECHANISM: 
NETWORK: TK
STATION_CODE: 7101
STATION_NAME: 
STATION_LATITUDE_DEGREE: 39.84972
STATION_LONGITUDE_DEGREE: 33.51797
STATION_ELEVATION_M: 754.0
LOCATION: Kahramanmaras_Pazarck_Turkiye
SENSOR_DEPTH_M: 
VS30_M/S: 421
SITE_CLASSIFICATION_EC8: B
MORPHOLOGIC_CLASSIFICATION: 
EPICENTRAL_DISTANCE_KM: 418.33
EARTHQUAKE_BACKAZIMUTH_DEGREE: 
DATE_TIME_FIRST_SAMPLE_YYYYMMDD_HHMMSS: 2023/02/06 01:18:05.2258500
DATE_TIME_FIRST_SAMPLE_PRECISION: millisecond
SAMPLING_INTERVAL_S: 0.01
NDATA: 21001
DURATION_S: 
STREAM: HNZ
UNITS: cm/s^2
INSTRUMENT: sensor = CMG-5T/GURALP | digitizer = 
INSTRUMENT_ANALOG/DIGITAL: 
INSTRUMENTAL_FREQUENCY_HZ: 
INSTRUMENTAL_DAMPING: 
FULL_SCALE_G: 
N_BIT_DIGITAL_CONVERTER: 
PGA_CM/S^2: 1.770
TIME_PGA_S: 
BASELINE_CORRECTION: BASELINE REMOVED
FILTER_TYPE: BUTTERWORTH
FILTER_ORDER: 
LOW_CUT_FREQUENCY_HZ: 
HIGH_CUT_FREQUENCY_HZ: 
LATE/NORMAL_TRIGGERED: 
DATABASE_VERSION: 
HEADER_FORMAT: DYNA 1.2
DATA_TYPE: Acceleration
PROCESSING: Automatic Paolucci et al., 2011
DATA_TIMESTAMP_YYYYMMDD_HHMMSS: 
DATA_LICENSE: U (unknown license)
DATA_CITATION: Turkish Accelerometric Archive v 1.0 - Disaster And Emergency Management Presidency, Earthquake Department
DATA_CREATOR: AFAD
ORIGINAL_DATA_MEDIATOR_CITATION: : AFAD - Disaster And Emergency Management Presidency
ORIGINAL_DATA_MEDIATOR: AFAD PROCESS SERVICE
ORIGINAL_DATA_CREATOR_CITATION: AFAD PROCESS SERVICE
ORIGINAL_DATA_CREATOR: network: TK
USER1: GuestUser
USER2: 
USER3: 
USER4: 
USER5: 
[...]
0.636847
0.631810
0.622050
0.622365
0.597178
0.571676
0.542397
0.506820
0.457076
0.417406
0.363884
0.312880
0.256524
0.200798
0.143498
0.079586
0.029212
-0.032182
-0.084130
-0.139541
-0.190545
-0.241549
-0.295071
-0.332852
-0.353631
-0.389837
-0.399912
-0.418172
-0.434858
-0.430450
-0.429821
-0.428561
-0.421320
-0.415652
-0.412189
-0.398651
-0.401169
-0.378186
-0.366851
-0.353628
-0.337256
-0.311439
-0.288456
-0.258546
-0.243119
-0.237451
-0.202819
-0.197152
-0.198096
-0.193058
-0.189280
-0.195577
-0.202503
-0.213837
-0.208170
-0.220763
-0.225171
-0.218244
-0.226115
-0.222966
-0.223281
-0.235874
-0.231781
-0.233985
-0.245948
-0.242800
-0.265783
-0.259486
-0.261060
-0.273653
-0.269560
-0.259170
-0.262004
-0.252244
-0.251614
-0.251299
-0.246261
-0.242168
-0.221703
-0.221703
-0.204387
-0.184552
-0.164402
-0.159049
-0.125047
-0.115287
-0.107730
-0.090729
-0.091988
-0.079709
-0.073097
-0.073097
-0.084431
-0.093876
-0.109618
-0.114025
-0.147713
-0.163140
-0.176363
-0.210995
-0.236811
-0.252553
-0.280888
-0.301353
-0.325910
-0.358023
-0.362116
-0.388877
-0.386358
-0.381950
-0.393914
-0.380061
-0.358967
-0.364633
-0.353614
-0.340391
-0.335038
-0.329056
-0.335982
-0.331574
-0.323703
-0.332518
-0.351409
-0.350464
-0.364002
-0.376595
-0.403671
-0.418468
-0.440822
-0.478287
-0.505678
-0.517012
-0.525512
-0.541884
-0.540310
-0.544717
-0.520474
-0.511344
-0.492768
-0.466951
-0.427281
-0.379741
-0.342275
-0.290956
-0.230192
-0.197448
-0.160297
-0.102681
-0.072772
-0.034361
-0.015785
0.015069
0.039941
0.059777
0.086853
0.116448
0.141320
0.174379
0.185083
0.206178
0.240810
0.248681
0.283314
0.305982
0.309760
0.322354
0.342189
0.339986
0.360135
0.361080
0.371785
0.382804
0.375248
0.384064
0.402010
0.403899
0.408622
0.419012
0.421531
0.439477
0.446718
0.470646
0.477888
0.497408
0.501501
0.522595
0.535504
0.538967
0.549672
0.547468
0.563210
0.555340
0.549673
0.538024
0.539283
0.536765
0.525746
0.514727
0.510949
0.490484
0.466242
0.458686
0.443574
0.427517
0.404534
0.382811
0.354790
0.318899
0.292453
0.266636
0.217836
0.175648
0.148572
0.101346
0.047509
0.025156
-0.002550
-0.051035
-0.084722
-0.105501
-0.136355
-0.177914
-0.218843
-0.251901
-0.281810
-0.328721
-0.378150
-0.441433
-0.487399
-0.543125
-0.607352
-0.659930
-0.717860
-0.767605
-0.827739
-0.873075
-0.903929
-0.934783
-0.969100
-0.976971
-0.999324
-1.010029
-1.004991
-0.995546
-0.980433
-0.978229
-0.948005
-0.918095
-0.892278
-0.876221
-0.836236
-0.800659
-0.780824
-0.754378
-0.712819
-0.679131
-0.656462
-0.621830
-0.573659
-0.540916
-0.506283
-0.451186
-0.419388
-0.387589
-0.352327
-0.299748
-0.270783
-0.239929
-0.193962
-0.152718
-0.123753
-0.086601
-0.038116
0.001239
0.033038
0.071763
0.127805
0.156770
0.187939
0.229498
0.265390
0.271687
0.290263
0.297819
0.302227
0.309153
0.288689
0.286800
0.288375
0.273892
0.266336
0.266336
0.257836
0.256577
0.234853
0.230760
0.221001
0.197388
0.172516
0.148588
0.112697
0.071138
0.035877
-0.011979
-0.053537
-0.102967
-0.138228
-0.199307
-0.244643
-0.283368
-0.328075
-0.374356
-0.408044
-0.439843
-0.490217
-0.506273
-0.526108
-0.555388
-0.586556
-0.598205
-0.621503
-0.635671
-0.637560
-0.637874
-0.643226
-0.636929
-0.612687
-0.596944
-0.586240
-0.567349
-0.544051
-0.533031
-0.515715
-0.495250
-0.487694
-0.492416
-0.471322
-0.490212
-0.493046
-0.493360
-0.505324
-0.515713
-0.542789
-0.554753
-0.576477
-0.598200
-0.614257
-0.623072
-0.649833
-0.655815
-0.669353
-0.680372
-0.678798
-0.676594
-0.681946
-0.654869
-0.626219
-0.619607
-0.595679
-0.567029
-0.531137
-0.506894
-0.464391
-0.430703
-0.385366
-0.344752
-0.296266
-0.250614
-0.198981
-0.138217
-0.074619
-0.010077
0.049428
0.120896
0.183549
0.255333
0.320819
0.386936
0.444237
0.508464
0.565450
0.633455
0.687922
0.742390
0.805358
0.869585
0.923423
0.970019
1.035505
1.082731
1.127439
1.157978
1.185369
1.197963
1.206464
1.209613
1.205520
1.169628
1.148534
1.118310
1.066677
1.029841
0.984819
0.940427
0.874311
0.833697
0.784268
0.720356
0.652980
0.613626
0.570493
0.502488
0.439520
0.396703
0.344125
0.268564
0.240543
0.182928
0.112089
0.070531
0.040621
-0.011327
-0.065794
-0.090666
-0.124668
-0.174413
-0.196766
-0.208415
-0.259418
-0.286809
-0.283346
-0.316719
-0.337183
-0.326163
-0.352295
-0.355128
-0.345053
-0.342219
-0.337182
-0.314198
-0.291845
-0.268546
-0.233914
-0.209356
-0.163704
-0.112386
-0.071456
-0.035565
0.026774
0.064554
0.110521
0.159321
0.212844
0.253458
0.282109
0.328705
0.363653
0.377506
0.407415
0.448030
0.429769
0.447086
0.473532
0.468495
0.461569
0.489904
0.480774
0.463458
0.465033
0.463459
0.441735
0.420326
0.421586
0.399862
0.399547
0.383806
0.372787
0.353582
0.332802
0.318005
0.300689
0.272039
0.259446
0.243389
0.203720
0.174440
0.176014
0.165940
0.125011
0.111788
0.115881
0.093842
0.085972
0.098565
0.093213
0.072434
0.079676
0.095732
0.067082
0.065193
0.074639
0.045989
0.029617
0.069602
0.020802
0.039378
0.070862
0.004431
0.016710
0.064881
0.009154
-0.022644
0.042842
-0.029885
-0.053498
-0.020754
-0.031774
-0.065776
-0.063572
-0.052867
-0.102926
-0.099463
-0.094740
-0.116464
-0.152985
-0.142595
-0.161800
-0.211230
-0.198006
-0.211544
-0.230749
-0.244602
-0.249009
-0.244601
-0.245231
-0.260343
-0.249323
-0.223506
-0.233581
-0.235785
-0.206190
-0.196115
-0.193281
-0.145740
-0.119294
-0.119923
-0.095365
-0.044991
-0.037750
-0.018544
0.029311
0.053869
0.063944
0.101725
0.136672
0.156507
0.188306
0.213808
0.242144
0.261034
0.287796
0.319595
0.352023
0.372803
0.391379
0.406491
0.421603
0.432308
0.438605
0.437661
0.426642
0.437976
0.428531
0.431050
0.440495
0.434513
0.416253
0.419402
0.409327
0.388233
0.379732
0.367139
0.343841
0.286856
0.295042
0.232389
0.195868
0.184849
0.107399
0.043801
0.044431
-0.029241
-0.131248
-0.087486
-0.166195
-0.259702
-0.247423
-0.275444
-0.379970
-0.373043
-0.378080
-0.468439
-0.470013
-0.470957
-0.500867
-0.520387
-0.517868
-0.516293
-0.534554
-0.518182
-0.515663
-0.516293
-0.515978
-0.504013
-0.466862
-0.478511
-0.456472
-0.418691
-0.385948
-0.381540
-0.339981
-0.299052
-0.282995
-0.264419
-0.224120
-0.185709
-0.200192
-0.172171
-0.131871
-0.131871
-0.132186
-0.093146
-0.104165
-0.133445
-0.129037
-0.132185
-0.165872
-0.175003
-0.190744
-0.234822
-0.255601
-0.284566
-0.319827
-0.353830
-0.376813
-0.421520
-0.456782
-0.483543
-0.500544
-0.521638
-0.535805
-0.549973
-0.563196
-0.560047
-0.568863
-0.568548
-0.579567
-0.588067
-0.603809
-0.597827
-0.615458
-0.625847
-0.628995
-0.624587
-0.639070
-0.637810
-0.621124
-0.625531
-0.614826
-0.603492
-0.593732
-0.591528
-0.537375
-0.572637
-0.538949
-0.486686
-0.512817
-0.516595
-0.445756
-0.473462
-0.498019
-0.398845
-0.462127
-0.487629
-0.425605
-0.418679
-0.479757
-0.424345
-0.417104
-0.461181
-0.434105
-0.424030
-0.435049
-0.462755
-0.447013
-0.464328
-0.493608
-0.492349
-0.492349
-0.514702
-0.531703
-0.525406
-0.515331
-0.540518
-0.539573
-0.526350
-0.519423
-0.542091
-0.554685
-0.545239
-0.564759
-0.592465
-0.606003
-0.602854
-0.645042
-0.654487
-0.653857
-0.677470
-0.695416
-0.676210
-0.698564
-0.730047
-0.702656
-0.719972
-0.748622
-0.737918
-0.734454
-0.766253
-0.763419
-0.761215
-0.763104
-0.766882
-0.754918
-0.760899
-0.755232
-0.744527
-0.729730
-0.708950
-0.707376
-0.691319
-0.668650
-0.643778
-0.636536
-0.589310
-0.572939
-0.569790
-0.548381
-0.512174
-0.513119
-0.505562
-0.474708
-0.468411
-0.478171
-0.459595
-0.457706
-0.470929
-0.456131
-0.449519
-0.472817
-0.471873
-0.437555
-0.481947
-0.429369
-0.429054
-0.481632
-0.442277
-0.408274
-0.478168
-0.424330
-0.372697
-0.458332
-0.396624
-0.362306
-0.357898
-0.351287
-0.296190
-0.279188
-0.265020
-0.209608
-0.176550
-0.151048
-0.132158
-0.076431
-0.073597
-0.047465
-0.000869
0.018966
0.035653
0.066192
0.096417
0.124123
0.143643
0.162219
0.198425
0.213538
0.213223
0.245652
0.271469
0.241244
0.272413
0.307361
0.280600
0.271470
0.307361
0.300435
0.279971
0.301065
0.291620
0.269582
0.251321
0.250692
0.218578
0.188669
0.158444
0.126016
0.097366
0.054863
0.012990
-0.020068
-0.071387
-0.132150
-0.151670
-0.212434
-0.263752
-0.279494
-0.311293
-0.379298
-0.377723
-0.414874
-0.462100
-0.465248
-0.477211
-0.522548
-0.529159
-0.501768
-0.578904
-0.527585
-0.504286
-0.561587
-0.541437
-0.461468
-0.525695
-0.502711
-0.433132
-0.480357
-0.464300
-0.432187
-0.419908
-0.443520
-0.389053
-0.403221
-0.409203
-0.369218
-0.350642
-0.351272
-0.331122
-0.308453
-0.299008
-0.275710
-0.244226
-0.211797
-0.200463
-0.186295
-0.145995
-0.108529
-0.101917
-0.063507
-0.020059
-0.014077
-0.025411
0.039446
0.039131
0.008277
0.050781
0.050151
0.000722
-0.008408
-0.008093
-0.050911
-0.080506
-0.100340
-0.125212
-0.166771
-0.197940
-0.218719
-0.228164
-0.265630
-0.308133
-0.306873
-0.343079
-0.390620
-0.392194
-0.417381
-0.490738
-0.499868
-0.542371
-0.607542
-0.618876
-0.643434
-0.712068
-0.744182
-0.736940
-0.825095
-0.821002
-0.795500
-0.879247
-0.898137
-0.828872
-0.897821
-0.896877
-0.823834
-0.881134
-0.875782
-0.814388
-0.805887
-0.827296
-0.749846
-0.745438
-0.762754
-0.696008
-0.661061
-0.657912
-0.631780
-0.579832
-0.563145
-0.541421
-0.484750
-0.446654
-0.426189
-0.409188
-0.349683
-0.330478
-0.333626
-0.277899
-0.236970
-0.247989
-0.250508
-0.168650
-0.174631
-0.184391
-0.113867
-0.082383
-0.096866
-0.051843
-0.011229
-0.004617
0.016477
0.012699
0.041979
0.035683
0.011755
0.026868
0.030331
-0.003356
-0.025395
-0.015005
-0.058767
-0.103160
-0.105993
-0.145348
-0.212093
-0.229094
-0.268764
-0.331416
-0.336454
-0.363844
-0.421460
-0.429645
-0.417681
-0.482223
-0.471203
-0.436571
-0.475611
-0.486945
-0.412958
-0.429329
-0.417050
-0.313153
-0.337710
-0.305597
-0.220590
-0.195088
-0.182179
-0.088672
-0.053725
-0.040501
0.030652
0.094880
0.126364
0.163515
0.239706
0.253874
0.280635
0.353363
0.370365
0.397126
0.427666
0.452223
0.486856
0.476466
0.497876
0.548880
0.513618
0.480875
0.541954
0.509840
0.470801
0.492839
0.493784
0.426094
0.411926
0.419168
0.365331
0.336995
0.311494
0.271824
0.217357
0.189652
0.142741
0.094571
0.039159
-0.002399
-0.055922
-0.112277
-0.159503
-0.202636
-0.243565
-0.297717
-0.317551
-0.325737
-0.359110
-0.373907
-0.355016
-0.368869
-0.364776
-0.325106
-0.332977
-0.302752
-0.236951
-0.220894
-0.186891
-0.107237
-0.061270
-0.018137
0.079148
0.145265
0.195639
0.260496
0.374783
0.407841
0.490644
0.636414
0.645230
0.716698
0.863413
0.902139
0.937086
1.075930
1.078134
1.106155
1.205959
1.212571
1.255074
1.281836
1.302930
1.319617
1.327173
1.327488
1.331896
1.323710
1.279633
1.287819
1.253502
1.210369
1.172903
1.126622
1.070896
0.999428
0.936460
0.881049
0.796043
0.721426
0.694980
0.593287
0.519930
0.492854
0.409737
0.320952
0.283802
0.215167
0.120086
0.052711
0.004541
-0.072910
-0.136507
-0.174602
-0.243552
-0.291407
-0.320372
-0.355948
-0.384599
-0.408211
-0.443473
-0.429935
-0.436861
-0.452288
-0.427415
-0.401284
-0.405376
-0.366651
-0.324462
-0.322573
-0.257401
-0.219621
-0.206082
-0.145633
-0.089592
-0.077942
-0.004270
0.061531
0.090182
0.131741
0.222729
0.268381
0.305532
0.433042
0.453507
0.491603
0.599907
0.667598
0.680506
0.786922
0.853353
0.879170
0.951268
1.013921
1.071537
1.084131
1.172286
1.190232
1.199677
1.250051
1.273035
1.270516
1.287833
1.313964
1.282481
1.282796
1.276814
1.248479
1.244071
1.209439
1.167881
1.163473
1.109636
1.059262
1.048558
0.992202
0.907825
0.897436
0.839505
0.757962
0.736239
0.686494
0.604322
0.564337
0.525927
0.455718
0.417308
0.357804
0.303652
0.250444
0.203848
0.149067
0.127973
0.086099
0.025021
0.022187
-0.010870
-0.043928
-0.041724
-0.053058
-0.093987
-0.072578
-0.086745
-0.111617
-0.083282
-0.083596
-0.110358
-0.105005
-0.082022
-0.116339
-0.098393
-0.076984
-0.079187
-0.107838
-0.049592
-0.044555
-0.079502
0.020617
-0.007088
-0.042350
0.031008
0.055250
-0.003939
0.078234
0.101847
0.045491
0.121367
0.150962
0.148129
0.190947
0.230617
0.248563
0.282251
0.331051
0.370091
0.412910
0.447542
0.487527
0.535697
0.551125
0.575053
0.634557
0.652503
0.608741
0.688710
0.710749
0.665098
0.729325
0.761753
0.724603
0.757031
0.803627
0.801424
0.820314
0.837316
0.861244
0.874152
0.882338
0.906896
0.960104
0.951918
0.957271
1.010479
1.005756
1.002293
1.047945
1.056446
1.015202
1.051724
1.077540
1.041964
1.052039
1.084153
1.046372
1.013944
1.060540
1.001981
0.993165
1.027483
0.955700
0.934291
0.979628
0.928939
0.880454
0.961368
0.917605
0.883288
0.936181
0.953183
0.927366
0.969240
1.021188
0.997891
1.031893
1.077230
1.079120
1.076286
1.107770
1.118475
1.084158
1.108086
1.146811
1.141144
1.121624
1.157516
1.175147
1.156572
1.180815
1.218281
1.218911
1.172315
1.246932
1.254173
1.219541
1.276212
1.292584
1.262989
1.280935
1.304863
1.304549
1.311475
1.313050
1.335718
1.322810
1.318402
1.338867
1.361850
1.344535
1.353980
1.398057
1.399947
1.397743
1.454099
1.476768
1.469842
1.513919
1.547607
1.547292
1.573424
1.619706
1.611205
1.634504
1.665043
1.662525
1.687397
1.704713
1.719826
1.708177
1.739976
1.748162
1.704085
1.770201
1.756348
1.668508
1.716679
1.732421
1.622228
1.660323
1.658120
1.544463
1.558631
1.554538
1.494719
1.458513
1.461347
1.429863
1.377285
1.382008
1.377285
1.329745
1.290390
1.299521
1.255444
1.215774
1.218293
1.196254
1.173271
1.140214
1.146511
1.126991
1.115657
1.104323
1.112824
1.109675
1.083229
1.118176
1.133604
1.116917
1.139901
1.195942
1.172959
1.173274
1.221760
1.211685
1.195314
1.216093
1.196258
1.174535
1.163516
1.146829
1.131402
1.100548
1.080399
1.056786
1.030025
0.992559
0.973355
0.929907
0.883626
0.842067
0.809954
0.749820
0.700705
0.665129
0.600272
0.554306
0.505821
0.458910
0.404128
0.366978
0.317548
0.275360
0.206096
0.181224
0.130535
0.084569
0.056233
0.019712
-0.029403
-0.054904
-0.056163
-0.120390
-0.098981
-0.130780
-0.179265
-0.183042
-0.162893
-0.245380
-0.233731
-0.206969
-0.302051
-0.297013
-0.266788
-0.305198
-0.338256
-0.271195
-0.311180
-0.330700
-0.290085
-0.279695
-0.286622
-0.268361
-0.244118
-0.247266
-0.237191
-0.219875
-0.205707
-0.200040
-0.193743
-0.177371
-0.154702
-0.154387
-0.145257
-0.132348
-0.110309
-0.126681
-0.129199
-0.117865
-0.140848
-0.166350
-0.168553
-0.183665
-0.238447
-0.247577
-0.254189
-0.289765
-0.294173
-0.278746
-0.303618
-0.321563
-0.295117
-0.289134
-0.307710
-0.282523
-0.270244
-0.291338
-0.270873
-0.250093
-0.245056
-0.243481
-0.216405
-0.206330
-0.192792
-0.167605
-0.134546
-0.103377
-0.082598
-0.038520
-0.009869
0.026652
0.055617
0.102529
0.139680
0.172738
0.202018
0.246096
0.268135
0.286395
0.321658
0.332362
0.337715
0.347475
0.361643
0.337715
0.335512
0.327011
0.304343
0.264988
0.250506
0.201076
0.155740
0.117330
0.065067
-0.010180
-0.051738
-0.092667
-0.203805
-0.215768
-0.290700
-0.391133
-0.422932
-0.456304
-0.580666
-0.607741
-0.626002
-0.744696
-0.767364
-0.801052
-0.858037
-0.912819
-0.938321
-0.960044
-0.996251
-1.013881
-1.010103
-1.035920
-1.038438
-1.028048
-1.031826
-1.026789
-1.015769
-1.010732
-1.011361
-0.995304
-0.990581
-0.974210
-0.965079
-0.948078
-0.941781
-0.913445
-0.891406
-0.878812
-0.845124
-0.809233
-0.792861
-0.770507
-0.720448
-0.712262
-0.692741
-0.655590
-0.634496
-0.633551
-0.592622
-0.561453
-0.557989
-0.538154
-0.504466
-0.499429
-0.492187
-0.457555
-0.442757
-0.448739
-0.438664
-0.403717
-0.408439
-0.393012
-0.378844
-0.373177
-0.378214
-0.366565
-0.352082
-0.352082
-0.340118
-0.340117
-0.337598
-0.325634
-0.316189
-0.317133
-0.306429
-0.309262
-0.309577
-0.304854
-0.299502
-0.309261
-0.312724
-0.309261
-0.336337
-0.341374
-0.347041
-0.363098
-0.381043
-0.385766
-0.404341
-0.434565
-0.417249
-0.453455
-0.453770
-0.431416
-0.463844
-0.478956
-0.434879
-0.446842
-0.483049
-0.411895
-0.438341
-0.465417
-0.417876
-0.405283
-0.431099
-0.419135
-0.371280
-0.403393
-0.382928
-0.349870
-0.360574
-0.343573
-0.344202
-0.330349
-0.337590
-0.329404
-0.330978
-0.329719
-0.321533
-0.330033
-0.314291
-0.314291
-0.318384
-0.330662
-0.313975
-0.319642
-0.346089
-0.348292
-0.340736
-0.376942
-0.387961
-0.376627
-0.397721
-0.427631
-0.420704
-0.412833
-0.441798
-0.420389
-0.416610
-0.441797
-0.435500
-0.408739
-0.427314
-0.412202
-0.385125
-0.385755
-0.372217
-0.340418
-0.310508
-0.295395
-0.266430
-0.238094
-0.208184
-0.184571
-0.152458
-0.127585
-0.103657
-0.088545
-0.071858
-0.053912
-0.039429
-0.026836
-0.010149
0.006223
-0.001333
0.017557
0.038966
0.024484
0.025114
0.046208
0.018503
-0.008573
0.001817
-0.042890
-0.082245
-0.101135
-0.146472
-0.217625
-0.252257
-0.293186
-0.388897
-0.405583
-0.455642
-0.564261
-0.587244
-0.609283
-0.727347
-0.748756
-0.754108
-0.860838
-0.887914
-0.880358
-0.937658
-0.984884
-0.970086
-1.014793
-1.057611
-1.042813
-1.069889
-1.092243
-1.098224
-1.096335
-1.114910
-1.124670
-1.106095
-1.114280
-1.093186
-1.079962
-1.056979
-1.031792
-1.001252
-0.960323
-0.919709
-0.857685
-0.819275
-0.784642
-0.706877
-0.653354
-0.623129
-0.538753
-0.475470
-0.447449
-0.381647
-0.295696
-0.266416
-0.201874
-0.114349
-0.063345
-0.026508
0.063221
0.119892
0.146653
0.221900
0.260311
0.281720
0.322964
0.368931
0.375542
0.408286
0.435677
0.454567
0.468735
0.483533
0.492034
0.494238
0.497701
0.487627
0.482904
0.457088
0.443865
0.420252
0.390342
0.355710
0.323282
0.290539
0.243943
0.216238
0.186958
0.152955
0.112341
0.095025
0.070468
0.031428
0.009705
-0.003833
-0.038780
-0.070893
-0.061448
-0.107414
-0.118748
-0.110248
-0.147084
-0.171956
-0.136693
-0.164714
-0.204383
-0.139841
-0.180140
-0.219810
-0.167861
-0.165342
-0.219180
-0.183603
-0.159360
-0.214771
-0.200603
-0.181713
-0.197770
-0.205640
-0.197454
-0.188009
-0.214455
-0.197769
-0.183916
-0.193675
-0.198713
-0.195249
-0.199342
-0.213824
-0.193674
-0.199341
-0.186118
-0.184229
-0.192099
-0.174783
-0.158096
-0.177301
-0.167856
-0.148336
-0.180764
-0.197765
-0.187375
-0.216970
-0.252232
-0.226730
-0.268288
-0.323385
-0.313939
-0.333144
-0.393278
-0.399260
-0.429484
-0.481118
-0.512601
-0.550697
-0.583125
-0.630665
-0.667186
-0.718820
-0.751248
-0.797214
-0.829957
-0.858293
-0.892295
-0.925353
-0.942984
-0.966596
-0.999969
-0.993987
-1.012562
-1.042472
-1.060732
-1.060417
-1.093160
-1.094105
-1.100716
-1.111735
-1.137867
-1.138811
-1.146367
-1.157386
-1.149200
-1.157700
-1.159904
-1.174072
-1.130624
-1.166830
-1.123697
-1.093787
-1.118659
-1.101343
-1.036801
-1.049394
-1.047820
-0.956201
-0.989889
-0.970684
-0.918420
-0.881269
-0.887566
-0.832784
-0.784613
-0.786817
-0.743999
-0.681031
-0.665603
-0.652380
-0.588782
-0.574300
-0.568947
-0.525184
-0.493071
-0.474495
-0.434510
-0.409323
-0.365560
-0.348559
-0.323371
