EVENT_NAME: 202302060117
EVENT_ID: 13194
EVENT_DATE_YYYYMMDD: 2023/02/06
EVENT_TIME_HHMMSS: 01:17:32.00000
EVENT_LATITUDE_DEGREE: 37.288
EVENT_LONGITUDE_DEGREE: 37.043
EVENT_DEPTH_KM: 8.6
HYPOCENTER_REFERENCE: AFAD
MAGNITUDE_W: 7.7
MAGNITUDE_W_REFERENCE: AFAD
MAGNITUDE_L: 
MAGNITUDE_L_REFERENCE: 
FOCAL_MECHANISM: 
NETWORK: TK
STATION_CODE: 5103
STATION_NAME: 
STATION_LATITUDE_DEGREE: 37.83234
STATION_LONGITUDE_DEGREE: 34.9909
STATION_ELEVATION_M: 1536.0
LOCATION: Kahramanmaras_Pazarck_Turkiye
SENSOR_DEPTH_M: 
VS30_M/S: None
SITE_CLASSIFICATION_EC8: unknown
MORPHOLOGIC_CLASSIFICATION: 
EPICENTRAL_DISTANCE_KM: 190.74
EARTHQUAKE_BACKAZIMUTH_DEGREE: 
DATE_TIME_FIRST_SAMPLE_YYYYMMDD_HHMMSS: 2023/02/06 01:17:44.8957470
DATE_TIME_FIRST_SAMPLE_PRECISION: millisecond
SAMPLING_INTERVAL_S: 0.01
NDATA: 13501
DURATION_S: 
STREAM: HNN
UNITS: cm/s^2
INSTRUMENT: sensor = GMS+/GEOSIG | digitizer = 
INSTRUMENT_ANALOG/DIGITAL: 
INSTRUMENTAL_FREQUENCY_HZ: 
INSTRUMENTAL_DAMPING: 
FULL_SCALE_G: 
N_BIT_DIGITAL_CONVERTER: 
PGA_CM/S^2: 8.204
TIME_PGA_S: 
BASELINE_CORRECTION: BASELINE REMOVED
FILTER_TYPE: BUTTERWORTH
FILTER_ORDER: 
LOW_CUT_FREQUENCY_HZ: 
HIGH_CUT_FREQUENCY_HZ: 
LATE/NORMAL_TRIGGERED: 
DATABASE_VERSION: 
HEADER_FORMAT: DYNA 1.2
DATA_TYPE: Acceleration
PROCESSING: Automatic Paolucci et al., 2011
DATA_TIMESTAMP_YYYYMMDD_HHMMSS: 
DATA_LICENSE: U (unknown license)
DATA_CITATION: Turkish Accelerometric Archive v 1.0 - Disaster And Emergency Management Presidency, Earthquake Department
DATA_CREATOR: AFAD
ORIGINAL_DATA_MEDIATOR_CITATION: : AFAD - Disaster And Emergency Management Presidency
ORIGINAL_DATA_MEDIATOR: AFAD PROCESS SERVICE
ORIGINAL_DATA_CREATOR_CITATION: AFAD PROCESS SERVICE
ORIGINAL_DATA_CREATOR: network: TK
USER1: GuestUser
USER2: 
USER3: 
USER4: 
USER5: 
[...]
-3.580719
-3.205615
-2.674389
-2.033542
-1.435037
-0.948752
-0.504809
-0.024498
0.390611
0.665445
0.799485
0.812473
0.787535
0.825201
0.945474
1.018988
0.950668
0.796886
0.709344
0.759998
0.932743
1.121595
1.238490
1.364737
1.529689
1.710228
1.838293
1.876479
1.846086
1.742178
1.591512
1.387335
1.143672
0.859745
0.520229
0.173178
-0.103475
-0.285832
-0.482477
-0.851088
-1.418681
-2.021602
-2.588936
-3.095743
-3.457860
-3.673208
-3.756853
-3.719187
-3.510074
-3.192119
-2.935988
-2.809741
-2.791557
-2.764541
-2.643490
-2.381384
-2.111486
-2.068884
-2.241890
-2.432560
-2.404245
-2.104993
-1.757683
-1.556363
-1.363356
-0.951624
-0.348183
0.221228
0.634778
0.923640
1.095606
1.261078
1.417198
1.547082
1.725542
1.840099
1.866595
1.894131
2.002454
2.129740
2.186369
2.167925
1.992062
1.656701
1.223148
0.778945
0.328507
-0.122450
-0.481969
-0.787976
-1.109569
-1.450904
-1.800033
-2.151759
-2.394902
-2.476989
-2.346066
-1.956934
-1.440256
-0.829801
-0.225841
0.290058
0.713479
1.004159
1.164955
1.089622
0.869339
0.783096
0.957660
1.422124
2.098040
2.845912
3.575600
4.156700
4.591292
5.052120
5.449305
5.678939
5.803368
5.895326
5.969619
5.871686
5.586980
5.101474
4.421921
3.718469
3.117106
2.699399
2.366376
1.945292
1.371205
0.799195
0.308494
-0.189222
-0.718370
-1.265701
-1.663146
-1.936942
-2.173850
-2.344258
-2.453880
-2.442191
-2.347636
-2.175930
-1.972272
-1.740819
-1.499754
-1.331945
-1.187774
-1.101531
-0.959178
-0.748247
-0.539134
-0.313396
-0.190786
-0.082723
0.088464
0.285628
0.475258
0.606960
0.741520
0.973752
1.320282
1.630185
1.806048
1.841376
1.759549
1.673046
1.748638
2.028148
2.279863
2.318828
2.132834
1.869948
1.544719
1.013233
0.390310
-0.120914
-0.396008
-0.541219
-0.653439
-0.738123
-0.897102
-1.042832
-1.094266
-1.099981
-1.069848
-1.055302
-1.111671
-1.190641
-1.319486
-1.533016
-1.755637
-1.977739
-2.197763
-2.480650
-2.785618
-2.954467
-3.038373
-3.095522
-3.068506
-2.849262
-2.497277
-2.098274
-1.620561
-1.155057
-0.804370
-0.637340
-0.536550
-0.381209
-0.259378
-0.244572
-0.366663
-0.580972
-0.822296
-1.014525
-1.183634
-1.300270
-1.249356
-1.079728
-0.913476
-0.825935
-0.718131
-0.586429
-0.508239
-0.481743
-0.494992
-0.452130
-0.320168
-0.191064
-0.170543
-0.217561
-0.295232
-0.429012
-0.608772
-0.823860
-0.991411
-1.067523
-1.003620
-0.749308
-0.314197
0.252357
0.825145
1.344421
1.787585
2.158793
2.476748
2.692615
2.713656
2.539611
2.311275
2.214382
2.314132
2.423754
2.440379
2.303481
2.032283
1.806285
1.589118
1.318960
0.920216
0.392886
-0.220166
-0.905434
-1.444453
-1.828910
-2.131280
-2.353901
-2.568470
-2.754724
-2.878114
-2.912663
-2.967214
-3.116841
-3.175549
-2.970073
-2.519635
-1.924767
-1.266515
-0.617875
-0.016772
0.552379
1.137376
1.708865
2.188137
2.492065
2.611039
2.647406
2.695982
2.870546
3.094725
3.275264
3.442814
3.566203
3.674786
3.724402
3.679981
3.484895
3.068487
2.501413
1.897712
1.386749
0.985926
0.726938
0.595755
0.604067
0.769539
0.941505
1.045672
0.972417
0.737846
0.474181
0.216232
-0.050290
-0.470076
-1.063386
-1.750732
-2.496526
-3.172183
-3.741594
-4.319318
-4.870806
-5.324880
-5.603092
-5.578674
-5.350858
-5.054982
-4.785603
-4.470245
-3.953567
-3.328566
-2.687459
-2.046092
-1.382645
-0.791673
-0.398125
-0.195247
-0.048478
0.157518
0.283245
0.311560
0.317794
0.327145
0.361694
0.439884
0.624838
0.914220
1.363878
1.890947
2.348657
2.680121
2.837021
2.972879
3.214203
3.469295
3.477088
3.141987
2.591279
1.950431
1.313740
0.625095
-0.033937
-0.557629
-0.910914
-1.075087
-1.152499
-1.217960
-1.357976
-1.461363
-1.377978
-1.057685
-0.537629
0.022430
0.526380
0.844335
1.000456
1.104103
1.152679
1.117870
1.015002
0.902782
0.833683
0.821214
0.787704
0.677042
0.455200
0.249204
0.188158
0.205303
0.236215
0.231019
0.222706
0.268166
0.392334
0.558326
0.677040
0.657557
0.426363
-0.026673
-0.607254
-1.130687
-1.590996
-2.000130
-2.329516
-2.605650
-2.816322
-3.013226
-3.037905
-2.848794
-2.663839
-2.503563
-2.354976
-2.139888
-1.844013
-1.495664
-1.002885
-0.359440
0.395446
1.123315
1.695064
2.150697
2.538270
2.871552
3.218082
3.485903
3.585913
3.659427
3.666441
3.527984
3.239642
2.873628
2.581649
2.408903
2.402409
2.561127
2.862977
3.210806
3.473691
3.541750
3.321466
2.878042
2.353830
1.871960
1.368010
0.812107
0.240877
-0.396334
-1.033805
-1.543210
-1.869219
-2.118337
-2.301733
-2.304851
-2.121455
-1.898574
-1.869220
-2.046902
-2.321996
-2.594233
-2.750614
-2.790878
-2.890110
-3.126499
-3.339769
-3.447573
-3.396399
-3.159231
-2.807245
-2.498382
-2.330052
-2.219391
-2.107951
-1.873121
-1.484768
-1.081089
-0.747807
-0.448815
-0.093712
0.272820
0.573371
0.745857
0.852881
1.070826
1.438657
1.741027
1.725441
1.457360
1.106933
0.786119
0.486866
0.147349
-0.280229
-0.898737
-1.665832
-2.508519
-3.264184
-3.854377
-4.386642
-4.816038
-5.129838
-5.360772
-5.535596
-5.684444
-5.769907
-5.668858
-5.362332
-4.968005
-4.523542
-4.125837
-3.749434
-3.325493
-2.853755
-2.249794
-1.508937
-0.678978
-0.023065
0.289696
0.389187
0.392823
0.448153
0.624536
0.963533
1.451896
2.016891
2.579808
3.079341
3.521466
3.783052
3.884102
3.908779
3.842278
3.831368
3.922546
4.072432
4.368048
4.742893
5.040067
5.187875
5.045262
4.634309
4.126462
3.637579
3.206364
2.754887
2.244702
1.691137
1.219398
0.901961
0.713889
0.665052
0.631282
0.561664
0.532050
0.556468
0.535687
0.392814
0.147593
-0.153478
-0.426755
-0.650415
-0.789391
-0.878492
-0.986815
-1.062927
-0.988374
-0.695616
-0.343371
-0.079187
0.051736
0.094337
0.101610
0.076413
0.093297
0.157460
0.283967
0.541137
0.915981
1.283813
1.524877
1.596313
1.504874
1.307970
1.057553
0.855194
0.726868
0.603478
0.444240
0.265780
0.099008
-0.104650
-0.354807
-0.652761
-0.990719
-1.408426
-1.892114
-2.280208
-2.652455
-3.028859
-3.317462
-3.545538
-3.646848
-3.573594
-3.249144
-2.745454
-2.274495
-1.899390
-1.698850
-1.706383
-1.867700
-2.186955
-2.668305
-3.179528
-3.588663
-3.859601
-4.045855
-4.243279
-4.472135
-4.660726
-4.671377
-4.606435
-4.611631
-4.682028
-4.772428
-4.730865
-4.548508
-4.256010
-3.953381
-3.785311
-3.655427
-3.437742
-3.084198
-2.635060
-2.157866
-1.581441
-0.830453
0.084969
1.110533
2.019980
2.697974
3.201144
3.587939
3.940963
4.185404
4.265153
4.134489
3.773152
3.228158
2.537435
1.817618
1.079877
0.418508
-0.005434
-0.140773
-0.044919
0.078730
0.179260
0.261347
0.327327
0.326808
0.167570
-0.012450
-0.180260
-0.377164
-0.536143
-0.621607
-0.671222
-0.786819
-0.971255
-1.191019
-1.448709
-1.747962
-2.051371
-2.308022
-2.402578
-2.225936
-1.899408
-1.592622
-1.410005
-1.262198
-1.132314
-1.124781
-1.146082
-1.174137
-1.177515
-1.155694
-1.206609
-1.355976
-1.576779
-1.766150
-1.890579
-1.942013
-1.904347
-1.746409
-1.459885
-1.220119
-1.125304
-1.106861
-1.166088
-1.348446
-1.565092
-1.692639
-1.686404
-1.611591
-1.582238
-1.581199
-1.533662
-1.317016
-0.898790
-0.367824
0.186261
0.655661
1.015439
1.291572
1.443536
1.413143
1.285597
1.218317
1.349759
1.675248
2.064120
2.473774
2.877713
3.328410
3.859376
4.389302
4.811944
5.025213
4.998457
4.692710
4.150314
3.500634
2.742112
1.790841
0.731767
-0.342633
-1.440932
-2.518709
-3.570250
-4.545679
-5.445515
-6.304568
-7.051401
-7.653024
-8.013842
-8.086058
-7.866814
-7.337147
-6.618629
-5.815947
-5.099767
-4.592180
-4.270588
-4.162005
-4.167980
-4.161226
-4.127197
-4.059398
-3.959647
-3.828984
-3.673384
-3.600909
-3.678320
-3.867431
-4.109275
-4.291892
-4.426972
-4.526723
-4.607511
-4.702067
-4.788829
-4.851953
-4.736876
-4.431390
-3.916010
-3.217495
-2.583921
-2.005937
-1.432370
-0.824773
-0.167561
0.430425
0.883980
1.034125
0.871250
0.570958
0.290409
0.083633
-0.112492
-0.324203
-0.578776
-0.835167
-0.916734
-0.708660
-0.269133
0.224426
0.710711
1.180631
1.632367
2.090078
2.408033
2.589091
2.740796
2.921334
3.276177
3.719600
4.136008
4.432923
4.550597
4.665415
4.775556
4.854006
4.876865
4.754254
4.503058
4.124836
3.720377
3.347610
2.955100
2.466996
1.876803
1.276219
0.691222
0.109341
-0.538000
-1.162743
-1.660458
-2.090374
-2.457427
-2.756680
-2.882927
-2.878511
-2.958260
-3.209456
-3.640411
-4.153713
-4.676366
-5.179017
-5.589451
-5.917538
-6.210816
-6.427203
-6.524357
-6.512408
-6.481236
-6.382784
-6.010796
-5.441385
-4.850673
-4.267495
-3.622491
-2.861891
-2.051155
-1.223535
-0.417735
0.358711
1.068656
1.689761
2.260731
2.689867
2.959766
3.078220
3.075622
2.981845
2.790916
2.543097
2.197086
1.804057
1.434147
1.138271
0.931495
0.756931
0.609642
0.527296
0.638476
0.951496
1.420897
1.939393
2.310082
2.564394
2.706227
2.666742
2.471656
2.126165
1.702483
1.293089
0.924997
0.709130
0.761343
1.028904
1.422452
1.888995
2.504644
3.288364
4.119621
4.936331
5.594843
6.129705
6.628459
7.097599
7.561025
7.867291
7.993278
7.923401
7.636357
7.197609
6.615468
5.935656
5.216098
4.520180
3.868681
3.359017
3.004173
2.749600
2.537370
2.291110
2.099141
1.894963
1.640130
1.332305
0.922131
0.450393
-0.091224
-0.549195
-0.848188
-0.966123
-0.888972
-0.740125
-0.527116
-0.215654
0.235562
0.731719
1.099550
1.192806
1.037205
0.811986
0.580013
0.356872
0.068270
-0.262415
-0.654925
-1.107441
-1.497352
-1.844143
-2.195349
-2.575910
-2.851264
-2.891528
-2.643710
-2.153268
-1.468520
-0.581932
0.415836
1.441399
2.330585
2.980524
3.388879
3.618773
3.789960
3.942184
4.065313
4.165843
4.261697
4.363526
4.471589
4.571600
4.720966
4.901764
5.109579
5.377659
5.573783
5.658208
5.588590
5.327263
4.979693
4.620434
4.339105
4.126095
3.900876
3.612793
3.311722
3.070137
2.834008
2.575279
2.159390
1.554650
0.896398
0.378680
0.094234
-0.176964
-0.512065
-0.910289
-1.382028
-1.833245
-2.168606
-2.326025
-2.262642
-1.957935
-1.525681
-1.125119
-0.944061
-0.989261
-1.213181
-1.620757
-2.076390
-2.598264
-3.075458
-3.369776
-3.575512
-3.733711
-3.925680
-4.211684
-4.526004
-4.782135
-4.969688
-4.994886
-4.824998
-4.496911
-4.001794
-3.419654
-2.706072
-1.943393
-1.208770
-0.471029
0.283336
1.077447
1.784015
2.434993
3.041032
3.612001
4.032306
4.141668
4.119847
4.084259
4.179333
4.453908
4.897591
5.386994
5.598185
5.480250
5.089299
4.580413
4.052305
3.386000
2.622022
1.875189
1.181609
0.597130
0.109026
-0.334917
-0.667940
-0.881210
-1.062788
-1.220987
-1.378666
-1.608561
-1.876901
-2.177973
-2.570482
-3.044039
-3.536819
-3.934524
-4.254299
-4.543421
-4.731233
-4.734351
-4.508613
-4.136106
-3.735284
-3.423823
-3.234192
-3.085605
-3.018585
-3.023781
-2.994947
-2.946890
-2.834930
-2.573344
-2.180056
-1.770922
-1.448550
-1.161507
-0.900960
-0.750035
-0.725097
-0.769778
-0.670806
-0.265828
0.287217
0.906763
1.553845
2.158585
2.722281
3.099204
3.205968
3.025949
2.666689
2.183261
1.615148
1.180297
0.799996
0.446712
0.156551
-0.064772
-0.116206
-0.001909
0.250066
0.609065
1.132497
1.768928
2.461729
3.111928
3.554053
3.782129
3.802650
3.758749
3.757450
3.848888
3.955393
3.866032
3.516644
2.874757
2.054930
1.143144
0.180184
-0.702767
-1.456095
-2.016155
-2.389182
-2.672589
-2.884300
-3.012625
-3.055227
-2.899886
-2.578814
-2.212541
-1.749115
-1.237373
-0.711343
-0.265581
0.044062
0.321753
0.589054
0.942079
1.366020
1.761386
2.051806
2.182989
2.219616
2.176494
2.056222
1.890230
1.715665
1.546296
1.361601
1.030397
0.503587
-0.078293
-0.701996
-1.341545
-1.988627
-2.570767
-2.950548
-3.211096
-3.367996
-3.426444
-3.458136
-3.499699
-3.619452
-3.828046
-4.045472
-4.192241
-4.220556
-4.037420
-3.606985
-2.972632
-2.230735
-1.548065
-1.037102
-0.640956
-0.211040
0.235760
0.648791
1.017661
1.367049
1.795666
2.333905
2.922019
3.552475
4.233587
4.851574
5.365655
5.738162
5.981564
6.078197
6.040791
5.981823
5.854796
5.704131
5.534762
5.436569
5.467222
5.576843
5.721274
5.704129
5.637888
5.594247
5.557360
5.536318
5.472935
5.364092
5.104583
4.800135
4.468411
4.083694
3.653259
3.070339
2.481445
1.961649
1.504198
1.025185
0.425901
-0.335739
-1.285711
-2.248671
-3.203318
-4.110947
-4.878822
-5.583572
-6.239227
-6.821107
-7.246088
-7.419093
-7.333370
-7.161144
-7.068148
-7.024767
-6.973852
-6.841631
-6.631739
-6.428341
-6.195848
-5.838928
-5.357578
-4.861162
-4.450729
-4.038477
-3.540502
-2.960960
-2.261925
-1.557954
-0.844372
-0.139102
0.397058
0.799179
1.020501
1.109601
1.129343
1.026735
0.814504
0.585388
0.523304
0.558892
0.649810
0.864638
1.161033
1.518993
1.918776
2.340638
2.754968
3.131371
3.388022
3.541025
3.550896
3.354771
3.038114
2.697558
2.451038
2.277772
2.168929
2.073074
1.982675
1.859545
1.659523
1.561590
1.557953
1.689136
1.867856
2.032289
2.215945
2.280627
2.373104
2.435967
2.347386
2.130999
1.734074
1.268309
0.812936
0.435753
0.182739
-0.024297
-0.161714
-0.165091
-0.202758
-0.310302
-0.415508
-0.553705
-0.696318
-0.902834
-1.158186
-1.414058
-1.591739
-1.663175
-1.760329
-1.840857
-1.843975
-1.719546
-1.450167
-1.109092
-0.702036
-0.258093
0.212866
0.585633
0.673175
0.518353
0.213904
-0.191334
-0.675542
-1.197935
-1.777478
-2.484306
-3.262052
-3.980310
-4.591544
-5.229275
-5.974809
-6.734631
-7.351320
-7.783834
-7.988012
-8.068540
-8.176604
-8.204399
-8.158420
-7.963335
-7.623818
-7.235466
-6.781132
-6.276143
-5.651142
-4.875995
-3.972002
-3.082038
-2.271302
-1.527847
-0.796340
-0.001970
0.788503
1.585211
2.295936
2.953928
3.579449
4.035601
4.370182
4.577476
4.690735
4.728141
4.633845
4.419277
4.129116
3.746737
3.273180
2.733901
2.128122
1.584168
1.126457
0.850843
0.756547
0.679136
0.634715
0.597308
0.649781
0.768495
0.920199
1.108011
1.194513
1.229062
1.289588
1.450644
1.630403
1.787303
1.966802
2.019275
1.968360
1.866271
1.764702
1.610659
1.281273
0.948510
0.692638
0.478589
0.264800
-0.030556
-0.370073
-0.700758
-0.954811
-1.028586
-0.910651
-0.619711
-0.218890
0.208428
0.616004
0.890059
0.952143
0.781735
0.451570
0.118287
-0.143559
-0.287730
-0.370337
-0.371376
-0.194215
0.116727
0.513912
0.890835
1.227494
1.467779
1.542332
1.559996
1.593766
1.651694
1.693776
1.750145
1.804956
1.924190
2.043423
2.048878
2.025238
1.986533
2.124210
2.377223
2.717779
3.229521
3.702299
4.146761
4.506540
4.719030
4.866318
4.988668
5.114396
5.228693
5.294934
5.210249
4.960872
4.527838
3.961025
3.432137
2.935720
2.466579
2.034325
1.623372
1.201509
0.752110
0.368692
0.079051
-0.109281
-0.293197
-0.552446
-0.914303
-1.374092
-1.715428
-1.911813
-2.051568
-2.195480
-2.487719
-2.922570
-3.377684
-3.815393
-4.248946
-4.662497
-5.057085
-5.365430
-5.556879
-5.607793
-5.487261
-5.251912
-4.902524
-4.495468
-4.120883
-3.790459
-3.495882
-3.278976
-3.069603
-2.798406
-2.526169
-2.224319
-1.901168
-1.568146
-1.230448
-0.866513
-0.449586
-0.005383
0.433884
0.842239
1.286962
1.829876
2.512286
3.172876
3.686956
4.131419
4.469377
4.684205
4.716156
4.594325
4.432229
4.261302
4.074009
3.851907
3.681499
3.633961
3.761767
3.946461
4.012962
3.936590
3.796834
3.737347
3.842553
4.159989
4.527301
4.799277
4.931239
4.918510
4.900846
4.884221
4.848892
4.801094
4.759012
4.709396
4.535351
4.222590
3.792155
3.311584
2.889720
2.592026
2.367067
2.168604
1.979233
1.742844
1.543082
1.339424
1.076278
0.641167
-0.022281
-0.635853
-1.111488
-1.362684
-1.504258
-1.809485
-2.070033
-2.226153
-2.260703
-2.158874
-2.192904
-2.363572
-2.706725
-3.186517
-3.620589
-4.055701
-4.518867
-4.988528
-5.361815
-5.560018
-5.550407
-5.396884
-5.198422
-4.860724
-4.386907
-3.828406
-3.178727
-2.532425
-1.875732
-1.253068
-0.761328
-0.373494
-0.147756
0.038237
0.168381
0.226828
0.348140
0.380870
0.358530
0.269689
0.128115
0.038495
-0.005666
0.055379
0.182406
0.455941
0.877025
1.377857
1.877390
2.333802
2.763199
3.038812
3.214155
3.250522
3.208440
3.202465
3.197269
3.236754
3.205062
3.137002
3.099855
3.040368
2.922953
2.717476
2.456669
2.151441
1.815301
1.466173
1.132891
0.841691
0.642708
0.536982
0.526851
0.545035
0.504511
0.450479
0.373587
0.305008
0.288123
0.301890
0.314099
0.439827
0.668422
0.864287
1.154188
1.489288
1.870367
2.462638
3.136476
3.810833
4.451680
4.926016
5.207085
5.255401
5.010700
4.586499
4.071898
3.494953
2.991263
2.497704
1.888288
1.206916
0.459044
-0.325455
-1.060599
-1.635725
-2.003297
-2.268520
-2.557642
-2.875079
-3.200568
-3.508913
-3.753615
-3.918048
-3.925062
-3.814401
-3.643214
-3.440336
-3.299282
-3.181607
-3.147578
-3.164203
-3.106275
-2.930673
-2.577648
-2.166955
-1.678332
-1.157238
-0.665497
-0.124921
0.358247
0.794398
1.213403
1.580715
1.861264
2.027775
2.009591
1.835026
1.676568
1.546943
1.456024
1.381471
1.306138
1.247170
1.241974
1.278601
1.261197
1.237558
1.174434
1.051823
0.997272
1.071305
1.180927
1.293926
1.439136
1.472386
1.440694
1.415756
1.387181
1.377310
1.280416
1.106112
0.926872
0.812833
0.756463
0.777244
0.850239
0.832315
0.763996
0.690481
0.645021
0.590470
0.536957
0.567610
0.756721
1.171570
1.710068
2.314029
2.880842
3.369465
3.780677
4.039926
4.164354
4.172926
4.136818
4.149027
4.117855
3.913677
3.686120
3.531298
3.454926
3.471031
3.408427
3.291531
3.171778
2.950975
2.734328
2.536125
2.293761
2.111924
1.930086
1.743572
1.609792
1.375740
1.074409
0.769701
0.450446
0.204706
-0.001031
-0.303401
-0.761372
-1.292078
-1.824603
-2.249064
-2.566241
-2.936150
-3.325023
-3.735457
-4.070817
-4.319415
-4.598666
-4.803104
-4.956627
-5.020011
-5.001567
-4.974292
-4.897141
-4.837135
-4.718421
-4.496580
-4.276037
-4.030557
-3.777283
-3.557779
-3.346329
-3.205275
-3.188390
-3.268659
-3.362955
-3.419584
-3.442964
-3.444523
-3.474136
-3.437250
-3.292819
-3.128126
-2.889400
-2.636646
-2.364669
-2.030867
-1.709015
-1.310012
-0.980367
-0.818791
-0.784242
-0.848405
-0.731250
-0.480315
-0.148332
0.217421
0.430691
0.574862
0.620061
0.554080
0.396920
0.219238
0.208068
0.382632
0.673572
1.011789
1.371827
1.717578
2.025663
2.277378
2.452980
2.596372
2.701058
2.716644
2.722619
2.720800
2.612217
2.452719
2.206719
1.904348
1.584574
1.287919
1.051789
0.795918
0.615639
0.380289
0.040512
-0.339529
-0.751261
-1.054411
-1.376523
-1.752408
-2.084651
-2.313247
-2.438196
-2.536388
-2.650167
-2.813301
-2.972020
-3.134375
-3.215423
-3.189966
-3.245816
-3.460385
-3.809513
-4.177085
-4.467765
-4.661812
-4.725456
-4.647006
-4.510888
-4.330609
-4.101494
-3.843545
-3.442463
-2.971504
-2.575359
-2.332736
-2.298446
-2.371182
-2.486259
-2.588868
-2.686021
-2.800319
-2.874613
-2.945530
-3.036189
-3.115419
-3.172308
-3.141136
-3.015409
-2.851496
-2.639265
-2.408592
-2.156877
-1.944127
-1.794761
-1.577076
-1.331076
-0.986624
-0.493844
0.016340
0.518211
0.851753
1.063723
1.220883
1.264264
1.386614
1.545592
1.753926
2.147993
2.609341
3.017436
3.271749
3.317208
3.227068
3.058219
2.899760
2.746237
2.492184
2.208776
1.892119
1.608972
1.427394
1.355957
1.445058
1.560654
1.696253
