EVENT_NAME: 202302060117
EVENT_ID: 13194
EVENT_DATE_YYYYMMDD: 2023/02/06
EVENT_TIME_HHMMSS: 01:17:32.00000
EVENT_LATITUDE_DEGREE: 37.288
EVENT_LONGITUDE_DEGREE: 37.043
EVENT_DEPTH_KM: 8.6
HYPOCENTER_REFERENCE: AFAD
MAGNITUDE_W: 7.7
MAGNITUDE_W_REFERENCE: AFAD
MAGNITUDE_L: 
MAGNITUDE_L_REFERENCE: 
FOCAL_MECHANISM: 
NETWORK: TK
STATION_CODE: 2716
STATION_NAME: 
STATION_LATITUDE_DEGREE: 36.85643
STATION_LONGITUDE_DEGREE: 36.68833
STATION_ELEVATION_M: 415.0
LOCATION: Kahramanmaras_Pazarck_Turkiye
SENSOR_DEPTH_M: 
VS30_M/S: None
SITE_CLASSIFICATION_EC8: unknown
MORPHOLOGIC_CLASSIFICATION: 
EPICENTRAL_DISTANCE_KM: 57.38
EARTHQUAKE_BACKAZIMUTH_DEGREE: 
DATE_TIME_FIRST_SAMPLE_YYYYMMDD_HHMMSS: 2023/02/06 01:17:16.9977600
DATE_TIME_FIRST_SAMPLE_PRECISION: millisecond
SAMPLING_INTERVAL_S: 0.01
NDATA: 10501
DURATION_S: 
STREAM: HNZ
UNITS: cm/s^2
INSTRUMENT: sensor = ACEBOX/SARA | digitizer = 
INSTRUMENT_ANALOG/DIGITAL: 
INSTRUMENTAL_FREQUENCY_HZ: 
INSTRUMENTAL_DAMPING: 
FULL_SCALE_G: 
N_BIT_DIGITAL_CONVERTER: 
PGA_CM/S^2: 164.621
TIME_PGA_S: 
BASELINE_CORRECTION: BASELINE REMOVED
FILTER_TYPE: BUTTERWORTH
FILTER_ORDER: 
LOW_CUT_FREQUENCY_HZ: 
HIGH_CUT_FREQUENCY_HZ: 
LATE/NORMAL_TRIGGERED: 
DATABASE_VERSION: 
HEADER_FORMAT: DYNA 1.2
DATA_TYPE: Acceleration
PROCESSING: Automatic Paolucci et al., 2011
DATA_TIMESTAMP_YYYYMMDD_HHMMSS: 
DATA_LICENSE: U (unknown license)
DATA_CITATION: Turkish Accelerometric Archive v 1.0 - Disaster And Emergency Management Presidency, Earthquake Department
DATA_CREATOR: AFAD
ORIGINAL_DATA_MEDIATOR_CITATION: : AFAD - Disaster And Emergency Management Presidency
ORIGINAL_DATA_MEDIATOR: AFAD PROCESS SERVICE
ORIGINAL_DATA_CREATOR_CITATION: AFAD PROCESS SERVICE
ORIGINAL_DATA_CREATOR: network: TK
USER1: GuestUser
USER2: 
USER3: 
USER4: 
USER5: 
[...]
11.574896
12.350169
11.913203
12.626520
16.139559
23.395459
33.561900
40.778989
38.767165
28.290477
13.726779
-0.865208
-11.647235
-17.364746
-18.305545
-14.348525
-6.371127
3.629787
13.056961
18.403205
17.191201
12.044389
8.320000
8.533459
13.738255
22.984470
30.857361
33.150913
30.743037
26.127178
21.522776
18.439927
14.529903
4.613627
-12.095161
-30.355193
-44.959104
-55.450054
-63.745179
-68.652583
-67.032366
-57.687956
-42.934879
-28.748761
-18.553796
-10.981335
-5.541573
-0.903502
4.934651
10.915420
19.058113
32.029420
44.771139
52.382176
54.236891
49.118369
38.648228
27.240559
17.451469
10.996796
7.758939
5.262453
2.940847
1.987423
2.534744
4.307396
5.595854
1.924537
-9.661519
-25.794230
-37.004340
-36.351576
-27.976723
-19.506247
-13.392915
-10.791685
-12.016548
-14.400343
-15.898281
-17.021442
-17.422870
-13.232053
-1.979857
12.394001
23.382006
27.770382
26.406176
20.585561
10.781742
-1.306511
-13.250043
-21.429205
-20.335968
-8.160740
9.980994
27.624974
40.320166
44.869863
42.500095
37.800771
32.825567
29.109594
28.126244
27.011267
23.327091
18.237092
11.813981
4.426690
-1.380365
-5.169048
-9.062940
-14.832588
-22.194629
-28.864863
-34.755618
-41.725113
-46.795707
-44.866644
-35.958265
-22.717156
-7.946779
4.342075
11.106766
11.365815
6.226718
-0.631489
-5.348581
-5.839788
-1.557089
6.408386
16.091802
25.716068
32.233636
32.015504
25.013511
14.261176
3.948380
-1.244723
-1.263192
-1.081062
-3.210954
-5.702296
-6.674424
-5.738532
-2.891815
-1.071235
-4.821575
-14.489091
-26.629480
-35.506527
-36.641611
-31.445466
-23.424114
-16.908884
-15.071003
-14.093962
-9.519484
-1.190689
8.758789
15.502439
18.037504
19.965865
20.414757
16.436230
8.353159
-2.012241
-12.486124
-21.325529
-27.524896
-30.591847
-30.929449
-28.720765
-23.486744
-15.222945
-5.081286
4.167034
9.781209
11.662109
11.530483
12.230006
17.180430
26.948248
38.934801
48.352390
49.189152
41.117536
31.040408
24.882891
24.260524
27.918985
32.038494
32.913598
29.235969
19.606328
2.981474
-17.613492
-37.211546
-50.892660
-53.778418
-45.477912
-31.478598
-19.280458
-13.695742
-13.520626
-15.036099
-16.297667
-16.644621
-16.624280
-17.365883
-19.517518
-22.595925
-24.078198
-23.258270
-23.875026
-27.963905
-31.940561
-30.850597
-23.268083
-11.675244
1.185477
14.025157
25.674575
35.182877
40.575880
37.470118
23.510553
3.396508
-12.191222
-14.285109
-3.219951
12.640389
23.903808
27.858490
29.092473
29.803920
28.019346
23.036894
13.724751
-0.390290
-15.207658
-25.493568
-28.834062
-24.860442
-15.498964
-6.509926
-3.311344
-6.526055
-13.510045
-20.393269
-23.842011
-22.465412
-18.402248
-15.340905
-11.600381
-3.953573
5.341740
13.298330
19.075228
22.140312
21.214710
14.987755
6.489927
0.961324
-1.026653
-1.449357
0.677732
6.675569
13.642495
18.915326
22.959085
23.889132
18.667739
9.286625
1.772616
0.782953
6.302674
14.537717
19.311858
16.189497
8.729495
3.446380
1.001563
-1.954334
-8.208176
-17.542998
-26.962922
-32.620347
-29.923494
-19.575158
-11.426387
-11.792045
-15.480429
-15.928149
-13.070444
-9.940365
-8.444061
-8.719239
-8.194597
-3.083787
6.157519
15.003240
20.529741
23.258624
23.812959
19.825314
9.682488
-3.134744
-14.322175
-21.418623
-21.251924
-14.352565
-7.760650
-5.694114
-6.116351
-6.902376
-7.208649
-6.661562
-3.989726
3.110465
13.253994
21.757436
24.626130
20.381308
12.151178
5.242704
3.432647
8.749666
19.227525
27.445033
26.487167
17.061398
4.881731
-5.592853
-12.844074
-19.981202
-32.122760
-47.576290
-56.248531
-50.920523
-36.250211
-20.423070
-7.221706
1.321715
7.897966
15.775766
19.355203
14.117445
3.460967
-7.442401
-12.804540
-9.562005
0.816959
14.661031
24.956061
26.325180
19.648165
9.668062
1.759170
-3.640610
-8.349754
-11.510224
-14.505867
-18.636595
-21.851774
-24.066534
-26.046094
-26.088410
-20.416955
-6.903004
10.769967
28.849978
46.163602
57.938335
58.704724
48.602579
33.229709
20.393305
12.951540
7.407974
1.844068
-3.017978
-6.703557
-7.831628
-8.599183
-15.989513
-31.521599
-48.015293
-57.031917
-54.228920
-39.479351
-16.528641
6.433291
21.343012
25.506241
20.288121
9.867545
0.262687
-4.791541
-5.840354
-5.210036
-4.454168
-5.344233
-9.117953
-14.878015
-22.917132
-32.708327
-40.350690
-45.586812
-50.103774
-51.963163
-49.068985
-38.467914
-19.723217
0.716276
17.909963
28.065649
26.294169
15.282085
2.968920
-4.187145
-2.598258
6.892276
20.891122
32.865518
36.036044
32.014966
27.088626
24.359979
23.707452
25.370921
32.032508
42.042539
48.883682
51.419917
50.335566
42.980539
30.454619
17.029513
5.779424
-1.724765
-6.867836
-11.538870
-16.700879
-22.895336
-27.202582
-26.336361
-22.884811
-21.730085
-22.958455
-24.303255
-25.129259
-23.566791
-18.719471
-12.185070
-4.164419
4.553882
12.655894
17.747766
14.074812
0.135587
-16.665083
-25.342234
-21.269016
-9.465293
3.682064
12.502301
13.416684
8.832622
2.249828
-2.919429
-3.083787
1.819177
9.198288
16.229508
21.933461
25.263203
23.441924
17.895787
13.863954
12.462341
10.101458
4.507158
-2.090132
-7.488042
-13.427426
-19.956681
-23.828362
-23.781835
-19.436010
-11.796683
-3.922390
2.610608
4.167933
-2.391248
-13.309813
-23.689942
-30.131055
-29.425454
-20.209632
-4.142381
12.030546
19.568639
15.385072
5.339272
-2.966608
-8.513213
-12.557437
-15.045740
-13.481167
-3.034402
13.333746
27.120772
34.012181
31.821035
23.435196
15.091908
5.992286
-6.992112
-19.940738
-25.132205
-21.086342
-14.113571
-10.097400
-11.432381
-16.305416
-18.565299
-14.735699
-7.225194
0.017379
5.456206
9.655674
11.459889
8.888822
2.905484
-3.665153
-8.304859
-10.787784
-13.235173
-15.661753
-15.265933
-10.413703
-1.943928
8.868495
21.487938
32.011388
33.463270
25.603241
14.531072
4.487143
-0.175709
4.502810
15.746122
27.585149
36.119452
38.311302
34.560027
31.187269
32.934905
37.529957
40.591534
39.498767
34.102026
26.591758
18.541886
11.018291
4.005076
-6.233840
-19.978079
-31.516674
-39.305628
-43.993730
-43.383050
-39.349111
-33.329765
-22.589351
-13.415612
-14.786364
-21.708165
-26.124360
-28.475424
-30.265141
-30.478129
-27.118928
-17.786441
-5.107381
4.768685
10.418865
10.532258
2.758968
-5.965644
-5.646275
3.503148
14.758150
23.714223
28.841399
30.852758
34.085474
40.180570
44.835007
44.157231
35.098289
19.712794
7.874705
2.623619
-2.391798
-9.670139
-14.209546
-9.597192
2.221495
11.127302
10.110519
-0.074156
-13.120978
-22.093648
-24.537529
-22.464214
-19.399598
-18.434481
-20.435784
-21.671635
-20.862462
-26.034991
-39.247107
-49.144679
-49.062615
-42.348424
-33.522809
-25.844438
-19.689958
-14.429284
-10.632649
-6.727298
-1.970925
1.982588
6.088771
9.915098
11.148146
14.043961
23.687865
36.938561
47.487962
50.763463
45.039406
33.458260
20.500749
7.277879
-5.187255
-13.975459
-17.987652
-16.841811
-10.798618
-3.190853
4.834005
14.913007
26.246097
36.411603
41.062534
35.402771
20.214367
1.990806
-10.862898
-13.597390
-10.745997
-11.441075
-19.806340
-35.608929
-55.665694
-69.500178
-69.358495
-62.275372
-57.573006
-55.363153
-53.279317
-48.292654
-36.017361
-19.817079
-9.770108
-8.785119
-9.997122
-4.312808
11.879290
32.631371
49.112209
57.511377
59.122242
55.992633
49.239634
43.426734
39.233347
27.647525
9.490597
-4.265331
-14.269982
-23.482528
-26.209071
-22.704448
-18.655780
-13.577234
-3.615599
12.349483
29.222399
38.493631
38.522857
34.297908
28.633235
23.442937
22.343156
24.749633
26.589385
26.703713
25.255107
20.628026
9.141334
-10.851370
-32.369601
-48.499507
-62.696143
-75.669552
-75.709296
-54.879829
-21.735325
9.106043
28.813751
35.100093
32.301541
28.448798
28.163333
31.917417
36.492363
35.472774
28.293095
21.186595
14.997281
5.117946
-9.548623
-26.576544
-42.266911
-50.607627
-46.846763
-34.489407
-23.218273
-20.557659
-27.597527
-39.475128
-50.932596
-59.258583
-63.282700
-63.838201
-59.824134
-48.320840
-30.895694
-11.364503
7.426953
20.927578
23.830874
16.640206
7.816465
5.424253
11.822818
26.674556
45.507395
59.793111
65.434874
64.117661
58.457899
51.634994
43.843702
31.497337
14.443465
-5.022260
-25.051437
-39.726890
-42.424675
-34.071565
-21.476671
-11.243831
-7.507983
-11.280768
-18.797583
-24.505742
-27.968044
-30.753971
-31.552153
-30.530224
-28.395888
-24.925400
-21.836937
-19.687403
-17.581590
-14.525624
-8.680691
0.348093
11.771662
23.364969
31.058537
31.711534
27.250216
25.427300
27.830737
27.412007
21.227136
12.109745
6.058372
6.139267
8.452225
9.687377
6.485058
-0.288515
-1.587024
4.783251
14.451003
22.803880
23.033938
17.372071
14.943620
15.555936
14.142867
9.066662
-1.760254
-19.416856
-37.080939
-45.480806
-44.730549
-45.492493
-57.784851
-77.630029
-92.793183
-99.489135
-99.522567
-90.111992
-69.192746
-43.062861
-18.705160
2.742468
18.567972
25.323546
23.782122
18.711060
19.864617
30.678210
45.584891
60.823097
69.842529
67.547109
57.897829
46.436621
38.888712
34.662594
26.409318
14.031858
4.051522
4.289529
16.564588
30.320285
32.510733
18.543920
-2.595560
-19.098139
-29.384516
-32.309084
-25.725352
-12.142898
6.208552
24.950443
36.516395
33.327870
14.255158
-7.742358
-21.556970
-29.191384
-32.007471
-31.679452
-31.991102
-27.902688
-18.585398
-14.994037
-19.159134
-23.104461
-21.719211
-14.890927
-4.943787
8.845343
23.942335
35.311664
47.150925
57.872635
56.716977
44.634101
29.411563
15.670364
5.468154
-4.479685
-16.877718
-28.087828
-32.164550
-29.344953
-28.191396
-30.053590
-29.062756
-26.268176
-17.619312
2.685748
22.261828
28.511464
21.495911
4.305734
-16.570724
-35.759867
-49.094960
-49.867892
-37.187195
-14.158864
14.058831
35.342800
41.948977
39.734450
35.486122
27.275163
16.152259
10.969443
11.570303
8.168087
-0.248146
-7.666999
-13.193965
-17.351347
-19.062508
-19.931297
-20.260950
-18.251695
-16.580043
-15.581493
-9.634157
-0.545755
4.444182
3.335516
-4.123784
-15.611177
-25.638507
-29.348401
-18.446433
10.331674
43.567827
66.673544
77.645184
76.455625
63.722559
49.304751
40.512105
35.782621
33.135336
29.035703
24.347835
24.359059
26.945325
30.233218
33.194028
28.474130
12.453641
-9.683919
-29.188922
-43.100793
-51.076552
-49.066595
-41.480107
-28.867678
-0.705159
34.803737
58.633524
64.768132
54.971794
36.439388
17.209798
-0.235919
-14.674068
-23.131682
-26.830821
-29.540530
-24.969091
-10.855450
0.702319
2.177581
-9.427412
-26.421199
-27.847595
-13.493844
4.308416
27.713862
50.768845
59.294732
57.054721
51.045899
38.889144
22.252132
4.120922
-11.346402
-17.887581
-22.383969
-31.079823
-34.886742
-31.766950
-29.187931
-25.009739
-12.356630
-0.882326
-8.679931
-28.505236
-41.781647
-48.291730
-42.272618
-10.825949
31.526660
58.625869
63.194970
45.616223
6.424789
-38.943102
-67.165470
-75.567441
-76.960169
-70.600181
-52.426885
-30.413234
-4.781805
26.736406
51.622723
64.273027
70.339132
67.592951
57.035135
48.278026
41.842758
34.139373
29.573080
32.365322
40.052110
43.717819
38.009426
36.707177
51.175488
67.066690
75.947246
86.635056
94.521273
89.188826
73.062895
48.029522
10.238066
-38.135522
-84.470398
-116.608870
-130.734900
-126.149433
-108.810091
-88.908331
-66.445790
-42.815198
-28.876905
-24.622027
-23.050908
-25.381865
-27.432967
-21.502231
-13.767982
-10.467231
-8.934688
-6.645110
2.201312
17.866665
31.241507
40.078577
40.040236
26.029001
10.794071
4.378208
5.654508
18.304578
35.859715
44.455507
44.204643
33.975079
15.128215
3.893089
-0.292348
-7.341100
-4.110488
19.484801
51.491881
78.265878
93.719177
89.844690
60.524410
18.398119
-21.101694
-52.794548
-70.962465
-79.702740
-85.508860
-84.893037
-79.067509
-67.258408
-45.856605
-21.891215
-1.186595
18.166442
31.081872
28.366552
18.557589
11.977834
3.794230
1.703850
17.539875
42.423855
60.010086
62.325849
57.495833
49.113969
30.584368
9.321677
-7.765395
-17.925989
-17.723753
-15.135382
-13.412762
-17.236281
-34.004921
-48.193608
-44.838149
-29.402150
-15.837933
-15.200367
-26.980942
-45.545846
-57.231266
-51.477748
-39.005831
-25.848889
-11.278642
-5.700705
-11.561534
-18.313364
-19.582180
-18.124686
-19.940355
-30.977922
-52.992271
-75.964020
-91.045813
-96.178830
-86.261850
-66.550869
-52.776468
-54.767251
-69.089670
-74.026531
-58.354632
-39.652486
-27.316873
-9.453358
19.342985
48.010973
68.781056
84.989053
92.834823
85.391187
65.064620
39.569030
25.180446
28.683899
35.101869
39.630758
47.776256
58.079703
77.273992
108.374407
133.824877
143.397707
143.856887
135.418443
110.502670
71.436084
31.005524
-0.407709
-18.646700
-25.959643
-28.344608
-25.833858
-21.546482
-25.196056
-29.717927
-23.116894
-10.812844
3.276949
17.630934
21.277004
9.696325
-12.308906
-41.805703
-73.016467
-89.843089
-76.554519
-43.544214
-20.968047
-21.153213
-41.128616
-75.712374
-104.735030
-111.604927
-98.032060
-66.849114
-27.887266
1.612105
14.552785
15.749361
14.366919
12.477371
9.034006
9.056686
14.949547
25.543604
38.010844
46.840667
50.411922
48.096629
40.616988
38.109981
40.201767
25.803364
-0.728650
-7.537059
3.766105
12.028034
13.526208
6.493822
-9.328874
-43.557260
-102.600186
-150.846589
-164.620753
-163.578250
-153.444306
-126.607184
-95.878273
-77.195532
-66.612698
-58.455042
-52.445750
-34.101547
0.430544
28.981634
41.239625
46.493519
49.611441
45.076009
35.434912
34.521468
42.812388
51.448159
58.166792
60.973296
59.293698
55.266307
49.504843
42.793694
35.109013
25.391932
9.573211
-16.686196
-46.659004
-68.406824
-72.698639
-53.601609
-20.464353
10.646817
37.148674
60.601346
77.745000
85.368428
84.081376
79.321031
70.253439
50.634109
26.524703
5.758364
-13.939990
-28.913534
-38.000297
-52.519106
-71.348435
-85.093375
-91.136799
-81.328067
-58.552004
-42.419991
-35.861041
-33.757566
-40.106563
-56.967085
-85.229199
-112.815404
-120.894735
-116.099318
-104.271513
-75.277612
-40.063066
-11.364684
18.916505
48.742257
74.317575
100.681491
117.751733
117.703805
105.189808
77.912916
39.721667
5.154743
-21.082686
-41.941376
-45.401106
-19.663065
13.101519
35.809781
54.884366
56.587113
31.528489
-6.426625
-51.022517
-91.659052
-109.889158
-99.818574
-68.069371
-32.584790
-14.323118
-16.322785
-21.680482
-19.014724
-8.862310
10.970947
34.662794
46.667818
44.208272
37.873536
38.761967
49.201484
61.069502
64.716975
53.485589
30.844196
16.143259
26.911261
59.071947
93.510753
116.261332
121.035240
106.262060
85.789136
73.374502
62.220972
47.550428
33.207903
14.433984
-8.977304
-21.209576
-10.174110
15.679193
40.265549
57.657495
64.278869
57.930105
51.545103
54.061231
51.564277
32.197215
-2.296063
-43.612247
-69.122801
-59.169816
-26.729743
-1.207263
11.351626
18.857221
13.527113
3.963169
13.700125
30.936129
34.270079
20.534491
2.670511
2.795828
16.151264
33.804595
60.731729
79.582804
74.811705
54.417337
31.616494
17.670722
16.020348
24.853678
36.460311
39.979429
35.799836
28.132223
5.647941
-36.675441
-79.131153
-108.276786
-114.941176
-102.585691
-86.743119
-54.894787
-20.660319
-7.454279
0.760890
-8.972322
-39.325285
-53.523791
-32.399038
11.143834
46.322608
76.903058
92.192465
80.638673
90.096709
108.877177
118.796963
135.799870
117.382960
71.971116
39.725798
16.717109
13.678681
16.689991
11.535231
8.223728
-2.580978
-10.453164
-14.261253
-34.751477
-49.748635
-39.980818
-19.155793
16.520736
69.830488
109.271854
103.848928
59.011758
-5.554629
-74.589816
-114.291396
-109.738427
-84.811896
-47.069535
-15.311916
-13.949344
-20.352348
-19.641369
-11.205963
7.974532
13.113164
-6.822494
-37.270144
-72.352825
-95.724601
-90.467434
-71.047531
-45.879722
-12.527138
6.855125
18.477188
44.403903
57.460313
47.975627
32.710537
9.159906
-15.894509
-32.325545
-33.475125
-25.239849
-30.077347
-39.379671
-36.148358
-24.760091
-7.103954
5.303902
0.646194
-10.200127
-12.382390
-0.361234
19.868075
34.489524
34.797670
22.891779
1.024021
-35.917348
-79.394286
-111.270204
-132.985293
-142.486578
-125.814962
-91.475519
-54.810028
-18.722717
10.270950
26.364854
33.478137
38.667269
41.949550
37.592739
24.157347
2.009266
-24.828087
-46.434460
-54.639807
-49.041063
-42.152459
-39.536734
-32.424619
-22.018068
-7.062991
16.019347
31.408586
31.478492
24.017322
13.746843
7.898639
6.423614
0.826743
-9.498679
-20.848833
-27.782090
-23.235900
-8.307242
8.339592
23.391695
32.047806
20.782287
-8.188934
-40.855320
-74.059207
-104.793025
-128.884896
-143.366064
-141.938964
-122.890330
-90.306238
-54.532216
-27.737177
-15.686330
-14.839281
-12.506684
-5.920380
0.394018
12.311367
32.425882
57.004756
78.188894
84.614580
77.285271
64.034344
51.000382
42.170796
36.053726
32.253352
26.671912
17.828064
15.976625
18.601935
18.144162
19.815814
18.507719
4.305706
-21.256751
-54.522359
-85.668128
-100.626710
-93.462459
-68.940397
-43.224334
-32.379880
-41.366812
-65.134874
-89.636592
-104.204265
-110.425141
-109.400172
-98.457991
-79.972575
-57.326737
-31.524402
-5.580152
17.039267
32.826429
38.590000
36.100295
30.974525
27.678686
25.079330
21.429756
21.062929
24.231585
25.653541
24.829173
22.464081
18.769618
15.219876
12.396308
13.869466
23.373793
38.860526
55.318919
68.008735
79.113171
94.669341
111.488951
123.050695
127.002338
119.763508
100.399017
78.533831
66.547748
67.005291
77.548146
90.645236
89.485603
70.022917
42.298304
14.999669
-0.132390
-4.555365
-13.445037
-26.189325
-36.161011
-45.962960
-53.913234
-53.936145
-53.816907
-64.845590
-76.436322
-79.997521
-82.949210
-80.117222
-66.686737
-55.575988
-51.309421
-45.410247
-33.348878
-11.057477
23.039752
56.086061
77.192111
87.375619
82.562437
62.015165
42.000718
36.251411
40.465140
47.265135
57.318419
67.229320
71.940570
68.832471
46.024847
6.531347
-18.512781
-18.516286
-9.332962
8.586197
35.642620
56.579167
69.674153
83.840398
97.551206
99.278736
76.830693
38.897322
4.508083
-20.861257
-34.699014
-42.554601
-46.946949
-34.872254
-18.258852
-13.362435
-7.148570
0.989681
4.488224
10.605765
15.844228
11.112406
-2.845289
-20.975798
-36.395194
-36.590413
-15.929748
7.637486
20.587985
25.839541
16.850738
-0.200562
-3.801039
-0.627941
-3.537547
-8.265861
-18.616065
-31.863718
-34.709964
-36.932206
-49.846698
-55.296277
-38.704151
-15.870340
-2.478899
3.563359
0.241335
-9.458211
-9.816387
2.898679
28.247213
57.293018
65.889043
54.857087
37.383315
16.042769
5.492435
13.816554
28.454602
33.928499
27.071461
24.374377
28.321811
22.888130
5.609812
-19.574360
-43.567803
-53.417914
-45.883329
-25.100854
-11.965188
-29.189031
-66.370276
-94.832520
-94.888864
-63.171692
-19.284437
10.290685
15.850152
-3.539823
-42.364430
-80.680761
-100.673932
-96.795936
-71.469144
-34.279012
7.047228
49.686941
84.297821
99.874332
99.916884
93.600151
81.296338
59.286431
31.440944
