EVENT_NAME: 202302060117
EVENT_ID: 13194
EVENT_DATE_YYYYMMDD: 2023/02/06
EVENT_TIME_HHMMSS: 01:17:32.00000
EVENT_LATITUDE_DEGREE: 37.288
EVENT_LONGITUDE_DEGREE: 37.043
EVENT_DEPTH_KM: 8.6
HYPOCENTER_REFERENCE: AFAD
MAGNITUDE_W: 7.7
MAGNITUDE_W_REFERENCE: AFAD
MAGNITUDE_L: 
MAGNITUDE_L_REFERENCE: 
FOCAL_MECHANISM: 
NETWORK: TK
STATION_CODE: 4413
STATION_NAME: 
STATION_LATITUDE_DEGREE: 38.313533
STATION_LONGITUDE_DEGREE: 39.039342
STATION_ELEVATION_M: 930.0
LOCATION: Kahramanmaras_Pazarck_Turkiye
SENSOR_DEPTH_M: 
VS30_M/S: None
SITE_CLASSIFICATION_EC8: unknown
MORPHOLOGIC_CLASSIFICATION: 
EPICENTRAL_DISTANCE_KM: 209.20
EARTHQUAKE_BACKAZIMUTH_DEGREE: 
DATE_TIME_FIRST_SAMPLE_YYYYMMDD_HHMMSS: 2023/02/06 01:17:48.0738080
DATE_TIME_FIRST_SAMPLE_PRECISION: millisecond
SAMPLING_INTERVAL_S: 0.005
NDATA: 9303
DURATION_S: 
STREAM: HNE
UNITS: cm/s^2
INSTRUMENT: sensor = GEO-A200,/GEObit | digitizer = 
INSTRUMENT_ANALOG/DIGITAL: 
INSTRUMENTAL_FREQUENCY_HZ: 
INSTRUMENTAL_DAMPING: 
FULL_SCALE_G: 
N_BIT_DIGITAL_CONVERTER: 
PGA_CM/S^2: 10.189
TIME_PGA_S: 
BASELINE_CORRECTION: BASELINE REMOVED
FILTER_TYPE: BUTTERWORTH
FILTER_ORDER: 
LOW_CUT_FREQUENCY_HZ: 
HIGH_CUT_FREQUENCY_HZ: 
LATE/NORMAL_TRIGGERED: 
DATABASE_VERSION: 
HEADER_FORMAT: DYNA 1.2
DATA_TYPE: Acceleration
PROCESSING: Automatic Paolucci et al., 2011
DATA_TIMESTAMP_YYYYMMDD_HHMMSS: 
DATA_LICENSE: U (unknown license)
DATA_CITATION: Turkish Accelerometric Archive v 1.0 - Disaster And Emergency Management Presidency, Earthquake Department
DATA_CREATOR: AFAD
ORIGINAL_DATA_MEDIATOR_CITATION: : AFAD - Disaster And Emergency Management Presidency
ORIGINAL_DATA_MEDIATOR: AFAD PROCESS SERVICE
ORIGINAL_DATA_CREATOR_CITATION: AFAD PROCESS SERVICE
ORIGINAL_DATA_CREATOR: network: TK
USER1: GuestUser
USER2: 
USER3: 
USER4: 
USER5: 
[...]
2.291322
2.507904
2.853494
3.263588
3.713702
4.202189
4.626644
4.880892
4.931270
4.780603
4.466322
4.044926
3.563735
3.064653
2.568395
2.076375
1.609779
1.187913
0.806538
0.487549
0.266728
0.137013
0.060737
-0.026603
-0.193043
-0.434110
-0.694716
-0.962621
-1.212162
-1.373188
-1.432043
-1.370365
-1.178031
-0.900005
-0.512747
0.017409
0.651148
1.317845
1.956528
2.515405
2.913021
3.090524
3.096880
3.013777
2.884533
2.776240
2.746342
2.782595
2.856750
2.946207
3.005531
3.003647
2.958682
2.884525
2.779293
2.675945
2.569536
2.390854
2.121302
1.768648
1.302053
0.723399
0.086127
-0.567388
-1.178764
-1.701860
-2.147267
-2.463667
-2.618337
-2.688020
-2.689198
-2.628462
-2.601625
-2.645884
-2.720983
-2.880125
-3.200527
-3.616037
-4.049910
-4.464713
-4.778053
-4.936489
-4.907769
-4.687185
-4.349129
-3.998124
-3.711388
-3.477857
-3.277048
-3.092718
-2.833290
-2.459215
-2.025344
-1.603009
-1.248944
-1.015648
-0.943847
-1.013531
-1.185150
-1.415388
-1.659750
-1.910704
-2.143532
-2.358938
-2.607774
-2.876620
-3.113214
-3.313789
-3.510362
-3.697283
-3.869609
-4.086192
-4.326788
-4.474159
-4.427077
-4.129512
-3.614658
-2.969384
-2.269728
-1.598088
-1.065577
-0.731288
-0.559435
-0.508586
-0.535659
-0.533071
-0.413716
-0.217851
0.021802
0.312305
0.567495
0.762654
0.929798
0.980883
0.882478
0.690848
0.400815
-0.020581
-0.562274
-1.174121
-1.797503
-2.330956
-2.670898
-2.784840
-2.667604
-2.344379
-1.868133
-1.325500
-0.791577
-0.290848
0.096645
0.296042
0.298631
0.109120
-0.252480
-0.696711
-1.111750
-1.442981
-1.648029
-1.713476
-1.633435
-1.436628
-1.231817
-1.141183
-1.268544
-1.642385
-2.204560
-2.839477
-3.429431
-3.897674
-4.186765
-4.277872
-4.156634
-3.777851
-3.171420
-2.432685
-1.656755
-0.929085
-0.307117
0.169129
0.519898
0.799806
1.080421
1.422951
1.823157
2.299403
2.848863
3.419981
3.961437
4.391541
4.642964
4.706055
4.617773
4.423554
4.181546
3.952721
3.754499
3.630434
3.634200
3.779451
4.097026
4.566209
5.093069
5.598036
5.994240
6.188457
6.148436
5.891832
5.453722
4.929685
4.398821
3.904211
3.552734
3.369344
3.316610
3.393590
3.527777
3.644777
3.694685
3.617232
3.382992
3.023276
2.595995
2.116216
1.675046
1.345463
1.122523
1.121345
1.390660
1.844777
2.444145
3.096482
3.637231
3.969873
4.075574
3.919728
3.532939
3.062106
2.580679
2.132211
1.786149
1.518244
1.320023
1.183716
1.049293
0.888974
0.698992
0.472051
0.154003
-0.256799
-0.703855
-1.182692
-1.673300
-2.102228
-2.344237
-2.326582
-2.094698
-1.714266
-1.289106
-0.937395
-0.737057
-0.728348
-0.906558
-1.239437
-1.678254
-2.198288
-2.743277
-3.212227
-3.563468
-3.758158
-3.773932
-3.657166
-3.450237
-3.190103
-2.945977
-2.778597
-2.720451
-2.792253
-2.956810
-3.173393
-3.446241
-3.702610
-3.855632
-3.857751
-3.651292
-3.222601
-2.586037
-1.779973
-0.884687
-0.008940
0.723438
1.255242
1.570227
1.678989
1.646265
1.501483
1.286548
1.093035
0.968028
0.911292
0.928712
1.021700
1.132816
1.260881
1.450390
1.638722
1.797156
1.950176
2.039633
2.031393
1.966888
1.862598
1.705339
1.504057
1.279941
1.041934
0.831236
0.690456
0.627835
0.678448
0.859012
1.102666
1.309596
1.355030
1.126676
0.634656
0.007271
-0.647657
-1.253618
-1.675955
-1.809673
-1.622282
-1.130735
-0.462860
0.227849
0.840636
1.279215
1.443770
1.253082
0.712096
-0.064542
-0.928755
-1.729171
-2.319359
-2.587028
-2.451900
-1.934928
-1.190308
-0.382596
0.336128
0.799426
0.920899
0.741276
0.358018
-0.135650
-0.634027
-1.038237
-1.262589
-1.221392
-0.904758
-0.405442
0.177918
0.794001
1.377596
1.819471
2.028755
1.954363
1.556509
0.846729
-0.069276
-1.056140
-2.003455
-2.822704
-3.424899
-3.741063
-3.806274
-3.721996
-3.530839
-3.285772
-3.083315
-2.959723
-2.938301
-3.047064
-3.240812
-3.423731
-3.514838
-3.420437
-3.056955
-2.407208
-1.509097
-0.509993
0.435202
1.296588
2.067339
2.715674
3.226055
3.597069
3.831778
3.903109
3.794346
3.541508
3.184381
2.792648
2.442348
2.153256
1.942087
1.790949
1.626393
1.431938
1.196051
0.898484
0.578082
0.244026
-0.119928
-0.517311
-0.969311
-1.500410
-2.066351
-2.589446
-3.025673
-3.326771
-3.491798
-3.528288
-3.412229
-3.160806
-2.811214
-2.405358
-1.962776
-1.499479
-1.017348
-0.501787
0.029310
0.581360
1.141649
1.670392
2.162646
2.599813
2.981186
3.316182
3.586910
3.803727
3.966163
4.052089
4.025015
3.841861
3.539115
3.173278
2.807205
2.526824
2.322482
2.154159
1.982539
1.735116
1.404121
1.019685
0.597348
0.141111
-0.363621
-0.931210
-1.559065
-2.207637
-2.822309
-3.343050
-3.687700
-3.805409
-3.675931
-3.295029
-2.717554
-2.033907
-1.359912
-0.806685
-0.391883
-0.079723
0.132857
0.257862
0.314126
0.309887
0.260920
0.160396
0.017969
-0.148471
-0.335392
-0.510778
-0.629193
-0.689931
-0.688990
-0.589175
-0.392368
-0.079972
0.366611
0.927371
1.580885
2.274185
2.958067
3.572973
4.040508
4.324183
4.439772
4.423998
4.324416
4.199880
4.086409
3.983296
3.880654
3.768124
3.651121
3.522113
3.349081
3.124258
2.820100
2.400823
1.853009
1.172185
0.373653
-0.529168
-1.488724
-2.432979
-3.265881
-3.854422
-4.094076
-3.963186
-3.554034
-2.991390
-2.382370
-1.867752
-1.568539
-1.523811
-1.676361
-1.908247
-2.108116
-2.199458
-2.133778
-1.877882
-1.441892
-0.871245
-0.229501
0.430840
1.050218
1.527641
1.803548
1.860047
1.691488
1.291986
0.674489
-0.078607
-0.827702
-1.421187
-1.748416
-1.769369
-1.529716
-1.137514
-0.693049
-0.285310
0.006605
0.182225
0.246963
0.177515
-0.003050
-0.299440
-0.717304
-1.204616
-1.691457
-2.080130
-2.281176
-2.239037
-1.930172
-1.409198
-0.809829
-0.266255
0.141014
0.398087
0.514618
0.508260
0.398556
0.197039
-0.028255
-0.189281
-0.201288
0.041661
0.579821
1.351514
2.240208
3.128196
3.897299
4.441345
4.749033
4.868152
4.849789
4.766216
4.684996
4.639325
4.641678
4.711125
4.859436
5.042824
5.191135
5.217736
5.004684
4.491476
3.696240
2.705845
1.616574
0.485870
-0.587628
-1.526703
-2.275091
-2.776057
-3.040901
-3.074331
-2.859868
-2.398924
-1.740702
-1.012326
-0.366581
0.084711
0.322245
0.426062
0.462080
0.468671
0.525170
0.647821
0.789305
0.927729
1.031311
1.076981
1.101699
1.171381
1.314277
1.504257
1.672108
1.778986
1.833602
1.820888
1.765800
1.725072
1.712594
1.729073
1.755438
1.753790
1.684576
1.504953
1.218216
0.881099
0.546337
0.268074
0.103518
0.051961
0.080210
0.172021
0.298909
0.442041
0.599298
0.746668
0.882031
1.007978
1.087548
1.110853
1.083544
0.993379
0.859662
0.714645
0.562800
0.401775
0.217914
0.006981
-0.190534
-0.309891
-0.298827
-0.112379
0.308309
0.980185
1.812144
2.673531
3.468059
4.107918
4.534256
4.728238
4.683979
4.442677
4.082489
3.678044
3.296669
2.991334
2.796644
2.708833
2.721073
2.812414
2.899046
2.907050
2.798757
2.541682
2.123347
1.601664
1.088221
0.648934
0.319351
0.112890
-0.016118
-0.098986
-0.138301
-0.134300
-0.113584
-0.089102
-0.062971
-0.084160
-0.170323
-0.328994
-0.567942
-0.870452
-1.208040
-1.536211
-1.868148
-2.177956
-2.440446
-2.726477
-3.043583
-3.374108
-3.720171
-4.061996
-4.375806
-4.625819
-4.773896
-4.729168
-4.450672
-4.004088
-3.443328
-2.835250
-2.226465
-1.655582
-1.169213
-0.743111
-0.377747
-0.088186
0.154056
0.390884
0.683505
1.049341
1.486272
1.973818
2.458774
2.914774
3.288613
3.504253
3.564754
3.506370
3.340637
3.112518
2.889107
2.689474
2.487250
2.258661
1.974277
1.625154
1.269205
0.920082
0.578492
0.275982
-0.012639
-0.286899
-0.536677
-0.771858
-0.972433
-1.150879
-1.318026
-1.438089
-1.463044
-1.381590
-1.249523
-1.140526
-1.128756
-1.258471
-1.502834
-1.807228
-2.123392
-2.412719
-2.607645
-2.651904
-2.533490
-2.241105
-1.816415
-1.299442
-0.711139
-0.088700
0.558223
1.152412
1.567685
1.721646
1.598287
1.277650
0.858137
0.429915
0.092092
-0.064225
-0.029855
0.099387
0.277832
0.490647
0.687689
0.812224
0.784444
0.559385
0.120333
-0.515761
-1.263208
-2.048086
-2.768460
-3.282609
-3.493307
-3.343113
-2.862394
-2.133312
-1.268630
-0.407008
0.372689
0.987595
1.430176
1.749634
1.917721
1.937966
1.821905
1.595669
1.342361
1.134723
1.027372
1.015836
1.101997
1.282561
1.488784
1.667699
1.766809
1.755743
1.647451
1.480305
1.334111
1.263720
1.278551
1.343996
1.442634
1.587179
1.753381
1.940301
2.154528
2.384764
2.608173
2.768726
2.844294
2.833228
2.703278
2.453972
2.142280
1.834590
1.592346
1.451331
1.391064
1.372936
1.379056
1.410601
1.464275
1.530426
1.619412
1.743005
1.856004
1.900026
1.861652
1.746768
1.605282
1.508290
1.445669
1.366097
1.264397
1.130915
0.944465
0.760133
0.613233
0.479986
0.403240
0.403003
0.412890
0.371456
0.222201
-0.061711
-0.445911
-0.900265
-1.390872
-1.815564
-2.081114
-2.160214
-2.010255
-1.598278
-0.981489
-0.290309
0.311649
0.709501
0.862050
0.812612
0.644759
0.390745
0.145676
0.029850
0.024199
0.078109
0.186164
0.314936
0.446061
0.607085
0.760105
0.827433
0.757042
0.546109
0.249248
-0.136835
-0.623911
-1.123936
-1.562281
-1.918702
-2.168714
-2.285011
-2.214151
-1.902461
-1.385960
-0.759283
-0.066219
0.700765
1.490585
2.205071
2.817623
3.313644
3.677596
3.965273
4.168907
4.271077
4.344290
4.411619
4.423624
4.318628
4.149598
3.995164
3.778110
3.513266
3.287030
3.122709
3.085748
3.133066
3.251715
3.451111
3.628614
3.779044
3.896280
3.966433
3.981499
3.905223
3.700411
3.319742
2.804416
2.199160
1.533638
0.884125
0.352084
0.010259
-0.141114
-0.131698
-0.012579
0.144207
0.297698
0.436121
0.462487
0.280745
-0.059667
-0.467173
-0.912110
-1.346218
-1.670151
-1.844360
-1.877084
-1.749254
-1.503480
-1.240051
-0.982036
-0.778873
-0.746386
-0.943430
-1.371182
-1.996918
-2.759902
-3.576561
-4.347785
-4.955630
-5.325704
-5.447886
-5.325942
-5.007189
-4.550012
-4.062467
-3.642721
-3.288185
-3.044531
-2.960959
-3.003805
-3.128106
-3.303256
-3.489706
-3.616361
-3.627897
-3.482411
-3.178725
-2.765571
-2.278967
-1.798719
-1.398042
-1.096711
-0.927683
-0.913323
-1.062107
-1.341782
-1.683136
-2.008247
-2.235895
-2.334064
-2.290042
-2.102652
-1.822037
-1.527061
-1.258217
-1.042813
-0.939701
-0.932404
-0.993613
-1.148282
-1.359687
-1.580743
-1.770254
-1.908209
-2.009438
-2.059818
-2.066175
-2.023330
-1.917159
-1.775675
-1.606647
-1.397834
-1.115335
-0.748323
-0.336581
0.058917
0.375315
0.617793
0.766575
0.777168
0.697125
0.580358
0.441697
0.299976
0.226526
0.245123
0.311038
0.420270
0.519380
0.559870
0.561517
0.531619
0.481474
0.392015
0.222279
-0.024437
-0.327889
-0.654883
-0.981406
-1.283445
-1.515567
-1.664115
-1.747924
-1.815724
-1.906831
-2.016301
-2.148605
-2.261841
-2.286325
-2.202047
-2.015599
-1.762527
-1.521933
-1.379272
-1.341135
-1.396224
-1.566430
-1.814324
-2.102003
-2.437707
-2.834619
-3.302392
-3.825016
-4.371182
-4.863438
-5.214679
-5.409840
-5.441857
-5.308613
-5.035767
-4.624260
-4.084688
-3.462955
-2.815562
-2.194535
-1.603642
-1.020282
-0.423504
0.168331
0.689071
1.090925
1.357650
1.460997
1.352469
1.035363
0.576772
0.040023
-0.510381
-0.984509
-1.288903
-1.366356
-1.221576
-0.903059
-0.439055
0.115820
0.652097
1.089263
1.370114
1.441208
1.252404
0.822063
0.276838
-0.246728
-0.592555
-0.632812
-0.396219
0.021408
0.572045
1.185538
1.751713
2.223956
2.590027
2.817203
2.877704
2.775532
2.518222
2.090706
1.544775
0.988251
0.499762
0.131570
-0.065474
-0.089958
-0.056294
-0.085958
-0.210258
-0.400475
-0.601521
-0.763253
-0.862599
-0.921689
-0.981015
-1.041047
-1.110966
-1.161111
-1.136158
-1.052586
-0.884029
-0.598706
-0.254764
0.031737
0.190406
0.255145
0.256556
0.261028
0.321765
0.436176
0.581192
0.630863
0.482786
0.093878
-0.533742
-1.341926
-2.318432
-3.402053
-4.462603
-5.375547
-6.061079
-6.473764
-6.567460
-6.370653
-5.899116
-5.188632
-4.420941
-3.789792
-3.447027
-3.471746
-3.887963
-4.650240
-5.577309
-6.480601
-7.175550
-7.511254
-7.428389
-6.886462
-5.930674
-4.732172
-3.508716
-2.391668
-1.442236
-0.772714
-0.463614
-0.539183
-0.992124
-1.703552
-2.461593
-3.052723
-3.335929
-3.247649
-2.730441
-1.815380
-0.622057
0.740765
2.075573
3.151894
3.836247
4.044825
3.731721
2.964735
1.904185
0.747821
-0.311788
-1.124209
-1.514765
-1.414950
-0.901508
-0.086499
0.850927
1.754452
2.548274
3.139638
3.368697
3.147405
2.521433
1.582829
0.466015
-0.664454
-1.628954
-2.309307
-2.690446
-2.831461
-2.798033
-2.599343
-2.301778
-2.040467
-1.887447
-1.858728
-1.959016
-2.171126
-2.455274
-2.716822
-2.843006
-2.754491
-2.415492
-1.899697
-1.277729
-0.575248
0.101101
0.586763
0.763324
0.611245
0.195029
-0.349254
-0.910016
-1.424401
-1.809071
-1.995992
-1.976454
-1.787886
-1.470782
-1.071988
-0.674136
-0.390931
-0.282405
-0.350441
-0.573617
-0.851879
-1.073407
-1.161218
-1.012906
-0.569148
0.097549
0.869006
1.625162
2.226413
2.580949
2.639331
2.361304
1.801955
1.097354
0.328014
-0.402718
-0.960420
-1.299184
-1.422308
-1.361100
-1.139810
-0.805991
-0.468641
-0.212745
-0.069142
-0.028180
-0.057137
-0.115521
-0.167078
-0.120467
0.131898
0.596844
1.206100
1.893278
2.635073
3.372160
4.009901
4.528050
4.975575
5.391319
5.798588
6.227279
6.656677
7.052411
7.358451
7.474039
7.377988
7.127270
6.720705
6.074723
5.139650
3.920900
2.478741
0.920287
-0.626868
-1.946375
-2.835542
-3.188196
-2.958667
-2.202276
-1.056272
0.232630
1.382165
2.236253
2.731803
2.835385
2.508156
1.774128
0.763251
-0.361567
-1.437184
-2.298336
-2.787531
-2.867574
-2.632629
-2.202290
-1.665778
-1.110432
-0.698926
-0.574156
-0.754250
-1.155165
-1.656366
-2.190290
-2.670540
-2.961044
-3.037084
-2.995181
-2.866409
-2.637586
-2.377217
-2.105548
-1.788208
-1.451799
-1.133753
-0.779217
-0.316155
0.214707
0.784178
1.388960
2.033528
2.738363
3.412829
3.939218
4.253498
4.303876
4.063515
3.559489
2.891377
2.131925
1.366351
0.709304
0.149719
-0.310049
-0.578895
-0.656818
-0.637986
-0.606441
-0.630925
-0.815492
-1.235710
-1.896289
-2.769683
-3.767847
-4.791908
-5.776183
-6.625800
-7.257893
-7.650097
-7.825012
-7.826425
-7.737909
-7.627029
-7.497551
-7.405034
-7.393499
-7.435875
-7.550759
-7.758632
-8.000405
-8.154368
-8.116231
-7.876579
-7.512391
-7.102768
-6.674077
-6.235733
-5.799037
-5.363754
-4.945420
-4.528970
-4.093452
-3.713962
-3.449591
-3.324821
-3.367903
-3.561887
-3.844622
-4.137481
-4.445641
-4.790526
-5.152597
-5.525261
-5.851313
-6.048828
-6.088143
-5.998215
-5.855319
-5.761389
-5.786814
-5.942425
-6.186317
-6.462932
-6.720713
-6.906222
-6.985322
-6.913521
-6.668690
-6.217869
-5.493965
-4.508280
-3.298007
-1.913526
-0.427111
1.126398
2.662487
4.055678
5.222869
6.112741
6.694217
6.958353
6.969652
6.830756
6.630416
6.458562
6.378519
6.434783
6.666667
7.087354
7.643171
8.212170
8.706072
9.075674
9.263771
9.241876
8.995395
8.512320
7.834086
7.039321
6.211127
5.425543
4.737892
4.208676
3.896042
3.828948
4.007392
4.384057
4.855359
5.288524
5.537593
5.512873
5.203065
4.586745
3.716411
2.730253
1.733972
0.830915
0.149621
-0.195029
-0.166545
0.159035
0.679774
1.361538
2.222453
3.265816
4.399343
5.541110
6.728076
7.941880
9.017730
9.792248
10.188923
10.175503
9.784241
9.071636
8.070882
6.839185
5.460588
4.071633
2.900673
2.066358
1.357048
0.662100
0.126763
-0.267560
-0.618801
-0.973103
-1.363424
-1.823898
-2.387014
-2.991328
-3.559858
-4.010445
-4.271523
-4.376519
-4.383347
-4.349212
-4.302130
-4.205846
-4.057064
-3.928763
-3.859551
-3.824475
-3.793166
-3.720659
-3.570935
-3.345643
-3.081036
-2.839500
-2.690247
-2.671179
-2.774292
-2.995113
-3.339999
-3.749153
-4.098040
-4.340519
-4.471647
-4.430685
-4.216928
-3.893468
-3.490672
-3.041499
-2.590207
-2.118670
-1.621943
-1.124039
-0.558336
0.119426
0.862634
1.581358
2.182374
2.626603
2.889562
2.967719
2.872845
2.634368
2.296781
1.870912
1.391369
0.883341
0.314810
-0.316812
-1.012938
-1.827949
-2.801865
-3.907615
-5.077398
-6.236822
-7.298549
-8.172650
-8.817926
-9.177171
-9.150806
-8.719525
-7.979613
-7.097981
-6.221057
-5.380623
-4.574324
-3.910452
-3.433500
-3.006456
-2.480067
-1.815960
-1.102885
-0.437601
0.060303
0.218267
-0.029392
-0.591331
-1.247201
-1.809375
-2.261374
-2.614970
-2.828729
-2.853448
-2.734799
-2.600613
-2.467368
-2.299047
-2.109067
-1.918381
-1.802322
-1.810798
-1.861648
-1.865887
-1.757125
-1.472744
-0.982608
-0.279186
0.582906
1.503382
2.383366
3.176481
3.824581
4.255862
4.460673
4.422299
4.163341
3.709223
3.052647
2.290133
1.587180
1.069971
0.813131
0.835495
1.119876
1.648855
2.341448
3.070766
3.672959
3.981353
3.966050
3.653888
3.115491
2.461504
1.750547
1.050890
0.423035
-0.096294
-0.484731
-0.717088
-0.753343
-0.636342
-0.464018
-0.271213
-0.036269
0.245759
0.531788
0.769087
0.980018
1.196836
1.378105
1.488985
1.536538
1.507817
1.319248
0.890319
0.181951
-0.724166
-1.691962
-2.673882
-3.580470
-4.381592
-5.070420
-5.477926
-5.439318
-4.894331
-3.891225
-2.621392
-1.312480
-0.106209
0.848167
1.365610
1.377380
0.955749
0.189234
-0.731950
-1.565794
-2.232258
-2.645178
-2.737227
-2.489805
-1.844060
-0.830831
0.398040
1.629500
2.704409
3.484341
3.877249
3.913973
3.660900
3.246567
2.863074
2.564566
2.166005
1.614896
1.119815
0.784817
0.739852
1.124285
1.792395
2.686504
3.760942
4.811602
5.727134
6.327209
6.600997
6.664558
6.536020
6.329324
6.096497
5.904867
5.785511
5.737014
5.815642
6.038580
6.483751
7.121963
7.817852
8.448530
8.897468
9.028829
8.787056
8.281852
7.589258
6.755413
5.843646
4.951419
4.213389
3.743969
3.583649
3.687232
4.022699
4.505300
5.012856
5.458733
5.718161
5.705919
5.418004
4.929986
4.368047
3.795279
3.214978
2.673756
2.320866
2.238234
2.401612
2.804408
3.330326
3.844474
4.239972
4.337669
4.069529
3.456976
2.550624
1.482070
0.437763
-0.397964
-0.941541
-1.160478
-1.020407
-0.494488
0.361719
0.000000
0.000000
0.000000
0.000000
0.000000
0.000000
0.000000
0.000000
0.000000
0.000000
0.000000
0.000000
0.000000
0.000000
0.000000
0.000000
0.000000
0.000000
0.000000
0.000000
0.000000
0.000000
0.000000
0.000000
0.000000
0.000000
0.000000
0.000000
0.000000
0.000000
0.000000
0.000000
0.000000
0.000000
0.000000
0.000000
0.000000
0.000000
0.000000
0.000000
0.000000
0.000000
0.000000
0.000000
0.000000
0.000000
0.000000
0.000000
0.000000
0.000000
0.000000
0.000000
0.000000
0.000000
0.000000
0.000000
0.000000
0.000000
0.000000
0.000000
0.000000
0.000000
0.000000
0.000000
0.000000
0.000000
0.000000
0.000000
0.000000
0.000000
0.000000
0.000000
0.000000
0.000000
0.000000
0.000000
0.000000
0.000000
0.000000
0.000000
0.000000
0.000000
0.000000
0.000000
0.000000
0.000000
0.000000
0.000000
0.000000
0.000000
0.000000
0.000000
0.000000
0.000000
0.000000
0.000000
0.000000
0.000000
0.000000
0.000000
0.000000
0.000000
0.000000
0.000000
0.000000
0.000000
0.000000
0.000000
0.000000
0.000000
0.000000
0.000000
0.000000
0.000000
0.000000
0.000000
0.000000
0.000000
0.000000
0.000000
0.000000
0.000000
0.000000
0.000000
