EVENT_NAME: 202302060117
EVENT_ID: 13194
EVENT_DATE_YYYYMMDD: 2023/02/06
EVENT_TIME_HHMMSS: 01:17:32.00000
EVENT_LATITUDE_DEGREE: 37.288
EVENT_LONGITUDE_DEGREE: 37.043
EVENT_DEPTH_KM: 8.6
HYPOCENTER_REFERENCE: AFAD
MAGNITUDE_W: 7.7
MAGNITUDE_W_REFERENCE: AFAD
MAGNITUDE_L: 
MAGNITUDE_L_REFERENCE: 
FOCAL_MECHANISM: 
NETWORK: TK
STATION_CODE: 7201
STATION_NAME: 
STATION_LATITUDE_DEGREE: 37.873
STATION_LONGITUDE_DEGREE: 41.15112
STATION_ELEVATION_M: 597.0
LOCATION: Kahramanmaras_Pazarck_Turkiye
SENSOR_DEPTH_M: 
VS30_M/S: 450
SITE_CLASSIFICATION_EC8: B
MORPHOLOGIC_CLASSIFICATION: 
EPICENTRAL_DISTANCE_KM: 367.78
EARTHQUAKE_BACKAZIMUTH_DEGREE: 
DATE_TIME_FIRST_SAMPLE_YYYYMMDD_HHMMSS: 2023/02/06 01:17:58.9751340
DATE_TIME_FIRST_SAMPLE_PRECISION: millisecond
SAMPLING_INTERVAL_S: 0.01
NDATA: 21001
DURATION_S: 
STREAM: HNZ
UNITS: cm/s^2
INSTRUMENT: sensor = CMG-5T/GURALP | digitizer = 
INSTRUMENT_ANALOG/DIGITAL: 
INSTRUMENTAL_FREQUENCY_HZ: 
INSTRUMENTAL_DAMPING: 
FULL_SCALE_G: 
N_BIT_DIGITAL_CONVERTER: 
PGA_CM/S^2: 17.375
TIME_PGA_S: 
BASELINE_CORRECTION: BASELINE REMOVED
FILTER_TYPE: BUTTERWORTH
FILTER_ORDER: 
LOW_CUT_FREQUENCY_HZ: 
HIGH_CUT_FREQUENCY_HZ: 
LATE/NORMAL_TRIGGERED: 
DATABASE_VERSION: 
HEADER_FORMAT: DYNA 1.2
DATA_TYPE: Acceleration
PROCESSING: Automatic Paolucci et al., 2011
DATA_TIMESTAMP_YYYYMMDD_HHMMSS: 
DATA_LICENSE: U (unknown license)
DATA_CITATION: Turkish Accelerometric Archive v 1.0 - Disaster And Emergency Management Presidency, Earthquake Department
DATA_CREATOR: AFAD
ORIGINAL_DATA_MEDIATOR_CITATION: : AFAD - Disaster And Emergency Management Presidency
ORIGINAL_DATA_MEDIATOR: AFAD PROCESS SERVICE
ORIGINAL_DATA_CREATOR_CITATION: AFAD PROCESS SERVICE
ORIGINAL_DATA_CREATOR: network: TK
USER1: GuestUser
USER2: 
USER3: 
USER4: 
USER5: 
[...]
1.403062
1.730042
1.713538
1.574961
1.489948
1.519221
1.743124
2.015918
2.504829
3.661399
5.245844
6.750569
8.126682
9.307854
9.717356
9.229691
8.434044
7.825553
7.526914
7.588884
7.782892
7.375882
6.072329
4.360830
2.739640
1.515495
0.675005
0.069006
-0.175449
0.353322
1.563455
3.020845
4.002716
4.362393
4.469206
4.366754
4.124790
3.648959
3.129531
2.897532
3.282122
4.112025
5.078325
5.948089
6.417693
6.151439
5.137184
3.737093
2.211505
0.681869
-0.757147
-1.724691
-2.251905
-2.354669
-1.695417
-0.718530
0.118847
0.953733
1.638832
1.839379
1.200370
-0.034985
-1.102492
-1.893468
-2.639290
-3.091142
-3.411892
-3.832604
-3.836652
-3.115741
-2.019896
-1.149509
-0.884812
-1.003769
-1.097814
-1.216771
-1.379948
-1.182826
-0.833737
-0.746854
-0.419563
0.147511
0.697147
1.041877
1.260797
1.350795
1.120042
0.566670
-0.602667
-1.794425
-2.567962
-2.735188
-2.550522
-2.622768
-2.468309
-1.944209
-1.389279
-0.986316
-0.927771
-1.450313
-2.444950
-3.496264
-4.225581
-4.498062
-4.606743
-4.381595
-3.473528
-1.703172
0.628964
3.016530
5.220055
6.925326
8.377112
9.488216
10.108853
10.354555
10.119131
9.677243
9.523408
9.534308
9.097715
8.326046
7.533824
6.650983
5.540502
4.362446
3.307395
2.436387
1.963048
2.083252
2.419262
3.032425
4.138547
5.106716
5.750085
6.242422
6.689916
6.956482
6.846556
6.386918
5.746040
5.032605
4.150386
2.964233
1.382903
-0.297454
-1.743010
-3.148083
-4.514853
-5.685124
-6.542430
-6.893075
-6.659207
-6.447137
-6.684430
-7.077426
-7.336206
-7.572253
-7.602147
-7.172715
-6.898364
-6.821445
-6.859436
-6.780961
-6.541488
-5.889087
-4.668989
-3.504945
-2.729538
-2.211043
-1.829256
-1.550546
-1.390481
-1.530614
-1.655800
-1.541201
-1.199274
-0.845203
-0.715034
-0.901255
-1.062875
-1.032668
-1.072216
-1.313557
-1.744857
-2.093633
-2.115743
-1.875646
-1.540571
-1.281167
-1.233833
-1.906785
-3.180132
-4.457839
-5.554618
-6.282067
-6.952839
-7.331823
-7.088612
-6.340298
-5.572053
-5.229193
-4.996570
-4.692324
-4.343546
-3.975150
-3.678066
-3.148671
-2.355826
-1.391083
0.062571
1.534286
2.621101
3.497404
4.034895
4.450626
4.631243
4.203057
3.133682
1.697157
-0.057004
-2.193263
-4.175375
-5.672937
-6.540519
-7.269525
-8.014724
-8.578061
-8.917806
-8.994101
-8.675841
-8.077626
-7.321215
-6.322528
-5.633070
-5.092154
-4.387125
-3.702649
-3.104434
-2.850013
-2.747559
-2.472896
-2.368885
-2.315323
-2.234356
-2.214114
-2.182661
-2.450160
-3.024708
-3.712919
-4.620673
-5.635863
-6.307570
-6.506247
-6.512164
-6.490987
-6.520571
-6.845057
-7.622020
-8.403654
-8.578353
-8.115600
-7.354518
-6.738864
-6.187359
-5.280850
-3.984146
-2.504022
-1.031684
0.446571
1.768499
2.859051
3.700788
4.225199
4.581139
4.422945
3.700790
2.449553
0.807498
-0.834868
-2.646951
-4.561799
-6.002373
-6.590933
-6.397548
-5.828294
-5.217933
-4.668609
-3.803516
-2.385052
-1.079628
-0.256576
0.144518
0.296797
0.108396
-0.331623
-0.762611
-1.067479
-1.233148
-1.347123
-1.535213
-1.658530
-1.192040
-0.439677
-0.049794
-0.139790
-0.421302
-0.789386
-1.203247
-1.410956
-1.566971
-1.929760
-2.231203
-2.331787
-2.556312
-3.149232
-3.734990
-4.050758
-4.256909
-4.735232
-5.560151
-5.885261
-5.424688
-4.893425
-4.664539
-4.278393
-3.439147
-2.333959
-1.379493
-0.898989
-1.011096
-1.553257
-2.139637
-2.933416
-4.010576
-4.963173
-5.765360
-6.405926
-6.583428
-6.191365
-5.487893
-4.970955
-4.676985
-4.228557
-3.620688
-3.006902
-2.870816
-3.115271
-3.247618
-3.490516
-3.540030
-3.471519
-3.599196
-3.888493
-4.547433
-5.436502
-5.937869
-5.947522
-5.678153
-5.135991
-4.389545
-3.331380
-2.221209
-1.444868
-0.829837
-0.106435
0.391819
0.592677
0.660254
0.921526
1.711569
2.581332
3.313142
3.700223
3.651332
3.769668
3.532687
2.484799
1.154464
-0.287978
-1.405310
-1.849688
-1.659729
-0.893664
0.588016
2.730193
4.902265
6.558646
7.541762
7.808328
7.784350
7.692485
7.440556
6.864452
5.953272
5.280009
5.033997
5.144547
5.543773
5.881340
6.267798
6.740828
7.044451
7.144725
7.045386
6.948539
6.745502
6.307974
5.595472
4.993521
4.831589
5.208705
5.798824
6.361228
7.297321
8.706755
10.195286
11.193350
11.700635
11.852914
11.638043
10.859834
9.564688
8.229371
7.383276
7.195186
7.332517
7.511578
8.041906
8.936894
9.913159
10.562445
10.696663
10.691992
10.487398
9.971395
9.037483
7.778149
6.549021
5.360377
4.013538
2.473002
0.951463
-0.088951
-0.729206
-1.335206
-1.845914
-2.061097
-1.666231
-0.839130
0.106617
1.084750
1.800678
2.288655
2.745492
2.950710
2.830819
2.607540
2.331633
1.882583
1.266618
0.433290
-0.527403
-1.568751
-2.957942
-4.529930
-6.079808
-7.450314
-8.499136
-9.181120
-9.642626
-10.123439
-10.288796
-9.978322
-9.432112
-8.748882
-7.919290
-6.929011
-6.001015
-5.471620
-5.390342
-5.494040
-5.560993
-5.772750
-6.336398
-7.113360
-7.778839
-8.306364
-8.673825
-8.760084
-8.371446
-7.313592
-5.914124
-4.699009
-3.785025
-2.934569
-2.127087
-1.290644
-0.527383
0.101040
0.736624
1.451306
2.148550
2.789117
3.433421
4.138449
5.072674
5.969219
6.437266
6.457508
6.234852
5.975449
5.911923
5.961126
5.939016
6.126173
6.603874
7.054482
7.564880
8.058463
8.192680
7.874422
7.121126
6.052997
4.780895
3.352467
1.871722
0.644774
-0.195716
-0.713898
-0.793307
-0.506811
-0.143397
0.461047
1.343890
2.187183
2.749587
2.827440
2.393960
1.581185
0.526135
-0.636662
-1.713511
-2.632787
-3.462378
-4.224081
-4.812642
-4.992947
-4.828523
-4.555417
-4.255219
-3.987408
-4.001421
-4.193247
-4.400022
-4.560708
-4.506834
-4.320300
-3.897718
-3.365833
-2.825539
-2.130787
-1.363788
-0.834705
-0.683983
-0.845292
-0.986359
-1.010648
-1.253858
-1.713807
-2.210814
-2.849822
-3.602495
-4.104796
-4.220951
-3.670381
-2.520973
-1.107179
0.224403
1.161430
1.704527
1.818814
1.640378
1.223403
0.385404
-0.752481
-1.976003
-3.394778
-4.763727
-5.628818
-5.797912
-5.567158
-5.382181
-5.397751
-5.519823
-5.504252
-5.520444
-5.459719
-5.168552
-4.621407
-3.610887
-2.607530
-2.241313
-2.447776
-2.773509
-2.921427
-2.885926
-2.787832
-2.814301
-2.957859
-3.096435
-3.186743
-3.296981
-3.478220
-3.478531
-3.214145
-2.884674
-2.870972
-2.907095
-2.757307
-2.195215
-1.196217
-0.267597
0.842885
2.128690
3.415740
4.444944
5.118832
5.631099
6.161739
6.722586
7.210874
7.878845
8.828329
9.657610
10.068980
10.097630
9.770652
9.083998
8.044207
6.925318
5.928813
5.341809
5.152473
5.113859
5.172716
5.310982
5.567894
5.651041
5.562601
5.682183
6.185730
6.910689
7.674574
8.518490
9.353687
9.957508
9.932596
9.273034
8.510396
7.734991
6.673090
5.517143
4.673228
4.338465
4.323518
4.369607
4.682884
5.118856
5.344939
5.317224
5.228784
5.113564
4.941044
5.016717
5.301345
5.809563
6.702371
7.920600
9.197686
10.235609
10.819189
10.862164
10.392872
9.304190
7.404912
4.605043
1.316573
-1.826157
-4.610145
-6.865051
-8.101029
-8.295658
-8.007605
-7.580976
-7.002379
-6.209533
-5.051717
-3.818852
-2.727366
-1.539655
-0.324851
0.783763
1.637644
2.207522
2.582458
2.802935
2.822243
2.917846
3.355998
4.056355
4.588552
4.545578
4.175315
3.772665
3.547829
3.535996
3.605440
3.474027
3.488975
4.147603
5.022661
5.677553
6.132832
6.503408
6.754715
7.027821
7.493999
8.060763
8.477116
8.563688
8.652440
8.877900
8.559330
7.808214
6.967413
6.022912
4.892813
3.294356
1.629257
0.405735
-0.546551
-1.534025
-2.160266
-2.021066
-1.485444
-0.789446
0.089660
0.935445
1.625214
2.037519
1.798358
0.764484
-0.418555
-1.373643
-2.123202
-2.839129
-3.311223
-3.469729
-3.649099
-4.091921
-4.825910
-5.638996
-6.687195
-7.946529
-9.286517
-10.610624
-12.066456
-13.152959
-13.825600
-14.518482
-15.097078
-15.536163
-15.614949
-14.963794
-13.668024
-12.018806
-10.230077
-8.584596
-7.087034
-5.807457
-4.985650
-4.664900
-4.757699
-5.206437
-5.878455
-6.769393
-7.791123
-8.546287
-8.910634
-9.333526
-9.978140
-10.729878
-10.944127
-10.202663
-9.095607
-8.089758
-7.067093
-5.805267
-4.401439
-3.126222
-2.410917
-2.267357
-2.073349
-1.639557
-1.676925
-2.419633
-3.526688
-4.546861
-5.413821
-6.451743
-7.073936
-6.705228
-5.517829
-4.146387
-2.910719
-1.647335
-0.543393
0.069459
0.123956
-0.020226
-0.334747
-0.791894
-1.311945
-1.723314
-1.849745
-1.484775
-0.605357
0.195585
0.570832
0.597302
0.634983
0.448451
-0.132325
-1.027311
-2.065546
-2.997278
-3.853027
-4.772926
-5.861297
-6.895483
-7.582760
-7.964234
-8.202461
-8.302111
-8.368129
-8.392730
-8.421378
-8.562446
-8.726869
-8.762991
-8.601993
-8.474315
-8.565868
-8.698839
-8.740567
-8.135812
-6.773090
-5.425003
-4.425694
-3.582712
-2.682119
-1.805816
-0.633052
0.818110
2.147201
3.517709
4.533522
5.197756
5.980949
6.721478
7.673453
8.896665
9.748678
10.389245
11.234718
11.926356
12.153996
11.689065
10.724323
9.635018
8.691452
7.782452
6.646747
5.495783
4.393710
3.618928
3.332433
3.029433
2.408486
1.744876
0.971027
-0.021741
-0.884030
-1.178621
-0.898042
-0.549887
-0.379546
-0.215745
0.118085
0.261022
0.128674
0.078226
0.182237
0.368149
0.546275
0.924325
1.583576
2.440883
3.569115
4.717589
5.469952
5.662714
5.471199
5.164774
5.020592
5.266917
5.681090
6.203322
6.897451
7.358024
7.355222
7.106096
6.957555
6.975929
6.456812
5.356608
4.222149
3.100769
1.904028
0.626632
-0.460182
-1.037843
-1.215968
-1.281986
-1.224063
-1.259563
-1.372915
-1.500904
-1.609584
-2.067977
-2.781723
-3.575502
-4.495401
-5.062163
-5.266447
-5.272051
-5.366719
-5.456092
-5.363292
-5.086761
-4.588508
-3.837391
-2.963579
-1.871781
-0.780607
-0.084298
0.505821
1.143274
1.408283
1.604782
1.932384
2.349360
2.872215
3.114180
3.146878
2.923599
2.931385
3.608387
4.522682
5.493653
6.771984
7.988344
8.807037
8.778388
8.234670
7.699671
7.226331
6.945753
6.670469
6.688531
6.916171
7.292664
7.970912
8.752235
9.381592
10.029321
10.358169
10.166965
10.021849
10.330455
10.621311
10.266929
9.399969
8.339937
7.202363
5.503633
3.447405
2.024271
1.374674
0.773034
-0.045657
-0.934727
-1.482182
-1.515813
-1.430176
-1.266063
-1.271356
-1.402458
-1.441073
-1.549753
-1.951469
-2.610408
-2.771717
-2.117137
-1.138069
-0.431795
-0.075855
0.420219
1.081650
1.048019
0.315276
-0.515560
-1.198166
-1.660918
-2.265672
-3.117996
-4.143462
-5.117857
-5.907899
-6.611370
-6.990353
-6.929628
-6.626315
-6.311793
-5.889834
-5.258921
-4.671916
-4.257431
-4.329366
-4.815473
-5.376319
-5.779592
-5.802012
-5.610807
-5.621083
-5.706097
-5.489356
-5.097916
-4.853148
-5.130301
-5.770867
-6.547830
-7.233550
-7.791281
-8.094904
-7.789412
-7.133897
-6.246383
-5.056492
-4.158391
-3.675707
-3.445576
-3.603148
-3.478584
-3.050086
-2.379313
-1.462526
-0.809814
0.028185
1.385303
2.683564
3.326622
3.446826
3.614676
3.813666
3.844185
3.433126
2.581426
1.810380
1.201578
0.749102
0.616443
0.705506
0.795504
0.971450
0.992315
0.804536
0.420259
-0.244908
-0.924711
-1.381547
-1.827482
-2.705964
-3.197988
-2.881909
-2.033321
-1.029963
-0.436108
0.116020
0.972704
1.647837
1.771467
1.671506
1.495561
1.345151
1.298129
1.116890
0.817627
0.368577
-0.525475
-1.728755
-2.840482
-3.994248
-5.158914
-5.988505
-6.230157
-5.761176
-5.148324
-4.932829
-4.858402
-4.740689
-4.760618
-4.702384
-4.576575
-4.623597
-4.610517
-4.493116
-4.203194
-3.823276
-3.481349
-3.072781
-2.719955
-2.490447
-2.497297
-2.462730
-2.248792
-2.110838
-2.118623
-2.124539
-2.267475
-2.878457
-3.568848
-3.635800
-2.978106
-2.245985
-1.739634
-1.416081
-1.178164
-1.279994
-1.597319
-1.568357
-1.222693
-0.859280
-0.545691
-0.268537
-0.306840
-0.373481
-0.221202
0.279855
0.822640
0.593132
-0.352613
-1.794121
-3.704921
-5.898790
-7.632399
-8.340540
-8.380400
-7.818931
-6.565512
-4.716682
-2.802767
-1.150123
0.542380
1.874274
2.684558
3.308620
3.308621
2.698573
2.592384
3.215200
3.871026
4.315095
4.241603
3.687609
2.959226
1.845942
0.605916
0.096453
0.442739
0.678164
0.535540
0.049432
-1.098418
-2.582588
-3.926314
-4.999425
-5.823722
-6.192740
-6.030807
-5.635319
-5.159175
-5.013124
-5.286851
-5.565872
-5.985650
-7.022015
-8.838147
-10.820571
-11.879358
-11.546462
-10.375567
-8.836899
-7.560125
-7.010800
-7.184254
-8.024121
-9.033083
-9.583652
-9.802883
-10.204910
-10.582959
-10.840181
-10.516005
-8.781772
-6.516278
-4.869240
-4.042139
-4.268844
-5.006258
-4.946155
-4.390602
-4.124971
-3.258633
-1.785983
-0.612908
-0.248560
-0.664601
-1.665466
-3.124412
-4.526994
-5.140156
-4.906599
-4.265410
-3.191985
-1.879711
-0.369381
1.459831
3.118080
4.016182
4.210501
4.000924
3.839303
4.091856
4.720590
5.637064
7.164522
8.606031
9.112069
9.285524
9.424101
9.188989
8.512922
7.906923
7.397771
7.146465
7.395281
7.479362
7.395593
7.497736
7.899764
8.556525
8.454072
7.739391
7.251415
6.709565
5.946616
5.263076
4.645554
3.646246
3.103774
3.827175
4.899977
5.299514
4.863232
3.990978
3.237682
2.913196
2.749396
3.170109
4.441277
5.276163
5.132293
4.952922
4.893755
4.637779
4.444083
3.723174
3.322704
4.344123
5.557370
6.800511
8.823731
11.186073
12.749654
12.665886
11.382885
9.809963
7.992274
6.206038
4.898747
4.155728
4.667995
6.753807
8.577102
9.480186
10.762566
12.405867
13.982838
15.350855
16.066471
16.469434
16.919419
16.943709
16.665934
16.236191
16.473796
17.375012
17.153913
15.675659
14.101492
12.638808
11.157752
10.505352
10.832020
11.204153
11.181110
10.674449
9.940772
9.783823
10.151908
10.216681
9.681683
8.577742
6.941915
5.025510
2.745069
0.200554
-2.024457
-3.373165
-3.811315
-3.619799
-3.192546
-2.824150
-1.931342
-0.658305
1.138832
2.731062
2.347719
0.194956
-1.710550
-2.130951
-1.753523
-1.334679
-1.108907
-0.646154
-0.382391
-0.729299
-1.008943
-0.866629
-0.464912
0.147317
1.146315
2.297591
3.929370
6.445237
8.164522
7.828202
6.406936
4.487728
1.845119
-0.744239
-2.266713
-3.117790
-3.301832
-2.674655
-1.688737
-1.068411
-1.672854
-3.285636
-4.936721
-5.635832
-4.899974
-3.873572
-3.863295
-4.380232
-5.751050
-8.462169
-11.289131
-13.375876
-15.438955
-16.749048
-15.715795
-13.971909
-12.327362
-10.172106
-7.745302
-5.810211
-5.315383
-5.369568
-5.370190
-5.521845
-5.874047
-6.607413
-6.902316
-6.095457
-5.244689
-6.154934
-9.001827
-11.964563
-13.767616
-14.389809
-14.437765
-14.566687
-14.496931
-13.217355
-10.233130
-7.567164
-6.564741
-6.949018
-7.512355
-7.021575
-6.775874
-7.132435
-6.877703
-6.371975
-6.581241
-7.834658
-9.865662
-10.321251
-8.948252
-7.911574
-8.652725
-10.297582
-11.091049
-11.618262
-12.125857
-12.752721
-12.985965
-10.781195
-7.756487
-7.582410
-8.307990
-7.756486
-6.255187
-4.548669
-4.321341
-5.675343
-8.213319
-10.121004
-10.635450
-11.283801
-10.892983
-9.534309
-10.232174
-12.734338
-14.125709
-13.286152
-11.456628
-9.637070
-7.208086
-3.585475
-1.228738
-1.905116
-3.076944
-2.505821
-0.273024
2.012090
2.641446
1.979393
1.267203
0.853965
0.966073
1.998391
3.676881
5.247313
5.570867
3.749753
1.526299
-0.662277
-3.144199
-3.699127
-1.897631
-0.048489
0.700137
1.738995
3.426205
5.520114
8.281681
10.099994
9.166393
6.043904
3.170231
1.893769
-0.017653
-1.396879
-0.054398
1.914947
3.854086
4.753122
4.020379
3.528667
4.039065
5.062041
5.763956
5.739667
5.479330
4.994468
5.043048
5.067962
4.166436
3.356464
2.665761
0.963916
-1.368219
-2.642812
-4.243449
-5.876161
-5.340227
-3.457453
-2.048642
-1.499940
-1.590871
-2.188151
-1.962380
-0.931618
0.592102
1.928667
2.446227
2.411039
0.789537
-2.148598
-5.117562
-7.268769
-7.964454
-7.178771
-5.274821
-3.012440
-1.254852
-0.182362
0.139323
1.445058
5.354787
8.445514
8.221923
6.897193
5.733462
5.026877
5.112827
4.826643
5.039958
6.223933
6.703502
6.494547
5.961106
5.674611
6.300853
7.293312
7.160341
5.803536
4.899830
5.320855
6.530364
6.528185
6.312691
7.317917
8.232835
9.503692
10.521686
10.489611
9.854339
8.405047
5.726003
3.375184
3.108930
2.953850
1.627563
-0.071791
-1.067362
-1.623536
-2.939235
-4.436173
-4.994216
-3.983073
-1.751522
-0.284166
-0.425234
-0.187317
0.835348
0.057451
-2.485508
-4.821068
-6.897537
-8.134138
-8.950338
-9.234030
-8.297314
-7.050124
-5.955524
-5.167972
-4.290112
-4.210391
-4.876492
-5.567195
-5.943687
-4.805178
-3.423771
-3.212636
-4.038178
-4.351143
-2.716561
-1.692339
-1.953298
-1.869218
-1.400236
-1.557186
-2.729014
-2.787247
-1.327987
-0.575625
-0.773680
-1.005678
-0.881115
0.283552
1.927165
3.308572
4.416563
6.359127
8.417847
8.563898
7.292108
5.393453
4.356153
3.813058
2.648703
3.018657
3.845135
3.171559
2.830568
3.160973
2.763616
1.931535
1.839047
2.200281
3.455879
4.613072
4.133193
4.395710
6.816909
9.464502
10.436407
9.798332
8.633044
8.156278
8.889645
9.723285
9.523985
8.262782
7.545610
7.117113
4.806777
1.724460
-0.165164
-0.827217
-1.128660
-2.116135
-3.735145
-3.850365
-2.063193
-0.360413
0.337453
0.146872
-0.593656
-0.805413
-0.569365
-1.213045
-1.917761
-2.574209
-3.663514
-4.250206
-4.870842
-6.144501
-7.079347
-7.089623
-6.926134
-7.276467
-7.689082
-7.907690
-8.193562
-8.607423
-8.311273
-7.112663
-5.700427
-4.763710
-4.397182
-4.321198
-4.273552
-3.760974
-3.656029
-3.404410
-3.169920
-4.095113
-5.105009
-5.281888
-4.397800
-2.691594
-1.684811
-2.118913
-2.581354
-2.456478
-2.348108
-1.793178
-1.014657
-1.652420
-3.141573
-5.321741
-6.932966
-7.260567
-7.103617
-6.282121
-5.952963
-6.394850
-7.576332
-8.313746
-7.598752
-6.362773
-5.819054
-5.984099
-6.510378
-6.390486
-5.339794
-4.264813
-3.055303
-2.589747
-2.954094
-3.541098
-3.894234
-4.162979
-4.385012
-4.191004
-3.435839
-2.614033
-2.756346
-2.646106
-1.368087
0.179923
1.329020
1.853743
1.815752
1.135326
1.040036
1.720151
2.324907
3.949212
5.374216
5.362695
4.618430
4.060698
4.067861
4.161907
4.463662
5.223499
6.103850
6.641964
6.935622
6.917561
7.045550
7.730649
8.052645
7.649061
7.284714
6.641346
6.015416
5.573528
5.065622
4.854177
4.472391
3.999051
3.557163
3.103131
2.999433
3.738093
4.795013
4.947604
4.772593
4.431290
3.423574
2.481565
2.254860
2.589002
2.821313
2.964250
2.880482
3.143622
3.767062
3.799760
4.037677
4.712810
4.961003
5.314452
5.690322
5.179302
4.780700
4.246635
2.502750
0.112071
-1.930766
-2.915126
-3.152730
-3.040000
-2.355524
-1.057886
1.213837
3.999383
5.961566
7.003850
7.579333
8.329827
9.018973
8.604490
7.894480
7.869879
8.129906
8.252290
7.718537
7.234609
7.458823
7.726324
8.291530
8.843346
9.179356
9.698162
9.712176
8.831514
7.338624
6.099532
4.802206
3.051782
1.777500
0.432841
-0.580169
-0.488926
-0.412942
-0.772306
-1.555186
-1.734868
-1.736736
-3.280697
-4.736840
-4.588921
-3.867388
-3.715420
-3.841851
-3.790157
-3.463489
-2.394113
-1.624934
-2.066511
-2.787108
-3.510509
-4.407052
-5.526875
-6.273320
-6.680641
-7.219065
-7.379129
-7.543240
-7.675277
-7.722610
-7.989486
-8.377500
-8.502374
-8.390890
-8.661191
-8.931182
-9.043599
-8.535381
-7.522058
-6.671602
-5.487939
-4.120857
-2.807025
-2.044698
-1.907989
