EVENT_NAME: 202302060117
EVENT_ID: 13194
EVENT_DATE_YYYYMMDD: 2023/02/06
EVENT_TIME_HHMMSS: 01:17:32.00000
EVENT_LATITUDE_DEGREE: 37.288
EVENT_LONGITUDE_DEGREE: 37.043
EVENT_DEPTH_KM: 8.6
HYPOCENTER_REFERENCE: AFAD
MAGNITUDE_W: 7.7
MAGNITUDE_W_REFERENCE: AFAD
MAGNITUDE_L: 
MAGNITUDE_L_REFERENCE: 
FOCAL_MECHANISM: 
NETWORK: TK
STATION_CODE: 3137
STATION_NAME: 
STATION_LATITUDE_DEGREE: 36.69293
STATION_LONGITUDE_DEGREE: 36.48852
STATION_ELEVATION_M: 260.0
LOCATION: Kahramanmaras_Pazarck_Turkiye
SENSOR_DEPTH_M: 
VS30_M/S: 688
SITE_CLASSIFICATION_EC8: B
MORPHOLOGIC_CLASSIFICATION: 
EPICENTRAL_DISTANCE_KM: 82.48
EARTHQUAKE_BACKAZIMUTH_DEGREE: 
DATE_TIME_FIRST_SAMPLE_YYYYMMDD_HHMMSS: 2023/02/06 01:17:23.7886580
DATE_TIME_FIRST_SAMPLE_PRECISION: millisecond
SAMPLING_INTERVAL_S: 0.01
NDATA: 11251
DURATION_S: 
STREAM: HNE
UNITS: cm/s^2
INSTRUMENT: sensor = GMS+/GEOSIG | digitizer = 
INSTRUMENT_ANALOG/DIGITAL: 
INSTRUMENTAL_FREQUENCY_HZ: 
INSTRUMENTAL_DAMPING: 
FULL_SCALE_G: 
N_BIT_DIGITAL_CONVERTER: 
PGA_CM/S^2: 848.012
TIME_PGA_S: 
BASELINE_CORRECTION: BASELINE REMOVED
FILTER_TYPE: BUTTERWORTH
FILTER_ORDER: 
LOW_CUT_FREQUENCY_HZ: 
HIGH_CUT_FREQUENCY_HZ: 
LATE/NORMAL_TRIGGERED: 
DATABASE_VERSION: 
HEADER_FORMAT: DYNA 1.2
DATA_TYPE: Acceleration
PROCESSING: Automatic Paolucci et al., 2011
DATA_TIMESTAMP_YYYYMMDD_HHMMSS: 
DATA_LICENSE: U (unknown license)
DATA_CITATION: Turkish Accelerometric Archive v 1.0 - Disaster And Emergency Management Presidency, Earthquake Department
DATA_CREATOR: AFAD
ORIGINAL_DATA_MEDIATOR_CITATION: : AFAD - Disaster And Emergency Management Presidency
ORIGINAL_DATA_MEDIATOR: AFAD PROCESS SERVICE
ORIGINAL_DATA_CREATOR_CITATION: AFAD PROCESS SERVICE
ORIGINAL_DATA_CREATOR: network: TK
USER1: GuestUser
USER2: 
USER3: 
USER4: 
USER5: 
[...]
-3.667011
-5.287670
-4.702120
-2.624723
-1.265584
0.894939
5.059052
6.593014
3.017342
0.329556
1.030962
1.745357
0.938031
-1.076955
-1.307856
1.639244
3.741839
3.244156
3.492787
5.164167
5.780889
6.260973
6.877176
7.971611
11.876995
16.376988
18.913395
19.250607
17.370699
14.643948
12.148131
11.048307
11.799329
11.444259
8.606587
5.126769
0.084187
-8.250434
-17.735826
-26.151495
-33.085966
-37.270015
-39.207851
-39.861394
-38.728253
-35.235641
-28.065234
-19.351805
-10.223268
-0.129692
8.397223
15.793888
21.050844
21.472481
18.260743
13.484423
8.234287
0.694816
-7.415106
-11.218335
-12.308288
-14.410817
-17.736333
-19.755736
-18.512713
-13.572674
-6.958949
-1.866686
5.049928
15.452887
23.742374
28.408878
30.625251
30.906613
30.994188
29.097395
22.707657
15.352881
10.948289
7.930858
3.626796
-2.177166
-7.856439
-11.699412
-14.800229
-16.850804
-15.389057
-12.020613
-7.233057
-0.693627
4.364348
7.617454
10.830557
14.642424
18.065939
19.465082
18.678278
15.565772
12.579253
13.101159
15.206612
15.233401
14.268396
12.885684
10.232707
8.823499
9.241759
9.453503
6.841829
1.879256
-1.438987
-2.356194
-2.979085
-5.571016
-9.502571
-11.475995
-8.254060
0.056728
7.126865
8.253251
6.997826
6.969285
7.943707
9.494555
8.270821
3.055753
-4.173815
-12.109952
-17.058757
-18.716304
-18.436241
-17.239717
-18.437993
-18.050386
-10.730353
-0.135945
7.908581
10.825029
11.461753
13.506679
15.571088
13.868082
7.989307
1.221606
-5.954709
-13.160119
-19.009280
-25.025212
-30.830733
-33.474618
-31.805836
-28.192171
-24.356924
-19.649117
-13.544278
-3.994137
6.849908
13.571436
17.198608
19.543826
20.256402
19.335039
16.417358
12.133299
5.451321
-0.933481
-4.009360
-9.969183
-18.901270
-25.786126
-31.487479
-34.909369
-33.653098
-28.288338
-20.368241
-9.157663
4.171322
14.855349
22.002377
24.622170
22.166876
19.492599
17.805179
16.326873
17.712768
19.648072
18.841526
16.598203
12.785362
7.251819
1.689961
-1.305130
-1.816840
-0.864498
1.846993
2.275383
2.214371
5.538134
7.626701
6.339325
2.309578
-1.339089
-2.261492
-2.742290
-4.119806
-7.475975
-10.166098
-9.383644
-6.651112
-3.122392
-3.355631
-8.029342
-11.900630
-14.112521
-11.950959
-6.635815
-5.035092
-5.912035
-5.202576
-3.520806
-3.717936
-7.319326
-11.871206
-12.175361
-8.096193
-3.549182
-1.132528
-0.290327
1.818242
3.389611
2.878421
-1.312642
-9.951711
-16.177276
-15.871236
-10.313209
-2.215430
2.729545
2.371098
4.312897
9.401523
10.797290
10.106859
10.053640
11.987645
14.085044
14.234964
14.322798
12.846050
8.509778
2.098478
-3.814846
-8.952762
-12.477520
-10.499095
-6.481751
-2.773790
1.918431
5.353375
6.248568
5.875834
6.351502
9.570320
16.527457
22.749711
21.886535
15.034670
8.577652
4.608171
-0.562476
-5.966136
-7.598744
-5.449132
-2.244602
-3.207788
-9.720137
-16.478486
-20.038572
-20.673932
-19.242577
-15.359014
-8.856470
-2.997372
1.252724
4.999910
7.972467
11.331299
14.010319
13.401975
10.495725
8.748559
9.401648
12.336539
15.978779
14.713222
6.584597
-3.753873
-9.027649
-8.708101
-8.858733
-7.750011
-3.107925
0.758494
2.542093
2.650969
1.416585
4.374855
10.127968
12.412660
14.903867
16.385617
16.739713
18.742038
17.409981
14.492820
12.035448
9.168423
6.937049
5.265995
5.113545
5.341654
5.102441
4.741656
0.676581
-4.820335
-5.775988
-7.910728
-11.718114
-11.037748
-6.489958
1.541319
8.083348
9.850842
9.013643
3.414898
-4.582544
-8.239524
-9.324801
-11.411224
-12.079834
-12.577257
-14.585489
-14.482069
-14.355009
-17.939254
-21.300358
-20.757930
-14.507101
-4.987093
-0.491257
-1.956315
-3.389162
-1.917543
-1.131193
-3.940550
-6.434029
-5.553123
-1.430314
2.084899
2.448088
3.986986
6.664187
8.056316
8.294556
5.511436
2.284112
3.157485
6.339415
6.074225
3.670626
4.437234
5.272421
3.931012
-0.491763
-7.404155
-9.965953
-5.165149
2.619089
5.303564
2.402249
1.309698
6.365075
12.944250
13.112353
9.607337
8.795855
11.024438
12.808816
11.505074
9.468267
8.967727
7.808935
5.682768
5.861781
8.356625
11.964315
14.231343
13.572085
11.482285
6.705965
1.968870
0.683572
0.312137
-0.172038
-0.933904
-2.819527
-4.018063
-2.935577
-3.412737
-4.778045
-5.096227
-7.428910
-6.108996
-1.005823
0.636463
-0.921592
-5.340211
-7.043217
-1.362059
6.107601
10.679289
11.291595
14.814341
23.491922
24.516999
19.107884
16.413604
14.710079
12.225432
6.812941
0.759862
-4.045812
-6.868417
-7.600150
-12.708973
-15.118028
-10.463993
-7.909662
-8.189918
-11.434127
-14.801985
-14.000308
-13.126676
-12.395136
-8.150755
-1.973960
1.243039
-0.046157
0.097268
1.825278
-0.276472
-1.573200
-1.254172
0.919599
4.097633
0.538066
-1.114545
1.362116
-1.368791
-5.550243
-8.528709
-6.416762
2.229906
8.936367
9.728692
6.097170
2.477337
-1.141197
-3.708711
-1.844843
3.266904
11.374293
15.051861
13.930476
15.726284
15.203924
7.363642
-3.263691
-10.928630
-14.854469
-15.467749
-15.133134
-15.544314
-12.228084
-5.623191
0.052511
2.354347
4.569422
10.562560
11.601145
7.652706
7.695341
9.735072
12.277453
12.536215
9.829986
9.759622
10.702613
12.221509
10.005202
-0.154549
-8.125494
-11.564789
-12.724360
-11.371195
-14.379015
-18.970640
-18.818643
-18.646643
-17.306987
-14.980732
-15.950153
-15.823354
-11.023069
-4.176852
-3.949782
-9.126924
-12.336064
-12.858684
-8.891735
-6.460534
-10.291818
-17.593602
-21.745180
-18.493372
-15.998268
-10.979259
-3.096828
-1.770160
1.629456
10.488614
17.046488
16.330081
11.787293
9.553322
7.513138
6.130166
0.593246
-8.178045
-10.505273
-13.829749
-21.309734
-25.910191
-29.683027
-33.270909
-28.898462
-17.348887
-8.115923
-1.292306
5.450523
10.970884
11.484478
9.070228
12.063307
15.957521
15.392299
13.278601
10.835516
5.665648
0.243545
-1.554276
-3.689015
-3.881730
-2.340494
-5.912010
-12.218103
-15.278916
-12.793423
-10.505095
-13.237041
-16.360457
-14.611926
-11.788216
-15.709120
-21.954947
-21.554871
-15.505103
-9.575867
-8.551829
-13.011492
-15.583421
-11.201623
-4.251759
0.045355
-0.477525
-1.530331
0.021556
2.369111
6.881313
10.275474
10.616322
8.119986
3.778777
4.806192
3.150465
-1.801199
0.119818
3.081206
8.369854
9.832900
4.336503
-0.054840
-5.707877
-5.593806
-2.738923
0.370532
5.210301
2.537062
-0.197742
0.861885
5.344473
10.726638
7.766096
5.093636
9.645063
14.897604
17.680271
14.908060
7.193765
1.978438
-0.928592
-1.690718
2.502229
6.501129
5.129328
0.596411
-4.697627
-10.977743
-13.236392
-9.488947
-2.100335
8.392764
18.637524
24.836659
28.404085
32.165297
31.270690
22.130009
13.437428
11.361656
10.271443
8.862494
5.927410
-1.710773
-5.380742
-2.144000
-3.839992
-11.392452
-10.625584
-1.539128
5.740901
10.723542
15.763852
21.097440
28.053019
34.668562
35.645582
35.740171
38.443868
40.965988
44.046868
47.412195
47.946571
47.532274
53.387216
58.297642
55.376065
49.081662
43.964007
47.276860
57.869190
62.942750
54.010144
42.132288
34.939607
26.705517
19.520889
10.129532
-5.608735
-20.939685
-33.792189
-43.010800
-46.970410
-51.125625
-52.425990
-48.508137
-50.348300
-52.134171
-44.771017
-34.417673
-24.376311
-20.225966
-20.264379
-19.979380
-22.706651
-25.180128
-27.437738
-29.274004
-25.228605
-20.475599
-21.983778
-26.480068
-31.670978
-40.162758
-51.425223
-58.915598
-58.775550
-59.696654
-64.729365
-71.691112
-78.645326
-75.227527
-68.613543
-66.628103
-60.313891
-48.176982
-30.399211
-15.213925
-9.905015
-6.935055
-4.210836
-0.465209
3.989065
3.223821
2.911613
6.234338
10.369357
18.384269
23.572647
19.923200
14.063648
9.210957
2.081399
-5.391571
-12.023154
-18.257291
-16.303803
-7.424123
4.059730
11.367814
14.276209
25.523673
32.600304
29.509618
25.821466
26.186993
33.981103
32.979471
25.773801
22.925219
18.001611
18.702498
17.173277
10.660928
19.281360
29.659121
26.709749
25.219234
23.671050
19.087998
26.591167
35.806727
30.185902
15.257852
1.963222
-3.431345
-8.398075
-9.348793
-13.181375
-31.543038
-31.657822
-12.544066
-2.699348
3.106238
9.109248
16.414215
26.699499
26.860848
10.053377
-3.229563
-3.660225
-4.202328
2.056034
15.283969
19.700576
2.314342
-29.041951
-42.948334
-39.686395
-22.731829
-1.541488
-6.057260
-29.082796
-34.342284
2.960163
30.708605
15.501305
9.342760
23.181409
47.781205
52.504338
21.160774
6.552498
-0.894756
-2.501647
16.312078
23.011785
44.949999
67.820000
55.985785
39.418859
38.756744
53.444575
46.523091
21.390578
8.483003
16.432973
52.093947
65.322921
47.429360
38.882769
26.740729
21.466175
23.824121
12.010688
23.010594
41.012804
34.552149
24.793221
0.006458
-11.326144
-4.609032
-17.174753
-18.667347
-7.535739
-5.784350
-5.146067
-3.789267
-7.647307
-1.720149
14.018703
23.787309
36.518048
33.489447
19.396291
24.805731
26.385932
28.156543
27.593659
-0.900251
0.656831
20.779267
13.971562
19.085126
23.590314
18.668265
11.057097
10.556558
18.721876
3.092452
-2.702677
-6.518635
-39.800328
-50.328170
-29.070808
-17.184054
-23.469366
-11.852252
11.753672
21.538383
64.235171
98.791351
78.301930
61.432114
34.547985
10.144381
10.118177
1.772127
25.674185
48.524704
28.401815
15.617369
2.841756
5.233992
9.095475
-9.303594
-18.460640
-38.684059
-37.511694
1.751222
10.415294
1.332802
16.408986
19.965501
16.115514
29.322408
27.174160
-15.968583
-55.212729
-42.769553
-41.380021
-25.447383
11.812722
2.069640
29.575459
65.598549
50.805059
46.088486
28.718617
-12.589905
-61.045682
-96.342395
-91.577439
-71.339666
-59.087419
-61.821184
-53.541308
-23.756025
-5.616138
-16.755213
-38.997549
-42.216560
-41.248892
-41.450698
-31.618969
-21.552150
-10.786295
-3.841626
-2.451055
-17.040888
-39.399599
-20.979163
8.945355
17.599816
37.955524
45.426222
41.836782
44.156543
4.795761
-45.507485
-64.415959
-62.671325
-53.072608
-57.369915
-43.595169
-12.468184
3.860081
20.462921
26.156028
16.127201
13.206403
25.063023
41.229194
30.884489
-0.035394
-3.417020
15.384755
7.375364
-32.472223
-41.662000
-29.447160
-39.386367
-29.148880
-7.309379
4.497366
11.971962
23.279952
55.993599
65.567638
49.041236
42.531745
35.629224
29.596407
15.117236
16.493000
47.258127
52.386499
67.702448
94.790301
91.558042
108.244787
102.961141
63.484242
58.830793
57.121033
53.192336
46.252409
34.693809
49.620107
45.294484
34.876525
46.178021
45.393295
52.544739
52.583477
46.337651
58.627564
71.887970
100.019310
105.003511
79.826317
69.342117
64.665288
68.844467
53.487800
31.791496
40.848078
47.295811
54.941334
60.826669
47.745828
27.934141
3.401691
-13.525013
-24.141955
-44.687747
-56.850048
-54.049457
-59.734705
-64.102150
-59.432269
-69.557729
-84.735417
-106.884236
-132.139620
-124.694118
-117.488903
-111.475242
-79.848464
-43.230246
-14.189718
-34.062451
-78.355186
-77.279195
-49.197730
-18.690552
14.561854
30.797901
35.099431
57.151164
73.968572
51.663113
17.462361
19.395587
39.791558
37.455238
28.954366
25.659762
29.712175
67.399858
95.914356
48.784695
-16.669256
-35.672545
-29.137011
-28.438722
-52.979484
-65.007225
-44.024958
-34.545993
-31.524080
-24.556032
-20.588564
-12.916805
-11.498439
-6.780241
-5.631514
-22.571207
-16.337524
15.254445
28.240537
14.137249
15.058679
21.962305
-4.229023
-3.283435
-1.250458
-36.424301
-48.638036
-52.064861
-47.530319
-56.171207
-95.411456
-114.092114
-125.466019
-135.266511
-145.822407
-181.136005
-225.830342
-255.036276
-240.123486
-210.404444
-233.670006
-289.930769
-316.969979
-315.310549
-317.701420
-318.904112
-307.871216
-303.523707
-293.442601
-258.654187
-231.144991
-213.763107
-183.522711
-166.811288
-177.090012
-166.266229
-112.883628
-59.645458
-38.214571
-68.871309
-123.451894
-126.898462
-95.209859
-67.069167
-51.745944
-71.123039
-94.785786
-108.301218
-135.616821
-146.609647
-139.015559
-152.723219
-171.529864
-160.170440
-134.053600
-120.033372
-103.039581
-59.397758
0.099520
22.851846
15.808792
26.750250
37.484672
37.269618
17.368310
-14.966529
-19.228508
-27.336351
-62.865037
-86.336335
-104.816971
-127.472078
-144.243441
-150.131308
-124.359699
-91.749700
-60.736234
-20.712199
-13.380736
-22.239308
16.826183
76.325280
91.600706
84.929379
78.226620
53.632606
28.004715
9.730594
3.169928
16.431114
32.534160
48.463162
51.826930
31.839640
35.182107
43.413146
5.972569
-8.206311
1.290058
-10.058910
14.997038
57.581347
61.768839
29.862617
6.585625
14.123864
18.309537
48.050400
83.509534
95.540978
118.000026
132.137149
125.273334
94.662575
70.182338
64.742312
50.243138
36.779140
54.641595
88.985805
96.696789
122.483724
147.634487
132.851907
131.315672
132.816125
149.125947
178.972015
152.613917
91.992169
75.651501
90.398819
96.177389
100.211358
79.372549
45.924344
65.570885
138.822355
192.989715
181.214988
130.320510
104.635990
112.313464
116.002980
128.259384
142.909548
174.189536
230.879762
234.989843
187.891094
164.494869
171.826072
193.835203
199.028776
152.642830
141.225543
178.047160
177.504538
159.893864
112.452741
38.364624
-9.453162
-63.519666
-155.376948
-264.362807
-336.775940
-366.425818
-380.578461
-353.027182
-310.035817
-296.390955
-298.105130
-327.189753
-334.397760
-233.769349
45.263776
335.559919
436.336918
698.010272
848.012253
537.284910
431.345609
467.142701
309.652196
157.747740
152.587484
247.816359
218.608347
175.111799
158.030793
50.103228
-46.111401
-94.282991
-113.018460
-142.301026
-187.142651
-226.722417
-274.655541
-302.154281
-288.475128
-248.821522
-195.360211
-144.181481
-106.205716
-84.649621
-79.589049
-69.113615
-63.252178
-80.450600
-60.460906
50.703173
214.424797
329.761009
335.445803
269.615969
219.188813
238.043581
270.034813
270.387352
251.343279
195.774537
164.835431
203.434120
235.786689
214.745001
174.098367
183.764625
203.979538
164.658240
117.401033
53.275276
-60.596818
-168.877667
-218.687094
-189.679816
-132.164307
-121.591200
-149.729488
-186.857046
-244.756425
-296.591003
-297.544578
-246.759397
-162.321800
-88.871348
-87.580008
-121.916619
-90.007993
4.742130
95.561445
104.301370
-12.723787
-159.119344
-184.232894
-120.251762
-110.634341
-123.994952
-132.002265
-172.667602
-169.641532
-88.224517
-13.095964
7.430151
17.594643
10.297276
-32.406460
-51.843302
-38.210908
-29.080552
-13.026601
52.567690
132.767173
158.167573
131.154340
104.557774
81.839543
17.634557
-66.393059
-109.537361
-105.814075
-127.359713
-151.344312
-81.956110
12.140697
49.080248
44.950491
25.328694
33.521807
81.884133
120.886761
133.189923
138.665604
145.800423
170.637906
194.954295
192.236636
160.043110
87.233312
10.898202
-35.777385
-79.693717
-129.983974
-149.821638
-110.305189
-49.673245
-0.585647
24.547193
8.341864
-11.814536
-23.538089
-64.740625
-131.227413
-163.156754
-143.894150
-122.499112
-100.498554
-86.019836
-99.817117
-107.912491
-90.918441
-52.035825
-4.265770
43.367128
103.624227
176.235889
231.485961
233.178642
196.097324
135.886269
43.676483
0.968851
41.972731
60.405636
37.017724
16.391404
-31.329749
-100.610081
-133.512253
-129.095905
-112.638795
-93.960929
-94.432894
-113.693873
-106.988191
-58.022944
-3.556331
44.720791
100.055548
134.175059
130.707450
139.904826
178.461433
197.589996
168.275479
93.777189
-8.246371
-86.144763
-86.678553
-45.167606
-25.227268
-5.632161
29.798658
31.005833
18.888731
54.851295
92.290121
87.441326
68.962248
62.140515
78.093416
112.089537
141.811177
159.068112
166.785331
145.501019
124.227099
137.436590
150.926371
161.087227
179.674434
175.583122
135.841261
84.663116
38.186771
23.049868
28.918058
12.933272
-2.424694
-4.573202
2.956984
24.013545
32.450321
24.211035
7.286408
-28.670895
-76.760658
-113.770541
-137.741372
-144.688053
-128.869192
-97.075124
-62.931455
-49.792101
-29.686810
6.692422
47.487968
133.913309
240.724717
291.924488
247.911522
168.097341
126.856879
77.841042
2.194578
-56.020939
-74.322336
-88.842550
-129.837273
-126.401549
-64.943802
-16.420680
6.030575
0.450274
-45.862418
-86.578928
-72.408295
-32.580644
3.682731
30.753699
12.143178
-14.648992
-1.760314
-2.199808
-18.745174
-27.992619
-39.068051
-35.725065
-28.609988
-23.660597
-0.849304
24.070266
40.991062
56.446507
62.094415
50.677907
40.395027
40.414283
31.268147
16.113839
-11.047722
-45.280166
-70.971180
-111.659117
-145.492297
-149.999757
-136.606090
-101.654543
-65.489100
-47.039829
-58.547775
-83.174780
-91.749946
-92.544543
-63.626366
-2.771021
51.225412
56.362356
9.879257
-20.100786
-42.171155
-89.981409
-110.603832
-82.187266
-38.034999
-8.864067
13.583811
27.105284
14.755690
31.342685
79.803463
92.796828
73.882898
78.513295
127.241893
162.883904
147.188759
111.313543
70.134905
23.354372
-17.889468
-62.618354
-80.355015
-52.812568
-52.935665
-98.588027
-134.563513
-125.602006
-85.706296
-61.016881
-57.420620
-45.331768
-27.679205
-10.356029
19.877614
58.959211
117.929680
198.711822
240.953497
190.155393
102.430239
64.761326
70.016724
95.055787
138.854510
175.527020
181.228959
173.530250
155.079487
126.467642
129.420197
144.150630
134.131154
121.768312
123.650624
134.987448
130.781579
100.190302
81.361057
86.365260
89.513940
85.227282
66.327900
44.557303
39.888527
37.419985
34.781036
31.866993
8.358029
-25.272533
-40.241107
-54.168791
-71.981824
-59.260696
-53.689940
-94.197597
-135.487416
-161.883440
-180.125350
-167.480074
-125.055264
-82.223396
-47.391083
7.381277
81.332302
147.687194
210.982798
268.302182
269.719249
209.418315
160.791092
124.670135
73.276124
21.040984
-44.674813
-116.237985
-162.099979
-162.386990
-145.819218
-167.390833
-225.737533
-265.273399
-262.082896
-252.800836
-251.713934
-270.263409
-306.257858
-315.718053
-272.366131
-205.273239
-166.450630
-132.394502
-88.964390
-75.808670
-83.609728
-70.379714
-23.607947
15.288696
45.427782
107.649766
172.753356
180.036242
106.718338
30.597277
17.870500
-0.296856
-33.510230
-53.618053
-82.628382
-83.919655
-57.139887
-52.039830
-65.642805
-65.723819
-56.925966
-57.039711
-42.125882
-27.317000
-25.600680
-2.344144
34.284205
90.462428
169.127202
229.094401
268.685403
287.806174
280.189032
248.789098
221.629875
222.152041
193.862828
126.856504
75.051020
53.052867
50.988264
61.827374
79.219389
74.884414
40.464418
33.142633
60.448950
61.238158
24.370109
-39.289364
-98.571489
-121.958622
-126.252293
-128.742395
-136.412270
-134.388125
-89.868805
7.662393
108.498879
152.244350
146.115418
154.390359
203.370153
238.780191
263.813799
288.855200
265.037372
221.425488
185.439351
134.909847
79.762968
37.016111
17.070903
6.675803
-13.672045
-32.662086
-46.463003
-75.945591
-121.443650
-152.839168
-152.451301
-127.116622
-109.211046
-91.887870
-47.093975
-17.311810
8.476164
58.736615
61.422129
12.519551
-14.424844
-17.596057
-34.393398
-61.078804
-81.278584
-84.237048
-66.336667
-47.956235
-10.122043
