EVENT_NAME: 202302060117
EVENT_ID: 13194
EVENT_DATE_YYYYMMDD: 2023/02/06
EVENT_TIME_HHMMSS: 01:17:32.00000
EVENT_LATITUDE_DEGREE: 37.288
EVENT_LONGITUDE_DEGREE: 37.043
EVENT_DEPTH_KM: 8.6
HYPOCENTER_REFERENCE: AFAD
MAGNITUDE_W: 7.7
MAGNITUDE_W_REFERENCE: AFAD
MAGNITUDE_L: 
MAGNITUDE_L_REFERENCE: 
FOCAL_MECHANISM: 
NETWORK: TK
STATION_CODE: 6302
STATION_NAME: 
STATION_LATITUDE_DEGREE: 37.2342
STATION_LONGITUDE_DEGREE: 39.7509
STATION_ELEVATION_M: 550.0
LOCATION: Kahramanmaras_Pazarck_Turkiye
SENSOR_DEPTH_M: 
VS30_M/S: 936
SITE_CLASSIFICATION_EC8: A
MORPHOLOGIC_CLASSIFICATION: 
EPICENTRAL_DISTANCE_KM: 239.71
EARTHQUAKE_BACKAZIMUTH_DEGREE: 
DATE_TIME_FIRST_SAMPLE_YYYYMMDD_HHMMSS: 2023/02/06 01:17:53.3258450
DATE_TIME_FIRST_SAMPLE_PRECISION: millisecond
SAMPLING_INTERVAL_S: 0.01
NDATA: 14501
DURATION_S: 
STREAM: HNE
UNITS: cm/s^2
INSTRUMENT: sensor = CMG-5T/GURALP | digitizer = 
INSTRUMENT_ANALOG/DIGITAL: 
INSTRUMENTAL_FREQUENCY_HZ: 
INSTRUMENTAL_DAMPING: 
FULL_SCALE_G: 
N_BIT_DIGITAL_CONVERTER: 
PGA_CM/S^2: 51.163
TIME_PGA_S: 
BASELINE_CORRECTION: BASELINE REMOVED
FILTER_TYPE: BUTTERWORTH
FILTER_ORDER: 
LOW_CUT_FREQUENCY_HZ: 
HIGH_CUT_FREQUENCY_HZ: 
LATE/NORMAL_TRIGGERED: 
DATABASE_VERSION: 
HEADER_FORMAT: DYNA 1.2
DATA_TYPE: Acceleration
PROCESSING: Automatic Paolucci et al., 2011
DATA_TIMESTAMP_YYYYMMDD_HHMMSS: 
DATA_LICENSE: U (unknown license)
DATA_CITATION: Turkish Accelerometric Archive v 1.0 - Disaster And Emergency Management Presidency, Earthquake Department
DATA_CREATOR: AFAD
ORIGINAL_DATA_MEDIATOR_CITATION: : AFAD - Disaster And Emergency Management Presidency
ORIGINAL_DATA_MEDIATOR: AFAD PROCESS SERVICE
ORIGINAL_DATA_CREATOR_CITATION: AFAD PROCESS SERVICE
ORIGINAL_DATA_CREATOR: network: TK
USER1: GuestUser
USER2: 
USER3: 
USER4: 
USER5: 
[...]
-11.974914
-12.897702
-12.193905
-6.329587
4.801945
15.029090
18.911496
12.429808
-1.343433
-14.864295
-26.745782
-33.257107
-32.118431
-23.121363
-11.744627
-6.919776
-7.381480
-6.178851
-5.783900
-6.464291
-6.844572
-4.774994
-3.440404
-8.108329
-14.664889
-18.403159
-19.531220
-21.284146
-23.071076
-25.837576
-26.260596
-21.323749
-12.893209
-4.785552
3.871475
16.810842
25.777650
21.839723
10.777768
2.278291
-1.107459
-2.719377
-1.195737
4.445215
11.786686
19.363379
21.629495
14.566304
9.218296
17.125983
31.329744
40.129339
38.373605
33.149447
29.105451
27.180633
25.720642
24.147407
24.481838
24.712072
22.838103
20.337086
22.477792
26.685889
26.611021
23.330092
22.742042
24.085991
24.035144
23.895700
27.278026
32.513424
35.864865
32.943007
22.448516
10.727379
1.819540
-2.890188
-5.254253
-7.314152
-7.503199
-3.597084
2.812237
7.351016
8.137172
7.396883
10.938935
18.483808
21.390700
15.385694
4.422319
-5.189000
-13.174670
-22.767583
-30.219482
-28.955085
-20.345477
-12.411584
-10.275245
-9.080416
-2.555669
8.005591
13.541098
7.633113
-4.691363
-12.599667
-9.822864
-2.923135
1.558867
3.030097
3.155199
1.093116
-2.120117
-2.124169
0.793954
3.244753
1.209187
-7.065051
-17.868075
-22.380330
-19.810672
-19.455964
-28.078043
-39.021451
-41.686562
-32.743776
-17.268135
-2.636982
6.471770
7.948927
0.976518
-11.435933
-16.165939
-8.319397
2.862985
5.009307
-3.394708
-11.120512
-10.438553
-4.593577
-2.269123
-4.327775
-6.126560
-7.257116
-12.553650
-21.434972
-25.174177
-19.055920
-5.300453
7.806752
12.526471
7.791474
-1.043053
-4.373897
-1.767739
-0.228813
0.257856
1.882573
4.347411
6.728642
9.553175
12.480345
17.162004
24.367459
28.041160
24.320672
15.733534
5.277726
-5.323145
-11.700949
-13.203056
-11.442946
-8.489884
-10.463057
-18.147993
-19.075461
-10.050627
-0.239643
5.157352
7.867706
9.248778
6.435796
2.405527
2.207433
6.963029
11.735782
14.073962
13.568271
11.379530
9.758565
8.334450
5.465626
3.116847
4.265193
5.499954
2.786800
-3.320842
-11.688046
-21.928286
-27.273174
-26.782762
-25.306540
-24.104224
-22.789912
-21.680249
-21.287794
-22.869763
-25.747322
-24.591177
-20.169072
-18.092630
-19.644339
-19.267481
-14.259507
-11.676434
-14.939582
-18.718095
-18.018354
-13.351981
-7.077117
-0.987872
3.478220
9.451101
16.992542
24.313112
29.555372
30.727116
29.166048
25.817734
20.430418
12.852174
6.924847
7.412452
13.976819
19.131105
15.285519
5.328231
-2.343915
-10.788485
-22.146807
-29.467057
-26.892095
-16.086255
-1.830396
9.372575
13.332036
12.101963
6.720575
0.340899
-3.483473
0.220489
8.657268
13.751969
14.917786
13.934165
6.468228
-4.866073
-9.955151
-7.028605
-4.062128
-7.322468
-11.402339
-8.343208
-1.970076
0.676326
0.648253
2.209329
6.363768
7.286876
5.236959
4.485752
5.898021
8.648930
8.304213
1.347090
-5.069709
-6.257667
-5.009492
-7.525172
-13.239739
-13.513640
-6.781436
3.453197
12.503299
20.637785
30.858380
40.431647
40.059477
30.159591
22.442210
23.389339
27.040267
27.470158
23.054301
18.026680
14.576042
8.700189
-1.033108
-15.512325
-26.135658
-26.362765
-18.191155
-4.491217
7.446119
9.500411
0.679611
-8.768550
-5.374057
6.746402
13.225291
9.393120
1.478889
-5.104812
-12.311506
-21.596510
-28.333697
-21.145713
-0.138312
20.365889
29.293078
24.673507
14.050487
3.017232
-7.018047
-14.712031
-16.605029
-12.501128
-9.264177
-7.292556
-5.886215
-8.732265
-18.185730
-29.183421
-31.657921
-24.558223
-13.857203
-1.471261
11.533307
26.225605
38.690474
34.426855
12.669811
-8.736896
-14.627099
-10.726288
-12.228394
-18.686373
-20.706965
-15.391081
-8.857910
-7.755735
-10.702238
-12.220879
-8.689745
-2.602684
1.143393
4.298609
14.547904
29.999524
35.855107
25.327235
9.827893
-0.749269
-6.419225
-11.107116
-16.961443
-17.083729
-8.417967
0.077774
-0.708373
-6.015826
-6.289415
-1.485154
6.240034
10.806579
7.700350
5.675702
7.897831
8.502735
5.028699
-0.343018
-5.406827
-14.231058
-23.529789
-26.845970
-20.636307
-4.163939
13.282384
20.351510
15.433077
12.466608
14.054201
11.696375
4.986329
1.442413
6.364285
11.617776
12.769554
10.635095
10.468198
15.872680
18.898743
12.679729
3.476460
2.149989
4.407995
3.881402
3.102742
4.832591
5.907626
3.140814
-1.415740
-5.217651
-3.293136
2.668515
8.232411
13.918910
16.551272
12.778062
7.170811
3.223213
-2.901900
-10.048385
-11.079112
-3.442210
5.113116
3.781342
-7.328968
-20.845774
-29.050756
-29.179905
-27.956063
-28.816146
-27.095032
-19.906424
-11.027278
-3.211932
5.746765
16.076859
24.523309
27.824213
23.682884
13.995446
4.838036
-1.940955
-7.647411
-15.182292
-24.243929
-32.210258
-37.683988
-38.165970
-34.577123
-29.187615
-23.249673
-18.437300
-14.777638
-9.021571
-1.033709
3.891283
2.828423
-1.817976
-8.111238
-10.896455
-7.454544
-1.690990
1.700383
1.299824
1.824553
8.162122
19.904480
29.179821
32.829501
31.822795
25.119924
15.221909
8.320004
8.684383
14.781115
20.518463
20.790813
16.662275
12.922133
9.330174
0.660365
-13.528725
-24.594112
-24.528595
-13.635717
1.089961
10.359374
12.316958
9.118075
3.313662
-2.620528
-6.818010
-8.043404
-7.515244
-6.366585
-6.321658
-5.624413
-4.808309
-7.811902
-10.988011
-9.896754
-6.024643
-3.603169
-0.806088
2.881963
9.278805
19.103204
22.040669
16.537302
9.124711
2.748467
-5.854582
-17.800958
-26.023097
-24.089536
-11.814965
2.277112
9.177153
11.495992
15.091702
18.220713
16.834657
12.440637
6.791583
1.041140
-3.605259
-6.267875
-4.943580
0.797824
7.059585
7.687886
7.411801
8.884591
9.301068
12.923607
21.155114
27.193196
25.321724
18.149033
9.839855
3.196569
-0.500521
-4.262189
-5.748385
-5.152528
-4.555423
-3.409573
-3.654773
-1.361516
2.435100
6.078852
8.239837
4.581118
-2.545714
-5.882485
-3.017708
-0.264927
-0.052787
0.175887
2.644469
7.941947
12.290428
14.247699
15.156768
15.885834
15.644065
9.387616
0.172804
-4.291408
-2.598683
-0.332879
-2.133536
-5.372974
-7.767612
-8.630190
-8.812685
-10.761213
-15.240088
-20.845779
-26.884477
-32.180388
-33.212051
-29.603550
-24.326350
-21.686500
-23.043231
-23.141496
-19.879276
-15.988447
-11.568526
-1.371329
13.399272
23.682883
25.300737
23.436439
25.203724
26.926085
23.418357
14.446566
4.284629
0.054079
0.505184
-0.765133
-6.937352
-15.517939
-22.789834
-28.482876
-32.007450
-31.409097
-24.320006
-14.216086
-5.063035
-0.490251
-0.035715
3.222762
9.264588
14.962941
15.560981
12.059804
9.699795
8.992887
8.256030
7.738796
6.601377
4.100359
4.062615
8.337785
11.764722
9.800908
6.689687
4.347459
-0.572533
-6.893560
-10.032233
-10.002593
-7.455708
-5.772342
-5.498745
-5.254784
-6.058402
-4.695423
-0.564382
4.792994
7.244417
4.292922
-0.105465
1.759776
8.902214
9.168636
2.246453
-0.914994
2.710041
5.255678
2.511016
0.019357
2.045260
5.168344
3.638473
0.199689
-3.053164
-5.466519
-3.468381
2.093331
7.683432
10.613722
11.628547
9.901202
5.697169
2.611529
3.296296
8.172309
13.825739
16.319902
16.343303
16.187325
15.609258
11.549976
2.819646
-7.269291
-14.095077
-17.218464
-21.458061
-25.118340
-23.004775
-16.777954
-13.102068
-13.895079
-15.018148
-13.264278
-8.167705
-2.506476
1.269861
6.141508
15.315148
24.666609
28.009627
26.128172
26.968921
32.727171
37.760103
36.881926
30.946488
27.433145
29.995003
34.598048
35.331793
31.551408
26.585557
19.592558
8.800452
-4.034399
-14.499254
-18.405985
-17.786730
-20.614375
-29.335035
-36.558575
-36.947903
-32.574777
-29.257339
-28.137070
-26.554780
-21.405486
-11.352416
0.030559
8.969602
12.340073
9.761688
6.842014
9.845927
16.845173
21.738969
19.813838
10.927525
0.885695
-5.606600
-6.870990
-3.045985
2.122339
5.300953
3.901171
-3.063439
-11.728881
-18.094206
-22.069570
-26.538149
-31.146177
-33.941689
-35.028259
-34.661384
-32.155991
-28.117291
-23.249700
-18.205225
-13.830851
-10.721182
-11.145762
-15.300193
-20.644770
-25.213802
-28.576778
-32.468535
-36.924636
-37.292438
-32.290703
-23.695757
-16.162116
-14.259750
-17.333223
-23.807736
-31.503904
-38.478496
-41.357927
-37.441829
-27.872305
-16.931072
-8.697694
-3.136605
3.907252
13.874219
21.929465
25.464654
25.317723
22.961457
20.957087
20.851335
21.868656
24.754335
31.639090
38.985240
42.726014
44.743495
47.828206
50.426253
45.478808
32.672345
20.345685
13.986911
11.441594
7.112463
1.673361
-1.512420
0.069558
3.267513
4.682589
7.691494
10.668266
7.824711
-2.236462
-12.452368
-18.598695
-22.123581
-23.090667
-21.019217
-13.644678
-3.085601
2.502316
-1.410031
-9.688324
-17.009510
-21.368589
-23.726727
-23.895496
-18.123832
-8.205843
-1.391592
-1.233110
-2.378017
0.914152
9.781443
20.175489
24.927341
24.331180
25.827368
30.689343
34.251673
30.988837
20.425714
11.356901
9.413365
10.971321
12.129650
15.365665
21.122355
25.081192
24.424822
18.115963
10.503090
7.030614
7.328856
4.948257
-4.418169
-15.930914
-21.237119
-16.937928
-7.581164
1.899762
9.633685
17.371351
24.658229
28.295430
29.376080
30.694447
33.236965
34.207179
31.314334
25.567322
17.590387
9.026646
2.993875
2.173723
5.703921
8.547796
8.752761
9.798159
12.369377
10.946197
3.583832
-5.757637
-12.440855
-12.569068
-6.201863
-0.065200
1.374834
2.467963
6.315116
8.670455
8.356622
8.806479
9.798531
9.769523
8.906320
8.659872
8.768752
6.347597
-0.881871
-10.141605
-15.515195
-13.602847
-5.401600
4.977472
14.735111
21.063632
21.639211
17.070179
11.651355
9.986091
12.773188
16.742944
18.758241
20.375158
20.414470
15.287333
4.456543
-6.391092
-9.268339
-1.961496
9.819858
18.738312
22.691221
21.881365
15.698539
3.820172
-9.375311
-21.516352
-28.501552
-26.903976
-23.705085
-25.119529
-30.263825
-36.295660
-42.810416
-48.910260
-50.835390
-45.335759
-33.784011
-21.600222
-13.921517
-11.029599
-10.722934
-11.724961
-12.722308
-12.639633
-12.035666
-12.487075
-13.532465
-11.860641
-8.270234
-7.494686
-10.812115
-15.898385
-18.774385
-17.995404
-15.055132
-11.111893
-5.823462
-1.838108
-3.725491
-13.440382
-26.647408
-34.499869
-34.309567
-31.099757
-29.089452
-24.678266
-16.339755
-5.633119
6.876361
16.540098
20.305829
22.001361
23.089499
20.506122
13.758640
4.758460
-2.111936
-7.489269
-14.765220
-23.515204
-29.998452
-33.606945
-37.069126
-40.634568
-43.897715
-41.350207
-27.842440
-10.758308
0.236271
5.995769
10.392605
16.649998
21.844216
20.274725
13.518196
6.226647
0.241919
-3.912200
-5.920626
-7.067092
-7.966171
-7.078627
-8.216982
-14.100010
-17.626144
-14.364860
-6.344241
2.565789
7.134517
6.147153
6.914902
10.641949
14.813235
14.875008
7.325464
0.944852
1.031582
3.283348
5.178227
7.672389
9.976877
6.254517
-2.542574
-8.675485
-7.345576
-1.796966
-0.365043
-0.347881
5.182946
13.586034
15.507741
10.848551
6.196224
4.874745
1.732952
-4.872586
-7.405736
-0.725006
11.113437
17.505912
12.403420
-1.773192
-13.934823
-18.575607
-18.230570
-15.638139
-8.089835
4.670777
13.214249
14.704197
16.749442
23.283860
30.013257
30.895185
23.047403
12.024443
6.642119
7.018976
7.155621
5.551814
7.330641
12.794709
15.602396
11.567447
6.664613
7.796425
11.193726
10.093118
4.353594
2.590061
8.484952
13.244602
9.353158
-1.202167
-13.866997
-22.330910
-23.298309
-20.251032
-20.138721
-24.544908
-26.368338
-21.275197
-11.654511
-1.116024
10.589523
21.164197
26.381812
25.206645
19.272143
10.853465
2.303138
-3.660689
-6.846781
-7.641663
-5.775798
-0.589379
3.052814
1.830540
2.141885
7.487093
12.835422
13.165173
10.530946
9.790970
10.190289
9.619397
10.011853
13.584789
17.404178
14.283287
1.782550
-14.666725
-27.705913
-36.539192
-42.114935
-45.523458
-45.647304
-40.382582
-31.709645
-22.417770
-15.550797
-10.647643
-8.175942
-6.597084
-2.124753
3.458797
9.465371
15.160916
17.344674
14.926639
9.085414
4.954381
6.979348
10.451520
7.031766
-0.461624
-3.833959
0.207237
7.316918
11.947728
14.631253
18.203878
22.173945
20.900197
14.919212
10.296522
8.407268
4.315542
-1.399337
-3.696954
-0.287487
4.272819
3.405248
-6.383579
-22.465671
-33.318298
-31.888559
-19.766228
-2.149572
15.544451
26.987011
29.775356
22.641973
8.847207
-5.720921
-14.493679
-12.001700
-2.457757
3.587189
2.352748
-3.073251
-8.816831
-11.164986
-13.097292
-15.167486
-14.624975
-11.069509
-9.468189
-13.094464
-15.686887
-12.111767
-6.377538
-4.143242
-7.398903
-12.080554
-14.508572
-14.962165
-15.953273
-18.078061
-17.760477
-16.338849
-18.348522
-25.772968
-34.276812
-36.180417
-29.940182
-19.662810
-7.289034
5.252890
16.260571
18.790922
10.842687
1.184573
-2.163117
-0.679408
-0.176517
-0.532777
1.461306
11.382103
23.361866
24.242235
11.850998
3.710281
12.016035
28.118102
37.180683
34.064470
30.776990
35.434004
39.508580
34.204559
22.544567
10.725785
1.962386
-4.962292
-9.861071
-12.341811
-17.183188
-27.723850
-35.609692
-34.174650
-24.679686
-13.786807
-9.578086
-10.669335
-11.647965
-11.857289
-16.680261
-24.301556
-29.859829
-30.469092
-27.572495
-25.517891
-23.957439
-21.113564
-15.320062
-8.619366
-5.668799
-7.622319
-7.722143
-1.570194
4.722764
5.428432
5.065933
8.909656
14.038049
17.694592
18.568409
13.475900
2.037716
-9.009265
-13.475037
-11.060114
-2.754359
15.051347
38.157959
51.163463
50.461858
43.565568
34.478974
22.891046
13.257266
5.383278
-3.876144
-8.136331
-2.332534
8.751578
12.784975
10.939084
10.469893
11.757999
13.054529
14.236256
19.784865
27.095140
31.688202
29.295436
22.130233
16.554178
15.948347
18.666812
14.464026
4.771908
0.076218
0.198513
-2.463791
-12.115353
-26.931181
-37.923880
-36.583987
-27.790320
-20.137819
-17.214393
-18.729602
-17.628363
-16.440709
-22.531193
-31.032853
-33.697341
-28.987916
-24.513089
-25.005054
-25.702291
-18.871194
-4.499596
9.132021
17.069657
21.046276
24.630132
27.004500
23.235033
12.783593
3.089916
0.699333
3.431213
4.370855
4.745529
10.523433
19.192938
22.900020
20.531587
19.417877
23.066309
26.575293
24.074587
16.008742
8.458886
4.919026
3.596923
4.090767
7.745127
13.411971
13.334920
6.026837
-1.247242
-5.708646
-7.464692
-5.145854
1.992840
9.836887
15.283484
16.688578
16.078691
16.125489
16.424980
15.331547
15.632597
19.781421
23.567742
24.472131
20.626858
12.724794
2.665181
-9.113669
-22.129148
-32.716605
-37.710221
-36.106094
-31.175799
-28.363432
-27.283094
-23.795324
-17.098995
-9.179141
1.161559
10.964433
12.163942
4.525176
-5.863871
-15.360699
-20.415773
-18.525886
-9.415262
2.990957
16.358340
31.196014
41.628744
40.950537
36.311000
33.837124
31.695801
26.285088
13.578143
-0.090902
-9.628910
-14.553894
-18.114344
-23.595561
-28.921732
-30.260057
-27.791163
-24.508666
-21.235839
-19.204632
-16.372612
-12.590035
-10.412517
-10.921639
-10.226578
-4.514498
2.218642
6.014321
7.304300
8.539372
10.655122
13.555774
15.567015
15.747335
13.755756
9.598205
3.130555
-5.983804
-16.051527
-21.347438
-18.012530
-9.961963
-5.133680
-5.741695
-6.045857
-4.031184
-2.647304
-5.709234
-11.890813
-16.859472
-15.784125
-11.622823
-12.735285
-18.381532
-20.428953
-19.895801
-21.726406
-23.863049
-22.262665
-14.919322
-6.197719
-1.583132
-0.037966
1.858472
2.893263
7.980789
16.270633
22.125904
23.190020
17.977093
9.780222
4.435645
5.348458
4.568862
-4.207327
-13.102999
-16.897110
-17.845791
-15.456449
-13.023120
-12.462515
-13.864792
-16.716147
-19.946850
-24.489677
-27.548488
-25.219978
-17.867588
-10.917321
-8.345167
-11.518157
-17.293245
-20.201689
-19.909062
-17.978619
-15.690042
-13.163747
-10.630589
-8.716681
-6.822739
-6.019113
-6.626817
-7.378336
-6.234669
-0.697914
8.706893
18.536283
25.311227
27.120002
23.552689
19.731748
19.047302
20.190657
23.590141
23.952024
17.604481
8.131050
0.320080
-2.811107
-2.608637
-2.026819
-2.215554
-3.077196
-6.661980
-13.025121
-18.559061
-21.665914
-23.534267
-21.357061
-12.400548
-3.314881
-0.176823
1.274129
4.818365
7.623868
5.798566
-0.538370
-3.870150
1.034252
8.546056
10.695186
7.939605
6.887664
9.814209
11.454212
9.339407
8.279667
12.183598
17.947464
19.909414
19.084271
18.476568
16.593865
13.603374
12.841560
16.681539
21.539458
22.098503
19.005689
13.303600
6.644092
1.362532
-2.542639
-6.583203
-11.800186
-18.501185
-22.409164
-17.176887
-5.852249
2.062614
3.313284
5.218769
11.086831
17.712343
20.251117
16.692538
10.406140
3.059061
-3.081649
-6.886056
-12.031911
-20.402234
-27.876282
-29.023373
-24.035676
-17.547740
-11.279428
-4.409959
5.486504
14.360346
17.042312
18.353192
19.968861
20.813978
20.631171
19.985096
21.798239
24.513273
25.948627
26.776585
29.366521
30.298988
23.069208
11.386755
1.566419
-3.654308
-8.019003
-12.395553
-12.839787
-10.886883
-7.816522
-2.725252
2.426226
6.073099
9.026473
11.029603
11.504106
9.546531
8.218813
7.664455
5.452317
2.616249
2.948496
7.421451
11.958047
15.393095
17.133551
18.006432
18.217013
17.054012
16.303741
16.338997
13.823941
5.399336
-6.507732
-17.175364
-23.256178
-22.641291
-18.319327
-13.729073
-10.400093
-8.956315
-8.322399
-7.831362
-6.403496
-2.707645
2.467231
5.716972
7.182275
8.580193
10.661626
14.021491
15.162662
11.937263
8.236428
7.798746
9.393202
10.545604
11.155811
12.753699
15.358609
15.354245
11.478399
8.325687
9.535802
11.148976
8.694441
4.688817
3.412262
4.798949
3.231018
-4.666990
-14.439595
-18.855141
-15.741104
-8.803003
-0.252980
8.528520
13.576739
11.953278
3.422293
-8.063934
-15.923883
-15.723286
-9.149560
-1.962511
2.968408
5.227661
4.587514
1.559588
-3.607793
-8.805746
-11.279935
-12.179949
-13.896064
-16.668491
-17.537620
-15.541666
-12.621359
-10.331534
-7.890093
-2.995674
2.495223
5.310085
4.316793
1.531263
0.506463
1.259862
1.804245
2.327102
4.434740
8.103450
11.558152
13.628042
12.817562
10.494364
10.957012
13.865464
14.350261
9.025650
0.865279
-2.828692
-1.013677
-0.755054
-4.133316
-6.167323
-4.575674
-1.957974
0.762051
6.023653
14.793611
25.130257
31.787277
32.238070
30.066800
27.446611
23.987238
20.070524
17.380768
14.170654
9.979723
7.259394
5.671810
5.177350
5.637502
7.565760
10.502289
13.115622
14.599642
14.729424
13.957627
12.441794
11.518694
11.962936
11.624146
11.244489
13.615426
16.557882
17.626053
17.109755
15.662867
13.651946
12.001968
10.871412
9.914620
8.585654
6.127063
2.942531
-0.685616
-2.794805
-1.649891
0.892314
3.439199
5.890622
6.499270
4.883296
3.596133
3.561197
4.006063
4.633740
5.408977
6.368273
7.546568
8.664654
7.252705
2.770087
-3.185005
-8.034181
-6.271264
-0.133665
3.877582
3.215909
-1.073291
-4.687087
-6.459043
-7.591159
-8.066277
-7.277002
-5.167492
-3.869403
-4.947549
-7.065474
-7.270119
-2.498613
4.790760
10.017734
10.672240
7.491451
5.274633
5.531384
5.769730
3.394746
-2.178189
-7.246989
-8.086482
-6.079921
-6.214373
-9.618529
-10.940944
-6.781825
-0.831093
1.809693
0.439236
-1.283430
-1.661527
-4.359082
-7.893327
-9.113730
-9.160520
-10.146949
-13.503062
