EVENT_NAME: 202302060117
EVENT_ID: 13194
EVENT_DATE_YYYYMMDD: 2023/02/06
EVENT_TIME_HHMMSS: 01:17:32.00000
EVENT_LATITUDE_DEGREE: 37.288
EVENT_LONGITUDE_DEGREE: 37.043
EVENT_DEPTH_KM: 8.6
HYPOCENTER_REFERENCE: AFAD
MAGNITUDE_W: 7.7
MAGNITUDE_W_REFERENCE: AFAD
MAGNITUDE_L: 
MAGNITUDE_L_REFERENCE: 
FOCAL_MECHANISM: 
NETWORK: TK
STATION_CODE: 4203
STATION_NAME: 
STATION_LATITUDE_DEGREE: 38.65491
STATION_LONGITUDE_DEGREE: 32.91656
STATION_ELEVATION_M: 952.0
LOCATION: Kahramanmaras_Pazarck_Turkiye
SENSOR_DEPTH_M: 
VS30_M/S: 280
SITE_CLASSIFICATION_EC8: C
MORPHOLOGIC_CLASSIFICATION: 
EPICENTRAL_DISTANCE_KM: 392.30
EARTHQUAKE_BACKAZIMUTH_DEGREE: 
DATE_TIME_FIRST_SAMPLE_YYYYMMDD_HHMMSS: 2023/02/06 01:18:02.0069140
DATE_TIME_FIRST_SAMPLE_PRECISION: millisecond
SAMPLING_INTERVAL_S: 0.01
NDATA: 21001
DURATION_S: 
STREAM: HNE
UNITS: cm/s^2
INSTRUMENT: sensor = GMS+/GEOSIG | digitizer = 
INSTRUMENT_ANALOG/DIGITAL: 
INSTRUMENTAL_FREQUENCY_HZ: 
INSTRUMENTAL_DAMPING: 
FULL_SCALE_G: 
N_BIT_DIGITAL_CONVERTER: 
PGA_CM/S^2: 2.640
TIME_PGA_S: 
BASELINE_CORRECTION: BASELINE REMOVED
FILTER_TYPE: BUTTERWORTH
FILTER_ORDER: 
LOW_CUT_FREQUENCY_HZ: 
HIGH_CUT_FREQUENCY_HZ: 
LATE/NORMAL_TRIGGERED: 
DATABASE_VERSION: 
HEADER_FORMAT: DYNA 1.2
DATA_TYPE: Acceleration
PROCESSING: Automatic Paolucci et al., 2011
DATA_TIMESTAMP_YYYYMMDD_HHMMSS: 
DATA_LICENSE: U (unknown license)
DATA_CITATION: Turkish Accelerometric Archive v 1.0 - Disaster And Emergency Management Presidency, Earthquake Department
DATA_CREATOR: AFAD
ORIGINAL_DATA_MEDIATOR_CITATION: : AFAD - Disaster And Emergency Management Presidency
ORIGINAL_DATA_MEDIATOR: AFAD PROCESS SERVICE
ORIGINAL_DATA_CREATOR_CITATION: AFAD PROCESS SERVICE
ORIGINAL_DATA_CREATOR: network: TK
USER1: GuestUser
USER2: 
USER3: 
USER4: 
USER5: 
[...]
-0.338498
-0.283427
-0.264724
-0.236929
-0.194846
-0.150685
-0.110421
-0.094316
-0.068858
-0.026776
-0.004436
0.009072
0.031413
0.054532
0.074274
0.083107
0.077652
0.092459
0.105187
0.092199
0.084666
0.068301
0.045701
0.035830
0.009853
-0.035606
-0.064960
-0.086261
-0.114575
-0.140292
-0.179257
-0.217183
-0.238744
-0.269916
-0.303686
-0.354340
-0.406034
-0.429153
-0.471495
-0.524488
-0.583455
-0.627356
-0.654891
-0.711780
-0.743991
-0.769449
-0.799062
-0.816207
-0.853873
-0.891020
-0.924010
-0.940375
-0.955442
-0.989471
-1.025839
-1.048698
-1.059608
-1.076233
-1.083507
-1.112081
-1.142993
-1.140655
-1.153124
-1.174425
-1.199363
-1.235730
-1.247160
-1.244042
-1.261706
-1.291580
-1.312101
-1.315998
-1.333922
-1.359898
-1.366133
-1.368211
-1.361457
-1.365872
-1.377562
-1.384576
-1.376003
-1.353923
-1.358339
-1.349506
-1.327946
-1.312100
-1.280927
-1.262224
-1.233390
-1.184813
-1.146367
-1.101947
-1.054149
-1.009469
-0.954398
-0.917251
-0.896989
-0.864778
-0.834905
-0.818799
-0.814643
-0.812305
-0.817760
-0.817500
-0.812304
-0.831007
-0.825292
-0.804511
-0.803732
-0.809187
-0.803991
-0.767364
-0.740867
-0.746842
-0.745803
-0.725800
-0.696706
-0.686835
-0.713591
-0.729177
-0.693848
-0.674885
-0.688653
-0.676703
-0.670729
-0.643453
-0.612800
-0.612800
-0.568120
-0.541364
-0.531493
-0.493566
-0.463953
-0.422130
-0.395114
-0.385762
-0.346018
-0.301078
-0.290167
-0.259774
-0.201326
-0.162881
-0.115343
-0.068845
-0.025203
0.036881
0.110915
0.169883
0.201574
0.252229
0.311197
0.365748
0.396401
0.410948
0.459784
0.503685
0.530182
0.557457
0.598501
0.647337
0.690978
0.731762
0.765532
0.812290
0.860607
0.886844
0.906586
0.936460
0.957501
0.977244
0.993090
0.989972
0.997766
1.002961
0.996986
0.989713
0.979063
0.977764
0.978024
0.973608
0.967374
0.960100
0.956983
0.950229
0.948411
0.949450
0.930487
0.928929
0.917759
0.882950
0.867104
0.834893
0.793330
0.745793
0.687605
0.633833
0.568372
0.488103
0.404978
0.335360
0.249637
0.159757
0.079489
-0.009092
-0.092737
-0.188851
-0.285225
-0.364194
-0.444982
-0.528887
-0.605258
-0.675136
-0.738519
-0.788135
-0.831776
-0.865286
-0.881911
-0.890223
-0.893860
-0.883729
-0.863467
-0.846322
-0.812292
-0.777483
-0.740077
-0.693058
-0.641624
-0.591489
-0.567330
-0.514857
-0.471216
-0.435628
-0.375881
-0.369906
-0.361074
-0.343150
-0.347566
-0.331980
-0.329642
-0.351982
-0.363931
-0.355359
-0.348085
-0.348864
-0.323667
-0.289637
-0.271973
-0.237943
-0.203653
-0.168065
-0.121826
-0.104941
-0.071691
-0.016620
0.001304
0.033515
0.067026
0.065987
0.107290
0.141060
0.137163
0.155347
0.157425
0.173791
0.196910
0.190936
0.213536
0.218212
0.203925
0.220030
0.227304
0.224447
0.235357
0.246527
0.229642
0.231720
0.251723
0.248865
0.251203
0.244969
0.266790
0.284714
0.271985
0.289909
0.298222
0.317185
0.333291
0.332252
0.354072
0.361086
0.364723
0.359268
0.363424
0.382907
0.378491
0.379790
0.362905
0.357710
0.360568
0.341085
0.344202
0.322902
0.309913
0.313810
0.281079
0.259519
0.255622
0.246530
0.234581
0.223671
0.201591
0.186265
0.186005
0.181849
0.166782
0.168601
0.190941
0.192240
0.201072
0.197955
0.198215
0.217698
0.217698
0.222893
0.209645
0.200294
0.198475
0.167823
0.129637
0.094049
0.050408
0.000533
-0.049343
-0.115583
-0.171693
-0.211697
-0.262092
-0.298719
-0.327034
-0.371454
-0.393534
-0.408601
-0.434318
-0.447046
-0.472763
-0.497181
-0.516664
-0.552771
-0.591996
-0.627065
-0.666549
-0.706813
-0.734868
-0.759546
-0.779288
-0.797212
-0.807343
-0.816695
-0.836697
-0.838515
-0.853062
-0.886572
-0.897482
-0.926836
-0.972555
-1.004246
-1.055680
-1.105036
-1.144780
-1.201410
-1.235179
-1.268689
-1.316227
-1.334151
-1.359348
-1.386883
-1.391559
-1.401950
-1.403768
-1.396494
-1.398053
-1.390000
-1.372076
-1.366621
-1.356230
-1.336487
-1.328694
-1.313368
-1.292846
-1.282455
-1.264271
-1.236476
-1.217773
-1.195692
-1.168936
-1.153869
-1.119840
-1.084511
-1.060612
-1.015153
-0.969174
-0.931767
-0.886827
-0.833575
-0.784998
-0.729667
-0.676675
-0.634073
-0.579261
-0.527048
-0.471977
-0.415607
-0.375343
-0.320272
-0.255071
-0.199740
-0.131681
-0.070115
-0.004654
0.072497
0.140037
0.205499
0.272519
0.352787
0.425003
0.487607
0.551510
0.614894
0.690226
0.751791
0.807901
0.875961
0.926616
0.976751
1.027666
1.060656
1.111311
1.163005
1.178851
1.172876
1.187683
1.194957
1.175734
1.171838
1.130015
1.083257
1.067931
1.016757
0.966102
0.921682
0.881418
0.860117
0.816216
0.774394
0.742183
0.701659
0.676721
0.657758
0.629704
0.604506
0.575932
0.541123
0.507353
0.487351
0.471505
0.436437
0.411759
0.394614
0.379028
0.366300
0.336687
0.318503
0.306294
0.297981
0.289669
0.267849
0.241872
0.203946
0.169137
0.140563
0.133549
0.114326
0.048865
0.007042
-0.034520
-0.079460
-0.097124
-0.152455
-0.213760
-0.264674
-0.328577
-0.371698
-0.420535
-0.479762
-0.532754
-0.585747
-0.627569
-0.655884
-0.683679
-0.716410
-0.747062
-0.769142
-0.778234
-0.786287
-0.787845
-0.798496
-0.820056
-0.817978
-0.814341
-0.812263
-0.813562
-0.831226
-0.844214
-0.854085
-0.874867
-0.918248
-0.976695
-1.028129
-1.087356
-1.156195
-1.224514
-1.304002
-1.379335
-1.444796
-1.502725
-1.561432
-1.606372
-1.618841
-1.642999
-1.677028
-1.689757
-1.682743
-1.678846
-1.693913
-1.710018
-1.723526
-1.726124
-1.729760
-1.754438
-1.777038
-1.775220
-1.755217
-1.754698
-1.760153
-1.738852
-1.713654
-1.687937
-1.667935
-1.645595
-1.611825
-1.583770
-1.568443
-1.571560
-1.561689
-1.544804
-1.537271
-1.544544
-1.563767
-1.549999
-1.532854
-1.529737
-1.517528
-1.514410
-1.501162
-1.475705
-1.464535
-1.463495
-1.461157
-1.458819
-1.486614
-1.508435
-1.514409
-1.521423
-1.529995
-1.567921
-1.587404
-1.587144
-1.575454
-1.580650
-1.624031
-1.632083
-1.611562
-1.619095
-1.661956
-1.699363
-1.719884
-1.730275
-1.752095
-1.799373
-1.836000
-1.850547
-1.869770
-1.908995
-1.944323
-1.948739
-1.946921
-1.980690
-1.981469
-1.965364
-1.982249
-1.954453
-1.940686
-1.937828
-1.890810
-1.860677
-1.832362
-1.798592
-1.776771
-1.737027
-1.680137
-1.644289
-1.624807
-1.584802
-1.548175
-1.524016
-1.487389
-1.443488
-1.408419
-1.354907
-1.285549
-1.246324
-1.187356
-1.110985
-1.040328
-0.954604
-0.886545
-0.816148
-0.737698
-0.656910
-0.586512
-0.541573
-0.483904
-0.408311
-0.351682
-0.320769
-0.263101
-0.201536
-0.152180
-0.099447
-0.069833
-0.016581
0.043426
0.067844
0.104472
0.151749
0.201625
0.268905
0.301636
0.338523
0.428143
0.490487
0.543220
0.611799
0.669987
0.720382
0.786104
0.849228
0.844292
0.865333
0.905338
0.897285
0.896506
0.845072
0.799872
0.769220
0.677002
0.633881
0.593617
0.491528
0.410741
0.327615
0.239554
0.176171
0.084473
-0.025929
-0.118666
-0.198934
-0.266214
-0.351158
-0.435582
-0.496368
-0.567544
-0.625992
-0.666515
-0.698986
-0.726781
-0.769903
-0.799256
-0.799516
-0.762109
-0.754836
-0.808348
-0.802633
-0.747822
-0.712753
-0.681841
-0.660540
-0.658201
-0.636641
-0.600533
-0.558710
-0.485196
-0.485715
-0.531954
-0.476883
-0.407784
-0.396874
-0.369858
-0.357909
-0.367000
-0.284914
-0.208802
-0.212438
-0.185162
-0.133209
-0.108011
-0.072683
-0.018911
0.017197
0.075126
0.119546
0.132015
0.200074
0.268134
0.334634
0.391264
0.387627
0.460622
0.557256
0.588168
0.648954
0.726365
0.762473
0.794684
0.847937
0.872095
0.920932
0.951325
0.903008
0.916516
0.964573
0.958858
0.941194
0.900670
0.870278
0.888981
0.870018
0.845340
0.826377
0.764553
0.748967
0.756240
0.702468
0.647398
0.634409
0.597782
0.556739
0.548427
0.507383
0.455690
0.424518
0.401658
0.396982
0.391268
0.357498
0.326326
0.345809
0.376202
0.379059
0.380098
0.377760
0.380358
0.410232
0.429974
0.441924
0.446859
0.425558
0.430234
0.464783
0.486085
0.494917
0.488163
0.508685
0.588953
0.633373
0.642206
0.684808
0.731826
0.778844
0.839630
0.878335
0.906390
0.953149
0.960682
0.941459
0.963799
0.984321
0.972632
0.958864
0.928731
0.936005
0.967177
0.944318
0.947175
0.958865
0.973672
1.024326
1.045628
1.074462
1.111869
1.142002
1.170317
1.180188
1.219413
1.235519
1.215776
1.224089
1.215777
1.207204
1.218374
1.190839
1.157069
1.138366
1.099921
1.063553
1.022510
0.961205
0.907693
0.843011
0.777549
0.727154
0.652601
0.581165
0.523756
0.454918
0.388677
0.321398
0.260612
0.215153
0.152549
0.097738
0.053837
-0.003052
-0.031886
-0.064097
-0.089035
-0.088775
-0.109297
-0.115271
-0.101763
-0.075267
-0.041757
-0.005389
0.050461
0.097999
0.152031
0.200607
0.240092
0.303476
0.343220
0.391018
0.455440
0.482456
0.528176
0.570778
0.597794
0.663515
0.710273
0.751317
0.785606
0.802751
0.852626
0.876525
0.903541
0.931077
0.926921
0.958093
0.956534
0.942507
0.966146
0.958353
0.966146
0.966925
0.947703
0.972381
0.988487
1.002254
1.012905
1.003813
1.011087
1.015503
0.998358
0.981214
0.957055
0.904842
0.868994
0.831068
0.761191
0.701704
0.622994
0.521945
0.459341
0.386086
0.285816
0.209964
0.127358
0.037998
-0.033958
-0.109290
-0.195793
-0.262034
-0.342042
-0.424648
-0.471666
-0.541544
-0.600251
-0.642333
-0.710392
-0.756111
-0.767022
-0.789621
-0.801830
-0.807805
-0.803389
-0.764423
-0.737927
-0.678960
-0.619213
-0.589859
-0.531671
-0.484393
-0.427504
-0.365679
-0.346456
-0.326194
-0.281514
-0.252160
-0.231638
-0.188517
-0.164878
-0.144875
-0.094220
-0.054476
-0.018888
0.032027
0.077487
0.129180
0.178277
0.208670
0.263741
0.309200
0.331280
0.374142
0.424537
0.469477
0.512339
0.555980
0.577541
0.617286
0.673136
0.706126
0.754184
0.782239
0.804059
0.836530
0.853415
0.891861
0.902252
0.899654
0.929268
0.927709
0.934464
0.945893
0.944335
0.945634
0.926411
0.943296
0.952128
0.935763
0.943296
0.902253
0.864327
0.865626
0.831337
0.812634
0.764577
0.687686
0.664566
0.614431
0.567413
0.528968
0.473378
0.436231
0.381160
0.354144
0.347910
0.323752
0.312062
0.308945
0.321674
0.338819
0.354145
0.385317
0.426880
0.473898
0.515202
0.550790
0.593392
0.642228
0.685090
0.694702
0.710548
0.768736
0.784842
0.767957
0.772373
0.803026
0.843290
0.830042
0.814456
0.820950
0.835757
0.869527
0.859136
0.839134
0.853941
0.893166
0.928754
0.924858
0.936028
0.966941
1.004087
1.024090
1.028766
1.067731
1.082798
1.083577
1.096825
1.103839
1.133453
1.157871
1.158391
1.155274
1.177094
1.214501
1.233204
1.249310
1.269832
1.322824
1.373739
1.373999
1.384390
1.423355
1.476867
1.505182
1.508819
1.527522
1.563890
1.601297
1.590906
1.591166
1.636106
1.644159
1.617143
1.598440
1.614286
1.624677
1.577399
1.537655
1.511158
1.483363
1.469855
1.425175
1.370105
1.356857
1.362052
1.344388
1.317372
1.311917
1.339193
1.355818
1.355559
1.371924
1.403876
1.435308
1.452193
1.471935
1.489340
1.524408
1.562075
1.556880
1.555321
1.589091
1.616107
1.617925
1.618445
1.623900
1.646760
1.666243
1.662346
1.648579
1.644942
1.649618
1.614549
1.566233
1.535320
1.490900
1.448818
1.402320
1.331663
1.278410
1.229055
1.174244
1.132161
1.080208
1.031631
0.999420
0.975522
0.945649
0.916295
0.920191
0.939674
0.933180
0.920971
0.943831
0.987732
1.030593
1.066961
1.097094
1.146710
1.208015
1.250358
1.286725
1.327249
1.369072
1.392971
1.401543
1.422584
1.435053
1.438690
1.434534
1.417389
1.418429
1.419468
1.409337
1.389335
1.382841
1.414013
1.402324
1.362319
1.366216
1.374789
1.370113
1.349851
1.329329
1.338681
1.345695
1.325173
1.310886
1.306211
1.294002
1.297898
1.295301
1.265947
1.243607
1.229580
1.206720
1.192953
1.163079
1.108009
1.081253
1.042028
1.006180
0.999686
0.958123
0.908508
0.868503
0.833695
0.805120
0.756544
0.707448
0.680951
0.633674
0.574447
0.540677
0.496257
0.458071
0.420665
0.364295
0.318056
0.286105
0.250777
0.190511
0.144792
0.107385
0.061406
0.022441
-0.037305
-0.080427
-0.103546
-0.147966
-0.193945
-0.233949
-0.272135
-0.303307
-0.337077
-0.376561
-0.406175
-0.424099
-0.452933
-0.489040
-0.512939
-0.540474
-0.565152
-0.595285
-0.641783
-0.660746
-0.662305
-0.677111
-0.696074
-0.727506
-0.748547
-0.736338
-0.722830
-0.705945
-0.707763
-0.733221
-0.740494
-0.748547
-0.750884
-0.758418
-0.796084
-0.823100
-0.852194
-0.886223
-0.925967
-0.976103
-0.996105
-1.023640
-1.075074
-1.105726
-1.118974
-1.114039
-1.098193
-1.117156
-1.120533
-1.075852
-1.030912
-1.020781
-1.034029
-1.020002
-1.012209
-1.007533
-1.012988
-1.043121
-1.050914
-1.054810
-1.061045
-1.077150
-1.095334
-1.088580
-1.069876
-1.057927
-1.045977
-1.026495
-1.008311
-0.973762
-0.945707
-0.930900
-0.887518
-0.849592
-0.832707
-0.808808
-0.778935
-0.739450
-0.710876
-0.692692
-0.676326
-0.644894
-0.585147
-0.557872
-0.543065
-0.508775
-0.479421
-0.434741
-0.395256
-0.365903
-0.326418
-0.307195
-0.294466
-0.264852
-0.225368
-0.176271
-0.143541
-0.141722
-0.136527
-0.122499
-0.106653
-0.097561
-0.118602
-0.131590
-0.144839
-0.169776
-0.178348
-0.200948
-0.231341
-0.275501
-0.340703
-0.403047
-0.455260
-0.497083
-0.548517
-0.613978
-0.690350
-0.752434
-0.806986
-0.879461
-0.947520
-1.018436
-1.096886
-1.172998
-1.259760
-1.344964
-1.423414
-1.499526
-1.580573
-1.682402
-1.778516
-1.888138
-1.978537
-2.040882
-2.126345
-2.201418
-2.281426
-2.340913
-2.385074
-2.445859
-2.497293
-2.539635
-2.561715
-2.591329
-2.626138
-2.640425
-2.634190
-2.620163
-2.608993
-2.610291
-2.600940
-2.556000
-2.527165
-2.505864
-2.472874
-2.426635
-2.371044
-2.338313
-2.302206
-2.246355
-2.173361
-2.095950
-2.042697
-1.978794
-1.876705
-1.780851
-1.705258
-1.620833
-1.508873
-1.378210
-1.287031
-1.217413
-1.106752
-0.977647
-0.873480
-0.804642
-0.713983
-0.601503
-0.511364
-0.413691
-0.311342
-0.214189
-0.105865
-0.006894
0.074154
0.174684
0.290021
0.396007
0.493160
0.579403
0.670322
0.775788
0.868525
0.952430
1.040751
1.106473
1.174532
1.241293
1.282336
1.327536
1.363903
1.382607
1.416896
1.429885
1.434041
1.448588
1.431184
1.424690
1.396115
1.350656
1.312730
1.242593
1.180508
1.101539
1.004905
0.913727
0.824107
0.724876
0.618371
0.532388
0.436014
0.343277
0.261710
0.173130
0.092082
0.012333
-0.059882
-0.128201
-0.201196
-0.256006
-0.284841
-0.330560
-0.399138
-0.433428
-0.441740
-0.448234
-0.471873
-0.516553
-0.509279
-0.476548
-0.483822
-0.492134
-0.495251
-0.483562
-0.454208
-0.455507
-0.456026
-0.426153
-0.407449
-0.399396
-0.385109
-0.362249
-0.330298
-0.301983
-0.278604
-0.253406
-0.208986
-0.150538
-0.097285
-0.048968
0.008700
0.086890
0.160924
0.219372
0.298602
0.378870
0.440435
0.525120
0.594478
0.637859
0.697346
0.763067
0.813203
0.869572
0.939450
0.977896
1.018420
1.063360
1.107780
1.165708
1.205713
1.247276
1.280526
1.292476
1.300009
1.304685
1.291697
1.276111
1.261044
1.217663
1.178958
1.141811
1.082844
1.035826
1.000498
0.956337
0.920489
0.874510
0.818920
0.781514
0.741510
0.698128
0.641759
0.580194
0.528241
0.468234
0.407189
0.331077
0.262498
0.208467
0.144044
0.082739
0.008965
-0.049223
-0.093383
-0.153909
-0.216513
-0.286650
-0.351852
-0.420430
-0.493165
-0.566160
-0.642012
-0.711110
-0.783845
-0.845930
-0.908793
-0.957110
-0.980489
-1.032443
-1.062316
-1.057380
-1.063095
-1.052704
-1.041794
-1.037118
-1.020752
-0.989580
-0.966720
-0.949835
-0.909571
-0.887231
-0.863073
-0.820211
-0.790857
-0.758126
-0.712667
-0.673961
-0.636554
-0.588497
-0.554468
-0.507449
-0.459912
-0.426921
-0.388735
-0.363278
-0.312623
-0.267683
-0.251058
-0.223003
-0.198065
-0.161438
-0.124291
-0.099093
-0.071558
-0.048958
-0.025838
-0.012850
-0.008693
0.006114
0.017284
0.021960
0.033909
0.043261
0.056509
0.071835
0.080148
0.097553
0.110801
0.121971
0.137038
0.135219
0.131323
0.117296
0.090540
0.066381
0.033651
-0.004275
-0.054930
-0.110780
-0.160136
-0.207154
-0.250535
-0.294176
-0.332881
-0.359117
-0.383795
-0.414708
-0.436528
-0.457829
-0.480948
-0.497573
-0.523290
-0.549786
-0.568230
-0.579400
-0.587452
-0.591609
-0.579140
-0.568229
-0.540434
-0.503807
-0.471855
-0.417304
-0.379118
-0.345088
-0.303005
-0.280925
-0.262741
-0.237024
-0.223776
-0.219100
-0.207410
-0.211826
-0.197539
-0.176498
-0.166626
-0.135714
-0.111555
-0.085059
-0.052328
-0.026611
0.005600
0.041189
0.068984
0.100156
0.127692
0.151331
0.163540
0.167696
0.187179
0.179906
0.178347
0.199908
0.199129
0.208481
0.224586
0.225625
0.230561
0.234198
0.221989
0.224327
0.224067
0.221210
0.232900
0.210040
0.199130
0.199390
0.181206
0.176790
0.157308
0.142241
0.133150
0.123798
0.116005
0.090548
0.073144
0.041452
0.007423
-0.006605
-0.037257
-0.071806
-0.101939
-0.139086
-0.166621
-0.180649
-0.204547
-0.222211
-0.232082
-0.244291
-0.231823
-0.219873
-0.217016
-0.194416
-0.172595
-0.163503
-0.134669
-0.092586
-0.047646
0.008724
0.067951
0.128477
0.183028
0.246152
0.312393
0.362528
0.424093
0.485918
0.536313
0.588267
0.628271
0.666977
0.709319
0.738933
0.774261
0.817642
0.860764
0.919212
0.972724
1.009871
1.053772
1.089880
1.109363
1.131183
1.149887
1.162615
1.167031
1.158719
1.153004
1.159239
1.163395
1.177682
1.209894
1.232494
1.261068
1.302631
1.343415
1.387835
1.421086
1.441607
1.466026
1.490704
1.503692
1.505771
1.494860
1.480833
1.465507
1.427841
1.392252
1.359782
1.307568
1.260810
1.212753
1.157163
1.101053
1.041047
0.959999
0.872458
0.812192
0.741275
0.673216
0.606716
0.537617
0.486963
0.429035
0.383575
0.338376
0.305126
0.296294
0.270317
0.235248
0.206674
0.188750
0.175242
0.151344
0.124848
0.112379
0.097832
0.080947
0.073674
0.062763
0.062244
0.077311
0.081207
0.086143
0.106405
0.118874
0.133421
0.148228
0.152904
0.167971
0.180180
0.186154
0.203559
0.209274
0.220444
0.250837
0.262787
0.281230
0.312662
0.326430
0.342016
0.365395
0.378384
0.382540
0.387476
0.391373
0.383839
0.376566
0.382021
0.382801
0.376047
0.383580
0.385139
0.366436
0.362020
0.357864
0.343836
0.337082
0.317080
0.290584
0.264607
0.231097
0.201224
0.163038
0.113423
0.079393
0.051338
0.011334
-0.022176
-0.063219
-0.100885
-0.118289
-0.158034
-0.199337
-0.226612
-0.255447
-0.282203
-0.324545
-0.367146
-0.410787
-0.455208
-0.501446
-0.559894
-0.599638
-0.630031
-0.661463
-0.696531
-0.737055
-0.750043
-0.754459
-0.779137
-0.801737
-0.805114
-0.814465
-0.843299
-0.870835
-0.892395
-0.905124
-0.913696
-0.931360
-0.941231
-0.934737
-0.932399
-0.929801
-0.912397
-0.891355
-0.872912
-0.846415
-0.819919
-0.804073
-0.783551
-0.765627
-0.763289
-0.763549
-0.758613
-0.768224
-0.784849
-0.789785
-0.812125
-0.834984
-0.843557
-0.857064
-0.871092
-0.890574
-0.909277
-0.929539
-0.963828
-1.004092
-1.046694
-1.095790
-1.142808
-1.193463
-1.254248
-1.316593
-1.385171
-1.436605
-1.475051
-1.539213
-1.591167
-1.638964
-1.696892
-1.724947
-1.763392
-1.806774
-1.841063
-1.883924
-1.915097
-1.940034
-1.960556
-1.979778
-1.993027
-2.001079
-2.003677
-1.999520
-2.001079
-1.999001
-1.995883
-1.990688
-1.993805
-2.003416
-2.012248
-2.034848
-2.044979
-2.058487
-2.079268
-2.091477
-2.122649
-2.147846
-2.166550
