EVENT_NAME: 202302060117
EVENT_ID: 13194
EVENT_DATE_YYYYMMDD: 2023/02/06
EVENT_TIME_HHMMSS: 01:17:32.00000
EVENT_LATITUDE_DEGREE: 37.288
EVENT_LONGITUDE_DEGREE: 37.043
EVENT_DEPTH_KM: 8.6
HYPOCENTER_REFERENCE: AFAD
MAGNITUDE_W: 7.7
MAGNITUDE_W_REFERENCE: AFAD
MAGNITUDE_L: 
MAGNITUDE_L_REFERENCE: 
FOCAL_MECHANISM: 
NETWORK: TK
STATION_CODE: 0131
STATION_NAME: 
STATION_LATITUDE_DEGREE: 37.856602
STATION_LONGITUDE_DEGREE: 36.115347
STATION_ELEVATION_M: 769.0
LOCATION: Kahramanmaras_Pazarck_Turkiye
SENSOR_DEPTH_M: 
VS30_M/S: None
SITE_CLASSIFICATION_EC8: unknown
MORPHOLOGIC_CLASSIFICATION: 
EPICENTRAL_DISTANCE_KM: 103.35
EARTHQUAKE_BACKAZIMUTH_DEGREE: 
DATE_TIME_FIRST_SAMPLE_YYYYMMDD_HHMMSS: 2023/02/06 01:17:29.8683590
DATE_TIME_FIRST_SAMPLE_PRECISION: millisecond
SAMPLING_INTERVAL_S: 0.01
NDATA: 12501
DURATION_S: 
STREAM: HNZ
UNITS: cm/s^2
INSTRUMENT: sensor = ACEBOX/SARA | digitizer = 
INSTRUMENT_ANALOG/DIGITAL: 
INSTRUMENTAL_FREQUENCY_HZ: 
INSTRUMENTAL_DAMPING: 
FULL_SCALE_G: 
N_BIT_DIGITAL_CONVERTER: 
PGA_CM/S^2: 49.399
TIME_PGA_S: 
BASELINE_CORRECTION: BASELINE REMOVED
FILTER_TYPE: BUTTERWORTH
FILTER_ORDER: 
LOW_CUT_FREQUENCY_HZ: 
HIGH_CUT_FREQUENCY_HZ: 
LATE/NORMAL_TRIGGERED: 
DATABASE_VERSION: 
HEADER_FORMAT: DYNA 1.2
DATA_TYPE: Acceleration
PROCESSING: Automatic Paolucci et al., 2011
DATA_TIMESTAMP_YYYYMMDD_HHMMSS: 
DATA_LICENSE: U (unknown license)
DATA_CITATION: Turkish Accelerometric Archive v 1.0 - Disaster And Emergency Management Presidency, Earthquake Department
DATA_CREATOR: AFAD
ORIGINAL_DATA_MEDIATOR_CITATION: : AFAD - Disaster And Emergency Management Presidency
ORIGINAL_DATA_MEDIATOR: AFAD PROCESS SERVICE
ORIGINAL_DATA_CREATOR_CITATION: AFAD PROCESS SERVICE
ORIGINAL_DATA_CREATOR: network: TK
USER1: GuestUser
USER2: 
USER3: 
USER4: 
USER5: 
[...]
5.859337
1.863506
-1.619140
-0.182691
3.457998
4.951727
0.267363
-3.496073
1.025798
1.966129
-4.575521
-6.849668
-3.622333
0.302888
-2.504551
-8.443004
-4.223666
-1.515594
-1.904401
3.403730
-4.584656
-14.709015
-7.359600
-3.133950
-2.334832
-0.189511
-4.974173
-4.100709
-0.054147
-3.971890
-1.953052
7.611592
2.526967
-17.010537
-21.715241
-10.356904
-0.594233
11.630089
16.397915
7.581652
4.855340
3.319056
-4.680319
-7.024839
-1.314109
9.126807
13.122167
0.983645
-11.312924
-8.795397
0.485418
8.126144
10.029252
3.042921
-2.394270
-1.394789
-0.961097
0.176325
3.223871
3.178045
-4.394417
-6.920364
1.831367
1.758888
3.991650
19.197355
18.784701
-1.839493
-27.199951
-36.255155
-22.318969
-3.843844
19.808489
29.196850
8.066953
-10.214593
-18.592719
-17.789628
-2.137604
5.980069
7.661771
12.043598
9.704688
1.436446
-9.826271
-13.273848
-1.926733
8.782115
10.648049
5.825044
-1.237739
-2.185789
0.308124
-0.322896
-0.169527
3.422299
3.888956
-1.078068
-3.219419
-0.398657
2.806702
4.901991
-0.095895
-8.115377
-4.767636
0.890257
-0.381836
-0.328532
-0.342328
1.394550
2.962393
-3.018844
-1.293656
6.972712
4.561793
-4.193917
-12.799294
-12.720039
-2.273044
9.469188
17.680614
9.533245
-7.408174
-13.048301
-12.606426
-2.708620
12.887292
11.192961
1.092450
-5.286710
-12.491408
-9.734005
-0.752685
-3.473853
-11.970983
-16.454047
-13.988423
-4.558446
5.286755
12.410322
13.625833
4.925299
-12.210873
-21.439320
-9.616662
-0.080307
0.348709
11.742349
19.979025
16.415719
11.482361
0.812086
-5.120521
1.423229
3.056067
-1.649338
-0.684225
1.105257
-6.490818
-12.812464
-2.296498
9.574089
4.936952
-2.204621
-3.748153
-6.414612
-6.087532
-4.508700
-7.577057
-10.661780
-10.923167
-7.514171
-4.408878
-2.294651
9.052230
18.456723
9.869348
-0.021213
-0.071715
0.110878
0.484952
1.795384
1.002108
-1.160752
-5.833894
-6.470993
2.394598
16.319093
26.601028
19.191523
4.185945
-3.342095
-12.923576
-16.461866
-5.260173
10.548963
20.472018
11.977460
-1.808865
-6.094838
-7.143421
-0.625622
7.525016
9.017342
10.000692
6.316747
-0.771988
1.395545
12.013913
15.613454
8.115574
2.126388
0.952022
0.299960
1.659723
3.197640
-4.353546
-15.304612
-12.056936
2.133154
14.703495
14.318897
-0.425061
-10.893336
-12.993772
-10.025952
-2.305968
4.795155
13.651160
13.135869
4.486303
5.900775
2.218934
-11.486030
-19.136813
-17.882259
-6.693191
4.459404
3.342787
-7.956637
-20.478119
-23.176842
-14.169571
-3.770270
1.664112
8.248776
8.390222
-5.461800
-14.001014
-13.698014
-10.874680
-1.144741
8.036008
10.289111
6.026283
-0.084711
-8.737550
-20.175849
-12.940995
4.665808
6.055263
4.805148
5.871963
-1.639010
-8.924368
-10.568432
-5.301216
7.343474
12.235680
2.151534
-9.620861
-12.790452
-7.498921
-1.751718
1.776047
7.727589
7.081605
1.101537
3.913181
7.184470
3.121774
-2.625666
-1.723211
9.926438
16.174668
5.821655
-12.815729
-22.068725
-7.825096
10.082370
11.081150
5.923347
2.453793
-2.753575
-12.813172
-16.709171
-5.575981
2.069422
3.321872
9.530824
7.548222
-1.849261
1.237328
10.539886
11.809637
8.913121
1.265845
-10.964092
-12.280139
-4.296665
-2.941812
-6.810925
-6.787781
1.474613
11.634505
9.773711
-6.710401
-19.996166
-11.037524
3.958231
0.674780
-12.720636
-20.848366
-11.611973
9.627104
19.799621
19.438169
12.350369
-0.077360
0.546176
9.076033
6.713978
3.291652
11.979089
18.197159
8.722757
0.706782
-2.792697
-13.079311
-10.706271
5.967213
14.811762
18.515576
12.982762
-2.278590
-6.671642
-5.248988
-9.173978
-14.198984
-13.763889
1.247296
16.695916
14.045355
1.949852
-10.275877
-16.261322
-9.760124
0.076895
-0.732046
-6.599190
-3.736578
3.224500
9.416619
12.293025
1.385913
-11.985422
-7.705765
7.167714
17.095679
17.780236
7.795922
-4.438223
-5.119043
-4.122600
-10.083497
-8.915915
3.500120
16.150421
14.596603
2.817895
-1.548037
-4.863051
-6.706544
1.892284
6.326014
5.724218
4.622096
-0.796859
-0.891081
2.682274
7.019913
12.791431
8.105664
3.547317
8.785543
7.409177
2.151074
2.518134
-2.186102
-11.511108
-9.737524
0.119134
5.618745
6.397288
1.525886
-6.543160
-11.322446
-11.480962
-4.642862
4.222495
6.186858
3.308344
0.838508
-5.189722
-14.493452
-10.504639
1.043775
-0.078921
-0.925503
3.944492
-0.067237
-3.799812
-1.970116
-8.444432
-18.258541
-15.979721
-7.475581
-3.679417
0.665937
4.171492
-1.674143
-7.408490
-9.296873
-12.538474
-6.646083
4.793148
9.857662
12.566436
4.828914
-12.755682
-21.346564
-19.916428
-10.289594
5.943650
20.584267
25.383889
11.903605
-6.082421
-16.098297
-19.144444
-3.055453
17.055786
17.034275
8.144833
-1.817737
-11.782179
-20.101622
-15.951255
6.868993
11.297813
-4.260462
-3.916548
-1.107709
-3.255840
-1.235366
-3.842441
-2.389159
8.194140
12.906088
3.554897
-10.539339
-13.506696
-10.271411
-5.551747
6.315800
10.090221
1.483908
2.182259
9.598774
4.465753
-7.061389
-6.973950
4.706793
15.844659
15.632369
1.477112
-10.328482
-11.489521
-12.626012
-1.532333
22.037001
26.052701
14.671682
1.724923
-15.696716
-19.875376
-13.088009
-10.414539
1.528291
16.301470
18.193590
12.793339
-2.296873
-17.130610
-15.617476
-4.103197
16.115122
33.343874
29.465176
10.658288
-14.725317
-27.505144
-17.742006
-6.657913
3.229371
12.940606
13.974222
11.782137
3.572345
-8.675595
-16.840264
-21.620485
-8.452090
16.798481
22.216497
10.131748
-3.655278
-10.768796
-3.611328
6.749630
11.986921
10.070015
-0.010390
-3.885347
-5.024643
-9.919425
-5.067665
1.527286
1.615426
3.050939
2.404722
-1.801059
-4.177142
1.735589
13.197498
19.340285
19.865860
9.823097
-3.813598
-2.309582
0.971761
2.047226
10.953965
10.000304
-1.542736
-3.851252
3.903334
11.295768
11.037654
4.288393
-5.224352
-11.828893
-12.251367
-7.278033
3.502825
3.716514
-6.597221
1.045143
14.094535
10.488444
1.466674
-11.546484
-21.859751
-18.017762
-10.723055
-3.716387
1.118539
-0.721681
1.402131
9.678787
11.046499
-1.292855
-10.224146
-0.540031
7.900282
10.539851
18.509297
14.510894
0.720127
-6.227394
-10.764933
-6.446232
6.991498
14.026923
12.145321
2.972050
-5.739706
-6.960363
-5.966726
0.456852
9.678515
10.780634
11.180192
4.341386
-20.212238
-30.969486
-16.469615
-3.174969
6.319302
8.877042
-2.313899
-3.879174
8.486128
7.399437
-6.876460
-9.956741
-1.545886
1.612713
-3.048738
-10.100066
-12.704803
-6.015865
-0.798447
-0.430919
7.580376
14.732466
13.335526
12.277825
2.158610
-8.970609
-2.144899
7.412263
19.439260
29.832015
15.700371
-3.193489
-10.243414
-9.928958
1.929004
8.816903
5.783382
2.267537
-14.793119
-30.033196
-17.876675
1.142731
15.038937
26.296040
20.165640
3.288515
-11.969330
-22.037343
-11.243627
6.155330
9.000407
7.222845
-3.016308
-21.449822
-24.861627
-6.890100
14.907051
22.425034
18.326566
5.200718
-15.251868
-22.436928
-17.674947
-10.524961
6.902519
15.924287
4.675597
-4.159136
-7.450769
-14.825672
-18.060493
-8.083664
7.912276
15.325751
9.791067
0.968959
-1.573354
-2.915586
0.448287
14.828454
18.042463
9.387754
4.465151
-5.613383
-8.725227
-0.081276
1.280124
3.808639
9.967091
11.594318
9.309650
0.074188
-6.228988
-4.589837
-1.232977
3.404857
4.467230
1.934970
-2.239014
-6.099243
-4.826452
-0.507985
6.753757
6.503124
-8.082086
-19.679835
-18.363558
-3.839840
6.974918
-1.453943
-9.010740
-7.864901
-1.105356
10.615600
13.297955
14.289253
16.312299
11.445807
10.679184
5.374556
-8.070659
-14.618387
-14.317725
-1.460514
18.829346
24.628919
6.396238
-23.179352
-28.388357
-9.412905
2.563826
5.671458
3.481243
1.540724
1.394131
-3.249786
1.497466
9.181445
5.835571
5.309759
6.175742
3.108320
1.610379
-2.722119
-8.513046
-3.973874
10.189329
16.849744
11.705033
5.852151
1.327470
-1.780165
-2.940736
-7.574600
-11.252466
-2.430829
11.004562
13.317751
10.191178
9.114072
6.552120
4.016353
0.360464
-5.413395
-7.648499
-6.940563
-4.503929
-4.346819
-10.900626
-10.474883
3.368017
14.882531
11.242306
0.306437
0.912671
1.888072
-6.018018
0.874791
10.442708
6.626200
9.390150
12.084661
10.212645
15.077730
11.315697
-5.620579
-16.084411
-9.248181
1.668513
-0.209115
-2.229359
3.690620
4.305505
0.239535
-3.927435
-5.196021
0.134789
2.706089
0.873818
2.974953
4.067485
-5.099473
-15.631341
-8.897046
1.400085
-6.722034
-16.826052
-20.217049
-19.115164
-0.929246
15.391672
7.038328
-3.347182
-0.182972
2.948507
-1.664549
-4.844427
6.154797
22.100704
23.640257
16.045819
8.054159
0.285775
1.129548
5.067627
3.299417
5.044010
5.668949
-5.242605
-12.412000
-4.081104
4.480784
4.824230
6.089305
4.651918
-0.299442
3.021412
6.992457
8.913801
13.423749
4.212368
-9.320053
-10.278156
-11.421660
-8.063398
-3.074634
-5.734079
0.519528
7.762799
8.338407
6.730815
-7.579918
-17.454347
-6.769346
13.430970
28.388616
20.742976
2.804177
-5.158726
-5.843520
-1.086215
1.288229
1.102358
1.709528
-8.784230
-16.877125
-8.819537
-8.623617
-17.963820
-11.571103
2.276474
3.465565
-1.873198
-9.781859
-13.599771
0.582370
10.652718
1.083861
-10.940568
-25.550093
-31.152111
-10.101942
14.754212
16.077269
-3.660365
-15.540541
-15.980316
-23.873547
-22.809771
-10.564875
-0.545963
14.428984
18.666090
0.325628
-18.497157
-18.150204
-3.202612
11.662918
22.812708
18.908526
1.246777
-7.954316
-14.177767
-19.961446
-14.152521
-6.232874
3.987338
21.031157
23.998977
9.120118
1.452267
4.959692
14.060950
22.374078
9.932087
-7.866433
-9.740788
-8.728681
-3.596132
7.277777
15.207244
12.667970
-2.878615
-9.069101
-4.482234
-5.551157
-6.568410
-4.787345
-0.123792
-0.040796
-1.291146
12.422933
20.659608
16.195248
18.155636
19.712490
13.650125
1.178209
-8.674478
-4.977209
-0.353636
-2.736968
-5.564280
-7.701188
-5.974364
1.716863
5.934096
2.017055
-1.947914
-5.239548
-6.942996
-2.010110
3.778709
8.744327
9.857200
7.554062
8.083611
-4.590073
-22.164615
-19.532060
-7.393775
7.586549
11.306028
-5.031961
-18.067797
-27.120195
-24.202874
-4.652749
4.110906
6.012845
6.395336
-2.033993
-14.036912
-24.524358
-23.992471
-15.241909
5.646472
23.915623
8.870533
-2.119810
0.076713
-11.821232
-9.950621
-1.614114
-3.241579
3.969429
9.193159
11.116140
13.689778
7.415359
5.369164
8.504851
5.498684
-0.404465
-9.471592
-10.677053
6.893511
22.237624
21.342880
3.433540
-23.754044
-28.592714
-17.646795
-11.650833
4.910663
13.514634
-3.585534
-17.894396
-17.205864
-13.709428
-10.972833
1.674428
10.629797
1.877127
-7.950543
-16.089261
-13.295152
0.616251
12.295826
29.304341
34.533215
26.125162
7.350773
-24.796821
-15.940816
19.558024
21.556521
13.585202
8.961391
-0.733482
-3.450675
-0.639966
-5.522590
-6.924207
10.458852
12.988537
-2.385506
-6.221419
-7.235634
6.029554
23.273971
12.646013
-0.887343
-1.278722
6.845497
9.715123
-5.905341
-7.703244
4.804674
-1.655146
-7.916239
1.466979
3.847267
-3.367251
-4.500000
0.332120
2.423435
-0.058793
-4.104189
-5.077956
4.621589
21.083954
23.598676
10.007338
-6.419494
-18.863355
-16.175389
-4.599387
6.484939
19.157685
15.189676
4.056014
3.748101
-6.974778
-11.538502
1.546427
-2.058495
-11.889671
-9.602434
-3.590807
5.193422
6.918143
1.962808
-4.015858
-8.552228
4.252379
16.956921
7.149825
-8.166703
-18.541926
-17.776008
-4.692481
5.215611
6.095389
6.275411
16.401636
18.535502
0.579870
-15.547233
-29.499087
-26.705679
-2.131484
4.301914
12.749475
30.133001
17.900493
7.837389
10.884701
1.717040
-2.266165
4.738399
19.102901
28.505056
14.533096
0.579840
2.175738
5.946886
6.294541
0.203653
-9.566503
-12.653330
-6.794372
-2.141341
-1.571111
2.445290
7.122871
8.136614
2.971797
-5.515280
-4.434203
0.824831
2.556332
9.375962
17.632043
16.489007
5.786701
-7.466566
-17.927359
-17.043607
0.724983
12.674828
4.732966
-4.750086
-7.913599
-8.206315
-1.112440
9.251791
3.011273
-10.417576
-9.950919
-17.867062
-26.792041
-16.526238
-14.274773
-6.556893
14.640101
14.740164
5.807236
-1.490747
-9.515840
-2.730344
8.465504
7.906026
-5.220991
-18.523824
-17.654100
-14.927324
-15.108752
-6.677323
2.778605
2.163950
-6.265378
-11.237312
-4.042437
5.521740
6.793595
2.947161
-1.805706
0.310625
11.392380
16.832139
10.449005
4.183937
5.382380
3.544498
-3.600815
-4.869167
-5.499253
-3.373336
9.254520
14.335634
8.430615
8.261578
17.724988
28.872907
29.570323
22.495382
13.885328
2.992712
-0.178516
5.367387
14.165410
18.734742
1.387685
-23.268577
-33.076607
-32.621406
-20.154636
0.672256
18.904700
20.652333
5.165133
-3.274249
-6.892263
-1.222448
16.144012
16.212279
14.013414
7.981676
-12.022253
-11.736321
-7.571926
-11.222438
-10.258026
-13.714019
-6.742421
-1.005037
-7.869795
-3.751691
0.037459
-8.202493
-14.751624
-11.522886
-6.311780
-2.261244
5.470429
-1.565233
-19.423606
-23.519735
-20.845330
-12.100613
5.593162
19.904125
25.097696
14.354242
-4.380402
-10.823857
-9.495189
6.380813
38.193371
40.215949
22.509779
18.273605
2.041059
-7.108832
-1.240757
-10.660684
2.160756
31.187620
24.800511
2.488768
-9.303032
-5.842367
3.705912
-0.980323
-10.610901
-15.091160
-21.653617
-24.525117
-16.362789
-1.914821
11.543483
14.788821
4.922341
-2.296385
2.827046
2.408547
-7.604056
-2.304575
9.986613
3.515804
-1.514346
8.173042
6.682583
-8.631608
-9.638808
13.684805
40.279710
49.399205
38.928592
13.315399
-13.157701
-13.830338
7.410610
25.317374
38.465663
29.609421
2.268465
-3.870117
-6.879558
-4.416505
18.296897
20.592317
17.250417
12.942701
-5.153911
-2.699041
-0.226403
3.928640
25.015048
28.941203
25.476326
2.126524
-29.221483
-19.706871
-7.951780
-0.502300
9.705287
-3.576270
-5.758535
1.301907
0.386588
14.179223
18.834592
11.351909
8.844197
-7.879089
-22.759819
-21.496380
-10.642812
16.004230
21.089786
0.263124
5.026975
11.182855
-8.041594
-19.307351
-16.855287
-12.235689
-3.197789
7.174858
4.245143
-5.734495
-1.320638
-1.422108
-18.635667
-27.058216
-23.464052
-14.972771
2.784130
10.604179
-2.713383
-7.944832
-0.843242
0.709638
4.328116
5.507154
-1.662007
0.306798
12.107245
17.507259
16.266495
16.222773
6.732005
-9.219516
-14.704402
-16.497161
-8.700726
3.593969
-6.293319
-17.673169
-12.379533
-3.685316
3.718808
-0.756073
-7.042182
3.446429
8.491539
-0.290122
-3.747050
-2.244905
-2.441530
-3.226857
-0.759362
6.527629
14.855720
16.602651
5.150558
-3.515841
-0.289441
3.014581
11.396912
12.030735
-5.362147
-15.961348
-14.611872
1.297095
19.344372
18.180060
20.572272
19.811260
3.679948
-1.595923
-4.427911
-8.265461
-1.182107
5.086697
4.940338
-1.404921
1.295903
20.732871
30.400152
19.920188
3.255351
-5.133764
-6.149849
-6.920213
-4.288359
-3.956836
-2.598242
3.618659
5.291009
6.786843
0.857041
-8.287240
-2.255038
5.033122
6.143424
-1.419920
-14.334649
-13.656638
-4.846224
5.180871
7.576590
-8.079646
-28.503241
-38.008505
-23.404360
2.689517
12.588725
1.931075
-16.535170
-18.079636
4.351807
33.024701
36.255076
10.984396
5.112810
16.448702
19.131991
22.368679
11.022730
-5.039846
2.247613
13.627927
16.361717
13.675618
8.075705
8.279340
12.617447
14.262910
10.980628
12.227234
22.479008
20.623591
4.452534
-7.885885
-8.721244
1.211397
-0.714860
-5.397120
6.237799
0.473058
-10.993764
-16.449425
-33.216198
-16.486135
21.036454
28.458113
17.579524
-4.886291
-17.550623
-5.974153
2.649691
-3.146378
-4.200338
10.682492
12.201004
7.713731
10.763147
-10.567348
-19.500042
1.660713
7.038983
7.006718
4.789382
-0.387592
10.357027
20.007007
26.461447
21.465665
-3.422056
-5.267186
10.950628
9.076507
-8.428364
-28.993173
-23.436983
-7.358279
-3.153437
16.005078
19.676862
5.349764
-3.963084
-33.791408
-36.727904
-17.881274
-15.832744
19.032738
42.296734
28.269130
15.623501
-14.018253
-22.202094
-9.928207
-8.919374
5.299005
-1.575337
-19.799368
-14.687393
-12.502793
-4.180314
8.722020
16.912872
24.080627
13.870932
-7.928327
-27.335372
-26.071232
-10.720339
-14.057329
-11.757701
4.195220
-3.422364
-15.026660
-7.927641
-5.153405
-6.765439
-6.209470
-9.514430
-7.047637
-4.413445
-8.503496
-11.228639
-10.953461
4.265336
20.325803
15.561715
7.555092
-7.230015
-24.893634
-18.153027
-6.030173
-2.768001
4.532550
8.393476
13.620480
29.841333
33.264590
13.947090
-8.063990
-18.910080
-13.036160
4.551706
19.453006
18.148650
2.356578
-1.403586
2.177485
-11.322672
-12.340861
4.377746
1.984362
-4.628829
-3.775705
-0.250745
15.182678
11.868366
-7.535874
-1.018309
10.821417
14.670185
20.940159
13.713951
-4.489272
-11.836587
1.044939
-0.357378
-32.800491
-34.812552
-8.825754
2.165755
24.830761
35.183068
7.321680
-6.795702
-5.114000
-7.353312
-7.422985
-9.627228
-6.560277
-9.088562
-21.733021
-14.275826
2.943809
9.443605
10.981288
7.154258
-1.100423
-18.801216
-30.707344
-17.495462
-6.734243
6.797941
34.218851
32.307089
10.057069
-5.727521
-28.599909
-37.377362
-16.888540
-0.077350
-0.473404
2.217601
6.577216
-0.039716
-0.707676
2.298020
0.630342
8.424673
5.903402
-12.706394
-18.472071
-11.153049
-0.044641
7.944443
9.180060
5.324040
-3.769039
-9.426467
-14.351408
-12.927818
-3.738419
-11.302463
-6.942847
20.106793
17.833113
-6.624187
-26.208918
-27.537590
0.145407
24.041824
26.189250
11.913821
-4.875162
-5.234978
-4.729510
-2.844638
0.627015
-8.935294
-11.005805
-8.252844
-8.304749
1.945156
7.223127
5.733837
5.255953
-0.305150
-2.836943
-2.992420
-9.138718
-16.542377
-18.213328
-8.709705
3.065492
1.833847
-6.924668
-14.539915
-24.405693
-30.388100
-22.485520
-13.986757
-12.283078
-2.824344
5.889746
3.341120
-11.183303
-33.880110
-22.935126
7.407081
9.223684
12.280114
10.796668
-11.685278
-22.448839
-27.195393
-22.494433
-7.454490
-2.717759
-2.267000
-8.098139
-16.714038
-25.416675
-26.801225
-11.020846
-7.148698
-12.346013
-9.587207
-3.538406
2.984069
-2.754721
-4.698279
-14.406479
-44.867926
-47.458402
-32.463582
-19.735193
-3.792092
-5.749912
-12.678963
-18.469188
-21.839377
-11.909308
-7.566058
-2.925652
7.170882
5.324583
-4.172498
-6.562375
-6.985550
-13.054695
2.271883
22.817517
19.558615
24.716181
17.981883
-11.997474
-16.932235
-8.352812
-0.384302
10.740939
6.999246
0.258401
-2.004992
-10.660636
-12.470228
-8.652087
-6.817716
-0.548210
-3.104785
-5.720978
-2.168898
-17.152499
-21.912847
-2.259617
5.528870
5.011007
-2.410421
-25.141128
-36.768102
-28.227256
-17.380467
0.240363
16.741539
16.815417
26.882258
24.060323
-13.048215
-23.620061
-12.432630
-3.105290
19.544987
23.577287
9.160411
3.292565
1.564568
2.847646
-2.218743
-12.537855
-15.733865
-13.480763
-7.633261
1.065398
7.019278
-3.021381
-18.762486
-18.999324
-10.760544
3.677371
12.372757
-0.040477
-13.083794
-20.442331
-20.674728
-7.618789
-5.563245
-9.855297
-2.974178
-3.236734
0.288226
15.063276
6.005968
-17.180644
-22.021418
-14.792174
-0.445908
14.463342
11.559110
2.441249
9.162217
15.103705
3.839819
-2.130898
0.179485
-7.502393
-12.972550
-8.304555
-1.981276
6.000093
13.287786
17.148946
17.824384
15.582267
6.695163
