EVENT_NAME: 202302060117
EVENT_ID: 13194
EVENT_DATE_YYYYMMDD: 2023/02/06
EVENT_TIME_HHMMSS: 01:17:32.00000
EVENT_LATITUDE_DEGREE: 37.288
EVENT_LONGITUDE_DEGREE: 37.043
EVENT_DEPTH_KM: 8.6
HYPOCENTER_REFERENCE: AFAD
MAGNITUDE_W: 7.7
MAGNITUDE_W_REFERENCE: AFAD
MAGNITUDE_L: 
MAGNITUDE_L_REFERENCE: 
FOCAL_MECHANISM: 
NETWORK: TK
STATION_CODE: 6608
STATION_NAME: 
STATION_LATITUDE_DEGREE: 39.99367
STATION_LONGITUDE_DEGREE: 35.792573
STATION_ELEVATION_M: 943.0
LOCATION: Kahramanmaras_Pazarck_Turkiye
SENSOR_DEPTH_M: 
VS30_M/S: None
SITE_CLASSIFICATION_EC8: unknown
MORPHOLOGIC_CLASSIFICATION: 
EPICENTRAL_DISTANCE_KM: 319.85
EARTHQUAKE_BACKAZIMUTH_DEGREE: 
DATE_TIME_FIRST_SAMPLE_YYYYMMDD_HHMMSS: 2023/02/06 01:18:04.6230790
DATE_TIME_FIRST_SAMPLE_PRECISION: millisecond
SAMPLING_INTERVAL_S: 0.01
NDATA: 18251
DURATION_S: 
STREAM: HNN
UNITS: cm/s^2
INSTRUMENT: sensor = ACEBOX/SARA | digitizer = 
INSTRUMENT_ANALOG/DIGITAL: 
INSTRUMENTAL_FREQUENCY_HZ: 
INSTRUMENTAL_DAMPING: 
FULL_SCALE_G: 
N_BIT_DIGITAL_CONVERTER: 
PGA_CM/S^2: 11.178
TIME_PGA_S: 
BASELINE_CORRECTION: BASELINE REMOVED
FILTER_TYPE: BUTTERWORTH
FILTER_ORDER: 
LOW_CUT_FREQUENCY_HZ: 
HIGH_CUT_FREQUENCY_HZ: 
LATE/NORMAL_TRIGGERED: 
DATABASE_VERSION: 
HEADER_FORMAT: DYNA 1.2
DATA_TYPE: Acceleration
PROCESSING: Automatic Paolucci et al., 2011
DATA_TIMESTAMP_YYYYMMDD_HHMMSS: 
DATA_LICENSE: U (unknown license)
DATA_CITATION: Turkish Accelerometric Archive v 1.0 - Disaster And Emergency Management Presidency, Earthquake Department
DATA_CREATOR: AFAD
ORIGINAL_DATA_MEDIATOR_CITATION: : AFAD - Disaster And Emergency Management Presidency
ORIGINAL_DATA_MEDIATOR: AFAD PROCESS SERVICE
ORIGINAL_DATA_CREATOR_CITATION: AFAD PROCESS SERVICE
ORIGINAL_DATA_CREATOR: network: TK
USER1: GuestUser
USER2: 
USER3: 
USER4: 
USER5: 
[...]
-2.813031
-2.748970
-2.666438
-2.566372
-2.456253
-2.330703
-2.185280
-2.015776
-1.824529
-1.621124
-1.412342
-1.202158
-0.998987
-0.818728
-0.661148
-0.523441
-0.424543
-0.375679
-0.388537
-0.491874
-0.708370
-1.034983
-1.433607
-1.881795
-2.379782
-2.907696
-3.453144
-4.019400
-4.603892
-5.205685
-5.819168
-6.424702
-6.999843
-7.525418
-7.983894
-8.367788
-8.674763
-8.886816
-9.006987
-9.059122
-9.052341
-9.008620
-8.946897
-8.868340
-8.779730
-8.669844
-8.528162
-8.357256
-8.143330
-7.890361
-7.620324
-7.327141
-6.990005
-6.619669
-6.268504
-5.973919
-5.748771
-5.580904
-5.434312
-5.303385
-5.191862
-5.071923
-4.936788
-4.808432
-4.680778
-4.509637
-4.280047
-4.025441
-3.766393
-3.490044
-3.161090
-2.761763
-2.305156
-1.808336
-1.293747
-0.761390
-0.201912
0.352890
0.886883
1.402173
1.862287
2.240339
2.524637
2.698817
2.770126
2.759138
2.696715
2.598288
2.472272
2.347425
2.198731
2.014967
1.875859
1.773690
1.658663
1.615879
1.659834
1.707530
1.746107
1.744471
1.730211
1.822094
2.031811
2.356556
2.793992
3.250131
3.678916
4.095310
4.547475
5.084976
5.614995
6.032792
6.356836
6.625704
6.846409
6.979207
6.994171
6.948815
6.901122
6.830048
6.697720
6.502266
6.271743
6.017139
5.728868
5.422594
5.127777
4.851196
4.588408
4.333337
4.083174
3.830440
3.558535
3.260678
2.933363
2.566302
2.162068
1.730713
1.300059
0.914295
0.593993
0.339857
0.148845
0.003424
-0.109499
-0.196704
-0.258192
-0.266374
-0.199975
-0.057357
0.155399
0.413278
0.680276
0.933479
1.169148
1.390788
1.594661
1.776322
1.947463
2.107147
2.225917
2.302136
2.335336
2.309385
2.241819
2.125389
1.945600
1.746639
1.549549
1.369994
1.248654
1.195583
1.224808
1.332824
1.480818
1.646114
1.802057
1.927374
2.029778
2.115115
2.184554
2.229444
2.233419
2.184089
2.085193
1.960814
1.850463
1.800431
1.824279
1.904239
2.026983
2.167497
2.309646
2.440574
2.530119
2.567060
2.542278
2.451566
2.304976
2.096430
1.844631
1.578103
1.302223
1.032656
0.768466
0.505679
0.262530
0.053984
-0.084890
-0.135390
-0.115282
-0.026672
0.104255
0.242430
0.377566
0.479035
0.526497
0.517146
0.439526
0.294105
0.090469
-0.148939
-0.388580
-0.594087
-0.745820
-0.852197
-0.911113
-0.923503
-0.912514
-0.895680
-0.887963
-0.905264
-0.961608
-1.069387
-1.221121
-1.424290
-1.681700
-1.957579
-2.239304
-2.526406
-2.796675
-3.050344
-3.286011
-3.479126
-3.636939
-3.765292
-3.856005
-3.921935
-3.950223
-3.914685
-3.823737
-3.672937
-3.457375
-3.201833
-2.930628
-2.677191
-2.469110
-2.290020
-2.113035
-1.931374
-1.747374
-1.558933
-1.361841
-1.166853
-0.986594
-0.811713
-0.641274
-0.467795
-0.263923
-0.028488
0.239912
0.549694
0.876544
1.195210
1.496342
1.754221
1.948976
2.087618
2.183944
2.240056
2.266710
2.289389
2.329136
2.408160
2.537451
2.715605
2.947533
3.217336
3.483632
3.715794
3.878050
3.958243
3.979754
3.942581
3.860986
3.778223
3.694291
3.595863
3.497903
3.412568
3.349210
3.326766
3.369084
3.492998
3.691960
3.929499
4.167740
4.385172
4.571276
4.743117
4.915193
5.073709
5.230821
5.390506
5.525875
5.644178
5.737230
5.774405
5.761547
5.694214
5.575446
5.428155
5.246729
5.033273
4.801113
4.537391
4.241404
3.928585
3.618570
3.351107
3.148640
2.999712
2.902687
2.865514
2.880010
2.934486
3.023330
3.129943
3.231879
3.319320
3.380108
3.389695
3.326804
3.181150
2.959978
2.696490
2.422013
2.159459
1.941795
1.792633
1.727171
1.759436
1.882648
2.075999
2.316812
2.570482
2.794461
2.956951
3.027793
2.984541
2.834678
2.592933
2.282217
1.945784
1.602804
1.268709
0.966410
0.687257
0.426106
0.188335
-0.037278
-0.264528
-0.523107
-0.838732
-1.210703
-1.641123
-2.128589
-2.660711
-3.210367
-3.749970
-4.274143
-4.761375
-5.183846
-5.546699
-5.852738
-6.107343
-6.322903
-6.504095
-6.650217
-6.759166
-6.837253
-6.875595
-6.856422
-6.786516
-6.675929
-6.545002
-6.419452
-6.316346
-6.262104
-6.264441
-6.310498
-6.392327
-6.490754
-6.610457
-6.755177
-6.899663
-7.049760
-7.220898
-7.385257
-7.535821
-7.688490
-7.834379
-7.982605
-8.153978
-8.339144
-8.528285
-8.692878
-8.792240
-8.808839
-8.719995
-8.518227
-8.229253
-7.857047
-7.399271
-6.856393
-6.219528
-5.525149
-4.811365
-4.067655
-3.308748
-2.544464
-1.782518
-1.084866
-0.444962
0.190500
0.820351
1.453007
2.059712
2.602356
3.133779
3.672448
4.205040
4.736695
5.192835
5.522490
5.770082
5.972785
6.171514
6.373282
6.515198
6.598431
6.683534
6.793186
6.915930
7.014827
7.078187
7.136404
7.198127
7.245589
7.270840
7.290246
7.323212
7.351269
7.356881
7.329761
7.235776
7.068846
6.840193
6.537426
6.159611
5.713994
5.211799
4.687626
4.159713
3.623383
3.092898
2.582987
2.092715
1.633304
1.210600
0.821094
0.494013
0.235668
0.017302
-0.158746
-0.302297
-0.445614
-0.589164
-0.739261
-0.912270
-1.100242
-1.296397
-1.511256
-1.737571
-1.959677
-2.173601
-2.350351
-2.476133
-2.555155
-2.560298
-2.494132
-2.384247
-2.234148
-2.056227
-1.864045
-1.672330
-1.506801
-1.382653
-1.289367
-1.215487
-1.171532
-1.150723
-1.139967
-1.139966
-1.134822
-1.118221
-1.094139
-1.051821
-1.000151
-0.951754
-0.899616
-0.855428
-0.850283
-0.903354
-1.023057
-1.204717
-1.435941
-1.695222
-1.937201
-2.133590
-2.272464
-2.330913
-2.325301
-2.280644
-2.203257
-2.115348
-2.001955
-1.859104
-1.722332
-1.588365
-1.460945
-1.355735
-1.262449
-1.177112
-1.097620
-1.032156
-0.990539
-0.970198
-0.983056
-1.023502
-1.084054
-1.178975
-1.295171
-1.416979
-1.547904
-1.686311
-1.829628
-1.979959
-2.131225
-2.278048
-2.424171
-2.566552
-2.702621
-2.842899
-2.991359
-3.146833
-3.312127
-3.496125
-3.713789
-3.974472
-4.280512
-4.627466
-4.994293
-5.356444
-5.704333
-6.033753
-6.333246
-6.599774
-6.822582
-6.971977
-7.030893
-7.002603
-6.879157
-6.644190
-6.283206
-5.783347
-5.157237
-4.449765
-3.688520
-2.895479
-2.118336
-1.410397
-0.801822
-0.305937
0.065100
0.318070
0.468403
0.517033
0.488745
0.407384
0.285109
0.140390
-0.014617
-0.165415
-0.299848
-0.404822
-0.474492
-0.493663
-0.412300
-0.239991
0.013914
0.401784
0.903982
1.486138
2.124873
2.777402
3.442790
4.086903
4.727742
5.421887
6.071143
6.610046
7.073901
7.444704
7.792596
8.219510
8.639177
8.899395
9.007878
9.075446
9.130857
9.162888
9.175982
9.123846
9.021443
8.933303
8.837447
8.700443
8.516211
8.301119
8.076674
7.823473
7.560452
7.299301
7.015472
6.738657
6.469090
6.162583
5.816564
5.437345
5.039423
4.633318
4.221836
3.820875
3.438851
3.090728
2.777674
2.487533
2.231058
1.989780
1.747333
1.507692
1.250984
0.973000
0.675611
0.347126
-0.004504
-0.360342
-0.701218
-1.014271
-1.281968
-1.478123
-1.588709
-1.602034
-1.533063
-1.429957
-1.314928
-1.190781
-1.080428
-0.988077
-0.895258
-0.808051
-0.730663
-0.650470
-0.579628
-0.513930
-0.420411
-0.305849
-0.177961
-0.021082
0.145383
0.294780
0.422902
0.521565
0.599421
0.680082
0.763782
0.850054
0.942171
1.005064
1.014416
0.981686
0.899858
0.769166
0.601067
0.374518
0.077596
-0.290400
-0.739757
-1.262059
-1.827614
-2.411872
-2.995195
-3.553970
-4.067154
-4.518148
-4.899938
-5.214862
-5.448658
-5.604834
-5.714718
-5.804261
-5.883985
-5.955059
-6.040861
-6.145368
-6.232807
-6.300373
-6.332637
-6.307619
-6.253377
-6.157286
-6.006252
-5.830435
-5.613704
-5.350681
-5.064513
-4.758004
-4.455469
-4.183562
-3.952102
-3.775116
-3.659619
-3.598597
-3.569372
-3.556044
-3.559317
-3.560952
-3.538273
-3.502969
-3.474444
-3.459480
-3.464389
-3.492912
-3.526110
-3.542942
-3.538265
-3.510209
-3.470696
-3.431885
-3.400555
-3.379980
-3.361977
-3.352624
-3.359637
-3.367585
-3.380209
-3.406861
-3.430941
-3.455489
-3.495000
-3.544798
-3.604181
-3.667072
-3.718506
-3.752172
-3.751937
-3.700969
-3.594590
-3.427424
-3.199938
-2.910964
-2.562138
-2.170760
-1.763250
-1.360884
-0.967636
-0.597067
-0.275829
0.002391
0.248113
0.446608
0.592732
0.687421
0.723894
0.713608
0.679708
0.633417
0.590400
0.559072
0.509742
0.430018
0.341409
0.235033
0.106679
-0.034066
-0.209179
-0.404633
-0.601022
-0.829908
-1.097372
-1.400839
-1.740546
-2.083292
-2.441468
-2.818816
-3.146599
-3.441650
-3.761951
-4.066822
-4.334519
-4.584214
-4.807022
-4.999903
-5.142986
-5.229257
-5.298693
-5.347556
-5.370701
-5.398522
-5.425174
-5.438266
-5.432654
-5.391504
-5.301258
-5.149990
-4.947988
-4.711384
-4.436204
-4.123850
-3.768711
-3.371021
-2.952757
-2.519062
-2.077652
-1.640684
-1.210028
-0.794102
-0.406465
-0.054833
0.262197
0.545794
0.801101
1.023444
1.188973
1.322005
1.448022
1.565389
1.718528
1.918659
2.166953
2.480008
2.801480
3.123654
3.469675
3.809149
4.171302
4.579279
4.987490
5.356657
5.690754
6.044491
6.438440
6.819530
7.128377
7.357266
7.548981
7.724329
7.842398
7.851985
7.760337
7.610708
7.404733
7.134231
6.813696
6.464170
6.115579
5.766287
5.402733
5.024684
4.624190
4.209668
3.800056
3.407044
3.032736
2.685080
2.393770
2.171196
2.029983
1.967794
1.955403
2.004034
2.116258
2.265421
2.431418
2.572399
2.659373
2.667089
2.568661
2.365025
2.066466
1.709459
1.315745
0.895846
0.483429
0.080130
-0.297920
-0.617286
-0.891295
-1.113402
-1.268642
-1.376889
-1.460120
-1.529090
-1.585434
-1.626114
-1.644349
-1.641308
-1.618863
-1.577246
-1.542409
-1.547084
-1.605767
-1.724067
-1.910169
-2.172255
-2.493959
-2.848862
-3.228080
-3.615949
-3.980672
-4.304480
-4.593686
-4.837536
-5.022702
-5.162278
-5.259771
-5.312141
-5.328973
-5.306060
-5.233114
-5.121358
-4.989963
-4.848515
-4.706599
-4.580348
-4.463682
-4.336028
-4.182422
-3.982992
-3.732594
-3.443152
-3.113731
-2.752513
-2.380073
-2.012543
-1.665587
-1.352531
-1.094886
-0.919771
-0.837473
-0.850565
-0.941745
-1.076178
-1.236328
-1.400452
-1.552887
-1.686618
-1.777565
-1.831571
-1.860093
-1.846064
-1.804214
-1.755583
-1.711161
-1.685208
-1.675622
-1.690817
-1.727990
-1.781295
-1.859616
-1.943081
-2.046418
-2.178513
-2.301256
-2.428674
-2.582512
-2.776095
-3.028595
-3.289044
-3.523776
-3.746584
-3.935959
-4.080912
-4.211136
-4.348374
-4.454985
-4.461063
-4.344864
-4.141694
-3.897141
-3.614011
-3.271030
-2.906071
-2.584132
-2.310120
-2.062762
-1.832471
-1.628365
-1.524090
-1.556821
-1.650339
-1.782667
-1.992148
-2.240908
-2.457403
-2.628776
-2.794069
-2.921488
-2.939256
-2.880572
-2.779103
-2.633212
-2.485451
-2.337223
-2.172395
-2.022764
-1.905630
-1.798083
-1.666454
-1.513550
-1.359710
-1.191843
-1.000829
-0.800932
-0.596826
-0.394590
-0.211058
-0.038749
0.139405
0.306805
0.444279
0.545982
0.612381
0.650491
0.655402
0.619164
0.548091
0.454806
0.344221
0.211192
0.066940
-0.066324
-0.179715
-0.271830
-0.342202
-0.380544
-0.376101
-0.324197
-0.207297
-0.018154
0.240660
0.571484
0.959823
1.397258
1.889636
2.410304
2.932608
3.459821
3.963889
4.438732
4.900717
5.289990
5.592291
5.869809
6.137976
6.395387
6.636667
6.856437
7.087196
7.326372
7.544038
7.717750
7.805191
7.792567
7.693438
7.507570
7.254602
6.962824
6.639484
6.291127
5.917520
5.517727
5.102504
4.679800
4.258732
3.855666
3.475045
3.117804
2.781371
2.464109
2.171863
1.892242
1.619402
1.355680
1.094763
0.833145
0.552355
0.241873
-0.089417
-0.449931
-0.824707
-1.188261
-1.554620
-1.929864
-2.306043
-2.686664
-3.075702
-3.480638
-3.888847
-4.274377
-4.634892
-4.965013
-5.258194
-5.511863
-5.712694
-5.834267
-5.856009
-5.772075
-5.554877
-5.199270
-4.752483
-4.236725
-3.695717
-3.198429
-2.741355
-2.324961
-1.981512
-1.706565
-1.569559
-1.616785
-1.620291
-1.499651
-1.477439
-1.480010
-1.418754
-1.543601
-1.869280
-2.205713
-2.406544
-2.337573
-2.188877
-2.234466
-2.377316
-2.390173
-2.238204
-2.131124
-2.212485
-2.336864
-2.379180
-2.394142
-2.461943
-2.578373
-2.651784
-2.660668
-2.687553
-2.761900
-2.838351
-2.889318
-2.908020
-2.880198
-2.814266
-2.724721
-2.617874
-2.501676
-2.363969
-2.208726
-2.044366
-1.858496
-1.658832
-1.434854
-1.181416
-0.936162
-0.698156
-0.470904
-0.277786
-0.109685
0.036907
0.163392
0.269537
0.349029
0.417065
0.490478
0.591012
0.724745
0.877182
1.047855
1.226477
1.385460
1.509373
1.593307
1.631183
1.623937
1.569930
1.458644
1.317665
1.179024
1.042955
0.928629
0.836514
0.760998
0.720786
0.697407
0.670054
0.641532
0.600852
0.526739
0.390436
0.191476
-0.056348
-0.349997
-0.665622
-0.980546
-1.287521
-1.564570
-1.780364
-1.909419
-1.936772
-1.857514
-1.677489
-1.413999
-1.082006
-0.699513
-0.284288
0.148940
0.584972
1.019602
1.435295
1.806566
2.135753
2.415376
2.641459
2.847903
3.042657
3.236008
3.454609
3.689810
3.931324
4.163018
4.363617
4.536628
4.687662
4.809237
4.898783
4.959571
4.995576
5.023399
5.066653
5.129779
5.215583
5.338094
5.511105
5.739058
6.025928
6.371949
6.741116
7.100464
7.418429
7.640303
7.760476
7.780817
7.673973
7.470336
7.187910
6.807289
6.368453
5.896885
5.378557
4.838954
4.302156
3.771671
3.261293
2.772657
2.305297
1.866461
1.450303
1.055888
0.686255
0.326676
-0.027292
-0.390378
-0.777312
-1.178507
-1.599107
-2.050335
-2.547387
-3.077171
-3.639920
-4.231660
-4.802592
-5.408126
-5.983734
-6.472369
-6.979241
-7.321051
-7.726923
-8.432522
-8.631950
-8.280786
-8.199657
-8.551053
-9.181136
-9.581864
-9.523180
-9.459352
-9.556143
-9.905903
-10.322529
-10.433114
-10.562169
-10.863533
-11.079093
-11.177988
-11.152503
-11.062490
-10.988843
-10.891115
-10.711324
-10.382838
-9.970185
-9.566884
-9.159842
-8.773374
-8.418936
-8.021948
-7.534479
-7.001187
-6.483325
-5.950968
-5.297737
-4.488096
-3.621175
-2.766879
-1.888034
-0.961495
0.000348
0.933668
1.727878
2.362405
2.898503
3.344823
3.674945
3.861984
3.910615
3.883028
3.832528
3.763559
3.690615
3.648065
3.652976
3.697866
3.746497
3.757019
3.759825
3.797234
3.815471
3.773622
3.683845
3.517148
3.242437
2.895015
2.546425
2.203679
1.821655
1.453893
1.179650
0.988171
0.843685
0.737308
0.717436
0.803708
0.947962
1.142716
1.364123
1.580620
1.819562
2.045645
2.233619
2.440063
2.642298
2.800112
2.960031
3.151278
3.341590
3.523719
3.760089
4.073144
4.402098
4.739702
5.120091
5.496973
5.823823
6.140853
6.468170
6.744285
6.935299
7.066928
7.135665
7.127015
7.068567
6.993285
6.914730
6.845527
6.806016
6.809758
6.835009
6.879431
6.959157
7.036077
7.094060
7.165837
7.231769
7.263098
7.259826
7.200910
7.073258
6.893702
6.684689
6.453932
6.207510
5.967401
5.746698
5.565272
5.455622
5.404188
5.371924
5.349247
5.326803
5.289397
5.232351
5.151224
5.041808
4.896621
4.702804
4.457786
4.170216
3.850382
3.515352
3.191543
2.894622
2.631834
2.422119
2.266645
2.148812
2.074466
2.051788
2.072129
2.124735
2.178977
2.206799
2.200020
2.153729
2.069329
1.937936
1.749029
1.505413
1.201010
0.843068
0.453328
0.037404
-0.394886
-0.818994
-1.219487
-1.582106
-1.892354
-2.156778
-2.384963
-2.591639
-2.801120
-3.019486
-3.259595
-3.524954
-3.800366
-4.072505
-4.295079
-4.441669
-4.527939
-4.549214
-4.515780
-4.440029
-4.306062
-4.120894
-3.917255
-3.712214
-3.515356
-3.339072
-3.181258
-3.082828
-3.023910
-2.948159
-2.963823
-3.025076
-3.084460
-3.364548
-3.590629
-3.376938
-3.044945
-2.978078
-3.288793
-3.707757
-3.794495
-3.693494
-3.708456
-3.890817
-4.218833
-4.487465
-4.680581
-4.971190
-5.287751
-5.525054
-5.706480
-5.894685
-6.085463
-6.199789
-6.256133
-6.313413
-6.367886
-6.386122
-6.295407
-6.099952
-5.911043
-5.739669
-5.502597
-5.208012
-4.933299
-4.696461
-4.459156
-4.191691
-3.893131
-3.585219
-3.301856
-3.034157
-2.738403
-2.407812
-2.062259
-1.712030
-1.355021
-0.962240
-0.520129
-0.051130
0.437039
0.936197
1.420860
1.883312
2.310928
2.683836
3.013023
3.300595
3.549356
3.785726
4.013679
4.236021
4.467715
4.699643
4.925492
5.131936
5.305882
5.466969
5.623381
5.760854
5.879157
5.990211
6.096123
6.187304
6.273577
6.365694
6.462253
6.581490
6.730654
6.896183
7.074805
7.262078
7.447246
7.620023
7.766148
7.869487
7.930275
7.951785
7.918587
7.822030
7.660944
7.445384
7.192183
6.911861
6.625226
6.345372
6.069258
5.804601
5.549529
5.305212
5.089184
4.899809
4.724696
4.565715
4.421229
4.281887
4.151195
4.029855
3.914594
3.822479
3.749067
3.681968
3.637080
3.606454
3.584945
3.589856
3.598507
3.587754
3.547074
3.445607
3.281248
3.068026
2.791445
2.458051
2.114837
1.784717
1.464649
1.160714
0.879924
0.641919
0.457688
0.311332
0.197474
0.113775
0.062808
0.051353
0.058836
0.067253
0.090166
0.136225
0.187194
0.231850
0.270661
0.283755
0.261311
0.203097
0.101162
-0.047298
-0.234803
-0.447090
-0.686263
-0.957233
-1.246907
-1.541491
-1.823449
-2.080859
-2.297822
-2.452361
-2.540736
-2.550554
-2.470361
-2.327744
-2.154966
-1.966993
-1.762419
-1.532128
-1.284068
-1.039281
-0.819043
-0.633174
-0.486815
-0.403583
-0.397503
-0.467641
-0.613062
-0.817868
-1.080655
-1.410776
-1.778070
-2.170147
-2.598463
-3.047587
-3.521727
-4.024156
-4.532430
-5.064552
-5.623326
-6.161761
-6.659280
-7.109339
-7.489259
-7.779868
-7.993324
-8.150668
-8.265228
-8.357811
-8.424208
-8.465356
-8.514686
-8.582019
-8.673432
-8.761573
-8.825399
-8.926866
-9.079535
-9.254414
-9.395159
-9.492885
-9.712420
-9.928448
-9.765958
-9.419469
-9.350498
-9.497790
-9.513453
-9.217465
-8.671547
-8.103419
-7.656631
-7.211013
-6.597060
-5.842362
-5.092339
-4.398428
-3.683007
-2.932284
-2.207277
-1.490454
-0.797478
-0.191241
0.352573
0.844249
1.259007
1.636824
2.005056
2.338451
2.646363
2.985136
3.370435
3.756202
4.130278
4.537086
4.985744
5.443754
5.858278
6.183023
6.430381
6.623499
6.756764
6.824333
6.822931
6.756299
6.631453
6.449326
6.206411
5.907152
5.577031
5.239195
4.904164
4.577784
4.260054
3.950742
3.640026
3.324167
3.009243
2.672810
2.304580
1.929804
1.558067
1.196384
0.864159
0.564899
0.300008
0.086552
-0.088795
-0.252686
-0.407693
-0.554984
-0.693859
-0.819875
-0.932330
-1.039409
-1.161684
-1.292142
-1.419794
-1.550252
-1.673462
-1.799010
-1.929234
-2.048470
-2.177525
-2.303073
-2.397293
-2.476783
-2.519333
-2.501330
-2.447322
-2.354737
-2.214691
-2.034199
-1.812325
-1.557485
-1.279265
-0.979302
-0.664142
-0.327006
0.039122
0.423953
0.811590
1.179587
1.517893
1.822064
2.080177
2.299480
2.476466
2.591027
2.636151
2.618383
2.555493
2.448415
2.275172
2.027581
1.734868
1.434907
1.136349
0.851819
0.608904
0.402228
0.221972
0.058782
-0.121007
-0.332826
-0.572702
-0.846945
-1.157894
-1.488716
-1.832865
-2.170000
-2.461076
-2.703757
-2.897340
-3.034578
-3.137682
-3.220913
-3.310690
-3.425250
-3.558280
-3.723573
-3.919027
-4.140432
-4.384515
-4.630469
-4.868474
-5.064629
-5.180825
-5.217764
-5.155573
-4.975314
-4.695224
-4.322551
-3.849110
-3.289632
-2.661652
-1.983639
-1.300716
-0.641641
-0.018103
0.550493
1.075369
1.564474
2.010092
2.431162
2.829787
3.181653
3.490267
3.767317
3.994335
4.167346
4.303885
4.395067
4.447204
4.483210
4.507058
4.520620
4.515711
4.486721
4.439027
4.370058
4.280281
4.170631
4.040640
3.897090
3.754708
3.617938
3.467373
3.298806
3.124161
2.923797
2.686962
2.419265
2.102236
