EVENT_NAME: 202302060117
EVENT_ID: 13194
EVENT_DATE_YYYYMMDD: 2023/02/06
EVENT_TIME_HHMMSS: 01:17:32.00000
EVENT_LATITUDE_DEGREE: 37.288
EVENT_LONGITUDE_DEGREE: 37.043
EVENT_DEPTH_KM: 8.6
HYPOCENTER_REFERENCE: AFAD
MAGNITUDE_W: 7.7
MAGNITUDE_W_REFERENCE: AFAD
MAGNITUDE_L: 
MAGNITUDE_L_REFERENCE: 
FOCAL_MECHANISM: 
NETWORK: TK
STATION_CODE: 0128
STATION_NAME: 
STATION_LATITUDE_DEGREE: 37.250287
STATION_LONGITUDE_DEGREE: 35.062788
STATION_ELEVATION_M: 236.0
LOCATION: Kahramanmaras_Pazarck_Turkiye
SENSOR_DEPTH_M: 
VS30_M/S: 494
SITE_CLASSIFICATION_EC8: B
MORPHOLOGIC_CLASSIFICATION: 
EPICENTRAL_DISTANCE_KM: 175.27
EARTHQUAKE_BACKAZIMUTH_DEGREE: 
DATE_TIME_FIRST_SAMPLE_YYYYMMDD_HHMMSS: 2023/02/06 01:17:42.2346370
DATE_TIME_FIRST_SAMPLE_PRECISION: millisecond
SAMPLING_INTERVAL_S: 0.01
NDATA: 13501
DURATION_S: 
STREAM: HNZ
UNITS: cm/s^2
INSTRUMENT: sensor = ACEBOX/SARA | digitizer = 
INSTRUMENT_ANALOG/DIGITAL: 
INSTRUMENTAL_FREQUENCY_HZ: 
INSTRUMENTAL_DAMPING: 
FULL_SCALE_G: 
N_BIT_DIGITAL_CONVERTER: 
PGA_CM/S^2: 7.062
TIME_PGA_S: 
BASELINE_CORRECTION: BASELINE REMOVED
FILTER_TYPE: BUTTERWORTH
FILTER_ORDER: 
LOW_CUT_FREQUENCY_HZ: 
HIGH_CUT_FREQUENCY_HZ: 
LATE/NORMAL_TRIGGERED: 
DATABASE_VERSION: 
HEADER_FORMAT: DYNA 1.2
DATA_TYPE: Acceleration
PROCESSING: Automatic Paolucci et al., 2011
DATA_TIMESTAMP_YYYYMMDD_HHMMSS: 
DATA_LICENSE: U (unknown license)
DATA_CITATION: Turkish Accelerometric Archive v 1.0 - Disaster And Emergency Management Presidency, Earthquake Department
DATA_CREATOR: AFAD
ORIGINAL_DATA_MEDIATOR_CITATION: : AFAD - Disaster And Emergency Management Presidency
ORIGINAL_DATA_MEDIATOR: AFAD PROCESS SERVICE
ORIGINAL_DATA_CREATOR_CITATION: AFAD PROCESS SERVICE
ORIGINAL_DATA_CREATOR: network: TK
USER1: GuestUser
USER2: 
USER3: 
USER4: 
USER5: 
[...]
-0.358951
-0.985061
-1.750748
-2.264402
-2.544024
-2.741817
-2.702073
-2.384109
-2.043468
-1.854093
-1.694410
-1.418297
-1.202970
-1.226818
-1.227755
-0.983437
-0.793595
-0.863501
-0.992091
-1.159023
-1.428592
-1.618904
-1.707280
-1.754976
-1.619374
-1.339753
-1.134013
-0.978305
-0.741469
-0.462550
-0.169603
0.222708
0.617357
0.876404
1.086820
1.257258
1.329734
1.333941
1.192961
0.942797
0.792464
0.741963
0.723960
0.705489
0.535751
0.182249
-0.226196
-0.644928
-1.153438
-1.837997
-2.518582
-2.889619
-3.085075
-3.428524
-3.838137
-4.049023
-4.042478
-4.000863
-3.996422
-3.926517
-3.775251
-3.562029
-3.170186
-2.677342
-2.358444
-2.162990
-1.998398
-2.094022
-2.334132
-2.396323
-2.467165
-2.608145
-2.607679
-2.643918
-2.785133
-2.761754
-2.520710
-2.181938
-1.938323
-1.881745
-1.819088
-1.664782
-1.433324
-1.061120
-0.640753
-0.204722
0.279003
0.575224
0.560026
0.358492
0.069751
-0.142771
-0.298715
-0.654789
-1.123787
-1.503007
-1.816531
-1.928287
-1.766266
-1.526625
-1.266175
-1.031911
-0.949850
-0.979309
-1.037993
-1.111640
-1.281611
-1.584146
-1.789421
-1.711334
-1.443637
-1.062080
-0.597292
-0.232569
-0.065639
0.004032
-0.048106
-0.227430
-0.311598
-0.193765
0.010340
0.216314
0.494064
0.861125
1.125315
1.250629
1.339939
1.282190
1.118531
1.050495
0.917698
0.548063
0.105484
-0.297349
-0.665347
-0.922759
-1.085015
-1.277899
-1.398773
-1.367211
-1.422388
-1.546302
-1.580905
-1.644732
-1.593298
-1.312274
-1.092973
-0.964152
-0.833928
-0.753035
-0.683130
-0.607381
-0.385508
0.062914
0.439327
0.583345
0.640624
0.712399
0.703981
0.540089
0.474391
0.591990
0.651841
0.710056
0.782532
0.699767
0.603208
0.528392
0.363330
0.223284
0.093994
-0.073406
-0.187968
-0.287566
-0.389035
-0.482321
-0.607638
-0.685025
-0.675441
-0.663284
-0.733892
-0.953896
-1.261106
-1.608062
-2.063734
-2.404611
-2.332135
-2.093429
-1.921589
-1.666517
-1.403730
-1.154971
-0.718706
-0.359360
-0.257659
-0.049814
0.208764
0.164108
-0.004694
-0.052857
-0.089565
-0.136559
-0.122999
-0.091905
-0.065955
-0.134224
-0.386726
-0.713810
-0.988522
-1.066845
-0.823229
-0.400057
-0.044686
0.176719
0.383862
0.566691
0.595681
0.551960
0.475741
0.326110
0.252696
0.337096
0.496779
0.543771
0.336392
0.084825
0.037598
0.237961
0.681473
1.217102
1.681890
2.018323
2.086825
1.873601
1.559610
1.259881
1.096690
1.074478
1.003871
0.929288
0.937938
0.913856
0.917830
1.026545
1.165653
1.303359
1.275302
0.943543
0.439241
-0.078153
-0.538735
-1.040698
-1.686681
-2.286839
-2.649694
-2.812417
-2.860581
-2.865959
-2.829721
-2.636839
-2.257387
-1.901783
-1.643671
-1.218629
-0.692586
-0.456218
-0.433306
-0.344231
-0.214474
-0.107863
0.003657
0.158196
0.380536
0.611761
0.817268
1.023008
1.116760
1.108810
1.285794
1.547880
1.647476
1.810666
1.933409
1.677400
1.353356
1.136859
0.821465
0.509579
0.299862
0.238372
0.429851
0.660842
0.795976
0.960802
1.047540
1.041227
1.147837
1.257487
1.201375
1.082839
1.009192
1.055950
1.182901
1.147129
0.905616
0.706887
0.633474
0.522887
0.336784
0.207727
0.178033
0.185982
0.195566
0.226193
0.334206
0.519373
0.709683
0.841076
0.909578
0.970832
1.009407
1.045411
1.296976
1.743996
2.005146
1.983168
1.884505
1.726925
1.383943
0.834285
0.263585
-0.068642
-0.173618
-0.187179
-0.050876
0.194377
0.435654
0.769750
1.032537
0.992557
0.977125
1.136340
1.203439
1.173512
1.099398
1.022945
1.029490
0.952804
0.729760
0.540384
0.442656
0.435407
0.520742
0.668969
0.819767
0.915389
1.009608
1.220259
1.640625
2.138847
2.330559
2.103074
1.668678
1.079508
0.271503
-0.611316
-1.319255
-1.841325
-2.265434
-2.585738
-2.833096
-2.909782
-2.766232
-2.595327
-2.343061
-1.930643
-1.494846
-1.004574
-0.511964
-0.117549
0.359397
0.969139
1.591740
2.188857
2.624187
2.775687
2.760489
2.585140
2.191658
1.896138
1.872056
1.818048
1.555259
1.144710
0.678283
0.150134
-0.422436
-0.732218
-0.741104
-0.717257
-0.518063
-0.120842
0.067831
-0.002309
-0.156850
-0.411456
-0.652735
-0.669804
-0.433202
-0.041592
0.371527
0.738120
1.076657
1.442315
1.903597
2.380776
2.690556
2.770748
2.610128
2.232077
1.778510
1.414954
1.189105
0.994117
0.831627
0.779489
0.634300
0.313062
0.068509
-0.101696
-0.354198
-0.622131
-0.823899
-0.927939
-0.929109
-0.921629
-0.996445
-1.080846
-0.981483
-0.724775
-0.516463
-0.375484
-0.295760
-0.344858
-0.440482
-0.497763
-0.537042
-0.526990
-0.429731
-0.188219
0.259969
0.698104
0.892856
0.979828
1.022612
0.954342
0.929793
0.891683
0.577926
0.125060
-0.285957
-0.757527
-1.249203
-1.606446
-1.806811
-1.920204
-2.019803
-2.016297
-1.897061
-1.841184
-1.695296
-1.264174
-0.759875
-0.302568
0.131125
0.529047
1.006928
1.531568
1.888342
2.038439
2.008512
1.743618
1.273217
0.700881
0.076407
-0.476524
-0.868603
-1.238237
-1.578413
-1.707938
-1.685962
-1.599925
-1.334800
-0.861128
-0.366881
-0.043541
0.064707
-0.006602
-0.112981
-0.169327
-0.315451
-0.439365
-0.382787
-0.490334
-0.842434
-1.127200
-1.409862
-1.772950
-2.053975
-2.181863
-2.157315
-2.036443
-1.899205
-1.828599
-1.917443
-2.100273
-2.293391
-2.499601
-2.629125
-2.620242
-2.526023
-2.340622
-2.010502
-1.641103
-1.494980
-1.619829
-1.709140
-1.567226
-1.341847
-1.171643
-1.066903
-1.020612
-0.925691
-0.724860
-0.520756
-0.298884
0.023990
0.316703
0.376554
0.298932
0.349198
0.412088
0.305476
0.247026
0.295187
0.385900
0.638400
0.861675
0.867285
0.866115
0.907964
0.921056
0.999377
1.173789
1.402676
1.646058
1.893414
2.214417
2.535887
2.657929
2.637120
2.597607
2.422258
2.098448
1.769261
1.409913
1.003105
0.647966
0.323455
-0.039633
-0.402020
-0.695203
-0.851146
-0.902115
-1.029535
-1.263100
-1.436578
-1.453179
-1.312668
-1.055491
-0.726072
-0.364856
-0.010420
0.380721
0.818857
1.179605
1.408258
1.585241
1.731831
1.817868
1.859950
1.877251
1.979653
2.262780
2.500551
2.501252
2.389262
2.244541
2.012379
1.598089
1.030195
0.482875
-0.076837
-0.657123
-1.052007
-1.274116
-1.370207
-1.221513
-0.889522
-0.517785
-0.092041
0.381865
0.735833
0.826312
0.726012
0.683226
0.809710
0.893876
0.882652
1.014279
1.202018
1.207160
1.125097
1.084415
1.022458
0.840329
0.483086
0.044481
-0.212697
-0.248936
-0.290787
-0.327728
-0.316740
-0.359058
-0.339888
-0.256423
-0.274660
-0.264842
-0.164076
-0.185353
-0.314643
-0.329373
-0.219490
-0.041337
0.201344
0.339049
0.377859
0.493821
0.538709
0.452905
0.416198
0.473477
0.707975
1.016820
1.125769
1.223729
1.499141
1.733405
1.875085
1.999465
2.136469
2.440405
2.863109
3.156290
3.328130
3.489449
3.588578
3.582499
3.557482
3.459753
3.095263
2.630473
2.303857
1.977943
1.630753
1.358378
1.092316
0.862025
0.664231
0.342993
-0.093741
-0.485820
-0.820853
-1.124556
-1.141624
-0.811503
-0.548482
-0.375473
0.027125
0.530489
1.033854
1.784342
2.658977
3.289060
3.762031
4.228221
4.478851
4.552263
4.705633
4.774836
4.691837
4.747012
4.822995
4.690431
4.564180
4.464815
4.198285
3.868864
3.397995
2.591160
1.875740
1.582557
1.330289
0.920441
0.555015
0.299474
0.115475
0.033878
0.115707
0.265804
0.366803
0.624681
1.181351
1.783378
2.262428
2.712720
3.157636
3.505525
3.680171
3.650711
3.451749
3.063177
2.473305
1.871978
1.304785
0.769622
0.561308
0.666983
0.740395
0.681944
0.442769
0.088098
-0.112501
-0.143597
-0.131908
-0.035819
0.146309
0.256660
0.210367
0.136253
0.154955
0.298272
0.638213
1.122172
1.511444
1.704092
1.823327
1.943966
1.961733
1.784280
1.562874
1.476368
1.324165
0.905667
0.359983
-0.282493
-1.015682
-1.595500
-1.896632
-2.021247
-2.176255
-2.344356
-2.206884
-1.880504
-1.721757
-1.605093
-1.416653
-1.253464
-1.081857
-0.967532
-0.974546
-0.928723
-0.825853
-0.870977
-1.054041
-1.205776
-1.256511
-1.235470
-1.201103
-1.122548
-0.839187
-0.314547
0.268777
0.818667
1.345645
1.700782
1.832175
1.944397
2.145696
2.441214
2.805470
3.066386
3.122731
3.027341
2.839600
2.735326
2.919791
3.281942
3.533975
3.622115
3.617672
3.487212
3.202680
2.804756
2.384154
1.981788
1.493852
0.820515
-0.081008
-1.080492
-1.869792
-2.397474
-2.693930
-2.630571
-2.440963
-2.487256
-2.722690
-3.005352
-3.204782
-3.196834
-3.065908
-2.933814
-2.853388
-2.830477
-2.743272
-2.507371
-2.208345
-1.931764
-1.640220
-1.311736
-1.041934
-0.916386
-0.873135
-0.704334
-0.357146
0.013889
0.396615
0.735386
0.885951
0.969415
1.049607
0.974791
0.820717
0.841524
1.045161
1.272879
1.461318
1.491243
1.272642
0.941350
0.572651
0.125630
-0.340329
-0.626731
-0.655723
-0.651048
-0.741762
-0.920384
-1.185979
-1.290020
-1.192761
-1.171486
-1.116077
-0.927170
-0.784788
-0.634925
-0.494414
-0.510781
-0.665088
-0.976507
-1.340062
-1.648442
-2.038417
-2.512792
-3.052631
-3.587326
-3.885652
-4.009098
-3.996708
-3.808268
-3.702827
-3.732286
-3.722000
-3.565590
-3.242951
-2.950004
-2.623858
-2.045210
-1.446456
-0.955483
-0.481577
-0.095345
0.282003
0.616800
0.663558
0.624747
0.751932
0.877480
0.947385
1.019160
1.041837
1.028276
0.972164
0.849653
0.649288
0.298123
-0.102840
-0.313025
-0.290347
-0.183035
-0.107286
-0.028731
0.070398
0.036497
-0.124123
-0.208291
-0.302979
-0.540986
-0.754210
-0.913193
-1.035704
-1.009753
-0.893557
-0.638719
-0.210403
0.102651
0.225160
0.210663
0.028300
-0.142139
-0.285224
-0.587057
-0.922323
-1.033611
-1.013038
-1.221586
-1.565269
-1.663231
-1.643359
-1.576026
-1.324929
-1.155427
-1.112409
-1.013514
-0.988498
-0.999488
-0.928181
-0.778317
-0.446326
-0.087215
0.059843
0.076676
0.001392
-0.091660
0.023367
0.221626
0.187491
-0.034384
-0.225631
-0.366378
-0.526997
-0.675459
-0.733442
-0.655121
-0.462239
-0.379476
-0.577503
-0.890792
-1.296899
-1.877418
-2.430817
-2.953823
-3.408559
-3.385414
-3.135252
-3.254022
-3.509096
-3.631606
-3.723957
-3.605423
-3.253325
-2.817528
-2.235841
-1.666780
-1.165753
-0.642516
-0.364532
-0.249037
0.001593
0.223232
0.435519
0.727998
0.837882
0.716774
0.586315
0.571351
0.553815
0.369348
0.191427
0.195401
0.193997
0.079903
0.035715
0.100943
0.081303
0.010929
0.087380
0.204278
0.207784
0.269038
0.594951
1.122630
1.640022
1.973416
2.077689
1.998197
1.753177
1.415806
1.102050
0.879006
0.876901
1.016711
0.971587
0.678872
0.242138
-0.247201
-0.621044
-0.781663
-0.772546
-0.796160
-0.953741
-1.169770
-1.543613
-1.974035
-2.136057
-2.106366
-1.986896
-1.742111
-1.491482
-1.171180
-0.818615
-0.732579
-0.730241
-0.462778
-0.064622
0.263628
0.484799
0.525713
0.364626
0.199798
0.216864
0.383093
0.740568
1.349843
1.992083
2.413619
2.599954
2.698849
2.653726
2.349554
2.118796
2.066658
1.807843
1.399399
1.038415
0.516812
-0.242562
-1.025316
-1.623604
-2.013579
-2.205060
-2.078577
-1.823271
-1.764121
-1.726247
-1.567032
-1.411090
-1.128664
-0.738925
-0.517052
-0.346848
-0.054603
0.190883
0.314795
0.432160
0.662684
1.071360
1.543396
1.868607
1.970074
1.927288
1.894556
2.020806
2.270968
2.427143
2.523935
2.764043
2.955055
2.847975
2.521827
2.057972
1.608847
1.458514
1.564423
1.653032
1.746783
2.010740
2.246874
2.166213
1.797981
1.267728
0.778857
0.512795
0.244629
-0.259205
-0.819151
-1.237181
-1.522181
-1.701271
-1.734003
-1.519144
-0.927171
-0.123844
0.473273
0.946010
1.564170
2.095122
2.456104
2.817320
3.142531
3.425893
3.593992
3.502810
3.192794
2.736187
2.323300
2.112882
1.882824
1.486303
1.204577
1.196159
1.126019
0.850371
0.658423
0.517676
0.293229
0.148274
0.033011
-0.028946
0.099174
0.102446
0.035346
0.292522
0.539644
0.480960
0.330628
0.201337
0.165565
0.030663
-0.486965
-1.124998
-1.473591
-1.390594
-1.129443
-0.987529
-0.745550
-0.381529
-0.281932
-0.396961
-0.484402
-0.567869
-0.641048
-0.650635
-0.775250
-1.070536
-1.226948
-1.278150
-1.507740
-1.726809
-1.725641
-1.565257
-1.236539
-0.811496
-0.563906
-0.657659
-0.868078
-0.934711
-1.011397
-1.197033
-1.311361
-1.290554
-1.126897
-0.882346
-0.732483
-0.653460
-0.532120
-0.370100
-0.217899
-0.129057
-0.089546
-0.137709
-0.263960
-0.321242
-0.454507
-0.773875
-0.936599
-0.857576
-0.700699
-0.361928
0.060075
0.277038
0.302989
0.229810
0.066852
-0.121823
-0.176767
-0.011473
0.123661
0.081109
0.108930
0.309527
0.597331
0.880692
1.063053
1.256636
1.554961
1.823827
2.051077
2.367170
2.671105
2.706875
2.500899
2.199066
1.722118
1.092268
0.472938
-0.171876
-0.838199
-1.400482
-1.930268
-2.426854
-2.722375
-2.930455
-3.055538
-2.834366
-2.453044
-2.125495
-1.657668
-1.098425
-0.527727
0.156830
0.791823
1.262222
1.633959
1.938128
2.202786
2.228269
1.943269
1.702223
1.568256
1.346615
1.093412
0.888605
0.729856
0.604072
0.444855
0.316032
0.392015
0.531825
0.406976
0.078958
-0.328084
-0.927541
-1.501515
-1.831637
-2.191686
-2.609950
-2.893080
-3.179482
-3.459572
-3.514282
-3.416088
-3.275810
-2.979590
-2.450975
-1.814814
-1.250428
-0.931763
-1.015230
-1.343248
-1.620767
-1.910910
-2.228641
-2.297612
-2.175337
-2.229813
-2.424100
-2.441168
-2.399553
-2.438831
-2.244781
-1.881928
-1.724350
-1.597165
-1.290190
-1.085618
-1.078839
-0.833587
-0.250497
0.212888
0.455569
0.584858
0.553762
0.487129
0.334692
0.100894
0.167057
0.310608
0.069796
-0.256820
-0.515167
-0.976683
-1.547150
-2.249711
-3.243351
-4.072630
-4.600078
-5.284637
-5.975275
-6.425803
-6.826533
-7.061500
-7.055422
-6.920055
-6.464852
-5.782165
-5.192295
-4.574370
-3.965563
-3.646664
-3.406789
-2.974733
-2.408009
-1.662431
-0.725840
0.173577
0.927339
1.612832
2.194284
2.578179
2.868086
3.122691
3.165942
3.006024
2.736221
2.134426
1.149905
0.117221
-0.693355
-1.264990
-1.801789
-2.313339
-2.611197
-2.773220
-2.828163
-2.776962
-2.808760
-2.814138
-2.672458
-2.565146
-2.556262
-2.668252
-2.886152
-3.006091
-2.970321
-2.895273
-2.780713
-2.567257
-2.231759
-1.898599
-1.917537
-2.304005
-2.586433
-2.583862
-2.509282
-2.531727
-2.702166
-2.964488
-3.222133
-3.337396
-3.297651
-3.353296
-3.554830
-3.740232
-3.880745
-4.035520
-4.437185
-5.100702
-5.531592
-5.576715
-5.440179
-5.042724
-4.495640
-4.124604
-3.754504
-3.142658
-2.480545
-1.802066
-1.093427
-0.578607
-0.148654
0.175622
0.090285
-0.129486
-0.316758
-0.573468
-0.614384
-0.548220
-0.668860
-0.724505
-0.592411
-0.450730
-0.443016
-0.634497
-0.918328
-1.146982
-1.406030
-1.800447
-2.097137
-2.235546
-2.511661
-2.957747
-3.473271
-3.923098
-4.136556
-4.306528
-4.589189
-4.755888
-4.623326
-4.377839
-4.247615
-4.024573
-3.638809
-3.385374
-3.244862
-3.051045
-2.792700
-2.593973
-2.562879
-2.511211
-2.425175
-2.493210
-2.647985
-2.872198
-3.188994
-3.548809
-3.953513
-4.231265
-4.239916
-4.114368
-3.956556
-3.764375
-3.447347
-2.828019
-1.966243
-1.165255
-0.596661
-0.209961
0.172297
0.592663
0.773621
0.638252
0.447940
0.120389
-0.506422
-1.189813
-1.820365
-2.372829
-2.664842
-2.835281
-3.026762
-3.160729
-3.437546
-3.853706
-4.119768
-4.395650
-4.783286
-4.977105
-5.003993
-5.152923
-5.372459
-5.453588
-5.368954
-5.035326
-4.420207
-3.830103
-3.322764
-2.688941
-2.056520
-1.443972
-0.678287
0.101426
0.769852
1.360423
1.806741
2.046850
2.073268
1.885294
1.579252
1.301500
1.076586
0.793223
0.339422
-0.220757
-0.699575
-1.056584
-1.307450
-1.534702
-1.844250
-1.994115
-2.000195
-2.195650
-2.262985
-2.094652
-2.134398
-2.270235
-2.464522
-2.914348
-3.378671
-3.798571
-4.157919
-4.242554
-4.146465
-3.995199
-3.920384
-3.903318
-3.613644
-3.338232
-3.513815
-3.738261
-3.791568
-3.837159
-3.698518
-3.501895
-3.490206
-3.319769
-2.883972
-2.371957
-1.839601
-1.519534
-1.309351
-0.929899
-0.668748
-0.673425
-0.623861
-0.230615
0.387544
0.751565
0.756474
0.607778
0.459082
0.430792
0.306411
0.021645
-0.103905
-0.005477
0.151166
0.226214
0.388235
0.760906
0.999613
1.202781
1.612160
1.836370
1.826316
1.900663
2.030185
2.194778
2.454058
2.714507
2.939887
3.228860
3.583997
3.905701
4.223898
4.636082
5.024184
5.169138
5.065097
4.800204
4.453949
4.107461
3.661141
3.071269
2.504076
1.975927
1.515112
1.209538
0.914485
0.712717
0.867022
1.070191
1.044706
1.056162
1.141263
1.187086
1.227065
1.122089
0.915177
0.862806
0.970118
1.086080
1.027864
0.814172
0.691428
0.715976
0.867242
1.159253
1.457110
1.696518
1.925638
2.043003
1.954627
1.738831
1.442142
1.102901
0.912823
0.875648
0.723913
0.556981
0.567735
0.431664
0.132636
0.026959
0.019944
0.148298
0.489875
0.707071
0.903928
1.203655
1.289458
1.372455
1.714733
1.982664
2.013992
1.947359
1.891246
1.880023
1.812221
1.646692
1.491216
1.398397
1.338544
1.256247
1.191016
1.197094
1.171375
1.139812
1.252969
1.519731
1.908768
2.208729
2.213638
2.152149
2.162902
2.101179
2.056523
2.201476
2.475486
2.729389
2.812152
2.702033
2.596589
2.623709
2.703666
2.701795
2.551463
2.303403
1.954109
1.486747
1.077367
0.859000
0.881677
1.155219
1.381300
1.387612
1.477856
1.636838
1.497961
1.292452
1.488374
1.924171
2.283283
2.507727
2.467513
2.153756
1.867354
1.810072
2.018852
2.516606
3.161652
3.714815
4.108061
4.375057
4.420412
4.160663
3.847841
3.778402
3.762270
3.499948
3.157200
2.935092
2.729116
2.514957
2.254038
1.851906
1.521783
1.240056
0.726403
0.243611
0.007241
-0.132571
-0.088384
0.101458
0.276572
0.508030
0.666310
0.655320
0.660697
0.711898
0.965099
1.671633
2.507458
3.064830
3.390041
3.545749
3.614952
3.776739
3.942968
3.952319
3.991829
4.314702
4.731796
4.914858
4.855707
4.588475
4.155248
3.762468
3.529605
3.477467
3.463438
3.258865
2.962409
2.740067
2.531753
2.293746
2.130789
2.185496
2.378378
2.537827
2.674364
2.841995
3.062465
3.204379
3.114133
2.954448
2.868878
2.823520
2.766472
2.544598
2.178704
1.851855
1.598652
1.540201
1.735655
1.876868
1.800883
1.745004
1.805790
1.827299
1.902347
2.194593
2.515829
2.764822
3.061978
3.308633
3.478135
3.804983
4.251768
4.617660
4.864783
4.859872
4.622801
4.442542
4.195418
3.693688
3.256954
3.012635
2.737688
2.437024
2.181716
1.919395
1.827746
2.119056
2.521888
2.714536
2.823952
3.125550
3.600157
3.846812
3.768723
3.729211
3.641068
3.212283
2.510423
1.687689
1.037966
0.693348
0.449964
0.358081
0.442013
0.510982
0.653130
0.829178
0.775872
0.766753
1.127033
1.458323
1.444061
1.285311
1.025328
0.625066
0.200022
-0.261261
-0.712725
-0.940912
-0.907246
-0.769072
-0.665501
-0.556786
-0.176633
0.541591
1.213524
1.656569
2.051919
2.336216
2.314939
2.033914
1.718754
1.573565
1.465316
1.075809
0.472611
0.022317
-0.244213
-0.584857
-1.008264
-1.470249
-2.092852
-2.732288
-3.079478
-3.196845
-3.248983
-3.105198
-2.830955
-2.702367
-2.617968
-2.450570
-2.309357
-2.190589
-2.060598
-1.931543
-1.709437
-1.294681
-0.773081
-0.224359
0.381876
0.819544
1.018972
1.384162
1.947847
2.451913
2.970240
3.461214
3.709038
3.752757
3.699216
3.622764
3.503059
3.127112
2.549632
1.952045
1.279643
0.668262
0.188276
-0.334730
-0.818457
-1.166348
-1.456959
-1.813267
-2.147598
-2.170979
-2.080968
-2.026728
-1.822858
-1.872190
-2.242759
-2.394027
-2.399171
-2.319681
-2.070688
-1.999147
