EVENT_NAME: 202302060117
EVENT_ID: 13194
EVENT_DATE_YYYYMMDD: 2023/02/06
EVENT_TIME_HHMMSS: 01:17:32.00000
EVENT_LATITUDE_DEGREE: 37.288
EVENT_LONGITUDE_DEGREE: 37.043
EVENT_DEPTH_KM: 8.6
HYPOCENTER_REFERENCE: AFAD
MAGNITUDE_W: 7.7
MAGNITUDE_W_REFERENCE: AFAD
MAGNITUDE_L: 
MAGNITUDE_L_REFERENCE: 
FOCAL_MECHANISM: 
NETWORK: TK
STATION_CODE: 0213
STATION_NAME: 
STATION_LATITUDE_DEGREE: 37.79667
STATION_LONGITUDE_DEGREE: 37.92957
STATION_ELEVATION_M: 602.0
LOCATION: Kahramanmaras_Pazarck_Turkiye
SENSOR_DEPTH_M: 
VS30_M/S: None
SITE_CLASSIFICATION_EC8: unknown
MORPHOLOGIC_CLASSIFICATION: 
EPICENTRAL_DISTANCE_KM: 96.48
EARTHQUAKE_BACKAZIMUTH_DEGREE: 
DATE_TIME_FIRST_SAMPLE_YYYYMMDD_HHMMSS: 2023/02/06 01:17:26.1896220
DATE_TIME_FIRST_SAMPLE_PRECISION: millisecond
SAMPLING_INTERVAL_S: 0.01
NDATA: 4104
DURATION_S: 
STREAM: HNE
UNITS: cm/s^2
INSTRUMENT: sensor = ACEBOX/SARA | digitizer = 
INSTRUMENT_ANALOG/DIGITAL: 
INSTRUMENTAL_FREQUENCY_HZ: 
INSTRUMENTAL_DAMPING: 
FULL_SCALE_G: 
N_BIT_DIGITAL_CONVERTER: 
PGA_CM/S^2: 171.695
TIME_PGA_S: 
BASELINE_CORRECTION: BASELINE REMOVED
FILTER_TYPE: BUTTERWORTH
FILTER_ORDER: 
LOW_CUT_FREQUENCY_HZ: 
HIGH_CUT_FREQUENCY_HZ: 
LATE/NORMAL_TRIGGERED: 
DATABASE_VERSION: 
HEADER_FORMAT: DYNA 1.2
DATA_TYPE: Acceleration
PROCESSING: Automatic Paolucci et al., 2011
DATA_TIMESTAMP_YYYYMMDD_HHMMSS: 
DATA_LICENSE: U (unknown license)
DATA_CITATION: Turkish Accelerometric Archive v 1.0 - Disaster And Emergency Management Presidency, Earthquake Department
DATA_CREATOR: AFAD
ORIGINAL_DATA_MEDIATOR_CITATION: : AFAD - Disaster And Emergency Management Presidency
ORIGINAL_DATA_MEDIATOR: AFAD PROCESS SERVICE
ORIGINAL_DATA_CREATOR_CITATION: AFAD PROCESS SERVICE
ORIGINAL_DATA_CREATOR: network: TK
USER1: GuestUser
USER2: 
USER3: 
USER4: 
USER5: 
[...]
0.133156
-1.000781
-1.123311
-1.845765
-3.191288
-3.965645
-3.482640
-2.622754
-2.335905
-2.623730
-3.157276
-2.653463
0.082413
4.144152
7.007915
6.558302
3.599578
0.844724
-0.363560
0.019613
1.310621
1.916136
0.579029
-2.503608
-5.367879
-5.785929
-3.776695
-0.877395
1.698563
3.191572
3.667796
3.518380
3.069001
3.089321
4.002747
5.636502
6.859943
6.363103
4.749414
2.889303
1.187472
0.096788
-1.198703
-3.158412
-4.822835
-5.060627
-3.644537
-1.887805
-0.921074
-1.184116
-2.380711
-2.636505
-0.854289
1.590977
2.443615
1.538565
0.720021
0.428222
0.229474
-0.240947
-1.452972
-2.535707
-3.327599
-4.476031
-5.167858
-5.670776
-6.803076
-7.306462
-6.293673
-4.324886
-2.256268
-1.257273
-1.702911
-1.812816
0.778573
5.833250
10.556402
12.286247
10.079882
5.513568
1.300988
-0.838978
-0.485030
-0.087595
-3.019433
-8.367098
-13.083276
-15.352065
-14.213727
-11.084604
-8.228323
-6.445873
-6.544790
-7.313536
-5.142047
1.053093
8.445508
12.179464
10.119222
6.197954
4.577719
5.279792
6.498791
6.765533
6.155536
4.160056
-0.371423
-5.291707
-7.832168
-8.162778
-8.177060
-9.606049
-11.541443
-12.121748
-10.822557
-7.943364
-5.492721
-4.796259
-5.662265
-7.591346
-7.740295
-5.000913
-0.783698
5.269526
10.613878
11.217756
7.646482
3.117341
2.002810
4.587886
5.922848
5.038606
3.811150
2.307814
1.267162
1.479897
2.806676
4.189099
4.202405
3.929310
4.872662
4.861419
0.942255
-5.194008
-8.254201
-5.970957
-2.095788
-1.510613
-4.566130
-9.075398
-13.558481
-16.350508
-16.254438
-12.011739
-3.243427
6.212951
12.787777
16.117732
16.561926
14.985411
11.535011
7.775297
7.071780
8.585597
8.307358
3.611052
-4.140516
-10.550322
-14.804518
-17.913574
-17.698735
-13.499522
-8.261081
-4.616669
-3.057262
-2.272659
-0.220640
3.510042
6.532086
7.266189
6.375167
4.594079
3.298121
2.614945
0.643312
-1.756871
-2.408718
-2.766214
-5.225548
-7.790792
-6.556129
-2.551903
0.226056
0.558261
0.322340
2.013141
4.516622
5.283457
5.450368
5.558362
3.557972
-0.797457
-4.415958
-3.150434
1.945625
4.037389
0.150957
-5.123296
-7.354210
-6.972439
-5.892784
-4.792086
-3.513469
-3.738403
-7.525939
-10.402367
-6.432275
1.232046
4.295705
0.041744
-5.748967
-8.353489
-8.890074
-6.578307
-0.460554
5.302061
5.977247
1.663433
-0.777197
4.288702
13.453535
20.465796
22.180678
19.661025
15.888218
11.486731
8.324369
8.421374
7.965683
3.921204
-3.568746
-13.919438
-20.320828
-18.382201
-15.936702
-17.437233
-18.552466
-17.501802
-15.642666
-15.250375
-16.394365
-13.762296
-4.874747
4.566902
10.210514
15.390740
21.037625
21.090209
14.127238
5.982189
0.866451
-1.362125
-1.968148
-1.624019
-1.368265
-2.588707
-6.174476
-10.999838
-14.296399
-15.246338
-15.437137
-16.768399
-18.374138
-17.503965
-14.558841
-10.907650
-6.290174
-0.244431
6.511588
10.995800
12.063064
9.829812
3.122148
-4.505508
-6.987052
-4.556984
-2.356738
-1.868823
1.994422
11.485402
19.058543
16.579804
6.354894
-2.819331
-4.596210
1.431998
9.668656
14.830645
14.969267
8.372890
-3.046256
-11.618219
-11.584807
-7.161383
-5.262969
-5.038778
-3.970344
-2.576232
-3.383554
-7.158231
-9.288378
-7.811501
-2.557863
5.392626
10.132144
13.286984
17.273441
16.261546
9.412202
0.096763
-5.550630
-2.173215
2.624284
0.470524
-4.812847
-8.164585
-11.724636
-16.983458
-19.431804
-17.023244
-14.120672
-14.604185
-15.227976
-9.187844
2.952526
12.750248
13.975092
10.319885
9.402912
11.165723
11.458183
9.213943
5.049526
0.235386
-3.400883
-5.775115
-8.641957
-12.043260
-16.058047
-20.680707
-22.287849
-19.493992
-14.405181
-10.203397
-9.104804
-6.859903
-2.448169
-1.001218
-2.025270
-1.995364
2.029669
9.154620
14.050782
15.845624
13.869081
5.456334
-5.977775
-12.530665
-8.344078
2.877703
9.101132
5.574982
1.715202
4.384679
6.563182
2.530626
-4.936645
-9.512545
-6.200827
-2.050245
-3.296404
-5.077960
-8.269313
-12.651161
-11.469570
-5.358130
1.225815
3.062038
-1.657180
-5.690905
-4.109520
1.298892
6.227552
7.453798
5.557916
2.498658
1.153836
1.365870
0.069911
-2.240493
-2.769129
-0.422760
-1.272634
-9.204694
-15.985302
-16.664036
-12.397256
-5.871527
-2.468628
-0.814533
1.512665
2.101346
0.600815
-3.641924
-8.655493
-10.356622
-9.574825
-7.152939
-2.569598
1.632654
0.815512
-4.825802
-7.689839
-3.279274
4.623521
10.313191
11.616591
9.702238
5.093139
-1.636736
-7.773700
-9.720317
-7.653569
-7.322766
-9.931029
-11.327520
-9.864671
-6.276137
-4.875946
-7.626591
-11.731389
-15.539032
-15.685643
-12.066716
-8.094520
-3.985086
-1.097009
1.301965
5.216178
7.855963
6.681111
3.059104
1.000733
1.032509
1.293874
2.075204
2.221541
2.318780
4.024311
5.245180
4.450249
3.152420
2.826253
1.015005
-2.557671
-1.655000
5.837480
12.916841
10.499825
-0.094251
-7.156585
-5.842431
-2.176043
-2.210431
-4.221108
-3.471340
-1.547209
0.192222
3.743115
7.193942
8.848271
9.284984
7.869789
6.876131
10.499033
14.414649
9.637683
0.187811
-3.174214
0.056610
5.119470
6.873631
3.284822
-1.375946
-5.936650
-11.224697
-14.525701
-12.866696
-6.556761
-1.788253
-2.412745
-6.468681
-11.545609
-13.914697
-12.667876
-9.165379
-4.788949
-2.413355
-0.607993
1.599968
3.341504
6.316320
7.294741
3.284163
-2.322784
-4.325979
-0.424624
3.853378
4.749503
1.926147
-4.947279
-7.751464
-6.252376
-10.460280
-17.237148
-19.689467
-16.494414
-9.990428
-8.894641
-15.076962
-20.425563
-18.652698
-11.412719
-5.382172
-1.772830
0.850121
2.575992
3.743088
2.696591
2.019494
3.727129
3.371503
1.277127
1.000057
2.667011
3.260602
-1.129663
-8.711028
-12.978082
-11.777085
-10.170451
-10.004709
-6.563467
0.489241
6.296511
4.496018
-6.227114
-14.831809
-12.038186
-3.706607
0.116426
0.728253
4.136763
6.224319
4.004393
5.221054
13.706939
23.848343
28.323670
24.974270
20.038322
20.254330
23.068060
22.202522
17.114372
10.359248
2.920500
-5.140383
-12.389287
-17.022000
-19.266708
-18.789548
-16.277884
-12.241629
-3.827519
5.515935
9.872960
8.824593
2.760573
-1.827719
1.811783
10.090758
16.523202
17.588128
16.312276
15.516176
9.905489
-3.973672
-20.172570
-27.931854
-25.997669
-21.977312
-17.225169
-12.063647
-9.304392
-9.155717
-11.467992
-13.854147
-12.718380
-8.053210
-5.224985
-8.303881
-12.285235
-12.516247
-8.930753
-3.248096
0.378079
1.875764
1.271144
-3.367882
-9.923577
-15.729018
-15.470458
-8.837884
-4.360219
-4.101659
-6.873580
-8.649758
-3.827008
3.304489
10.169458
15.662739
16.260304
16.365960
18.450944
20.619159
20.617736
15.108284
8.719987
6.617194
7.175949
7.907948
5.621858
0.535111
-2.894949
-1.361493
3.374985
6.310757
6.004463
1.392558
-6.859337
-12.902315
-14.164139
-10.482320
-2.177394
6.670409
13.302048
19.424009
25.063881
26.625626
25.523953
23.424433
17.567090
11.613189
9.167415
8.936637
8.955321
7.208835
8.624691
13.063545
13.372137
11.075059
7.376834
2.929989
-2.307090
-12.671810
-21.328174
-22.694973
-23.490606
-24.995111
-23.749226
-18.409784
-12.803814
-12.056384
-11.180366
-6.853734
-2.924558
-0.866928
-3.488050
-7.428489
-5.361040
-1.339747
3.363766
11.231257
15.315675
11.555026
3.427979
-2.896725
-2.517994
1.595883
4.117600
1.326508
-6.550142
-12.812890
-14.907734
-14.473125
-11.351484
-8.472057
-6.921534
-4.667281
-3.467688
-1.935868
2.039366
4.947784
7.707039
11.847568
15.108085
18.755302
20.672185
18.288836
16.348298
15.892139
12.049661
-0.525846
-17.847672
-25.547338
-22.464975
-17.309999
-12.843557
-10.979745
-8.375030
-2.751057
4.424862
17.505097
32.375051
40.292341
39.395708
29.528508
20.064608
20.725533
28.266176
37.967339
47.176360
51.328345
50.263846
50.245122
49.454633
42.143538
32.432281
21.383002
9.071218
-0.995645
-11.462769
-19.478996
-21.806001
-21.797604
-16.777763
-8.038909
1.990739
14.550308
22.563689
26.028310
28.593046
26.525089
22.121731
17.081509
16.936067
24.271202
26.015543
23.848222
21.711763
16.803169
18.968813
18.208250
0.719727
-19.195378
-28.332430
-23.874170
-16.238605
-17.764386
-26.887644
-38.130039
-41.036159
-33.996310
-18.241200
5.431688
15.313342
9.875899
7.062363
10.694617
24.041848
33.411254
27.714062
15.478495
-2.587741
-15.285057
-9.111193
9.391736
25.932171
30.404692
20.416853
2.807690
0.190543
10.913635
15.135058
16.154394
4.272796
-18.966672
-32.917843
-37.502861
-26.955118
-7.556044
5.338790
10.427835
13.817875
36.323413
62.934432
68.434960
70.810787
73.637142
69.376167
57.597674
39.003290
30.916689
33.179359
30.955693
28.495424
26.255159
14.804917
-6.465277
-33.855114
-58.163504
-68.516768
-74.563721
-85.032482
-93.177063
-102.705257
-111.461219
-109.624060
-102.708591
-94.371401
-79.943091
-45.842143
18.435017
86.823736
124.776260
132.164934
123.485424
103.476800
79.744955
65.700733
59.890149
61.437166
78.438649
95.827300
93.995010
73.091644
35.899389
-9.582149
-52.571173
-88.198390
-117.148590
-137.769997
-134.010323
-111.148946
-96.295124
-89.422206
-85.222293
-83.663820
-78.754799
-75.868359
-69.159333
-48.374308
-22.877100
0.459821
11.924985
7.927499
10.067425
34.073708
68.905739
92.586109
99.773250
94.473981
78.109088
56.682016
20.746888
-27.812824
-53.406865
-46.404423
-26.852913
-6.745901
8.936965
16.992430
15.454959
1.581175
-26.305248
-47.203471
-35.962051
-7.791605
9.354365
3.447223
-15.838266
-20.649366
-8.107099
6.444423
22.417198
41.704049
60.895511
65.418767
40.272448
2.577294
-15.222881
-6.842672
14.107881
37.616643
56.728848
71.114373
84.971751
86.154979
63.439216
36.580098
25.801323
22.200825
18.539773
21.544048
25.985941
25.917652
25.342958
19.148713
12.954001
23.017316
36.306800
38.152843
33.720027
23.264359
15.613557
15.979663
11.909934
7.746920
6.122710
-4.314722
-17.281139
-26.222268
-30.562968
-24.343747
-14.368106
-7.454039
-3.349281
-7.596930
-15.139016
-15.512645
-1.136237
28.295779
46.989720
46.922366
46.559259
35.120006
8.295257
-9.886709
-14.342438
-12.286913
-9.455181
-15.340346
-27.815320
-30.412361
-21.298730
-18.274582
-21.105887
-19.099226
-16.160882
-13.308576
-9.701104
-8.753544
-11.601917
-12.369026
-1.563170
10.239363
13.362641
21.354980
35.560014
45.165087
46.096982
37.254983
21.839774
0.949267
-27.321051
-55.732817
-65.836619
-54.484146
-45.848864
-52.091038
-62.086592
-63.007774
-48.907481
-27.061953
-7.335329
7.310413
17.534581
18.935474
9.897085
9.996663
23.928388
39.617099
56.248013
60.838369
55.332189
52.411807
42.377676
32.362950
26.741508
21.541603
21.948390
15.949132
7.254892
1.172169
-12.127643
-24.608696
-41.396295
-58.511444
-60.059203
-60.655874
-62.081823
-56.716898
-48.490995
-40.985655
-41.028928
-39.945064
-31.481390
-19.686338
-5.947028
-1.754362
-1.797635
4.405688
10.804231
17.393085
22.213263
36.649990
67.395245
89.536527
99.716040
102.780167
93.867327
81.307016
63.670032
44.826887
33.357241
28.447478
32.114568
27.101700
11.420430
1.296754
-11.921462
-20.611727
-13.305349
0.580318
11.920401
13.432581
20.087132
38.085761
52.962962
61.957824
58.857652
53.753837
54.818763
40.252238
8.788016
-21.214272
-35.443194
-33.995074
-31.093203
-34.838655
-48.044013
-62.483118
-74.961600
-85.543518
-83.054533
-72.333078
-51.494514
-27.733017
-25.700404
-20.601540
5.232804
32.669127
54.720163
56.052320
44.546434
48.705434
60.271130
67.512980
70.208175
68.962483
71.110124
74.217737
72.286785
68.492469
66.539774
64.675221
61.290751
59.430172
56.299373
51.981819
55.649610
64.389399
68.652438
63.755768
53.549094
49.862325
43.500915
25.026235
12.670964
7.615312
2.949867
4.351929
6.635640
15.819177
28.053767
18.257408
4.974196
13.616492
26.098673
34.700288
47.675315
53.682949
57.507618
72.317953
62.631245
30.163331
19.035262
-4.916820
-47.073059
-54.943163
-49.735817
-44.362708
-18.332443
15.740683
46.652869
57.957414
49.528301
35.299146
13.734601
7.896429
15.051073
17.923018
33.805080
38.302618
26.518046
37.672727
49.096743
47.191509
48.254331
33.841878
20.667148
27.869720
12.618169
-18.753937
-25.102722
-25.445256
-24.385707
-10.698300
-3.984832
1.195628
14.510128
24.470807
23.462185
14.889286
18.707176
25.208590
10.832142
-6.861656
-17.234092
-27.884746
-25.554509
-8.908398
-6.446533
-8.626479
2.595769
0.666688
-1.124921
7.905245
-1.672281
-8.741863
-1.812600
0.451473
-0.436977
-3.521952
-7.147700
-11.759138
-7.751172
-5.499491
-15.211917
-4.089266
8.944444
12.055564
19.358435
0.244319
-4.971718
18.280802
8.817136
-9.587405
-21.666794
-31.552698
-16.208604
-19.817753
-56.941038
-73.455562
-68.263412
-68.915961
-77.566012
-88.003678
-86.898538
-77.574022
-91.411334
-120.739350
-131.367327
-120.967343
-92.733772
-70.621948
-76.067808
-84.272944
-95.344667
-111.735279
-113.036381
-112.035281
-105.438478
-89.240556
-86.301978
-84.929842
-91.705307
-114.880949
-116.594703
-113.136395
-122.154677
-106.185175
-87.292739
-100.088250
-110.690041
-104.487888
-109.657867
-121.234593
-117.651436
-114.547564
-112.144382
-87.163632
-59.495616
-50.811705
-33.994454
6.363142
37.191629
47.825644
60.024463
63.432272
59.345008
59.742677
46.283649
34.266683
34.994708
22.525812
-5.003135
-35.745859
-42.661135
-29.969938
-40.207941
-50.784715
-48.620007
-60.498097
-65.045708
-63.464791
-74.850271
-83.230988
-92.027864
-102.718498
-99.353942
-81.501203
-59.532697
-45.146938
-45.043853
-61.170975
-69.357874
-60.944934
-71.703135
-80.718846
-69.988974
-79.192424
-82.712729
-72.085729
-88.164688
-97.977180
-91.558530
-101.706988
-107.811455
-103.866380
-109.117020
-109.017676
-94.747413
-89.678942
-96.265733
-91.009055
-81.178602
-79.597685
-77.793726
-80.721121
-90.553953
-95.118164
-89.020985
-81.306631
-81.933929
-80.352779
-77.456752
-86.473632
-97.453940
-99.441237
-86.230076
-64.837646
-54.175810
-53.066930
-59.124637
-53.968025
-24.040125
-5.397619
3.417687
16.925771
11.018395
10.866641
25.149529
26.280386
40.463677
58.301453
53.620110
54.661890
53.464127
44.603424
58.116652
75.121876
62.189126
36.703333
37.755401
49.023473
36.750733
29.680918
29.915630
16.200828
17.068897
18.626200
-13.683199
-48.660225
-69.436172
-98.240483
-118.788711
-103.490909
-74.904537
-55.283590
-48.236259
-57.472908
-57.889321
-40.757145
-23.649986
-1.207105
23.645524
45.852269
71.102821
89.858251
95.300563
93.753507
95.344009
95.845016
87.570911
84.200469
95.735305
116.659204
128.492131
129.487386
140.544106
148.444095
148.391704
151.960132
140.785304
135.754434
152.824420
156.533125
155.171937
156.434656
147.634974
151.977037
151.594992
122.317943
115.881484
142.780774
157.192485
161.443133
158.491656
142.116475
145.023022
158.195140
144.106263
120.683263
101.456691
80.031490
60.207566
29.144072
-12.281083
-41.278043
-57.434390
-76.895460
-101.660222
-97.966012
-51.366496
-0.306363
40.841468
60.404434
41.531363
33.047307
40.608992
10.275647
-26.577836
-28.293227
-20.015187
-17.847439
-24.467195
-32.873163
-19.038697
4.673936
7.897045
9.146437
23.184306
23.175402
5.965565
-24.036957
-67.438868
-84.865435
-62.954443
-44.692559
-53.926636
-71.837865
-64.570297
-43.803509
-56.546883
-96.750681
-134.949901
-156.822825
-143.250212
-123.568945
-135.442593
-148.059717
-148.258231
-149.089868
-146.121832
-157.422209
-171.694617
-155.214736
-132.842696
-116.738527
-85.795011
-50.977242
-24.978305
-5.561462
-11.016908
-48.773784
-69.520739
-51.585002
-49.747376
-70.115347
-68.991270
-60.951470
-58.354002
-35.512263
-11.288082
-7.350956
8.891621
40.053737
58.412881
73.075924
85.134699
81.582830
71.233307
54.286258
23.666277
-18.159372
-59.930313
-79.649964
-73.752214
-57.775699
-41.182192
-37.112971
-51.825619
-64.945407
-58.896390
-32.388009
12.934506
56.619271
80.042463
86.880078
69.533703
38.492420
24.682930
18.053823
3.679479
-6.140260
-6.317967
0.242832
20.403384
51.833665
56.925048
25.423418
-1.307111
-19.531629
-46.508580
-66.413866
-84.280205
-119.243204
-142.847396
-136.588196
-132.846992
-136.128591
-138.763974
-149.036812
-138.214123
-111.081971
-109.754958
-118.514894
-127.611031
-136.831548
-120.096827
-108.436443
-123.697346
-118.109144
-96.922456
-97.127283
-107.784250
-122.730462
-132.143627
-113.736789
-91.252994
-90.513981
-87.154101
-56.963413
-11.228713
32.759287
78.270943
122.012053
145.835974
147.960470
134.010234
116.065806
112.181011
111.558388
100.957065
92.003311
93.005579
99.205863
85.083786
27.680926
-53.336626
-121.280470
-153.534226
-150.970893
-134.753332
-123.094350
-122.782719
-126.833510
-129.450190
-134.876878
-133.135577
-117.359425
-100.650656
-89.598846
-84.809295
-84.411159
-77.005651
-53.644882
-13.137188
37.110733
80.510266
106.666548
121.766324
137.016198
151.582215
156.899212
153.376101
145.451523
137.317462
133.917795
126.875334
114.629480
113.991661
117.096001
106.424305
91.523216
77.257588
63.527823
65.661203
79.286653
84.199415
87.045409
96.310306
102.197068
104.768583
104.749859
98.749666
95.390213
97.390328
100.933973
106.181766
110.180147
115.064853
121.889141
124.825848
128.548348
136.324892
142.841737
152.244575
165.962843
168.893939
142.717042
88.783967
33.078241
-7.483734
-28.438302
-25.193450
-15.833864
-16.401778
-20.942842
-29.276099
-37.513030
-43.707275
-52.459496
-58.410358
-65.303891
-70.446048
-69.636195
-78.131706
-82.571303
-75.592007
-79.340733
-80.846407
-77.930508
-84.194191
-77.786530
-62.193208
-54.057317
-44.265440
-38.517555
-39.485496
-39.378904
-40.177108
-39.367722
-33.962116
-24.350497
-17.719793
-20.630823
-24.786590
-30.536386
-36.628228
-28.191206
-12.426745
0.501055
16.473596
24.802370
18.510865
12.878669
10.739169
8.707217
8.172503
-0.881083
-18.994313
-36.189654
-54.480570
-67.477614
-66.194321
-60.648436
-55.992851
-52.000316
-52.050603
-48.713634
-38.407637
-26.290179
-10.920835
6.608562
20.447937
30.901227
45.671349
63.924348
78.348217
94.340631
103.723128
95.138540
89.071013
92.858742
95.135674
95.496870
94.097106
94.602555
99.050762
107.592057
114.865236
112.100095
108.724744
99.286328
76.779346
54.498213
27.615949
8.555841
11.923203
20.078498
28.586828
34.089227
45.408969
71.095319
86.293523
92.770389
96.469509
95.363160
104.999328
112.812111
114.612095
120.468930
124.609460
131.802446
129.358309
116.976853
118.024479
121.167629
127.101851
142.963572
143.003297
125.937012
106.153067
77.922495
43.483670
14.779190
-3.709284
-10.210271
-7.879333
-9.811921
-22.949243
-36.649783
-42.187993
-47.661208
-58.473416
-69.016290
-72.909970
-64.528826
0.000000
0.000000
0.000000
0.000000
0.000000
0.000000
0.000000
0.000000
0.000000
0.000000
0.000000
0.000000
0.000000
0.000000
0.000000
0.000000
0.000000
0.000000
0.000000
0.000000
0.000000
0.000000
0.000000
0.000000
0.000000
0.000000
0.000000
0.000000
0.000000
0.000000
0.000000
0.000000
0.000000
0.000000
0.000000
0.000000
0.000000
0.000000
0.000000
0.000000
0.000000
