EVENT_NAME: 202302060117
EVENT_ID: 13194
EVENT_DATE_YYYYMMDD: 2023/02/06
EVENT_TIME_HHMMSS: 01:17:32.00000
EVENT_LATITUDE_DEGREE: 37.288
EVENT_LONGITUDE_DEGREE: 37.043
EVENT_DEPTH_KM: 8.6
HYPOCENTER_REFERENCE: AFAD
MAGNITUDE_W: 7.7
MAGNITUDE_W_REFERENCE: AFAD
MAGNITUDE_L: 
MAGNITUDE_L_REFERENCE: 
FOCAL_MECHANISM: 
NETWORK: TK
STATION_CODE: 5201
STATION_NAME: 
STATION_LATITUDE_DEGREE: 40.9751
STATION_LONGITUDE_DEGREE: 37.9174
STATION_ELEVATION_M: 4.0
LOCATION: Kahramanmaras_Pazarck_Turkiye
SENSOR_DEPTH_M: 
VS30_M/S: 199
SITE_CLASSIFICATION_EC8: unknown
MORPHOLOGIC_CLASSIFICATION: 
EPICENTRAL_DISTANCE_KM: 416.86
EARTHQUAKE_BACKAZIMUTH_DEGREE: 
DATE_TIME_FIRST_SAMPLE_YYYYMMDD_HHMMSS: 2023/02/06 01:18:05.0437550
DATE_TIME_FIRST_SAMPLE_PRECISION: millisecond
SAMPLING_INTERVAL_S: 0.01
NDATA: 21001
DURATION_S: 
STREAM: HNE
UNITS: cm/s^2
INSTRUMENT: sensor = CMG-5T/GURALP | digitizer = 
INSTRUMENT_ANALOG/DIGITAL: 
INSTRUMENTAL_FREQUENCY_HZ: 
INSTRUMENTAL_DAMPING: 
FULL_SCALE_G: 
N_BIT_DIGITAL_CONVERTER: 
PGA_CM/S^2: 8.223
TIME_PGA_S: 
BASELINE_CORRECTION: BASELINE REMOVED
FILTER_TYPE: BUTTERWORTH
FILTER_ORDER: 
LOW_CUT_FREQUENCY_HZ: 
HIGH_CUT_FREQUENCY_HZ: 
LATE/NORMAL_TRIGGERED: 
DATABASE_VERSION: 
HEADER_FORMAT: DYNA 1.2
DATA_TYPE: Acceleration
PROCESSING: Automatic Paolucci et al., 2011
DATA_TIMESTAMP_YYYYMMDD_HHMMSS: 
DATA_LICENSE: U (unknown license)
DATA_CITATION: Turkish Accelerometric Archive v 1.0 - Disaster And Emergency Management Presidency, Earthquake Department
DATA_CREATOR: AFAD
ORIGINAL_DATA_MEDIATOR_CITATION: : AFAD - Disaster And Emergency Management Presidency
ORIGINAL_DATA_MEDIATOR: AFAD PROCESS SERVICE
ORIGINAL_DATA_CREATOR_CITATION: AFAD PROCESS SERVICE
ORIGINAL_DATA_CREATOR: network: TK
USER1: GuestUser
USER2: 
USER3: 
USER4: 
USER5: 
[...]
-0.206125
-0.262371
-0.324866
-0.394549
-0.469856
-0.546413
-0.623595
-0.700152
-0.770459
-0.825768
-0.870452
-0.900762
-0.902324
-0.883887
-0.844202
-0.777955
-0.687961
-0.579843
-0.458288
-0.327046
-0.201741
-0.087373
0.020745
0.111990
0.187298
0.258544
0.329477
0.402598
0.478218
0.557276
0.640083
0.719141
0.799136
0.880069
0.957565
1.036310
1.108181
1.175989
1.236298
1.285670
1.326293
1.358791
1.380666
1.388478
1.384416
1.369730
1.348170
1.320984
1.287549
1.254740
1.228492
1.216305
1.221618
1.240992
1.278178
1.326300
1.382859
1.441294
1.495353
1.535976
1.558787
1.555038
1.522853
1.461608
1.367239
1.243810
1.091946
0.921957
0.737282
0.549795
0.363245
0.181383
0.013269
-0.136408
-0.266399
-0.369204
-0.445761
-0.501382
-0.535442
-0.558252
-0.567001
-0.564189
-0.552314
-0.535127
-0.517003
-0.502316
-0.497316
-0.507002
-0.523563
-0.548248
-0.585121
-0.633242
-0.691050
-0.752296
-0.818541
-0.879474
-0.926970
-0.959780
-0.967592
-0.946968
-0.899783
-0.827912
-0.741042
-0.641048
-0.538555
-0.440436
-0.345754
-0.265134
-0.203262
-0.158890
-0.134203
-0.120766
-0.107017
-0.095767
-0.081705
-0.073580
-0.077954
-0.088266
-0.112638
-0.147636
-0.186383
-0.232317
-0.271689
-0.301686
-0.318872
-0.318247
-0.306372
-0.281373
-0.245438
-0.201065
-0.154193
-0.109195
-0.067635
-0.031699
-0.005138
0.019861
0.048297
0.078920
0.122355
0.175790
0.234224
0.301095
0.371404
0.438275
0.502958
0.563892
0.614202
0.661387
0.707322
0.747007
0.781380
0.810754
0.841065
0.875126
0.911999
0.951059
0.990744
1.031680
1.068553
1.095426
1.114801
1.122613
1.114489
1.093241
1.052932
0.991686
0.906380
0.805449
0.696082
0.577340
0.457661
0.327982
0.189242
0.045189
-0.107925
-0.261352
-0.411654
-0.553207
-0.685385
-0.808189
-0.916619
-1.015675
-1.104106
-1.178476
-1.245971
-1.306591
-1.360337
-1.408146
-1.451893
-1.493765
-1.537199
-1.582820
-1.627504
-1.666564
-1.701874
-1.734371
-1.759681
-1.783429
-1.807177
-1.824363
-1.832487
-1.828425
-1.802801
-1.754678
-1.687182
-1.600938
-1.494694
-1.375639
-1.246897
-1.104718
-0.950040
-0.782238
-0.606625
-0.432261
-0.262584
-0.103219
0.049272
0.193013
0.323317
0.443935
0.545804
0.632361
0.704857
0.769540
0.817038
0.840162
0.850161
0.848599
0.839851
0.825477
0.803291
0.772044
0.736422
0.692987
0.643616
0.591745
0.542061
0.494565
0.448631
0.415196
0.392073
0.381449
0.396449
0.432697
0.487694
0.560502
0.639560
0.713618
0.782676
0.847672
0.906106
0.960478
1.010476
1.050786
1.084847
1.106096
1.112658
1.117033
1.112347
1.100160
1.080475
1.052977
1.026417
1.001731
0.982046
0.965485
0.948611
0.932050
0.913614
0.882992
0.835183
0.767375
0.676132
0.559265
0.419900
0.266160
0.094922
-0.086941
-0.274428
-0.466915
-0.655340
-0.837515
-1.014690
-1.179366
-1.326544
-1.458722
-1.581838
-1.700268
-1.814010
-1.932127
-2.053368
-2.179922
-2.314600
-2.450528
-2.583956
-2.713947
-2.834877
-2.940807
-3.028300
-3.098295
-3.147979
-3.179227
-3.195475
-3.194850
-3.177663
-3.145164
-3.096105
-3.030171
-2.952988
-2.867368
-2.783936
-2.703941
-2.629882
-2.572386
-2.533638
-2.514576
-2.522388
-2.555198
-2.610506
-2.684563
-2.768620
-2.858926
-2.950482
-3.043288
-3.134531
-3.224837
-3.310144
-3.387638
-3.457321
-3.520754
-3.574500
-3.608872
-3.615746
-3.594497
-3.545125
-3.470442
-3.380447
-3.276703
-3.164523
-3.050467
-2.944224
-2.851729
-2.773609
-2.708613
-2.658928
-2.614868
-2.572058
-2.528935
-2.478313
-2.419254
-2.347696
-2.262701
-2.159895
-2.043652
-1.923347
-1.799917
-1.681487
-1.561807
-1.438689
-1.317134
-1.187142
-1.054338
-0.918721
-0.775605
-0.629989
-0.477499
-0.316884
-0.152207
0.014970
0.179647
0.343700
0.500252
0.647118
0.783360
0.907102
1.024907
1.128963
1.221145
1.304265
1.381448
1.455194
1.528939
1.602060
1.670806
1.735802
1.800173
1.871732
1.947040
2.026410
2.109218
2.189838
2.261708
2.326080
2.383264
2.428574
2.458260
2.475759
2.482009
2.478260
2.467949
2.448263
2.417015
2.371394
2.314836
2.247653
2.170159
2.089539
2.010482
1.934863
1.865805
1.803310
1.739565
1.668632
1.590513
1.502707
1.403963
1.290534
1.164605
1.032427
0.896811
0.755571
0.611206
0.463091
0.310289
0.156237
-0.002502
-0.165616
-0.330605
-0.494968
-0.654020
-0.805884
-0.953374
-1.094302
-1.223356
-1.339598
-1.446153
-1.539271
-1.621140
-1.693323
-1.751443
-1.801439
-1.843624
-1.872684
-1.887682
-1.887369
-1.868933
-1.834872
-1.786750
-1.732690
-1.670506
-1.599573
-1.524577
-1.436770
-1.335214
-1.223658
-1.098041
-0.955238
-0.791810
-0.611509
-0.410272
-0.184036
0.061261
0.329368
0.616225
0.909019
1.199625
1.483670
1.754277
2.005199
2.230809
2.428297
2.595162
2.730778
2.837022
2.919829
2.982638
3.030760
3.061696
3.072008
3.066697
3.042949
3.002639
2.950768
2.887960
2.815778
2.735784
2.646415
2.549859
2.444554
2.330812
2.217695
2.103641
1.988961
1.877719
1.770226
1.663984
1.565866
1.480247
1.398378
1.319008
1.234952
1.146521
1.053402
0.956846
0.855604
0.745299
0.634994
0.526877
0.419697
0.316891
0.223148
0.130029
0.037849
-0.051520
-0.144951
-0.248381
-0.356811
-0.466804
-0.575858
-0.674914
-0.758658
-0.826466
-0.876149
-0.904584
-0.916458
-0.914583
-0.899583
-0.872710
-0.834899
-0.789902
-0.747404
-0.707406
-0.671471
-0.643347
-0.617411
-0.595224
-0.580537
-0.567100
-0.550851
-0.533351
-0.519914
-0.504290
-0.482416
-0.462729
-0.443667
-0.424606
-0.412419
-0.401169
-0.384919
-0.371482
-0.357108
-0.331484
-0.300861
-0.271175
-0.240551
-0.219302
-0.215552
-0.222426
-0.241799
-0.283671
-0.336792
-0.397725
-0.467095
-0.539590
-0.613334
-0.690516
-0.769886
-0.843318
-0.908626
-0.962997
-0.994244
-0.997056
-0.979244
-0.929872
-0.847689
-0.741758
-0.609579
-0.453339
-0.291162
-0.127422
0.039130
0.196933
0.345674
0.494102
0.643467
0.795958
0.958760
1.126562
1.297176
1.471540
1.650904
1.833393
2.012444
2.184933
2.345235
2.490539
2.613656
2.705526
2.772084
2.810207
2.821145
2.816770
2.798959
2.775211
2.753338
2.732403
2.715217
2.699906
2.684907
2.672408
2.649285
2.616476
2.574291
2.520545
2.457112
2.385243
2.297749
2.193694
2.075264
1.936524
1.786222
1.616858
1.426559
1.225010
1.018462
0.808476
0.605990
0.413503
0.230390
0.056652
-0.103650
-0.249577
-0.385193
-0.508309
-0.609864
-0.695796
-0.772665
-0.830474
-0.869845
-0.890469
-0.889218
-0.868907
-0.834533
-0.783599
-0.718290
-0.637045
-0.544238
-0.438307
-0.329876
-0.209571
-0.093328
0.028852
0.157281
0.260712
0.365706
0.458200
0.538508
0.601629
0.648502
0.685375
0.707561
0.713186
0.709125
0.697876
0.677565
0.653192
0.620382
0.576011
0.514140
0.442270
0.357901
0.263221
0.163228
0.055423
-0.065506
-0.195810
-0.341112
-0.507976
-0.691401
-0.892012
-1.103560
-1.317608
-1.531656
-1.740080
-1.940379
-2.132241
-2.317853
-2.495653
-2.663767
-2.819694
-2.965309
-3.098737
-3.212791
-3.312784
-3.401216
-3.477773
-3.541830
-3.597451
-3.641511
-3.669946
-3.680882
-3.676819
-3.658070
-3.626509
-3.589636
-3.541201
-3.471830
-3.383398
-3.277780
-3.152787
-3.012484
-2.863430
-2.700628
-2.522514
-2.331589
-2.122227
-1.892554
-1.652570
-1.405710
-1.149164
-0.892306
-0.636697
-0.379213
-0.122042
0.138566
0.403549
0.668845
0.929453
1.182562
1.425359
1.655344
1.874393
2.084692
2.282805
2.473418
2.659656
2.838082
3.006509
3.160562
3.286804
3.380548
3.438982
3.458982
3.434921
3.375238
3.281182
3.145254
2.974953
2.766530
2.521546
2.240940
1.927211
1.583172
1.209759
0.811973
0.401063
-0.012972
-0.426381
-0.842604
-1.258826
-1.666611
-2.071584
-2.477807
-2.881530
-3.279316
-3.665853
-4.037703
-4.388617
-4.723282
-5.039511
-5.334491
-5.608222
-5.862268
-6.099439
-6.310675
-6.497850
-6.679712
-6.840639
-6.971255
-7.110932
-7.230299
-7.326230
-7.408724
-7.463720
-7.492468
-7.486842
-7.451844
-7.385911
-7.283729
-7.147800
-6.986873
-6.797510
-6.585023
-6.351913
-6.093805
-5.806948
-5.494156
-5.154177
-4.789826
-4.402663
-3.993002
-3.568030
-3.135245
-2.705273
-2.282488
-1.873764
-1.481602
-1.111001
-0.765710
-0.451355
-0.164811
0.100484
0.341719
0.557643
0.750131
0.915433
1.053862
1.170417
1.273848
1.359155
1.438213
1.510084
1.557894
1.602266
1.632890
1.645702
1.639453
1.606330
1.551647
1.481652
1.407595
1.326663
1.236982
1.148863
1.061994
0.979813
0.916067
0.857947
0.806701
0.765454
0.735456
0.726707
0.726083
0.731395
0.759206
0.798892
0.846389
0.899199
0.952633
1.019504
1.106062
1.212930
1.337922
1.486350
1.658840
1.859764
2.084750
2.325047
2.574094
2.844077
3.146245
3.462787
3.785579
4.108996
4.429600
4.746767
5.053310
5.341104
5.613274
5.872945
6.110118
6.321979
6.512905
6.691018
6.853508
6.988187
7.089119
7.158177
7.205987
7.234735
7.238486
7.205676
7.145368
7.063811
6.955694
6.821328
6.664776
6.488851
6.297926
6.090128
5.866393
5.635471
5.376426
5.106444
4.829900
4.547419
4.275563
4.022142
3.781846
3.545924
3.330001
3.134702
2.965651
2.816599
2.685983
2.575678
2.492247
2.440376
2.419440
2.433815
2.476312
2.536934
2.611617
2.700674
2.805355
2.917848
3.028779
3.135335
3.238141
3.344384
3.453128
3.565308
3.685301
3.824042
3.987782
4.175895
4.387444
4.624929
4.882413
5.157083
5.438627
5.718297
5.995467
6.258887
6.507621
6.731045
6.919783
7.072586
7.189453
7.267261
7.294760
7.266637
7.192580
7.071651
6.897913
6.671366
6.405446
6.110466
5.778613
5.413325
5.021789
4.610254
4.186532
3.752186
3.313465
2.880057
2.457585
2.049487
1.645764
1.250166
0.883940
0.557087
0.278356
0.033060
-0.193487
-0.395974
-0.565337
-0.703140
-0.823132
-0.933749
-1.033429
-1.117173
-1.188106
-1.250601
-1.308097
-1.356843
-1.398090
-1.442149
-1.481209
-1.515581
-1.556203
-1.606824
-1.664632
-1.721191
-1.771187
-1.817121
-1.865242
-1.924301
-1.988046
-2.040854
-2.082101
-2.115849
-2.147096
-2.178968
-2.211153
-2.242713
-2.269586
-2.301771
-2.342080
-2.388952
-2.448323
-2.521755
-2.614561
-2.713929
-2.803610
-2.883604
-2.957661
-3.030781
-3.107963
-3.167959
-3.200768
-3.215767
-3.201080
-3.155145
-3.083274
-2.985155
-2.864850
-2.727671
-2.577368
-2.416128
-2.248951
-2.081149
-1.913660
-1.753670
-1.601179
-1.447127
-1.303698
-1.182143
-1.077774
-0.981530
-0.899973
-0.850913
-0.837476
-0.852787
-0.893721
-0.963404
-1.068709
-1.212761
-1.381812
-1.567112
-1.774911
-2.008957
-2.258940
-2.524235
-2.808591
-3.104508
-3.406676
-3.704781
-4.002261
-4.297866
-4.583784
-4.856578
-5.113123
-5.348107
-5.561218
-5.756205
-5.931193
-6.070558
-6.164614
-6.217735
-6.233984
-6.211797
-6.143364
-6.024933
-5.856506
-5.647770
-5.404660
-5.129365
-4.821260
-4.478157
-4.097557
-3.676959
-3.220738
-2.730145
-2.213928
-1.673026
-1.106813
-0.529975
0.050925
0.639012
1.230848
1.811436
2.370775
2.910115
3.423519
3.913487
4.378145
4.800617
5.171844
5.503385
5.800553
6.048662
6.245212
6.391766
6.485510
6.519258
6.501448
6.436140
6.330835
6.197094
6.035230
5.854617
5.658068
5.446208
5.226535
5.005612
4.773441
4.531269
4.287848
4.037865
3.783820
3.533524
3.283854
3.030433
2.770763
2.502031
2.227675
1.945506
1.647089
1.330235
1.008694
0.688716
0.370612
0.051883
-0.249346
-0.522140
-0.782435
-1.033668
-1.279589
-1.506449
-1.707373
-1.897985
-2.089534
-2.285771
-2.479508
-2.665120
-2.843233
-3.015096
-3.177273
-3.322575
-3.446004
-3.549434
-3.634116
-3.710985
-3.779418
-3.830039
-3.860662
-3.878785
-3.888471
-3.881284
-3.850973
-3.796601
-3.712231
-3.591926
-3.450372
-3.294132
-3.126955
-2.952279
-2.769165
-2.571053
-2.359816
-2.152017
-1.948592
-1.743917
-1.532993
-1.317382
-1.104271
-0.895221
-0.685235
-0.474311
-0.257762
-0.036526
0.187210
0.415008
0.636556
0.847793
1.054030
1.254330
1.439006
1.606183
1.756173
1.878041
1.965848
2.026157
2.064905
2.079592
2.067093
2.029909
1.961789
1.872420
1.777739
1.681183
1.576816
1.445887
1.302772
1.164969
1.030603
0.891863
0.739998
0.578759
0.419395
0.260969
0.098792
-0.067134
-0.237435
-0.401798
-0.563037
-0.728651
-0.896765
-1.059566
-1.216430
-1.369545
-1.517972
-1.659212
-1.786078
-1.897008
-1.997314
-2.094807
-2.188238
-2.264795
-2.319791
-2.357600
-2.373849
-2.364474
-2.330725
-2.271666
-2.178859
-2.057304
-1.920750
-1.767948
-1.597646
-1.424532
-1.269229
-1.137675
-1.026431
-0.936124
-0.871441
-0.834880
-0.819568
-0.809568
-0.801443
-0.801130
-0.806442
-0.809254
-0.796754
-0.778005
-0.759568
-0.740819
-0.716758
-0.672385
-0.616138
-0.553954
-0.477396
-0.372090
-0.248973
-0.117731
0.030697
0.186625
0.343802
0.499418
0.650033
0.797212
0.941578
1.079069
1.201561
1.307180
1.400924
1.476232
1.526542
1.551541
1.552791
1.525293
1.467173
1.370617
1.231877
1.062513
0.865652
0.648479
0.422557
0.195697
-0.031788
-0.257397
-0.471758
-0.663932
-0.839233
-0.999534
-1.140775
-1.261391
-1.360134
-1.439504
-1.507311
-1.561370
-1.592930
-1.605428
-1.603553
-1.597928
-1.584803
-1.559492
-1.531056
-1.508244
-1.481371
-1.438248
-1.381689
-1.312630
-1.221698
-1.104518
-0.960777
-0.795787
-0.616736
-0.420499
-0.194263
0.069158
0.365701
0.686618
1.021597
1.377199
1.755924
2.152774
2.558373
2.963972
3.365821
3.766420
4.171394
4.572305
4.965405
5.346630
5.711607
6.064084
6.406562
6.726229
7.012461
7.265257
7.489931
7.688356
7.854283
7.987087
8.089893
8.164264
8.209574
8.223011
8.203950
8.162078
8.097395
7.991778
7.836788
7.645551
7.424316
7.170896
6.892790
6.596560
6.277831
5.948166
5.617875
5.287272
4.970106
4.678876
4.417643
4.178910
3.954862
3.755813
3.579575
3.416774
3.262410
3.108358
2.950556
2.795567
2.639640
2.478401
2.319349
2.159985
2.007496
1.864068
1.738139
1.631897
1.541903
1.480345
1.447535
1.443473
1.463785
1.496908
1.523782
1.548781
1.586279
1.628464
1.665337
1.698148
1.729396
1.761270
1.792206
1.827829
1.877826
1.935010
2.000631
2.071252
2.149373
2.237492
2.326549
2.408419
2.482165
2.550599
2.609033
2.665279
2.712464
2.744338
2.759962
2.750588
2.720903
2.679969
2.627785
2.556228
2.464359
2.358742
2.233125
2.087511
1.936583
1.778782
1.615980
1.447554
1.271004
1.087891
0.903529
0.719167
0.538241
0.367941
0.212326
0.069211
-0.060467
-0.174522
-0.279827
-0.372008
-0.449190
-0.517310
-0.573243
-0.619490
-0.663237
-0.700734
-0.722919
-0.727918
-0.722918
-0.708544
-0.679795
-0.639797
-0.590113
-0.528554
-0.458870
-0.382625
-0.309504
-0.240133
-0.170137
-0.104829
-0.050769
-0.010147
0.022352
0.043288
0.056413
0.072662
0.093287
0.112661
0.132347
0.157346
0.190470
0.232967
0.288589
0.357960
0.442955
0.547011
0.662629
0.791996
0.943236
1.110726
1.282590
1.455392
1.629756
1.805057
1.980046
2.152223
2.316900
2.470953
2.611882
2.734999
2.844367
2.934674
2.991858
3.015607
3.008421
2.965299
2.882180
2.763751
2.612199
2.436273
2.244411
2.040675
1.826940
1.605080
1.376970
1.144798
0.904190
0.656394
0.407036
0.150803
-0.104180
-0.351038
-0.593834
-0.826944
-1.045679
-1.250665
-1.440339
-1.610953
-1.754380
-1.865935
-1.958741
-2.033423
-2.090606
-2.137165
-2.178725
-2.218409
-2.246219
-2.261843
-2.269654
-2.286215
-2.314026
-2.339648
-2.356209
-2.361834
-2.359021
-2.351208
-2.342146
-2.334646
-2.330583
-2.334957
-2.356831
-2.393078
-2.448074
-2.531193
-2.632748
-2.742428
-2.860857
-2.991786
-3.128339
-3.263329
-3.393633
-3.521749
-3.650490
-3.771732
-3.883599
-3.979842
-4.065773
-4.143893
-4.223575
-4.303881
-4.385438
-4.472619
-4.574175
-4.689167
-4.812283
-4.944462
-5.084139
-5.228504
-5.358808
-5.515047
-5.661600
-5.793466
-5.923769
-6.021575
-6.109068
-6.181563
-6.231559
-6.252183
-6.248120
-6.224059
-6.178749
-6.105315
-6.004072
-5.879392
-5.732838
-5.556912
-5.350050
-5.120690
-4.868831
-4.606035
-4.335740
-4.052633
-3.763589
-3.475795
-3.188938
-2.906144
-2.635536
-2.371803
-2.116819
-1.869022
-1.624663
-1.384053
-1.147193
-0.914708
-0.684410
-0.467549
-0.275374
-0.114134
0.012733
0.100853
0.162099
0.204285
0.215222
0.200848
0.177725
0.135228
0.071171
-0.008824
-0.103504
-0.203185
-0.300678
-0.395671
-0.493165
-0.580346
-0.651591
-0.718148
-0.781581
-0.837515
-0.887198
-0.929695
-0.975317
-1.032500
-1.094995
-1.157803
-1.217174
-1.275920
-1.333728
-1.387474
-1.446532
-1.508402
-1.572148
-1.646205
-1.730261
-1.823067
-1.923685
-2.032115
-2.150232
-2.283660
-2.431775
-2.589889
-2.761753
-2.941115
-3.118291
-3.292029
-3.459517
-3.611069
-3.741685
-3.846366
-3.920423
-3.965107
-3.979480
-3.967918
-3.930733
-3.868861
-3.793553
-3.708246
-3.611377
-3.507008
-3.395140
-3.268273
-3.126719
-2.973604
-2.805177
-2.624563
-2.443637
-2.263649
-2.080223
-1.898672
-1.723058
-1.549631
-1.379954
-1.210590
-1.044038
-0.879048
-0.715933
-0.556881
-0.399391
-0.251900
-0.113784
0.012459
0.122764
0.227445
0.322440
0.396498
0.452745
0.493367
0.515241
0.514929
0.496806
0.468996
0.432436
0.386190
0.333381
0.276823
0.229014
0.188705
0.150270
0.120272
0.113711
0.129648
0.156834
0.201519
0.264953
0.340261
0.416506
0.491502
0.566497
0.641805
0.715551
0.774298
0.819920
0.861793
0.900228
0.933977
0.960225
0.972725
0.982412
0.990225
0.987100
0.984601
0.984289
0.986477
0.993039
0.994602
0.998040
1.005852
1.015227
1.024290
1.023665
1.012729
1.003355
1.001481
1.006793
1.013981
1.018043
1.021481
1.029919
1.042106
1.053043
1.068980
1.091166
1.116478
1.149913
1.189911
1.233034
1.284594
1.335528
1.377713
1.408649
1.427399
1.434899
1.423650
1.389590
1.335219
1.271161
1.199916
1.118985
1.035553
0.954621
0.877752
0.809632
0.746199
0.689328
0.641207
0.600272
0.567462
0.536215
0.508405
0.479345
0.437785
0.381227
0.312794
0.234675
0.141557
0.031564
-0.094677
-0.234042
-0.380595
-0.535897
-0.696511
-0.860562
-1.031800
-1.203351
-1.369902
-1.535828
-1.692380
-1.836432
-1.978298
-2.113288
-2.234842
-2.344522
-2.443578
-2.522322
-2.592630
-2.657625
-2.707309
-2.740743
-2.756679
-2.752304
-2.728243
-2.691370
-2.640435
-2.578564
-2.504818
-2.419198
-2.320142
-2.212648
-2.102655
-1.990475
-1.871419
-1.750489
-1.634247
-1.515816
-1.393324
-1.260832
-1.125216
-0.991161
-0.856170
-0.722741
-0.589624
-0.458694
-0.333390
-0.215272
-0.098717
0.016589
0.125957
0.229388
0.320945
0.396566
0.461874
0.518121
0.562494
0.592492
0.611866
0.624991
0.625304
0.614993
0.599369
0.578121
0.556873
0.536250
0.517814
0.501253
0.489067
0.483755
0.488443
0.500630
0.515317
0.527504
0.536254
0.543129
0.542817
0.536255
0.517507
0.492821
0.469386
0.445951
0.421265
0.386580
0.345334
0.304087
0.255340
0.196595
0.129412
0.048793
-0.049013
-0.171817
-0.315869
-0.477421
-0.659283
-0.856770
-1.072068
-1.301427
-1.546098
-1.805143
-2.079812
-2.366668
-2.662898
-2.963815
-3.272232
-3.590648
-3.908440
-4.227481
-4.541210
-4.845877
-5.128983
-5.378028
-5.592076
-5.773939
-5.916429
-6.012985
-6.058606
-6.052669
-5.999547
-5.902053
-5.762999
-5.580510
-5.363337
-5.118977
-4.853057
-4.558700
-4.243096
-3.917179
-3.592200
-3.267846
-2.942554
-2.622887
-2.307282
-1.995740
-1.685760
-1.375780
-1.063925
-0.746445
-0.417091
