EVENT_NAME: 202302060117
EVENT_ID: 13194
EVENT_DATE_YYYYMMDD: 2023/02/06
EVENT_TIME_HHMMSS: 01:17:32.00000
EVENT_LATITUDE_DEGREE: 37.288
EVENT_LONGITUDE_DEGREE: 37.043
EVENT_DEPTH_KM: 8.6
HYPOCENTER_REFERENCE: AFAD
MAGNITUDE_W: 7.7
MAGNITUDE_W_REFERENCE: AFAD
MAGNITUDE_L: 
MAGNITUDE_L_REFERENCE: 
FOCAL_MECHANISM: 
NETWORK: TK
STATION_CODE: 2404
STATION_NAME: 
STATION_LATITUDE_DEGREE: 39.90631
STATION_LONGITUDE_DEGREE: 38.77056
STATION_ELEVATION_M: 1579.0
LOCATION: Kahramanmaras_Pazarck_Turkiye
SENSOR_DEPTH_M: 
VS30_M/S: 567
SITE_CLASSIFICATION_EC8: B
MORPHOLOGIC_CLASSIFICATION: 
EPICENTRAL_DISTANCE_KM: 327.55
EARTHQUAKE_BACKAZIMUTH_DEGREE: 
DATE_TIME_FIRST_SAMPLE_YYYYMMDD_HHMMSS: 2023/02/06 01:18:05.9500340
DATE_TIME_FIRST_SAMPLE_PRECISION: millisecond
SAMPLING_INTERVAL_S: 0.01
NDATA: 18251
DURATION_S: 
STREAM: HNN
UNITS: cm/s^2
INSTRUMENT: sensor = CMG-5T/GURALP | digitizer = 
INSTRUMENT_ANALOG/DIGITAL: 
INSTRUMENTAL_FREQUENCY_HZ: 
INSTRUMENTAL_DAMPING: 
FULL_SCALE_G: 
N_BIT_DIGITAL_CONVERTER: 
PGA_CM/S^2: 8.604
TIME_PGA_S: 
BASELINE_CORRECTION: BASELINE REMOVED
FILTER_TYPE: BUTTERWORTH
FILTER_ORDER: 
LOW_CUT_FREQUENCY_HZ: 
HIGH_CUT_FREQUENCY_HZ: 
LATE/NORMAL_TRIGGERED: 
DATABASE_VERSION: 
HEADER_FORMAT: DYNA 1.2
DATA_TYPE: Acceleration
PROCESSING: Automatic Paolucci et al., 2011
DATA_TIMESTAMP_YYYYMMDD_HHMMSS: 
DATA_LICENSE: U (unknown license)
DATA_CITATION: Turkish Accelerometric Archive v 1.0 - Disaster And Emergency Management Presidency, Earthquake Department
DATA_CREATOR: AFAD
ORIGINAL_DATA_MEDIATOR_CITATION: : AFAD - Disaster And Emergency Management Presidency
ORIGINAL_DATA_MEDIATOR: AFAD PROCESS SERVICE
ORIGINAL_DATA_CREATOR_CITATION: AFAD PROCESS SERVICE
ORIGINAL_DATA_CREATOR: network: TK
USER1: GuestUser
USER2: 
USER3: 
USER4: 
USER5: 
[...]
0.071574
-0.172371
-0.421404
-0.721022
-1.027225
-1.379822
-1.687223
-1.973671
-2.187085
-2.344228
-2.477725
-2.585181
-2.755194
-2.946459
-3.154785
-3.328690
-3.430159
-3.474459
-3.487929
-3.485536
-3.477156
-3.446327
-3.418790
-3.381676
-3.303555
-3.203284
-3.055123
-2.870744
-2.636379
-2.484925
-2.353825
-2.288275
-2.274806
-2.211951
-2.129340
-2.006920
-1.903955
-1.779140
-1.609428
-1.458273
-1.363091
-1.282576
-1.219121
-1.158360
-1.085328
-1.056893
-1.026962
-1.021576
-1.006012
-0.998231
-1.022476
-1.091620
-1.154477
-1.195784
-1.182016
-1.135323
-1.082644
-1.055707
-1.085939
-1.073967
-1.068879
-1.039248
-1.035058
-1.037753
-1.036556
-1.002734
-0.956640
-0.897975
-0.844996
-0.809977
-0.762686
-0.679177
-0.539396
-0.365793
-0.204162
-0.087728
-0.054505
-0.080247
-0.079350
-0.054508
0.013736
0.135557
0.224454
0.351364
0.488151
0.614463
0.751250
0.790460
0.860499
0.848526
0.811709
0.769504
0.682102
0.662047
0.575843
0.571053
0.680602
0.746751
0.900898
1.044869
1.200813
1.445056
1.611176
1.767120
1.903309
1.935634
1.887443
1.673131
1.375308
1.035881
0.643774
0.351040
0.113082
-0.075190
-0.198809
-0.296687
-0.434374
-0.621449
-0.803734
-1.012060
-1.310781
-1.625963
-1.923785
-2.245553
-2.508953
-2.852870
-3.234801
-3.581113
-3.912758
-4.136050
-4.298281
-4.382689
-4.393765
-4.379099
-4.280625
-4.137252
-3.984002
-3.805610
-3.614047
-3.396743
-3.180936
-2.945972
-2.719090
-2.466467
-2.186306
-1.957628
-1.738528
-1.582884
-1.468845
-1.373363
-1.268304
-1.144686
-1.000416
-0.802568
-0.645427
-0.429021
-0.159636
0.078621
0.255816
0.356685
0.460248
0.527893
0.583865
0.587755
0.525795
0.442285
0.318067
0.206421
0.095073
0.021740
-0.022261
-0.100384
-0.170724
-0.242561
-0.345827
-0.413773
-0.551759
-0.687351
-0.769964
-0.888195
-0.912740
-0.892687
-0.817858
-0.725071
-0.663113
-0.601753
-0.567632
-0.485021
-0.431743
-0.373078
-0.326984
-0.327583
-0.295258
-0.267722
-0.198580
-0.152187
-0.094419
-0.077658
-0.057306
-0.039048
-0.077062
-0.128247
-0.227920
-0.305444
-0.341064
-0.337473
-0.311134
-0.276713
-0.242891
-0.207872
-0.185424
-0.151901
-0.136637
-0.035468
0.113292
0.306650
0.542512
0.705040
0.823270
0.899895
0.971431
1.026205
1.041170
1.041768
0.924734
0.844516
0.711019
0.577522
0.475753
0.310828
0.195291
0.065087
-0.073199
-0.157907
-0.227948
-0.234534
-0.224059
-0.240522
-0.240822
-0.305476
-0.359653
-0.372824
-0.355764
-0.323139
-0.262379
-0.265672
-0.219578
-0.259987
-0.198627
-0.262383
-0.226166
-0.349486
-0.295011
-0.312971
-0.215095
-0.215994
-0.145655
-0.277954
-0.182473
-0.378527
-0.149849
-0.216897
-0.251319
0.092596
-0.130397
0.179696
0.023750
0.263204
0.301216
0.439201
0.666382
0.743905
0.880393
0.906732
0.849262
0.783710
0.621778
0.593342
0.523900
0.539463
0.522701
0.560115
0.628059
0.690017
0.707676
0.711865
0.642722
0.601715
0.525687
0.485877
0.436788
0.382311
0.332623
0.272160
0.281738
0.313464
0.440674
0.590032
0.757051
0.904614
1.011170
1.058761
1.077916
1.019848
0.961779
0.865996
0.775003
0.708554
0.670539
0.684906
0.779789
0.861801
0.913881
0.941717
0.989607
1.021034
1.071319
1.119209
1.136568
1.211696
1.294607
1.399666
1.486468
1.581350
1.657676
1.701674
1.800748
1.879168
1.961480
2.000989
2.013859
2.015953
2.000687
1.989312
1.953094
1.898916
1.801038
1.671732
1.522671
1.309556
1.047652
0.751027
0.463082
0.183519
-0.028699
-0.198113
-0.324127
-0.402549
-0.476781
-0.512101
-0.634523
-0.791666
-0.994305
-1.190359
-1.347203
-1.538767
-1.732426
-1.902141
-2.034440
-2.075447
-2.123339
-2.167938
-2.251748
-2.348429
-2.427749
-2.539096
-2.657926
-2.817763
-2.968320
-3.140429
-3.290089
-3.442442
-3.582225
-3.739966
-3.864783
-4.052156
-4.211694
-4.279340
-4.475993
-4.607095
-4.683123
-4.846551
-5.017463
-5.078225
-5.175205
-5.172213
-5.115343
-5.121929
-5.024053
-4.939347
-4.745390
-4.504440
-4.272469
-3.972554
-3.689699
-3.380505
-3.056045
-2.770497
-2.517275
-2.282610
-2.061116
-1.821662
-1.551379
-1.262838
-0.976092
-0.659714
-0.428642
-0.171229
-0.040428
0.296603
0.477989
0.659674
0.882964
0.966772
1.240348
1.526794
1.830900
2.121537
2.501370
2.805177
3.169745
3.545388
3.883018
4.214661
4.472074
4.708833
4.915362
5.075197
5.168284
5.248201
5.314648
5.364634
5.406537
5.421203
5.415814
5.347270
5.271242
5.151514
5.042262
4.896494
4.757310
4.604956
4.447215
4.289773
4.124249
3.929991
3.706400
3.430428
3.129612
2.813532
2.494159
2.216690
1.938922
1.729698
1.536338
1.335196
1.205890
1.097236
1.044256
0.965535
0.934105
0.917043
0.869152
0.827246
0.767382
0.688062
0.605449
0.570129
0.546781
0.522835
0.498589
0.470752
0.474642
0.464764
0.438423
0.407293
0.399510
0.433332
0.471644
0.551860
0.579097
0.540783
0.512048
0.514442
0.516536
0.496481
0.412671
0.310004
0.165433
0.005895
-0.177288
-0.328444
-0.507437
-0.660689
-0.796879
-0.925587
-1.009996
-1.147982
-1.279383
-1.479329
-1.737641
-1.987871
-2.228823
-2.395843
-2.501803
-2.511681
-2.439546
-2.277317
-2.087550
-1.902573
-1.712507
-1.535311
-1.394932
-1.280594
-1.218636
-1.174338
-1.164760
-1.197985
-1.252163
-1.341660
-1.414096
-1.493116
-1.497008
-1.473363
-1.442235
-1.406318
-1.425176
-1.463489
-1.543408
-1.584415
-1.613450
-1.661940
-1.693968
-1.786458
-1.854704
-1.930133
-2.002569
-2.048365
-2.120801
-2.172584
-2.217183
-2.279442
-2.310273
-2.352477
-2.362655
-2.321649
-2.217787
-2.029217
-1.809519
-1.631725
-1.474883
-1.357252
-1.287213
-1.182153
-1.120495
-1.080686
-1.046265
-1.009450
-0.919656
-0.804120
-0.700258
-0.621538
-0.604478
-0.621240
-0.638003
-0.687990
-0.679011
-0.704155
-0.728400
-0.685599
-0.675124
-0.558390
-0.465902
-0.397958
-0.374911
-0.481769
-0.574259
-0.721524
-0.900218
-1.130095
-1.371645
-1.565304
-1.734420
-1.828107
-1.892761
-1.989142
-2.077442
-2.174122
-2.208545
-2.243266
-2.239376
-2.238180
-2.202262
-2.157366
-2.101095
-2.013096
-1.959220
-1.929289
-1.865834
-1.773645
-1.682654
-1.623090
-1.558139
-1.518929
-1.459067
-1.455176
-1.460266
-1.507559
-1.542879
-1.565329
-1.535997
-1.441712
-1.320190
-1.176219
-1.038235
-0.843380
-0.753286
-0.586866
-0.511139
-0.435413
-0.402489
-0.396503
-0.530898
-0.717074
-0.943360
-1.073564
-1.238189
-1.410298
-1.549482
-1.702434
-1.797319
-1.831442
-1.830245
-1.805702
-1.717105
-1.600671
-1.400129
-1.138825
-0.865250
-0.512654
-0.196276
0.068320
0.295801
0.507118
0.701973
0.859713
0.972854
1.070132
1.188361
1.280251
1.351188
1.310780
1.248221
1.207214
1.207213
1.249416
1.323945
1.407155
1.517901
1.695097
1.866306
2.029732
2.163527
2.240450
2.296422
2.305101
2.270679
2.208420
2.051277
1.908502
1.773508
1.606189
1.612474
1.588527
1.655274
1.732497
1.786972
1.854318
1.810317
1.800140
1.739976
1.549609
1.465500
1.220058
1.063814
0.956058
0.838425
0.768683
0.648955
0.564846
0.534914
0.430451
0.405307
0.239784
0.220327
0.089225
0.115863
0.140706
0.050311
0.066773
0.100595
0.153872
0.199966
0.072456
0.089816
-0.027218
-0.076307
-0.283436
-0.555816
-0.806646
-0.972169
-1.165529
-1.242754
-1.417856
-1.490591
-1.543272
-1.503464
-1.505560
-1.435820
-1.428338
-1.164041
-0.992233
-0.745895
-0.583367
-0.404376
-0.305602
-0.191862
-0.085006
0.030829
-0.015865
0.059861
-0.003595
0.084104
0.135287
0.211612
0.265788
0.321160
0.396288
-0.222702
1.505858
-0.855162
0.953914
0.241836
0.070925
0.730620
-0.047607
0.919488
-0.097296
0.257695
0.340904
0.151136
0.262780
0.237337
0.363349
0.441770
0.339702
0.584543
0.640215
0.762635
0.692893
0.845544
0.758143
0.754550
0.765923
0.748562
0.656670
0.714438
0.629131
0.797946
0.671633
0.790162
0.734787
0.695875
0.677915
0.724907
0.773994
0.770701
0.826972
0.930236
0.926344
0.859295
0.828166
0.803920
0.770395
0.825469
0.757822
0.865875
0.930826
1.148729
1.326223
1.491745
1.673131
1.747960
1.906298
2.010160
2.151438
2.187654
2.251109
2.218183
2.077203
1.947598
1.686891
1.548306
1.254076
1.167572
1.100224
1.023000
1.057420
1.008331
1.141826
1.132247
1.191811
1.262449
1.294175
1.416596
1.353738
1.454009
1.436049
1.477653
1.486632
1.458196
1.497106
1.382167
1.432751
1.258248
1.128942
1.040043
0.870628
0.729350
0.537486
0.485104
0.399199
0.424042
0.563224
0.594053
0.670378
0.691329
0.716770
0.955326
1.166344
1.281581
1.424953
1.528516
1.586583
1.653030
1.643451
1.631777
1.490498
1.438416
1.436021
1.356102
1.434522
1.460861
1.485105
1.620995
1.691034
1.780230
1.952337
2.044526
2.076253
2.134020
2.091516
2.114862
2.100195
2.127432
2.095703
1.970288
2.046613
1.979865
1.914014
1.790694
1.646123
1.422831
1.373742
1.477903
1.362964
1.401575
1.352786
1.274962
1.316567
1.174390
1.163913
0.986716
0.936130
0.861599
0.755041
0.752346
0.617054
0.565271
0.595800
0.544317
0.620043
0.607471
0.616450
0.441049
0.456014
0.268341
0.268639
-0.037564
0.075577
0.151304
-0.437455
0.109398
-0.108806
0.042648
0.133939
0.073476
0.484139
0.306942
0.612545
0.701741
0.929221
1.072893
1.346768
1.485950
1.755036
1.829565
2.171684
2.271356
2.582945
2.597312
2.856221
2.721527
3.120517
3.121414
3.527288
3.363261
3.890958
3.570687
4.597346
3.420128
4.938267
4.404583
3.331228
5.669797
2.165982
4.912821
3.438081
3.079497
4.011572
2.787361
3.118705
2.996882
2.552693
2.586216
2.259959
2.122571
1.779253
1.810381
1.543987
1.715795
1.475741
1.228204
1.432338
1.038435
1.273997
1.244364
1.277288
1.418266
1.338347
1.530508
1.535895
1.768464
1.862449
1.590967
1.411674
1.233280
1.247946
0.833390
0.669063
0.699593
0.500546
-0.126526
-0.382444
-0.383941
-0.364187
-0.457874
-0.774254
-0.799997
-0.707508
-0.804488
-0.503974
-0.600355
-0.749416
-0.601554
-0.409393
-0.500985
-0.450401
-0.655734
-0.899080
-0.742239
-0.894293
-0.617724
-0.744037
-0.694052
-0.560557
-1.089453
-0.945781
-0.864667
-0.797620
-1.316638
-1.127770
-0.899690
-1.173567
-1.022712
-1.100535
-0.943095
-1.257978
-1.035885
-0.661739
-0.790746
-0.571347
-0.720707
-0.598586
-0.571648
-0.436657
0.199093
0.112590
-0.115791
0.214954
0.514870
0.474461
0.436148
-0.021211
-0.225047
-0.100232
-0.237022
-0.290301
-0.218765
-0.014332
-0.368426
-0.108020
0.580710
0.772571
1.213765
0.823753
0.962935
1.082961
1.269435
1.987497
1.815688
1.889319
1.670218
1.703441
2.021615
2.336796
2.587923
2.116496
2.167978
2.528955
2.881550
2.985413
2.701658
2.852214
3.269463
3.029409
3.068619
3.414030
3.001869
3.003664
3.217975
3.258082
3.234435
3.138054
3.242216
3.196120
3.109916
3.084772
3.025506
3.181749
3.070103
3.200605
3.318535
2.854292
2.421478
2.302648
2.211953
2.063790
2.102102
1.906647
1.539981
1.095194
0.691413
0.719548
1.159245
1.011980
0.237045
-0.082627
0.131684
0.680333
0.944629
0.322945
0.096959
0.236740
0.310072
0.562097
0.153527
-0.108976
0.122396
-0.076950
-0.492404
-0.684268
-0.810880
-1.122172
-1.736972
-1.816292
-1.896210
-2.261678
-2.390985
-2.482577
-2.335912
-2.875283
-3.237758
-2.964183
-2.988428
-2.504133
-2.830091
-3.119532
-2.476598
-2.679537
-2.807346
-2.872299
-2.258698
-2.039299
-2.436196
-1.806432
-1.315551
-0.804018
-1.057840
-1.107229
-0.749245
-0.608268
-0.204189
0.068788
-0.463999
-0.590312
0.051425
0.118172
0.480645
0.347148
-0.212877
-0.013831
0.188806
0.866162
1.034677
0.691059
0.559658
0.492011
1.171761
1.278616
1.191813
1.355539
1.573143
1.656651
1.838336
1.989192
2.437270
2.602492
2.291201
2.766816
2.689891
2.680311
2.903003
2.266652
2.450433
2.419602
1.976910
1.374981
0.938874
1.498897
1.341455
0.920314
0.732341
0.395309
0.211826
0.487197
1.137913
1.243871
0.276475
-0.048585
0.104066
0.108256
0.379736
0.265695
0.506046
0.279761
0.003789
0.325256
0.011271
-0.434415
-0.190771
-0.013276
-0.543070
-0.910034
-0.843287
-0.422447
-0.665195
-1.132730
-0.881903
-0.879808
-0.618804
-0.520030
-0.674778
-0.702017
-0.954043
-0.756495
-0.982181
-1.072576
-0.989666
-1.610452
-1.480549
-1.768793
-1.734971
-1.599680
-2.331812
-2.449744
-2.661064
-2.776601
-2.594617
-2.869392
-2.543136
-2.263574
-2.398268
-2.431194
-2.406052
-1.858900
-1.535637
-1.929241
-1.547911
-2.309975
-1.943910
-1.518281
-2.082796
-0.916654
-1.452733
-1.576352
-1.623646
-0.834046
0.021404
-0.887626
-0.584417
-0.507793
-0.259360
-0.195307
-0.391361
0.411409
-0.039365
-0.784667
-0.887035
-0.453324
-0.171667
-0.911581
-1.544939
-2.031930
-2.016965
-1.399174
-1.301298
-1.539855
-2.454870
-2.833508
-2.126520
-1.725435
-2.202250
-2.832015
-3.058001
-3.030465
-2.407885
-2.364484
-2.309411
-2.203752
-2.341739
-1.832001
-1.668275
-1.377040
-1.020254
-1.306103
-0.593728
-0.314764
-0.725130
-0.172889
-0.061245
-0.238741
-0.139069
-0.250716
0.852569
0.689141
-0.091481
0.649330
0.431126
1.015693
1.857973
2.398240
2.466185
1.066574
1.034546
1.422760
1.420664
2.573336
2.584709
2.471267
3.240214
3.485653
3.878657
4.098355
3.753241
2.486527
1.398805
1.795101
1.744815
1.448788
2.067178
2.404209
2.474249
2.448507
3.177045
3.862183
3.704442
2.774460
1.470631
0.970470
0.540050
0.294908
0.584646
1.209023
1.044397
0.726820
0.070116
-1.260054
-0.985281
-1.045744
-1.222941
-1.091541
-1.099923
-0.753015
-2.140952
-3.899745
-4.611823
-4.503471
-4.420860
-4.396915
-4.712098
-6.127872
-7.514912
-8.603831
-7.811239
-6.084175
-6.255685
-6.190136
-5.106307
-4.746228
-4.855480
-5.919257
-7.042298
-6.377813
-6.410140
-7.283551
-7.839385
-8.303329
-7.448777
-6.245819
-5.607076
-5.092549
-4.997667
-4.881233
-4.597480
-4.028777
-3.510060
-3.757896
-3.938685
-4.625621
-4.314032
-2.502561
-1.495357
-1.794376
-2.652522
-2.129016
-2.029044
-2.352907
-1.630055
-1.463935
-1.202033
-0.332216
0.314310
0.226010
0.457382
0.969813
1.189213
1.591794
1.287686
1.099415
1.154488
0.868339
1.028474
1.021888
1.729774
2.271837
1.184415
1.253556
1.835429
2.064107
1.727673
1.074561
0.915622
0.455570
0.848573
1.123047
1.118257
0.545062
-0.745298
-0.988046
-1.591771
-2.068286
-2.393046
-2.525046
-2.511279
-2.786951
-2.097623
-2.426275
-2.772587
-2.966545
-3.279932
-2.218851
-2.625924
-3.699878
-4.381425
-4.218597
-3.093462
-3.377217
-3.716345
-4.194955
-4.381431
-3.886060
-2.551104
-2.426888
-3.306883
-3.182368
-2.660059
-2.120689
-1.957861
-2.366131
-2.731001
-2.265862
-1.872559
-1.936015
-2.540039
-2.724719
-1.673516
-1.042854
-0.692354
0.150225
0.112211
-0.487324
-0.762697
0.053542
0.693782
-0.161370
-0.192500
0.406734
0.890131
1.658778
1.660573
1.612382
0.800332
0.667434
1.306178
0.756629
0.162782
0.380086
1.118502
2.150549
1.775503
1.255886
0.493223
-0.481356
0.547398
1.375011
2.256501
3.041611
1.767414
1.479769
1.973942
1.960172
2.654888
2.239733
2.170590
2.503431
2.305581
2.030207
2.409143
3.038308
1.490834
0.522839
1.680899
3.455853
4.457070
2.752754
0.984084
1.824867
2.263067
1.238800
0.634178
0.783237
1.246879
1.091233
0.525522
0.895178
1.152591
-0.115620
-1.250634
-1.307505
-1.357492
-2.034251
-2.182713
-1.596051
-1.306911
-1.947153
-2.505082
-2.175833
-2.986387
-3.345869
-2.853492
-3.012730
-2.872051
-3.362634
-3.446444
-2.527838
-2.619131
-2.684383
-2.420086
-2.362020
-2.137233
-3.124982
-3.459621
-3.159406
-3.613173
-3.149231
-2.743955
-3.800249
-4.304301
-3.114513
-2.336587
-2.949591
-3.333018
-3.246815
-3.632038
-3.683522
-3.408150
-2.820291
-3.113923
-4.016367
-3.610193
-3.109136
-2.782881
-2.241415
-2.175866
-3.028024
-2.852924
-1.909176
-2.171679
-3.333033
-3.263592
-2.796058
-2.742182
-2.405450
-2.583845
-2.395874
-1.790654
-1.591010
-1.630820
-1.361734
-1.269545
-0.978609
-0.224628
0.093845
-0.510179
-0.743648
0.189923
0.915170
0.544015
0.274328
0.684692
0.894513
1.435978
1.267462
0.992687
1.711947
1.637715
1.557796
1.012438
0.865472
1.752350
1.741275
1.802634
1.484758
1.079780
2.447661
3.327056
2.901725
2.641617
2.442569
2.638622
2.673042
3.034917
3.665279
3.149853
2.903514
3.660488
4.666793
5.501889
4.933484
3.994224
3.854142
3.462035
3.162417
3.109137
3.791581
4.133401
3.148944
3.385703
3.447661
3.435688
3.312069
2.754738
4.147164
4.597636
3.888252
3.085780
2.484449
3.966671
5.004704
5.109764
4.184571
3.396467
3.142046
2.963352
4.540158
4.225873
3.116899
2.198891
1.498486
2.516166
2.243786
2.102806
1.823242
0.258707
0.029429
0.332038
1.313800
0.379329
-1.378865
-0.935876
-0.990652
-0.999333
-1.066381
-0.983770
-0.791908
-1.339062
-1.434845
-2.272936
-2.316038
-1.815879
-1.382767
-0.933791
-1.202879
-2.003555
-3.245725
-3.014054
-1.713818
-1.592595
-1.431563
-1.610556
-1.822474
-1.804216
-2.274745
-2.527669
-1.635403
-1.089748
-1.738969
-1.732684
-1.723107
-1.428579
-0.681183
-0.555171
-1.512091
-1.123578
-0.058606
0.105420
0.028494
1.144350
-0.044541
-0.188514
-0.125957
1.086279
1.938137
1.254195
1.633729
2.048882
2.285641
2.758563
2.464332
2.799867
2.666669
3.842988
2.615484
5.307548
2.751971
3.095288
5.427273
2.395481
6.125879
3.735526
3.588260
4.337751
3.544857
5.291077
5.291974
3.861234
4.340441
4.187788
4.376058
4.690041
4.423049
3.529884
4.345524
4.902554
4.485004
4.053686
3.427213
3.741795
4.759176
4.913922
4.783120
4.923798
5.254544
5.033347
5.518241
5.341642
4.562218
5.261723
5.998044
5.318292
5.677173
6.520052
5.616111
5.065664
4.661285
5.088111
5.025852
3.884852
3.614268
3.037781
3.258078
3.471490
3.220661
2.213156
1.570520
1.667199
1.579199
1.386138
1.334954
0.770140
-0.467540
-0.084714
-0.206537
-0.827922
-0.869827
-0.771652
-0.347519
-0.207140
-0.525615
-0.690540
-0.673779
-1.081451
-1.949773
-1.801611
-1.995570
-1.783055
-1.166761
-1.918648
-2.092852
-2.027302
-1.572639
-1.005732
-2.020121
-2.219169
-2.145537
-1.769894
-1.078471
-2.088969
-2.140153
-1.716619
-1.321820
-0.787838
-1.431970
-0.414291
0.034685
-1.040166
-0.433150
-0.342458
-0.596580
0.084368
-0.233209
-0.761506
-0.974322
-0.953371
-1.064419
-1.282622
-1.490050
-1.572064
-1.500528
-1.849833
-1.360150
-1.449647
-1.879169
-2.156637
-2.313481
-2.029429
-2.525400
-2.423034
-2.074928
-2.255717
-2.440397
-2.891470
-2.671173
-2.689133
-2.713677
-2.293137
-2.300022
-2.388322
-2.809163
-2.668784
-2.027048
-2.068654
-2.209633
-2.314096
-2.690639
-2.172820
-1.829204
-1.718756
-1.461344
-1.363168
-1.016859
-1.578080
-1.181784
-0.244322
-0.579559
-0.879177
-1.110550
-0.747778
-0.363754
-0.372734
-0.646611
-0.454749
-0.471512
-0.018944
0.399202
-0.111435
-0.546345
-0.359871
-1.195866
-0.713666
-0.643627
-0.591247
-1.497582
-1.633174
-0.925588
-0.010574
-1.277886
-0.101568
-0.564614
-1.275195
0.731730
-1.524529
0.252520
-0.006690
0.435701
1.544374
1.946057
2.346843
1.739826
2.045428
2.134325
2.468662
3.289091
2.647054
2.999051
2.983186
3.431862
4.075096
3.325603
3.194201
2.412682
2.283675
3.196593
2.504570
2.412379
2.257032
1.852952
2.148977
1.863426
2.125628
2.440510
1.905328
1.221087
1.209413
1.433002
1.445872
1.397382
0.834962
-0.064788
0.652077
1.253406
1.022332
0.544021
-0.157581
-0.121664
0.134552
