EVENT_NAME: 202302060117
EVENT_ID: 13194
EVENT_DATE_YYYYMMDD: 2023/02/06
EVENT_TIME_HHMMSS: 01:17:32.00000
EVENT_LATITUDE_DEGREE: 37.288
EVENT_LONGITUDE_DEGREE: 37.043
EVENT_DEPTH_KM: 8.6
HYPOCENTER_REFERENCE: AFAD
MAGNITUDE_W: 7.7
MAGNITUDE_W_REFERENCE: AFAD
MAGNITUDE_L: 
MAGNITUDE_L_REFERENCE: 
FOCAL_MECHANISM: 
NETWORK: TK
STATION_CODE: 99005
STATION_NAME: 
STATION_LATITUDE_DEGREE: 35.3404
STATION_LONGITUDE_DEGREE: 33.32231
STATION_ELEVATION_M: 23.0
LOCATION: Kahramanmaras_Pazarck_Turkiye
SENSOR_DEPTH_M: 
VS30_M/S: 457
SITE_CLASSIFICATION_EC8: B
MORPHOLOGIC_CLASSIFICATION: 
EPICENTRAL_DISTANCE_KM: 397.48
EARTHQUAKE_BACKAZIMUTH_DEGREE: 
DATE_TIME_FIRST_SAMPLE_YYYYMMDD_HHMMSS: 2023/02/06 01:18:02.6480630
DATE_TIME_FIRST_SAMPLE_PRECISION: millisecond
SAMPLING_INTERVAL_S: 0.01
NDATA: 21001
DURATION_S: 
STREAM: HNE
UNITS: cm/s^2
INSTRUMENT: sensor = CMG-5T/GURALP | digitizer = 
INSTRUMENT_ANALOG/DIGITAL: 
INSTRUMENTAL_FREQUENCY_HZ: 
INSTRUMENTAL_DAMPING: 
FULL_SCALE_G: 
N_BIT_DIGITAL_CONVERTER: 
PGA_CM/S^2: 7.616
TIME_PGA_S: 
BASELINE_CORRECTION: BASELINE REMOVED
FILTER_TYPE: BUTTERWORTH
FILTER_ORDER: 
LOW_CUT_FREQUENCY_HZ: 
HIGH_CUT_FREQUENCY_HZ: 
LATE/NORMAL_TRIGGERED: 
DATABASE_VERSION: 
HEADER_FORMAT: DYNA 1.2
DATA_TYPE: Acceleration
PROCESSING: Automatic Paolucci et al., 2011
DATA_TIMESTAMP_YYYYMMDD_HHMMSS: 
DATA_LICENSE: U (unknown license)
DATA_CITATION: Turkish Accelerometric Archive v 1.0 - Disaster And Emergency Management Presidency, Earthquake Department
DATA_CREATOR: AFAD
ORIGINAL_DATA_MEDIATOR_CITATION: : AFAD - Disaster And Emergency Management Presidency
ORIGINAL_DATA_MEDIATOR: AFAD PROCESS SERVICE
ORIGINAL_DATA_CREATOR_CITATION: AFAD PROCESS SERVICE
ORIGINAL_DATA_CREATOR: network: TK
USER1: GuestUser
USER2: 
USER3: 
USER4: 
USER5: 
[...]
-2.605848
-2.751291
-2.843848
-2.994701
-3.199342
-3.446053
-3.576773
-3.500451
-3.287404
-3.017864
-2.734802
-2.400054
-1.985375
-1.453202
-0.779195
-0.084755
0.554094
1.058320
1.461881
1.714293
1.820664
1.776487
1.678522
1.642158
1.823953
2.126247
2.372950
2.454380
2.434843
2.517175
2.818868
3.211310
3.369968
3.215810
2.839886
2.388838
1.916756
1.425442
0.857202
0.310897
-0.070736
-0.275978
-0.434343
-0.619452
-0.815380
-0.904330
-0.747776
-0.366753
0.022986
0.136268
-0.098723
-0.520022
-0.967163
-1.299515
-1.518880
-1.720817
-1.885493
-1.872876
-1.655923
-1.363245
-1.170932
-1.159818
-1.348533
-1.625594
-1.916477
-2.330263
-2.904213
-3.590849
-4.173513
-4.430741
-4.266375
-3.714369
-3.021431
-2.298444
-1.520767
-0.603058
0.442661
1.476661
2.325856
2.961099
3.398916
3.646821
3.703310
3.427751
2.867925
2.141323
1.420130
0.744613
0.101549
-0.544520
-1.119071
-1.612488
-2.014555
-2.275389
-2.542834
-2.867673
-3.234282
-3.557318
-3.819955
-3.990941
-3.973517
-3.767381
-3.324155
-2.684104
-1.944590
-1.230617
-0.613705
-0.147040
0.191614
0.452140
0.677507
0.814829
0.919698
1.151075
1.539911
2.046242
2.356950
2.341019
1.990638
1.509541
0.954221
0.339404
-0.401321
-1.200642
-1.906209
-2.384301
-2.615687
-2.658962
-2.523143
-2.259612
-1.899623
-1.488851
-1.053437
-0.600595
-0.186517
0.130201
0.415367
0.678596
0.979388
1.327357
1.602306
1.670214
1.453553
1.025343
0.447186
-0.164927
-0.849159
-1.556228
-2.106739
-2.388308
-2.353154
-2.066185
-1.626865
-1.162604
-0.724186
-0.488902
-0.506335
-0.809539
-1.202591
-1.537347
-1.663258
-1.700524
-1.730878
-1.690616
-1.521441
-1.072205
-0.372957
0.442883
1.199827
1.821848
2.348311
2.837213
3.212227
3.341736
3.168346
2.787614
2.303813
1.780947
1.159519
0.380331
-0.517854
-1.402816
-2.152256
-2.566042
-2.548016
-2.240313
-1.755018
-1.251993
-0.764894
-0.263672
0.319885
1.040168
1.748732
2.410418
3.058582
3.686613
4.235013
4.671928
4.996159
5.218220
5.234443
5.061354
4.647567
3.990380
3.128556
2.169671
1.216496
0.344756
-0.330161
-0.819972
-1.193792
-1.539967
-1.834156
-1.994324
-1.947451
-1.738911
-1.471475
-1.143038
-0.819709
-0.592839
-0.411344
-0.274323
-0.130089
-0.055871
-0.125290
-0.268029
-0.359083
-0.232579
0.073021
0.415882
0.674904
0.882843
1.118727
1.373243
1.640379
1.944476
2.183065
2.315279
2.513000
2.742274
3.037356
3.283157
3.380814
3.405450
3.579733
3.945432
4.368825
4.673523
4.751648
4.732412
4.613412
4.431909
3.951112
3.094396
2.051674
1.103908
0.293167
-0.455671
-1.168149
-1.839159
-2.299222
-2.501760
-2.383669
-2.130055
-1.980713
-2.018880
-2.162521
-2.213910
-2.094618
-1.822073
-1.500847
-1.197051
-0.794992
-0.253504
0.331255
0.827369
1.014573
0.952066
0.849893
0.802712
0.760939
0.551790
0.231758
-0.032381
-0.115022
-0.049518
0.006370
-0.002949
-0.040215
0.012668
0.170724
0.315258
0.386171
0.330876
0.131643
-0.237068
-0.857295
-1.631074
-2.339045
-2.922310
-3.344210
-3.540738
-3.499875
-3.231837
-2.842099
-2.377237
-1.846867
-1.268117
-0.684560
-0.045411
0.584123
1.040270
1.162568
0.888812
0.268886
-0.494075
-1.087257
-1.344785
-1.365524
-1.320153
-1.167506
-0.891054
-0.495607
0.000807
0.499024
0.904388
1.262875
1.695884
2.200411
2.702234
3.086864
3.304118
3.372326
3.234094
2.895432
2.324186
1.602693
0.860466
0.233929
-0.301257
-0.771536
-1.252934
-1.697370
-2.068486
-2.435996
-2.837461
-3.246440
-3.598925
-3.863365
-4.064701
-4.104370
-3.942407
-3.680981
-3.312578
-2.934859
-2.399982
-1.806508
-1.267424
-0.802261
-0.307049
0.353134
1.285567
2.348114
3.319310
4.083465
4.595505
4.869552
4.926041
4.763169
4.231889
3.409730
2.405471
1.342014
0.377420
-0.324240
-0.793618
-1.048442
-1.051451
-0.723615
-0.228703
0.310381
0.670971
0.805889
0.890925
0.963040
1.042066
1.194713
1.449529
1.820036
2.094684
1.996117
1.469946
0.580476
-0.350462
-1.181035
-1.730345
-2.001996
-2.078627
-1.993891
-1.925383
-1.914569
-1.893839
-1.883626
-1.985198
-2.315747
-2.883386
-3.485282
-3.919202
-4.008152
-3.696843
-3.162868
-2.486457
-1.743637
-0.932605
-0.195193
0.306930
0.451163
0.171398
-0.354473
-0.859910
-1.167020
-1.311863
-1.385789
-1.483454
-1.559183
-1.542960
-1.390613
-1.102443
-0.762286
-0.505968
-0.328079
-0.137870
0.087498
0.322180
0.605243
0.873280
1.035844
1.116372
1.180374
1.207414
1.230849
1.212214
1.129573
1.032810
0.921322
0.715479
0.293579
-0.208252
-0.634959
-0.845310
-0.873561
-0.897304
-1.060477
-1.236872
-1.250098
-1.066800
-0.793053
-0.595331
-0.610360
-0.823416
-1.144349
-1.465582
-1.752259
-1.913328
-1.921746
-1.706896
-1.140167
-0.175281
0.920621
1.823906
2.478380
2.951656
3.503661
4.183377
4.793078
5.185521
5.432524
5.743832
6.089097
6.314465
6.125749
5.481784
4.676753
3.966679
3.358773
2.738847
2.084965
1.428680
0.875163
0.398874
0.058709
-0.213243
-0.388736
-0.440426
-0.377626
-0.260137
-0.172697
-0.003522
0.244082
0.590248
1.052706
1.544613
1.991445
2.370065
2.678669
2.942199
3.018521
2.822894
2.379660
1.819532
1.295465
0.834200
0.503351
0.220280
-0.167663
-0.630430
-1.118138
-1.657832
-2.287674
-3.033206
-3.858070
-4.616825
-5.125267
-5.287238
-5.061570
-4.623152
-4.046806
-3.312400
-2.430150
-1.476983
-0.593231
0.138471
0.703398
1.138210
1.474159
1.632516
1.607271
1.418856
1.216618
1.105131
1.085594
1.158610
1.295632
1.476225
1.652011
1.677549
1.512873
1.235813
0.998718
0.977378
1.241209
1.708776
2.295639
2.878295
3.381319
3.716968
3.720871
3.292961
2.482522
1.486977
0.544019
-0.164553
-0.690725
-1.192556
-1.791447
-2.349170
-2.771671
-2.947464
-2.924931
-2.917123
-3.040330
-3.218528
-3.219433
-2.823385
-2.067343
-1.236177
-0.642403
-0.433863
-0.530026
-0.789057
-1.073931
-1.283380
-1.384351
-1.344990
-1.128037
-0.734392
-0.248495
0.288485
0.886467
1.569789
2.247702
2.793096
3.279594
3.726727
4.033528
4.070785
3.799735
3.346283
2.947221
2.636806
2.317075
1.897279
1.269540
0.360237
-0.601051
-1.438535
-2.209610
-2.867699
-3.311234
-3.569965
-3.633674
-3.453681
-3.096397
-2.637845
-2.132416
-1.518809
-0.841798
-0.205353
0.198508
0.381506
0.477059
0.681091
1.047090
1.503839
1.816650
1.860518
1.733405
1.563921
1.318713
0.772409
-0.187978
-1.367126
-2.397227
-2.953749
-2.905373
-2.539975
-2.207932
-2.128906
-2.182999
-2.233787
-2.257230
-2.367215
-2.740735
-3.385001
-4.126327
-4.743548
-5.054264
-5.017608
-4.708102
-4.265777
-3.809630
-3.335753
-2.687288
-1.785507
-0.752408
0.158689
0.681246
0.799337
0.731421
0.741633
0.954981
1.278309
1.652422
2.102560
2.631727
3.241128
3.852331
4.281133
4.317188
3.847210
2.946321
1.825470
0.735569
-0.026491
-0.535534
-0.927083
-1.237499
-1.424712
-1.319242
-0.899154
-0.275630
0.325356
0.853021
1.307967
1.698306
1.998196
2.176386
2.208535
2.108465
1.900519
1.575379
1.125533
0.526642
-0.042200
-0.308443
-0.205076
0.113444
0.371265
0.511292
0.643806
0.922060
1.322015
1.701236
1.954249
2.138148
2.301914
2.434127
2.437128
2.128515
1.437072
0.474882
-0.512850
-1.321186
-1.801682
-1.978378
-2.009333
-2.058919
-2.122327
-2.174918
-2.204371
-2.244942
-2.199271
-2.029796
-1.799320
-1.622032
-1.657494
-1.975723
-2.547870
-3.172604
-3.681346
-4.040743
-4.256503
-4.230364
-3.972543
-3.606844
-3.195771
-2.852610
-2.659395
-2.505246
-2.215272
-1.772947
-1.242577
-0.734143
-0.277996
0.136082
0.545653
0.983471
1.445328
1.836568
2.098295
2.219090
2.245229
2.126229
1.846464
1.499087
1.119558
0.711481
0.160369
-0.521159
-1.212903
-1.722246
-1.887523
-1.812403
-1.652845
-1.487877
-1.215031
-0.743558
-0.118232
0.491168
0.994493
1.581957
2.437463
3.539074
4.686361
5.548177
5.993206
6.076740
5.788260
5.163827
4.289682
3.322985
2.266740
1.179544
0.184901
-0.566341
-0.992147
-1.077191
-0.911022
-0.558545
-0.071146
0.443899
0.882618
1.276262
1.691843
2.071064
2.272992
2.225209
2.036494
1.975790
2.114314
2.256745
2.143454
1.622091
0.857927
0.143345
-0.458551
-0.968495
-1.479341
-2.099568
-2.730912
-3.296749
-3.490873
-3.151918
-2.318349
-1.199609
-0.009352
1.116599
2.159915
3.142830
3.941843
4.553046
4.936173
5.221640
5.486071
5.693709
5.798879
5.787155
5.733963
5.673259
5.644107
5.518796
5.170218
4.559006
3.675546
2.527350
1.302227
0.172360
-0.694272
-1.195502
-1.250797
-0.981558
-0.574391
-0.203284
0.064453
0.214396
0.196363
0.083072
0.001032
0.062029
0.178016
0.253436
0.190628
-0.031442
-0.236083
-0.243900
-0.040169
0.262125
0.556005
0.664781
0.563810
0.335429
0.036733
-0.218392
-0.344904
-0.255661
0.053544
0.571594
1.180092
1.836370
2.489342
2.991766
3.213827
3.269715
3.192784
3.081597
2.871246
2.455357
1.836332
1.131667
0.506332
0.000895
-0.461872
-0.846510
-1.133787
-1.324906
-1.460734
-1.618499
-1.751322
-1.766351
-1.686122
-1.686427
-1.861019
-2.122153
-2.285627
-2.374878
-2.419957
-2.421163
-2.356260
-2.245081
-2.142015
-2.165759
-2.223157
-2.087037
-1.843941
-1.651928
-1.608361
-1.652237
-1.612876
-1.574718
-1.765536
-2.299521
-3.069694
-3.838064
-4.417423
-4.752780
-4.881396
-4.848346
-4.671659
-4.358547
-3.898493
-3.330862
-2.722063
-2.132195
-1.672742
-1.344304
-1.112627
-0.910398
-0.707868
-0.511048
-0.292892
-0.008628
0.332430
0.705040
1.035881
1.341480
1.612823
1.842698
2.060252
2.260378
2.416932
2.459297
2.385972
2.215888
1.946640
1.711348
1.564402
1.442998
1.411141
1.480551
1.660544
1.869083
2.142530
2.513637
2.962573
3.248340
3.230005
2.876919
2.338428
1.846813
1.445949
1.141242
0.901142
0.761108
0.693492
0.438067
-0.138588
-0.957141
-1.772388
-2.448206
-2.951239
-3.332572
-3.620751
-3.737948
-3.595217
-3.201272
-2.642956
-1.940403
-1.140489
-0.261845
0.651957
1.501152
2.113257
2.379492
2.309172
2.042027
1.686537
1.345771
1.079829
0.937691
0.946100
1.103255
1.389022
1.703035
2.001723
2.280579
2.505345
2.663401
2.740624
2.817547
2.918509
3.130955
3.443166
3.834106
4.202809
4.360565
4.162234
3.544412
2.643823
1.626643
0.705921
-0.130361
-0.945609
-1.750038
-2.402718
-2.767223
-2.887425
-3.043987
-3.430428
-4.087015
-4.965967
-5.844620
-6.464545
-6.695931
-6.539076
-6.116284
-5.533327
-4.830173
-4.023648
-3.202398
-2.435839
-1.840863
-1.399740
-0.943292
-0.364542
0.237946
0.780937
1.216651
1.556507
1.856397
2.113316
2.295112
2.424020
2.441144
2.235902
1.899944
1.549262
1.254171
1.118644
1.212394
1.483136
1.880387
2.232563
2.365077
2.288447
2.071485
1.783006
1.570251
1.392654
1.224072
1.125505
1.161561
1.299784
1.394136
1.406452
1.334329
1.165146
0.937366
0.633561
0.264249
-0.106567
-0.364696
-0.439223
-0.321133
-0.021844
0.417176
0.903974
1.429836
1.795835
1.944276
1.918429
1.840296
1.647074
1.336057
0.888014
0.291227
-0.346428
-0.997005
-1.605512
-2.153018
-2.769939
-3.422619
-4.088520
-4.760131
-5.334682
-5.724729
-5.866567
-5.771915
-5.458202
-4.989434
-4.353590
-3.714141
-3.118263
-2.621548
-2.314446
-2.092685
-1.768755
-1.284061
-0.668651
-0.049034
0.493056
0.845232
1.058279
1.122881
1.115064
1.008384
0.784511
0.468686
0.152561
-0.041863
-0.102568
0.012518
0.319620
0.824147
1.485232
2.209121
2.886734
3.432429
3.882266
4.250970
4.435470
4.350726
4.026187
3.576041
2.992475
2.249346
1.339142
0.327070
-0.661263
-1.549531
-2.346749
-3.067341
-3.703193
-4.198113
-4.531065
-4.630533
-4.431309
-3.905447
-3.132878
-2.275870
-1.405940
-0.649898
-0.042902
0.396718
0.607361
0.623283
0.492263
0.371760
0.339303
0.422235
0.599824
0.932468
1.378699
1.772644
1.970065
1.860381
1.455910
0.920423
0.400863
-0.015928
-0.249718
-0.252727
-0.077242
0.235570
0.626510
1.000021
1.382848
1.732320
2.048737
2.381982
2.686980
2.898224
3.041557
3.145223
3.271728
3.435794
3.644333
3.833942
3.995904
4.133227
4.169282
4.019331
3.642806
3.101009
2.543286
2.054977
1.612343
1.231912
0.875520
0.607475
0.492080
0.460825
0.407032
0.322288
0.324387
0.456000
0.636594
0.745369
0.742961
0.667232
0.630266
0.642282
0.647987
0.649486
0.637462
0.563235
0.361599
0.070415
-0.169685
-0.321439
-0.411592
-0.539908
-0.707288
-0.729528
-0.538418
-0.214488
0.016288
0.039122
-0.051933
-0.194972
-0.351835
-0.514407
-0.613875
-0.538756
-0.238565
0.241322
0.831490
1.437885
1.983881
2.419294
2.738116
2.942448
3.116431
3.345104
3.562357
3.633270
3.499245
3.098681
2.462528
1.704375
0.966054
0.318783
-0.191162
-0.501277
-0.604050
-0.503389
-0.300558
-0.056561
0.179625
0.338582
0.367125
0.278175
0.136337
0.030558
-0.004604
-0.067111
-0.227880
-0.347181
-0.397067
-0.425919
-0.521481
-0.690964
-0.876374
-0.958413
-0.908535
-0.809376
-0.678665
-0.579806
-0.557874
-0.597243
-0.701519
-0.764327
-0.708739
-0.545875
-0.345449
-0.199412
-0.114376
-0.078922
-0.060596
-0.133921
-0.279665
-0.463272
-0.605410
-0.633361
-0.463284
-0.175715
0.060170
0.192384
0.202596
0.191774
0.174041
0.127460
0.029494
-0.210906
-0.588933
-0.983788
-1.258745
-1.348597
-1.250039
-1.058928
-0.812827
-0.607593
-0.454344
-0.397555
-0.534585
-0.915016
-1.495577
-2.094769
-2.487820
-2.601412
-2.477912
-2.255250
-2.031385
-1.790091
-1.490201
-1.109178
-0.775632
-0.534639
-0.420154
-0.441494
-0.541563
-0.740194
-1.102896
-1.637782
-2.396236
-3.219597
-4.055579
-4.908689
-5.741666
-6.473977
-7.033203
-7.427156
-7.615571
-7.597545
-7.448203
-7.196392
-6.825285
-6.371842
-5.881137
-5.474872
-5.087838
-4.740770
-4.403619
-4.022896
-3.583275
-3.121118
-2.628610
-1.995471
-1.222601
-0.274243
0.776284
1.750786
2.513439
3.000538
3.204570
3.195851
3.063028
2.814815
2.452413
2.037125
1.586378
1.168986
0.831826
0.600441
0.390390
0.174631
0.021073
-0.050148
-0.059468
-0.048654
-0.067289
-0.201915
-0.463350
-0.756637
-1.126251
-1.565879
-2.127809
-2.808435
-3.424154
-3.828024
-3.943719
-3.751406
-3.378796
-3.069290
-2.864056
-2.659723
-2.314158
-1.823153
-1.354084
-1.087850
-1.107386
-1.382343
-1.745646
-1.999268
-2.162742
-2.362275
-2.625212
-2.916697
-3.066648
-3.052529
-2.946759
-2.920019
-3.022792
-3.151108
-3.232546
-3.157126
-3.049253
-2.983448
-2.967226
-2.909234
-2.736153
-2.381272
-1.929933
-1.511948
-1.204546
-1.024253
-0.898950
-0.759224
-0.596360
-0.389924
-0.093940
0.295497
0.701462
1.042821
1.203281
1.194863
1.062941
0.953256
0.888646
0.795188
0.536758
0.087814
-0.405904
-0.870474
-1.183294
-1.353378
-1.393949
-1.387042
-1.349184
-1.238606
-1.083855
-1.024962
-0.993714
-0.995221
-0.994324
-0.973894
-0.994332
-1.128658
-1.338407
-1.555069
-1.706823
-1.813503
-1.988395
-2.115509
-2.171706
-2.174114
-2.144369
-2.055727
-1.913897
-1.746225
-1.557518
-1.365807
-1.198134
-1.098675
-1.061417
-1.128432
-1.263659
-1.363728
-1.339693
-1.138966
-0.808425
-0.479087
-0.242000
-0.125412
-0.121209
-0.116706
-0.129632
-0.257346
-0.564457
-1.001080
-1.498103
-2.021570
-2.477125
-2.766807
-2.782437
-2.519808
-1.984931
-1.299505
-0.604163
0.042799
0.652199
1.082203
1.251378
1.243260
1.126965
0.992038
0.888964
0.768461
0.559012
0.356474
0.224552
0.287352
0.564705
0.941221
1.336368
1.596593
1.666905
1.569840
1.384731
1.153947
0.846235
0.478125
0.078762
-0.197096
-0.288451
-0.289657
-0.281248
-0.323622
-0.314911
-0.189308
0.076025
0.389136
0.690529
0.890354
1.027676
1.112412
1.084161
0.939619
0.621991
0.111446
-0.464608
-0.949611
-1.294584
-1.413885
-1.352888
-1.091762
-0.598353
0.038693
0.634570
1.039333
1.160429
1.087705
1.009872
1.036312
1.199476
1.470218
1.849740
2.378908
3.077254
3.899105
4.692408
5.333060
5.775985
6.045525
6.078576
5.809628
5.223358
4.409913
3.493098
2.681757
2.077156
1.681400
1.469547
1.307275
1.178058
1.108940
1.060857
0.938551
0.699653
0.342360
-0.085850
-0.493325
-0.825377
-1.105142
-1.354257
-1.564006
-1.736194
-1.872323
-2.054728
-2.351020
-2.695692
-2.993788
-3.160266
-3.232389
-3.234196
-3.263949
-3.286190
-3.225795
-3.007039
-2.633227
-2.166562
-1.677360
-1.195971
-0.806533
-0.489214
-0.211861
-0.045391
-0.041489
-0.208268
-0.482924
-0.831503
-1.204722
-1.679509
-2.291021
-2.953016
-3.535981
-3.985526
-4.238547
-4.340719
-4.364162
-4.271013
-4.098533
-3.892698
-3.721720
-3.573580
-3.400800
-3.163112
-2.932035
-2.744230
-2.626140
-2.555828
-2.401077
-2.111103
-1.700931
-1.332228
-1.140216
-1.100855
-1.049474
-0.910650
-0.717135
-0.627291
-0.672971
-0.872203
-1.108396
-1.326260
-1.546527
-1.828996
-2.121082
-2.289063
-2.243392
-1.983768
-1.658035
-1.348530
-1.103330
-0.826878
-0.517973
-0.166999
0.115162
0.229646
0.202297
0.180958
0.254575
0.411730
0.584811
0.691483
0.906333
1.254903
1.649449
2.196346
2.590592
2.836393
2.781097
2.613116
2.383534
2.085739
1.810782
1.432754
1.056230
0.697434
0.663174
0.765939
0.980789
1.034573
1.027958
0.865086
0.750593
0.702810
0.599135
0.409518
0.045013
-0.221530
-0.354353
-0.130188
0.281787
0.754462
1.102431
1.426060
1.699807
2.031249
2.312809
2.491299
2.512630
2.364181
2.228053
2.119270
2.194089
2.182365
2.131277
1.929340
1.771576
1.658585
1.660985
1.659479
1.578942
1.303383
0.930465
0.615842
0.370033
0.268461
0.158175
0.079141
-0.130909
-0.248708
-0.332550
-0.290785
-0.398367
-0.547416
-0.772492
-0.948285
-1.066084
-1.231060
-1.465751
-1.873226
-2.287914
-2.714020
-2.927977
-3.035859
-2.983877
-3.018138
-2.999512
-2.929801
-2.668374
-2.339336
-1.937879
-1.561663
-1.195964
-0.784290
-0.401764
0.068808
0.453437
0.849786
1.138258
1.520183
1.841408
2.201998
2.427065
2.537343
2.407224
2.178543
1.896674
1.655373
1.504219
1.391529
1.365082
1.322107
1.350349
1.317591
1.368070
1.398115
1.576305
1.725346
1.879196
1.906236
2.043258
2.333232
2.842567
3.357611
3.665915
3.771986
3.777391
3.816451
3.741323
3.510539
2.966037
2.317264
1.676904
1.245990
0.932569
0.799145
0.586390
0.352000
0.081250
-0.111973
-0.340654
-0.612907
-0.914007
-1.314872
-1.670963
-1.880713
-1.872603
-1.824528
-1.672782
-1.600668
-1.545381
-1.566119
-1.502118
-1.464560
-1.367805
-1.339562
-1.263842
-1.234397
-1.231697
-1.258445
-1.280987
-1.132847
-0.877129
-0.397243
0.088954
0.530077
0.659286
0.722386
0.656573
0.592564
0.472662
0.334730
0.114764
-0.112715
-0.376855
-0.637088
-0.786137
-0.769614
-0.537035
-0.230835
0.113829
0.369847
0.649604
0.795340
0.840109
0.676636
0.510758
0.377635
0.415793
0.491815
0.547703
0.584359
0.640247
0.781175
0.927512
1.137253
1.277580
1.463583
1.513461
1.508649
1.280569
0.993892
0.729152
0.672354
0.649813
0.643498
0.585799
0.559952
0.641683
0.815064
1.070181
1.398918
1.841844
2.279060
2.794105
3.248450
3.725632
4.007192
4.150524
4.059770
3.986145
3.917928
3.974116
3.898988
3.698554
3.421493
3.229773
3.123093
3.038049
2.957512
2.817177
2.690664
2.361317
1.848067
1.024105
0.142147
-0.762648
-1.461904
-2.120294
-2.631140
-3.024792
-3.255577
-3.371572
-3.465631
-3.539257
-3.556089
-3.504408
-3.504712
-3.456036
-3.390833
-3.216851
-3.078026
-2.773628
-2.425058
-1.962300
-1.628454
-1.410298
-1.384460
-1.435248
-1.478523
-1.440965
-1.317766
-1.216203
