EVENT_NAME: 202302060117
EVENT_ID: 13194
EVENT_DATE_YYYYMMDD: 2023/02/06
EVENT_TIME_HHMMSS: 01:17:32.00000
EVENT_LATITUDE_DEGREE: 37.288
EVENT_LONGITUDE_DEGREE: 37.043
EVENT_DEPTH_KM: 8.6
HYPOCENTER_REFERENCE: AFAD
MAGNITUDE_W: 7.7
MAGNITUDE_W_REFERENCE: AFAD
MAGNITUDE_L: 
MAGNITUDE_L_REFERENCE: 
FOCAL_MECHANISM: 
NETWORK: TK
STATION_CODE: 0138
STATION_NAME: 
STATION_LATITUDE_DEGREE: 37.704858
STATION_LONGITUDE_DEGREE: 35.723358
STATION_ELEVATION_M: 477.0
LOCATION: Kahramanmaras_Pazarck_Turkiye
SENSOR_DEPTH_M: 
VS30_M/S: None
SITE_CLASSIFICATION_EC8: unknown
MORPHOLOGIC_CLASSIFICATION: 
EPICENTRAL_DISTANCE_KM: 125.31
EARTHQUAKE_BACKAZIMUTH_DEGREE: 
DATE_TIME_FIRST_SAMPLE_YYYYMMDD_HHMMSS: 2023/02/06 01:17:33.6406190
DATE_TIME_FIRST_SAMPLE_PRECISION: millisecond
SAMPLING_INTERVAL_S: 0.01
NDATA: 12501
DURATION_S: 
STREAM: HNN
UNITS: cm/s^2
INSTRUMENT: sensor = ACEBOX/SARA | digitizer = 
INSTRUMENT_ANALOG/DIGITAL: 
INSTRUMENTAL_FREQUENCY_HZ: 
INSTRUMENTAL_DAMPING: 
FULL_SCALE_G: 
N_BIT_DIGITAL_CONVERTER: 
PGA_CM/S^2: 27.838
TIME_PGA_S: 
BASELINE_CORRECTION: BASELINE REMOVED
FILTER_TYPE: BUTTERWORTH
FILTER_ORDER: 
LOW_CUT_FREQUENCY_HZ: 
HIGH_CUT_FREQUENCY_HZ: 
LATE/NORMAL_TRIGGERED: 
DATABASE_VERSION: 
HEADER_FORMAT: DYNA 1.2
DATA_TYPE: Acceleration
PROCESSING: Automatic Paolucci et al., 2011
DATA_TIMESTAMP_YYYYMMDD_HHMMSS: 
DATA_LICENSE: U (unknown license)
DATA_CITATION: Turkish Accelerometric Archive v 1.0 - Disaster And Emergency Management Presidency, Earthquake Department
DATA_CREATOR: AFAD
ORIGINAL_DATA_MEDIATOR_CITATION: : AFAD - Disaster And Emergency Management Presidency
ORIGINAL_DATA_MEDIATOR: AFAD PROCESS SERVICE
ORIGINAL_DATA_CREATOR_CITATION: AFAD PROCESS SERVICE
ORIGINAL_DATA_CREATOR: network: TK
USER1: GuestUser
USER2: 
USER3: 
USER4: 
USER5: 
[...]
-6.071020
-5.117830
-3.737725
-2.239787
-0.567202
1.281432
3.064369
4.688324
6.086664
7.433102
8.808764
9.619339
9.654875
9.280799
8.351921
6.661800
4.585679
2.567307
0.841414
-0.382983
-1.095598
-1.720772
-2.557767
-3.416739
-4.165593
-4.925435
-5.666807
-6.067068
-6.129727
-6.347393
-6.779451
-7.090169
-7.058841
-6.505443
-5.488660
-4.121648
-2.535802
-1.134422
-0.145694
0.437395
0.689895
0.778036
0.886283
1.330731
2.076777
2.629707
3.093560
3.950894
4.853818
5.139050
4.998537
5.024254
5.255946
5.327253
5.147462
4.938213
4.685711
4.303919
4.012607
3.913242
3.689731
2.947658
1.914040
1.313647
1.130583
0.657611
-0.337665
-1.468076
-2.263923
-2.632154
-2.687331
-2.337805
-1.741857
-1.208332
-0.455038
0.693373
1.903741
2.960270
3.620980
3.899198
4.054205
4.092313
4.452593
5.149075
5.383573
5.283506
4.943564
3.997854
3.001409
2.446140
2.255126
2.018756
1.289542
0.527128
0.090628
-0.136858
-0.080280
-0.155329
-0.344706
0.103015
0.915226
1.580144
2.148037
2.235476
1.714108
0.994713
0.241183
-0.151129
-0.103903
-0.143416
0.033334
0.913112
2.215830
3.480906
4.316497
4.823836
5.166114
5.117951
4.662513
3.701138
2.352828
1.180802
0.419090
0.154898
0.189265
0.360638
0.975524
1.663588
2.028077
2.542431
3.294322
3.889803
4.161006
4.228573
4.158433
3.432258
1.895975
0.361329
-0.917075
-2.173269
-3.002315
-3.284743
-3.315371
-2.809668
-1.607951
-0.430315
-0.001999
-0.168698
-0.534124
-0.761843
-0.290976
0.520767
0.851589
0.918922
0.949081
0.909569
1.217011
1.994620
2.619559
2.693438
2.910168
3.751136
4.653358
5.013405
4.532250
3.753704
3.238882
2.418252
1.310520
0.296774
-0.889280
-2.045642
-3.101471
-4.152391
-4.875293
-5.507949
-6.022772
-5.871973
-5.219212
-4.206403
-2.888956
-1.770237
-1.175925
-1.179667
-1.420011
-1.417207
-1.124026
-0.345949
0.833089
1.900841
2.710246
3.000855
2.488137
1.562065
0.883117
0.834486
1.361932
2.029890
2.131123
1.280802
-0.043894
-1.168226
-1.653356
-1.276710
-0.471045
0.174001
0.666377
1.127892
1.575613
1.999720
2.181380
2.148180
2.212006
2.420552
2.747166
3.266663
3.857467
4.119553
3.730748
2.787375
1.580279
0.259791
-1.133408
-2.575938
-3.719441
-3.791451
-2.997009
-2.552328
-2.621065
-2.929912
-3.354021
-3.000287
-2.032600
-1.394335
-0.718194
0.147089
0.702590
0.729944
0.089338
-0.850294
-1.636788
-2.114671
-2.034012
-1.578575
-1.073340
-0.700435
-0.806346
-1.104204
-1.098360
-0.861758
-0.237286
0.623087
1.177653
1.802592
2.465641
2.335648
1.826203
1.472000
0.967231
0.633601
0.472280
0.023856
-0.375938
-0.875564
-1.906844
-3.280638
-4.830481
-6.032200
-6.818227
-7.774225
-8.735132
-9.526771
-9.858062
-9.229382
-8.052915
-6.692450
-5.315385
-4.347465
-4.066909
-4.543856
-4.945521
-4.693254
-4.184980
-3.254935
-2.242126
-1.786222
-1.434592
-1.064960
-0.573986
0.223262
0.845395
1.227653
1.145823
0.331506
-0.594799
-1.151939
-1.239847
-1.162228
-0.802882
0.325423
1.109110
0.869935
0.472245
0.156852
0.147499
0.520638
0.902195
1.420055
1.813769
1.915703
2.094324
2.127054
1.920377
1.781968
1.583707
1.089459
0.430383
-0.209754
-0.838436
-1.240334
-1.064052
-0.365233
0.662539
2.087065
3.782796
5.251276
6.222936
6.535288
6.272733
6.106970
6.144845
5.968561
5.743179
5.792276
5.941671
5.618329
4.663032
3.769926
3.594343
3.941765
4.226296
4.270716
4.043465
3.498716
2.913521
2.400101
1.717646
0.973235
0.615290
0.505405
0.276750
0.122209
-0.066232
-0.453401
-0.580354
-0.292316
0.094851
0.100227
-0.676448
-2.228863
-4.105788
-5.410611
-5.852723
-5.922629
-5.812745
-5.622435
-5.309615
-4.717174
-4.149047
-3.718160
-3.281427
-2.996429
-2.743461
-1.922834
-0.333481
1.507672
3.169034
4.580702
5.528982
5.697783
4.932564
3.450288
1.771389
0.224586
-0.850181
-1.178433
-1.022959
-0.449689
0.627181
1.872618
2.981517
3.426199
3.032016
2.708673
2.891736
3.284514
3.689684
3.854978
3.761926
3.457989
2.919553
2.307237
1.717599
1.433301
1.566097
1.603504
1.121647
0.091068
-1.177283
-2.412903
-3.546119
-4.363709
-4.876895
-5.238112
-5.602135
-6.205099
-6.553458
-6.033026
-4.992396
-3.889107
-2.822759
-1.813924
-0.719286
0.421644
1.343505
2.008891
2.329660
2.299500
2.320775
2.525112
3.036660
4.083603
5.202556
5.836146
5.522155
4.101369
2.431354
0.912138
-0.729119
-2.227760
-3.570459
-4.903806
-5.740099
-5.615252
-4.825954
-4.097208
-3.439070
-2.561396
-1.688631
-0.912659
-0.459561
-0.431740
-0.234883
0.137789
0.441257
0.822579
0.949998
0.943217
1.445179
2.157324
2.527658
2.320279
1.424601
0.411323
-0.067495
0.089149
0.777681
1.177707
0.363624
-1.261969
-2.896680
-3.931000
-3.643197
-2.209787
-0.548658
0.586427
0.657734
-0.112395
-1.004098
-1.672759
-2.161163
-2.766464
-3.527475
-4.202683
-4.621181
-4.427130
-3.731584
-3.090045
-2.337219
-1.164492
0.194337
1.354204
1.933085
1.985221
2.265076
3.247725
4.538051
5.854329
6.924184
6.987776
6.178603
5.122072
3.798311
2.341520
0.822071
-0.769155
-2.077952
-2.975969
-3.575192
-4.635697
-7.106935
-10.359523
-12.991146
-14.306490
-14.109634
-12.849000
-11.473338
-10.274192
-8.951134
-7.342610
-5.333123
-3.300958
-1.938856
-1.114488
-0.410993
0.144275
0.512505
1.041587
2.143239
3.375350
4.081416
4.393535
4.180545
2.860525
0.622149
-1.555440
-2.807191
-3.025559
-2.620155
-2.031221
-1.671174
-1.619271
-1.654576
-1.811922
-2.270399
-2.905394
-3.436582
-3.938078
-4.686931
-5.616744
-6.382431
-6.757910
-6.893046
-6.840676
-6.520608
-6.423349
-6.588645
-6.414233
-6.053718
-5.624935
-4.830259
-3.777938
-2.442723
-0.793986
0.679638
1.762586
2.786149
3.809012
4.750980
5.762854
6.459569
6.514978
6.404859
6.244005
6.023534
5.931417
5.434363
4.327566
3.237602
2.412998
2.091292
2.496228
3.164654
3.876332
4.492387
4.425052
3.846637
3.417151
3.362675
3.748674
4.316099
4.808709
5.366782
6.067939
7.031417
8.327588
9.423161
9.696002
9.203156
8.206945
6.865883
5.626757
4.750250
4.219296
3.976847
3.567000
2.973154
2.687453
2.457395
2.002191
1.759509
1.958002
2.433779
3.293684
4.408896
5.045291
5.124080
5.140445
5.182294
5.114492
4.643390
4.017747
3.810602
3.723863
3.658866
3.759632
3.537290
2.823740
1.704318
0.384765
-0.659608
-1.549909
-2.464525
-3.036160
-3.068191
-3.053696
-3.811902
-5.208841
-6.604144
-7.877639
-8.554950
-8.410698
-7.916451
-7.067768
-5.961908
-4.705716
-3.154238
-1.781382
-0.379300
1.481258
2.701211
2.862764
2.894560
2.980830
2.894558
2.754512
2.540353
2.104788
1.600720
1.611708
2.530998
3.539832
3.334090
1.954452
0.092255
-2.052134
-4.038710
-5.674123
-7.166218
-8.070546
-8.148402
-7.431113
-5.559099
-3.096747
-1.050788
0.455801
1.371350
1.737944
1.635773
0.490400
-1.562809
-3.219965
-3.714680
-3.297587
-2.644826
-2.412198
-2.843321
-3.710476
-4.417480
-4.330508
-3.681488
-3.522740
-4.065385
-4.545371
-4.591898
-4.067491
-2.992492
-1.828183
-0.749911
0.109761
0.571042
1.147819
2.140522
3.057474
3.599181
3.872022
3.994063
3.884411
3.214581
1.945763
0.587400
-0.491576
-1.199748
-1.036091
0.326712
1.861357
2.448187
2.567890
2.908065
3.181607
3.234911
3.195866
2.895202
2.040439
0.737953
-0.209160
-0.520345
-0.901436
-1.449925
-1.889465
-2.394935
-2.562569
-1.933187
-1.078425
-0.561266
-0.493934
-0.717211
-0.716978
-0.307834
0.093362
-0.221096
-1.272250
-2.269396
-3.263503
-4.310915
-4.808671
-5.029376
-5.124299
-4.910141
-4.772435
-4.616961
-4.273046
-3.948770
-3.601348
-3.181215
-2.835898
-2.969864
-3.649981
-4.588912
-5.697813
-6.538549
-6.928524
-6.934837
-6.421887
-6.117717
-6.002222
-5.243785
-4.560162
-4.258331
-3.816923
-3.464123
-2.990451
-2.312440
-1.917791
-1.426350
-0.251286
1.291542
2.484608
3.008313
2.781763
1.868550
0.690211
-0.544707
-1.819137
-3.138689
-4.541474
-5.862663
-7.415779
-9.439295
-11.122402
-11.811404
-11.570594
-10.818702
-9.940327
-8.772744
-7.389600
-6.277895
-5.515016
-4.921171
-3.972657
-2.295630
-0.522746
0.821354
1.862686
2.864039
4.142909
5.479527
6.583283
7.770037
9.089121
10.208775
10.964641
11.645925
12.698479
13.812756
14.357503
14.290169
13.870268
13.120713
11.889770
10.372658
8.720646
6.523419
3.826332
1.351120
-0.753758
-2.604264
-3.665938
-3.591825
-2.788499
-1.851206
-1.018421
-0.141682
0.454734
0.439770
0.550121
1.173658
1.586075
1.191892
0.019398
-1.385023
-2.552841
-3.469327
-3.805528
-3.247221
-2.276496
-1.196353
-0.036486
0.571386
0.236120
-0.709825
-2.102556
-4.286223
-7.396429
-10.726404
-13.556287
-15.521120
-16.067505
-14.997182
-12.664822
-9.669646
-6.738530
-4.249993
-2.181589
-0.412914
0.835095
1.283985
1.258266
1.229041
1.728899
2.809275
3.654919
4.110355
4.451932
4.690171
4.998782
5.120122
4.960438
4.932381
5.005559
5.167813
5.443927
5.550070
5.168512
4.112683
2.752684
1.405543
0.071261
-0.912559
-1.510613
-1.759374
-1.474844
-1.073882
-0.702847
-0.258165
0.046472
0.726120
1.800651
2.511628
3.384392
4.768471
5.894438
6.568241
6.896959
7.004505
7.301193
7.891062
8.529094
8.746057
8.184943
6.739841
4.242886
1.331641
-0.707539
-1.665174
-1.986412
-1.575397
-0.600464
0.191875
0.825464
1.648664
2.023206
1.475652
0.429408
-0.443124
-0.646528
-0.420681
-0.170986
0.034521
0.030545
-0.212137
-0.533375
-0.598606
-0.173797
0.445999
0.999396
1.466288
2.019919
2.598333
2.390720
1.279247
-0.050826
-1.574016
-2.979606
-3.778025
-4.067233
-3.202184
-1.188956
0.818894
2.675945
3.618147
2.857370
1.731635
0.927839
0.143682
-0.591845
-1.426970
-1.999774
-2.256250
-2.758447
-3.332421
-3.837657
-4.269715
-4.422620
-4.561029
-4.651977
-4.327934
-3.810074
-3.472939
-3.701126
-4.615742
-5.635567
-6.495474
-7.383670
-8.194246
-8.980741
-9.835271
-10.045689
-9.025633
-7.418979
-5.839212
-4.262016
-2.916280
-1.923577
-1.232474
-0.838994
-0.354800
0.459748
1.806186
3.860094
5.769282
6.794950
7.211108
7.135357
6.543615
5.893892
5.703346
5.940182
6.446586
7.302283
7.981931
7.859888
7.173926
6.238502
5.278296
4.459771
3.619269
2.641060
1.150836
-1.097827
-3.405407
-4.916673
-5.064200
-4.007905
-2.825126
-1.807407
-0.556125
0.589948
1.287365
1.473934
1.163684
0.659851
-0.283288
-1.920104
-3.819474
-5.911025
-8.026891
-9.870851
-11.784249
-13.766850
-15.598419
-17.195489
-17.969592
-17.708675
-16.820948
-15.200734
-12.741889
-10.271354
-8.408458
-6.671813
-4.661625
-2.222419
1.206685
5.479797
9.505317
12.561280
14.439139
15.227736
15.067818
13.845993
11.943817
9.949526
8.069561
6.919746
6.624459
6.217183
5.213491
3.742437
2.018415
0.111330
-2.196249
-4.580515
-6.525709
-8.059654
-9.052825
-9.373830
-9.301587
-9.169259
-9.326605
-9.705358
-10.065874
-10.643354
-11.086167
-10.714898
-9.717052
-8.297903
-6.428929
-4.223987
-1.911266
0.096818
1.804239
3.289318
4.407570
5.491453
6.625135
7.557752
8.675535
10.156640
11.176697
11.180203
10.572797
9.610019
8.378374
7.197229
5.870195
4.272892
3.028154
2.606617
3.096655
4.103151
4.631299
4.509489
4.526556
4.633868
4.215838
3.306365
2.431729
2.141352
2.369303
2.768628
3.398945
4.202271
5.000922
5.907353
7.114214
8.266132
8.848754
9.143104
8.984822
8.200432
7.991416
8.549256
9.103822
9.548036
9.552243
9.314003
9.151747
8.587126
7.994916
7.802968
7.549765
7.056452
6.134354
4.616308
2.800404
0.828791
-1.147499
-2.967377
-4.866513
-6.643607
-7.597735
-7.260132
-5.572351
-3.552343
-2.544444
-2.709038
-3.537850
-4.491042
-5.366380
-6.088347
-6.166904
-5.650680
-4.997685
-4.459251
-4.526118
-5.140070
-5.853854
-6.602708
-6.684070
-5.427644
-3.257071
-0.511123
2.552789
5.283540
7.138253
7.873779
7.820706
7.268242
6.394541
5.836232
5.287977
4.025003
2.623855
1.711811
1.082662
0.251278
-1.014034
-2.482749
-3.924344
-5.264470
-6.321469
-6.863879
-7.011406
-6.973766
-6.955764
-7.463573
-8.307582
-9.025808
-9.923590
-10.884030
-11.523934
-12.019819
-12.616704
-13.456972
-14.300280
-14.599541
-14.159302
-13.358313
-12.598005
-11.655803
-10.457125
-9.338172
-8.028207
-6.163909
-3.982347
-1.599019
1.138513
4.129714
6.926864
9.025427
10.197920
10.579476
10.566850
10.316686
9.558948
8.157800
5.917320
2.825351
-0.254695
-2.768017
-4.824031
-6.467860
-7.960657
-9.409967
-10.770434
-12.022419
-12.717265
-12.821306
-12.527657
-11.481415
-9.761136
-7.685017
-5.116054
-2.075521
0.846944
2.856898
4.026351
4.926938
5.530134
5.985570
6.406638
6.237836
5.220115
3.434371
1.494086
0.503954
0.657091
1.322009
1.752195
1.614722
1.039813
-0.269452
-2.279174
-4.226239
-5.797357
-7.162500
-8.490236
-9.563132
-10.109985
-9.991684
-8.706969
-6.323874
-3.561794
-0.936953
0.925241
1.683445
1.413642
0.455540
-0.274844
-0.379118
-0.169403
0.447821
1.356590
1.878191
1.897829
1.855044
1.974279
2.301361
2.729910
2.957394
2.711205
1.914657
0.933876
0.315482
0.230379
0.590426
1.361021
2.591962
3.851895
4.144375
3.369803
2.571853
2.388788
2.749303
3.535095
4.723953
6.031814
6.691122
6.304888
5.060150
2.977717
0.382333
-2.037703
-3.938944
-5.363237
-6.737499
-8.025722
-8.684564
-9.058874
-9.644537
-10.231837
-10.818902
-11.440804
-11.802489
-11.824233
-11.435897
-10.445532
-9.068467
-7.389336
-5.075679
-2.228263
0.814140
3.773778
6.325909
8.534824
10.573068
12.616923
14.993004
17.582541
20.236139
22.903064
25.039970
26.623712
27.830105
27.838287
26.306447
23.307061
18.533387
12.984676
7.969490
3.733550
0.721773
-0.980506
-1.841348
-2.018801
-1.722347
-1.261300
-1.116112
-1.364172
-1.535079
-1.699907
-1.712766
-1.095542
-0.114296
0.996708
2.217830
3.187153
3.664332
3.575021
2.911503
2.163819
1.883495
2.052062
2.353192
2.204730
1.379658
0.650678
0.530973
0.754716
0.962327
0.821346
0.155023
-1.190715
-3.029063
-4.426938
-4.780908
-4.200390
-2.865876
-1.440415
-0.972588
-1.641482
-2.893000
-4.318697
-5.875320
-8.018774
-10.561554
-12.388680
-13.174006
-12.955874
-11.878303
-10.855441
-10.251543
-10.164572
-10.528829
-10.180705
-9.092614
-8.330903
-7.808601
-7.491105
-7.600991
-7.734723
-7.864014
-8.008268
-7.799955
-7.331426
-6.726594
-6.002524
-5.391145
-4.792625
-4.136825
-3.580154
-3.184336
-3.035876
-2.893260
-2.798340
-3.078430
-3.152077
-2.723293
-2.467520
-2.857027
-3.827286
-4.700754
-4.904626
-4.499924
-3.611495
-2.544211
-1.581201
-0.495915
0.848886
2.030263
2.744279
3.281310
3.634811
3.492194
3.095673
2.679980
2.138973
1.399705
0.515950
-0.493120
-1.937286
-3.750151
-5.514620
-7.255475
-8.861663
-10.328742
-11.764725
-12.444609
-11.960649
-10.994833
-10.195014
-9.534304
-8.682113
-7.555913
-6.262313
-5.018747
-3.872907
-2.703454
-1.677552
-0.585486
0.743884
1.897205
2.920769
3.688558
3.888922
3.695337
2.833325
1.329774
-0.180791
-1.405422
-1.891253
-1.476264
-0.762014
-0.335569
-0.405709
-0.639507
-0.570537
-0.008957
0.789693
1.265470
1.394058
1.292121
0.864505
0.429642
0.247045
0.259202
0.370021
0.362772
0.082916
-0.212838
0.079641
0.996126
2.075567
3.130693
3.793975
3.919289
3.827874
3.562981
3.316324
3.274006
3.247820
3.078082
2.410824
1.055734
-0.451792
-1.467875
-2.076451
-2.767556
-3.639621
-4.666225
-5.514677
-5.583414
-4.777282
-2.912282
-0.222679
2.205071
4.048328
5.355020
5.917769
5.959618
5.627391
5.041261
4.628608
4.413046
4.054400
3.470841
2.738354
1.885226
1.103641
0.661062
0.856516
1.944140
3.679850
5.698922
7.630321
8.855184
9.240715
9.001072
8.308797
7.602027
7.126015
6.840548
6.813894
7.103568
7.624935
8.191659
8.611792
8.588177
8.131570
7.537023
6.588741
5.499011
4.891838
4.586732
4.557507
4.643309
4.117499
3.054422
1.545727
-0.388011
-1.989991
-3.232858
-4.548202
-5.713449
-6.630168
-7.267734
-7.442148
-7.275919
-6.892726
-6.150421
-4.958757
-3.383899
-1.455306
0.665000
2.599905
4.253786
5.594145
6.439555
7.173678
8.143234
8.821479
8.825453
8.198408
6.797962
4.843416
3.037799
1.704686
0.742843
0.093821
-0.185802
0.015263
0.738631
1.987575
3.756251
5.730200
7.480640
8.974837
10.382296
11.616744
12.576481
13.497174
14.244389
14.203240
13.387287
12.313689
11.420115
11.035752
10.873963
10.368025
9.464865
8.325804
7.205681
6.455191
6.161073
6.119222
5.866253
5.187071
4.345634
3.440370
2.548432
1.587057
0.370609
-0.614613
-1.605447
-3.317545
-5.150750
-6.760445
-8.047734
-8.486338
-8.644386
-8.870235
-8.927516
-9.186097
-9.176512
-8.307255
-6.944919
-5.129484
-3.230116
-1.943063
-0.892145
0.370593
1.457750
2.083390
2.505627
2.897237
3.090353
3.029565
2.860762
2.881569
3.430758
4.253958
4.664972
4.538253
4.388856
4.693961
5.519732
6.641724
7.936492
9.398660
10.884207
12.293770
13.393083
13.672237
13.286470
12.630434
11.511947
10.503111
10.236815
9.681780
8.195296
6.512189
5.078543
4.028559
3.407358
2.974833
2.709939
2.909835
3.698666
4.484926
4.507837
3.769505
2.631846
1.458417
0.673792
0.458230
0.602249
0.629836
0.223028
-0.570247
-1.581655
-2.565708
-3.326719
-4.068091
-5.038818
-5.773644
-5.649966
-4.597412
-2.703421
-0.411507
1.695473
3.560239
4.963256
5.484623
5.106806
4.267473
3.679238
3.331347
2.723005
1.870814
0.770329
-0.354237
-0.924469
-0.999753
-0.788401
-0.331328
0.201963
0.873194
1.591886
2.021604
2.133826
2.009679
1.713457
1.386608
1.128027
0.985877
0.913633
0.628634
-0.107595
-1.072945
-1.890534
-2.266247
-1.982652
-1.150569
0.020521
1.371401
2.600238
3.354935
3.386497
2.848762
2.217275
1.800648
1.595607
1.431246
1.215217
1.018826
1.000355
0.935125
0.368166
-0.451762
-1.134451
-1.565340
-1.458496
-0.853663
0.040611
0.989593
1.519845
1.515635
1.042896
0.271598
-0.471878
-1.144747
-1.646477
-1.951116
-2.048142
-1.621463
-0.834269
0.064214
1.103442
1.898819
2.260736
2.382310
2.288089
2.108298
1.985787
1.828675
1.564483
1.311747
1.188535
1.044282
0.653606
-0.087533
-1.127931
-2.234728
-3.114274
-3.340123
-2.580517
-0.931078
1.233884
3.296676
4.951960
6.330428
7.043976
6.742611
5.741256
4.429886
3.434377
3.099345
3.097707
3.430867
3.990577
4.218529
4.024009
3.398366
2.229145
0.846935
-0.486879
-1.622901
-2.429269
-3.246391
-3.900790
-3.715857
-2.948536
-2.195242
-1.993943
-2.629171
-3.292922
-3.446528
-3.167609
-2.278245
-1.217274
-0.405530
0.483366
1.461807
2.288513
2.706776
2.541012
2.165066
1.890587
1.608626
1.468815
1.750072
2.319368
2.809406
2.911808
2.579348
1.847561
0.566352
-1.104131
-2.851766
-4.651071
-6.266611
-7.486332
-8.453552
-9.330293
-10.317385
-11.475384
-12.614211
-13.438815
-13.644324
-13.090225
-11.687209
-9.687775
-7.648129
-5.784765
-4.368422
-3.550133
-2.853418
-2.038869
-1.114202
0.043328
1.179348
1.939422
2.247800
2.091389
1.621689
1.010776
0.134035
-1.030042
-2.113459
-2.843375
-3.171628
-2.994878
-2.573342
-2.466731
-2.566797
-2.501101
-2.357551
-2.103648
-1.580878
-0.814023
0.118593
0.888720
1.241987
1.244091
0.834944
0.119758
-0.407456
-0.539318
-0.561998
-0.763765
-1.189043
-1.732623
-2.211441
-2.550915
-2.643500
-2.133589
-1.164734
-0.310907
0.397264
0.918164
1.085094
1.281015
1.578639
1.672390
1.565077
1.158970
0.567696
0.127221
-0.368664
