EVENT_NAME: 202302060117
EVENT_ID: 13194
EVENT_DATE_YYYYMMDD: 2023/02/06
EVENT_TIME_HHMMSS: 01:17:32.00000
EVENT_LATITUDE_DEGREE: 37.288
EVENT_LONGITUDE_DEGREE: 37.043
EVENT_DEPTH_KM: 8.6
HYPOCENTER_REFERENCE: AFAD
MAGNITUDE_W: 7.7
MAGNITUDE_W_REFERENCE: AFAD
MAGNITUDE_L: 
MAGNITUDE_L_REFERENCE: 
FOCAL_MECHANISM: 
NETWORK: TK
STATION_CODE: 5508
STATION_NAME: 
STATION_LATITUDE_DEGREE: 41.3268
STATION_LONGITUDE_DEGREE: 36.305
STATION_ELEVATION_M: 10.0
LOCATION: Kahramanmaras_Pazarck_Turkiye
SENSOR_DEPTH_M: 
VS30_M/S: None
SITE_CLASSIFICATION_EC8: unknown
MORPHOLOGIC_CLASSIFICATION: 
EPICENTRAL_DISTANCE_KM: 453.56
EARTHQUAKE_BACKAZIMUTH_DEGREE: 
DATE_TIME_FIRST_SAMPLE_YYYYMMDD_HHMMSS: 2023/02/06 01:18:09.5806730
DATE_TIME_FIRST_SAMPLE_PRECISION: millisecond
SAMPLING_INTERVAL_S: 0.01
NDATA: 24501
DURATION_S: 
STREAM: HNZ
UNITS: cm/s^2
INSTRUMENT: sensor = CMG-5T/GURALP | digitizer = 
INSTRUMENT_ANALOG/DIGITAL: 
INSTRUMENTAL_FREQUENCY_HZ: 
INSTRUMENTAL_DAMPING: 
FULL_SCALE_G: 
N_BIT_DIGITAL_CONVERTER: 
PGA_CM/S^2: 2.880
TIME_PGA_S: 
BASELINE_CORRECTION: BASELINE REMOVED
FILTER_TYPE: BUTTERWORTH
FILTER_ORDER: 
LOW_CUT_FREQUENCY_HZ: 
HIGH_CUT_FREQUENCY_HZ: 
LATE/NORMAL_TRIGGERED: 
DATABASE_VERSION: 
HEADER_FORMAT: DYNA 1.2
DATA_TYPE: Acceleration
PROCESSING: Automatic Paolucci et al., 2011
DATA_TIMESTAMP_YYYYMMDD_HHMMSS: 
DATA_LICENSE: U (unknown license)
DATA_CITATION: Turkish Accelerometric Archive v 1.0 - Disaster And Emergency Management Presidency, Earthquake Department
DATA_CREATOR: AFAD
ORIGINAL_DATA_MEDIATOR_CITATION: : AFAD - Disaster And Emergency Management Presidency
ORIGINAL_DATA_MEDIATOR: AFAD PROCESS SERVICE
ORIGINAL_DATA_CREATOR_CITATION: AFAD PROCESS SERVICE
ORIGINAL_DATA_CREATOR: network: TK
USER1: GuestUser
USER2: 
USER3: 
USER4: 
USER5: 
[...]
0.087753
0.100575
0.120902
0.137476
0.161869
0.186887
0.206901
0.233170
0.248181
0.257876
0.267883
0.288523
0.284145
0.308538
0.309476
0.321047
0.326989
0.345127
0.358261
0.376087
0.397978
0.407672
0.433316
0.453643
0.462712
0.480225
0.502741
0.497112
0.512436
0.499927
0.520880
0.505869
0.497738
0.487731
0.465840
0.458648
0.433943
0.432066
0.416430
0.418932
0.399856
0.400169
0.385471
0.393602
0.387347
0.400169
0.399231
0.404235
0.422998
0.416744
0.438635
0.439886
0.456148
0.449268
0.468657
0.453646
0.460526
0.453334
0.444577
0.428941
0.423938
0.395167
0.382971
0.392666
0.362019
0.382659
0.352637
0.354201
0.327307
0.321990
0.298536
0.281024
0.262573
0.226297
0.211912
0.187519
0.176887
0.153433
0.144364
0.121848
0.104648
0.082132
0.061179
0.031783
0.005514
-0.014500
-0.049838
-0.062972
-0.077357
-0.103939
-0.094870
-0.112069
-0.097684
-0.096746
-0.085800
-0.090804
-0.085175
-0.066724
-0.071102
-0.041393
-0.031386
-0.005742
0.010207
0.041480
0.054927
0.098708
0.116534
0.157188
0.183457
0.226301
0.257260
0.291348
0.332627
0.350140
0.407369
0.432074
0.488990
0.518386
0.572488
0.594379
0.635346
0.658487
0.688509
0.712276
0.738545
0.772632
0.788894
0.834552
0.847061
0.877708
0.901163
0.928995
0.939628
0.954952
0.969024
0.968086
0.975592
0.974966
0.965272
0.969338
0.965272
0.966211
0.963396
0.964960
0.942444
0.939629
0.921179
0.902728
0.876459
0.851754
0.825173
0.789522
0.769820
0.723850
0.707276
0.659742
0.640040
0.599386
0.565924
0.523394
0.488369
0.451155
0.406123
0.368596
0.327003
0.286662
0.244131
0.217237
0.173456
0.140307
0.104031
0.076199
0.046803
0.020221
-0.011364
-0.052956
-0.074221
-0.107057
-0.139268
-0.151151
-0.181798
-0.201187
-0.218387
-0.227143
-0.249659
-0.251223
-0.261855
-0.271550
-0.277491
-0.284684
-0.288124
-0.283745
-0.285622
-0.279680
-0.264356
-0.263731
-0.253411
-0.249032
-0.235585
-0.231520
-0.223389
-0.223701
-0.218385
-0.221512
-0.205563
-0.209316
-0.194305
-0.190865
-0.193054
-0.183359
-0.179606
-0.171163
-0.168973
-0.145206
-0.139577
-0.134261
-0.118312
-0.120813
-0.110181
-0.098610
-0.089228
-0.072653
-0.064210
-0.060770
-0.061708
-0.052951
-0.053264
-0.046384
-0.040129
-0.032624
-0.044820
-0.031998
-0.039503
-0.032936
-0.034812
-0.042943
-0.035750
-0.049197
-0.054201
-0.066084
-0.076091
-0.082971
-0.089851
-0.095480
-0.093604
-0.107051
-0.102047
-0.107050
-0.107050
-0.106738
-0.110177
-0.106737
-0.121435
-0.115806
-0.119246
-0.118620
-0.102046
-0.115806
-0.095166
-0.088286
-0.066395
-0.052948
-0.037311
-0.006977
0.013038
0.043685
0.077772
0.111546
0.148135
0.185662
0.219124
0.264156
0.281669
0.327640
0.346403
0.384556
0.420832
0.443035
0.489944
0.510897
0.544046
0.570940
0.598460
0.623791
0.647245
0.675078
0.678518
0.692278
0.699784
0.704787
0.707602
0.714795
0.706038
0.714795
0.711980
0.705413
0.709166
0.692279
0.689777
0.669138
0.660381
0.639116
0.620040
0.591270
0.573132
0.543423
0.512150
0.483067
0.442413
0.410202
0.371737
0.337338
0.299185
0.261346
0.218190
0.175659
0.138758
0.089348
0.050883
-0.001030
-0.041058
-0.089531
-0.132686
-0.173341
-0.221187
-0.253398
-0.291550
-0.309063
-0.350655
-0.376298
-0.400065
-0.426960
-0.458857
-0.467614
-0.493882
-0.502639
-0.509831
-0.520776
-0.514835
-0.525780
-0.516085
-0.529220
-0.521401
-0.524216
-0.527343
-0.516710
-0.523903
-0.520150
-0.531408
-0.525779
-0.527655
-0.532033
-0.537662
-0.539538
-0.557051
-0.567683
-0.584258
-0.613966
-0.630541
-0.674009
-0.693398
-0.741245
-0.767514
-0.810670
-0.845069
-0.887913
-0.925752
-0.957963
-1.003620
-1.033955
-1.078987
-1.120892
-1.166237
-1.210644
-1.264745
-1.298206
-1.346053
-1.392962
-1.425172
-1.472394
-1.504604
-1.549637
-1.580909
-1.614058
-1.645017
-1.664719
-1.697868
-1.702558
-1.735707
-1.737896
-1.751656
-1.755408
-1.756034
-1.759474
-1.757285
-1.746026
-1.737270
-1.718819
-1.696303
-1.680041
-1.650958
-1.635947
-1.596856
-1.579969
-1.547758
-1.526805
-1.503664
-1.479584
-1.462696
-1.429235
-1.412973
-1.391395
-1.359184
-1.339170
-1.316653
-1.289133
-1.257235
-1.234094
-1.199068
-1.176865
-1.139338
-1.123701
-1.091491
-1.071164
-1.043956
-1.009557
-0.991731
-0.946073
-0.926684
-0.876961
-0.840997
-0.792212
-0.737485
-0.688075
-0.640540
-0.579872
-0.528272
-0.473858
-0.416004
-0.352208
-0.287474
-0.234310
-0.164260
-0.107657
-0.041046
0.023375
0.081542
0.148153
0.187556
0.245410
0.286377
0.324217
0.364246
0.393955
0.423038
0.443366
0.470573
0.485584
0.508725
0.515606
0.528115
0.528427
0.529991
0.516857
0.513104
0.497781
0.490588
0.483396
0.455563
0.443993
0.415222
0.389266
0.365186
0.338292
0.311085
0.280125
0.245726
0.213828
0.177865
0.142840
0.112193
0.079669
0.049961
0.007117
-0.016650
-0.057304
-0.093892
-0.120474
-0.164881
-0.185833
-0.230240
-0.240560
-0.274647
-0.297788
-0.309984
-0.333751
-0.348762
-0.368151
-0.380034
-0.393794
-0.409118
-0.420063
-0.432259
-0.447895
-0.447270
-0.461342
-0.464469
-0.471662
-0.483233
-0.486985
-0.506687
-0.509188
-0.521697
-0.535770
-0.539522
-0.553595
-0.563289
-0.586431
-0.594562
-0.603943
-0.624270
-0.639906
-0.648350
-0.670241
-0.684000
-0.706204
-0.712145
-0.733723
-0.735287
-0.735287
-0.739977
-0.723403
-0.725592
-0.701825
-0.697134
-0.686501
-0.661170
-0.643970
-0.627083
-0.598000
-0.575483
-0.544836
-0.526698
-0.501054
-0.469469
-0.447891
-0.411928
-0.380655
-0.347193
-0.319048
-0.294030
-0.263696
-0.250561
-0.218663
-0.211783
-0.202714
-0.190830
-0.192394
-0.178946
-0.181761
-0.173004
-0.162997
-0.167063
-0.164561
-0.157055
-0.159557
-0.140793
-0.143920
-0.127971
-0.115462
-0.112335
-0.099513
-0.096698
-0.072306
-0.068866
-0.048851
-0.028211
-0.003819
0.028079
0.051847
0.095003
0.130028
0.179126
0.223533
0.273256
0.314849
0.367699
0.404288
0.454011
0.499357
0.545953
0.600054
0.632890
0.706068
0.746410
0.805515
0.853987
0.902772
0.957187
1.003783
1.054757
1.103542
1.152015
1.188916
1.240203
1.275228
1.322137
1.364668
1.407511
1.454420
1.493198
1.541670
1.574194
1.627045
1.652688
1.704913
1.739938
1.776527
1.815305
1.835007
1.877850
1.887858
1.924134
1.942585
1.967290
1.983552
2.007945
2.021079
2.034839
2.037966
2.046410
2.054854
2.044221
2.047661
2.027647
2.025458
1.997313
1.978862
1.964790
1.941648
1.922885
1.881293
1.854711
1.811555
1.765897
1.708043
1.653942
1.590772
1.521034
1.450046
1.382185
1.312760
1.236768
1.177976
1.096980
1.038501
0.962821
0.906844
0.839608
0.777689
0.725151
0.664170
0.608818
0.550651
0.498426
0.435881
0.380529
0.319235
0.269199
0.211658
0.154429
0.102517
0.054357
0.009951
-0.045402
-0.076987
-0.122019
-0.156731
-0.193007
-0.220527
-0.231159
-0.269624
-0.280570
-0.310591
-0.317784
-0.343740
-0.358438
-0.365943
-0.380328
-0.389397
-0.390648
-0.394713
-0.393775
-0.386895
-0.376888
-0.359688
-0.354684
-0.319346
-0.304648
-0.274626
-0.242416
-0.201449
-0.154852
-0.120765
-0.069478
-0.026010
0.018085
0.062805
0.097830
0.148804
0.179451
0.213538
0.250753
0.278585
0.309858
0.342694
0.365523
0.406177
0.427755
0.462781
0.495304
0.515631
0.551595
0.565355
0.594438
0.621020
0.647602
0.673558
0.689820
0.717652
0.737354
0.741732
0.765812
0.767376
0.789580
0.794271
0.807405
0.820540
0.822416
0.835238
0.840554
0.853063
0.862445
0.870889
0.883085
0.883085
0.886838
0.895595
0.894656
0.900286
0.905289
0.910606
0.907791
0.902475
0.904977
0.899348
0.889341
0.884337
0.873079
0.869014
0.850876
0.845560
0.835866
0.822731
0.808346
0.798652
0.787394
0.779576
0.764878
0.761750
0.750805
0.739547
0.740486
0.724224
0.726100
0.716093
0.717970
0.726726
0.720472
0.729541
0.717970
0.714218
0.713592
0.698894
0.696705
0.676691
0.670437
0.650735
0.631972
0.617274
0.606016
0.577558
0.562860
0.537529
0.513762
0.488432
0.466854
0.444650
0.411189
0.396178
0.363968
0.344892
0.305801
0.283910
0.261082
0.227933
0.208857
0.182588
0.156632
0.130050
0.105033
0.081891
0.057499
0.029979
0.014343
-0.009112
-0.035693
-0.057584
-0.092921
-0.113561
-0.156404
-0.176419
-0.206127
-0.230833
-0.255225
-0.279305
-0.298381
-0.332468
-0.347166
-0.371871
-0.393136
-0.416903
-0.429099
-0.451928
-0.467877
-0.485077
-0.499462
-0.521665
-0.537614
-0.545745
-0.563883
-0.561068
-0.573577
-0.579519
-0.586086
-0.593591
-0.587649
-0.604536
-0.600784
-0.607351
-0.606412
-0.615169
-0.617358
-0.617670
-0.626114
-0.625175
-0.624863
-0.625801
-0.634244
-0.627990
-0.630804
-0.629553
-0.641124
-0.632680
-0.642687
-0.646127
-0.651130
-0.657072
-0.654883
-0.669581
-0.674897
-0.689908
-0.712424
-0.734002
-0.756831
-0.789667
-0.821877
-0.855651
-0.894742
-0.930705
-0.973861
-1.000443
-1.044537
-1.077373
-1.109270
-1.140543
-1.163684
-1.200273
-1.209655
-1.236862
-1.247807
-1.265319
-1.277828
-1.293152
-1.300657
-1.309101
-1.317231
-1.320358
-1.322235
-1.328489
-1.332867
-1.322860
-1.326300
-1.313165
-1.314729
-1.295965
-1.285332
-1.280954
-1.256874
-1.254060
-1.235296
-1.229667
-1.212467
-1.196518
-1.190889
-1.173063
-1.155551
-1.138663
-1.121151
-1.096445
-1.084562
-1.056416
-1.040780
-1.014824
-0.997311
-0.972918
-0.946024
-0.926322
-0.895362
-0.872221
-0.837195
-0.805610
-0.767458
-0.727429
-0.686149
-0.638302
-0.599524
-0.558870
-0.509146
-0.459736
-0.409074
-0.358725
-0.303373
-0.247082
-0.204239
-0.147636
-0.102291
-0.052880
-0.000968
0.035934
0.092850
0.130377
0.171657
0.216064
0.250776
0.286114
0.317387
0.334274
0.364921
0.369300
0.384936
0.390252
0.390253
0.389627
0.373366
0.375242
0.353664
0.343970
0.327083
0.303316
0.286116
0.260160
0.231702
0.211375
0.176975
0.156961
0.132569
0.095980
0.072838
0.041253
0.010606
-0.017226
-0.051626
-0.079771
-0.109480
-0.137625
-0.168584
-0.196104
-0.232067
-0.257398
-0.283667
-0.310248
-0.330262
-0.346837
-0.367476
-0.375607
-0.392807
-0.410007
-0.413759
-0.431272
-0.427206
-0.450661
-0.454726
-0.466609
-0.478180
-0.488500
-0.507263
-0.507263
-0.517896
-0.524150
-0.530717
-0.536659
-0.536346
-0.542288
-0.536346
-0.537909
-0.530404
-0.524775
-0.512578
-0.508513
-0.504135
-0.498193
-0.489124
-0.491313
-0.486622
-0.468483
-0.473487
-0.450658
-0.446905
-0.419385
-0.413756
-0.391553
-0.374040
-0.359342
-0.346207
-0.337764
-0.317749
-0.310869
-0.288665
-0.285225
-0.268964
-0.260520
-0.257393
-0.250513
-0.253640
-0.251138
-0.262709
-0.260207
-0.270214
-0.273654
-0.282097
-0.289915
-0.288351
-0.301798
-0.284598
-0.286787
-0.278657
-0.273027
-0.263333
-0.261769
-0.252075
-0.247384
-0.232373
-0.234249
-0.220176
-0.204227
-0.202351
-0.177020
-0.172016
-0.149500
-0.132613
-0.109158
-0.090395
-0.069129
-0.040046
-0.015028
0.019685
0.048768
0.086295
0.126950
0.161662
0.201066
0.237655
0.279873
0.314272
0.355552
0.396519
0.444679
0.477828
0.533806
0.569456
0.616991
0.664525
0.696736
0.741455
0.769914
0.806815
0.840277
0.871237
0.893127
0.928465
0.947854
0.980065
1.007898
1.043236
1.071381
1.096712
1.138304
1.153941
1.184275
1.203352
1.227119
1.248384
1.253075
1.276217
1.273402
1.284348
1.277155
1.279970
1.275279
1.258392
1.241818
1.215862
1.183338
1.149877
1.112663
1.076700
1.039173
0.995391
0.964432
0.907203
0.870614
0.815262
0.768979
0.714565
0.660464
0.610741
0.542567
0.478771
0.411848
0.342736
0.276126
0.208264
0.139778
0.072855
0.004055
-0.058802
-0.117907
-0.178888
-0.217353
-0.270829
-0.309294
-0.356515
-0.401860
-0.433133
-0.486609
-0.513816
-0.560724
-0.584491
-0.615764
-0.649851
-0.667363
-0.700199
-0.728344
-0.746169
-0.777129
-0.804336
-0.836859
-0.855623
-0.882830
-0.915666
-0.937244
-0.965701
-0.991970
-1.022304
-1.041068
-1.052013
-1.069213
-1.073278
-1.080783
-1.084536
-1.082347
-1.086412
-1.071401
-1.070776
-1.059830
-1.044507
-1.037627
-1.019488
-1.011670
-0.997285
-0.981648
-0.981961
-0.965699
-0.961634
-0.945997
-0.944746
-0.932237
-0.927234
-0.921292
-0.912848
-0.905030
-0.894710
-0.892833
-0.884390
-0.888768
-0.880324
-0.891895
-0.883764
-0.893146
-0.895647
-0.896585
-0.907843
-0.902527
-0.915349
-0.913159
-0.919414
-0.926606
-0.930672
-0.933486
-0.936613
-0.937239
-0.939740
-0.943180
-0.943806
-0.957878
-0.945056
-0.957565
-0.937863
-0.934736
-0.922540
-0.908154
-0.904401
-0.878758
-0.876256
-0.850300
-0.837478
-0.810583
-0.794634
-0.770555
-0.741158
-0.721769
-0.698002
-0.674860
-0.655159
-0.631391
-0.615130
-0.592613
-0.559152
-0.544766
-0.516934
-0.485974
-0.469712
-0.437501
-0.416861
-0.378709
-0.356818
-0.331174
-0.295836
-0.268629
-0.239546
-0.208899
-0.179815
-0.153546
-0.123524
-0.101946
-0.066296
-0.055663
-0.020012
-0.008129
0.023769
0.052853
0.085689
0.132911
0.165747
0.215470
0.247056
0.298968
0.334619
0.380589
0.436567
0.483789
0.541330
0.591366
0.646093
0.696129
0.748667
0.789947
0.849365
0.896899
0.946310
0.998847
1.038251
1.096418
1.140825
1.192737
1.239333
1.300002
1.350976
1.411019
1.463557
1.522350
1.581455
1.631803
1.688720
1.739381
1.793795
1.840079
1.895431
1.945154
1.992689
2.041474
2.089321
2.149364
2.193146
2.253814
2.298221
2.340752
2.391101
2.428941
2.482417
2.512751
2.566852
2.598750
2.638779
2.680372
2.704764
2.751986
2.771062
2.792328
2.824226
2.833608
2.848931
2.867069
2.870822
2.873324
2.880204
2.868008
2.864568
2.846743
2.823289
2.802962
2.772627
2.735726
2.705392
2.667552
2.616578
2.584993
2.524950
2.473663
2.418936
2.355766
2.304167
2.240058
2.178451
2.129041
2.057427
2.002700
1.945159
1.884491
1.830077
1.767219
1.711867
1.654326
1.588341
1.522981
1.460124
1.392888
1.325027
1.268737
1.206817
1.143960
1.086731
1.023561
0.961329
0.896907
0.836552
0.771192
0.702393
0.637346
0.572300
0.495057
0.434701
0.363400
0.303357
0.244252
0.184521
0.134486
0.077570
0.025345
-0.021877
-0.069723
-0.111941
-0.159162
-0.190122
-0.231402
-0.267990
-0.297699
-0.330535
-0.356178
-0.386513
-0.408403
-0.427792
-0.455937
-0.477828
-0.491900
-0.520358
-0.531929
-0.557885
-0.566328
-0.596037
-0.616677
-0.631375
-0.657644
-0.677033
-0.696734
-0.707367
-0.721126
-0.737075
-0.739890
-0.745831
-0.749271
-0.747082
-0.743329
-0.736449
-0.731758
-0.714246
-0.703300
-0.691729
-0.679533
-0.669526
-0.655140
-0.642631
-0.636064
-0.614173
-0.613547
-0.595722
-0.592595
-0.582587
-0.569140
-0.562260
-0.547562
-0.535678
-0.531613
-0.522856
-0.514725
-0.514725
-0.509409
-0.512223
-0.510660
-0.519416
-0.522230
-0.528485
-0.535677
-0.538804
-0.545997
-0.554753
-0.569764
-0.585713
-0.600411
-0.634810
-0.658890
-0.698606
-0.731755
-0.779289
-0.819317
-0.856844
-0.905004
-0.948785
-0.988814
-1.040413
-1.091387
-1.138609
-1.186143
-1.225859
-1.278084
-1.308105
-1.351261
-1.381908
-1.413180
-1.441325
-1.462278
-1.492925
-1.508561
-1.527324
-1.549215
-1.561724
-1.573920
-1.577673
-1.589243
-1.591745
-1.585490
-1.582050
-1.582363
-1.571105
-1.569854
-1.557970
-1.560472
-1.545148
-1.533577
-1.533264
-1.508559
-1.506057
-1.486043
-1.475097
-1.453206
-1.433505
-1.409425
-1.379403
-1.345316
-1.315920
-1.279018
-1.241178
-1.203651
-1.161746
-1.124532
-1.084816
-1.048227
-1.000067
-0.960664
-0.929391
-0.886235
-0.854650
-0.802112
-0.761457
-0.716112
-0.672331
-0.639494
-0.595087
-0.563815
-0.514404
-0.476564
-0.434972
-0.391190
-0.346471
-0.309256
-0.270166
-0.233889
-0.197926
-0.166028
-0.132254
-0.098166
-0.082843
-0.060639
-0.039687
-0.028116
-0.009978
0.000655
0.018481
0.024110
0.035368
0.045688
0.045375
0.052881
0.051630
0.050066
0.046939
0.040372
0.046314
0.050380
0.047565
0.053820
0.047565
0.054133
0.046940
0.039748
0.042875
0.045064
0.041624
0.025050
0.013166
0.004723
-0.006535
-0.014979
-0.026862
-0.038433
-0.056883
-0.072207
-0.095661
-0.114112
-0.141944
-0.165398
-0.187602
-0.215434
-0.245143
-0.268910
-0.289550
-0.320822
-0.331454
-0.364916
-0.376799
-0.406195
-0.427773
-0.433402
-0.454042
-0.463111
-0.472493
-0.480623
-0.477809
-0.479685
-0.461860
-0.451852
-0.438405
-0.406820
-0.383678
-0.362100
-0.330202
-0.302369
-0.267969
-0.230130
-0.191352
-0.140690
-0.100974
-0.045309
-0.001527
0.058829
0.108865
0.166406
0.223948
0.279613
0.341220
0.395321
0.450361
0.510091
0.568258
0.629552
0.685843
0.749326
0.811558
0.863471
0.928830
0.986372
1.037972
1.096451
1.148676
1.205905
1.255003
1.296595
1.348195
1.381970
1.418558
1.442013
1.472660
1.492675
1.510500
1.520507
1.528325
1.525824
1.522071
1.513315
1.498930
1.472974
1.442639
1.413556
1.370087
1.330372
1.283150
1.239056
1.185893
1.132104
1.084570
1.020775
0.964797
0.906318
0.846274
0.789671
0.727439
0.685222
0.627368
0.580459
0.530423
0.486954
0.433791
0.385632
0.353421
0.319960
0.273677
0.239277
0.197059
0.167038
0.135453
0.103868
0.086981
0.058523
0.051643
0.035069
0.027250
0.018182
0.011302
0.004422
0.002858
-0.007149
-0.002145
-0.019345
-0.019345
-0.021221
-0.023723
-0.022472
-0.011526
-0.014341
0.002234
0.019121
0.004423
0.043514
0.045703
0.035070
0.060089
0.096052
0.061027
0.096052
0.129201
0.127950
0.147652
0.172045
0.221143
0.226459
0.254604
0.311208
0.339040
0.350298
0.405964
0.436298
0.454123
0.476640
0.511665
0.530428
0.526989
0.553258
0.557636
0.551381
0.551694
0.563578
0.553571
0.538247
0.547317
0.534808
0.510728
0.501659
0.487586
0.468198
0.450372
0.437864
0.423478
0.396897
0.380635
0.361246
0.338730
0.319029
0.292760
0.275560
0.240535
0.218019
0.189874
0.149845
0.134835
0.103562
0.080108
0.055403
0.030385
0.011309
-0.012771
-0.034662
-0.051549
-0.075003
-0.088450
-0.100333
-0.119722
-0.125351
-0.140987
-0.142551
-0.144740
-0.145678
-0.141925
-0.140361
-0.123474
-0.120347
-0.113780
-0.110339
-0.092514
-0.075001
-0.079067
-0.059052
-0.043729
-0.031532
-0.012456
0.000679
0.012562
0.026322
0.041646
0.061348
0.071042
0.091369
0.110758
0.125144
0.146722
0.165798
0.194256
0.209893
0.235224
0.263682
0.284634
0.304336
0.324663
0.347179
0.365630
0.378765
0.399092
0.423485
0.448190
0.479463
0.506044
0.544510
0.572342
0.594546
0.626756
0.643018
0.667098
0.680233
0.692116
0.703687
0.702124
0.708691
0.698684
0.690241
0.680546
0.668350
0.653339
0.632074
0.612373
0.589856
0.560773
0.537006
0.512301
0.482280
0.456323
0.429117
0.406913
0.378143
0.357503
0.336238
0.309031
0.294645
0.269315
0.246799
0.228974
0.208647
0.195199
0.168618
0.152669
0.144226
0.122022
0.108575
0.095441
0.081681
0.066045
0.042591
0.031645
0.006628
-0.019329
-0.036528
-0.052164
-0.069051
-0.103451
-0.120964
-0.140352
-0.158803
-0.180068
-0.207275
-0.230104
-0.260751
-0.290772
-0.320168
-0.355819
-0.387717
-0.424931
-0.465585
-0.507490
-0.559402
-0.605060
-0.661038
-0.717328
-0.766113
-0.823029
-0.873065
-0.938424
-0.993776
-1.045688
-1.116990
-1.165462
-1.227069
-1.283046
-1.336522
-1.397816
-1.448477
-1.511648
-1.564811
-1.615472
-1.666759
-1.707413
-1.754322
-1.795288
-1.833753
-1.869404
-1.901302
-1.936640
-1.960407
-1.988239
-2.018260
-2.043591
-2.076114
-2.100507
-2.137721
