EVENT_NAME: 202302060117
EVENT_ID: 13194
EVENT_DATE_YYYYMMDD: 2023/02/06
EVENT_TIME_HHMMSS: 01:17:32.00000
EVENT_LATITUDE_DEGREE: 37.288
EVENT_LONGITUDE_DEGREE: 37.043
EVENT_DEPTH_KM: 8.6
HYPOCENTER_REFERENCE: AFAD
MAGNITUDE_W: 7.7
MAGNITUDE_W_REFERENCE: AFAD
MAGNITUDE_L: 
MAGNITUDE_L_REFERENCE: 
FOCAL_MECHANISM: 
NETWORK: TK
STATION_CODE: 4613
STATION_NAME: 
STATION_LATITUDE_DEGREE: 37.5701
STATION_LONGITUDE_DEGREE: 36.35737
STATION_ELEVATION_M: 965.0
LOCATION: Kahramanmaras_Pazarck_Turkiye
SENSOR_DEPTH_M: 
VS30_M/S: None
SITE_CLASSIFICATION_EC8: unknown
MORPHOLOGIC_CLASSIFICATION: 
EPICENTRAL_DISTANCE_KM: 68.19
EARTHQUAKE_BACKAZIMUTH_DEGREE: 
DATE_TIME_FIRST_SAMPLE_YYYYMMDD_HHMMSS: 2023/02/06 01:17:18.8412820
DATE_TIME_FIRST_SAMPLE_PRECISION: millisecond
SAMPLING_INTERVAL_S: 0.01
NDATA: 10501
DURATION_S: 
STREAM: HNZ
UNITS: cm/s^2
INSTRUMENT: sensor = GMS+/GEOSIG | digitizer = 
INSTRUMENT_ANALOG/DIGITAL: 
INSTRUMENTAL_FREQUENCY_HZ: 
INSTRUMENTAL_DAMPING: 
FULL_SCALE_G: 
N_BIT_DIGITAL_CONVERTER: 
PGA_CM/S^2: 75.029
TIME_PGA_S: 
BASELINE_CORRECTION: BASELINE REMOVED
FILTER_TYPE: BUTTERWORTH
FILTER_ORDER: 
LOW_CUT_FREQUENCY_HZ: 
HIGH_CUT_FREQUENCY_HZ: 
LATE/NORMAL_TRIGGERED: 
DATABASE_VERSION: 
HEADER_FORMAT: DYNA 1.2
DATA_TYPE: Acceleration
PROCESSING: Automatic Paolucci et al., 2011
DATA_TIMESTAMP_YYYYMMDD_HHMMSS: 
DATA_LICENSE: U (unknown license)
DATA_CITATION: Turkish Accelerometric Archive v 1.0 - Disaster And Emergency Management Presidency, Earthquake Department
DATA_CREATOR: AFAD
ORIGINAL_DATA_MEDIATOR_CITATION: : AFAD - Disaster And Emergency Management Presidency
ORIGINAL_DATA_MEDIATOR: AFAD PROCESS SERVICE
ORIGINAL_DATA_CREATOR_CITATION: AFAD PROCESS SERVICE
ORIGINAL_DATA_CREATOR: network: TK
USER1: GuestUser
USER2: 
USER3: 
USER4: 
USER5: 
[...]
13.178167
15.105128
-7.670541
-38.227559
-52.508817
-39.017767
2.317806
23.377974
5.788312
1.281341
8.909169
11.558545
28.036406
29.810624
2.884643
-7.787660
7.342266
20.976188
25.086759
22.948352
9.925150
-15.613671
-25.119356
-5.891072
14.381480
14.235233
-9.906296
-22.375673
-11.057582
-16.210595
-31.257909
-19.422620
9.071846
25.907928
27.651752
11.922808
-11.428248
-23.902301
-23.286388
-5.305250
12.300784
-1.285855
-25.411278
-27.596443
-16.461229
-0.686559
7.910723
15.201372
38.240192
43.177344
19.757451
4.144362
10.922230
14.932270
1.400182
-3.397728
2.735655
8.986713
1.656844
-18.004467
-10.437685
0.138509
-5.129322
3.320412
5.598580
7.237199
16.638203
7.384233
-19.865419
-53.549004
-51.879213
-5.299704
20.762815
-0.740771
-25.540812
-39.905975
-48.187374
-29.985952
-14.478584
-3.487021
11.243122
9.009900
22.067138
36.017717
26.752318
11.479006
-9.483484
3.174750
29.459111
11.567078
-6.067264
-16.589941
-22.565899
2.067636
8.527548
-10.084042
-27.679679
-37.503579
-20.492414
10.159164
30.610436
28.966887
23.190691
21.448949
7.549290
9.264021
23.024450
16.063452
14.250535
39.263591
45.833384
-6.256056
-58.641113
-46.707631
-12.369166
-7.693860
-14.443927
-20.680692
-31.157909
-31.213497
-22.014332
-9.336356
-3.859146
-11.426963
-19.130118
-38.831174
-48.655074
-16.768299
17.892018
17.385214
-9.017595
-11.057550
6.452629
-10.342143
-21.625680
4.778434
12.038690
5.051196
40.714996
69.412601
42.296209
22.417991
35.033883
43.173714
30.632121
15.572598
12.951803
12.841404
10.316203
-0.789133
-12.943671
-14.277836
-11.167113
-1.803775
14.014796
24.726329
15.614712
-0.726506
2.210173
4.848899
-12.569577
-15.244924
4.237413
3.705671
-2.607206
7.979119
8.527492
0.928504
-5.626477
-4.792879
6.566515
-7.502513
-37.992250
-37.612986
-12.972957
9.778560
9.219282
-12.305085
-24.227910
-21.363187
-10.116532
-1.105439
0.660206
-1.254281
-4.185239
9.813917
27.714267
31.134894
25.847840
2.508994
-22.138823
-18.099169
-4.388615
-5.949038
-4.574344
15.502343
22.489323
-5.338572
-26.520565
-1.366975
34.051086
39.075520
32.094259
8.303677
-21.822905
-11.265415
16.821995
25.011961
4.760197
-15.623270
-0.485551
14.131333
7.244369
-8.554714
-20.434937
-13.405614
-3.668730
-0.709451
-4.725980
-10.760906
-7.994115
7.691974
17.731488
-6.977634
-20.651555
-2.516374
0.184176
-14.662337
-28.203517
-22.311978
-10.867639
-18.901219
-27.377444
-25.063168
-18.142688
-10.196385
-0.569383
21.270608
51.162106
59.259854
39.059524
14.801619
5.131761
13.938935
19.860348
18.012882
29.940648
45.544650
35.508519
-5.368039
-32.385458
-18.704258
-10.579754
-25.475104
-29.493451
-17.598675
-10.035009
-10.418164
-1.313296
25.666723
26.605527
-5.438402
3.176025
31.365004
16.777739
-5.797130
-9.356467
4.660613
30.195543
28.994898
-16.119774
-58.292574
-37.805714
17.905936
31.823265
13.676660
-1.900840
-15.529821
-6.226230
2.706932
-3.506714
1.852042
-3.815312
-11.298964
-13.280730
-16.414308
10.138393
36.192599
20.528596
-5.985394
-2.749462
16.437519
13.907123
-6.896648
-17.713122
-14.027532
-16.618195
-34.785321
-25.025058
19.349800
25.344467
6.960434
9.818144
8.490993
5.406771
18.930032
25.266814
-3.384287
-32.283725
-27.459312
-20.451810
-19.503914
-7.175585
-0.179773
5.339779
16.600981
9.156555
5.737492
9.751949
-5.481099
-2.333489
28.225872
38.451380
14.231401
-10.882959
-17.500284
-14.777394
-3.459563
13.925928
20.782765
5.730515
3.790312
24.440825
7.100540
-33.103999
-40.511278
-28.193340
-5.902912
15.239083
12.581400
-2.218615
-12.267474
-8.172749
10.384814
24.729461
20.676565
4.225465
-11.841178
-23.888432
-21.612083
-7.832950
-4.947705
-5.186689
-7.921003
-17.653725
-12.586170
0.511332
-3.431683
-18.793835
-6.495899
27.130022
27.542277
21.418770
21.094842
-11.354844
-21.940384
-9.586858
-19.805086
-12.873956
-3.158373
-15.739710
-16.422117
-10.284838
-4.681900
4.442710
-6.109839
-22.146869
-9.636183
1.743214
-1.223333
12.493974
27.775864
28.049922
19.269250
8.293798
8.484731
10.106205
4.095178
-18.209013
-58.116377
-69.290291
-35.616572
-7.796724
-8.485626
-16.502061
-24.331723
-19.584461
-0.725307
1.181912
-0.182127
16.766174
23.730815
14.567504
9.954548
17.710182
29.426238
29.792514
19.827299
10.985581
9.401260
11.957639
3.529731
-13.766134
-20.689466
-25.696230
-24.589096
-2.364129
10.831045
-5.769162
-29.193731
-22.397940
-0.078937
-3.457476
-12.722615
5.477508
39.240587
38.822103
-11.417530
-52.933896
-33.856797
17.734674
44.904583
41.237183
25.988289
13.039900
5.540922
-4.625352
-8.640842
-0.666743
-4.746136
-18.979078
-9.869014
7.847421
6.862384
22.043224
48.809454
35.974844
9.281354
10.011305
34.726148
46.468180
22.617851
-5.680744
-32.469309
-42.838462
-29.005298
-30.938228
-31.720646
-21.046519
-10.717884
5.613728
9.189436
9.693908
8.854081
-6.884215
-8.600239
4.631822
9.012811
14.003215
29.885429
29.970896
6.457225
-1.560768
6.520095
7.344341
0.930155
-13.312918
-21.017891
-15.290785
-10.512091
-23.234223
-42.878650
-28.080447
2.244343
5.309348
-6.782586
-4.061774
20.809708
25.083673
-12.166525
-39.549698
-32.276713
-18.836058
-3.746396
22.241569
23.934479
-14.769640
-32.496460
-13.213884
-8.544553
-8.389728
2.059439
3.170210
16.338888
28.995563
3.413881
-21.656579
-6.646146
14.895891
9.829380
12.644488
21.607004
7.068835
12.402913
33.430349
32.590003
27.061365
17.498012
-6.671832
-20.262367
-0.587542
6.110577
-36.975567
-60.585611
-24.918953
5.963819
-0.309833
-17.839489
-7.808028
33.932783
52.501776
45.621826
32.771629
6.615080
-4.579096
3.811930
16.075057
22.781229
15.027938
9.904798
9.737251
10.921276
20.042510
11.835405
-19.262969
-28.180540
-12.813705
-0.128196
14.567658
20.683117
10.060950
2.930583
7.655764
18.339762
22.071850
17.244586
12.593964
8.794341
7.853724
-0.238303
-3.256284
12.842576
9.093088
-13.801814
-23.439461
-18.770130
-11.027744
-17.746119
-18.861300
-1.662323
-11.105144
-26.223894
-3.216766
12.477896
23.522711
49.491453
47.044962
21.075706
1.117999
5.824477
27.801365
36.814796
27.336386
-0.636200
-15.975233
-6.585659
7.789121
26.194721
26.675814
27.581627
40.860187
28.790073
10.698539
17.656426
25.529994
2.028014
-25.925350
-16.759955
4.671940
-0.336642
-13.393614
-12.783157
-13.266322
-6.004248
9.889656
6.071849
-0.101273
2.480304
-0.429614
4.485718
1.803357
-13.276947
-1.346064
24.072230
33.979003
36.258729
33.254256
36.534608
47.560980
39.021372
22.291022
23.332434
27.440667
17.463763
1.984455
-3.075821
3.031065
11.797197
1.831203
-30.535877
-40.579282
-16.877534
9.466313
15.166144
1.684451
11.869954
42.310082
36.113840
6.795916
-2.851602
-7.226611
-14.598822
-6.075054
5.276288
-4.863231
-20.426704
-26.849203
-24.160342
-0.403264
7.183261
-21.188848
-30.773503
-20.176787
-18.616878
-13.645696
-5.770309
1.924539
16.817556
27.381022
33.958608
38.614691
37.523929
26.293904
4.845909
5.492994
13.556193
-8.140660
-37.994746
-49.930040
-34.278500
-9.727571
2.907543
12.882115
21.996075
14.864929
-11.910907
-34.485516
-17.389926
35.851331
61.832802
48.433975
24.498702
-1.540951
1.516780
16.450841
13.247385
2.409091
-19.856394
-22.652014
7.213767
8.913172
-18.791334
-21.773727
0.107827
29.372505
49.097725
51.750218
53.816675
46.614352
23.540989
9.365975
22.130195
40.506440
28.072651
-9.282752
-29.455287
-8.587868
24.672301
24.420588
-12.945986
-39.756630
-24.979989
-4.719906
-6.546072
-17.610624
-28.414109
-26.752631
-12.032619
17.821472
52.136818
42.433969
9.198485
3.725697
12.288689
17.774471
18.683662
23.229344
34.258313
37.999494
25.426729
-7.144010
-26.571011
-12.664852
4.629720
28.158463
45.331723
31.190739
21.877283
25.985515
21.445814
4.251518
-16.830465
-11.614582
17.357598
27.592457
11.197467
-9.577210
-14.023136
7.516304
14.584592
-7.539320
-12.245013
0.329056
7.238107
1.435673
-12.141094
4.505097
47.054046
42.293282
-11.010313
-26.063082
4.936585
17.378693
11.718612
23.474932
27.293004
-3.937073
-35.341713
-38.018878
-14.477667
15.645803
24.205159
15.304993
6.702522
-3.370756
-8.069955
3.340094
17.154555
15.535165
-2.426485
-24.101518
-33.393154
-32.613068
-26.613725
-2.255804
23.271593
32.453872
40.821520
43.521290
31.958503
5.145261
-6.086581
8.893458
-0.017358
-13.051211
-11.024239
-13.708678
-5.541831
-10.309869
-27.102044
-17.642852
-8.304452
-11.129425
-9.521459
-7.891152
-6.654395
-14.321182
-20.740564
-15.656643
-20.049316
-35.809433
-44.911698
-42.237645
-40.817231
-31.624820
-7.561476
2.067085
-5.190309
-3.929132
1.387281
11.409909
26.106023
15.019131
-3.619994
2.487672
12.402237
13.756410
21.638551
16.200572
-23.171670
-55.778516
-53.536976
-15.559163
20.059698
0.641270
-24.556476
-16.765513
-11.166733
-13.555815
0.602838
29.141205
18.591513
-18.252408
-26.421587
-26.953329
-20.263263
4.700957
9.005054
-10.583003
-9.279744
15.072462
18.157209
-3.817856
-20.787192
-29.888678
-34.422924
-24.426792
-13.317814
-12.637479
-1.079103
9.028210
-6.084825
-15.715977
-17.712031
-27.245771
-8.217508
22.130662
5.386024
-37.947679
-50.285094
-31.329046
-22.849958
-27.703200
-22.592523
-16.422252
-17.071410
-17.429107
-13.496738
2.414051
3.039834
-15.127552
-10.955676
3.400401
12.477474
13.060656
3.617575
-1.688182
-19.972983
-32.968131
-16.492867
-12.599203
-20.299241
-10.082825
9.240534
29.960666
43.543154
32.078299
5.129199
-2.842297
10.077783
12.662996
-1.919593
-4.326859
-3.672501
-24.319632
-29.324058
-4.750789
4.484743
-15.396073
-25.602352
-17.349262
-14.277244
-11.115606
-14.959129
-29.361180
-24.618334
-13.224650
-12.591073
-12.261945
-5.897887
13.156352
15.843395
-4.866081
-26.450195
-42.862589
-37.177825
-20.804650
-6.310376
-1.303607
-14.256671
-7.252806
12.841025
7.647228
1.388383
-4.860332
-27.437019
-31.538232
-1.223573
32.457160
30.472276
-3.178318
-29.921682
-32.725355
-19.352499
-19.604991
-46.380307
-69.262481
-57.945429
-18.489796
12.860559
16.926449
-0.836219
-30.453656
-45.282765
-31.790676
-4.675058
17.026217
18.267651
22.104166
37.172007
23.599656
-4.714785
-7.046460
0.770480
2.322856
10.428137
25.504291
31.926796
18.760462
-6.885643
-31.812711
-38.001938
-25.148099
-21.356784
-17.637424
-7.591156
-19.747253
-38.325333
-27.429884
1.156280
16.439729
8.691374
-6.899894
-13.995712
-15.363127
-4.443260
14.475900
14.100798
1.598171
-7.323296
-6.305003
18.670127
28.106720
5.907735
7.079811
10.319639
-11.332015
-11.733353
15.811921
35.951990
30.421015
24.589487
41.844575
48.784277
23.686543
0.773196
-5.819711
-12.264290
-3.294761
21.547368
18.275853
-9.524507
-21.341087
-13.362572
-3.180966
-11.728886
-21.033511
-18.709884
-26.706836
-8.152130
37.540531
49.663383
30.513554
11.078500
7.759448
16.123978
19.765928
12.495026
5.891988
19.090020
29.868573
15.954627
-2.415379
-1.076012
10.615625
-2.994133
-15.109966
-5.802998
-13.893727
-28.623864
-29.495902
-12.495907
0.498726
-19.939551
-27.835974
-12.871261
-18.632651
-20.828985
2.856657
29.738223
31.263064
-6.946717
-35.213880
-30.087097
-35.042427
-39.767603
-29.850180
-34.408066
-25.615438
15.736241
50.314991
67.252123
56.176660
33.758951
18.724625
-0.888369
3.295196
14.759796
12.902978
17.039265
11.600507
2.170934
-6.981726
-16.206601
2.646058
20.463803
4.122065
-4.936559
6.170861
8.070027
2.893634
-3.119471
-27.342567
-54.145938
-42.567300
-12.929335
-3.525734
-10.562065
-20.834584
-19.692382
-16.537757
-23.907371
-21.332288
-14.399859
-11.015080
0.820729
2.133599
-13.433511
-16.762694
-3.019669
9.223975
18.813831
11.891018
-10.804123
-2.300877
30.552754
48.978096
54.358152
51.079364
32.569864
1.275884
-3.392662
14.184797
-3.149513
-30.655037
-35.415281
-32.102458
-30.946488
-34.078247
-22.120088
-8.817889
-17.874695
-12.349169
31.945681
62.784293
51.430619
33.575993
25.967913
33.508459
45.233087
46.284890
44.355856
21.878660
-12.581630
-8.851100
27.388346
45.091273
19.622850
-11.859201
-10.166551
-9.619477
-29.707068
-36.469863
-29.500806
-25.533108
-13.650541
-1.785119
-5.002342
-6.684336
-4.543586
-2.983417
-5.201572
-22.212472
-32.891269
-29.273998
-33.300917
-34.604690
-16.731095
-0.550148
-9.186130
-25.127565
-20.801907
-9.436798
-15.607062
-12.998210
16.998494
31.455880
24.390196
24.026264
24.897009
10.913184
-21.082428
-40.911290
-34.370071
-16.217226
17.818609
33.630945
9.313813
4.903216
26.399275
31.884537
20.605157
-2.501457
-15.741825
-9.339842
2.098262
17.191561
26.340330
20.079147
3.873008
-6.716948
-18.806804
-24.100612
4.564262
22.531113
4.560631
-14.917285
-25.621019
-28.992804
-23.282843
-6.092438
20.537674
35.462123
26.993172
25.145446
26.848227
6.086539
-7.585044
-1.319699
1.118745
-15.598357
-28.721829
-14.385495
-3.657336
-9.848902
-25.435754
-36.531218
-9.890716
31.168984
28.524549
-9.291943
-27.932107
-22.032255
-20.028142
-20.278296
-11.417869
-3.911872
-10.043172
-12.078970
7.808086
26.045096
16.567985
-4.392426
-4.047451
12.458985
20.360868
21.920517
13.415199
4.454507
12.587324
14.904976
21.216301
37.697020
21.843386
-13.933148
-21.728781
-6.450268
-4.124043
-20.847639
-43.951136
-67.895501
-75.028726
-51.647532
-21.054660
-6.087349
3.881767
2.914134
-10.618992
-0.986795
36.050659
61.953680
49.383773
15.533677
-6.666087
1.756112
21.248320
16.013480
0.605868
-7.912179
-10.378673
-14.217261
-15.173723
7.567143
21.943482
8.552968
-4.697791
-5.730626
-3.260749
-13.380006
-22.893224
-15.866499
-1.803180
11.902178
18.950724
6.956203
-14.469713
-26.086272
-34.549248
-27.062214
-20.955067
-47.948589
-56.028147
-30.950149
-4.888150
20.537158
27.894308
13.533820
-0.180625
8.494068
46.492923
54.736921
3.671226
-25.948549
-5.593392
6.392823
-11.615326
-22.629483
-9.827857
-6.805455
-12.770503
-2.916723
7.255532
-2.695136
-15.942777
-23.539687
-21.509079
16.703825
49.405492
25.303707
-11.915578
-16.939747
-0.007032
0.401067
-13.173883
9.127976
45.192858
41.036314
27.611771
41.920570
46.438716
14.713522
-14.620767
-13.954200
-3.138760
-4.426167
-1.344018
11.347726
2.804482
-15.963748
-25.201092
-27.570952
-10.856442
8.682525
8.867742
10.496490
17.264486
10.830297
3.411328
5.410505
11.208528
11.946012
-5.054497
-11.420107
8.371354
25.332903
29.208903
10.078037
-9.074129
2.524252
19.712059
20.035473
1.439729
-11.229929
-13.537185
-27.424895
-29.217291
-10.408012
1.833554
-1.759813
-14.292313
-10.820252
12.094658
5.260946
-20.906513
-18.001525
-3.304113
8.371159
17.817882
35.519251
43.232802
10.810911
-8.763379
-1.495589
1.011174
10.253980
14.152320
-0.020615
-11.375588
-2.919360
7.270559
-6.319197
-12.895219
6.923777
19.494989
9.610823
-0.371277
8.446289
14.629547
4.265070
-5.213339
-2.863476
5.100492
3.778016
0.715095
6.846660
4.178067
-11.773759
-16.194226
-7.113516
-2.615372
1.679893
5.318725
-6.260947
-19.281551
-25.300891
-34.330421
-32.741158
-25.631827
-9.441009
24.682888
18.726672
-16.362776
-7.957203
12.531216
-0.634859
-7.497665
18.079347
41.804994
43.216835
18.876064
-7.630912
-4.244315
-2.133697
-13.183702
-22.013211
-35.850526
-37.451993
-18.847671
-6.066567
-22.058397
-45.147086
-43.839152
-29.115763
-13.005473
-6.613361
-10.194519
-8.395883
0.625600
9.226519
7.006545
8.335261
13.113435
-1.477467
-12.960245
-0.437091
12.088142
5.181955
-4.112798
-1.408352
-10.674530
-26.356717
-5.192642
27.551887
23.955922
5.727750
-0.219114
0.835806
1.513543
1.741363
12.355483
22.974279
-1.227776
-34.996824
-39.934230
-39.268962
-38.988410
-28.099195
-21.029868
-16.460288
3.887077
16.007072
-1.005127
-7.860919
15.568072
39.589075
40.068869
27.918747
18.069649
12.232926
13.522677
20.656167
24.973252
9.753193
-4.079706
6.432585
4.038047
-12.040026
-11.641279
-0.742453
5.129084
0.342343
4.513699
16.724093
9.684386
-4.363601
-2.476384
13.006306
32.352265
35.337521
21.264337
18.815508
19.196590
2.401298
-1.139076
15.875985
14.332187
-4.595280
-23.636266
-35.940171
-23.894210
-6.669776
-7.311659
-15.844253
-23.562475
-16.543023
-4.205603
-11.359089
-18.939374
-2.142517
18.937652
20.510810
9.314555
-6.866386
-3.844763
25.048187
30.487730
11.072159
9.669155
26.707336
36.145227
24.516459
2.422941
-11.356446
-9.340384
-4.624035
-12.311864
-20.222574
-23.347319
-21.226571
-6.391222
2.774952
11.655121
19.687667
7.791079
0.698378
7.577036
8.679753
-6.702142
-16.621117
-5.144827
-4.042629
-9.020819
2.155179
17.751129
28.654371
16.778044
1.720599
13.921641
12.141455
-2.391519
10.091631
23.963501
9.927983
-6.221006
10.558706
29.951942
14.998665
-0.179572
10.479228
20.876182
9.511078
-4.007761
-2.298745
-4.018925
3.562664
28.132037
24.537891
0.228551
-8.349762
-3.909546
3.024961
7.186966
1.905367
-14.769652
-16.666735
5.103119
15.970513
3.384500
-11.481756
-15.542964
-11.991155
-5.072753
-2.816925
-10.466568
-11.302239
2.290120
4.901051
-9.910394
-13.934456
-5.716175
-1.366618
6.626703
14.232971
16.423856
15.957575
11.534510
14.815641
10.285811
-15.768649
-30.635944
-19.154458
-14.024039
-23.133578
-12.669084
9.046998
19.055079
14.553824
-3.255862
-13.032485
-8.930747
3.865684
14.293550
5.523009
-7.128206
-12.954278
-4.556238
15.044294
6.650416
-12.975827
6.283889
32.123526
13.708581
-20.479213
-18.331449
6.541593
8.238919
-13.962144
-37.348787
-45.903721
-26.504510
2.387141
4.218248
-17.346123
-26.062373
-7.705351
11.809458
11.905055
18.519528
35.949959
28.100814
7.150794
10.816642
27.848328
26.566376
10.650658
-5.377539
-14.580335
-14.383947
-12.338272
-2.597751
7.688542
7.944676
5.236598
2.864140
8.595403
3.114562
-20.765900
-27.421671
-13.666697
0.327523
6.380898
3.725553
-6.450073
-16.470618
-20.113081
-17.783219
1.971614
17.205447
6.772391
-4.268262
-10.809735
-11.709569
-6.364061
-0.771515
-1.548478
-17.171697
-21.607751
-12.366764
-9.245130
1.247159
12.559535
6.414727
-1.382723
-1.409217
-1.598845
-4.570327
-13.767927
-18.125271
-11.688739
-8.608668
-6.548446
-3.579555
-1.229952
11.274240
26.433779
27.891340
12.706869
-7.305649
-14.751894
-12.298643
-4.746148
9.425494
19.408378
19.411498
10.370279
-1.711525
7.616485
30.154212
28.376623
5.500164
-8.980077
1.649889
16.992305
13.395821
-4.351001
-15.072919
-2.727186
4.006521
-4.499837
-5.663594
-1.518994
8.138401
16.958564
15.796884
7.848768
-11.251445
-28.022579
-19.088897
1.695397
11.376431
8.283896
1.418753
6.589696
17.952467
15.583127
14.449242
28.136937
27.460244
7.917906
-1.190853
-2.553853
-14.956470
-21.578730
-5.718077
-0.858336
-14.018176
-13.939464
-6.276827
-7.051972
-8.407957
1.013828
6.965893
-3.819668
-7.309907
2.338396
3.448907
0.726542
1.539618
5.065711
13.626106
12.380002
-5.239014
-21.803633
-29.009332
-30.083989
-24.315320
-8.097487
16.004304
32.717255
27.964284
9.444653
1.455233
8.243491
13.538863
11.179394
3.241409
