EVENT_NAME: 202302060117
EVENT_ID: 13194
EVENT_DATE_YYYYMMDD: 2023/02/06
EVENT_TIME_HHMMSS: 01:17:32.00000
EVENT_LATITUDE_DEGREE: 37.288
EVENT_LONGITUDE_DEGREE: 37.043
EVENT_DEPTH_KM: 8.6
HYPOCENTER_REFERENCE: AFAD
MAGNITUDE_W: 7.7
MAGNITUDE_W_REFERENCE: AFAD
MAGNITUDE_L: 
MAGNITUDE_L_REFERENCE: 
FOCAL_MECHANISM: 
NETWORK: TK
STATION_CODE: 2308
STATION_NAME: 
STATION_LATITUDE_DEGREE: 38.45063
STATION_LONGITUDE_DEGREE: 39.3102
STATION_ELEVATION_M: 1248.0
LOCATION: Kahramanmaras_Pazarck_Turkiye
SENSOR_DEPTH_M: 
VS30_M/S: 450
SITE_CLASSIFICATION_EC8: B
MORPHOLOGIC_CLASSIFICATION: 
EPICENTRAL_DISTANCE_KM: 237.30
EARTHQUAKE_BACKAZIMUTH_DEGREE: 
DATE_TIME_FIRST_SAMPLE_YYYYMMDD_HHMMSS: 2023/02/06 01:17:52.9113500
DATE_TIME_FIRST_SAMPLE_PRECISION: millisecond
SAMPLING_INTERVAL_S: 0.01
NDATA: 14501
DURATION_S: 
STREAM: HNN
UNITS: cm/s^2
INSTRUMENT: sensor = CMG-5T/GURALP | digitizer = 
INSTRUMENT_ANALOG/DIGITAL: 
INSTRUMENTAL_FREQUENCY_HZ: 
INSTRUMENTAL_DAMPING: 
FULL_SCALE_G: 
N_BIT_DIGITAL_CONVERTER: 
PGA_CM/S^2: 327.332
TIME_PGA_S: 
BASELINE_CORRECTION: BASELINE REMOVED
FILTER_TYPE: BUTTERWORTH
FILTER_ORDER: 
LOW_CUT_FREQUENCY_HZ: 
HIGH_CUT_FREQUENCY_HZ: 
LATE/NORMAL_TRIGGERED: 
DATABASE_VERSION: 
HEADER_FORMAT: DYNA 1.2
DATA_TYPE: Acceleration
PROCESSING: Automatic Paolucci et al., 2011
DATA_TIMESTAMP_YYYYMMDD_HHMMSS: 
DATA_LICENSE: U (unknown license)
DATA_CITATION: Turkish Accelerometric Archive v 1.0 - Disaster And Emergency Management Presidency, Earthquake Department
DATA_CREATOR: AFAD
ORIGINAL_DATA_MEDIATOR_CITATION: : AFAD - Disaster And Emergency Management Presidency
ORIGINAL_DATA_MEDIATOR: AFAD PROCESS SERVICE
ORIGINAL_DATA_CREATOR_CITATION: AFAD PROCESS SERVICE
ORIGINAL_DATA_CREATOR: network: TK
USER1: GuestUser
USER2: 
USER3: 
USER4: 
USER5: 
[...]
-1.418152
-0.683355
-0.113492
0.527525
1.277077
2.009579
2.602722
2.871242
2.653812
1.935346
1.099164
0.360696
-0.231855
-0.715542
-1.240217
-1.768172
-2.025607
-1.960386
-1.678750
-1.417771
-1.095147
-0.538729
0.199019
1.093833
2.215882
3.434335
4.366857
4.837365
5.019319
5.096672
5.098280
4.904786
4.399129
3.635413
2.638230
1.435781
0.053642
-1.566554
-3.243806
-4.744646
-6.061205
-7.199057
-8.192633
-9.008157
-9.384293
-9.081343
-8.137672
-6.845769
-5.501402
-4.382959
-3.413056
-2.648748
-2.225130
-1.981531
-1.654644
-1.104456
-0.289651
0.461869
0.527418
-0.352047
-1.889285
-3.728192
-5.578576
-7.246646
-8.671740
-9.785656
-10.688730
-11.616725
-12.833930
-14.284273
-15.634278
-16.516366
-16.686907
-16.063925
-14.814649
-13.035812
-10.917923
-8.627886
-6.308338
-3.918947
-1.436759
1.072317
3.421704
5.532379
7.317775
8.706736
9.810751
10.380614
9.920207
8.319029
6.037454
3.919830
2.256678
0.937168
-0.171501
-1.169667
-2.099957
-2.978111
-3.912008
-4.951490
-5.936540
-6.538600
-6.547485
-5.980246
-4.757202
-3.009188
-1.086073
0.660630
1.911217
2.561415
2.791243
3.061075
3.658809
4.582150
5.676983
6.704597
7.587934
8.330600
8.926695
9.567712
9.954932
9.883418
9.486297
9.050811
8.444488
7.561088
6.319946
4.740082
2.983806
1.315736
-0.348399
-1.921706
-3.426809
-4.658441
-5.593650
-6.113406
-6.497084
-6.535480
-6.415172
-6.167965
-5.365292
-4.354402
-3.296293
-2.690690
-2.492013
-2.630091
-3.145585
-3.738792
-4.090007
-4.506802
-4.970816
-5.449913
-5.914910
-6.261862
-6.412401
-6.425876
-6.316717
-6.083938
-5.684913
-4.955034
-3.847085
-2.475501
-1.253114
0.117158
1.534647
2.902295
4.166654
5.049663
5.526073
5.700813
5.758164
5.755509
5.635793
5.155057
4.391997
3.390224
2.118260
0.470847
-1.348713
-3.085315
-4.462536
-5.217071
-5.287929
-4.996784
-4.562017
-4.117742
-3.724291
-3.306903
-2.770159
-2.133733
-1.407461
-0.599542
0.070003
0.402792
0.478505
0.382070
0.259403
0.211826
0.283604
0.259636
-0.089940
-0.819882
-1.926583
-3.286425
-4.589213
-5.566393
-6.274365
-6.831831
-7.296172
-7.663454
-7.902199
-7.996994
-7.857340
-7.448149
-6.861236
-6.068401
-5.089972
-4.050226
-3.096718
-2.332410
-1.857967
-1.572724
-1.473074
-1.510159
-1.564294
-1.399063
-1.115132
-0.818412
-0.771554
-1.201137
-1.926489
-2.901374
-3.998238
-5.108547
-6.155570
-7.171115
-8.045334
-8.775932
-9.366187
-9.889879
-10.068289
-9.953883
-9.547972
-9.023032
-8.600726
-8.216785
-7.620034
-6.727516
-5.584153
-4.336189
-3.232830
-2.613455
-2.490523
-2.786650
-3.365102
-4.005526
-4.512167
-4.754518
-4.676837
-4.210264
-3.516783
-2.933477
-2.714798
-2.826972
-2.929309
-2.799820
-2.434568
-1.930287
-1.343373
-0.642022
0.202950
1.076777
1.660084
1.838758
1.813150
1.779345
1.900637
2.124562
2.382262
2.560281
2.609762
2.512016
2.187033
1.397085
0.048063
-1.656732
-3.417926
-5.064027
-6.434034
-7.569591
-8.422496
-8.944220
-9.138042
-9.241035
-9.337798
-9.306679
-8.781084
-7.862006
-6.588466
-4.814874
-2.815031
-0.706324
1.257123
2.702156
3.552375
3.892705
4.039574
4.132666
4.710726
5.527171
6.496418
7.771270
8.937586
9.826825
10.111085
9.963825
9.410294
8.897423
8.236013
7.619853
7.116163
6.520989
5.544137
4.287912
2.927414
1.590853
0.612361
-0.056263
-0.376983
-0.438005
-0.479024
-0.121971
0.336077
0.670833
0.776058
0.696018
0.523510
0.376906
0.188986
0.017462
-0.072743
-0.089170
0.030155
0.340318
0.851486
1.381672
1.797092
1.968881
1.948192
1.824541
1.889106
2.030072
2.266458
2.534322
2.830058
3.029063
3.067396
3.009981
2.974536
2.872855
2.736088
2.411433
1.996933
1.562758
1.267943
1.020017
0.648144
0.125108
-0.578602
-0.908503
-0.985920
-0.703300
-0.221643
0.321659
0.911851
1.712885
2.686066
3.543827
3.971052
3.820841
3.106638
2.139295
1.195233
0.439058
-0.215794
-1.088701
-2.409523
-3.921512
-5.252498
-6.161147
-6.592042
-6.626832
-6.356016
-5.485140
-3.975838
-2.323570
-0.888046
0.271056
1.132423
1.524235
1.844891
2.110132
1.943526
1.436558
0.646610
-0.667982
-2.656740
-4.980943
-7.316950
-9.679189
-12.126355
-14.587292
-16.878049
-18.630390
-19.477065
-19.365282
-18.584578
-17.509091
-16.168003
-14.711165
-13.176943
-11.500411
-9.539259
-7.286275
-5.005092
-3.028857
-1.569068
-0.689010
-0.274574
-0.258866
-0.647134
-1.356090
-2.279823
-3.373736
-4.698493
-6.295736
-7.805757
-9.031487
-9.606332
-9.387325
-8.715485
-8.140704
-7.820375
-7.568578
-6.987567
-5.935033
-4.391957
-2.637384
-0.982494
0.413682
1.417031
2.024930
2.252462
2.282597
2.215346
2.093334
1.769007
1.467633
1.116091
0.400576
-0.916311
-2.565690
-4.375742
-6.145134
-7.681715
-8.918266
-9.723626
-10.352246
-10.691329
-10.475601
-9.890327
-9.065029
-8.090536
-7.074726
-5.939233
-4.499118
-2.845867
-1.065718
0.850183
2.940527
4.992180
6.696911
8.223264
9.779128
11.472383
13.243351
14.916932
16.103578
16.553101
16.300256
15.458172
13.898309
11.487869
8.620660
5.389480
1.974675
-1.450623
-4.650324
-7.710011
-10.513934
-12.786656
-14.498665
-15.412232
-15.237820
-14.259719
-12.787470
-10.897802
-8.805490
-6.516109
-3.909318
-1.121525
1.434112
3.745135
5.760718
7.519882
9.265273
10.770640
11.832028
12.660605
13.487543
14.534502
16.014621
17.614096
18.722046
19.678505
20.638571
21.563551
22.604937
24.099811
25.798968
27.161042
27.918792
27.909907
27.134059
25.879473
24.268130
22.388563
20.509652
18.945527
17.781442
16.845250
15.893974
14.899415
13.922235
13.075887
12.626630
12.778745
13.333851
13.934864
14.708026
15.549063
16.373377
17.254419
18.215140
19.168648
20.024769
20.712676
21.103832
20.976574
20.611259
20.271849
19.946538
19.763209
19.751373
19.879551
19.876896
19.593556
18.974117
17.919880
16.357067
14.617842
12.987152
11.424667
9.713969
7.696028
5.115734
2.118348
-0.854445
-3.538028
-5.949453
-8.104457
-9.891228
-11.344850
-12.602387
-13.880253
-15.279444
-16.743231
-17.865016
-18.643160
-19.350804
-20.157475
-20.961851
-21.715730
-22.428293
-23.234309
-24.315434
-25.653962
-27.134144
-28.450048
-29.572161
-30.742475
-31.883607
-32.801109
-33.370706
-33.508457
-33.413725
-33.409166
-33.470516
-33.429232
-33.065620
-32.434440
-31.691446
-30.943860
-29.987729
-28.718780
-27.371133
-26.327452
-25.646104
-25.445787
-25.711092
-26.182647
-26.770607
-27.470710
-28.041947
-28.249541
-28.026599
-27.443293
-26.577991
-25.598251
-24.582770
-23.287588
-21.460877
-19.072797
-16.216801
-13.093564
-9.734894
-6.260474
-2.824419
0.362103
3.076117
5.355989
7.330585
9.123850
10.644628
11.684375
12.128650
12.028936
11.493440
10.839899
10.209312
9.583315
8.982894
8.617251
8.461138
8.442088
8.435498
8.641061
9.226335
10.114918
11.080230
11.851425
12.257336
12.227137
11.912319
11.432894
10.847229
10.449780
10.498934
10.925175
11.479626
11.835368
11.851731
11.312300
10.259375
8.870677
7.147519
5.184337
3.058844
0.919906
-0.980647
-2.662161
-4.283997
-6.007810
-7.867375
-9.793832
-11.416980
-12.414818
-12.622412
-11.873187
-10.331423
-8.117131
-5.565756
-2.981919
-0.721393
1.196475
2.987117
4.491173
5.580760
6.287030
6.784753
7.122461
7.113904
6.720061
6.008154
4.824395
3.243547
1.473827
-0.288678
-1.917400
-3.362169
-4.402307
-5.142414
-5.661187
-6.182583
-6.619380
-6.808612
-6.604688
-5.980394
-4.994752
-3.815320
-2.465706
-0.879347
0.772265
2.284846
3.502643
4.289576
4.589575
4.431494
4.048145
3.656598
3.368668
3.330927
3.631910
3.969617
4.097468
4.099075
3.982638
3.697004
3.401204
3.415928
4.021860
5.318681
7.089649
9.184912
11.360511
13.384948
15.270025
17.145266
19.018540
20.804919
22.722131
24.772144
26.953973
29.300737
31.688489
34.027384
36.242987
38.202171
39.696062
40.392166
40.152438
39.124105
37.337006
34.737366
31.446508
27.587395
23.345621
19.087452
14.691563
9.993677
5.456135
1.685556
-1.133451
-2.991048
-4.055779
-4.662429
-4.975280
-5.033678
-5.204875
-5.770210
-6.645413
-7.616035
-8.761429
-10.216363
-11.845084
-13.705961
-16.048854
-18.603244
-21.403560
-24.534074
-27.710822
-30.822645
-33.578367
-35.394649
-36.609230
-37.367044
-37.971072
-38.410492
-38.579066
-38.361698
-37.944639
-37.509216
-36.894104
-36.044213
-34.895931
-33.896845
-33.160080
-32.569888
-32.147582
-31.697404
-31.006546
-30.261256
-30.062251
-30.528232
-31.309655
-32.214041
-32.980708
-33.468986
-33.653298
-33.351660
-32.520132
-31.194783
-29.255274
-26.590116
-23.271450
-19.441912
-15.429077
-11.543140
-7.872635
-4.195572
-0.243071
3.734679
7.374689
10.681223
13.792983
16.685704
19.208880
21.244137
22.644903
23.436428
23.983992
24.617796
25.386367
26.229043
26.817924
26.883801
26.580459
26.300727
26.377752
26.758743
27.429271
28.076518
28.787051
29.955334
31.641048
33.756969
36.148655
38.576411
40.838905
42.904657
44.935651
46.880735
48.729088
50.659088
52.664834
54.464985
55.743444
56.570054
57.347478
58.061290
58.599673
58.929839
58.711096
57.958857
57.364994
56.638004
55.900848
55.282720
54.678693
54.175331
53.685741
53.392237
53.133163
52.969180
52.488116
51.553891
50.326521
48.617135
46.620507
44.576005
42.699717
41.005087
39.629834
38.436894
37.301665
36.277594
34.748227
32.912927
31.366508
30.020438
28.836023
28.196255
27.788640
26.838020
26.129720
24.925303
22.866702
20.623491
18.075659
15.253046
12.556674
10.557751
8.427339
6.652045
5.399754
4.070735
2.960754
1.190051
-1.359748
-4.442388
-6.770198
-8.299237
-9.410202
-9.406626
-9.463385
-10.544838
-11.910583
-12.682496
-13.425226
-13.231140
-12.256319
-11.007043
-9.391501
-7.001454
-4.174641
-1.615068
0.128684
0.500821
0.468327
0.967035
2.072033
3.401973
4.327937
4.659414
4.181301
3.269701
1.834114
-0.256950
-2.687393
-5.180137
-7.322682
-8.862214
-9.941044
-11.384829
-12.743032
-13.658894
-14.200292
-14.272135
-14.449562
-15.083428
-15.044768
-14.470643
-13.442373
-12.056690
-10.900211
-10.157216
-8.977784
-7.448808
-7.006172
-6.771426
-6.374696
-6.383581
-6.143260
-6.081974
-6.916517
-7.710400
-7.882908
-8.037710
-8.292850
-9.078535
-10.423949
-11.400146
-12.029750
-12.650500
-13.039096
-13.196849
-13.144744
-12.751293
-11.607602
-10.040262
-9.216603
-8.569028
-7.762092
-7.140750
-6.352177
-5.516714
-4.692399
-3.663146
-3.117221
-3.029703
-2.731999
-2.088687
-1.031562
0.396748
1.757838
3.042527
5.082047
7.858363
10.991437
13.128344
15.320338
17.535941
18.253032
20.788667
22.036303
22.664204
24.306307
24.596796
25.644740
26.336910
26.745772
27.222510
27.224118
27.374265
26.803356
26.078988
25.762859
24.504338
23.516009
23.610085
23.422166
23.397869
23.741807
23.190244
22.890509
22.447154
21.583756
21.488304
21.780433
21.614483
22.430928
22.911929
23.994630
25.374738
26.489246
27.314872
27.145315
27.354485
27.212143
26.810432
26.462168
25.087242
23.407695
22.245578
20.860160
19.831499
18.216877
17.022297
14.895492
13.427114
12.893258
10.314276
8.582265
8.019881
6.341318
4.176476
2.500208
-0.773271
-4.090689
-6.531297
-10.949155
-15.368324
-18.963476
-21.963157
-22.882954
-25.371107
-27.987143
-30.845826
-34.830525
-35.719499
-36.410093
-37.557127
-35.444813
-35.074315
-35.104186
-30.870344
-28.521941
-25.528554
-19.755539
-13.579862
-7.777008
-3.679247
-1.322973
-1.191844
2.062881
7.994272
10.915521
12.749118
13.382593
14.442669
15.319776
15.669616
15.945022
13.715911
12.472474
12.958393
12.667840
12.341874
9.652388
7.489842
7.160268
7.089738
5.145246
3.147306
0.129919
-2.434308
-0.430858
-3.647282
-6.685327
-8.656379
-11.402920
-9.675235
-9.429012
-10.454394
-11.549947
-14.587336
-15.773718
-12.641956
-10.204363
-10.286698
-9.722083
-9.391261
-7.484542
-2.325033
-0.918364
-1.110546
-0.897770
-0.594164
3.962333
2.609049
1.591537
3.093625
-0.863202
-1.356399
2.992864
3.392217
2.871804
1.936923
0.092114
4.723045
4.347237
1.834491
4.217980
-0.706159
-1.445610
3.179747
6.862056
6.547894
9.765895
8.287352
7.431823
7.072083
8.143635
10.959955
16.037817
14.885209
18.908865
19.678420
19.955137
18.156562
16.399303
16.968181
18.744723
16.868107
22.348633
15.153115
11.798644
9.204579
13.498426
20.777495
27.022688
23.429832
29.063487
23.043500
17.134343
26.978590
20.461503
-14.958851
7.777527
-0.553188
35.135654
25.248716
-8.033715
25.706076
-59.507535
-0.139893
61.618483
29.924082
-28.498609
-101.868721
-22.534460
3.964923
-91.676960
-33.637651
-57.426330
-67.084720
-79.551265
-15.996312
33.476553
-102.615016
-94.244033
-70.551492
-114.585836
-57.131503
-31.453515
-123.927536
-99.526727
-46.272494
-74.532775
-67.391097
-30.985462
-67.872521
-61.813904
2.084034
16.952399
41.169254
0.016843
-15.309664
-53.163380
-65.188240
-19.873830
-6.701375
-16.966713
-34.690513
-79.267207
-34.734188
-14.768912
-54.624142
-27.195812
-29.516079
0.674826
1.540456
71.909544
115.979237
21.465337
19.779232
114.471776
171.935617
202.624607
214.943532
171.246272
117.004989
86.993711
99.091958
172.086558
221.417442
204.139589
195.478676
202.661998
234.523237
274.566948
288.388976
274.158646
194.323615
16.594043
-119.609013
-171.509729
-170.914947
-111.237765
-98.031537
-157.903883
-162.310265
-133.493925
-154.195733
-233.022465
-279.228505
-299.597164
-324.380698
-327.331522
-283.153949
-218.532330
-195.470346
-173.094661
-141.036680
-94.749384
-83.678783
-78.987190
-53.510862
-17.193760
9.096422
14.755654
3.259044
10.521389
11.649669
-14.599260
-3.637194
28.046322
63.293807
102.398734
105.881351
84.317161
77.589232
54.106813
26.800400
15.234274
-1.713382
23.968869
60.152515
17.475687
-35.018205
-45.908852
-41.971762
-38.616699
-49.229613
-57.085197
-54.929600
-29.990047
11.478726
47.473172
34.915471
-2.585422
-17.749618
1.465746
23.537138
22.879334
-1.038866
3.256621
24.896165
28.868341
32.475233
32.627676
-6.212369
-51.315018
-61.917439
-68.363372
-91.558548
-100.770663
-92.910552
-51.687377
22.375528
78.767130
99.020960
107.708369
122.979069
144.916021
137.136510
110.740353
100.430749
87.294956
53.569529
34.260649
31.161286
20.776265
6.657093
-8.987152
-7.577860
14.081359
8.575194
-28.818147
-45.923196
-37.249231
-16.538306
-28.132958
-70.475655
-74.173111
-54.862656
-53.468119
-62.042465
-79.404262
-89.140037
-76.557806
-45.335976
-8.955589
29.782087
54.453415
68.274133
94.003929
107.299675
95.729615
85.455752
70.667660
55.523138
56.785857
82.585497
116.173469
141.675374
141.432039
121.607041
93.152970
58.688451
26.374316
-1.470513
-36.541979
-67.781251
-78.000026
-71.730241
-58.176108
-51.025905
-40.221232
-18.357402
-1.899695
18.290522
48.376499
67.721056
75.215229
82.895322
82.337529
77.143526
63.039766
45.829788
24.601369
2.457776
-24.891593
-48.447134
-66.647376
-84.497419
-96.273730
-110.066311
-113.864106
-113.673626
-107.209722
-90.893669
-73.766059
-60.564421
-53.597187
-47.210996
-40.389023
-44.192720
-45.399432
-38.826336
-38.232209
-46.644571
-53.909932
-59.269525
-55.470154
-47.948438
-47.844524
-54.385877
-62.937269
-67.172158
-61.620478
-59.605878
-59.970537
-53.656813
-45.389447
-27.746374
-19.507535
-28.133034
-24.184468
-29.638168
-45.213554
-44.680089
-47.107252
-54.508036
-59.497428
-66.795906
-74.727892
-82.547407
-82.857962
-81.905110
-94.271644
-104.412379
-108.974842
-113.350072
-113.686532
-116.101891
-115.448413
-99.983595
-89.059565
-80.001955
-64.949965
-56.115329
-52.884868
-52.836698
-58.405820
-62.075078
-54.713050
-44.191356
-34.832732
-25.783647
-20.194914
-12.946996
-3.244074
2.843398
12.452212
22.424341
23.132578
24.781566
26.998481
28.842899
35.208432
47.848374
52.232394
41.960827
35.054847
29.430309
24.653399
31.087463
39.690929
38.306166
37.974626
41.056546
43.371176
48.701522
57.295151
61.591293
62.351011
63.671113
60.113999
55.851895
60.944839
64.910457
61.708460
60.226311
58.590703
53.268819
49.530046
50.170079
49.931335
51.162248
55.008509
57.227391
66.352549
73.970341
72.531802
69.155690
70.464315
70.813500
64.261982
64.777741
64.340287
54.776005
48.027746
44.800501
42.739276
43.099609
36.026071
20.623163
10.618835
10.529286
12.002191
14.139098
18.874957
20.606577
16.669424
13.166085
14.412410
15.901382
17.495938
14.654962
9.547526
10.360692
14.857510
19.082826
20.645904
19.413288
14.019265
3.924765
-2.390663
-2.905173
-6.180620
-7.775568
-6.236754
-5.296035
-3.933633
-6.127002
-8.664997
-6.208714
-6.014299
-6.549140
-2.283820
-0.299060
-1.170983
1.576805
4.572488
5.462711
3.771359
1.712430
-2.355228
-5.872995
-10.437753
-22.290137
-30.126047
-30.689743
-31.680367
-29.376886
-29.938614
-31.760470
-29.183519
-28.737276
-26.322308
-20.923758
-16.527277
-12.565595
-6.815534
2.227648
11.719073
14.262251
11.595391
7.464119
4.420499
2.397967
-2.051369
-10.421760
-15.324913
-15.692195
-12.423042
-9.062733
-13.812755
-18.169623
-18.380168
-19.091420
-15.861287
-11.797627
-10.490641
-7.063111
-1.423881
5.226599
11.762969
15.010809
13.017788
10.526683
11.782844
9.819334
5.858244
0.487175
-10.379207
-19.043070
-24.812541
-30.224270
-31.770361
-31.196236
-29.290828
-28.779660
-29.681095
-29.507011
-31.198690
-35.113874
-34.219388
-32.269386
-32.309094
-30.925378
-30.641447
-26.953891
-21.396636
-18.584579
-17.530733
-16.762490
-14.646897
-11.925668
-7.543615
0.571276
7.060428
11.043097
20.173829
30.075459
36.983671
42.409108
46.522282
48.892983
47.743982
45.096796
41.960052
39.791931
39.003294
37.671652
33.752533
28.902172
22.774305
17.774420
16.066674
12.171164
4.321482
-2.036573
-3.448879
-2.088773
0.470800
4.477733
4.906597
4.328146
7.102495
9.969967
15.117016
20.711979
23.581420
24.349991
23.007855
22.173312
23.980677
24.923692
25.616518
23.963203
19.913580
16.921113
14.476898
12.740624
11.427672
10.076028
8.900467
7.938370
7.102188
7.050675
7.821541
8.687827
10.213196
12.952787
15.130682
15.942208
15.974967
14.869249
14.648211
14.634079
13.418186
14.674348
17.382132
20.381422
23.611226
25.846832
26.084201
25.269005
26.430074
29.278857
31.171804
31.470491
31.144525
30.076188
28.954403
27.797204
26.560981
25.706436
23.282552
19.633297
16.999555
13.685088
9.533814
7.883779
8.983859
9.949171
11.625375
15.097828
17.338679
18.433841
21.485267
24.343886
25.943361
28.155686
28.860971
29.163593
29.218649
28.965805
30.509865
30.175045
28.225634
27.380927
23.643138
15.753124
9.575415
7.235473
6.502252
7.129498
5.835564
1.684946
-0.225772
0.083081
-0.085493
-0.394081
-1.734904
-5.098229
-9.147525
-11.505829
-10.660201
-9.583730
-11.645938
-15.441438
-22.614658
-28.988780
-31.387416
-29.704326
-28.537682
-31.455387
-32.436502
-29.719208
-26.701884
-23.962949
-21.328615
-22.572380
-28.107072
-33.294189
-34.415646
-34.657013
-36.833332
-38.748640
-42.487085
-47.061024
-49.813795
-51.094284
-51.469764
-52.491211
-53.047365
-54.954476
-58.980163
-61.315186
-60.149198
-58.311010
-56.478724
-54.067035
-53.390277
