EVENT_NAME: 202302060117
EVENT_ID: 13194
EVENT_DATE_YYYYMMDD: 2023/02/06
EVENT_TIME_HHMMSS: 01:17:32.00000
EVENT_LATITUDE_DEGREE: 37.288
EVENT_LONGITUDE_DEGREE: 37.043
EVENT_DEPTH_KM: 8.6
HYPOCENTER_REFERENCE: AFAD
MAGNITUDE_W: 7.7
MAGNITUDE_W_REFERENCE: AFAD
MAGNITUDE_L: 
MAGNITUDE_L_REFERENCE: 
FOCAL_MECHANISM: 
NETWORK: TK
STATION_CODE: 6901
STATION_NAME: 
STATION_LATITUDE_DEGREE: 40.2623
STATION_LONGITUDE_DEGREE: 40.2101
STATION_ELEVATION_M: 1614.0
LOCATION: Kahramanmaras_Pazarck_Turkiye
SENSOR_DEPTH_M: 
VS30_M/S: 519
SITE_CLASSIFICATION_EC8: B
MORPHOLOGIC_CLASSIFICATION: 
EPICENTRAL_DISTANCE_KM: 429.77
EARTHQUAKE_BACKAZIMUTH_DEGREE: 
DATE_TIME_FIRST_SAMPLE_YYYYMMDD_HHMMSS: 2023/02/06 01:18:06.6399770
DATE_TIME_FIRST_SAMPLE_PRECISION: millisecond
SAMPLING_INTERVAL_S: 0.01
NDATA: 18236
DURATION_S: 
STREAM: HNN
UNITS: cm/s^2
INSTRUMENT: sensor = CMG-5T/GURALP | digitizer = 
INSTRUMENT_ANALOG/DIGITAL: 
INSTRUMENTAL_FREQUENCY_HZ: 
INSTRUMENTAL_DAMPING: 
FULL_SCALE_G: 
N_BIT_DIGITAL_CONVERTER: 
PGA_CM/S^2: 6.048
TIME_PGA_S: 
BASELINE_CORRECTION: BASELINE REMOVED
FILTER_TYPE: BUTTERWORTH
FILTER_ORDER: 
LOW_CUT_FREQUENCY_HZ: 
HIGH_CUT_FREQUENCY_HZ: 
LATE/NORMAL_TRIGGERED: 
DATABASE_VERSION: 
HEADER_FORMAT: DYNA 1.2
DATA_TYPE: Acceleration
PROCESSING: Automatic Paolucci et al., 2011
DATA_TIMESTAMP_YYYYMMDD_HHMMSS: 
DATA_LICENSE: U (unknown license)
DATA_CITATION: Turkish Accelerometric Archive v 1.0 - Disaster And Emergency Management Presidency, Earthquake Department
DATA_CREATOR: AFAD
ORIGINAL_DATA_MEDIATOR_CITATION: : AFAD - Disaster And Emergency Management Presidency
ORIGINAL_DATA_MEDIATOR: AFAD PROCESS SERVICE
ORIGINAL_DATA_CREATOR_CITATION: AFAD PROCESS SERVICE
ORIGINAL_DATA_CREATOR: network: TK
USER1: GuestUser
USER2: 
USER3: 
USER4: 
USER5: 
[...]
0.072907
0.108454
0.146205
0.181438
0.205346
0.228625
0.248130
0.270780
0.289025
0.302238
0.308215
0.307271
0.294373
0.282419
0.281160
0.267633
0.249073
0.220131
0.179235
0.138654
0.106251
0.065355
0.009045
-0.039087
-0.091308
-0.141956
-0.187885
-0.239477
-0.287608
-0.336369
-0.384501
-0.424767
-0.456540
-0.492088
-0.518199
-0.537074
-0.557208
-0.571049
-0.578599
-0.579543
-0.573881
-0.554691
-0.537074
-0.516941
-0.487685
-0.458743
-0.440812
-0.420679
-0.385760
-0.343920
-0.299249
-0.252376
-0.200155
-0.160518
-0.118993
-0.084074
-0.061739
-0.031224
0.008728
0.042074
0.053084
0.049938
0.039557
0.033894
0.026974
0.017536
0.002436
-0.011720
-0.018327
-0.038460
-0.070862
-0.106725
-0.135038
-0.153284
-0.174675
-0.196696
-0.222492
-0.240738
-0.257411
-0.274084
-0.295162
-0.328822
-0.352731
-0.371606
-0.394256
-0.422883
-0.444589
-0.463464
-0.474475
-0.482025
-0.494608
-0.499642
-0.504361
-0.499957
-0.489261
-0.479194
-0.477307
-0.470071
-0.445534
-0.430119
-0.426659
-0.425715
-0.423828
-0.408728
-0.379786
-0.362169
-0.343924
-0.323161
-0.299253
-0.273771
-0.259615
-0.233505
-0.197328
-0.159263
-0.118996
-0.068348
-0.028082
-0.006690
0.025712
0.083281
0.149344
0.204081
0.254729
0.309467
0.359171
0.396921
0.428694
0.466129
0.512059
0.557359
0.591648
0.607692
0.609579
0.600456
0.585671
0.574031
0.559246
0.535023
0.513945
0.485633
0.453231
0.413593
0.354137
0.289018
0.227044
0.162869
0.096177
0.044585
-0.001029
-0.052621
-0.095719
-0.126863
-0.154861
-0.181601
-0.204880
-0.221553
-0.225643
-0.209285
-0.180343
-0.155176
-0.127178
-0.097293
-0.058914
-0.001345
0.050247
0.103726
0.164755
0.231133
0.308835
0.395345
0.468644
0.519292
0.591646
0.674381
0.770015
0.874771
0.958136
1.015705
1.059117
1.110709
1.168593
1.234026
1.296314
1.343816
1.367095
1.377476
1.396666
1.408305
1.406103
1.402957
1.392261
1.384082
1.374330
1.356084
1.332176
1.305121
1.284044
1.270202
1.243463
1.204140
1.181175
1.165446
1.140908
1.117314
1.093720
1.061947
1.049049
1.037095
1.014130
0.993682
0.982672
0.986132
0.994626
1.001861
1.007209
1.028286
1.048419
1.073901
1.104730
1.125178
1.159153
1.195959
1.220497
1.242203
1.273347
1.299457
1.314557
1.336578
1.351049
1.359857
1.359542
1.332488
1.300400
1.265796
1.214833
1.161354
1.113223
1.063833
1.013185
0.955616
0.896159
0.828209
0.770011
0.731317
0.696084
0.664310
0.635998
0.606112
0.581260
0.573081
0.567418
0.563329
0.566474
0.568991
0.564587
0.558924
0.555778
0.551060
0.549172
0.545711
0.538161
0.540049
0.541936
0.538476
0.546340
0.564272
0.568361
0.558609
0.551688
0.558923
0.572450
0.578742
0.570563
0.545396
0.519600
0.492231
0.472412
0.455110
0.437493
0.420191
0.386531
0.337456
0.308828
0.295616
0.277055
0.259438
0.241822
0.231755
0.216026
0.212565
0.214453
0.196521
0.197465
0.212880
0.207217
0.206273
0.224519
0.253775
0.291840
0.337454
0.381182
0.429942
0.480590
0.524946
0.583459
0.642601
0.700799
0.751761
0.796747
0.859664
0.908109
0.934220
0.967880
0.989587
1.008776
1.030168
1.037718
1.038347
1.030797
1.021045
1.017270
1.013494
1.007832
0.995563
0.983609
0.971655
0.943971
0.921321
0.894267
0.855573
0.821283
0.795802
0.770949
0.738233
0.708976
0.683495
0.663047
0.657070
0.644486
0.625297
0.615544
0.598242
0.585973
0.590378
0.589119
0.586288
0.591636
0.590377
0.596984
0.620577
0.643227
0.675000
0.708031
0.727850
0.749871
0.777554
0.807440
0.850223
0.880423
0.887029
0.890804
0.884198
0.890490
0.901500
0.900871
0.887973
0.863435
0.832291
0.799575
0.782902
0.773779
0.760251
0.736972
0.720928
0.708659
0.692616
0.668707
0.631901
0.598869
0.574017
0.551996
0.512988
0.464856
0.417039
0.356954
0.304418
0.249366
0.185820
0.127936
0.084838
0.042369
-0.007650
-0.053264
-0.095419
-0.125619
-0.142921
-0.155504
-0.166830
-0.162111
-0.151100
-0.129394
-0.102655
-0.072140
-0.038794
0.003675
0.060929
0.113150
0.164742
0.213817
0.274217
0.338077
0.385265
0.438115
0.507323
0.559230
0.605788
0.657380
0.706455
0.751440
0.797370
0.829772
0.847388
0.856511
0.870667
0.884824
0.883251
0.869409
0.850534
0.832917
0.810267
0.785100
0.739485
0.699848
0.670591
0.653604
0.648256
0.621516
0.560801
0.465482
0.337132
0.218848
0.173863
0.117552
0.007762
-0.021180
-0.056413
-0.167147
-0.264983
-0.435173
-0.653809
-0.728051
-0.768947
-0.770520
-0.676774
-0.667651
-0.748499
-0.791282
-0.856716
-1.088250
-1.243340
-1.247744
-0.987583
-0.651607
-0.736860
-0.908937
-0.707289
-0.510989
-0.757308
-0.821483
-0.630216
-0.523572
-0.151105
0.218846
0.364499
0.417663
0.390294
0.443774
0.503230
0.364813
0.538463
0.952771
1.049977
0.960635
0.587538
0.132649
0.512352
1.396019
1.749297
1.401052
0.358835
-0.184766
0.239608
1.161968
1.836437
1.647371
1.400423
1.136801
0.731617
0.650140
0.640073
1.054695
1.936159
2.276854
2.000334
1.363616
1.350718
1.591060
1.295036
0.953083
0.864056
1.429678
2.209218
2.445470
1.580993
0.578413
0.571807
1.105656
2.041544
2.469693
2.112955
1.501088
0.996495
1.073254
1.065389
1.066962
1.166056
1.223625
1.287485
1.068535
0.681911
0.410110
0.155926
0.113457
0.533427
0.678765
0.365124
0.171655
0.308184
0.246526
0.304095
0.471453
0.196192
0.131073
0.098356
-0.227553
-0.476074
-0.511308
-0.519172
-0.437066
-0.188545
-0.358106
-0.606312
-0.559440
-0.340489
-0.009232
-0.009232
-0.151424
0.040158
0.228908
0.132960
0.137678
0.106535
-0.105495
-0.281348
-0.377925
-0.340490
0.071301
0.650136
0.669325
0.530279
0.643215
0.447858
-0.085677
-0.211196
0.512662
1.038646
1.384689
1.395070
0.877265
0.830392
1.089609
1.200028
0.701097
0.305036
0.112825
-0.226297
-0.621415
-0.923101
-0.834388
-0.883149
-0.951099
-1.113424
-1.296827
-1.032262
-0.905170
-0.895418
-1.090460
-1.239888
-0.909574
-0.469471
-0.722711
-1.553843
-2.041134
-2.233659
-1.979161
-1.818094
-1.348734
-0.552207
-0.697545
-1.438391
-1.436189
-0.846344
-0.364715
-0.185088
-0.292361
-0.256184
-0.316584
-0.538681
-0.646898
-0.766440
-1.057116
-0.800415
-0.276318
-0.166213
-0.460035
-1.058689
-1.119089
-0.605373
-0.263735
0.011841
0.131383
-0.243916
-0.461923
-0.114622
0.428035
0.995545
1.437850
1.643588
1.065382
0.465785
0.684106
0.757719
1.018824
1.514294
1.672215
1.596400
1.361720
0.981388
0.696375
0.662085
0.941436
1.524989
1.810946
1.554875
1.111940
0.524297
-0.146397
-0.312182
-0.159924
-0.136330
0.065947
0.287729
0.176052
-0.247693
-0.367550
-0.128466
0.037949
0.501646
0.479311
0.055880
-0.016474
-0.203652
-0.415367
-0.477340
-0.532707
-0.300544
0.025994
0.239282
0.178253
-0.409390
-0.633689
-0.466330
-0.245492
-0.192327
-0.200821
-0.117771
-0.095436
-0.095121
-0.196103
-0.238572
-0.080336
-0.107390
-0.275064
-0.262480
-0.276951
-0.213720
-0.314387
-0.545921
-0.872774
-1.120037
-0.984451
-0.607265
-0.513833
-0.460983
-0.248010
-0.298658
-0.241718
0.068461
0.393112
0.568021
0.522721
0.192093
0.030082
0.236134
0.382101
0.364170
0.473331
0.574941
0.600737
0.652958
0.719335
0.772500
0.685045
0.326419
0.314465
0.823148
0.967856
0.890469
0.895816
0.697628
0.238650
0.069404
0.096773
0.148679
0.394998
0.324531
0.050528
-0.088832
-0.105191
0.210337
0.412615
0.262243
0.012778
-0.270977
-0.146716
-0.008299
-0.283875
-0.338613
-0.272550
-0.321940
-0.339871
-0.478603
-0.504084
-0.117460
0.103378
-0.059577
0.082929
0.137038
0.215998
0.749533
0.713985
0.327676
-0.004525
-0.214038
0.009631
0.287409
0.472069
0.525863
0.552917
0.440296
0.183281
0.264758
0.613947
0.694480
0.676863
0.676549
0.272623
0.061537
0.300935
0.314462
0.130430
0.135464
0.443127
0.866557
0.854917
0.317608
-0.039446
0.020640
0.166607
0.207817
0.279857
0.455080
0.632506
0.865613
0.888892
0.845165
0.903992
0.785079
0.871589
1.407955
1.819117
1.786085
1.641691
1.632883
1.606143
1.606772
1.778850
1.854664
1.742672
1.579088
1.432178
1.297536
1.046183
1.164152
1.513969
1.470557
1.328365
0.965964
0.663648
0.613000
0.425193
0.366681
0.536241
0.653581
0.585316
0.288663
-0.192021
-0.301811
0.063421
0.262867
0.176671
0.066567
0.153077
0.274821
0.249340
0.096137
-0.018371
0.005537
0.064993
0.143639
0.082925
-0.003272
0.034793
0.225746
0.253744
0.155279
0.315716
0.584686
0.569900
0.227004
0.010884
0.185478
0.382093
0.156222
-0.303700
-0.631811
-0.617341
-0.573613
-0.585882
-0.550334
-0.543099
-0.514786
-0.628351
-0.637474
-0.457218
-0.371336
-0.372280
-0.404053
-0.287343
-0.243301
-0.407199
-0.328868
0.048004
0.397192
0.696676
0.937018
0.987352
0.975712
0.959354
0.805522
0.515475
0.529317
0.947714
1.265758
1.373975
1.555805
1.717186
1.783249
1.767834
1.672830
1.641686
1.687301
1.708692
1.610227
1.550456
1.509246
1.502325
1.413298
1.130801
1.098713
0.996788
0.683148
0.648858
0.590974
0.607018
0.773118
0.711774
0.495026
0.166285
-0.074057
-0.028128
0.030385
0.027239
0.035733
0.017487
0.204979
0.333015
0.135456
0.006791
0.069393
0.169116
0.331127
0.413862
0.419210
0.541583
0.579648
0.469543
0.221966
0.031642
-0.020893
-0.103944
-0.216565
-0.419472
-0.454076
-0.439605
-0.455334
-0.439605
-0.626468
-0.820881
-1.195866
-1.378324
-1.059651
-0.917773
-0.945457
-0.976915
-0.963703
-0.827488
-0.697565
-0.566698
-0.602561
-0.813647
-0.854543
-0.756392
-0.621436
-0.559148
-0.715497
-0.841959
-0.757336
-0.586832
-0.622380
-0.753876
-0.700711
-0.603505
-0.621436
-0.774010
-0.906135
-1.002398
-0.912742
-0.750416
-0.600989
-0.454707
-0.532095
-0.610112
-0.734373
-0.805469
-0.762371
-1.117222
-1.532473
-1.520204
-1.425514
-1.395314
-1.471758
-1.539709
-1.391539
-1.331454
-1.573684
-1.737268
-1.658936
-1.423942
-0.961503
-0.703230
-0.712667
-0.633392
-0.672401
-0.889149
-1.148367
-1.252809
-1.275144
-1.128863
-0.743183
-0.529895
-0.627101
-0.964964
-1.054621
-0.963077
-0.991704
-1.027567
-1.028196
-0.908340
-0.751048
-0.688131
-0.643775
-0.588722
-0.606968
-0.779675
-0.828436
-0.789113
-0.888521
-0.662650
-0.445587
-0.492146
-0.548456
-0.746015
-0.745701
-0.518885
-0.433633
-0.368514
-0.353414
-0.526121
-0.651011
-0.471698
-0.215312
-0.049841
0.076307
0.219128
0.316020
0.117203
-0.173473
-0.237963
-0.173473
-0.062110
0.053971
0.022827
0.020940
0.087632
0.229509
0.277326
0.194905
0.289280
0.295886
0.084171
-0.265961
-0.623329
-0.806732
-0.949238
-1.098980
-1.180772
-1.248723
-1.206568
-0.909916
-0.713301
-0.796665
-0.819001
-0.760174
-0.615151
-0.524236
-0.653845
-0.737839
-0.786285
-0.718020
-0.546886
-0.489317
-0.479565
-0.576772
-0.682158
-0.825608
-1.103700
-1.464214
-1.901486
-2.072305
-1.957796
-1.886701
-1.908092
-1.869084
-1.661458
-1.402241
-1.101184
-0.879088
-0.900480
-1.133901
-1.478371
-1.848951
-2.136796
-2.116348
-1.829132
-1.531850
-1.406961
-1.410736
-1.462957
-1.444082
-1.324854
-1.098668
-0.840710
-0.676182
-0.509767
-0.275717
0.102099
0.595996
1.292170
1.872893
2.068878
2.035218
1.901205
1.791415
1.323314
0.740704
0.279838
-0.278549
-0.871540
-1.590050
-2.426844
-3.293523
-4.136609
-4.739666
-5.186061
-5.618300
-5.837880
-5.673981
-5.086024
-4.376637
-3.679833
-3.225888
-2.778864
-2.500772
-2.478122
-2.271440
-2.100621
-1.613959
-0.863047
-0.238912
0.296824
0.643496
0.656079
0.468273
0.131668
-0.219408
-0.582753
-0.869968
-0.812085
-0.716452
-0.566080
-0.283899
-0.097036
0.057740
0.137644
0.082277
0.070008
-0.118428
-0.365376
-0.298684
-0.262193
-0.390543
-0.290191
0.201504
0.762722
0.939518
0.646011
0.154945
-0.535252
-1.279244
-1.986429
-2.680087
-3.151334
-3.428168
-3.594583
-3.487625
-3.070801
-2.439430
-1.700472
-1.385574
-1.496937
-1.789185
-2.102826
-1.924771
-1.377709
-0.942640
-0.675558
-0.712679
-0.858017
-0.748541
-0.690343
-0.963717
-1.328320
-1.412629
-1.112201
-0.844490
-0.663919
-0.485550
-0.557904
-0.511031
-0.417600
-0.553185
-0.776540
-1.266977
-1.736966
-1.631895
-1.469569
-1.719035
-1.948052
-1.905583
-1.685374
-1.408226
-1.098360
-0.324483
0.670861
1.161926
1.448198
1.789522
1.935174
1.824440
1.657396
1.508598
1.507654
1.797071
1.984563
1.644498
1.232078
0.841994
0.343378
0.019985
-0.322912
-0.504427
-0.325743
-0.057088
0.383959
1.042383
1.502934
1.658653
1.490036
1.033889
0.552261
0.324187
0.343062
0.235160
0.184512
0.543138
1.370179
2.394780
2.781089
2.588563
2.375275
1.820978
1.117253
0.392451
-0.668012
-1.644795
-2.274907
-2.583829
-2.540102
-2.471837
-2.563696
-2.961645
-3.553692
-3.939058
-4.275663
-4.615728
-4.755089
-4.698464
-4.325053
-3.546772
-2.701170
-2.200981
-1.982345
-1.999962
-2.257606
-2.274594
-2.069485
-1.821593
-1.520851
-1.270756
-1.158764
-1.231433
-1.276104
-1.087039
-0.606670
-0.078483
0.402202
0.800780
0.811161
0.468893
-0.006758
-0.624287
-1.294351
-1.930125
-2.452335
-2.789569
-3.021733
-3.200102
-3.262704
-3.078358
-2.757167
-2.366139
-1.950574
-1.518021
-0.873753
-0.174747
0.174756
0.251829
0.445928
0.779701
1.171358
1.559555
1.764979
1.954358
2.312040
2.774793
3.207346
3.483866
3.630462
3.436678
2.799331
1.901822
0.900501
-0.046712
-0.757043
-1.194315
-1.418928
-1.273276
-0.844183
-0.391497
-0.097046
-0.070621
-0.246788
-0.617997
-1.111580
-1.492856
-1.821911
-2.216714
-2.465550
-2.665311
-2.968885
-3.240056
-3.423145
-3.509655
-3.785231
-4.360920
-4.947934
-5.582765
-6.048035
-6.021924
-5.809266
-5.802345
-5.857712
-5.891687
-5.998645
-5.962783
-5.826883
-5.410373
-4.538975
-3.637692
-2.867590
-2.249432
-1.951836
-1.754906
-1.498520
-1.092078
-0.508839
-0.065904
0.200863
0.264409
0.251511
0.419499
0.439947
0.286744
0.362244
0.489651
0.564522
0.678401
0.821222
1.038600
1.350982
1.638512
1.725651
1.789512
1.946804
2.051560
2.016642
1.850226
1.628445
1.363879
1.260067
1.341544
1.025701
0.314426
-0.518592
-1.242450
-1.743268
-2.177709
-2.318643
-2.254153
-2.192495
-1.965680
-1.698912
-1.664308
-1.826319
-1.977320
-1.961590
-2.018530
-2.193124
-2.193439
-2.076414
-1.968197
-1.857463
-1.771897
-1.657703
-1.591955
-1.556407
-1.349725
-1.109068
-0.800147
-0.422017
-0.142037
0.076914
0.128506
0.021861
-0.089187
-0.205898
-0.302790
-0.378919
-0.350921
-0.127252
0.232947
0.574271
0.929436
1.378662
1.591636
1.668394
1.874761
1.987068
1.911882
1.781959
1.595725
1.165688
0.718979
0.467311
0.197713
0.056464
0.066846
0.129448
0.256854
0.362869
0.517330
0.612963
0.508521
0.230429
-0.235156
-0.801092
-1.355075
-1.777247
-2.011612
-2.279953
-2.429066
-2.229305
-1.976694
-1.751137
-1.593845
-1.691366
-1.719050
-1.707410
-1.777248
-1.618697
-1.305372
-1.006517
-0.840416
-0.761456
-0.682181
-0.573020
-0.444355
-0.277311
-0.060877
-0.042002
-0.226349
-0.403774
-0.489341
-0.567358
-0.832553
-0.934478
-0.862753
-0.940141
-0.863382
-0.729684
-0.699484
-0.734403
-0.808015
-0.762086
-0.725595
-0.741324
-0.728426
-0.670542
-0.499409
-0.103347
0.489329
0.969699
1.239927
1.278935
1.199974
1.141147
1.042997
0.899232
0.707650
0.407851
-0.019354
-0.248057
-0.221317
-0.242709
-0.193005
0.019339
0.237975
0.556964
0.930060
1.190221
1.393443
1.634729
1.848331
1.859971
1.711172
1.543499
1.414834
1.334615
1.247475
1.154358
1.124473
1.109058
1.132652
1.224196
1.267608
1.389667
1.530286
1.618369
1.726272
1.772515
1.786357
1.872553
2.095908
2.218281
2.113210
1.894259
1.667129
1.414204
1.229543
1.048971
0.769621
0.500651
0.250871
-0.038546
-0.476762
-0.823119
-0.969715
-1.021622
-0.935111
-0.666771
-0.424856
-0.190176
0.177258
0.665178
1.143346
1.412000
1.653286
1.889854
1.963781
1.931064
2.048404
2.257288
2.314542
2.256029
2.178956
2.139318
2.157250
2.167002
2.254456
2.426219
2.435971
2.387210
2.314227
2.231491
2.205066
2.127993
2.206010
2.401995
2.519964
2.554883
2.352920
2.082378
2.027640
2.013169
1.910929
1.824104
1.778489
1.778804
1.696697
1.519272
1.378967
1.173858
0.959312
0.778426
0.663288
0.587788
0.377645
0.135416
-0.168787
-0.496584
-0.724343
-0.846402
-0.945181
-1.117573
-1.294370
-1.487210
-1.692948
-1.762786
-1.734473
-1.657085
-1.402272
-1.168851
-1.085486
-0.907117
-0.633114
-0.410703
-0.237368
-0.010867
0.261877
0.498444
0.746337
0.963400
1.105906
1.158127
1.203742
1.242750
1.172912
1.083256
0.895135
0.636546
0.603829
0.740044
0.842284
0.936030
0.992341
1.008384
0.965601
0.863361
0.725573
0.580235
0.595021
0.645354
0.584325
0.452828
0.287986
0.187319
0.136986
0.093258
0.017758
-0.086055
-0.154319
-0.185463
-0.265682
-0.386483
-0.555100
-0.817148
-1.052143
-1.283677
-1.493504
-1.609271
-1.570892
-1.396298
-1.282419
-1.247815
-1.260713
-1.214783
-1.073221
-0.873145
-0.539686
-0.154320
0.194868
0.546258
0.792892
0.957420
1.143024
1.214120
1.255016
1.292137
1.202480
1.100555
0.981328
0.793835
0.575829
0.318499
0.008004
-0.214092
-0.209374
-0.171309
-0.170995
-0.197420
-0.209059
-0.111224
0.055191
0.282006
0.461634
0.533044
0.708268
1.003977
1.237398
1.420486
1.564880
1.635976
1.693859
1.669007
1.429923
1.076960
0.746646
0.457229
0.080357
-0.298717
-0.611099
-0.811175
-0.895483
-0.967838
-0.954311
-0.826589
-0.543149
-0.203398
0.098288
0.298678
0.394311
0.540907
0.725254
0.769295
0.686874
0.578972
0.556951
0.527695
0.351213
0.117162
-0.149920
-0.300606
-0.302493
-0.312245
-0.333323
-0.341502
-0.299977
-0.182952
-0.027547
0.170326
0.315664
0.421679
0.529581
0.627417
0.756082
0.821515
0.884746
1.050532
1.217576
1.305031
1.388710
1.582808
1.750167
1.683160
1.487175
1.319816
1.228272
1.216947
1.240226
1.292761
1.357880
1.410416
1.484343
1.617726
1.727202
1.756143
1.797354
1.887954
2.033292
2.211661
2.359201
2.436274
2.545120
2.679133
2.708704
2.686997
2.572174
2.457665
2.459238
2.460496
2.472136
2.529390
2.606149
2.657426
2.707759
2.812516
2.833593
2.705242
2.619675
2.666863
2.715938
2.621877
2.460496
2.315472
2.194986
2.076703
1.849888
1.565503
1.226696
0.912741
0.693791
0.398396
0.002649
-0.377998
-0.633755
-0.839178
-1.056241
-1.254744
-1.483761
-1.708374
-1.834522
-1.912225
-1.981748
-2.015408
-1.961929
-1.750843
-1.508614
-1.263553
-0.995527
-0.773745
-0.559514
-0.336473
-0.161250
0.007681
0.146098
0.207128
0.336422
0.481445
0.555057
0.646916
0.788479
0.973454
1.201842
1.315092
1.378953
1.479934
1.606083
1.776902
1.907769
2.047129
2.099665
2.113192
2.142448
2.047444
1.926958
1.825347
1.658303
1.504471
1.343404
1.159687
0.954578
0.707315
0.475466
0.193284
-0.073169
-0.254998
-0.375799
-0.430536
-0.467657
-0.506980
-0.566122
-0.570526
-0.554168
-0.600097
-0.595379
-0.547247
-0.525227
-0.582166
-0.635017
-0.636590
-0.547877
-0.350318
-0.062788
0.259660
0.459107
0.642824
0.852651
0.986035
1.037627
0.997989
0.875930
0.770545
0.715807
0.666732
0.634015
0.663271
0.680259
0.682461
0.706054
0.670821
0.583366
0.421670
0.265007
0.163082
0.050146
-0.055240
-0.238642
-0.463570
-0.629356
-0.716810
-0.743865
-0.749212
-0.746381
-0.787592
-0.742606
-0.610481
-0.435572
-0.202780
0.099850
0.461621
0.757645
1.031333
1.230779
1.317290
1.390588
1.406946
1.408834
1.450988
1.480559
