EVENT_NAME: 202302060117
EVENT_ID: 13194
EVENT_DATE_YYYYMMDD: 2023/02/06
EVENT_TIME_HHMMSS: 01:17:32.00000
EVENT_LATITUDE_DEGREE: 37.288
EVENT_LONGITUDE_DEGREE: 37.043
EVENT_DEPTH_KM: 8.6
HYPOCENTER_REFERENCE: AFAD
MAGNITUDE_W: 7.7
MAGNITUDE_W_REFERENCE: AFAD
MAGNITUDE_L: 
MAGNITUDE_L_REFERENCE: 
FOCAL_MECHANISM: 
NETWORK: TK
STATION_CODE: 4414
STATION_NAME: 
STATION_LATITUDE_DEGREE: 38.406947
STATION_LONGITUDE_DEGREE: 38.754133
STATION_ELEVATION_M: 725.0
LOCATION: Kahramanmaras_Pazarck_Turkiye
SENSOR_DEPTH_M: 
VS30_M/S: None
SITE_CLASSIFICATION_EC8: unknown
MORPHOLOGIC_CLASSIFICATION: 
EPICENTRAL_DISTANCE_KM: 195.07
EARTHQUAKE_BACKAZIMUTH_DEGREE: 
DATE_TIME_FIRST_SAMPLE_YYYYMMDD_HHMMSS: 2023/02/06 01:17:45.6412470
DATE_TIME_FIRST_SAMPLE_PRECISION: millisecond
SAMPLING_INTERVAL_S: 0.005
NDATA: 10657
DURATION_S: 
STREAM: HNE
UNITS: cm/s^2
INSTRUMENT: sensor = GEO-A200,/GEObit | digitizer = 
INSTRUMENT_ANALOG/DIGITAL: 
INSTRUMENTAL_FREQUENCY_HZ: 
INSTRUMENTAL_DAMPING: 
FULL_SCALE_G: 
N_BIT_DIGITAL_CONVERTER: 
PGA_CM/S^2: 163.844
TIME_PGA_S: 
BASELINE_CORRECTION: BASELINE REMOVED
FILTER_TYPE: BUTTERWORTH
FILTER_ORDER: 
LOW_CUT_FREQUENCY_HZ: 
HIGH_CUT_FREQUENCY_HZ: 
LATE/NORMAL_TRIGGERED: 
DATABASE_VERSION: 
HEADER_FORMAT: DYNA 1.2
DATA_TYPE: Acceleration
PROCESSING: Automatic Paolucci et al., 2011
DATA_TIMESTAMP_YYYYMMDD_HHMMSS: 
DATA_LICENSE: U (unknown license)
DATA_CITATION: Turkish Accelerometric Archive v 1.0 - Disaster And Emergency Management Presidency, Earthquake Department
DATA_CREATOR: AFAD
ORIGINAL_DATA_MEDIATOR_CITATION: : AFAD - Disaster And Emergency Management Presidency
ORIGINAL_DATA_MEDIATOR: AFAD PROCESS SERVICE
ORIGINAL_DATA_CREATOR_CITATION: AFAD PROCESS SERVICE
ORIGINAL_DATA_CREATOR: network: TK
USER1: GuestUser
USER2: 
USER3: 
USER4: 
USER5: 
[...]
37.417451
39.599134
41.200047
41.272638
39.341134
35.903438
30.111818
23.582875
17.535122
11.745620
7.513866
5.162380
4.256112
4.444293
5.645940
6.925509
6.988213
6.704856
5.866859
4.058713
1.989490
-0.593175
-3.545208
-7.051645
-10.931453
-14.695200
-18.943433
-23.077489
-26.286125
-28.776036
-29.837914
-29.157243
-27.604356
-25.135229
-22.862440
-22.472036
-23.655624
-25.635860
-27.534641
-28.817575
-28.639046
-27.240120
-25.513025
-22.868985
-20.083930
-17.690136
-15.510101
-14.012301
-12.933776
-12.350567
-11.703325
-10.070632
-7.841630
-5.423824
-3.091945
-1.408872
-0.718549
-0.609232
-0.498032
0.150151
2.369266
6.518086
11.633994
16.413493
20.158338
23.211061
25.621804
27.313823
28.794437
29.677331
29.503913
28.462046
26.966532
25.456422
24.109926
23.299237
23.271306
23.936911
24.652188
24.713715
24.118667
22.526397
19.483023
15.583206
11.253990
6.225823
0.560621
-5.471594
-11.680607
-17.408429
-21.709866
-24.380342
-25.523203
-25.379044
-24.532405
-23.540985
-22.931880
-23.105533
-24.551374
-27.271287
-30.661664
-34.025204
-36.239914
-36.531746
-34.838551
-31.783003
-28.329132
-24.565453
-20.480431
-15.720236
-9.642654
-2.854586
3.441934
8.204483
11.165158
12.311011
11.726792
10.162537
7.654734
4.501185
2.459035
1.948972
2.385753
4.470445
7.525051
10.953733
15.750653
20.724370
25.201359
28.899357
30.288866
29.913461
28.719515
27.582539
27.395232
28.286836
30.246993
32.410078
34.579285
36.760733
38.504307
39.304335
38.141699
35.706404
32.046946
26.982526
22.222263
17.098047
11.649663
6.453175
0.914156
-4.509039
-10.026399
-14.913551
-19.589065
-24.188538
-27.875069
-31.300759
-34.148737
-37.045683
-39.320895
-40.463520
-41.279624
-40.824716
-39.756786
-38.474156
-36.798617
-34.593156
-30.651738
-25.535359
-19.551943
-12.585194
-6.715248
-2.938386
-0.911371
-1.245813
-3.937476
-8.596039
-14.143298
-19.547894
-24.729316
-28.515428
-30.926474
-31.964575
-31.277548
-29.301147
-24.671844
-17.146688
-7.198867
4.707380
16.593852
27.007326
34.689033
38.764874
38.897026
35.698042
31.063255
25.899254
21.943172
20.864815
21.594218
23.635358
26.473617
29.511273
32.384844
34.094754
34.994362
34.513020
32.814577
30.907791
29.354600
29.481338
30.342102
31.422981
31.487333
29.310760
26.315176
22.930684
20.307763
18.805892
17.850187
16.920613
15.743617
15.343258
15.193852
14.825981
14.281077
12.358518
8.149364
1.712939
-5.920811
-13.658144
-21.150174
-27.504910
-32.116154
-35.299601
-37.219099
-37.842397
-37.190446
-35.556340
-33.122997
-29.956333
-26.123207
-22.442865
-19.186507
-16.432763
-15.131064
-15.400061
-17.223510
-19.860085
-22.111755
-23.193644
-22.080513
-18.478330
-13.213874
-6.582593
1.038848
8.434525
15.595491
21.814559
26.204444
28.763500
29.366013
28.750484
26.670432
23.643537
20.538719
17.352683
15.394341
15.036357
16.223408
18.869567
22.499530
26.259678
29.211642
31.649929
32.808260
32.597646
32.510155
32.416778
31.422936
29.762866
27.100159
22.753287
18.413477
14.768380
11.805989
10.059050
8.665236
7.118401
4.780333
2.142346
-0.425959
-3.785026
-7.276632
-10.685607
-13.941327
-16.128493
-16.988855
-16.506639
-14.976822
-13.932434
-13.868317
-14.150261
-15.606696
-17.438385
-18.061918
-18.199317
-17.706508
-16.205412
-14.563066
-12.815490
-10.557531
-9.161902
-9.525771
-10.939361
-13.829714
-17.582397
-20.934401
-23.350627
-24.812006
-25.360912
-24.815135
-24.679687
-23.905555
-21.331198
-17.839189
-12.275520
-4.875605
3.588860
12.573830
20.572407
27.316217
33.011013
37.253057
40.003976
41.518962
41.924667
41.908036
41.822429
41.924212
42.449980
43.124295
43.349671
42.005294
38.962626
34.478271
29.865379
26.711124
25.117676
25.840958
27.920471
29.848376
30.844034
29.629607
26.579876
21.628220
15.472882
9.012445
2.155097
-3.660301
-8.912818
-13.839520
-17.497566
-19.784313
-19.959143
-18.582111
-15.842257
-12.558120
-10.267204
-8.999640
-9.471095
-11.387297
-13.700646
-16.114283
-18.358184
-19.775776
-20.358817
-20.713270
-20.636912
-21.206770
-22.983606
-25.437734
-29.414768
-34.367601
-38.914577
-42.103674
-42.123130
-38.669258
-32.440068
-24.060823
-15.300205
-6.665534
2.064481
9.893794
16.068368
20.766648
25.048007
29.984293
35.822693
41.867552
46.783828
49.820307
50.509689
49.138710
46.597478
42.630331
38.601977
35.016675
29.413152
23.080310
18.784288
16.016586
14.665617
15.174199
16.337473
16.979301
15.943083
13.213519
9.700254
4.641955
-0.589611
-4.313337
-7.227703
-8.171873
-6.750112
-4.263801
-1.046993
2.327543
5.419110
8.228648
10.268140
11.174811
10.300324
7.495897
3.841383
-1.243754
-6.154212
-8.081715
-8.200987
-6.465888
-2.672075
1.439784
4.372680
5.288296
4.115067
0.988591
-3.217974
-7.646300
-10.705447
-11.204916
-9.889093
-7.242698
-3.379203
0.453688
3.020042
5.062594
6.869496
8.157776
9.073157
8.738950
8.219706
9.263388
10.753420
12.157289
13.561158
13.900947
12.999623
12.050980
12.010572
13.003640
15.041014
17.546159
19.660749
20.785415
20.609643
19.392626
17.852618
16.981427
17.074736
17.539060
17.059365
14.031764
7.997901
0.450077
-6.904940
-12.724340
-15.650006
-16.191144
-14.499125
-9.472204
-2.158688
5.282660
12.151240
18.555109
22.573979
23.086092
21.733005
17.423093
9.955782
2.712586
-3.674401
-9.124668
-12.079055
-12.526262
-10.716535
-7.482072
-3.922498
0.376517
4.496144
7.492603
9.280435
8.776729
6.426184
3.082419
-0.818811
-5.420168
-11.140222
-16.965742
-22.684383
-27.241012
-29.709029
-30.883436
-29.735464
-25.587115
-19.102969
-10.387315
0.423070
11.678157
21.223888
28.739391
32.857371
32.485262
30.334114
28.901456
27.201130
25.100126
24.367125
22.584639
19.649320
17.768195
14.732119
10.872557
7.135648
4.158896
2.755901
2.771286
5.764213
10.363148
15.492240
20.678773
23.505496
23.635059
20.688205
15.715597
10.613275
7.443247
8.017039
9.865138
10.996867
9.185424
2.044870
-8.699431
-20.299235
-30.585652
-38.119821
-41.355766
-40.165184
-34.434369
-24.626855
-14.479401
-4.719677
5.256394
12.374280
14.372339
13.602848
11.504433
7.836030
5.589539
6.033617
6.621770
5.089531
1.778253
-3.466261
-11.603095
-19.478617
-23.885756
-24.171703
-19.133011
-8.914697
3.868475
16.587613
27.805503
37.281551
43.092407
43.040699
38.586713
29.596496
15.512112
0.026062
-13.640694
-24.407596
-30.489013
-30.093431
-25.173859
-17.908132
-8.068367
2.999093
12.533524
19.519106
24.429025
26.379059
26.328764
26.701982
27.267770
26.273457
22.924748
17.464123
9.594486
0.691843
-7.220169
-12.484222
-13.757032
-10.909122
-4.945951
2.293645
8.982602
11.335904
10.287681
8.674694
4.804774
1.399801
0.558744
-0.146244
-2.422868
-5.584421
-8.550108
-12.847778
-17.245500
-20.988531
-24.922013
-27.458066
-28.322194
-26.558609
-22.223811
-17.464793
-13.198972
-10.856735
-11.081003
-14.737400
-21.972591
-28.419374
-32.006795
-33.264068
-30.406269
-23.645510
-15.121013
-6.055296
1.718224
6.752913
7.890998
3.934681
-3.065330
-12.101924
-21.856537
-29.219088
-34.169096
-34.858546
-30.543994
-21.378930
-8.082788
3.909151
13.214286
20.232120
22.360364
19.541342
14.685029
9.595419
6.102401
7.719321
13.902135
21.058629
27.624935
32.562869
34.398726
33.464915
30.338439
26.175662
23.326741
21.355922
21.423099
23.797118
25.380374
25.840931
24.738091
22.729370
20.101505
16.748324
16.187411
18.247384
20.361268
22.569554
25.956096
27.475555
24.854281
21.626812
14.889526
3.285249
-7.350055
-15.198034
-20.623582
-21.763147
-15.922628
-6.218463
3.026642
12.360028
19.479797
21.112961
18.887657
14.352688
6.854772
-2.272222
-9.417013
-14.357369
-17.862629
-17.861133
-15.284422
-13.016105
-12.004439
-11.713852
-10.635798
-9.240640
-7.535673
-4.252949
-1.308753
1.217815
2.772821
1.762499
0.113258
-3.217794
-6.570740
-8.078731
-11.058779
-14.784388
-18.597808
-23.214703
-26.601313
-27.069707
-25.195006
-21.935118
-18.163199
-14.933679
-11.505232
-7.674225
-4.693775
-3.953543
-5.965324
-10.974657
-18.929751
-26.897792
-32.323105
-34.946261
-35.240918
-33.214139
-28.210288
-20.489973
-11.315964
-1.570836
8.751297
18.214632
25.564638
30.687138
32.701441
32.843245
32.502682
32.047471
32.597251
33.346193
33.024463
31.346030
28.896611
26.635759
24.501326
22.795350
21.257226
19.786195
19.327218
19.823087
21.153271
22.791144
23.685102
22.945980
19.643412
13.569999
5.410330
-3.614965
-12.657915
-20.883030
-27.563110
-32.496169
-35.956935
-37.957887
-38.176976
-37.164133
-35.161130
-33.053838
-31.262945
-28.993687
-26.853907
-25.583990
-25.671716
-27.197834
-29.029522
-30.527391
-32.545057
-35.099943
-38.351425
-43.090265
-47.584508
-49.902566
-49.062518
-44.881917
-38.106561
-29.210579
-20.483860
-13.534061
-6.559308
1.081907
8.572927
16.369282
24.061347
30.409894
35.356303
38.532854
39.724378
39.242800
37.877707
36.030246
33.116351
30.903289
29.673088
28.790127
29.440194
29.647208
27.499592
22.976628
16.471462
9.320079
2.530766
-2.481157
-5.730049
-8.510228
-10.416308
-12.073082
-13.812957
-14.613759
-14.781291
-13.413912
-9.428236
-3.364307
3.363494
8.725177
11.327549
10.856801
8.161371
5.366832
5.385278
8.277447
11.892578
15.685213
18.572439
19.148821
18.159922
16.204640
13.057212
8.704690
2.595494
-4.954213
-13.273966
-21.711191
-28.079580
-31.830379
-33.582968
-32.832143
-30.099350
-25.984195
-21.376315
-17.869945
-15.998305
-15.885457
-16.495336
-16.597187
-15.418847
-11.760870
-6.980900
-2.740033
1.408316
4.312020
5.092508
4.456968
2.988292
1.755502
1.863406
3.909019
7.819598
13.375499
18.697160
22.306406
24.994941
26.086177
25.832012
25.317005
24.838488
25.186046
26.192768
28.382220
32.034077
36.314494
40.732158
43.836202
44.460844
42.355367
37.914093
32.466180
27.201185
22.612070
18.669407
16.176200
15.644243
16.194258
17.129179
17.622459
18.235566
19.753612
20.871686
21.809432
22.657719
22.474884
22.293227
21.619550
19.778210
17.866480
14.946229
10.532734
4.852465
-2.297976
-10.276611
-19.475878
-29.460256
-38.729677
-46.621208
-52.088660
-54.083021
-52.500706
-48.217700
-42.819057
-37.443720
-32.659513
-29.026019
-26.984643
-27.167949
-29.320744
-32.779157
-36.801155
-39.144873
-38.509637
-35.882782
-31.886512
-26.559906
-21.416454
-17.140981
-12.888579
-8.872298
-4.908516
-0.149027
5.590969
12.065227
18.822927
25.173356
30.052436
32.785464
33.619156
33.119922
32.008371
31.585648
33.027655
36.082496
39.625119
42.362149
43.072718
42.487558
41.410849
39.845887
39.581128
39.676555
36.964882
31.714718
25.403299
20.036840
17.921005
19.279674
23.492527
28.797474
32.963244
35.630826
36.544794
35.291759
31.558145
25.528284
17.871227
9.145853
0.715691
-6.555519
-11.932572
-15.714211
-18.096537
-18.706887
-19.422703
-20.746834
-22.824061
-25.890741
-28.333805
-29.519512
-29.211975
-28.175590
-27.467610
-27.221752
-28.086822
-29.463687
-30.517796
-31.617340
-32.694049
-33.541934
-34.069182
-33.590262
-31.388804
-27.932578
-23.945725
-19.843282
-16.912270
-15.600448
-15.388961
-16.078411
-16.719836
-16.322605
-14.125620
-10.876089
-8.118578
-5.446052
-2.897826
-0.501679
2.321042
5.447686
9.436658
13.871743
18.458672
24.120274
29.750802
34.930273
39.811471
43.070183
45.177710
46.571221
47.505200
48.811136
50.080347
51.362506
51.795991
50.126269
46.805104
42.036131
36.062298
30.140493
25.741829
23.047106
21.213064
20.816472
22.678225
25.763435
29.039567
31.689729
32.067184
29.028283
23.375558
16.898642
10.795331
6.563106
3.918997
1.573632
0.277986
-0.804844
-1.882024
-1.734570
-0.972916
0.363154
1.602232
1.718846
1.040932
0.043793
-0.551961
-1.322629
-3.536868
-7.022589
-12.039455
-18.811818
-25.156666
-28.900874
-29.967931
-28.616559
-25.041213
-20.136944
-15.720692
-12.820989
-9.569340
-5.945969
-3.660467
-1.997170
-1.231749
-1.925671
-3.378575
-4.636319
-4.851641
-4.349180
-3.203091
-1.617952
0.062296
2.665374
6.111241
9.286616
11.732201
12.850981
12.058655
10.121029
8.442126
7.915113
8.668293
10.322174
12.222771
13.305768
13.593294
13.526520
12.673456
11.541895
10.424224
9.036765
7.897671
7.212459
6.964179
7.086208
6.728695
4.977519
1.456250
-3.840997
-10.421967
-16.949733
-22.188832
-26.037093
-28.369982
-29.612188
-30.858868
-31.856006
-32.239650
-32.193190
-31.717801
-31.459702
-31.533774
-31.556761
-31.710404
-31.837681
-32.195665
-33.428454
-36.248183
-40.614831
-45.342135
-49.491494
-51.466079
-50.477013
-47.211239
-42.580052
-38.015488
-33.698582
-29.172626
-24.492708
-19.844571
-15.046474
-9.617227
-4.553111
0.059949
4.679365
7.892171
9.346184
10.205536
11.049821
11.487778
11.829686
12.740123
13.744021
14.611612
15.757701
17.071876
18.406769
20.094550
22.241627
24.474631
26.368401
27.849722
28.440935
28.381459
27.538753
25.340051
22.561285
18.620270
14.746583
12.501269
11.932823
14.399596
19.168265
25.374385
31.371455
35.281799
37.207820
36.812170
34.602404
31.025341
26.787467
22.210357
17.011514
11.400694
5.285141
-0.683512
-6.365429
-11.346512
-15.444314
-18.946514
-20.812808
-20.944322
-19.646390
-17.347940
-14.230949
-10.032692
-5.646573
-1.523179
1.690098
3.070190
2.336953
-1.158656
-6.869293
-13.659077
-20.615771
-26.451649
-30.675635
-31.843920
-28.932212
-22.792950
-14.010438
-3.915011
5.589287
12.420200
15.306249
13.788605
7.797117
-1.146488
-10.357761
-16.808781
-19.704549
-19.157359
-15.244426
-9.530797
-3.194728
2.363763
5.864247
8.102665
9.785738
11.421256
13.987139
17.588145
21.786167
24.895860
26.730776
27.512441
26.695395
25.763703
24.375774
22.624598
21.635934
22.013861
25.129910
31.184657
39.817445
48.155492
54.020023
58.075618
59.036669
56.005537
50.683807
45.084051
39.289605
33.936801
30.636352
28.202705
25.083763
21.891841
18.944517
14.910983
10.960316
8.813876
6.964061
4.738051
2.579371
0.285561
-3.388493
-7.994323
-12.667482
-18.967836
-26.238339
-33.776982
-41.379422
-47.388095
-51.737793
-54.313160
-55.569491
-55.741497
-54.842595
-54.341311
-53.502204
-52.431920
-51.590459
-49.941758
-48.145215
-45.722230
-42.884442
-40.255468
-36.687890
-33.774770
-32.001062
-30.147548
-28.734498
-26.778343
-23.576602
-19.206256
-14.367432
-10.285235
-6.781691
-4.245236
-2.064729
1.139366
5.207202
9.836270
15.024216
19.994166
24.207725
28.998995
34.884243
41.541655
49.639813
58.512725
66.546849
73.215797
78.343241
81.555105
82.490967
81.267123
78.304261
74.202692
70.044859
66.290999
62.961830
59.901035
56.525724
52.337758
46.832168
40.965214
36.033098
32.359280
29.926575
27.953637
25.600973
21.490694
15.379143
7.680654
-1.069204
-9.578937
-17.791340
-24.863388
-30.360503
-34.379441
-37.115361
-39.534177
-41.820218
-44.821453
-48.616510
-52.767516
-57.137224
-60.782086
-63.454209
-65.837712
-68.370940
-70.968672
-74.302784
-78.564907
-82.078642
-84.031805
-84.758921
-84.080369
-81.811346
-78.176440
-74.651237
-71.920328
-68.667031
-64.595899
-59.445855
-52.832701
-45.240452
-37.276011
-29.982740
-23.493886
-17.580623
-12.376434
-7.490056
-3.090283
0.567929
4.023920
7.619982
11.732783
16.918610
23.420177
31.374496
40.482353
50.529990
60.924867
70.876219
79.751014
85.633202
88.451215
89.275490
88.239978
86.558486
84.629335
83.038007
82.741467
83.451094
85.126162
87.515718
90.061590
91.719002
91.482022
89.393966
85.897887
80.595461
73.139685
65.089013
56.614122
47.690527
39.864207
32.989908
27.157796
21.952833
16.641932
11.463335
5.918666
0.479934
-4.580013
-9.355107
-13.978594
-18.996166
-24.227261
-29.702718
-35.243620
-40.892813
-46.447605
-51.116762
-55.325681
-59.608991
-63.835330
-68.365827
-73.075240
-76.434307
-77.398723
-75.063784
-69.035403
-60.055847
-48.929534
-38.375752
-30.446152
-25.148738
-22.906317
-22.942016
-24.022492
-25.055884
-24.609217
-22.085238
-17.584707
-11.934169
-6.111071
-0.311515
4.860893
8.825146
12.329632
15.711467
18.841641
21.814558
25.255952
29.386880
32.863351
35.560831
37.307466
37.147467
35.656897
32.882132
28.585639
23.750043
19.204479
15.467099
13.733108
14.575040
16.834646
18.548793
17.748698
14.444483
8.821891
0.085453
-9.892099
-19.696856
-28.934731
-35.620461
-40.088572
-43.000114
-43.764896
-43.242425
-42.033715
-40.667513
-38.770683
-36.148536
-34.253589
-32.108395
-29.951430
-29.410360
-28.788308
-27.968741
-27.757018
-25.977190
-22.984734
-20.979377
-18.743077
-15.966262
-12.811839
-8.056353
-1.312543
7.041512
16.026482
25.394238
33.834456
40.866179
46.671856
50.445187
52.663125
52.934408
51.448311
48.742287
44.306663
39.454117
36.075511
34.188265
33.754006
34.511893
34.274207
32.274432
29.218581
24.762711
20.476340
18.522471
18.364591
20.414206
24.125622
27.158570
29.144152
29.612949
27.588455
23.167662
16.819048
8.951059
0.847889
-7.232446
-14.187727
-19.148329
-23.541108
-26.785527
-29.506381
-32.476306
-36.100686
-40.621767
-44.351378
-47.529410
-49.983303
-51.545675
-52.918302
-54.282454
-55.398713
-55.124370
-53.315585
-49.627004
-45.275962
-42.725852
-40.788766
-39.199860
-38.335564
-35.998035
-32.737676
-28.950220
-23.793820
-17.943414
-11.403710
-4.952993
0.046620
3.189978
5.610373
7.249188
7.690205
7.974436
7.625163
6.982325
7.343772
9.261084
12.451525
16.902618
22.531263
27.738983
32.028817
36.109366
39.851151
42.049078
42.259388
41.130652
37.810194
31.620014
24.188015
15.745140
6.589426
-1.472546
-7.686503
-11.512635
-13.493577
-13.680414
-12.731133
-12.509523
-11.952916
-11.087678
-10.813100
-10.107239
-10.303257
-12.503371
-15.544391
-18.801758
-21.646912
-23.861622
-25.245784
-26.853592
-29.677558
-32.039874
-33.717364
-34.506866
-32.683486
-28.613530
-23.388154
-16.942380
-10.970970
-8.409326
-10.170389
-16.158346
-25.951567
-38.159921
-49.699458
-59.376854
-67.783946
-73.567797
-75.955774
-73.844715
-67.771370
-58.689408
-45.350655
-30.496530
-15.922784
-0.675514
13.115709
23.849584
31.662653
36.749370
39.232857
39.495665
40.112303
41.785252
42.230037
43.087270
45.717657
47.547864
49.403732
53.310308
57.387326
60.494430
63.985497
67.920088
70.911838
72.966632
74.985408
76.608685
77.607874
78.236753
78.503563
78.676913
78.594601
77.924220
76.876232
76.221859
76.484432
77.686549
79.480503
80.999726
81.609537
81.249198
80.115048
77.570520
72.953626
66.255183
56.966694
45.271547
32.384018
19.230940
6.588950
-5.543364
-16.963074
-27.071988
-36.799293
-46.033401
-54.555846
-63.509103
-73.181321
-83.345086
-93.429988
-103.873663
-114.655396
-124.337030
-132.807213
-140.192835
-146.029185
-150.428555
-154.315895
-158.274096
-161.316999
-162.989075
-163.844022
-163.689035
-162.780952
-161.352600
-158.850044
-155.245742
-150.659049
-144.704589
-137.340693
-128.269325
-116.915129
-103.702794
-89.112334
-74.437596
-60.959947
-49.063588
-39.294212
-31.085644
-23.389576
-14.757966
-4.225371
8.031881
21.637360
