EVENT_NAME: 202302060117
EVENT_ID: 13194
EVENT_DATE_YYYYMMDD: 2023/02/06
EVENT_TIME_HHMMSS: 01:17:32.00000
EVENT_LATITUDE_DEGREE: 37.288
EVENT_LONGITUDE_DEGREE: 37.043
EVENT_DEPTH_KM: 8.6
HYPOCENTER_REFERENCE: AFAD
MAGNITUDE_W: 7.7
MAGNITUDE_W_REFERENCE: AFAD
MAGNITUDE_L: 
MAGNITUDE_L_REFERENCE: 
FOCAL_MECHANISM: 
NETWORK: TK
STATION_CODE: 6011
STATION_NAME: 
STATION_LATITUDE_DEGREE: 40.11287
STATION_LONGITUDE_DEGREE: 36.30716
STATION_ELEVATION_M: 1172.0
LOCATION: Kahramanmaras_Pazarck_Turkiye
SENSOR_DEPTH_M: 
VS30_M/S: None
SITE_CLASSIFICATION_EC8: unknown
MORPHOLOGIC_CLASSIFICATION: 
EPICENTRAL_DISTANCE_KM: 320.53
EARTHQUAKE_BACKAZIMUTH_DEGREE: 
DATE_TIME_FIRST_SAMPLE_YYYYMMDD_HHMMSS: 2023/02/06 01:18:04.7409610
DATE_TIME_FIRST_SAMPLE_PRECISION: millisecond
SAMPLING_INTERVAL_S: 0.01
NDATA: 18251
DURATION_S: 
STREAM: HNN
UNITS: cm/s^2
INSTRUMENT: sensor = ACEBOX/SARA | digitizer = 
INSTRUMENT_ANALOG/DIGITAL: 
INSTRUMENTAL_FREQUENCY_HZ: 
INSTRUMENTAL_DAMPING: 
FULL_SCALE_G: 
N_BIT_DIGITAL_CONVERTER: 
PGA_CM/S^2: 5.812
TIME_PGA_S: 
BASELINE_CORRECTION: BASELINE REMOVED
FILTER_TYPE: BUTTERWORTH
FILTER_ORDER: 
LOW_CUT_FREQUENCY_HZ: 
HIGH_CUT_FREQUENCY_HZ: 
LATE/NORMAL_TRIGGERED: 
DATABASE_VERSION: 
HEADER_FORMAT: DYNA 1.2
DATA_TYPE: Acceleration
PROCESSING: Automatic Paolucci et al., 2011
DATA_TIMESTAMP_YYYYMMDD_HHMMSS: 
DATA_LICENSE: U (unknown license)
DATA_CITATION: Turkish Accelerometric Archive v 1.0 - Disaster And Emergency Management Presidency, Earthquake Department
DATA_CREATOR: AFAD
ORIGINAL_DATA_MEDIATOR_CITATION: : AFAD - Disaster And Emergency Management Presidency
ORIGINAL_DATA_MEDIATOR: AFAD PROCESS SERVICE
ORIGINAL_DATA_CREATOR_CITATION: AFAD PROCESS SERVICE
ORIGINAL_DATA_CREATOR: network: TK
USER1: GuestUser
USER2: 
USER3: 
USER4: 
USER5: 
[...]
-1.281958
-1.412417
-1.532824
-1.633357
-1.712615
-1.778313
-1.834893
-1.882822
-1.914385
-1.931921
-1.936597
-1.924674
-1.903166
-1.866928
-1.828586
-1.792816
-1.739744
-1.679659
-1.608819
-1.519743
-1.429732
-1.333409
-1.230538
-1.115745
-0.979208
-0.835423
-0.682754
-0.520032
-0.360583
-0.206278
-0.058752
0.082694
0.221803
0.365587
0.509372
0.647312
0.789693
0.926932
1.048739
1.149973
1.215903
1.254712
1.265466
1.248398
1.228759
1.210756
1.195324
1.190648
1.187841
1.183398
1.182696
1.186670
1.193917
1.207710
1.228050
1.244883
1.262884
1.282055
1.295147
1.318292
1.350088
1.377909
1.408068
1.432382
1.441266
1.428874
1.380711
1.298881
1.199750
1.086124
0.965718
0.845077
0.719995
0.591172
0.464921
0.348957
0.243280
0.153267
0.087803
0.038471
0.007141
-0.001276
0.000594
0.005035
0.007372
0.003397
0.001760
0.003395
0.006200
0.009005
0.014849
0.037527
0.079142
0.128706
0.187155
0.259865
0.339589
0.420249
0.500908
0.579463
0.653576
0.719272
0.779825
0.836169
0.878252
0.894617
0.885732
0.849025
0.781691
0.699627
0.600730
0.483363
0.374413
0.271775
0.169138
0.087776
0.024883
-0.024682
-0.048998
-0.055311
-0.056949
-0.059989
-0.062327
-0.064432
-0.065135
-0.048068
-0.009960
0.036331
0.079817
0.113483
0.128679
0.120729
0.097582
0.064616
0.026039
-0.003888
-0.024930
-0.059299
-0.117515
-0.197475
-0.301983
-0.427767
-0.561266
-0.695700
-0.826159
-0.950774
-1.070947
-1.173584
-1.257518
-1.337945
-1.423282
-1.515633
-1.604009
-1.679526
-1.741249
-1.786373
-1.820274
-1.851370
-1.888311
-1.939046
-2.004276
-2.081430
-2.150167
-2.203473
-2.250467
-2.275952
-2.281797
-2.281331
-2.264732
-2.234105
-2.198802
-2.159291
-2.126794
-2.116976
-2.135446
-2.174725
-2.231071
-2.289521
-2.331839
-2.365273
-2.389121
-2.393564
-2.388888
-2.382810
-2.376265
-2.365277
-2.345639
-2.319454
-2.271760
-2.204194
-2.132185
-2.043109
-1.944447
-1.853735
-1.748760
-1.625784
-1.496027
-1.348736
-1.185312
-1.019784
-0.863141
-0.724734
-0.599887
-0.485093
-0.376612
-0.251765
-0.109617
0.040714
0.199929
0.350494
0.487265
0.614684
0.721061
0.807331
0.883782
0.953687
1.010732
1.038086
1.032240
0.995066
0.933109
0.862267
0.787919
0.716610
0.652783
0.592462
0.532142
0.464106
0.387654
0.307461
0.219085
0.114343
-0.014013
-0.158500
-0.313041
-0.472725
-0.623058
-0.760297
-0.886782
-0.997837
-1.095331
-1.186279
-1.273018
-1.350874
-1.417039
-1.472216
-1.515002
-1.554046
-1.589818
-1.612731
-1.624889
-1.619279
-1.585613
-1.519917
-1.417280
-1.285887
-1.135790
-0.975406
-0.814086
-0.660248
-0.521374
-0.398163
-0.287578
-0.181668
-0.075291
0.028514
0.130449
0.234722
0.332682
0.414276
0.484882
0.540993
0.572087
0.581906
0.560630
0.510363
0.455887
0.386682
0.302047
0.224659
0.155922
0.090225
0.030138
-0.023870
-0.073202
-0.111545
-0.134926
-0.153630
-0.163918
-0.160412
-0.150593
-0.139138
-0.129787
-0.130723
-0.150362
-0.188005
-0.235232
-0.290643
-0.348392
-0.400062
-0.450796
-0.508779
-0.577984
-0.657475
-0.739539
-0.812952
-0.873740
-0.921202
-0.946686
-0.941076
-0.907176
-0.844753
-0.749364
-0.622647
-0.470913
-0.300476
-0.114140
0.082716
0.280274
0.479936
0.680768
0.879728
1.092483
1.314356
1.541840
1.793639
2.051049
2.301211
2.544360
2.757582
2.944853
3.117628
3.267024
3.399119
3.518355
3.614678
3.681310
3.726666
3.756825
3.769449
3.777631
3.776228
3.748405
3.701879
3.632206
3.530270
3.405655
3.252050
3.072259
2.884753
2.685323
2.471398
2.255368
2.046119
1.855574
1.690512
1.552103
1.442452
1.356414
1.283468
1.210289
1.124017
1.020678
0.895595
0.755784
0.611998
0.467510
0.334947
0.210098
0.074495
-0.067654
-0.208635
-0.350551
-0.479374
-0.583414
-0.668517
-0.734916
-0.784950
-0.836386
-0.886185
-0.928737
-0.967314
-0.987656
-0.986254
-0.961238
-0.902556
-0.820260
-0.722533
-0.618027
-0.523807
-0.444083
-0.383530
-0.347760
-0.322043
-0.292585
-0.257049
-0.208887
-0.150205
-0.092691
-0.046868
-0.012033
0.015321
0.038933
0.064884
0.101823
0.154895
0.217785
0.277637
0.331176
0.371154
0.393364
0.407391
0.413703
0.413001
0.416741
0.425624
0.432638
0.429831
0.404814
0.357353
0.288148
0.190186
0.076560
-0.046418
-0.193244
-0.363215
-0.554228
-0.764880
-0.988625
-1.217981
-1.435413
-1.637648
-1.811828
-1.940183
-2.044691
-2.129327
-2.193856
-2.256514
-2.300235
-2.320342
-2.319642
-2.285508
-2.232670
-2.165338
-2.081171
-1.990459
-1.891797
-1.796408
-1.706397
-1.622465
-1.553028
-1.480785
-1.405737
-1.331156
-1.240677
-1.139210
-1.033067
-0.921546
-0.815403
-0.707156
-0.591661
-0.468684
-0.340096
-0.217120
-0.098585
0.012935
0.105752
0.186645
0.263564
0.337209
0.413660
0.483331
0.531492
0.559314
0.559780
0.526347
0.461117
0.374143
0.285066
0.206509
0.140110
0.095454
0.061553
0.017130
-0.026824
-0.067973
-0.128060
-0.188614
-0.232803
-0.278628
-0.324920
-0.361393
-0.395061
-0.426157
-0.452576
-0.477594
-0.511729
-0.550774
-0.583506
-0.621382
-0.662998
-0.694328
-0.717942
-0.726360
-0.722152
-0.714671
-0.696904
-0.671187
-0.646171
-0.620454
-0.593334
-0.567150
-0.540965
-0.511975
-0.479946
-0.446747
-0.409340
-0.367959
-0.323071
-0.272805
-0.224410
-0.171105
-0.102369
-0.029659
0.049130
0.137972
0.214423
0.271469
0.311682
0.330151
0.344178
0.373636
0.427175
0.504327
0.605560
0.724562
0.840291
0.940590
1.020548
1.078762
1.127859
1.164331
1.181163
1.191683
1.197528
1.201501
1.206410
1.205241
1.205941
1.214124
1.225345
1.241009
1.247554
1.245683
1.250592
1.252228
1.252461
1.269528
1.312078
1.381281
1.464746
1.550549
1.631442
1.700645
1.753717
1.787383
1.800708
1.785978
1.741322
1.666740
1.555218
1.424525
1.284246
1.134615
0.986620
0.830209
0.676604
0.539598
0.415684
0.331750
0.282886
0.255063
0.262077
0.294340
0.353022
0.443501
0.558529
0.698572
0.843994
0.987544
1.132264
1.263190
1.389673
1.522236
1.642874
1.744809
1.836691
1.914545
1.962940
1.987020
1.989825
1.964574
1.920386
1.859598
1.784782
1.709499
1.631176
1.550982
1.472192
1.392466
1.314845
1.237925
1.153757
1.059770
0.949417
0.825504
0.693875
0.549855
0.400692
0.256438
0.115458
-0.019444
-0.149436
-0.274986
-0.387209
-0.483301
-0.567702
-0.640414
-0.693721
-0.734870
-0.773447
-0.801737
-0.815766
-0.816702
-0.811325
-0.804312
-0.793558
-0.786077
-0.774154
-0.745398
-0.697236
-0.621721
-0.521890
-0.394939
-0.242504
-0.087964
0.060730
0.200540
0.328660
0.456313
0.591447
0.734530
0.875509
1.003161
1.111876
1.194874
1.255894
1.303354
1.348243
1.392196
1.423056
1.454618
1.490388
1.524288
1.569177
1.621313
1.673682
1.726520
1.776084
1.827285
1.872641
1.913087
1.963820
2.015723
2.071833
2.144310
2.218189
2.280612
2.324799
2.337189
2.321524
2.288091
2.247409
2.217716
2.203454
2.205791
2.223559
2.236183
2.235715
2.228934
2.208827
2.179134
2.156922
2.139153
2.125826
2.126526
2.134942
2.145696
2.164165
2.185674
2.206715
2.225418
2.233366
2.228690
2.212323
2.180058
2.130960
2.068302
1.995123
1.911189
1.814630
1.707082
1.592988
1.475621
1.368308
1.280165
1.213532
1.185944
1.196698
1.221947
1.259821
1.305879
1.346559
1.384433
1.423476
1.463923
1.497589
1.527982
1.553699
1.563050
1.562114
1.538499
1.491038
1.431185
1.338834
1.214687
1.068329
0.901164
0.731426
0.559117
0.394757
0.251906
0.118173
-0.000831
-0.110950
-0.221303
-0.327915
-0.437333
-0.545114
-0.648220
-0.747350
-0.837831
-0.925038
-1.002659
-1.078177
-1.164682
-1.256799
-1.359671
-1.473764
-1.592534
-1.709200
-1.804590
-1.872859
-1.919152
-1.934116
-1.917283
-1.877538
-1.823064
-1.758069
-1.679280
-1.597920
-1.525443
-1.457175
-1.401065
-1.360385
-1.329758
-1.321108
-1.331630
-1.357816
-1.404342
-1.456480
-1.506045
-1.555611
-1.596526
-1.627856
-1.651470
-1.664564
-1.669708
-1.660824
-1.632302
-1.584140
-1.518678
-1.444565
-1.367179
-1.287455
-1.207964
-1.121694
-1.023032
-0.911278
-0.788769
-0.661584
-0.534165
-0.407214
-0.282601
-0.160325
-0.034076
0.099422
0.226841
0.343037
0.452921
0.547842
0.628969
0.705888
0.771818
0.824187
0.863231
0.880297
0.874452
0.844057
0.781866
0.685074
0.560693
0.414803
0.242961
0.050077
-0.159172
-0.388528
-0.628872
-0.868749
-1.107690
-1.339150
-1.551205
-1.740348
-1.918736
-2.084265
-2.231558
-2.377215
-2.517494
-2.647252
-2.773036
-2.885259
-2.980415
-3.053127
-3.096848
-3.119293
-3.121866
-3.116255
-3.109710
-3.101294
-3.092410
-3.067862
-3.021337
-2.953537
-2.862824
-2.760422
-2.651239
-2.537614
-2.429133
-2.334914
-2.257060
-2.188792
-2.135721
-2.101821
-2.076104
-2.063480
-2.065584
-2.077976
-2.108605
-2.153027
-2.199086
-2.240702
-2.268525
-2.279748
-2.270163
-2.229717
-2.160514
-2.073542
-1.971139
-1.859852
-1.749033
-1.636110
-1.519446
-1.397638
-1.265310
-1.123396
-0.970727
-0.803562
-0.623773
-0.440243
-0.260921
-0.090250
0.072005
0.230285
0.384123
0.533051
0.691097
0.857560
1.020983
1.181368
1.333101
1.466131
1.577418
1.657843
1.701095
1.710680
1.690105
1.646151
1.586999
1.515924
1.435263
1.350628
1.276046
1.206841
1.128518
1.045519
0.955507
0.852869
0.741581
0.623045
0.507081
0.387610
0.259254
0.128327
-0.026681
-0.198289
-0.368261
-0.548285
-0.719659
-0.872564
-1.013310
-1.126469
-1.225366
-1.312105
-1.378037
-1.435552
-1.474831
-1.497510
-1.513876
-1.519956
-1.525100
-1.525802
-1.528842
-1.542637
-1.550119
-1.554796
-1.546380
-1.503362
-1.436964
-1.347888
-1.238706
-1.127653
-1.027121
-0.940149
-0.860658
-0.785376
-0.713835
-0.635514
-0.541528
-0.432579
-0.316617
-0.201122
-0.088666
0.011632
0.093695
0.164067
0.222048
0.264832
0.289146
0.289379
0.264128
0.210588
0.129460
0.033836
-0.072309
-0.184532
-0.295821
-0.413421
-0.543647
-0.686498
-0.844078
-1.015920
-1.197347
-1.381580
-1.570489
-1.765944
-1.951580
-2.126929
-2.300173
-2.460325
-2.615334
-2.779460
-2.948029
-3.122208
-3.305038
-3.490674
-3.672569
-3.847684
-4.022331
-4.193238
-4.350117
-4.489461
-4.604022
-4.687956
-4.738223
-4.759266
-4.756461
-4.727003
-4.673230
-4.596779
-4.492974
-4.371634
-4.228785
-4.056477
-3.869674
-3.666037
-3.439254
-3.203354
-2.954828
-2.689703
-2.422239
-2.155945
-1.886144
-1.620083
-1.366180
-1.120460
-0.881286
-0.662920
-0.466765
-0.283936
-0.110693
0.061147
0.232520
0.406932
0.593735
0.787786
0.984643
1.186877
1.388409
1.593916
1.804333
2.005632
2.198046
2.378069
2.543129
2.695798
2.819710
2.921645
3.011656
3.070806
3.110317
3.136502
3.132293
3.113354
3.077349
3.012820
2.938238
2.858980
2.779956
2.695320
2.598527
2.502904
2.395356
2.265130
2.123215
1.970544
1.818108
1.664502
1.502246
1.336951
1.164174
0.991631
0.828439
0.674133
0.533853
0.402926
0.278779
0.157671
0.031888
-0.094130
-0.231369
-0.377961
-0.507719
-0.636542
-0.766067
-0.877121
-0.981863
-1.070005
-1.127988
-1.170540
-1.185737
-1.165631
-1.127523
-1.073283
-1.010626
-0.953113
-0.900509
-0.848841
-0.793198
-0.737788
-0.675599
-0.594940
-0.508669
-0.416554
-0.309242
-0.194682
-0.065626
0.069040
0.188510
0.298628
0.393782
0.467194
0.522837
0.551593
0.557671
0.558138
0.551357
0.526340
0.489399
0.446848
0.392138
0.333221
0.277109
0.218892
0.169327
0.134256
0.103862
0.075104
0.056867
0.063646
0.092403
0.142668
0.214443
0.292297
0.378100
0.462968
0.522352
0.559057
0.577292
0.567706
0.528194
0.460625
0.371314
0.258857
0.127696
-0.015856
-0.171099
-0.335225
-0.502858
-0.661374
-0.807030
-0.942166
-1.049012
-1.125464
-1.171055
-1.178304
-1.165446
-1.139495
-1.100919
-1.062343
-1.026573
-0.998518
-0.975373
-0.948019
-0.926277
-0.913419
-0.901262
-0.894950
-0.898692
-0.907109
-0.913189
-0.911553
-0.900331
-0.884668
-0.861289
-0.822479
-0.770577
-0.699270
-0.607856
-0.497972
-0.355122
-0.185620
-0.004662
0.192429
0.394897
0.603443
0.827654
1.047890
1.269062
1.501689
1.725199
1.941226
2.141122
2.305014
2.437810
2.529457
2.582762
2.607544
2.602400
2.581825
2.546755
2.496721
2.449026
2.399928
2.344050
2.284197
2.214057
2.138773
2.069569
2.000598
1.932796
1.876216
1.818234
1.756277
1.687072
1.596124
1.499799
1.403707
1.290549
1.162427
1.018875
0.853813
0.667944
0.454954
0.219285
-0.031112
-0.291096
-0.543130
-0.776227
-0.995763
-1.199167
-1.388778
-1.569270
-1.727084
-1.860349
-1.968130
-2.039907
-2.080588
-2.094383
-2.080823
-2.050430
-2.007179
-1.953874
-1.892620
-1.827625
-1.757486
-1.674489
-1.589387
-1.505689
-1.419886
-1.339460
-1.265581
-1.199417
-1.144476
-1.093041
-1.038099
-0.986197
-0.943881
-0.908110
-0.880523
-0.857144
-0.829557
-0.793319
-0.737208
-0.652808
-0.547600
-0.426728
-0.293698
-0.158096
-0.022962
0.116614
0.248241
0.363035
0.473854
0.584673
0.685673
0.777321
0.863825
0.938172
0.999660
1.051328
1.087566
1.113517
1.136194
1.155365
1.177809
1.203292
1.232282
1.273664
1.327202
1.394769
1.478234
1.572453
1.670414
1.762529
1.842721
1.906313
1.954942
2.001935
2.040744
2.062253
2.074410
2.080020
2.089605
2.109477
2.131687
2.168159
2.225672
2.296746
2.388627
2.492199
2.600680
2.718279
2.838216
2.959790
3.084170
3.211121
3.337838
3.458711
3.581220
3.699988
3.802157
3.896844
3.990128
4.082711
4.167579
4.247537
4.338249
4.438080
4.542353
4.658082
4.786903
4.922271
5.052028
5.166822
5.265016
5.352221
5.436855
5.516813
5.588354
5.657324
5.722319
5.771649
5.801107
5.812328
5.796897
5.763697
5.721379
5.660357
5.593724
5.539483
5.498567
5.473316
5.452040
5.428893
5.408085
5.370910
5.311291
5.243255
5.170076
5.089415
4.999169
4.895830
4.773319
4.637950
4.498840
4.346169
4.181108
4.018150
3.855661
3.688261
3.516185
3.343876
3.182088
3.034093
2.902932
2.798190
2.709580
2.621672
2.550831
2.500096
2.450063
2.405407
2.366362
2.321706
2.291779
2.286635
2.278919
2.257408
2.235665
2.225143
2.227480
2.230051
2.234025
2.259742
2.294343
2.325905
2.371027
2.417085
2.448646
2.481377
2.513641
2.542397
2.565308
2.561567
2.540057
2.521820
2.492361
2.455420
2.424792
2.388319
2.356054
2.333375
2.303448
2.266040
2.206888
2.116876
2.014472
1.900144
1.775997
1.652785
1.530976
1.419220
1.317751
1.217452
1.115749
1.017553
0.920761
0.823033
0.734189
0.655866
0.590402
0.537797
0.490803
0.459473
0.441470
0.421597
0.404061
0.394475
0.393773
0.394941
0.400318
0.407097
0.401953
0.396341
0.385352
0.352152
0.302586
0.228238
0.130042
0.018052
-0.105160
-0.224163
-0.340361
-0.445571
-0.532778
-0.625128
-0.721220
-0.811232
-0.902648
-0.997337
-1.096467
-1.191624
-1.277428
-1.354114
-1.409291
-1.449739
-1.483874
-1.502345
-1.509593
-1.510997
-1.503282
-1.483878
-1.452549
-1.411402
-1.362305
-1.310871
-1.260137
-1.214781
-1.182752
-1.162880
-1.153529
-1.157270
-1.172234
-1.204265
-1.248453
-1.293577
-1.349455
-1.423570
-1.509374
-1.606868
-1.709974
-1.814482
-1.918756
-2.008067
-2.077740
-2.128007
-2.152556
-2.165883
-2.173599
-2.174068
-2.183654
-2.197683
-2.210776
-2.236728
-2.270162
-2.310610
-2.363916
-2.418859
-2.477076
-2.533889
-2.582052
-2.624604
-2.647049
-2.643309
-2.622502
-2.588135
-2.546519
-2.494150
-2.440143
-2.395722
-2.351535
-2.317869
-2.295426
-2.269007
-2.248668
-2.234173
-2.211963
-2.177595
-2.135513
-2.095768
-2.057192
-2.028670
-2.010668
-1.993601
-1.996408
-2.024932
-2.069588
-2.128505
-2.197243
-2.277903
-2.366747
-2.457227
-2.542564
-2.608729
-2.657594
-2.680039
-2.667181
-2.625332
-2.553557
-2.463780
-2.360910
-2.244947
-2.128517
-2.007878
-1.881394
-1.756781
-1.631934
-1.513633
-1.405854
-1.310465
-1.228403
-1.151718
-1.076904
-0.998349
-0.916988
-0.839602
-0.769230
-0.708911
-0.654904
-0.613523
-0.587338
-0.563024
-0.551335
-0.558817
-0.574015
-0.599499
-0.634336
-0.667302
-0.695125
-0.710790
-0.713129
-0.705648
-0.691621
-0.676658
-0.654215
-0.623354
-0.592494
-0.554619
-0.501080
-0.439125
-0.376468
-0.318019
-0.272196
-0.246713
-0.230114
-0.221932
-0.234090
-0.258639
-0.295346
-0.349588
-0.411779
-0.479113
-0.550188
-0.612847
-0.662179
-0.711510
-0.768792
-0.829813
-0.893407
-0.957702
-1.023867
-1.103359
-1.195944
-1.299049
-1.409402
-1.524665
-1.658164
-1.798910
-1.922590
-2.041593
-2.162234
-2.268378
-2.353014
-2.415438
-2.449807
-2.448405
-2.417545
-2.357693
-2.262071
-2.145641
-2.019858
-1.891271
-1.772736
-1.665190
-1.571672
-1.491948
-1.414562
-1.347697
-1.289248
-1.225422
-1.174221
-1.137983
-1.102213
-1.071353
-1.034413
-0.986953
-0.938558
-0.879174
-0.815114
-0.762043
-0.715986
-0.688632
-0.686295
-0.694946
-0.721366
-0.776076
-0.849956
-0.935293
-1.025773
-1.107837
-1.178912
-1.237128
-1.271731
-1.290669
-1.307737
-1.317090
-1.310077
-1.286464
-1.253499
-1.218898
-1.178452
-1.139408
-1.117198
-1.105977
-1.104575
-1.109719
-1.104109
-1.092887
-1.070443
-1.029763
-0.998435
-0.977160
-0.961731
-0.971785
-1.001711
-1.048238
-1.102479
-1.149941
-1.193662
-1.213769
-1.202314
-1.170752
-1.112771
-1.047542
-0.977638
-0.890432
-0.802525
-0.708072
-0.603331
-0.504436
-0.398292
-0.293552
-0.203775
-0.114465
-0.025856
0.064389
0.162817
0.261244
0.361309
0.458802
0.544838
0.620822
0.674828
0.707091
0.726262
0.721585
0.695633
0.667343
0.635312
0.596267
0.565873
0.542492
0.515605
0.499472
0.497133
0.494795
0.491988
0.484974
0.470477
0.456215
0.436108
0.409688
0.382801
0.347263
0.307049
0.268939
0.224517
0.178458
0.142686
0.112058
0.084236
0.062959
0.044255
0.030226
0.026485
0.027887
0.027418
0.024144
0.023209
0.020870
0.011283
0.007308
0.005437
-0.005552
-0.011398
-0.013269
-0.020050
-0.023558
-0.026364
-0.030573
-0.030106
-0.024730
-0.012807
0.003792
0.024833
0.053356
0.081645
0.102218
0.115544
0.121622
0.119283
0.116477
0.122788
0.129100
0.133775
0.147335
0.167441
0.191755
0.215134
0.232902
0.256982
0.289947
0.321976
0.357980
0.401933
0.451732
0.503166
0.547353
0.584994
0.613750
0.631986
0.642739
0.648817
0.656532
0.657466
0.652790
0.647646
0.624733
0.592000
0.555527
0.498246
0.432315
0.355628
0.255562
0.145209
0.024335
-0.104254
-0.235181
-0.381071
-0.535144
-0.686646
-0.839082
-0.991519
-1.137175
-1.267635
-1.392951
-1.520371
-1.638206
-1.743182
-1.840910
-1.924844
-1.984229
-2.018364
-2.031691
-2.023743
-1.992415
-1.941448
-1.864295
-1.759555
-1.645229
-1.524122
-1.399509
-1.290093
-1.188859
-1.094406
-1.015149
-0.934724
-0.856169
-0.780887
-0.694616
-0.610918
-0.533999
-0.456847
-0.390449
-0.331767
-0.283839
-0.255317
-0.238250
-0.231237
-0.233342
-0.234512
-0.228200
-0.213004
-0.195937
-0.180040
-0.159466
-0.138659
-0.118787
-0.094940
-0.072497
-0.053092
-0.037896
-0.036260
-0.049120
-0.070162
-0.099855
-0.141472
-0.194311
-0.248319
-0.298352
-0.350256
-0.400523
-0.438633
-0.469027
-0.493109
-0.504566
-0.509009
-0.512750
-0.516492
-0.529351
-0.552030
-0.574943
-0.601831
-0.632926
-0.667529
-0.705639
-0.742112
-0.781624
-0.816695
-0.839140
-0.852467
-0.847324
-0.826985
-0.793786
-0.736039
-0.671746
-0.599971
-0.513700
-0.436080
-0.356824
-0.262137
-0.159968
-0.046109
0.080374
0.227666
0.402078
0.592622
0.798596
1.012988
1.233224
