EVENT_NAME: 202302060117
EVENT_ID: 13194
EVENT_DATE_YYYYMMDD: 2023/02/06
EVENT_TIME_HHMMSS: 01:17:32.00000
EVENT_LATITUDE_DEGREE: 37.288
EVENT_LONGITUDE_DEGREE: 37.043
EVENT_DEPTH_KM: 8.6
HYPOCENTER_REFERENCE: AFAD
MAGNITUDE_W: 7.7
MAGNITUDE_W_REFERENCE: AFAD
MAGNITUDE_L: 
MAGNITUDE_L_REFERENCE: 
FOCAL_MECHANISM: 
NETWORK: TK
STATION_CODE: 6001
STATION_NAME: 
STATION_LATITUDE_DEGREE: 40.32915
STATION_LONGITUDE_DEGREE: 36.55522
STATION_ELEVATION_M: 590.0
LOCATION: Kahramanmaras_Pazarck_Turkiye
SENSOR_DEPTH_M: 
VS30_M/S: 324
SITE_CLASSIFICATION_EC8: unknown
MORPHOLOGIC_CLASSIFICATION: 
EPICENTRAL_DISTANCE_KM: 340.79
EARTHQUAKE_BACKAZIMUTH_DEGREE: 
DATE_TIME_FIRST_SAMPLE_YYYYMMDD_HHMMSS: 2023/02/06 01:17:58.1376000
DATE_TIME_FIRST_SAMPLE_PRECISION: millisecond
SAMPLING_INTERVAL_S: 0.01
NDATA: 18251
DURATION_S: 
STREAM: HNN
UNITS: cm/s^2
INSTRUMENT: sensor = CMG-5T/GURALP | digitizer = 
INSTRUMENT_ANALOG/DIGITAL: 
INSTRUMENTAL_FREQUENCY_HZ: 
INSTRUMENTAL_DAMPING: 
FULL_SCALE_G: 
N_BIT_DIGITAL_CONVERTER: 
PGA_CM/S^2: 4.281
TIME_PGA_S: 
BASELINE_CORRECTION: BASELINE REMOVED
FILTER_TYPE: BUTTERWORTH
FILTER_ORDER: 
LOW_CUT_FREQUENCY_HZ: 
HIGH_CUT_FREQUENCY_HZ: 
LATE/NORMAL_TRIGGERED: 
DATABASE_VERSION: 
HEADER_FORMAT: DYNA 1.2
DATA_TYPE: Acceleration
PROCESSING: Automatic Paolucci et al., 2011
DATA_TIMESTAMP_YYYYMMDD_HHMMSS: 
DATA_LICENSE: U (unknown license)
DATA_CITATION: Turkish Accelerometric Archive v 1.0 - Disaster And Emergency Management Presidency, Earthquake Department
DATA_CREATOR: AFAD
ORIGINAL_DATA_MEDIATOR_CITATION: : AFAD - Disaster And Emergency Management Presidency
ORIGINAL_DATA_MEDIATOR: AFAD PROCESS SERVICE
ORIGINAL_DATA_CREATOR_CITATION: AFAD PROCESS SERVICE
ORIGINAL_DATA_CREATOR: network: TK
USER1: GuestUser
USER2: 
USER3: 
USER4: 
USER5: 
[...]
-0.733104
-1.038754
-1.291781
-1.474540
-1.594279
-1.631777
-1.564345
-1.397340
-1.159438
-0.896012
-0.626600
-0.388067
-0.214131
-0.114243
-0.084308
-0.106996
-0.184826
-0.318430
-0.466213
-0.609269
-0.724282
-0.777534
-0.775959
-0.737516
-0.690881
-0.650548
-0.615257
-0.553496
-0.461487
-0.346159
-0.200897
-0.024124
0.189515
0.418910
0.641687
0.839887
0.985464
1.079050
1.115917
1.088188
1.012248
0.897235
0.768043
0.631919
0.485081
0.343600
0.203694
0.076708
-0.024755
-0.097229
-0.138507
-0.160879
-0.166866
-0.152372
-0.134096
-0.129054
-0.114244
-0.087776
-0.071706
-0.066979
-0.082419
-0.115820
-0.161195
-0.240286
-0.336392
-0.423675
-0.489847
-0.522618
-0.520097
-0.476298
-0.414222
-0.345530
-0.253205
-0.150482
-0.042401
0.056541
0.145715
0.244027
0.330365
0.402208
0.453885
0.472791
0.448528
0.394330
0.336036
0.269235
0.220394
0.182266
0.164936
0.182896
0.224805
0.298854
0.375109
0.430252
0.449158
0.443171
0.441280
0.440965
0.466488
0.529824
0.624040
0.733380
0.852804
0.983887
1.089761
1.149316
1.169482
1.145849
1.060772
0.947335
0.821609
0.689896
0.574253
0.465543
0.354312
0.234888
0.103805
-0.027593
-0.154264
-0.274003
-0.365068
-0.413278
-0.437226
-0.409182
-0.352149
-0.316227
-0.262975
-0.194913
-0.101327
0.015891
0.169976
0.371642
0.578034
0.785056
0.956472
1.089760
1.186812
1.236913
1.255189
1.214226
1.143328
1.075896
0.991763
0.897232
0.796400
0.682647
0.559757
0.424578
0.287509
0.145398
-0.010893
-0.173171
-0.321269
-0.436912
-0.532703
-0.597299
-0.618096
-0.584065
-0.505605
-0.403511
-0.273689
-0.130318
0.027549
0.218501
0.427729
0.639793
0.829800
0.976322
1.089444
1.170110
1.222417
1.235337
1.210443
1.169795
1.124736
1.100788
1.112762
1.146793
1.203826
1.277875
1.359802
1.432275
1.494351
1.544137
1.556741
1.535629
1.473554
1.360117
1.202250
1.006572
0.791041
0.568264
0.343281
0.129956
-0.057530
-0.211930
-0.348370
-0.457395
-0.543418
-0.625660
-0.702230
-0.776594
-0.838669
-0.900744
-0.979520
-1.078462
-1.204503
-1.350396
-1.514249
-1.698584
-1.909388
-2.123973
-2.327529
-2.534236
-2.719517
-2.882740
-3.032099
-3.151838
-3.255191
-3.323253
-3.342160
-3.306868
-3.182087
-2.988299
-2.747246
-2.461763
-2.143825
-1.806350
-1.435789
-1.034979
-0.638580
-0.247853
0.112624
0.440016
0.741254
0.988925
1.187754
1.357279
1.498445
1.596757
1.642447
1.640872
1.585414
1.528065
1.510419
1.502226
1.514515
1.545080
1.587934
1.605580
1.575015
1.520817
1.414313
1.261803
1.068330
0.812467
0.510913
0.194235
-0.121497
-0.426832
-0.711685
-0.982988
-1.257757
-1.507634
-1.723164
-1.918527
-2.078285
-2.207477
-2.329106
-2.455777
-2.586860
-2.699037
-2.798294
-2.892195
-2.980108
-3.074639
-3.166019
-3.252672
-3.310336
-3.344367
-3.366424
-3.339325
-3.236917
-3.055418
-2.805227
-2.489809
-2.112946
-1.705204
-1.258073
-0.763362
-0.242498
0.277106
0.778119
1.258651
1.686245
2.038214
2.325588
2.572628
2.794460
2.979426
3.142334
3.279718
3.397567
3.514470
3.596396
3.630427
3.614357
3.542198
3.400402
3.208190
2.978480
2.698039
2.397746
2.090206
1.774473
1.461261
1.148994
0.844290
0.549354
0.275215
0.018091
-0.242814
-0.504034
-0.769665
-1.051682
-1.337480
-1.605317
-1.833452
-2.017787
-2.159898
-2.270184
-2.349590
-2.365975
-2.338561
-2.286569
-2.210630
-2.120825
-2.004868
-1.858030
-1.675586
-1.468878
-1.257760
-1.026159
-0.780379
-0.518844
-0.241239
0.045819
0.346112
0.650186
0.968125
1.292680
1.605577
1.892005
2.128647
2.317394
2.471479
2.594369
2.683858
2.710957
2.706230
2.659280
2.551830
2.419802
2.246810
2.038212
1.814490
1.578163
1.319148
1.024842
0.701547
0.363442
-0.006173
-0.381460
-0.746664
-1.072165
-1.355127
-1.609100
-1.802573
-1.935231
-1.992580
-2.027556
-2.054970
-2.077027
-2.095303
-2.079548
-2.039215
-1.992895
-1.957289
-1.929245
-1.884500
-1.834399
-1.737662
-1.567507
-1.347250
-1.071536
-0.755173
-0.400997
-0.047767
0.284666
0.603865
0.920228
1.243523
1.556104
1.869001
2.165513
2.416964
2.654237
2.866931
3.051266
3.199049
3.292949
3.331077
3.304608
3.228353
3.095695
2.920813
2.747822
2.606341
2.488807
2.374110
2.247754
2.089572
1.874988
1.631098
1.368618
1.054460
0.704382
0.347055
-0.000188
-0.325059
-0.609281
-0.863254
-1.099581
-1.289273
-1.417204
-1.490308
-1.483376
-1.403025
-1.265640
-1.075948
-0.850650
-0.595732
-0.354679
-0.123393
0.085204
0.242126
0.363755
0.443161
0.476877
0.459231
0.414802
0.334135
0.213451
0.088985
-0.016574
-0.105118
-0.162151
-0.157740
-0.117407
-0.027918
0.113878
0.274896
0.430871
0.582121
0.712573
0.826325
0.927788
1.005303
1.067378
1.103300
1.119685
1.104560
1.084394
1.078092
1.072420
1.077146
1.108026
1.145524
1.190268
1.230286
1.251398
1.228395
1.140482
0.993014
0.795760
0.599766
0.396210
0.208408
0.056214
-0.072033
-0.172236
-0.239668
-0.282522
-0.305524
-0.311826
-0.311511
-0.296386
-0.274329
-0.238092
-0.183895
-0.132848
-0.093145
-0.042099
0.009578
0.052747
0.109466
0.148538
0.175952
0.246220
0.360287
0.487904
0.637892
0.810884
0.969380
1.099518
1.202241
1.275975
1.307485
1.313787
1.302759
1.253918
1.172306
1.070843
0.937240
0.786305
0.644824
0.513427
0.412279
0.337599
0.283717
0.243384
0.201160
0.137824
0.051801
-0.013740
-0.049977
-0.050607
-0.011535
0.046444
0.105999
0.151058
0.186665
0.204941
0.187925
0.143180
0.068816
-0.033592
-0.139151
-0.228010
-0.280002
-0.296073
-0.280633
-0.252904
-0.218873
-0.156482
-0.087160
-0.006809
0.078899
0.174375
0.252836
0.310815
0.367218
0.395577
0.410702
0.430553
0.461433
0.501767
0.558170
0.630643
0.720763
0.817814
0.908249
0.977886
1.033659
1.054456
1.027672
0.972214
0.881780
0.762356
0.640096
0.544935
0.469311
0.395577
0.311129
0.210611
0.078268
-0.090627
-0.306472
-0.562335
-0.844037
-1.126054
-1.403029
-1.674647
-1.907193
-2.084281
-2.196773
-2.252546
-2.269561
-2.224817
-2.110750
-1.934607
-1.707103
-1.489367
-1.281400
-1.088872
-0.908318
-0.740684
-0.589750
-0.430938
-0.280634
-0.121823
0.038880
0.200527
0.383287
0.566046
0.754162
0.967487
1.216733
1.477323
1.732556
1.966362
2.163301
2.317071
2.436810
2.533861
2.625871
2.716306
2.790670
2.848018
2.876378
2.876062
2.813672
2.682905
2.495418
2.262243
2.002598
1.703881
1.394135
1.110543
0.860981
0.678537
0.527603
0.399356
0.279932
0.147274
0.020603
-0.128756
-0.286307
-0.446379
-0.571790
-0.661594
-0.739425
-0.788266
-0.817570
-0.838682
-0.814734
-0.752974
-0.702243
-0.648045
-0.584395
-0.515072
-0.469382
-0.405732
-0.298912
-0.171925
-0.016580
0.171221
0.401561
0.652698
0.907301
1.183330
1.483938
1.793369
2.107211
2.409079
2.673450
2.873225
2.997691
3.046216
3.032037
2.940657
2.801697
2.635953
2.427355
2.213400
1.994404
1.762488
1.517339
1.272819
1.038068
0.825058
0.637887
0.468992
0.319949
0.190757
0.075429
-0.043049
-0.155856
-0.242825
-0.346493
-0.481357
-0.605823
-0.725877
-0.844986
-0.979219
-1.113138
-1.247372
-1.391058
-1.521196
-1.660471
-1.789663
-1.895538
-1.965175
-1.998261
-2.006769
-1.977465
-1.924212
-1.870330
-1.827476
-1.776429
-1.697023
-1.593040
-1.482439
-1.357973
-1.195695
-0.990879
-0.778500
-0.577464
-0.378635
-0.189888
-0.024774
0.108199
0.215018
0.299781
0.402189
0.543670
0.698071
0.849635
1.000254
1.145516
1.272187
1.367348
1.442973
1.501582
1.530886
1.567123
1.594852
1.592331
1.571850
1.536873
1.496855
1.452426
1.383733
1.301491
1.214523
1.106128
1.002774
0.923999
0.832304
0.717921
0.593456
0.456386
0.307973
0.111034
-0.146090
-0.428107
-0.722413
-1.023651
-1.301571
-1.534747
-1.709944
-1.859618
-1.969589
-2.044583
-2.104137
-2.137223
-2.150458
-2.130291
-2.102877
-2.049940
-1.965177
-1.872222
-1.781158
-1.674968
-1.554599
-1.436751
-1.304408
-1.139609
-0.961576
-0.792996
-0.603620
-0.391241
-0.180752
0.017763
0.192960
0.341058
0.486005
0.624335
0.750061
0.849318
0.927779
1.038064
1.172928
1.286680
1.386253
1.477947
1.541598
1.583507
1.585397
1.569012
1.545379
1.479838
1.356003
1.211686
1.079973
0.942588
0.825685
0.738086
0.660886
0.617402
0.601647
0.583056
0.572657
0.561944
0.545874
0.524131
0.491991
0.432752
0.341372
0.240539
0.139391
0.046436
-0.032340
-0.112691
-0.210688
-0.309000
-0.404791
-0.501528
-0.576522
-0.633871
-0.670423
-0.674834
-0.631665
-0.531778
-0.416450
-0.288204
-0.156491
-0.034546
0.099057
0.224153
0.326561
0.434642
0.548709
0.664351
0.766129
0.847111
0.918954
0.965904
0.996154
0.986701
0.944162
0.903199
0.837973
0.759827
0.698067
0.669077
0.672228
0.694916
0.746593
0.811819
0.874839
0.962438
1.078711
1.211054
1.327326
1.441394
1.559242
1.626989
1.665746
1.685283
1.688434
1.670788
1.648416
1.647155
1.651252
1.666692
1.661020
1.634236
1.607452
1.578148
1.536239
1.486453
1.428474
1.359151
1.263990
1.162842
1.069572
0.967164
0.883976
0.816544
0.748167
0.675063
0.621496
0.575491
0.514991
0.445669
0.344836
0.217219
0.075108
-0.073621
-0.206594
-0.330429
-0.436934
-0.524532
-0.580621
-0.597321
-0.590389
-0.547220
-0.474116
-0.402588
-0.363830
-0.352487
-0.354692
-0.363830
-0.358789
-0.317825
-0.281274
-0.261737
-0.254490
-0.263943
-0.297659
-0.367297
-0.436934
-0.518231
-0.600473
-0.673577
-0.738173
-0.779451
-0.798987
-0.808125
-0.821360
-0.829237
-0.807810
-0.749201
-0.679249
-0.601103
-0.540288
-0.515710
-0.520122
-0.563291
-0.643642
-0.733762
-0.825456
-0.918727
-0.999393
-1.061468
-1.104953
-1.127325
-1.116296
-1.080375
-1.027752
-0.986474
-0.966308
-0.963472
-0.984268
-1.012943
-1.028383
-1.037836
-1.032794
-0.989940
-0.929756
-0.856337
-0.767163
-0.673893
-0.574951
-0.489558
-0.422126
-0.374545
-0.343350
-0.334843
-0.361941
-0.437566
-0.583774
-0.758025
-0.949923
-1.150328
-1.333403
-1.488118
-1.592102
-1.645985
-1.672138
-1.686633
-1.686633
-1.685688
-1.705539
-1.755325
-1.841348
-1.945647
-2.017491
-2.054988
-2.060660
-2.050577
-2.039233
-2.015285
-1.991022
-1.951004
-1.898382
-1.850802
-1.800385
-1.757531
-1.734214
-1.700813
-1.650397
-1.567210
-1.444320
-1.280781
-1.048236
-0.746998
-0.416140
-0.100092
0.190747
0.445665
0.667497
0.854983
0.997410
1.083118
1.123766
1.126602
1.108011
1.061375
0.992683
0.909181
0.802046
0.664661
0.495136
0.330337
0.174046
0.062500
-0.033291
-0.145783
-0.267727
-0.387782
-0.487669
-0.588187
-0.696582
-0.825144
-0.957172
-1.074390
-1.179004
-1.255574
-1.311662
-1.335610
-1.310087
-1.270699
-1.235723
-1.168291
-1.072815
-0.972297
-0.852558
-0.726202
-0.599531
-0.449857
-0.279702
-0.101039
0.080145
0.244944
0.404386
0.554059
0.690184
0.795428
0.865380
0.926510
0.975666
0.992052
0.972515
0.941320
0.881451
0.811813
0.723269
0.593132
0.434950
0.265425
0.073212
-0.132235
-0.331064
-0.538402
-0.738807
-0.916210
-1.079433
-1.229737
-1.341598
-1.419114
-1.477723
-1.525933
-1.570678
-1.598092
-1.623930
-1.645673
-1.646933
-1.660482
-1.668675
-1.640631
-1.570048
-1.501041
-1.415963
-1.301896
-1.187199
-1.055801
-0.906442
-0.765591
-0.648688
-0.544390
-0.457736
-0.391880
-0.361000
-0.372974
-0.433158
-0.546280
-0.687761
-0.856341
-1.058952
-1.229108
-1.373110
-1.491588
-1.579817
-1.643783
-1.684431
-1.708379
-1.689158
-1.677814
-1.681280
-1.700816
-1.749027
-1.789045
-1.819610
-1.840407
-1.835680
-1.784634
-1.702392
-1.616999
-1.550828
-1.502617
-1.474888
-1.471107
-1.471737
-1.495370
-1.526250
-1.537594
-1.546732
-1.553034
-1.543266
-1.547362
-1.544211
-1.509550
-1.450941
-1.384454
-1.304418
-1.195393
-1.067461
-0.937639
-0.819160
-0.683981
-0.544391
-0.453011
-0.402595
-0.365728
-0.349028
-0.330121
-0.325080
-0.340205
-0.376442
-0.441983
-0.530212
-0.637662
-0.747632
-0.850986
-0.948353
-1.018621
-1.060845
-1.108110
-1.143401
-1.160732
-1.145292
-1.094876
-1.030910
-0.960327
-0.890689
-0.815695
-0.733768
-0.656568
-0.582204
-0.490824
-0.389992
-0.305859
-0.237167
-0.189902
-0.151459
-0.112701
-0.070163
-0.030460
-0.014705
-0.007772
-0.007457
-0.009033
-0.002416
0.031615
0.080456
0.110391
0.126146
0.132133
0.117638
0.078565
0.038547
-0.015335
-0.083713
-0.162173
-0.247566
-0.316258
-0.383060
-0.451122
-0.535885
-0.622538
-0.699738
-0.774418
-0.832081
-0.839014
-0.800571
-0.716124
-0.581260
-0.424969
-0.245361
-0.048106
0.157656
0.326866
0.462360
0.578002
0.676314
0.757296
0.834496
0.902558
0.944466
0.974716
0.992677
0.982909
0.922094
0.799834
0.640077
0.448810
0.224457
0.013968
-0.184231
-0.373293
-0.539667
-0.657200
-0.745114
-0.819793
-0.844056
-0.856345
-0.883129
-0.908652
-0.942368
-0.998457
-1.120716
-1.278583
-1.446848
-1.632758
-1.830643
-2.050269
-2.248469
-2.438475
-2.619659
-2.786664
-2.936653
-3.051980
-3.152813
-3.247659
-3.328955
-3.384729
-3.428213
-3.442077
-3.428528
-3.401744
-3.363302
-3.294925
-3.206066
-3.121303
-2.994947
-2.829203
-2.647389
-2.470932
-2.302982
-2.110139
-1.913515
-1.731071
-1.549572
-1.348852
-1.122293
-0.868320
-0.568973
-0.249774
0.062177
0.348921
0.609511
0.856866
1.065464
1.220494
1.329520
1.400733
1.441381
1.448944
1.400733
1.293598
1.142979
0.946040
0.692697
0.390199
0.059026
-0.306493
-0.674218
-1.056752
-1.452836
-1.845769
-2.258238
-2.663775
-3.019841
-3.298392
-3.532828
-3.721890
-3.865262
-3.985946
-4.084258
-4.158622
-4.217231
-4.261976
-4.280882
-4.251893
-4.206518
-4.169336
-4.092136
-3.944983
-3.725041
-3.438928
-3.088219
-2.685518
-2.233346
-1.734854
-1.204536
-0.661299
-0.122474
0.423284
0.928393
1.370797
1.795870
2.172418
2.495083
2.763550
2.992314
3.166251
3.278112
3.345544
3.346805
3.310253
3.256055
3.177595
3.056910
2.926773
2.781826
2.603163
2.389208
2.159813
1.919075
1.670459
1.424364
1.161883
0.911692
0.668433
0.434311
0.191052
-0.052207
-0.276875
-0.493036
-0.686508
-0.871789
-1.048561
-1.207373
-1.316084
-1.347909
-1.331524
-1.282053
-1.180274
-1.024614
-0.828620
-0.611514
-0.384641
-0.138230
0.114167
0.367509
0.610453
0.824093
1.012524
1.180789
1.311871
1.400730
1.472574
1.495261
1.483917
1.469107
1.446105
1.414279
1.374576
1.325736
1.256728
1.193708
1.132263
1.046870
0.921144
0.760757
0.596273
0.415719
0.200189
-0.029836
-0.261121
-0.491776
-0.703525
-0.898889
-1.046987
-1.150656
-1.235734
-1.293082
-1.354842
-1.385722
-1.401793
-1.437399
-1.445592
-1.424795
-1.385092
-1.331210
-1.257476
-1.155698
-1.018628
-0.829882
-0.606159
-0.358488
-0.089391
0.177816
0.432104
0.659293
0.858753
1.022921
1.131001
1.198748
1.235615
1.242547
1.220805
1.171019
1.102642
1.014728
0.909484
0.788799
0.645743
0.502371
0.410046
0.355848
0.314255
0.290622
0.302281
0.341038
0.405634
0.504577
0.610136
0.703406
0.787224
0.869465
0.934691
0.963051
0.966517
0.961475
0.941624
0.904126
0.855916
0.806129
0.766426
0.749411
0.751932
0.757604
0.746890
0.705927
0.650153
0.588078
0.500795
0.408155
0.313309
0.199557
0.078557
-0.018809
-0.098846
-0.195582
-0.281290
-0.384013
-0.522343
-0.667921
-0.815704
-0.952459
-1.074088
-1.149398
-1.186265
-1.180593
-1.115997
-1.008232
-0.864860
-0.692184
-0.503753
-0.318157
-0.123424
0.073200
0.253123
0.425800
0.591859
0.714434
0.796675
0.857490
0.898453
0.920510
0.936896
0.965570
0.999601
1.048442
1.112408
1.190868
1.279097
1.350310
1.389698
1.384971
1.343693
1.280987
1.214186
1.151795
1.093186
1.052538
1.006218
0.962419
0.941937
0.926812
0.910111
0.883958
0.841104
0.788482
0.740271
0.697732
0.665592
0.653303
0.676620
0.709706
0.750669
0.795099
0.814005
0.828815
0.852447
0.868518
0.842994
0.783125
0.684182
0.546483
0.407837
0.269192
0.112271
-0.038978
-0.168800
-0.274990
-0.375823
-0.458065
-0.493356
-0.523606
-0.547869
-0.579064
-0.612465
-0.634522
-0.641454
-0.629165
-0.603957
-0.544718
-0.470039
-0.376453
-0.281292
-0.192749
-0.095382
-0.012195
0.091474
0.205541
0.317717
0.423592
0.520643
0.612338
0.683866
0.736173
0.761066
0.770520
0.779027
0.798249
0.809907
0.818730
0.831649
0.846144
0.854652
0.868516
0.879230
0.878599
0.904438
0.936893
0.987625
1.063249
1.165343
1.278464
1.388435
1.490528
1.568989
1.625077
1.664780
1.681165
1.669822
1.658478
1.634530
1.591361
1.557330
1.545041
1.542520
1.536533
1.549137
1.582538
1.614048
1.648709
1.678014
1.688097
1.660368
1.625077
1.597663
1.562371
1.513845
1.471937
1.430343
1.375515
1.339278
1.295164
1.248214
1.199688
1.149586
1.084045
1.024806
0.987624
0.959895
0.949811
0.958004
0.977540
1.000543
1.049699
1.108623
1.170698
1.236239
1.298945
1.370788
1.454290
1.522667
1.546300
1.546300
1.518571
1.476977
1.434123
1.386228
1.346840
1.325413
1.325728
1.333921
1.346840
1.355663
1.364171
1.381186
1.406079
1.436959
1.478868
1.532435
1.609005
1.686835
1.741348
1.786408
1.830207
1.880308
1.919066
1.944589
1.955933
1.960344
1.963180
1.952466
1.917805
1.883774
1.860772
1.846277
1.842180
1.855100
1.882198
1.892597
1.874321
1.822329
1.730004
1.612155
1.499034
1.396625
1.307451
1.253569
1.224894
1.199371
1.199056
1.206933
1.205358
1.197795
1.201261
1.200316
1.177944
1.149584
1.097592
1.019762
0.919244
0.803917
0.670313
0.532613
0.421067
0.317083
0.207428
0.118884
0.049246
0.017736
0.023092
0.042314
0.068152
0.102183
0.176232
0.271078
0.387666
0.528202
0.651407
0.758542
0.852442
0.940671
1.030160
1.098537
1.159352
1.210398
1.238758
1.245690
1.231195
1.197794
1.140761
1.057889
0.964618
0.879225
0.822822
0.779023
0.735223
0.709070
0.705919
0.718523
0.717263
0.708125
0.715372
0.747197
0.799189
0.865361
0.941615
1.028269
1.118703
1.186450
1.234346
1.260499
1.259239
1.233400
1.176367
1.102002
1.005896
0.893404
0.759801
0.616744
0.486607
0.363402
0.272967
0.190410
0.112580
0.055231
0.012692
-0.010940
-0.024490
-0.034888
-0.036149
-0.030477
-0.024175
0.004815
0.042627
0.059642
0.079809
0.125814
0.171819
0.224441
0.279899
0.327795
0.374745
0.410982
0.440601
0.454151
0.443752
0.424846
0.422325
0.408776
0.369703
0.329055
0.281159
0.232318
0.199547
0.159529
0.111634
0.060272
0.004184
-0.056316
-0.147381
-0.265859
-0.402614
-0.532436
-0.664779
-0.798698
-0.909929
-1.014543
-1.089537
-1.133967
-1.169258
-1.202029
-1.235745
-1.268201
-1.323029
-1.382268
-1.415354
-1.459468
-1.531627
-1.614184
-1.686972
-1.755980
-1.821206
-1.856182
-1.885172
-1.904393
-1.918258
-1.919203
-1.893995
-1.870362
-1.830659
-1.783079
-1.719428
-1.639077
-1.546122
-1.444659
-1.325865
-1.180603
-1.007612
-0.818550
-0.621296
-0.416794
-0.221116
-0.019135
0.151335
0.280842
0.384511
0.456355
0.500469
0.502044
0.463602
0.387977
0.279582
0.155116
0.015841
-0.128161
-0.294850
-0.474144
-0.641463
-0.795548
-0.927891
-1.050151
-1.162328
-1.278285
-1.374392
-1.419451
-1.438988
-1.417876
-1.363994
-1.302549
-1.234486
-1.171151
-1.126406
-1.101513
-1.081977
-1.081977
-1.102144
-1.122310
-1.135544
-1.145628
-1.137435
-1.106240
-1.048891
-0.960978
-0.837458
-0.689675
-0.527397
-0.338020
-0.146438
0.050816
0.234836
0.392387
0.524415
0.625563
0.714107
0.748768
0.736794
0.721039
0.693310
0.645415
0.584600
0.509290
