EVENT_NAME: 202302060117
EVENT_ID: 13194
EVENT_DATE_YYYYMMDD: 2023/02/06
EVENT_TIME_HHMMSS: 01:17:32.00000
EVENT_LATITUDE_DEGREE: 37.288
EVENT_LONGITUDE_DEGREE: 37.043
EVENT_DEPTH_KM: 8.6
HYPOCENTER_REFERENCE: AFAD
MAGNITUDE_W: 7.7
MAGNITUDE_W_REFERENCE: AFAD
MAGNITUDE_L: 
MAGNITUDE_L_REFERENCE: 
FOCAL_MECHANISM: 
NETWORK: TK
STATION_CODE: 4619
STATION_NAME: 
STATION_LATITUDE_DEGREE: 37.58702
STATION_LONGITUDE_DEGREE: 36.86616
STATION_ELEVATION_M: 633.0
LOCATION: Kahramanmaras_Pazarck_Turkiye
SENSOR_DEPTH_M: 
VS30_M/S: 545
SITE_CLASSIFICATION_EC8: B
MORPHOLOGIC_CLASSIFICATION: 
EPICENTRAL_DISTANCE_KM: 36.73
EARTHQUAKE_BACKAZIMUTH_DEGREE: 
DATE_TIME_FIRST_SAMPLE_YYYYMMDD_HHMMSS: 2023/02/06 01:17:08.5005960
DATE_TIME_FIRST_SAMPLE_PRECISION: millisecond
SAMPLING_INTERVAL_S: 0.01
NDATA: 2267
DURATION_S: 
STREAM: HNZ
UNITS: cm/s^2
INSTRUMENT: sensor = GMS+/GEOSIG | digitizer = 
INSTRUMENT_ANALOG/DIGITAL: 
INSTRUMENTAL_FREQUENCY_HZ: 
INSTRUMENTAL_DAMPING: 
FULL_SCALE_G: 
N_BIT_DIGITAL_CONVERTER: 
PGA_CM/S^2: 0.012
TIME_PGA_S: 
BASELINE_CORRECTION: BASELINE REMOVED
FILTER_TYPE: BUTTERWORTH
FILTER_ORDER: 
LOW_CUT_FREQUENCY_HZ: 
HIGH_CUT_FREQUENCY_HZ: 
LATE/NORMAL_TRIGGERED: 
DATABASE_VERSION: 
HEADER_FORMAT: DYNA 1.2
DATA_TYPE: Acceleration
PROCESSING: Automatic Paolucci et al., 2011
DATA_TIMESTAMP_YYYYMMDD_HHMMSS: 
DATA_LICENSE: U (unknown license)
DATA_CITATION: Turkish Accelerometric Archive v 1.0 - Disaster And Emergency Management Presidency, Earthquake Department
DATA_CREATOR: AFAD
ORIGINAL_DATA_MEDIATOR_CITATION: : AFAD - Disaster And Emergency Management Presidency
ORIGINAL_DATA_MEDIATOR: AFAD PROCESS SERVICE
ORIGINAL_DATA_CREATOR_CITATION: AFAD PROCESS SERVICE
ORIGINAL_DATA_CREATOR: network: TK
USER1: GuestUser
USER2: 
USER3: 
USER4: 
USER5: 
0.007420
-0.005049
-0.001672
-0.000633
0.001445
0.001705
-0.006867
0.003264
-0.001152
0.002485
-0.004789
0.000147
0.002225
-0.001672
0.000147
-0.006867
0.007940
-0.000113
-0.002451
-0.002971
0.001445
0.002485
-0.006348
0.002744
-0.003230
0.004303
-0.004529
-0.003750
0.004303
0.000406
0.000926
-0.006088
0.005082
-0.000373
-0.000892
-0.004010
0.001186
0.006381
-0.005568
-0.000633
-0.002451
0.004822
-0.004010
-0.003750
0.001186
0.001445
0.003264
-0.006867
0.003783
0.001705
0.002744
-0.004269
-0.003750
0.006901
-0.001152
-0.003230
-0.005309
0.007420
-0.000373
-0.002971
-0.000633
0.001965
0.007420
-0.007646
0.001186
0.001186
0.004303
-0.002971
-0.004529
0.006381
0.000926
0.000406
-0.008945
0.005861
0.004563
-0.002191
-0.002711
-0.000893
0.008199
-0.003230
-0.000633
-0.002451
0.007680
-0.001932
-0.009205
0.005861
0.002744
0.004822
-0.008426
0.001445
0.006381
-0.001672
-0.004010
-0.001932
0.007940
-0.002971
-0.002711
-0.002451
0.007160
0.001186
-0.006867
0.000406
0.001965
0.006381
-0.009465
0.000147
0.005082
0.003264
-0.003230
-0.005049
0.010797
-0.002451
0.000666
-0.004010
0.003783
0.006121
-0.008686
-0.001412
0.000666
0.006381
-0.006867
-0.002971
0.005602
0.003264
-0.003230
-0.006088
0.006641
-0.000113
-0.001152
-0.008426
0.003783
0.007420
-0.005309
-0.002711
-0.000893
0.008979
-0.007647
-0.004010
0.004563
0.004822
-0.000113
-0.009465
0.005602
0.002744
0.001445
-0.007387
0.002225
0.008979
-0.002711
-0.001932
-0.002971
0.008719
-0.002971
-0.003490
-0.000633
0.002225
0.005082
-0.009465
0.000406
0.002744
0.004043
-0.006088
-0.001932
0.007939
-0.002191
-0.003231
-0.005309
0.007680
0.001186
-0.005568
-0.002971
0.005082
0.005342
-0.011283
0.000406
0.003264
0.004822
-0.003490
-0.003490
0.007680
0.000666
-0.002971
-0.006088
0.005602
0.001186
-0.004529
-0.005049
0.003264
0.006381
-0.008166
-0.002191
-0.002191
0.007939
-0.002191
-0.009465
0.004562
0.003004
0.000926
-0.008166
0.002484
0.004562
-0.000893
-0.005828
-0.001152
0.007160
-0.003750
-0.001412
-0.003231
0.007939
-0.000633
-0.007127
0.001965
0.001445
0.006641
-0.010764
-0.000113
0.005342
0.002744
-0.002711
-0.007127
0.011576
-0.000633
-0.004529
-0.005309
0.004822
0.004822
-0.006088
-0.001412
0.000666
0.007939
-0.006608
-0.001932
0.002484
0.003264
0.000666
-0.009985
0.004822
0.002225
0.000146
-0.007127
0.001185
0.006641
-0.004010
-0.004010
-0.002711
0.010277
-0.004789
-0.003750
-0.000633
0.002744
0.004303
-0.011803
0.003523
0.004303
0.003523
-0.006608
-0.002451
0.008719
-0.000373
-0.002971
-0.007127
0.007420
-0.000633
-0.002971
-0.002971
-0.000373
0.007420
-0.007906
-0.001152
0.001445
0.005601
-0.003231
-0.005309
0.004822
0.001445
0.001445
-0.006088
0.004043
0.002744
-0.000893
-0.003750
-0.000893
0.005082
-0.003490
0.000146
-0.004010
0.006641
0.001185
-0.006348
0.001185
0.001705
0.002484
-0.007906
0.001185
0.000146
0.002744
-0.002192
-0.005569
0.005082
-0.000893
0.001445
-0.008426
0.003264
0.003783
-0.004010
-0.002192
-0.002192
0.008199
-0.004789
-0.000633
-0.002451
0.001445
0.002484
-0.007387
0.001445
0.000406
0.004822
-0.006088
-0.001412
0.004043
0.000666
-0.002451
-0.005828
0.007680
-0.001672
-0.000633
-0.003490
0.003783
0.006121
-0.006348
0.000406
-0.001672
0.006121
-0.005049
-0.002192
0.002484
0.000406
0.001185
-0.006088
0.005342
-0.000893
0.004303
-0.004530
-0.003231
0.007680
-0.004010
0.001705
-0.003750
0.004822
0.000146
-0.004010
0.000666
-0.000893
0.004043
-0.002971
0.003004
-0.000114
0.003523
-0.001153
-0.003750
0.002744
-0.001672
0.003523
-0.005309
0.001445
0.001185
0.001445
-0.000893
-0.004789
0.005861
-0.001412
-0.000373
-0.003231
0.005342
0.001185
-0.002711
0.002744
-0.001672
0.006121
-0.005309
0.001185
0.001445
0.000406
0.000926
-0.004270
0.005342
-0.004010
0.004303
-0.002971
-0.002451
0.005342
-0.002192
0.000666
-0.004789
0.004562
-0.000893
-0.001672
0.000406
0.000926
0.001185
-0.001672
0.003263
-0.004530
0.007420
-0.002971
-0.002451
0.003263
-0.002451
0.006900
-0.006088
0.003004
0.003263
0.000406
-0.002711
-0.001412
0.004302
-0.004270
0.001705
-0.004530
0.005342
0.001705
-0.002711
-0.001672
-0.002192
0.007420
-0.005828
0.000406
-0.000893
0.001965
0.000925
-0.003231
0.003523
-0.001932
0.002484
-0.004270
0.001185
0.000666
0.000925
-0.001153
-0.003231
0.003263
-0.002711
0.003004
-0.005569
0.005601
0.000925
-0.004530
0.003004
-0.005569
0.006900
-0.004010
-0.000633
0.001445
0.001185
0.001705
-0.006088
0.005342
0.000666
0.001445
-0.005049
0.000666
0.002484
-0.002452
0.001705
-0.005309
0.004302
0.001185
-0.002452
-0.004010
0.001185
0.002224
-0.004270
-0.002452
-0.000893
0.007939
-0.005049
0.000406
0.001705
0.000666
0.003263
-0.008426
0.004043
0.000406
0.001964
-0.005309
-0.002971
0.006121
-0.003231
0.002484
-0.002192
0.004562
-0.000893
-0.002711
-0.000373
-0.000893
0.005082
-0.005049
0.000666
-0.000633
0.002484
-0.001672
-0.003750
0.001185
-0.002192
0.003783
-0.005309
0.003523
0.000666
-0.002192
0.000666
-0.004010
0.003523
-0.002971
-0.000373
-0.003231
0.003783
0.002744
-0.002971
0.002224
-0.003231
0.003263
-0.002192
0.000406
0.000666
0.001445
0.000666
-0.003231
0.003004
-0.005309
0.003523
-0.002971
-0.000633
0.003523
-0.001932
0.003523
-0.004010
0.005082
-0.000893
0.001185
0.000666
-0.002971
0.003523
-0.003231
0.002484
-0.001672
0.003263
0.000666
-0.000633
0.000146
-0.001153
0.002484
-0.003750
0.004043
-0.005569
0.002224
0.000925
-0.002711
0.005082
-0.002711
0.005601
-0.006608
0.000666
-0.001153
-0.002192
0.003263
-0.005569
0.005082
-0.002452
0.003523
-0.000633
-0.001672
0.002224
-0.001932
0.001185
-0.004790
0.004822
-0.000633
0.002224
0.000925
0.000146
0.001705
-0.005049
0.003783
-0.002971
0.003523
-0.003491
-0.000374
0.003523
-0.003491
0.003523
-0.005829
0.005341
0.000406
-0.001153
0.000406
-0.001413
0.004043
-0.004010
0.002744
-0.001153
0.002224
-0.001932
-0.000374
0.000925
-0.002452
0.004822
-0.004790
0.004302
0.000146
0.001705
0.000406
-0.004010
0.003263
-0.002452
0.002224
-0.002711
0.005601
-0.001153
-0.002971
0.002484
-0.001413
0.005601
-0.005309
0.001185
-0.001153
0.001185
0.001964
-0.001932
0.002744
-0.003751
0.004562
-0.002452
0.001185
0.000406
0.000925
0.000925
-0.004790
0.006380
-0.003491
0.002484
-0.000374
0.000665
0.002224
-0.002452
0.002744
-0.004010
0.005601
-0.001153
-0.001413
-0.000114
0.001445
0.002484
-0.005309
0.004042
-0.001153
0.002224
-0.003231
-0.000893
0.002744
-0.000374
0.004302
-0.005309
0.004822
0.000146
-0.000893
-0.000374
-0.001932
0.005082
-0.002192
0.000406
-0.001932
0.002484
-0.002192
-0.001932
0.002744
-0.001153
0.002484
-0.002971
0.000925
-0.002712
0.003783
-0.000633
-0.004530
0.004042
-0.002452
0.002484
-0.004790
0.003263
0.000665
-0.002452
0.002484
-0.003751
0.006121
-0.003231
0.001445
-0.000893
-0.000893
0.004302
-0.004270
0.001445
-0.002192
0.004042
0.000406
-0.000114
-0.000374
0.000146
0.002744
-0.005569
0.000925
-0.002192
0.004302
-0.003231
-0.004010
0.002484
-0.001153
0.004042
-0.005829
0.004562
0.001445
0.000406
-0.001673
-0.004270
0.006640
-0.004790
0.001964
-0.001932
0.001964
0.000146
-0.003231
0.005861
-0.000893
0.003003
-0.004270
-0.000114
0.000146
0.001185
-0.000114
-0.004010
0.006640
-0.000893
0.001964
-0.002452
0.001704
0.000406
-0.000114
0.002744
-0.005309
0.005341
-0.002971
0.001445
-0.001413
0.000665
0.004562
-0.004790
0.003523
-0.002712
0.003523
-0.001932
0.000146
0.002224
-0.001413
0.003523
-0.004530
0.003523
-0.002712
0.001704
-0.000114
0.000146
0.004302
-0.001932
0.002743
-0.005050
0.005341
-0.002712
-0.001153
0.003263
-0.001153
0.004042
-0.004790
0.003263
-0.003231
0.004042
0.000925
-0.004270
0.004042
-0.002192
0.004302
-0.003231
0.003263
-0.000374
0.000925
0.000406
-0.004790
0.005081
-0.003231
0.004042
-0.002192
0.002484
0.000665
-0.001413
0.003523
-0.005829
0.004562
-0.003231
0.004562
0.000146
-0.003231
0.003263
-0.004011
0.001704
-0.003231
0.004822
-0.002971
-0.000893
0.001964
-0.002452
0.002484
-0.003231
0.005341
-0.002971
0.002224
0.000146
-0.003231
0.001445
-0.003231
0.004042
-0.001932
0.003782
-0.001932
-0.001153
0.001445
-0.000114
0.002743
-0.007128
0.003782
0.001185
0.002484
-0.000634
-0.001673
0.004042
-0.003491
0.002484
-0.003491
0.003523
0.002484
-0.000634
0.000405
-0.001413
0.003263
-0.004530
0.000665
-0.001413
0.000925
-0.001673
-0.001413
0.001185
-0.002712
0.005081
-0.004270
0.003263
0.000405
0.000146
0.000405
-0.003491
0.007159
-0.003231
0.001445
-0.001413
0.000405
0.002743
-0.001413
-0.000114
-0.002712
0.004302
-0.004270
0.001704
-0.000114
-0.001673
0.001704
-0.002452
0.002484
-0.002972
0.002743
-0.003751
0.001964
0.003003
-0.000893
0.004562
-0.003231
0.004562
-0.003751
0.001185
0.000146
-0.001413
0.004042
-0.001673
0.005601
-0.002972
0.001445
-0.000374
0.000925
0.000925
-0.003231
0.004562
-0.002972
0.002484
-0.001932
0.001185
0.001444
0.000405
0.002484
-0.002712
0.003523
-0.004530
0.001704
-0.000634
0.000665
0.001964
-0.001932
0.002743
-0.001153
0.002484
-0.005309
0.005081
-0.000374
-0.000374
0.004562
-0.006089
0.007419
-0.002972
0.000665
-0.000374
-0.002452
0.003523
-0.002452
0.001704
-0.001933
0.003782
-0.001673
-0.000634
0.000665
0.000925
0.003263
-0.003751
0.001444
-0.001153
0.004042
-0.003751
-0.000893
0.002224
-0.001673
0.002743
-0.006089
0.004562
-0.003491
0.000146
0.001444
-0.001933
0.001964
-0.005569
0.003263
-0.004530
0.003523
-0.000634
0.001704
0.004821
-0.003491
0.006900
-0.006868
0.000925
-0.000634
-0.000893
0.000925
-0.001673
0.004302
-0.003751
0.004042
-0.002972
0.001704
0.000146
-0.001413
0.002224
-0.004011
0.004302
-0.003751
0.001704
-0.000634
0.001964
0.001444
-0.002192
0.004302
-0.004011
0.003782
-0.004790
-0.000894
0.001185
-0.001933
0.002483
-0.002192
0.004042
-0.002192
0.003523
-0.000634
-0.000114
0.001964
-0.001673
0.001964
-0.003231
0.005860
-0.002972
0.000146
-0.000894
-0.001153
0.003523
-0.005310
0.004821
-0.000374
0.004562
-0.000634
-0.001153
0.003782
-0.000634
0.001185
-0.004790
0.006120
-0.001933
-0.001153
0.000146
0.000925
0.003003
-0.005829
0.002743
-0.003231
0.003263
-0.004011
-0.003231
0.003782
-0.001933
0.003003
-0.004790
0.004562
-0.000634
-0.001673
-0.001673
0.000925
0.006120
-0.004530
0.003263
-0.003231
0.003782
-0.001413
-0.004530
0.003263
-0.000374
0.002743
-0.005310
0.006380
0.001185
0.000145
-0.000374
-0.001413
0.008198
-0.006089
-0.000894
-0.001933
0.001964
0.000145
-0.004271
0.004562
0.000665
-0.000374
-0.004530
0.004562
0.000405
-0.001673
-0.000634
0.000145
0.004562
-0.005050
0.002483
-0.001933
0.000665
0.000405
-0.000634
0.003522
-0.003491
0.001704
-0.003751
0.000405
-0.001933
-0.002712
-0.000894
-0.000114
0.002743
-0.005829
0.004042
0.000145
0.001964
-0.000374
-0.000114
0.005601
-0.005310
-0.000114
-0.001673
0.003522
-0.003232
-0.000894
0.002483
-0.003491
0.002743
-0.003751
0.005341
-0.001413
-0.000894
0.001444
-0.001413
0.003522
-0.005569
0.003263
-0.000634
0.000405
-0.002972
0.001185
0.006380
-0.003491
0.003263
-0.000894
0.004821
-0.004790
-0.000634
0.004302
-0.002452
0.000925
-0.006609
0.005341
-0.001153
-0.000894
0.003263
0.005341
0.001964
-0.006868
0.004302
-0.002193
0.001184
-0.004271
0.001964
0.004302
-0.005829
-0.000374
-0.000894
0.008978
-0.007128
0.000145
0.007938
-0.004271
-0.003751
-0.003751
0.008718
-0.003491
-0.001673
0.000665
0.002224
-0.001413
-0.008167
0.007159
0.000405
-0.001153
-0.006609
0.004302
0.001964
-0.008687
0.002224
0.002743
0.002224
-0.010245
0.002743
0.003263
-0.002972
-0.002193
0.000665
0.008718
-0.009206
-0.000894
0.001444
0.001964
-0.001673
-0.004271
0.007679
-0.002712
-0.002712
-0.004530
0.006640
-0.000114
-0.006089
0.003522
0.000145
0.000665
-0.007648
0.004821
0.001704
-0.000374
0.000665
0.000665
0.005860
-0.008427
0.001444
0.001964
0.004302
-0.002712
-0.002193
0.005081
-0.006868
0.001704
-0.001413
0.006120
-0.002452
-0.004530
0.003522
-0.003491
0.002483
-0.003491
0.006120
0.001964
-0.003232
-0.001673
-0.000374
0.002483
-0.004271
0.005860
0.000145
0.001184
-0.004011
-0.002972
0.003263
-0.003751
0.004302
-0.001673
0.002223
-0.002193
0.000405
0.001704
-0.000114
0.005081
-0.006868
0.004042
-0.001933
-0.002972
0.001704
0.002223
0.003782
-0.003491
0.002223
-0.003751
0.003003
0.000145
0.000925
0.002483
-0.001933
0.002223
-0.003491
0.003522
-0.004011
0.003003
0.000925
-0.001673
0.004821
-0.004271
0.004302
-0.001154
0.002223
-0.000894
0.000925
-0.000374
-0.006089
0.005860
-0.003751
0.001184
-0.002972
0.000665
0.000925
-0.002452
0.002483
-0.003491
0.003522
-0.005829
0.003262
0.001444
-0.001413
0.002743
-0.003492
0.004302
-0.004531
0.001184
-0.001413
0.002743
0.002483
-0.004011
0.003782
-0.003232
0.003262
-0.002452
0.001704
-0.000894
-0.001154
0.004042
-0.002972
0.005600
-0.002193
0.002223
-0.002972
-0.002712
0.003003
-0.000634
0.003003
-0.004271
0.003003
-0.003751
-0.001933
0.003782
0.001444
-0.001673
-0.003232
0.005341
-0.003751
0.001964
-0.000894
0.001184
-0.001154
-0.003751
0.004821
-0.004011
0.003782
-0.004531
0.002223
0.002223
-0.002972
0.002223
-0.003492
0.006639
-0.003751
0.000924
-0.000634
-0.000634
0.002743
-0.002712
0.003262
-0.001673
0.004301
-0.003492
0.001444
0.000665
-0.000374
0.001704
-0.005310
0.006380
-0.004531
0.002223
-0.001154
-0.001673
0.003782
-0.004790
0.003003
-0.003751
0.003522
-0.001413
0.000405
0.001444
-0.002193
0.004042
-0.003751
0.001964
-0.003751
0.001964
-0.000634
-0.001673
0.004301
-0.003751
0.002483
-0.001933
0.000145
-0.002453
0.001964
-0.000634
-0.002972
0.004042
-0.005570
0.001704
-0.002193
-0.000894
-0.002193
-0.000374
0.001964
-0.004011
0.002743
-0.004271
0.003782
-0.001154
-0.001673
0.003262
-0.001933
0.000924
-0.005310
0.004301
-0.001933
-0.001413
-0.000374
-0.001933
0.002743
-0.003751
0.003262
-0.002972
0.000405
0.000145
-0.001154
-0.000634
-0.002193
0.002223
-0.003232
0.001444
-0.004531
0.001184
-0.000115
-0.001414
0.003262
-0.003751
0.003262
-0.002453
0.005860
-0.001414
-0.002712
0.004561
-0.005570
0.001184
-0.002712
0.002483
-0.000634
-0.000115
-0.000115
-0.001933
0.003262
-0.003751
0.002483
-0.002712
0.004301
-0.001414
-0.002453
0.005860
-0.005830
0.003782
-0.001933
-0.000894
-0.002972
-0.000115
0.003003
-0.002972
0.003003
-0.001414
0.004821
-0.003492
0.002223
0.000924
-0.003492
0.003262
-0.005570
0.003782
-0.001154
0.000405
-0.000374
0.001444
0.000145
-0.001933
0.005081
-0.006089
0.005081
-0.002453
-0.000115
0.004561
-0.003232
0.002743
-0.003232
0.001704
-0.001933
0.002483
-0.001414
0.000665
0.003262
-0.002972
0.004301
-0.002712
0.003522
-0.003232
0.001444
0.001704
-0.003232
0.003782
-0.004011
0.005081
-0.005050
0.000145
0.004042
-0.002193
-0.000115
-0.001414
0.003782
-0.005570
0.003522
-0.001414
-0.001414
0.000924
-0.002972
0.003002
-0.003492
0.003262
-0.001933
0.003782
0.001444
-0.001414
0.004042
-0.002453
0.001963
-0.002453
0.003002
-0.003752
0.000145
0.001444
-0.002453
0.006120
-0.001933
0.002223
-0.002712
0.001444
-0.002453
0.000665
0.003262
-0.004271
0.007418
-0.005310
0.002743
0.000145
-0.002712
0.001963
-0.003752
0.002483
-0.003232
0.005081
-0.001414
0.000145
-0.000115
-0.002712
0.004301
-0.001673
0.001444
-0.003232
0.002223
-0.003232
0.001444
0.003002
-0.002712
0.003522
-0.003232
0.006639
-0.002712
-0.001154
0.000924
-0.000375
0.001963
-0.005310
0.007418
-0.005310
0.000924
0.000145
-0.002972
0.005340
-0.005570
0.002223
-0.001154
0.002223
-0.002453
0.000924
0.002223
-0.003492
0.002223
-0.003492
0.003782
-0.005570
0.002483
0.002483
-0.003232
0.001184
-0.004271
0.004561
-0.004791
0.000145
-0.000634
-0.000634
0.000405
-0.002972
0.004821
-0.002713
0.001184
-0.001154
0.004301
-0.002972
-0.003752
0.004821
-0.003232
0.002483
-0.005050
0.005340
-0.001414
-0.003232
0.003262
-0.003752
0.004301
-0.004791
0.004041
0.000405
-0.002193
-0.000115
0.000145
0.003782
-0.007388
0.002483
-0.001414
0.001444
-0.001673
-0.001154
0.004041
-0.002972
0.005080
-0.004011
0.002483
-0.001414
-0.001414
0.001703
-0.002453
0.003262
-0.005050
0.006120
-0.002193
-0.001414
0.002223
-0.002713
0.001444
-0.002193
0.004041
-0.004271
0.001963
-0.000375
-0.001414
0.001184
-0.001933
0.004301
-0.004791
0.003262
-0.001933
0.000145
0.000924
-0.002713
0.002743
-0.002972
0.002743
-0.003232
0.002743
-0.001933
-0.000375
0.003262
-0.005051
0.003782
-0.003492
0.001444
-0.001154
-0.000894
0.000924
-0.003232
0.002223
-0.002193
0.001703
-0.002453
0.002743
-0.001674
-0.001933
0.000924
-0.005310
0.002223
-0.002453
0.004561
-0.001933
0.001703
0.003262
-0.004271
0.002742
-0.002193
0.001963
-0.004271
0.001444
-0.001414
0.000405
0.003782
-0.005051
0.003522
-0.004531
0.000924
-0.002453
0.001444
0.002742
-0.003752
0.004041
-0.001933
0.001963
-0.003752
0.001184
-0.002453
-0.003232
0.001963
-0.003492
0.003782
-0.004271
0.001703
0.001184
0.000924
0.001184
-0.000894
0.004821
-0.003752
0.002483
-0.001933
-0.000635
-0.001154
0.000145
0.003522
-0.002193
0.004301
-0.003232
0.002223
-0.000894
-0.003232
0.001703
0.001963
0.004301
-0.005310
0.003002
-0.004012
-0.001674
0.003002
0.000664
0.004301
-0.003752
0.000664
-0.002453
0.003002
-0.001933
-0.001154
0.001963
-0.002972
0.003781
-0.001933
0.004301
-0.005570
-0.000635
0.002742
-0.002972
0.003781
-0.002713
0.003781
-0.004271
0.000145
-0.001414
0.000145
0.003002
-0.006609
0.006379
-0.003232
-0.000375
0.001184
-0.000894
0.001184
-0.000115
0.002742
-0.004531
0.004041
-0.004012
0.000924
0.001444
-0.003232
0.005080
-0.002973
0.001963
0.000145
0.002742
-0.002193
-0.000635
-0.000635
-0.002193
0.005600
-0.006090
0.003522
-0.000635
-0.000115
0.001963
-0.002193
0.001703
-0.004271
0.006119
-0.003492
-0.000635
0.002742
-0.002713
0.000924
-0.000894
0.001703
-0.003492
0.004561
-0.001414
0.001703
0.001184
-0.003492
0.005340
-0.002193
0.001444
-0.004531
0.003781
0.000404
-0.003232
0.004041
-0.000635
0.004301
-0.006609
0.004301
0.002483
-0.003232
-0.001154
-0.001414
0.002483
-0.006609
0.003781
-0.002193
0.001443
0.000145
-0.001414
0.004820
-0.003232
0.002742
-0.005051
0.004041
-0.002193
-0.001933
0.005600
-0.002713
0.001184
-0.004012
0.004561
-0.004012
0.001184
0.000404
0.000000
0.000000
0.000000
0.000000
0.000000
0.000000
0.000000
0.000000
0.000000
0.000000
0.000000
0.000000
0.000000
0.000000
0.000000
0.000000
0.000000
0.000000
0.000000
0.000000
0.000000
0.000000
0.000000
0.000000
0.000000
0.000000
0.000000
0.000000
0.000000
0.000000
0.000000
0.000000
0.000000
0.000000
0.000000
0.000000
0.000000
0.000000
0.000000
0.000000
0.000000
0.000000
0.000000
0.000000
0.000000
0.000000
0.000000
0.000000
0.000000
0.000000
0.000000
0.000000
0.000000
0.000000
0.000000
0.000000
0.000000
0.000000
0.000000
0.000000
0.000000
0.000000
0.000000
0.000000
0.000000
0.000000
0.000000
