EVENT_NAME: 202302060117
EVENT_ID: 13194
EVENT_DATE_YYYYMMDD: 2023/02/06
EVENT_TIME_HHMMSS: 01:17:32.00000
EVENT_LATITUDE_DEGREE: 37.288
EVENT_LONGITUDE_DEGREE: 37.043
EVENT_DEPTH_KM: 8.6
HYPOCENTER_REFERENCE: AFAD
MAGNITUDE_W: 7.7
MAGNITUDE_W_REFERENCE: AFAD
MAGNITUDE_L: 
MAGNITUDE_L_REFERENCE: 
FOCAL_MECHANISM: 
NETWORK: TK
STATION_CODE: 5504
STATION_NAME: 
STATION_LATITUDE_DEGREE: 40.972266
STATION_LONGITUDE_DEGREE: 35.669231
STATION_ELEVATION_M: 680.0
LOCATION: Kahramanmaras_Pazarck_Turkiye
SENSOR_DEPTH_M: 
VS30_M/S: 404
SITE_CLASSIFICATION_EC8: B
MORPHOLOGIC_CLASSIFICATION: 
EPICENTRAL_DISTANCE_KM: 426.45
EARTHQUAKE_BACKAZIMUTH_DEGREE: 
DATE_TIME_FIRST_SAMPLE_YYYYMMDD_HHMMSS: 2023/02/06 01:18:06.2292370
DATE_TIME_FIRST_SAMPLE_PRECISION: millisecond
SAMPLING_INTERVAL_S: 0.01
NDATA: 21001
DURATION_S: 
STREAM: HNN
UNITS: cm/s^2
INSTRUMENT: sensor = GMS+/GEOSIG | digitizer = 
INSTRUMENT_ANALOG/DIGITAL: 
INSTRUMENTAL_FREQUENCY_HZ: 
INSTRUMENTAL_DAMPING: 
FULL_SCALE_G: 
N_BIT_DIGITAL_CONVERTER: 
PGA_CM/S^2: 6.772
TIME_PGA_S: 
BASELINE_CORRECTION: BASELINE REMOVED
FILTER_TYPE: BUTTERWORTH
FILTER_ORDER: 
LOW_CUT_FREQUENCY_HZ: 
HIGH_CUT_FREQUENCY_HZ: 
LATE/NORMAL_TRIGGERED: 
DATABASE_VERSION: 
HEADER_FORMAT: DYNA 1.2
DATA_TYPE: Acceleration
PROCESSING: Automatic Paolucci et al., 2011
DATA_TIMESTAMP_YYYYMMDD_HHMMSS: 
DATA_LICENSE: U (unknown license)
DATA_CITATION: Turkish Accelerometric Archive v 1.0 - Disaster And Emergency Management Presidency, Earthquake Department
DATA_CREATOR: AFAD
ORIGINAL_DATA_MEDIATOR_CITATION: : AFAD - Disaster And Emergency Management Presidency
ORIGINAL_DATA_MEDIATOR: AFAD PROCESS SERVICE
ORIGINAL_DATA_CREATOR_CITATION: AFAD PROCESS SERVICE
ORIGINAL_DATA_CREATOR: network: TK
USER1: GuestUser
USER2: 
USER3: 
USER4: 
USER5: 
[...]
0.068791
0.131913
0.193216
0.260494
0.326993
0.398427
0.473758
0.549868
0.630914
0.711181
0.796902
0.884962
0.971203
1.059262
1.150959
1.242915
1.332793
1.426048
1.518263
1.608921
1.698279
1.779585
1.859072
1.933104
1.994147
2.056230
2.111819
2.157017
2.201175
2.234684
2.261438
2.288192
2.306374
2.321958
2.336244
2.342736
2.345332
2.344551
2.340133
2.331559
2.319088
2.301162
2.276223
2.247647
2.215953
2.180363
2.142176
2.105027
2.066579
2.025534
1.987087
1.951237
1.917725
1.886551
1.856936
1.831996
1.810694
1.793807
1.780037
1.769905
1.764707
1.762887
1.766262
1.770937
1.777948
1.789117
1.803662
1.818986
1.831973
1.844440
1.855089
1.862101
1.863657
1.860538
1.851445
1.832220
1.807021
1.770911
1.720255
1.663624
1.597641
1.518150
1.431645
1.336569
1.229542
1.114723
0.992111
0.863524
0.729742
0.586348
0.440357
0.294625
0.144477
-0.004631
-0.151402
-0.299471
-0.448580
-0.593532
-0.736407
-0.882398
-1.026571
-1.170484
-1.315696
-1.454934
-1.596249
-1.736006
-1.870568
-2.008246
-2.142548
-2.273213
-2.402839
-2.527530
-2.649882
-2.768338
-2.879001
-2.991223
-3.096690
-3.190988
-3.285285
-3.369972
-3.446865
-3.519601
-3.583506
-3.640917
-3.690794
-3.737034
-3.781457
-3.820683
-3.854455
-3.887447
-3.919141
-3.943561
-3.964084
-3.983049
-3.995780
-4.006172
-4.015266
-4.016307
-4.013711
-4.009037
-3.995011
-3.979427
-3.959946
-3.935010
-3.912152
-3.881761
-3.853448
-3.830071
-3.800979
-3.777861
-3.754484
-3.722534
-3.698118
-3.677598
-3.657078
-3.638377
-3.620195
-3.608507
-3.598118
-3.592145
-3.588770
-3.584356
-3.579162
-3.570592
-3.563580
-3.554230
-3.542542
-3.530854
-3.515790
-3.495270
-3.466697
-3.435267
-3.402278
-3.363315
-3.320975
-3.276296
-3.230839
-3.187199
-3.143300
-3.098882
-3.053944
-3.007447
-2.965367
-2.925104
-2.877049
-2.831072
-2.791329
-2.750548
-2.710285
-2.675218
-2.643009
-2.606903
-2.568459
-2.534691
-2.498845
-2.457804
-2.418061
-2.376500
-2.330263
-2.282208
-2.231035
-2.174148
-2.111546
-2.045047
-1.972054
-1.893606
-1.807884
-1.718526
-1.627868
-1.532016
-1.438241
-1.343688
-1.248614
-1.156399
-1.061585
-0.972746
-0.885466
-0.798186
-0.716361
-0.634536
-0.555049
-0.481016
-0.409842
-0.338407
-0.269831
-0.200994
-0.130599
-0.056826
0.020063
0.100330
0.188909
0.282164
0.384770
0.495170
0.613362
0.739088
0.873386
1.018335
1.165102
1.317844
1.478639
1.642810
1.805163
1.968815
2.136883
2.296898
2.454576
2.614331
2.765774
2.914619
3.063205
3.203997
3.342192
3.480127
3.612607
3.741710
3.867955
3.988745
4.106159
4.219416
4.327997
4.432162
4.534249
4.629842
4.716343
4.802064
4.882591
4.955064
5.022082
5.081308
5.130921
5.173002
5.208588
5.235862
5.255343
5.267291
5.268328
5.259234
5.241828
5.214031
5.175064
5.128824
5.073491
5.008547
4.938148
4.859697
4.773972
4.681752
4.578363
4.467440
4.349504
4.223255
4.091810
3.954911
3.809699
3.659031
3.504987
3.348345
3.189885
3.024411
2.855041
2.685930
2.512403
2.332902
2.153400
1.970002
1.782708
1.597232
1.408898
1.219526
1.030932
0.840780
0.650628
0.464113
0.280715
0.099136
-0.076729
-0.246879
-0.410794
-0.566137
-0.719662
-0.867991
-1.009047
-1.149843
-1.283106
-1.407536
-1.529109
-1.643669
-1.750695
-1.853565
-1.949161
-2.040082
-2.125807
-2.206597
-2.285568
-2.362201
-2.437276
-2.510532
-2.587166
-2.661721
-2.734198
-2.808493
-2.882010
-2.956825
-3.026964
-3.096843
-3.167502
-3.233744
-3.297130
-3.353761
-3.405716
-3.452476
-3.487287
-3.516642
-3.537426
-3.550156
-3.556392
-3.554316
-3.548343
-3.536396
-3.519772
-3.495616
-3.470680
-3.443925
-3.408859
-3.375350
-3.344180
-3.308594
-3.270409
-3.235862
-3.199496
-3.157935
-3.120531
-3.084684
-3.043903
-3.000004
-2.952987
-2.905971
-2.860254
-2.809861
-2.752714
-2.698164
-2.645433
-2.589845
-2.533996
-2.473992
-2.413468
-2.354242
-2.291120
-2.227739
-2.167475
-2.105132
-2.039153
-1.972394
-1.907714
-1.846151
-1.779392
-1.706139
-1.631328
-1.556776
-1.480926
-1.403517
-1.329745
-1.254414
-1.177524
-1.098816
-1.018030
-0.939063
-0.857238
-0.775153
-0.692029
-0.609944
-0.528638
-0.444995
-0.364469
-0.285241
-0.204975
-0.128085
-0.053274
0.023356
0.095310
0.164926
0.234542
0.299482
0.365981
0.424946
0.480535
0.536903
0.587556
0.635351
0.675613
0.713538
0.749124
0.778736
0.802892
0.822113
0.843153
0.860555
0.870944
0.883931
0.898996
0.911203
0.929645
0.951204
0.973282
1.000036
1.033804
1.067832
1.104198
1.156150
1.203166
1.237194
1.280573
1.333304
1.382658
1.422661
1.469417
1.521369
1.565268
1.611765
1.653586
1.690211
1.728395
1.759306
1.783462
1.803203
1.816969
1.824240
1.824239
1.814366
1.796440
1.770202
1.735131
1.690449
1.639273
1.581863
1.514581
1.440545
1.363652
1.283642
1.194020
1.104658
1.016075
0.919959
0.822804
0.725649
0.627715
0.526144
0.420417
0.312871
0.201169
0.084531
-0.036003
-0.155758
-0.273954
-0.394748
-0.513723
-0.631400
-0.746479
-0.858960
-0.968324
-1.072493
-1.172505
-1.267063
-1.358243
-1.442929
-1.522420
-1.600092
-1.673868
-1.743748
-1.812848
-1.880649
-1.944294
-2.009238
-2.069246
-2.126397
-2.190042
-2.251868
-2.311876
-2.377859
-2.444621
-2.514241
-2.587238
-2.661273
-2.742582
-2.824931
-2.909876
-3.004174
-3.099770
-3.198224
-3.301873
-3.407601
-3.513328
-3.620354
-3.732576
-3.844018
-3.952603
-4.060149
-4.166396
-4.272123
-4.370057
-4.460458
-4.548781
-4.631909
-4.703866
-4.766472
-4.825961
-4.874020
-4.909090
-4.940264
-4.960268
-4.967024
-4.967545
-4.961312
-4.945988
-4.924429
-4.901571
-4.868842
-4.831697
-4.796111
-4.753251
-4.707793
-4.658179
-4.606747
-4.553756
-4.496349
-4.437384
-4.378418
-4.318674
-4.256591
-4.200743
-4.144375
-4.093462
-4.038913
-3.970076
-3.925398
-3.890331
-3.859160
-3.836303
-3.792144
-3.755259
-3.729024
-3.700971
-3.679412
-3.651359
-3.624345
-3.598629
-3.571356
-3.545121
-3.518107
-3.492911
-3.466936
-3.444338
-3.426935
-3.404597
-3.386415
-3.374987
-3.365118
-3.356547
-3.344080
-3.341484
-3.330576
-3.312394
-3.243557
-3.157836
-3.187191
-3.214469
-3.158361
-3.079912
-3.021986
-3.000427
-2.955229
-2.884055
-2.817296
-2.793139
-2.786128
-2.732357
-2.655728
-2.570266
-2.467919
-2.381678
-2.321414
-2.274397
-2.227901
-2.139581
-2.047106
-1.972294
-1.880598
-1.799293
-1.721104
-1.634344
-1.559272
-1.491735
-1.424716
-1.357438
-1.288601
-1.223402
-1.156903
-1.076376
-1.001046
-0.934287
-0.859735
-0.782846
-0.706736
-0.630626
-0.554775
-0.480483
-0.408529
-0.336056
-0.260205
-0.184355
-0.112141
-0.038109
0.034104
0.098525
0.160608
0.220093
0.276720
0.332828
0.386599
0.442707
0.496737
0.549468
0.603238
0.657528
0.713636
0.766886
0.818838
0.872868
0.926378
0.975213
1.022749
1.074441
1.125873
1.172889
1.217308
1.260687
1.301209
1.337315
1.369005
1.400435
1.426930
1.447449
1.468489
1.486931
1.503814
1.518099
1.531086
1.545111
1.556280
1.563551
1.571342
1.584329
1.594978
1.605886
1.621211
1.636016
1.653678
1.672899
1.691860
1.713160
1.736797
1.759654
1.780694
1.803292
1.822253
1.839656
1.855500
1.866408
1.873680
1.873938
1.870299
1.862245
1.847696
1.828212
1.801973
1.771059
1.734690
1.694943
1.653898
1.606619
1.557521
1.506864
1.453350
1.402953
1.350479
1.294627
1.242411
1.188378
1.132786
1.077973
1.021602
0.963412
0.902624
0.838979
0.770658
0.701299
0.624406
0.543616
0.463865
0.380738
0.297870
0.211885
0.125121
0.038097
-0.049447
-0.137250
-0.224274
-0.309740
-0.396504
-0.483528
-0.571072
-0.659914
-0.749536
-0.842535
-0.936313
-1.030610
-1.128285
-1.226479
-1.327011
-1.427283
-1.528075
-1.628347
-1.726801
-1.826813
-1.924488
-2.021123
-2.111265
-2.198808
-2.284793
-2.360907
-2.434943
-2.507420
-2.574961
-2.639126
-2.698614
-2.751609
-2.799927
-2.844869
-2.882018
-2.911373
-2.935274
-2.951121
-2.961514
-2.966191
-2.962297
-2.954246
-2.938402
-2.916583
-2.890868
-2.853463
-2.813720
-2.769561
-2.715532
-2.658644
-2.595003
-2.527465
-2.454472
-2.377842
-2.299134
-2.216270
-2.138082
-2.062231
-1.988199
-1.917025
-1.854422
-1.801172
-1.749480
-1.706880
-1.674151
-1.642980
-1.616486
-1.597784
-1.580901
-1.565317
-1.551032
-1.536227
-1.524279
-1.505318
-1.479862
-1.457784
-1.428692
-1.392846
-1.355960
-1.315438
-1.266604
-1.212574
-1.158544
-1.099319
-1.037755
-0.972296
-0.903459
-0.833064
-0.756953
-0.674609
-0.586030
-0.494074
-0.396663
-0.291458
-0.182098
-0.067022
0.052209
0.176636
0.306518
0.436401
0.570179
0.708114
0.843971
0.979308
1.116724
1.251801
1.387139
1.522995
1.651059
1.778084
1.905109
2.029016
2.147468
2.262544
2.378918
2.489318
2.594262
2.697908
2.796358
2.891431
2.983907
3.073265
3.162883
3.248865
3.332248
3.420308
3.508367
3.592790
3.678512
3.763974
3.845019
3.927104
4.009189
4.087637
4.162968
4.234662
4.304538
4.373894
4.440133
4.506113
4.573391
4.639889
4.703531
4.770289
4.838087
4.899390
4.964071
5.028491
5.086937
5.144864
5.200712
5.253963
5.303836
5.348255
5.393713
5.436053
5.470081
5.502810
5.531382
5.551123
5.568006
5.578655
5.579692
5.576313
5.566700
5.548774
5.520717
5.484088
5.440965
5.387191
5.325105
5.253147
5.174696
5.088191
4.991816
4.887647
4.777763
4.661905
4.532798
4.399536
4.262376
4.114567
3.961302
3.799465
3.630094
3.456048
3.273169
3.086654
2.894944
2.695440
2.497755
2.299031
2.095890
1.896127
1.699221
1.502835
1.316320
1.135519
0.959914
0.793142
0.631045
0.477260
0.333347
0.194629
0.062925
-0.058389
-0.173987
-0.288027
-0.393495
-0.490650
-0.586765
-0.673790
-0.755358
-0.833291
-0.899014
-0.961360
-1.016173
-1.061894
-1.103718
-1.135152
-1.162689
-1.184252
-1.199839
-1.214908
-1.225040
-1.238810
-1.252320
-1.266349
-1.286872
-1.306876
-1.329478
-1.357275
-1.390267
-1.424818
-1.462746
-1.503791
-1.547694
-1.594454
-1.639915
-1.686675
-1.733955
-1.780715
-1.827734
-1.875793
-1.924372
-1.967495
-2.012177
-2.061275
-2.106217
-2.153496
-2.202854
-2.252731
-2.307804
-2.364954
-2.426521
-2.494063
-2.565501
-2.641095
-2.722404
-2.810987
-2.903726
-2.995426
-3.090762
-3.188696
-3.280656
-3.372616
-3.461458
-3.542508
-3.617323
-3.682786
-3.740976
-3.788255
-3.829300
-3.865670
-3.889310
-3.906457
-3.916590
-3.919189
-3.916593
-3.905425
-3.890620
-3.866983
-3.837111
-3.803603
-3.764900
-3.720741
-3.670088
-3.619175
-3.560989
-3.496309
-3.433187
-3.366168
-3.295254
-3.225118
-3.150826
-3.074716
-2.996787
-2.914443
-2.831838
-2.748195
-2.661694
-2.573115
-2.483237
-2.391021
-2.295948
-2.198797
-2.100087
-1.996701
-1.889678
-1.781876
-1.669918
-1.555362
-1.434832
-1.311963
-1.185458
-1.052199
-0.916342
-0.772952
-0.623847
-0.474223
-0.319662
-0.162505
-0.001450
0.162981
0.327152
0.491324
0.654716
0.816550
0.976046
1.135541
1.288803
1.433751
1.582077
1.722090
1.850673
1.981335
2.107580
2.229669
2.348381
2.462418
2.574376
2.679580
2.779589
2.871805
2.961683
3.047404
3.123515
3.198326
3.269501
3.335740
3.398082
3.456788
3.514974
3.572900
3.626930
3.681999
3.740705
3.797852
3.853701
3.909809
3.968255
4.025921
4.081250
4.138917
4.193726
4.246197
4.297110
4.343866
4.391402
4.432703
4.471927
4.511150
4.545437
4.579985
4.609596
4.635571
4.661546
4.688820
4.710639
4.730899
4.755835
4.776874
4.799992
4.822070
4.841032
4.864669
4.885448
4.904150
4.921293
4.938176
4.950903
4.952719
4.955055
4.950378
4.934790
4.912967
4.882313
4.844905
4.796067
4.737617
4.666958
4.589546
4.509535
4.414978
4.312887
4.205342
4.088964
3.969988
3.846077
3.715412
3.579811
3.439795
3.295882
3.146513
2.993768
2.838425
2.679965
2.516309
2.350315
2.188738
2.026641
1.859868
1.699070
1.541909
1.380331
1.220053
1.063930
0.906509
0.748568
0.594784
0.443338
0.294748
0.151095
0.011598
-0.123743
-0.256486
-0.383774
-0.505607
-0.622764
-0.731349
-0.831102
-0.922542
-1.000734
-1.072172
-1.140493
-1.197124
-1.247521
-1.297917
-1.342599
-1.383125
-1.425729
-1.468592
-1.510157
-1.553020
-1.599521
-1.644462
-1.692781
-1.745256
-1.797211
-1.853323
-1.913331
-1.973080
-2.025814
-2.084004
-2.145311
-2.197007
-2.250521
-2.304554
-2.355730
-2.405348
-2.458342
-2.514454
-2.567189
-2.618105
-2.670060
-2.721496
-2.770854
-2.817874
-2.864374
-2.909056
-2.951140
-2.993224
-3.034269
-3.070898
-3.105190
-3.135324
-3.164940
-3.193516
-3.218715
-3.245733
-3.267815
-3.288079
-3.306524
-3.318995
-3.327049
-3.331987
-3.331729
-3.325756
-3.320822
-3.310953
-3.296667
-3.280304
-3.261343
-3.241862
-3.219004
-3.197445
-3.177185
-3.155366
-3.134327
-3.112768
-3.091209
-3.067052
-3.040558
-3.014323
-2.984192
-2.952762
-2.918474
-2.882888
-2.847042
-2.805221
-2.763400
-2.719761
-2.668848
-2.618195
-2.565464
-2.508317
-2.446234
-2.379995
-2.310379
-2.234529
-2.155821
-2.071658
-1.977364
-1.873718
-1.765397
-1.651620
-1.525115
-1.396532
-1.265091
-1.124298
-0.980389
-0.836739
-0.684517
-0.527099
-0.368123
-0.198756
-0.022895
0.157382
0.346751
0.544433
0.747569
0.958499
1.178001
1.403478
1.633631
1.870537
2.113938
2.359417
2.608273
2.857128
3.103906
3.348866
3.589409
3.824497
4.051273
4.271814
4.486380
4.692374
4.888238
5.076308
5.255806
5.420497
5.574278
5.718966
5.849628
5.968080
6.080038
6.182645
6.273822
6.360582
6.437472
6.506309
6.567352
6.616706
6.662164
6.696711
6.722427
6.746583
6.759570
6.765802
6.772035
6.766318
6.751769
6.732545
6.706566
6.671756
6.627074
6.573300
6.510434
6.438737
6.355609
6.263390
6.159740
6.044142
5.920491
5.783591
5.635781
5.477321
5.309509
5.138061
4.958299
4.774901
4.591763
4.405248
4.220291
4.034036
3.850898
3.672695
3.493194
3.317069
3.149777
2.988719
2.828181
2.672318
2.525547
2.379816
2.238241
2.106277
1.973533
1.839491
1.704151
1.577642
1.455549
1.322806
1.190842
1.059657
0.931070
0.808198
0.683508
0.556739
0.432569
0.314892
0.201112
0.083695
-0.037359
-0.150619
-0.256607
-0.360516
-0.463645
-0.565996
-0.664709
-0.759267
-0.854343
-0.954356
-1.051251
-1.139834
-1.226079
-1.313362
-1.403244
-1.491047
-1.575733
-1.660679
-1.748483
-1.838624
-1.925388
-2.015010
-2.105151
-2.191396
-2.280498
-2.370380
-2.458703
-2.545467
-2.634829
-2.722113
-2.803422
-2.886549
-2.967858
-3.041634
-3.117229
-3.191264
-3.261144
-3.331802
-3.399344
-3.466625
-3.535206
-3.605085
-3.674705
-3.744065
-3.816022
-3.886421
-3.954482
-4.026700
-4.097878
-4.167757
-4.239195
-4.306996
-4.371680
-4.435325
-4.494294
-4.548068
-4.598984
-4.643926
-4.683413
-4.716145
-4.743942
-4.768362
-4.785509
-4.798499
-4.810190
-4.819544
-4.819545
-4.814871
-4.808899
-4.796432
-4.779548
-4.755652
-4.724221
-4.688635
-4.647594
-4.598239
-4.541612
-4.482127
-4.416407
-4.341856
-4.268343
-4.187817
-4.100796
-4.016633
-3.927275
-3.842073
-3.733752
-3.622573
-3.538929
-3.441518
-3.358654
-3.262801
-3.140193
-3.043301
-2.938616
-2.837828
-2.744054
-2.637291
-2.531307
-2.412076
-2.314405
-2.232580
-2.122700
-2.004767
-1.883717
-1.764485
-1.642396
-1.498746
-1.342627
-1.191704
-1.040261
-0.879986
-0.711399
-0.520471
-0.325907
-0.131862
0.060105
0.229732
0.412087
0.606132
0.787448
0.967465
1.142547
1.312433
1.477384
1.631165
1.777672
1.914049
2.040554
2.166799
2.283693
2.384481
2.482931
2.575667
2.661648
2.741915
2.812570
2.878029
2.936735
2.985570
3.035443
3.100124
3.148699
3.179090
3.227145
3.274161
3.324295
3.367674
3.399364
3.453913
3.519373
3.574442
3.609249
3.656785
3.721725
3.761208
3.804068
3.857578
3.901997
3.942259
3.974209
4.005379
4.040186
4.071616
4.095253
4.117851
4.137592
4.151618
4.167462
4.181487
4.187200
4.187718
4.188496
4.182779
4.170048
4.152382
4.131859
4.107179
4.073148
4.034181
3.993395
3.948194
3.892602
3.832334
3.769988
3.703226
3.633346
3.558012
3.484755
3.411239
3.337204
3.261869
3.185496
3.112759
3.036125
2.962090
2.885456
2.801809
2.722059
2.633996
2.539438
2.440465
2.330322
2.212645
2.087175
1.953912
1.810519
1.659072
1.502430
1.337216
1.168106
0.993280
0.811181
0.625445
0.438410
0.250077
0.059145
-0.133344
-0.323237
-0.516765
-0.707956
-0.889536
-1.070856
-1.251396
-1.424923
-1.591176
-1.750416
-1.900823
-2.043698
-2.180597
-2.305807
-2.427640
-2.545317
-2.650265
-2.753135
-2.852368
-2.945886
-3.037326
-3.125129
-3.210335
-3.292424
-3.374252
-3.456341
-3.538949
-3.616102
-3.692215
-3.769628
-3.840027
-3.909647
-3.975629
-4.034599
-4.090450
-4.140328
-4.184490
-4.222937
-4.253592
-4.277752
-4.293860
-4.305291
-4.307111
-4.296982
-4.280878
-4.255163
-4.219577
-4.173859
-4.124245
-4.065540
-3.994625
-3.922411
-3.839807
-3.748370
-3.656934
-3.555366
-3.447045
-3.343399
-3.232740
-3.114028
-2.996874
-2.871668
-2.746462
-2.616060
-2.487996
-2.351100
-2.188487
-2.056267
-1.923787
-1.785333
-1.659088
-1.489461
-1.328666
-1.190731
-1.036171
-0.885508
-0.720297
-0.557944
-0.446765
-0.324676
-0.160764
-0.010101
0.134069
0.266289
0.384741
0.532807
0.670482
0.783999
0.895957
1.001162
1.130005
1.266121
1.388210
1.494454
1.591345
1.699147
1.796558
1.900204
2.008785
2.108274
2.210361
2.291667
2.366478
2.446225
2.513503
2.558701
2.586495
2.615847
2.638704
2.651951
2.662340
2.660519
2.645711
2.631682
2.617912
2.592193
2.568033
2.545691
2.517115
2.489578
2.465677
2.441777
2.416058
2.391638
2.366439
2.337083
2.305649
2.278112
2.252653
2.230052
2.208489
2.179653
2.153934
2.130293
2.101717
2.072881
2.046643
2.020145
1.987412
1.952601
1.919869
1.881162
1.837779
1.792577
1.741141
1.689705
1.635932
1.578521
1.522929
1.464739
1.407329
1.350438
1.291728
1.236656
1.186779
1.135862
1.086764
1.042602
0.995322
0.950381
0.909336
0.864913
0.824128
0.784382
0.738921
0.694239
0.647219
0.592926
0.538113
0.482261
0.419655
0.355231
0.288469
0.219628
0.150788
0.077791
0.007133
-0.063526
-0.138601
-0.211597
-0.285113
-0.358370
-0.431107
-0.503843
-0.574502
-0.650356
-0.722573
-0.791673
-0.865449
-0.936887
-1.005987
-1.074308
-1.144187
-1.209131
-1.273296
-1.336421
-1.394871
-1.450982
-1.503977
-1.550217
-1.589444
-1.625554
-1.655429
-1.679329
-1.697515
-1.709466
-1.716222
-1.715964
-1.709731
-1.697264
-1.677523
-1.651029
-1.621157
-1.586870
-1.545569
-1.502449
-1.458030
-1.410495
-1.361920
-1.312826
-1.265290
-1.217494
-1.170218
-1.124761
-1.082680
-1.044236
-1.004753
-0.967608
-0.932801
-0.898514
-0.867863
-0.837472
-0.804743
-0.771754
-0.738765
-0.706296
-0.670710
-0.631487
-0.588887
-0.540312
-0.486022
-0.425758
-0.360558
-0.291981
-0.216650
-0.136643
-0.055078
0.029864
0.114807
0.198710
0.282873
0.362620
0.439250
0.511723
0.575884
0.632512
0.683165
0.725765
0.757974
0.781871
0.799533
0.807325
0.810440
0.808360
0.794331
0.777444
0.755362
0.727565
0.696391
0.661580
0.627289
0.586504
0.544939
0.503115
0.458433
0.413751
0.367770
0.326725
0.284121
0.239180
0.198394
0.156050
0.116564
0.081753
0.047462
0.016808
-0.008651
-0.030214
-0.047101
-0.054896
-0.059573
-0.065030
-0.060356
-0.048149
-0.038020
-0.021656
0.001981
0.025618
0.055490
0.088478
0.121467
0.158352
0.193679
0.232642
0.276022
0.318882
