EVENT_NAME: 202302060117
EVENT_ID: 13194
EVENT_DATE_YYYYMMDD: 2023/02/06
EVENT_TIME_HHMMSS: 01:17:32.00000
EVENT_LATITUDE_DEGREE: 37.288
EVENT_LONGITUDE_DEGREE: 37.043
EVENT_DEPTH_KM: 8.6
HYPOCENTER_REFERENCE: AFAD
MAGNITUDE_W: 7.7
MAGNITUDE_W_REFERENCE: AFAD
MAGNITUDE_L: 
MAGNITUDE_L_REFERENCE: 
FOCAL_MECHANISM: 
NETWORK: TK
STATION_CODE: 0215
STATION_NAME: 
STATION_LATITUDE_DEGREE: 38.029958
STATION_LONGITUDE_DEGREE: 38.556268
STATION_ELEVATION_M: 864.0
LOCATION: Kahramanmaras_Pazarck_Turkiye
SENSOR_DEPTH_M: 
VS30_M/S: None
SITE_CLASSIFICATION_EC8: unknown
MORPHOLOGIC_CLASSIFICATION: 
EPICENTRAL_DISTANCE_KM: 156.69
EARTHQUAKE_BACKAZIMUTH_DEGREE: 
DATE_TIME_FIRST_SAMPLE_YYYYMMDD_HHMMSS: 2023/02/06 01:17:39.0367100
DATE_TIME_FIRST_SAMPLE_PRECISION: millisecond
SAMPLING_INTERVAL_S: 0.01
NDATA: 4100
DURATION_S: 
STREAM: HNN
UNITS: cm/s^2
INSTRUMENT: sensor = ACEBOX/SARA | digitizer = 
INSTRUMENT_ANALOG/DIGITAL: 
INSTRUMENTAL_FREQUENCY_HZ: 
INSTRUMENTAL_DAMPING: 
FULL_SCALE_G: 
N_BIT_DIGITAL_CONVERTER: 
PGA_CM/S^2: 61.404
TIME_PGA_S: 
BASELINE_CORRECTION: BASELINE REMOVED
FILTER_TYPE: BUTTERWORTH
FILTER_ORDER: 
LOW_CUT_FREQUENCY_HZ: 
HIGH_CUT_FREQUENCY_HZ: 
LATE/NORMAL_TRIGGERED: 
DATABASE_VERSION: 
HEADER_FORMAT: DYNA 1.2
DATA_TYPE: Acceleration
PROCESSING: Automatic Paolucci et al., 2011
DATA_TIMESTAMP_YYYYMMDD_HHMMSS: 
DATA_LICENSE: U (unknown license)
DATA_CITATION: Turkish Accelerometric Archive v 1.0 - Disaster And Emergency Management Presidency, Earthquake Department
DATA_CREATOR: AFAD
ORIGINAL_DATA_MEDIATOR_CITATION: : AFAD - Disaster And Emergency Management Presidency
ORIGINAL_DATA_MEDIATOR: AFAD PROCESS SERVICE
ORIGINAL_DATA_CREATOR_CITATION: AFAD PROCESS SERVICE
ORIGINAL_DATA_CREATOR: network: TK
USER1: GuestUser
USER2: 
USER3: 
USER4: 
USER5: 
[...]
-0.111939
0.112786
0.302206
0.407694
0.309544
0.005185
-0.257324
-0.307078
-0.227308
-0.046772
0.189642
0.292792
0.294240
0.270437
0.121553
-0.037384
-0.029857
0.029806
0.012550
-0.058947
-0.124132
-0.083172
0.100871
0.271121
0.312080
0.267470
0.154357
0.000330
-0.127279
-0.162771
-0.041385
0.128630
0.158134
0.049463
-0.070430
-0.104285
-0.041817
0.065074
0.113047
0.058150
0.042764
0.100557
0.134736
0.214039
0.308070
0.288476
0.231708
0.140806
-0.053902
-0.219619
-0.262125
-0.230985
-0.100014
0.111384
0.162864
-0.017115
-0.166934
-0.169461
-0.047841
0.132462
0.151210
0.067088
0.037207
-0.024236
0.034492
0.238642
0.272354
0.145213
-0.029155
-0.175935
-0.121181
0.054446
0.169285
0.115557
-0.155136
-0.343765
-0.136576
0.234506
0.351215
0.225711
0.108390
0.054428
0.055174
0.101745
0.117220
0.082897
-0.020162
-0.099609
0.047495
0.260997
0.262211
0.163827
0.106592
0.096817
0.159520
0.207026
0.255934
0.424080
0.483275
0.312414
0.192054
0.121726
-0.051239
-0.213216
-0.346201
-0.460016
-0.437292
-0.295332
-0.068270
0.200174
0.318053
0.315526
0.366071
0.298782
-0.011889
-0.343836
-0.542753
-0.539902
-0.387188
-0.335006
-0.396216
-0.372557
-0.189449
0.030132
0.020123
-0.160089
-0.207038
-0.225463
-0.342316
-0.345077
-0.229770
-0.170808
-0.188064
-0.270549
-0.312588
-0.216686
-0.154919
-0.234365
-0.314045
-0.235210
0.043989
0.282507
0.164017
-0.236667
-0.566977
-0.600833
-0.378213
-0.058333
0.222970
0.348564
0.355857
0.498986
0.983692
1.678349
2.100164
1.936785
1.355610
0.636728
-0.019262
-0.571680
-1.047880
-1.279060
-1.212851
-0.928275
-0.496406
-0.257888
-0.269533
-0.192335
0.030753
0.426851
0.976085
1.451674
1.711000
1.555336
1.073525
0.629589
0.166481
-0.361622
-0.688191
-0.694927
-0.428586
-0.061947
0.204626
0.314556
0.234642
-0.075094
-0.546150
-0.963200
-1.083093
-0.802959
-0.160205
0.599447
1.087895
1.218399
1.150409
0.947050
0.724052
0.487494
0.091721
-0.280907
-0.542949
-0.855257
-0.995958
-0.968793
-1.161397
-1.237570
-0.643679
0.451472
1.612320
2.356308
2.439819
2.233888
1.787848
0.814595
-0.252644
-0.937625
-1.244790
-1.112650
-0.779677
-0.632106
-0.517267
-0.334159
-0.085821
0.631982
1.707026
2.355391
2.379050
2.002915
1.413791
0.980142
0.729556
0.435952
0.131359
-0.338295
-1.071906
-1.675759
-1.915356
-1.942665
-1.929995
-1.876177
-1.531047
-0.673434
0.577426
1.821740
2.645921
2.794427
2.156907
0.984692
-0.230307
-1.181116
-1.568707
-1.350996
-0.882188
-0.274036
0.296240
0.545279
0.550000
0.317885
0.122709
0.446563
0.845934
0.748252
0.349672
-0.188952
-0.706768
-0.667445
0.120029
1.001724
1.104873
0.381550
-0.353698
-0.442963
-0.014134
0.316500
0.287554
0.099626
-0.185561
-0.298908
0.099761
0.618836
0.993424
1.296471
1.152730
0.629537
0.088341
-0.581911
-0.944485
-0.590237
-0.102959
0.097918
0.116901
0.226129
0.575701
0.836897
0.911290
1.167810
1.508498
1.337170
0.493674
-0.480982
-0.924450
-0.662552
-0.419826
-0.811157
-1.086526
-0.527004
0.635247
2.044622
2.950632
2.855054
2.169137
1.031525
-0.258991
-1.183147
-1.990170
-2.453979
-2.053673
-1.195358
-0.159825
0.942808
1.759741
2.172905
1.884912
1.006347
0.385894
0.166871
0.170890
0.475807
0.698895
0.655687
0.507972
0.316537
0.274966
0.287403
0.467705
1.052477
1.289593
0.855710
0.260975
-0.475676
-1.183101
-1.348351
-0.763345
0.434443
1.712658
2.595054
2.899269
2.517523
1.577235
0.479368
-0.233434
-0.240403
-0.105457
-0.587269
-1.146467
-0.985335
-0.502967
-0.047485
0.460836
0.988795
1.701921
2.041674
1.369786
0.492623
-0.129466
-0.585794
-0.461602
-0.173753
-0.150796
-0.003926
0.135696
0.234403
0.323057
0.135363
0.207184
0.696333
0.905860
1.035663
1.734761
2.499791
2.257622
1.410386
0.813079
-0.074838
-1.428246
-3.091902
-4.880874
-5.223576
-3.798770
-1.606876
1.284540
3.479240
3.400963
1.797860
-0.285229
-2.095008
-2.920969
-2.497050
-1.002105
0.782748
2.366770
3.295691
2.697449
0.439714
-2.891151
-5.857526
-6.994437
-6.575427
-4.902796
-1.937968
0.730405
1.869276
1.972660
1.431932
0.832754
0.942684
1.503609
2.158286
2.383945
1.730761
1.293137
1.581454
1.625921
0.892076
-0.782569
-2.949825
-4.512013
-4.315344
-1.923787
0.931624
2.599345
2.987961
1.826267
0.037997
-0.664285
-0.328040
0.224468
0.454102
0.380501
0.170596
-0.535193
-1.514057
-2.312196
-2.958601
-2.650645
-0.424616
2.847656
5.381128
6.305373
5.534823
3.357981
0.401660
-2.197887
-3.427616
-3.924390
-4.411345
-4.328769
-3.644166
-2.651418
-1.307506
0.050200
0.625386
0.162512
0.180793
1.181023
1.029100
-0.680848
-2.037529
-2.192725
-1.329968
0.424959
2.089173
1.905687
-0.544931
-4.023088
-6.477914
-6.498911
-4.750530
-2.054569
0.551614
1.107395
0.021686
-0.958581
-1.285385
-0.532513
0.652885
1.164478
2.051082
4.145483
5.847338
6.336020
6.229687
4.973773
2.495099
-0.296395
-3.067082
-4.870081
-5.411978
-5.053288
-3.340912
-1.277606
0.412559
2.572657
4.893374
6.765200
7.144464
5.429138
3.602993
2.326271
0.372238
-1.820267
-2.965361
-1.797733
2.125430
6.737360
9.594174
10.151591
7.709390
2.206549
-2.806019
-5.052065
-5.845528
-5.217971
-3.481981
-2.295649
-1.607772
-0.678149
0.716496
1.743379
2.015798
2.264369
2.045580
2.069004
2.776052
1.888837
-0.241245
-1.228058
-0.376991
1.628333
3.322239
3.962421
2.526951
-1.691876
-6.438383
-8.778181
-7.967327
-5.831544
-4.015596
-2.146810
-0.199701
1.515247
3.013932
3.445333
2.144998
0.402084
-0.050736
0.296030
0.170526
-1.045642
-3.664828
-6.213407
-6.688204
-4.722626
-1.268927
2.098266
5.170173
7.822414
8.245398
6.263544
2.866047
-1.932831
-6.599379
-8.447268
-6.618460
-2.570216
1.522216
4.817868
7.023322
7.308132
5.558906
2.507663
-0.238942
-1.028898
-0.011835
1.953743
3.495214
3.145264
1.876725
0.455283
-1.940159
-4.498557
-6.354629
-7.269900
-5.751810
-1.687667
2.319196
3.874694
3.179660
1.031575
-2.980107
-6.697672
-7.046920
-3.921707
2.905218
10.802934
13.400701
9.954574
4.606740
-0.396242
-4.290091
-6.958608
-8.600287
-8.309165
-5.839052
-3.370107
-2.194296
-0.933616
1.248926
2.601021
1.219324
-1.093821
-1.666346
-1.261130
-1.334731
-2.225454
-3.413099
-3.989364
-4.145963
-3.609821
-0.680063
4.597722
7.827910
4.901280
-1.289159
-4.685486
-4.092765
-2.906433
-2.808895
-2.868234
-3.226133
-3.148467
-1.278745
1.714372
5.702063
9.527967
9.951652
6.745402
2.320833
-2.435961
-6.794598
-7.641601
-3.495161
3.397928
10.906840
15.729421
13.663867
6.139147
-1.202977
-4.824685
-4.342317
-1.782659
-0.143228
-0.191345
-0.881937
-2.681196
-5.406058
-6.214016
-3.613912
1.857924
7.065336
7.046677
4.457885
5.045462
5.745964
4.174891
3.276687
2.615086
1.434922
1.328823
2.898349
5.502896
6.563679
4.809309
2.132142
-1.192177
-5.180245
-6.915444
-5.613148
-4.294720
-3.698726
-3.113253
-3.426496
-2.473727
2.503394
8.483038
10.928602
8.384933
2.792313
-1.541542
-2.568334
-2.781278
-4.717075
-7.732781
-11.149917
-13.882494
-12.294498
-6.841366
-2.292094
0.808337
3.608104
5.412129
7.459537
10.144977
10.946947
9.327244
7.016437
5.592423
5.028549
3.032666
-0.851363
-4.375578
-7.693817
-11.606136
-13.115252
-10.749179
-7.899613
-5.936138
-2.364139
4.060188
10.796166
13.467344
11.201192
7.084769
3.813756
1.068320
-3.091122
-6.522286
-6.719799
-6.689361
-7.134700
-5.350314
-1.625645
1.535807
1.663038
0.058532
0.254265
1.490162
1.475478
0.705629
1.280114
3.832290
5.304322
3.418091
0.301384
-1.257998
-0.910531
-1.563014
-4.982020
-7.482671
-7.481924
-6.971266
-5.016208
-1.628909
1.291030
2.275596
0.666648
-0.134063
0.250111
-2.081972
-5.067751
-5.447393
-4.050877
-2.874832
-3.382127
-3.018527
0.787737
4.848373
4.934455
2.056690
0.104528
-2.269171
-6.661475
-7.156613
-1.775022
3.479148
5.460625
5.282751
5.132931
4.979839
2.597724
-0.011876
-0.514262
-1.371551
-4.656825
-9.564185
-11.968745
-9.409087
-6.350974
-5.411298
-4.326200
-2.830320
-0.576469
4.608264
11.224538
13.689273
9.759186
4.197194
1.028117
-1.384392
-3.385885
-3.139418
-2.633202
-4.543982
-7.597797
-8.694728
-6.311822
-1.354807
3.544693
5.011349
3.885893
4.594110
7.629311
10.903220
11.497343
7.032094
0.511066
-4.654873
-7.216311
-3.954794
6.097832
15.723310
15.777362
7.698543
-1.816026
-9.934123
-12.694289
-10.403265
-8.635011
-6.854600
-3.268572
1.317874
7.135730
12.191874
13.435721
11.127719
6.841793
0.140039
-7.393098
-10.551654
-8.085983
-2.872025
2.416280
5.451248
5.507170
5.087315
7.147816
8.500612
5.714027
2.128791
-0.892526
-3.145585
-2.608508
-0.854282
0.878902
2.149635
1.283461
-1.304396
-4.146858
-5.862417
-7.047958
-8.450463
-6.836048
-1.652250
2.945886
4.884811
4.038276
0.590981
-2.802775
-2.698691
0.242758
2.818781
3.424127
1.914777
0.418987
0.560713
0.008295
-1.802420
-2.857268
-3.843380
-6.020455
-7.770149
-6.369658
-2.216906
1.636352
2.974886
0.946272
-0.333022
3.555306
7.570819
7.841835
6.595740
2.265626
-4.033529
-6.422658
-5.337326
-4.117795
-2.641554
-1.602747
-2.789925
-3.491272
-0.334496
3.784589
4.822928
2.509549
-0.261839
-0.252208
0.542046
-0.396138
-0.447060
1.555926
4.213310
7.152888
9.114726
8.562776
5.312338
-0.485556
-8.038332
-15.699823
-20.306285
-18.993235
-13.143582
-4.026379
7.182842
13.389736
11.179696
6.293378
2.789036
0.859786
0.479443
0.036676
-2.466313
-6.367409
-9.323029
-9.638143
-8.515637
-8.334399
-6.185758
0.267326
5.810236
7.708481
7.851376
6.223023
2.701614
-1.390962
-3.437111
-1.249659
2.559411
3.334027
2.447746
2.754299
1.394579
-1.774965
-4.242650
-6.536624
-7.122709
-5.920946
-4.331781
-1.343339
0.143189
-1.007750
-0.647424
0.893813
1.390677
2.400259
5.163086
6.672058
3.737246
-1.030302
-4.255725
-5.831941
-4.984614
-2.277431
0.309581
3.390138
7.541721
11.192277
10.963434
5.567205
-0.583489
-4.285156
-5.327847
-3.646332
-1.168737
2.268128
6.522581
7.481897
5.328201
2.508651
-0.907082
-3.473663
-5.111368
-7.224149
-7.551186
-4.508036
-1.117463
1.737246
3.703059
0.955986
-3.673623
-4.297349
-1.193411
4.236107
6.894895
4.303765
4.224319
7.697188
7.737213
4.263264
1.884889
1.679894
1.404292
0.144404
-1.128344
-0.839325
-0.342227
-2.633395
-3.738510
-0.518142
3.575460
7.204272
8.681448
6.490813
2.598601
-2.654311
-8.474415
-10.679546
-6.523755
-0.408976
1.950083
2.670224
4.287678
4.111908
0.627672
-2.611778
-1.733123
1.033679
2.827884
3.609280
2.506971
0.223751
-2.064144
-4.057922
-3.803272
-0.043533
4.675476
5.759639
4.480579
6.195995
8.671485
7.478697
4.789605
2.186318
-2.454513
-8.770501
-13.255623
-13.607676
-9.026608
0.353851
10.049702
13.341145
9.523982
2.797914
-4.016063
-8.359503
-9.256305
-8.543178
-5.049033
0.817453
3.315622
1.153276
-3.239028
-8.264923
-10.935778
-9.055535
-2.558264
4.500821
7.571326
7.854265
4.432687
-1.501510
-2.888116
-2.414632
-3.316577
-1.849688
-0.931989
-1.537478
-0.109634
2.060518
4.391755
7.108524
8.721770
5.592205
-3.918623
-14.497202
-23.839229
-28.045664
-19.559246
-4.531180
8.963877
19.759277
22.713584
18.014771
10.912523
3.305740
-0.245128
1.478938
3.004043
2.935585
1.950876
0.595131
2.285062
4.906442
3.896249
1.000481
-4.164289
-9.855337
-7.934414
-0.566949
3.911716
4.952393
3.426443
-0.130036
-2.314827
-0.839053
5.530331
14.597969
16.653793
6.508673
-7.770450
-16.620333
-18.419825
-15.592470
-7.738707
2.301761
4.188083
-1.438204
-3.210342
1.905421
11.989610
22.486684
26.436033
22.206218
9.501953
-7.027235
-14.414950
-8.992445
-1.177025
-0.364534
-6.223683
-11.617107
-11.420438
-6.786765
0.535109
8.320369
8.810219
-4.060977
-24.814881
-34.261882
-19.895931
-0.012130
8.781030
14.593509
17.225410
12.978528
10.626806
14.430265
22.346919
24.957778
14.551741
0.516468
-11.141788
-22.942660
-28.710861
-24.325480
-16.646598
-10.360914
-4.466840
0.751327
5.118704
8.542944
8.765798
6.860161
5.569178
5.545142
8.054065
11.124336
9.714817
1.244855
-11.503364
-19.484456
-19.181877
-13.406105
-1.266838
10.677909
13.593640
13.725313
17.182050
19.124950
17.205052
14.985660
9.777637
-2.379308
-13.885596
-17.797680
-13.172424
-4.503644
-3.997896
-11.164672
-15.548326
-15.334122
-11.456550
-8.395865
-6.808570
0.674858
9.776864
15.431997
21.828969
24.336724
20.210247
16.577550
15.340106
15.602238
15.177941
11.780444
6.373693
-4.728826
-20.248244
-29.481321
-27.578633
-17.105406
-6.704188
-2.238616
1.285455
4.367416
5.687948
11.372072
16.111421
10.213463
2.375922
-0.902806
-5.469289
-9.622419
-9.764522
-8.209258
-4.413047
3.917195
14.290357
18.892233
14.732090
6.638775
-1.325952
-3.527342
0.619799
1.524639
1.489147
9.033362
15.589083
13.687421
9.008715
4.391731
-2.795619
-13.393370
-21.002491
-18.715909
-10.908438
-5.092452
-2.254109
-0.421093
1.997351
7.452587
16.211847
20.971537
16.145772
4.479334
-7.446620
-9.829437
0.060934
12.887097
20.120829
18.805297
9.805784
-2.657903
-13.179436
-18.402422
-16.433571
-6.640927
2.308176
1.774929
-3.964749
-10.927186
-17.076477
-18.354134
-18.001757
-18.296062
-14.201058
-5.120561
3.575807
9.559191
16.035888
23.818343
27.791071
25.594357
21.798469
19.102130
15.172511
11.281468
6.635260
-5.132880
-18.777711
-24.219765
-22.448239
-16.766219
-10.977353
-7.332409
-0.198742
12.370712
23.104155
25.094516
19.767724
11.801595
-0.861521
-18.185853
-30.386986
-29.359402
-19.100801
-9.557853
-2.600703
3.613440
9.900994
19.015860
25.554980
24.202976
20.111335
13.403736
2.572655
-7.867750
-18.876985
-29.368125
-26.836990
-8.525944
11.363235
23.161625
27.806754
29.802025
28.248487
15.559887
-4.608823
-20.828931
-29.443848
-28.849022
-18.941818
-3.952329
9.361301
13.568761
7.646722
-2.046234
-8.007552
-6.823557
0.424670
6.571245
2.606556
-3.723460
0.450100
7.266738
7.913467
7.551827
7.496462
5.521154
3.476408
1.852264
2.420904
5.010487
0.101491
-11.983445
-19.037063
-18.459539
-9.375535
4.822316
10.911377
10.657518
9.481797
3.717804
0.622607
4.475163
7.829965
8.565303
7.500869
5.040899
2.134610
0.457861
2.521401
6.966633
8.459941
1.617909
-7.235481
-6.560697
-3.420287
-6.256436
-9.356777
-10.921070
-10.704996
-7.394849
-1.441858
10.806592
23.649588
28.051334
26.996018
16.297033
-6.287972
-25.838054
-32.619767
-24.643260
-6.982637
9.046548
19.949495
22.808646
19.919191
14.528806
1.220409
-6.774009
-4.351357
-9.171043
-11.250858
-6.021937
-11.661784
-15.871726
-6.812271
-0.207219
-2.171071
-7.273184
-9.235633
-3.320284
6.600247
15.231853
22.688862
27.096453
21.314224
6.254919
-10.486790
-27.019251
-34.318825
-26.787936
-15.315927
2.087519
24.750468
33.587114
25.081615
4.421931
-16.293631
-17.886213
-8.842890
1.205528
21.293434
42.072678
45.607504
32.150412
10.984791
-13.612039
-33.435197
-35.667214
-27.742611
-19.452115
-6.755008
-0.214251
-6.846333
-8.825849
4.341424
24.394494
40.517666
46.177475
40.832915
27.687475
5.341177
-25.778363
-52.152052
-61.403599
-54.880844
-43.075907
-31.391376
-13.572239
5.593337
13.692119
15.306768
17.901962
19.173631
14.118511
5.091410
2.223932
5.812765
8.043703
4.738556
-2.613388
-7.742387
-9.419136
-9.620391
-9.871210
-10.807056
-6.903298
1.364052
8.057012
12.657485
11.661788
0.911601
-14.541886
-21.062213
-11.367530
3.344441
11.401841
10.874206
2.097969
-9.390082
-16.461235
-15.381047
-5.839502
4.780550
10.686548
13.910891
14.268178
12.750411
15.618915
23.394589
27.552017
20.415401
3.578302
-17.954615
-37.631883
-43.617983
-34.928629
-21.656615
-7.249281
4.719781
9.900072
10.397170
7.190218
2.610642
-0.798545
-7.178359
-13.740068
-11.441095
-2.676224
4.914283
6.645830
-0.248806
-10.991512
-17.431880
-14.947038
-3.659962
7.965886
11.283280
6.974909
1.265157
-2.280567
-5.678765
-7.450670
-4.418274
0.222179
4.223430
5.083381
2.253077
1.291046
-0.910578
-6.372037
-6.871383
-5.037432
-4.731814
1.434633
10.404077
11.195759
4.894033
-2.085940
-6.730511
-6.740753
-4.314828
-3.588842
-2.438515
0.657240
-0.322560
-7.933551
-10.510419
-0.887513
9.512068
15.332730
19.866572
18.172756
10.213173
2.654786
-4.762154
-13.255496
-16.168331
-9.911403
-4.551089
-4.745329
-4.944479
-6.007978
-6.632406
-1.887679
7.406509
14.772570
14.114476
15.151646
21.625537
17.327453
4.912162
-3.944735
-12.086914
-17.146008
-18.729705
-20.585777
-16.651392
-7.598015
-2.327011
-0.490722
4.222676
12.523225
17.976357
16.120052
10.118755
6.092811
4.164263
-1.195962
-8.949336
-14.382973
-15.538588
-11.161157
-6.537304
-4.395442
-3.301226
-7.293737
-7.256518
3.711658
9.560142
6.408132
2.562446
0.882657
5.133838
7.335552
-2.468224
-16.157944
-21.727417
-17.804020
-11.004683
-2.438307
5.572100
2.497945
-8.439981
-17.207568
-20.288035
-12.252612
1.555967
10.499926
14.726792
13.652772
9.846364
6.486041
-0.605920
-7.023610
-10.060592
-11.955707
-7.499954
-3.260697
-3.434597
2.378349
8.205791
7.179933
5.042136
2.252278
2.989486
7.724160
8.227804
7.430366
8.333103
7.132365
3.661222
-2.665755
-8.512746
-10.092703
-11.139134
-10.048191
-6.152382
-5.269051
-5.488776
-6.760120
-11.503354
-11.568305
-3.121165
5.056641
8.204766
13.935416
23.478598
24.562994
14.499937
-0.139467
-13.499299
-19.058953
-18.387209
-15.555411
-10.264067
-4.096917
-2.549602
-10.579558
-19.001358
-17.368239
-7.097948
12.316622
29.286841
30.167367
26.695990
24.266881
16.689089
10.205936
5.333646
-5.853274
-18.766320
-23.828921
-23.368061
-20.698753
-11.029554
0.389149
3.554108
1.244236
-2.331415
-5.100698
-6.545521
-8.954990
-7.301765
-1.353450
1.536096
5.688380
12.067350
12.164187
8.483795
3.225740
-8.438595
-19.931322
-22.891852
-20.281928
-10.809119
7.391809
20.797322
19.580218
11.640742
5.085579
0.423940
-3.593119
-5.902758
-3.182949
2.539752
4.135229
0.885025
-0.869345
0.244510
-0.541004
-3.211391
-5.282790
-8.401601
-12.751354
-15.758643
-14.898458
-7.710783
3.862226
11.671100
12.551391
13.377442
13.229026
5.829154
0.802557
4.555516
6.477141
2.854497
-0.663405
0.388961
0.000000
0.000000
0.000000
0.000000
0.000000
0.000000
0.000000
0.000000
0.000000
0.000000
0.000000
0.000000
0.000000
0.000000
0.000000
0.000000
0.000000
0.000000
0.000000
0.000000
0.000000
0.000000
0.000000
0.000000
0.000000
0.000000
0.000000
0.000000
0.000000
0.000000
0.000000
0.000000
0.000000
0.000000
0.000000
0.000000
0.000000
0.000000
0.000000
0.000000
0.000000
0.000000
0.000000
0.000000
0.000000
0.000000
0.000000
0.000000
0.000000
0.000000
0.000000
0.000000
0.000000
0.000000
0.000000
0.000000
0.000000
0.000000
0.000000
0.000000
0.000000
0.000000
0.000000
0.000000
0.000000
0.000000
0.000000
0.000000
0.000000
0.000000
0.000000
0.000000
0.000000
0.000000
0.000000
0.000000
0.000000
0.000000
0.000000
0.000000
0.000000
0.000000
0.000000
0.000000
0.000000
0.000000
0.000000
0.000000
0.000000
0.000000
0.000000
0.000000
0.000000
0.000000
0.000000
0.000000
0.000000
0.000000
0.000000
0.000000
0.000000
0.000000
0.000000
0.000000
0.000000
0.000000
0.000000
