EVENT_NAME: 202302060117
EVENT_ID: 13194
EVENT_DATE_YYYYMMDD: 2023/02/06
EVENT_TIME_HHMMSS: 01:17:32.00000
EVENT_LATITUDE_DEGREE: 37.288
EVENT_LONGITUDE_DEGREE: 37.043
EVENT_DEPTH_KM: 8.6
HYPOCENTER_REFERENCE: AFAD
MAGNITUDE_W: 7.7
MAGNITUDE_W_REFERENCE: AFAD
MAGNITUDE_L: 
MAGNITUDE_L_REFERENCE: 
FOCAL_MECHANISM: 
NETWORK: TK
STATION_CODE: 4413
STATION_NAME: 
STATION_LATITUDE_DEGREE: 38.313533
STATION_LONGITUDE_DEGREE: 39.039342
STATION_ELEVATION_M: 930.0
LOCATION: Kahramanmaras_Pazarck_Turkiye
SENSOR_DEPTH_M: 
VS30_M/S: None
SITE_CLASSIFICATION_EC8: unknown
MORPHOLOGIC_CLASSIFICATION: 
EPICENTRAL_DISTANCE_KM: 209.20
EARTHQUAKE_BACKAZIMUTH_DEGREE: 
DATE_TIME_FIRST_SAMPLE_YYYYMMDD_HHMMSS: 2023/02/06 01:17:48.0738080
DATE_TIME_FIRST_SAMPLE_PRECISION: millisecond
SAMPLING_INTERVAL_S: 0.005
NDATA: 9303
DURATION_S: 
STREAM: HNZ
UNITS: cm/s^2
INSTRUMENT: sensor = GEO-A200,/GEObit | digitizer = 
INSTRUMENT_ANALOG/DIGITAL: 
INSTRUMENTAL_FREQUENCY_HZ: 
INSTRUMENTAL_DAMPING: 
FULL_SCALE_G: 
N_BIT_DIGITAL_CONVERTER: 
PGA_CM/S^2: 17.556
TIME_PGA_S: 
BASELINE_CORRECTION: BASELINE REMOVED
FILTER_TYPE: BUTTERWORTH
FILTER_ORDER: 
LOW_CUT_FREQUENCY_HZ: 
HIGH_CUT_FREQUENCY_HZ: 
LATE/NORMAL_TRIGGERED: 
DATABASE_VERSION: 
HEADER_FORMAT: DYNA 1.2
DATA_TYPE: Acceleration
PROCESSING: Automatic Paolucci et al., 2011
DATA_TIMESTAMP_YYYYMMDD_HHMMSS: 
DATA_LICENSE: U (unknown license)
DATA_CITATION: Turkish Accelerometric Archive v 1.0 - Disaster And Emergency Management Presidency, Earthquake Department
DATA_CREATOR: AFAD
ORIGINAL_DATA_MEDIATOR_CITATION: : AFAD - Disaster And Emergency Management Presidency
ORIGINAL_DATA_MEDIATOR: AFAD PROCESS SERVICE
ORIGINAL_DATA_CREATOR_CITATION: AFAD PROCESS SERVICE
ORIGINAL_DATA_CREATOR: network: TK
USER1: GuestUser
USER2: 
USER3: 
USER4: 
USER5: 
[...]
-5.757244
-5.560679
-5.206150
-4.686123
-4.068399
-3.456090
-2.963136
-2.658986
-2.524336
-2.484322
-2.408291
-2.153813
-1.684166
-1.087865
-0.488974
-0.005908
0.241036
0.174170
-0.178726
-0.716659
-1.358175
-2.025116
-2.609896
-3.035771
-3.289793
-3.385614
-3.317822
-3.074409
-2.640074
-2.019055
-1.288802
-0.564905
0.022215
0.342373
0.353195
0.132603
-0.195339
-0.526106
-0.772594
-0.893841
-0.938342
-0.996026
-1.168829
-1.539381
-2.126987
-2.895157
-3.725006
-4.435499
-4.915284
-5.133287
-5.099159
-4.915071
-4.739693
-4.654245
-4.613290
-4.516071
-4.255237
-3.747688
-3.011550
-2.147580
-1.318453
-0.730156
-0.463202
-0.418245
-0.426256
-0.321739
0.000538
0.513267
1.032822
1.345683
1.345675
1.030446
0.488981
-0.108983
-0.598891
-0.881162
-0.921190
-0.734984
-0.397640
-0.029928
0.258920
0.423233
0.472427
0.427456
0.311859
0.159537
0.003214
-0.122506
-0.116628
0.183755
0.846208
1.769738
2.775898
3.721792
4.517961
5.111438
5.475854
5.613565
5.577068
5.435811
5.262537
5.131874
5.070894
5.051818
5.035331
5.039561
5.113710
5.284850
5.553216
5.816404
5.923511
5.809562
5.422530
4.716275
3.755770
2.722758
1.823226
1.229028
1.075530
1.377796
1.991989
2.689519
3.201777
3.322302
2.998598
2.322240
1.467437
0.580853
-0.237460
-0.917349
-1.444924
-1.817830
-2.018412
-2.085278
-2.106708
-2.140615
-2.193591
-2.234561
-2.242102
-2.196203
-2.079915
-1.930669
-1.790369
-1.674081
-1.596636
-1.582283
-1.641851
-1.734612
-1.783586
-1.715559
-1.536650
-1.327137
-1.165649
-1.093619
-1.099277
-1.103757
-0.952628
-0.476624
0.406414
1.656701
3.119097
4.591617
5.907114
6.941995
7.626577
7.948854
7.957557
7.774631
7.543210
7.370878
7.305896
7.326840
7.363322
7.359783
7.319284
7.247240
7.124816
6.911051
6.530376
5.930999
5.121161
4.167483
3.192618
2.345819
1.767630
1.557632
1.758198
2.357089
3.314048
4.527139
5.796259
6.942256
7.842950
8.395464
8.577433
8.417578
7.955920
7.274383
6.446183
5.541001
4.669483
3.943453
3.424118
3.147497
3.120181
3.216694
3.278130
3.203731
2.880262
2.273117
1.491293
0.726890
0.195548
0.096195
0.512168
1.305748
2.209973
2.907032
3.139616
2.860405
2.156504
1.194116
0.182996
-0.733721
-1.471522
-1.994153
-2.321389
-2.516085
-2.649573
-2.721618
-2.669834
-2.455142
-2.100613
-1.662982
-1.196160
-0.784660
-0.506642
-0.409422
-0.556094
-0.988796
-1.694345
-2.590110
-3.512713
-4.295949
-4.858601
-5.198549
-5.356992
-5.385720
-5.294857
-5.077105
-4.754592
-4.354157
-3.888512
-3.347533
-2.722276
-2.037694
-1.358055
-0.731621
-0.159097
0.350572
0.795971
1.203940
1.586012
1.920531
2.160177
2.262811
2.214308
2.054688
1.867996
1.695428
1.539811
1.373129
1.145710
0.879682
0.628250
0.427904
0.344559
0.453549
0.800309
1.376129
2.096730
2.784608
3.220827
3.267902
2.854269
1.978514
0.782593
-0.547985
-1.868441
-3.032816
-3.913279
-4.455449
-4.671098
-4.597891
-4.313516
-3.922262
-3.534069
-3.304075
-3.399897
-3.906048
-4.757085
-5.720885
-6.500355
-6.909986
-6.926237
-6.590071
-5.960105
-5.139452
-4.267950
-3.500266
-2.979769
-2.793798
-2.982844
-3.563858
-4.495407
-5.620232
-6.697032
-7.494629
-7.832223
-7.618472
-6.891751
-5.806255
-4.604464
-3.566052
-2.893476
-2.651711
-2.786612
-3.128914
-3.454031
-3.569863
-3.380125
-2.906240
-2.224248
-1.431845
-0.656157
-0.029723
0.353527
0.535025
0.668734
0.856118
1.073164
1.215819
1.186620
0.942250
0.520848
0.016109
-0.495928
-0.966297
-1.355212
-1.572508
-1.509659
-1.149716
-0.519515
0.361169
1.431833
2.530041
3.442271
4.017149
4.188995
3.992886
3.568659
3.101351
2.736213
2.522684
2.443812
2.436036
2.395772
2.253809
2.041456
1.853822
1.741521
1.684308
1.641925
1.536922
1.281724
0.860557
0.329687
-0.229198
-0.728994
-1.059761
-1.140045
-0.979499
-0.627089
-0.133429
0.442391
1.016799
1.492802
1.812254
1.939607
1.848964
1.564574
1.158474
0.713766
0.313316
0.026572
-0.145760
-0.260651
-0.381191
-0.538221
-0.707022
-0.873233
-1.050509
-1.238849
-1.402471
-1.477105
-1.419435
-1.205214
-0.855629
-0.469790
-0.166817
-0.026752
-0.054774
-0.183318
-0.325753
-0.413570
-0.420876
-0.380862
-0.371453
-0.491994
-0.818994
-1.378585
-2.125097
-2.925283
-3.616707
-4.059061
-4.182662
-3.998574
-3.539992
-2.855880
-2.001328
-1.035423
-0.060809
0.815402
1.510107
1.961392
2.176555
2.215862
2.156294
2.064004
1.935224
1.724048
1.362206
0.779780
-0.053601
-1.135580
-2.416015
-3.755304
-4.922504
-5.698207
-5.978359
-5.771907
-5.177254
-4.366018
-3.551486
-2.918224
-2.547687
-2.414449
-2.400567
-2.344310
-2.119731
-1.697637
-1.129821
-0.481493
0.175545
0.777732
1.307410
1.782237
2.253061
2.778502
3.385868
4.020307
4.546925
4.836950
4.824230
4.527363
4.034865
3.483984
3.040218
2.850229
2.987469
3.429573
4.068720
4.732586
5.222950
5.383496
5.164787
4.605667
3.799124
2.871107
1.917664
0.968695
0.039972
-0.801177
-1.430451
-1.717431
-1.606322
-1.177873
-0.623946
-0.149590
0.082522
-0.035429
-0.529339
-1.318225
-2.236826
-3.101516
-3.765161
-4.138539
-4.205875
-4.021552
-3.685150
-3.331092
-3.060135
-2.885229
-2.769647
-2.674311
-2.580623
-2.499412
-2.520842
-2.787576
-3.353524
-4.106156
-4.778982
-5.059135
-4.724852
-3.729520
-2.234636
-0.509751
1.177703
2.602904
3.638492
4.242326
4.444070
4.316938
3.932732
3.396211
2.827203
2.351420
2.081861
2.051721
2.248050
2.612938
3.030323
3.379437
3.563525
3.555984
3.398954
3.143756
2.823818
2.445732
2.055876
1.746061
1.625050
1.844215
2.476299
3.455387
4.619276
5.729726
6.554616
6.919974
6.745523
6.075757
5.047217
3.807509
2.469397
1.161889
0.037535
-0.772068
-1.158157
-1.043047
-0.424381
0.578013
1.710827
2.666609
3.221712
3.339883
3.176968
2.957788
2.861966
2.963894
3.212957
3.492153
3.648226
3.522977
3.027419
2.190272
1.202459
0.318700
-0.335293
-0.766582
-1.033316
-1.198821
-1.275809
-1.222613
-1.008392
-0.645152
-0.164911
0.379598
0.918694
1.401053
1.815378
2.160726
2.424855
2.602822
2.668260
2.580443
2.314886
1.860526
1.244199
0.521935
-0.250472
-1.020054
-1.736903
-2.356997
-2.856557
-3.236996
-3.518561
-3.705960
-3.757759
-3.628052
-3.316369
-2.851901
-2.301506
-1.783363
-1.398229
-1.135984
-0.877033
-0.516619
-0.007657
0.657385
1.418242
2.168270
2.793292
3.233983
3.486342
3.540716
3.414525
3.152264
2.756522
2.217412
1.576838
0.918608
0.353131
0.003766
-0.051800
0.181490
0.619121
1.107837
1.469664
1.566412
1.346526
0.851910
0.193444
-0.489270
-1.097828
-1.601390
-1.990069
-2.275872
-2.473158
-2.565448
-2.507779
-2.253066
-1.820144
-1.295880
-0.776324
-0.339399
-0.027010
0.160845
0.267010
0.357637
0.504294
0.737819
1.007598
1.216170
1.271720
1.133288
0.840894
0.467752
0.050352
-0.363046
-0.674273
-0.832009
-0.849908
-0.742802
-0.547649
-0.339078
-0.184653
-0.103677
-0.073787
-0.111225
-0.286853
-0.661878
-1.240303
-1.974102
-2.802538
-3.620852
-4.288970
-4.703074
-4.767114
-4.421296
-3.715997
-2.802120
-1.847751
-0.970834
-0.262945
0.230008
0.519562
0.660569
0.718474
0.706225
0.661253
0.688318
0.885589
1.295912
1.896686
2.651658
3.480079
4.249882
4.872079
5.319833
5.637637
5.900824
6.142118
6.359164
6.527479
6.603511
6.532879
6.267557
5.802839
5.189102
4.494146
3.765291
3.046559
2.381972
1.780712
1.227948
0.715675
0.226473
-0.258727
-0.719443
-1.068102
-1.179696
-0.991842
-0.549503
-0.027358
0.299863
0.234410
-0.231721
-0.984118
-1.880119
-2.769528
-3.534637
-4.102468
-4.380972
-4.306824
-3.903093
-3.250763
-2.488023
-1.750001
-1.148756
-0.800583
-0.813303
-1.294030
-2.232170
-3.447630
-4.704995
-5.772378
-6.461684
-6.667445
-6.416734
-5.826318
-4.996484
-4.006568
-2.924368
-1.822158
-0.809641
-0.039603
0.329522
0.215808
-0.346372
-1.194113
-2.106593
-2.919962
-3.524047
-3.880474
-4.026204
-4.024093
-3.935820
-3.777628
-3.524092
-3.142726
-2.624582
-2.000502
-1.310505
-0.658411
-0.178640
0.067833
0.074888
-0.079788
-0.261537
-0.375250
-0.361839
-0.191641
0.120278
0.465391
0.693737
0.721979
0.515983
0.079514
-0.573067
-1.430930
-2.454526
-3.600303
-4.805641
-5.997559
-7.076243
-7.907504
-8.403297
-8.509478
-8.195440
-7.499323
-6.533889
-5.440389
-4.345477
-3.380750
-2.621070
-2.056550
-1.674006
-1.490625
-1.527828
-1.753835
-2.081777
-2.401950
-2.616892
-2.664689
-2.529332
-2.228949
-1.782608
-1.280238
-0.879803
-0.676175
-0.677124
-0.824973
-1.014726
-1.170814
-1.263340
-1.248987
-1.065135
-0.683062
-0.136434
0.496122
1.087950
1.528170
1.784060
1.851381
1.769920
1.634078
1.514714
1.434665
1.399816
1.405223
1.455595
1.579181
1.793873
2.108381
2.515172
2.930203
3.215285
3.303793
3.238105
3.134279
3.110259
3.226312
3.461720
3.708899
3.873448
3.913226
3.841887
3.759249
3.773366
3.989000
4.468299
5.135696
5.841230
6.450479
6.866923
7.031942
6.944360
6.700461
6.449500
6.306360
6.308707
6.456069
6.726320
7.057071
7.389471
7.658780
7.786603
7.772471
7.706547
7.693121
7.770800
7.903332
8.041043
8.132612
8.125542
7.961450
7.612321
7.147131
6.642156
6.114817
5.573118
4.983158
4.248417
3.286029
2.118594
0.873236
-0.338929
-1.451041
-2.383767
-3.057300
-3.388067
-3.350878
-2.987639
-2.359086
-1.638249
-1.068079
-0.828433
-0.992055
-1.510448
-2.247543
-3.023482
-3.666410
-4.045908
-4.063808
-3.692564
-3.007276
-2.170379
-1.391160
-0.843590
-0.639727
-0.834188
-1.382950
-2.161949
-2.983794
-3.653560
-4.082024
-4.263302
-4.202337
-3.958453
-3.657128
-3.414893
-3.287305
-3.292021
-3.428098
-3.668230
-4.014299
-4.498322
-5.132069
-5.901652
-6.750804
-7.603724
-8.387431
-9.027064
-9.480012
-9.730266
-9.773826
-9.629523
-9.329611
-8.907518
-8.376427
-7.761527
-7.141685
-6.604473
-6.221459
-6.037371
-6.060214
-6.264327
-6.567550
-6.830752
-6.898560
-6.663387
-6.115110
-5.343660
-4.514767
-3.814177
-3.372309
-3.227300
-3.324534
-3.524645
-3.671788
-3.681212
-3.531495
-3.234643
-2.857749
-2.521583
-2.321016
-2.298894
-2.452157
-2.700529
-2.930067
-3.047782
-2.998588
-2.799904
-2.527535
-2.276118
-2.115572
-2.092744
-2.214933
-2.433877
-2.662944
-2.780660
-2.690738
-2.384705
-1.924239
-1.407979
-0.933153
-0.562144
-0.334505
-0.271891
-0.356649
-0.559585
-0.881641
-1.337649
-1.916074
-2.561121
-3.202637
-3.802249
-4.308872
-4.648114
-4.804438
-4.835520
-4.792211
-4.676394
-4.458877
-4.054440
-3.388926
-2.498119
-1.486074
-0.469320
0.496585
1.422704
2.318219
3.176302
3.956464
4.591138
4.974623
4.980971
4.565219
3.793518
2.835839
1.934894
1.314330
1.091148
1.213086
1.483336
1.662010
1.540763
1.031551
0.226421
-0.669815
-1.425979
-1.834198
-1.779824
-1.287577
-0.459391
0.553832
1.557638
2.392180
2.960232
3.244136
3.302982
3.224581
3.125228
3.111802
3.217732
3.406763
3.602151
3.736566
3.812598
3.912878
4.175359
4.712571
5.515332
6.454164
7.325195
7.923144
8.105349
7.779055
6.932256
5.659590
4.119726
2.519832
1.088731
0.021818
-0.563904
-0.654312
-0.320264
0.282864
0.911888
1.306203
1.334445
0.998734
0.329675
-0.561853
-1.444906
-2.037455
-2.122683
-1.651388
-0.728094
0.420258
1.507401
2.332998
2.844078
3.094318
3.203543
3.292288
3.422701
3.580187
3.670108
3.586999
3.297430
2.850367
2.338094
1.831707
1.360868
0.915453
0.463447
-0.026932
-0.570750
-1.076196
-1.384834
-1.450758
-1.368134
-1.302696
-1.399930
-1.692089
-2.099601
-2.487810
-2.739006
-2.803518
-2.695940
-2.453234
-2.111888
-1.743234
-1.379759
-0.927062
-0.261548
0.643148
1.702277
2.788950
3.723779
4.248514
4.114319
3.197366
1.545916
-0.676183
-3.219389
-5.772483
-8.030130
-9.736903
-10.756026
-11.086322
-10.802183
-9.997303
-8.763966
-7.219880
-5.551966
-4.061084
-3.077523
-2.793619
-3.249863
-4.368331
-5.903016
-7.483841
-8.769926
-9.535036
-9.653458
-9.097177
-7.944352
-6.358362
-4.572504
-2.823842
-1.296000
-0.124106
0.604263
0.823193
0.506551
-0.247965
-1.164212
-1.891654
-2.205942
-2.024915
-1.330445
-0.139248
1.482055
3.352663
5.191489
6.674838
7.484426
7.404142
6.377956
4.487087
1.926460
-0.985408
-3.829711
-6.173755
-7.710558
-8.313231
-8.005314
-6.992327
-5.583134
-4.060000
-2.654574
-1.513285
-0.719234
-0.314562
-0.260188
-0.445233
-0.715733
-0.910429
-0.905022
-0.646072
-0.181839
0.379620
0.944611
1.436858
1.783148
1.890490
1.681433
1.195056
0.562251
-0.133646
-0.921120
-1.827950
-2.758322
-3.544383
-4.071487
-4.330217
-4.395199
-4.369311
-4.313995
-4.252795
-4.163109
-3.904865
-3.230405
-1.951869
-0.071609
2.232871
4.681660
6.989200
8.891825
10.188959
10.830931
10.874711
10.412582
9.537769
8.352207
7.012682
5.735543
4.724188
4.141997
4.086667
4.518648
5.336240
6.401490
7.503229
8.440177
9.080031
9.391949
9.413129
9.176058
8.729231
8.156456
7.563436
7.005257
6.483333
6.021674
5.609924
5.206178
4.808789
4.413753
4.025309
3.691717
3.435107
3.262775
3.267475
3.571390
4.184406
5.030954
6.038762
7.116960
8.103817
8.825359
9.150461
9.014148
8.459029
7.642364
6.813928
6.226322
6.029742
6.254321
6.807071
7.476822
8.016858
8.291346
8.322649
8.203756
8.030483
7.802357
7.329163
6.346059
4.693902
2.379520
-0.393923
-3.240110
-5.688208
-7.340600
-7.968227
-7.526358
-6.179787
-4.285637
-2.348877
-0.889541
-0.221909
-0.388591
-1.224090
-2.454852
-3.771541
-4.908137
-5.756819
-6.373616
-6.916964
-7.570015
-8.475903
-9.681947
-11.082679
-12.443156
-13.515483
-14.148759
-14.266946
-13.795650
-12.714392
-11.134052
-9.254028
-7.304320
-5.487622
-3.987559
-2.997643
-2.562366
-2.565434
-2.918330
-3.537010
-4.257391
-4.913974
-5.421773
-5.734649
-5.825527
-5.709003
-5.363891
-4.701202
-3.652667
-2.204395
-0.443962
1.432296
3.210856
4.667367
5.580774
5.833368
5.441157
4.524675
3.303800
2.051615
0.956924
0.030083
-0.816951
-1.691764
-2.734664
-4.035345
-5.582036
-7.349075
-9.275963
-11.196258
-12.863717
-14.034448
-14.582033
-14.533545
-14.009987
-13.175916
-12.194945
-11.165243
-10.107291
-9.017087
-7.901929
-6.770527
-5.684090
-4.797286
-4.253482
-4.127071
-4.397807
-4.878299
-5.310059
-5.520293
-5.501938
-5.354104
-5.126465
-4.812192
-4.368205
-3.746478
-2.955724
-2.038080
-1.078767
-0.191962
0.521811
1.003465
1.296315
1.482051
1.618349
1.742641
1.816084
1.744510
1.482013
1.134767
0.938423
1.147229
1.986480
3.544220
5.688381
8.130815
10.546175
12.687982
14.391680
15.539561
16.062883
15.915976
15.113906
13.784269
12.174488
10.633212
9.462010
8.792950
8.561764
8.529505
8.430622
8.092322
7.465873
6.613659
5.603953
4.482424
3.291682
2.026314
0.668191
-0.725714
-2.003559
-2.966183
-3.439847
-3.320734
-2.594483
-1.323715
0.355735
2.234347
4.095067
5.807240
7.337436
8.640927
9.618132
10.193481
10.364621
10.184049
9.739812
9.092646
8.214772
7.080295
5.769491
4.446681
3.311263
2.570166
2.402307
2.889139
3.947562
5.325915
6.684729
7.719375
8.217507
8.085431
7.390241
6.307320
5.073026
3.938785
3.009590
2.171502
1.219943
0.075578
-1.121049
-2.175249
-3.001566
-3.605180
-3.988210
-4.092977
-3.921366
-3.662181
-3.599568
-3.949639
-4.751002
-5.874415
-7.115064
-8.310514
-9.343998
-10.013058
-10.103936
-9.558013
-8.499355
-7.274023
-6.223133
-5.413545
-4.852556
-4.585837
-4.601853
-4.824329
-5.127317
-5.461615
-5.831932
-6.204603
-6.522657
-6.735481
-6.843544
-6.848260
-6.705605
-6.357432
-5.811981
-5.206969
-4.735674
-4.488966
-4.380446
-4.236379
-3.898094
-3.293553
-2.495265
-1.664960
-0.974257
-0.575706
-0.537105
-0.781239
-1.148730
-1.449129
-1.445134
-0.929345
0.133550
1.565814
3.084475
4.358774
5.045475
4.979786
4.287656
3.303374
2.450455
2.068838
2.308013
3.144674
4.364592
5.584510
6.439063
6.733325
6.462825
5.825076
5.174614
4.873980
5.118805
5.864360
6.899006
7.932945
8.736177
9.197114
9.259963
8.954385
8.358776
7.548466
6.631043
5.667242
4.618692
3.376394
1.845006
0.044772
-1.897181
-3.729432
-5.147349
-5.977198
-6.195201
-5.860211
-5.068750
-3.903449
-2.479425
-0.949229
0.688553
2.523378
4.415408
5.978092
6.823228
6.750948
5.761487
4.070957
2.097693
0.264972
-1.162127
-2.135109
-2.712591
-2.950840
-3.031595
-3.208164
-3.580365
-4.068154
-4.500856
-4.797959
-5.067753
-5.473853
-6.060046
-6.676373
-7.076352
-7.054466
-6.497714
-5.417633
-3.969597
-2.396084
-0.925212
0.299649
1.211408
1.788170
2.041705
2.034635
1.864657
1.587565
1.213953
0.758886
0.296757
0.000361
0.029074
0.416561
1.085371
1.887661
2.674885
3.366529
3.954826
4.463788
4.955094
5.603422
6.600166
7.956154
9.482819
10.873414
11.799062
11.992567
11.305145
9.801300
7.740696
5.437379
3.111697
0.831215
-1.361457
-3.362500
-5.062682
-6.374898
-7.243826
-7.595074
-7.347895
-6.546546
-5.351582
-3.977702
-2.704580
-1.851675
-1.651108
-2.111825
-3.086925
-4.369714
-5.736783
-6.971547
-7.832000
-8.092142
-7.494193
-5.850526
-3.332289
-0.404192
2.421028
4.767647
6.519369
7.739288
8.523451
8.975442
9.234863
9.427426
9.602568
9.760054
9.838910
9.801707
9.781689
9.975900
10.546070
11.550818
12.848423
14.229837
15.537094
16.633419
17.356845
17.555529
17.178149
16.232947
14.731927
12.685213
10.124821
7.314182
4.846780
3.341523
3.095741
4.034337
5.832437
8.036394
10.157484
11.717814
12.414873
12.220883
11.275445
9.835633
8.105318
6.191144
4.194338
2.219426
0.438967
-0.996843
-2.018085
-2.559313
-2.586629
-2.239869
-1.811890
-1.536461
-1.590614
-2.156326
-3.321878
-4.916829
-6.535556
-7.752194
-8.236452
-7.809886
-6.483089
-4.467935
-2.125083
0.171157
2.123219
3.509812
4.176031
4.087743
3.328990
2.082455
0.649470
-0.644148
-1.645615
-2.503243
-3.458804
-4.519125
-5.458442
-5.999907
-5.979904
-5.362180
-4.202528
-2.711882
-1.141429
0.280476
1.295111
1.652465
1.112178
-0.402025
-2.662732
-5.289040
-7.920998
-10.279403
-12.184867
-13.592662
-14.530803
-14.990813
-14.917371
-14.238909
-12.964375
-11.318118
-9.590172
-7.916843
-6.341447
-4.819490
-3.249979
-1.669404
-0.251736
0.867189
1.699847
2.355474
2.819471
2.787682
1.878498
0.028121
-2.426098
-4.961065
-7.125016
-8.722085
-9.726377
-10.179325
-10.305280
-10.442064
-10.804142
-11.411051
-12.100121
-12.519640
-12.186534
-10.698242
-8.063474
-4.834045
-1.790594
0.470098
1.713558
2.029714
1.787228
1.535561
1.697755
2.436954
3.702542
5.200251
6.487734
7.139358
6.780576
5.191040
2.574855
-0.541825
-3.694052
-6.469849
-8.511855
-9.677407
-10.015472
-9.720974
-8.979892
-7.829186
-6.315940
-4.609652
-2.895360
-1.343741
-0.146423
0.539572
0.646679
0.222216
-0.596804
-1.677841
-2.883885
-3.973162
-4.761578
-5.291271
-5.596613
-5.597091
-5.257629
-4.577991
-3.511799
-2.060702
-0.452112
0.958493
2.000201
2.716564
3.144072
3.190206
2.845550
2.319858
1.818415
1.453748
1.274589
1.238327
1.197122
0.995599
0.663890
0.338773
0.095581
-0.055564
-0.090413
0.095088
0.508235
0.944689
1.202462
1.188800
0.801769
-0.045736
-1.237184
-2.316809
-2.658169
-1.907200
-0.142529
2.336864
5.213876
8.153978
10.752492
12.695138
13.877625
14.272174
13.890557
12.933349
11.783334
10.790577
10.155182
10.047825
10.626706
11.786357
13.085375
