EVENT_NAME: 202302060117
EVENT_ID: 13194
EVENT_DATE_YYYYMMDD: 2023/02/06
EVENT_TIME_HHMMSS: 01:17:32.00000
EVENT_LATITUDE_DEGREE: 37.288
EVENT_LONGITUDE_DEGREE: 37.043
EVENT_DEPTH_KM: 8.6
HYPOCENTER_REFERENCE: AFAD
MAGNITUDE_W: 7.7
MAGNITUDE_W_REFERENCE: AFAD
MAGNITUDE_L: 
MAGNITUDE_L_REFERENCE: 
FOCAL_MECHANISM: 
NETWORK: TK
STATION_CODE: 1211
STATION_NAME: 
STATION_LATITUDE_DEGREE: 38.96616
STATION_LONGITUDE_DEGREE: 41.0504
STATION_ELEVATION_M: 1383.0
LOCATION: Kahramanmaras_Pazarck_Turkiye
SENSOR_DEPTH_M: 
VS30_M/S: 463
SITE_CLASSIFICATION_EC8: B
MORPHOLOGIC_CLASSIFICATION: 
EPICENTRAL_DISTANCE_KM: 397.05
EARTHQUAKE_BACKAZIMUTH_DEGREE: 
DATE_TIME_FIRST_SAMPLE_YYYYMMDD_HHMMSS: 2023/02/06 01:18:02.5943590
DATE_TIME_FIRST_SAMPLE_PRECISION: millisecond
SAMPLING_INTERVAL_S: 0.01
NDATA: 21001
DURATION_S: 
STREAM: HNE
UNITS: cm/s^2
INSTRUMENT: sensor = CMG-5T/GURALP | digitizer = 
INSTRUMENT_ANALOG/DIGITAL: 
INSTRUMENTAL_FREQUENCY_HZ: 
INSTRUMENTAL_DAMPING: 
FULL_SCALE_G: 
N_BIT_DIGITAL_CONVERTER: 
PGA_CM/S^2: 27.546
TIME_PGA_S: 
BASELINE_CORRECTION: BASELINE REMOVED
FILTER_TYPE: BUTTERWORTH
FILTER_ORDER: 
LOW_CUT_FREQUENCY_HZ: 
HIGH_CUT_FREQUENCY_HZ: 
LATE/NORMAL_TRIGGERED: 
DATABASE_VERSION: 
HEADER_FORMAT: DYNA 1.2
DATA_TYPE: Acceleration
PROCESSING: Automatic Paolucci et al., 2011
DATA_TIMESTAMP_YYYYMMDD_HHMMSS: 
DATA_LICENSE: U (unknown license)
DATA_CITATION: Turkish Accelerometric Archive v 1.0 - Disaster And Emergency Management Presidency, Earthquake Department
DATA_CREATOR: AFAD
ORIGINAL_DATA_MEDIATOR_CITATION: : AFAD - Disaster And Emergency Management Presidency
ORIGINAL_DATA_MEDIATOR: AFAD PROCESS SERVICE
ORIGINAL_DATA_CREATOR_CITATION: AFAD PROCESS SERVICE
ORIGINAL_DATA_CREATOR: network: TK
USER1: GuestUser
USER2: 
USER3: 
USER4: 
USER5: 
[...]
4.770382
4.789061
4.720973
4.565514
4.344076
4.109080
3.895174
3.717722
3.570698
3.463143
3.410118
3.381195
3.353176
3.305876
3.251345
3.203743
3.187173
3.198018
3.198018
3.142885
2.994355
2.759661
2.485198
2.236343
2.028763
1.874811
1.784127
1.758518
1.795876
1.902227
2.089319
2.338776
2.595464
2.828652
3.034423
3.194100
3.310694
3.384506
3.421864
3.443255
3.438133
3.383602
3.267912
3.090158
2.876553
2.629205
2.326422
1.926327
1.391260
0.749842
0.043348
-0.705625
-1.494066
-2.320166
-3.163138
-3.956098
-4.651444
-5.218748
-5.660721
-6.021650
-6.362695
-6.709163
-7.038760
-7.337024
-7.632877
-7.958859
-8.304423
-8.625283
-8.869317
-8.956988
-8.831657
-8.465004
-7.892277
-7.182771
-6.392222
-5.550154
-4.682177
-3.803353
-2.929350
-2.089090
-1.299143
-0.570657
0.106914
0.760985
1.429518
2.125165
2.817197
3.439935
3.953009
4.333521
4.598946
4.767359
4.891184
4.995727
5.071950
5.095750
5.050860
4.936073
4.741449
4.476024
4.162998
3.846055
3.545682
3.275437
3.031704
2.802432
2.593346
2.389382
2.213135
2.083285
1.982960
1.863051
1.675356
1.412342
1.077925
0.662765
0.170781
-0.379049
-0.935206
-1.441350
-1.857112
-2.145132
-2.286431
-2.286733
-2.174356
-1.976719
-1.729070
-1.481722
-1.276252
-1.108742
-0.951777
-0.815299
-0.744800
-0.722807
-0.710154
-0.688763
-0.654719
-0.589342
-0.501972
-0.439307
-0.453467
-0.592054
-0.871036
-1.288907
-1.803789
-2.390675
-3.025465
-3.646095
-4.215809
-4.706588
-5.130183
-5.518529
-5.862888
-6.147896
-6.377770
-6.543171
-6.633855
-6.649823
-6.563357
-6.372046
-6.095474
-5.759852
-5.370905
-4.973521
-4.606566
-4.248047
-3.871452
-3.458703
-3.010705
-2.532278
-2.025832
-1.465760
-0.862303
-0.273910
0.236754
0.639862
0.943849
1.152031
1.250850
1.229459
1.155948
1.108948
1.107442
1.127627
1.138774
1.132749
1.119191
1.126120
1.170709
1.276457
1.448185
1.656367
1.881119
2.119127
2.306822
2.349001
2.169139
1.797966
1.303571
0.795920
0.343101
-0.032591
-0.351944
-0.607125
-0.788192
-0.877672
-0.875563
-0.786084
-0.639664
-0.508006
-0.455584
-0.489929
-0.563441
-0.666779
-0.794822
-0.965947
-1.176238
-1.468175
-1.866161
-2.322294
-2.754927
-3.170990
-3.656347
-4.263118
-4.914478
-5.457679
-5.783359
-5.893928
-5.854160
-5.734252
-5.513717
-5.145859
-4.661105
-4.117301
-3.545478
-2.945336
-2.331033
-1.739929
-1.233483
-0.842727
-0.552900
-0.306757
-0.129908
-0.054287
-0.136536
-0.384487
-0.764095
-1.183171
-1.598330
-1.990893
-2.368694
-2.710944
-3.023067
-3.260172
-3.415028
-3.509026
-3.586153
-3.590371
-3.515655
-3.316210
-2.998966
-2.553679
-2.089111
-1.656177
-1.296754
-0.959927
-0.645696
-0.329054
-0.061822
0.223185
0.512712
0.805553
1.054106
1.324953
1.550910
1.731977
1.813021
1.841943
1.772649
1.634062
1.347849
0.966132
0.490717
0.044226
-0.395036
-0.710774
-0.928597
-0.911424
-0.790311
-0.636660
0.033078
-0.088036
-0.155522
-0.335987
-0.410402
-0.602616
-0.827670
-0.901182
-1.004218
-1.147325
-1.328995
-1.429320
-1.436551
-1.322970
-1.156062
-0.992469
-0.883709
-0.754461
-0.633348
-0.512235
-0.401968
-0.231144
-0.012418
0.246981
0.508188
0.822118
1.108029
1.297833
1.318922
1.215585
1.043556
0.924852
0.944134
1.181239
1.462932
1.602423
1.628634
1.742516
2.023908
2.443285
2.924122
3.471843
4.061441
4.672731
5.269861
5.818184
6.215266
6.406878
6.391212
6.220086
5.920316
5.502747
5.011365
4.502207
3.987024
3.465515
2.931351
2.406226
1.863326
1.304759
0.754025
0.226490
-0.257059
-0.644199
-0.880099
-0.880400
-0.619194
-0.148299
0.401230
0.913400
1.314399
1.550900
1.610854
1.567169
1.518362
1.472869
1.335487
1.074280
0.771799
0.564219
0.555181
0.812772
1.320724
1.955513
2.550534
2.937976
3.052160
2.953341
2.734614
2.499317
2.368864
2.417972
2.612898
2.837951
3.001243
3.057883
3.009980
2.912667
2.920199
3.201893
3.778837
4.552816
5.371987
6.094749
6.594868
6.807569
6.762679
6.529189
6.118248
5.492497
4.704960
3.820412
2.925621
2.050412
1.166467
0.251791
-0.626129
-1.363051
-1.961386
-2.450961
-2.884799
-3.343041
-3.919383
-4.631902
-5.413715
-6.125029
-6.636295
-6.942693
-7.113517
-7.200586
-7.266265
-7.334956
-7.344597
-7.145453
-6.645937
-5.913835
-5.125696
-4.478253
-4.113106
-4.090510
-4.380338
-4.795196
-5.031999
-4.816587
-4.077857
-2.947166
-1.639626
-0.390835
0.650677
1.437009
2.032934
2.527630
2.926219
3.139823
3.092523
2.819265
2.422785
2.001600
1.570172
1.109219
0.605485
0.088494
-0.422471
-0.942173
-1.412767
-1.760440
-2.043640
-2.383179
-2.804364
-3.215606
-3.568100
-3.882633
-4.122750
-4.173064
-3.979945
-3.621426
-3.212896
-2.760680
-2.183434
-1.431448
-0.538163
0.338853
0.994129
1.292694
1.249310
0.986597
0.697974
0.520522
0.483766
0.504252
0.443394
0.199662
-0.201337
-0.628246
-0.999720
-1.294068
-1.446212
-1.335042
-0.904819
-0.282683
0.325293
0.794682
1.009190
0.873917
0.421400
-0.245024
-0.997613
-1.788163
-2.621795
-3.451812
-4.158004
-4.674091
-5.032911
-5.291708
-5.570690
-6.044899
-6.735124
-7.356356
-7.534712
-7.080990
-6.089187
-4.876851
-3.738327
-2.687174
-1.917713
-1.332936
-0.795459
-0.328480
-0.045883
-0.005813
-0.113369
-0.384819
-0.825888
-1.440492
-2.145178
-2.790211
-3.286715
-3.671445
-3.963985
-4.038400
-3.683798
-2.947780
-2.150602
-1.620356
-1.442904
-1.491410
-1.506172
-1.264549
-0.697848
0.177963
1.308352
2.558349
3.736942
4.720610
5.511461
6.150769
6.669567
7.144981
7.662273
8.162995
8.413958
8.148533
7.219095
5.681681
3.862573
2.178739
0.899217
0.106559
-0.268832
-0.407118
-0.464662
-0.457733
-0.330293
-0.012748
0.403014
0.630779
0.422898
-0.071497
-0.586680
-1.030460
-1.480568
-1.967129
-2.389820
-2.657354
-2.729359
-2.705558
-2.795640
-3.018585
-3.283708
-3.588902
-4.036599
-4.676510
-5.405298
-6.069312
-6.481157
-6.679698
-6.693858
-6.471215
-5.837329
-4.736766
-3.188205
-1.342585
0.497913
1.946149
2.809908
3.217535
3.403423
3.469704
3.388359
3.103954
2.577021
1.841906
0.987486
0.189103
-0.349881
-0.572524
-0.551736
-0.427912
-0.391759
-0.571621
-1.015100
-1.722196
-2.644102
-3.732012
-4.932298
-6.167531
-7.285569
-8.081541
-8.483444
-8.527732
-8.123419
-7.145777
-5.604145
-3.839267
-2.267809
-1.034685
-0.091991
0.599138
0.985675
1.068225
0.944099
0.807922
0.745557
0.666924
0.430422
0.052019
-0.361333
-0.716839
-0.865971
-0.751486
-0.543606
-0.348077
-0.188100
-0.041981
0.092991
0.301474
0.663307
1.089915
1.358051
1.428851
1.501157
1.757844
2.061230
2.146491
2.052191
2.078101
2.283571
2.505311
2.696019
2.900887
3.282905
3.899317
4.671187
5.475294
6.241139
6.836762
7.191063
7.298016
7.106103
6.599055
5.997706
5.628643
5.622617
5.883221
6.246862
6.562901
6.676783
6.598752
6.529459
6.524638
6.388762
6.004936
5.577424
5.228245
4.756446
3.937275
2.800558
1.522845
0.303578
-0.628270
-1.102781
-1.192862
-1.255829
-1.531196
-2.050898
-2.877300
-3.981780
-4.982921
-5.448996
-5.286608
-4.723523
-4.019741
-3.373804
-2.943883
-2.900198
-3.215634
-3.710331
-4.284865
-4.883502
-5.447190
-5.916278
-6.206106
-6.246477
-6.113614
-5.915676
-5.635790
-5.267630
-4.974488
-4.901881
-4.950989
-4.884105
-4.613258
-4.228227
-3.780530
-3.223470
-2.514566
-1.596878
-0.362548
1.187218
2.755061
3.999935
4.805247
5.263790
5.495773
5.517766
5.319224
5.017646
4.784760
4.732940
4.954981
5.484323
6.197445
6.837958
7.189247
7.330847
7.412492
7.276617
6.881944
6.583982
6.568014
6.555360
6.213411
5.256557
3.745053
2.197696
1.127863
0.661788
0.539169
0.511150
0.567187
0.856714
1.401723
2.052480
2.801453
3.595317
4.007162
3.648040
2.584835
1.409857
0.568090
0.045074
-0.455648
-1.135328
-1.960223
-2.688408
-3.156592
-3.461785
-3.776921
-4.270111
-4.975098
-5.649656
-5.997329
-5.953945
-5.567709
-5.076628
-4.855793
-5.064276
-5.510467
-5.893088
-5.969914
-5.561082
-4.678944
-3.614534
-2.600438
-1.830676
-1.453478
-1.355564
-1.238668
-1.028378
-0.872316
-0.964808
-1.373942
-1.761082
-1.616771
-0.618642
0.986860
2.867127
4.964614
7.054870
8.658565
9.540100
9.859151
9.901631
9.854029
9.647655
8.963757
7.665255
6.068791
4.816384
4.384655
4.690451
5.244498
5.513538
5.390014
5.135737
4.997451
4.944125
4.709430
4.222567
3.831510
3.795056
3.987571
4.009564
3.595309
2.864111
2.279333
2.253724
2.592962
2.674607
2.300723
1.688529
1.026022
0.467154
0.014637
-0.399920
-0.745484
-0.950955
-1.172393
-1.207040
-0.561706
0.650630
2.109110
3.685389
4.974551
5.120670
3.785412
1.506858
-0.730121
-2.501325
-3.946549
-4.987761
-5.690639
-6.305243
-6.445337
-5.447509
-3.521147
-1.654137
-0.717769
-0.484280
-0.186017
0.131227
-0.119736
-0.787666
-1.073276
-0.855152
-0.592138
-0.717770
-1.158839
-1.778565
-2.688722
-3.697697
-4.529823
-5.082063
-5.430037
-5.653584
-6.037411
-6.595375
-6.827659
-6.553498
-6.014514
-5.298079
-4.489453
-3.459690
-2.220238
-1.524591
-2.100029
-3.428659
-4.624727
-5.470109
-6.000355
-6.185339
-5.909973
-5.117314
-4.018258
-3.156908
-2.839664
-2.499222
-1.770133
-1.039537
-0.660230
-0.385165
-0.148663
-0.100158
-0.247482
-0.395409
-0.502663
-0.525259
-0.438793
-0.280623
-0.029057
0.502696
1.191715
1.499017
1.414057
0.752152
-0.582202
-2.079245
-3.283447
-4.197219
-4.642506
-4.475900
-3.874853
-3.409381
-3.168963
-3.230423
-3.402151
-3.587436
-3.388895
-2.828219
-2.017183
-1.514654
-1.412521
-1.524295
-1.784598
-2.189213
-2.294961
-2.267846
-1.785201
-1.153726
-0.199583
0.661766
1.506847
0.722323
-0.483085
-1.732780
-2.914989
-2.788453
-2.214521
-0.840701
0.104404
0.916946
1.470090
2.124161
2.473642
2.449841
2.194358
2.238646
2.615543
2.999369
2.837282
2.407059
2.239549
2.708335
3.369938
3.839026
4.065284
4.050220
3.578722
2.990932
2.780942
2.929772
2.894824
2.326315
1.320353
0.448157
0.272513
0.896457
2.011180
3.606137
5.458988
7.103957
8.315691
9.017665
9.339127
9.232174
8.903481
8.536225
8.251820
7.895410
7.598652
7.689939
7.870705
8.075573
8.223499
8.344914
8.486514
8.606120
8.887211
9.392452
9.975120
10.288448
10.270974
9.892871
9.226749
8.316291
7.020501
5.319494
3.786900
2.541121
1.151031
-0.264064
-1.251950
-1.549913
-1.266412
-1.049191
-1.049493
-0.982610
-0.678320
-0.329141
0.081197
0.837401
1.361622
1.089570
0.338186
-0.909702
-2.723688
-3.711875
-3.120770
-1.924401
-0.597278
0.808779
1.382409
0.747921
-0.389097
-1.314618
-1.732489
-1.436636
-1.221223
-1.969293
-3.088535
-3.444041
-3.138848
-2.987909
-3.026171
-2.776112
-2.673075
-2.405843
-1.038651
0.573480
1.345350
1.673139
2.617038
3.511528
3.406382
3.963443
6.370943
8.150583
6.646912
3.851669
2.558288
2.624870
2.449527
0.712668
-1.426696
-3.281957
-3.829979
-3.637464
-4.183377
-4.305093
-3.291599
-3.212966
-5.177590
-6.946987
-6.857207
-6.486335
-6.147098
-5.015805
-2.587215
-0.800947
-1.170915
-2.509185
-3.378669
-3.457302
-4.019786
-6.235976
-9.101718
-10.403233
-10.644555
-11.345927
-11.632742
-11.352254
-11.465836
-11.395036
-9.510250
-7.176261
-5.966335
-5.172170
-5.080281
-6.112755
-6.812621
-6.784602
-7.745976
-9.632870
-9.513866
-7.457052
-6.191691
-6.941869
-7.250979
-6.986458
-6.924094
-6.930120
-5.682233
-2.918021
0.968747
5.735845
7.574536
7.610388
6.668898
5.271578
2.715849
0.442416
-0.437612
0.085705
2.038579
4.805502
7.335924
7.851106
6.915341
6.015428
4.857020
3.951684
4.070688
4.459636
3.805866
2.374802
1.664694
1.854196
2.145832
2.995733
3.787789
3.910408
4.562672
7.115689
10.598144
11.920446
10.076333
7.347370
4.883832
1.730973
-0.928395
-1.820475
-1.701471
-0.828974
1.678550
4.408115
5.204992
4.757897
4.196920
3.902573
3.571169
2.652878
1.597506
1.007004
0.679817
-0.452982
-1.961474
-2.758953
-3.181945
-2.899047
-1.315236
0.859679
1.925896
1.682465
0.993144
-0.902488
-4.278291
-7.409157
-9.201752
-9.119203
-7.174162
-5.285158
-4.507262
-3.552818
-1.855728
-0.394537
-0.123388
-0.710576
-1.754499
-3.392239
-4.871506
-5.399644
-4.447912
-3.329272
-2.321201
-0.945573
0.665353
1.623412
1.622809
1.463735
1.472472
1.648718
2.487773
3.773923
4.870870
5.687028
6.501379
7.765233
8.733235
8.491008
7.878513
8.082477
8.938705
9.928699
10.211598
10.009743
10.140195
9.910020
8.932980
8.442200
8.578076
7.609472
5.537895
4.237284
3.902565
2.868283
1.489039
1.102501
1.053393
0.772603
0.426135
-0.042049
-0.815124
-2.477568
-4.543723
-6.312216
-7.532988
-7.907174
-6.846379
-3.353078
1.662271
4.996498
4.828989
2.688419
0.232413
-1.643938
-2.432077
-2.154903
-1.212510
-0.464139
-0.048076
0.974456
1.046461
-1.137493
-3.638088
-4.986300
-4.923936
-3.139475
-1.310727
-2.086213
-4.660621
-6.193817
-4.618141
-0.653644
2.447998
2.636597
1.578815
1.986141
4.321033
7.462745
8.762150
6.392008
2.491682
0.450232
1.362799
3.955584
6.096455
7.124410
8.011670
8.733829
9.224307
9.883500
11.293775
11.827939
10.713818
9.581922
8.937491
7.263298
2.955947
-2.434191
-5.858198
-5.115552
-2.122069
-0.905514
-1.913284
-2.953592
-2.877972
-1.801511
-0.760300
-1.000718
-1.796088
-1.379724
-0.283681
0.524945
1.239573
1.634848
0.818991
0.198060
2.505838
7.139169
9.782569
8.331923
4.788610
2.172324
1.592668
1.095863
-0.856710
-4.212328
-7.732142
-9.722073
-9.711830
-9.806732
-12.275994
-16.710182
-21.235657
-25.084464
-27.366031
-27.545592
-26.802042
-26.357358
-25.103746
-21.939741
-18.401851
-16.392336
-15.920236
-15.208320
-13.149095
-9.448215
-4.460883
0.488487
3.833560
5.712923
7.227138
8.862166
10.741528
12.946270
15.260676
17.118045
18.711798
20.225712
21.068985
19.887981
16.704995
12.972781
10.252556
8.626867
7.529920
7.087947
7.034922
6.995455
6.986115
6.818304
5.582166
3.722687
2.826088
3.230100
3.589824
2.586272
0.265238
-2.233249
-4.106285
-4.255417
-2.401964
0.292653
2.221124
3.297284
3.877843
3.682616
2.987872
3.154779
4.485819
5.837044
6.579992
7.181641
8.181879
9.565642
10.768940
11.175964
10.838534
10.053408
8.568114
5.861747
2.633570
0.225768
-1.011876
-2.214271
-5.240895
-9.724492
-12.908382
-12.991234
-11.477922
-10.308668
-9.876637
-10.188157
-11.009738
-11.788237
-12.117231
-12.023233
-11.633381
-11.599940
-12.724304
-14.699473
-15.366499
-15.140843
-13.933628
-12.261845
-10.519864
-8.940573
-7.177503
-4.384670
-1.197466
0.881342
1.660142
2.152729
2.715212
2.817646
2.109947
0.789151
-0.503928
-0.953734
-0.663605
-0.202351
-0.152941
-0.066776
0.655383
1.753536
2.517272
2.420261
1.893027
1.989736
3.230393
5.331194
7.281959
7.845045
7.020752
6.355835
6.852640
8.388848
10.279961
12.242175
14.090807
15.249818
15.699925
16.169916
16.989388
17.598268
17.192147
16.165397
15.235356
14.484575
13.760607
13.084241
11.809540
9.451148
6.532381
3.865782
1.652002
-0.036954
-0.975430
-1.341180
-1.205606
-0.359923
0.990398
2.379584
3.630183
4.551788
5.112764
5.041964
4.453571
3.766962
3.296970
2.671822
1.810773
1.270283
1.138022
1.550169
2.400973
3.812755
5.399880
6.638728
7.610044
7.983627
7.874866
7.577506
7.122277
6.851429
7.040932
7.870948
8.745253
9.004652
8.887756
8.923006
9.270980
9.768688
9.789476
8.871788
7.041232
4.758460
2.581436
0.915678
-0.423195
-1.801535
-2.736397
-2.989469
-3.140710
-3.524838
-4.331355
-5.440956
-6.618345
-7.900277
-9.567240
-11.696662
-13.815540
-15.421947
-16.458037
-17.106986
-17.034077
-16.144408
-14.702499
-13.165085
-11.163705
-8.460351
-5.600032
-3.046714
-0.663617
1.517324
3.562087
5.601127
7.481092
9.001634
10.098281
10.683661
10.253739
8.799779
6.655895
4.227004
2.108427
1.042511
1.174771
2.156631
3.635898
5.161261
6.075635
6.234408
6.030745
5.884626
5.956631
6.189517
6.409750
6.220850
5.337206
3.692838
1.608909
-0.633794
-2.835824
-4.586843
-5.714521
-6.193250
-5.982657
-4.808884
-2.374269
0.591196
2.591370
3.127040
2.682356
1.552870
-0.254488
-2.233875
-3.760744
-4.773636
-5.423188
-6.042914
-6.698492
-7.167881
-7.180836
-6.637333
-5.665415
-4.861610
-4.693497
-5.300268
-6.411376
-7.684571
-8.618830
-9.022540
-9.029771
-8.967708
-9.021335
-9.048450
-8.503441
-7.253747
-5.535868
-3.574859
-1.754848
-0.437065
0.479117
0.774067
-0.068001
-2.038350
-4.266892
-6.409872
-8.365157
-9.794111
-10.554835
-10.751568
-10.277661
-8.882449
-6.981394
-5.495800
-4.929400
-5.108359
-5.628663
-6.366791
-6.865404
-6.718682
-6.046233
-5.357515
-4.914337
-4.835704
-5.375592
-6.242666
-7.792131
-9.017724
-11.223068
-13.336523
-15.018249
-15.641891
-15.008307
-13.689921
-11.815379
-9.619073
-7.188073
-4.716702
-2.015155
0.667410
3.127333
5.201019
7.030069
8.329775
8.971494
9.145632
8.821760
7.741985
6.166911
4.185114
1.940302
-0.426526
-2.603550
-4.492554
-6.291476
-8.151557
-9.608229
-10.016459
-8.917403
-6.542741
-3.554380
-0.566018
2.132214
4.258021
5.665886
6.300073
6.038565
4.730422
2.720607
0.707477
-0.769983
-1.593975
-1.714787
-1.378261
-0.935987
-0.896520
-1.399351
-2.070294
-2.315834
-1.983827
-1.344519
-0.716960
-0.111997
0.426987
0.793038
1.162402
1.544421
1.392879
0.296835
-1.468646
-3.445622
-5.336132
-7.005506
-8.363660
-9.336181
-9.888421
-10.246639
-10.650952
-11.153481
-11.662338
-12.199514
-12.975301
-14.068031
-15.248131
-16.016989
-15.901600
-14.795915
-13.133170
-11.230007
-9.290389
-7.648733
-6.753641
-6.761474
-7.361316
-8.273882
-9.267794
-10.432227
-11.668666
-12.461928
-12.356180
-11.503567
-10.367454
-9.286172
-8.419099
-7.833719
-7.286600
-6.512019
-5.610298
-4.775762
-4.052398
-3.632418
-4.022571
-5.395790
-7.530635
-9.989956
-11.922343
-12.704758
-12.416738
-11.278817
-9.528702
-7.463150
-5.487680
-3.606209
-1.880497
-0.328923
0.967470
1.996630
3.156545
4.857853
6.961064
8.777159
9.729795
9.640617
8.643994
6.991191
4.884666
2.720898
1.028929
0.315205
0.823458
2.422031
4.884063
7.644358
10.332347
12.776000
14.470681
14.922595
14.214897
12.475025
9.588494
5.864114
2.239155
-0.782046
-3.197079
-4.773960
-5.225875
-4.700147
-3.434184
-1.533732
0.735483
2.920943
4.674673
5.855978
6.318437
5.891529
4.806029
3.482220
2.304229
1.743553
2.158712
3.420458
5.145567
7.086390
8.944362
10.493526
11.764009
12.821489
13.709351
14.038948
13.517137
12.148739
10.280824
8.472562
7.078556
6.685992
7.000525
7.275892
6.560059
4.853026
2.760359
0.762594
-1.074289
-2.874416
-4.761612
-6.969668
-9.529614
-12.243212
-14.574188
-15.918786
-15.919991
-14.683251
-12.641500
-10.202366
-7.631272
-5.284629
-3.281141
-1.483424
0.391420
2.300609
4.238419
5.680328
6.303971
5.843620
4.526740
3.009210
1.799886
0.981017
0.303446
-0.411785
-1.217699
-1.903706
-1.978122
-1.178534
0.027175
1.235293
2.213839
2.808860
2.728118
2.318081
1.996317
1.910453
2.040906
2.251197
2.460584
2.566934
2.597664
2.854051
3.643094
4.738836
5.523963
5.895135
6.102112
6.323851
6.593795
6.879706
7.239430
8.020339
9.087159
10.269970
11.530813
12.858839
14.213077
15.242539
15.587199
15.063279
13.826539
12.080641
10.229900
8.716588
7.826918
7.554263
7.772085
8.301428
9.029915
9.957244
10.850830
11.412409
