EVENT_NAME: 202302060117
EVENT_ID: 13194
EVENT_DATE_YYYYMMDD: 2023/02/06
EVENT_TIME_HHMMSS: 01:17:32.00000
EVENT_LATITUDE_DEGREE: 37.288
EVENT_LONGITUDE_DEGREE: 37.043
EVENT_DEPTH_KM: 8.6
HYPOCENTER_REFERENCE: AFAD
MAGNITUDE_W: 7.7
MAGNITUDE_W_REFERENCE: AFAD
MAGNITUDE_L: 
MAGNITUDE_L_REFERENCE: 
FOCAL_MECHANISM: 
NETWORK: TK
STATION_CODE: 4631
STATION_NAME: 
STATION_LATITUDE_DEGREE: 37.966325
STATION_LONGITUDE_DEGREE: 37.427653
STATION_ELEVATION_M: 1421.0
LOCATION: Kahramanmaras_Pazarck_Turkiye
SENSOR_DEPTH_M: 
VS30_M/S: 543
SITE_CLASSIFICATION_EC8: B
MORPHOLOGIC_CLASSIFICATION: 
EPICENTRAL_DISTANCE_KM: 82.68
EARTHQUAKE_BACKAZIMUTH_DEGREE: 
DATE_TIME_FIRST_SAMPLE_YYYYMMDD_HHMMSS: 2023/02/06 01:17:23.8230650
DATE_TIME_FIRST_SAMPLE_PRECISION: millisecond
SAMPLING_INTERVAL_S: 0.01
NDATA: 3559
DURATION_S: 
STREAM: HNZ
UNITS: cm/s^2
INSTRUMENT: sensor = ACEBOX/SARA | digitizer = 
INSTRUMENT_ANALOG/DIGITAL: 
INSTRUMENTAL_FREQUENCY_HZ: 
INSTRUMENTAL_DAMPING: 
FULL_SCALE_G: 
N_BIT_DIGITAL_CONVERTER: 
PGA_CM/S^2: 32.947
TIME_PGA_S: 
BASELINE_CORRECTION: BASELINE REMOVED
FILTER_TYPE: BUTTERWORTH
FILTER_ORDER: 
LOW_CUT_FREQUENCY_HZ: 
HIGH_CUT_FREQUENCY_HZ: 
LATE/NORMAL_TRIGGERED: 
DATABASE_VERSION: 
HEADER_FORMAT: DYNA 1.2
DATA_TYPE: Acceleration
PROCESSING: Automatic Paolucci et al., 2011
DATA_TIMESTAMP_YYYYMMDD_HHMMSS: 
DATA_LICENSE: U (unknown license)
DATA_CITATION: Turkish Accelerometric Archive v 1.0 - Disaster And Emergency Management Presidency, Earthquake Department
DATA_CREATOR: AFAD
ORIGINAL_DATA_MEDIATOR_CITATION: : AFAD - Disaster And Emergency Management Presidency
ORIGINAL_DATA_MEDIATOR: AFAD PROCESS SERVICE
ORIGINAL_DATA_CREATOR_CITATION: AFAD PROCESS SERVICE
ORIGINAL_DATA_CREATOR: network: TK
USER1: GuestUser
USER2: 
USER3: 
USER4: 
USER5: 
[...]
0.021002
0.023623
0.025777
0.021619
0.025176
0.026161
0.023405
0.027196
0.026077
0.022854
0.025709
0.024356
0.023237
0.024223
0.023805
0.025725
0.026944
0.025124
0.024005
0.025457
0.028079
0.026492
0.023737
0.025423
0.026175
0.025056
0.026274
0.026091
0.024270
0.025489
0.027877
0.028161
0.026340
0.022416
0.021764
0.027191
0.027475
0.024018
0.027107
0.025988
0.025337
0.029829
0.024735
0.023850
0.029511
0.025353
0.025870
0.028024
0.024801
0.028358
0.027239
0.025419
0.029677
0.026687
0.025802
0.029359
0.028006
0.029459
0.029509
0.025818
0.025634
0.026152
0.028072
0.030460
0.027704
0.026585
0.027804
0.025984
0.028839
0.029590
0.026601
0.029690
0.029273
0.025816
0.029373
0.030358
0.027836
0.027652
0.028871
0.029388
0.027802
0.026449
0.029538
0.030757
0.027300
0.026649
0.030673
0.031191
0.027967
0.028251
0.030873
0.031390
0.028167
0.026580
0.030137
0.030421
0.026730
0.030755
0.032909
0.028517
0.028099
0.030721
0.030303
0.028249
0.028766
0.031154
0.033308
0.030553
0.024991
0.029016
0.031638
0.027479
0.031971
0.033190
0.029499
0.030484
0.029833
0.031052
0.032037
0.028814
0.030267
0.031252
0.030600
0.029949
0.030466
0.032620
0.031034
0.029915
0.031134
0.030482
0.030298
0.030114
0.032269
0.031851
0.027459
0.031483
0.033637
0.029479
0.031399
0.033319
0.029862
0.030146
0.033703
0.031649
0.029127
0.033151
0.032968
0.030212
0.031197
0.031715
0.031063
0.031113
0.030462
0.031680
0.032666
0.031780
0.031129
0.033283
0.032164
0.030577
0.032731
0.031379
0.032831
0.034050
0.029892
0.032513
0.035603
0.032613
0.031260
0.032479
0.034400
0.032112
0.032395
0.036420
0.032495
0.031376
0.035167
0.034983
0.033630
0.031108
0.033262
0.034949
0.030791
0.032945
0.037203
0.033278
0.030523
0.033612
0.034363
0.033478
0.034931
0.034981
0.032926
0.033444
0.034663
0.033076
0.033828
0.037384
0.033927
0.030704
0.036131
0.036181
0.034127
0.035814
0.033759
0.034043
0.035730
0.032974
0.033725
0.034710
0.035462
0.035044
0.032288
0.036781
0.037999
0.031503
0.034359
0.037682
0.035160
0.035677
0.035260
0.035310
0.034191
0.034942
0.038499
0.035276
0.033923
0.036077
0.035659
0.036878
0.035291
0.033939
0.034456
0.033103
0.035257
0.038814
0.037929
0.035407
0.035691
0.037611
0.036024
0.035841
0.037060
0.036174
0.037861
0.037911
0.036792
0.035906
0.035255
0.038578
0.039096
0.034002
0.035688
0.039713
0.037191
0.035838
0.037992
0.038510
0.036689
0.034635
0.037958
0.040112
0.036655
0.036238
0.037690
0.037507
0.036388
0.035736
0.039059
0.040512
0.037055
0.037105
0.040662
0.039075
0.037021
0.039175
0.038991
0.037638
0.037454
0.036569
0.038022
0.039708
0.039524
0.038639
0.036351
0.037336
0.041361
0.042580
0.038889
0.035899
0.038521
0.040208
0.039088
0.037736
0.037786
0.038537
0.039054
0.040040
0.038920
0.038737
0.040423
0.036499
0.039120
0.043145
0.036882
0.038569
0.042827
0.037499
0.038485
0.041340
0.040689
0.040271
0.037983
0.040838
0.042759
0.039536
0.040754
0.042441
0.040387
0.039501
0.041188
0.040770
0.039885
0.040403
0.039517
0.040035
0.041955
0.041304
0.041587
0.041871
0.040284
0.040568
0.041553
0.041136
0.041653
0.041469
0.038947
0.040166
0.043723
0.042137
0.042888
0.043405
0.039715
0.039998
0.043321
0.044307
0.042252
0.042770
0.043054
0.037492
0.040816
0.045541
0.040214
0.041900
0.042418
0.039662
0.043453
0.041165
0.041215
0.045473
0.042016
0.040663
0.043519
0.044036
0.041982
0.039694
0.042082
0.043067
0.042649
0.045739
0.042749
0.038357
0.043784
0.046874
0.042481
0.042765
0.043984
0.043566
0.046656
0.044368
0.040443
0.044234
0.043816
0.043866
0.044617
0.042329
0.045419
0.044767
0.042479
0.045335
0.042813
0.044032
0.045952
0.042027
0.044415
0.045868
0.042645
0.044799
0.045083
0.043496
0.044715
0.043362
0.042944
0.046267
0.047253
0.046133
0.045014
0.041791
0.045816
0.048204
0.042175
0.045732
0.048353
0.042558
0.046349
0.047802
0.043643
0.045564
0.045146
0.045196
0.046882
0.044828
0.045580
0.045396
0.042874
0.045729
0.047182
0.045595
0.045879
0.046163
0.045278
0.045094
0.044910
0.046129
0.047114
0.046462
0.045577
0.047264
0.047547
0.047364
0.046712
0.043021
0.045409
0.050369
0.046444
0.046027
0.049350
0.045425
0.046644
0.048798
0.044640
0.046326
0.049883
0.046426
0.047177
0.048864
0.045874
0.045691
0.048078
0.048596
0.048880
0.047527
0.046408
0.046458
0.046040
0.050298
0.051985
0.045956
0.046240
0.049329
0.046340
0.049663
0.050180
0.045554
0.046773
0.048927
0.049679
0.048560
0.044869
0.048426
0.051515
0.048759
0.047874
0.047690
0.046103
0.047790
0.050645
0.048825
0.048407
0.049626
0.048273
0.050661
0.049542
0.045384
0.052214
0.051562
0.045066
0.051429
0.051011
0.045216
0.048539
0.051394
0.050275
0.047520
0.048037
0.051360
0.048605
0.048187
0.050809
0.049924
0.049973
0.050491
0.050073
0.050591
0.050875
0.049054
0.049338
0.051492
0.049905
0.050189
0.051174
0.048652
0.049871
0.051558
0.050906
0.051190
0.050071
0.051757
0.053210
0.051390
0.049569
0.049853
0.050604
0.050888
0.050938
0.049351
0.050336
0.054829
0.049735
0.047447
0.054745
0.052924
0.050870
0.052323
0.050502
0.053124
0.051771
0.051587
0.053274
0.050752
0.053607
0.051553
0.049733
0.054692
0.050768
0.051285
0.054374
0.050450
0.053539
0.052888
0.047326
0.052286
0.054440
0.050983
0.052670
0.052252
0.050665
0.053053
0.051934
0.052218
0.054138
0.052318
0.052368
0.052418
0.053870
0.055791
0.050697
0.049812
0.054772
0.054120
0.053001
0.052817
0.052400
0.054320
0.056006
0.053251
0.050027
0.055221
0.055037
0.050645
0.056072
0.056122
0.049859
0.051780
0.055804
0.054451
0.052631
0.055253
0.055303
0.051846
0.055169
0.054985
0.051528
0.056254
0.055602
0.053314
0.056170
0.052946
0.054399
0.056086
0.051927
0.057822
0.057872
0.053246
0.056803
0.052411
0.053396
0.060226
0.054431
0.056585
0.059207
0.050372
0.053462
0.059356
0.054964
0.054547
0.055532
0.056283
0.057736
0.053811
0.053861
0.057652
0.055364
0.053777
0.056399
0.057851
0.054862
0.053275
0.055663
0.057817
0.057633
0.055345
0.054928
0.058017
0.056197
0.054610
0.059803
0.059620
0.053591
0.055043
0.060237
0.057014
0.056362
0.058283
0.055059
0.059084
0.058666
0.053339
0.058298
0.060219
0.057463
0.056110
0.056160
0.059016
0.057429
0.058882
0.060802
0.054773
0.056694
0.060017
0.055624
0.058246
0.061102
0.058112
0.056292
0.059381
0.060600
0.056909
0.057660
0.061451
0.058929
0.055940
0.057860
0.057443
0.057960
0.060114
0.057592
0.059513
0.059329
0.055638
0.060598
0.059011
0.055554
0.060981
0.057057
0.058509
0.063703
0.057206
0.058893
0.059878
0.055953
0.060679
0.059794
0.058207
0.061530
0.058775
0.059059
0.060979
0.058457
0.058507
0.062064
0.061880
0.057488
0.058707
0.060861
0.059274
0.060259
0.060075
0.059190
0.060409
0.058121
0.058171
0.061494
0.061310
0.061126
0.060942
0.059590
0.062211
0.060157
0.058804
0.061426
0.060307
0.062929
0.062745
0.058820
0.061442
0.060323
0.060840
0.063930
0.059303
0.060055
0.064079
0.061324
0.059036
0.061190
0.062642
0.063394
0.063911
0.060688
0.059569
0.061957
0.061305
0.063226
0.062808
0.061221
0.064545
0.061789
0.059267
0.064227
0.063341
0.061521
0.062039
0.061387
0.063307
0.064059
0.061537
0.062288
0.063507
0.061687
0.061970
0.062488
0.062538
0.063523
0.062638
0.060817
0.061335
0.063957
0.064006
0.061251
0.063171
0.064390
0.062803
0.063788
0.063605
0.062252
0.064172
0.065157
0.062402
0.062218
0.062969
0.062318
0.065641
0.063586
0.062234
0.066024
0.061398
0.063786
0.066408
0.060847
0.066274
0.065622
0.061932
0.065722
0.062031
0.064186
0.066807
0.064052
0.065271
0.062983
0.064435
0.065187
0.062899
0.066222
0.064167
0.063750
0.066605
0.063616
0.064601
0.065820
0.065168
0.065686
0.064567
0.065552
0.064199
0.064249
0.067338
0.065985
0.065802
0.065150
0.063563
0.067822
0.067170
0.064415
0.066101
0.064281
0.064798
0.066719
0.066067
0.065883
0.065232
0.066684
0.066734
0.065615
0.066600
0.064780
0.064362
0.068153
0.068904
0.064746
0.066199
0.069756
0.067000
0.064946
0.066398
0.067384
0.068135
0.066782
0.065663
0.065713
0.067633
0.069553
0.065629
0.065913
0.069236
0.065779
0.067231
0.071022
0.066864
0.066212
0.068132
0.065844
0.067765
0.068048
0.065760
0.069785
0.069835
0.065443
0.065960
0.066945
0.070736
0.069851
0.066160
0.069951
0.068364
0.065842
0.068698
0.067812
0.068096
0.066977
0.068430
0.072688
0.069465
0.066008
0.067694
0.070550
0.070132
0.066441
0.067894
0.069580
0.067059
0.068278
0.069496
0.069079
0.069129
0.067542
0.067826
0.069512
0.069328
0.069145
0.071065
0.071349
0.069294
0.069344
0.070563
0.069912
0.069494
0.070479
0.070295
0.070579
0.071798
0.068341
0.065118
0.069142
0.069426
0.062930
0.063213
0.067004
0.068457
0.068507
0.065517
0.067438
0.073099
0.074084
0.076004
0.083068
0.091768
0.097663
0.108234
0.124416
0.137325
0.153740
0.171559
0.185169
0.204157
0.221508
0.236988
0.250364
0.256493
0.267765
0.277635
0.277919
0.284047
0.285734
0.279705
0.276482
0.272089
0.261618
0.250446
0.241144
0.224828
0.194485
0.161803
0.129589
0.092699
0.058381
0.024997
-0.011191
-0.045042
-0.078893
-0.105963
-0.127890
-0.157532
-0.187876
-0.217285
-0.251837
-0.278907
-0.290781
-0.295173
-0.297461
-0.302789
-0.315130
-0.320457
-0.301938
-0.264714
-0.214631
-0.158470
-0.092957
-0.003129
0.092778
0.173956
0.241105
0.291188
0.337764
0.378494
0.396079
0.412027
0.432184
0.446963
0.477640
0.509019
0.498080
0.435706
0.329145
0.206451
0.098721
0.006654
-0.079099
-0.158307
-0.203613
-0.203096
-0.193226
-0.202061
-0.221884
-0.247318
-0.278129
-0.291639
-0.273587
-0.239403
-0.182306
-0.085230
0.057903
0.223014
0.332715
0.369237
0.384484
0.390847
0.379908
0.342317
0.276436
0.207749
0.140699
0.085807
0.073232
0.072580
0.052524
0.054210
0.071561
0.026956
-0.078437
-0.154371
-0.164608
-0.161753
-0.180406
-0.199762
-0.213973
-0.220470
-0.185116
-0.114460
-0.050116
0.005812
0.103355
0.256776
0.369750
0.376113
0.348341
0.346287
0.329737
0.258245
0.196806
0.212520
0.250679
0.259380
0.232309
0.169000
0.092598
-0.001104
-0.093638
-0.165832
-0.252521
-0.332897
-0.337523
-0.213093
-0.008470
0.131858
0.198306
0.231789
0.189756
0.135331
0.164605
0.219364
0.209361
0.165223
0.175560
0.240372
0.330901
0.429613
0.466603
0.442806
0.426256
0.392639
0.288883
0.173204
0.141691
0.157405
0.118177
0.019565
-0.099622
-0.205716
-0.238865
-0.195095
-0.166522
-0.234039
-0.338029
-0.337278
-0.250723
-0.239918
-0.318658
-0.379629
-0.401556
-0.389583
-0.296482
-0.149139
-0.109110
-0.218477
-0.243677
-0.005154
0.363594
0.574997
0.457447
0.136960
-0.099359
-0.070084
0.204210
0.468685
0.438341
0.149417
-0.087603
-0.066979
0.133669
0.301585
0.324314
0.266616
0.177121
-0.009165
-0.234496
-0.311599
-0.220368
-0.168415
-0.341609
-0.702776
-1.059734
-1.206275
-0.984118
-0.480469
-0.117566
-0.125465
-0.127285
0.146775
0.380389
0.395635
0.260550
-0.166547
-0.797282
-1.122678
-0.970894
-0.720447
-0.560480
-0.307929
-0.062859
-0.070057
-0.106713
0.095805
0.237302
-0.075235
-0.459080
-0.205828
0.472702
0.772480
0.568659
0.500674
0.940029
1.336833
1.133245
0.692587
0.494611
0.498869
0.639197
0.963524
1.368745
1.553495
1.269948
0.761022
0.365954
-0.223866
-1.205999
-1.930019
-1.925761
-1.650064
-1.789591
-2.202661
-2.073087
-1.318340
-0.597726
-0.157670
0.058642
0.229832
0.658900
1.009879
0.839257
0.552204
0.321964
-0.096483
-0.250973
0.296396
1.139285
1.640830
1.614227
1.345878
0.998505
0.615127
0.510904
0.625748
0.265984
-0.710771
-1.673031
-2.187101
-1.877737
-0.958162
-0.858983
-1.813293
-2.444963
-2.465254
-2.441824
-2.392677
-2.098042
-1.753609
-1.855261
-1.928623
-1.131558
-0.166160
0.131280
0.054645
-0.400742
-1.412099
-2.405454
-2.557840
-1.810106
-1.207093
-1.084066
-0.540437
0.352484
0.973500
1.637768
2.627248
3.394620
3.118789
2.033319
1.190062
0.885006
1.224998
2.030479
2.079860
1.226550
0.643510
0.760458
1.459796
2.497204
3.504219
4.116116
3.568613
2.086155
1.490957
2.092801
2.120439
1.053438
0.005842
-0.973017
-2.700261
-3.839271
-2.133670
1.051400
2.309980
1.219132
-0.502969
-2.207768
-3.424633
-2.929401
-1.288328
-0.825359
-1.831807
-2.213080
-0.582294
2.076966
3.691386
3.351962
1.498000
-0.658496
-1.640161
-1.165503
-0.072918
0.649098
0.303128
-0.246480
0.088368
0.445894
0.329045
0.033576
-0.724345
-0.916944
0.546910
2.462461
2.597646
0.046033
-2.344261
-1.798060
0.186461
1.860967
2.380748
0.910447
-1.381885
-2.263251
-0.518606
2.182504
2.274202
-1.348203
-6.090730
-7.802076
-5.401396
-2.141511
-0.674149
-0.791699
-0.761256
0.007753
0.185489
-0.541103
-1.100997
0.080430
2.944029
4.027729
2.303992
0.605972
0.038362
0.770432
2.695802
3.253225
0.551747
-3.003090
-3.070608
-0.059717
0.731971
-1.427331
-1.985355
-0.414889
-0.173794
-1.517611
-1.547253
0.013394
0.736579
0.241446
-0.821113
-2.799689
-4.369588
-3.222295
0.207327
2.823569
2.868040
2.085337
2.339291
3.646735
5.429956
5.463439
1.760374
-2.970931
-4.642765
-3.264948
-1.250267
0.114925
1.582287
3.693526
4.138960
1.766669
-0.271526
-0.411988
-1.273715
-3.937785
-5.050610
-2.208520
0.805410
0.059881
-1.948388
-2.236610
-1.767563
-0.885162
1.766616
4.123810
1.668288
-3.719287
-5.339218
-2.312896
0.527791
-0.225688
-2.821489
-3.440534
-2.529610
-1.868849
0.340819
4.638997
7.099296
4.832681
-0.142241
-4.142462
-4.516955
-0.944717
3.613445
6.601891
7.625973
7.489018
7.172974
5.686073
3.972389
4.651854
4.897859
1.334137
-2.728275
-1.866682
2.220378
2.504024
0.249567
0.796703
0.628419
-2.885738
-4.498889
-2.475792
-1.548268
-2.697799
-2.666654
-2.773684
-4.168936
-2.908485
1.145844
3.438743
1.345139
-3.548422
-6.234936
-3.246256
3.876194
9.748763
10.420279
8.747743
9.181487
11.186583
11.073007
5.149102
-4.540576
-9.579792
-6.685332
-1.054041
2.905833
5.721270
7.048820
2.810360
-5.549245
-11.688945
-15.402297
-15.648436
-9.117727
-2.112410
-0.434163
-0.097445
1.650941
3.395586
4.219070
4.624758
5.636449
5.291180
0.348990
-5.958811
-6.568270
-1.090350
5.135019
6.682106
0.701856
-8.202497
-13.063326
-10.937124
-1.364011
7.434064
4.856265
-4.858663
-10.120688
-6.347618
2.709037
8.905182
7.005395
-1.276589
-8.191093
-5.791348
3.708352
10.155128
9.786479
5.872062
1.955306
2.060799
4.309744
2.960083
-0.394390
-4.269530
-8.841620
-8.924568
-2.839710
1.948508
-1.417188
-5.246971
1.111897
9.720362
11.078541
8.768206
7.101515
6.093665
3.866796
3.324670
5.907478
3.851048
-0.990142
0.794716
6.317525
9.729378
9.422686
2.460254
-8.716141
-13.676568
-8.453954
-3.305922
-6.124299
-9.790424
-7.426683
-1.950400
4.034392
9.236665
9.837340
5.253795
1.463290
1.622556
0.192000
-4.092519
-5.691642
-2.751358
2.676997
2.288008
-5.341448
-5.031850
4.736016
10.253915
9.274822
5.099252
-1.063593
-7.546040
-10.523399
-5.247012
0.314607
-4.711750
-10.107741
-2.553000
10.686521
15.601224
9.406114
1.373357
0.634841
4.986326
8.043275
7.545571
4.508594
1.102919
-2.174401
-3.611035
-1.035474
2.691304
2.032279
-3.370258
-4.794267
0.886121
4.298208
-0.413692
-8.262917
-8.530799
-2.728602
-2.722708
-4.564746
-1.166453
4.923080
12.689875
16.624967
11.717145
1.035933
-10.826423
-14.868961
-5.096653
6.876155
5.418712
-5.379164
-9.332626
-0.931072
10.669999
15.448163
15.120663
12.168088
5.618073
1.411643
0.266788
-1.012969
-0.592551
-2.561074
-8.188057
-10.654101
-6.341660
2.826516
9.054457
9.608607
8.053905
3.619756
-1.491003
-4.902522
-7.885725
-7.205325
-4.214541
-3.681667
-2.362299
1.419655
3.676784
1.481010
-3.651024
-4.598087
0.441230
2.034842
-3.852357
-6.948485
-0.961120
6.426689
11.073927
12.086553
3.255379
-8.071347
-9.190251
-2.581454
5.876680
7.161212
0.391195
-0.605901
-0.187354
-5.505490
-6.150954
-1.649372
3.147964
4.021013
-3.160955
-7.426770
-3.067103
2.761981
7.913753
7.620621
0.158564
-4.392951
-1.894777
3.612835
8.597208
9.565880
7.910178
5.945863
1.327482
-2.867258
-2.990653
-1.036994
1.595614
0.818288
-3.628720
-6.671775
-6.784883
-2.167104
1.566689
-4.104248
-12.762646
-15.062694
-10.320767
-2.700563
2.296903
1.238085
-0.724593
3.886173
5.920493
1.359626
2.819272
5.814031
3.244182
2.396483
3.824800
3.568374
-2.104900
-7.611243
-2.897841
1.371581
-0.780707
-1.174371
-4.444444
-9.943539
-10.687198
-10.271457
-7.003623
-2.814861
-7.057296
-11.707941
-6.147959
3.236714
7.403732
4.709269
1.586488
2.828469
1.436958
-3.955994
-3.703676
0.712336
0.830454
-3.611878
-6.875638
-4.214508
-2.843470
-8.118588
-8.815020
-2.270517
1.248649
-1.947076
-7.607492
-8.179777
-1.401009
7.329732
9.548985
1.946883
-6.605371
-11.100541
-12.536707
-7.877779
-0.619493
6.851314
16.716206
20.861482
14.727860
4.329543
-5.480540
-8.615712
-3.405723
0.863932
-0.877106
-1.366862
2.216365
1.877409
-2.618462
-5.561920
-5.627099
-1.609477
-1.051353
-5.282800
-0.759708
4.387856
-2.493215
-8.937085
-5.138064
2.168385
0.284262
-4.534016
3.066783
7.614892
-0.643246
-2.988416
2.389672
2.406088
-4.938837
-7.312764
4.845912
13.689110
4.767690
-3.335673
0.313718
4.270319
2.864546
-2.339263
-4.800865
-1.722172
-4.521611
-11.744026
-8.436446
2.144567
2.476141
-11.954945
-18.503557
-4.882946
3.974046
-0.735282
3.434308
19.738912
26.665673
13.115301
-3.454796
-2.825598
6.881481
11.709912
13.411538
11.598256
4.961270
1.314082
4.077148
6.385479
2.184425
-3.511527
-4.406921
-3.904207
-5.089275
-9.260870
-13.258519
-10.632459
-6.967637
-6.519397
-4.385480
0.797856
4.949444
0.662353
-6.598639
-4.856098
2.109240
8.288786
10.508273
4.071651
-6.477700
-10.898756
-7.834092
-3.457123
0.467214
1.649810
0.358598
3.523328
3.473579
-2.474875
2.491263
12.388886
8.799914
-5.284217
-18.311818
-19.893874
-11.709751
-2.904429
6.921419
9.710436
0.410732
-3.939016
2.211071
9.388931
13.311865
12.618239
7.873841
-0.905430
-9.457684
-9.970819
-3.662218
1.806818
2.555486
4.172244
5.563154
-4.943879
-19.188161
-17.957870
-2.364010
8.868362
-0.625861
-19.233969
-19.315748
-5.008475
-0.515777
-4.726649
-5.752969
-5.220563
-6.517854
-6.220180
-0.247545
4.047828
1.220100
0.728708
4.041197
5.290426
1.895740
-5.255367
-7.345699
-1.605692
10.540827
21.453832
16.412512
6.361617
6.721481
11.892191
14.232552
6.918956
1.421263
10.077890
14.697307
8.390909
1.372131
-4.109195
-6.927104
-11.974503
-13.116553
-1.404897
2.423350
-6.023462
-8.017235
-9.409681
-18.462028
-29.397377
-30.498746
-11.418034
11.979043
21.406501
20.996470
14.367666
6.298203
3.919132
4.238783
5.332537
7.582418
6.701286
2.858176
2.834145
10.781432
17.030415
8.415036
-2.167514
-0.402061
-4.474058
-23.065333
-32.947425
-20.475694
-2.226833
3.290365
-1.615820
-10.887936
-18.641539
-16.537781
-5.721335
9.579344
17.926423
9.041944
-5.079829
-9.519589
-0.002588
15.138173
17.252218
0.652662
-15.400977
-9.533785
3.697320
2.304406
-2.428536
-3.969210
-7.300070
-7.044713
-2.569784
2.123045
3.678314
4.046361
11.991076
20.868174
15.259428
