EVENT_NAME: 202302060117
EVENT_ID: 13194
EVENT_DATE_YYYYMMDD: 2023/02/06
EVENT_TIME_HHMMSS: 01:17:32.00000
EVENT_LATITUDE_DEGREE: 37.288
EVENT_LONGITUDE_DEGREE: 37.043
EVENT_DEPTH_KM: 8.6
HYPOCENTER_REFERENCE: AFAD
MAGNITUDE_W: 7.7
MAGNITUDE_W_REFERENCE: AFAD
MAGNITUDE_L: 
MAGNITUDE_L_REFERENCE: 
FOCAL_MECHANISM: 
NETWORK: TK
STATION_CODE: 0119
STATION_NAME: 
STATION_LATITUDE_DEGREE: 36.568
STATION_LONGITUDE_DEGREE: 35.39
STATION_ELEVATION_M: 22.0
LOCATION: Kahramanmaras_Pazarck_Turkiye
SENSOR_DEPTH_M: 
VS30_M/S: 485
SITE_CLASSIFICATION_EC8: B
MORPHOLOGIC_CLASSIFICATION: 
EPICENTRAL_DISTANCE_KM: 167.32
EARTHQUAKE_BACKAZIMUTH_DEGREE: 
DATE_TIME_FIRST_SAMPLE_YYYYMMDD_HHMMSS: 2023/02/06 01:17:40.8668310
DATE_TIME_FIRST_SAMPLE_PRECISION: millisecond
SAMPLING_INTERVAL_S: 0.01
NDATA: 13501
DURATION_S: 
STREAM: HNE
UNITS: cm/s^2
INSTRUMENT: sensor = CMG-5T/GURALP | digitizer = 
INSTRUMENT_ANALOG/DIGITAL: 
INSTRUMENTAL_FREQUENCY_HZ: 
INSTRUMENTAL_DAMPING: 
FULL_SCALE_G: 
N_BIT_DIGITAL_CONVERTER: 
PGA_CM/S^2: 47.310
TIME_PGA_S: 
BASELINE_CORRECTION: BASELINE REMOVED
FILTER_TYPE: BUTTERWORTH
FILTER_ORDER: 
LOW_CUT_FREQUENCY_HZ: 
HIGH_CUT_FREQUENCY_HZ: 
LATE/NORMAL_TRIGGERED: 
DATABASE_VERSION: 
HEADER_FORMAT: DYNA 1.2
DATA_TYPE: Acceleration
PROCESSING: Automatic Paolucci et al., 2011
DATA_TIMESTAMP_YYYYMMDD_HHMMSS: 
DATA_LICENSE: U (unknown license)
DATA_CITATION: Turkish Accelerometric Archive v 1.0 - Disaster And Emergency Management Presidency, Earthquake Department
DATA_CREATOR: AFAD
ORIGINAL_DATA_MEDIATOR_CITATION: : AFAD - Disaster And Emergency Management Presidency
ORIGINAL_DATA_MEDIATOR: AFAD PROCESS SERVICE
ORIGINAL_DATA_CREATOR_CITATION: AFAD PROCESS SERVICE
ORIGINAL_DATA_CREATOR: network: TK
USER1: GuestUser
USER2: 
USER3: 
USER4: 
USER5: 
[...]
-2.052967
-4.485469
-6.415617
-7.847172
-8.977566
-10.237073
-12.293828
-15.445231
-18.880560
-21.604508
-23.621463
-25.020113
-25.793250
-26.219785
-26.968477
-28.265904
-30.120841
-32.172268
-33.750800
-34.297361
-33.440590
-30.923202
-26.705396
-21.894981
-17.574385
-14.308637
-12.026913
-10.359734
-8.884031
-7.114376
-5.037918
-2.972741
-1.218128
-0.056123
0.051975
-0.709567
-1.534725
-1.711180
-1.628154
-1.970702
-3.175054
-5.260327
-7.312694
-8.429613
-8.056707
-6.283917
-3.813536
-1.370419
0.264795
0.453745
-1.093449
-4.339807
-8.219199
-11.620996
-13.654247
-14.132490
-13.406401
-11.954202
-11.047918
-11.031328
-11.647147
-12.226299
-11.896953
-10.743096
-8.908883
-7.635313
-8.088799
-10.770440
-15.061932
-18.549282
-20.027531
-19.564997
-17.686597
-15.418035
-13.396419
-12.038549
-11.712024
-11.628997
-11.247630
-9.757512
-7.381460
-4.900110
-2.311271
-0.090970
1.924692
3.757651
5.510698
6.978565
7.934678
8.229552
7.589289
5.792643
2.756251
-0.895938
-4.380468
-7.130113
-8.980662
-9.909864
-9.986036
-9.879819
-10.372164
-11.695289
-13.843238
-16.500122
-18.850831
-20.207487
-20.345709
-19.307804
-17.591110
-15.465451
-13.269280
-10.627165
-7.022650
-2.414681
2.690940
7.098344
10.211161
11.955119
13.026870
13.819083
15.007726
17.023074
20.357453
24.892403
29.300120
32.188555
33.412923
33.788336
33.758858
34.211991
36.244262
39.961282
43.761348
45.508127
45.012648
43.120732
39.925456
36.424630
32.566548
28.775529
25.145277
20.812732
15.533456
9.896923
4.331528
-0.728380
-4.509370
-7.148391
-9.751060
-13.836658
-19.522706
-26.069304
-32.073749
-36.536661
-38.448006
-38.012110
-35.706882
-32.487202
-29.027156
-25.792433
-23.574326
-22.345257
-22.015284
-21.882430
-21.526446
-20.950781
-20.406141
-19.871842
-19.550331
-19.453515
-19.512765
-19.561359
-19.009511
-16.917071
-13.702091
-10.671694
-8.500907
-7.428843
-7.189752
-7.788334
-9.080120
-10.482844
-10.720722
-9.029725
-5.826027
-2.094279
1.446933
4.611458
7.455079
10.133860
12.085278
13.048911
13.386092
12.968645
12.335904
11.863616
11.206117
9.864190
7.351462
4.085361
0.429097
-3.244716
-7.063312
-10.910113
-13.557595
-13.780744
-11.335434
-7.441979
-3.363002
0.335842
3.276925
4.902738
4.923401
4.269350
3.957827
4.203186
5.157105
6.312842
7.165225
7.335372
6.960546
6.345668
5.414586
4.025964
1.601610
-1.638480
-5.006118
-7.434545
-8.001789
-6.381617
-2.857328
1.303756
5.113224
7.970947
9.771314
10.904175
11.560066
12.022600
12.036682
11.356620
10.089591
8.098333
5.561162
2.956299
0.939344
-0.321731
-0.925014
-1.033464
-1.225588
-2.166698
-3.848960
-6.072122
-8.498982
-10.904533
-12.880749
-13.604371
-12.898338
-11.120221
-9.422643
-8.651114
-8.937879
-10.229666
-11.976171
-12.996254
-12.415888
-10.129150
-6.919497
-3.741810
-1.476382
-0.766902
-1.486450
-2.822737
-3.920226
-4.647295
-5.547665
-7.470292
-10.320847
-13.154166
-14.489826
-13.576960
-10.519299
-6.156083
-1.814490
1.442170
3.235329
3.064202
1.247499
-0.673874
-1.714641
-1.551075
-0.584620
0.515649
0.640669
-0.457760
-3.140028
-7.241296
-11.496122
-14.629662
-16.001674
-15.665121
-14.846583
-15.293802
-17.472463
-21.223681
-25.257572
-27.750243
-28.334410
-26.834890
-24.028562
-22.266428
-22.238870
-23.970960
-25.672025
-25.773268
-23.640401
-19.258695
-14.469277
-11.091025
-9.545438
-10.169091
-11.797137
-12.444921
-11.454649
-8.016541
-3.797481
0.127626
2.764413
3.586398
3.097813
1.968673
0.866170
0.080498
-0.427830
-1.523438
-3.146784
-4.822778
-5.589647
-5.246199
-3.622893
-0.992687
1.520314
3.153335
3.650028
3.052385
2.060194
1.157630
0.408937
-0.224744
-1.340096
-2.901392
-4.340468
-5.476189
-6.041866
-5.722549
-5.281952
-5.356244
-6.124993
-7.104336
-7.697277
-7.858376
-7.173027
-5.395537
-3.217856
-1.116954
0.614156
2.042224
3.544563
5.430171
7.835995
9.694025
10.391283
9.665780
7.941838
6.304704
5.421569
5.216283
4.836756
3.682232
2.102760
0.608528
-0.316286
-0.287475
0.909629
3.410408
5.866687
7.191025
6.665461
4.938072
3.583609
3.056165
3.393345
4.291169
5.255742
5.582895
4.735799
3.145672
1.726026
1.046277
1.102039
1.596225
2.528520
3.526940
4.441372
4.864420
4.517171
3.908874
4.037654
5.474810
8.388629
12.135107
15.841785
18.542189
19.761230
19.995934
19.742387
20.198027
21.246274
22.644257
23.020297
21.811557
19.353672
15.662309
11.901689
8.616158
6.704813
6.105604
5.880261
5.653352
5.348410
5.265343
5.565544
6.321092
7.608450
8.989824
10.062829
10.417245
10.069056
9.786051
10.249838
11.679787
13.559126
14.914489
15.401467
15.078035
14.022540
12.491329
10.897128
9.612236
8.748532
8.503133
8.739717
9.378059
10.750345
13.301265
16.722138
20.269930
23.166199
25.021095
25.970000
26.297466
26.637153
27.693862
29.645907
31.879370
33.670962
34.333121
33.777159
31.975185
29.635131
27.404762
25.143995
22.878840
20.879121
19.170221
17.565678
16.072387
14.545250
12.840111
10.659256
7.921832
4.776070
2.430689
1.818005
2.780072
4.934876
7.332238
8.409003
7.482309
4.431188
0.403252
-3.083158
-5.587737
-7.087610
-8.029347
-9.335236
-11.993687
-15.532431
-18.577911
-19.357942
-17.902923
-14.254848
-10.256723
-7.947108
-7.707703
-9.719017
-11.798336
-12.520077
-11.220497
-8.092951
-5.399441
-4.618823
-6.150661
-9.447474
-11.778126
-12.392691
-10.677877
-7.165183
-4.253245
-2.770962
-3.366097
-5.038957
-5.818048
-4.775442
-1.408158
3.565843
8.614742
12.443013
14.247141
14.396605
13.641644
12.748481
11.862527
11.140471
10.128223
8.863388
7.573482
6.585991
6.500104
7.403568
9.058212
10.900260
12.343683
13.202647
13.785207
14.024611
14.329513
14.932130
16.123593
17.784818
19.513107
21.037070
22.656616
24.578576
26.667256
28.704854
29.914494
29.711715
28.051703
25.562166
22.907475
20.887073
19.811208
19.594327
19.819629
19.819296
19.242024
18.142028
16.956792
16.257300
16.461606
17.840160
20.332164
22.926331
24.510151
24.453722
22.516366
19.644814
17.272796
16.274650
16.663538
18.096620
19.787930
20.728374
20.309987
18.414938
16.369778
14.854236
14.287619
14.539246
14.131201
12.231137
8.533821
4.242956
1.105968
-0.049496
0.836105
2.947349
5.069247
6.334983
6.367555
5.643306
5.470611
6.157214
7.411041
8.569599
8.897065
8.169682
6.392152
4.676044
3.650007
3.723632
5.162042
7.262004
9.336268
10.741146
11.237525
11.172008
10.769290
10.119313
9.465262
8.850070
8.196959
7.363026
6.394652
5.451348
4.551917
3.761545
3.392046
3.744582
4.820407
5.935091
6.170109
5.304211
3.731633
2.347399
2.121429
3.244575
5.356759
7.603698
9.281845
10.447298
11.414379
12.653477
14.341339
16.345719
17.650314
17.482007
15.945469
13.188302
10.176041
7.766730
6.221417
5.632236
5.778566
6.471123
7.333534
8.094722
8.616485
8.542820
7.824839
6.423055
4.452794
2.773353
2.273173
3.178831
5.185091
7.407899
8.835653
9.061583
7.872900
5.966255
4.373308
3.451314
2.935152
2.146346
0.775900
-1.180572
-3.534414
-5.678603
-7.166568
-8.048135
-8.168494
-8.223670
-8.773677
-9.809743
-10.966774
-11.693530
-11.857763
-10.917946
-8.644370
-5.626195
-2.361701
0.804391
3.372234
5.019670
5.791827
6.171314
6.126167
5.453313
3.991986
1.680451
-1.396054
-4.611387
-7.649659
-10.245120
-11.447905
-10.567318
-8.030499
-5.083149
-2.421604
-0.525028
0.293509
-0.054053
-1.209204
-2.416690
-3.015899
-2.836977
-2.045705
-1.300186
-1.293311
-2.530882
-4.607380
-6.751569
-7.940566
-7.539455
-5.053718
-1.049953
3.000821
6.000193
7.339260
7.380920
6.722168
6.632520
7.426927
8.926446
9.759712
9.038597
6.297727
2.153525
-1.877858
-4.729353
-5.595565
-4.823095
-3.916184
-4.128678
-6.135605
-10.213369
-14.747733
-18.245738
-19.582338
-18.791691
-16.352649
-13.664780
-11.402485
-9.895758
-9.003889
-7.376823
-4.559527
-1.095407
1.364632
1.945311
0.580193
-2.635453
-7.068281
-11.475097
-14.748720
-16.108197
-16.022036
-15.131734
-14.401571
-14.389996
-14.939690
-15.680235
-16.047541
-15.776484
-14.411093
-12.247828
-9.711950
-7.067328
-4.530823
-2.261947
-0.099309
1.970881
3.639628
4.332812
3.890608
2.937589
2.603816
3.234636
4.295106
5.247771
5.132426
3.878246
1.336687
-2.003687
-4.868657
-6.782509
-7.841138
-8.161749
-7.813914
-7.414370
-7.366443
-7.603694
-7.514400
-6.557660
-4.829058
-3.044046
-1.737571
-0.778951
-0.228670
-0.279772
-0.904051
-1.440897
-1.423994
-1.031032
-0.627414
-0.536240
-1.083427
-2.442904
-4.111377
-5.489343
-6.343647
-6.695909
-6.876125
-7.474707
-8.811934
-10.842365
-12.911028
-14.061792
-13.765038
-12.121676
-9.751577
-7.262080
-5.229182
-4.168713
-4.116711
-4.530084
-4.682408
-4.460553
-4.186989
-3.684343
-2.684670
-1.411413
0.224114
2.457891
4.981234
7.528080
9.891597
11.555643
12.171421
11.912233
11.453420
11.446192
12.089548
13.389442
14.940043
16.068203
16.530110
16.728775
16.979148
17.076590
16.822416
16.526249
16.165211
15.571957
14.691643
14.053888
14.043839
14.570930
15.691569
17.134679
18.232128
18.272534
17.449883
15.984796
14.585206
13.549767
12.909505
12.648123
12.760608
13.088700
12.962073
11.727009
9.295761
6.424523
3.646673
1.787976
1.573915
2.952782
5.025166
6.541608
6.489253
4.983113
2.641806
0.622343
-0.313439
0.232454
2.263472
4.679637
6.295109
6.512263
5.465229
3.830915
2.645993
2.486461
3.745928
6.002895
8.347923
10.188090
11.035458
10.414626
8.596982
6.454047
4.506349
2.886764
1.324528
-0.468045
-2.476852
-4.377229
-5.629842
-6.389190
-6.270437
-5.049829
-3.386411
-1.736781
-0.448482
0.554952
1.299844
1.712863
2.031241
2.315146
2.391905
2.798656
3.436998
3.549796
3.046483
2.405280
1.736187
0.794450
-0.165777
-0.670344
-1.151094
-1.673838
-2.112908
-3.029574
-4.892345
-7.364646
-9.888656
-12.004953
-12.846721
-12.494812
-11.182382
-9.178629
-6.349738
-3.203702
-0.623637
1.425243
2.526452
2.422076
1.451194
0.254363
-0.566408
-0.762919
-0.254005
0.769485
1.729045
2.286534
2.612119
2.936451
3.382375
4.278632
5.658125
6.858050
7.313376
6.988064
6.004020
4.820038
3.915907
3.422935
3.423542
3.766050
4.118899
4.115745
3.542861
2.531866
1.524632
0.352871
-1.447223
-3.701723
-6.222285
-8.568606
-10.381549
-11.114572
-10.454607
-8.913408
-6.657068
-4.118369
-2.031256
-0.784637
0.020425
0.975910
2.544061
5.070537
8.072416
10.710144
12.156388
12.167963
10.777775
8.541451
6.405723
4.650130
3.350196
2.571105
1.973463
1.184657
0.150785
-0.980549
-2.252905
-3.502698
-4.738075
-6.214131
-8.162769
-10.651053
-13.291954
-15.778984
-17.334953
-17.631120
-16.952665
-16.211220
-16.206853
-17.725842
-20.706138
-24.052778
-26.154661
-26.274706
-23.851020
-18.708732
-12.885463
-7.755397
-4.032423
-1.105129
1.650430
4.887974
8.777981
12.270932
14.179103
14.196946
12.294376
9.152374
6.312474
4.169852
3.353155
3.839193
4.266001
3.736676
2.074158
0.089481
-0.997353
-1.087000
-0.353703
0.077179
-0.215228
-0.877740
-1.533045
-1.815737
-1.485764
0.157285
2.778090
5.453737
7.406095
8.343404
7.985187
6.577449
4.722826
2.947490
1.718380
1.111963
1.186215
1.546899
2.045786
2.490143
3.073956
4.078957
5.665910
8.046037
10.645531
12.811617
14.023137
14.739198
15.364691
16.228669
17.219254
17.995798
18.176913
17.476168
15.750659
13.079673
10.325013
7.848951
6.038202
4.470952
2.581544
-0.162461
-3.812457
-7.564929
-10.492263
-11.710090
-11.057333
-9.026942
-6.396109
-4.386402
-3.600143
-4.051121
-4.869699
-4.841514
-3.561050
-0.773839
2.464018
4.923431
5.883304
5.303211
3.519413
1.266480
-1.022492
-3.289214
-5.304289
-7.292413
-9.271762
-11.195642
-12.542270
-12.431666
-10.488083
-6.608103
-2.001388
2.288496
5.182885
6.611893
7.324507
7.336395
6.949347
6.207235
5.206269
3.573835
1.139139
-2.536867
-6.638135
-10.133320
-12.625678
-14.306686
-15.709096
-17.404834
-19.727024
-22.198072
-23.322198
-22.354177
-19.082475
-13.660650
-8.058942
-3.932644
-2.265778
-2.792595
-3.590176
-2.568880
0.858261
6.639537
12.880859
17.523300
19.478479
18.679645
16.102360
13.456758
11.445444
10.178101
8.679795
5.632749
1.041976
-4.602705
-10.019869
-14.107975
-16.392246
-16.180419
-13.881459
-11.616031
-10.044747
-9.767109
-9.542433
-8.048241
-4.613580
0.349139
5.544075
9.309355
11.492991
11.808234
10.611090
10.180481
11.821023
16.238141
21.571279
25.349409
25.678441
22.849823
17.605959
12.468333
9.110723
8.368612
9.700157
10.700144
9.915725
7.367585
4.008722
1.431124
1.089203
3.097030
6.929062
10.268141
12.291637
12.621297
11.515974
10.254899
9.655063
10.090019
10.949296
10.406810
7.973055
3.461881
-2.135165
-6.956275
-10.014916
-11.359978
-11.350910
-10.605704
-9.964228
-9.441525
-9.147278
-7.987780
-5.984967
-3.230660
-0.081178
2.848623
4.800355
5.502313
4.974242
3.804362
2.448959
0.892991
-0.776109
-2.580277
-3.920011
-5.036302
-5.910662
-6.864621
-7.955842
-9.503035
-10.560097
-10.141437
-8.271812
-4.743136
-0.012634
5.339934
10.328976
14.627322
18.412033
21.897149
24.823816
27.271320
29.001176
29.234000
27.635098
23.803340
18.238258
11.704822
5.262894
-0.040199
-3.935261
-6.764192
-9.838816
-13.400125
-17.808508
-22.852747
-27.579214
-30.567971
-30.277798
-26.157767
-18.824617
-11.076234
-3.646561
3.104323
10.101526
17.763102
26.236655
35.144556
42.735621
47.212909
47.310351
44.162395
37.947670
31.999007
27.813126
25.293190
24.049665
22.037724
18.320037
12.409921
5.051660
-2.824624
-10.384704
-17.215541
-22.344393
-25.711404
-27.734000
-28.676677
-28.498068
-27.121709
-25.382138
-24.233921
-24.104201
-24.656715
-25.214871
-24.907462
-23.109602
-20.134674
-16.319878
-11.211123
-5.468707
-0.240552
4.434481
8.404401
11.387477
13.452653
15.057469
17.117631
19.583938
21.697376
22.578276
22.206270
21.077443
18.744911
15.278558
11.201420
6.913689
2.609662
-1.955100
-6.624531
-10.806966
-13.686979
-15.279300
-16.198473
-16.722470
-17.518484
-19.030265
-21.294480
-23.471574
-24.715412
-25.195536
-25.303046
-24.767494
-23.711412
-22.499579
-21.345095
-20.041753
-17.956834
-15.134837
-12.111648
-9.893227
-8.599287
-7.960005
-7.881053
-7.567063
-6.500639
-4.266549
-0.574287
3.448282
7.018012
9.224524
9.593356
8.517178
7.785721
8.862799
11.599243
15.220994
18.315321
19.724273
19.179279
16.579744
12.467508
8.497548
4.751970
1.807713
-0.817206
-3.737645
-6.502333
-8.712959
-10.460718
-11.718659
-12.439774
-13.596179
-15.456756
-17.521345
-19.503202
-21.191104
-22.035693
-22.368526
-22.646517
-22.859951
-23.089368
-23.035172
-22.646597
-21.779799
-19.585822
-17.286862
-15.781075
-14.541664
-12.832804
-10.016448
-5.892970
-1.267765
2.908988
5.805570
7.361185
8.080693
7.986345
7.696759
7.594576
7.505868
6.688858
4.900672
1.953595
-1.732126
-5.494313
-8.843148
-11.850394
-14.524515
-16.666510
-18.391078
-19.825767
-20.629616
-20.593283
-19.734946
-17.391486
-13.620564
-8.812030
-3.333169
1.982106
6.122194
8.702572
9.719168
9.545847
8.779918
7.401011
5.390010
2.431964
-1.647993
-6.203354
-11.065830
-15.535323
-19.618728
-23.555470
-27.563976
-31.411090
-34.382611
-36.023820
-35.543423
-32.973387
-28.859623
-25.093402
-22.912901
-22.252622
-22.960575
-23.874421
-24.154293
-24.201007
-23.831861
-23.452374
-23.405073
-23.392558
-23.243721
-21.926591
-19.391966
-16.218039
-13.260034
-11.471889
-10.789360
-10.715421
-10.162633
-8.862112
-6.681298
-3.422444
-0.285497
1.883723
3.061084
3.106818
2.246560
0.832555
-1.030843
-2.913043
-4.661115
-5.952902
-6.925664
-7.756776
-8.496381
-9.191485
-10.069292
-11.467629
-13.317864
-15.449204
-17.732535
-20.176319
-22.516685
-24.918162
-26.786260
-27.413047
-26.576020
-24.598591
-22.023854
-19.264847
-16.535611
-13.599543
-9.988446
-5.105954
0.889363
7.245071
12.858373
17.325633
20.088401
21.033231
20.465987
18.704440
16.472503
13.937839
10.905208
6.954991
2.314077
-2.713239
-7.579162
-12.076860
-16.135194
-19.620664
-22.947248
-26.078595
-28.778726
-30.424322
-30.684763
-29.545948
-27.067733
-23.734921
-20.313108
-17.266729
-15.113178
-13.796361
-12.479545
-10.236993
-6.897600
-3.348867
-0.786038
-0.117612
-1.038979
-3.089780
-5.296645
-7.169131
-8.369409
-8.390426
-7.782169
-7.714498
-8.627090
-10.021353
-11.079355
-11.249229
-10.393399
-8.340131
-5.476768
-2.561069
0.084180
2.757947
5.476214
8.208897
10.562386
12.353978
13.201033
12.705241
10.868168
7.744656
3.619257
-0.906645
-5.268021
-9.080663
-11.954408
-14.056917
-15.362806
-15.799682
-15.470650
-14.708208
-13.801610
-12.575674
-11.235354
-10.174571
-9.600473
-9.872823
-10.891026
-11.998856
-12.364594
-11.687393
-9.787996
-7.107022
-4.377473
-1.856011
0.173127
1.796746
3.104474
4.128591
4.468279
4.179006
3.438148
2.076477
0.534297
-0.888796
-1.694212
-1.732778
-1.449813
-1.508122
-1.990439
-2.511302
-2.980457
-2.935037
-2.173535
-0.497581
1.867817
4.195608
5.760311
6.497369
6.951755
7.550610
8.455328
9.153839
9.043195
7.682778
5.207656
2.103887
-0.793989
-2.689978
-3.645190
-3.852670
-3.858331
-3.939517
-4.267650
-4.680709
-4.425635
-3.476730
-1.759096
0.362176
2.017133
2.617556
2.324835
1.620016
0.828703
-0.026853
-1.308611
-3.092409
-5.342835
-7.699498
-9.308115
-9.564169
-8.823037
-7.753167
-7.216048
-7.507514
-8.542639
-9.794939
-10.264407
-9.546780
-7.390095
-4.278532
-1.428017
0.112869
-0.280448
-2.587596
-6.001927
-9.688903
-12.775749
-14.726267
-15.898027
-16.771133
-17.773353
-19.181718
-20.949220
-22.453480
-23.038587
-22.163327
-19.536568
-16.027321
-12.040478
-8.276137
-5.248874
-2.633084
0.362528
3.662435
6.983338
10.612610
14.246584
17.025334
17.794357
16.892419
14.527608
11.988870
9.938696
8.598335
7.640616
6.611758
5.659680
4.840476
4.650545
5.513896
7.151304
8.751733
9.979862
10.324877
9.668946
7.944691
6.211974
4.664154
3.507122
2.287101
0.565666
-1.705443
-4.227259
-6.258003
-7.588022
-8.013616
-7.824666
-7.447373
-7.046889
-5.980779
-4.221465
-1.395394
1.972204
4.860011
6.641889
7.058042
6.277697
5.120980
4.475390
4.442778
4.679676
4.536439
3.619146
1.690565
-0.920878
-3.644200
-6.099265
-7.871781
-9.083654
-10.129435
-11.428742
-13.102229
-14.523443
-15.191283
-14.526617
-12.803342
-10.597770
-8.610939
-7.128343
-5.945654
-5.022447
-3.921238
-2.564934
-0.928153
0.706434
1.993480
2.343822
2.139790
1.935444
1.464408
0.946992
0.240606
-0.539111
-1.649135
-2.848787
-3.355234
-2.618177
-0.741030
1.364572
2.922381
3.470468
2.754681
0.668781
-1.980582
-4.322829
-6.132324
-7.443540
-8.797063
-10.618781
-12.035920
-12.638576
-12.312678
-11.459355
-10.628282
-10.193326
-10.498268
-11.532453
-13.008509
-14.276791
-15.114485
-15.603383
-16.020516
-16.216714
-16.306362
-15.882688
-14.830993
-13.476884
-12.125595
-11.150993
-10.495101
-10.325268
-10.699467
-11.278306
-11.562565
-11.469510
-10.961849
-10.150520
-9.261785
-8.790476
-9.112654
-10.573981
-13.040955
-15.600376
-17.738611
-19.113757
-19.796013
-19.938622
-20.165532
-20.904196
-21.968780
