EVENT_NAME: 202302060117
EVENT_ID: 13194
EVENT_DATE_YYYYMMDD: 2023/02/06
EVENT_TIME_HHMMSS: 01:17:32.00000
EVENT_LATITUDE_DEGREE: 37.288
EVENT_LONGITUDE_DEGREE: 37.043
EVENT_DEPTH_KM: 8.6
HYPOCENTER_REFERENCE: AFAD
MAGNITUDE_W: 7.7
MAGNITUDE_W_REFERENCE: AFAD
MAGNITUDE_L: 
MAGNITUDE_L_REFERENCE: 
FOCAL_MECHANISM: 
NETWORK: TK
STATION_CODE: 7103
STATION_NAME: 
STATION_LATITUDE_DEGREE: 39.94027
STATION_LONGITUDE_DEGREE: 34.03267
STATION_ELEVATION_M: 684.0
LOCATION: Kahramanmaras_Pazarck_Turkiye
SENSOR_DEPTH_M: 
VS30_M/S: None
SITE_CLASSIFICATION_EC8: unknown
MORPHOLOGIC_CLASSIFICATION: 
EPICENTRAL_DISTANCE_KM: 394.14
EARTHQUAKE_BACKAZIMUTH_DEGREE: 
DATE_TIME_FIRST_SAMPLE_YYYYMMDD_HHMMSS: 2023/02/06 01:18:02.2342290
DATE_TIME_FIRST_SAMPLE_PRECISION: millisecond
SAMPLING_INTERVAL_S: 0.01
NDATA: 21001
DURATION_S: 
STREAM: HNN
UNITS: cm/s^2
INSTRUMENT: sensor = GMS+/GEOSIG | digitizer = 
INSTRUMENT_ANALOG/DIGITAL: 
INSTRUMENTAL_FREQUENCY_HZ: 
INSTRUMENTAL_DAMPING: 
FULL_SCALE_G: 
N_BIT_DIGITAL_CONVERTER: 
PGA_CM/S^2: 4.441
TIME_PGA_S: 
BASELINE_CORRECTION: BASELINE REMOVED
FILTER_TYPE: BUTTERWORTH
FILTER_ORDER: 
LOW_CUT_FREQUENCY_HZ: 
HIGH_CUT_FREQUENCY_HZ: 
LATE/NORMAL_TRIGGERED: 
DATABASE_VERSION: 
HEADER_FORMAT: DYNA 1.2
DATA_TYPE: Acceleration
PROCESSING: Automatic Paolucci et al., 2011
DATA_TIMESTAMP_YYYYMMDD_HHMMSS: 
DATA_LICENSE: U (unknown license)
DATA_CITATION: Turkish Accelerometric Archive v 1.0 - Disaster And Emergency Management Presidency, Earthquake Department
DATA_CREATOR: AFAD
ORIGINAL_DATA_MEDIATOR_CITATION: : AFAD - Disaster And Emergency Management Presidency
ORIGINAL_DATA_MEDIATOR: AFAD PROCESS SERVICE
ORIGINAL_DATA_CREATOR_CITATION: AFAD PROCESS SERVICE
ORIGINAL_DATA_CREATOR: network: TK
USER1: GuestUser
USER2: 
USER3: 
USER4: 
USER5: 
[...]
2.775877
2.733274
2.707297
2.669110
2.629884
2.611699
2.592735
2.576629
2.571952
2.569873
2.572730
2.584678
2.592470
2.579221
2.564414
2.557659
2.541033
2.525706
2.508560
2.476608
2.438940
2.405170
2.367502
2.314769
2.265152
2.213977
2.157087
2.094482
2.015771
1.938619
1.861208
1.778341
1.687941
1.603515
1.527143
1.442717
1.356473
1.275425
1.215677
1.169178
1.120081
1.073062
1.033577
1.000066
0.981361
0.969411
0.950188
0.944472
0.934340
0.921610
0.924207
0.924726
0.924725
0.922126
0.915891
0.909136
0.907057
0.907576
0.904977
0.909133
0.911470
0.917444
0.934068
0.949653
0.969914
0.996929
1.018229
1.042906
1.066025
1.080311
1.112521
1.141355
1.148627
1.157199
1.161614
1.160574
1.163171
1.157715
1.139011
1.131736
1.128099
1.103420
1.080819
1.069648
1.061595
1.058476
1.058216
1.068606
1.077956
1.086788
1.095879
1.104190
1.124192
1.136140
1.143932
1.149646
1.140553
1.132500
1.129641
1.121588
1.105221
1.092752
1.070151
1.045732
1.046510
1.037158
1.015336
1.006763
1.000528
0.988837
0.976108
0.962599
0.937661
0.902591
0.870639
0.830634
0.781017
0.721789
0.649053
0.579694
0.493970
0.399933
0.323301
0.238615
0.144579
0.050542
-0.033105
-0.112075
-0.196241
-0.265340
-0.326646
-0.385614
-0.427957
-0.456273
-0.478094
-0.498097
-0.502774
-0.495761
-0.482514
-0.460694
-0.448226
-0.425887
-0.388481
-0.365882
-0.353414
-0.336011
-0.312373
-0.293670
-0.291073
-0.296529
-0.308999
-0.328483
-0.350824
-0.381997
-0.418625
-0.465644
-0.517858
-0.577605
-0.657095
-0.723857
-0.775811
-0.831922
-0.894786
-0.957391
-1.009606
-1.069093
-1.118450
-1.149363
-1.179497
-1.193526
-1.207554
-1.225219
-1.235871
-1.247821
-1.253277
-1.267045
-1.290945
-1.301077
-1.309390
-1.330692
-1.358488
-1.374854
-1.384726
-1.408106
-1.430447
-1.459023
-1.495651
-1.513316
-1.525006
-1.540853
-1.550985
-1.554623
-1.553584
-1.539818
-1.512543
-1.477215
-1.432016
-1.380843
-1.322656
-1.259533
-1.183422
-1.082373
-0.976129
-0.887809
-0.804684
-0.707272
-0.596612
-0.480236
-0.366979
-0.266709
-0.168518
-0.078119
0.012279
0.114107
0.192816
0.256458
0.318802
0.377768
0.430500
0.470504
0.513105
0.557004
0.594150
0.617529
0.641686
0.670260
0.689741
0.715198
0.734939
0.737017
0.727924
0.716233
0.715713
0.701425
0.683500
0.682980
0.661158
0.638558
0.642713
0.647388
0.651024
0.656998
0.663491
0.673621
0.689985
0.707129
0.716740
0.726870
0.746611
0.769730
0.790510
0.806095
0.826616
0.852592
0.861943
0.872593
0.899348
0.935974
0.982991
1.025852
1.055205
1.083259
1.131835
1.181969
1.214439
1.247169
1.274444
1.286652
1.294964
1.293404
1.279895
1.252619
1.205081
1.150009
1.084027
1.000900
0.909981
0.814905
0.702944
0.581631
0.467592
0.326018
0.166779
0.030400
-0.097147
-0.239760
-0.399518
-0.550964
-0.705527
-0.865025
-1.008678
-1.173891
-1.349495
-1.499382
-1.658620
-1.820717
-1.964629
-2.111918
-2.259987
-2.404678
-2.539499
-2.649122
-2.735106
-2.810959
-2.883175
-2.937208
-2.969160
-2.970720
-2.956433
-2.939809
-2.893311
-2.832267
-2.774599
-2.708100
-2.624455
-2.524705
-2.417422
-2.297670
-2.171943
-2.039202
-1.900747
-1.774760
-1.661503
-1.538114
-1.404854
-1.285621
-1.165869
-1.044039
-0.920650
-0.789208
-0.668157
-0.548405
-0.432809
-0.313836
-0.174602
-0.040302
0.089581
0.215567
0.324409
0.425458
0.520272
0.605735
0.691198
0.764711
0.816664
0.851992
0.870434
0.885240
0.894331
0.895110
0.891212
0.875885
0.851985
0.822631
0.790419
0.767558
0.744178
0.703394
0.662090
0.635852
0.614291
0.576364
0.522071
0.486222
0.460505
0.431410
0.407250
0.382572
0.352697
0.318927
0.289572
0.262036
0.243072
0.227225
0.215535
0.216573
0.213714
0.223065
0.236832
0.245663
0.260469
0.275535
0.288522
0.295016
0.296833
0.296313
0.296831
0.286440
0.259163
0.224613
0.183569
0.129796
0.075244
0.026407
-0.026587
-0.074645
-0.129976
-0.199075
-0.261420
-0.314933
-0.366888
-0.414167
-0.453652
-0.497814
-0.550288
-0.594709
-0.634454
-0.687188
-0.738363
-0.797591
-0.862794
-0.920983
-0.992420
-1.072949
-1.154776
-1.232188
-1.314795
-1.395324
-1.464423
-1.549628
-1.624702
-1.677695
-1.728611
-1.766798
-1.796412
-1.832001
-1.860057
-1.872786
-1.877203
-1.877724
-1.872270
-1.857204
-1.844736
-1.826813
-1.804474
-1.777718
-1.736676
-1.696673
-1.656929
-1.612769
-1.554063
-1.489122
-1.430415
-1.355343
-1.275335
-1.207277
-1.133504
-1.045443
-0.956344
-0.880492
-0.799705
-0.716061
-0.642288
-0.569813
-0.513964
-0.466947
-0.426164
-0.410839
-0.403047
-0.393956
-0.403568
-0.432663
-0.469551
-0.510855
-0.558134
-0.624635
-0.696332
-0.754521
-0.826477
-0.914799
-0.996108
-1.066506
-1.135605
-1.201067
-1.262633
-1.338746
-1.417716
-1.482919
-1.539289
-1.585789
-1.633327
-1.674112
-1.705804
-1.734899
-1.759838
-1.795427
-1.822963
-1.842966
-1.875698
-1.900636
-1.916483
-1.926875
-1.932071
-1.943761
-1.953114
-1.953374
-1.958051
-1.972339
-1.981432
-1.968444
-1.950262
-1.944028
-1.941431
-1.948446
-1.950265
-1.943512
-1.934681
-1.907406
-1.893379
-1.883249
-1.866106
-1.862989
-1.841949
-1.810778
-1.779606
-1.742720
-1.709990
-1.681417
-1.654402
-1.620113
-1.580889
-1.548939
-1.529717
-1.508417
-1.483480
-1.461400
-1.434126
-1.414384
-1.413865
-1.408671
-1.396982
-1.397763
-1.388152
-1.367371
-1.350747
-1.339058
-1.340098
-1.338281
-1.337503
-1.342439
-1.339582
-1.354650
-1.379848
-1.390240
-1.401411
-1.408685
-1.414661
-1.408167
-1.402973
-1.413884
-1.405313
-1.396222
-1.387650
-1.369987
-1.360896
-1.334660
-1.302450
-1.290501
-1.293100
-1.292321
-1.274658
-1.255696
-1.232318
-1.205043
-1.169975
-1.126595
-1.090228
-1.044770
-0.983725
-0.920343
-0.873066
-0.830465
-0.767082
-0.700842
-0.645772
-0.595378
-0.545244
-0.499266
-0.464977
-0.430169
-0.389646
-0.357176
-0.332239
-0.309900
-0.298212
-0.293017
-0.282887
-0.283148
-0.302631
-0.315620
-0.318479
-0.331208
-0.353030
-0.378748
-0.410180
-0.432262
-0.442134
-0.461877
-0.498505
-0.533575
-0.562669
-0.585790
-0.611508
-0.645278
-0.666840
-0.675413
-0.685025
-0.708925
-0.735682
-0.750490
-0.765817
-0.779845
-0.789198
-0.791277
-0.785043
-0.774653
-0.762445
-0.753874
-0.743744
-0.736211
-0.716210
-0.685298
-0.659582
-0.631528
-0.614644
-0.600098
-0.575161
-0.552043
-0.528665
-0.508403
-0.488402
-0.477753
-0.471000
-0.445803
-0.424503
-0.411775
-0.396450
-0.386579
-0.375410
-0.358786
-0.346058
-0.338526
-0.325279
-0.309693
-0.294368
-0.272548
-0.257483
-0.240599
-0.206050
-0.170723
-0.142409
-0.113316
-0.079027
-0.036426
0.012149
0.059686
0.102027
0.144109
0.194763
0.250612
0.289836
0.328541
0.382831
0.419198
0.453746
0.507257
0.554015
0.595317
0.638957
0.688572
0.739226
0.788841
0.845729
0.898461
0.951453
1.016394
1.076139
1.127053
1.171992
1.219529
1.279534
1.344995
1.410715
1.463967
1.531246
1.612552
1.688663
1.777243
1.860888
1.935960
2.010772
2.089221
2.159877
2.206894
2.255210
2.297292
2.336516
2.363791
2.352879
2.340669
2.327680
2.292870
2.250787
2.213380
2.178310
2.135447
2.077778
2.013615
1.976986
1.948411
1.900873
1.860348
1.838007
1.831512
1.830212
1.823457
1.820859
1.820338
1.826832
1.848651
1.858262
1.857741
1.881379
1.920604
1.952814
1.984764
2.013598
2.033339
2.069186
2.119580
2.149453
2.170753
2.198028
2.209457
2.221665
2.236471
2.238288
2.235949
2.215946
2.185293
2.157757
2.118531
2.069694
2.019817
1.964746
1.910193
1.868110
1.816156
1.745238
1.674580
1.608858
1.547292
1.477414
1.403119
1.334540
1.255050
1.179716
1.115813
1.043336
0.980212
0.930855
0.875004
0.817075
0.766939
0.733688
0.708749
0.691863
0.693161
0.684848
0.667962
0.667961
0.671337
0.677571
0.688480
0.707183
0.733418
0.753939
0.777577
0.811086
0.847193
0.886157
0.922005
0.952916
0.995777
1.024870
1.030584
1.054222
1.084094
1.106693
1.104614
1.086170
1.078376
1.069803
1.069802
1.058111
1.026679
0.990310
0.953682
0.930822
0.899129
0.853929
0.823015
0.795999
0.759630
0.727158
0.687932
0.649486
0.639874
0.630781
0.612856
0.599087
0.586358
0.584798
0.583758
0.591031
0.617007
0.639606
0.668699
0.699091
0.726366
0.762213
0.795982
0.838063
0.881184
0.926642
0.977556
1.018599
1.071071
1.125361
1.162767
1.198614
1.240696
1.284855
1.322261
1.369798
1.420711
1.458637
1.496822
1.534227
1.573451
1.615273
1.654497
1.690085
1.719957
1.740738
1.757881
1.778662
1.796845
1.808014
1.800220
1.779957
1.758915
1.729301
1.689296
1.636042
1.584348
1.530315
1.458358
1.371335
1.283013
1.199367
1.100914
1.004280
0.913100
0.812569
0.713856
0.605273
0.495390
0.399794
0.309654
0.214059
0.126256
0.055339
-0.023112
-0.099225
-0.158193
-0.209109
-0.252491
-0.290158
-0.322890
-0.345750
-0.354323
-0.356143
-0.350948
-0.340299
-0.323415
-0.296659
-0.272502
-0.245487
-0.221849
-0.205225
-0.186262
-0.173794
-0.160547
-0.147560
-0.143924
-0.141846
-0.141328
-0.148862
-0.154837
-0.158215
-0.167828
-0.178739
-0.195884
-0.207315
-0.209134
-0.221344
-0.232255
-0.234075
-0.235374
-0.236414
-0.234857
-0.236936
-0.239534
-0.246029
-0.259798
-0.276424
-0.297466
-0.317209
-0.340849
-0.369684
-0.394363
-0.420081
-0.447877
-0.474634
-0.496195
-0.503210
-0.510484
-0.525032
-0.518799
-0.498798
-0.484511
-0.478537
-0.474642
-0.460096
-0.437497
-0.413599
-0.393078
-0.369960
-0.342945
-0.320865
-0.300864
-0.268394
-0.218779
-0.179036
-0.144487
-0.097730
-0.058766
-0.018762
0.027995
0.066440
0.106963
0.155279
0.185411
0.192424
0.217101
0.246454
0.256064
0.269831
0.276844
0.278921
0.284116
0.272165
0.249305
0.232159
0.218651
0.199167
0.175787
0.159940
0.152926
0.144872
0.132922
0.134739
0.160715
0.193185
0.212148
0.242020
0.292154
0.333716
0.379435
0.429569
0.477625
0.536332
0.594779
0.639198
0.672448
0.704138
0.726478
0.739985
0.755310
0.767258
0.764920
0.741799
0.717121
0.701014
0.677374
0.651137
0.619444
0.572685
0.513717
0.451372
0.397859
0.347203
0.294210
0.231864
0.163545
0.093926
0.025087
-0.031544
-0.086875
-0.140648
-0.195980
-0.251830
-0.294433
-0.337815
-0.381198
-0.417306
-0.447440
-0.468742
-0.492642
-0.523035
-0.546415
-0.570315
-0.602527
-0.623309
-0.646170
-0.682538
-0.706178
-0.732155
-0.771641
-0.801256
-0.822557
-0.850613
-0.874772
-0.890879
-0.919974
-0.953225
-0.974787
-0.997647
-1.023625
-1.044667
-1.059994
-1.076360
-1.103897
-1.132212
-1.152475
-1.176894
-1.205210
-1.229109
-1.253528
-1.284182
-1.324966
-1.365231
-1.394845
-1.420044
-1.450957
-1.492261
-1.524993
-1.545515
-1.576688
-1.609420
-1.633839
-1.652024
-1.669689
-1.685276
-1.685796
-1.687096
-1.698786
-1.689176
-1.668395
-1.644757
-1.602676
-1.563192
-1.510200
-1.426036
-1.330962
-1.245239
-1.159257
-1.043661
-0.927286
-0.816366
-0.694796
-0.581797
-0.472176
-0.357619
-0.255012
-0.173186
-0.102530
-0.037849
0.019559
0.061641
0.087097
0.102422
0.114631
0.129696
0.139047
0.145021
0.152813
0.157488
0.157487
0.157746
0.166317
0.175408
0.176966
0.185018
0.197486
0.196706
0.185795
0.156440
0.118773
0.094614
0.052530
-0.010075
-0.080213
-0.163599
-0.242310
-0.314786
-0.387002
-0.461557
-0.535332
-0.604950
-0.676907
-0.741590
-0.787570
-0.828874
-0.870178
-0.898234
-0.920315
-0.947331
-0.981362
-1.011756
-1.027343
-1.039293
-1.047346
-1.056179
-1.072026
-1.085275
-1.097745
-1.110215
-1.121905
-1.120607
-1.116192
-1.121648
-1.129702
-1.159316
-1.186333
-1.200361
-1.226858
-1.249979
-1.285568
-1.342458
-1.401166
-1.459095
-1.517804
-1.583786
-1.642234
-1.698085
-1.758093
-1.814463
-1.885640
-1.956038
-2.002798
-2.037607
-2.075534
-2.108786
-2.132945
-2.149311
-2.146714
-2.143338
-2.130610
-2.094504
-2.048266
-1.988520
-1.920462
-1.855001
-1.787982
-1.706675
-1.616277
-1.518345
-1.420154
-1.328976
-1.241176
-1.158830
-1.073108
-0.982449
-0.879582
-0.768922
-0.668133
-0.563447
-0.457982
-0.360051
-0.255625
-0.141328
-0.010925
0.108827
0.207538
0.315341
0.404960
0.481330
0.568092
0.643943
0.706027
0.759538
0.804737
0.833051
0.850714
0.875651
0.900068
0.914874
0.936954
0.975398
1.015921
1.052028
1.089434
1.136191
1.189183
1.247110
1.316208
1.389721
1.461157
1.529215
1.598053
1.674164
1.757288
1.856259
1.957308
2.045888
2.139663
2.230581
2.322538
2.427224
2.533468
2.633738
2.717901
2.797909
2.882593
2.969354
3.045465
3.103393
3.160281
3.211974
3.251717
3.284967
3.308865
3.333542
3.362895
3.391988
3.412509
3.419002
3.422897
3.422897
3.422116
3.435364
3.442636
3.438479
3.429646
3.409643
3.387042
3.365481
3.339503
3.300537
3.250401
3.195070
3.124412
3.037908
2.944910
2.847497
2.736575
2.613963
2.490053
2.361987
2.228725
2.093905
1.954668
1.819328
1.686326
1.554363
1.433830
1.311218
1.176138
1.038201
0.905199
0.782068
0.661535
0.537105
0.418390
0.304091
0.183818
0.057829
-0.064003
-0.180899
-0.305069
-0.426901
-0.538862
-0.663032
-0.798891
-0.932413
-1.069311
-1.203872
-1.329601
-1.460265
-1.594566
-1.724970
-1.852777
-1.974089
-2.086830
-2.190738
-2.293347
-2.387384
-2.469731
-2.558572
-2.642998
-2.717292
-2.797042
-2.866921
-2.929006
-3.000963
-3.077335
-3.144616
-3.202805
-3.268267
-3.343861
-3.427767
-3.501022
-3.570121
-3.657664
-3.747804
-3.831450
-3.910421
-3.990690
-4.066803
-4.142916
-4.221366
-4.283712
-4.331510
-4.377749
-4.414118
-4.429185
-4.438538
-4.441136
-4.432045
-4.416720
-4.386328
-4.340869
-4.273330
-4.196180
-4.116173
-4.014604
-3.913296
-3.810948
-3.685741
-3.546506
-3.402595
-3.260503
-3.111917
-2.958395
-2.805652
-2.650572
-2.491595
-2.339891
-2.201176
-2.060642
-1.927642
-1.798538
-1.668655
-1.554098
-1.444997
-1.337194
-1.238743
-1.144967
-1.057686
-0.991446
-0.920011
-0.830912
-0.751423
-0.677390
-0.599980
-0.531922
-0.482307
-0.425939
-0.371648
-0.332684
-0.281251
-0.243066
-0.217349
-0.185918
-0.172931
-0.170594
-0.162022
-0.146437
-0.129034
-0.110851
-0.083576
-0.059159
-0.048509
-0.034482
-0.015780
0.012274
0.037471
0.042405
0.051237
0.063964
0.069678
0.069418
0.073054
0.085522
0.095392
0.103184
0.107339
0.123184
0.149680
0.172019
0.203190
0.229945
0.255921
0.293847
0.332032
0.376711
0.419052
0.460095
0.506592
0.554389
0.596990
0.634655
0.678295
0.717519
0.749730
0.784538
0.810254
0.826878
0.845321
0.858568
0.862464
0.859605
0.858306
0.857006
0.849991
0.848691
0.850509
0.847910
0.838038
0.832582
0.831802
0.821670
0.825826
0.834137
0.829461
0.833616
0.842188
0.857513
0.885827
0.919856
0.966093
1.023501
1.093638
1.173126
1.259887
1.363794
1.476013
1.587192
1.702009
1.819943
1.938915
2.062564
2.186992
2.294275
2.384674
2.484164
2.573783
2.636386
2.694314
2.741590
2.769904
2.779255
2.779254
2.775616
2.751977
2.706516
2.645990
2.578709
2.504674
2.415833
2.316341
2.205419
2.082807
1.960716
1.827454
1.686139
1.552098
1.413381
1.264793
1.116724
0.979566
0.842408
0.705769
0.577702
0.454831
0.343650
0.235585
0.129599
0.037121
-0.046265
-0.114845
-0.182126
-0.255121
-0.308635
-0.362148
-0.414102
-0.443976
-0.479046
-0.520610
-0.553861
-0.573604
-0.593347
-0.613610
-0.614390
-0.612313
-0.609456
-0.601924
-0.595690
-0.596211
-0.611018
-0.614916
-0.616995
-0.626607
-0.627647
-0.652846
-0.686356
-0.703242
-0.731558
-0.756237
-0.775460
-0.792086
-0.800400
-0.815467
-0.825339
-0.830016
-0.825861
-0.805080
-0.784819
-0.759363
-0.728711
-0.692344
-0.651562
-0.615195
-0.576750
-0.537007
-0.483755
-0.420373
-0.367381
-0.316727
-0.265813
-0.209964
-0.153336
-0.098525
-0.046053
0.000964
0.053956
0.103051
0.140976
0.178901
0.212151
0.242023
0.275792
0.297872
0.305404
0.317352
0.332418
0.332937
0.322026
0.301503
0.267473
0.234481
0.196814
0.157588
0.123038
0.075759
0.024325
-0.024253
-0.081922
-0.139592
-0.191546
-0.248176
-0.304547
-0.350267
-0.397805
-0.460410
-0.510806
-0.554448
-0.602766
-0.636537
-0.676022
-0.715248
-0.734731
-0.745123
-0.754735
-0.759672
-0.749022
-0.729541
-0.697070
-0.665120
-0.635507
-0.582256
-0.527445
-0.477571
-0.416007
-0.345091
-0.271058
-0.195466
-0.113640
-0.022463
0.084561
0.195481
0.300426
0.411866
0.533956
0.666956
0.802294
0.922566
1.041798
1.177137
1.302344
1.415602
1.528860
1.629649
1.732256
1.830448
1.894610
1.954615
2.017218
2.054884
2.081899
2.104757
2.118264
2.119043
2.110729
2.095402
2.070204
2.045785
2.014612
1.977464
1.942135
1.909663
1.877970
1.834588
1.785491
1.742369
1.704702
1.667294
1.625990
1.583387
1.541044
1.485713
1.432200
1.381544
1.306730
1.246463
1.208536
1.151906
1.081508
1.019422
0.971884
0.911617
0.856545
0.822774
0.770300
0.725619
0.696005
0.651324
0.611319
0.584042
0.554428
0.504811
0.458052
0.423243
0.377523
0.330504
0.285823
0.239064
0.186330
0.131258
0.072809
0.011244
-0.038633
-0.087470
-0.136047
-0.190859
-0.244113
-0.287495
-0.347242
-0.406730
-0.461282
-0.518172
-0.570906
-0.628316
-0.687803
-0.748330
-0.805480
-0.845225
-0.884711
-0.927833
-0.957707
-0.981607
-1.001091
-1.023951
-1.048630
-1.065256
-1.076167
-1.090195
-1.114614
-1.130721
-1.150204
-1.184754
-1.218006
-1.257491
-1.306069
-1.357763
-1.408159
-1.465309
-1.524797
-1.578050
-1.635979
-1.687674
-1.742486
-1.797038
-1.829510
-1.862501
-1.893934
-1.915236
-1.929784
-1.938097
-1.952905
-1.965894
-1.978364
-1.986158
-1.988497
-2.007720
-2.026684
-2.049285
-2.078899
-2.087992
-2.096306
-2.106697
-2.112413
-2.114232
-2.099167
-2.085919
-2.067996
-2.027733
-1.980196
-1.930841
-1.871355
-1.801219
-1.729004
-1.648737
-1.563534
-1.472356
-1.379880
-1.293897
-1.199083
-1.114919
-1.037249
-0.946851
-0.865025
-0.784238
-0.707088
-0.643965
-0.584479
-0.540319
-0.493043
-0.449402
-0.428102
-0.389398
-0.343420
-0.315885
-0.286532
-0.250426
-0.217955
-0.187823
-0.155093
-0.130676
-0.100544
-0.057943
-0.035344
-0.005991
0.038169
0.068820
0.103888
0.143372
0.185454
0.232730
0.285462
0.345468
0.407292
0.482883
0.556657
0.621338
0.702904
0.788627
0.862660
0.930978
1.001374
1.072809
1.138270
1.193600
1.238539
1.283737
1.325819
1.354133
1.372056
1.380627
1.387380
1.394913
1.386340
1.364258
1.338800
1.310485
1.270739
1.209953
1.149945
1.089678
1.013825
0.932257
0.854326
0.776655
0.690411
0.600011
0.503376
0.411158
0.329330
0.241787
0.155803
0.079171
0.013708
-0.043961
-0.098254
-0.147091
-0.185797
-0.204501
-0.210996
-0.207360
-0.195672
-0.172553
-0.131771
-0.080597
-0.019293
0.042531
0.105394
0.172153
0.237874
0.297360
0.361781
0.433476
0.495820
0.552968
0.603102
0.644145
0.668562
0.687524
0.714539
0.726747
0.730383
0.732461
0.723108
0.698949
0.657125
0.613743
0.567763
0.514510
0.464634
0.400470
0.335787
0.283053
0.218630
0.145115
0.077834
0.024321
-0.027374
-0.075432
-0.116476
-0.161677
-0.205318
-0.250779
-0.286368
-0.306631
-0.333128
-0.365600
-0.395993
-0.416776
-0.438078
-0.463016
-0.475746
-0.486137
-0.504322
-0.515753
-0.520429
-0.529002
-0.528744
-0.524069
-0.529525
-0.532643
-0.523292
-0.514461
-0.516540
-0.506150
-0.486149
-0.476019
-0.452121
-0.422768
-0.398870
-0.362763
-0.328475
-0.298343
-0.264054
