EVENT_NAME: 202302060117
EVENT_ID: 13194
EVENT_DATE_YYYYMMDD: 2023/02/06
EVENT_TIME_HHMMSS: 01:17:32.00000
EVENT_LATITUDE_DEGREE: 37.288
EVENT_LONGITUDE_DEGREE: 37.043
EVENT_DEPTH_KM: 8.6
HYPOCENTER_REFERENCE: AFAD
MAGNITUDE_W: 7.7
MAGNITUDE_W_REFERENCE: AFAD
MAGNITUDE_L: 
MAGNITUDE_L_REFERENCE: 
FOCAL_MECHANISM: 
NETWORK: TK
STATION_CODE: 6303
STATION_NAME: 
STATION_LATITUDE_DEGREE: 37.7524
STATION_LONGITUDE_DEGREE: 39.3291
STATION_ELEVATION_M: 800.0
LOCATION: Kahramanmaras_Pazarck_Turkiye
SENSOR_DEPTH_M: 
VS30_M/S: 986
SITE_CLASSIFICATION_EC8: A
MORPHOLOGIC_CLASSIFICATION: 
EPICENTRAL_DISTANCE_KM: 208.12
EARTHQUAKE_BACKAZIMUTH_DEGREE: 
DATE_TIME_FIRST_SAMPLE_YYYYMMDD_HHMMSS: 2023/02/06 01:17:47.8876210
DATE_TIME_FIRST_SAMPLE_PRECISION: millisecond
SAMPLING_INTERVAL_S: 0.01
NDATA: 14501
DURATION_S: 
STREAM: HNE
UNITS: cm/s^2
INSTRUMENT: sensor = CMG-5T/GURALP | digitizer = 
INSTRUMENT_ANALOG/DIGITAL: 
INSTRUMENTAL_FREQUENCY_HZ: 
INSTRUMENTAL_DAMPING: 
FULL_SCALE_G: 
N_BIT_DIGITAL_CONVERTER: 
PGA_CM/S^2: 114.439
TIME_PGA_S: 
BASELINE_CORRECTION: BASELINE REMOVED
FILTER_TYPE: BUTTERWORTH
FILTER_ORDER: 
LOW_CUT_FREQUENCY_HZ: 
HIGH_CUT_FREQUENCY_HZ: 
LATE/NORMAL_TRIGGERED: 
DATABASE_VERSION: 
HEADER_FORMAT: DYNA 1.2
DATA_TYPE: Acceleration
PROCESSING: Automatic Paolucci et al., 2011
DATA_TIMESTAMP_YYYYMMDD_HHMMSS: 
DATA_LICENSE: U (unknown license)
DATA_CITATION: Turkish Accelerometric Archive v 1.0 - Disaster And Emergency Management Presidency, Earthquake Department
DATA_CREATOR: AFAD
ORIGINAL_DATA_MEDIATOR_CITATION: : AFAD - Disaster And Emergency Management Presidency
ORIGINAL_DATA_MEDIATOR: AFAD PROCESS SERVICE
ORIGINAL_DATA_CREATOR_CITATION: AFAD PROCESS SERVICE
ORIGINAL_DATA_CREATOR: network: TK
USER1: GuestUser
USER2: 
USER3: 
USER4: 
USER5: 
[...]
0.005107
-6.935537
-10.944078
-9.562921
-9.753106
-10.321141
-7.184740
-3.924063
-3.075474
-4.014769
-4.839829
-4.452569
1.698158
9.473892
11.874992
13.593828
15.865316
12.705997
2.681670
-3.395630
1.465888
8.672649
8.886990
2.944322
-2.471741
-3.044798
3.437961
7.201078
2.233163
-1.788873
-2.346865
-2.868140
-3.132388
-5.703279
-8.377733
-9.621128
-9.104256
-8.622534
-11.457041
-9.773039
-4.582942
-3.030435
-3.985735
-3.251380
0.285153
3.982366
6.711103
7.784707
5.705273
5.327104
9.625614
11.356689
5.472079
-1.528506
-4.697555
-4.995383
-5.216323
-2.869201
-0.088996
-3.191199
-4.535333
-5.116235
-6.911027
-2.867032
2.092401
2.298895
4.097130
7.896024
11.668242
13.388648
10.888368
7.336449
6.360436
8.896483
10.066432
7.045511
2.858088
0.841105
-2.326688
-9.437428
-14.158360
-10.951033
-7.708558
-7.284580
-4.462322
-4.322672
-5.092185
0.577442
5.416679
5.750274
5.701940
3.585787
0.380335
-1.712281
-2.744155
-1.063606
3.278840
7.274190
5.566329
-2.238600
-3.560452
4.770445
11.010300
12.279733
11.491076
9.320631
4.422699
-1.041066
-1.336070
1.521965
0.922234
-2.446410
-4.405021
-3.872458
-3.029832
-3.411138
-0.956060
2.552229
2.057630
-1.854252
-2.730153
2.228339
4.477859
-0.090238
-1.416798
2.544032
3.283408
2.542140
2.713799
0.188728
-4.015956
-6.650554
-12.113378
-20.423257
-23.523577
-19.401126
-11.698828
-8.465454
-13.613821
-13.251981
-1.521063
8.067660
8.914993
5.634222
2.165466
-0.207084
-1.213852
1.799214
5.544130
4.390490
-1.201317
-5.583001
-3.968984
0.105452
3.507980
2.400787
1.482205
0.795543
-3.674640
-9.506840
-10.260348
-8.934426
-11.506258
-7.265807
3.849380
12.999997
13.057109
7.244994
3.891728
4.792412
9.153374
13.069012
12.360382
9.964293
10.146310
9.758726
8.633018
5.986180
0.448665
-4.705351
-7.509103
-7.119332
-5.946872
-6.775699
-9.147622
-10.424282
-6.376836
0.340666
4.210486
6.481660
9.202238
7.808834
0.652275
-6.340778
-8.097597
-6.224984
-4.739323
-2.145532
1.396963
4.713816
5.950297
3.729326
1.475402
-1.040255
-4.155011
-6.885013
-10.622092
-15.221258
-17.293161
-14.383344
-11.142752
-11.422064
-11.087841
-9.470372
-8.321763
-5.237771
-3.180628
-4.708037
-7.317215
-9.955893
-8.393658
-3.590825
-0.396366
2.508430
5.698809
4.990807
1.408446
2.179519
3.233979
3.678042
3.995318
2.493643
4.293760
7.325029
6.568069
2.236598
1.368543
4.825050
4.536950
1.437885
3.343763
6.420223
7.800752
9.246557
7.543403
6.648986
10.149115
13.734605
12.101749
5.824853
0.543736
-2.137309
-2.735471
-4.425444
-11.553758
-18.130046
-20.159268
-18.582597
-11.158980
-3.808798
-5.273128
-13.567316
-18.425078
-17.815627
-15.470702
-10.787752
-4.689121
1.285863
2.322121
-2.828757
-9.028765
-11.327252
-6.743786
-1.157009
-1.516662
-4.765109
-9.399738
-13.554523
-12.440749
-11.352709
-14.779411
-15.198063
-13.964407
-15.660029
-17.614246
-17.916468
-17.425330
-20.292161
-19.998736
-15.151654
-11.457265
-10.930351
-12.359846
-15.296347
-17.202549
-15.168315
-11.950318
-9.615122
-8.347886
-5.855775
-3.551962
0.851994
8.667270
16.325003
17.386368
9.788566
3.886068
3.632490
1.363816
-4.246821
-9.728788
-12.053951
-11.237373
-9.353777
-5.320766
-3.735621
-7.945954
-14.196802
-19.106032
-18.676091
-12.860219
-12.149087
-15.598699
-15.559789
-13.382762
-9.424757
-6.860780
-7.033077
-7.764617
-7.733552
-8.116742
-14.135356
-18.540891
-13.648617
-8.483312
-9.711957
-10.862458
-6.929560
-3.986163
-3.485297
-5.291387
-12.269062
-19.042749
-18.416665
-14.747069
-12.182778
-14.810158
-16.984055
-11.866139
-7.632906
-3.973038
-1.377050
-1.479049
-4.812544
-9.143073
-8.542409
-5.452769
-5.773820
-7.061779
-1.573544
6.315481
3.960819
-1.812382
-3.543466
-5.420481
-4.580680
-1.724842
3.235219
11.440270
16.449915
16.460267
15.343032
15.762930
22.623538
31.307492
31.210201
26.284025
22.936094
16.392129
8.851131
9.388401
16.020542
17.668139
15.568933
16.889520
21.115849
24.172224
26.794573
31.793549
30.284969
21.050863
8.358050
-3.612643
-5.757040
-1.953439
-5.131902
-12.724996
-15.326015
-16.308618
-20.567280
-19.787420
-16.521721
-15.958717
-10.050579
-2.163751
4.829921
12.062103
16.230373
19.195738
21.667135
21.661482
19.287676
16.911045
17.829617
12.435836
2.967301
-0.209594
2.441000
6.777169
7.288706
7.750657
8.402475
9.780179
13.317967
14.010583
16.176311
22.182364
26.676702
30.936611
36.125766
40.342680
42.800583
44.957838
45.946709
46.677925
47.004303
44.007546
37.172976
26.276520
15.089143
9.445868
6.441266
1.309845
-1.131748
-4.554998
-10.620059
-12.357107
-8.416048
3.484966
15.637356
16.828646
11.335695
5.543351
3.435044
5.756745
5.140067
3.315147
1.912327
-1.354950
-5.813207
-6.255710
-1.178278
-2.927565
-3.642785
-0.373948
-1.221291
0.679880
6.166859
7.657228
6.423248
7.374459
8.030670
8.966817
6.270395
-2.300904
-9.777881
-16.009900
-24.471044
-30.679212
-33.134613
-33.913541
-33.893461
-35.099824
-34.350091
-30.060683
-28.730681
-29.398827
-27.409470
-25.895564
-29.637978
-36.766606
-42.027010
-41.846563
-38.668109
-41.026223
-47.458465
-50.934124
-49.721808
-49.100745
-48.600193
-47.031680
-45.695402
-46.093969
-48.165244
-47.915127
-45.315374
-41.284560
-38.151297
-33.731650
-28.961770
-21.836604
-11.593548
-5.915133
-5.083491
-5.092597
-4.431364
-0.817943
3.849943
2.711367
-3.525358
-10.561092
-13.716960
-12.242597
-8.889340
-4.804234
-1.015697
1.149404
4.413220
9.495987
12.288118
16.447288
21.509970
21.554215
17.089995
12.911673
11.876975
12.706106
12.307852
4.410972
-6.315076
-11.659586
-14.347849
-15.133995
-13.333877
-9.600573
-5.495069
-2.699172
1.479769
6.197240
7.729034
5.917609
2.476471
1.727356
4.554008
6.298265
4.674823
5.473827
11.286875
15.782782
15.580358
16.061139
17.734470
20.050836
24.184586
26.978286
30.662318
31.352737
26.705868
19.225753
9.143995
-1.245942
-6.014262
-3.984108
-2.122793
0.653332
1.196879
-2.929975
-5.701089
-8.405043
-12.142435
-15.060735
-14.124902
-9.088267
-1.163779
2.636998
1.762039
2.131725
1.066899
2.577980
5.926216
5.869722
1.810968
-4.867942
-10.483601
-13.262560
-13.591457
-10.460705
-5.803175
-0.379590
3.706144
5.988930
9.586660
16.166705
25.031425
33.971777
41.905994
44.121935
40.810094
33.917152
27.698001
23.177919
21.240963
22.461752
23.902536
23.285230
21.223056
23.101631
30.335382
36.204604
36.418317
34.919152
34.236570
35.940970
40.753845
46.602355
48.094920
45.046068
38.632971
30.262209
25.984403
26.925571
31.012560
38.645814
46.355016
48.480888
45.139548
42.425237
40.460036
33.391664
22.824727
14.684943
13.619176
13.137130
7.755274
5.196623
4.810922
3.952910
2.703866
0.704144
-3.676598
-14.170098
-22.795062
-26.680895
-28.996643
-32.039846
-34.508429
-34.499333
-30.936124
-22.165240
-12.730607
-7.560595
-7.647530
-11.587028
-13.493230
-6.937349
-2.728909
-6.750316
-14.918031
-23.168911
-26.283981
-26.271746
-25.829879
-21.744146
-11.559149
2.372652
14.556739
19.448699
18.739441
18.435022
16.951235
11.045912
3.616637
-1.169885
-2.790502
-4.346471
-8.821675
-15.217826
-18.183827
-22.189543
-25.093406
-23.045991
-19.608942
-16.392829
-13.711166
-8.753616
1.305850
11.012259
14.333505
21.326549
29.914785
32.014923
31.621064
33.059651
31.513097
24.185816
16.757482
11.896268
6.786188
1.669518
3.324647
9.127652
14.303313
17.737537
18.808631
17.256115
15.033574
13.832232
13.713287
13.088135
8.809388
0.161828
-10.011881
-19.656160
-29.064754
-38.471152
-41.679429
-34.442853
-23.563353
-13.421350
-8.687560
-5.863732
0.273814
10.477328
21.430265
30.326053
37.783250
42.677093
43.926127
40.207878
33.770616
28.539711
27.274976
25.659381
22.790353
23.276155
25.502766
26.109393
25.908538
21.903763
15.479995
9.035201
0.682955
-5.106565
-5.905892
-7.086520
-12.424440
-18.461885
-18.316273
-11.637685
-9.097245
-13.931470
-19.053161
-22.624225
-24.427176
-24.817898
-25.818389
-28.857826
-34.166560
-40.772348
-43.982195
-36.952119
-28.104660
-22.786521
-14.613166
-7.937403
-6.549029
-6.590459
-5.723982
-2.503789
3.843082
9.706656
11.292115
7.025607
-4.502588
-13.448598
-13.516390
-8.567941
-1.329169
4.573320
7.239292
8.188305
10.509693
15.595599
23.039301
28.195505
28.442798
25.541759
20.718518
16.381713
16.151044
16.532341
13.110033
9.224827
7.975783
9.441673
13.218285
14.349634
10.804932
9.904552
10.152472
6.137341
-0.549415
-8.747257
-14.743276
-14.662627
-13.664970
-17.199315
-22.468820
-24.835408
-21.849017
-16.442064
-12.001704
-10.213198
-8.844595
-4.960340
-1.385520
-2.349293
-7.820904
-11.108894
-10.903968
-10.573197
-11.218748
-11.785527
-8.978019
-2.254868
2.414901
0.272073
-5.711393
-4.369465
3.957038
9.936729
12.461477
11.592480
8.375730
6.368476
8.704300
11.370271
10.598875
6.415532
3.445764
2.488582
1.467378
2.004335
4.685370
10.389833
13.500814
10.500605
3.832365
-1.742182
-3.391044
-4.309939
-3.560834
-0.977714
3.061573
7.320226
7.688029
5.499068
4.029403
2.978699
0.027762
-3.726578
-7.870693
-11.034092
-10.873730
-8.280253
-7.140117
-6.766980
-5.640966
-6.524713
-5.888900
-3.197195
-2.491084
-4.532860
-7.730153
-11.602492
-16.036898
-18.825900
-20.149635
-20.171608
-16.729851
-9.610962
-4.836374
-3.059479
-1.091149
2.268384
5.954300
7.155946
6.214454
3.909377
4.311073
8.788465
15.864360
20.563315
20.414555
19.378602
21.173384
22.714593
22.316967
16.711038
4.239474
-4.602973
-11.081975
-17.305520
-18.946221
-17.722607
-15.499762
-14.280228
-15.134475
-18.184582
-22.275660
-22.997471
-23.350219
-26.077397
-30.014384
-32.266111
-30.483254
-26.419175
-20.244596
-14.189587
-9.439164
-5.978891
-2.573853
1.986704
6.823744
11.645720
15.120114
15.004934
9.205686
0.730419
-1.775195
3.034228
10.359616
14.896950
14.117080
12.266113
10.745607
7.031124
2.403713
0.340911
-0.955834
-3.115609
-0.731770
7.949360
18.742244
28.130116
32.683454
33.967951
35.292305
36.442169
35.762411
32.568884
27.972228
20.760749
11.073161
1.331909
-7.175369
-15.279063
-20.618238
-20.447833
-20.286844
-21.693429
-21.089627
-19.881704
-19.525200
-22.204989
-25.341085
-24.958846
-21.072708
-15.636883
-13.864696
-14.943644
-14.364321
-14.475107
-18.935248
-19.570756
-15.816425
-14.004696
-11.250852
-6.446765
-2.010798
1.996478
7.784733
16.017401
22.666803
25.062568
25.715955
26.360241
27.203180
25.395835
20.144846
13.869833
9.300480
4.793265
3.011654
6.489187
8.259805
6.209557
3.991409
4.923163
7.740086
10.841966
13.319954
16.329882
19.706990
22.673610
24.430733
24.222346
26.054788
26.820840
24.257167
22.148860
20.380430
17.510146
14.421438
9.683559
2.942510
0.698943
6.196592
12.846621
12.115709
7.441538
3.339790
1.670215
4.448852
4.255215
0.520019
0.368749
1.464007
2.988269
4.864333
4.048687
1.832423
-1.646374
-4.545844
-6.479662
-6.963905
-7.376280
-9.820384
-11.011056
-9.818824
-7.541687
-7.789616
-11.468323
-15.104662
-18.511279
-22.447326
-24.548415
-25.494299
-25.049295
-20.450765
-14.097618
-10.751893
-11.942564
-14.489918
-12.331408
-5.438789
2.099062
4.079318
-1.574628
-8.329799
-12.842035
-15.976876
-20.397160
-26.875848
-31.534329
-31.252829
-30.440330
-30.953445
-30.844551
-28.377861
-21.644667
-14.866910
-10.505007
-8.473283
-6.630171
-3.210069
-3.902380
-9.071460
-12.975182
-14.353836
-13.874624
-11.346738
-9.756885
-9.509906
-9.092519
-6.431568
0.303508
7.404823
10.192875
8.724465
7.126130
6.203782
7.774805
9.778911
11.206828
11.536971
6.699922
-2.378524
-9.336742
-10.746152
-9.911686
-8.945098
-7.775148
-7.441867
-11.398312
-16.825673
-20.156030
-22.391437
-23.467875
-22.967322
-22.575041
-22.972353
-23.989163
-26.039098
-29.827331
-32.764146
-32.123626
-29.977983
-27.563702
-26.386848
-25.887551
-24.388709
-23.870268
-27.896070
-33.820222
-37.346721
-35.418875
-28.069635
-20.639114
-16.066004
-15.527165
-16.669193
-17.325100
-15.334802
-12.018577
-10.539820
-10.387931
-9.830576
-7.849379
-4.403542
1.676888
6.489449
6.098413
4.684296
6.351350
10.860125
14.908513
12.714844
6.750836
0.745402
-4.232870
-4.915139
-2.195189
0.047742
0.256747
0.052754
-1.272236
-4.877507
-8.944734
-14.402536
-20.623884
-27.820613
-35.028011
-39.935358
-39.729177
-32.653910
-24.955378
-21.263814
-20.280593
-16.506491
-9.032661
-0.076304
6.652182
9.511159
7.953308
4.523153
3.446088
6.517840
10.997429
12.326804
13.164094
14.930005
14.436975
13.159687
13.047645
13.336363
14.558408
13.727385
11.811769
7.693074
4.378409
4.743073
7.058184
9.703757
10.330783
10.166645
8.673757
4.965550
-0.764342
-6.428330
-10.800912
-15.382504
-20.850349
-25.342814
-27.586695
-26.086912
-25.817337
-30.031436
-35.487983
-39.316700
-41.259619
-42.863289
-43.951339
-41.405564
-32.739498
-21.801625
-12.638140
-6.891311
-4.449099
-6.234162
-9.245669
-10.455797
-8.414973
-3.104993
0.532279
1.674297
2.107690
0.659679
-2.730305
-2.697671
5.204535
18.668417
30.226729
36.765035
41.001721
43.337230
44.186447
43.988730
42.673782
43.536493
47.295531
52.260613
57.375077
60.541920
62.139932
63.695263
65.369221
68.467963
73.960591
79.581262
84.490168
90.062823
94.722863
96.253402
94.788130
92.812887
94.401484
99.922984
105.689899
110.219700
113.608734
114.439434
111.333151
107.238935
106.192625
106.581141
107.440713
107.703383
105.045562
97.487931
85.001617
73.116285
67.368191
65.418054
59.476955
48.897779
39.258521
33.623719
26.203544
15.776575
4.224216
-8.110518
-17.824782
-23.334052
-25.027163
-25.839357
-26.429988
-28.651901
-34.175607
-41.835861
-48.967626
-56.721715
-63.009908
-66.110542
-67.672787
-68.541156
-69.403876
-70.165857
-71.077535
-68.600174
-60.454751
-49.862717
-42.199335
-37.187806
-35.054402
-32.571707
-31.972298
-36.430556
-40.559920
-42.611111
-44.907401
-48.595836
-50.173459
-48.723888
-43.670620
-37.136708
-30.224945
-23.920128
-21.787665
-22.468679
-22.481236
-19.761914
-16.581577
-15.247495
-16.064082
-18.192474
-21.356501
-26.856985
-31.432614
-30.790525
-25.353444
-19.403254
-16.285055
-16.329937
-17.360555
-20.414115
-23.509414
-22.273874
-16.990570
-11.505160
-10.681991
-12.239215
-14.868791
-15.550118
-16.080808
-20.751527
-27.277603
-33.870839
-40.283936
-43.618059
-42.125493
-37.740681
-30.347505
-21.216345
-12.978028
-6.802508
-2.355871
0.345877
5.148709
16.095055
33.140980
46.985222
52.955184
53.406465
52.427628
52.180326
48.157036
42.515643
34.742098
23.791662
15.654075
11.487051
11.304711
19.124695
33.547637
48.233568
57.554909
58.300248
50.282857
38.294589
28.285327
23.200981
16.655134
5.278519
-4.761499
-9.626479
-13.243361
-17.325338
-20.259643
-25.687631
-29.381716
-28.659600
-28.871439
-30.354913
-33.768434
-43.313230
-54.220043
-58.605806
-55.397538
-49.672677
-42.167150
-31.966461
-23.218486
-15.606571
-8.595325
-2.117902
3.445338
3.700162
0.555592
-2.766605
-4.767582
-6.144668
-8.688569
-10.289729
-13.317241
-14.701231
-12.536757
-11.140224
-10.468007
-8.479278
-6.172954
-3.899896
-1.582589
1.284234
4.428480
5.948035
4.763013
0.156314
-2.084429
0.542000
4.863419
8.946015
12.452106
15.250827
18.472276
21.079248
16.945803
8.696493
1.836503
-2.782749
-5.060523
-8.878256
-13.560274
-15.336864
-8.190357
2.492059
8.077267
10.457340
12.078889
12.777782
9.698488
0.099086
-15.325921
-26.641653
-31.268437
-26.353882
-13.836508
-0.938460
7.336889
12.084174
19.482057
27.862852
36.213520
41.868712
47.390840
51.485360
52.556140
49.155486
44.267910
43.505301
42.733592
39.928271
34.589096
29.820147
25.154135
19.848226
13.837143
11.255582
8.205161
0.454525
-11.088106
-25.926567
-34.722253
-33.138364
-25.069514
-16.863522
-10.737900
-10.725038
-17.043046
-24.356518
-29.174110
-30.547743
-27.537501
-24.380701
-27.913792
-35.558981
-37.401789
-32.889562
-25.863880
-21.506371
-23.030328
-26.750460
-28.814517
-25.334787
-18.519684
-15.370730
-19.475303
-26.724126
-29.033284
-23.975309
-16.838531
-11.292866
-7.611030
-6.123486
-5.557343
0.856687
8.597271
14.868195
20.544727
27.292357
37.474530
48.179228
53.347985
51.289577
46.658713
41.877212
36.045325
26.580242
17.336094
10.192717
7.888267
6.073076
3.009160
0.933178
0.223606
1.922671
3.540140
2.429495
-1.050244
-4.068341
-6.742167
-8.647427
-10.435629
-13.349848
-17.751616
-23.019239
-26.062128
-28.104531
-30.882549
-34.329022
-36.459297
-34.688365
-29.352965
-22.378437
-16.161178
-10.357231
-3.523299
7.834477
21.126694
31.831079
38.415518
41.971508
42.983288
43.364271
44.703374
46.470540
44.946582
39.697162
36.912554
32.920960
24.853984
16.677482
11.965651
9.269229
6.595402
2.699526
-1.589264
-0.758877
3.036878
6.929607
7.754972
4.735306
2.210862
0.459379
-0.507847
-3.610677
-9.353436
-15.096195
-18.591940
-21.584930
-23.417382
-23.097281
-24.223931
-27.990510
-30.667475
-30.675953
-27.589137
-21.054597
-15.312788
-11.065433
-8.698854
-7.768670
-10.042992
-13.695024
-13.861985
-10.915137
-4.787633
0.934091
1.540090
-2.752466
-6.899092
-8.567097
-8.941186
-5.763987
2.019592
13.476852
21.929200
23.823153
21.697899
16.127118
8.899321
2.858738
-3.493790
-11.449671
-19.288179
-27.594920
-35.199626
-40.080611
-42.542289
-43.407520
-44.363133
-47.369932
-49.123299
-48.610193
-46.491539
-41.475931
-33.684820
-24.875962
-15.803174
-9.344894
-8.103392
-8.796958
-8.693086
-7.496775
-5.515578
-0.487730
5.098105
6.838596
3.092730
-4.673912
-10.126065
-11.230120
-10.485722
-10.191356
-10.770688
-12.130827
-12.208975
-7.313563
0.253474
5.723820
11.894632
20.883628
27.764949
30.063741
28.179508
28.595954
31.634441
32.692353
31.099353
28.937381
32.282479
39.123943
46.583023
52.766703
56.913319
55.742105
49.603922
42.913713
35.846596
26.464050
16.239187
11.395861
11.606122
11.368549
5.159754
-4.360877
-13.467254
-19.404901
-20.266680
-16.191930
-11.565783
-8.283452
-5.564129
-4.216239
-7.904674
-16.448670
-23.630962
-26.582527
-25.895560
-27.185402
-28.827045
-29.796467
-28.759895
-29.073415
-33.827613
-39.147645
-41.441738
-38.685384
-32.622529
-26.241137
-18.298761
-9.601940
-2.745411
5.581092
12.134148
12.767764
9.798624
9.100978
10.688634
12.492831
9.941712
4.228139
1.413717
4.299369
10.225081
12.412777
10.647485
7.513585
4.780131
1.555535
-1.166935
-3.924868
-6.596811
-7.416223
-7.877870
-10.267995
-12.698291
-11.710362
-10.485493
-13.961152
-21.546087
-31.243717
-38.312403
-40.000807
-40.195386
-36.240519
-27.982745
-23.620214
-22.677163
-21.666011
-21.819792
-22.660230
-23.981454
-26.757275
-31.181325
-33.726796
-31.653647
-26.000966
-18.937938
-14.522684
-14.534615
-17.611397
-17.514743
-12.858782
-6.613906
0.456653
8.218264
15.726929
20.807500
21.065777
13.101737
0.510290
-9.104175
-11.787417
-11.965990
-12.058574
-12.252839
-13.806924
-14.820282
-10.114423
0.948982
10.675161
12.766198
7.918793
3.469637
2.493624
3.158623
3.901137
3.797255
3.568470
