EVENT_NAME: 202302060117
EVENT_ID: 13194
EVENT_DATE_YYYYMMDD: 2023/02/06
EVENT_TIME_HHMMSS: 01:17:32.00000
EVENT_LATITUDE_DEGREE: 37.288
EVENT_LONGITUDE_DEGREE: 37.043
EVENT_DEPTH_KM: 8.6
HYPOCENTER_REFERENCE: AFAD
MAGNITUDE_W: 7.7
MAGNITUDE_W_REFERENCE: AFAD
MAGNITUDE_L: 
MAGNITUDE_L_REFERENCE: 
FOCAL_MECHANISM: 
NETWORK: TK
STATION_CODE: 3138
STATION_NAME: 
STATION_LATITUDE_DEGREE: 36.80262
STATION_LONGITUDE_DEGREE: 36.51119
STATION_ELEVATION_M: 459.0
LOCATION: Kahramanmaras_Pazarck_Turkiye
SENSOR_DEPTH_M: 
VS30_M/S: 618
SITE_CLASSIFICATION_EC8: B
MORPHOLOGIC_CLASSIFICATION: 
EPICENTRAL_DISTANCE_KM: 71.70
EARTHQUAKE_BACKAZIMUTH_DEGREE: 
DATE_TIME_FIRST_SAMPLE_YYYYMMDD_HHMMSS: 2023/02/06 01:17:19.4420340
DATE_TIME_FIRST_SAMPLE_PRECISION: millisecond
SAMPLING_INTERVAL_S: 0.01
NDATA: 10501
DURATION_S: 
STREAM: HNZ
UNITS: cm/s^2
INSTRUMENT: sensor = GMS+/GEOSIG | digitizer = 
INSTRUMENT_ANALOG/DIGITAL: 
INSTRUMENTAL_FREQUENCY_HZ: 
INSTRUMENTAL_DAMPING: 
FULL_SCALE_G: 
N_BIT_DIGITAL_CONVERTER: 
PGA_CM/S^2: 1296.273
TIME_PGA_S: 
BASELINE_CORRECTION: BASELINE REMOVED
FILTER_TYPE: BUTTERWORTH
FILTER_ORDER: 
LOW_CUT_FREQUENCY_HZ: 
HIGH_CUT_FREQUENCY_HZ: 
LATE/NORMAL_TRIGGERED: 
DATABASE_VERSION: 
HEADER_FORMAT: DYNA 1.2
DATA_TYPE: Acceleration
PROCESSING: Automatic Paolucci et al., 2011
DATA_TIMESTAMP_YYYYMMDD_HHMMSS: 
DATA_LICENSE: U (unknown license)
DATA_CITATION: Turkish Accelerometric Archive v 1.0 - Disaster And Emergency Management Presidency, Earthquake Department
DATA_CREATOR: AFAD
ORIGINAL_DATA_MEDIATOR_CITATION: : AFAD - Disaster And Emergency Management Presidency
ORIGINAL_DATA_MEDIATOR: AFAD PROCESS SERVICE
ORIGINAL_DATA_CREATOR_CITATION: AFAD PROCESS SERVICE
ORIGINAL_DATA_CREATOR: network: TK
USER1: GuestUser
USER2: 
USER3: 
USER4: 
USER5: 
[...]
4.891978
4.660192
0.331866
-2.918683
-4.565684
-9.298729
-13.395342
-12.318677
-6.840244
-0.089988
4.938007
8.537798
7.463845
2.688978
-1.525310
-8.315716
-14.278242
-14.980468
-15.241867
-14.385745
-9.547640
-2.418902
5.172743
9.797578
10.641231
9.816915
9.449530
10.940266
12.332289
15.086535
18.967655
18.816397
19.011150
19.593477
15.170596
13.446703
15.145253
13.059503
10.405122
8.104804
3.814923
2.021413
3.392135
5.475661
8.949984
9.514647
5.915749
3.676737
1.598780
-2.747989
-6.245837
-7.832832
-8.368027
-9.819164
-11.778406
-10.041411
-6.689698
-2.793772
4.127672
10.742589
15.968787
19.025403
16.641960
12.076985
10.943805
12.391159
12.577339
14.398240
15.868194
11.395177
8.188529
8.420688
7.009296
4.003189
1.470899
0.355902
-2.434338
-7.132054
-10.630941
-10.014325
-8.107442
-8.795899
-7.343870
-2.662924
4.200331
6.337369
0.557979
1.159269
8.296320
12.350445
14.901293
15.516351
12.106305
7.753820
2.296023
-2.069190
-0.201531
4.785940
9.868227
12.486874
11.675286
8.477730
6.348599
6.138634
1.229207
-2.674398
-2.180133
-1.198802
2.267468
5.838944
7.343447
4.347211
-2.182648
-7.440943
-12.512985
-13.850862
-7.144766
2.003668
10.292789
18.682181
26.182647
33.295799
34.960060
25.771736
12.308930
0.331738
-10.929015
-20.245664
-20.879830
-10.749993
3.948902
16.743178
24.395869
30.546321
32.197853
24.048081
10.632034
-5.700428
-17.558906
-19.486457
-16.944701
-8.324895
6.833790
17.470434
17.412433
9.479307
-2.998978
-13.478608
-21.563957
-29.607224
-29.086982
-23.573741
-15.933260
2.141580
21.556301
32.908606
38.283392
39.426817
33.362982
22.048977
15.597308
11.401204
6.477230
5.024535
4.503627
4.697601
5.444621
2.803487
0.351985
-0.774182
-2.761999
0.687646
8.136938
15.283600
23.382572
26.504909
23.763246
19.843275
15.595217
14.265133
12.887251
9.934136
13.707452
16.928502
14.626365
15.827200
17.557181
19.655514
20.962333
14.809657
3.361612
-8.140465
-9.688755
-6.388996
-9.314835
-10.065637
-7.434520
-4.405180
2.244806
8.460201
12.301836
15.616661
16.998034
14.674597
9.225892
3.345712
-0.871693
-2.280487
-0.887684
4.279287
9.282344
9.510347
11.221885
13.069802
10.409705
5.834600
-3.067720
-9.535494
-7.460022
-4.002843
0.694727
4.152425
3.308626
4.690778
8.243811
8.762755
3.976718
-2.842004
-8.891552
-12.931276
-7.502978
4.070130
10.411511
12.293717
11.736442
8.186900
5.002852
4.064237
8.170836
13.106353
10.247275
6.863984
5.478569
0.187803
-1.716628
2.974188
5.539843
4.848268
5.439427
5.528714
4.741804
2.619168
-3.401806
-6.871599
-5.191753
-5.020898
-5.483098
-4.914799
-5.375181
-5.896348
-4.508221
-0.206277
1.026768
-2.469781
-3.072775
0.006961
3.058122
2.979599
-0.648912
-3.198867
-4.456996
-7.127743
-8.928787
-10.861533
-10.064118
-3.746116
1.443195
8.384121
14.088812
10.877748
8.113744
12.148647
19.720809
26.012315
29.242456
30.849048
30.274369
27.351127
21.428086
14.129833
10.463656
7.175960
5.151776
9.857918
13.960360
15.856074
17.235888
15.856707
11.956479
5.982783
2.369598
-2.210183
-8.145174
-9.588258
-12.527345
-18.356350
-19.122738
-16.347191
-18.014194
-18.825523
-17.024365
-14.049056
-5.492633
-1.843746
0.080023
1.803250
-3.321784
-0.760026
3.188114
1.428114
3.585413
8.089457
11.170231
10.861554
10.389483
8.617533
5.936136
6.989422
7.740598
9.395247
15.535049
19.222641
18.838631
19.860745
15.480985
6.156023
1.641444
3.108540
7.578813
10.873637
13.537484
7.770304
-1.775201
-0.124709
4.075406
10.542255
14.259202
7.468536
5.407204
1.772459
-8.592094
-11.598981
-8.149855
-2.319957
2.340207
8.978244
18.293708
18.855773
15.947079
14.147594
9.859532
6.033597
-0.454699
-5.178132
-3.895211
-0.961465
8.123066
17.678816
19.709608
23.575662
31.700870
33.621001
30.719061
24.065033
10.585343
4.968568
1.851020
-6.355122
-4.146907
1.792094
6.565776
12.366581
16.386676
21.508188
19.527385
13.595511
12.180223
9.820678
6.244900
-4.014188
-17.419065
-18.143890
-12.757156
-9.965503
-6.859530
-8.053497
-12.601846
-15.105562
-17.178583
-13.695947
-6.503046
-5.542757
-6.917002
-6.906944
-3.038293
1.028041
-4.331564
-10.353836
-12.352304
-12.533695
-9.475000
-8.267672
-7.659888
-5.751446
-5.135609
-4.717975
-1.799555
3.270263
8.519840
14.276744
16.707060
12.999059
7.598931
4.989229
10.063463
18.187632
20.248818
23.156847
24.193768
19.278626
19.289204
18.811937
14.345674
12.545150
13.165922
14.702637
13.291245
8.557940
5.202186
0.479792
-7.285004
-8.624700
-3.113797
3.084193
9.286339
15.018305
17.924776
14.856844
8.170864
0.991066
-1.872429
-0.629772
-2.532125
-3.335660
1.007586
0.712677
-5.127239
-4.726489
-2.472036
-1.650983
5.194608
12.428033
15.212672
17.046041
20.927421
24.522536
26.230178
26.555854
22.769923
18.579794
17.946926
19.686779
19.404598
12.031013
2.613833
-4.284637
-13.445165
-21.015655
-18.288944
-13.237050
-10.144326
0.316975
10.942709
16.283984
25.481514
32.917298
29.295541
19.556509
14.223141
9.558935
1.274863
3.088230
9.394283
5.868121
4.205013
9.394065
9.737925
0.501543
-13.559248
-17.041250
-8.532624
-3.307206
3.501758
12.242616
11.877050
11.278992
8.894509
-3.596245
-11.407020
-18.948415
-29.171654
-25.410807
-21.455394
-21.453129
-17.921137
-10.676802
2.211251
8.966443
15.569670
26.496735
33.425192
27.509165
13.879848
13.289843
11.178376
3.685038
2.965408
-0.641023
-5.191451
-7.711013
-11.241332
-10.330918
-1.679940
14.904871
29.918345
35.511075
44.412470
50.135084
44.753399
39.988923
30.607072
12.619629
-2.434774
-5.538295
-5.986727
-10.304662
-9.183836
-0.948227
1.873299
-5.387287
-6.363048
0.289016
2.838825
-1.058546
-1.096545
2.504026
-8.781665
-17.464480
-12.801979
-10.468037
-9.035230
-13.207435
-17.179619
-14.832689
-15.113571
-12.405563
-8.917213
-8.464250
-0.238512
13.519763
25.996084
34.454834
28.383206
13.763914
9.758739
4.561229
-9.746341
-12.096794
-8.089167
-4.370662
8.570643
19.942690
28.397024
30.973330
18.579210
11.832444
13.626069
4.985855
-0.678457
1.666914
-4.062600
-9.567155
-7.999009
-7.106259
-7.358307
-2.930116
0.094289
-3.483048
1.157633
13.948793
26.146902
31.012542
24.990529
21.372928
13.982978
5.150276
5.582197
1.259066
0.363833
7.498027
14.464150
16.225304
5.579422
-4.815524
-7.604985
-4.345750
1.408816
3.924856
6.504019
9.607913
10.318045
12.458720
16.350750
18.485969
23.959207
26.934516
17.233150
1.531405
-1.349754
8.078710
9.518271
4.410901
0.330653
-3.406441
-8.520305
-8.195149
-5.234647
-9.768968
-9.051303
-8.124004
-7.554146
1.416087
6.080407
18.656219
33.425771
29.382930
25.328399
15.330379
-6.823482
-17.079452
-19.217675
-20.000948
-16.097748
-12.194808
-11.817698
-11.119774
-3.307586
6.104512
10.331123
14.820100
23.953207
29.326953
25.948599
19.890998
11.743823
7.890093
11.355325
4.216829
-5.305037
-2.178023
-4.162463
-9.573242
-8.549830
-5.056024
-1.210233
-4.146202
-6.701093
-0.712736
3.624277
-1.728314
-5.615035
1.951412
4.179369
3.510654
9.030909
7.374556
3.213780
-0.745935
0.613358
12.887319
13.574592
1.775860
-3.009398
-4.515345
-6.615901
-0.906795
-4.751433
-20.042745
-16.858063
-10.351209
-10.655210
7.064007
31.698246
38.021184
36.300928
34.292849
24.875150
24.901833
23.728388
8.308232
6.213131
6.642194
3.277607
9.820569
7.750146
2.756294
5.046076
5.670225
11.992904
11.803460
-1.094870
-6.914523
-8.118101
2.400609
20.903286
18.159284
17.632922
23.972225
5.877758
-4.428088
7.468691
8.828503
4.832160
10.034460
11.846788
11.685659
23.842205
30.742348
23.970645
20.797766
14.043987
3.874779
1.123764
-2.364732
-5.348759
-6.584288
-10.587644
-11.878244
-8.638232
-4.609044
4.634465
16.961938
15.662506
9.416054
7.248218
-6.102368
-18.514412
-14.317414
-5.405109
4.280005
23.737849
40.331231
33.457699
26.361286
36.655296
41.908251
40.601285
41.468058
36.724623
17.765908
-14.539943
-37.962251
-46.215410
-53.797849
-52.945363
-46.454875
-47.869124
-43.764604
-27.800899
-17.338559
-3.652499
24.653300
40.275929
39.094432
26.054009
2.224126
-12.926132
-34.261463
-62.131777
-64.078031
-50.953589
-40.593858
-26.031341
-15.901244
-21.068880
-23.032019
-17.017685
-14.329939
-5.138124
-0.700322
-4.782907
3.351912
12.166025
24.967575
46.285616
45.602614
29.781116
27.950458
27.992208
23.852733
32.941680
39.264878
38.415884
51.615918
56.267769
36.080611
22.245039
19.486231
8.470440
-9.910812
-26.207165
-32.850803
-33.518999
-24.446937
-5.070660
8.114307
10.384346
13.855552
22.415612
20.064380
16.219741
16.121476
12.313206
24.767706
33.959002
15.926359
6.394102
16.170915
11.836614
-8.242740
-18.119709
-19.513177
-20.135394
-18.487239
-23.852299
-20.879328
-0.648155
24.955537
53.309393
61.061055
58.605136
59.748302
45.921302
23.901741
-3.959480
-20.596390
-25.396195
-29.814920
-14.528949
1.811419
15.091982
26.170231
22.777070
42.831600
74.612315
78.750085
64.806449
46.042820
30.510184
13.895874
11.229024
32.825277
36.253361
7.140058
-7.580543
6.106556
12.113096
5.169687
15.614882
47.120242
59.403555
50.646966
55.099575
67.893592
73.628935
47.570243
-19.865063
-87.300370
-120.094065
-110.008648
-98.774018
-97.447716
-57.926697
-10.259356
43.896729
113.398862
155.917084
157.342617
102.302917
42.302688
-10.095952
-60.180060
-72.478066
-95.967133
-127.219365
-134.431375
-120.581142
-96.256287
-80.147631
-61.354534
-52.856559
-49.779161
-48.825886
-63.815347
-71.330765
-73.537047
-72.910560
-58.993566
-36.462409
-39.629572
-90.931472
-83.420615
23.648117
75.891530
30.209449
-0.045014
35.354527
55.112143
-7.768393
-26.797245
49.182202
102.930190
86.016368
10.646970
2.393811
74.052538
84.240044
80.591530
62.661756
-9.054266
-29.581460
-25.966862
-81.384785
-107.828713
-22.660235
59.710022
74.053035
51.838649
13.943631
40.394168
59.186486
20.485928
-26.518631
-81.647432
-78.307409
-68.987528
-74.577547
-53.256908
-57.644201
-32.657977
7.488563
1.777753
-12.858165
-47.259304
-66.520129
-29.191811
9.022056
17.400278
15.920047
13.832480
45.817891
80.188491
16.462411
-38.797313
-29.218443
-37.168713
-13.709145
-3.526315
-44.741427
-67.201554
-67.037453
-57.076725
-69.156526
-67.135864
-23.305555
-25.306880
-47.080700
-24.168982
-3.709734
-9.677455
-26.771556
-18.212276
12.332723
18.944003
-5.206434
-50.867733
-45.549837
-8.619224
-21.877591
-38.796609
-53.281341
-67.941677
-63.296839
-50.871433
-30.702605
11.466229
67.085066
38.045537
-62.955422
-73.465964
-2.172990
46.709285
111.236604
168.279229
138.155688
73.976053
43.212704
61.045180
97.240390
103.719449
59.493368
28.236200
50.733588
59.532894
47.423220
47.336124
74.102279
81.344016
63.511395
94.958567
93.568736
38.691910
4.446372
-36.439354
-57.150723
-62.798930
-80.118769
-75.913200
-48.902344
39.198654
126.546844
70.809407
-69.946175
-128.716143
-90.861795
-71.165484
-49.481170
-19.313355
-28.804828
-21.316311
-20.080408
-42.488062
-37.095093
9.398097
30.558459
11.771451
26.061211
19.812940
-13.043099
-24.776109
-29.141063
-17.518859
-40.886615
-73.061803
-28.108777
-6.310424
-71.946318
-96.433674
-41.588426
-3.418200
-9.389038
-9.142851
8.171647
-6.138002
-28.786720
-30.672188
-58.092064
-71.743461
-30.076240
24.539374
51.151486
48.696606
43.002680
59.981818
149.306582
170.639431
93.184876
151.914174
234.627325
246.948824
257.444414
184.365910
121.061953
108.375074
65.933339
60.686993
107.919742
119.523503
65.659772
60.792947
110.750402
99.522120
114.815884
189.192563
201.664987
160.960320
141.650398
133.628172
131.090686
169.134925
165.667210
84.269378
35.231615
47.717028
58.372895
59.751930
77.320741
80.033425
61.532161
71.357810
119.841601
158.679950
166.430313
102.644227
-15.926655
-27.181433
103.831408
219.145173
180.418639
95.844624
121.127504
134.470930
53.354426
5.155714
46.699286
111.598073
137.807804
175.453039
252.114896
211.553880
72.849426
46.835674
170.144317
275.946680
211.810686
162.954502
252.773085
326.422154
358.054800
284.271545
199.389706
309.039232
398.021363
377.380910
396.864730
435.138863
413.048126
310.439723
251.898351
244.066276
293.222087
414.237239
401.650631
280.751969
141.224310
-5.270584
-58.393717
-65.099959
-69.379708
-59.638743
-79.429235
-97.904263
-85.598350
-72.893953
-79.892953
-93.105602
-71.201004
-17.400802
23.205008
27.235754
8.060652
-15.478032
-33.547042
-49.225927
-65.562025
-65.438968
-89.040256
-172.743528
-249.413324
-276.676040
-286.614574
-309.945703
-353.174276
-406.353518
-452.857764
-481.138251
-492.447840
-493.268520
-491.802982
-492.392209
-492.366045
-491.360816
-491.555455
-496.282525
-505.841278
-516.605094
-526.725985
-532.969061
-530.582126
-515.090679
-479.561774
-410.859725
-289.822492
-94.809850
140.830756
353.459041
526.205676
603.248613
572.809455
533.110609
520.530495
503.583942
432.843609
301.169773
144.343908
-1.852253
-96.126781
-146.836670
-165.341570
-180.194134
-200.884722
-235.771627
-276.325888
-297.412103
-326.076008
-323.335529
-354.052899
-326.172340
-310.593611
-320.217046
-277.857803
-355.258846
-247.534460
-381.811689
-258.433688
161.419522
-247.266411
-49.023035
96.526419
-163.787610
195.406413
1.083309
65.672192
-17.367633
85.295175
1296.273155
1215.015597
601.308610
382.436917
19.636910
29.681803
-50.835156
-88.048803
-91.839409
-175.975195
-145.054572
-310.987641
-235.196266
-154.942597
-119.895821
215.756734
99.501424
-19.500413
320.701198
194.198303
-146.757820
61.768210
107.448067
138.957583
246.991353
114.974364
206.507675
-24.987440
185.938586
403.541686
52.655415
329.372084
252.198338
195.505994
281.053213
182.850215
345.321730
141.874277
271.298376
347.419657
66.788919
200.495553
111.671995
-39.245968
104.573691
148.873660
146.632310
214.080199
227.450381
181.986506
139.612570
169.150448
138.121876
76.042724
194.457599
154.152455
78.603558
120.033611
35.279058
50.377996
91.872991
80.109328
105.777183
64.336593
35.254982
53.269555
54.937192
63.763254
64.799136
55.425077
42.175022
28.411925
48.134212
57.709445
59.425139
70.312979
41.396061
37.237363
66.433906
-15.334875
-68.855972
-62.257420
-1.686887
147.400086
112.584617
58.106016
69.656264
73.869627
124.242710
127.580396
171.665277
218.700603
202.365024
164.831084
110.184672
31.302693
-78.626749
-197.202567
-284.168524
-279.301066
-199.963079
-85.935944
11.643466
85.083681
115.110962
121.814460
124.458046
117.985076
152.302683
150.431502
131.810485
80.261546
1.728695
18.408840
31.439505
76.328369
155.818839
38.194551
9.326729
84.075136
-34.744084
-15.124405
3.383207
-68.010702
-0.359675
3.332074
0.281547
61.555272
4.219223
-96.087636
-37.611611
-13.004908
-43.280153
24.109289
5.070565
-18.335897
-0.628369
-57.714781
-77.788421
-80.509043
-96.336775
-63.868455
-50.368909
-70.026919
-59.807462
-52.482080
-41.726462
-31.220481
-74.482303
-108.277404
-105.446266
-99.985238
-91.537658
-105.270881
-159.774940
-235.524119
-315.314247
-339.652756
-240.529806
-104.748146
-44.731957
-43.059384
-49.135689
-34.521738
-22.861348
-72.282528
-146.044222
-176.850433
-170.940006
-130.304843
-85.253364
-59.711756
-58.241543
-91.057318
-96.528103
-63.367242
-36.467307
-11.113771
6.057595
14.502318
30.446800
27.125854
15.435185
40.601429
85.432364
128.103589
152.315445
141.077812
112.675234
101.251087
125.405015
149.656616
135.183313
84.016753
33.850558
23.344951
35.869329
55.345876
49.846516
-6.878039
-65.084830
-89.444900
-82.477997
-53.049481
-40.566407
-66.465342
-86.120754
-80.686482
-49.595452
-14.908194
-0.990941
12.360538
20.765516
39.373659
31.873826
-1.557339
-13.460758
-30.863463
-39.062591
-25.618895
-8.450386
-37.746306
-80.984490
-79.827816
-72.681154
-48.973247
-38.652740
-57.572750
-51.941574
-28.510580
-5.855513
-3.228293
-23.490004
-40.470327
-46.565594
-49.584690
-66.169126
-63.307336
-13.324943
42.288439
71.125463
52.020498
23.622596
29.154281
53.674482
92.126816
124.769700
147.154348
147.103881
101.840546
42.113593
22.347000
56.288723
88.931867
86.916774
55.856511
23.066972
1.801777
-10.958616
7.494965
32.872660
39.489915
21.239067
-1.943474
4.031894
12.434794
6.680083
-23.366826
-57.425072
-44.293876
-10.013675
-0.769646
-22.797779
-49.030516
-40.149903
-17.113756
-25.694483
-40.356117
-26.134156
-7.683952
-11.530409
-37.118142
-71.889190
-63.910231
15.080186
65.845259
61.553820
72.325284
74.284381
77.924436
84.459085
70.839380
53.879059
37.706355
42.090386
37.049257
28.697645
25.235125
17.264593
23.751965
21.182527
32.430406
55.469150
59.383260
41.107994
20.835373
31.080027
46.686032
39.099177
4.690505
-12.915599
17.922158
55.481150
70.253040
47.270779
-2.361332
-33.715653
-34.219156
-22.110407
-28.130082
-40.033760
-27.403137
-8.595233
7.250537
23.460762
47.917060
52.450457
21.610476
13.512658
38.063771
36.077253
-17.880254
-46.881338
-13.803602
7.495996
-5.193480
-28.587733
-74.892737
-118.160794
-96.676501
-47.033105
-33.948408
-30.683718
-25.754434
-27.439102
-33.502678
-37.342121
-31.407276
-45.353769
-39.706747
-0.699549
19.520973
16.321339
-22.677692
-79.398870
-83.215713
-27.743126
-15.123932
-50.907816
-56.812933
-43.536787
-29.813580
-44.496256
-86.575355
-68.905235
-6.302537
27.100428
36.257954
3.131236
-31.621109
-27.666994
-29.396602
-24.819044
-20.103550
-24.110024
-23.751877
-45.702599
-76.216830
-49.641086
1.158797
2.152336
-21.108136
-42.257994
-24.417465
28.353017
33.160469
-6.161194
-11.447544
16.222862
15.412833
-12.121601
-28.825790
-25.094557
-26.840789
-34.459596
-31.352065
-21.904378
-16.534269
-13.785478
0.359073
9.704411
32.811734
59.389296
48.099710
24.909635
-1.936154
-25.394050
-10.924010
41.500461
69.487005
43.161012
13.264508
13.386526
12.257242
-9.544633
-5.197749
32.978451
63.774645
60.500717
46.978425
64.349553
74.079347
49.584718
27.126669
30.281477
48.507242
54.735105
41.804824
16.645708
-2.160783
4.298273
17.331536
13.133094
-1.857666
-14.541427
-18.070707
-6.967519
13.786566
20.691904
9.898734
0.241788
10.180696
35.367201
29.052690
7.951928
31.388637
81.878616
116.980204
110.450345
67.980554
33.680205
34.350593
51.218291
53.969940
51.041243
61.596320
55.045160
28.642016
31.028431
31.191752
-0.187766
-12.306272
25.654321
74.788831
58.964216
11.114112
11.654876
39.162668
26.556317
-10.287160
-1.289651
35.115452
53.255493
12.204814
-37.628098
-40.569523
-56.975499
-34.253931
29.928416
16.409500
-20.649324
-15.797711
-23.118564
-30.099640
-37.808326
-33.836287
5.925796
19.323514
20.788012
-1.366368
-13.350574
40.554574
51.219793
15.145489
-33.176093
-41.384053
36.081526
56.018641
14.876784
-14.200671
-41.175564
-31.900364
-27.603096
-36.043288
-14.490157
-8.395814
-36.858399
-70.489066
-69.147178
-43.099022
-50.673408
-50.928833
-24.153587
-36.953204
-59.393849
-60.080228
-40.553287
-24.252663
-60.710904
