EVENT_NAME: 202302060117
EVENT_ID: 13194
EVENT_DATE_YYYYMMDD: 2023/02/06
EVENT_TIME_HHMMSS: 01:17:32.00000
EVENT_LATITUDE_DEGREE: 37.288
EVENT_LONGITUDE_DEGREE: 37.043
EVENT_DEPTH_KM: 8.6
HYPOCENTER_REFERENCE: AFAD
MAGNITUDE_W: 7.7
MAGNITUDE_W_REFERENCE: AFAD
MAGNITUDE_L: 
MAGNITUDE_L_REFERENCE: 
FOCAL_MECHANISM: 
NETWORK: TK
STATION_CODE: 1810
STATION_NAME: 
STATION_LATITUDE_DEGREE: 40.34595
STATION_LONGITUDE_DEGREE: 33.98762
STATION_ELEVATION_M: 553.0
LOCATION: Kahramanmaras_Pazarck_Turkiye
SENSOR_DEPTH_M: 
VS30_M/S: None
SITE_CLASSIFICATION_EC8: unknown
MORPHOLOGIC_CLASSIFICATION: 
EPICENTRAL_DISTANCE_KM: 430.85
EARTHQUAKE_BACKAZIMUTH_DEGREE: 
DATE_TIME_FIRST_SAMPLE_YYYYMMDD_HHMMSS: 2023/02/06 01:18:06.7741970
DATE_TIME_FIRST_SAMPLE_PRECISION: millisecond
SAMPLING_INTERVAL_S: 0.01
NDATA: 21001
DURATION_S: 
STREAM: HNE
UNITS: cm/s^2
INSTRUMENT: sensor = ACEBOX/SARA | digitizer = 
INSTRUMENT_ANALOG/DIGITAL: 
INSTRUMENTAL_FREQUENCY_HZ: 
INSTRUMENTAL_DAMPING: 
FULL_SCALE_G: 
N_BIT_DIGITAL_CONVERTER: 
PGA_CM/S^2: 3.794
TIME_PGA_S: 
BASELINE_CORRECTION: BASELINE REMOVED
FILTER_TYPE: BUTTERWORTH
FILTER_ORDER: 
LOW_CUT_FREQUENCY_HZ: 
HIGH_CUT_FREQUENCY_HZ: 
LATE/NORMAL_TRIGGERED: 
DATABASE_VERSION: 
HEADER_FORMAT: DYNA 1.2
DATA_TYPE: Acceleration
PROCESSING: Automatic Paolucci et al., 2011
DATA_TIMESTAMP_YYYYMMDD_HHMMSS: 
DATA_LICENSE: U (unknown license)
DATA_CITATION: Turkish Accelerometric Archive v 1.0 - Disaster And Emergency Management Presidency, Earthquake Department
DATA_CREATOR: AFAD
ORIGINAL_DATA_MEDIATOR_CITATION: : AFAD - Disaster And Emergency Management Presidency
ORIGINAL_DATA_MEDIATOR: AFAD PROCESS SERVICE
ORIGINAL_DATA_CREATOR_CITATION: AFAD PROCESS SERVICE
ORIGINAL_DATA_CREATOR: network: TK
USER1: GuestUser
USER2: 
USER3: 
USER4: 
USER5: 
[...]
-1.243158
-1.199204
-1.145665
-1.113167
-1.076462
-1.040457
-1.015207
-0.981541
-0.955356
-0.939926
-0.907896
-0.888725
-0.881712
-0.847811
-0.823497
-0.822094
-0.798481
-0.758736
-0.724134
-0.698183
-0.671531
-0.630617
-0.590170
-0.544346
-0.495717
-0.469532
-0.431657
-0.373676
-0.342347
-0.317799
-0.274313
-0.239712
-0.214228
-0.178925
-0.145492
-0.121879
-0.098266
-0.067873
-0.025556
0.004837
0.020969
0.056272
0.086899
0.104901
0.142308
0.172935
0.184391
0.211277
0.240034
0.246814
0.259438
0.277908
0.277206
0.281180
0.288194
0.274166
0.259670
0.246577
0.231380
0.214546
0.181112
0.153056
0.128507
0.088294
0.052756
0.017920
-0.034918
-0.083782
-0.112072
-0.145973
-0.200916
-0.242766
-0.267549
-0.306827
-0.347976
-0.371824
-0.399880
-0.433781
-0.456226
-0.483580
-0.519819
-0.546005
-0.571256
-0.592298
-0.612405
-0.654255
-0.688857
-0.703820
-0.734215
-0.769986
-0.798510
-0.830774
-0.849946
-0.862337
-0.896238
-0.916345
-0.909098
-0.921723
-0.925698
-0.897409
-0.892734
-0.892500
-0.866082
-0.852989
-0.843404
-0.817219
-0.796879
-0.778643
-0.759472
-0.752459
-0.743107
-0.719494
-0.706402
-0.709909
-0.697284
-0.675776
-0.672269
-0.657072
-0.626212
-0.615457
-0.592312
-0.540643
-0.505808
-0.470972
-0.411120
-0.358049
-0.310355
-0.252607
-0.189950
-0.115135
-0.041723
0.020700
0.100191
0.185059
0.247483
0.318557
0.404594
0.475200
0.547443
0.629038
0.699177
0.769315
0.842026
0.909593
0.979030
1.044493
1.101539
1.164664
1.239947
1.301669
1.345856
1.410150
1.482159
1.528217
1.574508
1.631554
1.676209
1.713149
1.761778
1.809940
1.844308
1.884755
1.929643
1.963076
2.002120
2.041631
2.064777
2.094001
2.118783
2.125095
2.149877
2.169750
2.156423
2.158293
2.165073
2.150343
2.140757
2.124624
2.103582
2.087684
2.060329
2.041625
2.022921
1.992059
1.974992
1.948104
1.910930
1.898772
1.883809
1.853883
1.830269
1.804551
1.782106
1.766207
1.738385
1.703782
1.668713
1.633175
1.608860
1.577764
1.522588
1.471620
1.431406
1.379269
1.319416
1.263071
1.204154
1.135884
1.068317
1.007061
0.938325
0.868886
0.812073
0.755260
0.695875
0.645141
0.595342
0.543672
0.506264
0.476104
0.433085
0.394742
0.375804
0.353593
0.326706
0.317119
0.304260
0.280646
0.278074
0.286724
0.283918
0.281112
0.286957
0.300283
0.314310
0.326234
0.345171
0.358497
0.362471
0.384214
0.414373
0.426764
0.436583
0.455754
0.465807
0.467443
0.468144
0.462299
0.454116
0.441490
0.411564
0.375793
0.350075
0.322018
0.281571
0.242293
0.207457
0.162100
0.109495
0.067411
0.025327
-0.026109
-0.071700
-0.114251
-0.163583
-0.202627
-0.234892
-0.271832
-0.304798
-0.341738
-0.371197
-0.387329
-0.422399
-0.451391
-0.465653
-0.500956
-0.524103
-0.533221
-0.564784
-0.586060
-0.598685
-0.624871
-0.632353
-0.633055
-0.658305
-0.669528
-0.664852
-0.684492
-0.697351
-0.693611
-0.711380
-0.722602
-0.717693
-0.734293
-0.750893
-0.744113
-0.745750
-0.766558
-0.779885
-0.776612
-0.778016
-0.789472
-0.788771
-0.781524
-0.784563
-0.785967
-0.783161
-0.775914
-0.764458
-0.760952
-0.754172
-0.748094
-0.747159
-0.728923
-0.713025
-0.715364
-0.706947
-0.689413
-0.685673
-0.688011
-0.684037
-0.685674
-0.689415
-0.690117
-0.704379
-0.711627
-0.711393
-0.731968
-0.752542
-0.767272
-0.790652
-0.810291
-0.826658
-0.850505
-0.881133
-0.904513
-0.922750
-0.954313
-0.979330
-0.991721
-1.016037
-1.040586
-1.055549
-1.072149
-1.083372
-1.092724
-1.115403
-1.137614
-1.149070
-1.168476
-1.187881
-1.202377
-1.231135
-1.255917
-1.272517
-1.303847
-1.329331
-1.350607
-1.395730
-1.437113
-1.463065
-1.504681
-1.553779
-1.592122
-1.638648
-1.688915
-1.723283
-1.758587
-1.802307
-1.842053
-1.870109
-1.887411
-1.906349
-1.923650
-1.921313
-1.908922
-1.905883
-1.889517
-1.848603
-1.814235
-1.778932
-1.724925
-1.671386
-1.615042
-1.548176
-1.477102
-1.400417
-1.333317
-1.264581
-1.175739
-1.097651
-1.027044
-0.941475
-0.862218
-0.794885
-0.728019
-0.659283
-0.591482
-0.531631
-0.471545
-0.413330
-0.365168
-0.317708
-0.271884
-0.225826
-0.189588
-0.161767
-0.118514
-0.086718
-0.069184
-0.031309
-0.001851
0.009838
0.030646
0.052389
0.069689
0.079976
0.086288
0.099848
0.106160
0.104523
0.109666
0.108263
0.100080
0.098209
0.091195
0.075998
0.064775
0.060332
0.050980
0.031808
0.018715
0.012402
-0.000223
-0.007003
-0.009342
-0.021733
-0.023370
-0.020331
-0.034827
-0.036698
-0.029684
-0.050259
-0.064755
-0.058209
-0.070834
-0.088837
-0.083694
-0.087669
-0.110581
-0.116660
-0.112920
-0.118298
-0.120169
-0.125546
-0.133262
-0.127885
-0.123209
-0.126483
-0.125782
-0.114794
-0.105209
-0.097727
-0.075283
-0.059152
-0.056113
-0.036474
-0.012861
-0.000236
0.021273
0.048627
0.065693
0.075746
0.087670
0.097255
0.107542
0.122504
0.128583
0.122503
0.125542
0.140973
0.143310
0.134659
0.139803
0.140504
0.126709
0.123202
0.117356
0.097951
0.085793
0.070128
0.043943
0.022667
-0.004454
-0.033212
-0.058462
-0.098676
-0.131875
-0.158529
-0.209497
-0.249710
-0.276364
-0.325695
-0.368948
-0.402148
-0.443764
-0.479535
-0.517645
-0.561131
-0.597136
-0.645533
-0.706788
-0.748638
-0.788150
-0.856887
-0.923286
-0.970513
-1.028729
-1.094427
-1.150305
-1.204078
-1.262528
-1.316536
-1.359087
-1.403509
-1.445359
-1.470142
-1.497730
-1.529527
-1.541919
-1.554544
-1.568572
-1.561325
-1.560157
-1.564599
-1.548234
-1.528829
-1.505917
-1.478563
-1.466640
-1.452379
-1.418946
-1.387384
-1.366576
-1.342963
-1.320753
-1.305322
-1.283346
-1.263006
-1.255057
-1.239861
-1.217650
-1.207130
-1.203390
-1.194272
-1.169490
-1.141668
-1.130213
-1.109873
-1.072232
-1.034591
-0.992274
-0.953697
-0.918161
-0.864388
-0.811316
-0.770402
-0.730423
-0.684833
-0.636437
-0.601602
-0.573780
-0.542452
-0.511123
-0.475587
-0.451506
-0.435842
-0.403344
-0.379731
-0.362197
-0.321984
-0.294163
-0.275459
-0.234078
-0.199710
-0.169083
-0.125129
-0.087722
-0.047743
-0.004257
0.036423
0.088793
0.140228
0.183714
0.238189
0.290793
0.336850
0.393429
0.448839
0.495831
0.547968
0.600338
0.646629
0.702039
0.760020
0.804909
0.854708
0.915728
0.964825
1.007610
1.063253
1.118195
1.158875
1.203530
1.254498
1.298919
1.342405
1.387060
1.427039
1.462575
1.496242
1.529908
1.559834
1.586486
1.611736
1.635583
1.662937
1.686550
1.704552
1.725827
1.746167
1.768144
1.786613
1.800407
1.825423
1.846464
1.854881
1.868908
1.886676
1.902340
1.914498
1.925252
1.939981
1.950267
1.962892
1.980894
1.993519
2.011287
2.029289
2.041914
2.058045
2.071839
2.089841
2.113922
2.128884
2.145484
2.166992
2.187099
2.209075
2.227077
2.248352
2.275005
2.288097
2.304930
2.336726
2.351221
2.352624
2.367586
2.382081
2.391199
2.399615
2.397511
2.396575
2.404992
2.400549
2.387456
2.390495
2.390962
2.373895
2.364309
2.367581
2.355657
2.344201
2.351448
2.335783
2.314507
2.322222
2.307960
2.281307
2.269383
2.227767
2.182410
2.152951
2.097307
2.038156
1.985083
1.913775
1.845973
1.781912
1.703122
1.628774
1.561908
1.481715
1.400119
1.330448
1.252125
1.173803
1.111846
1.040304
0.965956
0.907974
0.851394
0.791776
0.740807
0.694749
0.647054
0.604502
0.566627
0.529687
0.504202
0.475445
0.433829
0.406006
0.388003
0.358778
0.326748
0.294250
0.257543
0.223642
0.185533
0.137136
0.091545
0.041746
-0.019275
-0.076790
-0.140383
-0.215432
-0.285338
-0.355478
-0.436138
-0.514928
-0.584600
-0.658948
-0.737270
-0.806942
-0.878017
-0.946286
-1.002866
-1.063186
-1.123038
-1.174240
-1.225676
-1.261915
-1.286698
-1.326911
-1.356136
-1.365722
-1.387700
-1.400793
-1.394481
-1.398923
-1.407574
-1.401028
-1.393079
-1.394716
-1.392145
-1.387236
-1.386067
-1.380690
-1.387003
-1.394952
-1.387237
-1.397993
-1.415294
-1.418334
-1.433297
-1.444286
-1.448027
-1.473979
-1.494320
-1.499464
-1.517934
-1.533833
-1.539444
-1.552070
-1.559551
-1.562825
-1.570774
-1.564930
-1.556046
-1.555345
-1.539681
-1.521679
-1.514899
-1.487312
-1.450372
-1.430967
-1.399872
-1.352880
-1.318512
-1.283910
-1.233410
-1.180573
-1.136151
-1.093133
-1.041231
-0.987458
-0.937893
-0.885289
-0.828009
-0.774470
-0.722100
-0.664586
-0.612216
-0.557040
-0.489940
-0.436635
-0.390577
-0.329323
-0.268068
-0.208684
-0.145793
-0.084071
-0.022583
0.048725
0.127281
0.191574
0.261947
0.355466
0.429111
0.491769
0.578273
0.666882
0.740762
0.816745
0.902081
0.973622
1.035812
1.112731
1.178895
1.227525
1.280830
1.328524
1.371543
1.408249
1.430926
1.459216
1.489141
1.504805
1.522106
1.542913
1.552966
1.564422
1.581021
1.589438
1.596217
1.605803
1.607673
1.613985
1.628714
1.632454
1.634558
1.647416
1.659807
1.673601
1.695577
1.716385
1.734621
1.758000
1.792602
1.826268
1.855259
1.889626
1.927034
1.969117
2.006056
2.036450
2.082273
2.121551
2.145632
2.180701
2.213666
2.240085
2.273050
2.297364
2.315132
2.339915
2.356280
2.364930
2.386673
2.405376
2.407480
2.417299
2.430158
2.428521
2.429923
2.435066
2.435300
2.432026
2.421505
2.414724
2.411918
2.398124
2.383161
2.370535
2.349493
2.325178
2.307643
2.288938
2.258311
2.226981
2.202198
2.170402
2.133929
2.100729
2.063555
2.018198
1.974010
1.931459
1.880958
1.829055
1.777853
1.723144
1.669604
1.614193
1.563927
1.513426
1.456145
1.408684
1.359119
1.307683
1.266067
1.213228
1.165065
1.128826
1.073416
1.021746
0.985274
0.935708
0.887546
0.845228
0.790753
0.743058
0.699337
0.640654
0.588517
0.538250
0.470916
0.407790
0.352146
0.287150
0.217946
0.152015
0.087252
0.016178
-0.055832
-0.118257
-0.180447
-0.252925
-0.327740
-0.393438
-0.459135
-0.534418
-0.605493
-0.676801
-0.753721
-0.818016
-0.884882
-0.962036
-1.031006
-1.095067
-1.165908
-1.238152
-1.300576
-1.359493
-1.425191
-1.483640
-1.537180
-1.597968
-1.648702
-1.694761
-1.750872
-1.801139
-1.848601
-1.904946
-1.956616
-2.006181
-2.063462
-2.122847
-2.181998
-2.234135
-2.284635
-2.346592
-2.404808
-2.458348
-2.519837
-2.575481
-2.627385
-2.684899
-2.740076
-2.798058
-2.853000
-2.905839
-2.965925
-3.015958
-3.061549
-3.118362
-3.162784
-3.199491
-3.240172
-3.274073
-3.305870
-3.335095
-3.353565
-3.364086
-3.376244
-3.391909
-3.390039
-3.381389
-3.387234
-3.377883
-3.350762
-3.338605
-3.334631
-3.315694
-3.288106
-3.269169
-3.247426
-3.221709
-3.206045
-3.176821
-3.145258
-3.133101
-3.108553
-3.079329
-3.064132
-3.035376
-3.001242
-2.977862
-2.947703
-2.912634
-2.883877
-2.850912
-2.810699
-2.775864
-2.734716
-2.684917
-2.642367
-2.600050
-2.553992
-2.504895
-2.455330
-2.418625
-2.375139
-2.322301
-2.284192
-2.244915
-2.195818
-2.157008
-2.123341
-2.082661
-2.041747
-2.011821
-1.982363
-1.943086
-1.912926
-1.892820
-1.868272
-1.841385
-1.810291
-1.782235
-1.764935
-1.739217
-1.708123
-1.685445
-1.653883
-1.615540
-1.585615
-1.550078
-1.501916
-1.457261
-1.415879
-1.362340
-1.303190
-1.255028
-1.206632
-1.144209
-1.085760
-1.037832
-0.981955
-0.926779
-0.880721
-0.817830
-0.749094
-0.694620
-0.633131
-0.566500
-0.496595
-0.422247
-0.359356
-0.284308
-0.201310
-0.134912
-0.061968
0.014717
0.088363
0.166919
0.237057
0.305560
0.374530
0.444435
0.517846
0.580971
0.643161
0.702779
0.760527
0.825989
0.876957
0.930262
0.995024
1.042017
1.094153
1.148160
1.191646
1.246588
1.295918
1.343145
1.398087
1.440170
1.488566
1.546080
1.592371
1.640767
1.693838
1.743871
1.792500
1.839727
1.889993
1.928803
1.958261
1.994733
2.023723
2.042894
2.063000
2.074456
2.074689
2.073520
2.069779
2.061596
2.049672
2.036111
2.015303
1.990987
1.970647
1.946331
1.914768
1.883673
1.844862
1.796700
1.755551
1.714870
1.657121
1.593996
1.534845
1.468446
1.398540
1.330972
1.258729
1.183212
1.106993
1.025865
0.948712
0.881144
0.805160
0.725201
0.655529
0.579077
0.501923
0.440434
0.375204
0.308104
0.249420
0.183489
0.119662
0.070798
0.016791
-0.045634
-0.104317
-0.160663
-0.217943
-0.277328
-0.340220
-0.407320
-0.476291
-0.547366
-0.623116
-0.695594
-0.768305
-0.845459
-0.918170
-0.996025
-1.071542
-1.133031
-1.194520
-1.256477
-1.314459
-1.371038
-1.422941
-1.469234
-1.518331
-1.569300
-1.607175
-1.644349
-1.689940
-1.721971
-1.754469
-1.792812
-1.820400
-1.850327
-1.876746
-1.894048
-1.916025
-1.926546
-1.934496
-1.957876
-1.968397
-1.965826
-1.972606
-1.978218
-1.980556
-1.987570
-1.994351
-1.994118
-1.990377
-1.992949
-1.999262
-1.995756
-1.988275
-1.983131
-1.968169
-1.949699
-1.939880
-1.918137
-1.885640
-1.859923
-1.826958
-1.786511
-1.750039
-1.713567
-1.668211
-1.617009
-1.572355
-1.523959
-1.467147
-1.415244
-1.365679
-1.308633
-1.240365
-1.178409
-1.127208
-1.061043
-0.990437
-0.924039
-0.851796
-0.783995
-0.712220
-0.632495
-0.556278
-0.473280
-0.383736
-0.297232
-0.212597
-0.118845
-0.018079
0.076609
0.174102
0.277907
0.375401
0.472192
0.575296
0.680271
0.784077
0.885544
0.987713
1.092220
1.192051
1.291882
1.396389
1.492713
1.589271
1.689570
1.775373
1.864450
1.962644
2.049616
2.131211
2.214676
2.301415
2.384880
2.462734
2.545732
2.621482
2.691387
2.767370
2.835405
2.896893
2.960252
3.015662
3.068499
3.126013
3.175812
3.220466
3.269563
3.311413
3.349755
3.388331
3.423401
3.459171
3.489331
3.519958
3.550117
3.568821
3.596408
3.624230
3.638491
3.661870
3.687120
3.703953
3.722189
3.741594
3.757258
3.768713
3.779234
3.784143
3.785546
3.791156
3.793728
3.786713
3.772685
3.760294
3.751409
3.734341
3.707688
3.679866
3.650641
3.617675
3.578864
3.531169
3.481838
3.433441
3.370316
3.303683
3.249208
3.180939
3.098408
3.024995
2.944802
2.853153
2.768986
2.682481
2.585688
2.492870
2.402157
2.307001
2.214650
2.118793
2.022702
1.927780
1.825376
1.732325
1.642546
1.540376
1.439609
1.336972
1.233867
1.137075
1.028358
0.916603
0.811628
0.695898
0.583908
0.475426
0.354319
0.237653
0.125898
0.003622
-0.117486
-0.228072
-0.337490
-0.456961
-0.578302
-0.688654
-0.795968
-0.906554
-1.015738
-1.125623
-1.232001
-1.337912
-1.450135
-1.548330
-1.639044
-1.747526
-1.841279
-1.918666
-2.011017
-2.091911
-2.160414
-2.233359
-2.298355
-2.364988
-2.426477
-2.474873
-2.529816
-2.580316
-2.620764
-2.657938
-2.694411
-2.730883
-2.751458
-2.773669
-2.808739
-2.832353
-2.850356
-2.872801
-2.899922
-2.924003
-2.945747
-2.980349
-3.005366
-3.023836
-3.056100
-3.078545
-3.104731
-3.136294
-3.152426
-3.175339
-3.196615
-3.205266
-3.219995
-3.230283
-3.234959
-3.236362
-3.224439
-3.210178
-3.198722
-3.180954
-3.156873
-3.125779
-3.088839
-3.054471
-3.014025
-2.964460
-2.922611
-2.877021
-2.814363
-2.760824
-2.711259
-2.653044
-2.600206
-2.543160
-2.477697
-2.422054
-2.368047
-2.308429
-2.255124
-2.203689
-2.147344
-2.094740
-2.043071
-1.990000
-1.944176
-1.896482
-1.846449
-1.806470
-1.765556
-1.719031
-1.675311
-1.634631
-1.587638
-1.536437
-1.494120
-1.448062
-1.388444
-1.333035
-1.276924
-1.214968
-1.154882
-1.094096
-1.026529
-0.956857
-0.892563
-0.821022
-0.743869
-0.676770
-0.600318
-0.515217
-0.435492
-0.345948
-0.254300
-0.166393
-0.067731
0.034205
0.134971
0.233867
0.332295
0.439140
0.545284
0.648855
0.755700
0.855064
0.959103
1.068286
1.160636
1.257895
1.359129
1.447036
1.539152
1.625423
1.706784
1.792587
1.857816
1.923747
1.998795
2.051165
2.111251
2.176246
2.206172
2.239838
2.291975
2.321199
2.344578
2.372166
2.385726
2.402559
2.418457
2.421496
2.428743
2.439965
2.446277
2.444172
2.445809
2.457498
2.462641
2.467784
2.476201
2.478772
2.486487
2.498176
2.508463
2.518516
2.524594
2.536050
2.550779
2.557091
2.565507
2.582340
2.592393
2.595666
2.611330
2.627696
2.630735
2.638917
2.649671
2.649437
2.648969
2.645696
2.641487
2.640084
2.623016
2.605481
2.597765
2.572749
2.551473
2.536977
2.502141
2.471279
2.442522
2.401373
2.367940
2.328427
2.278394
2.236544
2.191187
2.140687
2.091823
2.038517
1.982171
1.927462
1.872286
1.810329
1.748606
1.699976
1.645501
1.584012
1.532108
1.478334
1.421054
1.368449
1.314675
1.257395
1.200815
1.152185
1.099580
1.039494
0.988058
0.931713
0.871860
0.819723
0.760806
0.698148
0.635723
0.567922
0.502224
0.438164
0.371297
0.303963
0.237798
0.169295
0.099156
0.034627
-0.025693
-0.085078
-0.140021
-0.187949
-0.237047
-0.288483
-0.329164
-0.357220
-0.391121
-0.431802
-0.450974
-0.470613
-0.508723
-0.520179
-0.528362
-0.562030
-0.574187
-0.584942
-0.610193
-0.620480
-0.633807
-0.653914
-0.667007
-0.682204
-0.697168
-0.710027
-0.727562
-0.746266
-0.762633
-0.787182
-0.817576
-0.838852
-0.865739
-0.905251
-0.939152
-0.970949
-1.008824
-1.042491
-1.072885
-1.109826
-1.143025
-1.167107
-1.191656
-1.214335
-1.237247
-1.259926
-1.274655
-1.283073
-1.295230
-1.312999
-1.314403
-1.311130
-1.320716
-1.316040
-1.308092
-1.312768
-1.302014
-1.292194
-1.291026
-1.276063
-1.260633
-1.249645
-1.229773
-1.208264
-1.191197
-1.166648
-1.137892
-1.118019
-1.092302
-1.059103
-1.039465
-1.015150
-0.980315
-0.959039
-0.941037
-0.913216
-0.894279
-0.886330
-0.871601
-0.858275
-0.854535
-0.851496
-0.855705
-0.862251
-0.863888
-0.874409
-0.883996
-0.892880
-0.910415
-0.920001
-0.926548
-0.934731
-0.939174
-0.946188
-0.945721
-0.942916
-0.944319
-0.937539
-0.933331
-0.932163
-0.930293
-0.931930
-0.924449
-0.920241
-0.927722
-0.929359
-0.936374
-0.944089
-0.943856
-0.954845
-0.970276
-0.981265
-0.993656
-1.005814
-1.020310
-1.027792
-1.035508
-1.053043
-1.062161
-1.064733
-1.071280
-1.076190
-1.075489
-1.068476
-1.065437
-1.063099
-1.046967
-1.032239
-1.022653
-0.995066
-0.970517
-0.965374
-0.941761
-0.912069
-0.902718
-0.880507
-0.854790
-0.847075
-0.827203
-0.806863
-0.802889
-0.788861
-0.770391
-0.769223
-0.767587
-0.753559
-0.747013
-0.740234
-0.722465
-0.718257
-0.713348
-0.689267
-0.677812
-0.667759
-0.645782
-0.637600
-0.620533
-0.593179
-0.580788
-0.556240
-0.527015
-0.512053
-0.483997
-0.451734
-0.424614
-0.389778
-0.358450
-0.329226
-0.294624
-0.255580
-0.210691
-0.169076
-0.131435
-0.091456
-0.044697
0.001828
0.042041
0.090203
0.136494
0.169927
0.213647
0.261107
0.296878
0.333817
0.376602
0.408398
0.434583
0.475965
0.506825
0.527633
0.567378
0.588887
0.600343
0.628866
0.641257
0.652478
0.673286
0.680066
0.688248
0.699236
0.706016
0.714900
0.721446
0.727992
0.733369
0.736174
0.737109
0.733134
0.738043
0.742953
0.734068
0.734535
0.737808
0.727053
0.717701
0.708348
0.698762
0.688241
0.672109
0.659016
0.633765
0.604072
0.584901
0.551935
0.520372
0.499096
0.460285
0.420773
0.382430
0.334735
0.294989
0.259919
0.217835
0.176453
0.143954
0.113794
0.075451
0.042252
0.015131
-0.019472
-0.048229
-0.073947
-0.105043
-0.130059
-0.157414
-0.186639
-0.214461
-0.250233
-0.276185
-0.296993
-0.332297
-0.361989
-0.387474
-0.417400
-0.439377
-0.460419
-0.481462
-0.495957
-0.512090
-0.527755
-0.527054
-0.524950
-0.538043
-0.538277
-0.526354
-0.528692
-0.528459
-0.516068
-0.510223
-0.511860
-0.504613
-0.488949
-0.482870
-0.479598
-0.465336
-0.457622
-0.454583
-0.441490
-0.436113
-0.439621
-0.432607
-0.426061
-0.422087
-0.412736
-0.411801
-0.408528
