EVENT_NAME: 202302060117
EVENT_ID: 13194
EVENT_DATE_YYYYMMDD: 2023/02/06
EVENT_TIME_HHMMSS: 01:17:32.00000
EVENT_LATITUDE_DEGREE: 37.288
EVENT_LONGITUDE_DEGREE: 37.043
EVENT_DEPTH_KM: 8.6
HYPOCENTER_REFERENCE: AFAD
MAGNITUDE_W: 7.7
MAGNITUDE_W_REFERENCE: AFAD
MAGNITUDE_L: 
MAGNITUDE_L_REFERENCE: 
FOCAL_MECHANISM: 
NETWORK: TK
STATION_CODE: 4209
STATION_NAME: 
STATION_LATITUDE_DEGREE: 37.70898
STATION_LONGITUDE_DEGREE: 33.54467
STATION_ELEVATION_M: 900.0
LOCATION: Kahramanmaras_Pazarck_Turkiye
SENSOR_DEPTH_M: 
VS30_M/S: None
SITE_CLASSIFICATION_EC8: unknown
MORPHOLOGIC_CLASSIFICATION: 
EPICENTRAL_DISTANCE_KM: 312.13
EARTHQUAKE_BACKAZIMUTH_DEGREE: 
DATE_TIME_FIRST_SAMPLE_YYYYMMDD_HHMMSS: 2023/02/06 01:18:03.2939700
DATE_TIME_FIRST_SAMPLE_PRECISION: millisecond
SAMPLING_INTERVAL_S: 0.01
NDATA: 18251
DURATION_S: 
STREAM: HNE
UNITS: cm/s^2
INSTRUMENT: sensor = ACEBOX/SARA | digitizer = 
INSTRUMENT_ANALOG/DIGITAL: 
INSTRUMENTAL_FREQUENCY_HZ: 
INSTRUMENTAL_DAMPING: 
FULL_SCALE_G: 
N_BIT_DIGITAL_CONVERTER: 
PGA_CM/S^2: 6.027
TIME_PGA_S: 
BASELINE_CORRECTION: BASELINE REMOVED
FILTER_TYPE: BUTTERWORTH
FILTER_ORDER: 
LOW_CUT_FREQUENCY_HZ: 
HIGH_CUT_FREQUENCY_HZ: 
LATE/NORMAL_TRIGGERED: 
DATABASE_VERSION: 
HEADER_FORMAT: DYNA 1.2
DATA_TYPE: Acceleration
PROCESSING: Automatic Paolucci et al., 2011
DATA_TIMESTAMP_YYYYMMDD_HHMMSS: 
DATA_LICENSE: U (unknown license)
DATA_CITATION: Turkish Accelerometric Archive v 1.0 - Disaster And Emergency Management Presidency, Earthquake Department
DATA_CREATOR: AFAD
ORIGINAL_DATA_MEDIATOR_CITATION: : AFAD - Disaster And Emergency Management Presidency
ORIGINAL_DATA_MEDIATOR: AFAD PROCESS SERVICE
ORIGINAL_DATA_CREATOR_CITATION: AFAD PROCESS SERVICE
ORIGINAL_DATA_CREATOR: network: TK
USER1: GuestUser
USER2: 
USER3: 
USER4: 
USER5: 
[...]
-2.120505
-1.900268
-1.694058
-1.519178
-1.379133
-1.290524
-1.239089
-1.232075
-1.258494
-1.269249
-1.254753
-1.196771
-1.079639
-0.931645
-0.775235
-0.616019
-0.464986
-0.350425
-0.282156
-0.233293
-0.190274
-0.143982
-0.078519
0.004713
0.094725
0.180996
0.259084
0.325717
0.368034
0.382062
0.370840
0.330627
0.263527
0.182399
0.093322
-0.004639
-0.098625
-0.183494
-0.266258
-0.342476
-0.408173
-0.457971
-0.484624
-0.501224
-0.509641
-0.504029
-0.493976
-0.471999
-0.437163
-0.403730
-0.367492
-0.329383
-0.295716
-0.259244
-0.225109
-0.196352
-0.158009
-0.113120
-0.081557
-0.069400
-0.074777
-0.087169
-0.106106
-0.129018
-0.142812
-0.158944
-0.184194
-0.211782
-0.245917
-0.280986
-0.315588
-0.367024
-0.458438
-0.588663
-0.742034
-0.928371
-1.134346
-1.331905
-1.535776
-1.731932
-1.877588
-1.991681
-2.092447
-2.141778
-2.146221
-2.136167
-2.093616
-2.020671
-1.944921
-1.859351
-1.727490
-1.551908
-1.360194
-1.117512
-0.849815
-0.599651
-0.286129
0.075789
0.414094
0.762685
1.102860
1.405628
1.692497
1.936581
2.122684
2.279095
2.407917
2.505878
2.582797
2.635635
2.667432
2.682395
2.669770
2.651300
2.627920
2.548663
2.429660
2.305981
2.159157
2.004851
1.858026
1.707227
1.572793
1.467117
1.396510
1.386691
1.419656
1.464078
1.530944
1.610201
1.673560
1.724996
1.766611
1.785081
1.773158
1.716579
1.604590
1.468988
1.342270
1.220695
1.119227
1.055634
1.006537
0.964453
0.953699
0.983157
1.044880
1.123669
1.201991
1.289899
1.403992
1.537958
1.668651
1.758663
1.802617
1.828802
1.830672
1.788355
1.715644
1.620255
1.481379
1.303226
1.119227
0.922136
0.701666
0.476519
0.246696
0.007522
-0.226743
-0.442538
-0.649215
-0.868750
-1.088754
-1.286546
-1.474285
-1.672779
-1.871507
-2.051297
-2.225943
-2.390537
-2.538998
-2.694707
-2.844103
-2.975965
-3.109229
-3.232674
-3.328064
-3.395163
-3.439117
-3.462497
-3.455249
-3.418309
-3.368043
-3.306554
-3.220984
-3.109697
-2.986719
-2.861872
-2.720190
-2.558870
-2.393342
-2.202797
-1.986301
-1.776117
-1.560556
-1.334006
-1.120082
-0.922055
-0.747876
-0.602221
-0.473165
-0.360942
-0.257837
-0.152161
-0.050693
0.048905
0.164401
0.313563
0.494522
0.689276
0.907408
1.146349
1.365651
1.560872
1.743000
1.900579
2.038052
2.167810
2.304581
2.456783
2.608050
2.760252
2.919234
3.071436
3.223638
3.371632
3.493440
3.599117
3.695441
3.778673
3.864944
3.954722
4.039357
4.131006
4.231071
4.338618
4.464401
4.604211
4.757816
4.928254
5.096822
5.249959
5.387432
5.495680
5.573301
5.627075
5.669859
5.717788
5.761742
5.798916
5.832816
5.840532
5.812476
5.731816
5.568859
5.343712
5.066897
4.706615
4.276662
3.818887
3.337966
2.846056
2.377527
1.928636
1.500086
1.109644
0.733932
0.350972
-0.029182
-0.400920
-0.753486
-1.071450
-1.343123
-1.572010
-1.763023
-1.903535
-1.997054
-2.065556
-2.115589
-2.145281
-2.164219
-2.193911
-2.228045
-2.254464
-2.286728
-2.312680
-2.316888
-2.329045
-2.351958
-2.364583
-2.379546
-2.406666
-2.437060
-2.462310
-2.472597
-2.461141
-2.425370
-2.372999
-2.307536
-2.228045
-2.141306
-2.045449
-1.945384
-1.845319
-1.720705
-1.565931
-1.389881
-1.190219
-0.982373
-0.785749
-0.607128
-0.452588
-0.323532
-0.217388
-0.135559
-0.082019
-0.053964
-0.041806
-0.035026
-0.033857
-0.037598
-0.023102
0.021085
0.084444
0.163702
0.235711
0.282237
0.318476
0.343258
0.358221
0.387446
0.426256
0.470210
0.529361
0.593655
0.658651
0.734869
0.818568
0.899696
0.972173
1.033896
1.081590
1.126713
1.182591
1.251327
1.340871
1.432286
1.510608
1.588697
1.658602
1.729910
1.809635
1.872994
1.920923
1.957161
1.980775
2.002986
2.038055
2.100011
2.191426
2.327496
2.506585
2.698766
2.902638
3.114224
3.328850
3.558439
3.791067
4.011070
4.195770
4.331607
4.434010
4.491992
4.497369
4.470482
4.407591
4.306824
4.180574
4.016682
3.810473
3.580884
3.329084
3.052502
2.766568
2.469879
2.165943
1.884685
1.632184
1.399789
1.197321
1.022674
0.857613
0.703541
0.567237
0.439116
0.319178
0.217477
0.130270
0.054988
-0.000656
-0.037128
-0.060508
-0.070094
-0.073835
-0.087161
-0.111710
-0.144207
-0.181615
-0.224634
-0.273264
-0.326335
-0.384083
-0.453054
-0.550547
-0.667679
-0.782474
-0.889553
-0.966005
-0.998736
-1.000840
-0.971850
-0.929766
-0.887916
-0.828298
-0.766108
-0.715608
-0.677499
-0.662068
-0.642195
-0.598475
-0.541195
-0.458664
-0.353455
-0.240999
-0.117554
0.007528
0.130973
0.265406
0.398437
0.513933
0.608620
0.675486
0.711491
0.721311
0.713829
0.695359
0.673149
0.660056
0.655146
0.667538
0.711024
0.764797
0.823480
0.890346
0.935703
0.948796
0.929391
0.866499
0.760589
0.619609
0.469511
0.329233
0.203216
0.107360
0.046572
0.022491
0.037922
0.078369
0.138689
0.209295
0.273122
0.336481
0.409192
0.482371
0.548769
0.615635
0.692788
0.782099
0.883099
0.995088
1.114091
1.238237
1.354201
1.444914
1.511546
1.555033
1.578412
1.595012
1.606936
1.604130
1.577711
1.521600
1.429951
1.310247
1.175580
1.036471
0.907415
0.785606
0.662863
0.568409
0.526559
0.536846
0.590619
0.675254
0.777891
0.870241
0.932197
0.971709
0.984334
0.971943
0.942952
0.886139
0.808051
0.725988
0.650238
0.605115
0.593893
0.594828
0.613766
0.653044
0.703076
0.775086
0.862292
0.948330
1.043485
1.143784
1.245720
1.357241
1.467827
1.569295
1.654865
1.712847
1.743474
1.745579
1.715886
1.663983
1.604833
1.542175
1.466191
1.376413
1.274243
1.152903
1.018002
0.872814
0.707753
0.527261
0.349575
0.184748
0.036521
-0.085989
-0.183482
-0.262272
-0.308798
-0.325397
-0.329372
-0.323059
-0.312772
-0.307395
-0.308798
-0.311369
-0.299212
-0.272091
-0.233749
-0.176468
-0.103757
-0.020058
0.081410
0.199478
0.326664
0.465539
0.613767
0.760358
0.909520
1.064528
1.212054
1.339006
1.442578
1.526745
1.590104
1.635929
1.671466
1.694144
1.706068
1.698820
1.661880
1.607873
1.544982
1.482090
1.423641
1.348592
1.250163
1.138408
1.016366
0.891518
0.775555
0.668710
0.556253
0.442394
0.335549
0.239458
0.166981
0.117883
0.083048
0.057798
0.028339
-0.004159
-0.037358
-0.091365
-0.166414
-0.263440
-0.391794
-0.531138
-0.680768
-0.845361
-1.006915
-1.169170
-1.309449
-1.421437
-1.548857
-1.662950
-1.759742
-1.893474
-2.049651
-2.219855
-2.408529
-2.613803
-2.840353
-3.062694
-3.274514
-3.450797
-3.577749
-3.677113
-3.734627
-3.803364
-3.857137
-3.877477
-3.972633
-4.028744
-4.087427
-4.294805
-4.399547
-4.428537
-4.597105
-4.733409
-4.742293
-4.725694
-4.726863
-4.674024
-4.572556
-4.525329
-4.462438
-4.380141
-4.347409
-4.300182
-4.253891
-4.202455
-4.104962
-4.010274
-3.898051
-3.746083
-3.610480
-3.489607
-3.334599
-3.182164
-3.068071
-2.936676
-2.789150
-2.651678
-2.520751
-2.434714
-2.364341
-2.268016
-2.215646
-2.222192
-2.241831
-2.284148
-2.326933
-2.336285
-2.336986
-2.321088
-2.266847
-2.185719
-2.089161
-1.997045
-1.910306
-1.807669
-1.704331
-1.626009
-1.569196
-1.553298
-1.587666
-1.634191
-1.700356
-1.801356
-1.911007
-2.032816
-2.169119
-2.301916
-2.459496
-2.659158
-2.854847
-3.047729
-3.275916
-3.511116
-3.754265
-3.996011
-4.185854
-4.353019
-4.479971
-4.519249
-4.505923
-4.432510
-4.289426
-4.087659
-3.825573
-3.541041
-3.235468
-2.908853
-2.602579
-2.311735
-2.028841
-1.778210
-1.557271
-1.348023
-1.153036
-0.967401
-0.780831
-0.606885
-0.451878
-0.329836
-0.282609
-0.314873
-0.396468
-0.529732
-0.730330
-0.968803
-1.222473
-1.514486
-1.830814
-2.149480
-2.492460
-2.838012
-3.155509
-3.462251
-3.758238
-4.029677
-4.273761
-4.493063
-4.672619
-4.797701
-4.892856
-4.957852
-4.973750
-4.947799
-4.879764
-4.782738
-4.648304
-4.465241
-4.273995
-4.059603
-3.810842
-3.572369
-3.334130
-3.095890
-2.895994
-2.742389
-2.617775
-2.503916
-2.411566
-2.336517
-2.260065
-2.190393
-2.120020
-2.060168
-2.045439
-2.062039
-2.091731
-2.136854
-2.195771
-2.262637
-2.335815
-2.425593
-2.517475
-2.596031
-2.671080
-2.707553
-2.685809
-2.624321
-2.505084
-2.328567
-2.110902
-1.840165
-1.530851
-1.212653
-0.887441
-0.558956
-0.251278
0.040735
0.322226
0.565142
0.779768
0.978729
1.146128
1.297629
1.439310
1.571873
1.703968
1.823205
1.942208
2.069394
2.188396
2.310906
2.441131
2.563875
2.690593
2.828066
2.971851
3.134340
3.319975
3.517300
3.720704
3.937902
4.168660
4.395209
4.616148
4.839424
5.027631
5.164636
5.271715
5.338114
5.353778
5.329229
5.263065
5.154115
5.012902
4.850880
4.676234
4.490131
4.289533
4.069062
3.834564
3.610118
3.406948
3.226457
3.085243
2.987750
2.926261
2.909896
2.942627
3.009727
3.104181
3.224119
3.363696
3.507949
3.645656
3.788038
3.935564
4.061815
4.154632
4.227577
4.282987
4.319927
4.343541
4.336527
4.291170
4.229448
4.151359
4.054567
3.957775
3.869868
3.790143
3.711821
3.620874
3.515665
3.399000
3.260826
3.105351
2.948005
2.784815
2.625365
2.481346
2.343406
2.221831
2.121532
2.035495
1.971200
1.921869
1.886098
1.874175
1.880020
1.911115
1.970967
2.039236
2.114051
2.201725
2.297114
2.403959
2.529742
2.673060
2.823158
2.963904
3.089453
3.190454
3.247968
3.266671
3.249604
3.187414
3.085479
2.949876
2.790193
2.613676
2.415182
2.199153
1.965356
1.719401
1.490748
1.277291
1.073186
0.897604
0.742597
0.604656
0.504591
0.432815
0.368989
0.317319
0.290900
0.288095
0.311708
0.358234
0.407565
0.455961
0.493135
0.505526
0.506462
0.491499
0.457598
0.419255
0.366885
0.300954
0.240634
0.190602
0.150856
0.117891
0.087731
0.055233
0.010110
-0.048573
-0.120349
-0.200073
-0.276759
-0.351574
-0.412829
-0.443456
-0.438547
-0.382669
-0.269979
-0.104216
0.113215
0.355195
0.601150
0.849910
1.083708
1.287345
1.468538
1.623546
1.737872
1.806141
1.834197
1.822040
1.772475
1.691347
1.579826
1.451471
1.316336
1.167641
1.009360
0.852950
0.706359
0.569354
0.437960
0.311943
0.181952
0.051727
-0.060730
-0.150274
-0.212230
-0.251976
-0.267406
-0.252677
-0.228128
-0.188383
-0.123153
-0.049039
0.040271
0.133790
0.203462
0.245545
0.256066
0.244610
0.229647
0.214450
0.204163
0.197617
0.202293
0.228478
0.262846
0.303060
0.353326
0.406632
0.462977
0.520959
0.585487
0.649547
0.683915
0.689059
0.681811
0.662406
0.636455
0.605593
0.563744
0.512308
0.467887
0.444507
0.446144
0.487994
0.566549
0.654223
0.750080
0.857861
0.974526
1.101945
1.241055
1.389750
1.537042
1.674982
1.799363
1.902935
1.998090
2.091375
2.172269
2.245214
2.308106
2.351358
2.381050
2.401625
2.412613
2.423368
2.435759
2.443241
2.443007
2.422433
2.377777
2.326342
2.267191
2.200092
2.132758
2.061684
1.993882
1.935433
1.885634
1.851734
1.826016
1.789544
1.742550
1.692518
1.638511
1.578425
1.503610
1.399570
1.259058
1.088386
0.903920
0.711505
0.519090
0.346547
0.191540
0.045416
-0.080366
-0.183237
-0.269275
-0.339414
-0.408618
-0.498396
-0.619035
-0.767496
-0.943780
-1.147183
-1.365082
-1.592099
-1.814674
-2.004985
-2.162097
-2.287412
-2.377190
-2.455279
-2.528457
-2.589011
-2.642550
-2.677854
-2.692349
-2.703571
-2.721574
-2.753370
-2.800130
-2.871671
-2.983427
-3.126043
-3.293442
-3.485389
-3.687390
-3.881909
-4.056322
-4.207589
-4.327293
-4.411226
-4.454946
-4.450504
-4.421981
-4.379196
-4.304147
-4.219512
-4.122019
-3.987118
-3.825096
-3.628005
-3.401689
-3.175374
-2.927549
-2.645355
-2.343523
-2.015505
-1.666446
-1.314581
-0.955468
-0.592147
-0.242621
0.106439
0.458537
0.782113
1.084413
1.373854
1.626589
1.851969
2.055841
2.215758
2.332189
2.416122
2.474805
2.519227
2.573000
2.638931
2.699017
2.760973
2.834853
2.904992
2.962039
3.027970
3.093901
3.123359
3.166845
3.237920
3.252883
3.237686
3.235816
3.203786
3.154922
3.102551
3.028905
2.944738
2.842803
2.726372
2.613448
2.481118
2.319331
2.150997
1.982663
1.817134
1.660958
1.501040
1.323121
1.127900
0.919353
0.701921
0.481451
0.260045
0.042613
-0.167804
-0.375884
-0.571806
-0.735932
-0.877379
-1.004331
-1.108838
-1.200253
-1.272029
-1.302188
-1.307800
-1.301721
-1.277172
-1.257066
-1.267119
-1.293772
-1.330945
-1.395240
-1.477770
-1.561703
-1.645169
-1.718581
-1.775160
-1.824024
-1.868445
-1.899774
-1.925959
-1.963367
-2.002411
-2.042858
-2.087981
-2.109724
-2.101307
-2.071849
-2.014101
-1.940922
-1.856521
-1.747805
-1.620620
-1.474029
-1.297746
-1.099018
-0.890938
-0.671637
-0.429890
-0.189079
0.017130
0.185698
0.318261
0.410845
0.468593
0.501558
0.521899
0.535225
0.546915
0.552994
0.542005
0.520730
0.498753
0.476542
0.468827
0.476308
0.480283
0.482387
0.490570
0.494545
0.493142
0.501091
0.503663
0.490336
0.481920
0.468360
0.437498
0.403598
0.360111
0.310546
0.263319
0.200428
0.120937
0.025314
-0.093455
-0.224615
-0.359750
-0.499795
-0.646386
-0.789236
-0.922734
-1.065116
-1.212409
-1.356895
-1.517514
-1.693797
-1.885511
-2.108320
-2.353807
-2.615893
-2.891774
-3.160173
-3.400049
-3.605791
-3.772722
-3.887049
-3.956954
-3.997869
-3.999973
-3.970982
-3.926794
-3.869047
-3.809194
-3.750979
-3.693465
-3.651381
-3.628937
-3.622390
-3.636184
-3.680138
-3.749576
-3.828833
-3.907623
-3.969813
-3.998102
-3.997167
-3.970748
-3.917208
-3.851044
-3.793997
-3.750979
-3.712168
-3.675696
-3.649978
-3.641795
-3.655589
-3.695335
-3.770617
-3.873021
-3.983139
-4.118040
-4.284036
-4.453071
-4.630524
-4.821536
-5.007405
-5.196313
-5.398781
-5.588157
-5.748542
-5.884846
-5.980936
-6.022786
-6.027462
-5.998237
-5.923656
-5.817980
-5.696639
-5.522226
-5.299885
-5.098352
-4.865489
-4.564592
-4.285672
-4.010259
-3.689489
-3.370122
-3.067588
-2.772069
-2.479121
-2.198564
-1.940452
-1.681872
-1.436852
-1.208666
-0.981649
-0.773803
-0.579518
-0.409313
-0.266697
-0.128055
-0.018170
0.074180
0.171907
0.244384
0.303067
0.360815
0.416459
0.493846
0.590170
0.703094
0.840100
0.993003
1.154791
1.310266
1.459663
1.613267
1.755416
1.884472
2.001605
2.102138
2.200332
2.293384
2.372407
2.452132
2.521570
2.573239
2.630519
2.689436
2.745782
2.824805
2.931183
3.052524
3.184619
3.313909
3.428704
3.523391
3.584646
3.610832
3.607559
3.564306
3.474294
3.350849
3.197011
3.008570
2.796984
2.571369
2.330558
2.078758
1.819945
1.555754
1.292732
1.043270
0.817422
0.619864
0.458543
0.340008
0.269869
0.247191
0.257244
0.289742
0.340710
0.395652
0.450127
0.501562
0.543880
0.590873
0.653531
0.722033
0.804330
0.907201
1.014280
1.124632
1.246441
1.367548
1.479770
1.579836
1.654885
1.696968
1.703748
1.677563
1.617009
1.520685
1.393266
1.230776
1.038361
0.831685
0.614721
0.397523
0.186404
-0.018636
-0.205206
-0.377047
-0.531587
-0.666488
-0.786660
-0.878308
-0.933952
-0.965047
-0.974165
-0.957799
-0.920859
-0.868021
-0.784789
-0.658773
-0.500959
-0.321169
-0.117064
0.098497
0.311954
0.525411
0.731854
0.924035
1.094473
1.242701
1.374095
1.480473
1.574693
1.656522
1.704450
1.746300
1.770615
1.758224
1.743495
1.701879
1.614205
1.513438
1.400748
1.272627
1.145675
1.030413
0.906968
0.774171
0.658676
0.547856
0.439608
0.356142
0.292315
0.249297
0.224280
0.210954
0.232931
0.307512
0.418098
0.542011
0.686732
0.857871
1.043974
1.249482
1.468316
1.689021
1.918843
2.158485
2.391815
2.605506
2.799324
2.972100
3.121263
3.248682
3.355528
3.437123
3.480843
3.472426
3.415380
3.327706
3.211041
3.056501
2.866658
2.638004
2.382697
2.129495
1.868811
1.600178
1.324297
1.022231
0.707540
0.387004
0.075820
-0.193982
-0.432923
-0.626741
-0.761642
-0.865915
-0.929742
-0.955927
-0.966682
-0.958031
-0.957564
-0.993568
-1.062071
-1.165176
-1.286516
-1.384244
-1.449005
-1.486413
-1.483841
-1.449707
-1.405051
-1.356889
-1.312935
-1.287218
-1.296336
-1.327664
-1.376528
-1.458357
-1.540654
-1.631367
-1.739849
-1.807650
-1.850903
-1.872646
-1.813261
-1.725587
-1.640485
-1.514234
-1.391257
-1.287217
-1.187152
-1.117247
-1.044536
-0.973929
-0.926936
-0.853757
-0.759537
-0.665316
-0.556834
-0.438533
-0.330752
-0.259210
-0.222037
-0.229752
-0.277213
-0.322803
-0.388734
-0.469862
-0.523401
-0.570161
-0.611309
-0.629779
-0.654795
-0.698983
-0.752289
-0.829909
-0.917583
-0.965512
-0.996840
-1.039392
-1.053419
-1.031676
-0.979773
-0.903789
-0.829208
-0.743872
-0.637260
-0.541169
-0.466822
-0.406970
-0.377511
-0.387097
-0.418659
-0.452794
-0.487863
-0.531116
-0.577875
-0.619725
-0.653158
-0.666017
-0.656665
-0.640533
-0.619959
-0.595644
-0.571796
-0.540000
-0.507268
-0.472666
-0.423803
-0.375407
-0.337765
-0.301527
-0.271367
-0.260612
-0.270665
-0.291006
-0.320230
-0.343376
-0.324906
-0.291239
-0.265054
-0.216424
-0.154468
-0.094850
-0.053000
-0.043882
-0.032192
-0.020736
-0.013254
0.012230
0.031635
0.070211
0.154612
0.248365
0.350534
0.472810
0.612855
0.772772
0.958174
1.183320
1.433250
1.690193
1.954384
2.219978
2.488844
2.760984
3.036164
3.303862
3.545141
3.772392
3.999409
4.205150
4.367873
4.489682
4.571744
4.615698
4.636039
4.622245
4.567069
4.474485
4.325088
4.138051
3.923191
3.666715
3.405096
3.139736
2.855439
2.576051
2.288247
1.991091
1.702819
1.410572
1.123469
0.859746
0.621974
0.411323
0.228259
0.082136
-0.027281
-0.097888
-0.121735
-0.116124
-0.092978
-0.049725
0.006386
0.071615
0.146664
0.221713
0.292788
0.361290
0.417168
0.455744
0.470006
0.464161
0.460420
0.447094
0.419272
0.395892
0.362226
0.316635
0.285306
0.265434
0.250471
0.259589
0.296295
0.342587
0.394022
0.444990
0.477722
0.486138
0.473046
0.454108
0.424650
0.378592
0.355913
0.333469
0.279462
0.252108
0.239015
0.213063
0.212596
0.215635
0.210959
0.227325
0.253978
0.273851
0.296763
0.333469
0.357317
0.380229
0.424183
0.451537
0.481697
0.522144
0.546692
0.591348
0.652603
0.721573
0.816495
0.909546
0.991141
1.062683
1.113651
1.139836
1.137031
1.109209
1.045148
0.950928
0.857176
0.763189
0.662890
0.564929
0.465331
0.355914
0.245562
0.131001
0.002179
-0.122669
-0.238866
-0.363947
-0.482249
-0.580444
-0.660402
-0.713942
-0.740828
-0.740828
-0.707162
-0.645205
-0.549348
-0.414214
-0.258972
-0.094145
0.075826
0.241120
0.395193
0.541784
0.690946
0.833796
0.960982
1.076244
1.173504
1.254865
1.326407
1.364750
1.361711
1.334123
1.269127
1.166023
1.054735
0.931992
0.788206
0.625483
0.462760
0.318975
0.161863
0.023923
-0.041306
-0.085728
-0.102795
-0.057438
0.013169
0.111130
0.242991
0.397999
0.573347
0.750799
0.943214
1.121601
1.246683
1.337396
1.377610
1.366154
1.327343
1.273570
1.235929
1.209276
1.191507
1.187299
1.170465
1.160880
1.161815
1.150125
1.142877
1.138201
1.120433
1.098456
1.070634
1.019199
0.956073
0.892247
0.810652
0.727654
0.655878
0.583868
0.523782
0.474451
0.431433
0.407585
0.396831
0.384907
0.379062
0.366905
0.322951
0.277360
0.230367
0.166307
0.134510
0.122587
0.104818
0.118612
0.141758
0.156487
0.183608
0.210495
0.236680
0.264034
0.283673
0.309858
0.321315
0.287414
0.239252
0.179633
0.088219
-0.009275
-0.102794
-0.199819
-0.299417
-0.398313
-0.483883
-0.565011
-0.649879
-0.742229
-0.855854
-0.990755
-1.149270
-1.312460
-1.467702
-1.636270
-1.784263
-1.903266
-2.022035
-2.101058
-2.139635
-2.168626
-2.165820
-2.141038
-2.123737
-2.115788
-2.117190
-2.128880
