EVENT_NAME: 202302060117
EVENT_ID: 13194
EVENT_DATE_YYYYMMDD: 2023/02/06
EVENT_TIME_HHMMSS: 01:17:32.00000
EVENT_LATITUDE_DEGREE: 37.288
EVENT_LONGITUDE_DEGREE: 37.043
EVENT_DEPTH_KM: 8.6
HYPOCENTER_REFERENCE: AFAD
MAGNITUDE_W: 7.7
MAGNITUDE_W_REFERENCE: AFAD
MAGNITUDE_L: 
MAGNITUDE_L_REFERENCE: 
FOCAL_MECHANISM: 
NETWORK: TK
STATION_CODE: 5801
STATION_NAME: 
STATION_LATITUDE_DEGREE: 40.16928
STATION_LONGITUDE_DEGREE: 38.10632
STATION_ELEVATION_M: 966.0
LOCATION: Kahramanmaras_Pazarck_Turkiye
SENSOR_DEPTH_M: 
VS30_M/S: 413
SITE_CLASSIFICATION_EC8: unknown
MORPHOLOGIC_CLASSIFICATION: 
EPICENTRAL_DISTANCE_KM: 333.39
EARTHQUAKE_BACKAZIMUTH_DEGREE: 
DATE_TIME_FIRST_SAMPLE_YYYYMMDD_HHMMSS: 2023/02/06 01:17:57.2224040
DATE_TIME_FIRST_SAMPLE_PRECISION: millisecond
SAMPLING_INTERVAL_S: 0.01
NDATA: 18251
DURATION_S: 
STREAM: HNE
UNITS: cm/s^2
INSTRUMENT: sensor = CMG-5T/GURALP | digitizer = 
INSTRUMENT_ANALOG/DIGITAL: 
INSTRUMENTAL_FREQUENCY_HZ: 
INSTRUMENTAL_DAMPING: 
FULL_SCALE_G: 
N_BIT_DIGITAL_CONVERTER: 
PGA_CM/S^2: 10.310
TIME_PGA_S: 
BASELINE_CORRECTION: BASELINE REMOVED
FILTER_TYPE: BUTTERWORTH
FILTER_ORDER: 
LOW_CUT_FREQUENCY_HZ: 
HIGH_CUT_FREQUENCY_HZ: 
LATE/NORMAL_TRIGGERED: 
DATABASE_VERSION: 
HEADER_FORMAT: DYNA 1.2
DATA_TYPE: Acceleration
PROCESSING: Automatic Paolucci et al., 2011
DATA_TIMESTAMP_YYYYMMDD_HHMMSS: 
DATA_LICENSE: U (unknown license)
DATA_CITATION: Turkish Accelerometric Archive v 1.0 - Disaster And Emergency Management Presidency, Earthquake Department
DATA_CREATOR: AFAD
ORIGINAL_DATA_MEDIATOR_CITATION: : AFAD - Disaster And Emergency Management Presidency
ORIGINAL_DATA_MEDIATOR: AFAD PROCESS SERVICE
ORIGINAL_DATA_CREATOR_CITATION: AFAD PROCESS SERVICE
ORIGINAL_DATA_CREATOR: network: TK
USER1: GuestUser
USER2: 
USER3: 
USER4: 
USER5: 
[...]
2.578623
2.648824
2.712424
2.761025
2.790125
2.799424
2.781424
2.746023
2.697122
2.634720
2.549518
2.438816
2.304414
2.145411
1.963608
1.759904
1.551700
1.341096
1.130493
0.922589
0.717985
0.514882
0.318678
0.131775
-0.044329
-0.191931
-0.300833
-0.382435
-0.446036
-0.509938
-0.576839
-0.643441
-0.713942
-0.782944
-0.846545
-0.907447
-0.968648
-1.036149
-1.104251
-1.173852
-1.236854
-1.296255
-1.358057
-1.420158
-1.486159
-1.546461
-1.603462
-1.664063
-1.724065
-1.768766
-1.804767
-1.831768
-1.841968
-1.836268
-1.820369
-1.793669
-1.758868
-1.727668
-1.693768
-1.640068
-1.571667
-1.491566
-1.391665
-1.271363
-1.130361
-0.971659
-0.797057
-0.603554
-0.392051
-0.164348
0.072356
0.319559
0.564963
0.804966
1.034169
1.250472
1.452075
1.632078
1.792880
1.933282
2.047883
2.140284
2.217685
2.277086
2.332886
2.391987
2.452587
2.514688
2.592989
2.682990
2.785891
2.898093
3.010594
3.125795
3.245497
3.369699
3.495700
3.626502
3.757604
3.889905
4.025507
4.165609
4.301511
4.447613
4.597915
4.751817
4.901819
5.053021
5.206023
5.351825
5.507527
5.662629
5.802731
5.920632
6.020834
6.102435
6.165435
6.210135
6.244936
6.270736
6.287836
6.302835
6.310035
6.313335
6.313334
6.316634
6.322034
6.331934
6.339733
6.340333
6.327732
6.290531
6.230830
6.146228
6.037626
5.906524
5.762221
5.604118
5.425315
5.234811
5.035308
4.824104
4.605400
4.387896
4.175792
3.966389
3.764485
3.567682
3.379578
3.206475
3.049572
2.913970
2.808667
2.735766
2.688365
2.655964
2.634963
2.604062
2.567461
2.520360
2.470259
2.418958
2.359556
2.290555
2.205653
2.111151
2.008549
1.903247
1.793445
1.680343
1.562441
1.434338
1.299636
1.155633
1.005630
0.858327
0.713725
0.573622
0.425719
0.268816
0.097813
-0.086990
-0.281094
-0.477597
-0.669301
-0.857404
-1.045507
-1.231211
-1.418714
-1.599617
-1.789221
-1.964124
-2.124627
-2.276130
-2.416232
-2.538635
-2.655037
-2.766339
-2.860541
-2.940943
-2.994344
-3.025245
-3.032445
-3.018946
-2.976045
-2.908545
-2.828144
-2.735443
-2.630141
-2.511040
-2.377238
-2.229936
-2.077234
-1.920332
-1.766130
-1.631428
-1.510827
-1.393225
-1.286124
-1.194323
-1.118122
-1.066221
-1.035621
-1.025421
-1.028422
-1.035622
-1.046723
-1.052723
-1.043424
-1.023924
-0.995724
-0.968424
-0.938724
-0.908123
-0.878723
-0.844523
-0.806123
-0.756323
-0.702322
-0.637821
-0.568521
-0.504020
-0.443120
-0.396619
-0.362719
-0.348919
-0.348920
-0.365720
-0.387021
-0.410422
-0.430522
-0.450923
-0.479424
-0.515425
-0.558926
-0.606627
-0.649828
-0.675629
-0.674129
-0.646829
-0.599429
-0.537928
-0.470728
-0.401127
-0.334226
-0.260726
-0.183325
-0.103824
-0.018623
0.062378
0.129279
0.185979
0.230080
0.268180
0.296380
0.324280
0.348880
0.372280
0.391180
0.406180
0.413079
0.407079
0.391778
0.369578
0.344677
0.320676
0.309575
0.318275
0.342575
0.380075
0.428376
0.490476
0.564277
0.637778
0.713079
0.778179
0.833380
0.876280
0.917981
0.958481
0.998681
1.039181
1.068881
1.088381
1.102481
1.117781
1.131281
1.141181
1.136680
1.116279
1.085979
1.050578
1.005276
0.954875
0.897274
0.837273
0.783571
0.740070
0.714569
0.696569
0.691468
0.690868
0.702268
0.715468
0.731967
0.755067
0.767967
0.777267
0.773967
0.755966
0.725065
0.683064
0.637763
0.591262
0.536960
0.473959
0.400757
0.321256
0.231854
0.139452
0.046450
-0.044752
-0.133853
-0.221155
-0.306057
-0.391559
-0.473160
-0.555662
-0.633964
-0.716165
-0.797767
-0.878769
-0.958870
-1.046172
-1.135274
-1.229476
-1.332378
-1.443380
-1.565783
-1.695385
-1.832488
-1.959090
-2.078492
-2.187994
-2.289396
-2.371598
-2.432800
-2.476301
-2.501801
-2.515302
-2.515002
-2.508103
-2.490403
-2.463403
-2.429203
-2.392602
-2.350302
-2.309202
-2.270202
-2.231501
-2.197301
-2.160701
-2.125001
-2.095601
-2.074901
-2.067101
-2.073702
-2.092602
-2.119303
-2.152304
-2.186805
-2.218906
-2.254307
-2.289108
-2.316709
-2.338309
-2.354210
-2.358410
-2.362011
-2.365311
-2.360512
-2.347312
-2.329312
-2.293612
-2.255211
-2.216511
-2.172411
-2.121410
-2.066510
-2.005909
-1.948309
-1.900308
-1.864908
-1.840308
-1.820508
-1.813309
-1.798609
-1.785109
-1.780309
-1.781510
-1.779110
-1.790811
-1.805811
-1.806712
-1.804612
-1.801012
-1.776712
-1.745512
-1.710112
-1.671412
-1.622511
-1.572111
-1.529211
-1.486310
-1.452410
-1.428110
-1.403210
-1.373210
-1.345310
-1.310510
-1.261909
-1.194109
-1.106808
-0.993406
-0.863805
-0.724003
-0.574901
-0.416499
-0.259297
-0.105994
0.043108
0.179909
0.306511
0.411512
0.499113
0.571114
0.629915
0.683615
0.730715
0.767316
0.802116
0.833316
0.865116
0.898716
0.935016
0.976117
1.012117
1.052617
1.097317
1.142318
1.179818
1.214018
1.245218
1.267418
1.287218
1.302518
1.312418
1.318717
1.321717
1.316017
1.299516
1.283315
1.259615
1.232914
1.204413
1.170812
1.127011
1.072410
1.001908
0.916406
0.825804
0.728903
0.632601
0.545299
0.469397
0.402196
0.346094
0.301693
0.271393
0.250992
0.240791
0.236891
0.241690
0.246190
0.253990
0.259690
0.272889
0.287289
0.288189
0.274388
0.250688
0.211087
0.154685
0.100684
0.042483
-0.025919
-0.103620
-0.184922
-0.279124
-0.375126
-0.465128
-0.548830
-0.631031
-0.712333
-0.803235
-0.903137
-1.007539
-1.114641
-1.219643
-1.318345
-1.408647
-1.491749
-1.567050
-1.627351
-1.681653
-1.727554
-1.774355
-1.817856
-1.868557
-1.923759
-1.978960
-2.036261
-2.092062
-2.149064
-2.209365
-2.278367
-2.351868
-2.426870
-2.504571
-2.594273
-2.686375
-2.769477
-2.843278
-2.902080
-2.940181
-2.964181
-2.977082
-2.981582
-2.980983
-2.986083
-3.004684
-3.040985
-3.097386
-3.163688
-3.235389
-3.314891
-3.394693
-3.481694
-3.573496
-3.678798
-3.797301
-3.924203
-4.052905
-4.177408
-4.299510
-4.409612
-4.508914
-4.590216
-4.654417
-4.699718
-4.730019
-4.735120
-4.725520
-4.711120
-4.682320
-4.645420
-4.596220
-4.535019
-4.459418
-4.367617
-4.260516
-4.136614
-4.001012
-3.856110
-3.708208
-3.564207
-3.416305
-3.276203
-3.138201
-3.008899
-2.888598
-2.770096
-2.667195
-2.572694
-2.487793
-2.416392
-2.356391
-2.302391
-2.256491
-2.213590
-2.170090
-2.129590
-2.103790
-2.084290
-2.074690
-2.070790
-2.067191
-2.059691
-2.054591
-2.046792
-2.036592
-2.027892
-2.010192
-1.992792
-1.979292
-1.969993
-1.966393
-1.972693
-1.990694
-2.020095
-2.053396
-2.081597
-2.120898
-2.163499
-2.202200
-2.246901
-2.303602
-2.353703
-2.403505
-2.455106
-2.500407
-2.551408
-2.600009
-2.639910
-2.667211
-2.684612
-2.695112
-2.707413
-2.718514
-2.733214
-2.753615
-2.784516
-2.824417
-2.869418
-2.916219
-2.967520
-3.017621
-3.059323
-3.098624
-3.119024
-3.116025
-3.086925
-3.031424
-2.951923
-2.849622
-2.738020
-2.620419
-2.484517
-2.343515
-2.213014
-2.076812
-1.933710
-1.792708
-1.664906
-1.548505
-1.445004
-1.358603
-1.288402
-1.245502
-1.219102
-1.196302
-1.175002
-1.158502
-1.152802
-1.156403
-1.172003
-1.203504
-1.237105
-1.272506
-1.303107
-1.324708
-1.338208
-1.331308
-1.312109
-1.286309
-1.252108
-1.214908
-1.173208
-1.124907
-1.066107
-0.997706
-0.925405
-0.842305
-0.756204
-0.669203
-0.586402
-0.504501
-0.428300
-0.353899
-0.276498
-0.202997
-0.131897
-0.063796
0.003105
0.069405
0.144706
0.226607
0.322008
0.431510
0.550911
0.680213
0.814015
0.946616
1.073818
1.192020
1.297321
1.384622
1.458123
1.525623
1.587124
1.654025
1.719425
1.777626
1.825326
1.864626
1.888926
1.902426
1.904526
1.888625
1.849624
1.789923
1.715221
1.624919
1.522017
1.408915
1.287413
1.172811
1.062709
0.954106
0.853304
0.761503
0.674501
0.586899
0.503797
0.419195
0.333694
0.248192
0.162090
0.077188
-0.004413
-0.087815
-0.170017
-0.245618
-0.313420
-0.372521
-0.419622
-0.456823
-0.482924
-0.498825
-0.507825
-0.508426
-0.500626
-0.489526
-0.470026
-0.446326
-0.418426
-0.382726
-0.344326
-0.302325
-0.250125
-0.189224
-0.125324
-0.053023
0.015678
0.073878
0.123379
0.160279
0.182479
0.194179
0.196578
0.186378
0.166577
0.138676
0.106575
0.073874
0.043274
0.024973
0.021072
0.033372
0.066372
0.115573
0.174373
0.241574
0.323475
0.414676
0.513377
0.621079
0.732380
0.836781
0.941482
1.047684
1.155085
1.261286
1.369288
1.479389
1.586790
1.690892
1.791393
1.884394
1.970795
2.050596
2.121097
2.186197
2.251898
2.318199
2.398900
2.501501
2.624502
2.773604
2.940707
3.123409
3.314812
3.511615
3.710517
3.907920
4.095423
4.275425
4.442828
4.582029
4.690331
4.772232
4.814832
4.824132
4.803131
4.756330
4.682228
4.585926
4.467724
4.335422
4.196219
4.060616
3.939414
3.839812
3.767511
3.716509
3.684109
3.666708
3.672108
3.702708
3.755808
3.828109
3.919910
4.017711
4.123312
4.223514
4.315315
4.395416
4.464116
4.512417
4.555017
4.588017
4.612317
4.642917
4.679217
4.723018
4.771618
4.822619
4.872419
4.924919
4.979220
5.037420
5.101321
5.172722
5.254023
5.346724
5.450225
5.563027
5.690228
5.825830
5.971632
6.127334
6.280036
6.434538
6.584840
6.728842
6.866544
6.995846
7.115247
7.232249
7.344750
7.447051
7.538252
7.619853
7.688254
7.749455
7.801055
7.847855
7.884756
7.919256
7.949556
7.973256
7.993956
8.020356
8.053956
8.092056
8.129856
8.163757
8.194957
8.228257
8.259757
8.293657
8.321857
8.347657
8.359957
8.351856
8.323656
8.275354
8.210553
8.124751
8.024849
7.910847
7.783345
7.639342
7.479139
7.308136
7.128733
6.936429
6.741126
6.543722
6.352919
6.160015
5.962612
5.771508
5.590005
5.407302
5.213498
5.010094
4.799791
4.587987
4.372583
4.159879
3.955876
3.749772
3.538568
3.332464
3.120661
2.897157
2.682653
2.483749
2.302546
2.124043
1.964140
1.821337
1.690535
1.560632
1.436430
1.322728
1.212025
1.118724
1.036522
0.952820
0.868818
0.798617
0.734416
0.651614
0.572112
0.501611
0.433209
0.379208
0.346807
0.306606
0.246305
0.183303
0.125702
0.081901
0.042600
0.006599
-0.024302
-0.051303
-0.071404
-0.081904
-0.088205
-0.090005
-0.081305
-0.063005
-0.042605
-0.012005
0.033595
0.090295
0.150896
0.227397
0.314398
0.409799
0.518100
0.636002
0.765004
0.917706
1.093508
1.270510
1.454413
1.651216
1.850119
2.057722
2.271925
2.486128
2.710831
2.941834
3.163837
3.384940
3.612044
3.830147
4.020949
4.194652
4.348254
4.476956
4.580157
4.670458
4.736459
4.764359
4.752058
4.714257
4.654856
4.566954
4.462852
4.344950
4.210547
4.065944
3.922542
3.770439
3.617436
3.473433
3.336331
3.199828
3.061826
2.928323
2.805321
2.686518
2.572816
2.468114
2.367312
2.271610
2.177708
2.083806
2.001005
1.937403
1.884902
1.824001
1.755599
1.690498
1.624496
1.551595
1.477793
1.405192
1.327790
1.245288
1.160687
1.082085
1.011583
0.944682
0.877181
0.812079
0.767078
0.739177
0.727777
0.728076
0.742476
0.770676
0.810276
0.854977
0.909577
0.972878
1.043679
1.115979
1.175080
1.209580
1.223680
1.234780
1.250079
1.267179
1.283079
1.308279
1.331379
1.351479
1.375779
1.415979
1.466080
1.529980
1.593581
1.650582
1.702182
1.749582
1.774782
1.778682
1.760381
1.709680
1.644879
1.573177
1.479875
1.364373
1.237471
1.109968
0.982466
0.869364
0.778162
0.695960
0.620959
0.548057
0.471555
0.392654
0.295452
0.174549
0.046747
-0.097256
-0.282059
-0.485763
-0.702967
-0.958271
-1.221376
-1.483280
-1.755385
-2.026890
-2.280994
-2.543799
-2.802403
-3.028607
-3.245811
-3.445915
-3.610918
-3.781321
-3.941224
-4.055226
-4.155128
-4.235830
-4.278731
-4.293431
-4.301232
-4.302132
-4.284432
-4.263432
-4.230432
-4.181232
-4.133231
-4.090931
-4.031831
-3.972430
-3.925330
-3.876729
-3.816429
-3.756428
-3.693128
-3.613327
-3.521526
-3.423424
-3.302823
-3.158821
-3.007919
-2.854017
-2.682714
-2.498512
-2.291509
-2.071906
-1.866703
-1.671100
-1.471597
-1.281995
-1.125693
-0.981691
-0.833489
-0.697587
-0.573985
-0.458784
-0.349283
-0.244881
-0.161180
-0.096680
-0.039379
0.025121
0.058422
0.068921
0.082721
0.082721
0.054220
0.023919
-0.020182
-0.090083
-0.166585
-0.239187
-0.330088
-0.423390
-0.514592
-0.596794
-0.667595
-0.755497
-0.845799
-0.930401
-1.010202
-1.093604
-1.177906
-1.263108
-1.355510
-1.435611
-1.517813
-1.608715
-1.691516
-1.767418
-1.857120
-1.951622
-2.027223
-2.104925
-2.197327
-2.272328
-2.341030
-2.407031
-2.450833
-2.496134
-2.523434
-2.521635
-2.506935
-2.477835
-2.438235
-2.389034
-2.343434
-2.311034
-2.274734
-2.224033
-2.149932
-2.086932
-2.017931
-1.953130
-1.909930
-1.885330
-1.856530
-1.836430
-1.831930
-1.825031
-1.830431
-1.842432
-1.870633
-1.957034
-2.063236
-2.147238
-2.245940
-2.371043
-2.470344
-2.572647
-2.688749
-2.772450
-2.862752
-2.948854
-2.994455
-3.035556
-3.087157
-3.122858
-3.169660
-3.221561
-3.249462
-3.284863
-3.339464
-3.388365
-3.432466
-3.492467
-3.557569
-3.615770
-3.681472
-3.742373
-3.797574
-3.852776
-3.914577
-3.982378
-4.050780
-4.120981
-4.183683
-4.249984
-4.308486
-4.356787
-4.400288
-4.445289
-4.484890
-4.507091
-4.543992
-4.591693
-4.639394
-4.695195
-4.749796
-4.799898
-4.870999
-4.949601
-5.039003
-5.149105
-5.277207
-5.401410
-5.551412
-5.714915
-5.848118
-5.972320
-6.107323
-6.231525
-6.369528
-6.535731
-6.705834
-6.868737
-7.025040
-7.170543
-7.323845
-7.514049
-7.688952
-7.861455
-8.055559
-8.231662
-8.396965
-8.583268
-8.783072
-8.969975
-9.145178
-9.321582
-9.486285
-9.636887
-9.774890
-9.888592
-9.981294
-10.068596
-10.137297
-10.187099
-10.227600
-10.255200
-10.275001
-10.299302
-10.306802
-10.309503
-10.305303
-10.290603
-10.283704
-10.271704
-10.232404
-10.196703
-10.166703
-10.119003
-10.062602
-10.006802
-9.939601
-9.873901
-9.811800
-9.747599
-9.688499
-9.634198
-9.585598
-9.536398
-9.500397
-9.466797
-9.428997
-9.403497
-9.384297
-9.369897
-9.366298
-9.363298
-9.365698
-9.377099
-9.375599
-9.368700
-9.390300
-9.419101
-9.442802
-9.474003
-9.511504
-9.529504
-9.546905
-9.573006
-9.588307
-9.588307
-9.615608
-9.646209
-9.657609
-9.675910
-9.694211
-9.684611
-9.667811
-9.652811
-9.621011
-9.575111
-9.527710
-9.476710
-9.422409
-9.361209
-9.290408
-9.213307
-9.139506
-9.068106
-9.006005
-8.940904
-8.845503
-8.744702
-8.657101
-8.562900
-8.483999
-8.379598
-8.257796
-8.170495
-8.091594
-7.982693
-7.840491
-7.727990
-7.607988
-7.493087
-7.358385
-7.233883
-7.120482
-6.992680
-6.882579
-6.782078
-6.678576
-6.595775
-6.533675
-6.473974
-6.416974
-6.379173
-6.351573
-6.305373
-6.252573
-6.210272
-6.151172
-6.068671
-5.974770
-5.873368
-5.745267
-5.596765
-5.429962
-5.242160
-5.047757
-4.839254
-4.625051
-4.397648
-4.180445
-3.981842
-3.800040
-3.626337
-3.459835
-3.311333
-3.185331
-3.078230
-2.987629
-2.916228
-2.865228
-2.822327
-2.801927
-2.787228
-2.767128
-2.755128
-2.754528
-2.745228
-2.734429
-2.729929
-2.703529
-2.663029
-2.620428
-2.558028
-2.480027
-2.399926
-2.309325
-2.205524
-2.096022
-1.964021
-1.814019
-1.658317
-1.505014
-1.345412
-1.190910
-1.051708
-0.909206
-0.774205
-0.643103
-0.517101
-0.388100
-0.262698
-0.141497
-0.033195
0.075706
0.193008
0.308209
0.423411
0.541312
0.676614
0.835316
1.000018
1.165621
1.350723
1.548126
1.742829
1.944131
2.149334
2.347637
2.557040
2.783843
2.992946
3.199349
3.405452
3.594155
3.776857
3.959260
4.129362
4.289864
4.449466
4.577268
4.684069
4.787871
4.875472
4.947472
5.008673
5.057573
5.085474
5.087273
5.072573
5.041072
4.987970
4.927069
4.861368
4.789966
4.694864
4.595262
4.506460
4.402358
4.285356
4.171354
4.058252
3.928349
3.795747
3.651444
3.508941
3.381139
3.260237
3.151034
3.064333
2.985731
2.921230
2.871428
2.825527
2.784426
2.744525
2.712424
2.671023
2.614322
2.556421
2.493119
2.418118
2.342216
2.257314
2.155012
2.045510
1.938408
1.810006
1.657603
1.497700
1.336597
1.182394
1.041691
0.883888
0.728486
0.584783
0.417080
0.254177
0.109574
-0.038929
-0.182931
-0.314934
-0.446636
-0.579839
-0.703741
-0.815043
-0.935946
-1.047848
-1.151350
-1.253652
-1.341554
-1.434256
-1.513457
-1.569859
-1.621160
-1.670661
-1.712062
-1.745663
-1.787064
-1.836565
-1.888766
-1.936768
-1.977869
-2.026170
-2.072371
-2.111372
-2.157573
-2.199874
-2.235875
-2.265576
-2.277877
-2.265277
-2.257777
-2.247877
-2.228977
-2.202877
-2.159077
-2.098176
-2.018975
-1.932874
-1.830573
-1.705172
-1.572270
-1.415368
-1.238965
-1.039763
-0.833660
-0.626957
-0.411254
-0.209951
-0.019448
0.161754
0.331557
0.486659
0.634561
0.783063
0.913864
1.036566
1.170968
1.303870
1.414271
1.530972
1.646774
1.750575
1.866077
1.995078
2.117180
2.230281
2.346083
2.461884
2.577086
2.698287
2.809889
2.920290
3.057392
3.189093
3.307895
3.425496
3.543998
3.651999
3.754301
3.855402
3.939703
4.002703
4.052204
4.087004
4.104704
4.110404
4.100803
4.060902
4.005401
3.952299
3.896798
3.834397
3.773795
3.707794
3.642093
3.569191
3.493289
3.415888
3.345086
3.290185
3.229884
3.169282
3.119481
3.066680
3.021079
2.998878
2.983877
2.971277
2.972776
2.975776
2.977576
2.984775
2.999175
3.017175
3.038475
3.062775
3.077775
3.085875
3.092174
3.098174
3.102674
3.107474
3.090673
3.051072
3.013271
2.968270
2.915469
2.880968
2.866267
2.861767
2.867166
2.893866
2.925366
2.959567
3.009667
3.064867
3.138368
3.228669
3.311170
3.378971
3.453672
3.537673
3.612973
3.685274
3.762375
3.834976
3.909077
3.998178
4.088779
4.175180
4.259481
4.335682
4.401382
4.473083
4.536684
4.581984
4.623684
4.665084
4.685484
4.695684
4.711284
4.720884
4.720283
4.723283
4.733783
4.739783
4.729882
4.708281
4.689981
4.670180
4.644679
4.625478
4.606878
4.575977
4.539976
4.502775
4.463774
4.431973
4.415472
4.400472
4.390271
4.380671
4.355170
4.329669
4.305668
4.281067
4.238466
4.179065
4.121164
4.046162
3.947460
3.832558
3.705656
3.573353
3.433250
3.295848
3.150045
2.986242
2.834439
2.681436
2.537434
2.406631
2.284529
2.162127
2.064625
1.989923
1.917322
1.853720
1.817719
1.782618
1.737917
1.696816
1.656615
1.607714
1.557913
1.510812
1.454410
1.395909
1.324507
1.246806
1.150804
1.048802
0.962400
0.870598
0.761996
0.665694
0.576292
0.470990
0.375288
0.287086
0.196785
0.125383
0.077082
0.026981
-0.012620
-0.020121
-0.013821
-0.005121
0.017079
0.057579
0.100779
0.135279
0.177880
0.223180
0.251380
0.285580
0.326981
0.359081
0.369580
0.378880
0.403480
0.417280
0.417580
0.451780
0.461380
0.472179
0.513280
0.529780
0.522879
0.539379
0.564879
0.549878
0.553178
0.556778
0.545377
0.556177
0.567277
0.567276
0.557076
0.566975
0.592175
0.607775
0.637175
0.680376
0.724776
0.765276
0.806977
0.860077
0.908377
0.933877
0.955477
0.989078
1.046678
1.079978
1.092578
1.117478
1.137578
1.156478
1.191578
1.225178
1.259678
1.289078
1.325679
1.356879
1.361378
1.377878
1.402478
1.384478
1.352077
1.361377
1.365576
1.340975
1.330175
1.331374
1.332574
1.349374
1.345774
1.344273
1.366773
1.391373
1.404873
1.456773
1.516474
1.560874
1.607375
1.650575
1.699175
1.748076
1.785876
1.816476
1.850976
1.896877
1.957477
2.021978
2.077478
2.144679
2.237380
2.286880
2.353781
2.474683
2.566184
2.672085
2.803187
2.912988
3.020389
3.149991
3.281093
3.404094
3.543596
3.677698
3.799200
3.924001
4.054203
4.169404
4.293006
4.422908
4.543209
4.647910
4.750812
