EVENT_NAME: 202302060117
EVENT_ID: 13194
EVENT_DATE_YYYYMMDD: 2023/02/06
EVENT_TIME_HHMMSS: 01:17:32.00000
EVENT_LATITUDE_DEGREE: 37.288
EVENT_LONGITUDE_DEGREE: 37.043
EVENT_DEPTH_KM: 8.6
HYPOCENTER_REFERENCE: AFAD
MAGNITUDE_W: 7.7
MAGNITUDE_W_REFERENCE: AFAD
MAGNITUDE_L: 
MAGNITUDE_L_REFERENCE: 
FOCAL_MECHANISM: 
NETWORK: TK
STATION_CODE: 0122
STATION_NAME: 
STATION_LATITUDE_DEGREE: 37.4339
STATION_LONGITUDE_DEGREE: 35.82021
STATION_ELEVATION_M: 119.0
LOCATION: Kahramanmaras_Pazarck_Turkiye
SENSOR_DEPTH_M: 
VS30_M/S: 501
SITE_CLASSIFICATION_EC8: B
MORPHOLOGIC_CLASSIFICATION: 
EPICENTRAL_DISTANCE_KM: 109.28
EARTHQUAKE_BACKAZIMUTH_DEGREE: 
DATE_TIME_FIRST_SAMPLE_YYYYMMDD_HHMMSS: 2023/02/06 01:17:30.8869570
DATE_TIME_FIRST_SAMPLE_PRECISION: millisecond
SAMPLING_INTERVAL_S: 0.01
NDATA: 12501
DURATION_S: 
STREAM: HNZ
UNITS: cm/s^2
INSTRUMENT: sensor = CMG-5T/GURALP | digitizer = 
INSTRUMENT_ANALOG/DIGITAL: 
INSTRUMENTAL_FREQUENCY_HZ: 
INSTRUMENTAL_DAMPING: 
FULL_SCALE_G: 
N_BIT_DIGITAL_CONVERTER: 
PGA_CM/S^2: 33.208
TIME_PGA_S: 
BASELINE_CORRECTION: BASELINE REMOVED
FILTER_TYPE: BUTTERWORTH
FILTER_ORDER: 
LOW_CUT_FREQUENCY_HZ: 
HIGH_CUT_FREQUENCY_HZ: 
LATE/NORMAL_TRIGGERED: 
DATABASE_VERSION: 
HEADER_FORMAT: DYNA 1.2
DATA_TYPE: Acceleration
PROCESSING: Automatic Paolucci et al., 2011
DATA_TIMESTAMP_YYYYMMDD_HHMMSS: 
DATA_LICENSE: U (unknown license)
DATA_CITATION: Turkish Accelerometric Archive v 1.0 - Disaster And Emergency Management Presidency, Earthquake Department
DATA_CREATOR: AFAD
ORIGINAL_DATA_MEDIATOR_CITATION: : AFAD - Disaster And Emergency Management Presidency
ORIGINAL_DATA_MEDIATOR: AFAD PROCESS SERVICE
ORIGINAL_DATA_CREATOR_CITATION: AFAD PROCESS SERVICE
ORIGINAL_DATA_CREATOR: network: TK
USER1: GuestUser
USER2: 
USER3: 
USER4: 
USER5: 
[...]
-2.721034
-3.770798
-2.267854
0.632170
2.265152
1.760039
0.652117
-0.237551
-0.009164
0.938673
1.343819
1.511761
1.501638
1.010902
1.065144
1.580396
0.987721
-1.339215
-4.011827
-5.245211
-4.735187
-2.329172
1.449418
5.092417
7.556262
8.173780
7.697092
8.427003
11.382244
14.001284
13.707237
12.362112
11.806357
11.528972
10.108700
6.619274
2.207500
-1.428626
-4.052882
-4.582499
-3.310550
-0.993731
0.395839
-0.552640
-3.210876
-6.403962
-7.858213
-6.596719
-4.067856
-2.481269
-3.130795
-4.538651
-5.164652
-4.949007
-4.579475
-4.889532
-4.861428
-3.670833
-2.500169
-3.078795
-4.716013
-5.439378
-4.482392
-2.059388
0.931139
2.602674
1.456526
-1.141266
-3.515250
-5.097251
-5.991821
-7.060209
-8.220407
-9.068908
-8.642525
-6.152215
-2.509543
0.478043
1.813377
1.949628
2.302497
4.251423
6.871769
8.328319
8.184892
7.547782
7.172053
7.606931
8.771060
10.338697
12.057934
13.168480
12.822483
11.168603
9.310518
7.898742
6.683654
5.136939
3.913030
3.461174
4.225064
5.674426
6.598739
6.651674
6.557909
5.679349
3.780424
1.423756
-1.232520
-3.527436
-4.842502
-4.472316
-3.055627
-1.730749
-0.296416
0.929464
1.947875
3.556025
4.811965
4.777991
3.788344
2.044940
0.049631
-2.004816
-4.251050
-6.280012
-7.651602
-7.503589
-6.055208
-5.296218
-6.325399
-7.904786
-8.681408
-8.469684
-7.298366
-5.094268
-2.877754
-1.822751
-0.721352
0.860006
1.627164
0.903472
-0.209677
0.260160
2.522742
3.719544
2.212690
-1.143105
-4.286529
-6.447815
-7.922323
-8.253291
-7.410332
-6.256004
-5.603201
-5.430030
-5.102645
-4.300854
-3.215792
-2.771440
-3.402668
-4.580509
-6.675143
-9.549672
-11.437488
-11.105856
-9.921469
-9.858732
-10.580137
-11.315918
-11.042443
-8.338454
-4.638605
-2.667136
-3.003984
-4.684983
-6.630957
-9.142166
-13.049148
-17.145958
-20.022120
-20.952303
-20.612502
-20.305048
-20.086789
-18.026451
-13.748297
-8.298177
-3.405452
-1.114772
-1.662685
-2.942792
-2.736949
-0.204164
3.290501
5.035223
4.472280
2.434169
0.983512
1.345203
3.046470
4.873527
5.529925
5.159750
4.836297
5.024497
5.924632
6.354609
5.400248
3.031491
0.764673
0.675482
2.535538
4.703697
5.918469
5.727993
4.378948
2.832887
2.514335
3.831372
6.458254
9.662786
11.498664
11.037333
10.217257
9.987574
8.340228
3.458623
-3.042889
-8.511621
-11.609303
-11.763839
-10.917940
-10.466073
-9.912593
-8.855956
-6.875012
-4.176578
-1.748672
-0.824686
-1.353649
-1.421276
0.095718
2.550415
5.782065
8.609230
9.506098
8.504035
6.892629
5.622325
3.931524
1.133123
-2.514766
-5.386681
-6.028364
-5.594794
-4.753796
-2.896027
1.172369
7.344226
13.109309
15.844663
15.766581
14.758638
13.765070
13.426261
13.133847
12.533004
11.537802
9.497732
5.538147
0.546435
-3.792805
-7.846814
-12.561789
-15.807152
-16.378589
-15.154342
-13.528549
-11.717502
-10.045640
-9.432697
-9.501957
-9.594415
-9.362761
-7.740561
-4.411219
-1.207340
-0.349679
-2.622052
-6.713961
-10.684654
-12.931215
-13.359874
-12.931204
-11.612533
-9.125164
-5.684408
-2.173407
-0.302896
-0.822711
-2.146272
-3.185908
-4.117071
-5.151479
-7.434960
-9.569455
-9.974589
-9.509326
-8.294227
-6.227027
-3.377972
-0.174093
2.613864
4.951920
6.588822
6.596016
4.198180
0.097123
-3.057736
-3.414515
-2.635922
-3.673924
-6.895435
-9.864388
-10.535804
-8.909030
-5.898572
-2.160823
1.416831
3.468674
3.065174
1.539696
1.282895
2.375145
3.421000
3.089053
1.162683
-2.140183
-5.104235
-6.225879
-5.880524
-5.485180
-5.752763
-5.958922
-5.089825
-1.633714
3.680161
8.471275
10.694650
10.098381
7.641081
4.974350
2.595138
-0.110146
-4.125601
-9.031711
-13.260845
-15.197016
-14.126984
-11.585704
-9.739371
-8.791861
-7.514030
-5.804595
-2.937243
0.886762
5.078006
8.616780
9.577033
7.931973
4.824490
1.039376
-2.567018
-5.545119
-6.914748
-5.655214
-2.979977
-1.359085
-2.598023
-5.680676
-7.562612
-6.502707
-2.924727
1.605659
5.244411
7.631149
10.016253
13.078987
15.942744
17.731900
17.291806
14.473475
10.618442
7.041126
5.160825
4.534170
3.950970
2.736536
0.522647
-2.449572
-4.725212
-5.175762
-3.648313
-0.092223
5.031497
10.496646
14.884580
17.463433
17.738541
15.379586
11.423595
8.615392
7.811979
8.738906
11.206999
13.904779
15.803062
17.496161
18.682835
18.005865
15.245037
10.902529
6.156842
1.726118
-0.771368
-0.690988
0.000696
0.106887
-0.042421
0.525108
2.030993
3.694360
3.616278
0.920795
-2.271638
-4.084960
-5.327167
-6.866366
-8.057603
-8.504885
-8.788805
-9.389321
-9.787921
-9.650037
-9.207318
-8.560068
-6.949304
-3.930679
-0.112228
3.618006
6.469349
8.876670
10.691638
11.348036
11.725410
12.768978
15.354692
18.699063
21.500089
23.287285
24.297527
24.173704
22.359727
20.035405
18.408970
17.349730
16.609375
14.495464
9.161344
2.277889
-3.368581
-6.715229
-6.869764
-4.426830
-2.361917
-2.566442
-4.040623
-4.948588
-4.263112
-2.196892
-0.419171
0.849184
2.125381
2.477270
0.455496
-3.591325
-8.247489
-11.557216
-11.187684
-7.641069
-2.225256
3.613667
7.421009
7.772899
5.189156
2.616196
2.532560
3.905140
4.073410
2.593674
2.206183
4.065259
6.060252
6.273610
4.631165
1.848773
-0.760454
-2.054936
-3.667323
-6.725798
-9.037051
-9.900909
-10.140066
-9.112508
-6.140931
-2.817470
-0.907425
-0.898598
-3.141565
-6.121953
-8.043748
-8.602117
-8.157438
-6.432320
-4.242271
-3.133358
-4.590876
-7.544472
-9.673412
-10.237335
-9.483573
-7.834582
-6.192779
-5.315188
-5.259639
-5.714436
-5.525583
-4.847621
-3.973624
-1.409800
2.815751
7.344830
10.371297
10.313145
8.207076
6.281033
5.338108
4.227899
2.735747
1.891167
1.353055
1.114877
1.847402
3.649628
5.798182
8.867451
12.600299
15.425830
17.927575
20.630257
22.241021
21.588555
19.966367
19.272733
20.708372
23.431965
26.075182
27.888190
28.345938
27.668314
25.897139
22.818734
18.710489
14.088630
9.804933
5.980613
2.280448
-0.817234
-2.471441
-3.062809
-3.912291
-5.072162
-5.331577
-4.957143
-4.609175
-3.868808
-2.880457
-2.620378
-4.831653
-9.822711
-15.083318
-18.914827
-21.403165
-23.171727
-24.058455
-23.216150
-21.020220
-18.432219
-16.204270
-14.387015
-12.059741
-8.633362
-5.415107
-3.616802
-3.249883
-4.010495
-5.048498
-5.826753
-5.411152
-3.028008
-0.152815
1.573283
2.525368
3.104331
2.536814
0.488575
-1.527971
-2.307533
-2.614323
-2.968162
-4.436135
-7.521729
-9.972820
-9.975102
-8.800190
-7.404085
-5.003298
-0.813360
4.590364
10.755687
17.009879
22.385178
26.462722
29.109207
29.703200
27.715079
23.453273
18.151171
13.338178
10.999807
11.354964
11.710774
10.319581
6.950389
3.126069
0.409022
-0.048062
0.512279
0.220518
0.003251
0.496940
0.462639
-2.433453
-8.067182
-14.086446
-17.921222
-18.399870
-16.945281
-14.984267
-12.324059
-9.206109
-6.398548
-4.902138
-6.198581
-9.094673
-11.153694
-10.695618
-8.583003
-6.723928
-6.055114
-6.775539
-8.358847
-9.916670
-10.827903
-11.470894
-11.623143
-10.401182
-7.159730
-2.772123
0.458221
2.060491
3.070733
4.882760
7.816437
9.598078
8.591768
5.908701
3.260594
1.157138
-0.722183
-3.878022
-9.249390
-13.809824
-13.934627
-9.616940
-4.707878
-2.014671
-2.784105
-5.449529
-7.701971
-9.366961
-10.666017
-11.681802
-11.490335
-9.067657
-4.651952
-0.352234
1.562712
0.899464
-0.238844
-0.509367
0.383254
1.212489
0.496965
-1.449335
-3.841943
-5.113554
-4.645677
-4.331688
-4.626062
-5.356616
-5.639555
-4.856714
-3.252158
-2.438278
-2.591180
-1.721104
1.534072
6.245791
9.619894
10.807875
9.625786
5.653459
0.853535
-2.495726
-5.054964
-7.118885
-8.070959
-7.685743
-6.516059
-5.846919
-5.699887
-7.316194
-12.403637
-19.503384
-24.813000
-25.466773
-22.348496
-18.298396
-15.885194
-14.839012
-13.498777
-11.951398
-10.966314
-11.701768
-13.875143
-15.850848
-14.600463
-9.278420
-2.602098
2.070087
4.681285
7.607448
11.554302
16.181072
18.940931
19.429718
19.522187
19.166388
18.305471
17.195262
15.096381
12.315296
9.915827
9.058504
10.158269
12.554482
15.660670
17.901035
18.561680
19.449400
21.980878
25.265785
27.401271
27.387554
25.617685
23.478290
22.261242
22.496817
22.565108
21.979294
21.252008
19.337074
15.952199
12.283074
9.073978
5.942970
3.258923
2.513013
3.426871
4.164297
3.388982
0.236736
-5.111760
-10.139412
-13.065890
-14.053576
-13.937256
-14.351866
-15.745999
-17.505739
-18.070643
-16.637291
-13.715049
-8.977192
-2.165279
4.972379
11.338965
15.847787
16.225488
12.907919
9.990263
9.623029
10.980907
11.865359
10.917206
8.301445
6.251246
4.594751
0.539436
-5.479502
-10.915888
-13.645023
-13.431339
-11.355644
-8.215476
-4.887115
-1.341153
3.375466
9.162767
14.622035
17.333212
16.787585
15.012162
13.685988
11.705708
8.991602
6.940749
6.010893
5.443049
2.907662
-1.316244
-3.750999
-3.242935
-1.656349
-1.860220
-3.637930
-3.989154
-0.901263
3.529145
5.694363
4.127718
0.822892
-1.406026
-2.407109
-3.725769
-4.921906
-5.660628
-7.046593
-9.623148
-12.130763
-13.916641
-15.623778
-15.364025
-11.895825
-7.361191
-3.439822
0.656999
5.371005
10.523151
15.885708
20.705246
22.144806
20.300771
16.960005
12.972975
10.090278
9.996513
13.389567
18.085603
21.982795
22.924097
19.839484
15.067332
10.263488
7.398761
7.168425
8.435147
8.781482
7.258618
4.662787
2.695903
2.433874
3.391840
4.529505
5.694942
7.280874
8.502835
7.625908
4.744845
0.719262
-3.709502
-6.676820
-6.228547
-3.228544
-0.356945
1.793897
3.526856
5.596670
8.726056
12.293254
15.683367
19.291733
22.558017
24.334104
23.952821
23.276504
24.012949
25.650832
25.774993
22.199311
15.642582
10.215998
7.405508
5.859120
3.625301
2.527181
3.742280
5.460864
6.543966
6.037220
4.348379
2.143639
-0.020588
-0.736112
0.686785
3.155204
4.155971
2.154128
-2.154074
-5.886584
-7.205244
-6.861196
-6.034248
-6.079003
-6.847784
-6.541636
-4.642373
-2.163498
-1.908647
-4.934122
-9.215859
-13.471131
-15.554003
-15.180876
-13.445630
-11.805460
-11.573153
-11.478396
-11.249029
-11.740746
-12.703275
-13.575301
-13.724282
-13.063963
-11.667205
-9.497086
-6.096518
-1.732108
2.890414
7.448899
11.521542
13.362975
12.287072
8.981919
4.764874
2.527461
3.514179
5.163170
5.344835
4.732556
4.579981
5.819258
7.921417
8.901274
6.817095
2.657227
-1.262497
-4.452643
-7.067424
-7.702900
-6.611630
-7.089298
-10.592120
-15.959893
-20.865350
-23.821233
-24.301514
-22.154266
-18.784410
-14.985563
-10.634223
-6.848118
-4.785492
-5.370653
-8.242894
-10.615571
-9.835998
-8.079514
-7.020590
-5.999240
-4.438465
-2.365057
-0.108682
2.165008
5.128091
8.546629
10.957544
10.929125
8.428698
4.901698
1.995477
0.135105
-1.217861
-1.637698
-1.441657
-0.954830
-1.119821
-2.603150
-5.252565
-7.592243
-7.415479
-4.926149
-1.959799
1.513956
5.453622
8.659134
10.516903
11.277200
11.776443
12.861178
14.379152
15.280921
14.840500
12.917397
10.745656
8.591231
6.005202
3.057160
0.753422
-0.303531
-1.133082
-2.266488
-3.358401
-4.265713
-4.307855
-3.243376
-2.142305
-1.933521
-1.972723
-1.944619
-1.356833
-0.250207
1.109958
2.271474
2.472089
1.726180
1.535704
2.629261
4.109008
5.451530
5.886735
4.707587
2.914848
1.806599
1.697478
1.157079
-0.292271
-2.215700
-4.792581
-6.861077
-7.879149
-7.672326
-6.885892
-6.431410
-7.400800
-9.332725
-10.654652
-10.923868
-10.380518
-9.062173
-7.890856
-6.749597
-4.866016
-1.599733
2.017782
4.517240
4.979236
3.983708
3.039476
1.835823
-0.140536
-2.007115
-3.440456
-4.999259
-6.417570
-7.520591
-7.989764
-8.486055
-9.834120
-11.572949
-12.618793
-12.311665
-11.105388
-9.822003
-8.612785
-6.846173
-4.226806
-1.645340
-0.053526
-0.397889
-2.185401
-4.978574
-8.507208
-11.756491
-14.183405
-14.673488
-12.911123
-9.686007
-6.036474
-3.298832
-2.926032
-5.201672
-8.868511
-12.279850
-15.056360
-17.704468
-19.247915
-19.910510
-20.148360
-19.946438
-19.765100
-20.110443
-20.511657
-19.495861
-16.319427
-10.922563
-4.519385
1.469179
6.672620
11.372251
15.142346
16.950779
16.637128
15.177649
13.663280
12.272741
11.105028
10.344089
9.674633
8.588929
6.143065
3.499858
2.015875
1.025248
-0.452854
-2.092359
-3.566867
-5.208985
-6.865807
-9.637743
-13.638169
-17.225940
-19.200012
-19.413685
-18.468135
-16.360421
-13.270242
-9.183549
-5.475205
-4.010161
-4.871078
-8.141272
-11.383367
-11.920171
-10.126768
-7.220536
-4.369847
-3.277924
-4.298283
-6.244256
-7.622054
-7.663869
-6.985907
-5.922082
-5.246408
-5.928606
-8.195751
-12.892429
-19.060027
-24.729695
-27.896644
-27.545081
-23.853727
-17.799818
-11.405134
-6.515023
-3.907091
-4.425273
-7.046589
-8.963157
-9.201988
-9.178785
-9.523475
-9.571171
-9.413031
-9.346373
-10.343208
-12.597937
-14.768698
-15.415610
-13.824123
-11.242656
-9.744612
-8.843824
-7.618923
-5.715739
-3.276725
-1.951520
-1.900871
-2.384420
-2.649389
-2.035792
-1.160815
-0.471091
0.023904
0.561047
1.016182
1.235747
0.428086
-0.741587
-1.125157
-0.434126
1.804278
5.516216
8.912863
9.870176
8.953715
8.817803
10.208354
11.220556
10.646504
7.601752
1.300196
-6.091317
-12.218728
-16.553394
-19.825875
-22.898072
-24.691792
-25.273685
-25.438349
-25.647775
-24.853825
-22.947374
-20.126745
-17.402499
-16.261567
-16.265482
-16.090678
-15.042862
-14.281586
-13.974131
-12.986433
-11.153496
-6.804769
0.205793
7.988082
15.440377
21.613541
26.590888
31.002673
33.208078
31.037317
25.489518
19.308850
15.033975
12.017974
8.994786
6.256829
4.321310
2.750091
0.492421
-2.591538
-5.405296
-6.109058
-4.158825
-1.684852
0.580671
2.453142
3.446395
4.400113
6.401641
8.689054
9.453272
8.959921
9.170992
10.184828
10.290692
8.631584
7.078988
6.451354
6.544803
7.081946
7.098614
7.440702
8.629009
9.403355
9.520656
9.276597
8.988757
8.633938
8.806455
9.827152
9.674250
7.326077
4.589754
2.911369
1.882841
2.062873
2.520948
2.963341
5.257942
8.287676
10.382321
9.161352
4.937446
1.269301
-0.572121
-1.908424
-3.323141
-5.987912
-9.425715
-12.164979
-13.341840
-11.667365
-8.528830
-6.285525
-5.410548
-4.671815
-3.072813
-0.947783
0.450283
1.560503
1.547439
-0.129965
-1.916170
-3.649772
-6.066231
-8.251694
-9.501742
-10.245037
-10.145380
-8.572843
-6.802310
-6.856868
-7.299903
-6.170732
-5.305884
-5.581635
-5.746626
-4.614515
-3.309893
-2.679306
-2.480978
-3.726125
-3.860077
-1.383163
0.104099
-0.734274
-2.857006
-5.228703
-6.832922
-8.496277
-9.298057
-9.353268
-8.613882
-5.726927
-2.434505
0.175714
1.814249
3.186830
4.470542
4.326788
3.898129
3.960539
3.576315
2.476888
1.643090
2.061958
3.832164
5.714111
5.438360
3.865834
3.235912
4.652601
7.510477
10.831651
13.410831
14.933705
15.745298
15.545347
14.758597
15.108526
16.878732
19.447783
21.616595
22.602659
21.995608
19.304046
14.872669
10.330205
7.369748
6.634294
7.746801
8.464296
8.025509
7.230918
7.672983
9.975426
13.228967
15.256307
15.262194
14.031750
11.549292
6.683696
0.890199
-4.106740
-8.841972
-14.015344
-18.935829
-21.252310
-20.301532
-17.116930
-13.737272
-12.755782
-13.243578
-12.645664
-10.824162
-7.658510
-4.061252
-1.706207
-0.811626
-0.541418
-0.990987
-2.801370
-4.515368
-3.658360
-1.033766
2.126332
4.927358
6.289484
6.490753
6.339157
6.551208
7.387305
8.514842
8.474333
6.948529
5.950387
5.524996
4.217771
1.162890
-1.813903
-2.895360
-2.944037
-2.265748
-1.356791
-0.380529
2.053257
5.284582
6.673172
6.537913
6.786557
7.587368
9.367376
11.503188
12.520618
12.353013
9.578463
4.873616
0.517060
-1.644553
-1.451452
-0.648028
-0.185705
-0.019723
0.167823
1.814527
4.636464
5.945007
5.253987
4.035632
3.348860
3.110355
3.121470
3.246285
3.023463
2.554290
2.119424
2.438314
2.529149
0.723341
-2.105119
-3.491411
-2.739283
-1.722179
-1.670224
-2.271068
-2.463177
-2.688285
-3.285535
-4.128482
-5.701661
-7.365997
-8.153401
-7.968141
-6.971949
-5.568002
-5.003741
-6.043377
-7.992618
-9.205745
-8.966250
-7.161411
-3.257685
1.748741
5.522104
8.163688
9.766937
9.780338
8.351572
7.166870
6.736904
5.407789
3.428162
1.011050
-1.719065
-3.851599
-5.020946
-5.303885
-4.319127
-2.218274
0.710175
4.133941
7.469490
9.676202
8.817899
5.088329
0.973223
-1.586015
-1.729115
-1.352395
-1.583058
-1.300761
-0.731272
0.318177
2.173985
4.137286
5.436027
5.648405
5.098531
4.565646
3.992575
2.862436
1.161507
1.186670
3.145070
4.387288
3.364968
0.403531
-2.605282
-4.330716
-4.118012
-2.477189
-0.018245
3.273197
6.441463
7.720927
7.511502
7.530457
7.924168
6.926026
4.800680
2.526673
-0.407646
-2.927350
-4.066311
-3.541257
-0.807209
3.332413
6.495778
7.750084
8.159477
8.735174
9.298128
9.010942
7.437762
4.965434
3.298811
2.497358
1.077086
-1.234167
-4.223376
-7.532777
-10.709853
-14.188824
-17.313625
-18.697630
-17.899433
-15.981547
-13.717004
-10.817960
-7.351720
-4.550694
-3.118976
-2.321759
-1.953533
-1.707503
-1.618628
-2.358330
-4.536932
-7.696366
-10.460461
-12.493997
-13.272252
-12.581548
-10.438548
-7.308182
-3.094720
2.148582
6.715562
9.532925
10.225262
9.381988
6.738128
3.200673
0.021963
-2.041958
-3.843846
-5.726108
-7.407760
-8.366368
-8.317354
-7.905347
-7.313641
-6.293924
-4.207774
-1.203524
2.257489
5.265986
7.534449
8.908010
8.022262
5.510726
3.417072
3.267764
4.677592
5.552242
5.372549
4.691331
3.140042
1.037240
-1.148877
-2.790342
-3.662041
-3.876367
-3.271919
-3.085680
-3.953785
-5.522063
-6.496681
-5.150891
-1.643484
2.001149
4.007251
4.844328
5.040696
3.859588
1.008584
-3.080712
-6.670116
-8.543557
-8.149846
-5.736644
-2.929410
-0.705381
0.744634
1.224926
0.093154
-1.978283
-4.022274
-5.419348
-4.956372
-1.929905
2.518800
6.414685
8.461301
8.380278
6.124896
2.546273
-0.501747
-2.776080
-4.559017
-5.449013
-4.320823
-1.504441
1.729171
4.642264
7.040437
8.826326
10.429902
10.653062
8.936123
6.209928
3.447794
0.435387
-3.212175
-6.226869
-7.498153
-7.268133
-6.260505
-4.832707
-2.777269
0.264554
3.019839
4.209780
3.638995
2.243555
1.599584
2.524550
4.422833
6.139130
5.777776
1.836815
-4.789833
-10.962006
-13.732962
-13.853518
-13.930620
-14.709529
-15.412964
-15.546589
-14.446171
-12.198292
-9.355444
-5.512163
-0.836710
3.908662
7.510166
10.176582
11.651754
10.914666
8.027396
5.150254
3.902493
3.855450
5.235546
7.695797
9.532002
9.386941
6.830970
3.330435
0.306593
-1.607361
-2.180106
-1.795544
-1.191096
-0.692180
-0.217115
0.137062
0.323628
0.832672
2.200679
4.098962
5.776378
6.226285
5.579373
5.168031
6.111621
7.716831
9.118817
9.899370
10.651499
11.489883
12.158370
12.302461
11.700311
10.390800
8.563754
6.400508
4.607116
3.644260
3.376024
3.590035
4.243492
4.985819
5.084822
4.221618
2.535718
1.143872
1.226539
2.773918
3.910603
3.337858
1.775461
0.591739
0.646634
1.899634
3.302927
4.315782
5.327658
6.841711
8.485801
10.215820
11.825604
12.864271
12.597342
10.847730
8.613258
6.213789
3.352656
1.043690
-0.140685
-1.294675
-3.747401
-8.085661
-13.244003
-17.539462
-19.441981
-19.224049
-18.305944
-17.514609
-16.599771
-14.972997
-12.681663
-10.653670
-9.811039
-9.109226
-7.413186
-5.387154
-4.156372
