EVENT_NAME: 202302060117
EVENT_ID: 13194
EVENT_DATE_YYYYMMDD: 2023/02/06
EVENT_TIME_HHMMSS: 01:17:32.00000
EVENT_LATITUDE_DEGREE: 37.288
EVENT_LONGITUDE_DEGREE: 37.043
EVENT_DEPTH_KM: 8.6
HYPOCENTER_REFERENCE: AFAD
MAGNITUDE_W: 7.7
MAGNITUDE_W_REFERENCE: AFAD
MAGNITUDE_L: 
MAGNITUDE_L_REFERENCE: 
FOCAL_MECHANISM: 
NETWORK: TK
STATION_CODE: 4212
STATION_NAME: 
STATION_LATITUDE_DEGREE: 38.2382
STATION_LONGITUDE_DEGREE: 32.21757
STATION_ELEVATION_M: 1141.0
LOCATION: Kahramanmaras_Pazarck_Turkiye
SENSOR_DEPTH_M: 
VS30_M/S: None
SITE_CLASSIFICATION_EC8: unknown
MORPHOLOGIC_CLASSIFICATION: 
EPICENTRAL_DISTANCE_KM: 437.08
EARTHQUAKE_BACKAZIMUTH_DEGREE: 
DATE_TIME_FIRST_SAMPLE_YYYYMMDD_HHMMSS: 2023/02/06 01:18:07.5440730
DATE_TIME_FIRST_SAMPLE_PRECISION: millisecond
SAMPLING_INTERVAL_S: 0.01
NDATA: 21001
DURATION_S: 
STREAM: HNN
UNITS: cm/s^2
INSTRUMENT: sensor = ACEBOX/SARA | digitizer = 
INSTRUMENT_ANALOG/DIGITAL: 
INSTRUMENTAL_FREQUENCY_HZ: 
INSTRUMENTAL_DAMPING: 
FULL_SCALE_G: 
N_BIT_DIGITAL_CONVERTER: 
PGA_CM/S^2: 1.415
TIME_PGA_S: 
BASELINE_CORRECTION: BASELINE REMOVED
FILTER_TYPE: BUTTERWORTH
FILTER_ORDER: 
LOW_CUT_FREQUENCY_HZ: 
HIGH_CUT_FREQUENCY_HZ: 
LATE/NORMAL_TRIGGERED: 
DATABASE_VERSION: 
HEADER_FORMAT: DYNA 1.2
DATA_TYPE: Acceleration
PROCESSING: Automatic Paolucci et al., 2011
DATA_TIMESTAMP_YYYYMMDD_HHMMSS: 
DATA_LICENSE: U (unknown license)
DATA_CITATION: Turkish Accelerometric Archive v 1.0 - Disaster And Emergency Management Presidency, Earthquake Department
DATA_CREATOR: AFAD
ORIGINAL_DATA_MEDIATOR_CITATION: : AFAD - Disaster And Emergency Management Presidency
ORIGINAL_DATA_MEDIATOR: AFAD PROCESS SERVICE
ORIGINAL_DATA_CREATOR_CITATION: AFAD PROCESS SERVICE
ORIGINAL_DATA_CREATOR: network: TK
USER1: GuestUser
USER2: 
USER3: 
USER4: 
USER5: 
[...]
0.517037
0.520310
0.527558
0.532467
0.538312
0.542053
0.542287
0.547196
0.551171
0.556080
0.564731
0.569640
0.573615
0.581330
0.589746
0.591149
0.590915
0.595825
0.593720
0.589512
0.588343
0.580627
0.575718
0.571743
0.561923
0.558416
0.554675
0.546726
0.540647
0.537374
0.536205
0.532932
0.529892
0.527554
0.526385
0.531528
0.532697
0.534334
0.539243
0.534567
0.534567
0.535268
0.531527
0.531995
0.520773
0.513291
0.513758
0.501601
0.496457
0.492249
0.479857
0.478454
0.472142
0.463491
0.463023
0.456711
0.452736
0.450164
0.444787
0.440812
0.432161
0.425615
0.420238
0.410886
0.406210
0.401767
0.393818
0.385869
0.379089
0.374179
0.365294
0.359917
0.356410
0.346824
0.338875
0.332328
0.324847
0.317131
0.309883
0.304973
0.294920
0.283230
0.275515
0.267332
0.257278
0.244887
0.234833
0.225481
0.211687
0.197659
0.187138
0.178020
0.168434
0.160485
0.154874
0.149730
0.148795
0.144119
0.139677
0.140378
0.134533
0.126584
0.122141
0.114426
0.102502
0.088240
0.075381
0.060652
0.047325
0.037973
0.022309
0.008749
-0.001071
-0.015800
-0.029361
-0.044558
-0.054611
-0.058352
-0.071211
-0.081732
-0.084771
-0.091552
-0.096228
-0.095293
-0.096462
-0.097865
-0.094825
-0.093657
-0.094124
-0.090384
-0.087344
-0.084071
-0.080565
-0.074954
-0.066069
-0.064901
-0.061394
-0.051107
-0.046665
-0.040118
-0.034741
-0.035209
-0.026792
-0.021181
-0.022351
-0.015571
-0.011128
-0.010895
-0.008089
-0.008323
-0.008090
-0.006453
-0.009960
-0.014169
-0.016273
-0.022352
-0.031704
-0.037315
-0.048304
-0.063734
-0.071216
-0.082205
-0.092492
-0.092960
-0.099506
-0.103247
-0.102779
-0.108624
-0.110963
-0.115171
-0.121484
-0.124523
-0.128732
-0.128732
-0.131304
-0.136214
-0.132239
-0.131304
-0.131070
-0.127096
-0.128499
-0.128733
-0.123823
-0.120784
-0.121719
-0.121485
-0.117277
-0.116810
-0.117277
-0.112134
-0.107926
-0.102782
-0.097405
-0.093665
-0.085716
-0.076598
-0.073091
-0.070519
-0.064441
-0.059531
-0.056024
-0.050647
-0.046906
-0.041997
-0.035450
-0.030307
-0.023761
-0.018617
-0.013708
-0.007629
-0.005291
-0.003655
-0.000616
-0.000849
-0.000850
0.003125
0.005463
0.001956
0.005229
0.012710
0.012710
0.015282
0.020659
0.021828
0.027672
0.029777
0.026269
0.031647
0.038193
0.034218
0.030477
0.031412
0.029776
0.027204
0.026268
0.028373
0.027671
0.022527
0.025800
0.030242
0.027437
0.031879
0.034450
0.034217
0.041932
0.042399
0.042165
0.048010
0.043802
0.042165
0.045672
0.042398
0.040294
0.037488
0.030708
0.026500
0.021824
0.015277
0.008029
0.000080
-0.009506
-0.018390
-0.027742
-0.042004
-0.048784
-0.052759
-0.065618
-0.074736
-0.081282
-0.089699
-0.092505
-0.100220
-0.111676
-0.115184
-0.121029
-0.130381
-0.136459
-0.145344
-0.155631
-0.165451
-0.179946
-0.195611
-0.210808
-0.228343
-0.243540
-0.258035
-0.272531
-0.281415
-0.290767
-0.301054
-0.305730
-0.310406
-0.319057
-0.325136
-0.330981
-0.338696
-0.340801
-0.341970
-0.345944
-0.344776
-0.346412
-0.351322
-0.347815
-0.345244
-0.342204
-0.333554
-0.330749
-0.321163
-0.304564
-0.295913
-0.284925
-0.274170
-0.266923
-0.254999
-0.246349
-0.237698
-0.228113
-0.221099
-0.211513
-0.204500
-0.196083
-0.190004
-0.188368
-0.182523
-0.183692
-0.183926
-0.182290
-0.189070
-0.189772
-0.191642
-0.197019
-0.193279
-0.195617
-0.200527
-0.199124
-0.197721
-0.197254
-0.195150
-0.193513
-0.194683
-0.189539
-0.181123
-0.178785
-0.170602
-0.161952
-0.151898
-0.131792
-0.117764
-0.107010
-0.087838
-0.068200
-0.054873
-0.042482
-0.025649
-0.012323
-0.003906
0.004043
0.009654
0.017369
0.023214
0.027188
0.033968
0.036540
0.041216
0.047762
0.048230
0.050100
0.050334
0.046827
0.044255
0.037708
0.031629
0.026018
0.018303
0.014328
0.012925
0.010353
0.008483
0.010587
0.016198
0.023445
0.031161
0.038408
0.045656
0.056644
0.067399
0.077686
0.091012
0.099662
0.104104
0.113924
0.123275
0.127717
0.133562
0.141511
0.148759
0.154370
0.158578
0.163488
0.167930
0.169800
0.172605
0.181723
0.184061
0.184763
0.196218
0.204869
0.214922
0.226378
0.232690
0.248121
0.260278
0.268695
0.284593
0.294412
0.303530
0.314519
0.320130
0.329715
0.338366
0.344678
0.353796
0.360342
0.365953
0.371330
0.375772
0.380916
0.383721
0.388631
0.392839
0.392839
0.396813
0.400554
0.400554
0.400554
0.397514
0.397514
0.397982
0.391903
0.387694
0.386291
0.382551
0.376939
0.374835
0.375536
0.369224
0.364548
0.364781
0.359404
0.352156
0.346311
0.341635
0.337193
0.328776
0.323165
0.320125
0.315683
0.313578
0.311942
0.311240
0.315448
0.322930
0.328073
0.332983
0.340698
0.349115
0.358700
0.365948
0.371559
0.381846
0.388626
0.394938
0.405459
0.406862
0.409433
0.421357
0.425565
0.428137
0.437956
0.442866
0.446139
0.451282
0.454789
0.460634
0.467414
0.475129
0.484948
0.492664
0.500846
0.512302
0.522122
0.534045
0.545501
0.552515
0.564438
0.575894
0.581505
0.592260
0.602547
0.608392
0.618913
0.627095
0.631304
0.639019
0.643695
0.648604
0.655618
0.658891
0.664736
0.670581
0.674321
0.677828
0.680400
0.685076
0.687180
0.687413
0.688115
0.683205
0.678061
0.674554
0.669177
0.660993
0.649771
0.643225
0.637380
0.627560
0.621715
0.614233
0.604414
0.599971
0.595295
0.590619
0.586411
0.580800
0.576591
0.573552
0.568408
0.563498
0.558588
0.551107
0.544794
0.535442
0.527493
0.525388
0.518374
0.511127
0.506918
0.501541
0.498034
0.493591
0.490318
0.486811
0.479095
0.474887
0.467873
0.460158
0.458287
0.450572
0.439817
0.433270
0.426490
0.419008
0.411293
0.402409
0.390952
0.380431
0.367806
0.351908
0.341153
0.328294
0.312162
0.301641
0.293224
0.283872
0.271481
0.263999
0.261194
0.253946
0.250906
0.248334
0.244827
0.244360
0.236878
0.235709
0.237111
0.223785
0.218641
0.221213
0.211627
0.203444
0.199703
0.188948
0.177726
0.169543
0.155047
0.141487
0.132369
0.118107
0.105014
0.094727
0.081401
0.073685
0.065736
0.049838
0.042590
0.038615
0.024353
0.015703
0.014534
0.007987
0.002142
-0.001365
-0.003002
-0.004872
-0.009782
-0.010016
-0.012822
-0.021472
-0.020070
-0.019368
-0.024980
-0.024512
-0.025681
-0.029656
-0.030124
-0.034800
-0.040645
-0.043217
-0.049763
-0.057946
-0.064259
-0.069402
-0.077118
-0.090912
-0.102368
-0.109616
-0.118500
-0.129957
-0.140010
-0.145855
-0.148661
-0.150064
-0.154740
-0.158013
-0.156377
-0.159884
-0.163157
-0.166664
-0.174379
-0.179991
-0.190512
-0.200331
-0.202436
-0.210852
-0.216230
-0.216230
-0.220438
-0.224881
-0.228154
-0.229089
-0.232363
-0.234467
-0.232830
-0.237273
-0.239143
-0.238910
-0.244755
-0.247794
-0.252003
-0.259718
-0.265797
-0.272811
-0.277019
-0.280526
-0.283800
-0.286839
-0.292450
-0.296425
-0.302036
-0.312090
-0.320507
-0.326118
-0.330794
-0.341782
-0.352537
-0.356512
-0.364461
-0.371241
-0.372878
-0.378256
-0.381996
-0.381295
-0.376853
-0.373814
-0.371710
-0.362358
-0.354409
-0.347162
-0.335004
-0.326354
-0.318405
-0.312794
-0.309521
-0.304611
-0.302273
-0.299234
-0.297130
-0.299234
-0.299468
-0.302741
-0.309288
-0.312561
-0.317471
-0.324719
-0.329629
-0.332201
-0.336643
-0.341085
-0.343657
-0.347164
-0.348333
-0.353477
-0.358854
-0.357452
-0.363764
-0.369609
-0.368207
-0.372649
-0.371948
-0.369610
-0.373818
-0.374520
-0.378261
-0.380833
-0.383171
-0.390185
-0.390419
-0.395562
-0.404681
-0.407019
-0.412864
-0.417072
-0.419878
-0.423619
-0.421982
-0.424320
-0.424788
-0.422684
-0.431802
-0.433673
-0.430166
-0.442791
-0.451442
-0.451676
-0.460794
-0.463366
-0.468509
-0.484875
-0.489318
-0.494227
-0.507554
-0.515036
-0.527427
-0.541455
-0.552444
-0.571849
-0.591488
-0.607153
-0.625389
-0.641989
-0.655081
-0.670278
-0.685709
-0.700906
-0.717272
-0.734339
-0.750705
-0.764265
-0.780398
-0.796764
-0.809856
-0.829729
-0.844692
-0.853343
-0.868774
-0.877892
-0.880464
-0.886309
-0.884205
-0.881166
-0.881633
-0.872983
-0.862462
-0.857085
-0.850071
-0.837212
-0.821548
-0.811729
-0.800740
-0.782504
-0.769178
-0.763567
-0.754683
-0.739720
-0.730134
-0.726861
-0.715405
-0.703014
-0.698806
-0.690857
-0.681739
-0.677063
-0.670283
-0.667712
-0.669582
-0.663503
-0.659295
-0.658126
-0.649710
-0.644333
-0.641995
-0.634046
-0.629837
-0.628201
-0.623058
-0.622356
-0.621889
-0.618148
-0.617213
-0.614641
-0.613239
-0.614174
-0.611836
-0.618617
-0.625864
-0.626566
-0.638490
-0.646439
-0.646439
-0.654622
-0.660233
-0.664208
-0.670287
-0.673560
-0.682211
-0.693667
-0.702318
-0.710267
-0.717748
-0.724061
-0.727568
-0.731075
-0.732712
-0.732946
-0.736219
-0.735752
-0.733648
-0.734817
-0.733882
-0.729673
-0.726400
-0.726868
-0.725232
-0.723361
-0.724530
-0.719855
-0.718920
-0.721024
-0.715179
-0.714478
-0.712607
-0.706295
-0.703490
-0.697411
-0.695073
-0.690164
-0.679643
-0.676604
-0.663979
-0.649483
-0.646678
-0.632650
-0.620727
-0.623532
-0.620259
-0.612778
-0.608803
-0.607635
-0.610908
-0.610908
-0.607167
-0.610207
-0.614883
-0.614649
-0.616052
-0.620962
-0.625404
-0.625638
-0.627275
-0.632652
-0.633588
-0.633354
-0.633120
-0.632419
-0.632419
-0.628445
-0.627977
-0.628913
-0.625873
-0.628679
-0.629614
-0.630316
-0.636395
-0.639668
-0.643175
-0.645045
-0.647851
-0.657905
-0.660710
-0.660243
-0.667958
-0.674037
-0.674505
-0.677778
-0.682220
-0.684325
-0.688767
-0.687598
-0.681052
-0.681286
-0.680117
-0.668661
-0.661647
-0.660244
-0.652295
-0.647620
-0.645048
-0.638034
-0.636398
-0.634761
-0.632423
-0.634995
-0.635697
-0.638970
-0.646919
-0.653700
-0.664454
-0.673573
-0.678950
-0.685263
-0.689705
-0.692277
-0.692277
-0.688770
-0.685965
-0.678951
-0.668664
-0.663521
-0.653935
-0.643648
-0.639440
-0.630556
-0.624945
-0.624711
-0.617697
-0.614424
-0.613489
-0.606709
-0.606709
-0.609749
-0.606943
-0.609281
-0.613957
-0.614659
-0.617231
-0.616529
-0.614192
-0.613023
-0.609282
-0.605308
-0.598294
-0.592683
-0.586838
-0.575850
-0.566966
-0.557146
-0.546392
-0.541950
-0.532130
-0.521609
-0.515531
-0.507114
-0.499633
-0.492853
-0.485371
-0.481631
-0.477423
-0.471812
-0.469240
-0.464564
-0.461759
-0.465266
-0.462227
-0.458018
-0.463630
-0.465032
-0.463396
-0.465033
-0.464331
-0.466202
-0.465033
-0.461760
-0.464566
-0.461293
-0.457552
-0.459890
-0.458721
-0.459657
-0.459423
-0.456617
-0.460592
-0.463164
-0.465034
-0.465502
-0.468308
-0.475088
-0.471815
-0.469711
-0.473686
-0.474153
-0.479531
-0.484441
-0.486779
-0.495429
-0.500573
-0.501275
-0.504548
-0.508289
-0.509458
-0.510159
-0.511095
-0.512965
-0.519278
-0.520213
-0.518109
-0.524422
-0.529332
-0.530501
-0.533540
-0.537982
-0.539619
-0.534242
-0.530969
-0.526293
-0.515539
-0.505719
-0.491224
-0.477430
-0.463870
-0.441893
-0.426463
-0.413838
-0.392562
-0.375261
-0.358428
-0.338322
-0.322891
-0.307227
-0.289692
-0.276833
-0.268884
-0.260234
-0.250882
-0.245037
-0.241063
-0.237089
-0.235218
-0.232880
-0.231010
-0.231010
-0.230075
-0.229842
-0.228439
-0.225166
-0.224465
-0.223529
-0.218152
-0.206229
-0.195240
-0.193370
-0.182382
-0.163444
-0.155495
-0.146845
-0.136792
-0.130246
-0.120894
-0.115049
-0.112244
-0.110373
-0.108035
-0.105464
-0.105932
-0.099152
-0.096346
-0.101256
-0.093775
-0.088631
-0.087228
-0.077409
-0.073435
-0.067590
-0.056602
-0.051224
-0.039301
-0.025507
-0.017324
-0.006803
0.007692
0.024292
0.037852
0.052581
0.070349
0.082273
0.094196
0.106354
0.115472
0.122252
0.127395
0.133941
0.135110
0.136980
0.147735
0.153112
0.160827
0.174387
0.178362
0.181167
0.191220
0.200572
0.203378
0.207352
0.217639
0.219743
0.220678
0.226289
0.227926
0.233770
0.236810
0.237745
0.248266
0.250837
0.252941
0.263930
0.266034
0.271177
0.281932
0.280763
0.285438
0.295258
0.296660
0.303207
0.311389
0.316065
0.325885
0.335236
0.344121
0.353706
0.357681
0.362123
0.371942
0.378956
0.381294
0.382229
0.383865
0.386671
0.386203
0.383397
0.383163
0.381994
0.383163
0.385968
0.386436
0.392281
0.398359
0.403503
0.415894
0.422674
0.427116
0.438806
0.446988
0.457509
0.470835
0.479018
0.496085
0.514088
0.523206
0.544715
0.567627
0.577680
0.597786
0.623036
0.636363
0.652728
0.670263
0.682654
0.696448
0.711411
0.727777
0.740168
0.751858
0.770561
0.782251
0.793473
0.812878
0.826438
0.843505
0.862443
0.880211
0.904292
0.922762
0.941700
0.965547
0.987290
1.005526
1.027035
1.048077
1.053688
1.071924
1.090160
1.086419
1.109799
1.120553
1.115877
1.145102
1.139958
1.134814
1.160766
1.150011
1.155856
1.172923
1.161934
1.174793
1.180404
1.176897
1.195133
1.189288
1.180637
1.188820
1.187885
1.195132
1.197470
1.196535
1.207056
1.197236
1.198639
1.207991
1.194898
1.201678
1.196534
1.182272
1.196768
1.186247
1.178297
1.189052
1.178765
1.182272
1.186714
1.177595
1.181336
1.188350
1.192324
1.189986
1.193961
1.198169
1.189986
1.194194
1.190921
1.180634
1.184608
1.171281
1.161696
1.171281
1.162631
1.155850
1.160292
1.158188
1.167306
1.173151
1.164968
1.176658
1.188815
1.182035
1.187412
1.194426
1.198166
1.211259
1.216169
1.225053
1.240717
1.241418
1.249367
1.265032
1.273448
1.280930
1.283501
1.288878
1.299399
1.298931
1.296126
1.293086
1.288878
1.287942
1.279993
1.268771
1.267602
1.268771
1.267134
1.266900
1.271342
1.279992
1.281863
1.286538
1.298228
1.303372
1.315295
1.328154
1.327452
1.340311
1.354339
1.357612
1.375147
1.387304
1.389408
1.404838
1.408813
1.406007
1.414891
1.411384
1.398292
1.395953
1.388238
1.370236
1.360182
1.353168
1.341478
1.335399
1.328853
1.321839
1.321137
1.314591
1.310382
1.313188
1.308278
1.300095
1.294484
1.292379
1.290509
1.287469
1.286534
1.282326
1.279286
1.277883
1.273908
1.267596
1.258010
1.255672
1.247021
1.226213
1.222005
1.215692
1.196053
1.189273
1.179219
1.163087
1.153501
1.137603
1.122874
1.113756
1.098325
1.087804
1.077283
1.063956
1.061151
1.048292
1.034497
1.032627
1.013689
0.997557
0.991946
0.973943
0.960617
0.951031
0.937704
0.930457
0.928352
0.921104
0.909181
0.906375
0.902868
0.890710
0.886034
0.885333
0.884865
0.877617
0.861017
0.852367
0.844885
0.832961
0.817531
0.799528
0.789942
0.774278
0.750898
0.736636
0.720270
0.700865
0.682395
0.660885
0.644520
0.628154
0.606410
0.587706
0.574380
0.562690
0.540245
0.514527
0.497694
0.478522
0.456078
0.438309
0.417033
0.396459
0.381028
0.360922
0.344556
0.330528
0.308784
0.292419
0.276053
0.258985
0.246360
0.227189
0.212459
0.201938
0.185105
0.175051
0.166167
0.159620
0.150502
0.136942
0.137176
0.126421
0.114731
0.124784
0.114497
0.106781
0.114029
0.101871
0.101637
0.101871
0.084102
0.082232
0.082232
0.077556
0.075919
0.073113
0.079660
0.081997
0.085504
0.095557
0.098830
0.114261
0.120573
0.117768
0.138342
0.139511
0.129691
0.143017
0.146290
0.143017
0.145822
0.141380
0.134366
0.128755
0.121975
0.109583
0.104673
0.102335
0.083631
0.071708
0.062823
0.040846
0.027286
0.014894
-0.006381
-0.021111
-0.034203
-0.056648
-0.067403
-0.066234
-0.080496
-0.092653
-0.093589
-0.097329
-0.094056
-0.093355
-0.096395
-0.097096
-0.100603
-0.094057
-0.094057
-0.101071
-0.091953
-0.098266
-0.110891
-0.104345
-0.120711
-0.150871
-0.165600
-0.187811
-0.195760
-0.177758
-0.178927
-0.191318
-0.198800
-0.206282
-0.202541
-0.202775
-0.212828
-0.214699
-0.224752
-0.243924
-0.244158
-0.222648
-0.209790
-0.213764
-0.217271
-0.224285
-0.228026
-0.215168
-0.207920
-0.218909
-0.235742
-0.242289
-0.250238
-0.262395
-0.248835
-0.243926
-0.265435
-0.256317
-0.244394
-0.257486
-0.254681
-0.253512
-0.258656
-0.252577
-0.265436
-0.283439
-0.272684
-0.253747
-0.246967
-0.241589
-0.224990
-0.212131
-0.202078
-0.185946
-0.186414
-0.188752
-0.181037
-0.184778
-0.180569
-0.170049
-0.176829
-0.181037
-0.182206
-0.186649
-0.188519
-0.192026
-0.195533
-0.198339
-0.200911
-0.201846
-0.206055
-0.223356
-0.248606
-0.253516
-0.250710
-0.259361
-0.265674
-0.278533
-0.286716
-0.288352
-0.311732
-0.328800
-0.333008
-0.350075
-0.368779
-0.390990
-0.414370
-0.425826
-0.443595
-0.468611
-0.487783
-0.502045
-0.517008
-0.536413
-0.552779
-0.564235
-0.579900
-0.598136
-0.609358
-0.614034
-0.625958
-0.647234
-0.663366
-0.671315
-0.688850
-0.724621
-0.748235
-0.753145
-0.770680
-0.789617
-0.804347
-0.832169
-0.855782
-0.874486
-0.896463
-0.910725
-0.924052
-0.946730
-0.978994
-1.002374
-1.009154
-1.027157
-1.054044
-1.069241
-1.085607
-1.110155
-1.134938
-1.154109
-1.171411
-1.189881
-1.207416
-1.233835
-1.252071
-1.254409
-1.275451
-1.295558
-1.292051
-1.299766
-1.310521
-1.310521
-1.314730
-1.307015
-1.302573
-1.313561
-1.299767
-1.290182
-1.302807
-1.295325
-1.287143
-1.287844
-1.275453
-1.273115
-1.272414
-1.258152
-1.253009
-1.251606
-1.239917
-1.231734
-1.227993
-1.217940
-1.206016
-1.198769
-1.199470
-1.194561
-1.182170
-1.186144
-1.190820
-1.190820
-1.198068
-1.194561
-1.196432
-1.213032
-1.222384
-1.231268
-1.239217
-1.238048
-1.243894
-1.261195
-1.272417
-1.276625
-1.284809
-1.286445
-1.290887
-1.304915
-1.300707
-1.293927
-1.297668
-1.292525
-1.287615
-1.287381
-1.285277
-1.280601
-1.268210
-1.254416
-1.245298
-1.235713
-1.221218
-1.204384
-1.195033
-1.187084
-1.174225
-1.167445
-1.157859
-1.146637
-1.140325
-1.123491
-1.109230
-1.102450
-1.084448
-1.068082
-1.057327
-1.046105
-1.035584
-1.015244
-0.995605
-0.989527
-0.981578
-0.963108
-0.943703
-0.932481
-0.916583
-0.899048
-0.890865
-0.879643
-0.868655
-0.858602
-0.846678
-0.838963
-0.824000
-0.814181
-0.812778
-0.800854
-0.787996
-0.777241
-0.766019
-0.762278
-0.759707
-0.746848
-0.733522
-0.736327
-0.731184
-0.712714
-0.709675
-0.704064
-0.697284
-0.705467
-0.702194
-0.694245
-0.692374
-0.687231
-0.691206
-0.694713
-0.696116
-0.697752
-0.686764
-0.685361
-0.689102
-0.680686
-0.684193
-0.681621
-0.669230
-0.675075
-0.677413
-0.673439
-0.674842
-0.671569
-0.670867
-0.671101
-0.667594
-0.662685
-0.651696
-0.641877
-0.629720
-0.614523
-0.607042
-0.596755
-0.584597
-0.577350
-0.572674
-0.573375
-0.573375
-0.566595
-0.563556
-0.567999
-0.567765
-0.563557
-0.573376
-0.579455
-0.578988
-0.591379
-0.598627
-0.604706
-0.620136
-0.626683
-0.632294
-0.639542
-0.649128
-0.663857
-0.665026
-0.671339
-0.682795
-0.680457
-0.689809
-0.699161
-0.700330
-0.713423
-0.711787
-0.707578
-0.716930
-0.711086
-0.708748
-0.711787
-0.706644
-0.712255
-0.714593
-0.710852
-0.716230
-0.715996
-0.713425
-0.713191
-0.706645
-0.699397
-0.690513
-0.679525
-0.669705
-0.660120
-0.650534
-0.639078
-0.629726
-0.626687
-0.622011
-0.612893
-0.606815
-0.607049
-0.604009
-0.597697
-0.593956
-0.583669
-0.570577
-0.557718
-0.541119
-0.532001
-0.519843
-0.495762
-0.484540
-0.475422
-0.452510
-0.432871
-0.415571
-0.399672
-0.387983
-0.363902
-0.345432
-0.339587
-0.314805
-0.299140
-0.294231
-0.267812
-0.251446
-0.241393
-0.223157
-0.211233
-0.188321
-0.170319
-0.161201
-0.139224
-0.120754
-0.098310
-0.078437
-0.067917
-0.039393
-0.014377
0.003391
0.033083
0.055528
0.074465
0.098079
0.119822
0.141565
0.161437
0.178271
0.191597
0.203988
0.219185
0.231810
0.237421
0.242330
0.250747
