EVENT_NAME: 202302060117
EVENT_ID: 13194
EVENT_DATE_YYYYMMDD: 2023/02/06
EVENT_TIME_HHMMSS: 01:17:32.00000
EVENT_LATITUDE_DEGREE: 37.288
EVENT_LONGITUDE_DEGREE: 37.043
EVENT_DEPTH_KM: 8.6
HYPOCENTER_REFERENCE: AFAD
MAGNITUDE_W: 7.7
MAGNITUDE_W_REFERENCE: AFAD
MAGNITUDE_L: 
MAGNITUDE_L_REFERENCE: 
FOCAL_MECHANISM: 
NETWORK: TK
STATION_CODE: 99003
STATION_NAME: 
STATION_LATITUDE_DEGREE: 35.25042
STATION_LONGITUDE_DEGREE: 33.02121
STATION_ELEVATION_M: 132.0
LOCATION: Kahramanmaras_Pazarck_Turkiye
SENSOR_DEPTH_M: 
VS30_M/S: None
SITE_CLASSIFICATION_EC8: unknown
MORPHOLOGIC_CLASSIFICATION: 
EPICENTRAL_DISTANCE_KM: 425.77
EARTHQUAKE_BACKAZIMUTH_DEGREE: 
DATE_TIME_FIRST_SAMPLE_YYYYMMDD_HHMMSS: 2023/02/06 01:18:06.1453460
DATE_TIME_FIRST_SAMPLE_PRECISION: millisecond
SAMPLING_INTERVAL_S: 0.01
NDATA: 21001
DURATION_S: 
STREAM: HNZ
UNITS: cm/s^2
INSTRUMENT: sensor = CMG-5T/GURALP | digitizer = 
INSTRUMENT_ANALOG/DIGITAL: 
INSTRUMENTAL_FREQUENCY_HZ: 
INSTRUMENTAL_DAMPING: 
FULL_SCALE_G: 
N_BIT_DIGITAL_CONVERTER: 
PGA_CM/S^2: 4.279
TIME_PGA_S: 
BASELINE_CORRECTION: BASELINE REMOVED
FILTER_TYPE: BUTTERWORTH
FILTER_ORDER: 
LOW_CUT_FREQUENCY_HZ: 
HIGH_CUT_FREQUENCY_HZ: 
LATE/NORMAL_TRIGGERED: 
DATABASE_VERSION: 
HEADER_FORMAT: DYNA 1.2
DATA_TYPE: Acceleration
PROCESSING: Automatic Paolucci et al., 2011
DATA_TIMESTAMP_YYYYMMDD_HHMMSS: 
DATA_LICENSE: U (unknown license)
DATA_CITATION: Turkish Accelerometric Archive v 1.0 - Disaster And Emergency Management Presidency, Earthquake Department
DATA_CREATOR: AFAD
ORIGINAL_DATA_MEDIATOR_CITATION: : AFAD - Disaster And Emergency Management Presidency
ORIGINAL_DATA_MEDIATOR: AFAD PROCESS SERVICE
ORIGINAL_DATA_CREATOR_CITATION: AFAD PROCESS SERVICE
ORIGINAL_DATA_CREATOR: network: TK
USER1: GuestUser
USER2: 
USER3: 
USER4: 
USER5: 
[...]
0.983391
0.939640
0.906201
0.868388
0.817135
0.760570
0.679315
0.530866
0.311785
0.076453
-0.115438
-0.211382
-0.182314
-0.041986
0.160535
0.363682
0.531825
0.652151
0.725285
0.767792
0.785608
0.761233
0.670290
0.535279
0.393393
0.263384
0.168690
0.109937
0.065872
0.012432
-0.056009
-0.126639
-0.207894
-0.314776
-0.409158
-0.440721
-0.415716
-0.399462
-0.485405
-0.709174
-1.012638
-1.319852
-1.584874
-1.750512
-1.772074
-1.659249
-1.463603
-1.252643
-1.069499
-0.921670
-0.806969
-0.713833
-0.619134
-0.517873
-0.426924
-0.352227
-0.306908
-0.306906
-0.321905
-0.308776
-0.256269
-0.177509
-0.087811
-0.021865
-0.014049
-0.067489
-0.154682
-0.226874
-0.264375
-0.263748
-0.229055
-0.187486
-0.165294
-0.181856
-0.239359
-0.325927
-0.392806
-0.385615
-0.273102
-0.047141
0.255390
0.561983
0.809821
0.984840
1.099228
1.168612
1.225495
1.289253
1.335197
1.332700
1.280197
1.200817
1.101435
0.986114
0.898608
0.857357
0.843921
0.857049
0.885804
0.892995
0.854244
0.782989
0.697359
0.596414
0.463904
0.296078
0.129815
-0.011446
-0.123016
-0.190833
-0.230209
-0.271773
-0.318963
-0.402406
-0.528978
-0.667113
-0.792435
-0.862752
-0.836809
-0.723671
-0.579905
-0.446453
-0.351442
-0.333938
-0.377689
-0.423629
-0.451442
-0.469566
-0.490815
-0.528629
-0.574881
-0.608632
-0.622381
-0.603314
-0.547056
-0.472985
-0.400475
-0.320778
-0.225142
-0.101690
0.033012
0.137712
0.198658
0.213349
0.206788
0.221479
0.284925
0.419003
0.650589
0.935619
1.176581
1.346912
1.473176
1.564750
1.618507
1.626635
1.578196
1.493190
1.404434
1.298176
1.160666
1.031906
0.950964
0.898149
0.843146
0.779080
0.717514
0.680013
0.680328
0.710020
0.739713
0.748779
0.738155
0.719718
0.710032
0.746601
0.847862
0.969751
1.038198
1.019136
0.923504
0.793182
0.660359
0.542538
0.459408
0.423157
0.440661
0.501919
0.605681
0.742259
0.863835
0.929781
0.943535
0.912909
0.854469
0.779777
0.700396
0.625392
0.553200
0.485071
0.394127
0.270368
0.115356
-0.074972
-0.297490
-0.531572
-0.715337
-0.803781
-0.798778
-0.700954
-0.490307
-0.201215
0.075064
0.278210
0.407287
0.493548
0.532929
0.527306
0.518870
0.543562
0.573567
0.547942
0.441997
0.248544
-0.013353
-0.308691
-0.602779
-0.854050
-1.033752
-1.138759
-1.163447
-1.113127
-1.017178
-0.906853
-0.812154
-0.764022
-0.745893
-0.724639
-0.681195
-0.621812
-0.538677
-0.412413
-0.263646
-0.142070
-0.087375
-0.084560
-0.104872
-0.139560
-0.190813
-0.223626
-0.207372
-0.160803
-0.106108
-0.033911
0.074227
0.201741
0.311441
0.406765
0.506777
0.597413
0.678048
0.778372
0.888072
0.942455
0.915579
0.821823
0.690251
0.567116
0.498675
0.501490
0.549310
0.578377
0.511811
0.313670
0.014269
-0.328261
-0.657977
-0.912061
-1.041445
-1.047694
-0.970184
-0.827043
-0.629210
-0.407312
-0.187914
0.020233
0.209003
0.357770
0.454969
0.502788
0.511229
0.509356
0.496232
0.449668
0.358724
0.232465
0.105893
-0.001928
-0.080370
-0.125997
-0.143184
-0.151307
-0.171931
-0.203495
-0.220994
-0.185676
-0.090352
0.031537
0.136549
0.200308
0.181246
0.083739
-0.042208
-0.179406
-0.305665
-0.356918
-0.265969
-0.037195
0.259085
0.546614
0.762574
0.872587
0.880715
0.827900
0.807275
0.888848
1.076681
1.324831
1.552667
1.688933
1.730814
1.727691
1.725818
1.719258
1.669255
1.525494
1.269535
0.952633
0.620416
0.300076
0.017240
-0.194340
-0.348102
-0.451860
-0.505300
-0.543738
-0.570926
-0.552797
-0.465911
-0.325583
-0.150252
0.009453
0.086337
0.046024
-0.108051
-0.340258
-0.591217
-0.792483
-0.900928
-0.927803
-0.881547
-0.754032
-0.586827
-0.438060
-0.330860
-0.290542
-0.318354
-0.375857
-0.448987
-0.520866
-0.575244
-0.627434
-0.692438
-0.747128
-0.773691
-0.771813
-0.768373
-0.806186
-0.888692
-0.991199
-1.083393
-1.140271
-1.163083
-1.169644
-1.170579
-1.166201
-1.130258
-1.022120
-0.822099
-0.560510
-0.268605
0.046740
0.378961
0.703368
0.998711
1.232485
1.380314
1.450636
1.448450
1.390322
1.304379
1.237500
1.211563
1.214378
1.226256
1.237510
1.256264
1.266267
1.247518
1.208767
1.154701
1.091573
1.061885
1.079389
1.112520
1.125023
1.091585
1.020643
0.944076
0.875947
0.797817
0.703435
0.596865
0.449354
0.224960
-0.057251
-0.326649
-0.535416
-0.702305
-0.842940
-0.951698
-1.044204
-1.136398
-1.228279
-1.311097
-1.358287
-1.345783
-1.281087
-1.188576
-1.104191
-1.038870
-0.986050
-0.953232
-0.957918
-1.006357
-1.081987
-1.171368
-1.275438
-1.388258
-1.455762
-1.427007
-1.300118
-1.118224
-0.944767
-0.825379
-0.782247
-0.799122
-0.832247
-0.846934
-0.839431
-0.827552
-0.821299
-0.829110
-0.846922
-0.864421
-0.858793
-0.814724
-0.720338
-0.589073
-0.449995
-0.297791
-0.134961
0.048184
0.272582
0.517920
0.745131
0.941715
1.098607
1.187992
1.199558
1.168933
1.117680
1.039551
0.960171
0.908293
0.887043
0.889546
0.920801
0.976434
1.029566
1.053946
1.020508
0.893623
0.658916
0.360766
0.098868
-0.065832
-0.143337
-0.178338
-0.217089
-0.261778
-0.321157
-0.427727
-0.602116
-0.825572
-1.047778
-1.214353
-1.278419
-1.232788
-1.115899
-0.956820
-0.757423
-0.528650
-0.282999
-0.042662
0.173298
0.335191
0.417076
0.425829
0.381765
0.307073
0.211441
0.099246
-0.042328
-0.215467
-0.412983
-0.632376
-0.857082
-1.075225
-1.258365
-1.344933
-1.275237
-1.050526
-0.732368
-0.377645
-0.039486
0.234604
0.424312
0.522761
0.540578
0.529954
0.572773
0.709351
0.937500
1.192838
1.402235
1.526937
1.532252
1.425370
1.255669
1.102532
1.015338
0.983463
0.990341
1.029409
1.077854
1.097546
1.024729
0.799398
0.448429
0.074959
-0.233817
-0.456961
-0.599159
-0.672601
-0.682287
-0.631655
-0.561021
-0.516952
-0.523825
-0.559451
-0.586951
-0.579136
-0.542255
-0.462557
-0.331293
-0.193152
-0.096578
-0.076262
-0.098449
-0.136575
-0.184702
-0.256269
-0.379403
-0.551917
-0.723181
-0.844752
-0.917882
-0.955070
-0.990696
-1.083515
-1.234464
-1.386038
-1.491671
-1.528860
-1.477915
-1.331649
-1.115689
-0.868788
-0.655016
-0.507812
-0.408738
-0.333103
-0.288409
-0.255904
-0.212460
-0.177767
-0.139011
-0.064626
0.082265
0.306976
0.570440
0.793901
0.893288
0.847661
0.661084
0.379497
0.089160
-0.173988
-0.360253
-0.436507
-0.453069
-0.487445
-0.567137
-0.671520
-0.768714
-0.813403
-0.790274
-0.672448
-0.461488
-0.193648
0.093256
0.322655
0.452982
0.509240
0.547058
0.610504
0.734893
0.913662
1.089306
1.224634
1.310269
1.356838
1.388406
1.408411
1.370284
1.234962
0.978690
0.601782
0.189246
-0.142971
-0.330798
-0.372987
-0.298290
-0.147649
0.010181
0.111443
0.152699
0.157702
0.139890
0.100201
0.042073
-0.021680
-0.058557
-0.052929
-0.013548
0.069588
0.185851
0.304614
0.396813
0.447133
0.471200
0.486516
0.521522
0.639973
0.871872
1.155026
1.397238
1.519127
1.481939
1.331927
1.136286
0.948146
0.841263
0.841266
0.892523
0.919090
0.890652
0.797209
0.652822
0.513437
0.419368
0.361552
0.327489
0.299989
0.267801
0.248114
0.244053
0.267495
0.307814
0.342820
0.360949
0.326260
0.195938
-0.013454
-0.248474
-0.464742
-0.626629
-0.726636
-0.812892
-0.929463
-1.076350
-1.212297
-1.274176
-1.251984
-1.161660
-1.000705
-0.751617
-0.439086
-0.113740
0.182853
0.423503
0.585083
0.649153
0.611965
0.479767
0.279439
0.042231
-0.194664
-0.415619
-0.588758
-0.669076
-0.667823
-0.631255
-0.622814
-0.687818
-0.815953
-0.952838
-1.040344
-1.055030
-0.980334
-0.795626
-0.501221
-0.120871
0.319173
0.802346
1.291456
1.714936
1.995277
2.084350
1.953715
1.633688
1.222089
0.808928
0.439208
0.133869
-0.135529
-0.464932
-0.869343
-1.257502
-1.567216
-1.776295
-1.866301
-1.833483
-1.694093
-1.484383
-1.267486
-1.046525
-0.760871
-0.417711
-0.087053
0.142346
0.201104
0.097659
-0.095794
-0.318625
-0.533643
-0.675216
-0.718968
-0.710215
-0.728027
-0.834284
-1.024925
-1.236817
-1.416207
-1.551217
-1.627159
-1.625594
-1.546209
-1.392755
-1.189296
-0.981462
-0.824569
-0.754873
-0.758308
-0.799247
-0.840811
-0.872687
-0.919877
-0.978317
-0.987066
-0.875490
-0.641716
-0.332935
0.019913
0.384325
0.747486
1.091271
1.365362
1.527567
1.587887
1.579764
1.515073
1.393501
1.224113
1.048786
0.900025
0.790642
0.733764
0.727828
0.733769
0.678453
0.543443
0.372492
0.199041
0.054342
-0.031601
-0.041287
0.017783
0.126546
0.285938
0.501273
0.726609
0.877876
0.925383
0.913821
0.914449
1.002272
1.195418
1.468258
1.787353
2.103947
2.345847
2.435858
2.353353
2.110520
1.776116
1.402646
1.038552
0.713211
0.397246
0.070968
-0.258435
-0.505331
-0.625027
-0.626275
-0.534077
-0.396874
-0.277485
-0.217165
-0.244977
-0.366861
-0.549689
-0.714077
-0.807833
-0.841896
-0.816579
-0.765634
-0.736254
-0.735002
-0.744063
-0.768125
-0.807501
-0.872818
-0.982200
-1.135025
-1.317852
-1.514743
-1.686632
-1.798828
-1.864769
-1.886331
-1.886016
-1.871325
-1.826943
-1.739745
-1.623794
-1.531283
-1.481589
-1.450958
-1.382200
-1.255310
-1.102169
-0.958403
-0.844015
-0.756191
-0.693683
-0.661803
-0.658050
-0.659610
-0.634293
-0.580848
-0.536154
-0.527401
-0.547088
-0.593027
-0.667719
-0.751475
-0.802727
-0.795849
-0.748030
-0.672395
-0.568946
-0.439869
-0.322668
-0.272661
-0.303286
-0.348601
-0.335784
-0.247961
-0.068567
0.194272
0.466800
0.665884
0.761520
0.759335
0.654640
0.472125
0.271484
0.118659
0.022715
-0.061353
-0.122918
-0.111040
0.003973
0.221183
0.503712
0.774365
0.959385
0.984702
0.806250
0.463095
0.041496
-0.357289
-0.677942
-0.889834
-0.989216
-0.998590
-0.954833
-0.916390
-0.912637
-0.932636
-0.902944
-0.757303
-0.535717
-0.292567
-0.032228
0.239675
0.494389
0.698161
0.816612
0.829740
0.762861
0.649728
0.481590
0.253133
-0.012514
-0.287850
-0.530058
-0.672256
-0.681942
-0.566617
-0.392848
-0.252207
-0.185949
-0.197510
-0.238136
-0.247510
-0.193127
-0.058737
0.178475
0.483818
0.769160
0.980745
1.099508
1.096385
0.967938
0.776673
0.612285
0.533530
0.545095
0.638857
0.775122
0.903886
0.976083
0.991712
0.978901
0.924523
0.789200
0.577308
0.348226
0.151335
-0.007115
-0.127124
-0.155249
-0.068051
0.101967
0.319490
0.555765
0.759849
0.867986
0.876427
0.841113
0.822364
0.855182
0.932692
1.016139
1.066459
1.054898
0.977393
0.830507
0.609863
0.333902
0.039190
-0.215519
-0.401784
-0.490228
-0.468348
-0.357711
-0.192693
-0.018299
0.133280
0.235167
0.291737
0.357371
0.481135
0.665529
0.925244
1.233400
1.513429
1.707824
1.779708
1.730956
1.606884
1.471874
1.354053
1.272173
1.245610
1.266552
1.289682
1.271245
1.211554
1.134049
1.049669
0.948724
0.842154
0.738084
0.643390
0.580887
0.572763
0.652461
0.828105
1.076255
1.326594
1.522864
1.665380
1.753828
1.788521
1.780711
1.717270
1.561007
1.307548
0.969082
0.547482
0.086191
-0.328533
-0.636997
-0.831075
-0.923894
-0.954519
-0.999834
-1.066713
-1.120465
-1.149216
-1.126711
-1.022949
-0.839804
-0.618219
-0.391008
-0.191924
-0.054096
0.012162
0.041230
0.093425
0.209688
0.373456
0.512534
0.590043
0.621924
0.633177
0.641930
0.668185
0.725381
0.757573
0.710696
0.565685
0.302851
-0.061556
-0.429088
-0.668796
-0.733175
-0.652540
-0.469708
-0.255935
-0.081541
0.035972
0.123795
0.216306
0.331944
0.466022
0.605725
0.754179
0.882318
0.980767
1.070153
1.162664
1.237361
1.268304
1.253617
1.207365
1.142674
1.071107
1.025168
1.030796
1.103618
1.220193
1.343645
1.465846
1.594298
1.723688
1.828700
1.880582
1.868709
1.814643
1.743389
1.643070
1.522748
1.391488
1.213661
0.987393
0.742060
0.489851
0.248581
0.047627
-0.124887
-0.298651
-0.489604
-0.686183
-0.835569
-0.920887
-0.978390
-1.033706
-1.087458
-1.098082
-1.046200
-0.954314
-0.857427
-0.781168
-0.717097
-0.667715
-0.678651
-0.797722
-1.027429
-1.320579
-1.604978
-1.802807
-1.863747
-1.775299
-1.584029
-1.384320
-1.239929
-1.142105
-1.069284
-1.028652
-0.980833
-0.881134
-0.721741
-0.510782
-0.255130
0.001771
0.212418
0.389625
0.539954
0.639965
0.701224
0.761857
0.862493
1.034700
1.290663
1.609446
1.942292
2.261074
2.530789
2.707683
2.754878
2.671747
2.492045
2.254213
1.963875
1.595093
1.143178
0.613756
0.022766
-0.578226
-1.164841
-1.736767
-2.244937
-2.600906
-2.736229
-2.630279
-2.302746
-1.824261
-1.315148
-0.918859
-0.755716
-0.825408
-0.991984
-1.140433
-1.246378
-1.286379
-1.230746
-1.111983
-0.976343
-0.837890
-0.714126
-0.633803
-0.595360
-0.587857
-0.604106
-0.630669
-0.651918
-0.623788
-0.527527
-0.398137
-0.281249
-0.217490
-0.237490
-0.329371
-0.450318
-0.551262
-0.591264
-0.530630
-0.363112
-0.111211
0.176005
0.432282
0.629803
0.783882
0.928586
1.055787
1.146736
1.168303
1.089860
0.915784
0.663575
0.331671
-0.059300
-0.442771
-0.772487
-1.002819
-1.110952
-1.145953
-1.173765
-1.202516
-1.194075
-1.098126
-0.886541
-0.558696
-0.162719
0.213256
0.519537
0.745811
0.913954
1.031468
1.092726
1.089603
1.027412
0.926155
0.790832
0.650821
0.511436
0.359861
0.227351
0.159535
0.144848
0.117973
0.041406
-0.064539
-0.165171
-0.262365
-0.367998
-0.473630
-0.543635
-0.565509
-0.546443
-0.487997
-0.387360
-0.244532
-0.086702
0.057689
0.166139
0.232397
0.260215
0.274281
0.273033
0.252409
0.221471
0.163655
0.097089
0.070214
0.080842
0.042091
-0.072292
-0.222617
-0.392943
-0.578895
-0.790788
-1.023932
-1.264577
-1.491784
-1.695863
-1.859313
-1.983385
-2.119646
-2.341852
-2.683131
-3.106918
-3.544145
-3.917927
-4.176699
-4.278894
-4.196071
-3.930419
-3.507564
-2.980637
-2.403706
-1.820524
-1.296097
-0.903871
-0.671346
-0.560396
-0.501013
-0.447256
-0.374122
-0.259421
-0.124718
0.003108
0.117809
0.196256
0.225011
0.190011
0.092816
-0.032193
-0.130950
-0.168451
-0.151259
-0.061249
0.121896
0.340356
0.518500
0.631638
0.666957
0.634143
0.588204
0.592894
0.667591
0.811670
1.028567
1.316097
1.662694
2.008354
2.279944
2.465589
2.592478
2.674676
2.717495
2.711872
2.639680
2.485293
2.274025
2.039006
1.780234
1.507398
1.238625
1.005481
0.825154
0.682643
0.547320
0.389808
0.224482
0.099473
0.058221
0.116042
0.258870
0.465454
0.702041
0.917689
1.047078
1.030204
0.833938
0.470782
0.012304
-0.521494
-1.124673
-1.704100
-2.153202
-2.432289
-2.535108
-2.457599
-2.237263
-1.943171
-1.633764
-1.320295
-1.019639
-0.739923
-0.460207
-0.196430
0.026406
0.207675
0.345815
0.443327
0.489271
0.493961
0.504277
0.560535
0.623668
0.615232
0.545541
0.478037
0.466163
0.517108
0.628371
0.787450
0.972783
1.128112
1.198434
1.186560
1.130307
1.082805
1.088433
1.183444
1.348462
1.519105
1.674122
1.810700
1.871021
1.800079
1.596000
1.285035
0.911565
0.516218
0.118683
-0.233847
-0.475118
-0.553560
-0.488552
-0.318221
-0.080384
0.133701
0.270279
0.308410
0.242781
0.107459
-0.049429
-0.186939
-0.266944
-0.263192
-0.163180
-0.010663
0.129977
0.216238
0.212802
0.105920
-0.097222
-0.379121
-0.705087
-1.011988
-1.266384
-1.469526
-1.613912
-1.686417
-1.666412
-1.537335
-1.311374
-1.020720
-0.703500
-0.380030
-0.106252
0.075330
0.183780
0.244413
0.246916
0.190976
0.102220
0.010964
-0.050915
-0.102792
-0.184673
-0.326558
-0.536888
-0.814412
-1.118188
-1.399775
-1.651671
-1.859500
-1.979197
-1.983882
-1.877620
-1.669785
-1.391319
-1.074100
-0.785008
-0.568735
-0.411531
-0.293392
-0.211820
-0.168688
-0.143683
-0.113678
-0.082423
-0.055543
-0.024600
0.015719
0.061975
0.060728
-0.026466
-0.179290
-0.362117
-0.551508
-0.701207
-0.759647
-0.740268
-0.662759
-0.532744
-0.382728
-0.260839
-0.169265
-0.089568
-0.027060
0.009821
0.031701
0.064206
0.094836
0.098589
0.086715
0.103594
0.182979
0.320807
0.483950
0.639279
0.791171
0.941500
1.067764
1.152462
1.159965
1.077772
0.946200
0.804939
0.650239
0.461161
0.248019
0.043940
-0.114198
-0.209829
-0.221078
-0.142631
0.032388
0.264287
0.484623
0.712146
0.963110
1.244076
1.569109
1.889141
2.155106
2.354190
2.467015
2.460767
2.350134
2.161681
1.912910
1.652576
1.403805
1.194413
1.069403
1.033777
1.035030
1.016593
0.938776
0.753761
0.466236
0.116206
-0.281954
-0.681364
-1.023581
-1.282041
-1.463618
-1.594253
-1.700823
-1.786766
-1.818642
-1.799262
-1.747693
-1.640493
-1.474850
-1.274516
-1.025115
-0.719147
-0.409115
-0.153151
0.062184
0.292208
0.540358
0.759756
0.896959
0.904775
0.808205
0.650068
0.453489
0.243785
0.071896
0.009393
0.044086
0.133159
0.231608
0.291616
0.311620
0.300059
0.272559
0.277562
0.323506
0.379764
0.426645
0.443212
0.415712
0.331331
0.194758
0.042559
-0.078388
-0.169956
-0.269651
-0.387784
-0.515606
-0.648742
-0.754999
-0.786875
-0.720304
-0.559036
-0.344326
-0.104301
0.154788
0.427316
0.700469
0.960808
1.190832
1.371789
1.499303
1.580876
1.628383
1.636824
1.603385
1.514942
1.341178
1.083656
0.745502
0.338591
-0.089572
-0.483981
-0.807134
-1.032153
-1.113720
-1.039024
-0.849628
-0.603665
-0.321137
-0.031107
0.209543
0.390187
0.533953
0.637090
0.688972
0.715540
0.728668
0.728983
0.717735
0.678046
0.599603
0.516786
0.478034
0.481475
0.529294
0.646495
0.817763
0.989032
1.116546
1.203119
1.237187
1.199374
1.073427
0.879036
0.672769
0.479628
0.314928
0.188668
0.112413
0.078038
0.060851
0.035851
-0.008838
-0.068842
-0.111343
-0.075400
0.072741
0.322455
0.621548
0.905952
1.134725
1.295368
1.388192
1.401945
1.341942
1.210057
0.970349
0.612193
0.183093
-0.230068
-0.560097
-0.779490
-0.888560
-0.923249
-0.927934
-0.942621
-0.978872
-0.993558
-0.938863
-0.786347
-0.540071
-0.264418
-0.012517
0.198130
0.359710
0.500351
0.648180
0.774131
0.860392
0.942277
1.057603
1.224183
1.402327
1.544218
1.621102
1.619855
1.542662
1.396714
1.217949
1.012307
0.772912
0.526642
0.356003
0.335066
0.463205
0.708543
1.032639
1.397988
1.734897
1.970546
2.088997
2.119940
2.112129
2.093380
2.054941
1.963372
1.800234
1.584904
1.338321
1.082362
0.841717
0.616385
0.398555
0.193226
0.022899
-0.093359
-0.142424
-0.143671
-0.142419
-0.178357
-0.296179
-0.507133
-0.765280
-1.003113
-1.173126
-1.245318
-1.196561
-1.045607
-0.868713
-0.716196
-0.585244
-0.473669
-0.380220
-0.289272
-0.195823
-0.107375
-0.025802
0.017954
0.008581
-0.020170
-0.062046
-0.138614
-0.254247
-0.409884
-0.620839
-0.880236
-1.150259
-1.400280
-1.600921
-1.728743
-1.767182
-1.722488
-1.613100
-1.438082
-1.217121
-1.010224
-0.853020
-0.741757
-0.673623
-0.638305
-0.621426
-0.622361
-0.662362
-0.745180
-0.848625
-0.946757
-1.037075
-1.135207
-1.245840
-1.361474
-1.456480
-1.533360
-1.604614
-1.656492
-1.673366
-1.658675
-1.608980
-1.531783
-1.454586
-1.383952
-1.305505
-1.189241
-1.002034
-0.750445
-0.448852
-0.116006
0.207777
0.501557
0.780960
1.046300
1.263198
1.420715
1.536041
1.643866
1.722938
1.725441
1.625121
1.459795
1.309471
1.174461
1.080079
1.009138
0.912569
0.800998
0.667863
0.519726
0.371902
0.255956
0.183765
0.165953
0.200959
0.260341
0.341601
0.432550
0.505372
0.525376
0.492875
0.437247
0.369431
0.286926
0.176918
0.043470
-0.094978
-0.239364
-0.375312
-0.486257
-0.580014
-0.680958
-0.824094
-1.022861
-1.257568
-1.486337
-1.688541
-1.839803
-1.914807
-1.911055
-1.850734
-1.775100
-1.715404
-1.674460
-1.624141
-1.552257
-1.438806
