EVENT_NAME: 202302060117
EVENT_ID: 13194
EVENT_DATE_YYYYMMDD: 2023/02/06
EVENT_TIME_HHMMSS: 01:17:32.00000
EVENT_LATITUDE_DEGREE: 37.288
EVENT_LONGITUDE_DEGREE: 37.043
EVENT_DEPTH_KM: 8.6
HYPOCENTER_REFERENCE: AFAD
MAGNITUDE_W: 7.7
MAGNITUDE_W_REFERENCE: AFAD
MAGNITUDE_L: 
MAGNITUDE_L_REFERENCE: 
FOCAL_MECHANISM: 
NETWORK: TK
STATION_CODE: 4625
STATION_NAME: 
STATION_LATITUDE_DEGREE: 37.53872
STATION_LONGITUDE_DEGREE: 36.98187
STATION_ELEVATION_M: 549.0
LOCATION: Kahramanmaras_Pazarck_Turkiye
SENSOR_DEPTH_M: 
VS30_M/S: 346
SITE_CLASSIFICATION_EC8: C
MORPHOLOGIC_CLASSIFICATION: 
EPICENTRAL_DISTANCE_KM: 28.40
EARTHQUAKE_BACKAZIMUTH_DEGREE: 
DATE_TIME_FIRST_SAMPLE_YYYYMMDD_HHMMSS: 2023/02/06 01:17:07.1124520
DATE_TIME_FIRST_SAMPLE_PRECISION: millisecond
SAMPLING_INTERVAL_S: 0.01
NDATA: 10501
DURATION_S: 
STREAM: HNN
UNITS: cm/s^2
INSTRUMENT: sensor = GMS+/GEOSIG | digitizer = 
INSTRUMENT_ANALOG/DIGITAL: 
INSTRUMENTAL_FREQUENCY_HZ: 
INSTRUMENTAL_DAMPING: 
FULL_SCALE_G: 
N_BIT_DIGITAL_CONVERTER: 
PGA_CM/S^2: 448.153
TIME_PGA_S: 
BASELINE_CORRECTION: BASELINE REMOVED
FILTER_TYPE: BUTTERWORTH
FILTER_ORDER: 
LOW_CUT_FREQUENCY_HZ: 
HIGH_CUT_FREQUENCY_HZ: 
LATE/NORMAL_TRIGGERED: 
DATABASE_VERSION: 
HEADER_FORMAT: DYNA 1.2
DATA_TYPE: Acceleration
PROCESSING: Automatic Paolucci et al., 2011
DATA_TIMESTAMP_YYYYMMDD_HHMMSS: 
DATA_LICENSE: U (unknown license)
DATA_CITATION: Turkish Accelerometric Archive v 1.0 - Disaster And Emergency Management Presidency, Earthquake Department
DATA_CREATOR: AFAD
ORIGINAL_DATA_MEDIATOR_CITATION: : AFAD - Disaster And Emergency Management Presidency
ORIGINAL_DATA_MEDIATOR: AFAD PROCESS SERVICE
ORIGINAL_DATA_CREATOR_CITATION: AFAD PROCESS SERVICE
ORIGINAL_DATA_CREATOR: network: TK
USER1: GuestUser
USER2: 
USER3: 
USER4: 
USER5: 
[...]
17.414517
-1.597136
-11.881886
-9.978065
-3.197621
10.166382
24.084210
24.127313
15.412861
13.461726
19.448059
25.614932
30.422439
39.499491
54.684987
75.666164
105.301510
134.885421
153.934185
164.200195
159.501755
140.776366
127.069953
114.880066
92.640277
68.756936
40.984870
9.048723
-12.797777
-15.472106
2.237294
20.946801
25.245942
24.959920
27.378601
30.083546
31.081037
29.171465
22.540871
8.989799
-13.386888
-41.079205
-59.493652
-56.754157
-33.809654
-2.695450
15.386718
14.186052
-3.623135
-30.839818
-48.731351
-55.078539
-53.140169
-44.965810
-36.586494
-25.799649
-16.563099
-14.486532
-19.819586
-31.580337
-42.767520
-54.597889
-71.196817
-88.267225
-102.650333
-116.306351
-132.011937
-141.604665
-137.501389
-125.438824
-115.888474
-110.853411
-102.913622
-91.968838
-83.971901
-81.574780
-80.413116
-76.601040
-66.889894
-42.567062
-8.082369
20.965642
32.759867
26.385923
15.096131
3.876217
-10.274399
-20.073642
-24.846896
-29.056453
-25.329581
-11.789196
4.767095
21.866560
38.372196
53.300781
62.090270
61.633580
60.005077
59.482925
53.685666
43.242718
35.484211
35.761885
38.749458
41.179569
45.735101
48.674617
47.183791
43.907060
45.132887
53.088781
61.292754
63.898468
62.003702
58.100152
52.227560
45.102108
31.427906
7.941491
-15.626231
-28.008088
-25.760074
-14.193925
-3.496181
-2.323087
-12.207015
-27.867402
-41.102855
-46.615668
-44.122953
-33.513530
-17.262726
-6.756950
-11.824521
-25.934613
-36.603299
-45.360614
-61.554824
-80.588557
-94.044554
-104.727528
-109.103077
-102.996730
-94.764183
-86.104318
-77.195855
-70.524513
-64.113718
-63.713954
-66.838720
-69.686054
-77.172584
-77.432889
-61.216115
-36.889647
-13.236237
4.255218
12.563098
10.901085
1.928423
-4.320832
2.512865
16.627856
29.052798
43.556662
58.344972
68.052481
75.377659
81.139034
85.011376
85.723901
80.843364
71.704190
59.060488
45.636184
39.663841
46.777568
66.079865
89.376614
103.459394
110.246332
115.287111
115.572578
115.620617
108.604527
91.924551
75.478885
56.757653
35.381852
14.229711
-1.467043
-7.610573
-1.563973
16.497413
33.361269
44.931314
53.553513
57.008928
51.868622
31.662816
7.308516
-7.649718
-10.739676
6.897249
34.502768
53.071741
61.355722
52.462809
29.153815
10.861719
5.449696
5.813613
5.866588
8.943261
14.373691
13.734124
4.021124
-7.754694
-21.000018
-39.110017
-50.938567
-50.735966
-47.870484
-48.613958
-50.304806
-47.498811
-43.665953
-47.098285
-59.140364
-74.021707
-78.573639
-69.767005
-51.175692
-21.408644
2.360363
3.089773
-14.860468
-38.071789
-58.346954
-74.054359
-76.977285
-68.962943
-60.259437
-52.699949
-43.012702
-31.210943
-23.552224
-18.428839
-17.284579
-24.508484
-36.141429
-53.122736
-74.430737
-92.565673
-101.196741
-101.067654
-91.261173
-66.835213
-37.001924
-7.539844
16.212797
17.771906
-1.267801
-29.222485
-56.597626
-74.089896
-73.518425
-50.064517
-16.484335
12.582638
30.508685
35.212544
32.704987
32.972530
39.340982
41.487686
33.533055
15.434486
0.904869
12.047076
43.328571
78.034327
98.269970
94.443051
86.973666
91.500624
102.021466
112.170062
115.359994
105.785709
86.263872
65.428129
51.664307
46.202669
50.219182
61.835206
61.916236
47.886932
32.317204
7.363879
-20.917333
-40.535024
-59.959449
-80.836235
-99.143917
-115.797397
-135.270658
-150.191745
-155.198530
-154.692521
-146.192413
-135.880164
-120.664795
-97.370904
-71.570512
-31.375600
17.735326
54.708856
80.258572
99.922466
113.244646
119.425546
111.574562
91.321738
62.553201
24.845012
-8.082149
-24.043867
-19.458202
-2.696435
14.822815
38.123460
68.947764
100.597350
126.826359
143.488895
145.718984
126.937226
100.608170
81.153873
55.251356
20.121882
-12.102087
-42.079323
-74.019106
-100.418559
-108.691146
-105.362238
-103.673765
-101.737733
-95.475266
-85.882314
-68.941307
-43.379122
-17.041531
5.521633
20.910007
23.467664
8.587880
-10.458842
-12.965620
-1.548838
16.386560
36.981982
47.179933
38.671217
19.701387
-0.584168
-23.340636
-54.493322
-92.246971
-119.975916
-124.021300
-104.823949
-77.774593
-57.911716
-41.437772
-26.372290
-17.668004
-14.787196
-17.972748
-26.864103
-33.804860
-22.943461
10.224988
49.761648
73.109830
62.675454
34.422038
15.090611
7.692662
9.896515
13.020726
13.710391
13.573476
5.508183
-2.492427
3.167638
22.948428
48.224868
63.123320
67.955764
74.948179
82.268681
84.923751
78.191847
63.813155
51.207639
42.328493
45.057597
60.752237
70.040221
66.038478
56.554074
44.368342
32.933600
26.162991
19.142225
5.686229
-12.652106
-25.709358
-23.188848
-11.568668
-4.969282
-7.927537
-12.722092
-11.574455
-4.956625
10.733079
31.736337
45.688714
46.125626
36.742011
23.882182
0.392909
-28.797231
-46.546671
-43.050992
-17.583623
14.542897
38.320996
46.478470
45.756297
40.374407
21.375223
-3.160135
-16.976950
-9.835428
13.598478
27.340443
12.771341
-26.209711
-69.710206
-96.163690
-99.470035
-83.155588
-56.678760
-35.610821
-33.165643
-46.271473
-55.275826
-59.794767
-60.947635
-46.258297
-26.721429
-12.139634
-0.051092
6.277616
6.713488
4.750404
3.116705
2.844970
4.423822
-0.113563
-13.095743
-27.040622
-38.942947
-40.712244
-30.877708
-16.281107
-3.895650
0.585588
0.652590
-1.935236
-10.824512
-21.513980
-15.575444
9.165614
32.173761
46.365644
55.080840
58.027629
54.494247
50.497700
58.330724
74.060693
83.876006
79.569555
56.615924
23.062722
-12.378213
-38.245401
-46.408626
-40.672709
-19.691791
-3.919480
-14.386587
-40.666027
-67.385254
-84.030941
-89.755984
-84.348933
-68.861847
-46.436620
-15.058751
16.917363
34.018387
32.180511
21.742239
12.019107
3.567280
-6.463157
-20.581042
-39.388517
-56.866760
-61.068784
-58.023803
-63.174239
-76.257989
-91.673155
-101.978946
-103.154154
-99.340779
-93.855537
-87.085224
-75.396724
-58.187377
-37.070341
-14.796299
-1.744278
-3.995445
-16.572646
-23.915784
-14.855616
-0.746599
6.458825
11.159048
17.599456
27.337358
45.156381
68.886682
89.605753
99.317159
97.252766
91.419659
87.171916
82.052911
72.293152
58.345415
39.102828
12.867809
-9.195598
-12.808728
1.479009
24.888237
48.313571
66.592643
79.186173
85.283428
85.492004
79.141179
70.114746
66.311206
62.849780
47.801666
21.199594
-5.814470
-28.016073
-36.965355
-22.462530
6.299216
36.150169
59.164030
77.075790
92.571708
94.286937
82.156017
60.207947
25.274599
-13.156265
-46.809477
-74.013691
-92.621145
-107.880970
-118.440035
-117.635552
-107.464876
-97.844129
-103.114319
-117.354555
-122.392252
-109.431669
-75.035297
-25.989832
22.883926
53.791355
58.278049
37.527769
1.530930
-30.867603
-57.340310
-79.463723
-91.534637
-94.364047
-85.071388
-60.932991
-32.699613
-15.656777
-10.346359
-9.083126
-13.540761
-22.464587
-30.982135
-40.467839
-50.464246
-48.384562
-21.146874
20.334928
62.512388
100.250155
120.214861
116.820196
93.048815
58.053901
25.902667
0.044051
-17.558361
-24.105830
-21.137999
-9.248959
10.787443
32.993686
48.511164
57.259610
60.315762
53.279150
38.311824
23.833121
13.113780
6.166269
8.175815
17.825137
29.481165
43.331973
55.991485
58.096886
43.427773
15.983014
-16.161206
-42.233871
-56.918310
-59.681480
-43.601344
-15.878150
10.328779
33.101056
44.166372
39.039834
26.446008
10.984603
-0.866807
-2.466736
-0.325747
0.367296
1.518570
4.641741
9.021151
11.076416
9.979658
10.152126
9.613090
5.936316
5.201155
4.513012
1.757116
3.840696
10.006530
16.012346
17.512228
12.324125
2.976098
-1.975876
7.293145
26.168384
44.931663
52.731697
41.013288
19.839846
4.068538
0.291754
6.405114
13.833160
19.367498
25.862457
34.160725
43.829010
51.993497
48.177229
28.588631
2.383745
-21.595450
-37.190116
-41.649570
-37.591754
-35.235157
-41.080473
-46.919295
-45.643073
-41.355102
-38.652234
-36.363957
-36.237987
-41.453626
-49.087963
-49.229555
-36.515752
-20.002063
-5.879019
7.603958
22.511761
35.670027
33.574981
22.492484
23.561931
27.059168
20.403896
12.065068
3.522582
-10.693756
-26.209192
-29.321490
-24.390333
-30.633094
-44.690713
-51.573542
-50.412138
-48.795880
-49.703007
-51.808704
-58.861681
-66.598887
-62.230647
-46.733171
-30.332741
-19.519140
-12.925469
-8.499561
-2.255278
8.431297
17.881116
26.010276
30.959356
34.368273
47.770981
68.309254
80.151016
78.483548
68.045795
48.476680
28.013963
19.001037
19.797208
23.816319
29.372737
39.080246
50.990328
58.040931
46.846993
20.715621
7.195462
9.011741
17.648487
28.375066
26.227806
13.101195
1.414478
-0.911502
5.117434
10.596181
13.501407
14.972715
16.884849
18.970507
16.636474
14.179052
22.416534
38.729163
48.055073
43.333253
30.911653
18.285874
7.523671
1.906432
5.508615
7.548035
1.163961
-3.584615
-9.450452
-20.402546
-27.209263
-29.130005
-32.221521
-35.600860
-36.080150
-34.142559
-35.633385
-43.624644
-50.806206
-55.512699
-60.630665
-67.560252
-72.960585
-63.160599
-40.690691
-21.770772
-8.928903
8.419420
34.437757
55.483876
58.888376
44.573587
23.555227
9.090032
9.433427
19.650341
17.676607
-2.207087
-18.320510
-20.150333
-19.943835
-19.246117
-12.464114
-5.856156
-5.508604
-7.602092
-3.835735
-0.801144
-2.981394
-5.571039
-8.404865
-12.777297
-26.070419
-34.776818
-25.311932
-12.045343
2.830509
13.133147
5.528163
-9.686722
-20.561924
-22.461625
-11.969877
2.991179
11.316463
7.686968
-7.982511
-25.878721
-35.474306
-34.102490
-27.093190
-22.764435
-21.137527
-16.656029
-8.074354
-4.755836
-17.188867
-38.538171
-54.655230
-66.794204
-76.406674
-73.736537
-63.344280
-56.247438
-55.615960
-58.545381
-56.324903
-48.366411
-38.326659
-26.763368
-10.788957
3.643990
6.728716
11.663769
28.593346
41.714206
43.813632
49.090280
52.344115
34.238013
7.741667
-5.933054
-13.210990
-24.463375
-36.048783
-39.063927
-31.152194
-22.236197
-15.486406
-4.586821
12.480433
31.096423
44.154159
49.849033
41.679314
25.429514
16.472438
14.899006
20.448669
32.924525
47.861942
50.953163
34.476065
11.207595
-6.387284
-6.611741
13.258149
38.663174
54.455487
52.458114
36.659790
21.469842
12.536925
9.607244
10.961656
5.220767
-13.442018
-28.471688
-30.576606
-30.132161
-25.889909
-20.729637
-21.064496
-24.171079
-29.737144
-34.075027
-30.941984
-16.189781
-0.467086
8.594380
14.008705
16.561167
18.192751
19.539370
29.085563
41.564277
44.049458
43.210390
39.303462
31.912787
25.129189
15.513082
8.063440
-2.653044
-21.264914
-29.236950
-28.009045
-25.271109
-21.105489
-23.514854
-29.156253
-37.089063
-46.330845
-39.764969
-20.439812
-10.922713
-12.613560
-16.770384
-12.560604
8.313290
34.384619
50.356172
39.640468
14.051231
11.362355
36.492026
75.221328
106.471131
112.139249
99.249287
80.183083
66.560575
59.093268
45.439069
29.026134
15.117362
7.198838
15.433204
28.086741
29.774955
24.460864
19.031437
19.284173
33.931949
55.638138
64.770002
64.948964
68.590373
75.397573
80.289504
82.968213
82.269160
75.382954
62.897710
44.681466
26.335079
14.960863
12.646053
6.623835
-11.145868
-26.840025
-35.804114
-41.232243
-41.792061
-30.645957
-7.804321
8.290102
11.766818
12.109953
9.401854
3.404834
4.531949
16.202265
20.894694
7.875887
-9.145424
-21.620017
-30.059376
-28.945249
-24.255936
-22.356272
-20.806514
-23.384729
-30.231970
-41.934792
-56.578708
-71.153265
-77.090279
-60.039130
-34.461359
-15.364539
1.791816
18.480848
35.973082
54.969373
77.132754
97.985086
106.317384
99.741341
84.104333
66.729738
54.970545
49.809198
44.507317
43.002983
48.328467
48.902276
42.429621
34.525385
26.664010
18.272189
10.499136
12.213586
23.612964
27.661948
19.685496
12.610699
12.010097
8.093558
-7.643980
-27.613137
-42.823866
-50.188565
-50.500304
-44.929080
-32.800274
-26.866153
-33.253085
-35.241886
-26.083267
-14.236309
-2.517417
7.646765
6.429734
-8.793204
-25.766718
-32.917627
-24.202691
-5.317062
17.277015
46.420360
75.695407
94.954324
104.155545
112.064161
120.307359
121.651380
119.469052
126.510303
145.879361
160.569478
158.528724
144.506173
123.000488
99.307817
79.747275
67.982887
64.646150
58.808108
35.435211
-6.409263
-51.255096
-79.145097
-91.885433
-95.073583
-80.986646
-57.172700
-29.763045
-1.850221
23.192688
58.777498
101.479950
135.936848
165.303334
195.132986
219.662593
223.716513
204.326638
184.325529
181.995653
188.035239
185.588986
179.293493
176.298870
157.194999
108.977379
49.564021
2.461584
-33.962573
-73.987373
-113.460166
-140.809850
-143.713034
-125.636841
-98.792442
-56.418857
-6.523951
26.570464
31.431224
14.004675
-12.492451
-38.791373
-59.387871
-71.490736
-68.850733
-44.255404
4.012315
53.225590
74.663959
83.414483
97.617017
109.443713
127.453405
155.045156
183.437772
214.125178
228.555008
217.017398
198.779594
185.285931
174.901430
162.741936
153.981244
147.988380
138.605545
128.629140
118.328544
104.728117
82.450661
56.828434
41.667841
32.652057
21.186662
8.976253
-6.909353
-24.128347
-28.966283
-19.883516
-11.413541
-10.453197
-10.358140
-6.780634
-6.864817
-13.919093
-14.156798
-6.885133
0.792290
8.904305
-3.109460
-48.722907
-114.753594
-185.791047
-251.544561
-304.874933
-340.094546
-366.933267
-389.384247
-396.023673
-394.424820
-398.663471
-414.337886
-435.353908
-447.376505
-448.153229
-436.099496
-408.605417
-369.598684
-321.103667
-253.134110
-151.445376
-34.339157
59.548226
107.714636
99.258912
47.321935
-10.853110
-53.192442
-74.671630
-81.495232
-88.744334
-103.368767
-119.506347
-135.188295
-156.427978
-180.680449
-203.038172
-210.645754
-203.291482
-189.062193
-170.180200
-159.993678
-152.856053
-145.985989
-141.144453
-133.979552
-133.764482
-135.473513
-133.534364
-127.280209
-108.908141
-86.878280
-76.784496
-80.730389
-95.478211
-115.731815
-135.160136
-155.090328
-173.096419
-187.622920
-201.839516
-207.053596
-199.961171
-181.761328
-154.581569
-131.478347
-112.669609
-84.332584
-41.663382
0.626038
35.201650
65.236519
79.232797
78.704671
72.322674
58.589505
36.307634
3.464378
-30.891766
-57.340055
-73.998731
-81.132495
-82.247178
-75.026686
-57.012059
-35.952431
-20.322733
-5.833156
13.504989
33.021595
47.122299
62.255321
84.066977
105.207911
129.668680
159.330782
179.376016
193.830004
216.964917
247.589200
260.715515
234.556347
200.347231
191.365478
183.116010
145.879039
109.715689
108.274999
106.174237
73.134337
25.622246
-11.618881
-26.997419
-35.375213
-46.549668
-51.682959
-35.668025
-6.581829
5.736867
7.444564
20.655823
41.877285
49.140638
47.090792
59.354157
81.843807
104.703107
116.017021
116.694997
113.030433
106.314635
103.729406
92.506635
76.777149
67.962686
60.079491
60.602645
70.854888
78.050961
71.674420
57.454705
51.733818
48.060162
22.965004
-23.984949
-81.369000
-139.292069
-180.933145
-207.588210
-220.250355
-209.776531
-179.702697
-144.656385
-127.232729
-120.922725
-111.998156
-114.097878
-123.080931
-126.547812
-120.766695
-104.364187
-87.462665
-69.395564
-45.727347
-21.167607
2.086020
14.373545
10.148921
0.717249
-3.438276
-1.907222
6.671336
21.041939
33.116973
42.647840
45.632815
40.068308
37.606989
39.992420
43.703187
50.193211
54.059059
46.952310
24.503148
-15.097451
-54.364508
-70.644961
-65.848364
-50.449340
-36.071723
-23.825242
-17.549007
-32.641022
-62.407067
-95.192654
-117.677924
-119.083027
-105.978013
-84.682776
-60.128231
-34.436682
-9.671465
15.945530
48.523267
89.491248
138.808171
189.044671
228.731217
251.695463
260.844731
261.764551
251.429147
237.509984
214.857683
155.318857
75.047953
9.262748
-33.746786
-37.948290
13.925008
93.367996
149.951406
176.650335
188.750047
182.329605
155.257354
119.541065
84.215466
46.738730
-1.359137
-60.625207
-110.264537
-133.334804
-139.608478
-134.892409
-125.843671
-125.070360
-123.417215
-118.570223
-110.846302
-90.408819
-59.019780
-12.049861
40.045799
70.437069
79.332024
69.486542
40.279518
5.310061
-24.347661
-35.806042
-14.215709
39.077222
96.443572
135.573695
148.820543
131.695064
112.829401
101.572860
84.362697
72.337502
66.903919
52.415604
32.775053
33.869437
50.137386
74.313189
101.418915
107.335631
93.513881
69.696261
40.876551
12.370120
5.901102
29.238634
50.071744
56.992463
57.785256
52.772756
37.623073
9.714888
-18.389941
-35.728689
-45.647425
-52.661697
-61.121577
-75.813809
-101.611120
-137.814474
-174.800768
-206.994344
-234.000875
-243.484760
-219.830311
-188.316843
-174.888418
-160.228693
-130.718296
-95.248822
-70.832474
-56.782424
-41.913586
-41.487065
-64.426669
-89.497669
-93.563055
-82.001842
-73.377045
-71.046945
-75.558093
-82.363251
-82.968788
-70.218617
-40.990587
-14.594807
-1.838142
4.537324
4.434178
0.856636
-5.535751
-7.957585
6.079995
30.543362
60.509652
97.409407
129.129391
128.652179
75.662622
-10.545798
-81.469472
-120.781209
-139.363466
-129.336962
-99.436913
-71.585653
-44.638126
-19.717828
-1.947642
16.233237
39.935224
59.784073
77.493733
101.550822
136.220990
176.125741
190.243330
182.630294
194.559079
222.726476
219.571836
179.607302
146.092027
137.432385
139.022666
109.492491
43.407773
-14.102006
-41.442079
-46.313524
-40.842830
-13.454477
42.050377
99.063963
135.742656
158.963293
170.090694
158.324487
135.356569
110.768738
89.471646
77.105376
71.473070
76.699323
94.667972
121.578872
149.154517
165.190493
169.269610
156.661237
119.449723
71.037537
24.207077
-9.503284
-28.548187
-44.604201
-57.799650
-65.779479
-69.944876
-73.801409
-68.303698
-42.649815
-7.849764
16.410464
20.792991
8.107206
-10.954063
-20.276112
-15.475360
3.269476
28.146912
38.422274
28.387421
-2.321581
-45.339168
-85.673351
-122.282722
-149.055202
-159.608552
-157.328846
-145.485785
-121.839648
-86.252760
-46.106944
-5.392756
26.240465
34.099725
14.742321
-23.672697
-61.424788
-88.335204
-107.528175
-119.604804
-131.887428
-143.091237
-154.685737
-155.910820
-112.481278
-39.771735
35.375471
104.049519
153.712712
177.956834
169.647100
156.428012
148.662232
127.489569
107.269996
89.226757
63.334371
35.063551
17.756495
21.489861
28.014954
21.819471
7.407009
-15.160348
-44.964838
-69.850883
-70.451745
-54.267182
-43.446307
-29.626152
-14.454425
-17.816879
-40.631015
-78.354271
-121.839179
-166.119238
-202.405977
-207.639020
-196.928807
-188.739901
-176.444583
-166.067133
-148.970525
-110.917919
-61.905185
-25.817464
-16.678846
-7.079660
29.960890
73.390432
104.636598
127.019483
141.100445
147.320051
144.147227
123.892325
86.528068
47.725216
21.358494
9.411230
-7.542022
-43.680694
-92.026380
-144.114283
-173.427033
-173.687338
-158.704462
-124.870487
-87.410672
-57.165911
-28.041528
-1.271423
21.430457
31.380070
29.420103
27.222708
25.574463
23.616834
17.437456
3.150202
-14.074767
-25.996314
-22.819371
-4.055312
34.746464
84.120275
109.945085
115.142764
111.164660
82.302867
33.102544
-4.830604
-12.950708
-4.488266
-2.373514
-12.925305
-29.223162
