EVENT_NAME: 202302060117
EVENT_ID: 13194
EVENT_DATE_YYYYMMDD: 2023/02/06
EVENT_TIME_HHMMSS: 01:17:32.00000
EVENT_LATITUDE_DEGREE: 37.288
EVENT_LONGITUDE_DEGREE: 37.043
EVENT_DEPTH_KM: 8.6
HYPOCENTER_REFERENCE: AFAD
MAGNITUDE_W: 7.7
MAGNITUDE_W_REFERENCE: AFAD
MAGNITUDE_L: 
MAGNITUDE_L_REFERENCE: 
FOCAL_MECHANISM: 
NETWORK: TK
STATION_CODE: 5102
STATION_NAME: 
STATION_LATITUDE_DEGREE: 37.96789
STATION_LONGITUDE_DEGREE: 34.673
STATION_ELEVATION_M: 1229.0
LOCATION: Kahramanmaras_Pazarck_Turkiye
SENSOR_DEPTH_M: 
VS30_M/S: 678
SITE_CLASSIFICATION_EC8: unknown
MORPHOLOGIC_CLASSIFICATION: 
EPICENTRAL_DISTANCE_KM: 221.98
EARTHQUAKE_BACKAZIMUTH_DEGREE: 
DATE_TIME_FIRST_SAMPLE_YYYYMMDD_HHMMSS: 2023/02/06 01:17:50.2729220
DATE_TIME_FIRST_SAMPLE_PRECISION: millisecond
SAMPLING_INTERVAL_S: 0.01
NDATA: 14501
DURATION_S: 
STREAM: HNZ
UNITS: cm/s^2
INSTRUMENT: sensor = CMG-5T/GURALP | digitizer = 
INSTRUMENT_ANALOG/DIGITAL: 
INSTRUMENTAL_FREQUENCY_HZ: 
INSTRUMENTAL_DAMPING: 
FULL_SCALE_G: 
N_BIT_DIGITAL_CONVERTER: 
PGA_CM/S^2: 17.015
TIME_PGA_S: 
BASELINE_CORRECTION: BASELINE REMOVED
FILTER_TYPE: BUTTERWORTH
FILTER_ORDER: 
LOW_CUT_FREQUENCY_HZ: 
HIGH_CUT_FREQUENCY_HZ: 
LATE/NORMAL_TRIGGERED: 
DATABASE_VERSION: 
HEADER_FORMAT: DYNA 1.2
DATA_TYPE: Acceleration
PROCESSING: Automatic Paolucci et al., 2011
DATA_TIMESTAMP_YYYYMMDD_HHMMSS: 
DATA_LICENSE: U (unknown license)
DATA_CITATION: Turkish Accelerometric Archive v 1.0 - Disaster And Emergency Management Presidency, Earthquake Department
DATA_CREATOR: AFAD
ORIGINAL_DATA_MEDIATOR_CITATION: : AFAD - Disaster And Emergency Management Presidency
ORIGINAL_DATA_MEDIATOR: AFAD PROCESS SERVICE
ORIGINAL_DATA_CREATOR_CITATION: AFAD PROCESS SERVICE
ORIGINAL_DATA_CREATOR: network: TK
USER1: GuestUser
USER2: 
USER3: 
USER4: 
USER5: 
[...]
-2.219807
-1.180532
-0.168847
0.636238
1.214970
1.471103
1.531608
1.551984
1.667353
1.881476
2.175231
2.656776
3.302285
4.103294
4.842542
5.562352
6.378096
7.265946
8.031529
8.774539
9.248559
9.665835
9.932315
10.036397
10.206629
10.322939
10.352093
10.316978
10.142666
9.874929
9.535085
9.031278
8.640019
7.853427
7.696045
6.737965
5.849170
5.376400
4.320506
3.781271
3.005026
2.575833
1.909941
1.538434
0.967535
0.660923
0.261827
-0.755192
-1.336437
-2.292949
-3.052579
-3.641974
-4.189986
-4.766214
-5.288833
-5.843115
-6.269801
-6.589266
-6.994946
-7.327893
-7.647045
-7.842049
-7.966826
-8.129538
-8.286294
-8.399158
-8.493526
-8.493215
-8.423931
-8.169679
-7.889406
-7.603803
-7.511320
-7.565245
-7.676856
-7.736737
-7.613844
-7.474649
-7.329184
-7.289057
-7.277146
-7.280596
-7.247366
-7.195953
-6.963019
-6.522230
-5.981119
-5.389219
-4.894193
-4.489458
-4.075003
-3.534832
-2.952651
-2.377681
-1.816505
-1.328063
-0.960008
-0.811407
-0.829279
-0.992932
-1.155957
-1.255341
-1.287321
-1.206124
-1.029622
-0.763456
-0.498545
-0.176261
0.169849
0.525050
0.935116
1.426066
2.063111
2.794207
3.472948
4.179278
4.910061
5.548046
6.118314
6.655036
7.151316
7.376726
7.366064
7.343490
7.256333
7.042833
6.737161
6.453435
6.124565
5.779391
5.508206
5.291257
4.985585
4.645115
4.422209
4.353863
4.415622
4.602783
4.691504
4.598390
4.370782
4.086429
3.719624
3.289177
2.772202
2.079035
1.420355
0.677341
0.057849
-0.723099
-1.267977
-1.854237
-2.144546
-2.512919
-3.223642
-3.529313
-4.089866
-4.394597
-4.533169
-4.343186
-3.949736
-3.502990
-3.194188
-2.849018
-2.471244
-2.235175
-1.967442
-1.814766
-1.647042
-1.517565
-1.417872
-1.381820
-1.292159
-1.112835
-0.903728
-0.802154
-0.762654
-0.833195
-0.914395
-0.939477
-0.881794
-0.683346
-0.414045
-0.182992
-0.003041
-0.024048
-0.190522
-0.376121
-0.511871
-0.661729
-0.769264
-0.739483
-0.535078
-0.134732
0.271885
0.688534
0.923663
0.947487
0.810169
0.594161
0.303224
0.165906
0.059939
0.088779
0.111036
0.035479
-0.269252
-0.674618
-0.959598
-1.190655
-1.093156
-0.849249
-0.500004
-0.277416
0.053332
0.168700
0.375613
0.456810
0.403825
0.649613
0.682215
0.782849
1.007318
1.411114
1.988592
2.683635
3.273654
3.735448
4.111968
4.396004
4.650569
4.847763
5.000126
5.213622
5.537473
5.844395
6.064788
6.147552
5.930604
5.355316
4.644907
3.902207
3.218759
2.730313
2.387648
2.127121
1.859698
1.606696
1.358709
1.145209
1.100689
1.227971
1.335816
1.436450
1.534262
1.621728
1.621413
1.531434
1.487855
1.287836
0.964294
0.657055
0.510018
0.372700
0.222529
0.038811
-0.232688
-0.520176
-0.886040
-1.433426
-2.094614
-2.752354
-3.313221
-3.760911
-4.044950
-4.104518
-3.980685
-3.661850
-3.237363
-2.889999
-2.693746
-2.533232
-2.474608
-2.537312
-2.747050
-3.038300
-3.353377
-3.611708
-3.913618
-4.322747
-4.813074
-5.239445
-5.634153
-5.973996
-6.132946
-6.200039
-6.150820
-5.977139
-5.763643
-5.579930
-5.387125
-5.154191
-4.760741
-4.222138
-3.581018
-2.899455
-2.101581
-1.314994
-0.536558
0.161307
0.717154
1.028778
1.268609
1.415955
1.476147
1.585559
1.761434
2.156451
2.651164
3.208577
3.731505
4.222142
4.506491
4.792408
4.991483
5.239778
5.394649
5.474591
5.514091
5.442923
5.308740
5.210297
5.047898
4.752573
4.395486
4.015200
3.645887
3.325794
3.211675
3.066206
3.166840
3.227972
3.591638
3.910787
4.459422
4.551591
4.826222
5.092074
4.789537
5.191452
5.152575
5.267944
5.206181
4.886715
4.417079
3.722973
3.003785
2.309052
1.774833
1.276042
0.788536
0.233313
-0.239144
-0.687775
-1.074018
-1.348965
-1.538639
-1.559019
-1.630501
-1.912032
-2.187920
-2.386372
-2.456286
-2.313642
-1.976938
-1.651519
-1.383159
-1.337702
-1.413573
-1.749655
-2.089185
-2.507719
-2.996792
-3.481789
-3.958949
-4.417926
-4.930512
-5.226464
-5.200445
-4.873459
-4.539263
-4.260557
-4.116032
-3.955518
-3.860527
-3.720392
-3.357039
-2.767020
-2.235314
-1.640593
-1.033959
-0.449897
0.042621
0.426352
0.752397
1.003201
1.136126
1.056180
0.858668
0.526349
0.089005
-0.471235
-0.978178
-1.528385
-1.928735
-2.300557
-2.330655
-2.420320
-2.233472
-2.009003
-1.951633
-1.466953
-1.214895
-0.875055
-0.528945
-0.190359
0.273316
0.769596
1.238914
1.847116
2.492938
3.051606
3.593031
3.954816
4.268635
4.528531
4.908186
5.321386
5.670631
6.020190
6.297642
6.430253
6.537784
6.731530
6.979512
7.314022
7.678316
8.076154
8.396870
8.689684
8.764610
8.848628
8.698143
8.617883
8.395918
8.428521
8.027857
7.855112
7.982394
7.154733
7.252232
6.978225
6.840907
6.879780
6.953766
7.184505
7.087002
6.715181
6.125472
5.447981
4.553230
3.803005
3.014846
2.426705
1.827591
1.272681
0.666043
0.122733
-0.353486
-0.894288
-1.651410
-2.402575
-3.157188
-3.842830
-4.446960
-5.014410
-5.593146
-6.225179
-6.755948
-7.229346
-7.641923
-8.173947
-8.610978
-8.879969
-9.101934
-9.505420
-9.887587
-10.241852
-10.544388
-10.853822
-11.197427
-11.383025
-11.243830
-10.796457
-10.131824
-9.322351
-8.505040
-7.858590
-7.372656
-6.865090
-6.335578
-5.809828
-5.294111
-4.752686
-4.352653
-3.969863
-3.653850
-3.340031
-3.124340
-2.901438
-2.738103
-2.511439
-2.253738
-1.897596
-1.446775
-0.968678
-0.375838
0.295692
1.129619
2.004929
2.883688
3.536094
4.200414
4.808929
5.515259
6.155439
6.966480
7.619200
8.547492
8.721800
8.859428
9.269493
8.458762
8.363454
7.932066
7.302855
6.779296
5.963235
5.242481
4.549941
3.887499
3.126615
2.230923
1.286638
0.465561
-0.290934
-0.865595
-1.368149
-1.797969
-2.140634
-2.462921
-2.762323
-2.973315
-3.208447
-3.413796
-3.579643
-3.606607
-3.578080
-3.470549
-3.314424
-3.159240
-2.973646
-2.820656
-2.788680
-2.910637
-3.146396
-3.500975
-3.935497
-4.319859
-4.547467
-4.678515
-4.704852
-4.781349
-4.781351
-4.868195
-5.008021
-5.050033
-5.124336
-5.328431
-5.589584
-5.820641
-6.072703
-6.175535
-6.251092
-6.436377
-6.653953
-6.868707
-7.102272
-7.262789
-7.286931
-7.270945
-7.269065
-7.207933
-7.241167
-7.284120
-7.426140
-7.634938
-7.854708
-8.093603
-8.264466
-8.377958
-8.376392
-8.340654
-8.252561
-8.099571
-7.881059
-7.628687
-7.310793
-7.090399
-6.913583
-6.683784
-6.371847
-5.914755
-5.299970
-4.649444
-3.985125
-3.301054
-2.631405
-1.950783
-1.142877
-0.249383
0.709633
1.686206
2.638012
3.528370
4.359789
5.155782
5.914154
6.621737
7.279787
7.927804
8.379879
8.828193
8.997485
9.258948
9.221638
9.062688
9.082124
8.800906
8.684593
8.450088
8.256338
8.163538
8.126856
7.966652
7.868836
7.759106
7.719289
7.756594
7.677902
7.541211
7.300122
7.215787
7.172521
7.159038
7.005104
6.967795
6.889416
6.953683
6.889412
6.983462
6.881571
7.032993
6.901004
6.796918
7.135817
6.223509
6.281506
6.151712
5.897143
5.867984
5.666397
5.593975
5.375459
5.209925
4.692636
4.146505
3.478106
2.783686
1.922793
1.122407
0.314811
-0.425068
-1.148958
-1.865010
-2.640001
-3.383329
-4.096560
-4.752105
-5.231146
-5.504839
-5.597326
-5.650624
-5.659718
-5.648120
-5.639344
-5.740295
-5.870402
-6.126226
-6.409325
-6.685527
-6.916583
-7.075220
-7.208776
-7.270852
-7.378701
-7.567434
-7.830468
-8.086606
-8.327695
-8.542135
-8.750933
-9.077610
-9.415259
-9.809966
-10.229127
-10.751118
-11.095038
-11.469994
-11.408549
-11.276251
-11.201638
-10.585285
-10.026931
-9.230938
-8.426167
-7.600078
-6.857695
-6.071734
-5.163192
-4.082535
-2.793396
-1.439360
0.000890
1.381887
2.645005
3.800277
4.791898
5.586950
6.231519
6.737517
7.243202
7.721612
8.287804
8.775620
9.324569
9.818654
10.228719
10.680795
11.014051
11.287427
11.520674
11.747025
11.965851
12.137651
12.256468
12.234834
12.052057
11.781499
11.458898
11.040991
10.610544
10.222734
9.873171
9.574083
9.226402
8.854267
8.374599
7.791161
7.244402
6.691060
6.108248
5.425428
4.755461
4.191460
3.640939
3.140267
2.548990
2.138294
1.443560
0.855732
0.304271
-0.439056
-1.036289
-1.738547
-2.402244
-3.030514
-3.646871
-4.364491
-4.897768
-5.442332
-5.753020
-5.973104
-5.959311
-5.865888
-5.619787
-5.248910
-4.746360
-4.333473
-4.030313
-3.835941
-3.700194
-3.587961
-3.583260
-3.496107
-3.567589
-3.243738
-3.289198
-2.316387
-2.011347
-1.717279
-0.845731
-0.555426
0.080679
0.304207
0.711451
0.979184
1.372320
1.698366
1.962023
2.030052
2.034439
1.917813
1.804948
1.704938
1.590192
1.534072
1.495196
1.459454
1.394869
1.282945
0.998592
0.725212
0.296646
-0.150417
-0.615664
-0.987485
-1.418246
-1.845558
-2.320210
-2.674475
-2.881391
-2.823708
-2.616168
-2.170049
-1.628625
-0.983429
-0.183361
0.696966
1.654101
2.578945
3.418829
4.053679
4.511084
4.804211
5.046237
5.102979
5.049995
4.687892
4.437711
4.001621
3.866498
3.647354
3.389336
3.515050
3.417234
3.447015
3.545768
3.714119
3.828861
3.944543
3.839830
3.574915
3.099322
2.445031
1.709228
0.837049
-0.079021
-0.861223
-1.525860
-2.045971
-2.488331
-2.844477
-3.118798
-3.326655
-3.428233
-3.346096
-3.087141
-2.673627
-1.982033
-1.303605
-0.660604
0.085541
0.658317
0.968687
1.312602
1.613567
1.856847
2.072851
2.355319
2.646566
2.995497
3.323424
3.566703
3.787410
4.051695
4.265505
4.451726
4.600013
4.708798
4.869939
5.035782
5.332985
5.544287
5.653385
5.642411
5.486909
5.250836
4.910366
4.452016
3.993667
3.466973
2.876637
2.161839
1.357378
0.525641
-0.279447
-0.940949
-1.482378
-2.026942
-2.619472
-3.080643
-3.471902
-3.830243
-4.123374
-4.255676
-4.322141
-4.390174
-4.533135
-4.761057
-4.988979
-5.220035
-5.502821
-5.823227
-6.195362
-6.557778
-6.876303
-7.049675
-7.018012
-6.776300
-6.368116
-5.846128
-5.220997
-4.507770
-3.718988
-2.928952
-2.281875
-1.752991
-1.184604
-0.592705
-0.055355
0.487950
1.128444
1.736959
2.402846
3.053685
3.827732
4.559143
5.212803
5.671148
6.048923
6.321985
6.566833
6.737065
6.951815
7.145561
7.328961
7.444016
7.438057
7.432726
7.462507
7.620199
7.771621
8.142812
8.330600
8.551621
8.234977
8.019909
7.043646
6.736093
6.179616
4.907402
4.628066
3.617003
2.868033
2.073290
1.205814
0.317960
-0.666141
-1.262120
-2.011091
-2.899258
-3.261048
-3.931641
-4.376823
-4.717294
-5.022965
-5.287254
-5.607974
-6.005189
-6.503354
-6.808085
-7.026915
-6.811851
-6.532831
-6.225910
-5.902999
-5.458448
-4.985368
-4.506958
-4.490344
-3.607510
-2.735648
-2.512747
-2.053147
-1.552792
-0.802258
-0.495023
-0.528883
-0.664947
-0.151111
0.033229
-0.566198
-0.446754
-0.461177
-0.859333
-0.936145
-1.064057
-1.227397
-1.425849
-1.588247
-1.662550
-1.662239
-1.500785
-1.270045
-0.970021
-0.553372
0.007491
0.550483
1.017920
1.501346
1.979756
2.404243
2.813681
3.117468
3.253841
3.246629
3.251016
3.312148
3.351648
3.506518
3.754814
3.967997
4.205320
4.427281
4.499699
4.451417
4.383384
4.202489
3.875812
3.481105
3.014291
2.569109
2.122046
1.728592
1.353322
1.080883
0.972721
1.010653
1.213804
1.493450
1.645499
1.573391
1.526363
1.533258
1.610065
1.766190
1.875288
1.952096
2.018244
2.006015
1.915723
1.800350
1.758339
1.666166
1.535431
1.222236
0.741314
0.199571
-0.379165
-0.904291
-1.453244
-2.000630
-2.500989
-2.976268
-3.588863
-4.357584
-5.236973
-6.074353
-6.830221
-7.411465
-7.909943
-8.376757
-8.891224
-9.269943
-9.549593
-9.632361
-9.434853
-9.107867
-8.698743
-8.341973
-8.039127
-7.870149
-7.634707
-7.420584
-7.081057
-6.779779
-6.294472
-6.104175
-5.796313
-5.569336
-5.704146
-5.367441
-5.055190
-4.471441
-3.774830
-2.978524
-2.300410
-1.681236
-1.235430
-0.939482
-0.523460
-0.194593
0.082546
0.308896
0.481637
0.704852
0.820847
0.698891
0.596059
0.593862
0.686659
0.691673
0.733054
0.661259
0.569399
0.488199
0.456846
0.468131
0.442421
0.388496
0.341468
0.211674
0.055232
-0.125664
-0.209372
-0.310950
-0.268002
-0.064224
0.233606
0.566235
0.857795
1.126155
1.206411
1.261273
1.116430
1.136179
1.080373
1.228974
1.110466
1.254991
1.222698
1.584169
1.615205
2.062891
2.811544
2.411193
3.050433
2.953870
2.840692
2.633776
2.336883
2.079491
1.819592
1.588535
1.322366
1.147740
0.997255
1.023274
1.053055
1.162154
1.199773
1.323606
1.415148
1.611088
1.873178
2.326508
2.694563
3.219059
3.493062
4.273379
4.170860
4.386865
6.318067
5.340236
4.396578
5.316719
4.559911
4.040428
3.956720
3.442252
3.235963
3.049424
2.426483
1.821413
1.144549
0.028461
-0.670975
-1.691756
-2.992186
-4.104511
-5.661389
-6.978748
-8.165375
-9.530387
-10.412598
-11.233989
-11.924020
-12.471719
-13.034152
-13.479961
-13.664619
-13.867774
-14.125165
-14.284115
-14.239912
-14.227688
-14.234273
-13.958389
-13.539859
-13.000628
-12.372049
-11.679200
-11.037766
-10.421099
-9.849891
-9.210652
-8.624082
-8.032496
-7.524617
-7.035234
-6.546792
-6.017907
-5.394970
-4.646004
-3.831514
-3.060602
-2.397536
-1.786826
-1.072032
-0.295790
0.483900
1.250423
1.966158
2.551474
3.043678
3.346837
3.658462
3.890141
4.215560
4.501163
4.850095
5.071429
5.406879
5.803464
6.007869
6.605411
7.130847
7.729644
8.300225
8.836007
9.261434
9.536378
9.609423
9.477748
9.248886
8.847595
8.397397
7.848130
7.263751
6.517602
5.627553
4.609280
3.499150
2.292459
0.981056
-0.501207
-1.990995
-3.382655
-4.616308
-5.604171
-6.400795
-7.105561
-7.862369
-8.711975
-9.716454
-10.792726
-11.899721
-12.905141
-13.818703
-14.617834
-15.353637
-15.963411
-16.447154
-16.813019
-16.992347
-17.014608
-16.819922
-16.472871
-15.946181
-15.364314
-14.768025
-14.161391
-13.572627
-13.008316
-12.386006
-11.892548
-11.403792
-10.866129
-10.293981
-9.638753
-8.920196
-8.153360
-7.393420
-6.576736
-5.815229
-5.089149
-4.590361
-4.124491
-3.598428
-2.958875
-2.119305
-1.211704
-0.249239
0.728588
1.598568
2.437825
3.220337
3.868981
4.490664
5.120498
5.652517
6.036562
6.269182
6.303039
6.342852
6.434081
6.332503
6.319334
6.529381
6.619043
6.626565
6.497398
6.340642
6.148461
5.970700
5.808928
5.671610
5.513601
5.178460
4.653647
4.010642
3.334405
2.590451
1.957478
1.452416
1.028866
0.652028
0.407804
0.213428
0.036921
-0.090365
-0.234266
-0.387887
-0.509843
-0.570979
-0.605780
-0.569415
-0.683847
-0.855338
-1.002061
-1.017425
-1.030280
-1.063828
-1.224345
-1.389879
-1.533467
-1.672980
-1.711543
-1.897455
-1.709979
-1.792434
-1.752934
-1.512789
-1.420934
-1.385823
-1.466082
-1.530353
-1.550733
-1.440067
-1.497441
-1.422201
-1.481769
-1.720977
-2.018184
-2.334201
-2.506632
-2.662761
-2.646774
-2.546767
-2.611978
-2.625461
-2.668100
-2.499749
-2.458995
-2.528595
-2.221360
-1.714421
-1.296831
-1.128480
-0.881438
-0.614332
-0.467299
-0.189534
0.126793
0.379164
0.560056
0.609902
0.718373
0.709907
0.780444
0.724637
0.606443
0.419905
0.158438
-0.050673
-0.251006
-0.350704
-0.421872
-0.441938
-0.398363
-0.326258
-0.282369
-0.217161
-0.224687
-0.206192
-0.289274
-0.265449
-0.319061
-0.421893
-0.676776
-1.126661
-1.576546
-2.109823
-2.453429
-2.637460
-2.637462
-2.545919
-2.322077
-2.037415
-1.772190
-1.592866
-1.494740
-1.538633
-1.681907
-1.928326
-2.214246
-2.533399
-2.821514
-2.993004
-3.162927
-3.136594
-3.210897
-3.146944
-3.025932
-2.870748
-2.517114
-2.276969
-1.961269
-1.660618
-1.362475
-1.028592
-0.681855
-0.310351
0.045792
0.457425
0.905738
1.381953
1.846882
2.178257
2.489568
2.585186
2.490505
2.325285
2.115233
1.979482
1.833386
1.803287
1.781967
1.846861
1.927744
1.972887
1.836509
1.516730
1.059635
0.450802
-0.198473
-0.819533
-1.389491
-2.007102
-2.600886
-3.153601
-3.679041
-4.043652
-4.290070
-4.456231
-4.556242
-4.756261
-4.898909
-4.977288
-4.946880
-4.890137
-4.823675
-4.884184
-4.891397
-4.989840
-5.012414
-5.099571
-4.935295
-4.739042
-4.501719
-3.728299
-3.151761
-2.459539
-1.962005
-1.411175
-0.809243
-0.006980
0.848892
1.830481
2.738396
3.448801
3.948529
4.267991
4.494655
4.619429
4.777435
4.852361
4.973373
5.037326
5.173386
5.205676
5.377789
5.812935
6.430229
6.926195
7.596471
8.031931
8.422245
8.589656
8.774310
8.610344
8.359536
7.850085
7.119611
6.222666
5.203452
4.190508
2.990715
2.060537
1.057312
0.561969
-0.363506
-0.056585
-0.636575
-1.051660
-0.674826
-0.908078
-0.851021
-1.062954
-1.509390
-1.377406
-1.723833
-2.618584
-2.282820
-2.683171
-2.390357
-2.167142
-1.488087
-1.099967
-0.461669
1.543835
1.373285
1.498372
3.358408
3.592909
3.833367
4.735639
4.989891
5.376444
5.688068
5.816290
5.756409
5.917549
5.929147
5.945761
5.899360
6.167720
6.225404
6.173360
6.391872
6.728263
6.843945
6.759924
6.847390
6.983450
6.918552
6.721354
6.525411
6.162054
5.567329
4.830585
4.620533
4.576640
4.404523
4.375051
4.903623
5.325915
5.528438
5.328732
5.281077
6.258591
7.114463
6.759258
6.567703
6.979336
6.759252
6.519731
6.719119
6.609076
6.257006
6.540414
6.708139
6.434131
6.128147
5.798022
5.701459
5.958533
6.071707
5.610850
5.379480
5.758822
5.689535
5.184159
5.099510
5.241840
4.724238
4.128259
4.376868
4.454616
3.539801
2.897736
2.698657
1.789484
0.957121
0.858991
0.790018
0.219119
-0.853704
-1.763817
-2.310889
-3.040109
-3.865888
-4.420171
-5.155974
-6.002445
-6.096186
-6.305297
-6.762393
-7.052389
-7.004111
-6.405941
-5.960449
-5.814984
-5.477966
-5.117748
-4.706742
-4.553125
-4.709881
-4.137419
-3.669041
-3.551791
-2.941395
-2.131294
-2.356081
-2.576165
-1.915607
-1.474818
-1.198620
-0.549662
-0.226125
-0.557817
-0.151201
0.054772
-0.050882
0.295228
0.443515
0.491166
0.744164
1.281513
1.798171
2.065904
2.264980
2.515156
2.480982
2.828660
3.557248
3.316473
2.933052
2.828025
2.401653
2.150532
2.067764
1.836394
1.846424
2.595704
2.415122
1.605331
1.794061
2.540206
3.286351
3.651271
3.521791
3.372873
3.629320
4.038131
5.027558
5.485903
5.055456
5.089626
5.672121
6.059614
5.842978
5.570852
6.022614
6.248337
5.738573
5.149491
4.938499
5.492777
6.020094
5.524124
4.927204
5.210300
5.217195
5.663000
6.030742
5.518156
4.680463
5.167337
5.661736
4.924679
5.046318
5.296181
4.717445
3.768143
3.965651
4.375403
4.268808
4.095751
3.780674
2.652673
2.062024
1.554454
1.348164
2.670849
3.316045
1.628747
-0.452002
-0.727890
-0.124390
0.859393
0.666898
0.641188
0.198514
0.007586
0.407306
0.051787
0.559353
1.666972
1.834069
0.592266
0.497584
1.628716
2.457941
2.131578
1.301095
0.786942
0.678466
1.773858
1.976069
0.918607
0.251775
0.735515
1.257189
0.884741
0.838653
1.045879
0.843665
-0.197807
-0.427924
-1.086604
-1.144918
-0.552705
-0.633906
-1.284121
-2.472942
-1.991711
-1.096963
-1.014199
-0.743331
-0.588461
-1.295735
-1.101362
-0.880028
-1.150900
-1.190718
-0.482820
0.011265
-0.412599
-0.775328
-0.543649
-0.576255
-1.152483
-1.251553
-1.044327
-0.211968
0.423509
0.631990
0.344188
-0.256807
-0.428297
-0.198185
0.036316
0.387442
0.156699
-0.495084
-0.308549
0.043831
0.340720
0.597481
0.540420
0.244468
0.088966
0.764886
1.370893
1.576238
1.588777
1.624514
2.112957
2.063734
1.650843
1.707586
2.080031
2.054321
1.570891
1.190605
0.973029
1.153294
1.209096
1.019109
0.833511
0.693685
0.834447
1.038852
1.426972
1.443586
0.972383
0.254136
0.087035
0.650719
1.073951
0.568576
-0.056559
