EVENT_NAME: 202302060117
EVENT_ID: 13194
EVENT_DATE_YYYYMMDD: 2023/02/06
EVENT_TIME_HHMMSS: 01:17:32.00000
EVENT_LATITUDE_DEGREE: 37.288
EVENT_LONGITUDE_DEGREE: 37.043
EVENT_DEPTH_KM: 8.6
HYPOCENTER_REFERENCE: AFAD
MAGNITUDE_W: 7.7
MAGNITUDE_W_REFERENCE: AFAD
MAGNITUDE_L: 
MAGNITUDE_L_REFERENCE: 
FOCAL_MECHANISM: 
NETWORK: TK
STATION_CODE: 2521
STATION_NAME: 
STATION_LATITUDE_DEGREE: 39.64607
STATION_LONGITUDE_DEGREE: 41.509117
STATION_ELEVATION_M: 1930.0
LOCATION: Kahramanmaras_Pazarck_Turkiye
SENSOR_DEPTH_M: 
VS30_M/S: None
SITE_CLASSIFICATION_EC8: unknown
MORPHOLOGIC_CLASSIFICATION: 
EPICENTRAL_DISTANCE_KM: 468.88
EARTHQUAKE_BACKAZIMUTH_DEGREE: 
DATE_TIME_FIRST_SAMPLE_YYYYMMDD_HHMMSS: 2023/02/06 01:18:11.4751660
DATE_TIME_FIRST_SAMPLE_PRECISION: millisecond
SAMPLING_INTERVAL_S: 0.01
NDATA: 24501
DURATION_S: 
STREAM: HNN
UNITS: cm/s^2
INSTRUMENT: sensor = ACEBOX/SARA | digitizer = 
INSTRUMENT_ANALOG/DIGITAL: 
INSTRUMENTAL_FREQUENCY_HZ: 
INSTRUMENTAL_DAMPING: 
FULL_SCALE_G: 
N_BIT_DIGITAL_CONVERTER: 
PGA_CM/S^2: 5.444
TIME_PGA_S: 
BASELINE_CORRECTION: BASELINE REMOVED
FILTER_TYPE: BUTTERWORTH
FILTER_ORDER: 
LOW_CUT_FREQUENCY_HZ: 
HIGH_CUT_FREQUENCY_HZ: 
LATE/NORMAL_TRIGGERED: 
DATABASE_VERSION: 
HEADER_FORMAT: DYNA 1.2
DATA_TYPE: Acceleration
PROCESSING: Automatic Paolucci et al., 2011
DATA_TIMESTAMP_YYYYMMDD_HHMMSS: 
DATA_LICENSE: U (unknown license)
DATA_CITATION: Turkish Accelerometric Archive v 1.0 - Disaster And Emergency Management Presidency, Earthquake Department
DATA_CREATOR: AFAD
ORIGINAL_DATA_MEDIATOR_CITATION: : AFAD - Disaster And Emergency Management Presidency
ORIGINAL_DATA_MEDIATOR: AFAD PROCESS SERVICE
ORIGINAL_DATA_CREATOR_CITATION: AFAD PROCESS SERVICE
ORIGINAL_DATA_CREATOR: network: TK
USER1: GuestUser
USER2: 
USER3: 
USER4: 
USER5: 
[...]
-0.217579
-0.146505
-0.090395
-0.062807
-0.065613
-0.080577
-0.088994
-0.087124
-0.083618
-0.085723
-0.083853
-0.051122
0.033278
0.166074
0.318276
0.452708
0.547630
0.596726
0.592985
0.536873
0.448965
0.356614
0.285539
0.256781
0.268237
0.304475
0.360586
0.437270
0.527983
0.625476
0.722735
0.800589
0.830047
0.801523
0.730214
0.631083
0.515353
0.387465
0.243913
0.090775
-0.062830
-0.213396
-0.351571
-0.471743
-0.581395
-0.696657
-0.822909
-0.939106
-1.031691
-1.106039
-1.170801
-1.232758
-1.279285
-1.302665
-1.320668
-1.340541
-1.348959
-1.317163
-1.219202
-1.060688
-0.865001
-0.663234
-0.474093
-0.289160
-0.099317
0.095202
0.293227
0.491487
0.680394
0.849429
0.994616
1.124607
1.247116
1.348350
1.402824
1.416150
1.410071
1.391600
1.362375
1.328941
1.299950
1.277271
1.257865
1.239394
1.221391
1.212506
1.219520
1.228871
1.218349
1.171122
1.085551
0.968652
0.829308
0.681080
0.537060
0.397950
0.258373
0.111314
-0.043227
-0.188182
-0.303444
-0.370077
-0.381768
-0.359090
-0.327996
-0.299005
-0.270717
-0.245000
-0.226764
-0.223024
-0.231441
-0.239157
-0.235417
-0.210167
-0.163642
-0.107765
-0.066150
-0.048850
-0.024068
0.050980
0.200610
0.425990
0.718002
1.054670
1.388531
1.677270
1.898910
2.056488
2.176426
2.266671
2.316937
2.317871
2.267604
2.176656
2.060926
1.913867
1.726829
1.514306
1.297108
1.085287
0.862244
0.607170
0.327315
0.057979
-0.163193
-0.325683
-0.436036
-0.490044
-0.478121
-0.420841
-0.360288
-0.327090
-0.324285
-0.341119
-0.365902
-0.378527
-0.357954
-0.300440
-0.233107
-0.192194
-0.176296
-0.153384
-0.091195
0.010506
0.128807
0.252719
0.368682
0.447237
0.467577
0.441625
0.399774
0.364470
0.342960
0.337816
0.349505
0.377093
0.422683
0.485106
0.565999
0.673312
0.804004
0.951061
1.105133
1.247515
1.357867
1.419121
1.436188
1.424263
1.387089
1.336588
1.303155
1.315545
1.377501
1.463771
1.541392
1.588852
1.604282
1.606385
1.611528
1.625088
1.650805
1.677925
1.680496
1.630697
1.513797
1.339150
1.137149
0.941460
0.769852
0.621858
0.495373
0.394372
0.322829
0.289863
0.305527
0.376133
0.493732
0.633075
0.759091
0.847700
0.892120
0.898432
0.897730
0.923681
0.977220
1.038241
1.089208
1.122406
1.129420
1.103234
1.039173
0.947524
0.870136
0.841145
0.852834
0.880655
0.904268
0.914087
0.889538
0.809812
0.682158
0.535333
0.397859
0.282597
0.197026
0.150968
0.155877
0.212455
0.290777
0.361850
0.420299
0.467993
0.505634
0.541638
0.599619
0.699917
0.844170
1.010867
1.164237
1.282538
1.357118
1.382134
1.367170
1.323684
1.253310
1.155582
1.037514
0.921784
0.840422
0.811664
0.818911
0.835744
0.844861
0.836210
0.805114
0.757185
0.711360
0.678161
0.654546
0.640986
0.637010
0.632801
0.614565
0.575052
0.511693
0.430798
0.347332
0.286778
0.285842
0.370008
0.517534
0.669034
0.774242
0.818195
0.798322
0.722103
0.604737
0.469601
0.364392
0.310150
0.283263
0.270170
0.269000
0.274143
0.273441
0.262919
0.253801
0.254969
0.258943
0.251227
0.232055
0.218962
0.223403
0.232287
0.227377
0.209841
0.185292
0.135025
0.047116
-0.067912
-0.193696
-0.310829
-0.409258
-0.484074
-0.535744
-0.575724
-0.636278
-0.752008
-0.918940
-1.094990
-1.244855
-1.359650
-1.446623
-1.511853
-1.554171
-1.588306
-1.625480
-1.658680
-1.675280
-1.656577
-1.587374
-1.461358
-1.278295
-1.054318
-0.826366
-0.628341
-0.466320
-0.334459
-0.237433
-0.179219
-0.152332
-0.132694
-0.103236
-0.061153
-0.005744
0.052237
0.087072
0.074447
0.017867
-0.054611
-0.123582
-0.189045
-0.258016
-0.336573
-0.425884
-0.510052
-0.571073
-0.609183
-0.636538
-0.661788
-0.680259
-0.675584
-0.648698
-0.613862
-0.575287
-0.525956
-0.464935
-0.402045
-0.343128
-0.281407
-0.209631
-0.128504
-0.045507
0.032347
0.094303
0.124462
0.118850
0.082143
0.033279
0.006158
0.022056
0.082141
0.172386
0.275958
0.378360
0.469073
0.556980
0.660552
0.790075
0.944380
1.108973
1.261876
1.387658
1.491697
1.595502
1.716141
1.855250
2.004178
2.149833
2.266731
2.334766
2.353936
2.343883
2.329153
2.319099
2.323307
2.354635
2.416824
2.504731
2.594041
2.654127
2.669790
2.642435
2.589363
2.537459
2.506364
2.501921
2.507999
2.506362
2.504958
2.542833
2.657627
2.845132
3.063498
3.272979
3.455341
3.600294
3.694046
3.740104
3.756937
3.752260
3.721164
3.672534
3.628813
3.601458
3.580416
3.530616
3.430551
3.290973
3.126379
2.951966
2.775448
2.597060
2.408151
2.181134
1.889588
1.545671
1.199183
0.896649
0.653967
0.468331
0.345119
0.310283
0.375278
0.506671
0.662380
0.812477
0.949715
1.086720
1.212970
1.312567
1.385745
1.423152
1.415436
1.384808
1.356284
1.334540
1.302275
1.244293
1.179531
1.144227
1.159890
1.224652
1.324249
1.438341
1.544485
1.618130
1.638236
1.601763
1.523206
1.425479
1.332427
1.254104
1.191446
1.150297
1.151465
1.224409
1.363752
1.525071
1.646411
1.670960
1.581648
1.405365
1.188166
0.981021
0.822974
0.712153
0.622608
0.524413
0.412189
0.313526
0.254609
0.236840
0.261855
0.328487
0.412420
0.496586
0.581220
0.663282
0.743006
0.829043
0.900585
0.923496
0.891465
0.830444
0.793503
0.819921
0.888423
0.956692
1.037819
1.138117
1.219478
1.271146
1.302708
1.320009
1.317436
1.266000
1.166870
1.056517
0.967673
0.911561
0.862463
0.787414
0.688049
0.575358
0.447237
0.324259
0.236117
0.196838
0.197773
0.216008
0.243829
0.271417
0.294328
0.318409
0.324721
0.270245
0.140487
-0.032523
-0.201793
-0.347216
-0.493807
-0.639931
-0.732282
-0.744206
-0.705864
-0.652325
-0.579848
-0.465990
-0.301163
-0.101033
0.098629
0.260650
0.379184
0.489069
0.615552
0.763311
0.923930
1.068649
1.168246
1.198640
1.170817
1.126863
1.086649
1.044331
0.999441
0.961098
0.930470
0.908258
0.881605
0.842794
0.827129
0.851677
0.898903
0.945662
0.958988
0.941219
0.921345
0.902875
0.866636
0.798132
0.706016
0.606651
0.521315
0.465670
0.445563
0.449771
0.453745
0.466603
0.499568
0.527389
0.524115
0.483200
0.436440
0.422178
0.425918
0.417501
0.399965
0.398328
0.422175
0.448827
0.466829
0.489974
0.500494
0.463787
0.393648
0.346654
0.383593
0.506570
0.659706
0.803725
0.916882
0.978604
0.992865
0.976265
0.929037
0.852351
0.753220
0.644972
0.554959
0.503991
0.475934
0.425200
0.316250
0.168489
0.027743
-0.106224
-0.254218
-0.403381
-0.516072
-0.583407
-0.643259
-0.714334
-0.760393
-0.773486
-0.809492
-0.919377
-1.082568
-1.222379
-1.289947
-1.289247
-1.234539
-1.137514
-1.027629
-0.936683
-0.869584
-0.808797
-0.741464
-0.668754
-0.596277
-0.525437
-0.447116
-0.372535
-0.317126
-0.278082
-0.248624
-0.205372
-0.143417
-0.073512
0.028891
0.175715
0.351763
0.539969
0.719058
0.905627
1.094301
1.227799
1.292326
1.311731
1.307522
1.272451
1.193661
1.107389
1.031405
0.926195
0.740559
0.448780
0.098083
-0.230870
-0.532002
-0.821443
-1.064593
-1.263555
-1.436098
-1.559076
-1.624774
-1.604901
-1.510682
-1.420203
-1.352169
-1.286005
-1.204644
-1.109021
-1.038181
-0.986746
-0.921050
-0.867277
-0.848107
-0.849978
-0.845770
-0.782411
-0.647511
-0.473800
-0.267358
-0.066059
0.088714
0.221978
0.353605
0.503001
0.671568
0.813015
0.890635
0.896012
0.825404
0.668993
0.444781
0.207944
0.010618
-0.116802
-0.167069
-0.159822
-0.118206
-0.062563
-0.034041
-0.033574
0.002431
0.086129
0.153696
0.159073
0.116989
0.097583
0.155798
0.273631
0.455057
0.705220
0.962396
1.159486
1.249732
1.260953
1.261654
1.239910
1.168368
1.097059
1.099396
1.173042
1.255572
1.315657
1.372235
1.445413
1.531684
1.630813
1.746776
1.854790
1.908329
1.890092
1.833045
1.783713
1.759865
1.730873
1.679905
1.642497
1.658160
1.738820
1.856419
1.964901
2.023817
2.018439
1.991084
1.975653
1.972145
1.968170
1.947128
1.925618
1.884001
1.808250
1.750034
1.712626
1.682232
1.673113
1.682932
1.674982
1.608349
1.486774
1.369641
1.324751
1.368003
1.452403
1.552702
1.689706
1.867859
2.062144
2.241466
2.391797
2.503785
2.539790
2.482041
2.364207
2.220888
2.056996
1.858735
1.634289
1.426910
1.301360
1.282188
1.301593
1.291539
1.225841
1.129984
1.070365
1.051193
1.024773
0.949724
0.810848
0.651631
0.534966
0.492648
0.526080
0.590841
0.629183
0.626611
0.598087
0.556237
0.503632
0.420633
0.306773
0.214423
0.155038
0.099159
0.024578
-0.082502
-0.189816
-0.265801
-0.299936
-0.292922
-0.309289
-0.393456
-0.461960
-0.440918
-0.354648
-0.252245
-0.171820
-0.088121
0.011476
0.076471
0.127438
0.211137
0.321956
0.435348
0.540322
0.669144
0.837009
0.981028
1.063558
1.112888
1.141645
1.144450
1.129954
1.094883
0.982660
0.782295
0.553875
0.338547
0.156652
-0.020333
-0.215555
-0.374537
-0.448885
-0.443976
-0.409843
-0.386931
-0.353732
-0.307207
-0.271905
-0.267697
-0.299494
-0.328953
-0.365894
-0.455205
-0.558778
-0.634996
-0.691108
-0.739037
-0.830920
-0.960444
-1.035260
-1.039002
-1.010713
-0.947120
-0.844484
-0.744186
-0.643653
-0.531899
-0.439316
-0.359124
-0.302078
-0.252981
-0.143799
-0.012873
0.084386
0.172761
0.286386
0.421988
0.506154
0.516441
0.511530
0.543326
0.637779
0.730129
0.782265
0.822244
0.833933
0.812189
0.744855
0.656011
0.605978
0.586806
0.580259
0.586103
0.586337
0.543785
0.469203
0.393686
0.300868
0.180461
0.011425
-0.217697
-0.474407
-0.732987
-0.958134
-1.102154
-1.192868
-1.312573
-1.467113
-1.637085
-1.807056
-1.895432
-1.844465
-1.671923
-1.481379
-1.380379
-1.310240
-1.158974
-0.956974
-0.796590
-0.649999
-0.456416
-0.242492
-0.077666
0.026607
0.162677
0.361170
0.545869
0.677730
0.777094
0.860559
0.944491
1.027722
1.079625
1.117032
1.117732
1.028421
0.882297
0.768204
0.777555
0.859617
0.882061
0.826650
0.712557
0.567368
0.404645
0.201708
0.064702
0.137880
0.370741
0.597057
0.762584
0.918059
1.059973
1.201654
1.372559
1.503719
1.521019
1.356191
1.037759
0.802792
0.687529
0.515220
0.275344
0.002969
-0.167002
-0.123516
-0.088681
-0.160224
-0.207919
-0.212128
-0.141756
0.003198
0.096716
0.141605
0.189299
0.225069
0.346643
0.590259
0.818912
0.930901
0.942356
0.937913
0.976489
1.037276
1.123546
1.300530
1.436132
1.348691
1.061354
0.675120
0.343127
0.112135
-0.172631
-0.474697
-0.604689
-0.632512
-0.642799
-0.674129
-0.760868
-0.757362
-0.682314
-0.676469
-0.650518
-0.552792
-0.543908
-0.649585
-0.720192
-0.689566
-0.581084
-0.538768
-0.580384
-0.532690
-0.464890
-0.532458
-0.676244
-0.728615
-0.584830
-0.347293
-0.210288
-0.240916
-0.286507
-0.220811
-0.205381
-0.354778
-0.548129
-0.632063
-0.564262
-0.492253
-0.548833
-0.697762
-0.921507
-1.165124
-1.296986
-1.336031
-1.357074
-1.350762
-1.285299
-1.094521
-0.751307
-0.416744
-0.203054
-0.015315
0.146472
0.170552
0.068148
-0.028177
-0.099485
-0.314813
-0.731675
-1.110894
-1.257018
-1.313598
-1.445694
-1.613795
-1.673647
-1.577090
-1.497366
-1.494561
-1.398471
-1.166778
-0.872896
-0.588365
-0.303834
0.026988
0.235067
0.182696
-0.042685
-0.358078
-0.704099
-1.020661
-1.321792
-1.570320
-1.734913
-1.964503
-2.266803
-2.485405
-2.613760
-2.700265
-2.797058
-2.956275
-3.075044
-2.968433
-2.638546
-2.279434
-2.042364
-1.997710
-2.049146
-1.950951
-1.635092
-1.270135
-1.091047
-1.124481
-1.203037
-1.272943
-1.307546
-1.230627
-1.043122
-0.709728
-0.225301
0.173089
0.305184
0.213535
0.019249
-0.197248
-0.566415
-1.101577
-1.566367
-1.918232
-2.198790
-2.413182
-2.639732
-2.801287
-2.816017
-2.813913
-2.862777
-2.896445
-2.842205
-2.665922
-2.479119
-2.347959
-2.150167
-1.930398
-1.882470
-2.100838
-2.445923
-2.538741
-2.214231
-1.711802
-1.329544
-1.175472
-1.154431
-1.143443
-1.211479
-1.391737
-1.485724
-1.397583
-1.200493
-1.013923
-0.864995
-0.551006
-0.081541
0.271258
0.423693
0.372491
0.181712
0.090530
0.153655
0.269852
0.449641
0.606051
0.585009
0.389787
0.175628
0.110632
0.174692
0.191291
0.164170
0.224021
0.342556
0.431632
0.448231
0.441450
0.450100
0.429993
0.325719
0.048668
-0.360711
-0.658803
-0.698082
-0.630048
-0.596615
-0.573002
-0.514787
-0.379186
-0.307644
-0.392981
-0.437871
-0.406309
-0.349964
-0.181163
0.050763
0.181689
0.103133
-0.193791
-0.499832
-0.567634
-0.456347
-0.336176
-0.255750
-0.210862
-0.172987
-0.166909
-0.174391
-0.104486
0.019659
0.143805
0.210904
0.193369
0.232880
0.448674
0.748402
0.967002
1.047661
1.060286
1.097692
1.149829
1.151465
1.089742
1.056775
1.110782
1.151462
1.159878
1.117794
0.942446
0.656978
0.300437
-0.048389
-0.320296
-0.552457
-0.765915
-0.981944
-1.203351
-1.363736
-1.478999
-1.587248
-1.648971
-1.637983
-1.497471
-1.224864
-0.918824
-0.625643
-0.324279
-0.073182
0.019168
-0.007486
-0.033905
0.061249
0.243143
0.298552
0.219762
0.193342
0.293407
0.344374
0.217889
-0.018948
-0.314468
-0.578660
-0.788610
-0.870440
-0.752373
-0.629864
-0.588716
-0.610928
-0.655116
-0.679432
-0.829764
-1.026154
-0.955782
-0.703983
-0.646937
-0.890788
-1.161058
-1.201506
-1.181166
-1.317470
-1.545657
-1.708147
-1.710252
-1.635203
-1.580028
-1.521345
-1.400473
-1.262767
-1.223957
-1.320750
-1.440688
-1.356990
-1.172290
-1.233312
-1.519714
-1.756084
-1.826691
-1.782271
-1.721718
-1.731070
-1.728031
-1.660698
-1.605289
-1.614642
-1.775729
-2.009994
-2.173185
-2.266237
-2.279097
-2.237949
-2.169447
-2.134612
-2.289386
-2.599636
-2.910587
-3.080558
-3.177351
-3.367662
-3.499524
-3.581354
-3.831752
-4.178707
-4.519117
-4.913533
-5.283869
-5.444021
-5.242020
-4.656826
-4.020899
-3.513325
-3.039886
-2.600348
-2.260875
-2.127144
-2.140471
-2.292440
-2.648747
-2.998509
-3.119382
-2.964142
-2.643139
-2.379884
-2.323305
-2.541673
-3.092266
-3.887878
-4.524977
-4.628549
-4.314560
-3.842057
-3.331210
-2.839769
-2.356978
-1.958121
-1.732975
-1.657926
-1.743263
-1.916741
-1.880971
-1.454759
-0.874241
-0.399867
-0.017141
0.301757
0.514746
0.611070
0.649646
0.642398
0.523628
0.263645
0.005298
-0.127733
-0.267544
-0.399874
-0.385613
-0.149713
0.281643
0.749237
1.099464
1.106010
0.846962
0.624620
0.495564
0.497901
0.693589
1.157208
1.780745
2.262366
2.514165
2.557184
2.314034
1.816980
1.388195
1.197650
1.046616
0.705739
0.224818
0.015335
0.177823
0.418868
0.746651
1.147612
1.422090
1.579668
1.651210
1.686980
1.758755
1.744493
1.431906
1.002887
0.832214
0.888793
1.111133
1.405717
1.561893
1.568906
1.424653
1.160461
0.949342
0.881774
0.742196
0.344039
-0.169381
-0.564031
-0.753641
-0.893219
-1.070438
-1.287870
-1.609342
-1.828644
-1.778378
-1.631788
-1.603265
-1.879147
-2.368018
-2.737184
-2.860863
-2.768748
-2.521157
-2.192673
-1.827014
-1.495257
-1.238782
-1.051744
-0.897673
-0.687957
-0.543939
-0.680477
-0.979037
-1.252814
-1.559323
-1.985536
-2.468795
-2.809205
-2.890567
-2.956498
-3.114780
-3.021028
-2.640874
-2.280827
-2.107817
-2.220041
-2.361489
-2.311690
-2.305846
-2.251606
-2.016640
-1.860698
-1.934812
-2.125591
-2.301408
-2.444492
-2.480731
-2.464600
-2.405450
-2.215841
-1.981810
-1.715750
-1.460444
-1.275745
-1.138506
-1.154171
-1.365992
-1.577346
-1.507207
-1.224780
-1.016935
-0.822884
-0.577398
-0.357629
-0.196543
-0.202155
-0.383115
-0.617848
-0.754386
-0.662270
-0.471726
-0.412342
-0.380780
-0.115655
0.290918
0.529624
0.534767
0.444521
0.331362
0.091486
-0.371901
-0.921793
-1.296804
-1.449942
-1.546969
-1.645865
-1.726994
-1.880599
-2.221242
-2.745884
-3.378072
-3.995064
-4.412860
-4.450269
-4.171349
-3.928434
-3.903419
-3.941294
-3.848010
-3.628709
-3.438398
-3.407304
-3.577509
-3.751922
-3.664950
-3.341843
-2.939946
-2.678562
-2.674821
-2.856950
-3.266564
-3.846615
-4.357930
-4.604587
-4.433214
-3.916289
-3.259086
-2.699843
-2.518417
-2.778167
-3.225655
-3.440048
-3.388146
-3.342790
-3.324554
-3.299071
-3.285043
-3.252546
-3.159496
-2.987421
-2.760405
-2.564483
-2.516556
-2.595813
-2.696347
-2.736327
-2.674605
-2.640237
-2.684893
-2.568463
-2.218703
-1.849070
-1.565007
-1.275099
-0.908739
-0.587736
-0.480424
-0.578619
-0.693882
-0.703234
-0.650163
-0.627953
-0.690845
-0.837904
-1.065390
-1.291005
-1.409307
-1.353897
-1.107008
-0.859885
-0.778290
-0.862224
-1.075448
-1.324209
-1.575775
-1.822432
-2.016017
-2.211472
-2.460934
-2.715306
-2.902812
-2.946533
-2.795500
-2.427972
-1.888836
-1.322813
-0.861766
-0.586119
-0.508499
-0.486757
-0.408903
-0.330581
-0.299955
-0.361210
-0.504061
-0.620259
-0.643639
-0.500556
-0.158745
0.252036
0.553167
0.636865
0.509913
0.272140
0.064294
0.076918
0.332692
0.526509
0.545213
0.528612
0.487931
0.523000
0.695542
0.882111
1.064473
1.244730
1.310894
1.185578
0.894266
0.555727
0.334086
0.215317
0.042774
-0.172321
-0.355852
-0.465270
-0.389988
-0.108496
0.268618
0.608559
0.789283
0.775021
0.611596
0.322622
-0.032283
-0.316581
-0.463640
-0.561368
-0.733443
-0.924456
-0.920950
-0.642498
-0.226807
0.141891
0.325655
0.308119
0.155683
-0.058710
-0.254866
-0.481884
-0.826970
-1.251078
-1.661159
-1.916701
-1.930729
-1.831132
-1.771047
-1.706285
-1.589387
-1.504052
-1.471555
-1.413106
-1.291298
-1.141903
-1.044176
-0.982688
-0.853399
-0.725980
-0.725513
-0.790041
-0.773442
-0.643919
-0.520709
-0.521878
-0.579159
-0.563028
-0.590850
-0.808984
-1.179319
-1.548954
-1.743473
-1.749553
-1.607171
-1.350228
-1.095390
-0.948800
-0.928694
-1.030162
-1.233800
-1.439309
-1.546389
-1.551533
-1.578654
-1.753535
-2.029884
-2.290802
-2.464047
-2.549851
-2.598014
-2.633785
-2.630980
-2.594508
-2.554997
-2.523669
-2.501927
-2.406070
-2.190978
-1.868104
-1.415941
-0.946477
-0.583624
-0.289040
-0.015030
0.192815
0.249861
0.153536
-0.000537
-0.098733
-0.079562
0.066327
0.297552
0.477341
0.532049
0.502590
0.382184
0.167324
-0.133574
-0.492687
-0.780258
-0.973376
-1.210213
-1.541738
-1.865548
-2.054690
-2.130675
-2.152185
-2.017051
-1.601828
-0.985772
-0.399643
0.013476
0.280705
0.437115
0.457689
0.345465
0.060700
-0.328106
-0.651214
-0.871919
-0.916108
-0.792663
-0.709432
-0.730007
-0.774897
-0.806694
-0.779106
-0.703590
-0.660338
-0.678809
-0.738428
-0.757600
-0.640234
-0.435195
-0.310581
-0.339105
-0.498322
-0.701726
-0.802727
-0.818626
-0.844578
-0.828447
-0.798755
-0.915421
-1.188263
-1.503422
-1.744935
-1.822790
-1.779071
-1.727402
-1.705192
-1.734417
-1.819754
-1.938991
-2.060099
-2.085583
-1.957697
-1.784454
-1.726473
-1.769024
-1.767388
-1.692106
-1.642074
-1.687198
-1.774405
-1.804331
-1.737700
-1.580355
-1.341181
-1.072548
-0.888317
-0.855586
-0.919647
-0.978097
-0.972252
-0.886683
-0.783112
-0.726066
-0.644939
-0.514714
-0.415585
-0.354798
-0.361813
-0.470295
-0.614081
-0.755295
-0.864713
-0.960804
-1.114410
-1.247207
-1.239493
-1.108099
-0.956599
-0.875940
-0.874304
-0.914050
-1.011310
-1.184788
-1.361540
-1.418587
-1.334420
-1.206300
-1.055969
-0.824277
-0.516366
-0.190220
0.099454
0.287894
0.354292
0.349849
0.301920
0.256563
0.289995
0.368317
0.401048
0.361536
0.287655
0.225464
0.194836
0.164910
0.119085
0.089158
0.002185
-0.184152
-0.360436
-0.470321
-0.531577
-0.558464
-0.560101
-0.515914
-0.434787
-0.389431
-0.383587
-0.324437
-0.168027
0.012464
0.173783
0.383499
0.644182
0.880784
