EVENT_NAME: 202302060117
EVENT_ID: 13194
EVENT_DATE_YYYYMMDD: 2023/02/06
EVENT_TIME_HHMMSS: 01:17:32.00000
EVENT_LATITUDE_DEGREE: 37.288
EVENT_LONGITUDE_DEGREE: 37.043
EVENT_DEPTH_KM: 8.6
HYPOCENTER_REFERENCE: AFAD
MAGNITUDE_W: 7.7
MAGNITUDE_W_REFERENCE: AFAD
MAGNITUDE_L: 
MAGNITUDE_L_REFERENCE: 
FOCAL_MECHANISM: 
NETWORK: TK
STATION_CODE: 2108
STATION_NAME: 
STATION_LATITUDE_DEGREE: 38.48776
STATION_LONGITUDE_DEGREE: 41.002003
STATION_ELEVATION_M: 920.0
LOCATION: Kahramanmaras_Pazarck_Turkiye
SENSOR_DEPTH_M: 
VS30_M/S: None
SITE_CLASSIFICATION_EC8: unknown
MORPHOLOGIC_CLASSIFICATION: 
EPICENTRAL_DISTANCE_KM: 372.12
EARTHQUAKE_BACKAZIMUTH_DEGREE: 
DATE_TIME_FIRST_SAMPLE_YYYYMMDD_HHMMSS: 2023/02/06 01:17:59.5119070
DATE_TIME_FIRST_SAMPLE_PRECISION: millisecond
SAMPLING_INTERVAL_S: 0.005
NDATA: 42001
DURATION_S: 
STREAM: HNZ
UNITS: cm/s^2
INSTRUMENT: sensor = GEO-A200,/GEObit | digitizer = 
INSTRUMENT_ANALOG/DIGITAL: 
INSTRUMENTAL_FREQUENCY_HZ: 
INSTRUMENTAL_DAMPING: 
FULL_SCALE_G: 
N_BIT_DIGITAL_CONVERTER: 
PGA_CM/S^2: 12.280
TIME_PGA_S: 
BASELINE_CORRECTION: BASELINE REMOVED
FILTER_TYPE: BUTTERWORTH
FILTER_ORDER: 
LOW_CUT_FREQUENCY_HZ: 
HIGH_CUT_FREQUENCY_HZ: 
LATE/NORMAL_TRIGGERED: 
DATABASE_VERSION: 
HEADER_FORMAT: DYNA 1.2
DATA_TYPE: Acceleration
PROCESSING: Automatic Paolucci et al., 2011
DATA_TIMESTAMP_YYYYMMDD_HHMMSS: 
DATA_LICENSE: U (unknown license)
DATA_CITATION: Turkish Accelerometric Archive v 1.0 - Disaster And Emergency Management Presidency, Earthquake Department
DATA_CREATOR: AFAD
ORIGINAL_DATA_MEDIATOR_CITATION: : AFAD - Disaster And Emergency Management Presidency
ORIGINAL_DATA_MEDIATOR: AFAD PROCESS SERVICE
ORIGINAL_DATA_CREATOR_CITATION: AFAD PROCESS SERVICE
ORIGINAL_DATA_CREATOR: network: TK
USER1: GuestUser
USER2: 
USER3: 
USER4: 
USER5: 
[...]
0.799258
0.944744
1.065277
1.112831
1.096116
1.036085
0.978407
0.949216
0.932972
0.926615
0.881886
0.788896
0.701556
0.637758
0.600092
0.536058
0.417644
0.289342
0.180344
0.106187
0.041212
-0.070375
-0.256590
-0.489416
-0.722949
-0.909399
-1.008745
-1.020516
-0.975552
-0.906811
-0.823003
-0.738960
-0.652092
-0.551569
-0.461876
-0.425858
-0.414558
-0.357588
-0.263892
-0.187618
-0.228110
-0.412676
-0.643149
-0.815474
-0.880684
-0.900930
-0.948720
-1.027349
-1.111393
-1.204618
-1.328212
-1.454395
-1.558214
-1.618245
-1.608829
-1.540088
-1.468286
-1.446157
-1.454868
-1.464991
-1.460754
-1.459106
-1.521727
-1.648852
-1.813644
-1.971608
-2.086727
-2.167946
-2.198079
-2.171948
-2.061303
-1.867321
-1.652857
-1.483829
-1.426858
-1.460288
-1.520084
-1.557751
-1.574465
-1.608601
-1.650035
-1.695706
-1.743731
-1.812708
-1.937008
-2.081554
-2.226099
-2.365466
-2.457985
-2.483410
-2.425262
-2.270124
-2.026704
-1.765157
-1.564112
-1.412504
-1.253128
-1.035369
-0.781120
-0.536994
-0.321588
-0.161506
-0.048977
0.040245
0.144770
0.287196
0.445395
0.618426
0.777566
0.883503
0.925172
0.894096
0.821588
0.745784
0.676807
0.633019
0.629252
0.656324
0.724359
0.837594
0.994145
1.211905
1.477454
1.771488
2.066229
2.343548
2.639701
2.979406
3.363369
3.757220
4.121879
4.445576
4.688289
4.850020
4.968669
5.037881
5.057185
5.025874
4.936651
4.817060
4.680754
4.531500
4.375183
4.217219
4.071025
3.944842
3.842435
3.765219
3.726139
3.738852
3.815126
3.937071
4.061135
4.142353
4.150357
4.123519
4.112219
4.145412
4.237460
4.352813
4.472169
4.608475
4.746663
4.860369
4.939939
5.015978
5.149223
5.379931
5.681498
5.978358
6.189761
6.282750
6.281573
6.207652
6.092297
5.936216
5.727402
5.494811
5.249742
4.975953
4.654610
4.306901
3.977789
3.711533
3.511900
3.355348
3.245644
3.163248
3.095448
3.023410
2.954668
2.926889
2.943368
3.036592
3.206562
3.420320
3.632900
3.768970
3.798632
3.732245
3.600647
3.431618
3.226570
2.983621
2.686761
2.330811
1.943081
1.560765
1.224355
0.927025
0.644525
0.361084
0.047039
-0.281367
-0.599179
-0.888976
-1.122273
-1.296482
-1.425725
-1.521775
-1.601817
-1.675267
-1.724705
-1.745893
-1.730120
-1.687981
-1.668677
-1.691513
-1.739538
-1.781913
-1.811340
-1.851597
-1.904801
-1.955416
-2.004147
-2.062295
-2.147281
-2.259104
-2.381991
-2.516179
-2.671083
-2.869303
-3.110369
-3.360146
-3.573669
-3.716802
-3.804612
-3.850283
-3.860407
-3.819680
-3.716097
-3.603333
-3.508696
-3.415472
-3.278460
-3.076944
-2.866247
-2.690392
-2.574332
-2.527720
-2.512889
-2.466277
-2.331855
-2.101383
-1.832303
-1.583704
-1.361236
-1.142535
-0.926894
-0.743035
-0.590956
-0.456298
-0.335295
-0.223944
-0.151671
-0.126953
-0.149553
-0.206053
-0.269851
-0.324703
-0.332002
-0.296219
-0.229361
-0.115891
0.033598
0.193681
0.332811
0.466763
0.642618
0.848136
1.064718
1.261526
1.420667
1.541435
1.605468
1.636778
1.656081
1.673267
1.660083
1.587339
1.483756
1.394062
1.358043
1.364870
1.407951
1.480223
1.550847
1.619118
1.701984
1.803919
1.903735
1.959763
1.952230
1.895494
1.774961
1.603578
1.423249
1.260105
1.147341
1.063297
0.999499
0.967482
0.955005
0.950061
0.922046
0.893089
0.887204
0.871431
0.826937
0.722412
0.551735
0.329973
0.092438
-0.117083
-0.332018
-0.588857
-0.909023
-1.251318
-1.528403
-1.737924
-1.901538
-2.041376
-2.182861
-2.317048
-2.439700
-2.536221
-2.571299
-2.527041
-2.411923
-2.268790
-2.162618
-2.116712
-2.132956
-2.189456
-2.237481
-2.274442
-2.301750
-2.311167
-2.283624
-2.174627
-1.990296
-1.776774
-1.580908
-1.444367
-1.373037
-1.333487
-1.299117
-1.255800
-1.216957
-1.219076
-1.261451
-1.337256
-1.418004
-1.461320
-1.450256
-1.365271
-1.212958
-1.006027
-0.743068
-0.446209
-0.139462
0.165872
0.473090
0.794197
1.096000
1.336124
1.513392
1.641458
1.729974
1.781765
1.813546
1.836381
1.855449
1.885818
1.922072
1.942317
1.897117
1.762929
1.585896
1.413101
1.263376
1.127776
1.003711
0.905543
0.867405
0.915429
1.004887
1.111060
1.237948
1.372135
1.524685
1.665934
1.779404
1.891462
1.992219
2.081442
2.160306
2.235874
2.299436
2.310500
2.258708
2.147356
1.987744
1.784344
1.532449
1.255599
0.984165
0.739096
0.518040
0.296514
0.075458
-0.126765
-0.301679
-0.437750
-0.538273
-0.591713
-0.590065
-0.535214
-0.418918
-0.255069
-0.057555
0.129365
0.266612
0.358424
0.428342
0.480604
0.476366
0.404093
0.294389
0.188216
0.055206
-0.154315
-0.429281
-0.732497
-1.025826
-1.316094
-1.617427
-1.916641
-2.194903
-2.444444
-2.638192
-2.737537
-2.766494
-2.762492
-2.757313
-2.792626
-2.854305
-2.917868
-2.950356
-2.879966
-2.722709
-2.514837
-2.273065
-2.011989
-1.700299
-1.342231
-0.943908
-0.545584
-0.193873
0.108636
0.376539
0.647267
0.929060
1.212030
1.457098
1.641428
1.771613
1.854950
1.874018
1.817282
1.726882
1.648959
1.603524
1.593165
1.622827
1.673206
1.719112
1.731353
1.701690
1.681209
1.672263
1.650133
1.595517
1.520183
1.482987
1.488166
1.550316
1.668259
1.791381
1.880603
1.914974
1.955700
2.037625
2.143562
2.259857
2.376858
2.510339
2.662182
2.824148
2.967045
3.049676
3.056502
3.002592
2.921844
2.814494
2.667123
2.504450
2.341307
2.167805
1.989124
1.818212
1.694853
1.668251
1.727576
1.823154
1.933564
2.060688
2.200525
2.327649
2.413105
2.450300
2.443944
2.411221
2.363902
2.328118
2.329295
2.388855
2.521629
2.670177
2.787884
2.850975
2.866277
2.908416
2.988222
3.082623
3.170198
3.252829
3.371713
3.531090
3.718716
3.916230
4.108329
4.276886
4.411073
4.524072
4.640603
4.773377
4.909212
5.047166
5.168405
5.247504
5.301179
5.354382
5.420534
5.494690
5.546245
5.556603
5.526705
5.450195
5.333428
5.182055
4.997960
4.807508
4.613289
4.409654
4.214729
4.041698
3.904686
3.808165
3.733773
3.663619
3.587344
3.482584
3.320853
3.061188
2.680050
2.206392
1.691773
1.181155
0.672421
0.138262
-0.413789
-0.959719
-1.472455
-1.929633
-2.302768
-2.562432
-2.706742
-2.752649
-2.740172
-2.704625
-2.666017
-2.643417
-2.649538
-2.686970
-2.715926
-2.675670
-2.551371
-2.391288
-2.291002
-2.299241
-2.374810
-2.440962
-2.431781
-2.330553
-2.164350
-1.999559
-1.905393
-1.895741
-1.951770
-2.028281
-2.098435
-2.177535
-2.276175
-2.396708
-2.549022
-2.770784
-3.078238
-3.452550
-3.851345
-4.214827
-4.536877
-4.820553
-5.074803
-5.320342
-5.516208
-5.643098
-5.723610
-5.781523
-5.844615
-5.898761
-5.952907
-6.024003
-6.094863
-6.125703
-6.047781
-5.855682
-5.574360
-5.239128
-4.899187
-4.584907
-4.308765
-4.031210
-3.707277
-3.315310
-2.895093
-2.506421
-2.163421
-1.859734
-1.568996
-1.297326
-1.067325
-0.883936
-0.719616
-0.522573
-0.297752
-0.086348
0.070674
0.138709
0.126702
0.077029
0.054664
0.107397
0.208626
0.301144
0.351052
0.375535
0.425207
0.519844
0.626723
0.679691
0.644849
0.555155
0.458635
0.398603
0.376709
0.356463
0.323740
0.291488
0.295725
0.349870
0.454630
0.632840
0.882145
1.168410
1.436078
1.639477
1.764483
1.822866
1.853234
1.887134
1.921033
1.932333
1.886662
1.725402
1.429012
1.049051
0.662497
0.326794
0.050886
-0.147805
-0.241266
-0.228083
-0.125206
0.013218
0.135869
0.218736
0.271704
0.317139
0.359278
0.420957
0.512062
0.617058
0.731234
0.852238
1.001962
1.211011
1.479385
1.771065
2.017545
2.205642
2.351835
2.458243
2.526749
2.522982
2.437761
2.291332
2.113828
1.901953
1.634285
1.360731
1.126963
0.947340
0.803030
0.664369
0.503580
0.302064
0.106904
-0.054828
-0.162648
-0.175597
-0.110151
-0.020458
0.017208
-0.020459
-0.089671
-0.151586
-0.202436
-0.280830
-0.377822
-0.469163
-0.531313
-0.534139
-0.512716
-0.498356
-0.516719
-0.570394
-0.628778
-0.653261
-0.644551
-0.625247
-0.585227
-0.517898
-0.425615
-0.341572
-0.296137
-0.245523
-0.139115
0.009667
0.168573
0.312412
0.449659
0.586200
0.689312
0.786538
0.928729
1.067389
1.157082
1.212169
1.269375
1.342824
1.381197
1.367778
1.328228
1.305627
1.313867
1.331287
1.356005
1.351532
1.279495
1.166730
1.077978
1.066913
1.150956
1.305860
1.514909
1.763508
2.017521
2.257174
2.482467
2.703523
2.899153
3.062296
3.243095
3.484867
3.771839
4.010786
4.146150
4.223836
4.295873
4.381565
4.474554
4.548003
4.585434
4.613213
4.694902
4.881822
5.148783
5.446819
5.765337
6.107161
6.464522
6.791279
7.041290
7.189602
7.247514
7.236449
7.140399
6.953243
6.675923
6.311028
5.908466
5.526150
5.190211
4.887466
4.567771
4.200993
3.803610
3.423884
3.107249
2.858649
2.658781
2.487398
2.341910
2.236444
2.178767
2.159933
2.152635
2.138510
2.133801
2.146278
2.174998
2.237148
2.342143
2.470444
2.551898
2.548837
2.519410
2.523647
2.560372
2.587680
2.560606
2.484096
2.370625
2.200654
1.985013
1.730528
1.431550
1.061240
0.631841
0.242933
-0.066404
-0.309353
-0.502865
-0.630697
-0.689315
-0.765355
-0.920730
-1.118715
-1.260671
-1.291747
-1.228891
-1.142964
-1.098000
-1.137786
-1.277623
-1.487144
-1.774351
-2.163494
-2.670581
-3.226634
-3.722184
-4.144992
-4.538137
-4.959532
-5.373629
-5.700622
-5.901197
-5.983828
-6.016080
-5.984535
-5.840696
-5.584799
-5.230969
-4.847948
-4.498120
-4.193727
-3.903695
-3.600244
-3.315156
-3.078092
-2.841499
-2.532399
-2.157617
-1.771535
-1.448309
-1.249383
-1.210304
-1.350612
-1.603214
-1.901486
-2.221888
-2.532402
-2.833970
-3.121648
-3.417331
-3.755860
-4.122403
-4.470348
-4.718241
-4.838304
-4.875500
-4.875500
-4.873852
-4.856196
-4.755439
-4.533442
-4.189264
-3.762220
-3.321992
-2.897537
-2.490974
-2.089826
-1.689383
-1.320251
-1.001263
-0.727945
-0.500769
-0.311495
-0.159417
-0.065015
-0.041709
-0.088087
-0.182724
-0.281364
-0.344691
-0.359052
-0.332921
-0.297373
-0.281836
-0.325153
-0.428501
-0.539618
-0.626722
-0.673334
-0.699937
-0.753612
-0.862610
-1.029520
-1.209849
-1.364282
-1.487640
-1.574745
-1.635718
-1.672678
-1.657377
-1.550498
-1.330855
-1.075429
-0.916995
-0.912522
-1.004099
-1.064366
-1.029760
-0.939831
-0.835542
-0.741376
-0.658275
-0.581059
-0.542922
-0.555634
-0.621787
-0.731962
-0.819537
-0.829424
-0.769394
-0.690765
-0.646272
-0.666047
-0.715485
-0.731258
-0.669579
-0.499138
-0.241829
0.042318
0.291388
0.476895
0.611553
0.713488
0.819189
0.944195
1.036713
1.026825
0.900406
0.683117
0.412859
0.128947
-0.101525
-0.221352
-0.260902
-0.243011
-0.188159
-0.086460
0.074800
0.242180
0.383900
0.462293
0.473358
0.426980
0.341995
0.242649
0.118585
-0.033259
-0.210057
-0.361665
-0.473959
-0.604615
-0.790123
-0.969746
-1.074977
-1.133360
-1.206340
-1.319340
-1.428573
-1.514971
-1.556875
-1.542986
-1.486722
-1.372781
-1.210815
-0.984581
-0.675009
-0.300933
0.103982
0.476174
0.800577
1.100497
1.369577
1.612055
1.795679
1.863714
1.813570
1.671850
1.467744
1.240332
0.973134
0.629897
0.236046
-0.178757
-0.586263
-1.015191
-1.463188
-1.850447
-2.155782
-2.376367
-2.512203
-2.574353
-2.645449
-2.800353
-3.021173
-3.234696
-3.351462
-3.405844
-3.451986
-3.501423
-3.532969
-3.526378
-3.501189
-3.401373
-3.233992
-3.072733
-2.968914
-2.941842
-2.923480
-2.861801
-2.745977
-2.615792
-2.545403
-2.547993
-2.597666
-2.674412
-2.761045
-2.855447
-2.982808
-3.181499
-3.417151
-3.616313
-3.766273
-3.868444
-3.933655
-3.976971
-4.009224
-4.018405
-3.992745
-3.956962
-3.926594
-3.915765
-3.916707
-3.934364
-3.971089
-3.977210
-3.917650
-3.800884
-3.698949
-3.672818
-3.733085
-3.855031
-3.943783
-3.950140
-3.910590
-3.847028
-3.789351
-3.767929
-3.764398
-3.771696
-3.791471
-3.805832
-3.782997
-3.688125
-3.569946
-3.456476
-3.318522
-3.122186
-2.861581
-2.618396
-2.407935
-2.206419
-2.005845
-1.820337
-1.714871
-1.660961
-1.633889
-1.635302
-1.638127
-1.615527
-1.567973
-1.576684
-1.684740
-1.875663
-2.099309
-2.317539
-2.552485
-2.788137
-2.980236
-3.097003
-3.150207
-3.226482
-3.408695
-3.706732
-4.059385
-4.413451
-4.735736
-4.961971
-5.102750
-5.227285
-5.376068
-5.591710
-5.860084
-6.129636
-6.328563
-6.404132
-6.375411
-6.235810
-5.976146
-5.594537
-5.145128
-4.699486
-4.241603
-3.803494
-3.430360
-3.131617
-2.949170
-2.941402
-3.143860
-3.492040
-3.875062
-4.243018
-4.589080
-4.938437
-5.298389
-5.607490
-5.768750
-5.747563
-5.651278
-5.630797
-5.734616
-5.924362
-6.123289
-6.273720
-6.370241
-6.400374
-6.399904
-6.385779
-6.351408
-6.316803
-6.259126
-6.191327
-6.047958
-5.800772
-5.511446
-5.207054
-4.951157
-4.724687
-4.540121
-4.360734
-4.078942
-3.684149
-3.196132
-2.762026
-2.488943
-2.367940
-2.357817
-2.422792
-2.566867
-2.738721
-2.920227
-3.099850
-3.268408
-3.429668
-3.540550
-3.560796
-3.482873
-3.334326
-3.135635
-2.933884
-2.711416
-2.410320
-2.063552
-1.709251
-1.395207
-1.105645
-0.773474
-0.339367
0.191966
0.722594
1.177182
1.501585
1.742415
1.953347
2.136030
2.280340
2.360851
2.402755
2.426296
2.466788
2.513871
2.598855
2.785540
3.065449
3.409392
3.754747
4.109754
4.482652
4.846605
5.138991
5.287068
5.304959
5.227272
5.133811
5.067659
4.992796
4.898159
4.799519
4.725834
4.726069
4.852958
5.098261
5.404301
5.657609
5.795797
5.861949
5.905030
6.019677
6.256741
6.590796
6.940624
7.226889
7.458774
7.658641
7.908417
8.273312
8.736139
9.256644
9.757609
10.203015
10.579445
10.869713
11.124668
11.397515
11.684487
11.918254
12.025604
12.034785
12.020189
12.073392
12.195102
12.280087
12.265020
12.121416
11.921783
11.766879
11.621156
11.386446
11.005543
10.488334
9.882608
9.242041
8.609242
7.970323
7.249714
6.393035
5.433715
4.509001
3.765792
3.223864
2.857321
2.644034
2.528209
2.451228
2.406969
2.435454
2.525618
2.628966
2.683817
2.708771
2.805291
3.057186
3.504476
4.046639
4.489691
4.685086
4.642005
4.446609
4.161285
3.841825
3.466572
2.975258
2.369297
1.757922
1.255779
0.820024
0.306346
-0.423444
-1.392417
-2.449199
-3.407107
-4.118299
-4.587013
-4.934487
-5.199330
-5.402965
-5.538095
-5.614605
-5.656039
-5.625199
-5.486304
-5.193212
-4.744980
-4.146082
-3.507399
-2.980538
-2.553965
-2.205785
-1.911044
-1.730951
-1.797810
-2.089255
-2.467804
-2.775022
-2.938401
-3.062466
-3.284463
-3.615929
-3.953752
-4.197878
-4.358197
-4.528168
-4.758169
-4.978284
-5.103761
-5.107528
-4.994999
-4.807608
-4.673186
-4.687311
-4.762880
-4.709441
-4.401988
-3.925036
-3.463856
-3.080364
-2.689103
-2.245579
-1.811708
-1.443282
-1.135829
-0.795653
-0.325999
0.251005
0.842606
1.349456
1.647963
1.636192
1.263293
0.547392
-0.394743
-1.437636
-2.465462
-3.346154
-4.020856
-4.496161
-4.811384
-5.031733
-5.225010
-5.428881
-5.602853
-5.643816
-5.443948
-4.967937
-4.233911
-3.321439
-2.402375
-1.677765
-1.258960
-1.080751
-0.956922
-0.745990
-0.477616
-0.267154
-0.190644
-0.273747
-0.528702
-0.920435
-1.384675
-1.843737
-2.223228
-2.494663
-2.670283
-2.841431
-3.005281
-3.015639
-2.741145
-2.119411
-1.242016
-0.272338
0.665794
1.526004
2.371147
3.210405
3.966089
4.572992
5.055829
5.557030
6.181353
6.904079
7.557358
7.911895
7.851628
7.496149
7.085348
6.760238
6.495395
6.172640
5.735943
5.210494
4.630193
3.975501
3.293971
2.724971
2.368551
2.196461
2.036143
1.784483
1.456312
1.098951
0.784199
0.547606
0.363510
0.258044
0.343028
0.681556
1.193115
1.706321
2.078749
2.261432
2.338648
2.425751
2.578065
2.795118
2.980861
3.085857
3.153421
3.216512
3.246174
3.148711
2.904585
2.592423
2.335819
2.177384
2.002234
1.641341
0.976291
0.085476
-0.822053
-1.533245
-1.945458
-2.180875
-2.447837
-2.893950
-3.462009
-3.880108
-3.983221
-3.914951
-3.957561
-4.253008
-4.653687
-4.939247
-5.034120
-5.005399
-4.927241
-4.801530
-4.643566
-4.454762
-4.211578
-3.859396
-3.417521
-3.012605
-2.714804
-2.543422
-2.444077
-2.316952
-2.143451
-2.011383
-2.035867
-2.223729
-2.444785
-2.567201
-2.550723
-2.445492
-2.339555
-2.239033
-2.110731
-1.920986
-1.719000
-1.622950
-1.651671
-1.790332
-1.985492
-2.205606
-2.438904
-2.593337
-2.658547
-2.730585
-2.889020
-3.051693
-3.016616
-2.706103
-2.227738
-1.757377
-1.316208
-0.705775
0.150668
1.111636
1.946186
2.487407
2.857009
3.208956
3.600452
4.067753
4.500447
4.763171
4.836150
4.759168
4.624981
4.517631
4.435235
4.475020
4.693721
4.934551
5.061440
5.048492
5.027540
5.185739
5.610429
6.224865
6.803988
7.134747
7.131215
6.881439
6.441446
5.802762
4.971743
3.950979
2.865711
1.849185
1.018637
0.449165
0.058374
-0.272856
-0.644107
-0.988286
-1.099873
-0.887293
-0.428468
0.098393
0.603831
1.130456
1.820931
2.785194
3.970043
5.243407
6.447324
7.504342
8.330887
8.827850
9.034545
9.091044
9.221935
9.426041
9.404382
8.945085
8.167271
7.562722
7.485505
7.842866
8.314404
8.624447
8.757221
8.792062
8.731325
8.512388
8.133132
7.695494
7.306115
6.938160
6.415771
5.648550
4.690878
3.720728
2.944091
2.477496
2.356727
2.441947
2.572368
2.725152
2.927139
3.163967
3.262606
3.095225
2.752224
2.426643
2.245608
2.144849
2.028083
1.838337
1.562194
1.202243
0.756364
0.332145
-0.000498
-0.271698
-0.489694
-0.606696
-0.516061
-0.171412
0.279174
0.550137
0.516473
0.376164
0.433841
0.819687
1.424706
2.068098
2.607671
2.964326
3.114050
3.009290
2.657578
2.192631
1.781594
1.455308
1.098652
0.623582
0.001848
-0.757369
-1.603925
-2.505333
-3.442524
-4.328395
-4.957427
-5.162239
-5.081962
-5.033938
-5.178954
-5.385414
-5.399304
-5.151647
-4.802054
-4.572524
-4.454816
-4.155838
-3.482314
-2.577610
-1.749182
-1.146517
-0.744192
-0.485234
-0.249348
0.124492
0.661476
1.064272
0.942091
0.280807
-0.538911
-1.091904
-1.243983
-1.215969
-1.391354
-2.028625
-3.059277
-4.119826
-4.880455
-5.339988
-5.713122
-6.102265
-6.385235
-6.414427
-6.210322
-5.960075
-5.856963
-5.851078
-5.657331
-5.084564
-4.224590
-3.378270
-2.744766
-2.263811
-1.791096
-1.211738
-0.591888
-0.210279
-0.270781
-0.687468
-1.113806
-1.212681
-0.982680
-0.737848
-0.788227
-1.106981
-1.476113
-1.775798
-1.966721
-2.090785
-2.177419
-2.311842
-2.569622
-2.896145
-3.257038
-3.534123
-3.631350
-3.614165
-3.616519
-3.711627
-3.750001
-3.562374
-3.149455
-2.603997
-2.019930
-1.447163
-0.952554
-0.523156
0.003705
0.661221
1.306967
1.871023
2.436728
3.150979
3.889244
4.292511
4.135724
3.532588
2.926156
2.672848
2.812449
3.035388
3.112369
3.196176
3.345194
3.404754
3.177107
2.747708
2.472506
2.486160
2.637767
2.704154
2.775956
3.161332
3.834621
4.408800
4.419629
3.774825
2.897664
2.329370
2.252388
2.364211
2.334548
2.213544
2.205539
2.215191
1.938342
1.288122
0.516429
-0.190997
-0.859578
-1.447648
-1.718141
-1.471661
-0.967165
-0.611687
-0.491625
-0.420765
-0.153568
0.551031
1.620761
2.538648
3.060329
3.373668
3.762810
4.364062
5.067720
5.644489
5.915217
5.772319
5.010042
3.754333
2.628809
2.122429
2.047331
1.788844
1.169229
0.497116
0.031227
-0.252920
-0.520824
-0.864296
-1.139027
-0.989538
-0.514704
-0.199483
-0.126269
0.064653
0.577625
0.955467
0.745005
0.027221
-0.769662
-1.128907
-1.071466
-1.060873
-1.334662
-1.440129
-0.886195
-0.139691
0.173412
0.220730
0.292767
0.403412
0.684263
1.199588
1.755641
1.933144
1.592968
