EVENT_NAME: 202302060117
EVENT_ID: 13194
EVENT_DATE_YYYYMMDD: 2023/02/06
EVENT_TIME_HHMMSS: 01:17:32.00000
EVENT_LATITUDE_DEGREE: 37.288
EVENT_LONGITUDE_DEGREE: 37.043
EVENT_DEPTH_KM: 8.6
HYPOCENTER_REFERENCE: AFAD
MAGNITUDE_W: 7.7
MAGNITUDE_W_REFERENCE: AFAD
MAGNITUDE_L: 
MAGNITUDE_L_REFERENCE: 
FOCAL_MECHANISM: 
NETWORK: TK
STATION_CODE: 5804
STATION_NAME: 
STATION_LATITUDE_DEGREE: 39.18482
STATION_LONGITUDE_DEGREE: 36.08072
STATION_ELEVATION_M: 1200.0
LOCATION: Kahramanmaras_Pazarck_Turkiye
SENSOR_DEPTH_M: 
VS30_M/S: 392
SITE_CLASSIFICATION_EC8: unknown
MORPHOLOGIC_CLASSIFICATION: 
EPICENTRAL_DISTANCE_KM: 227.04
EARTHQUAKE_BACKAZIMUTH_DEGREE: 
DATE_TIME_FIRST_SAMPLE_YYYYMMDD_HHMMSS: 2023/02/06 01:17:51.1446620
DATE_TIME_FIRST_SAMPLE_PRECISION: millisecond
SAMPLING_INTERVAL_S: 0.01
NDATA: 14501
DURATION_S: 
STREAM: HNE
UNITS: cm/s^2
INSTRUMENT: sensor = GMS+/GEOSIG | digitizer = 
INSTRUMENT_ANALOG/DIGITAL: 
INSTRUMENTAL_FREQUENCY_HZ: 
INSTRUMENTAL_DAMPING: 
FULL_SCALE_G: 
N_BIT_DIGITAL_CONVERTER: 
PGA_CM/S^2: 21.611
TIME_PGA_S: 
BASELINE_CORRECTION: BASELINE REMOVED
FILTER_TYPE: BUTTERWORTH
FILTER_ORDER: 
LOW_CUT_FREQUENCY_HZ: 
HIGH_CUT_FREQUENCY_HZ: 
LATE/NORMAL_TRIGGERED: 
DATABASE_VERSION: 
HEADER_FORMAT: DYNA 1.2
DATA_TYPE: Acceleration
PROCESSING: Automatic Paolucci et al., 2011
DATA_TIMESTAMP_YYYYMMDD_HHMMSS: 
DATA_LICENSE: U (unknown license)
DATA_CITATION: Turkish Accelerometric Archive v 1.0 - Disaster And Emergency Management Presidency, Earthquake Department
DATA_CREATOR: AFAD
ORIGINAL_DATA_MEDIATOR_CITATION: : AFAD - Disaster And Emergency Management Presidency
ORIGINAL_DATA_MEDIATOR: AFAD PROCESS SERVICE
ORIGINAL_DATA_CREATOR_CITATION: AFAD PROCESS SERVICE
ORIGINAL_DATA_CREATOR: network: TK
USER1: GuestUser
USER2: 
USER3: 
USER4: 
USER5: 
[...]
8.486722
8.783122
9.267853
9.892079
10.587482
11.227555
11.710987
12.023752
12.142730
12.050776
11.748151
11.281352
10.715063
10.074479
9.451300
8.873840
8.359244
7.886731
7.417594
6.971057
6.504259
6.033304
5.588585
5.170103
4.818642
4.508223
4.193648
3.869462
3.481114
3.046007
2.609601
2.166960
1.697304
1.116468
0.328076
-0.739046
-2.100486
-3.725849
-5.576691
-7.638985
-9.787781
-11.822279
-13.585060
-14.955071
-15.926599
-16.488473
-16.658357
-16.469501
-15.910477
-15.074539
-14.021955
-12.721553
-11.247106
-9.683558
-8.123388
-6.737262
-5.652207
-4.900954
-4.406871
-4.081118
-3.885768
-3.780818
-3.738731
-3.734571
-3.712486
-3.683388
-3.601816
-3.519985
-3.520241
-3.742078
-4.304731
-4.898816
-5.703313
-6.884734
-8.196038
-9.546307
-10.789812
-11.914863
-12.790016
-13.316821
-13.529048
-13.466699
-13.202251
-12.825583
-12.493336
-12.237980
-12.064970
-11.924431
-11.807012
-11.739728
-11.744399
-11.864408
-12.029616
-12.219762
-12.411726
-12.554075
-12.649665
-12.639010
-12.449895
-12.041276
-11.400164
-10.578254
-9.630097
-8.575175
-7.449597
-6.287131
-5.159214
-4.182742
-3.367846
-2.735567
-2.236808
-1.742465
-1.223705
-0.631170
-0.005644
0.615205
1.220988
1.785988
2.392031
3.067951
3.797124
4.569678
5.284823
5.803324
6.040756
5.965428
5.560974
4.853890
3.991205
3.080463
2.256743
1.669152
1.371982
1.492518
2.014916
2.901768
4.106835
5.484389
6.940393
8.285735
9.413132
10.271150
10.775363
10.977987
10.932272
10.654844
10.214022
9.719688
9.244577
8.818821
8.524508
8.332025
8.217212
8.208384
8.255146
8.352304
8.413353
8.404785
8.256722
7.882660
7.276626
6.493950
5.743484
4.918206
4.049027
3.194914
2.288588
1.498118
0.458791
-0.627034
-1.382955
-2.367471
-3.500834
-4.610559
-5.762105
-6.875467
-8.134038
-9.462227
-10.686509
-11.795714
-12.730354
-13.360028
-13.638754
-13.661350
-13.411709
-12.886194
-12.218846
-11.502142
-10.763617
-9.993141
-9.230978
-8.648314
-8.267231
-8.047463
-8.030314
-8.145906
-8.306698
-8.422031
-8.474240
-8.502810
-8.468257
-8.343824
-8.256018
-8.275756
-8.197302
-7.963506
-7.543198
-6.867277
-6.121479
-5.371265
-4.727816
-4.302052
-4.042020
-4.009545
-4.146438
-4.406981
-4.678434
-4.805197
-4.821558
-4.744403
-4.584381
-4.293177
-3.984828
-3.744539
-3.535941
-3.395922
-3.243174
-3.062631
-2.815847
-2.488016
-2.172653
-1.938598
-1.882744
-1.992881
-2.240695
-2.596313
-2.961803
-3.279754
-3.473017
-3.524447
-3.419497
-3.143619
-2.795785
-2.382750
-1.998030
-1.725009
-1.575638
-1.603949
-1.780327
-2.134386
-2.624045
-3.203323
-3.850141
-4.468644
-4.975966
-5.273137
-5.256507
-4.909453
-4.308606
-3.490592
-2.555423
-1.545701
-0.502469
0.491927
1.413068
2.185882
2.826734
3.370692
3.775675
4.018822
4.111563
4.056237
3.893107
3.711793
3.596460
3.591529
3.759084
4.084058
4.515536
5.053780
5.526821
5.913360
6.169236
6.104298
5.686336
4.894048
3.843031
2.689146
1.614231
0.902211
0.518798
0.382165
0.724023
1.471380
2.529939
3.905933
5.326868
6.726242
8.022748
9.076631
9.888410
10.561993
11.115303
11.390401
11.523147
11.577442
11.477696
11.318203
11.114289
10.889075
10.679186
10.447218
10.093418
9.542974
8.824201
7.967230
7.027135
6.057945
5.071091
4.055402
3.005944
1.929470
0.855594
-0.169706
-1.105905
-1.896634
-2.509942
-2.909981
-3.072072
-2.999332
-2.743976
-2.403156
-2.055323
-1.777627
-1.616566
-1.545126
-1.509533
-1.494203
-1.485107
-1.463542
-1.419637
-1.386122
-1.374948
-1.380659
-1.414944
-1.430785
-1.377269
-1.255953
-1.116194
-0.968901
-0.875120
-0.865505
-0.880307
-0.925243
-0.969659
-1.000827
-1.053815
-1.113038
-1.188886
-1.313051
-1.493066
-1.718800
-1.935182
-2.107144
-2.165588
-2.080639
-1.898538
-1.629154
-1.336911
-1.047006
-0.787753
-0.571622
-0.392378
-0.283531
-0.224040
-0.180394
-0.121423
-0.069465
-0.022962
0.029775
0.089006
0.161226
0.273710
0.522572
0.945478
1.523726
2.172630
2.827250
3.408355
3.824248
4.081682
4.245340
4.484071
4.804629
5.211170
5.844748
6.586909
7.311406
7.992782
8.580641
9.056800
9.373461
9.526988
9.520239
9.344380
9.112931
8.877326
8.586130
8.256749
7.852035
7.326788
6.727768
6.123292
5.541156
5.027599
4.645745
4.382604
4.259478
4.255846
4.318974
4.348851
4.275601
4.127797
3.838940
3.468255
3.064580
2.638045
2.236189
1.871219
1.574828
1.316883
1.158688
1.070112
1.009590
1.003620
1.025444
1.110653
1.242099
1.424201
1.681116
1.980113
2.339636
2.785142
3.294811
3.884229
4.511832
5.128785
5.757168
6.362951
6.908728
7.404629
7.801299
8.035614
8.067310
7.826250
7.346722
6.622753
5.715388
4.751913
3.784022
2.893802
2.118399
1.492362
0.984780
0.608641
0.314068
-0.019210
-0.387557
-0.807597
-1.256472
-1.661186
-2.058367
-2.468017
-2.921567
-3.558514
-4.354179
-5.267519
-6.209693
-7.099134
-7.829077
-8.306786
-8.759817
-9.070236
-9.082181
-8.863452
-8.353523
-7.584346
-6.572026
-5.439434
-4.282423
-3.030078
-1.732013
-0.393944
1.022574
2.434417
3.785734
5.041976
6.173010
7.198059
8.195052
9.238544
10.311650
11.297214
12.063793
12.525405
12.642564
12.485149
12.100177
11.537524
10.877978
10.131149
9.301974
8.466565
7.721035
7.085647
6.546373
6.038012
5.506271
4.966478
4.459934
4.018074
3.690770
3.494909
3.408671
3.380360
3.309448
3.146578
2.833562
2.368322
1.735271
0.974156
0.182647
-0.587301
-1.232041
-1.795733
-2.248504
-2.682052
-3.065206
-3.292758
-3.675652
-3.825534
-3.700581
-3.768896
-3.696676
-3.380794
-2.830861
-2.030512
-1.118982
-0.051591
1.131396
2.334386
3.529322
4.719843
5.788533
6.690191
7.488982
8.098921
8.538193
8.826800
8.885771
8.744462
8.429627
7.939969
7.307958
6.591003
5.862098
5.217099
4.775238
4.598340
4.667702
4.971895
5.461562
6.034614
6.617797
7.171107
7.685712
8.193562
8.691282
9.187962
9.680486
10.103912
10.424211
10.586050
10.608135
10.523195
10.363182
10.153554
9.841577
9.449331
9.007211
8.532359
8.033349
7.494075
6.878170
6.122509
5.225795
4.230368
3.149478
2.023648
0.858593
-0.358935
-1.592309
-2.779184
-3.786040
-4.545078
-5.020189
-5.235273
-5.271116
-5.172400
-5.005365
-4.809236
-4.646617
-4.578813
-4.648167
-4.860134
-5.150550
-5.411093
-5.536556
-5.461999
-5.162742
-4.658788
-3.977932
-3.158620
-2.268131
-1.379201
-0.519884
0.272152
0.983921
1.614642
2.151067
2.598651
2.959213
3.213530
3.314584
3.249387
3.006508
2.633745
2.191884
1.705863
1.154380
0.510160
-0.184196
-0.904268
-1.563815
-2.051395
-2.309080
-2.285957
-1.931629
-1.264541
-0.378208
0.651256
1.737090
2.776166
3.738091
4.599746
5.305539
5.839886
6.183044
6.406189
6.625437
6.928850
7.399814
8.021443
8.704897
9.314576
9.725533
9.861656
9.679043
9.167305
8.400474
7.492070
6.524958
5.578628
4.717502
3.962620
3.325414
2.853939
2.587681
2.590803
2.904607
3.497661
4.280086
5.088748
5.763630
6.190692
6.310450
6.101860
5.584926
4.877842
4.137508
3.461856
2.956092
2.688535
2.684124
2.936622
3.452785
4.220664
5.128037
6.082429
6.922782
7.539735
7.809119
7.699241
7.242833
6.491589
5.572794
4.455277
3.327109
2.143351
1.086619
0.201074
-0.785000
-1.485850
-2.040190
-2.463348
-2.625179
-2.739733
-2.781291
-2.796613
-2.739980
-2.614248
-2.465656
-2.280178
-2.018327
-1.609189
-1.027824
-0.258647
0.670288
1.678192
2.693888
3.652177
4.494608
5.145071
5.487450
5.493429
5.166125
4.577755
3.821835
3.062537
2.419356
1.627588
0.785944
0.173675
-0.313905
-0.683810
-0.913181
-0.987470
-0.958372
-0.922260
-0.934205
-1.044602
-1.218382
-1.456326
-1.796617
-2.271988
-2.839577
-3.480680
-4.143344
-4.714050
-5.188382
-5.530492
-5.728171
-5.817267
-5.816224
-5.771799
-5.693085
-5.556183
-5.344987
-5.036119
-4.658932
-4.264340
-3.857020
-3.412553
-2.908079
-2.377109
-1.853932
-1.317767
-0.704970
0.023683
0.891832
1.849081
2.805810
3.739161
4.648613
5.535724
6.337632
7.000045
7.493348
7.826894
8.010555
8.040692
7.939127
7.741448
7.522468
7.306085
7.147891
7.116723
7.268691
7.663283
8.318162
9.208132
10.250844
11.357979
12.421733
13.317417
13.936708
14.228692
14.174924
13.758780
13.036630
12.139395
11.208911
10.374281
9.677847
9.128702
8.701908
8.294596
7.857930
7.306967
6.602221
5.758499
4.815546
3.889217
3.065757
2.474790
2.182295
2.153725
2.325696
2.573259
2.796923
2.951489
3.013578
2.983709
2.903445
2.787073
2.658752
2.515884
2.341324
2.129358
1.818680
1.490078
1.077570
0.693897
0.420366
-0.097087
-0.559730
-0.851185
-1.275122
-1.826345
-2.601229
-3.587044
-4.710276
-5.909620
-7.133902
-8.341040
-9.448426
-10.403329
-11.150417
-11.638257
-11.814895
-11.713841
-11.347564
-10.744118
-10.002996
-9.189659
-8.368788
-7.600650
-6.939796
-6.437660
-6.138923
-6.086445
-6.257369
-6.575060
-6.978995
-7.372280
-7.685556
-7.877260
-7.899856
-7.734899
-7.371999
-6.860511
-6.252910
-5.601667
-4.928085
-4.239955
-3.560398
-2.877204
-2.211675
-1.593163
-1.021150
-0.515377
-0.118188
0.153274
0.290176
0.307844
0.234334
0.108091
0.015618
0.057185
0.270719
0.659336
1.210568
1.830898
2.399794
2.762434
2.830757
2.586320
2.092765
1.485432
0.874202
0.337266
-0.132390
-0.512946
-0.811934
-1.035330
-1.191447
-1.317170
-1.383407
-1.339761
-1.155841
-0.828530
-0.328992
0.312380
1.051164
1.836187
2.591856
3.254009
3.753027
4.047868
4.133855
4.027355
3.743693
3.323133
2.777624
2.128988
1.398785
0.611952
-0.169426
-0.926126
-1.628274
-2.228853
-2.727084
-3.127382
-3.447931
-3.714449
-3.931351
-4.134225
-4.280730
-4.344889
-4.373199
-4.319942
-4.133944
-3.855988
-3.581669
-3.386319
-3.329426
-3.408131
-3.591783
-3.806607
-3.960645
-4.022985
-3.963494
-3.792822
-3.548116
-3.240547
-2.884401
-2.525657
-2.193410
-1.949223
-1.856222
-1.921939
-2.147673
-2.542776
-3.085947
-3.703930
-4.302171
-4.768451
-5.037566
-5.040159
-4.755969
-4.217206
-3.498424
-2.706907
-1.941366
-1.245704
-0.638362
-0.149994
0.301487
0.581521
0.608801
0.521263
0.420737
0.444640
0.635314
1.028867
1.561655
2.263033
3.084423
3.938285
4.780716
5.422088
5.955395
6.017224
5.709663
5.536922
5.057135
4.390575
3.830260
3.308910
2.895883
2.461815
2.012161
1.684858
1.531339
1.572387
1.889308
2.444436
3.104511
3.832385
4.510643
5.071486
5.494912
5.758321
5.925096
6.066414
6.189289
6.163836
5.825622
5.111265
4.046221
2.723487
1.285416
-0.182009
-1.542929
-2.612130
-3.264922
-3.444417
-3.210622
-2.589513
-1.644733
-0.517855
0.679160
1.769410
2.593398
3.045658
3.039688
2.590034
1.738779
0.557099
-0.865906
-2.429964
-3.996360
-5.470539
-6.740800
-7.753891
-8.510071
-9.002327
-9.279755
-9.428078
-9.519512
-9.633026
-9.826809
-10.067350
-10.351272
-10.731048
-11.267724
-11.929869
-12.599286
-13.114402
-13.364034
-13.330001
-13.015417
-12.464965
-11.730597
-10.924792
-10.108337
-9.345655
-8.672332
-8.050443
-7.510901
-7.049549
-6.714704
-6.561696
-6.571563
-6.680921
-6.853922
-7.044068
-7.142256
-7.082505
-6.788184
-6.221886
-5.392183
-4.321155
-3.082837
-1.760095
-0.437872
0.817071
1.977978
2.984064
3.769606
4.323176
4.713352
5.016245
5.250560
5.419414
5.489036
5.436827
5.244863
4.933925
4.530249
4.076699
3.629902
3.189600
2.752934
2.243534
1.619835
0.909374
0.156311
-0.626885
-1.476841
-2.360827
-3.284298
-4.192182
-4.946804
-5.449710
-5.582188
-5.439831
-5.051733
-4.350875
-3.511820
-2.571196
-1.605635
-0.686312
0.177680
0.884513
1.443019
1.790592
1.932690
1.933213
1.820478
1.696573
1.653196
1.744639
2.018179
2.429656
2.843210
3.197018
3.471857
3.656297
3.752415
3.822037
3.897894
4.034276
4.309115
4.705525
5.182203
5.682780
6.154523
6.435596
6.440796
6.201554
5.681763
4.920387
4.014321
3.014478
1.939303
0.731646
-0.687461
-2.282692
-3.999234
-5.775003
-7.567398
-9.332257
-10.949308
-12.323736
-13.422030
-14.279520
-14.999852
-15.624330
-16.119703
-16.422328
-16.445963
-16.216324
-15.733151
-15.057231
-14.287015
-13.422243
-12.533833
-11.644123
-10.767662
-9.905488
-9.025650
-8.080610
-7.061016
-6.029474
-5.062613
-4.247457
-3.598553
-3.076675
-2.584150
-2.037335
-1.286601
-0.324416
0.745832
1.778673
2.650718
3.359110
3.846439
4.377409
4.719787
4.922150
5.332068
5.419095
5.369743
5.395724
5.383000
5.441712
5.500164
5.642001
5.856834
6.200251
6.719532
7.387399
8.162811
8.879515
9.456204
9.815467
9.960422
9.917045
9.756772
9.542987
9.218801
8.794605
8.268319
7.686963
7.073915
6.384755
5.600520
4.757317
3.929441
3.100786
2.294470
1.535173
0.766004
-0.076938
-0.935467
-1.667229
-2.175071
-2.426782
-2.493018
-2.445996
-2.342345
-2.224925
-2.085426
-1.890076
-1.611081
-1.259611
-0.910478
-0.617196
-0.411196
-0.248577
-0.112194
-0.056340
-0.093482
-0.276615
-0.529624
-0.826015
-1.132277
-1.350478
-1.509192
-1.556725
-1.535420
-1.557756
-1.653346
-1.765302
-1.747893
-1.561376
-1.235622
-0.815573
-0.364612
0.104014
0.522764
0.873455
1.139721
1.313770
1.521848
1.861369
2.481959
3.395567
4.527640
5.764659
6.958037
8.079979
9.023201
9.743022
10.226714
10.483889
10.536626
10.340505
9.906697
9.310014
8.599294
7.766742
6.854181
5.879017
4.845145
3.769710
2.685183
1.580134
0.449369
-0.654121
-1.762546
-2.976438
-4.285404
-5.611515
-7.027765
-8.464538
-9.878970
-11.280154
-12.642372
-14.009007
-15.313298
-16.580701
-17.671462
-18.831062
-19.983908
-20.619815
-21.212342
-21.611081
-21.511846
-21.271296
-20.859300
-20.491464
-20.301310
-20.068034
-19.742021
-19.199622
-18.300041
-17.206673
-15.930949
-14.451047
-13.024917
-11.582681
-10.227467
-8.767827
-7.280652
-5.937647
-4.620360
-3.830401
-3.007452
-3.166166
-3.293448
-3.053418
-5.116751
-6.123087
-6.367005
-8.095756
-9.003641
-9.453815
-10.272339
-10.538857
-10.397798
-10.715231
-10.487150
-10.067361
-10.136195
-9.767061
-9.185696
-9.116853
-9.042295
-8.271560
-7.436142
-6.638390
-5.472288
-4.030052
-2.653797
-1.401192
-0.208853
0.946339
1.869299
2.227004
2.387545
2.403914
2.032970
1.531102
1.170549
0.880392
0.522696
0.339304
0.467114
0.706105
0.966657
1.184087
1.335536
1.469840
1.647525
1.834563
2.058487
2.392293
2.657001
2.979637
3.333445
3.464372
3.581532
3.773245
4.020288
4.454105
5.144313
6.051946
7.052836
8.029827
8.842126
9.334131
9.488957
9.356999
8.942933
8.293518
7.452133
6.402156
5.214241
3.976451
2.773211
1.627379
0.439984
-0.797027
-2.109890
-3.424831
-4.604692
-5.626875
-6.550086
-7.579282
-8.818371
-10.252285
-11.742829
-13.106607
-14.369334
-15.480617
-16.292648
-16.733989
-16.751649
-16.373942
-15.645289
-14.628813
-13.374129
-12.023851
-10.743191
-9.717623
-9.081967
-8.782710
-8.811020
-8.906871
-9.228459
-9.551866
-9.300406
-8.969977
-8.474595
-7.587484
-6.551785
-5.453482
-4.443760
-3.415854
-2.355477
-1.390175
-0.532677
0.331835
1.315840
2.322445
3.255017
4.114593
4.832076
5.438898
5.938956
6.376409
6.889455
7.332104
7.756309
8.132198
8.484447
8.728374
8.807347
8.951783
8.723191
8.595909
8.569417
7.966500
7.238634
6.372053
5.478455
4.703312
3.978304
3.370711
2.832996
2.401786
1.890567
1.165039
0.174029
-1.131561
-2.640808
-4.153952
-5.523444
-6.744089
-7.796665
-8.691301
-9.454495
-10.071180
-10.538238
-10.858528
-11.043219
-11.032304
-10.857996
-10.570688
-10.124662
-9.527452
-8.726843
-7.630098
-6.207605
-4.430788
-2.371343
-0.190068
2.015886
4.145207
6.058143
7.558047
8.526726
8.944956
8.873265
8.431404
7.707435
6.803447
5.776329
4.712064
3.697934
2.809272
2.100110
1.556420
1.194568
0.944156
0.707771
0.418134
-0.005543
-0.564300
-1.302816
-2.209661
-3.149238
-4.070111
-4.882920
-5.496488
-5.885356
-6.049265
-6.043286
-5.976782
-5.948982
-6.006127
-6.143800
-6.268744
-6.327447
-6.290556
-6.153134
-5.995711
-5.898553
-5.906342
-6.027649
-6.166361
-6.283512
-6.436771
-6.596004
-6.734197
-6.781470
-6.692625
-6.482728
-6.169704
-5.713287
-5.105426
-4.411582
-3.581359
-2.719185
-1.899613
-1.212782
-0.800527
-0.586993
-0.552959
-0.641796
-0.782845
-0.920518
-0.980780
-0.928822
-0.699962
-0.244845
0.509526
1.610946
2.979667
4.475675
6.032728
7.568221
8.930188
10.027972
10.757404
11.044972
10.901065
10.316851
9.388704
8.229624
6.915203
5.559218
4.279866
3.158712
2.241475
1.631804
1.362429
1.461145
1.957046
2.761812
3.783223
4.927246
6.100881
7.230097
8.257483
9.093421
9.713491
10.154841
10.420848
10.482936
10.324482
9.995101
9.526743
8.951621
8.286620
7.551221
6.719189
5.825591
4.904199
4.018654
3.373655
2.882698
2.625272
2.738015
3.058054
3.525640
3.989070
4.360283
4.680581
4.911259
5.035173
5.035437
4.914909
4.715671
4.453570
4.132501
3.804418
3.569592
3.456078
3.473487
3.662602
3.997707
4.416717
4.827154
5.122255
5.249805
5.188245
4.925104
4.480385
3.904484
3.298710
2.702806
2.098590
1.463202
0.763392
-0.001361
-0.730785
-1.287983
-1.669578
-1.883622
-1.937909
-1.834517
-1.633972
-1.417322
-1.219894
-1.110787
-1.068960
-1.027133
-0.884516
-0.609418
-0.202097
0.394594
1.174162
2.108291
3.126586
4.197094
5.251496
6.227968
7.089882
7.744242
8.248456
8.477056
8.550574
8.405368
8.167685
7.953121
7.553862
7.422164
6.967055
6.974852
6.561046
6.377134
7.554407
6.338437
6.358184
7.799641
7.528187
7.847446
8.492454
8.673777
8.546754
9.056423
8.618199
8.485722
8.777445
8.113223
8.529635
8.887860
9.155425
9.418834
9.948245
10.503373
10.297641
10.278163
10.054247
9.572902
8.794382
7.797916
6.819115
5.625745
4.233393
2.916634
1.861201
0.714590
-0.419293
-1.238337
-1.884895
-2.452484
-2.854081
-3.037732
-3.190991
-3.375422
-3.511276
-3.719866
-4.017036
-4.407203
-4.879457
-5.394053
-5.809677
-6.181661
-6.534681
-6.568966
-6.752618
-7.030305
-6.949773
-6.823002
-6.796242
-6.846373
-6.883256
-6.871821
-6.801680
-6.701665
-6.659578
-6.661133
-6.681910
-6.761135
-6.828151
-6.827367
-6.839572
-6.774626
-6.564989
-6.254042
-5.877634
-5.401995
-4.763221
-3.939233
-2.938863
-1.741848
-0.368970
1.120543
2.747474
4.457791
6.203435
7.907777
9.433138
10.709902
11.742743
12.589331
13.252263
13.756477
14.168993
14.555012
15.006493
15.585001
16.312355
17.143877
17.982152
18.718858
19.253465
19.523628
19.477133
19.129049
18.545874
17.835413
17.090403
16.376824
15.785337
15.271780
14.827841
14.424166
13.948016
13.385103
12.665030
11.801826
10.801204
9.753305
8.686702
7.503983
6.309314
4.768895
3.139894
1.808848
0.280637
-1.248093
-2.501469
-3.502350
-4.218786
-4.666362
-4.844298
-4.912873
-4.925337
-4.870003
-4.730243
-4.594640
-4.592298
-4.852581
-5.372632
-5.924375
-6.401824
-6.705229
-6.796143
-6.669632
-6.273482
-5.627695
-4.762663
-3.750083
-2.637493
-1.500744
-0.473878
0.319198
0.810943
0.993824
0.891999
0.529887
-0.061860
-0.753098
-1.413944
-2.030888
-2.630168
-3.246594
-3.917050
-4.614003
-5.311476
-5.979075
-6.571861
-7.072949
-7.481300
-7.772236
-7.872243
-7.767552
-7.485180
-7.051363
-6.476752
-5.822133
-5.146472
-4.468733
-3.809698
-3.154819
-2.564102
-2.067162
-1.702963
-1.528654
-1.537223
-1.709444
-1.936218
-2.163510
-2.338330
-2.315726
-2.080631
-1.662401
-1.061034
-0.305105
