EVENT_NAME: 202302060117
EVENT_ID: 13194
EVENT_DATE_YYYYMMDD: 2023/02/06
EVENT_TIME_HHMMSS: 01:17:32.00000
EVENT_LATITUDE_DEGREE: 37.288
EVENT_LONGITUDE_DEGREE: 37.043
EVENT_DEPTH_KM: 8.6
HYPOCENTER_REFERENCE: AFAD
MAGNITUDE_W: 7.7
MAGNITUDE_W_REFERENCE: AFAD
MAGNITUDE_L: 
MAGNITUDE_L_REFERENCE: 
FOCAL_MECHANISM: 
NETWORK: TK
STATION_CODE: 0633
STATION_NAME: 
STATION_LATITUDE_DEGREE: 39.921437
STATION_LONGITUDE_DEGREE: 33.224367
STATION_ELEVATION_M: 1099.0
LOCATION: Kahramanmaras_Pazarck_Turkiye
SENSOR_DEPTH_M: 
VS30_M/S: None
SITE_CLASSIFICATION_EC8: unknown
MORPHOLOGIC_CLASSIFICATION: 
EPICENTRAL_DISTANCE_KM: 442.47
EARTHQUAKE_BACKAZIMUTH_DEGREE: 
DATE_TIME_FIRST_SAMPLE_YYYYMMDD_HHMMSS: 2023/02/06 01:18:08.2102090
DATE_TIME_FIRST_SAMPLE_PRECISION: millisecond
SAMPLING_INTERVAL_S: 0.01
NDATA: 21001
DURATION_S: 
STREAM: HNZ
UNITS: cm/s^2
INSTRUMENT: sensor = ACEBOX/SARA | digitizer = 
INSTRUMENT_ANALOG/DIGITAL: 
INSTRUMENTAL_FREQUENCY_HZ: 
INSTRUMENTAL_DAMPING: 
FULL_SCALE_G: 
N_BIT_DIGITAL_CONVERTER: 
PGA_CM/S^2: 1.122
TIME_PGA_S: 
BASELINE_CORRECTION: BASELINE REMOVED
FILTER_TYPE: BUTTERWORTH
FILTER_ORDER: 
LOW_CUT_FREQUENCY_HZ: 
HIGH_CUT_FREQUENCY_HZ: 
LATE/NORMAL_TRIGGERED: 
DATABASE_VERSION: 
HEADER_FORMAT: DYNA 1.2
DATA_TYPE: Acceleration
PROCESSING: Automatic Paolucci et al., 2011
DATA_TIMESTAMP_YYYYMMDD_HHMMSS: 
DATA_LICENSE: U (unknown license)
DATA_CITATION: Turkish Accelerometric Archive v 1.0 - Disaster And Emergency Management Presidency, Earthquake Department
DATA_CREATOR: AFAD
ORIGINAL_DATA_MEDIATOR_CITATION: : AFAD - Disaster And Emergency Management Presidency
ORIGINAL_DATA_MEDIATOR: AFAD PROCESS SERVICE
ORIGINAL_DATA_CREATOR_CITATION: AFAD PROCESS SERVICE
ORIGINAL_DATA_CREATOR: network: TK
USER1: GuestUser
USER2: 
USER3: 
USER4: 
USER5: 
[...]
-0.482334
-0.465968
-0.461993
-0.460357
-0.443757
-0.437912
-0.436276
-0.418507
-0.400739
-0.397232
-0.391387
-0.371748
-0.356551
-0.348836
-0.334340
-0.320079
-0.307454
-0.286880
-0.270280
-0.262799
-0.243627
-0.221884
-0.210194
-0.193595
-0.175358
-0.159460
-0.149173
-0.137717
-0.113636
-0.104986
-0.104284
-0.082541
-0.071553
-0.070384
-0.053083
-0.042562
-0.040224
-0.027833
-0.013805
-0.009363
-0.002583
0.019160
0.032954
0.035292
0.047684
0.062413
0.073167
0.086961
0.099119
0.107536
0.120628
0.137929
0.143774
0.145644
0.156867
0.165050
0.166686
0.170193
0.180012
0.182584
0.174167
0.179779
0.187961
0.176505
0.172063
0.173700
0.166920
0.161075
0.156632
0.147514
0.136292
0.132551
0.127642
0.109172
0.097014
0.093741
0.083220
0.075037
0.075037
0.067088
0.055164
0.055632
0.055865
0.046280
0.046981
0.052592
0.047682
0.047449
0.052358
0.049319
0.046280
0.056099
0.061710
0.051657
0.055164
0.069893
0.066620
0.068490
0.082752
0.086259
0.090233
0.102391
0.113145
0.120861
0.127407
0.137226
0.143305
0.147981
0.163412
0.172296
0.174166
0.186791
0.196611
0.198247
0.206430
0.217419
0.222796
0.226303
0.231446
0.230511
0.230511
0.241032
0.241967
0.234719
0.235655
0.232615
0.225601
0.225134
0.222094
0.212508
0.198247
0.192168
0.194038
0.181180
0.167385
0.166216
0.152422
0.140966
0.142135
0.127640
0.112677
0.113846
0.107299
0.093271
0.084621
0.080880
0.080179
0.071294
0.061475
0.060773
0.051889
0.043005
0.046044
0.037160
0.025002
0.025470
0.020093
0.010741
0.010974
0.004896
-0.010301
-0.012405
-0.009132
-0.017549
-0.020588
-0.015445
-0.021290
-0.031343
-0.030408
-0.026433
-0.031343
-0.035084
-0.036019
-0.042098
-0.041864
-0.038591
-0.047008
-0.053788
-0.049346
-0.049346
-0.060100
-0.065712
-0.065945
-0.071323
-0.079038
-0.087689
-0.096105
-0.104288
-0.114108
-0.125330
-0.146138
-0.160166
-0.166946
-0.189157
-0.206692
-0.221421
-0.247373
-0.264674
-0.278935
-0.301146
-0.324993
-0.348373
-0.365440
-0.388119
-0.416876
-0.435580
-0.456154
-0.481871
-0.504082
-0.525358
-0.547802
-0.573053
-0.589652
-0.603680
-0.631268
-0.648803
-0.658856
-0.679197
-0.690653
-0.699771
-0.717773
-0.727359
-0.728294
-0.736477
-0.751206
-0.754947
-0.756116
-0.765234
-0.763364
-0.762896
-0.771079
-0.770612
-0.767339
-0.762663
-0.761727
-0.761260
-0.750739
-0.750038
-0.747700
-0.729697
-0.723151
-0.721047
-0.707721
-0.693693
-0.682003
-0.668443
-0.651609
-0.641088
-0.630334
-0.607188
-0.591056
-0.585211
-0.571651
-0.555051
-0.543829
-0.531905
-0.521151
-0.517176
-0.507824
-0.492861
-0.486315
-0.480002
-0.470884
-0.463637
-0.456155
-0.446336
-0.431840
-0.422956
-0.418514
-0.407292
-0.400278
-0.386718
-0.367546
-0.368248
-0.363338
-0.346037
-0.337387
-0.325697
-0.315643
-0.306759
-0.293667
-0.285484
-0.266780
-0.249245
-0.244569
-0.231009
-0.216747
-0.205759
-0.189861
-0.172560
-0.158766
-0.155025
-0.141932
-0.117618
-0.111071
-0.105226
-0.089796
-0.081847
-0.071793
-0.059402
-0.054492
-0.052155
-0.045374
-0.035321
-0.034620
-0.034854
-0.023398
-0.021060
-0.028074
-0.022463
-0.014513
-0.018488
-0.022229
-0.015916
-0.013111
-0.017553
-0.014514
-0.010305
-0.009136
-0.006331
-0.005396
-0.001187
0.000917
0.000683
0.007463
0.006996
0.008632
0.017984
0.015412
0.016581
0.024764
0.023361
0.024998
0.032012
0.033414
0.028972
0.029440
0.036921
0.035986
0.034583
0.041130
0.041130
0.041597
0.049079
0.050248
0.047442
0.048377
0.051884
0.051416
0.049078
0.050247
0.048611
0.046039
0.045338
0.035752
0.028738
0.032245
0.027569
0.014944
0.008865
0.010735
0.011437
0.002552
-0.007735
-0.008670
-0.009605
-0.008436
0.000214
-0.003760
-0.010540
-0.001890
0.000448
0.002318
0.016814
0.020555
0.021723
0.035050
0.051182
0.058663
0.065677
0.088589
0.104721
0.105656
0.125062
0.149844
0.158261
0.172990
0.195435
0.207358
0.217411
0.236349
0.250611
0.256455
0.270249
0.284277
0.287784
0.299942
0.314437
0.315840
0.323321
0.336648
0.338284
0.338518
0.347169
0.353715
0.353715
0.356988
0.365638
0.362131
0.357689
0.365872
0.367041
0.361898
0.361897
0.361430
0.360495
0.354182
0.351610
0.358157
0.353013
0.346700
0.347636
0.341323
0.340855
0.343193
0.337115
0.336881
0.338751
0.331737
0.328698
0.334777
0.334309
0.325892
0.325658
0.331036
0.329633
0.325425
0.327061
0.328698
0.322853
0.320281
0.324723
0.318644
0.311864
0.317241
0.313033
0.300408
0.301811
0.303447
0.292926
0.286146
0.285912
0.282172
0.273521
0.269547
0.267442
0.259026
0.255519
0.252947
0.241491
0.236815
0.235880
0.225359
0.214370
0.211798
0.210863
0.199875
0.185847
0.183041
0.177664
0.166208
0.162935
0.153583
0.141659
0.142594
0.137684
0.124592
0.119448
0.112434
0.099108
0.094198
0.090691
0.079469
0.070350
0.061934
0.053283
0.045568
0.032241
0.025695
0.021253
0.009329
0.007926
0.001848
-0.011946
-0.008206
-0.011479
-0.022467
-0.022701
-0.028079
-0.030884
-0.033222
-0.040470
-0.036963
-0.043743
-0.051225
-0.045146
-0.057070
-0.063382
-0.058472
-0.070630
-0.079047
-0.083956
-0.093542
-0.100322
-0.107336
-0.113181
-0.129781
-0.144744
-0.142874
-0.154563
-0.172098
-0.178878
-0.188230
-0.199920
-0.212078
-0.220494
-0.232886
-0.248784
-0.252759
-0.260941
-0.275437
-0.281749
-0.289231
-0.297648
-0.303726
-0.307935
-0.314014
-0.321261
-0.321261
-0.319859
-0.322430
-0.319391
-0.313079
-0.310974
-0.305831
-0.290634
-0.281516
-0.277074
-0.259305
-0.242940
-0.234523
-0.215352
-0.195011
-0.183321
-0.165553
-0.139601
-0.121833
-0.106168
-0.081853
-0.062448
-0.047485
-0.023404
0.001612
0.016575
0.032707
0.057256
0.077128
0.090922
0.110561
0.130902
0.142825
0.155217
0.177194
0.193092
0.200106
0.216705
0.232603
0.238214
0.252476
0.267205
0.270712
0.281467
0.298534
0.304613
0.309055
0.323784
0.332435
0.333837
0.344358
0.353242
0.354411
0.358152
0.365166
0.367036
0.364465
0.370076
0.374752
0.366802
0.365166
0.372414
0.369842
0.362360
0.364932
0.365633
0.354177
0.351138
0.354879
0.343189
0.332434
0.333369
0.326355
0.315834
0.312795
0.304144
0.293390
0.289649
0.282167
0.270010
0.261827
0.256216
0.244760
0.231433
0.229563
0.227459
0.214366
0.206417
0.205715
0.201507
0.194493
0.192389
0.192623
0.184907
0.180699
0.178828
0.173919
0.172048
0.166437
0.160125
0.158956
0.154981
0.149136
0.143759
0.141421
0.138381
0.130900
0.128094
0.125289
0.118275
0.113832
0.111962
0.107052
0.098168
0.098869
0.101909
0.089284
0.082503
0.085309
0.083205
0.083439
0.079698
0.072216
0.071515
0.069177
0.068008
0.069177
0.062630
0.058188
0.059591
0.054447
0.047200
0.046264
0.042757
0.034107
0.029899
0.024287
0.016806
0.012831
0.002778
-0.006340
-0.009146
-0.018965
-0.031356
-0.038838
-0.043748
-0.054035
-0.068998
-0.077415
-0.085598
-0.097054
-0.106639
-0.120901
-0.132123
-0.142644
-0.157374
-0.165089
-0.181221
-0.198288
-0.200626
-0.215122
-0.231721
-0.238268
-0.251594
-0.260478
-0.269596
-0.287365
-0.297185
-0.305368
-0.316590
-0.327812
-0.343243
-0.355400
-0.369194
-0.385794
-0.394678
-0.407303
-0.429280
-0.441672
-0.447283
-0.460843
-0.474170
-0.482119
-0.492873
-0.499887
-0.502927
-0.511577
-0.515318
-0.514149
-0.514850
-0.512980
-0.512513
-0.506434
-0.499654
-0.503395
-0.494510
-0.480249
-0.478612
-0.469260
-0.457337
-0.452193
-0.443075
-0.429047
-0.415955
-0.408473
-0.396316
-0.376443
-0.367792
-0.359610
-0.342542
-0.334593
-0.325709
-0.307707
-0.300225
-0.295315
-0.283859
-0.277313
-0.271936
-0.267727
-0.261181
-0.252531
-0.256271
-0.253232
-0.245751
-0.253934
-0.251829
-0.244114
-0.249258
-0.252297
-0.253466
-0.253232
-0.252765
-0.253934
-0.249492
-0.251830
-0.256038
-0.250193
-0.249726
-0.249492
-0.241075
-0.238737
-0.238971
-0.231957
-0.221436
-0.215358
-0.209513
-0.198992
-0.191277
-0.186133
-0.173508
-0.160415
-0.155272
-0.148959
-0.134698
-0.126047
-0.121371
-0.106408
-0.092848
-0.090276
-0.083964
-0.069235
-0.064091
-0.063390
-0.051466
-0.046790
-0.047725
-0.037906
-0.033698
-0.034165
-0.030191
-0.026216
-0.024112
-0.023878
-0.018267
-0.013825
-0.013358
-0.006344
-0.000265
0.003242
0.009087
0.015867
0.025920
0.033869
0.040883
0.053976
0.064730
0.072212
0.086474
0.102372
0.113594
0.129960
0.147728
0.160587
0.176252
0.192617
0.208749
0.223712
0.238909
0.253171
0.262289
0.277953
0.293150
0.301099
0.316763
0.328453
0.332662
0.344819
0.361185
0.374979
0.382694
0.391345
0.402567
0.411451
0.421271
0.427349
0.431324
0.439507
0.443949
0.443481
0.447222
0.454937
0.456340
0.451430
0.452365
0.456106
0.455872
0.454236
0.453067
0.451898
0.450729
0.449793
0.447455
0.447689
0.448391
0.442546
0.438571
0.435999
0.431791
0.428985
0.422906
0.420335
0.419633
0.408879
0.401163
0.399293
0.391344
0.381290
0.374978
0.368431
0.357677
0.350429
0.344818
0.329387
0.315827
0.306943
0.293616
0.280757
0.265794
0.249662
0.237037
0.218567
0.200799
0.188173
0.169002
0.148194
0.130192
0.110553
0.087407
0.068937
0.052103
0.028957
0.009786
-0.005879
-0.026453
-0.045157
-0.063627
-0.083499
-0.097060
-0.111087
-0.128622
-0.146625
-0.160419
-0.168134
-0.180993
-0.191981
-0.192449
-0.203204
-0.214426
-0.208815
-0.213257
-0.221674
-0.217232
-0.217466
-0.217933
-0.215128
-0.214193
-0.212790
-0.211387
-0.207880
-0.206945
-0.208582
-0.205542
-0.201100
-0.195723
-0.195255
-0.201568
-0.199931
-0.191281
-0.188943
-0.194086
-0.197593
-0.191748
-0.187306
-0.191515
-0.195489
-0.187073
-0.177019
-0.177253
-0.177019
-0.169772
-0.159017
-0.144522
-0.135637
-0.131663
-0.119272
-0.101035
-0.090281
-0.077890
-0.055913
-0.041885
-0.030195
-0.012193
0.001601
0.018902
0.037606
0.051868
0.070338
0.084132
0.092782
0.110551
0.126449
0.139308
0.158011
0.172273
0.185366
0.208979
0.229787
0.242646
0.263454
0.286834
0.301329
0.317461
0.340607
0.358843
0.374274
0.398121
0.415422
0.422670
0.439503
0.457973
0.468494
0.481820
0.494445
0.503096
0.509408
0.514318
0.519228
0.521566
0.523670
0.523904
0.519929
0.516656
0.509642
0.502160
0.499822
0.491406
0.481118
0.473403
0.459141
0.448621
0.442074
0.429215
0.421032
0.412849
0.396484
0.386430
0.380352
0.370064
0.359310
0.349256
0.338268
0.326578
0.317928
0.308809
0.295015
0.285663
0.277948
0.267193
0.258777
0.250594
0.241008
0.230955
0.221603
0.214823
0.205705
0.194482
0.187936
0.182325
0.170167
0.157075
0.151697
0.143982
0.132993
0.127850
0.118965
0.111250
0.109847
0.098157
0.088806
0.094183
0.089273
0.078285
0.084363
0.089039
0.084363
0.086935
0.092546
0.098157
0.105872
0.110782
0.120835
0.127148
0.129252
0.143280
0.150294
0.153099
0.164555
0.168997
0.174141
0.183727
0.188169
0.196585
0.200794
0.204535
0.215757
0.219731
0.220666
0.234227
0.242877
0.239604
0.246618
0.254801
0.251761
0.255502
0.261815
0.262984
0.263919
0.266257
0.268127
0.263451
0.265555
0.270932
0.264620
0.265087
0.268361
0.262282
0.259242
0.255268
0.248722
0.245448
0.241941
0.237733
0.235863
0.232122
0.224173
0.221601
0.222068
0.219730
0.217626
0.212015
0.208508
0.206170
0.198922
0.199624
0.201026
0.194480
0.191207
0.190272
0.186297
0.183725
0.183258
0.182089
0.177413
0.174841
0.176945
0.173906
0.165723
0.167827
0.169463
0.161982
0.163151
0.165021
0.158709
0.159878
0.161982
0.159644
0.161748
0.159410
0.155202
0.155669
0.155435
0.154500
0.149357
0.145616
0.147486
0.144914
0.140005
0.140940
0.140940
0.136731
0.139303
0.142342
0.140706
0.146317
0.150291
0.147720
0.154734
0.164553
0.167359
0.168527
0.174840
0.183958
0.186296
0.191907
0.201025
0.205935
0.215053
0.225340
0.231653
0.241004
0.249889
0.260643
0.274437
0.283322
0.293375
0.305298
0.315819
0.327275
0.340368
0.353227
0.363514
0.371697
0.383153
0.396245
0.405831
0.414949
0.422431
0.432016
0.444875
0.449551
0.453292
0.462176
0.466384
0.471995
0.480880
0.486023
0.489998
0.494206
0.499116
0.503558
0.504026
0.507299
0.511039
0.510338
0.510806
0.513845
0.514312
0.511039
0.509870
0.511273
0.510338
0.507065
0.503791
0.502389
0.502622
0.501453
0.500284
0.500752
0.500284
0.497245
0.493972
0.493504
0.490698
0.486256
0.483451
0.477138
0.470592
0.465448
0.457967
0.447913
0.436224
0.428041
0.422663
0.409337
0.399985
0.393438
0.373566
0.359070
0.356031
0.343640
0.326806
0.313246
0.300387
0.287294
0.268591
0.254329
0.241236
0.219493
0.205933
0.192606
0.168525
0.152861
0.138365
0.118726
0.103997
0.091372
0.078981
0.058874
0.038534
0.034325
0.022402
0.000191
-0.008226
-0.018747
-0.036048
-0.048907
-0.062935
-0.075326
-0.090990
-0.109227
-0.123254
-0.140555
-0.155752
-0.173287
-0.196901
-0.212331
-0.232204
-0.260260
-0.278730
-0.294394
-0.316839
-0.343258
-0.362663
-0.379263
-0.403578
-0.422983
-0.441453
-0.467404
-0.481666
-0.494291
-0.522347
-0.537777
-0.546428
-0.571678
-0.588278
-0.598799
-0.621009
-0.633868
-0.646493
-0.665197
-0.674082
-0.687876
-0.706346
-0.718035
-0.727387
-0.740480
-0.756145
-0.766899
-0.779057
-0.791214
-0.801501
-0.817166
-0.825582
-0.833532
-0.851300
-0.861120
-0.867666
-0.875615
-0.885902
-0.900164
-0.907178
-0.916997
-0.927986
-0.932194
-0.943183
-0.952769
-0.960250
-0.973577
-0.981526
-0.986903
-0.998125
-1.013088
-1.024544
-1.030156
-1.042547
-1.055172
-1.063822
-1.077617
-1.085799
-1.089540
-1.100996
-1.107543
-1.111283
-1.115959
-1.117596
-1.122038
-1.120869
-1.116427
-1.117129
-1.113154
-1.109413
-1.108011
-1.099594
-1.088138
-1.079487
-1.075279
-1.065927
-1.051432
-1.043015
-1.030390
-1.016362
-1.007244
-0.993918
-0.978721
-0.967499
-0.956744
-0.944119
-0.932429
-0.925182
-0.916297
-0.903438
-0.894087
-0.886839
-0.879357
-0.869304
-0.860887
-0.855043
-0.844989
-0.839846
-0.836573
-0.824883
-0.817635
-0.810154
-0.801036
-0.798464
-0.790047
-0.779994
-0.773448
-0.765966
-0.762225
-0.752172
-0.739781
-0.738612
-0.732533
-0.717570
-0.709387
-0.704478
-0.694424
-0.686475
-0.679228
-0.669408
-0.660290
-0.653042
-0.648133
-0.638781
-0.629429
-0.628728
-0.618207
-0.604647
-0.603478
-0.593424
-0.582202
-0.580098
-0.570746
-0.560459
-0.549938
-0.536846
-0.531468
-0.523052
-0.505517
-0.495931
-0.486579
-0.471616
-0.462732
-0.450341
-0.433507
-0.426493
-0.415271
-0.400074
-0.390255
-0.379033
-0.367811
-0.357056
-0.347003
-0.337651
-0.325026
-0.316843
-0.306556
-0.292528
-0.284345
-0.274993
-0.261901
-0.254419
-0.249977
-0.237820
-0.227065
-0.223792
-0.217713
-0.214440
-0.212570
-0.208595
-0.210699
-0.207192
-0.202984
-0.207192
-0.213271
-0.221688
-0.221688
-0.223792
-0.237119
-0.241093
-0.244133
-0.257459
-0.266811
-0.269850
-0.274760
-0.288087
-0.296036
-0.295568
-0.303050
-0.308661
-0.310297
-0.312635
-0.310765
-0.312869
-0.314038
-0.307492
-0.304453
-0.299777
-0.293464
-0.288087
-0.276631
-0.266344
-0.260265
-0.250913
-0.240392
-0.228936
-0.218883
-0.208596
-0.194568
-0.184281
-0.177034
-0.168383
-0.159499
-0.147108
-0.137756
-0.132378
-0.122793
-0.112973
-0.104557
-0.097309
-0.090295
-0.079774
-0.071124
-0.065980
-0.057096
-0.046107
-0.040263
-0.036054
-0.024832
-0.016181
-0.010570
0.002522
0.007900
0.013978
0.028707
0.031747
0.036890
0.048580
0.054893
0.062842
0.066349
0.071492
0.077805
0.075934
0.083883
0.091599
0.089962
0.095106
0.095106
0.092768
0.099781
0.101418
0.100483
0.105159
0.107730
0.108899
0.111471
0.116147
0.121524
0.124564
0.127837
0.131811
0.134617
0.139994
0.146540
0.153321
0.159165
0.160568
0.165244
0.174128
0.179973
0.187221
0.192832
0.194702
0.206159
0.216913
0.218550
0.229304
0.240760
0.242631
0.249177
0.257360
0.263906
0.270920
0.269751
0.275128
0.284714
0.284246
0.291728
0.295469
0.290091
0.297105
0.298976
0.295702
0.301314
0.301313
0.299677
0.300144
0.299209
0.298975
0.295001
0.292663
0.291961
0.285883
0.279570
0.274660
0.271855
0.271153
0.264139
0.256190
0.252449
0.247773
0.243565
0.237486
0.228602
0.224627
0.221588
0.214107
0.209898
0.208963
0.205924
0.202650
0.198208
0.195870
0.198208
0.195403
0.193532
0.195402
0.195636
0.198676
0.197740
0.195169
0.204053
0.205689
0.200312
0.204988
0.211300
0.211300
0.208495
0.212703
0.215041
0.211534
0.216210
0.219951
0.220886
0.224393
0.223691
0.227900
0.232342
0.234212
0.241928
0.240291
0.239590
0.250344
0.250812
0.253383
0.263437
0.263904
0.266710
0.277698
0.285881
0.288921
0.291492
0.301779
0.311365
0.315807
0.327965
0.338953
0.346434
0.358826
0.364203
0.369580
0.385946
0.400441
0.406520
0.412131
0.423120
0.432939
0.439485
0.449071
0.455384
0.460293
0.467541
0.475256
0.482036
0.486011
0.492557
0.497467
0.498870
0.508455
0.517106
0.518275
0.525055
0.538381
0.544694
0.545395
0.553578
0.562462
0.568541
0.574152
0.579529
0.587479
0.594492
0.601506
0.605247
0.604078
0.615067
0.622782
0.619509
0.626289
0.631432
0.633536
0.637043
0.635173
0.637511
0.638680
0.637277
0.638914
0.635640
0.634238
0.631432
0.624652
0.626756
0.625353
0.617404
0.613196
0.608286
0.607818
0.605948
0.596830
0.594258
0.593323
0.589114
0.589348
0.587478
0.584672
0.585140
0.583503
0.585140
0.588413
0.586309
0.587945
0.592153
0.593322
0.597765
0.599167
0.597764
0.605012
0.609454
0.605947
0.610389
0.612494
0.604544
0.603843
0.605947
0.599167
0.591919
0.586308
0.578827
0.571813
0.561759
0.548667
0.536977
0.525754
0.516403
0.505180
0.490685
0.480865
0.470812
0.456550
0.443691
0.432002
0.420078
0.406751
0.392724
0.381969
0.372617
0.361161
0.346899
0.336144
0.325624
0.310894
0.302010
0.293827
0.283774
0.276994
0.265070
0.256653
0.252912
0.245197
0.239118
0.232806
0.230935
0.229299
0.219479
0.219012
0.221350
0.216907
0.217843
0.217843
0.216674
0.218778
0.216673
0.218778
0.226727
0.225558
0.222051
0.228129
0.231636
0.230701
0.232805
0.235845
0.240053
0.243326
0.244729
0.247067
0.250340
0.255483
0.261796
0.268342
0.272551
0.276759
0.284942
0.291254
0.296398
0.306919
0.311595
0.310659
0.316738
0.323752
0.324453
0.326557
0.332402
0.333805
0.328428
0.329830
0.334506
0.331233
0.330532
0.332168
0.329129
0.330766
0.331934
0.330532
0.333805
0.337312
0.339650
0.341988
0.345261
0.352275
0.353677
0.351339
0.356483
0.362094
0.363964
0.364432
0.361626
0.363731
0.366536
0.362561
0.362561
0.361392
0.358587
0.356483
0.346897
0.345260
0.343624
0.329830
0.325154
0.319543
0.305047
0.296163
0.287045
0.276524
0.266237
0.252209
0.239350
0.229764
0.219477
0.205215
0.192123
0.180667
0.168509
0.159157
0.145597
0.131102
0.121048
0.109826
0.103747
0.098370
0.084108
0.074990
0.069846
0.060962
0.053481
0.048571
0.043661
0.036647
0.029633
0.024022
0.014670
0.005084
0.002045
-0.002865
-0.011515
-0.022036
-0.034661
-0.040974
-0.049858
-0.062951
-0.069263
-0.080486
-0.096852
-0.104567
-0.112984
-0.123271
-0.133090
-0.145715
-0.153197
-0.160211
-0.169095
-0.173070
-0.181720
-0.188500
-0.191774
-0.201827
-0.206035
-0.205568
-0.214218
-0.219829
-0.220531
-0.225908
-0.230116
-0.230350
-0.231052
-0.231052
-0.229415
-0.230818
-0.229883
-0.224973
-0.222168
-0.219128
-0.214920
-0.210244
-0.203464
-0.199723
-0.194813
-0.185929
