EVENT_NAME: 202302060117
EVENT_ID: 13194
EVENT_DATE_YYYYMMDD: 2023/02/06
EVENT_TIME_HHMMSS: 01:17:32.00000
EVENT_LATITUDE_DEGREE: 37.288
EVENT_LONGITUDE_DEGREE: 37.043
EVENT_DEPTH_KM: 8.6
HYPOCENTER_REFERENCE: AFAD
MAGNITUDE_W: 7.7
MAGNITUDE_W_REFERENCE: AFAD
MAGNITUDE_L: 
MAGNITUDE_L_REFERENCE: 
FOCAL_MECHANISM: 
NETWORK: TK
STATION_CODE: 1215
STATION_NAME: 
STATION_LATITUDE_DEGREE: 38.83498
STATION_LONGITUDE_DEGREE: 40.55687
STATION_ELEVATION_M: 1045.0
LOCATION: Kahramanmaras_Pazarck_Turkiye
SENSOR_DEPTH_M: 
VS30_M/S: None
SITE_CLASSIFICATION_EC8: unknown
MORPHOLOGIC_CLASSIFICATION: 
EPICENTRAL_DISTANCE_KM: 352.42
EARTHQUAKE_BACKAZIMUTH_DEGREE: 
DATE_TIME_FIRST_SAMPLE_YYYYMMDD_HHMMSS: 2023/02/06 01:17:57.0762650
DATE_TIME_FIRST_SAMPLE_PRECISION: millisecond
SAMPLING_INTERVAL_S: 0.01
NDATA: 21001
DURATION_S: 
STREAM: HNN
UNITS: cm/s^2
INSTRUMENT: sensor = ACEBOX/SARA | digitizer = 
INSTRUMENT_ANALOG/DIGITAL: 
INSTRUMENTAL_FREQUENCY_HZ: 
INSTRUMENTAL_DAMPING: 
FULL_SCALE_G: 
N_BIT_DIGITAL_CONVERTER: 
PGA_CM/S^2: 66.848
TIME_PGA_S: 
BASELINE_CORRECTION: BASELINE REMOVED
FILTER_TYPE: BUTTERWORTH
FILTER_ORDER: 
LOW_CUT_FREQUENCY_HZ: 
HIGH_CUT_FREQUENCY_HZ: 
LATE/NORMAL_TRIGGERED: 
DATABASE_VERSION: 
HEADER_FORMAT: DYNA 1.2
DATA_TYPE: Acceleration
PROCESSING: Automatic Paolucci et al., 2011
DATA_TIMESTAMP_YYYYMMDD_HHMMSS: 
DATA_LICENSE: U (unknown license)
DATA_CITATION: Turkish Accelerometric Archive v 1.0 - Disaster And Emergency Management Presidency, Earthquake Department
DATA_CREATOR: AFAD
ORIGINAL_DATA_MEDIATOR_CITATION: : AFAD - Disaster And Emergency Management Presidency
ORIGINAL_DATA_MEDIATOR: AFAD PROCESS SERVICE
ORIGINAL_DATA_CREATOR_CITATION: AFAD PROCESS SERVICE
ORIGINAL_DATA_CREATOR: network: TK
USER1: GuestUser
USER2: 
USER3: 
USER4: 
USER5: 
[...]
9.318941
9.217706
8.779103
7.910546
6.789254
5.645051
4.469986
3.256812
1.988228
0.619579
-0.733406
-2.024201
-3.250935
-4.289696
-5.084841
-5.598493
-5.882323
-6.208002
-6.661101
-7.066740
-7.252842
-7.078196
-6.604522
-6.057904
-5.619301
-5.449797
-5.519001
-5.650395
-5.766359
-5.722872
-5.388776
-4.795399
-3.944844
-2.912162
-1.868023
-0.904544
-0.105659
0.476262
0.877692
1.105411
1.183032
1.192618
1.100268
0.805216
0.407760
0.070625
-0.232143
-0.548704
-0.830430
-1.041783
-1.180892
-1.199362
-1.017234
-0.612063
0.011007
0.853145
1.870163
2.936512
3.973169
5.017776
5.948990
6.574398
6.924159
7.038719
6.969282
6.743667
6.187697
5.260224
3.962649
2.139966
-0.161535
-2.750138
-5.497957
-8.275936
-10.902882
-13.247167
-15.339419
-17.157193
-18.609775
-19.692256
-20.377282
-20.695714
-20.667892
-20.180191
-19.174629
-17.633437
-15.607350
-13.235009
-10.582813
-7.805769
-5.053274
-2.293765
0.348846
2.725863
4.935948
7.009964
8.899747
10.646213
12.213122
13.516308
14.546185
15.366814
16.081766
16.678884
17.099719
17.348012
17.315514
16.898888
16.143489
15.112910
13.948834
12.825906
11.724487
10.481387
8.988124
7.272987
5.506649
3.776783
1.936565
-0.001615
-1.917349
-3.844306
-5.557339
-6.929261
-8.147579
-9.074585
-9.657909
-10.056066
-10.214346
-10.013514
-9.212993
-7.810676
-6.088058
-4.007262
-1.527609
1.091388
3.636973
6.220901
8.891333
11.376598
13.855550
16.607110
19.229381
21.406501
23.192478
24.653477
25.776172
26.484811
26.886008
26.979527
26.516140
25.473171
23.986688
22.128233
19.909498
17.425635
14.904600
12.310619
9.620781
7.308527
5.644124
4.411077
3.564731
3.228998
3.284876
3.434272
3.545560
3.742651
4.033963
4.239237
4.336730
4.429080
4.494310
4.411545
4.176813
3.912622
3.594424
3.175460
2.868250
2.870120
3.096670
3.340521
3.490151
3.538781
3.502776
3.508153
3.599568
3.529663
3.185513
2.774030
2.400422
1.951064
1.433671
1.074091
0.978234
1.091392
1.428761
1.990576
2.709737
3.509791
4.276412
4.913743
5.449139
6.043920
6.748117
7.366978
7.823818
8.255642
8.707806
9.193403
9.838917
10.692745
11.623726
12.480125
13.203026
13.715276
13.880805
13.750112
13.483817
13.009910
12.273682
11.512439
10.898721
10.223982
9.118355
7.608024
6.002539
4.314055
2.565485
0.902953
-0.845851
-2.740777
-4.478359
-5.882779
-7.029788
-8.021790
-8.757550
-9.146588
-9.393478
-9.610208
-9.699519
-9.573736
-9.007946
-7.815113
-6.221317
-4.551069
-2.842245
-1.061645
0.658636
2.184864
3.618743
5.126034
6.644781
8.143188
9.632710
10.795150
11.451186
11.899375
12.355747
12.748994
12.867296
12.457216
11.394373
9.781640
7.980699
6.344119
4.976872
3.867972
2.840433
1.624220
0.192679
-1.209403
-2.217771
-2.693080
-2.881755
-2.981820
-3.004031
-2.973637
-2.905836
-2.860245
-2.903965
-2.949556
-2.911447
-2.802965
-2.641644
-2.494352
-2.438474
-2.421173
-2.327421
-2.068607
-1.549343
-0.705569
0.435596
1.768474
3.128239
4.340478
5.343702
6.217168
7.018158
7.665075
8.054815
8.103445
7.732643
7.043408
6.244991
5.442832
4.705436
4.118839
3.723020
3.448776
3.241865
3.187157
3.245840
3.290963
3.333046
3.264076
3.029578
2.853762
2.826174
2.923901
3.225734
3.792692
4.633895
5.678501
6.913418
8.351038
9.770655
11.029653
12.208926
13.298188
14.295333
15.266761
16.110068
16.517343
16.211536
15.248759
13.932714
12.527359
11.198221
10.011233
8.930622
7.850479
6.722874
5.594803
4.509983
3.617579
3.046880
2.638904
2.243085
1.876491
1.504052
1.041601
0.488905
-0.024748
-0.384796
-0.553363
-0.464287
-0.209447
-0.057479
-0.081794
-0.031294
0.436768
1.366113
2.520604
3.679069
4.527519
4.831456
4.909310
5.312377
6.140954
6.995484
7.440867
7.324670
6.770571
6.107522
5.592700
4.953265
3.673926
1.812432
-0.119434
-1.952171
-3.896897
-5.989382
-8.020613
-9.917176
-11.735184
-13.425538
-14.934933
-16.192294
-17.037471
-17.433758
-17.477244
-17.218664
-16.534106
-15.241441
-13.550151
-11.879202
-10.343388
-8.903197
-7.567747
-6.395253
-5.389691
-4.387168
-3.305622
-2.078654
-0.540034
1.172531
2.781991
4.283905
5.715212
7.023308
8.152548
8.956811
9.281789
9.171437
8.835938
8.432170
7.853522
6.937271
5.801016
4.606078
3.314115
1.885847
0.332031
-1.233943
-2.489902
-3.200880
-3.385580
-3.185215
-2.869823
-2.669225
-2.649118
-2.890864
-3.339521
-3.797530
-4.355370
-5.224395
-6.387068
-7.789150
-9.296675
-10.624176
-11.665976
-12.445690
-12.899491
-12.992308
-12.704270
-11.962197
-10.619967
-8.590139
-6.245386
-4.097023
-2.221502
-0.634486
0.552503
1.452623
2.182538
2.604776
2.508451
1.971653
1.272833
0.410588
-0.565281
-1.148839
-1.096936
-0.713509
-0.252694
0.133539
0.233838
0.016407
-0.247550
-0.300155
-0.309039
-0.615313
-1.194897
-1.825915
-2.351492
-2.701252
-3.042830
-3.617036
-4.419662
-5.215274
-5.755112
-6.019537
-6.138773
-6.219199
-6.441540
-7.007564
-7.919840
-9.041366
-10.219704
-11.297509
-12.229191
-13.019894
-13.584748
-13.793295
-13.493801
-12.928713
-12.540843
-12.056882
-11.160036
-9.956681
-8.333427
-6.378180
-4.206671
-1.889740
-0.025675
1.278446
2.275826
2.933264
3.616419
4.292093
4.732567
5.295785
5.719660
5.874901
6.142833
6.126467
5.733688
5.224010
4.513266
3.949113
3.377947
2.357188
1.225142
-0.134389
-1.606377
-2.275739
-2.220329
-2.036330
-1.861917
-1.593050
-1.131534
-0.911297
-0.773123
0.226126
1.767786
2.923446
3.497652
3.531085
3.144384
2.447902
1.803557
1.669357
1.826703
2.177867
2.855177
3.379351
3.362517
3.042917
2.929993
3.279753
4.060636
5.347457
6.835342
7.910108
8.522891
9.081433
9.598826
9.609113
9.364094
9.102241
8.065584
6.386452
4.586915
2.453748
0.378096
-1.468434
-3.437942
-5.565965
-7.972674
-10.095787
-11.431705
-12.314991
-12.450125
-11.773984
-10.744574
-9.435309
-8.252763
-7.296532
-6.553992
-6.487593
-6.748511
-6.991193
-7.164670
-6.660135
-5.625349
-4.816644
-4.679872
-5.144428
-5.284004
-4.925593
-4.433684
-3.183803
-1.560549
-0.566911
0.208595
1.160150
2.687314
5.113194
7.334970
8.715309
9.298165
8.891358
8.456729
8.408099
7.916891
7.157752
6.085791
4.302620
2.402783
0.741887
-0.507993
-1.376082
-2.300282
-2.965903
-3.552968
-4.713538
-5.918295
-6.770486
-7.053381
-6.421427
-5.392485
-4.055866
-2.268018
-0.611798
0.742122
1.468296
1.193585
0.623587
0.341160
0.113441
-0.499341
-1.177821
-1.090848
-0.586547
-0.420785
-0.734541
-1.460014
-2.142702
-2.704984
-3.186373
-3.588036
-5.245425
-8.521392
-11.748730
-13.810821
-13.774349
-11.366471
-8.096582
-5.185806
-3.138911
-1.716255
0.195739
2.440894
4.393569
6.529074
8.371396
8.611973
7.160560
4.454824
0.918641
-2.369484
-4.187725
-3.912312
-2.274562
-0.926019
0.034654
1.299965
2.207799
2.628868
3.764889
6.072468
8.388464
9.208859
8.704558
7.637975
5.682261
2.917141
0.258398
-1.354569
-1.465155
-0.800937
-0.294766
-0.720043
-2.831232
-5.532058
-7.171912
-7.933624
-7.345623
-4.312104
-0.487648
1.710280
1.444219
-1.347320
-5.193052
-7.937364
-8.678267
-7.740039
-6.971313
-7.922868
-10.049021
-12.703321
-15.411161
-16.923829
-16.939727
-16.860704
-17.721545
-18.840031
-19.332642
-19.456554
-19.728928
-19.986573
-18.874867
-14.841396
-8.590592
-2.593693
0.817643
0.467649
-2.105991
-4.418246
-5.536732
-4.995959
-3.691604
-3.620062
-4.534443
-5.077554
-5.129223
-5.134834
-4.391827
-1.198623
3.722575
7.788544
9.904643
9.469780
6.767083
4.154633
3.470542
4.680443
6.343443
6.609037
4.985081
1.960446
-2.206055
-6.737748
-9.656940
-9.264862
-6.057631
-2.192728
0.323164
0.553922
-0.765396
-1.306169
1.376655
7.205221
12.332862
13.203991
10.478616
5.957211
-0.398100
-7.779313
-12.975224
-13.894982
-11.557009
-7.167933
-1.564748
3.259191
6.180722
8.269233
11.464774
16.031068
19.033025
17.556362
10.828845
-0.110529
-11.689806
-20.282089
-24.567593
-24.659241
-21.993251
-18.529311
-15.081502
-10.678866
-3.801252
4.953988
12.749257
16.941476
16.756308
13.030047
7.068919
0.296747
-6.065578
-11.545786
-16.136395
-19.204283
-19.174590
-15.252641
-8.383911
-0.666263
5.603712
10.212090
14.401269
17.561741
18.941378
19.386996
18.523349
15.336926
10.300699
3.922944
-3.101963
-8.918605
-12.225901
-13.292016
-13.534464
-14.339194
-15.121246
-14.313944
-12.026705
-9.333595
-7.057344
-5.586993
-4.309525
-3.500353
-4.611591
-7.030691
-9.447220
-12.430239
-16.326003
-19.973707
-21.797794
-20.687958
-16.055733
-7.918185
2.344580
12.715359
21.475742
26.951976
28.665476
28.068358
26.362807
22.685410
16.324488
8.936728
2.160114
-3.830941
-8.912758
-12.584310
-13.821799
-12.420886
-9.870158
-6.687709
-2.704505
0.288100
0.561175
-1.641663
-5.547947
-10.150012
-14.356259
-17.511821
-19.562456
-22.061048
-25.919872
-28.927907
-29.508893
-29.039896
-28.786226
-28.125748
-26.281556
-23.870171
-21.090087
-16.675293
-10.609657
-4.743216
-0.070778
3.368146
4.976672
5.217483
6.191248
8.557978
10.620304
10.767596
9.650747
9.276671
10.065737
11.278444
12.664628
12.744353
9.464177
3.821714
-1.488056
-5.489262
-8.528159
-11.504632
-15.340310
-19.687770
-23.193560
-24.141374
-21.681359
-17.208116
-12.554615
-8.392322
-4.689441
-0.992639
2.406306
3.902842
2.053272
-2.392850
-6.467703
-8.771775
-10.140892
-10.058127
-8.128365
-6.350102
-6.110928
-6.653104
-6.782861
-6.219176
-5.534617
-5.417251
-6.689108
-9.564347
-13.117831
-16.680668
-20.110941
-23.657646
-27.672412
-31.350277
-33.956181
-35.653783
-36.299531
-35.149015
-30.448755
-21.673408
-11.274807
-1.166582
7.786684
14.044268
17.266462
18.977390
20.650678
21.840004
21.090450
18.946997
17.098362
15.512749
13.272971
10.644623
8.479894
6.908776
5.647908
4.450164
3.285854
1.953210
-0.632822
-4.750226
-8.732728
-11.047789
-11.356401
-10.194195
-9.060745
-9.565747
-12.073924
-15.023043
-15.824968
-13.338768
-9.066356
-5.933940
-5.947968
-8.407983
-11.022304
-12.287848
-11.866780
-10.406248
-9.451887
-10.077763
-11.811136
-13.367524
-13.891931
-13.053300
-10.539512
-6.571972
-2.073947
2.613922
7.673295
12.296870
15.045157
15.721766
15.380656
14.157429
11.220468
7.399519
4.566130
2.919028
2.194257
2.700662
3.215250
1.921649
-0.581150
-2.386065
-2.985989
-2.840333
-1.916133
-0.707634
-0.996608
-3.715904
-7.641827
-10.737069
-12.074390
-12.331566
-12.133540
-11.624330
-11.582012
-12.267973
-13.007007
-13.865744
-14.722143
-14.746692
-14.170615
-12.997888
-10.262694
-6.387972
-2.695144
-0.366757
-0.355768
-1.823080
-3.327565
-4.389005
-4.536998
-4.116865
-3.880729
-3.642724
-3.564869
-3.982665
-4.728010
-5.346638
-4.629114
-2.116729
1.212778
4.831259
8.555649
11.763815
14.116751
16.290364
19.146665
21.890043
23.053885
22.433621
20.190337
16.716109
13.016735
9.260315
4.935767
-0.137400
-5.989579
-11.858826
-16.364801
-19.131324
-20.728393
-21.388636
-20.912391
-19.709504
-18.386211
-16.456916
-13.530008
-10.132700
-6.693309
-4.126682
-3.573985
-4.668390
-6.431923
-8.518330
-10.745950
-12.337408
-12.013365
-10.042220
-8.182830
-7.332743
-8.046526
-10.604502
-13.880236
-16.666631
-18.597563
-19.655729
-19.605229
-18.303680
-16.469073
-14.660183
-13.053294
-12.259553
-12.635732
-13.987548
-15.613608
-16.976880
-18.538879
-20.285812
-21.303298
-21.166760
-19.723997
-16.762955
-12.621003
-7.932666
-2.876800
2.390419
7.207344
11.330592
14.821419
17.042026
17.330999
15.351906
11.365662
6.744192
2.449804
-1.138984
-3.726652
-6.230855
-8.646916
-9.069621
-7.161134
-3.549434
1.747945
7.573237
13.040119
18.797610
24.505069
28.882222
31.322598
31.859396
31.032455
29.058037
25.960224
22.565488
19.277597
15.541283
10.681339
3.768655
-5.162166
-13.750241
-19.709734
-23.259477
-25.849717
-28.481105
-31.465294
-34.846002
-38.574601
-41.941281
-44.217765
-44.860941
-43.132011
-39.964759
-37.355581
-35.672943
-33.982354
-30.867707
-25.688630
-19.229981
-11.968939
-4.234925
3.287502
10.141269
14.880105
15.859015
14.084727
12.103529
10.531944
7.904998
3.700388
-0.480375
-2.752416
-2.470223
-0.412807
2.129271
4.779363
8.246109
12.786218
17.126898
20.129790
22.067502
23.303822
24.262391
25.815506
28.130800
30.818534
33.652858
36.482039
39.038144
40.644098
40.524861
37.801591
31.071503
19.932232
5.994642
-8.714947
-22.176759
-32.110104
-36.988985
-35.923337
-29.580417
-21.282952
-13.512700
-6.466284
-0.345705
5.164662
10.617516
15.182875
17.926252
19.248610
20.242950
20.991569
20.660512
18.540906
13.489248
4.860259
-6.418121
-18.965553
-31.317997
-41.943849
-49.202319
-52.061660
-51.732707
-50.037209
-47.714667
-45.383708
-42.659970
-38.755322
-35.116033
-32.768709
-29.599353
-23.714208
-15.627862
-6.817446
1.566992
9.522645
17.613433
25.984544
34.651877
42.747808
48.762477
53.219822
57.587622
61.165890
62.603275
61.544407
57.395441
49.742088
39.676882
29.187100
19.565407
10.957927
4.102524
0.980629
2.593596
7.920433
14.654496
20.047498
22.671872
22.623008
20.047264
15.812962
11.719873
8.916410
7.751165
8.025409
9.416970
11.763827
13.403448
11.854073
6.651616
-1.289074
-11.116508
-22.043724
-33.461448
-44.293976
-53.060438
-58.378391
-58.532230
-52.685194
-42.118025
-29.055772
-15.512831
-2.944124
8.314851
18.933923
28.934367
37.662720
45.755379
53.766910
60.279800
64.201516
66.192767
66.847633
65.720029
62.553245
57.841997
51.742226
43.736774
33.377217
21.153127
8.372600
-3.950153
-14.110280
-18.917152
-17.442826
-13.225357
-9.850961
-7.791675
-6.886880
-7.555774
-9.166169
-10.339597
-11.139184
-13.345061
-17.553412
-21.944358
-25.013181
-26.812485
-26.804302
-23.000654
-14.833180
-4.371922
6.600885
17.074769
25.599719
31.178589
32.782672
29.382325
22.018179
13.204489
4.686320
-3.544746
-12.327808
-20.985555
-27.539593
-31.169062
-32.400706
-31.821123
-29.745003
-26.286440
-20.923130
-12.862970
-2.576358
8.867785
21.284758
34.125137
45.660227
53.869316
57.403396
55.944501
49.718246
40.415453
30.440493
20.147334
10.205573
3.145364
-0.276727
-1.067663
0.336523
4.082891
10.405938
18.298232
25.604397
31.726612
37.390818
41.826888
43.512800
42.183195
38.078183
31.993375
25.467158
19.036798
12.851926
7.748131
3.784099
0.233654
-3.464785
-7.113893
-9.524810
-10.583912
-11.322945
-12.030182
-13.668399
-17.364500
-21.756849
-25.013177
-27.202221
-29.030749
-30.502036
-31.146848
-31.178645
-31.513209
-32.353710
-33.193276
-33.293808
-30.935729
-24.574573
-15.195328
-5.076582
4.839929
14.197664
21.601322
25.803127
27.362788
28.087560
29.313125
31.067306
32.548879
32.845568
31.991273
30.704921
28.239996
23.501861
17.415884
11.166250
4.707366
-1.617083
-6.390990
-8.984035
-10.391495
-11.679951
-12.910894
-13.369838
-12.652782
-11.272910
-10.158398
-9.998247
-9.863580
-7.682018
-2.482366
5.280872
14.037515
22.516640
30.699077
37.855377
43.035624
47.017191
50.695056
53.892000
56.123828
56.500242
54.027836
48.275488
39.550876
29.396593
19.048258
8.606171
-0.406246
-6.438215
-10.896729
-15.244423
-18.375669
-19.282569
-19.344759
-19.788740
-19.806976
-19.001311
-18.162212
-17.713321
-17.342051
-16.347711
-14.578100
-12.719412
-11.496418
-11.061321
-10.499506
-8.896592
-6.806445
-4.856108
-2.587573
0.439400
4.303134
8.319771
10.576382
9.758326
6.093320
0.455299
-5.649381
-10.669944
-13.734091
-14.294970
-12.335983
-8.376393
-3.772924
-0.688203
0.507202
1.596230
3.436682
5.584811
7.963699
10.662187
13.343608
15.991128
19.048495
22.567378
25.990637
28.169160
27.998254
25.478855
21.755400
18.481303
16.177231
13.663209
10.484034
7.477401
4.919893
2.605066
0.661510
-0.329323
0.199293
1.649771
2.638733
2.529784
1.541289
-0.207047
-3.103093
-7.386961
-12.536813
-17.099133
-19.415362
-19.465862
-18.375198
-16.665906
-15.142016
-14.853743
-16.147811
-19.618298
-25.117209
-30.936423
-35.860661
-39.442903
-41.451689
-41.470393
-38.956137
-34.993273
-30.456671
-24.887854
-19.369771
-14.417711
-8.352542
-0.584862
8.197499
17.168534
25.476052
32.346652
36.929313
39.634581
41.594971
41.966709
39.533347
35.551779
31.685006
27.890711
24.218457
21.193354
18.491593
16.051919
14.301946
12.479730
9.774696
7.073870
5.301921
3.850507
1.845462
-0.379820
-2.045859
-3.549643
-5.176639
-5.829167
-5.815373
-6.889671
-9.343841
-12.969335
-17.849853
-23.507980
-28.563846
-30.476775
-28.294979
-23.649427
-17.510379
-10.430062
-3.502416
3.189564
10.008729
16.877692
23.226691
27.798129
29.966832
29.816267
27.548200
24.747308
22.474799
19.751529
16.558092
13.426845
10.100144
7.406566
6.813890
8.765395
12.064743
15.143385
18.128275
21.064067
23.006221
24.325071
25.185913
23.810951
19.884560
15.060154
9.539499
3.230713
-2.938963
-9.030550
-14.963390
-19.642608
-22.739954
-24.256129
-24.060207
-22.799338
-21.484463
-20.243700
-18.255255
-15.077716
-10.887835
-6.143855
-2.290642
-0.618290
-0.158878
1.435385
5.016224
8.834601
11.219567
12.276565
11.991566
10.563298
9.405768
9.420731
10.779795
13.423341
16.503620
18.842761
19.844349
19.782159
18.948905
16.887047
13.222041
8.325392
2.931221
-2.520931
-7.893592
-12.710517
-16.407553
-18.809820
-19.937190
-20.054790
-19.511679
-18.319781
-16.410358
-13.937718
-11.018993
-7.686213
-4.269734
-1.354282
0.576650
1.101992
0.254711
-1.045669
-2.186366
-3.555717
-5.547435
-8.259951
-11.421592
-14.196765
-16.136815
-17.426674
-17.704425
-16.273586
-13.589126
-10.957504
-9.131079
-7.840518
-6.165127
-3.780161
-1.224056
1.166054
3.232354
5.041477
6.809920
8.101884
8.674921
8.792989
8.250345
6.798698
4.966429
4.195132
5.167495
6.650471
8.034551
9.935089
12.112910
13.552634
12.999937
9.716488
4.523851
-0.830808
-4.977202
-7.721748
-9.526897
-11.031850
-13.027543
-15.217522
-16.706343
-17.710736
-18.848627
-20.317575
-22.033647
-23.704830
-25.091248
-25.649789
-24.525458
-22.101682
-19.893467
-18.438780
-17.822023
-18.617167
-20.615666
-23.277682
-26.359363
-29.420471
-31.920933
-32.443236
-29.952593
-25.707069
-21.206471
-16.812252
-12.133968
-6.735356
-1.240419
4.139257
10.178708
16.715913
22.706968
26.902694
28.834561
29.397077
29.051057
28.135039
27.481576
26.791874
25.935709
25.583142
25.163944
23.672317
20.803157
17.015876
13.214098
8.991954
3.611110
-2.139602
-7.395364
-11.684609
-14.721635
-17.192171
-19.449016
-20.754773
-20.620106
-19.030051
-16.613522
-14.263860
-11.776257
-8.865013
-6.130053
-4.169195
-3.356516
-3.411224
-3.547528
-3.848659
-4.951714
-6.648147
-7.806846
-7.757983
-7.193128
-6.825131
-6.129584
-4.752051
-3.547761
-2.850344
-1.916791
-0.651247
0.431936
1.404065
2.511563
3.522736
4.330272
5.163292
5.604000
4.752978
2.435813
-1.102475
-5.730258
-10.715517
-14.780082
-17.383181
-18.928113
-19.621556
-19.629505
-19.733311
-19.962198
-19.226906
-17.363308
-15.249313
-13.025199
-10.217294
-7.323585
-5.631361
-4.910798
-3.316768
-0.288158
3.244753
6.886846
10.343305
13.111465
15.332071
16.913944
17.484175
17.290124
16.574237
15.475389
14.261982
