EVENT_NAME: 202302060117
EVENT_ID: 13194
EVENT_DATE_YYYYMMDD: 2023/02/06
EVENT_TIME_HHMMSS: 01:17:32.00000
EVENT_LATITUDE_DEGREE: 37.288
EVENT_LONGITUDE_DEGREE: 37.043
EVENT_DEPTH_KM: 8.6
HYPOCENTER_REFERENCE: AFAD
MAGNITUDE_W: 7.7
MAGNITUDE_W_REFERENCE: AFAD
MAGNITUDE_L: 
MAGNITUDE_L_REFERENCE: 
FOCAL_MECHANISM: 
NETWORK: TK
STATION_CODE: 4206
STATION_NAME: 
STATION_LATITUDE_DEGREE: 37.52506
STATION_LONGITUDE_DEGREE: 34.04843
STATION_ELEVATION_M: 1032.0
LOCATION: Kahramanmaras_Pazarck_Turkiye
SENSOR_DEPTH_M: 
VS30_M/S: 458
SITE_CLASSIFICATION_EC8: B
MORPHOLOGIC_CLASSIFICATION: 
EPICENTRAL_DISTANCE_KM: 265.80
EARTHQUAKE_BACKAZIMUTH_DEGREE: 
DATE_TIME_FIRST_SAMPLE_YYYYMMDD_HHMMSS: 2023/02/06 01:17:55.3174570
DATE_TIME_FIRST_SAMPLE_PRECISION: millisecond
SAMPLING_INTERVAL_S: 0.01
NDATA: 18251
DURATION_S: 
STREAM: HNZ
UNITS: cm/s^2
INSTRUMENT: sensor = GMS+/GEOSIG | digitizer = 
INSTRUMENT_ANALOG/DIGITAL: 
INSTRUMENTAL_FREQUENCY_HZ: 
INSTRUMENTAL_DAMPING: 
FULL_SCALE_G: 
N_BIT_DIGITAL_CONVERTER: 
PGA_CM/S^2: 16.289
TIME_PGA_S: 
BASELINE_CORRECTION: BASELINE REMOVED
FILTER_TYPE: BUTTERWORTH
FILTER_ORDER: 
LOW_CUT_FREQUENCY_HZ: 
HIGH_CUT_FREQUENCY_HZ: 
LATE/NORMAL_TRIGGERED: 
DATABASE_VERSION: 
HEADER_FORMAT: DYNA 1.2
DATA_TYPE: Acceleration
PROCESSING: Automatic Paolucci et al., 2011
DATA_TIMESTAMP_YYYYMMDD_HHMMSS: 
DATA_LICENSE: U (unknown license)
DATA_CITATION: Turkish Accelerometric Archive v 1.0 - Disaster And Emergency Management Presidency, Earthquake Department
DATA_CREATOR: AFAD
ORIGINAL_DATA_MEDIATOR_CITATION: : AFAD - Disaster And Emergency Management Presidency
ORIGINAL_DATA_MEDIATOR: AFAD PROCESS SERVICE
ORIGINAL_DATA_CREATOR_CITATION: AFAD PROCESS SERVICE
ORIGINAL_DATA_CREATOR: network: TK
USER1: GuestUser
USER2: 
USER3: 
USER4: 
USER5: 
[...]
-1.708654
-1.761906
-1.759568
-1.705537
-1.612540
-1.491488
-1.350693
-1.165998
-0.924154
-0.631396
-0.356301
-0.134719
0.054912
0.234152
0.424042
0.573149
0.617569
0.527949
0.300912
-0.017043
-0.386433
-0.768292
-1.094301
-1.342639
-1.500837
-1.535126
-1.457196
-1.272761
-0.984678
-0.644642
-0.306424
0.025040
0.380922
0.764340
1.141523
1.496626
1.784189
1.958753
2.064479
2.171763
2.358277
2.683247
3.153946
3.709850
4.238997
4.691253
5.062721
5.363792
5.615767
5.804619
5.891901
5.856573
5.727728
5.529525
5.303007
5.131301
5.073373
5.099869
5.111299
5.067918
4.987390
4.907122
4.851532
4.808410
4.773342
4.752041
4.765549
4.835946
4.952842
5.092857
5.204297
5.224040
5.125588
4.926866
4.693334
4.440580
4.165226
3.855583
3.491648
3.117583
2.767675
2.471540
2.230476
1.996165
1.747307
1.500788
1.252450
0.986707
0.688754
0.350536
-0.000670
-0.364605
-0.753478
-1.118451
-1.360035
-1.472255
-1.538236
-1.624739
-1.748388
-1.878532
-1.990492
-2.038289
-2.014909
-1.988673
-2.027118
-2.169471
-2.431837
-2.833697
-3.355052
-3.918488
-4.420100
-4.773904
-4.983536
-5.117576
-5.241486
-5.407217
-5.648542
-5.963121
-6.293805
-6.576173
-6.769959
-6.818016
-6.725019
-6.547078
-6.314066
-6.062611
-5.808298
-5.563077
-5.382278
-5.339936
-5.410593
-5.509045
-5.595807
-5.699714
-5.844924
-5.982601
-6.106251
-6.235095
-6.411997
-6.636956
-6.795414
-6.748916
-6.441870
-5.948311
-5.374743
-4.819359
-4.329956
-3.952254
-3.687810
-3.448304
-3.188016
-2.894478
-2.572366
-2.245318
-1.996460
-1.910217
-1.971522
-2.141151
-2.392086
-2.685624
-2.980461
-3.227500
-3.372970
-3.410376
-3.401804
-3.416610
-3.440249
-3.438431
-3.419467
-3.314521
-3.095277
-2.836548
-2.593405
-2.368965
-2.135954
-1.873328
-1.524719
-1.036875
-0.420705
0.269238
0.959961
1.574572
2.073327
2.462979
2.754698
2.956019
3.112659
3.290860
3.501272
3.749610
4.009118
4.171993
4.189138
4.113805
4.035095
4.021328
4.050422
4.115884
4.290708
4.580868
4.939348
5.313154
5.628253
5.857628
6.039726
6.211692
6.365735
6.475616
6.544975
6.556405
6.490164
6.365475
6.157142
5.843082
5.454989
5.014423
4.503719
3.930411
3.370612
2.936020
2.685864
2.570527
2.453372
2.251532
2.029171
1.833825
1.686537
1.622894
1.623154
1.674069
1.739011
1.780574
1.786029
1.735634
1.720048
1.812526
1.981375
2.185812
2.374144
2.500391
2.514419
2.390770
2.101908
1.655627
1.137390
0.616295
0.110527
-0.356795
-0.767488
-1.129864
-1.442884
-1.749930
-2.084771
-2.435717
-2.806406
-3.168782
-3.472451
-3.701566
-3.814305
-3.833787
-3.863920
-3.953280
-4.119272
-4.322670
-4.521393
-4.649458
-4.652056
-4.573865
-4.435149
-4.227335
-3.936654
-3.586487
-3.202550
-2.828744
-2.504034
-2.239330
-2.052817
-1.840846
-1.546789
-1.201557
-0.863079
-0.555254
-0.251585
0.016495
0.271068
0.524602
0.764108
1.018680
1.357158
1.808375
2.317780
2.827964
3.295807
3.700006
4.017702
4.229153
4.297992
4.204735
3.991725
3.720788
3.425172
3.168781
2.978891
2.773155
2.456498
1.970732
1.409633
0.907502
0.555516
0.361989
0.260680
0.240159
0.287436
0.367705
0.436024
0.451870
0.367705
0.184829
-0.048962
-0.273142
-0.413417
-0.487710
-0.519661
-0.521999
-0.526155
-0.549275
-0.615775
-0.693186
-0.780208
-0.863593
-0.925678
-1.007245
-1.076863
-1.117646
-1.121542
-1.085694
-1.052963
-1.006465
-0.923599
-0.769556
-0.473681
-0.038050
0.450054
0.874256
1.201563
1.510427
1.865530
2.224270
2.493909
2.645354
2.689774
2.701204
2.790305
3.008510
3.333480
3.688583
4.007578
4.293582
4.552571
4.768698
4.959108
5.103799
5.179651
5.132633
4.955731
4.777791
4.675442
4.631541
4.557767
4.396192
4.213575
4.029660
3.841068
3.694040
3.567273
3.439467
3.331923
3.231653
3.131383
3.071377
3.137098
3.399204
3.784700
4.153570
4.441913
4.622711
4.694667
4.657780
4.510492
4.242152
3.858994
3.419727
2.986694
2.589509
2.202714
1.774617
1.264433
0.666967
0.021963
-0.606416
-1.164137
-1.636915
-2.052283
-2.447650
-2.806130
-3.082003
-3.269556
-3.400219
-3.520231
-3.650895
-3.792987
-3.894557
-3.887543
-3.775323
-3.602317
-3.392685
-3.120188
-2.768202
-2.341144
-1.890966
-1.502353
-1.196606
-0.941773
-0.748766
-0.680187
-0.691617
-0.669536
-0.597840
-0.524066
-0.466397
-0.405352
-0.331837
-0.291054
-0.335474
-0.508479
-0.825656
-1.234530
-1.709906
-2.216972
-2.714168
-3.229288
-3.763111
-4.288361
-4.750488
-5.111046
-5.374451
-5.495243
-5.498620
-5.470824
-5.449264
-5.442509
-5.448484
-5.484332
-5.512127
-5.501736
-5.547455
-5.732929
-6.019973
-6.325979
-6.618218
-6.887597
-7.090216
-7.214905
-7.246336
-7.160093
-6.982152
-6.754336
-6.502361
-6.175053
-5.794493
-5.456015
-5.228718
-5.148190
-5.142475
-5.139617
-5.099094
-4.977522
-4.747108
-4.382653
-3.843894
-3.115765
-2.266583
-1.400517
-0.574195
0.206148
0.907261
1.490441
1.914122
2.189996
2.452102
2.786683
3.195298
3.661841
4.163973
4.678833
5.172132
5.613998
5.976374
6.241078
6.397978
6.490455
6.572282
6.680865
6.816464
6.893356
6.866600
6.728923
6.460583
6.091712
5.730375
5.491129
5.375273
5.293706
5.174212
4.982504
4.746115
4.546613
4.416210
4.321135
4.236970
4.151767
4.007855
3.778740
3.536637
3.308041
3.046195
2.769802
2.440157
1.968158
1.393812
0.878952
0.563853
0.419942
0.378119
0.376301
0.347467
0.289279
0.258107
0.312658
0.418384
0.467740
0.324089
-0.032832
-0.454436
-0.801486
-1.081255
-1.398172
-1.777174
-2.188126
-2.608431
-2.991848
-3.262526
-3.379162
-3.429037
-3.502551
-3.620746
-3.762579
-3.859212
-3.865706
-3.754526
-3.596587
-3.497615
-3.456312
-3.452675
-3.450856
-3.472677
-3.543334
-3.587754
-3.580740
-3.523331
-3.441764
-3.352404
-3.210570
-3.015225
-2.761951
-2.440358
-2.079800
-1.724697
-1.412976
-1.194770
-1.074498
-0.970850
-0.835511
-0.674715
-0.471836
-0.188429
0.174727
0.594772
0.999750
1.275624
1.386025
1.383428
1.315888
1.187303
1.021311
0.854281
0.648285
0.311106
-0.134655
-0.559376
-0.871617
-1.013710
-0.971108
-0.795504
-0.546127
-0.267136
-0.010226
0.213954
0.437355
0.629063
0.726996
0.675302
0.476061
0.241490
0.074200
0.031858
0.110308
0.239672
0.348515
0.382285
0.301238
0.140961
0.039911
0.056017
0.125115
0.177329
0.211359
0.274222
0.389300
0.570358
0.790122
0.992221
1.151719
1.289916
1.450452
1.657228
1.868679
1.954143
1.824259
1.501367
1.070932
0.663616
0.428526
0.482818
0.794539
1.194582
1.512798
1.672555
1.698272
1.627875
1.484224
1.306543
1.164969
1.147825
1.297451
1.571247
1.904529
2.219108
2.446145
2.588758
2.666689
2.689808
2.688509
2.709551
2.780208
2.884634
2.931393
2.829044
2.570316
2.162480
1.624241
1.025216
0.478145
0.080700
-0.146337
-0.206083
-0.136206
-0.043209
-0.052820
-0.266868
-0.632362
-0.968761
-1.151897
-1.194499
-1.126180
-0.906157
-0.573913
-0.198549
0.163828
0.413465
0.471393
0.282542
-0.150491
-0.716525
-1.285157
-1.790406
-2.207073
-2.551525
-2.826879
-3.003521
-3.094700
-3.156524
-3.290045
-3.580725
-4.089870
-4.791503
-5.520152
-6.094239
-6.408039
-6.525194
-6.563380
-6.601046
-6.653519
-6.670664
-6.636634
-6.548832
-6.398167
-6.170350
-5.912401
-5.674713
-5.450793
-5.251551
-5.102444
-5.029709
-5.021396
-5.018798
-4.912293
-4.613300
-4.156368
-3.664627
-3.310304
-3.220684
-3.403820
-3.792952
-4.298461
-4.854364
-5.344546
-5.692635
-5.913178
-5.954481
-5.772643
-5.397798
-4.929176
-4.463412
-4.004922
-3.573707
-3.172365
-2.726604
-2.260840
-1.835340
-1.441531
-1.051360
-0.623522
-0.154641
0.339958
0.772991
1.058995
1.242911
1.342402
1.361106
1.361625
1.429685
1.639837
1.961949
2.304064
2.617344
2.880749
3.020504
3.031674
3.061548
3.146752
3.267544
3.432237
3.567057
3.636155
3.620569
3.502894
3.330928
3.116360
2.892440
2.747489
2.724890
2.866204
3.141298
3.467567
3.820072
4.122442
4.360129
4.598856
4.850572
5.155020
5.472976
5.730925
5.894060
5.933804
5.907308
5.850679
5.783139
5.715340
5.621044
5.475834
5.293737
5.138656
5.003317
4.862523
4.703285
4.496769
4.261680
4.040877
3.894628
3.889692
4.038280
4.250250
4.405072
4.499888
4.556517
4.562492
4.498589
4.331039
4.056464
3.737210
3.468090
3.269368
3.113767
2.992975
2.878677
2.714244
2.482272
2.203021
1.919355
1.679069
1.461124
1.193823
0.832486
0.438678
0.070067
-0.298024
-0.629487
-0.874189
-1.069534
-1.236305
-1.366708
-1.455029
-1.499969
-1.518672
-1.516334
-1.449054
-1.270334
-1.016540
-0.775995
-0.573896
-0.339065
0.023311
0.538951
1.100049
1.527887
1.704010
1.647900
1.483987
1.336958
1.285524
1.337478
1.431774
1.477493
1.439567
1.371768
1.311761
1.242663
1.150186
1.025757
0.870416
0.729882
0.689618
0.789369
0.963154
1.104727
1.127068
0.976662
0.672993
0.318930
0.010585
-0.233336
-0.412057
-0.513366
-0.543499
-0.510768
-0.405822
-0.270483
-0.214373
-0.253598
-0.316201
-0.351530
-0.344776
-0.345035
-0.401145
-0.522457
-0.654938
-0.746376
-0.838594
-0.967439
-1.082516
-1.097582
-1.006404
-0.839632
-0.622207
-0.364517
-0.104489
0.078907
0.190608
0.260226
0.341014
0.451415
0.468040
0.315557
0.049295
-0.212551
-0.417768
-0.582461
-0.678834
-0.697538
-0.660391
-0.553366
-0.362437
-0.130724
0.090339
0.277892
0.456612
0.653516
0.825742
0.902894
0.869384
0.775088
0.705211
0.732227
0.849382
1.009659
1.130451
1.150194
1.057197
0.874840
0.672740
0.474018
0.314521
0.255553
0.306468
0.414012
0.494281
0.507269
0.452458
0.340498
0.217888
0.157622
0.205939
0.352968
0.571173
0.822109
1.083955
1.367362
1.626610
1.821696
1.937033
1.927162
1.765846
1.527899
1.362427
1.330216
1.386326
1.396717
1.264755
1.034600
0.729113
0.390116
0.071381
-0.214104
-0.436205
-0.667139
-0.943791
-1.225640
-1.526970
-1.800766
-2.012216
-2.198990
-2.402907
-2.656181
-2.943744
-3.261440
-3.616802
-3.972424
-4.283626
-4.522093
-4.690163
-4.816670
-4.892002
-4.891223
-4.807058
-4.661068
-4.513780
-4.405197
-4.383376
-4.494297
-4.634052
-4.650937
-4.524949
-4.331682
-4.165170
-4.064640
-3.984372
-3.857605
-3.641997
-3.367942
-3.143503
-3.048427
-3.073105
-3.137268
-3.147658
-3.035179
-2.809960
-2.562141
-2.357704
-2.201583
-2.061049
-1.887004
-1.676332
-1.525666
-1.538135
-1.679449
-1.805956
-1.827257
-1.734519
-1.514756
-1.195501
-0.849230
-0.497504
-0.137985
0.167502
0.354275
0.454286
0.528580
0.587028
0.636124
0.698468
0.814065
1.042401
1.371008
1.741956
2.135505
2.583085
3.138729
3.774381
4.420944
5.034256
5.574573
6.033064
6.418559
6.726904
6.953682
7.117076
7.243063
7.369570
7.513482
7.596088
7.555045
7.446202
7.338139
7.229556
7.040705
6.749245
6.441161
6.111256
5.758231
5.382607
4.919700
4.370811
3.794126
3.258225
2.750898
2.272146
1.853920
1.515962
1.265286
1.062927
0.900572
0.779001
0.703668
0.651715
0.602879
0.532222
0.374023
0.116593
-0.140057
-0.275136
-0.284228
-0.224741
-0.183178
-0.227079
-0.329947
-0.436192
-0.516460
-0.579064
-0.639850
-0.712325
-0.842988
-1.104574
-1.541244
-2.122085
-2.754620
-3.331564
-3.823564
-4.267767
-4.623390
-4.817176
-4.828346
-4.684695
-4.503636
-4.384143
-4.328293
-4.341800
-4.436616
-4.575591
-4.695604
-4.788861
-4.902899
-5.108894
-5.374377
-5.578035
-5.692852
-5.762470
-5.851570
-5.938073
-5.961452
-5.917032
-5.770522
-5.554395
-5.328917
-5.153833
-5.097723
-5.162665
-5.292029
-5.341125
-5.215138
-4.926016
-4.540260
-4.184119
-3.939677
-3.789791
-3.686663
-3.609252
-3.525347
-3.415465
-3.229211
-3.004252
-2.750458
-2.383406
-2.078958
-1.911667
-1.794252
-1.726972
-1.645145
-1.517339
-1.350828
-1.151066
-0.895195
-0.540352
-0.112514
0.290646
0.596133
0.824729
1.017217
1.258282
1.607670
1.994205
2.332423
2.621545
2.902094
3.156667
3.384483
3.594116
3.755952
3.908176
4.127420
4.427192
4.737096
5.016606
5.268841
5.498995
5.714862
5.877477
5.948654
5.940082
5.901896
5.901896
5.921638
5.935146
5.956188
5.941381
5.898000
5.847865
5.775909
5.714604
5.693563
5.709149
5.761882
5.825785
5.833059
5.754089
5.567316
5.278195
4.977124
4.732682
4.602279
4.554742
4.491099
4.403297
4.266400
4.040661
3.705301
3.293569
2.843131
2.282812
1.566632
0.731998
-0.122119
-0.898825
-1.572403
-2.153244
-2.670182
-3.161663
-3.617555
-4.020975
-4.375038
-4.664420
-4.923149
-5.108363
-5.203957
-5.341634
-5.568671
-5.838051
-6.130030
-6.507732
-6.935310
-7.340028
-7.693572
-8.001657
-8.273374
-8.354941
-8.334419
-8.265581
-8.181935
-8.227135
-8.255969
-8.347667
-8.426377
-8.455990
-8.613669
-8.769270
-9.002541
-9.248282
-9.409857
-9.555327
-9.582343
-9.521297
-9.336343
-9.016049
-8.690300
-8.429233
-8.309999
-8.263241
-8.205572
-8.185570
-8.136474
-7.986587
-7.734353
-7.417436
-7.159746
-6.975051
-6.867247
-6.830100
-6.824385
-6.927773
-7.110909
-7.351973
-7.649408
-7.909955
-8.118548
-8.276747
-8.455727
-8.712118
-8.981757
-9.223600
-9.410114
-9.519216
-9.549349
-9.525450
-9.477913
-9.388293
-9.257369
-9.105925
-8.901747
-8.606391
-8.238040
-7.864493
-7.481076
-7.017909
-6.461486
-5.766347
-4.917685
-4.032396
-3.218024
-2.481062
-1.738645
-0.958822
-0.165490
0.656675
1.484556
2.258404
2.984456
3.699337
4.382787
5.000515
5.549405
6.042444
6.482232
6.886171
7.310632
7.788865
8.306322
8.877812
9.515023
10.173015
10.831007
11.419382
11.901771
12.358703
12.836156
13.384786
13.991085
14.648557
15.359023
15.947138
16.273926
16.289252
16.059358
15.744259
15.445266
15.261870
15.176147
15.097438
14.951968
14.678952
14.269298
13.703004
13.028646
12.296101
11.517577
10.745546
10.007286
9.308251
8.584537
7.793025
6.970340
6.149733
5.337179
4.481244
3.616996
2.785739
1.984355
1.260641
0.573815
-0.104439
-0.734636
-1.295994
-1.797866
-2.316102
-2.846289
-3.351018
-3.827692
-4.237865
-4.631413
-5.048860
-5.503194
-5.961685
-6.345102
-6.680722
-6.961791
-7.186750
-7.349884
-7.441582
-7.519252
-7.628095
-7.821882
-8.053595
-8.285827
-8.539360
-8.799128
-9.050064
-9.248526
-9.409582
-9.545441
-9.641295
-9.706237
-9.736630
-9.725979
-9.674545
-9.612460
-9.509592
-9.309831
-8.994472
-8.567414
-8.066321
-7.530420
-7.039199
-6.634740
-6.271065
-5.908429
-5.568392
-5.314339
-5.158478
-5.065741
-4.963652
-4.772723
-4.530619
-4.305919
-4.124082
-3.992379
-3.914968
-3.865353
-3.754691
-3.580127
-3.409200
-3.285031
-3.225544
-3.218270
-3.228141
-3.232557
-3.253079
-3.300876
-3.347374
-3.323216
-3.246584
-3.174888
-3.145794
-3.188655
-3.199825
-3.099295
-2.887844
-2.618205
-2.336876
-1.994242
-1.563546
-1.034919
-0.437972
0.187549
0.842424
1.475219
2.018654
2.479482
2.946026
3.487642
4.071860
4.618152
5.091709
5.529418
5.982973
6.445620
6.869821
7.186218
7.311427
7.256616
7.100235
6.912943
6.719416
6.514719
6.341194
6.199101
6.005314
5.685021
5.277445
4.897664
4.621011
4.478139
4.408002
4.365920
4.352672
4.326695
4.272923
4.198630
4.142780
4.099918
4.040431
4.001466
3.999128
4.017832
4.015234
3.955488
3.821188
3.617010
3.396208
3.204499
3.061627
3.000841
3.026558
3.065783
3.050197
2.967851
2.862126
2.802119
2.853034
3.004998
3.140078
3.234114
3.363738
3.507390
3.565838
3.497779
3.335164
3.063707
2.690940
2.274792
1.872671
1.546143
1.298325
1.107655
0.944521
0.784244
0.578248
0.286789
-0.008307
-0.247294
-0.434846
-0.588109
-0.732280
-0.859307
-0.983216
-1.127127
-1.303250
-1.526130
-1.763298
-2.016572
-2.284133
-2.539744
-2.774834
-2.972777
-3.161629
-3.306319
-3.383210
-3.453867
-3.485818
-3.449970
-3.348401
-3.217218
-3.133573
-3.124741
-3.248390
-3.477245
-3.725324
-3.937034
-4.059125
-4.098870
-4.070035
-4.045617
-4.041201
-3.990806
-3.886639
-3.741688
-3.619077
-3.548161
-3.511274
-3.504260
-3.501402
-3.440876
-3.233841
-2.875621
-2.450381
-2.071899
-1.799922
-1.627955
-1.521710
-1.415465
-1.288698
-1.106860
-0.855665
-0.564465
-0.268329
0.011181
0.300823
0.578515
0.808409
0.965569
1.074932
1.162733
1.220921
1.291319
1.376263
1.439906
1.453154
1.445361
1.465364
1.490042
1.521733
1.589793
1.659670
1.678114
1.647981
1.641747
1.710585
1.843327
2.018411
2.175051
2.226745
2.147256
1.956067
1.712924
1.512383
1.443805
1.520177
1.647982
1.751110
1.776308
1.773451
1.858395
2.017113
2.181546
2.338446
2.555872
2.813302
3.045535
3.301147
3.606634
3.915758
4.154744
4.288525
4.283070
4.144614
4.044603
4.085387
4.225922
4.423605
4.709610
5.075623
5.416438
5.704781
5.928961
6.123007
6.312378
6.461745
6.554742
6.597084
6.675275
6.805418
6.939199
6.983619
6.884388
6.724631
6.594487
6.558380
6.561237
6.501751
6.319653
6.016504
5.651790
5.264476
4.925479
4.620772
4.276579
3.897058
3.505069
3.122691
2.801358
2.594063
2.430409
2.232466
1.980492
1.705397
1.444850
1.158586
0.858814
0.595150
0.436172
0.431496
0.545534
0.691784
0.769974
0.741140
0.600606
0.388116
0.197186
0.100812
0.094318
0.095617
0.054834
-0.004653
-0.092714
-0.257147
-0.501589
-0.783696
-1.029177
-1.184258
-1.291023
-1.416231
-1.573131
-1.764060
-2.000449
-2.266191
-2.553235
-2.849889
-3.075108
-3.167845
-3.168365
-3.173820
-3.206290
-3.220058
-3.220837
-3.264218
-3.370983
-3.523726
-3.710240
-3.869737
-3.960136
-4.001439
-4.028715
-4.113139
-4.262506
-4.429017
-4.596307
-4.777885
-4.976088
-5.182603
-5.417433
-5.643431
-5.870468
-6.171799
-6.512095
-6.826414
-7.047996
-7.099430
-6.925385
-6.584050
-6.220894
-5.886573
-5.600828
-5.366517
-5.130648
-4.862307
-4.500191
-4.026894
-3.482420
-2.894045
-2.369834
-1.952906
-1.572086
-1.202956
-0.877986
-0.592501
-0.264154
0.123939
0.493070
0.827651
1.162232
1.503567
1.868022
2.231957
2.547315
2.813317
3.072566
3.362207
3.670812
3.980455
4.270876
4.534021
4.785476
5.042127
5.301635
5.547636
5.782206
5.966382
6.083797
6.175495
6.287975
6.419937
6.478645
6.499426
6.595021
6.771144
7.012468
7.314578
7.650718
7.919838
8.091804
8.234677
8.387161
8.550815
8.723560
8.904878
9.041257
9.110355
9.161529
9.232446
9.328301
9.414024
9.458185
9.426234
9.290375
9.067494
8.775515
8.444831
8.115445
7.788138
7.439789
7.087024
6.721531
6.312656
5.914172
5.544782
5.161625
4.730151
4.264646
3.823561
3.427674
3.093353
2.818259
2.547062
2.217156
1.777629
1.199646
0.510222
-0.209855
-0.886290
-1.500641
-2.050570
-2.533479
-2.991190
-3.445524
-3.861672
-4.234438
-4.613440
-5.038160
-5.464699
-5.819802
-6.099572
-6.312321
-6.472858
-6.622484
-6.784319
-6.991354
-7.260993
-7.521540
-7.695845
-7.804428
-7.871448
-7.885735
-7.834301
-7.708832
-7.528813
-7.302036
-7.084090
-6.928229
-6.867444
-6.960440
-7.184101
-7.478158
-7.755330
-7.934829
-7.962625
-7.833000
-7.661553
-7.563621
-7.543618
-7.509069
-7.421268
-7.281253
-7.098636
-6.911862
-6.737818
-6.570787
-6.302706
-5.829149
-5.156610
-4.374189
-3.593586
-2.880523
-2.291110
-1.811578
-1.336722
-0.773545
-0.091394
0.655179
1.396297
2.115075
2.774885
3.302734
3.690308
3.994236
4.283098
4.651190
5.184493
5.876255
6.615035
7.321085
7.956217
8.458869
8.822803
9.077636
9.261292
9.448065
9.665231
9.814078
9.790440
9.592237
9.264670
8.921776
8.642526
8.389772
8.144031
7.828933
7.348622
6.748298
6.170575
