EVENT_NAME: 202302060117
EVENT_ID: 13194
EVENT_DATE_YYYYMMDD: 2023/02/06
EVENT_TIME_HHMMSS: 01:17:32.00000
EVENT_LATITUDE_DEGREE: 37.288
EVENT_LONGITUDE_DEGREE: 37.043
EVENT_DEPTH_KM: 8.6
HYPOCENTER_REFERENCE: AFAD
MAGNITUDE_W: 7.7
MAGNITUDE_W_REFERENCE: AFAD
MAGNITUDE_L: 
MAGNITUDE_L_REFERENCE: 
FOCAL_MECHANISM: 
NETWORK: TK
STATION_CODE: 5808
STATION_NAME: 
STATION_LATITUDE_DEGREE: 39.8662
STATION_LONGITUDE_DEGREE: 36.5932
STATION_ELEVATION_M: 1381.0
LOCATION: Kahramanmaras_Pazarck_Turkiye
SENSOR_DEPTH_M: 
VS30_M/S: 691
SITE_CLASSIFICATION_EC8: B
MORPHOLOGIC_CLASSIFICATION: 
EPICENTRAL_DISTANCE_KM: 289.34
EARTHQUAKE_BACKAZIMUTH_DEGREE: 
DATE_TIME_FIRST_SAMPLE_YYYYMMDD_HHMMSS: 2023/02/06 01:17:59.3695470
DATE_TIME_FIRST_SAMPLE_PRECISION: millisecond
SAMPLING_INTERVAL_S: 0.01
NDATA: 18251
DURATION_S: 
STREAM: HNN
UNITS: cm/s^2
INSTRUMENT: sensor = GMS+/GEOSIG | digitizer = 
INSTRUMENT_ANALOG/DIGITAL: 
INSTRUMENTAL_FREQUENCY_HZ: 
INSTRUMENTAL_DAMPING: 
FULL_SCALE_G: 
N_BIT_DIGITAL_CONVERTER: 
PGA_CM/S^2: 4.371
TIME_PGA_S: 
BASELINE_CORRECTION: BASELINE REMOVED
FILTER_TYPE: BUTTERWORTH
FILTER_ORDER: 
LOW_CUT_FREQUENCY_HZ: 
HIGH_CUT_FREQUENCY_HZ: 
LATE/NORMAL_TRIGGERED: 
DATABASE_VERSION: 
HEADER_FORMAT: DYNA 1.2
DATA_TYPE: Acceleration
PROCESSING: Automatic Paolucci et al., 2011
DATA_TIMESTAMP_YYYYMMDD_HHMMSS: 
DATA_LICENSE: U (unknown license)
DATA_CITATION: Turkish Accelerometric Archive v 1.0 - Disaster And Emergency Management Presidency, Earthquake Department
DATA_CREATOR: AFAD
ORIGINAL_DATA_MEDIATOR_CITATION: : AFAD - Disaster And Emergency Management Presidency
ORIGINAL_DATA_MEDIATOR: AFAD PROCESS SERVICE
ORIGINAL_DATA_CREATOR_CITATION: AFAD PROCESS SERVICE
ORIGINAL_DATA_CREATOR: network: TK
USER1: GuestUser
USER2: 
USER3: 
USER4: 
USER5: 
[...]
-0.299692
-0.362297
-0.393469
-0.391910
-0.377883
-0.329566
-0.271638
-0.208774
-0.145651
-0.112920
-0.120713
-0.147210
-0.169290
-0.188773
-0.205917
-0.218906
-0.214490
-0.186955
-0.160718
-0.145132
-0.146691
-0.160718
-0.145652
-0.122793
-0.080710
-0.000442
0.062682
0.136456
0.204774
0.233349
0.265820
0.294394
0.317773
0.334398
0.344529
0.351283
0.335437
0.339074
0.360894
0.382974
0.424537
0.462983
0.502987
0.530262
0.527405
0.517793
0.504805
0.494414
0.497271
0.541172
0.620661
0.730283
0.879390
1.026678
1.165654
1.301772
1.418927
1.528809
1.644925
1.736363
1.788057
1.824424
1.844946
1.868325
1.879495
1.853258
1.816371
1.774289
1.717140
1.649860
1.580242
1.503610
1.433992
1.343853
1.230854
1.144091
1.058108
0.963552
0.838863
0.682483
0.528960
0.364007
0.197756
0.032284
-0.120200
-0.220990
-0.289309
-0.352433
-0.398932
-0.444131
-0.483876
-0.506736
-0.544142
-0.602071
-0.697925
-0.802352
-0.867034
-0.911195
-0.933015
-0.924963
-0.892492
-0.843655
-0.776376
-0.697406
-0.615839
-0.536350
-0.485955
-0.466733
-0.453225
-0.432444
-0.403609
-0.383607
-0.345162
-0.286714
-0.265933
-0.257880
-0.243073
-0.216317
-0.168780
-0.096305
-0.002269
0.076701
0.164242
0.256200
0.340884
0.422191
0.482977
0.546620
0.612861
0.687674
0.777813
0.859380
0.932115
1.026411
1.143306
1.243057
1.317870
1.387488
1.468016
1.575560
1.698690
1.811948
1.883904
1.915076
1.931182
1.932740
1.921830
1.890658
1.865720
1.871175
1.862343
1.847276
1.836106
1.809350
1.770904
1.698948
1.608549
1.528280
1.454247
1.395799
1.356833
1.337091
1.307477
1.260979
1.211103
1.135251
1.049787
0.979650
0.936788
0.920163
0.890289
0.846908
0.780667
0.699100
0.625066
0.517262
0.388937
0.252818
0.117219
0.013572
-0.072671
-0.134236
-0.176319
-0.209310
-0.230870
-0.266199
-0.313217
-0.366729
-0.450634
-0.540514
-0.625199
-0.713780
-0.767292
-0.791450
-0.799763
-0.783657
-0.734042
-0.680270
-0.651176
-0.629096
-0.628317
-0.623381
-0.587533
-0.539217
-0.467521
-0.389071
-0.315816
-0.217884
-0.106963
-0.013447
0.050716
0.081888
0.103708
0.127347
0.157480
0.211512
0.276454
0.344253
0.396726
0.429976
0.451277
0.445042
0.413870
0.368411
0.325029
0.300611
0.289701
0.277492
0.266062
0.239825
0.191248
0.143451
0.120072
0.116695
0.089419
0.058507
0.051233
0.063442
0.098251
0.134618
0.169427
0.186572
0.208392
0.242422
0.257748
0.289439
0.300350
0.287101
0.300349
0.302687
0.306324
0.298011
0.278528
0.282165
0.281126
0.296192
0.306323
0.312817
0.358017
0.411010
0.478289
0.551804
0.594665
0.629474
0.674154
0.724289
0.791569
0.864304
0.953924
1.047180
1.106667
1.146931
1.164335
1.178622
1.174986
1.166933
1.169011
1.147450
1.145891
1.157581
1.148749
1.116277
1.071078
1.020683
0.985614
0.977041
0.975483
0.986653
0.985094
0.965611
0.930802
0.898851
0.897032
0.903526
0.916515
0.924567
0.936257
0.954700
0.971325
0.996783
1.012369
1.031072
1.053672
1.054191
1.061724
1.075232
1.068218
1.059126
1.048735
1.045878
1.039643
0.995483
0.939113
0.892095
0.861182
0.851311
0.844817
0.832867
0.806891
0.749742
0.679604
0.605830
0.544784
0.532835
0.528159
0.515690
0.497246
0.447890
0.413341
0.400353
0.372817
0.333332
0.283717
0.247609
0.230724
0.236179
0.264753
0.280859
0.314109
0.356711
0.388922
0.429965
0.459059
0.472827
0.458020
0.420094
0.356710
0.279299
0.194875
0.084473
-0.010082
-0.093988
-0.141006
-0.142045
-0.125160
-0.061777
0.011218
0.108111
0.209421
0.265271
0.305794
0.299300
0.297222
0.317744
0.338265
0.369177
0.353591
0.325536
0.288909
0.233838
0.196691
0.148374
0.077977
-0.002811
-0.071130
-0.088535
-0.058661
-0.012163
0.042128
0.090705
0.138242
0.202665
0.279296
0.367098
0.469186
0.594394
0.721421
0.842473
0.965603
1.061457
1.140686
1.206927
1.260699
1.313951
1.332394
1.340187
1.354994
1.354474
1.373437
1.388763
1.392140
1.437080
1.466694
1.486436
1.518907
1.521245
1.541766
1.566444
1.569042
1.581251
1.586186
1.558651
1.515789
1.454743
1.373176
1.305896
1.233161
1.159387
1.091847
1.025346
0.959105
0.880396
0.818571
0.744277
0.681413
0.662710
0.628420
0.607639
0.605041
0.591793
0.584779
0.556984
0.508667
0.452817
0.382160
0.326309
0.275914
0.231494
0.191230
0.136159
0.097973
0.057189
0.020042
-0.003337
-0.031132
-0.028794
-0.017624
0.012249
0.065761
0.092517
0.123949
0.142652
0.138755
0.161095
0.177461
0.177201
0.171746
0.151743
0.130183
0.103426
0.073293
0.055889
0.048355
0.040562
0.029652
0.021859
0.035107
0.064720
0.112777
0.158237
0.183694
0.213307
0.204995
0.168887
0.134857
0.083942
0.041600
0.000297
-0.041526
-0.063866
-0.091401
-0.124652
-0.145433
-0.171410
-0.205440
-0.237911
-0.265187
-0.258693
-0.229599
-0.187776
-0.121795
-0.054515
0.026013
0.112515
0.210707
0.315913
0.399299
0.493335
0.579318
0.632051
0.665301
0.689719
0.705045
0.710240
0.720111
0.727904
0.714137
0.682185
0.653091
0.622438
0.583733
0.532558
0.481904
0.452290
0.421118
0.382412
0.327861
0.274608
0.255126
0.253307
0.254866
0.252528
0.234604
0.202912
0.173558
0.151218
0.126020
0.096147
0.056662
0.020554
-0.010618
-0.052701
-0.099459
-0.150893
-0.196352
-0.213237
-0.193495
-0.144139
-0.091407
-0.061274
-0.061274
-0.065170
-0.080237
-0.114267
-0.161804
-0.219733
-0.246749
-0.256360
-0.243891
-0.200510
-0.162584
-0.114787
-0.057118
-0.012698
0.031982
0.084455
0.122900
0.168879
0.212780
0.222391
0.222131
0.197453
0.140824
0.065231
-0.021012
-0.093747
-0.163365
-0.241035
-0.332734
-0.471969
-0.666276
-0.879545
-1.090217
-1.276990
-1.425058
-1.551565
-1.635470
-1.679631
-1.712362
-1.753405
-1.802242
-1.817568
-1.821465
-1.819387
-1.790812
-1.754705
-1.698595
-1.627419
-1.547150
-1.447140
-1.356221
-1.281408
-1.204777
-1.134639
-1.069957
-0.997482
-0.917993
-0.824996
-0.727064
-0.646017
-0.580036
-0.523406
-0.480804
-0.461582
-0.470933
-0.511457
-0.573802
-0.634328
-0.681346
-0.701088
-0.698750
-0.685762
-0.673813
-0.696413
-0.741353
-0.782136
-0.817205
-0.845000
-0.849936
-0.829674
-0.791748
-0.742912
-0.708103
-0.690959
-0.688361
-0.698752
-0.712260
-0.733561
-0.764993
-0.788632
-0.814868
-0.840326
-0.855912
-0.881369
-0.911502
-0.953325
-0.992031
-1.017488
-1.038010
-1.065805
-1.098276
-1.112823
-1.136202
-1.163478
-1.193871
-1.209457
-1.197768
-1.161920
-1.069962
-0.949430
-0.792790
-0.621343
-0.486784
-0.380539
-0.326507
-0.311700
-0.296374
-0.282606
-0.264163
-0.241563
-0.211430
-0.161555
-0.113238
-0.050634
0.032751
0.098472
0.171207
0.233552
0.265763
0.310183
0.369410
0.428897
0.467602
0.487085
0.482149
0.458770
0.435131
0.405257
0.383437
0.374345
0.375124
0.376423
0.384995
0.390190
0.362395
0.304467
0.228095
0.159516
0.095093
0.042620
0.015604
-0.001541
-0.019465
-0.049078
-0.074016
-0.084926
-0.091680
-0.130905
-0.198445
-0.269102
-0.345474
-0.393271
-0.432756
-0.504712
-0.596150
-0.677198
-0.740322
-0.795652
-0.809680
-0.790717
-0.769156
-0.750973
-0.764481
-0.817733
-0.901119
-1.008923
-1.118285
-1.201671
-1.267392
-1.304539
-1.325320
-1.367143
-1.425851
-1.493910
-1.542747
-1.578075
-1.591843
-1.549501
-1.488715
-1.426891
-1.379093
-1.370002
-1.380133
-1.391043
-1.393641
-1.376236
-1.364027
-1.347402
-1.302982
-1.249989
-1.173358
-1.111014
-1.073088
-1.038019
-1.034642
-1.042176
-1.053346
-1.058801
-1.056463
-1.053086
-1.032305
-0.999834
-0.970221
-0.953596
-0.940607
-0.918787
-0.893070
-0.854884
-0.804749
-0.760588
-0.705258
-0.652006
-0.603169
-0.539007
-0.483417
-0.406525
-0.323919
-0.255081
-0.167020
-0.100259
-0.046228
0.010921
0.047808
0.078201
0.093527
0.108853
0.121842
0.129375
0.151455
0.167561
0.190680
0.224190
0.244452
0.268350
0.304977
0.343423
0.373556
0.388363
0.402390
0.431224
0.464215
0.509154
0.539287
0.534611
0.533053
0.532014
0.532013
0.522662
0.472007
0.421092
0.382387
0.331212
0.288870
0.257438
0.234578
0.239774
0.274842
0.328095
0.385763
0.424209
0.440574
0.432001
0.406025
0.402647
0.391737
0.366540
0.349395
0.316664
0.289128
0.263411
0.222628
0.172752
0.109628
0.046765
-0.007008
-0.067014
-0.137411
-0.194560
-0.238461
-0.246514
-0.214822
-0.188326
-0.155336
-0.102603
-0.023893
0.081053
0.186259
0.286010
0.373551
0.456157
0.555129
0.671245
0.782426
0.865551
0.915946
0.942442
0.980368
1.029205
1.077781
1.125838
1.152854
1.201950
1.262995
1.328197
1.419116
1.478862
1.532634
1.556533
1.543284
1.552896
1.540167
1.526919
1.531075
1.533153
1.520684
1.476264
1.416257
1.338846
1.252084
1.153891
1.052841
0.942180
0.819310
0.704492
0.585778
0.490963
0.403941
0.338219
0.319516
0.297695
0.301852
0.316398
0.303929
0.300812
0.305748
0.310423
0.324970
0.373287
0.448360
0.542656
0.657213
0.776966
0.895940
1.002704
1.098299
1.157785
1.195971
1.237274
1.248964
1.264550
1.290267
1.317282
1.363781
1.375470
1.361703
1.342739
1.304553
1.273121
1.241170
1.226623
1.224285
1.196230
1.152589
1.078814
0.962179
0.823722
0.679811
0.545251
0.414847
0.282365
0.165470
0.066498
0.003115
-0.055073
-0.128848
-0.185217
-0.266005
-0.342897
-0.388876
-0.439011
-0.482652
-0.547854
-0.657216
-0.783204
-0.895164
-1.006604
-1.098043
-1.153373
-1.186884
-1.190261
-1.175714
-1.151036
-1.122721
-1.091030
-1.078041
-1.071028
-1.062715
-1.072327
-1.071288
-1.078042
-1.070768
-1.042194
-1.046610
-1.042974
-1.010762
-0.984526
-0.956991
-0.922442
-0.875943
-0.846070
-0.852304
-0.852045
-0.869709
-0.905557
-0.920104
-0.948419
-0.973097
-0.975955
-0.967642
-0.905298
-0.827627
-0.761127
-0.670468
-0.584225
-0.464992
-0.330692
-0.224707
-0.105733
-0.017412
0.062077
0.148580
0.213002
0.276645
0.303141
0.318208
0.347042
0.369382
0.402892
0.426530
0.457703
0.515631
0.571481
0.640579
0.723185
0.812545
0.918530
1.006592
1.089457
1.181675
1.244539
1.302986
1.346627
1.349485
1.338834
1.308181
1.289738
1.283763
1.255968
1.227913
1.202975
1.184272
1.173361
1.168166
1.173621
1.189726
1.206611
1.200636
1.180634
1.149722
1.107899
1.068934
1.035683
1.008667
0.974897
0.928659
0.880082
0.846572
0.831765
0.827089
0.841896
0.869171
0.899824
0.951258
1.013082
1.076206
1.125562
1.138810
1.131276
1.093870
1.038539
0.988923
0.941646
0.914889
0.905797
0.892809
0.859818
0.813060
0.773575
0.737467
0.699541
0.659017
0.589919
0.521340
0.485492
0.466789
0.463152
0.451722
0.447306
0.455358
0.461593
0.487310
0.521339
0.562642
0.602906
0.626025
0.644729
0.657197
0.662652
0.656418
0.629402
0.590177
0.559524
0.560563
0.587059
0.637454
0.716424
0.794874
0.868128
0.923978
0.953851
0.990738
1.027625
1.065032
1.087372
1.108153
1.143741
1.156989
1.183745
1.210241
1.232841
1.277002
1.279599
1.247648
1.224788
1.216735
1.238036
1.272325
1.289470
1.292067
1.273884
1.232580
1.168677
1.077499
0.990736
0.929950
0.882932
0.851500
0.839031
0.840850
0.857994
0.886049
0.915143
0.932028
0.949172
0.960083
0.942158
0.927092
0.913844
0.893062
0.880593
0.876437
0.893322
0.933845
1.001645
1.101136
1.196990
1.292584
1.389997
1.452601
1.501178
1.538844
1.553391
1.573393
1.587420
1.592616
1.596772
1.588719
1.580926
1.576250
1.596252
1.641451
1.694704
1.760425
1.814197
1.854721
1.870826
1.869267
1.851343
1.821989
1.816275
1.799390
1.781725
1.754449
1.693664
1.627942
1.552610
1.510787
1.494421
1.484290
1.513384
1.548713
1.603783
1.689766
1.770814
1.853160
1.918881
1.960184
1.998630
2.032659
2.056558
2.057077
2.059156
2.073183
2.089288
2.084353
2.035776
1.996551
1.899138
1.816012
1.778865
1.658593
1.575727
1.514941
1.397266
1.308685
1.279071
1.208934
1.200361
1.255172
1.206336
1.177502
1.144511
1.051774
0.985533
0.892276
0.786810
0.713036
0.587308
0.472491
0.406250
0.263637
0.010623
-0.080815
-0.109650
-0.330972
-0.404486
-0.416176
-0.532552
-0.636979
-0.707896
-0.796996
-0.958572
-1.090274
-1.251590
-1.379137
-1.439663
-1.515515
-1.566949
-1.607733
-1.631372
-1.667739
-1.726447
-1.771906
-1.809573
-1.860228
-1.899453
-1.929066
-1.966473
-2.000762
-2.050638
-2.102332
-2.165715
-2.241827
-2.310146
-2.368335
-2.388856
-2.378985
-2.340020
-2.265727
-2.196628
-2.144415
-2.102073
-2.067524
-2.014272
-1.958422
-1.920236
-1.880232
-1.854515
-1.843085
-1.818407
-1.783858
-1.768272
-1.759700
-1.747231
-1.762558
-1.761778
-1.759441
-1.772429
-1.758661
-1.761259
-1.774248
-1.790873
-1.819707
-1.849840
-1.883091
-1.915562
-1.952709
-1.979725
-1.995051
-1.986739
-1.958164
-1.918420
-1.871662
-1.827761
-1.786718
-1.778665
-1.787237
-1.779445
-1.763079
-1.760482
-1.744376
-1.708268
-1.678655
-1.630338
-1.605660
-1.582022
-1.567994
-1.603063
-1.619948
-1.643587
-1.653198
-1.650081
-1.643587
-1.625663
-1.643328
-1.642289
-1.658135
-1.699698
-1.713725
-1.741001
-1.752950
-1.720739
-1.670344
-1.606701
-1.531888
-1.480974
-1.451880
-1.425384
-1.401745
-1.379924
-1.360702
-1.326412
-1.285369
-1.245625
-1.218349
-1.202503
-1.189515
-1.187437
-1.197828
-1.229520
-1.264588
-1.324855
-1.397849
-1.442270
-1.490067
-1.534228
-1.594494
-1.660475
-1.695804
-1.738146
-1.777631
-1.837637
-1.949078
-2.069870
-2.198975
-2.333275
-2.466536
-2.610188
-2.765009
-2.932820
-3.093097
-3.229994
-3.351566
-3.455733
-3.545353
-3.644065
-3.735243
-3.815252
-3.898378
-3.968775
-4.054239
-4.147496
-4.233998
-4.314267
-4.356349
-4.371156
-4.352972
-4.308033
-4.257378
-4.192176
-4.108012
-4.011638
-3.912147
-3.797849
-3.672381
-3.524054
-3.354425
-3.197785
-3.054134
-2.921912
-2.805796
-2.722151
-2.662664
-2.604476
-2.544989
-2.488620
-2.461864
-2.464981
-2.467319
-2.447317
-2.406014
-2.357437
-2.315615
-2.263142
-2.192485
-2.116893
-2.033248
-1.960513
-1.891674
-1.828031
-1.782312
-1.726202
-1.674768
-1.646713
-1.635024
-1.661780
-1.711136
-1.744387
-1.774520
-1.779196
-1.748024
-1.712695
-1.651390
-1.569044
-1.490334
-1.401753
-1.321745
-1.249010
-1.150818
-1.050028
-0.935211
-0.815717
-0.722980
-0.634400
-0.574913
-0.534129
-0.497762
-0.472824
-0.467629
-0.496983
-0.520622
-0.554132
-0.597513
-0.627387
-0.662715
-0.697784
-0.726618
-0.741945
-0.730775
-0.696226
-0.653364
-0.595436
-0.519064
-0.424509
-0.322160
-0.237996
-0.154351
-0.078758
-0.010180
0.061776
0.119444
0.173476
0.208285
0.232963
0.248549
0.232443
0.219195
0.195556
0.164124
0.146200
0.107754
0.078400
0.047228
0.008522
-0.014078
-0.054082
-0.076942
-0.093827
-0.108893
-0.118245
-0.162925
-0.214619
-0.278522
-0.333853
-0.374896
-0.422693
-0.461139
-0.499065
-0.512833
-0.505820
-0.493351
-0.476466
-0.467894
-0.456984
-0.442437
-0.420356
-0.395159
-0.371001
-0.346842
-0.324502
-0.292811
-0.264496
-0.241896
-0.226570
-0.218518
-0.204750
-0.201633
-0.208127
-0.222155
-0.256704
-0.306839
-0.368664
-0.451530
-0.546865
-0.644278
-0.756498
-0.868977
-0.972365
-1.070298
-1.159398
-1.243563
-1.299933
-1.323572
-1.323832
-1.298894
-1.250837
-1.182778
-1.107705
-1.031334
-0.958339
-0.879110
-0.798322
-0.722989
-0.639864
-0.545049
-0.442180
-0.359055
-0.300867
-0.266837
-0.252291
-0.233847
-0.198519
-0.150202
-0.093053
-0.016941
0.063587
0.141257
0.199965
0.216850
0.188795
0.113462
0.020465
-0.069675
-0.150982
-0.219561
-0.301128
-0.387112
-0.454392
-0.517515
-0.578561
-0.662726
-0.787155
-0.932105
-1.090044
-1.249802
-1.404883
-1.556068
-1.709851
-1.874804
-2.049887
-2.211723
-2.354855
-2.467594
-2.530198
-2.580334
-2.582152
-2.551759
-2.490454
-2.381352
-2.341088
-2.265755
-2.208087
-2.243156
-2.217179
-2.247312
-2.293031
-2.306280
-2.374079
-2.411486
-2.446555
-2.498249
-2.521108
-2.537474
-2.559554
-2.572543
-2.571504
-2.546306
-2.501886
-2.455128
-2.382912
-2.292253
-2.178475
-2.037681
-1.896627
-1.744663
-1.597894
-1.467231
-1.324099
-1.174213
-1.026925
-0.886650
-0.781964
-0.700656
-0.628441
-0.579085
-0.545056
-0.516741
-0.492583
-0.478555
-0.461930
-0.424004
-0.367115
-0.291783
-0.180602
-0.052796
0.074750
0.229831
0.377899
0.508302
0.626237
0.706765
0.778201
0.834051
0.884446
0.927307
0.964194
1.045761
1.135901
1.217727
1.296177
1.356703
1.413592
1.460350
1.486067
1.505290
1.535423
1.591533
1.685309
1.782981
1.871302
1.942739
1.983002
2.003264
1.977287
1.908189
1.805321
1.679333
1.556203
1.439827
1.351766
1.268120
1.171227
1.068359
0.957957
0.864700
0.770664
0.671952
0.571682
0.464657
0.374518
0.271650
0.156572
0.045392
-0.073582
-0.199050
-0.325038
-0.432062
-0.519344
-0.582468
-0.616238
-0.630525
-0.639617
-0.648969
-0.643774
-0.619096
-0.568701
-0.489732
-0.383746
-0.266591
-0.136707
-0.006304
0.112410
0.249567
0.391141
0.530117
0.668573
0.793261
0.897428
0.972761
1.024455
1.041599
1.044457
1.053289
1.055886
1.049392
1.025233
0.980293
0.931976
0.893790
0.851448
0.808846
0.754814
0.666493
0.561027
0.433481
0.300999
0.184883
0.086171
0.026165
-0.007086
-0.000851
0.027723
0.075520
0.153970
0.215275
0.322040
0.422050
0.505436
0.649607
0.767022
0.901841
1.049130
1.169662
1.294350
1.397478
1.505022
1.590745
1.620878
1.605032
1.545545
1.471771
1.404751
1.343446
1.291492
1.246033
1.208366
1.188104
1.161088
1.126019
1.093548
1.050687
1.023930
1.011461
1.003928
1.017696
1.019514
1.012760
1.006785
0.988082
0.987562
0.989640
0.980029
0.977950
0.982366
0.992757
1.013798
1.054322
1.102119
1.150176
1.202649
1.250187
1.279021
1.283177
1.267331
1.244991
1.234600
1.233561
1.242393
1.261096
1.285774
1.329675
1.385525
1.439037
1.488133
1.511512
1.510992
1.515408
1.522941
1.542943
1.569180
1.591000
1.609444
1.615418
1.617496
1.599572
1.567621
1.527097
1.482417
1.446569
1.396433
1.349935
1.321880
1.309671
1.317204
1.325256
1.323438
1.315385
1.304735
1.306293
1.325256
1.357987
1.407342
1.454101
1.494624
1.522160
1.530472
1.534369
1.513847
1.471245
1.415395
1.358505
1.332788
1.324476
1.321098
1.319540
1.310708
1.313565
1.336944
1.363440
1.401626
1.456956
1.508910
1.580866
1.654380
1.689189
1.710749
1.691786
1.642950
1.590476
1.526833
1.478776
1.412795
1.350451
1.287587
1.197187
1.117179
1.016648
0.898973
0.772986
0.639465
0.528025
0.444119
0.389828
0.354240
0.315794
0.266438
0.217082
0.160712
0.106161
0.047973
-0.026841
-0.082431
-0.136203
-0.175428
-0.186598
-0.203223
-0.211796
-0.200626
-0.170753
-0.125034
-0.065287
-0.007359
0.059921
0.134994
0.214483
0.297868
0.355796
0.413205
0.457365
0.485680
0.520489
0.545166
0.568805
0.594262
0.597899
0.563610
0.504642
0.423595
0.337352
0.254745
0.154215
0.057321
-0.019570
-0.075680
-0.086850
-0.072043
-0.044768
0.001990
0.030824
0.062256
0.093948
0.129796
0.182788
0.228248
0.294748
0.357612
0.420995
0.481781
0.512174
0.526201
0.498406
0.469571
0.449829
0.449049
0.489054
0.528798
0.578933
0.613222
0.622574
0.617119
0.579972
0.535292
0.472688
0.399173
0.326698
0.250846
0.184085
0.118364
0.066670
0.018353
-0.036199
-0.080359
-0.126858
-0.171538
-0.215439
-0.264795
-0.303760
-0.324542
-0.344024
-0.360130
-0.360390
-0.363767
-0.366105
-0.381171
-0.411045
-0.452088
-0.525862
-0.600676
-0.693413
-0.797580
-0.884083
