EVENT_NAME: 202302060117
EVENT_ID: 13194
EVENT_DATE_YYYYMMDD: 2023/02/06
EVENT_TIME_HHMMSS: 01:17:32.00000
EVENT_LATITUDE_DEGREE: 37.288
EVENT_LONGITUDE_DEGREE: 37.043
EVENT_DEPTH_KM: 8.6
HYPOCENTER_REFERENCE: AFAD
MAGNITUDE_W: 7.7
MAGNITUDE_W_REFERENCE: AFAD
MAGNITUDE_L: 
MAGNITUDE_L_REFERENCE: 
FOCAL_MECHANISM: 
NETWORK: TK
STATION_CODE: 0210
STATION_NAME: 
STATION_LATITUDE_DEGREE: 37.7672
STATION_LONGITUDE_DEGREE: 38.2866
STATION_ELEVATION_M: 741.0
LOCATION: Kahramanmaras_Pazarck_Turkiye
SENSOR_DEPTH_M: 
VS30_M/S: None
SITE_CLASSIFICATION_EC8: unknown
MORPHOLOGIC_CLASSIFICATION: 
EPICENTRAL_DISTANCE_KM: 121.92
EARTHQUAKE_BACKAZIMUTH_DEGREE: 
DATE_TIME_FIRST_SAMPLE_YYYYMMDD_HHMMSS: 2023/02/06 01:17:33.0591560
DATE_TIME_FIRST_SAMPLE_PRECISION: millisecond
SAMPLING_INTERVAL_S: 0.01
NDATA: 3540
DURATION_S: 
STREAM: HNZ
UNITS: cm/s^2
INSTRUMENT: sensor = ACEBOX/SARA | digitizer = 
INSTRUMENT_ANALOG/DIGITAL: 
INSTRUMENTAL_FREQUENCY_HZ: 
INSTRUMENTAL_DAMPING: 
FULL_SCALE_G: 
N_BIT_DIGITAL_CONVERTER: 
PGA_CM/S^2: 42.133
TIME_PGA_S: 
BASELINE_CORRECTION: BASELINE REMOVED
FILTER_TYPE: BUTTERWORTH
FILTER_ORDER: 
LOW_CUT_FREQUENCY_HZ: 
HIGH_CUT_FREQUENCY_HZ: 
LATE/NORMAL_TRIGGERED: 
DATABASE_VERSION: 
HEADER_FORMAT: DYNA 1.2
DATA_TYPE: Acceleration
PROCESSING: Automatic Paolucci et al., 2011
DATA_TIMESTAMP_YYYYMMDD_HHMMSS: 
DATA_LICENSE: U (unknown license)
DATA_CITATION: Turkish Accelerometric Archive v 1.0 - Disaster And Emergency Management Presidency, Earthquake Department
DATA_CREATOR: AFAD
ORIGINAL_DATA_MEDIATOR_CITATION: : AFAD - Disaster And Emergency Management Presidency
ORIGINAL_DATA_MEDIATOR: AFAD PROCESS SERVICE
ORIGINAL_DATA_CREATOR_CITATION: AFAD PROCESS SERVICE
ORIGINAL_DATA_CREATOR: network: TK
USER1: GuestUser
USER2: 
USER3: 
USER4: 
USER5: 
[...]
-0.071013
-0.073952
-0.071046
-0.070946
-0.072015
-0.071681
-0.075088
-0.072883
-0.070679
-0.072916
-0.071881
-0.073184
-0.073785
-0.073451
-0.073584
-0.071146
-0.074085
-0.076557
-0.072015
-0.073551
-0.076490
-0.071948
-0.073250
-0.077358
-0.074453
-0.072716
-0.075421
-0.074853
-0.074987
-0.077225
-0.075254
-0.074686
-0.077392
-0.075889
-0.074152
-0.077091
-0.077225
-0.075722
-0.076790
-0.076223
-0.076122
-0.077425
-0.077558
-0.076055
-0.074786
-0.076790
-0.078327
-0.076590
-0.077191
-0.077792
-0.077692
-0.080164
-0.078193
-0.076924
-0.081967
-0.080464
-0.076623
-0.080497
-0.078293
-0.076322
-0.082067
-0.082435
-0.078827
-0.079195
-0.081900
-0.080865
-0.078426
-0.081599
-0.080564
-0.077892
-0.082468
-0.081900
-0.079696
-0.082869
-0.082301
-0.081733
-0.082100
-0.080130
-0.080731
-0.082267
-0.081699
-0.083937
-0.083369
-0.079295
-0.082468
-0.085874
-0.081800
-0.083570
-0.084872
-0.081499
-0.083737
-0.082701
-0.081900
-0.086008
-0.083336
-0.083236
-0.085239
-0.081165
-0.082935
-0.086575
-0.085774
-0.084505
-0.083469
-0.084304
-0.084204
-0.085507
-0.087744
-0.086008
-0.084738
-0.086041
-0.085941
-0.085607
-0.085974
-0.087277
-0.086475
-0.086141
-0.088379
-0.087811
-0.085607
-0.087143
-0.088913
-0.086241
-0.085907
-0.088379
-0.086408
-0.088178
-0.091351
-0.087978
-0.089047
-0.088011
-0.087443
-0.090850
-0.088646
-0.089714
-0.091251
-0.087644
-0.090583
-0.088846
-0.087811
-0.091919
-0.090416
-0.089614
-0.089981
-0.090115
-0.093288
-0.089915
-0.088178
-0.093689
-0.093355
-0.089046
-0.090583
-0.093288
-0.092486
-0.091451
-0.092286
-0.092653
-0.090916
-0.092219
-0.094223
-0.092720
-0.094256
-0.094156
-0.091952
-0.095592
-0.093154
-0.090950
-0.096227
-0.094958
-0.090181
-0.092887
-0.097229
-0.093855
-0.091183
-0.095525
-0.097295
-0.096260
-0.094757
-0.093722
-0.095959
-0.096093
-0.094590
-0.095893
-0.095325
-0.093120
-0.095358
-0.099232
-0.095625
-0.095291
-0.099633
-0.095091
-0.093588
-0.098631
-0.099232
-0.099132
-0.098097
-0.096594
-0.097662
-0.098965
-0.098397
-0.097128
-0.099600
-0.101136
-0.097996
-0.096961
-0.101303
-0.101203
-0.096660
-0.097495
-0.099032
-0.098230
-0.101637
-0.100835
-0.095825
-0.099232
-0.102405
-0.100668
-0.100334
-0.099533
-0.100134
-0.101202
-0.099699
-0.101236
-0.101369
-0.098931
-0.101403
-0.102705
-0.099566
-0.102505
-0.103807
-0.100200
-0.101269
-0.103507
-0.102705
-0.103073
-0.102505
-0.102638
-0.105110
-0.103841
-0.101870
-0.103874
-0.103774
-0.100868
-0.101703
-0.106045
-0.105010
-0.101169
-0.103640
-0.107047
-0.104141
-0.103106
-0.104876
-0.105009
-0.104442
-0.105043
-0.105410
-0.105076
-0.105911
-0.105811
-0.103840
-0.105844
-0.106446
-0.105410
-0.108583
-0.105210
-0.103940
-0.108282
-0.106312
-0.106679
-0.109385
-0.107180
-0.104508
-0.105343
-0.110153
-0.109819
-0.108783
-0.108449
-0.105076
-0.110353
-0.111422
-0.105944
-0.109819
-0.110420
-0.107982
-0.108349
-0.110119
-0.113292
-0.108048
-0.107247
-0.111589
-0.108683
-0.112323
-0.113860
-0.108616
-0.109919
-0.112156
-0.113926
-0.112190
-0.110219
-0.113860
-0.109551
-0.108983
-0.115429
-0.112290
-0.111254
-0.112791
-0.109651
-0.112824
-0.113425
-0.111455
-0.115095
-0.111722
-0.110686
-0.115262
-0.113292
-0.112724
-0.114962
-0.112523
-0.113826
-0.116297
-0.114093
-0.112356
-0.114126
-0.114494
-0.116264
-0.116631
-0.111154
-0.112690
-0.117733
-0.113425
-0.113091
-0.116030
-0.115228
-0.116063
-0.113859
-0.115863
-0.118802
-0.116130
-0.115562
-0.114761
-0.117466
-0.121340
-0.115395
-0.115763
-0.120806
-0.114861
-0.115462
-0.121674
-0.119236
-0.117266
-0.119971
-0.117766
-0.116030
-0.119670
-0.118869
-0.117366
-0.120305
-0.119036
-0.117065
-0.118601
-0.120839
-0.120271
-0.118067
-0.120071
-0.120906
-0.119870
-0.122108
-0.119904
-0.119804
-0.123912
-0.120305
-0.117399
-0.119870
-0.120705
-0.122475
-0.122609
-0.120405
-0.121473
-0.123477
-0.123611
-0.120705
-0.120137
-0.124713
-0.122742
-0.120538
-0.125815
-0.123143
-0.121173
-0.124813
-0.123076
-0.123444
-0.125915
-0.123010
-0.122208
-0.125147
-0.124813
-0.123778
-0.126951
-0.124045
-0.122074
-0.127118
-0.123043
-0.121540
-0.128453
-0.126483
-0.123110
-0.125347
-0.126884
-0.125381
-0.126449
-0.127986
-0.125080
-0.126383
-0.128153
-0.124546
-0.128420
-0.127852
-0.122842
-0.127184
-0.128019
-0.126750
-0.129689
-0.127952
-0.127618
-0.127986
-0.127184
-0.128954
-0.128854
-0.128286
-0.128420
-0.128553
-0.127050
-0.127418
-0.132461
-0.130023
-0.127117
-0.128887
-0.127384
-0.131492
-0.132093
-0.126850
-0.130724
-0.130858
-0.128653
-0.131826
-0.129856
-0.130223
-0.132928
-0.131192
-0.131559
-0.132628
-0.130423
-0.130089
-0.132327
-0.132227
-0.130256
-0.132962
-0.134264
-0.130891
-0.131960
-0.135366
-0.133863
-0.133997
-0.132260
-0.130523
-0.136034
-0.134297
-0.129287
-0.134097
-0.134231
-0.133195
-0.134965
-0.133228
-0.136869
-0.137003
-0.132928
-0.134698
-0.135065
-0.136134
-0.137671
-0.134531
-0.134665
-0.136201
-0.135633
-0.136000
-0.134264
-0.136034
-0.138739
-0.137470
-0.135266
-0.136101
-0.138572
-0.138238
-0.136735
-0.136635
-0.136067
-0.137370
-0.138205
-0.136468
-0.137537
-0.139073
-0.137804
-0.137236
-0.137603
-0.138672
-0.140676
-0.140810
-0.138605
-0.137570
-0.139340
-0.140175
-0.138906
-0.138104
-0.140342
-0.141177
-0.139206
-0.140041
-0.140175
-0.141945
-0.143014
-0.139407
-0.140008
-0.141077
-0.138872
-0.142980
-0.141945
-0.140676
-0.144082
-0.140943
-0.141544
-0.143080
-0.142279
-0.144283
-0.140676
-0.142212
-0.143748
-0.139206
-0.145418
-0.143681
-0.138905
-0.145351
-0.145017
-0.142112
-0.142947
-0.144015
-0.146253
-0.144516
-0.145351
-0.144082
-0.143047
-0.148791
-0.146119
-0.142512
-0.145685
-0.144884
-0.145017
-0.145385
-0.146687
-0.146587
-0.143214
-0.144282
-0.146052
-0.145017
-0.142111
-0.141777
-0.144716
-0.142746
-0.143581
-0.145819
-0.140575
-0.141877
-0.143881
-0.137936
-0.132225
-0.124877
-0.117763
-0.113922
-0.116627
-0.122606
-0.116660
-0.112352
-0.116226
-0.110749
-0.102699
-0.093715
-0.078418
-0.066160
-0.056708
-0.063154
-0.087836
-0.108077
-0.129953
-0.153934
-0.147054
-0.116560
-0.095184
-0.082693
-0.074643
-0.069400
-0.045686
-0.015426
-0.017897
-0.038138
-0.033595
-0.021805
-0.027082
-0.020903
-0.004671
0.006184
0.061226
0.156482
0.210589
0.235940
0.262693
0.233802
0.180597
0.195660
0.225452
0.218772
0.234771
0.235105
0.160390
0.124018
0.166435
0.151105
0.092990
0.061293
-0.025813
-0.042780
0.098066
0.108921
0.055248
0.148400
0.058020
-0.161181
-0.019634
0.239280
0.278424
0.400333
0.571807
0.401235
0.160290
0.237543
0.341917
0.273982
0.185941
-0.026013
-0.395312
-0.669222
-0.803322
-0.803455
-0.627072
-0.480849
-0.452459
-0.361645
-0.206538
-0.113854
-0.187867
-0.393041
-0.443441
-0.433989
-0.684987
-0.702421
-0.260912
-0.284192
-0.897342
-1.188553
-1.021989
-0.639163
0.154679
1.021466
1.168157
0.957840
0.972669
0.401369
-0.515484
-0.441036
-0.366354
-1.244864
-1.659053
-1.290956
-0.991361
-0.417289
0.305479
0.259989
0.088715
0.477153
0.269407
-0.362914
-0.039005
-0.046386
-0.976799
-0.657098
0.244759
0.043559
0.160792
0.549463
0.215233
0.643183
1.595071
1.637255
1.981973
2.603974
1.650882
0.183905
-0.163184
-0.436860
-1.108226
-1.360393
-1.415703
-1.328162
-0.376507
0.828116
0.934828
0.213664
-0.687291
-2.378947
-4.275878
-4.626006
-4.014994
-3.811022
-3.730262
-4.031994
-5.067616
-5.411198
-4.582052
-3.738645
-3.001148
-2.101864
-1.261730
-0.212582
0.950426
1.212146
0.242455
-0.600284
-0.189870
0.461122
0.477822
0.217472
-0.549049
-1.301776
-1.197402
-1.540750
-2.483554
-2.455632
-2.273170
-2.634287
-2.224808
-1.193661
0.136278
2.468739
4.355350
3.968749
2.427190
1.814975
2.756577
4.121118
4.401775
3.206704
1.085328
-0.386326
-0.264885
0.251206
0.721706
1.323601
1.064186
0.005184
-0.765077
-0.436024
0.697525
0.814290
-0.406032
-1.902234
-3.162768
-2.994334
-1.193060
0.672743
1.863338
2.363531
2.054084
1.053999
0.229964
0.818298
2.288516
2.993748
2.961585
2.583167
1.697877
1.416953
1.635654
0.670405
-0.461074
-1.219646
-2.711172
-2.510708
-0.026979
1.065890
0.861885
0.284506
-1.682097
-2.966245
-2.520059
-2.010982
-1.302710
-0.516116
-0.312378
-0.163583
0.023789
0.145230
0.241654
0.714025
2.036950
2.152780
-0.116122
-1.707714
-2.192275
-3.228832
-2.232756
0.583199
1.152829
0.849461
2.131004
2.893283
2.216774
2.026563
2.352343
1.639128
1.140538
1.975295
1.644806
-0.025108
-0.410306
0.392654
1.553090
2.470611
1.575502
-0.680308
-2.625401
-3.202546
-1.951631
-0.613509
0.118845
1.105102
0.583600
-1.072987
-1.064003
-1.019948
-2.261312
-2.531949
-2.175775
-2.658233
-2.565315
-1.277927
-0.236494
0.291521
0.700299
0.082940
-1.939540
-3.417740
-2.794102
-1.366670
-0.667983
-0.545139
-0.731843
-0.787153
0.140889
1.833447
3.376609
4.018249
3.230920
1.630211
0.419709
0.267139
1.376608
2.667970
3.097556
3.077549
2.097572
0.175858
-0.468153
-0.027345
-0.057872
0.611122
1.307471
-0.103863
-0.880438
0.794820
1.971388
2.185413
2.061600
0.536407
-1.408686
-2.413914
-2.293408
-1.306450
-0.445975
-0.306298
-1.037282
-1.490515
-0.880437
-0.451319
0.905740
3.147021
2.639781
0.631563
-0.318255
-1.539512
-2.019631
-0.858961
0.130803
1.069833
1.682716
0.756277
-0.110777
0.565933
1.399988
1.193411
0.396964
-0.771688
-1.364731
0.596226
4.236316
6.034785
4.268781
0.802603
-1.801799
-2.166422
0.310760
1.849013
-0.259271
-0.579005
1.498383
1.822059
3.147088
4.044970
0.715797
-1.085510
-0.199552
-1.428758
-1.845986
0.723780
1.810102
0.363699
0.188451
2.021522
2.755979
2.585407
3.307474
3.335162
3.589400
5.782518
6.439121
5.351363
5.553464
4.795827
1.999244
-0.001492
-1.446025
-3.083909
-3.238115
-2.180082
-2.017259
-2.006170
-0.308936
1.103534
1.309142
2.828924
4.118183
2.549503
0.229867
-0.597909
0.336679
1.691634
2.669241
4.348239
4.499606
1.638262
-0.050589
-0.628436
-4.265052
-7.596797
-4.450487
2.429565
6.837445
8.944527
9.235471
5.303335
1.406268
2.581667
3.593408
0.595994
-3.036414
-6.399721
-9.580199
-11.197275
-10.281624
-6.020569
-2.218224
-3.037583
-6.712776
-10.657069
-11.448607
-9.560126
-9.405953
-4.603657
6.141765
9.050771
5.966618
5.751391
1.902253
-4.207471
-4.872758
-5.687441
-9.821110
-13.093003
-15.554320
-15.507928
-10.325478
-6.377009
-6.612577
-4.153864
-0.303357
-0.117856
0.311263
3.752859
6.593362
1.866081
-8.985752
-13.964832
-12.528983
-10.446918
-7.356953
-7.292091
-10.912809
-12.308946
-11.770177
-10.190777
-5.115639
1.561945
6.271657
9.798589
11.439011
8.167820
3.827240
4.344500
6.548139
3.539035
-2.823424
-8.047290
-12.860374
-11.659958
-1.614291
5.358579
6.997130
11.878683
13.813690
3.297589
-6.956893
-2.675731
2.785172
0.046338
3.702793
12.618051
11.968896
7.423977
8.835044
9.540744
2.987507
-4.743367
-8.492439
-11.427196
-13.449442
-11.052686
-3.316936
5.317765
5.596084
3.250262
7.706772
6.995661
1.302564
1.895107
-3.497093
-16.115265
-17.611000
-10.684890
-4.477940
6.115047
16.073508
13.649598
6.051521
0.029004
-7.780426
-13.851339
-17.112477
-16.394386
-12.864882
-13.716038
-5.921838
11.252542
12.338864
5.812514
7.073015
-0.547507
-13.537650
-12.030259
-4.252191
-0.424830
0.940880
-0.524461
4.761562
14.303396
13.474217
10.952112
9.874407
6.690890
5.605470
-4.358870
-11.641320
2.662497
13.690580
13.524450
14.246049
3.661679
-9.718204
-3.825945
7.660147
8.317451
6.971581
6.221893
-1.372677
-1.845315
12.399819
15.095835
8.061677
15.405116
17.550773
2.230139
-7.665230
-9.570578
-4.650448
14.265955
26.182936
13.968298
1.369531
1.590336
-7.207589
-24.889575
-26.547565
-14.836326
-8.073640
-1.573041
6.680103
-4.042675
-19.188663
-6.176810
9.782058
9.720202
13.281268
10.662372
-5.170045
-15.484379
-16.916521
-11.347370
-2.887315
1.055074
8.448312
17.839113
11.971603
-1.803865
-7.097403
-9.040392
-9.100611
-3.813420
-0.288592
-2.559131
-6.991827
-4.845234
6.992022
16.887592
14.086333
1.769292
-7.863990
-10.275041
-6.364682
1.532622
-1.026189
-10.568056
-6.319626
0.884470
-4.737319
-11.421015
-13.432974
-17.413506
-17.887547
-9.735871
-5.247331
-5.543452
-2.001791
-3.147064
-7.287045
-7.252343
-10.103868
-9.057525
-3.644551
-4.936882
-0.492062
11.275990
11.281468
3.750490
1.291277
-2.598542
-6.667449
2.532340
9.315834
0.427430
6.653551
22.900457
5.405742
-17.312005
-1.846215
14.485092
10.200857
15.363902
21.892557
11.710786
2.797366
0.426294
-2.500046
2.368649
15.443393
22.456476
17.161302
4.465977
-7.498498
-9.163268
-0.898434
2.850605
-1.736631
-3.776646
-5.022685
-10.583219
-8.211713
2.244503
2.776258
-3.281095
-3.243354
-4.147348
-8.115021
-3.618999
7.772405
14.047858
10.490499
0.494363
-9.081873
-16.051970
-16.774771
-4.406796
7.761517
6.360236
4.051589
3.474677
-5.147899
-4.518183
16.710942
21.356127
1.391109
-3.786698
-10.574434
-33.770997
-28.076297
-1.182497
-0.353352
-11.713695
1.268700
4.648807
-27.859433
-23.444539
14.762944
10.608467
6.109606
31.102868
26.056922
-11.624551
-27.605195
-6.666212
13.387849
15.462666
7.030166
-6.508699
-3.674275
1.875003
-6.512841
-3.307614
-1.374244
-11.188018
-4.962832
6.687152
6.626699
6.341099
8.439997
9.821372
10.245347
6.694300
2.355123
7.966591
20.486769
18.046727
-2.310602
-16.155274
-13.192261
-4.922986
-0.065514
1.512251
-1.210686
-15.468946
-31.417326
-25.919717
-11.834033
-9.007324
-2.652146
7.398197
7.756241
-2.245740
-21.437122
-23.762837
1.924569
19.206963
18.430623
15.171355
5.990938
-10.842599
-18.507308
-4.631106
8.258237
9.734066
19.534012
21.938484
3.188043
-9.409321
-10.994132
-19.253154
-21.850074
1.211321
23.880404
19.108936
5.776045
-3.200033
-9.428526
-11.328028
-11.197469
-7.487006
-9.383703
-15.837109
-12.046454
-14.597082
-17.759323
1.936560
8.331483
-7.045497
-2.958620
3.202973
-7.534300
-9.075391
-4.948302
-3.233065
2.928529
0.958185
-3.767458
2.375899
4.658094
4.550881
10.405031
4.239664
-9.161963
-7.071949
3.421674
6.827499
3.222445
0.150917
-9.689510
-28.624416
-24.060593
-2.167483
-5.023918
-8.339063
16.668460
26.417906
1.648589
-13.061601
-9.838605
-17.945893
-22.676213
-5.785195
10.872493
6.321963
-16.662546
-29.794137
-15.893387
-0.122959
2.090032
5.286842
10.822794
11.394295
6.006771
-3.471270
-7.650764
-9.744084
-7.736601
11.650670
20.450198
7.166639
5.420508
5.511555
-5.761815
-0.282676
11.635707
3.878181
2.747170
13.040428
3.087545
-7.863886
-2.638651
-5.795515
-10.377841
0.258164
16.627580
23.305164
12.786725
8.326441
23.943263
28.216008
14.815083
9.650836
-0.333610
-20.388406
-10.970718
9.769538
-4.399879
-12.026245
13.271888
14.371303
-5.929447
3.823038
10.123975
-13.898126
-12.029986
17.058702
16.218769
-8.360004
-14.853389
-0.618074
6.954018
2.738987
3.936831
6.340835
2.859226
-2.088058
-8.950141
-13.478694
-16.914245
-16.506636
-2.766738
-2.024331
-26.252642
-38.234417
-27.344976
-4.702546
19.735214
28.825118
26.511326
9.041394
-11.533133
-0.704713
6.462209
-6.841223
-3.160686
0.627865
-9.566764
-20.717625
-26.531361
-14.527642
0.650577
3.411823
2.725728
-2.544897
-18.253869
-31.034296
-12.815310
20.680690
20.521107
2.703517
9.747929
10.511611
-23.283449
-34.199110
2.340464
24.158525
14.608474
11.958249
6.581713
-16.394613
-21.885943
-3.269034
5.601568
-1.265658
-0.379934
15.864634
13.689718
-7.515827
-1.038842
11.280270
-0.194165
9.995755
35.853832
23.660470
5.285508
20.304978
25.431084
11.730430
13.222859
12.229554
5.062599
6.723829
-3.512650
-11.242823
2.664006
4.047719
-8.937983
-7.403938
3.050874
4.948473
-4.211370
-11.666831
-9.210924
-8.253658
-11.424082
-0.679361
17.401451
11.166879
1.681590
13.741889
4.602854
-17.666937
-6.400380
6.167258
-6.853746
-12.200590
5.584702
12.497720
-1.240107
7.882295
21.553924
2.892794
1.518634
16.938599
-3.679180
-21.311602
-1.934618
3.184941
-18.476276
-17.003720
4.877933
-5.294485
-31.534387
-19.219016
2.123267
-4.877224
-0.774683
20.296863
20.481897
9.271886
7.994752
7.330166
0.552951
-1.018066
3.852031
1.624277
-3.523604
-0.283074
6.675768
8.684420
2.166019
-3.239040
4.953083
13.266079
4.220329
-5.185235
-5.884656
-10.125404
4.582882
32.425664
27.350494
9.313369
-0.583403
-8.870013
1.560952
9.317978
2.818748
2.212378
-2.127500
-1.521398
-4.842621
-26.644818
-23.665205
-1.041011
6.491102
11.822949
11.856716
-3.847113
-17.910619
-16.631648
-5.042451
9.682902
15.809192
-0.616134
-13.874210
-10.426067
-19.799601
-23.301784
-1.928171
8.899080
5.575519
9.025999
14.323478
4.232654
-15.871706
-16.086466
-11.100405
-26.214597
-23.097044
1.094527
2.518453
1.994146
14.992906
5.107357
-14.050593
-8.380207
3.225823
-1.523434
-8.080412
-1.721962
0.820216
-5.564453
-5.200331
-2.553645
1.108188
4.231586
-2.318378
-6.193000
-2.829493
3.168677
6.559772
-1.666518
-1.703358
10.705065
8.886690
0.553554
4.767382
10.673201
-0.141458
-14.668585
-5.372706
12.849553
15.232749
8.219399
2.916744
1.665795
-0.655712
0.977462
11.052120
15.564975
15.798171
10.413921
-12.566146
-27.789521
-12.111210
9.855312
13.232380
8.695644
5.772811
-4.911390
-10.771652
-3.470531
-2.618707
1.382833
16.131333
15.682542
1.846286
-5.794342
-3.849048
1.974942
6.839895
15.416381
10.297724
-13.425585
-7.571201
15.831304
5.277328
-4.516339
7.036152
2.942462
-2.983263
5.236681
-1.821324
-16.893433
-3.821727
22.759953
26.440022
19.270963
14.547657
-0.979420
-6.034952
7.670110
9.347939
8.092548
11.524792
2.367521
-6.724988
-13.322647
-20.065727
-9.822969
6.153434
16.071448
24.833334
23.991297
11.666073
-8.607791
-19.756547
-2.345097
13.676663
6.971223
-2.704376
-9.695983
-1.822059
20.715630
18.301072
2.556330
12.040182
15.190233
-11.876376
-24.563285
1.489312
21.219797
0.335489
-14.154463
0.577904
-5.828275
-21.533038
-3.827237
19.375371
17.950944
10.536398
15.418419
1.718233
-28.402236
-15.986098
18.059794
23.095186
18.836903
24.904276
9.566808
-39.653261
-42.132581
10.601895
14.479757
-10.263375
-2.516169
2.621392
-5.072074
-7.927340
-5.545781
-1.286128
2.472497
6.926669
5.249508
5.097640
6.314421
-12.326135
-24.278686
-16.452456
-29.891958
-41.634559
-22.771696
-20.709971
-28.817025
-9.803362
1.509019
-8.128004
-5.434092
11.253288
20.858481
21.602291
22.026733
13.644967
-1.781577
-4.079470
4.302028
-1.861703
-17.825748
2.734952
30.879099
2.888757
-14.452354
12.992740
8.142248
-9.477081
11.939316
27.897483
8.433259
-0.493722
17.373867
8.426546
-9.702228
11.267617
15.615879
-4.391690
13.832206
33.103747
1.028733
-24.327182
0.000000
0.000000
0.000000
0.000000
0.000000
0.000000
0.000000
0.000000
0.000000
0.000000
0.000000
0.000000
0.000000
0.000000
0.000000
0.000000
0.000000
0.000000
0.000000
0.000000
0.000000
0.000000
0.000000
0.000000
0.000000
0.000000
0.000000
0.000000
0.000000
0.000000
0.000000
0.000000
0.000000
0.000000
0.000000
