EVENT_NAME: 202302060117
EVENT_ID: 13194
EVENT_DATE_YYYYMMDD: 2023/02/06
EVENT_TIME_HHMMSS: 01:17:32.00000
EVENT_LATITUDE_DEGREE: 37.288
EVENT_LONGITUDE_DEGREE: 37.043
EVENT_DEPTH_KM: 8.6
HYPOCENTER_REFERENCE: AFAD
MAGNITUDE_W: 7.7
MAGNITUDE_W_REFERENCE: AFAD
MAGNITUDE_L: 
MAGNITUDE_L_REFERENCE: 
FOCAL_MECHANISM: 
NETWORK: TK
STATION_CODE: 4213
STATION_NAME: 
STATION_LATITUDE_DEGREE: 37.42439
STATION_LONGITUDE_DEGREE: 31.84955
STATION_ELEVATION_M: 1149.0
LOCATION: Kahramanmaras_Pazarck_Turkiye
SENSOR_DEPTH_M: 
VS30_M/S: None
SITE_CLASSIFICATION_EC8: unknown
MORPHOLOGIC_CLASSIFICATION: 
EPICENTRAL_DISTANCE_KM: 459.22
EARTHQUAKE_BACKAZIMUTH_DEGREE: 
DATE_TIME_FIRST_SAMPLE_YYYYMMDD_HHMMSS: 2023/02/06 01:18:10.2814040
DATE_TIME_FIRST_SAMPLE_PRECISION: millisecond
SAMPLING_INTERVAL_S: 0.01
NDATA: 24501
DURATION_S: 
STREAM: HNZ
UNITS: cm/s^2
INSTRUMENT: sensor = GMS+/GEOSIG | digitizer = 
INSTRUMENT_ANALOG/DIGITAL: 
INSTRUMENTAL_FREQUENCY_HZ: 
INSTRUMENTAL_DAMPING: 
FULL_SCALE_G: 
N_BIT_DIGITAL_CONVERTER: 
PGA_CM/S^2: 1.018
TIME_PGA_S: 
BASELINE_CORRECTION: BASELINE REMOVED
FILTER_TYPE: BUTTERWORTH
FILTER_ORDER: 
LOW_CUT_FREQUENCY_HZ: 
HIGH_CUT_FREQUENCY_HZ: 
LATE/NORMAL_TRIGGERED: 
DATABASE_VERSION: 
HEADER_FORMAT: DYNA 1.2
DATA_TYPE: Acceleration
PROCESSING: Automatic Paolucci et al., 2011
DATA_TIMESTAMP_YYYYMMDD_HHMMSS: 
DATA_LICENSE: U (unknown license)
DATA_CITATION: Turkish Accelerometric Archive v 1.0 - Disaster And Emergency Management Presidency, Earthquake Department
DATA_CREATOR: AFAD
ORIGINAL_DATA_MEDIATOR_CITATION: : AFAD - Disaster And Emergency Management Presidency
ORIGINAL_DATA_MEDIATOR: AFAD PROCESS SERVICE
ORIGINAL_DATA_CREATOR_CITATION: AFAD PROCESS SERVICE
ORIGINAL_DATA_CREATOR: network: TK
USER1: GuestUser
USER2: 
USER3: 
USER4: 
USER5: 
[...]
0.126869
0.157521
0.186096
0.198564
0.193369
0.179601
0.158300
0.122452
0.088422
0.052574
0.011790
-0.015226
-0.036787
-0.046658
-0.045619
-0.054711
-0.054712
-0.060427
-0.084325
-0.100431
-0.124070
-0.150307
-0.169530
-0.186415
-0.189792
-0.193949
-0.200443
-0.208496
-0.226940
-0.253176
-0.291622
-0.344355
-0.397348
-0.443587
-0.490605
-0.534246
-0.568276
-0.595812
-0.614255
-0.622308
-0.634518
-0.651143
-0.669067
-0.694005
-0.712708
-0.729853
-0.737127
-0.726996
-0.712709
-0.683875
-0.644910
-0.598412
-0.544120
-0.491907
-0.431641
-0.371895
-0.319162
-0.262013
-0.206683
-0.149534
-0.087969
-0.027703
0.032822
0.089971
0.140626
0.183487
0.216738
0.241675
0.253105
0.257261
0.256481
0.238557
0.209463
0.176992
0.135948
0.085553
0.029703
-0.015757
-0.056281
-0.091869
-0.113170
-0.125639
-0.117067
-0.100702
-0.075504
-0.041995
-0.014200
0.032559
0.077498
0.116203
0.162962
0.204784
0.245827
0.283493
0.318822
0.353890
0.379867
0.395453
0.405583
0.409480
0.414415
0.412597
0.404284
0.402465
0.391035
0.369474
0.334406
0.289985
0.251799
0.205300
0.169712
0.149190
0.129448
0.120875
0.106328
0.086586
0.071779
0.054374
0.043983
0.036969
0.039567
0.046580
0.045021
0.053594
0.066322
0.080609
0.105807
0.130225
0.152045
0.172566
0.186074
0.198543
0.199322
0.197503
0.209193
0.213349
0.223999
0.239585
0.249976
0.259847
0.259587
0.258548
0.256729
0.252573
0.249455
0.238545
0.229193
0.230232
0.226335
0.224517
0.227114
0.226075
0.227633
0.219321
0.209969
0.213086
0.207111
0.199058
0.202435
0.202954
0.211007
0.224255
0.236723
0.265298
0.291015
0.311017
0.327642
0.330499
0.319069
0.290494
0.254386
0.220876
0.183729
0.144764
0.111254
0.069950
0.029946
-0.006162
-0.050063
-0.085132
-0.112148
-0.131111
-0.136826
-0.133449
-0.117604
-0.084873
-0.040972
0.005526
0.058518
0.112290
0.147099
0.174115
0.203728
0.203468
0.198532
0.196714
0.170217
0.148396
0.123459
0.098780
0.074102
0.047346
0.030981
-0.003309
-0.039157
-0.073187
-0.110074
-0.141506
-0.168522
-0.190343
-0.205929
-0.213722
-0.227750
-0.232946
-0.245674
-0.257364
-0.248013
-0.282302
-0.318410
-0.317371
-0.348024
-0.371403
-0.372962
-0.379716
-0.364909
-0.368287
-0.357117
-0.317892
-0.312957
-0.309840
-0.299449
-0.297371
-0.306463
-0.317373
-0.308022
-0.299450
-0.295034
-0.270096
-0.240223
-0.216325
-0.188790
-0.161514
-0.132680
-0.109821
-0.094494
-0.066699
-0.034748
-0.007992
0.025258
0.058508
0.090200
0.111500
0.125268
0.154881
0.161375
0.161635
0.175922
0.160336
0.145789
0.118773
0.066559
0.019801
-0.047220
-0.123592
-0.191131
-0.262308
-0.320756
-0.352708
-0.368294
-0.360501
-0.330888
-0.289844
-0.239709
-0.192951
-0.152168
-0.114762
-0.093721
-0.090084
-0.075537
-0.071901
-0.077616
-0.072420
-0.078135
-0.071122
-0.066186
-0.059692
-0.040730
-0.030079
-0.005142
0.012522
0.031485
0.069411
0.098505
0.138249
0.174357
0.198515
0.234623
0.253326
0.277484
0.300084
0.304759
0.328918
0.333334
0.341126
0.365544
0.359310
0.362687
0.379312
0.376454
0.370219
0.362166
0.355672
0.350736
0.326838
0.313070
0.309433
0.297483
0.295665
0.287092
0.274104
0.248906
0.200849
0.149415
0.079797
-0.006187
-0.091910
-0.186986
-0.284399
-0.372980
-0.450131
-0.516372
-0.562611
-0.583392
-0.597420
-0.589627
-0.558975
-0.535596
-0.513256
-0.491955
-0.475850
-0.471953
-0.486501
-0.494554
-0.502866
-0.514816
-0.520531
-0.536896
-0.540533
-0.535338
-0.535338
-0.526506
-0.518973
-0.485983
-0.458967
-0.445200
-0.401559
-0.372465
-0.339475
-0.301289
-0.290898
-0.265181
-0.252193
-0.266740
-0.275053
-0.293237
-0.307265
-0.325968
-0.349347
-0.342334
-0.331164
-0.313760
-0.281549
-0.238687
-0.180759
-0.132962
-0.100231
-0.048798
0.007832
0.035627
0.078488
0.128883
0.161614
0.197202
0.215385
0.235387
0.257467
0.263961
0.277989
0.294354
0.292795
0.287080
0.271494
0.231749
0.197460
0.156156
0.098747
0.036143
-0.024383
-0.079194
-0.146214
-0.203104
-0.246745
-0.275060
-0.296361
-0.326494
-0.322858
-0.316883
-0.335327
-0.345458
-0.363122
-0.387800
-0.412738
-0.444690
-0.454821
-0.461575
-0.473005
-0.464952
-0.470668
-0.473785
-0.471707
-0.485994
-0.492489
-0.500022
-0.508335
-0.522622
-0.551197
-0.562367
-0.581071
-0.615880
-0.622894
-0.617439
-0.606009
-0.588085
-0.557173
-0.503401
-0.461319
-0.410924
-0.354035
-0.314810
-0.282859
-0.278443
-0.278703
-0.278184
-0.311954
-0.356114
-0.386507
-0.410406
-0.420278
-0.414043
-0.403653
-0.370922
-0.332477
-0.311955
-0.301305
-0.296889
-0.286758
-0.290655
-0.305722
-0.305462
-0.289097
-0.281304
-0.287798
-0.277927
-0.263900
-0.264160
-0.264160
-0.254289
-0.247795
-0.255329
-0.274292
-0.289099
-0.295593
-0.321570
-0.344949
-0.353782
-0.362094
-0.352223
-0.345469
-0.334559
-0.295854
-0.262084
-0.229354
-0.185713
-0.132201
-0.073234
-0.034009
0.020022
0.092498
0.139775
0.169648
0.197184
0.229135
0.247838
0.237187
0.222121
0.213029
0.167569
0.108082
0.065740
0.031970
0.010149
-0.020764
-0.026738
-0.005697
0.002615
0.014304
0.032488
0.053529
0.061322
0.045476
0.020018
-0.007517
-0.043625
-0.085708
-0.116880
-0.127790
-0.129609
-0.131427
-0.101814
-0.047003
0.011444
0.078464
0.160551
0.264977
0.354337
0.427852
0.505262
0.572022
0.623716
0.640601
0.647614
0.653589
0.633846
0.609947
0.580074
0.547083
0.529159
0.498247
0.466295
0.455385
0.431226
0.397196
0.365764
0.344203
0.325500
0.295626
0.273806
0.250167
0.221592
0.183666
0.130673
0.084434
0.041572
-0.018175
-0.076623
-0.117926
-0.155073
-0.203650
-0.248330
-0.273268
-0.299505
-0.325482
-0.345484
-0.340548
-0.327300
-0.333535
-0.324963
-0.301064
-0.289375
-0.286518
-0.274828
-0.260281
-0.246514
-0.241059
-0.229110
-0.202873
-0.191704
-0.179754
-0.179755
-0.179235
-0.171702
-0.190146
-0.201316
-0.211447
-0.223397
-0.240801
-0.275610
-0.295613
-0.319511
-0.354580
-0.386272
-0.409132
-0.415107
-0.417705
-0.410431
-0.383156
-0.343931
-0.296653
-0.258987
-0.202877
-0.124947
-0.075332
-0.016624
0.041823
0.082607
0.098972
0.078190
0.069098
0.032211
-0.027796
-0.081568
-0.142354
-0.181059
-0.216388
-0.247041
-0.253535
-0.253016
-0.246521
-0.241326
-0.228858
-0.190932
-0.161838
-0.135601
-0.100533
-0.061828
-0.017927
0.005971
0.033247
0.068835
0.096370
0.112735
0.116632
0.123645
0.114813
0.098967
0.091693
0.068314
0.057144
0.044935
0.011165
0.001813
-0.011955
-0.060532
-0.094302
-0.110927
-0.142100
-0.163660
-0.171454
-0.169895
-0.148854
-0.128592
-0.104694
-0.070145
-0.028323
0.013760
0.042074
0.081819
0.132213
0.175075
0.219235
0.257421
0.288073
0.314050
0.339507
0.355872
0.375095
0.404449
0.414060
0.418736
0.419774
0.410942
0.403409
0.382887
0.355611
0.343662
0.328075
0.311970
0.307813
0.292487
0.282356
0.271965
0.246507
0.216114
0.173772
0.123377
0.061552
0.002844
-0.034822
-0.066514
-0.078983
-0.062358
-0.029888
0.010896
0.052459
0.094021
0.121037
0.137662
0.139480
0.119738
0.109607
0.085448
0.053496
0.024662
-0.009628
-0.030149
-0.067816
-0.104443
-0.120289
-0.136915
-0.142630
-0.135097
-0.121329
-0.101327
-0.080026
-0.063401
-0.050933
-0.038724
-0.011448
0.008813
0.031153
0.082068
0.131943
0.196885
0.266502
0.342095
0.444443
0.534323
0.620306
0.697197
0.743175
0.782140
0.799805
0.794349
0.778503
0.749409
0.714080
0.648099
0.568350
0.502109
0.435089
0.369627
0.316115
0.278968
0.256888
0.244938
0.223117
0.204414
0.189087
0.160253
0.126483
0.079465
0.025433
-0.028599
-0.092502
-0.164718
-0.227582
-0.285510
-0.339802
-0.389418
-0.441631
-0.477739
-0.508911
-0.526836
-0.530472
-0.527615
-0.505795
-0.485273
-0.459556
-0.432801
-0.418254
-0.397992
-0.375133
-0.354871
-0.333050
-0.300580
-0.263953
-0.239015
-0.209142
-0.171995
-0.141603
-0.103157
-0.064971
-0.026526
0.025168
0.077641
0.126217
0.172456
0.219993
0.259997
0.283896
0.289870
0.288831
0.268309
0.222070
0.186482
0.138684
0.079197
0.039193
-0.000552
-0.032244
-0.063416
-0.088354
-0.102122
-0.135112
-0.166544
-0.205770
-0.264737
-0.316691
-0.363969
-0.415663
-0.460083
-0.488658
-0.516453
-0.522948
-0.512297
-0.497750
-0.466838
-0.434108
-0.390207
-0.342150
-0.298769
-0.254349
-0.206292
-0.145247
-0.087578
-0.027312
0.039708
0.097895
0.155044
0.198945
0.217388
0.215829
0.186995
0.147510
0.094257
0.037888
0.006196
-0.026016
-0.044459
-0.043940
-0.051733
-0.042122
-0.034589
-0.034329
-0.007573
-0.002378
-0.014847
-0.020562
-0.044980
-0.082907
-0.130704
-0.176424
-0.230715
-0.282929
-0.312802
-0.350988
-0.378784
-0.384239
-0.386317
-0.378784
-0.369173
-0.356704
-0.336702
-0.332027
-0.332287
-0.325792
-0.327091
-0.324754
-0.323195
-0.328391
-0.332028
-0.335405
-0.346315
-0.366058
-0.378787
-0.398789
-0.432299
-0.457497
-0.493605
-0.522959
-0.537246
-0.561664
-0.571276
-0.580888
-0.586862
-0.583486
-0.593097
-0.586343
-0.581668
-0.588422
-0.585824
-0.590500
-0.600372
-0.608165
-0.614659
-0.627908
-0.648689
-0.653105
-0.654664
-0.663237
-0.649989
-0.634403
-0.603231
-0.555434
-0.515689
-0.462177
-0.411003
-0.363985
-0.334632
-0.311513
-0.282938
-0.283978
-0.278263
-0.275665
-0.280601
-0.263716
-0.263197
-0.263717
-0.257223
-0.268912
-0.280342
-0.304501
-0.347623
-0.393342
-0.446594
-0.498548
-0.555438
-0.605573
-0.637784
-0.672593
-0.684543
-0.681945
-0.678828
-0.647656
-0.607133
-0.556738
-0.493095
-0.429192
-0.355418
-0.291256
-0.236964
-0.181634
-0.143189
-0.105003
-0.060583
-0.027592
0.009295
0.050597
0.086185
0.120215
0.148529
0.170350
0.174246
0.168791
0.169310
0.151386
0.127747
0.104108
0.064883
0.027476
-0.020581
-0.082926
-0.151245
-0.221123
-0.289182
-0.352565
-0.391791
-0.419066
-0.426600
-0.401402
-0.373088
-0.341656
-0.299834
-0.257492
-0.225800
-0.194628
-0.158521
-0.137739
-0.119296
-0.099814
-0.094618
-0.093320
-0.087345
-0.087865
-0.080332
-0.058771
-0.050199
-0.035133
-0.018248
-0.015131
-0.006559
-0.012274
-0.024483
-0.038770
-0.069423
-0.092803
-0.116701
-0.143717
-0.165538
-0.174890
-0.168136
-0.156966
-0.115663
-0.065528
-0.031239
0.021234
0.076045
0.123842
0.170080
0.219436
0.272948
0.318407
0.363347
0.409066
0.443615
0.476086
0.518428
0.547262
0.567264
0.589864
0.599994
0.606748
0.611943
0.609086
0.604150
0.589083
0.569081
0.548819
0.510893
0.474265
0.432702
0.383086
0.347238
0.311909
0.285673
0.265930
0.253721
0.250863
0.232420
0.209560
0.183063
0.144098
0.116822
0.093963
0.070843
0.071103
0.076298
0.085649
0.111626
0.141239
0.183581
0.233197
0.287748
0.349572
0.397370
0.441270
0.480495
0.498938
0.513485
0.515563
0.498159
0.479195
0.452179
0.421267
0.376586
0.331906
0.303591
0.264886
0.236831
0.232414
0.227219
0.232934
0.242025
0.247740
0.264885
0.267222
0.273457
0.284886
0.272677
0.270339
0.259688
0.239166
0.227736
0.206176
0.191628
0.184355
0.170847
0.155520
0.142532
0.133180
0.126945
0.135777
0.158896
0.184094
0.222020
0.261244
0.291637
0.324627
0.337616
0.335797
0.322808
0.292156
0.259165
0.218381
0.177338
0.135515
0.088237
0.045635
0.003552
-0.031257
-0.053597
-0.070482
-0.084510
-0.094901
-0.106590
-0.116202
-0.125813
-0.133347
-0.135945
-0.140361
-0.145037
-0.155168
-0.170495
-0.191536
-0.214655
-0.232320
-0.249205
-0.253621
-0.242971
-0.232061
-0.216215
-0.198031
-0.189459
-0.182705
-0.184784
-0.196993
-0.221931
-0.255961
-0.287653
-0.335710
-0.384287
-0.430525
-0.482999
-0.530536
-0.576775
-0.617559
-0.655485
-0.691333
-0.718090
-0.731858
-0.734975
-0.725623
-0.704842
-0.677827
-0.639901
-0.598078
-0.547424
-0.492872
-0.438062
-0.382212
-0.335194
-0.292073
-0.260641
-0.231807
-0.195439
-0.160371
-0.120627
-0.075427
-0.028409
0.017310
0.060951
0.102773
0.134465
0.152129
0.157843
0.153427
0.137581
0.111085
0.086666
0.057572
0.022243
-0.010487
-0.054908
-0.104004
-0.149724
-0.197261
-0.251033
-0.311040
-0.366630
-0.427676
-0.492878
-0.541715
-0.576264
-0.592889
-0.590551
-0.573667
-0.541456
-0.499114
-0.447160
-0.392090
-0.329226
-0.262985
-0.204797
-0.148428
-0.096734
-0.046859
-0.000880
0.045358
0.090818
0.134458
0.178619
0.210050
0.233949
0.245379
0.245119
0.229273
0.203555
0.176539
0.136275
0.096531
0.057046
0.020678
-0.012313
-0.042966
-0.067124
-0.092582
-0.108168
-0.117520
-0.123235
-0.121157
-0.110247
-0.090504
-0.066346
-0.031018
0.011844
0.057043
0.107698
0.159391
0.206409
0.253167
0.289015
0.310835
0.320966
0.302782
0.270311
0.223293
0.160169
0.090551
0.007165
-0.075960
-0.161684
-0.246888
-0.317805
-0.386644
-0.450547
-0.503539
-0.551077
-0.595498
-0.633424
-0.664077
-0.688495
-0.699665
-0.701224
-0.704341
-0.702263
-0.690314
-0.673689
-0.654986
-0.629789
-0.587966
-0.544066
-0.501204
-0.445095
-0.394959
-0.354436
-0.307938
-0.262478
-0.210525
-0.148441
-0.080641
-0.002451
0.073141
0.142759
0.204843
0.251341
0.282513
0.298359
0.305632
0.297320
0.281993
0.265108
0.232637
0.197568
0.159382
0.120157
0.085867
0.050539
0.025341
0.003261
-0.019339
-0.030769
-0.043238
-0.055188
-0.072852
-0.101427
-0.128962
-0.169486
-0.213907
-0.252093
-0.294176
-0.338077
-0.381198
-0.417046
-0.463285
-0.516018
-0.565894
-0.625641
-0.682270
-0.739939
-0.793451
-0.836053
-0.878655
-0.912685
-0.941779
-0.965938
-0.984901
-1.003864
-1.012956
-1.017373
-1.018152
-1.004644
-0.985162
-0.949574
-0.902296
-0.863591
-0.822808
-0.780725
-0.745657
-0.717602
-0.690846
-0.668506
-0.654219
-0.635256
-0.615774
-0.606423
-0.590577
-0.572393
-0.559405
-0.541481
-0.527714
-0.501997
-0.480436
-0.456278
-0.414975
-0.392116
-0.343539
-0.287430
-0.255478
-0.199888
-0.151312
-0.120399
-0.077798
-0.050003
-0.025325
0.002470
0.021433
0.045851
0.048968
0.064814
0.071048
0.055981
0.068970
0.060917
0.057280
0.052344
0.041693
0.053383
0.053902
0.080138
0.112349
0.138846
0.191059
0.219633
0.258079
0.303278
0.308993
0.333151
0.344840
0.339125
0.336527
0.322240
0.311070
0.292886
0.300159
0.308731
0.325097
0.369777
0.394974
0.425886
0.456019
0.476021
0.495244
0.511609
0.524337
0.526156
0.518622
0.496542
0.467188
0.421728
0.365878
0.319379
0.266386
0.212355
0.171051
0.123254
0.065845
0.014151
-0.041180
-0.098329
-0.150023
-0.201457
-0.264321
-0.332121
-0.387971
-0.455511
-0.518635
-0.557340
-0.598124
-0.623841
-0.627738
-0.624361
-0.597086
-0.540456
-0.467462
-0.389272
-0.296275
-0.196264
-0.111580
-0.033131
0.034928
0.087661
0.127925
0.162734
0.191308
0.202738
0.214427
0.226636
0.237546
0.248456
0.247677
0.251313
0.250274
0.239883
0.230791
0.213906
0.201437
0.188448
0.167667
0.156237
0.141950
0.128701
0.123246
0.120388
0.130000
0.141949
0.161691
0.190265
0.219619
0.251051
0.275988
0.310277
0.343268
0.371582
0.410807
0.439641
0.464319
0.490555
0.513674
0.535495
0.550042
0.560432
0.556535
0.541209
0.520427
0.487177
0.453926
0.414701
0.370021
0.323522
0.268711
0.216757
0.167661
0.118045
0.071287
0.028945
-0.006644
-0.033920
-0.051064
-0.057819
-0.046909
-0.017295
0.018033
0.063233
0.115186
0.160385
0.209481
0.257279
0.304037
0.349496
0.385603
0.426387
0.458078
0.485354
0.519903
0.537567
0.557309
0.578090
0.578610
0.563543
0.534189
0.498860
0.442750
0.387939
0.336245
0.271563
0.211037
0.146354
0.082711
0.016470
-0.045095
-0.101205
-0.155237
-0.194722
-0.232389
-0.258885
-0.271614
-0.279927
-0.282265
-0.279667
-0.270316
-0.259925
-0.244079
-0.224077
-0.198361
-0.155759
-0.102507
-0.045618
0.020363
0.100891
0.164015
0.218046
0.276494
0.308445
0.330265
0.338058
0.327927
0.313120
0.285065
0.252074
0.218564
0.188691
0.162714
0.136997
0.116735
0.101148
0.094134
0.086861
0.078288
0.081925
0.080106
0.085561
0.104005
0.117772
0.138294
0.156997
0.174920
0.190766
0.207131
0.227393
0.244278
0.266098
0.281684
0.296750
0.313116
0.330260
0.348704
0.359354
0.375459
0.383512
0.385330
0.384551
0.381174
0.384550
0.386628
0.397538
0.407150
0.410007
0.410526
0.400135
0.380653
0.355455
0.327919
0.293370
0.250248
0.201152
0.151536
0.098544
0.047629
0.014378
-0.012638
-0.027964
-0.029523
-0.025627
-0.006404
0.016455
0.047627
0.087632
0.128675
0.174134
0.220113
0.274144
0.316746
0.362725
0.412860
0.443512
0.475204
0.494426
0.502999
0.503518
0.500401
0.500400
0.493127
0.491568
0.483515
0.472864
0.457538
0.429223
0.403506
0.368177
0.334667
0.300377
0.260633
0.231019
0.201925
0.182442
0.172831
0.168414
0.174389
0.189455
0.205820
0.219588
0.236732
0.254916
0.277256
0.311285
0.361420
0.416491
0.473380
0.536244
0.592353
0.640670
0.676518
0.699118
0.710287
0.712365
0.709248
0.692623
0.675997
0.652618
0.615211
0.575986
0.524552
0.468442
0.407656
0.349728
0.297774
0.244521
0.201659
0.162954
0.126326
0.089439
0.061124
0.041122
0.030991
0.043200
0.049954
0.062163
0.082684
0.101127
0.115674
0.123207
0.148405
0.167108
0.173862
0.183473
0.189707
0.181654
0.157496
0.135935
0.092553
0.043976
0.003712
-0.051359
-0.105131
-0.157864
-0.213714
-0.268525
-0.318921
-0.359445
-0.385421
-0.398670
-0.399969
-0.381525
-0.347236
-0.303336
-0.250603
-0.182024
-0.108510
-0.034996
0.047870
0.128657
0.204769
0.263996
0.313871
0.352317
0.364526
0.369201
0.356992
0.344523
0.325560
0.303220
0.289452
0.262696
0.251785
0.234640
0.216976
0.208144
0.195155
0.205286
0.215936
0.231262
0.253342
0.276202
0.301399
0.320882
0.346339
0.374653
0.402448
0.426606
0.456999
0.483755
0.507134
0.538046
0.562464
0.592337
0.619353
0.640654
0.659357
0.666111
0.665072
0.662474
0.655460
0.639614
0.624547
0.599609
0.572593
0.537265
0.495182
0.453099
0.401405
0.362440
0.321397
0.290484
0.258273
0.229438
0.218528
0.202162
0.208397
0.216709
0.238789
0.276455
0.310744
0.356723
0.401663
0.449720
0.487905
0.529728
0.571291
0.593371
0.613892
0.631556
0.645324
0.660130
0.687666
0.717539
0.749230
0.788455
0.829498
0.874438
0.911065
0.946653
0.971331
0.982761
0.995229
0.998606
1.001463
0.994969
0.986396
0.985097
0.976005
0.974187
0.971069
0.962237
0.967692
0.972628
0.971588
0.970809
0.972107
0.979121
0.983537
0.982757
0.979900
0.970548
0.951585
0.934440
0.921192
0.898072
0.882486
0.869757
0.845079
0.828973
0.805594
0.778838
0.754939
0.722727
0.704284
0.688178
0.676748
0.685320
0.692334
0.707400
0.729480
0.744806
0.768965
0.788967
0.799617
0.806371
0.812345
0.806370
0.790524
0.767924
0.727141
0.685578
0.633364
0.582190
0.526859
0.455942
0.401391
0.328396
0.261635
0.223189
0.165780
0.144739
0.137206
0.119801
0.142920
0.139803
0.149154
0.181365
0.178248
0.197471
0.215914
0.226824
0.247605
0.264490
0.282154
0.292545
0.307351
0.310988
0.318001
0.325015
0.319560
0.332808
0.335665
0.341380
0.349173
0.348393
0.350211
0.341119
0.337223
0.322675
0.309427
0.302673
0.296179
0.305011
0.316180
0.330987
0.349690
0.371251
0.381122
0.381121
0.374887
0.368652
0.361898
0.324751
0.309165
0.302671
0.268901
0.253574
0.239806
0.222661
0.205776
0.185254
0.165512
0.134859
0.107324
0.083165
0.050174
0.029652
0.008611
-0.024120
-0.043603
-0.068800
-0.098934
-0.122313
