EVENT_NAME: 202302060117
EVENT_ID: 13194
EVENT_DATE_YYYYMMDD: 2023/02/06
EVENT_TIME_HHMMSS: 01:17:32.00000
EVENT_LATITUDE_DEGREE: 37.288
EVENT_LONGITUDE_DEGREE: 37.043
EVENT_DEPTH_KM: 8.6
HYPOCENTER_REFERENCE: AFAD
MAGNITUDE_W: 7.7
MAGNITUDE_W_REFERENCE: AFAD
MAGNITUDE_L: 
MAGNITUDE_L_REFERENCE: 
FOCAL_MECHANISM: 
NETWORK: TK
STATION_CODE: 0130
STATION_NAME: 
STATION_LATITUDE_DEGREE: 37.25186
STATION_LONGITUDE_DEGREE: 35.67104
STATION_ELEVATION_M: 73.0
LOCATION: Kahramanmaras_Pazarck_Turkiye
SENSOR_DEPTH_M: 
VS30_M/S: None
SITE_CLASSIFICATION_EC8: unknown
MORPHOLOGIC_CLASSIFICATION: 
EPICENTRAL_DISTANCE_KM: 121.47
EARTHQUAKE_BACKAZIMUTH_DEGREE: 
DATE_TIME_FIRST_SAMPLE_YYYYMMDD_HHMMSS: 2023/02/06 01:17:32.9806560
DATE_TIME_FIRST_SAMPLE_PRECISION: millisecond
SAMPLING_INTERVAL_S: 0.01
NDATA: 12501
DURATION_S: 
STREAM: HNN
UNITS: cm/s^2
INSTRUMENT: sensor = ACEBOX/SARA | digitizer = 
INSTRUMENT_ANALOG/DIGITAL: 
INSTRUMENTAL_FREQUENCY_HZ: 
INSTRUMENTAL_DAMPING: 
FULL_SCALE_G: 
N_BIT_DIGITAL_CONVERTER: 
PGA_CM/S^2: 81.097
TIME_PGA_S: 
BASELINE_CORRECTION: BASELINE REMOVED
FILTER_TYPE: BUTTERWORTH
FILTER_ORDER: 
LOW_CUT_FREQUENCY_HZ: 
HIGH_CUT_FREQUENCY_HZ: 
LATE/NORMAL_TRIGGERED: 
DATABASE_VERSION: 
HEADER_FORMAT: DYNA 1.2
DATA_TYPE: Acceleration
PROCESSING: Automatic Paolucci et al., 2011
DATA_TIMESTAMP_YYYYMMDD_HHMMSS: 
DATA_LICENSE: U (unknown license)
DATA_CITATION: Turkish Accelerometric Archive v 1.0 - Disaster And Emergency Management Presidency, Earthquake Department
DATA_CREATOR: AFAD
ORIGINAL_DATA_MEDIATOR_CITATION: : AFAD - Disaster And Emergency Management Presidency
ORIGINAL_DATA_MEDIATOR: AFAD PROCESS SERVICE
ORIGINAL_DATA_CREATOR_CITATION: AFAD PROCESS SERVICE
ORIGINAL_DATA_CREATOR: network: TK
USER1: GuestUser
USER2: 
USER3: 
USER4: 
USER5: 
[...]
30.180429
32.456459
35.261338
37.389374
37.611028
35.482785
31.877644
28.394780
25.897371
23.742709
20.683719
16.227089
10.868469
5.764689
2.166796
0.513395
0.242204
0.585198
1.197526
2.152134
3.907264
7.071490
11.658372
16.911342
21.751427
24.919159
25.603263
24.406936
22.708880
21.205344
19.575556
17.318257
14.869478
13.352148
13.132392
13.476555
13.398480
12.705752
12.358811
13.119133
14.246049
14.409721
13.322343
11.888478
10.964525
10.421193
9.553118
7.879844
5.575318
3.524462
2.578765
2.973896
4.690683
7.500005
10.788844
13.858850
16.092328
17.013036
16.476251
14.788715
12.696010
10.828684
9.151436
7.329234
5.037333
1.833155
-2.384300
-6.790430
-10.015884
-11.335188
-11.078465
-9.926299
-8.352128
-6.567540
-5.106528
-4.601980
-4.757441
-5.066274
-5.244648
-4.935554
-4.428668
-4.217302
-4.545072
-5.673832
-7.259198
-8.730471
-9.947138
-10.758869
-10.845360
-9.822951
-7.571938
-4.581891
-1.759477
0.080989
0.510254
-0.564732
-2.697417
-4.954716
-6.613962
-7.554983
-8.031915
-8.064867
-7.152811
-4.737671
-0.703954
4.435391
9.504129
13.199543
15.038138
15.568403
15.875393
16.755419
17.933771
18.526227
18.196352
17.534252
17.411288
18.016135
18.750973
18.645778
16.656878
12.454620
6.915742
1.239392
-3.940607
-8.173960
-10.879449
-11.817897
-11.383489
-10.446883
-9.815149
-9.775157
-10.408500
-12.002750
-14.731384
-18.060410
-21.039909
-23.196208
-24.697172
-26.130570
-28.248760
-31.312893
-34.780327
-37.778296
-39.555141
-39.723930
-38.419327
-35.906227
-32.283525
-27.943065
-23.860250
-21.072438
-19.590150
-18.133112
-15.362133
-10.723114
-4.419926
2.656195
9.513716
15.487250
19.944842
22.523406
23.223174
21.788140
18.046696
12.207389
4.454452
-4.503477
-13.155599
-19.988544
-24.385088
-26.914995
-28.653264
-30.602886
-33.011452
-35.341930
-37.605074
-40.069751
-42.077121
-42.475732
-40.890806
-38.084291
-34.821169
-31.845851
-30.134909
-29.960249
-31.475709
-34.533764
-37.643254
-39.414021
-39.328672
-37.642746
-35.784512
-34.942828
-35.003368
-35.447803
-35.465325
-34.047565
-31.081131
-26.841672
-21.223276
-14.774433
-8.616901
-3.450435
0.638926
4.288281
7.930622
10.765428
11.233269
8.572904
4.182672
-0.064242
-3.862498
-7.383705
-10.736812
-14.433367
-18.718390
-23.268071
-27.790632
-31.783408
-34.366387
-35.545179
-35.345269
-33.208816
-30.474076
-28.810595
-28.018009
-28.046285
-28.810788
-29.445301
-29.346157
-28.244725
-26.050290
-23.222031
-21.264433
-21.152664
-21.938210
-22.603583
-22.807675
-22.261745
-20.876248
-18.774631
-16.533905
-15.051383
-14.775255
-15.204727
-15.612923
-15.957761
-16.198325
-16.181010
-15.827495
-14.834077
-13.287027
-11.207621
-8.606379
-6.308372
-4.203014
-1.133009
3.515362
9.736487
16.014191
20.093733
20.995736
19.103862
16.143769
13.604276
11.869748
11.199698
10.798983
10.108827
10.329078
11.682310
12.767610
12.617760
11.264789
9.332701
7.810227
7.110018
6.263685
4.584567
2.431775
-0.164530
-3.501271
-7.769227
-13.421028
-21.000254
-29.880796
-38.529177
-45.951993
-51.176881
-53.466912
-53.518801
-52.505510
-50.626001
-47.663776
-43.884663
-39.165452
-33.705571
-28.588203
-23.982617
-19.801841
-16.158798
-12.745345
-9.172208
-4.535994
1.171244
6.838036
11.931557
15.504226
16.916609
17.301687
18.107132
20.049767
22.853477
25.827625
28.610060
30.582621
31.273739
30.824628
29.007570
25.731850
21.721305
17.298342
12.603472
8.313540
4.224673
-0.438868
-5.011695
-8.567036
-11.545834
-14.541698
-17.555799
-19.857520
-20.225737
-18.286843
-14.651282
-10.663622
-7.551767
-5.537356
-4.453926
-3.027048
0.098835
4.730606
10.472680
15.926950
19.582150
21.501639
21.150256
18.720180
15.933330
13.737052
12.673055
12.182561
10.834266
8.259237
4.182995
-1.520242
-8.074267
-14.257256
-18.445721
-20.352792
-21.211048
-21.251248
-20.482976
-19.300884
-16.871015
-12.818594
-8.355624
-4.118737
-0.011139
3.624656
6.320819
7.604614
6.871205
4.382213
1.486881
-0.580575
-1.223504
-0.389301
1.617160
4.326416
7.154909
9.355656
9.930577
8.796440
7.480877
7.112893
7.185852
6.881227
5.830790
3.579569
0.009499
-4.467238
-9.971747
-16.438566
-22.708528
-27.732116
-30.997081
-32.338830
-32.490785
-32.677575
-33.270004
-33.582811
-32.903149
-30.842680
-27.330331
-22.901262
-18.268789
-13.912431
-10.261206
-7.577667
-5.659347
-4.152744
-3.030036
-2.028669
-0.280320
2.666241
6.455173
10.360770
13.263142
14.153690
12.822695
9.694969
5.564253
1.439615
-1.990879
-4.835944
-7.248953
-8.810003
-9.609109
-10.406110
-11.504944
-12.599102
-12.857200
-11.360183
-8.296490
-5.089947
-3.207164
-3.286174
-5.056240
-7.312370
-8.623257
-8.709983
-8.364884
-8.386848
-9.043103
-9.701697
-9.271730
-7.504443
-5.125542
-2.839693
-0.835102
0.972632
2.742023
4.875437
7.200798
8.506336
8.435976
7.847522
7.220024
6.636947
5.621579
3.128612
-0.797532
-4.808778
-7.636075
-8.556989
-7.346139
-4.487019
-0.927676
2.774751
6.701857
10.770411
14.339807
16.936841
18.869656
20.975949
23.637745
26.424388
28.808666
29.817047
28.260672
24.815215
21.592567
20.173197
21.283748
24.395603
27.922215
30.758423
32.866820
34.457122
35.178400
34.737239
33.428455
31.445400
29.155837
27.088849
25.010872
22.535207
19.761216
17.268483
16.221786
17.479862
20.710019
24.587092
27.669255
29.155518
29.029749
28.052957
27.164073
26.690414
26.649279
27.305094
28.691993
29.970643
30.332107
29.800232
28.729220
27.975939
28.581488
30.459828
32.673668
34.379934
34.956258
34.049839
31.639403
28.028184
23.887414
20.244866
18.033158
17.212075
16.925453
16.476342
15.335659
13.095427
9.920941
6.144428
1.840000
-2.918463
-8.210918
-14.154498
-20.107431
-24.899794
-27.802139
-28.635613
-27.598709
-25.155514
-21.516913
-16.800975
-11.658123
-7.019572
-3.801573
-2.503985
-2.648458
-3.479126
-4.490520
-5.113810
-4.964400
-3.974021
-2.495240
-1.180584
-0.349421
-0.237653
-1.126770
-2.830905
-4.639313
-5.479100
-4.632506
-2.371673
0.323555
2.347084
3.044281
2.612237
2.186506
3.120072
6.125549
11.210653
17.058872
21.161326
21.864134
19.353866
15.138281
10.971794
7.739560
5.734762
5.276299
6.507255
8.741669
10.004889
8.567049
4.791003
0.296732
-3.580315
-6.290713
-7.934528
-8.728256
-9.184615
-10.376266
-12.951763
-16.126950
-18.162376
-17.994262
-16.027312
-13.353125
-11.047403
-9.803588
-9.619343
-10.286820
-11.643065
-13.025728
-13.454265
-12.132362
-8.434845
-2.641802
3.545656
8.329161
10.824493
10.899088
9.105643
6.061148
1.988179
-2.754385
-7.638864
-12.311756
-16.793402
-21.540876
-26.943917
-33.183251
-39.997025
-46.244542
-50.887976
-53.441964
-53.473981
-50.932825
-45.868763
-38.376949
-28.928721
-17.945379
-6.507069
3.941812
12.949099
20.219039
26.063750
32.212398
39.161801
45.618126
50.893541
54.311203
54.453132
51.111247
45.357977
38.464479
31.766434
25.616878
19.281220
11.971796
3.296762
-6.221345
-15.381509
-22.787491
-27.319871
-28.966024
-28.209677
-25.849246
-23.588647
-22.581435
-22.709776
-23.223181
-22.576251
-19.799895
-15.609065
-10.925391
-6.504505
-3.001040
-0.046530
3.065559
6.510108
10.872077
16.981446
23.984857
29.942493
33.957273
35.776696
35.448459
34.193682
33.575770
34.034260
35.553020
38.250353
41.014317
42.110139
41.056194
38.609285
35.924371
33.396101
31.509838
31.020982
30.881652
30.114109
29.136149
27.825728
25.792407
23.028236
20.243256
18.267449
16.889228
16.171717
16.734715
18.812251
22.299117
26.326989
29.537273
30.896818
29.747250
26.147487
21.232614
16.387180
12.563907
10.343080
9.200292
7.826279
5.922014
4.106124
2.737255
1.978830
2.139228
3.220320
4.795426
6.513616
8.243729
9.471412
8.983958
6.314708
2.121802
-2.713346
-6.621721
-8.324921
-7.849130
-5.738862
-2.961571
-0.399607
1.487618
2.644928
3.618005
4.853170
6.719353
9.603256
13.055987
15.559736
16.090002
15.138460
13.090410
10.591598
8.599425
6.425124
4.102362
2.638804
1.036839
-2.143492
-7.629531
-15.714928
-25.039919
-32.939213
-37.286894
-37.309091
-33.339434
-27.311192
-21.842660
-18.046714
-15.984375
-14.901880
-13.595641
-12.359074
-11.579814
-10.920960
-11.855200
-15.458237
-20.276551
-26.329315
-33.804501
-40.374191
-45.425367
-48.641469
-48.009735
-44.384929
-40.047742
-36.100062
-33.218263
-30.693707
-27.800219
-24.600689
-21.075481
-17.306889
-12.644491
-6.870620
-1.246847
2.764193
3.721840
1.662801
-1.344988
-3.461307
-3.927251
-3.074579
-1.636713
0.112806
1.212134
0.239317
-2.994086
-7.993125
-13.792219
-18.421391
-20.815462
-21.416541
-20.724020
-19.563437
-18.647172
-17.560703
-15.744552
-13.447013
-11.268944
-9.077782
-6.210012
-2.921873
-0.604695
-0.358259
-2.033637
-4.802017
-7.522702
-9.555790
-11.415867
-13.024613
-13.812730
-14.007236
-13.234990
-10.373064
-5.197246
1.102434
6.869525
11.046560
13.060270
13.348789
13.202679
12.991574
12.517213
11.640954
9.672161
6.206598
2.023978
-1.567134
-3.967517
-5.687550
-7.587607
-10.010201
-12.123247
-12.857123
-12.669604
-12.948745
-14.441293
-16.900827
-19.276427
-20.235918
-19.147344
-16.543063
-13.219154
-9.644380
-6.642176
-5.179527
-5.339197
-6.288868
-7.121640
-8.043021
-9.747858
-11.326443
-11.371085
-9.757403
-6.677812
-2.866903
0.269969
2.357324
4.099595
6.400173
9.550138
12.882230
15.861522
18.656348
21.974646
26.297337
30.728042
33.878708
35.440955
36.055855
36.164117
35.176337
32.544261
29.030769
25.599808
22.708684
20.792963
19.565774
18.340924
17.286746
16.706241
16.173664
15.148477
13.984647
13.784764
15.135658
17.241717
18.443917
17.932148
15.762523
12.723406
10.700605
9.741582
8.682260
8.351451
9.087926
10.514102
12.748984
13.846208
11.909679
8.449493
5.625937
3.740609
2.034604
-0.478235
-4.475454
-9.622955
-14.683015
-18.155125
-18.822135
-16.737351
-13.500181
-10.663973
-8.501101
-6.233020
-2.717865
2.305517
7.606883
11.692738
14.268496
15.960968
17.357452
18.627219
19.193723
19.034521
19.050199
19.362332
20.187416
21.133139
20.107952
16.666235
12.363210
9.291362
9.625471
13.456487
18.904444
23.802277
27.251501
30.059654
32.496770
34.359446
35.708236
36.479079
37.115255
37.562990
37.791658
38.654617
39.992652
41.656601
43.859452
45.644975
46.669255
47.318056
47.051540
45.422922
42.408587
37.732656
32.072203
26.868825
22.460825
18.701145
14.829943
9.306964
2.133376
-5.976336
-14.331770
-21.284887
-26.346584
-30.090366
-32.625884
-34.636527
-36.627063
-38.252876
-39.568907
-40.612331
-40.952960
-40.370324
-38.197632
-33.772304
-27.967572
-21.575308
-14.662377
-7.857460
-1.347829
4.714080
9.400793
12.267629
13.400390
13.755542
14.269208
13.975806
12.116196
9.141607
5.391746
1.881060
-0.490800
-2.252683
-3.943491
-5.810349
-7.761373
-8.825137
-8.879832
-8.425785
-6.870084
-3.617015
0.933160
5.441954
9.637693
14.904224
20.693526
25.506022
29.130361
31.159267
31.888728
31.989040
31.092675
29.020544
25.750201
20.874139
14.208592
6.448874
-1.339600
-8.263259
-13.073858
-15.194620
-15.352653
-14.527335
-13.792731
-14.026748
-15.375979
-17.574595
-20.357470
-23.433293
-26.583230
-29.493291
-31.636497
-33.206666
-34.693837
-36.194568
-37.973518
-39.344959
-38.925514
-36.700218
-32.728690
-26.090705
-17.200550
-8.161467
-0.332284
6.011117
10.501440
13.307021
14.910416
14.609533
12.080561
8.184811
3.198396
-1.854417
-5.337515
-7.838664
-10.269207
-12.150560
-13.356239
-14.007117
-13.968761
-13.528274
-12.830843
-11.256439
-8.348922
-4.456418
-0.342976
3.605874
7.451151
10.700946
12.564090
12.567377
10.589232
7.398848
3.905930
0.613844
-1.782096
-2.948030
-3.031716
-1.968860
0.285661
3.078149
5.017978
5.227942
4.584545
4.774870
6.375693
8.702457
10.838208
12.150526
12.398832
11.833056
10.855563
9.492773
7.867194
6.479153
5.870592
6.739864
9.312582
12.921724
16.884134
20.546348
22.598868
21.787838
18.410417
13.859800
9.218236
4.893936
0.840606
-2.422489
-3.578837
-1.925175
1.763224
5.442739
7.334406
7.381413
6.567344
5.975851
6.520144
8.361779
11.043447
14.122103
17.009279
18.997504
19.673192
19.147863
17.840482
15.641399
12.109203
7.127231
0.623238
-7.027063
-14.820213
-22.089190
-28.586403
-33.707719
-36.505557
-36.733262
-35.123554
-32.661422
-30.352894
-28.824782
-27.803074
-26.674755
-24.951422
-22.298511
-19.324596
-17.101638
-15.618181
-14.578237
-13.842931
-12.634186
-10.652741
-8.284127
-5.514317
-2.327413
0.665439
2.363055
2.071757
0.181519
-2.283859
-4.554017
-6.492183
-8.027984
-9.179422
-10.298362
-11.278660
-11.234459
-9.154585
-4.865093
0.853835
6.854957
11.982612
15.535642
17.119165
16.912034
16.079963
15.689067
16.424373
18.266008
20.205136
21.760369
22.760333
22.677583
21.362019
18.769922
15.274433
11.796478
8.799912
6.675410
5.730181
5.308424
4.516099
3.253373
1.967736
1.183126
1.334172
2.180064
2.711499
2.169570
0.436912
-2.320947
-5.962793
-10.181418
-13.862542
-15.652948
-14.817577
-11.284887
-5.912680
-0.056512
5.004277
7.896363
7.867151
5.458118
1.881968
-1.589440
-4.082173
-5.712428
-6.882569
-7.521991
-8.310810
-10.784839
-15.587956
-22.114160
-29.091124
-34.993323
-38.750665
-40.686727
-42.601980
-46.280533
-52.226685
-59.703976
-67.471409
-74.372857
-79.215954
-81.097307
-79.851855
-75.980627
-71.023410
-66.686925
-63.259209
-60.450356
-57.702055
-53.348970
-46.409854
-37.586098
-28.374472
-21.067359
-17.036914
-15.007541
-12.631212
-8.503040
-2.161509
5.963660
13.788635
19.550816
22.928264
23.863233
24.146141
25.251548
25.948278
26.399052
27.236995
27.279560
26.122978
23.647546
19.429623
14.063990
8.774808
4.719841
2.415549
1.343135
0.198710
-1.904282
-4.823695
-8.116950
-10.691746
-11.202346
-9.660907
-6.944169
-3.692036
-0.293545
3.090216
6.362690
9.103743
10.721166
11.064627
10.453027
9.266754
8.039565
7.154656
6.223689
5.154080
4.737934
5.078590
5.414103
5.029052
3.289380
0.076552
-3.959243
-7.957864
-11.623558
-15.141258
-17.990298
-19.332982
-19.004951
-16.952899
-13.685802
-10.895419
-9.445394
-8.324557
-6.788028
-4.745795
-1.499974
2.874854
7.194038
10.490359
11.216313
8.181872
2.795196
-2.610884
-6.980308
-10.073666
-11.992427
-13.034214
-13.110184
-12.247225
-11.170107
-10.433866
-9.930955
-9.171100
-7.874213
-6.487782
-5.418848
-4.669046
-4.329559
-4.442236
-5.178684
-6.798184
-9.071381
-11.562711
-13.994891
-16.256866
-18.391421
-20.481321
-22.299549
-22.896888
-21.390051
-17.677571
-11.935496
-4.807238
2.793057
10.483364
17.800998
23.953387
28.616019
32.303015
35.899532
39.764916
43.505218
46.203720
47.031142
46.063702
44.161073
42.606335
42.628092
44.627540
48.259126
52.851619
57.315524
60.063123
59.946939
57.402069
53.857483
50.319442
46.817640
42.896873
38.320773
32.920304
26.544666
19.216772
11.028971
2.948250
-3.169977
-6.211199
-6.354971
-4.767941
-3.260169
-3.448830
-6.079971
-10.733224
-16.163152
-20.819913
-23.232687
-23.081407
-21.371634
-19.320283
-17.858335
-17.132615
-15.948652
-12.576347
-6.313606
2.240582
12.103333
22.083918
30.864889
37.668871
42.135113
44.025611
43.704855
42.363807
41.008031
39.765645
38.582411
37.146442
34.692052
31.008355
26.660207
22.706008
20.535681
20.827474
22.623752
24.052968
23.948006
22.001891
18.169033
13.310271
8.825819
4.920483
1.208732
-2.146479
-5.421966
-8.738834
-11.265234
-13.253666
-15.779130
-18.540964
-20.703575
-22.244052
-23.435235
-24.635537
-26.562948
-29.343252
-32.154650
-34.244083
-34.662567
-32.263092
-27.145490
-21.005726
-15.850249
-12.332288
-9.774533
-7.570746
-5.505368
-3.388554
-1.266363
0.357841
1.159311
1.225489
0.530891
-0.607688
-1.461970
-1.631927
-0.717532
1.663239
4.936180
7.811900
9.200436
8.185535
4.440116
-0.792019
-5.844364
-10.034465
-12.900339
-14.343556
-15.509957
-17.406974
-19.817177
-22.564515
-25.747184
-28.750296
-31.208193
-33.320070
-34.489978
-34.285392
-33.244046
-31.612829
-29.802991
-29.053657
-29.657775
-30.056620
-28.905389
-25.985014
-20.895935
-14.202072
-8.119121
-3.638149
-0.037658
3.083549
5.940565
9.137055
12.249144
14.027185
14.852737
15.489147
15.390498
15.011760
15.342596
16.230338
17.901768
20.542989
23.435777
26.444995
29.712325
32.480264
33.794686
33.299751
30.955947
26.890459
21.682405
15.827434
9.639769
4.013919
-0.531087
-4.578104
-8.532537
-12.362824
-16.071303
-19.167700
-20.792344
-20.851949
-20.036451
-18.748448
-17.123777
-15.302249
-12.993254
-10.112858
-7.151568
-4.206878
-1.126820
2.057279
5.182694
7.446800
8.128333
7.410823
5.572488
2.885704
-0.278027
-3.682804
-6.825025
-9.159010
-10.293147
-9.717525
-7.387254
-4.027573
-0.572036
2.287785
4.216159
5.273170
6.046584
7.522560
10.430544
14.606878
19.425219
24.580930
29.683101
33.988492
36.813945
37.630379
36.620154
34.804966
32.984867
31.449067
30.495655
30.479069
31.576761
33.901654
37.426863
41.435097
44.866319
46.976353
47.306020
46.051711
43.924637
41.466506
39.274904
37.874239
37.105293
36.060700
33.633898
29.472320
24.110661
18.508658
13.774979
10.695882
9.388735
9.055588
8.254845
5.985623
2.266156
-2.131791
-6.082016
-8.205350
-7.608686
-5.021939
-2.181289
-0.681232
-1.403184
-3.871836
-6.894588
-9.429170
-10.453189
-9.245145
-5.645589
-0.093124
6.140626
11.381673
14.365407
14.677540
12.647492
9.026687
4.754523
0.242250
-4.665843
-9.904291
-15.603086
-22.088608
-29.058559
-35.907169
-41.859166
-45.978894
-47.717163
-47.129851
-44.813374
-41.288867
-37.164903
-33.380180
-29.941476
-26.435906
-22.829336
-18.435337
-12.987380
-7.424862
-2.556254
0.893438
2.772247
4.023543
5.192543
5.958476
5.740123
4.444432
2.294680
-1.056557
-5.681053
-11.468223
-18.338810
-25.187420
-31.119077
-35.498787
-37.095843
-35.924037
-33.711834
-32.659733
-34.047774
-37.544900
-42.055069
-46.020725
-48.182869
-48.094947
-45.564312
-41.161429
-35.921785
-30.808625
-26.708976
-23.797252
-22.028796
-21.114401
-20.211229
-18.812874
-16.381836
-12.571161
-7.619555
-1.493352
5.391289
12.198778
18.585431
24.264848
29.248250
33.256484
35.393171
36.215917
37.105763
38.106195
38.683688
38.383272
36.704855
33.472153
28.884597
23.669762
18.303895
12.449859
6.318773
0.733837
-3.586957
-5.888443
-5.995743
-4.770398
-3.346793
-1.686117
0.942011
4.190638
7.490232
10.216555
11.426002
11.632225
11.686713
11.704729
12.439567
14.322818
16.690730
18.774111
20.186494
20.660648
19.888429
18.554629
17.566382
16.624894
15.585679
14.381636
12.599413
10.884991
9.685157
8.365619
7.056602
6.391228
6.461147
7.315689
8.618188
9.344843
9.145895
8.886160
9.275913
10.385295
12.556817
15.942215
19.806664
23.413234
26.106826
27.203816
26.770136
25.301668
23.268815
21.163484
19.069141
16.630182
13.536356
9.851023
5.752571
1.219489
-3.700527
-8.825349
-13.689722
-17.390485
-19.412117
-20.027691
-19.414428
-17.447010
-14.574330
-11.470891
-8.253827
-5.314982
-3.220145
-1.599683
-0.074610
1.145592
2.212188
