EVENT_NAME: 202302060117
EVENT_ID: 13194
EVENT_DATE_YYYYMMDD: 2023/02/06
EVENT_TIME_HHMMSS: 01:17:32.00000
EVENT_LATITUDE_DEGREE: 37.288
EVENT_LONGITUDE_DEGREE: 37.043
EVENT_DEPTH_KM: 8.6
HYPOCENTER_REFERENCE: AFAD
MAGNITUDE_W: 7.7
MAGNITUDE_W_REFERENCE: AFAD
MAGNITUDE_L: 
MAGNITUDE_L_REFERENCE: 
FOCAL_MECHANISM: 
NETWORK: TK
STATION_CODE: 0720
STATION_NAME: 
STATION_LATITUDE_DEGREE: 36.31482
STATION_LONGITUDE_DEGREE: 32.389255
STATION_ELEVATION_M: 199.0
LOCATION: Kahramanmaras_Pazarck_Turkiye
SENSOR_DEPTH_M: 
VS30_M/S: None
SITE_CLASSIFICATION_EC8: unknown
MORPHOLOGIC_CLASSIFICATION: 
EPICENTRAL_DISTANCE_KM: 428.19
EARTHQUAKE_BACKAZIMUTH_DEGREE: 
DATE_TIME_FIRST_SAMPLE_YYYYMMDD_HHMMSS: 2023/02/06 01:18:06.4452160
DATE_TIME_FIRST_SAMPLE_PRECISION: millisecond
SAMPLING_INTERVAL_S: 0.01
NDATA: 16733
DURATION_S: 
STREAM: HNE
UNITS: cm/s^2
INSTRUMENT: sensor = ACEBOX/SARA | digitizer = 
INSTRUMENT_ANALOG/DIGITAL: 
INSTRUMENTAL_FREQUENCY_HZ: 
INSTRUMENTAL_DAMPING: 
FULL_SCALE_G: 
N_BIT_DIGITAL_CONVERTER: 
PGA_CM/S^2: 19.043
TIME_PGA_S: 
BASELINE_CORRECTION: BASELINE REMOVED
FILTER_TYPE: BUTTERWORTH
FILTER_ORDER: 
LOW_CUT_FREQUENCY_HZ: 
HIGH_CUT_FREQUENCY_HZ: 
LATE/NORMAL_TRIGGERED: 
DATABASE_VERSION: 
HEADER_FORMAT: DYNA 1.2
DATA_TYPE: Acceleration
PROCESSING: Automatic Paolucci et al., 2011
DATA_TIMESTAMP_YYYYMMDD_HHMMSS: 
DATA_LICENSE: U (unknown license)
DATA_CITATION: Turkish Accelerometric Archive v 1.0 - Disaster And Emergency Management Presidency, Earthquake Department
DATA_CREATOR: AFAD
ORIGINAL_DATA_MEDIATOR_CITATION: : AFAD - Disaster And Emergency Management Presidency
ORIGINAL_DATA_MEDIATOR: AFAD PROCESS SERVICE
ORIGINAL_DATA_CREATOR_CITATION: AFAD PROCESS SERVICE
ORIGINAL_DATA_CREATOR: network: TK
USER1: GuestUser
USER2: 
USER3: 
USER4: 
USER5: 
[...]
-1.265590
-1.265791
-1.265992
-1.266194
-1.266395
-1.266596
-1.266797
-1.266998
-1.267200
-1.267401
-1.267602
-1.267803
-1.268005
-1.268206
-1.268407
-1.268608
-1.268809
-1.269011
-1.269212
-1.269413
-1.269614
-1.269815
-1.270017
-1.270218
-1.270419
-1.270620
-1.270821
-1.271023
-1.271224
-1.271425
-1.271626
-1.271828
-1.272029
-1.272230
-1.272431
-1.272632
-1.272834
-1.273035
-1.273236
-1.273437
-1.273638
-1.273840
-1.274041
-1.274242
-1.274443
-1.274644
-1.274846
-1.275047
-1.275248
-1.275449
-1.275651
-1.275852
-1.276053
-1.276254
-1.276455
-1.276657
-1.276858
-1.277059
-1.277260
-1.277461
-1.277663
-1.277864
-1.278065
-1.278266
-1.278467
-1.278669
-1.278870
-1.279071
-1.279272
-1.279474
-1.279675
-1.279876
-1.280077
-1.280278
-1.280480
-1.280681
-1.280882
-1.281083
-1.281284
-1.281486
-1.281687
-1.281888
-1.282089
-1.282290
-1.282492
-1.282693
-1.282894
-1.283095
-1.283297
-1.283498
-1.283699
-1.283900
-1.284101
-1.284303
-1.284504
-1.284705
-1.284906
-1.285107
-1.285309
-1.285510
-1.285711
-1.285912
-1.286113
-1.286315
-1.286516
-1.286717
-1.286918
-1.287120
-1.287321
-1.287522
-1.287723
-1.287924
-1.288126
-1.288327
-1.288528
-1.288729
-1.288930
-1.289132
-1.289333
-1.289534
-1.289735
-1.289936
-1.290138
-1.290339
-1.290540
-1.290741
-1.290943
-1.291144
-1.291345
-1.291546
-1.291747
-1.291949
-1.292150
-1.292351
-1.292552
-1.292753
-1.292955
-1.293156
-1.293357
-1.293558
-1.293759
-1.293961
-1.294162
-1.294363
-1.294564
-1.294766
-1.294967
-1.295168
-1.295369
-1.295570
-1.295772
-1.295973
-1.296174
-1.296375
-1.296576
-1.296778
-1.296979
-1.297180
-1.297381
-1.297582
-1.297784
-1.297985
-1.298186
-1.298387
-1.298589
-1.298790
-1.298991
-1.299192
-1.299393
-1.299595
-1.299796
-1.299997
-1.300198
-1.300399
-1.300601
-1.300802
-1.301003
-1.301204
-1.301406
-1.301607
-1.301808
-1.302009
-1.302210
-1.302412
-1.302613
-1.302814
-1.303015
-1.303216
-1.303418
-1.303619
-1.303820
-1.304021
-1.304222
-1.304424
-1.304625
-1.304826
-1.305027
-1.305229
-1.305430
-1.305631
-1.305832
-1.306033
-1.306235
-1.306436
-1.306637
-1.306838
-1.307039
-1.307241
-1.307442
-1.307643
-1.307844
-1.308045
-1.308247
-1.308448
-1.308649
-1.308850
-1.309052
-1.309253
-1.309454
-1.309655
-1.309856
-1.310058
-1.310259
-1.310460
-1.310661
-1.310862
-1.311064
-1.311265
-1.311466
-1.311667
-1.311868
-1.312070
-1.312271
-1.312472
-1.312673
-1.312875
-1.313076
-1.313277
-1.313478
-1.313679
-1.313881
-1.314082
-1.314283
-1.314484
-1.314685
-1.314887
-1.315088
-1.315289
-1.315490
-1.315691
-1.315893
-1.316094
-1.316295
-1.316496
-1.316698
-1.316899
-1.317100
-1.317301
-1.317502
-1.317704
-1.317905
-1.318106
-1.318307
-1.318508
-1.318710
-1.318911
-1.319112
-1.319313
-1.319514
-1.319716
-1.319917
-1.320118
-1.320319
-1.320521
-1.320722
-1.320923
-1.321124
-1.321325
-1.321527
-1.321728
-1.321929
-1.322130
-1.322331
-1.322533
-1.322734
-1.322935
-1.323136
-1.323337
-1.323539
-1.323740
-1.323941
-1.324142
-1.324344
-1.324545
-1.324746
-1.324947
-1.325148
-1.325350
-1.325551
-1.325752
-1.325953
-1.326154
-1.326356
-1.326557
-1.326758
-1.326959
-1.327160
-1.327362
-1.327563
-1.327764
-1.327965
-1.328167
-1.328368
-1.328569
-1.328770
-1.328971
-1.329173
-1.329374
-1.329575
-1.329776
-1.329977
-1.330179
-1.330380
-1.330581
-1.330782
-1.330983
-1.331185
-1.331386
-1.331587
-1.331788
-1.331990
-1.332191
-1.332392
-1.332593
-1.332794
-1.332996
-1.333197
-1.333398
-1.333599
-1.333800
-1.334002
-1.334203
-1.334404
-1.334605
-1.334806
-1.335008
-1.335209
-1.335410
-1.335611
-1.335813
-1.336014
-1.336215
-1.336416
-1.336617
-1.336819
-1.337020
-1.337221
-1.337422
-1.337623
-1.337825
-1.338026
-1.338227
-1.338428
-1.338629
-1.338831
-1.339032
-1.339233
-1.339434
-1.339636
-1.339837
-1.340038
-1.340239
-1.340440
-1.340642
-1.340843
-1.341044
-1.341245
-1.341446
-1.341648
-1.341849
-1.342050
-1.342251
-1.342452
-1.342654
-1.342855
-1.343056
-1.343257
-1.343459
-1.343660
-1.343861
-1.344062
-1.344263
-1.344465
-1.344666
-1.344867
-1.345068
-1.345269
-1.345471
-1.345672
-1.345873
-1.346074
-1.346275
-1.346477
-1.346678
-1.346879
-1.347080
-1.347282
-1.347483
-1.347684
-1.347885
-1.348086
-1.348288
-1.348489
-1.348690
-1.348891
-1.349092
-1.349294
-1.349495
-1.349696
-1.349897
-1.350099
-1.350300
-1.350501
-1.350702
-1.350903
-1.351105
-1.351306
-1.351507
-1.351708
-1.351909
-1.352111
-1.352312
-1.352513
-1.352714
-1.352915
-1.353117
-1.353318
-1.353519
-1.353720
-1.353922
-1.354123
-1.354324
-1.354525
-1.354726
-1.354928
-1.355129
-1.355330
-1.355531
-1.355732
-1.355934
-1.356135
-1.356336
-1.356537
-1.356738
-1.356940
-1.357141
-1.357342
-1.357543
-1.357745
-1.357946
-1.358147
-1.358348
-1.358549
-1.358751
-1.358952
-1.359153
-1.359354
-1.359555
-1.359757
-1.359958
-1.360159
-1.360360
-1.360561
-1.360763
-1.360964
-1.361165
-1.361366
-1.361568
-1.361769
-1.361970
-1.362171
-1.362372
-1.362574
-1.362775
-1.362976
-1.363177
-1.363378
-1.363580
-1.363781
-1.363982
-1.364183
-1.364384
-1.364586
-1.364787
-1.364988
-1.365189
-1.365391
-1.365592
-1.365793
-1.365994
-1.366195
-1.366397
-1.366598
-1.366799
-1.367000
-1.367201
-1.367403
-1.367604
-1.367805
-1.368006
-1.368207
-1.368409
-1.368610
-1.368811
-1.369012
-1.369214
-1.369415
-1.369616
-1.369817
-1.370018
-1.370220
-1.370421
-1.370622
-1.370823
-1.371024
-1.371226
-1.371427
-1.371628
-1.371829
-1.372030
-1.372232
-1.372433
-1.372634
-1.372835
-1.373037
-1.373238
-1.373439
-1.373640
-1.373841
-1.374043
-1.374244
-1.374445
-1.374646
-1.374847
-1.375049
-1.375250
-1.375451
-1.375652
-1.375853
-1.376055
-1.376256
-1.376457
-1.376658
-1.376860
-1.377061
-1.377262
-1.377463
-1.377664
-1.377866
-1.378067
-1.378268
-1.378469
-1.378670
-1.378872
-1.379073
-1.379274
-1.379475
-1.379676
-1.379878
-1.380079
-1.380280
-1.380481
-1.380683
-1.380884
-1.381085
-1.381286
-1.381487
-1.381689
-1.381890
-1.382091
-1.382292
-1.382493
-1.382695
-1.382896
-1.383097
-1.383298
-1.383499
-1.383701
-1.383902
-1.384103
-1.384304
-1.384506
-1.384707
-1.384908
-1.385109
-1.385310
-1.385512
-1.385713
-1.385914
-1.386115
-1.386316
-1.386518
-1.386719
-1.386920
-1.387121
-1.387322
-1.387524
-1.387725
-1.387926
-1.388127
-1.388329
-1.388530
-1.388731
-1.388932
-1.389133
-1.389335
-1.389536
-1.389737
-1.389938
-1.390139
-1.390341
-1.390542
-1.390743
-1.390944
-1.391145
-1.391347
-1.391548
-1.391749
-1.391950
-1.392152
-1.392353
-1.392554
-1.392755
-1.392956
-1.393158
-1.393359
-1.393560
-1.393761
-1.393962
-1.394164
-1.394365
-1.394566
-1.394767
-1.394969
-1.395170
-1.395371
-1.395572
-1.395773
-1.395975
-1.396176
-1.396377
-1.396578
-1.396779
-1.396981
-1.397182
-1.397383
-1.397584
-1.397785
-1.397987
-1.398188
-1.398389
-1.398590
-1.398792
-1.398993
-1.399194
-1.399395
-1.399596
-1.399798
-1.399999
-1.400200
-1.400401
-1.400602
-1.400804
-1.401005
-1.401206
-1.401407
-1.401608
-1.401810
-1.402011
-1.402212
-1.402413
-1.402615
-1.402816
-1.403017
-1.403218
-1.403419
-1.403621
-1.403822
-1.404023
-1.404224
-1.404425
-1.404627
-1.404828
-1.405029
-1.405230
-1.405431
-1.405633
-1.405834
-1.406035
-1.406236
-1.406438
-1.406639
-1.406840
-1.407041
-1.407242
-1.407444
-1.407645
-1.407846
-1.408047
-1.408248
-1.408450
-1.408651
-1.408852
-1.409053
-1.409254
-1.409456
-1.409657
-1.409858
-1.410059
-1.410261
-1.410462
-1.410663
-1.410864
-1.411065
-1.411267
-1.411468
-1.411669
-1.411870
-1.412071
-1.412273
-1.412474
-1.412675
-1.412876
-1.413077
-1.413279
-1.413480
-1.413681
-1.413882
-1.414084
-1.414285
-1.414486
-1.414687
-1.414888
-1.415090
-1.415291
-1.415492
-1.415693
-1.415894
-1.416096
-1.416297
-1.416498
-1.416699
-1.416900
-1.417102
-1.417303
-1.417504
-1.417705
-1.417907
-1.418108
-1.418309
-1.418510
-1.418711
-1.418913
-1.419114
-1.419315
-1.419516
-1.419717
-1.419919
-1.420120
-1.420321
-1.420522
-1.420723
-1.420925
-1.421126
-1.421327
-1.421528
-1.421730
-1.421931
-1.422132
-1.422333
-1.422534
-1.422736
-1.422937
-1.423138
-1.423339
-1.423540
-1.423742
-1.423943
-1.424144
-1.424345
-1.424546
-1.424748
-1.424949
-1.425150
-1.425351
-1.425553
-1.425754
-1.425955
-1.426156
-1.426357
-1.426559
-1.426760
-1.426961
-1.427162
-1.427363
-1.427565
-1.427766
-1.427967
-1.428168
-1.428369
-1.428571
-1.428772
-1.428973
-1.429174
-1.429376
-1.429577
-1.429778
-1.429979
-1.430180
-1.430382
-1.430583
-1.430784
-1.430985
-1.431186
-1.431388
-1.431589
-1.431790
-1.431991
-1.432192
-1.432394
-1.432595
-1.432796
-1.432997
-1.433199
-1.433400
-1.433601
-1.433802
-1.434003
-1.434205
-1.434406
-1.434607
-1.434808
-1.435009
-1.435211
-1.435412
-1.435613
-1.435814
-1.436015
-1.436217
-1.436418
-1.436619
-1.436820
-1.437022
-1.437223
-1.437424
-1.437625
-1.437826
-1.438028
-1.438229
-1.438430
-1.438631
-1.438832
-1.439034
-1.439235
-1.439436
-1.439637
-1.439839
-1.440040
-1.440241
-1.440442
-1.440643
-1.440845
-1.441046
-1.441247
-1.441448
-1.441649
-1.441851
-1.442052
-1.442253
-1.442454
-1.442655
-1.442857
-1.443058
-1.443259
-1.443460
-1.443662
-1.443863
-1.444064
-1.444265
-1.444466
-1.444668
-1.444869
-1.445070
-1.445271
-1.445472
-1.445674
-1.445875
-1.446076
-1.446277
-1.446478
-1.446680
-1.446881
-1.447082
-1.447283
-1.447485
-1.447686
-1.447887
-1.448088
-1.448289
-1.448491
-1.448692
-1.448893
-1.449094
-1.449295
-1.449497
-1.449698
-1.449899
-1.450100
-1.450301
-1.450503
-1.450704
-1.450905
-1.451106
-1.451308
-1.451509
-1.451710
-1.451911
-1.452112
-1.452314
-1.452515
-1.452716
-1.452917
-1.453118
-1.453320
-1.453521
-1.453722
-1.453923
-1.454124
-1.454326
-1.454527
-1.454728
-1.454929
-1.455131
-1.455332
-1.455533
-1.455734
-1.455935
-1.456137
-1.456338
-1.456539
-1.456740
-1.456941
-1.457143
-1.457344
-1.457545
-1.457746
-1.457947
-1.458149
-1.458350
-1.458551
-1.458752
-1.458954
-1.459155
-1.459356
-1.459557
-1.459758
-1.459960
-1.460161
-1.460362
-1.460563
-1.460764
-1.460966
-1.461167
-1.461368
-1.461569
-1.461770
-1.461972
-1.462173
-1.462374
-1.462575
-1.462777
-1.462978
-1.463179
-1.463380
-1.463581
-1.463783
-1.463984
-1.464185
-1.464386
-1.464587
-1.464789
-1.464990
-1.465191
-1.465392
-1.465593
-1.465795
-1.465996
-1.466197
-1.466398
-1.466600
-1.466801
-1.467002
-1.467203
-1.467404
-1.467606
-1.467807
-1.468008
-1.468209
-1.468410
-1.468612
-1.468813
-1.469014
-1.469215
-1.469416
-1.469618
-1.469819
-1.470020
-1.470221
-1.470423
-1.470624
-1.470825
-1.471026
-1.471227
-1.471429
-1.471630
-1.471831
-1.472032
-1.472233
-1.472435
-1.472636
-1.472837
-1.473038
-1.473239
-1.473441
-1.473642
-1.473843
-1.474044
-1.474246
-1.474447
-1.474648
-1.474849
-1.475050
-1.475252
-1.475453
-1.475654
-1.475855
-1.476056
-1.476258
-1.476459
-1.476660
-1.476861
-1.477062
-1.477264
-1.477465
-1.477666
-1.477867
-1.478069
-1.478270
-1.478471
-1.478672
-1.478873
-1.479075
-1.479276
-1.479477
-1.479678
-1.479879
-1.480081
-1.480282
-1.480483
-1.480684
-1.480885
-1.481087
-1.481288
-1.481489
-1.481690
-1.481892
-1.482093
-1.482294
-1.482495
-1.482696
-1.482898
-1.483099
-1.483300
-1.483501
-1.483702
-1.483904
-1.484105
-1.484306
-1.484507
-1.484708
-1.484910
-1.485111
-1.485312
-1.485513
-1.485715
-1.485916
-1.486117
-1.486318
-1.486519
-1.486721
-1.486922
-1.487123
-1.487324
-1.487525
-1.487727
-1.487928
-1.488129
-1.488330
-1.488532
-1.488733
-1.488934
-1.489135
-1.489336
-1.489538
-1.489739
-1.489940
-1.490141
-1.490342
-1.490544
-1.490745
-1.490946
-1.491147
-1.491348
-1.491550
-1.491751
-1.491952
-1.492153
-1.492355
-1.492556
-1.492757
-1.492958
-1.493159
-1.493361
-1.493562
-1.493763
-1.493964
-1.494165
-1.494367
-1.494568
-1.494769
-1.494970
-1.495171
-1.495373
-1.495574
-1.495775
-1.495976
-1.496178
-1.496379
-1.496580
-1.496781
-1.496982
-1.497184
-1.497385
-1.497586
-1.497787
-1.497988
-1.498190
-1.498391
-1.498592
-1.498793
-1.498994
-1.499196
-1.499397
-1.499598
-1.499799
-1.500001
-1.500202
-1.500403
-1.500604
-1.500805
-1.501007
-1.501208
-1.501409
-1.501610
-1.501811
-1.502013
-1.502214
-1.502415
-1.502616
-1.502817
-1.503019
-1.503220
-1.503421
-1.503622
-1.503824
-1.504025
-1.504226
-1.504427
-1.504628
-1.504830
-1.505031
-1.505232
-1.505433
-1.505634
-1.505836
-1.506037
-1.506238
-1.506439
-1.506640
-1.506842
-1.507043
-1.507244
-1.507445
-1.507647
-1.507848
-1.508049
-1.508250
-1.508451
-1.508653
-1.508854
-1.509055
-1.509256
-1.509457
-1.509659
-1.509860
-1.510061
-1.510262
-1.510463
-1.510665
-1.510866
-1.511067
-1.511268
-1.511470
-1.511671
-1.511872
-1.512073
-1.512274
-1.512476
-1.512677
-1.512878
-1.513079
-1.513280
-1.513482
-1.513683
-1.513884
-1.514085
-1.514286
-1.514488
-1.514689
-1.514890
-1.515091
-1.515293
-1.515494
-1.515695
-1.557829
-1.495221
-1.564008
-1.523611
-1.508230
-1.606475
-1.441932
-1.630891
-1.514276
-1.479023
-1.731340
-1.312192
-1.781473
-1.490212
-1.421292
-1.977078
-1.049420
-2.078179
-1.427571
-1.297396
-2.474382
-0.453722
-2.752233
-1.255747
-0.926610
-4.275806
1.818303
-7.954707
-8.723015
19.043400
18.142295
8.071428
13.890358
9.889101
9.524327
10.402420
7.527365
9.356778
8.036475
8.219254
9.051055
8.213309
9.567646
9.351100
9.808591
10.511569
10.367032
11.177090
11.190600
11.498694
11.856120
11.745718
11.870515
11.533330
11.255295
11.020746
10.720032
10.590458
10.330893
10.104527
9.862731
9.682657
9.594231
9.567295
9.560230
9.522773
9.458896
9.385901
9.302152
9.274513
9.353019
9.507041
9.686781
9.856702
10.024752
10.234184
10.509781
10.801743
11.004396
11.044091
10.923168
10.739353
10.612585
10.595935
10.682857
10.806953
10.900656
10.919310
10.809842
10.583243
10.301934
10.019457
9.775089
9.587767
9.491860
9.507942
9.615906
9.810609
10.049967
10.267583
10.425346
10.460599
10.328219
10.056263
9.697802
9.319935
8.983918
8.732069
8.601560
8.608290
8.780314
9.126752
9.559694
9.979076
10.325514
10.531906
10.612282
10.671383
10.731185
10.761996
10.767089
10.711396
10.556805
10.307527
9.968939
9.578447
9.204555
8.924884
8.806064
8.822380
8.902055
9.032697
9.220620
9.449458
9.669411
9.823901
9.943087
10.078639
10.197826
10.263239
10.274879
10.236719
10.159750
10.042100
9.867871
9.641505
9.379602
9.115828
8.910738
8.786308
8.721262
8.680063
8.608471
8.498303
8.394680
8.324725
8.306205
8.335145
8.398922
8.502444
8.631918
8.779627
8.946976
9.133964
9.354384
9.571064
9.727892
9.832349
9.885137
9.894439
9.914028
9.916316
9.825786
9.637529
9.373989
9.064158
8.751053
8.480733
8.300893
8.197972
8.125211
8.063439
7.997691
7.933815
7.891447
7.885552
7.920104
7.959332
7.980089
8.007627
8.072573
8.193630
8.353731
8.512429
8.662477
8.849932
9.107760
9.399723
9.677424
9.902287
10.055140
10.136451
10.113255
10.009399
9.891515
9.748147
9.578360
9.403196
9.242995
9.132592
9.043465
8.955274
8.870589
8.782631
8.717819
8.651838
8.555697
8.452776
8.320163
8.198772
8.161314
8.167577
8.180853
8.212599
8.292975
8.455181
8.709034
9.058979
9.477426
9.910836
10.297954
10.571213
10.715883
10.771009
10.781246
10.749399
10.625904
10.375691
10.005774
9.581615
9.197202
8.921038
8.790295
8.761254
8.761671
8.749697
8.679274
8.541284
8.347182
8.116374
7.907075
7.758330
7.670138
7.608366
7.553607
7.547946
7.634167
7.826298
8.112182
8.416068
8.648179
8.810384
8.969783
9.143678
9.312196
9.449619
9.537710
9.571794
9.510723
9.329480
9.057524
8.758213
8.528808
8.393155
8.312211
8.263298
8.191706
8.064470
7.895852
7.688891
7.426988
7.112714
6.819716
6.623276
6.546774
6.582495
6.722490
7.008841
7.455811
8.016875
8.641297
9.250990
9.772308
10.163401
10.414916
10.578057
10.683215
10.713793
10.650383
10.465867
10.161881
9.780507
9.359154
8.902732
8.406330
7.915306
7.494888
7.175471
6.969913
6.882890
6.903414
7.013950
7.181533
7.363611
7.543584
7.723324
7.931354
8.221680
8.617682
9.072134
9.509051
9.899208
10.215720
10.436374
10.605360
10.734833
10.785283
10.753437
10.621759
10.344892
9.912785
9.358869
8.742763
8.132970
7.580924
7.100888
6.733543
6.551131
6.545002
6.626781
6.736615
6.866556
7.018475
7.213177
7.473577
7.799675
8.171128
8.526450
8.823790
9.074370
9.253877
9.359970
9.429358
9.465546
9.471575
9.439027
9.319273
9.093374
8.786349
8.456644
8.192871
8.015369
7.864052
7.686315
7.438440
7.124868
6.839819
6.657407
6.617377
6.744513
6.980131
7.268820
7.600528
7.935276
8.251553
8.540009
8.759261
8.884760
8.916272
8.864787
8.755086
8.613120
8.440995
8.249465
8.062611
7.841155
7.571303
7.322726
7.104777
6.857603
6.555955
6.255943
6.057165
6.009420
6.108032
6.304372
6.553783
6.853228
7.189845
7.547505
7.932753
8.357980
8.820381
9.285587
9.661717
9.840755
9.823170
9.689388
9.492948
9.252321
8.974286
8.693913
8.441829
8.212424
7.997982
7.773486
7.526078
7.302518
7.172711
7.143670
7.150400
7.136555
7.082498
7.026570
7.050368
7.156228
7.284064
7.422890
7.574808
7.723687
7.872799
8.025652
8.179207
8.325514
8.455923
8.587734
8.714402
8.797818
8.808990
8.720097
8.549141
8.338907
8.080511
7.774186
7.457575
7.180942
7.011857
6.983050
7.057347
7.160869
7.231426
7.250781
7.252601
7.272891
7.287103
7.283312
7.294250
7.329036
7.411516
7.560862
7.753929
7.990014
8.260935
8.530920
8.759524
8.895778
8.914899
8.817823
8.596133
8.260817
7.856064
7.427464
7.023412
6.698150
6.459159
6.295918
6.239289
6.283427
6.389754
6.565987
6.831998
7.174227
7.537732
7.864530
8.105058
8.216529
8.207361
8.106076
7.936991
7.707819
7.392610
7.026668
6.701405
6.475975
6.380535
6.404332
6.516271
6.680113
6.827121
6.903055
6.893653
6.830712
6.768471
6.709504
6.648901
6.618691
6.631499
6.686158
6.786640
6.932714
7.136535
7.384310
7.626707
7.798732
7.815983
7.673784
7.448353
7.182709
6.913325
6.681582
6.490051
6.336163
6.223656
6.146920
6.117178
6.151028
6.214805
6.251461
6.261230
6.278949
6.313501
6.365587
6.454146
6.590634
6.750033
6.885118
6.966897
6.998409
6.997892
7.005791
7.061618
7.160932
7.264220
7.316307
7.279083
7.183877
7.099192
7.059163
7.052099
7.066076
7.102499
7.142662
7.143781
7.087853
7.012520
6.916613
6.773946
6.646477
6.559688
6.500019
6.503944
6.539197
6.563696
6.565516
6.507952
6.423267
6.341855
6.241039
6.145132
6.062785
5.983945
5.931057
5.930539
6.027047
6.247935
6.516284
6.727821
6.868750
6.952633
7.009630
7.106606
7.235845
7.349187
7.404079
7.368024
7.260427
7.077548
6.835517
6.599566
6.385357
6.210193
6.085763
5.984478
5.906106
5.885716
5.947388
6.063067
6.203997
6.353811
6.488896
6.631696
6.792498
6.957509
7.115506
7.213416
7.228797
7.185728
7.088886
6.959780
6.810333
6.644521
6.513778
6.473982
6.525367
6.628889
6.753453
6.874510
6.975694
7.071033
7.139486
7.109977
6.961232
6.740010
6.524398
6.358118
6.231350
6.177293
