EVENT_NAME: 202302060117
EVENT_ID: 13194
EVENT_DATE_YYYYMMDD: 2023/02/06
EVENT_TIME_HHMMSS: 01:17:32.00000
EVENT_LATITUDE_DEGREE: 37.288
EVENT_LONGITUDE_DEGREE: 37.043
EVENT_DEPTH_KM: 8.6
HYPOCENTER_REFERENCE: AFAD
MAGNITUDE_W: 7.7
MAGNITUDE_W_REFERENCE: AFAD
MAGNITUDE_L: 
MAGNITUDE_L_REFERENCE: 
FOCAL_MECHANISM: 
NETWORK: TK
STATION_CODE: 3124
STATION_NAME: 
STATION_LATITUDE_DEGREE: 36.2387
STATION_LONGITUDE_DEGREE: 36.1722
STATION_ELEVATION_M: 84.0
LOCATION: Kahramanmaras_Pazarck_Turkiye
SENSOR_DEPTH_M: 
VS30_M/S: 283
SITE_CLASSIFICATION_EC8: C
MORPHOLOGIC_CLASSIFICATION: 
EPICENTRAL_DISTANCE_KM: 140.11
EARTHQUAKE_BACKAZIMUTH_DEGREE: 
DATE_TIME_FIRST_SAMPLE_YYYYMMDD_HHMMSS: 2023/02/06 01:17:36.1852460
DATE_TIME_FIRST_SAMPLE_PRECISION: millisecond
SAMPLING_INTERVAL_S: 0.01
NDATA: 12501
DURATION_S: 
STREAM: HNZ
UNITS: cm/s^2
INSTRUMENT: sensor = GMS+/GEOSIG | digitizer = 
INSTRUMENT_ANALOG/DIGITAL: 
INSTRUMENTAL_FREQUENCY_HZ: 
INSTRUMENTAL_DAMPING: 
FULL_SCALE_G: 
N_BIT_DIGITAL_CONVERTER: 
PGA_CM/S^2: 578.080
TIME_PGA_S: 
BASELINE_CORRECTION: BASELINE REMOVED
FILTER_TYPE: BUTTERWORTH
FILTER_ORDER: 
LOW_CUT_FREQUENCY_HZ: 
HIGH_CUT_FREQUENCY_HZ: 
LATE/NORMAL_TRIGGERED: 
DATABASE_VERSION: 
HEADER_FORMAT: DYNA 1.2
DATA_TYPE: Acceleration
PROCESSING: Automatic Paolucci et al., 2011
DATA_TIMESTAMP_YYYYMMDD_HHMMSS: 
DATA_LICENSE: U (unknown license)
DATA_CITATION: Turkish Accelerometric Archive v 1.0 - Disaster And Emergency Management Presidency, Earthquake Department
DATA_CREATOR: AFAD
ORIGINAL_DATA_MEDIATOR_CITATION: : AFAD - Disaster And Emergency Management Presidency
ORIGINAL_DATA_MEDIATOR: AFAD PROCESS SERVICE
ORIGINAL_DATA_CREATOR_CITATION: AFAD PROCESS SERVICE
ORIGINAL_DATA_CREATOR: network: TK
USER1: GuestUser
USER2: 
USER3: 
USER4: 
USER5: 
[...]
-7.960994
-8.778491
-7.677602
-6.597235
-7.370052
-9.958907
-12.699466
-13.845829
-12.921582
-10.503150
-7.092145
-3.436698
-0.449374
1.473421
2.486248
2.375320
0.275868
-3.576757
-7.731233
-10.209946
-9.191663
-5.442960
-2.045722
-1.767518
-5.530004
-11.817434
-17.759373
-21.070123
-21.543168
-20.619960
-19.434646
-18.260503
-16.547600
-14.103192
-12.865145
-15.240990
-21.234882
-28.029380
-32.200221
-32.794058
-31.715509
-31.164289
-31.486668
-31.344322
-29.696882
-26.678126
-22.714335
-18.432587
-14.210067
-9.021730
-1.554708
7.443905
15.764004
21.884649
25.220061
26.030530
25.366036
23.879637
20.919834
16.401942
12.255260
10.111388
9.669515
9.516244
8.915394
8.771475
9.909251
11.441095
12.209741
12.438589
12.720949
12.329472
9.395645
3.439419
-3.415084
-8.417443
-10.065418
-8.695409
-5.289599
-0.709898
3.114398
4.575065
4.486217
4.496601
5.133804
5.826857
6.287159
7.241279
9.739460
14.610880
20.792310
25.871805
28.902250
29.867280
28.730529
25.407310
20.151159
14.212337
8.645503
3.432213
-1.684183
-6.052708
-8.507262
-8.523635
-6.711761
-4.479323
-2.745120
-2.541469
-4.641181
-7.866207
-10.887835
-12.395535
-10.609898
-5.623400
0.634661
6.274735
10.334121
11.908307
10.212275
6.696828
3.704554
2.204387
2.534804
4.614499
7.879255
11.512362
14.211862
14.469545
11.682487
7.764400
5.974592
7.039633
8.048304
6.335128
2.385349
-2.320614
-6.486780
-8.198658
-5.594492
1.512751
9.645818
12.644831
7.689751
-1.709959
-9.560673
-12.003278
-9.508994
-4.476777
1.247981
5.815213
7.156648
3.836027
-2.953275
-10.423169
-15.895967
-17.565762
-16.372656
-14.245683
-11.831408
-8.953966
-5.188637
-0.547371
3.928163
5.963957
2.308495
-7.698292
-18.892479
-25.091068
-24.766106
-19.539323
-11.810715
-5.263532
-3.283848
-6.801633
-13.585220
-18.915665
-20.055014
-17.972202
-15.879000
-16.481669
-17.694793
-15.556390
-10.850962
-8.357716
-8.996233
-8.498006
-5.213508
-2.478419
-3.201360
-4.989350
-4.184077
-1.383527
0.508616
-0.576702
-3.555209
-6.608528
-10.396212
-14.498734
-16.399463
-15.722515
-15.391578
-17.673907
-20.868800
-21.643176
-18.865744
-13.426731
-6.999820
-2.027350
-0.278340
-1.307028
-3.773532
-7.958661
-14.399614
-20.261544
-22.499712
-21.180098
-17.705710
-14.460696
-12.652459
-12.011879
-12.301527
-12.255816
-11.037771
-8.833128
-4.524625
4.220974
16.373690
26.166673
29.570665
28.195706
25.021854
20.892056
16.837071
15.616155
17.851710
19.799442
19.321982
18.309918
18.346019
19.163241
19.200900
18.023884
16.477478
13.847321
8.509083
1.460013
-3.314269
-3.588851
-0.865452
3.265890
9.454593
16.847841
20.908266
19.276396
15.511572
15.094118
19.138957
23.045599
23.314192
21.264356
18.535227
15.511261
12.357671
8.635449
3.742713
-1.529025
-3.822264
-2.949451
-2.970240
-4.126214
-2.911807
4.610805
18.362392
33.064730
44.782853
51.523564
51.308209
41.514691
21.921947
-0.935040
-17.049231
-20.627801
-15.872756
-10.463097
-6.920389
-4.376749
-2.577864
-2.663854
-3.748912
-1.012784
9.726534
25.617050
37.835227
39.588913
31.999006
20.731825
9.405416
0.327299
-3.942513
-2.978262
1.121907
6.701455
12.509079
15.986325
14.389784
6.216179
-6.914837
-19.569699
-26.434853
-25.574769
-17.896296
-7.030991
2.700428
7.244281
4.196936
-4.127854
-12.813721
-16.153825
-12.877639
-7.504087
-4.452081
-6.299818
-11.823790
-18.944816
-24.345398
-23.737029
-20.037941
-17.123093
-14.001989
-10.585009
-8.421409
-5.610987
1.459888
10.695929
18.341411
22.940595
24.638950
24.830132
22.412724
16.990321
11.053578
7.249009
5.612464
1.203935
-8.177331
-17.254409
-20.819471
-19.856779
-18.630422
-17.098838
-12.842028
-4.896514
6.570414
17.102957
21.874107
20.468755
15.439121
10.694972
8.570323
8.911131
9.232976
7.455377
4.561814
1.410562
-2.264902
-5.882177
-8.078782
-8.898098
-10.232793
-11.595283
-10.538295
-6.975065
-2.475633
0.179708
-0.659350
-3.048963
-3.460962
0.521273
4.725869
2.528745
-6.684192
-20.416831
-33.950487
-41.194643
-40.974886
-35.820579
-27.825968
-21.113313
-18.632017
-17.388515
-15.064639
-12.052118
-6.555696
3.078050
14.304173
21.982646
24.172742
24.746822
28.033398
33.506441
35.350266
29.198695
17.673044
5.693839
-2.863443
-5.781424
-3.435207
0.935640
1.792348
-2.943749
-10.146601
-17.210997
-22.819913
-24.758309
-21.971007
-15.998170
-9.303439
-5.953479
-9.816755
-17.795015
-22.644370
-20.355302
-11.619574
-1.608126
5.014650
7.716749
5.372596
-4.015944
-16.876282
-26.126365
-29.632201
-29.591944
-26.863609
-21.888541
-17.248054
-15.695689
-17.182868
-19.781074
-21.947286
-23.466416
-25.148161
-25.882532
-24.196646
-19.160013
-10.034114
0.763912
10.347263
16.241130
17.768298
15.856139
9.925630
4.290477
4.818058
9.236184
11.358220
7.736269
-0.247446
-7.114418
-9.425841
-8.939822
-7.514743
-5.806257
-4.636529
-3.128324
0.971326
7.379014
11.408007
9.188542
4.183846
2.420794
3.489732
3.388415
0.474331
-4.262285
-7.736429
-6.631903
-1.595270
3.706066
7.069534
8.336934
6.343468
-1.252154
-10.869809
-15.955033
-14.938309
-8.709601
1.455111
11.791788
15.672974
11.513043
4.486832
-1.180272
-3.855369
-2.887222
1.553503
4.929960
2.185504
-4.792649
-10.317141
-10.506000
-7.202019
-3.116916
2.001544
6.278096
7.712527
7.788631
9.671422
13.052034
15.143159
16.457057
17.131148
15.518501
12.564153
10.689660
9.716562
7.859214
7.552161
12.550868
21.020853
27.472702
26.702742
19.837848
13.393258
9.940935
8.471680
6.653557
3.342028
0.617315
-1.585264
-3.918247
-4.465066
-1.654385
5.271800
14.807873
21.733278
22.562450
19.308070
13.612911
5.886366
-1.240894
-4.579958
-2.570660
3.219819
9.691670
13.283733
12.174517
8.435669
4.705395
0.969145
-4.567296
-11.872237
-19.668140
-26.785528
-30.910131
-29.826906
-25.952735
-24.488430
-24.653910
-22.919966
-19.256207
-14.764048
-10.694791
-8.182323
-7.900222
-8.800585
-9.587430
-10.100738
-8.836715
-6.795986
-6.336983
-6.437001
-5.568345
-3.777512
-2.308012
-0.897220
-0.662657
-4.391113
-11.031828
-17.412775
-19.682115
-16.438920
-9.087495
1.219310
12.495828
22.302319
27.498450
26.771871
20.248832
7.346671
-7.914182
-18.874837
-21.284972
-13.995372
-2.335956
6.264174
10.130552
9.617503
3.873767
-5.549841
-13.797480
-15.324923
-9.379362
-1.019518
5.316993
5.086572
-4.728507
-16.783045
-19.830130
-10.198982
7.885794
25.178537
29.791748
17.438217
-1.600441
-15.540115
-20.016962
-14.374811
-2.235863
7.569849
7.500484
-2.032227
-14.199244
-21.625757
-20.895297
-13.550366
-6.395846
-5.393409
-7.007354
-5.212625
0.623574
8.594285
14.980932
17.779664
18.910686
19.459828
19.333314
16.151929
8.258353
1.115248
1.061208
5.423484
6.404620
4.397905
3.176469
0.354343
-6.543802
-15.923769
-23.084539
-23.108705
-14.933296
-4.834046
0.131930
-0.334101
-3.299100
-5.203985
-5.052548
-4.560555
-3.795026
-2.354101
-3.160168
-6.166730
-4.625274
1.338990
5.422794
5.868289
4.897009
7.185557
12.545861
13.770919
6.738214
-2.627466
-4.059574
4.212209
15.715245
24.521110
29.153804
31.215055
29.718005
21.867811
10.767660
3.525583
0.735668
-0.964520
0.094286
6.131026
15.727105
27.077917
38.320146
45.193857
44.482865
37.895922
27.588064
16.833924
10.811717
11.247600
18.256651
29.887233
40.453545
45.683186
44.976090
41.078785
36.671555
31.993646
27.756824
25.213949
25.328499
25.546437
21.176354
14.230152
9.416385
6.704920
3.590555
0.429172
-1.964337
-3.994171
-0.365221
10.137969
19.784703
24.088011
23.088157
19.381261
15.019490
8.433846
-2.553045
-18.084317
-33.115536
-38.017883
-28.264384
-9.283150
9.767963
23.109636
28.761919
26.750788
19.977332
10.178099
-3.244117
-15.629859
-17.661251
-7.728772
4.879836
11.621066
10.951117
7.619586
8.230812
12.661926
16.839766
18.383560
18.370823
22.197457
28.922062
29.912030
18.861495
-2.483902
-26.907809
-48.061498
-57.918919
-54.148654
-42.088157
-28.325919
-19.451475
-16.131648
-19.380573
-29.340862
-38.859026
-40.813787
-32.260676
-16.974899
-0.953720
14.147881
25.553763
25.820278
13.627803
-1.553821
-10.918722
-10.896389
-2.722020
6.750670
12.362949
12.659077
5.175155
-7.992228
-19.526451
-25.443452
-24.399972
-18.900433
-12.993317
-4.495537
4.239932
2.596372
-9.559735
-18.233393
-12.284975
7.089549
25.117955
26.537839
11.642219
-10.350780
-22.266602
-10.351314
15.806269
40.442132
57.474328
66.598929
70.132804
65.826364
47.006171
18.500790
-7.080903
-28.924015
-49.765723
-66.805987
-74.264451
-63.009753
-30.360829
10.204782
40.790110
60.492461
80.672005
106.817379
124.438209
110.802983
73.063113
38.661260
18.203490
2.961080
-11.508780
-15.732874
-16.539201
-31.426768
-55.118649
-80.575133
-107.275387
-126.454839
-135.176295
-137.097026
-126.669690
-97.574131
-58.792086
-29.721206
-20.191107
-18.374817
-9.313340
8.396850
26.400578
29.721444
12.189180
-4.062429
8.478380
35.363054
40.601007
20.559644
-4.585378
-23.451811
-36.323319
-40.075154
-29.141789
-8.398289
13.037233
27.530717
17.519254
-25.079835
-67.990646
-75.697708
-49.134367
-11.710649
10.194793
10.041783
0.176828
-12.923275
-40.044872
-82.564213
-105.453931
-86.606476
-35.190619
34.760460
101.874353
139.534979
119.867423
58.735191
14.453325
6.040474
16.387282
38.444689
72.159960
102.361351
100.431787
68.673073
26.583908
-26.412392
-83.749675
-136.543616
-165.940520
-143.276036
-83.837766
-17.129370
43.050797
71.308345
66.179220
47.091465
14.922577
2.435526
37.621344
89.240080
133.825860
170.969028
189.299285
146.839951
29.660971
-88.961020
-133.131965
-110.401240
-78.689039
-63.090242
-38.425026
17.449229
76.596300
79.650643
9.570705
-85.183289
-146.938184
-151.556866
-119.868563
-92.624630
-76.831268
-54.625014
-3.515942
65.050573
95.967624
91.494933
79.820695
59.212259
24.795080
-30.506401
-46.608383
3.372777
32.642639
18.665559
24.199128
71.099180
97.816823
70.580149
41.311830
13.511200
-46.624303
-114.188648
-147.548312
-125.586500
-45.507850
78.910587
193.049748
238.646285
222.665874
178.311013
131.225472
91.040666
75.113768
87.523134
81.552620
36.102318
-3.451772
-15.323953
-64.803775
-172.368744
-278.869443
-275.053720
-133.906228
-37.190222
-28.065361
8.046529
88.426770
163.232131
145.225791
61.168001
19.205343
37.928888
67.095623
62.630724
65.798587
99.420082
122.984922
118.307793
84.714597
58.762476
58.397234
78.238561
89.830957
5.008410
-157.667363
-271.443643
-245.743770
-118.612837
-19.197322
46.535905
121.215019
168.673312
172.070550
150.260428
132.664520
113.071777
61.421854
2.365947
-17.592290
39.471442
137.208336
172.435977
136.665407
92.723837
66.552471
44.125140
18.442138
0.496843
6.531244
40.933082
77.025230
100.908545
112.058297
123.679007
127.004549
106.070883
84.015021
31.256148
-48.892654
-103.896441
-140.211225
-162.542961
-151.615312
-95.577663
-50.243232
-35.879892
31.530137
112.234048
81.493105
-48.333456
-204.069009
-340.021416
-423.672670
-460.962622
-428.951169
-318.389012
-200.036936
-108.469789
-40.047445
30.461355
107.702560
130.561091
56.186930
-91.984182
-197.553873
-172.637201
-68.941490
68.976047
203.291122
243.347329
188.970881
93.533438
-22.499706
-109.927985
-98.336888
21.402869
150.678967
213.785160
212.889473
161.414114
68.851262
-81.950000
-257.100088
-332.366552
-232.209920
-78.070136
-33.484096
-107.962684
-228.848552
-313.940479
-326.187505
-265.138154
-187.944486
-138.242057
-52.060679
57.741656
100.390346
48.911610
-50.518986
-95.346884
-28.252214
78.430568
141.824584
202.840425
308.759490
379.534033
314.961434
148.520845
-2.279637
-68.188742
-45.503216
-14.134429
-65.261439
-191.458782
-330.576202
-415.762424
-437.087819
-397.093697
-293.439549
-190.810445
-115.077713
-56.323411
-28.755548
-28.370059
-51.582149
-89.326696
-113.078063
-85.331739
-8.747227
66.821332
120.803697
170.303247
252.934117
329.646435
308.409101
207.258321
61.016766
-105.184837
-221.939875
-264.981609
-237.440762
-153.039833
-53.049192
31.337969
75.249651
61.564550
0.316202
-75.813471
-118.101099
-73.350626
41.621090
120.101129
129.916193
151.556412
232.125244
272.930362
168.528847
54.533063
49.437448
61.719008
31.064827
-28.250068
-84.815060
-110.295184
-111.242825
-92.453818
-33.080490
35.855935
50.231225
31.568710
29.609014
24.512879
-32.941299
-133.805034
-209.508169
-189.332781
-56.417335
100.858627
183.132057
202.588667
201.825981
158.355370
53.049083
-61.296088
-129.962369
-160.264564
-174.772870
-171.818537
-142.314623
-76.463981
10.971037
48.425667
0.425483
-71.714414
-111.928574
-124.744492
-124.838016
-108.224566
-84.050570
-79.860002
-115.856050
-180.380332
-217.233095
-183.293124
-105.698894
-58.393344
-86.903141
-173.445352
-248.685839
-233.254853
-146.429250
-87.771063
-63.546153
7.874952
162.178910
366.037235
456.347105
305.014618
67.389045
-87.505379
-153.773483
-168.747553
-158.960544
-100.818255
14.816909
111.598377
131.267996
144.715655
190.401552
205.860074
178.369606
121.893455
37.516929
-50.821836
-99.513003
-85.819085
-41.195898
-32.674219
-59.839197
-64.062771
-84.523399
-163.811591
-240.892274
-252.368828
-165.999898
6.345202
140.188539
178.106076
261.738091
424.180838
554.953978
578.079550
499.577676
401.729326
304.422852
209.791988
130.185321
45.007152
-46.360248
-141.372191
-226.566986
-273.161306
-255.672957
-191.132585
-117.286806
-42.225054
22.895900
45.710270
-22.517003
-132.013347
-174.612696
-164.859197
-145.051641
-110.510047
-59.245115
15.771178
83.283815
99.946361
82.699582
71.549816
115.258619
218.521037
291.914300
271.111298
175.983758
32.709791
-113.289660
-187.887222
-150.474934
6.680496
218.050531
367.702564
424.931768
428.043261
371.079525
244.886598
108.987443
31.207205
32.759830
51.328034
19.101218
-35.316793
-36.260537
18.010950
17.910932
-69.063273
-181.949848
-284.475319
-342.741271
-349.323019
-317.653160
-274.304135
-258.946663
-281.752216
-299.094330
-253.085542
-151.440439
-48.920957
22.568986
93.018819
184.583887
261.127096
316.465969
376.316751
407.687097
329.010140
144.751289
-23.233361
-84.552366
-67.195200
-21.587753
30.185805
42.255654
-14.668857
-117.355903
-211.469830
-240.240173
-200.302681
-117.030704
10.828879
156.823121
275.525105
346.791128
357.909967
297.695236
162.513300
3.473239
-120.837669
-192.624542
-210.016012
-193.178123
-165.568956
-144.181231
-130.793319
-105.091629
-45.676737
34.813905
90.085498
102.912051
104.077103
106.071074
103.918630
87.636369
26.610902
-54.831285
-99.597099
-70.254501
41.074490
186.836759
328.752903
386.640100
272.596519
105.763160
45.243981
55.613649
49.417657
7.325375
-40.535054
-59.331089
-70.270703
-83.019601
-70.520874
-47.753522
-28.153260
-10.390077
25.376841
113.188782
203.390329
233.256099
222.439356
202.762448
184.325672
170.175066
144.577528
91.851646
47.605368
38.917942
17.597222
-32.225234
-84.471584
-132.639578
-147.930565
-125.675735
-106.735283
-105.525032
-104.090081
-84.183813
-25.459385
81.000516
156.925737
104.506641
-42.131060
-189.429611
-289.702894
-303.301233
-238.726831
-162.884996
-102.731324
-76.199675
-83.685415
-88.425148
-88.180454
-87.479867
-94.533093
-115.456887
-119.868533
-109.333393
-116.493383
-117.838989
-81.774636
-45.295174
-19.639203
28.243811
60.608289
43.376317
15.043163
-4.670633
-6.557854
21.985698
58.441521
83.748104
126.997118
196.086806
239.251136
249.856154
224.731653
150.680383
86.925534
59.096329
53.016453
51.815539
35.668617
23.391458
13.633269
-11.812825
-57.056352
-122.203297
-180.873189
-199.707150
-174.315103
-118.982464
-42.019990
29.627113
47.959448
6.879481
-52.679856
-86.085239
-86.042385
-88.721898
-101.067376
-98.800389
-76.488150
-36.604690
-0.053272
11.104013
17.641325
51.417901
100.969145
116.708216
71.885513
3.244949
-39.078007
-44.129981
-15.995563
23.431745
56.344333
95.597857
124.245316
124.340903
106.333264
78.223769
54.534486
35.750920
16.137135
-14.334948
-65.173357
-110.861087
-125.095597
-125.993622
-152.239022
-202.619979
-235.087080
-206.877330
-128.479379
-39.085970
50.970366
125.614412
168.799003
155.028698
63.092407
-50.186937
-102.260022
-73.908699
-10.292321
36.713976
45.000306
13.506555
-35.941576
-80.269940
-113.824949
-117.510804
-75.897029
-9.725834
41.345312
51.339616
25.753767
-15.473488
-47.200771
-54.027219
-34.459429
6.584156
32.453137
26.468596
32.679899
71.634170
113.671367
122.740377
83.582693
29.777216
10.215125
29.617703
66.934917
92.818185
85.483630
58.774545
41.520492
60.503805
111.809261
152.520862
159.497702
145.588161
120.520030
86.335083
51.724117
28.136403
16.372286
2.997347
-12.450799
-5.489805
44.201713
112.108418
160.254577
186.017573
189.947334
163.709468
116.641851
85.986371
100.976791
135.263292
138.306985
99.967051
49.455171
17.105744
4.309569
-9.345659
-18.382213
-9.228259
4.592167
6.263246
-12.043126
-40.559157
-59.948242
-66.483231
-69.115987
-77.438958
-87.057912
-85.828178
-73.848209
-64.618402
-68.536229
-76.373954
-67.148044
-36.877815
-5.151327
19.312050
35.947061
42.714527
38.958276
14.516445
-19.847222
-48.546390
-77.041899
-97.140930
-102.634250
-100.422333
-93.982434
-95.875370
-120.993377
-166.296911
-203.377231
-209.106939
-193.933382
-169.123475
-132.713891
-92.384928
-60.601031
-30.058825
7.565434
42.657216
73.357620
91.939072
87.323768
79.782179
73.502541
36.224538
-29.879392
-87.670229
-126.231226
-159.383595
-186.427781
-198.870153
-205.039129
-204.451022
-184.300831
-151.483837
-118.920637
-83.900032
-46.273175
-19.364602
-13.772066
-29.582588
-55.848250
-77.210273
-83.623431
-83.345486
-92.708049
-105.776461
-113.270773
-113.395210
-103.367136
-87.669628
-70.790695
-47.566151
-12.599318
15.681609
18.190700
8.615647
6.087318
5.918462
0.610616
-1.946027
4.717013
25.385440
58.606113
101.763169
148.056663
172.875663
166.429254
129.353610
58.432804
-26.007625
-95.408789
-135.417733
-130.353564
-89.635729
-61.037886
-70.733731
-95.387273
-98.764263
-79.411560
-59.065765
-44.268092
-35.721735
-34.080009
-34.343681
-34.909723
-28.682833
-0.975734
40.480881
68.222789
64.761634
28.727919
-28.278419
-90.762743
-139.832911
-150.882147
-128.471196
-103.420484
-83.202235
-58.405056
-15.515820
40.582094
72.725250
62.717424
27.916827
0.954468
2.313566
23.775585
46.270440
56.967416
51.701653
33.923129
15.713650
5.671794
2.832783
-1.982023
-14.949385
-19.772504
0.160001
40.445323
79.345302
89.525600
67.444540
32.314298
-0.571550
-22.518570
-24.696471
-3.262508
37.736396
81.242840
105.978714
106.456680
85.632117
54.676345
37.176812
45.050890
64.182530
86.607508
112.553900
122.487418
106.525451
76.028950
46.203948
24.377720
1.203037
-19.179141
-10.283656
25.851354
52.195191
57.413401
56.860088
58.216589
53.856637
30.605582
0.043618
-15.245030
-4.903936
15.937237
