EVENT_NAME: 202302060117
EVENT_ID: 13194
EVENT_DATE_YYYYMMDD: 2023/02/06
EVENT_TIME_HHMMSS: 01:17:32.00000
EVENT_LATITUDE_DEGREE: 37.288
EVENT_LONGITUDE_DEGREE: 37.043
EVENT_DEPTH_KM: 8.6
HYPOCENTER_REFERENCE: AFAD
MAGNITUDE_W: 7.7
MAGNITUDE_W_REFERENCE: AFAD
MAGNITUDE_L: 
MAGNITUDE_L_REFERENCE: 
FOCAL_MECHANISM: 
NETWORK: TK
STATION_CODE: 3142
STATION_NAME: 
STATION_LATITUDE_DEGREE: 36.49797
STATION_LONGITUDE_DEGREE: 36.36612
STATION_ELEVATION_M: 139.0
LOCATION: Kahramanmaras_Pazarck_Turkiye
SENSOR_DEPTH_M: 
VS30_M/S: 539
SITE_CLASSIFICATION_EC8: B
MORPHOLOGIC_CLASSIFICATION: 
EPICENTRAL_DISTANCE_KM: 106.49
EARTHQUAKE_BACKAZIMUTH_DEGREE: 
DATE_TIME_FIRST_SAMPLE_YYYYMMDD_HHMMSS: 2023/02/06 01:17:30.4077320
DATE_TIME_FIRST_SAMPLE_PRECISION: millisecond
SAMPLING_INTERVAL_S: 0.01
NDATA: 12501
DURATION_S: 
STREAM: HNN
UNITS: cm/s^2
INSTRUMENT: sensor = GMS+/GEOSIG | digitizer = 
INSTRUMENT_ANALOG/DIGITAL: 
INSTRUMENTAL_FREQUENCY_HZ: 
INSTRUMENTAL_DAMPING: 
FULL_SCALE_G: 
N_BIT_DIGITAL_CONVERTER: 
PGA_CM/S^2: 646.630
TIME_PGA_S: 
BASELINE_CORRECTION: BASELINE REMOVED
FILTER_TYPE: BUTTERWORTH
FILTER_ORDER: 
LOW_CUT_FREQUENCY_HZ: 
HIGH_CUT_FREQUENCY_HZ: 
LATE/NORMAL_TRIGGERED: 
DATABASE_VERSION: 
HEADER_FORMAT: DYNA 1.2
DATA_TYPE: Acceleration
PROCESSING: Automatic Paolucci et al., 2011
DATA_TIMESTAMP_YYYYMMDD_HHMMSS: 
DATA_LICENSE: U (unknown license)
DATA_CITATION: Turkish Accelerometric Archive v 1.0 - Disaster And Emergency Management Presidency, Earthquake Department
DATA_CREATOR: AFAD
ORIGINAL_DATA_MEDIATOR_CITATION: : AFAD - Disaster And Emergency Management Presidency
ORIGINAL_DATA_MEDIATOR: AFAD PROCESS SERVICE
ORIGINAL_DATA_CREATOR_CITATION: AFAD PROCESS SERVICE
ORIGINAL_DATA_CREATOR: network: TK
USER1: GuestUser
USER2: 
USER3: 
USER4: 
USER5: 
[...]
10.043480
5.048422
0.195197
-0.866716
-2.664551
-5.506393
-3.056243
0.527275
-2.460037
-5.448908
-3.934182
-1.427922
0.767655
1.951436
-1.473065
-8.673294
-9.041885
-3.206959
-0.125313
1.714122
0.649872
-4.816925
-8.845647
-9.921327
-12.664976
-17.380784
-18.618040
-15.550941
-12.365648
-11.578532
-10.007177
-7.319599
-2.919112
2.589546
1.641672
0.562615
6.364810
11.490310
12.715135
11.861556
10.131521
8.614235
8.030296
8.578166
8.763919
10.349561
15.981868
20.399500
18.262409
11.860187
6.969815
6.183777
7.768900
5.422175
-6.522714
-20.558736
-26.707683
-24.321956
-17.267159
-10.192881
-5.784340
-2.430977
2.017048
3.812583
0.243131
-3.424254
-2.655841
-0.686002
1.164863
3.370832
3.952471
4.148355
6.619546
11.453586
13.863732
13.652300
14.066129
11.737069
6.960995
6.160669
7.310681
5.347893
5.162957
6.858481
3.820255
-3.424134
-9.124982
-8.327735
-1.904954
4.478602
6.018525
1.259595
-5.599298
-8.763772
-8.155376
-4.696807
1.218907
6.271152
7.015406
3.496349
-3.976116
-14.121853
-18.737650
-17.031476
-15.639360
-15.613105
-18.233365
-23.609763
-25.806081
-20.019992
-11.239038
-5.637383
-1.443411
4.111225
9.079566
12.994028
13.215888
4.872681
-3.668469
-5.006775
-0.929438
4.972248
6.425149
2.384218
-1.185494
-0.605932
3.142797
10.196035
13.886577
8.134815
2.592165
4.770079
8.909759
8.492591
4.282032
-1.457522
-7.828831
-9.026602
-4.436743
-0.308752
4.111218
6.620076
4.863284
-0.270490
-7.661648
-11.250583
-12.464719
-13.981745
-12.854333
-8.886619
-5.193999
-2.891137
2.999119
7.934989
1.143116
-9.167574
-12.529471
-12.599330
-11.858713
-10.961195
-11.178862
-11.468224
-8.158762
-0.494550
5.352065
6.642092
5.030251
2.139832
1.586286
4.233859
7.938688
9.350806
3.408633
-9.116058
-19.057098
-18.164776
-10.652788
-4.832929
0.228928
6.325960
11.776689
14.581682
13.926826
9.105553
-0.598059
-9.375339
-9.471694
0.214032
10.516707
11.074967
6.029773
2.403432
1.739744
4.668906
5.944386
0.469796
-7.236720
-11.196863
-13.745168
-12.244210
-3.198552
3.832605
2.545474
-3.960135
-7.389832
-5.274263
-4.810558
-6.570207
-5.007944
0.480192
3.391170
1.339283
-3.555246
-11.329561
-14.933303
-9.685192
-3.200067
-1.241917
0.087074
5.423246
9.248867
8.453477
7.122185
1.489137
-6.643399
-8.537608
-7.957527
-8.851629
-8.251027
-4.217072
1.148973
3.986957
5.306597
5.024508
3.607753
4.952071
9.202672
12.703324
11.826366
10.510661
12.137866
15.388361
17.996450
14.958743
10.933658
11.086940
10.445851
6.616891
4.009619
6.029594
6.110660
1.076896
-2.439563
-2.535139
-2.091176
-5.616727
-11.977646
-12.883437
-6.694967
1.327465
2.773871
-1.408373
1.684443
11.024417
14.356739
11.466580
9.749273
11.976283
16.362483
18.330764
14.931200
6.843604
-2.826498
-5.552483
2.152252
11.194273
12.143744
4.131221
-8.625443
-18.257359
-12.964828
4.107139
15.293804
13.232045
8.469998
10.579073
10.789244
4.387023
2.042117
2.638823
-2.805115
-6.519777
-3.150568
-1.343084
-2.806598
-0.799352
2.670907
4.574245
9.911976
9.143861
-4.181955
-16.718596
-24.408227
-29.293403
-24.390525
-9.979361
-2.293588
-5.666915
-7.297460
-1.834521
2.783912
-0.734106
-1.785108
2.950999
4.105167
4.968135
5.663553
3.821558
1.930726
1.215084
-0.178812
-0.359591
10.700567
22.325460
22.476664
22.805549
23.762034
14.718232
0.371009
-4.799652
-2.813448
-0.922059
2.596517
8.686535
13.792552
11.210218
6.704043
3.893633
2.454018
3.672608
6.745422
12.942465
14.148846
12.313345
12.329469
12.161418
12.634215
13.721363
16.588960
15.651476
14.435781
17.541326
18.651853
17.914910
14.770698
6.921050
-3.408083
-6.009120
3.060696
9.768962
9.438556
6.025744
-3.416542
-14.326775
-18.761514
-16.707770
-19.033713
-25.434895
-20.334593
-12.736362
-11.249692
-5.456588
4.820369
9.484262
4.652078
-0.886155
-7.163428
-14.543416
-11.187975
-4.276051
-7.607296
-12.541049
-14.595015
-22.418946
-28.742198
-24.359375
-23.432763
-28.076096
-20.618400
-6.881074
-4.238955
-8.393664
-11.137574
-17.838788
-24.341540
-24.440752
-24.787263
-23.658033
-19.244817
-21.460618
-26.614135
-15.421496
4.459861
10.341286
7.874808
10.440815
12.051655
8.258802
10.885075
17.895970
20.601732
23.365422
25.399164
21.786330
13.892782
7.657331
2.221706
0.687536
9.684098
20.612813
23.743035
16.194458
6.850885
8.843843
13.745423
12.147869
15.185874
27.253932
34.866969
37.728851
40.003658
32.003864
24.167724
28.582758
32.681396
27.440597
26.109305
33.717407
33.080475
29.535961
30.545438
24.096198
13.053483
11.562954
13.249906
3.816972
-8.403791
-17.148340
-27.612032
-34.204404
-26.936598
-12.835077
-2.696316
6.767827
16.207553
19.296472
16.334877
16.979640
23.567633
28.118267
23.307384
12.489368
2.527547
-2.633763
5.507382
15.018284
10.445609
6.482868
11.633825
10.453199
-3.284089
-16.515609
-17.464782
-9.551973
-2.796429
-5.219525
-15.823493
-19.513477
-12.935095
-8.725018
-13.879054
-19.649779
-21.988711
-25.867027
-25.922339
-20.692412
-11.682343
-1.923622
3.550227
9.804158
10.483470
2.363404
0.311256
-4.591844
-13.153516
-4.517513
21.745043
39.264850
32.320233
14.087921
-19.280029
-51.036639
-47.793937
-17.768902
-6.959940
-15.907627
4.035295
8.143284
-20.390645
-23.120787
-16.604230
-25.366443
-22.967207
-4.068033
-4.462601
-0.383187
39.068047
60.026142
33.632960
5.637011
20.684866
49.590821
55.111168
40.250383
7.133109
-8.390603
23.223692
75.771385
110.613556
83.453539
8.737290
-22.684998
11.908575
55.545968
66.226345
52.922090
16.942693
-50.347051
-51.054380
19.785131
39.991717
46.308772
64.405264
30.509725
-41.182566
-87.920251
-74.817538
-67.404003
-54.141532
3.808294
10.705411
-25.867036
-33.627324
-36.410458
-64.241715
-64.124281
-19.410669
10.837246
20.487384
-8.227863
-57.372558
-45.659344
-3.042059
6.488066
-4.158244
-9.026795
6.075092
3.229873
-19.614619
0.101785
25.814413
35.855241
39.786848
7.453813
-4.134675
27.740946
55.659523
39.748237
-23.407820
-50.788639
-27.057002
-13.337860
-39.643759
-47.224547
-7.144156
7.931754
6.825941
-2.768568
-24.900777
-39.598946
-31.265313
-0.823091
1.009851
15.407247
43.848996
26.166872
-7.580079
-21.796119
7.704704
47.913160
61.344220
39.368132
-0.160734
-6.223698
3.967536
21.648919
27.583596
32.081756
43.614951
22.976928
-6.250841
-33.834279
-1.043755
61.247313
65.661828
40.439421
3.835022
-18.810487
-13.730187
13.930700
18.932291
7.219893
51.228235
91.656456
38.998919
-41.940071
-43.801549
-18.026578
-17.011126
14.697465
48.853848
33.984751
-18.227283
-26.071996
26.303211
7.174959
-9.834885
53.952706
58.336828
16.548501
-3.430491
-45.942532
-59.575393
24.257969
100.386875
106.234010
67.357941
17.523042
9.059822
3.025952
27.702884
85.606732
64.108618
3.925864
-32.077951
-63.487771
-69.192515
15.768240
95.207628
47.219679
-11.415118
-47.119161
-68.717026
-27.038023
49.589377
115.926071
83.310928
-24.322333
-98.263695
-87.863867
-53.302506
-20.527048
71.043242
76.055483
-5.743339
-60.753594
-55.526005
0.922103
-27.242696
-20.402208
25.355411
-3.553103
-7.521039
26.456884
88.499354
111.790165
93.241456
65.107829
18.110376
37.081506
45.445273
-10.661203
5.251940
9.104057
-65.179939
-96.331029
-100.309096
-58.189267
16.280760
50.303104
112.567156
145.346250
65.018754
2.242217
12.524890
33.223736
43.822027
73.233490
129.824990
101.910348
-29.602859
-143.016217
-172.709230
-160.062670
-132.676617
-78.792419
-93.915049
-157.171377
-175.620595
-194.126443
-157.086636
-79.546671
-108.707679
-142.840646
-120.781395
-127.132442
-101.322401
-45.281349
-21.984044
-22.214959
13.094794
76.377137
72.495703
34.118129
49.621357
83.885804
108.748991
179.592398
132.511299
-34.738441
-38.929777
83.467432
169.044617
124.692120
45.054307
-51.980423
-131.881380
36.133414
254.418238
308.521421
168.484189
23.909851
30.296004
4.848378
-5.554009
4.648655
15.581007
40.544204
63.306906
97.421987
53.258602
39.711723
102.244635
39.130141
-79.335963
-147.424493
-262.535174
-235.235105
-127.259951
-96.222082
-20.933266
19.308441
101.285502
149.912777
122.195040
162.647938
171.724768
195.804754
201.273147
197.098436
245.596087
182.936966
30.865205
-106.583958
-176.968318
-183.010501
-100.510528
35.192774
101.569212
134.435848
83.269899
-57.023204
-214.848304
-243.302224
-78.778191
23.260486
20.805698
-76.456069
-204.955189
-211.735372
-186.833481
-60.078924
80.541005
67.205578
58.320495
-20.751024
-112.463369
-92.309775
-101.641659
-68.547467
7.440645
-4.990011
-51.286610
-34.284781
19.347443
-41.259252
-192.821088
-235.473403
-145.793444
5.022895
81.772906
50.801055
-27.038384
-63.390028
68.461434
198.904176
305.437878
389.768176
454.136608
436.998438
-0.943505
-317.971014
-225.988732
-209.601773
-128.205553
12.265788
-27.058900
-174.735387
-261.113917
-185.637549
-37.233934
158.253137
303.914123
312.524669
324.577920
235.370517
16.626981
-7.491413
84.311370
112.637003
131.622940
100.136748
91.596637
102.983583
54.968359
-37.771888
-164.753444
-196.286913
-88.446319
12.365735
38.933518
20.341168
-70.039867
-192.948262
-270.385580
-310.436580
-279.169335
-109.703736
4.369729
-73.884559
-99.022022
-65.278930
-19.091135
102.097894
179.111569
256.563472
330.110544
269.159917
209.722177
228.365740
217.871135
229.621496
236.102725
178.415562
110.009854
-61.229661
-92.637922
84.645911
95.187572
161.551542
153.142094
-110.594805
-199.383462
-227.126917
-218.961353
-101.090340
-22.605859
30.387076
76.496421
149.568377
154.627117
82.204358
-33.553664
-77.707179
91.246677
242.274987
323.977993
358.696255
233.383448
-9.753075
-215.299880
-197.057659
-38.491143
-90.773575
-345.050505
-301.496238
-231.312641
-388.262323
-311.113569
-258.477295
-300.685927
-237.167195
-224.591551
-205.773165
-153.815924
-116.596877
-204.487516
-385.245448
-459.605036
-429.498435
-333.590800
-148.476522
-63.471087
-118.471210
-118.476647
-128.307025
-68.582984
90.570348
179.254097
166.513278
57.666901
-4.249544
-2.611429
-19.714530
-19.091587
29.084991
93.221710
166.715530
285.952402
379.954899
407.962576
410.270114
449.171678
516.322225
602.142032
586.595201
404.225929
293.477790
-23.964828
-396.147301
-249.686490
-104.941446
-87.687642
129.350295
290.520725
280.773472
285.340471
358.489059
314.694284
231.158394
242.937070
228.995085
176.094665
115.865932
28.104138
-66.949343
-107.470522
-117.678343
-116.793295
-119.142357
-158.178444
-210.837019
-331.822092
-406.567176
-397.507491
-423.363472
-369.799567
-312.046385
-320.070337
-314.828721
-384.033994
-420.879458
-366.337007
-303.576019
-182.123845
-133.589307
-147.891850
-142.543729
-184.088394
-163.684124
-101.495924
-15.537660
104.264208
163.705102
199.813642
182.374141
86.992315
30.820118
55.537834
99.999211
127.313048
93.171769
4.832770
-48.159348
-95.814274
-132.256058
-102.898367
-52.143852
33.813372
118.374085
152.418509
192.030798
241.469588
280.589617
325.591572
327.726623
212.780375
85.508659
8.050299
-74.804220
-100.790345
-64.143047
-29.058252
-23.345937
-60.287774
-89.716084
-80.221547
-77.813220
-108.913656
-115.967635
-82.024780
-85.163797
-120.643920
-163.726930
-225.876907
-270.182125
-280.826617
-275.580844
-320.729789
-284.792696
-28.284582
183.927647
263.030116
280.531219
191.634499
-2.276263
-218.078965
-200.437587
-100.683049
-102.116429
-100.476496
-207.475404
-245.752448
-158.176090
-105.794908
-13.544026
66.499842
127.370499
221.709655
303.707238
343.290952
363.015410
297.825369
73.088988
-172.283617
-239.132016
-189.330849
-199.093688
-143.690886
-111.144544
-222.314806
-230.466304
-192.496787
-123.776203
42.744407
142.895351
194.231486
242.913313
260.704057
272.786142
276.494348
215.438515
110.397217
30.036990
-7.760522
8.908544
18.010572
1.052421
-37.020965
-85.594171
-87.092753
-110.238576
-109.984763
-33.962623
24.639481
78.076360
92.111899
77.840009
73.451508
44.408175
61.345842
124.988742
178.905152
173.808784
87.084243
43.628465
91.329668
146.562322
196.450771
234.323394
250.245888
254.259841
200.362692
147.006120
135.612458
94.784233
79.597180
70.692614
16.798322
1.787392
8.718539
12.561304
42.721418
71.157972
63.297674
67.239411
66.323748
10.767201
-33.594907
-90.777860
-101.834344
-35.086437
29.898165
93.368060
73.830673
-4.736895
-72.826206
-112.662117
-81.196929
-25.155877
26.799805
68.234366
48.007036
37.718427
25.568061
-32.014676
-34.398027
-62.939230
-82.354785
-65.297365
-84.353401
-100.010374
-165.058841
-180.195499
-141.313158
-117.597886
8.658436
101.452233
52.085696
43.903025
66.297637
60.221424
58.390859
84.250255
164.927437
204.005644
242.056728
316.857180
345.333218
368.346078
366.841001
321.180054
353.318301
400.926766
339.176832
315.385487
354.689172
324.155809
215.321381
55.571141
-39.361028
-44.202823
-57.129895
-10.332165
78.928268
99.571265
67.831540
31.532109
27.276610
70.983102
134.977208
200.047274
265.160201
271.625583
255.663643
255.793026
225.891939
185.400373
135.303369
72.376946
-8.708813
-143.878253
-264.114416
-316.401783
-364.788216
-353.724161
-296.210485
-150.718349
-16.019050
-209.596009
-447.543408
-550.900890
-641.127622
-646.630267
-612.726638
-566.924079
-444.368411
-312.101059
-270.455047
-183.568113
-120.711270
-179.304504
-203.979061
-219.070519
-213.382622
-183.480977
-146.472861
-73.688727
-102.266557
-180.498505
-200.608680
-190.298992
-126.154999
-126.736341
-166.332227
-151.684933
-140.520349
-88.867037
-22.894798
28.625513
34.475246
-37.182236
-66.232064
-27.734699
48.488243
149.188856
229.901366
300.917260
304.039429
226.439236
201.651680
218.183590
237.273953
269.897966
208.693545
81.987603
-44.723794
-158.705264
-212.562409
-283.920638
-269.155930
-110.217687
43.620274
182.010355
220.078064
172.377938
145.911502
110.285390
120.868874
149.212950
177.440910
257.041874
145.499365
-162.738637
-393.717241
-398.376680
-209.417317
-59.455614
74.998724
134.239857
74.201014
64.136585
27.302811
30.886329
121.458331
197.362797
244.644214
212.577702
149.612574
131.537941
102.035337
51.164224
69.088230
129.183220
123.237931
72.497741
49.648314
31.335993
-10.324269
-46.525768
-39.670993
-1.858375
-3.546588
-42.998823
-63.707502
-41.978156
-8.815645
8.211382
6.659288
-32.008447
-69.499954
-74.743870
-62.028990
-41.322091
-18.725639
-42.360865
-121.909837
-199.956311
-275.366401
-248.056200
-110.149028
32.619961
139.279910
98.033978
-1.857679
-55.458174
-71.005265
13.036431
126.822334
176.676753
132.087608
31.022838
-47.196901
-86.641343
-88.961051
-55.358233
-37.542810
-60.870211
-88.409228
-130.215739
-169.213120
-197.384673
-227.601898
-241.285933
-219.643869
-135.773360
-51.057566
-36.638609
-100.337582
-209.113302
-242.930391
-172.280771
-76.663296
21.548220
31.087957
-68.764736
-217.284170
-335.259831
-265.911128
-123.043168
-18.294072
9.735166
-66.184328
-80.338544
-65.979334
-69.658408
-25.599931
30.079524
51.378435
38.875304
-7.325961
-60.826704
-38.964097
-14.365614
-36.382486
-69.517684
-117.759425
-100.577057
-15.922568
77.668197
119.571379
74.452567
-4.756109
-93.822198
-101.396232
3.423780
67.519197
47.991422
23.428565
-5.896097
-16.515131
23.933871
26.237512
-18.188759
-77.585195
-124.951259
-93.492306
-6.572381
77.053167
48.879536
-71.026201
-161.258908
-213.978010
-153.336988
1.670188
85.175723
106.507364
153.089487
187.707738
149.333800
79.752643
72.976875
64.640682
-22.271412
-75.519921
-102.235474
-135.924757
-140.821623
-122.661488
-43.484986
26.445597
65.654207
87.052869
54.971289
30.052031
15.369707
55.736363
83.649484
6.380755
-23.051191
-21.281374
-60.042885
-101.857709
-157.836119
-193.949296
-162.327208
-54.961470
58.989126
99.672178
86.595220
53.256624
19.732813
38.620558
121.101828
156.083494
100.401999
94.282146
121.221137
107.826223
130.272789
179.515974
192.297094
87.772995
-35.569212
-29.710387
10.703026
43.420555
73.393896
59.839744
-7.112561
-65.911531
-67.794830
-32.499364
-13.344318
-63.026213
-125.874705
-169.338016
-189.436501
-183.616122
-166.514022
-134.431366
-151.529012
-206.394836
-224.841457
-218.922626
-187.351192
-129.509689
-109.214262
-119.783421
-107.890187
-67.498334
-27.896435
-6.168388
2.645816
-53.624053
-82.179543
-21.143933
10.463088
42.290912
120.973336
134.268018
27.665775
-17.493560
44.636192
46.187805
-18.215399
-81.933594
-132.824189
-171.590636
-193.619976
-149.937124
-45.466758
21.020341
31.850604
18.110199
15.591248
78.324182
167.650597
225.251035
221.498966
171.425341
133.060236
56.157000
-9.678564
17.442525
0.651146
-40.007191
-17.784286
5.820844
25.602970
65.860003
93.621680
28.903638
-44.892514
-28.277998
4.926596
64.433991
122.174185
79.403156
-48.539541
-110.492094
-54.900181
13.624798
97.786247
116.189005
71.933921
112.458776
135.781538
90.759360
91.893006
73.881237
38.695690
106.010670
107.223026
-1.529575
-76.751333
-119.174793
-72.357321
22.824523
56.387596
21.997719
-39.593756
-34.067174
24.479079
102.322193
191.151412
189.312274
123.299030
41.871676
-30.675252
7.554293
77.701003
111.418119
118.378879
55.933287
12.948469
39.904085
98.412153
194.158992
275.918887
260.603509
142.921125
12.354512
-27.368660
14.981583
59.547387
70.020469
57.142753
56.123443
76.806963
93.191844
85.405579
84.448094
67.578784
32.567542
55.377003
51.577396
0.061799
-35.889803
-128.432626
-281.257973
-343.337292
-249.472212
-115.565206
55.636162
194.943744
165.552581
105.183314
40.150693
9.097015
98.553574
186.548418
289.347177
289.842833
86.627964
-115.366775
-208.258726
-207.556815
-199.453855
-186.236584
-180.655451
-234.704045
-263.754133
-273.986372
-268.421865
-166.791283
-26.103814
90.170925
177.006166
186.984130
98.132090
-16.606604
-25.920304
65.002125
145.879069
135.428884
34.702072
-100.060312
-252.271308
-323.641487
-218.831865
-27.776435
69.902038
105.212571
180.683744
209.433838
231.649989
320.246715
343.773136
216.475443
64.921660
-40.841013
-166.199019
-190.938778
-133.732926
-154.293538
-122.091649
-44.799502
-9.622231
91.079421
198.046936
235.340796
256.142771
266.345694
238.116733
146.975877
20.745570
-168.134525
-335.976536
-327.388849
-283.855623
-285.251856
-330.497955
-414.099566
-433.786579
-407.890815
-330.489047
-236.889969
-129.526569
18.085274
143.830372
260.146155
288.959372
259.753164
260.167253
209.314843
115.818672
11.770727
-122.210015
-190.098265
-111.117367
25.638774
156.271146
191.955744
109.158114
71.455936
88.956001
121.127498
212.626352
302.788959
305.217289
229.093097
109.026564
-1.457131
-84.791182
-154.092828
-128.579443
-55.150825
-27.311997
-13.167875
-11.938634
22.458035
84.681304
98.790098
70.312019
28.004935
-4.233544
-30.408001
-30.402007
17.379984
29.273217
-12.413541
-48.129014
-84.746661
