EVENT_NAME: 202302060117
EVENT_ID: 13194
EVENT_DATE_YYYYMMDD: 2023/02/06
EVENT_TIME_HHMMSS: 01:17:32.00000
EVENT_LATITUDE_DEGREE: 37.288
EVENT_LONGITUDE_DEGREE: 37.043
EVENT_DEPTH_KM: 8.6
HYPOCENTER_REFERENCE: AFAD
MAGNITUDE_W: 7.7
MAGNITUDE_W_REFERENCE: AFAD
MAGNITUDE_L: 
MAGNITUDE_L_REFERENCE: 
FOCAL_MECHANISM: 
NETWORK: TK
STATION_CODE: 4628
STATION_NAME: 
STATION_LATITUDE_DEGREE: 38.241198
STATION_LONGITUDE_DEGREE: 36.922805
STATION_ELEVATION_M: 1228.0
LOCATION: Kahramanmaras_Pazarck_Turkiye
SENSOR_DEPTH_M: 
VS30_M/S: 186
SITE_CLASSIFICATION_EC8: C
MORPHOLOGIC_CLASSIFICATION: 
EPICENTRAL_DISTANCE_KM: 106.52
EARTHQUAKE_BACKAZIMUTH_DEGREE: 
DATE_TIME_FIRST_SAMPLE_YYYYMMDD_HHMMSS: 2023/02/06 01:17:30.4120310
DATE_TIME_FIRST_SAMPLE_PRECISION: millisecond
SAMPLING_INTERVAL_S: 0.01
NDATA: 12501
DURATION_S: 
STREAM: HNN
UNITS: cm/s^2
INSTRUMENT: sensor = ACEBOX/SARA | digitizer = 
INSTRUMENT_ANALOG/DIGITAL: 
INSTRUMENTAL_FREQUENCY_HZ: 
INSTRUMENTAL_DAMPING: 
FULL_SCALE_G: 
N_BIT_DIGITAL_CONVERTER: 
PGA_CM/S^2: 91.096
TIME_PGA_S: 
BASELINE_CORRECTION: BASELINE REMOVED
FILTER_TYPE: BUTTERWORTH
FILTER_ORDER: 
LOW_CUT_FREQUENCY_HZ: 
HIGH_CUT_FREQUENCY_HZ: 
LATE/NORMAL_TRIGGERED: 
DATABASE_VERSION: 
HEADER_FORMAT: DYNA 1.2
DATA_TYPE: Acceleration
PROCESSING: Automatic Paolucci et al., 2011
DATA_TIMESTAMP_YYYYMMDD_HHMMSS: 
DATA_LICENSE: U (unknown license)
DATA_CITATION: Turkish Accelerometric Archive v 1.0 - Disaster And Emergency Management Presidency, Earthquake Department
DATA_CREATOR: AFAD
ORIGINAL_DATA_MEDIATOR_CITATION: : AFAD - Disaster And Emergency Management Presidency
ORIGINAL_DATA_MEDIATOR: AFAD PROCESS SERVICE
ORIGINAL_DATA_CREATOR_CITATION: AFAD PROCESS SERVICE
ORIGINAL_DATA_CREATOR: network: TK
USER1: GuestUser
USER2: 
USER3: 
USER4: 
USER5: 
[...]
-20.845503
-15.372310
-11.873301
-9.443448
-4.446033
2.465481
5.982959
3.861949
1.167200
3.676545
9.678821
12.651785
10.797070
8.133183
7.588434
7.956663
6.326160
2.243357
-1.579931
-3.767574
-5.194206
-5.078478
-2.139881
2.041114
5.982233
10.065501
13.086627
13.111175
11.299712
10.750287
11.435546
9.192026
2.205227
-6.484785
-13.690418
-17.232214
-15.561267
-9.401879
-1.335641
5.705162
10.000718
11.660443
10.962090
8.454379
5.979867
4.264963
2.228821
-0.786931
-4.980320
-9.191244
-10.990783
-10.593797
-10.218788
-9.964885
-8.557895
-6.869412
-7.798290
-11.746660
-14.448656
-12.125648
-6.341739
-0.241736
5.476009
10.314676
12.972949
12.752711
10.912257
9.931477
8.957242
5.224901
0.258812
-2.073551
-1.226037
-1.060276
-5.305569
-11.252203
-12.698708
-9.436537
-6.217851
-3.912611
-0.344633
3.398928
4.728999
3.335098
1.009048
0.971873
4.896860
10.277936
13.205077
12.418815
9.831379
6.899093
3.659363
1.615739
0.384328
-3.373029
-8.141092
-8.862592
-4.541085
2.448049
9.437417
15.430107
20.880622
24.473616
24.232570
20.991671
16.832884
11.711320
5.461917
0.516870
-1.993646
-3.655946
-5.160433
-5.803845
-5.341629
-6.304174
-11.230751
-17.947046
-23.168208
-25.744188
-26.345750
-25.942451
-22.442507
-15.046800
-8.434780
-7.477382
-12.688257
-19.174028
-20.295789
-14.308009
-5.202308
2.582438
7.945980
10.504890
9.194922
4.822912
0.554708
-0.567988
0.130831
-0.808101
-3.548907
-5.706390
-3.357196
4.479920
12.569772
16.760353
17.191707
15.720887
14.712284
14.576213
14.878512
16.943875
19.692394
17.628898
9.816795
2.187054
-2.383450
-4.833179
-5.874046
-6.119769
-5.132912
-4.331222
-5.993288
-8.637303
-10.274820
-9.342205
-5.283018
-1.308232
1.041663
3.383141
4.102300
0.144579
-6.802475
-13.098169
-18.647582
-24.205646
-28.021686
-28.221350
-24.345227
-16.768560
-7.184510
1.383457
6.922814
9.315961
7.807266
2.009560
-4.741571
-8.492616
-8.100539
-3.660497
2.972097
8.630924
11.845635
12.788772
13.214048
14.163263
13.851143
12.232095
11.760525
13.290726
14.539202
12.100929
6.589157
1.811275
-0.555456
-1.862852
-4.319127
-7.563066
-10.423343
-14.213899
-19.091145
-22.759192
-23.346258
-21.251202
-19.551264
-20.043175
-20.319758
-18.074838
-14.074335
-8.631068
-1.776134
4.203464
7.665532
7.793652
5.290617
4.343970
5.572807
5.467363
3.866786
2.181808
0.967230
1.118729
2.551437
4.590615
7.670425
11.398789
13.359178
13.073710
12.476590
12.255183
12.567301
13.684850
15.360942
16.831291
15.507530
9.483040
1.541180
-2.993320
-2.241663
0.323793
1.641239
2.508158
3.747048
4.469948
4.183779
3.946240
4.712158
4.877218
2.047100
-2.751590
-6.151939
-8.282768
-12.079871
-16.689653
-18.929432
-18.435888
-16.625597
-15.324049
-15.454743
-14.798943
-11.358852
-7.633060
-6.637085
-7.288212
-8.010646
-8.932744
-9.532669
-9.946024
-10.433025
-8.974600
-5.481436
-3.521749
-4.116063
-4.335366
-2.860574
-0.552061
2.549726
5.522223
6.558644
7.038161
9.913399
13.946400
15.385187
14.341281
13.318884
13.118986
13.706050
13.488383
10.472864
6.329040
3.494715
1.486395
-0.996534
-3.977918
-5.838711
-4.865181
-1.319881
2.931254
5.582747
6.168642
6.913986
8.354877
8.281931
5.587182
0.988155
-2.777619
-2.928420
-0.661289
1.575916
2.774593
2.400282
0.798302
-2.278705
-6.968680
-11.046106
-13.154023
-14.695216
-17.155232
-20.052216
-21.856431
-22.088826
-21.452665
-20.074666
-16.131676
-9.399719
-3.045345
1.905311
5.744962
6.801023
4.542306
0.014587
-4.179036
-5.589303
-5.284900
-4.072429
-1.908636
-0.178772
1.024815
2.226298
4.336317
9.183167
14.697040
17.119412
17.779420
18.705490
18.805320
18.825191
19.512086
18.197910
13.871724
8.559382
4.770228
3.543960
3.455817
4.445947
7.579998
11.007231
12.029859
9.607016
4.365748
-0.971612
-3.908107
-6.458602
-11.254019
-15.295440
-16.676015
-18.828120
-22.640419
-24.982602
-24.327737
-22.227771
-20.548875
-19.301801
-16.691924
-11.320199
-5.088335
-0.663255
1.595926
2.425438
2.783380
1.555943
-2.068150
-4.124866
-2.597470
-1.020275
-0.404454
2.138324
6.566442
10.744866
14.284321
15.297130
12.568246
10.008866
9.563949
8.965660
8.241121
8.798960
10.326590
11.453491
11.127109
10.626080
11.531576
13.562337
17.234356
21.377709
21.660135
17.135923
9.390686
-0.678496
-9.264702
-12.935788
-13.472121
-12.571067
-9.224962
-4.422300
-1.228865
-1.785070
-7.289594
-15.240105
-19.339976
-17.883654
-14.440289
-10.158527
-4.794752
-1.033423
-1.679172
-5.852221
-9.419735
-9.834960
-8.696369
-7.042488
-4.653316
-2.648272
-1.327786
-1.124384
-2.665577
-3.482466
-1.344625
2.318977
4.898694
6.311296
8.213937
10.264104
11.630414
12.102683
11.657297
12.080703
13.954820
14.998724
13.232618
9.145373
5.518942
3.502673
1.616629
-1.600189
-6.071797
-9.057389
-8.469157
-5.760851
-3.823608
-4.103932
-4.707598
-4.415353
-4.833384
-5.159766
-2.381087
4.451637
12.897795
18.317214
17.754931
11.986683
4.051603
-2.827416
-6.814362
-8.480870
-10.052223
-12.229578
-14.192775
-16.045854
-17.964396
-19.380741
-19.020694
-15.414139
-9.571547
-4.702954
-2.033225
0.243492
2.854538
3.432484
0.307314
-4.894209
-9.086429
-10.676719
-10.181304
-8.043229
-4.708814
-1.564710
0.906993
3.213636
5.724851
8.560343
11.361700
14.613117
19.011544
22.554974
22.721436
19.800605
15.386745
11.271912
9.584128
9.805065
8.372822
4.585071
0.790540
-2.251865
-3.378068
-1.977390
-0.875037
-0.471271
1.483507
4.359212
6.051201
5.437014
4.157207
5.030672
6.850548
6.567419
3.470071
-1.154908
-4.685248
-6.297749
-8.904590
-14.066134
-18.394657
-19.143044
-18.750733
-20.299642
-23.807771
-26.868646
-26.506963
-22.853415
-18.338323
-13.524439
-7.523566
-0.733394
4.995339
9.195740
12.382395
13.293268
11.218783
7.305717
2.977427
0.266312
0.645764
3.948149
9.184739
14.395377
17.206086
17.270847
17.398265
19.792114
22.434489
22.387494
19.461053
15.041348
11.208006
9.960229
10.288713
9.426935
7.520550
6.159615
4.437463
0.396744
-5.305807
-9.420874
-10.451220
-9.679690
-8.236695
-7.193493
-6.477373
-4.539663
-3.338648
-6.213187
-10.659077
-11.898905
-10.242219
-8.724876
-8.198600
-8.127293
-7.240268
-4.575448
-2.662988
-3.920818
-5.797978
-5.035333
-2.294529
-0.461326
-0.849898
-2.052553
-2.733138
-3.422374
-4.999104
-7.013736
-7.534638
-5.616566
-3.413730
-3.316706
-4.870757
-6.562516
-7.718177
-7.646636
-6.018474
-3.646836
-0.785158
3.284549
8.545220
13.168793
14.529024
12.998352
11.274564
9.302482
5.712524
1.074686
-2.934003
-4.387522
-3.767727
-4.292837
-6.266555
-6.007275
-0.961230
7.375979
14.516380
17.653938
18.743198
19.690543
18.741792
15.402699
12.561827
11.464615
9.954049
5.630201
-1.619620
-9.028423
-13.787134
-16.389532
-18.374005
-19.778426
-20.690237
-21.115750
-20.911880
-21.084657
-21.277541
-18.828516
-12.305107
-3.255985
4.682132
9.284196
12.114077
15.214929
17.896348
17.647119
13.329350
7.122031
2.671932
1.540820
1.163002
-1.104365
-3.264653
-2.956510
-1.568457
-1.549287
-3.295053
-4.212241
-1.439406
4.409498
10.240167
14.296081
17.099542
19.430967
20.974963
20.316588
17.174819
13.819126
12.168282
12.236783
12.103985
9.013651
3.679565
-0.940504
-4.765662
-9.160351
-12.875391
-13.372445
-10.697104
-5.996846
-0.626524
2.026372
1.252268
-0.227436
-1.984190
-4.913905
-8.840765
-12.131931
-12.970095
-12.626181
-13.236393
-15.007643
-17.858334
-21.952126
-26.333020
-28.503595
-27.092864
-22.834248
-16.643766
-9.725238
-3.705194
-0.113602
0.697673
0.415479
1.617429
6.385957
13.260530
18.014796
20.093019
21.609426
21.703879
17.882461
10.891454
5.580046
5.441871
8.492690
11.282124
12.422819
11.935584
11.310175
10.532330
7.583444
4.491474
4.236166
4.612812
3.931993
3.861852
4.654657
5.675882
7.377224
9.421546
11.195832
11.959412
9.867861
5.490005
0.656479
-5.308392
-12.089917
-18.340020
-23.242750
-25.044627
-24.458265
-24.073202
-23.940641
-23.665463
-23.307988
-22.612910
-22.611041
-22.788495
-19.490084
-12.840891
-6.997832
-1.883050
4.415914
11.220816
18.718693
25.377004
27.848006
26.914452
23.941952
19.300140
14.911530
10.530168
5.272300
0.298729
-3.879229
-6.240349
-6.099137
-4.768131
-1.935912
3.131642
8.239410
10.823803
10.825439
10.377715
11.208162
11.710123
8.804723
3.772470
1.110453
1.224544
0.891849
-1.762686
-6.136099
-9.359230
-9.788950
-9.582509
-10.212828
-10.203243
-8.431997
-5.477736
-2.217201
0.460478
1.567741
1.445229
1.320147
1.258656
0.180850
-3.235865
-9.167069
-15.939710
-21.262106
-23.835748
-23.819851
-20.744249
-14.664586
-9.324658
-7.371517
-7.091196
-6.023679
-1.765998
5.978301
13.353201
18.530873
23.846019
28.627873
30.286897
30.847308
32.532517
33.846924
33.487342
31.701597
29.885927
28.471685
25.832814
21.214616
14.075147
5.121646
-1.741474
-5.652203
-9.677959
-14.001106
-16.520740
-16.409454
-13.845635
-10.732859
-9.389462
-9.327273
-10.603340
-14.901236
-19.716526
-21.014570
-18.661870
-13.667026
-8.391158
-6.925952
-9.695282
-14.146082
-18.822263
-22.698857
-24.052544
-21.407129
-16.037041
-10.608270
-6.425639
-4.660938
-4.034831
-1.427525
3.295412
10.279870
18.885946
25.369377
29.613965
32.610309
30.994301
24.827195
18.648400
14.185910
11.349948
10.339241
11.836711
16.377520
21.978600
27.022541
30.674686
31.884352
33.077886
34.862225
33.493574
29.146814
24.657438
20.562945
17.289080
15.569968
13.763883
10.015877
4.267035
-4.942007
-17.354305
-29.795594
-41.078652
-48.860361
-51.631795
-51.792415
-49.405113
-45.253810
-42.079780
-39.100737
-35.699221
-32.193433
-28.027167
-24.110830
-20.459152
-15.373829
-9.177969
-3.987438
-0.417121
2.543218
4.416401
3.843128
1.125701
-2.093454
-2.874339
0.527176
6.623672
14.223485
21.883617
27.273812
31.306346
34.999873
37.176758
39.315534
43.764461
49.333978
53.287956
54.067201
51.245033
45.287643
37.257875
27.367782
15.910311
4.201275
-7.394369
-19.371103
-32.949582
-47.754795
-57.799896
-58.080454
-49.876977
-35.776198
-19.030470
-2.674015
12.327352
22.655578
25.208175
22.653705
19.698974
17.821347
13.768937
5.161456
-4.289332
-11.433477
-17.855188
-24.380471
-30.150121
-35.310729
-38.774671
-38.454136
-35.345336
-31.071523
-25.890343
-20.856456
-15.077456
-6.420413
3.105188
9.820779
13.443467
15.274332
15.045443
12.895208
10.402694
8.498881
7.438609
7.303707
8.176237
9.840404
11.894546
14.399448
16.469955
18.312043
22.292907
27.656449
30.846144
29.960285
25.801965
21.079025
16.940344
12.419873
8.486700
7.470148
9.431472
12.679382
14.637901
11.970273
4.307800
-4.728934
-11.411796
-15.037993
-17.737418
-18.527654
-14.093690
-7.200881
-1.448768
3.776834
6.506181
5.405696
3.253357
-0.490674
-7.083992
-13.225847
-18.090001
-23.544726
-28.459847
-33.592868
-40.282043
-44.148817
-42.844463
-39.118204
-34.695696
-30.649368
-26.974077
-22.535203
-17.691393
-13.581706
-11.963129
-13.343703
-15.556362
-17.150627
-17.956060
-16.657084
-11.481047
-3.791457
4.120241
13.001263
22.496002
31.949593
42.676210
52.833064
59.861008
64.644265
68.669551
70.965673
69.317167
65.982515
63.890729
60.172416
52.211618
41.139446
29.624929
19.073423
8.382808
-0.610673
-5.509428
-9.281047
-12.838274
-14.977052
-19.469936
-26.590701
-31.575026
-35.191637
-39.704160
-45.116568
-51.714328
-57.562300
-62.310490
-66.579863
-67.691103
-66.776724
-66.743292
-66.093103
-64.518714
-62.737881
-58.423388
-49.692464
-38.198291
-25.917389
-12.121482
2.846452
15.507507
23.406346
27.309123
28.864107
27.980820
25.315763
22.430470
18.068513
13.014984
10.889531
11.756216
15.106997
21.863737
32.564169
46.689497
59.664075
66.866899
68.655681
67.986084
67.517319
66.866660
64.310787
59.015044
49.696585
36.750761
21.367367
4.876710
-7.663008
-14.273160
-20.376439
-28.638835
-37.281854
-45.456577
-51.366505
-53.696998
-53.196206
-49.420615
-43.286244
-37.900491
-33.997014
-30.077170
-24.688846
-18.422847
-14.216368
-13.473361
-14.667132
-16.267475
-17.876937
-18.915232
-19.308247
-20.127240
-21.624713
-23.767934
-26.027352
-25.723183
-21.560190
-15.117674
-9.175952
-6.025067
-2.543360
6.360340
19.171260
31.996909
45.142626
59.658863
72.582473
78.502218
74.350913
62.205377
47.407178
32.743646
16.658627
-1.625256
-18.487652
-30.066462
-36.595486
-39.608433
-41.057276
-42.143266
-40.489853
-36.327328
-33.041075
-28.759781
-18.896577
-5.558678
4.785914
11.607182
16.776438
18.901654
17.647798
13.146264
7.029658
1.488896
-3.457087
-5.247274
-2.412250
4.097132
12.295700
16.484176
16.585175
16.629362
16.400940
17.559638
21.450491
27.063260
35.421979
43.118116
43.310062
38.153194
33.407576
25.648779
10.878635
-7.558619
-25.521030
-41.577292
-57.192146
-71.266509
-79.431412
-80.605309
-74.627816
-64.587160
-55.607008
-45.428880
-31.278302
-15.611548
-0.389945
14.433735
27.751761
38.063622
46.099467
49.417984
46.185268
39.277492
28.902503
18.544114
10.807527
2.272757
-3.355680
-4.322199
-3.210728
2.759050
10.668644
15.303439
17.043357
18.119057
22.037264
26.384489
27.700065
30.273470
33.605547
32.228947
28.213478
24.274460
18.836334
13.190597
6.754390
-2.546534
-10.548013
-16.805130
-25.790662
-36.144375
-45.989346
-56.247904
-66.303058
-76.783957
-87.380352
-91.095625
-83.342442
-69.770746
-56.703350
-44.188184
-30.287769
-17.774473
-12.200280
-12.024934
-11.168068
-6.395800
2.875663
12.423007
17.381845
20.152809
24.796489
29.995438
32.302548
31.831211
33.602458
40.500411
47.909912
53.589080
61.635679
70.737639
75.248522
74.447531
69.455257
61.217643
52.522721
43.128980
29.567568
12.357048
-5.302829
-21.954106
-37.979741
-53.504816
-64.470844
-69.022644
-71.403637
-71.963817
-69.995245
-68.690892
-67.815556
-65.195859
-60.509862
-54.155254
-47.136194
-38.349626
-25.391180
-8.753935
8.987770
24.399918
33.368847
35.465773
34.327413
31.682697
27.669799
22.971408
18.356950
13.365377
3.066606
-13.470811
-27.399051
-32.872246
-30.540120
-22.878117
-13.411433
-2.552253
10.360602
23.806281
37.470561
51.497227
63.412002
69.340631
68.496154
62.682316
52.548372
39.933138
28.145079
18.942116
11.987347
5.168882
-2.243428
-9.071946
-14.540699
-18.197524
-21.292299
-25.106002
-27.986385
-28.205221
-25.913542
-23.085298
-22.153149
-22.381804
-21.398454
-19.519895
-18.690617
-19.128521
-19.224613
-18.841187
-19.782222
-22.127444
-24.608268
-26.625005
-26.894341
-24.424274
-20.548852
-17.239453
-14.115923
-9.412391
-3.964916
0.419015
3.855834
6.948269
10.395608
13.813255
16.460072
18.896706
21.049276
23.960518
27.268514
26.451392
21.737804
16.197742
8.481496
0.227516
-3.403591
-2.421410
0.164854
3.427961
5.460125
4.240638
2.269725
1.373813
0.720348
1.291280
3.531524
7.250535
12.321129
15.633801
13.573111
5.974932
-2.673932
-7.650308
-10.043224
-12.215436
-12.911920
-10.559920
-6.362326
-4.179128
-5.927466
-8.339787
-8.923814
-10.460331
-14.926094
-19.396065
-21.279771
-20.904996
-19.509929
-18.668494
-17.227837
-11.290556
-1.699726
6.343132
11.956369
18.119030
25.145805
30.040583
29.652712
24.058878
15.772400
5.666278
-5.680139
-17.038713
-28.001935
-37.670623
-46.648439
-55.743388
-61.036092
-58.738567
-50.757198
-41.791542
-33.547618
-24.203444
-13.738679
-4.298882
2.975952
9.327755
17.308657
25.922214
31.675730
33.853784
33.984475
33.460300
32.043721
28.949647
24.849543
20.670415
16.717837
12.400535
7.177971
2.172136
-1.913005
-5.706367
-8.963632
-9.886899
-6.836313
0.253587
10.160745
19.309465
25.091971
30.413429
35.623600
36.155955
32.073853
25.811826
17.638973
8.569742
-1.325261
-13.708568
-28.044550
-41.260877
-51.822904
-61.226699
-70.052781
-75.484594
-74.755615
-69.317960
-62.328358
-54.275914
-45.291788
-37.177622
-31.356539
-27.172738
-21.132120
-9.961522
4.722114
17.649699
26.107314
31.693430
34.926144
34.007085
29.803175
26.368458
26.093277
26.946402
25.964452
23.964082
24.493163
29.217503
35.655110
39.947392
40.525805
38.214250
35.621905
34.958153
34.516742
31.725202
28.316904
26.031067
20.335998
8.163342
-3.910652
-9.771249
-9.984708
-7.066452
-6.390779
-10.844618
-16.443830
-20.834077
-24.465417
-27.459426
-28.907334
-25.377698
-16.625265
-8.234283
-3.994605
-2.924750
-4.043705
-6.767444
-9.071985
-11.914026
-16.360384
-18.757743
-18.765927
-18.493321
-16.191354
-12.181966
-9.725694
-10.481562
-13.824162
-17.148761
-19.750692
-22.706125
-24.717952
-24.080154
-20.721190
-16.222231
-12.719949
-9.782054
-6.081045
-2.503948
-1.153536
-2.458828
-3.438440
-1.446722
3.329988
9.948787
17.011801
23.696531
29.273062
31.710398
30.724473
27.969171
25.419143
25.542353
28.494977
30.349689
26.910062
19.360747
12.334671
6.548654
0.300889
-5.962541
-9.936629
-8.015752
-0.041396
8.091240
12.329516
14.652758
17.255388
18.108279
14.274937
7.369266
2.257521
1.443906
3.996736
8.035115
10.897494
9.852652
4.899656
-2.225785
-9.067863
-11.939596
-9.502027
-3.666449
3.380199
9.612999
13.240830
12.981781
9.633102
6.691697
5.686835
4.534447
1.907967
-1.122749
-3.943514
-7.289154
-10.878177
-13.167755
-12.476652
-8.347092
-3.226232
0.140681
1.745464
3.352585
6.007351
7.330175
4.009551
-2.610420
-8.208697
-10.900406
-11.091654
-8.839486
-4.950738
-2.304154
-3.835294
-9.025594
-13.437818
-14.495985
-13.228572
-9.409729
-2.584954
5.112819
10.919641
13.640338
14.418414
14.413737
12.966530
9.183689
3.304622
-2.110826
-4.374218
-4.646827
-4.710889
-3.519694
-1.318728
-0.866097
-2.688081
-5.628083
-9.001779
-9.671376
-5.100173
2.628228
11.585468
21.046774
29.302154
34.554408
35.420158
33.099485
31.665371
34.047063
38.402938
39.961195
37.309232
31.498199
23.270638
14.222683
4.342877
-6.197641
-14.362310
-18.032695
-17.263036
-14.458873
-12.289469
-11.764362
-14.580685
-19.871285
-24.167779
-26.786543
-27.466895
-25.534795
-22.384612
-19.443210
-17.073209
-15.906562
-16.183379
-15.743374
-12.640185
-8.515301
-5.468690
-3.163684
0.095682
4.904890
9.727893
13.036824
14.771598
17.636315
24.801966
32.696129
35.585161
36.047610
38.210234
39.004909
36.193496
33.014787
30.326818
25.196369
16.483445
4.878215
-9.067559
-23.420842
-34.583494
-40.301943
-40.773279
-37.544774
-32.124420
-24.199629
-14.849610
-8.621954
-7.306612
-8.425801
-8.322931
-4.342067
1.095355
5.127655
9.979414
15.878352
19.152447
18.678539
17.358986
18.724828
20.964137
18.430241
10.817566
1.032214
-9.579845
-16.563137
-16.561268
-13.111357
-8.214007
-1.145616
4.856660
8.791934
14.926773
22.980620
29.831346
36.394735
41.867227
42.591062
36.554882
24.776409
12.615442
2.771641
-7.370252
-18.145969
-28.303293
-35.351580
-35.732671
-30.964144
-24.051461
-14.230809
-1.775494
8.421572
11.052959
7.179404
3.687173
4.422464
5.520842
2.980634
-0.944356
-4.034456
-8.156537
-14.782119
-22.308288
-26.634007
-25.758204
-22.764899
-19.752890
-14.913989
-7.386654
1.548141
10.260361
17.347924
22.596437
26.267988
