EVENT_NAME: 202302060117
EVENT_ID: 13194
EVENT_DATE_YYYYMMDD: 2023/02/06
EVENT_TIME_HHMMSS: 01:17:32.00000
EVENT_LATITUDE_DEGREE: 37.288
EVENT_LONGITUDE_DEGREE: 37.043
EVENT_DEPTH_KM: 8.6
HYPOCENTER_REFERENCE: AFAD
MAGNITUDE_W: 7.7
MAGNITUDE_W_REFERENCE: AFAD
MAGNITUDE_L: 
MAGNITUDE_L_REFERENCE: 
FOCAL_MECHANISM: 
NETWORK: TK
STATION_CODE: 5102
STATION_NAME: 
STATION_LATITUDE_DEGREE: 37.96789
STATION_LONGITUDE_DEGREE: 34.673
STATION_ELEVATION_M: 1229.0
LOCATION: Kahramanmaras_Pazarck_Turkiye
SENSOR_DEPTH_M: 
VS30_M/S: 678
SITE_CLASSIFICATION_EC8: unknown
MORPHOLOGIC_CLASSIFICATION: 
EPICENTRAL_DISTANCE_KM: 221.98
EARTHQUAKE_BACKAZIMUTH_DEGREE: 
DATE_TIME_FIRST_SAMPLE_YYYYMMDD_HHMMSS: 2023/02/06 01:17:50.2729220
DATE_TIME_FIRST_SAMPLE_PRECISION: millisecond
SAMPLING_INTERVAL_S: 0.01
NDATA: 14501
DURATION_S: 
STREAM: HNE
UNITS: cm/s^2
INSTRUMENT: sensor = CMG-5T/GURALP | digitizer = 
INSTRUMENT_ANALOG/DIGITAL: 
INSTRUMENTAL_FREQUENCY_HZ: 
INSTRUMENTAL_DAMPING: 
FULL_SCALE_G: 
N_BIT_DIGITAL_CONVERTER: 
PGA_CM/S^2: 18.943
TIME_PGA_S: 
BASELINE_CORRECTION: BASELINE REMOVED
FILTER_TYPE: BUTTERWORTH
FILTER_ORDER: 
LOW_CUT_FREQUENCY_HZ: 
HIGH_CUT_FREQUENCY_HZ: 
LATE/NORMAL_TRIGGERED: 
DATABASE_VERSION: 
HEADER_FORMAT: DYNA 1.2
DATA_TYPE: Acceleration
PROCESSING: Automatic Paolucci et al., 2011
DATA_TIMESTAMP_YYYYMMDD_HHMMSS: 
DATA_LICENSE: U (unknown license)
DATA_CITATION: Turkish Accelerometric Archive v 1.0 - Disaster And Emergency Management Presidency, Earthquake Department
DATA_CREATOR: AFAD
ORIGINAL_DATA_MEDIATOR_CITATION: : AFAD - Disaster And Emergency Management Presidency
ORIGINAL_DATA_MEDIATOR: AFAD PROCESS SERVICE
ORIGINAL_DATA_CREATOR_CITATION: AFAD PROCESS SERVICE
ORIGINAL_DATA_CREATOR: network: TK
USER1: GuestUser
USER2: 
USER3: 
USER4: 
USER5: 
[...]
5.432745
5.343606
5.071742
5.242096
5.336949
5.564086
5.558377
5.442590
5.081268
4.833514
4.503281
4.366557
4.397647
4.619708
4.836060
5.167883
5.223399
5.401683
5.368059
5.199612
4.947417
4.387827
3.771136
2.936191
2.137728
1.249807
0.504004
-0.102853
-0.530476
-0.899411
-1.129083
-1.418394
-1.646163
-1.980203
-2.305044
-2.601968
-2.850040
-2.995963
-3.167900
-3.406454
-3.719557
-4.005696
-4.336564
-4.611917
-4.837782
-4.877434
-4.760375
-4.314668
-3.637383
-2.861123
-2.091841
-1.324146
-0.564699
0.204265
1.082672
2.072110
3.025384
3.966286
4.768876
5.264706
5.485816
5.424592
5.226643
4.981744
4.763175
4.549999
4.326672
4.036726
3.662398
3.204956
2.745610
2.307519
2.056275
1.939537
1.880216
1.862136
1.775534
1.458941
1.007209
0.398766
-0.290887
-0.958335
-1.485568
-1.882736
-2.191081
-2.410285
-2.646301
-2.834416
-3.060599
-3.225556
-3.453325
-3.581166
-3.665865
-3.624941
-3.583382
-3.578940
-3.599241
-3.671250
-3.728350
-3.682667
-3.383202
-2.892130
-2.154889
-1.311694
-0.374281
0.442584
1.060230
1.353985
1.405695
1.167458
0.675121
0.027976
-0.716876
-1.458872
-2.079370
-2.405797
-2.565678
-2.552988
-2.465114
-2.207523
-1.897906
-1.497244
-0.978257
-0.363783
0.322701
1.035833
1.751820
2.438304
3.073080
3.580330
4.004467
4.305836
4.507912
4.555815
4.534879
4.346130
4.059991
3.542593
2.810430
1.816554
0.670409
-0.526176
-1.528935
-2.421932
-3.099214
-3.570931
-3.895772
-4.051529
-3.926540
-3.839618
-4.108943
-3.671483
-3.845957
-4.006791
-3.949688
-3.914157
-3.621353
-3.393582
-3.001168
-2.758804
-2.563389
-2.474247
-2.667437
-3.140424
-3.649891
-4.385226
-5.022220
-5.640497
-6.050989
-6.264483
-6.179464
-5.929169
-5.556741
-5.031726
-4.543192
-4.122545
-3.882401
-3.811658
-3.942355
-4.111119
-4.471806
-4.798867
-5.025367
-5.076439
-4.943836
-4.668797
-4.383607
-4.085728
-3.767863
-3.373864
-2.810147
-2.230886
-1.675417
-1.180538
-0.670433
-0.232021
0.023984
0.116933
0.099804
-0.050243
-0.235186
-0.381744
-0.503876
-0.606973
-0.645674
-0.638059
-0.546061
-0.227244
0.285399
0.979497
1.818568
2.751222
3.743832
4.623509
5.382956
5.975541
6.363513
6.563686
6.582404
6.417129
6.058345
5.545705
4.898877
4.189556
3.471986
2.753464
2.152635
1.754832
1.487092
1.472501
1.556251
1.774506
1.978168
2.152646
2.208797
2.136153
1.893157
1.619073
0.955115
0.401553
-0.471776
-1.842203
-2.259357
-3.248157
-4.162726
-4.749280
-5.389763
-5.680661
-5.925877
-6.055939
-6.201863
-6.289099
-6.058789
-5.562959
-4.850462
-4.070078
-3.438791
-3.031785
-2.748499
-2.507403
-2.513429
-2.398591
-2.379873
-2.293268
-2.316424
-2.486140
-2.861420
-3.406417
-3.992020
-4.666129
-5.248877
-5.730428
-6.028939
-6.187234
-6.037501
-5.638426
-4.903405
-3.800717
-2.391903
-0.741360
1.016406
2.810970
4.481181
5.889677
6.924479
7.502788
7.675045
7.503109
7.170972
6.569508
5.770410
4.793982
3.612307
2.298981
0.929824
-0.364468
-1.544239
-2.368715
-2.779525
-2.779841
-2.389965
-1.695550
-0.830466
0.066976
0.802948
1.320667
1.594120
1.681042
1.642024
1.590952
1.650275
1.847593
2.223828
2.737740
3.248162
3.581254
3.708464
3.529232
3.125718
2.541702
1.899315
1.254074
0.689408
0.279550
0.089532
0.253223
0.683070
1.270262
1.901866
2.504602
2.797088
2.851336
2.587720
2.048750
1.333401
0.454996
-0.585829
-1.824289
-3.111601
-4.324999
-5.318241
-6.053258
-6.555112
-6.830783
-6.981465
-7.086148
-7.150544
-7.081387
-6.783825
-6.405687
-5.883844
-5.284915
-4.540377
-3.774586
-3.055744
-2.570383
-2.308350
-2.335947
-2.424135
-2.481552
-2.412078
-2.229670
-1.946700
-1.455311
-0.817363
-0.121996
0.434742
0.900435
1.296021
1.709689
2.155079
2.821578
3.360551
4.161238
5.019978
5.826692
6.413884
6.829138
7.064523
7.218698
7.335122
7.422362
6.685441
6.964286
6.628660
5.807039
5.509480
4.489909
4.127001
3.009406
2.650622
1.360771
1.213579
0.171167
-0.821123
-1.139619
-2.475785
-2.864705
-3.847796
-4.447356
-5.375566
-5.902481
-6.454775
-6.546452
-6.535982
-6.099791
-5.761307
-5.316868
-4.828017
-4.477477
-4.067934
-3.723105
-3.209193
-2.810752
-2.273048
-1.890468
-1.312793
-0.717988
0.008150
0.692731
1.557498
2.287126
3.212166
4.140379
5.128231
5.945730
6.633801
7.237172
7.643543
7.911603
8.025807
8.096233
8.177762
8.487379
8.934673
9.502831
10.018647
10.556351
10.997618
11.338323
11.533420
11.654286
11.618123
11.564196
11.390039
11.148947
10.732744
10.323838
9.851169
9.265566
8.547996
7.695922
6.842895
5.947995
5.175227
4.375495
3.431107
2.397895
1.325346
0.205530
-0.817848
-1.576657
-1.978267
-2.104523
-1.917039
-1.653421
-1.349831
-1.021498
-0.740749
-0.407340
0.067870
0.566555
0.977051
1.273026
1.381520
1.212439
0.866978
0.331498
-0.385437
-1.257497
-1.976336
-2.423944
-2.576847
-2.509910
-2.169205
-1.715884
-1.007828
-0.191597
0.808627
1.697186
2.470908
3.022888
3.241460
3.167230
2.574648
1.953516
0.938386
0.524721
-0.253122
0.041902
-0.130668
-0.081814
0.522191
0.354696
0.658920
0.390863
0.432105
0.173882
0.084108
-0.304496
-0.660425
-1.371016
-2.166624
-3.144004
-4.154375
-4.993761
-5.671360
-5.983511
-6.292173
-6.374334
-6.417158
-6.378772
-6.533578
-6.630014
-6.967861
-7.247973
-7.654658
-8.113369
-8.716419
-9.360075
-10.037674
-10.701949
-11.344336
-11.923277
-12.329962
-12.594529
-12.711585
-12.714121
-12.579615
-12.364532
-12.139933
-11.913430
-11.609206
-11.205372
-10.676233
-10.052243
-9.391771
-8.794745
-8.204064
-7.743764
-7.259671
-6.934827
-6.570647
-6.281968
-5.785186
-5.207828
-4.464877
-3.552526
-2.631292
-1.814744
-1.240558
-0.765348
-0.565493
-0.573739
-1.149825
-1.460073
-1.999995
-2.846359
-3.541723
-4.251362
-4.690405
-4.787475
-4.482300
-3.898597
-3.064284
-2.045344
-0.946145
0.043927
0.832242
1.334099
1.692252
1.918755
2.078640
2.354313
2.769567
3.286968
3.963619
4.779850
5.595763
6.224512
6.722880
6.970637
6.785694
6.282889
5.517100
4.626958
3.641964
2.652530
1.647551
0.541376
-0.586688
-1.570412
-2.310505
-2.977319
-3.181612
-3.054085
-2.718773
-2.094465
-1.347390
-0.473740
0.179435
0.721263
0.934442
0.801842
0.396108
-0.216141
-0.996522
-1.945035
-2.919242
-3.998453
-5.085594
-6.168294
-7.254484
-8.251532
-8.958950
-9.379911
-9.605142
-9.512192
-9.050623
-8.374290
-7.496834
-6.403345
-5.378377
-4.394967
-3.406798
-2.481758
-1.675044
-0.955567
-0.253539
0.286386
0.796809
1.181291
1.377023
1.394472
1.276782
1.026173
0.750820
0.441523
0.123979
-0.016869
0.038330
0.195043
0.557002
1.202247
1.939805
2.760478
3.547206
4.080786
4.385645
4.558853
4.334257
3.885380
3.193823
2.412173
1.538844
0.685183
-0.024139
-0.545027
-0.916817
-1.126504
-1.085580
-1.006588
-0.843848
-0.655413
-0.290598
0.052645
0.466947
0.989107
1.734913
2.477864
3.273792
4.006275
4.698470
5.287565
5.776099
5.944549
5.813535
5.497259
4.898333
4.246430
3.660510
3.108851
2.326566
1.874834
0.523759
-0.107208
-0.618261
-1.640371
-2.115895
-2.795397
-3.079633
-3.231584
-3.192246
-3.090731
-2.907371
-2.781747
-2.673253
-2.647874
-2.462610
-2.210729
-1.812289
-1.218752
-0.433292
0.394042
1.259126
2.242536
3.005156
3.513675
3.902916
4.084372
4.063120
3.780788
3.248479
2.689207
1.946893
1.235351
0.595502
0.265586
0.086036
0.283037
0.562834
0.982846
1.311179
1.517062
1.662672
1.737857
1.867922
2.016704
2.207994
2.438621
2.832621
3.372545
4.130089
4.967892
6.000473
6.919803
7.890524
8.505315
8.987504
9.040483
8.846023
8.351148
7.770938
7.124111
6.542632
6.110251
5.717206
5.351760
4.951736
4.515548
3.996564
3.697736
3.289464
3.402716
3.319287
4.032736
4.154870
4.469880
5.242016
5.533234
6.312349
7.007081
8.070750
8.994522
9.729225
10.236475
10.511831
10.457587
10.129574
9.387895
8.519959
7.426790
6.249239
5.180497
3.986133
2.680738
1.463216
0.364337
-0.732955
-1.602478
-2.365411
-2.847280
-3.136591
-3.406551
-3.639712
-3.909355
-4.259257
-4.645957
-5.096738
-5.612233
-6.040173
-6.547102
-6.836096
-7.119380
-6.769792
-7.198367
-6.919521
-5.696286
-5.666465
-4.850868
-4.214823
-3.345298
-2.525894
-1.895242
-1.406709
-1.146579
-0.997798
-1.268075
-1.734082
-2.636596
-3.799238
-4.930791
-6.133404
-7.235772
-8.065323
-8.782576
-9.203854
-9.665737
-9.995019
-10.337307
-10.458170
-10.496236
-10.479421
-10.490523
-10.281150
-9.924901
-9.481096
-8.989390
-8.535117
-7.974572
-7.390553
-6.730081
-6.104822
-5.395180
-4.721385
-4.022528
-3.303369
-2.667007
-2.152778
-1.417123
-0.508261
0.538595
1.705047
3.045022
4.444637
5.940372
7.279396
8.388111
9.280794
10.019939
10.609351
11.160062
11.751695
12.350941
13.031716
13.741358
14.444338
15.027089
15.486438
15.745932
16.059356
16.187835
16.323610
16.300454
16.435278
16.472712
16.785184
17.137310
17.613789
18.044904
18.522335
18.740272
18.879855
18.801818
18.581663
18.847502
18.127077
18.899531
18.429082
18.015100
18.406879
17.416175
16.624691
15.401776
14.009144
12.638400
11.276539
9.989227
8.895424
7.571630
6.475289
5.062671
3.503494
1.655956
-0.509446
-2.802056
-5.080708
-7.402821
-9.619613
-11.366907
-12.882307
-13.891093
-14.448145
-14.463053
-14.003070
-13.037741
-11.800865
-10.392368
-9.016229
-7.832647
-7.011975
-6.565315
-6.559921
-6.858431
-7.492887
-8.299915
-9.225904
-10.192499
-11.131494
-12.023540
-12.704945
-13.355580
-13.675662
-13.865046
-13.800012
-13.709284
-13.539565
-13.354936
-13.234070
-13.019939
-12.809615
-12.450511
-11.758316
-10.836131
-9.807357
-8.617430
-7.452565
-6.310857
-5.291917
-4.369097
-3.686420
-3.141419
-2.823555
-2.744563
-2.835923
-3.117621
-3.536678
-3.915765
-4.142899
-4.012834
-3.518273
-2.679836
-1.650427
-0.494444
0.695165
1.633212
2.362839
2.778727
2.825996
2.654060
2.302889
1.607525
0.734196
-0.246673
-1.355069
-2.538647
-3.608975
-4.757659
-5.845752
-6.869765
-7.690116
-8.383894
-8.700804
-8.805171
-8.575495
-8.199895
-7.629516
-7.068654
-6.512551
-5.952958
-5.561496
-4.789360
-4.640896
-3.973128
-3.449699
-2.906919
-2.227731
-1.682730
-0.942317
-0.355760
0.342462
0.942661
1.576802
2.067239
2.525636
2.727713
2.839696
2.722957
2.598605
2.502804
2.416836
2.404783
2.446342
2.636680
2.932974
3.324435
3.691471
4.138130
4.448381
4.903923
5.132329
5.525377
5.088555
4.730088
5.242097
4.481384
4.228871
3.795856
3.208033
2.783899
2.143416
1.833803
1.348444
1.056278
0.887514
0.850400
0.906868
1.106407
1.301504
1.546089
1.846506
1.887113
1.679964
1.260906
0.439286
-0.581555
-1.822552
-3.124457
-4.314380
-5.361868
-6.160965
-6.733561
-7.115503
-7.394346
-7.501567
-7.434631
-7.214155
-6.856637
-6.524497
-6.219639
-6.146357
-6.178396
-6.524808
-7.144988
-7.986277
-8.874516
-9.746576
-10.310925
-10.606897
-10.654480
-10.372462
-9.883294
-9.100055
-8.307616
-7.088505
-6.289404
-4.850453
-4.193471
-3.549812
-2.712962
-2.538801
-2.142264
-2.157489
-1.974764
-1.996334
-1.812657
-1.672441
-1.331735
-0.977707
-0.381632
0.422861
1.443070
2.697711
3.922533
5.156871
6.228788
7.041530
7.582406
7.802247
7.702639
7.325139
6.819478
6.261474
5.623211
5.093124
4.545906
4.137951
3.885122
3.875289
4.060235
4.577636
5.399578
6.512100
7.826063
9.299592
10.798816
12.201286
13.336014
14.127819
14.561789
14.629360
14.381923
13.852788
13.065427
12.130873
11.105909
10.245904
9.410959
8.894830
8.485289
8.327628
8.268308
8.164258
8.062747
7.735368
7.617043
6.859503
6.491836
5.756502
4.864773
3.834733
2.713332
1.751496
0.750641
0.084462
-0.582034
-0.829788
-1.150822
-1.243451
-1.410629
-1.476928
-1.632369
-1.686930
-1.692005
-1.577483
-1.442660
-1.147318
-0.823109
-0.498265
-0.217199
0.060378
0.307183
0.580953
0.868364
1.111680
1.375298
0.409973
0.577788
-0.109645
-1.392199
-2.403839
-3.941128
-5.051110
-6.156967
-6.751770
-7.187006
-7.203817
-7.012210
-6.602031
-6.190584
-5.630674
-5.143409
-4.641869
-4.085131
-3.526807
-3.007819
-2.431413
-2.124969
-1.802980
-1.579650
-1.511127
-1.587260
-1.881329
-2.365419
-3.212101
-4.188529
-5.524378
-6.904321
-8.348027
-9.590610
-10.756741
-11.575507
-12.269285
-12.651861
-13.002714
-13.329775
-13.709497
-13.793243
-13.705370
-13.136260
-12.229936
-10.904236
-9.427217
-7.831873
-6.203219
-4.815025
-3.349109
-2.589028
-1.293147
-1.299807
-0.997170
-0.965128
-1.282038
-1.190357
-1.260780
-0.834741
-0.325587
0.515705
1.225347
2.154829
2.839093
3.619477
4.156864
4.616847
4.858894
4.901087
4.683152
4.200649
3.593158
2.935861
2.272538
1.784641
1.462656
1.329421
1.344650
1.588600
2.151048
2.683360
3.599835
4.765335
5.876271
6.731521
7.642286
8.266277
8.465498
8.313547
7.833899
7.125846
6.288998
5.199002
4.045243
2.826769
1.478548
0.171885
-1.193148
-2.561672
-3.808379
-4.807648
-5.471606
-5.908428
-6.133976
-6.121920
-6.082265
-5.970916
-5.966156
-6.146657
-6.442630
-6.900072
-7.636041
-8.616594
-9.822061
-11.183288
-12.705032
-14.048812
-15.165138
-15.955987
-16.293200
-16.051153
-15.427163
-14.700390
-13.944432
-13.395308
-13.041279
-12.807797
-12.548937
-12.239955
-11.555057
-10.568474
-9.229133
-7.660435
-5.916945
-4.129360
-2.276108
-0.350528
1.593451
3.511734
5.231432
6.733194
8.004966
9.090524
9.991772
10.859711
11.746050
12.658401
13.603427
14.581127
15.571200
16.533673
17.432384
18.151860
18.666723
18.942714
18.790763
18.342520
17.676659
16.921022
15.990592
15.129000
14.246471
13.465139
12.693323
12.156573
11.792714
11.714994
11.791448
11.938961
12.145795
12.369760
12.508074
12.446533
12.294265
11.846022
11.376525
10.685285
10.133626
9.420180
9.138166
7.581526
6.909955
6.803050
5.372985
4.923473
4.159588
3.644410
3.370326
2.666397
2.834530
2.453540
2.349808
2.968405
2.951276
3.666311
3.911531
4.531397
4.964099
5.346044
5.566202
5.609981
5.445024
4.756322
4.274136
3.184457
2.298121
1.132942
-0.020183
-0.816108
-1.387436
-2.676017
-3.412620
-3.645782
-4.338291
-5.042537
-4.589850
-3.309513
-3.977278
-3.909072
-2.488838
-1.686882
-1.365845
-0.627653
0.299926
0.533725
0.762131
1.053666
1.309036
1.473680
1.384540
1.347426
1.162800
0.583859
-0.069630
-0.754208
-1.338859
-2.140177
-2.709601
-3.007160
-3.124850
-2.846322
-2.501810
-1.988850
-1.309979
-0.657438
-0.096259
0.447790
0.878588
1.256092
1.637719
2.101827
2.583064
3.078260
3.548394
3.897347
4.195861
4.495009
4.677100
4.843012
5.005118
5.150410
5.286502
5.464787
5.664008
5.852443
6.104959
6.234707
6.368579
6.392690
6.319412
6.124000
5.645621
5.032102
4.289471
3.500842
2.780100
2.113922
1.547670
1.057553
0.737471
0.479883
0.244818
0.078592
-0.100324
-0.411523
-0.887365
-1.544978
-2.303154
-3.002324
-3.645979
-4.233803
-4.737560
-5.176603
-5.512547
-5.656884
-5.682578
-5.564885
-5.492238
-5.303168
-5.286036
-5.376445
-5.613730
-5.942060
-6.505774
-6.987643
-7.495208
-8.066535
-8.514460
-8.847232
-9.081345
-9.323071
-9.330366
-9.369701
-9.285634
-9.248834
-9.009324
-9.201246
-8.969351
-9.437896
-9.109880
-9.260879
-9.749727
-9.136205
-9.389352
-8.877661
-8.713335
-8.217505
-7.861255
-7.268353
-6.659273
-5.815760
-4.798723
-3.740130
-2.073091
-0.776893
0.975480
2.830317
4.157604
5.293284
6.471156
7.430774
8.115355
8.746959
9.248816
9.412508
9.570807
9.470881
9.185377
8.798359
8.352972
7.847628
7.277252
6.589185
5.938868
5.335500
4.727374
4.143675
3.713832
3.386136
3.168836
2.985797
2.863982
2.843999
2.949955
3.198029
3.489881
3.902280
4.290252
4.733739
4.918368
5.038916
4.932646
4.847948
4.660150
4.833993
4.126257
3.898806
4.751201
4.228727
4.409866
4.587833
4.494569
4.601159
4.430175
4.209068
3.767170
3.364291
3.083862
2.886548
2.873860
3.089894
3.374767
4.023501
4.394661
4.871774
5.113504
5.271485
5.053868
4.897159
4.676369
4.642744
5.851704
4.151677
5.363493
6.095024
5.732115
8.905038
7.003888
6.115650
7.521609
7.078442
7.078126
7.323663
6.615927
6.062682
6.353265
5.784792
5.358439
4.969835
5.010125
4.806148
4.352196
4.311909
3.723134
3.469987
3.088997
2.366669
1.431480
0.583212
-0.436359
-1.479088
-2.203320
-3.132481
-3.661300
-3.962031
-3.974084
-3.860515
-3.509341
-3.111535
-2.729907
-2.494839
-2.127804
-1.894322
-1.870211
-1.801371
-1.839120
-1.797561
-1.854026
-1.964103
-2.243580
-2.362222
-2.493236
-2.500213
-2.511315
-2.416462
-2.383151
-2.211212
-2.069092
-1.917455
-1.835925
-1.931093
-2.160765
-2.479578
-2.844389
-3.243461
-3.565764
-3.856661
-3.826840
-3.808439
-3.416660
-3.169221
-2.470047
-2.177561
-1.216039
-0.543512
-0.011836
1.043586
1.266599
1.737685
1.613333
1.559406
1.074048
0.514140
-0.217705
-1.031395
-1.891717
-2.651161
-3.225344
-3.645670
-3.831247
-3.869948
-3.632659
-3.494346
-3.205983
-2.935068
-2.697463
-2.657173
-2.509343
-2.532182
-2.596578
-2.688572
-2.841792
-3.024832
-3.210409
-3.396621
-3.576488
-3.652938
-3.632634
-3.535243
-3.505740
-3.515255
-3.655786
-3.866741
-4.149390
-4.465031
-4.857124
-5.250804
-5.700950
-6.164736
-6.586966
-7.006658
-7.297555
-7.411756
-7.407631
-7.139888
-6.599329
-5.943616
-5.148956
-4.374599
-3.694142
-3.134549
-2.740867
-2.504530
-2.383982
-2.306576
-2.180952
-2.102595
-2.076581
-1.978556
-1.884020
-1.745072
-1.531258
-1.314272
-1.026227
-0.708997
-0.329590
0.136103
0.564046
0.969149
1.395823
1.800926
2.080089
2.231725
2.350053
2.133070
2.028386
1.971604
1.632488
1.869777
2.083590
1.935129
1.894208
1.914195
1.768271
1.626789
1.471983
1.340652
1.346998
1.480870
1.722283
2.021431
2.441760
2.871607
3.150770
3.395037
3.580618
3.683718
3.761124
3.782062
3.692923
3.595218
3.615839
3.579994
3.622187
3.743370
3.979072
4.266166
4.775319
5.302238
6.064223
6.692020
7.470818
8.039928
8.561136
8.709918
8.885347
8.949111
9.163559
9.583889
9.938235
10.949562
11.135776
12.103008
12.502084
12.699401
12.715582
12.464972
12.057335
11.528834
11.109776
10.376979
9.854188
9.178810
8.464095
7.544451
6.644792
5.770194
4.772511
3.562602
2.664212
1.761381
0.709452
0.012502
0.129561
-0.865266
-1.438497
-1.199305
-1.397254
-1.623120
-1.873729
-2.179853
-2.794006
-3.466529
-4.234221
-5.097716
-5.918702
-6.701304
-7.493105
-8.012724
-8.694130
-9.086223
-9.661040
-10.184148
-10.758014
-11.375973
-11.973314
-12.468189
-12.864723
-13.364674
-13.749154
-14.217699
-14.635805
-14.997127
-15.255984
-15.464401
-15.539266
-15.547512
-15.325450
-15.060246
-14.608193
-14.140597
-13.744059
-13.361163
-13.090565
-12.905619
-12.821235
-12.765084
-12.788240
-12.800293
-12.777451
-12.650875
-12.455144
-12.099211
-11.599575
-11.005087
-10.390613
-9.769160
-9.162935
-8.648388
-8.212197
-7.959047
-7.808997
-7.888302
-7.918755
-7.918436
-7.843886
-7.620872
-7.399128
-6.979433
-6.541973
-6.000145
-5.410415
-4.799431
-4.190985
-3.534003
-2.826898
-2.111863
-1.240117
-0.326180
0.639149
1.696791
2.750943
3.728961
4.422424
4.854174
4.981384
4.834826
4.485876
3.886316
3.150347
2.334436
1.489340
0.647734
-0.142798
-0.929207
-1.679768
-2.417641
-3.136162
-3.738895
-4.360027
-4.808904
-5.225424
-5.613393
