EVENT_NAME: 202302060117
EVENT_ID: 13194
EVENT_DATE_YYYYMMDD: 2023/02/06
EVENT_TIME_HHMMSS: 01:17:32.00000
EVENT_LATITUDE_DEGREE: 37.288
EVENT_LONGITUDE_DEGREE: 37.043
EVENT_DEPTH_KM: 8.6
HYPOCENTER_REFERENCE: AFAD
MAGNITUDE_W: 7.7
MAGNITUDE_W_REFERENCE: AFAD
MAGNITUDE_L: 
MAGNITUDE_L_REFERENCE: 
FOCAL_MECHANISM: 
NETWORK: TK
STATION_CODE: 5809
STATION_NAME: 
STATION_LATITUDE_DEGREE: 39.2308
STATION_LONGITUDE_DEGREE: 37.3824
STATION_ELEVATION_M: 1546.0
LOCATION: Kahramanmaras_Pazarck_Turkiye
SENSOR_DEPTH_M: 
VS30_M/S: 340
SITE_CLASSIFICATION_EC8: C
MORPHOLOGIC_CLASSIFICATION: 
EPICENTRAL_DISTANCE_KM: 218.05
EARTHQUAKE_BACKAZIMUTH_DEGREE: 
DATE_TIME_FIRST_SAMPLE_YYYYMMDD_HHMMSS: 2023/02/06 01:17:49.5973010
DATE_TIME_FIRST_SAMPLE_PRECISION: millisecond
SAMPLING_INTERVAL_S: 0.01
NDATA: 14501
DURATION_S: 
STREAM: HNZ
UNITS: cm/s^2
INSTRUMENT: sensor = GMS+/GEOSIG | digitizer = 
INSTRUMENT_ANALOG/DIGITAL: 
INSTRUMENTAL_FREQUENCY_HZ: 
INSTRUMENTAL_DAMPING: 
FULL_SCALE_G: 
N_BIT_DIGITAL_CONVERTER: 
PGA_CM/S^2: 19.561
TIME_PGA_S: 
BASELINE_CORRECTION: BASELINE REMOVED
FILTER_TYPE: BUTTERWORTH
FILTER_ORDER: 
LOW_CUT_FREQUENCY_HZ: 
HIGH_CUT_FREQUENCY_HZ: 
LATE/NORMAL_TRIGGERED: 
DATABASE_VERSION: 
HEADER_FORMAT: DYNA 1.2
DATA_TYPE: Acceleration
PROCESSING: Automatic Paolucci et al., 2011
DATA_TIMESTAMP_YYYYMMDD_HHMMSS: 
DATA_LICENSE: U (unknown license)
DATA_CITATION: Turkish Accelerometric Archive v 1.0 - Disaster And Emergency Management Presidency, Earthquake Department
DATA_CREATOR: AFAD
ORIGINAL_DATA_MEDIATOR_CITATION: : AFAD - Disaster And Emergency Management Presidency
ORIGINAL_DATA_MEDIATOR: AFAD PROCESS SERVICE
ORIGINAL_DATA_CREATOR_CITATION: AFAD PROCESS SERVICE
ORIGINAL_DATA_CREATOR: network: TK
USER1: GuestUser
USER2: 
USER3: 
USER4: 
USER5: 
[...]
-4.525237
-4.606801
-5.138023
-5.437792
-5.564036
-5.641444
-4.849668
-3.425877
-2.162103
-1.139134
-0.950799
-2.122609
-3.675758
-4.777431
-5.417496
-5.106551
-3.614960
-1.931401
-1.022990
-0.462927
-0.210429
-0.684243
-0.799057
-0.181586
0.481345
1.195190
1.946702
2.494556
2.561319
2.185698
1.986719
2.385725
3.255691
4.263854
4.708579
4.192943
3.136470
1.672421
0.487883
0.570232
1.061456
1.104581
0.985610
0.447634
-0.690406
-2.020415
-3.035065
-3.343407
-2.939205
-2.102229
-1.594380
-1.655942
-1.746078
-1.755686
-1.726849
-1.638785
-1.816723
-2.420160
-3.315577
-4.190473
-4.387114
-4.047854
-3.655341
-3.235813
-2.951624
-2.318826
-1.108304
-0.412903
-0.360946
-0.223006
0.092875
0.819968
1.788646
2.560679
2.575749
1.167550
-1.007224
-2.765330
-3.487222
-3.539692
-3.267712
-2.523993
-2.005753
-1.849110
-1.479197
-0.859388
-0.152296
0.130074
-0.168396
-0.452579
-0.369969
0.104110
1.120325
2.312144
2.838956
2.918708
3.216925
3.206277
1.942509
-0.232784
-2.201562
-3.750555
-4.363345
-3.439607
-2.075302
-1.139096
-0.755935
-0.777752
-0.845549
-1.282735
-2.088532
-2.580270
-2.476100
-2.104628
-1.263497
0.126525
0.893103
0.719841
0.234597
-0.373516
-0.925780
-1.215158
-1.255679
-1.252558
-1.407637
-1.607395
-1.323726
-0.631441
-0.284388
-0.174763
0.308668
0.873667
1.049013
1.076292
1.038629
1.136824
1.427767
1.280222
1.017860
1.399202
2.185523
2.933398
3.650360
3.816615
2.898079
1.579240
0.484321
-0.027418
0.628758
2.019039
2.715740
2.363238
1.515878
0.394723
-0.705131
-1.542360
-2.186841
-2.564281
-2.686369
-2.870801
-3.003799
-2.907682
-2.611803
-2.306832
-2.191232
-1.962893
-1.642077
-1.511151
-1.100714
0.118120
1.377738
1.961439
2.146137
1.889490
1.585824
1.942748
2.464365
2.983645
3.494611
2.829609
1.445308
0.544177
0.003603
0.389101
1.439346
1.804583
1.544558
1.277780
0.941643
0.398991
0.296386
0.934639
1.522237
1.720962
1.973720
2.379480
2.907851
3.388945
3.773404
4.423607
5.077965
5.653354
5.974950
5.916505
5.898584
5.544004
5.420358
6.262269
7.475128
9.092966
10.614690
10.794972
9.714340
8.110017
6.518941
5.452597
5.265567
5.948760
7.026540
7.730514
7.300861
6.043847
4.497452
2.398530
0.780179
0.667963
1.373755
2.150984
2.673900
2.928995
2.640396
2.132293
2.340890
2.552604
2.113859
2.062688
2.733931
3.312957
3.762618
4.353593
4.403991
3.787046
3.229587
2.730056
2.253645
2.164548
2.417045
2.737862
2.877620
2.413418
1.339540
0.194227
-0.597803
-0.574161
0.250346
1.492040
2.783349
3.938540
5.038920
5.408573
4.849036
3.849712
2.875845
2.907540
3.993113
5.045436
5.308844
4.731902
3.268633
1.365057
-0.134840
-0.981681
-0.961935
-0.634884
-0.568900
-0.431220
-0.552529
-1.243768
-1.537043
-0.974902
-0.762928
-1.317010
-2.093453
-3.074074
-3.864025
-3.910261
-3.764268
-3.996757
-3.902458
-3.160818
-2.275006
-1.548432
-1.088120
-1.075648
-1.753380
-2.469297
-2.426952
-1.420868
0.341921
2.313822
4.053751
4.432755
3.159636
1.832485
1.260479
1.109557
1.134497
1.609097
2.523743
3.100950
3.499177
3.921044
3.800255
3.388266
3.010306
2.476227
1.811743
1.271949
0.899964
0.795281
1.138178
1.419769
1.079217
0.166395
-0.515493
0.041713
1.837232
3.973047
5.493472
6.143414
6.235894
6.228105
6.576456
7.233672
7.921021
8.598239
9.004260
9.002964
8.821389
8.707874
8.925563
9.015965
8.962196
9.172611
8.873102
8.336684
8.553334
9.103006
9.394988
9.244586
8.683490
8.040827
7.625721
7.218148
6.769792
6.784082
7.030086
7.312976
7.688344
7.706790
7.592496
7.751996
8.143989
8.498056
8.193871
7.639529
7.567317
7.410680
7.133770
6.924401
6.131072
5.006540
4.408557
4.452981
4.535330
4.259200
3.607186
2.954132
2.881660
3.388990
4.315066
4.994362
4.714855
3.406927
1.287223
-0.552450
-1.312268
-1.248362
-0.855070
-0.940271
-1.682944
-2.745912
-3.806801
-4.293343
-4.163975
-3.462859
-2.315461
-1.293531
-0.872184
-1.033497
-1.776430
-3.483362
-5.183020
-5.691123
-5.575523
-5.468756
-5.612404
-6.154017
-6.950463
-8.081749
-9.260053
-10.029742
-10.199368
-9.788931
-9.341867
-8.804145
-8.449818
-8.898954
-9.389133
-9.673835
-9.848396
-9.095326
-7.579317
-6.355547
-5.637026
-5.409726
-5.837041
-6.193440
-5.614414
-4.156334
-2.619284
-1.707495
-1.246144
-0.961955
-1.056248
-1.669816
-2.488082
-2.929165
-2.681603
-2.000229
-1.055969
0.111691
0.987371
1.412355
1.230261
0.815934
1.256503
2.163876
3.437002
5.063412
5.822457
5.551262
4.556614
3.263752
2.734088
3.752901
6.113935
8.760713
10.799895
11.916380
12.063412
11.295022
10.234133
9.660049
10.064510
11.444401
12.620633
12.640638
11.875105
10.273639
8.282261
7.022130
6.111906
5.487687
5.128171
4.624485
4.164958
4.057417
4.536433
4.905306
4.776984
4.643726
4.787900
4.614638
4.028865
3.454261
2.411036
1.555883
1.244425
0.999726
0.935827
0.330311
-0.427429
-0.946442
-2.059285
-3.104069
-3.974548
-4.822687
-4.940359
-5.057251
-5.766934
-6.360241
-6.728848
-7.233834
-7.500353
-7.853634
-8.450058
-8.469018
-8.925687
-10.303493
-11.242032
-11.539463
-11.854818
-12.100815
-12.007815
-11.894293
-11.585166
-10.972111
-10.174620
-9.490389
-9.266985
-8.863562
-8.608727
-8.821474
-8.497280
-7.600039
-6.650584
-5.808933
-5.300564
-5.197693
-5.373812
-5.789697
-5.996729
-5.472515
-4.515007
-3.460606
-2.413218
-1.771848
-1.872116
-2.530884
-3.192770
-3.803221
-4.183778
-3.484999
-2.205379
-1.359572
-0.755868
-0.297115
-0.115534
0.031758
0.346859
0.575198
0.485581
0.558060
1.168518
2.010429
2.759862
3.071067
2.792599
2.462957
2.606092
3.085367
3.281235
2.712346
1.720555
0.971128
0.574725
0.400944
0.391595
0.486933
0.447711
-0.187418
-1.375074
-2.482721
-2.917830
-2.458037
-1.780819
-1.653530
-1.959533
-2.687919
-3.840766
-4.688906
-5.089984
-5.311823
-4.952041
-4.333531
-4.040509
-3.899712
-3.798399
-3.861260
-3.927498
-3.519659
-2.776979
-1.786481
-0.414384
0.857703
1.792351
2.271366
1.793916
0.686528
-0.242139
-1.207174
-2.281051
-2.974109
-3.140617
-3.057229
-3.026573
-2.939548
-3.220873
-4.010824
-4.484118
-4.426187
-4.487489
-4.897400
-5.211456
-5.770993
-6.723040
-7.552216
-8.172538
-8.232801
-7.607537
-6.838101
-6.202186
-5.885786
-6.440127
-7.356586
-7.463867
-7.060184
-6.397513
-5.287262
-4.810585
-5.573000
-6.429192
-6.639082
-6.705319
-6.914949
-7.029244
-6.967676
-6.649976
-5.944184
-5.194750
-4.925628
-5.175002
-5.481265
-5.507239
-5.256560
-4.860410
-4.494654
-4.014340
-3.657416
-3.674817
-3.650136
-3.687020
-3.611165
-2.890306
-1.839022
-1.037375
-0.806958
-1.155823
-1.822904
-2.224762
-2.035647
-1.072685
0.678154
2.034146
2.374705
2.447703
2.322238
1.880376
1.636197
1.560088
1.548142
2.139377
3.090650
3.562911
3.721373
3.656434
3.062608
2.395527
1.799362
1.024737
0.487281
0.331163
0.203880
0.183362
0.337407
0.537951
0.700569
0.926570
1.534950
2.181515
2.591432
3.001089
3.428670
4.096277
4.836359
5.515655
6.481735
7.263380
7.267799
6.650074
5.772061
4.606226
3.240369
2.292999
2.218708
2.859819
3.612370
4.715087
6.160180
6.790899
6.358648
5.251261
3.752923
2.404730
1.852467
2.100288
2.399025
2.121596
1.357881
0.692099
0.033331
-0.586732
-0.838185
-1.070414
-1.273549
-1.247570
-0.924675
-0.475793
-0.263559
-0.372139
-0.900764
-1.408087
-1.587584
-1.254039
0.031556
1.312215
1.754083
1.591212
0.691379
-0.577325
-1.495861
-2.020329
-2.370753
-2.500115
-2.187870
-1.584686
-0.966955
-0.955522
-1.979264
-3.199911
-3.848288
-3.744378
-3.087682
-2.514890
-2.287590
-2.273560
-2.412532
-2.553324
-2.437984
-2.184187
-1.832718
-1.219922
-0.731815
-0.484773
-0.371771
-0.642965
-0.972348
-1.254972
-1.662285
-2.006215
-2.504187
-3.100092
-3.614949
-4.410095
-5.540082
-6.417575
-6.555509
-6.218067
-5.833088
-5.395116
-5.197430
-5.684492
-6.523799
-7.225169
-7.491168
-7.041767
-6.066335
-5.047262
-4.107679
-3.440332
-3.408117
-3.752567
-3.919854
-3.714115
-3.282897
-2.792192
-2.372404
-2.236802
-2.398375
-2.350314
-1.714659
-0.960030
-0.727795
-1.135627
-1.818034
-2.327696
-2.547716
-2.342497
-1.599297
-0.844149
-0.357601
0.273379
1.180751
2.215150
3.366445
4.462669
5.117287
5.203533
5.058845
5.172627
5.484611
5.742044
5.835824
5.605412
5.292395
5.156280
5.423844
6.268353
7.044023
7.264829
7.259377
7.081439
6.548398
5.570375
4.068140
2.770862
2.449792
2.875035
3.729675
4.462483
4.390531
3.576681
2.593203
2.071072
2.269018
3.031960
3.532016
3.161850
2.365405
1.384005
0.726016
1.026830
1.491298
1.313620
0.755642
0.200780
-0.260305
-0.688139
-0.978557
-0.982190
-0.380305
0.893600
2.192703
2.968632
2.834855
1.688762
0.004690
-1.389741
-2.102282
-2.213459
-1.863029
-1.584035
-1.664041
-2.017582
-2.304362
-2.465156
-2.903641
-3.462658
-3.997258
-4.798639
-5.703147
-6.187611
-6.289697
-6.268393
-6.380610
-6.690250
-6.972615
-7.541243
-8.340027
-8.777213
-8.801368
-8.619268
-8.338975
-7.982830
-7.590318
-7.117537
-6.210424
-4.498291
-2.777585
-2.094133
-2.171540
-2.773420
-3.437123
-3.624153
-3.701301
-3.689868
-3.800267
-4.190435
-4.526572
-5.016491
-5.337301
-4.895692
-3.938185
-2.869496
-2.082656
-1.841589
-2.125252
-2.666865
-3.056514
-3.161977
-2.905063
-2.337207
-1.657911
-0.753136
-0.012535
0.132679
0.254253
0.369074
-0.035122
-0.548680
-0.736749
-0.534127
0.105425
0.708089
1.168142
1.735997
2.069283
2.604408
3.804019
4.575013
4.487475
3.871049
2.777169
2.485972
3.561674
4.659976
5.072750
4.852990
4.194222
3.443755
2.974358
2.876168
2.849415
2.725509
2.502372
2.338461
2.334308
2.570700
3.209992
3.819411
3.606924
2.507849
1.146668
0.038241
-0.224381
0.657794
2.011188
2.625023
1.891441
0.638843
-0.198905
-0.319175
0.300115
1.558954
3.008981
3.813745
3.851675
3.174722
1.798995
0.524057
0.410282
1.313757
2.382446
3.356059
3.591672
3.380743
3.328793
2.700677
1.317936
-0.486150
-1.708355
-1.680556
-0.919433
-0.155193
-0.252603
-1.133992
-2.132017
-2.564268
-2.455422
-2.446587
-2.558544
-2.973910
-3.679177
-4.347297
-4.324174
-3.266656
-2.060031
-1.316572
-1.680763
-2.973625
-4.273761
-5.232561
-4.642625
-2.916983
-1.733737
-1.281998
-1.316024
-0.884287
-0.201614
-0.091209
0.061537
-0.061330
-0.713344
-0.953886
-0.729963
-0.750222
-0.492529
0.591226
1.525354
2.017618
2.138413
0.967642
-1.281166
-2.724693
-2.702090
-1.954735
-0.840067
-0.078685
-0.251427
-0.628087
-0.735628
-0.792774
-0.306226
0.961705
2.393549
3.568482
4.116855
3.915278
3.414449
3.108705
3.240670
3.729037
3.895032
3.512397
3.364332
3.578384
3.991159
4.602915
4.638766
4.268340
4.866329
5.868517
5.975285
5.721754
5.386397
4.932845
4.737503
4.519301
3.712725
2.223478
0.868272
0.353935
0.795024
1.643689
1.871508
1.426269
0.808544
0.273165
-0.139083
-0.699919
-1.772757
-3.007951
-3.625416
-3.787768
-3.836082
-3.669567
-3.253416
-2.648154
-2.164982
-1.848582
-1.540494
-1.410087
-1.859483
-2.915956
-3.979183
-4.745495
-5.089684
-4.947069
-4.352457
-3.480673
-3.199341
-3.658088
-4.200740
-4.666501
-5.264483
-5.668939
-5.125501
-4.023303
-2.768621
-1.274433
-0.139503
0.360033
0.546810
0.585778
0.620590
1.396780
3.213600
5.264730
7.008036
8.084257
8.139072
7.411984
6.843096
7.142611
7.762940
8.288713
8.795524
8.872938
8.667464
8.470304
7.910247
7.634377
8.396799
9.288845
9.427304
9.136367
8.836858
8.412920
8.117307
8.629053
9.746578
10.375739
10.459907
10.309764
9.640605
9.043142
8.557898
8.126427
8.380223
8.948598
9.585812
10.127172
10.064831
9.277737
8.358681
8.154766
8.503118
9.548947
11.796722
14.121648
15.153189
15.135009
15.065394
15.217361
15.396604
15.760283
15.885754
14.646924
12.332654
10.349589
8.940871
7.752955
7.119384
6.732333
5.851983
5.252961
5.627030
6.267621
6.504272
6.259314
5.244664
3.563709
2.312410
1.938087
1.962249
1.536752
0.608604
-0.174593
-0.853104
-1.702282
-2.997741
-4.537902
-6.010004
-6.798137
-6.289768
-5.075609
-3.613373
-2.423373
-1.724074
-0.966068
-0.624471
-0.927617
-1.040093
-1.129450
-1.624824
-2.125914
-2.535564
-2.928071
-3.078993
-3.035349
-3.393566
-4.038047
-4.034926
-3.686574
-4.062196
-5.012683
-6.113057
-7.461250
-8.374850
-8.114820
-7.490854
-7.330574
-6.908968
-6.382675
-6.389426
-5.966520
-5.257870
-5.336577
-5.770386
-5.814803
-5.907797
-6.270690
-6.133010
-5.469559
-4.849490
-4.617255
-4.576728
-4.256171
-3.994062
-3.988864
-3.742081
-2.973425
-2.091769
-1.623924
-1.348307
-1.153478
-1.353496
-1.806528
-1.560265
-0.138033
1.762952
4.087618
6.512555
8.102338
9.371827
10.871989
12.360722
13.486040
14.035193
14.135986
13.765040
13.141860
12.521537
11.998108
11.927714
11.993439
11.454423
10.795915
10.502380
10.117147
9.923883
10.138974
10.280551
10.276138
10.182105
10.141065
10.632289
11.660713
12.498468
12.905787
13.219850
12.929952
11.509284
9.622333
7.767073
6.052089
4.690908
3.970575
3.724837
3.215695
2.711489
2.261574
1.233935
-0.076851
-1.495181
-2.750636
-3.048587
-2.570610
-2.218882
-2.454228
-3.712281
-5.649887
-6.934436
-7.628793
-8.277690
-8.894636
-9.940458
-11.299821
-12.374218
-13.084420
-13.792804
-14.311817
-13.836699
-12.913480
-12.521747
-12.438618
-12.763845
-13.474827
-14.034364
-14.625852
-15.383332
-16.064181
-16.627355
-17.357299
-18.016847
-18.080747
-18.057105
-18.398177
-18.973300
-19.560892
-19.454124
-18.131643
-15.941536
-13.716101
-11.919543
-10.539653
-9.923740
-9.957507
-9.552266
-8.420194
-7.447880
-6.957175
-6.631683
-6.621548
-6.820528
-6.612450
-6.161230
-5.721700
-4.869918
-4.280501
-4.711713
-5.180851
-5.123439
-5.098758
-5.177984
-5.375145
-5.698033
-5.356435
-4.300475
-2.519504
-0.494350
-0.068067
-0.574352
-1.180907
-2.317648
-2.678723
-1.491320
0.407586
1.948013
2.714591
2.746546
2.311438
1.820480
1.453171
1.493957
1.856337
2.021293
2.166506
2.786056
2.990496
2.328351
1.671401
1.207978
0.838591
0.309707
-0.390625
-0.921068
-1.562432
-2.033128
-1.776474
-1.367337
-1.179781
-1.363434
-2.049478
-2.807997
-3.166474
-2.690316
-1.792815
-1.388613
-2.022443
-3.312188
-4.460359
-5.571903
-6.315615
-6.409388
-6.359770
-6.139743
-5.699433
-5.078845
-4.273561
-3.209289
-1.717698
-0.366642
0.195499
-0.187916
-1.403107
-2.842738
-3.723348
-3.656844
-2.900916
-1.944967
-1.011618
-0.327646
-0.218281
-0.201912
0.610126
1.879095
3.226774
4.530033
4.838900
4.142725
3.276142
2.602827
2.081476
1.694165
1.303477
0.551972
0.165440
0.580812
1.534423
2.995621
3.971832
4.337588
4.665418
4.482025
4.365133
4.837914
5.260559
5.466818
5.564754
5.511764
5.017169
4.176823
3.249974
2.533018
2.500030
2.893062
3.197773
2.890471
1.911668
0.729727
-0.049313
0.129929
1.151860
2.717224
4.002559
4.443128
4.214016
3.621489
3.500700
3.834505
4.134280
4.207018
3.632674
2.544510
1.352438
0.135168
-1.097427
-2.042460
-2.435746
-2.224811
-1.216129
0.040631
0.897089
1.755885
2.410763
2.468435
2.588710
3.090585
3.929898
5.254978
6.226253
6.337956
6.535123
6.741122
6.572536
6.395118
6.134314
5.460479
4.492847
3.913567
3.761087
4.024494
4.624302
4.733667
4.663793
4.990584
5.499732
6.301379
7.441503
8.219252
8.011440
7.227983
6.310486
5.216087
4.191306
3.293031
2.412681
1.650005
0.903695
0.721601
1.518053
2.621290
3.457746
3.776484
3.701674
3.665050
4.136792
4.808035
5.272503
5.936733
6.645383
7.092966
6.857100
5.569953
4.286183
3.792887
3.808216
4.089029
4.204109
3.701201
2.567577
1.347970
0.703748
0.605819
0.326572
-0.343626
-0.883421
-1.181891
-1.175134
-0.849642
-0.304126
-0.294771
-1.593348
-2.898419
-3.217151
-2.922312
-2.063516
-1.011972
-0.600756
-0.795060
-0.967802
-1.158469
-1.508373
-1.748396
-1.748652
-1.585255
-1.095070
-0.505134
-0.051316
0.682791
0.959187
0.576033
0.307696
-0.122997
-0.127929
0.221202
-0.259106
-0.998142
-1.588332
-2.045001
-1.716132
-1.235558
-1.339981
-1.600785
-1.966016
-2.294879
-2.046018
-1.547001
-1.990941
-2.977277
-3.496810
-4.010887
-4.254287
-4.080499
-4.217653
-4.428841
-4.266743
-3.820718
-3.103756
-2.456671
-2.591487
-3.152323
-3.717056
-4.490641
-4.937439
-5.120313
-5.308122
-4.959250
-4.381004
-3.823019
-3.248409
-2.876678
-2.486764
-2.360513
-2.656386
-2.708077
-2.441552
-1.990072
-1.165825
-0.060510
1.108709
2.012964
2.163373
1.593445
0.828432
0.005230
-0.401823
0.086024
0.891828
1.838685
2.490705
2.324717
2.001309
1.827527
2.053528
2.653595
3.533692
4.898256
5.933694
6.393227
6.603902
6.515584
6.423369
6.723664
7.379321
7.808461
7.708454
7.390501
7.002670
6.495087
6.031924
5.273405
4.203943
3.622586
3.286449
2.677816
1.923193
1.243124
0.597604
-0.097272
-0.642782
-1.239985
-1.746270
-1.888360
-1.504679
-0.720697
-0.358837
-0.558595
-1.027733
-1.417122
-2.013286
-2.208889
-1.425166
-1.091101
-1.308004
-1.733241
-1.841042
-1.463856
-1.330592
-1.261750
-1.662309
-2.488628
-3.147396
-3.065566
-2.413026
-2.160269
-2.014795
-1.956604
-2.382101
-2.753826
-2.417423
-2.106478
-2.041793
-1.413930
-0.805291
-0.538247
-0.434596
-0.567594
-0.820605
-1.025039
-0.880605
-0.649928
-0.574592
-0.381062
-0.161036
0.020285
0.411499
0.801933
0.783233
0.636208
0.773888
1.234719
1.640740
1.413965
0.747404
-0.037092
-0.893024
-1.350732
-0.786513
0.298540
0.544284
0.317510
0.302966
-0.132922
-0.665703
-0.491915
0.069966
0.386886
0.409489
0.573925
1.133988
1.291930
0.580689
-0.262515
-1.306519
-2.575482
-3.373486
-4.024202
-4.596987
-4.404756
-3.880541
-3.508030
-2.982517
-2.518828
-2.380888
-2.568957
-3.296824
-4.171199
-4.590202
-4.641893
-4.609419
-4.803462
-5.506131
-6.535329
-7.267352
-7.801431
-8.442535
-8.815559
-8.980509
-8.872702
-8.401220
-7.794659
-6.902353
-6.124085
-5.650265
-5.320876
-5.500373
-5.777802
-5.806373
-5.774678
-5.496983
-5.181362
-5.157461
-5.249156
-5.399039
-5.664518
-5.726600
-5.722700
-6.028184
-6.269505
-6.023242
-5.402134
-5.009622
-4.830379
-4.364871
-3.878842
-3.308649
-2.618442
-1.923560
-1.094118
-0.457164
0.148358
0.334095
-0.132964
-0.564955
-1.066824
-1.337499
-1.082923
-0.637938
-0.048001
0.478032
0.733387
0.776511
0.501160
0.160867
0.127880
0.110738
0.339597
1.252944
2.392289
3.169258
3.103280
2.239295
1.251921
0.502493
0.258574
0.725121
1.651456
2.549217
2.808469
2.556497
2.570527
2.574167
2.052297
1.508606
1.235852
1.144677
1.088570
1.115329
1.389907
1.534341
1.572790
1.667868
1.492528
0.917665
0.252662
-0.158808
-0.628984
-1.124878
-1.072142
-0.704308
-0.354917
0.081237
0.537132
0.821581
0.963937
1.250984
1.262157
0.456880
-0.555173
-1.107177
-1.018853
-0.608676
-0.268896
-0.120826
-0.503201
-1.337053
-2.306763
-3.248679
-3.922254
-4.353465
-4.543093
-4.308519
-3.749755
-3.177484
-2.736654
-2.493508
-2.604946
-2.679496
-2.283866
-1.828230
-1.447408
-1.014112
-0.516393
0.103676
0.615422
0.839605
0.752326
0.547112
0.626864
1.223035
2.123134
2.944523
3.184552
2.636444
1.935334
1.587248
1.771946
2.429422
2.812323
2.216418
1.055259
0.088406
-0.449571
-0.374495
0.156474
0.798624
1.351673
1.359988
0.766422
0.171816
0.020374
