EVENT_NAME: 202302060117
EVENT_ID: 13194
EVENT_DATE_YYYYMMDD: 2023/02/06
EVENT_TIME_HHMMSS: 01:17:32.00000
EVENT_LATITUDE_DEGREE: 37.288
EVENT_LONGITUDE_DEGREE: 37.043
EVENT_DEPTH_KM: 8.6
HYPOCENTER_REFERENCE: AFAD
MAGNITUDE_W: 7.7
MAGNITUDE_W_REFERENCE: AFAD
MAGNITUDE_L: 
MAGNITUDE_L_REFERENCE: 
FOCAL_MECHANISM: 
NETWORK: TK
STATION_CODE: 3805
STATION_NAME: 
STATION_LATITUDE_DEGREE: 38.1057
STATION_LONGITUDE_DEGREE: 35.357183
STATION_ELEVATION_M: 1183.0
LOCATION: Kahramanmaras_Pazarck_Turkiye
SENSOR_DEPTH_M: 
VS30_M/S: 384
SITE_CLASSIFICATION_EC8: B
MORPHOLOGIC_CLASSIFICATION: 
EPICENTRAL_DISTANCE_KM: 173.97
EARTHQUAKE_BACKAZIMUTH_DEGREE: 
DATE_TIME_FIRST_SAMPLE_YYYYMMDD_HHMMSS: 2023/02/06 01:17:42.0103810
DATE_TIME_FIRST_SAMPLE_PRECISION: millisecond
SAMPLING_INTERVAL_S: 0.01
NDATA: 13501
DURATION_S: 
STREAM: HNN
UNITS: cm/s^2
INSTRUMENT: sensor = ACEBOX/SARA | digitizer = 
INSTRUMENT_ANALOG/DIGITAL: 
INSTRUMENTAL_FREQUENCY_HZ: 
INSTRUMENTAL_DAMPING: 
FULL_SCALE_G: 
N_BIT_DIGITAL_CONVERTER: 
PGA_CM/S^2: 22.554
TIME_PGA_S: 
BASELINE_CORRECTION: BASELINE REMOVED
FILTER_TYPE: BUTTERWORTH
FILTER_ORDER: 
LOW_CUT_FREQUENCY_HZ: 
HIGH_CUT_FREQUENCY_HZ: 
LATE/NORMAL_TRIGGERED: 
DATABASE_VERSION: 
HEADER_FORMAT: DYNA 1.2
DATA_TYPE: Acceleration
PROCESSING: Automatic Paolucci et al., 2011
DATA_TIMESTAMP_YYYYMMDD_HHMMSS: 
DATA_LICENSE: U (unknown license)
DATA_CITATION: Turkish Accelerometric Archive v 1.0 - Disaster And Emergency Management Presidency, Earthquake Department
DATA_CREATOR: AFAD
ORIGINAL_DATA_MEDIATOR_CITATION: : AFAD - Disaster And Emergency Management Presidency
ORIGINAL_DATA_MEDIATOR: AFAD PROCESS SERVICE
ORIGINAL_DATA_CREATOR_CITATION: AFAD PROCESS SERVICE
ORIGINAL_DATA_CREATOR: network: TK
USER1: GuestUser
USER2: 
USER3: 
USER4: 
USER5: 
[...]
-4.329678
-4.648812
-5.780626
-7.606116
-9.312603
-9.783238
-8.847115
-7.237188
-5.399075
-3.938779
-3.093369
-1.977923
-0.234732
1.839517
4.133768
6.097430
7.256362
7.544399
6.732187
5.131376
3.351944
1.611088
0.206433
-1.006274
-2.378899
-3.780515
-5.306043
-6.610399
-6.957823
-6.357199
-5.038817
-3.433099
-1.623976
0.416839
1.461444
1.110513
0.117341
-1.249205
-2.094617
-1.693889
-0.311681
1.566178
2.887833
3.295574
3.332981
2.779581
1.307826
-0.766658
-2.791109
-3.914039
-3.393841
-1.325905
1.260827
3.767600
5.847693
6.732147
6.243978
4.262778
0.827360
-2.604551
-4.419286
-3.850926
-1.188210
2.143400
4.770812
6.033083
6.169386
5.573903
3.966779
1.631611
-0.674800
-2.922528
-5.100584
-6.585198
-6.873939
-6.168573
-4.942775
-3.762334
-2.994545
-2.649227
-3.399016
-5.375306
-7.076649
-7.509643
-6.680131
-5.235265
-4.233913
-3.372371
-1.719893
0.340562
1.854632
2.087960
0.582071
-1.936394
-4.022802
-5.391920
-5.972440
-4.990258
-2.899644
-1.123254
-0.266855
0.017909
0.185774
0.125687
-0.095720
-0.307308
-0.643509
-0.700791
-0.092217
1.193900
2.871862
3.980528
4.140912
3.732934
2.834918
1.436809
-0.349403
-2.181673
-3.487900
-3.617658
-2.427865
-0.748266
0.985106
2.837013
4.084320
4.070057
3.055142
1.870257
1.300258
1.565149
2.891480
5.410411
8.291493
10.278068
10.636945
9.497650
7.512944
5.622458
4.916156
5.239730
5.374396
5.125869
4.964781
4.974600
5.121657
5.045906
4.561009
4.140641
3.666031
2.534919
1.046331
-0.066779
-0.525724
-0.696164
-1.173812
-1.558878
-1.280894
-1.237876
-2.106200
-3.151976
-4.033159
-4.962972
-5.341959
-4.695043
-3.723616
-2.534290
-0.421466
1.786982
2.677515
2.100502
0.226850
-2.429088
-4.981220
-7.012919
-8.099376
-8.136551
-7.749618
-7.342812
-6.881764
-6.255890
-5.558708
-4.964396
-4.575592
-4.663735
-5.339644
-6.434751
-7.458083
-7.424651
-5.894917
-3.421577
-0.580473
2.325859
4.604447
5.513683
5.528645
5.022707
3.248418
0.796351
-0.764013
-1.075899
-0.517826
0.255808
1.309297
3.276466
5.675927
7.917808
9.663571
10.806604
12.100204
13.103894
12.666926
10.975402
8.219399
4.544105
0.882371
-1.918054
-3.585965
-3.954196
-2.822619
-0.839785
1.060050
2.359261
2.483874
1.942866
1.506131
0.591048
-0.890994
-2.308742
-3.213772
-3.243232
-2.950986
-2.790602
-1.945426
0.039278
2.682588
5.297844
6.748087
6.452800
5.347639
3.855778
1.750432
-0.231234
-1.481116
-2.117513
-2.616671
-3.481021
-4.581038
-5.823437
-7.358318
-9.210694
-11.019351
-11.980259
-11.887910
-10.671698
-8.251663
-5.429731
-2.681913
-0.398884
0.249435
-1.125294
-3.619211
-5.961627
-7.251955
-7.468920
-7.055801
-5.855019
-3.552585
-1.140500
0.195417
0.620459
0.377309
-0.786301
-2.582333
-4.388184
-5.537065
-5.031128
-2.706483
0.291966
3.126756
5.294056
6.117021
5.504004
3.639937
1.066530
-0.956285
-1.735299
-1.400502
-0.470925
-0.084927
-0.963538
-2.473870
-3.483174
-3.142298
-1.165076
1.473559
3.011710
3.008904
2.400562
1.523354
0.028687
-1.910195
-3.597277
-4.739612
-5.317092
-4.933666
-3.846743
-3.078954
-2.835572
-2.914831
-3.540239
-4.515876
-4.958222
-4.326035
-2.773622
-0.620351
1.606801
3.407740
4.660893
5.284663
5.182025
3.987787
1.695638
-0.542738
-1.830729
-2.200129
-1.892453
-1.151784
-0.211453
0.681418
1.352415
1.456687
0.795975
-0.278324
-1.751482
-3.742734
-5.935754
-7.922564
-9.160521
-9.294255
-8.161040
-5.668061
-2.345102
0.608458
1.807369
0.926420
-1.247194
-3.920667
-6.113452
-7.192662
-6.739096
-4.143947
-0.222233
3.772660
7.513415
10.820009
13.429419
14.403183
13.229286
10.583635
7.130916
3.862663
1.245535
-0.934157
-2.187779
-2.438879
-2.123020
-1.304730
-0.088986
1.198535
2.047685
1.936163
0.615441
-1.198827
-2.217249
-2.317549
-2.151787
-1.954931
-1.900925
-2.081184
-2.267288
-2.264483
-1.850429
-1.145765
-0.693836
-0.438531
-0.337064
-0.604996
-0.929742
-1.352215
-2.127487
-2.983888
-3.521856
-3.492399
-2.888969
-1.571289
0.125844
1.432770
2.470361
3.430565
4.336763
5.630596
7.546797
10.202967
13.208195
15.165078
14.864881
12.405800
8.697774
4.510464
0.817635
-1.573410
-3.022019
-3.835635
-3.392122
-1.435006
0.998822
2.509151
2.748559
2.100471
0.604869
-2.284632
-6.487139
-10.030805
-11.228550
-10.619509
-9.289204
-7.846675
-6.376326
-4.793519
-3.317558
-1.683316
0.267487
2.065387
3.410889
3.751063
2.781972
1.331961
0.609526
1.157546
2.244234
2.923414
2.886707
2.080339
1.261347
1.465684
2.688911
4.359625
5.900348
6.844186
7.167760
7.052264
6.293357
4.788636
3.164679
1.699705
-0.012160
-2.056250
-4.130501
-5.671460
-6.371216
-6.301078
-5.037639
-2.725151
-0.632199
0.695067
1.283534
0.763802
-0.612798
-2.038261
-3.184804
-3.675078
-2.907522
-0.971214
1.133428
2.447367
3.094517
3.644641
4.237783
4.582166
4.018947
2.646088
1.338459
0.317933
-0.571667
-1.297140
-1.490726
-0.764786
0.601524
2.347988
4.267229
5.690820
6.315525
6.374674
5.942148
4.744170
2.623160
-0.200878
-3.438036
-6.590325
-8.864940
-9.682530
-9.114404
-7.561290
-5.175624
-2.236325
0.564799
2.461829
3.111550
2.964958
2.603740
2.173085
1.239297
-0.718990
-3.125232
-5.051489
-5.973820
-5.524930
-4.097132
-1.907154
1.225261
4.296888
6.340743
7.634342
8.215327
7.640653
6.297252
4.961100
3.835833
2.960495
1.863984
0.059302
-1.799387
-3.265297
-4.361106
-4.925260
-5.091724
-4.384722
-2.162948
0.762088
3.392774
5.596546
6.932229
6.626655
4.630025
1.123299
-3.464974
-7.594302
-10.110195
-11.108511
-10.630630
-8.665098
-5.657998
-2.376421
0.276709
1.866997
2.487260
1.884764
-0.061833
-1.956527
-2.503614
-2.503148
-2.865768
-3.273044
-3.461720
-3.416130
-3.044861
-2.276137
-0.975757
0.719038
1.986452
1.996738
0.991408
-0.220598
-1.253281
-1.924748
-1.906747
-0.629747
2.066870
5.412975
8.339180
10.004050
10.711285
11.211143
10.829585
9.064648
6.491708
3.547498
0.979468
-0.493924
-0.931827
-0.750635
-0.474989
-0.627660
-1.311986
-1.955163
-2.265413
-2.267284
-1.743813
-0.897468
0.219380
1.812474
3.408607
4.196035
3.857261
3.024241
1.966775
0.395890
-0.955693
-1.361333
-0.929744
0.575208
3.451615
6.634997
8.647757
9.551850
9.943225
9.902310
9.200683
7.634006
5.607451
3.257553
0.663572
-1.438267
-2.460897
-1.701525
0.896663
4.022532
6.380844
7.039917
5.437937
2.004156
-1.624613
-3.871873
-4.789295
-5.099311
-4.948045
-4.444681
-3.975685
-3.423456
-2.402465
-1.346170
-0.515723
0.485863
1.612999
2.881582
4.421370
5.836076
6.668627
6.569496
5.527460
3.909582
1.933760
-0.104719
-1.860538
-3.314056
-4.359833
-4.486318
-3.354740
-1.318367
1.432257
5.006782
8.504388
10.781105
11.580690
10.977726
9.491008
7.683988
5.458003
2.925978
0.562988
-1.608756
-3.750574
-5.474830
-6.055116
-5.211109
-3.466281
-1.900775
-1.278408
-1.626299
-2.551904
-3.511409
-4.522583
-6.181610
-8.511868
-10.631475
-11.703904
-11.990774
-11.859849
-10.733415
-8.758998
-6.968112
-5.819233
-5.668201
-6.619991
-7.848129
-8.445950
-7.891618
-6.176482
-4.092648
-2.616687
-2.170837
-2.590971
-3.337487
-3.789418
-3.744530
-3.258934
-2.248931
-1.028043
-0.207416
-0.117872
-1.021032
-2.701334
-4.109263
-4.287417
-3.465387
-2.479231
-1.408207
-0.641587
-1.027587
-1.740436
-1.584728
-0.834240
0.223224
1.940464
4.514103
7.586198
10.368384
12.114849
12.159737
9.924868
5.909866
1.821219
-1.328733
-3.538586
-4.562619
-4.506275
-3.809560
-2.597790
-1.518349
-1.065952
-0.964953
-1.080216
-1.556462
-3.001798
-5.167229
-6.401446
-6.215344
-4.856048
-2.246872
0.655486
2.831437
4.147246
4.591226
4.093939
2.647200
0.837842
-0.340497
-0.386556
0.215704
0.522211
0.416534
-0.297718
-2.301361
-5.048714
-7.746268
-10.060394
-11.540800
-12.645493
-13.352497
-12.440922
-10.088923
-7.225141
-4.115171
-1.415749
0.369760
1.410624
1.787270
1.666162
0.938818
-0.966163
-3.632856
-6.079779
-8.149821
-9.581597
-9.639112
-7.613260
-3.265333
1.657735
4.818205
6.011973
5.824700
4.337047
1.920284
-0.734719
-2.865081
-3.687113
-3.061706
-1.790084
-0.411383
0.961942
1.857384
2.379218
3.055359
3.760491
4.199561
3.905443
2.466186
0.491299
-0.972974
-1.767418
-2.184981
-1.780513
-0.184380
2.349981
5.431428
8.120095
9.698927
10.068793
9.114432
7.576045
6.446102
5.585493
4.358290
2.265570
-0.690798
-4.079223
-7.334149
-9.772890
-10.791779
-9.635653
-6.472377
-2.940169
0.123977
2.605968
3.787578
3.196070
0.973358
-2.047303
-5.144183
-8.220722
-10.303623
-10.327238
-8.102424
-3.808271
1.177455
5.036511
6.682677
6.129044
4.831234
3.748050
2.995222
2.975816
3.735656
5.147790
6.829025
8.030041
8.215207
6.944284
4.417636
1.055864
-2.826574
-6.068876
-7.938554
-8.574249
-7.788925
-6.073556
-4.671709
-4.037651
-4.072956
-4.365437
-4.027368
-2.994920
-2.242795
-2.118416
-2.053188
-1.644979
-0.943354
-0.289424
-0.301817
-1.169439
-2.255429
-3.047301
-3.469774
-3.306351
-2.477073
-1.110295
0.948756
3.300990
4.549700
3.602118
0.393484
-3.890151
-7.514477
-9.740228
-10.299472
-9.152230
-7.036366
-4.266571
-1.174603
0.952483
1.527857
0.985213
-0.250641
-1.886521
-3.881047
-6.058168
-7.597724
-7.879451
-7.419105
-6.916909
-6.187229
-4.938753
-3.321578
-1.534667
0.272351
1.698513
2.194864
1.869417
1.071934
-0.148957
-1.349507
-2.169902
-2.647084
-2.511482
-1.287321
0.885590
2.834055
4.123680
5.423124
6.288640
6.186236
5.792287
5.525990
5.292660
4.849379
4.127178
3.510420
2.910261
1.938131
0.870612
-0.146641
-1.235202
-1.988732
-2.416348
-2.686385
-2.207102
-1.336442
-1.108958
-1.432301
-2.035031
-3.038958
-4.320168
-5.526797
-6.450764
-7.276304
-7.924625
-7.533950
-5.347246
-1.700945
2.203936
5.109568
6.499959
6.931781
6.744976
5.367909
2.664978
-0.656347
-3.600557
-4.933436
-4.195105
-2.633808
-1.126986
0.774252
2.652812
4.228371
6.093137
7.365227
7.186137
5.976001
3.876267
1.603055
0.311090
-0.257739
-1.018984
-1.883334
-2.070373
-1.391193
-0.393113
0.860273
2.688566
4.559411
6.304005
7.908788
8.650158
9.054860
9.001086
7.597132
5.675552
3.203846
0.664573
-0.332574
-0.519846
-0.628563
-0.709224
-1.332763
-2.736483
-5.034477
-7.397701
-9.233010
-10.587399
-10.553032
-9.592126
-8.659977
-6.866987
-4.776841
-3.544964
-2.367328
-1.373925
-0.851857
-0.208448
0.077485
0.608906
2.042315
2.956929
3.162436
3.349239
3.268578
2.835584
2.307903
1.878650
1.091687
-0.182509
-1.146456
-1.914247
-2.485415
-1.998416
-0.783139
1.053103
3.785257
6.014045
7.205008
7.897514
7.802124
7.536061
7.325877
5.960266
3.515914
0.974771
-0.904259
-1.098078
0.881716
4.416496
8.366967
11.201290
11.613708
9.796401
6.733889
3.281638
0.334388
-1.542537
-2.094300
-1.425641
0.283416
2.713270
4.915873
6.614175
7.384302
6.587754
5.440977
4.971511
5.246456
5.639234
4.940647
3.898378
3.019533
1.646908
0.523745
-0.053735
-0.425240
-0.772898
-1.601009
-2.493882
-2.436602
-0.919961
1.716804
4.444282
6.235869
6.601293
5.694392
3.882696
2.264117
1.649697
0.893361
-0.812425
-2.433108
-3.033033
-2.275063
0.158999
3.349863
6.204760
9.108054
11.606410
13.000776
13.327623
11.901693
9.106879
5.681514
1.556628
-2.359711
-5.627496
-8.534065
-10.604341
-11.244946
-10.278196
-8.206052
-5.587056
-2.623910
-0.057753
1.453746
2.253799
2.784284
3.354982
4.108042
4.261879
3.475618
2.359235
1.163595
0.341095
-0.104991
-1.219036
-2.832005
-3.496691
-2.797639
-1.488141
-0.126975
0.700900
0.814525
0.747892
0.372880
0.448863
1.420289
1.566178
1.773789
3.517681
5.349248
7.039368
8.661452
9.867845
10.747155
10.132033
8.366395
6.514252
4.351393
2.634619
1.409286
0.327505
0.169691
0.875056
1.604970
1.907503
2.209568
2.152286
1.716487
2.585510
3.728778
4.164108
4.919739
5.003671
4.529062
3.448917
0.735231
-1.644592
-3.171991
-4.515624
-4.910275
-4.461386
-3.178307
-1.902243
-0.991604
0.134831
0.612477
1.365771
2.314753
1.685604
0.814240
-0.136614
-1.473001
-1.806397
-1.459443
-0.511162
0.553550
0.540924
0.256391
0.323490
0.463767
0.474053
0.676755
0.942347
-0.055267
-1.684367
-2.789060
-4.107210
-5.718308
-6.963046
-7.060541
-5.658693
-3.825022
-2.519032
-1.902276
-1.927527
-2.451702
-3.124805
-3.466618
-3.259240
-2.373851
-1.101294
0.157937
1.610986
2.801948
3.306482
3.547292
2.824623
0.766739
-1.765520
-4.797638
-7.905272
-10.207709
-11.532172
-11.435381
-10.059952
-7.699069
-4.733585
-2.154569
0.176389
1.996500
2.973070
4.076124
4.884127
4.980918
4.620869
3.102121
0.863043
-1.004530
-2.118342
-2.357985
-2.492653
-3.118062
-3.639431
-3.321000
-1.614281
1.731123
5.789375
8.918984
10.399387
10.528676
9.765093
8.382181
6.564640
4.748969
3.290073
2.079938
1.240838
1.203663
1.581011
1.491933
0.623142
-1.015544
-2.584091
-2.799653
-2.171441
-2.101303
-2.683693
-3.388593
-3.817145
-3.280581
-1.584617
0.098489
0.828870
1.000243
1.012867
0.959326
1.065001
1.097966
0.821616
0.730434
0.726459
-0.150516
-2.122129
-4.952012
-8.348854
-11.008299
-11.517744
-9.823183
-6.656634
-3.190590
-1.047372
-0.327043
0.393051
1.449580
2.730320
3.928764
3.969444
3.314343
2.394583
0.220735
-2.611720
-5.340369
-7.968017
-9.343681
-9.062658
-7.900921
-6.021893
-3.239941
0.183552
3.141554
4.548077
4.181716
2.634444
0.718007
-1.643113
-4.023404
-5.273285
-5.587509
-4.608601
-1.631194
2.239318
6.963191
12.820045
18.091471
21.649631
22.554425
20.154729
16.237688
12.399905
9.003064
6.580455
5.087893
4.308411
3.932698
2.848345
0.482316
-2.550036
-5.094452
-6.022862
-5.180258
-3.396386
-1.437166
0.750240
3.565158
6.487857
8.393070
8.583380
7.091518
4.480703
0.925113
-3.135245
-6.240308
-7.402982
-6.491174
-3.814197
-0.335294
2.804134
4.848924
5.529507
5.021698
3.880533
2.538769
1.223191
0.296417
-0.060592
0.569490
2.600252
5.244966
7.604681
9.286383
9.396267
7.746826
5.595189
3.569568
1.805801
1.214293
1.811410
2.538518
2.784238
2.303784
1.655930
1.632783
1.562176
0.557314
-1.243627
-3.943987
-7.504253
-10.240851
-10.566298
-8.942811
-6.357014
-3.631406
-2.076656
-1.453587
-0.005915
2.265658
4.275846
5.525725
5.719074
5.433606
5.499302
5.764194
5.807211
6.012017
7.090055
8.529310
9.744587
10.954954
11.985999
12.800548
13.207120
12.779504
11.710582
10.175935
8.500309
6.878457
5.449954
4.665096
3.981471
3.126708
2.723172
2.310519
1.312671
0.176182
-1.000053
-2.532595
-3.930704
-4.677921
-5.117929
-5.623166
-6.307491
-6.922613
-7.275414
-8.019124
-9.796452
-12.234725
-14.308742
-15.559792
-16.075783
-15.807619
-15.125166
-14.204239
-12.741839
-11.325730
-10.395451
-9.293332
-8.158014
-7.583575
-6.982016
-6.100601
-5.639788
-5.790822
-5.992590
-5.386121
-3.840722
-1.864668
0.263821
1.994387
3.023328
3.489752
3.108194
1.756611
0.015522
-1.210980
-1.766951
-1.947911
-1.368095
-0.443428
0.138726
1.058016
2.419650
3.815653
5.120942
5.658675
5.426045
4.664333
2.919503
0.776983
-0.822425
-1.878488
-1.937874
-0.227180
2.638472
5.533816
8.005987
9.542268
9.941359
9.054331
6.658610
3.831298
1.030172
-2.012467
-4.210630
-5.234663
-5.395984
-4.291059
-1.982780
1.242920
4.488493
6.627503
7.537908
7.156116
6.148215
5.280125
3.538568
0.975915
-1.104414
-3.247868
-5.643824
-6.895575
-6.644712
-5.461699
-3.964930
-2.528247
-0.959001
0.462720
1.421755
2.112157
2.227886
1.554081
0.382522
-0.959943
-2.281133
-3.886152
-5.639632
-6.668575
-6.567810
-5.400461
-3.585260
-1.756967
-0.113607
1.426649
2.821248
3.669464
3.684192
3.153471
2.273223
1.469895
1.336162
1.277244
0.515297
-0.567653
-1.078968
-0.548483
0.406344
1.122931
1.617411
1.642427
1.366077
1.235150
0.859670
0.158277
-0.381094
-0.505943
-0.193123
0.393707
1.372849
2.708298
3.750331
4.254397
4.152694
2.830336
0.050251
-3.089413
-5.211125
-6.321429
-6.778270
-6.540031
-5.816664
-4.079551
-1.127862
1.841362
4.497766
6.663429
7.308007
6.262231
3.752650
0.402100
-2.457943
-4.604203
-6.231199
-6.699964
-5.711937
-3.130817
1.243997
6.349660
10.421940
12.686733
13.309100
12.523540
10.681918
8.439801
6.305699
4.516915
3.021547
1.847650
1.784523
3.366161
5.943307
8.596671
10.687519
11.473778
10.513805
8.370819
5.738260
3.250890
1.781941
1.244440
1.308265
1.686315
1.524292
1.246072
1.452280
1.556085
1.557487
1.343795
0.793903
0.689862
0.986082
1.090588
0.948672
0.288662
-0.972442
-2.239156
-3.302935
-4.051087
-3.766791
-2.250617
0.196304
3.277517
6.170758
7.775775
7.277785
4.873180
1.417889
-2.493774
-6.177719
-9.261038
-11.392569
-11.932642
-10.893648
-8.113098
-3.726595
1.071158
5.624125
9.036395
10.026993
8.828079
6.098729
2.127681
-2.300440
-6.389088
-9.492046
-11.226823
-11.848958
-11.135410
-9.026560
-6.739556
-4.753449
-3.205946
-3.085074
-4.366518
-6.629443
-9.446701
-11.519081
-12.464558
-12.232866
-10.363892
-7.671718
-4.878075
-1.954441
0.416963
1.888015
2.814552
3.027307
2.517394
1.805948
1.321519
1.863460
3.366775
4.396183
4.524303
3.509154
1.038617
-1.522633
-3.405403
-4.736880
-4.906851
-3.790003
-1.324378
2.416144
6.466446
10.412008
13.306417
13.483167
11.039984
6.845894
1.880039
-2.632016
-6.514220
-8.948752
-8.622606
-6.326250
-3.543830
-1.016015
0.922864
1.969574
1.559258
-0.230461
-2.250236
-3.218626
-3.199455
-3.078583
-3.100561
-3.700486
-4.492125
-4.210166
-3.503866
-3.101736
-2.542494
-1.978342
-1.342648
-0.967405
-1.779150
-2.754319
-2.469321
-1.279294
0.375755
2.512194
4.519576
5.486327
5.299054
4.162564
2.160791
0.333431
-0.531620
-0.624906
0.527245
2.483660
4.033033
5.526295
6.277719
4.793339
2.104435
-0.624214
-3.575437
-5.969055
-6.657355
-5.688033
-3.596016
-1.449057
-0.758421
-1.184400
-1.237707
-0.850774
-0.126705
1.012588
1.919019
2.523618
2.934633
2.834566
2.678622
3.134994
3.927799
4.422513
4.712654
5.111278
5.436489
5.763102
6.153776
6.323278
6.106080
4.959303
2.536695
-0.552703
-3.509305
-5.832315
-7.379587
-7.861444
-6.912696
-4.969140
-2.589085
-0.078805
2.151620
4.264679
6.378906
8.085391
9.603904
10.669784
10.256430
8.765971
7.094787
5.559206
4.353044
2.846921
0.725678
-1.236584
-2.645915
-3.698705
-4.942975
-6.547994
-7.629308
-7.605695
-6.480898
-4.008025
-0.724577
2.101563
4.130221
5.230703
4.852652
3.291353
1.604037
0.475730
-0.481904
-1.845411
-3.288643
-4.553019
-5.510888
-5.872339
-5.900396
-5.660755
-5.094265
-4.573600
-4.111617
-3.829191
-3.872913
-3.811659
-3.594462
-3.290527
-3.051353
-3.622755
-4.860712
-5.706592
-5.503891
-4.362494
-3.043411
-1.819950
-0.629456
0.499316
2.181720
4.412379
6.270131
7.333907
7.310994
5.890441
3.372677
0.376564
-2.645267
-4.999372
-5.877983
-5.271982
-3.617400
-1.735567
-0.428875
0.700832
1.931540
2.993914
4.123387
5.095048
5.543236
5.735884
5.099721
3.078308
0.837594
-1.095910
-3.303425
-5.098521
-6.011033
-6.346300
-5.693071
-4.275559
-2.656514
-0.628558
1.494320
3.161294
4.251255
4.407197
3.857071
3.507543
3.102605
2.426930
2.268181
2.313069
2.596897
3.832047
4.875951
4.980691
4.784768
4.355983
3.535821
2.222814
0.529887
-1.434946
-3.429004
-4.613889
-5.160041
-5.533182
-5.444341
-5.292140
