EVENT_NAME: 202302060117
EVENT_ID: 13194
EVENT_DATE_YYYYMMDD: 2023/02/06
EVENT_TIME_HHMMSS: 01:17:32.00000
EVENT_LATITUDE_DEGREE: 37.288
EVENT_LONGITUDE_DEGREE: 37.043
EVENT_DEPTH_KM: 8.6
HYPOCENTER_REFERENCE: AFAD
MAGNITUDE_W: 7.7
MAGNITUDE_W_REFERENCE: AFAD
MAGNITUDE_L: 
MAGNITUDE_L_REFERENCE: 
FOCAL_MECHANISM: 
NETWORK: TK
STATION_CODE: 2501
STATION_NAME: 
STATION_LATITUDE_DEGREE: 39.90316
STATION_LONGITUDE_DEGREE: 41.26196
STATION_ELEVATION_M: 1908.0
LOCATION: Kahramanmaras_Pazarck_Turkiye
SENSOR_DEPTH_M: 
VS30_M/S: 375
SITE_CLASSIFICATION_EC8: B
MORPHOLOGIC_CLASSIFICATION: 
EPICENTRAL_DISTANCE_KM: 467.87
EARTHQUAKE_BACKAZIMUTH_DEGREE: 
DATE_TIME_FIRST_SAMPLE_YYYYMMDD_HHMMSS: 2023/02/06 01:18:11.3506670
DATE_TIME_FIRST_SAMPLE_PRECISION: millisecond
SAMPLING_INTERVAL_S: 0.01
NDATA: 24501
DURATION_S: 
STREAM: HNN
UNITS: cm/s^2
INSTRUMENT: sensor = CMG-5T/GURALP | digitizer = 
INSTRUMENT_ANALOG/DIGITAL: 
INSTRUMENTAL_FREQUENCY_HZ: 
INSTRUMENTAL_DAMPING: 
FULL_SCALE_G: 
N_BIT_DIGITAL_CONVERTER: 
PGA_CM/S^2: 5.702
TIME_PGA_S: 
BASELINE_CORRECTION: BASELINE REMOVED
FILTER_TYPE: BUTTERWORTH
FILTER_ORDER: 
LOW_CUT_FREQUENCY_HZ: 
HIGH_CUT_FREQUENCY_HZ: 
LATE/NORMAL_TRIGGERED: 
DATABASE_VERSION: 
HEADER_FORMAT: DYNA 1.2
DATA_TYPE: Acceleration
PROCESSING: Automatic Paolucci et al., 2011
DATA_TIMESTAMP_YYYYMMDD_HHMMSS: 
DATA_LICENSE: U (unknown license)
DATA_CITATION: Turkish Accelerometric Archive v 1.0 - Disaster And Emergency Management Presidency, Earthquake Department
DATA_CREATOR: AFAD
ORIGINAL_DATA_MEDIATOR_CITATION: : AFAD - Disaster And Emergency Management Presidency
ORIGINAL_DATA_MEDIATOR: AFAD PROCESS SERVICE
ORIGINAL_DATA_CREATOR_CITATION: AFAD PROCESS SERVICE
ORIGINAL_DATA_CREATOR: network: TK
USER1: GuestUser
USER2: 
USER3: 
USER4: 
USER5: 
[...]
-4.087918
-3.637823
-3.204027
-2.916919
-2.824768
-2.893724
-3.002172
-3.046680
-3.162024
-3.373907
-3.577013
-3.808329
-4.051555
-4.181317
-4.116749
-3.966299
-3.899850
-3.832774
-3.682325
-3.390828
-3.069242
-2.861747
-2.818492
-2.934463
-2.938851
-2.780252
-2.669295
-2.679951
-2.800938
-2.923177
-2.873654
-2.518844
-2.016718
-1.602982
-1.327157
-1.016855
-0.736015
-0.625059
-0.559237
-0.583057
-0.715327
-0.998673
-1.427454
-1.902623
-2.156506
-2.112625
-2.013578
-2.075638
-2.287521
-2.548927
-2.790272
-2.986483
-3.241620
-3.531235
-3.766312
-3.922403
-3.874760
-3.754400
-3.685443
-3.651592
-3.596427
-3.514306
-3.436573
-3.290512
-3.140689
-2.935074
-2.754534
-2.620383
-2.543277
-2.413514
-2.273094
-2.148973
-1.979717
-1.780371
-1.500786
-1.133438
-0.894599
-0.789911
-0.564863
-0.363010
-0.206918
-0.096588
0.009354
-0.031392
-0.063362
0.051982
0.266373
0.577930
0.747186
0.737156
0.599244
0.375451
0.190524
0.043209
0.075180
0.283302
0.596739
1.066894
1.536422
1.918188
2.134460
2.429090
2.799572
3.161905
3.342445
3.333669
3.359371
3.383193
3.280386
3.109877
2.998294
2.896114
2.833427
2.906772
3.103610
3.257195
3.386331
3.493526
3.657141
3.747411
3.770605
3.706665
3.501678
3.200779
2.868537
2.746924
2.876060
2.997674
2.908658
2.698029
2.513729
2.489908
2.597104
2.854122
3.208933
3.694760
4.069003
4.017600
3.670939
3.396996
3.461565
3.745539
4.008199
3.993154
3.660912
3.154399
2.688633
2.375824
2.231643
2.242928
2.356392
2.588962
2.902399
3.160671
3.187000
2.875444
2.352006
1.814777
1.436773
1.315787
1.288831
1.212353
1.063158
0.971008
1.123965
1.570926
2.037947
2.051111
1.569674
0.966622
0.579215
0.445692
0.593007
0.984176
1.493824
1.971502
2.289327
2.336969
2.069295
1.586603
1.058777
0.650683
0.561667
0.925881
1.698189
2.661692
3.430866
3.773766
3.561883
3.001459
2.334467
1.678758
1.048751
0.485820
0.071458
-0.171769
-0.132902
0.136654
0.507763
0.702720
0.539107
0.055162
-0.421261
-0.603054
-0.453231
-0.191198
-0.094659
-0.097166
-0.210630
-0.249496
-0.200599
-0.238838
-0.504632
-0.801769
-1.054398
-1.161593
-1.046248
-0.887649
-0.638153
-0.419374
-0.267671
-0.397433
-0.771049
-1.136515
-1.258128
-1.278814
-1.486309
-2.000971
-2.667963
-3.391374
-3.907917
-4.008216
-3.618928
-2.709962
-1.646785
-0.604295
0.072101
0.292760
-0.001870
-0.502114
-0.897670
-1.033074
-0.858176
-0.585486
-0.356677
-0.233810
-0.143540
-0.226913
-0.501483
-0.742829
-0.799247
-0.639394
-0.262016
0.060823
0.164885
0.095302
-0.067684
-0.354165
-0.857543
-1.566536
-2.357649
-3.076672
-3.635215
-3.920442
-3.770619
-3.176970
-2.396513
-1.738923
-1.462472
-1.393515
-1.217990
-0.809896
-0.189291
0.341670
0.491493
0.152982
-0.493323
-1.089479
-1.318287
-1.005477
-0.389261
0.235105
0.618751
0.725947
0.766694
0.647589
0.424422
0.331019
0.673919
1.273836
1.651214
1.708887
1.349689
0.859475
0.556069
0.766698
1.462528
2.296896
2.906843
3.042875
2.753260
2.042387
1.201124
0.537893
0.205024
0.079650
0.127919
0.383057
0.798047
1.253157
1.638057
1.801672
1.778478
1.727074
1.750896
1.752150
1.667523
1.553432
1.426804
1.435581
1.502030
1.616748
1.740869
1.859349
1.876274
2.063083
2.571477
3.195216
3.725551
3.988211
3.826478
3.329368
2.748258
2.280611
2.116997
2.181566
2.422912
2.768319
3.153847
3.545642
3.972543
4.351802
4.650820
4.625746
4.189443
3.343792
2.358975
1.623027
1.406129
1.840552
2.736981
3.677917
4.324850
4.600048
4.471539
4.143685
3.797025
3.634665
3.662875
3.746249
3.612726
3.330634
2.941346
2.508804
2.217309
2.100084
2.069367
2.044293
2.036144
2.076891
2.280625
2.543285
2.809080
2.888066
2.681198
2.078774
1.278885
0.649505
0.479623
0.813119
1.278886
1.684473
1.781012
1.609876
1.397367
1.063244
0.586194
0.095980
-0.333427
-0.563489
-0.571011
-0.371666
0.027026
0.588077
1.295817
1.942123
2.370905
2.484369
2.350219
2.160904
1.996663
1.866901
1.714571
1.445643
1.127192
0.950415
0.942266
1.059491
1.277643
1.533408
1.722724
1.762844
1.687620
1.572902
1.575410
1.742159
2.049954
2.396615
2.639842
2.720709
2.643604
2.450527
2.114524
1.688251
1.177977
0.751077
0.545463
0.524776
0.561135
0.469612
0.274028
0.033310
-0.157259
-0.235618
-0.230603
-0.184840
-0.114630
-0.021226
0.170598
0.405675
0.625081
0.827561
0.955444
0.959205
0.792458
0.516634
0.293468
0.342364
0.679622
1.124075
1.480139
1.641873
1.579813
1.272646
0.829447
0.401293
0.094126
-0.009934
0.072186
0.237054
0.416967
0.585596
0.638254
0.678374
0.664583
0.527299
0.348640
0.202579
0.162460
0.143654
0.087863
-0.043153
-0.210528
-0.323992
-0.370380
-0.311453
-0.024345
0.425750
0.838233
0.950443
0.881488
0.659575
0.427632
0.241452
0.107928
0.188795
0.322946
0.485307
0.578084
0.668354
0.672116
0.657071
0.688415
0.685281
0.568057
0.435160
0.336114
0.140530
-0.162249
-0.607328
-0.977183
-1.236081
-1.305036
-1.141422
-1.026704
-0.937688
-0.845537
-0.707625
-0.478189
-0.162244
0.115461
0.153073
-0.046272
-0.491351
-0.948968
-1.345778
-1.520675
-1.543869
-1.395300
-0.992847
-0.540871
-0.223047
-0.090776
-0.049402
-0.091402
-0.024953
0.054660
0.085377
-0.034355
-0.307671
-0.578480
-0.854304
-1.111321
-1.302517
-1.454847
-1.510638
-1.444816
-1.301888
-1.202842
-1.199707
-1.279320
-1.411590
-1.493083
-1.559531
-1.535082
-1.454215
-1.362065
-1.268033
-1.189047
-1.040478
-0.755877
-0.342141
0.094790
0.363092
0.415750
0.219539
0.008910
-0.229928
-0.506379
-0.754620
-0.969637
-1.070563
-1.045488
-0.903187
-0.877485
-0.891903
-0.962112
-1.012262
-1.132621
-1.327578
-1.607790
-1.620954
-1.630356
-1.626595
-1.525041
-1.525040
-1.308769
-1.148289
-0.862435
-0.698194
-0.693178
-0.777806
-0.873717
-1.023539
-1.131988
-1.133241
-1.199689
-1.201569
-1.100643
-0.921983
-0.777175
-0.688159
-0.646158
-0.651173
-0.712606
-0.767144
-0.814159
-0.767143
-0.704455
-0.643021
-0.559020
-0.481914
-0.480033
-0.497585
-0.540212
-0.583466
-0.652422
-0.638003
-0.505106
-0.201699
0.124275
0.306696
0.333025
0.158754
-0.123965
-0.527670
-0.785942
-0.989048
-0.968361
-0.908181
-0.711969
-0.557131
-0.505727
-0.357158
-0.310142
-0.206708
-0.155931
-0.110169
-0.198557
-0.345872
-0.555874
-0.716980
-0.793458
-0.796592
-0.719486
-0.508857
-0.318914
-0.253092
-0.359033
-0.656170
-0.971487
-1.320654
-1.525015
-1.551343
-1.377072
-1.054859
-0.580316
-0.170341
-0.001085
-0.058756
-0.283177
-0.649270
-0.962706
-1.151394
-1.142618
-1.002198
-0.875569
-0.817896
-0.729507
-0.796582
-0.978375
-1.094973
-1.201541
-1.104375
-1.024762
-0.925715
-0.851744
-0.779653
-0.760847
-0.709443
-0.687502
-0.543321
-0.529529
-0.568395
-0.831054
-1.138848
-1.135714
-1.183355
-0.940128
-0.611647
-0.287553
-0.120805
-0.213581
-0.451166
-0.692511
-0.932603
-1.007828
-1.026633
-0.931348
-0.800332
-0.740778
-0.740778
-0.735763
-0.670567
-0.539551
-0.616656
-0.602864
-0.731999
-0.962061
-0.990897
-1.262333
-1.251675
-1.086807
-1.054837
-0.991522
-0.931969
-1.083672
-1.086179
-1.369525
-1.381435
-1.434092
-1.405882
-1.314985
-1.378926
-1.340059
-1.474210
-1.404627
-1.563852
-1.576389
-1.571374
-1.461044
-1.325639
-1.110621
-1.000291
-0.807214
-0.634823
-0.577151
-0.515717
-0.641091
-0.792794
-1.034139
-1.113125
-1.039780
-0.807210
-0.590939
-0.294427
-0.123918
0.045965
0.163818
0.280416
0.356268
0.350627
0.502957
0.626452
0.821410
1.013233
1.172459
1.354879
1.463329
1.550465
1.611272
1.635093
1.665810
1.634467
1.611900
1.507213
1.273389
0.941774
0.550606
0.186393
-0.053699
-0.207909
-0.303820
-0.356477
-0.305073
-0.158385
0.017767
0.227770
0.329951
0.375713
0.415833
0.440908
0.476640
0.531805
0.601389
0.670972
0.706704
0.719242
0.721123
0.815154
0.994440
1.218234
1.437640
1.610657
1.784928
1.951050
2.036932
1.967350
1.727885
1.292835
0.808263
0.406438
0.166346
0.071689
0.091122
0.151929
0.187034
0.178885
0.148796
0.140647
0.215245
0.388889
0.622086
0.835223
0.895404
0.832090
0.674745
0.457221
0.180143
-0.076247
-0.227950
-0.271831
-0.240487
-0.187202
-0.068723
0.107429
0.329342
0.505494
0.580092
0.546868
0.444061
0.336240
0.219642
0.111820
0.028446
-0.044897
-0.122629
-0.188451
-0.237346
-0.244868
-0.223554
-0.181553
-0.164001
-0.214777
-0.385286
-0.594661
-0.760782
-0.847917
-0.824722
-0.712512
-0.493733
-0.271819
-0.114474
-0.017935
0.057917
0.167620
0.247860
0.304279
0.321832
0.279832
0.180160
0.051651
-0.023573
-0.045513
0.001502
0.053533
0.051026
-0.029840
-0.157722
-0.330738
-0.483695
-0.606562
-0.668622
-0.641039
-0.572709
-0.427901
-0.244854
-0.062434
0.100554
0.237212
0.345662
0.392051
0.335632
0.220915
0.131900
0.134407
0.180796
0.253514
0.323097
0.328113
0.257276
0.130649
0.042260
0.044768
0.123754
0.244114
0.354444
0.402714
0.414625
0.414625
0.420267
0.467283
0.563822
0.697346
0.830870
0.907976
0.898573
0.786364
0.604571
0.397076
0.234090
0.135044
0.086776
0.130657
0.211524
0.286749
0.295526
0.257914
0.222182
0.242243
0.336901
0.481709
0.664129
0.864729
1.034612
1.152464
1.247749
1.305422
1.344289
1.347423
1.317334
1.237094
1.181930
1.158736
1.154348
1.157483
1.195723
1.281605
1.353069
1.407607
1.457130
1.559938
1.700358
1.850181
1.904092
1.841405
1.709762
1.575612
1.451491
1.358715
1.279102
1.263431
1.316715
1.396955
1.521704
1.618242
1.662124
1.630154
1.642065
1.710394
1.852695
2.059563
2.266432
2.487718
2.667631
2.784230
2.866977
2.946590
2.978561
3.000502
3.058802
3.097041
3.094534
3.021191
2.933429
2.906474
2.925280
3.003640
3.139671
3.275703
3.345913
3.298898
3.147822
2.956627
2.772953
2.629400
2.554175
2.545400
2.570475
2.562326
2.519699
2.396832
2.196860
1.983724
1.754916
1.559332
1.480346
1.449630
1.472198
1.473452
1.424556
1.389452
1.318615
1.262824
1.202018
1.156883
1.133062
1.184466
1.277871
1.400738
1.526740
1.634563
1.721071
1.798177
1.860865
1.914776
1.917284
1.846448
1.742387
1.585670
1.446504
1.384444
1.418296
1.443998
1.450267
1.431461
1.408267
1.336804
1.215818
1.046563
0.864770
0.712440
0.593335
0.495543
0.348229
0.167690
-0.009715
-0.148254
-0.244165
-0.317508
-0.380822
-0.454793
-0.549450
-0.647242
-0.728735
-0.755690
-0.743779
-0.672315
-0.610255
-0.588314
-0.654762
-0.805838
-1.006437
-1.213931
-1.343066
-1.338051
-1.232109
-1.103600
-0.968195
-0.887955
-0.846581
-0.842819
-0.830908
-0.775743
-0.659144
-0.505560
-0.351976
-0.197138
-0.102480
-0.049822
-0.056717
-0.084299
-0.089941
-0.138837
-0.225345
-0.336301
-0.472959
-0.635318
-0.808962
-0.997023
-1.192607
-1.365624
-1.482848
-1.545535
-1.502907
-1.386936
-1.272218
-1.219560
-1.220813
-1.240873
-1.252156
-1.235857
-1.235230
-1.252782
-1.319857
-1.425171
-1.520455
-1.564336
-1.523589
-1.417020
-1.279735
-1.133046
-1.013940
-0.908625
-0.858475
-0.825250
-0.765697
-0.664143
-0.531872
-0.389572
-0.288018
-0.239122
-0.233479
-0.251031
-0.215299
-0.114999
0.100645
0.385873
0.730026
1.077941
1.375706
1.581948
1.699173
1.775652
1.832698
1.872818
1.909804
1.956193
1.978761
1.993806
2.012613
2.077808
2.186257
2.343603
2.523516
2.707817
2.838207
2.897760
2.912178
2.895880
2.895880
2.903403
2.916568
2.897762
2.883971
2.917196
3.018123
3.179230
3.374187
3.539682
3.650639
3.723357
3.767865
3.787299
3.766612
3.699537
3.559745
3.398639
3.236906
3.114666
3.031920
2.970486
2.956696
3.023771
3.162311
3.352880
3.555361
3.693900
3.737781
3.691393
3.633094
3.582945
3.540318
3.496437
3.436885
3.346615
3.248197
3.164196
3.145390
3.171093
3.204944
3.270766
3.354141
3.498322
3.670712
3.846237
3.970985
4.036180
4.073166
4.066271
4.016748
3.939643
3.856896
3.783553
3.728388
3.708329
3.731523
3.753464
3.769137
3.730898
3.623703
3.485791
3.343492
3.240685
3.211222
3.234417
3.286448
3.337852
3.370449
3.372330
3.369196
3.362928
3.334092
3.334720
3.349765
3.366064
3.357915
3.377975
3.439409
3.508992
3.548486
3.517143
3.397410
3.213110
3.023795
2.827584
2.641403
2.507253
2.428894
2.431402
2.465880
2.504120
2.511643
2.469643
2.406956
2.332985
2.319821
2.351792
2.443316
2.548631
2.629498
2.637648
2.578095
2.469647
2.290988
2.132390
2.031464
1.932418
1.909224
1.865970
1.797015
1.729940
1.648447
1.609581
1.551909
1.504894
1.461013
1.487969
1.499880
1.485463
1.412746
1.247252
1.028473
0.816591
0.658619
0.510051
0.427931
0.365871
0.306945
0.232348
0.117004
0.002913
-0.095506
-0.119326
-0.102400
-0.076698
-0.030309
0.029244
0.102589
0.143963
0.147724
0.117635
0.075635
0.018590
-0.034067
-0.067918
-0.066037
-0.014633
0.053696
0.074383
0.060593
0.027369
-0.040333
-0.096751
-0.184513
-0.284185
-0.397022
-0.522396
-0.625203
-0.751204
-0.902280
-1.097864
-1.319777
-1.547331
-1.756079
-1.939753
-2.093963
-2.198023
-2.295188
-2.394861
-2.497041
-2.588564
-2.676952
-2.772237
-2.884446
-3.017343
-3.165285
-3.322629
-3.472452
-3.585288
-3.674304
-3.739498
-3.806573
-3.893708
-4.005918
-4.114367
-4.212158
-4.318726
-4.397085
-4.436578
-4.443473
-4.408368
-4.328127
-4.238484
-4.153856
-4.105586
-4.103705
-4.144452
-4.190840
-4.227825
-4.234093
-4.227824
-4.231585
-4.248510
-4.289257
-4.324361
-4.361346
-4.395824
-4.445973
-4.511168
-4.600810
-4.739976
-4.926156
-5.129890
-5.327354
-5.479684
-5.588759
-5.667118
-5.689058
-5.701595
-5.679654
-5.648310
-5.606310
-5.541741
-5.467143
-5.372485
-5.252125
-5.099794
-4.974419
-4.862836
-4.802029
-4.778834
-4.787610
-4.818953
-4.832744
-4.833997
-4.768175
-4.659726
-4.553784
-4.429036
-4.324348
-4.228436
-4.155091
-4.090523
-4.020313
-3.968909
-3.913117
-3.872370
-3.806548
-3.745741
-3.698725
-3.658605
-3.574603
-3.479945
-3.347048
-3.205374
-3.082507
-2.928295
-2.773458
-2.606709
-2.423035
-2.206763
-2.007417
-1.813086
-1.682070
-1.608725
-1.601829
-1.613739
-1.654486
-1.656366
-1.650724
-1.698366
-1.750396
-1.809948
-1.831262
-1.855709
-1.844425
-1.808693
-1.695229
-1.553555
-1.403105
-1.253282
-1.075877
-0.877785
-0.670289
-0.468436
-0.307956
-0.170671
-0.070371
0.019900
0.076318
0.137752
0.209216
0.300740
0.409189
0.532057
0.668716
0.793464
0.888749
0.964601
1.037318
1.068662
1.079320
1.081827
1.051111
1.008484
0.963350
0.940783
0.930126
0.926992
0.915082
0.892515
0.854903
0.798485
0.752723
0.723261
0.730784
0.723888
0.712605
0.669351
0.610426
0.565291
0.528306
0.508247
0.497590
0.492576
0.495083
0.469382
0.438666
0.432397
0.416726
0.424249
0.453085
0.474399
0.469385
0.475027
0.470639
0.475028
0.491327
0.538343
0.596642
0.651180
0.701331
0.715749
0.701958
0.627988
0.529569
0.409210
0.262522
0.145924
0.068192
0.049386
0.044999
0.070074
0.103926
0.037477
-0.008284
-0.065956
-0.173778
-0.246494
-0.280345
-0.293509
-0.301658
-0.250254
-0.186940
-0.173775
-0.191954
-0.240223
-0.297268
-0.356820
-0.433925
-0.525448
-0.583120
-0.606314
-0.583746
-0.544253
-0.495356
-0.427654
-0.386280
-0.341771
-0.312935
-0.299770
-0.300397
-0.327979
-0.376874
-0.436427
-0.504129
-0.576219
-0.653951
-0.712876
-0.784966
-0.853295
-0.941684
-1.013774
-1.095267
-1.164222
-1.219387
-1.287089
-1.315297
-1.411835
-1.515269
-1.646285
-1.747211
-1.818047
-1.855033
-1.866943
-1.855032
-1.853151
-1.887628
-1.915210
-1.966614
-2.012375
-2.085092
-2.120823
-2.173480
-2.211719
-2.263749
-2.345242
-2.417332
-2.470616
-2.481272
-2.475630
-2.445540
-2.434256
-2.449300
-2.491927
-2.526405
-2.553987
-2.579688
-2.600375
-2.610404
-2.610404
-2.612911
-2.622941
-2.630463
-2.652403
-2.692522
-2.724492
-2.767119
-2.799716
-2.811627
-2.806611
-2.784043
-2.765864
-2.742669
-2.706937
-2.659294
-2.577800
-2.474993
-2.359648
-2.251198
-2.150272
-2.055613
-1.956567
-1.835580
-1.696414
-1.539696
-1.364171
-1.204318
-1.067032
-0.957329
-0.844492
-0.744819
-0.646399
-0.519144
-0.375589
-0.201318
-0.046480
0.095193
0.201135
0.278241
0.330272
0.371646
0.406124
0.413647
0.399229
0.352214
0.267587
0.177318
0.083914
-0.016385
-0.087849
-0.120446
-0.136744
-0.124206
-0.109788
-0.125459
-0.162444
-0.232653
-0.308505
-0.378714
-0.408804
-0.431371
-0.424475
-0.381847
-0.312890
-0.196919
-0.064021
0.053204
0.135952
0.224968
0.315865
0.375419
0.463808
0.580407
0.669423
0.762827
0.816112
0.901994
0.996652
1.122027
1.249910
1.387195
1.572123
1.698752
1.854216
1.973950
2.096190
2.188968
2.303059
2.398344
2.522465
2.617750
2.726826
2.842171
2.825246
2.857844
2.818351
2.787008
2.716172
2.666649
2.652859
2.634053
2.556321
2.503037
2.454768
2.388320
2.280498
2.177065
2.139453
2.072378
2.027870
1.982736
1.972079
1.878676
1.941990
1.873035
1.800945
1.767721
1.658018
1.630436
1.535779
1.540167
1.445510
1.453033
1.366525
1.269360
1.286913
1.122046
1.135210
1.003567
0.896373
0.885089
0.733386
0.708312
0.623684
0.519624
0.433116
0.350996
0.314011
0.299593
0.281414
0.263862
0.279534
0.269505
0.220609
0.221236
0.224998
0.242551
0.298343
0.354762
0.445659
0.499570
0.572915
0.593602
0.598617
0.628081
0.597991
0.610529
0.576678
0.592977
0.610530
0.610531
0.650651
0.644382
0.650652
0.554114
0.498949
0.408680
0.364172
0.333456
0.333456
0.362920
0.310263
0.420593
0.448176
0.633730
0.552237
0.402415
0.587970
0.517760
0.616807
0.694539
0.750958
0.848124
0.848751
0.874453
0.885737
1.007978
1.122069
1.167831
1.184130
1.259355
1.145892
1.128967
1.135863
0.989802
0.850636
0.788576
0.834965
0.710218
0.729025
0.772906
0.795474
0.735294
0.661324
0.711474
0.706459
0.776043
0.944045
1.120197
1.230527
1.328319
1.433007
1.506979
1.567786
1.629847
1.696922
1.770267
1.846746
1.921971
1.979017
2.046719
2.094989
2.150781
2.200304
2.207827
2.207201
2.167708
2.125708
2.112544
2.080574
2.034186
1.997827
1.956454
1.868066
1.758363
1.669348
1.607288
1.580332
1.591617
1.610423
1.607916
1.566543
1.518274
1.481916
1.449319
1.408572
1.394782
1.404185
1.416723
1.426126
1.402932
1.398545
1.389769
1.380366
1.358426
1.358426
1.385382
1.394159
1.399801
1.406697
1.406071
1.412967
1.451206
1.435535
1.406072
1.379744
1.313923
1.222400
1.118966
1.034965
0.921502
0.799889
0.640664
0.476423
0.317825
0.146062
0.009404
-0.078358
-0.121611
-0.140417
-0.129133
-0.105938
-0.077102
-0.089639
-0.139161
-0.191818
-0.253878
-0.298386
-0.317819
-0.317191
-0.299012
-0.289608
-0.279578
-0.287100
-0.309667
-0.343518
-0.392413
-0.447578
-0.439428
-0.381755
-0.302142
-0.214380
-0.160468
-0.105930
-0.094019
-0.096526
-0.112824
-0.140406
-0.162973
-0.169242
-0.154196
-0.135390
-0.113449
-0.110941
-0.124732
-0.163598
-0.233180
-0.305270
-0.371718
-0.420614
-0.452584
-0.488315
-0.528435
-0.554763
-0.581091
-0.605539
-0.661330
-0.731540
-0.811779
-0.905183
-0.991064
-1.067542
-1.095124
-1.098885
-1.078198
-1.063152
-1.027420
-0.980404
-0.933388
-0.903298
-0.886999
-0.871954
-0.862550
-0.844997
-0.836221
-0.827444
-0.828698
-0.854399
-0.911444
-0.988549
-1.066281
-1.144640
-1.221118
-1.290073
-1.341476
-1.366551
-1.397894
-1.409804
-1.432371
-1.487536
-1.538312
-1.604133
-1.659298
