EVENT_NAME: 202302060117
EVENT_ID: 13194
EVENT_DATE_YYYYMMDD: 2023/02/06
EVENT_TIME_HHMMSS: 01:17:32.00000
EVENT_LATITUDE_DEGREE: 37.288
EVENT_LONGITUDE_DEGREE: 37.043
EVENT_DEPTH_KM: 8.6
HYPOCENTER_REFERENCE: AFAD
MAGNITUDE_W: 7.7
MAGNITUDE_W_REFERENCE: AFAD
MAGNITUDE_L: 
MAGNITUDE_L_REFERENCE: 
FOCAL_MECHANISM: 
NETWORK: TK
STATION_CODE: 4213
STATION_NAME: 
STATION_LATITUDE_DEGREE: 37.42439
STATION_LONGITUDE_DEGREE: 31.84955
STATION_ELEVATION_M: 1149.0
LOCATION: Kahramanmaras_Pazarck_Turkiye
SENSOR_DEPTH_M: 
VS30_M/S: None
SITE_CLASSIFICATION_EC8: unknown
MORPHOLOGIC_CLASSIFICATION: 
EPICENTRAL_DISTANCE_KM: 459.22
EARTHQUAKE_BACKAZIMUTH_DEGREE: 
DATE_TIME_FIRST_SAMPLE_YYYYMMDD_HHMMSS: 2023/02/06 01:18:10.2814040
DATE_TIME_FIRST_SAMPLE_PRECISION: millisecond
SAMPLING_INTERVAL_S: 0.01
NDATA: 24501
DURATION_S: 
STREAM: HNE
UNITS: cm/s^2
INSTRUMENT: sensor = GMS+/GEOSIG | digitizer = 
INSTRUMENT_ANALOG/DIGITAL: 
INSTRUMENTAL_FREQUENCY_HZ: 
INSTRUMENTAL_DAMPING: 
FULL_SCALE_G: 
N_BIT_DIGITAL_CONVERTER: 
PGA_CM/S^2: 1.678
TIME_PGA_S: 
BASELINE_CORRECTION: BASELINE REMOVED
FILTER_TYPE: BUTTERWORTH
FILTER_ORDER: 
LOW_CUT_FREQUENCY_HZ: 
HIGH_CUT_FREQUENCY_HZ: 
LATE/NORMAL_TRIGGERED: 
DATABASE_VERSION: 
HEADER_FORMAT: DYNA 1.2
DATA_TYPE: Acceleration
PROCESSING: Automatic Paolucci et al., 2011
DATA_TIMESTAMP_YYYYMMDD_HHMMSS: 
DATA_LICENSE: U (unknown license)
DATA_CITATION: Turkish Accelerometric Archive v 1.0 - Disaster And Emergency Management Presidency, Earthquake Department
DATA_CREATOR: AFAD
ORIGINAL_DATA_MEDIATOR_CITATION: : AFAD - Disaster And Emergency Management Presidency
ORIGINAL_DATA_MEDIATOR: AFAD PROCESS SERVICE
ORIGINAL_DATA_CREATOR_CITATION: AFAD PROCESS SERVICE
ORIGINAL_DATA_CREATOR: network: TK
USER1: GuestUser
USER2: 
USER3: 
USER4: 
USER5: 
[...]
0.486595
0.478542
0.486076
0.493869
0.489713
0.490752
0.490232
0.475685
0.480621
0.470231
0.456723
0.472049
0.466854
0.458022
0.453866
0.445813
0.438280
0.422174
0.418018
0.418797
0.404510
0.391522
0.384508
0.379573
0.375936
0.353077
0.353856
0.363467
0.354635
0.372560
0.382171
0.407628
0.448932
0.462180
0.487897
0.529460
0.574660
0.602455
0.622457
0.660903
0.683243
0.703505
0.734158
0.747666
0.759875
0.772604
0.782994
0.779617
0.771045
0.772604
0.744029
0.726885
0.710260
0.670775
0.659605
0.618042
0.580116
0.573882
0.526345
0.483483
0.459844
0.426334
0.403215
0.364250
0.323726
0.319050
0.293853
0.263460
0.254628
0.237743
0.223716
0.212806
0.205792
0.209689
0.222677
0.220340
0.208650
0.206572
0.192285
0.169166
0.142669
0.113575
0.086819
0.055647
0.012786
-0.020724
-0.048000
-0.092420
-0.120735
-0.156583
-0.213212
-0.251657
-0.277115
-0.316859
-0.364656
-0.376346
-0.393230
-0.410635
-0.408557
-0.426740
-0.417648
-0.408297
-0.425441
-0.401283
-0.374786
-0.359979
-0.307766
-0.270100
-0.236330
-0.184636
-0.145670
-0.106705
-0.057609
-0.010591
0.022660
0.062404
0.092797
0.125528
0.157739
0.164753
0.175404
0.181638
0.172027
0.161896
0.153064
0.130464
0.131503
0.129685
0.112800
0.127088
0.127607
0.130984
0.145791
0.143453
0.137479
0.143194
0.142155
0.139297
0.140336
0.123452
0.121374
0.108385
0.095397
0.097215
0.070719
0.048119
0.034352
0.005518
-0.027213
-0.058385
-0.097610
-0.129821
-0.173722
-0.216583
-0.263341
-0.325426
-0.364131
-0.413747
-0.454011
-0.487781
-0.522589
-0.548047
-0.597143
-0.619742
-0.636627
-0.682086
-0.705725
-0.721311
-0.747807
-0.753522
-0.760016
-0.762094
-0.742871
-0.738715
-0.720272
-0.686242
-0.665460
-0.645718
-0.614805
-0.594803
-0.579217
-0.545447
-0.532718
-0.515314
-0.486999
-0.469854
-0.439981
-0.412445
-0.388806
-0.367505
-0.351919
-0.322046
-0.302563
-0.287237
-0.244115
-0.212423
-0.157353
-0.096047
-0.054484
0.028382
0.100338
0.169956
0.245808
0.301398
0.360885
0.401929
0.454402
0.499082
0.522461
0.566622
0.594937
0.614939
0.638058
0.656502
0.675205
0.685596
0.697805
0.701182
0.693649
0.688194
0.679362
0.664296
0.653905
0.636241
0.620655
0.605069
0.580911
0.582209
0.557532
0.535971
0.534153
0.502201
0.488174
0.451287
0.402710
0.367642
0.315688
0.263475
0.200611
0.158269
0.107355
0.051245
0.012540
-0.059935
-0.099940
-0.131112
-0.202028
-0.234239
-0.267749
-0.319703
-0.340224
-0.361006
-0.396854
-0.414518
-0.423869
-0.454002
-0.468290
-0.472446
-0.491668
-0.496604
-0.502059
-0.517125
-0.521282
-0.535049
-0.553493
-0.559987
-0.579469
-0.585704
-0.594795
-0.618954
-0.607004
-0.623110
-0.641294
-0.638696
-0.658958
-0.645969
-0.661036
-0.663633
-0.624668
-0.626486
-0.592716
-0.558167
-0.539204
-0.500239
-0.485692
-0.472443
-0.456857
-0.446466
-0.438154
-0.437894
-0.439712
-0.431399
-0.432438
-0.420489
-0.401266
-0.407500
-0.376068
-0.360742
-0.346455
-0.305411
-0.296060
-0.259172
-0.229819
-0.206180
-0.161759
-0.134483
-0.087206
-0.048240
-0.012912
0.048913
0.083722
0.143729
0.203215
0.231011
0.298550
0.337516
0.379079
0.428694
0.450515
0.492857
0.513379
0.547409
0.582477
0.601960
0.640666
0.654433
0.678592
0.695997
0.700932
0.704829
0.680930
0.668981
0.635211
0.603000
0.571309
0.513900
0.474155
0.413110
0.356221
0.292318
0.215167
0.158018
0.087102
0.017744
-0.041223
-0.108243
-0.171886
-0.221242
-0.292938
-0.340735
-0.374245
-0.430615
-0.453474
-0.496596
-0.515819
-0.518676
-0.545692
-0.535820
-0.526728
-0.509584
-0.482827
-0.452435
-0.406456
-0.353723
-0.298911
-0.241503
-0.173703
-0.114736
-0.044858
0.028916
0.092559
0.162957
0.231016
0.298036
0.360900
0.414152
0.457274
0.503513
0.540919
0.565078
0.578846
0.580404
0.566897
0.540141
0.523516
0.488187
0.452339
0.431818
0.395450
0.371812
0.359343
0.325833
0.306610
0.292063
0.261411
0.255956
0.233356
0.213094
0.202963
0.185299
0.177506
0.154647
0.151789
0.135164
0.126592
0.123994
0.087367
0.083211
0.043207
0.001124
-0.023034
-0.093950
-0.130837
-0.193182
-0.264358
-0.303843
-0.371382
-0.405412
-0.448533
-0.493992
-0.519969
-0.559973
-0.583872
-0.621798
-0.661023
-0.691935
-0.719211
-0.742590
-0.766488
-0.771424
-0.762332
-0.739212
-0.699727
-0.655307
-0.584910
-0.504122
-0.416580
-0.313972
-0.235781
-0.124341
-0.030824
0.048405
0.155689
0.213098
0.292587
0.369478
0.412081
0.470788
0.527158
0.566902
0.605088
0.644313
0.670550
0.702502
0.724062
0.740168
0.766405
0.776276
0.778874
0.780173
0.764327
0.752118
0.730817
0.692112
0.661719
0.627170
0.581970
0.540667
0.486896
0.438839
0.396237
0.348440
0.298824
0.246351
0.214659
0.160108
0.126598
0.081139
0.020873
-0.003545
-0.067708
-0.104335
-0.144079
-0.203306
-0.238635
-0.298122
-0.343841
-0.387222
-0.454761
-0.490090
-0.537627
-0.596075
-0.632442
-0.680499
-0.705437
-0.741545
-0.772717
-0.790381
-0.832723
-0.849608
-0.880260
-0.920524
-0.930135
-0.948579
-0.960009
-0.958450
-0.965204
-0.970139
-0.960528
-0.957411
-0.959229
-0.945201
-0.937148
-0.924679
-0.905976
-0.908833
-0.898962
-0.882856
-0.897923
-0.903897
-0.908833
-0.914808
-0.899741
-0.899221
-0.880518
-0.827785
-0.791158
-0.737386
-0.668287
-0.605423
-0.507750
-0.424105
-0.335784
-0.217330
-0.110825
0.008669
0.120888
0.222198
0.330002
0.425856
0.515996
0.600680
0.674195
0.736020
0.784336
0.839148
0.871878
0.895777
0.931365
0.939159
0.951628
0.950329
0.940458
0.932665
0.897336
0.876295
0.837590
0.793949
0.755763
0.700692
0.658350
0.604059
0.552625
0.497814
0.431314
0.359098
0.274933
0.201939
0.110760
0.005035
-0.092378
-0.189531
-0.298893
-0.404879
-0.494239
-0.595548
-0.679713
-0.747512
-0.822585
-0.863368
-0.900515
-0.927011
-0.933765
-0.951170
-0.917400
-0.895060
-0.858692
-0.788035
-0.741796
-0.653215
-0.605937
-0.547749
-0.467221
-0.438906
-0.371367
-0.326946
-0.288760
-0.232131
-0.206154
-0.170566
-0.128743
-0.091076
-0.039123
0.011272
0.061667
0.138039
0.185837
0.237790
0.305330
0.352088
0.430538
0.494182
0.559124
0.640171
0.703295
0.778108
0.837855
0.896822
0.969038
1.023329
1.064892
1.120483
1.168020
1.202310
1.237119
1.231924
1.248289
1.251666
1.220754
1.215818
1.170099
1.143863
1.119964
1.067751
1.041255
0.996835
0.966442
0.929295
0.878381
0.859418
0.811880
0.767200
0.746679
0.690569
0.663813
0.630303
0.567179
0.541722
0.485872
0.445868
0.407422
0.334428
0.310529
0.254939
0.191556
0.165839
0.092584
0.042449
-0.011323
-0.099384
-0.136271
-0.209006
-0.271870
-0.305120
-0.378634
-0.400195
-0.432925
-0.473709
-0.466695
-0.478125
-0.470072
-0.459421
-0.454486
-0.428769
-0.419157
-0.396557
-0.376815
-0.361229
-0.328498
-0.315249
-0.294468
-0.276804
-0.273946
-0.258879
-0.260698
-0.270309
-0.252125
-0.266153
-0.282258
-0.260178
-0.286934
-0.300182
-0.297584
-0.321223
-0.326158
-0.343043
-0.324859
-0.325639
-0.325379
-0.280699
-0.288492
-0.247968
-0.224069
-0.211860
-0.174193
-0.181986
-0.158607
-0.155230
-0.144060
-0.152892
-0.155749
-0.131591
-0.154710
-0.126655
-0.123797
-0.136266
-0.097041
-0.097820
-0.095223
-0.072623
-0.075220
-0.045347
-0.039892
-0.041450
0.016738
0.017517
0.049729
0.093629
0.106618
0.175716
0.194939
0.236242
0.289235
0.299626
0.345605
0.366127
0.381453
0.401975
0.415223
0.420678
0.413665
0.422757
0.413665
0.421198
0.435486
0.437824
0.445357
0.459644
0.485881
0.469256
0.493674
0.519131
0.493414
0.529003
0.540952
0.539134
0.565371
0.569527
0.579918
0.599660
0.603037
0.620182
0.659407
0.666681
0.699931
0.721752
0.731363
0.767731
0.745910
0.756561
0.760977
0.720713
0.730844
0.714739
0.689541
0.690840
0.661746
0.648758
0.640445
0.625119
0.636029
0.608494
0.614729
0.625379
0.591610
0.609534
0.585895
0.553943
0.532902
0.479910
0.450556
0.399642
0.353143
0.315997
0.251055
0.207673
0.179099
0.127146
0.095714
0.067919
0.024278
0.012588
-0.029754
-0.071836
-0.077551
-0.103787
-0.120672
-0.150026
-0.158079
-0.147168
-0.174184
-0.177561
-0.176522
-0.173924
-0.163014
-0.165611
-0.142752
-0.118853
-0.107683
-0.083784
-0.045598
-0.019881
0.011811
0.067661
0.102990
0.133382
0.182219
0.220924
0.250538
0.306908
0.347172
0.383280
0.444845
0.474978
0.512125
0.534465
0.547973
0.556545
0.518879
0.507709
0.473420
0.413414
0.369773
0.297298
0.233135
0.169752
0.075196
0.000903
-0.087158
-0.193663
-0.244578
-0.339912
-0.426415
-0.460445
-0.555779
-0.599160
-0.644100
-0.704107
-0.710860
-0.753982
-0.750345
-0.772685
-0.797363
-0.760216
-0.798142
-0.790609
-0.777880
-0.790089
-0.753202
-0.755799
-0.735018
-0.697871
-0.695273
-0.672933
-0.622278
-0.615784
-0.601237
-0.543828
-0.538373
-0.500447
-0.453169
-0.430309
-0.383551
-0.356015
-0.303802
-0.266915
-0.258602
-0.207687
-0.177554
-0.168982
-0.131315
-0.108975
-0.071049
-0.046631
-0.039357
0.015973
0.026104
0.048445
0.068187
0.062992
0.107152
0.077799
0.071564
0.105594
0.082215
0.085332
0.073903
0.074682
0.093385
0.070526
0.087151
0.070266
0.037016
0.064552
0.026106
-0.001949
0.007403
-0.011040
-0.036238
-0.059357
-0.054941
-0.089490
-0.108453
-0.112609
-0.159108
-0.164043
-0.179369
-0.205346
-0.197553
-0.192098
-0.171576
-0.153132
-0.133130
-0.078839
-0.046367
-0.015455
0.031823
0.059099
0.095466
0.104039
0.124301
0.134432
0.106896
0.123522
0.101961
0.084816
0.077283
0.045332
0.044812
0.009484
-0.014934
-0.035715
-0.079097
-0.081954
-0.118321
-0.170794
-0.184043
-0.217553
-0.251582
-0.294703
-0.330032
-0.338864
-0.390817
-0.396013
-0.390038
-0.413417
-0.403805
-0.417053
-0.386920
-0.368736
-0.378088
-0.333148
-0.334187
-0.317302
-0.280415
-0.297300
-0.277817
-0.264309
-0.262231
-0.246904
-0.266647
-0.245346
-0.248982
-0.280674
-0.265867
-0.281193
-0.280154
-0.283011
-0.293142
-0.270802
-0.275997
-0.268204
-0.267165
-0.280413
-0.268464
-0.298337
-0.330029
-0.331847
-0.365876
-0.400685
-0.437053
-0.447963
-0.457574
-0.517321
-0.510047
-0.526153
-0.562001
-0.534985
-0.574209
-0.560701
-0.536543
-0.560441
-0.500955
-0.490304
-0.453936
-0.368213
-0.356004
-0.277034
-0.211313
-0.173646
-0.093898
-0.077272
-0.018824
0.013127
-0.003498
0.030012
0.003776
-0.011810
-0.036228
-0.094936
-0.129485
-0.190011
-0.238847
-0.298074
-0.344572
-0.383797
-0.460169
-0.491341
-0.542255
-0.608236
-0.639668
-0.690583
-0.702272
-0.715520
-0.721235
-0.718637
-0.714741
-0.660969
-0.645382
-0.591091
-0.524330
-0.467961
-0.381458
-0.318594
-0.228714
-0.164032
-0.095713
-0.013106
0.044043
0.102750
0.139118
0.184577
0.220425
0.224582
0.249000
0.256533
0.254196
0.285628
0.270561
0.290563
0.338361
0.328490
0.380183
0.394211
0.415252
0.467206
0.430059
0.471882
0.465388
0.439411
0.466687
0.401485
0.411876
0.379405
0.321217
0.312645
0.235234
0.210556
0.121976
0.039889
0.005600
-0.119349
-0.181173
-0.272611
-0.368466
-0.407950
-0.515494
-0.565889
-0.626155
-0.693955
-0.709541
-0.779678
-0.789289
-0.798641
-0.825656
-0.798640
-0.824357
-0.809291
-0.782794
-0.792146
-0.749284
-0.739673
-0.705383
-0.643818
-0.624335
-0.543288
-0.471592
-0.408468
-0.297547
-0.242476
-0.160389
-0.046091
0.015733
0.107691
0.188999
0.248746
0.332391
0.378110
0.416556
0.480978
0.505397
0.499162
0.551895
0.568521
0.549038
0.598654
0.579431
0.571119
0.620994
0.569560
0.559949
0.586965
0.549039
0.556832
0.561248
0.533972
0.544103
0.543844
0.510074
0.515789
0.520984
0.492150
0.479941
0.466433
0.448250
0.414480
0.383308
0.336550
0.275245
0.232123
0.164844
0.093148
0.013659
-0.056479
-0.142721
-0.265072
-0.344821
-0.424569
-0.532373
-0.608485
-0.676804
-0.752136
-0.799674
-0.858641
-0.891112
-0.891112
-0.909555
-0.903840
-0.886436
-0.859420
-0.823052
-0.788503
-0.740706
-0.693947
-0.633941
-0.564323
-0.499121
-0.399110
-0.312607
-0.247665
-0.143498
-0.066087
0.005349
0.098865
0.173159
0.249011
0.319409
0.392663
0.460463
0.501246
0.552161
0.606712
0.634767
0.658666
0.696592
0.743610
0.772704
0.815826
0.881807
0.914278
0.968570
1.029875
1.066762
1.127288
1.184437
1.224182
1.256393
1.306269
1.337441
1.344455
1.386278
1.404461
1.408098
1.426802
1.430438
1.427061
1.411735
1.390175
1.354587
1.316660
1.268604
1.191453
1.130147
1.047541
0.938958
0.851417
0.745431
0.624639
0.518394
0.406694
0.297852
0.201478
0.108741
0.032889
-0.039587
-0.103749
-0.161677
-0.207137
-0.224541
-0.262987
-0.271819
-0.249738
-0.244283
-0.219345
-0.199862
-0.168430
-0.136998
-0.105047
-0.042703
-0.011790
0.041203
0.103028
0.136538
0.197323
0.242263
0.285904
0.325389
0.363056
0.432933
0.470860
0.511124
0.580742
0.615551
0.658672
0.716081
0.761281
0.820768
0.855836
0.895581
0.948574
0.967017
0.979746
0.980785
0.965199
0.946756
0.910129
0.851421
0.794012
0.729590
0.654777
0.565677
0.469822
0.391113
0.291622
0.187715
0.085886
-0.003994
-0.090496
-0.205054
-0.266879
-0.330262
-0.409751
-0.454431
-0.504046
-0.534959
-0.570807
-0.604836
-0.617305
-0.637567
-0.646139
-0.636527
-0.629514
-0.601978
-0.568728
-0.537556
-0.479367
-0.429752
-0.349743
-0.268955
-0.205312
-0.104522
-0.023734
0.069263
0.172651
0.252659
0.369815
0.485671
0.584123
0.709332
0.818954
0.924160
1.041575
1.138988
1.227050
1.307318
1.387067
1.443956
1.493572
1.549422
1.580075
1.612026
1.640081
1.663980
1.678008
1.673332
1.661642
1.620599
1.583972
1.535136
1.459543
1.410187
1.340050
1.266276
1.197957
1.102103
1.035083
0.951178
0.858701
0.783888
0.692190
0.627248
0.554253
0.473725
0.401250
0.324099
0.271366
0.193696
0.111090
0.052122
-0.036458
-0.111531
-0.183227
-0.284796
-0.360648
-0.445852
-0.535472
-0.599894
-0.675747
-0.732376
-0.777056
-0.824853
-0.843556
-0.861740
-0.875508
-0.858363
-0.849790
-0.815501
-0.756014
-0.703281
-0.636780
-0.566643
-0.464554
-0.377012
-0.287652
-0.162184
-0.065290
0.051605
0.166423
0.247211
0.342026
0.425412
0.470871
0.514252
0.557374
0.560751
0.553737
0.532956
0.484899
0.437102
0.370082
0.292411
0.217079
0.139928
0.068492
-0.002944
-0.066588
-0.126074
-0.183223
-0.233099
-0.291546
-0.343240
-0.383504
-0.437536
-0.482475
-0.514946
-0.553392
-0.578849
-0.588460
-0.597033
-0.602747
-0.596253
-0.580407
-0.571575
-0.584044
-0.588719
-0.600928
-0.631061
-0.655480
-0.690548
-0.721201
-0.757828
-0.784324
-0.794715
-0.810560
-0.810301
-0.808482
-0.799910
-0.767698
-0.739124
-0.711848
-0.651582
-0.605083
-0.559884
-0.481693
-0.413115
-0.329729
-0.252838
-0.167893
-0.055414
0.019399
0.132399
0.242540
0.304105
0.436847
0.528025
0.604917
0.721813
0.773766
0.851177
0.915600
0.947032
0.976905
0.993790
1.016390
0.994050
0.989374
0.971970
0.925472
0.914302
0.876116
0.823903
0.778703
0.732724
0.690902
0.628038
0.567512
0.509064
0.428796
0.361257
0.295795
0.216566
0.123569
0.027195
-0.049956
-0.164773
-0.289721
-0.393369
-0.519096
-0.624042
-0.714182
-0.810815
-0.884329
-0.960701
-1.021747
-1.062530
-1.120198
-1.146175
-1.173710
-1.197869
-1.189296
-1.194751
-1.162540
-1.146954
-1.131887
-1.067205
-1.031876
-0.972130
-0.914201
-0.869521
-0.779641
-0.731065
-0.668720
-0.590011
-0.561436
-0.479609
-0.420122
-0.374663
-0.302707
-0.274132
-0.204255
-0.155678
-0.109699
-0.043718
-0.021637
0.037590
0.078373
0.109026
0.146433
0.169292
0.189554
0.194230
0.226442
0.225403
0.234754
0.274239
0.277356
0.308788
0.331908
0.336064
0.355547
0.346195
0.337883
0.324635
0.291125
0.269304
0.226703
0.187218
0.144616
0.078895
0.038111
-0.013582
-0.062938
-0.115411
-0.182691
-0.212304
-0.280104
-0.337512
-0.348682
-0.415183
-0.431029
-0.437003
-0.460642
-0.422196
-0.405831
-0.361151
-0.315691
-0.271790
-0.180871
-0.120865
-0.042675
0.040971
0.112927
0.200209
0.273723
0.360745
0.450106
0.517386
0.597654
0.673506
0.737929
0.815859
0.875086
0.927560
0.964447
0.986787
1.018998
1.020037
0.995100
0.973539
0.937951
0.869113
0.800534
0.721824
0.634802
0.549598
0.459199
0.390621
0.318665
0.257879
0.191119
0.129035
0.092667
0.043831
0.017075
-0.004745
-0.012019
-0.006564
-0.005784
0.034480
0.070847
0.094746
0.146700
0.192679
0.230605
0.276584
0.320745
0.373997
0.404130
0.438160
0.478944
0.496348
0.533495
0.555316
0.565187
0.590125
0.603113
0.610647
0.611686
0.603373
0.592723
0.571162
0.539730
0.501545
0.461540
0.425693
0.376337
0.336852
0.290094
0.246193
0.223334
0.180472
0.163587
0.145923
0.129038
0.139949
0.127740
0.123843
0.132935
0.131377
0.133195
0.130338
0.125662
0.125143
0.113973
0.108518
0.086697
0.054746
0.037861
0.004611
-0.030198
-0.082931
-0.137222
-0.184500
-0.239830
-0.296460
-0.367636
-0.418031
-0.476998
-0.536745
-0.574930
-0.625585
-0.655458
-0.674421
-0.703515
-0.715464
-0.717023
-0.719361
-0.701437
-0.671044
-0.641950
-0.603764
-0.564019
-0.520118
-0.474399
-0.434654
-0.392052
-0.363738
-0.331267
-0.292301
-0.281131
-0.249180
-0.232035
-0.217748
-0.192290
-0.199564
-0.179042
-0.184237
-0.190212
-0.187094
-0.205798
-0.199303
-0.215928
-0.213331
-0.215409
-0.225540
-0.221903
-0.247620
-0.247620
-0.255412
-0.274116
-0.270998
-0.283207
-0.288922
-0.268141
-0.256711
-0.230994
-0.190470
-0.157219
-0.106045
-0.074873
-0.034349
0.008253
0.034750
0.078131
0.092678
0.122292
0.151126
0.163075
0.184117
0.192689
0.215289
0.219186
0.224641
0.242305
0.248540
0.272698
0.278413
0.282569
0.290622
0.295298
0.312183
0.304130
0.322055
0.344395
0.341797
0.377126
0.389595
0.414792
0.442847
0.435834
0.464928
0.465707
0.472201
0.495580
0.496620
0.515063
0.522597
0.530909
0.552210
0.570394
0.577148
0.585980
0.587539
0.584942
0.575330
0.550133
0.539742
0.511168
0.475580
0.442849
0.408300
0.388817
0.359464
0.332968
0.315563
0.292704
0.261532
0.235555
0.211916
0.185680
0.155806
0.119439
0.085929
0.053458
0.030858
0.010597
-0.017458
-0.032005
-0.034083
-0.037980
-0.033304
-0.030966
-0.022913
-0.011743
-0.019796
-0.015639
-0.021094
-0.029926
-0.031225
-0.052006
-0.069930
-0.080840
-0.090971
-0.115909
-0.124481
-0.137210
-0.159809
-0.163706
-0.189683
-0.206827
-0.211243
-0.214620
-0.231505
-0.247091
-0.256183
-0.281380
-0.289952
-0.315669
-0.343464
-0.359830
-0.371259
-0.383728
-0.406588
-0.402431
-0.412302
-0.442435
-0.445033
-0.455423
-0.485556
-0.490752
-0.520885
-0.560110
-0.575436
-0.612323
-0.641417
-0.659600
-0.685837
-0.709476
-0.720905
-0.745064
-0.760390
-0.773898
-0.791302
-0.786107
-0.819876
-0.829747
-0.819097
-0.851308
-0.858841
-0.863777
-0.868972
-0.869232
-0.871569
-0.854944
-0.860399
-0.837540
-0.825850
-0.824291
-0.780650
-0.781949
-0.726359
-0.697264
-0.693108
-0.611801
-0.611281
-0.568679
-0.513089
-0.512829
-0.470227
-0.454900
-0.424248
-0.385023
-0.379048
-0.353331
-0.325535
-0.323457
-0.320600
-0.301896
-0.295142
-0.307871
-0.302156
-0.299558
-0.320339
-0.317222
-0.318781
-0.327093
-0.322417
-0.323456
-0.328392
-0.331249
-0.334626
-0.349173
-0.370474
-0.402685
-0.431259
-0.459574
-0.500357
-0.539063
-0.569455
-0.612577
-0.651802
-0.682974
-0.725316
-0.744539
-0.779088
