EVENT_NAME: 202302060117
EVENT_ID: 13194
EVENT_DATE_YYYYMMDD: 2023/02/06
EVENT_TIME_HHMMSS: 01:17:32.00000
EVENT_LATITUDE_DEGREE: 37.288
EVENT_LONGITUDE_DEGREE: 37.043
EVENT_DEPTH_KM: 8.6
HYPOCENTER_REFERENCE: AFAD
MAGNITUDE_W: 7.7
MAGNITUDE_W_REFERENCE: AFAD
MAGNITUDE_L: 
MAGNITUDE_L_REFERENCE: 
FOCAL_MECHANISM: 
NETWORK: TK
STATION_CODE: 6606
STATION_NAME: 
STATION_LATITUDE_DEGREE: 39.19403
STATION_LONGITUDE_DEGREE: 35.25498
STATION_ELEVATION_M: 1066.0
LOCATION: Kahramanmaras_Pazarck_Turkiye
SENSOR_DEPTH_M: 
VS30_M/S: None
SITE_CLASSIFICATION_EC8: unknown
MORPHOLOGIC_CLASSIFICATION: 
EPICENTRAL_DISTANCE_KM: 263.24
EARTHQUAKE_BACKAZIMUTH_DEGREE: 
DATE_TIME_FIRST_SAMPLE_YYYYMMDD_HHMMSS: 2023/02/06 01:17:54.8768770
DATE_TIME_FIRST_SAMPLE_PRECISION: millisecond
SAMPLING_INTERVAL_S: 0.01
NDATA: 18251
DURATION_S: 
STREAM: HNZ
UNITS: cm/s^2
INSTRUMENT: sensor = ACEBOX/SARA | digitizer = 
INSTRUMENT_ANALOG/DIGITAL: 
INSTRUMENTAL_FREQUENCY_HZ: 
INSTRUMENTAL_DAMPING: 
FULL_SCALE_G: 
N_BIT_DIGITAL_CONVERTER: 
PGA_CM/S^2: 4.001
TIME_PGA_S: 
BASELINE_CORRECTION: BASELINE REMOVED
FILTER_TYPE: BUTTERWORTH
FILTER_ORDER: 
LOW_CUT_FREQUENCY_HZ: 
HIGH_CUT_FREQUENCY_HZ: 
LATE/NORMAL_TRIGGERED: 
DATABASE_VERSION: 
HEADER_FORMAT: DYNA 1.2
DATA_TYPE: Acceleration
PROCESSING: Automatic Paolucci et al., 2011
DATA_TIMESTAMP_YYYYMMDD_HHMMSS: 
DATA_LICENSE: U (unknown license)
DATA_CITATION: Turkish Accelerometric Archive v 1.0 - Disaster And Emergency Management Presidency, Earthquake Department
DATA_CREATOR: AFAD
ORIGINAL_DATA_MEDIATOR_CITATION: : AFAD - Disaster And Emergency Management Presidency
ORIGINAL_DATA_MEDIATOR: AFAD PROCESS SERVICE
ORIGINAL_DATA_CREATOR_CITATION: AFAD PROCESS SERVICE
ORIGINAL_DATA_CREATOR: network: TK
USER1: GuestUser
USER2: 
USER3: 
USER4: 
USER5: 
[...]
-0.584464
-0.558981
-0.461020
-0.283568
-0.102842
-0.000439
0.051464
0.116225
0.217226
0.296483
0.274506
0.203198
0.204367
0.294846
0.402159
0.468557
0.478377
0.437930
0.379013
0.351425
0.363114
0.385559
0.407536
0.403561
0.309341
0.116926
-0.087413
-0.238914
-0.323549
-0.330796
-0.279361
-0.208053
-0.139317
-0.093492
-0.070580
-0.014469
0.116457
0.293676
0.477674
0.635721
0.733448
0.826733
1.002081
1.222552
1.411927
1.562259
1.681496
1.770105
1.825515
1.847491
1.849128
1.821540
1.727319
1.547529
1.277961
0.927499
0.595273
0.410105
0.351656
0.327107
0.337394
0.395610
0.418755
0.334355
0.150590
-0.083441
-0.272817
-0.369375
-0.442554
-0.514564
-0.514798
-0.408654
-0.208757
0.053096
0.310974
0.502688
0.598545
0.591764
0.497076
0.343939
0.146147
-0.084611
-0.313733
-0.490250
-0.580729
-0.591952
-0.526722
-0.396965
-0.254115
-0.104251
0.085592
0.279177
0.394906
0.375033
0.240366
0.103127
0.073902
0.173266
0.322429
0.407765
0.407297
0.375734
0.317285
0.222831
0.119025
0.013816
-0.080171
-0.142595
-0.179067
-0.180470
-0.146102
-0.122255
-0.131373
-0.149142
-0.158961
-0.171820
-0.211566
-0.255753
-0.233309
-0.135114
-0.028269
0.051924
0.099384
0.113178
0.106164
0.063146
-0.030373
-0.107527
-0.088121
-0.010501
-0.003955
-0.113839
-0.262301
-0.376160
-0.416607
-0.397903
-0.402112
-0.453547
-0.510360
-0.548001
-0.554782
-0.535844
-0.485110
-0.376394
-0.207827
-0.006761
0.183550
0.357729
0.524192
0.649975
0.731804
0.765237
0.731336
0.670081
0.621218
0.613269
0.673588
0.773186
0.864834
0.929128
0.969809
0.987811
0.950871
0.822750
0.616541
0.397473
0.208565
0.066416
-0.004892
-0.032480
-0.066615
-0.090228
-0.076434
-0.045340
-0.051185
-0.139560
-0.276098
-0.376163
-0.406557
-0.408427
-0.427599
-0.463136
-0.476228
-0.438353
-0.357927
-0.251316
-0.098646
0.131410
0.405888
0.651141
0.819943
0.898265
0.888212
0.804980
0.673352
0.523722
0.369415
0.213472
0.093534
0.025032
-0.055628
-0.194972
-0.375697
-0.568346
-0.724523
-0.797701
-0.811262
-0.843759
-0.920679
-0.966971
-0.928628
-0.837447
-0.741824
-0.666775
-0.574425
-0.370087
-0.044173
0.282208
0.526759
0.695327
0.782767
0.806848
0.814096
0.797263
0.739281
0.648801
0.551775
0.505016
0.518342
0.537747
0.542189
0.536578
0.537279
0.585442
0.685273
0.771778
0.791884
0.758919
0.675921
0.513432
0.274257
-0.044876
-0.412406
-0.730136
-0.936813
-1.041321
-1.127826
-1.261792
-1.392017
-1.475950
-1.518969
-1.536971
-1.564559
-1.592615
-1.597291
-1.594018
-1.597057
-1.596590
-1.571574
-1.530192
-1.500032
-1.477821
-1.409786
-1.221580
-0.927463
-0.641762
-0.430877
-0.253893
-0.048853
0.167643
0.308623
0.330834
0.287815
0.254382
0.280567
0.407285
0.607649
0.771775
0.826951
0.788141
0.715196
0.636172
0.524417
0.373384
0.194529
-0.025007
-0.277742
-0.559467
-0.869249
-1.161262
-1.384538
-1.532999
-1.625116
-1.675148
-1.677486
-1.624882
-1.545859
-1.471979
-1.396930
-1.303411
-1.194462
-1.078966
-0.955521
-0.825296
-0.717048
-0.660936
-0.626802
-0.561573
-0.482082
-0.410540
-0.313514
-0.169495
0.022452
0.256016
0.505945
0.763823
1.023806
1.250589
1.391569
1.402323
1.280983
1.068461
0.804971
0.515764
0.238013
0.002345
-0.178147
-0.259508
-0.211112
-0.072470
0.105449
0.328024
0.624947
0.950626
1.227910
1.446276
1.604557
1.662539
1.591932
1.418220
1.199386
0.944079
0.660016
0.401670
0.180263
-0.010749
-0.126946
-0.121335
0.032270
0.318671
0.640610
0.893812
1.053028
1.126908
1.116621
1.043208
0.910645
0.699526
0.426919
0.116436
-0.198489
-0.465486
-0.678709
-0.855693
-0.979606
-1.009065
-0.930509
-0.809168
-0.721260
-0.663279
-0.572332
-0.396282
-0.135365
0.169741
0.470170
0.729919
0.908774
0.973068
0.957637
0.930283
0.939635
1.006968
1.132517
1.311840
1.479005
1.557327
1.564107
1.534414
1.502852
1.483914
1.415645
1.232348
0.911578
0.470403
-0.032028
-0.507338
-0.873464
-1.100481
-1.208496
-1.240526
-1.244033
-1.273726
-1.356957
-1.428032
-1.420083
-1.346904
-1.223226
-1.060737
-0.895910
-0.760775
-0.654865
-0.562749
-0.512249
-0.546851
-0.642240
-0.718926
-0.727108
-0.691571
-0.678946
-0.699754
-0.664685
-0.471568
-0.134433
0.208080
0.466894
0.684325
0.886326
1.052322
1.181845
1.261103
1.282378
1.285417
1.290561
1.245905
1.096977
0.879077
0.666556
0.523238
0.482089
0.477881
0.404001
0.226315
-0.003508
-0.209483
-0.378752
-0.522772
-0.618862
-0.661414
-0.672402
-0.698354
-0.762648
-0.794678
-0.747685
-0.647620
-0.489807
-0.273544
-0.043254
0.144719
0.253668
0.314222
0.378750
0.474139
0.600389
0.685959
0.673100
0.612313
0.564150
0.530951
0.464319
0.331288
0.169033
0.005608
-0.146360
-0.242918
-0.260687
-0.196393
-0.090716
-0.057050
-0.163427
-0.363792
-0.576547
-0.746986
-0.844479
-0.874171
-0.895681
-0.954130
-1.043207
-1.143272
-1.214814
-1.215048
-1.132752
-0.999020
-0.858508
-0.722204
-0.608345
-0.512488
-0.379691
-0.227723
-0.100537
0.016829
0.128818
0.243846
0.348821
0.393008
0.388099
0.428779
0.575136
0.771292
0.942198
1.076631
1.183243
1.277697
1.351343
1.353681
1.265539
1.114038
0.965343
0.890996
0.889125
0.928169
0.998308
1.060498
1.065408
1.010699
0.890995
0.690397
0.437195
0.168561
-0.091187
-0.317269
-0.477654
-0.545222
-0.545456
-0.527687
-0.502905
-0.466199
-0.420842
-0.396293
-0.443754
-0.572577
-0.753536
-0.955771
-1.121533
-1.171332
-1.075241
-0.867162
-0.595022
-0.318440
-0.074823
0.129750
0.257637
0.268625
0.155233
-0.045832
-0.237780
-0.357017
-0.432066
-0.480462
-0.453809
-0.313297
-0.094229
0.120397
0.257636
0.305097
0.303226
0.267689
0.206668
0.176274
0.197316
0.193809
0.101693
-0.049574
-0.206452
-0.344159
-0.430430
-0.465032
-0.500336
-0.574683
-0.679191
-0.761020
-0.783231
-0.770606
-0.757279
-0.770606
-0.813625
-0.823210
-0.744421
-0.602272
-0.443524
-0.249005
0.010744
0.259271
0.416382
0.506160
0.567181
0.624695
0.709096
0.819215
0.947335
1.092290
1.228126
1.315098
1.316735
1.262494
1.255012
1.318839
1.346193
1.272313
1.152609
1.072416
1.086912
1.182301
1.268572
1.282132
1.238412
1.158921
1.020980
0.812199
0.574194
0.352320
0.140967
-0.094701
-0.372218
-0.649969
-0.847762
-0.946892
-0.996691
-1.038540
-1.059349
-1.043450
-1.037138
-1.102601
-1.243581
-1.420098
-1.592640
-1.724268
-1.777107
-1.755130
-1.703928
-1.630282
-1.468495
-1.198459
-0.920941
-0.731098
-0.650672
-0.651140
-0.654413
-0.622616
-0.598302
-0.616304
-0.677091
-0.757985
-0.820877
-0.806148
-0.674520
-0.488184
-0.331306
-0.190326
-0.023395
0.153356
0.311403
0.445368
0.551512
0.620249
0.638251
0.606922
0.512468
0.328469
0.122494
-0.014979
-0.112940
-0.238489
-0.398874
-0.537984
-0.584509
-0.530268
-0.397472
-0.206226
0.012609
0.246873
0.488620
0.702310
0.856383
0.951772
1.009987
1.036640
1.027522
1.005545
1.006480
1.023547
1.014897
0.959253
0.867137
0.769877
0.704881
0.685242
0.694594
0.696231
0.656953
0.582839
0.511764
0.460329
0.420116
0.400944
0.427831
0.511296
0.656484
0.853809
1.080125
1.327950
1.584893
1.810741
1.985154
2.108599
2.156995
2.107430
1.966917
1.764449
1.522703
1.226481
0.882799
0.542157
0.265107
0.097708
-0.003760
-0.124400
-0.276836
-0.427869
-0.545235
-0.624726
-0.666108
-0.631974
-0.486552
-0.226803
0.102149
0.411229
0.618373
0.664198
0.552209
0.357222
0.123424
-0.151755
-0.451717
-0.735547
-0.934976
-1.017039
-1.060993
-1.173683
-1.369839
-1.550097
-1.596155
-1.514326
-1.393453
-1.284270
-1.201038
-1.116871
-0.995764
-0.834912
-0.627767
-0.400517
-0.204594
-0.040469
0.104719
0.228865
0.341322
0.442790
0.506383
0.517137
0.532334
0.603642
0.688978
0.735270
0.730126
0.664897
0.537945
0.364701
0.151711
-0.084424
-0.312142
-0.507129
-0.624963
-0.613741
-0.449615
-0.177008
0.091157
0.293158
0.450036
0.584469
0.702537
0.751634
0.666532
0.485339
0.309290
0.199873
0.129967
0.052346
-0.005402
-0.006337
0.053048
0.179532
0.336410
0.443021
0.440216
0.321680
0.154983
0.022186
-0.064085
-0.128380
-0.177945
-0.189167
-0.151058
-0.102428
-0.098922
-0.171165
-0.290635
-0.378543
-0.384388
-0.315418
-0.220497
-0.153864
-0.151760
-0.229615
-0.358203
-0.488195
-0.574700
-0.559971
-0.452190
-0.332252
-0.236395
-0.172803
-0.119263
-0.026212
0.084842
0.155448
0.158254
0.090453
0.001610
-0.038370
-0.006807
0.072918
0.183270
0.319106
0.465931
0.596857
0.666762
0.639408
0.547526
0.488609
0.508715
0.541680
0.536069
0.526951
0.549863
0.593817
0.619768
0.600597
0.532796
0.445355
0.394154
0.387140
0.367501
0.299466
0.205012
0.145861
0.166669
0.219974
0.232599
0.201738
0.164097
0.135106
0.090217
0.006751
-0.060115
-0.018032
0.144457
0.334768
0.472241
0.560149
0.604102
0.575579
0.470604
0.329157
0.199399
0.106815
0.054445
0.025220
-0.020371
-0.095653
-0.155973
-0.147790
-0.075547
0.007919
0.042988
-0.009616
-0.142180
-0.320801
-0.530985
-0.774134
-1.032947
-1.272823
-1.471551
-1.642223
-1.830664
-2.042017
-2.210351
-2.299428
-2.292648
-2.149798
-1.891218
-1.602712
-1.356757
-1.152185
-0.927973
-0.656301
-0.332492
0.043220
0.436935
0.816154
1.140898
1.391061
1.601479
1.779398
1.889049
1.913598
1.896764
1.844160
1.669747
1.374929
1.053224
0.754197
0.491876
0.263924
0.071275
-0.073446
-0.164627
-0.210919
-0.234298
-0.215127
-0.127219
-0.033934
-0.005879
-0.023414
-0.017569
0.037607
0.112422
0.199629
0.313020
0.446986
0.583056
0.684524
0.713982
0.689667
0.658806
0.611813
0.511280
0.372872
0.215526
0.010486
-0.260251
-0.556706
-0.824404
-1.029678
-1.137693
-1.139797
-1.088829
-1.019158
-0.932185
-0.881451
-0.900857
-0.941537
-0.956500
-0.947616
-0.937329
-0.926341
-0.894544
-0.875139
-0.897116
-0.924237
-0.920029
-0.876542
-0.811547
-0.753799
-0.689739
-0.581724
-0.408013
-0.194089
-0.021079
0.062854
0.086234
0.092079
0.085766
0.042046
-0.047031
-0.166033
-0.257214
-0.241550
-0.143355
-0.061994
-0.034874
-0.055214
-0.123483
-0.213261
-0.302572
-0.429290
-0.628719
-0.873037
-1.111744
-1.312342
-1.473195
-1.584015
-1.594536
-1.494938
-1.329176
-1.132319
-0.938501
-0.775311
-0.664023
-0.633863
-0.671505
-0.724577
-0.750528
-0.733227
-0.654204
-0.482363
-0.252073
-0.043993
0.112417
0.231653
0.327043
0.374036
0.327978
0.180218
-0.039084
-0.277557
-0.485169
-0.632462
-0.732293
-0.831891
-0.940139
-1.049323
-1.178846
-1.311877
-1.375470
-1.315150
-1.169027
-1.015422
-0.894783
-0.813422
-0.743049
-0.656310
-0.564194
-0.470441
-0.364531
-0.258387
-0.191054
-0.191288
-0.228228
-0.228695
-0.118109
0.132287
0.473631
0.802117
1.038953
1.187648
1.273218
1.302209
1.277426
1.202611
1.087816
0.941459
0.784581
0.652953
0.549381
0.463110
0.378943
0.251757
0.070096
-0.094497
-0.168611
-0.166039
-0.167676
-0.245063
-0.351441
-0.369209
-0.306318
-0.245998
-0.197836
-0.136581
-0.031840
0.095813
0.168758
0.179980
0.168991
0.121297
0.027778
-0.047739
-0.032542
0.071030
0.243806
0.500282
0.811466
1.094594
1.286074
1.379125
1.403440
1.381697
1.315766
1.203543
1.058121
0.905218
0.759328
0.601749
0.410269
0.210372
0.055598
-0.017580
-0.002851
0.077809
0.181381
0.248948
0.230244
0.126906
-0.006826
-0.123023
-0.229635
-0.314036
-0.331337
-0.313335
-0.309594
-0.277564
-0.172589
-0.023192
0.131347
0.271860
0.373795
0.418450
0.431543
0.449545
0.464976
0.442297
0.380107
0.344102
0.370288
0.418450
0.477600
0.559429
0.617645
0.609228
0.532542
0.385952
0.195874
0.014214
-0.151549
-0.309362
-0.448004
-0.555083
-0.620546
-0.646030
-0.623352
-0.507388
-0.275929
0.048815
0.417046
0.767508
1.073314
1.333998
1.549326
1.730285
1.857704
1.885292
1.809074
1.673472
1.553767
1.507475
1.546519
1.661781
1.818659
1.974602
2.099216
2.158600
2.140364
2.065549
1.968289
1.886226
1.827777
1.775640
1.730751
1.687966
1.637699
1.591875
1.546051
1.477782
1.388238
1.302200
1.221540
1.091782
0.874818
0.623019
0.389455
0.177869
-0.010104
-0.150850
-0.204858
-0.160436
-0.045408
0.111236
0.289389
0.476895
0.665569
0.838111
0.966466
1.089210
1.283495
1.497186
1.618059
1.619929
1.508642
1.315057
1.095755
0.870141
0.651541
0.455151
0.292194
0.202650
0.194233
0.233043
0.303884
0.390622
0.458657
0.478998
0.410495
0.217144
-0.075804
-0.373661
-0.590392
-0.704952
-0.740256
-0.727163
-0.686950
-0.616577
-0.518382
-0.432111
-0.400549
-0.425799
-0.483313
-0.528904
-0.523526
-0.478170
-0.419253
-0.340463
-0.239229
-0.146879
-0.080948
-0.038164
-0.001925
0.085281
0.249173
0.443458
0.626522
0.795791
0.977451
1.175477
1.349189
1.460242
1.454865
1.297519
1.009481
0.620910
0.209427
-0.118591
-0.317552
-0.415046
-0.459935
-0.455961
-0.381146
-0.245309
-0.095445
0.012335
0.062134
0.044833
-0.050790
-0.182652
-0.323866
-0.488927
-0.672691
-0.856690
-1.015672
-1.119712
-1.166705
-1.193358
-1.216972
-1.227493
-1.235442
-1.218375
-1.147768
-1.048404
-0.947872
-0.871420
-0.824661
-0.802684
-0.820452
-0.842663
-0.830272
-0.785851
-0.721556
-0.637857
-0.520491
-0.391201
-0.264951
-0.150390
-0.064353
0.064236
0.241454
0.340350
0.332167
0.296162
0.264600
0.163833
-0.058742
-0.339299
-0.626870
-0.877500
-1.043029
-1.162032
-1.271683
-1.360058
-1.426924
-1.472047
-1.507818
-1.519508
-1.503376
-1.549902
-1.683634
-1.866931
-2.146553
-2.516420
-2.919253
-3.334711
-3.667872
-3.855845
-3.958482
-4.001267
-3.970172
-3.867769
-3.705981
-3.527126
-3.364871
-3.198641
-3.011837
-2.812876
-2.601056
-2.385962
-2.188170
-2.009783
-1.868102
-1.768504
-1.680362
-1.610925
-1.569309
-1.499170
-1.333408
-1.038122
-0.663345
-0.322001
-0.067396
0.124318
0.286106
0.444854
0.606642
0.725878
0.754168
0.670468
0.464960
0.189079
-0.089139
-0.358240
-0.611209
-0.817886
-0.938759
-0.963542
-0.919822
-0.816951
-0.668022
-0.480049
-0.243680
-0.009649
0.142319
0.201937
0.209886
0.190013
0.159620
0.140682
0.108184
0.006015
-0.186634
-0.437733
-0.698417
-0.928473
-1.091898
-1.185650
-1.239658
-1.253452
-1.217213
-1.152919
-1.086287
-1.017083
-0.925668
-0.834254
-0.794742
-0.816018
-0.886391
-1.001419
-1.145672
-1.283379
-1.352349
-1.318682
-1.237554
-1.177469
-1.137489
-1.116915
-1.130709
-1.158297
-1.179106
-1.171858
-1.097510
-0.973598
-0.865116
-0.803861
-0.775338
-0.747049
-0.695380
-0.613317
-0.511381
-0.394716
-0.236670
-0.021576
0.240978
0.532056
0.818223
1.076803
1.326966
1.578532
1.791054
1.920811
1.947464
1.871480
1.742190
1.601210
1.445968
1.301482
1.177803
1.047578
0.897246
0.724704
0.570865
0.505168
0.532288
0.612013
0.721664
0.862644
1.007598
1.076568
1.016950
0.861474
0.693374
0.582554
0.530651
0.499790
0.468227
0.427780
0.398789
0.397620
0.403231
0.410946
0.413986
0.390606
0.339638
0.242846
0.100697
-0.032100
-0.093589
-0.056649
0.031960
0.111919
0.160782
0.171771
0.159146
0.110048
0.011152
-0.087978
-0.142219
-0.148064
-0.142687
-0.159988
-0.160222
-0.080965
0.080122
0.263886
0.423803
0.547015
0.608503
0.598450
0.530649
0.393409
0.190006
-0.012696
-0.129361
-0.130297
-0.037713
0.120801
0.318360
0.531349
0.724232
0.852587
0.926233
0.988657
1.042897
1.079370
1.112335
1.160965
1.220583
1.275993
1.319012
1.349405
1.386579
1.458355
1.552341
1.599802
1.563329
1.468408
1.334442
1.189020
1.058795
0.937220
0.832712
0.773562
0.775900
0.826634
0.903787
1.010866
1.127530
1.208892
1.239753
1.201878
1.086849
0.936050
0.783380
0.629776
0.479911
0.353193
0.247283
0.132489
-0.003348
-0.148068
-0.270111
-0.335574
-0.323183
-0.196698
0.045048
0.330982
0.606161
0.830607
0.948908
0.954051
0.893732
0.804889
0.692432
0.541165
0.320928
0.022135
-0.323417
-0.635537
-0.831927
-0.917730
-0.953267
-0.991610
-1.081856
-1.203665
-1.277545
-1.276376
-1.223070
-1.132590
-1.005639
-0.857645
-0.720406
-0.594156
-0.431433
-0.208858
0.043176
0.280246
0.441332
0.476168
0.404860
0.273933
0.125238
0.009976
-0.046837
-0.047538
-0.011534
0.017457
0.001793
-0.069749
-0.202780
-0.394026
-0.606081
-0.805042
-1.000263
-1.205537
-1.426943
-1.674534
-1.913709
-2.060300
-2.062404
-1.967249
-1.855494
-1.754961
-1.667755
-1.592706
-1.505266
-1.388133
-1.262584
-1.142413
-0.984366
-0.755712
-0.488949
-0.235981
-0.035383
0.113312
0.257331
0.426367
0.600545
0.754618
0.863567
0.910794
0.925991
0.947033
0.965503
0.952877
0.883440
0.763969
0.631406
0.521755
0.468917
0.486451
0.561500
0.652214
0.711598
0.730769
0.694531
0.593296
0.476632
0.382879
0.319753
0.272059
0.198179
0.083618
-0.049179
-0.156258
-0.178001
-0.067649
0.182514
0.532976
0.925989
1.309183
1.629719
1.832421
1.867257
1.752696
1.567295
1.350798
1.103908
0.818676
0.486683
0.135286
-0.197408
-0.510228
-0.797331
-1.009853
-1.117868
-1.159951
-1.203671
-1.268901
-1.314491
-1.303971
-1.232663
-1.111556
-0.968472
-0.810191
-0.627829
-0.461132
-0.352650
-0.298877
-0.277835
-0.266847
-0.257261
-0.232011
-0.157663
-0.035621
0.102787
0.247507
0.409295
0.586513
0.769576
0.972278
1.206777
1.424676
1.568227
1.639535
1.653096
1.616389
1.545782
1.447354
1.326714
1.191112
1.053405
0.939312
0.847196
0.750170
0.637713
0.500007
0.321386
0.118449
-0.086825
-0.307763
-0.548341
-0.779800
-0.978995
-1.135873
-1.243888
-1.299765
-1.296726
-1.241316
-1.157617
-1.079762
-1.034172
-1.032302
-1.080932
-1.152707
-1.165099
-1.051240
-0.812065
-0.509765
-0.239262
-0.060875
0.035917
0.070519
0.043866
-0.034222
-0.136158
-0.235288
-0.326703
-0.419988
-0.523092
-0.614975
-0.642329
-0.603753
-0.560266
-0.546472
-0.564007
-0.609364
-0.682776
-0.788219
-0.888051
-0.938317
-0.950708
-0.942993
-0.924289
-0.909093
-0.881271
-0.816041
-0.718782
-0.610768
-0.511871
-0.425133
-0.344940
-0.255396
-0.122365
0.069348
0.272986
0.387079
0.366972
0.275090
0.153047
0.015808
-0.091972
-0.156734
-0.196246
-0.213781
-0.195545
-0.106234
0.046903
0.222485
0.444358
0.743852
1.083793
1.422566
1.700083
1.838725
1.841764
1.790328
1.777236
1.830775
1.892731
1.906993
1.838023
1.683249
1.497614
1.296314
1.036332
0.709015
0.359488
0.067476
-0.135928
-0.288832
-0.404795
-0.466518
-0.466518
-0.391703
-0.253061
-0.102729
0.009026
0.071683
0.105116
0.115871
0.099505
0.077528
0.095296
0.148602
0.162864
0.102076
-0.007808
-0.167258
-0.367389
-0.566584
-0.748011
-0.904655
-1.008227
-1.015709
-0.900213
-0.702888
-0.481015
-0.241840
0.009492
0.240483
0.414195
0.498596
0.482230
0.359018
0.135976
-0.141542
-0.434022
-0.718320
-0.985550
-1.269146
-1.587344
-1.895022
-2.137002
-2.297621
-2.407739
-2.518092
-2.624469
-2.673333
-2.648784
-2.563215
-2.423872
-2.238003
-1.988775
-1.686943
-1.410828
-1.227297
-1.142195
-1.124427
-1.145235
-1.181707
-1.205321
-1.184981
-1.111335
-1.013374
-0.906294
-0.767887
-0.595110
-0.417658
-0.263586
-0.131023
0.000605
0.130596
0.231363
0.290046
0.324647
0.366965
0.465160
0.632324
0.828247
1.026273
1.210505
1.370890
1.510934
1.635081
1.752447
1.868644
1.983672
2.093557
2.185205
2.241784
2.237108
2.170943
2.074619
1.955850
1.813935
1.666175
1.529871
1.418583
1.350314
1.323194
1.289527
1.223129
1.152054
