EVENT_NAME: 202302060117
EVENT_ID: 13194
EVENT_DATE_YYYYMMDD: 2023/02/06
EVENT_TIME_HHMMSS: 01:17:32.00000
EVENT_LATITUDE_DEGREE: 37.288
EVENT_LONGITUDE_DEGREE: 37.043
EVENT_DEPTH_KM: 8.6
HYPOCENTER_REFERENCE: AFAD
MAGNITUDE_W: 7.7
MAGNITUDE_W_REFERENCE: AFAD
MAGNITUDE_L: 
MAGNITUDE_L_REFERENCE: 
FOCAL_MECHANISM: 
NETWORK: TU
STATION_CODE: NAR
STATION_NAME: 
STATION_LATITUDE_DEGREE: 37.3919
STATION_LONGITUDE_DEGREE: 37.1574
STATION_ELEVATION_M: 650.0
LOCATION: Kahramanmaras_Pazarck_Turkiye
SENSOR_DEPTH_M: 
VS30_M/S: None
SITE_CLASSIFICATION_EC8: unknown
MORPHOLOGIC_CLASSIFICATION: 
EPICENTRAL_DISTANCE_KM: 15.35
EARTHQUAKE_BACKAZIMUTH_DEGREE: 
DATE_TIME_FIRST_SAMPLE_YYYYMMDD_HHMMSS: 2023/02/06 01:17:05.0327280
DATE_TIME_FIRST_SAMPLE_PRECISION: millisecond
SAMPLING_INTERVAL_S: 0.01
NDATA: 10501
DURATION_S: 
STREAM: HNN
UNITS: cm/s^2
INSTRUMENT: sensor = CMG-5T/GURALP | digitizer = 
INSTRUMENT_ANALOG/DIGITAL: 
INSTRUMENTAL_FREQUENCY_HZ: 
INSTRUMENTAL_DAMPING: 
FULL_SCALE_G: 
N_BIT_DIGITAL_CONVERTER: 
PGA_CM/S^2: 784.569
TIME_PGA_S: 
BASELINE_CORRECTION: BASELINE REMOVED
FILTER_TYPE: BUTTERWORTH
FILTER_ORDER: 
LOW_CUT_FREQUENCY_HZ: 
HIGH_CUT_FREQUENCY_HZ: 
LATE/NORMAL_TRIGGERED: 
DATABASE_VERSION: 
HEADER_FORMAT: DYNA 1.2
DATA_TYPE: Acceleration
PROCESSING: Manual Paolucci et al., 2011
DATA_TIMESTAMP_YYYYMMDD_HHMMSS: 
DATA_LICENSE: U (unknown license)
DATA_CITATION: Turkish Accelerometric Archive v 1.0 - Disaster And Emergency Management Presidency, Earthquake Department
DATA_CREATOR: AFAD
ORIGINAL_DATA_MEDIATOR_CITATION: : AFAD - Disaster And Emergency Management Presidency
ORIGINAL_DATA_MEDIATOR: AFAD PROCESS SERVICE
ORIGINAL_DATA_CREATOR_CITATION: AFAD PROCESS SERVICE
ORIGINAL_DATA_CREATOR: network: TK
USER1: GuestUser
USER2: 
USER3: 
USER4: 
USER5: 
[...]
0.008759
0.002146
-0.003265
0.009962
-0.000559
-0.000258
0.004251
0.001846
0.000945
0.000644
0.006055
0.001546
0.002448
0.004853
0.001246
0.000345
0.006958
0.003651
-0.001458
0.001848
0.005155
0.002149
0.001849
0.007560
0.001548
0.002751
0.003352
0.001849
0.003954
0.000948
0.001549
0.004555
0.006960
0.002752
0.000047
0.005458
0.003053
-0.001756
0.002753
0.002452
0.001551
0.000950
0.004858
0.000349
-0.000553
0.006361
0.002754
-0.000552
0.005460
0.002153
-0.001754
0.002755
0.006062
-0.002054
0.004559
0.003657
0.000351
0.002455
0.004860
0.000652
0.003959
0.002456
-0.000249
0.001554
0.002456
0.004561
-0.000249
0.005763
0.000353
0.005463
-0.000549
-0.000248
0.006966
0.000654
-0.000849
0.009071
-0.001750
0.000354
0.006366
0.000354
0.000956
0.000956
0.001257
-0.000246
0.003061
0.004864
-0.001147
0.001558
0.007871
-0.002650
0.004564
0.007571
-0.002048
0.003663
0.001860
0.004565
0.003363
-0.002048
0.004566
0.002161
0.000057
0.001861
0.003965
0.000959
0.000959
0.000960
0.005469
0.003064
0.000058
0.001862
0.000660
0.003365
0.002163
0.001562
0.003366
0.002464
0.002464
0.002164
0.003066
0.003066
-0.000842
0.002766
0.005471
0.000962
0.002766
0.006975
0.001263
0.000362
0.005472
-0.001742
0.004270
0.002166
0.002767
0.002768
0.001565
0.001866
0.005173
0.000664
0.001866
0.005774
-0.001440
0.001566
0.003069
0.001567
0.003671
0.002168
0.001567
0.008481
0.000666
-0.002040
0.004574
0.003071
-0.002039
0.000666
0.007280
-0.002039
-0.000836
0.009685
-0.000535
-0.001737
0.006980
0.000668
-0.002338
0.005778
0.004275
-0.003239
0.004276
0.006680
-0.002638
0.002472
0.003675
0.006080
-0.006545
0.010289
0.004577
-0.002637
0.006081
0.003375
0.002474
0.005179
0.004879
0.000971
0.000971
0.002775
0.004879
0.003677
0.002776
0.005481
0.000071
0.003978
0.006684
0.002476
-0.002033
0.006384
0.004881
0.000372
0.002176
0.003679
0.006986
-0.002633
0.006385
-0.001731
0.003079
0.003680
0.006085
0.000073
-0.000528
0.010594
0.003981
-0.000227
0.005785
0.004583
0.000074
0.001277
0.006086
0.002480
0.000977
0.005185
0.002781
0.003081
-0.000225
0.005186
0.002481
0.001278
0.003683
0.001279
0.004886
0.006389
-0.000825
0.000077
0.008794
0.000077
-0.002327
0.006390
0.003384
-0.000824
0.006691
0.004286
-0.000222
0.003686
0.009698
0.001281
0.003686
0.003987
0.003085
-0.000822
0.005490
0.005490
0.001282
0.000381
0.006693
0.001283
0.001283
0.006694
0.000381
0.006694
-0.001422
0.003388
0.004590
0.000983
0.001885
0.003088
0.003088
-0.001421
0.005794
0.001585
0.003089
0.000083
0.007297
-0.000819
0.006696
-0.003824
0.007298
-0.001419
0.002489
-0.001118
0.001287
0.005194
-0.007430
0.008802
0.001888
0.003091
-0.000516
0.010005
-0.007430
0.006398
0.000987
0.006098
0.001890
-0.002018
0.005196
0.007000
-0.001717
0.004295
0.003995
0.000688
0.000087
0.008504
0.004296
-0.001115
0.003094
0.001591
0.003695
0.005499
0.000990
0.004297
0.004598
-0.000813
0.004899
0.005199
0.000089
0.005500
0.000090
0.003396
0.003998
0.005200
0.001293
0.001293
0.005802
-0.000210
0.004900
0.002796
0.003398
-0.000209
0.007606
-0.001411
0.005202
0.003399
0.005503
-0.001110
0.004301
0.000994
0.001896
0.000393
0.003400
0.002197
0.000394
0.004602
0.001897
0.003100
0.001898
0.001898
0.003401
0.002499
0.000696
0.006708
0.000696
0.001297
0.000696
0.001598
0.000697
0.001298
-0.000806
0.001599
0.000697
0.004305
-0.000805
-0.001707
0.002802
-0.000504
-0.001707
0.001901
0.003704
-0.002007
0.001901
0.002202
-0.000503
0.001000
0.003705
-0.001405
-0.001104
0.004307
0.001301
0.002203
0.000099
0.004007
0.000701
0.001302
0.003106
0.001904
-0.000802
0.005511
-0.001403
0.001303
0.004008
-0.002304
0.002506
0.001304
-0.001101
0.002206
0.001905
0.002206
0.001605
-0.002603
0.005513
0.001004
-0.002302
0.004010
0.003710
0.000704
0.001306
0.002809
0.005214
-0.002602
0.002809
0.004312
0.000705
0.001908
-0.000497
0.005215
0.000706
0.001608
0.006718
-0.000496
0.001608
0.004915
0.000406
0.001609
0.003112
0.002210
-0.001096
0.004315
0.003113
0.001309
0.000107
0.003414
0.002512
-0.001696
0.007021
0.000108
0.001010
0.005519
0.002813
0.001611
0.000710
0.005820
0.002213
-0.002296
0.006121
0.004618
0.000109
0.004017
0.003416
-0.004099
0.004919
0.004318
0.000711
0.000110
0.005521
0.003718
-0.001693
0.004921
0.000111
0.002516
0.000111
0.003118
-0.001992
0.003118
0.002216
0.000112
0.005824
0.000113
0.001315
0.005223
-0.001089
0.001316
0.005825
0.001015
0.001617
0.001316
0.006126
-0.002591
0.002820
0.004022
0.001317
0.000415
0.005225
0.002219
0.001017
0.006728
0.000717
0.001619
0.003723
0.004024
-0.001086
0.005828
0.001920
0.002521
0.004024
0.002822
0.002822
0.000117
0.002221
-0.000484
0.004627
0.003725
0.000419
0.004627
0.004327
0.000118
0.004327
0.006732
0.000419
0.004027
0.001923
0.001923
0.002224
-0.001083
0.007935
-0.002285
0.002224
0.008537
0.000421
0.003427
0.006433
0.000722
0.003127
0.002526
0.002526
0.001925
0.001324
0.004030
0.003128
0.002226
0.001024
0.002828
0.003128
-0.000178
0.002227
0.005534
-0.001680
0.002227
0.005534
0.002228
-0.001379
0.004332
0.001928
0.000725
0.001928
0.002830
-0.001078
0.004333
0.002830
0.000426
0.004334
0.001328
0.001328
0.005236
0.005837
-0.001677
0.001028
0.005537
0.000427
0.004636
0.005538
0.001630
0.000728
0.004336
0.003434
-0.000774
0.005538
-0.000774
0.004637
0.004036
0.000730
0.004036
0.002233
-0.001675
0.005239
0.001332
0.001632
0.002534
0.001332
0.003136
0.004939
0.000130
0.002535
0.003136
0.002235
0.002836
0.001033
0.003137
-0.002574
0.004039
0.001935
-0.002574
0.004941
0.001635
-0.002874
0.004341
0.000734
0.005243
-0.001671
0.003439
0.002237
0.001035
0.001035
0.004342
0.001637
-0.001970
0.004042
0.004944
0.001337
0.003140
0.005545
-0.001068
0.001938
0.003442
0.004043
-0.001368
0.004644
0.001939
0.000436
0.005847
0.001940
0.002842
0.002241
0.000137
0.004646
-0.000765
0.004646
0.002241
0.003444
0.001941
0.002542
0.002843
0.003444
0.001340
0.004948
-0.001064
0.003445
0.002543
-0.002567
0.005850
0.004648
0.001342
0.001342
0.003446
0.001943
0.000441
0.000741
0.007956
0.002245
0.001042
0.004048
0.003748
0.001043
0.002245
0.001344
0.001043
0.006153
0.002547
-0.001662
0.005853
0.004351
-0.004367
0.003750
0.007056
-0.002262
0.001646
0.007057
0.003750
-0.003163
-0.000157
0.006757
-0.002561
-0.000157
0.003150
0.001948
-0.001659
0.001347
0.006758
-0.001358
0.001648
0.003752
-0.001358
-0.001357
0.005256
-0.001958
0.004354
0.000447
0.006459
0.001649
0.004054
0.003153
-0.000154
0.008263
-0.004061
0.003755
0.007362
-0.001055
0.001050
0.001952
0.005258
0.001351
0.002553
0.003155
-0.001354
0.005259
0.001051
0.001051
0.001953
0.000751
0.003757
-0.002555
0.006763
-0.000150
0.002856
0.003457
0.000451
0.005562
-0.000150
0.004961
-0.000751
0.004360
0.003158
0.000753
0.004360
0.004661
-0.001651
0.005563
0.000453
0.005263
0.001055
0.001957
0.004361
0.001356
0.000454
0.001055
0.008570
-0.001349
0.001056
0.002559
0.002860
0.001357
-0.001348
0.008872
0.004363
-0.001348
0.002259
0.007971
-0.005856
0.006168
0.003763
-0.002249
0.006469
0.002261
-0.000745
0.002862
0.006469
-0.000444
0.006770
0.000157
0.004366
-0.003149
0.006771
0.001060
-0.001044
0.008274
0.001060
-0.002547
0.006772
0.000760
-0.001344
0.004969
-0.004350
0.006472
-0.006454
0.006773
0.001062
-0.001644
0.004970
0.003467
-0.000741
0.004068
0.002866
0.002866
0.003468
-0.001342
0.007075
-0.001943
0.004069
0.004370
0.001064
0.000463
0.002868
0.006475
0.005573
0.003770
0.004071
0.010684
0.000764
0.015494
0.015494
0.020304
0.032628
0.044652
0.048861
0.045855
0.058780
0.071105
0.092147
0.103569
0.118599
0.115594
0.130623
0.137838
0.128520
0.102669
0.089443
0.075014
0.094252
0.123410
0.138140
0.116797
0.094554
0.078923
0.126116
0.159783
0.123111
0.104173
0.148662
0.215394
0.371703
0.447453
0.485629
0.567691
0.672298
0.848146
1.019185
1.122890
1.278598
1.522080
1.882192
2.131686
1.992210
1.931791
2.026178
1.977181
1.856643
1.371483
1.268981
1.620676
1.588513
0.990330
0.441745
0.010993
-0.350321
-1.147197
-1.765220
-1.661815
-1.656404
-1.709609
-1.161325
-0.242106
0.182033
-0.057841
-0.608831
0.539140
0.544851
-0.615143
1.462266
1.932396
1.628195
0.565893
-0.046718
2.459640
2.558836
-0.597407
-2.577724
-1.462818
-0.012449
0.355178
0.307684
-1.395485
-2.943847
-1.140279
1.464373
0.246965
-2.599666
-3.019897
-1.054008
-0.395706
0.670503
-0.374063
-3.523392
-0.271259
2.323173
1.688618
0.218410
-3.147648
-5.386476
-3.252255
-2.430128
-1.617020
0.839139
0.498265
-1.351895
0.662690
3.292893
1.623691
-2.231434
-1.467623
3.381569
2.441309
2.743707
4.476635
1.821484
2.537199
4.564109
1.502854
-3.375495
-3.510162
4.183557
4.314316
0.638044
2.482492
2.944507
1.214585
0.475724
-3.509259
-3.910853
-1.380748
-6.271722
-6.994953
-7.957456
-3.808049
-1.076245
-4.273669
-5.222045
-0.708016
4.362714
7.573064
6.205960
-5.730350
-9.846692
2.456644
13.888857
10.595844
5.666995
1.983810
4.595676
7.453128
-0.240590
-5.157114
-13.592099
-12.601639
1.038140
9.807085
10.481920
1.299357
-7.958955
-9.787472
-9.360628
-10.988046
-10.581342
-9.831058
-4.285388
1.520296
4.496483
9.077544
7.785890
1.559374
1.725603
9.858790
7.694810
-0.364130
-0.530059
-1.476931
-0.625347
1.226316
-1.538853
-0.941572
5.146972
6.754251
8.062138
7.990296
5.045672
2.399538
2.235714
4.734857
-3.365565
-14.076351
-14.917414
-15.966189
-11.150964
-5.556298
-4.594695
-9.404810
-6.871398
4.853594
11.015783
15.685520
13.233269
11.359964
11.073197
11.812059
16.850324
11.311268
5.362802
4.240683
5.116616
5.557288
-1.074430
-0.948781
-7.398038
-12.939198
-4.799097
-5.758895
-20.319095
-20.015795
-10.691050
-10.390155
-11.628304
-10.231441
-0.055713
17.012648
28.612593
19.753771
9.102503
11.909154
22.805708
11.559563
-7.761454
-6.715084
10.628923
21.967952
18.062928
10.687539
-11.719381
-8.537287
-9.761308
-34.598837
-55.924819
-51.568602
-29.792329
7.397232
25.806245
11.600146
16.755644
33.035245
57.783196
65.551763
40.985070
5.334553
-2.948029
-20.330512
-21.337804
3.206345
-7.527888
-18.201400
-32.011316
-50.150695
-11.974883
8.653720
3.358747
-16.136915
-28.751667
32.073646
49.637988
1.971804
-45.038782
-75.051948
-61.239327
-52.210067
-30.307543
4.030578
27.327559
48.589816
61.319696
51.666101
27.515131
17.341207
12.969660
-7.135608
11.202766
35.356141
2.491535
-31.048206
-51.577012
-17.768238
17.734687
-55.262902
-63.788366
13.361036
52.201763
65.084646
49.961733
6.519504
1.884636
1.101287
-75.709044
-97.709260
-70.370784
-1.188041
33.854073
47.328225
20.106080
-16.813247
-36.302596
-60.578915
-28.570101
8.381990
32.875939
46.430050
-31.741073
-65.210776
-8.648195
-8.820435
1.668813
41.337377
63.303627
73.481458
47.845851
31.471563
64.604300
-5.212097
-120.475989
-131.371941
-71.904714
-58.350905
8.799820
106.829122
10.254096
-27.108306
98.229111
140.331590
107.070199
63.676066
82.960110
69.269831
3.701437
-17.448398
-27.842958
-88.798728
-91.609889
-32.612492
-40.204308
-21.360034
48.545038
86.892790
105.447592
81.768856
26.163669
22.470263
-15.331609
-60.421396
-59.568910
6.814697
61.025426
91.099012
118.805415
73.896285
-0.511092
25.053274
74.707891
28.321639
-21.710524
-48.338995
-100.273922
-76.807406
4.499520
-39.035292
-63.983740
50.851204
133.017228
55.391986
34.177223
91.282077
142.241875
122.508142
91.056932
61.697259
-4.113114
-87.134330
-113.594769
-83.199246
-98.932667
-54.346375
63.299128
91.484679
32.694693
19.751992
1.670026
-28.872186
-16.707424
7.467594
21.025312
60.582055
71.312380
31.213364
5.624650
-67.370534
-78.979196
-75.253928
-45.903572
57.607673
105.834466
167.498738
169.240984
47.302690
-37.497444
-65.421778
-121.635068
-112.270344
-47.885090
36.437400
64.418547
104.913446
161.717103
215.228349
225.867293
109.545609
20.190865
-111.126581
-235.191280
-114.751150
-67.793167
-93.237295
-82.500658
-27.793647
148.108287
233.297692
90.319281
94.820985
137.689379
-9.690338
-36.428526
-138.627074
-232.926899
-257.150614
-222.048381
-225.717138
-178.001356
77.596617
103.454063
108.810057
23.325169
-90.530438
-121.926940
-155.931100
-205.510568
-211.454224
-74.341315
51.759012
69.239488
2.379139
-35.070436
79.266121
103.547250
-6.216663
-35.282956
7.730324
57.707780
68.499726
103.241245
143.678430
176.800947
157.323621
73.116259
89.995245
237.307329
208.306866
135.289137
45.224690
152.177142
239.209192
194.999846
144.287737
8.969979
-259.518992
-361.647502
-413.954565
-230.394684
-163.791943
-194.586655
-74.752223
-181.565499
-184.227264
-58.488553
221.993241
208.883109
77.623978
140.353257
406.692977
258.736419
163.973679
-187.168881
-240.340154
0.728881
-164.120491
-134.150310
-42.224580
186.183110
232.681183
322.208168
90.346045
-236.564384
-47.859826
105.340003
72.795831
-10.557241
60.528266
126.895942
97.056219
125.330445
9.662554
-169.829982
136.321085
210.098116
141.699324
130.287852
366.161110
211.988857
155.482187
123.629382
-159.386423
-110.534093
-72.700358
-249.713289
-292.512245
-27.509269
120.508911
278.894598
164.548421
230.371420
418.356053
417.304574
485.702465
491.871868
784.568923
575.461208
441.671973
266.930635
99.004978
7.768813
28.857326
-120.825847
-217.987933
-170.455514
-113.694541
206.128770
156.741983
205.724471
190.732316
385.396462
302.852290
231.089543
220.569936
56.160935
-8.862782
-67.626015
-186.904949
-103.227234
-221.864699
-152.014936
-181.064997
-208.854364
-128.846609
66.340572
220.799892
392.343205
460.641600
240.211689
218.386419
54.741830
-10.297818
41.306756
13.985415
52.953894
53.148079
-5.870961
31.452365
8.575314
55.771368
67.473215
25.081564
-63.546041
-135.697457
-234.890360
-269.854319
-187.256039
-140.472100
-47.917527
-55.309749
-153.997353
-219.003635
-297.227662
-348.359400
-324.765131
-281.076715
-167.241248
-134.294279
-102.254204
2.960812
-5.705029
-40.930805
-89.294068
-170.539070
-289.359296
-346.885283
-416.050291
-477.925580
-433.513032
-374.450406
-339.149781
-238.767425
-151.551411
-14.486898
-55.882979
-154.742222
-203.963382
-233.736372
-114.983479
-12.099574
-53.251272
-246.838989
-315.052916
-325.920612
-204.324996
-162.572709
-109.892307
-93.886548
-171.887233
-156.309821
-56.846382
-72.820879
-22.271092
-58.048159
-50.575978
42.246725
90.391155
91.472394
149.457989
60.710447
18.697545
84.382270
53.405097
-165.707006
-195.225394
-101.286282
-226.373304
-168.727079
-110.696996
40.522517
-56.526546
125.414333
212.125047
126.340766
7.617932
5.512868
-100.923162
-154.915058
-153.824200
-99.219391
35.576235
-19.465939
-106.969020
-98.723109
-75.448071
-23.389599
-66.818902
-111.755987
-27.896113
23.035130
-54.722976
-62.846845
82.244146
165.053743
127.507076
93.610228
59.662880
35.759600
94.913005
113.448569
46.473392
-113.784999
-248.785630
-248.529824
-203.656464
-337.287586
-355.115550
-384.602675
-249.693725
-228.804205
-277.249530
-143.920205
-35.644235
15.513055
37.557459
43.181283
34.576463
112.147298
133.789807
61.621258
-92.521236
0.584627
62.833255
-49.583104
-66.356882
-104.086912
-54.508346
39.815828
56.143825
-124.036171
-135.711866
-122.478790
-118.186300
-71.908262
29.723967
-4.723570
-160.884556
-154.823067
19.115684
55.452759
46.628806
-2.736940
21.517736
-16.915985
63.531841
68.938335
-26.469181
-4.906931
14.794038
37.873990
88.330593
169.250353
135.955897
76.730950
55.681514
37.201862
0.068813
36.019924
-28.342485
-175.732422
-180.404263
-44.306762
-48.111086
9.303981
81.036067
61.889996
53.098507
145.856582
142.896327
118.457387
86.042771
80.612831
60.775092
22.529542
-70.261598
-117.984294
-99.487507
-81.779180
-45.179686
-36.426071
-15.810393
-100.283180
-142.863003
-59.298913
-5.149505
83.165482
186.745864
243.790900
319.223906
277.303287
190.969519
49.699387
-37.390376
-146.532659
-133.106903
51.184325
-0.533272
-163.590800
-179.948856
-19.605396
-1.432350
36.729334
122.051301
155.042157
73.141858
17.864320
-4.816443
-45.103631
-57.290336
34.258448
131.494180
176.400004
186.743464
51.436527
-51.796368
-111.480924
-225.532217
-199.372974
-57.296046
-9.892281
61.866859
105.660483
103.628464
75.038312
99.450801
78.741337
34.803428
16.734989
3.885473
-14.292082
3.302921
-19.722924
-84.428612
-112.971870
-86.783469
-10.372027
-9.736570
-105.304303
-73.317132
93.207454
246.636035
328.285939
257.920957
148.440505
158.041195
156.750442
93.931587
24.170800
-57.871078
-29.589638
-10.476331
-21.900729
15.899039
28.499363
-101.235753
-182.083369
-81.061648
104.507107
62.276575
-46.945065
-23.401596
-20.231525
-21.449534
10.512687
161.096742
262.962834
295.709607
355.499371
355.842951
261.171291
189.398624
45.451096
-177.872037
-278.680335
-243.326806
-121.735398
-67.270065
-107.568075
-11.623697
45.174851
0.533250
-41.852990
-67.254434
39.007853
79.225003
27.087475
-0.867520
-25.675590
-54.010837
2.456756
105.407994
158.827859
207.666662
242.375115
293.660759
345.234672
246.811591
109.893768
-9.875135
-10.916394
-50.962806
-108.092609
-140.095410
-199.648907
-136.828247
-16.926782
30.987092
48.930484
108.038800
156.239742
173.820016
151.345161
79.314585
46.968805
18.607406
29.851146
59.759706
103.839195
126.938385
10.891144
21.480490
111.519688
42.856071
11.536521
127.506209
122.614033
35.730477
-13.270045
-127.284666
-176.480576
-94.502723
-13.016343
-28.898859
-66.446728
-62.727171
-113.986361
-152.935001
-204.538673
-134.626387
-43.365573
-25.514162
38.726506
24.324118
-17.959318
-118.203401
-80.889093
-64.981929
-112.590097
-82.222230
-46.858179
-90.359024
-79.666274
-10.383131
93.120900
111.700050
78.218623
17.603727
-16.913247
-23.161406
-90.599799
-137.289651
-51.044859
-1.139245
-52.944015
-85.430774
-100.401886
-99.401808
-129.515673
32.505705
168.433971
154.623755
76.126788
43.906657
-5.963486
-56.944025
-80.642000
-51.566989
-19.227522
-48.087006
-92.736422
-43.229397
-9.913598
45.757720
104.887378
125.598646
58.762644
71.200045
53.944113
-62.810126
-143.355044
-76.299308
-61.804637
-97.520683
-60.539735
3.960948
-28.420002
-81.998580
-54.556399
-89.529376
-131.736762
-165.244339
-165.298747
-74.918976
-33.817477
-34.495017
26.792911
101.796368
136.856217
81.316259
65.885236
56.817801
93.741937
50.816731
-110.543940
-142.332718
-72.706297
-20.889804
-9.802673
-13.662307
32.667734
67.854734
99.627280
-0.227833
-29.735399
95.513343
123.417538
72.910435
123.198705
195.955819
121.209370
34.035441
-3.465837
30.541029
93.799955
60.164925
-86.281445
-182.820700
-185.071251
-254.734044
-174.013880
-37.471198
34.712982
80.057674
62.787013
-12.533571
-48.196712
92.780641
115.818510
17.080707
-20.098033
-151.209872
-236.170824
-160.858055
-94.317839
-28.057776
-57.242203
-91.978010
