EVENT_NAME: 202302060117
EVENT_ID: 13194
EVENT_DATE_YYYYMMDD: 2023/02/06
EVENT_TIME_HHMMSS: 01:17:32.00000
EVENT_LATITUDE_DEGREE: 37.288
EVENT_LONGITUDE_DEGREE: 37.043
EVENT_DEPTH_KM: 8.6
HYPOCENTER_REFERENCE: AFAD
MAGNITUDE_W: 7.7
MAGNITUDE_W_REFERENCE: AFAD
MAGNITUDE_L: 
MAGNITUDE_L_REFERENCE: 
FOCAL_MECHANISM: 
NETWORK: TK
STATION_CODE: 3307
STATION_NAME: 
STATION_LATITUDE_DEGREE: 36.08189
STATION_LONGITUDE_DEGREE: 32.84224
STATION_ELEVATION_M: 44.0
LOCATION: Kahramanmaras_Pazarck_Turkiye
SENSOR_DEPTH_M: 
VS30_M/S: 855
SITE_CLASSIFICATION_EC8: A
MORPHOLOGIC_CLASSIFICATION: 
EPICENTRAL_DISTANCE_KM: 397.82
EARTHQUAKE_BACKAZIMUTH_DEGREE: 
DATE_TIME_FIRST_SAMPLE_YYYYMMDD_HHMMSS: 2023/02/06 01:18:02.6902290
DATE_TIME_FIRST_SAMPLE_PRECISION: millisecond
SAMPLING_INTERVAL_S: 0.01
NDATA: 21001
DURATION_S: 
STREAM: HNZ
UNITS: cm/s^2
INSTRUMENT: sensor = GMS+/GEOSIG | digitizer = 
INSTRUMENT_ANALOG/DIGITAL: 
INSTRUMENTAL_FREQUENCY_HZ: 
INSTRUMENTAL_DAMPING: 
FULL_SCALE_G: 
N_BIT_DIGITAL_CONVERTER: 
PGA_CM/S^2: 2.160
TIME_PGA_S: 
BASELINE_CORRECTION: BASELINE REMOVED
FILTER_TYPE: BUTTERWORTH
FILTER_ORDER: 
LOW_CUT_FREQUENCY_HZ: 
HIGH_CUT_FREQUENCY_HZ: 
LATE/NORMAL_TRIGGERED: 
DATABASE_VERSION: 
HEADER_FORMAT: DYNA 1.2
DATA_TYPE: Acceleration
PROCESSING: Automatic Paolucci et al., 2011
DATA_TIMESTAMP_YYYYMMDD_HHMMSS: 
DATA_LICENSE: U (unknown license)
DATA_CITATION: Turkish Accelerometric Archive v 1.0 - Disaster And Emergency Management Presidency, Earthquake Department
DATA_CREATOR: AFAD
ORIGINAL_DATA_MEDIATOR_CITATION: : AFAD - Disaster And Emergency Management Presidency
ORIGINAL_DATA_MEDIATOR: AFAD PROCESS SERVICE
ORIGINAL_DATA_CREATOR_CITATION: AFAD PROCESS SERVICE
ORIGINAL_DATA_CREATOR: network: TK
USER1: GuestUser
USER2: 
USER3: 
USER4: 
USER5: 
[...]
0.226987
0.118664
0.036057
-0.000830
-0.036419
-0.115649
-0.236961
-0.307098
-0.311775
-0.285279
-0.193061
-0.110975
-0.062659
-0.000834
0.040728
0.080732
0.130867
0.234254
0.369852
0.428819
0.477136
0.536103
0.528049
0.484408
0.403880
0.293218
0.193207
0.047996
-0.146570
-0.358801
-0.545834
-0.597009
-0.549991
-0.502714
-0.470503
-0.421148
-0.289965
-0.129169
0.012663
0.172161
0.366467
0.568825
0.700787
0.803915
0.909120
0.946267
0.986790
1.048354
1.064460
1.069914
1.062900
1.017440
0.961070
0.883140
0.741826
0.593498
0.455041
0.306193
0.192415
0.086169
0.000705
-0.038780
-0.050470
-0.027611
-0.003712
0.010055
0.013691
-0.027612
-0.124766
-0.183734
-0.118273
0.026678
0.182538
0.300732
0.389312
0.460229
0.475295
0.444122
0.425938
0.415807
0.394765
0.410610
0.443860
0.444120
0.403076
0.367228
0.399698
0.444378
0.467757
0.496331
0.507500
0.497629
0.488536
0.490095
0.509317
0.573999
0.660761
0.757654
0.907799
1.069894
1.192244
1.267836
1.331999
1.374341
1.358494
1.289655
1.135872
0.913770
0.657899
0.431121
0.311108
0.268505
0.220188
0.110825
-0.034126
-0.154139
-0.265320
-0.383515
-0.424039
-0.398063
-0.387153
-0.350526
-0.282207
-0.293378
-0.368971
-0.363256
-0.295457
-0.268961
-0.294679
-0.322994
-0.319357
-0.289744
-0.270782
-0.290005
-0.269484
-0.248962
-0.309229
-0.362741
-0.444828
-0.593676
-0.706156
-0.758629
-0.787464
-0.799414
-0.797596
-0.786426
-0.757073
-0.741227
-0.708237
-0.658362
-0.660960
-0.680703
-0.738372
-0.809549
-0.783832
-0.697590
-0.660703
-0.700967
-0.777599
-0.853971
-0.903588
-0.947489
-0.969050
-0.900212
-0.732922
-0.538616
-0.406914
-0.292356
-0.149485
0.001960
0.142234
0.222242
0.290820
0.375764
0.391869
0.364853
0.387453
0.433171
0.475513
0.569808
0.688782
0.765153
0.788532
0.775283
0.762814
0.720471
0.615005
0.510318
0.462521
0.468495
0.414722
0.240937
0.101961
0.044292
-0.062733
-0.192617
-0.229504
-0.205087
-0.205607
-0.199373
-0.179890
-0.200672
-0.192360
-0.144563
-0.077803
0.044287
0.152870
0.205083
0.246386
0.285610
0.294182
0.254957
0.187936
0.104550
-0.029750
-0.201197
-0.381996
-0.607215
-0.805159
-0.900754
-0.974529
-1.030119
-1.041549
-1.071163
-1.109350
-1.108051
-1.076360
-1.029083
-0.978169
-0.942581
-0.874002
-0.724896
-0.560204
-0.482274
-0.487989
-0.495263
-0.486171
-0.499680
-0.572675
-0.649567
-0.636059
-0.547998
-0.452404
-0.410582
-0.400971
-0.341225
-0.244591
-0.174974
-0.121722
-0.071327
-0.067431
-0.050547
0.014655
0.007641
-0.090033
-0.223813
-0.371362
-0.507221
-0.638924
-0.722310
-0.725947
-0.689060
-0.602298
-0.490079
-0.401758
-0.349026
-0.332920
-0.313179
-0.269018
-0.208493
-0.086922
0.105566
0.281428
0.380659
0.417026
0.376502
0.257788
0.150243
0.102186
0.112576
0.153879
0.161152
0.139591
0.128940
0.150500
0.195959
0.212584
0.208947
0.219857
0.202971
0.108935
-0.007701
-0.052122
-0.017054
0.056201
0.141924
0.237518
0.349737
0.449488
0.564305
0.761728
1.003312
1.224633
1.409848
1.553239
1.643898
1.668056
1.641299
1.612205
1.612464
1.560770
1.443095
1.362826
1.271907
1.113188
0.914985
0.714184
0.547932
0.401942
0.288163
0.234651
0.205296
0.180878
0.169188
0.113597
0.014106
-0.047460
-0.072138
-0.109545
-0.149290
-0.146173
-0.091103
-0.025122
0.028390
0.064237
0.061899
0.040078
0.025530
-0.002785
-0.050582
-0.088769
-0.097861
-0.048505
0.022411
0.082936
0.144241
0.137227
0.046308
-0.094227
-0.262038
-0.465436
-0.659743
-0.733518
-0.734557
-0.711438
-0.600518
-0.411667
-0.211906
-0.026432
0.127351
0.254896
0.413354
0.607141
0.771054
0.913146
1.100958
1.310850
1.530614
1.708814
1.795836
1.845971
1.821812
1.744401
1.668808
1.554509
1.433717
1.337343
1.210056
1.024581
0.820663
0.628434
0.501407
0.473092
0.486600
0.491275
0.463480
0.373859
0.225531
0.081100
-0.082554
-0.306994
-0.514289
-0.668072
-0.799775
-0.909657
-0.975898
-1.077988
-1.243460
-1.378540
-1.452574
-1.435690
-1.374904
-1.318795
-1.221642
-1.119034
-1.055651
-0.989930
-0.857709
-0.660545
-0.426495
-0.173481
0.082649
0.302413
0.450220
0.589196
0.736743
0.831298
0.899877
0.987938
1.063530
1.106911
1.115223
1.101974
1.121976
1.132106
1.097817
1.066125
1.014430
0.894677
0.682186
0.446057
0.287079
0.196939
0.155895
0.172000
0.238500
0.323184
0.339549
0.268892
0.170959
0.056921
-0.026725
-0.055300
-0.097123
-0.195835
-0.300782
-0.310653
-0.278443
-0.283898
-0.240517
-0.130896
-0.033483
0.036654
0.094322
0.163420
0.240051
0.296680
0.362401
0.423706
0.457735
0.478256
0.474879
0.477476
0.540859
0.640869
0.678275
0.647622
0.588655
0.490202
0.369669
0.253293
0.197702
0.236667
0.310960
0.320052
0.289399
0.335897
0.401098
0.426815
0.455129
0.446296
0.358494
0.237442
0.105739
-0.064149
-0.224946
-0.325736
-0.375093
-0.397173
-0.424969
-0.459778
-0.488093
-0.473806
-0.417437
-0.379511
-0.384707
-0.417698
-0.448611
-0.440818
-0.406789
-0.398737
-0.395360
-0.341589
-0.277946
-0.290415
-0.334576
-0.334577
-0.350423
-0.403676
-0.450174
-0.491997
-0.514078
-0.500830
-0.494337
-0.504988
-0.530965
-0.617728
-0.706309
-0.746314
-0.812035
-0.892044
-0.917502
-0.906072
-0.876719
-0.810479
-0.716443
-0.611237
-0.522917
-0.461612
-0.440571
-0.526295
-0.678519
-0.779310
-0.785545
-0.733851
-0.668650
-0.618255
-0.589421
-0.522142
-0.423431
-0.342643
-0.306016
-0.363425
-0.437200
-0.435122
-0.416159
-0.423953
-0.415381
-0.392002
-0.349141
-0.241338
-0.112493
-0.011704
0.072201
0.109347
0.090903
0.048041
-0.000536
-0.020019
-0.027552
-0.036125
-0.022098
0.034271
0.132983
0.171428
0.146230
0.139216
0.134280
0.126227
0.108562
0.070895
0.021799
-0.042364
-0.111983
-0.184718
-0.242127
-0.256415
-0.224724
-0.150950
-0.075877
-0.009377
0.017119
-0.006001
0.014780
0.078942
0.130376
0.145962
0.116607
0.067251
0.032182
0.032701
0.024388
0.015556
0.109591
0.258178
0.355331
0.443132
0.543402
0.618475
0.650945
0.620552
0.541582
0.442870
0.326493
0.244406
0.248303
0.301035
0.348312
0.362599
0.358183
0.350649
0.357922
0.429098
0.507028
0.480531
0.381559
0.289861
0.183875
0.046458
-0.107066
-0.249159
-0.299555
-0.249420
-0.190453
-0.141097
-0.025761
0.130100
0.227772
0.270114
0.292194
0.294531
0.285958
0.292452
0.288555
0.220755
0.098404
-0.055379
-0.170456
-0.185783
-0.146559
-0.093566
-0.014337
0.112169
0.236078
0.290109
0.294525
0.319722
0.343620
0.313227
0.309070
0.359725
0.465969
0.649105
0.793016
0.881337
1.021611
1.167341
1.240855
1.291249
1.326577
1.319563
1.313328
1.300859
1.242411
1.164480
1.094083
1.000306
0.872240
0.756643
0.633772
0.462325
0.298411
0.179177
0.126444
0.176319
0.266458
0.333737
0.409589
0.508041
0.532459
0.452709
0.395300
0.375298
0.336072
0.295548
0.250088
0.162806
0.025388
-0.100859
-0.190999
-0.245031
-0.290491
-0.380631
-0.449730
-0.468433
-0.477785
-0.499087
-0.545326
-0.594942
-0.602995
-0.548964
-0.464280
-0.389727
-0.357776
-0.306342
-0.193344
-0.132298
-0.127363
-0.097490
-0.035406
0.072657
0.189292
0.273457
0.370090
0.492180
0.625960
0.801303
0.985998
1.081332
1.086787
1.075097
1.081071
1.100813
1.173548
1.280572
1.303951
1.255893
1.208355
1.162895
1.115877
1.078990
1.036387
0.971964
0.879746
0.731678
0.530358
0.327738
0.210063
0.169799
0.147198
0.137587
0.153952
0.228245
0.285393
0.269028
0.230581
0.179147
0.123297
0.071862
0.054457
0.029259
-0.044255
-0.074389
-0.098808
-0.144267
-0.158035
-0.232589
-0.361175
-0.470537
-0.596785
-0.739918
-0.851618
-0.886687
-0.836293
-0.717579
-0.637052
-0.668224
-0.739661
-0.817851
-0.881755
-0.937345
-0.986182
-0.984624
-0.969558
-0.964623
-0.958129
-0.944102
-0.900201
-0.864094
-0.878641
-0.946701
-1.073468
-1.157893
-1.096329
-0.990603
-0.945924
-0.930078
-0.859941
-0.726941
-0.650309
-0.680443
-0.737073
-0.778636
-0.809289
-0.812666
-0.764610
-0.679666
-0.574720
-0.443278
-0.335994
-0.297030
-0.333397
-0.408990
-0.435487
-0.436786
-0.465621
-0.475752
-0.424319
-0.337037
-0.249755
-0.129223
0.030014
0.160417
0.219384
0.254452
0.290040
0.254711
0.147686
0.037544
-0.059869
-0.137021
-0.186117
-0.226382
-0.230019
-0.219109
-0.227682
-0.223526
-0.253140
-0.336266
-0.430822
-0.522780
-0.591879
-0.635260
-0.663056
-0.656043
-0.564605
-0.410303
-0.233921
-0.061435
0.050524
0.124558
0.181446
0.195214
0.166639
0.121958
0.111827
0.180665
0.324576
0.466669
0.540442
0.544858
0.542260
0.535506
0.491864
0.446145
0.395230
0.346393
0.344314
0.380941
0.424842
0.470041
0.477314
0.484847
0.554724
0.574726
0.501730
0.372885
0.231051
0.125585
-0.001961
-0.173408
-0.318359
-0.351090
-0.260172
-0.137822
-0.050021
0.050249
0.210266
0.362230
0.439900
0.449251
0.437302
0.475227
0.544065
0.576536
0.582770
0.599654
0.666155
0.749020
0.804091
0.831106
0.806687
0.781749
0.805907
0.857861
0.909554
0.934751
0.915268
0.883836
0.851624
0.764082
0.640692
0.492364
0.273639
0.022962
-0.152901
-0.262264
-0.406695
-0.551386
-0.614770
-0.624122
-0.623603
-0.621006
-0.643866
-0.656075
-0.595809
-0.511125
-0.429039
-0.324093
-0.182520
-0.043545
0.038542
0.086858
0.143747
0.182971
0.183750
0.175697
0.184269
0.220896
0.208946
0.162707
0.173617
0.207386
0.277263
0.360908
0.423512
0.538329
0.705100
0.839919
0.882260
0.855244
0.801732
0.772377
0.776793
0.774714
0.771337
0.750036
0.746139
0.761724
0.726136
0.663012
0.579366
0.473380
0.340898
0.163217
-0.042260
-0.308003
-0.626479
-0.909886
-1.123416
-1.286810
-1.449945
-1.585804
-1.586843
-1.479819
-1.368899
-1.244211
-1.056399
-0.870406
-0.745458
-0.628562
-0.512187
-0.393993
-0.236834
-0.094221
0.011763
0.118268
0.164766
0.179572
0.272049
0.425572
0.585329
0.694431
0.734954
0.706899
0.619357
0.493629
0.309193
0.118783
-0.002529
-0.040196
-0.019155
-0.003310
-0.011363
-0.035262
-0.063577
-0.085398
-0.081242
0.013313
0.187617
0.335424
0.426343
0.504013
0.481153
0.294899
0.100852
-0.029812
-0.122809
-0.168789
-0.143592
0.003696
0.190729
0.281907
0.268659
0.227875
0.208911
0.165010
0.094093
0.070194
0.135915
0.264499
0.373602
0.414385
0.393603
0.347364
0.267355
0.125002
-0.019170
-0.099179
-0.109570
-0.115285
-0.190099
-0.292448
-0.333492
-0.297384
-0.198413
-0.054762
0.036416
0.062652
0.104215
0.090966
0.031219
0.036414
0.046805
0.026542
0.068364
0.174609
0.294362
0.382163
0.376707
0.300335
0.212793
0.132524
0.048099
-0.012167
-0.014506
0.006275
0.044461
0.074594
0.101349
0.183955
0.288641
0.383976
0.422161
0.379039
0.327865
0.262662
0.144208
-0.008536
-0.149850
-0.251680
-0.309868
-0.321558
-0.340002
-0.365979
-0.370136
-0.385463
-0.404686
-0.405466
-0.390919
-0.374814
-0.333511
-0.292468
-0.335330
-0.435861
-0.487555
-0.460799
-0.427030
-0.395598
-0.348061
-0.265456
-0.148301
-0.078423
-0.070891
-0.042317
0.040809
0.079774
0.093801
0.158482
0.213293
0.283430
0.376946
0.456175
0.543197
0.618269
0.628140
0.565276
0.481890
0.398504
0.316677
0.236148
0.170946
0.169907
0.214846
0.246018
0.230691
0.191725
0.160293
0.121328
0.116911
0.186009
0.304982
0.485261
0.737755
0.973104
1.134939
1.273395
1.384315
1.470558
1.545631
1.554462
1.473934
1.349505
1.256767
1.180655
1.078306
0.967644
0.836461
0.701381
0.594097
0.490968
0.362902
0.254579
0.244967
0.290166
0.354069
0.455118
0.504473
0.493563
0.536684
0.610717
0.643707
0.634355
0.596689
0.549930
0.457192
0.332244
0.254053
0.197683
0.121571
0.030651
-0.054033
-0.124691
-0.254055
-0.484730
-0.703455
-0.859835
-1.063494
-1.334952
-1.573419
-1.705122
-1.806692
-1.943070
-2.042302
-2.077631
-2.081787
-2.095555
-2.127248
-2.154524
-2.144133
-2.081530
-1.995547
-1.872677
-1.704608
-1.537317
-1.403278
-1.273654
-1.142471
-1.044020
-0.984793
-0.982196
-1.039865
-1.153384
-1.302751
-1.447442
-1.566935
-1.640190
-1.649802
-1.543298
-1.302234
-1.009995
-0.774646
-0.633332
-0.514619
-0.371487
-0.247059
-0.154842
-0.055611
0.034528
0.081806
0.108821
0.133759
0.156618
0.188309
0.202596
0.160513
0.086739
0.020497
0.038940
0.203633
0.463400
0.725246
0.921890
1.062944
1.141913
1.071255
0.877988
0.735894
0.706540
0.726022
0.722645
0.648351
0.556392
0.454303
0.300520
0.129073
-0.070689
-0.288115
-0.520348
-0.802716
-1.033650
-1.177562
-1.266143
-1.244323
-1.109244
-0.909223
-0.698812
-0.451513
-0.194084
-0.001336
0.124131
0.096076
-0.084723
-0.308903
-0.514899
-0.647381
-0.718558
-0.825323
-0.958065
-1.029242
-1.055739
-1.071585
-1.061974
-0.974692
-0.867928
-0.823508
-0.786102
-0.763762
-0.791038
-0.862215
-0.939626
-1.014960
-1.136791
-1.263298
-1.369284
-1.464619
-1.531900
-1.553201
-1.507223
-1.412927
-1.308761
-1.227194
-1.141211
-0.993144
-0.781433
-0.532576
-0.272029
-0.006287
0.212697
0.355829
0.488310
0.594035
0.655599
0.670146
0.608321
0.605463
0.715344
0.814056
0.908351
0.980566
0.927833
0.767556
0.591433
0.501812
0.531426
0.612992
0.710665
0.854835
1.009137
1.100835
1.123694
1.097717
1.062648
1.047061
1.049139
1.006277
0.855871
0.645199
0.441021
0.273730
0.124363
-0.004483
-0.089947
-0.176450
-0.214636
-0.178529
-0.159566
-0.110470
0.012399
0.113189
0.104876
-0.006305
-0.124760
-0.190481
-0.195937
-0.100602
0.098899
0.346977
0.620512
0.905217
1.147840
1.306038
1.446313
1.661400
1.877267
1.995721
2.064559
2.122487
2.160412
2.152879
2.048452
1.942726
1.892330
1.750237
1.514627
1.294603
1.086528
0.915601
0.835592
0.775845
0.655572
0.493996
0.356318
0.289558
0.243319
0.172142
0.106940
0.076806
0.061999
0.005109
-0.045026
0.001212
0.129017
0.293190
0.491912
0.719988
0.902605
1.001056
1.055867
1.096390
1.099767
1.037422
0.955335
0.887276
0.764145
0.528275
0.243310
0.021208
-0.100624
-0.152578
-0.157514
-0.133875
-0.120887
-0.152839
-0.207131
-0.259085
-0.312598
-0.331561
-0.314157
-0.264022
-0.189989
-0.176741
-0.159337
-0.052053
0.077830
0.154721
0.151863
0.139394
0.128224
0.096272
0.060683
-0.017508
-0.147392
-0.310786
-0.486390
-0.620690
-0.663293
-0.688231
-0.751095
-0.788502
-0.797594
-0.763046
-0.682518
-0.601211
-0.526398
-0.494707
-0.512891
-0.548220
-0.590822
-0.589784
-0.515750
-0.431586
-0.362228
-0.268712
-0.189743
-0.215980
-0.337032
-0.491854
-0.670835
-0.861765
-0.989831
-1.031394
-1.042564
-1.036590
-1.023602
-0.993729
-0.925670
-0.884108
-0.867743
-0.771110
-0.650318
-0.628758
-0.687985
-0.784879
-0.868265
-0.934506
-1.006722
-1.049584
-1.072444
-1.106994
-1.158948
-1.185444
-1.145181
-1.076083
-1.001530
-0.885414
-0.782287
-0.753453
-0.750596
-0.779690
-0.880221
-1.034264
-1.189865
-1.311696
-1.377938
-1.414825
-1.463402
-1.461324
-1.375601
-1.237146
-1.139733
-1.135058
-1.162074
-1.185713
-1.165452
-1.136358
-1.104147
-1.014787
-0.916336
-0.865422
-0.829055
-0.728525
-0.599940
-0.486422
-0.397062
-0.336277
-0.250034
-0.124567
0.055971
0.276774
0.531606
0.787477
0.932427
1.015033
1.105431
1.129330
1.064387
0.952687
0.794488
0.599402
0.421980
0.281445
0.157795
0.070772
-0.020407
-0.177307
-0.366418
-0.540983
-0.701000
-0.906217
-1.140529
-1.346785
-1.528882
-1.625776
-1.604476
-1.572265
-1.543951
-1.413028
-1.217423
-1.001816
-0.747504
-0.469033
-0.186146
0.043488
0.227144
0.361184
0.369496
0.232078
-0.017819
-0.292913
-0.512678
-0.675293
-0.796605
-0.823361
-0.780760
-0.730105
-0.646720
-0.560478
-0.445141
-0.283046
-0.128485
-0.011849
0.049715
0.116995
0.161674
0.149465
0.145568
0.142710
0.153880
0.209470
0.269216
0.265579
0.163489
-0.026661
-0.247204
-0.430861
-0.584904
-0.726737
-0.810123
-0.810383
-0.787264
-0.803111
-0.848570
-0.892731
-0.973520
-1.124705
-1.285762
-1.428375
-1.527606
-1.530464
-1.477212
-1.393827
-1.229654
-0.994824
-0.758176
-0.511917
-0.246954
-0.000954
0.242708
0.425065
0.507930
0.577288
0.626384
0.613395
0.588457
0.632617
0.746655
0.864069
0.963820
1.042529
1.099158
1.149293
1.166697
1.113444
1.001484
0.886926
0.770549
0.609233
0.467659
0.375181
0.318551
0.336735
0.366088
0.365568
0.379335
0.416482
0.447654
0.421676
0.349980
0.269711
0.180351
0.093328
0.030204
-0.004345
-0.030842
-0.051364
-0.049806
-0.015257
0.068128
0.197492
0.343481
0.460116
0.560386
0.663514
0.730534
0.761965
0.763264
0.741962
0.693125
0.585581
0.441929
0.283210
0.114361
-0.036045
-0.136836
-0.194764
-0.237886
-0.269318
-0.291139
-0.305687
-0.298414
-0.264644
-0.229836
-0.209834
-0.234772
-0.284908
-0.312703
-0.299456
-0.183340
-0.002542
0.173840
0.353859
0.551542
0.808192
1.119134
1.391890
1.538399
1.610614
1.637110
1.537099
1.343052
1.120950
0.916252
0.743506
0.576215
0.436719
0.333331
0.269688
0.239554
0.263193
0.327095
0.357488
0.362423
0.318782
0.219030
0.101095
-0.022295
-0.117111
-0.208809
-0.265439
-0.209070
-0.096071
0.026539
0.153565
0.271240
0.337480
0.317737
0.277473
0.275134
0.332283
0.368650
0.294096
0.194085
0.118752
0.053810
0.023936
-0.011653
-0.092960
-0.183620
-0.298957
-0.440271
-0.557427
-0.622369
-0.635878
-0.647568
-0.623929
-0.542363
-0.489630
-0.445470
-0.376632
-0.331692
-0.291429
-0.229085
-0.177911
-0.134270
-0.090890
-0.072706
-0.088033
-0.148040
-0.233244
-0.312993
-0.384949
-0.422876
-0.454308
-0.503924
-0.535616
-0.598740
-0.713039
-0.807075
-0.889941
-0.970470
-1.028658
-1.071780
-1.089964
-1.090744
-1.109967
-1.156466
-1.193094
-1.232059
-1.294404
-1.333110
-1.345060
-1.357789
-1.397274
-1.430784
-1.421693
-1.395197
-1.359349
-1.332853
-1.288174
-1.201152
-1.089192
-0.950477
-0.803968
-0.630184
-0.407563
-0.199489
-0.037654
0.115089
0.230426
0.312772
0.385766
0.384467
0.324720
0.249646
0.151194
0.075601
0.044948
0.008580
-0.017917
0.026243
0.115343
0.182883
0.202625
0.181583
0.153528
0.148332
0.150410
0.139499
0.087805
0.016888
-0.030390
-0.070915
-0.090398
-0.115336
-0.168848
-0.238467
-0.312761
-0.345232
-0.343154
-0.314840
-0.285487
-0.266524
-0.221065
-0.184958
-0.188595
-0.213533
-0.248862
-0.304712
-0.401087
-0.537985
-0.688131
-0.802949
-0.877762
-0.950238
-1.002192
-1.016999
-1.011025
-0.998816
-0.938031
-0.811005
-0.764767
-0.812824
-0.894132
-1.078048
-1.290279
-1.437827
-1.541735
-1.588493
-1.582000
-1.578363
-1.583559
-1.549010
-1.485368
-1.432895
-1.370551
-1.255474
-1.124292
-1.016229
-0.899593
-0.801921
-0.730485
-0.628657
-0.526568
-0.472797
-0.435131
-0.363695
-0.273556
-0.174065
-0.036648
0.089858
0.151942
0.181815
0.222598
0.261044
0.293254
0.326245
0.320789
0.317671
0.345206
0.319749
0.256365
0.213243
0.161809
0.048030
-0.121079
-0.258237
-0.346299
-0.399032
-0.416957
-0.461118
-0.490472
-0.450728
-0.381110
-0.269930
-0.118486
0.024126
0.147775
0.303636
0.512749
0.717445
0.837977
0.843172
0.810961
0.799790
0.771735
0.711208
0.696401
0.738743
0.756926
0.771473
0.797969
0.838492
0.914344
0.986819
1.083712
1.214375
1.342440
1.445048
1.493105
1.521679
1.551552
1.546356
1.482972
1.374908
1.228918
1.035650
0.831732
0.627814
0.416622
0.269593
0.202573
0.165425
0.164646
0.204909
0.250109
0.282319
0.295567
0.266473
0.232703
