EVENT_NAME: 202302060117
EVENT_ID: 13194
EVENT_DATE_YYYYMMDD: 2023/02/06
EVENT_TIME_HHMMSS: 01:17:32.00000
EVENT_LATITUDE_DEGREE: 37.288
EVENT_LONGITUDE_DEGREE: 37.043
EVENT_DEPTH_KM: 8.6
HYPOCENTER_REFERENCE: AFAD
MAGNITUDE_W: 7.7
MAGNITUDE_W_REFERENCE: AFAD
MAGNITUDE_L: 
MAGNITUDE_L_REFERENCE: 
FOCAL_MECHANISM: 
NETWORK: TK
STATION_CODE: 0214
STATION_NAME: 
STATION_LATITUDE_DEGREE: 38.028298
STATION_LONGITUDE_DEGREE: 38.22594
STATION_ELEVATION_M: 1353.0
LOCATION: Kahramanmaras_Pazarck_Turkiye
SENSOR_DEPTH_M: 
VS30_M/S: None
SITE_CLASSIFICATION_EC8: unknown
MORPHOLOGIC_CLASSIFICATION: 
EPICENTRAL_DISTANCE_KM: 132.74
EARTHQUAKE_BACKAZIMUTH_DEGREE: 
DATE_TIME_FIRST_SAMPLE_YYYYMMDD_HHMMSS: 2023/02/06 01:17:34.9180790
DATE_TIME_FIRST_SAMPLE_PRECISION: millisecond
SAMPLING_INTERVAL_S: 0.01
NDATA: 3908
DURATION_S: 
STREAM: HNN
UNITS: cm/s^2
INSTRUMENT: sensor = CMG-5T/GURALP | digitizer = 
INSTRUMENT_ANALOG/DIGITAL: 
INSTRUMENTAL_FREQUENCY_HZ: 
INSTRUMENTAL_DAMPING: 
FULL_SCALE_G: 
N_BIT_DIGITAL_CONVERTER: 
PGA_CM/S^2: 61.676
TIME_PGA_S: 
BASELINE_CORRECTION: BASELINE REMOVED
FILTER_TYPE: BUTTERWORTH
FILTER_ORDER: 
LOW_CUT_FREQUENCY_HZ: 
HIGH_CUT_FREQUENCY_HZ: 
LATE/NORMAL_TRIGGERED: 
DATABASE_VERSION: 
HEADER_FORMAT: DYNA 1.2
DATA_TYPE: Acceleration
PROCESSING: Automatic Paolucci et al., 2011
DATA_TIMESTAMP_YYYYMMDD_HHMMSS: 
DATA_LICENSE: U (unknown license)
DATA_CITATION: Turkish Accelerometric Archive v 1.0 - Disaster And Emergency Management Presidency, Earthquake Department
DATA_CREATOR: AFAD
ORIGINAL_DATA_MEDIATOR_CITATION: : AFAD - Disaster And Emergency Management Presidency
ORIGINAL_DATA_MEDIATOR: AFAD PROCESS SERVICE
ORIGINAL_DATA_CREATOR_CITATION: AFAD PROCESS SERVICE
ORIGINAL_DATA_CREATOR: network: TK
USER1: GuestUser
USER2: 
USER3: 
USER4: 
USER5: 
[...]
0.025245
0.025904
0.022505
0.023164
0.025071
0.024793
0.023267
0.025174
0.024896
0.024618
0.024653
0.022502
0.025034
0.026004
0.026975
0.022952
0.024547
0.024893
0.022743
0.026211
0.026869
0.025031
0.023193
0.023227
0.024822
0.027665
0.025827
0.025237
0.024023
0.025306
0.024716
0.025375
0.025721
0.025131
0.026414
0.024576
0.025234
0.024644
0.025303
0.024713
0.026620
0.028215
0.025128
0.023602
0.024573
0.027104
0.027451
0.026549
0.023462
0.025057
0.026028
0.026062
0.026408
0.026131
0.025541
0.024951
0.025922
0.025332
0.026303
0.026649
0.026995
0.025469
0.026128
0.027099
0.024948
0.025919
0.027514
0.027548
0.026646
0.025432
0.023906
0.026437
0.027096
0.027754
0.027789
0.027199
0.026609
0.025083
0.026678
0.025464
0.027371
0.027717
0.026191
0.028410
0.025636
0.025982
0.026953
0.028548
0.029518
0.026744
0.025530
0.025252
0.028095
0.028442
0.028476
0.028511
0.025736
0.027019
0.028614
0.027087
0.027434
0.026844
0.028127
0.026913
0.026635
0.029478
0.028889
0.028611
0.025524
0.025871
0.030275
0.028124
0.026286
0.027569
0.029164
0.029510
0.027360
0.028642
0.026180
0.027463
0.029682
0.028468
0.029126
0.028224
0.029195
0.027045
0.027391
0.029298
0.028396
0.029679
0.028153
0.027875
0.027597
0.029504
0.029851
0.028325
0.029920
0.029954
0.029052
0.028150
0.028184
0.028843
0.031062
0.029536
0.030507
0.028356
0.029327
0.030610
0.028772
0.030679
0.029152
0.028875
0.029533
0.029880
0.030850
0.029948
0.029983
0.030017
0.030676
0.029462
0.029808
0.030779
0.029565
0.029911
0.029946
0.030292
0.029702
0.030361
0.031019
0.031054
0.029528
0.028626
0.029284
0.031816
0.030914
0.030324
0.031294
0.028520
0.032300
0.032022
0.029871
0.030218
0.030876
0.031847
0.031881
0.030667
0.029453
0.030424
0.031707
0.031429
0.030527
0.030874
0.031220
0.031567
0.031601
0.031947
0.031045
0.031392
0.030802
0.031461
0.032744
0.030593
0.031876
0.031598
0.031320
0.032291
0.032326
0.032672
0.031770
0.032116
0.032463
0.032497
0.033156
0.032254
0.033537
0.035132
0.032669
0.033952
0.034923
0.035893
0.036552
0.036274
0.038493
0.038840
0.038874
0.039221
0.040192
0.041786
0.041509
0.042167
0.044386
0.045357
0.045704
0.046050
0.045772
0.045807
0.048338
0.048997
0.050904
0.051562
0.051909
0.053192
0.055099
0.055445
0.061410
0.063005
0.066160
0.069940
0.073720
0.083742
0.087521
0.094734
0.098826
0.101982
0.106698
0.113286
0.125805
0.143006
0.159582
0.176471
0.197417
0.218051
0.231194
0.237158
0.235632
0.223182
0.201369
0.172064
0.148690
0.140609
0.145013
0.156284
0.168491
0.179761
0.187910
0.191378
0.190476
0.172720
0.132492
0.070103
0.000224
-0.044374
-0.031543
0.025921
0.100862
0.181734
0.254803
0.294476
0.292326
0.252097
0.188772
0.111403
0.030912
-0.017432
-0.000855
0.094686
0.222687
0.328528
0.396915
0.432531
0.420392
0.368304
0.291558
0.198583
0.120277
0.085042
0.099434
0.177184
0.316421
0.494673
0.666370
0.799365
0.914881
0.988886
0.944913
0.706180
0.319818
0.021783
0.024315
0.291206
0.604603
0.732916
0.645871
0.523244
0.527024
0.588545
0.529590
0.331744
0.101750
-0.027118
-0.124776
-0.308576
-0.434636
-0.396836
-0.363717
-0.373670
-0.174195
0.148877
0.117700
-0.352933
-0.822630
-0.991762
-0.924935
-0.858420
-0.993843
-1.341816
-1.573994
-1.435381
-1.179726
-1.136620
-1.227722
-1.154966
-0.961421
-0.806890
-0.782199
-1.035913
-1.490628
-1.774305
-1.761786
-1.562311
-1.188677
-0.800997
-0.499773
-0.069021
0.392941
0.355834
-0.134150
-0.363207
-0.150623
0.016392
-0.072838
-0.226988
-0.264407
-0.138279
0.125179
0.335266
0.411456
0.472041
0.522950
0.444331
0.268021
0.103260
-0.029666
0.061505
0.412043
0.693916
0.686772
0.523259
0.375664
0.371328
0.495584
0.468777
0.311193
0.396747
0.717322
0.783525
0.543231
0.537336
0.676573
0.503696
0.174763
-0.160413
-0.516813
-0.694683
-0.561688
-0.259216
0.046066
0.370074
0.667865
0.752795
0.569306
0.182319
-0.326080
-0.880671
-1.217408
-0.921490
-0.217639
0.138830
0.095480
0.226602
0.538438
0.574990
0.282262
0.002954
-0.203319
-0.415522
-0.484152
-0.315264
0.223790
0.939814
1.341226
1.326904
1.188672
0.902186
0.302961
-0.159557
-0.078061
0.543392
1.229140
1.499153
1.473906
1.357522
1.162486
0.804525
0.258673
-0.208839
-0.277158
-0.122003
-0.121344
-0.142846
-0.019526
0.097239
0.140345
-0.012869
-0.329006
-0.581784
-0.791490
-0.962806
-0.800472
-0.342879
-0.193966
-0.501676
-0.607760
-0.157970
0.190383
-0.070510
-0.426285
-0.175311
0.473920
0.833509
0.869125
0.730581
0.568316
0.654806
0.708211
0.386144
0.027560
-0.038262
0.149665
0.417805
0.584196
0.472806
0.071150
-0.248732
-0.375104
-0.432498
-0.418107
-0.305399
0.021730
0.591060
1.118567
1.203808
0.831491
0.367100
0.158642
0.146192
-0.145912
-0.563486
-0.555337
-0.105234
0.441936
0.853648
1.022848
0.876189
0.679280
0.633121
0.472105
-0.096220
-0.645818
-0.671377
-0.331451
0.026578
0.335917
0.490136
0.367822
0.244571
0.333558
0.352943
0.065209
-0.230641
-0.246836
-0.069521
0.040377
0.138415
0.293258
0.445916
0.664742
0.833942
0.768745
0.575269
0.623681
0.956428
1.046976
0.856308
0.920014
1.252137
1.678519
2.249410
2.635529
2.440180
2.085341
1.995487
1.814807
1.310153
0.694699
0.170071
-0.148251
-0.100151
0.226042
0.510412
0.769501
1.268917
1.982444
2.270871
1.558662
-0.162611
-2.176647
-3.448164
-3.493386
-2.772993
-1.661834
-0.049108
1.543019
2.717225
3.248477
2.765360
1.334665
-0.212761
-1.143762
-1.499225
-1.489827
-1.101211
-0.147357
1.153567
2.350246
3.224198
3.717685
3.820405
3.363816
2.328257
1.107927
-0.277512
-1.451025
-1.115156
1.013806
3.296016
4.217723
4.183737
4.302062
4.499664
4.240020
3.520008
2.433262
1.210435
0.633995
1.191153
1.632828
0.946524
0.470897
1.083611
1.551192
1.200098
0.466977
-0.262398
-0.972735
-1.598801
-2.078797
-2.676773
-3.149279
-3.334952
-3.024364
-2.063020
-1.241502
-1.335414
-2.027024
-2.405895
-2.302863
-2.111815
-2.000981
-1.873916
-1.750597
-1.462169
-0.951829
-1.048238
-2.144347
-3.034773
-2.899281
-2.357729
-2.419181
-3.209107
-4.097973
-4.464360
-3.960262
-2.992363
-2.389012
-2.822192
-3.106493
-1.880164
-0.263068
-0.443748
-2.104158
-2.672483
-1.137161
0.860713
1.854830
2.121722
2.019695
2.419235
3.714229
4.771081
4.674048
4.078257
3.860436
3.705350
3.289336
2.437612
1.179516
0.373049
0.119022
-0.153419
-0.350016
0.059824
1.120733
2.346438
3.077131
2.912681
1.445157
-0.644723
-1.590393
-1.380306
-0.707042
-0.277227
0.110764
1.207566
3.260373
5.301007
5.310405
3.494874
1.371286
-1.159922
-4.240451
-6.164286
-5.613370
-3.314618
-0.765239
1.327206
2.557593
2.772986
2.865406
3.134170
2.388253
0.014662
-2.725974
-5.169479
-6.380134
-5.509302
-3.381276
-0.726402
1.621352
2.985324
2.269681
0.541854
-0.326724
-0.634434
-2.469005
-5.761770
-7.638164
-6.980818
-4.635249
-2.261589
-0.878579
-0.992154
-0.923454
-0.873170
-1.897805
-2.468626
-2.576896
-3.047841
-3.248496
-1.807432
0.311230
1.026942
1.307254
2.695258
4.038943
5.424762
7.050597
6.951067
5.142714
3.817514
2.988886
2.647468
4.082289
5.786153
5.926326
4.928221
4.483493
4.485088
4.119325
3.336578
1.509498
-0.733629
-1.844095
-1.575955
-0.808433
0.142924
0.371738
-0.859829
-1.772103
-1.335733
-0.948054
-1.242343
-1.867472
-2.358705
-2.488510
-1.789653
-0.941605
-1.325159
-1.983997
-1.712423
-1.027923
-1.389005
-2.781310
-3.633346
-3.123318
-3.061173
-3.844544
-2.593245
0.117497
1.078842
-0.215772
-1.844347
-1.535320
0.619236
2.102123
1.880868
0.696119
-1.141261
-3.865043
-5.382194
-4.157425
-3.496334
-4.439195
-4.130480
-0.994951
3.168681
5.734291
6.173469
4.130719
0.647252
-1.031886
1.346455
5.160520
5.903073
4.811333
6.239600
8.845472
8.934147
6.123597
2.985639
3.039669
4.630860
4.170526
1.997937
-0.273593
-2.210224
-1.796015
1.039261
1.924138
0.462856
-0.982509
-1.905083
-3.042703
-5.433772
-7.397246
-7.018617
-5.144964
-3.516320
-2.273449
-1.606427
-2.112953
-2.908185
-3.395360
-2.649062
-1.194889
-0.950782
-2.908949
-4.206996
-2.930729
-0.946587
1.003846
3.873454
7.458740
7.298972
2.446886
-1.716053
-2.617716
-2.388278
-1.512764
1.434560
5.855062
7.925659
8.273700
7.629220
4.440700
1.562733
-0.206605
-1.745292
-2.739340
-2.986499
-2.981783
-2.133736
-0.645231
-0.152681
-0.094594
1.319004
3.658643
5.180544
7.312315
8.111673
3.854164
-0.915836
-1.773179
0.352038
2.751915
3.943912
4.450819
6.285146
8.488704
8.492171
6.929452
5.000311
2.408241
-0.514982
-1.884191
-2.917253
-3.620723
-1.046374
3.788926
5.033046
1.108562
-4.146151
-5.898011
-4.673866
-6.050254
-10.009382
-12.930108
-14.273412
-14.162577
-12.946547
-10.695549
-8.269766
-7.622096
-7.622061
-7.309601
-7.093272
-8.761798
-10.773961
-9.985839
-7.076904
-3.616153
0.628317
2.941738
2.202375
1.277928
1.355367
1.495228
-0.328730
-3.237908
-4.538140
-0.736560
5.284461
7.005491
3.584446
-0.454896
-0.642754
2.434722
4.046200
2.142028
-1.106417
-2.472193
-0.985560
0.455815
-0.102834
-1.227033
-1.139607
-0.879270
0.086757
2.466970
4.203606
3.461746
2.113761
2.199626
2.515208
1.939080
1.989989
2.776862
2.591813
3.594045
5.447411
4.568845
3.037025
3.768966
4.587050
4.853006
4.691989
3.082765
1.797515
1.977015
2.072556
2.040131
2.933435
3.280540
1.362635
-2.260972
-6.249439
-7.939813
-7.210056
-7.096725
-7.967800
-9.395998
-10.606653
-10.434332
-10.252023
-8.011324
-3.257485
-0.911603
-0.596022
0.669321
2.530178
3.499326
5.385776
8.614939
9.593450
6.334705
1.372442
-2.735253
-4.683120
-2.180558
1.192490
1.847963
3.343023
6.904587
9.590048
7.337558
-0.218994
-8.424118
-13.922280
-16.726900
-16.831424
-12.567603
-6.081221
-0.838299
2.805351
7.061056
11.269633
13.856778
14.527857
11.427041
4.921688
-0.579906
-1.927891
-3.066136
-4.235592
-0.680894
5.439379
10.340224
12.510385
11.155222
8.761656
6.744187
4.492008
0.580009
-4.532380
-8.361982
-10.114154
-8.832581
-3.990413
-0.687903
-0.977511
-0.368230
2.212673
5.348514
7.059244
6.933497
5.121398
2.753426
0.580212
-1.621404
-4.231577
-5.541484
-4.210909
-2.248615
-1.212675
-1.468886
-0.514096
1.027780
-1.040875
-5.066796
-6.144179
-7.051459
-9.265872
-10.579212
-11.577005
-12.177166
-9.974232
-4.979754
-1.592661
0.236672
4.163722
8.522737
9.198186
7.228782
4.396384
1.405745
-1.538390
-2.780256
-0.149415
2.597220
3.590713
6.773371
11.178579
12.906163
13.144028
11.785119
4.819399
-4.018692
-9.020281
-11.373896
-13.063334
-10.665954
-4.510100
-2.186690
-1.613615
0.254108
1.149909
2.037595
2.128454
-0.642145
-4.544157
-7.216441
-6.344673
-2.308383
0.238499
-0.849807
-2.134745
-2.080403
-0.780102
1.537377
2.109203
-0.196659
-3.387363
-3.969109
0.644591
4.879073
1.763900
-1.723313
-0.235432
0.802068
-1.618964
-5.411736
-10.014755
-13.081239
-12.598676
-11.567418
-12.745301
-13.313938
-12.051716
-8.286029
-3.053407
-1.097356
-0.132890
0.635256
0.667439
0.982396
2.932517
6.957570
11.421768
13.047915
11.020146
8.501734
6.617226
5.726800
7.576732
10.840228
14.026944
15.491104
12.765137
9.020742
6.446150
3.572553
-0.682771
-1.772638
0.714007
1.332963
0.503086
0.005611
0.584305
-0.868863
-2.701872
0.187399
3.943723
4.431279
2.575797
-0.047173
-3.883953
-4.251901
0.854939
4.688979
3.065397
1.729273
3.349490
3.936610
4.199756
1.728786
-2.189768
-3.548053
-3.667246
-3.682193
-4.795468
-6.500199
-6.937748
-6.136206
-1.431993
3.836834
2.079356
-2.582341
-2.431556
0.784499
1.094462
-0.215133
0.682853
1.049933
-1.862678
-1.963457
1.210463
3.309774
5.083239
6.753082
9.152335
11.353395
10.224202
5.015994
1.099625
1.183930
-0.110371
-2.519231
-1.479858
0.088236
-1.863065
-5.303772
-8.851535
-12.232941
-12.709192
-8.779958
-5.360717
-5.538900
-5.622200
-6.172110
-8.290704
-7.482607
-4.008122
-2.245269
-2.541119
-3.287036
-4.150309
-5.120948
-3.659285
-0.462894
1.965074
4.256647
7.564775
10.349177
8.761176
3.195910
-1.104671
-1.438598
0.280246
2.365201
1.259104
-1.121665
1.011042
4.163738
5.219653
4.588281
1.079221
-1.700430
0.536523
4.341225
3.062529
-2.524273
-6.718736
-7.912224
-6.944637
-6.485171
-6.125582
-2.293415
4.228549
8.134375
8.437471
7.140985
4.641925
2.612595
0.980587
0.919135
2.497841
1.678576
-0.855129
0.638370
5.007997
6.663483
5.520244
4.501227
1.224067
-5.208251
-9.711706
-12.416761
-15.212954
-17.692039
-16.785939
-11.455314
-4.743585
-0.484134
0.012473
0.286231
0.918608
2.478899
4.369407
3.000198
-0.830028
-2.871217
-0.714165
3.539044
5.883053
3.779440
0.155210
-4.459046
-9.514942
-10.602624
-6.515460
-4.440494
-8.204239
-11.209236
-13.879647
-15.885568
-14.954186
-10.507467
-6.538906
-7.968041
-11.779227
-12.520463
-9.032245
-4.864556
-5.639188
-11.136101
-12.077714
-7.596974
-1.263840
-0.363669
-4.956389
-8.818762
-10.380545
-6.402621
-0.754888
0.448033
-0.897767
0.215265
1.226860
0.455349
-1.040266
-1.587367
-0.393185
2.977990
3.065416
-3.943064
-2.486707
9.343063
13.585348
7.967959
9.420882
17.281814
15.224394
5.980556
4.118519
6.831134
8.382062
15.779817
21.152889
18.281477
21.177615
30.906235
34.467176
32.260254
29.627608
26.395393
23.986845
24.227831
18.392899
4.448939
0.678015
12.078004
18.111510
16.837808
17.095336
11.260716
-0.507187
-6.786569
-2.697220
-4.326108
-17.432979
-23.677404
-14.906973
-1.095905
1.884504
-4.932026
-5.620203
-1.312999
2.536647
6.508017
8.002452
1.126932
-6.798538
-1.958556
8.904910
13.266422
12.032983
12.727470
14.915734
15.582756
6.904155
-6.610024
-14.513335
-17.646610
-21.519908
-24.896008
-19.615321
-13.922643
-20.345598
-20.113663
-1.288175
9.085584
3.046529
-7.651136
-23.434070
-35.076503
-20.203624
-0.056958
1.522684
2.654131
10.561567
22.473423
33.032578
29.104973
9.632230
-10.777479
-13.296827
-4.138126
-7.200864
-14.495240
-13.110357
-1.387330
7.085969
0.643351
2.992978
8.022725
-6.621930
-24.199518
-30.243567
-26.176378
-16.950261
-9.876793
-5.691313
-0.755824
6.613529
16.020672
20.223942
19.583207
18.165621
13.318840
14.684373
20.799652
15.953496
-0.532631
-12.883562
-15.334245
-12.576685
0.027751
9.754499
14.629126
19.790585
20.423274
15.246902
1.364740
-8.506447
-11.267059
-9.950841
0.072415
10.253288
14.070474
13.232170
11.249346
20.516662
23.714302
16.323483
1.683509
-13.973643
-18.105683
-19.550735
-13.307177
-5.737136
0.801682
1.319513
6.423543
15.143100
15.286082
14.862266
12.009269
5.499859
-3.730559
-9.668801
-8.343532
-3.461102
-6.005419
-7.142415
-1.177263
6.575053
7.135332
0.082532
-1.054464
-5.306044
-12.571393
-22.843647
-30.153005
-26.347055
-16.393401
-8.351444
-7.367627
-1.258590
3.569532
8.065566
10.238224
9.613719
8.335023
7.417131
12.157237
13.333628
11.852682
7.351412
5.195365
1.673819
-2.646737
1.402973
7.139659
5.604093
-0.044195
-9.253077
-19.438875
-23.986963
-20.130138
-13.989266
-11.388075
-7.054654
-6.476897
-0.282341
7.317040
10.833660
14.977004
12.700793
2.529040
-1.446631
5.037255
10.005516
9.432510
5.920640
7.443477
8.325545
6.394532
4.023438
9.172101
14.159089
12.307040
7.771125
3.864120
0.085080
-6.687754
-11.319488
-15.385671
-12.202701
-2.342056
6.038232
7.292964
4.179352
2.765511
8.460997
13.290055
13.926802
12.206465
6.255739
-1.036141
-5.976867
-3.532982
1.413743
5.218132
6.613627
6.309351
8.178010
11.216160
7.289179
0.025390
-4.165015
-9.858248
-15.889500
-15.937531
-13.459001
-10.100935
-5.679185
-1.389771
-2.911292
-6.144131
-6.713393
-13.099830
-20.768431
-24.259701
-25.561805
-25.445664
-22.281109
-13.025965
-0.706176
4.720268
4.022728
-0.528480
-5.726389
-6.691410
-2.285266
0.348073
-6.498733
-16.188894
-14.911378
-11.434084
-12.557660
-11.024522
-7.740739
1.789377
10.314174
14.687859
18.306540
23.287286
21.869387
11.243509
2.477204
1.400134
0.823382
-0.687526
5.026999
15.769364
21.761047
16.874004
9.754411
2.955984
1.801821
2.632078
-2.566142
-10.810593
-20.115606
-32.687514
-35.238697
-17.204105
5.767189
12.301325
8.633399
-3.918534
-21.070399
-21.163062
-16.000354
-14.019958
-13.097940
-5.095308
19.405656
37.306039
33.758588
43.219103
37.839856
-13.351135
-44.108351
-8.317608
44.534834
61.675532
54.915806
26.064669
-12.802511
-2.277689
37.935707
22.202087
-15.492794
-24.753175
-30.031608
-30.919850
-43.513606
-43.528865
-15.162372
12.094557
27.689668
20.794485
5.364239
-0.257519
-0.884834
-18.815735
-19.620330
-21.588172
-21.629961
-0.969244
19.878116
34.501305
30.987874
28.032503
14.960589
5.817563
12.980921
-1.584458
-16.923566
7.195683
13.801917
-6.773836
-20.711554
-16.791370
-4.639499
-0.650651
-8.959085
-15.941659
-12.723108
-22.293105
-21.108599
-16.531417
-14.590347
-7.900466
1.441445
24.461118
37.495335
31.913839
27.340470
30.559958
26.725363
11.911542
-6.304631
-5.963457
-8.113574
-16.875197
-24.685497
-42.254034
-38.450270
-28.842437
-18.186215
-18.080062
-16.328445
-1.901265
-0.835986
-5.116904
-7.058217
-9.396851
-12.198038
-8.367743
-9.567162
-0.834497
7.745545
5.868215
5.209065
2.067362
8.207299
14.765779
21.368268
20.918859
5.442732
-6.168489
-8.083585
-6.760500
0.000000
0.000000
0.000000
0.000000
0.000000
0.000000
0.000000
0.000000
0.000000
0.000000
0.000000
0.000000
0.000000
0.000000
0.000000
0.000000
0.000000
0.000000
0.000000
0.000000
0.000000
0.000000
0.000000
0.000000
0.000000
0.000000
0.000000
0.000000
0.000000
0.000000
0.000000
0.000000
0.000000
0.000000
0.000000
0.000000
0.000000
0.000000
0.000000
0.000000
0.000000
0.000000
0.000000
0.000000
0.000000
0.000000
0.000000
0.000000
0.000000
0.000000
0.000000
0.000000
0.000000
0.000000
0.000000
0.000000
0.000000
0.000000
0.000000
0.000000
0.000000
0.000000
0.000000
0.000000
0.000000
0.000000
0.000000
0.000000
0.000000
0.000000
0.000000
0.000000
0.000000
0.000000
0.000000
0.000000
0.000000
0.000000
0.000000
0.000000
0.000000
0.000000
0.000000
0.000000
0.000000
0.000000
0.000000
0.000000
0.000000
0.000000
0.000000
0.000000
0.000000
0.000000
0.000000
0.000000
0.000000
0.000000
0.000000
0.000000
0.000000
0.000000
0.000000
0.000000
0.000000
0.000000
0.000000
0.000000
0.000000
0.000000
0.000000
0.000000
0.000000
0.000000
0.000000
0.000000
0.000000
0.000000
0.000000
0.000000
0.000000
0.000000
0.000000
0.000000
0.000000
0.000000
0.000000
0.000000
0.000000
0.000000
0.000000
0.000000
0.000000
0.000000
0.000000
0.000000
0.000000
0.000000
0.000000
0.000000
0.000000
0.000000
0.000000
0.000000
0.000000
0.000000
0.000000
0.000000
0.000000
0.000000
0.000000
0.000000
0.000000
0.000000
0.000000
0.000000
0.000000
0.000000
0.000000
0.000000
0.000000
0.000000
0.000000
0.000000
0.000000
0.000000
0.000000
0.000000
0.000000
0.000000
0.000000
0.000000
0.000000
0.000000
0.000000
0.000000
0.000000
0.000000
0.000000
0.000000
0.000000
0.000000
0.000000
0.000000
0.000000
0.000000
0.000000
0.000000
0.000000
0.000000
0.000000
0.000000
0.000000
0.000000
0.000000
0.000000
0.000000
0.000000
0.000000
0.000000
