EVENT_NAME: 202302060117
EVENT_ID: 13194
EVENT_DATE_YYYYMMDD: 2023/02/06
EVENT_TIME_HHMMSS: 01:17:32.00000
EVENT_LATITUDE_DEGREE: 37.288
EVENT_LONGITUDE_DEGREE: 37.043
EVENT_DEPTH_KM: 8.6
HYPOCENTER_REFERENCE: AFAD
MAGNITUDE_W: 7.7
MAGNITUDE_W_REFERENCE: AFAD
MAGNITUDE_L: 
MAGNITUDE_L_REFERENCE: 
FOCAL_MECHANISM: 
NETWORK: TK
STATION_CODE: 2414
STATION_NAME: 
STATION_LATITUDE_DEGREE: 39.79505
STATION_LONGITUDE_DEGREE: 39.41862
STATION_ELEVATION_M: 1301.0
LOCATION: Kahramanmaras_Pazarck_Turkiye
SENSOR_DEPTH_M: 
VS30_M/S: 372
SITE_CLASSIFICATION_EC8: B
MORPHOLOGIC_CLASSIFICATION: 
EPICENTRAL_DISTANCE_KM: 346.96
EARTHQUAKE_BACKAZIMUTH_DEGREE: 
DATE_TIME_FIRST_SAMPLE_YYYYMMDD_HHMMSS: 2023/02/06 01:17:58.9003790
DATE_TIME_FIRST_SAMPLE_PRECISION: millisecond
SAMPLING_INTERVAL_S: 0.01
NDATA: 18251
DURATION_S: 
STREAM: HNZ
UNITS: cm/s^2
INSTRUMENT: sensor = ACEBOX/SARA | digitizer = 
INSTRUMENT_ANALOG/DIGITAL: 
INSTRUMENTAL_FREQUENCY_HZ: 
INSTRUMENTAL_DAMPING: 
FULL_SCALE_G: 
N_BIT_DIGITAL_CONVERTER: 
PGA_CM/S^2: 8.650
TIME_PGA_S: 
BASELINE_CORRECTION: BASELINE REMOVED
FILTER_TYPE: BUTTERWORTH
FILTER_ORDER: 
LOW_CUT_FREQUENCY_HZ: 
HIGH_CUT_FREQUENCY_HZ: 
LATE/NORMAL_TRIGGERED: 
DATABASE_VERSION: 
HEADER_FORMAT: DYNA 1.2
DATA_TYPE: Acceleration
PROCESSING: Automatic Paolucci et al., 2011
DATA_TIMESTAMP_YYYYMMDD_HHMMSS: 
DATA_LICENSE: U (unknown license)
DATA_CITATION: Turkish Accelerometric Archive v 1.0 - Disaster And Emergency Management Presidency, Earthquake Department
DATA_CREATOR: AFAD
ORIGINAL_DATA_MEDIATOR_CITATION: : AFAD - Disaster And Emergency Management Presidency
ORIGINAL_DATA_MEDIATOR: AFAD PROCESS SERVICE
ORIGINAL_DATA_CREATOR_CITATION: AFAD PROCESS SERVICE
ORIGINAL_DATA_CREATOR: network: TK
USER1: GuestUser
USER2: 
USER3: 
USER4: 
USER5: 
[...]
-0.254148
-0.331769
-0.377126
-0.389051
-0.386245
-0.391857
-0.418043
-0.448437
-0.463166
-0.453815
-0.396769
-0.269583
-0.068986
0.188892
0.461266
0.718676
0.970008
1.220404
1.451162
1.651993
1.818690
1.940031
2.001987
1.994271
1.922027
1.786191
1.572733
1.290072
0.973276
0.652506
0.337815
0.051179
-0.155732
-0.255564
-0.268190
-0.211845
-0.087933
0.093961
0.312561
0.559918
0.825979
1.073103
1.273233
1.420992
1.498846
1.498144
1.431044
1.300819
1.123600
0.933522
0.743445
0.558745
0.384332
0.225817
0.090448
-0.055676
-0.234298
-0.426713
-0.639235
-0.868123
-1.095375
-1.324964
-1.540292
-1.739487
-1.941021
-2.133436
-2.319306
-2.519436
-2.721204
-2.901696
-3.059042
-3.181084
-3.263849
-3.343340
-3.431950
-3.503726
-3.538328
-3.526873
-3.476373
-3.413482
-3.372100
-3.367425
-3.365087
-3.330485
-3.284895
-3.263854
-3.273674
-3.302665
-3.318798
-3.288638
-3.233229
-3.190912
-3.152335
-3.098095
-3.039646
-2.970442
-2.858688
-2.709759
-2.558259
-2.424995
-2.314409
-2.230710
-2.175067
-2.141634
-2.135088
-2.147714
-2.141402
-2.100721
-2.030816
-1.921633
-1.774809
-1.619334
-1.464327
-1.297864
-1.132570
-0.988083
-0.855053
-0.716879
-0.590629
-0.500150
-0.415048
-0.315918
-0.217023
-0.094747
0.058156
0.225554
0.414696
0.604773
0.789940
0.993811
1.203526
1.403189
1.609164
1.829868
2.048702
2.242987
2.405242
2.540143
2.653768
2.753365
2.843610
2.929881
3.016386
3.096110
3.162742
3.213476
3.256728
3.309799
3.350713
3.350245
3.320319
3.278469
3.235917
3.184014
3.108965
3.022225
2.907431
2.756865
2.591336
2.419027
2.269396
2.138937
1.994684
1.862588
1.758314
1.670873
1.607280
1.565898
1.551168
1.559350
1.581561
1.647725
1.756908
1.870767
1.981586
2.087262
2.177508
2.255596
2.320357
2.374130
2.426500
2.481676
2.546437
2.621252
2.690456
2.742592
2.763867
2.743059
2.685077
2.595766
2.484010
2.358695
2.211870
2.052186
1.907932
1.797813
1.733285
1.725102
1.771861
1.860236
1.987421
2.137752
2.269614
2.365236
2.414099
2.389550
2.281068
2.089354
1.834982
1.555594
1.280414
1.033758
0.832692
0.690542
0.616896
0.607310
0.646821
0.703867
0.744314
0.761848
0.776811
0.814218
0.878278
0.947014
1.008736
1.074667
1.153690
1.233648
1.304488
1.367613
1.416242
1.450844
1.455520
1.413903
1.364104
1.310798
1.207693
1.054789
0.867751
0.668321
0.486427
0.337030
0.245381
0.200258
0.163551
0.133625
0.103231
0.074941
0.091073
0.156068
0.230181
0.289565
0.326739
0.341000
0.360171
0.412073
0.483849
0.544636
0.585784
0.606591
0.591862
0.524060
0.380976
0.162609
-0.094569
-0.373489
-0.660827
-0.907483
-1.084702
-1.203471
-1.272676
-1.298861
-1.300966
-1.294186
-1.301434
-1.347259
-1.410151
-1.467431
-1.523309
-1.559081
-1.545755
-1.485669
-1.401503
-1.315699
-1.246262
-1.200906
-1.192022
-1.241120
-1.365968
-1.579659
-1.860684
-2.156204
-2.433722
-2.669390
-2.854324
-2.994369
-3.069418
-3.064041
-2.978705
-2.830244
-2.642739
-2.408475
-2.176315
-2.033465
-1.952104
-1.882900
-1.856482
-1.907917
-2.038610
-2.198294
-2.336235
-2.449861
-2.549459
-2.669865
-2.842408
-3.045578
-3.261607
-3.483481
-3.683144
-3.854284
-4.022853
-4.214800
-4.428024
-4.618569
-4.756276
-4.849328
-4.888139
-4.861954
-4.785502
-4.651537
-4.445328
-4.179501
-3.869720
-3.508504
-3.073641
-2.588045
-2.128867
-1.742167
-1.422099
-1.155804
-0.917331
-0.683301
-0.464934
-0.272987
-0.108394
0.015284
0.091268
0.130779
0.120725
0.046611
-0.052519
-0.127335
-0.181108
-0.229739
-0.263640
-0.265744
-0.227870
-0.146041
-0.058601
-0.018388
0.001952
0.041229
0.074662
0.094768
0.098508
0.064374
0.021822
-0.001091
-0.019561
-0.037797
-0.064918
-0.111678
-0.171297
-0.249152
-0.339164
-0.414681
-0.453258
-0.450453
-0.431749
-0.412345
-0.380315
-0.344310
-0.320230
-0.308073
-0.310645
-0.321400
-0.316023
-0.270667
-0.190241
-0.118699
-0.083162
-0.060251
-0.027519
0.019707
0.064128
0.094989
0.132630
0.185935
0.254671
0.339539
0.459243
0.654697
0.910939
1.182143
1.454517
1.717304
1.963726
2.192613
2.402797
2.589133
2.729411
2.822696
2.898212
2.988223
3.114707
3.268312
3.434775
3.593055
3.716733
3.805342
3.864493
3.926215
4.031891
4.171935
4.296782
4.366453
4.388196
4.387962
4.381415
4.385623
4.382583
4.345877
4.291402
4.229679
4.174035
4.147381
4.157434
4.211909
4.312675
4.458330
4.637185
4.843627
5.098466
5.382997
5.663553
5.956267
6.257164
6.531407
6.771984
6.988948
7.167335
7.275115
7.324679
7.349695
7.338940
7.268801
7.122209
6.895426
6.607855
6.252950
5.826503
5.360078
4.884533
4.423485
3.976698
3.534353
3.117025
2.722374
2.340349
1.984276
1.652283
1.342735
1.072231
0.857371
0.684828
0.515091
0.326650
0.118570
-0.057947
-0.176716
-0.295953
-0.410748
-0.513619
-0.658808
-0.808205
-0.909439
-0.963915
-0.976774
-1.009740
-1.104662
-1.233017
-1.367684
-1.496507
-1.647774
-1.850477
-2.079131
-2.329528
-2.608683
-2.893448
-3.209075
-3.584787
-3.980607
-4.359826
-4.713328
-5.037371
-5.331021
-5.591004
-5.850987
-6.128972
-6.374694
-6.564070
-6.702712
-6.791789
-6.843693
-6.859357
-6.863566
-6.873854
-6.857722
-6.830134
-6.814470
-6.796702
-6.776596
-6.744566
-6.678168
-6.553087
-6.352022
-6.085493
-5.786701
-5.476218
-5.126692
-4.763371
-4.476502
-4.267020
-4.099388
-3.970800
-3.883828
-3.870268
-3.920301
-3.994649
-4.127914
-4.336695
-4.582650
-4.836321
-5.091862
-5.385044
-5.736909
-6.099763
-6.412584
-6.640770
-6.792973
-6.886258
-6.898182
-6.832953
-6.703898
-6.469867
-6.149331
-5.807988
-5.441160
-5.038328
-4.606972
-4.129559
-3.631805
-3.184317
-2.791772
-2.426815
-2.112592
-1.862195
-1.661831
-1.507759
-1.385718
-1.294771
-1.243570
-1.204993
-1.139063
-1.046947
-0.948519
-0.828348
-0.671236
-0.487940
-0.295057
-0.130464
-0.013099
0.069432
0.143779
0.264651
0.429712
0.582615
0.726867
0.892863
1.092058
1.321880
1.560587
1.797891
2.043611
2.275070
2.475668
2.663173
2.831974
2.990488
3.173785
3.367135
3.536637
3.670369
3.786098
3.942275
4.149419
4.361238
4.559498
4.755887
4.954849
5.162928
5.397426
5.657876
5.931418
6.229275
6.550746
6.861229
7.139447
7.388207
7.603768
7.785661
7.929213
8.020159
8.076037
8.102221
8.052656
7.905130
7.708506
7.520298
7.337001
7.144118
6.952871
6.762092
6.572716
6.367676
6.132709
5.906627
5.683817
5.422899
5.156370
4.901063
4.611388
4.276823
3.920282
3.539660
3.123734
2.693313
2.273880
1.872918
1.508193
1.183449
0.883253
0.639402
0.475042
0.369131
0.308110
0.277482
0.280755
0.342711
0.430618
0.502393
0.583053
0.680312
0.752555
0.797911
0.862907
0.955490
1.039657
1.116108
1.211263
1.323018
1.453009
1.588611
1.702470
1.843215
2.033526
2.178480
2.217991
2.132655
1.888102
1.529457
1.137378
0.733844
0.292902
-0.230804
-0.813428
-1.382023
-1.908769
-2.373324
-2.741789
-3.028191
-3.253806
-3.407645
-3.503736
-3.535299
-3.476149
-3.362991
-3.221544
-3.043859
-2.861497
-2.704853
-2.581175
-2.483448
-2.366316
-2.231649
-2.140469
-2.073603
-1.999957
-1.946418
-1.896386
-1.840509
-1.792581
-1.775982
-1.843549
-1.929120
-2.005104
-2.166658
-2.360710
-2.545644
-2.771961
-3.028904
-3.344297
-3.707618
-4.088942
-4.517961
-4.914247
-5.242499
-5.566776
-5.865570
-6.135138
-6.382262
-6.539608
-6.573042
-6.500799
-6.357248
-6.160157
-5.916774
-5.679237
-5.470690
-5.279444
-5.147349
-5.097551
-5.089134
-5.098954
-5.145948
-5.225206
-5.303528
-5.371797
-5.448016
-5.531014
-5.580813
-5.616585
-5.680879
-5.729509
-5.756864
-5.791233
-5.818354
-5.852956
-5.887792
-5.912575
-5.955360
-5.983416
-5.949516
-5.862544
-5.748451
-5.587599
-5.373208
-5.150399
-4.912160
-4.672986
-4.469583
-4.246073
-4.031447
-3.916186
-3.850021
-3.754165
-3.644748
-3.558010
-3.494651
-3.470570
-3.496522
-3.530190
-3.552401
-3.587003
-3.647791
-3.733361
-3.833894
-3.941675
-4.034961
-4.073771
-4.067693
-4.086631
-4.129884
-4.100893
-3.971136
-3.799530
-3.591450
-3.300373
-2.941261
-2.539364
-2.020802
-1.400538
-0.813006
-0.308238
0.066071
0.317169
0.604973
0.923638
1.103662
1.131717
1.093140
1.076540
1.217987
1.506492
1.724859
1.801310
1.828430
1.775591
1.648873
1.583877
1.473524
1.089161
0.610344
0.376780
0.386131
0.434761
0.323941
0.014860
-0.220574
-0.138745
0.194415
0.629044
1.061101
1.374389
1.577325
1.800601
2.068766
2.386496
2.734152
2.936152
2.991796
3.041360
3.101680
3.255284
3.438113
3.442555
3.394158
3.428526
3.436709
3.373583
3.202911
2.897103
2.572826
2.278241
1.983656
1.782590
1.729050
1.748689
1.834492
1.996279
2.150819
2.237324
2.340194
2.580771
2.826024
2.868575
2.835609
2.927958
3.107280
3.281459
3.399526
3.414021
3.409813
3.565054
3.782952
3.754896
3.447920
3.094184
2.916966
2.988040
3.154035
3.147255
2.790246
2.245732
1.861369
1.622194
1.343273
1.084693
0.904669
0.840608
0.964520
1.127710
1.201823
1.246244
1.199718
1.065752
0.971531
0.839903
0.640941
0.445253
0.300532
0.387504
0.561682
0.539939
0.663150
1.088660
1.367346
1.520717
1.896896
2.356541
2.738098
3.098145
3.359764
3.614603
3.956882
4.132463
4.207044
4.456038
4.720930
4.900252
5.069754
5.098277
4.970857
4.872662
4.760906
4.484324
4.134797
3.800700
3.405115
3.042495
2.841195
2.697877
2.619788
2.742765
2.927464
2.957858
2.924658
2.913669
2.799809
2.608563
2.441865
2.311406
2.330343
2.416848
2.274465
1.992037
1.847784
1.848251
1.839834
1.684125
1.435130
1.208580
0.902305
0.510461
0.243230
0.032578
-0.345005
-0.767944
-1.145761
-1.610083
-2.024138
-2.399383
-3.115505
-3.949927
-4.447682
-4.920654
-5.552843
-5.974146
-6.215892
-6.346586
-6.141078
-5.820075
-5.453481
-4.718189
-4.004173
-3.712394
-3.407990
-2.873764
-2.334628
-1.863059
-1.520781
-1.309662
-1.047342
-0.818689
-0.845809
-0.889296
-0.780347
-0.973230
-1.678831
-2.460649
-3.035791
-3.565342
-4.212493
-4.903598
-5.463777
-5.899108
-6.310124
-6.459754
-6.180367
-5.962936
-6.123555
-6.286045
-6.264068
-6.237883
-6.147170
-5.815412
-5.432920
-5.279784
-5.098123
-4.575119
-4.059831
-3.755427
-3.220265
-2.345396
-1.553058
-1.013688
-0.574851
-0.106322
0.389328
0.780471
1.050974
1.338544
1.522776
1.392550
1.161091
1.094926
1.104978
1.055413
0.941320
0.745631
0.461801
0.216079
-0.016082
-0.473857
-1.005746
-1.239076
-1.253572
-1.265730
-1.241883
-1.191150
-1.270407
-1.385436
-1.265498
-0.983773
-0.659964
-0.291500
-0.057002
0.150142
0.618671
1.258574
2.002049
2.810052
3.423769
3.791298
4.050112
4.277362
4.526122
4.843384
5.263050
5.555063
5.528643
5.601120
5.875597
5.830708
5.668920
5.877233
6.076428
5.962334
5.913236
6.138617
6.422212
6.676583
6.899392
6.842345
6.600598
6.625614
6.774776
6.718664
6.556876
6.362357
6.150068
6.012361
6.000905
6.002775
5.841688
5.672886
5.533309
5.212305
4.894808
4.690001
4.532421
4.523069
4.581050
4.725303
4.891298
4.841265
4.937122
5.298572
5.492156
5.687376
6.024511
6.086000
5.869269
5.667736
5.380866
4.859731
4.314516
3.985329
3.753402
3.379793
2.952645
2.643799
2.348980
2.014182
1.738067
1.521103
1.312321
1.005813
0.548037
0.107563
-0.131612
-0.143303
-0.087893
-0.049551
0.216043
0.641787
0.727356
0.625888
0.777622
0.803339
0.477192
0.245031
0.165773
0.126027
0.146835
0.036716
-0.077611
0.052847
0.198502
0.237078
0.263263
0.282668
0.331531
0.319607
0.274016
0.509450
0.844481
0.857339
0.803098
0.998552
1.342701
1.765640
2.075187
2.024219
1.753482
1.511501
1.377067
1.293367
1.149348
0.938930
0.695313
0.449124
0.245954
0.072710
-0.107782
-0.342281
-0.528384
-0.465493
-0.318669
-0.326385
-0.348830
-0.299265
-0.263728
-0.189147
-0.064066
0.058209
0.284759
0.613243
0.891228
1.177863
1.577656
2.077514
2.639328
3.137316
3.558151
4.025511
4.413614
4.470193
4.314483
4.358671
4.568153
4.518821
4.253928
3.956070
3.472343
2.911463
2.522424
2.194406
1.829215
1.501197
1.262723
1.139745
1.062358
0.944758
0.788814
0.682436
0.757251
0.814999
0.627960
0.618140
0.972343
1.186501
1.236299
1.412348
1.532987
1.488565
1.425673
1.417724
1.534388
1.661574
1.476172
1.022137
0.758414
0.828786
0.973740
1.103497
1.159141
1.001093
0.718198
0.342252
-0.110146
-0.473468
-0.818553
-1.080640
-1.104254
-1.198007
-1.454015
-1.641287
-1.699036
-1.594763
-1.603881
-1.847498
-1.842121
-1.641290
-1.690388
-1.794662
-1.698104
-1.613002
-1.724056
-1.879298
-2.037579
-2.365831
-2.672105
-2.838803
-3.140870
-3.542066
-3.989087
-4.556513
-4.926381
-5.024576
-5.090040
-5.012653
-4.797794
-4.484740
-3.860502
-3.333991
-3.414651
-3.593039
-3.385427
-3.127315
-3.008781
-2.790882
-2.497233
-2.274892
-2.017014
-1.759136
-1.489568
-0.962590
-0.515336
-0.548769
-0.650939
-0.650004
-0.774385
-0.796128
-0.635744
-0.560462
-0.519080
-0.374360
-0.169787
-0.053123
-0.164411
-0.434447
-0.845229
-1.331528
-1.546856
-1.535400
-1.552468
-1.538908
-1.575614
-1.634532
-1.487707
-1.244792
-0.949273
-0.602786
-0.502955
-0.683213
-0.912101
-1.029000
-0.922389
-0.732546
-0.640430
-0.535455
-0.374136
-0.252795
-0.115791
0.111460
0.352271
0.462389
0.448828
0.522942
0.608043
0.477117
0.328187
0.243786
0.052306
-0.087505
-0.171205
-0.463452
-0.841970
-1.214877
-1.826959
-2.527182
-2.858941
-3.023768
-3.536252
-4.299367
-4.951896
-5.279446
-5.356833
-5.593203
-6.079034
-6.542654
-6.791649
-6.951566
-7.480416
-8.249142
-8.649871
-8.643793
-8.493461
-8.326531
-8.038726
-7.676341
-7.603397
-7.538635
-7.024516
-6.429034
-6.207395
-6.333646
-6.366144
-5.954427
-5.398925
-4.970142
-4.521018
-4.084986
-3.734057
-3.230692
-2.671449
-2.531405
-2.585179
-2.387386
-2.273294
-2.279373
-1.907869
-1.247159
-0.601879
-0.154859
0.050882
0.510060
1.291176
1.673668
1.570095
1.508373
1.608905
1.657301
1.569159
1.401526
1.211214
1.182924
1.441971
1.713877
1.734217
1.529410
1.269661
1.168193
1.169361
1.170764
1.371829
1.721122
1.867712
1.750813
1.561671
1.482647
1.472126
1.282282
0.929715
0.753198
0.875474
0.939767
0.737299
0.687733
0.961042
1.166549
1.234350
1.394501
1.755016
2.152237
2.180760
1.873082
1.679264
1.735842
1.849467
1.791018
1.566806
1.353816
1.175195
0.952853
0.675803
0.570360
0.718821
0.615014
0.036833
-0.553038
-1.044947
-1.767148
-2.577022
-3.069633
-3.256905
-3.356971
-3.600821
-4.010435
-4.126632
-3.831814
-3.534892
-3.348790
-3.269533
-3.166663
-2.777157
-2.460596
-2.445399
-2.119019
-1.403132
-0.922445
-0.671113
-0.337485
0.059502
0.636747
1.282027
1.569831
1.709642
2.036958
2.397706
2.719879
2.897564
2.830931
2.746998
2.719176
2.682235
2.674519
2.669609
2.670544
2.652775
2.584038
2.574920
2.596896
2.605547
2.693688
2.764294
2.752838
2.860384
3.126211
3.360476
3.546812
3.705560
3.610637
3.298284
3.164318
3.221831
3.127143
2.754236
2.316567
2.094226
2.061026
1.997900
1.843360
1.680169
1.584312
1.530070
1.429537
1.231043
1.085621
1.217248
1.424392
1.354954
1.103388
0.953056
1.002854
1.155991
1.338119
1.627325
1.924014
1.994854
1.834235
1.567472
1.371783
1.345364
1.347000
1.286680
1.078833
0.530578
-0.109325
-0.383102
-0.429394
-0.605210
-0.848360
-1.028618
-1.327177
-1.837557
-2.332039
-2.679462
-2.961422
-3.263021
-3.588701
-3.853593
-4.141632
-4.603616
-4.997798
-5.049468
-4.968808
-5.005515
-4.995930
-4.785045
-4.503320
-4.173198
-3.804500
-3.596655
-3.506877
-3.370808
-3.252974
-3.150104
-2.933842
-2.624294
-2.441699
-2.466716
-2.383484
-2.057571
-1.800395
-1.779353
-1.912151
-2.056638
-2.076043
-2.003099
-1.936701
-1.890410
-1.764627
-1.467939
-1.130336
-0.864275
-0.578809
-0.305500
-0.215956
-0.319996
-0.501190
-0.650353
-0.678643
-0.671629
-0.729377
-0.689165
-0.595412
-0.671865
-0.727041
-0.592608
-0.346420
-0.019572
0.190612
0.246723
0.453867
0.701224
0.624772
0.361983
0.281323
0.479582
0.842435
1.184480
1.446099
1.722213
1.907614
1.959750
2.222071
2.711408
3.021890
3.015110
2.807731
2.609938
2.615783
2.796274
3.114238
3.469843
3.592119
3.573648
3.733799
3.964089
4.060179
4.079584
4.030486
3.892779
3.768399
3.652902
3.464461
3.285138
3.237210
3.248665
3.098099
2.796968
2.651780
2.724490
2.876692
3.121711
3.324880
3.344753
3.333296
3.331893
3.286770
3.360883
3.553999
3.543946
3.319032
3.211251
3.214758
3.122641
2.945657
2.746461
2.556617
2.414234
2.370981
2.460993
2.608519
2.780359
2.988672
3.121469
3.170799
3.287464
3.392672
3.304530
3.109075
2.899359
2.675147
2.579757
2.655975
2.738271
2.709747
2.567832
2.484833
2.599394
2.751128
2.779183
2.660647
2.456776
2.323511
2.215496
2.018872
1.838614
1.699271
1.582372
1.558290
1.588917
1.668642
1.835105
2.006946
2.124311
2.154237
2.130156
2.223674
2.348989
2.231622
2.027049
2.005072
2.043414
2.008111
1.967196
1.962286
1.936801
1.810083
1.620473
1.452840
1.256216
0.956254
0.575164
0.209270
0.004697
-0.069650
-0.247103
-0.508021
-0.631934
-0.676824
-0.747431
-0.752808
-0.682436
-0.551510
-0.306958
-0.001152
0.329203
0.702577
0.986407
1.098629
1.255974
1.609709
1.946610
2.138791
2.334246
2.522686
2.648234
2.822413
2.995890
3.049897
3.028387
2.975782
2.921541
2.853973
2.651271
2.314368
1.974193
1.586089
1.103064
0.739041
0.555510
0.321712
0.002345
-0.254599
-0.460575
-0.729676
-1.075462
-1.444395
-1.768672
-1.982597
-2.194885
-2.497419
-2.709006
-2.740102
-2.690303
-2.643544
-2.664119
-2.687031
-2.665055
-2.675810
-2.680252
-2.616426
-2.552132
-2.544885
-2.577617
-2.638171
-2.701296
-2.731223
-2.769566
-2.755539
-2.589777
-2.449499
-2.463995
-2.486907
-2.418171
-2.268541
-2.063969
-1.833679
-1.618352
-1.470125
-1.410975
-1.459839
-1.522731
-1.434590
-1.336395
-1.460542
-1.689430
-1.901718
-2.172222
-2.442258
-2.603812
-2.708554
-2.876655
-3.179189
-3.517494
-3.730483
-3.786595
-3.718093
-3.590908
-3.467931
-3.334433
-3.212391
-3.134303
-3.004079
-2.764437
-2.555422
-2.459098
-2.366983
-2.224600
-2.070996
-1.872269
-1.591245
-1.313494
-1.132302
-1.013299
-0.892426
-0.760331
-0.633847
-0.566280
-0.590362
-0.635018
-0.593636
-0.506430
-0.505027
-0.518588
-0.418991
-0.326875
-0.350957
-0.445645
-0.573532
-0.676404
-0.775768
-0.967950
-1.180004
-1.315841
-1.392994
-1.417543
-1.430636
-1.459861
-1.486982
-1.576527
-1.732704
-1.865501
-2.013963
-2.216665
-2.363491
-2.412121
-2.435267
-2.459349
-2.456543
-2.382196
-2.209421
-1.960427
-1.659998
-1.321927
-0.945514
-0.539409
-0.173516
0.141408
0.523666
1.039890
1.532735
1.819603
2.036567
2.420462
2.917748
3.318944
3.505514
3.527724
3.487277
3.406850
3.347465
3.326189
3.301640
3.362427
3.460621
3.420408
3.337176
3.369907
3.476284
3.589675
3.680622
3.729018
3.739538
3.715223
3.663086
3.601363
3.530054
3.448459
3.321506
3.098931
2.898333
2.847832
2.839649
2.779562
2.691420
2.572417
2.494329
2.507421
2.535008
2.625721
2.798030
2.872377
2.844321
2.855776
2.875882
2.817199
2.686272
2.510690
2.300038
2.107623
1.936950
1.701984
1.432181
1.208671
1.044545
0.977211
0.935360
0.794614
0.587469
0.362790
0.119640
-0.181491
-0.584558
-0.976403
-1.278001
-1.615605
-2.022179
-2.356276
-2.598022
-2.917390
-3.317417
