EVENT_NAME: 202302060117
EVENT_ID: 13194
EVENT_DATE_YYYYMMDD: 2023/02/06
EVENT_TIME_HHMMSS: 01:17:32.00000
EVENT_LATITUDE_DEGREE: 37.288
EVENT_LONGITUDE_DEGREE: 37.043
EVENT_DEPTH_KM: 8.6
HYPOCENTER_REFERENCE: AFAD
MAGNITUDE_W: 7.7
MAGNITUDE_W_REFERENCE: AFAD
MAGNITUDE_L: 
MAGNITUDE_L_REFERENCE: 
FOCAL_MECHANISM: 
NETWORK: TK
STATION_CODE: 5803
STATION_NAME: 
STATION_LATITUDE_DEGREE: 39.74382
STATION_LONGITUDE_DEGREE: 37.00179
STATION_ELEVATION_M: 1285.0
LOCATION: Kahramanmaras_Pazarck_Turkiye
SENSOR_DEPTH_M: 
VS30_M/S: 659
SITE_CLASSIFICATION_EC8: unknown
MORPHOLOGIC_CLASSIFICATION: 
EPICENTRAL_DISTANCE_KM: 273.10
EARTHQUAKE_BACKAZIMUTH_DEGREE: 
DATE_TIME_FIRST_SAMPLE_YYYYMMDD_HHMMSS: 2023/02/06 01:17:56.5738940
DATE_TIME_FIRST_SAMPLE_PRECISION: millisecond
SAMPLING_INTERVAL_S: 0.01
NDATA: 18251
DURATION_S: 
STREAM: HNZ
UNITS: cm/s^2
INSTRUMENT: sensor = CMG-5T/GURALP | digitizer = 
INSTRUMENT_ANALOG/DIGITAL: 
INSTRUMENTAL_FREQUENCY_HZ: 
INSTRUMENTAL_DAMPING: 
FULL_SCALE_G: 
N_BIT_DIGITAL_CONVERTER: 
PGA_CM/S^2: 5.573
TIME_PGA_S: 
BASELINE_CORRECTION: BASELINE REMOVED
FILTER_TYPE: BUTTERWORTH
FILTER_ORDER: 
LOW_CUT_FREQUENCY_HZ: 
HIGH_CUT_FREQUENCY_HZ: 
LATE/NORMAL_TRIGGERED: 
DATABASE_VERSION: 
HEADER_FORMAT: DYNA 1.2
DATA_TYPE: Acceleration
PROCESSING: Automatic Paolucci et al., 2011
DATA_TIMESTAMP_YYYYMMDD_HHMMSS: 
DATA_LICENSE: U (unknown license)
DATA_CITATION: Turkish Accelerometric Archive v 1.0 - Disaster And Emergency Management Presidency, Earthquake Department
DATA_CREATOR: AFAD
ORIGINAL_DATA_MEDIATOR_CITATION: : AFAD - Disaster And Emergency Management Presidency
ORIGINAL_DATA_MEDIATOR: AFAD PROCESS SERVICE
ORIGINAL_DATA_CREATOR_CITATION: AFAD PROCESS SERVICE
ORIGINAL_DATA_CREATOR: network: TK
USER1: GuestUser
USER2: 
USER3: 
USER4: 
USER5: 
[...]
4.662793
4.748026
4.804744
4.867102
4.925387
4.991192
5.031615
5.057310
5.047596
5.023781
4.990252
4.947008
4.920059
4.896871
4.868982
4.804430
4.740192
4.648378
4.567218
4.512694
4.496399
4.468824
4.429341
4.370116
4.283316
4.173327
4.066785
3.952096
3.824246
3.712691
3.602389
3.527496
3.440383
3.371444
3.314413
3.266783
3.201917
3.147707
3.103836
3.074381
3.059026
3.083468
3.159301
3.255188
3.383038
3.514648
3.661613
3.796043
3.938935
4.060831
4.188994
4.298042
4.364161
4.363221
4.318411
4.214376
4.056130
3.894124
3.713943
3.524048
3.317859
3.130157
2.962198
2.854716
2.791418
2.775436
2.797058
2.861296
2.895452
2.906106
2.907673
2.907986
2.873830
2.821500
2.817426
2.805518
2.762901
2.677981
2.593688
2.479626
2.383112
2.259649
2.101716
1.915268
1.738848
1.540806
1.319888
1.106805
0.917223
0.748324
0.578484
0.429952
0.267946
0.117221
-0.067034
-0.253168
-0.466252
-0.670248
-0.886151
-1.087640
-1.311691
-1.560811
-1.832492
-2.119841
-2.391836
-2.678245
-2.945226
-3.215340
-3.456312
-3.685690
-3.869632
-4.021297
-4.100890
-4.147580
-4.171082
-4.203985
-4.228740
-4.248795
-4.271670
-4.303319
-4.362857
-4.414561
-4.488827
-4.575627
-4.685929
-4.773043
-4.855143
-4.911860
-4.972652
-4.993647
-4.991767
-4.982679
-4.984873
-4.985186
-4.965758
-4.932542
-4.875825
-4.831955
-4.792158
-4.779937
-4.738574
-4.688123
-4.611037
-4.541472
-4.444958
-4.325569
-4.165129
-3.975861
-3.790667
-3.612053
-3.460075
-3.316557
-3.209075
-3.106607
-3.030148
-2.958389
-2.921726
-2.885690
-2.849341
-2.788549
-2.711777
-2.624976
-2.535043
-2.422547
-2.295951
-2.172175
-2.015182
-1.848163
-1.651374
-1.476834
-1.305427
-1.187291
-1.105818
-1.051921
-1.002410
-0.987056
-1.021839
-1.092031
-1.185098
-1.279105
-1.387527
-1.497829
-1.635393
-1.797086
-2.007349
-2.208212
-2.402493
-2.562619
-2.699557
-2.792624
-2.870337
-2.908253
-2.909507
-2.891959
-2.860936
-2.832734
-2.781030
-2.717419
-2.597089
-2.470493
-2.329168
-2.223253
-2.112325
-1.999829
-1.870726
-1.742249
-1.614086
-1.479029
-1.343345
-1.198574
-1.054116
-0.906838
-0.784942
-0.655211
-0.545850
-0.442442
-0.377890
-0.332453
-0.338720
-0.346554
-0.345301
-0.319919
-0.283256
-0.267902
-0.270095
-0.282003
-0.298924
-0.329947
-0.345928
-0.386978
-0.428968
-0.479105
-0.507307
-0.540523
-0.531123
-0.499787
-0.438682
-0.351569
-0.212438
-0.027870
0.157638
0.326851
0.444673
0.529593
0.565943
0.570956
0.524266
0.476949
0.391089
0.301468
0.201507
0.106873
0.022266
-0.041659
-0.088349
-0.143500
-0.202725
-0.251295
-0.259756
-0.224346
-0.119372
-0.007816
0.105306
0.169858
0.222502
0.246630
0.264491
0.265745
0.257598
0.259164
0.255404
0.261044
0.264178
0.282979
0.287993
0.295200
0.277339
0.252583
0.224381
0.210280
0.178317
0.148235
0.130060
0.120346
0.107185
0.089950
0.057361
0.023205
0.017565
0.012237
0.040753
0.076789
0.118466
0.141967
0.198685
0.269504
0.364451
0.470366
0.565940
0.638013
0.695670
0.753015
0.795005
0.828221
0.836995
0.845455
0.854543
0.893086
0.920974
0.966411
1.020935
1.106169
1.183255
1.245926
1.279142
1.283529
1.260967
1.220857
1.188268
1.162259
1.172913
1.154739
1.144398
1.107422
1.075459
1.057598
1.061044
1.057911
1.061671
1.043496
1.025322
1.035349
1.084546
1.180120
1.277888
1.399784
1.504759
1.614121
1.683059
1.743851
1.761085
1.753878
1.717528
1.683059
1.651410
1.602526
1.544868
1.444280
1.320190
1.172599
1.030961
0.889010
0.753639
0.628923
0.545883
0.470050
0.430254
0.393904
0.368522
0.336560
0.305851
0.274515
0.222184
0.163586
0.102481
0.087440
0.110942
0.185208
0.280155
0.389517
0.475690
0.558417
0.621715
0.673106
0.691280
0.714782
0.742671
0.758965
0.751445
0.731703
0.703188
0.647096
0.603226
0.537421
0.486657
0.426179
0.379489
0.318697
0.267620
0.184580
0.092453
0.000639
-0.082088
-0.130345
-0.155413
-0.137239
-0.111230
-0.092429
-0.124078
-0.174215
-0.268849
-0.369124
-0.504494
-0.651773
-0.808138
-0.948209
-1.071672
-1.162233
-1.201716
-1.210490
-1.185421
-1.156592
-1.087654
-0.988946
-0.846682
-0.682169
-0.513582
-0.378525
-0.257882
-0.167009
-0.069868
-0.013777
0.012858
0.002831
-0.021924
-0.043546
-0.073628
-0.053574
-0.024745
0.023512
0.060489
0.131934
0.190532
0.269185
0.328409
0.354418
0.349718
0.302714
0.227508
0.137888
0.078036
0.017558
-0.031953
-0.066109
-0.048874
0.008784
0.091510
0.153868
0.195858
0.196798
0.207766
0.216226
0.234401
0.259783
0.313681
0.414582
0.521437
0.648033
0.768049
0.902480
1.024689
1.158493
1.244040
1.289476
1.274435
1.223358
1.118383
0.989280
0.878037
0.775256
0.685949
0.567186
0.449364
0.342509
0.284224
0.235654
0.194604
0.119711
0.033851
-0.046369
-0.092119
-0.126588
-0.170772
-0.217775
-0.279820
-0.339672
-0.408611
-0.464075
-0.517032
-0.543354
-0.563409
-0.586285
-0.631408
-0.669951
-0.723222
-0.783073
-0.847625
-0.917817
-0.994277
-1.077630
-1.154089
-1.255931
-1.372813
-1.534819
-1.705599
-1.882646
-2.029925
-2.158088
-2.277164
-2.392793
-2.515316
-2.655074
-2.813946
-2.982219
-3.157700
-3.317826
-3.485472
-3.647165
-3.811678
-3.965223
-4.115948
-4.255706
-4.398597
-4.526447
-4.661818
-4.795935
-4.912504
-4.983323
-5.007452
-4.989904
-4.935066
-4.880542
-4.805963
-4.724803
-4.619202
-4.503573
-4.361935
-4.220297
-4.059858
-3.893465
-3.712344
-3.534670
-3.358877
-3.204705
-3.078108
-2.955272
-2.847790
-2.750023
-2.691738
-2.617472
-2.549787
-2.458600
-2.348925
-2.209794
-2.070037
-1.935606
-1.804623
-1.667372
-1.516960
-1.360281
-1.192322
-1.033449
-0.901212
-0.823813
-0.762081
-0.717271
-0.654286
-0.590048
-0.497921
-0.407047
-0.308653
-0.185817
-0.035405
0.134748
0.310229
0.462207
0.587864
0.701926
0.794993
0.898714
0.987395
1.079835
1.148774
1.216772
1.245288
1.243721
1.212385
1.188257
1.183243
1.194524
1.214892
1.223979
1.235887
1.254375
1.314853
1.385672
1.479366
1.548304
1.624764
1.678974
1.714384
1.728485
1.726605
1.698089
1.626330
1.516655
1.369377
1.206744
1.042544
0.889939
0.744854
0.662128
0.600396
0.570314
0.550886
0.571881
0.612930
0.664634
0.737020
0.837608
0.950103
1.073880
1.218337
1.357468
1.511014
1.672393
1.874509
2.095426
2.305375
2.444193
2.572983
2.676704
2.737809
2.747523
2.737496
2.725588
2.710233
2.686105
2.651322
2.647875
2.641295
2.631580
2.608392
2.625000
2.658216
2.747523
2.862838
2.995702
3.117911
3.201891
3.253909
3.268950
3.262056
3.212232
3.140786
3.064954
3.016383
2.962799
2.920182
2.874745
2.842156
2.775724
2.664482
2.488375
2.279365
2.062835
1.836904
1.621314
1.428285
1.282887
1.138743
1.006192
0.868315
0.761460
0.660558
0.559030
0.424913
0.268548
0.083353
-0.113436
-0.299884
-0.467217
-0.601334
-0.714143
-0.781828
-0.833219
-0.854527
-0.869255
-0.867688
-0.881476
-0.898397
-0.957309
-1.033141
-1.106781
-1.168512
-1.222723
-1.272860
-1.311717
-1.374388
-1.413245
-1.441447
-1.434553
-1.396637
-1.316731
-1.219590
-1.078579
-0.920333
-0.757701
-0.628284
-0.519549
-0.423348
-0.326207
-0.236273
-0.172662
-0.083041
0.000312
0.099959
0.172972
0.246611
0.304269
0.371954
0.410810
0.436192
0.447160
0.427731
0.383861
0.327457
0.266979
0.211828
0.176418
0.158870
0.150409
0.131295
0.141949
0.151976
0.220915
0.273872
0.350331
0.434938
0.548687
0.604464
0.617625
0.614805
0.635173
0.656482
0.585976
0.483195
0.361299
0.250997
0.102465
0.052014
-0.068315
-0.146655
-0.183944
-0.250690
-0.300827
-0.333103
-0.349397
-0.404862
-0.464087
-0.510777
-0.541486
-0.586610
-0.546186
-0.487902
-0.419590
-0.334670
-0.220608
-0.080850
0.102777
0.303640
0.527690
0.788091
1.061025
1.301371
1.527302
1.756993
1.971643
2.179086
2.374934
2.588331
2.773839
2.970001
3.153942
3.343837
3.540939
3.734594
3.902867
4.045758
4.127231
4.178308
4.193036
4.167654
4.143212
4.083047
4.037610
3.988413
3.941409
3.877484
3.824527
3.762795
3.695110
3.599536
3.477640
3.299652
3.136079
2.983161
2.799220
2.632827
2.446065
2.295654
2.138661
1.979475
1.781747
1.582764
1.349940
1.119935
0.914685
0.734505
0.554010
0.348134
0.156046
-0.019434
-0.161072
-0.305530
-0.436200
-0.564364
-0.642703
-0.729504
-0.810663
-0.898090
-0.927546
-0.918145
-0.883676
-0.821318
-0.772434
-0.742038
-0.739218
-0.737651
-0.764287
-0.810350
-0.891197
-0.943214
-0.987711
-0.993351
-0.988024
-0.945408
-0.865815
-0.778388
-0.710390
-0.652105
-0.592880
-0.517675
-0.418654
-0.355042
-0.319319
-0.366323
-0.437455
-0.544624
-0.672160
-0.850461
-1.055710
-1.272554
-1.470910
-1.609727
-1.717836
-1.816543
-1.931859
-2.056889
-2.202600
-2.339224
-2.464881
-2.555441
-2.653522
-2.757244
-2.885721
-3.012004
-3.131707
-3.225087
-3.304054
-3.363905
-3.399628
-3.448825
-3.491442
-3.566021
-3.641854
-3.747455
-3.859011
-4.019136
-4.194617
-4.387645
-4.586941
-4.770882
-4.945109
-5.085807
-5.219297
-5.317065
-5.385377
-5.399165
-5.396971
-5.382870
-5.375976
-5.368769
-5.357802
-5.314245
-5.237472
-5.121530
-4.982399
-4.805979
-4.597596
-4.364458
-4.120352
-3.900062
-3.694499
-3.557875
-3.469821
-3.435665
-3.399943
-3.375501
-3.321603
-3.269586
-3.215062
-3.170252
-3.118234
-3.050862
-2.973776
-2.877262
-2.782001
-2.643184
-2.529435
-2.402839
-2.289090
-2.148706
-2.007068
-1.847882
-1.684623
-1.502249
-1.312667
-1.126533
-0.921910
-0.706006
-0.489790
-0.309296
-0.118774
0.034145
0.179229
0.280757
0.351263
0.379465
0.416441
0.443703
0.472845
0.502301
0.512328
0.511075
0.531443
0.586280
0.637671
0.719144
0.739199
0.757060
0.795917
0.856395
0.924080
1.042842
1.192314
1.340532
1.469322
1.576491
1.685539
1.798975
1.950013
2.119853
2.294707
2.473007
2.638460
2.811747
3.009162
3.165528
3.316880
3.423734
3.481706
3.476379
3.425301
3.344141
3.243867
3.137952
2.993807
2.834308
2.695804
2.555106
2.413468
2.294079
2.225140
2.211039
2.205399
2.240181
2.264623
2.306926
2.337322
2.379625
2.425062
2.480213
2.524710
2.557926
2.616524
2.674181
2.744687
2.776023
2.808612
2.845275
2.922987
3.008221
3.112882
3.225691
3.365448
3.530901
3.708889
3.888129
4.025380
4.150096
4.274499
4.408930
4.522992
4.614492
4.678104
4.744849
4.783705
4.824442
4.845750
4.828829
4.775245
4.710066
4.669330
4.632040
4.599764
4.575009
4.556834
4.515471
4.452486
4.339990
4.202113
4.049821
3.916017
3.784093
3.690086
3.635562
3.599212
3.573203
3.561609
3.599212
3.657496
3.725495
3.771872
3.813862
3.831410
3.830470
3.799134
3.760277
3.712960
3.654362
3.565995
3.475122
3.397096
3.323456
3.240103
3.121341
3.002265
2.849032
2.698934
2.532541
2.363641
2.164032
1.954082
1.735045
1.516321
1.306998
1.106449
0.908407
0.686863
0.470019
0.246909
0.057327
-0.138208
-0.324343
-0.509851
-0.693478
-0.891207
-1.064807
-1.221173
-1.349650
-1.459325
-1.547692
-1.613811
-1.678049
-1.714399
-1.737587
-1.746361
-1.784277
-1.840055
-1.930616
-2.024310
-2.135238
-2.232693
-2.347068
-2.454550
-2.546991
-2.620630
-2.651966
-2.624704
-2.546991
-2.457371
-2.363677
-2.264342
-2.150593
-2.053139
-1.943464
-1.835042
-1.700925
-1.559601
-1.409189
-1.282279
-1.153489
-1.050081
-0.940719
-0.867080
-0.819137
-0.787487
-0.762106
-0.695674
-0.654311
-0.591326
-0.551216
-0.507659
-0.488231
-0.471310
-0.501392
-0.551529
-0.614514
-0.702255
-0.819137
-0.939467
-1.070137
-1.250004
-1.417964
-1.613499
-1.803081
-2.011151
-2.205433
-2.400968
-2.573941
-2.734381
-2.883852
-3.028310
-3.174335
-3.308139
-3.430975
-3.524669
-3.587028
-3.616170
-3.648446
-3.666934
-3.690122
-3.668187
-3.645939
-3.630585
-3.615857
-3.573240
-3.521223
-3.471712
-3.413741
-3.365797
-3.291218
-3.210372
-3.093803
-2.981308
-2.856591
-2.712760
-2.534773
-2.345505
-2.125528
-1.902417
-1.699988
-1.514793
-1.368455
-1.242172
-1.129050
-1.006841
-0.911266
-0.826660
-0.781850
-0.763362
-0.779030
-0.818826
-0.878364
-0.920667
-0.942603
-0.946363
-0.934142
-0.922548
-0.901866
-0.866143
-0.817886
-0.788431
-0.770569
-0.781537
-0.802219
-0.826347
-0.808173
-0.776523
-0.737667
-0.738294
-0.782477
-0.842015
-0.880558
-0.902807
-0.909701
-0.888079
-0.861757
-0.821647
-0.807233
-0.793759
-0.786865
-0.738294
-0.673116
-0.565634
-0.444052
-0.324662
-0.206840
-0.084630
0.050114
0.187051
0.318974
0.413295
0.502915
0.571227
0.619484
0.615724
0.597236
0.553679
0.504169
0.449018
0.380392
0.280744
0.156341
0.000602
-0.193993
-0.418357
-0.674057
-0.933831
-1.203319
-1.426116
-1.625412
-1.772063
-1.894586
-1.986713
-2.059412
-2.132111
-2.220165
-2.334227
-2.460824
-2.582093
-2.695216
-2.815232
-2.930861
-3.098507
-3.285269
-3.486758
-3.656598
-3.791342
-3.884722
-3.951781
-3.995964
-4.044535
-4.099999
-4.151703
-4.201214
-4.238817
-4.281120
-4.310576
-4.361653
-4.406150
-4.443753
-4.461301
-4.490130
-4.508618
-4.562516
-4.639289
-4.743950
-4.868667
-4.989623
-5.084884
-5.130947
-5.169490
-5.173251
-5.166984
-5.116220
-5.043834
-4.927578
-4.781867
-4.611714
-4.454408
-4.305563
-4.158598
-3.994399
-3.808891
-3.593301
-3.331647
-3.039598
-2.694591
-2.334229
-1.952873
-1.597525
-1.253772
-0.907198
-0.515814
-0.118477
0.291082
0.676199
1.042514
1.416036
1.790812
2.178436
2.532530
2.861556
3.164573
3.453175
3.707935
3.957681
4.189879
4.425524
4.631087
4.833516
5.019024
5.192624
5.332382
5.435790
5.524783
5.567400
5.572727
5.532617
5.479033
5.415108
5.369358
5.321101
5.306999
5.291331
5.275037
5.250908
5.238687
5.230853
5.220826
5.200771
5.156901
5.118044
5.072921
5.035318
4.985807
4.941310
4.864851
4.795285
4.695324
4.586902
4.492582
4.395127
4.291719
4.193952
4.086156
3.941385
3.805388
3.686312
3.600452
3.530259
3.467901
3.383608
3.299001
3.226302
3.168331
3.087171
3.010398
2.922032
2.819563
2.729003
2.643456
2.550702
2.484584
2.476750
2.483330
2.528140
2.596766
2.706441
2.839305
3.012278
3.190265
3.366059
3.522738
3.676910
3.836096
3.996535
4.145066
4.240640
4.282630
4.279183
4.279183
4.280750
4.320546
4.348749
4.370684
4.352509
4.308325
4.235940
4.156033
4.074560
3.983060
3.890619
3.779064
3.668135
3.539658
3.427476
3.329708
3.256696
3.195905
3.179297
3.153601
3.129473
3.060534
2.953365
2.798567
2.578589
2.308788
1.973495
1.626295
1.287555
0.985791
0.674314
0.371923
0.070473
-0.196508
-0.467249
-0.746138
-1.033487
-1.282293
-1.493496
-1.669917
-1.800587
-1.905248
-1.998629
-2.110498
-2.228320
-2.355544
-2.485274
-2.636312
-2.780770
-2.936509
-3.070940
-3.192836
-3.291857
-3.371764
-3.426915
-3.461071
-3.492093
-3.510895
-3.508388
-3.516222
-3.511835
-3.501494
-3.484886
-3.480186
-3.390879
-3.302512
-3.329461
-3.246108
-3.156801
-3.131732
-3.043992
-2.940584
-2.954372
-2.867258
-2.773564
-2.715280
-2.631927
-2.609365
-2.587743
-2.570195
-2.566748
-2.594951
-2.568942
-2.553274
-2.537606
-2.545754
-2.567375
-2.584610
-2.624407
-2.667650
-2.734082
-2.823076
-2.906742
-2.984142
-3.093190
-3.205059
-3.334162
-3.428170
-3.519984
-3.592683
-3.630912
-3.651281
-3.657861
-3.688884
-3.727113
-3.796992
-3.860917
-3.938630
-4.006315
-4.078701
-4.151400
-4.237260
-4.331581
-4.444077
-4.579761
-4.700717
-4.805065
-4.870243
-4.925708
-4.962057
-4.995900
-5.009374
-5.030996
-5.043530
-5.045724
-5.016895
-4.991513
-4.989006
-4.996840
-5.001541
-5.002481
-5.017209
-5.041964
-5.084894
-5.108083
-5.111530
-5.078000
-5.020343
-4.905654
-4.760256
-4.596683
-4.452225
-4.304947
-4.136987
-3.943645
-3.733069
-3.486143
-3.200047
-2.897971
-2.563618
-2.244306
-1.930635
-1.646106
-1.355937
-1.077049
-0.783119
-0.493576
-0.215941
0.045086
0.302979
0.541758
0.745127
0.931888
1.075406
1.181948
1.246499
1.317005
1.361501
1.412892
1.441094
1.463656
1.497499
1.557037
1.629422
1.691154
1.720609
1.720922
1.727816
1.735650
1.787981
1.843132
1.889509
1.921158
1.967535
2.005764
2.050261
2.080970
2.121707
2.167457
2.201613
2.221981
2.237962
2.255510
2.258644
2.288099
2.315988
2.338550
2.333849
2.348891
2.345444
2.345444
2.338863
2.342623
2.352651
2.373646
2.402161
2.433810
2.481127
2.517163
2.587669
2.700164
2.864050
3.048305
3.246973
3.421200
3.608902
3.781248
3.947328
4.072358
4.167932
4.236557
4.292021
4.339025
4.385089
4.463428
4.530173
4.582504
4.588144
4.592218
4.577177
4.559629
4.524219
4.501344
4.477529
4.490376
4.518579
4.554615
4.569656
4.545214
4.495703
4.417364
4.358139
4.277606
4.215561
4.159470
4.124687
4.066716
4.024413
3.980543
3.916304
3.826997
3.727976
3.630522
3.547482
3.492331
3.444074
3.427779
3.440000
3.498598
3.548735
3.613600
3.687553
3.790334
3.882148
3.972081
4.054181
4.122806
4.177957
4.224334
4.276038
4.302674
4.302360
4.260683
4.218067
4.168243
4.140667
4.121552
4.125939
4.120612
4.111525
4.074235
4.035692
4.030992
4.035692
4.032245
3.989002
3.935104
3.844857
3.741136
3.647755
3.586963
3.526485
3.477915
3.404276
3.313715
3.216261
3.121627
3.028559
2.945833
2.898516
2.835844
2.738390
2.582024
2.378342
2.123268
1.873836
1.628790
1.389384
1.146845
0.916214
0.704697
0.523263
0.344022
0.160708
0.004969
-0.113480
-0.183359
-0.228483
-0.220022
-0.190880
-0.135729
-0.088725
-0.049555
-0.012893
0.030664
0.022203
-0.025427
-0.063030
-0.101886
-0.167692
-0.269220
-0.361974
-0.429972
-0.452847
-0.476349
-0.488257
-0.509879
-0.514579
-0.516459
-0.494211
-0.488257
-0.482303
-0.471023
-0.508626
-0.558449
-0.591665
-0.596052
-0.593232
-0.574118
-0.605140
-0.661544
-0.725156
-0.758999
-0.793782
-0.830758
-0.876821
-0.930092
-0.980856
-1.021593
-1.055436
-1.112467
-1.153203
-1.190806
-1.248778
-1.329937
-1.396683
-1.451520
-1.503538
-1.583131
-1.664917
-1.750464
-1.811569
-1.870480
-1.903696
-1.899622
-1.895235
-1.898369
-1.931585
-1.985796
-2.058808
-2.086384
-2.083564
-2.068836
-2.085130
-2.113333
-2.139655
-2.127120
-2.081684
-2.014625
-1.935032
-1.850112
-1.762999
-1.689360
-1.597546
-1.508553
-1.416739
-1.355321
-1.306123
-1.266014
-1.210863
-1.157905
-1.097741
-1.040396
-0.987752
-0.940122
-0.898759
-0.853008
-0.813839
-0.778743
-0.770282
-0.749287
-0.720458
-0.664367
-0.610156
-0.556259
-0.502675
-0.418382
-0.305573
-0.167069
-0.000362
0.203320
0.421417
0.632934
0.852911
1.052520
1.238341
1.367444
1.463645
1.515036
1.559846
1.588675
1.614370
1.631605
1.630978
1.615623
1.591495
1.555145
1.504068
1.450797
1.369324
1.280017
1.166268
1.058473
0.944724
0.841942
0.722240
0.596583
0.471553
0.349657
0.214913
0.099284
0.020318
-0.019792
-0.011958
0.017498
0.082676
0.137200
0.181070
0.187651
0.175430
0.135006
0.106177
0.081109
0.052907
0.025018
0.004336
-0.032014
-0.092805
-0.149523
-0.200287
-0.225669
-0.255438
-0.284894
-0.339418
-0.384228
-0.444706
-0.498917
-0.556262
-0.612979
-0.670951
-0.718581
-0.737383
-0.724535
-0.665937
-0.591985
-0.489517
-0.372321
-0.215015
-0.042355
0.156940
0.362503
0.564932
0.751067
0.952556
1.158745
1.351147
1.524433
1.686753
1.845625
1.977862
2.108532
2.209747
2.300934
2.347624
2.367366
2.357338
2.334463
2.310334
2.290906
2.280879
2.302500
2.348877
2.415622
2.489575
2.558827
