EVENT_NAME: 202302060117
EVENT_ID: 13194
EVENT_DATE_YYYYMMDD: 2023/02/06
EVENT_TIME_HHMMSS: 01:17:32.00000
EVENT_LATITUDE_DEGREE: 37.288
EVENT_LONGITUDE_DEGREE: 37.043
EVENT_DEPTH_KM: 8.6
HYPOCENTER_REFERENCE: AFAD
MAGNITUDE_W: 7.7
MAGNITUDE_W_REFERENCE: AFAD
MAGNITUDE_L: 
MAGNITUDE_L_REFERENCE: 
FOCAL_MECHANISM: 
NETWORK: TK
STATION_CODE: 0215
STATION_NAME: 
STATION_LATITUDE_DEGREE: 38.029958
STATION_LONGITUDE_DEGREE: 38.556268
STATION_ELEVATION_M: 864.0
LOCATION: Kahramanmaras_Pazarck_Turkiye
SENSOR_DEPTH_M: 
VS30_M/S: None
SITE_CLASSIFICATION_EC8: unknown
MORPHOLOGIC_CLASSIFICATION: 
EPICENTRAL_DISTANCE_KM: 156.69
EARTHQUAKE_BACKAZIMUTH_DEGREE: 
DATE_TIME_FIRST_SAMPLE_YYYYMMDD_HHMMSS: 2023/02/06 01:17:39.0367100
DATE_TIME_FIRST_SAMPLE_PRECISION: millisecond
SAMPLING_INTERVAL_S: 0.01
NDATA: 4100
DURATION_S: 
STREAM: HNZ
UNITS: cm/s^2
INSTRUMENT: sensor = ACEBOX/SARA | digitizer = 
INSTRUMENT_ANALOG/DIGITAL: 
INSTRUMENTAL_FREQUENCY_HZ: 
INSTRUMENTAL_DAMPING: 
FULL_SCALE_G: 
N_BIT_DIGITAL_CONVERTER: 
PGA_CM/S^2: 28.820
TIME_PGA_S: 
BASELINE_CORRECTION: BASELINE REMOVED
FILTER_TYPE: BUTTERWORTH
FILTER_ORDER: 
LOW_CUT_FREQUENCY_HZ: 
HIGH_CUT_FREQUENCY_HZ: 
LATE/NORMAL_TRIGGERED: 
DATABASE_VERSION: 
HEADER_FORMAT: DYNA 1.2
DATA_TYPE: Acceleration
PROCESSING: Automatic Paolucci et al., 2011
DATA_TIMESTAMP_YYYYMMDD_HHMMSS: 
DATA_LICENSE: U (unknown license)
DATA_CITATION: Turkish Accelerometric Archive v 1.0 - Disaster And Emergency Management Presidency, Earthquake Department
DATA_CREATOR: AFAD
ORIGINAL_DATA_MEDIATOR_CITATION: : AFAD - Disaster And Emergency Management Presidency
ORIGINAL_DATA_MEDIATOR: AFAD PROCESS SERVICE
ORIGINAL_DATA_CREATOR_CITATION: AFAD PROCESS SERVICE
ORIGINAL_DATA_CREATOR: network: TK
USER1: GuestUser
USER2: 
USER3: 
USER4: 
USER5: 
[...]
-0.014545
-0.108090
-0.218000
-0.236263
-0.146277
-0.064006
0.058711
0.214862
0.210628
0.025434
-0.202310
-0.361085
-0.362747
-0.208935
-0.012805
0.112484
0.147996
0.086715
-0.098011
-0.274320
-0.320171
-0.279750
-0.167086
-0.050213
-0.011896
0.015900
0.010496
-0.079542
-0.103649
-0.001038
0.077492
0.095936
0.109938
0.069932
0.028057
0.088117
0.152619
0.146046
0.121004
0.074686
-0.025639
-0.153552
-0.211326
-0.125081
0.010495
0.055592
0.024939
0.018366
0.061125
0.096403
0.098247
0.103598
0.093051
0.030602
-0.020158
-0.025094
0.012755
0.107651
0.204650
0.231745
0.144980
0.001636
-0.056138
-0.084921
-0.165841
-0.136876
0.023249
0.066476
-0.052085
-0.130667
-0.118536
-0.079050
-0.041669
-0.105288
-0.224083
-0.221069
-0.112613
0.044239
0.151292
0.062189
-0.066659
-0.057334
0.011611
0.115858
0.258448
0.326224
0.144771
-0.226525
-0.312121
0.030132
0.289154
0.160071
-0.111627
-0.176415
-0.028915
0.076502
0.104999
0.119702
0.075488
0.035483
0.103960
0.248888
0.310117
0.239016
0.227534
0.258837
0.143315
-0.018265
-0.097548
-0.089391
0.036833
0.139211
0.120247
0.123962
0.133054
0.060317
-0.045853
-0.217954
-0.438217
-0.571274
-0.579249
-0.500485
-0.454921
-0.523917
-0.555272
-0.455934
-0.426268
-0.562598
-0.659182
-0.644713
-0.628840
-0.592160
-0.563195
-0.634530
-0.656299
-0.460636
-0.223826
-0.202576
-0.262454
-0.104667
0.116245
0.094476
0.016362
0.083202
0.133442
0.086423
-0.023254
-0.153505
-0.291004
-0.503318
-0.674718
-0.675445
-0.526542
-0.188030
0.177136
0.290501
0.222206
0.262160
0.515102
0.739989
0.778540
0.680085
0.391553
0.044806
-0.054584
0.163523
0.530559
0.752640
0.769447
0.804725
0.865486
0.770538
0.495099
0.218491
0.063223
0.001241
0.121153
0.322894
0.244780
-0.046090
-0.290902
-0.460197
-0.491552
-0.352235
-0.058378
0.263068
0.393734
0.494475
0.649223
0.507282
0.085953
-0.246767
-0.327687
-0.127816
0.229167
0.498475
0.644572
0.784123
0.836000
0.635376
0.303124
0.044284
-0.074978
-0.023803
0.011942
-0.212997
-0.519297
-0.602087
-0.412270
-0.037051
0.257507
0.319671
0.449403
0.684343
0.763340
0.807736
0.743182
0.280471
-0.240923
-0.410920
-0.269031
0.029269
0.254389
0.384822
0.566457
0.636804
0.583939
0.654988
0.752455
0.801994
0.890811
0.824387
0.482783
0.024280
-0.415051
-0.682775
-0.628092
-0.415596
-0.366057
-0.446977
-0.450277
-0.260225
0.117799
0.469871
0.744090
0.950507
0.919385
0.766222
0.681094
0.577730
0.266286
-0.349329
-1.062436
-1.565594
-1.631317
-1.265217
-0.757435
-0.252926
0.194535
0.527904
0.708136
0.687536
0.657584
0.609629
0.391938
0.287638
0.368272
0.326163
0.037631
-0.415962
-0.872360
-0.994194
-0.506052
-0.022585
-0.173410
-0.418456
-0.455422
-0.509923
-0.324781
0.236072
0.830827
1.046829
0.831944
0.624539
0.596925
0.372688
-0.137016
-0.502701
-0.645344
-0.732109
-0.568476
-0.254513
-0.109117
0.019679
0.289689
0.585884
0.720759
0.670467
0.684235
0.894626
1.135178
1.073663
0.489144
-0.297610
-0.697897
-0.636668
-0.549722
-0.593701
-0.405521
0.184791
0.843840
1.215084
1.310447
1.410253
1.436646
0.905198
-0.106936
-0.896963
-0.988871
-0.432226
0.283168
0.662828
0.638721
0.459139
0.466127
0.684935
0.611730
0.024639
-0.406509
-0.223472
0.065943
0.255761
0.758399
1.458128
1.845037
1.636697
0.921018
0.213755
-0.137668
-0.147046
0.152890
0.466853
0.482492
0.261060
-0.141799
-0.670207
-1.041269
-0.843035
-0.002092
0.831603
1.135981
1.128707
0.911717
0.281841
-0.519408
-1.009941
-1.117280
-0.962766
-0.655115
-0.434670
-0.417161
-0.484053
-0.345671
0.310104
1.181674
1.603652
1.463582
1.141617
0.981907
0.795779
0.325820
-0.068622
-0.145333
0.053134
0.287607
-0.004899
-0.528164
-0.582898
-0.342581
-0.052464
0.262435
0.575697
0.969619
1.328940
1.484155
1.347825
0.894233
0.245419
-0.684185
-1.911413
-2.699336
-2.450368
-1.870810
-1.741079
-1.614620
-1.152663
-0.813449
-0.954455
-1.972434
-3.531187
-4.215303
-3.638785
-2.125208
-0.071091
1.193258
1.384478
1.186894
0.287216
-1.254236
-2.682295
-3.478167
-3.553242
-3.197896
-2.319312
-1.180979
-0.574769
-0.776796
-1.812778
-2.901831
-3.058735
-2.453460
-1.309750
0.027544
0.880177
1.050121
0.408088
-0.609891
-1.218491
-1.434546
-1.351574
-1.208750
-1.381552
-1.331779
-0.346350
1.619859
3.705305
4.429816
3.355959
1.452824
0.124829
0.324700
1.541588
2.340915
2.059865
1.068305
-0.249403
-1.389424
-1.491620
-0.727362
-0.114840
-0.000773
0.121244
0.971304
1.916988
1.464798
-0.546819
-3.046372
-4.243206
-3.228552
-1.382515
-0.204203
0.002214
-0.376096
-0.723778
-0.968824
-1.196568
-1.129495
-0.662627
-0.225686
-0.416959
-1.324352
-2.208365
-2.105754
-1.425898
-1.529262
-2.085726
-1.653928
-0.567498
-0.493644
-1.718534
-2.932202
-3.083261
-1.897701
0.132101
1.498620
0.813334
-1.629406
-3.840687
-4.437129
-4.148650
-3.252998
-1.067254
1.244274
2.369982
2.790323
2.735822
2.172111
1.647210
1.426246
1.139818
0.668924
0.651364
1.379850
2.766709
4.543075
5.695669
5.727907
4.845530
3.564763
2.549122
1.290799
-0.044911
-0.199711
0.170364
0.244218
1.000760
2.916936
4.631813
4.846179
4.641113
5.286134
5.890006
5.449272
3.689922
1.141973
-0.506324
-0.459123
0.590133
2.034273
3.510911
3.983623
2.538496
0.347088
-1.173789
-2.055699
-1.523135
0.567221
2.124518
2.233909
1.709009
0.936283
-0.371372
-2.290873
-4.062615
-4.817806
-4.371045
-3.629467
-4.103867
-5.707509
-6.258595
-4.141119
-0.597012
2.139325
3.505142
3.326963
1.601279
0.010029
0.028473
0.835281
0.448555
-1.433072
-2.824192
-3.001904
-3.150391
-3.401281
-3.747561
-4.171929
-2.973277
-0.165865
1.949039
2.725921
2.403021
0.901315
-1.111238
-2.533219
-2.773588
-2.561560
-2.421074
-1.586210
-0.364645
0.486117
1.886303
4.171411
5.631683
5.195391
3.941043
3.068252
2.418503
1.570728
1.036475
1.663260
2.690773
2.132439
-0.216548
-2.684772
-3.965773
-3.641990
-1.924541
-0.155424
0.029016
-0.316796
0.775011
1.923398
1.515162
0.095519
-1.592290
-1.962885
-0.172491
2.030554
2.879212
2.020215
0.028704
-2.494696
-4.819602
-5.961961
-5.585340
-3.257447
-0.150541
0.507573
-0.952050
-1.447492
-0.910720
-0.839204
-1.193900
-1.508150
-1.595850
-1.261780
-1.250116
-2.035233
-2.469187
-2.266043
-2.627052
-3.935174
-4.728240
-3.488439
-1.533219
-1.202188
-1.966029
-1.644818
-0.431436
-0.401770
-0.462817
2.120617
5.579621
6.241943
3.375095
-0.864143
-2.719117
-1.297889
0.016960
-1.051051
-3.874179
-6.225037
-6.171523
-4.882859
-3.499273
-0.585717
3.486070
6.274076
7.174170
6.744892
4.769747
2.403225
2.532722
4.396528
5.125716
6.352658
8.761445
8.404878
4.676253
1.573504
2.534384
6.076855
6.980689
4.852640
2.569584
0.374435
-1.427934
-2.852954
-3.803600
-2.806715
-0.297395
2.207016
3.090977
2.084220
1.183607
0.187838
-1.128466
-1.315530
-1.701555
-3.312211
-4.553934
-4.315253
-2.971412
-2.538913
-3.643164
-3.849399
-2.183620
-0.040192
2.015327
3.454557
3.079286
1.595115
-0.216606
-3.430175
-6.391010
-6.363448
-4.941986
-4.324320
-5.085590
-6.916716
-7.337577
-5.948380
-4.726114
-3.393963
-2.715509
-4.189393
-5.218829
-3.200951
-0.009878
1.423040
0.835715
-1.093372
-3.420382
-3.785132
-2.183413
-1.302959
-1.655317
-1.657214
-0.267081
1.935029
3.694094
4.888070
5.831884
6.142341
5.861290
5.624428
4.959716
3.266530
0.909126
-0.962213
-0.581617
0.644390
-0.244300
-2.430564
-4.174717
-4.528011
-3.305979
-1.264721
1.869305
4.463260
3.645177
0.502916
-1.132522
0.872497
3.254866
1.859304
-1.049862
-1.419989
0.173781
0.452675
-1.466125
-2.909148
-1.913431
0.233971
0.439686
-1.508339
-1.384452
1.601814
2.898428
0.500110
-2.904472
-4.237143
-4.333493
-4.613374
-3.360481
-2.401237
-4.504737
-5.449538
-2.252152
0.858728
-0.625677
-4.252833
-4.373499
-2.848465
-3.934947
-5.594232
-5.599636
-4.299281
-3.061585
-2.811915
-1.342526
1.731415
2.676397
0.729542
-0.324910
0.582665
0.851506
0.760766
0.158712
-2.747414
-4.686087
-3.286369
-0.146030
3.618080
5.122072
3.435900
2.012750
3.219819
6.397566
7.964215
5.907708
2.492840
-0.160318
-1.078933
0.533307
3.431198
4.199430
2.626182
2.316842
3.306713
3.234912
2.426649
2.294059
2.974383
2.691229
1.064909
0.156581
0.815162
2.787917
4.203767
2.387136
-0.693870
-0.725459
2.596774
6.476146
7.238767
3.254368
-1.884756
-5.481986
-7.397046
-4.287334
3.171941
8.051966
8.192919
6.336075
4.760022
4.083854
4.207273
4.318067
2.127127
-1.399497
-3.911675
-5.126745
-3.053457
-0.297013
-1.941335
-4.306922
-4.598493
-5.687080
-6.940025
-6.556390
-4.789844
-2.300864
-0.684182
-0.995158
-2.635506
-2.764588
1.104263
4.588050
2.298681
-2.882292
-5.582443
-4.558203
-1.582691
1.753102
4.411117
5.198520
5.200365
4.523028
2.212384
0.233965
-1.911852
-3.571371
-1.023475
3.332844
7.165924
10.176038
8.460407
2.506032
-2.549392
-3.706714
-0.995393
1.673142
1.022926
-1.346401
-2.062548
0.606455
3.689514
2.631789
-0.853453
-3.145861
-4.660893
-4.661621
-1.882499
1.746009
3.917024
2.667352
-1.274262
-3.073125
-1.049402
1.233135
1.340890
-0.420799
-3.456916
-6.243338
-7.028689
-6.754237
-6.425778
-4.850945
-2.730664
-2.356615
-2.654966
-1.212697
0.773853
0.984712
-0.161622
-1.277796
-1.591344
-1.594877
-3.407534
-6.606608
-7.883167
-6.561303
-4.113472
-1.458964
0.688672
2.919540
5.759449
6.381090
2.814720
-1.506814
-3.593247
-3.614315
-0.982719
2.329461
1.967984
-1.113490
-2.536874
-1.481772
-0.396278
0.132546
0.982373
0.916650
0.807674
3.221605
5.240184
2.550555
-3.035122
-5.043233
-1.123414
3.297900
5.215246
6.251643
5.649355
3.165935
0.097553
-2.316663
-2.053901
-0.045375
1.554006
2.899249
3.969781
4.633506
4.251221
2.225575
0.112256
-0.938689
0.001618
3.043060
4.340375
1.685348
-1.999323
-3.590340
-2.599767
-1.368383
-1.103750
-0.124166
0.417049
-0.567030
-0.127517
0.626921
-1.244886
-2.739110
-2.021379
-1.167343
-0.937079
-0.778591
0.521530
1.899505
1.281319
0.248143
-0.170848
-0.293150
-0.347417
-1.011193
-0.677591
0.169898
-0.771395
-2.013820
-2.749372
-3.218863
-3.248348
-3.831464
-4.729739
-5.069940
-4.150675
-1.141263
3.393209
6.378306
4.392640
-0.522506
-3.380002
-2.500950
-0.769474
-3.104199
-6.934994
-5.561227
-0.625793
2.880673
3.372790
2.257785
2.071890
2.200686
1.459757
1.460666
2.190087
1.141013
-1.528510
-2.824007
-1.206156
1.992165
3.711951
3.373854
3.262541
2.995285
0.798733
-2.374623
-3.032087
0.445388
3.449656
2.592062
1.148805
1.468848
1.519088
-1.142252
-4.679163
-5.277009
-3.325997
-0.260005
3.023885
4.478312
3.909925
1.985747
-0.120325
-1.168230
-2.198367
-3.753145
-5.902001
-6.533046
-2.449335
2.360784
4.066075
5.291614
6.186798
4.096858
-0.957865
-5.787207
-7.519203
-5.246019
0.632554
5.111850
3.922964
0.430709
-2.241153
-4.076487
-4.509739
-4.445939
-3.691033
0.233228
4.421913
3.158447
-1.987223
-6.291924
-8.449432
-7.923180
-5.133303
-2.099810
-0.014364
1.453623
3.079189
4.488493
6.337803
8.579426
7.327649
3.382996
1.159791
-0.700793
-3.567875
-5.823343
-6.466312
-4.196167
0.937060
6.385679
8.866009
7.805946
4.663217
-1.199042
-6.374872
-5.475480
-1.535788
2.480355
7.602828
11.251909
11.271288
8.287074
3.868280
1.635490
2.378004
2.285160
0.255774
-0.390935
2.606553
7.935235
11.467418
10.945556
8.980230
6.475534
4.168631
6.310655
9.574673
7.689306
4.208272
1.873547
-2.124179
-7.045637
-9.814291
-8.881699
-5.213446
-3.565202
-6.642935
-10.009875
-10.211201
-8.600831
-4.042746
3.140415
5.492857
0.239875
-4.511380
-3.236743
0.771451
5.523589
11.259545
14.900443
14.017833
8.829845
3.576862
5.595442
12.264951
11.495732
0.718119
-10.464664
-15.842261
-16.444782
-12.001258
-3.543901
2.315734
1.809069
-2.983801
-7.902454
-7.941290
-3.133276
0.615637
1.538643
1.932799
1.654788
0.626054
-0.520981
-1.296279
0.337237
4.238352
9.062031
15.412640
19.359346
16.067922
10.503521
7.797993
4.701088
0.061589
-4.311381
-8.936384
-11.698024
-10.868771
-10.071548
-10.890800
-11.351640
-10.986007
-8.841645
-4.918787
-3.083270
-3.984117
-5.571861
-7.870347
-7.574152
-1.513919
6.158579
10.524717
12.563637
13.911219
12.039645
7.889484
5.721222
4.514335
1.583894
-4.157258
-10.928053
-13.133021
-10.023309
-8.436319
-12.181778
-15.328481
-13.041268
-9.307786
-7.644812
-8.618136
-9.063546
-3.057320
5.333170
8.522139
6.459086
0.158223
-5.529389
-4.415605
0.811609
4.346597
3.771430
2.467517
3.178234
1.611766
-1.970034
-3.133902
-0.453677
5.610531
9.352430
7.245657
2.663672
0.075276
2.493649
6.025365
5.242118
1.751966
1.104789
3.770754
1.372435
-5.793243
-7.990730
-5.490528
-1.666332
4.542596
11.850137
15.544810
12.494898
6.644797
2.727732
0.940793
-1.851240
-9.094071
-13.579264
-7.287104
3.410030
10.449873
10.563706
5.710750
0.940559
-4.461119
-6.248058
-0.256094
3.984729
2.796545
1.495905
2.258759
4.823256
5.949197
5.240765
3.304197
-2.956219
-11.931956
-17.090718
-12.394926
1.142377
14.312385
19.624934
14.330335
1.958693
-8.338466
-12.942428
-14.441796
-11.959362
-4.466654
1.939833
2.128481
-1.228172
-2.937490
-0.320155
4.062582
5.528231
4.325084
4.359193
6.107970
5.758885
1.564068
-4.197657
-9.712260
-13.860317
-12.336920
-3.213008
8.495534
19.368249
25.502830
21.569632
11.914013
3.495181
-0.556785
1.059196
2.338508
-2.928970
-10.005104
-8.454353
1.680265
6.573615
-0.852747
-10.167957
-9.958735
-5.056266
-2.637426
2.146742
8.595546
10.117072
6.517504
-0.759696
-8.563641
-12.867875
-10.525252
-2.971522
3.301466
7.631599
11.567550
15.685162
17.165540
6.851314
-9.725172
-16.708255
-13.427404
-7.769770
-4.871411
-4.955137
-3.226466
0.808849
0.865636
-4.471047
-9.966010
-13.498479
-14.959504
-11.921802
-3.434286
6.694253
12.910195
12.631015
6.474172
0.503665
3.343341
12.665980
14.926774
6.218034
-0.240876
1.078650
2.141700
0.686520
-3.189865
-8.469968
-9.704210
-7.108151
-3.414414
0.480155
4.383842
8.091373
6.918386
2.394616
2.729388
6.941687
9.518341
7.299111
2.711282
0.379362
-3.057250
-4.802807
-0.969493
-0.533721
-1.235372
1.925307
1.070284
-3.923885
-7.620480
-5.330929
0.746371
-1.479639
-10.007420
-12.063226
-5.026655
1.029603
-3.158433
-11.023867
-18.160321
-24.337504
-21.757578
-13.487493
-3.406181
10.880443
22.526793
28.819888
25.763197
8.441599
-6.917972
-10.719775
-10.089484
-4.871155
-0.351412
-2.738742
-4.265464
-3.687076
-7.050276
-13.133473
-16.465344
-13.852919
-7.390555
-0.573520
1.826617
-1.147544
0.603805
9.118675
11.111069
1.179569
-9.839322
-11.712298
-6.659965
-0.148737
5.067722
9.925769
18.203803
23.335860
16.726386
2.708343
-9.487951
-11.562460
-4.856947
3.458728
14.637719
24.370673
23.028650
12.768899
-2.691906
-18.697226
-24.867863
-23.164208
-19.771368
-9.346374
3.890733
7.748128
4.514920
-0.897747
-7.879427
-7.814691
3.951832
16.041696
21.826984
23.276267
13.075900
-8.020355
-22.308433
-22.379066
-14.682720
-6.683606
-1.070861
4.073822
7.321006
5.877749
-0.167339
-7.349851
-7.727927
-0.960691
2.997003
2.810641
5.483853
9.741742
9.725584
4.709438
-2.883856
-11.565242
-19.404724
-20.006076
-12.269517
-5.151352
-2.996001
-2.220521
0.390267
1.996662
0.317738
-0.892423
-2.825251
-5.780007
-4.489238
0.843651
7.868532
11.078308
4.949287
-5.374992
-11.686843
-9.611685
-0.237609
9.509139
13.872705
12.461245
4.848078
-7.756660
-14.302541
-10.468292
-6.092569
-5.445210
-7.311874
-11.038628
-16.411081
-20.838059
-16.011808
-4.301630
2.910288
4.898942
4.557572
-0.221972
-8.470833
-12.162284
-7.477481
0.316593
6.349004
6.965034
3.029732
-0.349366
-3.527164
-5.364603
-3.202238
-0.246132
2.363721
5.344844
5.895645
1.731923
-3.575067
-6.209521
-9.414907
-11.446632
-6.628797
1.319115
7.636525
8.518616
4.026643
1.800867
-0.250029
-4.794840
-4.518518
-1.277412
1.226998
4.314499
5.369366
6.305932
7.425795
4.471506
1.383019
-0.390360
-4.338988
-8.105955
-8.083537
-4.988087
-4.206763
-7.421501
-9.924561
-8.481356
-3.145427
1.092590
2.071239
3.450149
4.867870
4.950374
3.308858
1.608424
0.382599
-3.611619
-5.341278
-4.316336
-6.637034
-6.192144
-0.983401
4.463816
8.274919
9.398055
14.264987
18.900459
13.766245
7.354797
3.226612
-0.715469
-0.392154
-1.354489
-6.686262
-7.893383
-1.575740
6.284732
7.407401
3.444043
1.869393
2.966811
5.630905
7.930976
7.670734
8.160046
8.406442
4.742579
0.398132
-0.576595
0.816343
-0.010156
-2.067364
-2.672691
-5.732890
-8.506920
-7.984409
-8.128455
-5.866960
-1.734853
0.637462
5.942997
12.199386
12.168733
6.369365
3.455758
7.523571
7.558380
-0.506482
-7.172770
-7.551314
-1.800628
1.052841
-7.471199
-18.850606
-22.730731
-16.625843
-5.969390
-0.163294
1.266116
0.117678
-5.067738
-9.906432
-11.117762
-6.730816
1.410680
3.914155
0.978571
-0.673934
-3.324286
-7.772305
-8.162772
-5.086494
-3.283943
-1.130229
1.004782
0.193713
0.050837
2.088354
4.390997
4.610974
-0.996211
-6.105175
-3.985595
-1.507604
-2.717531
-5.525462
-7.965396
-6.708762
-5.135800
-6.912452
-7.776358
-6.155468
-0.497133
8.726143
12.196370
9.857904
8.987451
5.893118
-1.552416
-5.321955
-2.997803
-2.314439
-4.083375
0.303804
7.483225
7.535803
2.356934
-4.189416
-8.645618
-4.995367
4.248250
10.319237
10.202546
9.745680
10.760334
6.566219
-0.584964
-4.311017
-4.004301
-0.080273
0.352693
-3.857320
-2.392607
1.658139
1.602469
3.625491
7.358272
6.288857
3.967458
3.157558
1.776726
4.060899
9.676683
10.555034
7.049218
3.150388
-0.278508
-1.907868
-3.309274
-5.621322
-6.311751
-4.753986
-2.731432
-2.306180
-1.795593
2.374155
6.098987
3.456350
-3.393702
-8.500561
-9.217176
-6.691958
1.296869
12.694693
14.247315
6.696806
4.396916
6.658645
5.909065
3.006914
1.800727
2.561478
0.839067
-2.284256
-0.621750
4.919920
10.317338
13.157949
12.381482
9.405918
5.858486
3.859026
2.211898
-0.953976
-0.647027
2.460347
1.494504
-1.198165
-2.205623
-5.191708
-10.160394
-12.021680
-10.119765
-8.197042
-7.296715
-3.605082
4.086822
8.654025
6.388971
2.624809
0.703204
-0.170990
-0.425154
0.928740
3.242138
3.748517
2.272996
0.381083
-0.234064
-0.253963
-1.569800
-1.579178
0.614750
3.218290
4.697967
1.813117
-1.785985
-1.613234
-3.225994
-8.078950
-11.751697
-13.068703
-9.713505
-3.949493
-3.609578
-5.097723
-0.965850
4.443257
7.409885
10.006177
12.368906
13.080559
9.877511
4.965872
1.698529
-3.874055
-10.498960
-11.154554
-5.900220
0.198589
1.335753
0.367807
4.223331
8.149696
7.294674
2.895752
-2.088364
-2.882365
-0.691477
2.998753
6.503582
5.186576
3.062735
0.850286
-3.909385
-5.154148
-4.012308
-4.248002
-3.260468
-1.046668
1.380589
2.709233
3.137524
4.653439
6.594164
7.135379
4.906797
2.500062
1.644105
0.486314
0.913436
2.877073
4.817331
8.557593
11.531468
9.229942
3.452084
0.088651
0.916267
3.506715
6.572472
6.130336
0.730762
-1.360815
2.014257
3.078008
1.608333
0.819942
-1.943334
-5.106870
-5.264476
-3.424517
0.047580
2.681981
3.013480
2.650367
0.664233
0.217420
4.349761
6.051311
1.512579
-0.630199
3.855643
4.952126
