EVENT_NAME: 202302060117
EVENT_ID: 13194
EVENT_DATE_YYYYMMDD: 2023/02/06
EVENT_TIME_HHMMSS: 01:17:32.00000
EVENT_LATITUDE_DEGREE: 37.288
EVENT_LONGITUDE_DEGREE: 37.043
EVENT_DEPTH_KM: 8.6
HYPOCENTER_REFERENCE: AFAD
MAGNITUDE_W: 7.7
MAGNITUDE_W_REFERENCE: AFAD
MAGNITUDE_L: 
MAGNITUDE_L_REFERENCE: 
FOCAL_MECHANISM: 
NETWORK: TK
STATION_CODE: 2718
STATION_NAME: 
STATION_LATITUDE_DEGREE: 37.00777
STATION_LONGITUDE_DEGREE: 36.6266
STATION_ELEVATION_M: 527.0
LOCATION: Kahramanmaras_Pazarck_Turkiye
SENSOR_DEPTH_M: 
VS30_M/S: None
SITE_CLASSIFICATION_EC8: unknown
MORPHOLOGIC_CLASSIFICATION: 
EPICENTRAL_DISTANCE_KM: 48.30
EARTHQUAKE_BACKAZIMUTH_DEGREE: 
DATE_TIME_FIRST_SAMPLE_YYYYMMDD_HHMMSS: 2023/02/06 01:17:10.4534030
DATE_TIME_FIRST_SAMPLE_PRECISION: millisecond
SAMPLING_INTERVAL_S: 0.01
NDATA: 10501
DURATION_S: 
STREAM: HNN
UNITS: cm/s^2
INSTRUMENT: sensor = GMS+/GEOSIG | digitizer = 
INSTRUMENT_ANALOG/DIGITAL: 
INSTRUMENTAL_FREQUENCY_HZ: 
INSTRUMENTAL_DAMPING: 
FULL_SCALE_G: 
N_BIT_DIGITAL_CONVERTER: 
PGA_CM/S^2: 702.422
TIME_PGA_S: 
BASELINE_CORRECTION: BASELINE REMOVED
FILTER_TYPE: BUTTERWORTH
FILTER_ORDER: 
LOW_CUT_FREQUENCY_HZ: 
HIGH_CUT_FREQUENCY_HZ: 
LATE/NORMAL_TRIGGERED: 
DATABASE_VERSION: 
HEADER_FORMAT: DYNA 1.2
DATA_TYPE: Acceleration
PROCESSING: Automatic Paolucci et al., 2011
DATA_TIMESTAMP_YYYYMMDD_HHMMSS: 
DATA_LICENSE: U (unknown license)
DATA_CITATION: Turkish Accelerometric Archive v 1.0 - Disaster And Emergency Management Presidency, Earthquake Department
DATA_CREATOR: AFAD
ORIGINAL_DATA_MEDIATOR_CITATION: : AFAD - Disaster And Emergency Management Presidency
ORIGINAL_DATA_MEDIATOR: AFAD PROCESS SERVICE
ORIGINAL_DATA_CREATOR_CITATION: AFAD PROCESS SERVICE
ORIGINAL_DATA_CREATOR: network: TK
USER1: GuestUser
USER2: 
USER3: 
USER4: 
USER5: 
[...]
3.404105
-3.541220
-10.585516
-16.139264
-18.364086
-21.797089
-24.198034
-24.742677
-25.874396
-22.407963
-14.978770
-16.622231
-26.792315
-25.044766
-10.758480
-3.628280
-5.692305
-4.965904
-0.830828
0.751248
4.647078
10.230360
9.437379
5.460162
1.398781
2.442618
10.383554
15.899297
17.375388
13.405445
1.932105
-6.945114
-4.558536
-3.603279
-11.147369
-13.901858
-17.448639
-20.990484
-7.380114
6.179083
-2.400442
-18.672994
-23.558619
-12.464880
2.405365
1.460159
-2.379640
2.275751
1.208974
-5.271106
-6.653241
-0.600559
-1.437441
-7.240046
7.666826
32.787513
36.466177
27.185279
26.615698
25.517229
13.338620
-1.619766
-9.249580
-10.897457
-10.182486
-3.526362
-2.689820
-17.152049
-26.011604
-16.958861
-8.052368
-18.780174
-30.830977
-17.187616
5.299544
15.944404
11.642997
0.515928
3.042002
15.149095
14.489115
5.096776
5.078943
7.508122
-0.501472
-8.173627
-5.552998
-2.110983
-6.761518
-13.196399
-11.344943
-2.512224
3.052095
-2.117456
-7.886292
0.488196
13.948940
20.953413
22.934233
21.541707
18.008694
16.055849
23.350742
32.464010
31.752336
29.702857
28.056019
17.782547
1.799637
-7.599196
-7.553647
-8.091017
-15.273769
-28.640298
-43.142012
-49.967324
-46.959381
-40.415737
-36.969565
-35.696093
-31.330343
-20.034245
-4.036607
2.543145
0.609522
5.033980
10.694932
14.420354
19.038079
17.029643
5.428498
-8.825397
-17.068263
-18.892783
-16.382555
-17.265936
-25.418922
-27.361116
-22.779500
-21.560059
-18.668492
-9.118554
-2.003160
-2.019696
0.898887
8.783453
11.568775
12.394408
18.350716
19.906557
13.798204
11.036441
14.914087
15.766736
10.801362
9.278173
11.973615
10.867094
2.152749
-5.533434
-6.722821
-10.597689
-19.173577
-24.953064
-19.802035
-5.406646
2.154509
-4.575468
-18.383082
-25.352825
-22.475286
-20.873727
-16.816062
-8.722123
-6.097078
-7.752229
-9.666888
-10.125288
-8.788952
-9.176955
-14.075309
-12.773522
-3.528551
-0.750503
-2.585673
-2.176708
-2.551463
-8.580847
-8.237083
5.710726
8.581771
-1.073713
-2.781857
-2.390296
-4.076879
2.653018
13.467507
18.959091
21.976645
24.126834
26.272348
26.649621
17.889298
6.581430
1.792958
-2.218028
-1.440972
12.191739
16.889991
-3.150235
-17.798977
-3.080177
16.623310
15.446132
7.658120
11.653181
15.887228
10.274253
7.477942
9.320046
-0.602479
-20.639068
-29.198071
-14.490181
7.271967
10.926991
-3.266898
-17.304406
-20.730136
-13.141445
3.929294
13.539239
0.437154
-8.261085
2.764855
8.277480
0.566879
-6.311686
-3.760155
3.080144
7.476547
8.803531
8.405657
10.218667
9.360224
1.410637
-10.689523
-18.915244
-13.289100
-5.854452
-5.898523
-4.882740
-0.307098
3.406635
-5.374730
-16.918466
-18.075643
-20.670374
-19.452232
-8.317450
3.430385
8.351518
3.831647
-0.736802
-3.282178
-6.527628
-6.133990
-7.498201
-12.960251
-9.955685
1.399121
12.102689
23.352029
28.282774
22.347426
12.897679
4.086181
2.628973
8.304733
5.611030
-15.151611
-28.396827
-16.107117
-10.778927
-24.497441
-35.353312
-31.374876
-18.553161
-10.302841
-1.991477
1.952930
-6.046274
-6.826527
1.724344
3.549044
0.426984
2.618736
5.585895
3.296391
-0.859027
-7.160647
-6.225652
-0.919802
-9.133574
-16.006683
-5.068285
5.560469
4.755019
7.357464
8.902394
-3.528190
-10.999026
-6.018665
-4.299950
-9.032312
-14.173029
-9.836374
-0.460999
-3.690604
-20.059270
-30.208053
-21.227786
-18.757043
-32.595050
-30.392128
-15.023908
-12.118053
-9.450666
7.727876
19.108919
16.268966
18.757373
26.184228
20.580605
12.294098
21.635702
33.396266
29.190973
17.296549
8.644290
7.829228
8.331969
6.792415
12.063196
13.084174
5.194593
10.319644
27.993304
32.941194
24.206328
22.947323
28.388512
25.237617
13.574647
6.114462
-0.935030
-10.341656
-8.902191
-2.773397
0.549904
2.157698
5.068488
15.798292
23.187481
17.620225
14.146178
19.237460
20.694848
22.442917
32.608245
39.283332
34.079491
28.098425
28.804824
28.396039
24.139572
17.455833
6.925451
1.107519
4.563822
4.759517
-5.188465
-17.708670
-25.935430
-31.496711
-33.930646
-33.424788
-33.584715
-32.331764
-28.395411
-15.698384
-3.835732
-9.272585
-10.475740
-4.669837
-11.345522
-18.117062
-13.580905
2.513107
15.048558
9.097105
3.789877
4.489522
-3.676712
-14.668442
-15.591827
-15.235855
-21.597741
-17.537998
-4.547174
-0.918905
1.852909
14.513828
20.956942
7.952790
-13.881913
-27.659654
-19.393229
-3.156864
-5.609243
-14.186430
-10.553226
-7.241874
-13.800404
-16.633603
-10.482468
-3.912328
1.889159
4.691106
4.234524
5.150036
8.919099
14.445752
14.615470
10.176386
11.574807
18.281326
22.256904
17.275425
9.658600
12.065440
18.549597
17.683361
12.687335
15.776065
26.771872
33.924931
33.430164
25.342379
19.782137
25.108509
29.192930
25.840195
22.251851
17.775621
12.607108
16.169656
23.055934
26.520808
28.081584
25.587902
25.553703
25.148295
21.435522
23.697671
34.851677
44.207568
34.876795
20.899292
18.634985
27.049998
36.969066
29.314315
12.641201
6.402185
13.046359
14.397762
1.529988
-2.782069
5.123538
2.537898
-8.096131
-3.990149
9.654251
21.061530
25.677696
20.657771
15.487440
9.469227
5.508636
4.626294
-2.845840
-8.852104
-14.505083
-26.889949
-34.729135
-39.968304
-50.415041
-59.081848
-62.272747
-58.820601
-50.507677
-42.792999
-39.017442
-42.167558
-46.489227
-47.481710
-47.777496
-47.034469
-39.214326
-20.755646
-5.201432
-3.143461
-8.654607
-13.184350
-11.067411
1.539996
15.315319
13.274932
8.175778
17.544138
35.982815
45.517427
32.842921
15.979397
11.022855
11.378308
9.171150
6.862423
8.382934
6.432427
2.442742
2.830925
6.418930
9.648195
11.335478
19.216667
30.092980
36.435044
39.598328
35.453821
25.688456
18.163848
18.402146
15.873395
5.912684
6.000316
9.841334
11.604989
17.083065
19.971255
14.604799
3.682947
2.813074
7.576269
2.438410
-13.693088
-22.317553
-6.718399
5.155683
7.314964
13.241659
9.868143
-1.996667
-10.619313
-2.962564
13.506034
16.639185
9.357980
4.264800
9.074753
26.450720
42.057666
43.897173
41.036179
38.727712
40.139121
47.924716
57.004474
62.150307
55.971817
38.971915
22.904579
20.244386
24.794571
20.665650
6.122373
-4.358912
0.822249
10.157619
15.655177
14.501119
9.861754
12.370423
9.321876
-0.342180
2.825780
14.247866
20.567070
20.480658
18.375848
21.502245
31.242334
41.613139
47.089656
48.700307
47.896416
44.429903
45.264108
42.808352
20.597245
-5.546488
-16.272735
-23.423796
-38.503753
-49.370015
-37.720632
-17.736076
-17.265547
-26.307199
-23.179762
-13.045866
-15.120023
-26.549721
-34.300327
-37.319259
-25.268795
-9.323111
-18.866894
-43.097696
-57.390297
-59.196114
-55.843719
-49.677257
-39.502577
-35.776896
-43.854029
-40.224722
-10.404313
14.950945
5.421708
-20.390821
-28.155454
-20.701583
-18.401767
-22.296378
-33.501377
-48.172460
-60.054674
-84.493810
-112.499559
-114.772958
-94.763724
-84.137308
-81.112480
-59.996375
-39.172509
-26.605626
-14.680370
-12.834888
-14.778641
-12.767948
-13.585607
-24.583831
-31.045728
-27.224192
-26.120608
-14.794636
10.418529
24.744820
26.675245
35.436528
45.386249
44.492478
53.007760
68.925130
63.388786
49.176454
43.991316
49.483420
62.527756
60.530491
34.455077
8.748793
8.005947
18.602750
13.630362
-9.945045
-25.301915
-18.956994
-4.279496
13.644580
14.091471
3.709157
0.481631
-6.364463
-5.333354
-5.621346
-8.485458
11.289466
35.122224
37.530882
19.650107
6.559972
11.190945
10.308863
11.341530
25.477931
25.335668
19.654894
25.199730
31.310081
35.141748
32.338683
33.340438
51.166842
77.225811
78.996999
52.087210
39.374518
34.864257
22.773190
13.271489
-9.407460
-26.779090
-17.433849
-18.071489
-23.615885
-12.945308
0.480368
10.754798
8.791822
14.436150
40.324711
53.490619
49.689265
49.207486
47.616497
42.693985
41.077540
42.150471
36.433329
0.411921
-23.922009
-0.242774
10.849406
-13.846640
-48.622981
-61.107856
-42.483705
-33.649427
-37.846927
-33.199069
-15.959221
4.018061
-4.217791
-15.957133
1.338825
9.746304
5.435026
16.434729
27.412352
12.163805
4.946503
21.320545
13.500841
-0.219491
-7.535245
-26.739278
-28.318577
-28.239517
-41.570198
-25.464236
23.621600
52.707385
28.969363
-20.430873
-42.589506
-5.687564
25.930958
1.369991
-8.975696
9.974984
16.691114
6.378677
1.528380
30.444017
52.099141
43.894461
39.772554
37.586957
28.108635
23.260156
35.073453
55.804062
73.247828
64.282807
31.740211
4.929654
-19.196462
-35.231326
-32.600826
-9.359040
0.284155
-25.207820
-29.532606
-7.206762
-0.760011
4.425306
31.574261
68.034858
80.349506
42.408932
7.006031
29.341487
74.136737
103.243303
80.615789
27.386314
26.521377
48.735262
39.021850
3.665707
-48.932272
-61.533783
-34.111292
-29.369918
-34.752739
-29.333371
-13.280662
0.525314
1.965038
0.705773
14.582406
27.574269
-0.825289
-41.783067
-61.523520
-55.050273
-42.293240
-52.733483
-75.025117
-88.386450
-72.426479
-43.142751
-33.802445
-35.631901
-15.921919
26.388651
64.229394
94.137344
106.559017
99.138317
94.818207
82.561147
60.380693
53.528365
61.535282
67.979695
65.987365
50.675175
16.694763
13.479966
53.360926
78.138980
68.796257
36.724360
11.727242
3.637120
8.750222
19.133756
21.713341
19.858169
11.768047
23.257932
55.104271
81.320659
89.958812
57.604547
24.129644
24.489772
37.702438
50.432196
49.278137
52.223476
58.494104
46.811391
36.541037
40.244379
50.207867
66.213558
84.525209
94.952123
98.246071
83.618109
60.534962
51.197694
28.922425
2.057836
4.806531
18.253507
19.172916
10.953170
10.528799
17.123877
29.012766
45.568645
52.522462
49.008152
37.865497
31.567774
28.322323
24.712938
34.031164
35.536609
20.698755
-3.491523
-38.327610
-59.653168
-49.832552
-27.573468
-29.421367
-55.925398
-75.293604
-70.628602
-45.369198
-20.725185
-3.170758
18.213947
27.308772
13.553891
13.808813
39.302787
66.182623
94.394029
111.491784
91.996551
61.382212
52.006499
42.077219
28.529114
10.504687
-18.922253
-36.575472
-64.986199
-98.058722
-103.487522
-96.488764
-64.071196
-9.378009
16.310791
-0.363882
-15.621261
6.486379
42.047658
46.144029
32.152239
28.145149
22.839739
13.835754
9.559284
18.070411
43.594777
63.403990
50.285021
10.350728
-35.701099
-62.383071
-55.784096
-9.590775
71.126482
126.217893
132.019900
117.771200
98.842261
92.531030
95.851474
88.395185
66.522556
46.409336
34.637783
26.544803
41.672738
70.954128
75.637055
62.333130
56.340634
60.778859
61.464477
62.976676
74.819326
84.090793
94.729419
105.510397
106.146139
107.926939
119.866482
127.407895
125.726247
136.509564
154.233359
169.316354
170.499168
144.336472
117.027939
107.934853
113.098870
119.791361
126.043026
125.749578
104.730547
67.760466
33.311173
25.183125
34.005193
38.947888
29.601268
-1.766398
-42.789637
-86.584861
-127.571473
-153.050720
-162.177056
-159.228600
-163.395967
-166.402431
-159.411206
-179.467798
-217.566051
-241.930893
-240.124636
-231.866524
-236.633955
-232.601227
-230.059828
-241.745138
-269.047176
-299.814518
-288.873263
-227.037757
-143.466689
-79.295869
-89.424910
-139.138945
-125.722621
-51.449686
37.274398
115.976895
173.164374
200.914692
193.250330
194.200911
212.874158
230.364422
241.722865
226.840591
194.544255
184.065826
190.948727
207.674235
227.262125
166.602509
50.627391
-92.816106
-264.851999
-364.951920
-300.078687
-57.296639
33.642746
-175.583081
-366.328499
-437.187384
-469.204210
-490.270259
-431.467543
-213.099523
-79.550146
-213.492112
-280.982586
-191.019409
-135.661216
-49.815880
-115.308219
-259.150720
-91.778520
74.786321
126.460226
222.792912
111.615449
-80.357373
-149.875075
-214.475631
-154.645793
53.252801
64.002607
-85.504134
-131.352562
-82.094759
34.369422
139.364849
159.662166
29.982212
-84.869150
11.113629
125.754240
180.145057
241.244641
263.878830
207.445897
184.263258
203.201729
188.872241
180.048794
150.305977
143.449233
156.122620
125.482305
72.957580
-5.737723
-85.129984
-188.238796
-228.449222
-137.075765
-113.753971
-129.275533
-75.073048
-56.203935
-147.751257
-245.010875
-232.860919
-235.409153
-183.870587
-114.593249
-207.148470
-236.151209
-202.724702
-217.578142
-233.790428
-259.429432
-254.974841
-262.113433
-268.709630
-275.992394
-308.273404
-335.892359
-392.997831
-405.042140
-365.556286
-280.596240
-189.623864
-219.800494
-218.349600
-116.923125
5.280889
137.703133
198.304482
186.459674
187.754967
198.440091
200.901742
245.854152
315.227604
387.783213
463.054695
460.574781
416.802677
403.327826
443.699228
527.452133
466.213754
312.341613
239.887234
155.947996
59.916820
-27.609294
-115.487134
-133.786395
-139.018031
-172.310577
-165.166869
-83.796036
58.324384
61.600927
-107.281124
-200.127804
-214.203239
-135.288251
67.777879
221.620846
236.591102
131.574554
14.279815
-47.280417
-75.825704
-54.240978
-38.424918
-0.050611
85.106080
124.392432
154.611065
94.043146
28.720955
99.479749
148.352836
146.259457
79.769869
-11.190117
-39.499016
56.614946
210.792234
251.322874
249.046358
243.051264
205.370978
182.477721
194.931865
166.144733
99.283417
133.110486
229.714630
275.873402
206.686644
64.799416
-42.297613
-125.958900
-191.430458
-218.713273
-250.807510
-313.669439
-405.108697
-500.172497
-594.381920
-702.421647
-621.894280
-346.320947
-133.866803
86.061643
301.597673
278.966782
81.831073
-115.034737
-282.514820
-335.248398
-229.448989
-52.013639
27.836772
-98.253189
-262.723341
-337.564727
-369.527262
-405.262926
-409.932683
-342.885194
-276.345030
-225.484199
-95.635995
-48.723897
-182.159835
-214.710224
-109.743631
-26.869780
106.491525
336.561311
275.169408
48.755257
103.781207
148.936236
145.429459
172.148498
144.492916
150.281414
155.929638
177.905316
226.681249
271.195171
335.903451
394.840207
399.308824
363.539911
346.930440
355.237129
330.495623
314.372178
329.480370
301.611259
292.608572
299.027527
252.084177
179.464325
70.483979
-84.145905
-240.233086
-338.982993
-390.553070
-407.367758
-425.095789
-426.760552
-265.556282
-100.294437
-126.063065
-145.662464
-67.870454
-7.844750
26.404961
82.709749
107.678991
45.908087
14.359883
55.168734
104.256649
159.174796
199.526975
230.296316
207.661009
136.035029
132.689568
155.224266
158.477430
169.796128
123.534668
76.389218
113.162835
173.549875
190.986108
118.386258
27.149619
-46.646981
-138.916717
-218.382492
-255.585584
-189.063345
-94.882576
-103.818762
-164.982069
-228.923593
-291.333266
-315.062197
-272.864366
-208.077377
-180.207565
-107.282047
1.680296
-35.823348
-150.281940
-159.896900
-106.792194
-103.791005
-145.287022
-181.305833
-220.243655
-266.312108
-268.995161
-185.893753
-124.305026
-107.567310
-23.500605
9.569241
-46.437413
-56.549049
-85.203179
-151.389098
-175.249212
-144.970572
-56.696406
15.485397
22.477920
-5.782402
-48.170722
-56.192526
-25.372011
-9.604787
-48.567807
-96.282668
-96.102559
-98.266076
-73.999506
-13.638702
-16.574509
-53.574463
-60.004928
-36.106449
-0.843382
47.114023
77.015739
41.230459
-14.101577
-59.296689
-66.176033
-13.780493
37.517268
46.412591
43.742007
41.094282
35.522091
29.437896
-19.274474
-76.233177
-127.900927
-147.032484
-92.470740
-87.104104
-138.096197
-180.175134
-218.901765
-148.263244
34.171599
146.635094
193.696820
184.548663
91.353114
49.430558
47.721375
54.276449
83.652394
68.166160
17.295378
-8.334794
-20.131285
-29.941590
26.756486
94.837593
128.084080
143.651543
103.626072
77.862639
108.848106
154.821404
203.818141
224.758642
210.094833
210.692130
220.094520
220.817284
212.678845
164.036872
96.826688
40.025924
65.153885
183.051206
247.492444
261.950697
281.790303
234.598874
175.509554
160.391151
124.786410
83.579255
85.245497
100.956870
73.725749
59.753442
57.212482
16.572920
1.381522
-8.057056
-27.482151
-35.216131
-79.971457
-174.320895
-264.757708
-324.417478
-409.815833
-474.998009
-432.732379
-415.084436
-455.448125
-411.111885
-299.055186
-192.791572
-147.878387
-156.118395
-147.586487
-140.424855
-125.562663
-93.621769
-49.207598
33.087749
106.331224
124.651187
90.488418
25.158434
-44.372257
-112.304856
-178.671834
-238.080408
-258.990337
-188.045549
-91.296714
-53.136196
-18.501509
20.827185
47.808850
76.773323
100.873642
130.845755
141.092391
128.511141
136.035669
165.859455
214.103124
264.068795
297.724936
309.539012
275.782001
197.345946
113.522304
54.026188
-7.188813
-57.030914
-68.574650
-65.669056
-53.591576
-61.834701
-59.247323
-29.206111
-7.028075
32.565323
43.396436
8.621394
-2.493206
33.005210
60.690586
50.118122
32.122269
6.889023
18.106412
56.796596
77.995047
62.122538
4.483243
17.383408
79.602332
115.171924
150.910626
137.797891
69.252499
13.865912
-10.229811
-29.286555
-42.298760
-20.233723
20.018186
31.150631
3.672210
-39.858569
-97.232122
-84.351959
51.149055
147.434464
106.242375
-41.850709
-138.901214
-34.194908
88.001832
94.965261
44.849105
-38.218872
-84.457992
-114.099500
-138.592668
-97.033347
-62.812729
-66.988149
-90.384057
-125.320414
-118.447385
-81.145400
-42.932669
-17.308811
-0.138321
-27.523485
-82.946180
-50.153767
16.400164
68.120827
142.952263
223.069976
226.265471
133.412296
69.102680
53.084701
67.872080
89.325104
67.999806
31.150258
-8.857809
-41.383780
-58.412516
-77.016745
-70.595711
-39.550757
-47.068091
-67.593563
-76.374928
-96.657777
-116.832303
-136.471447
-140.231757
-140.086717
-118.285344
-68.044059
-84.216341
-140.630051
-173.306427
-166.044525
-96.302722
-25.989170
16.578830
45.767223
56.335192
60.857322
73.061829
69.983669
43.778890
34.280306
27.910627
38.653939
77.676107
114.052279
142.677495
127.099563
66.526968
-16.904164
-49.744195
7.484847
76.003663
117.747159
97.118559
46.275572
20.962577
5.082275
5.098211
10.936065
26.563014
31.538699
1.942650
-22.774437
-51.537150
-76.921582
-75.391199
-54.336659
-31.348666
-15.865629
22.445554
15.710382
-50.702315
-114.472133
-140.539234
-71.606089
7.775182
34.609299
-1.133119
-124.689044
-211.969418
-263.064119
-352.251709
-247.079899
-27.195094
6.567552
-31.702667
-83.712531
-101.576421
-61.392831
-50.813173
-40.970996
-30.005063
-15.713061
-0.506676
-9.411430
-49.773561
-67.662389
-57.966980
-75.176515
-71.809313
-31.714304
-16.040077
-47.191357
-94.485654
-92.862534
-39.697301
-4.412155
19.136417
45.144991
49.850777
46.130211
48.906441
74.168442
103.512437
125.033520
159.057753
149.797896
73.108001
-2.679461
-6.605243
61.126475
86.738384
46.252344
34.447801
62.325145
92.487149
102.338937
95.203722
76.365182
39.885024
26.356401
37.430917
49.869474
80.720382
110.969927
112.333020
85.379071
38.800174
-10.295353
-21.491521
16.860965
71.006042
104.460604
85.593490
56.571529
73.875539
115.851788
150.885999
184.198208
174.831586
115.847732
99.930283
105.280034
78.876533
24.225608
-50.177550
-114.747453
-101.103053
-15.107051
-0.882849
-44.671838
-69.240078
