EVENT_NAME: 202302060117
EVENT_ID: 13194
EVENT_DATE_YYYYMMDD: 2023/02/06
EVENT_TIME_HHMMSS: 01:17:32.00000
EVENT_LATITUDE_DEGREE: 37.288
EVENT_LONGITUDE_DEGREE: 37.043
EVENT_DEPTH_KM: 8.6
HYPOCENTER_REFERENCE: AFAD
MAGNITUDE_W: 7.7
MAGNITUDE_W_REFERENCE: AFAD
MAGNITUDE_L: 
MAGNITUDE_L_REFERENCE: 
FOCAL_MECHANISM: 
NETWORK: TK
STATION_CODE: 4632
STATION_NAME: 
STATION_LATITUDE_DEGREE: 37.256028
STATION_LONGITUDE_DEGREE: 36.773694
STATION_ELEVATION_M: 507.0
LOCATION: Kahramanmaras_Pazarck_Turkiye
SENSOR_DEPTH_M: 
VS30_M/S: 428
SITE_CLASSIFICATION_EC8: B
MORPHOLOGIC_CLASSIFICATION: 
EPICENTRAL_DISTANCE_KM: 24.09
EARTHQUAKE_BACKAZIMUTH_DEGREE: 
DATE_TIME_FIRST_SAMPLE_YYYYMMDD_HHMMSS: 2023/02/06 01:17:06.4080940
DATE_TIME_FIRST_SAMPLE_PRECISION: millisecond
SAMPLING_INTERVAL_S: 0.01
NDATA: 5332
DURATION_S: 
STREAM: HNE
UNITS: cm/s^2
INSTRUMENT: sensor = ACEBOX/SARA | digitizer = 
INSTRUMENT_ANALOG/DIGITAL: 
INSTRUMENTAL_FREQUENCY_HZ: 
INSTRUMENTAL_DAMPING: 
FULL_SCALE_G: 
N_BIT_DIGITAL_CONVERTER: 
PGA_CM/S^2: 299.249
TIME_PGA_S: 
BASELINE_CORRECTION: BASELINE REMOVED
FILTER_TYPE: BUTTERWORTH
FILTER_ORDER: 
LOW_CUT_FREQUENCY_HZ: 
HIGH_CUT_FREQUENCY_HZ: 
LATE/NORMAL_TRIGGERED: 
DATABASE_VERSION: 
HEADER_FORMAT: DYNA 1.2
DATA_TYPE: Acceleration
PROCESSING: Automatic Paolucci et al., 2011
DATA_TIMESTAMP_YYYYMMDD_HHMMSS: 
DATA_LICENSE: U (unknown license)
DATA_CITATION: Turkish Accelerometric Archive v 1.0 - Disaster And Emergency Management Presidency, Earthquake Department
DATA_CREATOR: AFAD
ORIGINAL_DATA_MEDIATOR_CITATION: : AFAD - Disaster And Emergency Management Presidency
ORIGINAL_DATA_MEDIATOR: AFAD PROCESS SERVICE
ORIGINAL_DATA_CREATOR_CITATION: AFAD PROCESS SERVICE
ORIGINAL_DATA_CREATOR: network: TK
USER1: GuestUser
USER2: 
USER3: 
USER4: 
USER5: 
[...]
-0.041050
-0.037354
-0.041607
-0.040717
-0.035618
-0.041040
-0.045059
-0.037155
-0.039070
-0.044960
-0.036354
-0.036866
-0.043691
-0.039527
-0.040040
-0.037279
-0.036388
-0.043213
-0.038816
-0.040030
-0.045218
-0.037547
-0.039229
-0.041144
-0.036746
-0.044506
-0.045019
-0.037348
-0.039029
-0.041178
-0.040989
-0.041969
-0.040845
-0.040188
-0.041636
-0.041914
-0.041024
-0.040133
-0.041113
-0.039521
-0.041670
-0.044520
-0.039422
-0.039700
-0.044187
-0.039088
-0.039601
-0.044321
-0.041794
-0.041138
-0.043053
-0.040759
-0.040804
-0.042953
-0.041595
-0.041172
-0.044490
-0.043600
-0.039670
-0.040883
-0.044435
-0.042609
-0.039381
-0.041530
-0.044614
-0.042788
-0.039092
-0.041709
-0.044559
-0.041798
-0.041609
-0.042355
-0.044270
-0.044315
-0.039918
-0.042534
-0.045151
-0.040520
-0.041733
-0.045285
-0.043693
-0.041400
-0.043081
-0.043126
-0.042002
-0.044618
-0.042559
-0.041902
-0.043817
-0.042459
-0.043205
-0.044185
-0.044464
-0.043339
-0.041046
-0.043195
-0.044876
-0.044454
-0.043329
-0.041971
-0.041782
-0.044399
-0.047249
-0.042618
-0.041961
-0.045980
-0.042752
-0.044433
-0.045647
-0.040548
-0.045503
-0.048587
-0.041150
-0.043533
-0.046383
-0.041985
-0.045070
-0.045114
-0.043522
-0.048944
-0.044781
-0.039682
-0.044870
-0.043278
-0.042154
-0.047342
-0.045984
-0.043457
-0.044905
-0.043313
-0.045930
-0.048780
-0.043447
-0.044427
-0.047745
-0.044517
-0.044328
-0.045307
-0.047690
-0.047033
-0.042870
-0.046422
-0.048337
-0.046979
-0.044452
-0.041925
-0.047347
-0.046456
-0.043228
-0.048650
-0.045421
-0.044765
-0.049953
-0.047426
-0.044899
-0.044944
-0.044988
-0.045501
-0.046481
-0.047928
-0.044933
-0.045446
-0.047127
-0.045769
-0.048853
-0.046326
-0.045669
-0.048052
-0.044122
-0.048843
-0.048888
-0.044023
-0.051081
-0.048087
-0.043689
-0.048877
-0.046818
-0.048967
-0.049012
-0.042978
-0.047231
-0.049847
-0.045917
-0.044326
-0.048111
-0.048857
-0.043057
-0.049180
-0.051096
-0.044360
-0.049782
-0.048424
-0.044027
-0.048046
-0.045987
-0.048135
-0.049349
-0.048693
-0.051309
-0.043872
-0.044852
-0.052846
-0.046578
-0.047091
-0.050175
-0.046946
-0.048160
-0.049140
-0.047782
-0.046424
-0.047871
-0.049786
-0.046558
-0.050577
-0.051089
-0.046692
-0.049542
-0.050055
-0.050333
-0.049209
-0.046448
-0.049766
-0.049343
-0.049855
-0.051303
-0.046906
-0.050223
-0.050736
-0.046105
-0.050825
-0.051571
-0.048343
-0.049790
-0.049835
-0.051984
-0.049223
-0.046930
-0.052118
-0.047955
-0.047766
-0.053655
-0.047855
-0.048601
-0.053322
-0.049626
-0.049203
-0.049248
-0.051163
-0.051207
-0.048914
-0.050362
-0.047835
-0.050685
-0.053301
-0.047501
-0.051287
-0.051098
-0.047635
-0.052824
-0.050063
-0.050809
-0.054361
-0.049028
-0.051878
-0.052157
-0.048461
-0.053182
-0.051356
-0.050933
-0.052614
-0.047749
-0.052704
-0.052281
-0.047650
-0.054241
-0.051246
-0.048719
-0.053440
-0.050913
-0.052594
-0.051704
-0.048709
-0.053897
-0.051604
-0.050947
-0.055434
-0.051271
-0.050380
-0.053230
-0.052106
-0.053554
-0.052429
-0.048733
-0.052285
-0.055603
-0.050738
-0.051484
-0.057374
-0.051807
-0.049982
-0.055404
-0.051006
-0.051986
-0.056239
-0.051140
-0.053289
-0.055438
-0.052210
-0.054826
-0.053235
-0.051409
-0.054259
-0.052667
-0.053881
-0.053458
-0.051399
-0.054717
-0.053125
-0.053169
-0.054383
-0.052791
-0.057512
-0.053582
-0.049886
-0.056243
-0.051612
-0.052125
-0.057313
-0.052448
-0.055298
-0.056278
-0.051179
-0.053796
-0.055477
-0.053885
-0.052761
-0.054208
-0.056825
-0.053363
-0.054343
-0.054387
-0.051393
-0.054944
-0.055690
-0.053163
-0.056949
-0.061202
-0.063117
-0.067136
-0.070454
-0.067927
-0.063530
-0.060068
-0.051462
-0.040986
-0.035653
-0.036633
-0.038314
-0.037424
-0.037936
-0.039384
-0.064912
-0.120601
-0.156183
-0.168619
-0.180587
-0.186009
-0.197977
-0.207140
-0.229630
-0.259834
-0.211717
-0.158456
-0.192635
-0.224242
-0.247433
-0.319253
-0.387567
-0.373817
-0.284318
-0.260515
-0.371614
-0.498377
-0.514086
-0.349771
-0.089833
0.081729
0.087530
-0.096280
-0.390208
-0.676654
-0.866542
-0.639336
-0.114272
-0.055867
-0.409881
-0.826319
-1.550200
-1.839452
-1.012088
-0.262579
-0.251635
-0.337717
-0.638191
-1.276503
-1.455168
-1.175124
-0.955166
-0.334479
0.364297
0.161784
-0.268448
-0.646543
-1.449681
-1.535763
-0.516452
0.405833
0.740586
0.095729
-1.290032
-2.161673
-2.152834
-1.054031
0.962893
2.153110
1.339451
-0.563937
-1.417576
-0.585302
0.212837
0.050537
-0.469941
-0.486819
0.059754
0.343306
0.788645
1.412839
0.818949
-0.264980
-0.320201
0.173768
0.226562
0.031296
0.211042
-0.148583
-1.596535
-2.718339
-2.882743
-2.069874
-0.540885
-0.178778
-1.821015
-4.211402
-5.513464
-4.023285
-1.253767
-0.340600
-0.551062
-0.453380
-1.369208
-3.127876
-3.212088
-1.473149
-0.906235
-2.557122
-4.160549
-4.476220
-3.964015
-3.726755
-4.450168
-4.341030
-3.752607
-4.719871
-3.523341
1.090369
3.134414
1.523272
-0.368426
-1.553823
-1.393717
0.191852
2.640833
4.481942
3.102260
0.480413
-0.712232
-2.475342
-2.733733
0.677558
2.452503
1.010630
-0.503719
-1.812327
-3.221468
-3.436139
-0.801055
2.080919
2.037155
2.534630
3.725549
0.736406
-2.539606
-1.227814
-1.059291
-2.564990
-1.549419
-3.091123
-4.170610
1.894981
6.927890
6.767227
1.997718
-5.588347
-5.866376
-1.047158
1.022838
2.671298
0.365311
-7.701207
-13.393046
-12.360408
-6.574906
-2.095395
-1.274811
0.433734
3.862326
7.327625
10.892521
12.685935
11.398369
8.387950
5.953375
5.797387
5.401524
1.405416
-3.358949
-5.373158
-6.961153
-9.264101
-8.972834
-7.232492
-7.189285
-4.119805
2.876300
5.616593
6.322616
11.147679
14.253163
12.584741
10.141048
9.289279
8.096635
0.779905
-7.590082
-8.819901
-9.556640
-11.564302
-9.888722
-7.887696
-4.786186
1.120189
2.855154
1.320464
4.036910
6.783749
4.322521
3.106730
6.695240
11.338876
12.805442
7.419176
-0.453992
-4.225654
-5.953461
-6.114592
-3.179078
-0.864062
-1.430832
-3.449482
-4.276701
-2.527241
0.828874
6.973489
12.347742
9.842793
6.653754
9.372771
10.034373
6.643099
1.298215
-5.385159
-9.865460
-15.664379
-19.612090
-13.620846
-8.807473
-8.438819
-3.833058
-4.398191
-11.028959
-9.240455
-3.013777
2.530213
13.613795
24.971154
29.975539
28.251240
17.660413
5.498702
0.084146
-1.108031
-2.279867
-8.248756
-15.978606
-15.160127
-9.041463
-6.307950
-3.253434
4.319215
9.369659
6.065357
-1.042592
-6.328559
-6.922215
-1.750664
4.424344
6.596510
4.249141
-2.388876
-9.097967
-11.672120
-12.727759
-12.710269
-12.228691
-14.502181
-12.016493
0.619971
12.227259
13.586979
5.978704
-1.553354
2.093138
9.083164
6.483995
4.104829
8.073259
8.974035
6.042874
5.045684
9.183851
10.601787
0.407480
-5.212584
3.385266
8.347568
5.096572
3.349361
5.595874
11.157165
12.593570
6.698328
2.667384
-2.686618
-10.845719
-5.929008
4.513502
3.676463
0.242171
-1.910212
-2.938497
-0.533937
-5.529294
-15.368229
-17.539315
-13.827828
-8.134442
-2.463032
3.275711
3.373627
-7.292950
-10.403902
2.736161
14.644814
16.377909
10.397330
3.026592
-0.407233
-3.063214
-2.739917
8.557355
21.778546
17.166850
-1.206854
-14.995560
-22.922267
-23.627678
-13.196390
-1.654098
8.268447
16.342591
11.458287
0.613089
-1.134356
-3.338642
-13.634651
-16.568383
-2.719447
19.032304
32.820220
22.690207
-5.583175
-21.450806
-11.822144
3.416950
5.778492
-0.607491
-4.724940
-2.747060
4.776726
9.900114
3.661189
-9.438750
-21.108551
-24.060988
-11.043201
6.683964
8.378950
-2.318723
-3.697937
7.158160
10.889753
0.908903
-9.326786
-10.386633
-2.478252
7.000312
10.330242
7.876027
-1.808368
-18.300238
-30.242880
-27.752517
-12.446322
-1.466078
-8.313577
-18.102480
-13.498355
-2.427164
3.430816
7.842993
13.380670
15.093190
12.213699
1.058017
-18.042796
-30.573206
-30.431569
-27.393652
-31.198280
-35.400363
-30.552387
-26.954994
-27.672796
-26.788853
-31.368986
-36.278540
-28.286926
-8.900034
11.506915
19.799192
17.955889
19.726391
27.194299
37.334509
47.525220
50.498609
42.236402
30.453911
24.461642
23.523369
26.496991
33.882836
41.172356
41.165064
28.403663
11.598037
0.869036
-9.243208
-15.676886
-18.150038
-32.495649
-44.912901
-32.531744
-15.061989
-14.159576
-22.963023
-33.302051
-42.380677
-41.535545
-23.460957
-1.763680
6.440455
7.705020
5.358118
-8.384997
-24.729575
-29.175976
-16.438746
9.120394
29.538098
31.992223
24.130278
17.958219
17.054314
19.478280
21.371993
20.391402
18.076531
20.222044
30.055979
37.681934
34.264708
23.050812
2.106273
-28.917033
-60.137429
-86.730510
-101.655704
-97.851400
-82.945700
-59.421298
-23.035007
13.278574
37.219135
54.745702
66.678436
71.072144
70.026557
49.654588
12.529642
-4.923135
11.024132
41.153073
57.460388
39.857981
7.168402
-4.117504
7.174859
12.907056
2.857235
-10.309570
-25.966784
-38.036846
-25.418385
2.764428
21.569633
23.540265
14.117723
6.796317
-2.956347
-24.932633
-40.479495
-43.886433
-50.714293
-61.104288
-76.631511
-94.632776
-92.335763
-69.928678
-48.475251
-27.557689
-3.510983
16.487756
28.631609
24.799627
9.272171
5.199378
14.369096
23.015108
25.899420
24.996216
32.592946
46.851963
46.793936
29.322923
11.719581
6.117988
3.213246
-3.369595
-2.292302
2.929515
6.815415
9.948955
-1.977556
-27.289895
-46.820662
-46.681597
-23.939481
4.711628
35.935676
64.089030
56.826541
23.896619
-8.992856
-50.124620
-83.606303
-90.411953
-80.345389
-55.876679
-28.403675
-13.836513
-10.250576
-17.753409
-35.389482
-54.633146
-59.930569
-42.276583
-17.106248
5.240050
26.331792
43.539460
53.295775
51.996051
47.849378
39.535970
24.947444
28.972920
34.685946
10.309497
-16.332682
-22.002310
-5.193734
26.663437
47.776454
51.888435
39.715970
16.104973
5.878870
8.912578
9.155449
0.979514
-23.030341
-53.671621
-70.894342
-64.719801
-31.057715
7.414983
16.770803
5.638268
0.604568
3.521846
6.910692
6.166939
6.473402
21.882701
42.423850
46.453302
39.565823
32.716454
32.471623
44.176405
41.883978
5.132640
-39.353647
-68.303171
-75.250735
-50.245695
-11.300258
9.192728
9.292515
-6.200105
-28.788940
-28.893025
-7.531014
2.731005
-2.719555
-13.133398
-24.272713
-30.571022
-30.549090
-20.274680
1.293306
23.464490
41.492085
48.592931
36.527544
20.075887
12.251116
-0.674878
-28.290588
-47.625667
-35.763306
-4.820283
26.076215
42.252135
32.921008
11.357608
-2.930489
-0.001756
12.388286
18.257721
23.501749
28.398354
27.375914
21.501479
-3.218885
-31.874759
-38.734182
-42.397129
-46.946868
-33.792777
-1.296171
39.570845
58.438473
38.748256
8.109548
-0.800043
14.052351
25.864445
16.911134
-9.984246
-44.437124
-54.320480
-26.372166
3.782961
15.167440
13.678574
-1.015395
-17.331917
-13.878309
-1.443144
-5.388050
-19.599228
-29.421797
-23.912643
0.679979
-1.165895
-52.191258
-85.643249
-67.358010
-40.744444
-25.113973
-11.292858
-9.982236
-23.641184
-25.091473
-8.520202
-7.277380
-22.249334
-25.098666
-25.671748
-26.799163
-15.618088
-13.051973
-13.029807
7.230317
25.936158
28.993480
24.568355
22.615401
25.234821
18.404156
10.201334
17.447601
38.032705
66.402088
83.541019
70.882956
30.903813
-17.428439
-49.476477
-58.621035
-51.379209
-37.036259
-24.628683
-10.584058
10.941611
31.095124
33.511374
25.188147
21.780507
8.006998
-22.291068
-46.592468
-53.452826
-39.818282
-2.337586
46.981435
79.966444
84.797118
74.841752
44.338178
-7.468769
-34.117961
-16.153725
6.422863
8.562531
3.420115
12.266725
38.747728
63.224620
75.819468
78.249278
57.905832
17.328869
-7.443399
2.823530
14.108879
-12.086980
-53.038253
-60.316406
-29.885399
0.594004
2.419449
-6.944878
-6.986305
-8.007576
-1.946894
20.927785
38.264977
44.071755
48.550097
53.420750
67.742425
91.006844
96.780423
67.622119
23.328013
-7.625620
-20.446873
-14.818015
10.990586
37.779266
45.145939
44.159036
57.224752
75.883599
74.879395
56.905017
38.268057
25.326165
27.600266
40.520793
42.986608
34.167263
24.596260
20.362614
18.713363
0.185821
-30.861098
-44.889914
-37.584729
-18.407787
0.996640
6.944164
9.411849
20.312602
32.169118
39.335894
36.323138
15.854377
-19.998479
-60.897147
-91.826232
-109.427937
-121.326159
-126.716165
-133.455182
-155.517974
-188.403474
-223.496021
-236.760787
-197.958669
-139.825257
-121.938409
-137.941408
-142.616931
-118.073173
-72.540031
-18.974083
29.315061
70.207794
101.699540
99.898789
68.802071
47.407005
40.906929
40.257863
45.680044
47.433011
46.939420
57.833393
92.420147
127.835244
124.700680
113.931699
117.469241
101.934069
84.540677
79.072582
57.449329
31.722935
30.367801
52.607020
71.953933
68.250539
55.816688
54.965388
61.249580
43.702349
-8.721823
-70.725370
-126.931914
-157.016289
-137.299041
-85.431163
-45.273020
-46.824310
-64.365462
-44.727238
13.096158
78.277622
130.576155
151.458648
148.454543
162.075527
202.321811
236.560206
246.163150
235.812433
217.799244
207.135005
202.495721
197.191518
198.363031
203.859326
200.125072
189.343934
176.570843
145.110571
78.604088
-0.797950
-41.294486
-25.942000
-0.478249
-11.392418
-54.774948
-97.909887
-117.958047
-110.367396
-79.028554
-40.004562
-19.201326
-20.018024
-11.324084
21.293863
42.077927
24.715396
-11.146811
-52.693798
-107.512522
-164.873790
-213.355906
-264.560591
-299.248669
-278.229638
-234.529701
-212.772338
-186.651383
-147.647966
-131.048638
-144.527797
-165.170737
-172.559711
-169.736186
-162.824482
-145.062013
-125.409294
-116.061422
-107.054661
-90.494846
-79.014977
-83.399422
-97.212209
-110.077182
-111.289466
-111.657507
-136.926828
-162.174406
-147.353808
-107.652505
-68.830982
-25.555153
20.418463
39.646139
42.795811
69.123209
83.475511
52.541282
17.142929
-15.508541
-61.025874
-92.862560
-107.446644
-117.391723
-98.131315
-58.333220
-49.746125
-65.063632
-66.843107
-64.659018
-65.120111
-50.873719
-29.594706
-19.279849
-14.501312
-4.741957
9.864950
29.535204
56.404544
84.682746
101.502310
102.466679
101.577504
111.511738
121.604488
119.904036
117.360510
123.040336
126.198659
116.992146
103.391880
101.647942
113.329811
133.018535
162.311651
190.191697
202.781869
204.591415
204.747079
207.277656
199.303955
170.339936
140.778799
113.140878
73.959685
48.975363
50.231511
56.237017
74.778966
106.342721
115.634715
98.361260
75.234224
57.110449
63.405396
96.588664
129.027289
140.381842
122.871551
89.762073
66.278262
52.526262
39.509555
25.483077
13.652890
14.226117
20.666485
18.959253
12.452162
1.911836
-14.485346
-30.293126
-45.671186
-64.251566
-83.603712
-96.504456
-90.374337
-62.608852
-31.692248
-19.388945
-33.930245
-64.467953
-87.326356
-89.655489
-78.427654
-67.911732
-74.175439
-99.971505
-126.653663
-155.798874
-206.165630
-252.535388
-260.764161
-245.670956
-221.956710
-179.330838
-126.455059
-91.971410
-88.093226
-97.971205
-100.252877
-105.004150
-131.921274
-155.530868
-144.037205
-119.544648
-102.566336
-74.618489
-36.980681
-15.820904
-9.022358
4.055748
28.646266
62.664425
95.323520
111.910690
119.690951
129.691584
134.253391
113.703736
51.034334
-39.974335
-110.933720
-115.805165
-71.951389
-54.637811
-87.517700
-124.701563
-132.931739
-105.882610
-56.421440
-16.647894
-1.566145
7.325120
21.461160
25.474947
15.003824
5.198789
9.945764
37.818094
85.165035
136.016129
159.502423
133.378573
88.521717
68.612666
70.242656
65.839508
53.077639
52.290399
60.012210
65.942901
83.378521
106.771763
121.218753
136.837300
158.879194
175.340815
169.495839
139.563431
111.949124
114.544930
144.440776
163.626836
151.610313
139.357655
151.276595
176.797158
197.918125
203.584624
191.277492
163.100201
141.686197
150.700673
163.694847
143.028760
94.578441
37.932826
-24.843421
-85.396023
-113.125826
-101.219979
-80.441291
-59.632444
-27.620032
4.804097
27.361747
39.550489
34.005007
14.019037
-9.906183
-36.870534
-66.248842
-95.124252
-123.011400
-155.165349
-183.634887
-180.406893
-151.777527
-134.935752
-132.559481
-130.739181
-138.366394
-165.620419
-202.871382
-226.016889
-220.751819
-201.625377
-193.629555
-207.466657
-231.700724
-240.439643
-223.270551
-192.755377
-166.123108
-157.125699
-157.870154
-147.128383
-126.822200
-109.992816
-100.313421
-95.354158
-83.364144
-58.474365
-32.765829
-17.118758
-11.379781
-4.959052
12.542733
25.521008
14.114930
-4.882545
-12.755245
-19.677325
-24.884035
-12.009566
11.972845
25.573021
25.273015
20.977880
15.070246
6.313793
3.196061
13.601164
35.029807
64.830965
105.389602
156.517279
201.895179
216.885981
199.762391
169.260220
142.340992
129.496826
131.212854
142.891684
153.415555
146.436195
126.097892
108.500628
102.384214
113.082965
134.186631
157.452453
171.681310
152.092795
111.795220
99.403219
114.786099
116.148625
95.166211
74.830948
60.853567
49.629150
48.703735
52.070839
46.239656
39.397535
39.428351
40.672108
43.258329
43.092522
29.237417
7.566704
-13.008435
-40.493453
-79.788739
-118.512391
-141.191004
-146.330147
-144.496519
-147.231524
-161.294007
-180.103276
-187.528254
-172.964599
-135.182071
-89.131536
-63.794036
-69.793786
-82.797167
-79.464432
-68.443741
-62.736327
-55.593164
-41.133549
-25.712794
-10.433953
19.040589
64.956457
104.146211
125.910354
140.838265
155.390697
161.319517
142.752696
99.873999
49.757874
15.034961
10.174037
21.362361
37.773247
62.749531
78.978056
74.896144
65.144416
49.776877
16.943046
-21.479709
-54.628465
-84.405631
-89.857594
-63.070551
-36.853272
-28.689818
-31.144266
-35.415085
-29.346455
-6.648759
22.039523
36.790683
28.209577
6.842800
-7.333308
-4.217302
7.211598
13.522443
8.396861
-10.529774
-42.419064
-79.588198
-108.389260
-122.998127
-131.755048
-138.175634
-128.358765
-96.193683
-58.319974
-26.011808
-2.699928
6.407132
14.409033
35.184213
59.365118
78.837346
89.502665
76.017662
34.417602
-12.344935
-42.426739
-50.984932
-39.866748
-19.594700
-2.136167
6.419599
-6.400953
-36.864080
-53.256118
-51.566978
-65.083778
-102.489514
-136.346910
-145.888221
-133.938888
-108.011751
-73.929532
-52.793135
-56.330298
-57.026825
-40.602846
-29.658139
-29.305384
-30.064334
-36.723393
-42.578422
-32.985064
-17.286557
-4.276720
11.980328
26.640775
44.214336
74.455266
103.108712
131.677758
158.273321
152.744439
133.677760
135.914453
141.296655
133.228033
111.217379
75.935223
47.875532
42.615984
51.605444
63.272818
71.000942
70.222820
60.277039
43.623849
25.460095
6.878311
-17.079875
-37.846494
-39.799447
-26.605143
-15.347616
-16.470121
-20.590609
-9.382880
19.932446
49.145837
52.416616
27.363792
-2.903647
-22.062676
-25.251014
-18.342583
-15.858064
-17.826682
-13.603179
-4.631722
2.349888
10.957557
21.974039
23.084999
11.959478
-2.328853
-25.313507
-60.853775
-83.248792
-69.445914
-33.122047
3.785846
31.052407
34.470011
11.241273
-17.524954
-34.602953
-36.940971
-32.165239
-30.945563
-24.874828
-5.613251
10.533912
13.522965
9.455316
1.730843
-4.139851
