EVENT_NAME: 202302060117
EVENT_ID: 13194
EVENT_DATE_YYYYMMDD: 2023/02/06
EVENT_TIME_HHMMSS: 01:17:32.00000
EVENT_LATITUDE_DEGREE: 37.288
EVENT_LONGITUDE_DEGREE: 37.043
EVENT_DEPTH_KM: 8.6
HYPOCENTER_REFERENCE: AFAD
MAGNITUDE_W: 7.7
MAGNITUDE_W_REFERENCE: AFAD
MAGNITUDE_L: 
MAGNITUDE_L_REFERENCE: 
FOCAL_MECHANISM: 
NETWORK: TK
STATION_CODE: 1910
STATION_NAME: 
STATION_LATITUDE_DEGREE: 40.02767
STATION_LONGITUDE_DEGREE: 34.60089
STATION_ELEVATION_M: 210.0
LOCATION: Kahramanmaras_Pazarck_Turkiye
SENSOR_DEPTH_M: 
VS30_M/S: None
SITE_CLASSIFICATION_EC8: unknown
MORPHOLOGIC_CLASSIFICATION: 
EPICENTRAL_DISTANCE_KM: 371.14
EARTHQUAKE_BACKAZIMUTH_DEGREE: 
DATE_TIME_FIRST_SAMPLE_YYYYMMDD_HHMMSS: 2023/02/06 01:17:59.3901740
DATE_TIME_FIRST_SAMPLE_PRECISION: millisecond
SAMPLING_INTERVAL_S: 0.01
NDATA: 21001
DURATION_S: 
STREAM: HNZ
UNITS: cm/s^2
INSTRUMENT: sensor = ACEBOX/SARA | digitizer = 
INSTRUMENT_ANALOG/DIGITAL: 
INSTRUMENTAL_FREQUENCY_HZ: 
INSTRUMENTAL_DAMPING: 
FULL_SCALE_G: 
N_BIT_DIGITAL_CONVERTER: 
PGA_CM/S^2: 2.264
TIME_PGA_S: 
BASELINE_CORRECTION: BASELINE REMOVED
FILTER_TYPE: BUTTERWORTH
FILTER_ORDER: 
LOW_CUT_FREQUENCY_HZ: 
HIGH_CUT_FREQUENCY_HZ: 
LATE/NORMAL_TRIGGERED: 
DATABASE_VERSION: 
HEADER_FORMAT: DYNA 1.2
DATA_TYPE: Acceleration
PROCESSING: Automatic Paolucci et al., 2011
DATA_TIMESTAMP_YYYYMMDD_HHMMSS: 
DATA_LICENSE: U (unknown license)
DATA_CITATION: Turkish Accelerometric Archive v 1.0 - Disaster And Emergency Management Presidency, Earthquake Department
DATA_CREATOR: AFAD
ORIGINAL_DATA_MEDIATOR_CITATION: : AFAD - Disaster And Emergency Management Presidency
ORIGINAL_DATA_MEDIATOR: AFAD PROCESS SERVICE
ORIGINAL_DATA_CREATOR_CITATION: AFAD PROCESS SERVICE
ORIGINAL_DATA_CREATOR: network: TK
USER1: GuestUser
USER2: 
USER3: 
USER4: 
USER5: 
[...]
-0.097718
-0.102394
-0.123904
-0.150324
-0.196383
-0.254832
-0.321231
-0.403762
-0.494476
-0.590801
-0.688296
-0.782516
-0.876036
-0.957866
-1.023096
-1.078740
-1.126201
-1.170390
-1.216448
-1.260870
-1.300850
-1.339661
-1.377771
-1.406996
-1.426636
-1.434352
-1.428507
-1.417987
-1.392737
-1.346212
-1.295479
-1.242408
-1.179984
-1.110313
-1.030355
-0.937772
-0.832330
-0.717770
-0.600171
-0.481636
-0.364037
-0.249710
-0.144502
-0.050516
0.036923
0.120154
0.209698
0.300645
0.392994
0.494929
0.588214
0.671912
0.747194
0.797694
0.825749
0.830658
0.812188
0.781092
0.746723
0.712355
0.686402
0.679154
0.675179
0.668866
0.665826
0.654369
0.642211
0.632859
0.619064
0.612751
0.609010
0.602696
0.600358
0.601760
0.609709
0.625840
0.646881
0.678911
0.726137
0.784586
0.851451
0.922993
1.000379
1.076129
1.145566
1.215471
1.271581
1.310391
1.336576
1.336809
1.316702
1.279995
1.219909
1.149535
1.072381
0.985174
0.896331
0.812163
0.734542
0.660895
0.595198
0.537215
0.481337
0.435746
0.406988
0.388050
0.382906
0.388517
0.399738
0.421715
0.455147
0.498866
0.554276
0.623947
0.700164
0.775680
0.850027
0.921568
0.990070
1.045480
1.092472
1.135724
1.163312
1.180612
1.185755
1.176169
1.160971
1.125200
1.082180
1.038694
0.972295
0.903791
0.843705
0.771929
0.701555
0.643573
0.583252
0.527140
0.481082
0.434088
0.395978
0.363012
0.322799
0.296145
0.278376
0.263412
0.266919
0.275101
0.289596
0.319287
0.342433
0.361370
0.379372
0.377968
0.369551
0.359029
0.331908
0.300111
0.267145
0.225061
0.182977
0.147907
0.110265
0.063505
0.016979
-0.033522
-0.096882
-0.163281
-0.243474
-0.335591
-0.421862
-0.506030
-0.572897
-0.610071
-0.618956
-0.591836
-0.531517
-0.435895
-0.310814
-0.175212
-0.027219
0.120541
0.246557
0.353869
0.439672
0.494380
0.519162
0.517992
0.489468
0.431720
0.351994
0.246084
0.111650
-0.034708
-0.188781
-0.349634
-0.508617
-0.661053
-0.800163
-0.928986
-1.044483
-1.141509
-1.229885
-1.304233
-1.358007
-1.397753
-1.420666
-1.428148
-1.417628
-1.389573
-1.350997
-1.290911
-1.218201
-1.148296
-1.074885
-1.015267
-0.975288
-0.950974
-0.954715
-0.976225
-1.012231
-1.064368
-1.118843
-1.175189
-1.230833
-1.278295
-1.319444
-1.359891
-1.395429
-1.424420
-1.451074
-1.473052
-1.490587
-1.499472
-1.494796
-1.483341
-1.459728
-1.420918
-1.371822
-1.309866
-1.239961
-1.163276
-1.082149
-1.002191
-0.919895
-0.839469
-0.761849
-0.685632
-0.624144
-0.578086
-0.537874
-0.510053
-0.498130
-0.495091
-0.498598
-0.509821
-0.527824
-0.544191
-0.555881
-0.564766
-0.564533
-0.559156
-0.556351
-0.544428
-0.529466
-0.523855
-0.522687
-0.526428
-0.536716
-0.550043
-0.557525
-0.557993
-0.549109
-0.522691
-0.479673
-0.432446
-0.377504
-0.307600
-0.232785
-0.158204
-0.087832
-0.025409
0.026260
0.060394
0.084942
0.100372
0.099670
0.094759
0.079562
0.053610
0.035373
0.011525
-0.011388
-0.016765
-0.021676
-0.019338
-0.003908
0.008950
0.023445
0.040044
0.053837
0.065293
0.068799
0.067629
0.060615
0.046586
0.029752
0.002164
-0.031738
-0.062132
-0.090889
-0.113568
-0.127831
-0.131338
-0.120350
-0.096504
-0.059330
-0.016546
0.023433
0.064814
0.110638
0.161371
0.226600
0.305389
0.393530
0.498738
0.616338
0.733002
0.849900
0.967733
1.074344
1.163888
1.234728
1.280785
1.302060
1.301592
1.276341
1.222801
1.143076
1.043478
0.926111
0.789806
0.641344
0.487271
0.336705
0.198063
0.070175
-0.040879
-0.134165
-0.214592
-0.275847
-0.321438
-0.356041
-0.380824
-0.399528
-0.415427
-0.434131
-0.454706
-0.469670
-0.478555
-0.488375
-0.491648
-0.481128
-0.463828
-0.439747
-0.412160
-0.381533
-0.349737
-0.331268
-0.319578
-0.309760
-0.305318
-0.296668
-0.289889
-0.288486
-0.290591
-0.307425
-0.334312
-0.372890
-0.425962
-0.479502
-0.545200
-0.624458
-0.696234
-0.762633
-0.829500
-0.880702
-0.910863
-0.927229
-0.925827
-0.903850
-0.869483
-0.814541
-0.739025
-0.647845
-0.538662
-0.422933
-0.301593
-0.175343
-0.057977
0.052141
0.155946
0.246191
0.319837
0.382494
0.434162
0.466192
0.486532
0.498922
0.494246
0.479282
0.454032
0.414285
0.368461
0.308374
0.234494
0.160847
0.082758
0.002565
-0.074121
-0.151976
-0.220947
-0.281969
-0.333872
-0.360994
-0.373385
-0.372918
-0.348370
-0.310262
-0.266075
-0.216744
-0.161802
-0.100314
-0.041866
0.014713
0.077136
0.141897
0.207827
0.274693
0.340857
0.404449
0.465002
0.529062
0.588446
0.645258
0.713059
0.771741
0.824579
0.885833
0.937268
0.983091
1.029850
1.064919
1.093442
1.117055
1.133186
1.145343
1.155396
1.167786
1.177372
1.185320
1.193970
1.191164
1.178071
1.157028
1.120555
1.076133
1.022827
0.949414
0.869922
0.794873
0.720524
0.655996
0.605729
0.567385
0.547045
0.538393
0.536055
0.547043
0.561771
0.584449
0.621622
0.663471
0.715608
0.778265
0.847936
0.926725
0.998967
1.067469
1.131062
1.181094
1.219202
1.233697
1.225747
1.198626
1.141813
1.069569
0.987038
0.880659
0.756980
0.626521
0.483670
0.331701
0.184408
0.042960
-0.090772
-0.208373
-0.303295
-0.366889
-0.404998
-0.410376
-0.375307
-0.312416
-0.221236
-0.102701
0.026822
0.159618
0.292414
0.424743
0.549356
0.663682
0.776372
0.877839
0.962707
1.041263
1.109998
1.165174
1.206555
1.238585
1.263133
1.272718
1.269678
1.261962
1.242790
1.209123
1.170078
1.127059
1.069544
0.996365
0.914769
0.824289
0.722821
0.621352
0.525261
0.432910
0.352016
0.282343
0.224829
0.181108
0.137154
0.096706
0.060467
0.015343
-0.024870
-0.059707
-0.100856
-0.132653
-0.150656
-0.161645
-0.153930
-0.132421
-0.109276
-0.074441
-0.040541
-0.022305
-0.000563
0.019543
0.029362
0.049702
0.076588
0.099500
0.129425
0.157480
0.180392
0.207278
0.220837
0.223409
0.230422
0.229486
0.221303
0.211483
0.191142
0.171736
0.154668
0.127313
0.097854
0.061615
0.013218
-0.038919
-0.097135
-0.159560
-0.225257
-0.293761
-0.358991
-0.424454
-0.473786
-0.509324
-0.545563
-0.564501
-0.581102
-0.607287
-0.627395
-0.648437
-0.668077
-0.683508
-0.699874
-0.705720
-0.707123
-0.707124
-0.694967
-0.681641
-0.665743
-0.638623
-0.610335
-0.573395
-0.527338
-0.486891
-0.438262
-0.370695
-0.300791
-0.225275
-0.133627
-0.036601
0.062060
0.165632
0.266398
0.362488
0.456708
0.539471
0.610545
0.673670
0.724637
0.762278
0.784020
0.786124
0.776538
0.751755
0.698682
0.630413
0.554662
0.466286
0.373935
0.275973
0.170297
0.069529
-0.025393
-0.120081
-0.216874
-0.305718
-0.381469
-0.451375
-0.507954
-0.551675
-0.589784
-0.616438
-0.631635
-0.629298
-0.608958
-0.577630
-0.530403
-0.471020
-0.404622
-0.326300
-0.248680
-0.179243
-0.116820
-0.065619
-0.024003
0.009663
0.027431
0.032574
0.026962
0.012466
-0.014421
-0.059311
-0.111448
-0.171769
-0.244480
-0.317192
-0.388734
-0.456536
-0.510076
-0.552160
-0.587932
-0.617625
-0.636329
-0.654098
-0.673037
-0.683090
-0.695950
-0.706004
-0.708342
-0.709746
-0.695485
-0.672807
-0.652467
-0.620438
-0.581628
-0.536739
-0.481798
-0.425219
-0.362562
-0.298970
-0.240521
-0.179968
-0.121052
-0.069150
-0.024495
0.007768
0.031849
0.056397
0.076737
0.090998
0.106662
0.124664
0.140327
0.152718
0.162537
0.172590
0.172355
0.158561
0.141025
0.115073
0.078366
0.035581
-0.014219
-0.066590
-0.120831
-0.176242
-0.226977
-0.278646
-0.325874
-0.360710
-0.395313
-0.425240
-0.440905
-0.450023
-0.444413
-0.419631
-0.381523
-0.331491
-0.277718
-0.212489
-0.141181
-0.081096
-0.017971
0.043049
0.096588
0.155271
0.197587
0.227980
0.264452
0.284792
0.290870
0.295545
0.289934
0.274269
0.244810
0.206700
0.166252
0.112946
0.057068
0.000255
-0.065209
-0.129738
-0.197540
-0.265575
-0.327532
-0.392528
-0.448874
-0.495868
-0.540056
-0.573022
-0.606222
-0.641994
-0.670751
-0.698574
-0.718915
-0.727332
-0.725462
-0.703720
-0.666313
-0.617684
-0.553156
-0.474133
-0.382018
-0.279849
-0.172069
-0.057041
0.057519
0.169741
0.277287
0.368935
0.450997
0.528851
0.595483
0.653464
0.707938
0.758438
0.797949
0.826004
0.852890
0.870892
0.883282
0.905259
0.926767
0.944535
0.965577
0.987085
1.011166
1.042494
1.076628
1.108190
1.143960
1.181133
1.207552
1.229996
1.249400
1.255245
1.261323
1.277688
1.291248
1.311821
1.349930
1.385466
1.421938
1.474776
1.525275
1.571333
1.619027
1.650589
1.668591
1.681916
1.687293
1.687293
1.676304
1.648715
1.616216
1.580211
1.537426
1.494874
1.451387
1.406731
1.369089
1.332149
1.298481
1.274633
1.244473
1.205194
1.157031
1.097179
1.038495
0.975603
0.905697
0.833921
0.754195
0.673534
0.591237
0.507537
0.436930
0.368660
0.295247
0.227679
0.169697
0.119196
0.072670
0.032690
0.002764
-0.022020
-0.038854
-0.049375
-0.056390
-0.049610
-0.028803
-0.004722
0.024969
0.061441
0.100952
0.143503
0.185586
0.224863
0.262504
0.297807
0.329369
0.359060
0.381504
0.395999
0.409091
0.411896
0.401375
0.385242
0.353211
0.306217
0.255015
0.192123
0.122919
0.050675
-0.026479
-0.097320
-0.166759
-0.239236
-0.301427
-0.358942
-0.409443
-0.444513
-0.472569
-0.491507
-0.498756
-0.501796
-0.501329
-0.492445
-0.479353
-0.466261
-0.462988
-0.474912
-0.489408
-0.513724
-0.549262
-0.582695
-0.625247
-0.663590
-0.695154
-0.730691
-0.752669
-0.771841
-0.785636
-0.778155
-0.768570
-0.750334
-0.715966
-0.678559
-0.637646
-0.590887
-0.543894
-0.502512
-0.467444
-0.441726
-0.424894
-0.418582
-0.423726
-0.433546
-0.449445
-0.463707
-0.469319
-0.473294
-0.469554
-0.455994
-0.441967
-0.425602
-0.406197
-0.389130
-0.376272
-0.360842
-0.344243
-0.333021
-0.327177
-0.331386
-0.349857
-0.376043
-0.413451
-0.465822
-0.516790
-0.564486
-0.615220
-0.658941
-0.694245
-0.716924
-0.727679
-0.730485
-0.716224
-0.693313
-0.666427
-0.634631
-0.601666
-0.558648
-0.506044
-0.444790
-0.366702
-0.281367
-0.186212
-0.078198
0.033323
0.153728
0.281848
0.403188
0.521957
0.639088
0.744063
0.835711
0.913798
0.974351
1.020876
1.047996
1.049866
1.031863
0.987675
0.921977
0.849266
0.755980
0.641185
0.519142
0.386578
0.242091
0.091759
-0.058106
-0.203996
-0.339365
-0.458602
-0.554694
-0.617352
-0.656397
-0.665749
-0.628576
-0.565217
-0.477077
-0.355269
-0.211016
-0.050164
0.120039
0.296556
0.475644
0.645848
0.808804
0.959602
1.094970
1.214908
1.308660
1.383474
1.435143
1.455950
1.456651
1.432803
1.392356
1.349103
1.290653
1.216772
1.139385
1.054749
0.957723
0.857190
0.759462
0.652148
0.547173
0.454121
0.357562
0.269420
0.193435
0.118152
0.051285
-0.016751
-0.083383
-0.143938
-0.209869
-0.274631
-0.334250
-0.389427
-0.441564
-0.496274
-0.540462
-0.578805
-0.623695
-0.659934
-0.689861
-0.722827
-0.759767
-0.797877
-0.826868
-0.859367
-0.893268
-0.911271
-0.927404
-0.936288
-0.934419
-0.936290
-0.937693
-0.940265
-0.945410
-0.946345
-0.956633
-0.978611
-1.009239
-1.047348
-1.094108
-1.157000
-1.227608
-1.302657
-1.384487
-1.459069
-1.523831
-1.582515
-1.625300
-1.648213
-1.659202
-1.652189
-1.620861
-1.583454
-1.539033
-1.476376
-1.405302
-1.325578
-1.235800
-1.141580
-1.038476
-0.926488
-0.812863
-0.699472
-0.582808
-0.465442
-0.357429
-0.257364
-0.161274
-0.078978
-0.007436
0.060598
0.113669
0.146167
0.171650
0.191990
0.197366
0.198769
0.199236
0.193858
0.183570
0.167671
0.156682
0.144524
0.124417
0.113895
0.108985
0.106179
0.111556
0.120907
0.138909
0.162288
0.188239
0.224477
0.255805
0.285263
0.326644
0.357505
0.372234
0.385326
0.382753
0.359840
0.326407
0.275205
0.213248
0.149421
0.078346
0.012414
-0.043698
-0.099342
-0.147973
-0.183510
-0.206423
-0.217880
-0.216244
-0.192631
-0.154756
-0.103322
-0.025000
0.058465
0.146372
0.256490
0.363101
0.467842
0.581934
0.676855
0.759385
0.844487
0.909715
0.955072
0.985698
0.994816
0.989204
0.966993
0.919064
0.846820
0.755872
0.644818
0.514124
0.371274
0.221643
0.071311
-0.071774
-0.195687
-0.294116
-0.370802
-0.419433
-0.435332
-0.425980
-0.400965
-0.359817
-0.298095
-0.225852
-0.145193
-0.057286
0.030388
0.126945
0.218827
0.299487
0.386692
0.464079
0.529074
0.587522
0.624228
0.654153
0.680338
0.688520
0.688754
0.687818
0.685479
0.677997
0.663501
0.653214
0.638717
0.611830
0.588917
0.573252
0.548236
0.521348
0.504982
0.484407
0.457754
0.432970
0.400706
0.366337
0.330098
0.279597
0.226291
0.168308
0.093493
0.011897
-0.076947
-0.175610
-0.283157
-0.399355
-0.519995
-0.642038
-0.758703
-0.864380
-0.953925
-1.023831
-1.073630
-1.095842
-1.096544
-1.072697
-1.026406
-0.964450
-0.880751
-0.794948
-0.681090
-0.553437
-0.444956
-0.296027
-0.182636
-0.087481
0.068928
0.129715
0.180916
0.283552
0.267654
0.268121
0.297812
0.241700
0.191200
0.118020
0.011876
-0.091697
-0.219351
-0.335315
-0.452682
-0.581037
-0.701911
-0.827227
-0.931501
-1.020812
-1.110357
-1.187277
-1.264664
-1.339948
-1.409854
-1.472980
-1.523480
-1.569773
-1.603674
-1.622612
-1.634536
-1.633602
-1.617003
-1.583804
-1.534240
-1.467842
-1.378064
-1.275662
-1.166713
-1.039528
-0.903458
-0.771597
-0.636463
-0.502498
-0.377885
-0.256778
-0.136373
-0.020410
0.092279
0.194448
0.284460
0.362080
0.420762
0.462144
0.484821
0.490666
0.484586
0.458868
0.421928
0.387325
0.343604
0.287492
0.223197
0.143940
0.047615
-0.066012
-0.192496
-0.330437
-0.481939
-0.633674
-0.786812
-0.946262
-1.096828
-1.241549
-1.387907
-1.527718
-1.660749
-1.786767
-1.902497
-2.005836
-2.094679
-2.164352
-2.211813
-2.248052
-2.263717
-2.248989
-2.219297
-2.170902
-2.102400
-2.026884
-1.930560
-1.819740
-1.714766
-1.598803
-1.479333
-1.374125
-1.267047
-1.164176
-1.075100
-0.992804
-0.929913
-0.889935
-0.866789
-0.866556
-0.889001
-0.932254
-0.995146
-1.073703
-1.166755
-1.267990
-1.365951
-1.459938
-1.546210
-1.615882
-1.671994
-1.714312
-1.734186
-1.738161
-1.728108
-1.700053
-1.664049
-1.619628
-1.562114
-1.506471
-1.456439
-1.405940
-1.366662
-1.334399
-1.298395
-1.266365
-1.229659
-1.185706
-1.139181
-1.082135
-1.015036
-0.937182
-0.843430
-0.738923
-0.628104
-0.518220
-0.408102
-0.297049
-0.195114
-0.098556
-0.006207
0.072816
0.143890
0.215197
0.287440
0.361553
0.438238
0.526145
0.622002
0.717858
0.815818
0.912610
1.000283
1.078371
1.148510
1.211167
1.261199
1.303048
1.346533
1.386512
1.417373
1.446831
1.475821
1.501538
1.521644
1.533099
1.546659
1.563492
1.565128
1.564426
1.570036
1.565827
1.566061
1.574944
1.580789
1.595751
1.616325
1.639236
1.665655
1.683657
1.696515
1.708905
1.704696
1.685057
1.654195
1.604629
1.534723
1.448685
1.355166
1.253931
1.141240
1.026679
0.912352
0.794751
0.679956
0.565862
0.454340
0.347261
0.248364
0.161624
0.083068
0.019474
-0.030559
-0.067266
-0.084333
-0.092984
-0.085036
-0.058384
-0.028692
0.019236
0.083296
0.150629
0.234327
0.326677
0.420663
0.516051
0.603023
0.689995
0.765511
0.812036
0.843365
0.847572
0.821386
0.780004
0.706123
0.603018
0.488691
0.348879
0.188026
0.020860
-0.151215
-0.323290
-0.499574
-0.671416
-0.828294
-0.977458
-1.111892
-1.225050
-1.322544
-1.408816
-1.482930
-1.535535
-1.565228
-1.578555
-1.565931
-1.525952
-1.462360
-1.368140
-1.248670
-1.112133
-0.954788
-0.785753
-0.616952
-0.452593
-0.298054
-0.157075
-0.031526
0.076254
0.163226
0.227519
0.271239
0.298592
0.312386
0.315658
0.310047
0.291810
0.264455
0.236633
0.196185
0.141476
0.093781
0.048657
-0.004415
-0.058189
-0.107755
-0.153112
-0.199405
-0.243359
-0.285210
-0.325423
-0.360493
-0.398135
-0.427361
-0.437181
-0.442325
-0.437883
-0.426428
-0.410530
-0.381774
-0.354186
-0.325196
-0.288958
-0.255759
-0.221392
-0.181179
-0.135356
-0.085557
-0.032252
0.032743
0.101946
0.170682
0.246198
0.327325
0.409855
0.486072
0.550599
0.599696
0.625413
0.632193
0.618398
0.574678
0.516228
0.444685
0.355608
0.262322
0.161087
0.059151
-0.029459
-0.111288
-0.177454
-0.231695
-0.280793
-0.309083
-0.327788
-0.335270
-0.320541
-0.302072
-0.266769
-0.201540
-0.124388
-0.029466
0.087899
0.214850
0.352556
0.498212
0.643399
0.783209
0.913200
1.025188
1.113329
1.178090
1.219940
1.237240
1.226251
1.186972
1.131562
1.056278
0.955745
0.846795
0.728960
0.597800
0.462197
0.322385
0.185379
0.063103
-0.046549
-0.141003
-0.208805
-0.243408
-0.252293
-0.235694
-0.185428
-0.109678
-0.007743
0.122248
0.262525
0.416130
0.579553
0.740171
0.900556
1.043639
1.165914
1.280474
1.374928
1.449742
1.510062
1.550508
1.570848
1.570379
1.555883
1.521982
1.463766
1.397133
1.314836
1.214303
1.103248
0.974425
0.834848
0.694335
0.548445
0.407465
0.280045
0.166886
0.067989
-0.008229
-0.056860
-0.085150
-0.096373
-0.090996
-0.075098
-0.052421
-0.022963
0.006261
0.035953
0.077802
0.121288
0.166644
0.232107
0.303414
0.376124
0.461694
0.547964
0.638209
0.735235
0.837637
0.950561
1.059977
1.169628
1.285590
1.387058
1.477537
1.564509
1.630205
1.669249
1.692394
1.700810
1.677664
1.630904
1.575025
1.499275
1.404586
1.298441
1.177100
1.044536
0.899582
0.738962
0.569459
0.397851
0.223671
0.052765
-0.097567
-0.229430
-0.340250
-0.419040
-0.478426
-0.511859
-0.512561
-0.499937
-0.468608
-0.413900
-0.347269
-0.269883
-0.192496
-0.118617
-0.044504
0.014413
0.056729
0.094838
0.113073
0.102786
0.081276
0.044569
-0.015752
-0.090801
-0.178709
-0.279710
-0.392635
-0.513743
-0.639292
-0.771622
-0.906991
-1.039088
-1.163936
-1.278497
-1.379732
-1.459691
-1.520713
-1.566304
-1.585944
-1.583606
-1.566773
-1.524924
-1.465073
-1.393765
-1.296740
-1.180076
-1.058735
-0.928277
-0.783791
-0.642578
-0.513756
-0.381194
-0.255178
-0.147866
-0.048502
0.035197
0.093879
0.134092
0.152795
0.147417
0.120997
0.072601
0.005033
-0.074927
-0.171719
-0.293996
-0.425624
-0.557954
-0.704312
-0.857216
-1.001937
-1.138242
-1.261687
-1.369001
-1.450830
-1.497123
-1.520035
-1.517698
-1.479824
-1.413893
-1.325051
-1.209556
-1.065537
-0.903049
-0.732611
-0.547912
-0.351523
-0.154198
0.044061
0.245594
0.442450
0.630189
0.814888
0.985326
1.135891
1.274064
1.394937
1.498976
1.589455
1.666374
1.730434
1.774387
1.799403
1.829328
1.845693
1.814831
1.778125
1.745392
1.675954
1.594826
1.519776
1.429296
1.325256
1.219813
1.123487
1.031838
0.940891
0.861633
0.791259
0.729536
0.679035
0.635315
0.601413
0.583644
0.578032
0.585981
0.609360
0.638117
0.672250
0.710125
0.747532
0.781899
0.800603
0.811591
0.809720
0.781429
0.747996
0.703574
0.638811
0.572179
0.496661
0.410623
0.327859
0.246029
0.164199
0.090085
0.022049
-0.050662
-0.118932
-0.170601
-0.221336
-0.271135
-0.310882
-0.349692
-0.384763
-0.420300
-0.456540
-0.488103
-0.527148
-0.563621
-0.591911
-0.621136
-0.645451
-0.666961
-0.685432
-0.703902
-0.727750
-0.747156
-0.770537
-0.798125
-0.811686
-0.821506
-0.834132
-0.836938
-0.826184
-0.809117
-0.789479
-0.763060
-0.734772
-0.706483
-0.672115
-0.636812
-0.598938
-0.554283
-0.509862
-0.458194
-0.393199
-0.319319
-0.236789
-0.153324
-0.071028
0.013138
0.082575
0.137050
0.187549
0.221215
0.236879
0.247166
0.245996
0.240384
0.242020
0.235240
0.220276
0.211391
0.203909
0.187309
0.170007
0.165331
0.157615
0.148028
0.155509
0.166731
0.172342
0.179822
0.189408
0.202733
0.221670
0.242945
