EVENT_NAME: 202302060117
EVENT_ID: 13194
EVENT_DATE_YYYYMMDD: 2023/02/06
EVENT_TIME_HHMMSS: 01:17:32.00000
EVENT_LATITUDE_DEGREE: 37.288
EVENT_LONGITUDE_DEGREE: 37.043
EVENT_DEPTH_KM: 8.6
HYPOCENTER_REFERENCE: AFAD
MAGNITUDE_W: 7.7
MAGNITUDE_W_REFERENCE: AFAD
MAGNITUDE_L: 
MAGNITUDE_L_REFERENCE: 
FOCAL_MECHANISM: 
NETWORK: TK
STATION_CODE: 3125
STATION_NAME: 
STATION_LATITUDE_DEGREE: 36.23808
STATION_LONGITUDE_DEGREE: 36.13264
STATION_ELEVATION_M: 156.0
LOCATION: Kahramanmaras_Pazarck_Turkiye
SENSOR_DEPTH_M: 
VS30_M/S: 448
SITE_CLASSIFICATION_EC8: B
MORPHOLOGIC_CLASSIFICATION: 
EPICENTRAL_DISTANCE_KM: 142.15
EARTHQUAKE_BACKAZIMUTH_DEGREE: 
DATE_TIME_FIRST_SAMPLE_YYYYMMDD_HHMMSS: 2023/02/06 01:17:36.5357130
DATE_TIME_FIRST_SAMPLE_PRECISION: millisecond
SAMPLING_INTERVAL_S: 0.01
NDATA: 12501
DURATION_S: 
STREAM: HNZ
UNITS: cm/s^2
INSTRUMENT: sensor = GMS+/GEOSIG | digitizer = 
INSTRUMENT_ANALOG/DIGITAL: 
INSTRUMENTAL_FREQUENCY_HZ: 
INSTRUMENTAL_DAMPING: 
FULL_SCALE_G: 
N_BIT_DIGITAL_CONVERTER: 
PGA_CM/S^2: 1151.556
TIME_PGA_S: 
BASELINE_CORRECTION: BASELINE REMOVED
FILTER_TYPE: BUTTERWORTH
FILTER_ORDER: 
LOW_CUT_FREQUENCY_HZ: 
HIGH_CUT_FREQUENCY_HZ: 
LATE/NORMAL_TRIGGERED: 
DATABASE_VERSION: 
HEADER_FORMAT: DYNA 1.2
DATA_TYPE: Acceleration
PROCESSING: Automatic Paolucci et al., 2011
DATA_TIMESTAMP_YYYYMMDD_HHMMSS: 
DATA_LICENSE: U (unknown license)
DATA_CITATION: Turkish Accelerometric Archive v 1.0 - Disaster And Emergency Management Presidency, Earthquake Department
DATA_CREATOR: AFAD
ORIGINAL_DATA_MEDIATOR_CITATION: : AFAD - Disaster And Emergency Management Presidency
ORIGINAL_DATA_MEDIATOR: AFAD PROCESS SERVICE
ORIGINAL_DATA_CREATOR_CITATION: AFAD PROCESS SERVICE
ORIGINAL_DATA_CREATOR: network: TK
USER1: GuestUser
USER2: 
USER3: 
USER4: 
USER5: 
[...]
4.697244
8.805204
8.705183
6.641057
5.585869
2.918302
-4.216234
-13.605037
-20.810230
-22.701871
-23.717314
-24.636643
-24.267523
-24.938514
-28.372916
-33.719470
-34.622174
-33.484141
-36.270162
-39.878868
-40.089550
-37.096515
-33.310408
-26.679322
-19.093590
-16.186537
-15.400750
-16.095120
-22.568806
-29.252126
-27.870691
-20.602914
-11.757567
-2.110576
7.427053
14.024628
19.312194
24.956421
25.261119
22.383659
24.038110
28.454155
28.916272
24.378895
21.507410
22.291639
21.918342
20.279975
20.978481
25.219442
31.240592
35.780805
35.715074
29.785081
23.029546
22.304004
26.057900
29.546313
32.938872
34.730481
32.870792
30.864854
29.219993
27.041828
24.631172
21.535767
19.445404
18.754411
19.059368
16.491032
9.027370
5.307743
9.944330
16.965587
18.883183
14.790269
11.695384
11.965792
9.731258
1.682598
-6.165520
-7.702578
-7.212925
-10.159743
-14.247462
-11.746167
-0.841119
9.642584
10.158213
-0.104968
-13.347688
-21.827562
-22.549467
-23.068234
-29.864293
-36.619309
-37.195484
-33.392752
-31.108623
-29.522231
-26.213577
-19.195437
-8.090109
-1.710739
-6.365790
-18.136145
-24.848818
-26.017525
-29.099422
-29.420245
-24.156319
-13.258285
2.809389
15.709454
22.220007
30.090186
36.804397
29.861050
16.518060
13.367844
15.271413
13.358991
14.049704
19.294667
19.655215
12.514964
9.785052
19.427627
30.448271
31.751516
29.779608
31.674344
32.181401
25.201946
11.856359
-4.385901
-17.039207
-18.496255
-13.833172
-13.694466
-16.258386
-13.133908
-6.253964
-6.778966
-16.066199
-25.260175
-30.057580
-29.620920
-25.812733
-22.390561
-21.636205
-23.071953
-18.335874
-6.495143
-0.698952
-4.955779
-16.001122
-29.880272
-34.162037
-28.289214
-22.618751
-16.433687
-5.810228
3.825073
2.051108
-7.793328
-16.353211
-19.804757
-13.511370
2.600985
17.736612
19.512895
14.000349
12.106111
9.728705
2.288162
-7.251046
-11.848170
-8.807856
-2.996339
-1.948965
-9.533419
-12.955872
-3.771787
8.454439
17.938296
25.800162
33.672938
36.443353
30.331523
20.458253
13.088367
10.006730
8.326281
7.394483
6.991053
2.908530
-10.479400
-24.509216
-26.903507
-22.712422
-17.746189
-10.517638
0.473393
10.176753
12.350741
3.997893
-12.441271
-25.065483
-24.012654
-12.541832
-6.934492
-10.598529
-11.918420
-13.055175
-16.211625
-15.854974
-12.045748
-5.897051
0.361527
8.362888
13.782676
9.198021
3.629885
5.098343
10.185887
11.543944
12.202705
18.164109
25.341226
26.422630
17.097990
4.344673
-3.196919
-2.258128
2.518734
6.685141
11.995047
10.012228
-2.065173
-12.254320
-12.766333
-2.525253
8.017938
8.320817
-0.821986
-14.197187
-21.254832
-19.705326
-13.413758
-6.910478
-0.352128
11.560040
18.314775
10.266635
-4.411303
-8.738007
3.738116
19.948923
22.128365
4.133192
-18.439612
-30.656248
-34.785789
-35.185063
-27.478798
-6.944673
15.735654
23.311515
17.612716
15.796149
22.495033
24.663825
15.890413
9.918858
11.325751
8.017596
2.363736
7.144235
17.866665
15.339892
2.239266
-5.108799
-6.737814
1.248220
18.586680
27.587628
25.035138
25.192287
25.406066
11.855781
-6.010807
-18.908554
-28.351908
-29.848442
-22.340380
-11.121533
-5.605631
-2.180082
3.829639
2.532347
-9.619866
-21.950021
-15.732226
9.182624
32.163243
37.419117
29.238755
20.476773
12.320309
9.592996
14.282576
23.371325
42.067072
58.768581
50.594973
23.393624
2.174211
-13.824127
-25.565387
-8.864139
19.058825
19.877863
13.750966
24.410532
18.433262
-19.396751
-38.319556
-24.930608
-14.486908
-19.481736
-38.759904
-48.888265
-45.011240
-47.953381
-56.973573
-54.167311
-30.326860
-12.884753
-13.446122
-16.920009
-14.559508
-14.232471
-24.226013
-25.751900
-18.026412
-16.446254
-19.618291
-17.431315
-15.592688
-24.978893
-33.491238
-25.108538
-3.171147
11.509627
18.427496
20.393150
5.803534
-8.007558
-8.943252
-9.423833
-6.089982
8.957064
22.886849
19.386466
19.129026
21.683313
2.512170
-11.345420
-2.711264
15.020225
27.258401
32.196319
28.003654
9.582461
3.950423
15.999488
23.556126
21.333282
17.199844
18.242542
20.042983
15.382736
7.256406
-2.283841
-12.373757
-11.153378
-4.827520
-9.475817
-17.340302
-10.302679
-3.519110
-11.139932
-16.549609
-25.180149
-34.945096
-31.049366
-23.453243
-25.651669
-34.218306
-33.962705
-18.841884
5.406662
20.552160
11.078673
-14.315730
-24.438896
-5.913037
14.478475
23.810367
23.313161
19.006458
21.541003
16.716064
-1.228715
-16.245649
-9.498967
18.989251
34.462837
24.872974
16.132293
8.047785
-5.214157
-8.401001
-8.255801
-16.161068
-13.961624
9.098484
28.974356
33.353774
33.889405
30.148736
6.550109
-24.003285
-24.112138
-9.330574
-3.422943
6.906718
23.769283
28.691355
3.829996
-12.131454
-0.463988
-3.833708
-14.101825
-4.818249
15.080223
15.705474
10.805201
29.006350
36.555975
23.581856
11.678500
7.372057
10.748250
20.797362
31.641363
36.191188
32.823546
27.424260
22.206291
8.704323
-5.224183
-16.939467
-17.679816
-7.258717
-6.616321
-2.061820
9.568239
16.686649
19.889837
11.706877
-8.659718
-28.742646
-30.903666
-19.701964
-11.437198
-7.031284
-5.239675
-2.413411
-3.716417
-22.727802
-46.352147
-39.861856
-3.853616
16.071093
8.099584
14.013710
34.029338
27.838798
3.222660
-12.090669
-24.239246
-33.579212
-19.892051
3.667850
11.151234
3.748618
-6.970976
-12.483521
-16.011180
-15.293192
-6.659815
0.965921
0.622498
-7.799189
-22.989388
-41.566182
-51.049540
-43.869305
-25.544247
-7.245166
4.731944
8.642479
-1.424317
-20.342706
-29.277174
-12.658532
10.888121
17.265154
22.281782
29.034958
19.972943
-9.767896
-31.657511
-19.613901
-10.663348
-16.422153
-10.927033
-2.532902
-1.941681
-7.064315
2.019240
21.267773
22.899365
18.525642
20.801718
24.977996
17.210665
4.912462
9.528268
16.374701
14.632947
3.124438
-6.324371
-5.153607
-6.498436
-3.380971
-2.272552
-14.358785
-21.360060
-13.911745
-4.181888
-5.113166
-9.605343
-8.084932
-5.409073
-2.862318
-0.228542
2.230411
-0.067247
-9.592427
-21.749576
-26.189280
-15.567640
-10.893127
-10.999382
-20.620417
-41.194826
-34.001343
-13.642043
-4.918267
-3.220694
7.712928
21.127333
9.699612
-11.721121
-12.727472
9.011975
16.360020
10.423533
11.125156
2.806857
-7.534254
6.651921
32.818334
24.431197
3.347642
13.228425
27.493050
9.743098
-20.232573
-10.553890
26.050517
35.951821
25.768649
26.032043
20.891485
4.804567
-5.483033
-1.150114
10.301485
0.612910
-16.151223
-22.958972
-18.728661
-10.983431
-19.846723
-33.439090
-34.910686
-10.849432
17.756980
26.222287
19.363624
12.726803
28.017252
39.083096
30.442944
17.986023
6.299314
4.091795
7.360185
6.462417
-15.856074
-44.019084
-30.093975
3.162024
13.433497
5.825404
11.099721
28.347522
28.276335
28.764169
24.866081
5.861189
-9.759705
-17.729396
-7.300243
8.950568
17.588360
13.248927
1.388433
5.776682
16.467420
15.485747
2.629822
-8.183028
-1.568048
5.137591
-12.733414
-37.528792
-32.048738
-16.784526
-18.205726
-14.288177
-6.367603
5.263495
12.604526
7.991557
8.805400
12.197439
10.783512
-9.711928
-23.199608
-4.410865
14.739216
15.051707
2.901831
-15.669248
-38.250105
-37.768245
-19.732049
-20.865687
-25.126671
-15.335768
-11.328079
-23.562899
-29.720188
-23.815674
-26.172818
-28.785574
-16.654682
2.812056
9.714858
-4.992173
-21.790855
-20.869988
-10.037936
-15.180572
-29.315075
-21.414244
-7.005187
-10.188913
-7.460061
12.815594
20.978791
21.697039
31.290517
19.726938
-6.331432
-11.121303
1.455351
8.699229
3.864418
16.941644
48.282893
61.214130
55.609367
44.973159
36.575372
27.697273
15.462973
1.993476
-9.348522
-1.577575
15.284990
18.793146
2.591670
-11.900533
-3.818125
6.509199
6.846886
-4.849175
-13.547254
-6.654063
-8.199692
-14.072276
-4.955212
-5.386956
-22.813758
-32.425441
-30.390689
-22.479987
-18.602701
-10.296892
8.692393
10.062138
0.090157
14.428037
38.821793
42.108627
28.827981
23.930566
28.000600
21.623027
24.743868
30.820349
20.319480
10.005125
3.694572
9.864830
13.460267
0.769554
-6.958292
-11.822716
-27.776114
-38.548960
-37.504443
-34.153707
-25.452272
-19.376050
-15.410703
-7.764964
1.916576
-5.720092
-11.837118
17.608605
26.555781
-1.716590
-29.633340
-20.299109
10.250627
2.382506
-8.828828
-23.436108
-37.916102
-23.902672
-25.956927
-30.361043
-40.943479
-48.097238
-16.604025
-10.379476
-31.375229
-41.172906
-36.678931
-15.453045
4.429062
30.149193
35.480140
10.233285
4.923879
19.757396
27.499509
8.344212
-5.771328
11.299311
11.598813
-6.015541
-1.266214
13.814342
6.014540
-6.399000
-1.193001
-2.538609
0.707440
12.037727
10.570288
16.751455
12.314349
-3.335380
5.007057
27.286562
43.629071
23.702523
-0.905562
5.263656
9.002745
6.382196
2.011850
3.587592
18.158743
34.084845
28.796219
0.363311
-20.554252
-20.336577
6.835657
33.690715
30.590374
17.120618
12.592592
21.608607
27.474157
11.152928
-13.799870
-27.609663
-19.048761
1.948789
18.862008
36.501279
43.642289
39.889152
41.001208
49.930980
51.490616
27.745479
10.311405
16.630768
28.406038
30.855120
24.405332
23.045176
15.555277
10.281199
17.448705
8.394224
-6.376190
-7.583862
3.369762
20.216481
13.472116
-2.319706
-11.956068
-25.535446
-27.412280
-24.910465
-18.574216
-2.316651
14.075993
20.625252
-2.946100
-23.078125
-21.233523
-33.364435
-38.206260
-33.512524
-30.807311
-14.561176
-7.040905
-15.455058
-23.862977
-28.833646
-36.769307
-36.222766
-26.005064
-28.323244
-34.353766
-30.246846
-14.897429
-12.832285
-20.806391
0.405728
21.824102
25.185748
31.867489
52.067551
80.842813
79.793860
70.764576
71.455029
43.033810
-1.297674
-21.426322
13.450889
64.825700
64.888813
11.576892
-29.409302
-46.676086
-83.115042
-80.943392
-42.462421
29.446785
121.813234
127.447590
44.623694
-58.023091
-64.195967
-16.610650
-24.231991
-29.462689
-9.365234
28.262659
57.250930
31.166843
-20.221756
-25.953286
17.407944
23.421042
-22.152913
-20.081014
18.382812
64.799433
125.490301
118.668785
12.343686
-87.841019
-66.571752
-32.505537
-32.148366
11.075967
65.832697
103.076652
83.043340
92.687473
125.652532
36.512120
-45.008260
2.603293
52.488595
-12.002699
-81.853264
-29.001932
52.499204
81.779974
42.116260
-39.327749
-91.466298
-77.715494
-53.368496
-103.415394
-126.068986
-81.080569
-15.081863
59.029656
93.162891
96.032797
71.974640
16.006591
-26.034260
-9.649668
24.930887
-15.643834
-143.649164
-201.538196
-131.618293
10.844140
173.304028
269.095778
223.656643
3.045087
-180.915034
-226.587440
-142.321854
-14.970640
43.066959
169.369230
244.314344
121.009774
-39.387577
-52.372867
43.491098
76.141058
-16.508299
-113.324074
-143.237660
-113.042507
42.028542
186.052441
213.411188
127.479949
28.818003
28.727074
73.026846
87.659044
27.219090
-55.749496
-314.777870
-430.562679
-26.742802
186.890328
107.367304
40.134419
-124.849395
-96.563016
-79.445100
-281.262706
-342.473391
-271.893158
-108.701763
51.559709
-13.346694
-53.618786
41.755776
-2.472840
-18.694838
32.837653
-102.581454
-280.206354
-201.400830
124.260075
234.068122
97.459018
117.709995
79.179648
-103.917264
-91.808972
54.770524
121.004320
-38.028470
-159.305292
-37.959393
20.153799
60.061675
64.344978
50.225801
140.994938
39.892732
-21.381856
-3.564644
-107.515465
-154.373452
-277.530993
-127.543083
12.282446
-122.772985
-16.251002
-3.676427
108.134691
207.179514
142.790828
348.977451
392.866530
265.669597
65.220448
-73.688901
-112.842691
-324.787870
-199.408814
14.910103
24.755557
103.560043
84.634121
130.045959
41.669265
-172.800598
-78.791376
64.579206
-32.856635
-71.120980
55.755378
36.094053
10.505604
-34.346196
-18.263195
152.347950
39.379286
-371.426810
-488.756718
-66.806079
311.329764
428.959164
430.115900
232.198189
-42.639921
-148.882154
-121.526005
6.089913
17.695814
-100.286111
-22.082469
25.818985
-93.667775
-226.370749
-68.688772
151.947701
172.448575
234.994186
197.216646
-25.392525
-44.124920
109.822113
-33.091038
-144.487847
-327.917781
-408.704836
149.965298
163.503093
66.820838
368.558415
-0.525056
10.237119
106.300585
-30.029528
291.933580
220.955362
202.601709
102.345827
-230.260773
-38.483737
229.853400
134.916267
237.535496
318.227975
-17.553768
30.896577
46.160529
195.822951
491.012038
68.713809
-134.188069
142.279545
313.008106
285.656611
-24.117427
-306.529071
-303.850355
-224.868188
-181.662038
-93.970892
-71.815296
-131.497247
243.356429
388.947507
-210.563880
-263.770335
57.269557
377.701073
436.193006
-70.772681
63.838267
-50.359879
-642.467620
-476.624514
-315.933646
51.149332
426.919988
191.185003
99.747982
-119.191967
19.521756
504.344545
149.823404
-161.742774
-340.361546
-257.718470
135.604965
-71.363840
-254.824946
-306.641643
362.488566
868.822476
223.622068
166.997067
197.105198
47.930340
177.947293
-134.070621
-189.460686
22.927896
-5.749974
289.121677
243.032343
-154.386873
-389.234750
-175.067018
539.337103
90.907260
-436.727901
33.417221
74.181032
-356.590567
-764.081245
-275.082427
284.950709
36.407347
-106.831813
-408.169109
-500.525188
185.025470
615.810557
72.851945
-340.262449
-312.462875
-440.843310
208.767417
825.647646
334.901868
-447.473408
-762.548791
-489.580771
-215.783052
-156.057221
-466.668491
69.716931
1151.555766
827.352139
126.187849
-97.486630
52.106173
147.184859
248.077412
200.680925
-399.982532
-317.089040
-156.824191
-200.075301
-73.828360
-193.215890
16.573454
-53.623902
-278.720091
-208.769795
33.905388
561.685479
175.151578
-615.976059
-754.049214
-262.796910
568.451603
610.700767
353.601429
66.571631
-378.149505
286.892995
607.088382
-50.869229
121.361830
-62.491007
-331.132353
382.042806
181.604048
-677.217292
-788.553314
-744.445251
-519.045933
228.234157
628.214664
502.125641
293.301055
-165.869932
-790.614916
-577.757972
-190.073580
-329.843800
8.092698
245.967890
280.467657
196.032681
-307.974250
-324.002980
177.382092
541.244727
151.987419
-498.429129
-218.491796
-24.388278
-271.134305
129.228840
124.792773
-204.472432
61.141038
240.427653
235.249689
227.916950
112.818188
-417.117737
-641.122382
-285.567905
-349.803067
-186.000439
120.849891
-43.483204
106.511720
143.056380
-268.120145
-434.597365
-107.914793
-91.919334
-530.423704
-303.671255
-44.852015
-12.442860
228.537338
107.842397
-79.930078
-233.641522
-161.455923
257.079807
-132.570530
-412.920136
71.671200
-31.189635
164.704723
242.328823
-221.172236
-25.427504
-18.411703
108.940031
213.814825
-607.949581
-870.221677
48.124942
277.571704
-467.798593
-628.632095
-535.263461
-470.769330
54.517249
489.514472
386.126049
-51.583432
-515.454660
-574.535248
149.988392
762.897289
239.716369
-271.495225
-108.569833
-132.107675
80.458588
439.640205
192.469976
166.110016
149.560191
-128.605546
128.749383
405.246090
430.692686
361.178520
589.813247
711.453463
381.735483
405.132769
133.996872
97.338412
158.444390
-269.666926
-14.971761
154.285474
161.312446
90.139142
-300.940958
100.829870
482.136700
-109.589702
-616.718524
-403.340746
-215.763897
104.537475
440.495060
-283.288002
-424.973491
-1.655953
-178.136835
150.855073
203.020878
-100.065695
-130.083708
-262.304812
-88.832062
107.366743
113.977567
119.737650
-56.432290
-19.047280
225.874636
221.559881
257.382387
260.332301
362.640069
490.936059
83.595526
76.956108
220.433974
-149.364119
-197.228967
-12.867006
337.499646
363.152497
-121.767206
-207.743385
-327.827872
-306.147132
115.075378
123.378329
120.429174
104.339918
-221.952503
-475.838512
-474.466947
-125.519148
29.686461
-170.941668
-279.642345
54.458679
345.330423
100.316009
-119.805625
-128.032745
226.372519
451.680918
163.048872
1.089795
231.587838
369.816834
203.018541
281.889787
209.458167
-158.737677
-187.289819
164.866894
319.243324
290.895100
199.234938
-307.933108
-121.350911
354.568592
99.979652
51.069238
40.320291
-4.670745
248.708696
312.071537
145.514828
-3.267260
-32.754047
119.208879
335.709067
140.245384
-204.755522
-164.554109
-98.553584
0.602160
18.243509
-141.401814
-143.599461
-116.928320
-240.819706
-291.131827
-213.235750
-320.878133
-235.133167
-202.990015
-232.614219
208.745760
274.969685
86.875098
-141.155170
-250.813351
264.304872
454.225087
190.141369
-75.973735
-253.498624
-156.687286
-83.421572
2.627322
132.888456
-4.971171
-271.734914
-328.240163
-133.322273
21.199627
-41.286258
-113.728529
-51.190191
73.463593
-21.392493
-256.042167
-213.443615
-32.231341
222.868802
210.204067
-70.273085
56.320905
-14.129984
-182.744574
-28.518291
-38.756274
72.573234
119.198708
27.434120
-14.455027
16.889860
259.878843
293.388635
251.855630
47.535160
-300.273319
-134.793629
112.067715
39.284369
-44.554699
32.715857
-31.072505
-271.206140
-221.333826
-45.210405
280.509726
459.173937
-22.456585
-374.175090
-241.059366
28.451403
87.713288
-63.224874
-171.616168
-303.793111
-139.892031
134.024921
48.266168
-96.620960
-294.968847
-493.295172
-281.316245
-83.839641
-127.322983
3.259225
30.480295
50.180045
271.695053
179.636667
136.081889
218.875371
70.484233
93.593177
-19.721238
-16.342187
385.313563
393.659377
110.201388
-30.516206
65.774038
163.665232
225.409199
208.418029
5.830211
-160.982629
-282.347772
-80.445762
151.515294
-13.645162
-106.521037
-80.845326
-72.297153
-26.840894
114.560907
288.786204
178.368720
-104.355944
-316.141625
-271.728854
-96.937263
58.466549
243.950188
35.201453
-266.741621
-66.069612
193.699860
210.878042
122.074029
15.243162
51.242050
124.365411
143.338850
61.246201
-115.773959
-121.373527
189.759596
316.595690
-80.571551
-307.416238
-167.151701
106.341310
122.849551
3.551902
241.175638
300.068913
257.276553
223.189016
88.441150
207.959841
237.745860
89.191848
146.441051
127.773338
-89.284852
-23.658653
19.649845
-233.538687
-196.867779
3.685776
-27.716280
66.827804
157.075846
-114.852084
-207.817319
-147.623646
-203.960825
-85.946190
-52.326776
-137.963438
-91.898023
-109.325864
-228.526620
-321.408210
-63.962882
206.539161
-55.444593
-170.059147
-151.019467
-226.707018
78.442351
361.370392
149.398198
-124.963757
-117.025780
-160.015563
-135.841570
-39.662767
-147.379183
-86.633764
112.261693
84.475866
-125.035806
-181.756403
-63.785408
172.377913
338.936939
227.887700
139.014589
36.281560
7.338727
6.303022
-72.040916
-76.952878
-34.471741
181.756471
104.169756
-91.780732
127.807577
286.824242
249.237631
147.164673
23.134831
-56.922796
-90.937598
-117.649804
6.919556
190.718599
83.559905
-22.693759
-15.351689
-111.663774
-182.374691
-65.357305
41.832542
17.713339
88.854931
134.500041
81.671808
48.943117
46.398420
43.811121
99.428462
139.691441
46.870117
-23.854308
-97.516448
37.256335
196.290664
30.065679
-101.480808
-47.255563
45.250122
25.376826
-36.290011
-150.791306
-156.813256
4.373249
-23.268666
-33.798369
-105.233779
-268.531179
-121.311616
