EVENT_NAME: 202302060117
EVENT_ID: 13194
EVENT_DATE_YYYYMMDD: 2023/02/06
EVENT_TIME_HHMMSS: 01:17:32.00000
EVENT_LATITUDE_DEGREE: 37.288
EVENT_LONGITUDE_DEGREE: 37.043
EVENT_DEPTH_KM: 8.6
HYPOCENTER_REFERENCE: AFAD
MAGNITUDE_W: 7.7
MAGNITUDE_W_REFERENCE: AFAD
MAGNITUDE_L: 
MAGNITUDE_L_REFERENCE: 
FOCAL_MECHANISM: 
NETWORK: TK
STATION_CODE: 3131
STATION_NAME: 
STATION_LATITUDE_DEGREE: 36.19121
STATION_LONGITUDE_DEGREE: 36.16328
STATION_ELEVATION_M: 203.0
LOCATION: Kahramanmaras_Pazarck_Turkiye
SENSOR_DEPTH_M: 
VS30_M/S: 567
SITE_CLASSIFICATION_EC8: B
MORPHOLOGIC_CLASSIFICATION: 
EPICENTRAL_DISTANCE_KM: 144.98
EARTHQUAKE_BACKAZIMUTH_DEGREE: 
DATE_TIME_FIRST_SAMPLE_YYYYMMDD_HHMMSS: 2023/02/06 01:17:37.0224140
DATE_TIME_FIRST_SAMPLE_PRECISION: millisecond
SAMPLING_INTERVAL_S: 0.01
NDATA: 12501
DURATION_S: 
STREAM: HNE
UNITS: cm/s^2
INSTRUMENT: sensor = GMS+/GEOSIG | digitizer = 
INSTRUMENT_ANALOG/DIGITAL: 
INSTRUMENTAL_FREQUENCY_HZ: 
INSTRUMENTAL_DAMPING: 
FULL_SCALE_G: 
N_BIT_DIGITAL_CONVERTER: 
PGA_CM/S^2: 366.051
TIME_PGA_S: 
BASELINE_CORRECTION: BASELINE REMOVED
FILTER_TYPE: BUTTERWORTH
FILTER_ORDER: 
LOW_CUT_FREQUENCY_HZ: 
HIGH_CUT_FREQUENCY_HZ: 
LATE/NORMAL_TRIGGERED: 
DATABASE_VERSION: 
HEADER_FORMAT: DYNA 1.2
DATA_TYPE: Acceleration
PROCESSING: Automatic Paolucci et al., 2011
DATA_TIMESTAMP_YYYYMMDD_HHMMSS: 
DATA_LICENSE: U (unknown license)
DATA_CITATION: Turkish Accelerometric Archive v 1.0 - Disaster And Emergency Management Presidency, Earthquake Department
DATA_CREATOR: AFAD
ORIGINAL_DATA_MEDIATOR_CITATION: : AFAD - Disaster And Emergency Management Presidency
ORIGINAL_DATA_MEDIATOR: AFAD PROCESS SERVICE
ORIGINAL_DATA_CREATOR_CITATION: AFAD PROCESS SERVICE
ORIGINAL_DATA_CREATOR: network: TK
USER1: GuestUser
USER2: 
USER3: 
USER4: 
USER5: 
[...]
-4.479491
-6.475556
-7.021856
-6.643122
-8.133159
-10.441205
-11.241558
-11.671741
-12.468198
-12.374429
-11.852044
-12.128705
-12.278339
-12.051830
-12.736846
-12.903365
-11.266315
-9.292087
-7.427221
-4.437300
-0.545206
2.053245
3.248689
4.084614
3.980699
3.591039
4.211617
5.888411
7.854067
8.446329
7.729622
6.950310
5.983446
5.288299
5.607286
6.405285
6.829478
6.324481
5.378398
5.360726
6.567860
7.837597
8.444667
9.077973
10.954529
14.193567
16.823450
17.140618
15.907232
14.450446
13.422276
12.856234
11.778449
9.517940
7.048059
5.787397
5.316170
3.934197
1.553676
-0.586041
-2.615096
-4.853264
-6.389800
-7.332505
-7.820617
-7.628657
-7.789461
-8.687747
-9.753323
-10.742527
-11.862914
-13.230340
-14.432035
-14.918068
-14.560116
-13.518195
-11.766328
-10.173179
-9.223216
-8.021797
-7.021439
-6.728948
-6.136686
-4.872143
-2.952986
-0.720029
0.716220
1.417066
2.209870
3.597802
5.055352
5.303682
5.114303
4.933237
3.364230
0.293506
-2.841901
-4.216861
-4.902656
-7.075882
-8.843091
-8.857906
-9.327055
-10.920220
-11.035045
-8.487509
-5.507719
-2.837573
0.160141
1.946038
2.337500
3.486965
4.854895
4.821117
5.035677
6.607006
7.418772
7.442923
8.910863
10.197486
9.239714
7.738507
6.648772
5.586314
4.550871
3.128893
0.742917
-1.563571
-1.959725
-0.864811
0.607546
2.762572
5.054237
6.775971
9.198039
11.399564
11.841941
11.485791
10.091868
8.056579
6.863457
5.274448
0.898130
-3.764193
-4.854187
-3.394559
-0.096034
3.238080
3.528232
2.180029
1.970388
2.724487
1.866205
0.024443
-1.040614
-2.124373
-2.655867
-2.395068
-0.977782
2.032920
4.059882
3.194067
0.633007
-0.877551
-1.565165
-3.780474
-6.727809
-9.275101
-10.949833
-11.884745
-13.147485
-13.424666
-12.180125
-10.798947
-9.376726
-7.337296
-4.904318
-3.725499
-2.995299
0.478829
5.582222
8.323285
9.157651
10.919909
11.086153
7.554600
5.256425
6.199634
6.168194
3.873396
2.026698
1.007621
-0.331231
0.170113
2.833246
4.117271
3.690464
4.129204
5.115535
4.398048
3.278180
2.714476
2.374432
3.976672
5.480721
3.882880
1.568080
1.238167
2.288660
3.658149
4.520311
5.092831
6.582592
7.275385
6.507763
6.462036
6.458391
5.969500
6.180164
5.734914
3.984070
3.456473
4.681531
4.559432
3.124985
3.915711
5.669396
4.215727
-0.161890
-3.739682
-5.333366
-6.092416
-5.775767
-4.990756
-5.549784
-6.009841
-3.591930
-1.725765
-4.320335
-7.536529
-7.892419
-6.906608
-6.064189
-5.459977
-5.229311
-4.668739
-2.808549
-0.820553
-0.771465
-1.400112
-0.357671
0.479293
1.360158
4.532177
6.101946
3.385805
-0.075871
-1.796581
-2.889952
-3.590035
-2.704754
-0.990034
0.575839
2.715280
4.770036
5.833258
7.245089
7.763838
7.067911
8.326479
10.236544
10.218093
9.452289
9.579048
10.011294
11.194269
13.972998
14.495124
11.269578
7.330449
3.841238
1.472926
0.915196
1.064815
0.737759
-0.153253
-1.057513
-2.198942
-4.454774
-5.364230
-3.729778
-3.703030
-5.398023
-4.713283
-2.996225
-4.439244
-7.052777
-7.294109
-7.371009
-8.567768
-7.722750
-4.480335
-4.532037
-7.741997
-6.488105
-3.357390
-4.129429
-4.218797
-0.639463
0.586634
-1.069654
1.798176
5.578570
3.226624
0.951828
4.125405
4.177870
-1.776279
-2.567540
1.933451
3.075383
2.505704
4.532665
5.640307
4.067404
2.593214
-0.683767
-5.639627
-10.333382
-12.846904
-10.358076
-6.565732
-3.456318
-1.247519
-0.930610
-0.374715
1.303118
5.093124
8.498674
9.827119
11.558984
12.450759
12.662722
13.164585
12.463464
11.553489
13.527717
17.423448
17.604758
14.287514
11.256794
7.056079
2.549357
-0.633328
-4.878983
-9.174773
-11.600753
-12.988182
-14.064148
-15.205057
-16.408570
-15.452372
-12.202683
-12.175416
-14.659584
-14.141875
-11.220793
-8.240223
-6.813326
-5.764132
-3.655344
-2.423013
-1.017936
0.098798
-3.051675
-8.098454
-10.614314
-11.883548
-15.342366
-17.536374
-12.651966
-7.591695
-5.840607
-1.699395
2.141266
4.188489
5.904508
4.626182
-0.802196
-6.432155
-5.255674
0.410636
0.336334
-2.889472
-0.550010
3.566784
4.171776
5.936371
10.048749
9.790013
9.461398
14.734419
18.079962
16.022852
13.122535
12.236199
13.378391
17.059035
19.521886
17.659602
16.949389
18.095996
16.393729
9.749637
1.976333
1.532382
8.443760
11.762547
3.857021
-3.982783
-1.739435
-1.048200
-6.344617
-8.211317
-6.469841
-5.782503
-3.351343
1.990257
5.941579
7.400688
9.141644
9.989519
1.906832
-6.184947
-2.899930
-3.314787
-10.689866
-11.977024
-7.407715
-4.797315
-5.630139
-5.237897
-6.492324
-10.679791
-9.254712
-5.235331
-9.891160
-16.026367
-10.398503
-2.757957
-6.646950
-9.832232
-3.553130
-3.371820
-8.180132
-4.550403
-3.327943
-11.315815
-14.958029
-11.804454
-11.875639
-12.463502
-5.020639
2.035429
5.194459
12.412622
14.620122
7.880176
5.350807
8.794023
14.495921
20.256267
15.676291
5.244003
5.638842
8.896064
4.699245
-1.794701
-9.083537
-13.159304
-9.865714
-6.765132
-10.777516
-11.501497
-1.898924
2.601028
1.867176
7.609597
11.878875
11.486098
10.189848
9.990598
12.659706
14.872141
15.448818
12.166642
7.958913
8.430904
7.873174
3.497116
3.315790
7.283996
5.529256
1.091373
2.920391
6.211643
3.522517
-0.019427
-2.276558
-8.150958
-11.154662
-7.421026
-6.104530
-10.359796
-14.210864
-17.230414
-19.415850
-19.297404
-20.278035
-22.240590
-23.795309
-22.599346
-18.025620
-13.265640
-10.851625
-11.111920
-9.767110
-8.238643
-7.857312
-5.900228
-6.071683
-8.532473
-8.800561
-6.980895
-5.809609
-6.844013
-5.752476
0.036963
3.155469
2.868418
4.247518
6.391634
10.341138
15.269966
19.004122
20.652342
18.148171
17.982171
22.655128
22.234816
12.894333
6.251539
9.455249
9.961009
6.198003
6.051486
7.588785
7.350570
3.473266
1.694627
-1.329600
-8.526478
-9.280073
-6.298984
-4.441651
-2.172846
-0.631391
1.648324
3.818157
2.837006
0.043454
-0.512458
2.267831
5.526092
5.393083
1.587994
0.014312
2.116346
1.476010
-1.254938
2.638715
6.088425
2.258139
5.831759
15.246520
14.063269
6.971856
4.719141
1.925069
-1.956391
3.305460
13.920348
18.453291
16.654130
13.202326
9.830271
9.929754
13.715603
14.020043
8.583353
6.568325
9.689428
8.324340
5.888488
6.153184
0.786111
-8.865315
-11.689000
-10.039222
-12.338696
-12.520541
-14.143839
-21.466445
-21.846234
-17.814643
-17.842187
-16.585437
-11.456328
-10.771588
-14.214300
-11.992513
-8.399151
-11.023594
-14.574630
-11.647053
-6.352731
-1.516120
6.768910
10.166666
9.397486
11.656679
8.511401
1.423366
-2.007138
-0.749349
1.850400
2.808676
5.139306
7.539034
7.477461
3.549762
-0.923709
-1.803292
-3.174095
-4.385660
-4.103820
-4.211372
-4.413480
-4.078127
-1.245886
-1.200434
-5.607924
-4.463655
1.447876
6.542696
10.134499
9.550013
6.995448
5.625684
6.040005
8.465710
8.130082
4.935968
1.429093
-1.037931
2.452562
6.884975
6.609353
5.368174
3.513942
0.850534
-0.989930
1.040928
5.961703
6.891405
5.342141
6.153128
5.645794
1.609512
-0.121070
0.865001
0.802129
1.571034
3.747102
5.900570
6.614924
4.994224
2.950362
-1.082024
-8.461519
-9.527874
-5.310550
-8.363350
-12.960471
-10.940524
-7.617840
-10.646483
-16.600371
-17.198365
-16.709230
-16.296207
-12.849874
-11.014102
-13.309939
-16.873703
-16.219356
-13.130723
-14.964173
-17.807341
-15.101606
-10.139787
-9.365946
-7.817478
0.808108
6.397786
5.972798
7.353456
11.743007
12.825712
10.532992
15.253487
19.818900
14.604830
11.755688
19.745102
27.087954
24.889270
23.193757
24.559868
23.198936
24.393341
23.396863
16.471702
16.116332
18.004317
13.304848
9.432999
9.329863
8.146612
6.685929
0.488638
-9.271890
-9.307746
-7.166747
-6.056247
-2.932546
-4.079689
-2.968150
-1.453191
-9.908385
-21.989161
-21.476646
-12.999907
-14.639830
-18.445698
-14.217464
-11.016871
-14.296449
-17.516021
-17.572918
-19.108154
-20.143078
-19.670308
-19.747727
-19.464328
-18.527353
-16.721455
-16.067367
-17.907571
-18.782737
-16.230006
-12.904465
-12.759003
-16.691377
-16.149250
-11.371866
-14.639494
-17.407330
-13.899432
-14.694070
-16.517908
-15.955519
-14.110655
-11.594031
-13.823887
-15.910611
-14.344738
-15.821786
-20.010552
-19.749493
-14.876255
-13.339476
-13.121538
-8.549891
-1.417711
3.560474
3.230561
1.536866
-0.378411
-3.155338
-3.004161
-1.835473
-3.754127
-6.248427
-5.741887
-2.341793
-2.309330
-5.452530
-4.403335
-3.734181
-4.569862
-2.049082
2.835326
5.500537
5.924470
13.270439
22.803135
24.053390
22.277089
25.643153
29.250543
25.737953
21.847141
20.653499
20.233447
22.020902
22.949304
25.139659
29.913926
29.523747
25.804901
26.502889
30.329263
33.069287
35.858407
38.388539
35.329504
30.998385
29.813576
25.096182
19.986799
20.353583
20.857785
21.340166
26.227432
31.083525
26.303268
15.193765
11.998092
13.670210
6.932602
-1.805999
-2.403993
-2.123711
-4.033273
-3.226702
-2.979411
-8.618201
-18.121299
-22.574508
-21.198266
-22.747270
-28.909233
-33.515186
-29.236816
-25.882441
-32.120256
-32.559272
-28.864601
-32.848410
-36.634016
-29.542879
-21.302529
-25.836526
-21.916636
-7.334831
-6.935576
-8.820980
-2.309125
1.752338
-0.766120
-0.305819
5.070590
0.483340
-6.512738
-0.978390
2.506388
-4.655161
-4.108877
1.437679
-1.826832
-2.084530
3.067959
4.816709
2.578280
3.414206
8.026897
8.273408
7.625799
9.146472
10.034091
10.725586
16.395792
16.413448
10.008083
11.943346
6.931895
1.787963
6.139067
5.853834
3.064178
0.314527
2.625155
0.802615
-4.642908
-2.535159
-6.679505
-17.162967
-24.696764
-27.161450
-28.970222
-33.292508
-38.382149
-42.920303
-39.515533
-37.434020
-36.804091
-22.293463
-13.384470
-16.896800
-13.137707
-4.746431
-0.458191
-6.969541
-9.922331
-1.883561
-4.789073
-8.027608
-4.410088
0.356126
7.627282
3.536449
-1.513707
3.429408
5.223877
-0.571813
-4.952287
-0.860431
-2.519317
-5.479900
1.605782
0.555532
-4.268626
0.946727
2.776784
-1.152734
7.522987
14.361889
-1.734118
-17.996378
-13.936733
1.880269
6.538419
-1.077725
-3.960637
3.838887
8.772391
2.414044
12.745785
23.590049
15.084460
19.008506
25.270983
28.071274
27.281571
20.234319
29.035508
34.795594
26.799410
19.164043
20.461316
21.615457
15.279969
12.853729
1.376655
-14.015902
-19.824320
-15.927030
-14.325309
-17.354731
-22.741286
-34.601259
-20.810707
-11.735463
-29.558408
-26.891638
-12.594020
-11.754198
-17.266481
-14.646210
-10.517727
-14.298397
-15.962738
-3.762746
8.077728
1.216210
6.276481
20.784252
12.457903
5.215565
9.520431
9.396774
2.010525
2.033117
18.493303
22.139657
10.162790
4.469188
8.682876
17.024535
16.640071
6.512231
0.518598
1.493499
1.255284
0.512339
-9.684079
-6.407375
17.309948
10.276724
-6.218287
0.917529
-1.229720
-14.842347
-13.056190
-11.708263
-28.843342
-37.923278
-27.242408
-16.983921
-25.016473
-38.009553
-36.726827
-37.227408
-36.079242
-29.060580
-33.520544
-37.603843
-29.816788
-27.327181
-33.583439
-26.742979
-20.072406
-23.272235
-21.635705
-29.241978
-45.428645
-44.446470
-27.518182
-35.585283
-60.505867
-49.092971
-32.996200
-40.260878
-37.124967
-30.607398
-32.609957
-36.951466
-37.166822
-47.401426
-80.070887
-90.081831
-77.769619
-78.771552
-86.486148
-81.605116
-61.362189
-57.708302
-51.688188
-24.115909
-19.120061
-27.994520
-24.106062
-14.213068
-22.540197
-33.588914
-16.050431
-17.358890
-24.597071
-5.738967
4.626804
6.734033
-3.158716
1.026137
16.263596
6.406434
12.392518
15.882492
-2.270098
-0.957759
9.166169
5.009095
-3.657810
10.423941
29.544671
18.338534
6.285295
30.543454
50.062928
39.138120
40.489684
40.354337
34.979211
45.437200
31.683260
14.785349
33.351993
52.595593
54.209263
42.160959
32.283276
41.100051
34.172033
5.523260
8.310821
14.555114
-5.452998
-4.767998
8.563543
6.271343
-18.467143
-40.032825
-34.747075
-43.296305
-62.792155
-73.085467
-75.241289
-57.670595
-42.854999
-40.625419
-42.982042
-45.110588
-37.145072
-43.526539
-58.076149
-46.788461
-27.461476
-9.059784
-2.021640
-10.528787
-5.263040
-6.463435
-16.001342
-15.894066
-35.160022
-45.140054
-31.788510
-49.491702
-60.323772
-45.916012
-56.136589
-67.281161
-53.912992
-29.801081
-48.687516
-90.969170
-70.383349
-54.527383
-85.171693
-74.001940
-27.635712
-26.217906
-49.950052
-22.913674
17.677913
24.436807
31.216482
35.671753
41.855781
58.606388
66.032105
73.282480
80.786908
98.159659
120.007951
128.670165
156.725092
166.919157
147.228221
159.753962
182.131143
193.762243
189.691672
176.571306
179.635520
181.040597
177.325388
158.780029
113.599365
90.472738
111.140646
140.019817
144.541589
139.327260
157.757007
153.576034
141.043263
156.831170
163.753198
172.985601
169.249092
166.890391
178.465642
171.154465
164.316586
164.219685
164.157592
158.799352
148.105477
153.938558
178.384011
157.174211
106.779226
102.274323
96.954788
76.328687
60.619993
53.310895
61.419023
47.393626
38.043531
58.940813
55.995037
21.301984
20.543454
42.685544
34.661564
35.764271
38.381425
30.696443
38.382708
44.588556
43.132808
48.974981
57.641091
13.050620
-31.141627
-10.870385
4.466825
1.568586
-10.857681
-16.260861
-29.376552
-62.395141
-41.392653
20.969565
64.078563
45.187453
-1.035140
-28.571067
-72.190006
-94.505378
-88.839847
-93.207593
-110.119012
-135.849812
-149.563229
-165.343878
-177.925226
-182.687300
-184.888581
-194.001248
-244.519103
-319.721665
-366.050503
-342.179397
-294.308593
-212.303245
-140.492489
-201.700054
-260.906107
-247.840827
-222.178362
-226.563253
-249.593246
-186.436918
-120.526011
-138.910054
-203.860615
-210.660828
-125.859078
-95.817705
-94.478090
-30.635714
59.280347
101.862536
57.253361
8.097210
-4.438679
-23.372132
-38.298664
-46.579554
-52.317056
-38.707303
-34.810533
-25.893747
-1.582594
11.477750
27.535036
7.573681
-12.426898
36.042412
74.420776
62.784204
29.818608
15.170027
45.531434
78.770550
74.415013
39.356986
26.297925
70.446515
113.649030
76.016962
20.005795
46.530170
90.566280
71.511256
14.735072
1.490536
43.443567
43.951406
-21.042017
-99.367509
-111.923919
-47.897368
-20.217546
-56.118260
-88.503015
-86.531125
-106.887067
-180.587131
-223.319482
-220.557638
-216.561116
-212.253393
-204.412306
-182.533361
-153.804595
-133.808967
-123.681663
-108.153523
-69.881404
-24.488006
3.535749
8.721488
4.783139
2.447298
0.603457
8.877837
57.604317
108.451801
138.741513
198.253557
236.955852
256.409084
279.268913
265.175457
263.672691
270.873710
268.101459
269.537188
232.498430
177.307090
171.956383
201.571217
202.801470
170.587382
121.465000
76.896869
58.922219
40.102285
8.443841
-31.394176
-20.632778
53.893592
34.927149
-66.617959
-98.800875
-76.315891
-61.699018
-70.563346
-90.102838
-107.300002
-94.560211
-80.441573
-143.795081
-207.197425
-212.384219
-217.830522
-256.560888
-312.727397
-305.155949
-244.142966
-204.753325
-200.938641
-215.604366
-201.685489
-188.218869
-198.244879
-168.257798
-117.852698
-82.121888
-54.699754
-38.848204
-16.433617
5.020607
6.441270
19.237170
75.856179
136.061284
163.587064
154.871063
125.856017
138.821026
177.486954
197.689357
205.089618
205.608366
216.099346
210.794097
197.284859
213.437220
233.860426
230.971279
198.400790
179.200815
182.413876
169.819540
153.497794
150.811266
172.945304
193.350845
190.038277
195.227393
211.408848
220.482794
203.595013
147.860239
89.245677
71.835763
75.846052
65.795623
57.320427
65.584936
74.931897
96.334428
125.326079
106.391327
76.539829
73.412215
34.366230
7.480502
45.022414
77.908506
89.283735
101.578543
121.893945
130.884765
97.621994
37.989921
-8.914043
-9.216421
7.261950
-2.695223
-13.613277
-33.222905
-72.452805
-90.558378
-80.578102
-56.059915
-52.892313
-86.747095
-120.346785
-150.833416
-172.775241
-170.772958
-170.954024
-183.667854
-182.506699
-168.275321
-149.700104
-155.064320
-169.189209
-142.714709
-148.262061
-156.239802
-109.901109
-92.666035
-141.223941
-213.690108
-184.650140
-92.674119
-77.397695
-81.751414
-62.714849
-52.239196
-69.885758
-114.894456
-134.144825
-112.937900
-102.591091
-124.683582
-150.649732
-157.215374
-150.645072
-163.683871
-177.132064
-152.919364
-135.379322
-106.441963
-54.632038
-42.927683
-27.993373
9.157329
17.234804
3.849475
6.778090
28.901737
37.603435
58.912450
102.697884
109.415474
98.318180
119.107659
146.885934
160.373856
167.308872
172.326541
178.854761
175.412828
143.505526
103.147454
100.554183
97.096144
57.032389
46.175381
53.750985
29.579831
8.821509
10.733912
14.859019
16.504641
13.190773
-1.360135
-0.222619
22.960621
14.824942
-26.728323
-44.993393
-45.602816
-74.858667
-119.443163
-141.827893
-133.963167
-114.247049
-98.139888
-69.651667
-34.056715
-16.167805
-7.225562
0.373940
-19.750549
-52.297139
-58.468454
-54.901848
-44.333718
-39.272927
-60.779381
-79.285256
-87.653948
-88.079196
-75.736591
-72.318053
-86.282665
-95.271162
-80.723128
-52.212827
-36.184115
-38.192388
-44.733872
-52.427167
-54.594159
-58.497959
-74.574485
-80.339003
-71.598339
-57.281758
-36.023138
-29.002139
-61.018803
-120.855313
-138.198467
-91.417649
-50.907369
-57.989689
-98.419457
-97.454947
-35.576417
-1.845820
-26.115686
-32.475851
16.079441
46.784521
34.250451
30.286645
51.115348
72.104589
93.032524
124.034259
146.180245
157.483519
166.809699
186.437496
207.786774
204.768782
190.709095
197.290567
224.968052
217.937166
178.958461
169.769423
167.580351
148.368427
124.513930
113.936952
128.070397
126.445540
104.697242
89.121550
82.542400
80.676998
66.865389
46.623226
41.935446
58.244188
79.707245
84.479173
65.003325
33.159926
9.012152
-4.038337
-24.195297
-61.476678
-97.152693
-115.419321
-119.275844
-123.206400
-143.804446
-160.918484
-139.612847
-95.667915
-78.887435
-102.999101
-123.475056
-122.047380
-124.317500
-133.699286
-140.172451
-120.560500
-75.587407
-36.181660
-13.571468
-12.439667
0.645095
36.166013
47.356807
33.459994
16.853802
21.451686
29.495132
3.339092
-19.480749
-1.620153
37.461923
54.173045
47.637536
43.859723
47.092267
40.729504
16.126356
14.315766
43.677326
58.511885
53.637592
68.726983
104.310245
128.602694
130.387551
118.373537
128.251723
155.762178
172.373289
185.855237
193.885694
186.566205
156.332588
142.744380
178.224514
194.190362
177.911478
168.962724
138.554803
89.039652
61.468915
52.567180
42.710019
34.829431
25.023963
-1.312096
-32.820654
-56.257184
-77.435551
-86.885397
-71.230231
-52.209772
-59.593943
-84.948339
-105.521967
-117.150746
-120.505397
-132.589289
-156.701735
-161.524075
-144.697875
-124.913958
-113.497166
-113.035306
-114.055423
-114.279351
-113.009354
-114.843063
-119.110539
-101.992100
-66.835637
-42.633068
-35.749226
-28.859929
-7.184381
9.249309
6.355226
5.520584
14.013688
21.503829
16.462245
-2.158707
-14.389368
-6.286955
15.252993
40.482685
57.756205
57.098724
52.623434
50.712574
36.671070
5.268757
-33.192490
-46.973965
-30.277650
-27.644131
-37.743136
-29.613967
-15.473248
0.501952
8.645928
12.621408
35.109509
42.829804
23.395779
