EVENT_NAME: 202302060117
EVENT_ID: 13194
EVENT_DATE_YYYYMMDD: 2023/02/06
EVENT_TIME_HHMMSS: 01:17:32.00000
EVENT_LATITUDE_DEGREE: 37.288
EVENT_LONGITUDE_DEGREE: 37.043
EVENT_DEPTH_KM: 8.6
HYPOCENTER_REFERENCE: AFAD
MAGNITUDE_W: 7.7
MAGNITUDE_W_REFERENCE: AFAD
MAGNITUDE_L: 
MAGNITUDE_L_REFERENCE: 
FOCAL_MECHANISM: 
NETWORK: TK
STATION_CODE: 0214
STATION_NAME: 
STATION_LATITUDE_DEGREE: 38.028298
STATION_LONGITUDE_DEGREE: 38.22594
STATION_ELEVATION_M: 1353.0
LOCATION: Kahramanmaras_Pazarck_Turkiye
SENSOR_DEPTH_M: 
VS30_M/S: None
SITE_CLASSIFICATION_EC8: unknown
MORPHOLOGIC_CLASSIFICATION: 
EPICENTRAL_DISTANCE_KM: 132.74
EARTHQUAKE_BACKAZIMUTH_DEGREE: 
DATE_TIME_FIRST_SAMPLE_YYYYMMDD_HHMMSS: 2023/02/06 01:17:34.9180790
DATE_TIME_FIRST_SAMPLE_PRECISION: millisecond
SAMPLING_INTERVAL_S: 0.01
NDATA: 3908
DURATION_S: 
STREAM: HNZ
UNITS: cm/s^2
INSTRUMENT: sensor = CMG-5T/GURALP | digitizer = 
INSTRUMENT_ANALOG/DIGITAL: 
INSTRUMENTAL_FREQUENCY_HZ: 
INSTRUMENTAL_DAMPING: 
FULL_SCALE_G: 
N_BIT_DIGITAL_CONVERTER: 
PGA_CM/S^2: 69.914
TIME_PGA_S: 
BASELINE_CORRECTION: BASELINE REMOVED
FILTER_TYPE: BUTTERWORTH
FILTER_ORDER: 
LOW_CUT_FREQUENCY_HZ: 
HIGH_CUT_FREQUENCY_HZ: 
LATE/NORMAL_TRIGGERED: 
DATABASE_VERSION: 
HEADER_FORMAT: DYNA 1.2
DATA_TYPE: Acceleration
PROCESSING: Automatic Paolucci et al., 2011
DATA_TIMESTAMP_YYYYMMDD_HHMMSS: 
DATA_LICENSE: U (unknown license)
DATA_CITATION: Turkish Accelerometric Archive v 1.0 - Disaster And Emergency Management Presidency, Earthquake Department
DATA_CREATOR: AFAD
ORIGINAL_DATA_MEDIATOR_CITATION: : AFAD - Disaster And Emergency Management Presidency
ORIGINAL_DATA_MEDIATOR: AFAD PROCESS SERVICE
ORIGINAL_DATA_CREATOR_CITATION: AFAD PROCESS SERVICE
ORIGINAL_DATA_CREATOR: network: TK
USER1: GuestUser
USER2: 
USER3: 
USER4: 
USER5: 
[...]
-0.003760
-0.002190
-0.000304
-0.002201
-0.001891
-0.001897
-0.003163
-0.001278
-0.001283
-0.002865
-0.002871
-0.001300
-0.001936
-0.001627
-0.001947
-0.003214
-0.003220
-0.002595
-0.002600
-0.000714
-0.002296
-0.003878
-0.002938
-0.002313
-0.001373
-0.001694
-0.002961
-0.002966
-0.002026
-0.002032
-0.002983
-0.002358
-0.000788
-0.003315
-0.003006
-0.001750
-0.001441
-0.002392
-0.001767
-0.001773
-0.002724
-0.000838
-0.002420
-0.002741
-0.001486
-0.002122
-0.001812
-0.001502
-0.003084
-0.002459
-0.001835
-0.002471
-0.003422
-0.001221
-0.001227
-0.002808
-0.003129
-0.002504
-0.002195
-0.002831
-0.001576
-0.003157
-0.002848
-0.002853
-0.002544
-0.001604
-0.001925
-0.001930
-0.002882
-0.003202
-0.002262
-0.001637
-0.002274
-0.002910
-0.002915
-0.001660
-0.001666
-0.001986
-0.002307
-0.002313
-0.001057
-0.002009
-0.002645
-0.002020
-0.001711
-0.002347
-0.004244
-0.001412
-0.001102
-0.003000
-0.003636
-0.002380
-0.001125
-0.002392
-0.002082
-0.002403
-0.002724
-0.003045
-0.001789
-0.001480
-0.002431
-0.002121
-0.002127
-0.003078
-0.002138
-0.001513
-0.002780
-0.002786
-0.002161
-0.002482
-0.003748
-0.002493
-0.001868
-0.003135
-0.002510
-0.001885
-0.003151
-0.001896
-0.000956
-0.001907
-0.003174
-0.002234
-0.000978
-0.002245
-0.001935
-0.002887
-0.002577
-0.001952
-0.001643
-0.001964
-0.002284
-0.001660
-0.001980
-0.002617
-0.002307
-0.001997
-0.002003
-0.002639
-0.002960
-0.002335
-0.002656
-0.002977
-0.002667
-0.001727
-0.002363
-0.002684
-0.003635
-0.002380
-0.002070
-0.002707
-0.001766
-0.002087
-0.002723
-0.001783
-0.002104
-0.003371
-0.001485
-0.001806
-0.002127
-0.003393
-0.002768
-0.001828
-0.002464
-0.002155
-0.003737
-0.001851
-0.001226
-0.002808
-0.001552
-0.002504
-0.003140
-0.002830
-0.001260
-0.001580
-0.003478
-0.002853
-0.003489
-0.001918
-0.000978
-0.002875
-0.002881
-0.001625
-0.002892
-0.002898
-0.001327
-0.000702
-0.001654
-0.001344
-0.000089
-0.001040
-0.000730
-0.000421
0.000835
0.000514
0.002085
0.003025
0.002389
0.004590
0.004584
0.005209
0.007410
0.007405
0.007399
0.009285
0.010225
0.010219
0.011160
0.012730
0.013040
0.011773
0.012713
0.014599
0.014909
0.015219
0.015213
0.018360
0.019615
0.020240
0.022442
0.024643
0.026844
0.031567
0.038497
0.042275
0.050466
0.056766
0.064011
0.071887
0.075980
0.080703
0.088579
0.101814
0.115995
0.134275
0.153815
0.179661
0.209920
0.236712
0.256568
0.267596
0.267591
0.250876
0.215877
0.172995
0.128223
0.082820
0.041515
0.006831
-0.013352
-0.017771
-0.002329
0.027615
0.059136
0.080253
0.074888
0.040203
-0.005200
-0.034840
-0.044619
-0.046201
-0.037694
-0.012479
0.030391
0.079881
0.130002
0.170350
0.184216
0.177589
0.168126
0.176317
0.227699
0.296735
0.335507
0.363559
0.410843
0.471367
0.530315
0.570663
0.568451
0.534082
0.480797
0.403237
0.328515
0.288156
0.298869
0.360970
0.489590
0.700494
0.954588
1.145946
1.137428
0.897509
0.592332
0.420824
0.389923
0.358076
0.177742
-0.153918
-0.416536
-0.463830
-0.383760
-0.336792
-0.397012
-0.457548
-0.376531
-0.236246
-0.240035
-0.362361
-0.532608
-0.831480
-1.136028
-1.113019
-0.759618
-0.539887
-0.752378
-1.150558
-1.366517
-1.317657
-1.205430
-1.325235
-1.671396
-1.871907
-1.694106
-1.382004
-1.313283
-1.484160
-1.642741
-1.609960
-1.329384
-0.893699
-0.602719
-0.680594
-0.993023
-1.332880
-1.510062
-1.411706
-1.203009
-1.052320
-0.831013
-0.419288
-0.025534
0.267023
0.623577
0.943876
0.998095
0.934091
0.993985
1.107789
1.032436
0.729149
0.398120
0.196978
0.135497
0.080951
-0.025612
-0.003234
0.123810
0.153754
0.212387
0.408473
0.598570
0.655626
0.636390
0.641744
0.839406
1.118091
1.024138
0.525075
0.119014
0.058793
0.019695
-0.044939
0.220190
0.696543
0.988153
1.104478
1.046465
0.810014
0.554647
0.329546
0.116109
-0.012523
0.064395
0.256068
0.328887
0.178502
-0.010660
-0.136770
-0.366915
-0.611248
-0.444165
0.076639
0.292272
0.069692
-0.117578
-0.163296
-0.232029
-0.245591
-0.148811
-0.212500
-0.424360
-0.512324
-0.553628
-0.496887
-0.314672
-0.255409
-0.177545
0.206752
0.581276
0.582846
0.376976
0.228167
0.329675
0.513782
0.454823
0.359293
0.375366
0.418235
0.469302
0.395210
0.329000
0.508693
0.635422
0.439955
0.209178
0.067621
-0.047770
-0.134788
-0.368717
-0.595395
-0.565450
-0.523211
-0.587530
-0.519124
-0.310112
-0.357722
-0.721853
-0.818329
-0.317701
0.292008
0.481789
0.354418
0.466330
0.831711
0.987444
0.975459
0.859122
0.801424
1.109427
1.490256
1.609419
1.554558
1.372647
1.282162
1.450821
1.763869
1.871998
1.654777
1.377343
1.038747
0.643720
0.295667
-0.026535
-0.305546
-0.378377
-0.311232
-0.201212
-0.199326
-0.520267
-0.829227
-0.985602
-1.327035
-1.708821
-1.919421
-1.884432
-1.608585
-1.279459
-1.008025
-0.951284
-1.025691
-0.946566
-0.681753
-0.498908
-0.428295
-0.346017
-0.237889
-0.076481
0.208509
0.458505
0.469533
0.420032
0.548022
0.849721
1.092781
1.160871
1.075115
0.877756
0.638783
0.537264
0.474837
0.375524
0.360386
0.408930
0.527463
0.475754
0.356580
0.333876
0.075987
-0.375472
-0.586071
-0.439166
0.002824
0.782458
1.475710
1.635541
1.539381
1.523613
1.377011
0.894341
0.346098
-0.001640
-0.106628
-0.025611
-0.026563
-0.272156
-0.567876
-0.587428
-0.014921
0.946618
1.742961
1.963638
1.596038
1.175160
0.992303
0.628172
-0.089682
-0.815102
-1.207292
-0.809124
0.365216
1.578333
2.181736
2.272525
1.974599
1.378435
0.830192
0.250107
-0.294354
-0.732256
-1.036173
-0.869091
-0.073063
0.998817
1.722649
2.047677
2.262049
2.259206
1.859765
1.729872
2.439833
3.231131
3.332640
3.336417
3.963465
4.823805
5.129917
4.552354
3.284056
1.578176
0.156660
-0.149463
-0.029039
-0.741849
-1.736186
-2.143193
-2.200261
-2.098753
-1.869249
-1.730540
-1.792967
-1.946504
-2.200295
-2.370226
-2.533536
-3.345653
-4.479335
-5.036722
-5.016866
-4.957287
-5.146764
-5.284539
-4.940280
-4.029498
-3.157493
-2.509954
-1.992617
-1.710779
-1.392057
-1.589100
-2.455126
-2.844479
-2.542150
-2.123174
-1.943166
-1.985416
-2.068966
-1.810773
-1.081581
-0.411974
-0.093566
-0.557005
-1.061742
-0.105878
1.466951
1.686366
0.492785
-0.514163
-0.272994
0.397874
0.590178
0.580084
0.477934
0.803592
2.053279
3.549185
4.348995
4.175911
3.346455
2.501551
2.514787
2.952678
2.799771
2.007516
0.981337
0.027984
-0.687663
-0.581741
0.131688
0.974373
1.805079
2.442215
3.003058
3.626953
4.134516
4.239177
3.790241
2.557882
1.242609
0.262144
-0.092845
0.234389
0.018115
-0.397089
-0.042426
-0.326482
-2.040558
-3.801609
-4.947272
-5.355540
-5.313615
-5.153784
-4.509082
-3.530204
-2.166708
-0.452011
0.427244
0.251323
-0.346731
-1.810176
-3.747773
-4.694821
-5.051071
-5.138719
-4.775545
-4.862562
-5.185710
-4.779345
-2.811809
0.081331
1.163299
-0.228897
-1.773994
-2.424067
-2.054272
-1.413984
-1.441417
-1.033476
0.463060
1.872269
2.435004
2.496789
1.934359
0.665745
-0.835216
-1.102878
0.023542
0.812318
1.230979
1.980978
2.336586
3.288667
4.997689
5.436841
5.236014
5.047483
4.670741
5.301257
7.339095
8.398995
6.697213
4.224304
3.199702
3.617101
4.849449
5.428261
4.450633
3.045511
2.194933
1.725189
1.671274
1.530032
0.143826
-2.454872
-4.000915
-3.568068
-2.496188
-1.935661
-2.704902
-4.267339
-5.861932
-6.202734
-5.633064
-5.310873
-4.985215
-4.236792
-2.883069
-1.935402
-1.751926
-1.369205
-0.895689
-1.635611
-3.127115
-2.780334
-0.730831
-0.021185
-1.164010
-2.944292
-3.517756
-1.743791
0.178977
0.523551
0.117490
-0.813480
-2.604165
-3.473028
-2.279773
-1.921012
-3.861446
-6.536437
-7.856123
-6.317342
-3.728429
-1.913795
-1.350430
-2.506181
-3.215207
-0.730014
2.901151
3.700330
2.238777
1.993183
3.722066
6.245406
7.701588
7.286385
6.816641
7.154595
7.789839
8.619599
8.392290
5.872092
3.933550
3.877113
3.425654
3.961591
6.385308
8.105364
7.565632
3.973864
-0.230140
-2.621082
-4.505715
-6.350309
-6.909587
-6.137520
-4.964441
-4.066900
-4.623971
-5.505130
-4.864841
-4.259547
-5.771226
-6.873068
-5.693684
-3.938004
-2.296132
0.354887
4.131703
5.478175
3.735724
2.387034
2.451657
1.581217
-0.972714
-1.845361
0.397712
3.362732
5.689664
6.782666
7.047479
7.884490
8.156239
6.677662
4.693407
3.046480
1.632216
0.631258
-0.432751
-2.948536
-5.242377
-5.146858
-4.193832
-1.743633
3.577328
7.306224
5.184515
1.392241
-0.352416
-1.064280
-1.198271
-2.070603
-2.871685
-0.961843
2.115094
3.590192
4.925945
6.712521
5.401032
1.506928
-1.180042
-2.401998
-2.578549
-1.323818
0.760679
1.423035
-0.099994
-1.810603
-1.341816
0.540914
-0.302729
-3.643235
-5.410906
-5.563182
-6.178576
-7.600407
-9.372177
-11.307566
-13.232553
-14.207974
-13.701356
-12.001477
-10.929597
-10.582501
-10.026702
-9.727210
-9.326835
-7.970590
-7.573998
-8.328737
-6.597017
-2.592899
1.210713
3.639474
3.793316
1.937687
2.660259
5.258945
6.074834
5.308745
3.157402
2.772463
5.477393
7.416870
6.441133
4.595907
3.561532
3.975779
3.615115
2.270523
1.679404
1.187592
0.544771
0.481713
2.085437
3.426235
1.536873
-2.227658
-4.300502
-4.827623
-4.021823
-1.309642
0.916406
1.786205
4.520769
7.589509
7.392465
6.716856
6.873220
6.686895
7.589796
8.946356
7.849559
6.270729
4.664471
1.812619
0.324269
-0.310672
-2.102618
-3.202883
-3.365248
-4.065447
-3.811668
-3.067028
-3.383240
-4.211435
-5.935285
-7.750876
-8.463685
-9.662311
-9.133625
-5.610595
-3.853023
-4.300068
-4.817101
-5.857466
-5.428718
-2.124163
1.981785
5.049579
6.395105
5.178509
2.287880
1.170591
2.197074
2.417435
-0.127984
-1.482348
0.614128
5.307721
10.078868
10.486179
8.878975
7.176247
3.550116
-1.296705
-3.509839
-4.136268
-6.665923
-9.163423
-9.748867
-7.452200
-2.124934
4.083486
8.177453
10.088241
10.143091
8.526429
4.494557
-0.426350
-2.564137
-3.599458
-3.619325
-1.892018
0.784538
3.662861
6.926432
9.463012
10.297501
9.489483
6.459824
2.235958
-0.272260
-0.185569
-1.241067
-4.423943
-6.923964
-6.272641
-2.409760
1.439565
2.294861
0.808087
-1.544708
-2.847685
-4.271722
-6.377038
-6.308001
-5.453651
-5.200502
-5.475730
-5.517035
-3.478882
-0.799488
-0.132718
-1.026802
-0.460285
0.716892
1.083850
0.592353
-1.913973
-4.530957
-5.051457
-4.521510
-5.752293
-6.176008
-2.184185
3.193523
6.198895
7.718130
7.916108
7.262883
5.564253
2.901242
0.893343
-2.359206
-5.773167
-5.481557
-2.281984
0.285177
2.891745
4.912244
4.556309
3.458251
4.073949
3.381317
0.607649
0.752663
0.707260
-3.387349
-6.778612
-7.815194
-7.351451
-5.485115
-5.513809
-6.463064
-6.842959
-6.986408
-6.531177
-5.786222
-6.209307
-8.678433
-11.328834
-12.078844
-9.059600
-3.064297
0.917438
1.700854
0.156388
0.087025
5.531253
8.707181
3.547938
-0.174664
1.876415
2.724460
3.266387
3.451755
1.290008
0.233880
0.458024
-1.433544
-3.016473
-3.657718
-6.111081
-7.261157
-6.754854
-5.796468
-0.687362
4.384859
5.879503
6.059826
5.149033
5.973118
8.014740
9.508123
9.553830
8.967755
8.322096
8.855827
10.675189
11.095741
10.751156
10.883245
10.732229
10.765326
11.036444
9.090651
5.989428
3.933608
2.177917
-0.509684
-3.012228
-3.697610
-2.328754
-3.127000
-5.526138
-5.069016
-2.997444
-2.284015
-3.574698
-5.391234
-8.007271
-7.805826
-4.630212
-3.777438
-5.100592
-5.168694
-4.100597
-2.455889
-0.081037
-0.323163
-1.449594
-0.677842
0.790321
2.970657
3.749660
2.806710
1.684377
0.336317
2.252780
4.881732
3.480709
0.829047
1.211768
2.689388
1.639880
0.513133
0.133239
-1.368352
-4.206648
-4.990707
-3.021595
-0.313513
0.590963
-0.131935
1.000476
5.167899
8.725923
8.344137
6.338444
4.497317
2.195910
0.448730
1.982782
4.316020
5.188970
5.339975
3.647651
-0.254334
-2.927434
-3.250581
-4.193531
-5.115358
-3.860627
-2.610625
-3.330686
-3.139959
-2.952700
-4.485817
-6.625496
-9.845257
-13.552726
-15.079223
-13.605386
-12.396367
-11.928841
-10.643845
-6.944899
-1.424063
2.349915
3.702692
4.157292
4.343920
5.507226
5.557032
2.486704
0.547531
0.526088
1.374448
1.983210
1.170463
-0.883780
-1.907121
0.556634
3.938743
4.945364
4.012818
1.519417
-0.852293
-1.885723
-4.679252
-8.000211
-7.778904
-4.520692
-1.540856
1.807836
4.814154
6.325507
7.623744
7.863337
10.052185
13.412856
12.638571
9.218304
7.298992
7.063802
6.611398
7.502634
8.417829
5.728021
2.034108
0.111014
-1.358736
-4.212795
-9.116048
-13.474845
-14.205624
-11.619548
-8.744063
-8.412414
-8.971377
-8.594961
-5.568151
-0.801418
0.700793
-2.568464
-6.783187
-8.655840
-8.008616
-6.066932
-5.955651
-7.032587
-9.148936
-12.825509
-11.731561
-6.410600
-6.225863
-11.553456
-15.900273
-18.075261
-18.353011
-15.205771
-11.231603
-8.730332
-10.122843
-14.663861
-15.924593
-11.676148
-6.420131
-8.792157
-16.391517
-19.266698
-14.454883
-4.839128
0.496020
-0.538986
-2.016302
-1.099215
5.296154
14.909072
19.266281
18.697230
18.734110
18.480951
20.001131
22.938723
23.085944
21.481262
20.454768
14.485936
4.540407
4.759823
13.345622
15.203131
11.060918
11.846541
16.868950
19.471736
16.469189
12.574455
6.258521
2.299474
7.101831
7.375787
0.364073
1.933434
10.174653
12.611611
15.524297
19.437305
21.723568
26.873658
33.542988
28.838981
16.084166
10.917356
10.691624
9.180890
7.655339
5.266289
-2.936480
-11.102047
-11.560442
-5.691873
-5.390175
-13.798178
-19.850239
-15.796625
-6.298778
-2.801914
-3.357409
-0.912254
3.578626
3.065692
2.805596
2.445248
-6.393401
-11.858132
-11.753471
-12.166783
-12.265150
-13.394734
-10.898822
-7.174341
-6.618542
-8.472910
-12.354087
-12.107244
-11.126474
-14.748823
-15.133762
-9.783481
-9.455616
-15.125582
-13.188312
-0.604064
6.546669
9.458725
7.967537
-10.770292
-24.311997
-13.338415
-6.877157
-11.088727
-6.776285
-3.259244
8.811129
25.647295
28.891635
24.395700
20.310548
18.621062
18.417083
16.872301
15.236408
13.795032
11.953274
2.131012
-11.754327
-4.937770
5.045579
0.868372
-8.732577
-13.666094
-12.905692
-5.449156
0.977108
-3.531122
-8.849573
-3.995512
1.377151
4.703459
14.738511
14.671355
6.904591
4.873362
6.630934
3.633116
0.294817
-5.106862
-14.175966
-13.639399
-3.035617
6.075406
14.423813
26.809447
31.732234
26.203190
18.598470
11.131204
2.654159
-1.045428
-2.372365
-3.986820
-4.687965
-6.843091
-11.009580
-11.349752
-8.372122
-8.741613
-16.571743
-23.834405
-23.618772
-22.862153
-19.964599
-20.540901
-29.612528
-38.013595
-37.059622
-29.712482
-20.515393
-7.620614
3.523839
7.594162
4.784555
1.356406
4.995768
9.142699
7.406869
-1.338463
-9.135806
-5.331248
0.125275
3.659655
9.511199
11.142351
7.334629
3.352884
2.662773
5.647969
5.437369
0.394772
-7.079745
-11.613512
-10.886842
-5.923701
4.284743
10.368635
10.870524
15.921622
25.092544
26.483153
21.935514
15.354446
10.010144
3.918990
-0.221647
6.098375
14.243124
17.292318
11.714093
5.458058
1.392453
0.400323
5.914854
9.520167
7.567754
4.155684
-1.056839
-2.281632
-0.880305
-0.740335
3.283330
3.472796
0.778574
2.232549
7.802251
10.608694
8.078408
5.381979
5.177370
4.489781
3.593805
5.730950
8.720875
8.809773
5.492912
2.161548
2.210723
3.470814
0.261456
-1.542785
-3.940031
-7.084761
-7.027389
-9.256286
-13.514515
-15.159865
-10.668985
-1.037152
8.484025
12.002641
8.001350
-1.257226
-9.907665
-15.231790
-15.513638
-16.365478
-19.484040
-22.065399
-21.563510
-12.921595
-5.314995
-3.876782
-7.791693
-15.736263
-21.164424
-18.043981
-13.043009
-7.692729
-5.139125
-7.219219
-7.873390
-6.477422
1.886118
15.433486
24.478620
19.471962
12.551673
7.976923
4.018506
1.192821
-2.215781
-4.227780
-7.046845
-8.372521
-7.871577
-9.294984
-10.658176
-8.136413
-8.884847
-14.603048
-18.219722
-13.136782
-11.392136
-15.087625
-18.034371
-19.740251
-17.093645
-13.305480
-8.359049
-0.573696
9.960097
16.713602
16.689321
19.269723
21.430197
15.866474
9.332695
10.344676
16.478378
19.505189
18.683929
14.356028
9.860092
11.664007
13.002282
5.830100
-2.917754
-17.495720
-34.469036
-39.738621
-28.728784
-17.019069
-12.563182
-15.859867
-25.535848
-32.583187
-18.596976
-1.315346
-4.811276
-2.802757
8.116916
29.392265
45.692488
50.429271
69.913941
53.689054
-12.736970
-37.751320
-12.884838
11.134223
29.492152
46.361420
15.357751
-14.696038
-4.290871
12.589432
23.549773
10.101700
0.511785
4.096922
1.503584
-13.167385
-12.986746
-14.161097
-19.240895
-32.327679
-40.346020
-21.693008
5.535090
29.063921
25.435898
7.202801
-13.062465
-19.748200
-11.195503
1.771786
10.540751
12.716043
20.049942
17.333967
15.187038
20.784167
3.805177
-5.593060
9.552049
1.264476
-17.951919
-9.281315
-0.769602
-2.019616
-1.417474
-9.124968
-18.860848
-12.883515
-5.242237
-4.676980
-3.349739
-8.450029
-23.342310
-26.190694
-18.536490
-16.155649
-9.462674
-5.127532
5.228454
10.866883
9.472480
14.556365
22.805781
28.173085
32.858796
19.665769
-6.036164
-10.642440
-8.163868
-7.792182
-14.700175
-12.977913
-5.786196
-3.323386
6.950002
13.946572
13.023169
9.299937
2.216973
-6.071546
-3.868826
4.126805
-0.059860
-8.086714
-7.858786
-6.290371
-3.719111
8.878377
16.834916
9.468849
6.638434
7.819710
6.220073
8.447067
6.402597
3.026782
0.000000
0.000000
0.000000
0.000000
0.000000
0.000000
0.000000
0.000000
0.000000
0.000000
0.000000
0.000000
0.000000
0.000000
0.000000
0.000000
0.000000
0.000000
0.000000
0.000000
0.000000
0.000000
0.000000
0.000000
0.000000
0.000000
0.000000
0.000000
0.000000
0.000000
0.000000
0.000000
0.000000
0.000000
0.000000
0.000000
0.000000
0.000000
0.000000
0.000000
0.000000
0.000000
0.000000
0.000000
0.000000
0.000000
0.000000
0.000000
0.000000
0.000000
0.000000
0.000000
0.000000
0.000000
0.000000
0.000000
0.000000
0.000000
0.000000
0.000000
0.000000
0.000000
0.000000
0.000000
0.000000
0.000000
0.000000
0.000000
0.000000
0.000000
0.000000
0.000000
0.000000
0.000000
0.000000
0.000000
0.000000
0.000000
0.000000
0.000000
0.000000
0.000000
0.000000
0.000000
0.000000
0.000000
0.000000
0.000000
0.000000
0.000000
0.000000
0.000000
0.000000
0.000000
0.000000
0.000000
0.000000
0.000000
0.000000
0.000000
0.000000
0.000000
0.000000
0.000000
0.000000
0.000000
0.000000
0.000000
0.000000
0.000000
0.000000
0.000000
0.000000
0.000000
0.000000
0.000000
0.000000
0.000000
0.000000
0.000000
0.000000
0.000000
0.000000
0.000000
0.000000
0.000000
0.000000
0.000000
0.000000
0.000000
0.000000
0.000000
0.000000
0.000000
0.000000
0.000000
0.000000
0.000000
0.000000
0.000000
0.000000
0.000000
0.000000
0.000000
0.000000
0.000000
0.000000
0.000000
0.000000
0.000000
0.000000
0.000000
0.000000
0.000000
0.000000
0.000000
0.000000
0.000000
0.000000
0.000000
0.000000
0.000000
0.000000
0.000000
0.000000
0.000000
0.000000
0.000000
0.000000
0.000000
0.000000
0.000000
0.000000
0.000000
0.000000
0.000000
0.000000
0.000000
0.000000
0.000000
0.000000
0.000000
0.000000
0.000000
0.000000
0.000000
0.000000
0.000000
0.000000
0.000000
0.000000
0.000000
0.000000
0.000000
0.000000
0.000000
0.000000
0.000000
0.000000
0.000000
