EVENT_NAME: 202302060117
EVENT_ID: 13194
EVENT_DATE_YYYYMMDD: 2023/02/06
EVENT_TIME_HHMMSS: 01:17:32.00000
EVENT_LATITUDE_DEGREE: 37.288
EVENT_LONGITUDE_DEGREE: 37.043
EVENT_DEPTH_KM: 8.6
HYPOCENTER_REFERENCE: AFAD
MAGNITUDE_W: 7.7
MAGNITUDE_W_REFERENCE: AFAD
MAGNITUDE_L: 
MAGNITUDE_L_REFERENCE: 
FOCAL_MECHANISM: 
NETWORK: TK
STATION_CODE: 4630
STATION_NAME: 
STATION_LATITUDE_DEGREE: 37.344912
STATION_LONGITUDE_DEGREE: 36.806037
STATION_ELEVATION_M: 531.0
LOCATION: Kahramanmaras_Pazarck_Turkiye
SENSOR_DEPTH_M: 
VS30_M/S: 347
SITE_CLASSIFICATION_EC8: C
MORPHOLOGIC_CLASSIFICATION: 
EPICENTRAL_DISTANCE_KM: 21.89
EARTHQUAKE_BACKAZIMUTH_DEGREE: 
DATE_TIME_FIRST_SAMPLE_YYYYMMDD_HHMMSS: 2023/02/06 01:17:06.0526130
DATE_TIME_FIRST_SAMPLE_PRECISION: millisecond
SAMPLING_INTERVAL_S: 0.01
NDATA: 5370
DURATION_S: 
STREAM: HNE
UNITS: cm/s^2
INSTRUMENT: sensor = ACEBOX/SARA | digitizer = 
INSTRUMENT_ANALOG/DIGITAL: 
INSTRUMENTAL_FREQUENCY_HZ: 
INSTRUMENTAL_DAMPING: 
FULL_SCALE_G: 
N_BIT_DIGITAL_CONVERTER: 
PGA_CM/S^2: 124.037
TIME_PGA_S: 
BASELINE_CORRECTION: BASELINE REMOVED
FILTER_TYPE: BUTTERWORTH
FILTER_ORDER: 
LOW_CUT_FREQUENCY_HZ: 
HIGH_CUT_FREQUENCY_HZ: 
LATE/NORMAL_TRIGGERED: 
DATABASE_VERSION: 
HEADER_FORMAT: DYNA 1.2
DATA_TYPE: Acceleration
PROCESSING: Automatic Paolucci et al., 2011
DATA_TIMESTAMP_YYYYMMDD_HHMMSS: 
DATA_LICENSE: U (unknown license)
DATA_CITATION: Turkish Accelerometric Archive v 1.0 - Disaster And Emergency Management Presidency, Earthquake Department
DATA_CREATOR: AFAD
ORIGINAL_DATA_MEDIATOR_CITATION: : AFAD - Disaster And Emergency Management Presidency
ORIGINAL_DATA_MEDIATOR: AFAD PROCESS SERVICE
ORIGINAL_DATA_CREATOR_CITATION: AFAD PROCESS SERVICE
ORIGINAL_DATA_CREATOR: network: TK
USER1: GuestUser
USER2: 
USER3: 
USER4: 
USER5: 
[...]
-0.055038
-0.055105
-0.056342
-0.055240
-0.057412
-0.058414
-0.053806
-0.053406
-0.057915
-0.058216
-0.055244
-0.053208
-0.054912
-0.058953
-0.056683
-0.053477
-0.056350
-0.056417
-0.056719
-0.058656
-0.055451
-0.055752
-0.056521
-0.055653
-0.059695
-0.056957
-0.053985
-0.059897
-0.059497
-0.055356
-0.057060
-0.058296
-0.055792
-0.056093
-0.058498
-0.056929
-0.056996
-0.058233
-0.056196
-0.057199
-0.059370
-0.058970
-0.056933
-0.057234
-0.058705
-0.056902
-0.059307
-0.059140
-0.055233
-0.060678
-0.059810
-0.054266
-0.061582
-0.062350
-0.056105
-0.059446
-0.060682
-0.056307
-0.056375
-0.060183
-0.061653
-0.059850
-0.056644
-0.058348
-0.061689
-0.060353
-0.059252
-0.059787
-0.057984
-0.059688
-0.062795
-0.059823
-0.059189
-0.060659
-0.060726
-0.061495
-0.058523
-0.058357
-0.060762
-0.059660
-0.062767
-0.062133
-0.056823
-0.061333
-0.063270
-0.061000
-0.061769
-0.057861
-0.060968
-0.065244
-0.058531
-0.060469
-0.066381
-0.060370
-0.058333
-0.063544
-0.062442
-0.059237
-0.060707
-0.062878
-0.063413
-0.062078
-0.062613
-0.064083
-0.062514
-0.060945
-0.062181
-0.062249
-0.061848
-0.063085
-0.064555
-0.063453
-0.061416
-0.063354
-0.063655
-0.062320
-0.064258
-0.064793
-0.062055
-0.063759
-0.064527
-0.060854
-0.062558
-0.063561
-0.062459
-0.064864
-0.061892
-0.062661
-0.068573
-0.064900
-0.062162
-0.064801
-0.064167
-0.064702
-0.064068
-0.064837
-0.065606
-0.063569
-0.064338
-0.066041
-0.065174
-0.064306
-0.065308
-0.064207
-0.063573
-0.068082
-0.066513
-0.062372
-0.066648
-0.065079
-0.061639
-0.065214
-0.066918
-0.066050
-0.065182
-0.066184
-0.064148
-0.062111
-0.068958
-0.067623
-0.061612
-0.067992
-0.067124
-0.064386
-0.070064
-0.065923
-0.062951
-0.068630
-0.068697
-0.066660
-0.065793
-0.066327
-0.068031
-0.065995
-0.066997
-0.067532
-0.064560
-0.065797
-0.068436
-0.068503
-0.066700
-0.066300
-0.067303
-0.066669
-0.070009
-0.070544
-0.065468
-0.068808
-0.071214
-0.067307
-0.067608
-0.068610
-0.068678
-0.068745
-0.066942
-0.068646
-0.068947
-0.064806
-0.068147
-0.072890
-0.067814
-0.066479
-0.070988
-0.067782
-0.066915
-0.071424
-0.069621
-0.068520
-0.069055
-0.069590
-0.072696
-0.068088
-0.065817
-0.071262
-0.068991
-0.068124
-0.070996
-0.070362
-0.069728
-0.067925
-0.071967
-0.072970
-0.065790
-0.069130
-0.072705
-0.069265
-0.070501
-0.070803
-0.069935
-0.070470
-0.072641
-0.072241
-0.069035
-0.070739
-0.070339
-0.070640
-0.073981
-0.069138
-0.070141
-0.075352
-0.069107
-0.068473
-0.073450
-0.071647
-0.072182
-0.072016
-0.071148
-0.072852
-0.072685
-0.072285
-0.071417
-0.070783
-0.073189
-0.071853
-0.073090
-0.077132
-0.073692
-0.068850
-0.071956
-0.075063
-0.073494
-0.072392
-0.075265
-0.073462
-0.069321
-0.073831
-0.073898
-0.069991
-0.074267
-0.075036
-0.071362
-0.073066
-0.074069
-0.073201
-0.073502
-0.074505
-0.075040
-0.074639
-0.071901
-0.071501
-0.076011
-0.076312
-0.073574
-0.073173
-0.073475
-0.076348
-0.075480
-0.074612
-0.075381
-0.071006
-0.073879
-0.078622
-0.076118
-0.076185
-0.073447
-0.075151
-0.079427
-0.072948
-0.073950
-0.079161
-0.075722
-0.074620
-0.076792
-0.077093
-0.075758
-0.074656
-0.076126
-0.077596
-0.076728
-0.073523
-0.074993
-0.078333
-0.076998
-0.077533
-0.077367
-0.074862
-0.075631
-0.075932
-0.078104
-0.077470
-0.074264
-0.077371
-0.077906
-0.077739
-0.079443
-0.075536
-0.076539
-0.079412
-0.079245
-0.079780
-0.073769
-0.075707
-0.082788
-0.075608
-0.075675
-0.079717
-0.075810
-0.080787
-0.080854
-0.074375
-0.077248
-0.076848
-0.077149
-0.080490
-0.077518
-0.079456
-0.079991
-0.076551
-0.078956
-0.078322
-0.077922
-0.080795
-0.079460
-0.078358
-0.078893
-0.080129
-0.081833
-0.078628
-0.076825
-0.080867
-0.081402
-0.078897
-0.079900
-0.081370
-0.080502
-0.081739
-0.082040
-0.079068
-0.079603
-0.080138
-0.079737
-0.081909
-0.080807
-0.077602
-0.080007
-0.083114
-0.080376
-0.079508
-0.082848
-0.080344
-0.076437
-0.083051
-0.085690
-0.077574
-0.079746
-0.084957
-0.080114
-0.079714
-0.083055
-0.081953
-0.079215
-0.080217
-0.083792
-0.081989
-0.079952
-0.083994
-0.083594
-0.080388
-0.081624
-0.083095
-0.080824
-0.080891
-0.083998
-0.082896
-0.079924
-0.082564
-0.085904
-0.082932
-0.080194
-0.084002
-0.084070
-0.081331
-0.083971
-0.084506
-0.082001
-0.083004
-0.083772
-0.083606
-0.082504
-0.081403
-0.084276
-0.086214
-0.083008
-0.082374
-0.085013
-0.085080
-0.082810
-0.083111
-0.084815
-0.083012
-0.083781
-0.084316
-0.083214
-0.085152
-0.084284
-0.085520
-0.086991
-0.081914
-0.084320
-0.087894
-0.081415
-0.084756
-0.089032
-0.083254
-0.085426
-0.088532
-0.083690
-0.083991
-0.087098
-0.085996
-0.085128
-0.084728
-0.084796
-0.086032
-0.084930
-0.084998
-0.087637
-0.086068
-0.084031
-0.087372
-0.091881
-0.089377
-0.085937
-0.088109
-0.088877
-0.087542
-0.089480
-0.091651
-0.089147
-0.091319
-0.098166
-0.097064
-0.098067
-0.100940
-0.100540
-0.105049
-0.107455
-0.112198
-0.125592
-0.137115
-0.155886
-0.175125
-0.188285
-0.207524
-0.223723
-0.236416
-0.254719
-0.277465
-0.296003
-0.295135
-0.289591
-0.295971
-0.301883
-0.304756
-0.313006
-0.315879
-0.296775
-0.267151
-0.244773
-0.217253
-0.178510
-0.148885
-0.135392
-0.112781
-0.063985
-0.025008
-0.040974
-0.086865
-0.117326
-0.129785
-0.113019
-0.110281
-0.170668
-0.199726
-0.174076
-0.204771
-0.291109
-0.341209
-0.332392
-0.303001
-0.253737
-0.247960
-0.295956
-0.248796
-0.238810
-0.339177
-0.301369
-0.253508
-0.374682
-0.467099
-0.470206
-0.459986
-0.355079
-0.216972
-0.310792
-0.290987
0.016389
-0.157156
-0.564732
-0.675853
-1.021706
-1.148258
-0.834570
-0.921376
-0.899700
-0.660827
-0.967402
-1.175082
-1.077889
-1.242550
-1.283766
-1.325917
-1.781889
-1.792243
-1.249901
-1.075088
-0.901911
-0.539827
-0.597876
-0.630441
-0.413545
-0.452656
-0.612641
-0.334022
0.158521
0.084574
-0.071436
-0.294078
-0.718488
0.237208
1.101957
0.249932
-0.221237
-0.610577
-0.830180
0.259014
0.040814
-1.158633
-1.058635
-1.095409
-1.073032
-0.238677
-0.079528
-0.182700
-0.082235
-0.480225
-0.358718
0.502992
0.753555
-0.094261
-1.540833
-2.048941
-1.640331
-2.021254
-2.758718
-3.565854
-4.661729
-3.658105
-0.924614
-0.580298
-0.561194
2.776662
3.896483
0.836945
-0.559126
-0.492795
-0.105460
0.497903
-0.633977
-0.212508
1.181324
0.244665
-0.496306
-1.622809
-1.375986
1.728540
1.874362
-0.102695
-0.903518
-0.268358
0.899392
-1.996722
-5.374458
-3.010368
0.598225
1.296978
1.125304
2.609147
4.933492
5.461105
2.023049
-2.981215
-3.188660
-1.661330
-0.788399
4.878780
6.536803
-0.987562
-2.997351
2.373372
3.962425
-2.185108
-11.012424
-8.463400
5.068952
10.391279
4.525238
-0.691314
-0.680860
0.820051
-1.539498
-4.943654
-1.520228
5.737941
6.484622
2.218923
-2.108731
-5.148631
-2.157262
-3.233265
-9.468705
-4.802647
-1.389040
1.313355
14.255603
10.962033
-7.558986
-14.143953
-7.002683
4.356290
4.531804
-3.755909
-7.340088
-6.902955
0.630627
3.145049
-6.487699
-3.474354
13.863750
23.283609
12.736947
-10.954967
-11.037798
16.982269
16.995060
-13.340436
-19.681553
-3.037827
10.295330
10.150542
-7.178578
-12.433707
4.681121
12.918666
4.297558
-5.611772
-0.823204
11.012949
7.214377
-5.591000
-10.418046
-6.329934
-1.655225
-0.217439
-1.563010
-4.784804
0.024806
9.205022
10.286501
0.248816
-17.509323
-17.158695
4.056937
10.786256
1.478954
1.327152
11.827621
13.036519
-0.757821
-9.839509
-0.725925
10.055802
1.324810
-8.050996
3.983184
20.013893
21.103321
5.020808
-14.048700
-18.203812
-6.270166
10.342465
7.335999
-14.078495
-16.404845
3.911134
12.007232
1.563207
-1.367041
-0.850650
-11.824928
-8.209320
7.992763
0.580387
-6.031701
16.784273
24.253794
3.718612
0.577478
4.159185
-0.929246
9.318254
7.888517
-18.068191
-21.847591
2.554931
15.896271
-1.614510
-12.736080
7.376730
15.898106
3.594691
5.604345
22.126029
16.381563
-17.119315
-19.874683
3.054683
-3.010553
-9.156216
-1.952522
-4.851441
-1.470333
4.771285
-3.249197
-19.299213
-16.377983
10.780073
6.887515
-18.928680
-6.424101
6.973117
-7.532668
-6.181387
12.430444
16.177679
1.600586
-8.744309
-0.446210
6.340857
-0.638760
4.306920
13.297760
-5.482072
-13.580176
12.355355
20.265584
-0.204602
-15.638796
-11.921020
-5.202221
-15.626841
-15.315724
-0.173210
-9.664511
-21.728752
-7.047286
5.991988
3.819476
2.530251
4.192248
1.785939
1.723916
7.531138
7.888080
-2.284039
-17.417804
-24.930011
-14.542466
-1.420428
0.068793
1.039686
1.044762
-5.773301
-9.581692
-8.913567
-3.419866
5.012432
3.884059
-6.357263
-12.626371
-2.442229
5.285404
-12.402595
-21.311040
-11.042264
-9.403178
0.338385
16.558237
13.661655
7.978677
7.840202
0.954571
-13.575528
-25.565889
-17.148319
1.232287
2.525586
-2.236932
0.519938
-4.187403
-17.210914
-25.918059
-21.858938
1.000756
18.356395
9.094916
1.007568
5.075339
4.339278
0.270904
-9.647077
-16.873350
-2.873170
9.098118
4.212389
0.546848
-7.544241
-21.813423
-25.081743
-20.295512
-8.896093
8.558209
11.895597
1.594656
0.056904
9.493829
11.934839
2.052629
-0.912221
3.541549
-0.098508
-6.045209
-16.017898
-23.072097
-12.196383
-5.953128
-3.719964
7.952764
6.108037
-3.124685
-4.250018
-5.955403
-6.081020
-3.253309
8.287090
29.742130
39.514321
33.507768
25.245306
15.872540
3.116961
-0.960531
12.100019
18.264951
7.969621
10.570315
11.417061
-21.613884
-42.045728
-17.881679
5.853352
18.357230
33.389157
24.009845
-3.799472
-14.010401
-20.097380
-29.561561
-23.276456
-9.479446
11.362578
26.089400
4.825939
-19.606878
-15.023350
8.188677
33.058794
41.940684
49.200723
47.666011
20.322184
-2.236981
-24.609109
-43.968525
-36.243931
-27.650312
-16.814811
-2.285080
-6.684978
1.072581
33.286036
45.594694
23.854052
6.009409
0.872348
-21.422861
-39.762219
-32.119922
-30.695930
-41.819370
-46.225580
-49.535282
-48.121343
-22.883697
-3.166472
-1.447195
25.378402
44.754985
24.767121
10.627931
-5.354050
-25.168903
-14.956706
-5.128170
-17.820858
-14.017277
23.315169
40.419008
10.661225
-4.025519
10.429397
8.739677
-8.273116
-25.018913
-30.648117
-9.021937
24.259270
40.393318
50.022658
59.605006
48.860785
36.547785
22.429636
-15.469436
-28.917756
-9.012792
-1.712539
0.122000
13.444636
43.321054
64.694732
35.059225
-13.018444
-25.526665
-18.185031
-37.533693
-68.918003
-56.110189
-32.622749
-57.602886
-84.925436
-65.120304
-22.349499
3.697319
12.078883
44.146683
86.620331
86.571166
65.333189
48.528241
22.520566
-18.082137
-59.198960
-55.709370
-32.902280
-48.080232
-51.569256
-28.610198
-13.262878
12.052623
36.763056
46.067184
35.445473
1.407096
-11.130350
13.338805
45.420164
49.656269
18.202988
10.660387
23.319039
2.874570
-7.126643
23.715591
48.703074
51.795443
57.749257
61.351070
36.272271
-1.032254
-34.220778
-67.352256
-81.765224
-73.281256
-49.376956
-22.586896
-10.731104
8.083664
29.552498
16.624844
-1.605565
12.848416
28.514402
18.869730
10.984382
12.401594
2.716942
-23.561938
-50.806868
-43.290119
-29.000732
-43.081239
-44.758568
-54.413761
-67.094759
-22.216506
18.834953
17.843586
2.580531
-25.752258
-35.181135
-35.961150
-39.996558
-15.799076
-0.595541
-1.563062
18.595806
30.276016
24.313184
26.040878
20.753252
5.224838
2.843545
0.380891
-20.933304
-32.141846
-18.705117
-14.819474
-23.455778
-15.708973
-13.051935
-27.482671
-24.528944
-16.723923
-16.111208
-12.567376
-23.093464
-15.902629
20.891382
33.168944
30.915305
28.678499
10.623204
7.752574
23.778374
19.261577
-9.339845
-45.575683
-70.321320
-58.930317
-34.214741
-32.098943
-23.661501
9.271348
41.044329
49.495799
29.430783
28.019515
45.557516
21.192033
-2.314245
-0.633544
-13.812997
3.629147
26.875307
-9.451711
-37.109761
-38.019534
-28.925355
16.406698
42.224395
44.928894
61.836344
41.176080
8.644993
10.019888
4.637339
-5.015048
-0.346885
8.673413
17.415727
32.490206
60.865411
55.445456
-5.394271
-39.820986
-13.003572
12.244829
19.279254
31.495327
27.105015
13.759566
24.407327
32.276408
7.105961
-42.023562
-61.323594
-23.819307
-5.976902
-31.630608
-42.034888
-31.208973
-12.767580
2.314381
3.587106
-7.909241
-42.509667
-66.678760
-36.794627
0.038428
-3.128190
5.163597
50.169736
51.959387
21.356427
57.601716
93.458901
45.750865
9.516196
28.602636
28.021349
-8.847378
-26.277500
-16.893178
-26.256359
-32.741261
-10.385166
-5.442526
-24.196874
-37.886239
-35.395898
-20.643592
-7.386419
16.453353
37.211210
31.969174
20.932005
-3.959054
-36.621769
-43.334623
-30.478647
-4.015202
12.850398
-2.687134
-15.554935
-13.740970
-18.070027
-23.052782
-17.154846
-11.758638
-27.808654
-42.403282
-23.986204
-11.930749
-30.700996
-40.719042
-30.669101
-1.829106
30.474361
14.246191
-3.823833
29.328084
39.372649
37.621440
55.961833
14.946711
-31.538331
8.101928
64.981695
74.457665
41.165802
15.165375
14.749850
-13.513969
-48.720631
-53.690761
-49.107467
-29.154808
-9.249844
-10.741538
-11.916436
-3.849095
2.928854
0.202243
6.680230
35.569088
56.214488
46.202520
28.046459
40.606448
53.421276
18.516680
-9.515680
0.365694
2.468166
-0.805765
8.846254
16.664134
7.757092
-11.398219
2.182061
44.432667
35.379268
-17.725277
-44.982131
-68.098201
-103.752118
-123.021522
-124.036737
-88.399555
-30.058320
-2.766298
-1.297651
0.556528
23.981076
60.747265
57.429381
27.199093
9.618641
-14.316889
-29.034261
-18.650456
-22.784527
-23.763971
5.483999
30.655247
50.511815
62.549735
48.287567
26.465798
-0.852077
-16.554203
-8.976901
-17.306931
-24.931594
-10.916451
0.278630
21.546866
54.501692
66.308153
55.917901
54.933080
48.896367
-2.341774
-44.130297
-40.596753
-48.175124
-48.079101
-0.808167
49.231394
73.712238
75.827335
52.904848
19.575110
-10.328796
-27.588245
-14.759857
-3.426602
-21.443086
-13.979644
19.765417
21.776006
2.457505
-19.180733
-26.424074
17.828538
85.574969
101.717667
64.050756
29.416196
-6.045773
-38.037256
-33.075677
-38.648770
-38.504818
21.555060
74.945403
90.717533
75.432268
18.057417
-40.135959
-78.669322
-103.394386
-107.289282
-87.609230
-62.638815
-49.536416
-24.306719
-10.636426
-23.948676
-20.499065
-29.708641
-40.983347
-6.807164
22.795243
23.867136
17.347632
23.312434
32.524914
17.688306
30.480690
71.756361
82.933673
89.287748
86.717781
52.217186
26.764546
14.293498
-15.902421
-49.983817
-55.205279
-38.756306
-17.483628
4.513588
0.648384
-26.910302
-42.646094
-47.226717
-50.629704
-53.928183
-61.399008
-60.922129
-38.486544
-7.012823
6.323607
4.394712
12.636232
17.833712
6.249457
19.460104
58.105790
64.811729
57.105236
84.326185
105.643752
75.605879
35.335402
20.463491
1.504569
-26.849495
-28.029537
-2.162275
26.754171
40.854416
29.724196
17.064708
14.701886
-4.694470
-31.992706
-47.493065
-65.963350
-61.084536
-17.301390
-3.820239
-35.488847
-49.965641
-42.279156
-35.134379
-10.837299
27.744793
46.832636
57.007893
69.123200
66.348426
77.706464
85.442047
40.057020
15.832751
33.004391
-1.301216
-63.106526
-96.743240
-122.952214
-114.867806
-66.540810
-39.439800
-18.353926
11.879734
16.846222
34.959130
69.438548
75.864165
75.668175
53.046119
10.795612
18.709582
51.920183
62.555319
63.587700
49.602114
23.691231
8.730009
-8.387525
-37.057917
-43.619972
-21.804417
6.874725
39.493818
48.523235
28.057724
14.800416
-0.991254
-27.881046
-44.544779
-48.052741
-34.480410
-13.491795
-6.490570
1.724531
33.441167
61.259701
59.148912
54.461677
41.960002
-3.690851
-42.884926
-49.133927
-42.653835
-37.462201
-32.919120
-28.821656
-38.299163
-41.033957
-15.906897
3.507093
12.324689
10.636605
-23.536907
-48.384948
-44.499071
-55.928317
-60.655064
-19.688239
34.039941
72.206342
89.568761
90.702377
103.152014
98.025941
33.226624
-37.806898
-74.935841
-99.963906
-110.106098
-87.882099
-43.509550
-4.949902
31.652162
72.663641
85.085223
78.638430
75.666331
38.899306
-24.969264
-59.643103
-71.760649
-90.809816
-101.056983
-88.165703
-57.075177
-16.374413
15.178097
35.628977
62.669902
89.535010
96.882022
103.359074
114.703318
82.181583
13.569032
-43.669983
-93.234135
-120.068517
-110.875910
-89.081397
-53.436032
-18.265275
-12.138451
-10.332668
16.515841
30.722698
7.333786
2.518430
22.628668
10.214200
-28.102434
-44.292962
-24.716015
-16.225033
-31.123364
-0.616629
65.796690
89.011756
61.056783
26.384348
0.804054
-30.269774
-41.508944
-16.091040
21.802286
67.674177
79.749504
42.236198
20.047835
11.871410
-15.518708
-51.823984
-76.635085
-71.483897
-56.098702
-49.537249
-47.516840
-44.096454
-24.417805
-19.199050
-47.291729
-66.708426
-65.757172
-51.738522
-41.588982
-41.929926
-14.794781
31.988919
57.419214
51.805674
31.898471
23.156724
8.442392
-13.215017
-8.297861
4.719436
8.183543
5.778637
-9.722423
-22.226436
-17.855196
-10.524082
-19.861077
-39.787686
-35.333681
-9.593839
16.258928
61.374485
97.254816
72.693878
41.362172
39.360099
16.740146
-21.587242
-42.032647
-53.365803
-60.851357
-55.728459
-39.249092
-22.429317
-1.505932
26.335281
43.906948
45.007832
49.164446
62.249778
44.313719
14.437401
30.295568
25.583785
-30.320716
-64.853574
-91.254497
-104.064550
-50.291948
15.442658
40.499111
47.254615
45.499432
34.487046
21.585110
17.954405
30.262595
42.025335
36.069984
14.660400
-9.818241
-24.657421
-23.951187
5.871691
53.580060
64.215664
43.416290
30.625174
3.463008
-26.177175
-34.226648
-50.373456
-51.148094
-30.142880
-29.179703
-14.973781
9.635418
-1.768812
-17.769497
-34.053544
-67.224533
-67.117288
-16.483881
33.232572
62.189933
91.289442
91.981181
40.672199
-8.263740
-36.119816
-60.719097
-69.391640
-70.826287
-71.439371
-59.467849
-38.508693
-6.165715
28.294298
46.765851
57.914874
72.344774
95.418159
123.459501
112.800149
44.797342
-18.880216
-39.710451
-33.653533
-8.174842
12.548179
12.735383
17.669607
26.620936
17.876850
-3.732163
-27.030595
-51.368023
-48.859212
9.337302
65.919680
71.768285
69.787019
62.975269
28.395183
4.220011
-10.095229
-40.350299
-55.001740
-49.306506
-46.575120
-33.526728
-12.770040
-3.410034
-7.417153
-25.506115
-41.646844
-44.552076
-49.683994
-49.928613
-27.193299
4.178018
16.862621
6.469330
8.739902
36.315754
34.873392
0.694502
0.843831
35.869400
58.480801
65.953596
74.858165
75.484440
57.937654
46.839932
41.329263
14.938628
-7.534266
-9.789776
-8.526169
-5.051541
-13.801238
-30.470582
-22.319074
5.153673
35.203569
55.824186
32.663227
-23.099125
-42.990898
-27.197258
-24.795760
-28.411970
-27.668562
-32.378475
-40.162355
-42.547622
-28.676732
-25.940436
-50.515869
-61.758545
-47.039672
-24.797437
-14.568406
-10.422780
23.018344
64.515187
63.822846
20.832137
-18.822284
-25.307420
-36.200336
-51.586134
-19.954366
36.556937
62.786585
45.221095
16.640014
11.444503
11.122965
7.874752
19.652923
28.849037
23.653761
19.170631
3.820604
-23.431808
-27.598610
-28.267805
-45.372013
-33.740199
-15.659788
-33.100196
