EVENT_NAME: 202302060117
EVENT_ID: 13194
EVENT_DATE_YYYYMMDD: 2023/02/06
EVENT_TIME_HHMMSS: 01:17:32.00000
EVENT_LATITUDE_DEGREE: 37.288
EVENT_LONGITUDE_DEGREE: 37.043
EVENT_DEPTH_KM: 8.6
HYPOCENTER_REFERENCE: AFAD
MAGNITUDE_W: 7.7
MAGNITUDE_W_REFERENCE: AFAD
MAGNITUDE_L: 
MAGNITUDE_L_REFERENCE: 
FOCAL_MECHANISM: 
NETWORK: TK
STATION_CODE: 2101
STATION_NAME: 
STATION_LATITUDE_DEGREE: 37.93088
STATION_LONGITUDE_DEGREE: 40.20278
STATION_ELEVATION_M: 692.0
LOCATION: Kahramanmaras_Pazarck_Turkiye
SENSOR_DEPTH_M: 
VS30_M/S: 519
SITE_CLASSIFICATION_EC8: B
MORPHOLOGIC_CLASSIFICATION: 
EPICENTRAL_DISTANCE_KM: 287.35
EARTHQUAKE_BACKAZIMUTH_DEGREE: 
DATE_TIME_FIRST_SAMPLE_YYYYMMDD_HHMMSS: 2023/02/06 01:17:59.0282390
DATE_TIME_FIRST_SAMPLE_PRECISION: millisecond
SAMPLING_INTERVAL_S: 0.01
NDATA: 18251
DURATION_S: 
STREAM: HNZ
UNITS: cm/s^2
INSTRUMENT: sensor = CMG-5T/GURALP | digitizer = 
INSTRUMENT_ANALOG/DIGITAL: 
INSTRUMENTAL_FREQUENCY_HZ: 
INSTRUMENTAL_DAMPING: 
FULL_SCALE_G: 
N_BIT_DIGITAL_CONVERTER: 
PGA_CM/S^2: 33.527
TIME_PGA_S: 
BASELINE_CORRECTION: BASELINE REMOVED
FILTER_TYPE: BUTTERWORTH
FILTER_ORDER: 
LOW_CUT_FREQUENCY_HZ: 
HIGH_CUT_FREQUENCY_HZ: 
LATE/NORMAL_TRIGGERED: 
DATABASE_VERSION: 
HEADER_FORMAT: DYNA 1.2
DATA_TYPE: Acceleration
PROCESSING: Automatic Paolucci et al., 2011
DATA_TIMESTAMP_YYYYMMDD_HHMMSS: 
DATA_LICENSE: U (unknown license)
DATA_CITATION: Turkish Accelerometric Archive v 1.0 - Disaster And Emergency Management Presidency, Earthquake Department
DATA_CREATOR: AFAD
ORIGINAL_DATA_MEDIATOR_CITATION: : AFAD - Disaster And Emergency Management Presidency
ORIGINAL_DATA_MEDIATOR: AFAD PROCESS SERVICE
ORIGINAL_DATA_CREATOR_CITATION: AFAD PROCESS SERVICE
ORIGINAL_DATA_CREATOR: network: TK
USER1: GuestUser
USER2: 
USER3: 
USER4: 
USER5: 
[...]
-0.889368
-1.013148
-0.249727
0.918968
1.560493
0.721672
-0.999324
-1.728815
-0.935233
0.519351
1.652231
2.148612
2.579647
2.731703
2.521213
2.713482
3.789812
5.223662
6.307531
6.805169
6.519279
5.467455
4.439507
4.314470
4.939030
5.193504
3.897888
1.407816
-0.753011
-2.407404
-4.228305
-5.459203
-5.220438
-4.483406
-4.309987
-3.986396
-2.959705
-1.859498
-1.626387
-1.882117
-1.138174
0.921492
3.051532
4.119693
4.384849
4.479099
4.406213
3.652217
2.535046
1.835715
1.952585
2.286857
2.246644
2.264237
2.491693
2.751194
2.844187
3.038341
3.317320
2.866808
1.148325
-0.841596
-2.146009
-3.158877
-4.705197
-6.393520
-6.989805
-6.542434
-6.107629
-6.076212
-5.550299
-4.246514
-2.719043
-1.753928
-1.821787
-2.840938
-4.352072
-5.584856
-5.793461
-5.337293
-4.955896
-4.427470
-3.662164
-2.904397
-2.793183
-3.818617
-5.276343
-5.967506
-6.065525
-6.215067
-6.375919
-6.180508
-5.068992
-3.560371
-2.676938
-2.262869
-1.841259
-1.718734
-2.279833
-3.093520
-3.194052
-2.353975
-1.269476
-0.225820
0.644418
1.064771
1.753421
3.081083
3.881576
3.683024
2.959816
1.825681
0.673323
-0.440706
-1.939901
-3.410193
-3.917884
-2.918210
-0.984838
0.222813
-0.087582
-1.250621
-2.242126
-2.286737
-1.130609
1.022051
3.414104
5.382662
6.652518
6.984905
6.185669
4.693385
3.216182
1.844537
0.512477
-0.971638
-2.879876
-5.241141
-7.657698
-8.877287
-8.160990
-6.735309
-5.944241
-5.724953
-5.518232
-5.116101
-4.805705
-4.612808
-3.963114
-2.800075
-1.677877
-1.430314
-2.052361
-2.029741
-0.533058
1.454351
3.022663
3.918034
3.787341
2.779500
1.718879
1.417909
1.711968
1.849573
1.557400
1.311094
1.249518
0.999443
0.601082
0.430805
0.340326
0.148685
0.202094
0.775131
2.005402
3.312329
4.203930
5.180983
6.470946
7.235624
7.138861
6.866166
7.447372
8.622978
8.700891
6.835379
4.348449
3.326156
4.277448
5.922417
6.786999
6.980525
6.513676
5.153342
3.512144
2.788936
3.464391
4.474746
4.628688
3.894170
2.988118
1.831991
0.275618
-0.586451
0.047534
1.179786
1.786753
1.363887
-0.098865
-2.052344
-3.352358
-3.028768
-1.581095
-0.117714
0.381809
-0.016552
-0.313752
-0.365275
-0.784371
-1.636386
-2.328177
-1.860071
-0.479001
0.826041
1.859644
2.895761
3.960781
4.715406
4.626812
3.590067
2.442108
1.771680
1.583182
1.668635
1.782363
1.439923
0.631263
0.132369
0.628122
1.611459
2.492378
3.357589
3.821925
3.322403
2.119779
1.295410
1.045335
0.597336
0.038123
-0.298034
-0.399823
-0.049214
0.369882
0.513770
0.605507
0.865007
1.108171
1.483285
2.041870
2.181360
1.892329
2.090881
3.237584
4.420730
5.028954
5.274631
5.345633
5.337465
4.942874
3.828845
2.747489
2.501812
3.103753
3.735225
3.497088
2.709791
2.477309
3.360741
4.899522
6.473489
7.978969
9.369464
10.052459
9.867102
8.994980
7.355667
5.404074
3.798690
3.266495
4.134219
5.550476
6.914581
8.126630
9.038337
9.551683
9.355016
8.599764
7.772882
6.248553
3.641611
1.012678
-1.131184
-2.654884
-3.033139
-2.178609
-1.043216
-1.107306
-2.159758
-3.123617
-4.309275
-5.674008
-6.352604
-6.128290
-5.423303
-5.023685
-5.245485
-5.492419
-5.247998
-4.881053
-4.999179
-5.508126
-5.847424
-5.738094
-5.491160
-5.330936
-5.013629
-4.998548
-5.967433
-7.278758
-7.658269
-7.049417
-6.067336
-5.075831
-4.716426
-5.455970
-6.979671
-7.871899
-7.085229
-5.096564
-2.820752
-0.987284
-0.109507
0.089674
0.209057
0.406981
0.914672
2.222228
4.241053
5.846437
5.906128
4.168167
1.600182
-0.248993
-0.522945
0.313992
1.196796
1.779258
2.166938
1.972156
1.115114
0.467934
0.601141
1.287277
2.002317
2.294491
2.288208
2.282554
2.463513
3.416690
5.272778
7.229398
8.362906
8.475377
8.048741
7.453085
6.609238
5.562440
4.887614
4.706655
4.508731
4.145557
3.823224
3.701328
3.671797
3.435545
2.802188
1.453164
-0.386587
-1.934163
-2.318701
-1.440295
-0.762955
-1.398825
-2.594537
-2.868489
-2.106952
-1.405107
-1.107278
-0.620950
0.302067
1.063603
0.966212
0.040054
-0.900556
-1.127383
-0.882962
-0.974698
-1.783987
-3.482363
-5.870646
-8.015764
-9.241636
-9.383010
-9.000357
-8.324273
-6.663596
-4.165355
-1.920960
-0.429932
0.319666
1.153461
2.933520
4.531364
4.650747
3.766687
3.393459
4.140544
4.900195
4.282547
2.358601
0.186463
-1.577259
-3.016763
-4.398461
-5.654492
-6.331832
-6.274654
-6.336230
-7.307628
-8.152103
-7.153058
-4.561196
-2.047247
-0.684398
-0.360180
-0.321851
0.000483
0.217885
0.014306
0.312135
1.712683
3.016469
3.198057
2.416414
1.519159
1.262172
1.492770
2.144977
2.990081
3.584482
3.757901
3.750990
3.592651
3.315558
3.317443
3.668051
3.931950
3.833303
3.306762
2.576015
2.062041
1.520421
0.753858
-0.037209
-0.588883
-0.867861
-0.559351
0.172026
1.059229
2.138072
3.242048
4.263085
5.269042
6.033092
6.371762
6.562774
6.854320
7.963951
10.120381
13.076046
15.956940
17.942464
18.933969
19.318507
19.919819
21.089142
22.326953
22.822077
22.546241
22.249041
22.061799
21.193447
19.369405
17.607567
16.763720
16.189427
14.932138
13.072910
11.482606
10.545767
10.137981
10.205840
10.374233
9.656681
7.319293
4.049463
1.275386
-0.515983
-2.141473
-4.307327
-6.234415
-7.384259
-8.177840
-9.065042
-9.829091
-9.721646
-8.534730
-7.162457
-6.510878
-6.411602
-6.838237
-7.462169
-7.722297
-7.302572
-6.549204
-6.646595
-8.047143
-9.928991
-11.591553
-13.095146
-14.520827
-15.835922
-16.606883
-16.201609
-14.642094
-12.594365
-10.750844
-9.017281
-7.118467
-5.126660
-3.066994
-1.313324
-0.136461
0.105446
-0.267782
-0.605195
-0.850872
-0.801233
-0.342552
0.525172
1.149733
0.836825
-0.238876
-1.192681
-1.571564
-1.537634
-0.886055
0.268188
0.716816
-0.112580
-1.344107
-1.588527
-0.473869
0.534602
0.787819
0.696083
0.616285
0.073408
-1.138012
-2.209314
-2.577516
-2.547355
-3.009806
-3.908946
-5.065702
-6.252617
-7.501109
-8.995278
-9.704662
-9.098323
-8.327990
-8.135092
-7.784484
-6.383936
-4.426059
-3.119760
-2.493315
-1.847391
-1.024906
-0.172890
0.651479
1.357722
2.298961
3.276015
3.524834
3.437497
3.718360
4.236733
4.155050
3.390373
3.470800
5.195566
7.354509
8.386227
8.408847
8.535770
8.775164
8.128613
6.567841
5.127080
4.404501
4.190241
3.644222
2.547786
1.582672
1.180541
0.971935
1.042937
1.414909
1.466432
0.106726
-2.646616
-4.990288
-6.206735
-7.026077
-8.438563
-9.320738
-8.645911
-7.251018
-5.886284
-5.019817
-4.552339
-3.875627
-2.865272
-1.829155
-0.803720
-0.547989
-1.264914
-2.218719
-3.445847
-5.049345
-6.434813
-7.088276
-6.516495
-4.357553
-2.063519
-1.296956
-1.726105
-2.449313
-2.444914
-1.292556
0.086629
1.234588
1.937690
2.160119
2.590526
3.287344
4.015579
4.966243
6.464810
8.080248
9.163489
9.730872
10.312077
11.174775
12.609881
14.592891
16.117221
16.676435
16.660099
16.137956
14.913970
13.782976
12.968032
12.310170
11.264629
9.943251
8.808487
7.893011
6.746308
4.932948
3.249023
1.535567
-0.574993
-3.017941
-5.185051
-6.885312
-8.243133
-9.529953
-10.849446
-12.465511
-14.473025
-16.374352
-18.141216
-19.522914
-20.290733
-20.312724
-19.962116
-19.678739
-19.883574
-20.652021
-21.591375
-21.751599
-20.682180
-19.346350
-18.528264
-18.002980
-17.441881
-16.855020
-16.403879
-15.821416
-14.752626
-13.234580
-11.435671
-9.774366
-8.584936
-8.383870
-9.150433
-10.146964
-10.520820
-10.464270
-10.887136
-12.120548
-13.779339
-15.459494
-17.069275
-18.364892
-18.878866
-18.221004
-16.751967
-15.108255
-13.615971
-12.663422
-12.159501
-11.420585
-10.066533
-8.253800
-6.546627
-5.043661
-3.328319
-1.555799
-0.836989
-1.114083
-1.312006
-0.598223
0.706191
1.097641
0.597490
0.461143
0.667235
0.272016
-0.967679
-2.260782
-2.598824
-2.368226
-2.220568
-2.138885
-1.904518
-1.487306
-1.047475
-0.664193
0.040165
1.026016
1.677594
1.697701
1.321332
0.977636
0.627028
0.192223
-0.057852
0.285845
0.628914
-0.101205
-2.327379
-5.136014
-7.203849
-8.010624
-7.593413
-6.091703
-4.242527
-2.669817
-1.452113
-0.536007
0.621378
2.429084
4.792862
6.880803
8.205324
8.851247
8.552162
7.109517
5.446327
4.854440
5.842804
7.396037
7.900586
6.993906
5.009011
2.355573
-0.629623
-3.158652
-4.083553
-3.728546
-3.380451
-3.723519
-4.704971
-6.034517
-7.710901
-9.358383
-9.737894
-8.519561
-7.399877
-7.562614
-8.211050
-7.957833
-6.354962
-3.725400
-0.684282
2.741374
5.887423
7.338238
7.010250
5.507913
3.836555
2.480619
1.389210
0.440431
-0.028931
-0.180358
-1.162438
-2.740175
-3.718484
-3.940913
-4.048357
-4.497613
-5.061853
-5.393611
-5.561375
-5.539383
-5.408062
-5.154216
-5.048656
-5.511107
-6.669119
-7.569516
-7.392955
-6.162056
-4.404616
-2.924898
-1.834745
-0.760300
1.254127
4.248748
7.435011
10.303967
12.482387
13.668047
14.061382
13.811935
12.907140
12.024336
12.093453
12.983169
13.887964
14.019914
13.351371
12.256820
11.123941
10.335387
9.887388
9.747271
9.497824
9.130880
9.117685
9.536153
9.008356
7.336370
6.695473
8.349239
10.791558
12.071467
12.156292
12.233577
12.636337
12.997627
13.256499
13.506575
14.674013
16.744361
18.763814
19.882871
20.427633
21.693090
23.751500
25.658483
26.986773
27.566722
27.243132
27.064687
27.888428
29.351181
30.536840
31.227375
31.731924
32.058656
31.282669
28.132850
23.438596
19.000072
15.693799
12.782746
9.382852
5.791317
2.610710
-0.011940
-2.231830
-5.103298
-8.788454
-12.223535
-14.101613
-14.406353
-14.768271
-15.758519
-16.660173
-16.884486
-16.374910
-15.551169
-15.059815
-14.352943
-13.393482
-12.532041
-12.738762
-13.346357
-12.957420
-11.090651
-8.721846
-7.325696
-7.277943
-6.798526
-5.802623
-5.527414
-4.954377
-5.421226
-6.371889
-6.870783
-7.165469
-7.578910
-8.229231
-8.784047
-9.621610
-10.045105
-9.185549
-7.893702
-6.563526
-5.014064
-1.992424
1.626758
3.918907
6.131257
8.523939
10.650837
12.910312
15.830791
18.411343
19.812520
20.482320
21.573102
22.706609
23.181627
23.019519
22.444597
22.156822
22.156822
21.706310
20.271204
18.581624
17.534198
16.966188
15.792468
13.885486
11.988558
10.221065
8.135010
5.947164
4.202920
3.152352
1.935277
-0.141982
-2.650276
-4.581762
-4.505106
-2.785366
-0.305975
2.307879
4.713755
6.751430
7.312530
6.405221
5.311299
4.983311
5.457700
5.819619
5.749246
4.825601
2.337414
-0.645269
-3.071880
-4.556624
-5.421206
-6.433445
-7.675025
-9.157256
-10.716143
-12.451590
-13.982202
-14.652630
-14.848669
-15.816925
-18.095878
-20.478506
-21.962622
-22.616713
-22.861133
-22.550738
-21.240041
-19.671100
-18.895112
-19.159010
-19.716967
-19.244463
-17.936907
-16.699725
-15.608943
-14.428311
-12.651393
-10.439670
-8.237373
-5.733477
-2.658429
0.439239
2.992773
5.357808
7.828403
9.916972
10.490010
9.195022
7.367838
5.890006
4.732622
3.472820
2.615778
3.077601
4.228702
5.122188
4.839440
3.552620
2.564885
2.187259
2.147046
2.336174
2.737677
3.561418
4.615757
5.085748
4.575544
3.575871
2.169668
0.516532
-1.193782
-3.330104
-5.346416
-6.503799
-7.041650
-7.667466
-8.370567
-8.496233
-8.142483
-7.482108
-7.095684
-7.917540
-9.585756
-10.736857
-10.127376
-8.617498
-7.386599
-6.117372
-3.828365
-0.705564
1.881272
2.872777
2.361316
1.393688
0.691844
0.629011
0.773527
1.066958
1.975523
3.481631
5.273629
7.272976
8.856368
9.621046
9.786926
9.709013
9.609737
9.053037
8.756465
9.269812
9.954692
10.929232
11.761141
11.413047
10.703034
10.521447
10.540926
10.112405
8.864541
7.387966
5.717236
3.577144
1.079532
-1.774343
-4.419613
-6.856277
-9.670567
-13.155914
-16.868089
-20.548218
-23.664735
-26.095744
-28.111427
-29.023762
-28.793793
-27.413351
-25.850066
-24.715930
-23.736991
-22.200095
-19.697456
-17.221206
-15.551733
-14.724850
-14.268054
-13.546730
-12.653245
-12.478568
-12.411337
-12.190164
-11.123259
-8.824199
-6.377481
-4.400126
-2.650226
-0.456725
1.458425
1.612366
-0.187171
-2.923548
-4.706749
-4.182721
-2.309669
-0.576734
0.170979
0.307955
0.443675
1.437694
2.861490
4.155851
5.577762
7.541922
9.110235
9.514251
8.972003
8.627050
9.010331
10.099228
10.804215
10.127503
9.720346
8.368179
8.016315
6.454915
3.238493
2.691218
3.114084
4.306655
7.026697
10.584302
14.684157
19.406058
23.468213
26.045624
27.769762
28.971758
29.330534
29.089884
28.593504
28.432652
28.095239
26.361676
23.200547
19.561888
15.808872
12.841269
11.188761
9.611024
7.449569
4.324883
0.179161
-4.363037
-8.479227
-10.979981
-10.989406
-8.881986
-5.456330
-2.009939
0.633446
2.072951
2.982145
4.045280
5.406872
6.716312
7.502354
8.352485
8.990240
8.794201
7.592834
5.802722
4.161524
3.667657
3.601682
2.643479
1.457192
0.620257
0.340022
0.017060
-0.902815
-1.851593
-2.718060
-3.573217
-4.151909
-4.293283
-4.060172
-3.523578
-3.298007
-4.078393
-5.090632
-5.427417
-5.464488
-5.754776
-6.090933
-6.041294
-5.619684
-4.998265
-4.040690
-3.404191
-3.550592
-4.122372
-4.426484
-4.378730
-4.594247
-5.093769
-6.094071
-6.618726
-6.843668
-7.927537
-9.040938
-9.532292
-9.466945
-9.426103
-9.588212
-9.094973
-8.315843
-8.038121
-8.268718
-8.502456
-8.392498
-8.192060
-7.755999
-6.685952
-4.936053
-3.077452
-1.702665
-0.802896
-0.209124
-0.138750
-0.312169
-0.366834
-0.217291
-0.207237
-0.266928
-0.145660
0.734002
1.903325
3.075161
4.838256
7.332727
10.009413
12.001220
14.031984
16.653377
20.298321
23.911220
27.152775
29.830718
31.944421
33.527185
32.833509
29.760347
26.218450
23.207492
20.303979
17.635461
15.345826
13.355905
11.320116
9.257936
6.901070
4.074842
1.515025
-0.229219
-1.169201
-1.365868
-1.616571
-2.914701
-5.051652
-6.885119
-7.548007
-6.983138
-5.648564
-4.401957
-4.547101
-6.433976
-8.765081
-10.300091
-11.529733
-13.302252
-15.009424
-15.880290
-15.868351
-16.246606
-17.591860
-19.331078
-20.920124
-22.422461
-24.127121
-25.995774
-27.750072
-29.104123
-29.707948
-29.346658
-28.513492
-27.579165
-27.031260
-26.269096
-24.534276
-22.839669
-22.467697
-23.185878
-23.831173
-23.610629
-22.767410
-21.962518
-20.952791
-19.315363
-17.436655
-16.421902
-16.731668
-17.389530
-17.057143
-15.398351
-13.145787
-11.116280
-9.351929
-7.530399
-5.822598
-4.713595
-4.073326
-2.742522
-0.564102
1.221613
2.554930
3.997576
5.616783
7.283115
8.486996
9.750568
12.027637
14.365654
15.597810
16.095447
16.692990
17.595272
18.354923
18.820516
18.965033
18.694851
17.919492
16.552874
15.695204
15.985493
16.996476
18.716216
20.649588
21.969710
22.447241
22.241778
21.433117
20.320345
19.017817
17.593392
16.476222
16.323538
17.634863
19.567607
20.256257
19.428747
18.611289
18.578617
18.552227
17.360913
15.288052
13.333318
11.309467
8.714463
6.326809
4.780489
3.814746
2.713283
1.115440
-0.727452
-2.332835
-3.830146
-5.612718
-7.019549
-7.190454
-5.833261
-3.938845
-2.734964
-2.594218
-2.729309
-2.663962
-2.644484
-3.213122
-4.103466
-4.524447
-4.970561
-6.032438
-7.760346
-9.424792
-10.497351
-11.410315
-12.374173
-12.686453
-12.898828
-14.022910
-16.507328
-20.326946
-24.417375
-27.204019
-28.298570
-28.745941
-28.581318
-28.054777
-26.678734
-23.926019
-21.116126
-19.081593
-17.717488
-16.908198
-16.421870
-16.414330
-17.288337
-17.744504
-16.638643
-14.438231
-12.190693
-10.962308
-10.080132
-8.782630
-6.765690
-4.230377
-2.400051
-2.010486
-2.688454
-2.975601
-2.477963
-1.657363
-1.002643
-0.608051
-0.263726
0.491527
1.560945
2.082459
2.164771
2.281012
2.120788
1.983184
2.007061
1.490574
0.802553
0.912511
2.062356
3.315246
4.685006
5.741858
5.984394
5.896428
5.387481
4.586988
4.202450
4.016465
3.317134
1.925383
-0.077105
-1.466971
-1.611487
-0.891420
-0.089042
0.571333
1.386906
2.292958
3.374315
4.674959
6.084932
7.560880
9.149927
10.138919
9.949792
9.119768
8.133918
7.149325
6.132059
5.120448
4.081190
3.099739
2.455701
2.044773
1.726838
0.539923
-1.165993
-1.551159
-0.638195
0.375930
0.936401
1.609343
3.031882
4.812570
6.127037
7.242952
8.354468
8.590721
8.115703
8.376461
9.574058
10.136414
9.922782
10.028970
10.400942
10.605150
9.876915
8.277815
7.208398
6.799983
6.526660
6.215009
5.364878
4.096280
3.145617
2.862240
3.263743
3.791541
3.898986
3.434650
2.629131
2.228257
2.095051
2.459483
4.417360
7.135516
8.969612
10.197370
10.982155
10.177892
7.750025
5.053232
3.702323
3.272545
2.194959
0.808235
0.304314
0.628533
0.412388
-0.398786
-1.216872
-1.866565
-2.511231
-3.679925
-4.863070
-5.371389
-4.558330
-2.750623
-1.083035
0.149121
1.076536
2.404198
4.499680
7.296377
9.506215
9.484852
8.193005
7.234802
6.959594
7.018657
7.428957
8.240132
8.657972
7.761973
5.276928
2.076214
-0.388096
-1.823830
-2.109092
-1.369547
-0.877564
-1.713871
-3.502727
-4.516852
-3.957009
-2.688410
-1.625275
-0.220957
1.476163
2.254664
2.117688
1.694194
1.378145
1.358667
1.099167
0.416800
-0.087749
-0.296982
-0.613660
-0.663298
0.007131
0.700807
0.634833
-0.077065
-0.761944
-1.513427
-2.704741
-3.924329
-4.480401
-4.779486
-5.505207
-6.279938
-6.229043
-5.382053
-4.514329
-4.118481
-4.607950
-5.952576
-7.974542
-9.593120
-9.684228
-8.507365
-7.012567
-5.713809
-4.830376
-4.310747
-3.716346
-3.426057
-3.554865
-3.689955
-3.370135
-3.128856
-3.306673
-3.490773
-3.010729
-1.556144
-0.188898
0.744173
0.727837
0.241509
-0.426405
-1.776686
-2.634985
-3.059736
-3.394636
-2.886945
-2.209604
-2.750596
-4.059408
-5.096152
-5.561116
-5.444875
-5.315438
-5.395864
-4.709099
-3.527210
-2.609219
-1.376435
0.578300
2.481512
3.917247
5.419585
6.612156
7.278186
7.251168
6.873542
7.299550
8.902421
10.713897
11.515018
10.879148
9.774544
8.890484
8.103815
7.800332
8.080567
8.671826
9.699775
10.999162
11.228503
10.466338
9.786485
9.553375
9.232927
8.984737
8.771733
7.912806
6.518542
5.080923
4.028470
2.853493
1.233030
-0.497391
-1.593198
-1.677394
-1.307307
-1.424805
-1.446796
0.138481
2.432515
3.904693
4.702672
5.266913
5.904040
6.453829
6.925706
7.353599
7.216623
6.202498
4.868554
3.131221
0.767444
-0.644414
-0.783275
-0.698450
-1.319240
-2.571501
-3.239416
-3.532218
-3.901047
-4.078236
-4.214583
-4.395542
-4.962924
-5.211114
-5.076651
-5.531562
-6.289956
-7.302195
-8.170547
-8.815842
-9.447314
-9.685451
-9.198494
-8.186882
-7.359371
-6.963523
-6.715332
-6.095799
-5.441707
-5.201684
-5.165241
-5.574912
-6.749260
-7.742650
-7.627037
-7.053371
-6.286180
-4.894428
-2.964826
-0.744935
0.813952
1.357458
1.770899
2.365300
3.113642
3.944923
4.554403
4.720911
4.734735
4.228929
3.315337
3.233655
3.665318
3.942412
4.048600
3.838110
3.030706
1.050209
-1.270842
-1.656008
-0.226557
0.617291
-0.316407
-1.779788
-2.065678
-0.944108
0.341456
-0.021091
-1.293459
-1.508347
-0.817812
-0.919601
-2.121597
-2.876221
-2.988692
-2.891929
-3.074772
-3.459938
-3.364432
-2.296899
-0.675178
-0.152407
-0.697169
-2.028601
-3.516486
-3.730118
-2.685833
-0.546369
2.407412
5.142533
7.207226
8.397912
8.536774
9.002995
10.270965
11.369287
12.473263
12.204967
9.521369
7.099156
7.315931
7.890853
6.182424
3.898444
2.392965
1.479373
-0.054380
-3.146393
-6.479684
-8.796965
-9.846904
-9.593687
