EVENT_NAME: 202302060117
EVENT_ID: 13194
EVENT_DATE_YYYYMMDD: 2023/02/06
EVENT_TIME_HHMMSS: 01:17:32.00000
EVENT_LATITUDE_DEGREE: 37.288
EVENT_LONGITUDE_DEGREE: 37.043
EVENT_DEPTH_KM: 8.6
HYPOCENTER_REFERENCE: AFAD
MAGNITUDE_W: 7.7
MAGNITUDE_W_REFERENCE: AFAD
MAGNITUDE_L: 
MAGNITUDE_L_REFERENCE: 
FOCAL_MECHANISM: 
NETWORK: TK
STATION_CODE: 2404
STATION_NAME: 
STATION_LATITUDE_DEGREE: 39.90631
STATION_LONGITUDE_DEGREE: 38.77056
STATION_ELEVATION_M: 1579.0
LOCATION: Kahramanmaras_Pazarck_Turkiye
SENSOR_DEPTH_M: 
VS30_M/S: 567
SITE_CLASSIFICATION_EC8: B
MORPHOLOGIC_CLASSIFICATION: 
EPICENTRAL_DISTANCE_KM: 327.55
EARTHQUAKE_BACKAZIMUTH_DEGREE: 
DATE_TIME_FIRST_SAMPLE_YYYYMMDD_HHMMSS: 2023/02/06 01:18:05.9500340
DATE_TIME_FIRST_SAMPLE_PRECISION: millisecond
SAMPLING_INTERVAL_S: 0.01
NDATA: 18251
DURATION_S: 
STREAM: HNE
UNITS: cm/s^2
INSTRUMENT: sensor = CMG-5T/GURALP | digitizer = 
INSTRUMENT_ANALOG/DIGITAL: 
INSTRUMENTAL_FREQUENCY_HZ: 
INSTRUMENTAL_DAMPING: 
FULL_SCALE_G: 
N_BIT_DIGITAL_CONVERTER: 
PGA_CM/S^2: 9.861
TIME_PGA_S: 
BASELINE_CORRECTION: BASELINE REMOVED
FILTER_TYPE: BUTTERWORTH
FILTER_ORDER: 
LOW_CUT_FREQUENCY_HZ: 
HIGH_CUT_FREQUENCY_HZ: 
LATE/NORMAL_TRIGGERED: 
DATABASE_VERSION: 
HEADER_FORMAT: DYNA 1.2
DATA_TYPE: Acceleration
PROCESSING: Automatic Paolucci et al., 2011
DATA_TIMESTAMP_YYYYMMDD_HHMMSS: 
DATA_LICENSE: U (unknown license)
DATA_CITATION: Turkish Accelerometric Archive v 1.0 - Disaster And Emergency Management Presidency, Earthquake Department
DATA_CREATOR: AFAD
ORIGINAL_DATA_MEDIATOR_CITATION: : AFAD - Disaster And Emergency Management Presidency
ORIGINAL_DATA_MEDIATOR: AFAD PROCESS SERVICE
ORIGINAL_DATA_CREATOR_CITATION: AFAD PROCESS SERVICE
ORIGINAL_DATA_CREATOR: network: TK
USER1: GuestUser
USER2: 
USER3: 
USER4: 
USER5: 
[...]
1.831606
1.810245
1.728362
1.630161
1.558365
1.492799
1.431386
1.368193
1.261092
1.125807
0.991115
0.840996
0.677526
0.538384
0.423569
0.339609
0.317655
0.331895
0.390340
0.483793
0.579027
0.643405
0.660612
0.621747
0.536007
0.387371
0.236065
0.061619
-0.141013
-0.301812
-0.474776
-0.613918
-0.745643
-0.852151
-0.922760
-0.954802
-0.966669
-0.956879
-0.896654
-0.804387
-0.707967
-0.636765
-0.568529
-0.580693
-0.668807
-0.758107
-0.886569
-1.017701
-1.098991
-1.185325
-1.282635
-1.374902
-1.475180
-1.605421
-1.694425
-1.813690
-1.921088
-1.922868
-1.947196
-1.892014
-1.787287
-1.697987
-1.598600
-1.457975
-1.308450
-1.171682
-0.997236
-0.825756
-0.665254
-0.475380
-0.300934
-0.122928
0.055672
0.208758
0.414652
0.608975
0.767104
0.949264
1.048354
1.065561
1.085438
0.984864
0.858183
0.754642
0.564768
0.427109
0.286483
0.053294
-0.152897
-0.420204
-0.742693
-1.016824
-1.256540
-1.499222
-1.675152
-1.773946
-1.791451
-1.776024
-1.765344
-1.704525
-1.635399
-1.546100
-1.446416
-1.388268
-1.351183
-1.327746
-1.293332
-1.254764
-1.266631
-1.316770
-1.375512
-1.476977
-1.619976
-1.749624
-1.947212
-2.183961
-2.464618
-2.771680
-3.028307
-3.293834
-3.525836
-3.758135
-4.024552
-4.281179
-4.531575
-4.757347
-4.895599
-5.013677
-5.116625
-5.205925
-5.272084
-5.270601
-5.183378
-5.085772
-5.002405
-4.909249
-4.852287
-4.766547
-4.636900
-4.526536
-4.359506
-4.188917
-4.024558
-3.792556
-3.698806
-3.509229
-3.247856
-3.116428
-2.914094
-2.735198
-2.564312
-2.399656
-2.335574
-2.209189
-2.063224
-1.991132
-1.801258
-1.628889
-1.455036
-1.241725
-1.131954
-1.018920
-0.958102
-0.919831
-0.867912
-0.815994
-0.766449
-0.732628
-0.690797
-0.724025
-0.766450
-0.776537
-0.792262
-0.753100
-0.678041
-0.550767
-0.415482
-0.278417
-0.146099
-0.057096
0.045258
0.174609
0.263612
0.306333
0.348164
0.288532
0.131292
-0.020904
-0.165979
-0.272190
-0.332416
-0.422013
-0.504787
-0.498557
-0.470966
-0.447232
-0.384633
-0.362086
-0.393237
-0.404511
-0.486988
-0.570652
-0.611593
-0.673599
-0.689917
-0.694664
-0.694071
-0.659063
-0.668557
-0.647790
-0.582521
-0.606552
-0.686952
-0.773286
-0.915692
-1.068778
-1.205546
-1.307307
-1.378213
-1.400168
-1.349140
-1.319472
-1.289211
-1.236403
-1.188045
-1.137610
-1.041486
-0.921926
-0.807408
-0.675980
-0.566803
-0.484624
-0.364469
-0.223844
-0.094196
0.042275
0.158276
0.256476
0.329458
0.377223
0.398287
0.326491
0.189425
0.106949
0.025955
-0.069575
-0.095980
-0.161546
-0.280514
-0.399186
-0.554645
-0.699127
-0.806822
-0.908286
-0.966138
-1.062855
-1.151562
-1.222765
-1.331350
-1.460405
-1.577000
-1.694484
-1.833033
-1.935091
-1.995613
-2.035962
-2.003624
-1.934795
-1.830068
-1.701903
-1.538731
-1.358351
-1.168478
-0.926092
-0.758469
-0.600934
-0.493537
-0.446069
-0.309300
-0.214661
-0.028347
0.212852
0.366234
0.570644
0.723433
0.815996
0.920130
0.939117
0.907966
0.828456
0.622858
0.455531
0.206025
0.036622
-0.066623
-0.131299
-0.165417
-0.145243
-0.179361
-0.139607
-0.169571
-0.079678
-0.084426
-0.014113
0.009324
0.086163
0.095953
0.220558
0.229755
0.399157
0.300957
0.433275
0.482226
0.595854
0.564999
0.904398
0.605050
0.641837
1.052736
0.384024
0.930207
0.763474
0.610685
0.726686
0.677437
0.492013
0.507737
0.384912
0.343673
0.347826
0.395591
0.540666
0.735287
0.840607
0.992506
1.119780
1.228067
1.288886
1.351485
1.348518
1.353264
1.365131
1.358604
1.324189
1.281170
1.167543
1.052431
1.000216
0.930496
0.932869
0.908541
0.842975
0.789870
0.664671
0.487851
0.252882
-0.032226
-0.290336
-0.563279
-0.813676
-1.051315
-1.265220
-1.465775
-1.658022
-1.857686
-2.124697
-2.440659
-2.745941
-3.061903
-3.321496
-3.580199
-3.742483
-3.808642
-3.808049
-3.730320
-3.655557
-3.533623
-3.438983
-3.368077
-3.220925
-3.124802
-2.976167
-2.786293
-2.648338
-2.546875
-2.461432
-2.427017
-2.414854
-2.432062
-2.423458
-2.386077
-2.346619
-2.305678
-2.278087
-2.272451
-2.278088
-2.304789
-2.275715
-2.262365
-2.196799
-2.061218
-1.937503
-1.778188
-1.649133
-1.566064
-1.500201
-1.388057
-1.277100
-1.156353
-1.022255
-0.952832
-0.821998
-0.652892
-0.467765
-0.253267
-0.076744
0.091472
0.248414
0.305969
0.310716
0.226162
0.072186
-0.077933
-0.255346
-0.413476
-0.561815
-0.727362
-0.868284
-1.065872
-1.252779
-1.449477
-1.680589
-1.863343
-1.965994
-2.068941
-2.117003
-2.038977
-2.047878
-1.976379
-1.848214
-1.779089
-1.655968
-1.524540
-1.399045
-1.302922
-1.210062
-1.154287
-1.138563
-1.110972
-1.091095
-1.070921
-1.059648
-1.041254
-1.010103
-0.951361
-0.897070
-0.857909
-0.810144
-0.800947
-0.798871
-0.788784
-0.782554
-0.734196
-0.694441
-0.691475
-0.666257
-0.704232
-0.762085
-0.722924
-0.848122
-0.970057
-1.030579
-1.245671
-1.376210
-1.483607
-1.620673
-1.572611
-1.536120
-1.573205
-1.480938
-1.409143
-1.483906
-1.441778
-1.403507
-1.357522
-1.229654
-1.072712
-0.914286
-0.742807
-0.585864
-0.447910
-0.303131
-0.169033
-0.048582
0.039828
0.119337
0.181046
0.241271
0.311880
0.401476
0.526081
0.696967
0.885060
1.063067
1.192121
1.243446
1.277861
1.270443
1.229205
1.244632
1.281716
1.294473
1.354402
1.433911
1.451118
1.443701
1.417000
1.380508
1.360927
1.332742
1.334819
1.363893
1.376650
1.405427
1.449335
1.548722
1.742749
1.962587
2.194292
2.436381
2.613201
2.748485
2.867750
2.925008
2.963576
2.987310
3.006890
3.048425
3.029734
2.970398
2.894448
2.793578
2.676390
2.570179
2.429256
2.296048
2.189243
2.005303
1.785464
1.567703
1.309593
1.084711
0.850335
0.629013
0.463763
0.342422
0.286349
0.260835
0.237397
0.265284
0.332333
0.385438
0.422523
0.430829
0.409172
0.388404
0.335298
0.257272
0.141567
-0.008849
-0.160452
-0.299297
-0.394531
-0.459504
-0.456240
-0.432210
-0.427760
-0.393939
-0.404916
-0.433398
-0.468703
-0.527742
-0.530412
-0.508162
-0.459803
-0.383261
-0.307312
-0.171434
0.008056
0.138001
0.249848
0.292866
0.268835
0.227596
0.168854
0.126725
0.146899
0.205048
0.255779
0.320752
0.336475
0.307104
0.219584
0.121383
-0.025770
-0.201996
-0.362499
-0.565427
-0.763015
-0.947549
-1.125853
-1.280125
-1.454572
-1.582144
-1.659874
-1.768161
-1.761041
-1.720100
-1.758965
-1.777360
-1.866363
-1.977321
-2.042887
-2.080565
-2.051195
-1.988299
-1.944985
-1.935788
-1.916801
-1.959523
-1.980290
-1.974060
-2.005509
-1.983555
-1.965161
-1.952107
-1.896926
-1.855094
-1.813560
-1.764311
-1.672045
-1.579482
-1.427286
-1.207448
-1.006894
-0.768069
-0.518860
-0.304659
-0.095798
0.112469
0.337054
0.570836
0.804618
1.042257
1.216999
1.322616
1.451671
1.530290
1.537707
1.507149
1.414585
1.260016
1.108413
0.947613
0.818262
0.728071
0.625420
0.502299
0.402912
0.295217
0.212147
0.091992
-0.064060
-0.209136
-0.448259
-0.576424
-0.768375
-0.887936
-0.856192
-0.962403
-0.967150
-0.970414
-1.090272
-1.125577
-1.137741
-1.222294
-1.219031
-1.244546
-1.307738
-1.257303
-1.259380
-1.296169
-1.279852
-1.252854
-1.231494
-1.183136
-1.094429
-1.012250
-0.917610
-0.814960
-0.752361
-0.680565
-0.523326
-0.417413
-0.295775
-0.092254
0.068248
0.277109
0.512968
0.674953
0.834269
0.963917
1.047877
1.211346
1.376298
1.533241
1.722817
1.824578
1.915657
1.949478
1.860771
1.842674
1.743286
1.593167
1.528491
1.350484
1.156160
0.970736
0.642017
0.469350
0.196406
-0.089592
-0.236744
-0.453912
-0.616492
-0.781149
-1.032435
-1.091178
-1.241890
-1.330894
-1.332971
-1.392307
-1.424645
-1.363233
-1.412778
-1.422866
-1.475675
-1.576249
-1.667329
-1.595533
-1.556075
-1.359675
-1.268002
-1.167132
-1.084359
-1.026507
-0.938394
-0.862148
-0.874312
-0.644980
-0.615016
-0.551231
-0.478248
-0.373521
-0.296979
-0.087228
-0.032046
0.086031
0.158717
0.224579
0.321593
0.371138
0.394872
0.542913
0.639927
0.819713
0.871632
0.958261
1.057351
1.093546
1.181955
1.217853
1.215776
1.168901
1.047263
0.842851
0.771648
0.536679
0.354519
0.114506
0.114803
-0.168822
0.014228
-0.290163
0.963300
-1.724305
1.777680
0.298741
-0.574976
2.380528
0.602241
1.022337
2.091563
2.105210
1.868758
2.738913
2.438379
2.841267
2.835926
2.713101
2.755823
2.682543
2.319409
2.430960
2.063376
2.036378
1.901686
1.781531
1.703504
1.814165
1.698163
1.996324
2.037266
2.178484
2.279947
2.421759
2.538057
2.650200
2.653464
2.805659
2.796462
2.799132
2.853423
2.829689
2.761156
2.799130
2.802987
2.834731
2.751958
2.687282
2.617562
2.505714
2.294776
2.230694
2.112319
2.000174
1.852428
1.723077
1.628436
1.514808
1.362909
1.205966
1.174518
1.137136
1.054066
1.049616
1.011641
0.974259
0.923230
0.987906
1.004816
1.013716
1.098566
1.116663
1.186678
1.189051
1.165317
1.122595
1.006890
0.816126
0.604001
0.422138
0.247691
0.056037
-0.145408
-0.311844
-0.551857
-0.836965
-0.972250
-1.201286
-1.295333
-1.331824
-1.417268
-1.355856
-1.422312
-1.465627
-1.373954
-1.470078
-1.548995
-1.488176
-1.443971
-1.342211
-1.109913
-0.875834
-0.669347
-0.532282
-0.386020
-0.286040
-0.277436
-0.229968
-0.168259
-0.080146
0.015087
0.228398
0.461290
0.715839
1.096476
1.447149
1.917680
2.315228
2.675691
3.120707
3.451800
3.723260
4.118137
4.437066
4.718613
5.086493
5.354096
5.439539
5.648400
5.863194
6.074132
6.223064
6.416794
6.636929
6.889698
7.038333
7.323440
7.431134
7.493436
7.609437
7.674706
7.824231
8.041992
7.994820
8.147609
8.294464
8.463867
8.497688
8.608349
8.596481
8.689341
8.745413
8.778047
8.770927
8.929056
8.930242
9.080954
9.071757
9.217722
9.211491
9.430439
9.288330
9.338172
9.228104
8.742442
9.381486
8.646318
8.566808
8.986607
8.352310
8.192103
8.072245
7.617438
7.087274
6.830648
6.330745
6.104083
5.713062
5.562349
5.399176
5.170734
5.014088
4.891559
4.611792
4.557796
4.425774
4.265865
4.003305
3.921124
3.800376
3.691495
3.758248
3.567483
3.636906
3.767147
5.562937
-0.186975
5.482241
4.651839
1.631065
5.187639
3.159252
3.225708
4.008937
2.854267
3.267242
3.877508
2.406579
3.603970
3.190994
2.856045
3.569851
3.296018
3.195443
3.649954
3.223034
3.565993
3.522678
3.621471
3.718485
3.880174
3.867416
4.191388
4.072717
4.286028
4.275347
4.356637
4.275940
4.305014
4.317474
4.386007
4.179815
4.152521
4.064110
3.964426
3.951966
3.941582
3.981039
4.215711
3.671604
3.262485
3.738356
3.554712
2.884220
3.173777
3.099311
2.445136
2.177532
1.926542
1.510897
1.245073
0.699482
0.524145
0.482907
-0.229713
-0.545972
-0.692828
-1.314368
-1.467751
-1.420580
-1.862630
-2.231104
-2.534012
-2.867478
-2.654167
-2.582075
-2.595426
-2.546474
-2.597206
-2.211229
-2.375885
-2.636665
-2.296673
-1.944517
-1.564473
-1.499500
-1.402190
-1.165739
-1.107293
-0.845327
-0.724876
-0.960142
-1.165147
-1.152093
-1.070804
-0.943529
-1.099879
-1.140524
-1.105813
-1.332178
-1.260382
-1.004943
-1.091870
-1.202234
-0.979430
-0.942642
-1.111155
-1.208466
-1.452335
-1.344345
-1.153285
-1.200753
-1.065765
-1.090390
-1.161889
-0.767308
-0.479531
-0.634100
-0.297965
-0.035405
-0.161790
-0.153484
-0.159714
0.077035
0.209649
-0.026210
-0.028880
0.466868
0.421773
0.236052
0.367777
0.416135
0.345229
-0.000105
0.036683
0.268685
0.002268
-0.076649
-0.125007
-0.191760
0.217952
0.559427
0.643684
0.669494
0.539253
0.339291
0.409010
0.509584
0.428294
0.404856
0.499199
0.325939
0.346410
0.537173
0.679875
0.924931
1.124298
1.100563
1.006516
1.037667
1.423941
1.436105
1.072081
1.188378
1.091661
0.849275
1.065849
1.090770
0.876272
0.873008
0.748403
0.757600
0.881017
0.613710
0.627654
1.294585
1.216855
0.793793
0.903563
1.325735
1.308528
0.959931
0.948360
1.082755
0.886354
0.516397
0.597389
0.269857
0.045568
0.119144
0.044084
0.431842
0.302787
0.287359
1.099366
1.414734
1.385659
1.914932
2.252255
2.245728
2.687184
3.081765
3.233367
3.615488
4.076525
4.106192
3.758189
3.767979
4.035582
4.104411
3.619046
3.076719
2.883581
3.263328
3.431841
2.882987
3.042303
2.540620
1.942517
2.415125
2.661070
2.251358
2.337691
2.376852
1.852919
1.610236
1.628037
1.810197
1.514112
0.847476
0.838279
1.185095
0.527064
0.088574
0.443400
-0.003100
-0.223532
-0.020605
-0.420824
-0.728182
-1.186253
-1.397191
-0.799979
-0.677748
-0.970273
-0.417859
-0.290584
-0.461174
-0.382852
-0.705934
-0.591417
-0.159751
-0.267149
-0.181409
-0.458506
-0.991340
-0.943872
-1.639285
-1.885528
-1.633945
-2.503211
-2.384541
-2.229378
-2.950009
-2.778530
-3.009049
-3.550783
-2.999555
-2.733732
-2.619512
-2.482447
-2.737887
-2.640280
-2.594889
-2.990657
-2.686859
-2.437947
-2.446848
-2.095285
-2.547422
-2.935773
-2.795148
-3.125351
-3.170150
-2.734627
-2.979980
-3.527944
-3.824029
-3.749266
-3.344005
-3.344895
-3.197150
-2.823633
-2.769934
-2.628716
-2.495211
-2.269736
-1.971872
-2.020231
-1.716136
-1.040008
-0.756088
-0.817500
-0.507472
0.065709
-0.191214
0.430622
-0.062753
-0.631485
-0.173711
-0.203083
-0.536549
-0.780122
-0.937361
-0.516969
-0.152056
-0.933802
-1.070867
-1.723262
-2.377140
-1.466636
-1.885842
-1.893853
-1.745514
-3.105782
-3.025383
-2.920063
-3.375167
-3.541307
-4.613797
-5.000665
-4.593920
-5.371513
-5.376557
-5.311585
-6.442817
-6.241967
-5.953300
-6.809809
-7.157515
-7.779056
-7.993257
-7.726544
-8.183132
-8.231490
-8.246028
-9.096307
-9.338396
-9.152676
-9.194211
-8.979714
-8.883590
-8.810608
-9.117373
-9.860551
-9.567434
-8.945894
-8.521348
-8.371230
-8.032721
-7.314464
-7.510865
-7.323068
-6.862031
-7.196684
-6.964386
-5.927200
-5.146641
-4.807242
-5.020554
-5.104514
-5.218438
-5.467055
-4.650598
-3.759971
-3.632103
-3.436593
-3.382598
-3.116775
-2.292604
-1.828007
-1.719423
-2.004828
-2.696087
-2.549529
-2.228524
-2.213690
-1.720315
-1.076821
-0.729412
-1.026980
-1.127257
-0.781628
-0.875972
-1.452714
-1.947276
-1.164047
-0.233072
-0.036672
0.485778
1.123931
0.726976
0.216097
0.845053
1.680201
1.494480
0.554012
0.614534
0.168033
-0.673049
0.425252
1.429803
1.539870
1.147662
0.623729
1.622346
2.510302
1.957888
1.546692
1.681384
1.093664
-0.229222
-1.230510
-0.778967
-0.183831
-0.017395
0.915359
1.450566
0.838816
-0.502168
-1.044495
-0.998807
-1.198175
-0.954603
-0.445504
1.142315
1.465101
0.009896
0.331197
0.402993
0.100678
0.011675
-1.368174
-1.026995
-0.468648
-1.193135
-0.803004
-0.772447
-1.165248
-0.456189
-0.328321
-1.153679
-0.713112
-0.549643
-0.554984
0.181074
-0.427116
-0.840389
-0.628264
0.120847
1.171679
0.569720
-0.258012
-0.687305
-0.869168
-0.072292
-0.100773
-0.824371
-0.139639
0.305378
-0.236356
-0.327140
-0.040846
-0.247928
-0.343458
0.483679
1.444025
1.051223
-0.359480
-0.741601
-0.243776
0.308934
0.603832
0.565263
1.351756
1.042617
0.309526
0.707074
0.438877
0.199755
0.955096
0.817437
-0.353550
-0.580213
-0.487649
-0.165161
0.189666
-0.279382
-0.457983
-0.664174
-0.708083
-0.290064
-0.602169
-0.569832
-1.313307
-1.287792
-0.704821
0.261755
1.231891
0.513041
-0.566274
-0.987853
-0.878379
-1.205912
-1.124029
-0.660915
-0.759412
-1.094362
-0.851977
-0.510204
-0.415861
-0.506941
-0.996460
-1.722134
-1.908745
-1.972531
-2.482223
-2.926054
-3.305208
-3.156870
-2.414879
-2.166560
-1.979356
-2.632938
-3.438418
-2.855447
-2.435648
-2.525245
-3.138478
-3.332506
-2.735293
-2.749831
-3.266347
-3.089528
-2.772973
-2.958693
-2.711858
-2.138676
-2.017335
-2.465616
-3.027524
-2.751317
-1.560453
-1.384820
-0.980448
-0.524751
-1.505272
-1.260216
-1.312729
-2.296216
-2.072818
-1.773767
-1.378592
-0.567179
-0.256261
0.139507
0.346885
-0.263085
-0.453553
-0.514075
-0.513185
0.148999
0.703490
0.681832
0.688359
0.435886
-0.727685
-1.235894
-0.162514
0.344508
0.531414
0.812665
0.398502
0.275084
0.184597
-0.631564
-1.313330
-0.885521
-0.275848
-0.029013
0.342428
0.579473
-0.006466
-0.700692
-0.392741
0.291101
0.505895
0.219008
-0.715231
-1.240351
-0.709891
-0.072331
-0.010029
-0.334891
-0.150951
0.030912
-0.186257
-0.569268
-1.315710
-1.145714
-0.674293
-1.052557
-1.425185
-1.755684
-1.394924
-0.796525
-1.157286
-0.931218
-1.090534
-2.296826
-2.044947
-1.465239
-1.111896
-1.028530
-1.484227
-1.981756
-2.927269
-3.213860
-2.424697
-2.462969
-3.359529
-2.984826
-2.042874
-2.373076
-2.347859
-2.327982
-3.178558
-2.951303
-2.305732
-2.536548
-2.814832
-2.982455
-2.941514
-3.128421
-3.383564
-3.218315
-3.439044
-3.595690
-3.119819
-3.011828
-2.921639
-2.458821
-2.031606
-1.969304
-2.725832
-2.642466
-2.859338
-3.331946
-2.326209
-1.872588
-2.077000
-1.632577
-1.267070
-1.538234
-1.640885
-1.228503
-0.772806
-0.010047
0.256666
0.130281
0.367326
-0.283289
-0.799509
-0.424508
-0.675794
-1.105681
-0.689442
-0.340549
-0.752338
-1.061180
-0.869527
-0.850243
-1.772021
-2.859346
-2.605390
-2.272518
-2.266881
-2.128036
-1.973170
-1.381299
-1.464072
-1.942020
-1.853314
-1.413044
-1.684801
-2.174617
-1.760455
-1.777959
-2.087988
-1.953296
-1.447164
-1.401179
-2.237218
-2.498294
-2.032214
-1.434705
-0.514114
0.136500
0.315990
-0.159585
0.055209
-0.111227
-1.342144
-0.608163
0.367017
-0.380612
-1.081068
-0.110339
0.863357
0.750916
0.845259
0.940789
1.209876
1.552835
1.739149
2.320340
2.236083
1.980347
2.320043
2.909838
3.447418
3.974317
4.344274
4.466802
4.757546
5.701871
5.373152
5.110591
6.211266
6.212452
5.735691
6.115141
5.348526
5.220954
6.145995
6.891546
6.936344
6.623349
6.630469
6.693364
6.156377
6.290178
6.159640
6.825681
6.620973
6.036221
6.659541
7.404202
6.855941
6.948504
6.054317
5.746662
5.530087
7.212546
7.281375
6.396682
6.526626
5.989639
5.007932
5.823202
6.027613
5.183861
4.789576
5.066079
4.857218
6.256944
5.073199
5.393907
5.044124
-0.487731
7.509812
3.812613
3.026417
5.190385
2.363638
3.174755
4.197996
3.044810
3.365518
3.238836
2.138161
2.814290
2.506931
2.302817
2.553212
2.552025
2.291839
1.953329
1.812704
1.904080
1.735270
2.020377
1.914463
2.050934
1.985072
2.195713
2.629159
2.296879
1.065666
1.692843
2.345533
2.122135
1.960742
1.512165
1.298556
1.142207
0.419499
0.294894
0.436113
1.052906
1.420489
1.127075
0.797465
1.326145
1.396754
0.749996
0.182451
-0.267906
0.095821
0.542320
0.162869
0.090183
0.166132
0.215084
-0.061420
-0.295796
-0.596628
-0.758021
-0.521569
-0.885296
-1.294118
-0.518603
-0.291051
-0.895088
-1.248135
-1.042834
-0.616508
-0.054897
0.428391
0.358671
-0.127287
-0.563107
-0.281264
0.502262
0.605209
0.082462
-0.197899
0.413851
0.245634
-0.482117
-0.504368
-0.855931
-0.685935
-0.759215
-1.491416
-1.839716
-1.380756
-0.875514
-1.446915
-2.339026
-2.273164
-2.280581
-2.381155
-2.646682
-3.205030
-3.373543
-3.060252
-2.870675
-2.980149
-3.083393
-3.736678
-3.682090
-3.630171
-4.628196
-4.908557
-4.782766
-4.838838
-4.983914
-4.976200
-4.439807
-4.616034
-5.356245
-5.284746
-4.995189
-5.355950
-5.482038
-4.847148
-4.554920
-4.790780
-4.506266
-4.131859
-4.423790
-4.464732
-3.849719
-3.688623
-3.407373
-2.431897
-2.385319
-2.882254
-1.968783
-1.990738
-2.197523
-1.131560
-0.894218
-1.222937
-0.251911
-0.127900
-0.384230
0.087191
0.099058
0.258077
0.845795
