EVENT_NAME: 202302060117
EVENT_ID: 13194
EVENT_DATE_YYYYMMDD: 2023/02/06
EVENT_TIME_HHMMSS: 01:17:32.00000
EVENT_LATITUDE_DEGREE: 37.288
EVENT_LONGITUDE_DEGREE: 37.043
EVENT_DEPTH_KM: 8.6
HYPOCENTER_REFERENCE: AFAD
MAGNITUDE_W: 7.7
MAGNITUDE_W_REFERENCE: AFAD
MAGNITUDE_L: 
MAGNITUDE_L_REFERENCE: 
FOCAL_MECHANISM: 
NETWORK: TK
STATION_CODE: 5810
STATION_NAME: 
STATION_LATITUDE_DEGREE: 39.3704
STATION_LONGITUDE_DEGREE: 38.1179
STATION_ELEVATION_M: 1037.0
LOCATION: Kahramanmaras_Pazarck_Turkiye
SENSOR_DEPTH_M: 
VS30_M/S: 528
SITE_CLASSIFICATION_EC8: B
MORPHOLOGIC_CLASSIFICATION: 
EPICENTRAL_DISTANCE_KM: 249.81
EARTHQUAKE_BACKAZIMUTH_DEGREE: 
DATE_TIME_FIRST_SAMPLE_YYYYMMDD_HHMMSS: 2023/02/06 01:17:55.0643590
DATE_TIME_FIRST_SAMPLE_PRECISION: millisecond
SAMPLING_INTERVAL_S: 0.01
NDATA: 14501
DURATION_S: 
STREAM: HNZ
UNITS: cm/s^2
INSTRUMENT: sensor = GMS+/GEOSIG | digitizer = 
INSTRUMENT_ANALOG/DIGITAL: 
INSTRUMENTAL_FREQUENCY_HZ: 
INSTRUMENTAL_DAMPING: 
FULL_SCALE_G: 
N_BIT_DIGITAL_CONVERTER: 
PGA_CM/S^2: 7.955
TIME_PGA_S: 
BASELINE_CORRECTION: BASELINE REMOVED
FILTER_TYPE: BUTTERWORTH
FILTER_ORDER: 
LOW_CUT_FREQUENCY_HZ: 
HIGH_CUT_FREQUENCY_HZ: 
LATE/NORMAL_TRIGGERED: 
DATABASE_VERSION: 
HEADER_FORMAT: DYNA 1.2
DATA_TYPE: Acceleration
PROCESSING: Automatic Paolucci et al., 2011
DATA_TIMESTAMP_YYYYMMDD_HHMMSS: 
DATA_LICENSE: U (unknown license)
DATA_CITATION: Turkish Accelerometric Archive v 1.0 - Disaster And Emergency Management Presidency, Earthquake Department
DATA_CREATOR: AFAD
ORIGINAL_DATA_MEDIATOR_CITATION: : AFAD - Disaster And Emergency Management Presidency
ORIGINAL_DATA_MEDIATOR: AFAD PROCESS SERVICE
ORIGINAL_DATA_CREATOR_CITATION: AFAD PROCESS SERVICE
ORIGINAL_DATA_CREATOR: network: TK
USER1: GuestUser
USER2: 
USER3: 
USER4: 
USER5: 
[...]
-1.803692
-2.074109
-2.322186
-2.582732
-2.947185
-3.330861
-3.593226
-3.658166
-3.531658
-3.305918
-3.014198
-2.668965
-2.349449
-2.068899
-1.861603
-1.871213
-2.104483
-2.354639
-2.356975
-2.016158
-1.536626
-1.122554
-0.712639
-0.239081
0.083032
0.095502
-0.036458
-0.167120
-0.196733
0.026149
0.389566
0.521529
0.261243
-0.113601
-0.203999
0.115517
0.691164
1.327856
1.893892
2.247177
2.310562
2.246660
2.237829
2.196528
1.979623
1.691801
1.489443
1.453596
1.647904
1.942742
2.123541
2.100164
1.844553
1.341903
0.652740
-0.072790
-0.652851
-0.898850
-0.794422
-0.510234
-0.120062
0.372719
0.868617
1.282948
1.628701
1.861454
1.898602
1.804308
1.765344
1.867953
1.999657
2.054469
2.057587
2.083046
2.171109
2.254495
2.219947
2.068244
1.850040
1.601444
1.485069
1.653400
1.957589
2.161508
2.239959
2.220738
2.148783
2.183853
2.350106
2.503110
2.534024
2.269322
1.637827
0.936195
0.527322
0.514075
0.748387
1.047641
1.245585
1.126613
0.596168
-0.169887
-0.845542
-1.278054
-1.570811
-1.855776
-2.108269
-2.159961
-1.894737
-1.376499
-0.809684
-0.344958
-0.026222
0.146266
0.303167
0.500072
0.577744
0.448900
0.161079
-0.180515
-0.503146
-0.757977
-0.827333
-0.691733
-0.527039
-0.521583
-0.660298
-0.826288
-1.062936
-1.408426
-1.698066
-1.809505
-1.797814
-1.739365
-1.708451
-1.768197
-1.797290
-1.561679
-1.092537
-0.648592
-0.251146
0.283717
0.912617
1.447740
1.864149
2.212499
2.478503
2.681902
2.964791
3.393409
3.819430
4.160246
4.542106
4.898769
4.936437
4.606013
4.014523
3.171577
2.249402
1.609335
1.406458
1.494520
1.676099
1.815596
1.847289
1.816897
1.760529
1.681820
1.625971
1.538691
1.303342
0.950579
0.621454
0.393639
0.246611
0.146342
0.118288
0.213105
0.368707
0.443262
0.415208
0.364554
0.254154
-0.016263
-0.354999
-0.591387
-0.696332
-0.756856
-0.897130
-1.144168
-1.387829
-1.477707
-1.258462
-0.720741
-0.101453
0.277549
0.274433
0.031292
-0.254711
-0.476552
-0.559157
-0.484083
-0.319908
-0.242756
-0.457063
-0.983352
-1.650694
-2.234651
-2.546372
-2.496495
-2.116973
-1.618477
-1.231941
-0.966717
-0.791632
-0.710583
-0.672396
-0.726426
-0.923589
-1.120232
-1.203876
-1.274012
-1.400258
-1.533258
-1.672233
-1.821338
-1.972262
-2.069934
-1.970701
-1.614558
-1.123596
-0.721474
-0.510021
-0.406113
-0.367666
-0.387147
-0.355974
-0.211282
-0.013857
0.115768
-0.007360
-0.446107
-0.951355
-1.248788
-1.230083
-0.882772
-0.445841
-0.151523
0.079152
0.306191
0.487510
0.598432
0.550636
0.321782
0.111111
0.112671
0.285418
0.399977
0.264639
-0.018507
-0.233594
-0.357502
-0.370749
-0.212549
-0.030450
0.011633
-0.011485
-0.015380
-0.062916
-0.237739
-0.480621
-0.578812
-0.501140
-0.453601
-0.438533
-0.246823
0.143349
0.641585
1.282174
2.047712
2.798702
3.409677
3.750234
3.716725
3.373054
2.869365
2.245144
1.567411
1.031511
0.667837
0.404433
0.375860
0.787593
1.591057
2.442318
3.004457
3.172787
3.045762
2.703909
2.166450
1.605353
1.153358
0.749420
0.411203
0.304440
0.575379
1.160118
1.834996
2.476624
3.035386
3.357500
3.255412
2.752762
2.095551
1.456003
0.855681
0.291986
-0.215859
-0.613563
-0.856964
-0.926581
-0.742923
-0.255338
0.356936
0.848419
1.168454
1.368736
1.404845
1.166639
0.658794
0.010415
-0.598480
-0.945009
-0.875650
-0.516909
-0.239736
-0.267010
-0.480538
-0.617435
-0.524696
-0.259472
-0.013730
0.118233
0.232532
0.370990
0.451259
0.412036
0.249162
-0.019436
-0.348042
-0.601314
-0.677165
-0.648849
-0.645731
-0.632481
-0.471944
-0.216850
0.016942
0.297233
0.706109
1.192136
1.625690
1.914293
2.009370
1.850653
1.486199
1.119408
0.983291
1.189029
1.658690
2.222388
2.686594
2.922465
2.973900
2.955198
2.924287
2.904806
2.831292
2.523209
1.938992
1.292431
0.827707
0.548978
0.187122
-0.451906
-1.249912
-1.955959
-2.412890
-2.605896
-2.574463
-2.422758
-2.267415
-2.016738
-1.482394
-0.735820
-0.101985
0.221687
0.351053
0.450805
0.558090
0.660960
0.621996
0.288455
-0.181464
-0.567997
-0.930113
-1.254561
-1.363663
-1.288589
-1.168834
-1.064926
-1.069341
-1.202860
-1.362097
-1.616928
-2.025542
-2.301414
-2.263487
-2.125029
-2.166850
-2.366611
-2.434409
-2.218800
-1.793819
-1.323897
-0.935023
-0.662785
-0.555760
-0.639923
-0.826955
-0.977619
-1.066978
-1.156077
-1.155297
-0.904100
-0.504576
-0.278836
-0.374170
-0.518599
-0.383519
-0.109463
-0.093356
-0.394685
-0.681208
-0.760176
-0.742511
-0.730041
-0.788227
-1.019939
-1.414006
-1.744430
-1.800538
-1.598697
-1.255283
-0.902517
-0.649242
-0.430516
-0.122430
0.168511
0.153966
-0.298549
-1.098373
-2.046785
-2.773614
-2.925837
-2.467605
-1.688819
-0.977833
-0.461673
-0.032535
0.394524
0.794049
1.137723
1.469707
1.674146
1.607906
1.362687
0.974854
0.343360
-0.326580
-0.541407
-0.209682
0.242055
0.454547
0.431948
0.410129
0.546768
0.721073
0.771470
0.763938
0.738741
0.603923
0.372471
0.041008
-0.547884
-1.452914
-2.436654
-3.100360
-3.153871
-2.659791
-1.930881
-1.218077
-0.711788
-0.479294
-0.353046
-0.096394
0.441327
1.245310
2.087998
2.632213
2.659490
2.174764
1.413905
0.701623
0.116107
-0.422390
-0.821133
-0.939846
-0.748915
-0.270421
0.309382
0.708646
0.893343
0.913606
0.763201
0.600328
0.500838
0.328613
0.014815
-0.291710
-0.369899
-0.201048
0.118467
0.461622
0.714118
0.907906
1.082731
1.177028
1.119101
0.825564
0.205240
-0.615626
-1.317517
-1.678853
-1.692620
-1.510521
-1.283223
-1.084499
-0.908895
-0.794596
-0.734069
-0.496380
-0.088543
0.144730
0.138497
0.125509
0.223183
0.401126
0.603486
0.768180
0.875466
0.947163
0.971322
0.958075
0.898330
0.624016
0.061620
-0.613516
-1.211760
-1.621413
-1.740645
-1.529452
-1.193831
-1.010434
-1.011991
-1.030953
-0.827553
-0.376075
0.010201
0.142943
0.172298
0.204511
0.223215
0.235426
0.079566
-0.386196
-0.945735
-1.320579
-1.335644
-0.913001
-0.415804
-0.334495
-0.673231
-1.250954
-1.833872
-2.130266
-2.117017
-1.898550
-1.592283
-1.350438
-1.178990
-1.017932
-0.919999
-0.960002
-1.117420
-1.248861
-1.235352
-1.226778
-1.399783
-1.601621
-1.586293
-1.355099
-1.075327
-0.845951
-0.744381
-0.928815
-1.371198
-1.721884
-1.725000
-1.461594
-1.319240
-1.692005
-2.344281
-2.757831
-2.847969
-2.618852
-1.976965
-1.365470
-1.483663
-2.134380
-2.652876
-2.749508
-2.188928
-1.146998
-0.421464
-0.106884
0.368492
0.902317
1.380031
2.007891
2.293377
1.935419
1.620581
1.356918
0.542027
-0.060633
0.178095
0.266157
0.053149
0.488261
1.209378
1.489929
1.711512
1.921666
1.812045
1.624234
1.344725
0.855583
0.705438
0.877666
0.394758
-0.597034
-0.963306
-0.795754
-1.030583
-1.432703
-1.358148
-1.194233
-1.113185
-0.779122
-0.208670
0.274759
0.439973
0.309051
-0.080080
-0.344263
-0.194376
0.019155
0.099165
0.026171
-0.265547
-0.553628
-0.662730
-0.651558
-0.238526
0.652739
1.308914
1.592322
1.810528
1.443997
0.399471
-0.513092
-1.101985
-1.630352
-1.863882
-1.814784
-1.942329
-1.948043
-1.686455
-1.791400
-2.055583
-2.019994
-1.837376
-1.311085
-0.476189
-0.010944
0.130631
0.339226
0.128296
-0.569700
-0.806347
-0.558267
-0.393313
-0.103151
0.173243
-0.051975
-0.570470
-0.845823
-0.901672
-1.366395
-2.248826
-2.682377
-2.066726
-0.833347
-0.129634
-0.490710
-1.070251
-0.943224
-0.514346
-0.343937
-0.160020
-0.176124
-0.798527
-1.257016
-0.890742
-0.156117
0.180024
-0.211185
-0.489136
0.242892
1.204294
1.378340
0.905823
-0.054018
-1.357533
-2.077348
-2.021757
-2.241000
-2.750663
-2.812227
-2.674029
-2.611683
-2.224368
-1.540918
-1.030472
-0.727322
-0.776936
-1.286600
-1.774183
-2.044340
-2.073693
-2.011088
-2.274751
-2.691677
-2.983655
-3.116395
-2.916373
-2.465674
-2.126156
-1.897299
-1.618048
-1.287881
-0.472728
0.578294
0.675968
0.189943
0.127081
0.114353
0.028891
0.441144
0.911585
0.950811
1.106413
1.318645
1.383068
1.811167
2.236668
2.138997
1.910662
1.568549
0.946146
0.264516
-0.171113
0.001893
0.491038
0.648198
0.482728
0.274395
0.187893
0.467665
1.200471
1.969126
2.699594
3.651126
4.211446
3.725422
2.821171
2.484513
2.422949
1.969136
1.623646
1.780287
1.840814
1.255558
0.327928
-0.146147
-0.212127
-0.478128
-0.921031
-1.117674
-0.968566
-0.998179
-1.536936
-2.380401
-3.175809
-3.614037
-4.053043
-4.541146
-4.531533
-4.390738
-4.383723
-3.850678
-2.933956
-2.413379
-2.028662
-1.542115
-1.322870
-1.132978
-0.778654
-0.217554
0.649293
1.257151
1.212213
0.822042
0.390569
0.170027
0.076252
-0.366651
-0.857351
-0.887223
-0.911900
-1.008792
-0.697849
-0.524582
-0.962809
-1.122565
-0.785905
-0.916048
-1.356353
-1.269070
-0.887210
-0.535742
0.015227
0.385657
0.230577
0.394491
1.005467
0.902600
0.266949
0.035497
-0.339606
-1.310098
-1.749365
-1.232685
-1.130595
-1.969904
-2.825318
-2.938836
-2.396699
-2.121344
-2.287074
-2.434881
-2.611002
-2.582167
-2.482675
-2.881417
-3.331853
-2.866088
-1.738694
-0.974975
-0.093062
1.478275
2.568003
2.765168
3.048316
3.569152
3.597468
2.811412
1.681163
0.927577
0.508053
-0.200592
-0.884300
-0.787925
-0.483216
-0.324757
0.429091
1.526352
2.624652
4.168974
5.631728
6.188412
6.333623
6.759904
7.205667
7.391402
7.201773
6.422210
5.383400
4.901791
5.394053
5.984506
5.905278
5.513809
4.802047
3.910005
3.567372
3.929230
4.399931
4.505917
4.419935
4.128737
3.828706
4.021975
4.271873
4.029770
3.474128
2.926798
2.615597
2.310891
1.496260
0.650457
0.166510
-0.495118
-0.860350
-0.408872
0.129888
0.104692
-0.494852
-1.213628
-1.529245
-1.178038
-0.612781
-0.690191
-1.220116
-1.005806
0.103404
0.991292
1.148453
0.834135
0.538260
0.303172
0.083669
0.670746
1.617341
1.429790
0.768162
1.321469
2.524456
2.757988
2.437696
2.697465
2.926841
2.427309
1.759447
1.010537
-0.303888
-1.840154
-2.984430
-3.800100
-4.316778
-4.531085
-4.975287
-5.404422
-5.056851
-4.586411
-4.611087
-4.266114
-3.521878
-2.987794
-2.136793
-1.280337
-1.282673
-1.513346
-1.531269
-1.801167
-2.178868
-2.089506
-1.409173
-0.632206
-0.388802
-0.654544
-1.170441
-1.722707
-2.041701
-1.965068
-1.088090
-0.036288
-0.064342
-0.363853
0.147371
0.566378
0.159323
-0.536075
-1.198222
-1.753604
-1.873356
-1.759577
-1.631510
-1.534355
-2.075451
-2.735779
-2.485882
-1.797495
-1.128592
-0.345650
0.323773
0.423525
0.255717
0.016472
-1.044679
-2.213893
-1.945812
-1.092473
-1.071430
-1.208587
-0.906735
-0.639433
-0.404601
0.059346
0.876836
1.846292
2.338293
2.216983
1.985011
1.743169
0.905159
-0.493690
-1.074530
-0.272106
0.365885
-0.055457
-0.417053
-0.363539
-1.075042
-2.676770
-3.857414
-3.759740
-2.892893
-2.346600
-2.229444
-1.854078
-1.055290
-0.431586
-0.288193
0.067950
0.805952
1.127806
0.919992
0.678929
0.496054
0.233949
-0.155442
-0.788235
-1.362061
-1.584421
-1.909650
-2.318004
-2.586602
-2.814937
-2.855200
-3.212899
-3.973758
-3.782048
-2.584517
-1.533495
-0.559623
0.330343
0.575825
0.486985
0.262027
-0.140612
-0.286600
-0.133855
0.110588
0.064610
-0.687157
-1.432430
-1.193442
-0.379069
0.118128
0.402056
0.527265
0.319972
0.027214
-0.274375
-0.481928
-0.891581
-1.752970
-2.545521
-2.887634
-2.685533
-2.075857
-1.443580
-1.136274
-0.570238
0.811728
2.022508
2.398653
2.201750
1.663772
1.193593
0.932528
0.749393
0.703935
0.775632
0.830964
0.570158
0.009580
-0.177712
-0.302139
-1.166386
-1.944130
-1.843079
-1.586167
-1.452126
-1.064810
-0.783481
-0.487863
0.416650
1.312331
1.618079
1.966169
2.355303
2.115538
1.998384
2.621309
3.474128
4.294217
4.787257
4.834017
4.887270
4.664391
3.585316
2.971745
3.493101
3.815474
3.790018
3.760666
3.413097
2.538460
1.579918
1.387171
1.503808
1.210531
0.885303
0.762174
0.651774
0.403697
0.004955
-0.647322
-1.032556
-0.637708
-0.304684
-0.329361
-0.389626
-0.489375
-0.321564
-0.021790
-0.006203
0.013540
0.199795
-0.006459
-0.232976
0.323448
1.014692
1.399150
1.578131
1.314988
1.058078
1.349799
2.007533
2.732806
3.155969
2.915945
2.331988
1.843106
1.377603
0.664801
-0.575330
-1.694669
-2.245895
-2.974543
-3.915941
-4.709530
-5.098142
-5.157628
-5.464412
-5.542082
-5.121256
-5.035272
-5.324392
-5.308805
-5.005395
-4.900967
-4.878366
-4.769262
-4.866674
-5.202033
-5.212942
-4.623787
-4.180102
-3.892019
-3.437943
-3.565228
-3.759793
-3.139726
-2.386138
-1.772045
-0.968062
-0.338643
-0.230838
-0.331887
-0.351888
-0.107445
0.225839
0.165833
-0.317334
-0.910123
-1.424202
-2.172592
-2.983327
-3.212441
-3.042552
-3.091127
-3.439734
-3.473763
-3.166196
-2.987215
-2.950327
-2.841742
-2.511836
-2.554956
-3.336597
-4.104989
-4.262667
-4.132262
-4.386574
-5.010795
-5.630080
-5.949853
-5.850621
-5.567472
-5.046636
-4.556713
-4.710754
-5.410308
-6.051414
-5.790086
-4.876741
-4.493322
-4.465266
-4.120812
-3.667776
-3.278642
-2.759365
-2.176704
-1.757698
-1.474289
-1.344404
-0.970337
0.219661
1.445247
1.863735
1.874126
1.886597
2.133897
2.548488
2.652136
2.614731
2.690065
2.727473
2.961005
3.321564
3.330398
3.226752
3.407292
3.477170
3.126745
2.725404
2.682024
3.266503
4.162444
4.509236
4.221934
4.027888
4.244796
4.545868
4.776543
4.971110
5.185940
5.548057
5.717168
5.428047
5.049047
4.836558
4.727976
4.907997
5.393764
5.452213
4.825914
4.208187
4.172860
4.370804
3.944786
3.271209
3.233284
3.340310
3.171462
3.425516
4.218848
4.716305
4.982569
5.806294
6.984862
7.815341
7.955098
7.556615
7.151898
6.987466
6.811604
6.124000
5.350412
5.367818
5.621872
5.282097
4.661772
4.564880
5.174817
6.074134
6.970595
7.558711
7.588845
7.181790
6.549516
5.855157
5.289644
4.793229
4.233430
3.560632
2.902382
2.631445
2.449349
1.683294
0.417447
-0.550188
-0.806577
-0.861907
-1.065564
-1.022441
-0.650192
-0.995163
-2.351670
-3.347099
-3.312549
-2.884710
-2.402319
-1.572619
-0.586539
0.098730
0.818808
1.694746
2.141808
2.158435
2.142850
2.262084
2.521074
2.498995
2.108046
1.796325
1.466421
0.750502
0.137711
0.245256
0.253050
-0.324412
-0.461049
-0.024118
0.010432
-0.553003
-1.117738
-1.437251
-1.695199
-2.146934
-2.821550
-3.179769
-3.176651
-3.470967
-4.147141
-4.823056
-5.050352
-4.694988
-4.337806
-4.485093
-4.865392
-4.771615
-4.055173
-3.373281
-3.006228
-2.653202
-2.412396
-2.572412
-2.870624
-2.796589
-2.600983
-2.674236
-2.585134
-2.304584
-2.155216
-1.782188
-1.060292
-0.578421
-0.329562
0.346355
1.186446
1.603115
1.736377
1.831713
2.043945
2.357226
2.388659
1.722615
0.331300
-1.250426
-2.228191
-2.199615
-1.418752
-0.454752
0.645107
2.047595
3.363061
4.129118
3.982350
3.088490
2.166575
1.765235
1.993572
2.434140
2.676764
2.478562
1.941883
1.805506
2.533897
3.587517
4.250705
4.560350
4.747124
4.776479
4.778818
4.725567
4.180835
3.331915
2.864334
2.793678
2.812902
2.758872
2.286095
1.354828
0.415509
-0.328725
-0.859430
-1.268043
-1.753808
-2.149693
-2.118000
-1.616907
-0.903063
-0.156489
0.407728
0.613725
0.704645
0.788292
0.767771
0.697376
0.750629
0.667505
0.115759
-0.028151
0.822850
1.869196
2.653177
3.334030
3.473786
2.707472
1.896738
1.658791
1.474877
0.953004
0.274752
-0.443505
-1.269566
-1.795595
-1.333467
-0.166328
0.549853
0.689869
0.742604
0.318664
-0.444793
-0.908218
-1.114213
-1.247992
-1.513993
-1.845715
-1.800255
-1.125376
-0.309444
-0.274115
-0.778842
-1.021205
-1.208496
-1.338639
-0.659084
0.469089
0.979015
1.120070
1.469199
1.639608
1.513102
1.731049
2.133950
1.718842
0.586255
-0.303968
-0.795448
-1.393173
-2.302619
-3.252589
-4.116056
-5.048362
-5.715445
-5.557505
-4.738975
-3.945642
-3.583005
-3.424026
-3.538063
-4.285154
-5.364489
-6.507206
-7.359244
-7.537963
-7.316899
-7.021542
-6.887501
-6.871394
-6.666436
-6.120922
-5.351748
-4.674531
-4.209026
-3.659616
-2.874856
-2.610411
-3.097474
-3.848462
-5.132234
-6.475752
-6.748507
-6.305082
-6.202733
-6.338330
-5.898282
-4.967792
-3.986128
-2.874060
-1.901748
-1.583790
-1.534953
-0.810459
0.417985
1.093902
1.123257
0.887129
0.495401
0.139000
-0.050889
-0.035821
-0.220515
-0.882402
-1.537536
-1.890559
-2.081487
-1.959915
-1.274126
-0.345974
0.277210
0.565554
1.278618
2.362631
2.774624
2.734621
2.791771
2.710465
2.197425
1.463841
1.162252
1.498912
2.170414
2.833603
3.488998
3.873196
3.763056
3.963078
4.541583
4.368059
3.393411
2.460066
1.723625
0.864054
0.161124
0.534411
1.603617
2.255117
2.545538
2.634900
2.566582
2.391759
2.192778
2.734136
3.855555
4.262093
3.890627
3.823867
4.440298
4.991267
4.766829
3.638398
1.780799
-0.415797
-2.226898
-2.722534
-2.285863
-2.353921
-3.231156
-4.269447
-5.068232
-5.387486
-5.168760
-4.732868
-4.259310
-3.795623
-3.294270
-2.734209
-2.501715
-2.645366
-2.846945
-3.082813
-3.290626
-3.164897
-2.823820
-2.859147
-3.187493
-3.306206
-3.158137
-2.874729
-2.910056
-3.528822
-4.206035
-4.419044
-4.284223
-4.082122
-3.868852
-3.771178
-3.654801
-3.193452
-2.484024
-1.897207
-1.571457
-1.375071
-1.207000
-0.866443
-0.901770
-2.169177
-3.747785
-4.470458
-4.731524
-4.949208
-4.781657
-4.379275
-4.190942
-3.865971
-3.382022
-3.235512
-3.137578
-2.660903
-2.178253
-1.903936
-1.607280
-1.441547
-1.321273
-1.066440
-1.002795
-1.022796
-0.558070
0.133693
0.207728
0.041478
0.431131
0.801042
0.709864
0.974569
1.998576
3.291182
4.438318
5.114236
5.160216
5.010071
5.144632
5.221005
4.702510
4.124787
3.892556
3.523687
3.376919
3.840606
4.230259
4.130769
3.986080
4.390799
5.324147
6.142677
5.801343
4.071290
2.536063
2.561261
3.324201
3.801396
4.097273
3.688139
2.221751
0.898234
0.698734
1.317243
2.176556
2.740773
2.439184
1.533115
1.140607
2.021741
3.515667
4.234186
4.054168
4.074951
4.662028
5.429124
6.306621
6.933702
6.738098
5.686818
4.143279
2.715336
1.791602
1.135170
-0.042357
-1.791893
-2.955911
-3.097224
-2.758485
-2.422344
-2.227258
-2.528587
-3.682994
-4.765446
-5.237443
-5.654110
-6.011289
-6.058046
-5.844516
-5.650208
-5.510452
-5.330172
-5.083651
-4.458128
-3.575436
-2.810938
-2.299713
-2.180998
-2.081765
-1.450528
-0.714344
-0.726552
-1.493646
-2.536093
-3.691540
-4.717362
-5.083114
-4.762819
-4.071315
-3.287075
-3.045489
-3.589702
-3.969222
-3.755432
-3.188617
-2.047455
-1.374915
-1.953936
-2.682324
-2.990408
-3.274333
-3.670997
-3.902969
-4.370809
-5.876423
-7.335019
-6.247369
-3.375893
-1.882746
-1.813387
-1.653369
-1.389443
-1.188641
-0.634295
0.056689
0.020842
-0.598963
-1.170192
-1.571532
-1.662190
-1.473077
-1.258248
-1.122648
-0.771700
-0.184364
0.050728
0.434926
1.445944
1.850663
1.209038
0.197503
-0.976128
-2.002729
-2.293408
-1.629960
-0.918195
-0.910400
-0.856887
-0.222532
0.728220
1.975626
3.637882
5.268187
6.322067
6.707044
6.423119
5.520167
4.359785
3.736083
3.684910
3.257853
2.057207
0.434958
-0.906483
-1.447318
-1.355359
-1.068574
-0.975576
-1.294830
-1.616421
-1.562648
-1.361067
-1.010898
-0.808278
-1.089086
-0.868542
0.208197
1.005426
1.335333
1.711478
1.837207
1.635888
1.404696
0.291072
-1.930722
-3.416333
-3.333986
-2.495713
-1.490150
-0.599405
-0.137536
-0.089218
-0.012066
0.061449
-0.152079
-0.776559
-2.063708
-3.545943
-3.825452
