EVENT_NAME: 202302060117
EVENT_ID: 13194
EVENT_DATE_YYYYMMDD: 2023/02/06
EVENT_TIME_HHMMSS: 01:17:32.00000
EVENT_LATITUDE_DEGREE: 37.288
EVENT_LONGITUDE_DEGREE: 37.043
EVENT_DEPTH_KM: 8.6
HYPOCENTER_REFERENCE: AFAD
MAGNITUDE_W: 7.7
MAGNITUDE_W_REFERENCE: AFAD
MAGNITUDE_L: 
MAGNITUDE_L_REFERENCE: 
FOCAL_MECHANISM: 
NETWORK: TK
STATION_CODE: 2302
STATION_NAME: 
STATION_LATITUDE_DEGREE: 38.39231
STATION_LONGITUDE_DEGREE: 39.67541
STATION_ELEVATION_M: 1100.0
LOCATION: Kahramanmaras_Pazarck_Turkiye
SENSOR_DEPTH_M: 
VS30_M/S: 907
SITE_CLASSIFICATION_EC8: A
MORPHOLOGIC_CLASSIFICATION: 
EPICENTRAL_DISTANCE_KM: 261.74
EARTHQUAKE_BACKAZIMUTH_DEGREE: 
DATE_TIME_FIRST_SAMPLE_YYYYMMDD_HHMMSS: 2023/02/06 01:17:54.6175900
DATE_TIME_FIRST_SAMPLE_PRECISION: millisecond
SAMPLING_INTERVAL_S: 0.01
NDATA: 18251
DURATION_S: 
STREAM: HNN
UNITS: cm/s^2
INSTRUMENT: sensor = CMG-5T/GURALP | digitizer = 
INSTRUMENT_ANALOG/DIGITAL: 
INSTRUMENTAL_FREQUENCY_HZ: 
INSTRUMENTAL_DAMPING: 
FULL_SCALE_G: 
N_BIT_DIGITAL_CONVERTER: 
PGA_CM/S^2: 217.307
TIME_PGA_S: 
BASELINE_CORRECTION: BASELINE REMOVED
FILTER_TYPE: BUTTERWORTH
FILTER_ORDER: 
LOW_CUT_FREQUENCY_HZ: 
HIGH_CUT_FREQUENCY_HZ: 
LATE/NORMAL_TRIGGERED: 
DATABASE_VERSION: 
HEADER_FORMAT: DYNA 1.2
DATA_TYPE: Acceleration
PROCESSING: Automatic Paolucci et al., 2011
DATA_TIMESTAMP_YYYYMMDD_HHMMSS: 
DATA_LICENSE: U (unknown license)
DATA_CITATION: Turkish Accelerometric Archive v 1.0 - Disaster And Emergency Management Presidency, Earthquake Department
DATA_CREATOR: AFAD
ORIGINAL_DATA_MEDIATOR_CITATION: : AFAD - Disaster And Emergency Management Presidency
ORIGINAL_DATA_MEDIATOR: AFAD PROCESS SERVICE
ORIGINAL_DATA_CREATOR_CITATION: AFAD PROCESS SERVICE
ORIGINAL_DATA_CREATOR: network: TK
USER1: GuestUser
USER2: 
USER3: 
USER4: 
USER5: 
[...]
1.102939
1.986786
2.410277
2.783417
3.712221
4.771998
5.262625
5.235351
4.771998
3.547380
2.121656
0.877557
-0.261944
-0.944984
-0.823002
-0.882345
-2.171401
-4.234310
-5.402583
-5.601291
-5.074999
-4.354794
-4.227117
-3.776352
-2.876920
-2.610477
-3.208100
-3.798530
-3.378336
-3.107397
-3.889642
-5.125949
-6.158453
-7.019522
-8.256428
-9.934808
-10.965813
-10.448812
-9.574556
-9.150165
-9.014996
-9.205911
-9.933309
-10.429630
-10.288167
-9.962981
-9.606025
-9.028782
-8.618478
-8.321464
-7.571288
-6.821712
-6.673654
-6.641585
-6.935302
-7.972601
-9.022488
-9.688145
-9.885954
-9.014995
-7.844324
-6.881653
-6.029875
-5.323757
-4.554699
-3.673249
-2.291582
-0.224477
1.699666
2.602695
3.292329
4.027220
4.611357
5.387907
5.894718
5.636068
5.401694
5.250940
4.637731
4.238816
4.586481
5.130756
5.501798
5.536864
5.535665
6.043975
6.888560
7.311751
7.473296
7.765514
8.070319
8.030158
7.950435
8.332866
7.781998
6.072747
4.076674
2.279608
0.956085
-0.249052
-1.531814
-2.304468
-2.538842
-2.594888
-2.180388
-1.259676
-0.584728
-0.395310
-0.067427
0.174740
-1.009118
-2.963232
-4.229210
-5.338440
-6.667357
-7.536818
-7.692069
-7.622536
-7.433718
-6.720106
-5.663926
-4.309532
-2.604778
-1.188944
-0.514894
-0.401304
-0.369235
-0.262238
-0.631481
-1.307929
-1.487156
-1.235998
-1.176655
-1.245888
-1.371767
-2.029632
-2.540639
-2.107856
-1.527017
-1.804849
-2.568811
-3.051945
-3.487125
-3.821303
-3.504208
-2.888603
-2.315855
-1.827327
-1.341196
-1.133496
-1.248285
-0.496011
0.674959
1.575590
3.128691
5.017768
6.551988
8.189608
10.013048
11.387222
12.162274
12.411034
12.684071
12.536313
11.181621
9.739712
8.888234
7.770912
6.606836
5.873144
5.333664
4.823557
4.364999
3.639999
2.228960
0.681554
-0.378523
-1.196134
-2.441432
-3.406501
-3.524587
-3.740679
-3.731987
-2.262505
-0.066824
2.048835
3.665175
4.198361
4.056597
3.724518
3.316612
2.673732
2.067417
2.003879
1.808767
1.303754
0.988159
0.252369
-0.869149
-1.745503
-2.760923
-4.035593
-4.915843
-5.205364
-5.515565
-6.177925
-6.706016
-7.150487
-7.802957
-8.047821
-8.116754
-8.016051
-7.399246
-6.691929
-6.086513
-5.376498
-4.702748
-4.708443
-4.956903
-4.501642
-3.867454
-3.829091
-3.680734
-3.267733
-3.158338
-3.799120
-4.916442
-5.778110
-6.490822
-7.344399
-8.191681
-9.241867
-10.565090
-11.740856
-13.024517
-14.165816
-14.125954
-13.256193
-12.676253
-12.676852
-12.838696
-13.095848
-13.384170
-13.635927
-13.349703
-12.368150
-11.470816
-10.998771
-10.428122
-9.767260
-9.319192
-8.888208
-8.401777
-7.552397
-6.652965
-6.118281
-5.398375
-4.279555
-2.964724
-1.458377
-0.117171
0.642895
1.144012
1.547422
1.684690
2.188804
3.062760
3.817132
4.582594
5.306395
5.591720
5.269231
4.917970
4.822363
4.163299
3.225803
3.617525
5.109785
6.445297
7.655829
9.089945
10.583404
11.876356
12.938831
13.738459
14.430491
14.998144
15.252298
15.683582
16.358831
16.839567
16.669931
15.620044
14.064845
12.493761
11.263448
10.641248
10.485399
10.270207
9.865597
8.759065
6.436606
4.041018
2.197197
0.343786
-0.982135
-1.319609
-1.728714
-2.575996
-2.935050
-2.230430
-0.665340
1.137420
2.927893
4.673708
6.088942
7.289884
8.724299
10.184490
11.082424
11.207403
10.815382
9.868595
8.580738
7.976222
8.282226
8.324186
7.630655
6.381760
5.147551
4.672210
5.107390
6.040090
6.842716
6.816641
5.865959
4.806181
3.354682
1.548325
0.386946
-0.638065
-2.378485
-4.748598
-7.109720
-9.323983
-11.596390
-13.516037
-14.925277
-16.344408
-18.512815
-21.203619
-23.455945
-24.922130
-26.092501
-27.465476
-28.789898
-29.302703
-29.195106
-28.955937
-28.587892
-28.257012
-27.313822
-25.431638
-23.745765
-21.565669
-18.106107
-14.418166
-10.878282
-7.873981
-6.019071
-4.302627
-2.154900
-0.421972
0.778969
2.488819
5.157744
7.143328
7.923475
8.074829
8.362851
8.626896
8.277434
7.958841
7.769724
7.536549
7.628560
7.776018
8.281930
9.523032
10.468320
10.806394
11.038969
10.997010
10.817783
10.464124
9.317131
7.840756
6.811549
6.285257
5.514101
4.737850
4.479799
4.125841
3.429613
2.815506
2.531979
1.530046
-0.077003
-1.130187
-1.830910
-2.218736
-2.770504
-3.610593
-4.049070
-4.130591
-4.165957
-3.764045
-2.787887
-1.197921
0.545497
1.895994
2.754965
3.387654
3.899560
4.100367
4.183686
3.589060
2.719000
2.401306
2.426782
2.174725
2.166933
2.876348
3.945716
4.822970
5.149355
5.518299
5.977756
6.697961
6.865499
5.647175
4.222649
2.810412
0.790661
-2.226827
-5.072580
-7.061461
-8.294172
-8.696983
-8.878607
-8.979610
-9.117477
-9.389015
-10.044482
-9.944079
-8.584291
-7.399834
-6.750960
-5.758618
-4.652685
-3.795212
-3.453242
-3.904906
-4.444686
-4.712027
-4.560074
-3.820688
-2.821152
-2.262491
-2.039506
-0.983026
0.834720
2.297009
3.616636
4.534650
4.960239
5.489828
6.347601
7.150526
7.926777
9.499060
11.121394
11.762775
11.994152
12.747625
13.237053
13.211877
13.100684
12.923256
12.286670
10.908300
10.558837
11.194224
11.257763
10.795010
10.036142
8.854083
7.185293
5.053151
3.215025
2.142060
1.319354
0.214620
-0.893111
-1.971770
-2.744724
-4.056558
-5.888091
-6.973943
-7.753490
-8.512658
-9.163629
-10.029494
-10.593849
-10.238392
-9.415686
-8.880702
-8.362203
-7.545790
-6.414382
-4.961084
-2.574787
-0.090784
1.465914
2.133969
2.655166
3.254588
3.832430
4.483402
4.925775
5.661565
7.045929
8.387735
8.652379
8.898741
9.283270
9.426832
9.943833
11.130088
12.060091
13.058727
14.159565
14.779067
14.744001
14.295334
13.687821
12.686187
11.482249
10.456039
9.361496
7.192189
4.735160
3.238105
2.966267
2.629392
2.245163
2.528989
3.256987
4.151024
4.827172
5.135274
5.369648
6.547212
7.554540
7.673525
7.444546
8.175841
9.163687
9.147203
9.249105
9.992388
10.557642
10.871140
11.468763
11.778365
11.898848
12.061891
12.414051
12.409256
11.959090
11.639599
11.613524
11.196926
10.788420
11.856590
13.624284
15.179483
16.892930
18.769119
20.148388
19.707214
18.735552
18.560820
18.788601
18.163404
17.396744
16.622591
15.169893
13.606302
12.252209
11.449283
11.593444
12.987999
14.381354
14.782367
14.492547
14.867485
14.531809
12.639735
11.095625
10.567535
10.921194
12.943942
14.790460
15.515161
16.594419
17.294843
16.856966
16.371734
15.778607
15.561616
15.931159
15.533144
13.622787
11.542794
9.642029
7.589609
4.192987
1.084687
-1.067836
-1.535385
-0.726166
-0.913185
-1.572249
-2.308639
-2.592465
-3.214964
-4.441380
-5.422334
-4.643385
-3.450836
-3.056417
-0.975525
2.340176
4.816386
6.502859
8.373654
11.607533
14.468872
14.827326
14.709240
15.616165
16.778144
17.634118
16.826997
16.005489
16.587228
16.467943
14.865989
13.630581
13.119275
12.395174
11.006314
9.992093
9.251208
9.267692
9.007543
7.172714
5.617215
5.257861
4.638060
3.555205
3.767400
4.336850
3.119725
2.558067
2.717214
0.856909
-1.020180
-1.312398
-1.583336
-2.542710
-2.426123
-1.795531
-1.446069
-0.894601
-0.290084
-0.191479
0.103436
0.540115
-0.947050
-2.351794
-2.123115
-2.763597
-4.530691
-4.687140
-3.401681
-4.158450
-3.812884
-2.069167
-1.019879
0.105535
1.790209
3.124821
4.002974
4.145337
4.656344
6.005342
5.933411
4.822683
5.045668
5.272250
4.051228
3.756612
4.182801
2.871866
1.090086
0.065375
-1.345664
-4.803127
-5.131610
-2.161476
-2.620933
-4.845986
-4.654171
-4.998239
-7.645884
-7.157655
-4.916717
-3.623165
-4.527093
-3.441840
-1.984946
-3.005461
-5.222722
-1.823402
-0.345828
-2.104830
-0.194174
0.572786
-0.099465
-0.353920
1.390397
0.812255
-1.315691
-4.105699
-5.066272
-4.845685
-5.011725
-3.865031
-2.670384
-0.764823
1.553740
1.668829
0.548510
0.611449
1.041834
0.204742
-0.846643
0.457099
2.065646
2.315006
5.105913
6.608363
6.023927
7.713097
8.876874
7.872243
6.808870
8.066156
8.904747
7.921696
8.231597
10.315486
9.515258
8.802846
8.680564
8.006514
7.565939
7.003982
7.410989
8.726120
9.720560
9.285680
8.024198
7.699311
7.287808
5.824620
4.542458
4.698607
5.816828
5.384046
5.854592
6.009842
3.337920
2.874567
4.751057
4.131555
2.133683
1.611886
2.557174
1.226758
-1.898326
-1.227574
-0.962330
-0.189975
1.612186
1.994317
1.979032
0.324629
1.187196
2.482247
1.743460
-0.354516
-1.475434
-1.916608
-4.517199
-5.161876
-3.378897
-1.327976
-0.986306
-1.561151
1.220165
2.259263
2.177142
0.522139
2.668368
6.289474
4.181608
4.244547
5.305823
5.901049
3.695177
0.480180
0.615949
4.078807
6.365900
2.846097
0.378578
1.251636
1.077204
-4.227976
-3.682203
3.272586
3.674498
-1.841679
1.123959
2.507724
-0.515758
-0.291575
2.689049
1.434160
2.502329
-0.652127
-2.031995
4.383914
-0.760622
0.345611
2.818225
7.021069
7.854865
9.278491
13.521496
11.177758
9.504473
13.834994
15.183992
9.963930
8.118610
15.741754
17.488768
11.118416
9.076786
12.003462
9.744242
6.130629
4.549355
3.756320
2.469063
0.120229
2.172049
0.837437
-2.178252
-0.694684
-1.944478
-8.462288
-9.881119
-6.230941
-7.493922
-11.255293
-8.826137
-2.398839
-7.160044
-9.343437
-2.031693
-3.085776
-2.746803
-1.907613
0.954325
-1.628882
-6.601683
-13.861577
-6.519262
2.887160
-15.901109
-23.658823
-10.922613
-6.259713
-14.829643
-16.012601
-6.539043
-2.846007
-12.668128
-9.247829
-0.869414
-11.799566
-18.377019
-11.852615
-7.918611
-13.928412
-18.351843
-7.126176
-5.530216
-8.230610
-8.634620
-1.826989
-5.203231
-17.557909
-9.825970
3.465304
9.245826
10.565153
-18.125261
6.971021
-4.269632
-19.352277
4.356045
-13.765968
-20.593979
22.871877
30.025074
15.094382
-23.077082
-9.090479
8.368573
7.767353
35.862841
-64.776442
-29.790903
55.846657
7.252450
-43.137324
-38.760347
9.451428
-0.157899
12.806990
28.102131
-10.098406
14.235112
42.493343
10.305005
-9.886210
-22.916436
10.905326
7.228174
17.178872
5.357080
-32.706489
21.407791
-26.998497
8.932930
14.774892
-1.079508
0.013537
-15.401787
6.994101
16.981363
-25.127402
5.513829
6.884707
-18.831078
20.669604
-7.356950
-10.766460
13.547577
-5.845808
-6.806681
-1.767044
15.487006
-11.214827
-22.249878
-7.909916
2.347386
-1.177213
-6.708076
14.580381
-34.787379
-27.387820
-0.237919
5.796458
7.360049
2.181346
27.869557
24.060233
-6.492883
-67.888037
-89.096171
-36.343177
15.443549
49.867130
67.980151
26.454323
-7.233768
-21.007875
-62.235491
-45.018905
-14.332117
-31.889774
-6.720363
74.301052
100.084271
75.334155
49.865332
-30.383428
-99.084631
-106.207857
-72.844952
28.986581
32.597196
32.631363
-5.745403
-51.332611
18.965151
55.445048
38.349546
41.904116
16.762277
-24.707804
-52.067202
-6.865422
43.884605
-1.406789
-59.259062
-23.011141
21.932888
-5.376458
-52.098372
-45.398037
2.398339
2.419619
-22.515419
-17.073870
-11.965599
-23.627346
-11.426420
23.980213
2.148081
-30.728693
5.770985
23.017242
-6.454817
-3.440026
-12.229045
-47.839780
-30.413097
-12.478104
-45.867084
-47.738478
3.240228
9.481105
-26.544730
-28.637310
13.306314
33.760376
-4.708701
-29.394380
-9.181285
11.665398
-4.892424
-16.204707
-10.057639
4.900326
6.637750
-23.662410
-26.753328
-4.396102
4.921906
7.830599
7.321990
-11.919142
-13.022378
-7.347354
-8.986173
-20.172578
-17.848920
-17.040600
-19.456568
-9.364108
-11.439305
-12.818574
-17.893277
-31.435708
-19.339082
-12.891404
-24.226465
-4.977540
12.032845
-8.232999
0.821264
7.027675
7.379236
2.565281
6.784310
-2.362563
-37.868400
-18.088388
1.009483
-16.637188
-38.111465
10.266650
30.630199
3.801289
-7.282315
7.563259
-6.511159
0.713369
15.938077
13.972274
4.371339
11.334819
22.626723
16.776968
-2.103612
-26.278284
11.295558
-6.059495
-38.761238
-16.516404
-1.882725
7.927408
36.172751
51.285667
22.013815
5.108029
17.242719
1.248953
17.158201
2.026103
-7.309288
-30.442165
-57.655904
-21.172710
3.583700
24.866762
29.455035
1.135063
2.401342
-2.082032
-6.895986
-3.235319
-16.216392
-92.253316
-44.617285
-30.677437
-46.696379
1.455754
-2.048464
-2.658975
-8.330402
-16.843087
1.694924
40.460715
17.647630
-29.736944
-18.181895
-43.389669
-56.931501
-33.543571
-62.221396
-99.959179
-57.925342
45.216826
7.207505
-19.711019
11.752619
31.593473
67.454167
34.605866
9.897110
-28.738907
-41.101676
-18.813984
-12.895595
-35.512969
-33.478832
13.265260
19.067061
51.076772
38.416389
42.680075
25.553102
22.397747
27.785948
24.600921
14.179977
5.260585
9.708892
7.886950
-21.380107
-46.543524
-13.185714
-16.676146
-30.802114
-15.632553
-35.212358
-47.118669
-22.749185
45.857309
48.137509
-6.266291
0.659725
46.226254
7.670260
-86.717655
-79.456263
-29.285577
-28.342987
-74.180154
-59.606418
2.937528
22.852410
52.234256
41.923606
5.046892
-0.747416
12.703004
21.010987
-2.124287
-10.359740
-35.260011
7.260556
14.233028
-26.471292
-36.173230
-40.625134
4.446572
53.104317
39.977585
2.101335
7.237779
9.979533
8.546916
-13.991934
21.215990
16.162866
22.661495
65.534523
57.689593
41.069731
26.051824
31.294065
30.072444
-5.329993
-27.414481
7.966976
4.742088
48.401856
54.623253
35.914707
52.863051
74.875909
30.053563
22.188253
33.180445
27.440684
-1.685209
-68.060357
-90.698112
-68.185336
-56.119880
-68.449981
-61.532057
-87.470826
-79.779348
-82.957481
-119.713112
-119.282427
-84.450940
-61.440944
-42.868467
-50.312683
-43.594366
-15.211456
33.750796
65.341511
105.940633
168.174377
217.307464
191.271289
138.030666
151.898883
106.955154
36.934924
39.219319
33.129196
-26.455704
-65.878461
-81.551836
-97.097235
-62.327188
-91.344586
-124.967640
-46.058887
28.419542
34.012744
17.751336
-5.386635
-60.784277
-105.942299
-92.563210
-61.418464
-105.684248
-82.512409
9.438858
67.792247
101.851081
60.532653
36.474269
46.287699
8.509755
-38.381495
-8.931614
68.524142
97.721366
94.266600
90.118303
54.194969
-53.467436
-140.374871
-145.309609
-102.572650
-79.327981
-115.243222
-90.879134
-34.650095
-30.201488
-41.694497
47.170648
125.283669
61.205805
-33.712899
-18.189679
7.147271
-27.961149
-12.042910
40.217958
11.385182
-22.489030
0.238938
39.140798
12.686526
-18.461816
0.711582
-0.630822
10.823224
-26.187160
-83.122917
-42.558862
34.374797
47.536896
27.883661
-21.713677
-74.972882
-89.426134
-62.840589
-73.599607
-41.218255
44.989055
122.978595
154.366406
95.566148
-15.508165
-52.512855
-29.248705
35.390218
16.843216
-29.673096
29.492809
84.978865
32.490816
-55.770711
-34.865884
56.189847
97.545139
62.692372
6.266423
5.728742
9.995725
-7.378509
-13.216875
-19.889636
-29.601764
-66.630431
-100.124010
-95.832151
-21.695393
29.899518
-0.060471
2.022220
52.533376
55.852374
-3.133705
-21.800591
2.747820
36.723333
25.724247
10.842408
43.727275
31.145116
29.066922
66.632371
58.829401
22.473884
-19.708310
-10.104378
4.727410
-14.677664
15.115086
30.793256
15.359650
-19.378927
-31.152466
-13.440758
-40.460284
-61.782907
-25.558963
-18.442031
-30.354336
-19.671445
-1.877316
-8.126286
7.350479
50.711436
37.200774
10.501938
15.573344
-16.151941
-54.625214
-36.556250
-3.398947
7.526710
-47.017055
-33.727580
42.306348
33.494851
-32.548817
-39.506003
23.010069
75.170234
100.774226
89.220676
35.784342
-4.661928
-30.614783
-32.418742
-33.891821
-20.856500
1.809727
7.145778
50.034990
96.846517
102.150799
66.314680
10.620925
-30.867139
-49.593068
-93.972143
-83.518530
-27.128247
21.180335
36.037898
9.127467
-1.006654
24.055461
17.363519
7.335496
-7.279301
1.423701
16.323223
-28.194018
-60.961397
-36.678830
-29.307443
-47.430954
-43.763993
-47.540348
-44.138631
-28.085222
10.168063
42.670498
44.018897
48.820564
67.839910
51.449027
1.432094
-2.709310
9.123272
-0.642804
22.633934
56.810554
80.958851
65.791687
12.330177
0.419371
26.145646
49.089105
36.364884
0.791013
-6.001332
7.289942
32.052346
34.578908
16.970300
-3.511635
-32.895579
-46.452097
-31.633197
1.853488
3.736871
-17.681960
-15.045105
-45.512204
-70.087289
-57.498537
-42.274128
-36.590113
-21.312356
19.730337
32.716506
34.428154
38.324994
35.381235
32.727296
17.734564
0.725677
-3.535910
-0.859493
-19.742771
-31.992849
10.681770
68.479195
73.021013
28.904185
3.300793
3.293600
-17.646593
-49.172570
-52.270681
-14.464264
-2.851670
-37.176346
-25.731291
1.607727
-6.000131
-11.876261
10.056874
0.915995
-32.282369
-33.815689
-11.974266
12.176728
11.535947
16.064277
44.642599
50.248989
15.015889
-15.488974
-9.129111
-1.715765
-15.633434
-11.930208
7.193438
16.747019
31.538944
25.428141
-0.314917
-4.342130
3.963155
6.992032
9.497914
-6.838721
-40.343988
-37.248276
-27.521162
-25.632984
4.234694
27.100228
-0.677866
-34.979165
-40.504333
-34.998346
-48.349862
-38.175281
-10.921680
-9.445605
-1.975014
4.206222
18.749088
48.386588
51.461920
25.060098
-6.524323
-25.457053
-33.295988
-17.963384
2.153203
11.786507
25.513261
20.294097
19.255300
39.609558
51.159512
54.664630
42.501467
12.495923
-5.821201
-20.196829
-38.679693
-34.813723
3.276820
25.220444
16.567494
8.154912
-2.435967
-13.102374
-10.108264
-14.582046
-33.896608
-44.165598
-44.262405
-42.037651
-31.415602
-10.560227
-3.003020
-27.689897
-27.457321
-0.905644
-4.411660
-12.526330
7.973288
23.526180
14.948757
16.700567
25.477897
10.229811
-9.758200
-7.276295
6.807114
21.805541
36.332223
39.880199
21.973978
7.580668
4.594649
-8.359150
-25.518491
-29.940724
-15.193455
-4.835450
-3.919834
-2.144946
3.834583
10.392855
1.095227
-16.608988
-16.538257
-13.599293
-14.418402
-7.394680
2.425044
13.399254
20.603702
14.842062
5.702381
5.862727
6.165135
1.249878
-2.497106
-10.005760
-19.504494
-18.037709
-16.068010
-19.445450
-30.159212
-25.721094
-6.827027
7.542307
13.720844
8.264909
8.557727
11.347135
-0.431498
-10.176894
-15.669694
-14.752279
-20.425504
-26.190741
-19.043837
-10.277297
-5.209188
-8.574640
-11.412002
-6.232100
-7.028132
-4.453017
13.810758
18.546189
7.479368
3.028064
12.186626
17.487311
6.907221
-5.133960
-6.301633
-9.418025
-18.269683
-14.873661
1.026596
9.681943
12.209105
12.645783
2.690590
-6.087339
-9.941919
-9.807649
-8.648667
-4.552220
-1.727746
1.113213
8.108462
4.534711
1.825925
3.467441
6.120481
7.233607
6.182521
5.423354
11.744254
16.201553
12.442281
1.147081
-13.695496
-17.675356
-14.899734
-11.973058
-8.164633
2.410362
7.214426
5.631953
12.768067
13.389967
-0.047866
-5.998623
0.800915
5.486594
-3.279647
-9.671279
-5.245150
-1.989092
1.634411
1.887067
0.348952
-1.104945
0.357044
-1.743928
-11.920008
-20.736600
-19.171211
-9.307729
-5.203490
-0.993452
-1.404656
-8.898024
-11.787836
-4.870511
2.585994
0.947475
-5.204388
-9.652996
-11.511802
-6.826123
-4.803975
-6.628614
-3.667172
-5.029057
-9.726125
-10.688196
-6.623519
-8.725690
-7.367700
-2.973041
-1.617749
3.154846
5.465016
6.106397
9.562362
14.125159
16.343619
12.303817
9.258456
5.932865
-0.641291
-2.248640
-7.010145
-15.234208
-16.068603
-8.977746
-5.296398
-10.300070
-17.782349
-16.387195
-8.891129
-7.440529
-8.554554
-5.228663
-1.670497
6.698627
19.608969
25.984117
24.800259
21.984776
17.502601
13.174478
