EVENT_NAME: 202302060117
EVENT_ID: 13194
EVENT_DATE_YYYYMMDD: 2023/02/06
EVENT_TIME_HHMMSS: 01:17:32.00000
EVENT_LATITUDE_DEGREE: 37.288
EVENT_LONGITUDE_DEGREE: 37.043
EVENT_DEPTH_KM: 8.6
HYPOCENTER_REFERENCE: AFAD
MAGNITUDE_W: 7.7
MAGNITUDE_W_REFERENCE: AFAD
MAGNITUDE_L: 
MAGNITUDE_L_REFERENCE: 
FOCAL_MECHANISM: 
NETWORK: TK
STATION_CODE: 1212
STATION_NAME: 
STATION_LATITUDE_DEGREE: 39.4337
STATION_LONGITUDE_DEGREE: 40.5477
STATION_ELEVATION_M: 1508.0
LOCATION: Kahramanmaras_Pazarck_Turkiye
SENSOR_DEPTH_M: 
VS30_M/S: None
SITE_CLASSIFICATION_EC8: unknown
MORPHOLOGIC_CLASSIFICATION: 
EPICENTRAL_DISTANCE_KM: 387.63
EARTHQUAKE_BACKAZIMUTH_DEGREE: 
DATE_TIME_FIRST_SAMPLE_YYYYMMDD_HHMMSS: 2023/02/06 01:18:01.4299810
DATE_TIME_FIRST_SAMPLE_PRECISION: millisecond
SAMPLING_INTERVAL_S: 0.01
NDATA: 21001
DURATION_S: 
STREAM: HNN
UNITS: cm/s^2
INSTRUMENT: sensor = GMS+/GEOSIG | digitizer = 
INSTRUMENT_ANALOG/DIGITAL: 
INSTRUMENTAL_FREQUENCY_HZ: 
INSTRUMENTAL_DAMPING: 
FULL_SCALE_G: 
N_BIT_DIGITAL_CONVERTER: 
PGA_CM/S^2: 100.596
TIME_PGA_S: 
BASELINE_CORRECTION: BASELINE REMOVED
FILTER_TYPE: BUTTERWORTH
FILTER_ORDER: 
LOW_CUT_FREQUENCY_HZ: 
HIGH_CUT_FREQUENCY_HZ: 
LATE/NORMAL_TRIGGERED: 
DATABASE_VERSION: 
HEADER_FORMAT: DYNA 1.2
DATA_TYPE: Acceleration
PROCESSING: Automatic Paolucci et al., 2011
DATA_TIMESTAMP_YYYYMMDD_HHMMSS: 
DATA_LICENSE: U (unknown license)
DATA_CITATION: Turkish Accelerometric Archive v 1.0 - Disaster And Emergency Management Presidency, Earthquake Department
DATA_CREATOR: AFAD
ORIGINAL_DATA_MEDIATOR_CITATION: : AFAD - Disaster And Emergency Management Presidency
ORIGINAL_DATA_MEDIATOR: AFAD PROCESS SERVICE
ORIGINAL_DATA_CREATOR_CITATION: AFAD PROCESS SERVICE
ORIGINAL_DATA_CREATOR: network: TK
USER1: GuestUser
USER2: 
USER3: 
USER4: 
USER5: 
[...]
-0.212196
-0.224405
-0.244667
-0.267787
-0.295582
-0.323897
-0.348056
-0.367279
-0.382345
-0.398711
-0.419753
-0.446509
-0.478720
-0.516906
-0.557430
-0.596136
-0.627568
-0.647571
-0.661339
-0.669132
-0.676925
-0.689134
-0.697967
-0.695629
-0.683420
-0.670692
-0.658743
-0.650430
-0.648872
-0.650950
-0.655886
-0.664199
-0.677447
-0.693034
-0.705243
-0.709659
-0.704464
-0.689658
-0.671734
-0.657707
-0.648875
-0.647057
-0.640043
-0.609910
-0.552502
-0.471974
-0.377419
-0.280266
-0.191165
-0.110638
-0.038422
0.023402
0.078732
0.134842
0.198225
0.273298
0.352787
0.426301
0.486827
0.520336
0.523973
0.516180
0.507607
0.500593
0.484487
0.456952
0.434352
0.409414
0.374604
0.342653
0.321352
0.306804
0.315117
0.363174
0.409672
0.429933
0.435129
0.429673
0.416685
0.399020
0.378498
0.338494
0.274591
0.222637
0.219000
0.269914
0.349663
0.377458
0.312515
0.241598
0.230428
0.246534
0.206269
0.126001
0.103401
0.166005
0.289654
0.396159
0.455385
0.495909
0.530198
0.527081
0.504481
0.535393
0.531236
0.472528
0.409664
0.358230
0.357191
0.330435
0.290950
0.212240
0.104176
0.107033
0.116385
0.090408
0.068067
0.043129
0.001566
-0.120005
-0.238200
-0.244694
-0.178194
-0.170661
-0.201574
-0.171960
-0.123903
-0.083120
-0.103382
-0.191963
-0.227812
-0.222616
-0.193263
-0.114294
0.002861
0.161320
0.303412
0.469404
0.615653
0.703974
0.745017
0.640850
0.568634
0.579025
0.606820
0.688906
0.748393
0.882952
1.059594
1.110508
1.121938
1.161942
1.182983
1.141680
1.131548
1.173371
1.140380
1.098557
1.060111
1.011015
1.036992
1.084269
1.107908
1.099855
1.068423
0.960878
0.844242
0.860088
0.881389
0.835929
0.723709
0.654870
0.697472
0.804756
0.960617
0.930223
0.740852
0.561612
0.377696
0.236382
0.177155
0.144944
0.074027
0.040517
-0.000527
-0.064170
-0.069626
-0.086511
-0.153791
-0.227565
-0.174833
-0.145739
-0.343942
-0.552016
-0.590982
-0.475126
-0.256921
-0.036898
-0.004946
-0.103139
-0.118465
-0.038457
0.101038
0.222869
0.341842
0.404446
0.440554
0.574334
0.685774
0.882678
1.153096
1.241937
1.247911
1.350779
1.412863
1.302462
1.265574
1.428708
1.605870
1.652888
1.671591
1.709776
1.681981
1.750819
1.866676
1.878625
1.849271
1.785887
1.755234
1.765365
1.748999
1.752896
1.765884
1.678861
1.548458
1.421171
1.349475
1.341162
1.213616
1.092564
1.006321
0.737201
0.390930
0.133240
-0.049637
-0.190172
-0.272518
-0.349670
-0.477995
-0.583981
-0.605542
-0.592294
-0.585280
-0.588138
-0.590476
-0.613076
-0.610479
-0.501117
-0.449163
-0.541901
-0.653861
-0.690748
-0.700360
-0.692827
-0.642952
-0.703478
-0.789721
-0.789461
-0.731533
-0.661396
-0.719844
-0.816738
-0.855444
-0.873628
-0.842975
-0.807127
-0.801153
-0.769202
-0.733094
-0.713352
-0.787126
-1.010008
-1.185091
-1.207172
-1.133658
-1.005852
-0.869214
-0.843498
-0.987669
-1.104565
-1.097551
-1.106643
-1.140673
-1.140154
-1.076771
-0.896232
-0.709979
-0.615424
-0.615424
-0.684522
-0.720890
-0.676990
-0.578278
-0.524506
-0.496971
-0.420340
-0.306042
-0.214344
-0.221618
-0.214085
-0.170444
-0.135636
-0.112257
-0.192265
-0.270975
-0.291237
-0.245519
-0.113557
-0.039004
-0.023158
-0.093555
-0.188631
-0.121091
0.022041
0.195825
0.314279
0.307525
0.265962
0.182576
0.189850
0.293756
0.264402
0.148286
0.108801
0.095293
0.104904
0.182315
0.235047
0.296352
0.369347
0.354020
0.299469
0.306223
0.332978
0.331420
0.350642
0.380775
0.523128
0.700289
0.662363
0.560793
0.546506
0.529361
0.506501
0.593004
0.779257
0.920311
0.998501
1.050194
1.024996
0.958755
0.968367
1.036685
1.104485
1.126045
1.152801
1.243979
1.339054
1.521930
1.776503
1.951846
1.997045
1.914179
1.851575
1.860407
1.878330
2.033931
2.256552
2.342535
2.360199
2.286684
2.087442
1.841182
1.589726
1.471272
1.450750
1.388406
1.410226
1.514133
1.489974
1.388145
1.366844
1.322423
1.194098
1.141624
1.107854
0.996933
0.937186
1.007583
1.142922
1.278780
1.409963
1.509194
1.529456
1.531014
1.628946
1.692329
1.743244
1.943265
2.164327
2.385909
2.578137
2.657885
2.709060
2.862322
3.102607
3.262624
3.373285
3.462126
3.403418
3.296393
3.311979
3.431732
3.556940
3.616946
3.675653
3.726567
3.683446
3.624738
3.522389
3.358995
3.277947
3.174819
3.043636
2.953237
2.727498
2.511371
2.453962
2.396293
2.353951
2.370835
2.386681
2.341741
2.196011
2.023785
1.878574
1.686605
1.535940
1.657771
1.886366
1.959101
2.086127
2.304072
2.334725
2.319658
2.401744
2.386158
2.314981
2.263547
2.256273
2.466166
2.801786
2.975051
3.042850
3.208841
3.324438
3.325217
3.265990
3.075320
2.825942
2.644364
2.687226
2.911405
3.238713
3.556928
3.690968
3.656938
3.345736
2.990633
2.764894
2.601500
2.719175
3.013232
3.188835
3.237931
3.363918
3.340019
3.058950
2.897894
2.808793
2.726446
2.665141
2.707223
2.806714
2.761514
2.705664
2.596301
2.508240
2.516812
2.525124
2.538372
2.395499
2.317049
2.397837
2.408227
2.380951
2.347701
2.375756
2.457842
2.572919
2.615001
2.580452
2.673968
2.826971
2.865417
2.789824
2.833465
2.885678
2.771380
2.706697
2.620194
2.520443
2.460177
2.384324
2.453682
2.407963
2.120919
1.850500
1.612293
1.547610
1.518516
1.368370
1.253033
1.181597
1.324728
1.314597
0.988848
0.822077
0.718949
0.830908
1.157956
1.422400
1.562154
1.403436
1.315115
1.344468
1.208869
1.203414
1.499030
1.981938
2.235211
2.026877
1.791787
1.766330
1.622158
1.243416
1.072489
1.216400
1.441099
1.606051
1.560592
1.506040
1.451749
1.485778
1.849193
1.974661
1.666316
1.334852
1.255103
1.540328
2.011547
2.372104
2.407173
2.359895
2.224555
2.015702
2.188707
2.265858
1.868413
1.463174
1.544482
2.147143
2.545627
2.615504
2.224553
1.181585
0.558661
0.325389
0.007173
0.103807
0.417086
0.524890
0.217324
-0.136480
0.052112
0.484365
0.952986
1.334585
1.384720
1.179243
0.878692
0.939997
1.055593
1.084427
1.378225
1.204699
1.260289
1.760862
1.577466
1.019744
0.157833
-0.065307
0.091852
-0.391576
0.321746
1.874898
2.397032
2.093622
2.168435
2.752653
2.783565
2.843831
3.758474
4.739877
4.666103
3.817441
3.657943
3.957195
2.197267
0.078340
0.436560
0.553975
0.382008
0.636840
0.718667
1.034804
-0.498606
-2.562722
-2.188657
-0.413663
0.926220
1.730461
2.456772
1.956719
0.611640
0.294463
0.266408
0.035734
1.100782
2.232591
2.268439
1.668894
0.156785
-0.139091
0.200166
-0.253649
1.334572
4.188122
5.860767
5.462803
3.479994
2.772905
2.648217
2.103743
2.353120
3.116837
4.063172
4.277480
4.561406
3.974590
2.803036
4.181625
4.213836
2.663021
2.362989
3.281528
5.958176
6.960620
6.865545
7.852663
7.379366
4.895984
3.374263
4.047322
2.924345
0.869061
0.687743
0.543571
-0.411596
-1.521065
-1.190900
-1.286755
-1.423912
0.935040
1.895142
0.485641
-0.104552
0.241978
0.673193
0.932960
0.862044
1.051154
0.496290
-1.021275
-1.091412
-0.660717
-1.392224
-2.243743
-3.113447
-3.064351
-2.176984
-2.655217
-2.285827
-1.575102
-2.477536
-2.844069
-3.470889
-3.375035
-3.099941
-3.385686
-1.544451
-2.311026
-6.090650
-7.090237
-6.260798
-4.687384
-3.913016
-3.499726
-1.318974
-1.799285
-2.847189
-1.187273
-0.384330
0.162741
0.429003
0.378088
0.280935
0.876582
3.431399
4.593341
3.898721
2.395704
0.615514
-0.287439
-0.684625
-0.119370
1.451446
2.570007
3.282290
4.300840
3.266704
1.684457
1.355591
0.005057
-0.276272
0.965938
2.153077
2.643779
1.270126
-0.624102
-1.229881
-0.621245
-1.334828
-2.914477
-2.085298
-0.284847
0.280408
1.579767
2.837823
1.670945
1.006199
0.602779
0.147665
1.422866
1.599768
1.916684
2.533373
2.096443
3.424376
4.447342
5.100399
4.910508
2.331012
1.318177
-0.154967
-1.394580
-0.146135
1.431175
3.787790
3.500746
1.726790
0.670314
-1.872035
-3.752495
-5.182778
-6.009879
-5.464366
-4.046553
-1.060002
0.851890
0.581991
-0.307715
-1.857490
-4.276709
-4.986915
-2.439891
-0.691912
-0.350318
0.976576
2.157481
3.013936
4.588389
5.251057
3.220451
1.081521
0.289229
0.609523
1.121265
0.381446
0.471066
0.434438
-0.520469
-1.211972
-2.196752
-2.563804
-3.227771
-3.600279
-1.646305
0.703556
2.313078
4.113269
6.021524
6.073997
3.981306
3.008215
2.740135
1.806009
2.837287
4.186262
3.648802
3.271619
3.070298
2.904826
2.636745
1.749638
1.680539
1.674564
0.959423
-0.082766
-2.006868
-2.394701
-1.118721
-1.307313
-2.135713
-2.174939
-1.967904
-2.365609
-2.873975
-2.078825
-0.799469
0.788752
3.745690
6.631972
7.511286
7.122673
7.108385
6.331679
5.106613
4.540059
3.366687
2.652065
2.172014
0.999162
0.166086
-1.023132
-2.836313
-4.448432
-4.718851
-2.553166
0.803814
2.170973
1.163333
0.470012
-1.048332
-3.994100
-5.348011
-5.469323
-5.836115
-6.747122
-6.397214
-4.286860
-2.634736
-1.320571
0.134909
1.644160
1.991989
2.328908
2.629200
1.871197
2.627900
3.221989
4.113513
4.326782
1.612986
-0.325922
-1.484487
-1.157440
-0.913518
-1.528648
-0.052647
0.151530
-1.858295
-3.503665
-3.926048
-4.233613
-3.091414
-0.714538
-0.715577
-1.130686
-1.904275
-3.197660
-4.471562
-5.692212
-4.579886
-3.274033
-2.529019
-2.790345
-3.740057
-1.884795
0.261927
0.955767
1.793518
2.344746
2.530739
1.998734
0.807958
0.932646
1.338144
0.462985
0.219323
0.657811
1.700259
2.918311
3.792170
3.588252
0.865624
-0.944179
-1.409684
-2.052350
-2.159374
-1.614122
0.171003
1.063046
1.639471
3.215483
3.810611
2.880901
0.802757
-0.120198
-0.489588
-2.221981
-2.339136
-0.740005
1.175783
3.367964
3.698648
2.943503
1.466462
-1.075887
-1.643999
-0.996398
-1.468137
-1.885324
-1.195641
-0.600513
-0.659740
-0.568302
-0.150336
0.673908
1.169545
1.544909
1.291375
-0.746504
-1.709204
-1.500351
-2.093402
-1.481908
-0.736115
-2.065088
-2.667490
-1.636731
-1.299552
-1.248118
0.017471
2.135099
3.183782
2.752047
3.245346
2.411491
-1.151226
-2.793220
-2.585146
-2.679182
-3.951785
-4.881235
-3.318472
-1.728952
-0.538436
0.072019
-0.834572
-1.699599
-0.936921
1.039653
1.749599
0.334902
-1.998074
-2.543586
-1.417753
0.264245
2.921410
4.768360
5.200094
4.596913
3.624341
2.547084
1.260193
-0.086964
-0.864189
-0.220744
0.676494
1.106929
-0.117098
-2.843622
-5.466239
-7.669591
-10.011919
-12.560502
-13.888696
-14.321989
-13.064972
-10.090889
-6.972635
-3.679817
-0.993298
2.048325
5.614678
8.011037
9.417940
10.282707
9.762911
8.374452
8.783586
10.433372
11.552452
12.120564
12.011981
11.871965
10.861728
8.257554
6.495288
5.697021
4.920575
5.640132
6.931178
7.497472
7.623459
6.121221
2.484470
-2.422027
-7.136296
-9.616560
-8.819852
-5.633019
-1.986138
1.396300
3.302997
2.894122
1.159131
-2.632701
-7.362036
-10.885529
-11.918626
-9.128199
-2.779991
5.713381
10.569223
11.326446
10.711315
7.544225
6.218629
5.306064
4.600534
6.368514
5.600380
7.522403
9.801346
7.340824
4.321282
-2.156032
-7.896643
-10.058432
-10.589917
-9.405895
-10.299757
-10.205202
-6.776006
-4.706435
-2.261759
1.692428
3.169208
5.078502
5.866638
2.749423
0.153302
-1.639357
-2.862604
-1.613640
0.716478
-0.691724
-2.442041
-3.372790
-5.445218
-6.219067
-7.117085
-6.520398
-7.144101
-9.402784
-9.512926
-8.762716
-8.908966
-11.842525
-14.185372
-14.220701
-15.344197
-15.835419
-11.535221
-7.129297
-4.220936
0.502684
4.383876
9.410905
15.347381
17.721919
18.134171
18.001689
17.332267
16.841565
16.637647
14.677698
11.154985
9.778994
9.117365
6.974539
4.243598
-0.491711
-8.646086
-16.462244
-22.184152
-29.113462
-32.991797
-31.816867
-30.328916
-29.010335
-29.043066
-30.457762
-32.772294
-33.456264
-29.052158
-23.389478
-18.109695
-12.166465
-7.370889
-3.530740
0.275898
3.537025
5.478010
5.993130
7.662139
10.693370
13.312610
16.458399
18.382500
19.048285
22.155629
24.677715
24.289362
21.508286
18.201960
17.433566
15.442965
10.907676
2.314033
-0.620305
0.865567
-6.462227
-7.990961
-11.379374
-18.369209
-18.041902
-20.944289
-21.835294
-27.815151
-29.532477
-18.703792
-21.187693
-24.857435
-20.788430
-22.044668
-19.237616
-11.439643
-3.291763
2.116605
1.935807
7.256113
9.496871
6.520450
7.066742
1.602004
-1.895252
6.571104
11.205363
10.014327
11.627486
5.040810
4.029533
4.374505
5.003143
20.899121
15.725323
1.440945
-3.490750
-6.294425
-0.827869
-5.470701
-10.855431
-7.825758
-5.587078
-3.844815
-9.631146
-15.051203
-17.374308
-22.829695
-19.139172
-13.262183
-15.295906
-19.331661
-26.422806
-28.474193
-25.399321
-14.455558
-2.980310
-6.307158
-4.173684
8.164253
12.069863
3.161641
1.799159
6.691108
3.222686
6.311846
11.367190
11.032348
15.799090
11.118851
-4.449561
-5.191198
-6.732921
-10.070680
-7.064645
-14.695069
-11.736312
-5.353295
-6.730065
2.192183
3.648702
-0.539536
0.661890
0.503431
7.205443
10.297980
8.151258
4.967023
-7.796415
-10.129391
-5.208607
-7.906557
-14.954321
-17.929443
-14.387508
-11.696312
-4.345660
-1.856304
-1.230783
1.089204
6.177538
21.245636
23.743824
19.049298
20.191757
20.028103
18.070232
15.970268
18.081142
14.527776
3.801698
0.737736
-1.915534
-8.119572
-11.837371
-14.077090
-15.139541
-16.018596
-13.032823
-17.107803
-24.495603
-19.172959
-15.320860
-15.122917
-7.395861
-1.870857
-12.827609
-19.528582
-9.841317
-9.765985
-16.205891
-16.030548
-21.518146
-29.804483
-31.082022
-28.350303
-17.014291
1.353639
19.438682
33.972957
29.383377
1.949026
-22.578261
-31.222818
-28.897376
5.699295
59.279027
91.429723
100.595894
50.317552
-25.220362
-30.864600
-9.205670
-2.226226
12.520019
18.154126
1.051785
-20.365561
-27.613866
-37.848722
-65.411138
-83.917005
-79.016744
-52.554445
-6.630334
39.128824
50.115449
23.458844
-11.454745
-35.867475
-33.668020
-14.725224
13.375691
48.970390
59.827390
35.140865
-7.580828
-25.989801
-3.835494
14.400993
10.746578
-3.968756
-25.836280
-36.341035
-23.237302
-6.140157
-3.891866
-14.449094
-33.161477
-37.546879
-10.569461
21.450832
34.541317
24.594023
1.228158
-17.396683
-19.341305
-0.463451
21.011303
20.681398
8.179287
6.030486
7.327248
0.796162
-4.655847
0.786291
4.309003
-10.295669
-21.161502
-8.433653
13.293855
22.952806
12.920828
-4.979780
-17.346292
-17.512024
-13.701489
-20.748993
-33.041471
-46.033764
-60.283074
-62.970373
-53.960842
-44.207336
-33.691411
-24.588884
-22.413847
-24.970743
-18.866977
-1.077030
10.216640
13.581673
13.948985
6.168935
6.560145
19.942090
28.401432
31.277842
30.479315
26.272633
18.397768
5.817727
-1.490064
-3.316493
-7.694362
-8.877865
-2.270148
3.314862
8.835969
14.999223
9.325631
-0.132779
-0.648938
3.842189
10.295604
13.523999
13.619334
13.412298
5.110375
-7.543700
-11.638162
-12.886867
-19.582125
-22.799871
-17.538012
-11.971965
-13.491088
-16.963406
-11.590367
-3.220125
1.794954
7.837156
14.025607
18.327104
19.826484
18.046554
15.225214
16.114400
20.210940
23.246587
26.703839
29.680519
28.107364
24.343067
18.354897
6.185808
-4.684960
-11.001997
-18.752173
-24.663712
-24.623968
-20.614710
-16.520508
-16.294510
-21.618713
-29.860630
-35.409793
-34.035881
-27.052020
-20.840710
-18.886216
-18.904660
-15.488452
-7.932583
-0.813383
5.445725
7.129800
1.688181
-2.983485
-2.853082
-1.678412
-2.341340
-3.242475
-4.023078
-5.303993
-4.709904
-1.746732
1.068373
3.872307
8.040803
12.086169
15.719283
18.437754
17.474534
11.328944
7.195257
9.844110
11.036185
9.613956
10.186224
7.824414
0.684173
-2.622933
-3.137533
-7.900898
-11.848591
-11.202029
-9.141291
-3.874756
5.235824
13.185242
17.332177
15.411193
8.818023
2.520989
0.936404
4.693427
7.841295
8.018716
8.099244
8.508638
4.355208
1.200327
3.879573
3.431733
2.145362
4.601208
9.642783
14.929320
17.941329
21.146345
22.563379
20.365742
18.814408
18.170443
13.466046
6.772086
4.255714
4.248700
3.987373
4.284807
3.257684
-1.365406
-7.096406
-9.030378
-7.295388
-8.043780
-10.290773
-9.716426
-9.695905
-12.284492
-10.953701
-3.118841
3.212742
5.738205
6.455944
4.556521
1.348906
-1.165128
-2.093799
-2.987141
-4.167786
-5.234134
-4.934362
-0.775997
4.337274
7.764392
8.461090
6.504777
6.230462
8.094037
9.500160
11.269699
14.720716
17.038625
16.857826
16.170740
12.651144
7.016778
3.157145
1.054584
1.518789
2.262764
-0.306081
-5.533392
-11.944984
-15.855790
-15.354698
-13.760762
-12.215663
-9.399259
-4.735646
1.405008
5.333478
4.862778
0.869885
-5.498845
-9.475113
-8.709317
-6.729107
-4.546537
-0.514939
3.966057
7.502798
10.467269
11.368923
9.342733
5.620518
3.299492
3.949171
5.692214
7.697881
9.058026
9.168947
8.528099
6.646859
4.885892
5.292169
5.642596
3.876434
1.681394
0.519452
0.044856
-1.380750
-3.434476
-4.995422
-7.353595
-9.763203
-9.603186
-6.343878
-1.945488
0.072389
0.424375
3.059201
6.547884
8.217412
9.428969
10.460248
10.370368
11.151230
13.940358
16.377240
16.124746
12.206406
6.002369
1.089637
-0.639378
-0.836023
-1.012405
-0.402211
0.993522
1.870758
2.049478
2.019605
1.748926
0.866494
-0.877588
-3.441497
-5.374950
-5.071282
-3.954280
-2.912870
-2.137983
-3.357853
-6.115810
-9.202113
-11.582366
-11.138683
-7.274375
-1.575327
3.017369
4.114369
1.734635
-1.298675
-3.239402
-4.568634
-3.165109
-0.263761
1.222631
3.886291
7.675785
10.214497
11.409689
11.621140
11.638544
12.375246
13.398211
13.052720
11.149920
9.054631
7.112346
5.431648
4.827687
3.967855
1.823471
0.277072
0.679192
2.608229
3.955385
3.500271
2.842019
2.336251
1.421608
1.400047
1.980628
0.880251
-2.125524
-4.009881
-3.812198
-3.927535
-3.277596
-1.194257
-0.833440
-1.578714
-0.705894
0.384092
0.695813
1.545254
1.370690
-0.923061
-3.408002
-5.214948
-5.977107
-5.384057
-4.672813
-4.853092
-5.392630
-5.831118
-5.447961
-4.638524
-5.154164
-5.561221
-4.761915
-4.039241
-2.578826
0.462277
2.876560
2.532627
1.560835
1.409650
0.331613
-0.356253
0.871410
2.530028
3.394795
3.388041
3.607545
4.233585
4.420618
4.220856
4.125001
4.416721
4.966649
5.572687
5.413449
3.722620
1.290153
-0.451072
-1.077632
-1.084906
-0.950347
-0.755781
-0.350543
-0.033626
0.540461
1.493289
2.029450
2.289218
2.500928
2.661465
2.742252
3.382320
4.698044
5.457865
5.724387
4.932614
2.277266
-0.823584
-2.856787
-3.340476
-2.828733
-2.145803
-1.755632
-2.268414
-3.882093
-5.437324
-6.202081
-6.936964
-7.773937
-7.841996
-6.351448
-4.169917
-2.440123
-0.968798
-0.608760
-1.932018
-3.705973
-4.207845
-3.226702
-1.577175
1.038947
2.943305
2.876805
2.701981
2.380128
2.225566
4.339817
7.568991
9.494131
9.925086
9.598558
9.430487
9.433085
8.721840
7.708485
6.397956
3.894572
1.334299
0.393939
1.235327
2.546376
3.339447
4.496713
5.574749
5.313682
5.453178
6.836701
7.691597
7.530801
6.584466
4.941434
2.236730
-1.322351
-4.066280
-5.732951
-6.779296
-7.009191
-7.011010
-6.861903
-5.810623
-4.779344
-4.886888
-5.995578
-7.816032
-9.588688
-10.563598
-10.564897
-9.943012
-9.109937
-7.948255
-6.588890
-5.789324
-6.391467
-7.638613
-8.408825
-9.169166
-9.383215
-8.525461
-7.169473
-5.118865
-2.611585
-0.432133
0.404839
-0.631375
-2.297787
-3.679752
-4.746100
-5.193161
-5.360451
-5.251869
-3.977967
-1.973078
0.060385
2.351538
3.889104
3.523350
2.105017
0.732663
