EVENT_NAME: 202302060117
EVENT_ID: 13194
EVENT_DATE_YYYYMMDD: 2023/02/06
EVENT_TIME_HHMMSS: 01:17:32.00000
EVENT_LATITUDE_DEGREE: 37.288
EVENT_LONGITUDE_DEGREE: 37.043
EVENT_DEPTH_KM: 8.6
HYPOCENTER_REFERENCE: AFAD
MAGNITUDE_W: 7.7
MAGNITUDE_W_REFERENCE: AFAD
MAGNITUDE_L: 
MAGNITUDE_L_REFERENCE: 
FOCAL_MECHANISM: 
NETWORK: TK
STATION_CODE: 1903
STATION_NAME: 
STATION_LATITUDE_DEGREE: 40.97625
STATION_LONGITUDE_DEGREE: 34.80015
STATION_ELEVATION_M: 422.0
LOCATION: Kahramanmaras_Pazarck_Turkiye
SENSOR_DEPTH_M: 
VS30_M/S: 255
SITE_CLASSIFICATION_EC8: C
MORPHOLOGIC_CLASSIFICATION: 
EPICENTRAL_DISTANCE_KM: 453.41
EARTHQUAKE_BACKAZIMUTH_DEGREE: 
DATE_TIME_FIRST_SAMPLE_YYYYMMDD_HHMMSS: 2023/02/06 01:18:09.5623170
DATE_TIME_FIRST_SAMPLE_PRECISION: millisecond
SAMPLING_INTERVAL_S: 0.01
NDATA: 24501
DURATION_S: 
STREAM: HNE
UNITS: cm/s^2
INSTRUMENT: sensor = CMG-5T/GURALP | digitizer = 
INSTRUMENT_ANALOG/DIGITAL: 
INSTRUMENTAL_FREQUENCY_HZ: 
INSTRUMENTAL_DAMPING: 
FULL_SCALE_G: 
N_BIT_DIGITAL_CONVERTER: 
PGA_CM/S^2: 2.585
TIME_PGA_S: 
BASELINE_CORRECTION: BASELINE REMOVED
FILTER_TYPE: BUTTERWORTH
FILTER_ORDER: 
LOW_CUT_FREQUENCY_HZ: 
HIGH_CUT_FREQUENCY_HZ: 
LATE/NORMAL_TRIGGERED: 
DATABASE_VERSION: 
HEADER_FORMAT: DYNA 1.2
DATA_TYPE: Acceleration
PROCESSING: Automatic Paolucci et al., 2011
DATA_TIMESTAMP_YYYYMMDD_HHMMSS: 
DATA_LICENSE: U (unknown license)
DATA_CITATION: Turkish Accelerometric Archive v 1.0 - Disaster And Emergency Management Presidency, Earthquake Department
DATA_CREATOR: AFAD
ORIGINAL_DATA_MEDIATOR_CITATION: : AFAD - Disaster And Emergency Management Presidency
ORIGINAL_DATA_MEDIATOR: AFAD PROCESS SERVICE
ORIGINAL_DATA_CREATOR_CITATION: AFAD PROCESS SERVICE
ORIGINAL_DATA_CREATOR: network: TK
USER1: GuestUser
USER2: 
USER3: 
USER4: 
USER5: 
[...]
-0.125002
-0.080707
-0.069084
-0.035784
-0.023532
-0.011909
0.014480
0.022648
0.074797
0.084535
0.149250
0.171555
0.215850
0.252920
0.263915
0.284963
0.260459
0.249149
0.221504
0.178780
0.159302
0.089561
0.048721
-0.022277
-0.086992
-0.135057
-0.216108
-0.235271
-0.294017
-0.288991
-0.316322
-0.292132
-0.290248
-0.265116
-0.228046
-0.206055
-0.144796
-0.124691
-0.052750
-0.023534
0.057516
0.102440
0.183805
0.253860
0.330827
0.416276
0.466225
0.540993
0.562355
0.602881
0.611991
0.614818
0.626127
0.598168
0.588429
0.542249
0.502038
0.456172
0.380147
0.341507
0.250089
0.215218
0.133853
0.073536
0.013534
-0.078827
-0.126263
-0.221451
-0.263233
-0.346169
-0.402402
-0.461462
-0.530889
-0.559163
-0.610998
-0.626705
-0.643041
-0.642099
-0.619166
-0.598746
-0.560420
-0.523350
-0.471830
-0.423136
-0.361877
-0.299361
-0.237474
-0.164277
-0.101133
-0.009087
0.055942
0.151758
0.218358
0.289670
0.347473
0.366951
0.408733
0.383286
0.410303
0.375747
0.360039
0.317943
0.246631
0.191654
0.092697
0.029867
-0.070976
-0.150456
-0.237789
-0.323553
-0.391095
-0.470889
-0.523038
-0.579899
-0.620425
-0.624509
-0.646500
-0.612885
-0.616027
-0.574245
-0.547857
-0.509216
-0.443559
-0.406175
-0.317585
-0.270148
-0.168678
-0.108361
-0.021655
0.036776
0.090810
0.137933
0.160866
0.190710
0.186940
0.201077
0.173431
0.176573
0.158980
0.156467
0.151755
0.142016
0.159923
0.152383
0.174687
0.173117
0.189767
0.210500
0.221181
0.267047
0.264534
0.303489
0.302232
0.299719
0.302860
0.259193
0.265790
0.210186
0.211442
0.184425
0.186624
0.195420
0.182854
0.229348
0.217411
0.273015
0.276157
0.316368
0.338358
0.351238
0.376999
0.374485
0.395533
0.372286
0.376370
0.338986
0.332075
0.294377
0.266103
0.233745
0.191335
0.164318
0.110284
0.081068
0.026092
-0.014120
-0.063441
-0.123130
-0.153602
-0.217689
-0.243764
-0.278320
-0.302824
-0.294342
-0.308793
-0.254445
-0.234340
-0.151718
-0.091401
-0.002811
0.093005
0.165573
0.283694
0.338356
0.447052
0.493860
0.561402
0.608839
0.632086
0.674496
0.660045
0.677323
0.655333
0.641510
0.611352
0.565486
0.537212
0.477523
0.448936
0.385163
0.334271
0.282750
0.204527
0.168399
0.089233
0.055305
-0.002499
-0.056533
-0.101456
-0.161459
-0.190675
-0.249107
-0.271098
-0.316649
-0.333928
-0.360002
-0.359688
-0.343352
-0.330472
-0.279894
-0.254448
-0.187534
-0.152035
-0.108683
-0.055905
-0.036428
0.028287
0.053733
0.116563
0.157402
0.202954
0.277408
0.315734
0.393329
0.419089
0.487888
0.499197
0.547891
0.560771
0.588102
0.614804
0.611977
0.652502
0.621715
0.653759
0.610720
0.608835
0.574593
0.550403
0.535638
0.495741
0.492599
0.453959
0.441078
0.425685
0.391442
0.394584
0.361912
0.367567
0.363797
0.354058
0.385473
0.346833
0.382960
0.318559
0.322957
0.265467
0.225884
0.184731
0.101167
0.082318
-0.032347
-0.050568
-0.156123
-0.177799
-0.241572
-0.285239
-0.309428
-0.381997
-0.388908
-0.466818
-0.488494
-0.542214
-0.567660
-0.593735
-0.622951
-0.622637
-0.625464
-0.586509
-0.551639
-0.480327
-0.405559
-0.325137
-0.209215
-0.114342
0.021685
0.131952
0.260753
0.385157
0.486627
0.616999
0.689568
0.801405
0.850727
0.914814
0.959737
0.978900
1.021939
1.015970
1.046128
1.024452
1.014713
0.967276
0.914499
0.843815
0.749884
0.664749
0.530293
0.446415
0.321697
0.251013
0.168391
0.095194
0.050585
-0.021356
-0.030780
-0.088270
-0.071934
-0.087956
-0.078217
-0.047745
-0.052143
0.000320
-0.000622
0.039589
0.056239
0.093937
0.138860
0.175302
0.230592
0.253211
0.311957
0.330806
0.362849
0.385468
0.386724
0.404002
0.390180
0.395834
0.374786
0.353110
0.324208
0.273630
0.236560
0.163677
0.115612
0.049012
-0.017588
-0.061883
-0.128797
-0.159584
-0.206707
-0.219587
-0.232467
-0.233095
-0.225556
-0.222729
-0.196026
-0.201995
-0.176235
-0.191000
-0.175921
-0.186916
-0.188801
-0.187544
-0.218017
-0.214247
-0.268595
-0.279591
-0.342421
-0.393627
-0.451117
-0.534995
-0.585887
-0.671965
-0.704636
-0.761498
-0.790400
-0.810819
-0.837208
-0.830297
-0.849460
-0.820872
-0.824014
-0.785688
-0.767467
-0.737937
-0.686731
-0.660970
-0.574893
-0.538452
-0.441694
-0.386089
-0.302525
-0.220532
-0.161472
-0.067541
-0.025759
0.041155
0.067229
0.102728
0.121577
0.113095
0.102100
0.060946
0.025447
-0.026702
-0.072882
-0.112779
-0.160216
-0.189746
-0.232471
-0.249121
-0.287447
-0.290275
-0.312265
-0.318863
-0.320119
-0.334884
-0.311009
-0.338340
-0.297187
-0.323889
-0.293103
-0.298757
-0.291846
-0.251321
-0.265144
-0.203570
-0.218021
-0.168386
-0.163673
-0.147023
-0.120321
-0.134143
-0.097074
-0.120321
-0.099273
-0.099901
-0.112467
-0.080424
-0.106184
-0.070686
-0.083252
-0.069429
-0.048695
-0.063775
-0.020736
-0.045240
-0.002830
-0.011626
0.026072
0.047120
0.068168
0.099269
0.090473
0.109322
0.056544
0.057173
-0.018852
-0.048068
-0.110898
-0.163675
-0.194462
-0.261062
-0.270487
-0.327976
-0.336773
-0.378240
-0.389236
-0.401488
-0.419080
-0.403687
-0.415625
-0.385466
-0.395519
-0.383267
-0.383267
-0.407771
-0.398661
-0.446098
-0.430704
-0.462748
-0.457093
-0.447983
-0.460863
-0.409657
-0.437616
-0.378242
-0.392693
-0.353110
-0.321695
-0.310386
-0.242215
-0.241587
-0.169646
-0.159908
-0.113100
-0.087968
-0.071318
-0.049955
-0.054982
-0.041788
-0.054354
-0.040845
-0.045872
-0.045244
-0.046186
-0.057810
-0.063150
-0.095194
-0.120326
-0.174046
-0.218341
-0.270490
-0.327351
-0.358452
-0.419083
-0.429136
-0.476887
-0.480029
-0.511129
-0.519297
-0.524324
-0.539089
-0.504533
-0.518041
-0.450813
-0.449242
-0.388926
-0.334892
-0.301278
-0.212059
-0.173105
-0.089855
-0.029224
0.029836
0.105546
0.145758
0.218640
0.262936
0.316341
0.368804
0.399277
0.456452
0.463049
0.516769
0.517397
0.552582
0.553838
0.553524
0.568289
0.526193
0.538759
0.471216
0.468075
0.412470
0.385453
0.347441
0.308800
0.279898
0.229634
0.207329
0.141986
0.129106
0.069417
0.053710
0.003131
-0.027969
-0.063783
-0.104308
-0.122215
-0.161484
-0.164625
-0.186616
-0.185359
-0.166824
-0.153630
-0.107764
-0.083261
-0.036452
0.005644
0.036116
0.090778
0.104915
0.163347
0.165232
0.217381
0.224292
0.240628
0.258220
0.246910
0.261675
0.218637
0.215809
0.171828
0.141670
0.109941
0.065959
0.027005
-0.019490
-0.066926
-0.109965
-0.170910
-0.215834
-0.283690
-0.332384
-0.384218
-0.420974
-0.443907
-0.460871
-0.442022
-0.425372
-0.353746
-0.304111
-0.194158
-0.106510
0.015694
0.130673
0.236228
0.365657
0.459588
0.583678
0.660016
0.773738
0.834998
0.919190
0.982648
1.030085
1.094171
1.107051
1.161399
1.155745
1.184960
1.184960
1.170195
1.170509
1.134382
1.129356
1.076578
1.047676
0.986103
0.923901
0.850076
0.748919
0.671010
0.542208
0.464613
0.347121
0.272353
0.195386
0.123131
0.088889
0.031085
0.021661
-0.011954
-0.006299
-0.007556
0.016320
0.045850
0.087946
0.139781
0.196328
0.270153
0.348062
0.437281
0.518960
0.600639
0.677605
0.745776
0.801066
0.852587
0.871436
0.901908
0.873635
0.861069
0.791956
0.717816
0.614146
0.479690
0.362826
0.187216
0.059043
-0.127563
-0.261077
-0.428205
-0.560462
-0.685180
-0.812725
-0.884351
-0.980795
-1.010325
-1.058076
-1.055249
-1.040170
-1.010326
-0.937443
-0.873042
-0.765603
-0.666646
-0.549153
-0.414383
-0.289980
-0.137931
-0.010072
0.145432
0.274548
0.408376
0.524926
0.634564
0.735406
0.803891
0.883685
0.908503
0.946201
0.935206
0.916042
0.867349
0.794780
0.711844
0.596551
0.476232
0.330152
0.196638
0.042076
-0.104004
-0.243487
-0.399306
-0.519311
-0.659108
-0.766233
-0.863934
-0.957237
-1.001218
-1.075672
-1.083840
-1.112113
-1.087610
-1.066247
-1.041115
-0.977029
-0.949069
-0.850741
-0.810844
-0.701205
-0.628322
-0.524967
-0.412187
-0.322968
-0.184428
-0.098979
0.025424
0.095165
0.196636
0.253183
0.316013
0.360936
0.383555
0.409629
0.404603
0.399262
0.365334
0.330777
0.270775
0.221453
0.152968
0.101447
0.038931
-0.007877
-0.065052
-0.098352
-0.155214
-0.179718
-0.235008
-0.273020
-0.319515
-0.382659
-0.413132
-0.495439
-0.506120
-0.586229
-0.590627
-0.645917
-0.661625
-0.668222
-0.694297
-0.671992
-0.697124
-0.666023
-0.664453
-0.636179
-0.604450
-0.578376
-0.523085
-0.487272
-0.438893
-0.395855
-0.371979
-0.323914
-0.314490
-0.267681
-0.267996
-0.242235
-0.250403
-0.254487
-0.257315
-0.280876
-0.279934
-0.321402
-0.322658
-0.374179
-0.369781
-0.423501
-0.430726
-0.466854
-0.502039
-0.511149
-0.565497
-0.546962
-0.591572
-0.563298
-0.574294
-0.563927
-0.538481
-0.565183
-0.536596
-0.569267
-0.562984
-0.577435
-0.606966
-0.604138
-0.651889
-0.648748
-0.689902
-0.719118
-0.759329
-0.826557
-0.869910
-0.961642
-1.014419
-1.117146
-1.182804
-1.282390
-1.365011
-1.439465
-1.534652
-1.567010
-1.652773
-1.660627
-1.699896
-1.696126
-1.676649
-1.650889
-1.575493
-1.519574
-1.406794
-1.316947
-1.196313
-1.075366
-0.965099
-0.833470
-0.735141
-0.607282
-0.507382
-0.401200
-0.294703
-0.213338
-0.115323
-0.057519
0.014421
0.031071
0.066884
0.063742
0.051805
0.036725
-0.015424
-0.033645
-0.105271
-0.132916
-0.195118
-0.231559
-0.275226
-0.313867
-0.332716
-0.371985
-0.368529
-0.390520
-0.363817
-0.344026
-0.296589
-0.232817
-0.179097
-0.098989
-0.043698
0.025100
0.070652
0.114319
0.153588
0.161441
0.191286
0.165839
0.170551
0.143535
0.105522
0.076935
-0.002860
-0.036474
-0.135431
-0.195748
-0.295962
-0.378584
-0.475656
-0.574300
-0.654094
-0.773157
-0.844155
-0.953165
-1.003115
-1.080710
-1.112439
-1.141655
-1.147624
-1.120608
-1.091706
-1.013797
-0.955679
-0.850439
-0.745827
-0.625193
-0.483825
-0.355966
-0.198891
-0.062864
0.075676
0.209818
0.315058
0.429409
0.481558
0.572033
0.591824
0.629837
0.648686
0.623553
0.631093
0.567320
0.547215
0.481243
0.426581
0.356525
0.288983
0.218927
0.146987
0.095152
0.018185
-0.025796
-0.088626
-0.126952
-0.157425
-0.185070
-0.175332
-0.172819
-0.139519
-0.098993
-0.055641
0.007189
0.052741
0.117142
0.156725
0.215156
0.259137
0.311915
0.360294
0.408044
0.473388
0.510457
0.579884
0.601875
0.646484
0.645542
0.659678
0.651510
0.618839
0.607215
0.544699
0.521766
0.447626
0.397677
0.335161
0.249712
0.186567
0.084783
0.010329
-0.087372
-0.165595
-0.239107
-0.323613
-0.355342
-0.419429
-0.419115
-0.441420
-0.422885
-0.396496
-0.366652
-0.295340
-0.254186
-0.151145
-0.093970
0.027606
0.103630
0.222379
0.329818
0.426263
0.570143
0.661247
0.807327
0.895603
1.017807
1.105769
1.179280
1.264101
1.299914
1.353948
1.361487
1.377509
1.377509
1.348607
1.339182
1.272896
1.243366
1.163572
1.105768
1.041682
0.949321
0.897172
0.785963
0.740411
0.643025
0.611295
0.543753
0.509196
0.487834
0.440397
0.458618
0.409296
0.445424
0.407725
0.438198
0.439769
0.448879
0.484064
0.480922
0.541553
0.539982
0.602498
0.624174
0.664700
0.721247
0.748578
0.813607
0.844079
0.893401
0.940523
0.969739
1.031313
1.046392
1.098226
1.107337
1.140637
1.150061
1.138752
1.159800
1.117075
1.142207
1.104509
1.124929
1.112991
1.118960
1.127442
1.113619
1.117703
1.101053
1.106393
1.091628
1.101995
1.085973
1.093513
1.074664
1.068067
1.051416
1.025970
1.016232
0.992042
0.987644
0.985130
0.964396
0.978847
0.960941
0.977591
0.983245
0.979790
1.004293
0.980104
1.006178
0.971935
0.981046
0.946803
0.925441
0.898424
0.839678
0.813918
0.726584
0.684487
0.590556
0.516103
0.432225
0.327927
0.249075
0.138180
0.058386
-0.039944
-0.126021
-0.185395
-0.266132
-0.298175
-0.350324
-0.358178
-0.369174
-0.360692
-0.328334
-0.300061
-0.230948
-0.192936
-0.099005
-0.046542
0.060269
0.136294
0.225512
0.313788
0.373791
0.462696
0.483429
0.550029
0.548458
0.559768
0.533065
0.483429
0.441333
0.350543
0.290855
0.183415
0.096081
-0.009159
-0.127908
-0.214928
-0.350641
-0.434833
-0.560179
-0.658508
-0.744899
-0.849511
-0.890979
-0.983654
-0.988680
-1.038316
-1.027949
-1.014441
-0.990565
-0.914541
-0.879985
-0.774116
-0.725109
-0.609501
-0.540074
-0.433263
-0.339018
-0.254512
-0.148958
-0.085813
0.008746
0.056811
0.127494
0.154511
0.189696
0.202262
0.208545
0.204775
0.178386
0.153883
0.100163
0.047386
-0.022984
-0.099951
-0.162467
-0.254513
-0.314516
-0.393054
-0.452428
-0.503320
-0.576517
-0.596937
-0.661966
-0.655998
-0.685842
-0.666051
-0.655684
-0.630552
-0.576204
-0.549187
-0.451172
-0.410333
-0.299752
-0.217759
-0.111262
0.010000
0.125607
0.273886
0.403002
0.550967
0.686365
0.814853
0.938942
1.033815
1.131830
1.188377
1.236442
1.271313
1.267229
1.282936
1.238013
1.227960
1.159789
1.106069
1.023448
0.931087
0.829617
0.705213
0.595575
0.451380
0.348338
0.205714
0.119323
-0.006023
-0.080477
-0.169382
-0.232526
-0.271795
-0.327085
-0.323944
-0.357558
-0.339966
-0.339337
-0.323002
-0.285618
-0.264256
-0.197656
-0.159016
-0.091473
-0.015135
0.051465
0.166130
0.235557
0.383522
0.481222
0.636098
0.762072
0.887733
1.033498
1.125544
1.262828
1.331941
1.448805
1.492471
1.563469
1.592999
1.618760
1.650489
1.628184
1.640436
1.599282
1.576035
1.528284
1.459799
1.398854
1.300525
1.230155
1.131198
1.046063
0.966897
0.874223
0.825529
0.742279
0.728457
0.687617
0.690758
0.703324
0.721545
0.787517
0.813591
0.920402
0.979776
1.112976
1.215703
1.353615
1.498124
1.625355
1.807562
1.908404
2.045373
2.186741
2.313658
2.390939
2.489582
2.531992
2.585083
2.579743
2.583512
2.534819
2.488639
2.402876
2.290096
2.172289
1.996993
1.853427
1.634464
1.474247
1.243975
1.069621
0.859141
0.691384
0.514518
0.367495
0.239950
0.129369
0.049889
-0.017339
-0.047812
-0.087395
-0.065090
-0.070431
-0.007286
0.029469
0.112090
0.191570
0.287700
0.393883
0.510433
0.625098
0.749187
0.855684
0.973804
1.077474
1.172975
1.273817
1.341674
1.428065
1.470161
1.543672
1.553411
1.593936
1.581998
1.576344
1.552782
1.497806
1.473302
1.394136
1.360208
1.288267
1.236433
1.161665
1.094751
1.024067
0.934220
0.868248
0.772432
0.715571
0.626981
0.559752
0.502577
0.441946
0.413044
0.351785
0.336705
0.292724
0.272618
0.260995
0.228009
0.242460
0.207589
0.218270
0.189997
0.191567
0.181200
0.165178
0.174289
0.143502
0.176174
0.141617
0.181828
0.175859
0.192823
0.223610
0.215128
0.264449
0.246857
0.281099
0.273559
0.272617
0.271989
0.239631
0.236804
0.182141
0.172089
0.137218
0.113028
0.094493
0.049256
0.053968
0.012500
0.030406
0.007473
0.021296
0.027265
0.026008
0.059936
0.037946
0.069360
0.042029
0.051454
0.035746
0.014070
0.002760
-0.029283
-0.043734
-0.072950
-0.086773
-0.101538
-0.112847
-0.113162
-0.111591
-0.102481
-0.092742
-0.081433
-0.053788
-0.027399
0.007786
0.033860
0.080669
0.108628
0.153237
0.169887
0.199103
0.206957
0.207271
0.226120
0.198160
0.226434
0.202872
0.224863
0.223606
0.249680
0.285179
0.302143
0.369372
0.397645
0.493147
0.552835
0.647394
0.740697
0.820491
0.940496
1.025945
1.151919
1.248363
1.359572
1.476436
1.565969
1.691001
1.748804
1.845563
1.887030
1.931954
1.975306
1.964311
2.001067
1.952687
1.953316
1.890486
1.855615
1.780219
1.696026
1.619059
1.491829
1.399468
1.244906
1.144064
0.989502
0.880178
0.749491
0.640167
0.554718
0.461415
0.423717
0.359002
0.346122
0.332613
0.325702
0.340467
0.337325
0.369369
0.389474
0.418376
0.455131
0.459529
0.494400
0.474294
0.495342
0.471467
0.457016
0.421831
0.372195
0.356488
0.299940
0.305909
0.270724
0.274808
0.272609
0.279834
0.295542
0.307794
0.338580
0.365597
0.402353
0.433139
0.482461
0.533982
0.586759
0.650217
0.699853
0.751059
0.788443
0.825198
0.860069
0.877347
0.918815
0.938606
0.987928
1.015573
1.075890
1.123641
1.183015
1.250871
1.303334
1.382500
1.423654
1.504076
1.543345
1.599892
1.634134
1.649528
1.676859
1.662408
1.682513
1.659894
1.645757
1.630364
1.582299
1.560937
1.498107
1.463236
1.407945
1.348257
1.301448
1.221968
1.161651
1.075260
1.007089
0.914101
0.833992
0.754826
0.664979
0.600893
0.512302
0.463295
0.389155
0.346431
0.297737
0.261296
0.239305
0.206319
0.214173
0.185585
0.211660
0.200664
0.222026
0.235535
0.239933
0.265379
0.248415
0.269463
0.230822
0.224225
0.180872
0.131551
0.095737
0.015001
-0.013587
-0.097151
-0.125739
-0.178202
-0.220298
-0.237262
-0.281558
-0.266793
-0.308575
-0.282814
-0.291925
-0.262081
-0.236635
-0.215587
-0.163438
-0.154013
-0.090241
-0.073277
-0.026468
0.009030
0.030078
0.067148
0.085997
0.111443
0.138146
0.147256
0.174587
0.182441
0.198777
0.217940
0.220767
0.223594
0.213856
0.194378
0.165790
0.128092
0.069975
0.023166
-0.070765
-0.138621
-0.246375
-0.337479
-0.436436
-0.552043
-0.637492
-0.763467
-0.835721
-0.953214
-1.025468
-1.108090
-1.191654
-1.241604
-1.317314
-1.340875
-1.397423
-1.405276
-1.420356
-1.420042
-1.385485
-1.375432
-1.302864
-1.264852
-1.180345
-1.103379
-1.028925
-0.920543
-0.850802
-0.736765
-0.658856
-0.543249
-0.461884
-0.352246
-0.268054
-0.192658
-0.094957
-0.057573
0.032588
0.045782
0.098559
0.105785
0.115838
0.111754
0.084108
0.073741
0.019393
0.002743
-0.062914
-0.097157
-0.147421
-0.203340
-0.242923
-0.296328
-0.326173
-0.364499
-0.395600
-0.417276
-0.446807
-0.465970
-0.496128
-0.508380
-0.530371
-0.548278
-0.555189
-0.589745
-0.584091
-0.615192
-0.608909
-0.626501
-0.638125
-0.631528
-0.656660
-0.634041
-0.653519
-0.639696
-0.649121
-0.652262
-0.652576
-0.658231
-0.645037
-0.651634
-0.636869
-0.634356
-0.613622
-0.593831
-0.578437
-0.552049
-0.536027
-0.506811
-0.488591
-0.465658
-0.443039
-0.438641
-0.418850
-0.425761
-0.411624
-0.416337
-0.414452
-0.427018
-0.432673
-0.441469
-0.452464
-0.450894
-0.467544
-0.448381
-0.463146
-0.444297
-0.451836
-0.448695
-0.457491
-0.474770
-0.488278
-0.535087
-0.578439
-0.644411
-0.714781
-0.795831
-0.885993
-0.969557
-1.073541
-1.175325
-1.274911
-1.393660
-1.488219
-1.609481
-1.686448
-1.784149
-1.841638
-1.898814
-1.944680
-1.950021
-1.974524
-1.935256
-1.923632
-1.861745
-1.807397
-1.724461
-1.643096
-1.549794
-1.432616
-1.341512
-1.191662
-1.092077
-0.935002
-0.808399
-0.670173
-0.527235
-0.416654
-0.274030
-0.188581
-0.062607
0.012475
0.106406
0.171435
0.215416
0.271020
0.269449
0.294267
0.274790
0.262852
0.235835
0.192796
0.152271
0.069335
0.017186
-0.085855
-0.159366
-0.262722
-0.365135
-0.457495
-0.578129
-0.651326
-0.776044
-0.840759
-0.948512
-1.018254
-1.100561
-1.179099
-1.234704
-1.308843
-1.345285
-1.397119
-1.413141
-1.438273
-1.442043
-1.435446
-1.426650
-1.390209
-1.354395
-1.303817
-1.242244
-1.183184
-1.092080
-1.031763
-0.925895
-0.871233
-0.775103
-0.716043
-0.649129
-0.577817
-0.553941
-0.476346
-0.486399
-0.429224
-0.456869
-0.438020
-0.467550
-0.500850
-0.531951
-0.613002
-0.653213
-0.761910
-0.822226
-0.933750
-1.016686
-1.108732
-1.214915
-1.285913
-1.386755
-1.454611
-1.523096
-1.603205
-1.634620
-1.708131
-1.732321
-1.773160
-1.806460
-1.821854
-1.861437
-1.863007
-1.902905
-1.890339
-1.928979
-1.912958
-1.936833
-1.944687
-1.951598
-1.983956
-1.974531
-2.025424
-2.015685
-2.076316
-2.083542
-2.126895
-2.157996
-2.181243
-2.239989
-2.239989
