EVENT_NAME: 202302060117
EVENT_ID: 13194
EVENT_DATE_YYYYMMDD: 2023/02/06
EVENT_TIME_HHMMSS: 01:17:32.00000
EVENT_LATITUDE_DEGREE: 37.288
EVENT_LONGITUDE_DEGREE: 37.043
EVENT_DEPTH_KM: 8.6
HYPOCENTER_REFERENCE: AFAD
MAGNITUDE_W: 7.7
MAGNITUDE_W_REFERENCE: AFAD
MAGNITUDE_L: 
MAGNITUDE_L_REFERENCE: 
FOCAL_MECHANISM: 
NETWORK: TK
STATION_CODE: 6001
STATION_NAME: 
STATION_LATITUDE_DEGREE: 40.32915
STATION_LONGITUDE_DEGREE: 36.55522
STATION_ELEVATION_M: 590.0
LOCATION: Kahramanmaras_Pazarck_Turkiye
SENSOR_DEPTH_M: 
VS30_M/S: 324
SITE_CLASSIFICATION_EC8: unknown
MORPHOLOGIC_CLASSIFICATION: 
EPICENTRAL_DISTANCE_KM: 340.79
EARTHQUAKE_BACKAZIMUTH_DEGREE: 
DATE_TIME_FIRST_SAMPLE_YYYYMMDD_HHMMSS: 2023/02/06 01:17:58.1376000
DATE_TIME_FIRST_SAMPLE_PRECISION: millisecond
SAMPLING_INTERVAL_S: 0.01
NDATA: 18251
DURATION_S: 
STREAM: HNE
UNITS: cm/s^2
INSTRUMENT: sensor = CMG-5T/GURALP | digitizer = 
INSTRUMENT_ANALOG/DIGITAL: 
INSTRUMENTAL_FREQUENCY_HZ: 
INSTRUMENTAL_DAMPING: 
FULL_SCALE_G: 
N_BIT_DIGITAL_CONVERTER: 
PGA_CM/S^2: 4.795
TIME_PGA_S: 
BASELINE_CORRECTION: BASELINE REMOVED
FILTER_TYPE: BUTTERWORTH
FILTER_ORDER: 
LOW_CUT_FREQUENCY_HZ: 
HIGH_CUT_FREQUENCY_HZ: 
LATE/NORMAL_TRIGGERED: 
DATABASE_VERSION: 
HEADER_FORMAT: DYNA 1.2
DATA_TYPE: Acceleration
PROCESSING: Automatic Paolucci et al., 2011
DATA_TIMESTAMP_YYYYMMDD_HHMMSS: 
DATA_LICENSE: U (unknown license)
DATA_CITATION: Turkish Accelerometric Archive v 1.0 - Disaster And Emergency Management Presidency, Earthquake Department
DATA_CREATOR: AFAD
ORIGINAL_DATA_MEDIATOR_CITATION: : AFAD - Disaster And Emergency Management Presidency
ORIGINAL_DATA_MEDIATOR: AFAD PROCESS SERVICE
ORIGINAL_DATA_CREATOR_CITATION: AFAD PROCESS SERVICE
ORIGINAL_DATA_CREATOR: network: TK
USER1: GuestUser
USER2: 
USER3: 
USER4: 
USER5: 
[...]
-0.398599
-0.350028
-0.265502
-0.161737
-0.048510
0.063140
0.160913
0.231246
0.254900
0.253323
0.244491
0.247645
0.272561
0.308831
0.370018
0.453598
0.569979
0.701814
0.814410
0.888844
0.908083
0.860773
0.745652
0.599623
0.447602
0.296527
0.150813
0.026231
-0.062711
-0.118537
-0.151969
-0.162378
-0.131469
-0.054828
0.050514
0.144817
0.222089
0.299992
0.368117
0.416057
0.432773
0.443496
0.465258
0.474089
0.458634
0.431825
0.415739
0.401861
0.396815
0.421415
0.479448
0.558297
0.634307
0.687924
0.725456
0.738072
0.708424
0.634621
0.534324
0.421412
0.297776
0.190541
0.106645
0.043250
-0.010368
-0.067140
-0.124542
-0.170906
-0.204654
-0.219478
-0.208755
-0.160815
-0.090482
-0.010687
0.080778
0.185805
0.300609
0.407528
0.498677
0.567434
0.618843
0.640920
0.625781
0.575317
0.493944
0.381663
0.245726
0.098751
-0.034347
-0.139059
-0.196146
-0.202769
-0.165868
-0.085758
0.015169
0.129342
0.254554
0.364627
0.462400
0.548187
0.609059
0.641229
0.630190
0.598965
0.535885
0.433696
0.311637
0.197779
0.119876
0.066573
0.027779
0.000339
-0.008808
0.001600
0.029355
0.101580
0.219854
0.376290
0.561112
0.777474
1.037045
1.312071
1.594350
1.866222
2.102454
2.285384
2.409649
2.483137
2.504268
2.460743
2.348461
2.178147
1.982285
1.785792
1.578576
1.374830
1.190007
1.048393
0.952197
0.880917
0.845592
0.843700
0.861992
0.863569
0.844014
0.827298
0.806481
0.772418
0.711230
0.593903
0.422642
0.210064
-0.039731
-0.300249
-0.551620
-0.767352
-0.939243
-1.066033
-1.148352
-1.201339
-1.214271
-1.180839
-1.118075
-1.052473
-0.972678
-0.857874
-0.708061
-0.520400
-0.314447
-0.110701
0.087368
0.262098
0.397718
0.491075
0.562985
0.626064
0.665173
0.675265
0.656972
0.617862
0.568345
0.512204
0.444078
0.385729
0.380682
0.448492
0.572127
0.724779
0.874592
1.017151
1.152141
1.238559
1.264736
1.252751
1.209541
1.145515
1.065720
0.985293
0.902974
0.834217
0.793846
0.774607
0.796369
0.818131
0.820654
0.801099
0.771136
0.716572
0.622583
0.501155
0.363326
0.237167
0.138763
0.104385
0.137501
0.221711
0.333362
0.477498
0.660743
0.866381
1.050888
1.190293
1.288696
1.357452
1.401923
1.406023
1.390883
1.371013
1.349250
1.318341
1.268193
1.217413
1.177673
1.161272
1.159064
1.160325
1.170102
1.155278
1.109861
1.034796
0.944277
0.862273
0.778377
0.704259
0.651272
0.619732
0.601123
0.567060
0.518804
0.448470
0.331773
0.168397
-0.022103
-0.207872
-0.395849
-0.573418
-0.731747
-0.856014
-0.933602
-0.996366
-1.050615
-1.089409
-1.124103
-1.172989
-1.232284
-1.301041
-1.377998
-1.473564
-1.604139
-1.759629
-1.927736
-2.106251
-2.283504
-2.454134
-2.597956
-2.691944
-2.735154
-2.713707
-2.640220
-2.537401
-2.428590
-2.345010
-2.285400
-2.246922
-2.238092
-2.228630
-2.198668
-2.130542
-2.005015
-1.840378
-1.645779
-1.418062
-1.173630
-0.933614
-0.707475
-0.479443
-0.240373
-0.009187
0.212852
0.422275
0.615612
0.787188
0.911139
0.982733
1.004495
0.983994
0.942992
0.890636
0.826295
0.741137
0.629486
0.497335
0.337113
0.158598
-0.034740
-0.238487
-0.443180
-0.646611
-0.854458
-1.077444
-1.310207
-1.548963
-1.789611
-2.049498
-2.312854
-2.567065
-2.802982
-3.006413
-3.169158
-3.251477
-3.274501
-3.274817
-3.247378
-3.185876
-3.089365
-2.986546
-2.881834
-2.757568
-2.609017
-2.435549
-2.268389
-2.107852
-1.936592
-1.759024
-1.580826
-1.382757
-1.162926
-0.932056
-0.688570
-0.446030
-0.218945
-0.002267
0.218825
0.426987
0.596985
0.719990
0.813347
0.901973
0.994384
1.080802
1.142935
1.178890
1.192136
1.185828
1.167534
1.130002
1.076384
1.014251
0.943601
0.855605
0.730708
0.577740
0.415941
0.275589
0.170562
0.078150
0.000878
-0.069771
-0.127174
-0.172591
-0.224948
-0.265319
-0.288974
-0.278566
-0.236619
-0.171016
-0.081760
0.006551
0.082877
0.137125
0.159833
0.134916
0.057644
-0.057476
-0.206029
-0.349219
-0.453931
-0.537196
-0.576937
-0.577252
-0.543821
-0.474749
-0.373822
-0.230002
-0.048334
0.162351
0.382813
0.589397
0.756873
0.883346
0.957780
1.006981
1.060283
1.131562
1.225866
1.338777
1.463674
1.588255
1.680982
1.709998
1.686027
1.595508
1.452002
1.267810
1.080149
0.907626
0.733842
0.569205
0.422861
0.313418
0.249392
0.245291
0.293547
0.388796
0.531986
0.701669
0.860628
0.993410
1.104745
1.174132
1.221756
1.258027
1.288935
1.319528
1.337821
1.358006
1.347282
1.299972
1.230269
1.136911
1.041031
0.943257
0.849269
0.759065
0.698824
0.699770
0.736986
0.807319
0.895314
0.975425
1.039135
1.076982
1.086443
1.057427
1.005701
0.947668
0.892473
0.837909
0.779560
0.728150
0.697241
0.715534
0.777351
0.884901
1.038184
1.202820
1.358941
1.499923
1.626713
1.726062
1.786303
1.793241
1.781256
1.761701
1.721014
1.665188
1.591385
1.527990
1.463018
1.387323
1.317304
1.253909
1.183891
1.116080
1.033761
0.924318
0.794690
0.649607
0.501370
0.326325
0.159479
-0.000112
-0.158757
-0.304470
-0.428106
-0.526510
-0.607252
-0.671909
-0.728050
-0.778829
-0.854840
-0.918550
-0.966491
-1.013170
-1.036195
-1.028625
-0.996140
-0.928645
-0.831819
-0.712599
-0.586756
-0.456498
-0.312993
-0.171695
-0.026613
0.094814
0.178709
0.236742
0.286890
0.313067
0.310859
0.294458
0.289096
0.296981
0.274272
0.226647
0.158521
0.077463
-0.011164
-0.116506
-0.206710
-0.265374
-0.303853
-0.324985
-0.346432
-0.367880
-0.402258
-0.463130
-0.522110
-0.572573
-0.616099
-0.664355
-0.729327
-0.778844
-0.808492
-0.828993
-0.853594
-0.851387
-0.801555
-0.730906
-0.623987
-0.504452
-0.366309
-0.209557
-0.038927
0.150941
0.341756
0.543609
0.758394
0.980433
1.199633
1.398648
1.559500
1.705213
1.845564
1.972038
2.117436
2.287750
2.469418
2.659602
2.819823
2.932419
2.990767
2.982567
2.892047
2.713848
2.458376
2.135725
1.772388
1.388865
1.015119
0.680168
0.381802
0.122861
-0.086247
-0.254039
-0.374521
-0.441701
-0.463463
-0.441070
-0.397231
-0.336359
-0.245525
-0.140183
-0.030110
0.054731
0.115602
0.173635
0.234191
0.287177
0.317770
0.345840
0.384318
0.435412
0.501014
0.588064
0.710437
0.871289
1.065573
1.279096
1.489150
1.676811
1.846494
2.010185
2.149905
2.239477
2.281109
2.279847
2.227491
2.131610
1.987158
1.807066
1.601427
1.386642
1.196773
1.029612
0.894937
0.805995
0.755216
0.747646
0.791801
0.876958
0.988293
1.104358
1.221370
1.352259
1.495134
1.671756
1.883071
2.113626
2.348911
2.562434
2.740002
2.868053
2.944063
2.980334
2.994526
2.991057
2.956363
2.896437
2.837457
2.779109
2.707829
2.619517
2.523636
2.417032
2.297496
2.172599
2.057478
1.951189
1.846793
1.722211
1.578389
1.426999
1.276554
1.122009
0.955480
0.806612
0.666260
0.551140
0.447059
0.354016
0.258451
0.154369
0.037988
-0.108041
-0.270156
-0.436685
-0.577037
-0.692473
-0.786146
-0.856795
-0.895905
-0.923345
-0.926184
-0.905368
-0.860897
-0.789302
-0.693107
-0.564110
-0.399158
-0.204243
-0.008382
0.182748
0.348016
0.507606
0.647326
0.762761
0.867157
0.968399
1.075634
1.193592
1.318804
1.438339
1.564497
1.680248
1.779282
1.852138
1.902601
1.934456
1.939502
1.917108
1.888092
1.854344
1.787795
1.678983
1.549985
1.404902
1.231749
1.045980
0.840656
0.629340
0.426540
0.209231
-0.037094
-0.301082
-0.561600
-0.817702
-1.086420
-1.329276
-1.517884
-1.670221
-1.770517
-1.805842
-1.780926
-1.692931
-1.549741
-1.339372
-1.060561
-0.736018
-0.405483
-0.093241
0.218056
0.533767
0.850741
1.139328
1.385337
1.584668
1.758766
1.908580
2.012345
2.088986
2.175720
2.264346
2.355180
2.463991
2.587942
2.721670
2.844989
2.950331
3.013095
3.036119
3.012464
2.969254
2.918475
2.861703
2.784115
2.667418
2.511927
2.340351
2.161836
1.946735
1.704510
1.427591
1.145311
0.871862
0.614182
0.365964
0.110177
-0.128578
-0.330748
-0.499170
-0.639837
-0.742342
-0.802898
-0.821192
-0.806684
-0.780506
-0.742028
-0.709858
-0.689042
-0.682734
-0.709544
-0.756853
-0.805109
-0.877651
-0.971640
-1.064051
-1.145739
-1.183903
-1.209135
-1.190211
-1.126502
-1.033775
-0.906040
-0.769473
-0.602629
-0.401722
-0.178106
0.067273
0.322428
0.573484
0.813500
1.053201
1.307095
1.543958
1.777036
2.017052
2.231522
2.420760
2.574673
2.691054
2.782203
2.847805
2.888491
2.894168
2.857582
2.793240
2.717229
2.619456
2.501182
2.377546
2.281665
2.188623
2.089272
2.011369
1.931258
1.838846
1.743596
1.649292
1.554988
1.475508
1.421890
1.395712
1.367641
1.321593
1.255044
1.171779
1.068328
0.917253
0.737476
0.552023
0.378870
0.230633
0.114882
0.027201
-0.053856
-0.113466
-0.149422
-0.182539
-0.210925
-0.207771
-0.167716
-0.109999
-0.030204
0.069461
0.202243
0.360256
0.529624
0.691422
0.846597
1.007133
1.151585
1.265443
1.348392
1.425663
1.489058
1.544567
1.590299
1.640763
1.728443
1.830631
1.935342
2.033746
2.122372
2.197120
2.243483
2.246637
2.210681
2.165264
2.102815
2.004411
1.882983
1.730015
1.552762
1.370462
1.185008
1.000501
0.802431
0.596477
0.408185
0.235347
0.073864
-0.076266
-0.226710
-0.354446
-0.464835
-0.563239
-0.640512
-0.678360
-0.670791
-0.646821
-0.604558
-0.544949
-0.491016
-0.466415
-0.471462
-0.491332
-0.518142
-0.566082
-0.607084
-0.630108
-0.631370
-0.614339
-0.576177
-0.509313
-0.432672
-0.356662
-0.279390
-0.189502
-0.102768
-0.031804
0.002889
0.001627
-0.005312
-0.020136
-0.044107
-0.077854
-0.139672
-0.204644
-0.272455
-0.350674
-0.439931
-0.518781
-0.583122
-0.644625
-0.701397
-0.775200
-0.857203
-0.918391
-0.952454
-0.953085
-0.928484
-0.880545
-0.774572
-0.643051
-0.503016
-0.386950
-0.301478
-0.219790
-0.153242
-0.108141
-0.067455
-0.022984
0.003193
-0.009738
-0.071872
-0.147567
-0.224525
-0.295489
-0.360146
-0.437418
-0.538346
-0.622557
-0.668921
-0.707399
-0.743670
-0.794134
-0.851537
-0.901370
-0.939533
-0.995674
-1.054654
-1.094394
-1.142965
-1.197214
-1.237585
-1.253355
-1.255563
-1.234748
-1.182077
-1.117736
-1.049295
-0.990947
-0.968554
-0.966662
-0.985271
-1.028481
-1.082729
-1.133824
-1.149910
-1.130986
-1.084308
-1.018075
-0.957519
-0.915256
-0.902641
-0.903587
-0.918096
-0.948690
-1.011139
-1.093142
-1.198800
-1.332529
-1.470358
-1.628372
-1.761154
-1.846942
-1.890783
-1.908445
-1.901507
-1.880060
-1.853252
-1.828021
-1.816036
-1.831491
-1.864923
-1.895517
-1.937150
-1.971213
-2.010007
-2.043755
-2.063625
-2.084442
-2.095481
-2.106835
-2.101474
-2.049119
-1.968062
-1.865558
-1.740031
-1.580440
-1.397195
-1.209850
-1.030705
-0.845567
-0.642452
-0.422621
-0.196167
0.021772
0.241288
0.439988
0.615663
0.755699
0.856941
0.933897
0.962283
0.937366
0.872079
0.774621
0.648146
0.512841
0.388259
0.275662
0.174734
0.062768
-0.046990
-0.141294
-0.231498
-0.343149
-0.496747
-0.668954
-0.853462
-1.031977
-1.199137
-1.370083
-1.533458
-1.700619
-1.874718
-2.046610
-2.229225
-2.412155
-2.582155
-2.765716
-2.952431
-3.132208
-3.303784
-3.453282
-3.582595
-3.686676
-3.770257
-3.809051
-3.806213
-3.766158
-3.677532
-3.560835
-3.432469
-3.303788
-3.179522
-3.050209
-2.915851
-2.799785
-2.697597
-2.593832
-2.509621
-2.449065
-2.376524
-2.298937
-2.219773
-2.136193
-2.051036
-1.955787
-1.852968
-1.741318
-1.639130
-1.547665
-1.433807
-1.302918
-1.178652
-1.076464
-0.998876
-0.951252
-0.922866
-0.938321
-1.022217
-1.144907
-1.304182
-1.480805
-1.655220
-1.805980
-1.946332
-2.078483
-2.195811
-2.311562
-2.441821
-2.580596
-2.714325
-2.815883
-2.891578
-2.940781
-2.967590
-2.982729
-2.944566
-2.878333
-2.788761
-2.685627
-2.571138
-2.469265
-2.391363
-2.320399
-2.257320
-2.214111
-2.161440
-2.081645
-1.974410
-1.860237
-1.778234
-1.679200
-1.563765
-1.423729
-1.270762
-1.115587
-0.948743
-0.776537
-0.637762
-0.542197
-0.466187
-0.423294
-0.428971
-0.479435
-0.541568
-0.601179
-0.659527
-0.720715
-0.768025
-0.788841
-0.796411
-0.832051
-0.881884
-0.925725
-0.966096
-1.015298
-1.085947
-1.163220
-1.242700
-1.321550
-1.407653
-1.495965
-1.570714
-1.644517
-1.743237
-1.835964
-1.934368
-2.047280
-2.156408
-2.267743
-2.363624
-2.444682
-2.491676
-2.525108
-2.563587
-2.587558
-2.624775
-2.668615
-2.726018
-2.796667
-2.847446
-2.911157
-2.989691
-3.087464
-3.173883
-3.219301
-3.247687
-3.258095
-3.252734
-3.213625
-3.145815
-3.089675
-3.043312
-2.994741
-2.940493
-2.885930
-2.831367
-2.749364
-2.636137
-2.494839
-2.345342
-2.191428
-2.017961
-1.844177
-1.710134
-1.594068
-1.480526
-1.378969
-1.293181
-1.208655
-1.107413
-1.002071
-0.891998
-0.785709
-0.644727
-0.485137
-0.301892
-0.081115
0.133986
0.339939
0.513407
0.640512
0.710845
0.712106
0.643349
0.514982
0.354445
0.172461
-0.034124
-0.259949
-0.468111
-0.645364
-0.810002
-0.977478
-1.144323
-1.302022
-1.462243
-1.639181
-1.829681
-1.989272
-2.131832
-2.263668
-2.376265
-2.464892
-2.508733
-2.537119
-2.572759
-2.593575
-2.608399
-2.617231
-2.605877
-2.572760
-2.512205
-2.423894
-2.312244
-2.202171
-2.091467
-1.966570
-1.818334
-1.672306
-1.542993
-1.420620
-1.276484
-1.134556
-1.006505
-0.883501
-0.779735
-0.699940
-0.628346
-0.548235
-0.497772
-0.465917
-0.457087
-0.469703
-0.497458
-0.550445
-0.645064
-0.768069
-0.905267
-1.044988
-1.201741
-1.378994
-1.556248
-1.727193
-1.892146
-2.076022
-2.271569
-2.480677
-2.687262
-2.896686
-3.101064
-3.312380
-3.524642
-3.725550
-3.909427
-4.079426
-4.245325
-4.388831
-4.508997
-4.592578
-4.664173
-4.727253
-4.776455
-4.795379
-4.777087
-4.747755
-4.710223
-4.636105
-4.519409
-4.372119
-4.198966
-3.991120
-3.740380
-3.455577
-3.147120
-2.825731
-2.505919
-2.199984
-1.895942
-1.613663
-1.348414
-1.104613
-0.902129
-0.723615
-0.575694
-0.471613
-0.416735
-0.390872
-0.380149
-0.385196
-0.413267
-0.458684
-0.524602
-0.609760
-0.691763
-0.786698
-0.877848
-0.954174
-1.013469
-1.050371
-1.074972
-1.099258
-1.114082
-1.099890
-1.075605
-1.057627
-1.033027
-0.990133
-0.948501
-0.931785
-0.926424
-0.931471
-0.952918
-0.994866
-1.051007
-1.098632
-1.134588
-1.156981
-1.165182
-1.135851
-1.067725
-0.973737
-0.869972
-0.746022
-0.595578
-0.439457
-0.302890
-0.191240
-0.107345
-0.059720
-0.058775
-0.110815
-0.173895
-0.249275
-0.346418
-0.438514
-0.514525
-0.577605
-0.637846
-0.710387
-0.812576
-0.938735
-1.067733
-1.180961
-1.257602
-1.315636
-1.361053
-1.381870
-1.394486
-1.401740
-1.409626
-1.415934
-1.425081
-1.442743
-1.442744
-1.441167
-1.435806
-1.417828
-1.404582
-1.388182
-1.377459
-1.345289
-1.297979
-1.235847
-1.125143
-0.993938
-0.844440
-0.676650
-0.517375
-0.375446
-0.249603
-0.133222
-0.026303
0.063584
0.130764
0.196997
0.267960
0.338924
0.423450
0.506399
0.582410
0.658104
0.711091
0.729068
0.689643
0.618048
0.536044
0.430701
0.341128
0.242724
0.127289
0.016584
-0.074566
-0.164139
-0.246142
-0.307961
-0.370409
-0.424343
-0.471652
-0.501616
-0.525586
-0.549872
-0.574158
-0.601282
-0.625884
-0.630299
-0.638185
-0.660263
-0.676664
-0.681711
-0.667833
-0.646387
-0.628094
-0.613902
-0.606648
-0.595609
-0.595294
-0.619896
-0.667521
-0.717038
-0.741324
-0.745740
-0.725555
-0.686762
-0.601920
-0.466931
-0.304502
-0.126303
0.056311
0.236402
0.402301
0.525936
0.595638
0.628124
0.641370
0.642631
0.639792
0.638846
0.629699
0.623075
0.624967
0.630329
0.634429
0.668176
0.733462
0.814204
0.907245
1.021419
1.151046
1.291082
1.456665
1.628871
1.813378
2.008924
2.195638
2.374783
2.537527
2.679456
2.790475
2.846300
2.860492
2.848507
2.824536
2.800251
2.768395
2.742848
2.725816
2.709730
2.684814
2.652012
2.604071
2.523014
2.423664
2.314536
2.177654
2.026578
1.865410
1.691942
1.511219
1.326711
1.147566
0.975674
0.816399
0.649238
0.481447
0.315232
0.151541
-0.003319
-0.140833
-0.259107
-0.367919
-0.445822
-0.483986
-0.493448
-0.464747
-0.378329
-0.253747
-0.114342
0.032948
0.195692
0.354651
0.506672
0.647339
0.763405
0.869062
0.958004
1.015721
1.067761
1.129263
1.195496
1.280022
1.370540
1.463267
1.556624
1.637365
1.698552
1.758477
1.803578
1.825025
1.840794
1.850256
1.838586
1.802315
1.749643
1.660701
1.539904
1.397029
1.229868
1.054822
0.893970
0.750464
0.612635
0.469445
0.324993
0.178333
0.033565
-0.095748
-0.225691
-0.349958
-0.449939
-0.522796
-0.564429
-0.579884
-0.547398
-0.477065
-0.388439
-0.278366
-0.163562
-0.053173
0.048700
0.148680
0.262853
0.384281
0.515485
0.657729
0.807227
0.963348
1.096129
1.194217
1.261081
1.303029
1.318167
1.300820
1.263288
1.220709
1.185384
1.147221
1.100857
1.042193
0.995198
0.963658
0.917295
0.881654
0.849168
0.794920
0.726163
0.651098
0.564994
0.459336
0.343901
0.225942
0.111452
0.031026
-0.008084
-0.037100
-0.046247
-0.014077
0.054048
0.133843
0.235716
0.359982
0.504433
0.674747
0.861462
1.038714
1.222590
1.408674
1.574257
1.729432
1.880822
2.045143
2.192118
2.330261
2.466828
2.590147
2.694543
2.778123
2.841517
2.861387
2.835840
2.777175
2.689179
2.580683
2.460516
2.325841
2.174766
2.021798
1.876085
1.720278
1.553118
1.387849
1.227312
1.092007
0.968686
0.852620
0.752008
0.658335
0.576016
0.498113
0.423679
0.351768
0.296573
0.273233
0.269133
0.264717
0.288056
0.344196
0.426514
0.534064
0.640037
0.756418
0.900239
1.086953
1.287230
1.467636
1.628173
1.767263
1.900044
2.017056
2.095905
2.152045
2.191785
2.206293
2.212285
2.198407
2.171283
2.127758
2.063101
2.004121
1.954919
1.909186
1.847368
1.785235
1.726255
1.662229
1.578649
1.489076
1.422527
1.370801
1.329484
1.287851
1.264827
1.274919
1.309928
1.347775
1.381522
1.405177
1.426308
1.454378
1.461632
1.457847
1.457531
1.446807
1.415898
1.366065
1.316547
1.274599
1.223820
1.173356
1.118161
1.050035
0.967401
0.887605
0.817271
0.741891
0.669980
0.584823
0.512281
0.451725
0.383283
0.301911
0.189314
0.074824
-0.076566
-0.253189
-0.424765
-0.591295
-0.726600
-0.851498
-0.952741
-1.030959
-1.105393
-1.169104
-1.203482
-1.204744
-1.178882
-1.129365
-1.036639
-0.908273
-0.787161
-0.670149
-0.576792
-0.501097
-0.425717
-0.356015
-0.282528
-0.196110
-0.074998
0.065984
0.220844
0.407874
0.593327
0.763010
0.916292
1.034250
1.125084
1.176809
1.184063
1.147792
1.083766
0.993246
0.869611
0.751021
0.628647
0.495234
0.374121
0.262155
0.159335
0.069447
-0.010034
-0.085729
-0.144393
-0.180349
-0.186026
-0.183819
-0.183189
-0.173412
-0.160796
-0.150704
-0.145658
-0.127680
-0.109703
-0.102765
-0.115066
-0.125474
-0.154806
-0.184139
-0.212209
-0.251950
-0.260150
-0.240596
-0.187294
-0.080375
0.068807
0.219882
0.364964
0.509731
0.678468
0.843735
0.997964
1.125699
1.238926
1.347422
1.439518
1.506382
1.531613
1.543598
1.537289
1.506065
1.431946
1.332281
1.227253
1.126326
1.021929
0.926679
0.854768
0.803358
0.776234
0.762356
0.757625
0.741854
0.731131
0.726715
0.711260
0.681612
0.640610
0.579108
0.476603
0.352021
0.225862
0.096234
-0.054211
-0.205917
-0.336176
-0.432372
-0.479367
-0.491037
-0.474321
-0.404934
-0.306846
-0.206866
-0.100578
0.004134
0.127138
0.251089
0.369993
0.492367
0.624833
0.758245
0.907112
1.077426
1.273287
1.470725
1.672263
1.890202
2.099310
2.293278
2.455707
2.599843
2.720325
2.822828
2.888430
2.922808
2.933216
2.926908
