EVENT_NAME: 202302060117
EVENT_ID: 13194
EVENT_DATE_YYYYMMDD: 2023/02/06
EVENT_TIME_HHMMSS: 01:17:32.00000
EVENT_LATITUDE_DEGREE: 37.288
EVENT_LONGITUDE_DEGREE: 37.043
EVENT_DEPTH_KM: 8.6
HYPOCENTER_REFERENCE: AFAD
MAGNITUDE_W: 7.7
MAGNITUDE_W_REFERENCE: AFAD
MAGNITUDE_L: 
MAGNITUDE_L_REFERENCE: 
FOCAL_MECHANISM: 
NETWORK: TK
STATION_CODE: 99011
STATION_NAME: 
STATION_LATITUDE_DEGREE: 35.22072
STATION_LONGITUDE_DEGREE: 33.41489
STATION_ELEVATION_M: 129.0
LOCATION: Kahramanmaras_Pazarck_Turkiye
SENSOR_DEPTH_M: 
VS30_M/S: None
SITE_CLASSIFICATION_EC8: unknown
MORPHOLOGIC_CLASSIFICATION: 
EPICENTRAL_DISTANCE_KM: 398.29
EARTHQUAKE_BACKAZIMUTH_DEGREE: 
DATE_TIME_FIRST_SAMPLE_YYYYMMDD_HHMMSS: 2023/02/06 01:18:02.7476260
DATE_TIME_FIRST_SAMPLE_PRECISION: millisecond
SAMPLING_INTERVAL_S: 0.01
NDATA: 21001
DURATION_S: 
STREAM: HNZ
UNITS: cm/s^2
INSTRUMENT: sensor = CMG-5T/GURALP | digitizer = 
INSTRUMENT_ANALOG/DIGITAL: 
INSTRUMENTAL_FREQUENCY_HZ: 
INSTRUMENTAL_DAMPING: 
FULL_SCALE_G: 
N_BIT_DIGITAL_CONVERTER: 
PGA_CM/S^2: 4.493
TIME_PGA_S: 
BASELINE_CORRECTION: BASELINE REMOVED
FILTER_TYPE: BUTTERWORTH
FILTER_ORDER: 
LOW_CUT_FREQUENCY_HZ: 
HIGH_CUT_FREQUENCY_HZ: 
LATE/NORMAL_TRIGGERED: 
DATABASE_VERSION: 
HEADER_FORMAT: DYNA 1.2
DATA_TYPE: Acceleration
PROCESSING: Automatic Paolucci et al., 2011
DATA_TIMESTAMP_YYYYMMDD_HHMMSS: 
DATA_LICENSE: U (unknown license)
DATA_CITATION: Turkish Accelerometric Archive v 1.0 - Disaster And Emergency Management Presidency, Earthquake Department
DATA_CREATOR: AFAD
ORIGINAL_DATA_MEDIATOR_CITATION: : AFAD - Disaster And Emergency Management Presidency
ORIGINAL_DATA_MEDIATOR: AFAD PROCESS SERVICE
ORIGINAL_DATA_CREATOR_CITATION: AFAD PROCESS SERVICE
ORIGINAL_DATA_CREATOR: network: TK
USER1: GuestUser
USER2: 
USER3: 
USER4: 
USER5: 
[...]
-1.310918
-1.296525
-1.267737
-1.236134
-1.237074
-1.254599
-1.237389
-1.203282
-1.208916
-1.170428
-1.090322
-1.042133
-1.008339
-0.968286
-0.901009
-0.824032
-0.740796
-0.675397
-0.593726
-0.506422
-0.426002
-0.346835
-0.280184
-0.196009
-0.130297
-0.063959
-0.010451
0.037112
0.099695
0.156020
0.239881
0.268356
0.257402
0.278679
0.269916
0.247072
0.206704
0.189492
0.183858
0.148809
0.116890
0.121269
0.131282
0.081213
0.068382
0.084965
0.094039
0.080269
0.065560
0.090280
0.110305
0.130018
0.145976
0.176641
0.199483
0.211998
0.262064
0.331219
0.367203
0.350930
0.384724
0.464831
0.512394
0.553385
0.604703
0.696074
0.776181
0.820302
0.883198
0.972692
1.053737
1.122578
1.192672
1.243364
1.326599
1.410774
1.453017
1.508090
1.591951
1.650153
1.673934
1.737769
1.791590
1.823507
1.854485
1.860742
1.865434
1.863242
1.848847
1.840397
1.838518
1.825999
1.813794
1.823806
1.821302
1.815355
1.799082
1.764659
1.721787
1.679229
1.655758
1.602247
1.568138
1.547484
1.512435
1.471754
1.438270
1.430759
1.438893
1.441708
1.434510
1.462045
1.477377
1.508042
1.549659
1.563114
1.601602
1.655736
1.680142
1.679515
1.674820
1.655731
1.637580
1.635701
1.640081
1.651031
1.666363
1.679505
1.694211
1.698590
1.655406
1.602521
1.585309
1.581239
1.563714
1.541809
1.548379
1.555262
1.577791
1.620660
1.658209
1.668534
1.696383
1.716408
1.701387
1.710773
1.717656
1.726104
1.738306
1.757393
1.764589
1.765213
1.789933
1.797129
1.801195
1.854704
1.894443
1.939816
2.004276
2.053404
2.106912
2.164488
2.234894
2.284960
2.316564
2.344725
2.416070
2.472082
2.506189
2.529657
2.536227
2.574402
2.606319
2.660766
2.668274
2.680790
2.685169
2.687046
2.719901
2.713954
2.686103
2.665762
2.706753
2.730847
2.713322
2.698926
2.699864
2.695481
2.676705
2.621003
2.562173
2.506784
2.437002
2.375355
2.309953
2.206375
2.109055
2.028945
1.927245
1.818660
1.699435
1.578646
1.455354
1.339571
1.214715
1.097993
0.962184
0.838892
0.743137
0.634552
0.542864
0.459000
0.367626
0.289081
0.206155
0.130427
0.065651
0.005882
-0.066717
-0.163411
-0.241643
-0.314868
-0.363059
-0.433155
-0.492611
-0.522966
-0.529539
-0.561458
-0.625295
-0.660657
-0.696018
-0.742645
-0.808673
-0.861245
-0.917885
-0.976715
-1.018648
-1.049942
-1.096568
-1.118474
-1.135060
-1.142259
-1.161661
-1.183880
-1.202031
-1.216739
-1.205163
-1.216116
-1.191397
-1.169807
-1.146026
-1.112545
-1.074682
-1.067174
-1.089079
-1.090019
-1.055912
-1.025560
-1.020868
-1.019617
-1.010544
-0.998029
-0.996778
-0.990521
-1.000536
-1.000224
-1.015246
-1.026825
-1.039030
-1.059059
-1.070012
-1.097551
-1.108504
-1.123839
-1.140738
-1.148875
-1.182359
-1.208333
-1.208334
-1.220539
-1.248391
-1.266542
-1.275305
-1.278748
-1.303470
-1.334764
-1.351350
-1.374820
-1.378577
-1.386714
-1.388593
-1.370132
-1.351984
-1.344788
-1.349483
-1.317566
-1.287840
-1.307243
-1.315067
-1.313816
-1.315382
-1.323520
-1.355126
-1.368270
-1.372652
-1.375783
-1.388927
-1.419282
-1.473105
-1.506902
-1.541638
-1.580129
-1.608919
-1.636144
-1.644594
-1.669004
-1.676515
-1.699360
-1.723769
-1.748491
-1.773526
-1.794493
-1.829854
-1.862087
-1.887435
-1.901204
-1.908090
-1.919357
-1.927807
-1.917795
-1.916544
-1.915920
-1.888071
-1.873365
-1.868360
-1.847395
-1.841451
-1.823303
-1.811413
-1.810476
-1.812355
-1.795771
-1.784507
-1.793270
-1.790142
-1.799531
-1.812363
-1.820187
-1.826447
-1.838965
-1.876204
-1.888722
-1.868383
-1.857432
-1.846794
-1.841789
-1.848049
-1.852431
-1.846800
-1.862447
-1.885292
-1.881851
-1.851186
-1.834289
-1.832726
-1.823027
-1.834293
-1.838676
-1.805820
-1.795808
-1.785483
-1.752315
-1.726656
-1.706005
-1.701312
-1.669083
-1.634350
-1.593671
-1.553619
-1.523580
-1.466003
-1.451297
-1.449108
-1.414688
-1.384336
-1.378392
-1.387155
-1.390911
-1.391226
-1.395921
-1.397487
-1.408127
-1.431911
-1.446932
-1.440362
-1.427847
-1.441617
-1.463522
-1.465401
-1.449444
-1.451948
-1.462902
-1.476672
-1.480741
-1.485749
-1.512662
-1.518921
-1.501399
-1.477618
-1.465103
-1.456342
-1.436004
-1.397829
-1.353082
-1.304268
-1.248569
-1.190367
-1.137172
-1.070834
-0.994169
-0.920947
-0.855548
-0.802978
-0.743525
-0.669051
-0.601148
-0.547327
-0.491002
-0.446882
-0.412462
-0.390871
-0.363336
-0.335800
-0.320468
-0.308891
-0.271968
-0.228786
-0.212515
-0.181850
-0.148056
-0.110194
-0.100808
-0.099557
-0.082974
-0.058567
-0.023834
0.001198
0.025605
0.061276
0.095696
0.099137
0.121666
0.158590
0.170479
0.176424
0.205524
0.256216
0.287194
0.302526
0.350714
0.403284
0.444901
0.493402
0.548788
0.573508
0.594159
0.634212
0.660809
0.694290
0.708996
0.724328
0.739347
0.745917
0.744038
0.736839
0.733396
0.733395
0.732768
0.717746
0.702099
0.700533
0.718994
0.733074
0.743086
0.763425
0.784389
0.818183
0.847597
0.853541
0.866995
0.889524
0.911427
0.922691
0.945533
0.982143
1.019693
1.035963
1.053799
1.073198
1.061306
1.056298
1.062555
1.056921
1.031260
1.020307
1.026564
1.024059
1.009976
0.983064
0.967103
0.972422
0.958652
0.931426
0.919221
0.906077
0.870090
0.833477
0.819081
0.794359
0.755868
0.728017
0.699227
0.677634
0.676068
0.683577
0.702977
0.725819
0.752103
0.784019
0.814058
0.832207
0.861620
0.901672
0.929208
0.950173
0.956430
0.980210
0.996481
0.998357
0.998043
0.999293
0.996476
0.971128
0.940147
0.895711
0.857533
0.846580
0.829368
0.806836
0.790876
0.780235
0.788683
0.778042
0.764585
0.746747
0.737358
0.717643
0.705125
0.696987
0.661313
0.629394
0.596223
0.556480
0.501405
0.452588
0.394696
0.345253
0.267647
0.185661
0.124327
0.067687
0.009482
-0.063117
-0.126955
-0.196112
-0.257758
-0.305324
-0.351950
-0.372605
-0.385436
-0.426743
-0.445519
-0.455534
-0.476188
-0.495904
-0.493089
-0.475253
-0.469622
-0.486521
-0.489026
-0.463993
-0.444907
-0.436459
-0.429576
-0.406734
-0.366369
-0.335704
-0.322562
-0.283761
-0.238389
-0.211479
-0.192079
-0.159537
-0.142327
-0.121989
-0.081623
-0.051897
-0.029055
0.009433
0.041037
0.069511
0.100489
0.128025
0.153370
0.185287
0.226904
0.250998
0.266642
0.259444
0.260381
0.262258
0.255059
0.244731
0.238159
0.222824
0.185585
0.146156
0.116114
0.088576
0.047894
0.002207
-0.026583
-0.062258
-0.104504
-0.129226
-0.156451
-0.178044
-0.214657
-0.239692
-0.267856
-0.315422
-0.350157
-0.367369
-0.399602
-0.459997
-0.505372
-0.534788
-0.556381
-0.578599
-0.586737
-0.578602
-0.567651
-0.556387
-0.566715
-0.577043
-0.585493
-0.579549
-0.563904
-0.549511
-0.521662
-0.490058
-0.448128
-0.425286
-0.396186
-0.341426
-0.302312
-0.261321
-0.230656
-0.204998
-0.165884
-0.136158
-0.118322
-0.093290
-0.037278
-0.006613
0.024052
0.053465
0.059722
0.081312
0.096644
0.097582
0.086941
0.081620
0.078802
0.080679
0.102269
0.130430
0.130429
0.142632
0.178616
0.211785
0.229933
0.256217
0.300025
0.341955
0.378252
0.419870
0.459922
0.475567
0.500599
0.535019
0.572256
0.599166
0.630769
0.664876
0.692412
0.710873
0.744980
0.754367
0.749359
0.771262
0.786594
0.792851
0.785965
0.790658
0.791595
0.796913
0.806613
0.813809
0.820692
0.850731
0.876076
0.885775
0.880141
0.864181
0.861050
0.845716
0.835701
0.825686
0.813168
0.813793
0.827560
0.831001
0.825680
0.823801
0.815038
0.820043
0.836314
0.833496
0.827862
0.828800
0.827234
0.827545
0.823476
0.815026
0.792494
0.774031
0.771839
0.775280
0.767455
0.743046
0.700800
0.669194
0.667315
0.656049
0.646034
0.627570
0.614426
0.600969
0.557159
0.489879
0.435743
0.388490
0.349687
0.299931
0.229835
0.177576
0.128759
0.081506
0.026744
-0.013937
-0.058686
-0.102810
-0.135355
-0.161955
-0.185112
-0.190746
-0.194502
-0.186994
-0.163213
-0.151323
-0.142563
-0.129734
-0.110334
-0.091560
-0.070283
-0.049632
-0.005824
0.032351
0.061452
0.078661
0.085544
0.112141
0.134044
0.142805
0.129035
0.112761
0.096488
0.067385
0.042976
0.019818
-0.008033
-0.047775
-0.079069
-0.104417
-0.134146
-0.175452
-0.196732
-0.189849
-0.178586
-0.170764
-0.163255
-0.135094
-0.103490
-0.092226
-0.101615
-0.096922
-0.084407
-0.090667
-0.088477
-0.081595
-0.074712
-0.072835
-0.087544
-0.101940
-0.115084
-0.122282
-0.121658
-0.115714
-0.111334
-0.114777
-0.113214
-0.097256
-0.084115
-0.081926
-0.081301
-0.067221
-0.043753
-0.016218
-0.021852
-0.031554
-0.026548
-0.032182
-0.041571
-0.066293
-0.090076
-0.118241
-0.145779
-0.178324
-0.226828
-0.250925
-0.260314
-0.282532
-0.303499
-0.323215
-0.344495
-0.372346
-0.398007
-0.432743
-0.448703
-0.454337
-0.464039
-0.477809
-0.483755
-0.491267
-0.503472
-0.504099
-0.507856
-0.513490
-0.498158
-0.464989
-0.456542
-0.423999
-0.390831
-0.365486
-0.343582
-0.303530
-0.271300
-0.257533
-0.231562
-0.219046
-0.209973
-0.192138
-0.168670
-0.147706
-0.115476
-0.104212
-0.104839
-0.086378
-0.070108
-0.085442
-0.089511
-0.100778
-0.089827
-0.080128
-0.092959
-0.112987
-0.136770
-0.145847
-0.173385
-0.184964
-0.205306
-0.206559
-0.204995
-0.197486
-0.187787
-0.200618
-0.199994
-0.188417
-0.168704
-0.144611
-0.124585
-0.106124
-0.078588
-0.041352
-0.019136
-0.009749
-0.024771
-0.041983
-0.037916
-0.057319
-0.085170
-0.122722
-0.138057
-0.161214
-0.175297
-0.187502
-0.207843
-0.212226
-0.227560
-0.236010
-0.249780
-0.276067
-0.316435
-0.338341
-0.366505
-0.411880
-0.445051
-0.462889
-0.480414
-0.505136
-0.521722
-0.539873
-0.572731
-0.600582
-0.619985
-0.651904
-0.690082
-0.714804
-0.741403
-0.778017
-0.832153
-0.894426
-0.937298
-0.995189
-1.040251
-1.082810
-1.128498
-1.163546
-1.200472
-1.230201
-1.271821
-1.305931
-1.345360
-1.372899
-1.398873
-1.446751
-1.485867
-1.506209
-1.510278
-1.516225
-1.506213
-1.494636
-1.492447
-1.483373
-1.484939
-1.478682
-1.470860
-1.465855
-1.448333
-1.430498
-1.403275
-1.393263
-1.376053
-1.376680
-1.389824
-1.399213
-1.431758
-1.454290
-1.479638
-1.475259
-1.484022
-1.505302
-1.518759
-1.521889
-1.510938
-1.529089
-1.545988
-1.559445
-1.570399
-1.612644
-1.650196
-1.664279
-1.687124
-1.705274
-1.719357
-1.724365
-1.739074
-1.748776
-1.743144
-1.749091
-1.765052
-1.788835
-1.811679
-1.816688
-1.835777
-1.847044
-1.865194
-1.882719
-1.887101
-1.879280
-1.864887
-1.857691
-1.843611
-1.846741
-1.826403
-1.810445
-1.809508
-1.802625
-1.782599
-1.756002
-1.742235
-1.743801
-1.734414
-1.718144
-1.693424
-1.667140
-1.662135
-1.662136
-1.672464
-1.660261
-1.671528
-1.680917
-1.670904
-1.646811
-1.613017
-1.603943
-1.583605
-1.572654
-1.566397
-1.558888
-1.558889
-1.555448
-1.546688
-1.541682
-1.547003
-1.548256
-1.545441
-1.533865
-1.522288
-1.524793
-1.521978
-1.518850
-1.532933
-1.554213
-1.560159
-1.552651
-1.540761
-1.514477
-1.462533
-1.396508
-1.337054
-1.286362
-1.230977
-1.197182
-1.155878
-1.118016
-1.090480
-1.047924
-1.000674
-0.955928
-0.907739
-0.835456
-0.791022
-0.746589
-0.696835
-0.653028
-0.602962
-0.559154
-0.501578
-0.467471
-0.439935
-0.393937
-0.360143
-0.319151
-0.286609
-0.237481
-0.199619
-0.166138
-0.115759
-0.072890
-0.048796
-0.049423
-0.024704
-0.022828
-0.009686
0.012530
0.034433
0.061656
0.064784
0.079490
0.083243
0.088562
0.115159
0.132368
0.166162
0.189630
0.188064
0.199954
0.223109
0.253461
0.285690
0.312913
0.323551
0.347645
0.393017
0.429941
0.445272
0.463733
0.497215
0.534138
0.552912
0.563237
0.604854
0.647097
0.670252
0.690278
0.694970
0.695908
0.699662
0.685579
0.659292
0.631128
0.632691
0.627683
0.601709
0.599830
0.595761
0.569162
0.538807
0.546629
0.555702
0.535674
0.494054
0.438665
0.398297
0.359181
0.305983
0.240894
0.201464
0.168919
0.123231
0.086618
0.052821
0.006821
-0.030731
-0.057018
-0.091754
-0.104898
-0.114913
-0.135567
-0.124929
-0.125556
-0.189706
-0.253230
-0.272946
-0.267627
-0.271384
-0.293603
-0.334597
-0.345863
-0.318640
-0.330533
-0.374656
-0.385609
-0.367774
-0.351504
-0.321465
-0.293303
-0.267645
-0.246993
-0.226029
-0.209445
-0.186290
-0.148428
-0.080838
-0.011371
0.016477
0.046830
0.062161
0.070296
0.089696
0.110660
0.134754
0.161664
0.206723
0.275877
0.328134
0.360989
0.401042
0.479897
0.539038
0.595362
0.671088
0.716147
0.799070
0.873544
0.900767
0.923296
0.969294
1.036258
1.105100
1.164866
1.215245
1.269692
1.327894
1.376709
1.429278
1.449304
1.454622
1.478716
1.505000
1.523461
1.534099
1.581036
1.629224
1.669903
1.695561
1.745940
1.797258
1.827297
1.867350
1.895198
1.898639
1.912719
1.958092
1.973736
1.984687
2.018482
2.037256
2.068546
2.114545
2.135822
2.160541
2.192145
2.231572
2.253162
2.268494
2.279132
2.294777
2.324503
2.340148
2.354854
2.382702
2.419313
2.429012
2.423378
2.421812
2.439335
2.480326
2.483767
2.473126
2.486267
2.490334
2.487204
2.478753
2.472494
2.463418
2.473743
2.474054
2.450897
2.433998
2.462785
2.497831
2.480932
2.449326
2.460902
2.492193
2.499702
2.509714
2.522543
2.531929
2.537247
2.543191
2.531299
2.552576
2.584806
2.610464
2.625483
2.643005
2.681493
2.723424
2.761286
2.788822
2.840139
2.902096
2.957169
2.989712
3.038526
3.097667
3.145856
3.195922
3.235036
3.255687
3.292298
3.365207
3.444688
3.497883
3.546698
3.618042
3.693768
3.763235
3.839587
3.911557
3.973202
4.042982
4.104000
4.146869
4.198187
4.263273
4.318346
4.369664
4.402206
4.419416
4.435686
4.466977
4.481057
4.478553
4.493259
4.481679
4.455705
4.461337
4.455703
4.414083
4.388109
4.359006
4.305808
4.228515
4.131195
4.050147
3.986310
3.908704
3.827030
3.766009
3.719695
3.650226
3.562606
3.500021
3.460278
3.402387
3.321339
3.259379
3.214317
3.153296
3.084452
3.019989
2.955212
2.893566
2.825347
2.748367
2.643850
2.542150
2.472054
2.414475
2.317155
2.202937
2.119073
2.057739
1.991086
1.880310
1.789874
1.731044
1.681914
1.601179
1.502920
1.427505
1.358661
1.293259
1.216279
1.127721
1.052931
0.991597
0.927760
0.862045
0.787568
0.728425
0.677417
0.620464
0.541920
0.442097
0.381076
0.339769
0.283129
0.193945
0.116026
0.065018
0.010256
-0.046697
-0.089256
-0.110536
-0.153095
-0.195966
-0.247287
-0.286090
-0.320200
-0.347738
-0.404378
-0.466338
-0.487931
-0.531429
-0.577742
-0.608723
-0.644710
-0.691024
-0.742344
-0.787093
-0.814945
-0.866578
-0.906320
-0.922281
-0.938554
-0.976106
-1.011154
-1.045264
-1.070299
-1.082191
-1.110356
-1.140710
-1.159487
-1.173570
-1.211122
-1.257122
-1.268076
-1.258064
-1.263698
-1.262447
-1.258068
-1.237729
-1.215200
-1.192984
-1.183598
-1.167014
-1.142295
-1.118514
-1.089414
-1.081279
-1.057811
-1.038724
-1.025583
-1.036224
-1.046864
-1.037791
-1.061887
-1.062827
-1.052189
-1.064082
-1.076287
-1.074098
-1.050004
-1.049067
-1.050007
-1.044376
-1.058145
-1.055643
-1.063155
-1.077238
-1.084436
-1.079744
-1.052834
-1.041883
-1.020918
-1.002770
-0.982119
-0.980555
-0.983373
-0.984313
-1.000586
-1.026560
-1.025936
-1.020930
-1.036891
-1.007164
-1.004662
-1.006228
-0.988706
-0.970558
-0.981824
-0.994342
-0.981827
-0.976196
-0.969626
-0.964307
-0.950853
-0.948977
-0.948352
-0.947415
-0.946790
-0.936778
-0.927392
-0.894536
-0.835396
-0.800350
-0.772501
-0.738394
-0.703348
-0.677690
-0.651719
-0.636387
-0.641082
-0.648906
-0.651411
-0.659861
-0.663618
-0.634204
-0.599784
-0.549718
-0.498087
-0.452715
-0.386377
-0.322542
-0.281238
-0.223975
-0.143242
-0.100373
-0.037478
0.035432
0.073294
0.130244
0.176868
0.217234
0.242266
0.269489
0.297025
0.307663
0.314233
0.324245
0.338325
0.346773
0.363669
0.343641
0.335504
0.340822
0.323610
0.307650
0.293254
0.279171
0.247878
0.242870
0.243807
0.215017
0.213138
0.210008
0.190292
0.177148
0.172140
0.178397
0.152736
0.138654
0.126761
0.100162
0.077630
0.051343
0.011914
-0.019693
-0.056932
-0.119204
-0.150811
-0.183982
-0.200255
-0.234365
-0.253454
-0.250952
-0.264722
-0.267852
-0.262221
-0.252835
-0.258156
-0.264416
-0.261288
-0.263480
-0.293208
-0.307917
-0.315741
-0.352042
-0.375825
-0.385527
-0.418072
-0.453121
-0.470333
-0.475341
-0.485668
-0.477534
-0.475970
-0.472842
-0.435606
-0.423404
-0.433105
-0.419651
-0.385544
-0.373967
-0.371778
-0.368024
-0.357699
-0.347687
-0.346124
-0.350819
-0.352698
-0.322972
-0.315463
-0.308893
-0.281983
-0.263209
-0.248190
-0.249443
-0.238179
-0.225977
-0.220345
-0.220972
-0.234429
-0.237873
-0.257901
-0.291698
-0.323617
-0.353659
-0.371810
-0.401852
-0.443159
-0.484466
-0.488222
-0.510441
-0.550809
-0.587735
-0.630294
-0.656267
-0.686309
-0.705399
-0.724801
-0.727932
-0.724491
-0.716982
-0.710412
-0.713230
-0.714483
-0.690389
-0.688826
-0.721997
-0.718556
-0.704476
-0.699783
-0.676315
-0.670684
-0.670060
-0.639708
-0.609043
-0.597779
-0.589018
-0.563673
-0.561484
-0.539581
-0.528630
-0.523624
-0.502347
-0.475750
-0.436636
-0.416610
-0.397524
-0.391892
-0.369989
-0.348399
-0.346836
-0.329000
-0.330566
-0.328690
-0.307100
-0.292081
-0.272681
-0.265172
-0.252970
-0.248903
-0.212293
-0.165356
-0.127806
-0.103400
-0.058341
0.014882
0.036472
0.047423
0.066823
0.100930
0.106248
0.135662
0.168830
0.169454
0.188854
0.188540
0.162253
0.152864
0.155679
0.135651
0.114371
0.119064
0.124382
0.131578
0.116556
0.109045
0.098717
0.058349
0.034565
0.012034
0.011407
0.014535
0.010465
0.010151
0.022667
0.030801
0.036432
0.020785
-0.010508
-0.033979
-0.070905
-0.106579
-0.119097
-0.122228
-0.122855
-0.126612
-0.127239
-0.134750
-0.139758
-0.130059
-0.140074
-0.143204
-0.145396
-0.156037
-0.171058
-0.175753
-0.202666
-0.241470
-0.277457
-0.304369
-0.322520
-0.355378
-0.385107
-0.403258
-0.429232
-0.477110
-0.521546
-0.556282
-0.582569
-0.615427
-0.669563
-0.704612
-0.734341
-0.789103
-0.801934
-0.841990
-0.891433
-0.930862
-0.937122
-0.950266
-1.027872
-1.043206
-1.070432
-1.087957
-1.107046
-1.153360
-1.192789
-1.222205
-1.215009
-1.237854
-1.265079
-1.287924
-1.314524
-1.331736
-1.341437
-1.359275
-1.389317
-1.402461
-1.404027
-1.418736
-1.448777
-1.481010
-1.509487
-1.543284
-1.573951
-1.598986
-1.633409
-1.702566
-1.753574
-1.757017
-1.800827
-1.847767
-1.870299
-1.866232
-1.883131
-1.921622
-1.933827
-1.944468
-1.956986
-1.982647
-2.012063
-2.014254
-2.020201
-2.040855
-2.032721
-2.004559
-1.999241
-2.007065
-1.971706
-1.949177
-1.921329
-1.875017
-1.840285
-1.800232
-1.775199
-1.748602
-1.725448
-1.704170
-1.658485
-1.638772
-1.605291
-1.567742
-1.536451
-1.466984
-1.403149
-1.346825
-1.287684
-1.224475
-1.191307
-1.148751
-1.109324
-1.087733
-1.061762
-1.007315
-0.977589
-0.967264
-0.932218
-0.899676
-0.848045
-0.808931
-0.765749
-0.683139
-0.611169
-0.575810
-0.522615
-0.470358
-0.428741
-0.391504
-0.330486
-0.283549
-0.266653
-0.225661
-0.176847
-0.123339
-0.074837
-0.045424
-0.026337
0.008709
0.058462
0.088501
0.095697
0.132933
0.179870
0.198644
0.223990
0.261226
0.285945
0.312230
0.351969
0.386389
0.390143
0.401407
0.419555
0.440519
0.486518
0.502788
0.525630
0.566621
0.597286
0.632645
0.648290
0.652044
0.677702
0.707428
0.721821
0.736214
0.770009
0.773449
0.782210
0.814127
0.820697
0.821634
0.813497
0.810366
