EVENT_NAME: 202302060117
EVENT_ID: 13194
EVENT_DATE_YYYYMMDD: 2023/02/06
EVENT_TIME_HHMMSS: 01:17:32.00000
EVENT_LATITUDE_DEGREE: 37.288
EVENT_LONGITUDE_DEGREE: 37.043
EVENT_DEPTH_KM: 8.6
HYPOCENTER_REFERENCE: AFAD
MAGNITUDE_W: 7.7
MAGNITUDE_W_REFERENCE: AFAD
MAGNITUDE_L: 
MAGNITUDE_L_REFERENCE: 
FOCAL_MECHANISM: 
NETWORK: TK
STATION_CODE: 2310
STATION_NAME: 
STATION_LATITUDE_DEGREE: 38.57266
STATION_LONGITUDE_DEGREE: 38.824528
STATION_ELEVATION_M: 1240.0
LOCATION: Kahramanmaras_Pazarck_Turkiye
SENSOR_DEPTH_M: 
VS30_M/S: None
SITE_CLASSIFICATION_EC8: unknown
MORPHOLOGIC_CLASSIFICATION: 
EPICENTRAL_DISTANCE_KM: 211.70
EARTHQUAKE_BACKAZIMUTH_DEGREE: 
DATE_TIME_FIRST_SAMPLE_YYYYMMDD_HHMMSS: 2023/02/06 01:17:48.5035850
DATE_TIME_FIRST_SAMPLE_PRECISION: millisecond
SAMPLING_INTERVAL_S: 0.005
NDATA: 29001
DURATION_S: 
STREAM: HNE
UNITS: cm/s^2
INSTRUMENT: sensor = GEO-A200,/GEObit | digitizer = 
INSTRUMENT_ANALOG/DIGITAL: 
INSTRUMENTAL_FREQUENCY_HZ: 
INSTRUMENTAL_DAMPING: 
FULL_SCALE_G: 
N_BIT_DIGITAL_CONVERTER: 
PGA_CM/S^2: 51.197
TIME_PGA_S: 
BASELINE_CORRECTION: BASELINE REMOVED
FILTER_TYPE: BUTTERWORTH
FILTER_ORDER: 
LOW_CUT_FREQUENCY_HZ: 
HIGH_CUT_FREQUENCY_HZ: 
LATE/NORMAL_TRIGGERED: 
DATABASE_VERSION: 
HEADER_FORMAT: DYNA 1.2
DATA_TYPE: Acceleration
PROCESSING: Automatic Paolucci et al., 2011
DATA_TIMESTAMP_YYYYMMDD_HHMMSS: 
DATA_LICENSE: U (unknown license)
DATA_CITATION: Turkish Accelerometric Archive v 1.0 - Disaster And Emergency Management Presidency, Earthquake Department
DATA_CREATOR: AFAD
ORIGINAL_DATA_MEDIATOR_CITATION: : AFAD - Disaster And Emergency Management Presidency
ORIGINAL_DATA_MEDIATOR: AFAD PROCESS SERVICE
ORIGINAL_DATA_CREATOR_CITATION: AFAD PROCESS SERVICE
ORIGINAL_DATA_CREATOR: network: TK
USER1: GuestUser
USER2: 
USER3: 
USER4: 
USER5: 
[...]
-8.664040
-8.040188
-7.795355
-7.227532
-6.773414
-6.049275
-5.310540
-4.814047
-4.286480
-4.025168
-3.587530
-3.271837
-3.003934
-2.610318
-1.840508
-0.349619
1.596565
3.718134
5.332852
6.030154
5.860419
5.537193
5.962119
7.592610
10.230446
13.257660
15.851002
17.478433
17.985990
17.615445
17.140376
16.880241
17.375085
18.330639
19.380594
20.207846
20.357099
20.056473
18.995924
17.717615
16.013910
14.278188
13.027423
11.469911
9.994794
7.880994
5.357570
3.244005
1.587383
1.118434
1.358088
1.937682
2.506682
2.627215
2.478668
1.759943
0.590632
-1.018437
-3.015471
-4.832646
-6.359790
-7.285681
-7.516860
-7.361485
-6.907132
-6.466904
-6.171693
-5.857883
-5.460501
-4.832647
-4.139582
-3.511963
-2.822194
-2.258138
-1.676660
-1.338838
-1.508573
-1.852045
-2.579481
-3.441574
-4.347219
-5.221790
-5.358802
-4.463515
-2.369961
0.506116
3.164904
4.951241
5.886549
6.358793
6.891775
7.724206
8.792523
9.735364
10.108263
9.910985
9.312322
8.699063
8.304506
8.285673
8.496605
8.656217
8.673873
8.633382
8.711304
8.811356
9.052893
9.439446
10.245981
11.407759
12.669118
13.824304
14.046537
13.356768
11.967813
10.309543
9.035707
8.015179
6.723452
5.251395
3.461528
1.422590
0.220320
-0.458855
-0.351740
-0.392703
-1.255267
-2.168210
-3.186855
-2.902944
-2.153144
-1.138501
-0.610463
-1.107897
-1.715270
-3.171083
-4.209267
-5.522182
-6.637112
-7.466483
-8.432159
-8.511259
-8.268074
-6.986234
-5.715223
-4.536260
-3.339405
-2.029080
0.132980
2.564121
5.070595
6.445895
6.674484
6.218248
5.865595
6.158688
6.847515
7.598727
7.776702
7.181805
5.820395
4.378943
3.119467
2.879343
3.378896
4.113629
4.743602
4.808812
5.031986
5.202428
5.749063
6.194470
6.415055
6.097714
5.147811
3.939892
1.755937
-0.265344
-2.333709
-3.828601
-4.474111
-5.187186
-5.127861
-4.622188
-4.187375
-3.771865
-4.035767
-4.507540
-4.400897
-4.270241
-3.136478
-2.198816
-1.455843
-0.173532
0.566145
1.887534
2.836967
3.628671
4.050066
3.773923
3.729664
3.708712
4.392125
5.378753
6.598208
8.028595
9.509597
11.126199
12.965739
14.923694
16.760645
18.193151
18.532856
17.713844
15.503759
12.600374
9.976898
8.174318
7.412276
6.926377
6.114428
4.618359
2.738092
1.195646
0.280113
-0.168825
-0.638009
-1.472794
-2.813488
-4.349813
-5.508530
-5.878369
-5.347741
-4.462106
-3.618375
-3.259131
-3.517853
-4.138880
-5.024280
-5.808921
-6.273632
-5.649074
-3.846965
-1.162987
1.854104
4.068662
5.353563
5.447729
5.019507
4.690867
4.346688
4.393772
4.466044
4.515717
4.389299
3.922469
3.544155
3.020825
2.531866
2.053736
1.431532
1.023556
0.931273
1.424469
2.449235
3.646561
4.669208
5.329314
5.561905
5.549899
5.283173
4.808339
4.480404
4.101384
4.040882
4.277240
4.752780
5.359212
5.483511
5.315189
4.643312
3.612190
2.522214
1.916488
2.022425
2.613320
3.813706
5.077183
6.447540
7.455120
8.074029
8.143476
7.118475
5.528711
3.593827
2.302570
1.771943
2.053265
2.737854
2.717138
1.703201
-0.492053
-2.943675
-4.931763
-5.907562
-6.088362
-5.846590
-5.402831
-5.015336
-4.433858
-3.952904
-3.665461
-4.040008
-4.976022
-5.863069
-6.196183
-5.840705
-5.048530
-4.315209
-4.118166
-4.081441
-4.195618
-4.105218
-4.073908
-4.630667
-5.525012
-6.528119
-7.049566
-6.729636
-5.868484
-5.100792
-5.354100
-7.098768
-9.648088
-12.057335
-13.051967
-12.470254
-10.799272
-8.999046
-7.959449
-7.421759
-7.148441
-6.450197
-5.781851
-5.109503
-4.767915
-5.087139
-5.292422
-5.174714
-3.925126
-2.023200
0.196302
2.043847
3.023883
3.426209
3.583938
4.682153
6.554652
8.930470
11.043328
12.636153
13.889743
14.842471
15.555782
15.457849
14.840353
13.615483
12.368014
11.535818
11.473198
12.305393
13.286607
14.401772
15.011971
15.212780
14.862481
13.719066
12.399795
10.820389
8.987676
7.185095
5.772835
4.679798
3.624193
2.387318
0.826039
-0.919806
-2.461310
-3.459945
-4.000931
-4.603360
-5.354337
-6.164404
-7.116190
-7.862694
-8.491020
-8.708073
-8.532924
-7.748047
-5.997729
-3.902527
-1.545542
0.536477
2.669816
4.297011
4.964887
5.242442
5.248798
6.244137
7.774105
9.828110
11.645757
12.291738
12.116118
10.568022
8.590057
6.038619
2.880042
-0.180601
-3.034549
-4.862789
-5.455096
-5.156824
-4.440218
-4.019059
-3.983511
-4.270954
-4.923056
-5.499119
-5.631187
-4.974848
-3.766693
-2.570073
-1.999190
-1.698328
-1.420302
-0.948764
0.414530
1.824201
3.354170
4.239569
4.722172
5.692321
6.459542
7.564584
7.826602
7.286087
5.946099
3.872320
2.489251
1.532520
1.737803
2.278554
2.636386
2.784463
2.458882
2.442874
2.648863
3.337219
3.962249
4.430726
4.921333
5.525411
6.143377
6.600791
6.540289
5.266924
3.215273
0.766947
-0.710524
-1.369924
-1.465973
-1.304243
-1.564613
-1.723519
-2.254617
-2.294873
-2.169397
-2.222601
-2.505100
-3.417101
-4.353115
-5.571158
-6.420539
-6.819098
-6.569557
-5.637545
-4.860908
-4.280843
-3.975744
-3.520449
-2.736985
-1.820510
-0.790330
-0.082905
-0.338567
-1.804031
-4.148068
-6.762127
-8.840615
-9.847725
-9.852669
-9.109460
-8.385085
-8.399681
-9.250945
-10.728887
-12.214597
-13.245248
-13.620031
-13.353304
-12.759115
-12.012140
-11.164171
-10.075372
-8.471954
-6.605341
-4.589945
-2.680015
-0.898151
1.331944
3.976372
6.971805
9.693449
11.576777
12.456291
12.403793
12.118940
12.332933
13.077789
13.576635
13.384771
12.355297
11.107122
9.974771
9.090784
8.326152
7.232410
5.783189
3.979432
2.565994
1.823728
1.888938
2.101518
2.027362
1.591607
0.430300
-0.847067
-2.091711
-2.991942
-3.668292
-4.313803
-5.155179
-6.358391
-7.805022
-9.374540
-10.971838
-12.786424
-14.358532
-15.784211
-16.555198
-16.948108
-17.341488
-17.583731
-18.414279
-19.105695
-19.228347
-18.413572
-16.667728
-14.614665
-12.643762
-11.202546
-9.834073
-8.063744
-5.391067
-1.869008
1.776643
4.745004
6.509917
7.117997
6.925662
6.646223
6.821608
7.587416
8.481290
8.894210
8.162066
6.051797
2.786578
-1.275996
-4.964023
-7.661184
-8.704312
-7.698144
-5.426851
-2.581848
-0.335745
1.221061
2.145304
2.073738
1.749570
1.186926
0.883004
0.997416
1.217530
1.865630
2.298795
2.392255
2.155427
1.834084
1.640101
1.310283
1.315933
1.661289
2.382603
3.583460
5.132968
6.743213
7.679463
7.614723
6.776878
5.415938
3.859603
2.389665
1.124305
0.202416
-0.698521
-1.323786
-1.656429
-1.994487
-2.038745
-1.949522
-1.633123
-1.665611
-2.539710
-4.058614
-5.922167
-7.457315
-8.560709
-9.152074
-9.548279
-10.279011
-11.407124
-12.696262
-13.863454
-14.591596
-14.908937
-14.855027
-14.307449
-13.700782
-12.895659
-12.260978
-12.040393
-12.323599
-13.216061
-13.949617
-14.620788
-14.635855
-13.822022
-12.386926
-10.210034
-8.086582
-6.243510
-5.245111
-4.890104
-4.645271
-4.565230
-4.129710
-3.800128
-3.581662
-3.433350
-3.806249
-4.161021
-4.718486
-5.324447
-5.709116
-5.944062
-5.557744
-4.850790
-3.801541
-2.812794
-2.402464
-2.414705
-3.055508
-3.687600
-3.831203
-3.585429
-2.927677
-2.370447
-1.901263
-1.261167
-0.584111
0.591792
2.213572
4.139275
6.241069
8.207734
10.503511
12.958664
15.470082
17.701590
19.152223
19.505818
18.468810
16.594664
14.158108
11.660345
9.009796
6.118888
3.064365
-0.046657
-2.404113
-3.966568
-4.847495
-5.517724
-6.109325
-6.890435
-8.011957
-9.247420
-10.617305
-11.709871
-12.644708
-12.966522
-12.753941
-12.497573
-12.262392
-12.748762
-13.996937
-16.132396
-18.843446
-21.352274
-23.653230
-25.013228
-25.280896
-24.666932
-22.972643
-20.885209
-18.490793
-16.198313
-14.149958
-11.995667
-9.941191
-7.692262
-5.510898
-3.175101
-0.546681
1.948257
4.174822
5.665946
6.441171
6.633506
6.439288
6.241067
6.351242
7.116109
8.612883
10.573428
12.639909
14.563964
16.174915
17.447339
18.422903
19.043459
19.252508
19.231321
19.152457
19.192242
19.332550
19.326429
19.144688
18.700458
17.810585
16.532276
15.032441
13.588635
12.693348
12.309620
12.359999
12.786808
13.038703
13.056359
12.691935
12.127172
11.699186
11.288385
11.429164
11.942606
12.672631
13.294600
13.197373
12.666275
11.360893
9.592684
7.704648
6.195160
5.481850
5.020905
4.838929
4.366213
3.623240
2.698997
1.575828
0.739395
-0.238523
-1.351099
-2.601394
-4.046848
-5.522435
-7.180470
-8.709026
-9.984981
-11.087669
-11.937285
-12.533829
-12.767598
-12.633646
-12.078064
-11.242337
-10.300438
-9.492255
-8.790716
-8.023730
-7.372805
-6.724234
-6.350864
-6.106032
-5.925703
-5.736429
-5.388013
-5.029710
-4.286502
-3.221951
-1.489525
0.618155
2.878148
5.191110
7.277366
9.464381
11.505202
13.663731
15.674890
17.434389
18.698102
19.117142
18.839587
17.874616
16.887046
15.754696
14.482508
12.933470
11.218465
9.662365
8.258815
7.541738
7.507132
8.216440
9.229435
10.226893
11.027778
11.428456
11.527801
11.165731
10.574602
9.502988
7.998209
6.257544
4.398699
2.523846
0.368613
-1.808985
-3.631340
-4.490138
-4.312163
-3.602384
-2.927917
-2.595745
-2.340319
-1.951412
-1.360518
-0.924292
-0.925705
-1.649138
-3.261737
-5.571168
-8.366027
-11.121806
-13.437122
-15.072086
-15.972788
-16.374643
-16.595228
-16.867604
-17.081833
-17.082539
-16.857952
-16.410427
-15.857670
-15.158720
-14.152317
-12.969351
-11.770378
-10.816237
-10.068791
-9.389145
-8.908190
-8.448188
-8.238667
-8.558127
-9.173269
-9.835494
-10.155660
-9.894348
-9.149021
-8.208063
-7.354916
-6.753428
-6.230334
-5.458876
-4.339002
-2.848583
-1.163947
0.554825
2.108335
3.476338
4.871884
5.975984
6.597247
6.835017
6.673757
6.337112
6.036251
5.804601
5.501856
4.989356
4.340314
3.613585
3.074247
2.937941
3.164882
3.497289
3.473277
2.855074
1.522855
-0.151894
-1.534727
-2.353504
-2.494048
-2.060176
-1.419138
-1.057304
-1.284010
-1.950708
-2.565379
-2.786199
-2.470742
-1.717411
-0.674989
0.564712
1.913645
3.415364
4.825506
5.738213
5.765992
4.954043
3.695980
2.330567
1.111112
0.034790
-0.996803
-2.398469
-4.287918
-6.536376
-9.086637
-11.687042
-14.061919
-15.710066
-16.453510
-16.377706
-15.727722
-15.002170
-14.628801
-14.828198
-15.195212
-15.199449
-14.621974
-13.482325
-12.173412
-11.230336
-10.901695
-11.084613
-11.402660
-11.510245
-11.316263
-10.732667
-9.725557
-8.351905
-6.746132
-4.905650
-2.713928
-0.268191
1.933655
3.320490
3.816276
3.636418
3.388996
3.414186
3.614289
3.876778
3.831578
3.522006
3.225853
3.179005
3.515414
4.101365
4.848575
5.892880
7.302080
8.840053
10.563769
12.207443
13.421248
14.405522
15.314228
16.413149
17.663208
18.879367
19.988883
20.807895
21.366066
21.869385
22.340217
22.473934
21.942129
20.641455
18.741884
16.486599
14.081118
11.640561
9.180699
6.667869
4.187762
1.910347
-0.107403
-1.897035
-3.571785
-5.283259
-7.260518
-9.541699
-11.917281
-13.879238
-15.012766
-15.381898
-15.119409
-14.452711
-13.482798
-12.303364
-11.174073
-10.196861
-9.485199
-9.040969
-8.528233
-7.575505
-6.053540
-4.239425
-2.684267
-1.841713
-1.871846
-2.590101
-3.613925
-4.471310
-4.861159
-4.734740
-4.360429
-4.058155
-3.872647
-3.884418
-4.123600
-4.632334
-5.253362
-5.695708
-5.834604
-5.710540
-5.537509
-5.282318
-4.924015
-4.410808
-3.711387
-3.063993
-2.625884
-2.495229
-2.535720
-2.410714
-1.904805
-1.047420
-0.041723
0.798005
1.162900
0.981865
0.350009
-0.433220
-0.947133
-0.851554
0.073159
1.745084
3.898669
6.227169
8.454910
10.532456
12.489704
14.338897
15.909121
16.821358
16.838308
16.051548
14.820793
13.711042
13.281408
13.678319
14.613156
15.463714
15.759161
15.441350
14.744047
13.948577
13.046698
11.965903
10.388381
8.090485
5.312812
2.382590
-0.280201
-2.356334
-3.827213
-4.887762
-5.823776
-6.923640
-8.330956
-10.023362
-11.671274
-12.890022
-13.659833
-14.149263
-14.549470
-14.834559
-15.020537
-15.000762
-14.636574
-14.116069
-13.706681
-13.718922
-14.101944
-14.637986
-15.143895
-15.590009
-15.967851
-16.243994
-16.558510
-16.968605
-17.641659
-18.611338
-19.838561
-21.178313
-22.294891
-23.024681
-23.311889
-23.159810
-22.570093
-21.543444
-20.178737
-18.731635
-17.366223
-16.096624
-14.787005
-13.311889
-11.611479
-9.601027
-7.176478
-4.226480
-0.977504
2.330561
5.490315
8.357917
10.895230
13.016093
14.851631
16.509195
18.062940
19.521813
21.041188
22.820933
24.779358
26.843721
28.949046
31.021413
32.800687
34.151268
35.239125
36.297320
37.517481
38.863825
40.194396
41.203624
41.797108
42.160355
42.445679
42.654493
42.480285
41.722481
40.285737
38.156635
35.503026
32.513008
29.182107
25.380610
21.187145
16.817353
12.648843
8.936804
5.741738
2.954413
0.246423
-2.619767
-5.741148
-9.001188
-12.331383
-15.665344
-18.964934
-22.309960
-25.634269
-28.861587
-31.801697
-34.336185
-36.449750
-38.097897
-39.306994
-40.006415
-40.209108
-39.981461
-39.422112
-38.856408
-38.474092
-38.394757
-38.630879
-38.825804
-38.915026
-38.674667
-37.986075
-37.107267
-35.945018
-34.819966
-33.693029
-32.595991
-31.607479
-30.336704
-28.908906
-27.246869
-25.428045
-23.567317
-21.787808
-19.888472
-18.191594
-16.719537
-15.231708
-14.032264
-12.242161
-10.417687
-8.228083
-6.021294
-4.154445
-1.857491
0.033370
2.399771
4.522282
6.755673
9.264030
11.740371
15.068917
18.512111
22.648841
26.818058
30.996456
34.950974
38.236675
41.046364
43.264218
45.352829
47.029226
48.511876
49.355842
50.118590
50.525389
50.732319
51.196560
51.086149
51.014112
50.402266
49.615741
48.711037
47.622003
46.339221
44.281215
41.552979
37.654255
33.109079
27.963827
22.768667
17.863069
13.231730
9.213179
5.380607
2.076309
-0.620617
-2.357751
-3.003027
-2.763138
-1.923644
-0.863331
0.210872
1.220100
2.379524
3.359090
4.081111
4.099709
3.425948
2.390353
1.216569
0.382019
0.059970
0.283145
0.544927
0.995278
1.024469
0.550812
-0.467833
-2.519483
-4.756641
-7.610118
-10.211229
-12.226390
-13.572028
-13.567790
-13.026569
-11.552394
-9.912487
-7.997613
-5.812953
-3.736113
-1.189854
1.111573
3.461495
5.168261
6.059310
6.249997
5.745972
5.427925
5.378252
6.044715
7.128334
8.577084
10.178854
11.707175
13.128146
14.139257
14.942732
15.399439
15.849319
16.448923
17.385408
18.514934
19.467663
20.238650
20.690178
20.997631
21.008695
20.799646
20.195098
19.069338
17.589984
15.770454
13.853227
11.894095
10.174852
8.733400
7.462860
6.062841
4.175275
1.701524
-1.392783
-4.776182
-8.271874
-11.533091
-14.436241
-16.887863
-18.931980
-21.052372
-23.236091
-25.594253
-27.966304
-30.172858
-32.208029
-33.942574
-35.533751
-37.012399
-38.409122
-39.612804
-40.505501
-40.966446
-40.965739
-40.631919
-40.071394
-39.514871
-38.988010
-38.575090
-38.163583
-37.691339
-37.332329
-37.167774
-37.251111
-37.093853
-36.459642
-35.450414
-34.059812
-32.272063
-29.796193
-26.566757
-22.631779
-18.034811
-13.050348
-7.983961
-3.069653
1.471522
5.556460
9.154087
12.298773
15.376837
18.535649
21.817818
25.056671
27.923332
30.281258
31.991085
33.495628
35.121175
37.127390
39.609146
42.142457
44.377967
45.745969
46.139349
45.706184
44.726383
43.665834
42.663197
41.594644
39.978748
37.539368
34.264967
30.379897
26.124518
21.882322
18.025737
14.719084
12.203194
10.083979
8.356026
6.712822
4.585368
2.173531
-0.779998
-3.999311
-7.379414
-10.981514
-14.707443
-18.851235
-23.208078
-27.720061
-32.007221
-35.635923
-38.377107
-40.277856
-41.756739
-42.908865
-43.939281
-44.641997
-44.867997
-44.549714
-43.509646
-41.847139
-39.518169
-36.792522
-33.962116
-31.301916
-29.306059
-28.060708
-27.319383
-26.887866
-26.445284
-25.660172
-24.543829
-23.234446
-21.896812
-20.657111
-19.399519
-17.754197
-15.251961
-11.978972
-8.257046
-4.369386
-0.707491
2.750064
5.951250
9.043204
11.953651
14.371138
16.200085
17.340911
18.370620
19.477546
20.947248
22.807976
24.562767
26.086143
26.960949
27.466623
27.903555
28.459607
29.284740
29.994755
30.509845
30.858496
31.285540
31.937407
32.522887
32.688855
32.124092
30.983031
29.709901
28.603917
27.972531
27.363745
26.522133
25.561401
24.240246
23.074466
21.973661
20.674636
19.608201
18.249616
16.381354
14.577597
12.376693
10.104929
8.011610
5.297499
2.572088
-0.680654
-4.368446
-7.719592
-11.265428
-13.987543
-16.175734
-17.846952
-18.343916
-18.661492
-18.236095
-17.737484
-17.653205
-17.646849
-18.647132
-19.703208
-20.828025
-21.729198
-21.705892
-21.266370
-20.053978
-18.841350
-17.865786
-17.133642
-16.653394
-15.841680
-14.713331
-13.173475
-11.512615
-9.824212
-7.995501
-5.697605
-2.757495
0.675341
4.209405
7.408944
10.231346
12.512762
14.409273
15.937123
17.124561
18.070227
18.912781
19.692243
20.313271
20.597889
20.084446
18.776946
16.705756
14.426459
12.593745
11.562388
11.533431
12.066649
12.905436
13.776239
14.512856
15.202625
15.852844
16.548498
17.385873
18.522461
20.220987
22.499108
25.030300
27.154929
28.470198
28.771531
27.940042
26.435263
24.496377
22.577736
20.422503
17.662251
14.304983
10.117404
5.566577
0.733252
-3.725762
-7.672982
-11.134068
-13.710696
-15.494678
-16.247538
-16.435636
-16.113116
-15.562242
-14.947336
-14.202244
-13.426078
-12.312796
-11.218112
-10.263971
-9.689320
-9.423300
-9.357619
-9.483331
-9.852934
-10.903831
-12.676514
-15.377441
-18.593459
-22.136940
-25.845213
-29.317128
-32.539031
-34.992772
-36.810419
-37.878972
-38.247633
-38.489170
-38.443028
-38.608997
-38.869838
-39.153279
-39.938862
-40.906892
-42.300319
-43.686920
-44.627877
-44.935331
-44.327487
-43.319906
-41.903879
-40.459367
-39.151396
-37.896158
-36.664697
-34.950397
-32.631315
-29.411295
-25.525754
-21.532864
-17.809289
-14.607397
-11.755567
-8.903267
-5.771999
-2.428622
1.216795
5.175550
9.283323
13.127431
16.476223
19.628443
22.509228
25.096921
27.570436
29.757215
31.464452
32.552780
32.924973
32.829394
32.367508
31.650195
30.424619
28.368261
25.524436
21.767197
17.952987
14.534982
11.431258
8.660647
5.790691
2.803027
-0.307524
-3.505886
-6.667758
-9.472975
-11.796060
-13.277297
-13.755663
-13.497647
-12.485593
-11.182801
-9.644829
-8.269058
-7.030064
-5.914192
-5.143675
-4.209309
-3.629480
-3.430789
-3.826523
-5.324475
-7.374006
-9.710746
-12.016645
-13.815459
-15.517045
-16.960852
-18.355220
-19.869181
-21.117121
-22.692289
-23.935050
-25.211005
-25.835563
-25.396277
-24.462147
-22.516434
-20.586258
-18.079313
-15.649585
-13.474341
-11.476837
-10.035149
-8.280594
-6.542518
-4.131387
-1.334410
1.891495
5.307852
8.420522
11.277295
13.638752
15.995972
18.115893
20.386245
22.645061
24.929773
27.122202
28.985991
30.886033
32.615399
34.619730
36.540725
38.362138
40.154595
41.604993
43.094235
44.638564
45.975491
46.941873
47.344906
46.853122
45.536675
43.369200
40.430974
36.957411
33.359548
30.115516
27.339726
24.777459
22.021915
19.015417
15.611302
12.095600
8.433939
4.710129
1.128982
-2.198388
-4.587860
-6.109118
-6.671527
-6.415630
-5.512339
-3.915041
-1.974508
0.300552
2.597977
4.755564
6.775198
8.790123
10.916165
13.014192
15.061134
16.778023
17.947099
18.240898
17.552071
16.103556
14.017300
11.676323
