EVENT_NAME: 202302060117
EVENT_ID: 13194
EVENT_DATE_YYYYMMDD: 2023/02/06
EVENT_TIME_HHMMSS: 01:17:32.00000
EVENT_LATITUDE_DEGREE: 37.288
EVENT_LONGITUDE_DEGREE: 37.043
EVENT_DEPTH_KM: 8.6
HYPOCENTER_REFERENCE: AFAD
MAGNITUDE_W: 7.7
MAGNITUDE_W_REFERENCE: AFAD
MAGNITUDE_L: 
MAGNITUDE_L_REFERENCE: 
FOCAL_MECHANISM: 
NETWORK: TK
STATION_CODE: 0139
STATION_NAME: 
STATION_LATITUDE_DEGREE: 37.400943
STATION_LONGITUDE_DEGREE: 35.445322
STATION_ELEVATION_M: 238.0
LOCATION: Kahramanmaras_Pazarck_Turkiye
SENSOR_DEPTH_M: 
VS30_M/S: None
SITE_CLASSIFICATION_EC8: unknown
MORPHOLOGIC_CLASSIFICATION: 
EPICENTRAL_DISTANCE_KM: 141.79
EARTHQUAKE_BACKAZIMUTH_DEGREE: 
DATE_TIME_FIRST_SAMPLE_YYYYMMDD_HHMMSS: 2023/02/06 01:17:36.4746400
DATE_TIME_FIRST_SAMPLE_PRECISION: millisecond
SAMPLING_INTERVAL_S: 0.01
NDATA: 12501
DURATION_S: 
STREAM: HNN
UNITS: cm/s^2
INSTRUMENT: sensor = GMS+/GEOSIG | digitizer = 
INSTRUMENT_ANALOG/DIGITAL: 
INSTRUMENTAL_FREQUENCY_HZ: 
INSTRUMENTAL_DAMPING: 
FULL_SCALE_G: 
N_BIT_DIGITAL_CONVERTER: 
PGA_CM/S^2: 17.428
TIME_PGA_S: 
BASELINE_CORRECTION: BASELINE REMOVED
FILTER_TYPE: BUTTERWORTH
FILTER_ORDER: 
LOW_CUT_FREQUENCY_HZ: 
HIGH_CUT_FREQUENCY_HZ: 
LATE/NORMAL_TRIGGERED: 
DATABASE_VERSION: 
HEADER_FORMAT: DYNA 1.2
DATA_TYPE: Acceleration
PROCESSING: Automatic Paolucci et al., 2011
DATA_TIMESTAMP_YYYYMMDD_HHMMSS: 
DATA_LICENSE: U (unknown license)
DATA_CITATION: Turkish Accelerometric Archive v 1.0 - Disaster And Emergency Management Presidency, Earthquake Department
DATA_CREATOR: AFAD
ORIGINAL_DATA_MEDIATOR_CITATION: : AFAD - Disaster And Emergency Management Presidency
ORIGINAL_DATA_MEDIATOR: AFAD PROCESS SERVICE
ORIGINAL_DATA_CREATOR_CITATION: AFAD PROCESS SERVICE
ORIGINAL_DATA_CREATOR: network: TK
USER1: GuestUser
USER2: 
USER3: 
USER4: 
USER5: 
[...]
-5.143255
-5.704354
-6.253504
-6.844996
-7.386093
-7.572867
-7.361416
-7.052293
-6.728623
-6.082321
-4.982464
-3.739215
-2.722484
-2.116706
-1.853561
-1.697961
-1.432219
-0.926191
-0.333921
-0.151305
-0.735004
-1.829926
-2.889260
-3.552968
-3.674799
-3.329828
-2.837568
-2.546889
-2.372325
-1.934357
-1.207786
-0.498621
0.063257
0.616562
1.155320
1.405216
1.289619
1.202337
1.449375
1.807595
1.995666
1.974625
1.718753
1.434566
1.754859
3.001745
4.679326
6.024663
6.640053
6.537184
5.999204
5.357577
4.546841
3.259690
1.477422
-0.522012
-2.233364
-3.065141
-3.015266
-2.816544
-2.915776
-3.173986
-3.594031
-4.182406
-4.558291
-4.457242
-4.028106
-3.324395
-2.216745
-0.949597
0.089214
1.011909
2.109168
3.193959
3.787268
3.693491
3.024329
2.081371
1.393764
1.520011
2.467384
3.379948
3.375791
2.389972
1.082299
0.294942
0.439892
1.067491
1.064114
-0.202775
-2.280919
-4.326332
-5.827272
-6.696196
-6.942716
-6.645802
-6.107044
-5.596860
-5.127460
-4.700922
-4.569220
-4.866914
-5.349564
-5.707005
-5.631932
-4.898348
-3.690168
-2.534721
-1.820100
-1.556696
-1.606312
-1.779838
-1.834389
-1.810491
-2.035970
-2.536544
-2.911389
-2.877360
-2.543039
-2.219109
-2.172611
-2.347955
-2.479139
-2.604087
-2.938929
-3.364949
-3.597961
-3.651474
-3.796944
-4.143735
-4.459613
-4.411557
-3.770450
-2.516031
-1.121598
-0.401002
-0.703113
-1.639057
-2.684883
-3.539001
-4.025546
-4.024248
-3.504713
-2.434989
-0.776631
1.127467
2.656721
3.357314
3.203791
2.703997
2.336165
2.088346
1.791690
1.497373
1.216563
0.786387
0.371017
0.365302
0.819116
1.440480
1.912738
2.004176
1.748564
1.623874
2.124966
3.196249
4.316887
5.125544
5.782497
6.555565
7.397213
8.136772
8.551101
8.350819
7.511509
6.427756
5.497527
4.643150
3.673695
2.675926
1.849864
1.330587
1.049518
0.823519
0.408150
-0.325176
-1.193321
-1.866640
-2.054972
-1.748446
-1.256706
-0.930438
-0.866016
-0.977977
-1.331781
-1.962758
-2.707513
-3.459022
-4.160916
-4.763578
-5.277919
-5.653284
-5.807067
-5.795378
-5.662377
-5.282597
-4.624346
-3.772567
-2.603872
-1.025263
0.594649
1.792699
2.552779
3.080367
3.347408
3.143230
2.381070
1.192632
-0.107767
-1.081378
-1.551039
-1.741189
-1.925106
-2.260467
-2.731686
-3.190437
-3.570218
-3.906358
-4.141449
-4.200417
-4.121707
-3.854407
-3.274605
-2.392694
-1.212049
0.276940
1.825157
3.066847
3.900441
4.466475
4.700266
4.283338
3.197248
1.724882
0.055613
-1.526114
-2.611945
-3.343452
-4.425905
-6.062184
-7.552992
-8.242677
-8.153057
-7.537408
-6.466385
-5.051170
-3.632318
-2.552723
-1.934996
-1.615741
-1.272848
-0.658498
0.253287
1.380939
2.584963
3.475447
3.789766
3.738851
3.566624
3.289191
2.891746
2.279472
1.234166
-0.065194
-1.039324
-1.452875
-1.558341
-1.530287
-1.232334
-0.627075
0.095599
0.817753
1.647192
2.647817
3.552848
4.046147
4.051601
3.746893
3.421663
3.170987
2.724965
1.802268
0.595906
-0.478755
-1.208703
-1.578873
-1.911117
-2.773807
-4.139667
-5.206274
-5.406816
-4.889878
-4.053686
-3.317244
-3.044748
-3.089169
-2.831220
-1.962037
-0.725802
0.596936
1.923051
3.149155
4.141208
4.780236
4.917653
4.674250
4.601514
5.202097
6.282731
6.973454
6.776549
6.273638
6.235971
6.602763
6.979426
7.350893
7.738726
7.915108
7.731971
7.238931
6.450795
5.512773
4.838155
4.605662
4.513704
4.093658
3.208109
2.073182
0.799020
-0.441112
-1.260421
-1.541231
-1.590327
-1.632930
-1.485902
-1.017541
-0.345262
0.383127
0.784468
0.435859
-0.388126
-0.986112
-1.240425
-1.559161
-2.126235
-2.739807
-3.146344
-3.293893
-3.232848
-3.070754
-3.068936
-3.333380
-3.305845
-2.271709
-0.585297
0.671980
1.027601
0.708086
0.055549
-0.719599
-1.489292
-2.075329
-2.281326
-2.063121
-1.547482
-0.868449
-0.236954
0.166984
0.599238
1.366592
2.288508
2.982347
3.344723
3.532275
3.572798
3.379790
2.986241
2.610356
2.488784
2.643346
2.930129
3.211197
3.352251
3.068064
2.195244
0.909132
-0.517254
-1.782844
-2.573838
-2.704761
-2.219256
-1.325135
-0.313859
0.380240
0.406476
-0.028116
-0.246581
0.262304
1.477498
2.938432
4.033353
4.553668
5.027744
6.025771
7.406178
8.620592
9.349500
9.747464
10.180237
10.673796
10.786794
10.090096
8.645526
6.978075
5.679755
5.019424
4.665880
4.073608
3.228583
2.518117
2.073913
1.803754
1.834666
2.380957
3.370932
4.432603
5.188787
5.327243
4.717827
3.830459
3.369371
3.571729
4.246866
5.159170
5.944448
6.061603
5.554535
5.148777
5.064872
4.756267
4.039047
3.168564
2.084292
0.870396
0.069012
-0.282455
-0.874466
-1.921591
-2.792334
-2.995213
-2.581663
-1.866523
-1.231910
-0.931619
-0.928242
-0.853690
-0.254405
0.850387
1.778278
1.881405
1.242115
0.329031
-0.660945
-1.567536
-2.061615
-2.309694
-2.852609
-3.632693
-4.130149
-4.296401
-4.444469
-4.562404
-4.553313
-4.518765
-4.432003
-4.158727
-3.860514
-3.952213
-4.377194
-4.468113
-3.674003
-2.075651
-0.393655
0.652430
0.928303
0.806731
0.736334
0.775558
0.730878
0.598655
0.511113
0.479680
0.554753
0.935832
1.591745
2.158039
2.401961
2.432872
2.237526
1.538490
0.374730
-0.818645
-1.702895
-2.256461
-2.621176
-2.886400
-3.119412
-3.328526
-3.382818
-3.192148
-2.925627
-2.950565
-3.413992
-4.051463
-4.472028
-4.543464
-4.368122
-3.845989
-2.836011
-1.657445
-0.744621
-0.068186
0.619419
1.297413
1.825781
2.191274
2.206340
1.465221
0.064812
-1.105703
-1.379239
-1.143111
-1.177920
-1.798766
-2.947460
-4.401122
-5.607485
-6.096888
-6.128061
-6.224695
-6.486541
-6.872297
-7.381183
-7.685112
-7.530031
-7.257535
-7.094142
-6.618507
-5.558914
-4.338006
-3.323872
-2.441441
-1.751238
-1.412501
-1.146240
-0.577349
0.157794
0.592645
0.506921
0.174418
-0.068466
-0.161203
-0.069246
0.311833
0.850851
1.121528
0.954497
0.614201
0.304817
-0.057041
-0.438121
-0.359931
0.537307
2.059546
3.784924
5.259886
6.067764
6.156604
5.973467
5.862546
5.712139
5.391326
4.918288
4.385243
4.034816
4.037673
4.148853
3.862588
2.949244
1.599749
0.187130
-1.012479
-2.010248
-2.788513
-3.153747
-3.143876
-2.977106
-2.588234
-1.710738
-0.485933
0.502483
0.905123
0.808489
0.367662
-0.282537
-0.862860
-1.234848
-1.740357
-2.663572
-3.711217
-4.415448
-4.756524
-5.029541
-5.291907
-5.513489
-5.774816
-5.941328
-5.756634
-5.231124
-4.556247
-3.770190
-2.864120
-2.009744
-1.354090
-0.805201
-0.070578
1.075258
2.567364
4.167534
5.590023
6.552463
6.900551
6.752743
6.389067
5.950318
5.451823
4.905531
4.340535
3.855028
3.621496
3.716571
3.904642
3.853987
3.548759
3.320942
3.357309
3.482777
3.680979
4.014780
4.211684
4.031664
3.661494
3.460693
3.572913
4.115827
5.055927
5.666900
5.199577
4.029582
3.192609
3.056750
3.292099
3.532384
3.476533
3.077789
2.684760
2.617479
2.800875
2.986089
3.275730
3.931903
4.836414
5.602210
6.057842
6.384889
6.601795
6.490094
5.897044
4.759779
3.296766
1.911423
0.763248
-0.329596
-1.552324
-2.872465
-4.181696
-5.276359
-6.028128
-6.691575
-7.595309
-8.625808
-9.276528
-9.281204
-8.669451
-7.362299
-5.535612
-3.917778
-3.137955
-2.948325
-2.568285
-1.545839
0.178760
2.349380
4.359724
5.593101
5.873650
5.600374
5.405807
5.722463
6.582035
7.632016
8.269486
8.088168
7.333801
6.447473
5.511788
4.604938
3.915773
3.386885
2.981127
3.073344
3.953437
5.194348
6.057297
6.206922
5.868704
5.644524
5.935983
6.501497
6.845949
6.837895
6.624366
6.320177
6.032613
5.742452
5.179794
4.073962
2.572243
1.198070
0.301091
-0.257930
-0.897739
-1.799134
-2.716116
-3.221365
-3.114601
-2.597144
-1.973701
-1.467154
-1.193359
-1.091531
-0.888912
-0.247546
0.924527
2.342080
3.489734
4.065639
4.104344
3.699365
2.930192
1.719413
-0.128317
-2.441551
-4.606717
-6.186886
-7.370389
-8.545839
-9.686221
-10.383179
-10.285247
-9.495813
-8.498305
-7.706532
-7.261550
-7.050360
-6.755264
-6.014926
-4.823371
-3.511024
-2.251929
-1.060894
0.035846
1.047382
1.972674
2.585466
2.581829
2.016574
1.129725
0.216121
-0.433299
-0.739306
-0.631243
-0.008580
0.956197
1.799663
2.331667
2.748075
3.150455
3.571278
4.161471
4.890898
5.400043
5.610195
5.921396
6.479377
6.987483
7.345702
7.888617
8.848718
9.888049
10.595657
10.944524
10.934393
10.519024
9.795050
8.993405
8.162667
7.092683
5.897230
5.039995
4.649823
4.362260
3.985076
3.673354
3.429172
3.138751
2.913272
2.984448
3.188105
3.042115
2.355548
1.269977
0.006985
-1.235485
-2.176365
-2.560043
-2.530430
-2.467827
-2.507831
-2.415095
-1.872180
-0.776999
0.628864
1.747684
2.046417
1.580912
0.935648
0.707052
1.169178
2.256307
3.647104
4.980492
5.996963
6.524292
6.534682
6.095933
5.297406
4.174689
2.599455
0.581058
-1.423571
-2.762935
-3.215452
-3.100375
-2.856194
-2.867364
-3.123756
-3.209220
-2.951531
-2.514082
-2.015848
-1.458906
-0.904821
-0.410483
0.056319
0.379989
0.418694
0.270886
0.011897
-0.559853
-1.543595
-2.600331
-3.342748
-3.603296
-3.279886
-2.388103
-1.220706
-0.158776
0.746255
1.734932
2.943631
4.171034
5.164646
6.032790
6.995229
7.977411
8.704761
9.031289
9.060382
8.991284
9.091294
9.615245
10.366753
10.673798
10.123609
9.037000
7.948831
6.997041
6.138248
5.390895
4.710302
4.142189
3.923724
4.081922
4.264279
4.273630
4.225053
4.019836
3.504975
2.840748
2.153921
1.225250
-0.198278
-2.010940
-3.917117
-5.513651
-6.465182
-6.921854
-7.331509
-7.906376
-8.511635
-9.013767
-9.432774
-9.869704
-10.373914
-10.798895
-10.963068
-10.789025
-10.167660
-8.965195
-7.265794
-5.454692
-4.031165
-3.267447
-2.984301
-2.808698
-2.517759
-2.071218
-1.669098
-1.615846
-1.874835
-1.960559
-1.675594
-1.599743
-2.136943
-2.889491
-3.422795
-3.729842
-3.934279
-4.198724
-4.762421
-5.602770
-6.413247
-7.113322
-7.914447
-8.806490
-9.456170
-9.701132
-9.674896
-9.541116
-9.483968
-9.714382
-10.258337
-10.870091
-11.124404
-10.651887
-9.515922
-8.246956
-7.260099
-6.457156
-5.461726
-3.977932
-2.182677
-0.687453
0.077563
0.169520
-0.224029
-1.139451
-2.603764
-4.423958
-6.283637
-7.908746
-9.199273
-10.166650
-10.899975
-11.533809
-11.997236
-11.888913
-10.911147
-9.278506
-7.513903
-6.073231
-5.109752
-4.459034
-3.930407
-3.606737
-3.691162
-3.991454
-4.011457
-3.642327
-3.276314
-3.368273
-3.986001
-4.693610
-4.973380
-4.684779
-4.153294
-3.832221
-3.965743
-4.410206
-4.690756
-4.556197
-4.271232
-4.249152
-4.610750
-5.156263
-5.583841
-5.603065
-5.214712
-4.845323
-4.877534
-5.296540
-5.842054
-6.242357
-6.396140
-6.399257
-6.393023
-6.391206
-6.196120
-5.617358
-4.775970
-3.898994
-3.023317
-2.213881
-1.652783
-1.353011
-1.137924
-0.879975
-0.564357
-0.211593
0.170006
0.585894
1.032954
1.532487
2.075661
2.395955
2.077479
0.978660
-0.605665
-2.375725
-4.344766
-6.371216
-8.198164
-9.830287
-11.368893
-12.797357
-13.883967
-14.379864
-14.221406
-13.653035
-13.020240
-12.458623
-11.961687
-11.416695
-10.685189
-9.685083
-8.546261
-7.463808
-6.341352
-5.073425
-3.733542
-2.422494
-1.302635
-0.553465
-0.002498
0.710305
1.401027
1.587800
1.213214
0.505086
-0.398127
-1.241335
-1.465515
-0.818953
0.153358
0.721729
0.711338
0.291033
-0.518664
-1.716974
-2.957366
-3.859021
-4.533639
-5.114740
-5.205400
-4.413628
-3.027247
-1.691261
-0.731159
-0.212663
-0.078364
-0.057583
0.203743
0.852383
1.538170
1.703642
1.200471
0.364797
-0.454512
-1.192253
-1.844791
-2.213921
-2.113911
-1.719844
-1.324218
-1.033538
-0.936126
-1.073024
-1.226807
-1.154072
-0.908333
-0.713507
-0.659216
-0.615056
-0.310349
0.535715
2.011456
3.900488
5.807443
7.406574
8.552150
9.323141
9.800854
9.796177
9.300280
8.698917
8.066381
7.189404
6.332689
5.932906
5.938880
6.065646
6.159681
6.094479
5.688981
4.871231
3.672661
2.055865
0.136959
-1.568158
-2.484360
-2.532158
-2.224074
-2.125103
-2.456827
-3.224182
-4.264813
-5.173481
-5.729125
-6.273859
-7.243833
-8.731784
-10.502623
-12.157085
-13.449951
-14.366413
-14.960762
-15.241831
-15.104934
-14.535783
-13.757259
-12.814302
-11.468705
-9.770603
-8.014052
-6.272829
-4.602002
-3.235363
-2.275781
-1.564797
-1.092799
-1.090981
-1.468944
-1.990299
-2.686218
-3.523710
-4.341200
-5.068291
-5.816943
-6.694179
-7.531931
-8.030427
-7.967563
-7.308533
-6.195947
-4.844115
-3.377206
-1.817560
-0.254797
1.093138
2.011937
2.664214
3.422216
4.267500
4.826001
4.887825
4.418164
3.395977
1.980761
0.428127
-1.189448
-2.963923
-4.799704
-6.629769
-8.305793
-9.441498
-9.914277
-9.902328
-9.584632
-8.993920
-8.345800
-7.590655
-6.409751
-4.657097
-2.597398
-1.056715
-0.246239
-0.001279
-0.272217
-0.724214
-1.253102
-1.993701
-2.879770
-3.766618
-4.708017
-5.737998
-6.898122
-8.343731
-9.814797
-10.848414
-11.477572
-12.075039
-12.720823
-13.066315
-12.886816
-12.259736
-11.199364
-9.741028
-8.096697
-6.340926
-4.305645
-1.933964
0.318223
2.044640
3.350753
4.239418
4.698428
4.898968
5.074311
5.360574
5.533579
5.456687
4.998976
3.993674
2.684183
1.481197
0.798786
0.745533
0.982441
1.265328
1.691866
2.400253
3.149163
3.720392
4.255514
4.740760
5.366800
6.292612
7.194786
7.715100
7.557940
6.985152
6.162206
4.718675
2.786001
0.791243
-0.931798
-1.968792
-2.139200
-1.778124
-1.465104
-1.486925
-1.621745
-1.509266
-1.013629
-0.142368
0.970217
2.137354
3.388396
4.910895
6.920459
9.316818
11.730321
13.792618
15.381358
16.617074
17.302861
17.428328
17.202589
16.719940
16.123252
15.277448
14.033418
12.349083
10.318736
8.302157
6.475728
4.665145
2.570376
0.101542
-2.548092
-5.107326
-7.354838
-9.136068
-10.355679
-11.000163
-11.001982
-10.224497
-8.694465
-6.708280
-4.649360
-2.850987
-1.565396
-0.804796
-0.389687
-0.300847
-0.757520
-1.721779
-2.720847
-3.392088
-3.826160
-4.238413
-4.560266
-4.722102
-4.814060
-4.800033
-4.583647
-4.192956
-3.891626
-3.982805
-4.572739
-5.362434
-5.738059
-5.493098
-4.967328
-4.746006
-5.251775
-6.335527
-7.508900
-8.269760
-8.431856
-8.226900
-7.961158
-7.806856
-7.593847
-7.049114
-6.294229
-5.420370
-4.223620
-2.635919
-0.833130
0.982647
2.772708
4.445353
5.669898
6.212033
6.202681
5.941094
5.595602
5.183870
4.648488
3.883470
2.840242
1.762724
1.168115
1.399048
2.338628
3.471995
4.324033
4.837334
5.134768
5.369857
5.622611
5.733272
5.487271
4.887726
4.269738
4.007631
4.196222
4.699132
5.236072
5.409856
4.837068
3.640316
2.513183
1.894155
1.746087
1.965331
2.304587
2.144050
1.075364
-0.475191
-2.050424
-3.670857
-5.186604
-6.160214
-6.432711
-6.382317
-6.285684
-6.049295
-5.678607
-5.133874
-4.204425
-2.819863
-1.149296
0.488541
1.997792
3.460285
4.693922
5.474264
5.794817
5.786764
5.619473
5.378408
5.155526
5.121756
5.212934
5.074997
4.576761
3.970203
3.532493
3.386763
3.676663
4.500127
5.659990
6.836998
7.791905
8.482887
9.103732
9.814716
10.528558
11.001854
11.108878
10.918987
10.541804
9.931608
8.929943
7.649027
6.441365
5.490874
4.866391
4.583503
4.261391
3.395584
2.082976
0.702828
-0.724077
-2.119551
-3.004581
-3.031597
-2.232032
-0.835261
0.823097
2.406382
3.666516
4.637528
5.470603
6.231463
6.971281
7.525625
7.641481
7.304562
6.758269
6.137943
5.245640
3.914329
2.065820
-0.352360
-3.187988
-6.180515
-9.096930
-11.707858
-13.818472
-15.247197
-15.867263
-15.757642
-15.095494
-13.999014
-12.614192
-11.219758
-10.083274
-9.256433
-8.575322
-7.818618
-6.839813
-5.554742
-4.014579
-2.546371
-1.495610
-0.970100
-0.907497
-1.130378
-1.478208
-1.892278
-2.431557
-3.058118
-3.527779
-3.755596
-3.725983
-3.272428
-2.321678
-1.146749
-0.088714
0.936589
2.131002
3.334766
4.165763
4.447870
4.428127
4.534372
5.099626
6.256892
7.820954
9.374366
10.600989
11.424973
11.905283
12.109460
12.087899
11.912295
11.598755
11.012458
10.068461
8.963408
7.989797
7.176203
6.342607
5.524858
4.899336
4.440066
4.108601
4.016643
4.264461
4.868940
5.682013
6.323120
6.471187
6.136086
5.540957
5.037267
5.014147
5.561737
6.410139
7.352057
8.408532
9.494881
10.373156
10.896588
10.935293
10.273923
8.821820
6.797968
4.448626
1.822891
-0.905452
-3.339478
-5.112914
-6.027817
-6.095877
-5.642063
-5.180975
-4.883801
-4.533375
-4.012281
-3.297660
-2.378861
-1.521887
-1.061839
-0.960270
-1.008587
-1.253030
-1.786593
-2.345874
-2.594473
-2.527453
-2.461213
-2.732931
-3.338190
-3.897991
-3.915915
-3.207529
-2.015194
-0.727006
0.326093
1.100201
1.836123
2.787912
4.025446
5.357016
6.438949
6.977707
6.867045
6.176062
5.192320
4.449643
4.343917
4.749674
5.253364
5.623273
5.879663
6.217361
6.814047
7.552047
8.133148
8.394993
8.463831
8.480456
8.309788
7.713620
6.667274
5.401684
4.183112
3.114167
2.067821
0.950819
-0.054744
-0.618440
-0.569605
-0.087736
0.371274
0.412317
0.043186
-0.385432
-0.382315
0.437252
1.918968
3.338080
4.061013
4.042309
3.581740
3.007653
2.505521
1.868569
0.660388
-1.204226
-3.398227
-5.578979
-7.456322
-8.835171
-9.666429
-9.997634
-9.991659
-9.814758
-9.518623
-9.003504
-8.099252
-6.699623
-4.913719
-3.081836
-1.489719
-0.222312
0.711034
1.231348
1.243297
0.689991
-0.357914
-1.606618
-2.920265
-4.578365
-6.822500
-9.343029
-11.478841
-12.872237
-13.701936
-14.339407
-14.922846
-15.312239
-15.277690
-14.724905
-13.870529
-13.009399
-12.172167
-11.184790
-10.018692
-8.872337
-7.914053
-7.160467
-6.557546
-6.058792
-5.616148
-5.225198
-4.884643
-4.478886
-3.926620
-3.238235
-2.387756
-1.447396
-0.638739
-0.088032
0.220312
0.233560
-0.128557
-0.661601
-1.116456
-1.558841
-2.096561
-2.755593
-3.537495
-4.423044
-5.443933
-6.499370
-7.199445
-7.154246
-6.321950
-4.904917
-3.154341
-1.390518
0.196144
1.746958
3.408693
5.034320
6.445379
7.558484
8.319084
8.927460
9.718453
10.708948
11.539945
11.865693
11.684115
11.271603
10.947412
10.837010
10.809734
10.676732
10.382415
10.003153
9.622592
9.218133
8.605340
7.440021
5.492800
2.930708
0.164439
-2.465192
-4.791674
-6.771366
-8.493628
-10.066523
-11.453425
-12.526007
-13.173089
-13.350511
-13.122176
-12.660569
-12.021021
-11.065075
-9.761560
-8.311536
-6.936066
-5.696973
-4.619456
-3.776510
-3.148651
-2.622622
-2.219722
-1.971125
-1.607710
-0.914650
-0.064430
0.635125
0.958275
0.807090
0.262096
-0.320564
-0.516689
-0.239517
0.324698
1.014382
1.793945
2.643385
3.426325
4.001451
4.412403
4.884661
5.623700
6.653419
7.764706
8.584533
8.859107
8.666359
8.309697
7.970440
7.548576
7.041509
6.791352
7.078395
7.775611
8.574657
9.323307
9.924150
10.176124
10.070658
9.906225
9.827774
9.678147
9.359671
8.913130
8.328651
7.551945
6.778096
6.352595
6.395716
6.882781
7.632210
8.225520
8.134860
7.115530
5.613812
4.308737
3.504755
3.057174
2.639467
2.192925
1.911596
1.933936
2.226174
2.630632
2.931962
2.966251
2.789608
2.715574
3.113798
4.028440
5.213241
6.424279
7.425424
8.020292
8.156669
7.999769
7.828062
7.757664
7.709347
7.592451
7.446980
7.424899
7.603360
7.917159
8.248622
8.420588
8.315901
8.119776
8.175625
8.453836
8.551508
8.273296
7.755319
7.378395
7.603353
8.450976
9.408220
9.965421
10.039715
9.724096
8.926088
7.526718
5.554300
3.189112
0.731967
-1.458916
