EVENT_NAME: 202302060117
EVENT_ID: 13194
EVENT_DATE_YYYYMMDD: 2023/02/06
EVENT_TIME_HHMMSS: 01:17:32.00000
EVENT_LATITUDE_DEGREE: 37.288
EVENT_LONGITUDE_DEGREE: 37.043
EVENT_DEPTH_KM: 8.6
HYPOCENTER_REFERENCE: AFAD
MAGNITUDE_W: 7.7
MAGNITUDE_W_REFERENCE: AFAD
MAGNITUDE_L: 
MAGNITUDE_L_REFERENCE: 
FOCAL_MECHANISM: 
NETWORK: TK
STATION_CODE: 0125
STATION_NAME: 
STATION_LATITUDE_DEGREE: 37.01519
STATION_LONGITUDE_DEGREE: 35.79577
STATION_ELEVATION_M: 25.0
LOCATION: Kahramanmaras_Pazarck_Turkiye
SENSOR_DEPTH_M: 
VS30_M/S: 208
SITE_CLASSIFICATION_EC8: C
MORPHOLOGIC_CLASSIFICATION: 
EPICENTRAL_DISTANCE_KM: 114.62
EARTHQUAKE_BACKAZIMUTH_DEGREE: 
DATE_TIME_FIRST_SAMPLE_YYYYMMDD_HHMMSS: 2023/02/06 01:17:31.8047210
DATE_TIME_FIRST_SAMPLE_PRECISION: millisecond
SAMPLING_INTERVAL_S: 0.01
NDATA: 12501
DURATION_S: 
STREAM: HNZ
UNITS: cm/s^2
INSTRUMENT: sensor = CMG-5T/GURALP | digitizer = 
INSTRUMENT_ANALOG/DIGITAL: 
INSTRUMENTAL_FREQUENCY_HZ: 
INSTRUMENTAL_DAMPING: 
FULL_SCALE_G: 
N_BIT_DIGITAL_CONVERTER: 
PGA_CM/S^2: 35.149
TIME_PGA_S: 
BASELINE_CORRECTION: BASELINE REMOVED
FILTER_TYPE: BUTTERWORTH
FILTER_ORDER: 
LOW_CUT_FREQUENCY_HZ: 
HIGH_CUT_FREQUENCY_HZ: 
LATE/NORMAL_TRIGGERED: 
DATABASE_VERSION: 
HEADER_FORMAT: DYNA 1.2
DATA_TYPE: Acceleration
PROCESSING: Automatic Paolucci et al., 2011
DATA_TIMESTAMP_YYYYMMDD_HHMMSS: 
DATA_LICENSE: U (unknown license)
DATA_CITATION: Turkish Accelerometric Archive v 1.0 - Disaster And Emergency Management Presidency, Earthquake Department
DATA_CREATOR: AFAD
ORIGINAL_DATA_MEDIATOR_CITATION: : AFAD - Disaster And Emergency Management Presidency
ORIGINAL_DATA_MEDIATOR: AFAD PROCESS SERVICE
ORIGINAL_DATA_CREATOR_CITATION: AFAD PROCESS SERVICE
ORIGINAL_DATA_CREATOR: network: TK
USER1: GuestUser
USER2: 
USER3: 
USER4: 
USER5: 
[...]
1.883112
1.682822
1.529809
1.539071
1.906745
2.325849
2.359708
1.979254
1.287985
0.317525
-0.371508
-0.347871
0.110204
0.327742
0.177603
0.062604
0.127129
0.129044
0.296110
0.947127
1.751156
2.014053
1.364950
-0.246625
-2.074142
-3.136600
-3.556984
-3.719900
-3.203367
-1.771320
0.137971
2.037359
3.434587
3.830052
2.927314
1.064978
-0.672776
-1.638444
-2.052759
-2.508281
-3.304327
-3.782210
-3.396328
-2.574092
-1.782840
-0.925785
0.228669
1.466817
2.105056
1.710227
0.679713
-0.219192
-0.628396
-0.504774
-0.389777
-0.533527
-0.723595
-1.148132
-1.725041
-2.124023
-2.277994
-2.250843
-1.730158
-0.388512
1.393322
3.320501
5.325623
6.550035
6.452604
5.941180
5.722362
5.627807
5.274505
4.498265
3.382460
2.355459
1.633843
1.095586
0.811603
0.728547
0.626325
0.422521
0.034080
-0.736410
-2.053781
-3.760230
-5.141170
-5.664414
-5.624804
-5.642375
-5.952553
-6.312882
-6.362397
-5.645894
-3.919962
-1.380417
1.294251
3.332915
4.528577
5.342827
5.737015
5.526502
5.152756
4.793066
4.207531
3.341528
2.207835
1.003865
0.372970
0.514161
1.104804
1.657114
1.677237
1.174757
0.635541
0.465917
0.572289
0.702619
1.170917
2.414175
3.885194
4.387352
3.511127
1.797651
-0.052227
-1.273127
-1.260351
0.081614
2.126667
3.774975
4.302688
3.474379
1.970775
0.877970
0.430752
0.052534
-0.716678
-1.562237
-1.993163
-2.199203
-2.213259
-1.467688
0.206814
2.287005
4.370390
6.268819
7.782963
8.865224
9.619100
9.614946
8.642570
7.344046
5.849705
3.788358
1.872037
0.856537
0.245766
-0.229562
-0.104343
0.842795
2.309342
4.000455
5.573056
6.841869
7.858326
8.701965
9.015334
8.632324
8.335883
9.028427
10.229839
11.335738
11.989310
11.463830
9.661869
7.532162
6.026322
5.530230
5.528312
5.098984
4.163662
3.847735
4.486294
5.097700
5.289363
5.250390
5.581967
6.634839
7.638518
7.729237
6.855248
5.634667
4.744707
3.909051
2.740219
1.830133
1.679676
1.992406
2.875975
4.313773
5.353867
4.973733
3.252909
0.725499
-1.892311
-3.823965
-4.984811
-5.349613
-4.681985
-3.335867
-1.901903
-0.641075
-0.116876
-1.110335
-3.387623
-5.990740
-8.475664
-10.328416
-11.138517
-11.340724
-11.031188
-9.985343
-8.343743
-6.948112
-6.746227
-7.803255
-9.666230
-11.460525
-11.893367
-10.605706
-8.877858
-7.648974
-6.443729
-5.041709
-3.826242
-3.088976
-3.190240
-4.471514
-6.267726
-7.769414
-8.862858
-9.750583
-10.478268
-10.793876
-10.673448
-10.602854
-10.534814
-10.063323
-9.212336
-7.795303
-6.128467
-4.438632
-2.556174
-1.148404
-0.481096
-0.157185
-0.583319
-2.228116
-4.560348
-6.832205
-8.737665
-10.329435
-11.328325
-11.387742
-11.152636
-11.467286
-12.027265
-12.059210
-11.444929
-10.586276
-9.846135
-9.302131
-8.908902
-8.644726
-8.666450
-8.556244
-7.838784
-6.968951
-6.546014
-6.615653
-6.732569
-6.301646
-5.537867
-4.613729
-3.460553
-2.296835
-1.459904
-1.108202
-1.316798
-1.427964
-0.323981
2.077246
4.748720
6.417153
6.546844
5.865158
5.537412
5.542841
5.411869
5.304855
5.784014
7.173895
9.364931
11.557565
13.072028
13.743808
13.608684
12.804972
11.376116
9.793610
8.935274
9.281226
10.221975
11.003323
11.263026
10.411718
8.312997
5.764824
3.136152
0.264067
-1.791530
-1.487424
1.153064
4.559888
7.020212
7.838296
7.122111
5.528424
4.144290
3.193316
2.080387
1.414992
1.991899
3.219505
4.413570
5.616579
7.097181
7.966056
7.099414
5.169996
4.038539
4.511628
5.364850
5.131977
3.569596
1.008326
-2.012299
-4.697192
-6.669415
-8.303670
-9.910454
-11.410864
-12.361199
-12.344909
-11.550783
-10.580007
-9.712090
-9.199710
-9.577928
-10.584485
-11.470932
-12.147507
-12.884775
-13.473504
-13.200065
-11.798045
-9.467733
-6.911896
-3.905010
-0.303647
2.475797
2.861041
2.034648
1.955426
2.476750
3.660593
5.274401
6.785670
7.620045
7.339895
6.198535
4.802582
3.642056
3.529931
4.358876
4.543830
3.574968
2.561703
1.683881
0.431995
-1.496145
-3.578575
-4.912876
-5.176735
-4.333415
-2.707149
-1.054368
0.227542
0.523023
-0.579046
-1.734461
-1.761296
-0.842588
0.760360
2.572540
3.668857
3.755423
3.233777
2.589465
1.942918
1.610379
1.703654
1.826637
2.030119
2.328794
2.965117
3.819297
4.439648
5.014000
5.821862
6.476712
6.723318
7.183949
8.150572
9.534704
11.200581
12.781487
13.946483
14.863274
15.331252
15.096462
13.954464
11.677495
9.194807
7.598884
6.724257
6.022127
5.611965
5.298273
4.612435
3.426992
1.368520
-1.416038
-4.186541
-5.934198
-6.345638
-5.570678
-3.851774
-1.905109
-0.691239
-0.588061
-1.902238
-4.760587
-8.430313
-12.321411
-16.179287
-19.876805
-23.318770
-25.206981
-25.179191
-24.334913
-22.959406
-21.529275
-20.087006
-18.124688
-15.989235
-14.185040
-12.722965
-11.811285
-11.561165
-11.911912
-12.307699
-11.864637
-10.329730
-8.187249
-6.444706
-4.631247
-2.551376
-0.979414
-0.142163
-0.311468
-0.971752
-1.092821
-0.360027
1.449279
4.064531
6.884545
8.678517
8.595781
7.549614
5.931970
4.533461
4.651333
6.832466
10.534773
14.289467
17.021315
19.329905
21.434054
22.271624
21.221943
19.432440
17.945765
16.829641
16.773419
17.962053
19.718970
21.623150
23.896282
27.023597
30.376755
32.711859
33.301863
32.414458
31.041504
29.493817
27.163502
23.971977
21.429873
20.528413
20.419802
19.844489
18.818447
17.993972
16.718128
14.196149
11.115470
8.363814
6.057776
3.741197
1.666434
0.672016
0.664029
1.171617
1.814010
2.087129
2.002157
1.663230
1.456870
0.987292
-0.313788
-1.910988
-3.630534
-5.065140
-5.818700
-5.624162
-4.830356
-4.046132
-3.871081
-4.335867
-4.866777
-5.254579
-5.514285
-5.779741
-6.157639
-6.325027
-6.447055
-7.172504
-8.791746
-10.652803
-12.207519
-13.443113
-14.284200
-14.853762
-14.797862
-13.814947
-12.881225
-12.629189
-12.525372
-12.097005
-11.781080
-12.089661
-12.743555
-13.677599
-14.577143
-14.446493
-13.053417
-11.674397
-11.045102
-10.525375
-8.931371
-6.271078
-3.543383
-1.848117
-1.462554
-1.554554
-1.288143
-0.609974
0.141667
0.980515
2.000804
3.041857
3.598320
3.806593
4.245183
5.139293
6.277137
7.580450
8.933276
10.334338
11.243782
10.870036
9.606650
8.606802
8.268194
8.292151
8.265955
8.101762
7.549449
6.664280
6.134008
6.075869
6.089923
6.386361
7.679452
9.484925
10.851168
11.710779
12.106883
11.960259
11.363224
10.141366
9.042491
8.695259
8.775117
9.165152
9.692546
9.771446
9.854818
10.346754
11.275364
12.219627
12.305555
10.865199
7.748743
3.574621
-0.043036
-1.898983
-2.453212
-2.073080
-1.583061
-2.022931
-3.329441
-5.363636
-7.446065
-8.197070
-7.637412
-6.839453
-6.240824
-5.842484
-5.586295
-4.934958
-3.759741
-2.558329
-1.432944
-0.308836
0.201947
-0.134425
-1.185064
-2.616156
-3.804154
-3.934487
-2.840726
-0.888631
1.263115
3.177835
4.724242
5.733351
5.973569
5.338840
3.822778
1.907415
0.376658
-0.546205
-1.170073
-1.834828
-2.416530
-2.941690
-3.658834
-4.851943
-6.485879
-7.836472
-8.708544
-9.974805
-12.386258
-15.564366
-17.735600
-18.297177
-18.002974
-17.485802
-17.080434
-16.662609
-15.522849
-13.949928
-12.834765
-13.216497
-15.089055
-17.544910
-19.928571
-21.468272
-22.282207
-22.963893
-23.581052
-23.996964
-23.985785
-22.872858
-20.550851
-17.255192
-13.871686
-11.387085
-10.401614
-10.969899
-12.329756
-13.326410
-13.082678
-11.796296
-9.909685
-7.728871
-5.779331
-4.007400
-1.668782
1.069455
3.673527
6.400903
9.480621
12.841446
16.243479
18.795163
20.201016
20.506718
20.033307
19.672019
19.791808
20.070358
20.603502
20.964467
19.550306
16.052119
11.790471
8.134161
5.684376
4.375310
4.403419
5.773495
7.210015
7.450232
6.295136
4.460272
2.761809
1.537715
0.146233
-2.489147
-6.595547
-10.983693
-14.232717
-16.411298
-17.917778
-18.344870
-18.166944
-18.667507
-20.467872
-22.523468
-23.524914
-23.418861
-22.504626
-21.044148
-19.287869
-17.430328
-15.331290
-13.078283
-10.688555
-8.405520
-6.893293
-6.302331
-6.541273
-7.428678
-8.365277
-8.843799
-8.779593
-7.860247
-6.181273
-4.412855
-2.571605
-0.503234
0.447098
0.493096
0.985032
2.487037
5.080248
7.880456
10.263476
12.907159
15.960683
18.179830
18.944248
19.036565
19.447043
20.057811
20.183030
19.724632
19.087348
17.831310
15.467454
12.725381
10.812893
10.279427
10.899458
11.694862
11.234548
9.399684
6.619279
3.014399
-0.256986
-2.196307
-3.049212
-3.861230
-5.170296
-6.620554
-7.654901
-8.276213
-9.030412
-10.071787
-10.844833
-11.268412
-11.365523
-10.967183
-10.173376
-9.349542
-8.513889
-7.019870
-4.709683
-2.310372
-1.207986
-1.586204
-2.457318
-3.307029
-3.829315
-3.510835
-2.589572
-1.676934
-1.185637
-1.418190
-2.494065
-3.646286
-4.399526
-5.094309
-5.640872
-5.772483
-5.501599
-5.198452
-4.853778
-4.440105
-4.342677
-4.076905
-3.139669
-2.471403
-2.521237
-3.009023
-2.851860
-1.343147
0.357549
0.960970
1.130911
1.997549
3.666621
5.593161
7.029042
8.047095
8.766792
9.015315
9.646846
11.224558
13.260666
16.249344
19.803749
22.274295
22.672635
21.606663
20.623746
19.996684
19.389747
18.686339
18.128596
18.150635
18.023497
16.977011
15.039926
12.290506
9.127731
6.018622
3.960150
3.223201
3.069230
3.053895
3.750592
5.519329
7.568215
8.631948
7.902027
6.845957
6.269686
4.527779
2.087258
-0.184919
-2.964047
-5.078740
-5.602942
-5.669387
-6.414322
-7.773221
-8.968566
-9.428561
-10.012498
-10.976249
-11.854710
-12.633187
-13.591507
-14.590078
-15.519649
-16.611176
-17.388375
-17.436292
-17.009203
-15.956650
-14.130094
-11.440412
-9.017782
-7.760468
-7.200811
-6.951969
-6.620392
-6.138997
-6.227164
-7.366607
-8.487523
-8.438650
-6.851355
-3.988536
-1.475185
-0.259399
0.569546
0.977150
0.577210
0.903037
3.487943
6.183375
7.459216
8.443728
10.330019
12.361016
13.738120
14.327166
14.089501
13.371399
12.387203
10.904682
9.375202
8.820015
9.240715
9.617653
9.267546
8.862175
9.032116
8.091045
5.608996
3.525927
2.106655
0.991169
0.546508
0.657671
1.171329
1.538684
1.807331
1.478307
0.208851
-1.230865
-2.436433
-3.272408
-3.582905
-3.162523
-2.965431
-3.961765
-5.832086
-7.341121
-7.468260
-7.023601
-7.284585
-7.938480
-7.986716
-7.630542
-6.927776
-5.770128
-5.084930
-5.712951
-7.155223
-8.731340
-9.936908
-9.884201
-8.961661
-7.493197
-5.936568
-4.599714
-2.976641
-1.228029
0.680622
2.419013
3.857449
4.426370
4.303064
5.233272
7.913051
10.750314
12.350387
13.196582
13.512826
13.261106
12.732432
12.077579
11.190812
10.436613
9.820413
9.432611
8.820883
7.910158
6.729188
6.116181
5.650117
3.536063
0.257331
-2.323744
-4.069165
-5.268982
-6.652797
-7.646256
-7.989655
-8.216459
-7.897020
-7.979118
-9.398390
-10.816066
-10.552529
-8.677419
-6.231150
-4.595939
-4.625968
-5.280182
-5.558415
-5.584291
-5.540530
-4.984706
-4.966818
-6.146511
-7.317898
-8.387065
-9.269040
-9.316638
-8.079129
-6.395044
-4.779957
-3.366757
-2.176525
-0.881198
1.039592
3.102533
4.666190
5.543690
5.617479
5.712351
6.284466
6.649585
5.973968
4.931634
4.772233
5.945214
8.126987
9.970792
11.424242
13.629334
16.039825
16.695315
15.359416
13.373457
11.711410
9.757076
7.790922
6.742839
6.188929
6.759447
8.932275
12.057354
15.501553
18.728213
21.181190
22.227673
22.067313
21.222074
20.799773
21.600608
22.969086
24.217456
25.075470
24.604614
22.234369
18.547393
14.835182
11.896014
9.727975
7.879695
6.977915
7.444934
8.057618
8.047075
7.519359
5.441402
2.547276
0.598053
-0.539794
-1.811804
-2.908123
-4.257758
-6.337632
-9.037858
-11.619572
-14.005470
-16.563545
-18.668655
-20.148302
-20.535784
-20.176415
-20.010947
-20.991948
-22.693925
-24.212863
-25.742023
-27.298335
-28.025062
-27.827969
-26.838665
-25.822209
-24.805114
-23.327387
-20.979825
-18.097521
-15.631446
-13.713851
-12.126875
-11.174307
-10.527123
-9.435279
-8.353977
-8.246646
-9.026081
-10.125275
-11.153553
-11.796267
-11.540717
-10.055962
-7.453167
-4.603446
-2.103511
-0.036737
1.148703
2.273130
4.103838
6.070628
7.494689
7.972250
8.000040
7.940623
7.594668
7.399169
7.934869
8.269640
7.827534
8.261013
9.130207
8.360675
7.161816
7.877360
10.188186
12.070644
12.917477
14.088223
14.659060
13.056110
10.607602
9.349647
10.156870
12.756789
15.061866
15.761757
15.881226
16.406064
17.105636
17.893054
17.896566
15.815734
13.426323
11.977023
11.493709
11.193115
10.430930
10.618120
11.470704
12.596408
13.528532
13.802930
13.747985
11.934843
9.103327
7.465238
5.301671
1.534515
-2.213793
-3.317779
-0.367753
2.826963
0.882532
-3.374325
-3.176593
1.566448
4.814191
2.827594
-2.233612
-7.056836
-8.994879
-8.052532
-6.816302
-5.993746
-6.497823
-9.383005
-12.413213
-14.198883
-15.997969
-18.203702
-20.094788
-19.988416
-17.332275
-17.091419
-21.700937
-26.276275
-27.063376
-24.969449
-25.256627
-28.116893
-25.831941
-20.186482
-19.500007
-22.504979
-26.063540
-28.766003
-28.409190
-25.539983
-22.281378
-19.169716
-17.290773
-18.931098
-19.943404
-16.293486
-13.139019
-13.285643
-13.263284
-11.907263
-11.108984
-10.066015
-7.811090
-5.596415
-3.285908
-2.872235
-3.907860
-2.205567
0.665876
0.239103
-3.743993
-6.419942
-6.524081
-6.580304
-5.247283
-3.619099
-3.984859
-2.373287
2.074592
2.630416
0.645096
2.227280
4.628188
5.587145
8.319952
11.168076
13.547582
17.592008
21.583727
24.924108
29.220572
31.844449
31.178097
30.203804
31.659170
34.769874
35.149367
32.807552
31.767774
30.483944
27.356307
22.865940
16.869414
13.002594
13.690666
14.999729
14.075908
10.678664
6.849856
4.939285
2.358530
-2.010450
-6.783841
-12.456136
-15.707076
-16.463192
-17.399791
-15.579304
-10.872040
-9.564255
-13.991373
-16.678822
-14.301552
-13.433635
-14.323596
-12.930520
-10.939453
-10.900164
-12.126814
-12.157482
-9.646367
-7.066891
-5.256627
-1.961607
1.487384
1.726323
1.090317
3.181050
5.856037
6.232336
2.764815
-1.853967
-1.982063
-1.046106
-6.252657
-14.056574
-18.107392
-16.475694
-12.398685
-12.310521
-16.634141
-20.308339
-22.133300
-21.399229
-18.005501
-15.177821
-14.630622
-14.814621
-14.719429
-13.666557
-11.357009
-9.464010
-8.632509
-8.460971
-8.626123
-9.246477
-10.878815
-12.192673
-11.304632
-9.254788
-7.806449
-7.892379
-9.586051
-9.755994
-6.581722
-3.747973
-3.306508
-3.529479
-3.972543
-4.713645
-3.541302
0.261308
3.392456
3.272665
1.933891
1.409370
2.162607
3.926553
5.185464
5.059922
3.690163
3.511595
7.057375
10.372840
11.765277
14.207712
16.574121
17.635299
19.375286
21.745209
22.802554
22.124701
20.994841
20.054089
20.484693
21.517760
19.349401
13.812229
8.260683
4.715858
2.182379
0.893757
1.424346
1.790742
1.163361
1.961959
3.548296
2.989594
1.029829
-1.191557
-3.729508
-4.935714
-6.527803
-9.958589
-11.887048
-11.216545
-10.589806
-11.244978
-12.517309
-14.477393
-16.918234
-18.574850
-20.370423
-22.116802
-21.483035
-20.927211
-21.338651
-20.280348
-19.585887
-20.760469
-20.693388
-17.957068
-14.842211
-13.245013
-12.910561
-11.954799
-7.404380
-2.405148
-2.538675
-5.202805
-5.358373
-4.251515
-3.097381
-0.287909
3.765142
7.012886
9.003314
9.633887
7.778259
4.017812
0.282601
-1.751274
-1.089076
1.179584
3.471244
5.828069
7.176743
6.036341
4.279740
3.189171
1.433529
-0.458834
-0.550834
0.845116
2.122555
3.029443
3.873402
4.115216
3.169993
2.443904
3.478888
4.512594
3.611453
2.349345
3.001320
4.915083
5.793541
5.537668
5.452696
5.980409
6.986962
8.105639
8.905196
9.855208
10.891789
11.506710
12.328307
14.220348
16.681631
18.508186
19.291771
20.126466
20.084618
17.767080
15.750775
17.245113
21.348316
23.577366
21.399743
17.557200
15.227204
15.300355
17.598723
18.604638
16.438515
14.633039
14.803619
15.407678
15.092070
13.817185
12.446786
10.021278
7.217553
5.806267
4.268802
1.503729
-0.846391
-2.266942
-4.672325
-8.937167
-13.956846
-18.517490
-21.816027
-23.476477
-24.677891
-27.119371
-29.210745
-28.068430
-25.249375
-22.773718
-20.824178
-20.565433
-21.808375
-22.847833
-23.681572
-24.794183
-25.488966
-24.553967
-21.732676
-17.956579
-14.056539
-10.844893
-8.978407
-7.670941
-5.832566
-4.246549
-3.793265
-3.109346
-1.261707
0.739262
2.681136
5.667897
9.803044
13.123300
13.688388
11.743637
10.012591
9.888008
9.751286
9.180446
8.006184
5.671397
3.703007
2.603813
1.643256
0.703143
-0.168609
-0.541397
-0.813561
-1.514733
-1.910840
-1.716302
-1.561695
-1.618557
-1.480560
-1.090206
-0.463466
-0.248165
-0.978726
-2.317499
-3.763285
-4.965978
-6.048241
-7.156699
-7.901953
-8.442447
-9.202715
-9.661113
-9.151607
-7.978626
-6.970475
-6.676911
-7.962977
-9.479360
-8.922897
-8.279866
-8.242173
-6.278578
-2.800838
0.006398
2.079241
3.985657
5.627257
6.967625
8.133898
9.516433
11.645817
13.450651
13.340443
12.483704
12.661311
14.293008
15.787985
15.664680
14.942106
14.742135
13.597261
11.576803
10.623593
9.844478
7.287361
4.611092
3.879893
3.935155
3.330454
2.341147
1.957179
2.471157
3.614430
5.783745
9.258290
13.087095
15.299214
14.545974
12.156562
10.533487
10.907230
12.274112
13.551551
14.462272
14.032624
11.908348
10.136733
10.644002
12.561918
13.744163
13.740009
13.244876
11.743188
9.472608
7.812478
6.459010
4.952850
3.349899
1.250859
-1.710669
-5.653516
-9.152981
-10.693002
-11.574977
-12.981472
-14.608061
-16.848933
-19.564172
-21.395522
-21.967321
-22.870059
-24.694701
-25.129780
-23.295238
-21.213131
-20.219674
-19.906305
-19.844974
-19.849767
-19.514995
-18.411971
-16.218699
-12.501698
-8.827822
-7.191972
-6.642217
-5.995353
-5.698276
-5.982898
-6.257617
-6.465255
-5.745558
-3.205694
-0.107129
1.733163
2.755688
3.963489
5.900251
7.863208
8.501447
8.856982
10.106949
11.143530
11.207736
11.019265
10.948987
11.108705
11.717876
12.260283
12.643929
13.371292
13.278653
11.788465
9.949768
7.960615
5.498690
3.425525
2.848615
3.920653
4.513852
3.895096
2.691445
0.153813
-2.644161
-3.152711
-2.226976
-2.000814
-1.378546
0.440662
2.023804
2.421186
2.442907
2.805150
2.907369
2.853383
3.905616
5.928627
7.908194
9.617516
10.867482
11.605387
12.412929
13.595494
14.747393
15.690697
16.586725
16.674250
15.362948
13.395836
10.847663
8.047772
5.629611
3.237324
1.031910
-0.761107
-2.184213
-3.486251
-4.102771
-3.548225
-2.371410
-1.560034
-1.139653
-1.762562
-4.357692
-7.112862
-8.708785
-9.757507
-10.594761
-11.585984
-12.428028
-12.792830
-12.521627
-12.145967
-11.532325
-10.236998
-9.142279
-8.036379
-7.077742
-6.604333
-5.840874
-4.334077
-2.771060
-2.159653
-2.898519
-4.245918
-4.967214
-5.609290
-6.321642
-6.632139
-6.717750
-6.086858
-4.839766
-3.930003
-3.123418
-2.031575
-1.606721
-2.493487
-4.744581
-6.892177
-7.934191
-8.401533
-7.719530
-4.954460
-1.843118
-0.467611
-0.208866
1.219667
3.087431
3.259288
2.074804
0.992221
0.353978
0.422018
1.546445
3.256085
4.815589
5.904877
5.365662
3.262468
1.895584
2.200009
4.013148
6.565151
8.661633
9.488023
9.553826
9.469173
8.729988
7.492157
6.777569
6.620084
6.696748
6.437361
6.109934
7.112654
9.087750
10.557491
11.443296
12.341240
13.408168
14.385652
15.001211
16.423995
18.381201
