EVENT_NAME: 202302060117
EVENT_ID: 13194
EVENT_DATE_YYYYMMDD: 2023/02/06
EVENT_TIME_HHMMSS: 01:17:32.00000
EVENT_LATITUDE_DEGREE: 37.288
EVENT_LONGITUDE_DEGREE: 37.043
EVENT_DEPTH_KM: 8.6
HYPOCENTER_REFERENCE: AFAD
MAGNITUDE_W: 7.7
MAGNITUDE_W_REFERENCE: AFAD
MAGNITUDE_L: 
MAGNITUDE_L_REFERENCE: 
FOCAL_MECHANISM: 
NETWORK: TK
STATION_CODE: 4002
STATION_NAME: 
STATION_LATITUDE_DEGREE: 39.36518
STATION_LONGITUDE_DEGREE: 33.712583
STATION_ELEVATION_M: 1112.0
LOCATION: Kahramanmaras_Pazarck_Turkiye
SENSOR_DEPTH_M: 
VS30_M/S: None
SITE_CLASSIFICATION_EC8: unknown
MORPHOLOGIC_CLASSIFICATION: 
EPICENTRAL_DISTANCE_KM: 371.10
EARTHQUAKE_BACKAZIMUTH_DEGREE: 
DATE_TIME_FIRST_SAMPLE_YYYYMMDD_HHMMSS: 2023/02/06 01:17:59.3851810
DATE_TIME_FIRST_SAMPLE_PRECISION: millisecond
SAMPLING_INTERVAL_S: 0.01
NDATA: 21001
DURATION_S: 
STREAM: HNZ
UNITS: cm/s^2
INSTRUMENT: sensor = GMS+/GEOSIG | digitizer = 
INSTRUMENT_ANALOG/DIGITAL: 
INSTRUMENTAL_FREQUENCY_HZ: 
INSTRUMENTAL_DAMPING: 
FULL_SCALE_G: 
N_BIT_DIGITAL_CONVERTER: 
PGA_CM/S^2: 1.450
TIME_PGA_S: 
BASELINE_CORRECTION: BASELINE REMOVED
FILTER_TYPE: BUTTERWORTH
FILTER_ORDER: 
LOW_CUT_FREQUENCY_HZ: 
HIGH_CUT_FREQUENCY_HZ: 
LATE/NORMAL_TRIGGERED: 
DATABASE_VERSION: 
HEADER_FORMAT: DYNA 1.2
DATA_TYPE: Acceleration
PROCESSING: Automatic Paolucci et al., 2011
DATA_TIMESTAMP_YYYYMMDD_HHMMSS: 
DATA_LICENSE: U (unknown license)
DATA_CITATION: Turkish Accelerometric Archive v 1.0 - Disaster And Emergency Management Presidency, Earthquake Department
DATA_CREATOR: AFAD
ORIGINAL_DATA_MEDIATOR_CITATION: : AFAD - Disaster And Emergency Management Presidency
ORIGINAL_DATA_MEDIATOR: AFAD PROCESS SERVICE
ORIGINAL_DATA_CREATOR_CITATION: AFAD PROCESS SERVICE
ORIGINAL_DATA_CREATOR: network: TK
USER1: GuestUser
USER2: 
USER3: 
USER4: 
USER5: 
[...]
-0.281687
-0.259866
-0.225576
-0.213367
-0.186611
-0.171803
-0.121928
-0.086339
-0.083741
-0.049711
-0.051010
-0.025033
0.004841
-0.010485
0.007699
0.041469
0.062771
0.083293
0.094983
0.091086
0.120960
0.147717
0.124857
0.122260
0.111610
0.092387
0.089011
0.048227
0.015237
-0.010999
-0.046067
-0.080616
-0.123477
-0.161403
-0.213097
-0.258296
-0.292585
-0.326614
-0.362981
-0.397790
-0.422208
-0.459354
-0.487669
-0.505073
-0.545596
-0.566377
-0.573391
-0.602225
-0.612615
-0.603263
-0.610017
-0.625083
-0.630278
-0.646903
-0.630797
-0.585337
-0.605858
-0.634173
-0.611313
-0.604039
-0.581699
-0.553643
-0.572606
-0.564813
-0.559097
-0.549486
-0.505065
-0.477529
-0.463761
-0.449733
-0.446356
-0.445576
-0.397779
-0.369204
-0.372581
-0.355955
-0.333095
-0.321405
-0.314651
-0.264515
-0.224511
-0.214120
-0.229965
-0.242174
-0.178790
-0.128655
-0.133850
-0.136187
-0.123978
-0.123718
-0.125536
-0.103196
-0.097221
-0.112806
-0.124495
-0.123196
-0.106571
-0.102934
-0.094361
-0.099296
-0.103972
-0.063448
-0.067604
-0.072799
-0.053316
-0.055913
-0.043184
-0.040066
-0.042144
-0.040845
-0.041884
-0.040325
-0.046819
-0.055391
-0.055650
-0.056689
-0.053831
-0.047596
-0.054870
-0.057986
-0.063961
-0.073572
-0.084482
-0.096171
-0.108899
-0.139292
-0.152020
-0.154617
-0.179814
-0.202414
-0.202933
-0.212025
-0.245015
-0.269692
-0.278524
-0.269952
-0.282940
-0.293850
-0.297746
-0.320345
-0.312552
-0.319046
-0.318006
-0.330735
-0.351775
-0.357230
-0.386584
-0.373855
-0.386063
-0.391778
-0.380867
-0.418274
-0.400869
-0.372294
-0.377229
-0.372813
-0.348914
-0.328911
-0.323196
-0.301116
-0.305531
-0.297998
-0.285788
-0.314622
-0.307608
-0.307868
-0.332805
-0.343455
-0.343714
-0.351247
-0.380081
-0.382159
-0.380600
-0.393069
-0.390211
-0.411252
-0.424240
-0.415927
-0.429954
-0.433331
-0.457229
-0.479309
-0.472814
-0.484763
-0.496972
-0.509960
-0.533079
-0.581655
-0.592306
-0.594903
-0.632309
-0.645297
-0.682963
-0.706862
-0.703744
-0.695691
-0.675169
-0.687378
-0.701405
-0.710756
-0.689455
-0.655944
-0.663477
-0.665035
-0.645812
-0.619056
-0.606327
-0.589961
-0.547359
-0.539825
-0.534889
-0.503457
-0.502677
-0.484753
-0.453581
-0.457477
-0.463711
-0.459295
-0.462152
-0.471503
-0.463190
-0.468645
-0.480334
-0.474359
-0.470722
-0.468643
-0.474358
-0.457213
-0.440328
-0.445003
-0.416428
-0.392010
-0.393308
-0.381619
-0.360837
-0.362395
-0.383955
-0.372525
-0.361615
-0.370966
-0.388370
-0.400319
-0.404475
-0.429412
-0.425516
-0.428113
-0.420579
-0.406292
-0.427852
-0.414863
-0.396419
-0.369403
-0.336672
-0.330437
-0.335892
-0.321345
-0.286536
-0.290432
-0.278742
-0.253544
-0.285755
-0.284975
-0.277961
-0.323940
-0.311990
-0.309912
-0.351474
-0.355630
-0.373554
-0.380827
-0.383424
-0.404725
-0.394594
-0.392775
-0.408101
-0.409659
-0.406542
-0.411996
-0.411996
-0.405761
-0.424464
-0.398747
-0.387317
-0.418748
-0.376666
-0.378743
-0.398485
-0.379782
-0.387315
-0.367572
-0.340296
-0.313280
-0.296914
-0.269638
-0.240804
-0.227295
-0.184433
-0.167028
-0.151962
-0.122348
-0.101306
-0.104683
-0.075329
-0.041299
-0.065976
0.000525
0.030658
0.008059
0.011696
0.008059
0.081054
0.082354
0.048584
0.068067
0.054819
0.057417
0.094045
0.102877
0.074303
0.052223
0.035858
0.073005
0.094307
0.053264
0.044951
0.021053
0.026249
0.036900
-0.017132
-0.029860
-0.027782
-0.038951
-0.056096
-0.082851
-0.099996
-0.113763
-0.135324
-0.176886
-0.191952
-0.217149
-0.235852
-0.228838
-0.275077
-0.302871
-0.308586
-0.344434
-0.351187
-0.358460
-0.391191
-0.389892
-0.411972
-0.417946
-0.392488
-0.413529
-0.395345
-0.388851
-0.398981
-0.367289
-0.365470
-0.368328
-0.349624
-0.358456
-0.364950
-0.336115
-0.352220
-0.363390
-0.341309
-0.356375
-0.364947
-0.340009
-0.332995
-0.352478
-0.351178
-0.345983
-0.340787
-0.346761
-0.348579
-0.351177
-0.370399
-0.351436
-0.356891
-0.375074
-0.370658
-0.363903
-0.362085
-0.352992
-0.325716
-0.332990
-0.318182
-0.298700
-0.288568
-0.252980
-0.255317
-0.251161
-0.253758
-0.261031
-0.224663
-0.228040
-0.246743
-0.236612
-0.230896
-0.221544
-0.223622
-0.229337
-0.232454
-0.242584
-0.250896
-0.257390
-0.262845
-0.264144
-0.279470
-0.335060
-0.343891
-0.318434
-0.326746
-0.323109
-0.332980
-0.342591
-0.345708
-0.340252
-0.327523
-0.334796
-0.329860
-0.336354
-0.334276
-0.323105
-0.335054
-0.338951
-0.327780
-0.324923
-0.327520
-0.338430
-0.370900
-0.362587
-0.349859
-0.356612
-0.352715
-0.363365
-0.377133
-0.390381
-0.371417
-0.365182
-0.369598
-0.357908
-0.381027
-0.384404
-0.374013
-0.391937
-0.392975
-0.385182
-0.413496
-0.425445
-0.428822
-0.439732
-0.434536
-0.453239
-0.469085
-0.493762
-0.519998
-0.529350
-0.547273
-0.545195
-0.565976
-0.588056
-0.582600
-0.604940
-0.603901
-0.584678
-0.595587
-0.596886
-0.591950
-0.588313
-0.586754
-0.580259
-0.572466
-0.580778
-0.582337
-0.581817
-0.558177
-0.537136
-0.541292
-0.528823
-0.515574
-0.490376
-0.461542
-0.445436
-0.432707
-0.413224
-0.372180
-0.371920
-0.351658
-0.303341
-0.312172
-0.278143
-0.258140
-0.284117
-0.274765
-0.265153
-0.258918
-0.244630
-0.236058
-0.267749
-0.283595
-0.269827
-0.265930
-0.254759
-0.283853
-0.313466
-0.310349
-0.324376
-0.347495
-0.372952
-0.393213
-0.415813
-0.422566
-0.429840
-0.465947
-0.452179
-0.454257
-0.486208
-0.479194
-0.495559
-0.497896
-0.486726
-0.503611
-0.501272
-0.502311
-0.510883
-0.501012
-0.519974
-0.519195
-0.504907
-0.534780
-0.537118
-0.546469
-0.555560
-0.569847
-0.602318
-0.578939
-0.584393
-0.625436
-0.640762
-0.653750
-0.657387
-0.656867
-0.683363
-0.708820
-0.709079
-0.709339
-0.701026
-0.711676
-0.710117
-0.693232
-0.706220
-0.691932
-0.689334
-0.689853
-0.669331
-0.665694
-0.643354
-0.629326
-0.610363
-0.586464
-0.593477
-0.586982
-0.556589
-0.533989
-0.532690
-0.533469
-0.521259
-0.507751
-0.503075
-0.485151
-0.477617
-0.472941
-0.459952
-0.469563
-0.451899
-0.428779
-0.435273
-0.429558
-0.436311
-0.444364
-0.406178
-0.391630
-0.402280
-0.395786
-0.396825
-0.385135
-0.367990
-0.353962
-0.359676
-0.368768
-0.352142
-0.346947
-0.346427
-0.331620
-0.336555
-0.349543
-0.348763
-0.361751
-0.354478
-0.342788
-0.359153
-0.354477
-0.340709
-0.345904
-0.344864
-0.321744
-0.310314
-0.312392
-0.297066
-0.284337
-0.281998
-0.260437
-0.233941
-0.241993
-0.235498
-0.220951
-0.230822
-0.209521
-0.197051
-0.198090
-0.183803
-0.176009
-0.163540
-0.148473
-0.140940
-0.127691
-0.100935
-0.081971
-0.063268
-0.048201
-0.018067
0.017002
0.018561
0.039342
0.052591
0.040382
0.043240
0.051813
0.054930
0.043241
0.037786
0.028435
0.025578
0.043242
0.038307
0.039347
0.055712
0.067142
0.089223
0.082469
0.092341
0.142217
0.139879
0.148712
0.180144
0.191574
0.212875
0.225604
0.243529
0.256517
0.269506
0.277819
0.269247
0.285872
0.306914
0.300420
0.280938
0.304577
0.330554
0.323541
0.345102
0.343284
0.331075
0.354195
0.345883
0.317828
0.316789
0.308217
0.290553
0.297827
0.283800
0.261980
0.248213
0.254967
0.275229
0.257565
0.263800
0.274191
0.282244
0.286661
0.271854
0.275491
0.276531
0.275232
0.250554
0.233410
0.242502
0.255491
0.249257
0.211591
0.199382
0.200162
0.200162
0.179641
0.159120
0.159899
0.124311
0.113921
0.124052
0.078074
0.057552
0.070541
0.055994
0.051059
0.047942
0.044825
0.050281
0.052100
0.047684
0.039112
0.053399
0.066388
0.073402
0.070545
0.083534
0.114966
0.114967
0.145879
0.165622
0.152374
0.189261
0.222772
0.249009
0.273947
0.284857
0.311094
0.340189
0.384350
0.400456
0.408768
0.432927
0.447734
0.472672
0.479686
0.486960
0.486441
0.480727
0.491637
0.522810
0.531902
0.520472
0.552424
0.548268
0.552944
0.570609
0.555803
0.578922
0.574247
0.565415
0.568013
0.556324
0.569312
0.537361
0.495279
0.505411
0.498917
0.478915
0.465407
0.424364
0.388257
0.370333
0.367996
0.367736
0.324096
0.292664
0.267727
0.243049
0.265130
0.270845
0.236296
0.218113
0.216554
0.190318
0.201229
0.225388
0.190059
0.191359
0.204088
0.190320
0.203569
0.211882
0.209804
0.201232
0.214221
0.232145
0.236042
0.269292
0.275008
0.278905
0.324364
0.349302
0.356576
0.395022
0.437884
0.465939
0.510100
0.535558
0.567770
0.621542
0.640765
0.643363
0.664924
0.690122
0.695318
0.709605
0.723373
0.730647
0.737142
0.729349
0.738961
0.757664
0.788577
0.796890
0.775589
0.804424
0.829622
0.850663
0.879238
0.875861
0.868588
0.870407
0.907294
0.925478
0.927037
0.955352
0.964445
0.973017
1.001332
1.039778
1.056404
1.056924
1.097188
1.129919
1.126283
1.130439
1.143688
1.162651
1.164210
1.154080
1.171484
1.177979
1.174602
1.180577
1.156419
1.152783
1.171486
1.159797
1.154862
1.146550
1.138497
1.137199
1.131484
1.147850
1.135901
1.130706
1.152787
1.148371
1.167594
1.169932
1.182142
1.217730
1.210457
1.218770
1.220848
1.249943
1.284233
1.270985
1.306833
1.333589
1.321381
1.329174
1.353852
1.375154
1.363984
1.363984
1.354114
1.344243
1.349958
1.299823
1.275925
1.281120
1.267353
1.261639
1.239299
1.226830
1.241118
1.244495
1.230468
1.235924
1.238262
1.220338
1.243977
1.253849
1.240601
1.246836
1.239563
1.254370
1.257487
1.239823
1.236447
1.211509
1.201898
1.209432
1.180079
1.142413
1.134100
1.133841
1.116697
1.093318
1.079031
1.071498
1.053834
1.036430
1.031754
1.015389
1.013312
1.007857
0.985257
0.978244
0.971750
0.973049
0.958503
0.953567
0.962919
0.944216
0.940320
0.955127
0.953050
0.942919
0.937724
0.935646
0.933828
0.923697
0.930712
0.959806
0.966820
0.965521
0.968639
0.976432
1.004228
1.019035
1.043713
1.062677
1.058001
1.089174
1.103721
1.104241
1.126322
1.139050
1.141649
1.143727
1.155157
1.158275
1.153859
1.155418
1.168926
1.164770
1.143729
1.148665
1.149445
1.154641
1.150485
1.125028
1.123989
1.112560
1.090739
1.088402
1.079570
1.045021
1.012551
1.010213
0.998264
0.959559
0.959300
0.956702
0.911503
0.898255
0.892021
0.873058
0.853836
0.823184
0.808377
0.784219
0.752268
0.744995
0.730448
0.713304
0.709408
0.697199
0.679795
0.682393
0.690706
0.683692
0.687070
0.698500
0.718502
0.717463
0.706294
0.735908
0.748637
0.761106
0.781368
0.779550
0.786304
0.771238
0.759809
0.751496
0.723442
0.710973
0.672788
0.645772
0.638759
0.607847
0.587585
0.568103
0.545244
0.527320
0.514072
0.501864
0.489135
0.472770
0.451989
0.444196
0.425753
0.414843
0.422377
0.399258
0.395881
0.403155
0.392245
0.418742
0.416404
0.410430
0.434849
0.415366
0.412509
0.426797
0.431733
0.436669
0.428876
0.430435
0.428357
0.430436
0.439008
0.439788
0.441087
0.440828
0.451219
0.459012
0.471481
0.482392
0.489146
0.520319
0.533567
0.553050
0.580066
0.592276
0.623968
0.643970
0.663193
0.685274
0.705536
0.718525
0.735670
0.756712
0.744503
0.762427
0.781390
0.786846
0.797757
0.788925
0.801394
0.795679
0.790484
0.797239
0.783471
0.771263
0.753079
0.750742
0.742170
0.732039
0.732559
0.722688
0.709440
0.702687
0.710220
0.696193
0.690479
0.693596
0.689440
0.694116
0.685804
0.700871
0.718016
0.715419
0.714380
0.706327
0.706068
0.722434
0.725811
0.714122
0.706589
0.692562
0.692302
0.679574
0.657754
0.655936
0.630739
0.597748
0.588137
0.579825
0.558265
0.544238
0.532289
0.502416
0.499039
0.507092
0.485792
0.473583
0.463712
0.452802
0.437476
0.414097
0.415397
0.410721
0.402928
0.394616
0.372796
0.362406
0.364744
0.371238
0.353834
0.328377
0.324221
0.310714
0.310974
0.320586
0.303182
0.294869
0.289414
0.274348
0.257204
0.230188
0.222655
0.225254
0.193302
0.149921
0.113554
0.093812
0.079785
0.050692
0.031469
0.003934
-0.018666
-0.040745
-0.075034
-0.084646
-0.102309
-0.139716
-0.161016
-0.184655
-0.220502
-0.243621
-0.271157
-0.300250
-0.326486
-0.340254
-0.351164
-0.368828
-0.375841
-0.403636
-0.408311
-0.396621
-0.405713
-0.408050
-0.408310
-0.394542
-0.389606
-0.400776
-0.400516
-0.375318
-0.360251
-0.367784
-0.373498
-0.381811
-0.361808
-0.358171
-0.364145
-0.356092
-0.356092
-0.348039
-0.351415
-0.346999
-0.353233
-0.353752
-0.353752
-0.383885
-0.386482
-0.377390
-0.392716
-0.419731
-0.424666
-0.424406
-0.439732
-0.454019
-0.475839
-0.492724
-0.508569
-0.523895
-0.538702
-0.565717
-0.580004
-0.594031
-0.617150
-0.640789
-0.654556
-0.661829
-0.688325
-0.697937
-0.707548
-0.733005
-0.737420
-0.740018
-0.742355
-0.732743
-0.742614
-0.754563
-0.745471
-0.745990
-0.746769
-0.756900
-0.773784
-0.780798
-0.800540
-0.813008
-0.824178
-0.848076
-0.852492
-0.851712
-0.868077
-0.876130
-0.883663
-0.905223
-0.907301
-0.906781
-0.928601
-0.938992
-0.943407
-0.963929
-0.978216
-0.982891
-1.009127
-1.022375
-1.040818
-1.087836
-1.097707
-1.119267
-1.157972
-1.182910
-1.213562
-1.232784
-1.259021
-1.275126
-1.282399
-1.303440
-1.321623
-1.340586
-1.348119
-1.337988
-1.339026
-1.351755
-1.363963
-1.365782
-1.367600
-1.372795
-1.361364
-1.356948
-1.364741
-1.362922
-1.354090
-1.339282
-1.329151
-1.332008
-1.323436
-1.305252
-1.301095
-1.297718
-1.292002
-1.301613
-1.301094
-1.278753
-1.280052
-1.288104
-1.288364
-1.299793
-1.301092
-1.299533
-1.312521
-1.321612
-1.312520
-1.316156
-1.334859
-1.335898
-1.336677
-1.349665
-1.362134
-1.363432
-1.377199
-1.394604
-1.401357
-1.412267
-1.416423
-1.425515
-1.430190
-1.433047
-1.437723
-1.443437
-1.450451
-1.438501
-1.438241
-1.439539
-1.437980
-1.443955
-1.427849
-1.412262
-1.424731
-1.434082
-1.409923
-1.399013
-1.405507
-1.391739
-1.372256
-1.371476
-1.377710
-1.365501
-1.364202
-1.358746
-1.334847
-1.328872
-1.328352
-1.327313
-1.314324
-1.296140
-1.303153
-1.300036
-1.295100
-1.300814
-1.290683
-1.291202
-1.298475
-1.298735
-1.297695
-1.308346
-1.318216
-1.310683
-1.316917
-1.335880
-1.348608
-1.342373
-1.360037
-1.385234
-1.381337
-1.384974
-1.383155
-1.393805
-1.407313
-1.406793
-1.401078
-1.396921
-1.402116
-1.397700
-1.403154
-1.393543
-1.376398
-1.384450
-1.384190
-1.390684
-1.405750
-1.404970
-1.402113
-1.400814
-1.395358
-1.397176
-1.391721
-1.366783
-1.351975
-1.333791
-1.312230
-1.304697
-1.276122
-1.248846
-1.218972
-1.189878
-1.192215
-1.166498
-1.134027
-1.126233
-1.102854
-1.074279
-1.056874
-1.035833
-1.010635
-0.987515
-0.959200
-0.932963
-0.919195
-0.898933
-0.864903
-0.836328
-0.808533
-0.780478
-0.755799
-0.731121
-0.698650
-0.658905
-0.634746
-0.616562
-0.582272
-0.553178
-0.535773
-0.509017
-0.479922
-0.447451
-0.425630
-0.412641
-0.376274
-0.348738
-0.340685
-0.317825
-0.293666
-0.286392
-0.275741
-0.259635
-0.257297
-0.255219
-0.252101
-0.250802
-0.243528
-0.237553
-0.221187
-0.205081
-0.198067
-0.175467
-0.142476
-0.125071
-0.105589
-0.063506
-0.031814
-0.018306
0.007672
0.044819
0.080927
0.112619
0.144571
0.175483
0.196265
0.227178
0.260948
0.277314
0.286666
0.298096
0.312643
0.309267
0.311345
0.317840
0.298877
0.284070
0.279395
0.272382
0.260433
0.251081
0.248744
0.242769
0.238873
0.240952
0.252382
0.260695
0.264072
0.282516
0.304337
0.322781
0.345900
0.366682
0.385905
0.411623
0.421234
0.424092
0.448251
0.468253
0.486437
0.509038
0.507479
0.509298
0.534496
0.539172
0.549303
0.567228
0.558136
0.552941
0.563072
0.580217
0.574763
0.576062
0.581517
0.568010
0.580479
0.593468
0.598923
0.591130
0.586715
0.603600
0.607497
0.621525
0.620486
0.619447
0.643086
0.650360
0.646724
0.642048
0.661791
0.681534
0.673741
0.676339
0.682314
0.680496
0.685951
0.697122
0.704915
0.722580
0.724398
0.703358
0.725178
0.752195
0.756092
0.766223
0.765704
0.769341
0.779992
0.786226
0.788305
0.800514
0.814802
0.805191
0.797398
0.801555
0.808049
0.799477
0.784151
0.782593
0.774540
0.768306
0.778438
0.781036
0.767009
0.767269
0.787791
0.790389
0.779739
0.788051
0.791948
0.787013
0.792988
0.788053
0.782598
0.785716
0.776624
0.773507
0.775586
0.774807
0.774288
0.762858
0.758962
0.758183
0.739220
0.726752
0.732207
0.732727
0.712725
0.694022
0.683892
0.663630
0.665709
0.663111
0.652461
0.651942
0.629602
0.628044
0.622070
0.620511
0.632461
0.623629
0.630643
0.631943
0.629085
0.622332
0.622852
0.638438
0.643374
0.642335
0.632464
0.638180
0.647272
0.648571
0.651689
0.643636
0.648312
0.652988
0.652729
0.652989
0.635325
0.637664
0.640002
0.636106
0.639743
0.622858
0.615325
0.615585
0.611170
0.608572
0.608053
0.594805
0.572725
0.573765
0.573765
0.575584
0.585715
0.575325
0.572468
0.583898
0.586496
0.599744
0.601563
0.598186
0.609616
0.603123
0.607539
0.613254
0.604422
0.597669
0.590396
0.587279
0.579226
0.589617
0.581565
0.567278
0.588320
0.587541
0.585982
0.594815
0.592997
0.603128
0.610662
0.614558
0.621313
0.619495
0.629366
0.637939
0.638719
0.658721
0.674827
0.680542
0.695869
0.706520
0.711196
0.731458
0.752759
0.756396
0.759514
0.771464
0.776140
0.786271
0.790688
0.782635
0.797702
0.796403
0.776402
0.776142
0.782637
0.776143
0.768610
0.766792
0.751206
0.765494
0.777443
0.751467
0.752506
0.757442
0.749390
0.740818
0.742117
0.747573
0.736403
0.733026
0.730948
0.727312
0.730689
0.724715
0.716143
0.710688
0.706013
0.707572
0.701338
0.697701
0.705235
0.706274
0.721341
0.721341
0.704976
0.712770
0.710692
0.699262
0.693808
0.676923
0.658999
0.649908
0.631465
0.612762
0.602631
0.580811
0.570680
0.567564
0.554835
0.543925
0.528340
0.522885
0.520807
0.514313
0.513274
0.500806
0.491455
0.497430
0.489117
0.476389
0.473792
0.467558
0.461064
0.457427
0.456389
0.449116
0.445479
0.445220
0.443142
0.450675
0.451455
0.444442
0.436129
0.431194
0.427818
0.420804
0.417947
0.411193
0.407817
0.411194
0.407558
0.408078
0.413793
0.411455
0.409897
0.408858
0.402884
0.391454
0.381064
0.372752
0.361582
0.351711
0.340282
0.330151
0.324177
0.320021
0.310670
0.295863
0.284434
0.281837
0.277681
0.268849
0.267810
0.258199
0.247029
0.244692
0.243653
0.253525
0.258460
0.258201
0.261578
0.260020
0.260280
0.265736
0.270931
0.272490
0.274829
0.274829
0.277167
0.285220
0.280805
0.275350
0.273012
0.283663
0.296392
0.281845
0.276650
0.269637
0.266001
0.274054
0.264702
0.255871
0.244181
0.236389
0.233791
0.236130
0.234831
0.222363
0.223662
0.226779
0.229637
0.228858
0.220806
0.225482
0.222884
0.209117
0.206520
0.200026
0.199766
0.201066
0.193533
0.193533
0.184182
0.180286
0.175870
0.162103
0.150154
0.129892
0.117683
0.099500
0.085213
0.071965
0.043651
0.032481
0.014038
-0.007263
-0.013237
-0.028563
-0.048045
-0.069346
-0.084672
-0.102596
-0.127533
-0.151431
-0.165978
-0.170653
-0.184940
-0.199487
-0.208059
-0.216891
-0.225722
-0.235593
-0.245204
-0.253776
-0.253516
-0.256114
-0.260529
-0.259230
-0.269621
-0.270659
-0.257411
-0.254033
-0.247279
-0.246759
-0.255072
-0.242602
-0.231432
-0.231432
-0.226496
-0.225456
-0.225456
-0.223637
-0.222598
-0.227793
-0.248054
-0.257665
-0.257146
-0.272731
-0.281303
-0.288317
-0.302344
-0.316371
-0.336113
-0.343906
-0.353517
-0.362089
-0.375337
-0.403391
-0.411444
-0.419236
-0.441316
-0.456123
-0.475865
-0.503660
-0.513011
-0.537429
-0.574575
-0.586524
-0.614319
-0.637958
