EVENT_NAME: 202302060117
EVENT_ID: 13194
EVENT_DATE_YYYYMMDD: 2023/02/06
EVENT_TIME_HHMMSS: 01:17:32.00000
EVENT_LATITUDE_DEGREE: 37.288
EVENT_LONGITUDE_DEGREE: 37.043
EVENT_DEPTH_KM: 8.6
HYPOCENTER_REFERENCE: AFAD
MAGNITUDE_W: 7.7
MAGNITUDE_W_REFERENCE: AFAD
MAGNITUDE_L: 
MAGNITUDE_L_REFERENCE: 
FOCAL_MECHANISM: 
NETWORK: TK
STATION_CODE: 6007
STATION_NAME: 
STATION_LATITUDE_DEGREE: 40.38395
STATION_LONGITUDE_DEGREE: 36.07173
STATION_ELEVATION_M: 550.0
LOCATION: Kahramanmaras_Pazarck_Turkiye
SENSOR_DEPTH_M: 
VS30_M/S: 313
SITE_CLASSIFICATION_EC8: C
MORPHOLOGIC_CLASSIFICATION: 
EPICENTRAL_DISTANCE_KM: 354.38
EARTHQUAKE_BACKAZIMUTH_DEGREE: 
DATE_TIME_FIRST_SAMPLE_YYYYMMDD_HHMMSS: 2023/02/06 01:17:57.3177830
DATE_TIME_FIRST_SAMPLE_PRECISION: millisecond
SAMPLING_INTERVAL_S: 0.01
NDATA: 21001
DURATION_S: 
STREAM: HNN
UNITS: cm/s^2
INSTRUMENT: sensor = CMG-5T/GURALP | digitizer = 
INSTRUMENT_ANALOG/DIGITAL: 
INSTRUMENTAL_FREQUENCY_HZ: 
INSTRUMENTAL_DAMPING: 
FULL_SCALE_G: 
N_BIT_DIGITAL_CONVERTER: 
PGA_CM/S^2: 5.824
TIME_PGA_S: 
BASELINE_CORRECTION: BASELINE REMOVED
FILTER_TYPE: BUTTERWORTH
FILTER_ORDER: 
LOW_CUT_FREQUENCY_HZ: 
HIGH_CUT_FREQUENCY_HZ: 
LATE/NORMAL_TRIGGERED: 
DATABASE_VERSION: 
HEADER_FORMAT: DYNA 1.2
DATA_TYPE: Acceleration
PROCESSING: Automatic Paolucci et al., 2011
DATA_TIMESTAMP_YYYYMMDD_HHMMSS: 
DATA_LICENSE: U (unknown license)
DATA_CITATION: Turkish Accelerometric Archive v 1.0 - Disaster And Emergency Management Presidency, Earthquake Department
DATA_CREATOR: AFAD
ORIGINAL_DATA_MEDIATOR_CITATION: : AFAD - Disaster And Emergency Management Presidency
ORIGINAL_DATA_MEDIATOR: AFAD PROCESS SERVICE
ORIGINAL_DATA_CREATOR_CITATION: AFAD PROCESS SERVICE
ORIGINAL_DATA_CREATOR: network: TK
USER1: GuestUser
USER2: 
USER3: 
USER4: 
USER5: 
[...]
1.108438
1.332651
1.538285
1.728174
1.895074
2.036467
2.160540
2.241786
2.301933
2.333424
2.332794
2.305083
2.250289
2.178806
2.084964
1.974747
1.854768
1.730695
1.598435
1.471213
1.351863
1.236293
1.128280
1.030030
0.938707
0.850848
0.774326
0.709141
0.648994
0.597979
0.546650
0.504138
0.457217
0.417224
0.375342
0.339127
0.301654
0.267014
0.232060
0.192697
0.149870
0.098855
0.036504
-0.029312
-0.104574
-0.188024
-0.281866
-0.380431
-0.480256
-0.581971
-0.684945
-0.785400
-0.878612
-0.965841
-1.049291
-1.127072
-1.200445
-1.263112
-1.313182
-1.356953
-1.392223
-1.419934
-1.435679
-1.446386
-1.451739
-1.449535
-1.442292
-1.423712
-1.404503
-1.378681
-1.346875
-1.313180
-1.281689
-1.259960
-1.238547
-1.239491
-1.249568
-1.274760
-1.310345
-1.356636
-1.402927
-1.455201
-1.497398
-1.539596
-1.578329
-1.611394
-1.632807
-1.648867
-1.652331
-1.638790
-1.610448
-1.565732
-1.507159
-1.431581
-1.338684
-1.232246
-1.120454
-0.994806
-0.862860
-0.730285
-0.587947
-0.447814
-0.306736
-0.169751
-0.035916
0.093825
0.207192
0.319928
0.422903
0.513281
0.594842
0.668215
0.734345
0.801420
0.866921
0.932107
0.999497
1.066257
1.136481
1.212374
1.283543
1.355971
1.427140
1.493900
1.557511
1.613880
1.663320
1.701109
1.729451
1.735119
1.721893
1.693552
1.639703
1.571683
1.486344
1.387149
1.276617
1.155693
1.022803
0.888968
0.752929
0.614055
0.479275
0.350479
0.233649
0.121857
0.027386
-0.054175
-0.118730
-0.167226
-0.202810
-0.215091
-0.220130
-0.212257
-0.192418
-0.157148
-0.114006
-0.056378
0.018885
0.100131
0.186100
0.280572
0.382287
0.489355
0.596109
0.700972
0.796704
0.887082
0.961085
1.030680
1.094291
1.159477
1.211436
1.258672
1.302129
1.339918
1.366371
1.381171
1.390934
1.383691
1.370150
1.346847
1.320395
1.287015
1.259619
1.232537
1.212698
1.194748
1.184986
1.183727
1.193489
1.205771
1.231278
1.260250
1.295519
1.333623
1.369522
1.402903
1.438172
1.472182
1.498320
1.525716
1.549020
1.564450
1.575472
1.584604
1.581456
1.565710
1.545242
1.515011
1.471869
1.419909
1.357243
1.280091
1.189084
1.083275
0.962666
0.828832
0.675158
0.513611
0.339468
0.155878
-0.032121
-0.227363
-0.424179
-0.623514
-0.820645
-1.007699
-1.191919
-1.360079
-1.515642
-1.655146
-1.772920
-1.878414
-1.960919
-2.023270
-2.072710
-2.100737
-2.117427
-2.118686
-2.109869
-2.092234
-2.066097
-2.030512
-1.988944
-1.935725
-1.871484
-1.800000
-1.720014
-1.644436
-1.568229
-1.496430
-1.428725
-1.366689
-1.311895
-1.268753
-1.240726
-1.217108
-1.206086
-1.209550
-1.225925
-1.248913
-1.284182
-1.323545
-1.368577
-1.416757
-1.460844
-1.501152
-1.532327
-1.562558
-1.571060
-1.581452
-1.583341
-1.575784
-1.568855
-1.544922
-1.527917
-1.494222
-1.468715
-1.440688
-1.406678
-1.381800
-1.345271
-1.315670
-1.286068
-1.263395
-1.243871
-1.238202
-1.240406
-1.255837
-1.281659
-1.318188
-1.366998
-1.418328
-1.476900
-1.531694
-1.589636
-1.640651
-1.675605
-1.708985
-1.717802
-1.712134
-1.690405
-1.648838
-1.589635
-1.512798
-1.427143
-1.327003
-1.223084
-1.111922
-0.996666
-0.883615
-0.773397
-0.672312
-0.580045
-0.506672
-0.442746
-0.405901
-0.382598
-0.383543
-0.398343
-0.436132
-0.486517
-0.547608
-0.624445
-0.696873
-0.782843
-0.871646
-0.963913
-1.053347
-1.139946
-1.222766
-1.303382
-1.379274
-1.450757
-1.514053
-1.566328
-1.606635
-1.631828
-1.668042
-1.668357
-1.690400
-1.699532
-1.702051
-1.720631
-1.706775
-1.724724
-1.708349
-1.705514
-1.693548
-1.665836
-1.652925
-1.618915
-1.591518
-1.557508
-1.515940
-1.471853
-1.417059
-1.355338
-1.281964
-1.199144
-1.104672
-1.006736
-0.889276
-0.790395
-0.663803
-0.548547
-0.425104
-0.298826
-0.187664
-0.059497
0.047886
0.164716
0.278397
0.382002
0.488755
0.586376
0.684627
0.774375
0.867587
0.949778
1.036377
1.117623
1.201073
1.278226
1.344986
1.413321
1.460557
1.512516
1.535819
1.560382
1.571719
1.569515
1.565106
1.545267
1.523854
1.481027
1.437255
1.378053
1.309718
1.231307
1.136205
1.041734
0.937815
0.842398
0.741943
0.654085
0.563392
0.484351
0.411922
0.347367
0.300131
0.258878
0.242189
0.233371
0.245338
0.270216
0.304226
0.359334
0.415388
0.487816
0.556151
0.632044
0.706047
0.786663
0.866649
0.946635
1.030400
1.113221
1.196671
1.271304
1.348456
1.418995
1.481977
1.542439
1.587156
1.637856
1.673125
1.708080
1.742720
1.768227
1.801292
1.830264
1.868683
1.905842
1.943316
1.982679
2.023617
2.061091
2.101399
2.139188
2.177607
2.219489
2.257908
2.294437
2.329077
2.353640
2.367181
2.356159
2.329707
2.276173
2.205635
2.106124
1.979847
1.832471
1.663052
1.477572
1.272884
1.062841
0.835479
0.604653
0.366585
0.130405
-0.107034
-0.345103
-0.578448
-0.810534
-1.036321
-1.255496
-1.466483
-1.666448
-1.855391
-2.036777
-2.202418
-2.354517
-2.501263
-2.634783
-2.755077
-2.870018
-2.967639
-3.059276
-3.131389
-3.195945
-3.236253
-3.267743
-3.277190
-3.267743
-3.242550
-3.198149
-3.149338
-3.072186
-2.994719
-2.899302
-2.792864
-2.696817
-2.575893
-2.477013
-2.363016
-2.259412
-2.152659
-2.044331
-1.954268
-1.852868
-1.759970
-1.669277
-1.582678
-1.496079
-1.424595
-1.355001
-1.292649
-1.241004
-1.201326
-1.175818
-1.155034
-1.140864
-1.122914
-1.106224
-1.095517
-1.076622
-1.058672
-1.033165
-1.007342
-0.973018
-0.930190
-0.880435
-0.820603
-0.757936
-0.684878
-0.597649
-0.499398
-0.393274
-0.270776
-0.142609
0.003508
0.158127
0.313691
0.480276
0.646232
0.822579
0.997037
1.174330
1.350362
1.530804
1.706206
1.882239
2.053548
2.209427
2.364046
2.496936
2.616286
2.710128
2.789799
2.843648
2.868841
2.875454
2.851206
2.820661
2.760514
2.685881
2.593614
2.490325
2.381367
2.268316
2.152431
2.036861
1.923180
1.814537
1.718176
1.617406
1.530492
1.447357
1.367686
1.291794
1.210233
1.131822
1.049002
0.964922
0.874229
0.782277
0.694103
0.600576
0.506734
0.415412
0.326293
0.232452
0.147427
0.068071
-0.001523
-0.067653
-0.128745
-0.183539
-0.230145
-0.265414
-0.296589
-0.311705
-0.321467
-0.312334
-0.291550
-0.259115
-0.211249
-0.156770
-0.088435
-0.022620
0.049179
0.117514
0.181125
0.248515
0.306773
0.362826
0.410062
0.466745
0.513981
0.564366
0.616011
0.662617
0.709224
0.740399
0.772835
0.789210
0.810624
0.815033
0.820386
0.826685
0.823536
0.829834
0.829519
0.840856
0.851878
0.871087
0.892816
0.918008
0.938792
0.963355
0.998310
1.028541
1.057513
1.082390
1.100970
1.114196
1.116086
1.108213
1.089949
1.063812
1.019095
0.970600
0.911397
0.842118
0.765911
0.685295
0.597437
0.497612
0.395582
0.288514
0.176723
0.063042
-0.052214
-0.163061
-0.268869
-0.376567
-0.480171
-0.575272
-0.669744
-0.761381
-0.837588
-0.906868
-0.958827
-0.995041
-1.011101
-1.004488
-0.979295
-0.930170
-0.856797
-0.773976
-0.670057
-0.567712
-0.453086
-0.338146
-0.230762
-0.124324
-0.031427
0.052339
0.120988
0.166965
0.197511
0.211996
0.211367
0.190583
0.164446
0.123823
0.073753
0.029982
-0.014420
-0.061341
-0.097240
-0.125581
-0.143216
-0.146995
-0.140067
-0.115189
-0.085588
-0.039926
0.014553
0.069346
0.132643
0.192475
0.247269
0.292615
0.327570
0.354022
0.365674
0.364100
0.344891
0.320328
0.280020
0.233099
0.176731
0.120363
0.050769
-0.017565
-0.085900
-0.157698
-0.226663
-0.297831
-0.354829
-0.408048
-0.451820
-0.483310
-0.504724
-0.517950
-0.522358
-0.516060
-0.500944
-0.477641
-0.449300
-0.408991
-0.365849
-0.315464
-0.264134
-0.213119
-0.160845
-0.109830
-0.061334
-0.023230
0.013299
0.039751
0.066203
0.086043
0.102418
0.118793
0.132334
0.149654
0.165715
0.190907
0.221138
0.256408
0.293252
0.331356
0.372924
0.415751
0.468025
0.523764
0.586430
0.646578
0.709874
0.769391
0.828279
0.884332
0.930309
0.972821
1.010295
1.036432
1.058476
1.079260
1.093431
1.107602
1.116419
1.126496
1.126182
1.121458
1.111066
1.095636
1.075482
1.055328
1.029821
1.009667
0.989514
0.968100
0.951725
0.942593
0.939129
0.938814
0.946057
0.963692
0.988255
1.018801
1.067927
1.121146
1.180348
1.251517
1.325520
1.407081
1.496200
1.585948
1.681050
1.775207
1.871883
1.964466
2.051065
2.126643
2.196867
2.249771
2.300156
2.336685
2.362823
2.380143
2.381717
2.383607
2.373215
2.356840
2.334167
2.309920
2.275910
2.247568
2.220802
2.191515
2.171991
2.151523
2.139241
2.124441
2.112790
2.096415
2.071852
2.040677
2.006982
1.963840
1.916604
1.862125
1.806072
1.746240
1.682314
1.625946
1.560131
1.505338
1.451804
1.401734
1.352923
1.299704
1.251209
1.197045
1.138473
1.074232
1.001804
0.920873
0.828921
0.730985
0.628011
0.514960
0.403798
0.291377
0.182734
0.069683
-0.047462
-0.158938
-0.272934
-0.387875
-0.502500
-0.615237
-0.733326
-0.856454
-0.986825
-1.119086
-1.249772
-1.385811
-1.516182
-1.645923
-1.771256
-1.896903
-2.021291
-2.140955
-2.257785
-2.366113
-2.463418
-2.543719
-2.617722
-2.678814
-2.730773
-2.766987
-2.790920
-2.802256
-2.800367
-2.788085
-2.762578
-2.730457
-2.692983
-2.646377
-2.600401
-2.549386
-2.502779
-2.461212
-2.420274
-2.390043
-2.366425
-2.346900
-2.332729
-2.313835
-2.315724
-2.305332
-2.311315
-2.329580
-2.339027
-2.371777
-2.383428
-2.406731
-2.416808
-2.428144
-2.438536
-2.434127
-2.430978
-2.415233
-2.391615
-2.355085
-2.312258
-2.261558
-2.204875
-2.140634
-2.076708
-2.005224
-1.929331
-1.852494
-1.762431
-1.681815
-1.587028
-1.492241
-1.394935
-1.282513
-1.186467
-1.076249
-0.975479
-0.879118
-0.784016
-0.696472
-0.608928
-0.530831
-0.455254
-0.387234
-0.322993
-0.262846
-0.208682
-0.160186
-0.115784
-0.068548
-0.032964
0.004195
0.027499
0.046393
0.051747
0.044504
0.026869
-0.010604
-0.052172
-0.114838
-0.174670
-0.245524
-0.313858
-0.384712
-0.455566
-0.518862
-0.590030
-0.652381
-0.716622
-0.772990
-0.829358
-0.884467
-0.936111
-0.992164
-1.047273
-1.108364
-1.173550
-1.256055
-1.339190
-1.439015
-1.549862
-1.676769
-1.813753
-1.952626
-2.107560
-2.259975
-2.416798
-2.572361
-2.721626
-2.857036
-2.971662
-3.073691
-3.155252
-3.221067
-3.262949
-3.288771
-3.296959
-3.284992
-3.257595
-3.218232
-3.172255
-3.114627
-3.052276
-2.987090
-2.918755
-2.848846
-2.774528
-2.694857
-2.607313
-2.521343
-2.427816
-2.325786
-2.223442
-2.114484
-2.008675
-1.899403
-1.789815
-1.677709
-1.566547
-1.450346
-1.334461
-1.217630
-1.092613
-0.972948
-0.848875
-0.729525
-0.612695
-0.495550
-0.381869
-0.267558
-0.160175
-0.054996
0.047034
0.148434
0.244480
0.335488
0.417679
0.496091
0.562536
0.625832
0.680311
0.719675
0.760298
0.790844
0.815092
0.831467
0.831782
0.823909
0.800291
0.758094
0.699522
0.618276
0.521915
0.411383
0.281642
0.140879
-0.014684
-0.170248
-0.330220
-0.489877
-0.650794
-0.807302
-0.953419
-1.091347
-1.215420
-1.329731
-1.435539
-1.529381
-1.607163
-1.678016
-1.742257
-1.791697
-1.834524
-1.867589
-1.894671
-1.912936
-1.921753
-1.918919
-1.906007
-1.883649
-1.851843
-1.814684
-1.768393
-1.716748
-1.660695
-1.591100
-1.509539
-1.425144
-1.331302
-1.223919
-1.108978
-0.985535
-0.857998
-0.729516
-0.605128
-0.489872
-0.375246
-0.270382
-0.162370
-0.062229
0.037911
0.130808
0.216148
0.296134
0.377380
0.453903
0.526331
0.598130
0.664890
0.739208
0.811952
0.886270
0.962477
1.042148
1.127803
1.215347
1.306040
1.400197
1.496558
1.600163
1.706286
1.819967
1.930185
2.033789
2.139598
2.232180
2.310592
2.382076
2.439704
2.479697
2.512762
2.531342
2.548032
2.551811
2.548662
2.543309
2.539845
2.532602
2.524415
2.514968
2.505521
2.499538
2.495129
2.495759
2.488831
2.485997
2.486627
2.488202
2.489147
2.485368
2.486943
2.486943
2.493871
2.495445
2.501429
2.505208
2.503948
2.498595
2.491667
2.479386
2.457343
2.429316
2.389953
2.343662
2.286349
2.211402
2.131101
2.051115
1.962626
1.876027
1.788169
1.703774
1.623788
1.544117
1.467910
1.390128
1.320534
1.249680
1.184495
1.118050
1.047196
0.973193
0.899505
0.827707
0.737644
0.648841
0.546496
0.440688
0.326692
0.211122
0.090513
-0.037024
-0.161727
-0.286744
-0.410817
-0.528907
-0.637864
-0.735485
-0.821454
-0.896402
-0.955289
-0.995912
-1.018900
-1.026457
-1.016065
-0.989298
-0.947730
-0.884434
-0.808227
-0.722887
-0.627785
-0.514419
-0.403257
-0.282648
-0.154166
-0.023795
0.110985
0.240727
0.374247
0.501784
0.624598
0.736075
0.840309
0.931631
1.010043
1.076803
1.131282
1.179463
1.213473
1.248428
1.273306
1.293460
1.306371
1.313299
1.318023
1.312355
1.293460
1.264804
1.223866
1.173167
1.115539
1.036813
0.953048
0.856372
0.750878
0.639087
0.517533
0.393460
0.261515
0.127680
-0.015602
-0.164238
-0.317912
-0.469067
-0.624000
-0.782398
-0.939851
-1.099508
-1.259480
-1.425121
-1.588557
-1.751678
-1.910705
-2.065954
-2.215849
-2.356927
-2.489817
-2.619558
-2.728201
-2.839362
-2.923442
-3.001539
-3.072393
-3.117424
-3.164975
-3.181035
-3.192371
-3.179145
-3.149859
-3.109550
-3.042475
-2.972251
-2.874630
-2.769136
-2.641284
-2.498002
-2.338345
-2.164831
-1.982815
-1.791037
-1.588553
-1.382919
-1.179174
-0.966928
-0.760664
-0.557864
-0.354750
-0.160767
0.034789
0.227827
0.418030
0.609178
0.790564
0.979193
1.166563
1.352042
1.540986
1.732449
1.929896
2.132695
2.327622
2.537980
2.748022
2.960269
3.176924
3.392320
3.607086
3.812720
4.019614
4.218634
4.413247
4.594318
4.775389
4.950477
5.106355
5.255306
5.389771
5.512270
5.613984
5.699954
5.761991
5.800724
5.823712
5.817729
5.795056
5.743412
5.672558
5.580921
5.465035
5.333405
5.171228
4.998975
4.807197
4.599674
4.379240
4.145895
3.904677
3.655586
3.405866
3.149847
2.900127
2.645683
2.400686
2.153170
1.909118
1.674828
1.436129
1.211916
0.989593
0.775457
0.558487
0.352853
0.153518
-0.036056
-0.211458
-0.378673
-0.534866
-0.686651
-0.824580
-0.956525
-1.077449
-1.194594
-1.294419
-1.368422
-1.438331
-1.478324
-1.496273
-1.497218
-1.466987
-1.402431
-1.316146
-1.199631
-1.048476
-0.878741
-0.678461
-0.460546
-0.223107
0.021261
0.276965
0.542431
0.806322
1.069898
1.336624
1.593902
1.837640
2.081062
2.305906
2.506186
2.685053
2.839987
2.971618
3.064200
3.137573
3.172843
3.186069
3.170009
3.131591
3.075538
2.993347
2.901395
2.791178
2.664901
2.520989
2.367000
2.190337
2.005173
1.810876
1.603668
1.385753
1.155242
0.920007
0.680364
0.442295
0.202966
-0.036362
-0.264669
-0.483843
-0.689162
-0.884404
-1.057602
-1.207182
-1.340387
-1.448400
-1.534999
-1.599554
-1.642696
-1.669463
-1.680170
-1.678910
-1.663480
-1.640491
-1.616243
-1.593570
-1.560190
-1.532163
-1.494374
-1.458160
-1.427614
-1.395808
-1.363373
-1.333457
-1.307004
-1.283071
-1.260083
-1.239929
-1.219145
-1.204344
-1.180726
-1.164036
-1.137899
-1.109242
-1.069879
-1.022013
-0.965330
-0.894476
-0.822362
-0.744895
-0.660815
-0.568232
-0.478799
-0.379603
-0.285761
-0.183417
-0.073829
0.034814
0.140622
0.247376
0.350035
0.453324
0.549056
0.634081
0.703990
0.764452
0.812318
0.840345
0.845698
0.839715
0.822710
0.798778
0.764453
0.725720
0.688246
0.657700
0.629359
0.607945
0.584957
0.562284
0.550003
0.535203
0.514734
0.493006
0.470962
0.452068
0.435063
0.414280
0.390662
0.368304
0.356337
0.338388
0.313825
0.283280
0.251474
0.217150
0.171803
0.114176
0.048045
-0.024383
-0.108778
-0.193487
-0.283865
-0.382745
-0.480996
-0.570744
-0.663011
-0.750870
-0.832116
-0.907378
-0.975713
-1.037119
-1.091598
-1.139778
-1.173473
-1.206223
-1.233305
-1.259442
-1.288728
-1.315495
-1.344151
-1.377846
-1.416265
-1.460666
-1.512626
-1.575292
-1.639218
-1.715425
-1.798560
-1.887363
-1.974907
-2.068434
-2.162905
-2.251394
-2.332640
-2.409162
-2.481275
-2.555278
-2.620148
-2.680295
-2.735089
-2.788938
-2.844361
-2.896320
-2.946705
-3.009686
-3.085263
-3.165249
-3.254053
-3.356397
-3.468819
-3.601709
-3.739637
-3.887958
-4.046356
-4.203494
-4.365985
-4.520289
-4.667350
-4.801815
-4.929352
-5.045552
-5.136559
-5.202375
-5.239848
-5.252759
-5.231661
-5.177182
-5.095936
-4.986663
-4.847160
-4.679944
-4.486907
-4.271196
-4.042574
-3.798837
-3.535575
-3.253419
-2.970318
-2.677770
-2.382703
-2.079764
-1.775249
-1.475458
-1.182911
-0.897920
-0.616709
-0.330459
-0.065308
0.196694
0.446729
0.705582
0.951209
1.187389
1.416640
1.623534
1.834206
2.019686
2.187846
2.332073
2.454572
2.570772
2.658631
2.733894
2.795930
2.846945
2.891977
2.928506
2.952754
2.971334
2.980781
2.983615
2.980781
2.959683
2.933861
2.891034
2.845687
2.786485
2.718466
2.639424
2.544638
2.449536
2.339004
2.228787
2.111327
1.992923
1.869165
1.743518
1.615036
1.479941
1.347051
1.199990
1.058283
0.909332
0.761012
0.605763
0.452404
0.299989
0.145056
-0.004839
-0.158198
-0.315336
-0.470585
-0.623944
-0.780137
-0.947038
-1.115197
-1.287136
-1.455925
-1.632587
-1.810824
-1.983707
-2.155331
-2.320972
-2.484093
-2.644695
-2.797739
-2.935983
-3.055332
-3.170587
-3.262855
-3.340321
-3.394800
-3.437942
-3.471637
-3.486752
-3.495255
-3.490531
-3.474471
-3.448648
-3.414638
-3.367402
-3.305050
-3.233882
-3.162398
-3.068556
-2.978492
-2.873943
-2.775378
-2.671144
-2.555888
-2.450079
-2.335768
-2.227755
-2.108721
-1.987167
-1.860574
-1.718866
-1.572750
-1.408369
-1.230762
-1.042448
-0.845316
-0.643461
-0.439717
-0.233453
-0.035377
0.163643
0.354162
0.538382
0.719453
0.883519
1.040028
1.175752
1.300770
1.415081
1.506719
1.584501
1.640869
1.684012
1.705740
1.715817
1.712354
1.690625
1.649373
1.592690
1.525300
1.444684
1.348008
1.235587
1.117812
0.991850
0.861479
0.715677
0.563578
0.410849
0.250876
0.090589
-0.077570
-0.246045
-0.412000
-0.580790
-0.746115
-0.915220
-1.081490
-1.237683
-1.378761
-1.516375
-1.645171
-1.761687
-1.868440
-1.955668
-2.035025
-2.101155
-2.154374
-2.191533
-2.214206
-2.226487
-2.226802
-2.219244
-2.192791
-2.154373
-2.105877
-2.055177
-1.990621
-1.916618
-1.845134
-1.770816
-1.696813
-1.620291
-1.536841
-1.450556
-1.367736
-1.277358
-1.191073
-1.088099
-0.977252
-0.870813
-0.744536
-0.625501
-0.486313
-0.352163
-0.216753
-0.087326
0.031708
0.147594
0.243955
0.326461
0.397000
0.455888
0.507217
0.551619
0.582795
0.613341
0.641683
0.670025
0.702460
0.731746
0.776463
0.818346
0.866527
0.926674
0.986821
1.065863
1.142385
1.240006
1.336997
1.444380
1.553023
1.664500
1.778181
1.895641
2.011212
2.117335
2.223774
2.317931
2.400751
2.472550
2.534902
2.588436
2.630318
2.663069
2.680704
2.693615
2.700228
2.702433
2.703692
2.696765
2.693301
2.680390
2.673777
2.650159
2.625282
2.596310
2.563245
2.526716
2.483574
2.438543
2.388158
2.345331
2.285184
2.230705
2.168039
2.108207
2.048060
1.978781
1.911706
1.840538
1.777557
1.704498
1.634589
1.560272
1.490048
1.415100
1.331965
1.246626
1.152469
1.071538
0.984310
0.898655
0.815520
0.731125
0.661846
0.589103
0.524862
0.457788
0.401734
0.353239
0.318599
0.289943
0.271364
0.272309
0.286480
0.324268
0.365836
0.423779
0.488650
0.565172
0.642639
0.729239
0.813319
0.893620
0.981164
1.057056
1.134208
1.197190
1.256392
1.301739
1.340472
1.371648
1.394007
1.410382
1.417310
1.423608
1.417310
1.401880
1.372909
1.335120
1.293238
1.242538
1.186800
1.127913
1.070915
