EVENT_NAME: 202302060117
EVENT_ID: 13194
EVENT_DATE_YYYYMMDD: 2023/02/06
EVENT_TIME_HHMMSS: 01:17:32.00000
EVENT_LATITUDE_DEGREE: 37.288
EVENT_LONGITUDE_DEGREE: 37.043
EVENT_DEPTH_KM: 8.6
HYPOCENTER_REFERENCE: AFAD
MAGNITUDE_W: 7.7
MAGNITUDE_W_REFERENCE: AFAD
MAGNITUDE_L: 
MAGNITUDE_L_REFERENCE: 
FOCAL_MECHANISM: 
NETWORK: TK
STATION_CODE: 0128
STATION_NAME: 
STATION_LATITUDE_DEGREE: 37.250287
STATION_LONGITUDE_DEGREE: 35.062788
STATION_ELEVATION_M: 236.0
LOCATION: Kahramanmaras_Pazarck_Turkiye
SENSOR_DEPTH_M: 
VS30_M/S: 494
SITE_CLASSIFICATION_EC8: B
MORPHOLOGIC_CLASSIFICATION: 
EPICENTRAL_DISTANCE_KM: 175.27
EARTHQUAKE_BACKAZIMUTH_DEGREE: 
DATE_TIME_FIRST_SAMPLE_YYYYMMDD_HHMMSS: 2023/02/06 01:17:42.2346370
DATE_TIME_FIRST_SAMPLE_PRECISION: millisecond
SAMPLING_INTERVAL_S: 0.01
NDATA: 13501
DURATION_S: 
STREAM: HNE
UNITS: cm/s^2
INSTRUMENT: sensor = ACEBOX/SARA | digitizer = 
INSTRUMENT_ANALOG/DIGITAL: 
INSTRUMENTAL_FREQUENCY_HZ: 
INSTRUMENTAL_DAMPING: 
FULL_SCALE_G: 
N_BIT_DIGITAL_CONVERTER: 
PGA_CM/S^2: 14.223
TIME_PGA_S: 
BASELINE_CORRECTION: BASELINE REMOVED
FILTER_TYPE: BUTTERWORTH
FILTER_ORDER: 
LOW_CUT_FREQUENCY_HZ: 
HIGH_CUT_FREQUENCY_HZ: 
LATE/NORMAL_TRIGGERED: 
DATABASE_VERSION: 
HEADER_FORMAT: DYNA 1.2
DATA_TYPE: Acceleration
PROCESSING: Automatic Paolucci et al., 2011
DATA_TIMESTAMP_YYYYMMDD_HHMMSS: 
DATA_LICENSE: U (unknown license)
DATA_CITATION: Turkish Accelerometric Archive v 1.0 - Disaster And Emergency Management Presidency, Earthquake Department
DATA_CREATOR: AFAD
ORIGINAL_DATA_MEDIATOR_CITATION: : AFAD - Disaster And Emergency Management Presidency
ORIGINAL_DATA_MEDIATOR: AFAD PROCESS SERVICE
ORIGINAL_DATA_CREATOR_CITATION: AFAD PROCESS SERVICE
ORIGINAL_DATA_CREATOR: network: TK
USER1: GuestUser
USER2: 
USER3: 
USER4: 
USER5: 
[...]
-0.241296
-0.411499
-0.808720
-1.234231
-1.314890
-1.092782
-0.937306
-1.232124
-2.006927
-2.965496
-3.806931
-4.290423
-4.372485
-4.155287
-3.694706
-3.125877
-2.539980
-1.834613
-1.034558
-0.346024
0.136768
0.570462
1.259463
2.244452
3.221725
3.822117
3.671319
2.756471
1.571587
0.588704
0.105913
0.268403
1.017724
2.101608
3.028849
3.410407
3.322733
3.067895
2.836904
2.714629
2.757414
2.981626
3.407138
3.936923
4.285516
4.200414
3.583190
2.567108
1.394849
0.257426
-0.570216
-0.905013
-0.818741
-0.469447
-0.063574
0.295305
0.671719
1.053043
1.332432
1.548227
1.866660
2.311343
2.682146
2.746675
2.352961
1.504511
0.526304
-0.119444
-0.277022
-0.102141
0.125110
0.090743
-0.267668
-0.626546
-0.663485
-0.434129
-0.203137
-0.085069
-0.031529
0.084903
0.382761
0.797752
1.139565
1.366582
1.637086
2.031737
2.428024
2.720739
2.994984
3.415585
3.965477
4.443593
4.728125
4.770443
4.464637
3.806498
3.072609
2.608523
2.460062
2.388053
2.116615
1.554333
0.844525
0.116248
-0.670246
-1.553297
-2.335115
-2.618009
-2.179872
-1.188571
-0.010700
1.005618
1.622609
1.833027
1.875345
1.935900
1.957643
1.773646
1.299038
0.672696
0.114622
-0.252673
-0.339177
-0.191183
-0.009989
0.091947
0.130524
0.148060
0.121407
-0.042484
-0.347822
-0.771462
-1.355253
-2.042617
-2.646748
-2.913510
-2.713847
-2.220066
-1.689346
-1.347534
-1.315503
-1.465600
-1.555611
-1.293290
-0.562439
0.352410
1.171403
1.804293
2.241728
2.550809
2.688282
2.568578
2.302985
2.132548
2.227704
2.521354
2.848437
3.157518
3.382197
3.433166
3.310657
2.988485
2.436724
1.781625
1.303276
1.313096
1.893616
2.815713
3.764229
4.460945
4.745945
4.634424
4.247490
3.785741
3.427097
3.215511
3.071960
2.740670
1.973114
0.847615
-0.363454
-1.370185
-1.920075
-2.005878
-1.833803
-1.653310
-1.661259
-1.781898
-1.672947
-1.123523
-0.344510
0.286743
0.622243
0.632063
0.315035
-0.148351
-0.491331
-0.528504
-0.272729
0.043365
0.180371
0.091763
-0.047112
-0.045475
0.094570
0.279505
0.436149
0.524058
0.554218
0.505355
0.381444
0.301719
0.328139
0.460001
0.797839
1.429560
2.234525
2.915577
3.274222
3.373119
3.422451
3.621881
3.920207
3.998763
3.627494
2.786526
1.602577
0.346619
-0.720665
-1.471855
-1.905548
-2.074115
-1.984103
-1.749837
-1.551577
-1.408960
-1.425792
-1.802673
-2.551525
-3.426627
-3.875284
-3.439251
-2.112217
-0.269660
1.410174
2.450338
2.755211
2.411763
1.859301
1.527076
1.496916
1.795242
2.401246
3.159451
3.817123
4.138595
4.049051
3.643881
3.167871
2.859259
2.852246
3.177225
3.637572
3.883060
3.679189
3.079734
2.320361
1.587641
0.987484
0.538828
0.161947
-0.225221
-0.597191
-0.818831
-0.871200
-0.887332
-0.978746
-1.194774
-1.433480
-1.436051
-0.966118
-0.002873
1.151619
2.095693
2.625946
2.791942
2.753133
2.635299
2.486137
2.191320
1.582980
0.730789
-0.158107
-0.974059
-1.681061
-2.302260
-2.921354
-3.568972
-4.148087
-4.522162
-4.584819
-4.187363
-3.289815
-2.265782
-1.728515
-2.049051
-3.073550
-4.231547
-4.995128
-5.167436
-4.846198
-4.323894
-3.896045
-3.705733
-3.673468
-3.568025
-3.330486
-3.090610
-2.839979
-2.431066
-1.782045
-0.877950
0.316755
1.797627
3.350042
4.649721
5.513603
5.850272
5.646869
5.051154
4.247360
3.416679
2.680218
2.043589
1.553316
1.212207
0.951757
0.820364
0.760045
0.581658
0.310220
-0.004938
-0.407069
-0.834215
-1.266272
-1.612525
-1.544490
-0.973790
-0.204596
0.301342
0.198238
-0.324766
-0.758693
-0.816207
-0.487487
0.062171
0.654146
1.261552
2.008769
2.997265
4.146613
5.291051
6.176909
6.538127
6.339634
5.616499
4.308404
2.412309
0.131851
-2.081974
-3.801085
-4.875383
-5.372201
-5.512245
-5.589398
-5.831144
-6.355316
-7.112351
-7.780543
-7.943265
-7.406700
-6.263197
-4.807341
-3.450147
-2.572705
-2.305474
-2.372573
-2.297758
-1.876922
-1.287051
-0.715182
-0.143313
0.521373
1.248483
1.817780
2.040122
1.945669
1.743201
1.691065
1.864543
2.184378
2.588614
3.039142
3.572902
4.213741
4.914198
5.612084
6.214580
6.713036
7.185074
7.754838
8.487793
9.119514
9.348169
9.134479
8.574301
7.828021
6.804223
5.343459
3.699397
2.154699
0.885181
0.073671
-0.338045
-0.492117
-0.533966
-0.650864
-0.818964
-0.966957
-1.103260
-1.166852
-1.201220
-1.420755
-1.964800
-2.777479
-3.642996
-4.229359
-4.273779
-3.765270
-2.867488
-1.932766
-1.355753
-1.265507
-1.620410
-2.238102
-2.881979
-3.465069
-3.919102
-4.260913
-4.544976
-4.699516
-4.827870
-5.100009
-5.506348
-5.977917
-6.313415
-6.296815
-5.876213
-5.044362
-3.764321
-2.023933
-0.125265
1.321005
1.956467
2.081783
2.352755
3.015804
3.827549
4.525902
4.911668
4.908162
4.448517
3.430331
2.092777
0.799645
-0.243324
-0.839038
-0.929985
-0.485536
0.524703
1.796093
2.934687
3.703646
3.840185
3.168953
1.817138
0.172843
-1.307327
-2.310083
-2.652128
-2.245787
-1.247239
-0.073108
0.775577
0.979215
0.572642
-0.173872
-0.870821
-1.139220
-0.813773
0.068812
1.288533
2.517138
3.582787
4.393363
4.780999
4.673453
4.120991
3.174814
1.942703
0.643492
-0.424025
-0.946795
-0.825220
-0.425426
-0.359495
-0.928089
-1.961706
-3.047226
-3.826706
-4.219952
-4.285882
-4.024496
-3.508505
-2.884967
-2.190355
-1.335124
-0.250070
0.887588
1.678058
1.910453
1.680163
1.211166
0.817686
0.653094
0.616856
0.704998
0.952122
1.218886
1.304924
1.076972
0.632290
0.149733
-0.396416
-0.992833
-1.368310
-1.266842
-0.753422
-0.136197
0.314331
0.507215
0.534336
0.509086
0.503242
0.581565
0.592320
0.280903
-0.354558
-0.989550
-1.237141
-1.093823
-0.860726
-0.849269
-1.222643
-1.731853
-1.984353
-1.749620
-0.983466
0.037995
0.960560
1.408984
1.075823
0.215216
-0.663393
-1.309842
-1.793334
-2.428795
-3.339668
-4.326526
-5.155804
-5.722995
-6.126061
-6.426256
-6.512527
-6.239217
-5.451320
-4.208219
-2.758909
-1.317782
-0.203971
0.380055
0.477081
0.200266
-0.098994
-0.217061
-0.390304
-0.793370
-1.366640
-1.726687
-1.441454
-0.656596
0.122418
0.479427
0.401573
0.304781
0.480364
1.029788
1.973394
3.147291
4.346672
5.136907
5.135739
4.728231
4.549610
4.790422
5.220376
5.421676
5.232067
4.716779
3.952028
3.236843
2.896669
2.987149
3.308153
3.519039
3.486074
3.313767
3.101713
2.951382
2.818586
2.535926
2.146420
1.784269
1.433340
1.081008
0.783618
0.577410
0.543977
0.715819
0.895610
0.877608
0.705300
0.554034
0.444150
0.218069
-0.201597
-0.795909
-1.535175
-2.302029
-2.914110
-3.254284
-3.378664
-3.421448
-3.364167
-3.070985
-2.385490
-1.242455
0.058627
1.117963
1.943268
2.700071
3.423674
4.122261
4.746033
5.192586
5.352037
5.107251
4.404691
3.319171
2.135924
1.103476
0.209670
-0.565601
-1.116661
-1.279149
-0.943182
-0.172118
0.851447
1.849996
2.583652
2.960066
2.965211
2.780044
2.742871
3.043301
3.615403
4.172543
4.383195
4.187975
3.835877
3.649541
3.858323
4.455675
5.193306
5.773358
5.999207
5.922288
5.780608
5.686388
5.601053
5.431550
5.068698
4.570710
4.171385
4.039992
4.131641
4.143799
3.584557
2.164940
0.143764
-1.891441
-3.347062
-3.903265
-3.780287
-3.492950
-3.482896
-3.936228
-4.695835
-5.486303
-5.953663
-5.644348
-4.406157
-2.591422
-0.852671
0.295975
0.768948
0.724995
0.382482
-0.096801
-0.618870
-1.044380
-1.293140
-1.329378
-1.139534
-0.873472
-0.731790
-0.920932
-1.541663
-2.308283
-2.786866
-2.689605
-1.915268
-0.636396
0.907601
2.417231
3.469319
4.016639
4.274285
4.269142
4.020382
3.440799
2.409754
1.193308
0.072250
-0.991527
-2.110713
-3.337915
-4.576104
-5.659286
-6.552157
-7.193930
-7.302178
-6.600785
-5.055852
-2.977394
-0.988012
0.504550
1.428517
1.714686
1.521804
1.203840
0.984305
0.857588
0.517647
-0.200344
-1.132960
-2.016246
-2.384943
-1.933948
-0.820137
0.581245
1.762155
2.295214
2.124542
1.679861
1.490018
1.523919
1.534207
1.542390
1.530935
1.435780
1.361433
1.563435
2.220406
3.041502
3.476833
3.222697
2.285872
1.043707
0.005181
-0.687326
-1.125462
-1.359960
-1.386846
-1.114004
-0.484621
0.572377
2.187683
4.127032
5.798683
6.696465
6.600142
5.627546
4.112774
2.469881
1.064526
0.056393
-0.494900
-0.738049
-1.113293
-1.882485
-2.971278
-4.196609
-5.278154
-5.985157
-6.291898
-6.195807
-5.778478
-5.335665
-5.027987
-4.667238
-3.965611
-2.942280
-2.037250
-1.600984
-1.669018
-2.117207
-2.628287
-2.941575
-3.007505
-2.844781
-2.611451
-2.574510
-2.907437
-3.586617
-4.433431
-5.182283
-5.644265
-5.896298
-6.129627
-6.504871
-6.991402
-7.301885
-7.332511
-7.148746
-6.766955
-6.257510
-5.561027
-4.645944
-3.649733
-2.480746
-1.010394
0.573583
1.900617
2.595697
2.482773
1.654430
0.426995
-0.701310
-1.463956
-1.986024
-2.345838
-2.474659
-2.373425
-2.143835
-1.921026
-1.672498
-1.189940
-0.345931
0.759697
1.876780
2.923491
3.919468
4.711574
5.168882
5.244166
4.844139
3.926486
2.619326
1.249275
0.152298
-0.417699
-0.306644
0.341442
1.187321
1.864165
2.050736
1.761997
1.330642
1.055697
1.043774
1.188963
1.269623
1.158804
0.957739
0.859779
0.959143
1.272198
1.688358
1.983177
2.038354
1.790062
1.253498
0.652873
0.131740
-0.272495
-0.538556
-0.740556
-0.805551
-0.641424
-0.334916
0.050383
0.376998
0.541359
0.613135
0.667844
0.827061
1.163028
1.553938
1.775812
1.706375
1.383034
0.801815
0.005736
-0.954703
-2.077864
-3.188167
-4.152580
-4.842983
-5.061582
-4.853736
-4.397831
-4.014636
-3.995464
-4.254979
-4.634431
-5.010376
-5.279944
-5.397309
-5.300984
-5.095943
-4.890435
-4.687498
-4.577847
-4.542777
-4.532255
-4.677442
-5.063675
-5.535477
-5.735373
-5.443827
-4.700585
-3.669305
-2.733881
-2.173235
-1.936397
-1.907874
-1.816692
-1.412456
-0.733274
0.088992
0.807919
1.167500
1.056914
0.508660
-0.136620
-0.564000
-0.752440
-0.673182
-0.220083
0.812367
2.478173
4.382686
6.016930
6.969420
7.044470
6.439403
5.489719
4.519929
3.791417
3.349775
3.153854
3.107562
2.989963
2.571934
1.739850
0.579281
-0.763649
-2.140949
-3.295439
-4.044057
-4.344018
-4.227353
-3.832702
-3.222023
-2.460545
-1.685740
-0.857162
0.098602
1.145079
2.127964
2.730226
2.902769
2.931293
2.940178
2.877287
2.775820
2.772781
2.892486
2.899968
2.620347
2.247909
2.115814
2.344468
2.813233
3.413391
4.111276
4.731307
4.998071
4.753987
4.034360
3.104782
2.256566
1.598428
1.194427
1.013468
0.875295
0.605727
0.011181
-0.966792
-2.067743
-2.987734
-3.560771
-3.783345
-3.773992
-3.536454
-3.042206
-2.413758
-1.765204
-1.134418
-0.566290
-0.126750
0.163626
0.380123
0.621870
0.884893
1.020028
0.928848
0.684764
0.417769
0.269542
0.303443
0.443488
0.539813
0.410057
0.056556
-0.334119
-0.718247
-1.180697
-1.757942
-2.337057
-2.681908
-2.593298
-2.004362
-1.106814
-0.231944
0.451213
0.885141
1.096728
1.242618
1.432696
1.539542
1.274183
0.476000
-0.808949
-2.391756
-3.877070
-4.794957
-4.914427
-4.441454
-3.824463
-3.331383
-2.952865
-2.460487
-1.603152
-0.319371
1.415639
3.425829
5.179309
6.232800
6.527619
6.403006
6.320944
6.385472
6.362093
5.987083
5.174405
3.962868
2.324183
0.409385
-1.258758
-2.198155
-2.383556
-2.222702
-2.128014
-2.216155
-2.445977
-2.661304
-2.719518
-2.806958
-3.190385
-3.791945
-4.304427
-4.441666
-3.998853
-2.924788
-1.442279
0.074131
1.365394
2.197011
2.221795
1.327988
-0.010033
-1.019803
-1.352495
-1.283057
-1.259209
-1.530179
-1.941194
-2.069315
-1.715345
-1.070064
-0.552670
-0.516664
-0.982388
-1.686351
-2.280663
-2.554205
-2.430058
-1.969710
-1.443666
-1.162173
-1.414206
-2.162824
-3.040031
-3.925888
-4.589872
-4.694846
-4.393715
-3.801038
-2.910971
-1.885769
-0.809366
0.105250
0.718033
1.242441
1.738793
2.075228
2.151446
1.887490
1.429482
1.131391
1.188438
1.483023
1.741604
1.801924
1.739501
1.675675
1.684794
1.838867
2.037595
2.034322
1.671002
0.937113
0.022967
-0.716767
-1.057175
-1.101363
-1.135029
-1.297751
-1.593504
-2.050109
-2.599766
-3.134927
-3.564880
-3.791896
-3.944098
-4.133940
-4.223718
-4.182335
-3.967007
-3.503153
-3.042338
-2.749389
-2.537100
-2.467194
-2.530787
-2.499925
-2.232460
-1.780997
-1.352680
-1.010867
-0.633518
-0.364650
-0.491602
-1.069080
-1.870537
-2.454094
-2.600450
-2.451988
-2.133556
-1.709213
-1.278792
-0.897702
-0.474060
0.095003
0.662897
0.974316
0.928960
0.556287
-0.082446
-0.802307
-1.243248
-1.154872
-0.612929
0.038430
0.316884
-0.106756
-1.155103
-2.495929
-3.834886
-4.895623
-5.467023
-5.607534
-5.384491
-4.654108
-3.329412
-1.548578
0.402461
2.207143
3.580703
4.373276
4.630454
4.514023
4.267368
4.078928
3.870148
3.397878
2.545220
1.467883
0.520303
0.075387
0.316433
1.077210
1.927531
2.498231
2.723846
2.681062
2.379230
1.901349
1.431885
1.134729
1.208376
1.777907
2.670546
3.464522
3.734558
3.399060
2.793058
2.215112
1.658675
1.059219
0.525695
0.239527
0.186690
0.185755
0.178508
0.232049
0.358767
0.483148
0.568719
0.730273
1.076528
1.546928
2.058945
2.636892
3.229803
3.517608
3.222323
2.586161
2.152468
2.244585
2.744678
3.188659
3.287790
3.146343
2.835861
2.327353
1.733976
1.293502
1.221026
1.463708
1.713872
1.678102
1.182218
0.318338
-0.655427
-1.593187
-2.353028
-2.847508
-3.183240
-3.437845
-3.577655
-3.543988
-3.402540
-3.371911
-3.502370
-3.557311
-3.244490
-2.470854
-1.399595
-0.190628
1.062292
2.189897
3.113163
4.005334
5.129198
6.501589
7.804775
8.651356
8.965112
9.211302
9.936308
11.136857
12.466463
13.599445
14.223451
14.056754
13.032255
11.464645
9.770550
8.113864
6.484064
4.789502
2.977106
1.137122
-0.582924
-1.971211
-2.894008
-3.414440
-3.664369
-3.760459
-3.747600
-3.680265
-3.546533
-3.119151
-2.360945
-1.473918
-0.690463
-0.321296
-0.427907
-0.924024
-1.663290
-2.141639
-2.091372
-1.577952
-0.640659
0.381971
1.098327
1.334930
1.173377
1.008551
0.892120
0.532774
-0.183813
-1.313755
-2.748802
-4.166314
-5.263056
-5.871630
-6.178839
-6.591724
-7.249162
-7.934421
-8.461867
-8.747099
-8.532940
-7.712778
-6.680329
-5.873728
-5.306301
-4.645589
-3.506061
-1.701613
0.580483
2.911442
5.019827
6.865189
8.339515
9.266522
9.684552
9.724766
9.414050
8.928688
8.549002
8.443326
8.720142
9.254837
9.725238
10.002055
10.059803
9.763115
9.124148
8.400312
7.787063
7.318534
7.049668
7.122613
7.609379
8.405927
9.322180
10.113350
10.569489
10.718185
10.682648
10.442072
9.915795
9.115741
8.118830
6.965509
5.690847
4.421328
3.298868
2.326039
1.446026
0.740193
0.387861
0.473432
0.793267
0.957160
0.869720
0.737391
0.582385
0.271201
-0.162025
-0.529787
-0.634060
-0.418966
0.000701
0.565556
1.258064
1.817308
1.890721
1.500046
0.970028
0.479756
-0.016829
-0.563446
-1.056758
-1.370513
-1.595893
-1.894919
-2.334457
-2.975996
-3.662658
-4.096351
-4.336928
-4.666114
-5.166206
-5.610420
-5.669804
-5.366802
-5.089751
-5.137913
-5.573944
-6.320692
-7.121681
-7.622474
-7.686300
-7.448294
-7.149266
-6.940718
-6.685645
-6.105359
-5.062623
-3.625237
-2.017646
-0.467336
0.920018
2.109345
3.081942
3.934835
4.825838
5.676860
6.180928
6.045794
5.306761
4.327853
3.376766
2.658775
2.324680
2.204041
2.030096
1.658593
1.094441
0.527249
0.221677
0.272646
0.551800
1.082521
1.941492
2.937002
3.775633
4.187117
4.262634
4.400108
4.781198
5.376914
5.891970
6.089997
6.032951
5.653966
5.099634
4.687450
4.360134
3.911478
2.977225
1.408913
-0.356723
-1.924801
-3.160652
-4.087190
-4.784841
-5.170839
-5.241445
-5.217597
-5.293113
-5.421467
-5.348756
-4.974212
-4.550103
-4.303212
-4.076195
-3.599014
-2.756641
-1.681641
-0.777780
-0.298027
-0.212691
-0.362320
-0.598455
-1.002456
-1.462101
-1.705951
-1.775154
-1.656618
-1.292829
-0.710907
0.046363
0.560250
0.448730
-0.194446
-1.109528
-1.998658
-2.711038
-3.231236
-3.487945
-3.590347
-3.724780
-3.894750
-4.013986
-3.899191
-3.538207
-3.241518
-3.151739
-3.182366
-3.347192
-3.699992
-4.168287
-4.563170
-4.668378
-4.430372
-4.092067
-3.817822
-3.617457
-3.688297
-4.075932
-4.538616
-4.818237
-4.811924
-4.808182
-4.947057
-4.903337
-4.419142
-3.430413
-2.124420
-0.857472
0.000330
0.108579
-0.360651
-0.849988
-1.072329
-1.082849
-1.037959
-0.939296
-0.666688
-0.179921
0.383998
0.723940
0.663154
0.231564
-0.445746
-1.146202
-1.647462
-1.785168
-1.558852
-1.163967
-0.713907
-0.233687
0.223387
0.694957
1.209779
1.556735
1.448955
0.909352
0.253317
-0.217550
-0.328369
-0.070724
0.406925
0.807888
0.746634
0.155127
-0.678593
-1.375308
-1.542005
-1.217494
-0.858615
-0.745690
-0.992111
-1.558134
-2.165305
-2.533301
-2.529560
-2.333637
-2.316569
-2.636871
-3.167122
-3.572760
-3.544236
-3.119659
-2.570937
-2.150335
-2.115966
-2.586599
-3.233515
-3.643361
-3.825956
-3.981197
-4.336335
-5.060638
-5.942287
-6.690203
-7.183983
-7.149614
-6.444481
-5.475858
-4.817250
-4.590466
-4.391738
-3.761887
-2.537257
-0.854150
0.957312
2.600908
3.946879
4.858455
5.087344
4.545870
3.434164
2.032784
0.636781
-0.411565
-0.797797
-0.529865
-0.084948
0.133185
0.184621
0.299650
0.459101
0.306899
-0.309156
-1.084894
-1.782311
-2.414732
-3.057908
-3.668118
-3.961299
-3.737320
-3.251723
-3.020731
-3.286090
-3.875024
-4.550698
-5.058271
-5.153660
-4.911211
-4.628550
-4.554202
-4.711546
-4.831250
-4.666422
-4.150197
-3.332608
-2.343878
-1.220482
-0.061782
0.918063
1.713676
2.369244
2.881261
3.328048
3.719893
4.047911
4.214843
4.033417
3.564654
2.887344
1.827542
0.340592
-1.277051
-2.695966
-3.840403
-4.730001
-5.347693
-5.639471
-5.479787
-4.908619
-4.232477
-3.800653
-3.775870
-4.014810
-4.285546
-4.348437
-3.965710
-3.090840
-1.795837
-0.398664
0.624668
1.050413
0.683118
-0.473476
-1.890521
-3.001758
-3.422593
-3.024202
-2.033836
-0.792839
0.334064
1.080580
1.412105
1.439226
1.402520
1.502586
1.631643
1.502120
0.922303
-0.234525
-1.869235
-3.431935
-4.371098
-4.535924
-4.164420
-3.727452
-3.513059
-3.508850
-3.525215
-3.422344
-3.330929
-3.356178
-3.496456
-3.782155
-4.125135
-4.387923
-4.496872
-4.454086
-4.232446
-3.753862
-3.231324
-2.937674
-2.788277
-2.595160
-2.202614
-1.556398
-0.881190
-0.420843
-0.142390
0.199890
0.878838
1.909885
2.910304
3.432607
3.235049
2.320669
0.963243
-0.477415
-1.701811
-2.565457
-3.128908
-3.432376
-3.586916
-3.963095
-4.794711
-5.888180
-6.752996
-6.936058
-6.452799
-5.727559
-5.156859
-4.868586
-4.774132
-4.866949
-5.125762
-5.252947
-5.065441
-4.592702
-3.813922
-2.862835
-2.027242
-1.450230
-1.088311
-0.954111
-1.222276
-1.911977
-2.785677
-3.508344
-3.802694
-3.677144
-3.425811
-3.424875
-3.791936
-4.234514
-4.449373
-4.299041
-3.830744
-3.296984
-2.875681
-2.679992
-2.851832
-3.375304
-4.008426
-4.364031
-4.220245
-3.794733
-3.523996
-3.623125
-3.970781
-4.284770
-4.247595
-3.724357
-2.819794
-1.715569
-0.760039
-0.285898
-0.172038
-0.043682
0.311456
0.843580
1.313045
1.454961
1.183757
0.633165
0.098003
0.007525
0.594824
1.590333
2.538849
3.234163
3.845544
4.704282
5.894544
7.216668
8.322998
8.844366
8.697542
8.131987
7.517101
7.148170
7.069381
7.142794
7.175058
7.047406
6.890762
6.821559
6.712844
6.339236
5.486111
4.148557
2.597313
1.172787
0.241106
0.016895
0.307973
0.739096
