EVENT_NAME: 202302060117
EVENT_ID: 13194
EVENT_DATE_YYYYMMDD: 2023/02/06
EVENT_TIME_HHMMSS: 01:17:32.00000
EVENT_LATITUDE_DEGREE: 37.288
EVENT_LONGITUDE_DEGREE: 37.043
EVENT_DEPTH_KM: 8.6
HYPOCENTER_REFERENCE: AFAD
MAGNITUDE_W: 7.7
MAGNITUDE_W_REFERENCE: AFAD
MAGNITUDE_L: 
MAGNITUDE_L_REFERENCE: 
FOCAL_MECHANISM: 
NETWORK: TK
STATION_CODE: 2415
STATION_NAME: 
STATION_LATITUDE_DEGREE: 39.46104
STATION_LONGITUDE_DEGREE: 38.55493
STATION_ELEVATION_M: 1772.0
LOCATION: Kahramanmaras_Pazarck_Turkiye
SENSOR_DEPTH_M: 
VS30_M/S: 444
SITE_CLASSIFICATION_EC8: B
MORPHOLOGIC_CLASSIFICATION: 
EPICENTRAL_DISTANCE_KM: 275.23
EARTHQUAKE_BACKAZIMUTH_DEGREE: 
DATE_TIME_FIRST_SAMPLE_YYYYMMDD_HHMMSS: 2023/02/06 01:17:56.9405730
DATE_TIME_FIRST_SAMPLE_PRECISION: millisecond
SAMPLING_INTERVAL_S: 0.01
NDATA: 18251
DURATION_S: 
STREAM: HNN
UNITS: cm/s^2
INSTRUMENT: sensor = ACEBOX/SARA | digitizer = 
INSTRUMENT_ANALOG/DIGITAL: 
INSTRUMENTAL_FREQUENCY_HZ: 
INSTRUMENTAL_DAMPING: 
FULL_SCALE_G: 
N_BIT_DIGITAL_CONVERTER: 
PGA_CM/S^2: 15.703
TIME_PGA_S: 
BASELINE_CORRECTION: BASELINE REMOVED
FILTER_TYPE: BUTTERWORTH
FILTER_ORDER: 
LOW_CUT_FREQUENCY_HZ: 
HIGH_CUT_FREQUENCY_HZ: 
LATE/NORMAL_TRIGGERED: 
DATABASE_VERSION: 
HEADER_FORMAT: DYNA 1.2
DATA_TYPE: Acceleration
PROCESSING: Automatic Paolucci et al., 2011
DATA_TIMESTAMP_YYYYMMDD_HHMMSS: 
DATA_LICENSE: U (unknown license)
DATA_CITATION: Turkish Accelerometric Archive v 1.0 - Disaster And Emergency Management Presidency, Earthquake Department
DATA_CREATOR: AFAD
ORIGINAL_DATA_MEDIATOR_CITATION: : AFAD - Disaster And Emergency Management Presidency
ORIGINAL_DATA_MEDIATOR: AFAD PROCESS SERVICE
ORIGINAL_DATA_CREATOR_CITATION: AFAD PROCESS SERVICE
ORIGINAL_DATA_CREATOR: network: TK
USER1: GuestUser
USER2: 
USER3: 
USER4: 
USER5: 
[...]
-3.999520
-4.336889
-4.463374
-4.604821
-4.646905
-4.371258
-4.036694
-3.693479
-3.312390
-2.953043
-2.502750
-1.909372
-1.377250
-1.089913
-0.788548
-0.205458
0.359163
0.628264
0.837044
1.196157
1.670064
2.406058
3.403437
4.361071
5.237109
5.953698
6.441633
7.008124
7.574614
7.745053
7.644520
7.455378
6.936582
6.148217
5.429057
4.637887
3.691943
2.921114
2.373093
1.867390
1.420369
1.227019
1.316096
1.513187
1.880950
2.393667
2.732674
2.869679
2.869679
2.681706
2.477835
2.390628
2.370989
2.383614
2.313943
2.190732
2.299447
2.707190
3.351535
4.232717
5.028095
5.419238
5.393754
4.869347
3.975073
3.021647
2.096979
1.327553
0.727161
0.153189
-0.357658
-0.830864
-1.344750
-1.756701
-1.960338
-2.060871
-2.124698
-2.156026
-2.184316
-2.071859
-1.733087
-1.284430
-0.718173
-0.009534
0.679701
1.177923
1.484665
1.681756
1.869028
2.232816
2.786682
3.417233
4.084958
4.620588
4.936682
5.103145
5.123720
5.099638
5.117407
5.128162
5.121615
5.038384
4.863503
4.798508
4.947904
5.140319
5.249269
5.296964
5.192924
4.798508
4.152058
3.269474
2.107969
0.773922
-0.705080
-2.382575
-4.107064
-5.754867
-7.372276
-8.927262
-10.341501
-11.641180
-12.800815
-13.651603
-14.057007
-14.017262
-13.679658
-13.217909
-12.682513
-12.067626
-11.387744
-10.695236
-9.969296
-9.157785
-8.380877
-7.726245
-7.119307
-6.429605
-5.575544
-4.637081
-3.582422
-2.286951
-0.894221
0.420187
1.676380
2.966240
4.228277
5.274520
6.159443
6.893566
7.226260
7.215505
7.066109
6.724531
6.272601
5.992512
5.936400
5.929387
5.892680
5.806643
5.588510
5.221449
4.733046
4.122835
3.293323
2.180448
0.986913
-0.238185
-1.487130
-2.387249
-2.846661
-3.094018
-3.260716
-3.459210
-3.586162
-3.533090
-3.338804
-2.998863
-2.748232
-2.800369
-3.032296
-3.375510
-3.789097
-4.101918
-4.284514
-4.508258
-4.865032
-5.285400
-5.716989
-6.167984
-6.613134
-6.994925
-7.297459
-7.512319
-7.643479
-7.805500
-8.089798
-8.446572
-8.790488
-9.087177
-9.315830
-9.333833
-9.055146
-8.613270
-7.980848
-6.965466
-5.667892
-4.340624
-3.078821
-1.882714
-0.764695
0.238529
1.154547
2.052328
2.908728
3.643319
4.159777
4.445009
4.625033
4.814409
5.076028
5.397733
5.686239
5.900398
5.977083
5.782564
5.264703
4.520760
3.703639
2.951747
2.366552
1.874409
1.388812
1.013100
0.750312
0.500382
0.243673
0.012681
-0.120583
-0.181838
-0.145132
0.094744
0.419255
0.753118
1.128596
1.515998
2.009544
2.605260
3.151878
3.603340
3.838073
3.758815
3.469141
3.040123
2.547278
2.177878
2.035028
2.004635
1.893113
1.644821
1.365199
1.169511
1.137013
1.358653
1.787905
2.132990
2.091841
1.634534
0.934311
0.111345
-0.641716
-1.039405
-1.171501
-1.343342
-1.642836
-2.072555
-2.660789
-3.397952
-4.159196
-4.833701
-5.410011
-5.707869
-5.638431
-5.445548
-5.243547
-5.054639
-4.947794
-4.835571
-4.687811
-4.517373
-4.225594
-3.835620
-3.386028
-2.794287
-2.011300
-1.021636
0.140570
1.380631
2.602923
3.710187
4.591836
5.225661
5.771577
6.314689
6.703961
6.814313
6.716119
6.514819
6.193114
5.811323
5.455250
5.033947
4.507436
3.873845
3.181104
2.694806
2.545176
2.660204
3.093898
3.932762
4.975498
5.886372
6.530484
6.809638
6.710508
6.476243
6.319131
6.334328
6.506169
6.684790
6.785557
6.912743
7.157996
7.423122
7.724019
8.138308
8.527113
8.831751
8.981381
8.770262
8.289575
7.816136
7.449542
7.163140
6.873231
6.414287
5.736509
4.977136
4.160014
3.222253
2.210613
1.221884
0.296748
-0.620906
-1.510972
-2.324353
-3.176778
-4.091159
-4.937505
-5.733351
-6.659188
-7.738396
-8.700939
-9.433894
-10.010671
-10.311335
-10.347339
-10.246807
-9.893071
-9.318865
-8.663999
-7.846176
-6.884568
-5.842533
-4.661857
-3.446579
-2.344225
-1.344274
-0.351337
0.753121
1.837707
2.637995
3.164039
3.396200
3.243998
2.901952
2.540034
2.094884
1.486310
0.719922
-0.148868
-1.073536
-1.983475
-2.928484
-4.049308
-5.157273
-5.942130
-6.412764
-6.558420
-6.210062
-5.565717
-4.979821
-4.480664
-4.180702
-4.179299
-4.237047
-4.262764
-4.271649
-4.120616
-3.779739
-3.428809
-3.238966
-3.132121
-3.055201
-3.162748
-3.434187
-3.706093
-3.890325
-3.952281
-3.913003
-3.845670
-3.877466
-4.024291
-4.208991
-4.451438
-4.643620
-4.604108
-4.339449
-3.945969
-3.609768
-3.448915
-3.312378
-3.098921
-2.924508
-2.826781
-2.593919
-2.142690
-1.623426
-1.000123
-0.365363
-0.065167
-0.073818
-0.279793
-0.757441
-1.413242
-2.121180
-2.852732
-3.618652
-4.323551
-4.707913
-4.746256
-4.533734
-4.032707
-3.411507
-2.908843
-2.540846
-2.268706
-1.957288
-1.415814
-0.613188
0.402194
1.517874
2.558272
3.510996
4.442912
5.355423
6.304640
7.185588
7.685914
7.849105
7.996163
8.214764
8.443651
8.611284
8.676747
8.706206
8.760914
8.921065
9.283685
9.776296
10.189649
10.312159
10.066906
9.517716
8.793178
8.135039
7.631674
7.091368
6.379923
5.425095
4.172643
2.736193
1.249242
-0.271843
-1.874055
-3.542433
-5.105835
-6.453910
-7.593671
-8.441420
-8.999027
-9.489533
-10.016045
-10.453947
-10.675821
-10.567573
-10.110265
-9.513147
-8.947357
-8.431133
-7.973124
-7.506231
-6.975511
-6.465365
-6.010162
-5.563843
-5.145112
-4.836032
-4.680323
-4.642682
-4.725680
-5.032656
-5.617383
-6.334205
-7.066458
-7.948809
-8.965125
-9.946840
-10.945388
-11.870992
-12.516740
-12.915832
-13.038341
-12.782801
-12.108529
-11.002668
-9.528343
-7.705659
-5.693600
-3.721988
-1.827528
-0.156579
1.142165
2.108215
2.740636
3.128506
3.417012
3.634210
3.858421
4.193453
4.592545
4.922199
5.142904
5.336722
5.589456
5.848270
5.968676
5.935476
5.762233
5.390028
4.971764
4.789870
4.912146
5.320356
5.976157
6.695552
7.412140
8.196764
9.030485
9.900912
10.738140
11.456833
12.091593
12.522715
12.569241
12.260628
11.676836
10.897590
10.007524
9.051761
8.093893
7.148417
6.135841
5.015719
3.861228
2.817791
1.916502
1.035320
0.198326
-0.504468
-1.172427
-1.829631
-2.349830
-2.711514
-2.966821
-3.119958
-3.094474
-2.844545
-2.350765
-1.508627
-0.335199
0.950219
2.138143
3.128975
3.960358
4.703834
5.412006
6.085576
6.574212
6.774109
6.740208
6.600631
6.467133
6.229829
5.825360
5.356596
4.765557
4.091753
3.496271
2.979813
2.564589
2.257847
2.053976
1.963730
1.910892
1.912061
1.969575
2.041117
2.209919
2.463589
2.738301
3.079645
3.489959
3.936746
4.423512
4.985794
5.608630
6.192188
6.725947
7.204764
7.483918
7.606428
7.777801
7.953383
8.085946
8.293324
8.509353
8.584402
8.567569
8.580895
8.655009
8.707146
8.586273
8.273686
7.862670
7.257135
6.423180
5.550649
4.647256
3.666009
2.669098
1.638753
0.592511
-0.409311
-1.282076
-1.946995
-2.525877
-3.093771
-3.556689
-3.884006
-3.966302
-3.670782
-3.058467
-2.190612
-1.125665
-0.008816
1.080446
2.101205
2.998519
3.684714
4.098301
4.365765
4.663155
5.010812
5.306799
5.447311
5.361508
4.884561
3.958490
2.739939
1.278472
-0.359745
-2.010120
-3.628698
-5.172228
-6.622472
-8.041388
-9.467083
-10.863554
-12.094731
-13.157807
-14.064473
-14.674684
-15.056007
-15.300793
-15.346383
-15.210781
-14.831795
-14.133677
-13.156170
-11.904420
-10.493687
-9.143040
-7.907188
-6.757606
-5.715806
-4.762614
-3.912294
-3.232645
-2.703796
-2.381389
-2.337903
-2.432591
-2.593443
-2.949984
-3.574690
-4.306476
-4.870161
-5.112375
-4.928610
-4.386668
-3.840985
-3.486081
-3.223760
-2.934553
-2.585961
-2.221705
-1.859787
-1.463734
-0.997075
-0.542105
-0.244949
-0.021439
0.214930
0.345155
0.405007
0.536402
0.738636
0.977577
1.274266
1.647874
2.040887
2.410287
2.814756
3.303392
3.808628
4.185276
4.380029
4.409020
4.240452
3.903550
3.465414
2.978648
2.532329
2.157085
1.822287
1.557862
1.473695
1.536821
1.544068
1.424598
1.165317
0.716894
0.158586
-0.367224
-0.767953
-1.033312
-1.148808
-1.098542
-0.955926
-0.758133
-0.606632
-0.646144
-0.749249
-0.724700
-0.540234
-0.233959
0.152975
0.631792
1.104998
1.413610
1.573761
1.604622
1.474865
1.212311
0.821869
0.391215
-0.025646
-0.561041
-1.107192
-1.423286
-1.619208
-1.837808
-1.930392
-1.778891
-1.506985
-1.174291
-0.724699
-0.237933
0.251638
0.702166
1.013817
1.358668
1.890557
2.570673
3.389431
4.280433
5.141976
5.863708
6.398402
6.746527
6.792818
6.618172
6.400507
6.073658
5.631080
5.086800
4.391721
3.713241
3.132489
2.490248
1.829069
1.309104
0.881021
0.461355
0.070914
-0.276743
-0.612008
-0.977667
-1.389384
-1.796893
-2.138003
-2.520027
-2.985752
-3.285713
-3.393026
-3.436746
-3.322887
-3.175127
-3.207625
-3.367309
-3.638046
-3.974246
-4.281690
-4.569260
-4.731749
-4.720995
-4.685691
-4.637295
-4.504732
-4.265090
-3.859218
-3.256722
-2.499219
-1.740079
-1.133843
-0.644973
-0.204732
0.284839
0.867462
1.350019
1.746306
2.107523
2.103081
1.726667
1.276607
0.770436
0.147834
-0.645440
-1.574316
-2.481684
-3.274958
-3.866231
-4.275844
-4.525539
-4.541905
-4.413550
-4.214121
-4.032227
-3.987338
-3.966997
-4.103535
-4.660206
-5.459793
-6.414387
-7.517443
-8.423407
-9.015382
-9.382209
-9.441828
-9.205926
-8.756802
-8.248293
-7.765034
-7.173059
-6.565186
-5.969938
-5.244699
-4.698315
-4.523668
-4.522032
-4.675169
-4.924864
-5.144400
-5.394329
-5.678159
-5.981160
-6.374641
-6.823532
-7.342561
-8.021743
-8.755632
-9.435748
-10.048999
-10.604501
-11.230142
-11.859057
-12.302103
-12.684829
-13.000455
-13.020328
-12.851059
-12.691843
-12.452434
-11.991853
-11.367615
-10.693811
-9.932801
-9.006496
-7.837042
-6.330686
-4.632149
-2.952316
-1.257987
0.397298
1.775766
2.835803
3.688929
4.342860
4.789413
5.114158
5.266827
5.151565
4.902571
4.582503
4.177566
3.887190
3.754861
3.634221
3.606166
3.730078
3.843002
3.900283
3.994269
4.112571
4.256356
4.498804
4.767203
4.971776
5.131693
5.240876
5.328083
5.410613
5.488935
5.636228
5.801055
5.983650
6.274027
6.601810
7.048129
7.651794
8.207296
8.684944
9.019040
9.069775
8.871748
8.446939
7.799320
6.984537
6.040697
4.941616
3.728676
2.542155
1.417356
0.419276
-0.357165
-0.897470
-1.095730
-0.963869
-0.664608
-0.206833
0.367607
0.834500
1.076714
1.162050
1.104536
0.886871
0.589948
0.232706
-0.230914
-0.746203
-1.204212
-1.537607
-1.686068
-1.584366
-1.281832
-0.946801
-0.694767
-0.514276
-0.376102
-0.334486
-0.360905
-0.329108
-0.282816
-0.222730
0.047072
0.539215
1.121838
1.677340
2.110800
2.472718
2.782266
3.066096
3.456304
3.903090
4.354787
4.861191
5.345619
5.780249
6.121593
6.265612
6.307929
6.336219
6.278003
6.059636
5.661947
5.127487
4.513535
3.811442
2.893320
1.688797
0.291390
-1.194391
-2.688122
-4.175774
-5.601236
-6.884315
-8.128116
-9.273022
-10.170102
-10.911707
-11.459260
-11.765300
-11.976653
-12.084667
-11.994422
-11.742856
-11.376729
-10.888327
-10.280921
-9.530666
-8.664213
-7.797293
-6.863273
-5.763958
-4.546576
-3.241052
-1.900692
-0.489725
0.947426
2.177901
3.266228
4.312704
5.213525
5.955130
6.485850
6.816907
6.968641
6.804983
6.417581
5.949753
5.378820
4.778195
4.230876
3.748318
3.335900
3.014195
2.861525
2.874618
2.931431
2.948965
2.919741
2.813831
2.615103
2.420817
2.328468
2.304386
2.279136
2.257861
2.203854
1.991332
1.530284
0.906279
0.354985
-0.107700
-0.625327
-1.172412
-1.781454
-2.495705
-3.238479
-3.971901
-4.569720
-4.932574
-5.124521
-5.259188
-5.477087
-5.804170
-6.231083
-6.706393
-7.088184
-7.449635
-7.833062
-8.132323
-8.447715
-8.792566
-8.979370
-8.985916
-8.797476
-8.329881
-7.698862
-7.094029
-6.526369
-5.939538
-5.336809
-4.758628
-4.225102
-3.764756
-3.438842
-3.224918
-3.065000
-2.952310
-2.767844
-2.402653
-1.969192
-1.564489
-1.167502
-0.752745
-0.322792
-0.010205
0.112772
0.183613
0.197875
0.128904
0.127969
0.136854
-0.019089
-0.310868
-0.625092
-0.940718
-1.264527
-1.425613
-1.362722
-1.284400
-1.273645
-1.322041
-1.411118
-1.487102
-1.571503
-1.618496
-1.608443
-1.631822
-1.693077
-1.772101
-1.840837
-1.819328
-1.616859
-1.210286
-0.734041
-0.258497
0.201616
0.568912
0.898566
1.230090
1.492177
1.694879
1.900621
2.153590
2.355824
2.396973
2.383413
2.390894
2.414040
2.510598
2.692025
2.912963
3.150268
3.419135
3.680052
3.911044
4.209136
4.593966
4.996331
5.341182
5.567965
5.698424
5.729753
5.676681
5.584331
5.411555
5.144559
4.756222
4.226437
3.691275
3.287507
3.081298
3.049268
3.119875
3.348528
3.708342
4.057636
4.394304
4.645168
4.703618
4.650779
4.467950
4.072599
3.564324
3.099768
2.784610
2.609028
2.512470
2.505690
2.532109
2.522523
2.534213
2.566243
2.591260
2.635447
2.593364
2.382713
2.024301
1.496387
0.905348
0.362938
-0.174328
-0.645663
-0.962225
-1.168668
-1.297958
-1.242781
-0.900736
-0.349676
0.349378
1.184736
1.988297
2.627265
3.120577
3.434567
3.547959
3.558713
3.446491
3.198899
3.042021
3.034540
3.051373
3.160089
3.399030
3.665559
3.957806
4.296344
4.609165
4.912867
5.285540
5.669903
6.060344
6.516951
6.944566
7.292222
7.610888
7.839308
7.899862
7.833931
7.729190
7.639879
7.591015
7.621643
7.738074
7.884899
8.040608
8.158909
8.103733
7.856142
7.467337
6.879337
6.061514
5.094996
4.188564
3.554506
3.242153
3.207317
3.365598
3.620671
3.886265
4.150923
4.535987
5.098270
5.823275
6.725499
7.702304
8.566185
9.261264
9.855810
10.350759
10.751020
11.151281
11.578662
12.047894
12.569729
13.122426
13.679565
14.128456
14.475177
14.798051
15.059436
15.299312
15.513705
15.637617
15.703080
15.636448
15.432343
15.222159
14.953526
14.618261
14.301934
13.871747
13.274628
12.600825
11.784171
10.837760
9.843420
8.787825
7.709552
6.612576
5.474217
4.322531
3.186043
2.102159
1.031134
-0.009264
-0.863092
-1.467925
-1.797112
-1.895073
-1.959835
-2.057796
-2.117414
-2.132611
-2.139858
-2.155055
-2.094736
-1.885487
-1.634856
-1.431453
-1.284862
-1.190408
-1.010851
-0.688211
-0.368376
-0.082676
0.233886
0.573827
0.956319
1.387675
1.865323
2.463143
3.102578
3.640779
4.144613
4.599816
4.943498
5.255851
5.500169
5.596494
5.571477
5.509989
5.449435
5.281569
5.007792
4.688192
4.282320
3.862887
3.514062
3.284473
3.132738
2.859429
2.521359
2.264649
1.969831
1.643918
1.385572
1.159724
1.037915
1.035577
1.082337
1.285507
1.600198
1.834463
1.976845
2.103096
2.379912
2.848208
3.424752
4.153030
4.867982
5.353112
5.652606
5.801769
5.843852
5.774648
5.554411
5.248371
4.850448
4.385659
3.923442
3.450704
2.963704
2.387160
1.722708
1.064101
0.357566
-0.360659
-0.965259
-1.468624
-1.971289
-2.566069
-3.201062
-3.825301
-4.451176
-5.005743
-5.477078
-5.849751
-6.095004
-6.271521
-6.319450
-6.214709
-6.130542
-6.184315
-6.318982
-6.465105
-6.750338
-7.244819
-7.830715
-8.515040
-9.297325
-10.055997
-10.712968
-11.261222
-11.669432
-11.773706
-11.580589
-11.325984
-11.116735
-11.011760
-11.005682
-11.025087
-11.119775
-11.265664
-11.375549
-11.448727
-11.459248
-11.351234
-11.131231
-10.855584
-10.459999
-9.884857
-9.226718
-8.465474
-7.634558
-6.939947
-6.337685
-5.735657
-5.278116
-5.079388
-5.097157
-5.148592
-5.166127
-5.198624
-5.108613
-4.923913
-4.896792
-4.974880
-5.005975
-5.038006
-5.055307
-4.905676
-4.579763
-4.219247
-3.851718
-3.476707
-3.113854
-2.712892
-2.281302
-1.823527
-1.387027
-1.130552
-1.055269
-1.108575
-1.344008
-1.722760
-2.140556
-2.559988
-2.969601
-3.306035
-3.509672
-3.565316
-3.467823
-3.265354
-3.002800
-2.723178
-2.517437
-2.365234
-2.188951
-2.032775
-1.931540
-1.853218
-1.750581
-1.537124
-1.247683
-1.019497
-0.899793
-0.947488
-1.148086
-1.356165
-1.576636
-1.943698
-2.500836
-3.155703
-3.833948
-4.577658
-5.320899
-5.925966
-6.412498
-6.811590
-7.037205
-7.138439
-7.357974
-7.690668
-7.971692
-8.290124
-8.710725
-9.139276
-9.511013
-9.811676
-10.048279
-10.154189
-10.146006
-10.112106
-9.940732
-9.564553
-9.056277
-8.467810
-7.908566
-7.405201
-6.853206
-6.225460
-5.582751
-5.047122
-4.697361
-4.472682
-4.335676
-4.276526
-4.276526
-4.417973
-4.664629
-4.861019
-4.962954
-4.885801
-4.550536
-3.999242
-3.320295
-2.627787
-1.961231
-1.423497
-1.102026
-0.844148
-0.570371
-0.297997
-0.041288
0.092678
0.132190
0.145516
0.060882
-0.139015
-0.414896
-0.748524
-1.086361
-1.267554
-1.161176
-0.854902
-0.465396
-0.048535
0.333957
0.716216
1.192461
1.667303
1.910218
1.881228
1.667069
1.313568
0.917983
0.558403
0.266390
0.025813
-0.221779
-0.453472
-0.710649
-1.059942
-1.438226
-1.831473
-2.236643
-2.595288
-2.913486
-3.219761
-3.490965
-3.750013
-4.070549
-4.372381
-4.589579
-4.774980
-4.867330
-4.886267
-4.910115
-4.901230
-4.843716
-4.617167
-4.196331
-3.776665
-3.368923
-2.989704
-2.755439
-2.602068
-2.464829
-2.376921
-2.362893
-2.415264
-2.469037
-2.474414
-2.400301
-2.278025
-2.184272
-2.087246
-1.982037
-1.908391
-1.848539
-1.790791
-1.654019
-1.393803
-1.085191
-0.762784
-0.523376
-0.445989
-0.411621
-0.331896
-0.217101
-0.102541
-0.055313
-0.090851
-0.217569
-0.462354
-0.755536
-1.031884
-1.333717
-1.683477
-2.048435
-2.425550
-2.849190
-3.296445
-3.712136
-4.131335
-4.579524
-4.976512
-5.306867
-5.655225
-6.019014
-6.310559
-6.480296
-6.511391
-6.456916
-6.406883
-6.372281
-6.350070
-6.319443
-6.226392
-6.108324
-5.995634
-5.848341
-5.701517
-5.594437
-5.499749
-5.432650
-5.394541
-5.330246
-5.212179
-5.026310
-4.810983
-4.665093
-4.565963
-4.415397
-4.203811
-3.909460
-3.538424
-3.231682
-3.061711
-2.988299
-3.012380
-3.116420
-3.221161
-3.263712
-3.223966
-3.058438
-2.686466
-2.119508
-1.434482
-0.670666
0.123075
0.845509
1.375761
1.708221
1.904377
1.910222
1.718508
1.411065
0.999348
0.524506
0.052235
-0.439908
-0.987695
-1.573357
-2.125586
-2.570970
-2.862515
-2.981284
-2.929381
-2.681088
-2.274047
-1.809960
-1.280175
-0.638869
0.054340
0.730014
1.377165
1.971244
2.507107
2.999952
3.416812
3.758156
4.020944
4.145792
4.157482
4.155378
4.143454
4.021412
3.724256
3.243569
2.583091
1.849202
1.202752
0.694711
0.279487
-0.075417
-0.393148
-0.765820
-1.202554
-1.547872
-1.706387
-1.688150
-1.489423
-1.121192
-0.667392
-0.178521
0.398958
1.030210
1.653982
2.311186
2.949452
3.506825
3.940285
4.176888
4.326518
4.444118
4.434533
4.393151
4.393618
4.313192
4.092254
3.793928
3.445804
2.988964
2.438839
1.880999
1.318483
0.744277
0.204907
-0.290042
-0.791771
-1.253521
-1.585279
-1.845729
-2.040482
-2.047730
-1.876356
-1.626895
-1.337454
-1.011306
-0.696615
-0.404602
-0.075883
0.249562
0.556071
0.903260
1.227770
1.509262
1.809925
2.110121
2.385768
2.601329
2.697888
2.653232
2.456375
2.084404
1.558594
1.029043
0.615222
0.298426
0.086139
0.018104
0.076085
0.181294
0.284165
0.363422
0.336536
0.255642
0.274112
0.339341
0.362487
0.402467
0.443849
0.390309
0.285334
0.161188
-0.050632
-0.287469
-0.453933
-0.544412
-0.573403
-0.573403
-0.517525
-0.364622
-0.141813
0.081230
0.228288
0.361786
0.562151
0.789869
1.017588
1.184987
1.235253
1.228941
1.219121
1.212575
1.232214
1.289260
1.359166
1.422759
1.479805
1.510433
1.506926
1.527500
1.591560
1.656088
1.729033
1.766675
1.694665
1.605822
1.510667
1.277571
1.002158
0.820497
0.647254
0.502065
0.517262
0.641876
0.822602
