EVENT_NAME: 202302060117
EVENT_ID: 13194
EVENT_DATE_YYYYMMDD: 2023/02/06
EVENT_TIME_HHMMSS: 01:17:32.00000
EVENT_LATITUDE_DEGREE: 37.288
EVENT_LONGITUDE_DEGREE: 37.043
EVENT_DEPTH_KM: 8.6
HYPOCENTER_REFERENCE: AFAD
MAGNITUDE_W: 7.7
MAGNITUDE_W_REFERENCE: AFAD
MAGNITUDE_L: 
MAGNITUDE_L_REFERENCE: 
FOCAL_MECHANISM: 
NETWORK: TK
STATION_CODE: 1810
STATION_NAME: 
STATION_LATITUDE_DEGREE: 40.34595
STATION_LONGITUDE_DEGREE: 33.98762
STATION_ELEVATION_M: 553.0
LOCATION: Kahramanmaras_Pazarck_Turkiye
SENSOR_DEPTH_M: 
VS30_M/S: None
SITE_CLASSIFICATION_EC8: unknown
MORPHOLOGIC_CLASSIFICATION: 
EPICENTRAL_DISTANCE_KM: 430.85
EARTHQUAKE_BACKAZIMUTH_DEGREE: 
DATE_TIME_FIRST_SAMPLE_YYYYMMDD_HHMMSS: 2023/02/06 01:18:06.7741970
DATE_TIME_FIRST_SAMPLE_PRECISION: millisecond
SAMPLING_INTERVAL_S: 0.01
NDATA: 21001
DURATION_S: 
STREAM: HNN
UNITS: cm/s^2
INSTRUMENT: sensor = ACEBOX/SARA | digitizer = 
INSTRUMENT_ANALOG/DIGITAL: 
INSTRUMENTAL_FREQUENCY_HZ: 
INSTRUMENTAL_DAMPING: 
FULL_SCALE_G: 
N_BIT_DIGITAL_CONVERTER: 
PGA_CM/S^2: 4.264
TIME_PGA_S: 
BASELINE_CORRECTION: BASELINE REMOVED
FILTER_TYPE: BUTTERWORTH
FILTER_ORDER: 
LOW_CUT_FREQUENCY_HZ: 
HIGH_CUT_FREQUENCY_HZ: 
LATE/NORMAL_TRIGGERED: 
DATABASE_VERSION: 
HEADER_FORMAT: DYNA 1.2
DATA_TYPE: Acceleration
PROCESSING: Automatic Paolucci et al., 2011
DATA_TIMESTAMP_YYYYMMDD_HHMMSS: 
DATA_LICENSE: U (unknown license)
DATA_CITATION: Turkish Accelerometric Archive v 1.0 - Disaster And Emergency Management Presidency, Earthquake Department
DATA_CREATOR: AFAD
ORIGINAL_DATA_MEDIATOR_CITATION: : AFAD - Disaster And Emergency Management Presidency
ORIGINAL_DATA_MEDIATOR: AFAD PROCESS SERVICE
ORIGINAL_DATA_CREATOR_CITATION: AFAD PROCESS SERVICE
ORIGINAL_DATA_CREATOR: network: TK
USER1: GuestUser
USER2: 
USER3: 
USER4: 
USER5: 
[...]
-1.415847
-1.373530
-1.341266
-1.320692
-1.294507
-1.270893
-1.253826
-1.223900
-1.187428
-1.157502
-1.118224
-1.067256
-1.018860
-0.966256
-0.904300
-0.849591
-0.801663
-0.743915
-0.693883
-0.652968
-0.598961
-0.558046
-0.532796
-0.493986
-0.464528
-0.458917
-0.464060
-0.470139
-0.470373
-0.483232
-0.493051
-0.487674
-0.504274
-0.539577
-0.566931
-0.589844
-0.623978
-0.669335
-0.714224
-0.768465
-0.833227
-0.886299
-0.935630
-0.997353
-1.057439
-1.109342
-1.171298
-1.240268
-1.296613
-1.357635
-1.428475
-1.483651
-1.532983
-1.594939
-1.646141
-1.686822
-1.737322
-1.775197
-1.801382
-1.833413
-1.848609
-1.860767
-1.882744
-1.893733
-1.907059
-1.913839
-1.911501
-1.928101
-1.940025
-1.936284
-1.935583
-1.932310
-1.926932
-1.912203
-1.889057
-1.872691
-1.851650
-1.811203
-1.761404
-1.708566
-1.651052
-1.592369
-1.525503
-1.447181
-1.369326
-1.287965
-1.200525
-1.115890
-1.029385
-0.947323
-0.866663
-0.773611
-0.693419
-0.626553
-0.545192
-0.473416
-0.418006
-0.356517
-0.304614
-0.266038
-0.222084
-0.178598
-0.143996
-0.111732
-0.075493
-0.045100
-0.026864
0.000958
0.026910
0.038366
0.064083
0.089099
0.094944
0.110609
0.130481
0.143574
0.152692
0.159472
0.172097
0.180748
0.186359
0.193840
0.199451
0.216051
0.230312
0.234521
0.249484
0.259303
0.263044
0.277773
0.287826
0.290164
0.294139
0.293437
0.280344
0.263043
0.240833
0.197814
0.146145
0.095410
0.026440
-0.051648
-0.123658
-0.213436
-0.315372
-0.401175
-0.490252
-0.588213
-0.670042
-0.744857
-0.808217
-0.851002
-0.890747
-0.911555
-0.904074
-0.890513
-0.867835
-0.832999
-0.787877
-0.728025
-0.665133
-0.602943
-0.538181
-0.469445
-0.398605
-0.334778
-0.269782
-0.206423
-0.154754
-0.099110
-0.051416
-0.024295
0.002591
0.025036
0.028776
0.018957
0.004695
-0.014944
-0.050949
-0.092565
-0.140259
-0.205021
-0.266276
-0.328466
-0.403048
-0.474122
-0.549873
-0.622584
-0.680799
-0.744860
-0.800270
-0.841652
-0.889346
-0.924182
-0.941717
-0.966967
-0.993854
-1.008350
-1.020273
-1.035704
-1.043653
-1.048563
-1.057447
-1.061422
-1.062591
-1.063760
-1.066566
-1.069371
-1.067267
-1.069839
-1.075918
-1.074515
-1.068904
-1.068436
-1.074749
-1.078957
-1.087374
-1.106312
-1.122678
-1.140680
-1.172009
-1.197025
-1.205676
-1.223678
-1.234901
-1.221340
-1.216665
-1.203806
-1.170139
-1.145824
-1.105845
-1.062125
-1.031965
-0.987076
-0.953175
-0.928159
-0.895428
-0.882101
-0.871580
-0.860124
-0.859423
-0.856618
-0.854046
-0.848669
-0.840486
-0.824821
-0.797935
-0.775490
-0.745330
-0.702546
-0.665839
-0.621886
-0.568814
-0.520885
-0.468515
-0.411468
-0.367281
-0.323794
-0.272359
-0.245940
-0.237056
-0.212040
-0.203155
-0.221392
-0.232146
-0.242901
-0.266982
-0.293401
-0.326601
-0.358163
-0.376633
-0.398844
-0.425263
-0.439057
-0.449345
-0.463840
-0.471322
-0.475764
-0.483713
-0.486986
-0.494000
-0.510132
-0.515276
-0.513172
-0.522056
-0.526966
-0.525329
-0.523927
-0.514341
-0.515042
-0.522290
-0.512237
-0.512237
-0.530239
-0.541228
-0.555490
-0.578869
-0.596404
-0.621187
-0.656256
-0.678000
-0.694833
-0.727097
-0.746035
-0.747671
-0.763102
-0.768246
-0.748841
-0.732475
-0.711901
-0.677533
-0.637086
-0.584481
-0.526266
-0.468284
-0.397911
-0.324733
-0.258568
-0.182818
-0.111510
-0.056568
0.001882
0.051213
0.089556
0.125326
0.145199
0.165072
0.184711
0.186815
0.191023
0.191257
0.173021
0.160629
0.153849
0.130937
0.100310
0.073890
0.037886
-0.005835
-0.049087
-0.095379
-0.149620
-0.217188
-0.277507
-0.329177
-0.393938
-0.450284
-0.496576
-0.546141
-0.578405
-0.616981
-0.669352
-0.699278
-0.728503
-0.765443
-0.790225
-0.815709
-0.836284
-0.846804
-0.858494
-0.864106
-0.864807
-0.861066
-0.854052
-0.854286
-0.850312
-0.842129
-0.842597
-0.840960
-0.840726
-0.847506
-0.852650
-0.859664
-0.869951
-0.880706
-0.900111
-0.927465
-0.956924
-0.982174
-1.004151
-1.032908
-1.064939
-1.091825
-1.115205
-1.139754
-1.161497
-1.175057
-1.188384
-1.207088
-1.224856
-1.239819
-1.251743
-1.263667
-1.283306
-1.305517
-1.319077
-1.333339
-1.356017
-1.376357
-1.398101
-1.428494
-1.445795
-1.458420
-1.495594
-1.533236
-1.553342
-1.584204
-1.625352
-1.660889
-1.697362
-1.735938
-1.768202
-1.799297
-1.833666
-1.862423
-1.886504
-1.910351
-1.930692
-1.951734
-1.969035
-1.979556
-1.987271
-1.985401
-1.976750
-1.965294
-1.951500
-1.932563
-1.900299
-1.870606
-1.845356
-1.813092
-1.778491
-1.732900
-1.688245
-1.654111
-1.600337
-1.536978
-1.480867
-1.413300
-1.338484
-1.260630
-1.172489
-1.087153
-1.003219
-0.915779
-0.831379
-0.753524
-0.687593
-0.627040
-0.571630
-0.531183
-0.500556
-0.475539
-0.461979
-0.457070
-0.454030
-0.454966
-0.466889
-0.479982
-0.494711
-0.508038
-0.510610
-0.519728
-0.530950
-0.525807
-0.510610
-0.484892
-0.452862
-0.421533
-0.376644
-0.317961
-0.266526
-0.223273
-0.169032
-0.107778
-0.057277
-0.009817
0.046762
0.099834
0.140047
0.188209
0.242217
0.281962
0.321707
0.357478
0.388340
0.426215
0.457076
0.479754
0.497523
0.517162
0.546854
0.568363
0.587534
0.614889
0.639905
0.665623
0.689470
0.712148
0.734125
0.748620
0.769428
0.791405
0.805433
0.827176
0.853361
0.876975
0.903628
0.937528
0.981014
1.021929
1.056063
1.097913
1.139529
1.181378
1.226735
1.258298
1.288224
1.320254
1.340126
1.357661
1.366779
1.365143
1.370754
1.372156
1.363272
1.360466
1.358362
1.349010
1.344334
1.342464
1.338022
1.334748
1.326799
1.324929
1.336385
1.339424
1.343165
1.358829
1.366311
1.373324
1.386183
1.389690
1.390625
1.396704
1.398341
1.395301
1.394600
1.398107
1.403718
1.405822
1.412368
1.427331
1.435280
1.439021
1.444164
1.447437
1.453750
1.452815
1.447437
1.452113
1.452113
1.447437
1.455152
1.464972
1.475025
1.498872
1.525525
1.551009
1.591456
1.636579
1.674454
1.710458
1.745528
1.787611
1.829929
1.861257
1.894924
1.931630
1.965063
1.997327
2.031695
2.071441
2.110017
2.148594
2.193249
2.242580
2.288171
2.333060
2.386365
2.429852
2.460947
2.495782
2.514954
2.518461
2.520097
2.503030
2.468428
2.430553
2.387768
2.331422
2.268531
2.210549
2.148125
2.077752
2.011587
1.949397
1.880661
1.806547
1.744123
1.681465
1.605248
1.540252
1.474321
1.390154
1.317910
1.251746
1.171086
1.102349
1.040860
0.979372
0.931209
0.881644
0.838859
0.821558
0.805660
0.788125
0.782748
0.785086
0.797477
0.812908
0.822961
0.841197
0.862940
0.875097
0.894035
0.917181
0.928403
0.944301
0.959732
0.960667
0.966044
0.967914
0.961836
0.955289
0.934481
0.913673
0.892398
0.853821
0.822960
0.788358
0.739728
0.706061
0.670524
0.629142
0.605294
0.579576
0.555028
0.554326
0.557132
0.557132
0.577940
0.604359
0.621192
0.653690
0.690863
0.714009
0.739493
0.764042
0.780641
0.795371
0.805891
0.814308
0.814776
0.807995
0.799812
0.778537
0.753988
0.737155
0.712372
0.685485
0.667950
0.647142
0.629374
0.627503
0.624698
0.620022
0.628672
0.636154
0.641531
0.660001
0.674496
0.686887
0.711904
0.731309
0.750948
0.782744
0.803318
0.822022
0.851247
0.873223
0.899409
0.932140
0.953182
0.982640
1.023789
1.055117
1.091122
1.133673
1.171782
1.211995
1.254312
1.295694
1.333102
1.366535
1.397396
1.424750
1.444857
1.452572
1.459820
1.467769
1.460989
1.460989
1.465898
1.446727
1.431998
1.425451
1.393187
1.358585
1.333569
1.291953
1.246128
1.208955
1.164299
1.121982
1.092991
1.060259
1.030333
1.020747
1.011162
1.001810
1.016071
1.035710
1.056518
1.097900
1.140217
1.185106
1.249634
1.309487
1.360220
1.419839
1.475482
1.517566
1.554506
1.584432
1.603603
1.612020
1.612020
1.604071
1.594251
1.583029
1.560116
1.543283
1.536269
1.518267
1.507044
1.511954
1.510551
1.507278
1.511954
1.522942
1.532995
1.537438
1.550998
1.564090
1.562220
1.567831
1.575312
1.566662
1.564324
1.563155
1.545152
1.535800
1.529254
1.503536
1.479455
1.461920
1.431994
1.390378
1.348061
1.307614
1.260621
1.208951
1.163127
1.116367
1.065400
1.023784
0.987077
0.945461
0.915769
0.894026
0.860827
0.841421
0.833005
0.806819
0.789986
0.784842
0.764268
0.753747
0.752111
0.737615
0.735511
0.735978
0.722418
0.721483
0.723587
0.721249
0.722652
0.717742
0.720080
0.727561
0.728029
0.735744
0.739952
0.735042
0.737380
0.735978
0.724054
0.713299
0.699739
0.681736
0.666072
0.651810
0.642458
0.637315
0.630067
0.632639
0.643627
0.649706
0.662331
0.683840
0.702310
0.723118
0.752109
0.779229
0.798868
0.819910
0.841185
0.856616
0.864565
0.861525
0.859421
0.860824
0.849835
0.833703
0.818039
0.794893
0.771747
0.746497
0.716337
0.690853
0.665135
0.636378
0.605517
0.571148
0.543327
0.508958
0.467810
0.435078
0.396268
0.353950
0.321686
0.287552
0.255755
0.230505
0.204086
0.180239
0.160600
0.143065
0.125530
0.106125
0.086486
0.068250
0.049312
0.019620
-0.010307
-0.031348
-0.062443
-0.097747
-0.122763
-0.153625
-0.182148
-0.197111
-0.214412
-0.228440
-0.229843
-0.233350
-0.234753
-0.222128
-0.209269
-0.197345
-0.172563
-0.148248
-0.132116
-0.103593
-0.072264
-0.051690
-0.026907
0.003954
0.026632
0.050246
0.079938
0.099343
0.116878
0.141894
0.160598
0.175794
0.189822
0.200811
0.215774
0.224424
0.223021
0.229567
0.230736
0.206655
0.184912
0.166910
0.125761
0.083911
0.041828
-0.022233
-0.075305
-0.122766
-0.190567
-0.251354
-0.296945
-0.349315
-0.403790
-0.441899
-0.472293
-0.504557
-0.525131
-0.542900
-0.559733
-0.562305
-0.560435
-0.556460
-0.544303
-0.523261
-0.496375
-0.472995
-0.444705
-0.415013
-0.383918
-0.344173
-0.322196
-0.298115
-0.255798
-0.235457
-0.214883
-0.180281
-0.161110
-0.136795
-0.107103
-0.087931
-0.065253
-0.040237
-0.016623
0.002548
0.019849
0.041592
0.052346
0.056789
0.059360
0.058191
0.062166
0.053749
0.040890
0.046501
0.044397
0.032239
0.026862
0.021017
0.020316
0.017744
0.001144
-0.009143
-0.009844
-0.025275
-0.034159
-0.028548
-0.037433
-0.037433
-0.020366
-0.014521
-0.001662
0.027563
0.064503
0.102845
0.140019
0.194260
0.248735
0.298533
0.359087
0.403976
0.442552
0.496793
0.539110
0.568569
0.601768
0.625615
0.643384
0.666296
0.678687
0.682194
0.688974
0.677752
0.657645
0.645488
0.610652
0.561087
0.519003
0.466399
0.408183
0.350903
0.288011
0.223951
0.164099
0.108689
0.049772
-0.007275
-0.054268
-0.100326
-0.144982
-0.187065
-0.225408
-0.256737
-0.289703
-0.316355
-0.338566
-0.363583
-0.371999
-0.370129
-0.367324
-0.353997
-0.328747
-0.295314
-0.259543
-0.214420
-0.159010
-0.108978
-0.048892
0.017740
0.073384
0.136041
0.195893
0.248965
0.314429
0.372176
0.424313
0.487205
0.550330
0.610883
0.673073
0.740407
0.808442
0.869229
0.935160
0.998986
1.054864
1.112378
1.163112
1.212443
1.262943
1.301286
1.341967
1.384518
1.424029
1.469620
1.508196
1.547006
1.596805
1.637486
1.673958
1.715106
1.757424
1.796702
1.826160
1.854683
1.885077
1.913600
1.943526
1.968308
1.998234
2.029329
2.050605
2.080999
2.107651
2.123082
2.150436
2.171010
2.183401
2.210288
2.232966
2.248865
2.277388
2.306145
2.330226
2.362957
2.393117
2.418367
2.454840
2.485701
2.503703
2.527550
2.545553
2.557710
2.575479
2.584363
2.588805
2.602365
2.614289
2.619666
2.624108
2.629953
2.635798
2.636265
2.630420
2.624575
2.618730
2.609612
2.596286
2.579219
2.556306
2.531524
2.506741
2.468398
2.420236
2.376750
2.328354
2.276918
2.228756
2.172878
2.113494
2.056915
2.003141
1.945627
1.878527
1.824286
1.771682
1.701776
1.643795
1.590956
1.531338
1.484579
1.436650
1.381474
1.333779
1.287253
1.237922
1.195605
1.157963
1.119621
1.094838
1.074965
1.056028
1.055326
1.049247
1.041766
1.055092
1.058365
1.058131
1.065145
1.063742
1.067249
1.066548
1.061404
1.072393
1.073562
1.069821
1.084784
1.098344
1.109566
1.127802
1.143934
1.155390
1.164275
1.169184
1.165677
1.154455
1.138089
1.113540
1.082445
1.038725
0.989160
0.941231
0.875534
0.807266
0.746478
0.672598
0.595913
0.526007
0.451893
0.374974
0.308108
0.249659
0.182793
0.122239
0.073375
0.017965
-0.031834
-0.073917
-0.117403
-0.151304
-0.180763
-0.207416
-0.223080
-0.231731
-0.235705
-0.234536
-0.226821
-0.209052
-0.188478
-0.170242
-0.147096
-0.115300
-0.085842
-0.055448
-0.017105
0.019835
0.062619
0.116393
0.170400
0.228849
0.295949
0.362581
0.425706
0.495378
0.571362
0.637293
0.696443
0.758400
0.814511
0.859166
0.898912
0.935384
0.953386
0.963673
0.983546
0.985182
0.977467
0.975129
0.954789
0.933981
0.912705
0.873895
0.843969
0.810302
0.763542
0.726368
0.688961
0.648748
0.615548
0.579777
0.541668
0.512911
0.487661
0.455631
0.426406
0.409105
0.392038
0.369125
0.345979
0.329380
0.317924
0.297116
0.273502
0.249421
0.215053
0.182789
0.144446
0.090672
0.036431
-0.026226
-0.100340
-0.174688
-0.258387
-0.345126
-0.427423
-0.523747
-0.621475
-0.705408
-0.796121
-0.892446
-0.980821
-1.064053
-1.146116
-1.235660
-1.323334
-1.403527
-1.490032
-1.578641
-1.667718
-1.760536
-1.860133
-1.964641
-2.062836
-2.171318
-2.286112
-2.389217
-2.503544
-2.612493
-2.704843
-2.807714
-2.900064
-2.977451
-3.058579
-3.133861
-3.201195
-3.259645
-3.311781
-3.361346
-3.407405
-3.454164
-3.488766
-3.514718
-3.553528
-3.588832
-3.611744
-3.639566
-3.672297
-3.700587
-3.732383
-3.772129
-3.806030
-3.843437
-3.895574
-3.940463
-3.978572
-4.027670
-4.072091
-4.107161
-4.147140
-4.180573
-4.199745
-4.221020
-4.239724
-4.250479
-4.263572
-4.262169
-4.253051
-4.256090
-4.246738
-4.227333
-4.209097
-4.177768
-4.148076
-4.114877
-4.063675
-4.015747
-3.969689
-3.912643
-3.853960
-3.792471
-3.720929
-3.647049
-3.569428
-3.481287
-3.393613
-3.301965
-3.201198
-3.101133
-2.996158
-2.893521
-2.795560
-2.685441
-2.580700
-2.486714
-2.384311
-2.286817
-2.197507
-2.105858
-2.025198
-1.953189
-1.879777
-1.821561
-1.772931
-1.714015
-1.668190
-1.637797
-1.593609
-1.556202
-1.529783
-1.495648
-1.468294
-1.448421
-1.422470
-1.397220
-1.375009
-1.344615
-1.306974
-1.275879
-1.240576
-1.191245
-1.147057
-1.103571
-1.056344
-1.019170
-0.977554
-0.935003
-0.904843
-0.873515
-0.844524
-0.818806
-0.794725
-0.775320
-0.747031
-0.722716
-0.705649
-0.678061
-0.648135
-0.613065
-0.573086
-0.530535
-0.476995
-0.426729
-0.372488
-0.304219
-0.242029
-0.175865
-0.101985
-0.034651
0.037125
0.109835
0.172025
0.235618
0.298977
0.350413
0.398107
0.445568
0.480404
0.509628
0.545633
0.565740
0.572987
0.594263
0.602212
0.595432
0.599172
0.594496
0.587482
0.587248
0.577663
0.570415
0.571584
0.568544
0.565037
0.567609
0.564804
0.557556
0.555685
0.548438
0.536046
0.523655
0.495833
0.471518
0.450242
0.407925
0.366309
0.326330
0.273258
0.218549
0.157060
0.091597
0.028472
-0.043070
-0.116015
-0.187557
-0.260034
-0.330641
-0.400780
-0.467880
-0.528200
-0.583844
-0.635513
-0.686481
-0.728564
-0.756153
-0.788650
-0.822785
-0.836813
-0.851308
-0.874922
-0.886144
-0.891989
-0.899471
-0.901575
-0.897834
-0.889651
-0.879131
-0.864869
-0.846399
-0.820214
-0.784910
-0.752647
-0.714070
-0.660063
-0.608628
-0.551347
-0.476065
-0.408263
-0.338358
-0.249515
-0.175168
-0.104093
-0.021797
0.037821
0.092062
0.148407
0.184880
0.216676
0.242160
0.257357
0.266475
0.270449
0.274891
0.271852
0.268812
0.265072
0.254317
0.249875
0.239120
0.222988
0.218078
0.209661
0.198439
0.193295
0.185346
0.174592
0.165006
0.152848
0.141392
0.127832
0.110765
0.102348
0.095100
0.086917
0.079436
0.063304
0.057926
0.054185
0.039456
0.038988
0.028701
0.008361
0.004386
-0.011980
-0.029982
-0.038633
-0.064818
-0.093107
-0.104564
-0.120696
-0.160207
-0.196446
-0.221462
-0.268456
-0.312643
-0.346310
-0.397980
-0.441700
-0.476302
-0.520490
-0.559534
-0.593668
-0.627803
-0.665210
-0.702150
-0.725764
-0.755456
-0.793565
-0.819049
-0.837987
-0.854353
-0.872355
-0.895501
-0.910464
-0.922388
-0.938988
-0.953015
-0.968212
-0.987618
-1.010062
-1.038819
-1.064537
-1.094229
-1.140989
-1.180734
-1.218142
-1.277760
-1.330599
-1.367539
-1.421312
-1.477190
-1.513662
-1.551771
-1.590581
-1.618403
-1.649265
-1.673580
-1.684101
-1.694388
-1.701869
-1.705376
-1.706312
-1.705143
-1.705844
-1.703506
-1.706312
-1.707013
-1.696025
-1.694388
-1.690881
-1.681997
-1.684569
-1.677321
-1.661423
-1.652071
-1.637810
-1.620743
-1.608585
-1.590115
-1.564865
-1.541719
-1.523016
-1.503844
-1.477425
-1.451708
-1.440485
-1.429263
-1.408923
-1.400039
-1.408222
-1.411027
-1.407520
-1.419444
-1.435576
-1.446097
-1.465736
-1.478361
-1.484440
-1.507352
-1.527225
-1.536343
-1.552008
-1.570010
-1.589415
-1.603443
-1.610457
-1.621446
-1.624719
-1.624953
-1.626823
-1.611860
-1.591987
-1.574686
-1.549436
-1.522316
-1.491455
-1.457788
-1.421550
-1.375959
-1.335980
-1.300910
-1.254385
-1.210431
-1.173023
-1.132343
-1.101248
-1.071789
-1.029706
-0.998611
-0.974764
-0.939694
-0.916548
-0.900182
-0.872127
-0.857631
-0.854826
-0.841733
-0.834486
-0.845474
-0.853657
-0.861373
-0.885688
-0.906496
-0.919588
-0.942968
-0.964244
-0.986688
-1.010769
-1.026434
-1.050047
-1.075064
-1.091196
-1.110601
-1.128370
-1.146840
-1.166011
-1.171622
-1.172324
-1.173025
-1.171856
-1.169986
-1.163206
-1.153620
-1.143567
-1.138891
-1.139125
-1.131176
-1.125799
-1.129773
-1.122526
-1.111537
-1.112239
-1.104523
-1.085586
-1.072961
-1.053556
-1.023162
-0.998614
-0.963778
-0.916551
-0.875169
-0.830514
-0.777909
-0.722499
-0.659842
-0.601626
-0.542709
-0.469063
-0.397054
-0.335331
-0.268232
-0.194352
-0.133331
-0.071842
0.000401
0.059084
0.121742
0.194453
0.257110
0.329588
0.398324
0.459345
0.538602
0.609676
0.684024
0.773101
0.844409
0.925069
1.012509
1.077972
1.149046
1.217783
1.267348
1.319718
1.367880
1.405755
1.442462
1.472154
1.498573
1.523823
1.545566
1.570582
1.595598
1.625057
1.659425
1.689585
1.722550
1.754814
1.784974
1.824486
1.861192
1.888312
1.923382
1.961724
1.987910
2.010588
2.037708
2.060854
2.076285
2.087741
2.102236
2.111588
2.109951
2.103639
2.088909
2.079558
2.077453
2.058282
2.032564
2.015029
2.000300
1.975284
1.944656
1.920107
1.892987
1.868204
1.849267
1.824016
1.806482
1.798299
1.789414
1.791285
1.801805
1.811859
1.828926
1.852539
1.875218
1.901403
1.930394
1.954475
1.986271
2.022042
2.044954
2.075114
2.121639
2.159281
2.192714
2.241344
2.284362
2.316860
2.362217
2.405937
2.439370
2.479816
2.516523
2.539902
2.562347
2.584090
2.599287
2.608405
2.610509
2.606066
2.597650
2.585726
2.577075
2.557904
2.519094
2.486362
2.458306
2.414118
2.364086
2.318963
2.271502
2.223106
2.180087
2.129587
2.074878
2.040276
2.006843
1.961019
1.922208
1.895322
1.873579
1.842016
1.805076
1.779124
1.749900
1.716934
1.683969
1.642586
1.603308
1.564264
1.518206
1.469576
1.417907
1.373252
1.333506
1.280434
1.231804
1.203748
1.173589
1.138753
1.117009
1.102046
1.089889
1.087785
1.086849
1.086849
1.099942
1.117477
1.131738
1.143662
1.151377
1.164937
1.179900
1.182238
1.182004
1.189252
1.194162
1.194629
1.204682
1.214268
1.215203
1.229932
1.246532
1.254481
1.276224
1.298902
1.317606
1.344259
1.369041
1.394525
1.419775
1.434271
1.451338
1.471678
1.481264
1.486641
