EVENT_NAME: 202302060117
EVENT_ID: 13194
EVENT_DATE_YYYYMMDD: 2023/02/06
EVENT_TIME_HHMMSS: 01:17:32.00000
EVENT_LATITUDE_DEGREE: 37.288
EVENT_LONGITUDE_DEGREE: 37.043
EVENT_DEPTH_KM: 8.6
HYPOCENTER_REFERENCE: AFAD
MAGNITUDE_W: 7.7
MAGNITUDE_W_REFERENCE: AFAD
MAGNITUDE_L: 
MAGNITUDE_L_REFERENCE: 
FOCAL_MECHANISM: 
NETWORK: TK
STATION_CODE: 8004
STATION_NAME: 
STATION_LATITUDE_DEGREE: 37.379888
STATION_LONGITUDE_DEGREE: 36.097633
STATION_ELEVATION_M: 819.0
LOCATION: Kahramanmaras_Pazarck_Turkiye
SENSOR_DEPTH_M: 
VS30_M/S: 426
SITE_CLASSIFICATION_EC8: B
MORPHOLOGIC_CLASSIFICATION: 
EPICENTRAL_DISTANCE_KM: 84.20
EARTHQUAKE_BACKAZIMUTH_DEGREE: 
DATE_TIME_FIRST_SAMPLE_YYYYMMDD_HHMMSS: 2023/02/06 01:17:24.0836510
DATE_TIME_FIRST_SAMPLE_PRECISION: millisecond
SAMPLING_INTERVAL_S: 0.01
NDATA: 11251
DURATION_S: 
STREAM: HNN
UNITS: cm/s^2
INSTRUMENT: sensor = ACEBOX/SARA | digitizer = 
INSTRUMENT_ANALOG/DIGITAL: 
INSTRUMENTAL_FREQUENCY_HZ: 
INSTRUMENTAL_DAMPING: 
FULL_SCALE_G: 
N_BIT_DIGITAL_CONVERTER: 
PGA_CM/S^2: 168.426
TIME_PGA_S: 
BASELINE_CORRECTION: BASELINE REMOVED
FILTER_TYPE: BUTTERWORTH
FILTER_ORDER: 
LOW_CUT_FREQUENCY_HZ: 
HIGH_CUT_FREQUENCY_HZ: 
LATE/NORMAL_TRIGGERED: 
DATABASE_VERSION: 
HEADER_FORMAT: DYNA 1.2
DATA_TYPE: Acceleration
PROCESSING: Automatic Paolucci et al., 2011
DATA_TIMESTAMP_YYYYMMDD_HHMMSS: 
DATA_LICENSE: U (unknown license)
DATA_CITATION: Turkish Accelerometric Archive v 1.0 - Disaster And Emergency Management Presidency, Earthquake Department
DATA_CREATOR: AFAD
ORIGINAL_DATA_MEDIATOR_CITATION: : AFAD - Disaster And Emergency Management Presidency
ORIGINAL_DATA_MEDIATOR: AFAD PROCESS SERVICE
ORIGINAL_DATA_CREATOR_CITATION: AFAD PROCESS SERVICE
ORIGINAL_DATA_CREATOR: network: TK
USER1: GuestUser
USER2: 
USER3: 
USER4: 
USER5: 
[...]
-10.080567
-7.241103
-7.455732
-6.429833
-2.743087
-1.123343
-1.271106
1.708403
8.121225
15.894279
19.596924
17.686563
15.583553
10.607175
1.255749
-7.088946
-16.197223
-28.069218
-40.351059
-46.492683
-37.501077
-16.743624
6.717928
29.609483
48.436004
57.896374
53.221828
38.216716
23.692292
12.383749
3.261677
-1.081110
-2.088546
-4.416936
-9.695614
-17.720474
-28.185243
-40.362811
-51.944663
-58.456154
-56.644930
-47.347517
-29.964226
-0.205345
35.474920
59.393546
64.934304
57.622058
43.446225
26.809209
8.458692
-7.919278
-15.729980
-17.315596
-20.218894
-27.076171
-33.417925
-33.304303
-25.303764
-11.999533
2.723846
16.505023
23.085477
18.175498
12.203143
10.918190
9.480568
10.981309
17.857517
24.486601
24.249995
14.788217
2.726846
-4.141887
-0.915721
11.520653
21.871089
26.395998
29.916046
30.525085
28.835662
29.343467
32.209117
33.779763
29.062433
19.074143
6.734086
-6.646602
-13.615868
-8.024844
7.755533
27.401748
43.657435
50.565907
44.952665
29.140018
9.753545
-6.439257
-14.118331
-13.783303
-11.192131
-11.445804
-16.146535
-22.640491
-28.769256
-35.959461
-42.666874
-44.277039
-40.202891
-31.720963
-21.808430
-15.113648
-8.997983
0.035239
8.935430
15.515183
17.084427
11.859990
2.973587
-6.744200
-14.163292
-17.574631
-20.262367
-25.945281
-36.171576
-48.292565
-57.183411
-61.636551
-60.594987
-49.905078
-30.532640
-8.916683
9.880146
22.067527
27.236080
30.254399
33.834066
34.847807
31.652731
29.059214
30.318443
32.348502
32.346394
28.353835
19.194123
6.981719
-5.895136
-14.462874
-13.669135
-7.161626
-0.405122
6.180944
12.738019
17.830120
21.213163
26.109342
31.975780
31.412559
21.552858
6.522262
-10.219730
-26.889478
-39.588180
-43.649943
-39.992188
-32.889664
-23.629659
-13.514423
-7.346855
-8.279242
-13.299573
-18.401033
-22.460692
-25.327050
-28.119528
-30.569726
-30.910138
-31.104193
-31.584416
-27.565678
-18.672501
-10.689497
-5.579159
0.857978
10.263405
20.013449
29.890211
38.411417
40.805263
37.707446
33.696184
30.599068
27.328942
23.686144
22.618856
24.383087
26.271932
28.085962
29.304743
26.749102
18.970430
9.122185
1.168632
-0.364146
5.989058
12.209231
13.906596
11.332485
1.069015
-12.225869
-22.034369
-28.307855
-30.860223
-33.965287
-39.469580
-42.475514
-43.121499
-43.199357
-41.216292
-36.445662
-29.762804
-22.691609
-17.780935
-17.002627
-15.886248
-9.570218
-2.459512
0.853159
0.664247
-3.119999
-9.050737
-13.036984
-11.734970
-7.005255
-4.480481
-4.350727
-2.793407
0.898950
5.454721
10.979580
20.688009
36.510937
55.033522
69.788464
73.934388
67.481580
57.692485
46.980826
32.930776
17.119766
3.763860
-6.082515
-13.721377
-15.191263
-6.663044
2.879155
6.461393
9.959464
16.501576
24.077773
27.190079
22.519508
17.620985
13.093965
4.479468
-4.783116
-15.333221
-26.654389
-35.141934
-38.597227
-32.921568
-22.747649
-12.795137
-2.634545
6.523291
21.920240
42.055325
53.500633
55.522742
48.129836
28.813970
3.560589
-21.073697
-38.541863
-42.239370
-30.352652
-9.267649
10.125597
24.472329
33.794992
38.781416
45.018423
50.651297
50.695715
49.512698
48.826032
44.414742
31.113545
5.096816
-25.006222
-45.849485
-57.519245
-65.703322
-69.017401
-64.558189
-57.022907
-51.146182
-42.707974
-28.503625
-7.458367
23.804065
56.195036
72.323537
69.138046
55.103661
38.607624
23.822048
10.533943
1.207065
-1.277735
0.797446
2.694708
-1.348118
-10.184021
-17.142299
-23.318057
-28.317113
-25.292247
-14.419275
-0.366894
13.777370
26.778131
37.326593
40.797310
36.895698
26.046567
6.221023
-14.981353
-32.694538
-50.913661
-67.942288
-80.917338
-89.220885
-95.430544
-102.479534
-101.260986
-85.242838
-62.817241
-39.863263
-15.391706
8.088316
28.141572
47.671823
65.733360
75.215473
69.909908
49.377128
22.164292
-5.460261
-34.060450
-61.307420
-81.234198
-82.282549
-62.396458
-37.947814
-11.881760
21.496537
50.321399
66.511856
74.967365
77.203632
74.352238
71.464137
66.921219
52.649997
31.119136
12.426340
-3.228728
-22.631566
-43.101923
-52.835608
-52.825324
-51.652133
-49.847455
-49.055587
-43.995983
-31.091079
-19.191269
-2.900980
18.038133
28.947344
31.930828
29.615530
20.305954
10.504935
4.846337
7.788906
16.661509
23.970944
27.190796
20.721623
8.392087
1.746162
0.367691
3.022689
12.441209
24.863555
35.022277
42.002993
41.399792
28.882050
12.209262
-3.276537
-21.589646
-41.261819
-57.694263
-67.915882
-70.583512
-68.981771
-66.068426
-59.577516
-45.172568
-23.505878
0.777238
23.647985
42.665051
56.835968
58.516499
43.730456
24.698420
7.008848
-11.675999
-27.498700
-40.868633
-50.330646
-47.845618
-37.202001
-28.504044
-19.409802
-8.033931
-1.682364
2.002745
12.218747
30.357437
49.513613
63.789504
69.509819
56.265200
34.123895
21.875487
12.988849
7.960334
-1.082947
-19.471807
-23.763392
-31.064417
-58.035039
-83.107694
-102.886479
-105.573280
-87.265789
-64.893030
-40.259452
-21.868027
-11.821762
-8.225963
-13.447829
-17.136919
-21.302254
-20.220945
-10.793074
-11.770116
-11.205031
-2.968357
-5.168392
-13.406242
-23.420951
-30.697427
-24.644652
-9.152080
11.709647
37.813810
64.523741
80.153319
79.111983
68.484491
52.360659
36.346011
21.953916
12.192643
14.496945
16.061280
17.488609
23.794585
19.934589
19.998646
26.419885
17.249652
4.959160
-5.420974
-21.770888
-37.724048
-53.023978
-59.062029
-47.172039
-27.440254
-9.906164
1.920935
10.951117
20.347660
28.855072
33.124674
30.128793
24.350022
16.702277
5.901074
-3.049390
-17.429328
-41.928012
-64.427027
-82.925537
-101.322112
-113.995330
-113.502021
-94.612842
-56.050324
-5.210411
41.631803
72.137667
85.455457
85.917438
80.521160
76.328470
74.631566
71.706759
67.579065
61.796788
49.597010
29.237239
0.381977
-31.609908
-65.293785
-95.884758
-105.859955
-102.894474
-89.482229
-60.361848
-38.002416
-10.076505
26.084213
36.979397
40.837048
51.473651
58.879644
65.398844
56.870150
38.472874
23.787597
7.835606
-2.765466
-8.193073
-13.127835
-19.979267
-32.134858
-37.329135
-32.019603
-18.686849
5.744260
26.556188
34.490797
36.629805
28.718102
5.043086
-25.356874
-53.302431
-74.202507
-84.331309
-90.313483
-92.948147
-90.542844
-91.756489
-84.873501
-75.194765
-80.230294
-69.940178
-49.009481
-43.961334
-26.106240
4.141746
22.806246
36.411139
43.091893
39.338041
39.474107
52.628941
65.373928
72.585401
79.666416
79.540396
83.234623
85.718015
66.756586
50.663615
44.503054
33.881641
28.711679
29.012105
29.218077
33.179067
41.657955
44.369533
37.787903
30.076564
14.388297
-5.653275
-17.811672
-21.777110
-14.458090
-6.391386
-2.400236
-2.692252
-13.660854
-16.513652
-11.579831
-11.619814
-4.910537
6.129834
18.870846
29.707113
27.066369
20.286479
12.663282
2.349780
0.097842
5.283462
13.264596
21.243626
17.838365
3.270454
-17.218372
-43.404370
-59.765273
-68.125632
-73.667332
-60.781833
-51.595006
-49.949778
-29.189286
-4.720301
20.354920
41.077771
43.065980
38.344675
12.937689
-27.124177
-51.543837
-66.997138
-70.422038
-56.689023
-42.023626
-35.034727
-36.061100
-40.592095
-39.825477
-34.608995
-30.230911
-17.980171
-12.502071
-27.347733
-32.648855
-32.369471
-36.761122
-29.301590
-15.835104
6.750643
26.250735
33.066857
47.755401
52.667946
48.678893
53.652927
50.636705
46.619597
46.484459
40.014584
30.926180
15.395024
-9.421623
-34.980344
-51.586499
-65.935809
-79.923202
-78.585183
-63.516953
-41.952665
-22.644054
-1.526553
26.496150
37.517116
40.761985
50.227264
55.818990
61.395519
53.682778
37.670000
18.449290
-10.752459
-23.863813
-41.802847
-59.857844
-35.027408
-12.672652
-2.180536
21.672627
32.594931
39.621938
58.381126
73.939863
72.898527
61.230170
50.660893
29.106886
1.845888
-25.429605
-46.636423
-42.935182
-43.702040
-45.952108
-24.063544
-9.580508
-2.522640
-1.281881
-17.862552
-32.393757
-49.206823
-54.167303
-31.760176
-15.761199
-2.048291
22.595808
40.821938
52.174662
51.475371
34.187697
13.365476
-4.698873
-15.086957
-18.191554
-23.462516
-34.857798
-50.995424
-60.558437
-60.481755
-64.237945
-63.793032
-50.419364
-39.637806
-32.351985
-22.337984
-13.548847
-6.061726
0.168734
7.648372
13.258802
5.824046
-9.233904
-18.489006
-19.685583
-16.333869
-10.380693
-0.770225
12.335511
26.950876
41.414273
52.682363
55.802618
52.448793
54.308413
62.377455
63.082350
51.457012
34.018070
15.206505
-5.425873
-20.716685
-17.819472
3.887432
35.202702
60.437139
70.288884
71.971988
63.271453
45.548682
33.490351
24.391893
19.639259
25.649015
31.419128
30.608316
18.791030
-4.761476
-33.724986
-67.925321
-99.652782
-118.983143
-116.328378
-96.480630
-77.099074
-45.599572
-12.588103
-1.690815
8.994184
13.438900
6.431292
4.934752
-2.774014
-11.563626
-23.305863
-37.287176
-43.379703
-71.648133
-97.048573
-88.233484
-79.922696
-60.456505
-18.291405
21.352425
54.924540
76.270928
82.249355
74.978958
56.144247
34.230192
9.658564
-11.516925
-20.866481
-20.713347
-16.758436
-15.190361
-14.955398
-13.202155
-8.363490
0.723505
10.275756
21.877942
39.071858
57.090142
73.257220
88.355844
93.551751
80.055567
54.522330
28.556335
8.423816
-7.182389
-20.062751
-28.225084
-29.217323
-19.560798
-10.797378
-10.445049
-9.989849
-12.195028
-10.947022
-9.735721
-14.202655
-5.205672
-4.800972
-13.970972
-0.824321
3.613616
-4.884918
-7.462069
-12.685571
-8.688576
-9.646446
-19.154751
-19.620244
-33.802390
-54.549562
-65.740505
-79.445237
-86.265340
-85.366860
-85.250900
-82.994993
-78.983971
-69.408807
-54.543513
-39.407949
-24.781361
-12.658742
-3.399439
0.430391
-5.689256
-19.695118
-34.723142
-44.844696
-47.638577
-41.172683
-27.799483
-15.305360
-6.882115
-1.578661
3.024336
8.152676
10.557277
9.973950
10.586963
16.281326
23.551950
24.654535
21.856680
15.300767
1.617779
-10.406885
-14.282312
-10.695865
-1.680646
6.335090
7.115035
-3.750463
-24.559358
-48.320411
-66.620427
-69.194539
-56.439498
-36.988972
-16.893399
-3.952723
-2.601612
-9.339653
-19.101393
-26.175868
-25.297729
-18.459863
-9.431785
2.210848
12.872467
23.858598
40.229313
54.236104
63.825061
70.942315
68.048369
62.078118
60.449483
55.674639
50.067242
45.227869
39.332434
40.008806
44.258068
44.578835
47.227053
56.227076
62.134895
55.411117
39.347137
19.203629
-1.621164
-14.058948
-17.392199
-20.651570
-25.250365
-23.663820
-10.998324
6.928545
23.000701
38.132758
53.879702
66.479501
71.814518
70.355386
62.088311
47.331258
33.246840
25.611252
23.416594
24.006695
24.785704
23.786685
20.959138
21.642290
29.052725
33.594234
28.416089
17.761710
6.260051
-2.752370
-10.437055
-16.743272
-17.728731
-17.460101
-18.105151
-16.601370
-15.225476
-14.044336
-11.861608
-9.725639
-3.736926
7.772910
20.602298
31.417289
36.225326
38.511627
41.188368
33.466509
20.041165
10.596220
-1.544407
-16.493642
-36.491962
-57.460306
-69.917262
-76.594047
-67.600805
-53.563153
-49.960574
-31.812532
-9.651126
-8.616109
-7.480793
1.572535
6.219720
5.038340
-1.843252
-16.709956
-37.230579
-55.829155
-72.549170
-87.776155
-92.949156
-84.262422
-65.333731
-39.458690
-7.448574
24.738993
49.096457
67.129236
80.760315
89.704226
96.514504
97.584123
89.338324
74.150850
48.405560
15.903996
-9.084259
-25.139354
-29.233381
-17.941912
-4.863764
5.172916
9.329828
-0.062279
-7.108932
-0.247219
5.956822
3.866905
-0.969663
-4.833633
-3.365624
3.579789
8.531845
14.590932
22.752324
23.719306
21.981020
18.568512
12.537240
10.832855
6.003302
-4.464273
-19.558929
-35.799425
-40.904158
-42.298528
-32.040209
-8.511323
-1.567080
6.784623
24.168615
20.070146
14.546916
23.468383
30.376621
37.540867
44.245936
38.960244
23.625244
6.450494
-15.574380
-41.831453
-62.838608
-73.420042
-66.414076
-45.040801
-20.458892
7.480813
34.846078
50.254951
50.524048
40.339602
20.432931
2.243968
5.477381
18.781144
29.493263
41.532650
42.697191
28.468053
3.297670
-32.337479
-67.302097
-96.042798
-113.841787
-111.973516
-92.621652
-63.587308
-38.666394
-19.826078
-4.930390
-7.024515
-10.332750
5.723742
25.997001
44.888518
56.335229
49.358481
41.067092
38.667627
32.553825
24.944656
18.608747
14.926203
12.439766
5.354069
-4.972058
-12.291786
-9.355529
7.143540
32.541869
61.559380
86.914456
98.402783
92.927949
78.598745
68.135379
63.985942
61.672515
66.433559
81.133559
94.860261
96.465276
84.350132
65.540905
47.161631
32.729323
29.084654
40.658317
56.316184
63.988238
61.957705
48.825543
31.106981
12.923161
-6.626268
-18.374584
-32.040739
-56.119990
-77.527873
-99.735110
-120.633783
-133.794936
-144.655056
-144.164786
-130.000416
-108.427478
-84.993514
-71.479801
-63.414033
-55.035443
-48.738585
-36.265504
-22.371871
-21.362338
-20.039282
-16.005113
-27.709008
-27.610115
-6.024084
-0.247892
11.556061
38.940264
36.337395
9.128534
-25.600416
-62.382808
-75.092264
-61.718597
-28.475668
20.599076
63.022054
95.337976
121.733684
130.546903
127.587961
129.649115
138.065345
147.984425
152.122166
140.573045
115.932914
84.622781
44.307012
4.202127
-25.805755
-45.827221
-42.795342
-19.741298
-1.357355
8.273219
11.202462
5.274061
-6.632301
-24.432693
-47.643621
-71.602701
-94.666103
-121.202563
-143.502383
-156.514607
-168.426114
-166.837464
-156.952753
-159.705485
-158.481560
-152.890769
-155.147384
-148.639406
-127.768561
-97.366737
-59.968764
-19.915789
19.377345
44.561750
48.024050
42.044448
43.989872
59.172663
79.414827
100.037847
112.589483
106.456043
92.319254
79.993225
70.468321
68.355726
66.503815
67.352028
77.658509
79.313557
70.019177
55.168839
26.747739
-3.168962
-25.983136
-42.936013
-47.035418
-45.722182
-46.388975
-44.034172
-38.239510
-32.530418
-28.360881
-22.357204
-16.254865
-14.050861
-8.932575
5.813951
29.045447
55.755612
83.101238
103.991722
99.731465
66.829406
26.761228
-1.855093
-14.514984
-10.349422
8.349213
22.929274
19.375786
10.545027
4.758074
-0.384067
1.850330
13.479169
29.876537
49.256223
61.219626
55.492759
42.175196
32.948383
30.930943
40.020510
54.328900
67.330830
72.865509
58.797457
32.881728
11.440178
-2.350357
-11.345009
-12.338416
2.744543
17.461610
16.969698
10.040645
-5.287809
-22.396862
-31.607308
-40.668125
-42.354040
-30.564115
-19.565827
-17.018375
-13.745451
-5.768057
1.956367
15.355519
29.459569
33.647109
35.391467
31.265644
18.307661
8.194523
0.482483
-13.035210
-26.086011
-26.346932
-24.682299
-23.559140
-9.166817
1.124468
4.863584
18.961322
24.742891
12.426682
-3.945442
-17.292230
-23.015590
-21.885885
-19.238134
-19.038942
-20.402685
-17.201069
-9.723300
-6.334880
-8.518082
-9.989137
-15.315744
-26.301179
-32.409837
-37.191228
-46.225859
-57.754873
-72.478493
-80.392300
-78.331848
-72.148381
-57.924626
-41.614465
-26.683941
-5.558257
19.256280
44.726852
64.143478
76.522105
90.574486
94.889679
88.708076
86.407741
74.826123
45.665522
12.455553
-19.955766
-48.067786
-65.384685
-73.724003
-69.146256
-50.247958
-35.570403
-26.126633
-6.659975
14.714002
32.080927
51.620530
67.383606
73.254486
69.790075
58.241889
41.722473
19.799300
-5.062237
-23.880114
-36.700391
-43.741900
-44.148243
-46.103960
-44.352822
-39.225184
-50.495852
-73.290621
-90.563332
-101.035115
-102.308378
-89.294056
-67.525196
-41.917151
-8.279339
21.880972
39.230830
50.519026
49.734867
42.840650
35.945732
17.063560
-0.630220
-8.666303
-15.592317
-14.544674
-7.896886
-3.869731
-2.092174
1.608833
16.653684
32.774236
39.002826
50.928120
62.570285
56.324154
41.431966
23.019961
5.112256
-7.851572
-18.804509
-15.123608
-3.545270
-1.146045
4.006609
12.352701
20.956905
35.291012
49.196802
62.215800
66.407547
56.243910
49.595881
53.342713
63.318839
75.289957
80.950653
77.403711
62.059827
37.159013
11.363923
-14.652806
-40.038750
-58.195449
-60.073312
-48.495674
-48.001196
-59.005335
-61.848781
-70.167992
-88.382439
-93.671170
-83.667924
-63.881664
-39.530046
-19.751736
-6.908554
-5.042154
-9.349170
-9.095503
-6.379717
-3.591221
4.365832
18.215745
24.026773
21.844740
29.994909
37.346427
32.033147
27.911532
23.620881
13.729383
2.328256
-9.300121
-18.215048
-25.191094
-28.929983
-24.533429
-15.210065
-3.113398
10.721085
21.646428
31.362805
43.185929
52.081444
52.197405
46.376317
44.225145
48.100098
48.486094
41.778447
32.195094
23.318276
20.363309
20.905716
19.523035
19.196183
21.786420
25.846073
27.099223
25.642662
23.791686
15.696219
8.641617
6.002510
-7.334692
-24.978673
-37.659139
-46.179883
-45.381001
-43.266075
-38.142878
-23.694211
-17.824734
-21.834828
-24.011250
-23.811590
-16.685920
-5.232195
-2.091366
-14.584794
-39.086517
-67.466469
-99.607283
-133.930829
-158.715447
-159.311633
-135.128115
-105.829814
-80.386830
-52.608445
-25.574938
-5.892952
3.043244
3.853348
6.679486
14.034044
22.872746
33.336573
41.797927
44.586657
42.748540
38.132677
30.878646
19.380260
8.835766
4.580185
4.193247
5.424420
2.702549
-0.441326
2.663265
5.965180
14.155797
23.066976
24.139167
25.533998
14.318974
-2.808783
-1.166360
-1.790602
-14.308111
-22.219113
-22.155991
-17.844772
-18.411266
-21.435905
-22.895738
-24.670263
-21.314574
-19.945460
-26.642118
-33.504773
-35.641449
-30.571559
-20.991252
-7.840159
10.752332
27.667327
37.502006
41.431199
40.199084
34.955476
29.282148
25.606384
21.442686
14.375693
4.474375
-4.978285
-6.683372
-1.482088
3.452434
12.243208
30.066038
48.778934
61.847029
69.336721
63.743118
40.747284
11.432143
-16.109880
-33.968020
-32.369083
-21.160378
-10.767392
-1.332272
3.629370
8.431095
18.321885
28.703883
37.584903
47.963628
55.711900
55.636847
50.275405
37.108408
24.815578
20.349112
14.621076
17.825731
20.202745
11.574921
14.482187
11.186811
-6.281822
-18.959950
-32.452861
-39.222230
-47.637064
-63.994927
-66.178597
-60.126057
-46.173740
-25.074242
-12.584328
1.535154
17.529455
27.900231
36.280457
36.276713
30.141869
24.370113
18.127489
15.112202
13.507181
8.540856
2.199803
-6.282365
-15.785058
-19.828585
-19.851968
-17.166342
-11.167341
-6.507063
0.154051
10.505890
23.830226
42.054486
54.019292
57.203841
52.877185
33.280295
8.588495
-8.867045
-15.589889
-15.515311
-13.181316
-3.965966
-0.287871
-2.170644
3.328732
6.531284
9.149576
10.394777
11.051043
21.099179
22.243847
16.773221
17.897081
13.473868
8.089280
3.136048
-7.368934
-15.668273
-18.773338
-15.328806
-7.250880
1.617515
11.306538
17.525308
17.467557
11.719414
2.993863
-4.349946
-8.928401
-11.718073
-15.202591
-18.865028
-20.830098
-21.947418
-20.932507
-16.918913
-11.154411
-3.007281
7.097901
14.883581
15.992244
10.198277
-1.342193
-17.234799
-33.428302
-46.085856
-52.325440
-49.663428
-38.431811
-24.564129
-14.395354
-8.675040
-11.132018
-19.830683
-25.376591
-30.968090
-32.507648
-18.698416
-1.397655
6.601014
13.611188
25.516609
31.257264
31.871446
32.307007
19.548219
4.620728
-1.386696
-5.289711
1.929010
4.045574
