EVENT_NAME: 202302060117
EVENT_ID: 13194
EVENT_DATE_YYYYMMDD: 2023/02/06
EVENT_TIME_HHMMSS: 01:17:32.00000
EVENT_LATITUDE_DEGREE: 37.288
EVENT_LONGITUDE_DEGREE: 37.043
EVENT_DEPTH_KM: 8.6
HYPOCENTER_REFERENCE: AFAD
MAGNITUDE_W: 7.7
MAGNITUDE_W_REFERENCE: AFAD
MAGNITUDE_L: 
MAGNITUDE_L_REFERENCE: 
FOCAL_MECHANISM: 
NETWORK: TK
STATION_CODE: 6204
STATION_NAME: 
STATION_LATITUDE_DEGREE: 39.357775
STATION_LONGITUDE_DEGREE: 39.213415
STATION_ELEVATION_M: 1250.0
LOCATION: Kahramanmaras_Pazarck_Turkiye
SENSOR_DEPTH_M: 
VS30_M/S: None
SITE_CLASSIFICATION_EC8: unknown
MORPHOLOGIC_CLASSIFICATION: 
EPICENTRAL_DISTANCE_KM: 298.00
EARTHQUAKE_BACKAZIMUTH_DEGREE: 
DATE_TIME_FIRST_SAMPLE_YYYYMMDD_HHMMSS: 2023/02/06 01:18:00.8613970
DATE_TIME_FIRST_SAMPLE_PRECISION: millisecond
SAMPLING_INTERVAL_S: 0.005
NDATA: 36501
DURATION_S: 
STREAM: HNN
UNITS: cm/s^2
INSTRUMENT: sensor = GEO-A200,/GEObit | digitizer = 
INSTRUMENT_ANALOG/DIGITAL: 
INSTRUMENTAL_FREQUENCY_HZ: 
INSTRUMENTAL_DAMPING: 
FULL_SCALE_G: 
N_BIT_DIGITAL_CONVERTER: 
PGA_CM/S^2: 27.241
TIME_PGA_S: 
BASELINE_CORRECTION: BASELINE REMOVED
FILTER_TYPE: BUTTERWORTH
FILTER_ORDER: 
LOW_CUT_FREQUENCY_HZ: 
HIGH_CUT_FREQUENCY_HZ: 
LATE/NORMAL_TRIGGERED: 
DATABASE_VERSION: 
HEADER_FORMAT: DYNA 1.2
DATA_TYPE: Acceleration
PROCESSING: Automatic Paolucci et al., 2011
DATA_TIMESTAMP_YYYYMMDD_HHMMSS: 
DATA_LICENSE: U (unknown license)
DATA_CITATION: Turkish Accelerometric Archive v 1.0 - Disaster And Emergency Management Presidency, Earthquake Department
DATA_CREATOR: AFAD
ORIGINAL_DATA_MEDIATOR_CITATION: : AFAD - Disaster And Emergency Management Presidency
ORIGINAL_DATA_MEDIATOR: AFAD PROCESS SERVICE
ORIGINAL_DATA_CREATOR_CITATION: AFAD PROCESS SERVICE
ORIGINAL_DATA_CREATOR: network: TK
USER1: GuestUser
USER2: 
USER3: 
USER4: 
USER5: 
[...]
1.674106
1.936124
2.195082
2.387888
2.532670
2.810932
3.350976
3.718697
3.668318
3.916212
4.263686
4.247914
4.547834
4.776894
4.795257
5.048800
5.043622
5.110245
5.264443
5.191464
5.166746
5.074463
5.071874
5.092356
4.949694
4.845405
4.758302
4.662017
4.564085
4.421658
4.293357
4.225793
4.188127
4.183890
4.199192
4.232387
4.284414
4.335029
4.401181
4.460506
4.476044
4.472513
4.512535
4.577510
4.577275
4.490878
4.411307
4.399537
4.428729
4.508771
4.601525
4.698753
4.783974
4.788447
4.778560
4.790567
4.825879
4.892267
4.943353
4.976547
4.994439
4.993262
4.971840
4.912516
4.830120
4.754788
4.691697
4.643201
4.616835
4.603417
4.586938
4.562220
4.556806
4.578700
4.598005
4.609776
4.613543
4.607658
4.593063
4.561046
4.509255
4.429685
4.332223
4.222991
4.096573
3.959326
3.816664
3.671648
3.528987
3.396448
3.284390
3.188812
3.103827
3.027082
2.936918
2.825567
2.699620
2.553191
2.391461
2.209956
2.011265
1.802452
1.563505
1.312081
1.068661
0.834187
0.622549
0.433981
0.272957
0.145597
0.055669
-0.003655
-0.035436
-0.040144
-0.043204
-0.041791
-0.031197
-0.013069
-0.005300
-0.010008
0.002940
0.018007
0.034722
0.071683
0.131714
0.201869
0.277202
0.383140
0.501790
0.611023
0.731321
0.862684
0.977803
1.052666
1.093393
1.104693
1.069381
0.998522
0.897293
0.768050
0.641397
0.521806
0.391151
0.259789
0.141611
0.026728
-0.082505
-0.178554
-0.256476
-0.301911
-0.318390
-0.310620
-0.278603
-0.217866
-0.123934
-0.016584
0.127962
0.324299
0.531701
0.758172
1.000886
1.222648
1.434758
1.638864
1.810719
1.968448
2.125235
2.269310
2.407264
2.532742
2.640327
2.724842
2.772867
2.808886
2.854087
2.904701
2.958141
3.027119
3.122463
3.215688
3.298790
3.386836
3.459815
3.508076
3.555395
3.602950
3.623902
3.614015
3.592122
3.567404
3.535858
3.507844
3.499370
3.502901
3.508787
3.519381
3.539157
3.556813
3.568585
3.575647
3.567173
3.546928
3.519149
3.480777
3.422629
3.344236
3.268197
3.184390
3.085986
2.991114
2.905188
2.832680
2.772885
2.717562
2.652588
2.593499
2.542414
2.490623
2.455311
2.429416
2.402579
2.370092
2.336899
2.304412
2.273808
2.237554
2.193297
2.155630
2.118200
2.082182
2.043338
2.019326
2.008027
1.981425
1.951999
1.914568
1.863483
1.805807
1.746718
1.686216
1.616769
1.522368
1.391948
1.236338
1.040002
0.809530
0.554575
0.269957
-0.037496
-0.366842
-0.706312
-1.059200
-1.422211
-1.806880
-2.212972
-2.622125
-3.041871
-3.458321
-3.859705
-4.230720
-4.562656
-4.859280
-5.122004
-5.330817
-5.466181
-5.547164
-5.569293
-5.532332
-5.460059
-5.374838
-5.289381
-5.214048
-5.157783
-5.113289
-5.089982
-5.093277
-5.121527
-5.175672
-5.233819
-5.281373
-5.313154
-5.319274
-5.297615
-5.241351
-5.151186
-5.033948
-4.886107
-4.710957
-4.507557
-4.274965
-4.019774
-3.739864
-3.444652
-3.145438
-2.838455
-2.533591
-2.229668
-1.922215
-1.611701
-1.294830
-0.987612
-0.683925
-0.381650
-0.092559
0.186645
0.451017
0.697027
0.921615
1.125015
1.308169
1.459071
1.581723
1.679421
1.753342
1.815728
1.877407
1.944266
2.013949
2.085045
2.149314
2.197575
2.244423
2.283974
2.307751
2.315285
2.292450
2.243484
2.156616
2.036554
1.901190
1.729337
1.523113
1.298056
1.057461
0.807921
0.555555
0.322258
0.130866
-0.014621
-0.114437
-0.175645
-0.216607
-0.244150
-0.252154
-0.237793
-0.204363
-0.173994
-0.165519
-0.165754
-0.169049
-0.192826
-0.272867
-0.416705
-0.575375
-0.695673
-0.757822
-0.795723
-0.843277
-0.909193
-1.009009
-1.114946
-1.121772
-0.968281
-0.744635
-0.563600
-0.442596
-0.322768
-0.136083
0.081206
0.270481
0.423031
0.567342
0.777333
1.050887
1.342332
1.648609
1.995142
2.371808
2.719047
3.081352
3.482031
3.891655
4.336827
4.792357
5.229996
5.629262
5.988978
6.345869
6.682985
7.000797
7.298599
7.565326
7.821930
8.045104
8.247092
8.456848
8.637883
8.796319
8.937804
9.041387
9.116015
9.160744
9.176282
9.187583
9.161216
9.104952
9.049630
8.939927
8.816805
8.698626
8.545371
8.399178
8.244039
8.063240
7.886679
7.707998
7.521078
7.341221
7.160657
6.986215
6.845672
6.716429
6.618261
6.565763
6.516797
6.490902
6.489255
6.494905
6.518918
6.560822
6.614733
6.681827
6.777406
6.883815
7.003407
7.154544
7.329459
7.533565
7.764979
8.025585
8.305730
8.595528
8.902511
9.222677
9.545904
9.857359
10.149746
10.399994
10.606925
10.778544
10.908729
11.009959
11.070225
11.101301
11.116839
11.093298
11.065048
11.045038
11.012080
10.984066
10.954404
10.914619
10.864712
10.801150
10.725111
10.631180
10.528775
10.410832
10.278058
10.137986
9.984259
9.817114
9.632784
9.431269
9.219159
8.996927
8.754920
8.504202
8.244539
7.970280
7.690370
7.394688
7.078054
6.742116
6.398174
6.053996
5.699460
5.346807
5.000511
4.651154
4.309566
3.982809
3.671825
3.378262
3.100236
2.846693
2.622813
2.420827
2.243559
2.099014
1.970948
1.851592
1.748010
1.653138
1.566740
1.485287
1.407365
1.337917
1.260937
1.178777
1.102032
1.015399
0.913465
0.796228
0.672635
0.552338
0.415797
0.280433
0.170259
0.070678
-0.024665
-0.117418
-0.210172
-0.301748
-0.391441
-0.473130
-0.539046
-0.585422
-0.624736
-0.658401
-0.672054
-0.675350
-0.675114
-0.667815
-0.666873
-0.675112
-0.682174
-0.681232
-0.677701
-0.680996
-0.689706
-0.703831
-0.731138
-0.774925
-0.831896
-0.916409
-1.031998
-1.163831
-1.317322
-1.479994
-1.643607
-1.830998
-2.024980
-2.161521
-2.298062
-2.753356
-3.362141
-3.261147
-2.913202
-3.426879
-3.896534
-3.931846
-4.324048
-4.500139
-4.506730
-4.663752
-4.648214
-4.948134
-5.293724
-5.379415
-5.555977
-5.777032
-6.136982
-6.458560
-6.714222
-7.042626
-7.298759
-7.594911
-7.924729
-8.258077
-8.626032
-8.945727
-9.267069
-9.566753
-9.855843
-10.159059
-10.396593
-10.594813
-10.758662
-10.927926
-11.118612
-11.307415
-11.507989
-11.674428
-11.818502
-11.948687
-12.087346
-12.266733
-12.459538
-12.670235
-12.891290
-13.115877
-13.346584
-13.576820
-13.810823
-14.048593
-14.291777
-14.539434
-14.791800
-15.045342
-15.282406
-15.492632
-15.681671
-15.857290
-16.012664
-16.141437
-16.250434
-16.337066
-16.388151
-16.399686
-16.370494
-16.301517
-16.207350
-16.087287
-15.932383
-15.749465
-15.532411
-15.287342
-15.026736
-14.765189
-14.514941
-14.267754
-14.029983
-13.806573
-13.593992
-13.385884
-13.188134
-13.009688
-12.840188
-12.682930
-12.534147
-12.398076
-12.277307
-12.169015
-12.073671
-11.983506
-11.916648
-11.862737
-11.812122
-11.779164
-11.748559
-11.710657
-11.667340
-11.632498
-11.607779
-11.583530
-11.573878
-11.575996
-11.585883
-11.617899
-11.656507
-11.694409
-11.741021
-11.775155
-11.798461
-11.803875
-11.759617
-11.696760
-11.615777
-11.482531
-11.332100
-11.175312
-10.989333
-10.785933
-10.576883
-10.374190
-10.182561
-9.990461
-9.804011
-9.624153
-9.446884
-9.263730
-9.058447
-8.833624
-8.597501
-8.347018
-8.099360
-7.813330
-7.449611
-7.149456
-6.919925
-6.614354
-6.312786
-6.047707
-5.747787
-5.495656
-5.261887
-5.034004
-4.910410
-4.782108
-4.627439
-4.442873
-4.170025
-3.989696
-3.905888
-3.809367
-3.693071
-3.520746
-3.365842
-3.212350
-3.008479
-2.838979
-2.669715
-2.458546
-2.231369
-1.985830
-1.765245
-1.528416
-1.260512
-0.995904
-0.737888
-0.566269
-0.448325
-0.203963
0.120441
0.216491
0.284526
0.560199
0.719811
0.838461
0.993366
1.128024
1.320359
1.444895
1.593443
1.744345
1.888184
2.062393
2.189753
2.352897
2.508507
2.706728
2.906361
3.082924
3.321400
3.578240
3.858150
4.137118
4.419382
4.663744
4.875148
5.101619
5.326206
5.555031
5.789506
6.068474
6.386992
6.733761
7.109250
7.449662
7.797371
8.187692
8.595432
9.014473
9.392552
9.752739
10.067490
10.328802
10.607300
10.858018
11.073425
11.266466
11.407245
11.502589
11.579100
11.623594
11.661967
11.706461
11.701989
11.696575
11.719646
11.746484
11.811459
11.898799
11.965422
12.044993
12.145045
12.262753
12.395529
12.529481
12.707691
12.895553
13.118964
13.367328
13.566726
13.800730
14.022727
14.214121
14.397981
14.533346
14.647052
14.700492
14.734157
14.773001
14.760289
14.717444
14.655765
14.583022
14.503216
14.417055
14.345959
14.288754
14.219542
14.139030
14.082766
14.049808
14.017086
13.983893
13.968120
13.963177
13.952113
13.940813
13.922216
13.896556
13.895379
13.916096
13.934459
13.961062
13.985545
14.008617
14.026980
14.034749
14.043930
14.036868
14.008383
13.938465
13.831351
13.696694
13.513305
13.300254
13.057541
12.775984
12.459350
12.105520
11.710728
11.289098
10.859700
10.433833
10.013851
9.588455
9.169650
8.771092
8.394662
8.046011
7.724198
7.422631
7.132128
6.841860
6.550651
6.267681
6.009666
5.783903
5.580504
5.389346
5.189478
4.974780
4.740541
4.494296
4.272535
4.070549
3.880804
3.695532
3.478714
3.217874
2.904771
2.548587
2.181338
1.800436
1.398110
0.989664
0.572743
0.142638
-0.293116
-0.733344
-1.153326
-1.537759
-1.894179
-2.213873
-2.489780
-2.710835
-2.898462
-3.069844
-3.209210
-3.326447
-3.416375
-3.484881
-3.538790
-3.574573
-3.606354
-3.639312
-3.675565
-3.713467
-3.745954
-3.761020
-3.762197
-3.754663
-3.735829
-3.706873
-3.675091
-3.667793
-3.683094
-3.710402
-3.748539
-3.780555
-3.817986
-3.865069
-3.898027
-3.926747
-3.995252
-4.079766
-4.125907
-4.180994
-4.255385
-4.319653
-4.408169
-4.519050
-4.673247
-4.864404
-5.025193
-5.206698
-5.418337
-5.598194
-5.800651
-5.966148
-6.047837
-6.135647
-6.183436
-6.204623
-6.246762
-6.260180
-6.285134
-6.323742
-6.318798
-6.302083
-6.289370
-6.267947
-6.277834
-6.303964
-6.349870
-6.432501
-6.469225
-6.483350
-6.515837
-6.529490
-6.540319
-6.539141
-6.525487
-6.514893
-6.489232
-6.434144
-6.351277
-6.246281
-6.134458
-6.052768
-5.963075
-5.855489
-5.769797
-5.675395
-5.584995
-5.493888
-5.379711
-5.259178
-5.123578
-4.994805
-4.860146
-4.687115
-4.501372
-4.315157
-4.121880
-3.930486
-3.748039
-3.552878
-3.368783
-3.199989
-3.017541
-2.858635
-2.708204
-2.576841
-2.491149
-2.390626
-2.310349
-2.243490
-2.144851
-2.078698
-2.022433
-1.974408
-1.970170
-1.963578
-1.971582
-2.006894
-2.029964
-2.064570
-2.114478
-2.170742
-2.261141
-2.356719
-2.469719
-2.620620
-2.759279
-2.896291
-3.044132
-3.171256
-3.297438
-3.450694
-3.611718
-3.776509
-3.937297
-4.077840
-4.190133
-4.268056
-4.317728
-4.344800
-4.383643
-4.439672
-4.507707
-4.569385
-4.590337
-4.600224
-4.601871
-4.599046
-4.619527
-4.647305
-4.664961
-4.671788
-4.671552
-4.646362
-4.591039
-4.517824
-4.441313
-4.358917
-4.254392
-4.144923
-4.024861
-3.902209
-3.830171
-3.721879
-3.435613
-3.188896
-3.072836
-2.859784
-2.818115
-2.843069
-2.702289
-2.787039
-2.775032
-2.670507
-2.718061
-2.670506
-2.708643
-2.690751
-2.618949
-2.573513
-2.531138
-2.502416
-2.287246
-2.067131
-1.819709
-1.535797
-1.229049
-0.851442
-0.491490
-0.090812
0.332702
0.813187
1.316271
1.836070
2.352573
2.805985
3.227850
3.635120
4.069463
4.510633
4.966635
5.409688
5.848504
6.318394
6.737435
7.111512
7.463695
7.789275
8.115327
8.426076
8.716109
8.997667
9.307475
9.628583
9.790785
9.749588
9.644593
9.619874
9.736876
9.843756
9.805383
9.731934
9.752651
9.803737
9.757596
9.747473
9.959113
10.188879
10.128613
9.815510
9.527597
9.346092
9.275703
9.422367
9.686975
9.816219
9.659432
9.360925
9.108560
8.948713
8.906338
8.890331
8.827946
8.708120
8.548508
8.329336
8.076500
7.895936
7.766693
7.639098
7.491964
7.374727
7.331882
7.313049
7.311401
7.340122
7.402037
7.498794
7.640044
7.845091
8.078389
8.289322
8.463060
8.628087
8.823012
9.059370
9.322565
9.589292
9.851310
10.094731
10.325204
10.552851
10.780970
11.030276
11.316542
11.630587
11.915441
12.135556
12.286222
12.375681
12.450308
12.540708
12.659123
12.799902
12.933619
13.038615
13.121952
13.200346
13.286038
13.380676
13.449418
13.476962
13.461896
13.409398
13.338303
13.237781
13.131609
13.037443
12.947750
12.879244
12.832161
12.814506
12.826983
12.840167
12.822982
12.755653
12.656544
12.543780
12.411712
12.261046
12.104730
11.930759
11.724064
11.507246
11.260766
10.982505
10.690118
10.371130
10.059205
9.753870
9.439826
9.107890
8.734521
8.337845
7.916215
7.467513
7.016221
6.565164
6.115991
5.668937
5.195280
4.703732
4.223484
3.755713
3.319723
2.913866
2.536495
2.193259
1.867679
1.562345
1.298915
1.066795
0.826906
0.579249
0.329709
0.077579
-0.171256
-0.418913
-0.647030
-0.869027
-1.094555
-1.314198
-1.556676
-1.797271
-2.019738
-2.217958
-2.384632
-2.540477
-2.663128
-2.780130
-2.913375
-3.051328
-3.178217
-3.254491
-3.287214
-3.284624
-3.246721
-3.188338
-3.144079
-3.114651
-3.084282
-3.078397
-3.060740
-3.027781
-3.008948
-2.994116
-3.021895
-3.093225
-3.189745
-3.313574
-3.451762
-3.610903
-3.786288
-3.995572
-4.225808
-4.425441
-4.619423
-4.828472
-5.052823
-5.303541
-5.587216
-5.937280
-6.340547
-6.769945
-7.248545
-7.754689
-8.269543
-8.817121
-9.395066
-10.000085
-10.628881
-11.258383
-11.883647
-12.505851
-13.118874
-13.735899
-14.342330
-14.942405
-15.567904
-16.187990
-16.814902
-17.456175
-18.099802
-18.774503
-19.428488
-20.058461
-20.674309
-21.248488
-21.839146
-22.396140
-22.915938
-23.438561
-23.917161
-24.397880
-24.811035
-25.159686
-25.554949
-25.906660
-26.193396
-26.519917
-26.810185
-26.972857
-27.120933
-27.211568
-27.213215
-27.240994
-27.240523
-27.208270
-27.149416
-26.998985
-26.817949
-26.623024
-26.360535
-26.084863
-25.885465
-25.712905
-25.513271
-25.344007
-25.178509
-24.987586
-24.798782
-24.591851
-24.388451
-24.219657
-24.039564
-23.843697
-23.635589
-23.389814
-23.143098
-22.897559
-22.660259
-22.433318
-22.208259
-21.981789
-21.722125
-21.468581
-21.195027
-20.898167
-20.643682
-20.373660
-20.087393
-19.818077
-19.521688
-19.224122
-18.931735
-18.620514
-18.334013
-18.023028
-17.690855
-17.376339
-17.008619
-16.661851
-16.331562
-15.952777
-15.618486
-15.267480
-14.836198
-14.382315
-13.866047
-13.303403
-12.778425
-12.244972
-11.694333
-11.179713
-10.609536
-9.969674
-9.338524
-8.670884
-8.019723
-7.406699
-6.770134
-6.190068
-5.636840
-5.095383
-4.626905
-4.087331
-3.400387
-2.958981
-2.773002
-2.220481
-1.719750
-1.497517
-0.956766
-0.516538
-0.107620
0.454083
0.855939
1.396689
1.871524
2.266317
2.674764
3.048605
3.569110
3.935418
4.233455
4.549148
4.816110
5.221497
5.623117
5.938575
6.147625
6.257094
6.579379
7.158032
7.509037
7.663471
7.972337
8.287324
8.616200
8.942958
9.281487
9.745728
10.061656
10.317083
10.669266
10.956945
11.242740
11.508054
11.802089
12.232666
12.594500
12.941033
13.302397
13.585132
13.837028
14.123765
14.494545
14.750443
15.106628
15.589937
15.762027
15.974372
16.355747
16.598696
16.977481
17.412059
17.723986
18.033794
18.196467
18.350900
18.565365
18.742162
18.865050
18.990998
19.231594
19.464891
19.669468
19.810718
19.911241
20.061202
20.154662
20.123823
20.039074
20.010354
20.046843
20.119117
20.206927
20.274963
20.279907
20.246714
20.181033
20.077686
20.015066
19.974810
19.937615
19.882292
19.768587
19.681483
19.554359
19.390039
19.294461
19.213714
19.224072
19.160746
19.039978
19.033151
18.911442
18.822690
18.796560
18.793735
18.828577
18.771842
18.820103
18.829285
18.693450
18.458741
18.180950
17.953304
17.635963
17.362646
17.106043
16.784936
16.439816
16.057266
15.695196
15.241786
14.793790
14.408179
13.998555
13.630130
13.254406
12.897516
12.532857
12.082507
11.618973
11.164856
10.752408
10.318066
9.836876
9.377109
8.878028
8.359171
7.829721
7.262604
6.673123
6.062219
5.457436
4.852888
4.281063
3.729249
3.124936
2.545107
2.042965
1.558480
1.087883
0.667431
0.302301
-0.024220
-0.293065
-0.525891
-0.728819
-0.855708
-0.922095
-0.926567
-0.914325
-0.914089
-0.928449
-0.937159
-0.901611
-0.885602
-0.813094
-0.660779
-0.536244
-0.382987
-0.221492
-0.083302
0.094673
0.246281
0.379527
0.599406
0.850125
1.060352
1.229381
1.452555
1.684205
1.756949
1.835343
1.959172
2.026973
2.067700
2.156688
2.305706
2.361736
2.457551
2.591032
2.658597
2.757943
2.842222
2.942274
3.015489
3.031733
3.051509
3.076463
3.057866
2.947691
2.816094
2.634354
2.348795
1.969540
1.587460
1.175953
0.648622
0.090451
-0.561180
-1.295677
-2.082202
-2.936997
-3.777902
-4.598091
-5.385086
-6.188325
-6.958135
-7.675682
-8.414653
-9.107717
-9.791364
-10.433814
-10.972681
-11.482591
-11.952481
-12.367048
-12.772199
-13.176643
-13.577321
-13.972348
-14.324059
-14.634808
-14.888115
-15.068208
-15.239119
-15.389314
-15.529386
-15.695119
-15.828835
-15.938303
-16.002571
-16.014812
-16.015047
-15.986797
-15.962784
-15.930531
-15.868146
-15.771389
-15.641910
-15.458285
-15.202152
-14.955436
-14.726376
-14.505320
-14.312278
-14.015653
-13.516807
-13.060099
-12.740168
-12.357617
-11.977184
-11.625002
-11.222440
-10.837299
-10.358227
-9.836309
-9.435631
-8.997521
-8.571889
-8.245602
-7.879294
-7.454838
-7.038858
-6.567555
-6.065883
-5.761019
-5.465571
-5.002272
-4.589823
-4.243055
-3.888753
-3.571883
-3.254542
-3.009473
-2.837855
-2.564772
-2.371966
-2.137020
-1.853814
-1.718920
-1.471498
-1.351435
-1.399930
-1.326245
-1.083530
-0.800795
-0.657897
-0.508879
-0.468387
-0.499697
-0.450965
-0.527239
-0.688263
-0.693207
-0.562315
-0.628231
-0.711097
-0.717453
-0.946983
-0.989828
-1.064219
-1.443709
-1.536934
-1.636750
-1.834263
-2.028716
-2.381369
-2.613018
-2.844667
-3.148118
-3.574220
-4.017273
-4.386404
-4.837461
-5.228957
-5.643760
-5.989115
-6.298451
-6.646631
-6.943961
-7.317565
-7.668099
-7.983792
-8.230978
-8.425196
-8.654961
-8.830110
-8.965945
-9.066467
-9.192885
-9.337901
-9.438188
-9.541064
-9.589324
-9.551657
-9.445719
-9.324009
-9.222309
-9.130496
-9.060577
-8.941221
-8.782550
-8.634237
-8.483335
-8.360683
-8.260160
-8.192360
-8.169524
-8.140332
-8.098427
-8.079829
-8.105960
-8.151630
-8.190002
-8.208600
-8.204597
-8.170932
-8.112313
-8.069467
-8.033684
-8.006610
-7.968002
-7.848175
-7.666668
-7.431723
-7.107084
-6.700755
-6.252523
-5.758855
-5.200683
-4.622266
-3.997942
-3.336188
-2.705979
-2.071532
-1.446031
-0.870203
-0.331100
0.167040
0.607504
1.006770
1.411215
1.788116
2.117228
2.462349
2.806763
3.129283
3.455570
3.792451
4.179946
4.626060
5.125377
5.708739
6.312346
6.877580
7.468945
8.084088
8.690755
9.276470
9.864069
10.492630
11.086114
11.673478
12.280380
12.891285
13.513961
14.089083
14.663263
15.260749
15.879423
16.498332
17.112062
17.749804
18.354117
18.928297
19.475169
20.009093
20.529598
20.971003
21.342961
21.636525
21.816619
21.916671
21.954573
21.961166
21.956693
21.939273
21.926090
21.865118
21.771187
21.641002
21.463264
21.295648
21.094132
20.858481
20.619770
20.397538
20.194845
19.999215
19.805939
19.591711
19.362651
19.082742
18.804010
18.565063
18.294571
18.026903
17.765827
17.472499
17.211659
16.992487
16.742947
16.553437
16.419486
16.233272
16.067540
15.925820
15.818471
15.743138
15.623783
15.525850
15.422032
15.276075
15.182850
15.076678
14.913064
14.762634
