EVENT_NAME: 202302060117
EVENT_ID: 13194
EVENT_DATE_YYYYMMDD: 2023/02/06
EVENT_TIME_HHMMSS: 01:17:32.00000
EVENT_LATITUDE_DEGREE: 37.288
EVENT_LONGITUDE_DEGREE: 37.043
EVENT_DEPTH_KM: 8.6
HYPOCENTER_REFERENCE: AFAD
MAGNITUDE_W: 7.7
MAGNITUDE_W_REFERENCE: AFAD
MAGNITUDE_L: 
MAGNITUDE_L_REFERENCE: 
FOCAL_MECHANISM: 
NETWORK: TK
STATION_CODE: 2712
STATION_NAME: 
STATION_LATITUDE_DEGREE: 37.184
STATION_LONGITUDE_DEGREE: 36.73283
STATION_ELEVATION_M: 536.0
LOCATION: Kahramanmaras_Pazarck_Turkiye
SENSOR_DEPTH_M: 
VS30_M/S: None
SITE_CLASSIFICATION_EC8: unknown
MORPHOLOGIC_CLASSIFICATION: 
EPICENTRAL_DISTANCE_KM: 29.79
EARTHQUAKE_BACKAZIMUTH_DEGREE: 
DATE_TIME_FIRST_SAMPLE_YYYYMMDD_HHMMSS: 2023/02/06 01:17:07.3433620
DATE_TIME_FIRST_SAMPLE_PRECISION: millisecond
SAMPLING_INTERVAL_S: 0.01
NDATA: 10501
DURATION_S: 
STREAM: HNZ
UNITS: cm/s^2
INSTRUMENT: sensor = ACEBOX/SARA | digitizer = 
INSTRUMENT_ANALOG/DIGITAL: 
INSTRUMENTAL_FREQUENCY_HZ: 
INSTRUMENTAL_DAMPING: 
FULL_SCALE_G: 
N_BIT_DIGITAL_CONVERTER: 
PGA_CM/S^2: 346.122
TIME_PGA_S: 
BASELINE_CORRECTION: BASELINE REMOVED
FILTER_TYPE: BUTTERWORTH
FILTER_ORDER: 
LOW_CUT_FREQUENCY_HZ: 
HIGH_CUT_FREQUENCY_HZ: 
LATE/NORMAL_TRIGGERED: 
DATABASE_VERSION: 
HEADER_FORMAT: DYNA 1.2
DATA_TYPE: Acceleration
PROCESSING: Automatic Paolucci et al., 2011
DATA_TIMESTAMP_YYYYMMDD_HHMMSS: 
DATA_LICENSE: U (unknown license)
DATA_CITATION: Turkish Accelerometric Archive v 1.0 - Disaster And Emergency Management Presidency, Earthquake Department
DATA_CREATOR: AFAD
ORIGINAL_DATA_MEDIATOR_CITATION: : AFAD - Disaster And Emergency Management Presidency
ORIGINAL_DATA_MEDIATOR: AFAD PROCESS SERVICE
ORIGINAL_DATA_CREATOR_CITATION: AFAD PROCESS SERVICE
ORIGINAL_DATA_CREATOR: network: TK
USER1: GuestUser
USER2: 
USER3: 
USER4: 
USER5: 
[...]
11.201277
4.798275
-2.239019
0.916079
6.863184
3.654554
-1.731664
1.441203
5.822100
1.787698
-3.011221
1.620775
9.004330
6.695819
3.613674
5.187601
0.079368
2.072961
11.029271
4.089237
-1.834481
6.166767
20.235287
31.592929
22.172773
10.155364
11.997690
12.792838
15.315982
9.674224
-3.792261
-7.321193
-10.585233
-4.174742
5.867089
2.179876
12.297690
14.787401
-10.453114
-16.609694
-7.832005
-4.439370
3.348655
5.466161
3.348663
6.782681
11.891155
8.366665
-4.480725
-4.747484
3.541101
5.238707
6.666978
6.459370
8.965680
11.581174
8.336773
7.424033
0.082335
-10.086674
-12.513018
-10.912905
-4.829263
-7.588301
-13.607174
-12.455017
-15.618056
-11.274801
-4.874363
-3.608347
7.335006
9.483606
2.822025
1.231038
-2.615858
-3.797466
-11.718513
-21.438163
-16.175383
-14.235797
-8.985174
3.109630
-5.631579
-20.142202
-18.485745
-10.595785
-2.937517
-0.799905
-8.224601
-13.754136
-8.108864
-4.498796
-8.376320
-7.068922
-5.582669
-5.595758
3.282931
13.689952
16.656376
11.271561
4.734593
1.291699
-5.443763
-7.907281
-8.157908
-14.242478
-15.723580
-16.883444
-15.625143
-5.082052
2.143457
10.592893
17.164003
11.352275
8.223370
11.194469
15.688056
17.729578
13.046389
16.179042
21.193296
12.139501
5.240381
1.933089
-10.343836
-15.118673
-2.516997
6.215802
0.524246
-0.843465
5.606071
1.047495
-6.459731
-3.719156
-1.695870
0.666187
6.928451
9.098093
9.055312
5.692142
-0.507222
0.982538
6.348423
9.337992
8.341318
-2.075515
-10.541076
-11.109434
-16.227018
-18.380287
-14.427707
-16.884445
-15.624040
-6.737402
-7.121293
-10.245522
0.797662
9.931891
4.093509
4.267692
8.179124
1.879461
5.128078
14.572088
10.370288
5.972799
2.457427
-8.694231
-7.547452
3.507422
-1.809592
-9.765943
-2.377010
2.118447
-4.632211
-10.257369
-6.251016
2.207306
2.700154
-2.665255
-2.182928
3.707832
0.447299
-11.061134
-11.980888
-7.189911
-4.975613
-1.385652
-2.753129
0.147130
9.660345
6.863198
6.570254
17.107968
12.791139
1.728324
6.250435
12.811491
3.894701
-10.101802
-8.743904
0.371621
-0.548133
-3.231421
-1.415513
2.588736
7.838658
5.520328
0.036149
-0.504854
-0.000082
-0.874480
-5.885920
-3.699444
12.218646
18.032954
7.483090
0.872009
1.345218
-0.890581
-3.718121
-4.503443
-4.904167
-0.793072
3.570524
3.780244
2.375593
0.305790
2.005734
-1.084595
-7.350357
-3.212610
-3.834740
-8.265428
-4.797977
-4.403324
-5.334301
-4.171155
1.189820
8.255878
7.721655
9.901585
10.322190
0.741182
-7.550201
-10.808395
-4.742989
-0.629556
-5.938621
-5.554488
-2.242044
1.932176
3.588633
0.265676
8.204734
16.836299
13.584651
9.271562
3.139064
-1.729760
3.677507
8.883007
0.607523
-4.756484
5.155588
8.756771
4.400665
3.111510
-0.759701
0.882027
7.771101
3.629620
-4.925953
-3.356936
0.326544
-7.162446
-15.997407
-12.530424
-5.409656
-8.565682
-13.250508
-5.969122
0.768452
2.366693
3.219590
-3.200012
-5.443760
-3.439646
-5.212995
-1.380119
-1.281452
-0.456845
12.189954
17.753397
14.493098
8.573589
0.974481
0.322658
2.956855
1.130435
-5.187231
-6.635601
-5.686848
-14.802834
-15.567113
-6.702218
-10.541399
-12.093342
-8.448205
-9.760037
-2.433996
2.889338
-4.070569
-9.881597
-10.836187
-5.692877
-2.627557
-4.190021
-0.576914
1.353320
2.278694
6.897362
7.061492
4.432212
6.116959
11.044473
13.391100
16.616571
18.695968
11.702628
10.986277
15.678124
9.860083
4.847941
3.620276
3.238956
7.264248
2.163263
-10.843109
-13.912396
-10.982445
-8.654989
-0.508553
8.090280
5.351583
-0.392812
2.280196
7.230623
9.341348
10.220196
8.271032
6.796009
11.334252
15.125044
11.398787
4.286912
-0.042074
1.267194
-1.127821
-9.623308
-8.427432
-2.102510
0.163223
4.526351
6.447701
3.721629
-2.091503
-3.005412
9.659623
12.652232
4.414623
6.588006
4.435672
-5.094602
-8.592439
-7.161596
-0.814230
-2.920973
-9.397388
0.248390
5.834512
0.508848
1.772058
-0.366014
-2.362639
4.294508
7.859219
8.646418
1.846429
-6.003077
1.039368
3.080422
-1.932421
-1.572136
-4.523121
-3.688695
-3.592133
-9.725800
-5.291831
-0.491268
-2.978166
-1.473910
-0.052887
-4.808553
-11.758874
-8.809518
1.739886
9.258810
15.425918
10.162444
-2.726328
-3.457876
-2.893719
-6.630497
-3.422327
2.103943
3.523096
-1.633065
-8.692570
-5.599428
4.170028
8.720896
6.263457
3.533644
3.569419
-1.413733
-8.252299
-7.373919
-7.973371
-11.517734
-8.663533
-5.364416
-4.581892
-2.401262
1.416418
6.890785
7.996416
6.294609
9.695896
9.558894
1.060601
-7.725730
-14.996821
-19.307104
-17.404691
-11.699800
-8.268588
-7.891703
-7.165525
-8.545860
-4.073315
7.162284
1.375806
-11.418044
-8.578339
-5.199497
-5.541772
-1.241769
5.403454
10.892317
9.748584
8.683642
6.620618
-4.884541
-8.447842
-6.280771
-14.906951
-19.391412
-18.200212
-19.232890
-11.005795
1.253369
6.147918
6.023542
3.642087
5.080879
7.491333
3.100858
2.752270
14.198988
22.600263
19.932406
20.331969
22.738916
16.040628
16.310200
22.919185
15.202476
5.700959
6.050958
11.765434
19.837756
20.215576
15.117163
2.859177
-16.014571
-18.536305
-17.641325
-25.639526
-19.772146
-9.347122
-4.751833
-0.702694
-2.905996
-4.314153
-3.369608
1.508576
13.218783
12.928411
3.984500
-0.664087
-2.236370
1.512339
-1.570040
-7.341322
-3.871065
-7.069174
-9.371606
-4.444324
-12.496065
-23.664556
-17.323970
0.743185
8.976593
1.824271
-2.482972
-1.432050
3.394231
14.537480
14.208999
4.070384
2.955876
9.585903
21.735416
27.379753
19.425272
17.402229
19.497290
16.272294
7.947245
-6.461209
-4.101022
8.987187
4.470929
0.418057
3.263841
3.051791
8.660123
16.518053
15.851735
1.254606
-11.338178
-8.218150
-11.728612
-20.883174
-19.844642
-17.924462
-11.691657
-1.285570
0.410867
-4.159165
-8.290125
-3.878367
3.093004
1.657025
3.672361
5.367162
-1.063896
-2.548037
-2.046304
-2.934730
-5.725331
-14.523118
-15.737223
-10.449660
-7.087418
-4.614541
-8.386622
-5.296052
4.556870
6.119341
11.894605
16.004297
17.506682
27.195712
19.522490
3.378792
-3.608001
-10.386482
0.894240
4.752367
-21.126649
-25.997577
5.537002
39.190018
37.648596
20.533939
26.806957
15.524372
-14.333405
-23.416659
-27.147825
-23.531679
-18.132595
-25.470786
-14.235889
18.502746
31.148143
21.966227
19.482602
20.228419
32.286985
52.856939
36.745506
3.051817
-4.663489
-1.681167
-17.758934
-41.886340
-27.747213
3.069842
-1.510008
-20.075378
-23.065407
-17.611848
-15.488732
-4.696880
20.989027
35.357275
25.259575
9.361599
10.744046
12.788373
6.065537
19.020948
30.057820
18.871793
10.501855
4.458433
5.978119
26.605354
45.924026
46.155022
27.109433
1.655695
-23.552089
-46.956360
-44.327072
-24.220270
-10.012406
7.950241
-2.010220
-19.174910
11.745250
19.275864
-7.044093
-7.471939
9.065715
33.516003
29.623750
30.951255
75.890366
63.929302
6.316983
-22.028593
-35.279751
-38.167611
-34.488339
-11.325573
9.661242
2.998726
20.579582
47.372285
49.010039
47.468150
47.666647
45.999209
25.104284
4.679759
5.615887
-11.444530
-34.654282
-49.098039
-68.479829
-59.520947
-32.019138
-14.315070
11.741873
26.239645
23.972985
37.839271
34.715509
9.250315
9.701547
-2.167167
-20.404519
7.993436
-2.340165
-53.313109
-50.436697
-38.234113
-34.820903
-13.575274
18.464307
69.937818
83.381866
48.843468
18.295755
-17.241426
-26.906133
-2.419373
23.503136
43.173439
25.580667
7.456005
24.233534
29.169934
12.241379
-14.857824
-30.380089
-31.586011
-31.183408
-13.975458
-17.036328
-31.578047
-10.463344
4.242508
5.114108
-9.026649
-39.799508
-40.686999
-40.523337
-31.673405
17.679097
32.998900
19.299553
28.955150
34.085602
37.457196
47.379789
35.710270
18.386130
10.080253
-12.385089
-22.889129
-10.812561
-26.415719
-39.398243
-17.952016
-13.958989
-2.912766
46.271636
67.499496
64.618884
70.656001
33.604048
-28.788489
-57.234599
-62.920544
-28.245367
28.663230
31.610715
-6.155021
-47.662214
-65.547467
-23.489907
30.738671
40.711765
21.278306
-6.684077
-21.287284
-14.901108
-19.431628
-42.934561
-42.394953
-7.486680
-2.741059
-43.966060
-55.715070
-31.875928
-24.818520
-16.709959
-6.673974
-20.756515
-19.497746
-19.504289
-61.253930
-65.985048
-15.665560
25.271644
55.279526
54.986582
37.973860
39.571869
9.721573
-4.814535
46.023048
53.821593
13.692167
-2.350997
-7.979663
-6.410879
-11.854377
-25.181519
-18.075715
-30.489878
-53.861184
-42.807246
-37.066116
-24.598639
21.759388
31.465719
-6.508798
-22.684760
-6.285047
-1.301186
-15.881715
-11.561839
13.177656
28.869431
41.456845
63.250261
77.523121
61.552667
28.530444
8.817597
-1.696729
-11.092102
-20.550601
-37.247696
-44.713774
-38.640653
-32.899991
-17.658042
-14.992048
-53.612780
-77.691323
-66.241566
-76.056839
-73.867324
-26.819127
2.521265
13.880776
19.014734
3.814175
4.350276
21.216648
35.299664
37.774879
29.474145
36.913344
23.905803
-10.302006
-15.287962
-28.962994
-47.601075
-37.555270
-33.370997
-25.011572
-8.018247
-30.506969
-76.386873
-90.933735
-67.221544
-32.015647
-8.464310
-1.732815
-12.591759
-28.268329
-12.142159
31.572322
58.005445
51.335213
36.001389
38.651251
32.754420
5.496001
-7.576068
-16.532136
-23.605902
-11.829530
-3.775444
-8.835281
-35.372202
-73.891934
-90.541802
-92.404695
-82.842617
-64.797439
-65.647989
-82.727577
-92.390648
-88.640536
-83.536037
-75.641868
-63.731998
-55.729114
-42.036539
-44.347154
-73.292420
-84.823064
-76.094940
-67.804486
-63.341993
-58.682878
-43.934942
-39.467540
-52.956470
-61.358672
-53.866167
-35.154199
-25.999162
-25.099039
-30.478710
-55.808302
-74.776504
-69.075588
-51.829295
-32.260928
-20.070267
-10.508890
15.109449
43.137537
31.902179
7.598724
14.318295
25.328279
42.299159
67.066944
67.264974
55.823407
48.832873
59.809424
79.342722
74.182119
69.823674
87.122104
118.127833
132.906396
89.451437
48.241400
63.458800
80.601053
67.983486
36.624263
33.405814
84.396767
98.217229
55.352141
53.340319
68.525221
51.140294
44.156774
35.250738
10.323512
3.209298
-0.331090
-11.523429
-28.850841
-42.004973
-3.597690
44.969721
36.308238
32.029050
45.987686
30.262720
34.734096
48.423631
17.484542
5.960678
12.365324
-33.864106
-90.828806
-104.530257
-101.006695
-94.154795
-65.992040
-54.719501
-76.864540
-58.634896
-6.136184
25.040685
51.383094
69.722623
78.366580
91.805952
71.005714
15.232445
-29.414178
-59.000283
-80.795094
-99.854711
-107.237323
-68.533819
-11.731600
18.637733
41.685705
26.833738
-22.997574
-10.334643
13.225346
-16.300673
-20.719438
3.446553
39.802031
69.272648
49.553723
52.881129
107.484952
142.810320
147.831821
167.419594
169.395886
114.096290
109.713530
96.272062
-9.373437
-28.726002
-12.332134
-38.159480
-7.771910
1.527614
0.441395
41.981562
20.356488
-62.275879
-58.810532
27.734206
24.083699
-15.462637
-34.335216
-65.798245
-30.830587
-54.042210
-104.821569
-87.822868
-118.319847
-41.383008
110.931472
94.320414
-76.759328
-183.348432
-150.870482
-212.763862
-112.768534
56.829877
-140.409441
-98.775756
78.241042
-13.071983
21.966048
-102.712185
-251.303202
-134.025347
-165.091856
-97.818325
59.582414
-70.572286
-206.411065
-83.990371
118.203820
66.258982
-177.437022
-307.003956
-120.239916
206.030016
203.570005
131.389545
154.121423
-29.263303
-107.154494
-29.636202
-7.835304
-9.346566
-161.594172
-222.348726
-72.866700
-20.680808
-71.101523
-107.088295
24.242179
71.569997
-144.568089
-15.091862
198.856487
41.964498
48.411462
21.721403
-101.417040
86.836755
36.761125
-178.945605
-69.493411
-39.426378
-58.193514
75.499481
31.985605
-94.865071
-46.228456
21.151452
51.903277
21.216221
-78.794764
33.870973
172.653267
135.803315
200.887568
176.651446
143.558616
291.083057
180.260586
125.194086
343.869815
275.443906
103.034091
70.804908
47.402975
163.774165
310.252597
299.589342
180.633063
76.073553
118.486485
101.825628
-84.748327
-180.717424
-181.602577
-115.380900
3.304648
-29.325497
-84.909858
-29.201343
-56.889482
-157.961438
-154.071282
-50.365357
1.034975
-2.146300
37.426228
46.109229
20.433150
65.014317
109.536568
34.438085
-61.486124
-15.984730
57.262087
25.831321
-12.063003
-5.294568
-2.075410
-15.912697
-9.448667
28.699569
45.891621
46.279261
111.214117
158.761237
40.123624
1.893099
141.564057
101.709576
-26.689306
-35.191340
-21.606079
42.682796
47.592074
-21.714315
-5.983496
4.969676
27.266691
46.542578
-20.690264
-17.282899
56.068893
88.613709
52.854188
-39.605379
-32.773351
60.355585
76.274377
51.586091
26.189633
-26.242673
-50.613229
-27.806068
-0.859760
53.747569
90.333572
-13.003646
-114.135689
-60.671160
-8.244925
-40.417529
-95.600227
-97.878343
-39.653936
-22.441544
30.060441
107.559796
53.538370
-8.425149
-14.310056
-19.392103
-3.691444
21.959159
15.425932
-80.085156
-91.983095
-20.740155
-51.452462
30.247295
118.408507
45.559387
70.305429
88.754141
22.179906
-43.928137
-110.485071
-23.895679
95.631307
32.282772
-88.412490
-137.937995
-163.092706
-108.124394
22.833174
-69.599974
-228.031284
-138.139271
1.339037
-16.488234
-191.586717
-147.706941
28.670421
-94.570426
-85.405804
29.961694
1.168630
97.347451
84.310218
40.523267
104.845809
69.413603
66.331458
12.732036
1.706628
86.426578
46.356302
47.553816
-15.150140
-24.687428
113.009346
-132.154203
-346.121949
-56.968736
218.838161
184.575409
1.276019
-2.288918
47.382718
-59.354848
-84.129171
-86.773882
-49.056534
-43.662126
-174.975759
-37.534292
42.795880
-123.336244
-79.648182
-77.319324
-125.513119
-113.629902
-104.079513
163.934920
220.523214
-58.983516
-49.488070
-17.906732
-129.575082
-96.907522
43.022483
265.454166
195.350995
-186.721427
-159.471884
63.009597
30.585894
5.545977
-68.689560
-158.649834
-68.339090
21.295745
37.799264
12.515263
90.242103
200.635330
71.503260
62.148100
193.043711
77.440553
50.283835
89.854260
-9.100195
121.158552
106.296532
-280.605674
-282.018273
-29.080958
-32.559156
-108.604050
-170.114704
-180.505118
-201.770145
-158.874188
92.653564
120.908435
133.367963
342.445379
185.827868
-0.895950
-49.140947
-172.898252
19.064971
192.873134
84.945307
38.970481
20.615529
-12.140165
-115.794880
-186.572088
-10.503339
243.019405
197.373766
-49.286085
75.318976
134.686886
-115.061895
11.357434
113.987657
15.082767
30.971633
21.967403
145.716533
95.657035
-64.268473
92.523458
92.952713
-18.422922
6.024092
36.111233
68.278467
34.570282
139.651402
261.279523
72.134968
-105.249117
-28.617150
51.284939
-107.130940
-202.587554
-95.328613
-93.755621
-14.703618
140.786764
99.951504
41.277512
26.078589
72.420718
148.344747
44.225945
-47.234607
57.820796
142.829485
110.999160
39.200024
-51.023038
-37.853468
47.551741
-84.649152
-175.629016
57.060989
175.285723
116.854647
172.936302
193.013412
24.218571
-164.552143
-124.302069
25.062824
54.165210
29.328463
-75.395173
-172.667223
-141.117447
-128.818070
-33.513417
99.048000
-34.322815
-264.185736
-285.648321
-88.159768
33.890591
-77.478265
-105.695253
-34.109098
-42.186322
10.988766
-7.383721
-182.485244
-191.983254
-86.718136
-58.298905
-9.687306
14.250732
-8.723353
57.623639
122.798371
-6.999788
-185.841599
-84.464763
78.336927
-17.340158
-28.011596
72.258443
12.129999
63.491989
155.303711
46.438356
44.954449
104.457727
-16.505233
-99.578308
24.088993
188.951372
68.550694
-189.198863
-124.703078
63.263615
109.241721
52.325417
-37.520062
147.124605
334.936523
127.490318
-24.788617
-35.635637
-79.045005
3.267300
36.757359
-82.482983
-135.790392
-79.725103
-85.666822
-124.608091
-55.513280
-111.958015
-197.847177
-76.599210
-87.258024
-177.348289
-143.129250
-138.493514
-128.258567
-53.217123
89.706189
97.266027
-58.594448
-29.540225
41.625329
109.288833
227.318814
112.413775
48.004970
64.800034
-35.906264
41.461697
-13.671435
-86.183185
194.712075
208.788779
174.977256
114.283256
-314.272972
-130.553908
144.093822
-150.572791
33.543026
201.221493
-17.478777
11.759445
20.588335
105.387776
268.693767
104.933282
-110.495697
13.461980
242.792318
84.387661
-150.660416
-117.986776
48.268800
171.071753
-85.056888
-243.924697
-102.058617
-133.508086
67.151927
229.874126
-86.054244
-125.108437
41.629698
-58.203601
-36.025589
127.394963
129.564371
166.707279
137.381858
-144.080353
-213.188015
-50.624564
26.342201
59.346429
34.481626
108.724887
189.077270
-13.106393
-116.614751
-32.198270
-67.819617
-155.178663
-255.301403
-167.149309
54.894270
-8.159212
-17.274496
134.303055
119.676702
90.290026
0.131959
-24.533181
71.933679
0.580628
-43.153017
-98.533273
-59.108738
124.449006
-77.794041
-176.610088
2.531225
-126.740189
-165.588406
-17.910126
41.375487
88.598798
7.695830
-33.241834
46.630330
45.882650
82.571523
123.943590
90.803767
95.298523
59.870526
-23.649335
-79.800654
-76.980588
27.412467
43.683825
-20.558984
-3.344020
-17.676256
48.184905
131.004551
10.425018
-23.214898
21.173153
-33.844950
-18.040018
21.805119
-30.614562
-114.202692
-83.417199
-17.762247
-72.174582
-5.675856
28.862082
-160.967031
-177.792949
-93.958390
1.660020
105.510898
-77.408104
-133.688713
28.807404
-48.852562
-83.065748
8.268092
88.280067
209.843426
89.056749
-74.485369
83.864119
105.324608
-59.581250
99.822898
255.158974
111.646501
51.226044
53.561682
31.090964
0.287944
-92.138657
-92.710054
-119.428636
-120.952055
-44.108501
-192.616052
-153.348161
99.996897
-18.627623
-78.229556
95.939824
25.955656
-52.585258
48.738740
65.366873
19.663720
9.312817
-5.614667
13.985029
69.915418
-23.533345
-191.978660
-98.019510
21.763951
27.065542
174.921274
113.649795
-56.976147
37.279458
35.345959
49.549380
76.631524
-56.004233
12.341726
22.161215
-38.988456
115.062436
41.346630
-176.465679
-115.470540
47.231552
-25.351506
-170.493078
-44.717627
2.577927
-103.405175
-47.058394
-57.450913
-70.663026
-8.510825
-59.047269
60.881848
173.580082
-62.139694
-94.329599
153.331146
145.824154
42.750191
85.262253
89.015171
34.187612
35.135897
19.914063
-56.254511
-35.546382
-0.452239
-56.944435
-26.168061
18.151254
13.158985
35.417891
63.626938
129.201463
106.472632
45.799908
24.646637
-57.012198
43.071739
154.861204
47.206451
43.904303
38.455661
-60.690274
-117.444556
-113.907433
-1.579533
-25.812382
-100.924893
9.410586
48.660709
0.879799
-67.149824
-91.959684
-1.781737
0.128858
48.386254
180.096414
43.876546
-161.526271
-82.431016
35.175324
3.816803
38.405241
53.199936
-24.763031
0.604677
-43.075194
-99.950350
29.622202
46.852597
-20.358735
26.403527
16.267484
-56.421718
-24.155354
5.447826
-109.417702
-79.955969
80.014669
-2.038114
-72.541312
-12.270477
-38.262884
-17.610866
0.128739
-10.065520
43.379370
20.235783
-0.397056
31.300480
45.726242
63.744066
-15.072729
-36.109102
78.957266
17.932676
-47.472105
54.177806
14.436250
-77.691559
-142.174477
-197.576476
-15.147740
59.028655
-31.526165
105.278438
115.666755
34.503103
90.050766
13.408753
-16.636062
