EVENT_NAME: 202302060117
EVENT_ID: 13194
EVENT_DATE_YYYYMMDD: 2023/02/06
EVENT_TIME_HHMMSS: 01:17:32.00000
EVENT_LATITUDE_DEGREE: 37.288
EVENT_LONGITUDE_DEGREE: 37.043
EVENT_DEPTH_KM: 8.6
HYPOCENTER_REFERENCE: AFAD
MAGNITUDE_W: 7.7
MAGNITUDE_W_REFERENCE: AFAD
MAGNITUDE_L: 
MAGNITUDE_L_REFERENCE: 
FOCAL_MECHANISM: 
NETWORK: TK
STATION_CODE: 4904
STATION_NAME: 
STATION_LATITUDE_DEGREE: 38.73555
STATION_LONGITUDE_DEGREE: 41.77416
STATION_ELEVATION_M: 1300.0
LOCATION: Kahramanmaras_Pazarck_Turkiye
SENSOR_DEPTH_M: 
VS30_M/S: None
SITE_CLASSIFICATION_EC8: unknown
MORPHOLOGIC_CLASSIFICATION: 
EPICENTRAL_DISTANCE_KM: 444.58
EARTHQUAKE_BACKAZIMUTH_DEGREE: 
DATE_TIME_FIRST_SAMPLE_YYYYMMDD_HHMMSS: 2023/02/06 01:18:08.4706090
DATE_TIME_FIRST_SAMPLE_PRECISION: millisecond
SAMPLING_INTERVAL_S: 0.01
NDATA: 21001
DURATION_S: 
STREAM: HNN
UNITS: cm/s^2
INSTRUMENT: sensor = CMG-5T/GURALP | digitizer = 
INSTRUMENT_ANALOG/DIGITAL: 
INSTRUMENTAL_FREQUENCY_HZ: 
INSTRUMENTAL_DAMPING: 
FULL_SCALE_G: 
N_BIT_DIGITAL_CONVERTER: 
PGA_CM/S^2: 16.781
TIME_PGA_S: 
BASELINE_CORRECTION: BASELINE REMOVED
FILTER_TYPE: BUTTERWORTH
FILTER_ORDER: 
LOW_CUT_FREQUENCY_HZ: 
HIGH_CUT_FREQUENCY_HZ: 
LATE/NORMAL_TRIGGERED: 
DATABASE_VERSION: 
HEADER_FORMAT: DYNA 1.2
DATA_TYPE: Acceleration
PROCESSING: Automatic Paolucci et al., 2011
DATA_TIMESTAMP_YYYYMMDD_HHMMSS: 
DATA_LICENSE: U (unknown license)
DATA_CITATION: Turkish Accelerometric Archive v 1.0 - Disaster And Emergency Management Presidency, Earthquake Department
DATA_CREATOR: AFAD
ORIGINAL_DATA_MEDIATOR_CITATION: : AFAD - Disaster And Emergency Management Presidency
ORIGINAL_DATA_MEDIATOR: AFAD PROCESS SERVICE
ORIGINAL_DATA_CREATOR_CITATION: AFAD PROCESS SERVICE
ORIGINAL_DATA_CREATOR: network: TK
USER1: GuestUser
USER2: 
USER3: 
USER4: 
USER5: 
[...]
-4.317529
-4.527373
-4.489853
-4.301627
-3.803084
-3.589104
-3.441575
-3.913089
-4.419894
-5.005550
-5.693586
-6.173684
-6.401650
-6.636611
-6.774598
-7.216224
-7.656897
-8.109969
-8.565585
-8.904197
-9.083835
-9.206561
-9.377932
-9.670124
-10.210950
-10.690412
-11.093884
-11.278292
-11.365725
-11.262709
-11.111046
-10.782924
-10.455437
-9.854515
-9.107338
-8.042533
-6.913820
-5.325038
-4.148951
-2.516928
-1.548778
0.096281
1.070154
2.127329
3.524707
4.236273
5.523324
6.241885
6.883822
7.525122
7.063783
9.215331
8.789284
7.823046
9.360956
8.517445
8.477068
8.299019
7.160135
6.926446
6.315036
5.495371
5.414932
4.740251
4.344091
3.691666
2.860554
1.868244
1.068928
-0.081402
-0.968472
-1.949972
-2.736571
-3.363242
-3.680869
-3.883718
-3.863685
-4.018206
-4.075434
-4.345687
-4.575561
-4.877609
-4.936427
-4.960908
-4.978075
-4.585409
-4.097995
-3.768918
-3.036685
-2.569619
-2.164235
-1.661877
-1.338206
-1.185907
-0.985281
-0.904203
-1.079390
-1.010076
-1.257436
-1.525146
-1.727676
-2.067878
-2.593124
-3.223611
-3.883031
-4.361539
-4.815565
-5.181202
-5.505506
-5.834262
-6.189724
-6.847555
-7.625887
-8.511685
-9.260448
-9.889663
-10.289956
-10.343369
-10.375162
-10.435253
-10.524594
-10.584684
-10.655584
-10.400589
-10.225717
-9.959911
-9.533225
-9.093503
-8.644560
-8.285596
-8.042365
-7.705976
-7.460837
-6.995361
-6.376635
-5.745827
-5.048567
-4.603758
-4.337953
-4.348761
-4.481661
-4.628869
-4.828856
-5.068586
-5.252993
-5.498764
-5.648833
-5.613540
-5.506390
-5.325794
-5.131209
-5.066028
-5.082242
-5.323562
-5.733075
-6.356567
-7.004541
-7.676997
-8.030234
-8.458825
-8.210824
-7.967911
-7.857900
-7.476362
-7.054445
-6.841736
-6.753028
-6.485632
-6.391836
-6.234451
-5.762616
-5.250720
-4.586209
-3.843802
-3.064194
-2.495704
-2.092227
-1.888422
-1.938338
-2.187606
-2.509685
-3.038428
-3.398024
-3.880030
-4.249800
-4.679981
-4.622749
-4.787125
-4.692375
-4.626559
-4.582044
-2.919817
-3.787810
-3.451738
-2.719187
-3.056845
-2.851449
-2.773232
-3.194828
-3.125196
-3.531212
-4.152797
-4.611910
-5.229997
-5.874473
-6.534211
-7.271846
-8.005030
-8.778593
-9.523858
-9.918111
-10.294558
-10.522206
-10.685311
-10.860180
-10.955880
-11.053170
-11.292582
-11.360621
-11.456639
-11.480802
-11.457908
-11.444552
-11.375556
-11.208314
-11.121831
-11.023902
-11.007049
-10.834720
-10.671611
-10.481795
-10.150493
-9.913939
-9.591221
-9.198873
-8.934657
-8.468227
-8.002115
-7.479727
-6.794232
-6.035291
-5.297017
-4.576866
-3.984529
-3.528273
-3.092684
-2.546132
-1.856504
-0.963707
0.028289
0.928716
1.733759
2.417982
3.015406
3.526348
3.925056
4.296419
4.661106
4.978101
5.169824
5.255036
5.137079
4.975246
4.740285
4.442689
4.234435
3.952100
3.584874
3.260570
2.813220
2.322312
1.878142
1.464177
1.160540
0.877251
0.483316
0.029608
-0.492459
-0.918506
-1.266338
-1.506386
-1.669809
-1.645325
-1.572196
-1.549938
-1.540715
-1.341043
-1.377287
-1.679653
-1.657395
-1.536255
-1.450726
-1.227526
-1.106386
-1.218302
-1.334350
-1.749269
-2.333654
-2.911679
-3.480802
-3.988244
-4.345614
-4.839384
-5.380210
-6.077147
-6.921294
-7.695493
-8.489723
-9.472812
-10.409164
-11.499084
-12.664039
-13.506915
-14.429913
-15.141794
-15.361493
-15.671172
-15.826328
-15.703281
-15.564654
-15.210460
-14.746256
-14.409866
-13.970462
-13.375581
-12.694538
-11.941320
-11.133097
-10.286403
-9.458468
-8.568215
-7.705305
-6.922201
-6.120337
-5.347407
-4.645378
-3.916642
-3.222881
-2.501457
-1.680517
-0.806797
0.026225
0.807740
1.490692
2.005449
2.271255
2.343430
2.380632
2.396849
2.468389
2.579354
2.708442
2.911930
3.097931
3.182506
3.297923
3.391083
3.362787
3.283938
2.969491
2.402911
1.805173
1.260532
0.980104
0.900619
0.899667
1.144170
1.513626
2.022979
2.740904
3.406369
4.012377
4.522684
4.774182
4.901680
4.969722
4.957324
4.890239
4.732857
4.467373
4.158967
3.789196
3.415929
3.173019
3.070324
3.087177
3.142819
3.244246
3.417847
3.675068
4.086175
4.564050
5.027937
5.514079
5.973514
6.367770
6.712744
7.007800
7.238631
7.406827
7.470418
7.451343
7.403335
7.387757
7.379492
7.403976
7.447537
7.536881
7.693949
7.862780
7.920966
7.812230
7.456768
6.820240
5.999939
5.100151
4.176835
3.382606
2.670407
2.021797
1.399259
0.817100
0.308387
-0.138963
-0.486159
-0.738289
-0.837487
-0.748142
-0.613648
-0.435279
-0.312867
-0.314137
-0.387263
-0.556409
-0.761483
-0.932219
-1.120760
-1.361126
-1.576692
-1.813878
-2.092716
-2.140724
-2.516536
-2.829076
-2.780428
-3.070076
-3.027787
-2.585203
-2.451028
-1.888578
-1.325493
-0.885453
-0.196778
0.269652
0.878522
1.480397
1.998970
2.553789
3.158208
3.749272
4.550182
5.311985
6.096679
6.727487
7.348757
7.698819
8.106746
8.369054
8.778889
8.941998
9.310500
8.910207
9.451354
8.839626
8.545845
8.598308
7.947472
7.854952
7.230188
6.814633
6.123418
5.498973
4.711738
4.125128
3.379226
2.938554
2.309975
1.859764
1.188262
0.692903
0.019175
-0.444072
-0.910180
-1.059931
-1.153724
-0.987436
-0.861209
-0.576963
-0.344542
-0.015783
0.202648
0.509786
0.763510
1.285580
1.721169
2.270583
2.653711
3.083258
3.245731
3.505495
3.451764
3.605334
3.411388
2.664215
4.410381
3.175795
2.522734
4.007865
4.046975
4.079089
5.262489
5.490777
6.033196
6.793090
7.021378
7.190527
7.343461
7.014070
6.546372
6.185186
5.836401
5.590629
5.347402
5.059026
4.765881
4.746806
4.533147
4.448575
4.237142
3.944315
3.729703
3.455952
3.081095
2.880790
2.649008
2.474139
2.229640
1.861777
1.753041
1.663064
1.315868
1.266270
1.124467
0.968357
1.001425
1.037037
1.224628
1.817282
2.532664
3.423235
4.260391
5.011383
5.651730
6.090816
6.310201
6.477761
6.494296
6.485077
6.343911
5.905464
5.273069
4.857832
4.161849
3.495116
3.109766
2.695801
2.464973
2.405201
2.315542
2.482148
2.670374
2.988323
3.492906
4.030874
4.780276
5.641278
6.415798
7.167426
7.663425
7.921918
8.229056
8.187725
8.869087
9.179405
9.797495
10.675348
11.437786
12.313413
13.118139
13.434180
15.210868
15.076378
14.816618
15.683660
15.470956
15.245533
15.475728
15.321208
15.335835
15.586379
15.364454
15.516752
15.372406
15.200399
15.009315
14.548293
13.828782
13.095916
12.030796
11.004783
9.788638
8.523530
7.260647
6.177086
5.215298
4.671293
4.308199
4.203915
4.127291
4.163221
4.192474
4.169583
3.969597
3.698708
3.284743
2.883813
2.426608
1.744613
1.219685
0.731003
0.259807
0.058548
0.087801
0.391760
0.994907
1.723007
2.483220
3.275545
3.998876
4.669745
5.223929
5.625179
5.824852
5.766351
5.381955
4.737797
3.834829
2.786243
1.655943
0.507203
-0.604655
-1.643068
-2.520281
-3.172388
-3.606384
-3.904934
-4.169782
-4.450528
-4.744627
-5.105495
-5.567787
-6.146767
-6.840843
-7.583247
-8.349179
-9.103347
-9.807280
-10.465746
-11.046951
-11.546762
-12.046254
-12.413799
-12.643355
-12.631589
-12.299969
-11.648176
-10.732487
-9.604728
-8.386672
-7.078955
-5.736900
-4.398024
-3.090625
-1.868118
-0.726051
0.277709
1.150793
1.855683
2.363128
2.666133
2.825426
2.851499
2.893152
2.994897
3.197113
3.472456
3.838733
4.186251
4.566835
4.885419
5.115932
5.194467
5.304796
5.174122
5.520368
5.752789
6.146409
6.841442
7.234426
7.744415
7.952989
7.939637
7.883681
7.669386
7.401995
7.077691
6.528916
5.924501
5.192589
4.306473
3.347547
2.380037
1.447183
0.668533
0.003708
-0.484975
-0.858561
-1.205439
-1.457251
-1.683945
-1.828609
-1.730044
-1.553582
-1.119265
-0.689399
-0.254128
0.125184
0.227247
0.079404
-0.282736
-0.907182
-1.663894
-2.479107
-3.239635
-3.840552
-4.228128
-4.372156
-4.208411
-3.848176
-3.366803
-2.864445
-2.376077
-1.923955
-1.508396
-1.149751
-0.976786
-0.953256
-1.115725
-1.408552
-1.848271
-2.352215
-2.821185
-3.163612
-3.320040
-3.318448
-3.162017
-2.781115
-2.301967
-1.728071
-1.148770
-0.549757
0.024457
0.463861
0.865748
1.234568
1.542660
1.953449
2.343572
2.736238
3.142576
3.468473
3.696125
3.830936
3.912968
3.939041
3.913607
3.815363
3.720617
3.661799
3.659575
3.664028
3.681517
3.761959
3.912985
4.071007
4.150813
4.121564
3.891690
3.358813
2.520389
1.399310
0.061710
-1.399572
-2.816024
-4.104660
-5.178047
-5.981497
-6.576692
-6.997969
-7.324181
-7.659295
-8.070081
-8.591830
-9.201650
-9.871562
-10.498870
-11.064813
-11.487681
-11.701657
-11.803398
-11.829150
-11.730903
-11.535364
-11.219005
-10.837149
-10.435263
-9.990771
-9.524023
-8.988281
-8.448406
-8.005504
-7.641135
-7.335587
-7.100304
-6.870745
-6.576960
-6.159494
-5.648552
-5.069887
-4.459745
-3.862639
-3.328805
-2.923103
-2.570498
-2.308826
-2.112651
-1.841759
-1.593441
-1.302835
-1.057697
-0.903491
-0.778218
-0.760411
-0.779804
-0.823361
-0.897759
-1.037336
-1.234143
-1.491360
-1.828064
-2.177486
-2.485257
-2.780310
-2.967896
-3.021628
-3.029893
-3.014947
-3.041653
-3.088072
-3.198715
-3.384712
-3.647335
-4.054305
-4.598310
-5.306694
-6.158472
-6.986721
-7.654090
-8.069009
-8.165663
-7.978391
-7.562832
-7.009285
-6.443656
-5.936211
-5.528601
-5.215104
-4.994447
-4.927995
-4.948341
-4.959786
-4.900964
-4.668225
-4.306400
-3.830114
-3.256218
-2.666743
-2.103021
-1.586992
-1.184469
-0.900859
-0.746653
-0.674795
-0.618835
-0.554608
-0.450637
-0.297067
-0.056698
0.321025
0.826562
1.442745
2.174024
2.974934
3.802551
4.626671
5.421222
6.169035
6.866930
7.510138
8.056690
8.539018
8.980330
9.331981
9.596514
9.823530
9.848331
9.789195
9.663608
9.340894
9.083358
8.810880
8.476084
8.232220
7.877393
7.520341
7.161698
6.749959
6.458404
6.147135
5.882923
5.700742
5.497893
5.340511
5.198073
5.027019
4.863596
4.648666
4.382228
4.087811
3.737118
3.375932
2.985495
2.665642
2.477737
2.389668
2.615730
2.945760
3.402970
3.897061
4.348229
4.710690
5.057890
5.233398
5.466455
5.572333
5.745298
5.907771
6.173576
6.513145
7.028221
7.555060
8.245960
8.864687
9.631576
10.291000
11.138012
11.872153
12.709627
13.370322
13.977602
14.351191
14.689171
14.770885
14.976916
14.952436
15.020796
14.832891
14.670104
14.217986
13.866656
13.233944
12.675631
11.809546
11.134864
10.240799
9.686302
8.955662
8.507994
7.828862
7.411081
6.833056
6.569798
5.930726
5.849334
5.407707
5.419473
4.962903
5.085632
4.440838
4.145785
6.088442
3.250450
6.324680
4.174407
5.234126
5.669397
4.626533
5.689749
4.994401
4.559134
4.848149
3.666660
3.493381
3.140780
2.619985
2.020975
2.602501
2.289961
1.338666
1.879813
1.241378
1.125011
0.566380
0.232538
-0.120699
-0.317507
-0.870732
-0.938135
-1.321259
-1.207115
-1.153062
-0.826847
-0.588703
0.100608
0.572125
1.395927
1.646788
2.821922
2.937338
3.042898
3.427616
3.523001
3.270235
3.333509
2.882662
2.751669
2.506852
2.331983
2.352651
2.372048
2.626725
2.856602
3.212069
3.529063
3.923955
4.296273
4.786548
5.210373
5.720362
6.202371
6.707590
7.258594
7.853156
8.329442
8.882354
9.373901
9.823162
10.350001
10.801806
11.012288
11.392554
11.580781
11.639603
11.646281
11.438028
11.270790
10.973193
10.727740
10.497866
10.201859
9.986611
9.634010
9.267419
8.730091
8.147296
7.512994
6.843399
6.218318
5.560805
4.979282
4.460713
4.000964
3.602578
3.111352
2.757479
2.386755
2.089158
1.844977
1.594436
1.410029
1.074279
0.762375
0.206288
-0.171432
-0.525940
-0.713209
-0.611465
-0.459484
-0.107197
0.185951
0.497223
0.711521
0.747133
0.715976
0.525527
0.384361
0.202815
-0.026105
-0.174267
-0.412725
-0.674711
-0.963723
-1.413934
-1.734105
-2.086388
-2.333431
-2.378896
-2.455519
-2.419272
-2.267927
-2.118172
-2.015156
-1.891791
-1.924855
-1.927397
-2.013559
-2.084141
-2.155996
-2.206865
-2.345806
-2.465989
-2.481566
-2.558190
-2.509860
-2.227839
-2.184915
-1.930556
-1.702268
-1.670789
-1.376051
-1.386859
-1.378273
-1.312456
-1.593202
-1.645979
-1.927360
-2.259931
-2.410000
-2.826826
-2.948598
-3.152718
-3.267178
-3.297063
-3.543470
-3.503725
-3.857598
-4.061400
-4.390155
-4.915402
-5.260372
-5.881956
-6.308957
-6.853280
-7.202066
-7.496801
-7.710460
-7.684068
-7.777543
-7.594722
-7.219225
-6.927984
-6.474272
-6.017699
-5.681309
-5.132213
-4.894705
-4.446716
-4.038153
-3.867096
-3.410204
-3.169517
-2.853794
-2.616286
-2.431875
-2.381002
-2.554281
-2.796555
-3.248991
-3.952924
-4.554159
-5.418019
-6.239910
-6.871986
-7.701190
-8.232477
-8.653119
-9.205391
-9.546546
-9.906460
-10.208190
-10.369069
-10.590995
-10.713402
-10.807831
-10.931510
-11.019898
-11.031024
-10.964889
-10.883811
-10.663790
-10.411975
-10.259040
-9.931236
-9.728702
-9.502958
-9.327767
-9.258135
-9.087396
-8.972615
-8.834625
-8.559917
-8.319865
-7.978071
-7.700183
-7.422932
-7.079230
-6.791804
-6.387056
-5.992164
-5.595047
-5.188709
-4.813212
-4.471735
-4.244720
-4.096237
-3.874944
-3.943619
-3.892745
-3.768108
-3.726138
-3.579562
-3.475274
-3.310894
-3.044135
-2.748442
-2.421909
-2.075027
-1.782515
-1.420371
-1.027705
-1.069673
-0.998133
-0.846788
-1.144385
-1.395561
-1.585056
-2.028908
-2.424432
-2.863197
-3.420556
-3.992222
-4.721590
-5.552702
-6.328808
-7.113499
-7.881657
-8.592266
-9.314958
-9.975649
-10.624259
-11.244890
-11.830546
-12.228932
-12.552282
-12.726833
-12.848287
-12.981187
-13.147789
-13.404370
-13.794171
-14.253921
-14.813505
-15.320947
-15.781014
-16.240128
-16.525006
-16.649004
-16.767596
-16.780630
-16.701778
-16.518638
-16.165398
-15.682435
-15.035411
-14.330203
-13.597016
-12.987828
-12.378005
-11.684561
-11.011466
-10.373027
-9.763839
-9.127943
-8.434499
-7.834214
-7.246011
-6.686740
-6.335407
-6.078505
-5.970083
-5.998379
-5.896634
-5.717946
-5.493156
-5.228622
-4.992068
-4.685883
-4.336776
-4.009289
-3.576562
-3.297403
-3.070069
-2.830335
-2.829062
-2.851634
-3.026503
-3.353033
-3.538712
-3.806103
-3.872871
-3.619783
-3.246194
-2.694554
-2.100946
-1.498117
-0.915954
-0.471145
-0.126807
0.195911
0.364742
0.461718
0.487791
0.383824
0.174299
-0.162405
-0.556339
-1.033575
-1.567724
-2.020161
-2.513295
-3.016285
-3.536444
-4.159936
-4.787879
-5.382438
-5.959192
-6.406223
-6.707953
-6.860884
-6.872328
-6.854521
-6.785207
-6.709534
-6.603338
-6.477747
-6.349613
-6.171561
-5.863151
-5.475890
-4.943009
-4.269596
-3.500481
-2.681448
-1.846836
-1.115238
-0.465989
0.030328
0.422358
0.743486
0.947609
1.160636
1.279867
1.409274
1.569838
1.729132
1.919266
2.138651
2.338323
2.624159
2.848313
3.088365
3.277863
3.503289
3.744294
3.914716
4.114706
4.277179
4.462543
4.620565
4.910216
5.157898
5.253920
5.520679
5.670434
5.806835
5.853893
5.680931
5.567108
5.443111
5.306395
5.185895
5.144882
5.170319
5.235818
5.402106
5.542640
5.721010
6.051677
6.368989
6.710784
7.089143
7.410271
7.709142
7.985122
8.240117
8.577460
9.004783
9.380280
9.889314
10.411067
10.922645
11.505443
11.945484
12.228140
12.495853
12.616357
12.684399
12.785508
12.870719
13.085971
13.307264
13.595008
13.936166
14.264925
14.603222
14.807982
15.035951
15.288403
15.379020
15.422262
15.423854
15.451835
15.480452
15.228957
14.908787
14.727559
14.516444
14.155576
13.649724
13.227175
12.855179
12.301317
11.538247
10.689966
9.770466
8.824258
7.848799
6.891145
6.026649
5.267394
4.531984
3.915805
3.351769
2.929856
2.499039
2.121638
1.826585
1.621194
1.556334
1.439013
1.416759
1.445058
1.513418
1.574466
1.607534
1.667628
1.694973
1.591960
1.368445
0.959249
0.542423
0.116058
-0.341784
-0.753841
-1.095632
-1.401177
-1.686374
-1.944863
-2.165516
-2.275842
-2.308271
-2.227828
-2.079664
-1.939447
-1.812903
-1.603692
-1.495588
-1.318172
-1.154428
-0.908971
-0.579576
-0.232059
0.143120
0.530381
0.845468
1.148156
1.384392
1.589787
1.789460
1.991994
2.263840
2.586240
2.951880
3.407182
3.923529
4.525404
5.206448
5.873820
6.628946
7.327477
8.062254
8.704826
9.340086
9.825592
10.280576
10.587078
10.861468
10.844301
11.393397
11.282117
11.520579
11.571134
11.457947
11.411528
11.258598
10.956550
10.740030
10.279645
9.946438
9.465069
9.076539
8.660031
8.291850
7.874388
7.551038
7.108139
6.684636
6.148579
5.748286
5.271368
4.968366
4.680944
4.665366
4.658691
4.902240
5.034190
5.330200
5.430037
5.695207
5.737813
6.085649
5.823344
5.947027
6.826152
5.697443
6.548270
5.787425
6.242727
6.154975
5.917153
5.817319
7.821976
6.165157
6.187415
6.883720
6.446863
5.939739
5.690789
5.586504
5.140426
5.218643
4.569715
4.308683
4.277844
3.984698
3.439739
3.367885
2.873480
2.577155
2.135529
1.758445
1.130502
0.743881
0.197650
-0.160675
-0.614383
-0.888451
-1.265535
-1.431819
-1.700164
-1.935443
-2.217460
-2.471498
-2.857166
-3.270495
-3.825946
-4.370587
-4.954336
-5.481490
-5.984480
-6.329769
-6.763764
-6.998089
-7.185358
-7.330340
-7.490902
-7.580243
-7.780230
-7.897550
-8.015825
-7.985618
-7.924889
-7.732529
-7.489616
-7.168488
-6.865801
-6.533544
-6.285544
-5.972047
-5.718959
-5.419770
-5.151739
-4.959379
-4.824886
-4.734587
-4.658596
-4.538411
-4.377846
-4.137158
-3.795999
-3.449436
-3.034195
-2.634216
-2.203397
-1.724885
-1.268312
-0.840989
-0.430836
-0.096354
0.255933
0.564343
0.850497
1.116938
1.377974
1.629790
1.860621
2.042806
2.163946
2.177301
2.140103
1.975090
1.646653
1.267980
0.853379
0.344030
-0.234631
-0.630155
-0.962090
-1.383686
-1.606565
-1.787157
-1.974744
-2.012577
-2.073939
-2.106368
-2.015752
-1.854551
-1.659648
-1.397976
-1.109596
-0.767166
-0.391033
-0.045423
0.156475
0.333573
0.417195
0.362510
0.539926
0.472523
0.231521
0.179062
-0.094689
-0.343957
-0.453329
-0.812289
-1.072686
-1.240242
-1.575992
-1.872317
-2.030017
-2.254168
-2.395970
-2.449701
-2.387700
-2.150828
-1.901874
-1.644017
-1.355320
-1.028787
-0.680315
-0.319762
0.029028
0.425191
0.829304
1.225149
1.569805
1.773293
1.870586
1.931316
1.853103
1.683321
1.416565
1.090036
0.678932
0.172763
-0.413529
-0.951176
-1.463704
-1.957156
-2.408003
-2.764420
-3.073462
-3.320823
-3.530030
-3.685822
-3.891214
-4.159560
-4.425679
-4.744578
-5.058708
-5.311792
-5.548343
-5.732432
-5.903486
-6.076765
-6.241142
-6.354011
-6.463383
-6.582293
-6.678629
-6.705017
-6.644924
-6.533640
-6.470367
-6.250982
-5.917454
-5.845914
-5.563258
-5.436395
-5.269789
-5.019246
-4.910506
-4.666321
-4.320393
-4.355366
-4.292092
-4.114676
-4.161413
-4.202426
-4.222773
-4.334370
-4.465999
-4.649770
-4.857070
-5.005867
-5.280571
-5.577214
-5.788647
-6.029331
-6.332332
-6.654093
-7.034038
-7.473438
-7.972613
-8.541418
-9.107044
-9.566157
-9.973763
-10.342580
-10.692320
-10.975609
-11.226785
-11.398474
-11.546318
-11.632162
-11.702108
-11.688753
-11.635972
-11.568247
-11.479856
-11.288769
-11.076696
-10.866850
-10.634429
-10.337147
-10.008706
-9.711742
-9.450070
-9.197936
-8.933721
-8.714017
-8.529925
-8.364908
-8.247902
-8.235818
-8.232955
-8.314984
-8.423084
-8.543584
-8.662176
-8.728943
-8.776316
-8.813832
-8.791256
-8.769634
-8.740381
-8.739425
-8.706675
-8.707945
-8.715892
-8.687593
-8.597612
-8.458667
-8.210349
-8.003046
-7.756318
-7.445682
-7.259045
-7.090214
-6.937280
-6.873053
-6.810097
