EVENT_NAME: 202302060117
EVENT_ID: 13194
EVENT_DATE_YYYYMMDD: 2023/02/06
EVENT_TIME_HHMMSS: 01:17:32.00000
EVENT_LATITUDE_DEGREE: 37.288
EVENT_LONGITUDE_DEGREE: 37.043
EVENT_DEPTH_KM: 8.6
HYPOCENTER_REFERENCE: AFAD
MAGNITUDE_W: 7.7
MAGNITUDE_W_REFERENCE: AFAD
MAGNITUDE_L: 
MAGNITUDE_L_REFERENCE: 
FOCAL_MECHANISM: 
NETWORK: TK
STATION_CODE: 4616
STATION_NAME: 
STATION_LATITUDE_DEGREE: 37.37547
STATION_LONGITUDE_DEGREE: 36.83836
STATION_ELEVATION_M: 499.0
LOCATION: Kahramanmaras_Pazarck_Turkiye
SENSOR_DEPTH_M: 
VS30_M/S: 390
SITE_CLASSIFICATION_EC8: B
MORPHOLOGIC_CLASSIFICATION: 
EPICENTRAL_DISTANCE_KM: 20.54
EARTHQUAKE_BACKAZIMUTH_DEGREE: 
DATE_TIME_FIRST_SAMPLE_YYYYMMDD_HHMMSS: 2023/02/06 01:17:05.8373470
DATE_TIME_FIRST_SAMPLE_PRECISION: millisecond
SAMPLING_INTERVAL_S: 0.01
NDATA: 10501
DURATION_S: 
STREAM: HNE
UNITS: cm/s^2
INSTRUMENT: sensor = GMS+/GEOSIG | digitizer = 
INSTRUMENT_ANALOG/DIGITAL: 
INSTRUMENTAL_FREQUENCY_HZ: 
INSTRUMENTAL_DAMPING: 
FULL_SCALE_G: 
N_BIT_DIGITAL_CONVERTER: 
PGA_CM/S^2: 502.870
TIME_PGA_S: 
BASELINE_CORRECTION: BASELINE REMOVED
FILTER_TYPE: BUTTERWORTH
FILTER_ORDER: 
LOW_CUT_FREQUENCY_HZ: 
HIGH_CUT_FREQUENCY_HZ: 
LATE/NORMAL_TRIGGERED: 
DATABASE_VERSION: 
HEADER_FORMAT: DYNA 1.2
DATA_TYPE: Acceleration
PROCESSING: Automatic Paolucci et al., 2011
DATA_TIMESTAMP_YYYYMMDD_HHMMSS: 
DATA_LICENSE: U (unknown license)
DATA_CITATION: Turkish Accelerometric Archive v 1.0 - Disaster And Emergency Management Presidency, Earthquake Department
DATA_CREATOR: AFAD
ORIGINAL_DATA_MEDIATOR_CITATION: : AFAD - Disaster And Emergency Management Presidency
ORIGINAL_DATA_MEDIATOR: AFAD PROCESS SERVICE
ORIGINAL_DATA_CREATOR_CITATION: AFAD PROCESS SERVICE
ORIGINAL_DATA_CREATOR: network: TK
USER1: GuestUser
USER2: 
USER3: 
USER4: 
USER5: 
[...]
21.223420
28.648111
21.093803
11.710211
11.397714
12.071555
18.556665
28.949724
35.291182
44.143038
43.015649
23.612288
5.809876
-4.820083
-13.705441
-17.105020
-12.186570
-0.796263
5.696121
6.493352
10.542359
5.537674
-11.601810
-28.399959
-40.081718
-43.788603
-34.666589
-19.950472
-19.981381
-26.132162
-26.107220
-32.215140
-42.852892
-45.710335
-30.398571
4.965978
49.003918
90.764473
115.603226
117.517979
107.859292
85.489641
48.430634
21.268784
20.372069
24.945806
21.293213
18.712423
19.799555
24.346277
27.296206
25.537581
22.227102
11.456868
-11.797553
-48.714727
-84.819088
-103.396647
-105.768324
-89.867666
-59.672758
-25.973062
-1.827370
11.444177
19.279301
13.039680
8.853004
21.164449
36.479070
36.519078
17.414191
-3.058375
-26.194861
-41.482719
-34.648741
-25.827538
-12.464813
4.886909
1.852564
-22.541199
-47.280713
-56.634432
-55.859281
-48.478491
-38.026725
-30.956618
-22.876792
-21.062569
-28.206443
-28.558685
-19.853338
-12.619317
0.497148
25.801405
45.460905
57.226318
71.886325
80.482049
73.488581
57.287638
40.506634
32.087820
31.779479
24.542608
11.604351
7.051402
1.069730
-21.300181
-48.205639
-65.387725
-68.115285
-62.792376
-58.186687
-49.416139
-35.581415
-22.826027
-18.858588
-17.862114
-11.959144
-5.118152
2.013780
3.018047
5.541956
17.551810
22.125548
21.688622
23.783394
22.684060
23.794052
25.804920
21.217422
8.889100
-12.049490
-31.150221
-37.944707
-38.247853
-30.276351
-9.808193
5.928552
9.170459
13.303371
19.581965
24.408977
29.273135
25.017620
12.336274
7.404843
8.320010
8.202598
16.515955
31.254931
40.843488
43.161921
37.201030
24.986746
8.404205
4.833699
25.223406
43.764346
51.974055
50.533646
34.098912
7.963925
-22.994433
-49.936779
-64.430786
-55.503078
-25.271543
4.254722
15.517483
10.732562
1.359620
-6.758124
-6.434450
2.230373
19.044895
43.561536
59.062151
48.218143
18.263009
-5.242088
-15.755671
-13.938071
-1.907176
4.180229
11.472698
18.768284
9.427293
1.629064
9.488606
25.567205
32.762001
29.857020
32.448988
31.740605
21.229360
12.501941
16.190649
22.770314
13.036814
-15.052667
-46.112075
-63.114661
-71.798179
-73.193389
-58.796787
-34.177278
-10.135493
0.368486
-2.894455
-6.860328
-10.747231
-20.069259
-21.324973
-13.641035
-12.179317
-12.441159
-17.914725
-30.512167
-31.330432
-19.230958
-2.833623
19.452390
36.416798
39.652471
35.747644
23.485043
1.354638
-18.234457
-15.478056
1.809243
15.945818
29.650398
37.069114
32.210418
19.406201
5.841384
-3.387127
-7.763174
-10.942470
-17.177935
-16.640212
-11.768780
-16.965434
-23.813951
-19.262554
-9.029512
-5.132470
-5.336644
-1.792626
7.262887
18.128724
24.128847
32.026575
42.666933
39.343985
25.113383
17.245016
16.831469
13.275770
2.362923
-7.856083
-12.138094
-21.110994
-35.414851
-39.343057
-35.538493
-31.746656
-22.427998
-9.276204
0.731359
4.844009
6.873839
14.599341
20.594269
13.903171
4.208635
4.538804
13.235059
23.374584
26.165794
12.123004
-13.537907
-40.224641
-61.996306
-70.769704
-61.840698
-35.739473
-7.727655
4.422214
1.624258
-8.021181
-20.813708
-35.103019
-37.037766
-29.793614
-32.799905
-33.125390
-22.178766
-15.734440
-12.805552
-2.115319
11.625109
21.460965
27.628899
25.617520
20.985861
20.709992
17.713572
8.628453
-8.252822
-23.838893
-28.129996
-29.662103
-31.244086
-31.008473
-29.498438
-28.086855
-33.914225
-38.381190
-22.451698
2.472259
15.875248
24.587349
34.000563
27.244003
5.647681
-4.041399
-6.141099
-6.857016
8.243037
22.243753
21.658240
11.276619
-6.615672
-17.770103
-22.800765
-26.526872
-22.107697
-12.602265
-0.669302
9.745317
17.950091
27.405907
35.126733
36.882248
26.332298
11.038725
2.896823
0.707502
4.968999
10.761048
15.855880
23.836994
17.486971
-7.194615
-27.281166
-40.693499
-50.568314
-50.231131
-45.826242
-44.222691
-42.435224
-35.410317
-23.477873
-10.550519
-0.050955
6.021124
7.129298
1.369208
-3.141659
-0.999868
-0.814130
0.791239
6.508475
4.238107
-5.286539
-11.004028
-12.888640
-6.434962
9.784172
19.574569
19.672505
17.783217
14.436111
12.136649
16.221503
25.813178
39.610236
50.856112
44.888468
32.195431
31.057132
24.453835
3.386401
-14.669025
-26.316235
-30.648901
-30.720852
-27.535574
-14.877339
-4.706123
-2.347426
-6.347588
-13.505230
-10.981581
1.116595
14.612321
27.880232
38.354078
39.874504
31.220599
17.050003
3.082545
-5.673189
-13.941858
-24.204246
-24.850544
-21.946595
-22.983325
-20.410839
-13.641024
-5.929809
-6.231396
-9.074812
0.223065
22.969647
48.951639
63.653208
68.317605
63.139915
46.376055
30.869473
18.316971
4.689290
-0.766612
-1.952449
-9.243351
-15.028119
-15.219305
-12.777483
-4.632975
5.693063
10.093276
10.978829
8.731321
-0.736697
-12.430925
-17.564196
-18.517020
-20.498267
-17.080236
-11.557307
-10.297429
-11.208431
-17.255824
-26.044289
-33.945386
-36.962587
-30.621388
-15.074794
7.327076
24.759846
29.688946
21.377415
5.543265
-4.562483
-5.227744
1.027211
8.002763
14.915971
17.268952
0.499638
-25.643402
-39.552412
-34.256260
-15.347229
3.946777
17.377822
28.221838
33.159770
25.722099
10.944685
2.451576
6.416937
10.837412
10.142796
5.562572
-3.643080
-9.287313
-14.700094
-23.710400
-31.189894
-36.973623
-41.278753
-46.618019
-47.700988
-44.096704
-44.162681
-42.547700
-38.052413
-32.616765
-19.323657
5.573284
34.901605
54.221589
62.672103
70.080428
71.334332
59.406832
50.704090
51.645753
47.599092
37.153048
25.544803
12.316385
-1.769527
-9.816354
-11.363008
-7.836655
0.415397
4.474014
5.843255
5.173058
2.378218
7.710478
22.461144
38.777950
42.905666
30.939721
12.639074
-10.025673
-34.281240
-45.885848
-39.209289
-21.728982
-4.602479
6.354016
15.713198
18.422322
13.781572
16.981916
26.429679
32.334728
36.215664
35.575860
31.716232
31.881188
29.197270
20.858464
11.338492
0.557608
-9.371498
-16.242355
-16.611482
-7.604545
1.683721
-0.754717
-7.538033
-14.268876
-24.112777
-31.872821
-35.400205
-32.992932
-31.628108
-32.369482
-23.958192
-10.563256
2.815316
13.670502
12.515058
3.405260
-6.702306
-16.663103
-17.614629
-4.702081
16.566421
34.055300
45.661475
51.153233
44.127294
34.500818
25.183725
10.723748
0.327839
-4.684639
-11.213902
-18.546887
-30.777276
-46.741570
-52.190458
-47.375656
-43.866447
-40.262163
-28.963294
-17.085921
-16.791860
-25.795153
-34.862868
-33.427646
-24.602807
-15.471181
-0.976647
8.641784
10.178315
13.803900
16.152725
14.676208
13.933536
14.479831
10.034427
-0.189256
-14.100603
-23.241053
-22.951149
-19.820162
-13.600015
-6.774350
-3.901312
-9.386828
-22.967751
-31.251227
-21.594090
-0.060365
13.583949
14.241685
10.089299
5.499463
-2.003410
-8.145619
-7.300330
-6.651686
-4.770443
-2.637744
-5.933935
-5.125794
1.991851
7.590893
12.164111
15.879316
9.662554
0.034259
1.331284
7.099435
12.842388
22.224430
30.154629
24.605470
8.386085
-6.381199
-20.175131
-25.581158
-23.141154
-23.783296
-22.995156
-24.944971
-29.397129
-28.698610
-23.455190
-9.641767
10.405047
28.974560
38.128526
30.114170
10.561962
-2.656065
-6.425294
-6.599854
3.898670
16.676658
19.600090
16.047248
-0.074725
-24.587981
-35.058703
-26.082938
-8.294286
14.508665
38.101831
46.167629
38.438498
29.477548
16.908421
5.634237
7.188952
13.965002
19.587682
25.566764
28.011444
23.674363
19.183758
13.551994
3.113483
-9.634104
-21.623689
-26.084680
-25.791917
-17.919387
-5.800430
-0.916789
0.885744
-4.448327
-13.085866
-12.694392
-3.685117
3.935179
2.738432
1.364004
2.498154
2.583362
2.500240
3.515676
6.136998
14.197861
25.152797
27.591243
31.455814
43.623347
50.723847
48.270083
43.812729
39.979858
31.038130
25.772898
30.688750
34.495912
31.910446
27.040580
21.670142
15.823030
9.889155
-1.898070
-9.713964
-4.963065
-9.732140
-30.099500
-45.707652
-46.425906
-39.368268
-29.705157
-14.905915
-2.464326
0.838886
-3.148288
-16.245523
-29.599928
-30.096341
-17.968292
-0.924915
13.023847
16.293810
5.682553
2.233619
13.265447
17.964652
17.056767
23.092479
32.806764
30.799541
20.975901
15.638193
12.586703
14.573932
21.769247
26.998380
26.548206
20.023618
9.655245
-0.679618
-9.998269
-12.930265
-7.051973
-3.666934
-9.615875
-16.497123
-17.514890
-20.881219
-30.065830
-37.260618
-28.671128
-9.122289
-4.750911
-11.152368
-7.139989
3.035384
4.871168
2.108021
4.913518
11.803346
12.656168
1.562263
-8.279820
-10.598245
-11.826424
-10.827872
-3.293299
4.901603
2.752287
-4.115194
-14.423820
-27.994612
-31.647205
-22.287763
-8.605783
-1.956759
-4.866156
-15.855115
-22.158380
-15.628589
-9.978633
-5.628296
-0.543855
-0.643082
-8.427284
-16.831552
-16.391761
-12.004017
-9.714938
-11.535388
-9.222151
3.357894
13.079712
18.455094
30.170891
36.941745
32.185918
24.697592
13.768380
4.620137
-3.519168
-16.539252
-20.891660
-14.173278
-17.732095
-26.984505
-24.896486
-23.416325
-21.583658
-13.931151
-12.354616
-6.220972
7.418147
0.555342
-17.761670
-22.494638
-27.845853
-31.055802
-25.020610
-20.834186
-8.209981
6.345340
5.318221
0.262621
2.654828
10.405787
14.184635
7.915140
-1.481441
-6.952150
-7.463629
-10.819567
-11.281690
4.431675
11.344103
0.096676
-5.123877
-7.951447
-15.263650
-21.166093
-24.154200
-22.241525
-24.863618
-33.356207
-35.660345
-30.227295
-17.209801
-4.309722
3.497607
9.943752
11.787069
7.936792
7.023712
15.161465
26.540084
32.952718
30.031112
26.774666
26.383459
21.978838
12.808255
4.263193
9.032795
14.304789
18.401333
32.170855
35.285996
33.197466
31.400395
12.019633
-21.217668
-40.052138
-36.403953
-37.502508
-33.597673
-11.748329
9.312619
19.410061
15.791238
12.821315
18.879107
26.081956
36.348508
38.926448
30.185002
28.127384
21.846199
12.013987
16.291330
23.107644
14.561543
10.044442
28.031556
27.764519
2.464945
-17.966318
-34.962150
-47.435163
-38.401729
-24.588566
-31.291094
-29.574284
-21.146889
-19.277076
-1.414910
18.419933
19.809176
17.767144
26.663939
28.588823
11.734825
1.854815
10.836555
20.503043
19.244471
6.556110
-9.585605
-15.234254
-5.575300
11.909423
26.080806
20.822068
6.001273
-0.681253
-17.359129
-30.122822
-22.910882
-14.262165
1.230658
25.811461
36.698339
24.558608
17.577349
14.185823
-5.805134
-6.054247
8.230914
10.006432
14.923063
14.627971
20.243378
30.803987
22.239442
20.504975
34.605442
40.915728
39.457395
33.049963
2.872208
-28.650886
-35.943347
-38.646488
-40.434727
-39.985324
-41.836946
-45.110538
-34.810996
-21.568543
-29.711224
-30.490524
-36.962378
-91.439085
-113.494417
-54.978831
-24.839254
-26.709579
22.372535
53.621840
22.544249
12.180812
23.568002
26.163867
35.705146
34.944030
28.937420
29.332012
36.963997
42.007135
34.142146
47.507209
64.849060
62.405167
66.124008
60.267025
18.605189
-31.182447
-69.763175
-100.050033
-92.716001
-64.372200
-43.903782
-8.875373
24.368431
23.624719
-3.506738
-24.475460
-18.856417
-2.089692
14.187889
50.774387
97.945388
86.664710
25.008018
-0.223756
8.066221
0.448531
-22.907199
-37.573433
-43.123630
-60.696407
-82.991505
-117.893919
-156.137469
-144.378031
-101.385137
-68.329665
-42.543278
-37.724060
-55.077852
-56.800629
-46.971527
-40.474987
-17.098987
0.107524
23.723030
82.179129
112.937214
110.309145
113.646388
112.761622
112.081553
113.917337
107.212990
92.952774
66.864805
31.418697
5.838574
-19.373978
-59.503442
-67.848743
-53.288227
-75.664372
-92.924648
-88.579766
-106.700393
-120.932035
-98.852277
-52.041314
-4.078281
17.267633
15.829042
4.242097
-19.986713
-54.288804
-86.322861
-79.078968
-58.544050
-62.572787
-57.821888
-64.746258
-105.612944
-142.235282
-146.580416
-122.041955
-71.078602
15.120712
60.046279
11.309664
-41.624800
-83.346123
-145.436108
-163.234623
-117.744060
-77.323128
-92.507079
-82.992296
-37.060388
-85.897013
-144.183476
-114.152482
-80.108333
-65.626268
-29.240311
20.595390
13.804540
-26.496891
-41.986588
-58.338196
-78.560865
-58.100501
3.056406
46.903936
71.624235
95.174798
99.752173
90.905261
61.222363
28.329254
26.570629
-14.734805
-114.879233
-222.470686
-281.468134
-204.886209
-107.424917
-103.650485
-77.803053
-8.486837
11.100448
4.691717
30.815802
10.307907
-73.745196
-73.754544
1.331378
40.255787
72.261018
116.998773
133.954089
102.740119
43.620580
-9.723019
-51.356540
-68.027662
-106.112493
-164.936416
-146.411063
-96.360274
-80.947720
-102.867193
-182.389165
-216.011443
-187.401639
-185.418047
-147.171113
-79.045673
-57.590137
-85.239831
-131.534887
-180.092262
-228.183354
-206.943166
-150.089575
-133.471438
-121.497951
-118.912477
-106.535051
-74.125362
-57.562036
-15.492098
47.951026
84.487388
106.419338
108.888176
70.871664
37.311470
37.427591
45.140624
76.790232
109.471118
116.231323
143.327718
172.218591
189.880476
199.122243
176.698300
159.614407
157.821752
167.686963
182.861829
157.303267
112.112744
93.467126
106.607490
143.887048
154.723271
119.583948
77.611171
9.531717
-84.916000
-167.265025
-214.163003
-238.241667
-274.859849
-289.771823
-294.798068
-312.867781
-303.251948
-286.298450
-287.497276
-326.356475
-382.668962
-420.691189
-373.043513
-166.801026
46.672880
183.523821
159.734278
16.675151
-139.119098
-195.140905
73.380422
36.245303
-399.217951
-502.869764
-343.693329
-219.777791
-139.575740
34.220954
106.794401
181.615100
365.307133
347.147281
359.052968
359.941638
278.681300
289.908473
291.769195
337.757992
376.149617
403.372780
432.903720
329.974581
159.113792
77.791629
62.428958
-59.233085
-120.387646
-22.781144
38.677872
29.623146
-4.146680
29.165442
79.336763
48.873003
-0.665256
-35.010468
-56.226749
-59.503718
-47.510748
-26.439410
-8.227856
5.150975
20.768486
37.858102
62.808815
97.516671
127.405312
162.335529
229.222396
298.617063
350.644945
370.475113
389.803668
414.064438
352.947283
269.682316
125.862329
8.291371
59.900507
44.087398
-4.964575
-26.944834
-91.281292
-78.666698
-9.016680
13.121006
-32.841027
-57.956945
-63.983297
-88.883867
-77.471739
-53.173823
-36.630499
-42.154460
-62.955892
-68.068641
-59.098591
-63.055372
-91.215770
-83.334407
-24.008865
32.075553
63.109252
85.604638
94.382460
70.186900
7.909103
-27.170473
-25.594977
-67.040166
-117.437997
-127.080838
-101.871137
-80.247791
-88.946116
-104.228519
-123.468486
-140.683303
-149.217454
-159.351517
-175.893275
-187.293186
-196.859915
-246.487015
-309.334223
-336.183832
-342.100302
-359.655155
-408.028095
-416.705379
-364.320056
-314.903101
-239.503120
-114.436810
24.580595
168.779852
267.233977
280.115092
215.252085
79.477110
-0.192409
7.254102
-6.498268
-67.901427
-130.595632
-129.352119
-88.005634
-4.403740
76.652168
48.817520
14.893651
68.646392
95.173117
58.138268
68.851620
126.768961
172.430970
210.181228
214.728469
204.342951
195.111323
157.585512
129.562791
112.120158
131.707443
169.556153
169.690197
176.917983
173.460216
169.329391
160.489232
117.662078
80.472147
48.763579
30.873366
27.668613
23.012277
19.455538
1.515450
-19.561336
-9.709634
-7.140525
-34.169634
-33.686981
-13.524830
-5.793613
-2.946553
-3.539080
2.538974
-2.519223
-25.267097
-29.615088
-8.938337
21.401002
49.320862
93.136960
142.652887
170.765495
192.004643
204.042293
221.051900
224.034819
198.844868
196.493452
211.156836
222.870035
214.538762
173.261383
128.703135
99.010366
86.242517
70.414082
52.207991
49.204039
37.981029
21.347833
15.908816
8.956131
18.213745
61.109485
107.040095
150.398742
185.473130
196.508335
198.395034
178.245359
140.921128
110.004593
95.265365
118.812552
146.147155
130.641351
114.769795
122.120971
109.777583
93.914858
93.889924
82.770043
69.328355
38.135946
-14.011941
-39.326321
-68.964798
-121.846270
-148.749651
-164.666667
-136.382872
-80.734085
-46.613304
35.184501
62.902522
30.209434
12.572754
-20.042404
12.990469
36.298149
17.021295
39.467585
90.380544
171.391512
219.887330
221.506467
209.714566
192.819264
196.120398
178.277983
144.654925
100.229938
17.360078
-38.519635
-97.765681
-133.314657
-65.602508
-28.495695
-49.182829
-64.492248
-58.537324
-45.961176
-84.887136
-136.980991
-193.028775
-255.725058
-251.113654
-180.324813
-93.209817
-32.433991
-19.460657
-11.483440
-15.603616
-42.606747
-112.895268
-204.147839
-286.878723
-366.829831
-282.038979
-118.443891
54.280221
156.940248
57.022858
123.480069
191.537450
-30.896363
-110.839159
15.167511
12.920003
-49.790308
18.666077
14.654744
-9.673038
184.720135
300.548059
215.737212
83.046462
-7.241071
-15.340891
-104.927051
-171.366590
-111.796866
-82.964960
-83.859078
-80.458192
-34.660324
16.736582
9.875075
12.423922
21.161999
12.668631
11.657618
17.562666
47.551059
82.377888
79.092867
85.625255
125.991375
140.396809
142.760961
146.699306
138.451938
133.076305
139.554141
152.148993
134.555175
107.727906
85.393584
47.180947
6.303870
-10.397385
-5.996653
-23.048335
-43.583505
-61.417608
-69.710696
-49.130318
-28.998041
4.577227
44.754237
74.173477
101.728104
120.253717
116.623204
71.655562
16.290969
-27.313152
-38.695399
-5.092336
68.350814
140.765802
118.872046
136.931375
207.815811
163.853990
97.365095
81.397684
78.802087
40.107321
-18.970136
-48.616146
-47.366399
-45.429046
-61.900147
-25.455742
11.831090
-21.929645
-52.811891
-66.324755
-94.828825
-128.578909
-161.735423
-167.706445
-136.578711
-119.148279
-107.741346
-72.949845
-16.276014
61.626832
141.103091
152.341435
70.981865
-8.881960
-43.608512
-67.233881
-110.402890
-154.980880
-140.655455
-65.461469
-11.817311
-2.850898
14.704222
23.969109
-7.101729
-72.320099
-131.578614
-179.972335
-207.495002
-193.660278
-196.683194
-186.838765
-156.170560
-158.133363
-160.819359
-169.667571
-196.807340
-216.210961
-220.814824
-204.707650
-180.434672
-159.506725
-133.547334
-109.691023
-103.476331
-122.825921
-158.780915
-186.191362
-188.014929
-179.979524
-168.094619
-143.859826
-101.454267
-27.753168
12.555804
5.515058
40.579835
83.864708
82.384034
72.376739
80.233164
108.221603
136.887257
160.015957
178.234525
189.392080
192.826476
181.489688
153.390076
107.132426
63.794308
36.824427
33.527716
50.780466
62.769020
75.427514
92.933538
107.325984
106.448232
83.749455
63.461064
45.432655
19.614325
18.805411
52.451336
94.311901
114.541592
102.540577
80.656173
55.042800
30.201197
-5.856146
-59.978529
-110.337135
-132.146986
-111.842222
-84.309157
-63.665136
-49.146963
-51.147692
-53.099324
-51.994787
-55.815970
-60.440614
-68.122208
-59.370103
-10.741544
51.859153
96.798488
112.418596
108.091386
101.655640
68.827212
24.715765
2.123753
-22.820458
-31.256937
-37.356544
-44.225064
-27.554713
-42.265886
-85.770516
-122.714446
-148.028307
-160.595615
-168.552043
-184.270856
-203.651877
-225.269241
-252.008448
-245.741543
-221.630660
-209.653017
-165.693786
-70.033206
33.098300
89.077772
107.896144
151.011908
143.032361
55.104299
54.200051
