EVENT_NAME: 202302060117
EVENT_ID: 13194
EVENT_DATE_YYYYMMDD: 2023/02/06
EVENT_TIME_HHMMSS: 01:17:32.00000
EVENT_LATITUDE_DEGREE: 37.288
EVENT_LONGITUDE_DEGREE: 37.043
EVENT_DEPTH_KM: 8.6
HYPOCENTER_REFERENCE: AFAD
MAGNITUDE_W: 7.7
MAGNITUDE_W_REFERENCE: AFAD
MAGNITUDE_L: 
MAGNITUDE_L_REFERENCE: 
FOCAL_MECHANISM: 
NETWORK: TK
STATION_CODE: 6606
STATION_NAME: 
STATION_LATITUDE_DEGREE: 39.19403
STATION_LONGITUDE_DEGREE: 35.25498
STATION_ELEVATION_M: 1066.0
LOCATION: Kahramanmaras_Pazarck_Turkiye
SENSOR_DEPTH_M: 
VS30_M/S: None
SITE_CLASSIFICATION_EC8: unknown
MORPHOLOGIC_CLASSIFICATION: 
EPICENTRAL_DISTANCE_KM: 263.24
EARTHQUAKE_BACKAZIMUTH_DEGREE: 
DATE_TIME_FIRST_SAMPLE_YYYYMMDD_HHMMSS: 2023/02/06 01:17:54.8768770
DATE_TIME_FIRST_SAMPLE_PRECISION: millisecond
SAMPLING_INTERVAL_S: 0.01
NDATA: 18251
DURATION_S: 
STREAM: HNE
UNITS: cm/s^2
INSTRUMENT: sensor = ACEBOX/SARA | digitizer = 
INSTRUMENT_ANALOG/DIGITAL: 
INSTRUMENTAL_FREQUENCY_HZ: 
INSTRUMENTAL_DAMPING: 
FULL_SCALE_G: 
N_BIT_DIGITAL_CONVERTER: 
PGA_CM/S^2: 9.572
TIME_PGA_S: 
BASELINE_CORRECTION: BASELINE REMOVED
FILTER_TYPE: BUTTERWORTH
FILTER_ORDER: 
LOW_CUT_FREQUENCY_HZ: 
HIGH_CUT_FREQUENCY_HZ: 
LATE/NORMAL_TRIGGERED: 
DATABASE_VERSION: 
HEADER_FORMAT: DYNA 1.2
DATA_TYPE: Acceleration
PROCESSING: Automatic Paolucci et al., 2011
DATA_TIMESTAMP_YYYYMMDD_HHMMSS: 
DATA_LICENSE: U (unknown license)
DATA_CITATION: Turkish Accelerometric Archive v 1.0 - Disaster And Emergency Management Presidency, Earthquake Department
DATA_CREATOR: AFAD
ORIGINAL_DATA_MEDIATOR_CITATION: : AFAD - Disaster And Emergency Management Presidency
ORIGINAL_DATA_MEDIATOR: AFAD PROCESS SERVICE
ORIGINAL_DATA_CREATOR_CITATION: AFAD PROCESS SERVICE
ORIGINAL_DATA_CREATOR: network: TK
USER1: GuestUser
USER2: 
USER3: 
USER4: 
USER5: 
[...]
5.311945
4.984629
4.629959
4.280666
3.957793
3.682614
3.465417
3.273236
3.088302
2.932126
2.805175
2.709786
2.635672
2.537244
2.373353
2.107058
1.747011
1.339736
0.913057
0.533136
0.254451
0.104587
0.108796
0.216577
0.431670
0.768339
1.144285
1.559042
1.895944
2.029443
2.158967
2.301818
2.266281
2.052590
1.694647
1.262357
0.816973
0.358497
-0.023995
-0.303616
-0.502343
-0.579730
-0.529697
-0.338684
0.002427
0.428406
0.881505
1.355413
1.802901
2.132556
2.340636
2.461743
2.537260
2.636858
2.741599
2.809635
2.836756
2.797244
2.707700
2.592205
2.449589
2.298556
2.145186
1.986672
1.803375
1.566305
1.267045
0.898113
0.483123
0.069770
-0.310150
-0.617359
-0.819359
-0.920593
-0.949116
-0.947245
-0.966884
-1.043803
-1.181509
-1.357558
-1.521917
-1.634139
-1.700070
-1.755246
-1.861389
-2.080924
-2.422969
-2.860637
-3.364938
-3.903139
-4.420999
-4.863109
-5.189724
-5.366240
-5.397101
-5.338184
-5.252614
-5.148807
-4.993799
-4.777069
-4.477106
-4.107005
-3.731526
-3.351138
-2.978464
-2.646472
-2.336690
-2.053561
-1.784460
-1.491044
-1.200434
-0.968039
-0.848802
-0.873116
-1.022980
-1.262622
-1.560947
-1.880547
-2.177236
-2.408928
-2.518813
-2.478365
-2.294834
-1.975233
-1.569828
-1.118131
-0.618038
-0.081473
0.485953
1.055717
1.588542
2.072503
2.481414
2.808497
3.031774
3.111499
3.087185
3.018215
2.943166
2.894771
2.868586
2.854091
2.843804
2.822529
2.779745
2.725504
2.703995
2.732285
2.776239
2.793073
2.725974
2.552496
2.315193
2.080928
1.906983
1.817907
1.834975
1.981566
2.251836
2.621704
3.040669
3.444437
3.799809
4.112163
4.410956
4.717231
5.037300
5.375137
5.712273
6.005923
6.224056
6.355685
6.416472
6.429799
6.397302
6.347737
6.302848
6.227098
6.100848
5.921760
5.731449
5.577611
5.431021
5.344282
5.350829
5.394082
5.509578
5.642843
5.753430
5.922933
6.050587
6.032117
5.859108
5.583461
5.408347
5.315530
5.105581
4.781070
4.438090
4.089265
3.655805
3.122982
2.534281
1.914718
1.338642
0.788751
0.277203
-0.062737
-0.268712
-0.403613
-0.401976
-0.237850
0.073101
0.480142
0.905654
1.280197
1.561456
1.757378
1.852534
1.774213
1.528492
1.201644
0.806995
0.378678
0.020969
-0.262393
-0.495021
-0.669901
-0.818128
-0.914686
-0.922634
-0.830518
-0.602331
-0.246492
0.215726
0.748083
1.266178
1.716238
2.040281
2.197394
2.233866
2.174249
2.026723
1.812331
1.513539
1.135021
0.706705
0.269505
-0.102934
-0.379983
-0.545979
-0.544810
-0.350991
0.062129
0.702968
1.497177
2.343524
3.116692
3.709836
4.124359
4.393694
4.562729
4.694358
4.811958
4.910387
4.954575
4.921610
4.840483
4.707920
4.493529
4.197308
3.845443
3.484461
3.145221
2.837311
2.549273
2.250948
1.933919
1.602863
1.246089
0.858453
0.484612
0.177636
-0.066915
-0.264240
-0.426027
-0.576358
-0.721078
-0.870241
-1.025482
-1.187736
-1.412649
-1.738562
-2.144901
-2.588882
-2.996156
-3.298690
-3.461178
-3.483389
-3.422367
-3.346850
-3.291440
-3.233224
-3.128950
-2.981423
-2.804672
-2.599164
-2.354612
-2.030802
-1.616981
-1.127409
-0.564425
0.030824
0.617421
1.175496
1.646598
1.996593
2.233664
2.342847
2.326482
2.193919
1.935807
1.559862
1.074265
0.508476
-0.080459
-0.659106
-1.182110
-1.617908
-1.973981
-2.232794
-2.385697
-2.418662
-2.295684
-2.022141
-1.599202
-1.039257
-0.383221
0.339213
1.037098
1.631177
2.125191
2.496929
2.742884
2.889709
2.922442
2.852537
2.701504
2.458355
2.123090
1.683084
1.122673
0.476691
-0.200619
-0.873253
-1.516897
-2.083621
-2.526900
-2.818913
-2.961529
-2.987012
-2.911028
-2.746434
-2.518949
-2.245639
-1.965082
-1.714685
-1.544246
-1.495382
-1.546817
-1.720061
-2.047844
-2.485045
-3.011088
-3.613817
-4.220754
-4.750772
-5.166931
-5.450059
-5.549890
-5.454968
-5.213455
-4.878891
-4.503646
-4.072289
-3.534555
-2.903770
-2.232304
-1.598713
-1.063083
-0.641780
-0.367068
-0.270976
-0.353507
-0.598526
-0.969094
-1.409100
-1.855419
-2.269941
-2.643315
-2.974605
-3.286490
-3.587153
-3.842927
-4.005182
-4.024353
-3.899738
-3.660096
-3.314777
-2.902124
-2.471703
-2.055310
-1.673284
-1.326796
-1.005559
-0.708636
-0.473903
-0.325441
-0.276577
-0.374304
-0.604828
-0.924194
-1.289853
-1.616935
-1.901933
-2.154902
-2.326976
-2.430314
-2.451355
-2.348250
-2.135261
-1.790643
-1.316502
-0.773390
-0.194040
0.393259
0.926317
1.334060
1.594043
1.718657
1.717489
1.618593
1.466391
1.322606
1.218099
1.116398
0.990849
0.835140
0.659559
0.489121
0.318917
0.170690
0.070859
0.004929
-0.035752
-0.082277
-0.166911
-0.282874
-0.421515
-0.554312
-0.647129
-0.701603
-0.736439
-0.764260
-0.773144
-0.740412
-0.679157
-0.626552
-0.611822
-0.639644
-0.682195
-0.739708
-0.847956
-0.994313
-1.180883
-1.432214
-1.691261
-1.912433
-2.112797
-2.309186
-2.516564
-2.714356
-2.887366
-3.058271
-3.218889
-3.362207
-3.483547
-3.545035
-3.521188
-3.396573
-3.166516
-2.855566
-2.463020
-1.992619
-1.485512
-0.980977
-0.539100
-0.207341
0.041419
0.245758
0.441915
0.674310
0.947151
1.230047
1.481847
1.658831
1.746272
1.753520
1.699513
1.604826
1.481381
1.363782
1.287097
1.233557
1.185396
1.142845
1.111283
1.153600
1.352095
1.724534
2.241694
2.854010
3.485263
4.035856
4.421154
4.604217
4.587151
4.390294
4.037962
3.577849
3.072380
2.544934
1.997848
1.431124
0.833071
0.239460
-0.287284
-0.678661
-0.843487
-0.742954
-0.400441
0.113914
0.671988
1.187511
1.615361
1.895450
1.982657
1.865993
1.583332
1.188449
0.730908
0.256066
-0.238882
-0.748092
-1.275772
-1.846237
-2.400102
-2.883828
-3.295545
-3.582414
-3.690662
-3.622392
-3.435120
-3.203427
-2.947886
-2.664991
-2.375316
-2.119541
-1.952376
-1.928762
-2.071612
-2.370404
-2.798253
-3.312606
-3.864134
-4.378955
-4.753498
-4.903361
-4.778981
-4.389942
-3.801707
-3.084417
-2.307508
-1.505817
-0.666952
0.215633
1.137029
2.071750
2.944282
3.658066
4.116776
4.234844
4.005957
3.496981
2.804240
2.082976
1.459439
0.952333
0.563996
0.304715
0.182206
0.223589
0.441020
0.816499
1.340673
1.996475
2.726157
3.453033
4.090364
4.536450
4.750842
4.747336
4.554687
4.250284
3.897016
3.533930
3.204276
2.907120
2.640825
2.426200
2.272595
2.200119
2.212744
2.303458
2.475066
2.707227
2.953883
3.160326
3.292189
3.324453
3.218777
2.996436
2.708632
2.393240
2.116425
1.900864
1.746558
1.699331
1.753573
1.850833
1.950665
2.048860
2.203400
2.450758
2.777841
3.191896
3.656920
4.078924
4.413956
4.653131
4.788734
4.824271
4.779149
4.699892
4.654068
4.686800
4.783125
4.890672
4.961513
4.942342
4.825444
4.650330
4.406480
4.093426
3.755122
3.410739
3.091606
2.818531
2.553171
2.260458
1.927297
1.543402
1.133088
0.754571
0.435204
0.162130
-0.108607
-0.449951
-0.892762
-1.386074
-1.875879
-2.337862
-2.763139
-3.168309
-3.558984
-3.919031
-4.247516
-4.549348
-4.833411
-5.124722
-5.416033
-5.667833
-5.871002
-6.017592
-6.084224
-6.053129
-5.892510
-5.588105
-5.139682
-4.529704
-3.758407
-2.845662
-1.847347
-0.865164
0.011108
0.717176
1.240649
1.637169
1.978514
2.298583
2.585686
2.813873
2.956022
2.995534
2.925863
2.755191
2.541033
2.363582
2.270297
2.260712
2.274038
2.247620
2.200861
2.202030
2.278950
2.424372
2.617489
2.827439
3.073862
3.372188
3.661162
3.897531
4.075919
4.183232
4.205911
4.150267
4.048566
3.915068
3.750242
3.540993
3.237759
2.808975
2.251603
1.553017
0.737299
-0.093383
-0.851119
-1.508791
-2.017533
-2.339939
-2.468527
-2.426911
-2.298088
-2.108011
-1.873278
-1.633167
-1.366638
-1.119046
-0.948842
-0.877767
-0.973623
-1.267039
-1.778587
-2.467820
-3.194462
-3.870837
-4.448082
-4.905389
-5.220781
-5.363865
-5.364332
-5.216338
-4.929702
-4.567550
-4.164483
-3.754402
-3.343620
-2.956451
-2.650878
-2.458696
-2.403987
-2.459864
-2.603883
-2.833004
-3.097896
-3.393181
-3.691740
-3.927173
-4.090597
-4.176167
-4.178037
-4.066047
-3.781749
-3.346185
-2.826453
-2.302279
-1.846608
-1.482118
-1.213484
-1.023173
-0.878686
-0.757578
-0.645823
-0.567033
-0.552069
-0.598361
-0.699127
-0.834261
-0.954900
-1.030183
-1.061277
-1.060575
-1.042807
-1.029246
-1.074602
-1.229376
-1.474628
-1.751678
-1.989449
-2.129026
-2.154743
-2.072212
-1.886811
-1.594564
-1.215110
-0.807367
-0.405236
-0.041681
0.249397
0.470804
0.603133
0.609680
0.463791
0.186508
-0.129819
-0.428846
-0.700050
-0.947173
-1.193829
-1.422716
-1.644823
-1.879789
-2.091141
-2.297350
-2.508936
-2.667684
-2.735953
-2.661605
-2.453759
-2.182086
-1.840741
-1.428790
-0.982705
-0.563739
-0.274999
-0.161841
-0.220290
-0.447541
-0.831202
-1.327553
-1.850089
-2.377068
-2.870146
-3.221075
-3.399930
-3.391980
-3.187875
-2.835776
-2.334280
-1.725238
-1.124145
-0.562096
-0.047274
0.356495
0.618816
0.739222
0.700412
0.546573
0.319790
0.003463
-0.332269
-0.627087
-0.896188
-1.099357
-1.234024
-1.338063
-1.395109
-1.436959
-1.483951
-1.441634
-1.232385
-0.871869
-0.410119
0.066126
0.466622
0.784352
1.011838
1.082912
0.990563
0.746245
0.352531
-0.114362
-0.610012
-1.104492
-1.550343
-1.982634
-2.406742
-2.829213
-3.287222
-3.713668
-4.059921
-4.297692
-4.333930
-4.199964
-4.054308
-3.984402
-3.980427
-4.008249
-4.019237
-4.013625
-4.035602
-4.041914
-3.991180
-3.923846
-3.853706
-3.768136
-3.632767
-3.435442
-3.210061
-2.970652
-2.730308
-2.473130
-2.190002
-1.928148
-1.744383
-1.737603
-1.943578
-2.286090
-2.698976
-3.094794
-3.397795
-3.600731
-3.727215
-3.823772
-3.918226
-3.990469
-3.978779
-3.875206
-3.732122
-3.546253
-3.336302
-3.138743
-2.975786
-2.915934
-2.957783
-3.048496
-3.179188
-3.318765
-3.460212
-3.614050
-3.742404
-3.839897
-3.937390
-4.055925
-4.243430
-4.538014
-4.898295
-5.263019
-5.596647
-5.900349
-6.202649
-6.496064
-6.777555
-7.070269
-7.341240
-7.548618
-7.684687
-7.745474
-7.770958
-7.820990
-7.875698
-7.889959
-7.857929
-7.773060
-7.680709
-7.617584
-7.517284
-7.341936
-7.112347
-6.827815
-6.497927
-6.125955
-5.719147
-5.296208
-4.855265
-4.408712
-3.957249
-3.498305
-3.078171
-2.741736
-2.515420
-2.388702
-2.286064
-2.144149
-1.950330
-1.730093
-1.524585
-1.348769
-1.194228
-1.029869
-0.824828
-0.607630
-0.398147
-0.160843
0.106388
0.392323
0.694155
0.982194
1.269064
1.556868
1.803759
2.031945
2.266912
2.485045
2.658289
2.717207
2.610595
2.380306
2.093904
1.796281
1.552664
1.430623
1.413322
1.428753
1.429922
1.405140
1.366798
1.309050
1.224884
1.144458
1.113130
1.175086
1.300168
1.392752
1.411690
1.358385
1.270945
1.200105
1.142825
1.118043
1.126226
1.125525
1.118044
1.073857
0.948542
0.739995
0.455230
0.188936
0.042345
0.006575
0.048425
0.093548
0.057544
-0.050236
-0.203841
-0.383630
-0.555471
-0.727078
-0.920194
-1.134820
-1.365343
-1.584645
-1.775890
-1.951939
-2.109284
-2.239977
-2.367396
-2.510713
-2.664084
-2.824001
-2.971293
-3.075800
-3.131911
-3.113674
-2.980409
-2.757600
-2.504397
-2.283926
-2.153700
-2.108343
-2.136399
-2.245348
-2.427242
-2.669455
-2.928970
-3.173989
-3.383237
-3.470677
-3.382535
-3.131670
-2.726031
-2.203962
-1.615493
-1.010426
-0.450715
0.046339
0.444963
0.651173
0.634106
0.432106
0.121857
-0.191898
-0.468480
-0.701342
-0.838113
-0.839749
-0.695729
-0.403015
-0.001117
0.452684
0.921916
1.356545
1.689239
1.903398
2.040871
2.140936
2.241470
2.393906
2.586555
2.767515
2.933979
3.049709
3.057425
3.008561
2.990092
3.042229
3.158894
3.279300
3.400408
3.575522
3.752741
3.881797
3.987942
4.026986
3.990982
3.930195
3.837144
3.751107
3.687515
3.560563
3.351315
3.072863
2.760276
2.507776
2.338039
2.247794
2.243352
2.298295
2.407011
2.485567
2.435535
2.318169
2.190516
2.065435
1.965604
1.831873
1.653719
1.459668
1.183086
0.822805
0.428623
-0.006005
-0.434322
-0.792499
-1.049675
-1.145532
-1.059728
-0.836685
-0.518019
-0.160542
0.228263
0.662425
1.107108
1.571897
2.018918
2.345066
2.523219
2.503347
2.276564
1.930545
1.479082
0.970340
0.491757
0.054089
-0.285150
-0.472889
-0.519882
-0.435481
-0.240727
0.085187
0.537585
1.037911
1.563254
2.119458
2.678234
3.203811
3.661586
4.037299
4.322064
4.515649
4.613844
4.602389
4.489699
4.297518
4.083594
3.898660
3.692452
3.410726
3.061200
2.678942
2.306035
1.954872
1.607216
1.244363
0.852052
0.434724
0.004304
-0.442482
-0.897218
-1.346108
-1.789387
-2.197129
-2.534031
-2.823238
-3.109873
-3.423394
-3.790923
-4.232332
-4.743179
-5.298914
-5.846467
-6.333700
-6.752898
-7.097281
-7.364277
-7.587553
-7.786982
-7.956718
-8.092788
-8.210621
-8.308816
-8.318167
-8.180227
-7.914399
-7.581705
-7.231476
-6.865583
-6.464854
-6.060384
-5.734938
-5.518909
-5.376760
-5.294463
-5.265004
-5.282071
-5.352210
-5.465367
-5.611958
-5.755976
-5.843182
-5.844585
-5.738674
-5.536205
-5.272949
-4.969012
-4.630240
-4.258034
-3.898921
-3.595452
-3.375214
-3.279591
-3.263692
-3.281227
-3.337104
-3.352534
-3.263457
-3.069872
-2.776690
-2.433475
-2.051450
-1.615418
-1.165358
-0.723247
-0.311062
0.050389
0.397111
0.759029
1.121649
1.436575
1.657046
1.778153
1.809716
1.769737
1.703106
1.700067
1.853672
2.185431
2.660975
3.195669
3.683371
4.089243
4.402064
4.579751
4.629316
4.604534
4.536266
4.436668
4.309249
4.138110
3.937746
3.737149
3.533044
3.321925
3.137226
3.056566
3.144241
3.382714
3.753751
4.274184
4.917127
5.623663
6.330666
6.999794
7.660506
8.306488
8.854275
9.254771
9.492777
9.571800
9.519664
9.341978
9.033834
8.634041
8.187255
7.731585
7.314257
6.933401
6.580836
6.286251
6.040531
5.856767
5.719294
5.551194
5.376782
5.207513
5.025619
4.864066
4.659026
4.371456
4.038529
3.623773
3.102172
2.506223
1.888297
1.308714
0.816571
0.437820
0.135521
-0.092431
-0.199276
-0.217980
-0.197405
-0.172622
-0.220083
-0.374388
-0.650736
-1.159245
-1.898979
-2.638713
-3.269732
-3.862875
-4.410662
-4.900700
-5.376477
-5.806196
-6.135382
-6.352813
-6.478128
-6.572348
-6.667971
-6.735538
-6.761255
-6.740447
-6.660488
-6.565098
-6.517169
-6.506414
-6.472981
-6.364966
-6.157588
-5.872588
-5.532413
-5.158103
-4.773740
-4.364594
-3.945863
-3.530639
-3.064446
-2.534194
-1.938946
-1.274026
-0.610976
0.016068
0.595652
1.085925
1.523828
1.943027
2.337677
2.736068
3.112482
3.427641
3.705393
3.903186
3.971922
3.964909
3.921657
3.851986
3.785354
3.737893
3.731581
3.781380
3.869289
3.976134
4.092800
4.192398
4.267915
4.358161
4.455421
4.547537
4.643395
4.679867
4.633810
4.471321
4.125068
3.644615
3.052640
2.407360
1.830349
1.312255
0.849804
0.424527
0.039697
-0.218882
-0.389086
-0.450574
-0.372719
-0.234311
0.046948
0.435285
0.781773
1.180632
1.667164
2.151125
2.605393
2.975963
3.251142
3.454313
3.520711
3.379732
3.044935
2.560273
1.976950
1.369779
0.778038
0.199858
-0.346526
-0.830018
-1.224200
-1.519719
-1.745100
-1.938917
-2.095093
-2.173883
-2.163361
-2.085273
-1.957853
-1.796532
-1.651344
-1.541692
-1.421520
-1.283346
-1.129974
-0.946911
-0.751222
-0.549922
-0.399590
-0.358675
-0.374573
-0.422968
-0.513214
-0.623332
-0.743971
-0.858297
-0.954621
-1.035515
-1.110330
-1.203147
-1.285209
-1.305315
-1.248736
-1.112198
-0.921185
-0.716378
-0.508065
-0.305596
-0.123000
0.037152
0.197303
0.386679
0.613931
0.851469
1.026584
1.104672
1.110050
1.054173
0.971175
0.873682
0.779696
0.786243
0.902441
1.058851
1.241447
1.422173
1.594015
1.757907
1.873169
1.944712
1.987731
2.019995
2.099019
2.236492
2.403892
2.594904
2.821688
3.109025
3.466502
3.873777
4.312381
4.762909
5.205487
5.622114
5.973512
6.251264
6.467527
6.586296
6.614118
6.580686
6.482725
6.345720
6.172944
5.982868
5.815469
5.655085
5.537719
5.467113
5.404221
5.423861
5.526031
5.679168
5.909693
6.148868
6.364663
6.505643
6.468470
6.355079
6.264599
6.147000
5.965807
5.677536
5.331516
5.043946
4.811552
4.620306
4.475118
4.349102
4.256986
4.209760
4.216774
4.314969
4.476056
4.626856
4.702372
4.664264
4.537780
4.339754
4.057561
3.708970
3.332323
2.946090
2.551441
2.156090
1.751154
1.328215
0.900366
0.463633
0.029472
-0.364943
-0.680803
-0.893324
-1.019808
-1.057449
-0.980997
-0.767306
-0.392996
0.094939
0.659560
1.325181
2.056733
2.781271
3.413927
3.861649
4.109475
4.180316
4.093811
3.898591
3.626217
3.274353
2.853752
2.409304
1.993379
1.641982
1.378960
1.214835
1.148203
1.180935
1.314434
1.554077
1.928386
2.439935
3.052251
3.738680
4.453165
5.130242
5.739986
6.232831
6.547990
6.670266
6.586567
6.296191
5.833741
5.232882
4.538972
3.815136
3.113745
2.454437
1.855916
1.329172
0.853161
0.425546
0.048431
-0.293380
-0.613915
-0.933750
-1.227632
-1.472418
-1.690784
-1.860520
-1.965963
-2.023243
-2.032828
-2.020436
-1.993315
-1.945620
-1.925279
-1.954504
-1.993781
-2.031422
-2.075142
-2.112315
-2.155801
-2.226875
-2.325303
-2.473297
-2.676466
-2.909094
-3.154814
-3.392352
-3.622174
-3.853166
-4.088833
-4.341567
-4.584716
-4.785080
-4.919747
-4.944061
-4.854049
-4.674025
-4.413808
-4.106130
-3.772034
-3.429520
-3.125583
-2.877992
-2.676458
-2.513267
-2.377197
-2.260298
-2.160933
-2.089391
-2.042164
-1.992832
-1.928304
-1.817249
-1.642836
-1.438965
-1.210077
-0.944950
-0.635636
-0.266236
0.138234
0.546210
0.948108
1.314235
1.618640
1.861555
2.050931
2.200095
2.339204
2.494446
2.656702
2.817555
2.989396
3.152587
3.279539
3.385917
3.491828
3.618313
3.792492
4.018107
4.290013
4.582962
4.859544
5.112280
5.329712
5.486122
5.566081
5.559769
5.457834
5.256067
4.960314
4.582498
4.134076
3.644271
3.153063
2.680092
2.222784
1.796339
1.437694
1.149656
0.909079
0.697259
0.490583
0.275957
0.058760
-0.154930
-0.365815
-0.587220
-0.835279
-1.122615
-1.449464
-1.793846
-2.157868
-2.549245
-2.953480
-3.366599
-3.767327
-4.125972
-4.441598
-4.705321
-4.906152
-5.039650
-5.097397
-5.076823
-4.974887
-4.823152
-4.643128
-4.443698
-4.262739
-4.102120
-3.956464
-3.835356
-3.739733
-3.693207
-3.700922
-3.779945
-3.959501
-4.226263
-4.567139
-4.936538
-5.283025
-5.585559
-5.823798
-6.000080
-6.109731
-6.150879
-6.124225
-5.994935
-5.759968
-5.436626
-5.053199
-4.674680
-4.350169
-4.092992
-3.903382
-3.782742
-3.704186
-3.627032
-3.539592
-3.441864
-3.353722
-3.290597
-3.243603
-3.208533
-3.152421
-3.052823
-2.913947
-2.701893
-2.399125
-2.019204
-1.596030
-1.175662
-0.754827
-0.348955
0.006652
0.323213
0.600965
0.833594
1.015488
1.113917
1.145013
1.163249
1.198086
1.291371
1.461108
1.671760
1.896206
2.122756
2.359593
2.603210
2.816200
2.987807
3.140243
3.289874
3.416593
3.472704
3.423374
3.259950
3.020542
2.750039
2.476730
2.258598
2.122996
2.053324
2.046311
2.090967
2.156898
2.213711
2.282682
2.387423
2.498711
2.632677
2.799375
2.951578
3.076426
3.137447
3.075491
2.888220
2.599013
2.238732
1.831691
1.384671
0.900010
0.413245
-0.013903
-0.384237
-0.725113
-1.035128
-1.324568
-1.536622
-1.605124
-1.547376
-1.371326
-1.083288
-0.701029
-0.227355
0.285597
0.777740
1.228736
1.618476
1.941818
2.181694
2.300464
2.297892
2.193619
1.983903
1.671083
1.287422
0.868224
0.474276
0.182731
-0.015528
-0.162586
-0.241609
-0.274808
-0.313852
-0.363417
-0.436361
-0.529412
