EVENT_NAME: 202302060117
EVENT_ID: 13194
EVENT_DATE_YYYYMMDD: 2023/02/06
EVENT_TIME_HHMMSS: 01:17:32.00000
EVENT_LATITUDE_DEGREE: 37.288
EVENT_LONGITUDE_DEGREE: 37.043
EVENT_DEPTH_KM: 8.6
HYPOCENTER_REFERENCE: AFAD
MAGNITUDE_W: 7.7
MAGNITUDE_W_REFERENCE: AFAD
MAGNITUDE_L: 
MAGNITUDE_L_REFERENCE: 
FOCAL_MECHANISM: 
NETWORK: TK
STATION_CODE: 0208
STATION_NAME: 
STATION_LATITUDE_DEGREE: 37.78694
STATION_LONGITUDE_DEGREE: 37.65275
STATION_ELEVATION_M: 1763.0
LOCATION: Kahramanmaras_Pazarck_Turkiye
SENSOR_DEPTH_M: 
VS30_M/S: 469
SITE_CLASSIFICATION_EC8: B
MORPHOLOGIC_CLASSIFICATION: 
EPICENTRAL_DISTANCE_KM: 77.26
EARTHQUAKE_BACKAZIMUTH_DEGREE: 
DATE_TIME_FIRST_SAMPLE_YYYYMMDD_HHMMSS: 2023/02/06 01:17:22.8932120
DATE_TIME_FIRST_SAMPLE_PRECISION: millisecond
SAMPLING_INTERVAL_S: 0.01
NDATA: 3311
DURATION_S: 
STREAM: HNE
UNITS: cm/s^2
INSTRUMENT: sensor = CMG-5T/GURALP | digitizer = 
INSTRUMENT_ANALOG/DIGITAL: 
INSTRUMENTAL_FREQUENCY_HZ: 
INSTRUMENTAL_DAMPING: 
FULL_SCALE_G: 
N_BIT_DIGITAL_CONVERTER: 
PGA_CM/S^2: 14.001
TIME_PGA_S: 
BASELINE_CORRECTION: BASELINE REMOVED
FILTER_TYPE: BUTTERWORTH
FILTER_ORDER: 
LOW_CUT_FREQUENCY_HZ: 
HIGH_CUT_FREQUENCY_HZ: 
LATE/NORMAL_TRIGGERED: 
DATABASE_VERSION: 
HEADER_FORMAT: DYNA 1.2
DATA_TYPE: Acceleration
PROCESSING: Automatic Paolucci et al., 2011
DATA_TIMESTAMP_YYYYMMDD_HHMMSS: 
DATA_LICENSE: U (unknown license)
DATA_CITATION: Turkish Accelerometric Archive v 1.0 - Disaster And Emergency Management Presidency, Earthquake Department
DATA_CREATOR: AFAD
ORIGINAL_DATA_MEDIATOR_CITATION: : AFAD - Disaster And Emergency Management Presidency
ORIGINAL_DATA_MEDIATOR: AFAD PROCESS SERVICE
ORIGINAL_DATA_CREATOR_CITATION: AFAD PROCESS SERVICE
ORIGINAL_DATA_CREATOR: network: TK
USER1: GuestUser
USER2: 
USER3: 
USER4: 
USER5: 
[...]
-0.009190
-0.009842
-0.008918
-0.009570
-0.008962
-0.009298
-0.009320
-0.009027
-0.008103
-0.009070
-0.008461
-0.008798
-0.010080
-0.008526
-0.008863
-0.008569
-0.008906
-0.010188
-0.010525
-0.009286
-0.009938
-0.009329
-0.008405
-0.009688
-0.010024
-0.009416
-0.009752
-0.010404
-0.009480
-0.009817
-0.009524
-0.009861
-0.010513
-0.009589
-0.008980
-0.009317
-0.009653
-0.009990
-0.010327
-0.010033
-0.009425
-0.009761
-0.009783
-0.009490
-0.009511
-0.009533
-0.009554
-0.009891
-0.009282
-0.008674
-0.010586
-0.009662
-0.009684
-0.010336
-0.009097
-0.009434
-0.009140
-0.009162
-0.009183
-0.008890
-0.009857
-0.010509
-0.009900
-0.009922
-0.009943
-0.009965
-0.008726
-0.010008
-0.009715
-0.008476
-0.010073
-0.010095
-0.010116
-0.010138
-0.010475
-0.009866
-0.008627
-0.010540
-0.010561
-0.009637
-0.009344
-0.009365
-0.011593
-0.011615
-0.010376
-0.011028
-0.010734
-0.010125
-0.010147
-0.010799
-0.011136
-0.010842
-0.009918
-0.009625
-0.011222
-0.011874
-0.010635
-0.011287
-0.011939
-0.012276
-0.012613
-0.012319
-0.012971
-0.011417
-0.011439
-0.011775
-0.011167
-0.011503
-0.011210
-0.011231
-0.011253
-0.011275
-0.010351
-0.011318
-0.011970
-0.011992
-0.012328
-0.012350
-0.012056
-0.011132
-0.010208
-0.011176
-0.011512
-0.010588
-0.011240
-0.010632
-0.010338
-0.010675
-0.011012
-0.010718
-0.010425
-0.010446
-0.010153
-0.010489
-0.010826
-0.010848
-0.009924
-0.009946
-0.010913
-0.010619
-0.011586
-0.012238
-0.012260
-0.011651
-0.011042
-0.012325
-0.011401
-0.011107
-0.012075
-0.012727
-0.013379
-0.012455
-0.012476
-0.012183
-0.013150
-0.012226
-0.011932
-0.012584
-0.011345
-0.013258
-0.013280
-0.012671
-0.012692
-0.011453
-0.012736
-0.013388
-0.013409
-0.012800
-0.013452
-0.013159
-0.011920
-0.012572
-0.012593
-0.012930
-0.012321
-0.012658
-0.012680
-0.013332
-0.012723
-0.012114
-0.012136
-0.012473
-0.013440
-0.013461
-0.012538
-0.012874
-0.012581
-0.013233
-0.013570
-0.012646
-0.014243
-0.013319
-0.012080
-0.013678
-0.014330
-0.014036
-0.014058
-0.014395
-0.013155
-0.013177
-0.013514
-0.012905
-0.013872
-0.013894
-0.013285
-0.013307
-0.013643
-0.013350
-0.012741
-0.012763
-0.013100
-0.013436
-0.013458
-0.013480
-0.013501
-0.014468
-0.013544
-0.014196
-0.015164
-0.014555
-0.014261
-0.013022
-0.013989
-0.014326
-0.014348
-0.014685
-0.014391
-0.014728
-0.014434
-0.014141
-0.013847
-0.013869
-0.014206
-0.013912
-0.013618
-0.013955
-0.013031
-0.014629
-0.015281
-0.014042
-0.014694
-0.015030
-0.015367
-0.016019
-0.014150
-0.014171
-0.013563
-0.013899
-0.015497
-0.014258
-0.015855
-0.015247
-0.014638
-0.015920
-0.015942
-0.015648
-0.015040
-0.015376
-0.015713
-0.015104
-0.015441
-0.015148
-0.014854
-0.015506
-0.014897
-0.015549
-0.014625
-0.014332
-0.015929
-0.015321
-0.016603
-0.015364
-0.015385
-0.015722
-0.014168
-0.015135
-0.014841
-0.015493
-0.013939
-0.015222
-0.016189
-0.014634
-0.015286
-0.014678
-0.015014
-0.015982
-0.016003
-0.015394
-0.015731
-0.015122
-0.015775
-0.014851
-0.014872
-0.015524
-0.015861
-0.017143
-0.015904
-0.015926
-0.015632
-0.016284
-0.015991
-0.014751
-0.015719
-0.016371
-0.017023
-0.017044
-0.016436
-0.016142
-0.015218
-0.015870
-0.016837
-0.016544
-0.016565
-0.015956
-0.016293
-0.016315
-0.016337
-0.016989
-0.016065
-0.017662
-0.017369
-0.016760
-0.016781
-0.016803
-0.016194
-0.015901
-0.017183
-0.016890
-0.016596
-0.016302
-0.017270
-0.016976
-0.016367
-0.017019
-0.016726
-0.017062
-0.017399
-0.017421
-0.017127
-0.016519
-0.016540
-0.016877
-0.015953
-0.016605
-0.016311
-0.016018
-0.016985
-0.017322
-0.015767
-0.016104
-0.017702
-0.017093
-0.018060
-0.017767
-0.017158
-0.017810
-0.017516
-0.017223
-0.015984
-0.016005
-0.016342
-0.016994
-0.017961
-0.016407
-0.016744
-0.017081
-0.016157
-0.018069
-0.018091
-0.017482
-0.017189
-0.015949
-0.017862
-0.017569
-0.018221
-0.017927
-0.017003
-0.017655
-0.018307
-0.018644
-0.017720
-0.017742
-0.018394
-0.017785
-0.017491
-0.018143
-0.017219
-0.017871
-0.018523
-0.017915
-0.017936
-0.017958
-0.017979
-0.018631
-0.017077
-0.017099
-0.017435
-0.017457
-0.017794
-0.017816
-0.017837
-0.017544
-0.018196
-0.018217
-0.017608
-0.018260
-0.018597
-0.017988
-0.019271
-0.018032
-0.018053
-0.019021
-0.017466
-0.017488
-0.017194
-0.016585
-0.017868
-0.017574
-0.017281
-0.018248
-0.018900
-0.017661
-0.017682
-0.018019
-0.017410
-0.018378
-0.017769
-0.019051
-0.018127
-0.017203
-0.018170
-0.017877
-0.018844
-0.018551
-0.017942
-0.019224
-0.018615
-0.019267
-0.019919
-0.019626
-0.020278
-0.018408
-0.018115
-0.019397
-0.019419
-0.019440
-0.018832
-0.018853
-0.018244
-0.018581
-0.018918
-0.018940
-0.018961
-0.019298
-0.020265
-0.019972
-0.020309
-0.019700
-0.019721
-0.018167
-0.018189
-0.019156
-0.019177
-0.019514
-0.018905
-0.019557
-0.019264
-0.018655
-0.018992
-0.019329
-0.019350
-0.018111
-0.019394
-0.019730
-0.018491
-0.019774
-0.019165
-0.019817
-0.019838
-0.020175
-0.020512
-0.020534
-0.019610
-0.019947
-0.019653
-0.020305
-0.020957
-0.019087
-0.019739
-0.020076
-0.020728
-0.020435
-0.020456
-0.020163
-0.020500
-0.020206
-0.019912
-0.021825
-0.020586
-0.020292
-0.020629
-0.020020
-0.020357
-0.020064
-0.019455
-0.020737
-0.020129
-0.020150
-0.020802
-0.020193
-0.020530
-0.019291
-0.019628
-0.020910
-0.019986
-0.019378
-0.019084
-0.020682
-0.020703
-0.020725
-0.021062
-0.020138
-0.020474
-0.020496
-0.019887
-0.019909
-0.019300
-0.019952
-0.021550
-0.021256
-0.021278
-0.020669
-0.021006
-0.021343
-0.020734
-0.021071
-0.021092
-0.020483
-0.020505
-0.020842
-0.021809
-0.021200
-0.020907
-0.020298
-0.019689
-0.020341
-0.019732
-0.021015
-0.021982
-0.022004
-0.021395
-0.021417
-0.020808
-0.020829
-0.020536
-0.020557
-0.021209
-0.021231
-0.020622
-0.020644
-0.021611
-0.020372
-0.021970
-0.021361
-0.019176
-0.019828
-0.020165
-0.020817
-0.020208
-0.021490
-0.022142
-0.021849
-0.023131
-0.021577
-0.020653
-0.020044
-0.020066
-0.020403
-0.021685
-0.022022
-0.021098
-0.020489
-0.020511
-0.021478
-0.020869
-0.021521
-0.022173
-0.022195
-0.023162
-0.022238
-0.020999
-0.021020
-0.021042
-0.021379
-0.021400
-0.021107
-0.021128
-0.022411
-0.022748
-0.022454
-0.021530
-0.020921
-0.022204
-0.021595
-0.021617
-0.021638
-0.021660
-0.021997
-0.021703
-0.021094
-0.021116
-0.023344
-0.022105
-0.022126
-0.021833
-0.022485
-0.022506
-0.021898
-0.022550
-0.021310
-0.022908
-0.022299
-0.023267
-0.023288
-0.021419
-0.023016
-0.022092
-0.021168
-0.021820
-0.021842
-0.021548
-0.021255
-0.021907
-0.021298
-0.021950
-0.022602
-0.022624
-0.023906
-0.022982
-0.022688
-0.023025
-0.022416
-0.023384
-0.023090
-0.022481
-0.023449
-0.023155
-0.022546
-0.021937
-0.022274
-0.022296
-0.021687
-0.023600
-0.023306
-0.023328
-0.022089
-0.023056
-0.023393
-0.022469
-0.023751
-0.023458
-0.023794
-0.023816
-0.022892
-0.023229
-0.023881
-0.022957
-0.024554
-0.024261
-0.023337
-0.023359
-0.023695
-0.024347
-0.023739
-0.022499
-0.023151
-0.023803
-0.024771
-0.024477
-0.022923
-0.024205
-0.022651
-0.023933
-0.023324
-0.023661
-0.024313
-0.023704
-0.024041
-0.024378
-0.024715
-0.024421
-0.024443
-0.023519
-0.022910
-0.023877
-0.025475
-0.024236
-0.025203
-0.024909
-0.024931
-0.024953
-0.024344
-0.024050
-0.023757
-0.023778
-0.025061
-0.024452
-0.024158
-0.025126
-0.024832
-0.025799
-0.023930
-0.023951
-0.023973
-0.024625
-0.025277
-0.024983
-0.025320
-0.025342
-0.025048
-0.024124
-0.023515
-0.024167
-0.024189
-0.024211
-0.026439
-0.025515
-0.024591
-0.024928
-0.024319
-0.024656
-0.023732
-0.024384
-0.024405
-0.024742
-0.025079
-0.025100
-0.025752
-0.024513
-0.023904
-0.024241
-0.023633
-0.024285
-0.025567
-0.024643
-0.025295
-0.025001
-0.024077
-0.023784
-0.023805
-0.024773
-0.024479
-0.025131
-0.024838
-0.024229
-0.024566
-0.025533
-0.024609
-0.025261
-0.025913
-0.025619
-0.025641
-0.025978
-0.024738
-0.024445
-0.026043
-0.025119
-0.025455
-0.025792
-0.026129
-0.026466
-0.026172
-0.025879
-0.026215
-0.024976
-0.025313
-0.026280
-0.026302
-0.026954
-0.026660
-0.025421
-0.025128
-0.025464
-0.026116
-0.026453
-0.026790
-0.027757
-0.027464
-0.026855
-0.026877
-0.027844
-0.027550
-0.026941
-0.026333
-0.025724
-0.027321
-0.027028
-0.027365
-0.027071
-0.025517
-0.026169
-0.026821
-0.027158
-0.026864
-0.027201
-0.026907
-0.025983
-0.025690
-0.026026
-0.026363
-0.025754
-0.026091
-0.028004
-0.027711
-0.026471
-0.026493
-0.026199
-0.025906
-0.025927
-0.025319
-0.025971
-0.025677
-0.024753
-0.026351
-0.027003
-0.026394
-0.026416
-0.027068
-0.026774
-0.026165
-0.026187
-0.026839
-0.026860
-0.026567
-0.026589
-0.026610
-0.027577
-0.027914
-0.027305
-0.027012
-0.027664
-0.027370
-0.028022
-0.026783
-0.026805
-0.027457
-0.026533
-0.028130
-0.027522
-0.026282
-0.025989
-0.026956
-0.027293
-0.026369
-0.027021
-0.026727
-0.026749
-0.028031
-0.028683
-0.027444
-0.026835
-0.028118
-0.027824
-0.028161
-0.027867
-0.027574
-0.026965
-0.027302
-0.027639
-0.027345
-0.029258
-0.028649
-0.028356
-0.027747
-0.027453
-0.028420
-0.028442
-0.028464
-0.028485
-0.027876
-0.027583
-0.027604
-0.028257
-0.027017
-0.027669
-0.028321
-0.027713
-0.027104
-0.026810
-0.027462
-0.026853
-0.027505
-0.028473
-0.028810
-0.027570
-0.027592
-0.026983
-0.027635
-0.028918
-0.027363
-0.027385
-0.028352
-0.028374
-0.027765
-0.027786
-0.029069
-0.028460
-0.028167
-0.028503
-0.028525
-0.029177
-0.029514
-0.029535
-0.029557
-0.028633
-0.028339
-0.028991
-0.029644
-0.029665
-0.030002
-0.030024
-0.028784
-0.028176
-0.029143
-0.029480
-0.029186
-0.029523
-0.029229
-0.028936
-0.028327
-0.028349
-0.029316
-0.029022
-0.029359
-0.030011
-0.029402
-0.029109
-0.029445
-0.028521
-0.028543
-0.030141
-0.029217
-0.029869
-0.030521
-0.029282
-0.028673
-0.028694
-0.029346
-0.029998
-0.029390
-0.030357
-0.031639
-0.030400
-0.029791
-0.029813
-0.029519
-0.029226
-0.029563
-0.029584
-0.029606
-0.029943
-0.029649
-0.029040
-0.029692
-0.029714
-0.029736
-0.029442
-0.029779
-0.029800
-0.029192
-0.028898
-0.029550
-0.029572
-0.028963
-0.030245
-0.029636
-0.029658
-0.029995
-0.029386
-0.029093
-0.029745
-0.028821
-0.029788
-0.031070
-0.029516
-0.028907
-0.029874
-0.030211
-0.030233
-0.030254
-0.029961
-0.030298
-0.030319
-0.030656
-0.030678
-0.030069
-0.028514
-0.030112
-0.031710
-0.029840
-0.029231
-0.030514
-0.030851
-0.030872
-0.030894
-0.030600
-0.030622
-0.030643
-0.030665
-0.030371
-0.031339
-0.029784
-0.030752
-0.031088
-0.029849
-0.031447
-0.031784
-0.031175
-0.031196
-0.031218
-0.030924
-0.030316
-0.030652
-0.031304
-0.030381
-0.031348
-0.031054
-0.030761
-0.031097
-0.031119
-0.031141
-0.031162
-0.031184
-0.030575
-0.031542
-0.031564
-0.030640
-0.031922
-0.032890
-0.031966
-0.032302
-0.031694
-0.032346
-0.032682
-0.031758
-0.032410
-0.032432
-0.031508
-0.031845
-0.031551
-0.031573
-0.032225
-0.031931
-0.032268
-0.031659
-0.031996
-0.031703
-0.032355
-0.033007
-0.033344
-0.033680
-0.032126
-0.032463
-0.033745
-0.033452
-0.033158
-0.033180
-0.032886
-0.032908
-0.033244
-0.033896
-0.032973
-0.032994
-0.032701
-0.031777
-0.031798
-0.032135
-0.031841
-0.032809
-0.033145
-0.032537
-0.032243
-0.032895
-0.032286
-0.031678
-0.032014
-0.032036
-0.034264
-0.033655
-0.033046
-0.033068
-0.032144
-0.033111
-0.032502
-0.033154
-0.032861
-0.032252
-0.032904
-0.032926
-0.032317
-0.030763
-0.032045
-0.029860
-0.029251
-0.027697
-0.024882
-0.021121
-0.017360
-0.014545
-0.009839
-0.005132
0.001781
0.006487
0.009302
0.011172
0.013041
0.013965
0.014259
0.015183
0.016737
0.017661
0.019216
0.022976
0.030835
0.037432
0.044976
0.055356
0.065736
0.072964
0.077040
0.079540
0.079203
0.073508
0.060563
0.047933
0.038140
0.027717
0.014142
0.004979
0.004327
0.007458
0.010903
0.020338
0.040804
0.062216
0.081422
0.099997
0.108171
0.099954
0.070618
0.038446
0.014785
-0.013290
-0.037582
-0.053364
-0.072612
-0.088709
-0.075177
-0.026973
0.024698
0.067859
0.113542
0.152605
0.171495
0.160442
0.128900
0.066784
-0.026537
-0.121119
-0.209712
-0.290740
-0.362943
-0.432309
-0.482447
-0.491610
-0.468622
-0.423885
-0.372844
-0.306673
-0.215602
-0.134302
-0.065610
0.018843
0.120631
0.191214
0.209159
0.205355
0.183269
0.129664
0.040440
-0.045947
-0.089466
-0.121953
-0.195101
-0.289998
-0.338876
-0.321562
-0.255706
-0.175037
-0.059064
0.094417
0.205661
0.247561
0.234932
0.214737
0.197064
0.148817
0.084810
0.011661
-0.058965
-0.142830
-0.259791
-0.355004
-0.411131
-0.482703
-0.597143
-0.682269
-0.663378
-0.545200
-0.348851
-0.090093
0.202077
0.422065
0.488236
0.471509
0.450369
0.424816
0.377829
0.292703
0.193393
0.110159
0.014631
-0.129122
-0.309438
-0.433334
-0.471495
-0.465212
-0.407552
-0.289374
-0.151968
-0.055223
0.042468
0.166636
0.236589
0.200004
0.092499
0.005481
-0.005572
0.024035
0.032209
-0.002170
-0.027723
-0.032472
-0.123587
-0.320924
-0.510697
-0.614420
-0.638397
-0.601224
-0.444276
-0.182681
0.049601
0.297642
0.600213
0.805072
0.800007
0.638288
0.499578
0.358031
0.142412
-0.144443
-0.476371
-0.655742
-0.598712
-0.382191
-0.177647
-0.105487
0.000083
0.176259
0.365673
0.552566
0.696906
0.859843
0.931372
0.877136
0.699972
0.387586
0.054397
-0.159646
-0.282596
-0.404285
-0.517149
-0.664054
-0.673532
-0.388612
0.025856
0.357741
0.451019
0.439965
0.572643
0.576719
0.421303
0.244454
0.247900
0.507288
0.654465
0.642781
0.379567
-0.013195
-0.185316
-0.109059
-0.084495
-0.487028
-0.856780
-0.669573
-0.413651
-0.483647
-0.661127
-0.540742
-0.423824
-0.381294
-0.029551
0.292247
0.225088
-0.104634
0.057043
0.544322
0.358331
-0.190770
-0.451148
-0.290417
0.370853
0.850882
0.613830
-0.093818
-0.759229
-1.012041
-0.930426
-0.755826
-0.732208
-0.967369
-1.254224
-1.233442
-1.142686
-1.617085
-1.959414
-1.227855
-0.157454
0.520521
0.651308
0.622603
0.824625
1.343109
2.216509
2.802131
2.369338
1.232387
0.338771
-0.198983
-0.703957
-0.814614
-0.620787
-0.732075
-1.316163
-2.094731
-2.512394
-2.408084
-1.997084
-1.347476
-0.515683
0.367488
1.135611
1.590740
1.820815
1.786751
1.361209
0.754425
0.729503
1.015684
0.625759
-0.245163
-0.863609
-1.033524
-1.236535
-1.774604
-1.992114
-1.654556
-1.241034
-0.727593
0.157469
1.368764
2.035393
2.078554
2.284358
3.082740
4.018550
4.029561
2.994734
1.961484
1.268966
0.661553
0.155318
-0.352492
-0.621695
-0.863476
-1.369395
-1.901791
-2.333637
-2.266206
-1.403838
-0.296559
0.577156
0.854827
-0.050767
-0.958567
-0.398162
1.100912
2.204724
2.247885
1.873405
1.171746
-0.007442
-1.225715
-1.597359
-1.314645
-0.864245
0.443187
1.782454
2.308187
2.499808
2.941067
3.580588
3.303505
1.916284
0.408342
-0.882427
-1.286537
-0.129141
1.645419
2.569566
2.483179
1.752837
0.971118
0.500816
0.237287
0.291795
0.403039
0.788508
1.639529
2.681246
3.388851
3.730192
3.581080
2.227586
0.002876
-1.969672
-3.063441
-2.622497
-0.861176
0.802433
1.491440
0.753534
-0.763235
-1.825799
-2.203116
-2.573813
-2.800464
-2.474568
-1.434427
0.075679
1.422826
2.152494
2.211730
2.109899
2.056608
1.763134
1.050444
-0.146711
-2.029743
-3.910253
-4.925221
-4.902233
-4.926210
-5.337884
-5.015455
-3.298893
-1.492498
-0.684975
-0.041356
1.774809
4.859974
7.115845
6.441924
2.490859
-1.753657
-4.327294
-5.331546
-4.892808
-3.643688
-2.700944
-2.839339
-3.176310
-3.486489
-4.060492
-4.078480
-3.206656
-0.575696
3.008432
4.502147
4.743885
5.241880
6.731498
8.540414
7.828039
4.438347
0.965127
-0.742968
-1.652029
-3.149886
-5.372389
-8.068008
-9.812982
-9.623568
-8.313930
-5.953727
-3.179351
-0.943968
1.617018
4.211100
5.828374
6.457808
5.954726
4.900988
4.525247
3.056389
0.300566
-1.153792
-0.996213
1.305992
3.716627
3.948278
2.301962
-1.800399
-6.610071
-8.504134
-6.743759
-2.490460
0.241995
-0.031937
-0.728552
0.438930
3.884370
7.157079
8.663087
8.240696
6.805250
3.386874
-0.774429
-3.913536
-6.497575
-7.558878
-5.866271
-2.195148
-0.032576
-1.959105
-5.154003
-5.464182
-3.387345
-1.411688
-0.663107
-0.124136
1.523083
3.557998
4.739980
5.427096
3.980933
2.121541
2.598103
4.073852
5.232194
2.789996
-0.028237
0.215392
-0.085962
-0.272267
-2.118421
-5.722449
-6.370208
-4.301252
0.020131
4.155860
5.304746
4.853987
4.276202
4.895550
6.193210
5.228674
1.838667
-2.621447
-4.441123
-3.076325
-1.738949
0.743866
2.740957
3.644302
4.110462
4.561493
5.007165
2.649756
-0.645690
-2.021249
-2.039237
-2.544525
-4.164049
-3.258183
0.544378
3.334200
5.137127
4.789124
2.456300
-0.537814
-3.229336
-3.766145
-4.628556
-5.146453
-4.314659
-4.309953
-3.392110
-2.368989
-3.351492
-4.522170
-4.058846
-1.833234
-1.110815
-4.308550
-6.580539
-5.085563
-3.261833
-2.840431
-2.165607
-1.246818
-0.335594
-0.201655
-2.890340
-5.295660
-7.268209
-8.871657
-9.138654
-9.526373
-9.460202
-8.948968
-8.257124
-5.551146
-1.401863
2.436632
4.561694
6.112776
7.719649
5.434421
1.559320
-1.170342
-0.947516
-0.357797
-1.895999
-2.087032
-0.059682
2.122432
4.163652
5.755394
4.894874
2.155442
0.519843
0.913507
1.143897
1.662696
-0.064941
-0.785197
2.298077
7.003058
10.880953
9.372065
7.054056
9.937807
11.250597
7.795659
3.878321
1.652981
2.267601
0.798743
-1.367654
-2.024869
-4.138313
-6.768371
-6.489439
-5.215104
-5.718501
-9.282184
-12.179217
-10.521912
-6.858984
-2.711278
-1.280918
-1.609694
0.355562
4.134484
7.693395
10.545941
11.117064
10.248349
6.424940
0.425070
-3.152166
-3.532005
-4.147614
-5.371245
-4.801384
-3.947841
-5.069033
-10.156081
-14.001238
-10.637751
-3.426292
3.011664
6.448278
6.465592
6.951926
7.760394
6.281765
1.775632
-3.317406
-5.367494
-3.426193
0.273613
2.777547
2.132310
-1.577942
-5.312463
-7.466883
-7.771073
-6.993494
-4.593576
-1.856078
0.669920
2.503422
2.916944
3.606266
4.808106
4.694612
4.593411
5.614955
7.506769
8.666371
5.635063
4.232397
4.656006
2.342725
0.576318
0.842326
0.675563
0.506593
1.165972
4.834889
9.883755
10.267963
0.000000
0.000000
0.000000
0.000000
0.000000
0.000000
0.000000
0.000000
0.000000
0.000000
0.000000
0.000000
0.000000
0.000000
0.000000
0.000000
0.000000
0.000000
0.000000
0.000000
0.000000
0.000000
0.000000
0.000000
0.000000
0.000000
0.000000
0.000000
0.000000
0.000000
0.000000
0.000000
0.000000
0.000000
0.000000
0.000000
0.000000
0.000000
0.000000
0.000000
0.000000
0.000000
0.000000
0.000000
0.000000
0.000000
0.000000
0.000000
0.000000
0.000000
0.000000
0.000000
0.000000
0.000000
0.000000
0.000000
0.000000
0.000000
0.000000
0.000000
0.000000
0.000000
0.000000
0.000000
0.000000
0.000000
0.000000
0.000000
0.000000
0.000000
0.000000
0.000000
0.000000
0.000000
0.000000
0.000000
0.000000
0.000000
0.000000
0.000000
0.000000
0.000000
0.000000
0.000000
0.000000
0.000000
0.000000
0.000000
0.000000
0.000000
0.000000
0.000000
0.000000
0.000000
0.000000
0.000000
0.000000
0.000000
0.000000
0.000000
