EVENT_NAME: 202302060117
EVENT_ID: 13194
EVENT_DATE_YYYYMMDD: 2023/02/06
EVENT_TIME_HHMMSS: 01:17:32.00000
EVENT_LATITUDE_DEGREE: 37.288
EVENT_LONGITUDE_DEGREE: 37.043
EVENT_DEPTH_KM: 8.6
HYPOCENTER_REFERENCE: AFAD
MAGNITUDE_W: 7.7
MAGNITUDE_W_REFERENCE: AFAD
MAGNITUDE_L: 
MAGNITUDE_L_REFERENCE: 
FOCAL_MECHANISM: 
NETWORK: TK
STATION_CODE: 0142
STATION_NAME: 
STATION_LATITUDE_DEGREE: 37.62072
STATION_LONGITUDE_DEGREE: 35.611148
STATION_ELEVATION_M: 370.0
LOCATION: Kahramanmaras_Pazarck_Turkiye
SENSOR_DEPTH_M: 
VS30_M/S: None
SITE_CLASSIFICATION_EC8: unknown
MORPHOLOGIC_CLASSIFICATION: 
EPICENTRAL_DISTANCE_KM: 131.69
EARTHQUAKE_BACKAZIMUTH_DEGREE: 
DATE_TIME_FIRST_SAMPLE_YYYYMMDD_HHMMSS: 2023/02/06 01:17:34.7382980
DATE_TIME_FIRST_SAMPLE_PRECISION: millisecond
SAMPLING_INTERVAL_S: 0.01
NDATA: 12501
DURATION_S: 
STREAM: HNZ
UNITS: cm/s^2
INSTRUMENT: sensor = ACEBOX/SARA | digitizer = 
INSTRUMENT_ANALOG/DIGITAL: 
INSTRUMENTAL_FREQUENCY_HZ: 
INSTRUMENTAL_DAMPING: 
FULL_SCALE_G: 
N_BIT_DIGITAL_CONVERTER: 
PGA_CM/S^2: 10.936
TIME_PGA_S: 
BASELINE_CORRECTION: BASELINE REMOVED
FILTER_TYPE: BUTTERWORTH
FILTER_ORDER: 
LOW_CUT_FREQUENCY_HZ: 
HIGH_CUT_FREQUENCY_HZ: 
LATE/NORMAL_TRIGGERED: 
DATABASE_VERSION: 
HEADER_FORMAT: DYNA 1.2
DATA_TYPE: Acceleration
PROCESSING: Automatic Paolucci et al., 2011
DATA_TIMESTAMP_YYYYMMDD_HHMMSS: 
DATA_LICENSE: U (unknown license)
DATA_CITATION: Turkish Accelerometric Archive v 1.0 - Disaster And Emergency Management Presidency, Earthquake Department
DATA_CREATOR: AFAD
ORIGINAL_DATA_MEDIATOR_CITATION: : AFAD - Disaster And Emergency Management Presidency
ORIGINAL_DATA_MEDIATOR: AFAD PROCESS SERVICE
ORIGINAL_DATA_CREATOR_CITATION: AFAD PROCESS SERVICE
ORIGINAL_DATA_CREATOR: network: TK
USER1: GuestUser
USER2: 
USER3: 
USER4: 
USER5: 
[...]
-2.316774
-2.067314
-1.676408
-1.370603
-0.841055
-0.071864
0.548164
1.129382
1.362475
0.998217
0.487601
-0.051070
-0.700094
-1.235024
-1.462511
-1.441939
-1.058046
-0.192765
0.544161
0.723248
0.595358
0.270144
-0.053200
-0.136902
-0.232761
-0.650325
-1.233652
-1.690260
-2.319878
-3.214857
-3.758671
-3.826007
-3.465494
-2.841024
-2.716646
-3.079268
-3.397702
-3.799369
-4.488138
-5.277206
-5.845569
-6.294462
-6.585776
-6.265710
-5.582790
-4.884440
-4.073166
-3.326654
-2.973155
-3.137517
-3.479097
-3.726690
-3.883103
-3.673857
-3.276404
-2.945583
-2.351974
-1.620191
-1.029154
-0.536312
-0.122259
0.282208
0.483505
0.246199
-0.216489
-0.471096
-0.332924
-0.201533
-0.342047
-0.585432
-0.751665
-0.507816
0.088598
0.515276
0.521118
0.066614
-0.491462
-0.519754
0.049306
0.470373
0.049535
-0.808269
-1.347642
-1.283116
-0.749593
-0.497796
-0.757547
-0.835170
-0.520715
-0.244135
-0.423694
-0.961897
-1.475786
-1.797494
-1.823447
-1.762429
-1.697201
-1.341598
-0.913518
-0.615429
-0.378360
-0.241591
-0.069753
-0.047544
-0.410166
-0.701012
-0.665711
-0.748478
-1.219348
-1.779529
-2.219070
-2.473677
-2.384603
-2.037416
-1.530546
-1.022507
-0.643524
-0.107429
0.573854
1.131458
1.283658
0.812086
0.297028
0.081933
-0.194184
-0.585563
-1.207233
-1.905587
-2.162533
-2.169082
-2.140327
-1.737730
-0.767708
0.422318
1.220266
1.703055
2.314666
3.020731
3.751579
4.262658
4.105544
3.267846
2.239369
1.738339
1.921634
2.413307
2.905916
3.142984
3.199561
3.323705
3.892297
4.991376
5.681543
5.556693
5.138895
4.636228
4.127951
3.599800
3.154181
2.946332
2.805818
2.806985
3.062756
3.476108
3.832179
3.783546
3.234121
2.258482
1.259698
0.650654
0.276810
0.086029
0.236826
0.805652
1.539072
1.989363
2.231341
2.284177
2.120282
1.932541
1.404390
0.549859
-0.207880
-0.989233
-1.865040
-2.733132
-3.527577
-4.104825
-4.360367
-4.207233
-3.846953
-3.589545
-3.536008
-3.710890
-3.866835
-3.821949
-3.524093
-2.776412
-1.761734
-0.614493
0.863337
2.510670
3.887967
4.440662
4.195874
3.760307
3.075746
2.124189
1.280179
0.541611
0.025150
-0.285335
-0.652399
-0.890641
-0.773043
-0.472616
-0.290958
-0.060904
0.489453
1.043784
1.410843
1.824896
2.843782
4.759748
6.668701
7.664675
7.678934
6.974968
6.001200
5.057592
4.283253
3.357413
2.023832
0.855544
0.013872
-0.553557
-0.501890
0.283433
1.547339
2.399527
2.535595
2.516655
2.396013
2.297816
2.236091
1.916254
1.291078
0.367810
-0.299683
-0.346912
0.066906
0.988767
1.914368
2.340110
2.607572
3.019520
3.163069
2.568053
1.612054
0.520686
-0.847966
-2.055063
-2.672057
-2.543471
-1.870371
-1.241224
-0.899883
-0.697183
-0.506874
-0.508513
-0.664224
-0.650900
-0.776686
-1.296419
-1.817556
-1.903362
-1.420806
-0.857591
-0.596910
-0.562310
-0.848013
-1.128104
-0.979177
-0.735329
-0.668466
-0.865793
-1.331286
-1.674268
-1.795845
-1.980314
-2.277239
-2.503089
-2.494909
-2.225343
-1.868337
-1.800538
-1.903177
-1.581007
-0.931988
-0.385840
-0.082373
0.003662
0.429638
1.654266
3.384129
5.097861
6.194835
6.472818
6.412730
6.236211
5.597942
4.140681
1.996056
-0.277624
-2.267709
-3.780146
-4.694529
-4.830368
-4.131083
-3.211794
-2.565347
-1.811821
-0.627640
0.695650
1.808757
2.633591
3.023796
2.808233
2.077147
1.095196
-0.001082
-1.384229
-2.827696
-3.922103
-4.867114
-5.563598
-5.704814
-5.432910
-5.003427
-4.687803
-4.223484
-3.299052
-2.214469
-1.148122
-0.398570
-0.040395
0.397505
0.600906
0.262132
-0.042509
-0.192609
-0.175544
0.166733
0.184032
-0.294086
-0.575814
-0.584467
-0.491652
-0.351376
-0.398605
-0.738081
-1.282831
-1.850026
-2.381215
-2.965477
-3.838011
-5.136757
-6.143958
-6.134608
-5.266755
-4.072755
-2.997991
-1.855660
-0.690417
0.063811
0.793957
1.411881
1.520361
1.772859
2.173352
1.963867
1.055562
-0.296256
-1.648541
-2.443688
-2.710219
-2.857748
-2.904276
-2.593562
-1.878846
-1.136776
-0.769482
-0.743066
-1.060798
-1.555983
-1.880730
-2.287774
-2.864320
-3.465649
-4.352444
-5.430252
-6.331075
-6.827429
-6.601116
-5.624547
-4.250990
-2.609502
-0.751517
0.914520
2.220743
3.422224
4.505405
5.152553
5.193465
4.762575
3.862219
2.482345
1.006615
-0.324396
-1.249767
-1.528924
-1.475153
-1.128200
-0.481519
-0.059751
-0.069339
-0.376785
-0.723976
-0.881558
-0.968299
-0.938375
-0.562899
0.149946
0.990211
1.935218
3.272068
4.637208
5.188032
5.015020
4.762984
4.577580
4.416492
4.401760
4.456232
4.601184
4.911899
4.968943
4.747534
4.437049
3.824498
3.165655
2.627685
2.156114
2.024717
2.154005
2.554030
3.325325
4.101997
4.744469
5.356548
5.941273
6.563873
7.297994
7.737530
7.608238
7.609639
8.029068
8.406181
8.492918
8.340947
8.274312
7.896961
6.779174
5.373817
3.549260
1.615755
0.436011
-0.437691
-1.216472
-1.537478
-1.722882
-1.764968
-1.468749
-1.252489
-1.126007
-0.752401
-0.285043
0.340830
1.163093
1.732387
2.146439
2.501575
2.548800
2.672476
3.106635
3.519285
3.720816
3.544297
2.858333
2.076747
1.890174
2.263312
2.779534
3.394419
3.851022
3.823198
3.462681
3.006540
2.536137
1.951876
1.202553
0.575273
0.248656
0.034027
-0.324386
-0.929924
-1.453398
-1.649089
-1.917256
-2.545472
-3.471545
-4.226713
-4.222273
-3.809389
-3.498208
-3.582143
-4.060495
-4.023323
-3.431351
-2.864161
-2.214908
-1.783789
-1.504169
-0.845565
0.214703
1.494741
2.357685
2.741110
3.207299
3.614338
4.114662
4.736560
4.878473
4.975964
5.146400
4.594402
3.814452
3.118201
2.259695
2.062368
2.406749
2.592148
2.758376
2.792975
2.657838
2.144183
1.403745
0.897338
0.107802
-0.676123
-1.231861
-1.864753
-1.997552
-2.126610
-2.421197
-2.361581
-2.278585
-1.558025
-0.498925
0.024544
0.636857
1.058157
1.206149
1.466129
1.252670
0.636845
-0.379474
-1.726148
-2.581849
-2.991230
-2.933250
-2.190011
-1.488856
-1.291066
-1.341100
-1.207838
-0.797293
-0.373187
0.131579
0.478064
-0.015250
-1.353041
-2.897274
-3.980459
-4.682554
-5.442398
-5.962599
-6.060796
-5.706362
-4.629962
-3.110282
-1.351427
0.097178
0.223660
-0.251418
-0.136392
0.239551
0.337510
0.018141
-0.717622
-1.642292
-2.447726
-2.801464
-2.484671
-1.767383
-1.205571
-1.033031
-1.251867
-1.524243
-1.541079
-1.628288
-1.527056
-0.950280
-0.664115
-0.873366
-1.239495
-1.546005
-1.694001
-1.964039
-2.424622
-3.206676
-4.111474
-4.616011
-4.914105
-4.951982
-5.007161
-5.296370
-4.824336
-3.835142
-3.149885
-2.652600
-2.355914
-2.031639
-1.481049
-0.799533
-0.090428
0.429301
0.704712
0.777187
0.799863
0.879819
1.239163
1.741591
1.777827
1.722649
1.786240
2.033828
3.152546
4.441468
5.223751
5.886564
6.435985
6.901941
7.211486
7.479182
7.728641
7.245146
6.027528
4.683425
3.590654
2.730044
1.703905
0.684781
-0.150579
-1.260651
-2.557059
-3.398264
-3.772810
-4.043783
-4.109950
-4.209316
-4.800825
-5.389763
-5.640162
-6.011902
-6.566004
-6.924885
-6.977960
-6.982638
-7.134141
-7.166641
-6.584488
-5.457588
-4.452028
-3.841352
-3.528533
-3.323262
-2.869931
-2.417068
-2.265804
-1.969585
-1.400291
-0.711293
-0.047545
0.316475
0.569909
0.563361
0.205882
0.101606
-0.407607
-1.428602
-1.588521
-1.427437
-1.384187
-0.557950
0.486420
1.159988
1.602330
1.861141
2.199210
2.264904
1.933144
1.654689
1.220291
0.488503
-0.303137
-1.040769
-1.831240
-2.877251
-3.948045
-4.609928
-4.773588
-4.331246
-3.088148
-1.834296
-1.169145
-0.366755
0.323880
0.650726
1.225631
1.486313
1.373386
1.122519
0.720386
1.155480
2.098616
3.072613
4.405957
5.124179
4.886639
4.040524
2.969497
2.271376
1.349043
0.170001
-0.751162
-1.840426
-2.903972
-3.483792
-3.680184
-3.520035
-3.000540
-2.337493
-1.646625
-0.864575
-0.314219
0.009588
0.318198
0.437199
0.746043
1.019116
0.634984
0.296677
0.041135
-0.797732
-1.643847
-1.893077
-1.660919
-1.100509
-0.451490
0.075954
0.764952
1.953341
3.217948
4.083230
4.614649
4.614880
3.917694
3.061526
2.586916
2.134048
1.333758
1.087567
1.425635
1.234153
0.906834
0.685660
0.271369
0.183926
0.073104
-0.359891
-0.716200
-1.284330
-2.119924
-2.813836
-3.080368
-3.112400
-3.298505
-3.752308
-4.798787
-5.876595
-6.199471
-6.231503
-5.979005
-5.501359
-5.136170
-4.397373
-3.634963
-3.147965
-2.364513
-1.864657
-2.048658
-2.101264
-1.710591
-1.070457
-0.236972
0.746143
1.738376
2.318893
2.286860
2.146813
1.976840
1.344416
0.522383
-0.285389
-1.076328
-1.440820
-1.514235
-1.493429
-1.125434
-0.376350
0.703323
1.646693
2.109609
2.306698
1.880249
0.745395
-0.457260
-1.583698
-2.526605
-3.208827
-3.886374
-4.176285
-3.788184
-3.357766
-2.933894
-1.932542
-0.692484
0.186825
0.747001
1.096058
1.388770
1.764947
2.277429
3.140606
4.025994
4.442618
4.924940
5.985675
7.237657
8.308213
8.902757
8.521197
7.318074
5.920198
4.400280
2.805546
1.312515
-0.084426
-1.193095
-2.173877
-2.940501
-3.092471
-3.275537
-3.462577
-3.236264
-2.821743
-1.647382
-0.379736
0.188623
0.998261
1.585090
1.747576
2.243224
2.473278
2.361989
2.138710
1.668074
1.669708
2.154367
2.518621
3.547093
5.123352
5.475214
4.920177
4.482039
3.917650
3.612542
3.423865
2.922602
2.521403
2.239441
2.260247
2.563246
2.751918
3.088116
3.598026
4.110507
4.817507
5.459279
5.628545
5.671562
5.708967
5.395910
4.700829
3.577664
2.697883
2.674501
2.837689
3.220646
4.291202
5.571707
6.694165
7.892842
9.175685
10.214210
10.886842
10.620077
9.469792
8.395024
7.290096
6.278687
5.400542
4.723930
5.380430
6.373365
6.585183
6.624459
6.471553
6.381539
5.922592
5.009144
4.563992
3.727696
2.501661
1.850534
1.791614
2.103965
1.850994
1.610181
1.972096
1.633789
1.402328
1.934448
1.719820
0.630556
-0.711676
-1.794394
-2.037312
-1.851913
-1.385723
-0.493088
0.021498
-0.003988
-0.099848
-0.329439
-0.560433
-0.817145
-1.064505
-1.113137
-1.293864
-1.235184
-0.754265
-0.427886
-0.164399
-0.113434
-0.247402
-0.108061
-0.143367
-0.577297
-0.919578
-1.049572
-1.396763
-1.866464
-1.728292
-1.035086
0.063058
1.549304
2.854358
3.977284
4.946606
5.371880
5.318339
4.945430
4.385717
3.661644
2.912321
2.411058
1.983908
1.472123
0.742206
0.004339
-0.188546
0.038469
0.405529
0.629504
0.529670
0.294702
0.036119
-0.072832
-0.325803
-0.481281
0.145761
0.870296
1.758022
3.148412
4.194653
5.143867
6.254870
7.080172
7.578157
7.235408
6.028311
4.831033
3.611544
2.211096
1.216286
0.355910
-0.570631
-1.066050
-1.625529
-2.041924
-1.837588
-1.613612
-0.929524
0.083050
0.819976
1.620028
1.702790
1.102163
0.535202
-0.562712
-1.683071
-2.696819
-4.272381
-5.228146
-5.330552
-5.607604
-5.483694
-4.855015
-4.234052
-3.189448
-1.900760
-0.792096
0.028297
0.533530
0.875573
0.748385
0.539602
0.777138
1.469175
2.972255
4.432785
5.535370
6.999406
8.018292
8.403120
8.660061
8.683439
8.406620
7.712941
7.396611
7.752215
7.814870
7.639052
7.397537
6.772361
6.304063
6.327908
6.044777
5.310885
4.783904
4.450039
4.189353
3.633848
2.585499
1.941151
1.597934
0.982811
0.697576
0.988184
1.847153
3.221645
4.698306
6.336755
7.718027
8.266746
8.462199
8.654378
8.959013
9.093912
8.319573
6.911643
5.588349
4.781512
4.415149
4.020731
3.827378
3.838832
3.809839
3.964844
4.113303
4.081972
3.870617
3.647338
3.719813
3.864297
3.906145
3.525754
2.794434
2.484416
2.067787
1.258145
1.057545
1.047957
0.548563
0.008957
-0.969019
-2.563987
-3.676864
-4.202209
-4.595692
-4.514567
-4.091864
-3.885189
-3.726911
-3.286907
-2.773724
-2.330447
-1.991209
-2.009448
-2.180356
-2.306609
-2.715756
-3.265884
-3.664043
-4.145667
-4.710991
-5.039713
-5.074317
-4.736716
-4.010544
-3.231300
-2.636289
-2.299155
-1.700169
-0.551292
0.115963
0.333393
0.728274
0.754924
0.831374
1.155414
0.982168
0.920444
1.006712
0.440219
-0.095880
-0.111547
-0.552023
-1.722181
-2.740838
-3.518216
-4.430729
-5.207640
-5.946675
-6.644095
-6.929330
-6.761934
-6.144711
-5.658649
-5.636441
-5.561628
-5.495933
-5.573556
-5.848504
-6.493553
-7.069164
-7.551724
-7.990096
-7.581655
-6.560197
-6.087227
-6.086528
-5.973373
-6.058010
-6.610475
-7.064278
-6.920495
-6.611885
-6.462023
-5.866310
-4.939540
-4.281403
-3.734554
-3.764014
-4.552849
-4.975790
-4.949841
-5.008527
-4.872459
-4.764447
-4.922029
-4.513821
-3.509430
-2.630121
-1.683244
-0.998688
-1.060881
-1.122606
-0.943285
-0.898399
-1.276685
-2.011512
-2.515114
-2.930574
-3.328733
-3.538919
-3.945962
-4.219741
-4.171581
-4.284274
-4.491655
-4.233311
-3.330622
-2.590890
-2.028376
-1.336806
-1.098101
-0.801415
-0.428978
-0.380117
-0.131125
-0.373575
-0.973969
-1.334487
-1.620657
-1.072171
-0.904541
-1.515221
-1.497689
-2.057869
-2.349183
-1.936300
-2.653592
-2.541605
-2.347556
-3.592061
-3.149953
-2.456746
-3.524735
-4.038623
-4.287620
-5.099600
-5.914386
-6.671190
-7.212667
-7.961288
-8.629015
-8.521003
-8.271310
-7.791794
-6.703470
-5.775999
-5.040241
-3.982779
-3.116562
-2.828994
-2.313707
-1.292249
-0.757557
-0.709397
-0.567952
-0.629677
-0.309611
0.718394
1.197909
1.253317
1.758083
1.936936
1.369741
0.908690
0.589321
-0.076302
-1.013598
-2.438594
-3.911052
-4.455334
-4.762079
-5.032351
-4.323480
-3.337559
-2.827416
-2.477657
-2.303948
-2.238253
-2.346504
-2.667276
-2.741860
-2.859696
-3.195431
-3.123658
-2.771094
-2.412685
-2.393983
-3.092338
-3.646674
-4.511259
-6.397070
-7.489840
-7.946449
-8.910397
-9.520844
-10.183428
-10.936258
-10.888799
-10.590008
-10.127326
-9.406999
-8.892647
-8.389986
-7.718522
-7.423472
-7.566091
-7.226620
-6.536219
-6.091772
-5.461457
-4.497280
-3.396331
-2.499487
-2.005008
-1.803477
-2.127522
-2.777715
-3.175640
-3.057809
-2.776085
-2.457422
-1.711144
-1.376582
-1.677481
-1.918295
-2.663409
-3.727423
-4.546885
-5.367048
-6.031268
-6.183706
-5.702086
-5.257172
-5.212987
-5.015898
-4.564204
-3.974336
-3.731657
-4.095915
-4.278747
-4.314988
-4.963076
-5.495669
-5.288761
-5.448914
-5.603690
-4.973609
-4.820708
-5.091681
-5.197594
-5.312157
-5.317536
-5.588977
-5.544325
-4.875900
-4.087305
-2.954325
-2.030127
-1.166950
-0.572640
-1.185191
-1.732045
-2.413800
-3.882751
-4.624124
-4.778199
-4.917778
-4.687023
-4.106273
-3.424756
-3.247540
-3.307628
-3.058636
-2.897085
-2.764758
-2.273786
-1.513480
-0.790113
-0.413936
-0.289792
-0.202588
-0.467950
-0.986515
-1.451774
-2.359143
-3.101686
-3.022664
-3.302054
-3.846103
-4.065875
-4.716535
-5.433360
-5.552599
-5.490645
-5.482464
-5.360190
-5.096236
-4.772429
-4.021708
-2.872831
-1.804380
-0.681220
0.325041
1.030405
1.562058
1.672642
1.496356
1.003275
0.001452
-1.003645
-1.537874
-1.539279
-1.457453
-1.183912
-0.329853
0.145922
0.004239
0.220966
0.688559
0.513910
-0.286848
-0.844691
-1.527849
-2.672756
-3.198803
-3.223587
-2.990260
-2.046189
-0.841434
0.500560
1.702042
2.376544
2.929239
2.947005
2.407165
2.293303
2.511668
2.681168
2.789180
2.604010
2.407151
2.341218
1.917575
1.748771
2.497387
3.300245
3.724351
4.155704
4.381784
3.876078
3.073683
2.791254
2.518644
1.787558
1.123571
0.584198
0.049502
-0.077219
0.297322
0.449989
0.180886
0.070298
0.216419
0.417015
0.524793
0.683773
0.994721
1.184328
0.954035
0.397362
0.521973
0.590240
-0.408311
-0.653800
-0.723474
-1.526804
-1.212349
-0.527091
-0.177099
0.201650
-0.300549
-0.880836
-0.883878
-1.066476
-1.470714
-1.814398
-2.059654
-2.369203
-2.186844
-1.610068
-1.382820
-0.951700
-0.504682
-0.323491
-0.019791
0.420447
1.550854
2.577690
2.996652
3.745035
4.033304
4.236238
5.050551
5.358928
5.713596
6.169264
6.070600
6.128579
6.202457
6.151253
5.942002
5.492407
5.706797
5.955555
5.174202
4.466028
4.415525
4.166763
3.803907
4.077448
4.617751
4.635049
4.183351
3.934822
3.870993
3.091978
1.979568
1.336156
0.821098
0.656269
0.810806
0.645743
0.367990
0.332918
0.710264
0.964867
0.894024
1.170370
1.234896
1.092277
1.270896
1.122199
1.102090
1.533677
1.793657
1.895591
1.692418
1.569439
1.911482
2.093374
2.209101
2.737948
3.507840
4.123426
4.483705
4.874144
5.178780
4.964152
4.569032
4.531622
4.573469
4.745074
5.141592
4.854954
4.134623
3.689003
2.901337
2.100346
2.031373
2.453609
3.104498
3.361672
2.900622
2.360548
2.066896
1.443123
0.432415
0.162610
0.267583
0.038927
0.603311
1.247187
1.204633
1.866043
2.444923
2.387173
2.896381
3.259933
3.172725
3.036886
2.315853
1.448229
0.572656
-0.271588
-0.303153
-0.351318
-0.695470
-0.691264
-1.115374
-1.523821
-1.410431
-1.824722
-2.087513
-1.968045
-2.418341
-2.203717
-1.295183
-1.121942
-0.638451
0.355886
0.756612
0.989706
1.085794
1.234019
1.699507
1.815936
2.071708
2.102567
1.497497
1.867596
2.430343
2.146979
2.176669
2.052286
1.421499
0.972840
0.697658
0.559248
0.295522
0.257878
0.534458
0.304867
0.074574
-0.121584
-0.555047
-0.514368
-0.700006
-1.268603
-1.452136
-1.401404
-0.949710
-0.654661
-0.555065
0.001604
0.135333
0.172505
0.462645
0.313714
0.367485
0.374496
-0.192932
-0.631304
-0.537320
0.082006
0.759782
1.310840
1.607760
1.428669
1.252618
1.059265
0.757898
0.932776
1.701967
2.293705
2.368752
2.440291
2.142198
1.553026
1.575001
1.784013
1.688855
1.146911
0.199094
-0.650293
-1.376470
-2.088853
-2.709820
-3.023345
-3.298994
-3.588905
-3.151239
-2.657228
-2.390467
-1.721342
-1.428864
-1.244400
-0.652428
-0.439207
-0.297295
-0.014402
0.185726
0.785414
1.427185
1.562785
1.834221
2.742054
3.898412
4.846224
5.429312
5.822557
6.324517
6.416397
5.620549
4.886190
4.727205
4.645841
4.726967
5.051709
5.293920
5.240612
5.013593
4.925215
4.490817
3.745703
3.561235
3.107900
2.307375
2.702257
3.357822
3.352208
3.592082
3.746853
3.769062
4.055695
4.217013
4.429532
4.371548
3.684649
2.853731
1.901005
0.993168
0.447951
0.446078
0.756325
0.752815
1.022381
1.763750
1.897947
1.683085
1.839493
1.630944
0.791609
0.053041
-0.745612
-1.491896
-1.992224
-3.097620
-4.106458
-4.237620
-4.024867
-3.294720
-2.509164
-1.853131
-0.911164
-0.451521
-0.276643
-0.007545
-0.240409
-0.545283
-0.699826
-1.315182
-1.972623
-2.148674
-2.564368
-3.012794
-2.628667
-2.432981
-2.958092
-3.121986
-2.571630
-1.783735
-1.266578
-0.900454
-0.402001
0.045485
0.216622
-0.005721
-0.295398
-0.532004
-0.903276
-1.465795
-2.260240
-2.555295
-2.267492
-2.261182
-2.334129
-2.103374
-1.872384
-1.854618
-1.555360
-1.290470
-1.851820
-2.077670
-2.201819
-3.208786
-3.600866
-3.411493
-3.425991
-3.371284
-3.327333
-2.897382
-2.548559
-2.421142
-1.929936
-1.841329
-1.647280
-0.779193
-0.085519
0.791920
1.909001
2.439017
2.305049
1.673560
0.702130
-0.236802
-1.032650
-1.691493
-1.695938
-1.188132
-0.905240
-0.817802
-0.782501
-0.455187
-0.173931
-0.904316
-1.690111
-1.599868
-1.027067
-0.214624
0.359112
0.948045
1.725653
1.567837
0.791394
0.590560
0.546370
0.075967
-0.504320
-0.959292
-1.351372
-1.614630
-1.497967
-1.112906
-0.709140
0.096523
1.130840
1.899563
2.944400
3.901564
3.682026
2.632742
1.428683
0.025897
-1.464095
-2.265788
-2.349957
-2.563884
-2.707906
-2.196827
-1.320791
-0.505776
0.151192
0.384519
0.363475
0.673722
0.846028
1.061119
1.714346
1.603056
1.006871
0.700360
0.111189
