EVENT_NAME: 202302060117
EVENT_ID: 13194
EVENT_DATE_YYYYMMDD: 2023/02/06
EVENT_TIME_HHMMSS: 01:17:32.00000
EVENT_LATITUDE_DEGREE: 37.288
EVENT_LONGITUDE_DEGREE: 37.043
EVENT_DEPTH_KM: 8.6
HYPOCENTER_REFERENCE: AFAD
MAGNITUDE_W: 7.7
MAGNITUDE_W_REFERENCE: AFAD
MAGNITUDE_L: 
MAGNITUDE_L_REFERENCE: 
FOCAL_MECHANISM: 
NETWORK: TK
STATION_CODE: 99009
STATION_NAME: 
STATION_LATITUDE_DEGREE: 35.12698
STATION_LONGITUDE_DEGREE: 33.92635
STATION_ELEVATION_M: 10.0
LOCATION: Kahramanmaras_Pazarck_Turkiye
SENSOR_DEPTH_M: 
VS30_M/S: 409
SITE_CLASSIFICATION_EC8: B
MORPHOLOGIC_CLASSIFICATION: 
EPICENTRAL_DISTANCE_KM: 368.65
EARTHQUAKE_BACKAZIMUTH_DEGREE: 
DATE_TIME_FIRST_SAMPLE_YYYYMMDD_HHMMSS: 2023/02/06 01:17:59.0828740
DATE_TIME_FIRST_SAMPLE_PRECISION: millisecond
SAMPLING_INTERVAL_S: 0.01
NDATA: 21001
DURATION_S: 
STREAM: HNE
UNITS: cm/s^2
INSTRUMENT: sensor = CMG-5T/GURALP | digitizer = 
INSTRUMENT_ANALOG/DIGITAL: 
INSTRUMENTAL_FREQUENCY_HZ: 
INSTRUMENTAL_DAMPING: 
FULL_SCALE_G: 
N_BIT_DIGITAL_CONVERTER: 
PGA_CM/S^2: 11.479
TIME_PGA_S: 
BASELINE_CORRECTION: BASELINE REMOVED
FILTER_TYPE: BUTTERWORTH
FILTER_ORDER: 
LOW_CUT_FREQUENCY_HZ: 
HIGH_CUT_FREQUENCY_HZ: 
LATE/NORMAL_TRIGGERED: 
DATABASE_VERSION: 
HEADER_FORMAT: DYNA 1.2
DATA_TYPE: Acceleration
PROCESSING: Automatic Paolucci et al., 2011
DATA_TIMESTAMP_YYYYMMDD_HHMMSS: 
DATA_LICENSE: U (unknown license)
DATA_CITATION: Turkish Accelerometric Archive v 1.0 - Disaster And Emergency Management Presidency, Earthquake Department
DATA_CREATOR: AFAD
ORIGINAL_DATA_MEDIATOR_CITATION: : AFAD - Disaster And Emergency Management Presidency
ORIGINAL_DATA_MEDIATOR: AFAD PROCESS SERVICE
ORIGINAL_DATA_CREATOR_CITATION: AFAD PROCESS SERVICE
ORIGINAL_DATA_CREATOR: network: TK
USER1: GuestUser
USER2: 
USER3: 
USER4: 
USER5: 
[...]
-1.301844
-1.202141
-1.079550
-0.945045
-0.793295
-0.602353
-0.368771
-0.100073
0.177091
0.425096
0.642061
0.809488
0.936468
1.086337
1.253450
1.447213
1.695218
1.970815
2.246097
2.494729
2.696958
2.856546
2.963147
3.078213
3.176035
3.228081
3.212403
3.156280
3.088555
3.044973
3.073190
3.140599
3.286078
3.483604
3.679249
3.867996
4.030406
4.155505
4.290951
4.402569
4.469351
4.532370
4.586297
4.621726
4.638029
4.610437
4.550864
4.476869
4.411026
4.334522
4.297838
4.293761
4.288743
4.326053
4.377472
4.409765
4.388757
4.344234
4.256757
4.124131
4.011885
3.938830
3.915628
3.928482
3.950115
4.021600
4.098101
4.189025
4.331683
4.516981
4.747428
4.946835
5.116770
5.291721
5.406787
5.468553
5.513074
5.535334
5.572957
5.655416
5.789294
5.933833
6.057991
6.181523
6.318223
6.422629
6.472794
6.465895
6.438617
6.358665
6.215065
6.058297
5.860769
5.622168
5.373220
5.161584
4.972521
4.823905
4.689084
4.544544
4.400630
4.262361
4.122837
3.983313
3.883294
3.790487
3.751921
3.735303
3.686077
3.645003
3.573203
3.487607
3.375361
3.249946
3.080636
2.871821
2.706901
2.571453
2.476765
2.383644
2.267635
2.146923
2.009908
1.834641
1.638994
1.410113
1.196282
0.978374
0.774576
0.597428
0.418398
0.265393
0.143113
0.106742
0.104233
0.101097
0.104545
0.096705
0.076638
0.034624
-0.041253
-0.098317
-0.161966
-0.204294
-0.212760
-0.155384
-0.058816
0.034616
0.117388
0.156579
0.207684
0.248443
0.302683
0.390472
0.492684
0.557271
0.617155
0.707766
0.824400
0.928492
1.062998
1.215688
1.341414
1.497867
1.624848
1.771895
1.900756
1.997011
2.079783
2.166631
2.260377
2.296119
2.363528
2.411184
2.430623
2.429681
2.473888
2.554152
2.639746
2.757007
2.907817
3.082768
3.218841
3.351779
3.474684
3.587242
3.627373
3.636151
3.606678
3.547105
3.468407
3.382184
3.362744
3.367133
3.342363
3.276206
3.163960
3.088397
3.036349
2.979912
2.945736
2.920652
2.873934
2.781754
2.719046
2.641602
2.530297
2.390459
2.253130
2.087583
1.920154
1.734541
1.545479
1.390905
1.234137
1.072665
0.920914
0.801770
0.717741
0.663499
0.634966
0.654091
0.678232
0.674782
0.641547
0.621480
0.591693
0.554695
0.544974
0.543092
0.557514
0.625864
0.694840
0.745005
0.738733
0.700168
0.614572
0.503579
0.398858
0.268740
0.184712
0.117615
0.089395
0.081870
0.095037
0.090333
0.116356
0.193798
0.272181
0.318896
0.300710
0.307921
0.301649
0.287539
0.283462
0.286910
0.270605
0.197237
0.081542
-0.044500
-0.155492
-0.272755
-0.380298
-0.458996
-0.532678
-0.640848
-0.718292
-0.781314
-0.861580
-0.953446
-1.082937
-1.219639
-1.344740
-1.499000
-1.683673
-1.858940
-1.998777
-2.110710
-2.221075
-2.303536
-2.392894
-2.480058
-2.558129
-2.613625
-2.640277
-2.663166
-2.625542
-2.540262
-2.455295
-2.362803
-2.210426
-2.021366
-1.848296
-1.703130
-1.560159
-1.419383
-1.318112
-1.265753
-1.263559
-1.232207
-1.166679
-1.068230
-0.944385
-0.777899
-0.562188
-0.356823
-0.181872
0.008129
0.209417
0.359599
0.470903
0.544270
0.613246
0.702289
0.850277
1.027736
1.201747
1.346599
1.408051
1.407423
1.350672
1.234977
1.096394
0.948404
0.813897
0.663713
0.542688
0.448626
0.356133
0.255174
0.135402
0.014377
-0.168101
-0.364061
-0.544031
-0.695469
-0.830917
-0.931876
-1.053215
-1.188036
-1.284605
-1.399360
-1.536062
-1.658028
-1.742370
-1.839253
-1.955575
-2.107954
-2.251240
-2.355962
-2.450964
-2.554118
-2.660093
-2.797422
-2.982095
-3.166768
-3.347678
-3.546774
-3.770952
-3.954684
-4.088878
-4.184507
-4.259129
-4.302398
-4.319016
-4.310865
-4.301147
-4.323722
-4.341908
-4.305226
-4.264467
-4.264154
-4.205524
-4.128082
-4.102060
-4.110526
-4.115544
-4.166964
-4.292066
-4.455418
-4.573308
-4.642914
-4.776167
-4.960526
-5.109143
-5.244904
-5.380352
-5.468770
-5.518309
-5.536495
-5.528030
-5.542140
-5.579138
-5.618958
-5.684802
-5.735595
-5.728698
-5.645299
-5.546850
-5.443698
-5.309820
-5.169671
-5.074357
-4.960858
-4.818201
-4.664257
-4.542920
-4.469553
-4.313414
-4.062587
-3.769433
-3.472203
-3.152712
-2.822875
-2.538813
-2.290181
-2.053777
-1.833677
-1.592570
-1.385011
-1.185603
-0.982120
-0.816262
-0.690849
-0.582367
-0.483918
-0.411806
-0.388605
-0.411494
-0.435010
-0.507437
-0.625327
-0.767360
-0.891207
-1.022579
-1.112564
-1.134512
-1.193144
-1.286265
-1.391300
-1.542111
-1.744028
-1.955979
-2.177962
-2.398692
-2.603431
-2.763334
-2.864607
-2.913206
-2.930451
-2.953340
-2.982813
-3.004448
-3.067470
-3.194138
-3.332408
-3.457509
-3.549062
-3.618982
-3.657234
-3.663819
-3.642813
-3.614909
-3.597666
-3.545307
-3.507997
-3.498278
-3.475391
-3.455326
-3.424914
-3.373182
-3.293545
-3.182868
-3.039584
-2.894105
-2.742982
-2.579318
-2.387749
-2.193672
-2.035651
-1.852548
-1.705188
-1.602349
-1.501706
-1.376920
-1.199774
-1.038618
-0.847990
-0.634787
-0.463598
-0.334423
-0.268581
-0.169192
-0.073251
0.025825
0.145594
0.232443
0.302987
0.317722
0.240278
0.090408
-0.076707
-0.217485
-0.341333
-0.483365
-0.611601
-0.783419
-0.953042
-1.121411
-1.261562
-1.363149
-1.480098
-1.614919
-1.807430
-1.995238
-2.189944
-2.363957
-2.476203
-2.565561
-2.718881
-2.922993
-3.133376
-3.333098
-3.471681
-3.573581
-3.629705
-3.638171
-3.648519
-3.698999
-3.783340
-3.924432
-4.102834
-4.255526
-4.322624
-4.294407
-4.214456
-4.130430
-4.077443
-4.033550
-4.018501
-4.012858
-4.031985
-4.046722
-4.064594
-4.127616
-4.210390
-4.281563
-4.321696
-4.341136
-4.314800
-4.250840
-4.156781
-4.059586
-3.952985
-3.829767
-3.699965
-3.587093
-3.497110
-3.384552
-3.285162
-3.192043
-3.044996
-2.833675
-2.544283
-2.209116
-1.860466
-1.537526
-1.255660
-1.000130
-0.734253
-0.457403
-0.182121
0.087832
0.334896
0.565657
0.798612
1.065743
1.340084
1.614740
1.856161
2.094760
2.326461
2.527122
2.692354
2.827486
2.976101
3.161085
3.365195
3.597524
3.840826
4.108270
4.369757
4.554114
4.785188
5.028804
5.259878
5.420093
5.591909
5.785673
5.998875
6.240923
6.509935
6.748534
6.912825
7.026637
7.121324
7.304114
7.399427
7.554312
7.617018
7.639906
7.685367
7.713271
7.738980
7.757477
7.855613
7.900134
7.904836
7.816732
7.718908
7.603526
7.505075
7.431394
7.405683
7.368058
7.318832
7.284969
7.226024
7.171468
7.098727
7.016580
6.894614
6.724677
6.498304
6.226469
5.918577
5.578077
5.231307
4.919653
4.633394
4.358424
4.099129
3.895645
3.689651
3.470803
3.289266
3.230634
3.208685
3.158205
3.045646
2.882920
2.714865
2.458706
2.189379
1.977742
1.859538
1.730675
1.632851
1.540044
1.423721
1.324957
1.210829
1.110497
1.024901
0.947771
0.848693
0.729863
0.595042
0.471195
0.305647
0.135711
-0.060563
-0.250566
-0.478820
-0.727768
-0.919338
-1.125018
-1.299658
-1.438241
-1.530421
-1.676216
-1.864651
-2.061552
-2.273502
-2.491723
-2.693013
-2.891795
-3.067062
-3.205332
-3.307858
-3.401920
-3.570602
-3.706991
-3.855607
-4.013003
-4.097344
-4.140613
-4.146571
-4.149394
-4.117101
-4.032447
-3.946540
-3.871292
-3.791969
-3.713900
-3.711393
-3.775041
-3.808904
-3.787898
-3.732090
-3.708262
-3.645242
-3.555572
-3.548989
-3.567175
-3.626121
-3.710462
-3.866290
-3.980731
-4.060370
-4.153804
-4.201149
-4.193938
-4.143147
-4.120573
-4.068841
-4.018363
-3.958792
-3.880096
-3.725211
-3.523922
-3.277171
-3.019447
-2.805931
-2.597745
-2.413387
-2.232792
-2.107693
-2.039657
-2.027743
-2.041853
-1.956259
-1.771588
-1.511355
-1.247987
-1.026006
-0.832556
-0.704007
-0.595525
-0.479205
-0.321498
-0.106728
0.138455
0.401510
0.644185
0.839516
1.035161
1.186284
1.336466
1.510163
1.666929
1.800494
1.899257
2.053201
2.239754
2.410629
2.599689
2.770251
2.953355
3.158092
3.320188
3.483539
3.625569
3.751923
3.853194
3.944431
4.023441
4.056048
4.097120
4.185849
4.314711
4.464580
4.591247
4.655520
4.679662
4.652697
4.585599
4.520383
4.484326
4.468021
4.501568
4.576502
4.647673
4.689059
4.709124
4.738909
4.738595
4.713825
4.680903
4.700654
4.767750
4.845192
4.948971
5.027040
5.058079
5.027038
4.954611
4.911969
4.884064
4.822296
4.732624
4.630098
4.492142
4.323145
4.166064
4.077332
3.994245
3.840298
3.684157
3.494468
3.300702
3.058339
2.767691
2.507770
2.251925
2.035899
1.910798
1.853733
1.789144
1.696023
1.545526
1.323856
1.061113
0.836935
0.665744
0.539075
0.427142
0.325556
0.168474
-0.073262
-0.313431
-0.536041
-0.725730
-0.892845
-1.054630
-1.204814
-1.296681
-1.311731
-1.296369
-1.281634
-1.285397
-1.333996
-1.390433
-1.430253
-1.477911
-1.494530
-1.528392
-1.541875
-1.537800
-1.533098
-1.418032
-1.307982
-1.245590
-1.266597
-1.312688
-1.364109
-1.497989
-1.601143
-1.656012
-1.658521
-1.619331
-1.589232
-1.546592
-1.519943
-1.540637
-1.583279
-1.658214
-1.749768
-1.827212
-1.854176
-1.763879
-1.585479
-1.371022
-1.159387
-0.999172
-0.892258
-0.851499
-0.811054
-0.719503
-0.631087
-0.544239
-0.512259
-0.498778
-0.511007
-0.612907
-0.716374
-0.800716
-0.848688
-0.891329
-0.852138
-0.744911
-0.655868
-0.611660
-0.597866
-0.578427
-0.555854
-0.510392
-0.521994
-0.589405
-0.650859
-0.682213
-0.702280
-0.667479
-0.621704
-0.546770
-0.470582
-0.425120
-0.411639
-0.480618
-0.614498
-0.785062
-0.868149
-0.912672
-0.935561
-0.940579
-0.871288
-0.790397
-0.759672
-0.743369
-0.666868
-0.666241
-0.759049
-0.821129
-0.844959
-0.787897
-0.710768
-0.528292
-0.443638
-0.301295
-0.264926
-0.290323
-0.264614
-0.313213
-0.299732
-0.318858
-0.199716
-0.062389
0.034179
0.093436
0.148304
0.098451
-0.081519
-0.203485
-0.276853
-0.359627
-0.460900
-0.533014
-0.681003
-0.881980
-1.092989
-1.293339
-1.485850
-1.637915
-1.728841
-1.771797
-1.756434
-1.770544
-1.725710
-1.714737
-1.752676
-1.829806
-1.948323
-2.046774
-2.136132
-2.186926
-2.271581
-2.379124
-2.552824
-2.737183
-2.906493
-3.040373
-3.128163
-3.188050
-3.239157
-3.295594
-3.322559
-3.347329
-3.377116
-3.434493
-3.491244
-3.533572
-3.606627
-3.646760
-3.630457
-3.650211
-3.747094
-3.848053
-3.916405
-3.974723
-4.068471
-4.207054
-4.363195
-4.585492
-4.813746
-4.995284
-5.103768
-5.105023
-5.038241
-4.937284
-4.821590
-4.743521
-4.746971
-4.770801
-4.758887
-4.770489
-4.786167
-4.845739
-4.898414
-4.903745
-4.907822
-4.894968
-4.889639
-4.902808
-4.936984
-4.949840
-4.999380
-5.037318
-5.103475
-5.144235
-5.139847
-5.201928
-5.271847
-5.246452
-5.082787
-4.951731
-4.795278
-4.605590
-4.478923
-4.466696
-4.519998
-4.502441
-4.502129
-4.491156
-4.488649
-4.510597
-4.549163
-4.597448
-4.584907
-4.503076
-4.364181
-4.245979
-4.225287
-4.234380
-4.177004
-4.136559
-4.186412
-4.190803
-4.107404
-4.050341
-4.030903
-4.016795
-3.946878
-3.872257
-3.839024
-3.801087
-3.700130
-3.580360
-3.526747
-3.475642
-3.355872
-3.197852
-3.038263
-2.920375
-2.836663
-2.823182
-2.849206
-2.843563
-2.838234
-2.795281
-2.659835
-2.439421
-2.219947
-2.049385
-1.963478
-1.975393
-2.057854
-2.077607
-2.062245
-2.049391
-1.962856
-1.815496
-1.697294
-1.629258
-1.595711
-1.600102
-1.611076
-1.586621
-1.521407
-1.450549
-1.333288
-1.251770
-1.180599
-1.071176
-0.971787
-0.948586
-1.032614
-1.174333
-1.327966
-1.472193
-1.574092
-1.607328
-1.563434
-1.519854
-1.621440
-1.843423
-2.084219
-2.292720
-2.413432
-2.462344
-2.529128
-2.669279
-2.841724
-3.014169
-3.208875
-3.375990
-3.527742
-3.670087
-3.836889
-4.037865
-4.228182
-4.375858
-4.480893
-4.502214
-4.449541
-4.324755
-4.147923
-3.981123
-3.841915
-3.840034
-3.920927
-4.001507
-4.014363
-4.012482
-4.025025
-4.016874
-3.942253
-3.826560
-3.716824
-3.634679
-3.534035
-3.393886
-3.339332
-3.304217
-3.279449
-3.292618
-3.346860
-3.372571
-3.311433
-3.183512
-3.107324
-3.075031
-2.969684
-2.822010
-2.733594
-2.684684
-2.571812
-2.442323
-2.363000
-2.424140
-2.540776
-2.563351
-2.473995
-2.318483
-2.166733
-2.029719
-1.988020
-2.129111
-2.363323
-2.509431
-2.526676
-2.516958
-2.500028
-2.513511
-2.547060
-2.580295
-2.563365
-2.485610
-2.371171
-2.259553
-2.200296
-2.144174
-2.069867
-1.943827
-1.832210
-1.777029
-1.789885
-1.888022
-2.047612
-2.112515
-2.028175
-1.870781
-1.692695
-1.529658
-1.384492
-1.315515
-1.291061
-1.208288
-1.049014
-0.912313
-0.886918
-0.948685
-0.987565
-0.957153
-0.900717
-0.834876
-0.787847
-0.740190
-0.727650
-0.798196
-0.798197
-0.690029
-0.565870
-0.425094
-0.211578
0.043325
0.243046
0.411413
0.601414
0.813676
1.031268
1.167028
1.186780
1.201828
1.342604
1.549850
1.817921
2.170647
2.486375
2.737515
2.890206
2.889578
2.744410
2.525562
2.357193
2.303891
2.292603
2.277866
2.374434
2.623693
2.871698
2.956038
2.955410
2.949452
2.889566
2.810240
2.710536
2.623685
2.553766
2.545927
2.560976
2.579160
2.645315
2.735298
2.919342
3.170796
3.350137
3.377727
3.327874
3.250116
3.200891
3.308432
3.628236
4.045550
4.407682
4.645027
4.762915
4.816528
4.846627
4.920933
5.050109
5.220984
5.474946
5.734866
6.004504
6.313962
6.640351
6.994017
7.306924
7.576876
7.834601
8.039338
8.176352
8.272292
8.392689
8.551963
8.725033
8.926008
9.181538
9.486920
9.806097
10.043128
10.152238
10.234696
10.273260
10.226543
10.182960
10.257894
10.353521
10.369197
10.471408
10.653885
10.743241
10.744181
10.755154
10.795285
10.799987
10.792775
10.789012
10.805001
10.885265
11.018516
11.090001
11.076832
11.011302
11.004090
11.172457
11.334867
11.433943
11.479091
11.463100
11.409171
11.348971
11.309779
11.182169
11.031044
10.958930
10.850760
10.688975
10.453823
10.135585
9.801356
9.577491
9.412257
9.297816
9.278063
9.217550
8.984592
8.616815
8.332125
8.134911
7.994133
7.795351
7.528532
7.298083
6.987369
6.444953
5.929501
5.531311
5.246621
5.143780
5.031221
5.000180
4.844666
4.681313
4.562169
4.412926
4.440829
4.316669
4.158333
4.058001
3.986514
3.984632
3.863920
3.612151
3.480779
3.488616
3.317739
3.049352
3.035869
2.858408
2.227575
1.943512
1.774515
1.354378
1.148698
1.022343
0.682470
0.315634
0.065432
-0.189786
-0.393898
-0.568851
-0.840060
-1.128512
-1.438599
-1.739280
-1.848391
-1.778787
-1.720157
-1.770010
-1.812025
-1.906399
-2.108003
-2.341901
-2.543505
-2.553225
-2.537549
-2.479860
-2.336576
-2.302715
-2.326544
-2.418097
-2.587093
-2.839803
-3.107249
-3.327979
-3.408872
-3.395391
-3.483495
-3.677260
-3.845943
-3.870086
-3.816159
-3.800483
-3.850336
-3.990173
-4.114334
-4.200557
-4.304024
-4.311237
-4.292425
-4.330364
-4.336949
-4.285530
-4.259508
-4.231604
-4.082363
-3.824325
-3.625231
-3.537129
-3.563467
-3.596075
-3.680103
-3.853176
-3.964481
-4.060424
-4.172043
-4.305610
-4.496867
-4.855865
-5.378842
-5.799920
-5.931292
-5.940699
-5.986789
-6.016889
-6.045422
-6.198428
-6.411632
-6.511651
-6.533599
-6.568403
-6.596622
-6.597877
-6.649924
-6.832403
-6.929286
-6.817668
-6.738658
-6.844007
-6.976320
-6.985727
-6.955315
-7.006735
-7.109262
-7.111144
-7.030880
-6.877876
-6.697595
-6.582842
-6.521390
-6.434542
-6.289063
-6.186224
-6.103766
-5.939788
-5.664192
-5.381698
-5.092307
-4.727353
-4.422912
-4.210964
-3.974873
-3.754773
-3.571669
-3.354704
-3.091336
-2.864965
-2.729519
-2.570558
-2.323180
-2.034729
-1.803968
-1.672598
-1.599859
-1.491377
-1.432120
-1.466610
-1.485423
-1.432123
-1.349351
-1.337124
-1.409238
-1.437770
-1.356252
-1.187885
-1.014501
-0.940508
-0.901944
-0.875295
-0.833595
-0.793464
-0.774026
-0.811024
-0.789704
-0.699094
-0.652692
-0.591240
-0.409077
-0.207789
-0.170793
-0.219078
-0.309377
-0.522268
-0.740489
-0.741117
-0.600027
-0.519450
-0.480886
-0.311578
-0.124085
-0.094614
-0.103394
-0.163593
-0.356732
-0.462707
-0.436998
-0.310331
-0.175512
-0.099324
-0.101207
-0.152627
-0.292778
-0.565868
-0.627949
-0.355801
-0.155140
-0.177402
-0.088986
0.005387
-0.079582
-0.220987
-0.311286
-0.372113
-0.313483
-0.160479
-0.012178
0.043944
0.100693
0.121385
0.063067
0.111037
0.149601
0.036414
-0.122863
-0.204069
-0.311299
-0.426681
-0.535478
-0.492525
-0.365231
-0.262706
-0.214736
-0.146073
-0.073961
-0.094342
-0.013451
0.226402
0.414209
0.420165
0.433333
0.490395
0.466252
0.353065
0.273740
0.206329
0.158984
0.096903
0.036077
0.012561
-0.054850
-0.059241
0.060529
0.193466
0.322015
0.371239
0.369670
0.446485
0.555594
0.575032
0.492258
0.454006
0.495705
0.402585
0.177466
-0.021630
-0.227936
-0.557776
-0.951263
-1.131860
-1.169171
-1.296467
-1.452295
-1.444458
-1.342246
-1.268566
-1.165415
-0.915528
-0.702012
-0.649966
-0.752180
-0.894212
-0.906127
-0.828058
-0.820534
-0.868506
-0.834331
-0.788243
-0.839036
-0.823987
-0.629597
-0.494464
-0.502304
-0.606398
-0.708611
-0.830264
-0.893285
-0.844375
-0.706734
-0.507013
-0.237688
-0.153662
-0.177805
-0.136419
-0.027937
-0.005363
-0.058352
-0.079046
-0.061489
-0.102563
-0.214496
-0.275009
-0.269993
-0.161511
-0.010702
0.254547
0.431694
0.459911
0.253604
0.112826
0.090878
0.203122
0.216603
0.393749
0.698190
0.918291
0.856524
0.789740
0.729540
0.628581
0.483100
0.514139
0.719503
0.850246
0.873133
0.611645
0.615720
0.424776
0.472746
0.206554
0.377116
0.289325
0.307196
0.160774
0.177391
0.621668
0.664308
0.781256
0.569305
0.762755
0.711335
0.842078
0.814172
0.849601
0.654267
0.373653
0.229113
0.341671
0.354838
0.336652
0.378665
0.510976
0.522262
0.440742
0.427259
0.317207
0.417538
0.436662
0.566465
0.527899
0.771201
0.920129
1.063413
1.024221
1.152142
1.070622
0.893787
0.908209
0.948027
0.958059
0.881242
0.978751
0.986588
0.894721
0.801287
0.972790
1.190695
1.359690
1.440267
1.639988
1.691093
1.666636
1.590760
1.497953
1.378182
1.323626
1.374104
1.532438
1.798314
2.005246
2.126583
2.185213
2.226912
2.142571
2.076414
2.214368
2.350441
2.336645
2.294630
2.299646
2.489020
2.841118
3.261881
3.505810
3.700200
3.824046
3.778582
3.646270
3.614915
3.725279
3.823728
3.823413
3.786729
3.719945
3.518968
3.348718
3.375681
3.468173
3.425845
3.397312
3.530250
3.650960
3.595777
3.617096
3.694852
3.692342
3.548429
3.449038
3.500143
3.458755
3.394166
3.420502
3.461261
3.510798
3.571310
3.724000
3.814924
3.811161
3.880451
3.842512
3.739986
3.719918
3.818367
3.780429
3.826517
4.133467
4.566144
4.944893
5.152138
5.336809
5.466298
5.590143
5.685143
5.708344
5.695175
5.853822
6.088659
6.142272
6.147601
6.309071
6.492488
6.586861
6.601596
6.579647
6.452351
6.277712
6.210928
6.188980
6.132229
6.095858
6.224093
6.360793
6.550794
6.833915
7.161871
7.369117
7.342779
7.263140
7.268783
7.180678
7.136783
7.289160
7.413318
7.485430
7.582625
7.801785
7.944756
7.875777
7.590146
7.295736
7.142103
7.105105
7.062777
7.097579
7.241177
7.344956
7.332100
7.250580
7.252147
7.176584
7.056499
6.910077
6.834201
6.828556
6.782466
6.646704
6.390859
6.176714
6.151003
6.250079
6.161975
5.990471
5.923687
5.825550
5.675993
5.516089
5.469372
5.499156
5.438016
5.325456
5.283442
5.262120
5.162729
5.197844
5.348653
5.366524
5.182164
5.006898
4.968959
4.821910
4.459777
4.217414
4.140597
4.032426
3.912655
3.786300
3.833015
4.002950
4.104848
4.114253
4.122091
4.199846
4.287949
4.331529
4.344383
4.395175
4.455059
4.390156
