EVENT_NAME: 202302060117
EVENT_ID: 13194
EVENT_DATE_YYYYMMDD: 2023/02/06
EVENT_TIME_HHMMSS: 01:17:32.00000
EVENT_LATITUDE_DEGREE: 37.288
EVENT_LONGITUDE_DEGREE: 37.043
EVENT_DEPTH_KM: 8.6
HYPOCENTER_REFERENCE: AFAD
MAGNITUDE_W: 7.7
MAGNITUDE_W_REFERENCE: AFAD
MAGNITUDE_L: 
MAGNITUDE_L_REFERENCE: 
FOCAL_MECHANISM: 
NETWORK: TK
STATION_CODE: 1810
STATION_NAME: 
STATION_LATITUDE_DEGREE: 40.34595
STATION_LONGITUDE_DEGREE: 33.98762
STATION_ELEVATION_M: 553.0
LOCATION: Kahramanmaras_Pazarck_Turkiye
SENSOR_DEPTH_M: 
VS30_M/S: None
SITE_CLASSIFICATION_EC8: unknown
MORPHOLOGIC_CLASSIFICATION: 
EPICENTRAL_DISTANCE_KM: 430.85
EARTHQUAKE_BACKAZIMUTH_DEGREE: 
DATE_TIME_FIRST_SAMPLE_YYYYMMDD_HHMMSS: 2023/02/06 01:18:06.7741970
DATE_TIME_FIRST_SAMPLE_PRECISION: millisecond
SAMPLING_INTERVAL_S: 0.01
NDATA: 21001
DURATION_S: 
STREAM: HNZ
UNITS: cm/s^2
INSTRUMENT: sensor = ACEBOX/SARA | digitizer = 
INSTRUMENT_ANALOG/DIGITAL: 
INSTRUMENTAL_FREQUENCY_HZ: 
INSTRUMENTAL_DAMPING: 
FULL_SCALE_G: 
N_BIT_DIGITAL_CONVERTER: 
PGA_CM/S^2: 2.381
TIME_PGA_S: 
BASELINE_CORRECTION: BASELINE REMOVED
FILTER_TYPE: BUTTERWORTH
FILTER_ORDER: 
LOW_CUT_FREQUENCY_HZ: 
HIGH_CUT_FREQUENCY_HZ: 
LATE/NORMAL_TRIGGERED: 
DATABASE_VERSION: 
HEADER_FORMAT: DYNA 1.2
DATA_TYPE: Acceleration
PROCESSING: Automatic Paolucci et al., 2011
DATA_TIMESTAMP_YYYYMMDD_HHMMSS: 
DATA_LICENSE: U (unknown license)
DATA_CITATION: Turkish Accelerometric Archive v 1.0 - Disaster And Emergency Management Presidency, Earthquake Department
DATA_CREATOR: AFAD
ORIGINAL_DATA_MEDIATOR_CITATION: : AFAD - Disaster And Emergency Management Presidency
ORIGINAL_DATA_MEDIATOR: AFAD PROCESS SERVICE
ORIGINAL_DATA_CREATOR_CITATION: AFAD PROCESS SERVICE
ORIGINAL_DATA_CREATOR: network: TK
USER1: GuestUser
USER2: 
USER3: 
USER4: 
USER5: 
[...]
0.658049
0.669271
0.670440
0.705275
0.716497
0.727953
0.762554
0.769568
0.784764
0.813755
0.825678
0.840875
0.849057
0.853265
0.863084
0.864019
0.862382
0.850692
0.839002
0.833624
0.811880
0.799255
0.785227
0.752495
0.730985
0.700825
0.671132
0.649155
0.608941
0.582288
0.558207
0.521500
0.495548
0.468895
0.445515
0.419095
0.389870
0.373738
0.353397
0.339603
0.326510
0.312482
0.313416
0.301259
0.296816
0.304531
0.295413
0.301257
0.309440
0.304062
0.312244
0.317388
0.322297
0.337260
0.344975
0.343338
0.342402
0.349416
0.345207
0.329776
0.326736
0.318319
0.299381
0.284652
0.268285
0.256595
0.243502
0.220356
0.209601
0.200248
0.175933
0.163775
0.154423
0.129173
0.115378
0.099713
0.073060
0.054824
0.023261
-0.010874
-0.036125
-0.080079
-0.111174
-0.137126
-0.192303
-0.228775
-0.255195
-0.305228
-0.343805
-0.377706
-0.423530
-0.463510
-0.500217
-0.538092
-0.568252
-0.605660
-0.643536
-0.661071
-0.686555
-0.715780
-0.727938
-0.752020
-0.767451
-0.766282
-0.780076
-0.781012
-0.777272
-0.784987
-0.776805
-0.775636
-0.780312
-0.760674
-0.752959
-0.757869
-0.736360
-0.720696
-0.722333
-0.704565
-0.687030
-0.677679
-0.662482
-0.655001
-0.636064
-0.612918
-0.601697
-0.579486
-0.563588
-0.553769
-0.533429
-0.526649
-0.517999
-0.512389
-0.525482
-0.520806
-0.521508
-0.543017
-0.557981
-0.584400
-0.605209
-0.614093
-0.639578
-0.658048
-0.676752
-0.697093
-0.695924
-0.702939
-0.711356
-0.706680
-0.708083
-0.699433
-0.687510
-0.688913
-0.684939
-0.677224
-0.671145
-0.667405
-0.663431
-0.651975
-0.647300
-0.639351
-0.621115
-0.615504
-0.598905
-0.573422
-0.563836
-0.542561
-0.516376
-0.495101
-0.474060
-0.459097
-0.432678
-0.411637
-0.402051
-0.374230
-0.357163
-0.349448
-0.326770
-0.309236
-0.293104
-0.280012
-0.266920
-0.243306
-0.230682
-0.217589
-0.204263
-0.200055
-0.181352
-0.168961
-0.165455
-0.147453
-0.142777
-0.133893
-0.116359
-0.125009
-0.122438
-0.106073
-0.114256
-0.123374
-0.125947
-0.136000
-0.145586
-0.154471
-0.168032
-0.189074
-0.209181
-0.222040
-0.240744
-0.260617
-0.270437
-0.284933
-0.303637
-0.317431
-0.334031
-0.349462
-0.361153
-0.375648
-0.387339
-0.399029
-0.408381
-0.411655
-0.424046
-0.434801
-0.432697
-0.442283
-0.455143
-0.454208
-0.457014
-0.461924
-0.460054
-0.457950
-0.451872
-0.448833
-0.442521
-0.424986
-0.418440
-0.412128
-0.394126
-0.383606
-0.374955
-0.359759
-0.344095
-0.332172
-0.315806
-0.297103
-0.289388
-0.273022
-0.254787
-0.254553
-0.241227
-0.229304
-0.229772
-0.213874
-0.199145
-0.187222
-0.172493
-0.165246
-0.150049
-0.131112
-0.119422
-0.107967
-0.098381
-0.091602
-0.089264
-0.087862
-0.083887
-0.078277
-0.079446
-0.085291
-0.080148
-0.078746
-0.082721
-0.079682
-0.085059
-0.087398
-0.085294
-0.095348
-0.099089
-0.101427
-0.106103
-0.105636
-0.107039
-0.096986
-0.083193
-0.078751
-0.066126
-0.047423
-0.031057
-0.015393
-0.002067
0.009856
0.021078
0.029962
0.035806
0.040716
0.040715
0.039312
0.041182
0.034168
0.027154
0.025283
0.019905
0.016632
0.011488
0.010552
0.009149
0.003070
0.001901
-0.005815
-0.001373
0.007277
0.002834
0.013355
0.022005
0.029252
0.026212
0.049826
0.141006
0.111781
0.059644
0.184024
0.196882
0.149187
0.237796
0.216520
0.197115
0.278709
0.253693
0.249016
0.285021
0.256030
0.259302
0.268420
0.256964
0.249949
0.244572
0.246909
0.208566
0.196642
0.225165
0.190563
0.163909
0.170455
0.148478
0.139827
0.146841
0.122058
0.090495
0.103821
0.103119
0.064776
0.064308
0.055423
0.015210
0.005156
-0.004897
-0.038331
-0.066387
-0.083688
-0.110575
-0.144009
-0.173000
-0.207602
-0.236360
-0.273066
-0.317254
-0.339699
-0.391836
-0.450286
-0.463613
-0.503826
-0.562977
-0.592436
-0.628441
-0.668187
-0.697412
-0.731547
-0.764513
-0.800752
-0.830444
-0.857098
-0.906663
-0.939395
-0.950852
-1.005093
-1.061906
-1.060737
-1.082948
-1.155192
-1.165947
-1.166649
-1.224865
-1.223229
-1.218553
-1.266716
-1.250116
-1.241466
-1.269522
-1.247078
-1.240065
-1.252222
-1.234688
-1.213880
-1.207802
-1.197048
-1.153328
-1.129014
-1.118259
-1.062382
-1.042276
-1.031989
-0.963487
-0.934730
-0.921638
-0.866462
-0.830224
-0.794220
-0.748863
-0.705144
-0.646695
-0.607417
-0.550838
-0.465970
-0.421316
-0.360529
-0.273323
-0.216043
-0.137253
-0.050515
0.012610
0.096543
0.178839
0.256459
0.349744
0.415441
0.481605
0.573721
0.647834
0.720077
0.785774
0.847730
0.935170
0.990579
1.041780
1.115426
1.146988
1.202866
1.265055
1.280485
1.334258
1.369094
1.373769
1.421931
1.442739
1.443440
1.468923
1.495108
1.502823
1.494406
1.511473
1.518954
1.513343
1.533917
1.521992
1.515680
1.530876
1.517549
1.537889
1.538356
1.499780
1.524094
1.528770
1.497440
1.508195
1.497440
1.478502
1.487152
1.475695
1.464473
1.460732
1.450210
1.448340
1.435247
1.417478
1.408827
1.389889
1.372120
1.352481
1.324658
1.304084
1.274157
1.245400
1.227163
1.187417
1.146970
1.125694
1.096703
1.059996
1.026797
1.000845
0.970451
0.937953
0.910832
0.865709
0.837653
0.824092
0.774293
0.743197
0.714440
0.664641
0.656224
0.629804
0.586551
0.570419
0.532544
0.522490
0.520853
0.476197
0.463806
0.443231
0.414006
0.424293
0.388054
0.349243
0.357659
0.326096
0.293832
0.287987
0.257359
0.231641
0.205923
0.162670
0.136952
0.100479
0.051849
0.025663
-0.025071
-0.085391
-0.116019
-0.165117
-0.223800
-0.262377
-0.299318
-0.350753
-0.401254
-0.426972
-0.479343
-0.533117
-0.536390
-0.576370
-0.622194
-0.632248
-0.672695
-0.693504
-0.701921
-0.738861
-0.751019
-0.759202
-0.785856
-0.807599
-0.820692
-0.839864
-0.868855
-0.876805
-0.899483
-0.938762
-0.935021
-0.961441
-1.024099
-1.020124
-1.024099
-1.084419
-1.112242
-1.129543
-1.169055
-1.194306
-1.231012
-1.272161
-1.290865
-1.327572
-1.362408
-1.374566
-1.415714
-1.451486
-1.445875
-1.464579
-1.490531
-1.490999
-1.506196
-1.512509
-1.511574
-1.516017
-1.504561
-1.501288
-1.492404
-1.494275
-1.498250
-1.462012
-1.480950
-1.500823
-1.460610
-1.481185
-1.490069
-1.473704
-1.505968
-1.496383
-1.479316
-1.498955
-1.500592
-1.508776
-1.518595
-1.509010
-1.510881
-1.527013
-1.523974
-1.516026
-1.520234
-1.506207
-1.501297
-1.500129
-1.465761
-1.449396
-1.438875
-1.399831
-1.372477
-1.354709
-1.314263
-1.274284
-1.249501
-1.211627
-1.181000
-1.152243
-1.102211
-1.077429
-1.052179
-1.006121
-0.973390
-0.944399
-0.919851
-0.882210
-0.846907
-0.823761
-0.777002
-0.743102
-0.709670
-0.665716
-0.638128
-0.579446
-0.528946
-0.500657
-0.446416
-0.408775
-0.367393
-0.314555
-0.283227
-0.243014
-0.213556
-0.186202
-0.145522
-0.127988
-0.098529
-0.068136
-0.062993
-0.037977
-0.018105
-0.012026
-0.002207
0.009482
0.046656
0.044785
0.031224
0.078685
0.064423
0.044783
0.096452
0.082190
0.063486
0.084060
0.071435
0.068161
0.060913
0.053197
0.049690
0.026777
0.031453
0.018594
-0.006657
0.001993
-0.020919
-0.037753
-0.033077
-0.062069
-0.072590
-0.068382
-0.094334
-0.112103
-0.111869
-0.130807
-0.150447
-0.152785
-0.171489
-0.189258
-0.198610
-0.217782
-0.224329
-0.245137
-0.261971
-0.257061
-0.293768
-0.309433
-0.300549
-0.338191
-0.342633
-0.336087
-0.374664
-0.373729
-0.366248
-0.394304
-0.390798
-0.393136
-0.406930
-0.389396
-0.400852
-0.402723
-0.372096
-0.385189
-0.368356
-0.337027
-0.348718
-0.321598
-0.297984
-0.294010
-0.260344
-0.249590
-0.243979
-0.232055
-0.228549
-0.209144
-0.201195
-0.201196
-0.194650
-0.194183
-0.187870
-0.177584
-0.171272
-0.169635
-0.164726
-0.146490
-0.141347
-0.150232
-0.139477
-0.124281
-0.127321
-0.116566
-0.099967
-0.104877
-0.092954
-0.075887
-0.073549
-0.057418
-0.044326
-0.029363
-0.005048
0.008044
0.024176
0.045217
0.076312
0.105302
0.121200
0.161880
0.190403
0.214016
0.275505
0.302391
0.339331
0.417418
0.448981
0.495974
0.569152
0.611703
0.673191
0.729536
0.778866
0.847369
0.890153
0.941354
0.996764
1.025287
1.074150
1.117870
1.145224
1.189177
1.213959
1.229624
1.267265
1.287371
1.292046
1.321504
1.335999
1.323608
1.349325
1.372938
1.362885
1.383458
1.396317
1.381353
1.391173
1.396082
1.385093
1.379482
1.367090
1.353997
1.335527
1.313316
1.297651
1.273335
1.244578
1.221432
1.199454
1.169996
1.135627
1.110143
1.081853
1.050757
1.034391
1.003530
0.970564
0.960510
0.928947
0.901826
0.896682
0.867457
0.852962
0.844311
0.823502
0.829113
0.814384
0.798953
0.818825
0.811577
0.805030
0.819058
0.815317
0.813446
0.823031
0.829343
0.825368
0.826771
0.836122
0.831446
0.832848
0.837056
0.833549
0.839627
0.837055
0.834016
0.843601
0.837522
0.832144
0.839859
0.838222
0.834013
0.830038
0.826765
0.832376
0.821621
0.813671
0.830738
0.816944
0.794966
0.807591
0.795667
0.776729
0.772754
0.740256
0.714772
0.700743
0.665440
0.636682
0.604885
0.567945
0.538252
0.497104
0.462501
0.436549
0.401947
0.368514
0.328768
0.297906
0.276163
0.232910
0.201347
0.178201
0.135649
0.116010
0.093565
0.047039
0.028335
0.007526
-0.028713
-0.050456
-0.073836
-0.094177
-0.117791
-0.142808
-0.163148
-0.200790
-0.216689
-0.222768
-0.264384
-0.296648
-0.316755
-0.345279
-0.370763
-0.401391
-0.426642
-0.448151
-0.477143
-0.495847
-0.511511
-0.535827
-0.549621
-0.557337
-0.576742
-0.592875
-0.609942
-0.627010
-0.639168
-0.664886
-0.676810
-0.684993
-0.717491
-0.728714
-0.746717
-0.778981
-0.780150
-0.803998
-0.838367
-0.844680
-0.863384
-0.882322
-0.896817
-0.911080
-0.922302
-0.947085
-0.946384
-0.941708
-0.966725
-0.966258
-0.963453
-0.970935
-0.961817
-0.971637
-0.968832
-0.951998
-0.958311
-0.930256
-0.914592
-0.929088
-0.890278
-0.874380
-0.876718
-0.830193
-0.832298
-0.830428
-0.776421
-0.773382
-0.763796
-0.725220
-0.713297
-0.685709
-0.654848
-0.630300
-0.599439
-0.574657
-0.533042
-0.507090
-0.486750
-0.443966
-0.428068
-0.405858
-0.367515
-0.351851
-0.323095
-0.292234
-0.267919
-0.229109
-0.200586
-0.168556
-0.122499
-0.086494
-0.052828
-0.011212
0.032741
0.065472
0.100308
0.143560
0.169043
0.197566
0.236610
0.258353
0.283369
0.317035
0.342753
0.362391
0.376886
0.396291
0.413358
0.421774
0.432762
0.437438
0.441880
0.452166
0.453803
0.457309
0.464089
0.465258
0.469232
0.474375
0.480453
0.486765
0.486531
0.491207
0.499156
0.497752
0.503129
0.514819
0.509441
0.506401
0.517390
0.513181
0.508037
0.518557
0.508036
0.490267
0.494008
0.485123
0.467354
0.462210
0.447247
0.427607
0.415917
0.396512
0.375236
0.360506
0.341100
0.324734
0.307433
0.273532
0.256231
0.254827
0.228174
0.196144
0.184453
0.171594
0.143538
0.124834
0.115014
0.085555
0.067085
0.061006
0.033885
0.025000
0.021727
-0.000017
0.004659
0.004892
-0.010305
0.008866
0.019854
0.013775
0.039025
0.064508
0.068950
0.090927
0.118748
0.130204
0.152180
0.179067
0.192860
0.208524
0.222786
0.234241
0.250841
0.250139
0.248268
0.266036
0.264399
0.247332
0.252709
0.255982
0.238446
0.232133
0.233536
0.218339
0.210389
0.209687
0.190750
0.179761
0.179293
0.166901
0.155211
0.147028
0.132766
0.121309
0.114295
0.100734
0.082264
0.070574
0.055610
0.040413
0.035737
0.021942
0.000900
-0.011959
-0.024818
-0.040717
-0.050303
-0.060590
-0.085373
-0.101272
-0.108520
-0.134706
-0.153410
-0.171646
-0.197598
-0.206249
-0.231266
-0.258153
-0.266570
-0.286911
-0.297198
-0.310759
-0.329930
-0.325021
-0.331568
-0.339517
-0.336946
-0.340921
-0.330400
-0.327595
-0.334843
-0.325258
-0.322453
-0.326194
-0.326194
-0.329701
-0.337417
-0.347003
-0.348640
-0.357057
-0.371319
-0.371553
-0.380672
-0.390258
-0.388855
-0.405222
-0.415743
-0.412002
-0.422757
-0.435617
-0.446372
-0.458296
-0.467414
-0.481676
-0.493834
-0.504823
-0.524930
-0.542465
-0.546440
-0.558364
-0.580108
-0.584082
-0.593201
-0.609099
-0.613542
-0.625700
-0.626635
-0.624999
-0.637391
-0.633417
-0.631547
-0.627339
-0.613077
-0.613779
-0.603726
-0.588764
-0.578009
-0.556266
-0.544343
-0.523068
-0.492441
-0.476777
-0.451761
-0.423238
-0.393780
-0.353333
-0.326915
-0.300496
-0.258413
-0.220538
-0.185936
-0.144555
-0.098029
-0.059921
-0.014097
0.048794
0.089942
0.133428
0.202865
0.248923
0.296851
0.365821
0.405800
0.447649
0.513112
0.558235
0.604059
0.658299
0.692667
0.740127
0.799512
0.831775
0.870585
0.923891
0.960830
1.006187
1.056453
1.083105
1.117707
1.164700
1.199535
1.230630
1.257750
1.285571
1.315263
1.331395
1.351735
1.370906
1.376984
1.393116
1.406442
1.408312
1.416261
1.423742
1.424677
1.422104
1.419766
1.417194
1.411349
1.405737
1.389371
1.369965
1.359210
1.336532
1.309411
1.288836
1.259611
1.228282
1.197654
1.163519
1.125878
1.087301
1.051997
1.005939
0.956607
0.921771
0.869634
0.809781
0.771906
0.718833
0.656643
0.615027
0.560552
0.498361
0.445523
0.388476
0.334702
0.273213
0.213127
0.167536
0.103475
0.044558
-0.000799
-0.069302
-0.130791
-0.178954
-0.238573
-0.290944
-0.346354
-0.410181
-0.463253
-0.514923
-0.563553
-0.612885
-0.677881
-0.734226
-0.783792
-0.845748
-0.905601
-0.965687
-1.029748
-1.091003
-1.156934
-1.220995
-1.288329
-1.361274
-1.423231
-1.485889
-1.549482
-1.607932
-1.674798
-1.729975
-1.772059
-1.827937
-1.881009
-1.922158
-1.972424
-2.021990
-2.056592
-2.096806
-2.142864
-2.173024
-2.208562
-2.248074
-2.266077
-2.292029
-2.318682
-2.326398
-2.346972
-2.361702
-2.365910
-2.379705
-2.378770
-2.378770
-2.380641
-2.368718
-2.370121
-2.358198
-2.328973
-2.318453
-2.301620
-2.280111
-2.260005
-2.228676
-2.212778
-2.190802
-2.155031
-2.141939
-2.119962
-2.085828
-2.068528
-2.045850
-2.018028
-1.997922
-1.975712
-1.946721
-1.915860
-1.892715
-1.856944
-1.823044
-1.805042
-1.760855
-1.716667
-1.689080
-1.644892
-1.611460
-1.578027
-1.529397
-1.492458
-1.455051
-1.418111
-1.386783
-1.345635
-1.305188
-1.274327
-1.244869
-1.207228
-1.172159
-1.141064
-1.101085
-1.069055
-1.040533
-0.989799
-0.949119
-0.926674
-0.883422
-0.839936
-0.812349
-0.774708
-0.740807
-0.718597
-0.688905
-0.658512
-0.629755
-0.608246
-0.588374
-0.562657
-0.545823
-0.520808
-0.494856
-0.484336
-0.456748
-0.433836
-0.419575
-0.382869
-0.358087
-0.338215
-0.299639
-0.270414
-0.242125
-0.200042
-0.160998
-0.124760
-0.088288
-0.057895
-0.018851
0.030246
0.066718
0.101553
0.143403
0.177537
0.218685
0.263340
0.293967
0.326698
0.362235
0.394966
0.429100
0.452713
0.475625
0.509525
0.533606
0.556985
0.586443
0.605848
0.633202
0.664297
0.687910
0.717836
0.736071
0.755476
0.794520
0.818601
0.832862
0.857410
0.881257
0.905572
0.931757
0.957708
0.981087
1.000258
1.024573
1.049589
1.069227
1.087697
1.103127
1.119025
1.136559
1.149184
1.162510
1.178174
1.190565
1.203891
1.213009
1.219555
1.234985
1.244804
1.251116
1.266313
1.271924
1.274495
1.283846
1.286885
1.292496
1.298107
1.300678
1.308861
1.314004
1.319381
1.337851
1.349540
1.350709
1.363100
1.378997
1.389986
1.399571
1.397934
1.403077
1.415702
1.411493
1.413129
1.417571
1.410323
1.420844
1.423415
1.407516
1.416634
1.423881
1.412191
1.419205
1.427621
1.419672
1.425282
1.431594
1.423645
1.425983
1.427853
1.419436
1.411486
1.403303
1.402133
1.390911
1.371038
1.365426
1.343683
1.317029
1.309781
1.289207
1.258579
1.232393
1.206675
1.184464
1.153836
1.116662
1.081125
1.044418
1.003269
0.959549
0.918166
0.862756
0.805475
0.758949
0.698162
0.635036
0.573781
0.502238
0.438879
0.375286
0.301639
0.228460
0.157619
0.087480
0.011028
-0.060982
-0.125043
-0.199157
-0.272804
-0.330552
-0.389703
-0.453998
-0.503329
-0.545413
-0.588900
-0.627710
-0.661611
-0.680082
-0.701825
-0.730349
-0.731284
-0.732688
-0.747885
-0.746015
-0.741339
-0.746249
-0.744146
-0.729417
-0.724040
-0.726378
-0.709077
-0.700193
-0.698323
-0.678919
-0.672139
-0.661151
-0.639408
-0.634966
-0.617432
-0.598495
-0.596625
-0.578856
-0.564829
-0.560855
-0.547529
-0.547295
-0.545893
-0.532801
-0.538646
-0.540517
-0.535373
-0.544024
-0.543323
-0.540986
-0.543324
-0.542857
-0.553144
-0.550339
-0.540052
-0.546131
-0.543092
-0.537949
-0.530936
-0.515973
-0.509661
-0.491425
-0.469449
-0.453551
-0.419650
-0.392297
-0.371489
-0.333614
-0.299948
-0.270022
-0.236589
-0.205729
-0.170659
-0.138630
-0.106366
-0.068491
-0.041371
-0.017524
0.010999
0.035781
0.057758
0.071785
0.085345
0.103815
0.115036
0.126492
0.140052
0.149170
0.162262
0.176523
0.187979
0.199902
0.217670
0.241284
0.258117
0.276119
0.303005
0.325215
0.347192
0.373844
0.397458
0.422707
0.450763
0.474142
0.500327
0.529317
0.553164
0.579115
0.604131
0.621198
0.644110
0.668658
0.685725
0.710040
0.733887
0.746511
0.764046
0.785321
0.804024
0.826001
0.842133
0.854523
0.869720
0.880708
0.892164
0.904321
0.917413
0.927934
0.930505
0.947572
0.970250
0.973055
0.982173
0.999006
1.005785
1.018176
1.033840
1.044127
1.052543
1.065870
1.082235
1.089950
1.100938
1.119641
1.135773
1.157750
1.177154
1.192585
1.219939
1.244253
1.259450
1.285868
1.308079
1.316495
1.341745
1.360916
1.360682
1.379853
1.389905
1.385463
1.399023
1.399022
1.392943
1.401126
1.398320
1.395748
1.397852
1.395981
1.394110
1.390369
1.392239
1.385692
1.374470
1.380314
1.377275
1.363948
1.366753
1.363246
1.353659
1.355296
1.346645
1.334253
1.332382
1.321160
1.307599
1.296143
1.278841
1.266216
1.247044
1.225067
1.209402
1.184385
1.158901
1.138794
1.110972
1.079877
1.053223
1.024933
0.991968
0.964379
0.940064
0.910138
0.882783
0.856597
0.833451
0.810071
0.780144
0.756063
0.735255
0.710238
0.688261
0.668621
0.647579
0.631681
0.619055
0.600117
0.587258
0.584920
0.576269
0.567150
0.562474
0.557330
0.553589
0.550315
0.543769
0.536053
0.531844
0.522960
0.507529
0.499579
0.482278
0.453754
0.441129
0.422425
0.393433
0.375431
0.351349
0.329372
0.311603
0.279806
0.255257
0.236553
0.207795
0.183948
0.157294
0.129472
0.108196
0.078971
0.046941
0.019352
-0.007535
-0.032785
-0.062478
-0.091703
-0.117655
-0.149919
-0.175871
-0.191536
-0.215150
-0.236893
-0.246713
-0.262612
-0.275471
-0.278511
-0.284590
-0.288565
-0.294410
-0.297450
-0.298385
-0.304932
-0.303062
-0.306803
-0.317091
-0.316156
-0.324339
-0.332289
-0.332289
-0.339537
-0.351461
-0.369698
-0.380219
-0.386999
-0.401028
-0.410614
-0.429785
-0.447321
-0.454569
-0.471402
-0.481222
-0.492445
-0.508811
-0.512085
-0.527048
-0.541076
-0.540141
-0.551598
-0.563288
-0.572640
-0.588305
-0.600229
-0.613322
-0.629688
-0.650029
-0.667097
-0.679488
-0.701466
-0.719001
-0.728821
-0.741914
-0.757111
-0.774646
-0.780725
-0.786337
-0.799430
-0.803171
-0.812991
-0.825148
-0.830760
-0.841515
-0.848062
-0.857180
-0.868870
-0.877287
-0.889679
-0.899966
-0.915865
-0.931764
-0.942986
-0.966366
-0.983668
-0.991617
-1.011724
-1.031130
-1.047963
-1.070408
-1.084904
-1.098231
-1.121377
-1.134938
-1.144758
-1.167203
-1.179828
-1.185907
-1.204845
-1.220978
-1.234071
-1.249034
-1.262361
-1.278727
-1.291586
-1.304445
-1.320578
-1.330865
-1.340919
-1.353311
-1.363130
-1.374821
-1.388615
-1.398435
-1.404748
-1.417139
-1.429531
-1.436779
-1.449872
-1.457354
-1.459692
-1.472318
-1.478631
-1.480501
