EVENT_NAME: 202302060117
EVENT_ID: 13194
EVENT_DATE_YYYYMMDD: 2023/02/06
EVENT_TIME_HHMMSS: 01:17:32.00000
EVENT_LATITUDE_DEGREE: 37.288
EVENT_LONGITUDE_DEGREE: 37.043
EVENT_DEPTH_KM: 8.6
HYPOCENTER_REFERENCE: AFAD
MAGNITUDE_W: 7.7
MAGNITUDE_W_REFERENCE: AFAD
MAGNITUDE_L: 
MAGNITUDE_L_REFERENCE: 
FOCAL_MECHANISM: 
NETWORK: TK
STATION_CODE: 4629
STATION_NAME: 
STATION_LATITUDE_DEGREE: 37.287373
STATION_LONGITUDE_DEGREE: 36.788705
STATION_ELEVATION_M: 494.0
LOCATION: Kahramanmaras_Pazarck_Turkiye
SENSOR_DEPTH_M: 
VS30_M/S: 382
SITE_CLASSIFICATION_EC8: C
MORPHOLOGIC_CLASSIFICATION: 
EPICENTRAL_DISTANCE_KM: 22.50
EARTHQUAKE_BACKAZIMUTH_DEGREE: 
DATE_TIME_FIRST_SAMPLE_YYYYMMDD_HHMMSS: 2023/02/06 01:17:06.1500710
DATE_TIME_FIRST_SAMPLE_PRECISION: millisecond
SAMPLING_INTERVAL_S: 0.01
NDATA: 5367
DURATION_S: 
STREAM: HNE
UNITS: cm/s^2
INSTRUMENT: sensor = ACEBOX/SARA | digitizer = 
INSTRUMENT_ANALOG/DIGITAL: 
INSTRUMENTAL_FREQUENCY_HZ: 
INSTRUMENTAL_DAMPING: 
FULL_SCALE_G: 
N_BIT_DIGITAL_CONVERTER: 
PGA_CM/S^2: 248.195
TIME_PGA_S: 
BASELINE_CORRECTION: BASELINE REMOVED
FILTER_TYPE: BUTTERWORTH
FILTER_ORDER: 
LOW_CUT_FREQUENCY_HZ: 
HIGH_CUT_FREQUENCY_HZ: 
LATE/NORMAL_TRIGGERED: 
DATABASE_VERSION: 
HEADER_FORMAT: DYNA 1.2
DATA_TYPE: Acceleration
PROCESSING: Automatic Paolucci et al., 2011
DATA_TIMESTAMP_YYYYMMDD_HHMMSS: 
DATA_LICENSE: U (unknown license)
DATA_CITATION: Turkish Accelerometric Archive v 1.0 - Disaster And Emergency Management Presidency, Earthquake Department
DATA_CREATOR: AFAD
ORIGINAL_DATA_MEDIATOR_CITATION: : AFAD - Disaster And Emergency Management Presidency
ORIGINAL_DATA_MEDIATOR: AFAD PROCESS SERVICE
ORIGINAL_DATA_CREATOR_CITATION: AFAD PROCESS SERVICE
ORIGINAL_DATA_CREATOR: network: TK
USER1: GuestUser
USER2: 
USER3: 
USER4: 
USER5: 
[...]
0.011156
0.011866
0.011874
0.013284
0.009551
0.012832
0.014944
0.010042
0.012388
0.014734
0.012638
0.011944
0.012653
0.013129
0.011500
0.011976
0.011750
0.012225
0.014337
0.011072
0.012015
0.015062
0.013433
0.011805
0.010410
0.013223
0.012763
0.010433
0.016754
0.013488
0.009054
0.014205
0.010706
0.012351
0.016099
0.011431
0.013543
0.013083
0.010519
0.011463
0.011470
0.013582
0.011018
0.012429
0.016411
0.012679
0.014557
0.012694
0.009897
0.015983
0.013185
0.011323
0.012032
0.011572
0.016022
0.012056
0.011128
0.015111
0.013248
0.013724
0.010458
0.011635
0.018423
0.009780
0.009087
0.019148
0.013311
0.009110
0.013560
0.012633
0.013810
0.012649
0.012423
0.015704
0.010568
0.011044
0.015494
0.010592
0.012470
0.015517
0.013888
0.014364
0.010865
0.010405
0.012985
0.013226
0.014403
0.013008
0.013016
0.013725
0.009992
0.012104
0.015152
0.011652
0.010959
0.015409
0.015884
0.012151
0.011925
0.013102
0.014279
0.013586
0.012658
0.015705
0.014311
0.011747
0.015028
0.013165
0.011770
0.014350
0.014358
0.014365
0.012503
0.012511
0.013921
0.012526
0.013002
0.014179
0.012550
0.011389
0.015137
0.014678
0.010945
0.014693
0.013065
0.011904
0.015185
0.011218
0.012628
0.014974
0.012177
0.015458
0.016167
0.014070
0.013143
0.014086
0.013393
0.009893
0.012473
0.013416
0.011554
0.015068
0.016245
0.014149
0.011585
0.014398
0.016744
0.011609
0.014422
0.017002
0.011398
0.010237
0.010011
0.009084
0.006520
-0.001188
-0.001881
0.002101
-0.003268
-0.007702
-0.002551
-0.000673
-0.002769
0.002148
0.004494
-0.003681
-0.007881
-0.009042
-0.016049
-0.020483
-0.031697
-0.063486
-0.108601
-0.171485
-0.254942
-0.344245
-0.435184
-0.515369
-0.577317
-0.642539
-0.702383
-0.737679
-0.750296
-0.731818
-0.699312
-0.670548
-0.618870
-0.543814
-0.450755
-0.334082
-0.215071
-0.093489
0.042121
0.143597
0.163712
0.151328
0.195524
0.271048
0.289994
0.241138
0.147861
0.053882
0.012741
-0.029568
-0.136639
-0.196250
-0.107165
0.023769
0.065159
0.028928
-0.027643
-0.080473
-0.133537
-0.209046
-0.271228
-0.114810
0.385992
0.843073
0.784866
0.430437
0.179814
-0.137441
-0.659269
-1.108152
-1.409041
-1.651247
-1.842719
-2.133789
-2.428132
-2.356816
-1.923815
-1.497595
-1.550893
-2.039989
-2.378520
-2.445612
-2.202455
-1.456400
-0.658442
-0.229182
-0.299314
-1.044651
-1.872753
-1.824583
-0.902713
0.043706
0.202229
-0.588700
-1.641715
-1.872465
-0.962050
0.217699
0.810850
0.779295
0.380211
-0.224614
-0.981642
-1.838969
-2.407322
-2.331798
-1.832399
-1.040754
-0.035418
0.385425
-0.169835
-0.923824
-1.186604
-0.679724
0.478983
1.258004
0.876688
-0.227295
-1.199883
-1.220216
-0.359133
-0.110364
-1.046715
-1.922044
-2.487358
-3.374143
-3.594138
-2.661981
-2.079818
-2.091967
-1.777035
-1.244203
-0.444608
0.881498
2.040906
2.469698
2.375486
1.898547
0.892759
-0.550463
-1.855278
-2.400953
-2.312336
-2.464063
-3.176435
-3.890444
-4.331612
-4.268946
-2.928579
-0.453593
1.258512
0.892861
-0.125084
-0.084396
0.586610
1.426886
2.437599
2.541179
1.244313
-0.475024
-1.731676
-1.615237
-0.004366
0.909087
-0.122652
-1.675292
-2.699082
-2.467148
-0.637442
1.468144
3.293173
4.835775
4.833913
3.000249
0.841139
-0.197615
-0.185449
-0.527955
-1.579099
-2.028684
-1.424544
-0.523013
0.663749
1.665578
0.810590
-0.928153
-0.419870
1.890055
2.567841
0.835645
-0.988433
-1.096440
0.398468
2.127406
3.231171
3.933038
3.784585
2.324763
0.091305
-2.004679
-2.214621
-0.264744
1.518201
1.843655
1.436622
2.168181
4.946636
7.645366
8.527491
8.108300
6.753686
4.331087
1.743660
1.123872
1.547520
-1.797409
-8.430230
-11.658729
-9.944519
-6.481974
-1.525230
3.623227
5.095924
3.332867
1.858549
2.157584
4.555416
7.801231
7.382742
1.845028
-3.587244
-5.157652
-3.212451
0.609441
2.080735
-0.367115
-2.155890
-0.675010
1.332381
0.554312
-2.723284
-4.519307
-2.161220
1.642202
2.286087
0.164853
-0.574874
1.045115
3.698254
7.199376
9.751749
7.907564
2.603179
-1.043583
-1.685582
-1.863494
-1.919364
-1.770427
-2.952030
-3.826191
-0.805054
3.814086
5.131541
4.671436
5.533922
5.979080
4.132089
1.025867
-1.113370
-1.820132
-4.351447
-9.834452
-12.477990
-8.670126
-2.860490
1.194264
1.869244
-1.347331
-2.071393
1.790478
3.530639
4.073290
5.392382
2.263481
-2.968192
-4.158446
-2.758227
-0.624819
0.954957
-0.814413
-2.775964
-0.139190
3.659555
3.434650
0.759784
0.107497
1.794118
2.908170
2.332569
0.465940
-1.609938
-2.427520
-1.261799
1.991732
4.475836
3.904443
2.756273
1.728975
0.405223
0.559537
0.386301
-2.177979
-2.714069
2.284992
8.048570
8.982364
6.090768
2.834681
0.057411
-4.353634
-8.475238
-4.993288
2.695377
1.877328
-7.141627
-13.462562
-14.068323
-12.087585
-7.730999
-3.395688
-3.557936
-4.923538
-2.290973
2.107463
3.488512
1.677760
2.238881
7.462153
11.182811
10.495221
9.189939
7.063093
3.725879
4.530383
8.078498
7.419899
4.363709
3.274455
4.010457
6.275493
8.320993
6.654494
0.745743
-5.171891
-6.381784
-5.032299
-7.937923
-14.927752
-18.545991
-16.364888
-12.269922
-8.714792
-7.792454
-11.914526
-17.285543
-16.799237
-11.371392
-7.250239
-6.181310
-6.990475
-7.181012
-3.796555
1.455709
5.589954
6.929854
3.399055
-0.605650
2.060815
6.656576
4.809118
-0.926856
-6.309563
-10.782798
-10.637369
-5.927515
-2.276061
0.298054
2.891342
3.487766
5.003949
9.027141
10.520178
9.508779
8.774195
5.670778
0.265160
-5.203351
-11.828690
-17.836570
-20.047349
-18.606215
-14.723068
-11.304944
-10.920340
-11.195278
-8.461946
-4.263875
-2.890542
-3.354855
-0.571023
4.736650
5.312501
0.636797
-0.927299
1.089444
-0.535673
-4.105983
-4.887559
-6.146316
-7.512619
-3.659866
-0.125779
-5.447231
-14.695541
-19.308120
-19.143285
-17.427673
-14.479715
-9.379420
-3.358431
2.989874
11.863657
23.006910
30.992965
31.308833
26.131868
21.377842
20.497369
19.847888
11.292553
-4.775624
-17.893747
-21.942640
-20.673581
-20.741842
-24.461782
-29.464100
-30.381981
-21.113080
-4.621948
8.670369
16.991222
24.768262
30.274195
32.058544
34.259285
36.711593
36.872687
37.100413
35.201987
25.460364
10.896673
-3.162016
-17.153840
-32.745538
-47.374458
-55.315141
-56.557298
-56.397840
-55.171098
-46.282586
-24.683452
3.217221
29.326070
53.343136
69.056658
71.006535
66.105451
58.017242
46.779785
34.949183
23.010568
14.101497
11.516408
13.073974
16.503320
20.736227
23.459038
22.893490
22.483651
25.958354
27.465419
20.025297
6.426720
-7.198976
-19.398042
-32.157520
-46.365606
-61.506075
-74.155201
-78.401653
-77.169533
-78.536538
-79.258028
-71.908136
-57.951133
-44.635669
-36.961734
-31.388467
-20.642201
-5.450047
5.371501
8.625967
12.733325
22.478003
33.596707
46.338432
61.554200
69.970441
66.383999
60.128294
58.273588
57.073748
50.617211
35.661207
17.144939
3.908281
-4.202606
-12.805168
-24.480996
-36.674684
-45.845140
-52.220082
-52.120009
-39.857569
-18.939953
2.369974
16.672997
20.083639
13.643468
1.282380
-9.827658
-17.213306
-23.897094
-28.821558
-32.789791
-40.089869
-47.571607
-45.354734
-34.365319
-30.226399
-36.055892
-42.617638
-50.116677
-53.291870
-40.098215
-14.975055
7.101026
18.172270
22.891242
30.091504
41.172099
51.709817
55.339995
51.334822
46.902034
42.960921
35.969222
25.940262
10.587973
-7.229241
-16.712986
-15.543524
-11.760443
-11.784983
-15.370724
-23.064517
-38.575087
-56.641997
-65.509685
-59.549250
-42.251050
-27.107993
-24.298210
-26.566737
-22.764952
-11.086537
4.068677
15.911218
22.374785
28.320024
34.559613
34.622512
23.979133
6.709940
-6.977479
-9.534746
0.160834
15.660900
24.289663
20.288932
9.883793
2.614576
4.964948
12.485045
12.493469
1.778782
-11.033768
-19.429653
-22.136317
-17.908787
-9.296856
-4.057452
-6.275245
-12.276813
-15.133574
-12.706283
-9.283249
-8.781746
-9.263594
-2.402104
15.317398
35.088238
45.924515
43.304825
31.346804
16.956824
4.604387
-3.340036
-12.392892
-22.986706
-24.595691
-20.150963
-16.282780
-10.405343
-5.598697
-0.330535
6.919058
6.239651
4.323223
13.619478
25.081630
31.466875
30.692313
19.174064
9.759524
12.025729
13.929782
10.524532
8.836290
9.849108
13.389274
17.487514
11.542992
-6.657883
-23.626647
-31.687034
-34.499607
-33.419222
-27.831693
-21.106507
-19.607391
-25.871046
-30.987691
-25.218969
-9.358155
8.336565
14.418575
10.785607
16.172538
29.806900
42.605204
51.418668
38.040796
0.282779
-26.116431
-17.798618
3.528844
6.151824
-8.501646
-26.052565
-39.816436
-37.450634
-21.517576
-11.207342
-12.546058
-21.634451
-29.308838
-26.052268
-12.694955
3.305670
11.623717
12.926911
20.201520
33.018294
39.887032
38.233626
29.933363
15.379491
0.517708
-6.760627
-7.995302
-6.912345
-2.544771
-0.244666
-3.328677
-1.321988
9.262490
18.552666
21.460878
20.311305
14.896802
1.830816
-11.851928
-14.792388
-6.158013
12.906057
31.955866
34.431787
25.941447
19.398405
14.419934
8.872166
5.697909
8.050852
10.460608
7.138825
1.213942
-6.967318
-18.005112
-24.538102
-19.432663
-9.487153
-8.104234
-12.008641
-12.701608
-12.406314
-10.617290
-4.024199
10.762317
30.424675
38.976986
34.009971
28.941254
30.317159
32.310990
22.392149
5.117111
-4.978247
-10.946616
-15.458194
-17.053385
-23.122520
-32.098691
-32.345339
-19.468947
0.072772
14.729998
19.158827
17.181144
15.947637
21.984992
34.635302
44.647444
43.680466
30.828171
14.105362
6.360368
8.267226
4.109851
-11.228411
-22.361595
-23.562604
-26.677944
-34.825304
-42.159282
-47.718973
-50.734249
-50.657555
-47.884011
-38.908058
-22.743307
-6.686571
-0.502158
-5.599164
-13.231001
-10.042933
12.792989
37.060218
37.457447
26.963698
21.352338
13.041321
9.869167
18.341520
22.009807
13.393918
-2.935410
-24.282261
-43.751019
-48.686706
-39.261862
-35.819891
-47.559312
-61.602337
-63.717726
-46.332554
-18.397280
0.862479
7.988628
16.024949
38.569092
74.236509
105.538931
120.894743
126.873883
133.719241
140.263935
142.820282
142.942099
139.248811
131.919275
125.373894
120.286707
115.221497
102.543849
71.089708
26.847090
-11.418033
-34.231962
-46.850694
-62.738613
-87.274226
-112.903074
-129.991542
-128.960021
-112.906791
-100.032971
-95.534236
-91.854493
-88.547189
-91.065645
-101.656887
-110.586532
-107.057588
-98.746555
-95.868503
-93.652097
-87.611002
-77.250268
-59.548300
-34.426075
0.498334
39.911184
64.369425
77.449455
92.808072
100.123597
105.027502
122.264447
139.093182
156.749326
176.028022
160.030218
100.451435
39.098365
7.283942
-4.890107
-28.433016
-65.566093
-89.909524
-90.929574
-83.495514
-90.152182
-111.741949
-128.372876
-130.847612
-117.213483
-83.757554
-40.792389
-13.991967
-11.531476
-9.318811
4.757662
18.913159
36.099137
64.098705
94.460327
117.764545
132.381090
145.111359
160.926583
173.525692
177.120099
169.895771
152.287104
124.590786
86.358395
50.290265
25.391332
-2.323222
-39.615982
-73.851609
-95.561080
-107.287642
-113.400965
-112.000277
-105.760688
-104.285653
-111.939467
-123.072651
-120.910486
-95.192077
-56.885323
-21.770836
2.360556
16.869321
25.904658
31.648831
37.670755
42.615575
49.056931
66.316555
85.078793
87.499304
73.684231
56.287618
45.454864
43.123913
42.676199
31.476383
9.341868
-12.889204
-31.125617
-35.630415
-22.036733
-6.908405
2.809854
18.597957
45.526032
78.803340
119.263835
152.736597
143.916136
93.126961
36.893583
0.801839
-17.687074
-42.182240
-75.835244
-105.498498
-133.812274
-160.618292
-182.416372
-195.394918
-194.730224
-189.178467
-185.642041
-184.780257
-184.503433
-173.918488
-149.427047
-116.113267
-77.354115
-35.762509
3.327233
32.220374
55.190028
86.685567
129.580359
170.466599
199.652922
221.893129
237.529965
244.645359
247.645453
243.943749
237.579328
235.170522
220.957761
184.461548
138.085063
92.391031
50.758293
15.022622
-16.412113
-46.146208
-81.924663
-125.441808
-154.583226
-162.241949
-167.062607
-169.327160
-167.427549
-162.581158
-138.351570
-92.196242
-40.175875
-4.129238
4.620165
4.604274
6.199715
5.363196
3.406087
-6.042120
-17.855421
-23.015085
-32.145562
-46.216174
-58.223293
-67.359147
-69.624167
-69.490193
-72.092583
-70.141771
-64.355748
-55.073287
-29.694586
7.264327
36.037297
53.194283
70.827514
97.811935
122.331665
131.232568
133.633908
122.039676
79.322351
30.392332
0.188305
-24.629734
-57.617118
-93.016354
-111.724335
-104.232996
-88.943114
-80.590465
-73.231221
-63.529328
-53.146851
-37.320873
-11.695983
12.034213
21.671344
31.829376
52.588009
71.190564
88.682582
109.829552
124.891481
133.235947
143.888927
158.419435
162.626625
140.034569
95.217512
47.166103
9.703840
-20.656831
-53.434732
-84.648764
-111.841248
-139.410146
-164.361918
-184.753473
-201.692077
-212.567383
-215.318935
-210.811784
-203.486674
-192.791610
-172.936837
-148.913693
-127.271773
-107.932523
-87.931861
-55.226655
-16.730525
0.772482
4.803622
17.637229
35.407232
52.000299
67.696286
85.389838
112.475492
145.330796
173.690880
188.813830
183.886093
168.555546
148.389137
108.630284
58.511873
28.920629
21.148047
18.276323
17.376912
19.884630
21.778395
22.278963
26.110441
38.963687
56.093085
57.140271
37.449406
12.545329
-17.668050
-55.827964
-93.361068
-127.963757
-160.178207
-192.879422
-223.407258
-241.968649
-248.195364
-232.362605
-185.518276
-129.548840
-81.807430
-40.337399
-3.573472
33.198169
67.169621
92.438905
119.190697
149.200922
171.446272
187.508620
199.571164
203.875847
204.560179
203.883578
197.937186
190.447966
184.943685
174.152079
157.935908
144.134630
128.094509
104.384902
81.285272
65.099729
49.598511
27.126861
1.561839
-19.376568
-36.877221
-55.296697
-71.867304
-77.888277
-72.222660
-60.269300
-39.477000
-13.744330
1.766023
7.203454
11.325307
13.735765
11.810218
2.667584
-11.652724
-22.256825
-23.354729
-17.163068
-17.354541
-28.976127
-34.536987
-29.075709
-28.689001
-37.047011
-42.949449
-45.639513
-55.477460
-66.690135
-66.939355
-66.820578
-77.690273
-93.175359
-105.504416
-116.871865
-135.550856
-152.987916
-161.326288
-173.992480
-177.411991
-142.877088
-78.078532
-14.027659
19.133919
34.389432
65.536847
96.044359
114.804493
136.560973
149.125246
157.291792
173.830385
176.097992
165.690047
164.568530
162.534501
142.451558
98.491835
42.000111
0.065774
-27.555729
-57.357391
-85.907770
-111.009639
-129.389603
-130.203911
-123.195363
-124.091032
-123.391737
-100.267075
-55.140688
-4.526846
44.273432
77.155388
85.666318
95.595929
111.633728
108.211645
88.827756
67.372656
41.965682
15.266977
-3.316858
-6.552137
1.648310
7.880417
4.892730
-5.236762
-17.208110
-27.042082
-34.222924
-41.749317
-52.936743
-64.943627
-72.131015
-77.652597
-85.851392
-86.787976
-72.759898
-49.064771
-18.463974
12.104792
30.778655
37.942912
43.349014
55.980387
68.305252
63.908234
50.319711
40.534602
24.807769
-0.704882
-22.280153
-36.740506
-46.026224
-41.988538
-27.954147
-20.626466
-25.325082
-33.556374
-38.772149
-47.715354
-65.611358
-81.556558
-86.625742
-83.391383
-76.859080
-72.164890
-70.991220
-66.995149
-52.716441
-30.657895
-7.578590
13.090031
23.934725
22.686255
21.600041
29.053973
42.319638
53.466866
56.327149
61.867919
81.638291
100.583592
104.109731
98.347103
89.077985
83.029657
84.424734
82.132359
75.218514
72.719697
70.188616
62.715528
52.838536
46.865492
50.627999
58.212624
56.798860
44.461152
31.973814
16.186662
-11.015876
-26.646852
-15.928409
-2.964109
-6.556629
-23.278971
-41.284860
-51.844539
-59.136668
-68.106993
-76.809621
-86.407459
-98.093339
-109.430862
-120.763476
-131.187786
-140.673401
-152.804432
-162.025388
-161.830160
-156.222291
-149.987611
-141.631923
-123.241890
-90.328371
-44.757301
6.343541
52.621613
94.719858
127.668213
143.042028
161.420839
192.062550
211.537168
213.279667
208.007079
203.056664
202.771673
197.063287
168.580241
119.276380
72.857110
44.544971
21.070330
-8.050982
-32.562279
-52.305515
-75.281933
-98.060559
-117.509211
-127.322843
-118.244020
-100.215671
-90.564044
-89.968555
-87.310974
-74.742259
-53.304444
-27.520105
-6.258574
0.997800
0.550319
1.923185
2.830794
10.197286
33.571175
57.447729
65.251889
63.726370
57.017331
38.455005
16.191669
5.890803
5.444726
5.769712
6.352810
9.650996
15.566776
20.143833
21.715893
24.746849
31.846344
39.789381
43.765345
46.867141
52.426848
51.481379
45.477240
48.355526
56.323111
54.960314
40.988130
23.014272
9.219773
-1.686160
-12.447840
-24.632645
-38.725936
-50.308712
-57.924183
-63.673483
-68.148589
-70.785347
-68.503711
-58.834550
-37.977254
-6.152295
18.442016
24.286020
25.307021
27.310671
20.391917
6.295118
-3.187691
-5.582468
-12.023809
-26.860809
-38.642079
-43.096143
-41.010664
-29.308168
-17.112827
-12.039652
-10.641537
-15.278898
-24.196853
-32.032794
-39.985166
-43.875077
-40.225260
-29.951266
-12.348895
5.867426
17.505628
25.321245
38.226628
59.716111
73.634304
65.157525
45.628447
30.347232
16.993441
-1.440062
-18.985604
-23.023041
-17.811926
-22.306671
-35.683841
-40.493511
-39.442116
-43.105712
-46.977620
-44.098399
-33.516260
-20.331723
-5.477405
11.884387
20.036672
16.997549
13.668050
11.908734
13.762052
17.883205
16.753270
12.914093
5.920290
-10.557968
-30.606543
-45.008914
-50.736472
-49.529836
-48.399886
-48.983670
-47.770488
-44.765016
-35.039042
-16.997133
-5.668479
-5.861588
-1.328485
11.459532
20.486452
26.120974
35.846481
46.478653
51.789833
53.660687
56.785629
61.840334
68.871327
76.060834
78.261342
76.884985
75.485483
68.811514
53.772045
37.278825
26.090698
18.029844
6.929859
-4.865205
-10.073031
-9.033093
-6.399827
-4.390097
-4.014845
-6.465266
-11.329644
-13.615940
-10.224469
-8.682334
-13.368325
-13.933171
-7.224819
-5.461512
-11.876433
-16.916393
-12.850651
-0.050009
13.297952
21.573916
23.521455
18.452738
15.697679
23.190889
31.296180
32.933704
30.767581
22.078513
7.696950
-4.059772
-14.117255
-26.959497
-37.511928
-43.086349
-49.330832
-55.535336
-55.042717
-50.728449
-50.181121
-50.845098
-45.380079
-35.313930
-29.135128
-28.516960
-26.575967
-19.697644
-10.204999
-3.976399
-5.818246
-9.977491
-9.427826
-6.639084
-3.707259
-2.771594
-9.789947
-21.548305
-26.060350
-19.289340
-6.878905
3.506143
6.363387
5.321127
8.099114
15.772582
25.205374
29.712759
29.104661
32.584039
37.429262
39.662501
44.088759
46.305398
45.006195
44.282600
41.988355
39.977473
34.266983
18.542955
1.612768
-12.955599
-32.683405
-57.057697
-74.860182
-80.873439
-85.245908
-90.537901
-87.619168
-77.530107
-69.059157
-67.713178
-69.442802
-69.309530
-70.620190
-70.906350
-65.155631
-53.650226
-37.093163
-20.960209
-6.880462
11.300323
34.034075
56.458981
75.696763
93.211927
108.151580
117.009699
123.675501
129.773175
127.794323
115.667266
98.968305
82.156886
68.729216
59.075735
48.070671
35.359122
24.090102
15.363393
15.530332
21.509939
19.803226
13.584227
6.981800
-7.716091
-27.218983
-43.707528
