EVENT_NAME: 202302060117
EVENT_ID: 13194
EVENT_DATE_YYYYMMDD: 2023/02/06
EVENT_TIME_HHMMSS: 01:17:32.00000
EVENT_LATITUDE_DEGREE: 37.288
EVENT_LONGITUDE_DEGREE: 37.043
EVENT_DEPTH_KM: 8.6
HYPOCENTER_REFERENCE: AFAD
MAGNITUDE_W: 7.7
MAGNITUDE_W_REFERENCE: AFAD
MAGNITUDE_L: 
MAGNITUDE_L_REFERENCE: 
FOCAL_MECHANISM: 
NETWORK: TK
STATION_CODE: 7001
STATION_NAME: 
STATION_LATITUDE_DEGREE: 37.17167
STATION_LONGITUDE_DEGREE: 33.22583
STATION_ELEVATION_M: 1060.0
LOCATION: Kahramanmaras_Pazarck_Turkiye
SENSOR_DEPTH_M: 
VS30_M/S: 538
SITE_CLASSIFICATION_EC8: B
MORPHOLOGIC_CLASSIFICATION: 
EPICENTRAL_DISTANCE_KM: 338.18
EARTHQUAKE_BACKAZIMUTH_DEGREE: 
DATE_TIME_FIRST_SAMPLE_YYYYMMDD_HHMMSS: 2023/02/06 01:17:57.8146140
DATE_TIME_FIRST_SAMPLE_PRECISION: millisecond
SAMPLING_INTERVAL_S: 0.01
NDATA: 18251
DURATION_S: 
STREAM: HNZ
UNITS: cm/s^2
INSTRUMENT: sensor = CMG-5T/GURALP | digitizer = 
INSTRUMENT_ANALOG/DIGITAL: 
INSTRUMENTAL_FREQUENCY_HZ: 
INSTRUMENTAL_DAMPING: 
FULL_SCALE_G: 
N_BIT_DIGITAL_CONVERTER: 
PGA_CM/S^2: 4.238
TIME_PGA_S: 
BASELINE_CORRECTION: BASELINE REMOVED
FILTER_TYPE: BUTTERWORTH
FILTER_ORDER: 
LOW_CUT_FREQUENCY_HZ: 
HIGH_CUT_FREQUENCY_HZ: 
LATE/NORMAL_TRIGGERED: 
DATABASE_VERSION: 
HEADER_FORMAT: DYNA 1.2
DATA_TYPE: Acceleration
PROCESSING: Automatic Paolucci et al., 2011
DATA_TIMESTAMP_YYYYMMDD_HHMMSS: 
DATA_LICENSE: U (unknown license)
DATA_CITATION: Turkish Accelerometric Archive v 1.0 - Disaster And Emergency Management Presidency, Earthquake Department
DATA_CREATOR: AFAD
ORIGINAL_DATA_MEDIATOR_CITATION: : AFAD - Disaster And Emergency Management Presidency
ORIGINAL_DATA_MEDIATOR: AFAD PROCESS SERVICE
ORIGINAL_DATA_CREATOR_CITATION: AFAD PROCESS SERVICE
ORIGINAL_DATA_CREATOR: network: TK
USER1: GuestUser
USER2: 
USER3: 
USER4: 
USER5: 
[...]
-1.034341
-0.723460
-0.392817
-0.070329
0.217965
0.452302
0.629858
0.757850
0.851647
0.923486
0.985285
1.057751
1.150294
1.260404
1.377415
1.491604
1.587597
1.659749
1.705236
1.717157
1.686728
1.608616
1.510427
1.424158
1.386200
1.408787
1.475606
1.575050
1.685474
1.787114
1.872128
1.937379
1.982552
2.007648
2.007335
1.986003
1.950868
1.902244
1.842013
1.783037
1.727198
1.676064
1.619284
1.543368
1.442042
1.316246
1.178531
1.032031
0.885218
0.725229
0.543281
0.341569
0.137348
-0.047737
-0.187963
-0.260428
-0.258546
-0.198942
-0.122398
-0.055893
-0.004759
0.033827
0.070844
0.123860
0.187228
0.238048
0.266282
0.279144
0.288555
0.314906
0.365726
0.429722
0.480856
0.499051
0.469876
0.386118
0.254990
0.088099
-0.096672
-0.270778
-0.422610
-0.547151
-0.647222
-0.731608
-0.805329
-0.868383
-0.917007
-0.934261
-0.879990
-0.736941
-0.516720
-0.251013
0.023791
0.267539
0.454193
0.590341
0.689471
0.773544
0.875184
1.003489
1.154381
1.319389
1.464321
1.565647
1.619604
1.632152
1.611448
1.561883
1.487849
1.410992
1.346682
1.289275
1.237514
1.190458
1.139011
1.080035
1.012902
0.949220
0.890558
0.817465
0.715825
0.581560
0.433492
0.305501
0.223938
0.194763
0.220174
0.287934
0.369183
0.439453
0.470196
0.468941
0.454825
0.457021
0.511919
0.620774
0.776058
0.942635
1.095722
1.240026
1.376487
1.514517
1.659762
1.803125
1.933626
2.039030
2.100830
2.116829
2.110555
2.108673
2.124672
2.147573
2.133456
2.048442
1.883434
1.672312
1.475306
1.332884
1.253831
1.218069
1.196737
1.156583
1.081608
0.973067
0.851036
0.747200
0.688538
0.687597
0.746887
0.854801
0.974322
1.083178
1.167878
1.223090
1.258225
1.281125
1.310300
1.359238
1.425429
1.497895
1.557499
1.586673
1.568792
1.516090
1.460878
1.420724
1.403784
1.384649
1.347318
1.278931
1.174781
1.041457
0.886487
0.721166
0.559608
0.412167
0.276961
0.167165
0.079642
0.026626
0.007804
0.008431
0.017529
0.023489
0.022235
0.010941
0.000275
0.006863
0.059252
0.160265
0.308960
0.490595
0.667838
0.812455
0.910331
0.960838
0.979346
0.992208
1.026716
1.104514
1.215252
1.324107
1.394691
1.407553
1.360497
1.269837
1.158786
1.044911
0.937311
0.834103
0.727130
0.608864
0.484323
0.367312
0.266613
0.184109
0.122937
0.088116
0.078077
0.098468
0.156190
0.239008
0.324022
0.384567
0.401193
0.367313
0.297357
0.203874
0.095959
-0.019797
-0.144965
-0.266996
-0.378360
-0.463060
-0.496940
-0.485960
-0.445806
-0.396555
-0.370517
-0.372399
-0.403142
-0.449884
-0.480313
-0.482195
-0.445178
-0.380555
-0.302443
-0.214605
-0.122063
-0.023873
0.080904
0.193210
0.313986
0.436017
0.549264
0.633651
0.682589
0.712704
0.731213
0.736546
0.719292
0.672237
0.584400
0.462683
0.315242
0.148038
-0.020734
-0.167861
-0.283304
-0.369259
-0.421020
-0.442979
-0.434823
-0.400943
-0.359534
-0.328163
-0.312164
-0.309655
-0.311850
-0.301498
-0.272323
-0.232483
-0.186996
-0.134293
-0.073121
-0.012262
0.046087
0.099103
0.145217
0.180980
0.198861
0.213605
0.238074
0.276973
0.324343
0.343479
0.318383
0.252819
0.160903
0.064596
-0.022299
-0.096647
-0.192013
-0.337258
-0.544616
-0.802480
-1.081363
-1.351462
-1.588936
-1.782804
-1.928990
-2.024984
-2.061687
-2.034081
-1.949381
-1.829546
-1.697790
-1.587052
-1.525880
-1.521174
-1.560701
-1.601169
-1.613717
-1.594581
-1.546584
-1.488235
-1.435219
-1.403535
-1.399770
-1.423298
-1.457491
-1.498273
-1.539368
-1.566974
-1.583914
-1.582972
-1.560386
-1.518663
-1.458118
-1.405102
-1.390671
-1.412003
-1.454667
-1.505800
-1.549091
-1.572305
-1.581716
-1.587990
-1.628772
-1.727275
-1.884440
-2.074858
-2.259002
-2.420560
-2.544786
-2.619134
-2.651132
-2.654269
-2.629486
-2.590587
-2.529728
-2.435617
-2.298842
-2.113129
-1.883811
-1.620927
-1.329496
-1.019243
-0.688599
-0.345407
-0.009744
0.309607
0.599783
0.855451
1.068456
1.231896
1.353300
1.458077
1.569128
1.693669
1.814445
1.917026
1.992943
2.026195
2.023058
1.991374
1.940868
1.894440
1.858992
1.826367
1.775233
1.682690
1.531172
1.333538
1.117396
0.912234
0.733423
0.567160
0.406858
0.258162
0.145856
0.103506
0.150248
0.279181
0.474932
0.693897
0.907843
1.088537
1.210254
1.280210
1.310953
1.320678
1.332285
1.359264
1.384988
1.403183
1.394085
1.340128
1.231587
1.070657
0.885572
0.704565
0.535165
0.383332
0.256282
0.142408
0.030730
-0.081263
-0.181961
-0.262583
-0.322187
-0.361086
-0.392456
-0.428846
-0.462726
-0.486567
-0.503507
-0.512918
-0.530485
-0.557150
-0.587579
-0.623655
-0.657535
-0.679494
-0.672593
-0.631811
-0.572521
-0.511348
-0.472449
-0.472763
-0.511348
-0.585696
-0.667886
-0.739411
-0.789603
-0.818777
-0.844501
-0.875244
-0.912888
-0.969669
-1.047781
-1.129030
-1.196162
-1.229101
-1.225964
-1.188320
-1.134049
-1.091385
-1.085738
-1.124951
-1.211219
-1.320388
-1.424538
-1.518021
-1.587664
-1.635346
-1.656051
-1.643503
-1.594251
-1.516139
-1.424537
-1.334818
-1.244784
-1.146595
-1.031779
-0.892181
-0.728428
-0.556831
-0.411900
-0.310260
-0.261322
-0.254734
-0.280772
-0.315593
-0.341002
-0.348531
-0.334101
-0.304299
-0.263517
-0.224618
-0.190424
-0.153093
-0.111998
-0.077177
-0.042042
0.013798
0.110105
0.246880
0.403732
0.553996
0.680105
0.774216
0.844173
0.892797
0.907855
0.881817
0.819077
0.735004
0.645599
0.569996
0.508824
0.456436
0.411262
0.378010
0.358874
0.365776
0.408126
0.486865
0.585055
0.685126
0.758533
0.787080
0.791472
0.788022
0.803393
0.865507
0.974362
1.112706
1.260147
1.411038
1.559420
1.693058
1.804109
1.873438
1.877516
1.800032
1.639415
1.417313
1.168232
0.920406
0.692657
0.498161
0.350093
0.239356
0.148695
0.057408
-0.043918
-0.146813
-0.243120
-0.314331
-0.369543
-0.410638
-0.434479
-0.441067
-0.434793
-0.407187
-0.342877
-0.232453
-0.074974
0.113248
0.309000
0.496281
0.655329
0.755401
0.793359
0.772968
0.704267
0.602000
0.489067
0.385231
0.303354
0.246574
0.193558
0.128308
0.048627
-0.051444
-0.161868
-0.271978
-0.375500
-0.474003
-0.566859
-0.659088
-0.768571
-0.900012
-1.043689
-1.188933
-1.344530
-1.500441
-1.640980
-1.752659
-1.819791
-1.838613
-1.835163
-1.826065
-1.821987
-1.831084
-1.853043
-1.888805
-1.935234
-1.979152
-1.989504
-1.945899
-1.840808
-1.682074
-1.482558
-1.274573
-1.087291
-0.937027
-0.832250
-0.757902
-0.687318
-0.608579
-0.530780
-0.476823
-0.473372
-0.523565
-0.615166
-0.733746
-0.857659
-0.964945
-1.036783
-1.068467
-1.066899
-1.033646
-0.983453
-0.929496
-0.877108
-0.836326
-0.795858
-0.742842
-0.683552
-0.629595
-0.590695
-0.572187
-0.577833
-0.598538
-0.613595
-0.607007
-0.569363
-0.485290
-0.347260
-0.159979
0.067456
0.313400
0.568128
0.808425
1.017979
1.199614
1.357093
1.507044
1.648524
1.773692
1.881293
1.949053
1.954386
1.898233
1.792515
1.652917
1.493556
1.324156
1.134051
0.919792
0.697376
0.474960
0.268856
0.089104
-0.069943
-0.206091
-0.314005
-0.386784
-0.437918
-0.478385
-0.511952
-0.553988
-0.614219
-0.710526
-0.839144
-0.968704
-1.078814
-1.158181
-1.204295
-1.219353
-1.187982
-1.113948
-1.018582
-0.912550
-0.812165
-0.730602
-0.674135
-0.644019
-0.642137
-0.658763
-0.695466
-0.754756
-0.839142
-0.957095
-1.101712
-1.276759
-1.462785
-1.622147
-1.746373
-1.829818
-1.872168
-1.883148
-1.860875
-1.807231
-1.728178
-1.621205
-1.493213
-1.357380
-1.222801
-1.101711
-0.992855
-0.884941
-0.758832
-0.587550
-0.374231
-0.148992
0.055543
0.225257
0.372071
0.505081
0.639974
0.784905
0.920426
1.029281
1.094218
1.110530
1.102374
1.084179
1.055632
1.014537
0.961522
0.877135
0.748831
0.575666
0.374582
0.176321
0.007549
-0.117619
-0.212357
-0.292352
-0.363249
-0.419715
-0.458301
-0.466143
-0.433832
-0.371718
-0.292351
-0.189456
-0.054250
0.130208
0.355448
0.598255
0.844826
1.070379
1.262993
1.423610
1.565718
1.698101
1.814799
1.908910
1.980748
2.024040
2.019334
1.945928
1.804447
1.609951
1.381888
1.140964
0.903177
0.684525
0.498813
0.342588
0.196089
0.041119
-0.140202
-0.350697
-0.571231
-0.753179
-0.867681
-0.903443
-0.862034
-0.767609
-0.660949
-0.563701
-0.474609
-0.395869
-0.321208
-0.251879
-0.182550
-0.108202
-0.022875
0.070923
0.152172
0.209894
0.227147
0.178210
0.061198
-0.111025
-0.317128
-0.514134
-0.667849
-0.766038
-0.830347
-0.882422
-0.930105
-0.984062
-1.037705
-1.096995
-1.149070
-1.176989
-1.182322
-1.149069
-1.069389
-0.942966
-0.778585
-0.597578
-0.431315
-0.310225
-0.245915
-0.231171
-0.235563
-0.218937
-0.155568
-0.026009
0.172252
0.398119
0.598890
0.745703
0.835423
0.879655
0.890321
0.873068
0.836678
0.784917
0.727509
0.662259
0.585402
0.493486
0.387455
0.279227
0.182293
0.100730
0.022304
-0.048593
-0.115098
-0.169369
-0.213287
-0.256892
-0.309908
-0.384569
-0.475230
-0.575615
-0.674118
-0.747211
-0.774816
-0.758504
-0.706115
-0.633336
-0.561184
-0.519147
-0.524480
-0.583143
-0.694821
-0.837243
-0.983428
-1.108282
-1.190159
-1.222157
-1.207413
-1.151887
-1.058089
-0.921001
-0.742817
-0.524479
-0.272574
-0.000593
0.271388
0.519528
0.727827
0.895032
1.034316
1.153210
1.246067
1.305043
1.319787
1.282770
1.200266
1.082314
0.942716
0.779903
0.586348
0.356717
0.097598
-0.182853
-0.466755
-0.720541
-0.942016
-1.144669
-1.347008
-1.559699
-1.771449
-1.956220
-2.091113
-2.166402
-2.181459
-2.147265
-2.078250
-1.981943
-1.857403
-1.698982
-1.497584
-1.271404
-1.048046
-0.841002
-0.655289
-0.465812
-0.257199
-0.021607
0.224651
0.468085
0.703049
0.917623
1.115570
1.301910
1.466605
1.586440
1.664866
1.696236
1.672081
1.601184
1.492015
1.350221
1.196507
1.040910
0.883744
0.735990
0.597960
0.464322
0.303706
0.112033
-0.105050
-0.334053
-0.541098
-0.709243
-0.827196
-0.893073
-0.918170
-0.916601
-0.892132
-0.836292
-0.751592
-0.647129
-0.542038
-0.449182
-0.369187
-0.307387
-0.248724
-0.173435
-0.077756
0.027021
0.132112
0.208343
0.242850
0.254771
0.259477
0.256967
0.235008
0.191717
0.120192
0.010710
-0.139554
-0.328717
-0.548937
-0.791117
-1.042707
-1.285514
-1.501028
-1.676702
-1.810026
-1.901941
-1.950252
-1.964054
-1.954330
-1.923586
-1.863669
-1.769871
-1.656311
-1.541181
-1.443933
-1.363311
-1.290531
-1.215242
-1.125837
-1.013217
-0.878010
-0.735589
-0.585952
-0.435060
-0.289188
-0.144570
-0.004345
0.131803
0.263245
0.383707
0.480328
0.528952
0.523620
0.470604
0.384335
0.304341
0.258540
0.257599
0.299322
0.362376
0.424176
0.458370
0.460880
0.448959
0.426373
0.397512
0.367083
0.328811
0.287088
0.236582
0.181684
0.120512
0.020754
-0.148332
-0.398040
-0.688530
-0.975882
-1.225277
-1.408480
-1.529883
-1.608936
-1.676696
-1.753867
-1.837312
-1.904445
-1.932364
-1.899425
-1.804687
-1.679519
-1.561880
-1.467769
-1.386833
-1.305897
-1.208963
-1.089441
-0.962705
-0.835027
-0.705467
-0.578417
-0.454190
-0.335610
-0.216403
-0.107861
-0.025357
0.019189
0.027659
0.009151
-0.019396
-0.030689
-0.015004
0.031424
0.086322
0.128359
0.157847
0.176670
0.187022
0.196119
0.216824
0.249763
0.289290
0.339169
0.398459
0.453985
0.490688
0.487865
0.422301
0.298074
0.143418
-0.009669
-0.126053
-0.176559
-0.154286
-0.089977
-0.026295
-0.002140
-0.038215
-0.125425
-0.237731
-0.342508
-0.422189
-0.485243
-0.552689
-0.645232
-0.771340
-0.927251
-1.086613
-1.214290
-1.281736
-1.282677
-1.236876
-1.160646
-1.073750
-0.984344
-0.885214
-0.771339
-0.644289
-0.503436
-0.358191
-0.207613
-0.050134
0.103268
0.239729
0.342310
0.414776
0.466851
0.490065
0.478458
0.422619
0.313764
0.156284
-0.040094
-0.258432
-0.483044
-0.694480
-0.880193
-1.042064
-1.186681
-1.323142
-1.464936
-1.612690
-1.761700
-1.906944
-2.046856
-2.193042
-2.347071
-2.504550
-2.651049
-2.774335
-2.875034
-2.954401
-3.015887
-3.063256
-3.093999
-3.104978
-3.093371
-3.060432
-3.002397
-2.923343
-2.823899
-2.711907
-2.578582
-2.408241
-2.203392
-1.971565
-1.725621
-1.485324
-1.277025
-1.092567
-0.931323
-0.769138
-0.595346
-0.406496
-0.202588
-0.046050
0.043983
0.038964
-0.023463
-0.098752
-0.207293
-0.293875
-0.386104
-0.480529
-0.556131
-0.661536
-0.763490
-0.861051
-0.940732
-0.990924
-1.031078
-1.069350
-1.113582
-1.156873
-1.187303
-1.188557
-1.148717
-1.048331
-0.893675
-0.705453
-0.490566
-0.254347
0.013557
0.311889
0.616496
0.901339
1.144459
1.346485
1.493298
1.574861
1.581135
1.517140
1.423656
1.323585
1.226337
1.135990
1.042820
0.938357
0.823228
0.701511
0.582617
0.469370
0.358005
0.231583
0.088220
-0.063926
-0.235208
-0.415901
-0.590321
-0.757211
-0.913435
-1.052092
-1.168476
-1.276077
-1.375834
-1.469946
-1.574095
-1.689224
-1.810314
-1.921992
-2.002928
-2.044023
-2.048728
-2.033984
-2.023946
-2.027082
-2.040885
-2.047473
-2.020181
-1.953362
-1.856427
-1.723730
-1.565310
-1.388381
-1.200158
-1.019151
-0.853829
-0.706702
-0.569613
-0.424054
-0.254027
-0.052943
0.176061
0.413222
0.640030
0.831075
0.982594
1.111527
1.224774
1.324218
1.404840
1.452523
1.461621
1.440916
1.384450
1.298495
1.192777
1.063531
0.921110
0.761434
0.579800
0.392205
0.198023
-0.008081
-0.237084
-0.492439
-0.757519
-1.013187
-1.248151
-1.428217
-1.533935
-1.564051
-1.508211
-1.383985
-1.206742
-0.985267
-0.714854
-0.392366
-0.033489
0.354563
0.765515
1.181172
1.587419
1.976726
2.346896
2.700441
3.023556
3.310595
3.565636
3.787425
3.979725
4.128421
4.216572
4.238218
4.182065
4.044035
3.804366
3.455841
3.017283
2.523199
2.016568
1.515269
1.043459
0.618076
0.255435
-0.043525
-0.300134
-0.532275
-0.765043
-0.996870
-1.204542
-1.360453
-1.436369
-1.416606
-1.295202
-1.096628
-0.861977
-0.612896
-0.367893
-0.123518
0.128700
0.393153
0.661997
0.908568
1.108084
1.254897
1.357165
1.416455
1.433395
1.402025
1.311365
1.152631
0.927705
0.647881
0.349549
0.054981
-0.235822
-0.525371
-0.830291
-1.160621
-1.492833
-1.809046
-2.096713
-2.343597
-2.553779
-2.737609
-2.910460
-3.059783
-3.167383
-3.216007
-3.189029
-3.086447
-2.922380
-2.722864
-2.509546
-2.282424
-2.027383
-1.738775
-1.428522
-1.120465
-0.839386
-0.600030
-0.391730
-0.196293
0.013575
0.242266
0.474407
0.696195
0.872183
0.986685
1.063229
1.129734
1.221022
1.349641
1.500846
1.672129
1.857214
2.042927
2.214209
2.357572
2.471133
2.558656
2.625789
2.678178
2.708607
2.716136
2.691667
2.622966
2.510347
2.374513
2.232719
2.102532
1.999010
1.927172
1.895801
1.898625
1.911801
1.910546
1.884509
1.813298
1.703815
1.570491
1.428384
1.287844
1.152638
1.035940
0.941516
0.866541
0.810701
0.774312
0.748588
0.735726
0.729139
0.722237
0.710944
0.697769
0.686162
0.672986
0.646635
0.612128
0.580444
0.545623
0.521154
0.523664
0.569465
0.664203
0.802861
0.965987
1.122839
1.247066
1.325805
1.359058
1.362823
1.360627
1.371293
1.405173
1.456620
1.505558
1.530968
1.509323
1.435916
1.324865
1.197502
1.072961
0.950931
0.827645
0.697772
0.563507
0.437398
0.331680
0.246353
0.183298
0.147850
0.150046
0.190514
0.255137
0.327602
0.389088
0.427047
0.439595
0.438654
0.435831
0.435517
0.445242
0.476299
0.535589
0.625622
0.736360
0.872194
1.032810
1.217895
1.430273
1.641082
1.827736
1.992117
2.141440
2.265981
2.363856
2.424401
2.433812
2.393031
2.313037
2.211397
2.106933
2.010626
1.919652
1.838717
1.766251
1.693472
1.617870
1.527523
1.401414
1.234210
1.023088
0.766164
0.487909
0.213418
-0.044760
-0.278783
-0.490219
-0.671853
-0.824000
-0.937560
-1.006261
-1.021633
-0.972068
-0.867290
-0.719536
-0.555155
-0.394852
-0.251803
-0.123812
0.004493
0.136563
0.278357
0.429876
0.577944
0.721307
0.857141
0.973839
1.072969
1.163630
1.249271
1.337736
1.436553
1.554819
1.704770
1.887659
2.100037
2.329040
2.550515
2.754109
2.939508
3.106399
3.268270
3.428259
3.585111
3.733493
3.842976
3.898816
3.891287
3.810351
3.676713
3.509196
3.324424
3.136829
2.957391
2.787991
2.620160
2.446368
2.261596
2.070551
1.890485
1.733319
1.602819
1.511845
1.453182
1.414910
1.386363
1.357503
1.308879
1.232649
1.132891
1.015252
0.887575
0.759270
0.631279
0.504857
0.380316
0.254835
0.129981
0.000421
-0.126001
-0.250228
-0.356887
-0.429666
-0.452253
-0.407393
-0.300420
-0.153920
0.004500
0.164803
0.325106
0.479448
0.618419
0.749547
0.868755
0.961298
1.028117
1.075800
1.100896
1.109053
1.100269
1.074545
1.036587
0.985767
0.935575
0.883187
0.816054
0.725707
0.584541
0.370595
0.094849
-0.227638
-0.585574
-0.954490
-1.310230
-1.645265
-1.966184
-2.272673
-2.558771
-2.823850
-3.047521
-3.225705
-3.361225
-3.444670
-3.471335
-3.434317
-3.322952
-3.120300
-2.848318
-2.539947
-2.226557
-1.946106
-1.706122
-1.505979
-1.342226
-1.192275
-1.029463
-0.845946
-0.662115
-0.501185
-0.373507
-0.278141
-0.193755
-0.107486
-0.024355
0.068188
0.177357
0.298447
0.422987
0.531529
0.612778
0.675833
0.740770
0.814804
0.878800
0.904837
0.889466
0.854017
0.811354
0.773396
0.739202
0.695597
0.639131
0.567920
0.496709
0.428950
0.365268
0.341740
0.379071
0.476633
0.628466
0.802258
0.972599
1.105610
1.195015
1.271559
1.336810
1.395472
1.464487
1.546050
1.645495
1.776309
1.921240
2.065544
2.195104
2.314625
2.421912
2.494378
2.521043
2.502221
2.452342
2.373602
2.267884
2.127345
1.969238
1.807367
1.642987
1.479547
1.299795
1.094633
0.858414
0.612156
0.379388
0.174226
0.014237
-0.097441
-0.180886
-0.239549
-0.276252
-0.306054
-0.324562
-0.320170
-0.300093
-0.276565
-0.251783
-0.205041
-0.122223
-0.024033
0.100507
0.247321
0.398840
0.537497
0.661410
0.764619
0.826732
0.845868
0.818890
0.751130
0.648862
0.530283
0.398527
0.252027
0.088902
-0.092105
-0.284092
-0.473883
-0.635440
-0.745550
-0.803899
-0.822407
-0.803271
-0.771901
-0.746177
-0.741471
-0.755902
-0.757784
-0.748373
-0.720453
-0.669319
-0.608460
-0.526584
-0.412709
-0.272170
-0.127866
-0.003325
0.094864
0.138156
0.121529
0.059102
-0.024029
-0.105278
-0.176803
-0.227309
-0.245190
-0.217270
-0.145746
-0.043478
0.074788
0.201525
0.329516
0.472879
0.632554
0.815130
1.014646
1.203182
1.366935
1.476104
1.517200
1.501515
1.448813
1.372269
1.287569
1.192203
1.084289
0.962886
0.819210
0.673337
0.530602
0.401356
0.280580
0.151021
-0.009909
-0.216326
-0.455055
-0.713233
-0.961059
-1.179083
-1.358208
-1.492786
-1.604779
-1.715202
-1.822489
-1.916600
-1.976831
-1.978086
-1.911894
-1.791432
-1.637089
-1.458278
-1.270369
-1.083715
-0.914629
-0.771580
-0.651431
-0.560457
-0.487991
-0.430583
-0.388547
-0.363764
-0.370979
-0.418662
-0.485795
-0.554809
-0.602492
-0.625706
-0.637941
-0.651116
-0.678408
-0.721072
-0.793537
-0.890158
-1.005287
-1.130769
-1.272249
-1.427219
-1.587207
-1.733707
-1.851346
-1.924752
-1.951103
-1.946712
-1.924125
-1.903106
-1.893068
-1.888990
-1.862325
-1.793310
-1.670651
-1.510349
-1.351614
-1.228015
-1.159314
-1.138609
-1.144883
-1.153667
-1.146138
-1.126688
-1.086534
-1.007480
-0.905213
-0.786005
-0.646407
-0.490810
-0.323292
-0.161420
-0.012097
0.127815
0.274001
0.440891
0.627859
0.832080
1.029086
1.198173
1.339967
1.461057
1.560187
1.633280
1.694453
1.740567
1.757507
1.757821
1.736489
1.695081
1.651476
1.611008
