EVENT_NAME: 202302060117
EVENT_ID: 13194
EVENT_DATE_YYYYMMDD: 2023/02/06
EVENT_TIME_HHMMSS: 01:17:32.00000
EVENT_LATITUDE_DEGREE: 37.288
EVENT_LONGITUDE_DEGREE: 37.043
EVENT_DEPTH_KM: 8.6
HYPOCENTER_REFERENCE: AFAD
MAGNITUDE_W: 7.7
MAGNITUDE_W_REFERENCE: AFAD
MAGNITUDE_L: 
MAGNITUDE_L_REFERENCE: 
FOCAL_MECHANISM: 
NETWORK: TK
STATION_CODE: 6006
STATION_NAME: 
STATION_LATITUDE_DEGREE: 40.59835
STATION_LONGITUDE_DEGREE: 36.93455
STATION_ELEVATION_M: 330.0
LOCATION: Kahramanmaras_Pazarck_Turkiye
SENSOR_DEPTH_M: 
VS30_M/S: 417
SITE_CLASSIFICATION_EC8: B
MORPHOLOGIC_CLASSIFICATION: 
EPICENTRAL_DISTANCE_KM: 368.21
EARTHQUAKE_BACKAZIMUTH_DEGREE: 
DATE_TIME_FIRST_SAMPLE_YYYYMMDD_HHMMSS: 2023/02/06 01:17:59.0288000
DATE_TIME_FIRST_SAMPLE_PRECISION: millisecond
SAMPLING_INTERVAL_S: 0.01
NDATA: 21001
DURATION_S: 
STREAM: HNE
UNITS: cm/s^2
INSTRUMENT: sensor = CMG-5T/GURALP | digitizer = 
INSTRUMENT_ANALOG/DIGITAL: 
INSTRUMENTAL_FREQUENCY_HZ: 
INSTRUMENTAL_DAMPING: 
FULL_SCALE_G: 
N_BIT_DIGITAL_CONVERTER: 
PGA_CM/S^2: 4.572
TIME_PGA_S: 
BASELINE_CORRECTION: BASELINE REMOVED
FILTER_TYPE: BUTTERWORTH
FILTER_ORDER: 
LOW_CUT_FREQUENCY_HZ: 
HIGH_CUT_FREQUENCY_HZ: 
LATE/NORMAL_TRIGGERED: 
DATABASE_VERSION: 
HEADER_FORMAT: DYNA 1.2
DATA_TYPE: Acceleration
PROCESSING: Automatic Paolucci et al., 2011
DATA_TIMESTAMP_YYYYMMDD_HHMMSS: 
DATA_LICENSE: U (unknown license)
DATA_CITATION: Turkish Accelerometric Archive v 1.0 - Disaster And Emergency Management Presidency, Earthquake Department
DATA_CREATOR: AFAD
ORIGINAL_DATA_MEDIATOR_CITATION: : AFAD - Disaster And Emergency Management Presidency
ORIGINAL_DATA_MEDIATOR: AFAD PROCESS SERVICE
ORIGINAL_DATA_CREATOR_CITATION: AFAD PROCESS SERVICE
ORIGINAL_DATA_CREATOR: network: TK
USER1: GuestUser
USER2: 
USER3: 
USER4: 
USER5: 
[...]
-0.560541
-0.607667
-0.648246
-0.687517
-0.717625
-0.743478
-0.760823
-0.775222
-0.784057
-0.784712
-0.785039
-0.779475
-0.777184
-0.771620
-0.768674
-0.763111
-0.759838
-0.755910
-0.746092
-0.737256
-0.719911
-0.702566
-0.682603
-0.665912
-0.647258
-0.631222
-0.615841
-0.596532
-0.576242
-0.550715
-0.521262
-0.488863
-0.449591
-0.405411
-0.356649
-0.297415
-0.235235
-0.164220
-0.092550
-0.014989
0.064535
0.150278
0.234384
0.321108
0.400305
0.475247
0.537100
0.588480
0.622515
0.638878
0.639533
0.626116
0.595681
0.552156
0.494885
0.424525
0.343365
0.250096
0.142428
0.032142
-0.088289
-0.209375
-0.333733
-0.455801
-0.577214
-0.693718
-0.812185
-0.923453
-1.035048
-1.132571
-1.223876
-1.301109
-1.368197
-1.424813
-1.472265
-1.512518
-1.545898
-1.572406
-1.589423
-1.593677
-1.590077
-1.574368
-1.550151
-1.517424
-1.477826
-1.429718
-1.377684
-1.319104
-1.256597
-1.185909
-1.113584
-1.029806
-0.943409
-0.847849
-0.750653
-0.644947
-0.540224
-0.434192
-0.325214
-0.214600
-0.104314
0.002046
0.110042
0.219020
0.328979
0.437302
0.546934
0.655258
0.759981
0.863068
0.962228
1.057133
1.152693
1.242690
1.334323
1.425956
1.512025
1.596786
1.674346
1.745689
1.810814
1.866776
1.915210
1.955791
1.989499
2.015680
2.032370
2.040879
2.039571
2.031717
2.009136
1.986883
1.955139
1.924050
1.887070
1.853035
1.820309
1.793147
1.765330
1.742095
1.721151
1.703806
1.693007
1.683844
1.681881
1.683845
1.692354
1.709044
1.732607
1.760424
1.792496
1.833404
1.874312
1.918819
1.967908
2.016016
2.065432
2.115830
2.168519
2.220881
2.270298
2.315132
2.354077
2.388112
2.411675
2.428693
2.434911
2.430984
2.420512
2.401531
2.374369
2.344916
2.309245
2.270956
2.229394
2.187178
2.144962
2.105364
2.070347
2.038931
2.013077
1.992788
1.974789
1.962353
1.947954
1.944027
1.941737
1.942064
1.947301
1.953846
1.962355
1.973482
1.980355
1.991482
1.998027
2.007191
2.008173
2.011773
2.011119
2.009483
2.005229
2.003266
1.995412
1.985267
1.969231
1.952869
1.931924
1.907708
1.881527
1.856983
1.834075
1.811167
1.790550
1.772224
1.753898
1.736226
1.716918
1.693355
1.659975
1.622995
1.573579
1.517291
1.449876
1.376243
1.299337
1.222759
1.137672
1.053239
0.965534
0.881756
0.797323
0.717799
0.645802
0.571188
0.502136
0.432430
0.362724
0.292036
0.218076
0.145752
0.072773
0.003067
-0.064675
-0.127181
-0.186088
-0.239103
-0.291792
-0.337281
-0.376879
-0.412877
-0.442985
-0.469165
-0.490437
-0.504508
-0.516289
-0.522180
-0.525452
-0.525452
-0.524797
-0.521524
-0.517597
-0.512033
-0.510069
-0.505160
-0.499596
-0.491087
-0.480288
-0.463924
-0.439380
-0.407308
-0.366400
-0.322220
-0.273785
-0.215860
-0.155644
-0.090192
-0.018849
0.059366
0.143145
0.232487
0.325756
0.424916
0.520149
0.619963
0.707669
0.791775
0.867700
0.932170
0.984204
1.028058
1.066347
1.093837
1.116091
1.140963
1.154381
1.166163
1.179253
1.194308
1.201508
1.209362
1.210999
1.215253
1.208381
1.199873
1.182528
1.165511
1.133440
1.100714
1.063734
1.023809
0.980611
0.937086
0.891597
0.847744
0.798656
0.749240
0.696551
0.640918
0.582993
0.521796
0.460598
0.394165
0.325441
0.253444
0.181120
0.111414
0.041708
-0.026689
-0.089195
-0.157265
-0.209953
-0.263296
-0.305185
-0.345438
-0.375218
-0.401726
-0.420379
-0.429215
-0.433469
-0.430196
-0.423651
-0.409251
-0.391251
-0.364089
-0.335944
-0.296345
-0.253474
-0.202749
-0.149732
-0.091807
-0.034864
0.028952
0.090804
0.156257
0.224327
0.298942
0.375194
0.455700
0.537188
0.626203
0.718163
0.810123
0.903392
0.994371
1.083713
1.173055
1.255197
1.338649
1.411628
1.482643
1.546787
1.607657
1.662310
1.714344
1.763433
1.812523
1.857030
1.898592
1.936228
1.970917
2.004953
2.038988
2.072369
2.111640
2.149930
2.197710
2.242217
2.293597
2.344323
2.397666
2.449701
2.501408
2.547552
2.588787
2.620859
2.641804
2.651294
2.647368
2.631987
2.603515
2.560645
2.508283
2.440214
2.363308
2.275276
2.182007
2.083502
1.982379
1.881911
1.780461
1.679338
1.580506
1.484946
1.391678
1.298082
1.209395
1.130526
1.052311
0.984896
0.923044
0.865774
0.819631
0.778069
0.742725
0.709345
0.680874
0.650766
0.624913
0.593496
0.567643
0.537208
0.509392
0.479939
0.452776
0.426596
0.402379
0.380780
0.360490
0.340855
0.319583
0.297330
0.275404
0.246605
0.220098
0.192281
0.162501
0.131738
0.100976
0.067923
0.030616
-0.009309
-0.047271
-0.093414
-0.132358
-0.170647
-0.211227
-0.249516
-0.282896
-0.318240
-0.351293
-0.378128
-0.404308
-0.428525
-0.443906
-0.456669
-0.467141
-0.476304
-0.477285
-0.483176
-0.490702
-0.499211
-0.506083
-0.518846
-0.535863
-0.555498
-0.583315
-0.616695
-0.657930
-0.708327
-0.765925
-0.834649
-0.908609
-0.992060
-1.079111
-1.169434
-1.262376
-1.354008
-1.437786
-1.514364
-1.588652
-1.656722
-1.711374
-1.766353
-1.812496
-1.856022
-1.892020
-1.925727
-1.955835
-1.980052
-2.008196
-2.032740
-2.055321
-2.077574
-2.097864
-2.120117
-2.140734
-2.166260
-2.192440
-2.221566
-2.258546
-2.300108
-2.341670
-2.389449
-2.438865
-2.491554
-2.538679
-2.591694
-2.645037
-2.696744
-2.747469
-2.799503
-2.852846
-2.905207
-2.957241
-3.012548
-3.065236
-3.120870
-3.175195
-3.227229
-3.279917
-3.331297
-3.382349
-3.429147
-3.473981
-3.516197
-3.556450
-3.594084
-3.623865
-3.648736
-3.659208
-3.663789
-3.659207
-3.643171
-3.622227
-3.596700
-3.564628
-3.532557
-3.490667
-3.448778
-3.399361
-3.346999
-3.290711
-3.232131
-3.168642
-3.107117
-3.044283
-2.980467
-2.914688
-2.850872
-2.782147
-2.717677
-2.652552
-2.590045
-2.530484
-2.474522
-2.418888
-2.366526
-2.320055
-2.276856
-2.238239
-2.204531
-2.177041
-2.153151
-2.132861
-2.113225
-2.091625
-2.072644
-2.050390
-2.027154
-2.000319
-1.973156
-1.941084
-1.906395
-1.862214
-1.814107
-1.760109
-1.701856
-1.638040
-1.573570
-1.505500
-1.434484
-1.358560
-1.282963
-1.203765
-1.131441
-1.059116
-0.992028
-0.931485
-0.877814
-0.831997
-0.794689
-0.761963
-0.742982
-0.727927
-0.720073
-0.719418
-0.718436
-0.722690
-0.724326
-0.724980
-0.725635
-0.723671
-0.716471
-0.705017
-0.693562
-0.678181
-0.657236
-0.636945
-0.616001
-0.598983
-0.587528
-0.582946
-0.582619
-0.589164
-0.600618
-0.615999
-0.638252
-0.661814
-0.697485
-0.735120
-0.783227
-0.833952
-0.889258
-0.945546
-1.006416
-1.062378
-1.120629
-1.177245
-1.232552
-1.285240
-1.331711
-1.374909
-1.410907
-1.439051
-1.464577
-1.479630
-1.491084
-1.496975
-1.500247
-1.496647
-1.489447
-1.475374
-1.458357
-1.435448
-1.410903
-1.382104
-1.353305
-1.326797
-1.303561
-1.281307
-1.261344
-1.241708
-1.226000
-1.212254
-1.195564
-1.179855
-1.161528
-1.138293
-1.110803
-1.081022
-1.046332
-1.013933
-0.982516
-0.954698
-0.930808
-0.914118
-0.902009
-0.897427
-0.900372
-0.908553
-0.922952
-0.943242
-0.970404
-1.003785
-1.042728
-1.078072
-1.117997
-1.158250
-1.197521
-1.233192
-1.270172
-1.299952
-1.329732
-1.353949
-1.376857
-1.392565
-1.408601
-1.423654
-1.440672
-1.458016
-1.480924
-1.505141
-1.533285
-1.563065
-1.593827
-1.623608
-1.653061
-1.684477
-1.713603
-1.745347
-1.770873
-1.799017
-1.822907
-1.848105
-1.872977
-1.895557
-1.922720
-1.948573
-1.971481
-1.989480
-2.002570
-2.006497
-2.006496
-1.993733
-1.978679
-1.955116
-1.925662
-1.889663
-1.849737
-1.802939
-1.752213
-1.699852
-1.648144
-1.596764
-1.546039
-1.495641
-1.445242
-1.393535
-1.340519
-1.285866
-1.229250
-1.167071
-1.106527
-1.037802
-0.966460
-0.893808
-0.818865
-0.740977
-0.667671
-0.591746
-0.517785
-0.446442
-0.374445
-0.302448
-0.230778
-0.160744
-0.092674
-0.026894
0.035285
0.092883
0.143281
0.185825
0.219206
0.246696
0.261423
0.272878
0.273205
0.269933
0.260443
0.244407
0.219536
0.187792
0.150812
0.108268
0.063761
0.017291
-0.032452
-0.079577
-0.125721
-0.170882
-0.210153
-0.253351
-0.288367
-0.323711
-0.356437
-0.384254
-0.411743
-0.440869
-0.471958
-0.506647
-0.542646
-0.582898
-0.627078
-0.676167
-0.730164
-0.787434
-0.850922
-0.914410
-0.987389
-1.058077
-1.133346
-1.208615
-1.288466
-1.365699
-1.444241
-1.521147
-1.595435
-1.668086
-1.736483
-1.804880
-1.873931
-1.941346
-2.012361
-2.081413
-2.153410
-2.223770
-2.290531
-2.355655
-2.416852
-2.474450
-2.523866
-2.572300
-2.615825
-2.657387
-2.693385
-2.730692
-2.762436
-2.799089
-2.833451
-2.871085
-2.909702
-2.952900
-2.999043
-3.047150
-3.098856
-3.152527
-3.211760
-3.271649
-3.336773
-3.403206
-3.474549
-3.547854
-3.620833
-3.692502
-3.760245
-3.820460
-3.874458
-3.915365
-3.953327
-3.977544
-3.998815
-4.012233
-4.016487
-4.014523
-4.006668
-3.985396
-3.961833
-3.925507
-3.885908
-3.835510
-3.775621
-3.705588
-3.625736
-3.539339
-3.441489
-3.340365
-3.225497
-3.108338
-2.981688
-2.848493
-2.713007
-2.573922
-2.436473
-2.292805
-2.150775
-2.005471
-1.863113
-1.717482
-1.578397
-1.441602
-1.311025
-1.179467
-1.063617
-0.937949
-0.827989
-0.711157
-0.605125
-0.498111
-0.393060
-0.288337
-0.180996
-0.072018
0.039905
0.150846
0.268005
0.382874
0.499051
0.609665
0.721915
0.824020
0.924817
1.017104
1.097937
1.177789
1.248805
1.310330
1.368582
1.409817
1.454652
1.488360
1.514541
1.534504
1.551849
1.557413
1.567885
1.567558
1.567231
1.565595
1.561996
1.558723
1.553815
1.545634
1.534834
1.522071
1.505709
1.490001
1.472656
1.460548
1.444185
1.436331
1.423568
1.413424
1.403933
1.389207
1.377753
1.361063
1.345682
1.327683
1.308375
1.293649
1.273032
1.254706
1.232125
1.215108
1.187291
1.156529
1.129367
1.100241
1.075042
1.053116
1.034463
1.023336
1.017773
1.021373
1.028573
1.047882
1.074717
1.109080
1.155551
1.207913
1.270747
1.338490
1.414414
1.492629
1.572154
1.655605
1.739711
1.818254
1.894178
1.963230
2.024101
2.077117
2.119988
2.156642
2.187404
2.212276
2.231585
2.252530
2.266602
2.280020
2.288856
2.293111
2.292784
2.288530
2.278713
2.264968
2.242060
2.213916
2.183154
2.143883
2.100685
2.054869
2.005780
1.954074
1.898767
1.841824
1.784881
1.730557
1.677541
1.627471
1.580673
1.538129
1.496568
1.461551
1.425553
1.392173
1.359447
1.323776
1.286142
1.248507
1.211527
1.167020
1.118586
1.070479
1.021718
0.970011
0.919613
0.873470
0.820454
0.771366
0.719332
0.664352
0.602828
0.542940
0.477161
0.406473
0.339058
0.269352
0.206191
0.149576
0.099505
0.056634
0.026200
0.003946
-0.004235
-0.002271
0.012783
0.037982
0.077581
0.118489
0.170196
0.221249
0.275574
0.329572
0.383898
0.438223
0.493530
0.550473
0.604472
0.661088
0.711813
0.763520
0.808028
0.850572
0.884935
0.918643
0.945478
0.972641
0.998167
1.023039
1.047257
1.071147
1.092747
1.109437
1.126782
1.132019
1.137255
1.131365
1.120565
1.100275
1.071150
1.038097
0.994899
0.947446
0.894431
0.837161
0.775636
0.711166
0.642769
0.574700
0.503030
0.428743
0.359037
0.281476
0.213734
0.148610
0.080867
0.029488
-0.019928
-0.069344
-0.106324
-0.139704
-0.169157
-0.192720
-0.206791
-0.213009
-0.220863
-0.216281
-0.207118
-0.201881
-0.174391
-0.156064
-0.127592
-0.090285
-0.058540
-0.011415
0.024584
0.073346
0.112290
0.160398
0.204905
0.251049
0.297848
0.352500
0.400935
0.457224
0.513840
0.576020
0.642126
0.709542
0.778921
0.856809
0.935024
1.021749
1.105527
1.192251
1.279957
1.358827
1.446205
1.514276
1.597400
1.662197
1.736486
1.801283
1.858554
1.924988
1.981931
2.041166
2.105636
2.159307
2.230977
2.288247
2.350754
2.415879
2.476422
2.538275
2.595873
2.652489
2.703542
2.765067
2.815792
2.864881
2.914625
2.958478
3.000040
3.036694
3.068765
3.096583
3.120473
3.140436
3.148291
3.158763
3.155491
3.136183
3.124075
3.083822
3.036697
2.987281
2.910703
2.824961
2.733656
2.621733
2.504902
2.376289
2.236877
2.107610
1.962634
1.814713
1.678901
1.532616
1.395495
1.254446
1.124197
0.989040
0.858791
0.727887
0.601565
0.475571
0.348267
0.224563
0.103805
-0.013681
-0.135421
-0.243416
-0.357630
-0.454826
-0.559221
-0.648562
-0.732995
-0.814155
-0.882879
-0.943095
-0.992511
-1.037018
-1.066471
-1.087742
-1.110323
-1.111959
-1.113922
-1.114576
-1.106067
-1.102467
-1.100176
-1.092649
-1.099194
-1.099848
-1.102139
-1.115556
-1.129301
-1.146645
-1.164644
-1.191806
-1.216678
-1.247113
-1.271657
-1.307000
-1.336781
-1.371797
-1.411068
-1.442157
-1.477828
-1.512845
-1.537716
-1.569788
-1.590405
-1.614294
-1.629348
-1.641783
-1.654874
-1.659782
-1.658473
-1.664036
-1.667963
-1.667635
-1.675162
-1.684325
-1.696106
-1.711487
-1.730468
-1.756321
-1.782501
-1.806064
-1.830281
-1.849261
-1.869878
-1.874460
-1.872823
-1.869878
-1.853187
-1.829951
-1.800170
-1.767772
-1.737336
-1.693483
-1.637194
-1.592687
-1.540652
-1.491236
-1.440510
-1.390439
-1.338732
-1.288661
-1.238263
-1.200300
-1.154811
-1.116849
-1.080850
-1.036342
-0.990198
-0.943727
-0.891693
-0.840313
-0.784024
-0.720208
-0.656719
-0.586686
-0.514361
-0.444327
-0.372330
-0.295096
-0.218190
-0.135393
-0.050960
0.039037
0.137542
0.233102
0.337825
0.450730
0.567889
0.682103
0.799262
0.927221
1.059434
1.193611
1.332696
1.466218
1.605631
1.746353
1.880857
2.019942
2.155755
2.288950
2.418218
2.545849
2.670863
2.791294
2.908781
3.021358
3.129354
3.233750
3.329638
3.427161
3.517485
3.603227
3.688315
3.768821
3.848673
3.927215
4.001831
4.075792
4.148443
4.218150
4.285893
4.344473
4.402071
4.452142
4.493704
4.525448
4.550975
4.568974
4.572247
4.568648
4.550976
4.518905
4.483234
4.438727
4.388329
4.341204
4.289497
4.241718
4.199174
4.164158
4.138305
4.117033
4.107543
4.096089
4.091180
4.084308
4.079400
4.066964
4.052892
4.031948
4.003477
3.966824
3.926571
3.877155
3.817594
3.751816
3.678837
3.594404
3.504081
3.402631
3.295290
3.179113
3.064246
2.942178
2.821420
2.700661
2.576630
2.457835
2.340022
2.225482
2.118141
2.013418
1.917859
1.830808
1.751939
1.681905
1.621036
1.570311
1.528094
1.491114
1.461661
1.434172
1.410282
1.384756
1.360212
1.331741
1.299670
1.261381
1.226691
1.198547
1.160913
1.124587
1.089571
1.056845
1.023465
0.995975
0.976013
0.957032
0.946887
0.948524
0.956378
0.971105
0.995977
1.022158
1.058485
1.091538
1.131464
1.167136
1.201498
1.232588
1.258442
1.283314
1.299677
1.310150
1.323240
1.323241
1.327168
1.329132
1.329787
1.318333
1.309824
1.302625
1.290189
1.275463
1.255500
1.235538
1.206412
1.176304
1.136706
1.098417
1.049329
0.996967
0.942970
0.885373
0.829739
0.772796
0.722071
0.673310
0.627821
0.587241
0.554188
0.523099
0.497900
0.472047
0.450121
0.430485
0.411177
0.393833
0.377797
0.359471
0.346708
0.332964
0.323474
0.311038
0.303839
0.296639
0.293694
0.289113
0.287477
0.285186
0.285514
0.286169
0.286169
0.286496
0.285842
0.279624
0.273080
0.257371
0.239372
0.214174
0.185702
0.150686
0.110761
0.065599
0.012256
-0.046650
-0.111120
-0.176572
-0.249550
-0.322856
-0.404671
-0.488122
-0.577136
-0.664187
-0.752874
-0.841561
-0.933847
-1.026789
-1.117767
-1.211035
-1.303322
-1.391355
-1.477096
-1.556293
-1.628290
-1.694723
-1.752975
-1.805663
-1.843952
-1.873078
-1.891404
-1.894350
-1.881586
-1.856387
-1.819079
-1.776862
-1.720573
-1.661339
-1.597523
-1.532726
-1.461056
-1.397567
-1.330151
-1.266990
-1.205792
-1.150158
-1.097469
-1.051979
-1.008781
-0.970164
-0.932856
-0.899475
-0.865440
-0.836968
-0.804569
-0.780679
-0.751225
-0.726353
-0.702790
-0.676282
-0.651737
-0.626538
-0.599375
-0.570249
-0.540468
-0.503815
-0.470434
-0.432799
-0.392546
-0.354911
-0.315312
-0.280295
-0.245278
-0.214842
-0.186043
-0.157244
-0.132045
-0.100300
-0.066265
-0.031248
0.015877
0.061367
0.113401
0.169363
0.225652
0.280304
0.335284
0.384374
0.429208
0.467498
0.503497
0.533605
0.559459
0.583349
0.604948
0.620330
0.636366
0.648147
0.661565
0.671711
0.685129
0.698547
0.712292
0.726364
0.743709
0.761709
0.785926
0.808180
0.838288
0.867415
0.901777
0.934503
0.967884
0.996683
1.023192
1.043155
1.060827
1.071627
1.077845
1.082427
1.077518
1.072610
1.060501
1.048393
1.035303
1.025485
1.015341
1.009778
1.005523
1.007160
1.010760
1.015669
1.019924
1.027451
1.026797
1.026797
1.017962
1.004544
0.983927
0.958074
0.925676
0.884441
0.834698
0.775464
0.711649
0.632453
0.549329
0.453115
0.354610
0.243342
0.130765
0.012625
-0.112061
-0.242310
-0.370595
-0.506407
-0.641892
-0.779014
-0.916790
-1.053257
-1.187105
-1.320627
-1.450876
-1.575889
-1.699265
-1.819369
-1.933255
-2.045832
-2.151864
-2.253314
-2.349528
-2.440179
-2.527557
-2.613298
-2.693804
-2.775291
-2.847942
-2.923212
-2.991609
-3.058042
-3.118912
-3.168655
-3.213817
-3.252760
-3.281886
-3.307412
-3.319520
-3.326392
-3.327374
-3.323447
-3.314283
-3.299229
-3.279920
-3.256357
-3.230176
-3.201704
-3.172251
-3.143452
-3.111053
-3.081926
-3.051491
-3.025964
-2.996838
-2.972948
-2.949385
-2.930404
-2.909131
-2.896041
-2.882623
-2.873787
-2.864950
-2.853496
-2.842696
-2.834514
-2.819787
-2.805388
-2.799169
-2.778879
-2.763498
-2.748116
-2.723571
-2.698372
-2.670555
-2.639138
-2.598884
-2.557322
-2.506597
-2.448999
-2.383874
-2.308277
-2.221553
-2.123374
-2.010470
-1.885784
-1.747680
-1.605322
-1.453146
-1.302933
-1.147158
-0.994982
-0.846406
-0.706011
-0.573144
-0.448457
-0.332607
-0.229193
-0.130360
-0.040037
0.042106
0.119994
0.195918
0.265298
0.337949
0.403074
0.466890
0.528742
0.589613
0.647211
0.705791
0.763389
0.823932
0.883166
0.943382
1.003271
1.067087
1.132212
1.197664
1.266389
1.341986
1.421183
1.502343
1.591686
1.682664
1.777242
1.877711
1.979816
2.087485
2.200390
2.319185
2.439290
2.562667
2.683753
2.803857
2.919380
3.030976
3.135045
3.226023
3.309802
3.380817
3.440706
3.489141
3.527103
3.557866
3.578156
3.594847
3.601720
3.607283
3.608593
3.608266
3.602048
3.594521
3.581431
3.566378
3.546742
3.522853
3.495363
3.457729
3.418458
3.371987
3.320608
3.263010
3.197231
3.126871
3.050293
2.970769
2.885027
2.799613
2.714198
2.635002
2.558751
2.490026
2.425229
2.368287
2.318216
2.275673
2.239020
2.209240
2.181423
2.156879
2.134953
2.116626
2.099609
2.080628
2.067211
2.052812
2.038085
2.024341
2.007324
1.992925
1.977216
1.960854
1.944491
1.931074
1.911766
1.894094
1.872495
1.849914
1.819480
1.787736
1.750428
1.712139
1.665669
1.618871
1.565201
1.510876
1.457206
1.402226
1.349538
1.293577
1.237289
1.186564
1.129294
1.078241
1.031116
0.988900
0.944720
0.901522
0.860615
0.817090
0.766365
0.717604
0.661643
0.606663
0.545139
0.481324
0.415872
0.346166
0.274169
0.198573
0.122321
0.042470
-0.039017
-0.118868
-0.204937
-0.290679
-0.378056
-0.463144
-0.544958
-0.624155
-0.700406
-0.770112
-0.837200
-0.896106
-0.953704
-1.003774
-1.052535
-1.095079
-1.140240
-1.180493
-1.223036
-1.259362
-1.297324
-1.329395
-1.361139
-1.383392
-1.402700
-1.417426
-1.429535
-1.438043
-1.439679
-1.439679
-1.436079
-1.432479
-1.425279
-1.412842
-1.399097
-1.381425
-1.363753
-1.344771
-1.325463
-1.308118
-1.290118
-1.273100
-1.261319
-1.249537
-1.241683
-1.240701
-1.245282
-1.256081
-1.272771
-1.296006
-1.324150
-1.358185
-1.396801
-1.436727
-1.482216
-1.525414
-1.575811
-1.625227
-1.676606
