EVENT_NAME: 202302060117
EVENT_ID: 13194
EVENT_DATE_YYYYMMDD: 2023/02/06
EVENT_TIME_HHMMSS: 01:17:32.00000
EVENT_LATITUDE_DEGREE: 37.288
EVENT_LONGITUDE_DEGREE: 37.043
EVENT_DEPTH_KM: 8.6
HYPOCENTER_REFERENCE: AFAD
MAGNITUDE_W: 7.7
MAGNITUDE_W_REFERENCE: AFAD
MAGNITUDE_L: 
MAGNITUDE_L_REFERENCE: 
FOCAL_MECHANISM: 
NETWORK: TK
STATION_CODE: 6901
STATION_NAME: 
STATION_LATITUDE_DEGREE: 40.2623
STATION_LONGITUDE_DEGREE: 40.2101
STATION_ELEVATION_M: 1614.0
LOCATION: Kahramanmaras_Pazarck_Turkiye
SENSOR_DEPTH_M: 
VS30_M/S: 519
SITE_CLASSIFICATION_EC8: B
MORPHOLOGIC_CLASSIFICATION: 
EPICENTRAL_DISTANCE_KM: 429.77
EARTHQUAKE_BACKAZIMUTH_DEGREE: 
DATE_TIME_FIRST_SAMPLE_YYYYMMDD_HHMMSS: 2023/02/06 01:18:06.6399770
DATE_TIME_FIRST_SAMPLE_PRECISION: millisecond
SAMPLING_INTERVAL_S: 0.01
NDATA: 18236
DURATION_S: 
STREAM: HNZ
UNITS: cm/s^2
INSTRUMENT: sensor = CMG-5T/GURALP | digitizer = 
INSTRUMENT_ANALOG/DIGITAL: 
INSTRUMENTAL_FREQUENCY_HZ: 
INSTRUMENTAL_DAMPING: 
FULL_SCALE_G: 
N_BIT_DIGITAL_CONVERTER: 
PGA_CM/S^2: 4.505
TIME_PGA_S: 
BASELINE_CORRECTION: BASELINE REMOVED
FILTER_TYPE: BUTTERWORTH
FILTER_ORDER: 
LOW_CUT_FREQUENCY_HZ: 
HIGH_CUT_FREQUENCY_HZ: 
LATE/NORMAL_TRIGGERED: 
DATABASE_VERSION: 
HEADER_FORMAT: DYNA 1.2
DATA_TYPE: Acceleration
PROCESSING: Automatic Paolucci et al., 2011
DATA_TIMESTAMP_YYYYMMDD_HHMMSS: 
DATA_LICENSE: U (unknown license)
DATA_CITATION: Turkish Accelerometric Archive v 1.0 - Disaster And Emergency Management Presidency, Earthquake Department
DATA_CREATOR: AFAD
ORIGINAL_DATA_MEDIATOR_CITATION: : AFAD - Disaster And Emergency Management Presidency
ORIGINAL_DATA_MEDIATOR: AFAD PROCESS SERVICE
ORIGINAL_DATA_CREATOR_CITATION: AFAD PROCESS SERVICE
ORIGINAL_DATA_CREATOR: network: TK
USER1: GuestUser
USER2: 
USER3: 
USER4: 
USER5: 
[...]
-0.756899
-0.779074
-0.800936
-0.815303
-0.821236
-0.825921
-0.834665
-0.837475
-0.848094
-0.860274
-0.867457
-0.863083
-0.844655
-0.816544
-0.781562
-0.743456
-0.703164
-0.658187
-0.615709
-0.582601
-0.557301
-0.544182
-0.528252
-0.517319
-0.517318
-0.521690
-0.519815
-0.518253
-0.525748
-0.536679
-0.548859
-0.554480
-0.558228
-0.557914
-0.556352
-0.555414
-0.547605
-0.540733
-0.543543
-0.545104
-0.537919
-0.532921
-0.533545
-0.534169
-0.534792
-0.545723
-0.562901
-0.588511
-0.616308
-0.640045
-0.656598
-0.661907
-0.660969
-0.658469
-0.652534
-0.644412
-0.633792
-0.626920
-0.635040
-0.640661
-0.635975
-0.632226
-0.634724
-0.637847
-0.642531
-0.649714
-0.659708
-0.667827
-0.677509
-0.690314
-0.692187
-0.675320
-0.646897
-0.618161
-0.589738
-0.551008
-0.500409
-0.440440
-0.382657
-0.327061
-0.273963
-0.213057
-0.145280
-0.083437
-0.032838
0.003706
0.035253
0.066174
0.104280
0.134265
0.161127
0.181117
0.197984
0.212352
0.220473
0.222036
0.217976
0.209232
0.210482
0.219541
0.225788
0.230786
0.232661
0.237972
0.247655
0.264834
0.277641
0.284825
0.285138
0.281391
0.276395
0.273897
0.277958
0.290452
0.299823
0.317939
0.336055
0.356046
0.378847
0.403834
0.431633
0.453810
0.475986
0.490042
0.508783
0.532833
0.556884
0.573439
0.584683
0.593430
0.609359
0.629037
0.640907
0.654963
0.673704
0.683699
0.690571
0.684950
0.669647
0.655592
0.639664
0.620300
0.606246
0.599688
0.592505
0.582824
0.580014
0.595006
0.616246
0.629989
0.643108
0.670907
0.702766
0.729003
0.741809
0.746495
0.751493
0.756491
0.754618
0.752120
0.750560
0.747750
0.742753
0.734633
0.724327
0.709336
0.687161
0.656865
0.630630
0.617513
0.596587
0.573788
0.544742
0.502265
0.456977
0.402320
0.356407
0.321427
0.290819
0.250216
0.216485
0.202743
0.199621
0.208992
0.215552
0.213366
0.218677
0.229297
0.231172
0.221802
0.217118
0.223053
0.236172
0.253352
0.272092
0.281151
0.291459
0.317383
0.335500
0.340810
0.334877
0.333940
0.337065
0.337065
0.331444
0.318639
0.297714
0.272416
0.251802
0.225880
0.180280
0.130932
0.092203
0.054412
0.015371
-0.018048
-0.059588
-0.108936
-0.149851
-0.179522
-0.209193
-0.237614
-0.257915
-0.268221
-0.264472
-0.263222
-0.281649
-0.316942
-0.337867
-0.348486
-0.347861
-0.339427
-0.341300
-0.351918
-0.375655
-0.394394
-0.394393
-0.396891
-0.405948
-0.426249
-0.442489
-0.453420
-0.464976
-0.472471
-0.477155
-0.484963
-0.507762
-0.535871
-0.549301
-0.549925
-0.557108
-0.562104
-0.567101
-0.564601
-0.552419
-0.543361
-0.539612
-0.526805
-0.511812
-0.487762
-0.472769
-0.460899
-0.434350
-0.404990
-0.375630
-0.356889
-0.355014
-0.357512
-0.341582
-0.331899
-0.332210
-0.329711
-0.322839
-0.316591
-0.303784
-0.301597
-0.302533
-0.290976
-0.271923
-0.247560
-0.219762
-0.196023
-0.174784
-0.157292
-0.152294
-0.148233
-0.149169
-0.166034
-0.186960
-0.205074
-0.228499
-0.246301
-0.258169
-0.267225
-0.272222
-0.270659
-0.277218
-0.284400
-0.283463
-0.280963
-0.267844
-0.254413
-0.248478
-0.231299
-0.210684
-0.194442
-0.174139
-0.146653
-0.121665
-0.102612
-0.077937
-0.050763
-0.024526
-0.006722
-0.001412
0.001400
0.009522
0.018580
0.016707
0.015146
0.017958
0.021395
0.029204
0.028268
0.023584
0.022960
0.017026
-0.002650
-0.032321
-0.069488
-0.093849
-0.102906
-0.105091
-0.101342
-0.093221
-0.089472
-0.093219
-0.097279
-0.102275
-0.091343
-0.069791
-0.051987
-0.044490
-0.034807
-0.014192
0.005798
0.020166
0.029225
0.043905
0.063271
0.079513
0.098254
0.121992
0.148229
0.171655
0.194769
0.204452
0.213510
0.219446
0.212263
0.201644
0.185404
0.170725
0.154797
0.128249
0.090770
0.052978
0.022995
-0.006364
-0.035097
-0.058834
-0.095376
-0.122861
-0.139101
-0.155030
-0.172519
-0.185324
-0.174079
-0.160023
-0.144094
-0.121917
-0.101302
-0.071005
-0.030088
0.017700
0.049871
0.079231
0.108904
0.135765
0.162939
0.189488
0.214476
0.229157
0.240089
0.246961
0.256957
0.260393
0.268515
0.270390
0.276949
0.291318
0.306311
0.323802
0.339420
0.362533
0.385647
0.395018
0.395331
0.389397
0.382527
0.378155
0.381904
0.384091
0.376596
0.384093
0.386592
0.384407
0.378161
0.375975
0.389407
0.405336
0.407524
0.394719
0.380352
0.383476
0.401280
0.420958
0.432828
0.437826
0.447509
0.453757
0.450009
0.449073
0.445326
0.430647
0.414719
0.409410
0.400666
0.379428
0.356628
0.327894
0.307906
0.286356
0.263244
0.244192
0.225453
0.207338
0.198906
0.180167
0.158617
0.142064
0.126448
0.116454
0.118017
0.127075
0.128325
0.142694
0.150191
0.138947
0.125830
0.118335
0.112714
0.105531
0.098973
0.098349
0.096788
0.100225
0.100225
0.098352
0.093356
0.093357
0.088360
0.072744
0.062750
0.051195
0.034330
0.011843
-0.018453
-0.044376
-0.065614
-0.098408
-0.122457
-0.138385
-0.145880
-0.146816
-0.147753
-0.144316
-0.121827
-0.079974
-0.013446
0.079318
0.183014
0.288584
0.394154
0.478172
0.558443
0.645585
0.705554
0.745221
0.770209
0.758966
0.703996
0.626538
0.529090
0.431955
0.353873
0.295155
0.306712
0.402599
0.525972
0.643723
0.619362
0.478500
0.449766
0.476315
0.422282
0.434776
0.470071
0.370750
0.187098
-0.089317
-0.564688
-1.050679
-1.388624
-1.597262
-1.600073
-1.446403
-1.139690
-0.707107
-0.148340
0.193354
-0.012786
-0.421630
-0.405076
0.054681
0.366391
0.581903
0.880807
0.984503
0.696219
0.360461
0.207418
0.056874
0.067494
-0.107724
-0.546553
-0.548426
-0.284503
0.325486
1.407725
1.784400
1.147240
0.145585
-0.344154
0.113729
0.947974
0.999510
0.191190
0.084373
0.558184
0.839911
0.420759
-0.146126
-0.109895
0.089688
0.508528
0.641271
0.375163
0.527271
0.688124
0.368295
-0.098019
-0.182973
0.344560
0.834613
1.281564
1.163815
0.854917
0.993594
1.101038
1.335914
1.025767
0.357373
0.142800
0.474188
0.833685
0.687826
0.435148
-0.040536
-0.282281
-0.325695
-0.593052
-0.618663
-1.137761
-1.493196
-1.290491
-0.985652
-0.756398
-0.894449
-1.181795
-1.491317
-1.267373
-0.725160
-0.244789
-0.362851
-0.521828
-0.479975
-0.446242
-0.090492
-0.056447
-0.146398
0.003523
0.187801
-0.069249
-0.417501
-0.279136
-0.091423
0.155947
0.279320
-0.174813
-0.572726
-0.310677
0.274326
0.697227
0.988323
1.033925
0.849961
0.422689
-0.004584
0.062881
0.502024
0.788435
0.697234
0.427691
-0.067670
-0.358140
-0.615815
-0.795718
-0.489630
-0.378126
-0.806960
-0.970622
-0.321591
0.202194
0.125048
-0.226639
-0.539597
-0.627049
-0.267552
0.189081
0.423333
0.919320
1.566789
2.035291
2.060591
1.945341
1.970016
1.757942
1.121406
0.575759
0.540154
0.671023
0.571389
0.243751
-0.102626
-0.312514
-0.416833
-0.322819
-0.276905
-0.349054
-0.389969
-0.342493
0.012007
0.188789
0.300605
0.328404
0.124138
-0.053579
0.013886
0.042309
-0.428377
-1.112076
-1.439713
-0.945912
-0.188189
-0.100735
-0.053571
0.237837
0.251268
0.409935
0.895303
1.239496
0.884998
0.426492
0.194116
-0.033262
-0.198798
-0.116029
0.417438
0.746952
0.630140
0.503333
0.394641
-0.089163
-0.652925
-0.456154
-0.189420
-0.194416
0.018284
0.268152
0.039212
-0.586080
-0.703517
-0.600133
-0.466766
-0.231890
-0.440528
-0.823137
-0.621368
-0.165047
-0.109763
-0.177226
-0.070720
0.125739
0.498042
0.887524
1.028387
1.147075
1.197050
0.711996
0.227254
0.040479
-0.036979
0.010497
-0.095696
-0.224065
-0.338378
-0.303708
-0.251235
-0.221563
-0.006364
-0.013546
-0.222497
-0.019791
0.133565
-0.099123
-0.612599
-1.067669
-1.186355
-1.088594
-0.716291
-0.579487
-0.577613
-0.532323
-0.473916
-0.558558
-0.706291
-0.954596
-1.310343
-1.448394
-1.349696
-1.206333
-1.196338
-1.033611
-0.568545
-0.264331
-0.434239
-0.584784
-0.708155
-0.497953
-0.228720
-0.360837
-0.474838
-0.387383
-0.019141
0.230415
0.495587
0.569611
0.317871
0.313499
0.328180
0.484035
0.636143
0.420633
0.337553
0.246352
-0.038495
-0.374254
-0.693146
-0.596634
-0.412981
-0.624742
-0.920522
-1.063570
-1.018905
-0.911149
-0.670963
-0.337702
-0.250248
-0.201835
0.062088
0.569007
0.914137
0.713932
0.257925
0.013993
0.029923
0.108007
-0.022548
-0.394537
-0.491672
-0.264292
0.072093
0.183284
0.086774
0.246690
0.688644
1.096865
1.096866
0.862304
0.700828
0.679590
0.755176
0.563091
0.128635
-0.340490
-0.372035
-0.196814
-0.182446
0.134574
0.269503
0.215158
0.102406
-0.075624
-0.220546
-0.268644
-0.101545
0.008710
0.031199
-0.042511
-0.042823
-0.087486
-0.288940
-0.312677
-0.145890
0.085551
0.352597
0.680861
1.082211
1.338014
1.468258
1.632546
1.767788
1.818075
1.969245
2.121353
2.063259
1.996733
1.984240
1.738122
1.055673
0.476294
0.227365
0.096810
0.041840
-0.099647
-0.231763
-0.058104
0.233304
0.257979
0.357302
0.516906
0.551576
0.512223
0.350434
0.252675
0.269229
0.212385
-0.044353
-0.099010
0.002812
0.083395
0.149610
0.023428
0.008437
0.142117
0.165230
0.152738
0.212394
0.424782
0.657472
0.991046
1.304630
1.219051
1.114108
1.134411
1.061013
0.728690
0.340460
0.096215
-0.054329
-0.202062
-0.404141
-0.556872
-0.597787
-0.424440
-0.263588
-0.294195
-0.426937
-0.663373
-1.090020
-1.478251
-1.702193
-1.867417
-1.838369
-1.805261
-1.914889
-1.977043
-1.836180
-1.532278
-1.183712
-0.899487
-0.798290
-0.774239
-0.829834
-0.825773
-0.685846
-0.492511
-0.239207
0.039083
0.312377
0.428878
0.338927
0.083751
-0.170176
-0.372255
-0.457209
-0.491565
-0.617748
-0.437530
-0.086466
-0.060229
-0.353197
-0.722063
-1.001289
-1.215861
-1.223044
-1.226167
-1.270830
-1.169633
-1.093422
-1.135274
-1.327983
-1.530063
-1.450417
-1.166817
-0.995969
-0.859478
-0.730483
-0.531526
-0.304146
-0.268226
-0.367548
-0.546827
-0.695185
-0.711113
-0.723605
-0.573684
-0.202006
-0.125483
-0.313507
-0.539636
-0.673002
-0.605225
-0.397522
-0.148278
0.060362
0.248388
0.482951
0.631311
0.453906
0.167496
-0.023027
-0.097986
-0.190748
-0.347851
-0.436553
-0.521195
-0.561485
-0.448732
-0.454041
-0.584596
-0.659867
-0.762000
-0.921602
-1.030293
-0.945962
-0.839768
-0.801037
-0.730137
-0.658299
-0.593645
-0.479954
-0.293490
-0.119207
-0.152938
-0.174488
-0.056425
0.002607
0.115985
0.214996
0.071635
-0.203843
-0.537102
-0.789155
-0.771039
-0.661721
-0.579576
-0.545844
-0.537097
-0.431528
-0.126064
0.272787
0.511412
0.630412
0.676013
0.752848
0.688196
0.338383
0.046039
-0.217570
-0.489925
-0.699500
-0.756032
-0.776645
-0.709805
-0.500540
-0.345621
-0.208506
-0.223185
-0.166339
0.030432
0.233450
0.563900
0.754113
0.831260
0.951822
1.116423
1.173268
1.090813
1.157966
1.358173
1.533081
1.435321
1.261039
1.262914
1.242926
1.076452
0.877496
0.736635
0.521437
0.317796
0.438983
0.529248
0.345284
0.106037
0.022957
0.020772
-0.019206
-0.185367
-0.497388
-0.443353
-0.181617
0.123847
0.311248
0.195373
-0.018263
-0.351522
-0.643866
-0.680096
-0.526427
-0.303732
-0.220650
-0.192539
-0.347144
-0.678217
-0.721943
-0.715695
-0.676028
-0.497997
-0.465513
-0.410542
-0.257497
-0.092584
0.078264
0.139170
0.161659
0.264417
0.433703
0.371550
0.134177
-0.096637
-0.120686
-0.071649
-0.216571
-0.392727
-0.373986
-0.238432
-0.135986
-0.031978
-0.016360
-0.017921
-0.089132
-0.191577
-0.233741
-0.180644
-0.038531
0.292857
0.705138
1.042772
1.289517
1.441937
1.474421
1.374787
1.331373
1.343867
1.359485
1.394155
1.434134
1.430700
1.431638
1.456937
1.400718
1.170216
0.843203
0.687974
0.786360
0.851639
0.865383
0.889745
0.980948
0.993754
0.912548
0.915048
0.857267
0.739830
0.519635
0.330674
0.122973
-0.028821
0.075812
0.257279
0.359413
0.238541
0.066445
-0.113771
-0.263378
-0.360200
-0.536981
-0.774041
-1.027656
-1.100116
-1.060762
-0.956753
-0.645043
-0.292730
-0.121257
-0.061601
0.036473
0.291026
0.583059
0.725797
0.775147
0.859790
0.905392
0.774212
0.642408
0.593997
0.747666
0.928821
0.944438
1.021898
1.150268
1.337982
1.512577
1.673743
1.941101
2.147867
2.405544
2.845936
3.207307
3.308192
3.253847
2.958692
2.426163
1.839600
1.345801
1.074696
0.962569
0.880426
0.959759
1.109056
1.047215
0.966946
0.643368
0.368828
0.252640
-0.111228
-0.624392
-1.066969
-1.157545
-0.836152
-0.256147
0.133022
-0.035013
-0.640315
-1.239059
-1.735982
-2.204794
-2.590838
-2.635814
-2.344093
-1.883087
-1.582933
-1.857474
-2.478081
-3.053712
-3.458808
-3.720231
-3.798626
-3.527831
-3.008419
-2.390309
-1.908064
-1.767825
-1.744712
-1.795309
-1.869644
-1.981459
-1.996137
-1.817169
-1.409260
-0.762728
-0.188657
0.138670
0.201450
0.195517
0.295464
0.326386
0.195207
0.004684
-0.136490
-0.392916
-0.913576
-1.530747
-2.185086
-2.640781
-2.903765
-3.118650
-3.183302
-3.166123
-3.213597
-3.271066
-3.296052
-3.143632
-2.767268
-2.413081
-2.132604
-1.937394
-1.688776
-1.249945
-0.910125
-0.809240
-0.688678
-0.401330
0.062174
0.431979
0.652487
0.878306
0.940149
0.689658
0.278939
0.052185
0.065304
0.162441
0.321420
0.406688
0.165567
-0.337915
-0.872005
-1.386731
-1.904892
-2.249084
-2.195361
-1.741539
-1.248675
-0.940088
-0.813904
-0.881055
-0.993182
-1.091254
-1.321756
-1.694370
-1.908630
-1.838667
-1.612223
-1.242107
-0.759862
-0.442218
-0.216087
0.198694
0.700928
1.058239
1.220029
1.272814
1.169432
0.992340
1.099783
1.482393
1.836893
1.954957
1.836270
1.615139
1.230032
0.857106
0.432957
-0.126120
-0.500296
-0.565573
-0.361930
-0.169531
-0.119557
-0.168280
-0.453441
-0.992841
-1.686221
-2.571375
-3.404682
-3.992806
-4.433509
-4.505345
-4.109304
-3.646112
-3.333777
-3.137630
-2.969906
-2.717227
-2.444871
-2.187194
-1.963875
-1.708385
-1.248940
-0.430624
0.633186
1.809125
2.938214
3.649399
4.040755
4.222846
4.225346
4.201921
4.030139
3.631913
3.171222
2.760503
2.475031
2.292316
1.972174
1.456512
0.936164
0.461105
-0.130455
-0.716393
-1.145539
-1.418518
-1.391345
-1.039968
-0.323160
0.632583
1.587389
2.338866
2.811740
3.127511
3.271498
3.233394
3.142818
3.112210
2.983529
2.709925
2.485982
2.334189
2.166466
2.078389
2.125865
2.299523
2.430392
2.351685
2.177091
2.032481
1.890994
1.792610
1.765750
1.638943
1.524630
1.363154
1.147957
1.155141
1.312558
1.509954
1.812607
2.030617
2.069660
1.981270
1.809487
1.612717
1.292888
0.826262
0.255628
-0.239108
-0.535825
-0.769762
-0.991518
-1.045864
-0.986832
-0.998699
-1.114575
-1.169545
-1.068660
-0.781624
-0.420253
-0.176319
0.032634
0.295932
0.571099
0.804101
0.932784
1.015553
1.135490
1.211388
1.326328
1.447202
1.357563
1.084896
0.750075
0.378398
-0.001711
-0.308423
-0.470523
-0.510501
-0.427732
-0.192231
0.088870
0.357791
0.590481
0.771011
0.966220
1.073976
1.045242
1.155497
1.486572
1.826080
2.128108
2.235239
2.036908
1.790165
1.579653
1.324789
1.005897
0.639842
0.171654
-0.293098
-0.528910
-0.722868
-0.980231
-1.196053
-1.395946
-1.613329
-1.814159
-1.988128
-2.257047
-2.566257
-2.819872
-2.920442
-2.874216
-2.802066
-2.627158
-2.429762
-2.296082
-2.192387
-2.186764
-2.092126
-1.856313
-1.704205
-1.604570
-1.501499
-1.342207
-1.130444
-0.862773
-0.528262
-0.242163
-0.088182
-0.093803
-0.041642
0.127331
0.438104
0.930031
1.326072
1.549079
1.631849
1.694316
1.747102
1.659961
1.380423
1.032796
0.800108
0.618330
0.487151
0.302562
0.049260
-0.235900
-0.708461
-1.285028
-1.866281
-2.407243
-2.752996
-2.912286
-3.011607
-3.107180
-3.205565
-3.216496
-3.071572
-2.836071
-2.552158
-2.204530
-1.864397
-1.672936
-1.662315
-1.762886
-1.847215
-1.873451
-1.820978
-1.675742
-1.537689
-1.389642
-1.211611
-1.039826
-1.000783
-1.151328
-1.392449
-1.639504
-1.816597
-1.896241
-1.787548
-1.698220
-1.605143
-1.435857
-1.397752
-1.443664
-1.555479
-1.559850
-1.472708
-1.386503
-1.322162
-1.288116
-1.226586
-1.137570
-1.027003
-0.926430
-0.828669
-0.717165
-0.542257
-0.352982
-0.267401
-0.273335
-0.308003
-0.373280
-0.431686
-0.542563
-0.689984
-0.871762
-1.064471
-1.177535
-1.183156
-1.097264
-1.146299
-1.328077
-1.434894
-1.414904
-1.270917
-1.075395
-0.828338
-0.578470
-0.527871
-0.564101
-0.656239
-0.857381
-1.033224
-1.151598
-1.209691
-1.202194
-1.127233
-1.004798
-0.784601
-0.539418
-0.396368
-0.391682
-0.516303
-0.589388
-0.548159
-0.448524
-0.356072
-0.310783
-0.235510
-0.043111
0.182707
0.281406
0.289840
0.315452
0.382917
0.492235
0.588747
0.604364
0.539087
0.430084
0.319831
0.274855
0.267985
0.265799
0.349818
0.494117
0.669962
0.777406
0.805829
0.824882
0.896408
1.024465
1.153460
1.373032
1.575425
1.683806
1.666004
1.616656
1.618843
1.592608
1.618845
1.661635
1.632589
1.555443
1.445190
1.310575
1.256230
1.210942
1.099440
1.000118
0.906419
0.865817
0.782424
0.618762
0.446354
0.264577
0.129962
0.048756
-0.043694
-0.192052
-0.378827
-0.569662
-0.655241
-0.541238
-0.305113
-0.045250
0.226794
0.450738
0.543190
0.533508
0.423255
0.199000
0.019096
-0.141442
-0.327593
-0.499063
-0.670846
-0.867303
-1.055952
-1.204310
-1.442933
-1.699358
-1.846467
-1.841156
-1.736523
-1.551308
-1.260837
-0.923203
-0.533097
-0.154547
0.143733
0.341754
0.411405
0.410156
0.431708
0.422339
0.331763
0.204956
0.068155
-0.062088
-0.153601
-0.235744
-0.309454
-0.320072
-0.318197
-0.221373
-0.003675
0.223080
0.396426
0.520736
0.705014
0.913966
1.077943
1.205376
1.288770
1.347177
1.414642
1.480545
1.513966
1.452437
1.285651
1.030788
0.804034
0.666295
0.506381
0.379262
0.330539
0.263388
0.229344
0.226846
0.262453
0.383328
0.491084
0.624139
0.767813
0.823097
0.804046
0.816540
0.831220
0.799051
0.720031
0.542002
0.301193
0.078812
-0.123580
-0.340339
-0.475891
-0.518055
-0.528986
-0.597074
-0.817893
-1.027469
-1.186758
-1.335116
-1.338863
-1.242039
-1.101175
-0.910651
-0.692641
-0.462450
-0.248812
-0.055789
0.084450
0.116621
0.097882
0.077581
0.043225
-0.015181
-0.085767
-0.153543
-0.291281
-0.417151
-0.441200
-0.376858
-0.225063
-0.036725
0.194403
0.447707
0.669153
0.810641
0.891224
0.923083
0.926832
0.879045
0.806585
0.752864
0.691647
0.662601
0.658229
0.692275
0.684779
0.657920
0.702896
0.801595
0.898732
1.013671
1.157034
1.317574
1.480301
1.611795
1.654897
1.656772
1.681448
1.708934
1.764218
1.789518
1.786395
1.816692
1.835746
1.778277
1.713000
1.644287
1.597750
1.525602
1.370373
1.172354
0.934356
0.628582
0.328430
0.071067
-0.182547
-0.401805
-0.603572
-0.707266
-0.690711
-0.610753
-0.488629
-0.354013
-0.222831
-0.073847
0.122612
0.330939
0.507721
0.675758
0.860660
1.062741
1.224844
1.369768
1.451288
1.436921
1.306991
1.098353
0.870974
0.582691
0.319082
0.086081
-0.172843
-0.378670
-0.528277
-0.722548
-0.910885
-1.072361
-1.198855
-1.311295
-1.433417
-1.510875
-1.514309
-1.448406
-1.363138
-1.261941
-1.113581
-0.955227
-0.776884
-0.608535
-0.510149
-0.488597
-0.488596
-0.405202
-0.247785
-0.090992
0.033942
0.177305
0.308486
0.356274
0.334723
0.194799
-0.062564
-0.273701
-0.380831
-0.394885
-0.331480
-0.208107
-0.048504
0.117659
0.238845
0.328486
0.362531
0.444364
0.625831
0.765445
0.916303
1.051232
1.182413
1.333271
1.423537
1.435094
1.448838
1.387933
1.213964
1.061858
0.915999
0.791379
0.691120
0.645208
0.675505
0.716734
0.743283
0.767022
0.780453
0.781078
0.744224
0.636469
0.502166
0.340378
