EVENT_NAME: 202302060117
EVENT_ID: 13194
EVENT_DATE_YYYYMMDD: 2023/02/06
EVENT_TIME_HHMMSS: 01:17:32.00000
EVENT_LATITUDE_DEGREE: 37.288
EVENT_LONGITUDE_DEGREE: 37.043
EVENT_DEPTH_KM: 8.6
HYPOCENTER_REFERENCE: AFAD
MAGNITUDE_W: 7.7
MAGNITUDE_W_REFERENCE: AFAD
MAGNITUDE_L: 
MAGNITUDE_L_REFERENCE: 
FOCAL_MECHANISM: 
NETWORK: TK
STATION_CODE: 2506
STATION_NAME: 
STATION_LATITUDE_DEGREE: 39.91733
STATION_LONGITUDE_DEGREE: 40.68134
STATION_ELEVATION_M: 1639.0
LOCATION: Kahramanmaras_Pazarck_Turkiye
SENSOR_DEPTH_M: 
VS30_M/S: 365
SITE_CLASSIFICATION_EC8: B
MORPHOLOGIC_CLASSIFICATION: 
EPICENTRAL_DISTANCE_KM: 430.55
EARTHQUAKE_BACKAZIMUTH_DEGREE: 
DATE_TIME_FIRST_SAMPLE_YYYYMMDD_HHMMSS: 2023/02/06 01:18:06.7366850
DATE_TIME_FIRST_SAMPLE_PRECISION: millisecond
SAMPLING_INTERVAL_S: 0.01
NDATA: 21001
DURATION_S: 
STREAM: HNE
UNITS: cm/s^2
INSTRUMENT: sensor = CMG-5T/GURALP | digitizer = 
INSTRUMENT_ANALOG/DIGITAL: 
INSTRUMENTAL_FREQUENCY_HZ: 
INSTRUMENTAL_DAMPING: 
FULL_SCALE_G: 
N_BIT_DIGITAL_CONVERTER: 
PGA_CM/S^2: 7.382
TIME_PGA_S: 
BASELINE_CORRECTION: BASELINE REMOVED
FILTER_TYPE: BUTTERWORTH
FILTER_ORDER: 
LOW_CUT_FREQUENCY_HZ: 
HIGH_CUT_FREQUENCY_HZ: 
LATE/NORMAL_TRIGGERED: 
DATABASE_VERSION: 
HEADER_FORMAT: DYNA 1.2
DATA_TYPE: Acceleration
PROCESSING: Automatic Paolucci et al., 2011
DATA_TIMESTAMP_YYYYMMDD_HHMMSS: 
DATA_LICENSE: U (unknown license)
DATA_CITATION: Turkish Accelerometric Archive v 1.0 - Disaster And Emergency Management Presidency, Earthquake Department
DATA_CREATOR: AFAD
ORIGINAL_DATA_MEDIATOR_CITATION: : AFAD - Disaster And Emergency Management Presidency
ORIGINAL_DATA_MEDIATOR: AFAD PROCESS SERVICE
ORIGINAL_DATA_CREATOR_CITATION: AFAD PROCESS SERVICE
ORIGINAL_DATA_CREATOR: network: TK
USER1: GuestUser
USER2: 
USER3: 
USER4: 
USER5: 
[...]
0.594979
0.589088
0.590398
0.590399
0.546213
0.529521
0.498100
0.476171
0.425111
0.427403
0.416275
0.403511
0.409403
0.457519
0.462102
0.486979
0.569462
0.594993
0.624452
0.679441
0.735084
0.746214
0.790074
0.816260
0.839172
0.833282
0.859140
0.846703
0.846377
0.841795
0.850961
0.822158
0.825105
0.785173
0.764226
0.699092
0.702039
0.637560
0.626432
0.600902
0.614323
0.579956
0.587485
0.582576
0.567521
0.543628
0.529554
0.490605
0.448710
0.418926
0.387505
0.333499
0.316807
0.301097
0.274913
0.252329
0.253640
0.226474
0.193416
0.210110
0.197673
0.197346
0.194401
0.214695
0.177383
0.157090
0.111922
0.066099
-0.016055
-0.050094
-0.123738
-0.185927
-0.248115
-0.271026
-0.345325
-0.368563
-0.417986
-0.438933
-0.511595
-0.513558
-0.567564
-0.601603
-0.657245
-0.674265
-0.737107
-0.760346
-0.787512
-0.786856
-0.818932
-0.803875
-0.794055
-0.789471
-0.767868
-0.723680
-0.701750
-0.665417
-0.608464
-0.579333
-0.544637
-0.497176
-0.450043
-0.429421
-0.377705
-0.326971
-0.266745
-0.224521
-0.135165
-0.103088
-0.046789
-0.029441
0.008855
-0.020929
0.004929
-0.007181
-0.016017
-0.053657
-0.051692
-0.104061
-0.144320
-0.193088
-0.234001
-0.322047
-0.352813
-0.409437
-0.457224
-0.520394
-0.535450
-0.586182
-0.622840
-0.664080
-0.680118
-0.751143
-0.770454
-0.806457
-0.839515
-0.876827
-0.885009
-0.920685
-0.947197
-0.960288
-0.957014
-0.972070
-0.954394
-0.900715
-0.857181
-0.791391
-0.709235
-0.625443
-0.576345
-0.468659
-0.392722
-0.324641
-0.274562
-0.184550
-0.159347
-0.097811
-0.071298
-0.029402
-0.068024
-0.055258
-0.110572
-0.138720
-0.204509
-0.227093
-0.326594
-0.393692
-0.472900
-0.541962
-0.664048
-0.732128
-0.842758
-0.942260
-1.053545
-1.118352
-1.221126
-1.277096
-1.320300
-1.348448
-1.377250
-1.341245
-1.331098
-1.268908
-1.238140
-1.165149
-1.097722
-1.054844
-0.942575
-0.891187
-0.816232
-0.738331
-0.630645
-0.574346
-0.475170
-0.410362
-0.354064
-0.321659
-0.261433
-0.235247
-0.219208
-0.179276
-0.141307
-0.138687
-0.097773
-0.070933
-0.038201
-0.031981
0.014171
0.005661
0.034793
0.065561
0.116295
0.107458
0.156556
0.167685
0.199763
0.213838
0.281919
0.333635
0.379459
0.433139
0.467180
0.465872
0.488785
0.526099
0.529373
0.562105
0.605965
0.654081
0.679939
0.743438
0.768314
0.782717
0.772244
0.785337
0.763408
0.749335
0.742462
0.715950
0.651471
0.625942
0.584374
0.536587
0.506148
0.483237
0.417776
0.350024
0.294382
0.234157
0.179497
0.135966
0.098653
0.027955
-0.011649
-0.034560
-0.036850
-0.008374
0.061672
0.098986
0.152666
0.200454
0.276718
0.325488
0.396516
0.466234
0.503875
0.547408
0.608289
0.663278
0.704847
0.760164
0.790604
0.777513
0.757548
0.746093
0.720563
0.701253
0.710745
0.681288
0.644630
0.613537
0.585389
0.517309
0.452175
0.410607
0.332381
0.266265
0.204731
0.134033
0.041077
-0.017183
-0.102283
-0.170690
-0.230587
-0.246952
-0.281646
-0.292774
-0.294082
-0.282298
-0.300627
-0.228618
-0.192613
-0.129114
-0.082635
0.010977
0.041090
0.105244
0.147468
0.192310
0.196239
0.220788
0.218170
0.181512
0.140927
0.109506
0.036844
-0.051202
-0.122882
-0.225985
-0.334324
-0.436444
-0.535618
-0.665232
-0.777172
-0.892057
-0.991559
-1.097934
-1.146048
-1.228857
-1.308720
-1.371890
-1.398074
-1.462226
-1.464844
-1.472371
-1.466151
-1.477606
-1.418362
-1.401014
-1.364027
-1.330313
-1.269760
-1.268450
-1.210188
-1.199713
-1.189893
-1.235716
-1.221313
-1.266808
-1.302157
-1.377438
-1.415732
-1.537819
-1.601316
-1.694599
-1.757442
-1.847124
-1.866762
-1.926332
-1.965935
-1.985900
-1.967898
-1.968224
-1.933856
-1.875266
-1.819622
-1.744995
-1.656620
-1.561044
-1.487726
-1.359092
-1.234713
-1.101824
-0.988574
-0.851430
-0.784985
-0.696937
-0.598089
-0.497931
-0.450470
-0.324127
-0.267829
-0.199420
-0.203674
-0.146067
-0.171596
-0.142137
-0.156866
-0.112350
-0.112022
-0.049505
-0.022665
-0.000734
0.006467
0.062111
0.043455
0.083061
0.108919
0.172091
0.192712
0.270286
0.304981
0.344587
0.365208
0.437545
0.448674
0.493844
0.538686
0.584183
0.579929
0.624771
0.642120
0.641139
0.661105
0.683036
0.692529
0.693184
0.719370
0.705951
0.693841
0.685332
0.704644
0.667004
0.702682
0.727559
0.765200
0.778293
0.856521
0.874197
0.940642
0.971083
1.046692
1.028036
1.074515
1.065679
1.066334
1.009710
1.011020
0.965198
0.947851
0.928868
0.910212
0.848024
0.822494
0.786491
0.737068
0.681098
0.670625
0.654261
0.623494
0.636915
0.625132
0.599603
0.559672
0.542652
0.460498
0.412057
0.363616
0.334486
0.270661
0.258224
0.211092
0.127302
0.122065
0.034347
-0.019331
-0.069736
-0.049115
-0.111630
-0.148616
-0.162035
-0.198038
-0.225531
-0.269390
-0.281172
-0.287063
-0.259568
-0.229128
-0.163665
-0.127332
-0.051068
0.000321
0.040253
0.060220
0.122737
0.115865
0.129612
0.143033
0.148925
0.124705
0.126343
0.106050
0.085430
0.072666
0.079540
0.045501
0.010479
0.002625
-0.000647
-0.021922
-0.038614
-0.054324
-0.124040
-0.159062
-0.196374
-0.243506
-0.294566
-0.337116
-0.415342
-0.513862
-0.580960
-0.660495
-0.749850
-0.796000
-0.805492
-0.817274
-0.820219
-0.793706
-0.773739
-0.767847
-0.723332
-0.697146
-0.691581
-0.671287
-0.633318
-0.623498
-0.600585
-0.556398
-0.522684
-0.537412
-0.520718
-0.518426
-0.552138
-0.577668
-0.607125
-0.676514
-0.741321
-0.783216
-0.824129
-0.887954
-0.954724
-1.035242
-1.171402
-1.283342
-1.381534
-1.481036
-1.557953
-1.587738
-1.636506
-1.670218
-1.672836
-1.661707
-1.666943
-1.637157
-1.599188
-1.561546
-1.551726
-1.483972
-1.438147
-1.373994
-1.298057
-1.216228
-1.181533
-1.116397
-1.055189
-1.000527
-0.940956
-0.834906
-0.781554
-0.713145
-0.653901
-0.573382
-0.543268
-0.463731
-0.401868
-0.328223
-0.303673
-0.217917
-0.194677
-0.150162
-0.095828
-0.057532
-0.066368
-0.057530
-0.063748
-0.085677
-0.103678
-0.107278
-0.104331
-0.117750
-0.088946
-0.085345
-0.070288
-0.054903
-0.014643
-0.023480
0.018744
0.066205
0.126758
0.158181
0.253102
0.276996
0.308746
0.347697
0.470439
0.554232
0.730326
0.887763
1.073349
1.194782
1.350583
1.441904
1.509985
1.534862
1.561375
1.551229
1.575778
1.598691
1.614730
1.592146
1.614077
1.589529
1.561708
1.526360
1.512941
1.474974
1.492976
1.529963
1.546984
1.526037
1.502144
1.429810
1.332926
1.256991
1.240299
1.257647
1.321474
1.407557
1.439962
1.430471
1.376138
1.290711
1.194809
1.180736
1.145060
1.116585
1.057342
1.062253
1.040978
1.087130
1.088767
1.087132
0.938533
0.803027
0.623989
0.535616
0.482920
0.582423
0.670471
0.845255
0.982399
1.111033
1.141474
1.112672
1.062921
0.966365
0.896649
0.901887
0.892723
0.911053
0.941494
0.998447
1.027578
1.029870
1.014815
0.949026
0.912695
0.903531
0.932336
0.963758
0.998127
0.960487
0.889461
0.831201
0.834475
0.805345
0.799781
0.853461
0.981440
1.123167
1.288460
1.317918
1.195505
0.969007
0.788332
0.638424
0.611586
0.663956
0.801755
0.895039
0.975231
0.891441
0.717312
0.455464
0.261697
0.082659
0.047965
0.058439
0.063350
-0.016840
-0.083611
-0.167402
-0.244974
-0.270176
-0.298978
-0.395534
-0.537913
-0.647562
-0.728734
-0.748372
-0.703857
-0.616791
-0.582096
-0.532016
-0.540198
-0.596167
-0.736256
-0.852450
-0.968972
-0.890417
-0.742471
-0.612528
-0.609909
-0.660968
-0.799747
-1.003007
-1.237688
-1.454367
-1.604601
-1.671699
-1.654024
-1.537500
-1.397410
-1.215425
-1.046859
-0.967322
-1.019036
-1.170580
-1.387586
-1.570879
-1.632413
-1.617356
-1.601971
-1.547310
-1.517851
-1.551563
-1.579711
-1.563999
-1.482498
-1.377103
-1.265162
-1.279236
-1.352225
-1.411795
-1.399029
-1.366952
-1.320473
-1.276612
-1.278248
-1.339127
-1.347964
-1.368911
-1.388876
-1.378074
-1.241912
-1.113932
-1.028176
-1.056979
-1.125058
-1.148624
-1.039956
-0.909685
-0.836040
-0.775486
-0.781377
-0.827200
-0.929647
-1.065480
-1.289033
-1.378388
-1.333218
-1.175781
-0.996086
-0.767295
-0.658627
-0.652080
-0.755510
-0.845847
-0.998700
-1.134533
-1.249418
-1.282803
-1.315861
-1.219958
-1.111945
-1.034698
-1.034043
-1.025205
-0.937157
-0.743716
-0.435388
-0.110695
0.168174
0.261459
0.202871
-0.027882
-0.297258
-0.569907
-0.729961
-0.823572
-0.774147
-0.672352
-0.548628
-0.438323
-0.325073
-0.255682
-0.215422
-0.184327
-0.198728
-0.312631
-0.402314
-0.430461
-0.413113
-0.469410
-0.584295
-0.795737
-0.976412
-1.083442
-1.056929
-1.006522
-0.908328
-0.843847
-0.753836
-0.591161
-0.382009
-0.343713
-0.379389
-0.439940
-0.532896
-0.630434
-0.683457
-0.607193
-0.421280
-0.191507
-0.012794
0.097511
0.053324
-0.110330
-0.381997
-0.624861
-0.745965
-0.693268
-0.569543
-0.363009
-0.180696
-0.091994
-0.226191
-0.430432
-0.669368
-0.849388
-1.021880
-1.160332
-1.331187
-1.466693
-1.531500
-1.475202
-1.374716
-1.262775
-1.323327
-1.522658
-1.782870
-1.936378
-1.945869
-1.875169
-1.773374
-1.710530
-1.748170
-1.799557
-1.812321
-1.641464
-1.333464
-1.035610
-0.981276
-1.006150
-1.039208
-0.950179
-0.939704
-0.896825
-0.929883
-0.967523
-0.842162
-0.770807
-0.743640
-0.808119
-0.813683
-0.915476
-0.914820
-0.840192
-0.707958
-0.748871
-0.843463
-1.026756
-1.146551
-1.194665
-1.108254
-1.084687
-1.058501
-1.105961
-1.155711
-1.237211
-1.206115
-1.123305
-0.959321
-0.792719
-0.673905
-0.708926
-0.730528
-0.696487
-0.582254
-0.451656
-0.319095
-0.361644
-0.494204
-0.704992
-0.895486
-1.067651
-1.054885
-0.688623
-0.116156
0.452057
0.906692
1.128283
1.022889
0.715545
0.374816
0.142426
-0.037267
-0.076871
-0.068687
0.040963
0.153558
0.177453
-0.015660
-0.119744
-0.128580
-0.065736
-0.068353
-0.037258
-0.066715
-0.050676
0.027552
0.156840
0.181717
0.186627
0.133931
0.089090
0.058324
0.217725
0.388582
0.562385
0.526382
0.311012
-0.073577
-0.335752
-0.482714
-0.406123
-0.216282
0.056369
0.134925
0.022003
-0.244100
-0.493182
-0.756340
-0.961563
-1.132091
-1.213918
-1.180858
-1.043387
-0.892169
-0.767790
-0.673851
-0.661085
-0.711490
-0.738328
-0.748802
-0.839139
-0.968753
-1.130443
-1.306536
-1.568384
-1.734329
-1.868199
-1.905839
-2.042981
-2.130700
-2.286499
-2.309082
-2.334612
-2.200414
-2.103201
-1.881938
-1.869500
-1.791599
-1.854115
-1.635470
-1.559861
-1.204400
-1.044672
-0.633896
-0.554031
-0.280398
-0.555339
-0.658768
-1.098018
-0.878719
-1.037464
-0.744520
-1.068230
-0.843694
-1.307165
-1.058081
-1.641348
-1.542172
-2.517230
-2.452422
-3.564296
-2.972517
-3.823851
-3.486066
-4.405154
-3.451697
-4.957326
-5.246667
-4.769447
-5.229646
-4.089949
-4.797594
-3.338114
-4.868619
-3.507005
-3.729575
-3.242863
-4.169152
-3.059895
-3.438920
-2.740765
-3.193435
-2.634388
-2.821936
-2.430799
-2.671371
-2.499532
-2.691008
-2.788219
-3.031083
-3.243506
-3.425490
-3.463130
-3.511244
-3.399958
-3.202916
-3.085738
-2.969542
-2.998017
-2.928953
-3.060204
-3.054312
-3.130902
-2.980993
-2.846467
-2.612766
-2.446819
-2.343388
-2.092994
-1.759464
-1.595153
-1.570931
-1.552273
-1.721820
-1.760114
-1.664211
-1.781715
-1.682539
-1.649153
-1.741126
-1.719850
-1.698574
-1.595470
-1.532299
-1.520187
-1.534261
-1.705771
-1.760104
-1.846186
-1.888408
-2.068428
-2.078246
-1.956486
-1.687108
-1.303172
-0.877340
-0.562466
-0.346440
-0.316981
-0.466889
-0.721863
-0.936251
-1.007931
-1.032479
-1.028550
-1.057680
-0.740842
-0.835761
-0.697636
-0.646247
-0.524159
-0.559508
-0.479971
-0.191282
-0.130401
0.352711
0.585102
0.927470
0.909141
0.951038
0.845317
0.720613
0.745162
0.879688
1.081639
1.218783
1.286865
1.510091
1.679312
1.956218
1.954255
1.872101
1.834461
1.848208
1.837081
1.793876
1.781767
1.683574
1.585709
1.447912
1.320916
1.293096
1.333029
1.505195
1.560839
1.749370
1.894370
2.031841
1.965725
1.851822
1.713043
1.527459
1.390316
1.166764
0.901315
0.615901
0.679400
0.486288
0.556988
0.389078
0.387770
0.216914
0.178620
0.302017
0.497422
0.746506
0.959587
1.307519
1.617810
1.709785
1.772630
1.754629
1.756266
1.769359
1.778852
1.843006
1.873774
1.890468
1.918290
1.960186
2.093075
2.189960
2.349689
2.475377
2.451484
2.340526
2.194547
2.048567
1.872802
1.801449
1.570696
1.316049
1.021470
0.752094
0.589094
0.654557
0.734749
0.833270
0.889896
0.988090
0.927865
0.810689
0.574371
0.451958
0.123666
0.028419
-0.149964
-0.273687
-0.371552
-0.407228
-0.471708
-0.609177
-0.730609
-0.799998
-0.847457
-0.781994
-0.692637
-0.766282
-0.769554
-0.797702
-0.723074
-0.625535
-0.448786
-0.408853
-0.404925
-0.607529
-0.682483
-0.785257
-0.921745
-1.123368
-1.311898
-1.602877
-1.721035
-1.865051
-1.826100
-1.701721
-1.324004
-1.219591
-1.075900
-1.183912
-1.232681
-1.423502
-1.290286
-1.362293
-1.334471
-1.375057
-1.389458
-1.757682
-1.776992
-1.950466
-1.822159
-1.804156
-1.688615
-1.693196
-1.633625
-1.886963
-2.075820
-2.400512
-2.396911
-2.388400
-2.165500
-1.931145
-1.490911
-1.201240
-0.914515
-0.824176
-0.664775
-0.749548
-0.700450
-0.708305
-0.628768
-0.681137
-0.756745
-0.984225
-1.282077
-1.381251
-1.376013
-1.088306
-0.834967
-0.435647
-0.434010
-0.260207
-0.637923
-0.670980
-1.226426
-1.090264
-1.664039
-1.345237
-1.702660
-0.842486
-1.008432
0.140103
-0.136474
0.914522
-0.032060
0.712572
-0.733486
0.162692
-1.359630
-0.046458
-1.766476
-0.051693
-2.201797
0.231759
-2.396873
0.939734
-2.774261
2.204138
-4.183659
7.382196
-7.303257
1.738705
3.643655
-6.032961
7.322630
-3.774515
3.796185
-2.416828
2.543241
-0.890576
1.744931
0.400994
0.799987
0.817008
1.026487
0.501809
1.537421
0.493628
1.639871
0.469408
1.743957
0.843199
1.940346
1.064135
1.801567
0.498871
0.869715
0.230478
0.428175
0.224915
0.512950
-0.004528
-0.138070
-0.398608
-0.294850
-0.530840
-0.915430
-0.925248
-1.390683
-1.183495
-1.226044
-1.264666
-1.281031
-1.485272
-1.527494
-1.599502
-1.477087
-1.338961
-1.006085
-0.936367
-0.633931
-0.385501
-0.127580
0.215443
0.430487
0.197443
0.375173
0.604619
0.879561
1.210145
1.633359
1.800288
1.760357
1.434029
0.860254
0.499559
0.220691
0.008267
-0.075524
-0.108254
-0.151459
-0.222484
-0.366500
-0.516408
-0.646349
-0.858446
-1.029956
-0.881029
-0.755013
-0.326235
-0.057839
0.069485
-0.120354
-0.223456
-0.533419
-0.609027
-0.607389
-0.477446
-0.175010
0.208926
0.175869
-0.103981
-0.592656
-1.002121
-1.435152
-1.543164
-1.670814
-1.382780
-1.014882
-0.672186
-0.535697
-0.522276
-0.525549
-0.570062
-0.616212
-0.529474
-0.404440
-0.124589
0.180793
0.610226
0.905461
1.337185
1.551901
1.827498
1.895252
1.907036
1.823573
1.823901
1.835685
1.837322
1.698543
1.544708
1.262239
0.761127
0.198154
-0.109190
-0.261716
-0.421443
-0.607355
-0.697692
-0.737296
-0.734349
-0.641392
-0.718964
-0.709471
-0.762167
-0.744819
-0.717979
-0.811589
-0.926474
-0.830571
-0.675752
-0.277742
0.133689
0.546101
0.863921
1.226909
1.174868
0.894036
0.722199
0.598803
0.472462
0.515668
0.524833
0.542182
0.648559
0.781448
0.956232
1.180768
1.259324
1.496298
1.861577
2.226202
2.535512
2.937123
3.104053
3.098816
2.972803
2.802274
2.704737
2.630438
2.525372
2.520136
2.570215
2.484461
2.351246
2.226869
2.016409
1.767653
1.676989
1.489768
1.393539
1.361464
1.427909
1.354264
1.329390
1.257709
0.940873
0.574941
0.445326
0.403759
0.440746
0.671173
0.831229
0.888837
1.043983
1.017144
0.852508
0.776900
0.600480
0.432898
0.474467
0.538621
0.785414
1.264925
1.774876
2.275335
2.632105
2.662545
2.559771
2.501510
2.573847
2.886757
3.303751
3.567237
3.631391
3.530253
3.362016
2.973826
2.667137
2.460277
2.396452
2.453078
2.611825
2.845198
2.935209
2.899206
2.654378
2.283209
1.936260
1.679976
1.469189
1.337938
1.378526
1.418458
1.435807
1.481958
1.502580
1.527129
1.536949
1.481307
1.368385
1.294741
1.352022
1.524842
1.819423
2.056070
2.073418
2.130043
2.330358
2.504489
2.557187
2.742118
2.753575
2.688113
2.661602
2.499911
2.286505
1.983089
1.779503
1.669200
1.630250
1.631233
1.723863
1.851188
2.026627
2.058377
2.045940
2.165082
2.271459
2.360816
2.583715
2.853420
3.219354
3.617692
3.820299
3.998029
4.038617
4.005232
3.823248
3.656320
3.527688
3.481210
3.319847
3.060618
2.907437
2.667846
2.302241
1.955620
1.633874
1.404430
1.441417
1.634204
1.787386
1.840084
1.737964
1.528158
1.224415
0.960930
0.582560
0.380937
0.412687
0.507935
0.540013
0.466696
0.452295
0.395344
0.295515
0.331520
0.545582
0.727240
0.995636
1.235883
1.517043
1.784785
2.121915
2.161848
1.974300
1.894437
1.621788
1.572365
1.535379
1.591678
1.504287
1.265350
0.894508
0.458531
0.090962
-0.226856
-0.334868
-0.424878
-0.548273
-0.637301
-0.594750
-0.566273
-0.412108
-0.392796
-0.403269
-0.506044
-0.548594
-0.692610
-0.649077
-0.429450
-0.205569
-0.013109
0.015695
-0.260882
-0.455631
-0.632705
-0.665763
-0.821562
-0.925646
-0.965904
-0.773118
-0.481156
-0.158426
0.088040
0.253005
0.397677
0.409789
0.487035
0.487036
0.443504
0.503730
0.707646
0.872611
1.074890
1.257530
1.420859
1.499742
1.583862
1.578953
1.632305
1.575681
1.642126
1.608087
1.541643
1.374716
1.264085
1.166220
1.169167
1.207790
1.338061
1.455566
1.588455
1.669302
1.907258
2.189400
2.415573
2.692151
2.845988
2.919634
3.071180
3.268876
3.508469
3.728422
3.896988
3.971616
4.029224
4.056064
3.946743
3.733337
3.480654
3.220115
2.993290
2.938957
3.112105
3.254159
3.371992
3.390322
3.324206
3.177571
3.056467
2.951074
2.876448
2.813605
2.796586
2.881033
3.074147
3.081021
3.097388
3.170051
3.233878
3.346474
3.549734
3.927779
4.262292
4.581748
4.677651
4.694672
4.534945
4.380782
4.164103
3.946115
3.653173
3.487227
3.339283
3.307535
3.294116
3.268587
3.175304
3.057800
2.862724
2.533123
2.130858
1.866719
1.793403
1.866066
2.062781
2.239857
2.276189
2.161304
1.958045
1.721073
1.480173
1.306371
1.143044
1.092639
1.217673
1.599645
2.123016
2.708576
3.237838
3.738297
4.200788
4.569668
4.872432
5.131663
5.336233
5.408242
5.277319
4.998123
4.646592
4.381144
4.197851
4.051544
3.937313
3.772349
3.637171
3.527195
3.447659
3.279750
3.007755
2.589453
2.082776
1.647454
1.269411
0.875002
0.564058
0.354907
0.236748
0.218420
0.355891
0.579118
0.780088
0.893993
0.984658
1.074670
1.186284
1.350267
1.509341
1.541418
1.383328
1.072056
0.724453
0.465551
0.242980
0.051177
0.093401
0.315973
0.698928
1.029185
1.360752
1.669407
1.939112
2.104077
2.118807
2.091314
2.093278
2.136811
2.178381
2.231406
2.228461
2.157435
2.059570
1.963996
1.858603
1.711968
1.596756
1.442921
1.297923
1.124449
0.954903
0.682254
0.375564
0.033525
-0.263345
-0.511118
-0.694084
-0.858721
-1.034159
-1.225962
-1.398781
-1.602695
-1.731655
-1.774532
-1.708741
-1.628222
-1.500897
-1.431834
-1.395502
-1.274723
-1.151653
-1.003381
-0.745786
-0.606351
-0.307188
0.085586
0.424026
0.828910
1.012860
1.399087
1.761748
2.106735
2.404261
2.676585
2.768887
2.747285
2.545990
2.295925
1.984326
1.722806
1.590573
1.536568
1.442630
1.334291
1.103865
0.729095
0.271188
-0.179191
-0.614841
-0.976191
-1.254404
-1.495632
-1.698236
-1.734567
-1.672050
-1.573201
-1.395798
-1.141476
-0.913340
