EVENT_NAME: 202302060117
EVENT_ID: 13194
EVENT_DATE_YYYYMMDD: 2023/02/06
EVENT_TIME_HHMMSS: 01:17:32.00000
EVENT_LATITUDE_DEGREE: 37.288
EVENT_LONGITUDE_DEGREE: 37.043
EVENT_DEPTH_KM: 8.6
HYPOCENTER_REFERENCE: AFAD
MAGNITUDE_W: 7.7
MAGNITUDE_W_REFERENCE: AFAD
MAGNITUDE_L: 
MAGNITUDE_L_REFERENCE: 
FOCAL_MECHANISM: 
NETWORK: TK
STATION_CODE: 3129
STATION_NAME: 
STATION_LATITUDE_DEGREE: 36.19117
STATION_LONGITUDE_DEGREE: 36.1343
STATION_ELEVATION_M: 106.0
LOCATION: Kahramanmaras_Pazarck_Turkiye
SENSOR_DEPTH_M: 
VS30_M/S: 447
SITE_CLASSIFICATION_EC8: B
MORPHOLOGIC_CLASSIFICATION: 
EPICENTRAL_DISTANCE_KM: 146.39
EARTHQUAKE_BACKAZIMUTH_DEGREE: 
DATE_TIME_FIRST_SAMPLE_YYYYMMDD_HHMMSS: 2023/02/06 01:17:37.2659430
DATE_TIME_FIRST_SAMPLE_PRECISION: millisecond
SAMPLING_INTERVAL_S: 0.01
NDATA: 12501
DURATION_S: 
STREAM: HNZ
UNITS: cm/s^2
INSTRUMENT: sensor = GMS+/GEOSIG | digitizer = 
INSTRUMENT_ANALOG/DIGITAL: 
INSTRUMENTAL_FREQUENCY_HZ: 
INSTRUMENTAL_DAMPING: 
FULL_SCALE_G: 
N_BIT_DIGITAL_CONVERTER: 
PGA_CM/S^2: 826.359
TIME_PGA_S: 
BASELINE_CORRECTION: BASELINE REMOVED
FILTER_TYPE: BUTTERWORTH
FILTER_ORDER: 
LOW_CUT_FREQUENCY_HZ: 
HIGH_CUT_FREQUENCY_HZ: 
LATE/NORMAL_TRIGGERED: 
DATABASE_VERSION: 
HEADER_FORMAT: DYNA 1.2
DATA_TYPE: Acceleration
PROCESSING: Automatic Paolucci et al., 2011
DATA_TIMESTAMP_YYYYMMDD_HHMMSS: 
DATA_LICENSE: U (unknown license)
DATA_CITATION: Turkish Accelerometric Archive v 1.0 - Disaster And Emergency Management Presidency, Earthquake Department
DATA_CREATOR: AFAD
ORIGINAL_DATA_MEDIATOR_CITATION: : AFAD - Disaster And Emergency Management Presidency
ORIGINAL_DATA_MEDIATOR: AFAD PROCESS SERVICE
ORIGINAL_DATA_CREATOR_CITATION: AFAD PROCESS SERVICE
ORIGINAL_DATA_CREATOR: network: TK
USER1: GuestUser
USER2: 
USER3: 
USER4: 
USER5: 
[...]
0.328187
-0.668853
-7.780830
-11.773513
-10.632404
-9.425832
-8.631513
-8.925880
-9.600548
-6.663663
-2.045040
1.663616
7.428335
13.975735
16.178257
16.721121
20.099092
24.454311
26.419924
26.268688
26.042120
24.483462
20.781978
15.225491
9.604063
5.889850
0.733406
-4.036243
-3.658332
-2.531769
-2.831851
0.446109
5.193837
6.394434
5.448568
0.701259
-5.650637
-7.129027
-5.506827
-2.558252
0.925704
2.948467
5.006297
7.657958
8.876478
8.510415
6.503137
5.368420
7.365206
7.124090
4.685338
4.173545
3.908271
3.171259
2.802078
3.782391
4.947400
3.560708
1.459135
0.572756
-0.830821
-2.723021
-1.887398
3.219848
10.082866
16.090988
19.644562
21.098952
22.135116
22.285990
21.485075
16.602426
6.251144
-0.380522
0.892550
1.256434
-2.744043
-2.971391
1.490073
3.405551
1.923005
-1.116591
-3.696137
-4.405094
-5.002871
-3.045830
-0.218307
-4.516218
-9.515502
-8.213336
-6.590876
-5.964627
-5.261226
-4.002441
-1.508979
0.782643
3.470930
5.064036
3.400172
0.199001
-2.175328
-4.970222
-8.152170
-8.017141
-6.179334
-4.976400
-2.809466
-1.344945
-1.068083
2.560045
7.441033
8.727873
10.440992
15.028183
19.814875
23.478592
22.336341
15.154227
11.226485
14.779540
15.228369
10.986048
13.482627
19.034856
17.846627
15.453594
13.310977
4.293083
-5.662054
-8.614107
-11.591618
-15.677298
-15.008966
-12.220668
-8.013517
-3.211758
-3.230252
-8.450599
-11.656705
-7.860767
-1.323758
-1.627997
-10.301439
-15.531917
-14.377299
-15.113792
-17.347327
-14.363943
-10.579954
-11.593360
-8.670502
-0.510982
5.468305
7.978652
7.429192
4.216591
-0.727622
-4.909157
-6.034263
-8.003614
-16.093357
-23.936581
-23.037575
-16.543687
-9.467919
-2.730889
1.892150
2.370592
0.529566
-0.533195
-1.056159
-3.303981
-7.870233
-12.976022
-14.555721
-8.540326
1.707208
6.316220
3.594840
0.110003
-4.283762
-9.097832
-9.775618
-10.466391
-14.659356
-13.585006
-5.978013
-3.494942
-3.501747
-3.994577
-11.755195
-15.959589
-9.152162
-1.530102
2.827194
10.455748
18.615008
19.438941
20.653306
24.807464
20.695287
10.527920
1.605360
-7.861932
-14.977546
-16.521138
-14.495778
-9.429315
-6.962869
-8.253447
-5.751932
-0.791974
5.131463
10.078173
8.349107
5.225866
2.263682
-0.691748
1.930298
3.756416
2.349982
3.392900
2.307539
2.495040
13.755150
22.084558
16.452219
8.483787
2.424909
-0.748726
-0.727216
-3.785514
-4.824117
-2.725503
-10.384811
-20.738951
-18.494607
-17.096587
-24.138946
-21.418707
-10.707227
-4.456742
5.995749
20.338005
29.085120
35.620830
40.024105
39.802732
35.450270
25.372263
9.551826
-4.777543
-9.906971
-12.124400
-14.063099
-10.651877
-8.196342
-10.644186
-11.283265
-5.576734
3.848894
13.629106
18.521784
13.925659
7.080464
4.016191
5.387715
6.709623
-2.133967
-9.346733
-0.262700
11.370956
16.009581
17.474362
14.305142
9.900207
13.950458
20.969596
18.535780
10.529682
2.651649
1.118968
7.035391
1.275247
-9.155006
2.203556
18.487058
16.704739
13.611372
18.488984
15.404968
4.398031
-10.319171
-31.278597
-41.212692
-37.590279
-37.705927
-34.676824
-21.956039
-10.246272
-4.012412
-3.868551
-5.200432
0.104238
0.598266
-9.246209
-12.209952
-7.803560
-12.415270
-26.516823
-29.766310
-16.490142
-6.782406
-10.402582
-19.651929
-22.241866
-19.170161
-25.064086
-36.793958
-41.833246
-39.749439
-37.783306
-37.767251
-32.344646
-24.585169
-20.303465
-17.841955
-19.148119
-20.681060
-23.487124
-29.273765
-18.021708
0.241745
-2.541200
-1.483735
9.096042
2.629588
-1.602861
7.476497
14.032989
21.055764
18.864311
1.524751
-1.411976
11.754311
10.137205
-3.413380
-9.300811
-13.230890
-13.490969
-1.293876
7.893285
7.543847
7.004518
6.209058
3.481444
2.835610
8.274580
16.351493
26.070140
42.651076
47.140594
25.940364
3.391938
-8.466778
-14.850106
-13.763548
-7.771532
-3.535287
0.229479
6.234483
13.111788
15.518228
14.408449
18.230363
16.432719
7.044395
8.803493
17.269539
15.433968
4.239478
-0.627065
6.942262
15.363888
18.671202
19.952587
19.073222
22.398720
32.788607
31.499328
14.120024
6.968562
15.825559
13.622416
2.200110
6.760026
16.291899
15.636974
13.551506
19.663535
31.253290
32.842499
27.901403
28.773133
28.875951
22.286627
10.627153
4.058091
10.969945
10.379182
-0.197060
7.075612
10.434101
-3.496524
1.776714
16.986855
12.380859
7.719273
9.838928
4.421678
12.661206
30.047682
23.257298
0.957989
-8.453713
-7.143495
-7.582033
-4.916086
-9.468569
-16.332728
0.881522
16.436894
2.518478
-11.612168
-17.345816
-32.556837
-33.470752
-9.772694
-10.286046
-41.490979
-53.999894
-35.655653
-19.510348
-26.492701
-23.137589
-9.638020
-8.802398
13.656307
35.272584
21.644069
10.621027
2.711822
-16.649511
-13.497538
3.642678
-0.662506
-6.663456
-14.171579
-23.856037
-19.959309
-25.839986
-29.534456
-23.704795
-26.393704
-8.089468
17.664653
4.138746
-5.461807
20.307380
22.177139
6.921437
11.258732
-1.654382
-15.724503
4.034434
13.457205
-7.360128
-19.612652
-17.094772
-23.084292
-24.164977
-17.055699
-19.452629
-13.363459
-2.005158
-7.142379
-16.323667
-18.420305
-20.380044
-25.205025
-14.772276
4.853919
17.178298
29.700620
19.390640
-3.053879
4.747421
11.907873
0.861711
-2.908611
-3.038286
1.746328
15.990652
19.603973
8.522482
10.767866
17.538926
3.567517
0.647675
4.723903
-4.014481
9.091019
31.345547
30.046397
20.707169
21.184572
24.564622
26.991323
37.331075
34.739320
18.691326
23.568938
28.350955
6.460001
-11.518587
-4.512437
8.469934
13.961117
14.075104
4.295311
-3.597788
0.427265
-5.601479
-14.127893
-11.464023
-15.136933
-13.522526
-4.906594
-9.026044
-20.063634
-35.103208
-43.093720
-34.328422
-29.064535
-28.147865
-10.980114
5.972550
-2.129922
-18.661603
-27.029298
-26.375773
-18.690330
-17.969524
-25.616103
-21.526628
-7.474533
-4.738708
-9.742148
-12.174925
-12.576318
-15.264447
-19.452216
-3.180144
10.601013
-9.156986
-10.954631
-6.971400
-30.046376
-4.565791
44.836822
33.429583
7.019447
6.932374
15.169045
11.871760
-6.085268
-4.274477
12.965750
14.003732
8.484133
5.252569
5.174848
9.168209
2.378085
-12.573948
-5.874324
12.213526
7.883663
1.156922
6.491466
0.615984
-2.963669
4.496036
-7.963004
-27.221209
-23.416439
-13.107600
-5.298507
5.140216
10.002502
16.830711
24.642920
15.445267
0.619741
-4.304210
-3.366239
-2.877926
-9.727278
-15.982020
1.897236
25.533468
23.923376
18.638867
19.870116
10.886251
-5.815059
-5.743673
14.403876
18.294889
2.156757
-1.736176
3.539400
-8.990816
-19.988402
-6.686257
7.411298
-0.092149
-19.417894
-16.470618
-4.084155
-21.337991
-42.604982
-32.195612
-14.484686
-16.038928
-19.431028
-17.254484
-17.990976
-15.374125
-18.917410
-25.352172
-11.893127
-7.919248
-27.888958
-31.663177
-13.889646
3.048990
5.285541
-3.913152
-1.632959
5.304612
-2.245853
-3.936993
13.345056
26.438868
21.014603
10.463039
4.013730
-1.623025
-12.129909
-25.116018
-26.993671
-29.246169
-37.101602
-24.908666
-5.989559
-8.985253
-17.495301
-8.551282
6.790561
11.887416
18.653541
21.598219
4.601813
-3.013594
10.439996
19.094373
19.587102
17.809200
15.167569
15.805769
15.357099
22.400136
35.005064
26.114975
6.339572
-1.091400
6.299986
18.278873
17.657977
11.391545
10.229552
14.261100
14.225201
0.757223
-6.321244
-10.550576
-21.619598
-4.912934
20.696236
2.656342
-21.878530
-15.066426
-14.720206
-21.301217
-11.942349
-8.081469
-20.769625
-21.066330
0.035087
-0.820639
-15.836575
-9.060579
-1.636462
-3.443199
-5.635951
3.873323
18.928122
9.084945
2.021545
25.928976
32.171408
4.360863
-3.444954
16.619470
26.745692
29.964166
33.073018
21.915935
9.962923
9.938714
2.734260
-6.238695
12.059307
36.539266
24.784977
10.825517
26.885359
28.076084
15.151540
2.575865
-19.411722
-9.541371
22.988536
26.136613
21.985211
29.522067
13.922173
-17.445114
-22.729884
-14.640242
-6.247191
15.352462
19.023191
-5.706766
-12.144385
-6.393434
-20.199110
-26.704010
-23.299282
-34.062037
-39.413047
-30.826729
-16.919844
-9.473128
-9.931409
-12.017137
-24.022622
-24.718591
-20.930186
-31.932447
-37.096165
-23.765445
-2.003957
-8.337929
-15.106233
7.842913
11.645345
8.306757
21.777492
15.442481
-1.374426
7.255793
20.460526
15.365387
12.586079
20.561683
25.773616
20.773812
3.212151
-8.201843
4.456598
15.744502
7.384860
4.036920
6.711960
-6.171541
-10.354634
1.269930
-3.136045
1.874048
22.615947
10.669169
-3.888535
11.348361
21.102336
25.477297
27.929975
28.903015
45.784762
49.137276
32.622220
26.236814
17.068514
3.776918
-0.596066
-2.425921
9.090579
17.126969
2.796041
2.926913
13.949075
8.208673
4.450300
8.712262
2.794958
-4.468983
5.340842
15.110663
8.809162
-4.558287
-6.406326
5.372280
3.259277
-4.596156
2.475196
9.568888
3.773155
-12.345495
-22.620666
-18.062569
-1.317200
11.026401
4.916869
0.718709
10.233178
22.563531
25.512626
19.589607
15.840845
-0.635246
-28.443972
-33.908501
-19.582351
-6.466459
3.121784
5.791628
3.039076
12.793052
22.001774
7.597332
-2.275199
2.086514
-6.776559
-33.233193
-53.684772
-47.727305
-34.606998
-34.310393
-38.295284
-27.025823
1.489111
24.472287
29.881124
12.125157
9.541714
33.987124
19.519558
-12.274528
-12.997253
-8.797116
-20.832474
-25.116098
9.344405
34.271944
23.392033
32.554776
33.676403
-7.870150
-24.382608
-9.737723
-6.471711
-24.241446
-39.744706
-15.061090
4.568483
-21.446027
-41.336767
-27.695105
-24.583915
-23.067181
-0.973970
-10.752984
-19.531113
7.186747
2.763628
-10.049995
14.674146
16.162046
-9.985984
-2.801634
7.875816
12.261168
39.416476
14.833548
-46.054026
-11.750943
39.387440
-18.203679
-51.844455
6.843302
14.858391
-22.979456
-1.960385
29.948677
5.668119
1.036406
48.044218
49.839424
45.412148
64.556994
44.943685
40.973082
37.005596
-12.882884
-38.299928
28.039554
97.625615
60.809696
38.034752
62.920728
18.478023
-40.384920
-12.638639
16.469605
-10.570988
-2.661885
-26.759566
-93.850918
-72.900945
-34.986049
-31.497416
-21.731232
-17.311332
-4.355198
-7.445967
-31.969668
-10.512629
14.417248
-7.817898
-34.733802
-59.152037
-56.796252
-37.966246
-41.205343
-14.852197
13.311790
22.441803
49.633739
26.470442
1.917127
54.857000
53.448488
-32.714245
-39.696338
-13.859092
-75.066180
-86.478096
-8.756363
62.599757
78.252542
53.708059
39.403628
28.860377
85.455444
131.447564
76.781951
39.715876
-4.634872
-34.483296
27.138020
45.515252
-7.595130
-8.210312
11.864503
-11.578044
18.948273
73.571961
68.839459
56.309762
-1.735171
-70.971686
-96.323268
-95.509206
-28.861120
-6.275389
-55.250525
-33.273170
-17.670261
-64.819488
-51.649046
11.071869
11.104029
20.491732
80.061661
31.156143
-35.284750
-10.308115
10.447032
-4.544226
-53.189197
-17.828339
72.992711
57.242411
-10.355487
-26.033831
38.129575
72.935568
51.012663
53.131020
35.397133
-23.755970
-119.608566
-124.138970
-12.677800
1.596916
-23.990535
13.709534
10.506544
-24.332541
-1.077908
0.759380
-26.154965
23.400132
81.353785
96.490671
37.055460
-11.454432
51.852778
67.609471
57.773048
69.918187
17.943250
43.787770
39.015783
-105.474460
-25.465471
141.277430
62.177267
-3.051808
68.950874
68.358033
-8.974409
54.378002
152.055885
63.848259
-1.077926
-4.831623
-96.807183
-159.257521
-197.013281
-140.995677
40.094206
-9.174987
-193.195155
-145.168532
27.120154
138.330908
89.554754
-108.130505
-244.133870
-289.471996
-298.194014
-163.865474
-65.864959
-146.791030
-129.732900
-1.419546
87.102298
85.664431
92.848263
172.207313
64.668277
-102.970145
-73.420296
60.575222
147.411432
143.440828
198.805894
186.672863
50.315694
66.784410
105.958921
-77.157773
-203.349444
-22.060838
54.847041
-38.072515
69.618643
120.314381
-11.581274
-106.127757
-191.967339
-192.325350
-34.850968
23.076189
-73.045786
89.826833
478.578831
371.858584
-119.701347
-170.281849
-15.243052
-63.218861
-0.197135
127.280805
36.398089
-71.826474
51.949514
65.179444
-197.233487
-334.825593
-202.658582
49.847219
234.916227
173.261559
-132.355973
-423.232195
-416.095901
-189.894980
55.679173
234.880284
121.113053
-63.045310
97.695653
135.810311
-231.846555
-263.675190
1.086721
-228.395171
-230.171775
340.273859
392.604835
148.228111
179.154730
219.478454
155.281177
-23.178917
-303.701309
-535.972329
-434.682891
-201.281463
-89.284392
89.867363
120.349520
-108.546595
-36.086981
380.007409
479.682129
410.863061
432.978093
173.101796
-21.091403
-1.533786
-240.925045
-561.618208
-638.007952
-161.229957
353.045539
126.659042
-144.290642
65.890651
277.653931
39.655548
-64.441043
175.480560
100.390695
64.603976
103.507289
-165.451534
-404.171032
-134.497170
224.134738
-3.555794
-168.225589
28.321525
259.120339
289.085817
79.050412
282.325255
564.434728
327.887149
64.155376
86.790463
159.684929
-64.992815
-417.258432
-578.933362
-474.228756
-42.201500
272.831219
138.516605
23.610552
93.248307
-40.600544
-392.063737
-657.553100
-431.117348
17.365167
-127.585645
-352.320797
-191.882983
-262.504580
-522.127344
-460.369130
-16.674137
333.525444
365.343327
209.304841
-53.687373
-99.076932
18.347989
52.987991
71.967105
43.227370
143.147051
329.927930
131.494800
-246.419522
-53.969728
365.953902
238.256096
122.019511
384.432341
394.353347
-69.107228
-172.356456
484.227701
826.359150
444.959522
165.295663
311.827321
309.430132
82.983888
90.860001
157.354304
95.265303
-26.014676
-205.598786
-350.709095
-147.002517
198.805687
50.583358
-171.775178
-49.885105
-14.627375
-160.189420
-154.266763
122.427328
280.955069
128.513070
31.603738
88.106068
58.724966
24.873518
136.892930
190.572102
129.449438
117.032481
73.088789
-39.258031
-14.910294
95.313082
62.411346
-40.143782
-110.132065
-181.070580
-228.645307
-291.059537
-369.207650
-384.709352
-274.494548
78.838353
451.146263
446.763927
178.604930
-90.266092
-223.322390
-214.406426
-233.969339
-336.646039
-419.510758
-394.124469
-284.947179
-157.045557
-81.751875
-23.370643
64.043550
14.922424
-151.744466
-137.653925
160.710785
558.415165
762.416060
647.049178
455.995534
320.370391
169.249572
40.654528
-87.551643
-151.659820
-111.489099
-65.416971
23.816897
128.034438
212.448832
269.526548
169.769120
-24.313677
-136.276560
-8.676788
334.475549
403.484665
47.672437
-266.495096
-313.510803
-237.035437
-238.999073
-385.694486
-526.740467
-343.207206
135.865320
515.798717
689.751477
497.996200
-35.228428
-382.386487
-454.709824
-524.477565
-512.092400
-426.898443
-372.190850
-228.444164
-236.739124
-343.269480
-281.636993
-346.433815
-465.362634
-484.613826
-442.889953
-314.137851
-169.340404
51.485140
155.306795
-22.522583
-308.380868
-535.125065
-609.237164
-317.892682
210.615758
228.155757
-56.724502
-142.056757
-122.657599
32.463805
33.030828
-103.939394
-127.659373
-99.309132
87.550457
296.938159
304.896619
254.893840
245.756453
236.751547
270.917992
333.899454
304.174939
178.728542
41.352563
-90.576083
-210.393568
-260.240226
-290.130733
-238.240062
-12.789351
269.512610
484.789251
370.010743
109.195385
2.675939
-83.879563
-50.504371
40.167312
41.379598
8.887516
-73.345188
-145.040926
-109.687601
-62.821622
-76.556902
-7.085918
147.241375
193.216870
-38.658783
-315.316348
-413.975217
-267.450313
77.733669
135.503407
13.111102
30.539660
74.179322
-25.840991
-271.918416
-327.729085
-219.279405
-147.421414
-108.630061
-83.618876
-20.362580
43.073735
-4.821026
-70.287270
33.743758
187.993381
265.329099
236.435841
123.963293
-4.962695
-207.135185
-287.711349
-57.411290
199.485368
241.506676
74.207770
-101.753097
54.367634
364.052510
438.876792
418.904744
359.008185
206.444355
63.736899
-170.187544
-452.665729
-556.922077
-453.895052
-315.275925
-272.681310
-194.407570
68.078774
392.412743
468.311425
254.684208
18.777737
-110.291384
-138.768233
-124.590670
-134.079524
-68.219833
14.846105
7.660873
162.810592
470.134958
632.709363
487.455142
186.018835
63.406506
0.675099
-132.036487
-245.043897
-292.242740
-232.843218
-186.264283
-124.712324
104.990269
338.858241
311.639447
224.377117
227.425702
161.776063
154.740198
187.240751
101.442733
-137.371841
-315.351105
-174.707347
96.883863
322.245214
413.421367
302.418846
35.780270
-154.728900
-198.123702
-269.186385
-322.704862
-346.602523
-286.426555
12.222601
255.816544
84.344986
-193.104612
-338.480923
-298.627639
26.780990
220.686524
124.784573
9.898261
-23.014385
33.654716
57.769960
125.840795
245.803909
174.047386
119.878450
228.309687
382.738549
490.123701
409.187498
259.732830
34.315527
-135.419222
-65.944342
116.997947
369.539595
377.485845
176.543357
107.130719
154.843282
211.914244
126.756553
-70.837267
-217.456828
-111.347656
150.320419
149.565482
-117.854216
-279.646042
-181.391992
54.726349
229.687528
277.618815
263.656239
131.594592
-25.106043
-86.583809
-154.128455
-191.360004
-90.296564
88.370983
265.132354
445.939610
516.676703
404.571986
167.906213
-174.812932
-409.488884
-361.953223
-188.789898
64.407925
334.601843
316.898089
59.284370
-137.554045
-176.756453
-187.358412
-320.558621
-472.064936
-593.065405
-619.370335
-387.811960
-42.401980
176.512191
295.849265
415.763283
437.001338
337.964507
168.319637
5.004532
-35.261885
-24.426236
-65.927849
-35.210862
154.193673
230.117811
202.394808
48.966211
-146.243979
-62.188845
-60.388444
-72.591093
-22.146291
-244.322210
-433.142888
-356.493217
-168.752496
-27.131231
2.123522
-130.507016
-195.505158
-113.710784
-208.834731
-332.584843
-332.208750
-286.440290
-177.298848
-77.216552
44.974332
167.149110
144.586137
11.505941
-67.916594
-52.373171
-2.713128
65.567859
52.709296
-90.044139
-173.998845
-97.157985
18.898999
74.683331
59.464776
33.381948
4.307372
-40.042856
-47.978557
3.150993
148.371083
230.333267
142.753760
31.401591
-70.956892
-125.805641
-108.581780
-92.758067
-140.281880
-252.353087
-324.399251
-316.222847
-264.162808
-153.267932
-29.826525
11.736292
16.337770
-22.650589
-106.774403
-83.843700
40.839397
114.642791
96.786033
120.019106
177.658440
233.023247
238.498065
164.217117
-54.980043
-400.192182
-499.944154
-488.398040
-211.179218
59.226671
202.705796
589.320943
326.903076
-18.657411
-69.760566
-226.976839
-125.884826
-22.747919
81.557684
84.499765
28.578434
91.411049
96.581938
24.665657
-72.266274
-94.477521
-67.463527
-46.452508
-70.983483
-108.068782
-96.899591
-37.970769
-2.847858
1.644777
38.074060
-4.058789
-80.720510
-54.732338
-1.749864
72.154579
200.562229
205.710779
50.147928
-78.562973
-142.120701
-173.367975
-163.183565
-66.076910
64.943745
117.432920
85.823530
47.010774
95.219753
109.044032
-14.379292
-131.641181
-97.919719
16.297849
84.689757
131.358312
139.813188
155.382068
217.640595
255.688753
238.603506
177.048848
159.434194
124.749411
18.381409
-48.389908
-84.110646
-68.068988
13.584852
53.830126
57.853620
40.716160
-49.112158
-138.709542
-126.095003
