EVENT_NAME: 202302060117
EVENT_ID: 13194
EVENT_DATE_YYYYMMDD: 2023/02/06
EVENT_TIME_HHMMSS: 01:17:32.00000
EVENT_LATITUDE_DEGREE: 37.288
EVENT_LONGITUDE_DEGREE: 37.043
EVENT_DEPTH_KM: 8.6
HYPOCENTER_REFERENCE: AFAD
MAGNITUDE_W: 7.7
MAGNITUDE_W_REFERENCE: AFAD
MAGNITUDE_L: 
MAGNITUDE_L_REFERENCE: 
FOCAL_MECHANISM: 
NETWORK: TK
STATION_CODE: 0127
STATION_NAME: 
STATION_LATITUDE_DEGREE: 37.816183
STATION_LONGITUDE_DEGREE: 35.92044
STATION_ELEVATION_M: 614.0
LOCATION: Kahramanmaras_Pazarck_Turkiye
SENSOR_DEPTH_M: 
VS30_M/S: 583
SITE_CLASSIFICATION_EC8: B
MORPHOLOGIC_CLASSIFICATION: 
EPICENTRAL_DISTANCE_KM: 115.07
EARTHQUAKE_BACKAZIMUTH_DEGREE: 
DATE_TIME_FIRST_SAMPLE_YYYYMMDD_HHMMSS: 2023/02/06 01:17:31.8820710
DATE_TIME_FIRST_SAMPLE_PRECISION: millisecond
SAMPLING_INTERVAL_S: 0.01
NDATA: 12501
DURATION_S: 
STREAM: HNZ
UNITS: cm/s^2
INSTRUMENT: sensor = ACEBOX/SARA | digitizer = 
INSTRUMENT_ANALOG/DIGITAL: 
INSTRUMENTAL_FREQUENCY_HZ: 
INSTRUMENTAL_DAMPING: 
FULL_SCALE_G: 
N_BIT_DIGITAL_CONVERTER: 
PGA_CM/S^2: 39.242
TIME_PGA_S: 
BASELINE_CORRECTION: BASELINE REMOVED
FILTER_TYPE: BUTTERWORTH
FILTER_ORDER: 
LOW_CUT_FREQUENCY_HZ: 
HIGH_CUT_FREQUENCY_HZ: 
LATE/NORMAL_TRIGGERED: 
DATABASE_VERSION: 
HEADER_FORMAT: DYNA 1.2
DATA_TYPE: Acceleration
PROCESSING: Automatic Paolucci et al., 2011
DATA_TIMESTAMP_YYYYMMDD_HHMMSS: 
DATA_LICENSE: U (unknown license)
DATA_CITATION: Turkish Accelerometric Archive v 1.0 - Disaster And Emergency Management Presidency, Earthquake Department
DATA_CREATOR: AFAD
ORIGINAL_DATA_MEDIATOR_CITATION: : AFAD - Disaster And Emergency Management Presidency
ORIGINAL_DATA_MEDIATOR: AFAD PROCESS SERVICE
ORIGINAL_DATA_CREATOR_CITATION: AFAD PROCESS SERVICE
ORIGINAL_DATA_CREATOR: network: TK
USER1: GuestUser
USER2: 
USER3: 
USER4: 
USER5: 
[...]
9.399274
8.901289
9.080380
10.001310
11.894837
13.539837
12.665671
8.803109
3.824867
-0.268921
-2.835311
-3.786863
-3.540438
-2.860319
-2.349703
-2.761651
-2.639840
0.533492
5.489763
9.334328
10.310200
7.924302
4.624958
3.239010
3.724376
4.604859
4.381585
2.814445
1.392726
1.220186
2.055547
2.805103
2.891143
3.805761
6.284482
8.125872
7.351538
4.394239
1.576751
0.107104
-0.552670
0.129086
0.829545
-1.286551
-5.208732
-8.523039
-9.914598
-9.491422
-9.127164
-9.552906
-10.196547
-10.067254
-9.233531
-9.450492
-9.762375
-8.223519
-5.914534
-4.454234
-4.003704
-2.948574
-1.226889
-1.709444
-4.264611
-5.416762
-3.129754
1.586641
5.048245
4.186004
-0.569898
-6.194823
-9.204493
-8.072912
-4.030554
1.024379
5.683026
8.652020
10.087538
10.958201
10.596753
8.594516
5.885744
4.313460
6.600701
10.987909
12.240598
10.104862
7.399597
5.471707
3.882590
2.218190
3.370813
6.993972
8.058453
7.143607
6.628320
5.768650
4.980055
3.483521
0.903805
-0.508562
-1.254606
-2.403250
-3.021875
-3.829875
-5.880041
-8.293995
-9.962837
-10.984763
-11.683814
-11.167821
-8.842938
-5.715196
-3.001976
-1.084602
1.088780
4.559971
7.179438
6.242849
3.470250
1.482975
-0.527912
-3.173793
-4.840298
-4.894770
-4.731810
-5.093492
-4.919311
-3.895042
-2.853005
-2.017411
-1.706926
-2.321810
-3.014782
-2.091748
0.954867
4.412029
6.252484
5.782320
4.179876
3.758576
4.970350
6.221636
6.499857
5.715002
3.157730
-1.348008
-5.333080
-7.653749
-9.553816
-10.121240
-8.999712
-7.815760
-7.454540
-8.916472
-10.420253
-8.802374
-5.674865
-3.066620
-0.587198
0.696586
-0.815378
-4.798112
-8.894004
-11.458991
-13.695727
-15.782833
-15.462060
-13.008589
-11.316128
-10.515837
-8.346430
-5.221025
-3.529266
-2.888659
-1.327592
0.422851
0.482004
-1.270070
-4.087324
-6.863664
-7.480419
-3.981172
1.757618
4.533495
2.501566
-1.749567
-5.359862
-6.825067
-6.512243
-5.091455
-2.560597
0.792994
4.960433
8.769694
9.613237
7.240431
4.410786
3.672223
4.393256
5.008847
6.550509
8.890354
9.816662
8.908362
5.956440
1.933260
0.556898
2.518459
4.611181
4.869764
4.603471
6.165006
8.974316
9.942707
7.848120
6.438559
9.339518
11.848399
9.029041
4.977804
3.528030
2.308546
-1.644028
-7.414609
-10.979314
-10.706470
-8.443076
-5.776382
-3.978946
-3.169537
-1.932981
-0.881825
-0.477587
0.908132
1.971210
1.190096
-0.135765
-3.110365
-8.082062
-11.872614
-13.188890
-11.780493
-7.977544
-4.627226
-3.306503
-3.088134
-3.146814
-3.123432
-2.401463
-0.384024
2.510622
5.494346
8.507060
11.087951
11.913258
10.347987
6.989259
4.042480
3.902672
4.317197
1.784474
-0.401294
1.759931
5.265256
7.130259
9.307382
12.552491
14.168967
12.385565
8.189374
4.671195
3.557388
2.651893
1.329071
1.696603
2.612857
1.880840
0.255952
-0.823955
-0.821147
-0.352381
0.580707
3.349804
6.352231
6.711580
5.713970
5.191670
4.620973
3.556497
1.588160
-1.530225
-4.942727
-7.046900
-6.450481
-3.696113
-0.819936
0.937287
1.540019
0.602494
-2.546518
-6.135070
-7.091064
-5.296200
-3.189450
-2.409032
-2.742659
-3.367596
-2.911221
-0.457984
2.757433
6.826443
11.912237
13.765785
10.810356
6.843754
3.515653
1.140041
1.562749
4.616144
7.749030
9.431906
9.406424
7.689186
5.306794
3.850006
4.062998
4.402474
2.051178
-2.695372
-6.931775
-8.364015
-6.092672
-2.199477
0.354994
0.800848
-0.571305
-2.330393
-2.465993
0.203039
4.872675
7.786726
7.412186
5.926407
3.964617
2.564875
3.319341
3.899629
2.318460
0.199558
-1.825591
-4.674876
-7.239395
-8.146994
-9.099481
-11.571884
-13.659691
-14.208177
-15.671044
-18.612211
-19.260528
-16.097482
-10.616337
-3.394103
3.411504
6.572680
6.654745
6.204454
5.118936
2.401046
-0.248342
-1.064994
-0.931259
-1.247584
-2.348299
-3.484083
-3.355960
-1.833002
-0.658402
-0.880273
-1.922071
-3.859312
-5.637338
-5.314461
-4.129340
-2.368844
2.007843
7.052723
9.380411
8.824444
6.720973
5.203631
5.726404
6.992653
6.280041
2.519883
-2.524057
-7.644682
-12.757358
-15.907774
-15.804199
-13.869992
-10.906842
-5.534179
2.139284
7.675372
7.569231
3.899084
1.273309
2.539792
6.499385
11.032716
16.143761
20.072259
20.212306
18.333280
17.406978
17.192355
16.983109
16.616985
14.206772
8.984912
2.873454
-2.534741
-5.924565
-7.265156
-8.400005
-9.772860
-11.595074
-13.854254
-13.416115
-8.586796
-1.921935
3.938897
6.818815
5.041724
0.711568
-2.037184
-2.008892
-0.902561
-1.152020
-3.414707
-4.611279
-3.079904
-1.334371
-0.761332
-1.984323
-5.556275
-8.300350
-6.775990
-1.180751
5.918038
11.090104
12.070185
8.763592
4.111731
1.726066
0.297100
-2.627935
-4.947669
-5.161357
-4.768575
-3.462581
-0.302341
4.006312
9.332684
13.565352
13.078822
9.214390
5.167128
1.859835
0.203851
-0.055661
-0.212303
-0.500806
-0.325689
1.221116
3.994890
7.312242
10.612526
13.386300
16.068658
17.110462
13.898090
7.421674
-0.855448
-9.923038
-16.455799
-18.022705
-15.298263
-10.203584
-4.182133
1.974920
7.125711
9.581520
7.872230
3.364856
0.108997
-1.067000
-2.623620
-3.671730
-1.035430
4.171939
8.127558
9.741697
9.611474
7.664647
4.060431
-0.168257
-4.180683
-7.714293
-9.385941
-8.700444
-8.593129
-9.134367
-5.780776
1.055225
5.945097
8.003217
10.428866
13.947985
15.989973
14.090841
8.952213
3.232132
-1.193180
-3.201496
-2.603206
-0.307315
1.362702
-1.005662
-6.606273
-9.863767
-9.260568
-9.060201
-12.023579
-17.013745
-21.283816
-22.744578
-22.002035
-19.708014
-14.249079
-7.454460
-4.582025
-5.171425
-4.610543
-2.288699
-0.164181
0.450708
-0.415508
-0.543159
1.104647
3.875381
8.188242
12.403375
13.211849
10.462396
6.580662
4.320781
4.329667
4.832334
5.233767
5.735264
4.859930
1.402539
-2.330967
-2.299402
1.502144
5.209704
7.006205
7.863776
7.626942
4.822078
-0.951309
-9.159460
-17.886174
-21.965934
-16.912637
-5.899615
3.084048
6.656239
6.934460
5.659333
2.731024
-0.790661
-3.817398
-8.162751
-13.897094
-18.351163
-20.959169
-20.094584
-14.023101
-6.607750
-1.682340
1.563470
4.089184
4.686539
2.924879
-0.126173
-4.456096
-8.702553
-8.998304
-3.932148
4.252863
10.770900
10.712920
4.321373
-2.865552
-5.645399
-4.205205
-2.468089
-2.128612
-2.282682
-1.722735
0.414174
3.604808
6.989728
9.590023
9.622290
7.751447
6.680191
7.164153
9.031962
11.658911
12.927732
11.419040
7.543152
3.190551
0.316717
-1.153631
-1.544771
-0.232698
1.971077
2.785396
1.499280
0.106318
0.084811
0.903806
1.088508
-1.922798
-7.787833
-13.052945
-17.442486
-21.088084
-22.438495
-21.863117
-19.230791
-13.974792
-6.391108
3.087737
11.068877
14.412648
13.860422
10.640802
6.211983
2.699883
1.598935
2.507240
2.818193
1.425933
-0.501957
-1.328194
0.761956
4.399844
5.492148
3.416732
0.922118
-0.876950
-2.126360
-1.515211
1.027571
3.206798
4.406648
5.719890
6.786943
5.507841
1.794909
-0.883704
-1.067933
0.421124
4.272235
8.789201
9.870282
6.396759
0.731386
-3.294366
-3.984533
-3.035781
-2.727868
-3.820400
-4.369353
-2.522118
0.894598
4.384959
5.867003
4.198394
1.573321
0.138043
0.512121
2.372682
2.858749
0.682567
-0.959623
-0.910289
-0.933666
-1.196218
-1.353327
-0.893912
0.120537
0.091081
-0.539000
-0.962171
-2.248287
-2.847741
-0.450615
2.859022
4.043442
2.544570
-0.687908
-2.367271
-0.406177
2.083766
3.616544
5.036397
3.402157
-1.532833
-4.600017
-4.007338
-1.698120
0.994993
2.605625
2.169830
1.499302
2.512348
3.596001
2.838266
1.185556
-0.191975
-0.342771
1.680279
4.919543
8.227309
10.351827
10.297355
11.799973
17.410876
21.759040
20.487653
15.779914
10.431103
5.270265
1.414717
-0.420356
-1.997315
-4.920480
-8.304693
-10.715841
-12.206998
-14.846099
-19.332432
-22.883108
-23.664222
-22.349344
-19.402093
-14.904299
-9.307891
-3.039550
3.555172
9.041929
11.570449
11.611366
11.210640
11.473899
12.127832
12.215743
11.933552
12.321190
12.734313
11.853601
9.436140
5.108789
-1.168899
-7.280824
-11.321540
-13.691774
-14.553548
-14.052752
-13.885350
-14.686337
-14.919664
-12.174881
-6.037934
0.100883
4.456996
8.748815
12.894277
16.003316
18.920641
20.799438
18.777328
12.595731
5.398051
-0.096416
-3.101643
-3.411656
-1.057549
3.104045
7.387915
10.227152
10.443417
6.813016
-0.884055
-10.796589
-19.641137
-24.727394
-25.963010
-24.430934
-20.012864
-12.621361
-3.446219
4.892631
8.881215
7.987177
5.045776
1.571084
-2.477347
-6.323543
-8.480321
-8.355470
-7.096703
-5.773642
-4.582442
-3.479384
-2.157024
-0.693217
0.826936
2.531087
4.396324
6.711153
8.749400
8.907917
7.116098
5.191247
5.265130
7.049941
8.628543
9.594596
9.478167
7.215714
3.944425
1.584478
0.212792
0.146396
2.246600
4.735608
5.873268
6.166920
5.014302
3.296596
4.323670
7.467077
9.362708
8.593284
4.665025
-1.781699
-7.415742
-9.292664
-8.284528
-6.699614
-5.313661
-4.248010
-4.223693
-6.268247
-9.810507
-12.874885
-14.652209
-14.994953
-14.338916
-13.997102
-13.439259
-12.585896
-14.031228
-17.538652
-20.976638
-24.609378
-26.138409
-21.572112
-12.798867
-4.098567
3.887015
11.841736
18.186762
20.033763
17.936371
15.985569
16.214693
17.096111
15.996332
12.187543
8.538438
8.286407
11.427242
16.139662
20.333988
20.383088
14.191438
5.276984
-1.153607
-2.638451
-0.498034
1.403909
1.030771
-1.537723
-5.004934
-6.331730
-4.384898
-0.871624
2.278797
3.753826
3.961675
4.102423
3.593683
0.990119
-2.839945
-4.617970
-2.255446
2.647051
6.668133
8.539916
8.778860
7.140177
4.257693
2.019087
0.965599
0.266081
-1.289370
-4.721044
-9.028990
-10.724251
-7.190636
0.154575
6.870638
9.879377
9.958637
8.307330
5.047263
1.880482
-0.698533
-5.329119
-12.195041
-17.218640
-17.267033
-14.277465
-12.457585
-12.030902
-11.120259
-10.865184
-11.700071
-11.147372
-8.919749
-7.376217
-7.053106
-5.341240
0.318994
8.847454
16.896395
22.529275
25.519311
25.988077
24.553032
22.651795
20.713384
17.426899
13.417746
12.614187
15.901380
17.131857
11.668719
3.357229
-3.510797
-9.426800
-13.663905
-13.524326
-9.478462
-5.975942
-6.165082
-7.154275
-4.566838
1.399203
7.620317
11.165388
11.177314
9.215056
6.816065
4.433907
1.770959
-1.714956
-4.908156
-5.072981
-1.172304
3.833064
6.120305
6.253105
7.563541
11.186700
15.659010
18.267021
16.386826
8.869779
-3.706874
-17.856049
-27.112781
-28.458516
-25.814967
-21.961051
-16.931134
-14.019887
-14.932863
-17.558170
-20.824315
-22.895289
-22.037484
-19.256229
-15.466840
-11.073086
-6.144871
-0.279362
5.410564
9.711735
12.841114
14.516274
13.845045
10.200616
4.097341
-2.691194
-9.028032
-12.722962
-11.148335
-6.061605
-0.216671
6.067569
12.110062
16.538418
18.230645
17.798357
16.787420
14.875429
11.966993
9.218943
7.110094
4.919183
1.261895
-3.071068
-5.887621
-7.574933
-9.359271
-10.751765
-10.968025
-10.481724
-9.382874
-6.268926
-2.367314
-0.432172
0.497409
2.066659
4.398789
7.390695
10.463495
14.150247
18.622557
21.841247
22.467359
20.585293
16.162787
9.553107
3.701164
2.351455
5.126631
8.820397
10.569904
7.928465
1.255193
-4.697984
-6.378517
-6.199191
-6.721258
-6.081352
-3.286771
0.219723
3.718268
5.586778
3.298607
-2.232800
-7.766311
-11.688258
-13.849477
-15.943830
-19.549917
-22.591149
-24.220245
-26.063734
-25.778265
-20.099561
-10.821080
-3.332083
-1.728465
-3.525896
-4.287137
-4.838896
-5.396033
-3.257019
0.918603
3.956801
3.750361
1.183971
0.804287
4.979908
10.598293
14.929390
17.243752
16.092069
12.034988
7.817989
5.338338
5.593413
6.877430
6.577471
6.299255
7.540721
7.690822
6.995745
9.297248
13.385897
15.490075
16.073402
16.373132
16.509205
16.386932
14.905829
12.767288
11.900604
11.557860
11.043041
11.759164
14.039625
17.684761
22.639863
26.036706
24.812312
19.715535
13.285411
8.182087
6.910700
10.353134
16.578690
21.983150
24.203291
22.111744
15.991635
10.017884
8.442794
9.610848
8.732708
4.176937
-0.964496
-2.890749
-2.327762
-2.339683
-2.580258
-1.767810
-1.633140
-3.743158
-6.868557
-8.318799
-6.601555
-3.304076
-1.130694
-1.775037
-5.048897
-7.728211
-6.929324
-3.626233
-0.256978
2.293285
4.582397
6.326293
6.400176
4.541256
1.589802
-0.154557
0.083685
0.206431
-0.442821
-1.180683
-1.532779
-0.854998
0.628215
2.802298
5.655095
6.992886
3.694710
-3.352638
-9.519740
-13.084678
-14.494940
-13.811081
-13.473475
-14.295036
-14.227232
-14.230503
-15.640064
-17.334624
-18.684800
-18.584733
-15.542560
-11.062768
-7.513723
-4.326830
0.003332
5.096141
9.255864
11.576305
13.529917
16.398378
17.638675
14.559568
8.728901
2.656721
-3.109886
-8.555490
-12.569552
-13.511986
-12.177937
-9.479913
-4.175986
1.044709
2.141455
0.824478
-0.789422
-2.614441
-3.813818
-4.685646
-5.739134
-6.482373
-6.670109
-5.437527
-2.545920
-0.593477
-2.320301
-6.340910
-8.626275
-7.502175
-4.067223
0.038727
3.039751
2.967043
-0.887336
-5.766683
-7.259709
-4.453438
-0.192948
3.694869
6.638146
7.290209
6.688417
7.432129
9.460790
12.058047
14.009555
12.699358
8.597154
5.241464
3.015951
-0.992968
-6.356976
-10.117135
-12.326984
-13.144571
-10.884684
-5.992941
-1.522968
0.516214
1.951264
4.393981
5.745565
4.646019
1.234920
-4.698151
-11.781504
-18.418772
-23.834449
-25.170598
-20.379388
-12.981806
-6.429168
0.347683
6.702061
9.803151
10.661189
11.420098
11.022645
8.988611
7.583960
8.932271
13.975749
21.597542
28.986941
34.832109
38.738630
39.242232
34.393981
24.031855
11.376879
-0.661573
-11.907453
-21.944367
-28.952437
-30.776287
-26.755439
-19.369781
-11.945780
-4.833898
2.941266
9.696607
13.552160
15.343517
15.826311
14.737053
13.118243
12.276575
11.104552
8.772661
6.508571
3.714462
-0.729320
-5.301690
-7.689693
-6.560216
-4.371871
-4.645645
-5.117912
-2.498445
1.557940
4.202423
5.254046
6.425373
8.489805
11.278074
14.649433
17.754264
19.783860
20.587658
19.978151
17.428828
14.071502
12.564214
12.515587
11.732135
9.379435
5.093934
-0.232900
-5.276606
-8.741713
-9.062948
-7.196541
-4.568891
-0.765241
2.854645
3.774640
2.322060
0.862700
0.801448
1.485307
0.807298
-2.537637
-6.887666
-9.935211
-12.321110
-14.758444
-15.334050
-13.352615
-10.523666
-9.219308
-11.276488
-14.971885
-17.117907
-18.090501
-20.106766
-23.642246
-26.790323
-27.700260
-27.049833
-25.985352
-24.783631
-23.834412
-22.623339
-20.356906
-17.852467
-16.957021
-18.620720
-19.867792
-16.668975
-10.756707
-5.820776
-2.318023
0.180805
2.814767
6.038600
8.442506
10.139643
11.267016
11.176306
10.964020
10.677154
9.020703
6.292993
3.806795
3.210381
4.221790
4.345706
3.731757
4.334489
5.719974
6.946009
7.752379
6.676446
3.192636
-0.627609
-3.385713
-6.000265
-9.812093
-13.945626
-15.848499
-15.411997
-14.915877
-14.612873
-12.466845
-8.991212
-6.827884
-5.364076
-3.321387
-1.853839
-1.132104
-0.644167
-0.399612
-0.078840
0.574159
1.829185
3.249973
4.045588
4.223043
3.419952
1.502817
-0.859936
-3.588113
-5.327796
-3.097601
2.865868
8.617050
11.244933
10.522035
7.889480
5.592191
5.490726
8.059459
11.104437
11.192347
8.153687
4.057795
-0.219289
-4.199685
-7.391249
-9.449598
-11.714857
-16.939288
-23.691116
-27.798698
-27.808982
-24.218555
-18.891014
-14.259722
-11.780065
-11.516339
-11.320415
-9.801197
-8.331545
-8.325230
-10.287955
-13.056580
-14.112873
-12.366405
-8.402838
-4.281457
-2.021804
-1.356414
-2.332047
-5.424247
-8.370558
-8.866439
-7.676409
-5.963607
-3.901980
-2.449629
-1.653781
-0.755295
-1.169581
-2.531448
-2.552955
-2.954616
-5.625279
-8.911531
-11.390013
-12.014951
-9.911942
-6.079534
-1.304690
4.443920
9.167095
10.445501
9.589805
9.253841
9.051142
8.293407
7.783031
7.026699
6.444079
7.717809
9.330779
9.160343
8.278930
8.177699
7.707535
5.002737
0.961086
-2.682875
-5.400298
-7.096729
-8.601211
-9.405471
-7.573200
-3.546741
0.862445
3.911397
4.419441
2.969433
-0.046081
-4.433284
-8.298652
-9.827449
-9.242486
-7.944909
-6.628627
-5.656262
-6.412126
-9.408469
-12.714594
-13.791227
-11.581139
-7.480566
-4.101258
-2.278104
-1.713248
-2.933199
-4.866934
-5.331486
-4.702335
-3.821151
-2.467696
-1.461430
-1.568272
-2.579677
-4.781343
-8.298353
-11.657783
-13.560656
-14.469424
-14.734080
-14.459131
-14.653882
-15.413487
-15.374907
-14.217608
-13.418253
-13.857789
-14.827811
-15.552580
-16.232928
-18.417994
-22.323107
-25.046843
-25.084949
-23.192825
-19.501164
-14.904473
-10.550464
-6.454334
-3.317707
-1.511153
-0.142969
1.339776
3.787870
7.279869
9.493230
9.460968
9.034992
9.662039
11.430952
13.255041
13.689205
12.549680
9.824074
5.241182
0.122662
-3.488568
-4.751772
-4.333974
-4.087783
-4.991407
-6.252039
-6.971664
-6.437435
-4.552091
-2.179748
0.397870
3.312155
6.243742
8.677340
9.747433
9.146576
7.594399
5.111475
1.494166
-1.916934
-3.799934
-4.505064
-5.361695
-7.805575
-12.160514
-16.653861
-18.722497
-17.319944
-12.650309
-5.787421
0.021742
2.509114
2.989336
3.047788
3.643272
4.534276
3.312220
-0.614168
-5.385033
-9.875574
-13.536837
-15.389677
-14.414740
-11.171502
-7.957488
-6.676744
-7.633440
-9.021024
-8.499186
-6.277408
-4.382946
-3.760342
-3.997176
-4.582367
-4.544724
-2.786799
0.121875
3.439461
7.174842
10.039329
10.821617
10.112747
8.504692
5.471642
0.708260
-4.251279
-7.381121
-8.195200
-7.474167
-6.072783
-3.825054
-1.504146
-1.126561
-1.516999
-0.181781
1.956532
2.505257
0.358767
-3.347151
-6.049611
-6.070183
-3.689656
-1.352149
-0.621997
-0.343542
-0.293975
-0.864437
-0.895296
-0.363405
-0.751739
-2.360262
-3.913374
-4.462562
-4.630893
-4.867259
-4.261956
-2.265792
0.331231
3.177014
7.289510
12.056873
14.641972
13.993888
11.978091
10.824304
10.776144
11.217322
12.494559
13.202266
10.722381
5.697146
0.644088
-2.792729
-3.514693
-1.046258
3.313829
6.063522
5.367744
3.986004
4.488437
5.679871
5.613007
3.656594
0.176992
-3.272216
-5.047436
-4.533547
-1.573437
2.911732
7.047141
9.818810
11.272330
12.605211
14.623118
15.528617
13.776309
10.271691
6.413337
2.775454
-0.321422
-1.329553
0.392600
2.233523
2.018432
-0.025889
-2.858106
-5.352721
-7.392599
-9.122930
-9.865468
-9.955945
-10.835487
-12.098224
-11.943681
-10.509800
-8.049081
-3.586824
1.226129
3.998032
4.872904
3.919482
1.861133
1.029753
1.780245
2.773886
3.701128
4.618084
4.984680
4.746210
5.090596
6.875173
8.641046
8.132540
5.989790
4.815663
4.939344
5.131996
5.367199
6.064852
7.124658
7.851770
7.718976
7.136122
5.770281
3.246676
1.225033
0.757442
1.063485
2.155087
4.817806
8.114350
9.784133
9.782967
10.039211
10.738034
10.336607
8.488909
6.797389
5.839758
4.234508
1.610838
-1.472711
-4.243440
-5.189148
-4.235252
-2.621113
-0.919534
0.574433
2.194651
4.240146
5.556894
5.511774
5.014022
4.780929
4.758020
4.571218
4.315914
4.704955
5.999026
7.804411
9.255593
9.256063
7.485987
4.528922
1.562271
-0.231185
-1.111663
-2.137329
-3.028796
-2.982735
-2.489420
-1.984415
-0.837403
1.014507
2.830180
3.598440
2.456810
0.393552
-0.723528
-0.442268
0.972442
2.763332
3.954999
4.613842
5.228030
6.439103
8.287273
9.399215
9.361109
8.672111
6.904372
4.375858
2.836539
3.378717
5.648190
