EVENT_NAME: 202302060117
EVENT_ID: 13194
EVENT_DATE_YYYYMMDD: 2023/02/06
EVENT_TIME_HHMMSS: 01:17:32.00000
EVENT_LATITUDE_DEGREE: 37.288
EVENT_LONGITUDE_DEGREE: 37.043
EVENT_DEPTH_KM: 8.6
HYPOCENTER_REFERENCE: AFAD
MAGNITUDE_W: 7.7
MAGNITUDE_W_REFERENCE: AFAD
MAGNITUDE_L: 
MAGNITUDE_L_REFERENCE: 
FOCAL_MECHANISM: 
NETWORK: TK
STATION_CODE: 4612
STATION_NAME: 
STATION_LATITUDE_DEGREE: 38.02395
STATION_LONGITUDE_DEGREE: 36.48187
STATION_ELEVATION_M: 1340.0
LOCATION: Kahramanmaras_Pazarck_Turkiye
SENSOR_DEPTH_M: 
VS30_M/S: 246
SITE_CLASSIFICATION_EC8: C
MORPHOLOGIC_CLASSIFICATION: 
EPICENTRAL_DISTANCE_KM: 95.59
EARTHQUAKE_BACKAZIMUTH_DEGREE: 
DATE_TIME_FIRST_SAMPLE_YYYYMMDD_HHMMSS: 2023/02/06 01:17:26.0358140
DATE_TIME_FIRST_SAMPLE_PRECISION: millisecond
SAMPLING_INTERVAL_S: 0.01
NDATA: 11251
DURATION_S: 
STREAM: HNE
UNITS: cm/s^2
INSTRUMENT: sensor = CMG-5T/GURALP | digitizer = 
INSTRUMENT_ANALOG/DIGITAL: 
INSTRUMENTAL_FREQUENCY_HZ: 
INSTRUMENTAL_DAMPING: 
FULL_SCALE_G: 
N_BIT_DIGITAL_CONVERTER: 
PGA_CM/S^2: 122.222
TIME_PGA_S: 
BASELINE_CORRECTION: BASELINE REMOVED
FILTER_TYPE: BUTTERWORTH
FILTER_ORDER: 
LOW_CUT_FREQUENCY_HZ: 
HIGH_CUT_FREQUENCY_HZ: 
LATE/NORMAL_TRIGGERED: 
DATABASE_VERSION: 
HEADER_FORMAT: DYNA 1.2
DATA_TYPE: Acceleration
PROCESSING: Automatic Paolucci et al., 2011
DATA_TIMESTAMP_YYYYMMDD_HHMMSS: 
DATA_LICENSE: U (unknown license)
DATA_CITATION: Turkish Accelerometric Archive v 1.0 - Disaster And Emergency Management Presidency, Earthquake Department
DATA_CREATOR: AFAD
ORIGINAL_DATA_MEDIATOR_CITATION: : AFAD - Disaster And Emergency Management Presidency
ORIGINAL_DATA_MEDIATOR: AFAD PROCESS SERVICE
ORIGINAL_DATA_CREATOR_CITATION: AFAD PROCESS SERVICE
ORIGINAL_DATA_CREATOR: network: TK
USER1: GuestUser
USER2: 
USER3: 
USER4: 
USER5: 
[...]
-8.527143
-20.978842
-35.677197
-49.589328
-59.434355
-65.305728
-69.411465
-71.473017
-67.495464
-53.678272
-33.168435
-14.647372
-5.816492
-6.866585
-9.408258
-4.150882
10.452835
28.106205
40.693293
46.033335
47.025630
46.340645
45.935706
44.702011
41.425928
36.752313
34.266649
35.263735
36.657079
36.065243
33.074298
27.573125
19.973256
10.815314
-2.228824
-19.032764
-32.086487
-38.359209
-37.856321
-32.126011
-25.794277
-20.025930
-13.897566
-8.857936
-7.039582
-7.195026
-8.653656
-8.575778
-1.802261
11.723504
25.470311
34.032527
37.523369
36.709593
34.249986
31.350393
25.029450
13.667083
-0.715284
-13.604874
-21.543493
-25.801083
-31.113862
-37.512679
-41.400969
-40.970862
-37.769950
-33.969710
-31.728142
-30.100578
-24.451737
-15.245265
-8.756886
-8.580767
-13.528438
-19.480979
-21.767167
-15.583992
-1.161482
15.301619
29.271863
37.111052
38.147974
35.425694
33.501319
35.276244
38.364838
39.837254
41.403717
44.655247
47.585997
47.656387
42.543085
32.839428
23.182496
17.020894
16.237069
19.690771
23.314897
25.649614
26.868341
24.472830
17.019723
4.993034
-9.796373
-24.630109
-37.392405
-47.769968
-54.928952
-57.206155
-55.348863
-51.667231
-48.793089
-47.466237
-47.461441
-47.911307
-48.932946
-52.139541
-54.061819
-51.521935
-47.217014
-45.073986
-46.790498
-52.433641
-59.245488
-64.673280
-69.059362
-72.166518
-73.394822
-71.893653
-67.412917
-61.488522
-55.375134
-47.490419
-36.271812
-20.601525
-1.144480
17.400244
32.245369
45.748671
58.029955
68.820556
77.911115
82.881258
82.571264
78.982190
73.856907
68.713054
66.296877
65.586434
65.208750
66.479593
68.786455
71.033714
72.068539
69.282163
62.456837
53.909904
45.636727
36.373656
22.853889
5.060055
-14.001024
-30.688154
-43.635549
-52.295099
-58.350374
-63.298344
-65.780714
-63.828477
-55.685281
-42.255660
-25.933331
-10.385845
0.450583
6.557082
11.592818
18.538855
30.032117
43.126582
48.933866
41.374132
23.945106
4.192449
-11.953758
-22.469398
-28.348558
-30.942646
-29.450163
-24.772047
-19.686292
-18.090177
-21.011036
-23.892658
-22.961764
-16.709701
-8.225658
-1.585424
1.115000
0.996995
-1.519819
-2.993724
0.358742
8.620545
20.138667
32.460086
43.253682
52.536230
61.724431
70.645165
76.726206
78.235761
75.019282
67.429597
59.585024
53.950268
50.544197
46.111391
38.522304
27.819468
14.907116
-0.162637
-18.271561
-38.294979
-56.695629
-69.984770
-78.223503
-82.665294
-85.038341
-85.273456
-81.692760
-74.162670
-65.055338
-56.192410
-48.304999
-41.279890
-33.842050
-25.490093
-18.959182
-16.747565
-18.505710
-20.895230
-19.281144
-12.926647
-5.201274
-1.053897
-3.192125
-10.008465
-17.141391
-21.091380
-17.840449
-7.045055
6.381271
19.151961
29.344433
36.665162
43.021756
47.292832
47.649258
42.057332
31.208034
19.960681
13.360890
10.497238
6.424448
-0.964563
-9.060128
-10.549907
-2.146134
11.930138
25.548453
35.757098
40.550527
39.371943
32.330967
18.245119
0.229045
-15.017122
-24.936130
-29.438423
-30.039544
-31.280427
-35.006080
-39.729415
-44.736090
-47.704571
-44.667494
-33.923916
-16.647634
3.020568
18.951732
27.685270
28.109086
21.099859
10.408105
0.043720
-6.218219
-9.042334
-11.926652
-17.604838
-24.735668
-27.929983
-22.319778
-7.828080
7.421389
17.955906
22.401899
23.243538
24.670427
28.116342
31.775211
33.761593
35.516151
37.458205
38.371428
38.664656
37.052675
31.831248
24.683645
17.642969
13.664826
15.992953
21.239847
25.852369
28.885553
28.509667
26.098881
22.690114
17.528590
8.639912
-3.537433
-15.515900
-22.828535
-23.869343
-22.744363
-23.958590
-28.908657
-36.239862
-39.929274
-36.464789
-29.023355
-22.273500
-17.980858
-15.936970
-12.752830
-9.144878
-10.432785
-17.916743
-27.975024
-36.819375
-42.600294
-43.237357
-39.176539
-32.974495
-26.971029
-23.072548
-21.453071
-21.378189
-21.763060
-19.393899
-10.744225
3.300598
18.730974
32.609267
43.557713
51.022809
53.612113
48.769272
37.440451
25.246034
18.493790
17.907645
19.640638
19.233003
15.036214
9.295430
4.911145
4.174644
3.751434
1.709051
0.401675
1.975926
4.551752
5.717465
3.963514
-4.077540
-17.624263
-32.855454
-45.430853
-50.750820
-46.543241
-36.518796
-28.147970
-24.216243
-21.232778
-13.594564
0.023452
12.662955
18.543321
14.496888
1.990976
-10.138745
-17.481032
-22.157343
-26.314596
-31.400044
-34.391587
-30.021671
-16.832261
-1.281181
8.930161
15.263092
19.160375
24.823893
33.638599
43.060122
50.513536
54.453350
54.357509
48.971349
41.635053
33.964798
28.881746
27.967334
28.364194
26.304738
21.712291
17.434933
15.619282
20.886243
32.405862
45.563824
56.461052
61.155941
60.353846
57.932278
54.486072
47.636486
37.613547
23.200928
6.234951
-9.491038
-24.533535
-39.782996
-52.715416
-60.884662
-64.415031
-62.208207
-56.237388
-49.370721
-41.966427
-35.025182
-32.888144
-38.569625
-51.337312
-66.578986
-76.182305
-78.079724
-73.681354
-64.299368
-54.723895
-46.946406
-39.616991
-32.524491
-25.748278
-17.612270
-8.465702
-0.933515
4.140259
7.936605
12.589262
19.201941
25.971864
30.080903
30.231862
28.032533
26.600260
27.382895
30.104884
30.947121
27.949587
23.940294
20.338640
16.987979
12.951730
7.204655
1.047546
-1.538755
1.523482
8.737585
17.533422
26.263665
31.478211
32.581027
31.875974
30.690800
29.474178
30.464675
34.755519
42.042104
52.390024
61.455124
65.771128
64.169929
57.049882
45.121134
31.988040
19.961051
7.753157
-4.411908
-15.585281
-25.667224
-34.886566
-40.810354
-42.836563
-43.588639
-45.369547
-49.642712
-53.215912
-49.994933
-35.794362
-13.826190
7.487543
19.040707
18.236516
8.666442
-2.642311
-8.091069
-5.209140
2.180179
5.139982
1.573671
-2.352657
-1.360063
4.158789
10.950877
14.604355
12.741680
9.969979
10.744527
12.776435
14.315044
14.419578
11.057236
5.126260
0.525726
-3.899593
-10.771642
-20.562458
-30.601271
-35.684921
-36.380689
-36.962641
-41.208550
-49.351438
-58.049326
-64.400221
-67.977914
-67.271057
-59.714310
-48.139281
-38.136102
-32.253340
-29.241421
-25.335752
-18.534080
-11.172317
-6.396560
-4.839980
-6.397450
-8.120551
-6.643044
-0.697983
8.639675
18.471532
25.231272
27.009791
22.372417
13.559216
5.355825
-1.471597
-5.877147
-5.776506
-0.994459
5.211180
8.796369
7.241594
1.348058
-4.052179
-3.152734
2.696782
8.900324
13.583531
16.029368
19.227285
26.317389
35.956059
45.622584
51.203436
50.791009
49.221558
50.870687
55.610503
61.192254
61.775711
55.428710
43.011754
24.763557
6.141266
-8.927888
-16.798817
-17.080057
-11.621108
-4.815842
-1.411260
-3.454842
-11.362312
-21.804870
-31.645105
-40.144116
-48.314559
-56.960032
-65.479111
-71.394811
-71.621240
-63.891074
-52.285195
-41.557791
-32.796398
-24.096705
-13.873982
-2.093786
7.935151
14.410652
17.832306
18.422353
17.962303
14.987831
7.149249
-2.695778
-11.412236
-17.506747
-17.482482
-11.275646
-2.533122
8.133481
22.433790
38.619540
52.634112
61.390713
62.194014
58.342266
55.945557
55.449266
52.686851
46.018171
34.341615
19.876581
8.667266
2.884550
2.503272
3.603092
5.614034
10.655162
16.859602
21.635959
25.748292
30.606716
38.067319
47.134216
53.518365
54.429791
49.872986
41.623770
30.466870
18.209256
6.970290
-1.562566
-8.242926
-14.459639
-20.288481
-25.977749
-30.340169
-32.472107
-33.079518
-35.049718
-38.781661
-42.948499
-46.271904
-47.046144
-44.030332
-40.510138
-39.703842
-42.638178
-48.671888
-53.871450
-55.468456
-54.752313
-53.541673
-53.714489
-55.126095
-56.336728
-57.597678
-59.238713
-61.644706
-64.833330
-67.729329
-69.280809
-70.256322
-68.835124
-61.415554
-46.015729
-24.999114
-5.857757
8.180477
18.281896
24.563012
27.868754
26.208851
21.128195
15.609950
11.541353
11.372731
13.800896
18.115402
22.484419
24.842498
25.321725
24.748459
24.747864
25.957905
26.973262
25.942638
23.796023
22.862741
23.659453
27.106566
30.686363
31.844588
30.869973
30.132573
32.136627
34.965542
35.600217
33.250232
26.205662
17.747985
13.150745
13.752174
20.312437
28.868962
35.123721
37.748967
41.377885
45.728632
46.951852
39.738955
23.620603
5.953762
-6.977759
-15.019112
-20.861731
-25.757886
-30.604021
-32.047676
-27.882627
-21.120791
-16.013471
-13.886917
-15.325779
-17.457118
-16.860482
-11.862484
-3.215805
7.999208
20.185546
30.362443
37.253070
39.983146
36.914926
30.768600
26.864736
27.444000
32.090068
39.490768
44.895206
45.300153
41.109354
32.703193
25.285129
21.083249
18.401103
17.430082
17.979095
17.834135
15.790853
11.891781
7.471854
4.478813
2.469975
-1.789412
-9.834659
-19.571861
-27.267874
-31.981625
-36.091854
-41.209350
-47.084017
-51.359877
-51.831608
-48.329984
-43.214577
-39.736315
-39.186703
-38.541246
-35.188480
-27.656293
-16.976512
-6.035854
-0.795549
-2.525240
-7.848202
-14.844850
-22.899082
-30.665780
-36.038761
-40.301743
-43.298378
-42.818852
-38.200339
-30.745427
-20.560144
-7.364743
6.970609
19.867395
29.895133
36.522488
38.157540
34.937167
29.146064
20.385578
7.576558
-11.875687
-34.460550
-52.458054
-61.137672
-57.816355
-46.493217
-35.184157
-25.880942
-15.609998
-3.508123
6.241367
8.027374
0.546113
-11.679454
-21.414260
-23.022647
-16.947896
-10.350194
-8.017873
-10.726975
-14.365769
-14.550565
-11.190611
-5.083213
3.235797
13.159605
23.266116
32.216502
37.932435
39.423421
38.021998
33.924049
27.514748
20.339291
15.333514
13.827561
12.616329
10.665598
10.771030
13.940793
20.633741
27.726540
32.216562
35.116761
38.026845
41.606343
45.893593
50.614240
53.432673
53.920585
51.359144
47.286354
45.217314
46.527093
47.038069
43.577486
34.414452
18.526127
1.920465
-8.470577
-12.953701
-15.326748
-20.437355
-29.566543
-37.131669
-36.756973
-26.824779
-12.790438
-1.200733
3.556754
1.532342
-2.983729
-7.013688
-6.604548
-2.629392
-0.692729
-3.191872
-9.922850
-20.083266
-30.994264
-40.315441
-48.758143
-54.747525
-57.183769
-54.776270
-45.061224
-30.179558
-13.976436
1.233498
13.116727
19.501475
20.838810
16.271821
7.340013
-1.299470
-7.866614
-12.660035
-18.273227
-25.726633
-31.934061
-34.920214
-35.854394
-36.421670
-38.440092
-39.943949
-35.772911
-22.909970
-5.174833
9.736185
18.456844
21.929416
22.972628
21.862932
17.271084
10.157326
0.979317
-8.515279
-17.589956
-26.806902
-36.660616
-43.678229
-45.640942
-44.923002
-42.118347
-38.308223
-33.465375
-25.613307
-15.969245
-7.520246
-1.703377
2.438609
6.119942
11.504911
19.067648
27.021851
35.303721
44.220862
53.021791
59.898341
62.317221
56.833121
45.105347
33.045712
25.055276
20.818053
16.504753
9.844160
3.533700
1.830367
5.123829
10.036464
12.673990
11.722437
7.743395
-0.339890
-12.497766
-23.442010
-29.077665
-32.868013
-36.475059
-39.761324
-39.781687
-30.697119
-15.465321
-2.266924
3.870425
7.920460
17.338088
32.554910
47.497677
55.062511
55.179625
51.007696
45.823409
43.121195
44.670886
48.340538
50.259828
46.242149
35.187683
20.380904
6.231558
-3.396321
-7.320852
-7.217516
-6.412717
-6.570857
-8.045661
-8.046555
-4.659046
0.792116
5.860799
8.114647
5.723330
-1.111580
-9.335936
-15.640107
-16.984922
-13.193667
-7.253997
-2.790633
0.714885
2.506882
0.980862
-3.088035
-9.574010
-16.815960
-22.479769
-27.560125
-31.998921
-34.622961
-36.662349
-37.475527
-37.488102
-37.810975
-40.834866
-46.336938
-52.884913
-59.273247
-63.723125
-63.653035
-55.807257
-36.471516
-8.985993
16.892935
35.592209
44.575841
45.096101
41.321628
36.794175
32.446132
27.950727
21.748092
12.212462
-0.519882
-14.898955
-27.957171
-37.452964
-42.426094
-44.578399
-48.133030
-53.116043
-56.439149
-55.115592
-47.395610
-36.525937
-24.735557
-12.062209
3.166594
19.397871
33.528655
43.693272
51.802622
61.065701
71.743087
83.101867
89.710052
88.206195
78.708904
64.466110
50.778615
40.529842
34.134919
30.039366
25.461894
19.887640
11.971783
2.835107
-6.108682
-13.458457
-14.688858
-6.803843
7.550678
21.118974
26.508137
22.662978
15.802609
11.293427
9.940226
10.892086
13.252261
16.141379
18.694742
20.189321
20.249827
19.438447
17.279253
12.198898
2.845373
-10.559381
-23.945265
-32.068685
-33.387741
-29.055564
-22.609416
-16.385207
-9.366088
1.167230
15.867690
32.073209
46.299837
57.318968
65.728731
71.015760
75.376391
79.351547
79.304827
73.588303
63.679180
49.386067
34.742523
23.494571
17.291636
16.496430
16.858247
13.802008
6.299481
-3.852548
-15.326634
-26.903452
-36.164726
-41.216928
-42.229881
-40.475922
-36.847004
-35.289227
-37.966879
-42.023196
-42.065723
-33.611931
-17.930263
-1.733730
6.227661
2.588567
-9.076009
-22.833590
-36.022094
-47.306288
-56.263854
-64.313893
-71.409979
-76.755405
-79.175176
-77.694674
-72.264178
-62.413452
-48.049946
-30.507096
-14.775409
-3.243809
3.656103
7.284122
10.040855
12.876060
16.592436
21.483207
24.609241
19.590585
8.584640
-4.190235
-16.434371
-25.659104
-32.572188
-37.265571
-36.004612
-26.771185
-13.777357
-3.111653
2.013039
-1.801570
-15.251850
-31.005094
-44.325983
-53.490814
-56.235558
-50.322545
-36.305577
-15.749315
5.951091
23.082108
32.780382
36.717200
38.536753
41.339011
48.850532
60.475879
73.365776
85.242116
96.216320
105.261054
110.783500
113.644164
115.803665
117.816405
120.716305
122.221967
120.509049
114.443891
106.778128
100.208588
94.416587
87.988417
75.072171
53.883643
25.020363
-7.743190
-38.622201
-65.436204
-87.758693
-102.375880
-108.105283
-106.340242
-96.460164
-80.755732
-62.264621
-42.662612
-22.271083
-1.984384
15.473703
29.494865
41.293631
47.641239
46.525553
43.137452
40.472679
36.762900
32.125526
29.490703
29.432302
29.812090
29.730027
29.084278
25.175921
16.936290
7.259889
-1.520964
-8.730866
-13.359554
-17.596478
-24.452054
-31.740129
-36.496710
-39.646996
-43.782684
-49.592058
-59.579654
-73.553484
-87.414098
-99.456362
-107.349755
-108.333056
-101.427153
-86.744964
-62.868887
-31.859281
-0.954504
21.239501
29.804113
21.400947
1.095686
-17.538585
-26.033702
-22.862442
-15.643547
-11.078947
-12.377337
-17.084498
-19.895435
-18.168731
-11.524305
-2.337901
5.688784
9.885281
8.710890
1.572272
-8.454560
-18.508049
-27.799575
-35.288623
-39.319481
-37.573609
-30.833039
-20.865202
-10.787744
-4.863350
-3.676970
-4.817216
-4.684827
-0.679720
6.461302
13.736805
20.213204
27.366206
36.712550
47.755043
58.762493
67.973756
74.475314
77.554324
78.300119
76.893304
73.728941
69.650460
63.399303
54.976669
44.555975
31.920075
19.049954
7.956252
-1.467359
-10.631591
-20.040526
-30.803264
-42.563386
-53.525601
-62.144717
-69.293817
-75.335613
-78.572759
-76.922132
-70.477781
-61.036491
-48.496127
-31.263574
-10.173279
11.763743
33.650147
51.939985
63.056458
64.856243
53.693952
33.946087
15.886584
7.640363
8.617083
13.441362
18.064966
23.153117
29.566918
36.844218
42.992949
44.781052
42.324141
38.709309
34.995936
28.569563
18.156058
2.533701
-14.763239
-27.102621
-30.612025
-26.261577
-16.215568
-3.530239
10.602641
26.575737
42.976838
55.806832
63.279415
64.977664
62.706752
57.828269
50.472803
40.118302
29.842573
22.290028
16.812516
12.993115
11.062750
10.466721
10.640742
10.406227
4.465367
-9.600115
-27.485301
-44.176325
-57.853037
-66.294241
-70.123826
-72.655316
-75.073290
-75.978418
-76.657413
-80.330351
-89.487394
-101.706671
-111.489399
-116.017451
-113.046266
-101.937281
-87.789125
-75.673773
-68.305420
-64.763960
-61.987160
-57.362358
-48.407479
-35.776063
-22.224240
-9.757857
1.808487
14.280861
28.355635
43.648235
58.226792
70.380183
81.166592
89.108514
95.953016
101.500023
100.910283
94.419515
83.111660
68.372571
52.960474
42.601480
39.093873
40.265577
43.284683
42.899812
37.524135
28.862488
19.394849
9.609125
-0.037325
-8.109228
-10.282499
-3.843839
11.409524
30.893226
42.999294
39.686671
24.486929
6.177930
-10.943495
-25.113807
-36.639109
-44.642124
-43.705839
-28.683102
-5.237427
13.916210
21.124921
15.470397
3.617127
-8.167854
-18.423515
-28.692655
-40.032258
-48.437221
-48.493226
-39.000120
-24.749830
-9.602196
4.249441
16.542106
26.824732
34.346735
37.549743
34.917018
27.608875
16.208171
2.447595
-10.368613
-18.986531
-20.989079
-17.303253
-12.641910
-12.933633
-18.994299
-27.711356
-34.454614
-35.377413
-31.349842
-26.034060
-21.578783
-19.199139
-18.438369
-17.630875
-16.967746
-16.636779
-17.004279
-18.762124
-18.133440
-10.201701
6.693898
27.857575
46.062650
57.536444
62.228637
64.214719
63.680689
58.047430
43.595575
18.976412
-9.700870
-32.580755
-44.214481
-49.591955
-54.641461
-61.791160
-70.922744
-76.632080
-74.209905
-62.373100
-43.508494
-22.315166
-3.331653
10.765884
17.121879
14.206412
6.207889
-2.366899
-10.630192
-17.598984
-19.687493
-15.184293
-5.517169
6.515518
17.254304
22.415236
21.194121
15.756145
9.662234
6.005469
5.791021
7.992454
10.951658
12.007749
8.938332
2.577253
-7.138684
-19.653281
-33.129319
-43.378091
-47.612619
-47.125605
-43.475422
-37.454284
-29.268557
-17.117263
0.471712
20.094687
38.095494
53.072106
64.928079
76.082591
86.909134
95.568992
100.504690
100.143480
91.891568
80.350691
73.082085
70.636256
70.747979
69.605037
60.581277
43.340346
24.222659
9.819924
4.731182
5.966083
8.597618
9.242177
6.427646
2.125129
-1.015573
-2.540995
-5.150059
-10.981596
-20.575331
-32.201869
-42.342817
-48.036278
-47.443236
-43.674445
-42.273913
-45.670100
-51.607665
-56.865633
-57.556309
-50.655798
-36.348899
-17.289310
1.983533
16.737307
24.631307
28.867040
34.424230
41.751250
47.431540
46.261342
36.608603
21.374716
4.252692
-10.609198
-22.456777
-32.411427
-41.086252
-48.676836
-55.260753
-59.728003
-60.311753
-55.485976
-45.167109
-30.307308
-13.671987
2.550005
13.542779
12.802683
0.026011
-19.039561
-35.986968
-46.422338
-49.910476
-46.711661
-41.296740
-38.162020
-37.361415
-35.958487
-31.149782
-23.693972
-16.586796
-11.215005
-7.194023
-4.480420
-4.265066
-6.505727
-8.052714
-7.884084
-5.704216
-3.067289
-3.850814
-10.006425
-19.214686
-28.549341
-35.599901
-40.610170
-43.419011
-40.543071
-32.359741
-23.095463
-17.670359
-17.819214
-19.650739
-19.554890
-16.985654
-13.167144
-9.542119
-6.083625
-3.544040
-4.720528
-12.851136
-25.708677
-37.380142
-43.631000
-43.935602
-41.765617
-39.477325
-35.093931
-25.681993
-11.659933
3.002489
13.756250
18.974091
23.758834
33.394209
47.488752
62.997600
75.806029
81.793621
80.069022
73.718427
65.704929
58.438718
52.904599
48.883325
46.168532
46.543828
50.384203
56.051314
61.309889
65.089762
67.103400
67.676674
67.586225
67.794391
70.036858
73.460309
76.765452
78.456812
77.082945
72.493193
65.862851
56.136731
40.449979
20.102187
0.712541
-16.096491
-28.031229
-33.810950
-36.029148
-37.657303
-40.369400
-43.837471
-48.220258
-52.827382
-55.610763
-54.274327
-48.557795
-41.934035
-39.036231
-42.002915
-49.341009
-56.727624
-61.036132
-60.385882
-52.512848
-37.112124
