EVENT_NAME: 202302060117
EVENT_ID: 13194
EVENT_DATE_YYYYMMDD: 2023/02/06
EVENT_TIME_HHMMSS: 01:17:32.00000
EVENT_LATITUDE_DEGREE: 37.288
EVENT_LONGITUDE_DEGREE: 37.043
EVENT_DEPTH_KM: 8.6
HYPOCENTER_REFERENCE: AFAD
MAGNITUDE_W: 7.7
MAGNITUDE_W_REFERENCE: AFAD
MAGNITUDE_L: 
MAGNITUDE_L_REFERENCE: 
FOCAL_MECHANISM: 
NETWORK: TK
STATION_CODE: 4203
STATION_NAME: 
STATION_LATITUDE_DEGREE: 38.65491
STATION_LONGITUDE_DEGREE: 32.91656
STATION_ELEVATION_M: 952.0
LOCATION: Kahramanmaras_Pazarck_Turkiye
SENSOR_DEPTH_M: 
VS30_M/S: 280
SITE_CLASSIFICATION_EC8: C
MORPHOLOGIC_CLASSIFICATION: 
EPICENTRAL_DISTANCE_KM: 392.30
EARTHQUAKE_BACKAZIMUTH_DEGREE: 
DATE_TIME_FIRST_SAMPLE_YYYYMMDD_HHMMSS: 2023/02/06 01:18:02.0069140
DATE_TIME_FIRST_SAMPLE_PRECISION: millisecond
SAMPLING_INTERVAL_S: 0.01
NDATA: 21001
DURATION_S: 
STREAM: HNN
UNITS: cm/s^2
INSTRUMENT: sensor = GMS+/GEOSIG | digitizer = 
INSTRUMENT_ANALOG/DIGITAL: 
INSTRUMENTAL_FREQUENCY_HZ: 
INSTRUMENTAL_DAMPING: 
FULL_SCALE_G: 
N_BIT_DIGITAL_CONVERTER: 
PGA_CM/S^2: 2.311
TIME_PGA_S: 
BASELINE_CORRECTION: BASELINE REMOVED
FILTER_TYPE: BUTTERWORTH
FILTER_ORDER: 
LOW_CUT_FREQUENCY_HZ: 
HIGH_CUT_FREQUENCY_HZ: 
LATE/NORMAL_TRIGGERED: 
DATABASE_VERSION: 
HEADER_FORMAT: DYNA 1.2
DATA_TYPE: Acceleration
PROCESSING: Automatic Paolucci et al., 2011
DATA_TIMESTAMP_YYYYMMDD_HHMMSS: 
DATA_LICENSE: U (unknown license)
DATA_CITATION: Turkish Accelerometric Archive v 1.0 - Disaster And Emergency Management Presidency, Earthquake Department
DATA_CREATOR: AFAD
ORIGINAL_DATA_MEDIATOR_CITATION: : AFAD - Disaster And Emergency Management Presidency
ORIGINAL_DATA_MEDIATOR: AFAD PROCESS SERVICE
ORIGINAL_DATA_CREATOR_CITATION: AFAD PROCESS SERVICE
ORIGINAL_DATA_CREATOR: network: TK
USER1: GuestUser
USER2: 
USER3: 
USER4: 
USER5: 
[...]
-0.206571
-0.142668
-0.081882
-0.017979
0.038911
0.104372
0.163859
0.222307
0.274780
0.327773
0.384143
0.422588
0.472464
0.525457
0.576631
0.636118
0.679499
0.717945
0.757949
0.799512
0.841335
0.869650
0.887055
0.909135
0.928098
0.936151
0.947841
0.953815
0.963687
0.966544
0.962908
0.966285
0.956933
0.952517
0.945504
0.926800
0.924722
0.915630
0.896668
0.889654
0.866794
0.843156
0.831466
0.798216
0.761849
0.740288
0.710934
0.678723
0.641057
0.600014
0.574037
0.543384
0.502861
0.459220
0.414800
0.370639
0.314529
0.252185
0.190620
0.136589
0.092168
0.042293
0.006705
-0.013037
-0.030961
-0.034598
-0.036416
-0.022908
-0.001087
0.014239
0.038138
0.060997
0.090091
0.115289
0.142825
0.190882
0.245173
0.302842
0.351159
0.397917
0.470133
0.547544
0.607550
0.661062
0.712497
0.771204
0.833549
0.871215
0.900569
0.931481
0.955900
0.979279
0.983176
0.979539
0.982916
0.986033
0.981358
0.960057
0.944990
0.934340
0.925508
0.912520
0.887842
0.873814
0.866281
0.860047
0.852773
0.833810
0.815627
0.809133
0.797703
0.768869
0.744711
0.738216
0.716656
0.700810
0.690419
0.657689
0.638986
0.604696
0.553003
0.513778
0.447537
0.384673
0.322849
0.231151
0.151662
0.072952
-0.014330
-0.092780
-0.170450
-0.244484
-0.315141
-0.382420
-0.436452
-0.489704
-0.539320
-0.579844
-0.618289
-0.645045
-0.665307
-0.685829
-0.719079
-0.742977
-0.752589
-0.760901
-0.783501
-0.810776
-0.801165
-0.798047
-0.792852
-0.771811
-0.759602
-0.727130
-0.686607
-0.657772
-0.634133
-0.612053
-0.581920
-0.552826
-0.539577
-0.526069
-0.509444
-0.484766
-0.455152
-0.424500
-0.381638
-0.338516
-0.281887
-0.227076
-0.169927
-0.100049
-0.049394
0.014249
0.075814
0.115039
0.169331
0.216349
0.262328
0.320256
0.364417
0.415332
0.475858
0.535864
0.601066
0.651461
0.690946
0.733288
0.766539
0.785502
0.791217
0.790957
0.788359
0.778748
0.760824
0.737705
0.705754
0.673023
0.653800
0.622109
0.584183
0.555608
0.529372
0.506512
0.477938
0.454039
0.440272
0.424686
0.406502
0.395332
0.381305
0.371174
0.377928
0.383383
0.395593
0.399229
0.404425
0.430661
0.449884
0.463133
0.474043
0.482875
0.482875
0.475862
0.462873
0.433779
0.406764
0.381826
0.351174
0.317144
0.288310
0.267009
0.250904
0.239474
0.229603
0.224667
0.226226
0.223109
0.225447
0.222070
0.200769
0.211420
0.222070
0.219473
0.225967
0.226487
0.248048
0.269868
0.302599
0.321043
0.317925
0.352215
0.367022
0.371438
0.375854
0.366762
0.372218
0.366763
0.358190
0.351696
0.351696
0.360269
0.371179
0.391961
0.401832
0.417938
0.450928
0.477425
0.491712
0.502103
0.528599
0.547303
0.554316
0.568864
0.583930
0.610167
0.637962
0.658484
0.679006
0.711996
0.745247
0.778237
0.809929
0.822138
0.848635
0.874092
0.904745
0.933839
0.936437
0.968128
1.012289
1.050995
1.072296
1.092817
1.135419
1.173346
1.215688
1.225299
1.225300
1.257771
1.270240
1.273617
1.262447
1.229197
1.236990
1.240627
1.200622
1.170489
1.143474
1.115679
1.082169
1.016967
0.949427
0.902669
0.851755
0.790450
0.713299
0.635888
0.596403
0.550165
0.495614
0.437685
0.379757
0.359496
0.315595
0.258446
0.215584
0.160773
0.114275
0.062841
-0.004958
-0.067043
-0.117957
-0.170430
-0.229397
-0.283948
-0.337201
-0.393311
-0.437471
-0.486567
-0.544755
-0.593331
-0.637492
-0.680094
-0.721916
-0.767116
-0.812056
-0.834395
-0.860632
-0.884011
-0.895181
-0.915183
-0.913624
-0.908948
-0.908169
-0.891024
-0.873879
-0.858293
-0.833875
-0.817250
-0.792831
-0.754645
-0.739579
-0.728928
-0.707108
-0.688144
-0.694898
-0.700613
-0.690222
-0.691261
-0.694378
-0.696976
-0.678792
-0.657231
-0.638008
-0.609434
-0.585015
-0.540075
-0.494096
-0.455910
-0.421361
-0.381876
-0.325766
-0.275371
-0.219521
-0.170425
-0.123407
-0.065219
-0.020279
0.009075
0.031415
0.055834
0.067263
0.061549
0.040767
0.019207
0.006478
-0.014823
-0.048852
-0.089116
-0.132238
-0.167306
-0.187048
-0.230170
-0.272772
-0.303164
-0.352520
-0.381874
-0.416942
-0.471494
-0.491236
-0.503185
-0.535916
-0.575920
-0.603715
-0.606572
-0.613326
-0.639822
-0.673332
-0.685801
-0.691256
-0.714895
-0.741911
-0.763991
-0.764251
-0.758536
-0.753860
-0.739053
-0.727883
-0.714634
-0.696191
-0.685800
-0.681644
-0.685540
-0.709439
-0.739572
-0.772302
-0.817761
-0.867897
-0.904264
-0.934917
-0.960374
-0.973882
-0.985831
-0.978557
-0.965569
-0.949463
-0.929720
-0.916212
-0.882183
-0.842958
-0.797758
-0.754636
-0.723724
-0.670212
-0.595139
-0.533833
-0.498505
-0.459020
-0.412262
-0.374595
-0.355372
-0.350437
-0.341604
-0.334071
-0.333811
-0.344461
-0.354333
-0.363165
-0.354852
-0.333551
-0.329654
-0.310951
-0.286533
-0.264712
-0.227305
-0.203926
-0.190158
-0.163922
-0.140802
-0.130152
-0.120540
-0.120800
-0.112747
-0.095342
-0.105213
-0.095602
-0.080275
-0.080016
-0.074301
-0.089627
-0.097160
-0.108849
-0.141840
-0.172752
-0.209639
-0.238473
-0.269905
-0.302636
-0.330950
-0.375371
-0.398230
-0.405244
-0.434078
-0.457197
-0.488889
-0.515645
-0.518502
-0.539283
-0.553830
-0.566559
-0.569416
-0.543699
-0.532009
-0.526554
-0.509150
-0.474081
-0.433037
-0.403164
-0.373291
-0.329390
-0.267565
-0.206259
-0.159761
-0.112223
-0.050398
0.015583
0.063900
0.086759
0.105463
0.135076
0.159495
0.156118
0.134817
0.117932
0.096631
0.062602
0.013765
-0.031954
-0.073516
-0.129366
-0.182359
-0.247561
-0.313022
-0.356403
-0.412253
-0.452517
-0.506289
-0.565516
-0.595129
-0.638511
-0.673579
-0.710986
-0.749951
-0.780343
-0.824504
-0.869963
-0.909188
-0.965298
-1.020888
-1.072582
-1.149992
-1.217532
-1.290267
-1.363781
-1.412617
-1.458596
-1.503276
-1.538085
-1.551073
-1.565880
-1.571855
-1.570036
-1.572634
-1.568997
-1.581466
-1.601208
-1.619651
-1.646667
-1.672904
-1.696542
-1.718882
-1.727195
-1.724077
-1.729013
-1.721999
-1.693684
-1.660953
-1.624846
-1.595751
-1.545097
-1.486129
-1.449502
-1.405341
-1.365856
-1.321436
-1.264027
-1.209216
-1.179862
-1.156223
-1.098555
-1.044523
-1.001401
-0.971008
-0.929445
-0.869179
-0.837747
-0.810471
-0.773324
-0.732281
-0.684743
-0.667079
-0.657987
-0.619801
-0.594084
-0.584213
-0.582914
-0.591226
-0.572003
-0.568107
-0.595902
-0.593044
-0.588368
-0.597200
-0.597460
-0.618501
-0.625774
-0.604733
-0.606551
-0.617721
-0.629151
-0.629411
-0.623176
-0.643698
-0.667596
-0.680065
-0.700067
-0.731239
-0.772542
-0.814105
-0.850992
-0.903205
-0.962432
-1.013866
-1.065040
-1.119591
-1.190508
-1.256229
-1.315716
-1.381177
-1.447938
-1.526647
-1.600161
-1.675234
-1.736280
-1.801741
-1.879411
-1.924871
-1.969551
-2.002801
-2.031895
-2.059690
-2.063586
-2.070080
-2.080991
-2.085407
-2.078912
-2.076314
-2.068262
-2.070859
-2.065923
-2.040206
-2.042025
-2.040206
-2.035790
-2.034751
-2.037089
-2.061507
-2.086444
-2.112681
-2.138657
-2.165933
-2.197625
-2.216588
-2.224121
-2.223601
-2.213730
-2.192948
-2.151645
-2.091639
-2.018124
-1.935518
-1.841742
-1.730821
-1.609249
-1.480144
-1.356754
-1.228429
-1.088674
-0.966323
-0.839816
-0.715647
-0.591737
-0.459775
-0.341061
-0.222867
-0.111166
0.011964
0.124703
0.220298
0.321348
0.398759
0.473832
0.548125
0.606573
0.651513
0.686842
0.732561
0.761136
0.774644
0.800880
0.821662
0.837768
0.848938
0.865043
0.891540
0.911542
0.939078
0.952326
0.965314
0.998045
1.015709
1.036491
1.069222
1.101433
1.148971
1.198327
1.236253
1.275738
1.319379
1.356006
1.367956
1.372632
1.368475
1.358345
1.347175
1.312106
1.282233
1.252619
1.223785
1.198848
1.163260
1.133906
1.101175
1.064029
1.022726
0.968434
0.906609
0.841148
0.761659
0.666844
0.579043
0.483188
0.377463
0.288622
0.196145
0.107824
0.034570
-0.046738
-0.120252
-0.186233
-0.251435
-0.317156
-0.380019
-0.436909
-0.509903
-0.572247
-0.626799
-0.690182
-0.725770
-0.757981
-0.790972
-0.805778
-0.818767
-0.820585
-0.817208
-0.812792
-0.807336
-0.809674
-0.806557
-0.796686
-0.788113
-0.772787
-0.747849
-0.723690
-0.694077
-0.657969
-0.621342
-0.573544
-0.521590
-0.478469
-0.434308
-0.386511
-0.343909
-0.298709
-0.248574
-0.203374
-0.168825
-0.129600
-0.076087
-0.032187
0.020027
0.086268
0.148093
0.224205
0.304993
0.395132
0.494104
0.598790
0.713348
0.819853
0.932593
1.058840
1.182230
1.291332
1.392642
1.488496
1.583312
1.667217
1.734497
1.795542
1.839443
1.876071
1.896852
1.901528
1.902308
1.882306
1.852952
1.816584
1.774242
1.725666
1.664101
1.609550
1.549544
1.484861
1.431090
1.386410
1.343548
1.295491
1.258604
1.216522
1.174959
1.139111
1.093912
1.053648
1.008188
0.960651
0.914412
0.867394
0.824013
0.768163
0.719067
0.672829
0.620096
0.573338
0.503460
0.434102
0.361887
0.276423
0.200571
0.094846
0.000550
-0.089589
-0.200770
-0.288831
-0.394037
-0.502880
-0.595357
-0.699004
-0.794339
-0.883439
-0.964227
-1.030727
-1.100345
-1.164508
-1.212045
-1.256985
-1.299846
-1.331798
-1.349981
-1.366866
-1.381153
-1.387907
-1.393362
-1.384270
-1.380374
-1.381153
-1.360631
-1.351799
-1.344006
-1.324523
-1.318029
-1.308937
-1.288155
-1.268932
-1.249969
-1.212563
-1.186845
-1.154115
-1.089692
-1.045272
-0.986564
-0.924479
-0.872785
-0.803427
-0.748356
-0.686272
-0.637695
-0.601068
-0.540282
-0.497940
-0.458715
-0.411177
-0.375069
-0.339481
-0.300516
-0.255835
-0.211155
-0.161539
-0.112963
-0.077634
-0.034513
0.009648
0.048613
0.081344
0.109399
0.144468
0.167068
0.181095
0.189928
0.197721
0.212008
0.206553
0.189928
0.184473
0.188110
0.181616
0.160575
0.144989
0.124207
0.096672
0.070176
0.039004
0.007572
-0.036588
-0.078931
-0.110103
-0.158419
-0.202580
-0.231414
-0.271418
-0.302850
-0.330125
-0.369350
-0.395067
-0.418706
-0.436110
-0.450397
-0.469101
-0.476894
-0.494818
-0.500013
-0.504688
-0.524691
-0.530665
-0.545472
-0.558200
-0.575864
-0.614830
-0.635351
-0.663666
-0.715619
-0.763676
-0.809135
-0.866544
-0.927070
-0.987855
-1.055915
-1.096178
-1.136183
-1.198527
-1.248662
-1.287887
-1.319319
-1.363999
-1.413874
-1.452579
-1.489466
-1.525054
-1.565318
-1.613635
-1.657795
-1.680915
-1.698319
-1.720659
-1.732868
-1.735725
-1.741440
-1.744038
-1.741700
-1.746116
-1.743778
-1.738063
-1.741180
-1.728711
-1.713125
-1.697279
-1.664288
-1.629479
-1.606100
-1.574668
-1.528689
-1.481151
-1.421924
-1.376465
-1.318017
-1.254114
-1.202939
-1.125009
-1.067860
-0.997203
-0.918753
-0.855629
-0.764710
-0.695872
-0.615084
-0.517930
-0.435064
-0.342067
-0.266734
-0.186206
-0.097366
-0.015539
0.057456
0.115125
0.186301
0.259296
0.334110
0.402429
0.459578
0.546080
0.638558
0.705578
0.767143
0.838580
0.914951
0.980153
1.039640
1.107959
1.182772
1.256806
1.329282
1.392146
1.445658
1.502288
1.551384
1.597103
1.625937
1.620482
1.632432
1.643862
1.622301
1.606195
1.584115
1.584895
1.587492
1.568530
1.555801
1.513199
1.511121
1.527487
1.513719
1.509563
1.495016
1.498653
1.523071
1.560218
1.591910
1.608795
1.637629
1.685686
1.746992
1.775047
1.771150
1.761539
1.764656
1.773748
1.748551
1.679193
1.600223
1.556323
1.518137
1.445922
1.362017
1.301751
1.252914
1.203818
1.149267
1.093417
1.062765
1.045620
1.020163
0.969248
0.940155
0.944311
0.937297
0.918075
0.882746
0.866121
0.873655
0.859367
0.822221
0.790269
0.780918
0.784555
0.758058
0.704287
0.681687
0.676492
0.652593
0.607134
0.550245
0.508682
0.477510
0.432051
0.360355
0.304245
0.268657
0.212807
0.151242
0.093054
0.046036
0.018761
-0.007736
-0.057871
-0.094758
-0.100472
-0.111123
-0.120994
-0.135801
-0.125410
-0.097095
-0.087483
-0.068261
-0.049038
-0.001500
0.068378
0.102407
0.136697
0.203717
0.281648
0.349967
0.392569
0.430755
0.501152
0.573367
0.619346
0.640647
0.663767
0.713123
0.750530
0.763518
0.772091
0.773649
0.786897
0.796769
0.773909
0.754427
0.743257
0.725853
0.697798
0.661690
0.626102
0.613114
0.605840
0.582981
0.582202
0.582721
0.587657
0.596229
0.587917
0.585579
0.577526
0.553108
0.511545
0.473619
0.443746
0.400105
0.343736
0.286847
0.243206
0.204500
0.155924
0.108127
0.067343
0.033833
0.001103
-0.042019
-0.075009
-0.108259
-0.143068
-0.163070
-0.206971
-0.254248
-0.277108
-0.309839
-0.360234
-0.411148
-0.445177
-0.473492
-0.501807
-0.527783
-0.562332
-0.559215
-0.541811
-0.541551
-0.515054
-0.495312
-0.461802
-0.412446
-0.387508
-0.364388
-0.337372
-0.306460
-0.289055
-0.264118
-0.250869
-0.240478
-0.198396
-0.181511
-0.158391
-0.122284
-0.086695
-0.029546
0.014874
0.052281
0.104754
0.161903
0.206843
0.241652
0.272564
0.307633
0.359327
0.392318
0.389460
0.410762
0.452584
0.474924
0.490770
0.498304
0.508435
0.529736
0.548959
0.559350
0.566363
0.593379
0.627409
0.642995
0.677804
0.733654
0.772100
0.817300
0.859642
0.893152
0.948223
0.983032
0.999398
1.037843
1.061742
1.065639
1.081225
1.090057
1.080446
1.065899
1.053430
1.025116
0.983293
0.936275
0.868476
0.799118
0.732877
0.674430
0.602474
0.528960
0.464018
0.387906
0.346863
0.300884
0.268153
0.252827
0.248151
0.271011
0.277765
0.302963
0.333615
0.384530
0.431028
0.482722
0.545327
0.573382
0.624296
0.669236
0.739893
0.798081
0.819642
0.881986
0.931342
1.002259
1.063824
1.090061
1.177083
1.282030
1.363337
1.437371
1.504131
1.603882
1.709608
1.785980
1.854559
1.911708
1.977949
2.033279
2.068088
2.100560
2.136148
2.179269
2.198492
2.209403
2.238237
2.262915
2.262136
2.268111
2.289931
2.303179
2.311492
2.290451
2.286035
2.308375
2.299543
2.273567
2.228367
2.214340
2.217197
2.182129
2.149658
2.106536
2.079261
2.078222
2.024190
1.929895
1.894566
1.884955
1.824689
1.740005
1.652723
1.607523
1.579988
1.526736
1.446208
1.357627
1.331131
1.321260
1.244628
1.164100
1.132409
1.106692
1.062531
1.001226
0.943038
0.892383
0.850821
0.797568
0.719898
0.645864
0.591313
0.549231
0.470521
0.391292
0.339598
0.304010
0.276735
0.228937
0.186076
0.169710
0.181660
0.186855
0.188674
0.201143
0.213612
0.246862
0.264786
0.270501
0.285568
0.298037
0.328430
0.331287
0.334664
0.371292
0.376747
0.396749
0.418050
0.422726
0.448963
0.465069
0.483772
0.488448
0.493124
0.522218
0.530531
0.543259
0.548195
0.549234
0.581705
0.606643
0.619372
0.607682
0.603526
0.623788
0.632361
0.619113
0.569237
0.536507
0.529493
0.515206
0.474682
0.422469
0.395973
0.382984
0.378568
0.355449
0.317523
0.309211
0.315185
0.306613
0.279078
0.241152
0.234138
0.233359
0.190497
0.151013
0.121399
0.102696
0.099579
0.075680
0.042170
0.038534
0.055679
0.046847
0.043210
0.051263
0.037755
0.039054
0.043730
0.034118
0.025806
0.015675
0.004505
-0.020173
-0.052124
-0.072126
-0.107454
-0.150316
-0.187203
-0.245391
-0.306176
-0.360208
-0.418136
-0.479701
-0.563866
-0.626989
-0.663876
-0.735053
-0.785707
-0.830387
-0.874807
-0.874548
-0.911175
-0.948581
-0.944685
-0.936372
-0.925462
-0.953257
-0.985468
-0.954036
-0.937930
-0.966245
-0.993780
-1.027030
-1.026770
-1.034563
-1.087556
-1.126001
-1.145744
-1.153017
-1.178474
-1.228349
-1.249391
-1.257963
-1.275107
-1.299785
-1.343166
-1.369922
-1.397977
-1.442657
-1.482402
-1.537992
-1.582672
-1.625014
-1.685020
-1.733597
-1.769445
-1.780874
-1.802954
-1.834906
-1.827632
-1.812566
-1.797239
-1.785030
-1.785030
-1.770743
-1.734894
-1.715931
-1.704242
-1.683200
-1.673069
-1.630727
-1.599815
-1.588385
-1.548380
-1.505519
-1.469930
-1.441096
-1.412262
-1.402910
-1.388882
-1.371997
-1.368360
-1.343682
-1.333291
-1.321342
-1.278740
-1.256919
-1.226267
-1.171456
-1.121061
-1.055339
-1.003905
-0.937664
-0.867527
-0.819989
-0.744916
-0.687247
-0.644386
-0.594510
-0.550349
-0.518398
-0.492421
-0.471120
-0.466704
-0.462288
-0.464625
-0.462807
-0.475276
-0.488524
-0.477873
-0.485926
-0.480211
-0.456832
-0.449039
-0.432413
-0.409294
-0.389032
-0.355522
-0.329025
-0.308503
-0.285384
-0.274733
-0.267200
-0.265641
-0.267200
-0.292657
-0.321491
-0.334739
-0.383316
-0.426437
-0.465922
-0.506705
-0.532682
-0.574245
-0.587753
-0.611651
-0.629575
-0.623860
-0.626198
-0.605676
-0.617106
-0.618404
-0.578140
-0.547747
-0.538396
-0.548526
-0.529304
-0.492157
-0.468777
-0.447996
-0.424876
-0.401497
-0.354479
-0.282264
-0.251091
-0.236284
-0.180174
-0.107439
-0.037562
0.005820
0.045304
0.103493
0.158044
0.231818
0.282733
0.314944
0.388978
0.454180
0.496782
0.534708
0.581986
0.644330
0.687192
0.726677
0.761746
0.801231
0.844872
0.874485
0.905398
0.913710
0.948260
0.991641
0.985926
0.991641
0.986446
0.972419
0.952936
0.912932
0.883578
0.831885
0.786425
0.745122
0.665893
0.605367
0.554713
0.498343
0.446909
0.385085
0.318065
0.250265
0.188441
0.115965
0.033879
-0.053663
-0.136269
-0.200951
-0.286415
-0.390062
-0.482020
-0.549819
-0.615280
-0.698926
-0.774258
-0.829589
-0.870632
-0.913494
-0.951679
-0.978176
-1.004932
-1.025193
-1.044676
-1.057924
-1.059223
-1.071432
-1.083121
-1.101045
-1.122606
-1.118709
-1.128840
-1.146764
-1.144686
-1.143387
-1.131437
-1.120527
-1.102862
-1.076106
-1.067014
-1.035323
-0.996357
-0.987265
-0.961029
-0.930376
-0.921544
-0.908815
-0.897385
-0.897645
-0.897645
-0.877642
-0.863875
-0.860238
-0.843353
-0.830364
-0.809323
-0.775293
-0.745420
-0.723859
-0.696843
-0.669567
-0.653462
-0.635278
-0.620211
-0.596053
-0.571115
-0.567997
-0.559165
-0.531630
-0.489547
-0.453439
-0.424086
-0.370573
-0.307709
-0.251599
-0.200425
-0.155485
-0.105609
-0.052357
-0.012872
-0.000663
0.015703
0.038822
0.033367
0.029990
0.024795
0.006611
0.002195
-0.004818
-0.011313
-0.001701
0.009209
0.024276
0.060903
0.095712
0.133898
0.197282
0.264042
0.330023
0.393926
0.464064
0.530045
0.585116
0.647980
0.715260
0.776825
0.821245
0.877615
0.928010
0.962300
1.013474
1.061531
1.102055
1.131149
1.160503
1.193753
1.218691
1.252721
1.287010
1.322079
1.361044
1.394295
1.440793
1.491188
1.542103
1.596135
1.642893
1.681339
1.721603
1.768881
1.802651
1.832784
1.879542
1.909676
1.925262
1.961629
1.990723
2.014882
2.045794
2.056185
2.067355
2.080604
2.083981
2.094631
2.093333
2.071512
2.048133
2.023715
2.007350
1.976957
1.928900
1.899546
1.852529
1.820837
1.814603
1.762389
1.729659
1.704981
1.659262
1.622115
1.570162
1.531976
1.484179
1.418198
1.371439
1.334293
1.287535
1.243634
1.222593
1.205189
1.198694
1.198954
1.195837
1.202851
1.225970
1.248570
1.261819
1.284678
1.307018
1.331177
1.343126
1.335593
1.336113
1.347543
1.342867
1.305980
1.275328
1.249611
1.229089
1.203632
1.135053
1.093750
1.068813
1.029848
1.017379
0.989324
0.970621
0.961529
0.946463
0.962828
0.968803
0.987246
1.005170
0.990624
1.003352
1.019458
1.013483
1.019458
1.019199
0.982571
0.960231
0.954517
0.912694
0.872170
0.842037
0.791902
0.748002
0.717609
0.690593
0.657862
0.630587
0.623054
0.595778
0.577595
0.577854
0.553956
0.528239
0.500963
0.479403
0.450569
0.401732
0.359130
0.317048
0.277304
0.237559
0.182489
0.111312
0.053644
0.003249
-0.063771
-0.123517
-0.178588
-0.241712
-0.306394
-0.376791
-0.438875
-0.472905
-0.509532
-0.554731
-0.586423
-0.612659
-0.632402
-0.659937
-0.697863
-0.716826
-0.723320
-0.739685
-0.760726
-0.774494
-0.795016
-0.806186
