EVENT_NAME: 202302060117
EVENT_ID: 13194
EVENT_DATE_YYYYMMDD: 2023/02/06
EVENT_TIME_HHMMSS: 01:17:32.00000
EVENT_LATITUDE_DEGREE: 37.288
EVENT_LONGITUDE_DEGREE: 37.043
EVENT_DEPTH_KM: 8.6
HYPOCENTER_REFERENCE: AFAD
MAGNITUDE_W: 7.7
MAGNITUDE_W_REFERENCE: AFAD
MAGNITUDE_L: 
MAGNITUDE_L_REFERENCE: 
FOCAL_MECHANISM: 
NETWORK: TK
STATION_CODE: 1911
STATION_NAME: 
STATION_LATITUDE_DEGREE: 40.27218
STATION_LONGITUDE_DEGREE: 35.25307
STATION_ELEVATION_M: 722.0
LOCATION: Kahramanmaras_Pazarck_Turkiye
SENSOR_DEPTH_M: 
VS30_M/S: None
SITE_CLASSIFICATION_EC8: unknown
MORPHOLOGIC_CLASSIFICATION: 
EPICENTRAL_DISTANCE_KM: 366.29
EARTHQUAKE_BACKAZIMUTH_DEGREE: 
DATE_TIME_FIRST_SAMPLE_YYYYMMDD_HHMMSS: 2023/02/06 01:17:58.7903580
DATE_TIME_FIRST_SAMPLE_PRECISION: millisecond
SAMPLING_INTERVAL_S: 0.01
NDATA: 21001
DURATION_S: 
STREAM: HNN
UNITS: cm/s^2
INSTRUMENT: sensor = ACEBOX/SARA | digitizer = 
INSTRUMENT_ANALOG/DIGITAL: 
INSTRUMENTAL_FREQUENCY_HZ: 
INSTRUMENTAL_DAMPING: 
FULL_SCALE_G: 
N_BIT_DIGITAL_CONVERTER: 
PGA_CM/S^2: 2.690
TIME_PGA_S: 
BASELINE_CORRECTION: BASELINE REMOVED
FILTER_TYPE: BUTTERWORTH
FILTER_ORDER: 
LOW_CUT_FREQUENCY_HZ: 
HIGH_CUT_FREQUENCY_HZ: 
LATE/NORMAL_TRIGGERED: 
DATABASE_VERSION: 
HEADER_FORMAT: DYNA 1.2
DATA_TYPE: Acceleration
PROCESSING: Automatic Paolucci et al., 2011
DATA_TIMESTAMP_YYYYMMDD_HHMMSS: 
DATA_LICENSE: U (unknown license)
DATA_CITATION: Turkish Accelerometric Archive v 1.0 - Disaster And Emergency Management Presidency, Earthquake Department
DATA_CREATOR: AFAD
ORIGINAL_DATA_MEDIATOR_CITATION: : AFAD - Disaster And Emergency Management Presidency
ORIGINAL_DATA_MEDIATOR: AFAD PROCESS SERVICE
ORIGINAL_DATA_CREATOR_CITATION: AFAD PROCESS SERVICE
ORIGINAL_DATA_CREATOR: network: TK
USER1: GuestUser
USER2: 
USER3: 
USER4: 
USER5: 
[...]
0.590613
0.538476
0.480962
0.414096
0.335541
0.260492
0.185677
0.115772
0.063168
0.015707
-0.017725
-0.031987
-0.043442
-0.048352
-0.047417
-0.044143
-0.037597
-0.039467
-0.044376
-0.044142
-0.047415
-0.049285
-0.045077
-0.042271
-0.040166
-0.044842
-0.056999
-0.063311
-0.063311
-0.058167
-0.033151
0.009167
0.062239
0.131677
0.207428
0.285049
0.365241
0.437952
0.501078
0.552747
0.590857
0.615639
0.632707
0.650710
0.661932
0.670115
0.687884
0.703783
0.716174
0.731839
0.749140
0.763636
0.770884
0.770650
0.763169
0.752648
0.741426
0.722956
0.701214
0.670586
0.628503
0.582913
0.525867
0.463911
0.404760
0.337193
0.270795
0.209540
0.148753
0.100591
0.057339
0.015723
-0.006020
-0.018411
-0.031035
-0.036179
-0.046232
-0.055116
-0.052076
-0.062597
-0.079897
-0.084807
-0.096029
-0.107485
-0.110056
-0.121746
-0.137410
-0.150035
-0.171310
-0.196794
-0.225317
-0.263659
-0.303638
-0.342916
-0.389441
-0.433863
-0.475011
-0.521302
-0.565256
-0.605001
-0.643344
-0.680751
-0.717457
-0.751357
-0.791336
-0.839966
-0.886258
-0.931848
-0.979776
-1.018586
-1.046408
-1.075866
-1.099713
-1.101583
-1.100881
-1.103453
-1.091529
-1.073059
-1.055290
-1.029806
-0.992632
-0.945872
-0.897008
-0.841364
-0.771225
-0.702722
-0.641934
-0.579978
-0.527373
-0.486926
-0.450453
-0.421930
-0.402758
-0.388029
-0.373533
-0.355063
-0.337060
-0.315784
-0.291002
-0.269726
-0.247515
-0.227876
-0.214783
-0.200988
-0.192338
-0.187661
-0.178543
-0.171529
-0.170126
-0.168723
-0.166385
-0.164981
-0.162409
-0.158668
-0.155395
-0.144640
-0.128040
-0.107232
-0.079410
-0.052991
-0.029377
-0.009971
-0.001087
0.004057
-0.000385
-0.015815
-0.030544
-0.058366
-0.099046
-0.137389
-0.185317
-0.239090
-0.287953
-0.336583
-0.387317
-0.446233
-0.508189
-0.566639
-0.626958
-0.685641
-0.744557
-0.803240
-0.852338
-0.893486
-0.929724
-0.961988
-0.990043
-1.010851
-1.033529
-1.060415
-1.080989
-1.093848
-1.095952
-1.087535
-1.073740
-1.056205
-1.033761
-1.003600
-0.972271
-0.942111
-0.907509
-0.873608
-0.839707
-0.801364
-0.758345
-0.709248
-0.657344
-0.599596
-0.532496
-0.467968
-0.406947
-0.345691
-0.294490
-0.250302
-0.208685
-0.175018
-0.142520
-0.109321
-0.079395
-0.045026
-0.015334
0.004773
0.023243
0.033297
0.032362
0.031193
0.027219
0.016932
0.014828
0.019738
0.021375
0.030494
0.045691
0.058082
0.071409
0.080293
0.078657
0.069773
0.054810
0.032834
0.007350
-0.023511
-0.068868
-0.122407
-0.178050
-0.240240
-0.296819
-0.351060
-0.405066
-0.454397
-0.507469
-0.554696
-0.591168
-0.625770
-0.649149
-0.657566
-0.656396
-0.647746
-0.630211
-0.600986
-0.568020
-0.526404
-0.478008
-0.432183
-0.380280
-0.327675
-0.275538
-0.217556
-0.166121
-0.114919
-0.064184
-0.025841
0.010164
0.039155
0.058093
0.075160
0.080070
0.078901
0.080538
0.071420
0.055055
0.045469
0.037754
0.024662
0.018116
0.018116
0.008998
0.003387
0.009700
0.013909
0.012740
0.015312
0.028639
0.041732
0.063709
0.110936
0.164476
0.226900
0.307560
0.391961
0.477999
0.561933
0.648204
0.735177
0.811161
0.883171
0.950037
1.011994
1.067872
1.113930
1.164664
1.204644
1.231531
1.263795
1.276888
1.271745
1.268004
1.250002
1.219375
1.183604
1.134039
1.080734
1.026727
0.961030
0.892995
0.824259
0.749678
0.678137
0.603088
0.524766
0.456030
0.389632
0.330949
0.290736
0.257537
0.227377
0.206102
0.188100
0.166591
0.152797
0.147654
0.137601
0.128249
0.121937
0.117729
0.117729
0.113989
0.116093
0.122406
0.120769
0.123809
0.124277
0.117029
0.115861
0.108146
0.095287
0.087806
0.077519
0.070505
0.066765
0.060453
0.055543
0.041983
0.020708
-0.002905
-0.032597
-0.066965
-0.102736
-0.138507
-0.179187
-0.219868
-0.253067
-0.290708
-0.332557
-0.374407
-0.418360
-0.459742
-0.499721
-0.533622
-0.560742
-0.586693
-0.612644
-0.639297
-0.662676
-0.685822
-0.706162
-0.718553
-0.731412
-0.737257
-0.731178
-0.722761
-0.711304
-0.694471
-0.676468
-0.662440
-0.648646
-0.632279
-0.618251
-0.604223
-0.589260
-0.574531
-0.557697
-0.536889
-0.511171
-0.483349
-0.446876
-0.403623
-0.365280
-0.321794
-0.278307
-0.243237
-0.203491
-0.168422
-0.142002
-0.115583
-0.093606
-0.070460
-0.047080
-0.024869
0.002486
0.023294
0.046674
0.079172
0.112606
0.156092
0.205891
0.252651
0.299644
0.341027
0.378201
0.416778
0.451614
0.486917
0.525728
0.563136
0.597504
0.628132
0.651979
0.671151
0.677698
0.668112
0.649175
0.620184
0.591427
0.566879
0.538590
0.510768
0.479907
0.439694
0.391299
0.337058
0.284687
0.228109
0.168725
0.114951
0.057438
-0.002882
-0.059227
-0.115338
-0.165370
-0.212597
-0.267539
-0.317805
-0.358953
-0.405946
-0.451537
-0.484268
-0.516532
-0.547860
-0.567031
-0.579189
-0.591813
-0.600464
-0.606308
-0.618699
-0.632961
-0.646053
-0.666627
-0.688604
-0.704502
-0.719932
-0.737467
-0.752897
-0.769262
-0.791707
-0.811813
-0.830517
-0.854130
-0.871898
-0.883354
-0.892238
-0.898550
-0.909772
-0.921462
-0.932450
-0.947413
-0.953258
-0.951854
-0.952789
-0.943437
-0.925435
-0.914212
-0.903457
-0.890364
-0.886389
-0.884753
-0.881947
-0.889428
-0.897611
-0.901819
-0.911872
-0.920522
-0.923094
-0.922860
-0.918885
-0.912572
-0.897842
-0.883814
-0.877735
-0.866980
-0.860434
-0.863941
-0.871422
-0.881475
-0.891528
-0.911400
-0.942028
-0.973122
-1.013101
-1.060796
-1.109893
-1.160627
-1.208789
-1.247131
-1.269342
-1.279862
-1.277758
-1.259288
-1.229595
-1.186810
-1.135374
-1.075288
-1.005850
-0.936412
-0.858557
-0.776027
-0.699107
-0.611900
-0.519550
-0.433746
-0.343033
-0.243669
-0.151552
-0.059436
0.047410
0.145371
0.234682
0.336618
0.432007
0.514070
0.597302
0.674222
0.740387
0.799304
0.849571
0.893992
0.933738
0.962963
0.985875
1.009489
1.028427
1.047131
1.069342
1.092722
1.117739
1.143924
1.169175
1.186943
1.196763
1.200037
1.196997
1.193491
1.182269
1.164500
1.151408
1.128496
1.091089
1.049707
0.995466
0.925327
0.854721
0.780841
0.700181
0.621392
0.538394
0.458903
0.387595
0.312079
0.248253
0.195415
0.142109
0.103065
0.069165
0.037836
0.012353
-0.020379
-0.054746
-0.091920
-0.128626
-0.160422
-0.193855
-0.220975
-0.244822
-0.272644
-0.294153
-0.316130
-0.337639
-0.348627
-0.358680
-0.364057
-0.362186
-0.364290
-0.356808
-0.341144
-0.334831
-0.324310
-0.312386
-0.311217
-0.308878
-0.305839
-0.297188
-0.279653
-0.261884
-0.234530
-0.196420
-0.156908
-0.115760
-0.079989
-0.043282
-0.006108
0.024519
0.058888
0.093724
0.119208
0.147264
0.180697
0.210390
0.238446
0.266502
0.293856
0.318171
0.340149
0.360723
0.373115
0.380363
0.391351
0.400703
0.403042
0.402574
0.402808
0.400237
0.396496
0.390184
0.380832
0.381300
0.380132
0.370780
0.368910
0.366104
0.364468
0.368677
0.367742
0.374055
0.381303
0.379666
0.386213
0.389252
0.381771
0.381070
0.379901
0.370316
0.371485
0.379434
0.377331
0.388085
0.415674
0.440223
0.474591
0.519948
0.567409
0.622352
0.681035
0.746031
0.817106
0.881634
0.944993
1.014665
1.081064
1.144423
1.208484
1.266934
1.318837
1.366298
1.403706
1.432931
1.461922
1.483665
1.492316
1.497460
1.495823
1.478289
1.457481
1.432465
1.394356
1.358819
1.320009
1.269276
1.228829
1.189084
1.136012
1.091123
1.046936
0.995267
0.949677
0.902917
0.857327
0.817816
0.779707
0.739026
0.690163
0.643638
0.597580
0.542638
0.489800
0.436728
0.381786
0.324506
0.258809
0.201062
0.147522
0.088606
0.040911
-0.000471
-0.035306
-0.056114
-0.071544
-0.074116
-0.054710
-0.024550
0.020105
0.079724
0.141680
0.215327
0.294117
0.359580
0.428083
0.497755
0.552464
0.601795
0.646918
0.678481
0.699056
0.717993
0.731086
0.736931
0.740673
0.736464
0.731087
0.726178
0.716592
0.714488
0.713086
0.708878
0.713788
0.717763
0.717529
0.718465
0.716127
0.713088
0.709113
0.703035
0.700931
0.703737
0.713323
0.727351
0.745120
0.774345
0.811051
0.850096
0.894985
0.939173
0.986400
1.040875
1.091843
1.143746
1.196585
1.244747
1.292208
1.340839
1.392040
1.439735
1.486495
1.540035
1.583755
1.619760
1.658103
1.692705
1.722398
1.749753
1.780380
1.806566
1.826439
1.850520
1.875537
1.901021
1.919725
1.927908
1.940300
1.943807
1.937027
1.935157
1.926039
1.909206
1.889100
1.862681
1.832989
1.800257
1.771267
1.742744
1.706038
1.672605
1.645017
1.615559
1.588205
1.562721
1.538640
1.516196
1.483699
1.442551
1.398597
1.343421
1.286141
1.230965
1.165736
1.101208
1.041824
0.980569
0.927731
0.879336
0.830005
0.795870
0.773894
0.747709
0.734850
0.742799
0.747476
0.760101
0.793067
0.820421
0.845204
0.878871
0.909031
0.937555
0.965377
0.992030
1.017280
1.035049
1.053753
1.072925
1.081809
1.080173
1.064743
1.041129
1.007697
0.952287
0.884018
0.805463
0.714048
0.620062
0.520231
0.422036
0.325244
0.216295
0.112256
0.011957
-0.104240
-0.222307
-0.337335
-0.454000
-0.569729
-0.679848
-0.777808
-0.870860
-0.950584
-1.009501
-1.064443
-1.110968
-1.145102
-1.175028
-1.193498
-1.207292
-1.216643
-1.210798
-1.198173
-1.182508
-1.154218
-1.113771
-1.067713
-1.010900
-0.943099
-0.873193
-0.792766
-0.699715
-0.606663
-0.509403
-0.403727
-0.295946
-0.190503
-0.082255
0.029968
0.134476
0.234775
0.334373
0.425320
0.514631
0.599968
0.676419
0.751001
0.814360
0.867666
0.918167
0.956510
0.982228
1.003270
1.022208
1.037405
1.046757
1.056810
1.068033
1.075515
1.083230
1.097492
1.112689
1.121808
1.133732
1.147292
1.151501
1.152202
1.150098
1.141448
1.130694
1.116432
1.099365
1.077389
1.048164
1.015901
0.982468
0.950905
0.921915
0.895496
0.871415
0.850841
0.833073
0.813434
0.795900
0.778131
0.758493
0.745634
0.727866
0.707993
0.698641
0.691394
0.686251
0.681809
0.674094
0.672691
0.672692
0.668483
0.664509
0.662171
0.664977
0.676901
0.691631
0.703555
0.719453
0.741664
0.758030
0.769253
0.784450
0.797309
0.801985
0.801518
0.798011
0.786555
0.765280
0.739796
0.711741
0.675035
0.634822
0.595077
0.550422
0.506000
0.462982
0.413651
0.358943
0.304234
0.250929
0.195753
0.139876
0.088908
0.037005
-0.021210
-0.075217
-0.123379
-0.169436
-0.207545
-0.230223
-0.242848
-0.247524
-0.241912
-0.233028
-0.220403
-0.197490
-0.171538
-0.144651
-0.112621
-0.076148
-0.037572
0.003811
0.052675
0.106916
0.159988
0.212125
0.261924
0.308918
0.351937
0.390514
0.428155
0.462991
0.498762
0.537105
0.571006
0.607479
0.652836
0.699128
0.742848
0.789608
0.837771
0.880322
0.921471
0.962853
1.000027
1.034629
1.063854
1.089104
1.109679
1.121837
1.135865
1.151763
1.167895
1.189639
1.211616
1.236399
1.265156
1.296018
1.332490
1.365222
1.399824
1.441908
1.474406
1.509476
1.556002
1.591072
1.624973
1.663082
1.689969
1.713115
1.728312
1.737430
1.747016
1.740938
1.736964
1.739302
1.724105
1.712649
1.711481
1.703766
1.699791
1.702597
1.708442
1.719431
1.731823
1.743980
1.754268
1.761983
1.770634
1.777181
1.771102
1.760815
1.746320
1.716862
1.682026
1.643450
1.594119
1.539878
1.476520
1.407082
1.337644
1.258855
1.177728
1.104783
1.029033
0.952582
0.888521
0.825630
0.766012
0.722292
0.680677
0.645374
0.625033
0.604693
0.586925
0.572430
0.558870
0.545310
0.524736
0.509539
0.500889
0.483588
0.470730
0.460911
0.436596
0.409008
0.382589
0.344948
0.296319
0.247221
0.193215
0.129388
0.059249
-0.014630
-0.087575
-0.163559
-0.239543
-0.306175
-0.371170
-0.433126
-0.482925
-0.524540
-0.562883
-0.597484
-0.621799
-0.642607
-0.658972
-0.659440
-0.658738
-0.653828
-0.637462
-0.622733
-0.591871
-0.566854
-0.542539
-0.501391
-0.477777
-0.431485
-0.391973
-0.356903
-0.290037
-0.266189
-0.204700
-0.160278
-0.132924
-0.059278
-0.079384
0.008992
0.023020
-0.006438
0.159324
-0.009711
0.198135
0.390550
-0.337260
0.085679
0.626219
-0.260340
-0.058807
0.342156
-0.280212
-0.144376
0.067445
-0.232984
-0.259169
-0.243037
-0.230879
-0.244439
-0.387523
-0.315513
-0.176404
-0.346140
-0.351985
-0.117252
-0.266414
-0.326734
-0.082883
-0.183416
-0.261971
-0.102521
-0.145774
-0.209600
-0.147643
-0.160502
-0.217315
-0.230641
-0.239992
-0.268048
-0.298207
-0.307325
-0.309663
-0.350343
-0.366709
-0.354551
-0.401077
-0.430301
-0.420949
-0.467007
-0.525690
-0.545094
-0.575488
-0.648199
-0.711791
-0.732131
-0.791048
-0.885969
-0.919870
-0.948393
-1.024844
-1.081189
-1.116492
-1.158342
-1.191541
-1.217492
-1.230584
-1.234091
-1.233155
-1.213516
-1.203696
-1.203696
-1.170731
-1.136128
-1.123737
-1.087732
-1.037231
-1.004499
-0.948154
-0.868663
-0.820266
-0.773039
-0.691444
-0.625512
-0.590209
-0.537838
-0.480324
-0.460451
-0.446423
-0.405274
-0.378621
-0.375815
-0.357111
-0.329756
-0.323677
-0.318066
-0.293283
-0.278788
-0.273410
-0.246991
-0.226182
-0.228053
-0.214258
-0.194151
-0.193450
-0.188306
-0.177083
-0.175680
-0.179889
-0.184798
-0.186201
-0.195318
-0.203033
-0.198357
-0.195318
-0.189472
-0.176146
-0.160949
-0.138036
-0.112552
-0.089406
-0.070936
-0.058077
-0.045217
-0.037969
-0.037735
-0.038670
-0.045216
-0.061348
-0.080519
-0.098755
-0.122368
-0.143878
-0.165854
-0.199287
-0.231551
-0.267088
-0.319926
-0.376738
-0.438694
-0.513509
-0.596273
-0.686518
-0.779570
-0.872854
-0.968945
-1.062230
-1.158086
-1.256982
-1.345825
-1.435369
-1.528888
-1.611418
-1.691376
-1.776011
-1.859476
-1.942708
-2.027576
-2.110807
-2.188428
-2.263944
-2.340395
-2.409365
-2.469685
-2.531407
-2.587986
-2.627965
-2.657423
-2.681270
-2.690154
-2.680101
-2.659760
-2.628431
-2.579333
-2.520650
-2.450277
-2.367980
-2.284981
-2.192865
-2.101918
-2.020790
-1.934752
-1.852689
-1.783485
-1.718956
-1.659104
-1.610240
-1.564883
-1.514850
-1.469493
-1.422968
-1.363349
-1.300691
-1.232656
-1.157139
-1.085129
-1.010314
-0.931758
-0.858345
-0.787504
-0.720404
-0.655408
-0.591815
-0.536171
-0.479358
-0.416233
-0.355445
-0.288579
-0.217270
-0.145261
-0.070211
-0.000306
0.074743
0.144883
0.198890
0.256872
0.308074
0.343378
0.376110
0.404165
0.429182
0.442509
0.441574
0.437600
0.427780
0.414220
0.393880
0.369799
0.351797
0.331457
0.305740
0.278386
0.246122
0.206610
0.163124
0.121976
0.078490
0.031263
-0.016899
-0.066931
-0.118132
-0.167931
-0.209780
-0.250461
-0.290674
-0.315923
-0.331821
-0.350525
-0.364786
-0.373203
-0.384659
-0.387931
-0.383489
-0.388866
-0.399153
-0.410141
-0.429312
-0.454562
-0.493372
-0.546912
-0.603256
-0.668719
-0.744469
-0.815544
-0.891294
-0.980838
-1.064537
-1.142157
-1.230065
-1.311192
-1.381799
-1.460822
-1.536338
-1.603905
-1.676382
-1.748625
-1.814556
-1.874875
-1.927012
-1.977979
-2.030584
-2.074771
-2.114750
-2.154495
-2.185590
-2.207567
-2.222763
-2.229543
-2.227673
-2.216216
-2.201019
-2.174132
-2.135556
-2.104226
-2.065650
-2.018422
-1.981015
-1.941503
-1.900354
-1.867856
-1.834890
-1.804964
-1.780181
-1.758204
-1.739967
-1.715886
-1.686194
-1.657436
-1.624938
-1.586595
-1.543109
-1.488867
-1.427846
-1.364253
-1.291308
-1.214622
-1.139807
-1.061952
-0.987371
-0.914893
-0.844987
-0.782330
-0.720607
-0.663326
-0.606981
-0.547362
-0.495225
-0.441218
-0.383470
-0.330397
-0.278962
-0.227058
-0.176558
-0.131902
-0.093559
-0.055918
-0.028563
-0.016406
-0.006118
-0.003079
-0.015937
-0.022016
-0.027860
-0.049136
-0.062462
-0.076723
-0.101739
-0.117170
-0.130730
-0.147095
-0.159720
-0.171176
-0.180294
-0.187074
-0.192451
-0.198529
-0.200633
-0.202737
-0.210920
-0.212556
-0.220972
-0.237338
-0.241780
-0.249261
-0.263055
-0.268432
-0.272406
-0.277316
-0.283394
-0.291109
-0.296252
-0.306539
-0.327113
-0.349090
-0.378782
-0.419930
-0.460143
-0.498018
-0.538464
-0.579379
-0.619358
-0.653959
-0.685756
-0.716617
-0.738360
-0.755894
-0.769454
-0.773662
-0.779741
-0.785351
-0.781844
-0.783948
-0.785585
-0.780675
-0.787688
-0.793533
-0.797975
-0.819951
-0.839123
-0.859229
-0.892428
-0.922587
-0.956722
-0.994129
-1.024756
-1.063099
-1.100506
-1.131834
-1.170878
-1.210156
-1.248732
-1.291751
-1.331730
-1.373579
-1.418936
-1.457044
-1.486269
-1.513623
-1.542847
-1.566460
-1.584696
-1.612050
-1.642210
-1.669096
-1.697853
-1.727311
-1.757705
-1.783422
-1.801892
-1.821297
-1.830882
-1.823868
-1.812879
-1.795111
-1.761444
-1.717723
-1.674938
-1.625373
-1.561078
-1.496784
-1.425943
-1.341542
-1.257608
-1.171337
-1.086936
-1.008847
-0.929590
-0.860386
-0.800533
-0.740213
-0.690414
-0.654175
-0.621677
-0.595492
-0.585204
-0.587075
-0.601570
-0.633833
-0.674982
-0.722910
-0.779488
-0.844016
-0.916025
-0.987100
-1.062148
-1.148185
-1.237963
-1.327274
-1.418922
-1.511739
-1.601985
-1.691061
-1.778501
-1.858226
-1.930703
-2.001075
-2.061862
-2.112128
-2.156783
-2.192788
-2.223181
-2.251237
-2.269473
-2.283500
-2.295658
-2.301035
-2.301736
-2.294020
-2.274381
-2.244922
-2.200968
-2.148130
-2.093187
-2.030997
-1.962494
-1.893290
-1.824553
-1.755582
-1.684742
-1.613433
-1.541891
-1.471284
-1.405821
-1.341760
-1.271387
-1.200312
-1.129939
-1.059332
-0.993167
-0.926301
-0.859668
-0.807999
-0.762174
-0.714245
-0.678240
-0.652990
-0.630311
-0.614179
-0.602021
-0.593371
-0.588461
-0.586122
-0.590798
-0.595474
-0.599448
-0.606462
-0.610904
-0.615813
-0.620021
-0.617449
-0.614176
-0.614409
-0.612539
-0.605057
-0.597809
-0.594769
-0.589626
-0.585183
-0.584481
-0.578636
-0.578402
-0.584715
-0.581675
-0.582610
-0.591728
-0.595702
-0.597104
-0.595468
-0.583544
-0.565775
-0.549175
-0.528601
-0.501947
-0.474125
-0.440458
-0.406090
-0.370552
-0.328235
-0.296906
-0.263472
-0.217882
-0.187254
-0.155224
-0.117582
-0.091396
-0.058197
-0.026166
-0.007229
0.017554
0.043740
0.059638
0.068523
0.068055
0.058470
0.042806
0.014517
-0.024527
-0.072689
-0.130437
-0.190055
-0.259259
-0.331969
-0.396497
-0.466636
-0.532099
-0.584703
-0.634736
-0.673312
-0.709083
-0.743684
-0.761219
-0.782260
-0.805406
-0.812186
-0.820602
-0.836267
-0.836734
-0.822004
-0.808444
-0.794883
-0.766126
-0.727783
-0.689674
-0.646889
-0.595687
-0.543784
-0.497492
-0.453070
-0.410752
-0.378956
-0.355342
-0.339209
-0.328455
-0.316297
-0.310452
-0.313023
-0.313724
-0.312087
-0.311620
-0.309983
-0.304605
-0.294318
-0.279121
-0.254572
-0.221606
-0.181627
-0.134399
-0.088575
-0.039477
0.008685
0.047262
0.091918
0.133066
0.164629
0.204375
0.236873
0.265163
0.299064
0.326886
0.353773
0.373178
0.381595
0.385570
0.374348
0.353774
0.328057
0.292052
0.249034
0.195728
0.136578
0.076960
0.010795
-0.061214
-0.137198
-0.212714
-0.282619
-0.352524
-0.423832
-0.483684
-0.538392
-0.593568
-0.637288
-0.672124
-0.705556
-0.734079
-0.752082
-0.760264
-0.767746
-0.772187
-0.765875
-0.757458
-0.745534
-0.717244
-0.679135
-0.635414
-0.577199
-0.511969
-0.442297
-0.360935
-0.283782
-0.207096
-0.124098
-0.052556
0.014077
0.077202
0.125131
0.162539
0.182879
0.191296
0.187790
0.164410
0.135186
0.094505
0.041200
-0.005326
-0.059800
-0.121522
-0.172724
-0.226029
-0.283309
-0.341992
-0.400441
-0.453513
-0.514534
-0.576724
-0.629795
-0.691050
-0.751837
-0.803038
-0.856578
-0.908013
-0.948693
-0.987503
-1.024911
-1.047823
-1.064890
-1.084061
-1.090607
-1.093412
-1.098555
-1.092009
-1.088034
-1.085462
