EVENT_NAME: 202302060117
EVENT_ID: 13194
EVENT_DATE_YYYYMMDD: 2023/02/06
EVENT_TIME_HHMMSS: 01:17:32.00000
EVENT_LATITUDE_DEGREE: 37.288
EVENT_LONGITUDE_DEGREE: 37.043
EVENT_DEPTH_KM: 8.6
HYPOCENTER_REFERENCE: AFAD
MAGNITUDE_W: 7.7
MAGNITUDE_W_REFERENCE: AFAD
MAGNITUDE_L: 
MAGNITUDE_L_REFERENCE: 
FOCAL_MECHANISM: 
NETWORK: TK
STATION_CODE: 1212
STATION_NAME: 
STATION_LATITUDE_DEGREE: 39.4337
STATION_LONGITUDE_DEGREE: 40.5477
STATION_ELEVATION_M: 1508.0
LOCATION: Kahramanmaras_Pazarck_Turkiye
SENSOR_DEPTH_M: 
VS30_M/S: None
SITE_CLASSIFICATION_EC8: unknown
MORPHOLOGIC_CLASSIFICATION: 
EPICENTRAL_DISTANCE_KM: 387.63
EARTHQUAKE_BACKAZIMUTH_DEGREE: 
DATE_TIME_FIRST_SAMPLE_YYYYMMDD_HHMMSS: 2023/02/06 01:18:01.4299810
DATE_TIME_FIRST_SAMPLE_PRECISION: millisecond
SAMPLING_INTERVAL_S: 0.01
NDATA: 21001
DURATION_S: 
STREAM: HNZ
UNITS: cm/s^2
INSTRUMENT: sensor = GMS+/GEOSIG | digitizer = 
INSTRUMENT_ANALOG/DIGITAL: 
INSTRUMENTAL_FREQUENCY_HZ: 
INSTRUMENTAL_DAMPING: 
FULL_SCALE_G: 
N_BIT_DIGITAL_CONVERTER: 
PGA_CM/S^2: 46.479
TIME_PGA_S: 
BASELINE_CORRECTION: BASELINE REMOVED
FILTER_TYPE: BUTTERWORTH
FILTER_ORDER: 
LOW_CUT_FREQUENCY_HZ: 
HIGH_CUT_FREQUENCY_HZ: 
LATE/NORMAL_TRIGGERED: 
DATABASE_VERSION: 
HEADER_FORMAT: DYNA 1.2
DATA_TYPE: Acceleration
PROCESSING: Automatic Paolucci et al., 2011
DATA_TIMESTAMP_YYYYMMDD_HHMMSS: 
DATA_LICENSE: U (unknown license)
DATA_CITATION: Turkish Accelerometric Archive v 1.0 - Disaster And Emergency Management Presidency, Earthquake Department
DATA_CREATOR: AFAD
ORIGINAL_DATA_MEDIATOR_CITATION: : AFAD - Disaster And Emergency Management Presidency
ORIGINAL_DATA_MEDIATOR: AFAD PROCESS SERVICE
ORIGINAL_DATA_CREATOR_CITATION: AFAD PROCESS SERVICE
ORIGINAL_DATA_CREATOR: network: TK
USER1: GuestUser
USER2: 
USER3: 
USER4: 
USER5: 
[...]
-0.108352
-0.082635
-0.050424
-0.022630
0.001268
0.020491
0.032180
0.041791
0.048285
0.056337
0.071143
0.088807
0.094262
0.073480
0.023864
-0.050430
-0.128361
-0.198759
-0.264221
-0.310979
-0.336177
-0.350465
-0.365532
-0.384236
-0.392808
-0.388653
-0.363196
-0.314879
-0.262926
-0.216688
-0.174087
-0.133044
-0.096677
-0.059530
-0.016409
0.030089
0.077626
0.127241
0.192702
0.278945
0.380773
0.472990
0.515592
0.511955
0.492212
0.469612
0.452467
0.458181
0.482339
0.510393
0.542085
0.578192
0.603129
0.607025
0.620013
0.650665
0.670927
0.680538
0.708592
0.776911
0.845749
0.851463
0.797951
0.724436
0.664689
0.633776
0.628061
0.654037
0.684949
0.687286
0.700274
0.682350
0.570909
0.475834
0.452714
0.471157
0.537397
0.620782
0.636108
0.599740
0.655590
0.731182
0.707802
0.662862
0.561552
0.313213
0.044613
0.013440
0.172418
0.193978
0.020713
-0.146319
-0.171517
-0.087612
-0.087612
-0.155412
0.003305
0.269048
0.267229
0.025644
-0.088654
-0.008906
-0.058522
-0.230749
-0.373362
-0.409730
-0.329462
-0.205813
-0.115414
-0.092555
-0.009949
-0.053331
-0.198282
-0.216466
-0.201400
-0.238547
-0.440647
-0.371030
-0.014628
0.105124
0.049014
-0.224782
-0.356485
-0.239590
-0.299597
-0.388697
-0.471304
-0.479357
-0.278297
-0.049702
0.040437
0.117328
0.194478
0.040436
-0.080617
-0.170497
-0.326878
-0.107114
0.149016
0.186682
0.279938
0.267989
0.059135
-0.226091
-0.118028
0.054977
-0.086857
0.055756
0.189276
0.159662
0.054455
-0.108419
-0.008669
0.001981
-0.036985
0.002240
0.055232
0.196805
0.099132
-0.079069
-0.189211
-0.312342
-0.300393
-0.305589
-0.125570
0.321230
0.386432
0.065618
-0.116999
-0.175448
-0.019328
0.352140
0.132896
-0.306373
-0.278318
-0.198570
0.140947
0.460201
0.475267
0.496827
0.387205
0.256281
0.102238
0.072105
0.174193
0.027684
-0.207667
-0.020894
0.299140
0.109249
-0.009985
0.103533
0.026382
0.045085
0.141978
-0.108439
-0.558358
-0.512639
-0.316774
-0.477831
-0.553424
-0.549788
-0.565114
-0.415488
-0.355483
-0.561219
-0.415750
-0.048698
-0.215210
-0.462769
-0.207677
0.242760
0.093912
-0.125852
0.341730
0.363550
-0.100656
-0.162221
-0.114424
-0.085331
0.219117
0.457064
0.267693
0.130795
0.125079
0.110791
0.248468
0.358349
0.257039
0.090008
0.151053
0.133129
-0.015719
0.167677
0.336266
0.183002
0.028960
-0.002992
0.078574
0.192612
0.174168
0.241188
0.328989
0.386397
0.447442
0.000901
-0.352384
0.009472
0.150785
-0.147169
-0.309005
-0.544095
-0.947775
-1.000768
-0.674760
-0.488247
-0.629301
-0.929593
-1.126498
-1.003888
-0.800750
-0.640733
-0.574753
-0.770618
-0.844133
-0.748279
-0.825431
-0.979993
-0.943886
-0.888296
-0.819717
-0.638140
-0.872451
-1.188070
-1.285743
-1.225217
-0.727243
-0.586449
-0.918952
-0.921291
-0.704125
-0.530601
-0.582035
-0.748027
-0.656330
-0.568269
-0.632692
-0.538916
-0.279928
-0.233949
-0.456571
-0.611653
-0.634253
-0.531645
-0.509046
-0.560220
-0.411634
-0.310584
-0.364097
-0.365656
-0.397608
-0.538403
-0.531649
-0.316562
-0.154467
-0.275779
-0.418392
-0.285651
-0.087708
0.097246
0.097765
0.052565
0.278043
0.391821
0.211022
0.033600
0.001129
-0.101480
-0.072387
0.215696
0.191537
0.075680
0.056197
-0.030566
-0.024852
-0.124863
0.043207
0.454159
0.469225
0.270242
0.067883
0.080611
0.131525
0.018266
0.117237
0.166592
-0.025377
-0.038625
-0.102529
-0.344373
-0.141495
0.065280
-0.185137
-0.169291
0.028911
0.074890
0.070213
-0.083050
-0.071621
0.205032
0.138531
-0.177088
-0.060453
0.099824
0.042674
0.130216
0.119825
0.166323
0.476745
0.862500
1.143568
1.030569
0.775736
0.585845
0.311530
0.244249
0.272564
0.130210
0.075139
0.033836
0.111246
0.227362
0.328931
0.708971
0.930292
0.779107
0.413613
0.301393
0.567914
0.403741
0.091239
0.215668
0.117735
-0.136059
0.089419
0.290739
0.223978
0.125266
0.064739
0.310479
0.339313
0.201116
0.485821
0.489977
0.402175
0.653111
0.682984
0.485819
0.296968
0.062397
-0.082295
0.094347
0.185785
0.078500
0.054861
0.222411
0.562187
0.710254
0.500881
0.177729
0.057196
0.199808
0.473344
0.300857
0.024983
0.294882
0.185259
-0.261282
-0.246736
0.075636
0.362159
0.479055
0.484509
0.270460
0.237989
0.617769
0.692322
0.516458
0.443203
0.282407
0.252013
0.560877
0.646080
0.319811
0.387610
0.869999
0.826617
0.479047
0.664261
0.742191
0.594123
0.929483
0.933119
0.603474
0.750242
0.785050
0.499565
0.220054
-0.041013
0.118224
0.474885
0.263434
0.049384
0.395914
0.489430
0.335388
0.616976
0.763225
0.679319
0.560345
-0.173240
-0.541332
-0.130379
-0.027512
0.349151
0.884792
0.696200
0.471760
0.632037
0.722436
0.528388
0.349408
0.184195
0.097432
0.108602
0.040542
0.027034
0.188349
0.768930
0.789191
0.071452
-0.354827
-0.518741
-0.165977
0.023393
-0.149613
-0.183902
-0.399250
-0.317164
-0.054799
-0.177150
-0.511472
-0.365743
-0.334571
-0.915932
-0.930220
-0.687337
-0.541867
-0.466795
-0.507839
-0.528101
-0.938795
-1.061406
-0.852033
-0.693315
-0.540053
-0.550184
-0.604476
-1.003480
-0.734361
-0.022597
-0.422121
-0.877494
-0.846063
-0.800344
-0.728129
-0.689944
-0.753328
-0.855157
-0.793333
-0.535903
-0.356923
-0.612016
-0.818012
-0.834638
-0.785802
-0.437194
-0.704755
-1.365865
-1.374178
-1.058820
-0.517465
-0.561885
-1.193641
-1.052328
-0.944785
-1.406393
-1.837348
-1.708763
-1.376001
-1.830336
-1.359896
-0.266014
-0.469932
-0.647095
-0.392782
0.044667
-0.219518
-1.649801
-2.114006
-1.077533
0.030637
-0.161072
-0.780100
-0.515137
-0.547089
-1.175728
-1.551093
-1.782546
-1.907755
-1.132608
-0.100031
-0.238228
-0.799327
-1.380948
-1.563825
-0.460331
0.268058
0.042319
-0.163937
-0.217970
-0.138221
-0.626066
-0.841414
0.254806
1.266862
1.351286
1.107103
0.779536
0.048288
-0.481119
-1.046374
-1.778661
-0.657763
0.465214
-0.686857
-2.017389
-3.285057
-5.130189
-7.253273
-7.929189
-6.284080
-5.310210
-4.756385
-3.762773
-3.536776
-3.096729
-1.601246
1.471289
4.758651
6.311803
6.108405
4.449786
3.826862
4.390038
3.045739
0.402860
-0.712844
0.984479
1.119558
-1.127175
0.307782
2.113688
-0.227600
-3.498079
-3.708751
-0.156425
1.370230
1.846904
5.774075
5.821352
0.591444
-2.828141
-2.940101
-2.087024
-3.543024
-4.620541
-0.474906
4.900212
4.549005
-0.297745
-1.888564
-0.856507
-1.851938
-0.092790
3.775673
6.986924
9.272621
4.985671
0.110086
-1.760503
-4.463129
-2.995441
0.221005
-1.285649
-4.632759
-4.610160
-3.781760
-4.287789
-2.210165
-0.748971
-2.629691
-3.927492
-4.782649
-5.060081
-2.122886
-0.509987
-0.376467
2.498124
2.978175
2.262514
3.967890
4.626141
4.732646
3.322885
-1.230328
-7.549962
-11.035269
-3.316006
4.538596
0.746504
-1.110577
3.814622
5.445964
0.631944
0.246189
2.220424
-2.864273
-0.917833
4.402733
2.767234
0.537386
-1.927812
-1.768055
-2.735432
-3.779439
-0.090216
1.275644
-1.774292
-4.286248
-1.892487
-1.784165
-4.437954
-2.080041
4.866672
7.111326
-0.910827
-3.111581
-0.379603
-2.637766
-1.993282
-0.688728
-1.424131
-0.978370
-0.819133
-0.315963
1.986100
1.289142
0.259682
2.203784
-0.084512
-3.817117
-4.696952
-4.134814
-3.989864
-6.766524
-4.692278
3.503919
1.040020
-7.397502
-7.178778
-3.822577
-1.862888
-5.021147
-5.346897
-1.744176
-6.563131
-7.197225
-2.155390
0.783624
5.781559
7.147158
7.438617
5.332159
0.253436
4.318543
6.836733
6.111980
9.203218
8.491194
7.201965
5.544126
1.772035
-3.099133
-7.195674
-5.430551
-2.693897
-2.062141
-0.749794
2.685376
5.922344
3.225693
-1.278943
-2.668183
-7.690017
-10.290294
-3.877663
-2.023181
-1.448315
1.596684
-2.028897
-2.359842
1.375621
-0.207925
0.371097
5.877917
7.946448
7.076745
9.743002
9.745859
3.482854
1.326520
1.893334
-2.300100
-6.189346
-7.116458
-5.793461
0.297577
3.319197
1.128314
2.710040
2.276747
-1.033216
-3.333202
-6.805520
-6.092458
-6.686807
-5.370564
-0.213391
-4.209402
-4.104716
0.003513
-0.577588
0.930624
1.008294
1.245722
-1.391702
-3.978472
0.060399
1.527049
0.706441
-0.197292
-2.334403
-5.992195
-9.477502
-9.410482
-7.939937
-5.511886
-2.982007
-2.638334
-5.884914
-6.871254
0.469008
5.364074
3.162281
3.316842
4.143943
0.414195
-3.091634
-5.589303
-6.729684
-4.150189
-3.729885
-3.488042
-0.721254
-0.795288
-0.704889
0.287943
0.814492
-0.836853
-4.899883
-0.571111
5.493430
3.099409
2.593121
2.671830
-1.192478
-3.443108
-1.077662
2.142161
-0.275499
-1.296647
-0.243549
-3.513768
-2.877596
-0.706457
-1.799041
0.425351
0.982034
-3.803931
-5.251878
-1.795926
0.098561
-1.366790
-2.188177
-0.486957
0.354171
0.601729
2.204237
2.127605
0.041668
-1.191710
-0.499169
-0.284082
-0.700750
-0.331101
-3.738997
-9.500650
-9.457529
-6.304466
-6.160555
-3.002557
3.952209
4.927897
4.635398
9.164711
8.595040
1.432198
-3.044383
-0.581264
2.947423
0.294933
-0.819732
2.332292
2.407104
2.009659
4.428617
3.888819
-2.212870
-4.867179
-4.709760
-5.029795
-1.425775
0.857844
1.970690
2.388656
0.509234
0.054380
-0.890656
-2.709032
-3.724205
-2.044806
-1.398504
-0.895594
-0.682844
-3.182591
-0.400737
-0.718434
-2.638639
0.455457
0.857317
1.552975
1.792741
5.242718
6.687287
-0.112139
-1.064968
1.429583
-0.525951
-2.062219
0.719895
1.881058
0.664304
-1.360587
-7.389801
-8.612010
-7.286155
-9.683813
-10.136589
-7.434224
-2.598384
0.365567
2.852845
5.924600
4.355082
2.040809
0.462199
-3.169877
-4.368706
-2.437073
-0.656883
-0.288013
-2.915826
-2.340700
2.333823
3.277559
3.793458
6.150592
6.757409
2.623462
0.090984
3.726176
3.643829
0.149171
-2.841018
-2.531116
-0.813011
-3.965555
-2.731398
3.684609
6.125129
3.710845
0.328147
-0.565715
-1.969242
-1.214876
3.433930
4.141538
2.416159
-0.624425
-5.674055
-5.351683
-3.733070
-3.370174
-1.739092
-0.816397
3.397298
5.027082
2.008838
3.338589
5.826127
5.814696
6.066151
5.343217
2.379524
1.578399
2.875680
3.964107
1.854012
-4.712922
-5.019968
-0.591705
-4.732666
-9.168203
-4.687207
-3.801659
-8.077439
-5.658740
0.161619
0.964821
-0.098669
3.341697
8.225593
7.857242
6.553986
4.821073
-0.898757
-1.677801
2.327819
5.664278
5.043952
-0.219986
-1.951859
-0.952272
1.095218
2.622913
1.204060
1.558643
4.421544
3.877590
-1.240878
-3.191735
-2.650899
-2.787277
-4.635007
-7.639224
-6.513390
-5.221824
-8.350989
-11.575229
-8.927415
-3.990006
1.636047
9.046186
12.890491
13.800977
12.385242
10.461919
8.704849
4.974061
1.919710
3.045543
4.100461
-0.871758
-3.386571
-0.414307
2.654850
3.124770
1.829567
5.010944
6.637610
3.360897
2.721348
0.887126
-4.522022
-5.373801
-2.146445
-1.613401
-3.329948
-7.243353
-10.562667
-9.163038
-5.349646
-1.177773
0.040798
1.037786
6.204570
9.766507
9.121503
9.912496
12.218715
11.595791
10.113035
6.690333
1.705386
0.179249
-1.913442
-5.234315
-5.860876
-5.681117
-6.008425
-4.535282
-3.907683
-6.494712
-5.298222
-1.434694
-0.017141
0.782425
3.434135
3.963542
0.056632
1.761488
2.230109
0.522914
3.275674
0.626820
4.034455
6.559399
3.491799
1.765121
-8.079824
-1.843576
6.340153
-0.071959
0.037143
-0.217950
1.146871
2.036315
3.026031
6.743829
-0.802689
-5.364474
4.148486
5.438753
0.768385
-2.794332
-10.048092
-4.910143
1.704847
-3.492071
0.107793
10.506562
5.024679
-3.372579
-0.898031
-3.569225
-2.701600
2.189829
4.394220
6.020626
-1.612135
-4.228518
-0.011706
2.979781
3.462689
0.544716
0.968656
-1.107409
-2.780055
0.628879
-0.483968
-4.211378
1.903818
4.541761
0.023357
4.292902
4.105350
5.176372
10.258731
3.587111
0.080763
4.319136
5.720584
5.519003
7.097353
2.084351
-4.700788
-0.465272
1.358039
0.021013
4.702290
6.948503
1.971609
1.972128
6.231802
0.015035
-4.632473
-5.844810
-11.204602
-14.069583
-15.762232
-13.520435
-14.069065
-18.173918
-11.157327
-2.310412
-1.458633
-2.187542
-5.508156
-7.624746
1.574415
12.690144
7.661037
-3.602501
0.913304
7.769878
5.609907
4.618633
1.055396
0.374543
11.539368
16.452618
11.857583
7.913786
9.328222
13.754407
6.063458
-12.699840
-32.107361
-3.197270
32.314563
3.368883
-11.200461
-13.637604
-19.131697
-6.161485
-2.461610
5.052436
-14.693044
-30.244571
3.782429
7.925727
0.161264
20.880353
6.624029
-23.284871
-17.155388
3.514605
0.548575
-5.938090
21.103750
4.207405
-29.410462
8.966612
43.040630
20.718252
-18.593987
-27.909005
11.154895
38.581451
-1.511130
-13.433439
-6.290082
-16.661836
26.027904
27.023075
-11.204373
-10.198292
4.649262
14.592139
-16.458960
-22.871592
5.782108
-8.658910
-16.628331
-6.631163
-3.840477
-14.553566
-18.348256
22.698712
15.907859
-23.277614
-11.004619
14.182479
44.628318
28.781175
-12.091230
-14.299517
-6.142026
5.546491
8.062083
3.661614
-6.558435
-0.926408
1.670492
-6.956921
12.634775
20.384172
2.342510
-6.475573
-2.567105
-0.338816
18.508126
2.164307
-13.859478
16.429721
6.169147
7.861275
-0.297516
-23.032405
9.204274
16.633896
0.344109
-12.780146
-23.473234
-14.735420
-16.596658
-5.440925
4.314139
-15.577330
-16.195838
-0.499362
14.616014
5.190594
0.629069
9.733674
3.811745
10.228012
3.597695
21.066048
38.643244
-1.962119
-11.542880
10.397378
14.515218
11.503988
6.474621
8.736939
5.305924
-6.432209
-12.467398
-9.982458
10.425429
2.612908
-8.942349
18.820867
19.765383
-13.187997
-26.641898
6.554883
13.152729
-13.255539
4.402705
15.604677
3.165170
7.885152
12.073650
-9.479295
-8.485164
20.637937
-13.219955
-46.478822
-14.921176
-3.162521
-17.421183
-21.758788
-1.123085
15.274246
-3.077839
-5.655517
16.321628
21.568940
-8.232156
-23.127509
11.044701
17.365634
1.876971
13.756417
13.329098
16.997541
12.183521
-5.503818
15.723118
16.003926
-9.738556
2.201417
22.474484
11.387589
-1.247264
5.294991
-0.597325
-15.656332
-19.768199
-12.172585
-7.044767
-16.307052
-7.454941
-0.574988
-7.697565
-11.618503
-11.549925
12.573163
11.089888
18.262859
28.529147
-0.093902
14.286850
10.047177
-10.587748
2.917846
2.976813
17.378866
25.504665
5.897382
-6.873589
-1.729665
-8.414533
-30.248287
-15.656344
2.348430
-0.476287
1.161809
-2.213875
-18.103360
-32.236554
-14.904838
5.377321
3.249561
8.293475
19.959912
15.912467
10.624111
34.019330
43.521899
11.625515
2.544288
21.508385
11.890997
-4.154089
-0.038327
1.318960
3.837410
-1.559529
-15.191111
-14.900950
-8.883687
-8.494815
-16.688415
-17.699692
-0.067685
5.770079
-17.817108
-31.361408
-28.554616
-28.927644
-22.343047
-18.352492
-6.610983
6.514830
5.556806
9.918309
6.557951
5.579404
11.012190
4.445776
8.601543
9.090426
-3.927584
4.681903
8.757402
-6.808932
-6.953363
-1.180281
9.874402
24.544535
16.912553
15.989598
30.883911
24.933406
12.184516
4.164960
-4.889771
0.990855
2.464258
-2.427692
5.092849
4.740343
4.946598
10.179623
3.225115
-6.415132
-8.496134
0.235705
4.339518
-1.052745
-4.697289
-0.253959
4.366272
0.695751
10.814491
12.582730
-4.497011
-10.500248
-12.337847
-9.275703
-5.707531
-6.795440
-0.637642
8.027956
5.902015
3.456559
9.844772
6.615077
-1.096394
-1.804003
-3.178175
-6.724268
-2.633963
8.859209
11.089056
3.744637
-2.569282
-3.020240
-2.585648
-5.594021
-3.831237
3.465904
7.240331
3.836592
-2.913478
-6.272278
-6.704013
-8.145206
-6.587638
-2.578120
0.316473
3.976603
4.454316
0.891339
-1.706601
-0.546738
0.026570
-4.509758
-3.369377
-3.429644
-7.371882
-2.300174
1.798184
-2.798929
-9.355212
-6.378012
-2.622028
-0.392441
6.783907
9.091685
6.615057
0.936530
2.170167
6.278397
1.499965
6.081492
12.385539
2.112237
2.283424
12.821169
10.573656
7.825311
7.455401
4.267269
3.060127
5.950564
5.711318
-1.085511
-4.011797
-0.891725
-0.745476
-8.254328
-13.412540
-9.678117
-7.796099
-9.295739
-3.669686
-1.915214
-6.572853
-4.789547
-3.212756
-2.629318
-0.148794
2.950756
3.309235
0.785330
1.759459
-1.372044
-7.767011
-3.397455
3.878384
-0.702364
-7.158896
-3.385248
0.512050
-4.716040
-8.650225
-5.837459
-3.546826
-5.590420
-8.029122
-4.709288
-7.480493
-13.641669
-4.421207
4.646252
-0.132959
-2.885980
2.351201
3.570551
4.768340
8.141167
5.750782
2.575118
1.363301
2.839042
2.607068
3.641204
4.803665
1.234194
3.092053
2.467571
0.527624
2.517445
3.557815
5.609722
3.122184
0.082639
1.474994
4.811713
3.691333
0.292789
4.184632
3.177251
0.921946
5.187335
4.587790
6.750357
8.005296
3.116203
4.325422
3.463252
0.347855
5.160575
10.601933
7.867616
3.056713
3.824067
3.650542
0.904015
0.278234
3.294139
5.714916
6.335501
6.660730
2.960595
-0.791233
-1.405585
-1.211019
0.252513
3.475453
3.465841
1.883854
3.205293
4.474259
2.340005
-2.871459
-1.499626
-0.802928
-6.073360
-4.119386
-0.989443
-1.003471
-0.307293
0.670992
2.810440
0.094047
-4.090296
-1.751605
0.370698
-0.655905
-0.968926
-1.060365
-0.199754
3.102415
3.187619
0.250682
0.373292
0.670726
0.308869
-0.567589
-2.438178
-1.900978
-2.587545
-5.878805
-5.219255
-4.123554
-6.229493
-4.968061
-2.544426
-3.042662
-2.188026
0.643704
3.275932
4.026661
3.933663
5.266013
6.221698
6.850076
5.666314
2.548319
2.686515
4.030294
1.793951
-0.559287
2.185161
3.949764
2.723659
4.307983
3.958075
1.353642
-0.227566
-2.070101
-2.951753
-2.417151
-1.442762
-0.484219
0.858781
1.096208
1.651332
0.976974
-3.205550
-3.397000
-2.114266
-3.726646
-1.467445
2.091895
1.553915
0.443407
0.886570
2.581296
4.784387
4.222768
2.303862
0.740838
-3.162955
-5.771025
-4.679481
-4.534790
-6.008454
-5.135115
-2.054787
-0.728153
-0.049640
0.442101
-2.194544
-2.292997
1.584818
2.429324
2.135785
4.266921
5.726297
1.965896
-0.680361
2.602067
3.680622
3.875708
6.429746
6.592100
4.802299
4.962835
4.068453
1.348942
2.807539
3.862716
2.564135
3.545278
4.282240
4.093388
2.604398
0.048541
-1.717362
-3.029450
-5.428148
-6.852456
-4.127231
-4.542341
-8.498087
-8.006866
-5.294110
-5.093050
-5.388407
-3.981245
-5.356976
-6.530608
-5.585313
-6.036530
-3.302473
-0.233056
-0.115122
-0.992878
-2.757482
-2.935683
-1.475528
0.600796
0.106198
-2.985820
-3.503278
-2.331985
-1.378637
-0.879104
-1.955843
-3.565365
-4.289339
-4.357918
-4.455851
-4.525209
-3.927744
-2.371215
-1.114458
-1.547232
-4.301292
-6.871955
-5.466611
-2.293547
0.221266
0.936926
-0.061102
-2.166522
-4.827585
-4.574052
-4.638994
-5.651051
-4.907595
-4.282075
-3.653696
-4.221550
-4.828368
-4.229084
-3.112602
-1.403329
0.203855
1.538801
1.222144
-0.656758
-1.984432
-1.612185
-1.504902
-0.807945
1.735443
1.449178
-0.480638
-0.992641
0.489074
1.765054
-0.513631
-0.459859
1.489958
1.124464
1.807913
2.285107
2.750091
4.901488
5.045659
2.626180
1.122643
1.630749
2.047676
2.237565
2.439145
2.499930
3.683692
4.463775
3.654338
1.474884
1.421112
3.808638
3.456393
3.384436
3.447560
1.152769
1.598011
3.961899
4.265047
2.708258
1.496700
1.217189
0.645699
1.843229
3.094271
1.427080
-0.320120
-0.409740
-0.839657
-2.938062
-3.415256
-3.762047
-5.630818
-5.795251
-5.926694
-5.866948
-6.316087
-8.161999
-7.565832
-6.091390
-6.459221
-6.842639
-5.584584
-4.954127
-5.176489
-3.737635
-2.662456
-1.976929
-2.135128
-3.815567
-4.643968
-5.714212
-5.271048
-2.853648
-1.735088
-0.406636
1.017152
0.003797
-1.263092
