EVENT_NAME: 202302060117
EVENT_ID: 13194
EVENT_DATE_YYYYMMDD: 2023/02/06
EVENT_TIME_HHMMSS: 01:17:32.00000
EVENT_LATITUDE_DEGREE: 37.288
EVENT_LONGITUDE_DEGREE: 37.043
EVENT_DEPTH_KM: 8.6
HYPOCENTER_REFERENCE: AFAD
MAGNITUDE_W: 7.7
MAGNITUDE_W_REFERENCE: AFAD
MAGNITUDE_L: 
MAGNITUDE_L_REFERENCE: 
FOCAL_MECHANISM: 
NETWORK: TK
STATION_CODE: 5811
STATION_NAME: 
STATION_LATITUDE_DEGREE: 39.3616
STATION_LONGITUDE_DEGREE: 36.4129
STATION_ELEVATION_M: 1238.0
LOCATION: Kahramanmaras_Pazarck_Turkiye
SENSOR_DEPTH_M: 
VS30_M/S: 207
SITE_CLASSIFICATION_EC8: C
MORPHOLOGIC_CLASSIFICATION: 
EPICENTRAL_DISTANCE_KM: 237.03
EARTHQUAKE_BACKAZIMUTH_DEGREE: 
DATE_TIME_FIRST_SAMPLE_YYYYMMDD_HHMMSS: 2023/02/06 01:17:52.8647620
DATE_TIME_FIRST_SAMPLE_PRECISION: millisecond
SAMPLING_INTERVAL_S: 0.01
NDATA: 14501
DURATION_S: 
STREAM: HNZ
UNITS: cm/s^2
INSTRUMENT: sensor = GMS+/GEOSIG | digitizer = 
INSTRUMENT_ANALOG/DIGITAL: 
INSTRUMENTAL_FREQUENCY_HZ: 
INSTRUMENTAL_DAMPING: 
FULL_SCALE_G: 
N_BIT_DIGITAL_CONVERTER: 
PGA_CM/S^2: 7.233
TIME_PGA_S: 
BASELINE_CORRECTION: BASELINE REMOVED
FILTER_TYPE: BUTTERWORTH
FILTER_ORDER: 
LOW_CUT_FREQUENCY_HZ: 
HIGH_CUT_FREQUENCY_HZ: 
LATE/NORMAL_TRIGGERED: 
DATABASE_VERSION: 
HEADER_FORMAT: DYNA 1.2
DATA_TYPE: Acceleration
PROCESSING: Automatic Paolucci et al., 2011
DATA_TIMESTAMP_YYYYMMDD_HHMMSS: 
DATA_LICENSE: U (unknown license)
DATA_CITATION: Turkish Accelerometric Archive v 1.0 - Disaster And Emergency Management Presidency, Earthquake Department
DATA_CREATOR: AFAD
ORIGINAL_DATA_MEDIATOR_CITATION: : AFAD - Disaster And Emergency Management Presidency
ORIGINAL_DATA_MEDIATOR: AFAD PROCESS SERVICE
ORIGINAL_DATA_CREATOR_CITATION: AFAD PROCESS SERVICE
ORIGINAL_DATA_CREATOR: network: TK
USER1: GuestUser
USER2: 
USER3: 
USER4: 
USER5: 
[...]
1.459126
1.831634
2.119457
2.314023
2.452999
2.487809
2.422607
2.289087
2.125953
1.942037
1.721754
1.521733
1.317816
1.076492
0.836467
0.601377
0.352779
0.096648
-0.155586
-0.427822
-0.712008
-0.955670
-1.073085
-1.060616
-0.961644
-0.780586
-0.528091
-0.224162
0.044438
0.310960
0.590991
0.801663
1.020647
1.258855
1.449525
1.559926
1.524598
1.352632
1.072343
0.701654
0.343435
0.057431
-0.138954
-0.222599
-0.217143
-0.097130
0.143415
0.452539
0.821410
1.225349
1.631627
2.062582
2.481848
2.812792
3.095420
3.305573
3.346097
3.315445
3.288949
3.186860
3.046066
2.985281
2.984502
3.019311
3.150234
3.345580
3.528976
3.645093
3.675746
3.616000
3.421174
3.105816
2.697461
2.240010
1.795547
1.351345
0.928702
0.543986
0.164985
-0.202586
-0.513008
-0.735110
-0.882398
-0.925259
-0.916946
-0.925778
-0.894346
-0.821611
-0.710430
-0.573272
-0.398707
-0.139459
0.128622
0.375662
0.654653
0.950269
1.252639
1.554490
1.809842
2.030385
2.187805
2.182869
2.026749
1.793478
1.477600
1.079636
0.691543
0.364755
0.082388
-0.182315
-0.385453
-0.438965
-0.364412
-0.189068
0.066024
0.382942
0.769477
1.176533
1.596838
2.009090
2.360297
2.608895
2.766834
2.907888
3.019848
3.089986
3.064529
2.912825
2.674358
2.316918
1.879729
1.395262
0.902482
0.473866
0.102917
-0.169839
-0.331414
-0.416877
-0.390121
-0.259977
-0.090608
0.155393
0.491013
0.815463
1.094974
1.313959
1.413970
1.451636
1.483328
1.488264
1.508526
1.532425
1.499435
1.410855
1.295518
1.193689
1.083028
0.974965
0.921453
0.844822
0.718056
0.581418
0.384514
0.162413
-0.034491
-0.224381
-0.330106
-0.335301
-0.314000
-0.285945
-0.292958
-0.348029
-0.402320
-0.438168
-0.402319
-0.239704
-0.004874
0.187095
0.263207
0.220086
0.073577
-0.082283
-0.153459
-0.142289
-0.045136
0.058772
0.125792
0.182682
0.154108
0.090725
0.066826
0.094102
0.219830
0.324777
0.405305
0.541424
0.648189
0.697285
0.673387
0.601431
0.511812
0.386344
0.253083
0.119303
-0.023309
-0.162544
-0.341005
-0.614540
-0.960291
-1.426314
-2.014948
-2.645664
-3.304955
-3.961128
-4.567167
-5.033969
-5.382578
-5.664166
-5.803661
-5.821325
-5.738718
-5.527267
-5.163591
-4.611844
-3.902677
-3.118178
-2.295233
-1.450207
-0.686489
-0.038888
0.511561
0.886406
1.095520
1.180984
1.119419
1.004342
0.860691
0.635732
0.392849
0.124769
-0.139674
-0.386194
-0.594008
-0.690641
-0.782339
-0.831175
-0.767012
-0.644401
-0.481007
-0.326705
-0.222018
-0.247215
-0.366189
-0.515815
-0.691417
-0.814287
-0.850135
-0.787271
-0.732460
-0.708561
-0.687519
-0.750123
-0.772982
-0.806492
-0.944948
-1.095873
-1.321091
-1.575923
-1.827119
-1.971809
-2.084288
-2.271061
-2.282231
-2.246902
-2.272619
-2.284308
-2.330806
-2.420426
-2.478614
-2.471600
-2.412372
-2.271318
-2.141693
-1.991807
-1.820879
-1.644237
-1.428370
-1.337710
-1.374077
-1.461099
-1.628130
-1.845296
-2.136755
-2.452113
-2.695255
-2.949308
-3.134263
-3.164915
-3.139457
-2.991649
-2.731361
-2.477048
-2.261441
-2.128439
-2.079083
-2.090772
-2.112333
-2.162987
-2.291052
-2.435743
-2.559392
-2.625373
-2.588745
-2.462498
-2.317807
-2.137787
-1.860614
-1.547594
-1.187295
-0.833231
-0.619702
-0.505144
-0.509300
-0.610609
-0.691916
-0.774522
-0.844399
-0.900509
-0.951163
-0.937136
-0.965190
-1.085463
-1.161314
-1.127804
-1.026235
-0.866217
-0.642557
-0.372398
-0.004826
0.439118
0.946964
1.475852
1.956683
2.420629
2.803267
3.121743
3.410345
3.645436
3.807012
3.901567
4.024438
4.040544
3.923649
3.873254
3.816105
3.675831
3.599200
3.666999
3.731162
3.779220
3.838707
3.832732
3.862866
3.845462
3.628815
3.322290
3.012387
2.610526
2.162946
1.812260
1.479757
1.195052
0.989836
0.723314
0.486925
0.261967
-0.103007
-0.429535
-0.732424
-1.053497
-1.221307
-1.242867
-1.145973
-0.953485
-0.661506
-0.342510
-0.013644
0.402245
0.741502
1.017116
1.403651
1.809928
2.174123
2.546891
2.897837
3.170594
3.306193
3.291646
3.155009
2.858354
2.420126
1.977742
1.588090
1.222077
0.868014
0.545902
0.269769
0.019613
-0.160666
-0.237297
-0.192877
-0.014416
0.250808
0.610846
0.969586
1.267540
1.557961
1.753826
1.838251
1.865787
1.840849
1.728630
1.545754
1.347032
1.168571
1.086225
1.108565
1.290923
1.609658
1.917484
2.164523
2.378313
2.619637
2.753938
2.747963
2.755497
2.782513
2.876809
3.024357
3.131122
3.144371
3.080208
2.984874
2.772384
2.430530
1.982430
1.453543
0.888548
0.316540
-0.215465
-0.747989
-1.278954
-1.764720
-2.222431
-2.674686
-3.033945
-3.290336
-3.519191
-3.708042
-3.917934
-4.120813
-4.299273
-4.526829
-4.778544
-5.016231
-5.200407
-5.326913
-5.411078
-5.454199
-5.450562
-5.371073
-5.217030
-5.029997
-4.895177
-4.878292
-4.949987
-5.075715
-5.267423
-5.533425
-5.860473
-6.198431
-6.475083
-6.665233
-6.767062
-6.775634
-6.717965
-6.632501
-6.534828
-6.467548
-6.437674
-6.360782
-6.274279
-6.257394
-6.258693
-6.214532
-6.124912
-6.003600
-5.833452
-5.654211
-5.428733
-5.124804
-4.772558
-4.300300
-3.750111
-3.181998
-2.612587
-2.022913
-1.375831
-0.765636
-0.174144
0.379941
0.821807
1.208861
1.500321
1.641895
1.674886
1.610464
1.419794
1.166521
0.920521
0.679716
0.485930
0.343058
0.249801
0.206680
0.169014
0.144077
0.123815
0.079915
0.017571
-0.063217
-0.107377
-0.111273
-0.089193
0.005103
0.082774
0.179148
0.325918
0.434241
0.581270
0.812464
1.100287
1.466560
1.976744
2.527453
3.001530
3.425731
3.820319
4.248416
4.687944
5.094221
5.425945
5.672465
5.829106
5.828586
5.708574
5.426207
4.976808
4.458052
3.860846
3.266757
2.759690
2.349777
2.060915
1.891807
1.819851
1.774132
1.708411
1.634637
1.567358
1.467867
1.341880
1.277458
1.276679
1.334867
1.442152
1.534110
1.586323
1.591259
1.542943
1.437217
1.321101
1.229144
1.144200
1.117964
1.153293
1.257460
1.442155
1.600094
1.737512
1.876228
1.986630
2.070795
2.066379
1.933898
1.692833
1.406829
1.097966
0.759488
0.357108
-0.108136
-0.520128
-0.892115
-1.247737
-1.592709
-1.957163
-2.330189
-2.730231
-3.069748
-3.269249
-3.323281
-3.228465
-3.059356
-2.874920
-2.663209
-2.409935
-2.102110
-1.761034
-1.423336
-1.102262
-0.865094
-0.764044
-0.777551
-0.907435
-1.167722
-1.528280
-1.912217
-2.297972
-2.658789
-2.933623
-3.160660
-3.343277
-3.473420
-3.512385
-3.435234
-3.308726
-3.115199
-2.894915
-2.664761
-2.424995
-2.212244
-2.001572
-1.839217
-1.682057
-1.494245
-1.280455
-1.026402
-0.757022
-0.416986
0.024360
0.591953
1.227086
1.841697
2.423578
2.952466
3.433296
3.833599
4.179091
4.492371
4.745645
4.924106
5.027494
5.092436
5.097372
5.048016
4.964112
4.825656
4.625894
4.385090
4.159352
3.974138
3.865815
3.891012
4.082462
4.381715
4.675512
4.925410
5.088804
5.151668
5.136082
5.051138
4.944894
4.815010
4.660968
4.532903
4.443543
4.392628
4.363015
4.358340
4.410034
4.483548
4.568753
4.677336
4.776048
4.847484
4.876839
4.847225
4.742020
4.552909
4.286127
3.955963
3.591249
3.225496
2.873251
2.528539
2.167982
1.746379
1.274900
0.756663
0.190629
-0.325789
-0.751029
-1.088207
-1.283293
-1.308230
-1.164059
-0.847401
-0.402418
0.140237
0.775110
1.419854
2.019139
2.612969
3.175367
3.622168
3.962205
4.180670
4.279642
4.330297
4.306398
4.155214
3.952855
3.731792
3.486312
3.350454
3.200048
3.131730
3.329413
3.525019
3.727638
3.918048
4.025852
4.068714
3.961690
3.731536
3.385526
3.009902
2.632199
2.244626
1.921994
1.707426
1.610533
1.532863
1.517797
1.520135
1.486885
1.517278
1.497536
1.459870
1.381161
1.284008
1.344794
1.368433
1.407918
1.571572
1.769515
2.107474
2.441536
2.721825
3.033287
3.296952
3.579840
3.729726
3.706088
3.705568
3.707387
3.685827
3.515939
3.167590
2.687799
2.064356
1.444291
0.853838
0.344953
0.027257
-0.206793
-0.365511
-0.407853
-0.349405
-0.229392
-0.096390
0.076615
0.205461
0.270663
0.251180
0.185459
0.144157
-0.032485
-0.245235
-0.433566
-0.666058
-0.874132
-1.075712
-1.185074
-1.203777
-1.241183
-1.238585
-1.185592
-1.121169
-1.013365
-0.849971
-0.602672
-0.266012
0.114548
0.476925
0.766826
1.026075
1.203237
1.212329
1.114656
0.979577
0.740591
0.352498
-0.004682
-0.337445
-0.643451
-0.901400
-1.243514
-1.465876
-1.490553
-1.476266
-1.466394
-1.473148
-1.492890
-1.508476
-1.526659
-1.559130
-1.618097
-1.718887
-1.853446
-2.010346
-2.095289
-2.147243
-2.154256
-1.998135
-1.733172
-1.359885
-0.919578
-0.493298
-0.161834
0.044681
0.198464
0.237949
0.211453
0.200803
0.153785
0.115340
-0.015323
-0.214045
-0.343149
-0.439003
-0.506803
-0.701888
-1.019064
-1.456513
-1.996051
-2.548057
-3.221116
-3.750003
-4.091078
-4.416827
-4.654774
-4.809855
-4.941297
-5.097417
-5.184439
-5.223664
-5.170152
-4.997665
-4.771927
-4.377599
-3.954956
-3.549718
-3.099280
-2.649102
-2.139437
-1.686661
-1.292593
-0.921124
-0.709933
-0.643432
-0.696424
-0.869689
-1.124002
-1.393641
-1.621197
-1.869535
-2.175541
-2.466481
-2.683387
-2.813011
-2.882109
-2.907306
-2.897175
-2.895875
-2.909383
-2.916137
-2.928086
-2.956660
-2.978740
-2.978220
-2.944710
-2.835867
-2.688058
-2.545965
-2.374778
-2.226969
-2.160469
-2.139427
-2.142804
-2.185925
-2.315549
-2.515050
-2.725722
-2.941589
-3.138752
-3.313576
-3.443459
-3.492815
-3.458785
-3.357995
-3.291234
-3.256165
-3.181871
-3.068612
-2.880280
-2.637137
-2.376849
-2.078895
-1.750289
-1.433112
-1.158796
-0.920849
-0.713813
-0.536911
-0.397935
-0.288053
-0.199991
-0.147778
-0.103876
-0.053221
0.014059
0.142125
0.355394
0.670233
1.096773
1.581500
2.107011
2.664213
3.150499
3.506381
3.681205
3.634448
3.394942
2.969962
2.362105
1.643328
0.892858
0.167846
-0.447024
-0.955649
-1.392319
-1.714691
-1.889254
-1.879643
-1.676244
-1.364522
-1.005782
-0.613273
-0.223101
0.147588
0.458271
0.736223
1.031839
1.287711
1.473965
1.599433
1.642035
1.575535
1.359408
1.012099
0.618031
0.162658
-0.353241
-0.853294
-1.305030
-1.729230
-2.157328
-2.591400
-3.018458
-3.455647
-3.892576
-4.252614
-4.570830
-4.877356
-5.103094
-5.213754
-5.197389
-5.021526
-4.685126
-4.278329
-3.826852
-3.392780
-3.021831
-2.626204
-2.243565
-1.908724
-1.582975
-1.276448
-0.978494
-0.717947
-0.512990
-0.375832
-0.354271
-0.351413
-0.413497
-0.618454
-0.773795
-0.818215
-0.821851
-0.875623
-0.985245
-1.132793
-1.345802
-1.556474
-1.747662
-1.883001
-1.947943
-1.977556
-1.988726
-1.973919
-1.888195
-1.766883
-1.626868
-1.474384
-1.355929
-1.240592
-1.190976
-1.185521
-1.090705
-1.061611
-1.014073
-0.836651
-0.715339
-0.580260
-0.426217
-0.284903
-0.095792
0.098775
0.261390
0.370752
0.435435
0.403224
0.257754
0.070981
-0.143327
-0.341789
-0.468036
-0.538693
-0.589867
-0.626754
-0.615064
-0.552719
-0.476867
-0.492972
-0.581812
-0.623894
-0.702604
-0.754557
-0.756635
-0.858204
-1.012246
-1.249154
-1.562694
-1.819344
-2.073137
-2.354465
-2.578125
-2.722556
-2.765417
-2.721516
-2.556044
-2.234970
-1.860644
-1.437742
-1.023672
-0.681037
-0.398150
-0.259433
-0.228521
-0.306191
-0.511407
-0.734288
-0.979509
-1.264474
-1.548660
-1.817259
-2.055206
-2.252889
-2.411088
-2.533178
-2.632669
-2.729303
-2.782295
-2.811649
-2.901268
-3.013228
-3.082845
-3.112199
-3.135058
-3.168308
-3.184154
-3.148565
-3.043619
-2.900226
-2.762809
-2.621755
-2.544084
-2.575775
-2.605648
-2.602790
-2.583307
-2.499922
-2.414977
-2.331332
-2.110529
-1.845565
-1.599565
-1.255112
-0.819221
-0.356055
0.052301
0.431562
0.820175
1.173460
1.478168
1.727805
1.992249
2.249940
2.451000
2.653100
2.822469
2.930533
2.929234
2.814677
2.652062
2.338263
1.920037
1.509344
1.031631
0.523266
0.001652
-0.545679
-1.005208
-1.349660
-1.571242
-1.601634
-1.469152
-1.225230
-0.884934
-0.462810
0.026593
0.524049
0.980981
1.376088
1.689109
1.926537
2.081099
2.130195
2.084736
1.947060
1.716906
1.446228
1.140741
0.879934
0.733685
0.599905
0.493920
0.460670
0.452358
0.404301
0.299615
0.208696
0.129727
0.039588
-0.051331
-0.127962
-0.190825
-0.242519
-0.280704
-0.312396
-0.336294
-0.383572
-0.431109
-0.432927
-0.404092
-0.335254
-0.226670
-0.083798
0.066868
0.158307
0.173893
0.048945
-0.196276
-0.452666
-0.741268
-1.017401
-1.247036
-1.455889
-1.617205
-1.748647
-1.874894
-2.030494
-2.220644
-2.401962
-2.588995
-2.802264
-3.026703
-3.267767
-3.520002
-3.710671
-3.797953
-3.798732
-3.675342
-3.430900
-3.141258
-2.829796
-2.500410
-2.145047
-1.765007
-1.404708
-1.098441
-0.821009
-0.532666
-0.264066
-0.007415
0.232351
0.443023
0.671619
0.859951
0.985419
1.059454
1.039712
0.980745
0.911127
0.855797
0.869565
0.918142
0.957886
0.969836
0.950873
0.929573
0.954251
1.007763
1.060237
1.154273
1.264155
1.350398
1.440798
1.529639
1.610687
1.669914
1.678227
1.625754
1.514314
1.387288
1.266496
1.139210
1.048551
1.012444
1.014263
1.118430
1.295852
1.515356
1.796425
2.073078
2.355186
2.626904
2.885633
3.082278
3.145661
3.110073
3.008245
2.883556
2.719383
2.557808
2.468968
2.434679
2.460136
2.599632
2.769261
2.992661
3.282043
3.453490
3.669358
3.842623
3.806516
3.777682
3.656890
3.395304
3.094493
2.722506
2.327918
1.919044
1.506533
1.153249
0.817369
0.494478
0.256531
0.125608
0.118595
0.241205
0.455514
0.795810
1.214816
1.605767
1.924503
2.077247
2.229471
2.462223
2.623020
2.863306
3.239190
3.729632
4.329956
4.903264
5.475274
6.038451
6.520061
6.896465
7.135452
7.233384
7.183250
7.001672
6.682677
6.220551
5.684130
5.132124
4.614666
4.145006
3.749899
3.547021
3.506757
3.523642
3.599235
3.711975
3.785489
3.795361
3.765488
3.671712
3.571701
3.460261
3.238160
3.000473
2.758110
2.470806
2.232600
2.011797
1.806841
1.698777
1.616431
1.569673
1.606041
1.653839
1.743459
1.871265
1.983225
2.117526
2.236500
2.282219
2.291831
2.313132
2.351318
2.345084
2.279883
2.174417
1.988943
1.745281
1.485254
1.261334
1.103915
0.991176
0.937924
0.892725
0.850902
0.809599
0.748814
0.753230
0.797391
0.889090
1.056900
1.262117
1.516690
1.768405
2.021679
2.224818
2.297813
2.348468
2.404838
2.445102
2.510045
2.589794
2.690584
2.794492
2.844627
2.884372
2.843848
2.653698
2.432636
2.172609
1.876993
1.617485
1.374343
1.133538
0.948064
0.903125
0.918192
0.906502
0.892995
0.855848
0.729861
0.477886
0.232926
0.026670
-0.215693
-0.437275
-0.607942
-0.725617
-0.798611
-0.798091
-0.738604
-0.666908
-0.572871
-0.497798
-0.445325
-0.406100
-0.380902
-0.357263
-0.344793
-0.341676
-0.374147
-0.418307
-0.445582
-0.455193
-0.391810
-0.320633
-0.274134
-0.231532
-0.305046
-0.434410
-0.581958
-0.830296
-1.091103
-1.350610
-1.566737
-1.681035
-1.804944
-1.926515
-1.991716
-1.981585
-1.914565
-1.862870
-1.718179
-1.480491
-1.248518
-0.998621
-0.776519
-0.560912
-0.410506
-0.362189
-0.352577
-0.433884
-0.565326
-0.735474
-0.909518
-1.070834
-1.272933
-1.478409
-1.510360
-1.365929
-1.421519
-1.417363
-1.010566
-0.444271
0.164885
0.664938
1.057968
1.343193
1.466843
1.429177
1.140055
0.792486
0.412186
-0.046044
-0.433358
-0.817294
-1.218895
-1.523863
-1.706999
-1.846494
-1.981573
-2.034565
-1.981572
-1.906499
-1.787525
-1.573476
-1.322280
-1.026664
-0.700655
-0.365034
-0.013308
0.306466
0.588834
0.828341
1.007061
1.119801
1.154870
1.108631
1.002646
0.869126
0.731969
0.656896
0.651701
0.731450
0.955370
1.263975
1.554136
1.716232
1.774939
1.788967
1.680125
1.445295
1.160070
0.864974
0.561825
0.261793
-0.067852
-0.401394
-0.686618
-0.961453
-1.192126
-1.367729
-1.483585
-1.483585
-1.392926
-1.249534
-1.079125
-0.901963
-0.722464
-0.591540
-0.523740
-0.480619
-0.503478
-0.587123
-0.670768
-0.754153
-0.797274
-0.793897
-0.780389
-0.768959
-0.791818
-0.827406
-0.841953
-0.835978
-0.813637
-0.799350
-0.786361
-0.762982
-0.738563
-0.721418
-0.728691
-0.756746
-0.783762
-0.771552
-0.722716
-0.645045
-0.500873
-0.325530
-0.183176
-0.082646
0.006715
0.093218
0.168031
0.280511
0.434034
0.589116
0.759264
0.955389
1.162424
1.361926
1.535192
1.691053
1.820418
1.855746
1.788467
1.641958
1.428949
1.170480
0.864474
0.474043
-0.003411
-0.463459
-0.895713
-1.300431
-1.567472
-1.703850
-1.747491
-1.701771
-1.583576
-1.419143
-1.259645
-1.091315
-0.935974
-0.846873
-0.787386
-0.721405
-0.633343
-0.512551
-0.356170
-0.156928
0.060758
0.260780
0.411186
0.482882
0.507300
0.522367
0.465219
0.316372
0.126482
-0.121077
-0.425265
-0.774652
-1.175993
-1.613442
-2.079985
-2.521590
-2.924490
-3.301153
-3.619629
-3.899139
-4.153711
-4.392177
-4.623630
-4.818976
-4.975615
-5.101602
-5.186806
-5.236162
-5.268373
-5.268113
-5.268892
-5.314870
-5.352017
-5.406048
-5.493590
-5.576455
-5.679323
-5.756474
-5.798816
-5.837261
-5.837261
-5.819856
-5.790762
-5.748159
-5.715428
-5.651525
-5.571776
-5.468908
-5.297201
-5.122117
-4.947812
-4.746232
-4.533222
-4.313199
-4.130322
-3.988748
-3.830029
-3.686118
-3.591302
-3.505838
-3.453884
-3.439337
-3.442973
-3.467131
-3.491030
-3.515707
-3.500900
-3.420372
-3.300099
-3.149953
-2.956945
-2.709906
-2.440786
-2.126726
-1.758115
-1.420936
-1.132333
-0.893866
-0.748915
-0.681116
-0.637994
-0.612017
-0.583182
-0.493302
-0.360301
-0.221584
-0.089362
-0.012211
-0.002859
-0.056111
-0.174825
-0.333023
-0.524472
-0.710985
-0.844765
-0.950750
-1.047124
-1.131028
-1.193372
-1.234156
-1.263769
-1.287927
-1.348972
-1.455996
-1.583542
-1.710309
-1.827983
-1.915784
-1.961503
-1.974232
-1.940202
-1.880715
-1.776807
-1.682511
-1.681731
-1.680692
-1.637830
-1.617828
-1.624062
-1.617827
-1.643544
-1.690042
-1.671338
-1.604058
-1.503268
-1.360135
-1.195442
-1.014384
-0.812024
-0.588104
-0.355352
-0.144939
0.048848
0.249649
0.457983
0.690995
0.933619
1.141173
1.318335
1.488743
1.642267
1.805921
1.982823
2.103875
2.172974
2.181546
2.089069
1.952951
1.817353
1.667986
1.503034
1.344576
1.218589
1.119358
1.061949
1.067145
1.103772
1.183522
1.311068
1.446147
1.583045
1.722801
1.864894
1.985427
2.065176
2.133235
2.175578
2.172461
2.177137
2.166487
2.058424
1.913993
1.800994
1.678124
1.571360
1.488494
1.418098
1.418617
1.453427
1.476027
1.484340
1.461221
1.415502
1.341988
1.219897
1.071830
0.926100
0.813621
0.742705
0.676464
0.665814
0.728678
0.821415
0.934415
1.035205
1.140671
1.248215
1.340433
1.418883
1.478890
1.572147
1.677353
1.735282
1.761779
1.736322
1.645143
1.529027
1.401741
1.278612
1.167691
1.040665
0.882466
0.708682
0.540872
0.420080
0.352541
0.311498
0.310719
0.317214
0.314097
0.308902
0.227335
0.069656
-0.097375
-0.290382
-0.515081
-0.714842
-0.853298
-0.960322
-1.054877
-1.095401
-1.086049
-1.014093
-0.865765
-0.690681
-0.503908
-0.328824
-0.192446
-0.105423
-0.079706
-0.106202
-0.154778
-0.220759
-0.313496
-0.387010
-0.424416
-0.422857
-0.347264
-0.181532
0.052779
0.310209
0.571276
0.779351
0.954954
1.159652
1.321487
1.417602
1.482024
1.523588
1.547487
1.546188
1.528005
1.505405
1.490858
1.491898
1.499171
1.503588
1.546190
1.637109
1.772189
1.956884
2.116122
2.270165
2.427844
2.513828
2.586563
2.672806
2.753854
2.882699
3.046613
3.208449
3.345607
3.446916
3.510560
3.520172
3.518613
3.507703
