EVENT_NAME: 202302060117
EVENT_ID: 13194
EVENT_DATE_YYYYMMDD: 2023/02/06
EVENT_TIME_HHMMSS: 01:17:32.00000
EVENT_LATITUDE_DEGREE: 37.288
EVENT_LONGITUDE_DEGREE: 37.043
EVENT_DEPTH_KM: 8.6
HYPOCENTER_REFERENCE: AFAD
MAGNITUDE_W: 7.7
MAGNITUDE_W_REFERENCE: AFAD
MAGNITUDE_L: 
MAGNITUDE_L_REFERENCE: 
FOCAL_MECHANISM: 
NETWORK: TK
STATION_CODE: 5105
STATION_NAME: 
STATION_LATITUDE_DEGREE: 38.00272
STATION_LONGITUDE_DEGREE: 34.36281
STATION_ELEVATION_M: 1194.0
LOCATION: Kahramanmaras_Pazarck_Turkiye
SENSOR_DEPTH_M: 
VS30_M/S: None
SITE_CLASSIFICATION_EC8: unknown
MORPHOLOGIC_CLASSIFICATION: 
EPICENTRAL_DISTANCE_KM: 248.99
EARTHQUAKE_BACKAZIMUTH_DEGREE: 
DATE_TIME_FIRST_SAMPLE_YYYYMMDD_HHMMSS: 2023/02/06 01:17:54.9230240
DATE_TIME_FIRST_SAMPLE_PRECISION: millisecond
SAMPLING_INTERVAL_S: 0.01
NDATA: 14501
DURATION_S: 
STREAM: HNN
UNITS: cm/s^2
INSTRUMENT: sensor = ACEBOX/SARA | digitizer = 
INSTRUMENT_ANALOG/DIGITAL: 
INSTRUMENTAL_FREQUENCY_HZ: 
INSTRUMENTAL_DAMPING: 
FULL_SCALE_G: 
N_BIT_DIGITAL_CONVERTER: 
PGA_CM/S^2: 15.599
TIME_PGA_S: 
BASELINE_CORRECTION: BASELINE REMOVED
FILTER_TYPE: BUTTERWORTH
FILTER_ORDER: 
LOW_CUT_FREQUENCY_HZ: 
HIGH_CUT_FREQUENCY_HZ: 
LATE/NORMAL_TRIGGERED: 
DATABASE_VERSION: 
HEADER_FORMAT: DYNA 1.2
DATA_TYPE: Acceleration
PROCESSING: Automatic Paolucci et al., 2011
DATA_TIMESTAMP_YYYYMMDD_HHMMSS: 
DATA_LICENSE: U (unknown license)
DATA_CITATION: Turkish Accelerometric Archive v 1.0 - Disaster And Emergency Management Presidency, Earthquake Department
DATA_CREATOR: AFAD
ORIGINAL_DATA_MEDIATOR_CITATION: : AFAD - Disaster And Emergency Management Presidency
ORIGINAL_DATA_MEDIATOR: AFAD PROCESS SERVICE
ORIGINAL_DATA_CREATOR_CITATION: AFAD PROCESS SERVICE
ORIGINAL_DATA_CREATOR: network: TK
USER1: GuestUser
USER2: 
USER3: 
USER4: 
USER5: 
[...]
-3.189274
-3.691705
-4.016684
-4.141065
-4.071395
-3.816089
-3.384734
-2.821751
-2.178810
-1.525114
-0.929165
-0.422294
-0.054298
0.160561
0.279329
0.318138
0.289614
0.247997
0.217135
0.223446
0.307145
0.453968
0.622769
0.796479
0.969021
1.143199
1.325092
1.501374
1.662693
1.837339
2.068330
2.359874
2.697944
3.054250
3.369641
3.630324
3.860380
4.044845
4.158937
4.167820
4.036425
3.762414
3.363087
2.887075
2.402646
1.981343
1.694005
1.533619
1.424668
1.293507
1.080984
0.756239
0.343820
-0.095019
-0.523103
-0.911207
-1.218418
-1.414341
-1.462036
-1.363609
-1.171662
-0.950958
-0.779820
-0.697290
-0.719502
-0.882460
-1.172369
-1.547381
-1.975699
-2.400977
-2.780898
-3.093720
-3.293618
-3.316998
-3.132300
-2.754017
-2.208802
-1.524712
-0.719282
0.163536
1.029052
1.819286
2.534705
3.165489
3.678906
4.038252
4.208923
4.189984
4.013934
3.721686
3.354858
2.926774
2.424109
1.855045
1.231273
0.560742
-0.124052
-0.785699
-1.365751
-1.767415
-1.928737
-1.836855
-1.506734
-0.994719
-0.367442
0.271291
0.786345
1.118336
1.253236
1.224946
1.131426
0.981795
0.765765
0.554645
0.374387
0.247434
0.197400
0.173552
0.159757
0.179629
0.202774
0.244856
0.358948
0.515358
0.714552
1.036256
1.456856
1.927957
2.468963
3.036621
3.602176
4.178719
4.692605
5.083746
5.336714
5.411528
5.296967
4.988587
4.503223
3.926912
3.329091
2.742259
2.182781
1.633357
1.099129
0.574019
0.023660
-0.496307
-0.937015
-1.326523
-1.633266
-1.819135
-1.883197
-1.827086
-1.730997
-1.644493
-1.517542
-1.338688
-1.102554
-0.765185
-0.327518
0.157143
0.675705
1.277965
1.965094
2.669992
3.319480
3.878722
4.362214
4.729742
4.906024
4.897841
4.742131
4.466483
4.100589
3.692144
3.300299
2.934873
2.600074
2.312736
2.071690
1.890029
1.759335
1.637760
1.528575
1.457734
1.423832
1.409570
1.391099
1.334753
1.198214
0.960675
0.619330
0.159918
-0.410315
-1.057934
-1.767978
-2.492516
-3.161645
-3.767882
-4.274054
-4.595994
-4.741651
-4.772279
-4.690451
-4.476762
-4.135652
-3.679515
-3.119104
-2.467979
-1.769628
-1.100501
-0.482108
0.072458
0.486979
0.700669
0.698564
0.517370
0.225824
-0.132121
-0.509003
-0.853153
-1.141894
-1.364938
-1.508490
-1.560628
-1.525793
-1.415208
-1.233315
-1.005129
-0.757539
-0.503402
-0.246928
0.019133
0.291973
0.550318
0.767982
0.906155
0.923455
0.810297
0.573927
0.227906
-0.201347
-0.684373
-1.186337
-1.672402
-2.089264
-2.382914
-2.569953
-2.686385
-2.744368
-2.795804
-2.867347
-2.914809
-2.928136
-2.953855
-3.034984
-3.194200
-3.456054
-3.811661
-4.189478
-4.577583
-5.043074
-5.619619
-6.298567
-7.052097
-7.827136
-8.558922
-9.176616
-9.627612
-9.881516
-9.923133
-9.766490
-9.457411
-9.067204
-8.652917
-8.271594
-7.981219
-7.747189
-7.485571
-7.167841
-6.774829
-6.267022
-5.624548
-4.873359
-4.081488
-3.315570
-2.616984
-2.033427
-1.614464
-1.359158
-1.265406
-1.359394
-1.642991
-2.076919
-2.611381
-3.191667
-3.749274
-4.227858
-4.631159
-4.978116
-5.264051
-5.491536
-5.650519
-5.704995
-5.636961
-5.456704
-5.178019
-4.829662
-4.468680
-4.144170
-3.878110
-3.693645
-3.602699
-3.585633
-3.629354
-3.735499
-3.883727
-4.067727
-4.298953
-4.550052
-4.783383
-4.958030
-4.993101
-4.839497
-4.501427
-3.982866
-3.288489
-2.440274
-1.509528
-0.624606
0.114894
0.679747
1.061303
1.259095
1.291358
1.202748
1.058494
0.926397
0.848074
0.826330
0.865139
0.963333
1.078127
1.186842
1.320105
1.484464
1.686230
1.956498
2.294802
2.691087
3.148394
3.663682
4.229003
4.783335
5.231991
5.557670
5.801286
5.981776
6.122989
6.265370
6.413597
6.541483
6.600399
6.536104
6.305111
5.847569
5.180544
4.420468
3.614100
2.777807
1.990610
1.295764
0.685084
0.157403
-0.277928
-0.626521
-0.918535
-1.163555
-1.359479
-1.538101
-1.727244
-1.929713
-2.132884
-2.304492
-2.429574
-2.498312
-2.495273
-2.455529
-2.426539
-2.419994
-2.431451
-2.427711
-2.366691
-2.207008
-1.923647
-1.510294
-0.962742
-0.309514
0.431623
1.239391
2.048563
2.833185
3.554215
4.149462
4.625005
4.976401
5.198741
5.323588
5.349305
5.307688
5.255784
5.181435
5.058223
4.896668
4.712201
4.504355
4.288559
4.089362
3.900220
3.701257
3.466056
3.177082
2.867767
2.570142
2.298001
2.111897
2.060227
2.123118
2.271812
2.452302
2.590242
2.655704
2.630453
2.508644
2.323475
2.066999
1.709054
1.286348
0.839794
0.399085
0.025242
-0.244561
-0.389049
-0.363098
-0.166008
0.168789
0.634512
1.197495
1.801158
2.419785
3.008252
3.532424
3.983418
4.345803
4.639218
4.881664
5.036905
5.078987
4.988039
4.757748
4.411493
3.960263
3.415749
2.821669
2.230628
1.683542
1.228104
0.919257
0.789031
0.855428
1.129437
1.568274
2.112787
2.716450
3.322686
3.907412
4.438598
4.846339
5.109828
5.222985
5.177160
4.988718
4.669818
4.269088
3.837965
3.371539
2.857885
2.279937
1.621329
0.864994
0.018881
-0.844300
-1.685503
-2.476674
-3.121254
-3.540454
-3.715101
-3.658056
-3.396671
-2.953393
-2.373342
-1.703281
-0.975003
-0.253506
0.417492
1.045470
1.623416
2.156940
2.681347
3.204584
3.734601
4.267424
4.757930
5.195597
5.574114
5.833628
5.966424
6.003363
5.931353
5.776344
5.623206
5.515658
5.466092
5.481522
5.534827
5.600990
5.675571
5.721160
5.715782
5.679075
5.617351
5.551186
5.505594
5.477537
5.480810
5.521256
5.582977
5.641659
5.657556
5.640255
5.627161
5.609625
5.582971
5.561461
5.535041
5.487345
5.418842
5.337947
5.265001
5.230398
5.203277
5.120278
4.984441
4.823587
4.669280
4.552380
4.450444
4.334479
4.196304
4.019786
3.792067
3.497715
3.125509
2.703504
2.277524
1.846869
1.378805
0.907937
0.492244
0.109283
-0.271106
-0.617828
-0.916154
-1.209337
-1.527302
-1.850879
-2.172351
-2.548532
-3.062653
-3.678476
-4.260398
-4.760725
-5.170105
-5.430089
-5.550963
-5.554705
-5.400400
-5.077760
-4.622324
-4.129481
-3.656510
-3.153145
-2.709866
-2.513010
-2.547847
-2.751485
-3.155254
-3.719174
-4.383393
-5.177837
-6.088245
-7.011277
-7.880770
-8.702803
-9.468022
-10.146503
-10.751805
-11.297021
-11.765552
-12.163242
-12.538253
-12.914668
-13.253675
-13.565094
-13.884228
-14.097219
-14.108442
-14.033160
-13.964892
-13.810353
-13.498936
-13.138188
-12.864179
-12.709873
-12.661712
-12.662414
-12.646985
-12.645583
-12.638336
-12.516295
-12.272212
-11.908658
-11.391733
-10.755338
-10.040855
-9.310473
-8.648828
-8.111329
-7.757361
-7.595106
-7.568454
-7.639062
-7.812307
-8.063874
-8.296737
-8.468812
-8.572619
-8.560697
-8.448241
-8.271258
-8.070193
-7.944879
-7.945815
-8.070663
-8.341402
-8.790527
-9.384139
-9.946890
-10.317694
-10.476209
-10.395083
-10.074314
-9.608123
-8.967753
-8.131929
-7.323693
-6.675374
-6.122912
-5.657423
-5.232380
-4.760345
-4.236406
-3.673189
-3.138028
-2.677449
-2.174318
-1.584916
-1.033155
-0.584266
-0.219777
0.062649
0.261610
0.394640
0.441632
0.355126
0.223965
0.184452
0.187724
0.149147
0.099581
0.086253
0.139090
0.246870
0.381302
0.562962
0.847258
1.265053
1.731712
2.132673
2.432634
2.609150
2.667364
2.650062
2.606809
2.570569
2.552566
2.576880
2.608909
2.577112
2.487333
2.332792
2.134297
1.997524
1.906576
1.727487
1.482700
1.288881
1.095997
0.841157
0.593799
0.340128
0.046945
-0.189425
-0.303285
-0.294636
-0.143370
0.188855
0.704143
1.309210
1.915445
2.502977
3.012186
3.354932
3.511575
3.547111
3.512274
3.383685
3.138197
2.750794
2.235270
1.719746
1.280206
0.898648
0.569928
0.238169
-0.192019
-0.737937
-1.347213
-1.983143
-2.600135
-3.098358
-3.470330
-3.801856
-4.049448
-4.111639
-4.019524
-3.817290
-3.471271
-2.982402
-2.374998
-1.676179
-0.977126
-0.324833
0.302211
0.890210
1.432619
1.914941
2.304680
2.569338
2.672441
2.653971
2.559048
2.398662
2.216299
2.021077
1.852976
1.801306
1.898565
2.157377
2.556936
3.031076
3.498669
3.882797
4.153300
4.261547
4.186731
4.034060
3.914355
3.856606
3.833693
3.834160
3.877411
3.962746
4.115415
4.333079
4.527130
4.651041
4.698969
4.657586
4.529230
4.285612
3.930707
3.557800
3.237496
2.975409
2.765458
2.621905
2.580522
2.660714
2.860609
3.156596
3.492094
3.836009
4.186703
4.555635
4.959635
5.366675
5.768806
6.161350
6.422033
6.477442
6.355633
6.071334
5.676917
5.193891
4.618048
4.039399
3.526446
3.089244
2.718909
2.357691
1.996006
1.655830
1.304197
0.907209
0.422312
-0.163818
-0.783850
-1.360395
-1.816768
-2.129356
-2.320837
-2.361519
-2.244153
-2.011058
-1.725125
-1.462806
-1.218722
-1.020697
-0.974406
-1.084526
-1.292139
-1.556097
-1.823328
-2.036318
-2.161868
-2.239256
-2.284380
-2.249312
-2.160236
-2.069290
-1.972031
-1.857939
-1.706907
-1.507946
-1.273215
-0.999673
-0.674696
-0.268123
0.218875
0.714057
1.178845
1.605758
1.948504
2.150036
2.165466
1.996429
1.704883
1.369383
1.056795
0.787927
0.544543
0.321500
0.121368
-0.045798
-0.161295
-0.218810
-0.230033
-0.219045
-0.209461
-0.249909
-0.401878
-0.649236
-0.936574
-1.218768
-1.445786
-1.635163
-1.822670
-1.977211
-2.118659
-2.283487
-2.439664
-2.583685
-2.727237
-2.856060
-2.985819
-3.163506
-3.414839
-3.714568
-4.056147
-4.427418
-4.754969
-5.018459
-5.184222
-5.174404
-5.047219
-4.870235
-4.627789
-4.342089
-4.033712
-3.746610
-3.563314
-3.488733
-3.481954
-3.494580
-3.497387
-3.530119
-3.633225
-3.828213
-4.154829
-4.591095
-5.050508
-5.473682
-5.826483
-6.082959
-6.240540
-6.311615
-6.303901
-6.194485
-5.987575
-5.729698
-5.434646
-5.117618
-4.822567
-4.586667
-4.437271
-4.358483
-4.333701
-4.368070
-4.447095
-4.576152
-4.748461
-4.928954
-5.090976
-5.195718
-5.227048
-5.159014
-4.960755
-4.660794
-4.263340
-3.776809
-3.260118
-2.751142
-2.294303
-1.923969
-1.662819
-1.516930
-1.409150
-1.260223
-1.041623
-0.737454
-0.370861
0.011864
0.372613
0.692212
0.978379
1.265715
1.605889
1.986744
2.368300
2.726243
3.005630
3.193134
3.303953
3.335748
3.330136
3.303249
3.237317
3.125795
2.946004
2.725532
2.505995
2.297213
2.137762
2.011277
1.891572
1.816990
1.736329
1.596517
1.455302
1.320868
1.216827
1.255169
1.440803
1.703123
1.987185
2.206252
2.302576
2.239216
1.997001
1.631575
1.171461
0.634661
0.092017
-0.405037
-0.782387
-0.973400
-0.988598
-0.874038
-0.696587
-0.508849
-0.360856
-0.286743
-0.283471
-0.399669
-0.657081
-1.013857
-1.423471
-1.776038
-2.004459
-2.144738
-2.208566
-2.223062
-2.219089
-2.162043
-1.996048
-1.700062
-1.320376
-0.915440
-0.499749
-0.082890
0.327190
0.740542
1.135425
1.451752
1.667078
1.777663
1.788183
1.762464
1.782804
1.922847
2.232628
2.720561
3.386415
4.177350
4.987691
5.730464
6.321502
6.711709
6.911137
6.943400
6.884950
6.846840
6.891260
7.059359
7.356047
7.701131
8.047618
8.396442
8.708093
8.960593
9.150903
9.228990
9.175216
9.048731
8.906815
8.761158
8.621346
8.544660
8.598900
8.762323
8.956374
9.149489
9.328811
9.469088
9.541798
9.491765
9.301219
9.027441
8.715087
8.391277
8.117032
7.910822
7.698533
7.465202
7.266941
7.097437
6.959730
6.867613
6.752349
6.562739
6.308133
6.008170
5.693712
5.361017
5.000501
4.650271
4.340489
4.094300
3.936018
3.848811
3.805323
3.799244
3.826597
3.870550
3.921517
3.980433
4.011293
3.992588
3.949802
3.870310
3.736343
3.549772
3.321819
3.108595
2.919452
2.727503
2.572728
2.483183
2.439228
2.427771
2.420055
2.381244
2.315078
2.239327
2.143703
2.022829
1.922529
1.890264
1.956193
2.153985
2.489249
2.920137
3.371131
3.787522
4.176560
4.519072
4.736736
4.795185
4.742346
4.621471
4.437004
4.217935
4.023415
3.890384
3.826556
3.815099
3.868404
4.037204
4.324774
4.654661
4.914643
5.037151
5.021720
4.888688
4.666813
4.374332
4.040702
3.720165
3.433295
3.199029
3.030928
2.881998
2.709455
2.491087
2.206555
1.835050
1.324670
0.676349
-0.030187
-0.718487
-1.303215
-1.744158
-2.026586
-2.071710
-1.844927
-1.371957
-0.676644
0.140008
0.939126
1.649168
2.248389
2.699149
2.953286
3.049142
3.084444
3.102680
3.136345
3.218875
3.337643
3.473244
3.605105
3.735563
3.907871
4.098414
4.255759
4.388555
4.510362
4.626558
4.745326
4.876018
5.055106
5.315087
5.629778
5.921088
6.132206
6.248402
6.277392
6.222916
6.042658
5.728433
5.341264
4.920194
4.500059
4.105643
3.734839
3.395832
3.061501
2.685320
2.278044
1.892278
1.555609
1.271077
1.086142
1.037511
1.083802
1.193452
1.376514
1.625741
1.899984
2.179371
2.469279
2.711959
2.852704
2.882162
2.773211
2.565598
2.336009
2.093092
1.839421
1.572190
1.281813
0.997281
0.739869
0.513084
0.304303
0.111653
-0.026055
-0.083102
-0.064633
0.015558
0.139002
0.297749
0.493203
0.730974
1.013400
1.336741
1.672940
1.940403
2.085590
2.139129
2.115514
2.001654
1.816719
1.567023
1.230120
0.803907
0.315971
-0.226907
-0.831508
-1.453877
-2.034397
-2.543842
-2.952053
-3.247340
-3.444900
-3.555019
-3.581205
-3.549410
-3.517147
-3.499613
-3.492133
-3.502187
-3.516216
-3.576536
-3.741832
-3.975864
-4.234679
-4.484375
-4.671414
-4.794158
-4.871079
-4.881600
-4.828529
-4.773120
-4.763302
-4.798606
-4.885346
-5.014403
-5.150942
-5.265737
-5.335176
-5.381936
-5.433373
-5.490654
-5.581135
-5.705749
-5.863330
-6.083802
-6.343084
-6.593248
-6.812784
-6.995615
-7.168158
-7.324803
-7.416687
-7.443808
-7.460175
-7.541771
-7.769724
-8.189625
-8.816670
-9.655068
-10.668347
-11.750361
-12.764575
-13.632899
-14.337565
-14.860103
-15.206124
-15.417477
-15.531571
-15.582073
-15.598907
-15.599142
-15.591661
-15.564776
-15.505860
-15.399483
-15.215252
-14.950360
-14.653439
-14.389015
-14.165973
-13.958830
-13.767819
-13.577509
-13.372236
-13.162754
-12.950935
-12.740518
-12.519581
-12.256794
-11.943974
-11.567094
-11.128023
-10.654819
-10.156598
-9.638738
-9.115734
-8.594835
-8.071598
-7.540177
-7.006653
-6.477103
-5.955736
-5.472011
-5.057489
-4.697676
-4.380180
-4.152229
-4.024109
-3.955608
-3.939009
-3.946959
-3.931529
-3.867002
-3.718074
-3.484512
-3.192266
-2.830349
-2.400864
-1.946597
-1.499812
-1.068691
-0.684329
-0.367067
-0.092824
0.151727
0.396980
0.687355
1.015371
1.389914
1.810046
2.217554
2.566612
2.824256
2.975756
3.022047
2.956349
2.815602
2.646098
2.481503
2.366942
2.271785
2.121920
1.901448
1.628606
1.314849
0.982856
0.675412
0.393685
0.108685
-0.148259
-0.332960
-0.426714
-0.397022
-0.249731
-0.046095
0.168998
0.366556
0.512678
0.601988
0.640096
0.605259
0.500049
0.336156
0.106333
-0.158093
-0.416440
-0.620780
-0.708922
-0.686946
-0.617510
-0.539189
-0.444969
-0.307497
-0.116486
0.111465
0.344794
0.592384
0.883461
1.211010
1.552821
1.838286
1.972952
1.926660
1.707824
1.351516
0.919692
0.448355
-0.035138
-0.467664
-0.782590
-0.967992
-1.041639
-1.023872
-0.953032
-0.856942
-0.758047
-0.688844
-0.651438
-0.630397
-0.629696
-0.674119
-0.777458
-0.910022
-1.026688
-1.123247
-1.204376
-1.212092
-1.080699
-0.807859
-0.416483
0.031939
0.456748
0.826380
1.087063
1.191570
1.171462
1.052692
0.874070
0.710645
0.587433
0.498589
0.424942
0.326044
0.200027
0.050162
-0.141553
-0.357349
-0.590680
-0.855807
-1.117427
-1.330885
-1.475138
-1.507403
-1.390038
-1.138941
-0.814665
-0.469114
-0.142266
0.093634
0.208895
0.257758
0.290255
0.329298
0.371381
0.397097
0.412995
0.452973
0.534567
0.629722
0.699860
0.723940
0.675543
0.540875
0.344484
0.116531
-0.106980
-0.279524
-0.368134
-0.364862
-0.279059
-0.120312
0.093378
0.337228
0.590195
0.822589
1.016406
1.171880
1.282465
1.348161
1.379255
1.404504
1.451730
1.523973
1.661912
1.920023
2.281707
2.715400
3.185565
3.635858
4.041495
4.389151
4.622713
4.700333
4.654274
4.541582
4.387275
4.204679
3.996364
3.763034
3.543497
3.382877
3.280239
3.197942
3.106526
3.006460
2.919720
2.849346
2.801884
2.822925
2.919015
3.098336
3.428457
3.919898
4.555124
5.324082
6.149152
6.947335
7.696888
8.387758
8.983472
9.426283
9.665457
9.682757
9.503667
9.173311
8.738681
8.242094
7.714413
7.174106
6.634268
6.119679
5.634782
5.165784
4.738168
4.397758
4.182897
4.088910
4.068335
4.110417
4.204870
4.311949
4.427210
4.545043
4.641132
4.726233
4.819050
4.923089
5.055885
5.226790
5.407514
5.559247
5.644115
5.639905
5.548957
5.369166
5.122743
4.880060
4.684605
4.540117
4.471146
4.496629
4.579626
4.662389
4.725280
4.772973
4.808276
4.860412
4.967490
5.144006
5.403987
5.758891
6.184401
6.619263
6.999416
7.292831
7.462099
7.476360
7.364370
7.133611
6.770289
6.304330
5.732227
5.044628
4.279643
3.492680
2.766739
2.153721
1.650355
1.259679
0.970003
0.764728
0.634736
0.562257
0.522511
0.484869
0.469671
0.520871
0.620936
0.708375
0.722869
0.672836
0.600591
0.483692
0.310915
0.114524
-0.098233
-0.294623
-0.433500
-0.534735
-0.606979
-0.634335
-0.634102
-0.623348
-0.625921
-0.652341
-0.674319
-0.694426
-0.733004
-0.787012
-0.830967
-0.849905
-0.854115
-0.823021
-0.760130
-0.687888
-0.590629
-0.524933
-0.529142
-0.559537
-0.642770
-0.803156
-1.021523
-1.297405
-1.590354
-1.855247
-2.056080
-2.149834
-2.146328
-2.072916
-1.941991
-1.794933
-1.660267
-1.528173
-1.417354
-1.334824
-1.253931
-1.199458
-1.180287
-1.173508
-1.215593
-1.307242
-1.429519
-1.598789
-1.783022
-1.952293
-2.101690
-2.232384
-2.336658
-2.353960
-2.262079
-2.090473
-1.872808
-1.662392
-1.473718
-1.345131
-1.352146
-1.479566
-1.695128
-1.974283
-2.246658
-2.467831
-2.622840
-2.699059
-2.690877
-2.588475
-2.410790
-2.181435
-1.902516
-1.592502
-1.270097
-0.943249
-0.651237
-0.435210
-0.300076
-0.266410
-0.340057
-0.474725
-0.669947
-0.965701
-1.359885
-1.841975
-2.386958
-2.926095
-3.395795
-3.765897
-4.032193
-4.187202
-4.204971
-4.078956
-3.820844
-3.431339
-2.911609
-2.290177
-1.615906
-0.935791
-0.304072
0.220101
0.623166
0.921491
1.125595
1.264002
1.370378
1.467170
1.552037
1.604640
1.618433
1.570036
1.426952
1.189880
0.865135
0.485681
0.096875
-0.276266
-0.610364
-0.906586
-1.165167
-1.370208
-1.546492
-1.718100
-1.878018
-2.030221
-2.184061
-2.334393
-2.458307
-2.534058
-2.536163
-2.441944
-2.258180
-1.999368
-1.706421
-1.446907
-1.269690
-1.232283
-1.344273
-1.543937
-1.808596
-2.132173
-2.491052
-2.882430
-3.265625
-3.577277
-3.796814
-3.924702
-3.958136
-3.887063
-3.697220
-3.375984
-2.949071
-2.477970
-1.982789
-1.470306
-0.958057
-0.424533
0.124890
0.668701
1.224202
1.791160
2.341050
2.825945
3.213112
3.512138
3.718813
3.814669
3.789184
3.641190
3.368581
2.972995
2.503997
2.025179
1.582600
1.223720
0.951813
0.733445
0.556226
0.386722
0.187526
-0.031543
-0.262068
-0.501244
-0.705350
-0.838849
-0.924420
-1.006717
-1.097198
-1.174352
-1.225087
-1.241454
-1.230466
-1.220648
-1.231403
-1.277696
-1.361397
-1.461463
-1.551710
-1.607822
-1.638684
-1.667910
-1.677730
-1.641726
-1.553352
-1.405359
-1.197514
-0.935429
-0.595021
-0.156184
0.336659
0.823190
1.284705
1.696655
2.026074
2.258702
2.385185
2.389392
2.265713
2.026537
1.691037
1.281891
0.826453
0.354181
-0.088164
-0.472995
-0.824861
-1.164102
-1.499368
-1.845389
-2.217362
-2.632586
-3.072828
-3.486182
-3.827293
-4.056182
-4.142688
-4.098969
-3.979733
-3.831039
-3.703620
-3.679073
-3.789894
-4.022757
-4.387248
-4.879626
