EVENT_NAME: 202302060117
EVENT_ID: 13194
EVENT_DATE_YYYYMMDD: 2023/02/06
EVENT_TIME_HHMMSS: 01:17:32.00000
EVENT_LATITUDE_DEGREE: 37.288
EVENT_LONGITUDE_DEGREE: 37.043
EVENT_DEPTH_KM: 8.6
HYPOCENTER_REFERENCE: AFAD
MAGNITUDE_W: 7.7
MAGNITUDE_W_REFERENCE: AFAD
MAGNITUDE_L: 
MAGNITUDE_L_REFERENCE: 
FOCAL_MECHANISM: 
NETWORK: TK
STATION_CODE: 4613
STATION_NAME: 
STATION_LATITUDE_DEGREE: 37.5701
STATION_LONGITUDE_DEGREE: 36.35737
STATION_ELEVATION_M: 965.0
LOCATION: Kahramanmaras_Pazarck_Turkiye
SENSOR_DEPTH_M: 
VS30_M/S: None
SITE_CLASSIFICATION_EC8: unknown
MORPHOLOGIC_CLASSIFICATION: 
EPICENTRAL_DISTANCE_KM: 68.19
EARTHQUAKE_BACKAZIMUTH_DEGREE: 
DATE_TIME_FIRST_SAMPLE_YYYYMMDD_HHMMSS: 2023/02/06 01:17:18.8412820
DATE_TIME_FIRST_SAMPLE_PRECISION: millisecond
SAMPLING_INTERVAL_S: 0.01
NDATA: 10501
DURATION_S: 
STREAM: HNE
UNITS: cm/s^2
INSTRUMENT: sensor = GMS+/GEOSIG | digitizer = 
INSTRUMENT_ANALOG/DIGITAL: 
INSTRUMENTAL_FREQUENCY_HZ: 
INSTRUMENTAL_DAMPING: 
FULL_SCALE_G: 
N_BIT_DIGITAL_CONVERTER: 
PGA_CM/S^2: 153.520
TIME_PGA_S: 
BASELINE_CORRECTION: BASELINE REMOVED
FILTER_TYPE: BUTTERWORTH
FILTER_ORDER: 
LOW_CUT_FREQUENCY_HZ: 
HIGH_CUT_FREQUENCY_HZ: 
LATE/NORMAL_TRIGGERED: 
DATABASE_VERSION: 
HEADER_FORMAT: DYNA 1.2
DATA_TYPE: Acceleration
PROCESSING: Automatic Paolucci et al., 2011
DATA_TIMESTAMP_YYYYMMDD_HHMMSS: 
DATA_LICENSE: U (unknown license)
DATA_CITATION: Turkish Accelerometric Archive v 1.0 - Disaster And Emergency Management Presidency, Earthquake Department
DATA_CREATOR: AFAD
ORIGINAL_DATA_MEDIATOR_CITATION: : AFAD - Disaster And Emergency Management Presidency
ORIGINAL_DATA_MEDIATOR: AFAD PROCESS SERVICE
ORIGINAL_DATA_CREATOR_CITATION: AFAD PROCESS SERVICE
ORIGINAL_DATA_CREATOR: network: TK
USER1: GuestUser
USER2: 
USER3: 
USER4: 
USER5: 
[...]
-31.773101
-45.006462
-40.414808
-23.666535
0.098589
19.619365
25.019937
17.370027
-8.018655
-38.903246
-52.287013
-45.023127
-20.324397
5.316771
22.962283
44.233375
53.453314
35.228512
9.189372
-14.308979
-38.996807
-56.409314
-55.597024
-35.780632
-7.847272
21.379993
52.919711
78.714142
82.230876
48.458964
-10.952561
-60.753194
-79.469476
-65.086650
-24.404140
18.544066
38.824664
36.205160
7.933054
-28.458877
-41.619244
-40.018818
-27.905843
-9.264382
6.136995
21.378354
31.050809
33.718102
40.841454
54.584732
53.933230
45.869770
32.657449
0.185156
-22.697025
-34.280860
-50.256591
-60.605489
-54.221437
-21.988398
18.052486
40.748145
38.185791
12.421484
-10.416017
-12.980969
-6.432743
4.925345
17.155475
17.562268
15.658425
27.028463
39.271321
39.274694
17.265073
-17.460967
-35.385477
-32.430880
-13.757467
3.769590
10.865666
13.650634
0.093342
-19.525894
-32.477926
-36.325873
-18.900125
1.262018
10.986946
24.629434
33.519727
24.005723
16.066692
26.470393
43.069819
53.877200
46.612267
18.885674
-7.527013
-22.824231
-28.462757
-15.194335
7.020234
15.980145
21.362793
33.327180
45.757330
55.064811
49.118460
29.676905
13.449199
2.554528
-7.495118
-11.269290
-8.066355
-11.459188
-22.725587
-34.767912
-45.163828
-56.183448
-63.966878
-52.834008
-36.435123
-39.023974
-52.571395
-62.667539
-61.568724
-43.667341
-19.207857
1.255876
23.187039
32.621286
21.702198
14.031507
18.416385
27.424353
35.353765
41.202436
46.500399
49.540459
50.307290
52.210086
46.347899
25.300199
-4.223468
-22.407487
-7.097808
19.621656
28.843673
22.022164
5.590020
-0.054221
14.304187
26.174019
30.454730
34.673357
21.404148
-6.944849
-20.692811
-22.449885
-27.286768
-21.632923
-6.313893
-3.848699
-17.848636
-33.547974
-39.999834
-48.405408
-48.738954
-31.958730
-31.723644
-44.061585
-43.956643
-36.788611
-23.083778
2.526477
22.340012
16.523544
3.311744
-1.076779
2.150833
19.637886
44.275571
60.754724
70.921777
72.361926
57.616976
39.816634
21.621186
5.052924
3.744469
14.519119
30.355087
41.752401
39.281744
18.789688
0.861021
5.614511
8.496632
-5.991668
-27.280952
-48.157465
-68.874481
-81.199953
-72.857770
-58.574695
-48.696504
-31.136456
-8.369620
5.535234
18.296329
29.726114
17.891083
-8.324960
-28.375151
-34.724922
-28.747926
-18.372539
-3.009868
18.098610
44.375949
66.563243
70.697965
57.557861
40.230037
24.480304
10.351523
12.758009
31.757950
34.628122
5.951818
-25.780657
-36.359709
-34.184417
-21.812973
2.377911
19.624678
20.977026
8.546867
-15.208913
-33.912208
-44.235649
-51.607607
-43.503371
-18.632674
5.361565
26.013371
47.716977
52.946361
33.987455
15.538213
6.340347
-4.483148
-7.464508
3.039723
18.331478
33.795199
49.262816
61.238633
47.975138
19.514961
5.027699
-11.639274
-33.171961
-37.712189
-28.309113
-18.547818
-2.985126
24.478314
34.930073
14.397493
-9.866654
-28.622681
-58.525870
-82.561680
-64.988644
-17.477614
27.562763
45.341535
41.640618
32.552373
10.093094
-16.091776
-36.120926
-44.657683
-40.994180
-35.872860
-26.393153
-13.564778
-1.461155
9.950705
17.989480
15.085010
-2.463096
-18.269459
-20.914939
-22.382372
-24.950442
-20.544782
-15.210711
-10.563207
-3.298282
1.405332
1.847453
2.174757
6.552362
11.174149
15.682936
20.039500
14.676587
-0.551791
-21.080475
-28.275531
-13.020664
4.822271
12.044075
-7.571524
-36.630986
-33.159192
-9.067020
18.349922
46.067415
53.220381
31.997077
-7.887434
-47.217600
-72.233515
-77.976988
-55.841647
-22.051040
3.682086
25.514537
35.000998
32.742831
36.505046
30.040977
14.134864
8.050316
4.969984
8.517890
6.258684
-9.972659
-20.909931
-24.539153
-24.449797
-18.105229
-9.956053
-7.133159
-1.316960
7.268366
8.688514
17.582703
35.751647
39.315140
34.930253
27.762473
8.589258
-7.085142
-21.356276
-30.236447
-11.533940
21.540488
38.574505
18.632897
-23.942290
-54.987418
-68.339234
-56.184437
-12.022855
35.524023
67.913962
76.467336
53.839468
16.281438
-19.626805
-40.665154
-40.953240
-23.434496
4.730838
32.013479
45.248911
34.652713
5.700016
-30.748805
-53.817499
-50.573002
-34.737813
-17.226082
1.604491
15.644164
21.548944
31.236725
41.131801
37.211899
18.134279
-13.893032
-30.436096
-15.712714
5.710343
29.048668
49.915821
52.018119
34.577557
5.938659
-21.008371
-37.548578
-33.144736
-4.473115
26.978022
34.091503
10.178303
-31.820200
-69.267049
-81.738251
-74.097701
-53.918932
-24.745700
-13.150443
-16.625363
-12.008771
-3.033274
8.834739
14.413252
22.940649
48.135017
59.899902
55.951685
49.376955
26.140970
0.749171
-3.924058
-5.328367
-18.171038
-33.271091
-46.444706
-59.150738
-61.013538
-45.753475
-25.703292
-7.437455
5.900585
6.171779
-8.813458
-21.474550
-20.869035
-19.200550
-7.011983
4.604835
-13.816871
-40.037850
-56.049948
-69.334224
-73.947447
-64.160954
-50.894091
-37.466431
-18.134246
-2.980948
8.944993
22.488509
28.279512
28.052471
27.816338
23.362353
13.056836
7.320896
10.751907
14.894422
14.400080
9.135099
-9.923298
-37.640020
-44.768315
-27.381013
-11.429708
-9.545615
-10.819781
-4.932145
8.187690
10.828487
-12.565957
-36.813998
-31.032347
-6.534937
13.371854
32.741965
52.953724
61.157191
53.798481
35.187404
11.448509
-11.688764
-23.806422
-24.055804
-22.669166
-18.356244
-8.693920
3.005764
9.169793
7.281016
5.951780
4.660989
0.248307
-3.900450
-6.111859
-4.196854
8.902200
28.979399
27.237131
1.290468
-16.074502
-17.179819
-5.087885
13.772301
22.509071
24.967511
27.418158
23.430716
5.495036
-21.418743
-45.230634
-60.041566
-53.879615
-27.765929
1.463673
22.542278
28.682149
24.923043
18.162838
13.684955
14.765066
11.187798
2.245803
-11.118741
-33.619583
-49.718444
-46.001169
-23.168872
10.559651
31.484473
24.863764
3.507200
-12.297085
-15.447554
-5.604432
11.412182
24.001311
32.190231
34.477483
24.753327
3.395724
-26.584096
-41.674279
-20.694127
5.001593
8.845894
9.111113
9.399971
3.598830
3.117996
11.677345
13.147108
4.449554
0.831503
-4.123055
-14.916156
-30.891108
-48.650406
-35.983867
0.311683
20.592800
19.177320
10.167526
-1.539959
-20.316248
-32.880967
-42.106628
-53.941139
-45.895352
-23.248009
-4.039733
12.026389
24.452644
23.631253
13.798254
3.307003
-7.714954
-12.014117
-17.960728
-14.680123
12.838388
37.810134
44.267181
33.992317
12.883052
-4.971321
-10.936376
-11.391753
-14.266089
-19.766679
-28.980391
-35.692539
-28.124724
-7.145610
13.867013
24.053289
28.038904
36.222369
37.367681
20.838645
-0.811717
-19.811666
-32.496398
-29.150851
-17.580532
-8.970008
0.932081
4.363092
9.626765
33.896359
59.856262
71.705053
69.096199
52.468191
22.065728
-10.901942
-28.075204
-19.721071
0.109608
3.985082
-5.308899
-20.736001
-42.461955
-50.604124
-37.972653
-13.991402
10.162595
17.294779
9.879699
9.577585
21.742773
36.218596
42.410680
30.206519
5.575581
-8.768808
-2.692061
13.479268
32.118132
46.996595
45.516953
34.320172
23.989198
9.318541
-6.447038
-13.873028
-19.683780
-34.599918
-47.055275
-37.798709
-9.178002
20.410599
42.223827
45.944999
32.619420
24.691039
21.440819
25.484103
37.869574
42.619426
41.201609
32.265069
19.185750
14.236387
22.235157
31.425742
27.229447
25.146884
36.204421
45.974289
41.603430
22.339296
-13.105521
-55.721752
-80.663373
-85.987580
-85.546758
-82.692952
-70.051090
-41.932255
-10.909735
8.120340
12.803172
6.093882
-4.822869
-10.168637
-10.898069
-13.225074
-13.995290
-14.474566
-14.739274
-7.169121
-1.639445
-0.224233
6.432056
5.821078
-3.953733
-16.131398
-34.161893
-51.228390
-64.166655
-64.885697
-37.983875
-5.074660
9.553647
16.093561
25.175303
39.916349
49.371378
39.573188
23.033500
18.909421
25.377638
22.644356
10.710094
6.563415
8.697145
10.639166
8.042262
1.475844
2.285277
14.675424
26.660332
35.146946
41.349941
35.525160
24.518010
13.682307
8.571109
19.335109
38.746523
56.638554
54.016193
27.534148
0.819870
-11.079063
-13.580632
-11.490544
0.610481
11.827256
9.345430
-5.316396
-27.159505
-42.409964
-39.341849
-25.454920
-5.693079
20.226820
38.277050
41.296848
38.620455
41.542581
49.585251
54.995174
56.487797
56.930697
61.501569
66.607304
60.294160
44.389345
28.155924
17.484394
12.519966
-6.318928
-41.441114
-73.723257
-99.723432
-99.794613
-61.149462
-3.053409
50.106274
72.543465
64.838744
36.313884
-3.456849
-33.952308
-49.982331
-45.006480
-26.082910
-10.547754
6.203637
14.156168
10.570328
16.762931
29.466618
34.849005
29.653123
11.551971
-13.184953
-26.617037
-29.103800
-23.635429
-0.976656
27.757828
52.634759
58.458492
28.583099
-15.473545
-49.143888
-70.229773
-80.718167
-78.290380
-61.762910
-34.456629
-5.267291
17.413042
34.777745
44.037948
33.946999
15.953391
3.054091
-12.464189
-17.768654
-17.861136
-37.998868
-59.906660
-61.952596
-52.319626
-36.491451
-6.574503
29.804172
54.121563
67.160091
66.102831
49.240512
24.781280
-10.599895
-38.112699
-48.237157
-56.149952
-53.167561
-40.885477
-28.914336
-20.231078
-14.366561
-0.292859
23.977774
49.923390
66.758685
68.880466
53.794180
24.494692
-11.176903
-42.585187
-64.293996
-70.379583
-50.332777
-19.110755
9.887134
28.635621
21.238205
-4.947444
-24.154429
-25.761097
-22.412173
-23.919351
-30.537202
-36.511089
-35.180302
-18.163949
7.088866
17.304236
9.465475
-7.712462
-18.525046
-11.525084
6.162510
23.099115
37.702484
50.602296
49.561402
29.704478
1.145329
-24.915373
-44.494345
-47.634164
-19.397914
17.385220
41.588573
61.183383
62.375713
44.281055
32.518760
31.122763
18.184238
-12.866865
-50.147462
-83.898074
-84.665692
-54.895512
-27.392588
-2.605796
15.749921
8.137158
-17.958352
-31.995955
-33.876419
-32.779942
-20.397069
-7.716762
-2.223973
6.152759
20.368555
26.029673
13.860321
5.433965
-6.305730
-27.414476
-20.060450
11.185990
40.920841
59.274220
59.363057
46.359071
27.121694
14.972084
10.454716
12.610266
20.963879
8.406174
-31.108428
-66.466483
-78.282550
-75.098579
-60.265834
-39.722612
-24.041725
-1.043436
28.372160
43.651966
40.795034
29.929197
5.564781
-34.497152
-59.920123
-45.091275
-4.143542
32.353328
53.273474
48.040705
24.530405
4.407998
-17.380040
-25.833412
-16.292660
-12.116115
-14.236345
-25.939154
-42.834723
-44.636218
-29.490453
-9.375068
7.318654
9.194954
5.104904
10.176349
2.090808
-10.592105
1.000814
25.224689
45.560357
60.215680
74.171448
78.047701
66.890664
52.901378
30.636406
-7.328420
-44.922817
-70.237725
-81.886762
-72.957244
-46.373118
-16.367329
3.886253
11.855149
2.292049
-34.889837
-80.153362
-109.030727
-112.337317
-78.542554
-13.506021
50.443902
73.384003
43.406002
-7.684118
-44.275292
-55.825617
-49.805239
-27.213227
13.385118
52.637346
65.085681
43.928359
9.330645
-25.211999
-53.299150
-55.573162
-45.779396
-41.177092
-26.849596
-17.598485
-32.642169
-48.250588
-52.840432
-55.292905
-42.310747
-9.576875
21.624106
40.129449
46.603901
44.181041
30.418013
16.865137
19.470866
21.194681
14.222247
4.744350
-5.941987
-12.731025
-16.117364
-15.586402
-21.194796
-38.366758
-51.608952
-57.201240
-62.984197
-71.279370
-69.910917
-55.443406
-38.326262
-21.620331
-11.342358
-0.446136
6.344193
-3.425942
-9.963785
-13.842644
-15.664920
0.388993
20.185383
35.805484
51.947459
59.416822
57.037863
57.426992
59.500196
46.847156
18.512966
-5.497128
-14.016221
-16.478565
-17.455296
-11.012277
2.061060
14.915931
20.252859
17.783761
20.694976
25.124535
12.936739
2.858519
5.813635
11.923373
23.512395
19.460012
0.221335
-9.218375
-10.134581
-7.669906
-7.877465
-5.061585
5.071958
12.251160
16.761247
16.987501
8.471785
-4.010588
-4.169829
7.530374
7.994835
-2.657732
-15.416757
-21.040477
-6.856373
14.229764
28.230732
31.468995
19.895810
7.212638
3.604977
8.176888
23.383439
40.474346
56.844137
62.219510
34.845682
-0.110252
-9.614905
0.310564
23.375354
47.098396
47.815351
37.366702
35.945508
39.022455
33.990486
13.783395
-1.481871
-6.473835
-8.659526
-5.772729
-8.303132
-14.784086
-27.375561
-48.547430
-59.219999
-55.724047
-56.791177
-66.245954
-69.174842
-54.541339
-20.074296
23.114975
58.896963
80.004142
86.340397
73.615661
48.046701
27.096154
17.830228
21.691415
27.466571
26.945473
26.134733
21.555540
6.457565
-21.470868
-60.709596
-95.155606
-102.885524
-83.863503
-58.212983
-30.028946
2.247214
23.911595
32.109607
29.277873
24.314223
33.535721
48.632909
53.145074
42.318982
26.092575
5.445437
-13.402289
-3.989862
23.446043
46.421473
54.414008
38.324759
7.625901
-18.025146
-27.751641
-31.517241
-30.139955
-20.026934
-6.344442
10.749322
21.200302
25.935867
32.834779
44.620966
58.230463
47.559452
4.902178
-35.490439
-38.891065
-11.882478
11.149061
12.029671
-3.708892
-25.424196
-41.309268
-41.026385
-25.915689
8.543561
55.569864
87.249597
94.917423
74.270025
26.790160
-17.437931
-28.815770
-0.978524
40.860214
65.109026
68.009850
65.172141
51.762138
17.971263
-15.887932
-51.986845
-95.045720
-121.863645
-121.949892
-94.332409
-56.576704
-30.015438
-4.905495
29.657143
55.520412
63.789081
67.553114
65.259619
59.052721
56.738444
54.800312
51.960265
47.205469
43.444285
34.560478
27.468030
41.193904
54.461546
50.174073
21.434904
-42.424108
-112.061658
-150.190657
-153.520107
-132.974027
-92.317753
-45.241575
-9.774165
18.206473
42.640759
59.594249
67.275323
62.962392
47.929099
26.230420
6.680802
-4.193867
-8.714092
-3.936445
9.942172
18.950920
26.516397
45.004595
56.383206
51.169140
41.624483
32.848220
20.118808
-3.807120
-22.118685
-30.790521
-35.066045
-26.687235
-23.513135
-24.140998
-6.091807
21.409040
36.174504
34.095578
17.624469
-17.561880
-60.102258
-86.722759
-85.612515
-62.450312
-25.237522
8.295136
14.285120
3.283945
-16.197614
-54.123475
-84.857402
-82.258168
-51.576463
-1.635824
43.295191
65.939417
63.580460
34.239150
2.278859
-17.811596
-21.752539
7.686955
56.719705
83.375267
62.908668
6.250423
-57.195818
-99.117430
-103.840274
-69.795094
-15.598158
25.407764
42.203314
40.856414
32.610597
26.750488
9.567615
-13.211698
-7.581492
22.364550
55.257920
92.071706
111.316089
80.984543
11.475059
-65.468204
-119.718660
-141.560731
-142.764499
-123.063184
-90.590639
-61.392988
-41.162526
-32.329642
-23.472858
-4.160676
20.554420
41.341565
50.331349
44.367593
29.387552
14.852754
20.602453
49.010669
76.627892
94.227165
84.131800
44.943726
-2.039463
-48.612998
-86.140115
-109.844981
-113.955033
-94.522578
-57.672424
-20.418071
11.054627
33.373363
39.882105
42.811503
44.707286
39.306187
25.890209
8.974897
-8.755307
-20.452660
-22.648483
-23.287775
-18.635596
-4.813868
24.611340
58.724839
72.445776
60.284737
25.228272
-16.474874
-55.063403
-77.357989
-70.306852
-51.198068
-22.756862
10.691372
30.630114
34.990575
35.963662
39.010735
27.534444
13.690888
12.071491
8.213154
3.060653
-9.673694
-36.685146
-60.698357
-74.587892
-86.468901
-85.752465
-55.838115
-7.449329
34.785294
57.281452
64.295182
56.354852
32.082393
3.519347
-18.974740
-25.158000
-17.106238
-6.739164
4.404097
5.280030
-2.512232
-1.345878
3.105501
1.723532
0.637958
6.283750
2.569324
-20.544830
-40.844398
-46.323946
-35.352392
-12.615949
2.637360
6.950802
10.695872
7.586446
-1.197351
1.080031
8.547316
21.690270
40.088329
50.426309
53.869789
40.891260
14.867185
-10.125870
-30.716638
-37.695827
-26.340595
6.413018
41.567148
51.611330
35.611441
-1.682405
-45.794120
-80.727714
-97.848762
-79.758788
-34.672951
6.946802
29.945870
32.723305
19.765817
-4.807713
-21.220893
-20.157667
-19.041448
-10.025687
14.409379
33.815857
36.818510
26.016577
15.654690
14.748096
16.826495
26.195021
44.795440
56.299258
45.744624
20.074094
-2.947583
-19.373751
-29.848118
-34.691235
-37.272812
-45.871394
-64.985122
-80.056861
-74.031029
-48.346479
-14.281557
19.795835
35.772857
33.806669
34.878468
34.259437
37.602906
49.637170
52.426035
50.387372
49.768081
43.971616
23.683997
-7.626614
-36.082895
-56.640413
-58.216949
-45.420265
-29.521174
-6.337670
13.272726
16.513847
12.969569
16.361615
13.034503
3.581025
15.499693
40.178940
57.848870
62.860829
47.538933
14.273309
-21.566616
-45.405522
-47.445224
-37.259988
-28.273320
-12.671143
1.465683
3.547199
4.825773
11.245933
17.752077
21.273227
27.859119
38.508561
47.731617
53.884996
49.638306
31.615863
17.001316
15.713122
16.743878
9.367244
-0.503162
-12.553280
-39.072732
-57.878894
-55.053662
-51.314307
-51.783712
-58.404161
-62.725405
-51.829183
-28.781538
6.407400
44.145961
65.024284
57.916250
34.178913
10.412742
-12.392808
-20.815007
-9.868131
2.606700
8.342891
3.135060
-15.022462
-38.833054
-53.132762
-40.702352
-5.211044
29.802551
52.601858
57.232737
39.892964
17.987771
-1.430665
-21.010936
-25.384133
-15.947028
-2.767187
16.095077
24.587406
15.251603
5.659409
2.448673
2.010701
5.533929
10.812669
14.945313
23.563369
30.173680
23.981068
8.566695
-9.421718
-20.508357
-22.535070
-26.909306
-32.215849
-27.707062
-20.206007
-13.683758
3.615743
26.462847
38.642582
43.203063
43.935865
38.714785
29.562898
9.310347
-17.037398
-25.208662
-12.515366
8.769235
25.970543
28.848508
26.932196
24.734036
18.076440
14.465921
19.567759
27.107519
28.808735
26.381460
18.767918
0.418427
-19.589162
-32.575744
-32.833957
-9.910481
18.031971
33.276448
36.819419
20.554046
-8.801811
-42.697892
-72.197921
-79.721583
-62.308564
-32.404864
-8.622076
5.120942
-1.859805
-34.112335
-59.674022
-63.180114
-47.316610
-19.805373
-1.630974
6.560804
10.680979
8.628029
9.975441
14.866348
10.074665
-3.619785
-13.239255
-18.116921
-26.078292
-35.156406
-35.520604
-15.959564
18.773741
50.850140
65.495592
56.532555
32.598834
9.639761
-7.721053
-21.502264
-22.737984
-16.656562
-15.911551
-15.277202
-12.548863
-6.887485
1.553150
7.944736
4.425136
-11.956093
-24.394045
-27.868185
-32.025775
-35.903854
-23.936869
10.449646
40.989777
61.381296
75.161720
65.892158
44.890696
31.230796
24.809849
22.301525
24.415773
30.862949
31.631858
20.787842
-1.204634
-26.654102
-39.934741
-33.754606
-13.622076
2.124791
5.583597
4.448667
-0.257292
-7.901747
-16.062360
-22.272636
-18.490679
-2.551583
7.854457
3.959492
0.813439
-0.795567
-7.919447
-10.018116
0.054901
14.988955
20.205350
11.655345
0.767428
-7.414226
-10.227777
-11.029165
-18.960922
-32.573285
-41.434752
-36.996102
-26.650588
-15.933087
-2.488803
11.498657
21.778189
18.571350
-4.232641
-36.924438
-61.316650
-66.733854
-57.384551
-40.402746
-21.426184
-13.343509
-19.865766
-30.312077
-37.877043
-37.492850
-26.516360
-16.337878
-9.758480
7.660774
23.686632
20.732548
9.324316
-0.104485
-4.927600
-4.216099
6.181627
22.804952
37.819274
40.201602
16.844305
-9.785547
-20.565401
-26.822694
-24.835214
-13.803913
-11.283129
-20.871427
-31.102910
-33.787096
-25.815342
-8.124631
9.782207
16.559548
11.084935
0.586930
-7.457827
-9.683782
-4.694424
3.598923
11.764983
