EVENT_NAME: 202302060117
EVENT_ID: 13194
EVENT_DATE_YYYYMMDD: 2023/02/06
EVENT_TIME_HHMMSS: 01:17:32.00000
EVENT_LATITUDE_DEGREE: 37.288
EVENT_LONGITUDE_DEGREE: 37.043
EVENT_DEPTH_KM: 8.6
HYPOCENTER_REFERENCE: AFAD
MAGNITUDE_W: 7.7
MAGNITUDE_W_REFERENCE: AFAD
MAGNITUDE_L: 
MAGNITUDE_L_REFERENCE: 
FOCAL_MECHANISM: 
NETWORK: TK
STATION_CODE: 2107
STATION_NAME: 
STATION_LATITUDE_DEGREE: 38.14594
STATION_LONGITUDE_DEGREE: 39.48379
STATION_ELEVATION_M: 714.0
LOCATION: Kahramanmaras_Pazarck_Turkiye
SENSOR_DEPTH_M: 
VS30_M/S: None
SITE_CLASSIFICATION_EC8: unknown
MORPHOLOGIC_CLASSIFICATION: 
EPICENTRAL_DISTANCE_KM: 234.92
EARTHQUAKE_BACKAZIMUTH_DEGREE: 
DATE_TIME_FIRST_SAMPLE_YYYYMMDD_HHMMSS: 2023/02/06 01:17:52.5013950
DATE_TIME_FIRST_SAMPLE_PRECISION: millisecond
SAMPLING_INTERVAL_S: 0.01
NDATA: 14501
DURATION_S: 
STREAM: HNN
UNITS: cm/s^2
INSTRUMENT: sensor = CMG-5T/GURALP | digitizer = 
INSTRUMENT_ANALOG/DIGITAL: 
INSTRUMENTAL_FREQUENCY_HZ: 
INSTRUMENTAL_DAMPING: 
FULL_SCALE_G: 
N_BIT_DIGITAL_CONVERTER: 
PGA_CM/S^2: 74.757
TIME_PGA_S: 
BASELINE_CORRECTION: BASELINE REMOVED
FILTER_TYPE: BUTTERWORTH
FILTER_ORDER: 
LOW_CUT_FREQUENCY_HZ: 
HIGH_CUT_FREQUENCY_HZ: 
LATE/NORMAL_TRIGGERED: 
DATABASE_VERSION: 
HEADER_FORMAT: DYNA 1.2
DATA_TYPE: Acceleration
PROCESSING: Automatic Paolucci et al., 2011
DATA_TIMESTAMP_YYYYMMDD_HHMMSS: 
DATA_LICENSE: U (unknown license)
DATA_CITATION: Turkish Accelerometric Archive v 1.0 - Disaster And Emergency Management Presidency, Earthquake Department
DATA_CREATOR: AFAD
ORIGINAL_DATA_MEDIATOR_CITATION: : AFAD - Disaster And Emergency Management Presidency
ORIGINAL_DATA_MEDIATOR: AFAD PROCESS SERVICE
ORIGINAL_DATA_CREATOR_CITATION: AFAD PROCESS SERVICE
ORIGINAL_DATA_CREATOR: network: TK
USER1: GuestUser
USER2: 
USER3: 
USER4: 
USER5: 
[...]
9.986840
8.359695
6.407439
4.878239
5.077600
7.942314
13.373803
19.791372
24.252264
24.616235
20.698139
14.190519
7.347675
1.218563
-3.286252
-5.760142
-7.021417
-7.819825
-8.395172
-8.966097
-8.736088
-7.189833
-5.668538
-5.922564
-7.986351
-10.279202
-11.707614
-12.500651
-13.194163
-13.635864
-13.450721
-12.316148
-9.792344
-5.893843
-2.509392
-1.086357
-1.863281
-3.943497
-5.393709
-5.779487
-6.294172
-8.048329
-11.130106
-14.643470
-16.761916
-16.154980
-13.386631
-9.992386
-7.473637
-6.220583
-5.922330
-6.087890
-6.603839
-7.144432
-6.938436
-5.722348
-4.327749
-3.488905
-3.234569
-2.942634
-2.118008
-0.183767
3.442386
8.187948
12.544893
15.923341
18.526764
20.970633
22.789236
22.535842
20.345043
17.917598
16.387134
15.104059
12.933797
9.220436
4.082774
-1.549034
-6.009616
-8.484453
-9.027574
-8.504680
-8.228859
-8.556186
-8.403901
-6.651015
-4.007150
-1.931679
-1.683661
-3.138297
-4.693089
-5.174284
-4.652338
-4.010331
-3.740828
-3.858049
-4.469415
-5.953750
-8.703464
-12.305294
-14.781080
-14.960858
-13.490115
-11.570723
-9.880711
-8.428292
-6.533545
-4.303574
-2.412934
-0.753568
0.830917
1.719049
1.173716
-0.624357
-2.914680
-4.711489
-5.573087
-5.699786
-5.902313
-7.088391
-9.247911
-11.048828
-11.003334
-8.686477
-4.784501
-0.686635
2.885490
5.250687
5.200132
2.693068
-0.595657
-2.916943
-4.012028
-4.211395
-3.694820
-2.888835
-2.311282
-1.130581
1.620075
5.691717
10.642963
15.619169
19.059227
20.493004
20.798525
20.657292
19.410867
16.496859
12.573708
8.150408
3.641170
-1.065221
-6.112522
-11.397733
-16.822277
-21.587119
-24.356422
-25.221811
-25.752610
-26.461288
-25.711542
-21.506886
-13.771806
-4.819688
2.628193
7.377231
9.315896
9.162973
8.077051
6.728258
4.717235
1.512553
-2.358467
-5.350514
-6.288572
-5.182119
-3.285159
-2.206194
-2.509825
-3.656725
-5.033953
-5.669963
-4.704108
-1.652036
3.072042
7.686486
10.303811
11.162243
11.787189
13.258248
15.635135
17.594653
18.387684
18.058461
16.787708
14.481271
10.839315
6.538604
3.445769
1.681502
-0.466959
-4.563251
-10.408957
-15.799695
-18.933920
-20.030269
-19.838806
-18.418299
-15.186136
-9.710729
-3.751287
-0.041724
0.675795
-0.577265
-2.127002
-2.809772
-2.994290
-3.741830
-5.391723
-7.564196
-9.411242
-10.196696
-9.824826
-8.161353
-5.271996
-1.758953
1.517759
4.318019
7.172306
10.426902
12.866347
13.500139
12.513741
10.626254
8.231984
5.041520
1.742369
-0.510988
-2.073678
-3.833837
-6.083403
-8.362667
-9.332004
-8.147196
-5.306494
-1.893608
0.739515
1.803631
1.533174
0.348992
-1.450661
-3.443359
-4.842072
-4.762140
-3.356166
-2.090159
-2.668982
-5.809525
-10.154786
-12.699448
-11.490627
-7.205403
-1.673126
3.474957
7.401262
10.017955
11.723133
12.731325
13.215989
13.190394
12.499725
11.825485
11.871927
11.911734
11.589778
11.604308
12.032733
12.022620
10.696576
8.683341
6.838191
4.943437
2.828782
0.525821
-1.837486
-3.786267
-5.289243
-7.107853
-9.384274
-11.721674
-13.781037
-15.387013
-16.661873
-18.142733
-20.012211
-22.106329
-23.330637
-22.325604
-18.640053
-13.042058
-7.207732
-2.705451
-0.277696
0.680261
0.601270
-0.219570
-1.263787
-1.348465
0.557657
4.228675
8.793198
13.225023
17.000620
19.685558
20.260899
18.355719
15.043299
11.434833
8.030155
5.180601
2.965159
1.698197
1.786344
3.157247
5.645980
8.754607
11.183310
11.911255
11.088835
9.333415
7.134086
4.474102
0.896915
-3.596841
-8.280168
-12.317061
-15.614948
-18.100212
-18.747596
-16.824413
-13.330327
-10.117121
-8.412575
-8.165821
-7.635344
-4.966836
0.066241
6.172916
11.221790
14.634045
17.487384
20.472159
22.544154
21.309419
16.103196
8.937452
1.462393
-6.516289
-14.827351
-21.905577
-26.369319
-27.652710
-25.555122
-21.276217
-16.759402
-12.370863
-8.120709
-3.854127
0.661740
4.983930
8.800601
12.325333
15.491779
17.582100
18.032957
15.825413
10.949041
5.407911
1.036427
-2.259880
-5.729012
-10.056263
-14.077991
-16.028036
-15.378762
-12.272347
-7.827568
-3.977407
-1.566713
-0.460260
0.051891
0.472733
0.391531
-0.057752
-0.358539
-0.257123
-0.046071
-0.375926
-1.489336
-3.136069
-4.726247
-5.949608
-5.600802
-2.795803
2.013265
7.914888
13.615883
17.320075
17.859083
15.747903
11.820960
7.474752
3.521902
-0.755429
-5.496891
-9.574226
-12.329943
-13.025983
-11.660767
-9.514523
-7.413144
-5.519660
-4.155708
-3.966773
-4.733586
-5.541157
-5.947471
-6.173378
-6.485224
-6.962627
-6.822980
-5.308004
-2.618010
0.356022
2.603370
4.116766
5.885134
8.400407
10.916628
12.404117
12.358933
10.636056
7.698984
4.470922
1.455494
-1.148567
-3.261642
-4.500168
-4.000655
-1.715393
1.104772
3.449432
5.102794
6.242106
6.691068
6.138153
4.762188
2.567282
-0.076273
-2.377970
-3.746983
-3.693907
-2.087621
0.531284
2.724604
3.145446
2.245618
1.482913
1.760313
2.818110
3.466752
2.219379
-0.883566
-4.400090
-7.425628
-9.217383
-9.825589
-10.692874
-12.617959
-14.970208
-16.764806
-17.114249
-15.799269
-12.929501
-8.745065
-4.257949
-0.568606
2.261353
5.015484
8.081142
11.033689
12.878517
12.893680
10.948374
7.569920
3.798108
0.809852
-0.269751
0.477783
2.021827
3.621477
4.503290
3.877707
2.069839
0.328953
-0.227122
0.793077
2.557969
3.986691
5.256175
6.963248
8.888959
10.147700
10.262703
9.500629
8.216290
6.810626
4.806870
1.679596
-2.013544
-5.670034
-9.183714
-12.307197
-14.381410
-14.818056
-13.596597
-11.190010
-8.401756
-6.126921
-4.729478
-3.597749
-2.145647
-0.449948
1.934207
5.099072
8.117654
9.987757
10.306232
9.583652
9.035476
8.922047
8.250966
6.813392
4.993202
2.978072
1.121548
-0.219346
-0.514446
0.106708
0.379686
-0.903705
-3.908075
-7.779726
-11.295935
-13.496528
-14.784342
-15.935034
-17.510995
-20.054393
-23.514362
-27.383170
-31.378674
-34.966287
-37.349183
-37.536228
-34.834229
-29.435282
-22.867321
-16.905984
-11.810665
-6.583279
-0.755588
4.459160
7.784844
9.157011
9.356057
9.862205
11.747158
14.234312
16.323053
17.555570
17.837710
17.177056
15.318637
12.331960
9.578771
8.168368
7.478963
6.088465
3.328009
0.103106
-2.270943
-3.360973
-3.289887
-2.250732
-0.761031
0.293922
0.294551
-0.715228
-2.317412
-3.712333
-4.264300
-3.972682
-3.200504
-2.233384
-0.580022
2.130508
5.282104
8.161035
10.574257
11.455438
9.358792
4.166154
-2.924709
-10.261698
-16.888432
-23.051351
-29.238599
-34.956661
-39.418506
-41.372975
-40.083587
-35.561085
-28.072446
-18.776575
-8.592569
1.890958
11.882235
20.616663
27.868340
33.655905
37.762933
40.202378
40.964762
39.957195
37.429278
33.934554
29.725784
24.359058
17.912732
11.079367
4.316459
-2.194637
-8.255188
-13.166631
-16.370364
-17.783295
-18.353271
-18.542844
-17.507480
-14.599481
-10.716461
-6.990468
-4.426539
-3.652781
-4.328916
-5.210419
-4.756087
-3.444898
-2.668612
-2.794363
-3.227534
-2.836707
-1.577650
-0.584939
-0.470568
-0.929646
-1.456021
-1.067406
0.887372
3.467731
6.086636
8.459416
10.488758
11.924747
12.843842
13.222978
12.521251
10.551933
7.948820
5.688828
4.261680
3.837988
4.315385
5.647743
7.776293
10.203732
12.532595
15.001108
17.899312
21.002884
23.311842
23.484979
21.374116
18.353949
15.768845
14.032698
12.688960
10.893731
8.447960
6.125726
5.397459
7.179097
10.512680
14.138517
17.464517
20.864766
24.687123
28.470934
31.113535
31.864229
30.462357
26.516457
20.356381
13.202959
6.278917
0.471757
-3.848859
-7.619091
-12.061664
-17.562668
-23.305374
-27.293611
-27.866115
-25.033313
-20.898165
-18.235975
-18.081795
-19.656491
-21.610960
-22.752805
-22.191681
-20.294406
-17.547857
-14.203848
-10.878796
-7.350903
-2.569638
4.162616
11.857886
18.660914
23.487360
26.090467
26.876863
26.483186
25.583674
24.820653
24.397593
24.468678
23.519878
20.061489
13.429384
3.544577
-8.360730
-19.850247
-29.017848
-34.894201
-37.598102
-37.818638
-35.687244
-31.369793
-25.109252
-17.613978
-10.265305
-4.404124
0.533220
5.165989
9.476805
12.654308
13.831218
13.181307
11.580070
9.005708
5.092351
-0.789689
-8.395866
-16.123685
-22.461325
-26.749714
-29.312070
-30.370188
-30.728163
-30.636856
-29.490909
-26.666637
-21.927078
-15.530993
-8.333029
-1.477237
5.229426
12.532602
20.189641
26.625851
30.051376
29.748377
26.477978
21.621511
16.834237
13.108554
10.155053
7.034414
2.668933
-3.124642
-9.038592
-13.552886
-16.202128
-17.668454
-18.066869
-16.663423
-12.965234
-8.068332
-3.831448
-1.422966
-1.422653
-2.992611
-5.475979
-9.904334
-16.182575
-22.826054
-27.970035
-30.258778
-29.013307
-24.593173
-18.128212
-10.399451
-2.437204
4.958230
11.561261
17.133032
21.789497
25.480103
27.408026
27.698697
26.964426
25.742014
24.583739
23.227995
21.122187
18.114974
14.173498
9.197286
2.582558
-4.781286
-10.116101
-11.205815
-9.133188
-6.947766
-6.332615
-6.780319
-7.180630
-7.155673
-7.122501
-7.707011
-9.295610
-11.724951
-13.545456
-14.013065
-14.007065
-13.660787
-12.584981
-10.642525
-7.883654
-4.029702
1.212218
7.481290
13.385125
17.446656
18.538576
16.774625
13.503594
9.870800
6.785548
4.894901
4.391274
4.893316
5.970069
7.146663
8.304300
9.364309
10.321634
10.541532
9.254349
6.476200
2.475009
-2.590301
-7.902999
-12.302603
-15.072222
-15.973313
-15.237785
-13.765778
-12.206569
-11.181631
-10.597127
-9.975973
-9.534910
-9.021179
-8.256583
-7.528006
-6.588690
-5.062972
-3.361585
-1.555935
0.761237
3.554546
6.481502
8.683985
9.638782
9.298501
8.134539
6.791118
5.131747
3.041736
-0.172740
-4.677871
-9.666721
-14.266637
-17.877630
-20.243465
-21.605211
-22.382767
-22.562545
-22.374558
-22.326221
-22.598572
-23.310094
-24.481323
-25.883827
-26.709091
-26.092676
-23.712313
-19.919023
-15.484987
-10.716044
-5.581232
-0.212932
5.085859
9.854802
13.413973
15.109356
14.731162
12.477805
8.621319
4.152838
0.069816
-3.465665
-6.510476
-9.122752
-10.721777
-10.635209
-8.664318
-5.249535
-1.455929
2.053954
5.315500
8.693632
12.370021
15.588598
16.775934
14.999346
10.304013
3.299404
-4.839466
-12.213105
-17.226915
-18.670176
-15.866125
-9.010966
0.572736
10.928303
20.252610
27.700491
33.526918
38.195389
41.448088
42.337484
39.857275
33.361661
23.557736
12.309921
1.212498
-8.662831
-16.649728
-22.536508
-25.921281
-26.956335
-26.976243
-26.886516
-26.327920
-24.776294
-22.777914
-21.338134
-20.341000
-18.918597
-16.056411
-11.424590
-5.994364
-0.452924
4.955817
9.386694
12.525968
14.633350
15.835536
16.219728
16.722717
17.820007
18.613986
18.361855
17.600729
17.180513
17.220951
17.606091
18.355521
19.419637
20.981690
22.818303
24.300104
25.198662
25.253950
23.914952
21.053392
16.988063
12.002057
6.814475
2.698278
0.380467
-0.309886
0.327382
1.916922
4.351628
7.738923
11.762540
15.877467
19.306783
21.084629
20.822388
18.421482
14.215240
8.759416
2.582595
-3.257739
-8.025109
-12.061370
-16.434118
-21.876988
-28.749846
-37.222358
-46.428506
-54.298502
-58.990675
-59.785924
-56.851385
-50.932069
-43.493351
-35.222736
-25.783740
-14.877156
-2.779127
8.899954
18.271653
25.002012
29.292291
31.249913
31.046123
28.611411
24.458564
19.894666
15.952874
12.829075
10.954542
10.197208
9.766565
8.101823
3.705063
-3.010137
-10.739851
-17.521084
-21.237920
-21.846127
-21.036035
-20.500503
-21.459413
-23.400928
-25.221433
-25.787302
-24.017987
-20.688195
-17.055091
-13.053275
-8.282120
-3.257258
1.093052
3.927750
5.700857
6.775715
7.400345
7.982954
8.813583
10.131722
12.289340
15.475059
19.057610
21.668300
22.579180
22.225629
20.791846
18.522376
16.060492
13.845050
11.790741
9.727586
7.951945
6.528273
4.910291
2.754879
0.162192
-2.164466
-3.282299
-2.743292
-1.385026
-0.531017
-1.199254
-2.767632
-3.703478
-2.863054
-0.561995
2.344108
4.584189
5.048948
3.552923
0.617114
-3.303510
-7.689527
-11.993398
-16.005331
-19.755974
-22.785304
-24.331565
-24.553365
-23.865229
-23.077885
-23.439967
-25.300914
-27.286029
-27.967220
-26.917638
-25.036476
-23.171111
-21.579991
-19.917783
-18.030618
-15.395283
-11.896459
-7.670002
-2.876415
2.214481
7.478517
13.028488
18.600260
23.555929
26.927742
28.380160
27.227572
23.367927
16.708018
8.361570
-0.949157
-9.626405
-16.582358
-23.132948
-29.983058
-35.799696
-40.562010
-43.054857
-45.126858
-47.061738
-49.088875
-51.227542
-50.923285
-48.149565
-43.011909
-35.783297
-27.346809
-19.287249
-11.888340
-5.396523
0.941111
6.905923
11.889396
14.894707
15.546825
13.562025
9.500488
4.275307
-0.723969
-5.400660
-9.119076
-11.925029
-13.954062
-15.338557
-15.725282
-14.729096
-12.845722
-10.146882
-6.910927
-3.612731
-1.566643
-1.670593
-4.480022
-8.557041
-12.090310
-14.211284
-14.906376
-15.104164
-15.329439
-15.227706
-14.209403
-12.380373
-9.932081
-7.721068
-5.650020
-4.278485
-3.565705
-3.697143
-4.344527
-5.660461
-7.732779
-10.037320
-12.849907
-15.665655
-17.511752
-17.674470
-16.271340
-14.071068
-11.123260
-8.217157
-5.607415
-2.130706
1.776957
6.806559
13.897417
22.417631
31.224096
38.866919
43.766033
46.016224
46.148288
43.879134
39.562941
34.444552
28.451929
22.570205
17.125440
12.536582
9.236800
7.984372
7.995743
8.509790
10.136297
11.610831
14.424045
18.208488
23.455147
29.490101
36.007826
43.599780
51.581616
59.436441
66.685905
72.044727
74.756836
74.607705
72.390683
68.872263
63.350406
57.141358
50.810985
43.670517
35.492470
25.768481
13.840426
1.212226
-10.646320
-21.627473
-31.528395
-40.164253
-47.662692
-54.146300
-58.936734
-60.937331
-59.869739
-55.694782
-48.972322
-41.317178
-34.972593
-30.761302
-28.021072
-24.897280
-19.705596
-11.874152
-1.998513
8.970313
20.613375
32.164180
43.101094
52.745774
60.609445
66.389111
69.521119
69.463613
66.225440
60.244192
52.160930
42.527618
31.666526
19.308147
5.611090
-8.536828
-21.257601
-31.109550
-37.614643
-40.809214
-40.988677
-38.460134
-34.851990
-31.019839
-26.460686
-19.913578
-10.706489
-0.100374
10.105433
19.089778
26.750609
33.066126
38.249595
42.780628
46.223214
47.519553
45.998883
40.844476
32.094560
21.031259
8.405903
-4.771417
-17.705772
-30.012651
-41.043724
-49.872312
-56.383724
-60.777640
-62.499886
-60.975747
-55.389442
-45.296429
-31.073953
-14.347575
2.078967
15.904294
26.340112
35.016090
43.933770
53.977810
63.744447
70.882065
72.564179
65.977255
51.490954
32.736804
13.557386
-3.992995
-18.116269
-27.463646
-32.424692
-35.302998
-36.557006
-36.680229
-35.635070
-33.281879
-31.406404
-30.913842
-31.722360
-31.868964
-31.042758
-29.372967
-26.531317
-21.966162
-15.468658
-7.945581
-1.623429
1.075411
-0.577641
-5.351329
-12.126243
-19.351386
-25.285873
-29.625762
-31.922404
-32.225087
-30.966978
-28.952801
-26.835941
-24.055902
-19.652829
-13.724350
-7.252754
-1.632958
2.733781
5.680325
7.887863
10.061911
13.469110
17.674083
22.170361
26.907393
31.797345
36.747643
40.764941
43.004074
43.674201
42.711815
41.110894
39.298287
36.724241
32.553069
27.063123
22.133040
19.511602
19.111922
20.202578
22.468251
24.116242
23.892230
21.585162
18.113819
15.374531
14.000778
11.670330
7.983193
4.721956
3.185806
3.636347
5.957943
10.205885
15.970701
22.527288
29.689866
37.207572
44.104437
49.572577
53.798402
56.051437
55.683353
52.358294
46.514800
39.213198
32.130233
26.560667
21.479560
15.085681
7.506359
-0.517821
-8.323363
-15.640131
-22.407778
-28.316674
-32.764934
-35.649874
-36.893140
-36.333596
-34.554485
-31.536536
-27.659519
-23.547752
-18.861588
-13.508138
-6.808742
2.338633
11.782369
18.697875
22.039356
21.840305
18.847626
15.111833
12.139374
9.860425
7.903114
5.626376
2.949331
-0.280943
-4.572807
-10.802392
-19.215190
-29.081040
-38.691288
-45.811535
-49.571656
-49.547331
-45.387223
-37.788002
-27.700993
-16.707523
-6.063494
3.985601
12.671689
19.391306
24.380466
27.222115
27.288462
24.819627
19.884805
13.372129
7.218056
3.284795
2.133155
3.332813
5.729289
8.780097
12.392980
16.082638
19.449396
22.470505
24.557982
25.865379
26.235353
25.625567
24.988294
25.297289
26.790149
29.436857
32.886394
36.231351
39.084691
41.608495
43.570540
45.138911
47.058303
49.710699
53.021217
55.327332
55.131756
52.792461
50.225998
48.765675
49.090152
50.637987
52.614566
54.783242
57.053970
59.258665
60.934143
61.670619
60.942036
57.993906
52.445825
44.499685
34.913134
24.081425
12.347363
0.868272
-9.979550
-20.509211
-30.932713
-40.482930
-47.417083
-49.728575
-47.672377
-42.882265
-37.387901
-32.140295
-26.507861
-19.635956
-11.256971
-2.735809
4.558205
9.218461
11.740685
14.394660
19.011631
25.382756
32.206952
37.988830
41.246585
41.808656
41.166012
40.106945
38.999538
37.606196
34.731682
29.162117
20.091512
7.884473
-5.700423
-18.225938
-27.785634
-33.563726
-36.580102
-37.699199
-37.345654
-35.625943
-32.099630
-25.844775
-17.343518
-8.413516
-1.511596
0.692466
-2.437019
-8.645751
-14.856695
-18.214612
-17.829157
-15.382129
-12.603985
-10.224254
-8.780683
-7.812932
-6.603163
-4.666394
-1.788095
1.074091
2.537884
1.352437
-2.267086
-6.617402
-10.546556
-14.034645
-16.185634
-16.674411
-16.266207
-14.992933
-12.122848
-7.688812
-2.202979
3.664838
9.510537
15.331909
22.110608
28.747446
33.668993
37.184879
38.939977
39.298577
38.691635
37.160223
34.871796
32.873095
32.029822
31.478486
29.671567
26.355355
22.019889
17.766570
14.930918
14.565361
15.891715
16.664525
15.329318
11.314542
5.645452
-0.547483
-6.990018
-13.243615
-17.539903
-19.003701
-18.574960
-17.528854
-18.484605
-23.293679
-30.365586
-36.404021
-38.861166
-36.091869
-29.328335
-22.664325
-17.617031
-14.099249
-11.402936
-7.689898
-2.695051
2.131079
5.004008
5.146814
3.413826
1.660618
1.187638
2.234377
3.633715
4.094367
3.883310
4.695929
7.286083
11.914112
17.535172
23.009946
26.563746
25.959331
21.461783
16.309903
11.983916
8.552382
6.494914
5.086407
4.196374
2.758167
1.158827
1.016014
2.422304
5.935030
11.751663
16.878893
21.498076
25.244289
27.198751
27.793998
28.784497
30.328225
33.299098
38.162509
43.616116
48.832759
52.922094
55.546370
56.787734
56.210491
53.261412
47.893423
42.106168
36.581783
32.385967
29.783801
26.999649
24.611382
24.043301
24.285315
24.681829
25.060018
24.077727
21.571611
17.679422
12.939857
7.868860
2.683489
-5.809560
-15.458353
-24.472403
-31.846674
-36.052284
-35.888625
-33.907307
-32.255525
-30.512117
-29.738359
-29.712138
-28.373146
-25.708429
-23.959650
-22.020037
-21.019743
-20.436187
-16.797396
-11.746626
-8.083507
-5.491774
-1.079855
6.232800
14.510997
20.155753
21.676416
19.517844
14.620619
9.239992
4.267571
-1.254602
-8.132832
-15.579455
-23.636809
-30.934936
-36.350634
-40.222602
-43.048775
-44.111949
-45.019676
-43.825073
-38.496267
-32.202867
-27.501221
-23.601772
-21.182231
-21.955679
-24.941408
-29.554594
-35.169340
-39.282061
-41.349008
-43.191630
-44.408987
-44.801400
-46.611163
-48.974155
-50.660066
-51.705546
-51.225306
-49.453146
-47.932167
-44.659247
