EVENT_NAME: 202302060117
EVENT_ID: 13194
EVENT_DATE_YYYYMMDD: 2023/02/06
EVENT_TIME_HHMMSS: 01:17:32.00000
EVENT_LATITUDE_DEGREE: 37.288
EVENT_LONGITUDE_DEGREE: 37.043
EVENT_DEPTH_KM: 8.6
HYPOCENTER_REFERENCE: AFAD
MAGNITUDE_W: 7.7
MAGNITUDE_W_REFERENCE: AFAD
MAGNITUDE_L: 
MAGNITUDE_L_REFERENCE: 
FOCAL_MECHANISM: 
NETWORK: TK
STATION_CODE: 7101
STATION_NAME: 
STATION_LATITUDE_DEGREE: 39.84972
STATION_LONGITUDE_DEGREE: 33.51797
STATION_ELEVATION_M: 754.0
LOCATION: Kahramanmaras_Pazarck_Turkiye
SENSOR_DEPTH_M: 
VS30_M/S: 421
SITE_CLASSIFICATION_EC8: B
MORPHOLOGIC_CLASSIFICATION: 
EPICENTRAL_DISTANCE_KM: 418.33
EARTHQUAKE_BACKAZIMUTH_DEGREE: 
DATE_TIME_FIRST_SAMPLE_YYYYMMDD_HHMMSS: 2023/02/06 01:18:05.2258500
DATE_TIME_FIRST_SAMPLE_PRECISION: millisecond
SAMPLING_INTERVAL_S: 0.01
NDATA: 21001
DURATION_S: 
STREAM: HNN
UNITS: cm/s^2
INSTRUMENT: sensor = CMG-5T/GURALP | digitizer = 
INSTRUMENT_ANALOG/DIGITAL: 
INSTRUMENTAL_FREQUENCY_HZ: 
INSTRUMENTAL_DAMPING: 
FULL_SCALE_G: 
N_BIT_DIGITAL_CONVERTER: 
PGA_CM/S^2: 4.025
TIME_PGA_S: 
BASELINE_CORRECTION: BASELINE REMOVED
FILTER_TYPE: BUTTERWORTH
FILTER_ORDER: 
LOW_CUT_FREQUENCY_HZ: 
HIGH_CUT_FREQUENCY_HZ: 
LATE/NORMAL_TRIGGERED: 
DATABASE_VERSION: 
HEADER_FORMAT: DYNA 1.2
DATA_TYPE: Acceleration
PROCESSING: Automatic Paolucci et al., 2011
DATA_TIMESTAMP_YYYYMMDD_HHMMSS: 
DATA_LICENSE: U (unknown license)
DATA_CITATION: Turkish Accelerometric Archive v 1.0 - Disaster And Emergency Management Presidency, Earthquake Department
DATA_CREATOR: AFAD
ORIGINAL_DATA_MEDIATOR_CITATION: : AFAD - Disaster And Emergency Management Presidency
ORIGINAL_DATA_MEDIATOR: AFAD PROCESS SERVICE
ORIGINAL_DATA_CREATOR_CITATION: AFAD PROCESS SERVICE
ORIGINAL_DATA_CREATOR: network: TK
USER1: GuestUser
USER2: 
USER3: 
USER4: 
USER5: 
[...]
-0.954128
-0.971988
-0.993921
-1.057215
-1.044055
-1.086982
-1.106409
-1.120822
-1.083535
-1.138055
-1.151215
-1.172208
-1.196335
-1.196022
-1.212002
-1.208868
-1.252735
-1.274982
-1.316342
-1.290335
-1.299421
-1.280621
-1.272160
-1.255867
-1.200092
-1.127397
-1.068490
-0.985141
-0.915267
-0.855419
-0.779591
-0.715356
-0.637335
-0.557120
-0.464685
-0.408910
-0.335902
-0.286708
-0.209627
-0.159806
-0.092438
-0.056090
-0.041050
-0.011909
0.032899
0.069560
0.061413
0.069873
0.026946
-0.009714
-0.062355
-0.094941
-0.167949
-0.233436
-0.300177
-0.373811
-0.461859
-0.495073
-0.515439
-0.560247
-0.573720
-0.604427
-0.622913
-0.664901
-0.686207
-0.741668
-0.783968
-0.872643
-0.935310
-0.996411
-1.027431
-1.056571
-1.099812
-1.153079
-1.216686
-1.254287
-1.301914
-1.337321
-1.399361
-1.436335
-1.509029
-1.536289
-1.566056
-1.572949
-1.616190
-1.644390
-1.708937
-1.751864
-1.780378
-1.788525
-1.785704
-1.811711
-1.783824
-1.794790
-1.753116
-1.736509
-1.679168
-1.691388
-1.671334
-1.650966
-1.623706
-1.604279
-1.580465
-1.556651
-1.560097
-1.542237
-1.538163
-1.485522
-1.456694
-1.402173
-1.348906
-1.297518
-1.271197
-1.196309
-1.163722
-1.106067
-1.078180
-1.077240
-1.093846
-1.110140
-1.128626
-1.175940
-1.202887
-1.282475
-1.326342
-1.378982
-1.425669
-1.493037
-1.561658
-1.634038
-1.699213
-1.796660
-1.870295
-1.960849
-2.025397
-2.087437
-2.163265
-2.231886
-2.296433
-2.340300
-2.401714
-2.438688
-2.510755
-2.539582
-2.597549
-2.630450
-2.667110
-2.691237
-2.732284
-2.770824
-2.812498
-2.867959
-2.901799
-2.924046
-2.909632
-2.906185
-2.862630
-2.808423
-2.720061
-2.654260
-2.558065
-2.486937
-2.399202
-2.314914
-2.221852
-2.112183
-2.002828
-1.872479
-1.749337
-1.618361
-1.507126
-1.368317
-1.248308
-1.114826
-0.997950
-0.867915
-0.769213
-0.671765
-0.595623
-0.506635
-0.435507
-0.389759
-0.352158
-0.320824
-0.301397
-0.294817
-0.256276
-0.229955
-0.207708
-0.238415
-0.219614
-0.229641
-0.228700
-0.267867
-0.282594
-0.332415
-0.380668
-0.407615
-0.465269
-0.510703
-0.586217
-0.657031
-0.793020
-0.882321
-0.969742
-1.053403
-1.171218
-1.223859
-1.271799
-1.344807
-1.422201
-1.446954
-1.451341
-1.498968
-1.544715
-1.595789
-1.618349
-1.643103
-1.634642
-1.647175
-1.642162
-1.639968
-1.618661
-1.617094
-1.607694
-1.612707
-1.580119
-1.553485
-1.499591
-1.431283
-1.391802
-1.320047
-1.266779
-1.195965
-1.141757
-1.069062
-1.023941
-0.957827
-0.922419
-0.877612
-0.840638
-0.813377
-0.826223
-0.812750
-0.784236
-0.772955
-0.755721
-0.772641
-0.756347
-0.752587
-0.736607
-0.770134
-0.777340
-0.807420
-0.826847
-0.873221
-0.941842
-1.019549
-1.111044
-1.199718
-1.297793
-1.409968
-1.538123
-1.638704
-1.746492
-1.826393
-1.921334
-1.981808
-2.048862
-2.092103
-2.133776
-2.147563
-2.164483
-2.168243
-2.167929
-2.163856
-2.152262
-2.140041
-2.113721
-2.109334
-2.061079
-2.021599
-1.958304
-1.940130
-1.879029
-1.807901
-1.728939
-1.654051
-1.576970
-1.496755
-1.413407
-1.318778
-1.250784
-1.168376
-1.122315
-1.072180
-1.034579
-0.969405
-0.934311
-0.879790
-0.822448
-0.761661
-0.721866
-0.677999
-0.629431
-0.602170
-0.563630
-0.539189
-0.536055
-0.552975
-0.550155
-0.574595
-0.603735
-0.644156
-0.666716
-0.737843
-0.800197
-0.880098
-0.935872
-1.002300
-1.088781
-1.162415
-1.242316
-1.314697
-1.412771
-1.470739
-1.526199
-1.573513
-1.644014
-1.702921
-1.778122
-1.825749
-1.884030
-1.914423
-1.966751
-2.005918
-2.025658
-2.053858
-2.067018
-2.100545
-2.072031
-2.068270
-2.051350
-2.028163
-1.972075
-1.926641
-1.870553
-1.812898
-1.746157
-1.694456
-1.644322
-1.603274
-1.580713
-1.565046
-1.554706
-1.528698
-1.545618
-1.540605
-1.557211
-1.552511
-1.544991
-1.514597
-1.485456
-1.438455
-1.395527
-1.343200
-1.294945
-1.237291
-1.174310
-1.116342
-1.039887
-0.993199
-0.926145
-0.872564
-0.783262
-0.721847
-0.645393
-0.586485
-0.520370
-0.459582
-0.397854
-0.334247
-0.276592
-0.218938
-0.173503
-0.130262
-0.084515
-0.018713
0.019201
0.078735
0.104743
0.162710
0.185898
0.247939
0.314680
0.382675
0.469783
0.550938
0.641806
0.732361
0.835450
0.922871
1.019693
1.093641
1.182003
1.214277
1.246864
1.246551
1.234958
1.192344
1.143464
1.061369
0.963608
0.860834
0.741765
0.623324
0.478248
0.340066
0.176504
0.021402
-0.139653
-0.268122
-0.417584
-0.523179
-0.636920
-0.716194
-0.801109
-0.877250
-0.937097
-0.986291
-1.022951
-1.072772
-1.096272
-1.153612
-1.179306
-1.204999
-1.184006
-1.204686
-1.212205
-1.215652
-1.192151
-1.188078
-1.179617
-1.154550
-1.143269
-1.105669
-1.070575
-1.028587
-1.003520
-0.956205
-0.923618
-0.887584
-0.866903
-0.828049
-0.829929
-0.818648
-0.808308
-0.774780
-0.746580
-0.724959
-0.710232
-0.707412
-0.702711
-0.706784
-0.710858
-0.722764
-0.708350
-0.725270
-0.685790
-0.684849
-0.644742
-0.604634
-0.564527
-0.539773
-0.512512
-0.475851
-0.449530
-0.407856
-0.379342
-0.338608
-0.342368
-0.323254
-0.334220
-0.317300
-0.306020
-0.267792
-0.251185
-0.198544
-0.147783
-0.102035
-0.029027
0.026747
0.103202
0.152083
0.216318
0.250472
0.294653
0.333194
0.379881
0.405889
0.463230
0.505217
0.566945
0.622720
0.685388
0.759022
0.833597
0.924152
1.000607
1.083328
1.152263
1.251905
1.329613
1.428315
1.490356
1.579031
1.647652
1.726300
1.782388
1.836283
1.882030
1.909291
1.949712
1.965379
1.980733
1.989820
2.037761
2.050608
2.089462
2.108576
2.143357
2.131137
2.145237
2.150878
2.138971
2.142105
2.132078
2.126125
2.111085
2.109205
2.104506
2.117666
2.101373
2.122053
2.103567
2.102000
2.091347
2.079754
2.076307
2.079754
2.064714
2.046854
2.005807
1.945960
1.890186
1.804018
1.725057
1.612256
1.514808
1.403573
1.312078
1.191130
1.096502
0.994354
0.894713
0.793505
0.702324
0.592969
0.483928
0.384286
0.288092
0.227618
0.138630
0.089750
0.018622
-0.018978
-0.066292
-0.088225
-0.110159
-0.119559
-0.148699
-0.173452
-0.190999
-0.218259
-0.241133
-0.289073
-0.318527
-0.351114
-0.375867
-0.412841
-0.430074
-0.455454
-0.445740
-0.448874
-0.438847
-0.431326
-0.390279
-0.352051
-0.300977
-0.248022
-0.208541
-0.162794
-0.122060
-0.073805
-0.039338
0.009230
0.038371
0.107619
0.138326
0.200994
0.255202
0.315050
0.365497
0.422525
0.474539
0.518407
0.561648
0.593295
0.632150
0.633717
0.660664
0.666931
0.681345
0.660665
0.663798
0.663172
0.674766
0.672886
0.689493
0.709547
0.724901
0.760935
0.788822
0.818276
0.835824
0.863084
0.878751
0.908519
0.915726
0.950820
0.972441
1.007848
1.049209
1.116264
1.151044
1.197732
1.243793
1.275754
1.310535
1.312728
1.323069
1.304895
1.296122
1.254135
1.231888
1.173608
1.136007
1.100287
1.082427
1.063940
1.049214
1.037620
1.026967
1.028847
1.029474
1.073342
1.090576
1.140083
1.183951
1.247246
1.281400
1.335921
1.381982
1.434623
1.479117
1.508258
1.545545
1.568106
1.601633
1.612914
1.634221
1.642681
1.670569
1.668062
1.677463
1.684357
1.692190
1.688744
1.702844
1.706605
1.717572
1.726972
1.728539
1.743579
1.727600
1.729166
1.733867
1.748594
1.756741
1.793715
1.805309
1.852937
1.882391
1.933152
1.987986
2.038434
2.104862
2.172543
2.254011
2.319186
2.405041
2.464262
2.554190
2.597118
2.647252
2.679213
2.706787
2.730601
2.759115
2.787002
2.819276
2.862831
2.881318
2.921425
2.928946
2.932079
2.928633
2.941480
2.937407
2.964354
2.971561
2.984722
2.998196
3.017936
3.048957
3.075904
3.121652
3.172413
3.239468
3.291795
3.379217
3.448465
3.517086
3.570041
3.625188
3.656523
3.715430
3.747078
3.766818
3.793452
3.785619
3.789066
3.774026
3.761806
3.731726
3.719506
3.699766
3.715120
3.703213
3.707600
3.708227
3.705407
3.704468
3.706348
3.706662
3.696635
3.700082
3.670315
3.670002
3.633342
3.607648
3.546861
3.488894
3.434060
3.380166
3.322825
3.268305
3.213157
3.156757
3.118843
3.068709
3.035809
2.989748
2.970635
2.921755
2.877574
2.809893
2.740959
2.664818
2.591811
2.500943
2.414775
2.312627
2.197319
2.096424
1.970463
1.868628
1.748306
1.647725
1.544010
1.475076
1.389535
1.344415
1.295534
1.249161
1.193700
1.126646
1.073065
1.017605
0.973111
0.899790
0.875977
0.827096
0.801716
0.754715
0.707088
0.640348
0.596480
0.566400
0.544153
0.533814
0.529114
0.561388
0.582068
0.616849
0.637216
0.688604
0.730905
0.813940
0.891335
0.995050
1.099705
1.209374
1.332203
1.456285
1.565640
1.653688
1.764610
1.852659
1.948227
2.035335
2.143751
2.225219
2.326114
2.394109
2.468057
2.544511
2.621593
2.709954
2.780456
2.856911
2.939319
3.015147
3.065281
3.146749
3.204404
3.264878
3.294333
3.341960
3.370788
3.414968
3.454136
3.487037
3.522444
3.538738
3.564432
3.570699
3.590126
3.579473
3.596394
3.578220
3.569134
3.541874
3.516807
3.494247
3.477327
3.461973
3.422493
3.408393
3.377686
3.363900
3.343219
3.331000
3.314706
3.313766
3.297786
3.294967
3.265826
3.244206
3.225406
3.196893
3.172139
3.139239
3.098192
3.040225
3.000118
2.937450
2.896090
2.814622
2.760728
2.700881
2.641974
2.585887
2.537319
2.503792
2.476532
2.450839
2.406658
2.371565
2.327384
2.306391
2.271924
2.251244
2.200797
2.176357
2.129043
2.092696
2.051962
2.006842
1.966421
1.912214
1.885894
1.844220
1.823227
1.790327
1.798787
1.803487
1.817901
1.822915
1.842029
1.852682
1.885897
1.932584
1.966738
2.013113
2.042253
2.098654
2.135315
2.183883
2.209890
2.228377
2.219604
2.203938
2.176051
2.139704
2.106804
2.076410
2.035050
1.978336
1.927888
1.859894
1.793467
1.733933
1.686619
1.612358
1.563164
1.494544
1.431250
1.357929
1.277714
1.201260
1.121672
1.044278
0.950590
0.887296
0.830582
0.778255
0.726555
0.698668
0.649474
0.616574
0.568320
0.542940
0.522260
0.508160
0.497193
0.479960
0.462413
0.424186
0.419486
0.388466
0.372486
0.332692
0.323606
0.329246
0.353687
0.373114
0.402881
0.426382
0.451136
0.482157
0.482784
0.520384
0.542005
0.577099
0.591826
0.604047
0.586187
0.593707
0.586187
0.574594
0.563941
0.569894
0.602795
0.599662
0.619089
0.657944
0.688024
0.698051
0.729699
0.757273
0.798947
0.824328
0.871955
0.900783
0.933683
0.943084
0.959064
0.975672
0.974418
0.973479
0.957812
0.975986
0.955933
0.954053
0.926479
0.921466
0.901413
0.884806
0.855979
0.829346
0.805846
0.777645
0.755712
0.718425
0.691792
0.644791
0.606564
0.546403
0.530110
0.480290
0.444256
0.384722
0.325815
0.262207
0.184500
0.115566
0.047885
-0.006636
-0.076510
-0.126017
-0.206858
-0.277359
-0.361647
-0.425254
-0.509542
-0.575656
-0.657437
-0.729504
-0.795932
-0.844812
-0.896513
-0.971714
-1.031561
-1.112089
-1.160343
-1.223323
-1.255284
-1.311058
-1.333931
-1.363385
-1.387198
-1.408818
-1.423858
-1.428244
-1.432004
-1.440464
-1.450804
-1.425423
-1.411950
-1.385942
-1.394402
-1.371842
-1.384688
-1.380614
-1.378421
-1.358680
-1.334240
-1.307919
-1.278152
-1.275958
-1.253397
-1.243997
-1.192609
-1.167542
-1.134955
-1.138088
-1.116467
-1.082940
-1.046592
-1.045339
-1.065392
-1.072912
-1.100172
-1.111138
-1.138399
-1.140905
-1.152185
-1.156885
-1.187278
-1.187905
-1.202318
-1.198244
-1.201691
-1.207644
-1.207957
-1.213597
-1.217983
-1.258717
-1.306658
-1.366505
-1.410999
-1.514713
-1.591168
-1.663862
-1.703656
-1.778856
-1.859384
-1.944612
-2.029526
-2.105040
-2.161441
-2.197788
-2.246355
-2.250742
-2.284895
-2.262961
-2.269228
-2.255754
-2.260141
-2.251053
-2.266720
-2.261080
-2.248859
-2.255439
-2.253246
-2.259512
-2.268599
-2.311526
-2.315912
-2.350066
-2.373253
-2.410853
-2.419313
-2.467567
-2.476653
-2.486680
-2.479786
-2.491693
-2.485112
-2.503912
-2.536812
-2.501718
-2.457537
-2.429337
-2.478844
-2.457223
-2.509551
-2.534931
-2.553731
-2.549657
-2.613891
-2.668412
-2.713845
-2.773693
-2.805026
-2.879601
-2.923781
-3.012455
-3.083896
-3.171944
-3.194504
-3.245265
-3.305425
-3.379060
-3.445800
-3.511288
-3.562048
-3.599335
-3.648216
-3.694276
-3.749423
-3.750990
-3.779190
-3.792663
-3.808017
-3.803943
-3.844990
-3.848437
-3.842796
-3.812402
-3.782948
-3.781381
-3.727173
-3.694899
-3.642258
-3.572070
-3.468042
-3.389080
-3.276592
-3.182276
-3.087648
-2.992706
-2.877711
-2.775249
-2.702241
-2.622653
-2.554345
-2.478204
-2.395795
-2.282680
-2.204345
-2.123190
-2.040469
-1.941454
-1.855599
-1.733083
-1.633441
-1.546020
-1.466118
-1.375250
-1.284382
-1.207927
-1.104838
-1.050944
-1.006450
-0.974176
-0.914328
-0.866073
-0.814999
-0.774578
-0.746691
-0.740424
-0.716296
-0.691856
-0.683709
-0.685589
-0.678068
-0.666474
-0.680574
-0.663654
-0.641407
-0.619159
-0.647359
-0.660206
-0.668039
-0.663966
-0.666472
-0.665532
-0.687779
-0.732586
-0.756086
-0.779899
-0.783659
-0.828779
-0.842253
-0.880166
-0.886746
-0.875152
-0.868259
-0.849145
-0.839431
-0.826584
-0.829404
-0.806530
-0.795563
-0.756709
-0.733835
-0.738221
-0.756708
-0.759214
-0.774881
-0.778641
-0.793367
-0.814987
-0.836607
-0.852274
-0.836920
-0.829400
-0.832846
-0.843186
-0.848199
-0.901153
-0.909927
-0.920266
-0.930920
-0.977607
-0.999540
-1.056881
-1.149629
-1.192242
-1.243003
-1.307237
-1.407192
-1.483333
-1.582974
-1.661308
-1.754369
-1.853697
-1.982166
-2.108754
-2.235656
-2.365691
-2.489772
-2.611661
-2.713182
-2.839144
-2.948499
-3.063493
-3.152795
-3.248362
-3.335470
-3.438558
-3.528173
-3.604940
-3.679201
-3.729648
-3.802969
-3.856863
-3.932064
-3.991285
-4.024812
-4.013531
-4.005071
-3.997237
-3.953369
-3.902922
-3.837434
-3.741239
-3.620917
-3.536942
-3.456100
-3.342672
-3.205116
-3.065053
-2.912771
-2.765815
-2.625439
-2.509817
-2.376335
-2.255073
-2.136317
-2.025082
-1.915727
-1.836138
-1.745583
-1.639675
-1.558833
-1.455432
-1.391824
-1.315369
-1.271501
-1.197553
-1.140839
-1.040570
-0.962235
-0.924321
-0.866667
-0.820292
-0.768591
-0.736631
-0.695896
-0.683363
-0.677096
-0.706236
-0.689315
-0.707489
-0.738196
-0.761069
-0.796789
-0.859143
-0.885463
-0.891103
-0.919303
-0.948757
-0.981344
-1.004531
-1.065945
-1.054978
-1.057484
-1.066257
-1.086937
-1.080357
-1.095084
-1.091950
-1.070329
-1.062182
-1.064375
-1.079729
-1.055915
-1.052154
-1.022700
-0.996693
-0.940292
-0.938098
-0.918358
-0.897364
-0.839709
-0.806809
-0.776415
-0.778294
-0.791141
-0.755733
-0.735680
-0.701212
-0.718759
-0.682725
-0.708105
-0.679277
-0.658283
-0.589349
-0.575875
-0.573368
-0.535454
-0.537647
-0.510386
-0.468712
-0.398211
-0.415131
-0.389750
-0.376590
-0.318935
-0.296061
-0.264414
-0.251253
-0.261593
-0.261906
-0.236839
-0.205192
-0.201745
-0.182944
-0.175424
-0.161636
-0.161323
-0.134689
-0.130302
-0.105548
-0.138448
-0.142521
-0.144088
-0.133434
-0.128420
-0.101160
-0.072332
-0.058232
-0.022198
0.009763
0.077758
0.099065
0.152019
0.162987
0.200901
0.246022
0.311510
0.351304
0.381385
0.424939
0.435593
0.470060
0.527088
0.596649
0.620463
0.659944
0.702872
0.752066
0.779327
0.818807
0.840428
0.851395
0.857662
0.879909
0.927850
0.964511
1.043786
1.079194
1.117108
1.173509
1.242757
1.315138
1.379373
1.457708
1.483088
1.523823
1.577090
1.641011
1.675166
1.697726
1.716213
1.704934
1.692400
1.712767
1.740028
1.720288
1.706815
1.698355
1.710889
1.718409
1.728436
1.724363
1.692716
1.652922
1.625349
1.594955
1.547955
1.458654
1.381260
1.268145
1.176024
1.066355
0.969534
0.859866
0.683770
0.538382
0.381086
0.242591
0.068062
-0.046306
-0.221775
-0.388471
-0.519133
-0.622534
-0.741602
-0.882291
-0.999793
-1.121681
-1.257669
-1.368591
-1.422485
-1.510219
-1.604534
-1.724855
-1.792223
-1.873377
-1.944818
-2.003099
-2.072033
-2.155380
-2.191414
-2.202067
-2.200814
-2.199560
-2.212093
-2.221807
-2.225566
-2.195799
-2.158198
-2.103364
-2.041323
-1.993695
-1.963301
-1.871806
-1.803811
-1.741143
-1.682235
-1.603274
-1.542173
-1.495798
-1.386130
-1.266748
-1.192800
-1.129818
-1.043337
-0.959989
-0.854080
-0.750051
-0.630669
-0.558915
-0.471806
-0.372478
-0.240249
-0.109587
-0.026865
0.098784
0.168345
0.262033
0.336608
0.437817
0.508005
0.511452
0.535266
0.574746
0.612347
0.616734
0.666555
0.656215
0.631149
0.640549
0.702590
0.713557
0.727344
0.756485
0.780613
0.806933
0.841401
0.926629
0.994624
1.036298
1.083925
1.161634
1.213961
1.283836
1.358097
1.421392
1.430792
1.482493
1.538895
1.587149
1.621616
1.661411
1.652324
1.653578
1.686478
1.688359
1.719693
1.721886
1.726587
1.715307
1.747268
1.774215
1.792389
1.821216
1.870097
1.873231
1.899865
1.965979
2.056534
2.078468
2.087869
2.147403
2.150537
2.202865
2.242972
2.286526
2.280573
2.277127
2.289661
2.330395
2.344182
2.329455
2.328202
2.294675
2.296869
2.272115
2.284023
2.269923
2.221669
2.173728
2.173729
2.166835
2.139262
2.157749
2.139262
2.100409
2.083489
2.124850
2.127357
2.150544
2.186891
2.203812
2.204125
2.257080
2.307528
2.333535
2.369569
2.391503
2.384296
2.397457
2.483625
2.498666
2.515899
2.479553
2.489580
2.496160
2.480807
2.473287
2.454800
2.388373
2.326019
2.298445
2.237344
2.199431
2.150237
2.094150
2.003595
1.972262
1.906148
1.867607
1.819667
1.767653
1.678352
1.615371
1.593124
1.565551
1.529517
1.463716
1.408256
1.326788
1.312061
1.273834
1.250021
1.149126
1.109333
1.066406
0.992458
0.939191
0.899397
0.827330
0.717975
0.643087
0.525899
0.464485
0.367664
0.294343
0.184361
0.081900
-0.015861
-0.075708
-0.126782
-0.222664
-0.294418
-0.372125
-0.431973
-0.499340
-0.565768
-0.619348
-0.677942
-0.790117
-0.823644
-0.869078
-0.909185
-0.938952
-0.956812
-0.999739
-1.058019
-1.071493
-1.085592
-1.092486
-1.131966
-1.105645
-1.149826
-1.172073
-1.140425
-1.129458
-1.149511
-1.182412
-1.193692
-1.193065
-1.199331
-1.209984
-1.195257
-1.225651
-1.211550
-1.193376
-1.174263
-1.155462
-1.117234
-1.071174
-1.037646
-1.005059
-0.945837
-0.848076
-0.765041
-0.692973
-0.644092
-0.542257
-0.418488
-0.298792
-0.216697
-0.092302
0.002640
0.071261
0.190957
0.298118
0.400894
0.460741
0.536570
0.594224
0.660025
0.688539
0.752147
0.803848
0.834556
0.866517
0.892837
0.957072
0.977126
0.999686
0.996553
1.006267
1.027574
1.020368
1.044182
1.088049
1.072383
1.068309
1.024756
1.027889
1.035723
1.057657
1.055777
1.034784
1.055778
1.078965
1.142260
1.156047
1.221221
1.260389
1.275116
1.269163
1.325877
1.345618
1.361285
1.391052
1.378206
1.379459
1.403900
1.425521
1.430221
1.475029
1.471895
1.469702
1.479103
1.522030
1.563705
1.595352
1.561512
1.587832
1.631387
1.652694
1.655514
1.660528
1.688102
1.685595
1.687789
1.706590
1.735417
1.739491
1.754218
1.699384
1.703144
1.730092
1.719125
1.688418
1.678078
1.631391
1.586584
1.566531
1.536764
1.480676
1.388555
1.318054
1.206820
1.152299
1.074905
0.995630
0.870922
0.759061
0.698900
0.619626
0.566672
0.486457
0.452931
0.396217
0.333236
0.308796
0.305349
0.286236
0.244562
0.196622
0.180955
0.205082
0.164035
0.169362
0.152756
0.062828
0.027108
0.029615
-0.035246
-0.102614
-0.134574
-0.175934
-0.269309
-0.329469
-0.340749
-0.381170
-0.433497
-0.480497
-0.508384
-0.547238
-0.535644
-0.558204
-0.565724
-0.600818
-0.624005
-0.599251
-0.584837
-0.569483
-0.536269
-0.545355
-0.557575
