EVENT_NAME: 202302060117
EVENT_ID: 13194
EVENT_DATE_YYYYMMDD: 2023/02/06
EVENT_TIME_HHMMSS: 01:17:32.00000
EVENT_LATITUDE_DEGREE: 37.288
EVENT_LONGITUDE_DEGREE: 37.043
EVENT_DEPTH_KM: 8.6
HYPOCENTER_REFERENCE: AFAD
MAGNITUDE_W: 7.7
MAGNITUDE_W_REFERENCE: AFAD
MAGNITUDE_L: 
MAGNITUDE_L_REFERENCE: 
FOCAL_MECHANISM: 
NETWORK: TK
STATION_CODE: 4615
STATION_NAME: 
STATION_LATITUDE_DEGREE: 37.38676
STATION_LONGITUDE_DEGREE: 37.13803
STATION_ELEVATION_M: 581.0
LOCATION: Kahramanmaras_Pazarck_Turkiye
SENSOR_DEPTH_M: 
VS30_M/S: 484
SITE_CLASSIFICATION_EC8: B
MORPHOLOGIC_CLASSIFICATION: 
EPICENTRAL_DISTANCE_KM: 13.83
EARTHQUAKE_BACKAZIMUTH_DEGREE: 
DATE_TIME_FIRST_SAMPLE_YYYYMMDD_HHMMSS: 2023/02/06 01:17:04.8060700
DATE_TIME_FIRST_SAMPLE_PRECISION: millisecond
SAMPLING_INTERVAL_S: 0.01
NDATA: 10501
DURATION_S: 
STREAM: HNN
UNITS: cm/s^2
INSTRUMENT: sensor = GMS+/GEOSIG | digitizer = 
INSTRUMENT_ANALOG/DIGITAL: 
INSTRUMENTAL_FREQUENCY_HZ: 
INSTRUMENTAL_DAMPING: 
FULL_SCALE_G: 
N_BIT_DIGITAL_CONVERTER: 
PGA_CM/S^2: 583.648
TIME_PGA_S: 
BASELINE_CORRECTION: BASELINE REMOVED
FILTER_TYPE: BUTTERWORTH
FILTER_ORDER: 
LOW_CUT_FREQUENCY_HZ: 
HIGH_CUT_FREQUENCY_HZ: 
LATE/NORMAL_TRIGGERED: 
DATABASE_VERSION: 
HEADER_FORMAT: DYNA 1.2
DATA_TYPE: Acceleration
PROCESSING: Manual Paolucci et al., 2011
DATA_TIMESTAMP_YYYYMMDD_HHMMSS: 
DATA_LICENSE: U (unknown license)
DATA_CITATION: Turkish Accelerometric Archive v 1.0 - Disaster And Emergency Management Presidency, Earthquake Department
DATA_CREATOR: AFAD
ORIGINAL_DATA_MEDIATOR_CITATION: : AFAD - Disaster And Emergency Management Presidency
ORIGINAL_DATA_MEDIATOR: AFAD PROCESS SERVICE
ORIGINAL_DATA_CREATOR_CITATION: AFAD PROCESS SERVICE
ORIGINAL_DATA_CREATOR: network: TK
USER1: GuestUser
USER2: 
USER3: 
USER4: 
USER5: 
[...]
0.017473
0.017719
0.018485
0.017433
0.015341
0.013769
0.014535
0.016340
0.015547
0.017353
0.018378
0.016287
0.014975
0.015741
0.017546
0.016753
0.016740
0.017765
0.017492
0.017219
0.017206
0.018232
0.017959
0.016127
0.015074
0.015061
0.015567
0.015294
0.014761
0.015008
0.016293
0.017059
0.017306
0.017292
0.016500
0.016746
0.017512
0.016200
0.015407
0.016953
0.016420
0.015887
0.017172
0.018198
0.016886
0.014275
0.013742
0.014248
0.014235
0.015261
0.016546
0.015234
0.015480
0.015207
0.015454
0.017778
0.016986
0.017492
0.015141
0.013049
0.015374
0.014062
0.014568
0.013515
0.012982
0.015567
0.015294
0.016579
0.017345
0.015773
0.015240
0.015747
0.016513
0.017538
0.016746
0.015434
0.015680
0.013848
0.014095
0.016159
0.016146
0.016393
0.014561
0.014548
0.016093
0.016859
0.018144
0.016832
0.015000
0.014468
0.016013
0.016779
0.014687
0.014674
0.014141
0.014128
0.016712
0.017478
0.015906
0.014854
0.014061
0.014567
0.015333
0.016099
0.015826
0.013735
0.015020
0.016825
0.016812
0.017058
0.016785
0.016252
0.013901
0.014667
0.014394
0.014381
0.014627
0.013055
0.013302
0.014587
0.016652
0.016639
0.015846
0.016092
0.015300
0.015806
0.015793
0.016818
0.015506
0.011596
0.012103
0.015206
0.016232
0.015180
0.014647
0.014893
0.014620
0.015386
0.014594
0.014840
0.016125
0.015333
0.014800
0.015046
0.015293
0.015280
0.015526
0.015253
0.013681
0.013668
0.014953
0.013901
0.012588
0.013095
0.013601
0.014107
0.014613
0.014600
0.015626
0.016392
0.015599
0.015326
0.013754
0.013481
0.013727
0.012675
0.012142
0.012129
0.012895
0.013401
0.014167
0.014154
0.013880
0.015166
0.015932
0.014620
0.014606
0.014853
0.012502
0.012748
0.014813
0.012981
0.013747
0.015292
0.013201
0.013447
0.014993
0.014460
0.012888
0.014433
0.015978
0.013108
0.013874
0.014380
0.012548
0.014093
0.016418
0.015885
0.014313
0.013780
0.013507
0.013754
0.013221
0.012168
0.013454
0.013440
0.013167
0.014453
0.014959
0.015465
0.014153
0.014659
0.015425
0.013853
0.014100
0.013827
0.013034
0.014320
0.015086
0.013514
0.012461
0.012448
0.012435
0.013980
0.014486
0.014473
0.012381
0.012108
0.014433
0.013900
0.014666
0.016471
0.014120
0.012807
0.013054
0.011482
0.011988
0.014313
0.014040
0.012208
0.012714
0.014259
0.014246
0.015272
0.014219
0.011608
0.012894
0.012880
0.012607
0.012075
0.011801
0.013347
0.013593
0.013840
0.013826
0.013034
0.013020
0.013786
0.014033
0.013500
0.013746
0.013473
0.013460
0.013966
0.014212
0.012640
0.012627
0.013393
0.011821
0.012327
0.012834
0.012560
0.014625
0.013313
0.012261
0.014845
0.014832
0.013000
0.012207
0.012454
0.012700
0.011908
0.012674
0.012141
0.011868
0.013153
0.012361
0.011568
0.012594
0.012840
0.014126
0.014112
0.011761
0.013566
0.013033
0.011981
0.013786
0.013513
0.012460
0.012707
0.012434
0.011121
0.012147
0.012913
0.011861
0.011588
0.013652
0.012600
0.010509
0.013872
0.014378
0.012806
0.013832
0.013040
0.012507
0.012493
0.013519
0.012986
0.012973
0.012960
0.011388
0.012673
0.011101
0.009010
0.012114
0.011321
0.011567
0.014152
0.012580
0.012826
0.014112
0.012280
0.010968
0.010695
0.010681
0.010928
0.010135
0.010901
0.012966
0.012953
0.011121
0.011887
0.013172
0.011341
0.011587
0.012613
0.011301
0.011028
0.010495
0.009702
0.010468
0.010715
0.011481
0.011727
0.011973
0.013519
0.012726
0.012453
0.011660
0.010868
0.011893
0.011880
0.012646
0.010555
0.011061
0.013645
0.010515
0.010501
0.011267
0.009436
0.009942
0.010967
0.011993
0.011201
0.012486
0.012992
0.010901
0.012446
0.011653
0.010861
0.011887
0.011094
0.010041
0.010028
0.011573
0.012339
0.011547
0.009975
0.011520
0.011767
0.010974
0.011740
0.009129
0.009375
0.011960
0.012466
0.010894
0.010881
0.011647
0.009815
0.010581
0.012905
0.010294
0.010281
0.012346
0.011034
0.010761
0.012046
0.009955
0.009162
0.011227
0.009655
0.010161
0.011447
0.010134
0.011160
0.011407
0.011133
0.011899
0.010587
0.010834
0.012119
0.012625
0.011053
0.009741
0.012066
0.010494
0.010221
0.010467
0.010973
0.012259
0.009908
0.010414
0.010401
0.010127
0.010893
0.010620
0.011386
0.009555
0.009801
0.012645
0.011853
0.010800
0.011047
0.009994
0.009721
0.010227
0.009694
0.009941
0.010447
0.011213
0.013797
0.011966
0.010653
0.011939
0.010367
0.010354
0.009301
0.008768
0.011093
0.010820
0.010807
0.010793
0.008702
0.009727
0.010753
0.009701
0.008908
0.007856
0.008882
0.010687
0.011972
0.011959
0.010647
0.010893
0.011139
0.010866
0.010074
0.010060
0.009527
0.009774
0.011319
0.010527
0.009994
0.009201
0.008928
0.008395
0.007862
0.008628
0.009394
0.009900
0.010147
0.011173
0.011679
0.011665
0.010873
0.009820
0.009028
0.007975
0.009261
0.009767
0.009754
0.009221
0.009727
0.007895
0.006843
0.010726
0.008635
0.008362
0.010426
0.007815
0.008841
0.010127
0.010633
0.011399
0.011126
0.010073
0.008501
0.008748
0.007955
0.008721
0.010007
0.008175
0.009460
0.009967
0.010473
0.009940
0.008628
0.010433
0.007302
0.007549
0.009613
0.008561
0.010626
0.009573
0.008002
0.010066
0.009014
0.008221
0.010286
0.010533
0.008441
0.009207
0.009973
0.007882
0.008128
0.009413
0.010179
0.009647
0.009373
0.009360
0.008568
0.008814
0.010099
0.010346
0.009553
0.009020
0.007968
0.006916
0.008461
0.008448
0.008694
0.010239
0.008408
0.008914
0.010979
0.010965
0.009913
0.008081
0.008587
0.009353
0.008041
0.008547
0.009573
0.008261
0.008767
0.009533
0.006402
0.007688
0.008714
0.007402
0.009207
0.008154
0.009440
0.010725
0.007595
0.008101
0.008607
0.008074
0.008840
0.008307
0.009073
0.010619
0.010086
0.009033
0.010579
0.008487
0.007175
0.008980
0.006109
0.007395
0.009459
0.007888
0.008394
0.008121
0.007068
0.008354
0.010419
0.007548
0.006236
0.008300
0.007248
0.008534
0.010079
0.008767
0.007714
0.008480
0.008727
0.006895
0.008700
0.008687
0.006595
0.006842
0.006828
0.006815
0.006542
0.008347
0.007554
0.006242
0.007787
0.007514
0.007761
0.008527
0.009033
0.008760
0.007448
0.007434
0.008200
0.007927
0.006615
0.007121
0.008407
0.007354
0.007341
0.008367
0.008613
0.007820
0.006768
0.007014
0.007780
0.009066
0.007754
0.006182
0.008766
0.007194
0.006921
0.008986
0.006635
0.007920
0.008686
0.008933
0.009699
0.007607
0.007074
0.007321
0.007048
0.005216
0.006242
0.009865
0.008813
0.008020
0.006968
0.005655
0.006941
0.007447
0.006654
0.005862
0.006888
0.007913
0.008420
0.008666
0.008393
0.007081
0.006288
0.007314
0.006261
0.007547
0.008573
0.007001
0.007767
0.006974
0.005922
0.006947
0.006934
0.006661
0.005609
0.005855
0.007400
0.009205
0.008932
0.006841
0.008126
0.007593
0.005502
0.007567
0.006514
0.005722
0.007007
0.006215
0.006980
0.006967
0.005395
0.006421
0.006148
0.006654
0.006900
0.006887
0.007134
0.005562
0.006587
0.008133
0.008119
0.007846
0.005755
0.006261
0.007546
0.006754
0.007000
0.006467
0.005415
0.004882
0.004869
0.006414
0.006141
0.006387
0.007413
0.005062
0.005568
0.006854
0.007100
0.007346
0.006814
0.007839
0.007047
0.006514
0.007799
0.004929
0.004136
0.007240
0.005148
0.005135
0.006680
0.004849
0.005874
0.005082
0.004809
0.004795
0.004262
0.008665
0.007613
0.006560
0.008106
0.006274
0.007300
0.005728
0.003376
0.004922
0.004908
0.006454
0.007479
0.005388
0.004076
0.006660
0.007946
0.006374
0.006620
0.006347
0.006074
0.007879
0.009164
0.010450
0.011735
0.012501
0.016125
0.019229
0.022073
0.027255
0.031917
0.039177
0.045139
0.051360
0.060438
0.066140
0.073660
0.082998
0.089479
0.095440
0.098285
0.101908
0.108129
0.108116
0.106544
0.108349
0.110933
0.112998
0.110907
0.110633
0.113997
0.121257
0.138129
0.150844
0.162520
0.196017
0.234190
0.265868
0.310275
0.377022
0.470006
0.567405
0.670780
0.801170
0.939613
1.066366
1.166623
1.271037
1.384802
1.467394
1.549987
1.587640
1.546843
1.494357
1.391995
1.214820
1.016604
0.739678
0.322217
0.019574
-0.090061
-0.338932
-0.632743
-0.797449
-0.952284
-0.981391
-0.936465
-1.037528
-1.028969
-0.641668
-0.453090
-0.583767
-0.231015
0.056015
-0.078298
0.016244
-0.081442
-0.091067
0.312859
0.426104
0.410245
0.554403
0.781687
0.515931
0.010669
-0.049351
-0.737230
-1.526938
-1.536043
-1.599180
-1.257079
-0.779119
-1.365948
-2.093571
-2.019551
-2.532346
-3.302831
-2.564064
-1.709701
-1.434620
-0.975104
-1.122666
-2.845720
-5.387042
-4.971947
-1.150774
1.332854
1.405576
0.544172
0.191653
1.513599
2.113909
2.751886
5.144076
5.653727
5.012606
4.417724
3.992471
9.158722
14.136382
10.519620
5.755203
3.502222
-0.331446
-6.614466
-12.877484
-14.953303
-12.883485
-8.358342
-4.167779
-5.080876
-8.442027
-8.541791
-9.828435
-15.549837
-12.873461
1.382849
13.983918
24.092254
28.679482
19.251452
6.866483
2.947611
1.521472
-4.187461
-9.008248
-9.012158
-7.620075
-3.692137
3.057140
9.690300
13.596937
10.697394
1.015830
-8.972000
-13.144406
-14.149981
-14.771099
-8.958805
-0.836655
-1.240608
-7.169564
-13.471287
-13.624824
-6.298083
-3.137240
-3.824080
-2.283929
0.432711
3.282871
5.754809
7.685391
9.653380
12.793701
10.201983
2.778322
6.120483
14.340306
11.298150
3.510554
-0.416890
-4.384079
-7.350123
-4.975857
0.573032
7.614807
10.834877
5.786534
-0.853927
-3.171070
0.943121
4.793388
1.656937
-0.750086
0.343783
2.247089
2.744012
0.944586
2.243932
1.691652
-4.196521
-5.032467
-1.972414
-2.235832
-1.619416
5.035825
13.282923
14.134949
4.250766
-8.916104
-14.535677
-14.391259
-9.908977
-2.123746
-5.259937
-14.652120
-16.906399
-19.430318
-25.412786
-27.207796
-17.885777
-3.815461
1.415212
5.082343
8.224482
0.819005
1.145000
14.527711
18.792308
18.108066
20.087484
17.552395
12.291042
2.864311
-4.992643
-4.373110
-3.317686
0.186310
10.652866
20.144773
23.332631
11.099887
-20.449201
-36.184656
-41.852546
-55.709359
-21.002560
25.031940
11.575688
-4.663457
2.830574
-5.471622
-31.209181
-24.096749
19.882986
37.492640
44.256724
54.985905
25.588216
9.324912
22.199517
-7.307795
-23.998157
14.710627
29.370097
9.507189
-15.786167
-51.930549
-62.625208
-30.768062
-12.605882
-26.729997
-49.068233
-52.061552
-12.392146
8.082229
-3.408099
3.482492
-2.346454
-8.423998
5.122107
-1.477830
-17.392785
15.895422
60.069204
44.102295
21.948234
-1.399201
-37.096002
-20.099660
10.744650
-5.930646
-26.508435
-25.768110
-35.378237
-42.516413
-23.044483
-17.202056
-25.698818
-2.453759
20.560887
7.441035
-12.810746
-19.985289
-4.732510
33.569218
45.702965
2.281444
-33.641875
-29.666400
-32.548279
-39.779712
-18.553309
14.941933
29.010691
13.502533
-11.902264
-18.130733
-16.629807
-28.752670
-26.268003
1.826144
23.083200
32.682390
41.006121
30.271198
-15.991664
-69.952229
-87.997021
-65.889745
-29.219360
-8.041274
12.012797
74.512166
130.427458
124.362903
94.186170
55.296041
8.643007
-2.074251
21.878676
29.910686
3.438763
-21.539495
-12.424511
-21.415092
-77.195851
-101.804459
-61.065848
-21.288639
27.141700
124.108377
168.599335
133.854583
97.612788
55.884175
-6.698347
-71.533057
-80.834061
-26.650382
-10.801954
-39.898573
-48.482098
-25.542006
8.135074
3.903961
-15.168473
-19.402704
-28.513038
-41.528463
-52.056351
-52.531740
-34.472168
19.671507
54.135943
51.867377
80.608866
93.561141
45.007645
9.086144
35.451016
76.326525
105.387528
122.210086
91.605255
29.874771
-16.391468
-47.748327
-91.857193
-134.420960
-136.011273
-117.157590
-90.309809
-43.523282
-7.656878
32.577264
126.289308
191.780425
169.344775
169.388403
199.379116
173.003047
121.826415
87.026072
55.973661
40.399262
59.532975
87.957547
125.574007
155.453799
118.918986
79.989112
105.974204
120.112060
77.871964
51.548887
61.967646
53.330089
10.958551
-46.995686
-76.236736
-73.516979
-86.482788
-109.750474
-115.845163
-90.027362
-59.610889
-59.915351
-42.981353
-6.945840
-26.275704
-90.982089
-111.000078
-72.282462
-75.639196
-102.150345
-69.956020
-59.741699
-106.997394
-142.891620
-150.435813
-133.084628
-103.977905
-104.363414
-125.217077
-103.278130
-53.812616
-50.730743
-87.940953
-81.230901
-28.658303
-25.945300
-78.935372
-129.685465
-161.994114
-203.673111
-249.006004
-252.932929
-255.243058
-280.596161
-288.250237
-268.609977
-258.023408
-270.332005
-256.326890
-230.449343
-229.557832
-223.461352
-212.370314
-230.254830
-261.055266
-273.166959
-288.704471
-314.327732
-324.489088
-318.639127
-293.890271
-268.877491
-270.237909
-279.574501
-289.604933
-296.698169
-282.460303
-238.150922
-169.904707
-105.475002
-55.967925
-6.833355
29.792610
8.253680
-59.476663
-115.695651
-141.712201
-152.225801
-163.116065
-148.295539
-103.847183
-58.411448
-7.647354
36.194444
35.464743
-15.569537
-69.394503
-94.464459
-118.071661
-132.276304
-92.050995
-20.970452
40.406721
92.622917
137.212068
176.676517
221.153448
264.820942
289.345359
288.298741
265.516561
246.728573
223.818587
173.840264
138.333873
140.930240
157.897228
173.099353
200.651884
238.939585
273.742239
295.184509
282.749145
253.100260
175.852540
26.384401
-93.009366
-117.566280
-98.101623
-80.549118
-66.937032
-53.604716
-25.353150
26.845123
82.440641
103.032950
94.385782
84.171434
61.796051
31.866357
-5.418666
-37.106210
-57.508136
-85.147197
-89.971360
-73.631711
-69.830800
-105.138470
-188.828954
-321.665451
-464.738623
-545.185905
-581.427959
-583.648209
-571.190532
-561.580431
-529.305319
-526.358785
-554.860535
-564.499237
-552.569408
-544.587273
-544.986290
-552.036145
-562.158795
-521.114437
-416.486165
-302.452996
-197.479233
13.920410
261.374800
295.997175
356.445158
448.195695
213.131428
103.638455
183.514741
228.865271
225.799736
38.357684
261.093079
402.789714
136.331454
217.064973
289.734517
226.697401
273.207536
274.609230
94.069211
-49.229959
-125.011809
-160.530669
-85.148629
-166.157010
-206.347537
-115.157839
-90.286113
8.937947
96.608829
74.260721
215.225850
362.802851
267.192916
150.544895
206.195224
261.943226
185.571962
266.044415
276.240033
149.152979
203.769691
214.891382
148.791082
109.284264
89.016638
64.038121
20.444374
42.541259
80.557502
82.082846
89.267494
92.457950
66.263979
44.359035
54.572057
58.117876
11.867223
-76.062933
-158.319499
-191.497071
-177.899013
-139.489222
-84.341024
-9.234338
43.241886
65.897792
137.160433
186.671666
151.925875
112.728440
84.620239
68.585271
28.512938
-20.263958
-12.399757
12.881364
39.463402
28.699385
-3.490550
-22.343220
-77.502354
-121.807605
-155.124933
-184.043351
-139.616295
-26.533357
46.893410
45.768602
114.099502
211.497653
243.689380
251.088336
238.630892
241.397927
247.521942
239.471201
237.352001
246.840531
266.562618
278.568558
273.039645
252.890992
242.269848
233.911022
211.119231
158.752602
89.239991
52.405406
65.574327
102.900627
121.014750
127.660639
150.458638
203.208918
257.841216
272.359372
242.607879
221.152074
229.519186
209.311046
195.469299
188.604399
152.128553
119.247895
106.903450
130.905214
128.915638
77.514307
49.107372
23.292402
-27.217406
-53.869868
-51.102834
-42.711044
-23.348996
0.703682
20.269129
32.967611
38.321415
47.095842
63.727470
88.384368
104.852343
106.262090
137.458645
193.356013
240.866514
269.779970
238.106713
175.105965
145.680480
130.514956
96.253891
67.959956
56.693548
65.008186
70.178593
42.569406
58.691629
98.204395
143.847424
186.317908
212.750839
232.977655
183.692913
249.986193
293.437820
184.981841
230.121960
291.945413
264.322978
244.775169
244.406285
231.138105
188.325221
172.745367
120.829955
80.248736
92.547955
115.447783
126.159819
106.630454
125.076561
150.448600
159.676322
168.000572
140.438403
113.900239
102.500050
98.622481
85.840068
48.082267
66.630203
88.382376
54.438488
40.797022
30.645019
24.902836
27.005644
18.680068
3.529870
-25.270613
-61.290046
-67.990254
-32.797169
-7.406946
-5.059176
-19.442020
-29.770406
-42.709720
-69.014093
-103.014870
-139.398758
-143.891457
-153.621338
-131.720058
-102.897002
-118.221764
-86.632959
-61.677068
-52.303096
-41.656780
-58.782254
-51.110801
-26.637299
-1.362153
-9.950094
-57.405810
-79.510515
-71.578255
-61.830217
-65.181757
-69.684068
-50.929356
-17.586079
27.053987
74.111452
90.923099
81.651709
52.998774
24.252323
17.930857
12.306089
5.698619
19.090941
48.801104
77.731445
106.709063
138.251889
161.634366
168.992279
151.127766
111.455995
64.642165
17.876912
-15.673428
-47.717373
-93.010781
-124.880422
-143.914930
-169.645735
-196.036351
-218.268602
-233.797542
-248.412878
-262.420357
-260.022713
-240.262700
-204.196794
-169.417519
-163.360264
-176.432319
-192.418970
-201.880251
-217.645060
-253.928158
-274.124348
-260.518237
-232.905959
-188.771142
-118.125451
-47.974617
20.963101
112.014343
166.876016
169.528493
155.747531
117.521889
65.025635
0.699551
-67.020661
-110.657010
-97.165197
-19.478495
53.097532
78.413981
97.357024
129.235470
129.797335
112.917862
112.473645
81.996360
23.999781
-27.073723
-83.182049
-142.973365
-187.406682
-197.680776
-201.783304
-221.410862
-237.904320
-235.840737
-192.916699
-148.519257
-115.555500
-73.927444
-44.811370
-5.077801
32.132122
44.231839
46.341141
29.990555
10.369232
-2.622814
-24.823634
-54.461089
-72.873453
-86.905350
-119.054761
-170.570650
-209.907320
-194.503355
-162.452163
-153.235610
-150.686002
-143.306788
-123.744198
-107.532095
-96.327539
-85.323004
-65.422196
-26.521703
16.293752
55.902632
88.278534
109.735611
119.123351
117.301325
106.860979
97.741034
92.022489
77.431831
49.555602
7.751657
-45.289849
-96.343611
-130.030589
-138.526312
-131.611823
-115.628056
-63.222488
8.551635
64.841772
118.801531
164.756282
194.032114
200.820615
188.482665
179.395969
166.053756
131.695019
80.463835
29.699455
-8.265900
-41.032000
-76.273948
-99.426297
-106.722672
-100.309795
-87.701193
-89.620631
-91.656706
-83.741071
-71.430682
-66.194553
-73.488071
-68.165699
-47.361159
-28.533713
-35.000909
-61.023174
-90.769212
-125.985443
-157.186961
-186.702845
-187.861423
-154.481258
-103.627544
-53.944345
-48.393637
-45.475937
-30.546308
-28.763535
-24.840273
-30.428154
-12.386506
39.431726
72.466400
88.819557
110.817211
121.364294
104.691077
80.562520
70.233615
74.486781
81.522842
77.124698
69.106428
70.027812
60.748109
49.205827
65.801348
90.794645
98.182432
99.087190
109.579982
124.460255
135.138522
136.223559
126.651357
117.068505
113.753334
113.075586
106.923229
93.156815
78.664609
62.760304
41.312033
14.237188
-14.377301
-21.200119
-3.782953
15.211005
34.829704
49.070428
46.993570
35.717031
23.734703
14.606445
11.580135
8.589154
-5.230253
-23.008783
-35.155804
-46.439617
-61.911148
-75.511311
-78.337859
-70.459371
-47.587338
-7.858185
34.965842
71.132018
92.514542
90.577699
80.339452
84.555992
99.628752
107.373720
102.892969
93.909142
76.065670
46.239104
9.519076
-31.362693
-68.908783
-97.981503
-95.885968
-60.304790
-17.602334
31.850452
80.840071
116.470606
141.958501
156.272480
146.056054
125.067832
