EVENT_NAME: 202302060117
EVENT_ID: 13194
EVENT_DATE_YYYYMMDD: 2023/02/06
EVENT_TIME_HHMMSS: 01:17:32.00000
EVENT_LATITUDE_DEGREE: 37.288
EVENT_LONGITUDE_DEGREE: 37.043
EVENT_DEPTH_KM: 8.6
HYPOCENTER_REFERENCE: AFAD
MAGNITUDE_W: 7.7
MAGNITUDE_W_REFERENCE: AFAD
MAGNITUDE_L: 
MAGNITUDE_L_REFERENCE: 
FOCAL_MECHANISM: 
NETWORK: TK
STATION_CODE: 5809
STATION_NAME: 
STATION_LATITUDE_DEGREE: 39.2308
STATION_LONGITUDE_DEGREE: 37.3824
STATION_ELEVATION_M: 1546.0
LOCATION: Kahramanmaras_Pazarck_Turkiye
SENSOR_DEPTH_M: 
VS30_M/S: 340
SITE_CLASSIFICATION_EC8: C
MORPHOLOGIC_CLASSIFICATION: 
EPICENTRAL_DISTANCE_KM: 218.05
EARTHQUAKE_BACKAZIMUTH_DEGREE: 
DATE_TIME_FIRST_SAMPLE_YYYYMMDD_HHMMSS: 2023/02/06 01:17:49.5973010
DATE_TIME_FIRST_SAMPLE_PRECISION: millisecond
SAMPLING_INTERVAL_S: 0.01
NDATA: 14501
DURATION_S: 
STREAM: HNN
UNITS: cm/s^2
INSTRUMENT: sensor = GMS+/GEOSIG | digitizer = 
INSTRUMENT_ANALOG/DIGITAL: 
INSTRUMENTAL_FREQUENCY_HZ: 
INSTRUMENTAL_DAMPING: 
FULL_SCALE_G: 
N_BIT_DIGITAL_CONVERTER: 
PGA_CM/S^2: 23.615
TIME_PGA_S: 
BASELINE_CORRECTION: BASELINE REMOVED
FILTER_TYPE: BUTTERWORTH
FILTER_ORDER: 
LOW_CUT_FREQUENCY_HZ: 
HIGH_CUT_FREQUENCY_HZ: 
LATE/NORMAL_TRIGGERED: 
DATABASE_VERSION: 
HEADER_FORMAT: DYNA 1.2
DATA_TYPE: Acceleration
PROCESSING: Automatic Paolucci et al., 2011
DATA_TIMESTAMP_YYYYMMDD_HHMMSS: 
DATA_LICENSE: U (unknown license)
DATA_CITATION: Turkish Accelerometric Archive v 1.0 - Disaster And Emergency Management Presidency, Earthquake Department
DATA_CREATOR: AFAD
ORIGINAL_DATA_MEDIATOR_CITATION: : AFAD - Disaster And Emergency Management Presidency
ORIGINAL_DATA_MEDIATOR: AFAD PROCESS SERVICE
ORIGINAL_DATA_CREATOR_CITATION: AFAD PROCESS SERVICE
ORIGINAL_DATA_CREATOR: network: TK
USER1: GuestUser
USER2: 
USER3: 
USER4: 
USER5: 
[...]
3.809629
3.067472
2.435716
1.958003
1.626799
1.373784
1.158177
1.024396
0.996860
1.054269
1.028811
0.860741
0.561229
0.016235
-0.852688
-2.016968
-3.276843
-4.414627
-5.333946
-5.954012
-6.236120
-6.273787
-6.185206
-6.019215
-5.815816
-5.613717
-5.438374
-5.357067
-5.405644
-5.478379
-5.430582
-5.166138
-4.611794
-3.862623
-3.109297
-2.415197
-1.752010
-0.871397
0.395232
1.881364
3.274499
4.350457
5.051311
5.351343
5.531102
5.799962
6.042325
6.195847
6.216109
6.111422
5.886203
5.474471
4.808686
3.983403
3.216827
2.665080
2.444017
2.557796
2.869517
3.193447
3.332423
3.254492
3.118114
3.110840
3.282027
3.430095
3.418405
3.186951
2.707679
2.123461
1.519241
0.923593
0.301448
-0.362259
-0.992716
-1.557971
-1.995421
-2.233109
-2.288959
-2.226095
-2.060364
-1.782412
-1.350678
-0.738665
-0.010276
0.796303
1.587296
2.178788
2.433880
2.252821
1.668863
0.797861
-0.173672
-1.104680
-2.002178
-2.843047
-3.725479
-4.699869
-5.677376
-6.538767
-7.095969
-7.240140
-6.919327
-6.185483
-5.147191
-3.978495
-2.875521
-1.876713
-0.945186
-0.000670
0.917610
1.612748
1.912261
1.727825
1.064118
-0.029505
-1.384975
-2.837077
-4.340874
-5.888312
-7.422761
-8.745240
-9.712096
-10.188511
-10.219683
-9.988230
-9.408688
-8.469108
-7.118834
-5.309291
-3.253488
-1.168072
0.714726
2.210210
3.256815
3.921561
4.285755
4.338488
4.078200
3.498658
2.565571
1.287253
-0.214466
-1.756448
-3.150104
-4.167355
-4.670006
-4.745599
-4.557007
-4.226063
-3.821085
-3.251934
-2.327160
-0.937402
0.812654
2.622976
4.222627
5.398596
6.080227
6.466242
6.754065
6.982920
7.021365
6.717177
5.995022
4.920362
3.668020
2.266313
0.745891
-0.960785
-2.830594
-4.741188
-6.641650
-8.240782
-9.362979
-9.927975
-9.908752
-9.335704
-8.245978
-6.785043
-4.940432
-2.669800
-0.065367
2.585824
4.932307
6.652750
7.503749
7.518556
6.923687
5.974495
4.888145
3.816602
2.766620
1.604678
0.355194
-0.777394
-1.675412
-2.167153
-2.196767
-1.881409
-1.346287
-0.770901
-0.247469
0.200890
0.628208
1.101505
1.659746
2.295658
2.924036
3.529555
4.058442
4.453030
4.756179
4.967889
5.065042
5.019583
4.811768
4.408088
3.649566
2.508665
1.109295
-0.443078
-1.920638
-3.186228
-4.229976
-4.916802
-5.052661
-4.425582
-3.030888
-1.179522
0.790817
2.554901
3.870625
4.614860
4.807868
4.672528
4.296644
3.664369
2.838826
1.804170
0.640669
-0.490620
-1.519561
-2.383290
-3.108042
-3.733564
-4.258815
-4.699641
-5.129038
-5.488816
-5.682863
-5.649613
-5.136832
-4.124516
-2.669037
-0.935865
0.802761
2.526841
4.150390
5.741209
7.332287
8.717109
9.811512
10.537303
10.829801
10.730570
10.255974
9.435626
8.369279
7.081089
5.633403
4.131424
2.619055
1.228777
0.050469
-0.821831
-1.255384
-1.247072
-0.937948
-0.617395
-0.439714
-0.441013
-0.556350
-0.725719
-1.070171
-1.643220
-2.502013
-3.496664
-4.357016
-4.987992
-5.252177
-5.175026
-4.947209
-4.755241
-4.718354
-4.728485
-4.647698
-4.403776
-3.983991
-3.530177
-3.186504
-3.077662
-3.227808
-3.434064
-3.629669
-3.806571
-3.916193
-4.151284
-4.648739
-5.343879
-6.207088
-7.116276
-7.900515
-8.522919
-8.983488
-9.386648
-9.722009
-9.824617
-9.530820
-8.725020
-7.489824
-6.012004
-4.623805
-3.504465
-2.592680
-1.776489
-0.888343
0.015130
0.744818
1.093686
0.910289
0.234113
-0.873278
-2.286935
-3.858271
-5.441297
-6.878853
-8.169640
-9.281187
-10.051919
-10.320000
-10.001265
-9.082725
-7.657379
-5.986812
-4.288709
-2.783874
-1.607125
-0.622345
0.383476
1.576590
2.962452
4.458455
5.909258
7.140039
8.057019
8.676046
9.189867
9.756940
10.323234
10.671063
10.591833
9.937738
8.778913
7.343954
5.883799
4.686528
3.720191
2.910754
2.278739
1.821547
1.749331
2.065209
2.664753
3.486658
4.311162
4.958503
5.168395
4.830957
4.148806
3.340148
2.542141
1.707246
0.723245
-0.385444
-1.524787
-2.541259
-3.204447
-3.437978
-3.259258
-2.801287
-2.358124
-1.989253
-1.747929
-1.631034
-1.326586
-0.706520
0.217994
1.445916
2.891525
4.488837
6.237075
8.075193
9.923701
11.678693
13.131315
14.242083
14.948911
15.390776
15.862514
16.253984
16.569602
16.747803
16.552717
16.059417
15.348173
14.483924
13.479921
12.141077
10.425570
8.432110
6.460991
4.886797
3.825385
3.411315
3.520937
3.701216
3.624324
3.114659
2.036362
0.400604
-1.566100
-3.714900
-5.858245
-7.775852
-9.536560
-11.082699
-12.258668
-13.170194
-13.897025
-14.508519
-15.011170
-15.306526
-15.372767
-15.177942
-14.718153
-13.997557
-13.026544
-11.885904
-10.734093
-9.709568
-8.861166
-8.227852
-7.753776
-7.329835
-6.845628
-6.264268
-5.665762
-5.147785
-4.883602
-5.052451
-5.723951
-6.783545
-7.923926
-8.845323
-9.413696
-9.650864
-9.635018
-9.455000
-9.328753
-9.370835
-9.525137
-9.719704
-9.778931
-9.800752
-9.903620
-9.963107
-9.880501
-9.570858
-9.035736
-8.211233
-7.156316
-6.139844
-5.340539
-4.782557
-4.350563
-3.916491
-3.437480
-2.935348
-2.432698
-1.946153
-1.454672
-0.904484
-0.250908
0.463454
1.120666
1.671894
2.117396
2.528608
2.971772
3.445069
4.011103
4.659224
5.430215
6.354469
7.366265
8.548468
9.711709
10.685838
11.538916
12.302633
12.971016
13.388723
13.617838
13.702782
13.729278
13.852927
13.865136
13.761488
13.675765
13.573416
13.481198
13.306114
12.772810
11.784134
10.398271
8.818882
7.466790
6.565655
6.205876
6.349787
6.635272
6.818408
6.751907
6.275493
5.554377
4.784425
3.954466
3.116714
2.272988
1.387439
0.530204
-0.307028
-1.043730
-1.630026
-2.136314
-2.461804
-2.717416
-2.873536
-2.742614
-2.522590
-2.266459
-2.118132
-2.225936
-2.330363
-2.248796
-1.876809
-1.125040
-0.016351
1.295477
2.643412
3.888480
4.955346
5.925579
6.883343
7.950730
9.018116
10.030171
11.101714
12.119225
13.139333
14.165936
15.084994
15.883261
16.516575
16.936619
17.035331
16.825438
16.414745
15.798575
15.043690
14.216069
13.262720
12.202607
10.984295
9.574275
7.994366
6.164561
4.099146
1.928265
-0.194039
-2.188278
-4.000679
-5.493305
-6.552639
-7.203618
-7.589893
-7.828880
-7.958504
-8.014874
-7.897719
-7.556644
-7.112701
-6.638624
-6.289756
-6.110776
-5.964527
-5.635142
-4.954290
-3.997565
-2.941089
-2.151395
-1.838894
-1.915007
-2.236599
-2.552997
-2.820558
-3.123708
-3.432572
-3.710524
-3.884049
-3.853137
-3.558820
-3.011489
-2.349081
-1.768500
-1.419112
-1.271305
-1.146356
-0.976209
-0.754367
-0.548891
-0.455115
-0.538241
-0.841130
-1.221950
-1.585885
-1.988266
-2.521570
-3.273339
-4.183825
-5.151461
-6.115720
-6.952952
-7.618478
-8.343490
-9.340220
-10.505019
-11.666182
-12.605503
-13.169979
-13.466375
-13.438320
-13.066332
-12.454839
-11.499932
-10.138749
-8.386095
-6.347436
-4.164347
-1.989310
-0.024686
1.587174
2.714827
3.323982
3.386846
2.865232
1.790312
0.312752
-1.399119
-3.218015
-4.953784
-6.534472
-7.814868
-8.723277
-9.259698
-9.259698
-8.779647
-7.939038
-6.817880
-5.540861
-4.172924
-2.759527
-1.325348
0.107272
1.438063
2.521554
3.369437
4.107697
4.817123
5.490441
6.015432
6.325075
6.358845
6.087387
5.592789
4.834786
3.812858
2.587273
1.219335
-0.163929
-1.466666
-2.533533
-3.343489
-3.872637
-4.133184
-4.238910
-4.070840
-3.659109
-3.139053
-2.590424
-2.122842
-1.711889
-1.317042
-0.972330
-0.704769
-0.557741
-0.607097
-0.852838
-1.139882
-1.213396
-0.916222
-0.193807
0.847862
2.006686
3.178239
4.271083
5.136370
5.619278
5.742927
5.601873
5.337949
5.021291
4.655278
4.450321
4.425643
4.473180
4.441228
4.111583
3.538015
2.876386
2.181766
1.330507
0.258964
-0.920902
-2.102847
-3.116721
-3.784065
-4.092670
-4.069551
-3.819914
-3.470266
-2.844226
-1.771904
-0.233299
1.557281
3.236421
4.575264
5.518741
6.277263
6.942009
7.501549
7.890162
7.884707
7.319971
6.126077
4.377579
2.263847
-0.029644
-2.424445
-4.760278
-6.824134
-8.495222
-9.650150
-10.323988
-10.625839
-10.592329
-10.136696
-9.087234
-7.499533
-5.561145
-3.530279
-1.657612
-0.058481
1.015399
1.328939
0.832262
-0.305521
-1.819189
-3.552621
-5.412559
-7.442906
-9.698471
-12.184190
-14.674326
-16.816632
-18.407451
-19.450419
-20.150754
-20.523521
-20.538588
-20.017234
-18.820743
-17.072245
-14.882922
-12.627876
-10.435955
-8.391322
-6.623342
-4.927317
-3.443263
-2.291452
-1.342520
-0.602701
-0.090699
0.264923
0.539757
0.820826
1.262951
1.760406
2.176035
2.571401
2.844937
3.064440
3.297971
3.408113
3.604237
3.931804
4.185598
4.426662
4.603823
4.711887
4.878917
5.017633
5.190898
5.459238
5.832784
6.442979
7.280730
8.309931
9.309777
10.224420
11.155687
12.002790
12.935357
14.007939
14.923361
15.498487
15.570442
14.962845
13.703490
11.992138
10.073232
8.045744
6.070208
4.327945
2.857398
1.840147
1.353082
1.396463
1.946131
2.824407
3.940629
5.178683
6.352054
7.396581
8.266284
8.953110
9.557849
10.129598
10.563411
10.705244
10.411446
9.513688
8.046518
6.122157
3.865813
1.528421
-0.675450
-2.535649
-3.923849
-4.871742
-5.481937
-5.868212
-6.166426
-6.436585
-6.602057
-6.572444
-6.354499
-5.981992
-5.411801
-4.525473
-3.279367
-1.828823
-0.248135
1.356711
2.833231
4.055699
4.824352
5.176078
5.184909
4.810584
4.114146
3.285226
2.547225
2.037560
1.677002
1.252022
0.811975
0.579742
0.777945
1.471525
2.400974
3.251454
3.765015
3.733323
3.178978
2.402791
1.702197
1.126032
0.432191
-0.580904
-1.884419
-3.389775
-4.860841
-6.138120
-7.190959
-7.960132
-8.384593
-8.400180
-8.025854
-7.249408
-6.158643
-4.969685
-3.871387
-3.000385
-2.436429
-2.161075
-2.118474
-2.233291
-2.533843
-3.155987
-3.820994
-4.622118
-5.614172
-6.414517
-7.294871
-8.070019
-8.551369
-9.077139
-9.324958
-9.397693
-9.421332
-8.917123
-8.112622
-7.214085
-6.266971
-5.576249
-5.118018
-4.764734
-4.558738
-4.563155
-4.747590
-5.032815
-5.297259
-5.469745
-5.477798
-5.343499
-5.113345
-4.739279
-4.237407
-3.673192
-3.065595
-2.371755
-1.711945
-1.001480
-0.205291
0.445427
0.948078
1.148878
1.068610
0.965742
0.882616
0.791957
0.604144
0.336063
-0.042419
-0.593646
-1.261770
-1.954831
-2.600095
-3.074171
-3.230552
-3.224317
-3.055988
-2.545285
-1.801309
-0.941738
-0.118273
0.500494
0.979765
1.446048
2.004809
2.665399
3.346770
4.025023
4.573134
4.997854
5.380232
5.647273
5.897430
6.164990
6.368388
6.594906
6.908965
7.206659
7.425123
7.600207
7.891406
8.422632
9.061920
9.642242
10.066442
10.332704
10.387255
10.252176
9.994746
9.545087
8.857481
7.812954
6.396180
4.764837
3.185967
1.776466
0.505162
-0.391038
-0.624050
-0.199329
0.647774
1.746592
2.978151
4.322710
5.717663
6.966887
7.767751
7.754503
6.950002
5.468285
3.618218
1.877253
0.406187
-0.683799
-1.418683
-1.944973
-2.284750
-2.288906
-1.796646
-0.853949
0.383066
1.603196
2.553167
3.240512
3.700821
3.999554
4.085277
3.820314
3.209859
2.318335
1.389664
0.680498
0.303574
0.369295
0.807004
1.401093
1.924006
2.239624
2.519913
2.952946
3.382862
3.693024
3.767577
3.469364
3.047500
2.703567
2.629274
2.950866
3.505990
4.214637
4.940688
5.663362
6.514361
7.389000
8.075047
8.482363
8.592504
8.502884
8.449631
8.558214
8.859804
9.409213
10.154487
10.858978
11.396957
11.802194
12.019100
11.973121
11.608667
10.951973
10.189294
9.470257
8.702902
7.784622
6.831274
5.991184
5.353973
4.771573
4.103450
3.498450
3.058403
3.037621
3.571704
4.454395
5.501519
6.370183
6.810490
6.810230
6.441359
5.997935
5.707774
5.573214
5.597112
5.575811
5.316563
4.892361
4.263203
3.460520
2.574452
1.844763
1.538756
1.410691
1.225736
0.970643
0.658922
0.349278
0.193157
0.067689
-0.454964
-1.275831
-2.203982
-3.086154
-3.449829
-3.077582
-2.027341
-0.476526
1.352759
3.303356
5.222522
6.925300
8.142313
8.691202
8.574306
7.875270
6.663713
5.051073
3.199447
1.292231
-0.407431
-1.881354
-3.198118
-4.309146
-5.344061
-6.416643
-7.522735
-8.506736
-9.198758
-9.680888
-10.227700
-11.110911
-12.388969
-13.854320
-15.147445
-16.179243
-17.030763
-17.655765
-18.040481
-18.235307
-18.258947
-17.988788
-17.353396
-16.460574
-15.517357
-14.782993
-14.439840
-14.534136
-14.978859
-15.655814
-16.360045
-16.886855
-17.281702
-17.626934
-18.019184
-18.484428
-18.830959
-18.967337
-18.823166
-18.253236
-17.313396
-16.184185
-15.043544
-13.934855
-12.543538
-10.721006
-8.610392
-6.332747
-3.995875
-1.713814
0.191583
1.673819
2.844853
3.657926
4.332283
4.877796
4.916501
4.299812
3.149040
1.725771
0.407189
-0.518884
-1.059981
-1.431190
-1.717454
-1.923710
-2.025279
-2.009694
-1.681087
-0.739948
0.469531
1.548347
2.378565
2.793154
2.964341
3.162544
3.336328
3.448288
3.704679
4.034064
4.142387
4.105240
4.152518
4.364748
4.755439
5.271338
5.781522
6.238453
6.679799
7.142445
7.597558
7.902526
7.904344
7.410005
6.470944
5.442523
4.508917
3.692726
2.942516
2.221400
1.609126
1.111151
0.708770
0.270801
-0.355240
-0.998165
-1.417951
-1.439511
-1.106229
-0.363813
0.908270
2.424536
4.087570
5.850095
7.531313
8.932760
9.723494
9.800644
9.240065
8.299965
7.202185
5.864120
4.317722
2.690795
1.090365
-0.410834
-1.817738
-3.034231
-3.927573
-4.440875
-4.673627
-4.586865
-3.995373
-3.004099
-1.807608
-0.583582
0.624598
1.904734
3.184091
4.283429
4.948175
5.022468
4.521116
3.387748
1.670942
-0.456817
-2.875777
-5.347209
-7.689017
-9.883017
-11.946614
-13.891496
-15.714548
-17.451356
-19.094908
-20.624162
-22.037040
-23.137157
-23.615131
-23.490442
-22.933240
-21.965865
-20.551429
-18.730456
-16.648416
-14.353367
-11.886870
-9.324260
-6.879584
-4.852615
-3.252965
-2.087646
-1.406535
-1.007531
-0.725943
-0.460720
-0.269531
-0.447732
-0.902326
-1.208593
-1.127286
-0.633727
0.245847
1.347263
2.433612
3.590358
4.928942
6.402865
8.003035
9.519301
10.737612
11.726029
12.567157
13.295026
13.888076
14.147065
13.820277
12.809519
11.268576
9.511765
7.797816
6.365715
5.447695
4.959591
4.621113
4.292247
3.894282
3.434493
2.991329
2.540631
1.942126
1.251402
0.825123
0.893182
1.560785
2.698049
3.957923
5.154414
5.937354
5.916573
4.901919
2.880405
0.348966
-2.209228
-4.601172
-6.461370
-7.643054
-8.378198
-8.872277
-9.415192
-10.016295
-10.507776
-11.021338
-11.580099
-12.239390
-12.689828
-12.526434
-11.634911
-9.824069
-7.343805
-4.342186
-1.242636
1.268540
3.075746
4.103387
4.603181
4.755145
4.366791
3.372919
1.861329
-0.010558
-2.051295
-3.749918
-4.864583
-5.425162
-5.451399
-5.593492
-6.188880
-7.106641
-8.410676
-9.682500
-10.554541
-10.747808
-10.204634
-9.391820
-8.391194
-7.493696
-6.790765
-6.116927
-5.553231
-4.740157
-3.880066
-3.466256
-3.626273
-4.534162
-5.678960
-6.458264
-6.907403
-6.895713
-6.481124
-6.146283
-5.755852
-5.032659
-4.067101
-2.809046
-1.285767
0.496761
2.566851
4.759292
7.073564
9.211714
10.777335
11.805236
12.061627
11.682106
11.166986
10.864096
11.006189
11.319209
11.545987
11.570145
11.362070
10.919426
10.334948
9.703452
9.064163
8.830371
8.880766
8.932719
9.145209
9.410432
9.762417
10.143237
10.366637
10.635237
11.053983
11.351157
11.330635
11.201011
10.968518
10.605622
10.165056
9.428094
8.653725
8.059116
7.342936
6.676112
6.350622
6.272692
6.526744
7.029135
7.320335
7.542956
7.920398
8.191856
8.544880
9.240279
9.884503
10.011010
9.698768
8.913490
7.603740
6.398156
5.280894
3.805672
2.087827
0.105278
-1.965073
-3.666813
-4.705885
-4.940975
-4.740694
-4.464041
-4.029710
-3.367042
-2.197567
-0.375035
1.526725
3.153911
4.432749
4.957220
4.734079
4.014002
2.947914
1.896893
0.949000
0.193854
-0.340229
-0.842620
-0.942891
-0.817163
-0.733778
-0.099945
0.694945
1.492173
2.180557
2.192507
2.081326
1.984172
2.389670
3.531090
4.712514
5.815229
6.648564
7.266292
7.656203
7.928440
8.244058
8.746189
9.851241
11.144886
12.269161
13.129772
13.464612
13.524878
13.573715
13.668010
14.064416
14.881386
15.770311
16.670667
17.585569
18.062243
18.270577
18.504887
18.398642
17.960673
17.569722
17.271248
16.806783
15.725889
13.960506
12.197201
10.971096
9.987614
8.930878
7.777249
6.366709
4.782903
3.291835
2.018193
1.049778
0.336455
-0.520000
-1.844557
-3.470445
-5.072953
-6.614416
-8.348887
-10.158430
-11.814451
-13.291492
-14.474995
-15.339762
-15.816956
-15.986845
-15.994118
-15.617715
-14.668263
-13.360592
-12.082014
-10.946569
-9.963607
-9.263533
-9.050004
-9.513950
-10.490677
-11.770034
-13.222137
-14.655537
-15.970482
-17.018906
-17.658455
-17.896662
-17.895104
-17.433496
-16.183234
-14.363559
-12.328278
-10.418724
-8.725817
-7.075511
-5.355848
-3.872314
-2.849088
-1.759362
-0.481044
0.614137
1.416300
1.864400
1.788028
1.223812
0.375410
-0.794585
-2.130052
-3.502407
-5.148037
-7.043823
-8.857783
-10.454057
-11.773159
-12.714298
-13.429180
-14.129254
-14.650868
-14.657363
-14.118345
-12.985757
-11.348180
-9.622802
-8.161607
-6.938360
-5.578475
-3.979864
-2.224612
-0.357141
1.139642
1.697883
1.460974
0.624262
-0.337659
-1.007861
-1.642214
-1.929258
-1.901983
-1.830806
-1.631305
-1.435960
-1.165022
-0.781345
-0.042046
0.927408
1.321995
1.098595
0.658807
0.174080
-0.147253
-0.171931
0.108878
0.394103
0.222656
-0.565480
-1.804573
-2.796887
-3.241090
-3.636977
-4.066374
-4.377576
-4.433166
-4.083519
-3.486832
-2.840270
-2.224620
-1.738335
-1.639623
-1.750025
-1.562992
-1.062939
-0.477423
-0.112709
0.098223
0.410723
0.713353
1.150542
1.767750
2.301573
2.709668
3.133609
3.831865
4.907045
6.201208
7.614865
9.208281
10.702726
11.963120
13.237541
14.152184
14.509364
14.815630
15.125274
14.933565
14.126985
13.091810
12.096639
11.298631
10.894692
10.861961
10.897809
11.018341
11.216803
11.047434
10.711554
10.755715
11.111077
11.548266
11.832192
11.671655
11.049511
10.090188
8.884345
7.473805
5.733100
3.482470
0.780884
-2.167482
-5.240277
-8.056162
-10.236134
-11.898909
-13.239312
-14.266954
-14.945208
-15.470979
-15.902973
-15.959343
-15.439807
-14.283580
-12.865508
-11.170262
-9.108225
-6.908770
-4.547739
-2.587271
-1.158808
-0.243645
0.392266
1.079872
1.377566
1.845927
2.559249
2.949421
2.968643
2.603409
2.110629
1.713184
1.550569
1.397566
1.265863
1.596548
2.623670
3.738853
4.023818
3.692614
3.541949
4.206694
5.541382
7.155579
8.809781
9.936914
10.490220
10.997546
11.723857
12.519007
13.329222
13.804338
13.466639
12.452765
11.094958
9.559989
7.700310
5.548652
3.203207
0.726060
-1.566392
-3.440098
-4.496834
-4.626199
-4.251614
-3.683242
-3.017717
-2.231140
-1.330784
-0.048310
1.805653
3.942244
5.996229
7.469633
8.310761
8.828998
8.930567
8.373364
7.119205
5.413568
3.362700
0.816974
-1.907732
-4.132644
-5.873869
-7.474299
-8.927441
-10.251219
-11.400692
-12.317413
-13.136462
-13.686131
-13.496760
-12.890462
-12.588092
-12.868122
-13.645088
-14.313731
-14.689875
-14.995623
-15.010949
-14.657405
-14.205409
-14.264117
-15.095115
-16.005601
-16.594755
-16.862317
-16.895567
-16.992720
-17.195340
-17.576679
-17.904247
-17.788390
-17.315613
-16.691391
-16.409283
-16.605408
-16.786467
-16.645932
-16.182766
-15.698819
-15.112523
-14.197880
-13.210762
-12.295860
-11.614749
-10.850252
-9.778190
-8.978365
