EVENT_NAME: 202302060117
EVENT_ID: 13194
EVENT_DATE_YYYYMMDD: 2023/02/06
EVENT_TIME_HHMMSS: 01:17:32.00000
EVENT_LATITUDE_DEGREE: 37.288
EVENT_LONGITUDE_DEGREE: 37.043
EVENT_DEPTH_KM: 8.6
HYPOCENTER_REFERENCE: AFAD
MAGNITUDE_W: 7.7
MAGNITUDE_W_REFERENCE: AFAD
MAGNITUDE_L: 
MAGNITUDE_L_REFERENCE: 
FOCAL_MECHANISM: 
NETWORK: TK
STATION_CODE: 2304
STATION_NAME: 
STATION_LATITUDE_DEGREE: 38.72096
STATION_LONGITUDE_DEGREE: 39.86293
STATION_ELEVATION_M: 957.0
LOCATION: Kahramanmaras_Pazarck_Turkiye
SENSOR_DEPTH_M: 
VS30_M/S: 489
SITE_CLASSIFICATION_EC8: B
MORPHOLOGIC_CLASSIFICATION: 
EPICENTRAL_DISTANCE_KM: 293.97
EARTHQUAKE_BACKAZIMUTH_DEGREE: 
DATE_TIME_FIRST_SAMPLE_YYYYMMDD_HHMMSS: 2023/02/06 01:18:00.1682390
DATE_TIME_FIRST_SAMPLE_PRECISION: millisecond
SAMPLING_INTERVAL_S: 0.01
NDATA: 18251
DURATION_S: 
STREAM: HNN
UNITS: cm/s^2
INSTRUMENT: sensor = CMG-5T/GURALP | digitizer = 
INSTRUMENT_ANALOG/DIGITAL: 
INSTRUMENTAL_FREQUENCY_HZ: 
INSTRUMENTAL_DAMPING: 
FULL_SCALE_G: 
N_BIT_DIGITAL_CONVERTER: 
PGA_CM/S^2: 32.682
TIME_PGA_S: 
BASELINE_CORRECTION: BASELINE REMOVED
FILTER_TYPE: BUTTERWORTH
FILTER_ORDER: 
LOW_CUT_FREQUENCY_HZ: 
HIGH_CUT_FREQUENCY_HZ: 
LATE/NORMAL_TRIGGERED: 
DATABASE_VERSION: 
HEADER_FORMAT: DYNA 1.2
DATA_TYPE: Acceleration
PROCESSING: Automatic Paolucci et al., 2011
DATA_TIMESTAMP_YYYYMMDD_HHMMSS: 
DATA_LICENSE: U (unknown license)
DATA_CITATION: Turkish Accelerometric Archive v 1.0 - Disaster And Emergency Management Presidency, Earthquake Department
DATA_CREATOR: AFAD
ORIGINAL_DATA_MEDIATOR_CITATION: : AFAD - Disaster And Emergency Management Presidency
ORIGINAL_DATA_MEDIATOR: AFAD PROCESS SERVICE
ORIGINAL_DATA_CREATOR_CITATION: AFAD PROCESS SERVICE
ORIGINAL_DATA_CREATOR: network: TK
USER1: GuestUser
USER2: 
USER3: 
USER4: 
USER5: 
[...]
-0.298167
-0.402182
-0.406267
-0.262027
0.034938
0.441262
0.875867
1.271192
1.563757
1.762677
1.886177
1.946827
1.899691
1.707371
1.375526
0.956948
0.565082
0.249263
-0.043616
-0.402486
-0.873543
-1.407450
-1.894848
-2.232036
-2.339822
-2.186469
-1.786116
-1.212927
-0.600457
-0.135684
0.073292
0.076435
0.033069
0.062609
0.163483
0.288240
0.410169
0.496588
0.526128
0.530842
0.586464
0.736675
0.956650
1.184794
1.388742
1.549637
1.655225
1.736302
1.844718
2.020697
2.168395
2.186936
2.103975
2.049611
2.086692
2.173111
2.252302
2.288441
2.251046
2.082924
1.763963
1.372096
1.060363
0.946606
1.024540
1.173180
1.278768
1.270284
1.109075
0.828138
0.520175
0.241752
-0.052069
-0.415654
-0.827318
-1.203472
-1.484409
-1.668558
-1.753719
-1.764088
-1.742405
-1.753088
-1.820965
-1.897013
-1.918695
-1.881614
-1.846103
-1.823791
-1.779481
-1.670122
-1.508284
-1.349588
-1.205348
-1.030940
-0.779226
-0.501116
-0.336764
-0.365360
-0.475975
-0.485402
-0.364101
-0.204777
-0.139727
-0.227402
-0.452088
-0.752195
-1.046330
-1.278873
-1.432540
-1.533099
-1.633657
-1.775697
-1.902024
-1.902652
-1.740499
-1.521154
-1.364658
-1.314063
-1.333860
-1.344544
-1.248384
-0.991642
-0.593804
-0.102634
0.413048
0.837912
1.094024
1.202126
1.221925
1.187358
1.094027
0.949787
0.797378
0.659109
0.499158
0.298982
0.117662
0.024959
0.005476
-0.011493
-0.068371
-0.121478
-0.126506
-0.091309
-0.085652
-0.158243
-0.295569
-0.468405
-0.686178
-0.983142
-1.338241
-1.680771
-1.950395
-2.117889
-2.175396
-2.162197
-2.100604
-2.027697
-1.935936
-1.780697
-1.526784
-1.185825
-0.833238
-0.537844
-0.377263
-0.400202
-0.621432
-0.974961
-1.351744
-1.631424
-1.738896
-1.717527
-1.661904
-1.655619
-1.676987
-1.637077
-1.528346
-1.412388
-1.329112
-1.292973
-1.302086
-1.366506
-1.482777
-1.586792
-1.608161
-1.528970
-1.396356
-1.269714
-1.154384
-1.053824
-0.978090
-0.976204
-1.061993
-1.148411
-1.138668
-1.004170
-0.831019
-0.662581
-0.475603
-0.209120
0.106071
0.368783
0.512081
0.538793
0.542878
0.592530
0.711316
0.856185
0.937576
0.816591
0.440437
-0.097869
-0.617949
-0.974620
-1.175738
-1.317778
-1.431535
-1.458874
-1.434362
-1.442846
-1.495639
-1.473327
-1.271579
-0.933762
-0.629569
-0.482501
-0.539065
-0.787006
-1.132992
-1.531458
-1.929296
-2.313620
-2.653636
-2.902520
-3.060272
-3.186599
-3.346237
-3.551440
-3.748787
-3.854060
-3.857516
-3.751614
-3.542952
-3.258243
-2.979819
-2.786870
-2.714592
-2.667140
-2.543012
-2.312667
-2.017588
-1.732250
-1.478651
-1.277218
-1.121665
-0.985595
-0.800816
-0.532762
-0.183632
0.207293
0.600418
0.909010
1.041309
0.953006
0.708836
0.455553
0.290573
0.221125
0.174302
0.082228
-0.072695
-0.228562
-0.366516
-0.508556
-0.662222
-0.781008
-0.839143
-0.864911
-0.898220
-0.938758
-0.953841
-0.952898
-0.947241
-0.939698
-0.945040
-0.992805
-1.096506
-1.224405
-1.347275
-1.514140
-1.759567
-2.056845
-2.347210
-2.593265
-2.795641
-2.925739
-2.906569
-2.689423
-2.372975
-2.102407
-1.931141
-1.799785
-1.630090
-1.432113
-1.312070
-1.345380
-1.541156
-1.878029
-2.301006
-2.717698
-2.985751
-3.017804
-2.792173
-2.433930
-2.123453
-1.958786
-1.882737
-1.774636
-1.558747
-1.241984
-0.891283
-0.554094
-0.249587
0.046121
0.302234
0.498639
0.619625
0.685618
0.706045
0.662679
0.555521
0.411910
0.292182
0.210478
0.159885
0.132860
0.141345
0.209224
0.339323
0.505875
0.653886
0.739677
0.785872
0.863177
0.957138
1.029101
1.042615
0.967510
0.792474
0.448688
-0.075163
-0.694546
-1.231281
-1.590465
-1.808553
-1.998358
-2.226187
-2.495183
-2.762922
-2.936386
-2.994207
-2.998920
-3.041029
-3.128704
-3.205065
-3.215749
-3.122731
-2.892701
-2.532572
-2.142590
-1.891505
-1.846567
-1.940213
-2.042657
-2.084137
-2.106762
-2.144471
-2.194436
-2.232460
-2.291224
-2.443319
-2.699745
-2.974711
-3.144405
-3.153831
-3.017761
-2.792759
-2.555187
-2.345898
-2.165204
-1.992367
-1.774907
-1.469772
-1.097073
-0.743229
-0.458206
-0.194865
0.115612
0.490511
0.854725
1.110209
1.234337
1.277390
1.292475
1.267964
1.179975
1.036678
0.832418
0.578506
0.263316
-0.069787
-0.346953
-0.508790
-0.573524
-0.616262
-0.704565
-0.826178
-0.878657
-0.762070
-0.460077
-0.097120
0.217128
0.433017
0.544262
0.520065
0.410707
0.311405
0.271811
0.267412
0.211791
0.076036
-0.115969
-0.373652
-0.685385
-0.962551
-1.097992
-1.097991
-1.110246
-1.286224
-1.594501
-1.862240
-1.977568
-1.950857
-1.847783
-1.637865
-1.289677
-0.828675
-0.347560
0.098044
0.488655
0.815787
1.029791
1.112124
1.101126
1.067502
0.993340
0.831817
0.578848
0.292569
0.043685
-0.148006
-0.290359
-0.355722
-0.251391
0.046831
0.489607
0.946524
1.351590
1.709833
2.087874
2.463715
2.868153
3.317214
3.844209
4.372146
4.882799
5.298236
5.668735
5.957215
6.116854
6.042377
5.751699
5.366745
4.963880
4.714053
4.419604
4.367125
4.357069
4.517337
4.721913
4.768108
4.692689
4.390697
4.111331
3.828823
3.575854
3.203784
2.739012
2.275497
1.975076
1.877660
1.902486
1.891488
1.748192
1.403148
0.883068
0.279398
-0.237539
-0.498364
-0.537959
-0.504648
-0.586038
-0.795012
-1.071550
-1.315091
-1.505839
-1.638766
-1.717327
-1.768235
-1.831398
-1.913416
-2.022774
-2.135274
-2.189324
-2.113276
-1.913099
-1.678670
-1.485406
-1.337709
-1.214523
-1.124334
-1.088195
-1.105792
-1.134074
-1.129988
-1.048597
-0.888644
-0.667099
-0.449639
-0.301313
-0.260774
-0.327394
-0.449322
-0.572192
-0.687521
-0.823590
-0.953374
-0.981970
-0.803162
-0.431092
0.018912
0.444719
0.870525
1.353525
1.874863
2.303812
2.551440
2.686253
2.824209
2.994846
3.105776
3.091321
2.915343
2.583497
2.074416
1.450006
0.814911
0.274405
-0.165855
-0.553008
-0.864428
-1.048891
-1.077172
-1.059260
-1.028148
-0.980696
-0.924131
-0.914075
-1.011491
-1.200354
-1.404300
-1.526228
-1.567393
-1.669209
-1.924064
-2.281363
-2.612266
-2.852665
-3.060382
-3.264957
-3.415481
-3.446277
-3.357659
-3.199591
-3.011042
-2.809294
-2.636143
-2.575178
-2.681708
-2.886597
-3.130138
-3.381850
-3.566628
-3.556571
-3.270291
-2.818401
-2.413021
-2.130511
-1.848945
-1.423767
-0.886402
-0.383290
0.071741
0.494091
0.818082
0.920527
0.778802
0.561343
0.396677
0.295490
0.181733
0.062319
0.015497
0.028067
0.007328
-0.104858
-0.216730
-0.195046
-0.020010
0.185823
0.322836
0.371231
0.414598
0.440366
0.357406
0.173885
0.007334
-0.031632
-0.013091
-0.075940
-0.259774
-0.437952
-0.502372
-0.454292
-0.373530
-0.168639
0.261253
0.841041
1.328126
1.527988
1.539616
1.522018
1.560357
1.560986
1.502223
1.501280
1.634836
1.830299
1.916718
1.788191
1.476143
1.144298
0.882844
0.666642
0.426243
0.106339
-0.228963
-0.405255
-0.347433
-0.251273
-0.312236
-0.414366
-0.341460
-0.080319
0.226701
0.411166
0.440705
0.490671
0.633655
0.818433
1.076117
1.450387
1.866452
2.194842
2.336568
2.339083
2.342854
2.321486
2.126967
1.695505
1.198680
0.786701
0.464912
0.156007
-0.095391
-0.013058
0.521479
1.322183
2.139543
2.888711
3.500238
3.882050
3.933273
3.781806
3.652336
3.604571
3.556492
3.333690
2.962878
2.641089
2.450341
2.187945
1.713431
1.225404
1.035285
1.037485
0.921528
0.720096
0.714754
0.988465
1.357392
1.553798
1.493777
1.459210
1.641789
1.880932
1.930270
1.879048
1.905131
1.957297
1.901990
1.681388
1.457959
1.436276
1.664106
2.041833
2.359224
2.566943
2.773090
3.178785
3.657071
3.877359
3.786542
3.578196
3.516918
3.594852
3.678129
3.801000
4.034487
4.227122
4.313855
4.365078
4.477893
4.867247
5.532511
6.000112
5.969945
5.636214
5.625216
6.023055
5.841734
5.005521
4.516552
4.526294
4.504926
4.292180
4.155483
4.234360
4.164597
3.610264
2.837843
2.168181
1.761859
1.675128
1.600023
1.399219
1.297717
1.758091
2.400415
2.535856
2.550626
3.126958
3.958144
4.384894
4.361012
4.432346
4.842126
5.084412
5.178059
5.604180
5.974364
5.684314
5.223627
5.157007
5.720768
6.199997
5.863438
5.526565
6.202513
7.120746
7.063239
6.208171
5.753141
6.322559
7.442539
8.254242
8.327777
8.113146
8.290382
9.206730
10.218924
10.658871
10.001779
9.439590
9.647937
9.972556
9.920706
9.043640
7.835043
6.964262
6.947293
7.307736
7.195550
6.300573
5.488556
5.087891
4.817638
4.589809
4.569698
4.248222
3.537394
3.346646
2.994060
2.287003
1.637139
1.363743
1.820032
2.205929
1.894196
1.615458
1.831976
2.283237
2.443189
2.317491
2.089347
1.614205
1.453939
2.290153
3.158421
3.095572
2.716904
2.443823
2.205624
1.335472
-0.032135
-1.390629
-2.553032
-2.826427
-2.778975
-3.451151
-4.573330
-4.831012
-4.101957
-3.523740
-3.496085
-3.838301
-3.913720
-3.418464
-2.640071
-1.790030
-1.197043
-1.463839
-2.016287
-1.797255
-0.374340
1.680214
2.486889
1.703156
0.888311
0.749728
0.959332
0.907482
-0.406388
-1.245116
-0.424299
0.171515
-0.165358
-1.156810
-1.773992
-1.191690
-0.088679
-0.371188
-1.911316
-2.326123
-0.988683
0.597013
1.126521
0.866325
0.728685
1.469996
2.347377
2.211937
1.790845
1.484140
1.430718
1.579358
1.359385
0.702293
0.424812
1.232430
2.293018
3.083981
3.391630
3.573266
3.920196
4.296038
4.339719
4.379943
4.344748
3.972679
3.801728
3.978651
4.149916
4.172229
4.153689
4.102781
4.757674
5.557122
6.176505
6.664219
6.986009
7.623305
9.334386
10.738446
9.994936
8.034343
7.568943
8.725376
9.294165
8.535886
7.496040
7.691502
7.896393
6.889857
5.515337
6.124978
7.831031
7.980614
6.196943
4.511317
4.764287
6.100470
6.437345
5.388071
5.014745
5.925122
6.862839
6.723313
6.448976
6.953030
7.137180
6.555822
5.627219
4.448790
4.001301
4.533009
4.498757
3.738906
3.436286
3.676372
4.717476
6.430442
7.857757
8.326930
8.710313
8.671976
8.654693
8.997852
8.536222
8.044111
7.941352
8.270684
8.360560
7.553572
6.478844
6.468474
7.557030
8.298970
7.654134
7.214502
9.257114
12.198790
13.979634
13.833510
11.863804
10.713028
11.124379
11.624034
11.273648
11.355668
11.310416
10.828989
8.867768
6.285907
5.795366
6.634409
7.331097
8.877827
9.604369
7.212942
5.511604
5.294773
6.098306
6.844645
9.401368
12.119299
11.108678
8.322556
4.358947
3.660060
10.123513
14.145260
11.959980
6.764518
4.127664
9.144005
15.414510
11.972867
1.969411
-2.006769
-0.361366
3.375672
12.271719
15.508160
13.201266
13.620474
9.985568
9.402324
4.590245
-2.566439
-3.379712
1.887085
8.307172
12.989468
12.950188
6.441798
7.028500
13.554488
14.975833
6.987021
1.455942
2.454623
5.400384
4.289204
5.923608
10.507544
12.086013
13.881941
12.481652
7.844609
2.540418
-0.352863
5.447841
11.116247
12.654806
13.043532
3.892316
-4.266190
-0.223075
10.550919
14.342950
7.276141
-0.872623
3.449545
14.614777
19.761845
10.945618
3.489771
5.261816
2.451496
-1.954889
-7.146265
-7.530904
2.088857
12.342455
9.748339
5.225682
6.817034
6.405998
1.307954
-7.369062
-11.183089
-5.545479
0.398522
3.172390
-2.379743
-4.031116
6.754505
13.789575
13.453016
3.396452
-6.400229
-2.283265
1.674061
-0.866948
-1.334549
-2.989378
2.822954
14.027781
17.482310
9.940673
-4.951854
-14.924200
-14.402861
-10.306952
-5.365716
-8.210603
-11.575570
-5.483872
0.070462
-0.546720
-5.983839
-4.127575
1.386221
-0.620880
-6.254090
-4.115003
1.921388
0.702106
-7.718797
-7.018024
-0.192242
3.193781
1.933018
-2.244594
-1.674233
-4.977294
-9.848451
-10.892068
-8.196134
-3.922989
-3.081747
-8.844740
-12.434395
-8.282864
0.472086
5.314963
3.389566
0.659066
-2.970184
-0.610181
1.855409
0.749571
-3.069798
-1.871570
7.575040
12.717709
4.822543
-7.828139
-12.875275
-10.273930
1.623814
9.054209
3.033846
-5.554237
-2.733860
3.397747
-0.444248
-10.178708
-13.314274
-3.607781
9.751845
12.914437
3.165522
-6.134961
-5.864393
7.685353
22.842477
20.892255
4.344270
-7.296419
-5.816938
1.356087
4.088160
2.250752
1.094006
1.397570
3.995773
1.071068
-5.627756
-6.148151
4.488202
17.014128
18.871649
7.841230
-5.502997
-5.749366
0.554449
3.657963
2.356663
1.423347
1.383752
0.874985
2.216196
7.395947
10.990316
7.429886
-0.051415
-3.340649
2.550245
8.701965
7.384009
3.163659
4.707874
9.847087
9.727045
1.471436
-9.047701
-13.506566
-11.596566
-9.054299
-3.087357
7.930807
17.717119
22.475149
26.265609
25.557923
15.252788
-0.511776
-15.852106
-25.276718
-26.207206
-17.665001
-6.652180
7.336885
21.502557
25.254365
17.059092
2.924845
-9.117137
-15.440121
-11.806156
-5.632440
0.115471
14.764143
27.129488
28.383024
21.743592
17.112834
14.525945
2.163744
-13.775229
-18.322083
-7.221271
8.657367
12.111896
-7.020779
-26.852970
-23.514085
-4.857494
8.873887
12.331873
11.355505
14.061495
15.374424
6.592450
-7.291655
-18.262053
-12.735687
3.695714
14.324210
13.439288
4.569639
-2.727513
-6.239548
-7.722798
-2.620667
7.398503
11.508867
6.156910
1.296437
5.559211
16.078035
20.388262
17.595226
8.294428
-9.785202
-22.682568
-20.351161
-4.343053
11.149688
18.176589
19.557709
13.335285
4.126876
-3.036092
-6.660314
-5.425004
-6.501303
-13.413502
-22.168765
-24.465289
-11.448821
9.477897
21.176722
17.479909
5.332967
-0.377547
3.888684
11.905780
17.598698
14.985726
4.334919
-8.825787
-14.403060
-10.951988
-3.060591
5.916218
12.829989
13.112498
6.483751
-3.688770
-12.081077
-17.446861
-20.721953
-20.211299
-17.205202
-8.467850
4.254166
15.820065
22.862992
24.498339
18.915409
5.994475
-10.117334
-25.045371
-32.682225
-29.841108
-19.347424
-8.587886
0.053306
6.138719
9.015660
8.036464
2.848230
-2.114374
-5.350813
-7.357601
-5.318445
-0.423403
-1.440623
-13.603277
-27.456586
-31.556265
-24.791133
-13.015946
-3.223663
4.414450
11.640897
13.523243
6.426896
-7.716464
-21.588941
-30.148114
-28.372612
-19.904256
-12.903124
-5.198077
-1.736949
0.060236
5.311007
8.866095
7.376874
-0.868993
-13.299386
-23.438283
-28.267332
-26.500629
-19.814374
-9.737382
-0.962006
-0.750203
-6.354501
-12.361037
-15.120448
-15.657183
-17.306670
-15.212835
-6.999334
3.694840
10.277708
8.020151
2.811805
-1.315528
-1.918883
-1.117236
-0.038736
-1.384974
-9.216034
-21.342235
-28.886072
-25.300816
-14.397667
-6.010073
-8.881671
-16.945902
-22.024150
-18.809078
-10.855774
-3.025028
0.778002
-0.705562
-4.383520
-7.981973
-7.480433
-5.025527
-3.469370
-4.061099
-5.869281
-8.695627
-11.858533
-14.320665
-16.823022
-18.457425
-17.262339
-13.956764
-10.293260
-7.734652
-8.767899
-12.258880
-16.109046
-18.894539
-19.931557
-21.497769
-24.417446
-24.232039
-18.127143
-9.485636
-4.628619
-4.224181
-4.180500
-3.513979
-3.936642
-4.756515
-1.849091
3.772177
5.215519
0.095791
-7.051465
-13.764116
-17.766378
-17.252582
-15.428057
-13.828849
-11.242273
-7.647275
-4.816843
-5.873344
-9.289848
-11.536092
-11.375511
-11.916959
-15.412339
-16.969123
-16.524148
-14.222909
-7.938577
-0.005385
3.189575
-0.402279
-8.416546
-17.489828
-22.612698
-24.519869
-23.883516
-20.774345
-15.683527
-9.408937
-4.598113
-0.517288
1.933218
0.378634
-5.776541
-14.935613
-21.655492
-20.006003
-9.882503
0.685972
5.624694
2.794577
-2.813178
-6.176888
-7.392084
-9.036544
-14.417412
-20.276879
-22.679619
-20.501566
-16.336208
-11.092979
-4.163496
3.058552
8.505414
10.264260
4.947185
-4.082103
-7.978149
-3.744913
3.606605
8.241764
9.630426
5.336542
-1.122511
-4.996246
-6.584769
-7.622101
-9.750502
-10.379626
-9.388487
-9.903539
-13.671058
-17.229287
-17.654778
-16.604561
-15.208671
-13.306841
-12.028166
-12.688714
-15.249521
-18.707819
-19.165678
-14.758664
-9.322173
-7.705052
-9.621336
-12.963677
-12.745274
-10.266171
-8.948528
-9.659985
-12.799322
-14.866759
-17.792722
-19.686380
-18.451384
-12.653508
-4.209035
2.608890
5.689150
4.219726
-0.146120
-6.543581
-11.852800
-13.797995
-11.153283
-7.110168
-4.936514
-5.348806
-5.971645
-6.297834
-8.339817
-11.102685
-12.434782
-13.395437
-15.685362
-15.346288
-12.490087
-8.671031
-1.917526
5.637939
8.632095
9.584895
8.972427
4.289189
-2.133097
-7.677060
-12.461485
-17.904260
-19.693273
-17.522447
-14.620366
-13.650596
-16.162066
-16.520936
-12.876916
-10.151128
-8.028697
-4.391904
-0.963458
0.702372
0.522308
0.627896
0.682261
1.280904
4.302085
5.051253
-0.410377
-8.184872
-12.877536
-14.584217
-11.195052
-6.938876
-4.496854
-0.860690
5.011035
10.314599
8.205995
1.242260
-6.272038
-9.878347
-8.322190
-2.796139
2.682462
5.645507
5.313033
-0.489242
-8.534304
-14.324009
-18.137722
-19.831518
-16.904612
-13.909828
-8.837236
-1.711348
-0.554915
-5.318599
-9.594257
-10.302572
-10.778971
-12.442599
-14.136396
-11.847098
-4.309545
1.687250
3.047316
6.696050
13.313800
18.415302
23.118653
23.678015
16.466338
4.726347
-6.346181
-14.316766
-16.768215
-12.260955
-4.997426
-3.062600
-5.442714
-4.031740
0.687323
4.852995
5.308969
2.145121
1.191065
5.236694
8.953620
9.464902
7.453401
6.817050
11.789396
20.344170
24.519898
21.764887
12.877954
-0.458417
-14.422655
-23.690456
-22.353959
-16.100737
-10.640992
-10.158621
-11.606361
-9.693218
-5.301602
-2.538104
0.561953
5.025846
6.290381
3.415641
-3.520441
-6.448917
-2.850463
3.468122
6.107492
6.470449
8.821653
10.895691
9.334507
3.804686
-1.300587
-3.450671
-3.282862
-1.570839
2.214279
3.542292
1.305789
-0.229940
-2.062948
-3.336595
-0.025363
2.592638
1.336903
-0.121207
-0.278959
-0.049243
-2.559770
-8.348846
-14.221198
-16.811543
-15.677422
-17.763085
-21.941954
-23.041822
-20.769808
-14.864459
-8.895004
-4.531041
-1.726691
2.866044
9.542558
11.766177
8.645067
3.856556
0.227935
-3.600862
-7.934970
-9.113714
-7.222569
-3.172854
2.265208
7.331515
8.435783
3.805968
-4.065316
-11.773819
-18.677847
-21.692741
-21.985306
-20.593501
-21.352409
-22.321235
-14.180326
-3.412303
3.875423
7.891513
12.989873
16.818672
13.677449
4.175218
-5.584381
-8.458179
-4.068133
-0.510845
-2.644903
-4.470683
-2.731634
-0.529070
0.123310
-0.905852
-1.371567
1.528629
4.593176
2.957516
-1.170446
-2.938719
-1.944752
0.837287
4.143490
6.357682
6.173219
3.972541
0.639313
-3.474193
-6.168869
-6.268170
-4.587886
-0.930667
1.220361
1.731958
1.845402
1.810206
1.402942
1.633286
3.038918
0.320045
-5.574933
-10.731428
-14.507431
-16.299587
-13.731238
-8.319886
-3.484238
-1.170429
-2.001614
-2.045609
0.035028
0.457064
-2.162507
-6.339805
-7.547774
-5.259419
-4.179977
-7.694212
-12.991176
-12.494035
-5.748701
1.116048
4.993240
8.029505
6.833163
1.079911
-3.457515
-8.047421
-13.251681
-15.628653
-12.412324
-4.455250
1.908273
1.744865
-2.970740
-5.766290
-3.013791
4.353125
9.713569
9.275193
4.500195
-2.497479
-7.451284
-9.063375
-6.599670
-2.476422
1.333522
3.146105
4.090735
7.583288
10.847382
10.323846
6.735763
2.696419
-0.617954
-0.630209
1.880947
3.398452
2.251761
-1.112263
-3.072542
-0.938169
2.645516
4.484182
5.180870
8.474504
12.047190
12.376837
10.406188
6.545967
2.272194
-0.494130
-1.493124
-3.610527
-5.610086
-3.815415
3.056875
10.535664
14.156430
14.226508
12.991199
12.711519
11.825026
8.115015
3.544592
2.480235
4.793415
8.291310
11.385082
13.061910
13.414811
13.771169
13.575079
10.703481
4.562133
-0.728546
