EVENT_NAME: 202302060117
EVENT_ID: 13194
EVENT_DATE_YYYYMMDD: 2023/02/06
EVENT_TIME_HHMMSS: 01:17:32.00000
EVENT_LATITUDE_DEGREE: 37.288
EVENT_LONGITUDE_DEGREE: 37.043
EVENT_DEPTH_KM: 8.6
HYPOCENTER_REFERENCE: AFAD
MAGNITUDE_W: 7.7
MAGNITUDE_W_REFERENCE: AFAD
MAGNITUDE_L: 
MAGNITUDE_L_REFERENCE: 
FOCAL_MECHANISM: 
NETWORK: TK
STATION_CODE: 5819
STATION_NAME: 
STATION_LATITUDE_DEGREE: 39.6406
STATION_LONGITUDE_DEGREE: 36.53457
STATION_ELEVATION_M: 1252.0
LOCATION: Kahramanmaras_Pazarck_Turkiye
SENSOR_DEPTH_M: 
VS30_M/S: None
SITE_CLASSIFICATION_EC8: unknown
MORPHOLOGIC_CLASSIFICATION: 
EPICENTRAL_DISTANCE_KM: 265.31
EARTHQUAKE_BACKAZIMUTH_DEGREE: 
DATE_TIME_FIRST_SAMPLE_YYYYMMDD_HHMMSS: 2023/02/06 01:17:55.2337770
DATE_TIME_FIRST_SAMPLE_PRECISION: millisecond
SAMPLING_INTERVAL_S: 0.01
NDATA: 17910
DURATION_S: 
STREAM: HNE
UNITS: cm/s^2
INSTRUMENT: sensor = ACEBOX/SARA | digitizer = 
INSTRUMENT_ANALOG/DIGITAL: 
INSTRUMENTAL_FREQUENCY_HZ: 
INSTRUMENTAL_DAMPING: 
FULL_SCALE_G: 
N_BIT_DIGITAL_CONVERTER: 
PGA_CM/S^2: 9.385
TIME_PGA_S: 
BASELINE_CORRECTION: BASELINE REMOVED
FILTER_TYPE: BUTTERWORTH
FILTER_ORDER: 
LOW_CUT_FREQUENCY_HZ: 
HIGH_CUT_FREQUENCY_HZ: 
LATE/NORMAL_TRIGGERED: 
DATABASE_VERSION: 
HEADER_FORMAT: DYNA 1.2
DATA_TYPE: Acceleration
PROCESSING: Automatic Paolucci et al., 2011
DATA_TIMESTAMP_YYYYMMDD_HHMMSS: 
DATA_LICENSE: U (unknown license)
DATA_CITATION: Turkish Accelerometric Archive v 1.0 - Disaster And Emergency Management Presidency, Earthquake Department
DATA_CREATOR: AFAD
ORIGINAL_DATA_MEDIATOR_CITATION: : AFAD - Disaster And Emergency Management Presidency
ORIGINAL_DATA_MEDIATOR: AFAD PROCESS SERVICE
ORIGINAL_DATA_CREATOR_CITATION: AFAD PROCESS SERVICE
ORIGINAL_DATA_CREATOR: network: TK
USER1: GuestUser
USER2: 
USER3: 
USER4: 
USER5: 
[...]
-1.357460
-1.234290
-1.112756
-1.015303
-0.943802
-0.893343
-0.872575
-0.884540
-0.914039
-0.955696
-1.007172
-1.027086
-0.976159
-0.844338
-0.622271
-0.332637
-0.019857
0.299937
0.626978
0.971788
1.336471
1.700219
2.038717
2.323207
2.543637
2.703280
2.801668
2.855868
2.865179
2.827029
2.772981
2.713556
2.646649
2.576937
2.500912
2.433304
2.395622
2.392775
2.412373
2.427763
2.436139
2.464855
2.532382
2.642927
2.779424
2.912180
3.034182
3.136778
3.207344
3.250322
3.246540
3.187816
3.104777
3.006308
2.898720
2.796744
2.692196
2.579699
2.457849
2.332493
2.214619
2.089964
1.958529
1.830601
1.708752
1.618933
1.556702
1.494705
1.444632
1.410690
1.382828
1.356602
1.297410
1.172755
0.978897
0.724017
0.432665
0.123310
-0.216438
-0.591724
-0.980335
-1.339255
-1.626633
-1.846443
-2.029547
-2.204936
-2.389443
-2.567871
-2.730167
-2.863472
-2.958435
-3.042175
-3.116563
-3.171312
-3.212969
-3.229376
-3.214453
-3.181061
-3.165905
-3.197275
-3.260675
-3.347922
-3.428155
-3.458356
-3.448343
-3.428278
-3.435332
-3.486107
-3.551143
-3.610101
-3.653628
-3.692479
-3.761023
-3.869078
-4.003786
-4.138494
-4.230885
-4.257111
-4.228161
-4.149412
-4.022033
-3.853039
-3.637986
-3.393007
-3.150600
-2.923390
-2.717222
-2.520639
-2.316341
-2.118122
-1.949361
-1.837179
-1.803319
-1.833286
-1.894348
-1.970139
-2.066738
-2.187886
-2.316749
-2.444209
-2.566292
-2.678088
-2.778662
-2.858661
-2.915281
-2.946650
-2.954407
-2.961695
-2.990960
-3.051789
-3.141841
-3.241947
-3.324752
-3.376930
-3.400818
-3.387065
-3.333332
-3.273989
-3.227504
-3.193878
-3.162590
-3.099271
-2.993168
-2.836097
-2.626889
-2.402017
-2.180886
-1.969808
-1.770653
-1.585059
-1.444588
-1.362098
-1.334551
-1.353763
-1.384197
-1.416035
-1.453015
-1.502154
-1.586361
-1.702132
-1.831696
-1.958923
-2.069082
-2.151653
-2.180685
-2.152904
-2.079532
-1.972494
-1.863585
-1.767535
-1.687384
-1.622663
-1.550928
-1.476153
-1.436215
-1.468520
-1.592239
-1.801061
-2.076749
-2.402002
-2.751335
-3.098331
-3.428260
-3.736212
-4.018446
-4.260701
-4.448715
-4.580617
-4.656642
-4.679595
-4.674025
-4.682716
-4.730217
-4.822842
-4.981164
-5.189518
-5.393196
-5.577937
-5.740233
-5.870732
-5.991646
-6.113963
-6.249372
-6.423826
-6.611840
-6.777877
-6.913286
-6.993987
-7.006419
-6.947075
-6.815021
-6.635271
-6.428635
-6.222233
-6.042718
-5.877464
-5.732550
-5.614991
-5.497198
-5.381743
-5.266522
-5.121374
-4.945366
-4.730313
-4.478554
-4.231004
-3.988363
-3.754840
-3.563401
-3.395576
-3.237803
-3.088448
-2.916647
-2.731754
-2.554577
-2.390258
-2.258671
-2.159816
-2.091588
-2.050714
-2.011711
-1.968031
-1.935341
-1.930004
-1.944306
-1.945750
-1.928724
-1.890889
-1.814946
-1.714688
-1.618170
-1.543396
-1.499950
-1.479183
-1.457481
-1.407255
-1.317050
-1.182424
-0.984672
-0.714677
-0.391376
-0.042825
0.305258
0.637911
0.946716
1.232375
1.520139
1.816553
2.092861
2.338307
2.548450
2.706456
2.821210
2.921001
3.019622
3.136246
3.273211
3.403863
3.521422
3.631266
3.739005
3.860773
4.004985
4.166031
4.325206
4.453286
4.540218
4.594418
4.618926
4.612339
4.573721
4.506814
4.436401
4.395913
4.393768
4.420614
4.468735
4.517792
4.547443
4.566808
4.580795
4.560414
4.476673
4.309701
4.051315
3.738453
3.402913
3.046332
2.679229
2.286876
1.857584
1.428993
1.034536
0.701802
0.444818
0.238568
0.062945
-0.096545
-0.237566
-0.325281
-0.358988
-0.363237
-0.343873
-0.317962
-0.289480
-0.240189
-0.177339
-0.111449
-0.059353
-0.049808
-0.062474
-0.080751
-0.119134
-0.167337
-0.216709
-0.264211
-0.289034
-0.286036
-0.273451
-0.267881
-0.278677
-0.313787
-0.366432
-0.417908
-0.486686
-0.612275
-0.795146
-1.009579
-1.234766
-1.455044
-1.664100
-1.882039
-2.126632
-2.385253
-2.636626
-2.857371
-3.032058
-3.164662
-3.265470
-3.338923
-3.382450
-3.383192
-3.325952
-3.215641
-3.067922
-2.889108
-2.694395
-2.489864
-2.259614
-2.002945
-1.725937
-1.430925
-1.136148
-0.859840
-0.606678
-0.380871
-0.174703
0.018841
0.182926
0.310538
0.406588
0.467802
0.516625
0.562175
0.604919
0.665899
0.721736
0.761207
0.803717
0.831264
0.848758
0.864849
0.866445
0.872249
0.886470
0.909108
0.954424
0.996700
1.019571
1.013218
0.971094
0.925696
0.881702
0.831161
0.780620
0.708336
0.604489
0.472586
0.309589
0.120172
-0.108990
-0.387249
-0.711333
-1.073058
-1.448110
-1.827604
-2.199616
-2.540299
-2.850589
-3.125342
-3.346555
-3.523112
-3.666939
-3.779670
-3.866215
-3.927979
-3.955841
-3.944426
-3.897707
-3.836026
-3.774344
-3.713598
-3.651916
-3.601223
-3.574844
-3.566469
-3.575394
-3.594372
-3.593711
-3.560085
-3.484376
-3.370791
-3.247153
-3.111124
-2.961535
-2.807035
-2.646691
-2.498505
-2.352890
-2.192312
-2.048567
-1.926098
-1.793108
-1.642350
-1.485279
-1.308803
-1.100530
-0.882906
-0.665048
-0.427784
-0.159192
0.140729
0.452808
0.748521
0.998877
1.195927
1.351361
1.459569
1.514938
1.519339
1.468331
1.374537
1.268586
1.168012
1.072582
0.979490
0.876345
0.756834
0.645505
0.558492
0.505613
0.512820
0.578009
0.682709
0.819907
0.979316
1.153922
1.339282
1.536800
1.755126
1.986545
2.223340
2.463176
2.692022
2.897022
3.069757
3.216307
3.363091
3.514083
3.663673
3.815600
3.951162
4.054927
4.125025
4.149299
4.138738
4.110875
4.067582
4.010962
3.926988
3.812153
3.670197
3.496679
3.318718
3.153850
2.998101
2.845156
2.682159
2.502562
2.295610
2.068085
1.848742
1.643427
1.456115
1.282129
1.109780
0.953796
0.819556
0.682276
0.524422
0.351605
0.159383
-0.063701
-0.300578
-0.530441
-0.761006
-1.009574
-1.279884
-1.555338
-1.816297
-2.038211
-2.204248
-2.316511
-2.375235
-2.385096
-2.358483
-2.303114
-2.221092
-2.112417
-1.973349
-1.800146
-1.595614
-1.376353
-1.165275
-0.978278
-0.822376
-0.706921
-0.646876
-0.645981
-0.693249
-0.761792
-0.827530
-0.869421
-0.873202
-0.842849
-0.781168
-0.691898
-0.586029
-0.463326
-0.331739
-0.208568
-0.087035
0.043150
0.178010
0.320118
0.459186
0.569030
0.643337
0.685614
0.704978
0.714055
0.706533
0.678436
0.641923
0.611255
0.594848
0.589430
0.598040
0.619041
0.636301
0.655666
0.687421
0.728061
0.762622
0.770063
0.756228
0.736081
0.722480
0.743247
0.795109
0.850946
0.907016
0.970568
1.051188
1.164539
1.308985
1.476810
1.665210
1.874184
2.102095
2.337722
2.576389
2.827680
3.101416
3.395959
3.699855
4.014272
4.327753
4.623466
4.921283
5.240843
5.585653
5.960155
6.344711
6.707757
7.035266
7.313912
7.535979
7.703570
7.804296
7.832077
7.776627
7.628358
7.418368
7.165826
6.873772
6.553195
6.189132
5.784388
5.356265
4.916217
4.496744
4.091065
3.673229
3.263809
2.860234
2.466245
2.113404
1.792827
1.497500
1.228125
0.966699
0.726549
0.524039
0.356600
0.234283
0.147503
0.079661
0.015092
-0.063972
-0.141867
-0.215086
-0.284799
-0.326923
-0.359462
-0.402287
-0.450724
-0.522775
-0.626154
-0.748003
-0.870554
-0.969257
-1.041775
-1.093718
-1.117373
-1.105490
-1.059940
-0.986101
-0.899403
-0.821589
-0.748686
-0.671339
-0.593058
-0.505893
-0.409843
-0.320105
-0.238083
-0.157932
-0.085028
-0.023346
0.024542
0.045309
0.027967
-0.027717
-0.119874
-0.241724
-0.389524
-0.563744
-0.748718
-0.923172
-1.086403
-1.251271
-1.431102
-1.631975
-1.843368
-2.041903
-2.206771
-2.331425
-2.417270
-2.462901
-2.470423
-2.444747
-2.390546
-2.331670
-2.296641
-2.281953
-2.266563
-2.246030
-2.215443
-2.170361
-2.134163
-2.120176
-2.110164
-2.090566
-2.046185
-1.982867
-1.901078
-1.778142
-1.624110
-1.431970
-1.191199
-0.942246
-0.713867
-0.535520
-0.448822
-0.457747
-0.562529
-0.761064
-1.030907
-1.359433
-1.740797
-2.153958
-2.579509
-3.016050
-3.453525
-3.862711
-4.227710
-4.555067
-4.849692
-5.104572
-5.317368
-5.481768
-5.590057
-5.660003
-5.707271
-5.741680
-5.777258
-5.812836
-5.842335
-5.863184
-5.870239
-5.870981
-5.877568
-5.901456
-5.957842
-6.044154
-6.150807
-6.271954
-6.400116
-6.534356
-6.674676
-6.826451
-6.986643
-7.137015
-7.276399
-7.410172
-7.544646
-7.680289
-7.814997
-7.949238
-8.066177
-8.163010
-8.251193
-8.321373
-8.380330
-8.429235
-8.454993
-8.466256
-8.458348
-8.420046
-8.359533
-8.277044
-8.174681
-8.053147
-7.895609
-7.706741
-7.501041
-7.288794
-7.089405
-6.900772
-6.715879
-6.558106
-6.442418
-6.372553
-6.355293
-6.375674
-6.416395
-6.461793
-6.488720
-6.509569
-6.534860
-6.545422
-6.552243
-6.577534
-6.616385
-6.658977
-6.689177
-6.683373
-6.639694
-6.575440
-6.501835
-6.437582
-6.410268
-6.400022
-6.377384
-6.350071
-6.321822
-6.287027
-6.241477
-6.183303
-6.104086
-6.006166
-5.897257
-5.766605
-5.623328
-5.474440
-5.294457
-5.086652
-4.867859
-4.652572
-4.457392
-4.279046
-4.123378
-3.991323
-3.866750
-3.756672
-3.674650
-3.623723
-3.599449
-3.575409
-3.520975
-3.427263
-3.288896
-3.107276
-2.902978
-2.671326
-2.401798
-2.114035
-1.811776
-1.489176
-1.153718
-0.806570
-0.453343
-0.096609
0.257787
0.600025
0.928236
1.231196
1.484592
1.678369
1.822347
1.931256
2.018188
2.089923
2.141785
2.179385
2.204595
2.204320
2.190953
2.187639
2.187598
2.177036
2.156655
2.111258
2.021439
1.884627
1.702692
1.484986
1.235249
0.958393
0.693459
0.469207
0.274413
0.107675
-0.023994
-0.137660
-0.245248
-0.354939
-0.478659
-0.607522
-0.741996
-0.875301
-0.979616
-1.070136
-1.159020
-1.232005
-1.308965
-1.401122
-1.504502
-1.627520
-1.774151
-1.939019
-2.095938
-2.236257
-2.374005
-2.516428
-2.682699
-2.863932
-3.046569
-3.257962
-3.493203
-3.734756
-3.988701
-4.243815
-4.479523
-4.678993
-4.840120
-4.964307
-5.045709
-5.088068
-5.096759
-5.088851
-5.076968
-5.054564
-5.039174
-5.039682
-5.042529
-5.061741
-5.108074
-5.179189
-5.272047
-5.365373
-5.450750
-5.548050
-5.667562
-5.811621
-5.976255
-6.137383
-6.273727
-6.382250
-6.469965
-6.528455
-6.553980
-6.567113
-6.574168
-6.578417
-6.596928
-6.632973
-6.685618
-6.739433
-6.785531
-6.828357
-6.848972
-6.850883
-6.865186
-6.905907
-6.973048
-7.045098
-7.098678
-7.113916
-7.086836
-7.042690
-6.994100
-6.940368
-6.880323
-6.826590
-6.797406
-6.781549
-6.775745
-6.785371
-6.807857
-6.849280
-6.904263
-6.986133
-7.114294
-7.276357
-7.448005
-7.604689
-7.738462
-7.835295
-7.865496
-7.847534
-7.805725
-7.755266
-7.706443
-7.650840
-7.610902
-7.594109
-7.562353
-7.507218
-7.444367
-7.398350
-7.370569
-7.339047
-7.316643
-7.284888
-7.224843
-7.166434
-7.077632
-6.931549
-6.748293
-6.509159
-6.201757
-5.823981
-5.389159
-4.945453
-4.500110
-4.050558
-3.597266
-3.122465
-2.650235
-2.206762
-1.801399
-1.434612
-1.082320
-0.749434
-0.467982
-0.254099
-0.111289
-0.020617
0.032181
0.054818
0.069039
0.069700
0.046045
0.012805
-0.023240
-0.063728
-0.117075
-0.190528
-0.264682
-0.341409
-0.455776
-0.615734
-0.796500
-0.977267
-1.177672
-1.426473
-1.711512
-1.994682
-2.241145
-2.462825
-2.695494
-2.926761
-3.128101
-3.274265
-3.352394
-3.375347
-3.343358
-3.253620
-3.117123
-2.959117
-2.829634
-2.740832
-2.665123
-2.614196
-2.611197
-2.642333
-2.701992
-2.788538
-2.890047
-3.019611
-3.178868
-3.348879
-3.525203
-3.674640
-3.766797
-3.818975
-3.825095
-3.768323
-3.661752
-3.506084
-3.305760
-3.075511
-2.814166
-2.532949
-2.253134
-1.976593
-1.704026
-1.432628
-1.163335
-0.913446
-0.696055
-0.511864
-0.347312
-0.195150
-0.051873
0.101691
0.260398
0.413962
0.581086
0.756861
0.933571
1.119633
1.304526
1.493393
1.687404
1.872998
2.063736
2.259150
2.453395
2.666577
2.886773
3.108372
3.347506
3.595290
3.851725
4.109095
4.347761
4.577777
4.808260
5.049732
5.307803
5.568914
5.822310
6.055365
6.269248
6.474014
6.672701
6.868582
7.053241
7.222470
7.373228
7.491021
7.573978
7.619060
7.647543
7.684442
7.710587
7.723171
7.726871
7.700645
7.651273
7.586236
7.491508
7.349318
7.149147
6.910633
6.644998
6.345931
6.027224
5.685840
5.309151
4.918669
4.528421
4.148693
3.810348
3.521567
3.271363
3.068387
2.914741
2.801542
2.727388
2.693680
2.687794
2.693365
2.701273
2.701232
2.692541
2.671926
2.632607
2.592821
2.555606
2.518392
2.492400
2.468979
2.453274
2.442478
2.413213
2.372725
2.318911
2.255277
2.205438
2.159806
2.114643
2.061296
1.967737
1.825781
1.637299
1.420061
1.193471
0.965010
0.758994
0.580566
0.423881
0.307409
0.205199
0.079375
-0.058606
-0.217162
-0.418034
-0.634104
-0.830300
-1.010599
-1.189728
-1.373768
-1.584460
-1.831858
-2.100298
-2.384870
-2.676456
-2.967341
-3.239989
-3.459098
-3.621628
-3.721266
-3.747492
-3.724855
-3.662472
-3.561045
-3.436238
-3.277296
-3.091936
-2.913122
-2.752544
-2.624698
-2.543143
-2.501334
-2.499271
-2.531342
-2.579545
-2.638503
-2.709150
-2.783538
-2.871019
-2.975100
-3.070998
-3.154037
-3.230529
-3.287149
-3.344704
-3.428911
-3.528784
-3.653205
-3.806149
-3.980836
-4.190593
-4.420223
-4.658269
-4.913850
-5.163821
-5.390879
-5.591751
-5.758957
-5.891093
-5.991433
-6.075407
-6.146756
-6.200570
-6.246903
-6.281546
-6.302394
-6.318567
-6.327726
-6.328468
-6.318222
-6.303767
-6.290248
-6.279768
-6.295707
-6.347884
-6.430923
-6.541083
-6.664802
-6.800212
-6.936790
-7.066354
-7.201764
-7.343252
-7.483805
-7.627631
-7.772159
-7.913179
-8.052095
-8.185167
-8.304912
-8.420449
-8.528737
-8.619959
-8.718195
-8.831627
-8.949970
-9.067610
-9.166080
-9.245612
-9.310882
-9.354877
-9.380635
-9.383014
-9.354064
-9.290512
-9.192358
-9.081345
-8.964954
-8.837108
-8.695468
-8.529279
-8.346724
-8.158792
-7.972730
-7.819166
-7.712829
-7.643432
-7.595077
-7.551865
-7.506082
-7.429904
-7.299486
-7.112723
-6.871018
-6.596113
-6.306479
-6.010532
-5.719262
-5.440148
-5.172725
-4.903432
-4.632969
-4.380976
-4.154935
-3.949468
-3.758730
-3.586462
-3.431028
-3.277698
-3.126939
-2.993248
-2.894159
-2.830607
-2.785291
-2.759147
-2.733002
-2.661033
-2.525939
-2.329824
-2.099575
-1.871429
-1.656377
-1.470081
-1.320024
-1.196620
-1.103142
-1.033511
-0.990065
-0.984261
-1.000200
-1.029232
-1.061771
-1.094309
-1.141343
-1.190481
-1.241724
-1.296707
-1.326206
-1.343080
-1.365800
-1.383141
-1.404224
-1.433489
-1.451766
-1.470043
-1.507024
-1.549616
-1.584259
-1.621473
-1.674820
-1.742194
-1.804893
-1.858239
-1.911118
-1.963763
-2.015006
-2.071626
-2.142273
-2.230923
-2.352539
-2.524888
-2.745633
-3.011034
-3.305893
-3.606597
-3.887662
-4.109109
-4.254572
-4.316101
-4.292529
-4.213780
-4.079855
-3.894494
-3.686455
-3.441944
-3.167975
-2.894239
-2.618633
-2.352612
-2.095944
-1.840444
-1.594062
-1.360072
-1.155073
-0.990053
-0.849348
-0.723372
-0.609553
-0.499242
-0.393372
-0.313922
-0.267905
-0.246202
-0.246711
-0.274340
-0.334466
-0.418674
-0.508026
-0.586155
-0.644411
-0.686535
-0.716736
-0.741793
-0.761473
-0.761747
-0.751501
-0.742891
-0.727969
-0.704163
-0.664692
-0.612829
-0.579437
-0.578543
-0.600561
-0.653206
-0.745596
-0.858094
-0.962642
-1.040303
-1.086168
-1.116135
-1.141660
-1.157365
-1.174707
-1.218936
-1.286544
-1.365140
-1.453790
-1.532855
-1.576382
-1.576890
-1.531808
-1.447682
-1.344150
-1.252309
-1.187354
-1.137596
-1.121037
-1.152407
-1.205753
-1.273128
-1.339801
-1.387302
-1.435272
-1.472252
-1.475800
-1.445915
-1.377687
-1.287950
-1.188627
-1.076912
-0.955612
-0.810231
-0.641704
-0.471774
-0.318210
-0.202521
-0.126812
-0.076820
-0.033608
0.014981
0.062634
0.122913
0.222470
0.373930
0.571214
0.787903
1.012074
1.249338
1.493381
1.728540
1.944294
2.134565
2.288362
2.399375
2.470175
2.502398
2.502591
2.476599
2.420915
2.338577
2.252733
2.178812
2.107229
2.030035
1.945126
1.850865
1.758007
1.678709
1.619517
1.582536
1.562623
1.540371
1.505261
1.458461
1.399971
1.345923
1.304733
1.257699
1.208094
1.159423
1.094153
1.018595
0.938128
0.843867
0.743527
0.638979
0.520403
0.387799
0.239999
0.080274
-0.079917
-0.235433
-0.391183
-0.558155
-0.722789
-0.858900
-0.961110
-1.023809
-1.052139
-1.055453
-1.033283
-1.001761
-0.953406
-0.887516
-0.847344
-0.846449
-0.882027
-0.956182
-1.056989
-1.190294
-1.356799
-1.552060
-1.765324
-1.969470
-2.165199
-2.354382
-2.525562
-2.687625
-2.845479
-2.986032
-3.096658
-3.184139
-3.255956
-3.307666
-3.361714
-3.421139
-3.462328
-3.471955
-3.432250
-3.357476
-3.271012
-3.163506
-3.038465
-2.919503
-2.812932
-2.712206
-2.636029
-2.609183
-2.620446
-2.661168
-2.720827
-2.795215
-2.902101
-3.035173
-3.198170
-3.394835
-3.611138
-3.865550
-4.144745
-4.416224
-4.679053
-4.911722
-5.108153
-5.273254
-5.398844
-5.498249
-5.571936
-5.615463
-5.630701
-5.608531
-5.556435
-5.480491
-5.385377
-5.281378
-5.166156
-5.057715
-4.971251
-4.894139
-4.828483
-4.767736
-4.705353
-4.653491
-4.601161
-4.542051
-4.477330
-4.391100
-4.286166
-4.172113
-4.044968
-3.896548
-3.717266
-3.496836
-3.233855
-2.952638
-2.667446
-2.375941
-2.105245
-1.868215
-1.658540
-1.475985
-1.314472
-1.181482
-1.071171
-0.969977
-0.881409
-0.800088
-0.715728
-0.610093
-0.471492
-0.319798
-0.159220
0.011177
0.176899
0.343322
0.513251
0.688325
0.883739
1.074944
1.246276
1.414336
1.564861
1.694110
1.810967
1.908420
1.984831
2.035758
2.080373
2.137846
2.197423
2.273367
2.368248
2.460557
2.554502
2.644474
2.726963
2.806180
2.862484
2.899149
2.947271
3.011524
3.065491
3.094675
3.114039
3.136443
3.154638
3.157870
3.140762
3.104951
3.067502
3.027015
2.966888
2.879173
2.753349
2.600171
2.441616
2.273475
2.101126
1.924334
1.730709
1.527966
1.322418
1.122948
0.926751
0.721202
0.503496
0.266619
0.026468
-0.204564
-0.442611
-0.666863
-0.861189
-1.041955
-1.194900
-1.309033
-1.397683
-1.460616
-1.502974
-1.546267
-1.605459
-1.687562
-1.788837
-1.899932
-2.011494
-2.113470
-2.203757
-2.275339
-2.312320
-2.319609
-2.301881
-2.250486
-2.167295
-2.065868
-1.959531
-1.860442
-1.779589
-1.712764
-1.642665
-1.576775
-1.527251
-1.497833
-1.494133
-1.509137
-1.544949
-1.604842
-1.666138
-1.719016
-1.751088
-1.739438
-1.683602
-1.575161
-1.414349
-1.216363
-0.988218
-0.750721
-0.519770
-0.299106
-0.104394
0.054080
0.171873
0.247583
0.277935
0.267140
0.228756
0.168396
0.099619
0.039726
-0.017829
-0.088710
-0.182972
-0.300612
-0.433918
-0.580082
-0.731156
-0.879190
-1.056683
-1.278130
-1.523424
-1.801683
-2.088827
-2.366853
-2.649087
-2.880587
-3.080525
-3.302673
-3.470580
-3.577466
-3.674767
-3.731620
-3.747092
-3.749938
-3.743199
-3.727107
-3.693481
-3.640216
-3.581340
-3.527842
-3.471303
-3.410323
-3.356357
-3.313379
-3.283260
-3.266000
-3.269547
-3.300216
-3.341638
-3.387036
-3.420510
-3.425460
-3.429943
-3.456637
-3.507646
-3.587879
-3.690089
-3.812172
-3.936593
-4.041141
-4.132363
-4.212128
-4.275528
-4.336123
-4.406536
-4.492381
-4.589447
-4.688384
-4.786854
-4.863346
-4.899626
-4.920241
-4.942025
-4.960535
-4.981150
-4.998025
-5.008119
-5.015875
-5.017552
-5.028348
-5.052002
-5.066304
-5.081308
-5.109171
-5.141242
-5.170741
-5.192993
-5.204256
-5.192139
-5.143550
-5.062229
-4.953554
-4.822201
-4.664429
-4.490524
-4.322699
-4.147625
-3.970916
-3.810104
-3.641109
-3.478427
-3.329305
-3.162649
-2.996459
