EVENT_NAME: 202302060117
EVENT_ID: 13194
EVENT_DATE_YYYYMMDD: 2023/02/06
EVENT_TIME_HHMMSS: 01:17:32.00000
EVENT_LATITUDE_DEGREE: 37.288
EVENT_LONGITUDE_DEGREE: 37.043
EVENT_DEPTH_KM: 8.6
HYPOCENTER_REFERENCE: AFAD
MAGNITUDE_W: 7.7
MAGNITUDE_W_REFERENCE: AFAD
MAGNITUDE_L: 
MAGNITUDE_L_REFERENCE: 
FOCAL_MECHANISM: 
NETWORK: TK
STATION_CODE: 5505
STATION_NAME: 
STATION_LATITUDE_DEGREE: 41.2039
STATION_LONGITUDE_DEGREE: 36.7287
STATION_ELEVATION_M: 30.0
LOCATION: Kahramanmaras_Pazarck_Turkiye
SENSOR_DEPTH_M: 
VS30_M/S: 238
SITE_CLASSIFICATION_EC8: C
MORPHOLOGIC_CLASSIFICATION: 
EPICENTRAL_DISTANCE_KM: 436.27
EARTHQUAKE_BACKAZIMUTH_DEGREE: 
DATE_TIME_FIRST_SAMPLE_YYYYMMDD_HHMMSS: 2023/02/06 01:18:07.4433880
DATE_TIME_FIRST_SAMPLE_PRECISION: millisecond
SAMPLING_INTERVAL_S: 0.01
NDATA: 21001
DURATION_S: 
STREAM: HNZ
UNITS: cm/s^2
INSTRUMENT: sensor = ACEBOX/SARA | digitizer = 
INSTRUMENT_ANALOG/DIGITAL: 
INSTRUMENTAL_FREQUENCY_HZ: 
INSTRUMENTAL_DAMPING: 
FULL_SCALE_G: 
N_BIT_DIGITAL_CONVERTER: 
PGA_CM/S^2: 1.980
TIME_PGA_S: 
BASELINE_CORRECTION: BASELINE REMOVED
FILTER_TYPE: BUTTERWORTH
FILTER_ORDER: 
LOW_CUT_FREQUENCY_HZ: 
HIGH_CUT_FREQUENCY_HZ: 
LATE/NORMAL_TRIGGERED: 
DATABASE_VERSION: 
HEADER_FORMAT: DYNA 1.2
DATA_TYPE: Acceleration
PROCESSING: Automatic Paolucci et al., 2011
DATA_TIMESTAMP_YYYYMMDD_HHMMSS: 
DATA_LICENSE: U (unknown license)
DATA_CITATION: Turkish Accelerometric Archive v 1.0 - Disaster And Emergency Management Presidency, Earthquake Department
DATA_CREATOR: AFAD
ORIGINAL_DATA_MEDIATOR_CITATION: : AFAD - Disaster And Emergency Management Presidency
ORIGINAL_DATA_MEDIATOR: AFAD PROCESS SERVICE
ORIGINAL_DATA_CREATOR_CITATION: AFAD PROCESS SERVICE
ORIGINAL_DATA_CREATOR: network: TK
USER1: GuestUser
USER2: 
USER3: 
USER4: 
USER5: 
-0.339069
-0.322001
-0.305401
-0.295581
-0.294879
-0.282721
-0.258172
-0.238299
-0.221465
-0.206735
-0.188966
-0.158338
-0.130282
-0.110876
-0.095913
-0.079546
-0.050789
-0.019226
0.006025
0.022859
0.026600
0.034082
0.053955
0.073127
0.091831
0.105859
0.108899
0.115446
0.125734
0.129709
0.129943
0.129943
0.135789
0.154727
0.170859
0.172029
0.167120
0.157301
0.160808
0.181149
0.183253
0.175305
0.185826
0.195880
0.201024
0.196582
0.170164
0.151227
0.149357
0.140239
0.126913
0.107041
0.078050
0.050930
0.026148
0.000197
-0.023883
-0.047029
-0.069707
-0.085604
-0.105477
-0.134701
-0.157846
-0.180290
-0.207644
-0.226348
-0.242011
-0.261416
-0.282224
-0.301395
-0.317526
-0.335996
-0.355868
-0.375740
-0.394443
-0.416420
-0.440033
-0.458736
-0.482349
-0.503391
-0.518587
-0.540797
-0.550850
-0.553889
-0.566514
-0.573527
-0.578904
-0.584047
-0.583579
-0.590125
-0.598307
-0.604853
-0.610931
-0.611165
-0.613034
-0.613502
-0.603682
-0.594095
-0.588484
-0.579599
-0.572351
-0.566973
-0.557855
-0.551542
-0.547099
-0.543358
-0.548501
-0.552709
-0.547798
-0.549668
-0.549434
-0.536575
-0.530963
-0.528858
-0.521610
-0.519739
-0.520440
-0.513894
-0.499865
-0.478122
-0.452637
-0.429491
-0.414995
-0.407279
-0.393251
-0.373845
-0.355141
-0.327085
-0.292950
-0.262790
-0.232629
-0.202937
-0.171607
-0.137706
-0.102402
-0.062890
-0.024547
0.008653
0.043489
0.084404
0.128125
0.169273
0.214864
0.266768
0.323347
0.381096
0.433467
0.490514
0.549431
0.606011
0.668201
0.720105
0.765228
0.813391
0.852201
0.896857
0.952034
0.996923
1.037605
1.083195
1.122474
1.154505
1.186769
1.218098
1.253402
1.294317
1.326114
1.350196
1.371939
1.385734
1.398593
1.409348
1.412388
1.421974
1.436236
1.445589
1.450733
1.450266
1.450734
1.454007
1.454943
1.459152
1.460555
1.449333
1.434137
1.413330
1.381767
1.353245
1.328696
1.296199
1.262299
1.228866
1.190758
1.151247
1.101448
1.049546
1.009801
0.970523
0.927037
0.882383
0.834221
0.783253
0.725974
0.667992
0.613050
0.554134
0.503634
0.453368
0.390477
0.341848
0.303740
0.251136
0.206013
0.174919
0.135407
0.090285
0.047734
-0.000194
-0.044848
-0.076878
-0.111947
-0.145847
-0.177643
-0.223467
-0.262978
-0.298281
-0.341767
-0.371693
-0.401618
-0.437389
-0.458430
-0.483446
-0.509865
-0.525295
-0.544232
-0.558727
-0.571118
-0.585846
-0.596600
-0.612498
-0.619044
-0.613199
-0.620680
-0.625823
-0.624420
-0.632836
-0.635641
-0.631198
-0.624184
-0.600570
-0.577423
-0.569474
-0.556147
-0.541417
-0.538611
-0.529493
-0.514763
-0.502371
-0.484135
-0.467067
-0.444856
-0.417735
-0.405811
-0.394822
-0.369103
-0.347594
-0.330292
-0.304340
-0.280726
-0.268101
-0.251968
-0.232563
-0.217599
-0.201233
-0.179957
-0.146757
-0.111453
-0.083631
-0.057445
-0.040144
-0.019569
0.013631
0.041687
0.080030
0.135908
0.178226
0.205581
0.244391
0.296061
0.343756
0.389113
0.441718
0.494323
0.536641
0.577556
0.625952
0.673881
0.723447
0.776753
0.816733
0.852738
0.891315
0.916566
0.945323
0.982030
1.015230
1.056145
1.093553
1.115998
1.137274
1.153406
1.167434
1.186840
1.206246
1.229626
1.250668
1.266801
1.282466
1.285739
1.283402
1.287143
1.292521
1.302341
1.312628
1.312395
1.311928
1.314032
1.309825
1.309591
1.312631
1.304682
1.296734
1.292292
1.279434
1.267744
1.254418
1.236183
1.225428
1.213271
1.188957
1.166981
1.145472
1.110403
1.076970
1.051720
1.020392
0.993740
0.968022
0.927810
0.888065
0.844111
0.795248
0.759010
0.719031
0.671571
0.629955
0.585534
0.539944
0.495523
0.446660
0.401538
0.360624
0.320645
0.287212
0.253312
0.220113
0.191123
0.153248
0.113503
0.081240
0.043599
0.005490
-0.026773
-0.055997
-0.077039
-0.098781
-0.117718
-0.123095
-0.138058
-0.163307
-0.179907
-0.200714
-0.226431
-0.239056
-0.242562
-0.251680
-0.260798
-0.265239
-0.279734
-0.291424
-0.288618
-0.287916
-0.280434
-0.267574
-0.261028
-0.256819
-0.256818
-0.256818
-0.257752
-0.262662
-0.258219
-0.249568
-0.245126
-0.242086
-0.239280
-0.235538
-0.228056
-0.211690
-0.195791
-0.188543
-0.182698
-0.179892
-0.184334
-0.187840
-0.186904
-0.185033
-0.184332
-0.181526
-0.178252
-0.176615
-0.173575
-0.174042
-0.184563
-0.198590
-0.200460
-0.196251
-0.196484
-0.195782
-0.199055
-0.216122
-0.232487
-0.239734
-0.241838
-0.237162
-0.229212
-0.226406
-0.226172
-0.228743
-0.239497
-0.241367
-0.226404
-0.221260
-0.221961
-0.206530
-0.193670
-0.195073
-0.202554
-0.211905
-0.217282
-0.217749
-0.216580
-0.211669
-0.213305
-0.216812
-0.210265
-0.215408
-0.227331
-0.226863
-0.227798
-0.233876
-0.244397
-0.257723
-0.263801
-0.272217
-0.283907
-0.296531
-0.313598
-0.333470
-0.363630
-0.391919
-0.408518
-0.437040
-0.461121
-0.469304
-0.485903
-0.503671
-0.518867
-0.542480
-0.561417
-0.571236
-0.581990
-0.594147
-0.606071
-0.622904
-0.641373
-0.651192
-0.662414
-0.675974
-0.683922
-0.699586
-0.716185
-0.723199
-0.735356
-0.749617
-0.759904
-0.769255
-0.776970
-0.794270
-0.811103
-0.813207
-0.823494
-0.836820
-0.844768
-0.862770
-0.877966
-0.888954
-0.900644
-0.906021
-0.917944
-0.926360
-0.918411
-0.913500
-0.911863
-0.913032
-0.917006
-0.907654
-0.895028
-0.888949
-0.878194
-0.860425
-0.845227
-0.836343
-0.836108
-0.843589
-0.833068
-0.805479
-0.789814
-0.767603
-0.729260
-0.702840
-0.689046
-0.679226
-0.667068
-0.641584
-0.603942
-0.567469
-0.550168
-0.539412
-0.527254
-0.523747
-0.507848
-0.473713
-0.436539
-0.395624
-0.371776
-0.364996
-0.350968
-0.336705
-0.320807
-0.294387
-0.267032
-0.237574
-0.218635
-0.216531
-0.206243
-0.181694
-0.155274
-0.130258
-0.113658
-0.107812
-0.099629
-0.090978
-0.097991
-0.103836
-0.087470
-0.074143
-0.082793
-0.096119
-0.101963
-0.102430
-0.111782
-0.144747
-0.184725
-0.204831
-0.215352
-0.235692
-0.263513
-0.291568
-0.312610
-0.331781
-0.358433
-0.386956
-0.406594
-0.418284
-0.442130
-0.483512
-0.518114
-0.543831
-0.573990
-0.594798
-0.604149
-0.614436
-0.626827
-0.648803
-0.675923
-0.683638
-0.683404
-0.690183
-0.692287
-0.685039
-0.668205
-0.657216
-0.658384
-0.654176
-0.653941
-0.655110
-0.642017
-0.617000
-0.580060
-0.548496
-0.527688
-0.513893
-0.519972
-0.516464
-0.478121
-0.433933
-0.401902
-0.372911
-0.336906
-0.304641
-0.288976
-0.274013
-0.245723
-0.200833
-0.154775
-0.119237
-0.089778
-0.072710
-0.061488
-0.042550
-0.021975
0.011692
0.050971
0.069441
0.081131
0.101238
0.123684
0.141920
0.153143
0.170912
0.195227
0.219777
0.250404
0.272849
0.289917
0.312128
0.328261
0.352576
0.391621
0.425054
0.445395
0.453111
0.461996
0.477427
0.491689
0.509458
0.519746
0.519980
0.522786
0.519747
0.516942
0.522320
0.523022
0.517878
0.511800
0.506423
0.501748
0.492864
0.481876
0.466212
0.444002
0.426234
0.411271
0.386957
0.353524
0.321494
0.295777
0.276139
0.259540
0.233589
0.198052
0.172101
0.156203
0.143111
0.133058
0.126512
0.116459
0.092613
0.060349
0.039074
0.034165
0.029255
0.011721
-0.014697
-0.042753
-0.066132
-0.075250
-0.082731
-0.103070
-0.113591
-0.116630
-0.131359
-0.136735
-0.137203
-0.142813
-0.134630
-0.137669
-0.165256
-0.179985
-0.182556
-0.187466
-0.193544
-0.207104
-0.217390
-0.214350
-0.215519
-0.227442
-0.246613
-0.263446
-0.264381
-0.267653
-0.284019
-0.294773
-0.302254
-0.320957
-0.341063
-0.344804
-0.340127
-0.345504
-0.352751
-0.358128
-0.363037
-0.353685
-0.342696
-0.341760
-0.344332
-0.353917
-0.356021
-0.343395
-0.334978
-0.333107
-0.333340
-0.331937
-0.329833
-0.331469
-0.330767
-0.334273
-0.341287
-0.327492
-0.296864
-0.269510
-0.249870
-0.244025
-0.251272
-0.249401
-0.229528
-0.206381
-0.183936
-0.159855
-0.143489
-0.131097
-0.110990
-0.086441
-0.068905
-0.059553
-0.043420
-0.017936
0.010588
0.037942
0.054075
0.068337
0.085171
0.092653
0.110890
0.134737
0.145492
0.164664
0.184538
0.195059
0.208853
0.214933
0.217739
0.228728
0.240184
0.255849
0.273618
0.282970
0.289283
0.296765
0.304715
0.318042
0.333941
0.344228
0.359192
0.373220
0.371584
0.372052
0.379768
0.383743
0.387952
0.384679
0.377899
0.379536
0.382109
0.383044
0.381408
0.376499
0.371590
0.360602
0.343769
0.330209
0.323195
0.319221
0.312909
0.305194
0.292336
0.276672
0.265684
0.244175
0.216354
0.207938
0.199755
0.171232
0.134761
0.103432
0.089405
0.072338
0.034931
0.008045
-0.003177
-0.022582
-0.048065
-0.077289
-0.109085
-0.139011
-0.169638
-0.195589
-0.214760
-0.242581
-0.274845
-0.296120
-0.319265
-0.350126
-0.372570
-0.395248
-0.427745
-0.459307
-0.482921
-0.501858
-0.528510
-0.567554
-0.601688
-0.621794
-0.638627
-0.663876
-0.692165
-0.714843
-0.739158
-0.762303
-0.776564
-0.798307
-0.818647
-0.819815
-0.824725
-0.834544
-0.840154
-0.853246
-0.859325
-0.858155
-0.859791
-0.845062
-0.825188
-0.815368
-0.800872
-0.789650
-0.781934
-0.762996
-0.738447
-0.710157
-0.677892
-0.641419
-0.596764
-0.552576
-0.514232
-0.483371
-0.453912
-0.416504
-0.370445
-0.320880
-0.268041
-0.207955
-0.152077
-0.101810
-0.044061
0.005037
0.044783
0.092244
0.138302
0.189037
0.253799
0.312015
0.365322
0.422369
0.465855
0.507004
0.564986
0.620864
0.680015
0.752259
0.819360
0.883187
0.944208
0.996112
1.051756
1.108569
1.167019
1.233418
1.293504
1.345408
1.393570
1.433784
1.473062
1.515848
1.559568
1.605393
1.650516
1.691665
1.728372
1.762974
1.797343
1.824464
1.846441
1.871926
1.896007
1.916348
1.937624
1.956562
1.967084
1.970123
1.974566
1.980412
1.978775
1.976672
1.978543
1.971763
1.955865
1.939266
1.917290
1.891806
1.871934
1.848788
1.821668
1.801328
1.774910
1.737269
1.700797
1.663624
1.621073
1.575717
1.532465
1.491317
1.447597
1.407151
1.370212
1.329999
1.286045
1.239754
1.192528
1.139690
1.085449
1.035651
0.983515
0.929274
0.877839
0.825703
0.771229
0.719560
0.669060
0.618327
0.570632
0.522704
0.476881
0.431057
0.380323
0.341280
0.305977
0.262725
0.229994
0.194691
0.152374
0.117071
0.075923
0.035710
0.003915
-0.030921
-0.057106
-0.073939
-0.093109
-0.115554
-0.138699
-0.165585
-0.194576
-0.218422
-0.235255
-0.244607
-0.257933
-0.283650
-0.303990
-0.317783
-0.329239
-0.330641
-0.332044
-0.331809
-0.328770
-0.332042
-0.325495
-0.314740
-0.312636
-0.307725
-0.305387
-0.301646
-0.294631
-0.291592
-0.284343
-0.285979
-0.294396
-0.293226
-0.300707
-0.305616
-0.295329
-0.296965
-0.306550
-0.307251
-0.308420
-0.312628
-0.314965
-0.318939
-0.328992
-0.337642
-0.345357
-0.354007
-0.361722
-0.376918
-0.400999
-0.423677
-0.440509
-0.456407
-0.476747
-0.491943
-0.507140
-0.532389
-0.559743
-0.585694
-0.611879
-0.635492
-0.655832
-0.671730
-0.688796
-0.708201
-0.723865
-0.736022
-0.750283
-0.770623
-0.787690
-0.800548
-0.815277
-0.824862
-0.829538
-0.838188
-0.842162
-0.838187
-0.840524
-0.846369
-0.847771
-0.845433
-0.835613
-0.826026
-0.819480
-0.803581
-0.787916
-0.778798
-0.766172
-0.747935
-0.723386
-0.699071
-0.674989
-0.640153
-0.608356
-0.585210
-0.550841
-0.512965
-0.480233
-0.444228
-0.414535
-0.387180
-0.353046
-0.326626
-0.298804
-0.264435
-0.238951
-0.213934
-0.187748
-0.155250
-0.119011
-0.093293
-0.064067
-0.039051
-0.026425
-0.007955
0.006775
0.021037
0.043482
0.057277
0.071305
0.086736
0.097024
0.104973
0.108714
0.118067
0.130692
0.134200
0.143786
0.158983
0.164361
0.175584
0.196158
0.205978
0.217201
0.234736
0.244790
0.253675
0.261391
0.258352
0.256482
0.260457
0.263263
0.270043
0.279863
0.286176
0.292489
0.295295
0.291789
0.291556
0.290153
0.282906
0.281738
0.272854
0.256255
0.251813
0.241059
0.227031
0.220486
0.204822
0.198510
0.194769
0.171624
0.161103
0.157597
0.144739
0.135855
0.127205
0.119490
0.112944
0.106632
0.103359
0.092839
0.080682
0.067824
0.049588
0.036262
0.018961
0.002128
0.000258
-0.004651
-0.014704
-0.022185
-0.032939
-0.044628
-0.050706
-0.051174
-0.054914
-0.060525
-0.062628
-0.075019
-0.089046
-0.091384
-0.094189
-0.093955
-0.089512
-0.093252
-0.098629
-0.100499
-0.106344
-0.111253
-0.107512
-0.107511
-0.117330
-0.127383
-0.139774
-0.158945
-0.180220
-0.196819
-0.209911
-0.223938
-0.238901
-0.256435
-0.276541
-0.298985
-0.327976
-0.349017
-0.358602
-0.373331
-0.386423
-0.392268
-0.405126
-0.422427
-0.439727
-0.466146
-0.493967
-0.514775
-0.531608
-0.544466
-0.554753
-0.563169
-0.567610
-0.575091
-0.583508
-0.587716
-0.593092
-0.602911
-0.612029
-0.621381
-0.626290
-0.623951
-0.624652
-0.625587
-0.622547
-0.627690
-0.625819
-0.612726
-0.607115
-0.592853
-0.572745
-0.564562
-0.553573
-0.543286
-0.535102
-0.522944
-0.514527
-0.500265
-0.479223
-0.461454
-0.439710
-0.411420
-0.379156
-0.349931
-0.321641
-0.288908
-0.262723
-0.241914
-0.219469
-0.196790
-0.169202
-0.143484
-0.118935
-0.091814
-0.070771
-0.049262
-0.026583
-0.005774
0.023918
0.054546
0.083070
0.117205
0.145729
0.169810
0.202776
0.232703
0.251641
0.270345
0.291855
0.311728
0.328796
0.345396
0.365503
0.379765
0.386546
0.398937
0.413199
0.428864
0.447802
0.462298
0.479132
0.494096
0.496200
0.498539
0.505319
0.509996
0.506723
0.495735
0.484981
0.472122
0.459732
0.450146
0.438223
0.429807
0.420923
0.408299
0.394037
0.378841
0.369724
0.357567
0.340500
0.324836
0.297950
0.266855
0.234825
0.198821
0.181520
0.170299
0.146686
0.131255
0.116293
0.090810
0.075146
0.066028
0.053637
0.046624
0.041714
0.028155
0.010620
-0.006914
-0.024214
-0.042216
-0.060218
-0.072375
-0.084065
-0.097157
-0.102300
-0.099728
-0.095753
-0.088972
-0.077749
-0.069800
-0.067695
-0.065123
-0.062551
-0.058809
-0.050158
-0.038936
-0.027012
-0.020699
-0.017659
-0.015554
-0.016956
-0.015319
-0.009941
-0.001992
0.014608
0.036118
0.055056
0.070020
0.080073
0.088958
0.092699
0.093401
0.097610
0.102053
0.112106
0.126836
0.133149
0.145775
0.165414
0.178040
0.199783
0.224800
0.238361
0.256597
0.271093
0.276003
0.291902
0.311074
0.320660
0.327207
0.330714
0.327208
0.321597
0.316220
0.310142
0.311779
0.314118
0.306169
0.294246
0.278582
0.258710
0.243046
0.232058
0.225278
0.219200
0.206108
0.195353
0.183898
0.156310
0.127554
0.110019
0.080094
0.041985
0.018606
-0.004540
-0.031660
-0.053870
-0.077717
-0.098057
-0.111149
-0.125176
-0.136865
-0.149256
-0.167492
-0.194846
-0.230616
-0.266621
-0.307067
-0.339564
-0.357566
-0.382816
-0.400818
-0.407364
-0.429340
-0.449446
-0.460200
-0.473059
-0.486385
-0.508127
-0.529169
-0.544833
-0.568446
-0.590656
-0.607723
-0.621750
-0.632037
-0.641856
-0.649337
-0.655883
-0.661259
-0.662194
-0.668272
-0.674351
-0.674818
-0.677623
-0.673180
-0.657515
-0.644656
-0.632966
-0.618937
-0.610053
-0.610052
-0.613325
-0.609817
-0.601166
-0.591814
-0.580825
-0.573811
-0.567965
-0.561652
-0.561886
-0.555573
-0.539908
-0.523542
-0.496654
-0.470936
-0.451998
-0.427215
-0.407576
-0.390742
-0.373207
-0.359880
-0.341643
-0.321068
-0.304234
-0.290674
-0.278516
-0.265890
-0.257473
-0.241808
-0.224039
-0.213752
-0.198087
-0.192241
-0.190604
-0.183590
-0.196448
-0.205800
-0.207670
-0.223100
-0.227775
-0.228009
-0.234087
-0.233385
-0.238528
-0.243437
-0.249749
-0.268453
-0.278505
-0.282012
-0.292065
-0.296273
-0.302585
-0.321756
-0.338355
-0.349343
-0.354252
-0.350511
-0.347471
-0.336950
-0.317544
-0.305620
-0.296034
-0.288084
-0.285278
-0.278731
-0.272184
-0.265170
-0.259091
-0.258155
-0.253946
-0.248335
-0.250438
-0.255114
-0.250905
-0.243189
-0.242020
-0.240149
-0.238746
-0.241083
-0.239680
-0.233367
-0.218403
-0.200868
-0.183800
-0.164161
-0.158783
-0.159952
-0.155977
-0.166263
-0.172342
-0.162989
-0.157378
-0.146389
-0.129555
-0.118098
-0.111785
-0.110148
-0.110382
-0.114356
-0.122772
-0.130720
-0.142877
-0.162282
-0.184960
-0.204365
-0.220964
-0.243408
-0.268190
-0.290400
-0.309337
-0.320559
-0.329911
-0.339262
-0.345808
-0.360537
-0.383214
-0.411036
-0.446105
-0.478368
-0.505021
-0.526530
-0.540791
-0.555753
-0.575392
-0.591524
-0.602512
-0.613967
-0.619344
-0.617473
-0.622850
-0.629630
-0.642020
-0.663062
-0.671010
-0.675452
-0.678257
-0.676386
-0.689946
-0.704441
-0.726184
-0.761253
-0.777852
-0.790009
-0.805673
-0.812452
-0.822271
-0.831155
-0.843546
-0.860613
-0.866691
-0.866223
-0.862716
-0.854298
-0.843309
-0.834892
-0.831852
-0.822968
-0.809641
-0.796781
-0.780181
-0.761711
-0.734824
-0.701390
-0.668892
-0.631016
-0.587530
-0.545913
-0.512012
-0.479748
-0.446080
-0.426908
-0.406568
-0.377342
-0.357703
-0.334089
-0.304630
-0.278211
-0.244543
-0.209006
-0.174169
-0.139567
-0.106835
-0.070362
-0.038799
-0.004898
0.032978
0.056124
0.076933
0.098910
0.112003
0.127902
0.145905
0.166479
0.190327
0.212538
0.242933
0.271690
0.293667
0.328036
0.365210
0.400047
0.439559
0.478603
0.515310
0.547341
0.573059
0.600414
0.628236
0.651850
0.674763
0.695571
0.708898
0.718017
0.724330
0.731812
0.747009
0.762206
0.776235
0.795406
0.810136
0.824164
0.844739
0.858534
0.864847
0.871393
0.869056
0.867186
0.869291
0.862043
0.858771
0.859706
0.852225
0.851524
0.854564
0.856669
0.862982
0.864151
0.869061
0.877011
0.873505
0.876077
0.881221
0.874441
0.874675
0.875377
0.866260
0.866260
0.876782
0.888238
0.901565
0.913957
0.923777
0.926349
0.918868
0.915361
0.916765
0.916064
0.926819
0.948563
0.960954
0.973580
0.991115
0.997428
1.002338
1.013561
1.011457
1.002807
1.000937
0.984104
0.957452
0.941087
0.921682
0.909759
0.914669
0.916306
0.918645
0.922620
0.923555
0.925894
0.926596
0.933844
0.949509
0.966109
0.992762
1.019182
1.040224
1.059162
1.063838
1.059163
1.052149
1.046539
1.052618
1.063841
1.075999
1.095170
1.119953
1.138424
1.149647
1.164143
1.176534
1.186120
1.202720
1.215346
1.219087
1.220023
1.217685
1.211373
1.202022
1.197814
1.198048
1.197815
1.202258
1.203193
1.195712
1.188465
1.180516
1.173269
1.167191
1.155969
1.136331
1.111782
1.088871
1.061984
1.035566
1.014525
0.985300
0.954440
0.921007
0.877755
0.834269
0.785640
0.742388
0.700539
0.640453
0.591590
0.556755
0.511866
0.481239
0.462770
0.431909
0.404321
0.378838
0.347510
0.324130
0.300751
0.278073
0.266851
0.246511
0.220794
0.203961
0.174737
0.138733
0.115120
0.088234
0.052463
0.018095
-0.021416
-0.073318
-0.127559
-0.173617
-0.211257
-0.244456
-0.273447
-0.298696
-0.329323
-0.362522
-0.386603
-0.408579
-0.431958
-0.452298
-0.474508
-0.497186
-0.514954
-0.534359
-0.551426
-0.562881
-0.580182
-0.594911
-0.607301
-0.622030
-0.619458
-0.607768
-0.598415
-0.578776
-0.559136
-0.546978
-0.533885
-0.521026
-0.504426
-0.490398
-0.475902
-0.451119
-0.432414
-0.428907
-0.427036
-0.425867
-0.431244
-0.427736
-0.417215
-0.411369
-0.392899
-0.372091
-0.358296
-0.328136
-0.299612
-0.276699
-0.246773
-0.223626
-0.194401
-0.163773
-0.141328
-0.110700
-0.086619
-0.067213
-0.040326
-0.020920
0.002927
0.030048
0.043375
0.056702
0.071432
0.071900
0.067458
0.076109
0.080084
0.077279
0.087567
0.090139
0.082892
0.084763
0.078217
0.072138
0.083829
0.095519
0.111652
0.134798
0.151398
0.164959
0.177351
0.186703
0.193250
0.196523
0.195121
0.193251
0.193719
0.190680
0.183199
0.182265
