EVENT_NAME: 202302060117
EVENT_ID: 13194
EVENT_DATE_YYYYMMDD: 2023/02/06
EVENT_TIME_HHMMSS: 01:17:32.00000
EVENT_LATITUDE_DEGREE: 37.288
EVENT_LONGITUDE_DEGREE: 37.043
EVENT_DEPTH_KM: 8.6
HYPOCENTER_REFERENCE: AFAD
MAGNITUDE_W: 7.7
MAGNITUDE_W_REFERENCE: AFAD
MAGNITUDE_L: 
MAGNITUDE_L_REFERENCE: 
FOCAL_MECHANISM: 
NETWORK: TK
STATION_CODE: 2305
STATION_NAME: 
STATION_LATITUDE_DEGREE: 38.72778
STATION_LONGITUDE_DEGREE: 40.13103
STATION_ELEVATION_M: 600.0
LOCATION: Kahramanmaras_Pazarck_Turkiye
SENSOR_DEPTH_M: 
VS30_M/S: 907
SITE_CLASSIFICATION_EC8: A
MORPHOLOGIC_CLASSIFICATION: 
EPICENTRAL_DISTANCE_KM: 314.34
EARTHQUAKE_BACKAZIMUTH_DEGREE: 
DATE_TIME_FIRST_SAMPLE_YYYYMMDD_HHMMSS: 2023/02/06 01:18:03.6753960
DATE_TIME_FIRST_SAMPLE_PRECISION: millisecond
SAMPLING_INTERVAL_S: 0.01
NDATA: 18251
DURATION_S: 
STREAM: HNN
UNITS: cm/s^2
INSTRUMENT: sensor = CMG-5T/GURALP | digitizer = 
INSTRUMENT_ANALOG/DIGITAL: 
INSTRUMENTAL_FREQUENCY_HZ: 
INSTRUMENTAL_DAMPING: 
FULL_SCALE_G: 
N_BIT_DIGITAL_CONVERTER: 
PGA_CM/S^2: 58.177
TIME_PGA_S: 
BASELINE_CORRECTION: BASELINE REMOVED
FILTER_TYPE: BUTTERWORTH
FILTER_ORDER: 
LOW_CUT_FREQUENCY_HZ: 
HIGH_CUT_FREQUENCY_HZ: 
LATE/NORMAL_TRIGGERED: 
DATABASE_VERSION: 
HEADER_FORMAT: DYNA 1.2
DATA_TYPE: Acceleration
PROCESSING: Automatic Paolucci et al., 2011
DATA_TIMESTAMP_YYYYMMDD_HHMMSS: 
DATA_LICENSE: U (unknown license)
DATA_CITATION: Turkish Accelerometric Archive v 1.0 - Disaster And Emergency Management Presidency, Earthquake Department
DATA_CREATOR: AFAD
ORIGINAL_DATA_MEDIATOR_CITATION: : AFAD - Disaster And Emergency Management Presidency
ORIGINAL_DATA_MEDIATOR: AFAD PROCESS SERVICE
ORIGINAL_DATA_CREATOR_CITATION: AFAD PROCESS SERVICE
ORIGINAL_DATA_CREATOR: network: TK
USER1: GuestUser
USER2: 
USER3: 
USER4: 
USER5: 
[...]
-0.875194
-0.905359
-0.867025
-0.807637
-0.749507
-0.668124
-0.541179
-0.423975
-0.359874
-0.352962
-0.376843
-0.408580
-0.448172
-0.501904
-0.527042
-0.488079
-0.365534
-0.232304
-0.211566
-0.385645
-0.699238
-0.972926
-1.093901
-1.012518
-0.783451
-0.509765
-0.248962
0.016241
0.341145
0.739577
1.126069
1.355765
1.371789
1.215935
0.927165
0.539102
0.072482
-0.451011
-0.908203
-1.104906
-0.958165
-0.575758
-0.182982
0.021261
-0.029643
-0.228231
-0.452900
-0.622266
-0.648975
-0.517317
-0.247087
0.091958
0.379470
0.537523
0.593768
0.598795
0.586854
0.562659
0.538463
0.535949
0.555430
0.606962
0.710341
0.841056
0.902643
0.876877
0.784809
0.658492
0.550399
0.483470
0.429737
0.386060
0.384174
0.429108
0.486296
0.429735
0.182757
-0.215362
-0.631077
-0.946242
-1.157399
-1.291258
-1.358501
-1.366043
-1.332108
-1.276491
-1.220874
-1.155517
-1.043340
-0.858264
-0.577979
-0.247104
0.045435
0.245594
0.300896
0.176779
-0.084340
-0.408931
-0.696758
-0.910743
-1.060941
-1.103676
-1.040518
-0.906974
-0.766832
-0.644915
-0.528967
-0.404536
-0.229515
0.009921
0.263811
0.483452
0.659415
0.764679
0.809926
0.841662
0.858944
0.798927
0.651871
0.478106
0.358073
0.315653
0.306226
0.297742
0.291457
0.289885
0.275116
0.267575
0.271345
0.243379
0.134344
-0.059217
-0.291427
-0.505412
-0.655925
-0.726311
-0.701174
-0.583655
-0.430001
-0.306827
-0.278233
-0.391353
-0.626077
-0.917675
-1.169367
-1.311709
-1.319880
-1.223728
-1.104325
-1.060020
-1.132291
-1.262379
-1.368272
-1.368273
-1.211163
-0.891286
-0.476828
-0.060485
0.245880
0.351458
0.298983
0.176122
0.044148
-0.052004
-0.090025
-0.076200
-0.014927
0.050745
0.075568
0.089707
0.137154
0.179888
0.163234
0.083107
-0.041953
-0.150675
-0.177698
-0.101028
-0.024359
-0.062694
-0.227032
-0.456414
-0.644319
-0.723503
-0.709364
-0.677314
-0.671972
-0.675115
-0.669774
-0.676059
-0.682029
-0.680459
-0.690828
-0.715338
-0.762786
-0.887218
-1.161219
-1.577563
-1.995478
-2.222346
-2.199094
-2.019988
-1.832713
-1.732163
-1.759186
-1.872620
-1.968458
-2.006794
-2.008994
-1.959347
-1.784955
-1.476076
-1.128233
-0.818411
-0.560122
-0.397984
-0.350537
-0.365306
-0.405526
-0.484396
-0.610400
-0.748029
-0.852665
-0.912053
-0.973327
-1.101530
-1.295405
-1.486766
-1.591402
-1.576006
-1.498079
-1.427066
-1.357937
-1.202712
-0.899489
-0.450467
0.079938
0.593375
1.031399
1.344049
1.513100
1.537608
1.465337
1.321109
1.158656
1.058419
0.996517
0.967923
0.988346
1.047734
1.120947
1.164309
1.106178
0.936812
0.704916
0.500358
0.397921
0.423373
0.546861
0.719054
0.895960
0.978914
0.913242
0.727536
0.501297
0.352355
0.353297
0.434052
0.519205
0.583620
0.646778
0.733503
0.791948
0.710564
0.417081
-0.030371
-0.495419
-0.854888
-1.060704
-1.109409
-1.020799
-0.824725
-0.574919
-0.307517
-0.076879
0.032783
-0.005552
-0.111759
-0.153237
-0.075939
0.122334
0.391622
0.654939
0.835301
0.924540
0.954705
0.909771
0.753288
0.532076
0.327203
0.169149
0.070483
0.062627
0.169462
0.351396
0.546841
0.661846
0.678813
0.622253
0.500649
0.326255
0.118869
-0.090089
-0.262282
-0.360948
-0.384830
-0.355293
-0.310988
-0.311932
-0.393315
-0.522461
-0.624583
-0.654749
-0.657891
-0.639667
-0.599133
-0.556399
-0.513037
-0.481301
-0.483815
-0.522465
-0.554516
-0.533149
-0.446110
-0.337390
-0.239982
-0.136918
0.010137
0.211238
0.441562
0.626324
0.672828
0.554052
0.290106
-0.075334
-0.458370
-0.771964
-0.981864
-1.079901
-1.091842
-1.051622
-1.028370
-1.101899
-1.248012
-1.384699
-1.464197
-1.495934
-1.523586
-1.605284
-1.744798
-1.859490
-1.862632
-1.726575
-1.481483
-1.193028
-0.909286
-0.702215
-0.665766
-0.821620
-1.120445
-1.477715
-1.794765
-1.958160
-1.942764
-1.780312
-1.528307
-1.307095
-1.195862
-1.213458
-1.347946
-1.586754
-1.906318
-2.218340
-2.435467
-2.508996
-2.448980
-2.305381
-2.118105
-1.929887
-1.758323
-1.584559
-1.424935
-1.325013
-1.303646
-1.340725
-1.359893
-1.316216
-1.218494
-1.079923
-0.917157
-0.763503
-0.615505
-0.438285
-0.228071
-0.034197
0.110345
0.189214
0.193298
0.142708
0.071065
0.019218
0.017961
0.071378
0.131708
0.193924
0.249855
0.254253
0.167213
0.001618
-0.197913
-0.399957
-0.622741
-0.942304
-1.348279
-1.787875
-2.195734
-2.508071
-2.698804
-2.789614
-2.788043
-2.667383
-2.420720
-2.072877
-1.698954
-1.342313
-0.960220
-0.548277
-0.183152
0.041516
0.078908
-0.039554
-0.262966
-0.518114
-0.733985
-0.848676
-0.858731
-0.835794
-0.869416
-1.008616
-1.213175
-1.412706
-1.545936
-1.601239
-1.613180
-1.604382
-1.631092
-1.776262
-2.032667
-2.324894
-2.574700
-2.752236
-2.850901
-2.889551
-2.909347
-2.890180
-2.760407
-2.468182
-2.018532
-1.451048
-0.821349
-0.183795
0.389659
0.824541
1.091314
1.238370
1.403021
1.677964
2.023922
2.345055
2.531388
2.515677
2.296350
1.926825
1.502312
1.146613
0.917859
0.768289
0.611492
0.414789
0.208031
0.016356
-0.094879
-0.099278
-0.020724
0.090196
0.140785
0.084539
-0.078856
-0.303211
-0.489544
-0.542962
-0.442412
-0.251680
-0.100540
-0.116566
-0.339663
-0.666140
-0.917203
-0.996701
-0.891124
-0.643518
-0.330868
-0.024188
0.242900
0.448086
0.580687
0.661755
0.726484
0.799698
0.867569
0.898362
0.848715
0.755705
0.695060
0.703543
0.762617
0.846513
0.968745
1.121142
1.286422
1.462071
1.673856
1.895381
2.080143
2.213373
2.298840
2.313294
2.195775
1.935285
1.596240
1.271020
0.993562
0.770465
0.574076
0.352549
0.077920
-0.219648
-0.484537
-0.673699
-0.746285
-0.696010
-0.570636
-0.473228
-0.449661
-0.461917
-0.499938
-0.593890
-0.763885
-1.008978
-1.304032
-1.591231
-1.803959
-1.903253
-1.887228
-1.761226
-1.518019
-1.180232
-0.864754
-0.722098
-0.808823
-1.060829
-1.299010
-1.364682
-1.255334
-1.078742
-0.914090
-0.795001
-0.699164
-0.553994
-0.355092
-0.094603
0.236900
0.580658
0.880425
1.059845
1.060158
0.901476
0.659839
0.444597
0.341218
0.394007
0.552688
0.680262
0.722681
0.724880
0.738706
0.796522
0.865650
0.897072
0.874447
0.805004
0.736503
0.777666
0.968084
1.236114
1.520484
1.811453
2.080426
2.248848
2.233765
1.991185
1.506341
0.817568
0.086689
-0.540498
-0.935474
-1.032255
-0.834924
-0.387474
0.121565
0.496744
0.681192
0.705387
0.614262
0.469405
0.348744
0.290927
0.293440
0.401532
0.625571
0.906171
1.220077
1.532413
1.773106
1.893452
1.896908
1.845061
1.823380
1.896279
2.109006
2.397775
2.614587
2.676803
2.600132
2.479471
2.379548
2.274598
2.135711
1.935552
1.676633
1.402003
1.127688
0.881966
0.689662
0.630274
0.725797
0.857141
0.909301
0.829803
0.627130
0.345901
0.116833
0.032307
0.092952
0.233094
0.330502
0.300651
0.137569
-0.085528
-0.320881
-0.548691
-0.833062
-1.248777
-1.815947
-2.514462
-3.289961
-4.087141
-4.780313
-5.236563
-5.426667
-5.439237
-5.313549
-5.167122
-5.096423
-5.091395
-5.076942
-4.935543
-4.646145
-4.284791
-3.942290
-3.704425
-3.591934
-3.452420
-3.192874
-2.774332
-2.211562
-1.605743
-1.154836
-1.018779
-1.206683
-1.632768
-2.121068
-2.472054
-2.538355
-2.335683
-1.965845
-1.529706
-1.219884
-1.155469
-1.290585
-1.450210
-1.461836
-1.303469
-1.037953
-0.803230
-0.648947
-0.563165
-0.523888
-0.464815
-0.418939
-0.472671
-0.629783
-0.946204
-1.393027
-1.924690
-2.468922
-2.903490
-3.174035
-3.183148
-2.946540
-2.560677
-2.158788
-1.854936
-1.624298
-1.372607
-1.103320
-0.904418
-0.814866
-0.807639
-0.868598
-0.877083
-0.823351
-0.775590
-0.729086
-0.773706
-0.883055
-0.999318
-1.031369
-0.884628
-0.534900
0.016873
0.694333
1.320262
1.730006
1.786251
1.443750
0.940366
0.493543
0.217657
0.130931
0.144756
0.127160
0.013725
-0.240480
-0.638285
-1.057771
-1.353768
-1.402787
-1.289668
-1.030750
-0.702074
-0.395395
-0.026499
0.364077
0.744913
1.173196
1.525124
1.680349
1.706114
1.654582
1.614675
1.645783
1.705170
1.706427
1.666206
1.644838
1.707682
1.836198
1.959687
2.083490
2.201008
2.393625
2.655371
2.817823
2.849245
2.748379
2.352146
1.673113
0.941291
0.348355
0.002083
-0.127691
-0.045051
0.233977
0.556053
0.850164
1.112224
1.281275
1.289130
1.144902
0.999417
1.026754
1.260220
1.617489
2.004609
2.348995
2.594402
2.813728
3.069818
3.315539
3.434628
3.438712
3.482389
3.564086
3.648925
3.748847
3.854425
3.886790
3.854110
3.756387
3.481128
3.050959
2.566429
2.144115
1.899965
1.850632
1.965951
2.270745
2.657551
2.948205
3.132653
3.160304
2.984968
2.721650
2.465245
2.203498
1.976001
1.849998
1.767672
1.639469
1.410715
0.985888
0.463023
-0.039732
-0.528032
-0.944376
-1.294419
-1.602042
-1.915635
-2.183038
-2.350518
-2.422475
-2.368744
-2.240228
-2.076205
-1.877932
-1.676516
-1.515949
-1.419484
-1.394347
-1.432054
-1.538575
-1.686260
-1.868823
-2.108888
-2.354610
-2.563567
-2.728220
-2.787294
-2.699941
-2.594048
-2.523978
-2.556657
-2.780383
-3.161848
-3.528859
-3.799718
-3.966885
-4.021874
-4.092888
-4.233974
-4.466498
-4.751812
-5.076403
-5.248282
-5.138619
-4.863362
-4.387003
-3.742535
-3.172538
-2.775991
-2.482195
-2.263811
-2.230818
-2.285179
-2.267897
-2.191856
-2.134983
-2.223279
-2.348654
-2.471829
-2.573637
-2.426582
-1.903404
-1.295386
-0.803002
-0.369063
0.001404
0.251209
0.594653
1.085780
1.498667
1.646036
1.521604
1.386803
1.185072
0.921126
0.755531
0.629842
0.457334
0.384748
0.336044
0.413656
0.498181
0.212868
-0.278575
-0.675751
-0.828463
-0.567974
0.084977
0.694566
1.296928
1.970618
2.576437
2.959158
3.210220
3.565604
3.685322
3.411006
3.043053
2.528358
1.909970
1.280270
0.925199
1.067227
1.229993
1.239733
1.241304
1.209882
0.943736
0.461720
0.025266
-0.275444
-0.343002
-0.219828
0.149067
0.810503
1.278692
1.467853
1.491105
1.467852
1.382698
1.110582
0.999347
1.016314
0.577032
-0.021874
-0.068065
0.241129
0.547180
1.060617
1.995739
3.001876
3.858128
4.258132
4.052002
3.665824
3.015071
2.392912
2.361804
2.500375
2.323154
2.084973
2.036897
1.846164
1.883870
2.303356
2.787570
3.115617
3.167149
3.314518
3.616484
3.817900
3.705094
3.707922
3.882314
4.194021
5.063785
5.857508
5.942976
5.497095
4.831260
4.200303
3.540438
2.767767
2.140581
1.660136
1.010326
0.542135
0.654940
1.015980
1.365080
1.954873
2.812383
3.718282
4.453874
5.093942
5.351603
5.372027
5.630003
5.564958
5.626545
5.813821
5.385223
4.813339
4.429360
3.779864
3.172474
2.993682
3.191641
3.531628
4.011758
4.631402
4.999040
4.988042
4.386308
3.879154
3.722986
3.785829
4.005156
4.424641
5.033287
5.264553
5.130066
4.946875
5.021659
5.389298
5.662984
5.637217
5.317968
4.623853
3.854638
3.702555
3.951732
3.871605
3.702239
3.656991
3.757856
3.930677
3.966812
3.813786
3.418809
2.790680
2.571039
2.909141
3.493592
4.073016
4.293599
4.199018
3.990688
4.156597
4.797608
5.768237
6.628889
7.040204
7.051516
6.529594
5.971536
5.762265
5.767920
6.100052
6.591808
7.246330
7.860633
8.269120
8.114837
7.506818
6.851980
6.473657
6.453861
6.240504
5.854326
5.521251
5.077570
4.604980
4.938997
6.314029
7.865654
8.744845
9.041784
8.757099
7.853398
6.614423
5.861234
5.419124
5.530043
6.081501
6.281660
6.279146
6.361786
6.133346
5.677411
5.859659
6.153769
6.298939
6.221640
6.047247
5.490761
4.981407
4.605598
4.327198
4.276608
4.429947
4.444401
4.249269
4.598997
4.927044
5.059016
5.016910
4.674723
4.316824
4.178566
4.112265
4.396949
4.337561
3.964266
3.680209
3.652871
3.740539
3.382012
3.371956
3.228985
2.657102
2.270295
2.493392
2.781846
3.186563
3.476275
3.495442
2.966293
1.963612
1.168631
0.588893
0.650794
1.217334
1.892596
2.366755
2.565657
2.702028
2.457564
2.537690
3.202582
2.715224
1.952923
0.912535
-0.615209
-1.363999
-1.278846
-0.820711
-0.428563
-0.352208
0.161543
1.552915
2.632579
2.556537
2.205866
1.689914
1.353382
1.434451
1.787950
1.413083
1.628638
0.982913
0.908128
1.715677
1.904209
1.591872
1.380401
1.449529
0.903726
1.273250
2.584181
2.584495
1.757464
3.397385
3.580575
4.571629
5.492926
6.022074
4.296998
4.768016
4.022054
2.338770
2.957785
3.276720
1.518022
1.491941
1.578666
-0.544842
-1.273208
2.522586
-0.070683
-0.563069
2.893051
0.464748
1.930591
-3.408030
0.497426
-1.861120
-1.499451
3.525890
7.119639
-0.791826
3.165477
2.812292
-4.344728
4.409164
-1.689559
-0.575330
1.997828
3.640262
2.429567
6.000692
2.813545
2.908439
-6.886155
-2.674646
10.658079
3.048580
2.577248
-1.360575
-3.064597
3.321637
6.182936
0.613676
2.359804
12.059502
8.715873
0.467248
4.953071
5.807438
5.074360
4.578518
4.663986
0.450906
-1.276370
6.548370
-0.307312
0.196699
3.348967
0.189471
9.189084
7.895434
-2.160278
-6.199908
2.624370
1.158527
-0.783362
5.630838
10.424913
5.999733
1.931823
6.308298
2.882971
0.401878
-1.776304
0.087656
-0.123187
-0.040547
-1.713776
6.528249
10.926091
2.762620
4.423594
7.804615
4.831138
-0.058461
4.072921
6.598631
7.759365
7.492590
5.466805
7.447656
6.045914
8.291968
6.224077
3.117370
4.831133
1.915472
-1.240882
-0.575047
2.369207
2.393715
-2.543645
-0.278424
1.551915
-1.140962
-0.113459
9.169896
10.277526
5.753052
10.990179
6.318650
3.418072
-0.865079
0.051504
-0.277800
3.483114
6.133885
4.035200
2.929769
-6.559087
-13.088293
-22.643136
-23.851946
-15.542049
0.926606
11.786095
5.925866
4.067561
8.343799
3.322856
4.350673
-1.003031
-8.246147
-6.226961
3.974234
30.830732
50.735397
58.177100
37.837238
5.259712
-23.315578
-43.621190
-11.099281
40.434904
54.136211
36.889858
-9.360382
-31.873713
-31.676383
-29.524595
8.873567
29.043120
38.218697
20.660322
-16.806803
-22.122800
-18.594723
5.958532
9.817798
14.003855
32.335527
34.276786
33.952509
11.042945
-19.205573
-41.132881
-36.260566
0.822894
27.253622
22.325688
0.176540
-4.484306
7.906698
19.860934
28.613884
22.380674
10.419839
5.255925
-6.142769
-15.715837
-15.442151
-8.397937
10.611825
24.470243
24.748643
18.758641
13.277363
9.858320
5.788211
-3.820678
-8.958198
-2.955628
2.131930
6.685311
7.172667
3.610025
6.795601
15.560491
25.944249
26.749283
15.429145
1.666250
-3.425708
-2.464819
-2.142429
-0.662761
1.303950
1.613772
5.753009
12.982299
12.206172
9.124289
2.891394
0.541961
2.556747
4.295648
4.962425
2.997284
1.031201
2.593509
0.547613
-3.662325
-5.986934
-2.467656
4.114967
8.372351
11.963901
14.135798
13.387008
6.142006
0.240929
-4.597766
-5.647580
-5.337129
-3.847092
-3.726117
-4.224159
-6.803916
-7.318926
-3.166177
3.525166
4.087308
0.415317
-2.759890
-4.331940
-3.145755
0.597878
-1.558624
-0.222555
-1.662003
-7.117829
1.224747
1.835279
5.922355
0.292451
-6.143431
-5.066909
-0.251782
-1.701599
-0.319968
-0.291375
-2.412055
0.944457
-1.144173
1.805108
3.152803
5.620383
5.187071
2.051456
-3.625267
-5.985384
-6.703380
-4.222917
-12.808388
-10.422191
-3.711366
-0.692642
4.572764
6.715439
7.280723
0.636512
-6.952248
-12.475003
-9.976943
-7.043059
-3.995741
0.696526
5.255877
6.532558
7.563518
-0.830906
-3.854344
-7.826416
-6.343606
-5.677143
-4.919242
-3.442088
-0.229803
4.840786
3.463239
0.293060
-8.992181
-7.249510
-5.276201
-0.540571
-0.017393
3.266220
2.500462
3.218143
0.474047
-5.580056
-6.044475
-6.484386
-0.992111
0.162966
1.691024
-0.871137
-1.065326
0.151338
-0.264691
-2.085604
-7.345984
-9.954650
-8.930289
-5.964983
-7.361069
-6.104498
-1.659523
-2.197156
0.458642
-2.343270
-5.429867
-5.766084
-7.418575
-7.156829
-3.105573
2.385758
4.518693
3.227242
-0.035318
-2.062989
-7.190453
-6.192487
-3.625613
-1.765423
1.748514
2.050166
-1.887342
-3.277458
-0.618203
-0.898803
0.455490
-1.156780
-4.515178
-7.586692
-8.724802
-6.912688
-3.947068
-2.032203
-3.607081
-4.826574
-6.993445
-10.325134
-11.701424
-11.008881
-10.485703
-7.452839
-7.850015
-8.073427
-11.036220
-15.931161
-19.364658
-20.845269
-17.007999
-17.163853
-11.956263
-10.981863
-12.803405
-11.376840
-11.809838
-7.666201
-3.458778
-2.474323
-2.361204
-4.360909
-7.595818
-11.294518
-12.377325
-7.136427
-0.776274
1.620921
-1.487986
-7.420171
-15.325352
-13.954405
-11.555639
-7.999283
-6.553865
-11.584549
-13.212216
-15.145620
-12.851177
-10.976533
-14.573425
-17.817132
-15.024962
-12.364450
-11.010156
-10.004648
-9.012024
-7.881142
-7.162204
-4.255657
-1.907795
-4.078751
-7.030546
-9.974487
-12.997296
-18.063802
-19.649677
-17.516429
-17.716589
-17.675426
-13.891259
-7.789395
-1.707955
4.927456
3.395627
-0.832222
-7.544619
-10.634986
-7.096854
-1.021699
4.378823
4.593750
4.334831
2.178644
0.526782
1.725221
2.606612
1.845882
-0.034419
-4.313800
-6.327645
-4.955127
-3.578838
-1.893983
-2.424704
-4.338312
-4.328572
-1.706081
1.071007
0.101005
-4.022836
-5.609969
-4.456148
-2.743642
-2.401456
-4.101079
-3.836191
-4.896374
-5.656162
-6.749024
-9.277878
-10.789912
-9.633263
-8.148882
-5.772112
-2.998167
-5.296696
-7.073304
-6.995378
-7.713060
-9.023992
-8.840487
-6.926565
-3.431796
-1.616854
-2.575543
-4.962055
-6.971815
-8.907733
-8.809382
-7.726890
-6.365370
-3.057876
-3.100611
-3.397550
-4.644695
-6.902376
-7.783139
-7.894688
-6.003704
-2.461173
2.929922
5.937962
5.174718
2.574536
-0.876243
-3.140837
-4.628989
-6.322014
-7.396966
-5.980771
-7.236400
-9.736345
-11.129917
-10.662042
-8.149529
-6.772297
-5.574800
-4.624281
-4.864660
-6.973400
-9.144356
-12.316735
-12.831744
-11.744225
-11.448229
-12.252007
-11.516101
-9.488117
-8.203581
-4.459005
-1.089610
1.257623
-0.069649
-2.738017
-6.833578
-10.360399
-11.737003
-13.023426
-11.628283
-10.315467
-7.216931
-5.693272
-6.726746
-7.249925
-7.759907
-8.046477
-8.291570
-8.729910
-9.005168
-9.297394
-10.754439
-10.503691
-8.338706
-5.843475
-5.407336
-5.986761
-5.566647
-6.633743
-7.372792
-5.955340
-6.262963
-6.898948
-7.967301
-8.301633
-7.772799
-7.850726
-7.890947
-9.308086
-10.289399
-11.548799
-12.309215
-10.764503
-8.810047
-9.517045
-11.446051
-13.371599
-14.019210
-13.057379
-12.025162
-11.150056
-10.204879
-9.814616
-8.876352
-6.683087
-4.015663
-3.199945
-3.654309
-4.743086
-8.307300
-10.471657
-11.442287
-11.580230
-10.937020
-11.163260
-12.040880
-13.279541
-13.148825
-10.601433
-7.692373
-5.629510
-5.215995
-4.724553
-4.405305
-5.141526
-5.849153
-5.355826
-4.937283
-5.578610
-5.875235
-5.884662
-4.662970
-3.214096
-1.969151
-2.136003
-3.451963
-5.302098
-5.542478
-5.462666
-6.614288
-8.355703
-8.929786
-9.481245
-8.851860
-6.192919
-5.359919
-5.426220
-7.071169
-7.359625
-6.536365
-4.669262
-3.931785
-4.043020
-3.362731
-3.251183
-4.073187
-4.712942
-5.119230
-6.328040
-6.856247
-5.864565
-4.558976
-5.213499
-6.058755
-6.283738
-5.507926
-3.945932
-0.604188
0.301397
0.034309
-0.730821
-1.084634
-0.774498
-1.331927
-1.535229
-2.521885
-3.000444
-2.310414
-0.000574
0.859135
-0.096412
-3.438785
-6.253894
-7.999394
-9.243711
-9.940341
-9.781973
-9.145676
-9.498547
-7.920213
-4.425758
-1.691404
0.732184
2.514762
2.352937
0.361716
-2.865652
-6.103703
-7.452970
-5.637400
-4.347521
-4.235973
-5.532137
-7.125554
-7.764052
-6.800021
-5.854844
-5.820908
-6.120047
-6.290042
-4.616185
-1.979240
