EVENT_NAME: 202302060117
EVENT_ID: 13194
EVENT_DATE_YYYYMMDD: 2023/02/06
EVENT_TIME_HHMMSS: 01:17:32.00000
EVENT_LATITUDE_DEGREE: 37.288
EVENT_LONGITUDE_DEGREE: 37.043
EVENT_DEPTH_KM: 8.6
HYPOCENTER_REFERENCE: AFAD
MAGNITUDE_W: 7.7
MAGNITUDE_W_REFERENCE: AFAD
MAGNITUDE_L: 
MAGNITUDE_L_REFERENCE: 
FOCAL_MECHANISM: 
NETWORK: TK
STATION_CODE: 2307
STATION_NAME: 
STATION_LATITUDE_DEGREE: 38.69583
STATION_LONGITUDE_DEGREE: 39.93199
STATION_ELEVATION_M: 880.0
LOCATION: Kahramanmaras_Pazarck_Turkiye
SENSOR_DEPTH_M: 
VS30_M/S: 329
SITE_CLASSIFICATION_EC8: C
MORPHOLOGIC_CLASSIFICATION: 
EPICENTRAL_DISTANCE_KM: 297.63
EARTHQUAKE_BACKAZIMUTH_DEGREE: 
DATE_TIME_FIRST_SAMPLE_YYYYMMDD_HHMMSS: 2023/02/06 01:18:00.7984240
DATE_TIME_FIRST_SAMPLE_PRECISION: millisecond
SAMPLING_INTERVAL_S: 0.01
NDATA: 18251
DURATION_S: 
STREAM: HNE
UNITS: cm/s^2
INSTRUMENT: sensor = CMG-5T/GURALP | digitizer = 
INSTRUMENT_ANALOG/DIGITAL: 
INSTRUMENTAL_FREQUENCY_HZ: 
INSTRUMENTAL_DAMPING: 
FULL_SCALE_G: 
N_BIT_DIGITAL_CONVERTER: 
PGA_CM/S^2: 38.108
TIME_PGA_S: 
BASELINE_CORRECTION: BASELINE REMOVED
FILTER_TYPE: BUTTERWORTH
FILTER_ORDER: 
LOW_CUT_FREQUENCY_HZ: 
HIGH_CUT_FREQUENCY_HZ: 
LATE/NORMAL_TRIGGERED: 
DATABASE_VERSION: 
HEADER_FORMAT: DYNA 1.2
DATA_TYPE: Acceleration
PROCESSING: Automatic Paolucci et al., 2011
DATA_TIMESTAMP_YYYYMMDD_HHMMSS: 
DATA_LICENSE: U (unknown license)
DATA_CITATION: Turkish Accelerometric Archive v 1.0 - Disaster And Emergency Management Presidency, Earthquake Department
DATA_CREATOR: AFAD
ORIGINAL_DATA_MEDIATOR_CITATION: : AFAD - Disaster And Emergency Management Presidency
ORIGINAL_DATA_MEDIATOR: AFAD PROCESS SERVICE
ORIGINAL_DATA_CREATOR_CITATION: AFAD PROCESS SERVICE
ORIGINAL_DATA_CREATOR: network: TK
USER1: GuestUser
USER2: 
USER3: 
USER4: 
USER5: 
[...]
-1.946317
-1.765236
-1.431002
-0.977250
-0.469744
0.008633
0.400824
0.668991
0.851574
0.956380
1.024248
1.132957
1.339264
1.629654
1.955178
2.283706
2.577700
2.811333
2.962084
3.019142
3.006531
2.937163
2.840769
2.755185
2.696327
2.662095
2.664498
2.690625
2.704440
2.674712
2.593633
2.452494
2.242586
1.985232
1.743793
1.572023
1.484938
1.476231
1.478034
1.442900
1.351310
1.203264
0.971735
0.624291
0.193664
-0.268494
-0.712334
-1.124642
-1.545660
-1.996707
-2.436042
-2.802705
-3.078378
-3.246844
-3.306603
-3.283779
-3.181376
-2.977171
-2.697592
-2.432428
-2.246241
-2.124619
-1.966060
-1.677772
-1.257954
-0.764863
-0.248949
0.267866
0.800597
1.330025
1.783777
2.095188
2.231825
2.227622
2.175071
2.152249
2.182881
2.225224
2.232132
2.215917
2.221024
2.241746
2.273578
2.336943
2.481988
2.748054
3.073879
3.409013
3.690694
3.836941
3.801207
3.584993
3.237249
2.869985
2.611729
2.495515
2.416838
2.270594
2.009936
1.637567
1.178412
0.634272
-0.001158
-0.703855
-1.422168
-2.082824
-2.645882
-3.125157
-3.584012
-4.033257
-4.422443
-4.745263
-5.045560
-5.323034
-5.562972
-5.750657
-5.809514
-5.676781
-5.387292
-5.039245
-4.749155
-4.542249
-4.352158
-4.100507
-3.750057
-3.291801
-2.765376
-2.236549
-1.777992
-1.468383
-1.374989
-1.461774
-1.682492
-1.979186
-2.236541
-2.402004
-2.472273
-2.489388
-2.504702
-2.599896
-2.778872
-3.059650
-3.392380
-3.702287
-3.893575
-3.926607
-3.792673
-3.550331
-3.229310
-2.820903
-2.310995
-1.705592
-1.059048
-0.418811
0.176082
0.728933
1.254456
1.789590
2.359257
2.991086
3.681173
4.420209
5.151437
5.816299
6.377859
6.848428
7.214793
7.472150
7.667346
7.864943
8.051430
8.190770
8.270050
8.309390
8.304286
8.227111
8.043629
7.728317
7.292285
6.756854
6.151754
5.492600
4.826239
4.151169
3.444267
2.684514
1.874910
1.034676
0.213361
-0.535282
-1.146088
-1.615453
-1.992327
-2.256588
-2.398628
-2.484813
-2.624450
-2.857480
-3.112433
-3.262881
-3.258976
-3.147564
-2.973690
-2.737053
-2.401318
-1.943963
-1.424745
-0.912435
-0.401025
0.099874
0.550923
0.902875
1.115487
1.207079
1.265338
1.363237
1.517291
1.660535
1.765941
1.810386
1.783961
1.649429
1.376459
1.009495
0.640430
0.381874
0.233828
0.159956
0.081279
-0.049050
-0.249648
-0.486282
-0.726820
-0.933724
-1.055344
-1.040027
-0.862249
-0.592580
-0.342430
-0.240928
-0.316302
-0.491074
-0.684165
-0.886865
-1.149625
-1.525297
-2.064032
-2.758621
-3.504561
-4.145997
-4.572120
-4.768814
-4.790134
-4.669413
-4.444488
-4.190734
-3.959804
-3.749293
-3.504849
-3.183228
-2.750497
-2.199147
-1.583534
-1.005158
-0.513268
-0.072429
0.327570
0.700242
1.088829
1.483123
1.830569
2.066305
2.173813
2.143484
1.965708
1.696642
1.442291
1.278929
1.210763
1.228782
1.323077
1.438693
1.531487
1.560016
1.534792
1.528187
1.596656
1.781341
2.039299
2.304464
2.547707
2.730590
2.849509
2.881942
2.791554
2.608974
2.451018
2.402070
2.403873
2.368740
2.244117
2.009885
1.705985
1.404186
1.186471
1.077464
1.015303
0.917107
0.704496
0.338734
-0.151352
-0.684380
-1.118611
-1.349839
-1.380769
-1.277165
-1.091279
-0.867555
-0.673261
-0.553440
-0.503590
-0.502687
-0.524608
-0.536919
-0.517999
-0.445926
-0.317397
-0.149829
0.051372
0.283504
0.522242
0.779299
1.079299
1.427346
1.811128
2.203920
2.631546
3.144157
3.704515
4.251060
4.704212
5.011418
5.182589
5.255864
5.315024
5.371781
5.426737
5.486197
5.532745
5.546560
5.511726
5.451968
5.376895
5.275996
5.149571
5.004228
4.876302
4.776604
4.654684
4.455888
4.190425
3.927665
3.742983
3.629471
3.470615
3.155903
2.630082
1.951709
1.236099
0.544512
-0.077104
-0.581304
-0.939559
-1.146464
-1.228143
-1.265680
-1.341053
-1.478589
-1.623932
-1.666873
-1.565071
-1.394801
-1.284590
-1.254258
-1.255458
-1.280682
-1.338639
-1.492690
-1.744940
-2.035928
-2.326315
-2.589676
-2.777962
-2.850933
-2.838019
-2.787267
-2.728708
-2.655434
-2.596574
-2.606483
-2.690565
-2.815188
-2.996867
-3.192360
-3.358124
-3.459623
-3.453016
-3.313676
-3.026589
-2.651515
-2.233198
-1.804971
-1.395663
-1.022091
-0.677347
-0.359630
-0.113384
0.041872
0.144875
0.216948
0.349081
0.536769
0.703736
0.834967
0.913347
0.939774
0.931667
0.923861
0.983922
1.107346
1.253292
1.383923
1.458398
1.467108
1.378521
1.204349
0.934382
0.578530
0.173428
-0.187229
-0.399839
-0.465303
-0.399536
-0.222059
0.026289
0.252415
0.378842
0.399864
0.344310
0.257225
0.176746
0.158429
0.218490
0.330503
0.470143
0.643116
0.842816
1.080653
1.369242
1.753625
2.215185
2.704973
3.194160
3.657222
4.089052
4.458721
4.733195
4.916979
5.014577
5.047912
5.085150
5.153019
5.285151
5.515782
5.823889
6.159023
6.469533
6.722987
6.888753
6.962027
6.949415
6.894762
6.865634
6.889960
6.952123
6.990863
6.977350
6.917893
6.835011
6.702281
6.459941
6.093878
5.648237
5.183676
4.770467
4.440740
4.175878
3.917923
3.645854
3.376487
3.125439
2.862379
2.551271
2.209532
1.893319
1.661790
1.501432
1.351884
1.131467
0.763002
0.208352
-0.502754
-1.318664
-2.170009
-3.030063
-3.948374
-4.924944
-5.866678
-6.689195
-7.347148
-7.858254
-8.218011
-8.426116
-8.491580
-8.448036
-8.277465
-7.972360
-7.537227
-6.985577
-6.321916
-5.619517
-4.944445
-4.369672
-3.974478
-3.748652
-3.722225
-3.738440
-3.731832
-3.685885
-3.526125
-3.251951
-2.937237
-2.582283
-2.201804
-1.833937
-1.457061
-1.049855
-0.671778
-0.346253
-0.054362
0.189482
0.372665
0.524317
0.622216
0.642938
0.578975
0.421019
0.161262
-0.129726
-0.362155
-0.522814
-0.639929
-0.786473
-1.018603
-1.348329
-1.756734
-2.186160
-2.551021
-2.775343
-2.835101
-2.755821
-2.584950
-2.412578
-2.242307
-2.070235
-1.897562
-1.741405
-1.614078
-1.519182
-1.433896
-1.349811
-1.260621
-1.160320
-1.014674
-0.787047
-0.475937
-0.166928
0.027667
0.042983
-0.124883
-0.417973
-0.772324
-1.149497
-1.541386
-1.972013
-2.432669
-2.927860
-3.464793
-4.004428
-4.474694
-4.774391
-4.848563
-4.714929
-4.480995
-4.235951
-4.018233
-3.807723
-3.571987
-3.271988
-2.891808
-2.427846
-1.926346
-1.443765
-1.034758
-0.713737
-0.476801
-0.323947
-0.207731
-0.042265
0.187465
0.402780
0.548726
0.605184
0.610890
0.581462
0.512395
0.394679
0.216603
-0.075586
-0.480387
-0.944347
-1.372571
-1.717313
-1.958751
-2.064756
-2.003193
-1.761752
-1.404095
-1.020313
-0.684578
-0.435329
-0.330523
-0.375266
-0.537126
-0.759346
-1.002286
-1.219100
-1.382461
-1.490568
-1.574350
-1.683657
-1.820292
-1.953323
-2.041609
-2.085151
-2.112778
-2.121785
-2.126889
-2.143705
-2.174034
-2.260819
-2.420876
-2.603457
-2.794145
-3.030479
-3.346091
-3.744286
-4.160198
-4.491126
-4.630463
-4.557189
-4.305838
-3.936469
-3.482717
-3.003139
-2.570108
-2.232571
-1.966205
-1.716956
-1.446386
-1.165005
-0.925365
-0.758999
-0.648488
-0.537676
-0.379418
-0.135274
0.170431
0.434995
0.609470
0.693555
0.757520
0.857520
1.018181
1.286950
1.668931
2.164424
2.737695
3.338294
3.876430
4.331083
4.756007
5.214263
5.710958
6.164710
6.492037
6.641287
6.616663
6.454503
6.203755
5.905861
5.616374
5.403464
5.282745
5.231996
5.220886
5.195662
5.172240
5.191460
5.234704
5.265336
5.293565
5.333506
5.372847
5.404680
5.412489
5.417295
5.411290
5.378859
5.283065
5.068353
4.695683
4.147340
3.480978
2.816119
2.205313
1.614627
1.009226
0.392415
-0.200674
-0.765234
-1.327692
-1.905465
-2.528883
-3.217166
-3.924968
-4.575113
-5.134868
-5.588018
-5.941468
-6.231255
-6.515035
-6.794912
-7.002117
-7.080794
-7.018331
-6.783496
-6.312327
-5.549267
-4.543866
-3.471499
-2.512645
-1.752888
-1.166404
-0.651992
-0.144786
0.383740
0.869324
1.360914
1.878029
2.420370
2.888536
3.237484
3.557604
3.904450
4.316761
4.711054
5.027870
5.245588
5.357600
5.352797
5.278925
5.162710
5.021571
4.859712
4.715870
4.628785
4.548906
4.410470
4.194857
3.877743
3.472041
2.987961
2.404782
1.725208
1.007796
0.327922
-0.229731
-0.658857
-0.959454
-1.133626
-1.163354
-1.044135
-0.831822
-0.564856
-0.294286
-0.055247
0.111120
0.118328
-0.097285
-0.511095
-1.043523
-1.567843
-2.026698
-2.523390
-3.141403
-3.833290
-4.573524
-5.332678
-6.099639
-6.804138
-7.281912
-7.489116
-7.481007
-7.452177
-7.514338
-7.652174
-7.920940
-8.315531
-8.729040
-9.065674
-9.225131
-9.174680
-9.000505
-8.773478
-8.594199
-8.555759
-8.561764
-8.502904
-8.425727
-8.274375
-7.962964
-7.487891
-6.947052
-6.498104
-6.350957
-6.427231
-6.336240
-5.896902
-5.269577
-4.572283
-3.743157
-2.724243
-1.578003
-0.495125
0.379345
0.989553
1.422284
1.856818
2.405765
2.984141
3.591946
4.245097
4.836385
5.322870
5.714761
5.944190
5.900648
5.678729
5.403657
4.890148
4.070634
3.127097
2.181459
1.285069
0.382373
-0.534737
-1.378275
-2.186076
-3.002587
-3.892370
-4.908879
-5.896860
-6.615173
-7.032586
-7.348800
-7.681829
-8.127471
-8.726265
-9.405839
-10.195023
-10.977299
-11.489607
-11.516332
-11.281197
-11.195611
-11.310624
-11.670380
-12.292898
-12.931632
-13.323220
-13.096793
-12.307007
-11.466771
-10.794701
-10.293802
-10.166775
-10.727431
-11.717514
-12.654144
-13.114200
-12.864951
-12.112401
-11.254447
-10.547844
-10.139437
-10.414509
-11.079669
-11.546932
-11.787470
-11.375459
-10.010301
-7.907009
-5.557172
-3.782407
-2.879108
-2.770999
-3.106731
-2.858684
-1.629561
0.006467
1.761112
3.703144
5.642773
7.322043
8.633148
9.460171
9.755366
9.870982
10.328338
11.355060
12.526525
13.227724
13.452348
13.891986
15.132220
16.868547
17.923197
17.974249
17.993770
18.255631
18.204882
17.796177
17.191978
16.600391
16.185680
15.829827
15.585986
15.159263
14.208519
13.051170
11.764993
10.104343
8.451201
7.279738
6.896559
7.255717
7.633494
7.392055
6.655424
5.904078
5.425404
4.981864
4.003192
2.675574
1.906511
1.926932
2.079785
1.928136
1.740451
1.329944
0.423344
-0.408782
-0.992861
-1.503067
-1.463727
-0.868234
-0.113282
0.654883
1.208334
1.579504
1.766291
1.662389
1.423653
0.909843
0.128468
-0.443599
-0.838491
-1.397045
-2.148390
-2.906643
-3.503935
-3.927655
-4.245370
-4.339662
-3.982006
-3.335161
-3.029757
-3.245069
-3.643264
-4.069987
-4.466980
-4.825836
-4.945053
-4.709918
-4.565473
-4.682288
-4.802707
-4.818021
-4.660663
-4.331234
-4.444145
-5.283178
-6.338125
-6.936619
-7.292171
-7.742317
-8.206277
-8.794261
-9.690951
-10.561815
-11.374722
-12.087329
-12.527866
-12.649786
-12.692427
-12.676510
-12.293328
-11.351290
-10.551594
-10.891831
-11.287323
-10.098140
-8.287038
-6.170833
-4.042617
-3.282560
-4.615283
-6.636892
-8.877418
-10.239570
-9.459694
-8.502341
-6.507757
-5.511966
-5.228183
-6.059408
-8.738970
-9.272900
-9.823345
-11.526938
-11.450661
-13.034133
-15.686068
-16.219697
-15.283065
-12.909204
-10.387897
-7.289716
-5.480116
-5.521856
-8.282199
-12.096589
-10.871370
-13.442525
-13.018202
-8.726935
-8.625132
-3.993027
2.412942
4.719236
-0.627278
-6.979190
-7.441649
-5.674691
-6.117029
-4.528749
-2.337170
-3.333859
1.230979
7.914124
11.266057
7.618933
-2.026354
-6.440740
-9.908886
-14.392041
-11.277044
-4.031741
3.119269
10.995499
12.974167
7.560086
-1.404423
-6.255143
-6.646431
-8.598971
-6.711593
-0.419738
6.868808
10.591910
7.631268
4.837593
2.190162
0.136422
-3.536528
-5.468947
-2.747341
3.080854
9.884117
14.044454
9.878414
3.854728
-0.350050
-0.763260
5.071841
5.531900
5.742711
6.121388
4.617495
8.307564
9.735785
3.134324
-2.550926
-2.341917
-0.259045
-0.128414
1.794999
4.856844
4.164957
4.249943
7.147825
8.946314
4.416312
-4.801349
-7.664394
-1.612477
2.178793
-0.717285
-2.702557
-2.752705
-0.169236
0.578809
-1.666222
-3.349994
-1.824777
3.115735
4.942752
1.142776
-0.668623
-1.924470
-5.168293
-4.158088
-1.952995
0.309456
7.694397
15.441800
19.758592
19.140879
11.945728
0.269223
-10.053537
-16.642985
-18.125558
-12.340907
0.105867
10.458058
11.600995
7.253575
-2.456876
-15.011454
-25.080461
-29.525779
-24.612894
-12.908158
-3.986589
3.667420
5.494738
-4.135233
-12.906350
-17.224942
-17.607220
-17.327341
-19.681079
-16.585601
-14.223152
-12.105746
-8.227990
-8.479038
-8.830386
-7.445108
-3.005794
1.785469
0.784576
-3.790771
-5.871538
-7.633989
-7.414770
-2.810592
3.080665
5.402875
2.593884
1.105606
1.246447
-2.546922
-8.605143
-12.196111
-11.806623
-6.262210
0.264178
4.485475
7.976447
4.639831
-4.173928
-8.993718
-11.388597
-13.057055
-11.265172
-7.775702
-2.535492
2.254870
4.934135
3.810119
-2.204559
-6.529456
-5.711442
-3.705747
-0.410871
0.770505
-2.208455
-1.292243
2.724250
4.432049
5.938948
5.002919
3.036866
3.950676
5.569886
7.682788
8.269572
6.988800
5.626347
5.805927
5.832955
7.565378
8.677085
7.474691
8.920029
12.040732
12.610099
12.697487
13.004393
12.744636
16.903772
21.562003
18.722382
14.662648
12.865663
9.679197
9.812831
14.141034
17.457532
20.015176
25.052384
28.403116
27.897414
23.585429
14.826024
7.806548
4.643205
3.626695
1.787669
-0.264870
-0.458562
-0.859759
-2.578366
-2.614101
-0.387386
1.786776
4.063040
5.611080
5.987055
4.604782
-0.239932
-6.180436
-8.735374
-7.613458
-2.859131
4.202390
9.640797
9.748605
4.935722
-0.989166
-7.546182
-15.215805
-22.334980
-28.110019
-29.300401
-24.568296
-18.217883
-12.693290
-6.235970
-0.173242
1.237261
-1.762119
-7.369892
-14.531710
-21.976108
-29.579965
-36.109655
-38.107539
-33.935491
-26.446346
-16.243703
-5.135961
2.379311
6.729136
5.745359
-2.233270
-11.255137
-18.376114
-19.631661
-13.661725
-6.245553
0.494048
3.845981
1.743592
-3.172893
-8.243432
-10.926598
-12.441903
-12.105267
-10.155128
-9.445221
-8.031714
-6.320312
-3.726332
-2.995104
-3.757861
-2.778887
-0.796015
-0.168089
0.923197
1.495266
-0.894808
-3.577674
-5.161747
-4.764151
-3.459653
-3.589080
-5.135015
-6.980649
-7.007975
-4.863542
-2.585176
-0.223027
0.733725
1.607595
2.807289
1.777867
-0.413410
0.008511
3.068554
6.165834
10.302146
13.248376
13.025556
10.976620
8.356818
5.992869
3.716007
4.347836
6.225604
7.572144
7.827098
5.206695
0.146666
-5.482728
-8.905229
-9.238559
-6.677011
-1.151518
6.067960
11.573333
16.260093
19.993705
19.009028
14.615062
7.771861
-0.018482
-5.539769
-7.397414
-7.149066
-4.248481
2.801628
9.888974
13.246312
11.601879
6.897704
1.828967
-1.725365
-4.442765
-8.087486
-10.830712
-11.067346
-8.907598
-5.988996
-4.546961
-4.100116
-3.981196
-3.516333
-2.373395
-4.142152
-6.134932
-5.322323
-4.055062
-1.716036
1.789650
4.354801
6.938270
8.500724
9.509428
9.967985
9.129853
7.472808
5.983929
5.874922
5.925673
7.252393
9.666194
10.186312
7.704346
4.089955
0.179769
-3.121411
-4.539419
-4.064045
-1.581476
2.109193
5.742806
6.840999
5.815781
5.150021
3.997777
3.447331
2.452743
0.828130
-0.027419
-1.542424
-2.977850
-3.373942
-2.167942
0.259672
2.059663
2.371674
1.448257
-0.255335
-1.909077
-3.169129
-4.039092
-3.945698
-2.727386
-0.185058
3.069579
5.401398
7.401988
8.748227
8.669250
8.011297
6.161159
2.848568
-0.025588
-0.963419
0.059099
2.136565
4.487002
5.834443
7.038341
9.182473
12.008584
13.513080
12.523598
11.562944
12.381559
15.131094
19.694131
23.702816
25.502206
25.862866
21.393224
17.554210
15.668937
10.795094
8.271386
7.769589
7.267190
8.694811
10.671076
9.389704
6.907137
6.799332
6.265702
5.960000
6.131772
6.469008
5.953997
5.736282
5.717064
4.645601
2.594863
1.507484
2.072046
0.259145
0.153742
1.034819
-2.262457
-3.786771
-3.724008
-5.983152
-6.555520
-5.015288
-3.953731
-3.383163
-3.201781
-4.496067
-4.635704
-4.748315
-5.363025
-5.988545
-4.280446
-3.731800
-2.366341
-0.212299
-0.385269
-0.672654
0.761273
2.005411
1.415025
3.019821
4.347743
3.203006
3.532735
5.689780
4.549248
4.408709
6.348038
6.549540
6.524316
7.106896
8.184068
7.688877
5.918919
6.110210
6.298499
3.802719
0.815051
-2.059706
-6.765982
-9.703201
-13.033810
-13.538911
-11.587570
-8.817015
-2.293029
-0.937780
-0.779822
1.952295
-0.522764
-4.431749
-4.906820
-5.773180
-7.951844
-7.053049
-3.251269
-0.217052
0.541804
2.319572
4.415657
4.528270
5.089829
4.431276
3.611462
3.976326
3.279935
4.198249
6.364604
5.279026
2.037305
-0.761175
-3.801697
-4.680969
-1.379486
2.706676
7.327671
10.751375
13.954961
17.173261
17.459447
14.876881
14.381089
17.171464
15.867269
13.293412
14.163678
14.397011
11.075711
6.605769
4.602179
5.434007
5.360135
6.348719
8.200661
7.964027
8.093156
8.251115
6.461937
4.611199
3.677272
1.658967
-0.982157
-4.842793
-8.886612
-11.860166
-14.672761
-17.018992
-19.297355
-21.541484
-21.067912
-18.651109
-15.476652
-11.906402
-11.514812
-11.987180
-11.491386
-13.298881
-12.996480
-10.368566
-8.837043
-8.493800
-9.482982
-8.650253
-5.562883
-6.929841
-7.270378
-4.380905
-3.324153
-4.437358
-6.793199
-9.599187
-9.619606
-3.701622
3.564702
9.764966
14.331607
14.638513
12.015407
10.723524
5.842774
2.464417
5.572808
7.367993
8.454475
13.570061
16.544519
18.334299
19.912969
18.806971
16.910287
18.659227
20.835191
21.644196
24.458295
27.265186
27.461883
26.400929
21.569428
17.650834
16.677868
13.264977
11.306732
11.480906
12.341863
13.882996
14.071885
15.130739
18.354745
20.623501
19.833117
18.880571
19.750237
20.184470
20.335221
17.758361
16.242755
17.924428
18.613314
18.603706
19.563461
17.348761
14.902230
13.478216
13.232273
12.272520
11.953905
13.355399
15.593825
20.450254
23.321109
22.134931
22.176974
21.994393
19.856870
21.442748
23.940632
25.424108
27.155630
29.415377
31.614765
30.743300
26.831913
20.687507
16.162610
14.200461
11.236216
8.892688
7.516721
5.176496
2.102642
0.023677
-2.725855
-5.449862
-8.277471
-10.541720
-10.908384
-10.239017
-9.553434
-6.768465
-2.081705
1.645301
3.069017
1.960316
0.371138
-4.331835
-8.278357
-7.124309
-7.000284
-8.069646
-4.789785
-3.293396
-3.407808
-1.957365
-4.180174
-8.958822
-14.331161
-18.133540
-18.322726
-14.453079
-11.073819
-7.391557
-4.138723
-3.094283
-1.422520
-2.145938
-3.785867
-4.560936
-5.307477
-5.510177
-6.288850
-5.505971
-7.036291
-11.691216
-12.667786
-11.374099
-13.108021
-14.364168
-14.877678
-16.762350
-17.725706
-18.244921
-20.063227
-21.591145
-21.286340
-20.755712
-19.389653
-16.904681
-15.698381
-15.445829
-15.042827
-15.397779
-15.191172
-14.834116
-14.322406
-14.922401
-17.495958
-17.996855
-16.725390
-17.370430
-17.722678
-16.984243
-16.786646
-16.124486
-13.018498
-8.368975
-3.937168
0.481125
2.891622
3.135165
5.536954
7.192801
6.160977
6.145963
7.536947
8.624930
7.984995
7.744457
7.469985
4.045082
1.530384
1.333389
0.380543
-0.363295
0.501866
1.161023
3.144195
7.436663
10.236648
9.755871
6.409946
3.350807
3.479636
5.003652
6.464305
8.838166
11.573887
13.825526
16.228215
16.644130
12.911121
7.232778
3.773941
1.808188
-0.232940
-0.642846
0.310303
2.230713
5.811774
9.026170
11.379611
14.172688
16.894295
18.942031
19.892477
19.915001
19.962750
21.010492
24.192456
27.429375
28.427268
28.698739
28.102948
25.590953
20.890382
14.847776
9.127692
4.861953
2.952957
1.149966
0.531052
2.220532
2.762873
