EVENT_NAME: 202302060117
EVENT_ID: 13194
EVENT_DATE_YYYYMMDD: 2023/02/06
EVENT_TIME_HHMMSS: 01:17:32.00000
EVENT_LATITUDE_DEGREE: 37.288
EVENT_LONGITUDE_DEGREE: 37.043
EVENT_DEPTH_KM: 8.6
HYPOCENTER_REFERENCE: AFAD
MAGNITUDE_W: 7.7
MAGNITUDE_W_REFERENCE: AFAD
MAGNITUDE_L: 
MAGNITUDE_L_REFERENCE: 
FOCAL_MECHANISM: 
NETWORK: TK
STATION_CODE: 8002
STATION_NAME: 
STATION_LATITUDE_DEGREE: 37.19156
STATION_LONGITUDE_DEGREE: 36.56195
STATION_ELEVATION_M: 593.0
LOCATION: Kahramanmaras_Pazarck_Turkiye
SENSOR_DEPTH_M: 
VS30_M/S: 430
SITE_CLASSIFICATION_EC8: unknown
MORPHOLOGIC_CLASSIFICATION: 
EPICENTRAL_DISTANCE_KM: 43.91
EARTHQUAKE_BACKAZIMUTH_DEGREE: 
DATE_TIME_FIRST_SAMPLE_YYYYMMDD_HHMMSS: 2023/02/06 01:17:09.7103280
DATE_TIME_FIRST_SAMPLE_PRECISION: millisecond
SAMPLING_INTERVAL_S: 0.01
NDATA: 10501
DURATION_S: 
STREAM: HNZ
UNITS: cm/s^2
INSTRUMENT: sensor = CMG-5T/GURALP | digitizer = 
INSTRUMENT_ANALOG/DIGITAL: 
INSTRUMENTAL_FREQUENCY_HZ: 
INSTRUMENTAL_DAMPING: 
FULL_SCALE_G: 
N_BIT_DIGITAL_CONVERTER: 
PGA_CM/S^2: 336.563
TIME_PGA_S: 
BASELINE_CORRECTION: BASELINE REMOVED
FILTER_TYPE: BUTTERWORTH
FILTER_ORDER: 
LOW_CUT_FREQUENCY_HZ: 
HIGH_CUT_FREQUENCY_HZ: 
LATE/NORMAL_TRIGGERED: 
DATABASE_VERSION: 
HEADER_FORMAT: DYNA 1.2
DATA_TYPE: Acceleration
PROCESSING: Automatic Paolucci et al., 2011
DATA_TIMESTAMP_YYYYMMDD_HHMMSS: 
DATA_LICENSE: U (unknown license)
DATA_CITATION: Turkish Accelerometric Archive v 1.0 - Disaster And Emergency Management Presidency, Earthquake Department
DATA_CREATOR: AFAD
ORIGINAL_DATA_MEDIATOR_CITATION: : AFAD - Disaster And Emergency Management Presidency
ORIGINAL_DATA_MEDIATOR: AFAD PROCESS SERVICE
ORIGINAL_DATA_CREATOR_CITATION: AFAD PROCESS SERVICE
ORIGINAL_DATA_CREATOR: network: TK
USER1: GuestUser
USER2: 
USER3: 
USER4: 
USER5: 
[...]
-37.838236
-39.955098
-35.095510
-5.485868
7.363203
18.210489
35.919144
20.955107
6.831321
2.519086
13.628379
20.011140
14.656236
16.083879
18.067381
7.543591
-7.971576
0.353695
15.887156
18.197930
11.144552
-4.266253
-20.146212
-29.268847
-22.784247
-4.620626
0.279005
10.055247
27.843986
35.091592
14.740487
2.184960
12.019215
20.536499
14.461469
-3.071246
-18.048526
-26.150563
-7.514635
-6.336073
-11.502432
-9.043472
-3.122928
-4.735954
9.786368
23.959977
9.423790
5.334465
5.031790
20.217799
16.204460
4.676152
-11.277900
-11.304696
6.308742
5.393455
-0.781837
-5.009574
-21.505612
-35.670386
-5.852336
27.123986
46.842939
46.420137
31.402500
24.701618
10.470002
-17.670374
-23.240938
-18.352972
-22.627058
-6.945410
5.312490
-10.379555
-31.657616
-31.321827
-20.574489
-13.180904
-2.408341
8.659964
9.198170
9.002378
13.064910
12.795025
19.801747
9.850211
1.446440
-1.106470
-23.919054
-27.166235
-25.708955
-23.241796
-21.505799
-27.461963
-17.367908
-5.474801
1.645427
-2.261029
-8.117876
5.018425
1.615489
4.412758
13.684848
-5.242085
-14.042808
-10.048379
13.152652
27.340134
19.174093
11.893074
-7.643318
-18.875252
-18.360377
0.185692
7.077649
-1.740415
7.128734
-5.051597
-6.696783
9.519284
17.008402
8.998745
-5.510011
-6.574431
-3.622670
4.538334
5.073072
-11.934999
-14.625060
4.963677
-0.941095
-16.815693
-27.208637
-21.512896
-7.821367
2.378942
3.434226
-18.757865
-23.914766
-13.760805
0.277544
15.629082
24.804694
21.754884
14.985268
2.702468
-12.357102
-2.368039
8.730534
14.763007
18.159013
7.734856
-3.789353
-4.783148
-2.240635
-13.113452
-27.975965
-13.493370
4.677818
-5.357901
-8.670033
-13.633660
-15.488830
-3.323942
21.035784
43.035555
42.381644
38.905561
38.776611
24.579678
8.546803
12.242651
8.950383
-18.301187
-36.973681
-10.293411
12.343879
30.352692
32.255794
-0.195876
-27.595003
-36.609178
-16.651864
-2.840840
10.818529
40.431955
36.113729
5.893375
-9.752007
-43.257695
-43.210398
-3.282848
6.893183
8.889927
11.759397
-0.877160
-21.271144
-23.150592
-5.056966
13.948798
18.620789
17.608077
3.736839
-18.774957
-19.999544
-7.830557
-7.648315
-20.963694
-32.977866
-2.278577
41.863156
52.460732
31.161861
-4.659957
-28.222935
-40.949980
-17.116160
7.061012
13.572728
15.375882
19.156860
11.843681
-14.755236
-22.975192
-19.956589
-18.333150
-23.265249
-16.766776
1.429951
14.925684
30.123360
21.078602
-3.097932
-19.139320
-34.129211
-12.551931
10.636172
16.723821
24.313517
-0.938161
-21.111441
-11.882230
-8.577027
7.196055
21.448172
10.468787
11.049242
20.114817
14.449035
0.025723
-5.824504
4.331349
3.071133
2.048962
26.699387
44.605730
42.436845
19.310861
-15.602603
-36.440202
-40.369674
-28.804785
-10.069856
-13.958655
-27.949388
-18.736888
7.501029
2.873187
-10.678346
-20.840496
-40.468322
-27.286619
9.966314
35.116160
32.306288
26.376608
14.481616
14.067642
14.412260
-13.431112
-26.923370
-33.494037
-32.852731
8.579389
46.497903
22.263355
-17.839804
-33.376411
-25.035375
-7.059668
13.376258
26.539359
11.712473
21.361022
37.522858
18.470438
-3.235158
-7.052386
1.978192
18.497253
27.533506
20.892214
2.280256
1.911684
24.643246
22.569263
27.538889
44.405401
40.735729
6.654949
-26.207545
-50.246297
-61.919324
-44.052707
-19.802072
11.471677
16.698581
0.217992
-13.015096
-3.766337
12.944737
40.239825
56.343333
28.604953
9.143285
-22.095144
-18.115849
5.462586
-18.677060
-23.926341
-10.790355
-12.734122
-7.592032
-7.236380
-11.347144
-16.967839
-14.154806
16.780320
20.268707
-5.115708
-30.246629
-26.623613
-8.451794
17.643926
28.344602
-17.017617
-32.790377
-7.859973
20.771950
35.051813
19.480524
10.127726
20.043011
33.187195
26.109539
3.704627
-6.909336
-21.650778
-61.352887
-69.098645
-49.347532
-36.856632
-6.024606
19.124925
24.574108
10.664090
-8.650022
-22.126199
-10.129361
10.647395
2.874837
1.603901
23.045921
63.323129
83.275398
51.961299
12.589300
-17.414448
-35.324567
-32.905018
-15.900723
1.057855
30.837753
47.395596
17.154749
-16.618623
-28.419342
-28.525591
-30.247709
-2.094713
-6.187191
-7.804316
35.037156
53.683173
31.643683
19.263774
28.868812
-15.943539
-40.482342
-41.579868
-30.060696
-16.713149
-6.620040
13.655087
5.151369
-12.088757
-14.498524
-27.285790
-37.774267
-11.164623
-5.687694
11.816653
9.967789
3.925235
18.871938
-0.709225
-4.874850
7.597132
33.162848
72.858974
72.018095
31.494022
-4.539357
-1.875772
32.456618
18.973819
-4.452952
-39.195844
-91.787062
-75.159540
-11.960339
25.317503
39.632363
49.173712
17.246687
-15.174084
-7.339407
-9.994786
-24.725508
-13.799084
11.123122
9.373259
-10.572066
9.829493
23.956439
13.380311
4.083951
-7.409990
-24.114436
-18.459682
25.084259
33.646944
26.171706
20.397465
7.131587
-6.091096
-26.073941
-32.319227
-29.383546
-53.383202
-46.658980
1.178913
13.473387
30.336116
49.103204
45.145671
33.139382
13.406248
5.134269
2.513572
-28.446770
-36.563311
-5.166598
40.129732
64.217677
13.772647
-16.848441
-33.775798
-40.042839
7.553541
31.181476
14.928528
7.035844
33.422578
63.727122
67.204788
16.459917
-52.889981
-43.942955
5.710071
25.057610
27.590665
3.020016
-37.966589
-61.300350
-17.869914
25.517013
-15.933702
-44.096149
-28.085022
-3.612737
27.122180
19.920930
-26.972028
-38.853462
-12.021852
9.847387
28.034025
16.292265
-28.760653
-29.521447
10.802739
32.488795
8.920457
-10.594495
-2.738377
7.192357
26.284511
23.143267
-8.911766
-33.858872
-33.717933
-19.026931
11.256488
17.504620
-1.267821
-25.008622
-10.122455
39.166094
58.028086
18.623296
-24.313071
-14.248653
-14.531781
23.490148
53.268471
32.945427
20.573084
6.219451
0.900490
12.441102
1.253624
-24.127638
-21.249340
-30.263830
-38.420728
-24.367875
-13.790163
-8.929943
2.193223
8.683183
14.162319
18.836832
11.122288
-8.892401
-20.968055
-0.491772
16.128498
13.855882
11.784107
-2.318239
-13.297625
0.625013
5.239305
2.201477
9.600737
4.440368
9.584350
10.197910
9.183622
26.424070
28.968790
16.085045
5.493152
-2.133741
-31.426507
-40.839841
-30.270011
-21.847315
-2.512072
26.391002
32.658997
24.061322
27.635153
18.893074
15.935015
7.515795
-26.567192
-35.715681
-29.181896
-20.501291
13.347127
26.132824
5.180143
-39.951597
-63.692084
-60.096498
-36.525000
-8.430333
16.387196
41.318545
42.278611
44.299632
49.412400
53.475878
28.391935
4.485606
0.614463
2.075526
13.265850
31.275924
39.468772
15.982726
-3.542000
-2.871372
7.914117
-1.378144
-28.533866
-50.185232
-81.829126
-98.997995
-89.658747
-66.895026
-42.400040
-26.020653
-12.372949
3.767132
21.279677
15.484311
-13.381866
-40.391923
-39.015673
-0.975772
20.515749
40.579000
62.741776
46.052465
26.958742
-7.697445
-48.661350
-73.608141
-52.249357
-4.310255
15.174121
-0.892805
-37.628338
-33.452616
-4.220063
26.055474
26.150380
-3.796931
-23.504841
-8.051149
35.209661
53.212798
50.519899
31.699534
15.283895
27.021879
36.076104
52.308881
58.035521
22.067091
1.235483
2.108213
24.747710
65.751033
82.684388
55.254047
21.737323
17.531656
16.745008
10.239606
21.231296
61.457426
85.305750
85.490514
70.307350
34.502557
1.266442
18.669896
27.193169
2.472442
-4.555397
-21.450909
-12.762107
-0.933319
-16.260257
-30.091137
-44.733892
-70.951938
-63.074065
-28.613667
16.472995
44.687472
19.596593
10.980947
4.225834
-29.695093
-33.037178
6.350909
-1.255175
-44.847979
-46.339303
15.221015
21.494054
-55.118893
-107.615839
-137.283172
-140.739076
-94.251890
-31.012647
-22.200881
-51.210831
-38.746731
30.871171
71.354895
60.428793
1.308523
-31.482716
-25.879039
-18.319611
-25.766158
-78.488221
-87.954209
-59.812248
14.546059
77.814940
74.043744
70.896195
51.655231
23.479857
26.954687
46.696025
70.327428
77.120383
74.507883
83.012240
74.224444
47.426893
26.401380
32.317826
31.537484
7.372930
13.345813
19.429363
20.088010
51.112364
50.818201
-29.480503
-96.243434
-19.974462
65.409898
41.849758
18.291825
26.379997
30.231284
25.018577
-11.216904
-77.530230
-106.176019
-58.626617
-2.016058
-6.160874
-22.938151
-3.843160
22.936427
29.610833
1.780388
-67.346914
-133.757350
-120.133609
-39.283138
13.359795
4.484349
-28.008309
-68.129756
-110.355141
-129.532731
-132.455163
-135.613432
-87.310169
-42.305167
-65.488534
-57.240509
-42.925334
-67.791095
-60.574073
-13.944376
-13.153621
-19.762754
-48.228827
-141.343806
-178.775818
-146.650782
-108.480351
-61.005673
-10.238408
-26.932133
-50.840670
-61.584533
-46.634045
3.181040
30.985954
51.204329
54.920671
66.359129
89.721273
80.888075
51.402351
19.688147
-15.578759
-21.558886
15.401142
45.864593
33.324515
24.925474
22.155328
1.194450
37.925892
87.887903
57.011113
16.943897
0.213597
35.919712
71.117577
82.359608
104.531212
65.675975
69.209764
81.759623
41.097768
-6.651206
-30.454435
35.421589
81.713610
134.581030
177.421557
90.578667
-2.896691
-30.969595
-82.899962
-76.183308
-66.389095
-106.158361
-70.158395
9.970689
113.719822
207.439538
221.480095
68.423192
-78.541968
-117.845864
-124.849111
-104.556328
-71.432134
-68.207015
-82.352241
-23.416724
38.654681
26.683389
-5.469385
-72.669941
-153.427708
-89.835338
39.534366
75.948940
99.211137
34.203748
-101.456012
-98.409663
-70.351570
-88.996318
-93.073031
14.827227
90.501560
27.529691
-12.926279
17.172379
56.355841
104.460472
136.335796
77.480055
6.422856
-23.837224
59.531163
86.380744
33.949379
13.855237
-48.523254
-28.291952
37.582496
25.140789
-43.429708
-59.549918
-42.469323
-18.507494
85.269069
86.275167
-28.767693
-96.160892
-114.070696
-110.082573
-6.359294
153.381793
204.060461
110.594878
-8.259224
-77.531559
-127.416317
-47.856964
24.993305
-24.240691
-54.940603
-57.181374
-2.855101
37.312386
48.250161
95.022370
85.976666
76.104268
47.208769
-28.585998
-63.509867
-66.796776
-31.245784
26.150481
15.972250
-45.661207
-56.995926
-4.939120
10.703432
-49.663815
-53.245206
-59.966582
-80.558569
-99.628645
-120.184374
-127.773117
-88.693070
-37.499531
-7.270027
6.716615
-74.043359
-67.639474
-57.261972
-84.923736
-79.603507
-19.094370
-20.016594
-63.289377
-25.099713
16.388214
25.125571
6.850974
-39.769887
-93.257478
-23.863433
-11.056611
-16.492545
-70.936415
-120.871618
-101.128703
-76.921263
-6.426536
40.154607
58.153961
66.429731
85.058407
62.565213
27.669405
-49.690468
-89.520585
-59.691816
25.556022
132.331321
248.171245
193.077560
50.103673
39.629700
2.426274
-14.827093
1.721921
-6.477226
-16.594920
14.639418
21.549346
54.630029
89.654799
27.460123
-68.513918
-114.240298
-90.871533
7.451752
81.314736
54.733791
40.676216
60.695957
92.231398
58.726655
26.759588
-3.714575
-62.419607
-135.373284
-123.085432
50.522798
149.916496
155.518281
85.381101
-13.737341
-40.152128
-45.636301
6.921188
112.572473
127.463055
17.156186
-96.549208
-127.268352
-68.573402
97.284020
191.740572
142.804527
138.242896
97.836426
-28.223659
-103.211280
-94.693681
-98.735081
-27.315289
54.384576
54.090728
5.499611
-60.581976
20.785257
72.064555
-6.675978
-38.504948
49.400797
122.619326
147.117780
101.770064
61.487504
61.682358
13.530442
-35.336870
-90.432447
-115.786279
-75.821210
7.762837
42.805578
32.860348
-36.758177
-19.065601
64.611771
18.754860
-66.715251
-45.134187
4.354256
-20.133155
-10.296062
126.286877
182.298383
-14.855479
-134.423715
-132.511469
-132.256710
-85.669262
6.378780
6.485037
-48.396457
-30.360529
-31.366935
22.581619
64.504017
-22.098621
-115.509659
-147.437630
-65.198932
61.786225
142.980994
93.443687
-88.633890
-175.192702
-201.189413
-158.707057
-41.733030
59.033762
27.452611
-105.921286
-90.371114
-11.678498
69.286424
42.835063
-72.594660
-101.011862
-67.232178
62.461647
150.515893
77.639148
-40.951370
-97.368018
4.988789
184.101058
189.444934
29.700387
-70.317896
-124.765234
-92.916078
15.894742
46.280000
96.955515
92.602922
63.265385
10.527241
-60.909254
-61.456280
-18.657688
111.096042
165.427045
158.511764
102.357439
-28.061863
-52.552427
27.150383
45.392196
1.772593
16.568902
72.300429
64.496343
16.237543
-30.645011
-27.330980
62.858735
122.731298
117.718800
202.760753
244.082206
51.129917
-68.520295
-90.398356
-43.996299
78.000634
131.621601
155.924259
101.627000
30.745418
-3.481973
-29.719567
-48.488855
-34.438524
-26.449669
-76.334426
-47.024627
57.584306
69.456919
9.451941
-33.473076
-61.119391
-49.292494
-45.084928
17.716061
131.238594
84.213844
0.571476
-33.566687
-100.331826
-84.472669
-119.857494
-80.052593
148.450692
148.898725
0.339137
-70.464884
-10.124429
14.141971
-101.001467
-117.134604
14.924536
7.965114
-86.979186
-112.245997
-66.955658
108.963657
54.016582
-11.339204
10.550845
-115.532887
-118.704713
-121.658989
-96.550446
29.969656
62.808511
132.911646
82.593048
-97.325098
-120.754707
-145.333553
-232.884902
-198.201278
36.678458
204.048964
199.328426
154.127952
75.408543
-8.338817
-142.363475
-129.439996
39.479536
66.125755
29.662949
-68.662850
-147.181734
-114.174829
-11.107671
39.099006
-29.795610
-71.692462
-25.894188
133.779426
170.646443
2.442630
-139.732939
-167.948355
-176.864159
-94.065819
79.835631
291.124956
336.563483
161.547170
21.041068
-29.998601
2.818499
16.418594
48.668169
49.935329
112.552503
199.903334
152.719047
58.888987
-47.872116
-113.128902
-126.154528
-106.110825
27.362081
198.343303
152.862220
41.931704
-36.138835
-52.290575
8.210994
6.645261
1.359091
-6.501118
-41.803336
-74.997833
-25.998406
36.151822
-7.831628
-25.654727
-30.022138
-19.949208
139.111795
163.515662
9.362806
-77.416710
-38.991838
-20.242406
-119.655645
-117.422748
-87.675640
-59.281761
44.282926
216.206869
172.716850
-78.691395
-207.767556
-122.133486
-20.849300
-48.849372
-80.774506
-38.390521
-7.789288
-144.562341
-97.704058
4.813863
42.838945
118.402610
33.095189
-63.716581
-3.875547
69.905462
153.593239
21.588021
-119.440203
6.679164
-1.942158
3.375549
9.316587
-70.320320
-74.083633
45.887238
73.627832
4.732270
112.661220
236.669081
135.712806
-66.645885
-124.551968
-168.727746
-253.639161
-120.398940
41.980820
60.184168
5.382127
-11.564147
100.770369
72.315016
-3.133246
11.146617
-6.751521
9.068855
50.266713
91.271929
68.554248
93.685492
236.253606
198.622015
-42.578358
-200.167889
-177.063969
-36.319499
136.503655
197.828450
239.231247
131.991217
-86.725418
-82.358314
-9.294278
15.710219
44.585232
20.471441
8.927053
23.611435
-80.363755
-61.438705
44.431708
121.123801
188.865089
18.718451
-132.122585
-164.139468
-139.740961
-27.638500
-14.582283
-12.545497
28.152624
7.383128
-20.099551
-137.775408
-169.620458
13.468266
21.207725
-52.447475
-29.426791
-8.585085
13.578006
-19.340926
-15.331993
31.106323
-81.555458
-122.407119
-19.023409
-6.039078
-0.540709
67.957909
114.285557
44.749638
-42.448585
-26.165361
-28.328256
-93.879208
-61.223221
44.232583
137.884197
186.552567
93.582937
-63.236022
-52.413329
11.727017
18.858911
18.172841
-32.781385
-67.608144
-9.332847
0.156480
-48.592914
-39.364648
-76.657617
-111.648643
-24.942582
64.918914
19.803569
-75.624073
-63.685563
44.813433
-3.117779
-48.393293
-7.520184
4.039660
-11.965469
-48.506467
-17.396354
41.367960
46.355242
-91.200049
-72.743522
65.900792
75.701942
70.392755
23.447143
-30.840342
16.093927
8.538920
-33.847579
25.197029
48.403735
-13.360253
-113.652840
-155.520370
-20.121034
36.222158
-25.503364
-67.598850
-115.089915
-76.376237
-107.783977
-110.752126
-47.446041
-29.586991
-62.611230
-101.206036
-129.900064
-114.126351
-5.740544
-20.386768
-95.512171
-142.839916
-101.016519
62.876008
193.400310
154.298200
65.813904
53.627268
18.993782
-9.370767
49.359181
55.817612
84.409178
132.407239
76.415920
78.400998
83.949498
10.880740
-22.867723
39.827012
5.690741
33.190768
101.678351
60.334520
46.610839
25.113651
5.463438
-76.110303
-193.525730
-112.334430
22.794702
16.597340
22.113680
-16.028367
-37.220354
-40.178098
-9.464306
93.256662
119.469355
64.546242
40.707385
45.342171
78.676980
95.558941
22.465906
-66.340618
-107.762641
-5.202472
40.957756
27.152730
-23.339278
-144.605358
-171.058926
-51.315065
73.567099
117.813193
61.318354
-99.370806
-166.877195
-142.782629
-58.099477
83.783194
134.634642
20.889521
-35.654819
49.302321
174.249750
172.357060
35.879750
3.648154
-18.403002
-102.923140
-45.470438
48.231937
34.794540
39.637103
96.843248
108.962104
8.959900
-65.365609
-97.778498
-101.301244
-40.329891
32.707346
54.356197
34.722380
-34.441811
-49.475842
-2.346093
-42.016988
-78.261613
-46.607938
27.847795
113.271566
117.998101
32.379173
-37.000046
-94.611648
-71.470523
36.101202
156.259671
140.143244
-5.052816
-42.555768
-65.405557
-157.965939
-53.427947
156.149976
132.347693
1.279206
-54.003024
-106.548839
-91.403502
9.340274
46.314490
2.296673
-74.113227
-39.793133
27.927346
28.894033
-6.791265
-49.937616
-95.846865
-43.147810
37.344490
30.687117
32.411449
-5.436747
-46.955249
-52.854030
-66.081128
-41.358501
30.737591
-18.941912
-115.480640
-49.012183
140.613791
180.238346
34.476968
-83.646603
-110.295652
-114.504472
-160.769370
-116.571514
45.760006
130.866594
90.830591
57.385754
-4.003984
-70.556931
-112.012691
-21.604164
164.371682
162.230227
46.964456
-32.027995
47.781068
120.883886
22.750099
-19.915433
-19.901557
-24.994138
43.873686
93.094762
72.579076
15.822544
8.046203
-5.628293
-72.485181
-14.811775
73.935166
3.480804
-52.197431
12.447066
29.112422
16.955424
43.051774
66.526162
78.728255
30.994415
-65.426079
-89.399250
-45.864137
27.496588
86.453230
83.104525
35.852765
-75.256205
-83.771589
27.712901
75.435398
109.631582
80.226257
-42.622270
-130.898789
-130.200731
-54.867543
11.895397
74.195387
68.141167
-5.380664
-19.852532
-43.628331
-74.332341
-60.429882
-50.353483
-7.102763
19.005884
56.776526
147.426881
105.151995
17.471692
-49.549148
-102.202794
-59.501627
-4.042511
40.440052
79.242012
116.448282
115.769149
30.636399
-36.387909
-79.494218
-112.207265
-43.920207
19.231701
-23.483647
-49.344783
-10.200102
-32.835807
-102.028058
-147.236730
-143.755595
-67.176061
9.165744
74.264261
86.365776
73.678142
103.497137
71.337742
0.332881
-37.343166
-20.004978
-1.060696
-4.423274
75.390204
101.653343
42.422090
16.399526
-8.217786
-22.119607
-84.131098
-131.365201
-25.872823
72.527393
80.796542
51.806770
-64.283803
-83.340952
-8.801352
-8.067350
38.541853
56.911675
12.217243
-24.106835
-20.176410
-26.728790
-74.334306
-60.433739
-34.597819
-42.316462
-84.916413
-59.059369
12.623691
78.038760
128.214539
51.897650
2.725766
14.413619
-5.898705
-27.421432
4.603656
66.118572
23.346787
-18.620690
12.540184
-28.269858
-52.292845
-26.901171
-40.858798
-37.403202
-32.363897
-32.208770
-23.073516
-3.220564
14.449626
22.891870
58.851794
