EVENT_NAME: 202302060117
EVENT_ID: 13194
EVENT_DATE_YYYYMMDD: 2023/02/06
EVENT_TIME_HHMMSS: 01:17:32.00000
EVENT_LATITUDE_DEGREE: 37.288
EVENT_LONGITUDE_DEGREE: 37.043
EVENT_DEPTH_KM: 8.6
HYPOCENTER_REFERENCE: AFAD
MAGNITUDE_W: 7.7
MAGNITUDE_W_REFERENCE: AFAD
MAGNITUDE_L: 
MAGNITUDE_L_REFERENCE: 
FOCAL_MECHANISM: 
NETWORK: TK
STATION_CODE: 6304
STATION_NAME: 
STATION_LATITUDE_DEGREE: 37.36509
STATION_LONGITUDE_DEGREE: 38.51316
STATION_ELEVATION_M: 617.0
LOCATION: Kahramanmaras_Pazarck_Turkiye
SENSOR_DEPTH_M: 
VS30_M/S: 376
SITE_CLASSIFICATION_EC8: B
MORPHOLOGIC_CLASSIFICATION: 
EPICENTRAL_DISTANCE_KM: 130.27
EARTHQUAKE_BACKAZIMUTH_DEGREE: 
DATE_TIME_FIRST_SAMPLE_YYYYMMDD_HHMMSS: 2023/02/06 01:17:34.4945500
DATE_TIME_FIRST_SAMPLE_PRECISION: millisecond
SAMPLING_INTERVAL_S: 0.01
NDATA: 12501
DURATION_S: 
STREAM: HNE
UNITS: cm/s^2
INSTRUMENT: sensor = CMG-5T/GURALP | digitizer = 
INSTRUMENT_ANALOG/DIGITAL: 
INSTRUMENTAL_FREQUENCY_HZ: 
INSTRUMENTAL_DAMPING: 
FULL_SCALE_G: 
N_BIT_DIGITAL_CONVERTER: 
PGA_CM/S^2: 238.228
TIME_PGA_S: 
BASELINE_CORRECTION: BASELINE REMOVED
FILTER_TYPE: BUTTERWORTH
FILTER_ORDER: 
LOW_CUT_FREQUENCY_HZ: 
HIGH_CUT_FREQUENCY_HZ: 
LATE/NORMAL_TRIGGERED: 
DATABASE_VERSION: 
HEADER_FORMAT: DYNA 1.2
DATA_TYPE: Acceleration
PROCESSING: Automatic Paolucci et al., 2011
DATA_TIMESTAMP_YYYYMMDD_HHMMSS: 
DATA_LICENSE: U (unknown license)
DATA_CITATION: Turkish Accelerometric Archive v 1.0 - Disaster And Emergency Management Presidency, Earthquake Department
DATA_CREATOR: AFAD
ORIGINAL_DATA_MEDIATOR_CITATION: : AFAD - Disaster And Emergency Management Presidency
ORIGINAL_DATA_MEDIATOR: AFAD PROCESS SERVICE
ORIGINAL_DATA_CREATOR_CITATION: AFAD PROCESS SERVICE
ORIGINAL_DATA_CREATOR: network: TK
USER1: GuestUser
USER2: 
USER3: 
USER4: 
USER5: 
[...]
41.313325
26.294717
4.483115
-15.059570
-22.154563
-14.317316
-2.647672
9.464749
19.096782
21.393546
10.127354
-11.453582
-26.222966
-30.576191
-27.072346
-28.284854
-25.193074
-3.252517
20.963356
28.958007
16.805939
0.454519
-6.468994
-5.737310
-0.411484
9.483208
17.903681
18.697110
15.940638
8.019915
-12.014817
-32.448496
-40.419767
-40.780632
-37.523770
-28.733143
-6.252870
27.639814
55.189319
56.539740
34.069090
17.199709
15.421891
7.717758
-7.323244
-12.354392
-10.624538
-15.703036
-21.005162
-21.316118
-14.796008
-9.857613
-4.742939
-0.434160
3.741851
17.401436
27.399145
25.268768
14.548051
-2.018360
-19.887191
-35.217086
-36.913643
-25.849620
-18.798752
-24.797997
-26.521748
-8.452618
9.133422
5.502911
-10.881462
-19.850583
-16.154782
-1.448398
13.852089
16.291540
6.491570
-4.393270
-16.296755
-18.397378
-5.689894
7.826684
11.570154
8.732421
4.316810
3.141733
1.996730
-2.756403
-9.382064
-12.106224
-14.114389
-17.650202
-14.017746
-6.071405
7.835484
20.798589
20.722779
9.413717
-0.427203
-0.912519
3.277888
-0.898737
-5.871979
0.143927
6.556222
8.834110
4.515117
-6.549201
-13.438801
-15.767212
-18.599507
-24.029604
-27.534704
-16.428450
-0.601045
2.760113
1.025166
6.701310
21.494394
27.644350
19.745382
11.757795
15.830149
29.320813
32.826898
16.190743
-5.517523
-13.204060
-14.373698
-22.151093
-30.845718
-35.974124
-35.194131
-20.739529
-0.845860
17.605261
27.331353
18.590339
6.765876
12.131692
25.793197
28.351980
14.750966
-4.855065
-17.140222
-19.513103
-15.277906
-9.669266
-10.381410
-15.410638
-21.498823
-24.699353
-26.232428
-24.841696
-20.572907
-20.319833
-31.634973
-38.927041
-29.431616
-13.763854
-11.189714
-14.294587
-6.972101
17.118680
46.880156
57.133166
48.274099
31.603073
9.824743
-16.684657
-21.354289
-0.015193
22.371662
21.627206
8.360515
5.269079
17.394618
19.177900
5.849783
-7.642776
-16.092017
-19.470426
-26.520949
-32.342316
-27.487422
-20.461508
-17.246237
-19.531778
-21.034459
-11.605899
-2.035292
-0.657677
-0.226084
5.165647
7.535993
5.206942
2.795350
-2.332416
-6.466491
-3.176357
7.043061
25.096834
40.452988
48.726934
45.505289
32.020088
12.897146
-7.238362
-16.930197
-14.294631
-8.172829
-11.809419
-21.859251
-26.688526
-26.455288
-22.355100
-8.808769
9.539976
12.962560
9.204079
9.772600
14.449615
19.218448
19.545106
20.702291
22.665052
23.008665
20.961149
19.326338
19.058892
14.516271
-1.676466
-17.238308
-16.393370
-1.965642
11.378176
8.119419
-10.963852
-30.668419
-40.274514
-35.697956
-31.807640
-34.135091
-35.136128
-25.029644
0.302132
18.224415
14.850485
-5.043159
-23.570398
-24.913116
-5.716887
16.499447
31.601900
39.089147
33.814535
22.668635
15.877892
5.618188
-16.399446
-34.358816
-30.205521
-14.572950
-6.165275
-8.583905
-12.193941
-10.615092
-6.211294
-0.194108
2.056265
-1.521778
-8.713388
-15.675292
-16.561155
-12.055301
-1.216826
12.842987
19.543536
18.485552
8.096918
-6.598564
-12.678431
-11.986098
-8.314931
-3.394133
-0.286676
-6.185465
-17.198915
-20.802552
-22.739693
-21.700560
-7.965473
13.702188
36.639315
51.673304
50.923089
39.627784
30.436314
24.184327
16.369180
5.873690
-8.516582
-19.331997
-21.107256
-14.489888
-12.851213
-16.696715
-19.390162
-17.180419
-12.350799
-7.378172
-1.025384
8.397418
20.417701
28.587671
28.357336
27.751408
31.210464
35.445660
32.717021
27.937015
38.096287
54.708152
54.455103
40.400113
28.101199
13.643103
-1.301921
-14.338265
-22.398796
-28.755079
-32.463972
-34.353124
-35.818694
-36.954740
-34.127539
-27.232475
-27.115050
-34.116305
-42.204029
-42.944966
-39.082803
-38.648651
-35.362036
-21.120824
-8.522755
-8.968399
-13.519658
-12.083177
-6.359043
-0.221565
4.575102
6.061492
4.182257
-9.229040
-30.163405
-44.551757
-48.505074
-35.892927
-13.339391
4.144593
14.399203
14.947569
10.038632
4.751543
3.622215
1.697231
-4.855807
-6.122382
-9.313315
-16.236827
-19.976433
-16.124188
0.512631
18.542409
10.221139
-20.923673
-47.440431
-51.884195
-35.790610
-15.784967
-5.150605
6.475529
21.958054
33.939306
44.376594
51.911510
45.840281
26.836352
9.088454
11.861587
30.901373
50.497830
62.306642
69.703030
64.724989
42.741587
22.759323
21.932646
26.286215
13.852292
-17.337629
-40.327200
-35.576602
-9.284727
17.959568
22.290743
10.413811
-7.870603
-22.492822
-26.651851
-26.473320
-35.472514
-45.089486
-36.590632
-4.193924
29.542956
35.865671
24.940521
15.215734
13.416801
19.853410
22.427230
20.954621
21.721497
23.853178
14.560292
-4.203053
-23.215620
-46.913188
-70.929082
-82.671644
-77.436038
-57.599316
-23.767418
3.162389
10.680670
4.553774
1.032037
9.381166
11.824776
10.491335
9.513653
10.017869
10.968063
16.227983
20.659294
15.154335
5.525526
-5.129926
-16.652699
-21.780465
-9.758583
9.500992
12.808722
1.347056
-3.066955
4.543144
17.417630
37.210202
57.928641
67.088463
54.818983
19.661975
-30.845736
-81.053675
-119.147286
-144.170948
-154.699390
-142.546658
-100.574876
-48.982590
-19.994057
-4.251751
16.848360
36.635493
52.029079
55.875245
54.507573
51.872352
56.585519
68.699540
82.073111
92.236862
89.931805
71.631074
44.857735
17.742395
-7.017968
-21.551247
-22.203244
-13.181630
-1.953165
7.960403
10.364342
4.210572
-7.291086
-18.540641
-30.013186
-33.863166
-20.661076
-2.327047
6.679850
10.094116
15.410023
21.263727
20.598933
13.728208
3.072116
-6.635076
-19.300945
-37.248797
-56.294317
-57.247045
-38.866627
-18.478992
-8.623331
-7.351931
2.610906
27.370334
40.117489
25.757290
0.156481
-18.786662
-34.950286
-50.772228
-64.765791
-68.183871
-46.114064
-5.537480
39.062176
73.887765
93.440712
96.348215
85.659810
63.091262
40.239899
27.205795
23.585201
14.360459
-1.638402
-16.502805
-25.918543
-32.819021
-34.526775
-18.126062
7.336564
22.348798
29.569866
44.246177
58.426283
50.291849
27.234774
-2.779418
-31.238769
-51.657092
-57.843174
-49.702957
-54.573823
-74.677978
-85.731419
-70.499716
-37.301593
5.348113
41.930417
59.393286
61.523368
65.657787
77.275283
81.830406
64.997177
30.390123
-7.876568
-41.070188
-62.570502
-61.133061
-37.651418
-2.911570
34.635951
64.047107
74.840793
69.582177
60.636091
44.316983
28.601576
3.172247
-22.683543
-43.711966
-62.777001
-80.747888
-99.784769
-112.083043
-102.327199
-74.013390
-36.538812
-0.426160
29.449530
59.478463
88.411010
107.429680
109.952311
113.376495
94.974027
44.947806
-7.777314
-37.579075
-42.191440
-46.329994
-54.079557
-63.085469
-56.151054
-34.295918
-4.966982
33.273819
74.087468
103.442637
108.486607
97.575854
72.746067
31.100634
-8.240689
-23.810529
-25.443741
-26.681843
-21.458714
-12.083262
-21.232821
-43.034506
-64.370058
-74.164269
-70.591639
-56.683471
-33.574863
-2.933591
15.765474
14.933998
2.423932
-3.401593
5.501328
10.737894
-9.951087
-51.510779
-88.427701
-95.543809
-71.012489
-23.830707
17.991989
42.878748
54.892952
41.012643
9.348271
-36.161552
-80.116212
-108.068479
-118.265158
-109.424942
-76.935135
-41.940306
-21.296410
-4.570651
17.015748
34.132137
31.415655
22.113811
31.972991
57.372592
83.029093
100.979530
111.499358
104.233205
79.682394
48.837033
17.466033
-7.655846
-30.522566
-34.435572
-5.495347
35.935440
55.677144
47.558387
19.400087
-15.145222
-34.297917
-30.556046
-5.514123
17.637995
20.334666
6.883377
-11.176129
-31.921737
-56.785436
-77.370761
-86.645732
-87.874236
-77.859251
-53.472537
-25.579752
6.299636
36.763349
70.240769
98.646396
114.394460
108.673551
87.777578
60.850994
37.210053
19.054249
15.059662
14.585223
20.089887
41.759787
53.761514
60.221158
59.189089
64.218342
55.548352
33.993331
11.403668
-0.367048
-10.387127
-25.066292
-33.956711
-27.076044
-21.712148
-26.663635
-36.859033
-53.995552
-72.651722
-91.614060
-107.460317
-105.880829
-92.966991
-81.085237
-75.587291
-59.845945
-33.067143
3.462693
47.159838
78.729856
99.228826
98.861563
78.401009
49.600297
27.471328
17.452529
6.270478
-13.138798
-44.345036
-78.156753
-98.827498
-88.023895
-45.963813
1.634513
39.863477
73.135824
105.277551
123.283335
111.811110
79.937506
46.796994
14.666809
-19.203455
-37.137230
-42.902609
-45.218863
-25.625925
3.886328
34.462655
50.856331
39.407141
27.199086
37.626456
40.211153
23.798307
-3.168908
-17.115122
-17.329780
-8.208989
-5.962134
-16.476180
-29.242506
-31.217398
-20.254152
-14.484589
-25.333597
-43.182592
-52.121960
-55.530762
-56.011279
-44.975089
-12.823445
26.545417
60.842487
90.098799
98.976446
71.308593
21.074739
-17.240260
-36.423668
-38.097510
-26.765708
-9.045619
13.067059
20.776015
15.423981
4.492752
-10.901769
-21.956810
-27.557427
-23.673829
-7.216489
12.562007
27.521453
28.011592
4.422159
-38.143061
-89.665898
-123.480175
-131.380742
-103.648559
-47.549792
-5.222252
12.890068
24.266019
51.350991
80.944505
78.805810
46.524940
18.171165
3.455528
-5.541107
-12.139574
-5.827096
-5.124205
-18.398895
-38.835454
-60.556197
-73.919505
-74.956054
-56.088389
-19.926148
24.764048
57.136121
59.194540
39.134534
31.933965
50.816987
73.223037
76.463263
63.597759
51.496240
48.453114
47.203494
29.866381
4.991164
-4.714427
14.635367
44.708771
64.307787
73.639090
76.171319
77.959079
74.865405
64.399988
61.994475
58.426349
35.160042
-7.229859
-50.827801
-62.273792
-55.579002
-54.875152
-67.887501
-81.588972
-84.460618
-81.314130
-68.580092
-43.871532
-21.951450
-10.761696
-4.955661
14.140751
46.094362
73.965392
92.727482
114.667719
124.511864
104.404189
50.401923
-17.724768
-72.091749
-111.323018
-133.098149
-127.138869
-90.639746
-38.804637
16.021784
62.767826
91.244477
89.219996
58.864123
-0.339824
-59.794274
-98.198853
-104.731415
-78.745710
-31.923526
-4.607247
-8.928479
-19.798602
-17.633648
-2.415702
0.558985
-5.477692
-13.831275
-9.742284
7.337313
25.162658
27.171808
16.265853
2.090251
-19.679760
-39.676421
-48.384802
-55.377099
-71.230394
-87.915497
-90.976219
-70.909470
-48.097114
-36.110103
-42.420637
-48.065404
-32.745081
-13.955798
-2.606401
0.780032
15.921515
42.951780
68.698820
71.390693
59.320526
25.495052
-22.655442
-57.655686
-62.403059
-47.191512
-41.785065
-45.315759
-54.601287
-54.262473
-34.953949
5.662625
66.707773
127.002053
163.969548
169.137970
151.433901
118.318984
98.131327
92.507035
66.339957
23.764498
0.613685
27.207890
73.189628
102.791460
94.601040
63.373047
18.993525
-7.111808
-13.933264
-9.437968
-6.581014
-15.940125
-18.688279
-8.179648
10.660184
25.696732
11.311578
-40.764411
-101.273657
-149.602670
-174.748224
-181.196646
-164.646206
-129.189083
-88.645132
-57.596913
-36.612936
-12.985087
20.943108
47.798053
62.936338
65.191191
59.614568
58.244336
65.621529
66.218843
48.890048
21.975622
-5.998081
-31.339749
-49.549941
-53.994025
-41.061632
-12.791333
13.903648
30.308521
35.707930
26.504942
8.333461
-15.060496
-39.657377
-55.720223
-50.341610
-31.221523
-20.427838
-23.924619
-14.948755
4.430152
18.814051
17.495647
3.777220
-2.195471
1.628940
6.432965
-9.021062
-44.458644
-81.355411
-94.892440
-79.029522
-47.282264
-18.951179
9.365509
44.739131
73.114686
83.935245
76.330610
49.236065
13.932211
-1.764960
10.369857
36.248707
41.053052
11.615687
-34.697790
-74.509405
-74.348470
-23.685250
44.014364
79.021351
87.621942
87.407604
82.603923
83.451420
78.727081
47.665450
3.832041
-37.739488
-80.925366
-128.003146
-160.882599
-162.735919
-139.705053
-101.191354
-72.134037
-59.036562
-42.404862
-11.674969
24.255965
45.344238
56.684998
67.048702
76.612911
73.941219
45.900332
-4.727991
-66.405928
-122.489953
-159.104865
-164.802740
-131.698035
-72.566366
-14.445665
22.868630
46.868553
62.392669
64.663518
51.179277
26.323576
3.985056
-5.922729
11.002663
47.025096
82.341452
106.017609
119.256811
130.738338
137.460322
133.378715
125.010415
131.287381
148.684026
156.472964
154.533583
151.540685
144.836642
129.107158
99.033460
67.497378
47.659081
45.890541
46.586073
25.785758
-18.599203
-67.345400
-90.891962
-83.480218
-57.506989
-40.755957
-32.420585
-48.117436
-70.987994
-85.842799
-102.689465
-116.712782
-112.108070
-70.570748
-11.146027
43.086930
78.914208
99.877390
113.621436
119.840176
126.406355
130.228527
118.423899
84.951624
40.621050
-2.509480
-38.866211
-73.862616
-105.394219
-123.133799
-123.633511
-101.033906
-71.207486
-49.418253
-45.078121
-37.466742
-14.179935
4.429870
1.080894
-33.036034
-89.469419
-133.457032
-145.369475
-131.736123
-103.170852
-68.522823
-42.366277
-32.136941
-29.456907
-27.826550
-26.693678
-17.592403
0.470648
17.338454
31.008917
41.520427
45.360515
50.826468
63.143322
70.996565
64.700748
51.870757
44.136231
45.477055
40.805823
25.273414
9.422999
-2.313805
-24.356074
-63.423860
-65.626540
-53.564027
-35.826661
-47.667121
-75.525010
-107.239611
-121.852871
-105.905493
-61.230654
-5.289930
39.379470
84.265141
126.917406
158.666584
164.202281
142.977743
100.306947
50.499875
16.723030
14.784289
15.075434
24.314918
9.049647
-31.951774
-74.880111
-86.845661
-65.687004
-27.087565
12.972018
38.671389
61.972593
88.491935
115.829649
120.090120
89.945078
27.543787
-47.400533
-114.206888
-180.488885
-221.019694
-238.228197
-225.379945
-161.201119
-43.788158
73.402133
148.676323
153.217689
93.762599
17.486426
-24.256584
-33.739187
-22.500164
-13.749208
-19.080767
-9.913267
5.506553
5.545276
-19.962114
-47.807526
-75.343570
-93.562720
-88.560980
-50.014968
-7.938250
34.755925
78.080356
111.241048
134.921364
158.627275
164.483538
149.055425
135.801211
129.603932
109.148817
71.862060
35.068950
9.817500
1.035856
-10.197064
-20.226741
-23.756155
-25.488543
-27.431443
-22.695562
-8.452431
-1.811709
-14.383520
-51.195186
-93.924849
-129.373629
-154.974438
-163.443515
-147.228358
-116.825431
-87.506093
-61.143195
-41.251446
-42.486989
-61.801566
-76.062588
-64.359032
-26.817909
21.290699
68.608130
113.981048
141.885351
147.058252
141.152745
118.401199
73.672317
9.384421
-46.345766
-76.667407
-99.094868
-117.278186
-114.181927
-95.521894
-76.369174
-66.832799
-59.833119
-45.657813
-13.976780
38.222086
76.292367
86.068367
74.785539
50.739252
18.804862
-1.013600
3.156972
25.826641
47.964593
66.233356
83.838592
94.205496
84.728332
42.454885
-14.958435
-69.658140
-101.865747
-103.751700
-87.680190
-81.251579
-92.082671
-88.957619
-53.551364
-0.644501
31.172180
10.050979
-30.661548
-51.666296
-42.128961
-29.907445
-25.582989
-30.187355
-31.482725
-18.056366
1.587761
27.746546
48.544007
58.607621
71.666384
79.554179
60.611356
14.554140
-27.775295
-43.058481
-41.000703
-26.277363
-6.269160
10.113638
37.394405
82.047809
120.607257
136.474654
136.112829
117.752912
77.492760
28.272113
-20.186790
-59.936979
-86.017997
-89.606598
-64.986978
-21.777721
10.993301
33.935867
59.828474
87.057093
81.995232
36.549395
-22.853226
-63.153689
-79.945648
-89.563899
-82.292602
-60.215756
-39.297363
-30.532330
-16.237691
-4.444556
-8.243668
-26.784344
-54.850185
-77.557901
-76.848612
-54.604125
-14.666434
21.047910
35.121799
32.058837
23.475867
22.857462
32.053116
46.990487
58.669089
66.544406
58.492194
32.630645
-3.241718
-34.913768
-62.532352
-79.115079
-79.484902
-58.184837
-27.190365
-11.326808
-1.464108
3.380548
-6.146524
-19.294523
-24.138194
-24.295266
-19.678397
0.464494
34.175460
66.334463
87.834162
101.199095
113.738298
118.441547
87.020639
21.922050
-40.470922
-72.227113
-85.580824
-96.633945
-93.945272
-73.121258
-29.254872
34.522766
97.127234
142.625884
154.636249
129.111902
71.949405
0.388945
-51.242027
-65.769867
-48.991961
-14.463264
14.288844
29.272604
39.672461
43.312274
31.255865
-3.287524
-41.030816
-64.201465
-64.983032
-48.602474
-51.603690
-69.838836
-73.739365
-60.864879
-46.145378
-32.806999
-18.924425
-3.071745
7.656995
9.534655
4.580929
3.022900
3.551111
-0.327343
-23.600049
-64.746716
-103.371084
-114.482432
-82.370458
-25.209216
30.532834
68.785153
102.520752
120.573565
107.574653
67.500058
19.656374
-20.130927
-53.642553
-66.249876
-52.741296
-29.673318
-11.354327
1.006678
6.022494
-4.102520
-25.880850
-51.689292
-67.344552
-72.697546
-72.773676
-71.397341
-63.765167
-44.263088
-14.906639
8.857178
18.787382
9.352448
-21.871065
-45.794501
-49.442288
-35.479093
-10.099008
24.709625
64.299555
95.676659
105.607183
93.885096
66.646584
32.060965
2.446681
-20.929681
-34.831106
-36.188221
-34.323678
-43.010944
-53.617768
-64.774225
-80.137393
-89.841704
-87.075609
-65.990535
-32.996524
-6.557164
3.971303
0.826120
-10.835821
-20.735927
-23.571101
-15.392493
-5.890990
-5.580649
-10.256040
-15.356612
-8.828184
14.723202
43.329424
66.872492
93.017840
112.792817
115.971297
102.441946
79.078062
47.829914
15.125781
-17.001844
-31.525206
-22.239333
-1.010611
26.323903
53.042879
78.811355
98.490353
108.028968
98.245314
74.880150
39.861351
6.443463
-22.346372
-52.123179
-83.551445
-112.180037
-108.717142
-69.468253
-22.488664
12.385553
40.654252
55.992811
51.520893
42.476270
30.655006
14.784435
-4.096963
-18.409493
-16.722829
-5.627133
-2.855599
-14.582165
-39.076669
-53.706886
-46.989701
-15.899892
19.944342
36.753282
31.651110
-1.555947
-49.071067
-89.661703
-113.896746
-107.622979
-71.614623
-19.338975
25.467994
56.674896
73.904859
71.358898
61.420080
50.647214
39.140758
32.007694
15.652434
-16.507504
-52.477124
-59.304978
-37.669311
-4.366571
20.557619
38.061118
62.549249
77.495897
78.385305
65.784380
42.872872
5.153575
-30.405580
-37.269906
-17.420707
11.789855
24.699853
26.429067
33.749633
45.299624
58.347830
67.467022
68.582297
55.961537
37.626254
5.050092
-36.847762
-72.010528
-86.993304
-89.954529
-69.024619
-25.892145
22.239178
54.657002
62.312530
47.336793
20.279680
-0.227583
-10.252461
1.325684
24.617290
41.916676
44.446986
35.987187
20.843489
-1.143113
-25.842050
-45.956123
-55.383059
-63.615390
-68.637260
-60.704356
-43.015619
-23.260798
-7.125943
-6.777851
-22.882288
-38.105968
-36.620538
-24.636727
-10.522526
-2.164759
-4.683207
-16.129517
-26.047539
-22.254481
-11.881499
-15.925354
-32.841764
-34.246228
-15.155575
12.810474
42.739591
73.465324
93.957895
89.889725
54.317453
5.452884
-27.427528
-34.226269
-21.140632
-15.191910
-31.366731
-58.456477
-66.237712
-55.950469
-44.549884
-52.318641
-68.694376
-60.295019
-42.920769
-26.726728
-14.764992
1.890063
8.912458
3.461246
-11.922077
-18.222373
-5.882804
23.219304
51.146002
65.191098
62.082707
33.892094
3.964922
-18.592109
-41.432914
-64.295794
-84.299493
-96.836112
-97.199536
-77.704815
-33.148988
16.466793
45.926258
59.518979
62.237405
48.064362
17.607072
-14.130563
-35.589287
-38.077021
-27.635254
-20.668207
-19.456954
-7.431872
18.716676
47.632266
72.091283
92.586413
102.565887
105.365254
106.648491
105.696402
94.188986
73.623497
