EVENT_NAME: 202302060117
EVENT_ID: 13194
EVENT_DATE_YYYYMMDD: 2023/02/06
EVENT_TIME_HHMMSS: 01:17:32.00000
EVENT_LATITUDE_DEGREE: 37.288
EVENT_LONGITUDE_DEGREE: 37.043
EVENT_DEPTH_KM: 8.6
HYPOCENTER_REFERENCE: AFAD
MAGNITUDE_W: 7.7
MAGNITUDE_W_REFERENCE: AFAD
MAGNITUDE_L: 
MAGNITUDE_L_REFERENCE: 
FOCAL_MECHANISM: 
NETWORK: TK
STATION_CODE: 5816
STATION_NAME: 
STATION_LATITUDE_DEGREE: 39.86868
STATION_LONGITUDE_DEGREE: 38.11835
STATION_ELEVATION_M: 1269.0
LOCATION: Kahramanmaras_Pazarck_Turkiye
SENSOR_DEPTH_M: 
VS30_M/S: None
SITE_CLASSIFICATION_EC8: unknown
MORPHOLOGIC_CLASSIFICATION: 
EPICENTRAL_DISTANCE_KM: 301.79
EARTHQUAKE_BACKAZIMUTH_DEGREE: 
DATE_TIME_FIRST_SAMPLE_YYYYMMDD_HHMMSS: 2023/02/06 01:18:01.5143650
DATE_TIME_FIRST_SAMPLE_PRECISION: millisecond
SAMPLING_INTERVAL_S: 0.01
NDATA: 18251
DURATION_S: 
STREAM: HNN
UNITS: cm/s^2
INSTRUMENT: sensor = ACEBOX/SARA | digitizer = 
INSTRUMENT_ANALOG/DIGITAL: 
INSTRUMENTAL_FREQUENCY_HZ: 
INSTRUMENTAL_DAMPING: 
FULL_SCALE_G: 
N_BIT_DIGITAL_CONVERTER: 
PGA_CM/S^2: 9.275
TIME_PGA_S: 
BASELINE_CORRECTION: BASELINE REMOVED
FILTER_TYPE: BUTTERWORTH
FILTER_ORDER: 
LOW_CUT_FREQUENCY_HZ: 
HIGH_CUT_FREQUENCY_HZ: 
LATE/NORMAL_TRIGGERED: 
DATABASE_VERSION: 
HEADER_FORMAT: DYNA 1.2
DATA_TYPE: Acceleration
PROCESSING: Automatic Paolucci et al., 2011
DATA_TIMESTAMP_YYYYMMDD_HHMMSS: 
DATA_LICENSE: U (unknown license)
DATA_CITATION: Turkish Accelerometric Archive v 1.0 - Disaster And Emergency Management Presidency, Earthquake Department
DATA_CREATOR: AFAD
ORIGINAL_DATA_MEDIATOR_CITATION: : AFAD - Disaster And Emergency Management Presidency
ORIGINAL_DATA_MEDIATOR: AFAD PROCESS SERVICE
ORIGINAL_DATA_CREATOR_CITATION: AFAD PROCESS SERVICE
ORIGINAL_DATA_CREATOR: network: TK
USER1: GuestUser
USER2: 
USER3: 
USER4: 
USER5: 
[...]
-2.700526
-2.628517
-2.517229
-2.407812
-2.309384
-2.183834
-2.016669
-1.775624
-1.456024
-1.137124
-0.849554
-0.576245
-0.309248
-0.028925
0.244150
0.481454
0.680416
0.843606
0.990898
1.143568
1.338087
1.608123
1.924451
2.216931
2.420802
2.508476
2.493747
2.386434
2.202202
2.011891
1.898733
1.896395
1.995291
2.150533
2.323309
2.518296
2.736429
2.977473
3.214310
3.359966
3.354822
3.182514
2.838832
2.345753
1.722216
1.013109
0.283661
-0.451631
-1.169623
-1.813734
-2.368769
-2.879382
-3.402620
-3.936613
-4.438108
-4.875309
-5.207068
-5.399950
-5.440164
-5.308770
-4.999456
-4.547759
-4.022417
-3.459199
-2.834961
-2.156949
-1.499043
-0.937696
-0.492546
-0.154709
0.063891
0.172607
0.215860
0.241344
0.291142
0.361515
0.419497
0.481219
0.583856
0.719225
0.833552
0.909302
1.005393
1.170220
1.379936
1.574222
1.712396
1.800537
1.850336
1.862260
1.852440
1.859922
1.907850
1.964429
1.999031
2.001369
1.937542
1.785808
1.556453
1.275662
0.960270
0.605599
0.229653
-0.135304
-0.482961
-0.804432
-1.079144
-1.290497
-1.414877
-1.435685
-1.360402
-1.223631
-1.065818
-0.904264
-0.758842
-0.659244
-0.609212
-0.582793
-0.519433
-0.349930
-0.055346
0.332991
0.754995
1.157360
1.523721
1.839347
2.100031
2.295018
2.355805
2.245219
2.033632
1.837944
1.744893
1.762428
1.866234
2.041815
2.237504
2.405136
2.551026
2.673302
2.752325
2.781550
2.744610
2.612514
2.371703
2.051635
1.697899
1.306990
0.895273
0.549487
0.321769
0.190608
0.114858
0.089608
0.116027
0.129821
0.072073
-0.055580
-0.230928
-0.426617
-0.612252
-0.767259
-0.882054
-0.946816
-0.956401
-0.943309
-0.944711
-0.972066
-1.039867
-1.122631
-1.162611
-1.132918
-1.010175
-0.795549
-0.537437
-0.259218
0.062955
0.459241
0.913977
1.353048
1.725721
2.021942
2.238438
2.378483
2.467793
2.594979
2.804929
3.000851
3.086888
3.058131
2.942869
2.751155
2.453531
2.050231
1.599002
1.140760
0.693038
0.298154
0.012922
-0.132033
-0.167804
-0.155880
-0.115199
-0.025187
0.110883
0.234094
0.290673
0.278515
0.188036
-0.020278
-0.371675
-0.833892
-1.318554
-1.776329
-2.201373
-2.547159
-2.770201
-2.890373
-2.977112
-3.094011
-3.220027
-3.288998
-3.259539
-3.132821
-2.924040
-2.608881
-2.137780
-1.503254
-0.751128
0.054303
0.832848
1.486779
1.961855
2.263921
2.446283
2.576508
2.656934
2.668858
2.628645
2.560610
2.475975
2.356271
2.212486
2.098626
1.995288
1.827655
1.565101
1.239889
0.892232
0.519559
0.107375
-0.326085
-0.727048
-1.007137
-1.099720
-1.010878
-0.806539
-0.581392
-0.388977
-0.221344
-0.069844
0.094516
0.314753
0.570293
0.802454
0.960033
1.029003
1.052851
1.054254
1.031575
0.977334
0.836121
0.570527
0.198088
-0.232801
-0.641011
-0.981186
-1.273432
-1.571056
-1.908893
-2.239249
-2.485905
-2.620338
-2.624079
-2.472812
-2.186177
-1.823090
-1.428206
-1.027711
-0.639842
-0.277924
0.058978
0.399153
0.760838
1.134446
1.506417
1.846124
2.122005
2.316291
2.449087
2.548218
2.568090
2.461946
2.255503
1.986870
1.678492
1.335043
0.958162
0.560707
0.141742
-0.282600
-0.648726
-0.890707
-0.965288
-0.850260
-0.572275
-0.210123
0.156705
0.474435
0.685554
0.727872
0.616350
0.417155
0.110647
-0.328892
-0.852832
-1.399917
-1.866577
-2.199504
-2.426755
-2.509052
-2.429093
-2.254680
-2.039587
-1.826364
-1.640495
-1.478473
-1.332818
-1.196981
-1.048286
-0.837635
-0.569703
-0.316501
-0.088081
0.159744
0.408037
0.586892
0.652589
0.602556
0.455731
0.217024
-0.100473
-0.445323
-0.805137
-1.230415
-1.712271
-2.153213
-2.459253
-2.591582
-2.590881
-2.509520
-2.339081
-2.068578
-1.680708
-1.142975
-0.474782
0.260744
0.969617
1.586842
2.129252
2.615316
3.036385
3.366039
3.562195
3.615033
3.547700
3.417241
3.277196
3.119851
2.927669
2.694807
2.421031
2.129485
1.831394
1.509923
1.134444
0.674331
0.155535
-0.354143
-0.789006
-1.086396
-1.216621
-1.217790
-1.157003
-1.092007
-1.055769
-1.079850
-1.181318
-1.329312
-1.485254
-1.638392
-1.812103
-2.001245
-2.134276
-2.182906
-2.172385
-2.131003
-2.079567
-1.961032
-1.708063
-1.329546
-0.843715
-0.271379
0.361510
1.011934
1.587309
2.011885
2.264386
2.333356
2.222536
1.961618
1.578191
1.114805
0.643703
0.199956
-0.200773
-0.497228
-0.647326
-0.673043
-0.619737
-0.527154
-0.408619
-0.284940
-0.225555
-0.272315
-0.382200
-0.524115
-0.729622
-0.999892
-1.270162
-1.455797
-1.519156
-1.486892
-1.384956
-1.229247
-1.068862
-0.971369
-0.959679
-0.964121
-0.919466
-0.856808
-0.825479
-0.833195
-0.874577
-0.970200
-1.158874
-1.429144
-1.728638
-2.043563
-2.405715
-2.776985
-3.024343
-3.107107
-3.101028
-3.038838
-2.913991
-2.734434
-2.520042
-2.289752
-2.050110
-1.821456
-1.597946
-1.343341
-1.062083
-0.791345
-0.536273
-0.257352
0.057572
0.368757
0.670823
0.983410
1.278929
1.514831
1.728989
2.016560
2.378712
2.702521
2.926499
3.084779
3.166141
3.100210
2.912471
2.718185
2.569022
2.411209
2.170632
1.827651
1.363564
0.708931
-0.118477
-0.969032
-1.729808
-2.353345
-2.779792
-2.964024
-2.900431
-2.618238
-2.139421
-1.471462
-0.713258
-0.011632
0.576134
1.052145
1.386709
1.555277
1.606245
1.603673
1.582398
1.562525
1.535170
1.483969
1.402607
1.313998
1.263498
1.245262
1.241989
1.233338
1.156185
0.979434
0.718516
0.425568
0.162547
-0.067510
-0.263666
-0.406516
-0.491852
-0.484137
-0.334507
-0.060262
0.249519
0.525400
0.782343
1.047469
1.305347
1.542652
1.781359
2.021001
2.191439
2.221131
2.114520
1.926079
1.687372
1.387644
1.038585
0.673159
0.299785
-0.068446
-0.375421
-0.558017
-0.622078
-0.655511
-0.708583
-0.722610
-0.617168
-0.390618
-0.126427
0.077678
0.185458
0.206032
0.128879
-0.043897
-0.235377
-0.353211
-0.399970
-0.447899
-0.503776
-0.495126
-0.399035
-0.283072
-0.205685
-0.148171
-0.086215
-0.050911
-0.071252
-0.158692
-0.322817
-0.540249
-0.752537
-0.895387
-0.912688
-0.781294
-0.540483
-0.265771
-0.030337
0.152726
0.343505
0.545505
0.664742
0.664508
0.609098
0.560001
0.528906
0.499681
0.469521
0.462975
0.480042
0.480042
0.454558
0.396810
0.253492
0.007538
-0.302010
-0.634002
-0.989374
-1.396181
-1.836655
-2.259127
-2.634839
-2.924514
-3.075547
-3.045855
-2.837775
-2.512797
-2.102717
-1.591870
-0.998960
-0.381969
0.204862
0.727399
1.138415
1.383434
1.483032
1.542884
1.646222
1.741845
1.708880
1.558782
1.388812
1.191720
0.873055
0.373196
-0.248471
-0.893517
-1.571763
-2.290456
-2.947426
-3.498253
-4.046741
-4.665603
-5.244952
-5.587933
-5.590037
-5.290777
-4.811258
-4.246638
-3.622166
-2.960286
-2.303783
-1.701989
-1.211482
-0.880659
-0.750434
-0.811689
-0.938407
-0.987972
-0.945187
-0.888842
-0.864527
-0.842316
-0.817066
-0.846758
-0.966930
-1.167061
-1.419796
-1.729811
-2.125396
-2.544127
-2.849934
-2.979691
-2.963091
-2.859519
-2.668507
-2.333475
-1.892768
-1.471699
-1.109313
-0.749499
-0.378930
-0.056056
0.174935
0.330878
0.433983
0.479105
0.485418
0.481210
0.432346
0.303757
0.120694
-0.122689
-0.446030
-0.758851
-0.921106
-0.916664
-0.862423
-0.859618
-0.920405
-1.029355
-1.187635
-1.355034
-1.441539
-1.410210
-1.285363
-1.048059
-0.706948
-0.373320
-0.101647
0.186157
0.527501
0.805954
0.906720
0.901343
0.888250
0.837750
0.746803
0.674559
0.632944
0.556492
0.372727
0.124434
-0.068682
-0.140692
-0.066110
0.118589
0.317083
0.489859
0.660064
0.823488
0.947868
1.066170
1.263027
1.542181
1.813619
2.005567
2.154496
2.342703
2.518518
2.547275
2.398346
2.099086
1.656274
1.118306
0.593198
0.191768
-0.028002
-0.094634
-0.090426
-0.049511
0.052658
0.230812
0.461102
0.689990
0.880300
1.025722
1.123216
1.171144
1.137010
0.991588
0.787249
0.609563
0.531475
0.567480
0.667779
0.853881
1.179327
1.593850
1.995513
2.311607
2.491631
2.457964
2.137896
1.582393
0.975222
0.496171
0.171894
-0.070086
-0.266709
-0.422418
-0.537680
-0.629095
-0.706248
-0.754644
-0.804677
-0.908950
-1.066296
-1.245852
-1.405770
-1.508874
-1.535761
-1.507238
-1.468661
-1.407640
-1.276714
-1.060685
-0.745293
-0.327731
0.129811
0.538956
0.844996
1.039516
1.134204
1.127891
1.039048
0.904381
0.725526
0.498275
0.255360
0.058268
-0.033380
0.020393
0.209769
0.434682
0.579169
0.638086
0.644398
0.592261
0.477233
0.316614
0.159269
0.051956
0.013379
0.077673
0.258165
0.502717
0.792158
1.185872
1.683627
2.170159
2.553119
2.826194
3.001776
3.077526
3.077292
3.059290
3.007621
2.800242
2.393435
1.894512
1.431125
1.032735
0.657257
0.296975
-0.020054
-0.314171
-0.615068
-0.914563
-1.186001
-1.386599
-1.507239
-1.604732
-1.740802
-1.934620
-2.189225
-2.520516
-2.902775
-3.224480
-3.394684
-3.430689
-3.367564
-3.222843
-3.047729
-2.891085
-2.734675
-2.524491
-2.260534
-2.060403
-2.037257
-2.110670
-2.130309
-2.052454
-1.882484
-1.676274
-1.513084
-1.392445
-1.276247
-1.133397
-0.933267
-0.691754
-0.471517
-0.305054
-0.172491
-0.066113
0.001221
0.038161
0.069723
0.119054
0.173062
0.217951
0.306092
0.457593
0.599975
0.669413
0.653281
0.588753
0.525160
0.452215
0.334148
0.167684
-0.016782
-0.171556
-0.277466
-0.322121
-0.266477
-0.129706
-0.017951
0.016417
0.071827
0.259099
0.562568
0.899002
1.199431
1.418032
1.498458
1.379221
1.050502
0.517211
-0.203586
-1.001069
-1.710176
-2.200683
-2.435181
-2.500644
-2.488955
-2.405723
-2.266613
-2.115580
-1.986057
-1.913346
-1.880614
-1.876873
-1.996578
-2.296773
-2.706386
-3.108518
-3.403803
-3.568631
-3.636899
-3.625443
-3.544550
-3.397023
-3.186840
-2.953042
-2.734676
-2.566576
-2.468615
-2.412036
-2.357327
-2.261938
-2.095474
-1.891837
-1.722801
-1.644947
-1.646116
-1.675574
-1.721632
-1.786628
-1.865184
-1.940934
-2.004761
-2.046845
-2.049183
-2.035622
-1.977173
-1.848117
-1.725607
-1.614086
-1.533426
-1.484328
-1.366495
-1.322541
-1.399928
-1.319268
-1.110253
-0.947062
-0.756518
-0.554283
-0.452347
-0.397171
-0.232578
0.051252
0.329704
0.627796
0.990649
1.255541
1.334565
1.336435
1.339942
1.380389
1.462452
1.509211
1.496119
1.476480
1.465959
1.441878
1.361218
1.211120
1.062191
0.967737
0.928225
1.000702
1.282662
1.781117
2.405824
3.049701
3.632558
4.103893
4.433547
4.597907
4.590191
4.469084
4.328105
4.193437
4.043573
3.877577
3.715088
3.589539
3.524543
3.555171
3.769563
4.165849
4.580839
4.904181
5.179127
5.479322
5.814354
6.121096
6.331046
6.430643
6.426902
6.337124
6.208302
6.102392
6.017056
5.859944
5.559514
5.134705
4.688620
4.327403
4.059939
3.854665
3.697787
3.603566
3.580420
3.561717
3.521270
3.493915
3.473575
3.434063
3.328387
3.159352
3.011124
2.893524
2.756051
2.589588
2.436216
2.328904
2.246841
2.177403
2.128539
2.100016
2.085520
2.042034
1.949684
1.842839
1.724070
1.575375
1.420367
1.300897
1.230524
1.207612
1.230758
1.281492
1.316094
1.284998
1.178153
1.021041
0.825119
0.596699
0.365941
0.139158
-0.120591
-0.394134
-0.610864
-0.762364
-0.893291
-1.007384
-1.051805
-0.997097
-0.890252
-0.765871
-0.605253
-0.428034
-0.328203
-0.367949
-0.494199
-0.616007
-0.743193
-0.966703
-1.301969
-1.683058
-2.074902
-2.456693
-2.787750
-3.028562
-3.161592
-3.249734
-3.387207
-3.541980
-3.620069
-3.637370
-3.685298
-3.806405
-3.956503
-4.094677
-4.260673
-4.502654
-4.802615
-5.103980
-5.385472
-5.641246
-5.807009
-5.832492
-5.787837
-5.805372
-5.926479
-6.053197
-6.079616
-6.002463
-5.869199
-5.684265
-5.425218
-5.135543
-4.864104
-4.604589
-4.353725
-4.092807
-3.813186
-3.570504
-3.407781
-3.325017
-3.276387
-3.194792
-3.057319
-2.883374
-2.734211
-2.666410
-2.680204
-2.757591
-2.842927
-2.867944
-2.828198
-2.755955
-2.696336
-2.663137
-2.612871
-2.490595
-2.259603
-1.944445
-1.591177
-1.187877
-0.721217
-0.195875
0.373889
0.935938
1.440238
1.864347
2.194702
2.445333
2.657153
2.848399
2.979559
3.020942
2.991249
2.912460
2.794860
2.651776
2.504250
2.370751
2.255957
2.151917
2.049514
1.943370
1.826004
1.700221
1.564384
1.405870
1.224209
1.020572
0.799166
0.548769
0.248106
-0.062611
-0.360702
-0.667912
-0.943793
-1.150937
-1.319271
-1.469603
-1.564525
-1.539742
-1.403906
-1.243053
-1.101372
-0.935142
-0.692928
-0.403955
-0.142804
0.058262
0.218413
0.345599
0.417141
0.446833
0.472317
0.518843
0.621947
0.779760
0.963993
1.187970
1.456370
1.726873
1.923263
1.997376
1.953656
1.778074
1.460812
1.051433
0.613530
0.198073
-0.168522
-0.489525
-0.776628
-1.024921
-1.218739
-1.352003
-1.411622
-1.389177
-1.304075
-1.182267
-1.073083
-1.025623
-1.021648
-1.007153
-0.946833
-0.817543
-0.621855
-0.367951
-0.048350
0.311464
0.646495
0.900165
1.037171
1.029455
0.837975
0.476758
0.068315
-0.282148
-0.559431
-0.787383
-1.005049
-1.225520
-1.400868
-1.481060
-1.478254
-1.424247
-1.325117
-1.138079
-0.815439
-0.395072
0.082576
0.555782
0.932195
1.237301
1.463383
1.665150
2.010702
2.360229
2.657619
3.114693
3.668325
4.236452
4.846195
5.402866
5.895711
6.313273
6.603415
6.811261
6.898000
6.768944
6.457993
6.022195
5.434195
4.735141
4.046608
3.370233
2.662996
1.949447
1.243847
0.557885
-0.086694
-0.705321
-1.325352
-1.940472
-2.492935
-2.906990
-3.162998
-3.271948
-3.201107
-2.932240
-2.531044
-2.063216
-1.524781
-0.929299
-0.359302
0.161599
0.705411
1.305803
1.918118
2.518275
3.150931
3.844373
4.554649
5.245286
5.895243
6.476697
7.015365
7.541643
8.016719
8.404589
8.720215
8.963130
9.129360
9.239712
9.275016
9.207448
9.037478
8.703615
8.163544
7.457476
6.642459
5.820427
5.068068
4.374157
3.778442
3.345917
3.073309
2.902170
2.726354
2.486011
2.200778
1.876969
1.500088
1.061484
0.559287
-0.002995
-0.620220
-1.279996
-1.943746
-2.566115
-3.131203
-3.660520
-4.187499
-4.716114
-5.177396
-5.501439
-5.723781
-5.926717
-6.135030
-6.317158
-6.458138
-6.581115
-6.653592
-6.589064
-6.371165
-6.069567
-5.753941
-5.431300
-5.081540
-4.709568
-4.308372
-3.869535
-3.430230
-3.031138
-2.697977
-2.416719
-2.132655
-1.869867
-1.703871
-1.648461
-1.672776
-1.736836
-1.807677
-1.840876
-1.766996
-1.558683
-1.234172
-0.798374
-0.243339
0.405448
1.066159
1.662576
2.186282
2.652240
3.070503
3.475206
3.870791
4.209563
4.484041
4.727658
4.937608
5.097993
5.213489
5.315658
5.458742
5.622400
5.714516
5.699787
5.600657
5.458508
5.292979
5.060117
4.768572
4.492691
4.254920
4.034683
3.796677
3.541838
3.323004
3.114924
2.835536
2.453278
1.996672
1.522297
1.010982
0.397265
-0.288697
-0.980035
-1.683531
-2.419759
-3.145466
-3.763626
-4.201762
-4.495879
-4.700217
-4.732715
-4.505464
-4.096319
-3.650468
-3.222151
-2.758297
-2.251659
-1.763724
-1.257787
-0.640328
0.108525
0.903903
1.660237
2.419377
3.250526
4.123291
4.931762
5.594811
6.129272
6.569979
6.897763
7.078255
7.115896
7.053472
6.858018
6.469680
5.936155
5.327814
4.656115
3.885987
3.018599
2.141391
1.307670
0.526788
-0.184658
-0.843732
-1.485038
-2.127747
-2.786354
-3.439583
-4.035766
-4.529780
-4.902687
-5.157759
-5.284010
-5.252447
-5.062604
-4.760304
-4.418025
-4.126480
-3.958847
-3.943183
-4.046054
-4.217193
-4.479981
-4.848680
-5.264839
-5.698766
-6.155373
-6.607303
-6.987457
-7.257727
-7.447804
-7.587147
-7.680900
-7.682536
-7.540154
-7.299343
-6.998679
-6.663882
-6.350126
-6.053671
-5.815899
-5.635641
-5.465437
-5.443226
-5.544227
-5.547734
-5.462164
-5.324224
-5.144200
-5.002752
-4.864111
-4.728742
-4.659070
-4.535392
-4.241509
-3.851769
-3.416438
-2.965677
-2.614046
-2.334424
-2.071169
-1.876416
-1.650801
-1.343825
-0.977231
-0.500752
0.012199
0.635970
1.468054
2.263900
2.963889
3.662475
4.230836
4.613095
4.887807
5.121370
5.367325
5.618423
5.869054
6.132309
6.349040
6.453547
6.456820
6.388084
6.259963
6.078536
5.838426
5.551323
5.230553
4.852503
4.378830
3.806962
3.194880
2.596827
2.011399
1.424334
0.839841
0.305380
-0.129951
-0.485322
-0.803287
-1.114705
-1.412796
-1.612225
-1.670441
-1.649867
-1.624850
-1.646360
-1.752738
-1.982093
-2.349856
-2.793837
-3.189656
-3.470914
-3.707750
-3.971240
-4.216259
-4.368461
-4.396517
-4.331522
-4.239405
-4.159447
-4.151030
-4.258577
-4.419663
-4.523703
-4.505934
-4.380619
-4.209947
-4.023377
-3.821610
-3.605815
-3.362666
-3.081174
-2.789161
-2.547882
-2.407137
-2.350090
-2.297486
-2.194147
-2.043114
-1.860519
-1.648464
-1.392223
-1.077999
-0.712106
-0.329614
-0.027081
0.105249
0.103846
0.078830
0.071816
0.076024
0.136344
0.292988
0.500132
0.678753
0.797288
0.945282
1.221864
1.574197
1.937518
2.304112
2.661822
3.039170
3.454394
3.871255
4.253513
4.542487
4.671543
4.611691
4.389116
4.100376
3.833613
3.597010
3.350588
3.055302
2.726817
2.430362
2.208956
2.082939
2.066106
2.165002
2.372380
2.623946
2.831090
2.956406
3.003867
3.011348
3.005036
2.936065
2.765393
2.539311
2.311359
2.078731
1.802850
1.475768
1.124136
0.730422
0.266334
-0.226277
-0.690598
-1.120317
-1.544426
-1.972508
-2.368561
-2.693773
-2.959834
-3.222856
-3.511830
-3.786308
-3.982697
-4.075515
-4.079957
-3.985737
-3.765967
-3.496867
-3.290424
-3.114842
-2.857431
-2.495747
-2.112320
-1.776353
-1.447400
-1.018616
-0.452359
0.189648
0.824408
1.376871
1.779236
2.012098
2.090888
2.011864
1.789523
1.514811
1.288028
1.127409
1.024772
1.003496
1.052828
1.122265
1.200821
1.294340
1.362141
1.342736
1.207134
1.019628
0.887065
0.805938
0.696988
0.559749
0.447292
0.396325
0.443785
0.618198
0.916991
1.262076
1.513174
1.634281
1.700679
1.741126
1.695536
1.487924
1.176740
0.962348
0.985727
1.233085
1.604589
2.031269
2.484368
2.911983
3.298450
3.701282
4.164435
4.652136
5.050293
5.278713
5.368724
5.403326
5.462243
5.578441
5.715212
5.787923
5.703756
5.469725
5.184025
4.915391
4.673879
4.430028
4.166305
3.911700
3.681176
3.485253
3.352457
3.303125
3.361341
3.516816
3.708530
3.922688
4.176826
4.440315
4.674346
4.856240
4.969866
5.041642
5.105235
5.135161
5.089336
4.971035
4.820937
4.686971
4.594154
4.530795
4.448498
4.285541
4.015271
3.672525
3.314113
2.937934
2.482964
1.931904
1.329876
0.712651
0.085139
-0.560843
-1.189757
-1.747130
-2.225479
-2.618025
-2.924533
-3.166747
-3.340225
-3.416676
-3.361968
-3.186386
-2.959836
-2.723935
-2.519362
-2.392411
-2.337936
-2.344716
-2.388904
-2.441274
-2.536664
-2.694710
-2.838730
-2.891568
-2.849718
-2.727442
-2.534092
-2.297489
-2.058548
-1.870341
-1.768172
-1.723517
-1.724218
-1.844390
-2.113724
-2.469798
-2.868656
-3.289491
-3.689284
-4.040915
-4.323576
-4.519966
-4.624941
-4.658608
-4.673337
-4.687131
-4.670298
-4.611615
-4.542177
-4.487001
-4.419200
-4.314225
-4.168101
-3.991818
-3.828394
-3.685076
-3.521184
-3.266579
-2.887594
-2.463252
-2.039144
-1.579264
-1.081510
-0.587263
-0.178819
0.132833
0.433496
0.709377
0.879348
0.935225
0.922132
0.912079
0.935225
0.941538
0.893142
0.795648
0.633393
0.396556
0.107583
-0.218565
-0.570897
-0.929308
-1.276030
-1.620881
-1.992384
-2.405504
-2.855564
-3.315677
-3.751241
-4.127187
-4.411719
-4.630319
-4.807771
-4.921397
-4.981716
-4.989432
-4.937996
-4.870195
-4.788366
-4.667493
-4.500562
-4.254373
-3.922147
-3.563269
-3.230575
-2.907234
-2.560278
-2.203270
-1.864498
