EVENT_NAME: 202302060117
EVENT_ID: 13194
EVENT_DATE_YYYYMMDD: 2023/02/06
EVENT_TIME_HHMMSS: 01:17:32.00000
EVENT_LATITUDE_DEGREE: 37.288
EVENT_LONGITUDE_DEGREE: 37.043
EVENT_DEPTH_KM: 8.6
HYPOCENTER_REFERENCE: AFAD
MAGNITUDE_W: 7.7
MAGNITUDE_W_REFERENCE: AFAD
MAGNITUDE_L: 
MAGNITUDE_L_REFERENCE: 
FOCAL_MECHANISM: 
NETWORK: TK
STATION_CODE: 4702
STATION_NAME: 
STATION_LATITUDE_DEGREE: 37.41714
STATION_LONGITUDE_DEGREE: 41.35743
STATION_ELEVATION_M: 933.0
LOCATION: Kahramanmaras_Pazarck_Turkiye
SENSOR_DEPTH_M: 
VS30_M/S: None
SITE_CLASSIFICATION_EC8: unknown
MORPHOLOGIC_CLASSIFICATION: 
EPICENTRAL_DISTANCE_KM: 381.59
EARTHQUAKE_BACKAZIMUTH_DEGREE: 
DATE_TIME_FIRST_SAMPLE_YYYYMMDD_HHMMSS: 2023/02/06 01:18:00.6831720
DATE_TIME_FIRST_SAMPLE_PRECISION: millisecond
SAMPLING_INTERVAL_S: 0.01
NDATA: 21001
DURATION_S: 
STREAM: HNZ
UNITS: cm/s^2
INSTRUMENT: sensor = CMG-5T/GURALP | digitizer = 
INSTRUMENT_ANALOG/DIGITAL: 
INSTRUMENTAL_FREQUENCY_HZ: 
INSTRUMENTAL_DAMPING: 
FULL_SCALE_G: 
N_BIT_DIGITAL_CONVERTER: 
PGA_CM/S^2: 15.817
TIME_PGA_S: 
BASELINE_CORRECTION: BASELINE REMOVED
FILTER_TYPE: BUTTERWORTH
FILTER_ORDER: 
LOW_CUT_FREQUENCY_HZ: 
HIGH_CUT_FREQUENCY_HZ: 
LATE/NORMAL_TRIGGERED: 
DATABASE_VERSION: 
HEADER_FORMAT: DYNA 1.2
DATA_TYPE: Acceleration
PROCESSING: Automatic Paolucci et al., 2011
DATA_TIMESTAMP_YYYYMMDD_HHMMSS: 
DATA_LICENSE: U (unknown license)
DATA_CITATION: Turkish Accelerometric Archive v 1.0 - Disaster And Emergency Management Presidency, Earthquake Department
DATA_CREATOR: AFAD
ORIGINAL_DATA_MEDIATOR_CITATION: : AFAD - Disaster And Emergency Management Presidency
ORIGINAL_DATA_MEDIATOR: AFAD PROCESS SERVICE
ORIGINAL_DATA_CREATOR_CITATION: AFAD PROCESS SERVICE
ORIGINAL_DATA_CREATOR: network: TK
USER1: GuestUser
USER2: 
USER3: 
USER4: 
USER5: 
[...]
1.065952
1.482265
1.862483
2.397174
3.174128
3.850445
4.373206
4.733236
5.068489
5.489084
6.266344
7.005673
7.237536
7.300855
7.344598
7.263538
6.938075
6.522069
5.883071
5.400382
5.293934
5.228169
5.091438
4.928094
4.683079
4.411452
4.463453
4.689504
4.780048
4.776377
4.802378
4.739060
4.511175
4.253312
4.198865
4.546659
4.894759
4.789229
4.573579
4.317246
4.062137
3.470246
2.698799
2.053072
1.557229
1.047010
0.469190
0.129656
0.376201
1.139696
1.877802
2.154936
1.940204
1.686930
1.394808
0.954637
0.441359
0.020153
-0.410841
-1.000591
-1.695260
-2.472825
-3.302390
-4.075672
-4.673681
-4.843448
-4.510948
-4.036822
-3.615921
-3.503354
-3.548319
-3.319821
-2.911767
-2.641974
-2.575902
-2.430605
-2.210060
-2.127470
-2.304578
-2.316201
-1.790687
-0.763212
0.363065
1.297551
2.133541
2.737362
2.801599
2.306063
1.575911
1.032656
0.966890
1.161129
1.316215
1.528195
1.713257
1.564290
1.086801
0.279260
-0.411127
-1.163303
-1.953103
-2.088916
-1.486930
-0.707529
-0.144696
0.110108
0.077379
-0.014387
0.001826
0.255407
0.753086
1.005749
0.944878
1.242201
1.980001
2.536716
2.676201
2.720555
2.660907
2.551706
2.463305
2.671003
3.345179
4.123050
4.777038
5.327941
5.493426
4.958430
4.192795
3.588057
3.180004
2.872894
2.395405
1.925563
1.652712
1.474074
1.440121
1.255672
0.663781
-0.305575
-1.528511
-2.518973
-3.052746
-3.256772
-3.057027
-2.397840
-1.632816
-0.805696
0.115942
0.706916
1.200925
1.681168
1.876630
2.024986
2.270614
2.316803
2.129601
1.963505
1.929858
1.898658
1.949130
2.268170
2.675918
3.114867
3.290141
2.897688
1.852166
0.526758
-0.548740
-1.024700
-0.983405
-0.753683
-0.714223
-0.980039
-1.684802
-2.722065
-3.675208
-4.487950
-4.991746
-4.972474
-4.467760
-3.465061
-2.298713
-1.381663
-0.838713
-1.058951
-1.592112
-1.898611
-2.084284
-1.868939
-1.257164
-0.523646
0.235566
1.215323
2.581110
3.723598
3.998897
3.595739
3.013942
2.478334
1.984633
1.308623
0.423386
-0.757949
-1.737705
-2.161664
-2.265360
-2.111804
-2.157380
-2.448890
-2.704917
-2.777718
-2.310628
-1.544992
-0.825239
0.145035
1.389385
2.699194
4.006250
5.174739
6.098519
6.534102
6.128802
5.346650
4.481601
3.855757
3.695779
3.479211
3.158030
2.955839
2.836238
2.603764
2.376796
2.289619
2.211312
1.795918
0.960541
0.118434
-0.501292
-0.900474
-1.292315
-1.585966
-1.436693
-0.861931
-0.030835
0.859297
1.720370
2.683303
3.784191
4.811666
6.049286
7.352366
8.386265
9.256514
9.863700
9.954549
9.765206
9.413436
8.996207
8.714485
8.351092
7.756142
6.918012
5.952938
5.152432
4.666684
4.619272
4.913536
4.873771
4.322563
3.373090
2.288109
1.512992
1.096986
1.147152
1.356073
1.334356
1.138588
0.869408
0.660182
0.249682
-0.405834
-1.266599
-1.761830
-1.746535
-1.472154
-0.735577
0.275380
1.220266
1.728345
1.756793
1.565308
1.475378
1.784018
2.493065
3.202418
3.706520
4.073279
4.246106
4.151282
3.972338
3.742312
3.141244
2.263654
1.332229
0.242965
-0.903805
-2.054858
-3.324901
-4.556707
-5.485686
-6.042400
-6.380405
-6.792434
-7.342725
-7.797272
-8.043511
-8.078382
-8.062475
-7.986920
-7.969178
-8.248147
-8.514880
-8.654364
-8.722270
-8.941591
-9.204653
-8.996038
-8.156377
-7.161020
-6.236323
-5.710196
-5.548688
-5.294801
-4.939054
-4.429751
-3.705104
-2.789889
-1.764861
-1.058261
-0.787551
-0.609524
-0.629406
-0.860962
-1.113013
-1.490783
-1.758127
-1.614972
-1.427462
-1.610994
-1.743137
-1.629346
-1.570310
-1.636687
-1.717135
-2.274154
-3.397065
-4.835040
-6.236614
-6.839517
-6.467864
-5.826724
-5.008476
-4.207663
-3.652783
-3.117786
-2.872158
-2.875216
-2.595941
-1.872823
-1.003186
0.013277
1.094283
1.916814
2.263079
2.364634
2.373811
2.194561
1.949852
1.929052
2.107079
2.259412
2.298566
2.398897
2.540217
2.650031
2.629843
2.435300
1.977693
1.011396
-0.169327
-1.317933
-2.621012
-3.974867
-4.842669
-5.247357
-5.439147
-5.150695
-4.540144
-4.173385
-4.365788
-4.679015
-4.917913
-5.135398
-5.176080
-5.125914
-4.928617
-4.347737
-3.713938
-2.998162
-1.766354
-0.273318
1.086656
2.005236
2.829908
3.802629
4.712338
5.296889
5.287101
4.909943
4.608950
4.414101
4.084661
3.745432
3.241025
2.532897
2.044702
1.848323
1.660509
1.630532
1.973432
2.523723
2.810952
2.982249
3.313220
3.282937
2.672999
2.010754
1.362580
0.850219
0.600310
0.464191
0.579511
0.869186
1.075966
1.091567
0.918130
0.278826
-0.587752
-1.462282
-2.219658
-2.802984
-3.065741
-2.873643
-2.444483
-2.092712
-1.978616
-1.829037
-1.740635
-1.972191
-2.363114
-2.544811
-2.070685
-1.244483
-0.805229
-0.631485
-0.438469
-0.243313
0.403639
1.026425
1.248194
1.383091
1.584671
1.770039
1.892394
1.929713
1.855689
1.564179
1.056713
0.367550
-0.384014
-1.088778
-1.831471
-2.575388
-3.145561
-3.205820
-2.669906
-1.866034
-1.361014
-1.141386
-0.984772
-0.728438
-0.436927
0.130494
1.244842
2.438719
3.063036
2.954752
2.459215
1.848665
1.146961
0.330243
-0.655631
-1.368959
-1.676987
-1.572985
-1.189096
-1.031870
-1.144435
-1.152388
-0.965796
-0.808570
-0.738827
-0.675202
-0.827533
-0.933370
-0.743719
-0.449761
-0.021519
0.429053
0.473102
0.046390
-0.617997
-1.309607
-1.629258
-1.658011
-1.427678
-0.867292
-0.165281
0.672545
1.659949
2.227676
2.364714
2.380008
2.102875
1.480701
0.771350
0.481369
0.814481
1.332348
1.717766
2.110220
2.417637
2.540910
2.433850
1.746216
0.708648
-0.483700
-1.953181
-3.274001
-4.238156
-4.964638
-5.096474
-4.591148
-3.542873
-2.074308
-0.929678
-0.297715
0.084950
0.067821
-0.052086
0.277355
1.024332
1.841968
2.655323
3.391593
3.886825
3.840025
3.055425
1.821477
0.508610
-0.493476
-0.745220
-0.465945
-0.176269
0.018581
0.112183
-0.059113
-0.667522
-1.550006
-2.283522
-2.653034
-2.962285
-3.523893
-4.021877
-3.859144
-2.980330
-1.727110
-0.325841
1.488070
3.343276
4.859865
6.027742
6.849050
7.227127
6.942040
6.087698
5.335828
5.066036
4.944294
4.739044
4.430710
4.063034
3.563827
3.183304
2.825417
2.250349
1.534268
0.693997
-0.197358
-0.739389
-0.977675
-1.179254
-1.345656
-1.569871
-2.136679
-3.150694
-4.337841
-5.121524
-5.577295
-5.927841
-6.067325
-6.050195
-5.998805
-5.719836
-5.227357
-4.667889
-3.847193
-2.667386
-1.674170
-0.992042
-0.368643
0.329392
1.111546
1.674072
1.640425
0.813307
-0.443277
-1.609930
-2.253515
-2.170314
-1.748495
-1.641740
-2.080993
-2.777498
-3.551085
-4.241166
-4.695102
-5.145979
-5.514267
-5.519161
-5.192167
-4.614957
-3.834027
-2.929824
-1.767147
-0.607834
0.482960
1.615354
2.554734
3.049354
3.359830
3.481574
3.190981
2.757846
2.354993
1.916657
1.688466
1.757291
1.957648
2.045744
2.010873
2.153111
2.463587
2.595731
2.342151
1.887297
1.247382
0.368569
-0.694389
-1.708710
-2.498204
-2.983952
-3.341228
-3.739186
-4.155498
-4.399595
-4.364724
-4.295899
-4.181191
-4.045988
-4.234414
-4.652561
-4.982613
-5.171039
-5.026659
-4.387661
-3.265360
-2.032023
-1.091114
-0.385126
0.198813
0.726469
1.158688
1.548388
1.962866
2.362049
2.596053
2.467275
2.042093
1.610181
1.277376
1.080079
0.783675
0.386023
0.007029
-0.352388
-0.430389
0.091455
0.866574
1.470089
2.112453
2.685686
2.979032
2.937126
2.677734
2.422931
2.238481
2.127445
1.953090
1.765887
1.513225
1.384141
1.445319
1.453885
1.300942
0.887994
0.384199
0.258786
0.242268
0.004595
0.048337
0.469850
1.152896
1.955850
2.713839
3.291966
3.622937
4.035579
4.359208
4.170782
3.634562
2.728525
1.661897
0.612705
-0.442911
-1.110050
-1.318053
-1.286240
-1.236992
-0.835667
-0.000289
0.614545
0.473531
-0.244997
-1.337931
-2.513455
-3.354338
-4.041054
-4.745512
-5.246860
-5.167941
-4.769981
-4.171665
-3.463536
-2.898868
-2.592675
-2.167797
-1.378608
-0.607466
0.018074
0.232501
0.206501
0.244738
0.366787
0.741805
1.404969
2.307642
3.057984
3.356836
3.273330
3.190741
3.366626
3.551077
3.625408
3.743786
4.004709
4.066804
3.302393
2.271248
1.453306
0.752825
0.377502
0.361291
0.428587
0.534118
0.895983
1.187494
1.447193
1.617878
1.592184
1.296086
0.857139
0.636594
0.715820
0.953495
1.091450
1.105827
1.039144
0.896907
0.895990
1.132747
1.383575
1.151408
0.287277
-1.203004
-3.012326
-4.493125
-5.605024
-6.248304
-6.391153
-6.329669
-6.193549
-5.887967
-5.477160
-4.874562
-4.011960
-2.993661
-1.944162
-1.010594
-0.128415
0.753152
1.616671
2.202752
2.553911
3.011212
3.414678
3.256229
2.656997
1.719147
0.728074
0.027593
-0.528204
-0.699806
-0.627922
-0.396059
-0.397894
-0.703780
-0.848770
-0.768016
-0.873852
-1.227151
-1.677111
-2.037751
-2.213636
-2.326813
-2.411849
-2.591099
-2.881079
-3.140471
-3.577277
-4.404701
-5.365492
-6.246752
-6.847514
-6.830996
-6.181597
-5.087132
-3.796900
-2.493209
-1.312178
-0.480165
0.101021
0.080221
0.041068
0.464723
1.143792
2.029336
3.141236
4.278525
5.190987
5.987823
6.244157
5.995777
5.695702
5.125529
4.158621
3.016745
2.133955
1.755879
1.883129
2.369796
2.924369
3.413177
3.712030
3.917280
4.137520
4.501832
4.826073
4.915698
4.930687
5.159185
5.484955
5.794820
5.999459
5.998541
5.859057
5.642184
4.886643
3.863451
3.292973
2.815483
2.240110
1.810033
1.336215
0.699664
0.296506
0.263776
0.686207
1.465608
2.087171
2.468001
2.573532
2.626757
2.749418
2.855867
3.090483
3.526373
4.024358
4.206973
4.058006
3.675036
2.764411
1.361307
-0.220435
-1.880789
-3.237704
-3.900561
-4.218989
-4.799868
-5.387782
-5.583855
-5.356275
-4.780595
-4.395177
-4.324210
-4.424235
-4.750922
-5.015208
-4.755203
-4.119875
-3.239837
-2.299234
-1.432350
-0.977495
-1.239334
-1.711623
-1.975603
-1.984167
-1.904330
-2.282712
-3.182937
-4.171258
-4.908751
-5.170590
-4.978187
-4.498555
-3.715790
-2.879188
-2.098564
-1.115748
-0.385289
-0.247945
-0.738893
-1.284595
-1.882910
-2.751323
-3.766562
-4.769259
-5.689367
-6.129844
-6.111184
-5.879322
-5.400914
-4.705632
-4.237930
-4.337037
-4.804738
-5.153448
-5.078200
-5.203307
-5.715667
-6.130144
-6.589280
-7.019051
-7.181782
-7.404162
-7.699036
-7.821696
-7.590751
-7.134061
-6.775561
-6.452850
-6.040513
-5.410080
-4.645667
-4.082223
-3.651839
-3.263056
-2.942792
-2.587350
-1.981693
-0.868570
0.511899
1.774296
2.566238
2.739371
2.249034
1.237772
0.007189
-1.127958
-1.918064
-2.295834
-2.604167
-2.780970
-2.892618
-3.340742
-4.313463
-5.525081
-6.479754
-7.219388
-7.831162
-8.077095
-7.628358
-6.610365
-5.633055
-4.976009
-4.377388
-3.860132
-3.249275
-2.290930
-1.308726
-0.612527
-0.082118
0.281276
0.755402
1.499014
2.289121
3.034874
3.771451
4.524239
5.259592
5.662752
5.705271
5.819061
5.796120
5.523881
5.399692
5.206372
5.101453
5.294774
5.632780
6.290743
7.078403
7.573023
7.544270
7.146006
6.880190
6.677082
6.349477
6.047261
5.914201
5.708645
4.946987
3.729251
2.833308
2.488574
2.460127
2.788956
3.656147
4.738987
5.889123
7.034671
7.895132
8.185419
7.762990
6.989096
6.173296
5.489638
5.082503
5.007561
5.305496
5.683267
5.823364
5.950919
5.883013
5.265427
4.291483
3.331916
2.653153
2.024861
1.180919
0.144880
-0.953560
-1.784349
-2.178331
-2.118682
-1.871219
-1.755287
-1.790158
-2.227576
-3.068459
-3.781482
-4.243065
-4.598505
-4.818131
-4.866767
-4.851778
-4.797636
-4.696080
-4.651420
-4.699138
-4.831281
-5.235357
-5.911673
-6.808534
-7.727724
-8.361827
-8.626419
-8.692185
-8.643548
-8.518440
-8.393637
-7.816428
-6.647633
-5.461096
-4.979935
-5.382788
-6.114163
-7.064860
-8.010662
-8.073063
-7.496159
-6.880714
-6.298610
-6.080818
-6.046558
-5.935215
-6.231619
-6.673625
-6.785885
-6.740919
-6.857156
-7.033041
-7.299468
-7.267961
-6.411477
-5.073220
-3.813270
-2.808737
-1.779732
-0.692303
0.179476
0.585695
0.566730
0.731604
1.469404
2.389819
3.337152
4.184459
4.868423
5.212547
4.910025
4.029683
3.040138
2.669098
3.060940
3.971872
4.923487
5.512320
5.575639
5.384155
5.378343
5.240695
4.788594
4.131549
3.104992
1.960057
0.983972
0.228432
-0.000371
0.348952
1.020987
1.559960
1.664574
1.848413
2.172348
2.190701
1.768884
0.813293
-0.539034
-1.833853
-2.956764
-3.754823
-3.915719
-3.281615
-1.804180
0.045214
1.882067
3.427409
4.694394
5.785800
6.736803
7.502133
7.650489
7.013938
5.947922
4.521265
2.641896
0.963799
0.072751
0.121693
0.675349
1.269383
1.930099
2.353142
2.391072
2.322860
2.337237
2.439404
3.187298
4.429506
5.390604
5.701386
5.287521
4.240164
2.764871
1.135105
-0.197032
-1.067892
-1.769291
-2.412877
-2.942061
-3.150370
-3.189217
-3.208487
-3.239381
-3.218275
-2.964388
-2.734360
-2.618734
-2.904738
-3.587478
-4.060685
-4.065578
-3.570347
-2.645650
-0.888022
1.540417
4.063068
6.350186
8.524127
10.334367
11.155062
10.962660
9.955374
8.895170
8.096805
7.655105
7.218299
6.596125
5.703241
4.790780
3.926649
2.967082
2.025868
1.116772
0.225723
-0.863540
-1.961980
-2.532153
-2.519917
-2.279795
-2.092592
-2.058332
-1.917318
-2.058943
-2.400312
-2.638292
-3.491716
-5.217225
-6.959863
-8.023126
-8.139363
-7.588154
-6.688234
-5.337436
-3.652915
-2.035383
-0.278673
1.659122
3.415832
5.174072
7.048854
8.795470
10.277800
11.218709
11.461278
11.513891
12.079477
12.463977
11.755849
10.604491
9.390731
7.945721
6.778762
5.917385
4.827815
3.943802
3.816859
3.971333
3.752624
2.945083
1.806265
1.050113
0.980371
1.033902
0.817946
0.416011
-0.504403
-2.440056
-5.374736
-9.001333
-12.446233
-14.786881
-15.816802
-15.623787
-14.157975
-11.707207
-8.750502
-5.741490
-3.041730
-0.672634
1.286879
2.751467
3.425643
3.413408
2.762787
2.216473
2.140307
1.761926
1.036362
0.215361
-0.363988
-0.717899
-1.572853
-2.989722
-4.133739
-4.664147
-4.452166
-3.504833
-1.813583
0.021740
1.423621
2.325683
2.866186
3.484078
4.275409
4.864242
5.027280
4.860572
4.511861
3.621730
1.985235
0.145936
-1.315898
-1.970496
-2.157392
-2.103555
-1.399403
-0.620002
-0.099993
0.286037
0.184177
0.248108
0.503524
-0.009142
-1.104218
-2.388025
-3.495030
-4.037979
-3.984449
-3.488299
-2.301763
-0.620913
0.952877
2.032965
2.414101
1.973624
1.369497
1.029963
0.490991
0.173174
0.160328
0.506898
1.264887
2.295727
2.912090
2.642910
1.818851
0.961755
0.182967
-0.434006
-0.770482
-1.212488
-1.982711
-2.940749
-3.948647
-4.602633
-4.588561
-3.846479
-2.241489
-0.349576
1.060258
1.732598
1.612997
0.762631
-0.480494
-1.802537
-2.980202
-3.960570
-4.576932
-4.709686
-4.862629
-4.918912
-4.318455
-3.185449
-2.217621
-1.674977
-1.515609
-1.365418
-0.964094
-0.398202
0.502636
1.468934
2.257205
2.883051
3.073007
2.556364
1.720987
0.841562
0.312990
0.538735
0.852270
0.582784
-0.265441
-1.572190
-3.109884
-4.191500
-4.427033
-3.648549
-1.622353
0.362855
1.362189
1.777890
2.343781
2.281381
1.172541
-0.052843
-0.607415
-0.532778
-0.532166
-0.513812
0.483380
2.586660
5.305385
7.935403
9.617783
10.194381
9.915718
9.346157
8.807490
8.354166
8.000561
7.632579
6.972475
5.787775
4.191962
2.671092
1.285118
0.178419
-0.592416
-1.243649
-1.599701
-1.343367
-0.859759
-0.662155
-1.150657
-1.929751
-2.359521
-2.106858
-1.163502
0.330757
1.939724
3.362099
4.317997
4.373363
3.392078
1.413295
-1.171451
-3.781585
-6.051879
-7.822047
-8.509374
-7.987531
-6.558120
-4.783362
-3.294303
-2.013859
-0.932548
-0.596989
-0.676213
-0.610447
-0.894922
-1.770982
-2.676713
-3.196109
-3.526161
-3.952261
-4.404056
-4.326666
-3.464369
-2.506636
-1.977757
-1.557468
-1.237509
-1.038682
-1.099553
-1.876506
-3.112901
-4.002726
-3.602013
-2.054836
-0.280996
1.086932
2.131842
2.657051
2.574768
1.880711
0.731799
-0.373982
-1.316114
-2.282411
-2.885926
-2.088172
-0.306073
1.357342
2.801741
4.024067
4.581088
4.029879
2.431008
0.870373
-0.005076
-0.369999
-0.300256
0.088833
0.257683
-0.355620
-1.794512
-3.397972
-4.581755
-5.510427
-6.105989
-5.844761
-4.315325
-2.215103
-0.237543
1.842490
4.055890
5.286474
5.262615
4.626371
4.244012
4.328743
4.458134
4.972331
5.971970
6.815302
7.622538
8.408363
8.454858
7.643646
5.819030
2.943080
0.043271
-2.093962
-3.211061
-3.681515
-3.907565
-3.348097
-1.837626
-0.180023
1.271411
2.251780
2.253922
1.705161
1.289767
0.875902
0.163186
-0.798217
-1.768185
-2.383323
-2.523419
-2.492524
-2.509653
-2.674220
-3.135497
-3.481455
-3.245003
-2.346918
-1.156099
0.178487
1.289469
1.647357
1.284576
0.715932
0.600919
1.207188
2.200404
2.629258
2.561963
2.383020
1.896966
1.350040
0.793938
0.371508
0.222848
0.250990
0.414028
0.812906
1.272348
1.657461
1.882594
2.472345
3.353300
4.070606
4.530355
4.403718
3.354526
2.264345
1.461698
0.700651
0.128949
-0.316728
-0.482519
-0.335998
-0.442752
-0.720803
-0.490776
0.218271
0.735527
0.937719
1.338737
1.876487
2.120891
2.175646
2.348473
1.954796
1.067112
0.129569
-0.755974
-1.498667
-1.988698
-2.005215
-0.976516
0.562708
2.044426
3.272563
3.865067
4.259050
4.544749
4.807812
5.257161
5.855477
6.365391
6.479488
6.336945
6.047270
5.101468
3.596504
1.808288
0.028332
-1.447267
-2.397658
-2.557331
-2.303750
-2.317820
-2.762885
-3.413201
-4.262649
-5.026754
-5.304193
-5.362617
-5.439394
-5.493842
-5.007175
-3.892216
-2.782151
-2.267954
-2.261836
-2.384496
-2.245929
-1.672696
-1.195206
-1.406267
-2.175573
-3.154105
-4.177909
-4.985450
-5.459269
-5.221288
-4.413440
-3.474366
-2.839344
-2.606563
-2.582092
-2.234603
-1.519745
-0.417633
1.207240
2.793571
3.900271
4.647554
5.159609
5.033584
4.560989
4.188419
3.592857
3.027579
2.339945
1.364165
0.333326
-0.571793
-0.888692
-0.803654
-1.069776
-1.892611
-2.686388
-2.859825
-2.347158
-1.590087
-1.001254
-0.580047
-0.301077
-0.146604
-0.048719
0.223521
0.481078
0.407054
0.156533
-0.526513
-1.557352
-2.601344
-3.349849
-3.786043
-3.766160
-3.221987
-2.746638
-2.637741
-2.535880
-2.307688
-1.789515
-0.794464
0.424191
1.429337
2.074453
2.376364
2.202927
1.774991
1.719320
2.023067
2.442744
3.103155
3.920180
4.566214
4.739958
4.689488
4.778195
4.709371
4.419085
4.092398
3.829336
3.583097
3.064313
2.421033
2.005639
2.223125
2.868547
3.042903
2.408494
1.405491
0.391781
-0.775177
-1.895947
-2.717865
-2.971445
-2.768336
-2.624262
-2.793112
-3.506746
-4.609774
-5.855040
-6.989881
-7.742362
-7.884599
-7.163011
-5.721059
-4.165011
-2.969909
-2.344370
-1.906645
-1.592498
-1.347788
-0.753449
0.210096
1.367879
2.479780
3.336264
4.321527
5.426392
5.900823
5.580560
5.203095
4.763230
4.010137
3.105935
2.086414
1.275813
0.788842
0.189609
-0.680639
-1.762561
-3.052792
-4.458343
-6.007661
-7.257209
-7.552390
-6.912167
-5.502027
-3.752964
-2.029290
-0.958073
-0.929013
-1.461868
-2.104230
-2.184678
-1.809354
-1.688528
-1.866554
-2.315902
-2.982123
-3.863995
-4.737608
-5.373241
-5.697481
-5.774564
-5.921084
-5.955648
-5.639666
-5.219377
-4.726898
-3.930674
-3.144237
-2.160504
-1.102134
-0.457629
-0.204660
-0.009198
0.472269
1.202116
2.004458
2.545879
2.599716
2.181569
2.006602
2.503975
3.475167
4.263744
4.460124
4.249980
3.901575
3.529923
3.114529
3.057328
3.352816
3.756893
3.903720
3.847437
3.833672
3.948992
4.155467
4.353682
4.352153
4.015984
3.337221
2.601257
2.082473
1.752727
1.290226
