EVENT_NAME: 202302060117
EVENT_ID: 13194
EVENT_DATE_YYYYMMDD: 2023/02/06
EVENT_TIME_HHMMSS: 01:17:32.00000
EVENT_LATITUDE_DEGREE: 37.288
EVENT_LONGITUDE_DEGREE: 37.043
EVENT_DEPTH_KM: 8.6
HYPOCENTER_REFERENCE: AFAD
MAGNITUDE_W: 7.7
MAGNITUDE_W_REFERENCE: AFAD
MAGNITUDE_L: 
MAGNITUDE_L_REFERENCE: 
FOCAL_MECHANISM: 
NETWORK: TK
STATION_CODE: 4701
STATION_NAME: 
STATION_LATITUDE_DEGREE: 37.32632
STATION_LONGITUDE_DEGREE: 40.72374
STATION_ELEVATION_M: 930.0
LOCATION: Kahramanmaras_Pazarck_Turkiye
SENSOR_DEPTH_M: 
VS30_M/S: 709
SITE_CLASSIFICATION_EC8: unknown
MORPHOLOGIC_CLASSIFICATION: 
EPICENTRAL_DISTANCE_KM: 325.55
EARTHQUAKE_BACKAZIMUTH_DEGREE: 
DATE_TIME_FIRST_SAMPLE_YYYYMMDD_HHMMSS: 2023/02/06 01:18:05.6044580
DATE_TIME_FIRST_SAMPLE_PRECISION: millisecond
SAMPLING_INTERVAL_S: 0.01
NDATA: 18251
DURATION_S: 
STREAM: HNE
UNITS: cm/s^2
INSTRUMENT: sensor = CMG-5T/GURALP | digitizer = 
INSTRUMENT_ANALOG/DIGITAL: 
INSTRUMENTAL_FREQUENCY_HZ: 
INSTRUMENTAL_DAMPING: 
FULL_SCALE_G: 
N_BIT_DIGITAL_CONVERTER: 
PGA_CM/S^2: 27.518
TIME_PGA_S: 
BASELINE_CORRECTION: BASELINE REMOVED
FILTER_TYPE: BUTTERWORTH
FILTER_ORDER: 
LOW_CUT_FREQUENCY_HZ: 
HIGH_CUT_FREQUENCY_HZ: 
LATE/NORMAL_TRIGGERED: 
DATABASE_VERSION: 
HEADER_FORMAT: DYNA 1.2
DATA_TYPE: Acceleration
PROCESSING: Automatic Paolucci et al., 2011
DATA_TIMESTAMP_YYYYMMDD_HHMMSS: 
DATA_LICENSE: U (unknown license)
DATA_CITATION: Turkish Accelerometric Archive v 1.0 - Disaster And Emergency Management Presidency, Earthquake Department
DATA_CREATOR: AFAD
ORIGINAL_DATA_MEDIATOR_CITATION: : AFAD - Disaster And Emergency Management Presidency
ORIGINAL_DATA_MEDIATOR: AFAD PROCESS SERVICE
ORIGINAL_DATA_CREATOR_CITATION: AFAD PROCESS SERVICE
ORIGINAL_DATA_CREATOR: network: TK
USER1: GuestUser
USER2: 
USER3: 
USER4: 
USER5: 
[...]
-3.991064
-3.810493
-3.083176
-2.243237
-1.783316
-1.798731
-2.191018
-2.728643
-2.971503
-2.790933
-2.191022
-1.205431
-0.170135
0.583293
0.926189
0.980297
1.071840
1.537109
2.596627
3.930463
4.823881
4.930210
4.738627
4.972992
5.618517
6.230697
6.518226
6.576109
6.745984
6.944485
6.896039
6.868983
7.334253
8.273600
9.321164
10.102590
10.336011
9.831103
8.570878
6.835316
4.886781
2.986378
1.340158
-0.240628
-2.025264
-4.007459
-5.990599
-7.618258
-8.553203
-8.645691
-7.673942
-5.659975
-2.966192
-0.181179
2.065894
3.775029
5.039341
5.751559
6.096657
6.202986
5.827686
4.966983
3.960313
2.956789
2.023417
0.907586
-0.692389
-2.638722
-4.697676
-6.705353
-8.370133
-9.281169
-9.309483
-8.584682
-7.415059
-5.974579
-4.302880
-2.457530
-0.557757
1.057317
2.009247
1.912669
0.875485
-0.632003
-2.216564
-3.333968
-3.696055
-3.629679
-3.503531
-3.318557
-3.041724
-2.886634
-3.110619
-3.663659
-4.272065
-4.691092
-4.944019
-4.978624
-4.554565
-3.753635
-2.661714
-1.510023
-0.642715
-0.195377
-0.233128
-0.667255
-1.258674
-1.365004
-0.297307
2.232578
5.894022
10.088371
14.440012
18.432713
21.382568
22.663553
22.342991
21.012300
19.146186
17.032809
14.895209
12.933147
11.242886
10.178961
9.960639
10.467748
11.153855
11.205760
10.105030
7.485172
3.371670
-1.756682
-6.578628
-10.133115
-12.624307
-13.954055
-14.283740
-14.005019
-13.131735
-11.837222
-10.450221
-9.065108
-7.792616
-6.492126
-4.529437
-2.023460
0.437530
1.986542
2.044424
1.171767
-0.195731
-1.847927
-3.196550
-3.762488
-3.857179
-4.001259
-4.126779
-4.039325
-3.743303
-3.031400
-1.706687
0.099969
2.097577
3.744110
4.684086
5.010309
4.944560
4.831624
4.925054
5.142117
5.381829
5.409512
4.847349
3.567620
1.801544
-0.095714
-1.822782
-3.116981
-3.931755
-4.172727
-3.766915
-2.990837
-2.476178
-2.545072
-3.033622
-3.692992
-4.038720
-3.881429
-3.234645
-2.125422
-0.580500
1.302914
3.315937
5.600131
7.763840
9.219420
9.905527
9.674936
8.494930
6.904392
5.643223
4.903006
4.633721
4.760498
4.920935
4.759238
4.023739
2.341972
-0.452794
-3.894660
-7.183638
-9.770149
-11.418571
-12.263545
-12.561771
-12.293117
-11.312559
-9.692137
-8.014146
-6.764305
-6.213469
-6.409141
-7.024468
-7.520883
-7.627213
-7.111296
-5.806402
-4.164588
-2.320811
-0.251792
1.943060
3.807285
4.907070
5.490308
5.819677
5.903985
5.618027
4.819297
3.541770
1.529060
-1.169443
-3.674792
-5.736577
-7.004981
-7.025430
-5.749792
-3.326237
-0.246145
2.722899
5.227932
7.565920
9.728056
12.438512
15.798899
18.781155
21.074787
22.478775
22.481606
21.325823
19.417240
16.887668
14.101396
11.155000
8.513122
6.110957
3.800336
1.620896
-0.387095
-1.805241
-2.645496
-2.754658
-2.462724
-2.302917
-2.455176
-2.905032
-3.183125
-2.854700
-1.914724
-0.548486
0.889477
1.881046
2.282769
2.302587
2.424959
2.663728
2.721296
2.481582
1.605779
0.062428
-1.894915
-4.063659
-6.254738
-8.365598
-10.285506
-11.949342
-13.356478
-14.294883
-14.563539
-14.153637
-13.029314
-11.390960
-9.649109
-8.009497
-6.241850
-4.182269
-2.100981
-0.284259
1.076632
2.131746
2.913801
3.294133
3.351071
3.014466
2.310426
1.325147
0.242348
-0.865618
-2.058207
-3.270616
-4.219087
-4.595016
-4.494036
-4.142017
-3.736519
-3.402117
-3.208963
-3.227524
-3.798181
-5.173543
-7.181220
-9.573633
-12.066713
-14.282330
-15.736338
-16.084898
-15.414835
-14.083830
-12.296679
-10.154047
-7.745907
-5.452589
-3.499966
-1.756542
-0.330533
0.882817
1.932583
2.969452
4.322477
5.796618
7.117870
7.853052
7.617428
6.492474
4.697457
2.893001
1.757981
1.475484
1.804852
2.330522
2.980451
3.773517
4.667879
5.529210
6.264077
6.807363
7.140192
7.432126
7.654221
7.810254
8.132702
8.647990
9.334097
10.134713
10.443319
9.867629
8.668748
7.416073
6.547820
6.152387
6.263749
6.745691
7.331132
7.776582
8.058763
8.168867
7.976655
7.313825
5.907948
3.852769
1.984139
1.185723
1.480802
2.036043
2.029435
1.292679
-0.122322
-2.230665
-4.826614
-7.376319
-9.712736
-12.021155
-14.055886
-15.583822
-16.618490
-17.152655
-17.185687
-16.547711
-15.032046
-12.479197
-9.099620
-5.668767
-2.377903
0.944104
4.013815
6.905472
9.644240
11.789703
13.032939
13.126684
11.960520
9.745218
6.842235
3.613028
0.493611
-2.712946
-6.241637
-9.579061
-12.096363
-13.288638
-13.396856
-13.001424
-12.546851
-12.363450
-12.651609
-13.375468
-14.261023
-15.177722
-15.770400
-15.637017
-14.814380
-13.173825
-10.442606
-6.865471
-2.661999
1.576707
5.183727
8.065632
10.130875
11.692470
13.168498
14.548263
15.726694
16.788100
17.628983
18.097398
17.949543
16.530138
13.464515
8.909965
3.724675
-0.868569
-4.247203
-6.443630
-7.571730
-7.714867
-7.183535
-6.465655
-5.895315
-5.565002
-5.631380
-6.277222
-7.186056
-7.721165
-7.552863
-6.742181
-5.836809
-5.396706
-5.366507
-5.499262
-5.402686
-4.935215
-4.323035
-3.682228
-3.258169
-2.936980
-2.644417
-2.441197
-2.148005
-1.760124
-1.295169
-0.872054
-0.723572
-1.169967
-2.215960
-3.509846
-4.557097
-5.009155
-4.854381
-4.084909
-2.989528
-1.950142
-1.290460
-0.986258
-0.569750
0.088045
0.798375
1.251061
1.241308
0.889602
0.438487
-0.080263
-0.600586
-1.215284
-2.009610
-2.602602
-2.920332
-2.846406
-2.260337
-1.387366
-0.617265
-0.148221
0.099356
0.047134
-0.274057
-0.701893
-0.904486
-0.762924
-0.306148
0.384363
1.105074
1.744938
1.951619
1.632944
1.182459
1.197873
1.912607
2.950104
4.006163
4.907445
5.518681
5.675973
5.421159
5.181759
5.234294
5.755244
6.921407
8.782486
11.268014
13.875286
16.196287
17.976203
18.571396
17.907937
16.259515
13.880315
11.472802
9.541569
7.927437
6.171113
4.146134
1.828907
-0.709473
-3.202553
-5.524500
-7.471147
-8.230554
-7.456049
-5.929058
-4.394518
-3.583206
-3.646753
-4.329401
-5.306815
-6.044201
-6.632789
-7.348468
-8.166073
-8.796501
-9.028035
-8.704015
-7.641979
-5.684638
-2.747996
0.528397
3.395201
5.703304
7.191915
7.731112
7.809442
7.556516
6.803086
5.593509
3.857948
1.939613
0.275777
-1.104305
-2.210383
-3.083355
-3.613115
-3.751219
-3.450163
-2.856229
-2.370826
-2.257577
-2.795202
-3.905685
-5.310303
-6.660499
-7.503271
-7.785768
-7.766894
-7.608030
-7.349128
-7.019759
-6.459800
-5.256202
-3.261740
-0.991702
1.030444
2.461801
3.098518
3.125886
2.651178
1.668731
0.348735
-1.029459
-2.186500
-2.703991
-2.520275
-2.073252
-1.709279
-1.636611
-1.740110
-1.670902
-0.974414
0.395285
1.952475
3.473174
4.909564
5.996452
6.612092
6.860298
6.750822
6.496322
6.301594
5.981347
5.416667
4.588996
3.424090
1.990844
0.341793
-1.503873
-3.381941
-4.675197
-4.899496
-4.118385
-2.482863
-0.143616
2.606792
4.967116
6.431504
7.091501
6.965037
5.906146
4.180337
2.229600
0.109302
-2.032702
-3.923039
-5.317906
-6.295319
-7.021380
-7.399511
-7.322439
-7.075177
-7.007542
-6.893978
-6.394105
-5.406941
-3.925250
-1.886117
0.376057
1.948347
2.541338
2.649868
2.822260
3.425002
4.538314
6.170376
8.117965
10.013019
11.656720
12.974198
13.778274
13.909140
13.485709
12.791736
11.672759
9.622614
6.871889
4.060450
1.619277
-0.240545
-1.607100
-2.855370
-4.071868
-5.193361
-6.530030
-7.935907
-8.947296
-9.496875
-9.942642
-10.686634
-11.596727
-12.416534
-12.877715
-12.658451
-11.603336
-9.737539
-7.654364
-5.662732
-3.858279
-2.469391
-1.469643
-0.847396
-0.324873
0.084715
0.020539
-0.674064
-2.026777
-3.639336
-4.618637
-4.335197
-2.915165
-1.042762
0.586783
1.265970
0.841595
-0.172940
-1.603984
-3.248945
-4.982933
-6.659353
-8.118080
-9.257190
-10.095558
-10.846156
-11.391646
-11.474068
-10.607704
-8.696921
-5.967275
-2.638976
1.041657
4.722605
7.570849
9.000318
8.905942
7.529950
5.485467
3.596703
2.474896
2.200578
2.608278
3.579083
4.906313
6.465706
8.271103
9.956015
11.136019
11.815205
12.317281
13.030442
14.199436
15.864214
17.719945
19.487278
20.785251
21.102666
20.435432
19.100336
17.054280
14.005330
10.151988
6.052642
2.103981
-1.473156
-4.640390
-7.376014
-9.543814
-11.138442
-11.896590
-11.652159
-10.549857
-8.749179
-6.774535
-5.028908
-3.927236
-3.637190
-3.806437
-4.282089
-4.957187
-5.699921
-6.553074
-7.215589
-7.247363
-6.740569
-5.956311
-5.013189
-3.962164
-3.037917
-2.217797
-1.367163
-0.688291
-0.041821
0.674486
1.252376
1.717645
2.142962
2.667688
3.518008
4.369586
4.466163
3.390599
1.023352
-1.790289
-3.609844
-4.820679
-5.984956
-7.014905
-8.196799
-8.959981
-8.985777
-8.305333
-6.699067
-4.602050
-2.435196
-0.317731
1.389517
2.805144
4.036111
4.930787
5.625388
6.204537
7.113370
8.036359
8.398444
8.567375
8.788212
8.866543
8.556677
7.661684
6.051956
4.019113
1.989101
0.366160
-0.568470
-0.954151
-1.331967
-2.325739
-3.924457
-5.356130
-5.995051
-5.658761
-4.208215
-1.786862
1.157645
4.058739
6.165193
7.228172
7.588999
7.501229
7.366272
7.584593
8.104599
8.535264
8.461651
7.755094
6.406785
4.357584
1.956677
-0.306128
-2.098629
-3.145565
-3.366719
-2.884148
-2.103036
-1.327273
-0.721070
-0.404914
-0.358985
-0.485449
-0.655640
-0.932474
-1.518546
-2.384282
-3.309789
-4.248194
-5.075866
-5.431032
-4.972055
-3.584111
-1.472623
0.682592
1.997553
2.275959
2.045683
1.734243
1.264883
0.647039
0.000882
-0.683024
-1.217189
-1.529886
-1.881592
-2.465147
-3.148424
-3.813141
-4.117974
-3.699263
-2.412930
-0.358067
1.861008
3.996405
5.919771
7.185657
7.429773
6.767573
5.434679
3.083162
-0.227522
-3.665927
-6.662027
-8.966042
-10.318440
-10.711357
-10.254267
-9.154796
-7.969759
-7.230487
-6.753578
-6.088233
-5.241059
-4.740242
-4.989394
-5.845378
-7.205011
-8.584778
-9.654994
-10.151723
-9.969265
-9.184693
-7.673117
-5.590886
-2.949324
-0.461279
1.676948
3.888789
6.319894
8.798187
11.042114
12.890924
13.484858
12.320582
9.701039
6.500459
3.250490
0.666810
-0.680240
-1.131669
-1.014959
-1.029746
-1.909324
-3.710633
-5.765812
-7.354777
-7.714033
-6.489044
-4.262418
-1.773744
0.638486
2.649307
3.933124
4.190453
3.313077
1.535676
-1.479299
-5.033786
-7.968856
-9.917077
-10.372595
-9.515354
-7.645153
-5.072485
-2.311066
0.119410
1.564923
1.887371
1.231777
-0.123452
-1.752999
-3.285024
-4.306480
-4.599044
-4.392677
-3.972708
-3.333474
-2.336243
-1.171339
-0.519207
-0.821209
-1.998698
-3.562811
-4.881863
-5.590307
-5.496248
-4.590875
-3.167698
-1.705826
-0.443715
0.640026
1.797066
3.286306
4.986947
6.703003
8.385712
9.976249
11.212563
11.871302
12.127687
12.240936
12.266102
12.338141
12.335938
11.839209
10.516068
8.292272
5.427668
2.287803
-0.495324
-2.180237
-2.370876
-1.248755
0.511657
2.129877
3.089357
3.258288
2.848699
2.384057
2.379967
3.016684
4.124019
5.352784
6.309119
6.823463
6.792004
6.081672
4.723297
2.908146
1.305654
0.488993
0.806092
2.376181
4.578898
6.940795
9.384169
11.734111
13.590786
14.595567
14.828044
14.659740
14.416566
14.195098
13.580714
11.946449
9.141931
5.519179
1.923167
-1.130501
-3.900415
-6.617794
-9.273199
-11.926717
-14.479568
-16.584137
-18.342663
-19.928797
-21.206324
-21.752757
-21.157250
-19.509145
-16.961014
-14.079739
-11.198779
-8.210860
-5.638191
-3.876521
-2.733323
-1.854062
-0.977631
-0.052125
0.801026
1.481471
1.916854
2.282400
3.043378
4.226528
5.811717
8.071059
10.681792
12.875386
14.015438
13.865381
12.745146
11.172854
9.416215
7.355688
4.878967
2.078538
-0.790155
-3.257125
-4.586244
-4.585301
-3.838794
-2.850686
-2.071462
-1.890577
-2.524464
-3.768960
-4.935124
-5.540385
-5.568069
-5.068510
-4.118467
-2.888129
-1.515600
-0.063480
1.436141
2.578395
2.723733
1.605071
-0.607715
-3.318802
-5.397889
-6.230909
-6.037440
-4.885434
-2.748465
0.168044
3.414236
6.304320
8.211643
8.884537
8.347856
6.940720
5.067056
2.960286
0.861694
-1.057899
-2.792831
-4.459184
-5.948426
-7.000082
-7.317813
-6.650580
-4.768739
-2.022735
0.595548
2.797950
4.762527
6.468516
7.774669
8.775360
9.604288
10.292597
11.010792
11.628949
11.922141
11.683370
10.746538
9.144675
7.026265
4.703375
2.340533
-0.148143
-2.969020
-5.922336
-8.321985
-9.779769
-10.039616
-9.413909
-8.697602
-8.600396
-9.583787
-11.430396
-13.512630
-15.191566
-16.271219
-16.531696
-15.956008
-14.576243
-12.805764
-10.794629
-8.414171
-5.819797
-2.864280
-1.033716
-0.149106
0.913244
1.542726
2.158995
2.957723
3.940798
5.411478
7.008306
8.331446
9.363281
10.272114
10.953817
11.178114
11.398008
11.588960
11.489550
11.981873
13.171315
14.234923
14.792051
14.289345
12.483002
9.768140
6.350183
2.794123
-0.269298
-2.554752
-3.731612
-3.657371
-2.580236
-1.226267
-0.041859
1.029299
1.832432
2.162115
2.112725
1.963611
1.603411
0.750573
-0.535448
-2.243011
-4.184625
-5.775478
-6.498393
-6.234458
-5.058543
-3.205644
-0.930257
1.504623
3.309391
3.877844
3.207150
1.476307
-0.912331
-3.425545
-5.644307
-7.763976
-9.970784
-12.049557
-14.042134
-15.659411
-16.623613
-16.905795
-16.227238
-14.595177
-12.542831
-10.646518
-9.312368
-8.640417
-8.386863
-8.388437
-8.508294
-8.729133
-8.983318
-9.341001
-9.985585
-10.957021
-12.254996
-13.445069
-13.989929
-13.572791
-12.277335
-10.311185
-7.931042
-5.394551
-2.914056
-0.876496
0.624069
1.610604
2.479170
3.684341
5.317976
7.477280
10.006850
12.565048
14.856163
16.994076
19.133247
21.186537
23.046672
24.679048
26.074542
27.062336
27.517853
27.201695
25.910011
23.580201
20.339669
16.754982
13.367854
10.467387
8.099512
5.953418
4.078496
3.092274
3.089442
3.620459
4.177272
4.248367
3.689665
2.626370
1.037405
-1.134485
-3.813484
-6.733140
-9.307697
-11.126624
-12.016583
-11.999282
-11.551315
-11.332679
-11.859294
-13.198794
-15.279454
-17.606434
-19.622919
-20.853887
-20.741582
-19.370310
-17.035782
-14.027415
-10.472616
-6.430211
-1.859933
2.886511
7.506493
11.157555
12.616910
12.710026
11.951878
10.224181
8.003216
5.573682
3.002585
0.532784
-1.725616
-4.019879
-5.916507
-7.120736
-7.651126
-7.691393
-7.682586
-7.753683
-7.984588
-8.590793
-9.585508
-10.977544
-12.405442
-12.944325
-12.217952
-10.285777
-7.720029
-5.112443
-2.824473
-1.113136
0.156210
1.115691
1.905610
2.788018
4.071520
5.414165
6.742967
8.228747
9.744098
11.237743
12.426870
13.520363
14.498090
14.797259
14.127194
12.744281
11.315754
10.283602
9.527656
8.365581
6.217600
2.926735
-1.187083
-5.575532
-9.696585
-13.007898
-15.230750
-16.401948
-16.576857
-15.848281
-14.404027
-12.492929
-10.548485
-8.584537
-6.230191
-3.209869
0.345245
4.096974
7.665616
10.444336
12.170144
12.956604
13.148499
13.154161
13.268983
13.583566
14.175927
14.970881
15.663280
16.050532
15.959616
15.423564
14.395502
12.657110
10.092619
6.926958
3.512461
0.379203
-1.988358
-3.718572
-4.979740
-5.973827
-6.877943
-7.861963
-9.234179
-10.934507
-12.649306
-13.887510
-14.263124
-13.800687
-12.528195
-10.457603
-8.008566
-5.769043
-4.050470
-3.124965
-2.847502
-2.794339
-2.418726
-1.293774
0.252406
1.847347
3.164195
4.021436
4.510299
4.959210
5.517281
5.922150
6.050185
5.572016
4.125558
1.977262
-0.261005
-2.652160
-5.235525
-7.422515
-9.043253
-10.041115
-10.238360
-9.728735
-8.758558
-7.643987
-6.639206
-5.754597
-4.946116
-4.005511
-2.675135
-1.175514
0.148570
1.218155
2.130763
3.058471
4.045635
4.819511
5.048527
4.535440
3.536634
2.572433
2.083883
2.402242
3.306356
4.491079
5.869271
7.557643
9.446091
11.178504
12.646668
13.808111
14.570977
14.915446
14.991889
14.604321
13.604571
12.156225
10.194478
7.410093
4.015729
0.734616
-2.084687
-4.346863
-6.239402
-8.044486
-9.829123
-11.776714
-13.808613
-15.310439
-16.098158
-16.466537
-16.737080
-16.956661
-16.722926
-16.068277
-15.144030
-13.954588
-12.783392
-11.640823
-10.397588
-9.075706
-7.992279
-7.766094
-8.427351
-9.452267
-10.402311
-10.930814
-10.766287
-9.945538
-8.895771
-8.088864
-7.723004
-7.632090
-7.448059
-7.117117
-6.831790
-6.361488
-5.752768
-5.297566
-4.836072
-4.411069
-4.271395
-4.803043
-6.261770
-8.276682
-10.124550
-11.218360
-11.308961
-10.336583
-8.534645
-6.627323
-5.113859
-3.685648
-1.902272
0.218339
2.506623
4.958176
7.417594
9.616536
11.105147
11.696250
11.590234
10.859140
9.726636
8.470501
7.316291
6.323148
5.723865
5.722920
6.209581
7.200835
8.345291
9.355105
10.055054
10.050964
9.464893
8.864036
8.581224
8.418269
8.003646
7.219387
6.259275
5.135580
4.183962
3.979482
4.596066
5.993133
7.916185
10.008483
11.813881
13.282988
14.744859
16.372202
18.003005
19.073534
19.281473
18.363516
16.131855
12.980666
9.325826
5.234659
1.601526
-0.856006
-2.323856
-2.970013
-3.631898
-4.811904
-6.389859
-8.358527
-10.490150
-12.467627
-14.090567
-15.128696
-15.283472
-14.551750
-13.356646
-12.296498
-11.387665
-10.191617
-8.808392
-7.317264
-5.604983
-3.799271
-2.159031
-0.890628
0.152217
1.177132
2.329138
3.682792
5.183358
6.277166
6.867954
7.450563
8.157118
8.942634
9.375501
9.063118
8.189202
7.237270
6.587653
6.564058
6.758471
6.726068
6.521272
6.046250
5.483143
5.106585
4.877567
4.518311
3.835348
2.933435
2.076192
1.348558
0.803698
0.423994
-0.083746
-0.994782
-2.224492
-3.766584
-5.392985
-6.656041
-7.644465
-8.351651
-8.520584
-8.266401
-7.791694
-7.038581
-6.417907
-6.051103
-5.797549
-5.560353
-5.070546
-4.123020
-2.502913
-0.767667
0.597312
1.850615
3.324755
4.741956
5.731951
6.407677
7.023003
7.503057
7.526336
7.140025
5.972603
3.900122
1.532246
-0.776802
-2.820027
-4.556532
-5.950455
-6.393076
-5.736854
-4.705019
-3.397608
-1.819340
-0.245162
1.166376
2.130575
2.457427
2.254205
1.905016
1.551108
1.365503
1.193424
0.636295
0.031349
-0.119652
0.203425
0.652021
1.021971
1.251302
1.568087
2.095330
2.554307
2.767594
2.559339
2.029264
1.322707
0.341518
-0.841004
-2.248769
-4.009183
-5.815526
-6.898010
-6.830376
-5.602240
-3.292564
-0.737513
1.217627
2.289414
2.485399
2.148793
1.416126
0.532773
-0.250857
-0.900789
-1.330826
-1.511084
-1.645097
-1.962199
-2.667183
-3.821078
-4.868644
-5.744132
-6.530908
-7.019773
-7.273958
-7.106600
-6.549157
-6.018140
-5.814920
-5.823729
-5.585904
-5.005183
-4.226902
-3.307374
-2.440695
-2.078295
-2.340659
-2.751192
-2.710926
-2.146878
-1.544450
-0.988896
-0.406601
0.357523
1.542246
3.066090
4.409049
5.778748
7.439751
8.886523
10.076279
10.846065
11.042680
10.328573
8.958873
7.359212
5.519837
3.655926
1.654226
-0.832562
-3.668224
-6.258825
-8.543021
-10.377677
-11.410143
-10.934492
-8.923672
-6.397876
-4.217495
-2.788969
-2.410525
-3.201391
-4.520443
-6.045547
-7.482254
-8.589905
-9.144203
-9.200515
-9.387064
-9.811439
-10.335537
-10.756136
-10.984840
-10.947405
-10.491259
-9.545620
-8.327551
-7.210778
-6.355740
-5.845170
-5.508566
-5.081676
-4.435207
-3.387328
-1.838317
-0.022538
1.984508
4.224661
6.418569
8.476578
10.292986
11.447823
11.930709
11.871881
11.422339
10.953608
10.518852
9.850989
8.707475
7.357279
6.088246
4.981538
4.187842
3.629454
3.384078
3.532246
3.970461
4.761010
5.859537
6.977883
7.887030
8.561497
9.082133
9.517831
9.815113
9.714445
9.382558
