EVENT_NAME: 202302060117
EVENT_ID: 13194
EVENT_DATE_YYYYMMDD: 2023/02/06
EVENT_TIME_HHMMSS: 01:17:32.00000
EVENT_LATITUDE_DEGREE: 37.288
EVENT_LONGITUDE_DEGREE: 37.043
EVENT_DEPTH_KM: 8.6
HYPOCENTER_REFERENCE: AFAD
MAGNITUDE_W: 7.7
MAGNITUDE_W_REFERENCE: AFAD
MAGNITUDE_L: 
MAGNITUDE_L_REFERENCE: 
FOCAL_MECHANISM: 
NETWORK: TK
STATION_CODE: 2713
STATION_NAME: 
STATION_LATITUDE_DEGREE: 37.49254
STATION_LONGITUDE_DEGREE: 37.62405
STATION_ELEVATION_M: 653.0
LOCATION: Kahramanmaras_Pazarck_Turkiye
SENSOR_DEPTH_M: 
VS30_M/S: None
SITE_CLASSIFICATION_EC8: unknown
MORPHOLOGIC_CLASSIFICATION: 
EPICENTRAL_DISTANCE_KM: 56.15
EARTHQUAKE_BACKAZIMUTH_DEGREE: 
DATE_TIME_FIRST_SAMPLE_YYYYMMDD_HHMMSS: 2023/02/06 01:17:16.7868210
DATE_TIME_FIRST_SAMPLE_PRECISION: millisecond
SAMPLING_INTERVAL_S: 0.01
NDATA: 2878
DURATION_S: 
STREAM: HNN
UNITS: cm/s^2
INSTRUMENT: sensor = GMS+/GEOSIG | digitizer = 
INSTRUMENT_ANALOG/DIGITAL: 
INSTRUMENTAL_FREQUENCY_HZ: 
INSTRUMENTAL_DAMPING: 
FULL_SCALE_G: 
N_BIT_DIGITAL_CONVERTER: 
PGA_CM/S^2: 0.027
TIME_PGA_S: 
BASELINE_CORRECTION: BASELINE REMOVED
FILTER_TYPE: BUTTERWORTH
FILTER_ORDER: 
LOW_CUT_FREQUENCY_HZ: 
HIGH_CUT_FREQUENCY_HZ: 
LATE/NORMAL_TRIGGERED: 
DATABASE_VERSION: 
HEADER_FORMAT: DYNA 1.2
DATA_TYPE: Acceleration
PROCESSING: Automatic Paolucci et al., 2011
DATA_TIMESTAMP_YYYYMMDD_HHMMSS: 
DATA_LICENSE: U (unknown license)
DATA_CITATION: Turkish Accelerometric Archive v 1.0 - Disaster And Emergency Management Presidency, Earthquake Department
DATA_CREATOR: AFAD
ORIGINAL_DATA_MEDIATOR_CITATION: : AFAD - Disaster And Emergency Management Presidency
ORIGINAL_DATA_MEDIATOR: AFAD PROCESS SERVICE
ORIGINAL_DATA_CREATOR_CITATION: AFAD PROCESS SERVICE
ORIGINAL_DATA_CREATOR: network: TK
USER1: GuestUser
USER2: 
USER3: 
USER4: 
USER5: 
[...]
0.000583
0.000583
0.000063
-0.000196
-0.000976
0.000323
-0.000976
-0.000716
0.001102
-0.001495
-0.000197
0.000843
-0.000716
-0.000197
-0.000197
0.000063
-0.000716
-0.000976
-0.000976
-0.001236
-0.000976
-0.000456
0.000323
0.000583
0.000583
0.000583
0.000842
-0.000197
-0.000197
0.000323
-0.001496
-0.000457
-0.000457
-0.000716
0.000323
-0.000457
0.000582
0.000323
-0.000976
-0.000457
-0.000457
0.000063
0.000842
-0.000457
0.000322
0.000842
-0.000457
0.000322
0.000842
0.000322
0.000322
0.000063
0.000322
-0.001236
-0.000717
0.000842
0.000063
-0.000457
0.000582
-0.000717
-0.001756
0.001101
0.000322
-0.000457
0.000582
0.000062
0.000582
0.000582
0.001361
0.001101
0.000582
0.000582
-0.000977
-0.000457
-0.000198
0.000841
-0.000198
-0.001496
0.001361
0.001101
-0.000198
-0.000717
-0.001497
0.000582
0.000841
-0.000198
0.001361
0.000062
-0.001237
0.000582
0.000062
0.000581
0.000322
-0.000977
-0.000717
0.000322
0.000322
-0.000198
0.000322
-0.000458
-0.001237
-0.000198
0.000062
0.000322
-0.000718
-0.000198
0.001880
-0.000198
-0.001237
0.000062
-0.000977
-0.000198
0.000321
-0.000458
-0.000198
0.000062
0.000581
-0.000718
0.000321
0.001880
0.000581
-0.000458
-0.000458
0.000581
-0.000978
-0.000198
0.001360
-0.000718
-0.000198
0.000581
0.000581
0.001100
-0.000199
-0.000199
0.000321
-0.000458
0.000061
-0.000458
0.001100
0.000581
-0.001497
-0.000458
0.000581
0.000581
-0.001498
-0.000718
0.000581
0.000321
0.000581
-0.000199
-0.000718
0.000840
0.001100
-0.000199
0.000321
0.000580
0.000321
0.000061
-0.000199
0.000321
0.000061
0.000061
-0.000459
0.000061
-0.000459
-0.000459
0.001360
-0.000199
-0.000199
-0.000719
-0.000719
0.001100
-0.000199
-0.001238
-0.000199
0.000580
-0.000459
-0.000199
0.000320
-0.000459
0.000580
0.001100
0.000580
-0.000979
-0.000979
-0.000979
0.000320
0.001099
-0.000719
0.000580
0.001099
-0.000979
-0.000719
0.000060
-0.000459
0.000580
0.000840
0.000060
-0.000979
-0.000200
0.001879
-0.000719
0.000060
0.000320
-0.000979
0.002658
0.000839
-0.001239
-0.000200
-0.000460
-0.000460
-0.000979
-0.000200
0.000839
0.001099
0.000320
0.000579
0.001618
0.000060
0.000839
-0.000200
-0.000719
0.000839
-0.000720
-0.000200
-0.000460
0.000060
0.000319
-0.000720
0.001099
0.000319
-0.000979
0.000579
-0.000200
-0.000720
0.001099
-0.000200
0.000579
0.001358
0.000579
0.001358
-0.000460
0.000579
0.001099
-0.000980
0.001618
0.002397
0.000059
0.000579
0.000839
-0.000200
-0.000200
0.001098
0.001098
0.000319
0.000579
-0.000201
0.000839
0.002397
0.000319
-0.000201
0.000059
-0.000460
0.000319
0.000059
-0.000460
-0.000201
0.001098
0.001618
-0.000460
-0.000720
-0.000461
-0.000720
0.000838
0.001877
0.001618
0.000578
-0.000720
-0.000720
-0.000720
-0.000201
-0.000461
-0.000980
-0.000461
0.000059
0.000319
0.000578
0.001617
0.001098
0.000318
0.000059
0.000318
0.000578
-0.000721
-0.001240
-0.002279
0.001098
0.001877
0.000059
0.001357
0.000059
0.000578
0.000578
0.000318
0.000838
-0.000721
0.001098
0.001617
0.000838
-0.000461
-0.000461
0.001097
0.001097
0.000318
-0.000461
-0.001241
0.000058
0.001097
-0.000461
-0.000202
0.000578
0.000318
-0.000202
-0.000461
0.000578
0.000058
0.001357
0.001617
-0.001241
-0.000721
-0.000202
-0.000461
-0.000721
-0.000721
0.000318
0.001097
0.001617
-0.000202
-0.000462
0.000058
-0.000202
-0.000202
-0.001241
-0.000462
0.000058
-0.000721
-0.000202
0.000058
0.000058
0.000318
0.001357
0.000837
-0.000722
-0.000722
0.000317
-0.000202
-0.000202
0.001876
0.000577
-0.000722
0.000317
0.000577
-0.000462
-0.001241
-0.000462
-0.000462
0.001097
0.000577
-0.000722
-0.000202
-0.001501
-0.001501
-0.000982
-0.000462
0.001096
-0.000202
0.000317
0.000837
-0.000982
0.000057
0.000577
0.000837
0.001096
-0.000462
-0.000203
-0.000462
-0.000722
0.000057
0.000057
0.000057
0.000577
0.000836
-0.000722
-0.000463
0.001356
0.000317
-0.000203
0.000057
0.000836
0.000057
-0.000722
-0.000203
-0.000982
-0.000463
0.000317
-0.000722
-0.000203
0.000836
0.000317
0.000057
0.000836
0.000576
-0.000463
0.000316
0.001096
0.000576
0.000057
-0.000463
0.000316
0.000316
-0.000723
0.000576
0.000057
-0.001502
0.000057
-0.000203
-0.002022
-0.000203
0.000836
-0.000723
0.000316
0.000576
-0.000203
0.000056
-0.000463
-0.000203
0.000576
0.001095
0.000576
-0.000463
0.001355
-0.000723
-0.000983
0.001355
0.000056
0.000056
-0.000983
0.001095
0.001355
-0.000204
0.001355
0.000056
0.001615
0.000056
-0.002282
0.000835
-0.000464
-0.000723
-0.000204
-0.000983
0.000316
-0.000464
0.000575
0.001355
0.001095
0.001874
0.000575
0.000575
0.000056
0.000316
0.001355
-0.000464
0.000316
0.000316
-0.000464
0.000835
0.000575
-0.000464
-0.000464
-0.000204
-0.000464
-0.000464
0.000835
0.000835
-0.000204
0.000056
0.000315
0.000575
-0.000464
-0.000724
0.000315
-0.000464
0.000315
0.000835
-0.000204
0.000835
0.001354
0.000575
-0.000204
0.000055
0.000315
-0.000464
-0.000724
0.000315
0.000055
-0.000464
-0.000464
-0.000724
-0.000464
-0.000724
-0.001763
-0.000984
-0.000205
0.000315
0.000575
0.000834
0.000055
-0.001504
-0.000205
0.001354
-0.000205
-0.000465
0.000055
0.000574
0.000574
-0.000465
0.000055
0.001094
0.000315
-0.000724
0.000315
0.000574
0.000055
0.000315
0.000574
-0.000205
-0.001764
-0.000205
0.000574
0.000055
0.000055
0.000055
0.000055
-0.000465
0.000055
-0.000205
0.000055
0.000574
-0.000725
0.000574
0.000834
0.000834
0.000314
-0.000725
0.000314
-0.000205
0.000834
0.000314
0.000054
0.000834
-0.000985
0.001093
0.000834
-0.000725
0.000054
-0.000725
-0.000465
-0.000725
-0.000206
0.000574
-0.000465
-0.000725
-0.000206
0.001613
0.001872
0.000054
0.000314
-0.000465
-0.000725
-0.000206
-0.000206
0.000314
0.000314
0.000314
-0.000466
-0.000466
0.000573
0.001353
0.001093
-0.000466
-0.000466
0.000314
0.000573
0.000573
-0.000726
0.000054
0.000573
-0.000726
-0.000206
0.000313
0.000313
0.000054
-0.000726
-0.000206
0.000313
-0.000206
-0.000726
-0.000206
0.000573
-0.000206
-0.000466
0.000053
0.000053
0.000313
0.000053
0.000313
0.000313
-0.000206
-0.000206
0.000053
0.000053
-0.000206
-0.001246
0.000313
0.000833
-0.001246
0.000053
0.000833
-0.000466
0.000053
0.000573
0.000832
0.000313
-0.000207
-0.000466
-0.000207
0.000313
-0.000466
0.000573
-0.000726
-0.002025
0.000573
0.000313
0.000573
0.000313
-0.000726
0.001092
0.000053
0.000313
0.001092
-0.000726
-0.000207
-0.000207
-0.000467
-0.000467
0.000313
0.000832
-0.001506
-0.000207
0.000832
-0.000727
0.000053
0.001092
0.001351
0.000312
0.000053
0.000312
0.000312
-0.000207
-0.000207
0.000832
-0.000727
-0.000467
0.001351
-0.000207
-0.001246
0.000832
0.000572
0.000052
0.000052
-0.000987
0.000832
0.000312
-0.000727
0.000572
0.000312
0.001091
0.000052
-0.000987
0.000312
0.000572
0.000312
-0.000727
0.000831
0.001091
-0.000467
-0.000467
0.000052
0.000312
-0.000208
0.000052
0.001091
0.000312
-0.000208
0.000052
-0.000727
-0.000727
0.000831
0.000831
0.000312
0.000571
-0.000468
-0.000208
0.000312
-0.000208
0.000312
-0.000208
-0.000728
-0.001247
-0.000728
0.001091
0.000311
-0.000468
0.000052
-0.000208
0.000571
0.000052
-0.001247
-0.001507
-0.001767
-0.000728
0.000052
-0.000208
0.000052
-0.000468
-0.001247
-0.000728
0.000571
0.000311
-0.000468
0.000051
0.000051
-0.000468
-0.000728
-0.000468
-0.000468
0.000051
0.000051
-0.000208
0.000051
0.000051
-0.000468
-0.000468
-0.000209
0.000571
0.000571
0.000051
-0.000209
-0.000468
-0.000728
-0.000209
0.000571
-0.000988
-0.001767
-0.000728
-0.000469
0.000571
0.000830
0.000311
-0.000209
-0.000728
-0.000209
0.000051
0.000830
0.000830
-0.000469
0.000051
0.000311
-0.001248
-0.001248
0.000051
0.000311
-0.000469
-0.000469
0.000830
0.001350
-0.000209
-0.000729
0.000051
-0.000729
-0.000729
-0.000209
-0.000989
-0.000729
0.000051
0.000310
-0.001248
-0.001248
0.000050
-0.000469
0.000050
0.000050
-0.001248
-0.000729
0.000050
-0.000209
-0.000469
0.000830
0.000570
-0.000469
0.000830
0.001349
0.000830
0.000830
0.000310
0.000050
0.000570
0.000570
-0.000210
-0.000210
0.000050
0.000829
0.000570
-0.001249
-0.000469
0.000570
0.000310
0.000570
0.000050
0.000050
0.000310
-0.000210
0.000569
0.000569
-0.000210
0.000569
0.000310
0.000050
0.001349
0.000569
0.000569
-0.001249
-0.001249
0.000829
0.000829
-0.000730
-0.002028
-0.000730
0.000309
-0.000470
-0.001249
-0.000210
0.001089
0.000829
-0.000730
-0.000470
0.001089
0.000569
0.000829
0.001348
0.000829
0.001348
0.001088
0.001088
0.001088
-0.000210
0.000309
-0.000470
0.000309
0.002647
0.000569
-0.000210
0.000309
-0.000211
-0.000211
-0.000990
0.000309
0.001088
0.001088
0.001088
0.000309
-0.000211
-0.001250
-0.000990
0.000309
-0.000730
-0.000730
0.001088
0.000309
-0.000730
-0.000211
-0.000471
-0.000471
0.000568
0.000828
0.000568
0.000049
-0.000990
-0.000211
0.000309
-0.001250
-0.000471
0.000309
0.000828
0.001348
0.000828
0.000308
0.000308
-0.001250
-0.000731
0.001607
0.000568
0.000568
-0.000731
-0.000471
0.000049
-0.000211
0.000828
-0.000471
0.001867
0.002386
-0.000211
0.000568
-0.000731
-0.001510
0.001087
0.000308
-0.000991
0.001087
0.000308
-0.001251
-0.001510
-0.000211
-0.000471
-0.001770
0.000048
-0.000991
-0.000731
-0.000212
-0.000212
0.000048
-0.000991
0.000568
0.000308
-0.000991
-0.001770
-0.001511
0.000048
0.000048
-0.000731
-0.000472
-0.000472
0.000308
0.000308
-0.000731
0.000308
-0.000472
0.000048
0.001866
-0.000212
0.000048
0.001606
-0.000212
-0.001511
-0.000212
0.000567
0.000567
0.002126
0.000567
-0.000732
0.000048
0.000307
0.001087
-0.000472
-0.001511
0.000567
0.000567
0.000048
0.001087
0.001346
0.000307
-0.000472
-0.000992
-0.000732
0.000047
0.000307
-0.000472
-0.000732
-0.000212
0.000827
0.000307
-0.000992
-0.000472
-0.000732
0.000047
0.000827
0.000567
0.000047
-0.000992
-0.000213
0.000567
0.000826
0.000826
0.000567
-0.000213
-0.000213
-0.000213
-0.000213
0.001086
-0.000473
-0.000992
0.000047
-0.000473
-0.000473
-0.000473
-0.000473
-0.000473
0.000047
0.000307
0.000566
0.000047
0.000047
0.000826
0.000307
0.000566
-0.000473
-0.000473
0.000047
-0.001252
0.000306
0.000047
0.000306
0.001605
-0.000473
-0.000733
0.000306
-0.000473
-0.000733
-0.000213
-0.000733
-0.000733
-0.000473
-0.000213
0.000306
-0.000213
-0.000993
-0.000733
0.000306
0.000566
0.001085
0.001605
-0.000213
-0.000733
0.000566
0.000046
0.000046
0.000566
-0.000473
-0.000733
-0.000473
0.000046
-0.001253
-0.000993
0.000306
0.000046
0.001085
-0.000473
-0.000733
0.000566
-0.000214
-0.000214
-0.000733
-0.000474
0.001085
0.000046
-0.000733
-0.000474
-0.000733
0.000825
0.000565
-0.000993
-0.001253
-0.000733
0.000046
0.000046
0.000825
0.000046
0.000046
0.000306
-0.000734
0.000305
0.000046
0.000305
-0.000734
-0.000734
0.001344
0.000046
-0.000474
-0.000214
0.000046
0.000825
-0.000734
0.001085
0.001085
-0.001513
-0.000994
-0.000994
-0.000474
-0.000474
0.000305
0.001604
0.000045
0.000825
0.001084
-0.000214
0.000305
0.000305
0.000045
0.000565
0.000305
0.000045
-0.000215
-0.001254
-0.000215
0.000565
-0.000215
0.000045
-0.001513
-0.000734
0.000824
0.000565
0.001084
-0.000215
-0.000475
0.001344
0.001604
0.001084
-0.000475
0.000305
0.001084
0.000564
0.000045
0.000045
0.001344
0.000564
0.000045
0.000564
0.000045
0.000045
-0.000215
0.000564
-0.001254
-0.000994
0.001084
-0.000994
0.000824
0.001863
0.000045
0.001084
-0.000735
-0.000215
0.000564
-0.001254
0.000045
0.000824
-0.000995
0.000044
0.001084
-0.002293
-0.000735
0.002123
-0.002294
-0.000215
0.000824
-0.003333
0.000564
0.001603
-0.000475
0.000044
0.000564
-0.000475
-0.001255
0.001343
-0.000735
-0.002294
0.002902
-0.000995
-0.001774
0.003421
-0.002294
-0.002813
0.001862
-0.001515
0.000044
0.001083
-0.002554
0.001343
0.001862
-0.000995
0.001083
0.000823
0.000044
-0.000216
-0.000216
0.000823
0.000563
-0.000735
0.000304
0.002641
-0.001775
-0.001255
0.002382
0.000304
-0.000476
-0.000995
-0.001515
-0.000216
-0.000216
-0.000476
-0.000995
-0.000476
0.001083
0.000044
-0.001255
0.000563
-0.000736
-0.000996
0.002122
-0.000736
-0.001515
0.000563
-0.001515
0.000823
-0.000736
-0.002035
0.002122
-0.001255
-0.000476
0.002901
-0.002035
-0.003074
0.001082
0.000303
-0.000476
0.000303
-0.002035
-0.001515
-0.000476
0.000563
0.001862
-0.002555
0.000043
0.001082
-0.003594
0.001861
0.000563
-0.002035
0.001602
-0.001516
-0.001256
0.000822
0.000562
0.001082
-0.000736
-0.000477
0.000822
-0.000477
-0.000217
0.000562
-0.000477
-0.001776
-0.002035
0.002900
0.001342
-0.005672
0.004199
-0.000217
-0.005412
0.002640
-0.000217
0.000302
-0.003854
0.005238
0.000043
-0.007231
0.009394
-0.004633
-0.000997
0.004978
-0.006971
0.002900
0.001341
-0.001256
-0.000997
0.002640
0.001081
-0.006712
0.003160
0.000042
-0.002296
0.003419
0.000302
-0.003335
-0.000477
0.002900
-0.005153
-0.001516
0.003419
-0.003854
-0.000737
0.002380
-0.003075
0.001601
0.001860
-0.004894
0.003679
0.000302
-0.002815
0.002899
0.001601
-0.001257
-0.001517
0.000561
-0.006192
0.006017
-0.001776
-0.009570
0.011212
-0.003335
-0.004374
0.006796
-0.000997
-0.002296
0.004198
-0.000738
-0.008011
0.008874
0.000821
-0.009570
0.010173
-0.000738
-0.009570
0.007835
-0.004634
0.006276
0.011731
-0.027234
0.008614
0.018485
-0.024636
0.010432
0.016147
-0.021519
0.004458
0.020044
-0.024117
0.001080
0.024460
-0.027234
0.009133
0.011991
-0.022039
0.009653
0.003938
0.000301
-0.011908
0.003938
0.017186
-0.022039
0.006016
0.012510
-0.016584
0.003678
0.009653
-0.005674
-0.003076
0.003938
0.001080
-0.000738
0.000041
-0.002037
0.002379
0.002119
-0.005934
0.001859
-0.000219
-0.005154
0.003937
-0.001258
-0.002557
0.000301
0.001599
-0.000738
-0.004635
0.007055
0.001859
-0.005934
0.003418
0.002638
-0.004116
-0.001258
0.004197
-0.002817
-0.000219
0.004197
-0.002817
-0.000219
0.000560
-0.001518
-0.000739
-0.000739
0.002638
0.000560
-0.002557
-0.000739
-0.000479
0.001080
0.001599
-0.001258
0.000820
0.000820
0.000560
0.001859
0.000040
0.000820
0.000040
0.000560
-0.000739
-0.001259
0.001599
-0.001518
-0.000479
0.001339
-0.000999
-0.000739
0.001599
-0.000739
-0.001519
0.001079
-0.000999
-0.000999
0.000300
0.000040
0.001339
0.000819
-0.000739
0.000040
0.000819
-0.000480
-0.001259
-0.000220
0.000819
0.000559
-0.000739
0.000819
0.001339
-0.001779
0.001079
0.001079
-0.000999
0.002378
0.001598
-0.000480
0.000559
0.000040
-0.000740
0.000559
0.000040
-0.000740
0.001598
-0.000740
-0.001259
0.001079
0.000559
0.000559
0.000299
0.001338
0.000299
-0.000480
-0.000220
-0.001000
-0.000220
-0.000740
-0.000480
0.000039
-0.001260
-0.000480
0.000819
0.000039
-0.000480
0.000299
-0.000221
0.001338
0.001338
-0.000740
0.000559
-0.000221
-0.001519
0.000039
0.000559
-0.000221
-0.000740
0.000299
-0.000481
-0.001000
0.001078
-0.000740
0.000039
0.000818
-0.001260
0.000299
0.000558
0.000299
0.001338
0.000299
-0.000221
-0.000481
-0.000221
0.000818
0.000039
-0.000481
-0.000481
-0.001520
0.000558
-0.000221
-0.000221
0.002117
-0.000481
-0.000221
-0.000221
-0.001000
0.000818
0.000298
0.000558
-0.001001
-0.000741
0.000558
-0.000221
0.001078
-0.000481
-0.000741
0.000558
-0.000221
0.000298
0.000558
-0.000481
-0.001520
-0.001001
0.001077
0.000558
-0.000222
0.000818
0.000298
0.000038
0.000298
-0.000741
0.000817
0.000038
-0.001520
0.001856
0.000298
-0.000481
0.000558
-0.001001
-0.001261
0.000038
0.000817
0.000038
0.000817
0.000557
-0.001521
-0.001001
-0.000741
0.000038
0.000038
-0.000741
-0.000222
0.000557
-0.000222
-0.001261
-0.000742
0.000038
-0.000482
-0.001001
-0.001001
-0.000482
-0.000222
-0.000742
-0.000222
0.000297
0.000297
-0.001001
-0.001781
-0.000222
0.000038
0.000038
0.000038
-0.000482
0.000297
-0.000222
-0.000482
0.001076
0.000297
-0.000222
0.000557
-0.000222
-0.000742
0.000037
-0.000222
-0.000742
-0.000222
0.000037
-0.000223
0.000297
0.000297
0.000037
0.000816
0.000557
-0.001262
-0.000482
0.000037
0.000037
0.000816
-0.000223
-0.000482
0.000037
0.000297
0.000816
0.000037
-0.001522
-0.000223
0.000816
0.001076
0.000556
0.000037
-0.000223
-0.001262
-0.000483
0.000297
-0.000742
-0.001002
0.000816
0.000556
-0.002041
-0.001002
0.000037
-0.000483
-0.000483
0.000037
0.000296
0.000296
0.000037
-0.000743
0.000296
0.000037
-0.001003
-0.000223
-0.001522
-0.000743
0.000036
-0.001003
0.000036
-0.000223
-0.001003
-0.000483
-0.000223
0.000036
-0.000743
0.000556
0.000816
-0.000743
0.000556
0.000816
-0.000224
0.000036
-0.000743
-0.001003
0.000036
-0.000743
-0.001003
0.000036
-0.000224
-0.000743
0.000556
0.002114
0.001854
-0.001003
-0.000224
-0.000224
-0.001523
-0.000224
0.000556
0.000815
0.000036
0.001595
0.000555
-0.001263
0.000296
-0.000484
0.000555
0.000036
-0.000484
0.001075
0.000296
-0.000224
-0.001523
0.000036
0.001594
0.000036
0.000295
0.000295
0.000295
-0.000224
0.000555
0.001334
-0.000224
-0.001004
-0.000744
0.001075
-0.000224
-0.000744
0.002633
0.001594
-0.000484
0.000555
0.000295
0.000035
-0.000224
0.000035
0.001594
0.000295
-0.000484
0.000555
0.000295
-0.000484
0.000295
0.001334
0.000555
-0.000744
-0.000484
0.000814
0.000814
-0.001004
-0.001523
-0.001004
0.000814
0.000555
-0.001524
0.000035
0.000555
-0.000225
-0.000225
-0.000485
-0.000225
-0.000485
-0.000225
-0.000485
-0.000225
-0.000744
-0.001264
0.000814
-0.000225
-0.000485
-0.000485
-0.001004
0.001074
0.000295
-0.000225
0.001074
0.000814
0.000294
-0.000485
-0.000225
-0.000485
0.000294
0.000554
-0.000485
0.000554
0.000035
0.000554
0.001333
-0.001005
0.000554
0.000554
0.000034
0.002113
0.000294
0.000554
0.000814
-0.000485
0.001073
0.000814
0.000554
0.000814
0.000554
-0.000225
-0.000485
0.000034
0.000294
0.001073
0.000034
0.000554
0.001593
-0.000745
0.000034
0.001073
0.000034
0.000294
0.000294
-0.000485
-0.001525
-0.000486
0.000294
0.000034
0.000554
0.000553
0.000813
0.000034
-0.000486
0.001073
-0.000226
-0.001785
0.001333
0.001852
-0.000226
0.000034
-0.000226
0.000034
0.000034
-0.000226
0.000293
0.000293
0.000034
-0.001525
-0.000746
0.000293
-0.000486
0.001592
-0.000226
-0.000486
0.001073
-0.002045
-0.000226
0.000033
-0.002564
0.000813
0.000553
-0.001265
0.000553
-0.000746
0.000293
0.000553
-0.001525
-0.000226
-0.000746
-0.000746
-0.001266
-0.001266
0.001332
0.000033
-0.000746
-0.001006
-0.000746
0.000293
-0.000486
-0.000227
-0.000486
-0.001006
-0.001785
-0.000746
-0.001006
-0.001006
0.000812
-0.000487
-0.001006
-0.000227
-0.000227
0.000552
-0.000746
-0.001006
0.000033
0.000033
0.000812
-0.000227
-0.000227
0.000033
0.000552
0.000552
-0.000747
0.000033
-0.000227
0.000292
0.000552
-0.000487
-0.001006
-0.001266
0.000552
0.000552
0.000552
0.000552
-0.000487
-0.001266
-0.002046
0.000033
0.000292
-0.000487
0.000552
0.000812
-0.000227
0.000032
0.001591
0.000812
0.000552
0.000812
0.001071
0.001331
0.000032
-0.000487
-0.000747
-0.000487
-0.000228
0.001331
0.001071
-0.000487
