EVENT_NAME: 202302060117
EVENT_ID: 13194
EVENT_DATE_YYYYMMDD: 2023/02/06
EVENT_TIME_HHMMSS: 01:17:32.00000
EVENT_LATITUDE_DEGREE: 37.288
EVENT_LONGITUDE_DEGREE: 37.043
EVENT_DEPTH_KM: 8.6
HYPOCENTER_REFERENCE: AFAD
MAGNITUDE_W: 7.7
MAGNITUDE_W_REFERENCE: AFAD
MAGNITUDE_L: 
MAGNITUDE_L_REFERENCE: 
FOCAL_MECHANISM: 
NETWORK: TK
STATION_CODE: 6802
STATION_NAME: 
STATION_LATITUDE_DEGREE: 38.3709
STATION_LONGITUDE_DEGREE: 34.027
STATION_ELEVATION_M: 980.0
LOCATION: Kahramanmaras_Pazarck_Turkiye
SENSOR_DEPTH_M: 
VS30_M/S: 214
SITE_CLASSIFICATION_EC8: C
MORPHOLOGIC_CLASSIFICATION: 
EPICENTRAL_DISTANCE_KM: 290.95
EARTHQUAKE_BACKAZIMUTH_DEGREE: 
DATE_TIME_FIRST_SAMPLE_YYYYMMDD_HHMMSS: 2023/02/06 01:17:59.6471600
DATE_TIME_FIRST_SAMPLE_PRECISION: millisecond
SAMPLING_INTERVAL_S: 0.01
NDATA: 18251
DURATION_S: 
STREAM: HNN
UNITS: cm/s^2
INSTRUMENT: sensor = CMG-5T/GURALP | digitizer = 
INSTRUMENT_ANALOG/DIGITAL: 
INSTRUMENTAL_FREQUENCY_HZ: 
INSTRUMENTAL_DAMPING: 
FULL_SCALE_G: 
N_BIT_DIGITAL_CONVERTER: 
PGA_CM/S^2: 14.788
TIME_PGA_S: 
BASELINE_CORRECTION: BASELINE REMOVED
FILTER_TYPE: BUTTERWORTH
FILTER_ORDER: 
LOW_CUT_FREQUENCY_HZ: 
HIGH_CUT_FREQUENCY_HZ: 
LATE/NORMAL_TRIGGERED: 
DATABASE_VERSION: 
HEADER_FORMAT: DYNA 1.2
DATA_TYPE: Acceleration
PROCESSING: Automatic Paolucci et al., 2011
DATA_TIMESTAMP_YYYYMMDD_HHMMSS: 
DATA_LICENSE: U (unknown license)
DATA_CITATION: Turkish Accelerometric Archive v 1.0 - Disaster And Emergency Management Presidency, Earthquake Department
DATA_CREATOR: AFAD
ORIGINAL_DATA_MEDIATOR_CITATION: : AFAD - Disaster And Emergency Management Presidency
ORIGINAL_DATA_MEDIATOR: AFAD PROCESS SERVICE
ORIGINAL_DATA_CREATOR_CITATION: AFAD PROCESS SERVICE
ORIGINAL_DATA_CREATOR: network: TK
USER1: GuestUser
USER2: 
USER3: 
USER4: 
USER5: 
[...]
-1.309676
-1.454618
-1.590189
-1.721387
-1.863518
-2.009084
-2.183700
-2.384241
-2.620703
-2.885278
-3.165471
-3.450348
-3.708051
-3.950448
-4.161298
-4.348095
-4.510217
-4.645163
-4.756370
-4.846337
-4.935054
-4.991911
-5.035961
-5.052524
-5.024420
-4.982259
-4.900742
-4.812665
-4.754574
-4.709603
-4.651200
-4.608414
-4.557820
-4.492858
-4.467565
-4.435087
-4.436657
-4.465714
-4.476967
-4.536635
-4.578186
-4.624735
-4.677532
-4.705652
-4.737520
-4.738153
-4.751592
-4.752537
-4.715686
-4.670090
-4.606689
-4.511740
-4.406171
-4.291232
-4.158488
-4.011687
-3.866761
-3.720274
-3.592527
-3.496954
-3.419809
-3.378273
-3.368598
-3.381100
-3.383607
-3.367372
-3.350513
-3.293984
-3.213091
-3.115956
-2.982587
-2.839535
-2.693984
-2.575921
-2.482222
-2.425068
-2.415393
-2.449135
-2.519424
-2.623134
-2.712476
-2.819310
-2.927081
-3.012988
-3.107015
-3.185112
-3.250715
-3.296015
-3.315389
-3.308213
-3.318216
-3.365077
-3.467851
-3.603109
-3.793655
-4.023871
-4.222538
-4.453690
-4.745752
-5.009390
-5.306450
-5.615379
-5.917749
-6.238860
-6.538731
-6.803618
-7.037894
-7.232813
-7.368696
-7.479279
-7.542383
-7.589557
-7.617989
-7.645172
-7.622065
-7.560226
-7.488392
-7.422492
-7.353782
-7.250712
-7.142019
-7.040823
-6.961492
-6.879975
-6.766284
-6.661028
-6.535468
-6.367740
-6.178771
-5.939513
-5.654026
-5.313877
-4.948739
-4.552677
-4.176294
-3.815842
-3.511926
-3.261423
-3.079639
-2.958764
-2.896925
-2.888812
-2.924116
-2.988469
-3.080623
-3.175900
-3.265242
-3.370514
-3.434555
-3.511715
-3.541085
-3.573265
-3.576084
-3.576405
-3.600776
-3.665130
-3.757595
-3.879110
-4.050915
-4.229903
-4.418888
-4.638795
-4.926484
-5.184499
-5.432207
-5.609634
-5.696164
-5.709291
-5.618715
-5.439430
-5.195487
-4.861272
-4.445532
-3.979815
-3.449752
-2.877521
-2.264371
-1.622797
-0.964980
-0.286547
0.408753
1.120608
1.804975
2.482158
3.136227
3.759060
4.372522
4.954124
5.502304
6.003005
6.486839
6.941936
7.378604
7.769980
8.146988
8.480265
8.756069
8.979397
9.155246
9.292051
9.417923
9.538798
9.666544
9.807722
9.854880
9.882672
9.857363
9.795196
9.701793
9.564973
9.447206
9.290707
9.180750
9.083599
9.045483
9.092017
9.176345
9.327206
9.501182
9.740752
10.000313
10.280802
10.509440
10.741202
10.859890
10.909547
10.896107
10.815199
10.672444
10.503138
10.331334
10.138601
9.941496
9.729710
9.729389
9.481370
9.340801
9.308933
9.165553
9.052472
8.882854
8.674503
8.413677
8.147853
7.811436
7.465336
7.062075
6.642571
6.151537
5.675809
5.118243
4.537562
3.977810
3.397754
2.868300
2.346968
1.848125
1.370835
0.916347
0.459048
0.004248
-0.450865
-0.895982
-1.296120
-1.647843
-1.941154
-2.142320
-2.298819
-2.376604
-2.375362
-2.327267
-2.221698
-2.069275
-1.885617
-1.668536
-1.434901
-1.179400
-0.921401
-0.678082
-0.428204
-0.191445
0.034069
0.262395
0.472291
0.675940
0.858974
1.036073
1.205050
1.354350
1.490530
1.622961
1.761640
1.897195
2.058364
2.241710
2.449108
2.659004
2.872024
3.052871
3.225285
3.373647
3.507640
3.622892
3.733771
3.851210
3.955529
4.026739
4.084205
4.123867
4.134791
4.148215
4.029199
4.066361
4.108522
4.032611
4.009801
3.968562
3.941067
3.877650
3.837973
3.803918
3.807034
3.774854
3.734552
3.760157
3.773268
3.792627
3.838223
3.888192
3.918795
3.934718
3.949391
3.943761
3.939692
3.947181
3.939052
3.955286
3.992761
4.046167
4.093637
4.107998
4.108615
4.107045
4.106413
4.116088
4.130448
4.149182
4.168540
4.173530
4.161965
4.121038
4.039818
3.931109
3.792727
3.632168
3.473795
3.321981
3.141118
2.911215
2.608533
2.229635
1.824188
1.445915
1.127302
0.851795
0.612522
0.376996
0.136473
-0.098115
-0.330829
-0.581973
-0.836239
-1.088632
-1.322283
-1.504708
-1.635594
-1.714628
-1.740874
-1.722453
-1.684040
-1.649377
-1.636890
-1.653765
-1.702188
-1.751549
-1.824336
-1.913053
-2.014265
-2.160456
-2.309146
-2.458773
-2.601216
-2.708987
-2.792082
-2.817079
-2.803655
-2.717765
-2.585645
-2.401674
-2.187717
-1.974697
-1.737938
-1.506802
-1.275665
-1.103564
-0.958013
-0.843386
-0.787169
-0.752505
-0.702848
-0.662874
-0.569487
-0.452361
-0.265267
-0.001020
0.332570
0.765177
1.225272
1.752211
2.291644
2.845134
3.390815
3.928374
4.439696
4.910098
5.346141
5.733457
6.037685
6.267260
6.430928
6.540245
6.597711
6.589894
6.543657
6.444320
6.322492
6.167243
5.996376
5.811452
5.615596
5.419115
5.222947
5.034275
4.843105
4.656307
4.463887
4.251476
3.999396
3.731385
3.445258
3.123209
2.744937
2.348860
1.954969
1.531717
1.115649
0.717385
0.380656
0.096715
-0.129127
-0.270945
-0.352166
-0.379037
-0.354681
-0.289406
-0.190709
-0.052030
0.110076
0.266247
0.416483
0.551413
0.660106
0.729129
0.769728
0.809702
0.829372
0.843421
0.867777
0.856836
0.822469
0.751244
0.650345
0.527268
0.350466
0.171477
-0.046869
-0.284581
-0.564773
-0.829035
-1.061437
-1.326637
-1.568097
-1.810182
-2.056952
-2.296850
-2.518320
-2.726357
-2.925962
-3.110573
-3.287063
-3.423571
-3.515412
-3.587262
-3.616631
-3.603208
-3.546366
-3.451418
-3.320235
-3.157192
-2.959790
-2.744272
-2.509699
-2.265131
-2.033682
-1.832844
-1.668552
-1.554861
-1.492398
-1.484284
-1.525211
-1.607056
-1.733257
-1.886007
-2.058749
-2.253043
-2.426409
-2.607272
-2.807501
-2.890908
-2.970255
-3.018054
-3.027432
-3.005575
-2.930305
-2.821924
-2.678872
-2.510207
-2.302185
-2.060116
-1.758074
-1.418237
-1.042166
-0.673905
-0.244109
0.169757
0.527711
0.907530
1.286099
1.650300
2.004506
2.338721
2.679807
3.028078
3.381034
3.701193
3.991990
4.230935
4.402412
4.521724
4.534836
4.453615
4.272752
3.979128
3.540258
3.002995
2.358906
1.623609
0.820218
-0.019720
-0.851223
-1.671794
-2.472374
-3.237345
-3.963584
-4.650466
-5.292369
-5.899600
-6.481529
-7.064709
-7.650074
-8.209515
-8.720539
-9.173153
-9.554862
-9.887530
-10.151793
-10.342651
-10.444175
-10.452304
-10.374847
-10.240541
-10.082496
-9.907896
-9.739231
-9.585871
-9.442195
-9.299768
-9.165149
-9.025533
-8.873111
-8.747551
-8.616369
-8.492058
-8.372121
-8.237190
-8.110693
-7.970140
-7.843331
-7.729328
-7.620948
-7.522251
-7.432924
-7.324232
-7.224285
-7.115280
-6.978788
-6.821055
-6.657388
-6.477165
-6.272579
-6.052375
-5.794063
-5.532315
-5.256824
-4.973836
-4.673356
-4.348824
-3.980563
-3.568259
-3.141274
-2.665561
-2.158300
-1.660410
-1.165332
-0.694929
-0.231711
0.167474
0.508873
0.839340
1.106710
1.325352
1.520880
1.697979
1.896318
2.118396
2.393888
2.724667
3.110108
3.575825
4.045291
4.559423
5.087612
5.600183
6.102758
6.570037
6.988588
7.365908
7.740729
8.075881
8.366678
8.626239
8.853315
9.071333
9.256553
9.420533
9.599506
9.715695
9.872178
9.967440
10.022094
10.076124
10.003025
9.941170
9.838709
9.696891
9.520713
9.302368
9.011555
8.703875
8.352777
7.934211
7.500026
7.004931
6.501716
5.973199
5.448118
4.930846
4.416386
3.928475
3.442439
2.939224
2.435071
1.886876
1.297762
0.669290
0.008959
-0.683233
-1.388232
-2.091669
-2.794481
-3.468244
-4.110146
-4.708006
-5.253390
-5.740364
-6.172987
-6.542826
-6.863000
-7.147565
-7.419012
-7.632985
-7.806039
-7.924117
-7.962858
-7.915700
-7.774209
-7.593987
-7.343484
-7.022076
-6.657563
-6.281805
-5.913231
-5.539971
-5.220750
-4.938074
-4.656335
-4.295883
-3.886390
-3.480958
-3.096141
-2.774108
-2.435208
-2.133791
-1.901717
-1.679014
-1.494107
-1.371670
-1.248609
-1.146164
-1.055588
-0.949707
-0.824147
-0.701398
-0.574276
-0.431849
-0.303478
-0.186352
-0.097026
-0.019569
0.034461
0.075060
0.104726
0.115651
0.132510
0.159990
0.215269
0.316153
0.443587
0.592574
0.766236
0.976758
1.202584
1.432471
1.662046
1.873817
2.037797
2.143990
2.172719
2.156469
2.092428
1.996526
1.898751
1.768802
1.614802
1.422694
1.185919
0.921345
0.701437
0.502770
0.294107
0.066703
-0.188501
-0.474315
-0.781683
-1.096547
-1.403290
-1.717217
-2.063317
-2.445651
-2.855471
-3.241553
-3.616702
-3.973110
-4.307340
-4.610335
-4.894901
-5.163223
-5.387504
-5.560870
-5.701127
-5.831075
-5.921354
-5.980710
-6.019138
-6.035076
-6.019778
-5.961688
-5.873611
-5.774289
-5.674342
-5.594074
-5.532548
-5.499133
-5.500078
-5.546315
-5.644715
-5.769041
-5.931163
-6.133578
-6.389095
-6.698024
-7.061928
-7.482994
-7.945916
-8.430390
-8.927358
-9.417455
-9.899743
-10.298007
-10.570078
-10.724703
-10.784058
-10.760952
-10.695677
-10.511394
-10.288066
-10.088165
-9.680234
-9.242629
-8.800963
-8.325563
-7.808932
-7.304170
-6.816900
-6.284026
-5.784887
-5.289808
-4.820655
-4.357124
-3.908587
-3.453802
-3.052743
-2.692602
-2.380253
-2.101638
-1.875186
-1.730260
-1.639997
-1.591589
-1.590348
-1.653764
-1.769344
-1.975820
-2.247892
-2.610546
-3.035048
-3.503280
-3.987442
-4.523143
-5.043850
-5.566120
-6.074021
-6.520388
-6.974563
-7.353149
-7.690502
-7.985063
-8.191852
-8.338355
-8.450812
-8.490802
-8.478627
-8.443651
-8.381188
-8.260938
-8.098207
-7.905491
-7.648741
-7.303281
-6.906283
-6.444001
-5.903943
-5.292043
-4.625480
-3.932991
-3.169597
-2.356538
-1.519116
-0.715740
0.097943
0.868834
1.552264
2.171036
2.713281
3.162756
3.530705
3.798388
3.984857
4.101671
4.117906
4.086975
3.977329
3.829264
3.648401
3.465664
3.294172
3.163911
3.018345
2.805934
2.601019
2.410474
2.252100
2.131210
2.047491
1.989697
1.993125
2.032162
2.130546
2.290466
2.510670
2.761485
3.040412
3.372128
3.775374
4.240154
4.734920
5.273417
5.790985
6.211723
6.574050
7.050075
7.529223
7.961831
8.364452
8.729277
9.040378
9.322741
9.591048
9.901836
10.263538
10.445635
10.418452
10.325049
10.255386
10.138556
10.060771
10.016409
9.931127
9.770880
9.576273
9.380417
9.157074
8.903119
8.601374
8.369597
8.189984
7.985069
7.886669
7.844805
7.827305
7.933187
8.032821
8.197425
8.417942
8.625340
8.888337
9.167576
9.463059
9.747296
9.996862
10.226125
10.459760
10.679340
10.837697
10.949826
11.029781
11.076315
11.098797
11.091917
11.035372
10.937284
10.768916
10.532766
10.226023
9.889918
9.477599
9.007180
8.520832
7.956394
7.373839
6.777229
6.164063
5.572138
4.984586
4.387663
3.814479
3.234736
2.662801
2.100862
1.579530
1.104738
0.668367
0.262919
-0.079120
-0.385863
-0.687920
-0.920322
-1.115553
-1.311409
-1.488836
-1.638151
-1.786216
-1.922724
-2.091718
-2.259461
-2.434702
-2.615252
-2.797052
-2.980414
-3.147533
-3.311216
-3.481146
-3.682000
-3.913777
-4.206464
-4.555063
-4.965821
-5.431241
-5.956947
-6.507328
-7.059272
-7.580917
-8.034155
-8.442727
-8.748533
-8.947825
-9.077773
-9.088713
-9.041555
-8.925054
-8.717032
-8.480272
-8.203844
-7.890557
-7.575084
-7.214007
-6.806700
-6.405329
-5.920558
-5.467647
-5.004429
-4.492795
-4.022393
-3.564484
-3.109700
-2.658039
-2.235427
-1.813752
-1.384581
-0.958533
-0.544042
-0.121118
0.313363
0.745346
1.154214
1.522788
1.852630
2.127809
2.360820
2.557909
2.700024
2.831831
2.938025
3.041095
3.132608
3.206629
3.270342
3.326871
3.377777
3.414315
3.450853
3.505508
3.593897
3.708837
3.858136
4.022741
4.202026
4.391307
4.612760
4.834526
5.063164
5.293676
5.508570
5.702536
5.891817
6.050799
6.198537
6.356582
6.535555
6.752635
6.952849
7.160558
7.364832
7.547554
7.728401
7.911434
8.120081
8.331227
8.520508
8.709789
8.840034
8.937794
8.983703
8.993066
8.942768
8.881851
8.783138
8.633511
8.527926
8.378924
8.223362
8.072173
7.914425
7.733874
7.535519
7.306241
7.056972
6.768034
6.463165
6.140179
5.805949
5.448917
5.083450
4.752031
4.425610
4.155413
3.935193
3.797748
3.702783
3.651861
3.627802
3.636852
3.659959
3.684003
3.710233
3.706164
3.683354
3.628996
3.575575
3.529963
3.485601
3.437490
3.402498
3.362508
3.294094
3.192883
3.061685
2.869265
2.657166
2.441632
2.189864
1.933098
1.681018
1.442056
1.168736
0.854808
0.513394
0.142618
-0.219725
-0.545522
-0.796040
-1.003766
-1.153393
-1.256791
-1.297093
-1.286480
-1.259001
-1.197162
-1.115644
-1.022570
-0.919812
-0.826425
-0.721481
-0.589361
-0.478170
-0.329496
-0.172700
-0.030585
0.066550
0.186488
0.250513
0.292049
0.296102
0.299530
0.368553
0.418210
0.499727
0.554694
0.651830
0.698676
0.739274
0.773313
0.795171
0.819214
0.853878
0.895414
0.949131
0.984420
0.957862
0.909438
0.766996
0.573638
0.270644
-0.145112
-0.660197
-1.272426
-1.873097
-2.401614
-2.869221
-3.241871
-3.522063
-3.740409
-3.881290
-3.965322
-4.053103
-4.094966
-4.144014
-4.208680
-4.270222
-4.344259
-4.396118
-4.445166
-4.475473
-4.505154
-4.517344
-4.527347
-4.515798
-4.501750
-4.473333
-4.427112
-4.396509
-4.356847
-4.303442
-4.262531
-4.206002
-4.139790
-4.065769
-3.967697
-3.861816
-3.755622
-3.665358
-3.612265
-3.591970
-3.612281
-3.719740
-3.874365
-4.091461
-4.366343
-4.684331
-5.020436
-5.348419
-5.676090
-5.998138
-6.304256
-6.609437
-6.899001
-7.167636
-7.436271
-7.704906
-7.943555
-8.170647
-8.365566
-8.508009
-8.622340
-8.672949
-8.671083
-8.611431
-8.503675
-8.345005
-8.149165
-7.931147
-7.688141
-7.439200
-7.193070
-6.960372
-6.745478
-6.564630
-6.402212
-6.271030
-6.209503
-6.177651
-6.212018
-6.300735
-6.448488
-6.684638
-6.952024
-7.279383
-7.661716
-8.049047
-8.470113
-8.911482
-9.370655
-9.837950
-10.315552
-10.772539
-11.222342
-11.704630
-12.165989
-12.638282
-13.088709
-13.550694
-13.935838
-14.261323
-14.538079
-14.702699
-14.777361
-14.788301
-14.727399
-14.584972
-14.395691
-14.122386
-13.807225
-13.438027
-13.018226
-12.583432
-12.108969
-11.603270
-11.132868
-10.621546
-10.119596
-9.660126
-9.240013
-8.843326
-8.462571
-8.089311
-7.669823
-7.280633
-6.890819
-6.520371
-6.213644
-5.888800
-5.585508
-5.334381
-5.072945
-4.834625
-4.595679
-4.393591
-4.266470
-4.227433
-4.238061
-4.278051
-4.352712
-4.438618
-4.539830
-4.630109
-4.728197
-4.801609
-4.815673
-4.828800
-4.841614
-4.826629
-4.801023
-4.729189
-4.632678
-4.516177
-4.381246
-4.210394
-3.988941
-3.762802
-3.500429
-3.248989
-3.049088
-2.837006
-2.623049
-2.427521
-2.231368
-2.026782
-1.813449
-1.598243
-1.377102
-1.173140
-0.959183
-0.732732
-0.462550
-0.160821
0.134349
0.460443
0.777790
1.131059
1.524933
1.926930
2.306436
2.680945
3.065137
3.494621
3.946906
4.404815
4.911451
5.456194
6.043106
6.649697
7.236296
7.799156
8.354520
8.866466
9.337494
9.746362
10.127118
10.460083
10.790549
11.066978
11.330600
11.578916
11.825046
12.036504
12.225160
12.326668
12.410997
12.553112
12.550293
12.629311
12.654292
12.541836
12.363472
12.142315
11.768727
11.416068
11.076215
10.692632
10.321231
9.952954
9.622784
9.179854
8.745981
8.438926
8.110006
7.745789
7.438421
7.070457
6.718109
6.360452
6.015602
5.581105
5.183466
4.781766
4.351954
3.974931
3.537623
3.107499
2.659258
2.209768
1.765900
1.343272
0.920957
0.523631
0.182841
-0.110158
-0.439703
-0.739887
-1.030387
-1.313703
-1.581089
-1.818489
-2.020592
-2.231441
-2.399185
-2.550998
-2.698439
-2.827450
-2.945529
-3.067669
-3.155762
-3.244167
-3.347252
-3.443466
-3.527811
-3.666818
-3.774589
-3.878612
-4.064785
-4.188798
-4.329679
-4.533344
-4.738571
-4.967849
-5.237422
-5.535731
-5.886204
-6.245110
-6.640250
-7.094114
-7.547040
-8.009962
-8.471946
-8.908317
-9.267849
-9.571156
-9.782317
-9.848545
-9.830748
-9.751417
-9.591498
-9.348179
-9.064254
-8.748781
-8.412068
-8.080976
-7.749885
-7.391931
-7.021796
-6.650410
-6.312135
-6.029459
-5.710238
-5.394140
-5.064923
-4.721338
-4.373692
-4.007617
-3.664968
-3.339500
-3.049640
-2.744474
-2.409322
-2.036063
-1.631256
-1.201460
-0.766666
-0.329061
0.130722
0.552084
0.921283
1.265493
1.564099
1.803669
1.959215
2.021054
2.005429
1.896720
1.719606
1.475959
1.160470
0.812496
0.424540
0.021279
-0.405097
-0.854900
-1.292208
-1.735763
-2.136526
-2.516360
-2.852465
-3.106419
-3.289469
-3.385370
-3.387877
-3.333222
-3.194856
-3.000890
-2.788182
-2.522998
-2.252505
-1.933908
-1.572206
-1.185515
-0.766651
-0.339354
0.105123
0.554285
0.954407
1.356716
1.721854
2.031392
2.297513
2.513344
2.712308
2.912521
3.091494
3.289209
3.506289
3.716186
3.996675
4.257173
4.549532
4.852199
5.145807
5.435979
5.774567
6.107532
6.453616
6.818442
7.177020
7.544657
7.872625
8.210900
8.492014
8.779063
9.031127
9.284442
9.491839
9.699237
9.884144
10.062493
10.242090
10.387329
10.550684
10.696547
10.869273
11.007015
11.192860
11.360588
11.501453
11.691671
11.863772
11.983710
12.087092
12.195472
12.335088
12.468457
12.604325
12.767992
12.898862
13.016301
13.196211
13.347384
13.434524
13.592257
13.653471
13.676265
13.690626
13.618776
13.570040
13.441653
13.230492
13.037759
12.760378
12.456759
12.151578
11.759249
11.405028
10.931486
10.437328
9.923805
9.305329
8.682168
8.004032
7.324022
6.570608
5.866859
5.128438
4.366902
3.696888
3.014066
2.358420
1.738383
1.156453
0.606696
0.080678
-0.435344
-0.924816
-1.362437
-1.764137
-2.092120
-2.351072
-2.540368
-2.697180
-2.798391
-2.856498
-2.864627
-2.888686
-2.872452
-2.851844
-2.785632
-2.713485
-2.753162
-2.673519
-2.703826
-2.716640
-2.802859
-2.817547
-3.034331
-3.411979
-3.716848
-4.147909
-4.694542
-5.280533
-5.932743
-6.534352
-6.900442
-7.553902
-8.036190
-8.535033
-8.946103
-9.264403
-9.553342
-9.786368
-10.008774
-10.209628
-10.511061
-10.517628
-10.462349
-10.525453
-10.516090
-10.292138
-10.162829
-9.949497
-9.592793
-9.366029
-9.089913
-8.604205
-8.237505
-7.887360
-7.432263
-7.049633
-6.664504
-6.200661
-5.723699
-5.265791
-4.781644
-4.264388
-3.704027
-3.142103
-2.571122
-1.994830
-1.415102
-0.852242
-0.281260
0.256611
0.814786
1.353907
1.870539
2.397478
2.854762
3.211466
3.527876
3.797121
4.020761
4.221911
4.414940
4.595475
4.726033
4.836912
4.934984
5.038054
5.139875
5.256064
5.363507
5.441589
5.501866
5.579323
5.648346
5.726740
5.792639
5.859164
5.916005
5.945046
5.928171
5.885683
5.843819
5.808202
5.783518
5.771016
5.750080
5.750697
5.800354
5.800659
5.814707
5.727551
5.615407
5.331154
5.031283
4.690806
4.431229
4.243182
3.997973
3.997653
3.892068
3.754311
3.594376
3.500973
3.343850
3.136124
2.891853
2.652267
2.404559
2.095630
1.833554
1.538681
1.361254
1.164461
0.971728
0.828349
0.725887
0.645291
0.578751
0.531578
0.484404
0.400372
0.291976
0.179519
0.090490
0.053936
0.062362
0.112019
0.195410
0.290672
0.395616
0.523987
0.638302
0.760738
0.882862
1.002800
1.125861
1.243612
1.376668
1.526592
1.701504
1.872668
2.023841
2.169392
2.290579
2.359290
2.387082
2.412687
2.401434
2.410173
2.352691
2.277093
2.265528
2.205547
2.144630
2.085586
2.021545
1.962814
1.892213
1.816303
1.764756
1.720706
1.714451
1.755674
1.826571
1.948071
2.054577
2.166080
2.275398
2.339735
2.375649
2.390322
2.366262
2.290976
2.200697
2.086054
1.964539
1.833341
1.711514
1.596246
1.477230
1.354466
1.251068
1.152667
1.044896
0.945559
0.838724
0.760315
0.688465
0.632233
0.621917
0.645336
0.704988
0.812744
0.950486
1.121337
1.313429
1.515517
1.720728
1.938433
2.128339
2.275764
2.375086
2.419745
2.434105
2.419729
2.347254
2.255101
2.127964
1.953973
1.760928
1.545081
1.341416
