EVENT_NAME: 202302060117
EVENT_ID: 13194
EVENT_DATE_YYYYMMDD: 2023/02/06
EVENT_TIME_HHMMSS: 01:17:32.00000
EVENT_LATITUDE_DEGREE: 37.288
EVENT_LONGITUDE_DEGREE: 37.043
EVENT_DEPTH_KM: 8.6
HYPOCENTER_REFERENCE: AFAD
MAGNITUDE_W: 7.7
MAGNITUDE_W_REFERENCE: AFAD
MAGNITUDE_L: 
MAGNITUDE_L_REFERENCE: 
FOCAL_MECHANISM: 
NETWORK: TK
STATION_CODE: 4408
STATION_NAME: 
STATION_LATITUDE_DEGREE: 38.09616
STATION_LONGITUDE_DEGREE: 37.88732
STATION_ELEVATION_M: 1215.0
LOCATION: Kahramanmaras_Pazarck_Turkiye
SENSOR_DEPTH_M: 
VS30_M/S: 654
SITE_CLASSIFICATION_EC8: unknown
MORPHOLOGIC_CLASSIFICATION: 
EPICENTRAL_DISTANCE_KM: 116.59
EARTHQUAKE_BACKAZIMUTH_DEGREE: 
DATE_TIME_FIRST_SAMPLE_YYYYMMDD_HHMMSS: 2023/02/06 01:17:32.1433170
DATE_TIME_FIRST_SAMPLE_PRECISION: millisecond
SAMPLING_INTERVAL_S: 0.01
NDATA: 12501
DURATION_S: 
STREAM: HNZ
UNITS: cm/s^2
INSTRUMENT: sensor = GMS+/GEOSIG | digitizer = 
INSTRUMENT_ANALOG/DIGITAL: 
INSTRUMENTAL_FREQUENCY_HZ: 
INSTRUMENTAL_DAMPING: 
FULL_SCALE_G: 
N_BIT_DIGITAL_CONVERTER: 
PGA_CM/S^2: 96.752
TIME_PGA_S: 
BASELINE_CORRECTION: BASELINE REMOVED
FILTER_TYPE: BUTTERWORTH
FILTER_ORDER: 
LOW_CUT_FREQUENCY_HZ: 
HIGH_CUT_FREQUENCY_HZ: 
LATE/NORMAL_TRIGGERED: 
DATABASE_VERSION: 
HEADER_FORMAT: DYNA 1.2
DATA_TYPE: Acceleration
PROCESSING: Automatic Paolucci et al., 2011
DATA_TIMESTAMP_YYYYMMDD_HHMMSS: 
DATA_LICENSE: U (unknown license)
DATA_CITATION: Turkish Accelerometric Archive v 1.0 - Disaster And Emergency Management Presidency, Earthquake Department
DATA_CREATOR: AFAD
ORIGINAL_DATA_MEDIATOR_CITATION: : AFAD - Disaster And Emergency Management Presidency
ORIGINAL_DATA_MEDIATOR: AFAD PROCESS SERVICE
ORIGINAL_DATA_CREATOR_CITATION: AFAD PROCESS SERVICE
ORIGINAL_DATA_CREATOR: network: TK
USER1: GuestUser
USER2: 
USER3: 
USER4: 
USER5: 
[...]
-7.095016
-3.157971
5.021344
9.122562
8.103235
6.029250
6.326687
11.101483
16.017593
14.407034
11.653756
10.773665
7.836471
5.850807
6.104343
5.246331
2.086776
0.481932
3.463291
7.171740
7.464501
5.392334
2.871289
2.724002
7.400087
13.203305
17.022415
14.743733
9.966603
8.660492
3.153934
-6.083671
-11.114854
-6.375646
1.497402
1.273484
-2.886697
-5.976374
-4.400360
-0.086911
-2.671860
-12.152088
-18.233513
-19.066586
-17.547721
-12.943852
-9.341648
-9.463477
-13.628334
-15.663873
-9.987942
-2.075409
1.662134
-3.018881
-9.136674
-10.348489
-9.939092
-4.310698
3.223872
5.505936
6.742433
5.940012
2.135973
-0.921493
-1.237109
4.117749
10.186969
11.376449
9.232066
8.614341
5.851191
-2.168362
-1.326452
1.613084
-3.346922
-8.366416
-12.919106
-10.807710
-8.274451
-8.785153
-0.209172
12.691684
19.672170
16.207647
11.779126
9.922567
4.992953
3.029629
9.232630
19.847269
21.363536
14.938699
10.663180
6.392338
3.427869
2.688572
3.987413
11.312351
17.522366
15.800366
8.195662
-2.004642
-4.100188
1.173882
7.742376
11.439915
5.217696
-1.699922
-4.730372
-7.965260
-8.531292
-7.629635
-7.507023
-8.579342
-8.889503
-6.211034
-4.327714
-0.305985
5.385013
3.990841
3.773417
11.940003
17.416952
8.545101
-6.918102
-9.523832
-2.600495
3.073618
9.223366
12.028602
4.008269
-10.096348
-15.431459
-8.718534
3.832155
16.774315
17.644799
4.736674
-3.914116
-3.822415
-1.190185
1.796889
-0.081231
-1.297722
-2.922568
-9.280386
-11.832084
-15.596639
-18.707877
-12.513189
-3.763424
6.576381
10.959707
1.521821
-4.170472
0.012833
4.195099
5.156762
0.901506
-0.611900
1.556905
0.244559
0.774748
3.239688
2.171265
-2.341162
-6.484977
-7.298309
-3.765722
-2.413628
-3.634276
-1.269606
-0.982041
4.508416
15.185919
14.767435
7.741754
3.490135
0.306681
-3.835836
-7.646629
-8.247470
-5.335469
-6.927325
-7.853136
-2.023682
-0.584825
-3.405123
-5.873176
-3.941539
1.701401
2.481487
0.591158
0.855604
0.190340
-2.291740
-3.371334
-4.084394
0.179179
7.782588
9.402763
8.143410
6.886655
9.432123
13.558539
13.365533
12.961596
14.526441
14.794783
5.914879
-2.650967
-1.512142
-2.458734
-2.776947
2.116563
5.808647
6.254151
4.554232
4.168738
4.859723
2.556103
-1.038043
-0.059755
-0.603707
-4.544644
-2.886024
-0.364454
-3.057986
-6.193382
-4.616849
-4.080945
-5.421865
-3.521401
-0.448344
4.274499
4.215534
-0.252472
-4.182499
-4.205097
5.201362
12.206266
10.853656
4.727292
-0.852781
0.033030
1.917389
4.244911
10.539090
14.816431
10.150222
2.090405
-2.562556
-3.765799
-1.864035
-3.078708
-6.485562
-4.592631
-0.307757
4.228053
4.301310
-4.579374
-13.407325
-19.926459
-20.393260
-12.234207
-8.396653
-6.340068
-3.556653
-3.939029
-4.601954
-6.049379
-4.406605
1.454541
9.700357
10.111312
-0.770884
-8.064646
-11.046260
-16.537232
-20.514796
-16.069905
-9.280868
-5.919469
-4.617510
-6.387307
-7.233628
-4.173820
1.488604
4.464767
0.826719
-5.092350
-7.234654
-4.283169
-1.178680
-0.150517
1.910744
4.965357
7.136500
8.227787
4.297241
-5.651869
-10.607459
-5.814219
1.716975
4.670798
1.951030
0.126682
2.384067
6.899875
12.477354
18.280312
17.810914
4.627434
-11.816653
-18.004582
-16.677166
-12.395928
-5.514674
1.779871
11.070733
15.089605
10.550942
6.449988
4.225597
2.809345
4.802286
12.889643
19.778431
21.703573
21.731371
16.059600
10.317432
4.371087
-5.487883
-8.853694
-7.428864
-4.074219
3.662451
6.166096
-3.729241
-17.207817
-21.650106
-14.905230
-0.967120
8.481161
9.787017
8.654950
4.944947
-1.820187
-12.435341
-15.489690
-9.349294
-6.420668
-1.562226
8.268433
14.445457
13.430026
9.730933
3.685876
-1.826137
-2.859232
-4.365624
2.024669
13.998933
16.744942
13.521484
6.404105
-0.697948
-0.656643
0.731559
-4.246371
-9.766957
-11.374399
-8.018455
-0.098908
1.119926
-6.557513
-16.247114
-17.206695
-6.515424
1.823128
0.462466
-7.781786
-16.923277
-19.968794
-14.721480
-4.482985
3.482022
2.020569
-4.731057
-7.474463
-7.468227
-5.391900
-1.359780
-3.146721
-6.009102
-4.513356
-1.601875
4.273818
6.106483
1.010358
-3.133198
1.977479
18.725498
31.460882
32.836616
30.061257
24.661464
21.686863
26.054863
41.116729
54.586218
42.465448
17.369531
4.627397
0.980258
3.894077
20.167241
35.530957
35.167024
22.211361
6.868171
-7.228653
-21.493806
-19.769724
-1.944967
12.732702
10.623909
-6.904190
-15.952424
-8.356548
-5.738085
-11.784701
-12.671806
-9.445746
4.726155
20.488875
26.467176
27.302072
24.201485
33.916028
37.991009
20.264189
2.834802
-8.868260
-1.082494
22.535089
30.993134
27.569655
21.807745
13.706625
4.321212
-10.102919
-16.176811
-9.454015
1.723541
12.505211
12.707053
6.966704
5.118717
5.076637
3.543489
-5.580598
-18.600164
-18.451574
-13.418049
-18.955260
-23.635237
-16.681767
-7.054246
-5.609934
-9.193430
-11.487699
-9.885967
-5.769942
0.525795
10.528681
8.718101
-7.885743
-11.218044
2.589143
12.196662
3.342214
-10.238191
-4.750331
11.196304
21.523380
16.072412
0.709480
-10.499244
-6.572590
16.891469
30.658132
24.273039
7.324223
-9.820717
-14.669284
-15.150372
-3.313784
19.125231
26.269111
12.373607
1.404909
2.911565
3.343301
13.866242
29.077735
35.352691
35.876645
27.921254
18.787816
3.011333
-14.993959
-15.976139
-13.556139
-9.975755
-4.973142
-14.560655
-23.215860
-18.397163
-10.194469
-9.028628
-14.761444
-21.772059
-26.295655
-21.419030
-16.416417
-25.353471
-41.012798
-42.258383
-37.656592
-40.926809
-41.055651
-40.391422
-40.791463
-49.032598
-58.099795
-48.381096
-34.235431
-29.087608
-28.990972
-24.348917
-14.243164
-12.597532
-17.787433
-15.701754
-9.027794
1.960131
5.945493
-9.253007
-8.690867
11.663511
28.270996
37.868904
38.412080
40.663231
44.441558
45.471280
49.474826
53.298092
43.239101
29.142797
27.635106
30.479047
38.676286
41.321245
30.974951
15.061310
-5.839095
-19.518731
-32.125266
-44.696993
-47.444036
-57.380157
-66.497490
-63.517430
-60.821037
-60.438396
-66.794655
-75.848864
-85.716926
-92.776377
-92.909635
-95.767600
-89.951654
-74.576248
-62.442226
-55.107677
-50.653174
-44.303145
-39.047778
-35.272049
-30.349185
-25.277994
-24.599218
-23.138021
-8.906373
3.253106
0.902987
-2.083562
2.516930
13.132088
17.953123
12.434616
7.553319
2.100793
4.854594
14.650445
11.615838
3.348726
-5.015279
-6.719874
9.381323
27.615475
34.344506
31.798782
25.816849
17.401929
8.468512
6.275294
12.977568
19.867395
18.295282
17.473118
26.444206
36.207585
34.377003
29.256979
36.213566
48.110940
55.959050
59.114453
63.217230
67.295069
59.304091
52.348027
54.633208
50.076881
42.911444
40.078158
42.900539
52.441037
55.050668
54.331113
53.452061
49.153423
50.665534
50.998040
42.899517
26.390748
5.673219
-9.229404
-17.654715
-15.929075
-8.470096
-10.008699
-18.881330
-32.852686
-48.333553
-59.494220
-62.862629
-55.240256
-42.109246
-27.065044
-18.585697
-25.311346
-45.551422
-61.839388
-58.478768
-47.101970
-40.794283
-32.056987
-24.774131
-29.874152
-33.006951
-33.483104
-25.357041
-7.914662
0.595337
1.411011
-15.507672
-30.329248
-26.976681
-22.254877
-8.296246
1.401153
-1.638130
-6.942329
-9.964727
-2.247279
0.245976
-1.483557
8.567905
16.503298
11.092594
-8.794976
-20.444267
-5.781144
1.248697
-5.242901
-1.682520
7.092963
13.413638
14.256327
18.789280
29.763957
33.535010
26.011094
13.946955
4.818452
-0.157141
2.721870
10.546601
19.776937
34.355115
48.596634
62.835555
69.949042
51.410187
26.227247
12.816731
8.578100
22.331255
34.699327
29.458252
23.341499
22.339836
30.706183
39.977563
37.664591
32.531060
30.132365
30.077556
31.776960
35.760763
37.725650
33.865760
28.497658
29.062916
40.165659
48.697998
52.853248
51.978092
41.736224
37.486423
33.173239
24.445558
17.113091
9.424482
10.303020
20.426178
31.643219
32.379663
23.625226
15.809072
2.804312
-8.819521
-9.129682
-5.928040
-3.244635
-5.064567
-5.914265
1.064142
2.182186
-6.061028
-15.414229
-21.791010
-19.563758
-14.861437
-14.832600
-18.689113
-27.455499
-38.027791
-39.771351
-30.656872
-25.723877
-24.352040
-21.896452
-26.152487
-33.872268
-41.958582
-45.735086
-38.661343
-32.627452
-34.163977
-30.262520
-17.504796
-5.473123
-1.315015
-5.945896
-19.320565
-30.876339
-30.877376
-26.458721
-22.020844
-22.461148
-28.406974
-33.125396
-31.257143
-25.417298
-22.067329
-18.032352
-12.399542
-9.096331
-11.548538
-18.766187
-26.120994
-27.769479
-20.882510
-7.712794
3.949749
4.611121
-2.626531
-8.034637
-4.045639
2.667546
5.824507
10.296674
11.414718
8.336470
3.255152
-3.345030
-6.533159
-7.245960
-7.581838
-7.884206
-12.681078
-20.233568
-24.019164
-24.138655
-21.865684
-21.771386
-23.163739
-21.584868
-21.532133
-23.351545
-19.679983
-10.121560
-6.658592
-12.890682
-19.196546
-18.714415
-15.545763
-17.257112
-13.463719
1.689065
13.309526
16.837956
16.107231
8.332379
-9.311316
-24.772700
-23.089922
-13.903746
-9.311047
-9.379364
-16.017991
-29.097563
-39.426713
-41.628244
-34.329283
-16.889501
-9.297782
-14.607955
-10.944446
-4.455181
-8.426771
-16.878578
-20.338685
-18.689676
-13.112976
-0.060155
12.979678
17.459637
12.470017
11.225471
24.123470
37.509314
45.682654
44.221461
32.544116
21.426571
16.379542
18.204933
19.427144
20.703645
20.293214
16.216159
18.376131
28.883746
42.818219
50.478518
46.408476
35.646293
29.626174
31.924862
34.566704
37.901347
37.995385
30.855147
27.132674
25.620827
18.950509
11.014341
5.202296
2.091837
0.424649
-4.674074
-5.799386
-0.383743
0.335297
1.565300
1.079017
-2.803472
-3.211306
-7.619565
-13.006111
-18.480198
-21.844190
-12.432796
-3.142714
-1.838677
-1.544357
-3.606653
-7.400821
-10.715457
-12.855163
-18.237293
-26.488819
-27.444503
-21.585435
-14.617158
-11.685156
-13.556002
-12.855406
-9.396334
-6.634479
-6.507970
-5.987653
3.508945
9.953530
7.758753
7.981376
7.196879
6.532655
6.129497
4.180201
1.427702
-2.075006
-0.585235
1.139366
-2.221249
-5.926317
-8.734146
-16.346903
-26.028451
-27.594330
-18.997828
-6.188929
4.628329
13.983094
14.425481
4.676652
-4.464579
-13.834925
-22.632483
-24.472937
-15.082064
-9.002454
-12.320987
-14.043246
-15.521843
-10.400776
-2.897377
0.588451
-2.900750
-14.613163
-19.572650
-17.309810
-10.559738
-2.018567
0.530278
-5.562576
-11.034066
-5.854291
2.493093
11.470156
16.986849
12.303495
4.520331
1.187251
7.482989
16.260029
8.912236
-6.527848
-6.969451
0.602007
-7.047117
-19.016441
-12.995279
-3.890151
-1.402092
0.620204
5.905704
12.954769
6.520060
-9.916494
-16.366010
-11.987100
-4.928164
1.190152
-7.449727
-23.483900
-25.809600
-19.997550
-7.403999
1.063918
-4.132477
-3.291087
0.753242
-1.078899
0.072395
3.474578
8.117152
11.056428
7.797122
5.374529
2.804647
-4.217917
-10.999156
-9.795649
5.970447
24.543856
39.589616
50.800423
53.838151
52.725048
37.482128
9.496553
-5.329699
1.146057
13.999376
23.426097
29.869382
30.135127
14.637635
7.366213
36.651672
59.763486
51.962917
37.316165
23.056467
10.533577
-6.241195
-21.073681
-31.872231
-44.277446
-41.395839
-27.283944
-13.903816
-16.958424
-22.481868
-3.782212
6.151056
-14.954826
-50.017519
-54.608395
-42.081864
-22.160000
23.998424
36.994616
25.079323
10.503747
-1.020075
6.355518
12.317453
27.983539
28.146156
12.498518
3.155967
-8.599568
-19.207449
-32.860330
-26.424577
-13.770240
-13.915708
-2.739191
9.539002
-0.808591
-29.022763
-40.103421
-31.106617
-21.229459
-6.704014
2.424753
0.191011
-3.511979
-5.955094
-6.672830
3.040933
14.585801
13.454255
33.899031
69.368006
79.940822
72.193765
52.661298
38.256649
38.146250
33.602911
23.430402
20.962349
18.583137
19.933153
12.890067
-15.976901
-11.351991
7.728225
-10.475010
-20.247217
-6.183380
8.839521
8.169322
-18.192964
-30.476347
-35.984724
-55.196638
-50.973589
-38.182094
-41.207609
-42.592949
-21.842685
3.461050
-1.334263
-24.354375
-32.872942
-22.592884
-23.870161
-21.001282
1.957789
7.442011
1.212519
-3.750345
-11.467788
-16.188808
-9.387043
14.424586
25.018184
11.371019
-11.204370
-24.134057
-8.883859
1.539331
0.415058
-2.694362
-11.120452
10.741878
35.877025
35.912875
25.258755
-4.803665
-19.381319
-15.588185
-14.615612
-5.571010
4.436031
18.279846
18.156458
4.802051
0.289105
-5.158486
-12.317428
-14.719759
-0.771259
11.098319
-0.260810
-16.051841
-14.557913
2.705746
14.459467
9.824950
-3.015376
-3.181106
-2.662867
-2.975885
-3.603482
-17.211682
-20.704000
-20.502418
-5.269625
21.209561
20.340379
9.347782
-3.883495
-16.839937
-10.220009
1.450067
9.634317
15.645869
-0.470910
-22.930183
-30.722439
-28.855485
-25.747100
-23.262677
-17.439198
-13.111462
-3.222874
-5.001763
-25.704225
-33.774952
-24.297317
-11.643760
4.761106
15.281449
8.956622
16.235322
29.033830
33.378970
31.538257
12.713137
6.250113
1.936929
-1.814897
0.599908
-3.986033
7.522727
10.355239
3.733237
6.920332
10.072878
24.493896
41.544286
41.040858
42.754029
57.695103
38.193028
0.669554
-7.588206
-3.423085
-0.606160
2.442479
9.739882
10.824155
6.725799
7.874495
14.296220
11.680619
-3.163817
1.712808
12.361737
11.119529
1.017416
-16.648619
-16.703168
-9.214836
-4.339769
6.797523
25.489646
44.963410
42.853837
32.874335
33.347115
38.147108
41.929591
45.129155
58.178599
79.826361
96.070431
96.752064
89.189443
81.855677
82.812144
85.287475
71.394569
67.316735
81.614623
84.113593
70.735027
62.407649
67.947462
71.328603
75.106670
84.268687
83.961903
76.387333
61.479254
41.181250
32.988172
22.643177
11.949313
19.969390
22.281067
21.949865
27.984016
23.290531
15.899097
15.693883
27.407080
36.598970
20.239048
5.615675
10.135639
10.298776
13.897603
17.022613
14.991230
19.559251
9.754573
-1.495974
-6.476242
-18.436994
-32.084160
-47.581133
-54.807095
-52.621665
-45.435183
-36.136788
-23.177484
-20.682671
-39.450381
-52.533850
-55.301416
-56.643115
-56.888074
-61.272175
-70.756299
-76.475088
-78.936387
-77.444797
-61.651685
-50.959375
-57.465780
-69.567067
-73.401499
-62.399805
-54.442852
-55.502703
-61.282277
-63.138057
-50.792844
-33.674915
-19.916824
-17.856863
-30.875130
-31.708203
-2.330267
23.850705
20.456839
7.583003
-1.672267
-20.155272
-25.495319
-2.662755
14.412052
19.507143
3.962113
-23.428334
-21.483450
3.320233
32.545685
47.666518
39.530329
28.213802
15.659220
6.447072
8.387541
2.244811
-9.792053
-12.344530
-5.223510
12.270303
20.664965
5.039927
-6.959011
-8.402279
-15.623566
-17.242437
-12.665064
-5.973181
4.009443
6.384763
-3.946205
-14.452776
-13.519947
-13.399673
-15.879935
-21.081525
-32.266610
-35.422009
-22.391788
-5.662732
-4.370644
-12.717764
-20.165828
-19.649927
-17.951302
-33.711680
-47.461713
-41.576409
-33.884679
-35.068699
-33.043805
-27.274617
-27.773370
-35.439379
-47.749259
-46.570430
-36.548321
-33.453184
-30.302457
-42.254377
-62.769287
-67.756049
-65.881302
-60.646717
-51.721348
-34.853316
-16.392387
-13.483763
-22.705522
-38.366409
-46.361284
-33.546410
-6.885647
16.566723
19.792004
10.085258
8.927215
19.788373
23.326674
17.122380
21.230871
28.662834
31.396374
32.337515
27.120598
23.192130
25.316774
24.696970
26.278179
24.075609
7.721662
4.148037
5.237246
-3.376916
-7.489559
-1.687900
17.003703
21.546007
20.181708
36.952847
48.744754
40.272166
14.600343
2.600886
12.426609
22.873438
30.307739
25.647504
21.151963
29.003191
41.700909
46.683520
24.836520
1.887065
6.436902
22.786438
25.925216
10.693466
8.925748
21.035611
24.917845
22.078584
9.995481
-0.901262
-0.262231
11.707877
17.449011
18.027516
32.738695
48.335683
59.335558
56.617348
48.480640
46.416786
31.359600
10.737926
-8.558413
-24.165267
-28.456371
-20.269523
-2.265786
14.401446
21.534156
19.205858
17.433724
13.063130
6.491004
0.542581
2.056251
19.026891
32.345974
45.734415
42.490695
21.879671
23.950284
24.154983
15.295860
17.479731
18.755973
5.542620
-18.993497
-22.860400
-5.270473
10.375871
18.416729
12.086447
5.409374
-0.601134
-11.346951
-6.506953
0.052968
-3.267123
-0.528388
-2.083356
-14.607805
-14.015012
1.794725
1.585095
-10.259021
-15.594652
-12.165714
6.393927
26.718432
49.999874
59.092793
35.789794
14.113981
-5.742677
-23.054388
-28.702780
-21.715800
0.996232
15.631039
31.815622
49.031484
35.756306
-0.493007
-25.696208
-28.932395
-32.096626
-29.848852
-21.750844
-24.882604
-33.658082
-41.541776
-36.371354
-16.201411
-4.765386
-4.294944
-3.155340
-15.449894
-30.594362
-35.787899
-33.118262
-12.202786
10.634973
20.533692
12.980162
-1.516185
-7.300695
-7.414731
1.332437
5.108166
-2.887229
-15.675082
-38.050190
-51.152622
-45.630473
-40.004677
-34.510064
-28.158736
-20.285688
-12.577852
-10.555037
-0.633458
7.058012
-1.622650
-7.653680
3.301255
22.208206
25.954062
14.512586
8.367778
9.370224
12.168706
14.916793
14.749505
11.752824
2.230254
-7.850038
-0.098042
17.839715
21.428931
6.587092
-2.887421
11.527103
22.104336
11.751547
-9.639040
-29.081888
-26.130402
-14.938299
-5.513138
0.961061
-19.093540
-43.878256
-41.117959
-29.958067
-20.188453
-8.007674
-6.160721
-13.033139
-21.967335
-33.763395
-41.271205
-40.087700
-33.213979
-24.658780
-21.801590
-26.313497
-26.068794
-25.731873
-32.477784
-34.533065
-36.793823
-36.397675
-27.711293
-26.015526
-22.688676
-3.721199
10.467067
1.771338
-13.134403
-8.997077
3.968721
2.629620
0.998020
9.242796
9.881308
-7.595616
-21.991692
-14.008502
-6.534198
-5.385242
1.324046
12.409125
29.089085
35.486392
16.588537
-6.871361
-7.419210
-0.120508
4.741311
16.364369
18.263274
13.227156
3.424815
-10.141562
-11.839403
-8.881943
-8.417995
-16.644064
-20.458494
-11.741979
-10.045433
-10.403910
-11.665861
-14.983355
-7.137322
-9.191824
-13.084445
-1.931307
-9.040893
-19.653449
-15.929934
-11.405034
-6.148368
-4.251281
0.082689
11.243361
10.885403
-3.532754
-12.716587
-19.046609
-17.076787
-12.290041
-14.510016
-11.417217
-23.608643
-31.206852
-22.189526
-17.958944
-10.903904
-28.149115
-38.069131
-21.278249
-8.917710
3.121236
-7.637050
-21.250965
-19.073069
-22.293669
-31.644273
-37.338644
-31.770776
-14.663237
11.278488
26.267879
23.107804
5.173429
-19.148120
-34.583268
-38.979058
-29.716511
-17.330775
-12.025532
-4.905291
-4.802421
-9.879063
-12.039551
-20.720993
-20.752163
-13.595035
-10.897862
-4.636414
0.957691
10.567547
21.332332
6.941971
-18.144595
-23.866501
-27.311281
-32.536510
-26.362344
-22.380879
-29.039508
-36.646550
-24.822691
-2.709165
6.378039
12.344131
11.956040
8.559836
12.649365
15.158205
18.858602
17.238951
4.838671
-4.959772
-4.526477
4.128992
8.648437
-2.882919
-14.631181
-15.717528
-6.312628
15.649193
30.381154
32.772320
28.645908
27.057170
26.620242
9.296322
-12.203888
-20.015886
-7.612485
4.135002
-0.217148
-7.169834
-7.085148
15.051757
31.642098
21.057856
2.445746
-14.739458
-21.419388
-24.351387
-23.087354
-24.329042
-25.379801
-10.682390
-0.677686
7.670218
9.553538
2.221331
-3.243145
-26.692653
-36.976344
-20.176890
