EVENT_NAME: 202302060117
EVENT_ID: 13194
EVENT_DATE_YYYYMMDD: 2023/02/06
EVENT_TIME_HHMMSS: 01:17:32.00000
EVENT_LATITUDE_DEGREE: 37.288
EVENT_LONGITUDE_DEGREE: 37.043
EVENT_DEPTH_KM: 8.6
HYPOCENTER_REFERENCE: AFAD
MAGNITUDE_W: 7.7
MAGNITUDE_W_REFERENCE: AFAD
MAGNITUDE_L: 
MAGNITUDE_L_REFERENCE: 
FOCAL_MECHANISM: 
NETWORK: TK
STATION_CODE: 3134
STATION_NAME: 
STATION_LATITUDE_DEGREE: 36.82763
STATION_LONGITUDE_DEGREE: 36.20485
STATION_ELEVATION_M: 29.0
LOCATION: Kahramanmaras_Pazarck_Turkiye
SENSOR_DEPTH_M: 
VS30_M/S: 374
SITE_CLASSIFICATION_EC8: B
MORPHOLOGIC_CLASSIFICATION: 
EPICENTRAL_DISTANCE_KM: 90.29
EARTHQUAKE_BACKAZIMUTH_DEGREE: 
DATE_TIME_FIRST_SAMPLE_YYYYMMDD_HHMMSS: 2023/02/06 01:17:25.1268070
DATE_TIME_FIRST_SAMPLE_PRECISION: millisecond
SAMPLING_INTERVAL_S: 0.01
NDATA: 11251
DURATION_S: 
STREAM: HNE
UNITS: cm/s^2
INSTRUMENT: sensor = GMS+/GEOSIG | digitizer = 
INSTRUMENT_ANALOG/DIGITAL: 
INSTRUMENTAL_FREQUENCY_HZ: 
INSTRUMENTAL_DAMPING: 
FULL_SCALE_G: 
N_BIT_DIGITAL_CONVERTER: 
PGA_CM/S^2: 203.909
TIME_PGA_S: 
BASELINE_CORRECTION: BASELINE REMOVED
FILTER_TYPE: BUTTERWORTH
FILTER_ORDER: 
LOW_CUT_FREQUENCY_HZ: 
HIGH_CUT_FREQUENCY_HZ: 
LATE/NORMAL_TRIGGERED: 
DATABASE_VERSION: 
HEADER_FORMAT: DYNA 1.2
DATA_TYPE: Acceleration
PROCESSING: Automatic Paolucci et al., 2011
DATA_TIMESTAMP_YYYYMMDD_HHMMSS: 
DATA_LICENSE: U (unknown license)
DATA_CITATION: Turkish Accelerometric Archive v 1.0 - Disaster And Emergency Management Presidency, Earthquake Department
DATA_CREATOR: AFAD
ORIGINAL_DATA_MEDIATOR_CITATION: : AFAD - Disaster And Emergency Management Presidency
ORIGINAL_DATA_MEDIATOR: AFAD PROCESS SERVICE
ORIGINAL_DATA_CREATOR_CITATION: AFAD PROCESS SERVICE
ORIGINAL_DATA_CREATOR: network: TK
USER1: GuestUser
USER2: 
USER3: 
USER4: 
USER5: 
[...]
46.497784
39.531865
26.241636
13.218968
4.097235
-3.111567
-8.048439
-8.324295
-7.178181
-4.167972
1.043249
0.887666
-6.674680
-15.882396
-23.060286
-27.586205
-28.450955
-25.595048
-22.474699
-20.172618
-14.970488
-9.150110
-7.132215
-4.426714
2.299214
9.610400
15.359082
20.228449
24.198240
23.648589
14.813380
1.672777
-8.997692
-12.189962
-4.263646
7.778173
15.215347
22.578486
32.836739
37.749747
34.242638
28.522566
22.449729
16.557171
14.853891
13.663652
5.201469
-8.124867
-17.028395
-17.436733
-11.704157
-4.993814
-3.069176
-5.245494
-7.911474
-11.029971
-11.726651
-6.833644
-0.981315
0.481715
-0.620982
-2.835486
-6.094517
-9.152227
-13.213941
-15.232580
-11.672183
-8.906676
-12.191943
-19.241508
-26.803074
-27.231414
-15.985783
-0.548537
13.481026
24.422729
30.470403
33.569452
34.217331
32.899286
34.958744
37.100288
31.272153
21.858960
9.877442
-7.451139
-21.191805
-26.837324
-27.258650
-21.494902
-10.891417
-0.916831
6.310969
11.887945
11.861726
0.178161
-21.231374
-41.937717
-49.289651
-41.689603
-31.590328
-26.315463
-23.122638
-18.624999
-7.764604
7.316500
16.175643
16.955744
13.432010
6.198790
-2.005963
-4.580245
0.126507
7.791497
15.615984
20.909813
19.342390
11.565216
1.791206
-9.846639
-17.222991
-14.594122
-13.984430
-17.556740
-9.903700
9.267710
25.922488
32.459566
30.994752
24.101828
13.250560
3.779959
0.933439
2.583503
1.581076
-4.491761
-12.868739
-19.045743
-21.489103
-21.921339
-19.813305
-16.251089
-13.855492
-14.408780
-14.165360
-3.694617
15.776306
31.444745
36.195658
32.590876
22.106661
5.805721
-9.237421
-18.769847
-25.368974
-27.868444
-22.601112
-12.501577
-0.182585
14.315860
25.615262
27.700177
21.692802
13.598711
8.037097
6.681906
8.168835
9.605629
10.986053
13.461659
13.234899
7.677182
5.499565
14.015815
26.304154
32.389755
32.089740
28.622376
22.045069
14.147103
6.588134
1.286288
-5.124507
-17.765835
-29.732547
-36.465194
-36.750142
-29.706257
-24.009529
-21.699655
-14.152860
0.013602
14.587119
23.778765
19.461700
2.228973
-10.899421
-12.753626
-10.566363
-5.780381
0.840861
1.013884
-5.412497
-7.220464
-2.834005
2.639063
9.545790
14.238255
12.372620
6.788926
-0.508457
-7.633614
-8.753975
-4.101514
-2.716933
-4.992742
-3.186039
1.473176
5.845607
10.951104
12.165537
4.341604
-4.109928
-5.274709
-3.774272
1.143931
7.060423
2.859994
-5.713889
-8.590022
-9.395025
-7.396872
-0.528071
4.460010
6.296847
8.185377
7.254386
3.137342
3.774311
11.074326
17.205906
15.412746
6.062417
-1.085859
-2.055036
-3.651032
-4.647484
-0.090098
5.520907
10.062707
15.387187
16.374583
11.232494
4.275667
-2.424249
-6.188788
-5.135931
-3.562500
-6.179644
-8.835493
-6.948781
-3.741669
-4.887228
-11.673907
-16.570255
-17.525664
-19.625610
-15.736347
-2.057210
9.417276
13.990768
17.549606
19.257598
16.066626
13.039049
11.187440
7.050134
1.913501
-1.977805
-3.499248
-3.045156
3.866766
17.359130
21.870537
12.218098
2.666969
1.147084
1.289455
-0.685803
1.308193
8.294150
11.043811
6.261241
-0.565442
-6.116665
-6.179511
2.429995
12.806961
18.015326
19.901778
19.701775
12.986791
-1.873735
-19.821862
-31.344110
-29.980311
-21.778121
-14.681504
-8.380296
-4.070469
-2.680952
-1.285461
-2.124234
-3.601257
-0.797564
1.550495
3.019241
7.563639
11.472644
13.738357
16.861305
18.312906
13.495527
1.603110
-13.583425
-27.943378
-38.440063
-44.759160
-49.336773
-49.447416
-40.179398
-26.459478
-16.646468
-9.005376
-0.418470
4.502591
4.685745
4.500288
6.270105
8.816108
7.279598
2.031265
-0.759405
-1.619998
-2.834396
-3.329236
-4.915881
-5.143160
-0.908146
1.601490
-0.317918
-0.884714
4.622384
11.173229
12.467410
12.718623
18.098694
27.382818
30.178977
21.923830
10.892543
4.378620
4.448775
4.052647
-3.223435
-7.707012
-0.117615
12.704548
19.037188
18.659762
17.495760
16.514115
16.210983
13.901404
7.461515
0.722374
-7.027006
-13.314411
-12.386762
-8.340339
-7.077590
-8.132230
-7.958168
-10.409061
-18.769154
-20.071093
-5.912165
8.105709
9.670049
1.738832
-13.632917
-23.547462
-19.996936
-14.907285
-12.059172
-11.774189
-17.981326
-26.145814
-31.378822
-32.132910
-23.505480
-7.408424
2.611102
2.061711
2.470863
9.009239
12.425724
9.571412
11.276027
21.413228
26.407284
13.430075
-7.711899
-16.057185
-14.257236
-17.533671
-21.132738
-12.782480
1.605823
5.632503
-2.456653
-10.408651
-11.397050
-7.488564
-3.869720
-0.345431
6.112158
7.825864
3.970926
4.155898
7.998663
13.433545
16.626110
10.961629
2.703884
-0.956488
-3.174110
-2.895361
1.007930
-0.013980
-7.053933
-5.251645
8.354497
15.474753
10.496578
6.360831
6.883761
3.537708
-9.277925
-24.545767
-25.124512
-11.301464
-3.395929
-5.866824
-10.667577
-13.831793
-9.393380
2.866384
11.205472
10.616596
9.577282
9.697832
4.944356
-4.269335
-11.829083
-12.425233
-4.207197
6.061706
7.356926
2.979855
2.874147
8.650104
14.688947
14.914962
14.957322
21.907690
27.297373
19.210036
1.441408
-12.199248
-15.120581
-9.261497
2.323390
15.629500
21.544693
15.674735
7.256454
1.529108
-7.007368
-14.523995
-12.067871
-4.077133
0.768076
-0.694919
0.205194
13.351547
27.709977
32.796250
35.516818
38.139192
31.414078
16.338205
2.904584
-4.025747
-3.674263
-0.835762
4.413386
12.316324
14.910124
10.069626
3.437249
-4.189779
-12.733269
-12.245927
-7.005091
-8.140000
-8.297401
-9.466859
-17.789286
-19.460615
-11.260504
-7.536453
-7.043656
-2.978530
0.854104
4.409045
5.621660
0.801683
-6.366075
-12.177845
-10.332956
-0.603071
4.040298
-1.537940
-7.928993
-9.138974
-4.750957
4.373928
8.877543
-1.014402
-22.133777
-36.275005
-38.937349
-43.736804
-44.660001
-35.207029
-21.608420
-6.260534
3.387524
3.046726
-3.261721
-5.231523
5.798760
21.286661
28.483289
21.459442
8.708231
0.499323
-5.643392
-4.233614
8.582314
19.958349
18.990211
15.668057
18.499285
14.116758
3.147036
-0.145765
-2.003088
-12.598744
-18.730808
-7.332433
8.161702
10.574963
2.276435
-3.459223
-1.141296
4.493867
11.203430
19.377045
20.903459
11.553650
0.856165
-9.766767
-25.071496
-30.522968
-17.659243
-6.278013
-1.000810
3.904405
5.984644
12.293126
17.748530
11.356178
4.126595
10.787841
19.961303
18.735996
17.215591
13.122186
2.310403
-0.378697
7.035097
12.371008
12.821983
11.267289
6.259761
-2.633896
-10.998666
-12.417760
-9.965533
-12.203157
-15.347630
-15.848704
-14.210330
-9.637878
-8.548913
-11.849766
-9.551582
0.843569
2.904065
-7.006323
-9.047821
-4.268074
-6.096823
-9.522105
-1.480971
13.155151
21.857913
25.074637
16.416849
0.501406
-5.831199
-10.246457
-11.442411
4.109913
16.164721
5.939234
-6.898480
-8.751127
-8.267941
-10.213325
-15.209944
-18.561452
-18.538315
-21.058046
-23.534136
-15.897721
3.235243
17.229738
14.924835
5.482549
2.377041
7.026644
15.728368
29.525179
38.684354
32.489167
17.908671
5.820388
1.967787
4.992543
5.679906
9.153800
12.793946
-2.238027
-14.679594
-5.005559
0.324896
-6.285401
-6.286941
-3.352585
-5.587351
-9.314744
-15.240812
-12.855085
1.743370
7.201372
0.264287
-8.819520
-16.741385
-17.110238
-16.467035
-15.571338
-3.101940
11.440146
15.896482
8.623777
-5.142087
-14.207970
-12.306191
-3.901642
1.929646
0.492108
-11.587083
-21.046514
-16.051160
-10.860979
-7.246810
2.041989
5.164417
-7.867862
-24.401294
-24.321008
-10.717723
-4.280397
-7.080418
-1.779576
6.006985
1.995926
-0.442757
-2.465293
-11.477144
-10.512088
1.500377
9.086917
14.056035
31.703127
47.808236
38.889642
19.412780
7.254360
2.206308
-1.016615
-3.657139
-8.187214
-11.597170
-5.616255
-1.244084
-5.004726
-7.540563
-2.085419
6.636047
11.983906
11.548813
3.498363
-4.344533
-15.605455
-27.742054
-22.731113
-10.186643
-8.772449
-12.784287
-7.863745
2.227996
7.145161
5.098987
2.340789
5.257480
12.860905
25.466941
36.406045
34.220895
25.920288
25.884458
28.962726
25.642649
14.731375
7.201240
14.274219
14.548292
-4.881552
-16.290801
-5.625232
6.197862
7.363978
-0.623868
-9.492587
-6.536670
4.295410
20.574824
34.196812
31.676561
19.453199
14.349296
24.932519
37.739615
39.634120
33.565959
27.920180
25.190816
16.034274
10.072878
27.138609
48.602990
49.600257
38.554423
29.107980
22.067768
20.113032
23.734734
19.782642
5.681677
-2.714524
-1.072513
2.549968
12.041906
28.645769
38.645553
41.265850
39.226949
24.674248
14.460191
23.155420
27.207298
18.883312
14.963692
20.896029
27.868478
25.682808
17.275177
13.734818
17.923074
16.287592
-0.248177
-19.439294
-24.976749
-18.261471
-10.400616
-5.691006
-6.231565
-6.416503
-4.148971
-4.830065
-3.465226
-3.037111
-6.394594
-2.328689
4.927946
1.416940
-10.744337
-13.408759
-0.834675
5.316387
-0.137683
-1.591846
-2.353987
-8.785304
-13.993374
-11.266832
-2.441719
1.223105
-2.292317
-4.327061
-4.123126
-7.111738
-13.747232
-17.867654
-14.811207
-2.840823
11.604369
16.873259
12.928441
5.460131
-8.162341
-24.311056
-25.644167
-20.729600
-28.462354
-34.460378
-33.872765
-42.997356
-55.570106
-53.125932
-42.361911
-42.519572
-47.999359
-39.573249
-17.574785
-1.502926
1.228032
3.750656
8.439485
6.891026
3.538478
4.772653
10.562379
19.206174
24.614560
26.731166
28.074963
23.411887
8.437323
-10.856922
-14.406633
4.088081
23.017388
22.709580
7.730600
0.986003
10.429364
17.741070
16.679156
27.181331
45.836842
45.963366
32.554424
24.734647
20.752163
15.683849
10.145614
7.312863
9.216200
10.450894
12.698424
15.236634
11.741474
11.095189
20.494130
30.654710
35.773455
39.253583
36.876464
36.907135
51.059049
59.765968
52.000743
47.997477
56.183042
59.946577
50.924595
39.192974
35.082164
26.818184
7.726039
-5.803956
-21.800706
-43.793161
-49.049547
-36.756012
-27.477604
-34.009451
-45.973824
-50.882122
-52.703077
-51.533584
-35.713700
-9.976916
2.676397
1.523825
6.727773
11.973025
4.446526
2.789225
5.889053
2.296740
2.818372
5.089280
6.033554
4.838640
-2.380813
-4.592459
2.523381
9.690396
18.231323
27.003184
19.520846
-1.576708
-16.878060
-27.819467
-41.905365
-51.311284
-54.985424
-62.830138
-72.034737
-72.201750
-66.177715
-58.461031
-42.421643
-24.701816
-13.470213
5.621448
33.243109
54.068461
57.948892
49.418131
49.514522
53.002704
51.611144
64.465258
86.141350
90.018145
69.112299
38.609069
16.477379
7.810759
5.779392
2.518543
0.802533
5.042223
18.048041
37.214256
40.144456
29.539967
33.041397
33.967227
4.280707
-26.158621
-15.021054
16.204887
31.029081
25.004820
3.012885
-13.425211
-7.038280
8.622367
9.532092
-2.705558
-4.298956
9.331864
25.311765
30.326862
29.999832
43.619222
53.012188
34.162406
7.624013
-0.570349
7.184521
10.627502
-1.973043
-15.416015
-8.135742
11.345312
21.971136
26.419939
27.239525
10.459314
-15.339260
-20.574605
0.577275
15.225346
-9.128398
-47.646509
-51.746668
-25.929615
-6.920820
-4.900068
-4.143866
-1.617605
-12.616421
-24.356615
-19.283070
-6.259068
14.417697
25.673978
11.395333
1.954864
9.358528
6.567599
-9.989731
-24.335657
-37.001404
-37.986686
-16.455804
-3.629486
-19.698192
-35.142157
-32.785005
-28.932110
-38.118265
-50.338250
-35.404175
-1.772264
11.293041
12.179387
21.716265
22.751457
7.762606
-9.604940
-19.689893
-21.951155
-23.642746
-27.594058
-32.170372
-33.170201
-21.022396
-2.462480
4.776490
22.058868
63.962309
84.325274
43.532636
-14.183882
-15.081363
20.218258
43.740261
48.659244
26.903438
18.644914
55.887339
63.986142
19.153593
7.939429
26.876788
13.596690
-4.968646
3.415901
19.472693
28.678107
33.333425
30.779405
15.081127
1.438134
10.471061
25.690102
17.596790
4.674393
10.362029
13.530956
15.968376
31.743840
39.915377
34.080487
36.470630
48.466470
42.103992
23.051851
7.795958
-6.867924
-3.830180
9.499309
-8.259447
-49.521486
-63.698043
-48.091948
-35.233938
-31.604962
-33.498133
-46.115304
-60.420446
-70.507476
-90.883914
-101.037446
-81.303638
-63.044533
-65.809485
-64.096558
-47.377098
-30.286948
-3.342763
29.263844
35.688442
6.611337
-8.282958
16.292663
25.144793
26.988383
58.822960
71.128963
28.674330
-9.731041
5.553461
18.513041
13.890488
37.528608
50.473121
29.086965
14.073176
9.052399
-4.400705
-8.999878
17.797279
47.033137
57.200471
60.906858
61.526941
70.400372
95.211603
121.093338
120.460820
88.617187
65.405382
58.173980
36.346219
11.944677
13.125080
22.143720
12.030453
-1.831525
3.416324
20.314505
27.156031
27.330352
35.977785
44.649115
58.087967
85.593511
105.333033
103.556498
87.738727
66.299578
54.169213
56.792367
52.946781
37.721541
27.690100
15.562333
-5.977606
-22.214382
-31.629393
-48.314269
-69.471829
-74.048663
-64.901437
-69.941956
-83.878748
-75.888009
-50.302409
-31.097230
-12.872934
14.897574
44.790905
70.578863
83.772494
78.105155
60.477581
56.359238
76.360346
77.010044
41.041036
19.813338
22.779906
10.483809
1.575345
17.112082
14.933686
-16.956186
-36.985314
-24.338236
-7.557730
-10.374635
-6.126893
11.956090
21.398412
28.051345
22.952119
-10.334785
-52.452240
-71.794801
-60.781923
-42.796353
-30.143300
-19.760878
-17.459836
-34.003398
-63.960337
-80.187502
-68.901348
-45.032814
-22.395581
-3.241315
-1.128346
-19.047379
-37.586219
-52.041247
-66.444841
-77.850454
-88.806928
-107.879591
-134.463703
-158.692239
-171.389678
-174.620394
-181.194063
-195.565186
-203.909434
-193.263088
-178.546438
-177.767636
-183.474980
-181.114191
-172.258165
-161.974196
-152.752157
-152.431845
-150.932967
-144.750473
-136.093429
-103.462404
-28.832361
74.529833
148.821918
173.631071
176.105638
158.203230
126.993170
88.897183
52.315383
38.281438
45.039838
53.072659
50.156782
46.269632
43.548581
31.336389
19.559568
20.312912
39.213384
74.416631
106.002091
125.564451
137.728102
152.660099
171.193779
170.468784
152.825365
146.153503
153.661333
145.456061
109.317425
74.478668
65.324723
83.774758
103.751189
101.747356
91.488100
83.583639
85.687257
96.492582
103.708952
113.565864
116.272663
96.711377
49.888226
-14.435230
-58.701225
-75.585083
-74.644446
-48.708420
-6.855373
20.702384
18.300588
14.365641
26.299916
45.876045
68.332739
81.784839
93.699112
102.149640
86.664113
57.892755
25.802861
-14.466344
-55.876451
-89.410134
-118.257085
-142.258844
-149.243466
-145.422003
-152.117503
-170.120702
-182.317567
-179.380873
-171.821349
-168.130030
-158.007895
-126.407889
-72.914902
-16.747344
22.477110
42.014273
50.504286
58.708814
64.093041
53.397114
38.817397
28.441245
7.220042
-15.992802
-25.408852
-30.474309
-47.430902
-64.149808
-54.806458
-30.204859
-22.983034
-26.862650
-16.710642
-6.268993
-11.039873
-22.929693
-40.212295
-61.544160
-85.315245
-106.433320
-98.336856
-64.719233
-40.359218
-27.530562
-12.808976
3.168068
14.028462
25.823502
20.528151
-16.901272
-39.795641
-39.504943
-45.543490
-43.942523
-35.208328
-35.700571
-32.743615
-25.119928
-14.130169
-0.146584
-0.246577
-13.067406
-28.557869
-27.866349
-6.957611
9.585207
9.577172
-5.914850
-16.147350
-17.205368
-28.666311
-48.625821
-70.362924
-87.119756
-80.804780
-46.384993
-14.215056
0.082588
21.386953
53.674305
66.506598
48.101019
29.857536
33.160502
38.336656
16.399532
-24.266080
-28.903699
12.727505
49.222838
58.341489
57.397510
61.052982
69.796268
74.238318
76.290502
93.661200
118.912479
129.375429
125.273711
117.833196
105.934544
75.730825
23.060039
-29.406050
-54.264004
-64.294146
-87.032394
-112.675367
-115.038978
-100.354019
-93.767586
-95.172653
-85.443028
-54.555305
-25.484140
-22.555499
-34.493636
-46.277470
-69.577596
-107.322637
-129.566287
-121.213432
-85.628846
-44.542894
-15.834884
2.740098
0.944600
-12.550326
-26.217218
-46.710812
-76.365381
-90.695460
-62.360217
-22.827418
0.208819
16.211060
23.055183
21.645700
16.498676
7.658791
14.075596
48.631241
78.635753
71.144324
48.209691
34.271601
17.079138
-7.302142
-28.180192
-39.332790
-33.676066
-12.726805
6.530069
24.372246
51.945590
76.244818
77.229097
49.900230
9.830006
-22.246899
-39.650552
-57.064857
-74.109771
-63.858013
-37.791323
-17.003897
-6.445092
-6.576258
1.836864
13.940508
3.346410
-38.158252
-89.496948
-121.899082
-128.906564
-119.701930
-108.204065
-101.745957
-99.788588
-94.004058
-80.009043
-66.918801
-61.975399
-53.139636
-21.083737
19.065492
29.799639
5.019875
-18.658473
-28.129334
-43.620317
-53.463425
-46.084960
-28.517617
-1.780466
12.914363
-6.500674
-34.243091
-37.484198
-24.256018
-16.464521
-24.169480
-35.562364
-40.236610
-56.611583
-82.829163
-80.096387
-48.570155
-23.265624
-24.970723
-49.269137
-61.962939
-52.544256
-46.040689
-50.590766
-49.657662
-33.990521
-21.721145
-27.726702
-31.179520
-11.587286
11.353876
7.845728
-23.043258
-53.263862
-64.720648
-73.274009
-83.632497
-72.740411
-41.575256
-12.718919
7.780165
15.548543
14.565079
19.717074
13.548123
-15.196999
-41.464194
-55.599708
-63.401040
-67.232340
-64.113029
-52.071469
-40.809473
-34.785697
-28.066523
-22.257575
-20.792726
-19.804031
-19.590744
-14.778266
-3.517049
5.259487
7.834844
5.790748
5.041335
-9.065344
-41.472414
-59.777463
-56.463326
-49.947549
-45.320286
-40.493520
-31.278236
-16.935652
-4.421574
3.150419
8.354107
9.116544
-3.720130
-8.659859
11.070831
22.291784
19.353047
15.636305
17.785902
26.676217
25.277644
14.376761
-5.100621
-27.060084
-46.565001
-50.104321
-19.217638
17.595391
36.846550
32.539615
19.458759
11.166205
-7.392117
-44.639962
-72.756445
-48.754391
-9.455383
9.318582
11.888743
-1.089764
-12.341854
-32.159271
-53.942093
-56.822642
-46.878968
-39.319184
-35.851265
-17.218354
7.636519
19.327911
26.766383
45.595679
72.412578
93.023362
87.603322
58.127993
29.767848
12.988416
-10.673307
-60.527170
-87.999169
-81.272721
-81.680019
-63.645873
-13.032933
25.531191
32.355053
43.345591
53.168733
39.347279
21.672427
12.919045
27.147331
23.593723
-18.185254
-41.093909
-51.591893
-64.421813
-59.199681
-40.949148
-17.272323
6.461650
14.602795
6.450515
-0.254856
-18.479117
-44.649938
-51.133728
-51.335550
-52.077170
-57.759576
-66.445418
-55.526575
-29.503787
-7.945889
-9.534872
-26.821630
-38.013973
-39.589448
-39.273812
-46.970718
-45.442226
-13.357753
44.043183
89.477390
89.225432
78.938900
89.361846
87.158772
66.687259
63.114688
72.541424
73.208785
66.898780
63.691703
68.974361
78.920633
88.126566
89.138899
83.905372
77.475614
71.440184
61.915291
52.094523
67.054575
98.060752
112.664402
106.430769
89.388452
75.246185
75.306988
82.259175
79.978430
71.600412
79.709605
99.033759
102.519083
93.286429
97.040872
117.456570
119.756054
100.649621
88.065181
79.358298
56.822409
31.257886
34.606052
44.075390
30.698139
21.755386
35.813264
54.349542
48.750002
26.497260
22.124604
37.975661
37.371198
12.556885
-2.649911
-8.119307
-28.517306
-61.060235
-85.245130
-98.287541
-106.259281
-94.528923
-51.490816
-3.151105
17.901544
13.991535
-8.443824
-32.427399
-35.233914
-27.559832
-14.175013
-7.908094
-20.997003
-29.947029
-34.139666
