EVENT_NAME: 202302060117
EVENT_ID: 13194
EVENT_DATE_YYYYMMDD: 2023/02/06
EVENT_TIME_HHMMSS: 01:17:32.00000
EVENT_LATITUDE_DEGREE: 37.288
EVENT_LONGITUDE_DEGREE: 37.043
EVENT_DEPTH_KM: 8.6
HYPOCENTER_REFERENCE: AFAD
MAGNITUDE_W: 7.7
MAGNITUDE_W_REFERENCE: AFAD
MAGNITUDE_L: 
MAGNITUDE_L_REFERENCE: 
FOCAL_MECHANISM: 
NETWORK: TK
STATION_CODE: 2412
STATION_NAME: 
STATION_LATITUDE_DEGREE: 39.59168
STATION_LONGITUDE_DEGREE: 39.69179
STATION_ELEVATION_M: 1238.0
LOCATION: Kahramanmaras_Pazarck_Turkiye
SENSOR_DEPTH_M: 
VS30_M/S: 955
SITE_CLASSIFICATION_EC8: A
MORPHOLOGIC_CLASSIFICATION: 
EPICENTRAL_DISTANCE_KM: 344.69
EARTHQUAKE_BACKAZIMUTH_DEGREE: 
DATE_TIME_FIRST_SAMPLE_YYYYMMDD_HHMMSS: 2023/02/06 01:17:58.6201970
DATE_TIME_FIRST_SAMPLE_PRECISION: millisecond
SAMPLING_INTERVAL_S: 0.01
NDATA: 18251
DURATION_S: 
STREAM: HNE
UNITS: cm/s^2
INSTRUMENT: sensor = ACEBOX/SARA | digitizer = 
INSTRUMENT_ANALOG/DIGITAL: 
INSTRUMENTAL_FREQUENCY_HZ: 
INSTRUMENTAL_DAMPING: 
FULL_SCALE_G: 
N_BIT_DIGITAL_CONVERTER: 
PGA_CM/S^2: 8.822
TIME_PGA_S: 
BASELINE_CORRECTION: BASELINE REMOVED
FILTER_TYPE: BUTTERWORTH
FILTER_ORDER: 
LOW_CUT_FREQUENCY_HZ: 
HIGH_CUT_FREQUENCY_HZ: 
LATE/NORMAL_TRIGGERED: 
DATABASE_VERSION: 
HEADER_FORMAT: DYNA 1.2
DATA_TYPE: Acceleration
PROCESSING: Automatic Paolucci et al., 2011
DATA_TIMESTAMP_YYYYMMDD_HHMMSS: 
DATA_LICENSE: U (unknown license)
DATA_CITATION: Turkish Accelerometric Archive v 1.0 - Disaster And Emergency Management Presidency, Earthquake Department
DATA_CREATOR: AFAD
ORIGINAL_DATA_MEDIATOR_CITATION: : AFAD - Disaster And Emergency Management Presidency
ORIGINAL_DATA_MEDIATOR: AFAD PROCESS SERVICE
ORIGINAL_DATA_CREATOR_CITATION: AFAD PROCESS SERVICE
ORIGINAL_DATA_CREATOR: network: TK
USER1: GuestUser
USER2: 
USER3: 
USER4: 
USER5: 
[...]
-0.689273
-0.727617
-0.632228
-0.397263
-0.354712
-0.520242
-0.791915
-0.872809
-0.577992
-0.415036
-0.514634
-0.574955
-0.572618
-0.522352
-0.527964
-0.574490
-0.509262
-0.450813
-0.385584
-0.277103
-0.341632
-0.411071
-0.307967
-0.276873
-0.283653
-0.297448
-0.457600
-0.563043
-0.615649
-0.757798
-0.740264
-0.597649
-0.638330
-0.758736
-0.780714
-0.681819
-0.473740
-0.405238
-0.494082
-0.484964
-0.542012
-0.692578
-0.776512
-0.921935
-0.978514
-0.846887
-0.759682
-0.843148
-1.054501
-1.110380
-1.098457
-1.233359
-1.263286
-1.259312
-1.299058
-1.427180
-1.797282
-1.914415
-1.801024
-1.870696
-1.833523
-1.776945
-1.812249
-1.821368
-2.014719
-2.223735
-2.252259
-2.079951
-1.741179
-1.605578
-1.637141
-1.613996
-1.496631
-1.175628
-0.901384
-0.845040
-0.785422
-0.520297
-0.174745
-0.207478
-0.487334
-0.594648
-0.549058
-0.368333
-0.273646
-0.347761
-0.351269
-0.332098
-0.249802
-0.178027
-0.219878
-0.118177
-0.044765
-0.154650
-0.238818
-0.308958
-0.314570
-0.306856
-0.429834
-0.599805
-0.632070
-0.339590
-0.139227
-0.303119
-0.308731
-0.117018
0.103686
0.353614
0.488748
0.556081
0.373251
0.084744
0.249804
0.589043
0.715761
0.707109
0.805070
1.261675
1.761065
1.974755
2.026424
2.046763
2.165298
2.398860
2.645282
2.677311
2.362152
2.277283
2.685959
2.830679
2.602960
2.572565
2.715882
2.772694
2.579109
2.488863
2.784148
2.885382
2.997370
3.258287
3.003681
2.825293
2.792794
2.349747
2.234952
2.351616
2.206895
2.031546
1.748885
1.675471
1.871393
1.936388
1.986653
1.888692
1.634086
1.594339
1.668920
1.600416
1.433718
1.266552
1.059641
1.057302
1.201788
1.042104
0.871197
0.706136
0.486366
0.585027
0.353333
-0.115899
-0.204275
-0.692210
-1.347545
-1.593267
-1.831507
-1.637690
-1.133857
-1.094580
-1.163083
-1.298920
-1.754358
-1.742903
-1.109547
-0.638212
-0.232809
0.075569
-0.086921
-0.013743
0.350746
0.270319
0.033949
0.087488
0.262368
0.058963
-0.434583
-0.543768
-0.388059
-0.205698
-0.215752
-0.798610
-1.132473
-0.712808
-0.571595
-1.075896
-1.317643
-0.735957
0.048432
0.174215
-0.303668
-0.575107
-0.257845
0.026919
-0.080161
0.008915
0.487264
0.641803
0.254166
0.031123
0.239669
0.541501
0.541266
0.148252
0.054733
0.298349
0.126507
-0.317942
-0.757950
-1.026116
-1.061420
-1.310415
-1.371904
-1.053473
-1.061891
-1.239110
-1.284701
-1.057918
-0.599910
-0.734812
-1.439010
-1.922270
-1.868965
-1.609918
-1.826649
-2.023507
-1.652706
-1.336379
-1.273488
-1.387582
-1.292427
-0.670293
-0.186100
0.046294
0.052138
-0.375478
-0.783455
-1.166650
-1.485316
-1.479706
-1.342234
-0.928179
-0.420840
-0.142388
0.035297
0.065690
0.160143
0.166455
-0.091424
-0.009596
0.092572
-0.163436
-0.143564
0.071528
0.099350
0.035990
-0.042567
0.042067
0.306023
0.355120
-0.051922
-0.426232
-0.332013
-0.284319
-0.533314
-0.706324
-0.606961
-0.324535
-0.315184
-0.299754
0.081101
0.164098
0.107519
0.111025
0.041119
0.402802
0.663252
0.461016
0.294318
0.092550
-0.169537
-0.445886
-0.238275
0.123175
-0.348863
-0.492181
-0.119743
-0.319641
-0.405679
-0.435606
-0.836569
-0.843116
-0.408020
-0.265638
-0.708685
-1.081592
-1.186568
-1.715184
-2.136254
-1.637097
-1.073647
-1.288273
-1.693445
-1.651596
-1.441179
-1.220709
-0.742361
-0.493134
-0.983407
-1.383435
-1.165771
-0.956757
-0.889190
-0.752653
-0.600686
-0.634587
-1.073893
-1.357490
-1.229370
-1.356088
-1.515539
-1.367546
-1.450779
-1.726193
-1.654651
-1.374797
-1.422492
-1.635249
-1.598777
-1.534483
-1.507364
-1.389063
-1.405663
-1.670089
-2.117578
-2.445128
-2.144466
-1.556467
-1.584289
-1.848247
-1.615152
-1.297188
-1.049130
-0.868172
-0.828427
-0.456924
-0.116984
-0.225934
-0.168187
0.033579
-0.188529
-0.421625
-0.080048
-0.168425
-0.881975
-0.768584
-0.484755
-0.821423
-0.907462
-0.995838
-1.143598
-0.893436
-0.683954
-0.805530
-1.323859
-1.784440
-1.719446
-1.564439
-1.341397
-1.137526
-1.475131
-1.819515
-1.805488
-1.860664
-1.671056
-1.239233
-1.250456
-1.561641
-1.960500
-2.427861
-2.555749
-2.197105
-1.581050
-1.294181
-1.588299
-1.924500
-1.923566
-1.462285
-0.954244
-0.875455
-0.813266
-0.680002
-0.713904
-0.767678
-0.632076
-0.158170
0.236012
0.324386
0.353376
0.116305
-0.181787
-0.130352
0.002911
0.090818
0.255411
0.153241
-0.702224
-1.454351
-1.037491
-0.526879
-0.729582
-0.635128
-0.019541
0.405735
0.407371
0.171469
0.063454
0.353362
0.824229
0.929670
0.795002
1.032072
1.316836
1.037448
0.455058
0.095477
0.164447
0.305893
0.265446
0.455756
0.675992
0.579433
0.565872
0.467910
0.242763
0.357556
0.685339
1.243413
1.759169
1.483521
0.543655
-0.291937
-0.097419
1.052162
1.729705
1.274268
0.356846
-0.094851
0.000772
-0.092280
-0.421000
-0.472904
-0.290543
-0.343382
-0.743410
-1.028877
-0.963181
-0.573909
-0.005081
0.071838
-0.289146
-0.121514
0.197852
-0.347832
-0.996620
-0.640314
0.069260
0.241334
0.089833
-0.032911
-0.082711
-0.209664
-0.362568
-0.171322
0.154824
0.290893
0.315909
0.310998
0.397503
0.304918
0.285980
0.862523
1.311647
1.593605
1.817349
1.153597
0.167907
-0.452357
-0.687324
-0.255502
0.424146
1.082986
1.399079
1.051656
0.931249
1.199882
1.629834
2.453735
2.940734
2.737797
2.242146
1.696462
1.518776
1.679160
2.079420
2.585824
2.489733
2.099290
2.146049
2.189067
1.936799
1.654137
1.447226
1.497726
1.903831
2.405559
2.743161
2.738952
2.269253
1.937494
2.220855
2.292396
2.045973
2.148609
1.973494
1.346917
1.163152
1.193545
1.100492
1.518054
2.105585
2.126860
1.979801
1.743197
1.507295
1.814738
2.277655
2.608478
2.856302
2.815621
2.632790
2.493213
2.655935
2.843206
2.491340
1.947994
1.289153
0.748379
0.966511
1.491385
1.705543
1.374251
0.632879
0.066622
-0.182139
-0.291090
-0.227965
0.219522
0.478569
0.060071
0.160837
0.964631
1.368632
1.402532
1.291477
1.129455
0.720543
-0.094475
-0.406829
-0.067824
0.394860
0.857310
0.790677
0.474115
0.653203
0.564125
0.046731
0.609480
1.740123
1.313676
-0.055675
-0.705866
-0.768524
-0.454068
0.128788
0.339438
0.013524
-0.444953
-0.710314
-0.808042
-0.815991
-0.760348
-0.723175
-0.729723
-0.897824
-1.188201
-1.537728
-1.872293
-1.685957
-1.401193
-1.578880
-1.142147
-0.198075
-0.051718
-0.094036
0.334046
0.640553
0.878324
1.280455
1.187403
0.209428
-0.634815
-0.478171
-0.168391
-0.277575
-0.154131
0.215502
0.392018
0.486472
0.644518
0.659246
0.411187
0.245424
0.009054
-0.516523
-0.485195
-0.386534
-1.495902
-2.396724
-2.009323
-1.781605
-1.994829
-1.837718
-1.417819
-0.864188
-0.095930
0.870587
1.506748
1.380263
1.123787
0.723057
-0.032342
-0.607250
-0.770676
-0.138021
0.139028
-0.925919
-1.369667
-0.762263
0.213606
1.144820
0.722815
0.171988
0.501174
0.659220
0.768169
0.147670
-0.989521
-1.042827
-0.834515
-1.097771
-1.123723
-0.760169
-0.646778
-0.662677
0.280694
1.208401
1.108335
0.962444
0.712748
0.510746
0.784756
0.305939
-1.036994
-1.611434
-1.104796
-0.893678
-1.072066
-0.907006
-1.038635
-0.887369
0.280682
0.923623
0.984644
1.059458
0.635583
0.524294
0.424228
-0.260097
0.021394
0.624824
0.713433
1.052438
0.558190
0.015312
0.951435
1.594143
1.592272
2.120419
2.612094
2.318911
1.848744
2.083710
2.793050
3.323301
2.880489
1.617983
0.887599
1.092872
2.085575
2.784862
2.625645
3.151220
3.657625
2.470869
0.936457
0.751288
1.217479
0.917984
0.588563
0.952585
1.424387
1.682265
1.119748
0.608666
1.080001
1.527722
1.752868
1.159489
0.111843
0.954448
2.605055
2.887949
2.618147
2.359098
1.799621
1.219335
0.520748
0.084014
1.023177
1.992734
1.192211
0.037018
-0.159373
-0.148853
-0.467051
-0.474534
-0.112382
-0.152129
-0.032425
0.340013
0.374147
0.540376
0.612384
0.441478
-0.095321
-0.889531
-0.952190
-1.055295
-1.182949
-0.979547
-1.216852
-0.686132
0.115558
0.415986
0.871656
0.444040
0.365951
0.713607
-0.084344
-0.345262
-0.331235
-0.378229
-0.223690
-0.763295
-0.167346
0.577297
-0.515940
-1.355273
-1.258014
-0.543764
0.027636
0.523285
1.663748
1.449822
0.905074
1.126245
0.141958
-0.193308
0.371078
-0.322833
-0.816146
-0.322835
0.312158
0.782324
1.092104
0.960709
0.012193
-0.442777
-0.153805
-0.412151
-0.672135
-0.500528
-0.200801
0.301161
0.452427
0.087936
-0.083438
0.029719
0.014522
0.082556
0.138667
-0.478325
-1.245415
-1.482252
-1.369095
-1.119400
-1.029623
-1.015596
-1.038743
-1.178788
-1.150265
-1.093687
-0.750707
-0.037627
0.513900
0.938242
0.853606
0.781830
1.120835
0.602272
0.461993
1.387362
1.555227
1.810767
2.721406
2.978583
2.453006
1.799074
1.856587
1.645234
0.548490
0.304405
0.316562
-0.141916
0.078087
0.197790
-0.304173
-0.631022
-0.513189
0.061250
0.241039
-0.467601
-1.110311
-1.039939
-0.618403
0.059141
1.067742
1.183003
0.418251
0.212743
0.392064
0.983103
1.496989
1.544215
2.011809
1.577413
1.063759
1.435262
0.403982
0.301578
1.228817
0.195199
-0.013817
0.643620
0.718201
1.353661
1.280248
1.292872
2.288848
2.398030
1.770050
1.152824
1.263176
2.080764
1.760695
0.811945
1.063978
1.381707
0.676808
0.335229
0.825034
1.303850
1.221552
0.636123
0.176945
-0.340449
-0.599498
-0.329462
-0.838674
-1.275174
-0.723179
-0.815296
-1.567189
-2.008365
-1.757502
-0.833068
-0.432340
-0.664969
-0.692090
-0.523757
-0.216315
-0.277804
-0.407329
0.176462
0.071253
-0.749142
-0.834713
-1.046534
-1.232404
-0.534753
-0.147820
-0.044950
0.351570
0.002042
-0.787258
-0.480283
0.205210
0.183699
0.192817
-0.007782
-0.260985
0.446718
0.723767
0.397619
0.639131
1.073993
1.911688
2.508104
2.597882
2.725066
1.779122
1.280198
2.207671
2.576368
2.838922
2.912333
2.733010
3.079263
2.770182
2.560466
2.606757
2.274764
2.877025
2.805716
1.983684
2.518845
2.595764
2.078369
2.227297
1.519359
0.391987
0.245162
0.082205
-0.427007
-0.868417
-1.176562
-1.136116
-1.657952
-2.060318
-1.358226
-1.549940
-1.881699
-1.597870
-2.337138
-2.512721
-2.407980
-3.401152
-3.713038
-3.687555
-4.028198
-3.895402
-3.327509
-2.707714
-2.189620
-1.621961
-1.514415
-1.662409
-1.385126
-1.022274
-0.090125
0.828230
0.725358
0.499743
0.662465
1.310551
1.831450
1.587833
1.118133
0.605181
-0.092471
-0.868444
-0.326737
1.323170
1.376007
0.297266
-0.626936
-1.186881
-0.777269
-0.515884
-0.192310
0.808108
1.106900
0.662918
-0.881781
-2.626377
-2.034637
-1.165847
-1.862330
-2.242952
-2.632693
-3.505927
-3.732477
-3.819450
-4.307620
-4.637976
-4.258992
-3.619557
-3.402594
-3.033662
-2.587344
-2.195267
-1.852521
-2.108530
-1.945340
-1.773266
-2.603948
-3.049333
-3.202939
-3.528151
-3.590342
-3.765925
-3.972135
-3.615127
-2.439595
-1.290716
-1.272247
-2.721557
-4.580714
-5.256856
-5.539050
-5.730297
-5.187187
-4.353700
-3.046073
-2.660776
-3.685042
-4.245689
-4.495385
-4.505439
-4.521338
-4.870165
-4.195660
-2.651430
-1.456727
-1.312241
-1.152090
0.389568
2.013757
3.023526
3.286781
3.272051
4.471898
4.913073
3.551904
2.697141
2.500049
2.504023
2.583981
2.214346
1.895680
1.571402
1.130927
1.179089
1.625407
2.129941
2.249177
2.000416
1.147990
-0.538858
-1.146030
-0.659265
-0.446277
-0.223469
-1.248904
-2.348921
-1.463064
-0.618589
0.544084
1.592664
0.120909
-1.075432
-0.471301
-0.350662
-0.791371
-0.198461
0.999749
0.806865
0.675704
1.413334
0.719657
0.539164
1.598031
1.269312
1.621176
3.246066
3.640014
4.004970
4.484020
3.812787
3.198367
2.440396
1.299231
0.989449
0.347441
-1.232562
-1.871765
-1.017704
-0.041835
0.204820
1.386431
3.554198
3.137103
0.649733
-0.635217
-1.326089
-2.276242
-2.631147
-1.940510
-1.145133
-1.092529
-0.248989
0.955300
1.687318
4.284337
6.547728
5.433683
4.163696
4.143588
3.787982
3.707555
4.308647
4.313088
4.428350
6.479218
7.876156
5.750003
3.144332
3.431902
4.259777
2.359005
-0.014506
-0.460358
0.050020
0.811731
0.710029
0.885376
2.522657
3.328088
3.557209
3.394719
2.968038
3.830749
3.730449
3.292546
4.060803
2.994687
0.748128
-0.392803
0.341086
1.895135
0.809848
-0.935450
-0.537761
-0.180052
-0.041879
-0.220968
-1.262770
-1.163173
-0.736727
-1.095607
-0.195254
1.706452
3.457826
4.416862
3.794493
3.573554
3.733003
2.750352
2.649818
2.730945
1.171984
0.010712
0.321194
1.024456
0.899841
0.821518
1.552368
1.257081
0.379639
-0.466941
-1.904328
-2.654116
-3.084304
-3.433598
-2.885812
-2.449547
-1.863418
-1.037413
-0.838452
-0.520723
-0.241102
-0.519789
-0.292071
0.172016
-0.635988
-1.806846
-2.026149
-1.461529
0.101873
1.197212
0.909173
0.874804
0.385466
-0.700991
-0.672936
-0.733490
-2.035742
-3.485286
-4.342153
-5.267524
-6.666100
-6.996690
-6.336915
-6.473453
-5.948579
-4.046172
-3.069835
-2.693656
-2.145168
-1.909268
-1.623100
-1.760106
-1.317763
-0.300278
-1.198060
-1.937562
-1.203907
-0.482643
1.648886
4.018421
4.254789
3.511547
3.018000
3.299725
3.813844
4.362566
5.192545
4.971372
4.279799
3.920919
2.239683
-0.013189
-0.671329
0.083836
1.062510
1.385851
0.774704
-1.010572
-3.123867
-3.587020
-3.006736
-2.815490
-2.842845
-3.334756
-3.677503
-3.340368
-3.114755
-2.543589
-1.344911
-0.260560
-0.195098
-0.905608
-0.289086
1.017840
1.734662
3.139315
4.213145
4.336356
4.805118
4.882271
4.291932
3.868290
4.061406
4.113776
2.839346
1.139873
-0.988384
-3.668637
-5.381202
-6.488935
-6.524005
-4.770994
-3.404216
-3.479499
-4.138107
-4.631654
-5.638853
-7.411739
-8.412625
-8.821771
-8.692248
-7.964438
-7.877467
-7.159710
-5.828235
-5.725599
-5.837355
-5.165422
-3.644338
-2.069246
-1.500886
-1.285092
-1.408070
-2.042597
-2.740716
-3.081126
-1.949781
-0.083846
0.870981
1.123949
0.941119
0.575927
0.339323
0.328568
1.025750
1.588967
0.980158
0.223122
0.058060
0.144564
0.494091
1.109444
1.471595
0.784231
-0.390601
-0.621828
-0.657132
-1.588581
-2.451293
-2.690235
-2.636696
-1.945826
-0.760241
-0.169202
-0.310650
-0.597988
-0.669063
-0.281662
0.145719
0.489166
0.483087
-1.068626
-3.076011
-3.216523
-1.791296
-0.387578
0.535920
1.390449
1.635000
0.789120
-0.413066
-1.972261
-3.485397
-4.180243
-4.669582
-4.738553
-4.202223
-4.171830
-4.445373
-4.104965
-3.167439
-1.983724
-0.903582
-0.320726
-0.359303
-0.671190
-0.843967
-0.477841
0.148735
0.145227
-0.473635
-1.711826
-3.249277
-3.393063
-2.114427
-0.792538
0.124882
0.149196
-0.526245
-0.774305
-0.493749
-0.160589
0.436763
1.358391
1.763794
1.366806
0.411509
-1.057673
-1.766080
-1.217358
-0.849596
-0.484873
0.344405
0.226570
-1.328884
-3.091482
-3.922398
-3.995578
-4.332013
-5.003479
-5.192388
-4.762436
-4.221897
-3.733963
-3.248133
-2.646106
-1.647792
-0.742998
-0.918580
-1.433636
-0.455663
1.168760
1.097918
-0.060080
-0.626806
-0.679879
-0.478112
-0.062188
0.614888
1.649908
2.562652
3.246508
3.452717
2.731451
2.193483
1.848865
-0.010759
-2.604741
-4.397265
-5.967682
-7.289105
-7.370000
-6.472920
-5.413118
-4.755213
-4.846395
-4.958151
-4.334848
-3.164694
-1.622801
-0.619344
-0.762429
-0.570015
0.847497
2.566374
3.747517
4.519281
5.187473
5.274445
4.886808
4.576558
3.643940
1.969250
0.664427
0.118977
0.113599
0.186309
-0.242476
-0.791199
-0.913710
-0.985019
-0.985721
-0.508541
0.002539
-0.148729
-0.846147
-1.386453
-1.834409
-2.467533
-2.758612
-2.709047
-2.413996
-1.719853
-1.119462
-0.595757
-0.082573
0.038066
0.178811
0.394605
0.035024
-0.629896
-0.857148
-0.705180
-0.663799
-0.743524
-0.749838
-0.785142
-0.903210
-0.816940
-0.423226
0.159162
1.211249
2.354985
2.405718
1.496479
0.296631
-1.016843
-1.396764
-0.425571
0.696655
1.282317
1.029581
-0.093114
-0.950216
-1.062907
-1.026435
-0.663817
0.216663
0.774035
0.504934
-0.022514
-0.376484
-0.821167
-1.233586
-1.130482
-0.941575
-1.407767
-2.164102
-2.243594
-1.495911
-0.461125
0.357398
0.417250
-0.051281
-0.447100
-1.072743
-1.531220
-1.181226
-0.585979
0.135752
0.714166
0.601475
0.512164
0.683069
0.528762
0.331670
0.598899
0.831527
0.349904
-0.199053
-0.306133
-0.544841
-0.753856
-0.793602
-1.134713
-1.396100
-1.206491
-0.810439
-0.404568
-0.170070
0.068403
0.424943
0.454400
-0.167033
-1.212809
-1.838919
-1.680873
-1.341166
-1.007772
-0.800629
-0.803903
-0.126593
1.347031
2.588026
3.238683
3.362361
3.071282
2.503388
1.485200
0.491093
0.293066
0.570349
0.860958
1.213056
1.799419
2.834205
3.788097
3.917386
3.490238
3.153569
2.827889
1.798712
0.260559
-1.073722
-2.456400
-3.698800
-4.238872
-4.278151
-3.722182
-2.724102
-2.107345
-2.040013
-1.991851
-1.587149
-1.318984
-1.653783
-2.081632
-2.377153
-2.722238
-2.692781
-1.813002
-0.524079
0.358271
0.930840
1.599733
2.465250
3.741782
4.924328
5.350773
5.385141
5.321781
5.019714
4.534818
4.314580
4.363443
3.685898
2.578867
2.351615
2.384346
1.837727
1.199694
0.368778
-1.024889
-2.329244
-2.921921
-3.154550
-3.296700
-3.137017
-3.025029
-3.061268
-2.407104
-1.128468
-0.060717
0.845949
1.668680
2.194022
2.751628
3.256629
3.162174
2.724973
2.594045
2.967886
3.428466
3.576927
3.839013
4.384928
4.424907
3.898395
3.613863
3.490417
3.094130
2.762838
2.630041
2.445106
2.132519
1.493082
0.537318
-0.446267
-1.169169
-1.333530
-1.284901
-1.257781
-0.944961
-0.948702
-1.411388
-1.456512
-1.320910
-1.087815
-0.433183
-0.135794
-0.160811
0.098703
0.357516
0.869765
1.908526
2.867094
3.275537
3.293304
3.384952
3.287926
2.731254
2.280024
1.880698
1.356757
1.040195
0.981277
1.272588
1.703943
2.259678
3.451342
4.547851
4.727640
4.660072
4.596244
4.034896
3.373717
3.069078
2.658763
2.268087
2.096713
1.618129
1.239845
1.236103
1.118268
1.203838
1.471535
1.447687
1.196120
0.889845
0.919069
1.018665
0.551070
-0.042308
-0.329879
-0.078081
0.898490
1.858227
2.485972
3.081686
3.236459
2.826612
2.218505
1.306928
0.329187
0.203637
0.948281
1.631670
2.061856
2.390808
2.511446
2.809771
3.248374
3.293028
3.051047
2.481750
1.557315
0.885381
0.544504
0.255062
0.174869
0.272829
0.273764
0.146343
-0.030174
-0.025265
0.457993
1.124782
1.460981
1.600558
1.595647
1.088072
0.495629
0.457987
0.606682
0.643153
0.843283
1.027514
0.820369
0.461256
0.484401
0.860346
1.142071
1.252657
1.124301
0.648757
0.201268
-0.095655
-0.458510
-0.811778
-1.031782
-1.001389
-0.761748
-0.522106
-0.252305
0.005806
0.232589
0.494441
0.406766
-0.085611
-0.328060
-0.272183
-0.367339
-0.285043
0.249183
0.650612
0.828764
1.172212
1.531090
1.612451
1.311786
0.825020
0.447904
0.248240
0.313235
0.489518
0.568307
0.606649
0.338248
-0.174002
-0.245311
0.075224
0.269041
0.285173
0.301304
0.429658
0.534866
0.640074
0.893977
1.032852
1.027006
1.052723
1.180375
1.651242
2.431891
3.248310
3.678730
3.516240
3.101717
2.534290
1.809050
0.831309
-0.013869
0.236761
0.906356
1.014603
0.823356
0.446007
0.202623
0.247979
0.353421
0.545601
0.772384
1.141081
1.277852
1.129624
1.310582
1.133597
0.593291
0.616436
0.723982
0.876183
1.419527
1.853454
2.071586
2.105252
2.035346
2.048204
1.926161
1.795701
1.727899
1.395907
0.820063
0.111423
-0.128922
0.613384
1.333713
1.179873
0.651023
0.451126
0.630681
0.563581
0.177347
0.030054
0.051328
-0.072117
-0.232503
-0.148103
0.128712
0.264782
