EVENT_NAME: 202302060117
EVENT_ID: 13194
EVENT_DATE_YYYYMMDD: 2023/02/06
EVENT_TIME_HHMMSS: 01:17:32.00000
EVENT_LATITUDE_DEGREE: 37.288
EVENT_LONGITUDE_DEGREE: 37.043
EVENT_DEPTH_KM: 8.6
HYPOCENTER_REFERENCE: AFAD
MAGNITUDE_W: 7.7
MAGNITUDE_W_REFERENCE: AFAD
MAGNITUDE_L: 
MAGNITUDE_L_REFERENCE: 
FOCAL_MECHANISM: 
NETWORK: TK
STATION_CODE: 3139
STATION_NAME: 
STATION_LATITUDE_DEGREE: 36.58383
STATION_LONGITUDE_DEGREE: 36.41439
STATION_ELEVATION_M: 109.0
LOCATION: Kahramanmaras_Pazarck_Turkiye
SENSOR_DEPTH_M: 
VS30_M/S: 272
SITE_CLASSIFICATION_EC8: C
MORPHOLOGIC_CLASSIFICATION: 
EPICENTRAL_DISTANCE_KM: 96.19
EARTHQUAKE_BACKAZIMUTH_DEGREE: 
DATE_TIME_FIRST_SAMPLE_YYYYMMDD_HHMMSS: 2023/02/06 01:17:26.1391390
DATE_TIME_FIRST_SAMPLE_PRECISION: millisecond
SAMPLING_INTERVAL_S: 0.01
NDATA: 11251
DURATION_S: 
STREAM: HNE
UNITS: cm/s^2
INSTRUMENT: sensor = GMS+/GEOSIG | digitizer = 
INSTRUMENT_ANALOG/DIGITAL: 
INSTRUMENTAL_FREQUENCY_HZ: 
INSTRUMENTAL_DAMPING: 
FULL_SCALE_G: 
N_BIT_DIGITAL_CONVERTER: 
PGA_CM/S^2: 504.821
TIME_PGA_S: 
BASELINE_CORRECTION: BASELINE REMOVED
FILTER_TYPE: BUTTERWORTH
FILTER_ORDER: 
LOW_CUT_FREQUENCY_HZ: 
HIGH_CUT_FREQUENCY_HZ: 
LATE/NORMAL_TRIGGERED: 
DATABASE_VERSION: 
HEADER_FORMAT: DYNA 1.2
DATA_TYPE: Acceleration
PROCESSING: Automatic Paolucci et al., 2011
DATA_TIMESTAMP_YYYYMMDD_HHMMSS: 
DATA_LICENSE: U (unknown license)
DATA_CITATION: Turkish Accelerometric Archive v 1.0 - Disaster And Emergency Management Presidency, Earthquake Department
DATA_CREATOR: AFAD
ORIGINAL_DATA_MEDIATOR_CITATION: : AFAD - Disaster And Emergency Management Presidency
ORIGINAL_DATA_MEDIATOR: AFAD PROCESS SERVICE
ORIGINAL_DATA_CREATOR_CITATION: AFAD PROCESS SERVICE
ORIGINAL_DATA_CREATOR: network: TK
USER1: GuestUser
USER2: 
USER3: 
USER4: 
USER5: 
[...]
-18.132046
-14.142042
-9.763166
-4.479519
2.812135
12.115172
21.960344
27.949522
29.786049
25.600376
18.144226
13.441355
11.628143
11.381332
10.753701
11.190079
10.890015
7.741076
1.318542
-8.471883
-17.531321
-24.893176
-28.880645
-30.133278
-30.758831
-29.478727
-27.014340
-24.467348
-23.744965
-24.704060
-24.886969
-22.802103
-18.951336
-14.730398
-9.113728
-2.645019
3.159463
7.426119
9.948434
11.252177
10.564799
8.732105
6.846417
5.392724
4.284522
5.152375
10.238080
16.384157
20.713417
22.667619
23.687436
25.524743
26.558587
26.809491
27.406925
26.383927
20.450277
10.486067
0.833578
-6.256040
-10.092584
-11.498480
-12.789039
-15.995646
-21.080375
-26.446173
-31.322569
-33.887030
-30.692176
-21.079236
-9.862489
-1.003655
5.588963
9.552989
10.450456
7.548556
0.613760
-7.746123
-14.276201
-16.096167
-12.509064
-4.678911
4.801547
11.741475
13.815170
10.145137
2.739122
-3.494301
-4.448720
0.576718
9.372428
19.058362
24.938697
24.528492
17.473423
4.669690
-9.058558
-19.732453
-26.913770
-32.235147
-34.285268
-28.571185
-14.695973
2.012528
14.880620
23.263039
28.905426
30.445818
29.346708
28.441645
30.614312
34.565610
35.633743
33.478417
27.695951
19.982890
12.661040
8.599796
8.956425
12.197518
18.614273
24.749440
28.874783
31.568804
33.297527
31.714210
22.721532
8.901327
-5.850925
-20.475372
-35.362443
-48.612718
-57.751125
-62.046939
-61.056476
-55.070156
-44.744413
-34.680256
-28.746410
-26.890400
-27.157473
-27.932133
-29.215938
-27.944146
-23.008068
-14.156768
-2.932747
6.062724
12.191137
14.130533
11.785836
7.152583
3.621786
3.618117
4.998751
7.498986
11.677061
17.493753
23.154064
26.164223
26.729186
25.744634
23.877650
19.555599
12.736140
6.844831
2.713450
-1.015550
-5.354746
-9.259869
-11.033336
-10.152495
-5.506318
-0.025766
4.055935
7.909560
12.061139
16.524440
18.668532
19.321038
17.772789
11.543522
2.157815
-8.370870
-16.664253
-21.981215
-24.421247
-24.766510
-24.570937
-23.184068
-19.967134
-16.184165
-13.003339
-10.913018
-11.522206
-14.590097
-20.144487
-24.496670
-23.303848
-16.241310
-6.945287
-0.909611
3.531350
7.329125
10.004183
11.652898
13.459812
15.428821
15.067192
14.200055
12.733633
11.695309
13.187384
16.878914
20.381592
20.484948
18.645759
15.200945
11.067746
8.019337
5.699837
4.081451
2.592430
2.171834
2.539893
3.386445
5.093607
6.770637
7.334562
4.073403
-2.940622
-12.346072
-21.979597
-30.012432
-37.249079
-43.432886
-48.927270
-52.502487
-53.409109
-50.691449
-44.803841
-38.245253
-29.856599
-19.918430
-10.454077
-4.083041
0.371168
4.874213
7.558103
7.718868
6.736134
7.866352
10.373600
13.232834
19.179669
28.917038
40.037411
48.046803
51.917833
54.146869
52.831892
45.684606
39.377928
40.338518
44.639204
44.709309
36.512041
22.087096
6.635029
-6.610050
-16.297607
-18.769590
-13.308781
-7.430784
-6.611768
-12.380726
-23.700145
-36.995619
-50.098864
-57.208225
-52.064332
-36.540113
-18.930737
-7.800493
-5.885516
-10.701126
-19.058671
-22.873395
-15.056490
-0.808511
12.458844
20.868019
27.708716
37.082669
43.571899
39.733277
29.042236
21.155650
11.598757
-3.012961
-18.541400
-27.625776
-23.942039
-15.124249
-5.108928
7.952690
21.828682
35.171629
46.993376
57.645907
63.192180
58.942345
52.239261
49.015250
48.918584
44.962287
33.858994
24.040514
18.090498
8.879615
-8.866982
-22.966437
-24.543261
-19.960467
-21.348958
-35.510498
-53.423087
-68.935680
-80.150153
-84.727815
-76.750894
-55.498533
-33.691827
-20.253285
-21.440196
-35.302224
-49.449217
-56.061381
-55.023900
-49.666219
-40.993119
-29.220728
-15.950516
-4.935089
3.819058
12.227714
15.569596
12.337532
6.713524
1.668020
-3.944817
-14.129051
-31.519766
-52.070038
-70.351497
-84.513037
-92.722775
-93.584457
-78.759274
-46.682643
-9.731727
21.870048
47.562363
72.201319
92.071195
103.916840
104.789628
90.879024
71.165724
54.422091
42.284143
35.726789
35.196052
41.363430
50.446963
61.169891
75.113941
89.145793
102.624859
110.614249
108.528541
98.189486
86.185578
76.134866
62.855497
44.846794
24.315485
5.888296
-8.199730
-15.459236
-15.768651
-14.934049
-16.866754
-23.659198
-33.793296
-48.135634
-67.028068
-88.058131
-106.937576
-119.181510
-123.377053
-113.456288
-92.251725
-70.762715
-56.596303
-54.142827
-58.221475
-64.674662
-71.885591
-75.441067
-72.674311
-65.787115
-55.198487
-36.517569
-12.415034
9.610137
26.930651
44.551716
62.574123
76.246976
83.655785
84.633519
84.249810
80.755120
74.817833
70.641252
64.237422
58.483530
55.763209
51.681443
41.705024
26.086706
10.432280
-1.516817
-8.075470
-9.977782
-7.551322
0.696798
9.608364
12.028330
8.247116
0.425472
-7.458516
-14.014051
-14.983018
-4.506869
10.331043
21.817169
24.799013
18.635728
6.339841
-7.881965
-18.736660
-29.215989
-38.921470
-46.167209
-51.040487
-51.593305
-49.950565
-48.492000
-47.765980
-43.704021
-36.614727
-27.472486
-13.750278
3.301376
20.794636
33.523232
42.477661
49.268482
50.975385
46.058725
36.400782
25.603496
16.486390
12.344878
14.887714
24.186075
37.238602
49.502993
55.439437
57.319346
64.050420
71.251415
65.060074
46.949802
31.820367
20.892678
5.810261
-12.067519
-27.256182
-39.461929
-47.656340
-56.491858
-61.655297
-53.322494
-47.522947
-43.179400
-25.156993
-3.351066
3.070105
-14.774684
-32.079156
-30.965823
-23.280880
-14.760005
-7.896449
-1.111862
2.913730
-0.363794
-4.998865
-2.663583
13.185865
40.353921
55.279375
49.328839
52.094816
78.889326
113.969653
119.792839
103.194935
106.978683
131.582570
135.659595
79.587358
10.562313
-14.757558
-15.884982
-20.459008
-36.702328
-47.959403
-41.691495
-27.234402
-5.384575
20.020436
45.286212
60.573262
46.109612
12.808891
-8.928780
-15.810844
-21.583958
-21.506060
-7.849832
12.669464
9.428048
-17.279243
-27.983013
-15.372871
-0.772127
-17.020382
-43.194630
-47.655657
-53.259922
-77.322516
-119.052706
-151.292016
-162.883152
-167.030379
-171.330869
-181.240268
-171.721624
-130.868474
-69.255191
3.328091
58.151560
87.062399
90.696001
76.145588
63.359260
47.677817
36.743374
47.008332
74.387060
90.742016
98.064063
114.810230
97.031421
46.409115
0.484712
-23.288501
-17.053843
-15.625930
-17.227691
-17.571656
-26.753704
-38.536290
-54.977553
-62.040415
-53.429400
-34.927721
-31.480633
-39.799473
-48.539397
-64.007309
-62.567448
-44.446329
-21.370137
-17.431048
-23.265208
-4.378034
21.696399
31.126982
16.313165
3.177189
6.897553
11.715696
7.497813
2.799358
5.218285
17.779072
43.752975
64.576979
69.716455
65.198799
69.111132
84.365192
94.373758
86.934233
63.982926
49.497195
50.098007
61.125383
85.748493
112.085032
132.864355
141.413546
131.557139
118.049955
110.002313
106.286041
101.468613
96.572735
72.045156
34.094069
14.600793
-1.891125
-9.383384
-2.566326
13.931243
35.873808
46.239815
47.447184
37.512068
16.184311
-15.544295
-50.373490
-82.615138
-109.352562
-123.753089
-129.530359
-122.715899
-107.506779
-81.241676
-47.985959
-31.188358
-20.044606
-2.890083
9.483670
9.024628
-5.819842
-11.466189
4.391831
2.640444
-23.815912
-38.092529
-34.349565
-22.803172
-9.249553
10.854634
28.401406
4.685082
-31.896508
-28.071977
-18.987405
-32.132733
-50.153125
-60.883651
-59.490547
-53.210949
-43.391754
-45.550717
-62.117968
-61.728348
-53.460746
-54.178776
-54.020869
-45.304389
-31.287603
-25.641319
-25.895924
-31.959978
-46.432980
-49.979623
-46.497466
-54.488998
-56.886948
-51.080647
-52.672537
-50.580138
-42.621401
-36.383625
-32.934719
-30.678666
-36.122914
-57.421318
-77.883269
-88.321815
-94.064537
-102.229854
-113.226122
-127.957852
-150.806551
-169.276862
-190.115996
-216.329988
-240.583512
-269.127883
-297.615104
-328.870672
-361.634713
-389.839567
-417.049769
-438.198806
-451.006696
-456.023366
-466.660634
-484.910402
-478.461695
-465.379814
-462.903479
-446.784911
-419.734530
-382.505922
-347.598080
-334.570491
-342.108988
-350.824234
-350.238489
-353.474450
-356.425445
-357.243746
-356.492789
-350.945477
-345.774569
-343.979864
-343.683761
-342.427035
-340.448155
-318.883033
-266.761411
-204.455067
-148.299249
-95.219862
-42.348029
5.615228
56.345534
111.000413
159.340075
198.358484
225.867096
246.243260
264.085128
278.122954
290.416699
294.351372
279.598341
249.723439
214.745396
184.857506
161.635001
149.640965
139.107084
109.574556
75.499207
33.288187
-10.611066
-33.189346
-49.468255
-58.627963
-55.771327
-41.029529
-20.014336
9.504100
43.559123
66.037329
88.161731
113.063572
146.147843
169.765391
176.187601
171.106249
145.387374
126.760943
116.510469
107.368425
110.065303
118.199125
120.839634
117.626532
111.153863
97.015442
85.546397
75.824551
63.671276
54.452600
42.124502
21.001961
-3.468988
-19.422148
-28.760057
-35.280004
-39.861303
-36.675281
-10.487589
38.060666
86.980389
119.339647
148.607148
185.809259
214.853100
208.765406
181.513641
177.601764
185.423344
172.998613
146.917621
130.715085
128.556641
122.784047
116.291635
120.040574
123.773667
123.448665
126.977580
140.245975
154.977122
155.160226
157.086893
174.031003
184.544299
182.832656
194.703758
236.023711
267.256096
263.826868
264.593671
274.164788
280.616353
299.800701
324.531095
340.100254
351.460652
372.017875
386.720707
374.709007
360.290816
365.731623
372.930020
358.550795
339.673687
329.806111
295.996505
225.853419
150.986193
94.874991
67.989758
71.836889
91.070854
120.587731
129.363699
100.000800
82.220433
75.552678
55.026304
35.385999
19.518044
0.650028
-11.591047
-10.219764
-23.599403
-53.687574
-89.994849
-143.735150
-208.499741
-275.758364
-322.157363
-345.012556
-364.243207
-382.032147
-396.187452
-372.599518
-298.560236
-231.141660
-184.743244
-139.314802
-111.759692
-93.202682
-82.107766
-79.520250
-56.181173
-21.807674
-3.669671
-14.656327
-35.706913
-43.461017
-53.032198
-79.930419
-120.801297
-156.369273
-182.001904
-201.908731
-220.994952
-229.502123
-201.532683
-186.936615
-209.636727
-245.842952
-289.041091
-310.755124
-331.351894
-351.840082
-364.633165
-389.810943
-411.629922
-428.769441
-439.711677
-445.190215
-443.098855
-424.167260
-397.792536
-358.417465
-288.697085
-188.655295
-77.680911
15.962276
77.429829
116.161974
138.004788
164.190401
207.244825
238.784515
257.875088
268.018214
263.680058
244.262114
223.274133
230.061057
237.186979
224.440914
212.053589
207.829211
231.500791
281.639345
315.283416
324.324607
337.337389
347.193991
343.808664
344.266343
361.847924
390.577445
403.227591
384.898594
339.578152
268.559388
188.702021
125.666445
69.049474
16.283563
-27.083684
-74.653977
-124.934428
-175.297746
-205.635554
-199.489736
-152.484243
-82.628784
-22.959085
31.701510
78.814027
121.204224
156.102454
174.747525
190.889212
211.749064
252.595200
299.771620
317.077847
313.311700
306.498994
305.569253
329.619055
362.191063
376.102383
369.666341
356.329564
354.952243
352.600272
342.909857
337.813698
322.522168
273.635891
189.762771
100.643638
30.810196
-29.299874
-70.016969
-81.543164
-83.216361
-64.204498
-18.360946
27.745490
60.707670
85.824339
100.376246
115.135968
128.038868
114.790932
90.210620
56.240737
21.261396
-10.157826
-49.398920
-84.643745
-120.953098
-150.180398
-175.493775
-201.335780
-223.418683
-248.276946
-264.073206
-270.539381
-272.956553
-277.065075
-285.604977
-291.297044
-287.271192
-276.660484
-261.747499
-222.224101
-166.345195
-119.042787
-77.840250
-47.485620
-26.593557
-5.546153
5.145863
6.510652
10.936546
12.984264
8.607143
2.169023
-4.101027
-6.801087
-5.034697
-0.113426
5.479605
12.656182
23.894230
34.451946
40.944813
43.474141
41.069698
36.999882
38.509361
46.548627
59.100581
77.343011
93.530158
105.786496
127.167702
149.659416
169.729574
191.104545
209.629603
228.052312
233.742756
236.481977
207.067384
118.497920
39.512334
-18.045256
-78.957748
-135.787729
-176.704066
-203.108208
-237.050816
-271.080446
-287.778879
-289.639369
-290.844984
-298.774951
-303.894230
-293.900210
-273.548724
-252.392737
-229.019371
-213.077445
-212.784718
-226.012912
-247.412106
-263.939872
-275.536204
-292.758589
-311.255916
-320.708383
-316.271579
-298.523747
-270.956947
-237.939177
-209.418769
-189.568635
-169.368334
-144.498185
-121.052083
-102.329082
-87.845754
-79.864156
-83.068426
-92.436728
-99.366589
-103.996464
-103.483714
-94.815031
-82.222553
-73.134864
-65.205740
-52.153472
-38.869492
-28.218780
-21.022201
-15.964811
-7.342886
4.151813
17.083548
29.127655
36.361381
39.632866
40.398630
37.485301
22.900339
-7.736202
-43.020511
-73.132321
-94.804271
-110.859000
-127.351697
-138.024554
-139.322386
-135.218605
-127.671339
-116.722933
-99.840128
-79.054310
-59.110399
-43.338882
-30.272587
-17.064719
-1.381003
21.694410
45.653553
65.500050
87.203109
110.623233
132.906354
148.639685
161.432964
181.389863
208.212947
234.589490
248.596404
250.894020
250.748778
255.264292
265.821488
277.997818
294.793860
310.265865
314.752285
315.626113
322.899063
330.225006
320.737730
302.458869
302.098279
324.908988
356.584797
370.776146
355.430584
341.454518
354.115835
389.990532
439.222497
483.035702
504.820847
503.995792
495.474333
486.292544
472.047359
456.120956
434.465371
397.333073
338.347019
263.134562
198.592592
164.446586
146.258384
124.033647
109.015393
110.499155
125.774776
144.924316
152.391573
151.499498
141.858179
126.226872
115.402051
103.631155
95.290755
99.328296
101.211841
96.384542
90.888340
80.885685
69.902145
62.699528
55.338713
48.876694
46.777218
42.204231
36.162777
24.361228
3.959024
-13.483905
-25.593278
-26.688232
-20.254852
-12.330403
-3.074384
15.784995
41.500429
57.839280
83.651607
106.558950
116.268523
139.143395
158.926249
154.120770
119.962036
86.473502
76.075220
66.914213
56.546843
42.855223
28.752650
14.510323
-19.733616
-51.089454
-59.454793
-62.705301
-65.306649
-71.737235
-74.878121
-76.387665
-90.154357
-102.431281
-109.922500
-115.527545
-124.583346
-132.808150
-128.538637
-132.650795
-147.942065
-153.641925
-158.076715
-169.560567
-185.643611
-196.982772
-190.929432
-188.432575
-191.072108
-183.021153
-158.870561
-127.490628
-125.133266
-128.695236
-119.920307
-125.351307
-130.467988
-134.290245
-137.699990
-136.169989
-154.325201
-178.068281
-182.797128
-166.571796
-133.563897
-100.544569
-69.026699
-41.883580
-25.474592
-12.600785
5.589691
23.431040
38.261678
51.740484
57.787850
68.697291
66.040353
39.720116
5.054314
-38.648034
-75.189880
-103.091065
-124.120349
-144.004576
-167.728953
-182.604075
-180.650133
-171.549196
-165.177900
-141.329678
-96.209320
-43.827930
-8.385746
0.908979
14.312972
33.098317
40.723772
44.304122
48.655462
44.695009
34.753398
30.158851
20.811590
3.312292
-18.721775
-48.483417
-79.966283
-118.542890
-155.301382
-186.049104
-213.406335
-219.980833
-222.163695
-234.504781
-238.711495
-218.925004
-177.315670
-133.064756
-92.382014
-57.211027
-33.943646
-8.217042
16.991844
20.200985
12.413371
1.099926
-15.289124
-25.101889
-29.539796
-28.807023
-29.548432
-34.483016
-31.715480
-29.555802
-25.166015
-18.770561
-15.137219
-11.881060
-18.805725
-25.234494
-30.698744
-39.010310
-42.317707
-45.049719
-49.577765
-53.809676
-50.312712
-46.617286
-50.699051
-52.400303
-52.099524
-65.424351
-83.325510
-81.445342
-68.864554
-64.356573
-61.772434
-35.268604
0.991589
14.179715
25.253330
46.764939
63.169512
77.887930
93.178358
106.598456
119.736966
125.458063
128.200661
135.577259
142.449387
145.570467
146.063215
148.529680
147.706443
139.603211
131.997174
130.784545
129.892990
122.513471
115.628810
115.895040
133.055796
163.205988
181.261126
177.571870
164.847626
161.648812
169.515072
180.892356
186.833216
185.862172
193.873902
203.369427
193.746292
169.860860
159.093967
162.900314
153.339005
129.774905
102.320780
84.882268
78.015791
65.804588
54.289823
48.448910
51.766634
61.019016
66.114332
68.554819
66.762129
60.285563
50.219524
36.205013
22.137769
10.121133
-8.513871
-36.813020
-62.902844
-83.423243
-103.146414
-122.962582
-133.932354
-120.068831
-81.472026
-37.965606
-5.063173
17.637135
39.771408
56.397043
61.584836
68.357473
69.749538
63.254788
63.035252
62.598810
56.449292
50.293800
42.220960
27.895506
9.563912
-10.325251
-32.216445
-66.893677
-106.937194
-137.496324
-167.069635
-194.132549
-213.143697
-234.325205
-262.506679
-285.505264
-295.353878
-287.796222
-261.193161
-212.386177
-134.784438
-52.837821
7.590141
46.894814
65.921224
70.889253
74.061767
77.479242
73.686079
66.810250
57.989538
46.728827
40.095101
18.551217
-12.176503
-42.677186
-83.763152
-118.779120
-149.986891
-183.850529
-214.674883
-227.123773
-232.627767
-261.293190
-298.594597
-334.376361
-354.006535
-352.709027
-340.798439
-320.032624
-295.107663
-237.786526
-154.472491
-93.825025
-68.071405
-57.724621
-44.111515
-30.252409
-9.647129
20.218097
43.287015
58.285204
72.930628
89.698356
107.443590
129.808537
152.689124
171.992446
189.773269
202.824497
224.055038
256.002824
275.768533
277.067341
264.245164
238.662408
201.067463
146.259777
78.081056
20.830252
-13.397062
-44.118547
-73.066857
-89.816724
-101.027041
-100.757174
-90.145167
-71.506590
-49.814961
-39.212306
-32.443045
-33.041063
-48.546123
-79.337226
-113.957568
-140.491075
-166.329703
-181.662276
-184.221542
-189.840094
-198.726787
-206.609996
-217.726277
-225.039815
-221.811710
-230.032098
-253.901945
-265.301892
-255.253841
-237.280011
-235.616229
-256.820857
-272.988844
-272.807298
-259.491367
-236.483754
-213.586802
-192.555243
-173.705476
-163.754058
-165.378159
-150.937173
-123.999790
-119.104756
-124.245335
-126.316756
-126.521745
-131.715057
-140.268468
-142.242216
-146.384248
-148.103424
-148.076440
-150.900149
-141.060691
-118.043986
-93.888459
-74.125088
-58.782966
-42.864420
-27.126152
-13.771515
4.337394
24.911242
43.921286
62.250999
77.023969
87.183980
92.035373
100.802509
109.779537
109.520257
106.492110
98.972057
95.899490
100.170302
101.131931
99.598489
97.318734
104.800538
119.893542
128.117503
128.334637
124.758639
121.877522
122.071017
121.867587
119.917217
123.412882
130.699340
135.941165
137.605986
139.123778
139.220380
123.691422
92.215310
62.486139
45.613141
28.794695
0.781030
-29.536516
-55.798306
-78.517380
-93.528621
-94.968547
-89.437081
-77.099695
-53.959860
-35.902384
-17.536824
9.795665
34.022109
66.554893
107.000207
132.872021
145.154336
161.915829
190.987725
217.927705
232.890305
247.986946
263.725473
265.374188
256.022511
254.087468
255.455634
230.459953
180.406019
131.318162
92.817407
62.278538
28.940930
-0.711350
-17.544344
-30.272484
-35.477226
-35.582205
-39.249120
-41.990223
-39.653123
-31.212516
-23.050380
-19.591602
-15.717455
-10.931003
