EVENT_NAME: 202302060117
EVENT_ID: 13194
EVENT_DATE_YYYYMMDD: 2023/02/06
EVENT_TIME_HHMMSS: 01:17:32.00000
EVENT_LATITUDE_DEGREE: 37.288
EVENT_LONGITUDE_DEGREE: 37.043
EVENT_DEPTH_KM: 8.6
HYPOCENTER_REFERENCE: AFAD
MAGNITUDE_W: 7.7
MAGNITUDE_W_REFERENCE: AFAD
MAGNITUDE_L: 
MAGNITUDE_L_REFERENCE: 
FOCAL_MECHANISM: 
NETWORK: TK
STATION_CODE: 6005
STATION_NAME: 
STATION_LATITUDE_DEGREE: 40.69804
STATION_LONGITUDE_DEGREE: 36.56921
STATION_ELEVATION_M: 198.0
LOCATION: Kahramanmaras_Pazarck_Turkiye
SENSOR_DEPTH_M: 
VS30_M/S: 327
SITE_CLASSIFICATION_EC8: unknown
MORPHOLOGIC_CLASSIFICATION: 
EPICENTRAL_DISTANCE_KM: 381.38
EARTHQUAKE_BACKAZIMUTH_DEGREE: 
DATE_TIME_FIRST_SAMPLE_YYYYMMDD_HHMMSS: 2023/02/06 01:18:00.6570890
DATE_TIME_FIRST_SAMPLE_PRECISION: millisecond
SAMPLING_INTERVAL_S: 0.01
NDATA: 21001
DURATION_S: 
STREAM: HNZ
UNITS: cm/s^2
INSTRUMENT: sensor = CMG-5T/GURALP | digitizer = 
INSTRUMENT_ANALOG/DIGITAL: 
INSTRUMENTAL_FREQUENCY_HZ: 
INSTRUMENTAL_DAMPING: 
FULL_SCALE_G: 
N_BIT_DIGITAL_CONVERTER: 
PGA_CM/S^2: 6.670
TIME_PGA_S: 
BASELINE_CORRECTION: BASELINE REMOVED
FILTER_TYPE: BUTTERWORTH
FILTER_ORDER: 
LOW_CUT_FREQUENCY_HZ: 
HIGH_CUT_FREQUENCY_HZ: 
LATE/NORMAL_TRIGGERED: 
DATABASE_VERSION: 
HEADER_FORMAT: DYNA 1.2
DATA_TYPE: Acceleration
PROCESSING: Automatic Paolucci et al., 2011
DATA_TIMESTAMP_YYYYMMDD_HHMMSS: 
DATA_LICENSE: U (unknown license)
DATA_CITATION: Turkish Accelerometric Archive v 1.0 - Disaster And Emergency Management Presidency, Earthquake Department
DATA_CREATOR: AFAD
ORIGINAL_DATA_MEDIATOR_CITATION: : AFAD - Disaster And Emergency Management Presidency
ORIGINAL_DATA_MEDIATOR: AFAD PROCESS SERVICE
ORIGINAL_DATA_CREATOR_CITATION: AFAD PROCESS SERVICE
ORIGINAL_DATA_CREATOR: network: TK
USER1: GuestUser
USER2: 
USER3: 
USER4: 
USER5: 
[...]
0.394339
0.433149
0.461231
0.484896
0.506667
0.524652
0.534118
0.546424
0.571666
0.614578
0.663169
0.694091
0.708605
0.715232
0.715863
0.707344
0.681471
0.635720
0.574509
0.509195
0.438518
0.356166
0.261193
0.156439
0.059258
-0.029404
-0.104499
-0.170443
-0.221558
-0.254688
-0.268887
-0.277090
-0.290973
-0.305802
-0.322525
-0.328519
-0.336092
-0.341771
-0.344926
-0.335460
-0.308640
-0.276772
-0.238908
-0.207987
-0.177380
-0.153716
-0.136046
-0.116483
-0.096289
-0.076411
-0.052115
-0.017407
0.021718
0.058950
0.083877
0.105649
0.123003
0.127420
0.116062
0.091451
0.073466
0.058952
0.038128
0.005945
-0.025292
-0.036020
-0.032864
-0.020558
-0.000049
0.022985
0.048543
0.073469
0.089561
0.094295
0.085145
0.071577
0.054539
0.024249
-0.017716
-0.077981
-0.143610
-0.207661
-0.266979
-0.324405
-0.382461
-0.437362
-0.490685
-0.530126
-0.556630
-0.578085
-0.603958
-0.626360
-0.638665
-0.639611
-0.633616
-0.626043
-0.609951
-0.584078
-0.547792
-0.503303
-0.456289
-0.408329
-0.361631
-0.311778
-0.260978
-0.218382
-0.187145
-0.154330
-0.114574
-0.070715
-0.033799
-0.009818
0.009429
0.026467
0.046346
0.068117
0.095884
0.134694
0.188333
0.252701
0.325587
0.398158
0.469152
0.536674
0.595678
0.653104
0.702641
0.746500
0.786571
0.825066
0.858196
0.882176
0.899846
0.912467
0.918778
0.913414
0.891959
0.847470
0.791938
0.732620
0.680243
0.636701
0.589688
0.540781
0.495977
0.459377
0.427193
0.399112
0.379865
0.371031
0.380812
0.407001
0.441709
0.478310
0.518382
0.560663
0.599157
0.634812
0.657845
0.678986
0.700757
0.720951
0.729471
0.719374
0.697288
0.666366
0.634183
0.595689
0.552147
0.505450
0.463170
0.421205
0.385235
0.345480
0.304777
0.272594
0.248614
0.236309
0.218955
0.205073
0.190874
0.177622
0.161215
0.135027
0.110732
0.087068
0.067821
0.049205
0.018915
-0.016108
-0.052077
-0.092780
-0.140108
-0.205422
-0.279570
-0.360975
-0.441434
-0.518737
-0.599827
-0.686911
-0.773365
-0.844989
-0.908409
-0.968990
-1.034303
-1.091098
-1.134640
-1.172187
-1.211627
-1.257063
-1.299974
-1.332473
-1.355821
-1.373806
-1.394630
-1.412930
-1.413877
-1.403149
-1.389265
-1.378853
-1.367178
-1.347931
-1.318271
-1.289873
-1.255796
-1.212254
-1.147886
-1.064272
-0.978764
-0.896412
-0.835200
-0.783769
-0.737071
-0.693844
-0.653772
-0.629161
-0.608336
-0.585618
-0.558482
-0.528823
-0.505789
-0.489697
-0.475183
-0.461299
-0.453411
-0.455304
-0.466662
-0.475497
-0.483700
-0.485593
-0.482753
-0.476758
-0.452462
-0.414599
-0.369478
-0.329406
-0.295329
-0.261883
-0.230015
-0.204142
-0.187419
-0.184579
-0.182054
-0.173535
-0.166593
-0.152710
-0.142613
-0.131253
-0.117370
-0.100647
-0.078560
-0.060259
-0.044798
-0.024289
0.002216
0.029351
0.053647
0.072263
0.096874
0.122748
0.153985
0.183329
0.208887
0.235391
0.269153
0.313642
0.360024
0.406091
0.443955
0.479294
0.508322
0.535458
0.548079
0.554390
0.567326
0.583103
0.606137
0.628224
0.656621
0.685965
0.720989
0.758852
0.790405
0.814070
0.825429
0.826691
0.819750
0.807129
0.786936
0.761378
0.733928
0.710579
0.686915
0.667984
0.659781
0.656941
0.658835
0.655680
0.632962
0.593837
0.548718
0.504229
0.456269
0.402630
0.351831
0.317123
0.296615
0.285572
0.281154
0.278946
0.283048
0.289990
0.302296
0.313970
0.321543
0.324383
0.328801
0.337320
0.344893
0.336690
0.326278
0.321545
0.324701
0.338584
0.345841
0.348997
0.345842
0.343003
0.338901
0.326280
0.298514
0.250555
0.186819
0.106045
0.012334
-0.084216
-0.178243
-0.270060
-0.355252
-0.433817
-0.508912
-0.573910
-0.633544
-0.677086
-0.699803
-0.710846
-0.716526
-0.714317
-0.699802
-0.685919
-0.674560
-0.666040
-0.652157
-0.627861
-0.589367
-0.552135
-0.509538
-0.457161
-0.392794
-0.326533
-0.278257
-0.245758
-0.225249
-0.203162
-0.179813
-0.157094
-0.142896
-0.131536
-0.116391
-0.103454
-0.097774
-0.104400
-0.112604
-0.118914
-0.125855
-0.134374
-0.152359
-0.163717
-0.161824
-0.144785
-0.121436
-0.105344
-0.089883
-0.060539
-0.015103
0.036959
0.084919
0.128777
0.188727
0.260667
0.332292
0.395081
0.450299
0.506778
0.558524
0.599227
0.632989
0.653183
0.665488
0.669590
0.665173
0.654446
0.633621
0.613113
0.594181
0.579667
0.573357
0.566100
0.561999
0.567994
0.581877
0.602702
0.619741
0.637726
0.654765
0.673697
0.693891
0.705881
0.711560
0.709668
0.709983
0.706828
0.696416
0.683796
0.676854
0.680956
0.679379
0.668967
0.647196
0.621954
0.598290
0.566107
0.523827
0.466402
0.404874
0.346818
0.290970
0.240487
0.195998
0.163184
0.148670
0.147723
0.157820
0.174228
0.192529
0.217771
0.241120
0.262576
0.280246
0.287188
0.288450
0.288135
0.297601
0.314324
0.323474
0.326630
0.332625
0.348717
0.370804
0.389736
0.404250
0.416241
0.429808
0.442114
0.446532
0.450634
0.465779
0.492284
0.530778
0.574952
0.628907
0.695168
0.764268
0.833684
0.904677
0.973462
1.034989
1.086105
1.137220
1.198117
1.252072
1.288042
1.308551
1.311076
1.303819
1.281101
1.246394
1.210740
1.179188
1.156470
1.133437
1.106933
1.076959
1.050139
1.034994
1.023320
1.008491
0.997132
0.985458
0.974730
0.961163
0.936552
0.904685
0.872186
0.845366
0.813814
0.773112
0.727992
0.683503
0.640907
0.594526
0.536785
0.472418
0.402687
0.335165
0.269536
0.197912
0.118085
0.029107
-0.068075
-0.171251
-0.278845
-0.384230
-0.478256
-0.562501
-0.641698
-0.729413
-0.813343
-0.894117
-0.972051
-1.053141
-1.139910
-1.225733
-1.305876
-1.374345
-1.433979
-1.485093
-1.536208
-1.583221
-1.622346
-1.651058
-1.678509
-1.717634
-1.768433
-1.817970
-1.862459
-1.899691
-1.938815
-1.983304
-2.022113
-2.057452
-2.081116
-2.107620
-2.140119
-2.176088
-2.210165
-2.231305
-2.248027
-2.265381
-2.274531
-2.269167
-2.254337
-2.237298
-2.232249
-2.226885
-2.218997
-2.214895
-2.213632
-2.218365
-2.217734
-2.208899
-2.191229
-2.168826
-2.154943
-2.140429
-2.122128
-2.107929
-2.096570
-2.090575
-2.085841
-2.070065
-2.047662
-2.013901
-1.971620
-1.924291
-1.861817
-1.792401
-1.708787
-1.620439
-1.532723
-1.439643
-1.338990
-1.231711
-1.132636
-1.046498
-0.967616
-0.892521
-0.821843
-0.754636
-0.700365
-0.653036
-0.603183
-0.551752
-0.510418
-0.483914
-0.467506
-0.454569
-0.444472
-0.442579
-0.455515
-0.470345
-0.478863
-0.485805
-0.482018
-0.475392
-0.468450
-0.458984
-0.439737
-0.411970
-0.382311
-0.361170
-0.342554
-0.322676
-0.304690
-0.288598
-0.279763
-0.270297
-0.251050
-0.221706
-0.191415
-0.158916
-0.120106
-0.074355
-0.019768
0.038604
0.083409
0.120325
0.157558
0.196683
0.238017
0.264206
0.276512
0.283138
0.284716
0.284401
0.275566
0.243383
0.193215
0.138314
0.087514
0.031982
-0.037433
-0.107479
-0.169322
-0.217597
-0.268396
-0.329292
-0.397130
-0.464337
-0.530281
-0.600012
-0.673529
-0.737265
-0.783331
-0.821509
-0.844858
-0.861265
-0.872939
-0.883036
-0.893448
-0.903860
-0.919005
-0.940460
-0.955605
-0.959391
-0.959391
-0.960022
-0.967278
-0.966332
-0.963492
-0.959074
-0.950870
-0.944244
-0.935724
-0.922156
-0.899438
-0.873250
-0.842328
-0.804465
-0.765655
-0.722427
-0.673521
-0.619250
-0.562455
-0.505345
-0.443502
-0.379450
-0.315083
-0.255764
-0.200862
-0.142805
-0.074967
0.000759
0.082481
0.170512
0.264539
0.356357
0.437132
0.502130
0.552615
0.599628
0.628972
0.637176
0.623924
0.608464
0.606887
0.611935
0.619193
0.618877
0.620771
0.630868
0.641280
0.642858
0.638126
0.630553
0.634655
0.652325
0.673150
0.698708
0.726159
0.765915
0.811667
0.859942
0.902854
0.933460
0.954285
0.959018
0.960912
0.958703
0.946398
0.934093
0.919579
0.903172
0.890236
0.877930
0.872567
0.873198
0.876354
0.873514
0.854267
0.825239
0.795265
0.769392
0.739417
0.697137
0.649178
0.599956
0.559254
0.535905
0.519498
0.500567
0.478796
0.461758
0.457025
0.453555
0.442196
0.417270
0.391713
0.379092
0.372466
0.362685
0.347856
0.333342
0.326085
0.331134
0.333974
0.329241
0.323246
0.326086
0.339023
0.354169
0.371207
0.393294
0.431789
0.474700
0.505306
0.523607
0.536544
0.545694
0.541277
0.518875
0.483537
0.448514
0.429583
0.424534
0.420433
0.423273
0.443782
0.481015
0.521718
0.563683
0.599022
0.627419
0.658972
0.690209
0.726495
0.763096
0.797173
0.829672
0.866589
0.919913
0.980179
1.035080
1.081778
1.128792
1.186218
1.243328
1.288448
1.337986
1.393203
1.439270
1.476187
1.513104
1.562010
1.613757
1.661401
1.699265
1.728924
1.762370
1.799287
1.829262
1.854820
1.879431
1.902780
1.919503
1.918872
1.909407
1.897733
1.883534
1.862395
1.835575
1.807494
1.786038
1.766160
1.747229
1.722934
1.696430
1.672135
1.637428
1.593885
1.543086
1.492602
1.449691
1.406149
1.355665
1.302342
1.256275
1.214942
1.172662
1.129120
1.084631
1.042666
1.004488
0.970727
0.943908
0.929078
0.923399
0.929394
0.938545
0.953375
0.971045
0.986821
0.999127
1.011433
1.031626
1.050243
1.071068
1.089684
1.112402
1.134804
1.155629
1.177085
1.201066
1.218735
1.218420
1.212110
1.202329
1.184029
1.155947
1.114614
1.070440
1.022481
0.967895
0.928455
0.896272
0.870714
0.850205
0.845473
0.859356
0.875133
0.883337
0.888385
0.903215
0.921516
0.930982
0.915837
0.889649
0.867878
0.842005
0.805404
0.761547
0.707908
0.642279
0.568131
0.490196
0.411000
0.330857
0.245981
0.164891
0.094845
0.026060
-0.051559
-0.130440
-0.208374
-0.289779
-0.387907
-0.510331
-0.632754
-0.753600
-0.877601
-1.005073
-1.140117
-1.264750
-1.368242
-1.454695
-1.543357
-1.648111
-1.751603
-1.832062
-1.895167
-1.959218
-2.023900
-2.071229
-2.094578
-2.095524
-2.084480
-2.073437
-2.054505
-2.023268
-1.977201
-1.919459
-1.862349
-1.811549
-1.760749
-1.700484
-1.632961
-1.573327
-1.520949
-1.464154
-1.405466
-1.345516
-1.289037
-1.236344
-1.166928
-1.079843
-0.989918
-0.900309
-0.812908
-0.715411
-0.607816
-0.502746
-0.402093
-0.316586
-0.240228
-0.165133
-0.096664
-0.039238
0.003358
0.038697
0.072143
0.103696
0.138719
0.176583
0.213499
0.249154
0.285440
0.316361
0.341919
0.352016
0.348546
0.341289
0.341605
0.355173
0.361483
0.366216
0.378838
0.408497
0.446992
0.478229
0.508204
0.538179
0.568154
0.589926
0.598445
0.599077
0.590242
0.565632
0.533764
0.500318
0.464349
0.423962
0.376633
0.329936
0.286394
0.232755
0.168388
0.104652
0.051644
0.003369
-0.049954
-0.105171
-0.155024
-0.186260
-0.204561
-0.225700
-0.258515
-0.305212
-0.362638
-0.415646
-0.464867
-0.520084
-0.578456
-0.628624
-0.655443
-0.667433
-0.681631
-0.696776
-0.710975
-0.724226
-0.731483
-0.737162
-0.745366
-0.756093
-0.765243
-0.762088
-0.760825
-0.763349
-0.762402
-0.750412
-0.732427
-0.717913
-0.697088
-0.668375
-0.644079
-0.623254
-0.613157
-0.612841
-0.610317
-0.614734
-0.628617
-0.651650
-0.681309
-0.714123
-0.749462
-0.775019
-0.803416
-0.846011
-0.883243
-0.918897
-0.940353
-0.948872
-0.961808
-0.969380
-0.968749
-0.961807
-0.954234
-0.949501
-0.944768
-0.933724
-0.929307
-0.923627
-0.904380
-0.874404
-0.833386
-0.787950
-0.738728
-0.683195
-0.622930
-0.568028
-0.513442
-0.455700
-0.396381
-0.333592
-0.267016
-0.195707
-0.130708
-0.074229
-0.017750
0.039992
0.092685
0.135912
0.174722
0.200911
0.209430
0.199649
0.176931
0.139069
0.081643
0.010651
-0.060027
-0.118399
-0.184028
-0.260384
-0.339265
-0.416253
-0.495765
-0.580641
-0.668988
-0.762068
-0.855778
-0.951382
-1.040044
-1.121450
-1.212636
-1.308871
-1.390592
-1.449279
-1.502603
-1.566970
-1.620924
-1.660364
-1.700751
-1.743662
-1.798564
-1.862299
-1.917832
-1.964213
-2.003654
-2.047827
-2.099257
-2.135542
-2.144377
-2.133649
-2.115664
-2.098309
-2.075907
-2.035204
-1.976200
-1.917828
-1.873654
-1.831374
-1.777419
-1.708634
-1.634485
-1.564438
-1.491867
-1.407937
-1.307600
-1.200321
-1.096513
-0.999647
-0.895523
-0.774677
-0.644996
-0.516892
-0.389420
-0.253744
-0.115859
0.027705
0.167799
0.308523
0.448932
0.588394
0.727857
0.861640
0.990374
1.116269
1.242795
1.357646
1.457352
1.549170
1.640357
1.729020
1.812004
1.886152
1.956199
2.016149
2.065687
2.112385
2.160661
2.202941
2.239542
2.273935
2.305488
2.337987
2.375219
2.416553
2.457572
2.496382
2.536769
2.585676
2.639631
2.692008
2.733342
2.770575
2.809384
2.845670
2.873437
2.897732
2.919188
2.940329
2.956105
2.976930
3.008483
3.044453
3.075690
3.095253
3.123335
3.151417
3.175082
3.192120
3.205688
3.212946
3.221781
3.242290
3.271950
3.299716
3.326536
3.355565
3.375443
3.389326
3.401001
3.396899
3.370711
3.345154
3.317704
3.300350
3.287414
3.257439
3.231882
3.224309
3.204116
3.176981
3.155210
3.128075
3.108198
3.089897
3.063394
3.021113
2.969999
2.905947
2.829906
2.738404
2.635228
2.522901
2.399215
2.287520
2.173300
2.049299
1.919934
1.785520
1.658995
1.527106
1.386697
1.246289
1.121026
1.001442
0.865451
0.723465
0.577062
0.434129
0.306026
0.190229
0.078849
-0.045468
-0.163790
-0.272961
-0.388758
-0.506765
-0.643702
-0.791052
-0.943450
-1.096164
-1.258975
-1.435669
-1.609838
-1.775173
-1.938299
-2.112154
-2.292318
-2.474691
-2.658327
-2.837229
-3.018656
-3.211126
-3.409906
-3.609949
-3.804628
-3.992996
-4.180733
-4.376674
-4.561256
-4.719965
-4.871101
-5.032650
-5.194198
-5.346596
-5.479117
-5.597123
-5.714813
-5.831242
-5.948617
-6.052740
-6.146135
-6.231327
-6.314941
-6.390351
-6.455980
-6.508672
-6.547481
-6.585344
-6.617212
-6.635828
-6.644662
-6.650657
-6.661069
-6.669588
-6.670219
-6.660437
-6.647816
-6.638350
-6.627622
-6.609636
-6.573035
-6.535172
-6.486581
-6.432941
-6.376462
-6.304837
-6.209233
-6.118362
-6.013607
-5.911061
-5.805044
-5.670946
-5.546313
-5.413161
-5.310615
-5.177464
-5.038001
-4.921572
-4.782425
-4.660948
-4.548621
-4.418940
-4.290205
-4.166519
-4.035891
-3.917569
-3.796407
-3.667357
-3.545564
-3.417145
-3.286518
-3.155890
-3.011064
-2.879489
-2.730877
-2.573745
-2.415351
-2.231084
-2.037983
-1.844566
-1.648940
-1.433751
-1.216039
-0.994540
-0.781245
-0.581201
-0.368853
-0.148931
0.068150
0.273242
0.470445
0.669226
0.872109
1.077516
1.278821
1.471923
1.663447
1.861282
2.059116
2.254742
2.443742
2.622645
2.802494
2.979820
3.147995
3.307966
3.455317
3.588153
3.713417
3.824482
3.925450
4.022948
4.110980
4.188599
4.254229
4.315756
4.371289
4.415463
4.443229
4.461214
4.472574
4.477622
4.483933
4.486142
4.477623
4.457745
4.434397
4.415150
4.394957
4.379181
4.352361
4.313552
4.273796
4.242244
4.219842
4.188605
4.151373
4.118243
4.088269
4.056717
4.026742
3.992666
3.958905
3.926721
3.907790
3.888228
3.864879
3.853836
3.842162
3.823862
3.799882
3.773063
3.735831
3.694182
3.638334
3.581540
3.522853
3.457539
3.396959
3.325019
3.250240
3.180825
3.097211
3.018646
2.951439
2.889912
2.827438
2.746980
2.687030
2.645381
2.596475
2.552617
2.517594
2.488251
2.471844
2.453543
2.437452
2.418205
2.396434
2.386338
2.379081
2.374979
2.363305
2.347214
2.327651
2.320394
2.326705
2.323235
2.302726
2.280639
2.259184
2.231418
2.198919
2.165158
2.130766
2.101423
2.076497
2.044944
2.018756
1.991937
1.959438
1.929148
1.884343
1.813982
1.747091
1.680199
1.608260
1.524962
1.431567
1.342273
1.246354
1.166526
1.090485
1.006871
0.921995
0.851633
0.789791
0.724793
0.647489
0.549677
0.460699
0.368882
0.281797
0.193766
0.096584
0.006975
-0.081371
-0.164039
-0.242920
-0.326849
-0.414249
-0.504805
-0.598831
-0.694750
-0.793194
-0.897632
-1.002702
-1.105878
-1.211579
-1.325483
-1.440650
-1.558656
-1.672245
-1.780469
-1.893743
-1.998812
-2.096625
-2.185603
-2.261959
-2.333268
-2.403630
-2.471783
-2.538043
-2.600832
-2.660466
-2.722624
-2.779103
-2.828956
-2.878177
-2.923928
-2.972834
-3.018901
-3.058657
-3.090209
-3.111664
-3.134382
-3.155206
-3.166565
-3.170351
-3.168142
-3.164986
-3.166879
-3.154889
-3.136273
-3.129962
-3.118603
-3.096831
-3.068749
-3.040352
-3.013847
-2.983557
-2.953266
-2.916980
-2.880379
-2.840307
-2.784459
-2.724193
-2.657302
-2.583784
-2.506796
-2.426652
-2.347140
-2.260370
-2.170129
-2.081782
-1.993750
-1.911083
-1.833148
-1.747324
-1.657084
-1.563057
-1.467137
-1.377212
-1.287603
-1.197363
-1.111540
-1.032342
-0.958194
-0.884676
-0.819678
-0.758466
-0.701355
-0.652764
-0.593761
-0.534757
-0.469128
-0.398134
-0.337869
-0.277919
-0.203139
-0.118262
-0.032755
0.049913
0.122484
0.195686
0.272043
0.353134
0.429807
0.508688
0.600506
0.691062
0.784142
0.880062
0.972827
1.070640
1.173817
1.272577
1.376069
1.483348
1.587787
1.700430
1.809917
1.920351
2.029523
2.132069
2.245343
2.371869
2.503127
2.620187
2.742927
2.869768
3.006075
3.138912
3.256918
3.373663
3.486306
3.614725
3.741882
3.854209
3.950760
4.046995
4.144808
4.232209
4.317085
4.387763
4.442034
4.497567
4.545527
4.580550
4.599798
4.614312
4.628195
4.640186
4.649021
4.643026
4.638924
4.629774
4.614945
4.599800
4.576136
4.549632
4.521866
4.494731
4.468543
4.442355
4.409856
4.379566
4.355586
4.335077
4.304472
4.269449
4.241998
4.211708
4.170374
4.115473
4.057101
3.996521
3.931839
3.852327
3.766188
3.669322
3.563622
3.465178
3.354114
3.243049
3.127883
2.995047
2.870415
2.745467
2.616733
2.479480
2.329921
2.188566
2.044372
1.900493
1.750618
1.603268
1.471379
1.341383
1.220853
1.102531
0.976321
0.858000
0.746620
0.639026
0.526068
0.405853
0.284061
0.160691
0.037005
-0.098039
-0.229613
-0.358978
-0.491814
-0.627489
-0.763796
-0.897262
-1.034516
-1.177764
-1.324483
-1.467731
-1.610979
-1.761169
-1.909150
-2.045141
-2.173559
-2.297560
-2.422192
-2.526000
-2.618133
-2.713737
-2.799244
-2.880018
-2.951326
-3.016009
-3.079429
-3.140325
-3.192071
-3.234035
-3.266534
-3.290829
-3.315125
-3.344468
-3.371603
-3.396845
-3.422718
-3.449537
-3.482667
-3.523054
-3.573537
-3.617395
-3.666932
-3.707004
-3.735085
-3.771686
-3.787462
-3.808917
-3.830373
-3.840154
-3.865080
-3.876754
-3.900734
-3.949640
-3.986872
-4.023157
-4.056286
-4.094149
-4.140531
-4.188175
-4.236135
-4.273051
-4.315962
-4.363291
-4.408726
-4.462365
-4.505907
-4.537775
-4.583210
-4.634325
-4.655149
-4.668717
-4.707210
-4.729297
-4.745073
-4.770946
-4.796818
-4.828371
-4.850142
-4.874752
-4.912300
-4.948269
-4.968147
-4.982661
-5.000961
-5.015159
-5.022101
-5.032197
-5.040401
-5.039454
-5.049235
-5.057123
-5.054914
-5.048603
-5.041661
-5.031248
-5.018943
-5.006321
-4.983288
-4.958992
-4.933119
-4.906299
-4.867805
-4.810694
-4.746327
-4.672809
-4.597398
-4.517570
-4.426699
-4.326993
-4.220976
-4.108964
-3.985594
-3.859383
-3.724969
-3.586454
-3.449200
-3.304689
-3.165858
-3.015668
-2.869579
-2.724122
-2.576771
-2.434469
-2.275760
-2.118313
-1.963074
-1.817301
-1.664271
-1.501144
-1.345590
-1.196347
-1.055938
-0.908587
-0.762814
-0.628400
-0.486414
-0.348845
-0.209382
-0.059192
0.090998
0.239926
0.385068
0.533365
0.693021
0.854255
1.003498
1.154004
1.317131
1.488146
1.651904
1.808404
1.960803
2.106892
2.246985
2.395282
2.530958
2.655275
2.775806
2.895390
3.018761
3.132035
3.232687
3.320404
3.408751
3.489210
3.552947
3.606586
3.650760
3.683575
3.709764
3.726802
3.744156
3.755516
3.772239
3.794326
3.825878
3.872576
3.912017
3.946410
3.986166
