EVENT_NAME: 202302060117
EVENT_ID: 13194
EVENT_DATE_YYYYMMDD: 2023/02/06
EVENT_TIME_HHMMSS: 01:17:32.00000
EVENT_LATITUDE_DEGREE: 37.288
EVENT_LONGITUDE_DEGREE: 37.043
EVENT_DEPTH_KM: 8.6
HYPOCENTER_REFERENCE: AFAD
MAGNITUDE_W: 7.7
MAGNITUDE_W_REFERENCE: AFAD
MAGNITUDE_L: 
MAGNITUDE_L_REFERENCE: 
FOCAL_MECHANISM: 
NETWORK: TK
STATION_CODE: 5503
STATION_NAME: 
STATION_LATITUDE_DEGREE: 41.13772
STATION_LONGITUDE_DEGREE: 35.46641
STATION_ELEVATION_M: 335.0
LOCATION: Kahramanmaras_Pazarck_Turkiye
SENSOR_DEPTH_M: 
VS30_M/S: 246
SITE_CLASSIFICATION_EC8: unknown
MORPHOLOGIC_CLASSIFICATION: 
EPICENTRAL_DISTANCE_KM: 449.08
EARTHQUAKE_BACKAZIMUTH_DEGREE: 
DATE_TIME_FIRST_SAMPLE_YYYYMMDD_HHMMSS: 2023/02/06 01:18:09.0272780
DATE_TIME_FIRST_SAMPLE_PRECISION: millisecond
SAMPLING_INTERVAL_S: 0.01
NDATA: 21001
DURATION_S: 
STREAM: HNZ
UNITS: cm/s^2
INSTRUMENT: sensor = CMG-5T/GURALP | digitizer = 
INSTRUMENT_ANALOG/DIGITAL: 
INSTRUMENTAL_FREQUENCY_HZ: 
INSTRUMENTAL_DAMPING: 
FULL_SCALE_G: 
N_BIT_DIGITAL_CONVERTER: 
PGA_CM/S^2: 3.781
TIME_PGA_S: 
BASELINE_CORRECTION: BASELINE REMOVED
FILTER_TYPE: BUTTERWORTH
FILTER_ORDER: 
LOW_CUT_FREQUENCY_HZ: 
HIGH_CUT_FREQUENCY_HZ: 
LATE/NORMAL_TRIGGERED: 
DATABASE_VERSION: 
HEADER_FORMAT: DYNA 1.2
DATA_TYPE: Acceleration
PROCESSING: Automatic Paolucci et al., 2011
DATA_TIMESTAMP_YYYYMMDD_HHMMSS: 
DATA_LICENSE: U (unknown license)
DATA_CITATION: Turkish Accelerometric Archive v 1.0 - Disaster And Emergency Management Presidency, Earthquake Department
DATA_CREATOR: AFAD
ORIGINAL_DATA_MEDIATOR_CITATION: : AFAD - Disaster And Emergency Management Presidency
ORIGINAL_DATA_MEDIATOR: AFAD PROCESS SERVICE
ORIGINAL_DATA_CREATOR_CITATION: AFAD PROCESS SERVICE
ORIGINAL_DATA_CREATOR: network: TK
USER1: GuestUser
USER2: 
USER3: 
USER4: 
USER5: 
[...]
-0.419814
-0.450002
-0.522203
-0.544610
-0.618990
-0.632372
-0.705195
-0.722001
-0.774907
-0.783620
-0.831547
-0.841817
-0.875116
-0.888809
-0.897834
-0.923976
-0.923664
-0.954474
-0.935179
-0.961632
-0.943270
-0.978126
-0.958519
-0.988395
-0.964120
-0.994930
-0.988083
-1.009245
-1.013913
-1.024183
-1.038810
-1.045968
-1.059972
-1.048145
-1.066196
-1.036319
-1.055614
-1.015467
-1.025114
-0.975942
-0.984656
-0.942020
-0.941708
-0.902806
-0.892225
-0.868884
-0.842741
-0.826869
-0.786100
-0.784233
-0.735683
-0.728836
-0.680909
-0.671883
-0.609329
-0.596569
-0.526235
-0.504138
-0.438472
-0.398637
-0.330169
-0.281931
-0.226535
-0.174873
-0.135038
-0.069683
-0.038561
0.025860
0.037687
0.112067
0.122337
0.194228
0.211345
0.277945
0.305332
0.366019
0.399319
0.461873
0.514157
0.559594
0.631174
0.672565
0.746945
0.779001
0.854937
0.882013
0.960750
0.969153
1.031085
1.032952
1.077767
1.073411
1.091772
1.087727
1.078080
1.069988
1.037311
1.027664
0.975380
0.962309
0.888863
0.868324
0.791765
0.765312
0.677862
0.638649
0.563958
0.521633
0.453478
0.395281
0.335217
0.290092
0.256170
0.192060
0.166852
0.113946
0.117058
0.056994
0.050148
0.001288
0.014359
-0.024231
-0.021119
-0.046016
-0.032944
-0.029521
-0.021740
-0.003690
0.006270
0.034590
0.038014
0.078472
0.076916
0.122353
0.115818
0.163434
0.158766
0.199847
0.193311
0.235948
0.244040
0.278584
0.294145
0.319976
0.355766
0.357322
0.394980
0.392490
0.435438
0.416765
0.446020
0.421745
0.449755
0.415210
0.417700
0.377243
0.372886
0.339898
0.309088
0.281390
0.248402
0.231596
0.182736
0.178379
0.134810
0.141346
0.091552
0.112403
0.084083
0.105557
0.076303
0.091242
0.087819
0.105869
0.106181
0.108982
0.134190
0.135124
0.156287
0.138859
0.169670
0.158778
0.185853
0.163135
0.191145
0.166248
0.195502
0.168738
0.180876
0.168738
0.160647
0.149444
0.137307
0.137307
0.108364
0.111477
0.074443
0.082534
0.023404
0.022160
-0.031058
-0.034170
-0.094233
-0.116952
-0.172036
-0.200668
-0.251706
-0.294654
-0.326708
-0.366232
-0.383037
-0.438744
-0.441545
-0.485737
-0.481691
-0.536776
-0.532107
-0.575054
-0.565095
-0.602752
-0.597150
-0.610220
-0.599639
-0.584389
-0.572874
-0.534906
-0.517477
-0.469862
-0.450566
-0.378987
-0.359691
-0.285000
-0.262903
-0.183233
-0.146198
-0.071818
-0.036650
0.026526
0.068540
0.122380
0.156303
0.179022
0.227260
0.231617
0.274876
0.261494
0.299151
0.291994
0.334630
0.324360
0.368553
0.369176
0.420526
0.434220
0.467209
0.498330
0.531008
0.571466
0.581736
0.624995
0.632153
0.680392
0.680081
0.727385
0.724273
0.786828
0.786517
0.831020
0.835066
0.876458
0.896998
0.925008
0.948038
0.962976
0.998144
1.000945
1.036735
1.025531
1.071902
1.055097
1.090264
1.068168
1.096178
1.075016
1.095867
1.076572
1.079062
1.074705
1.069726
1.072839
1.051676
1.060391
1.033315
1.038295
0.987568
0.996904
0.944309
0.949289
0.896383
0.888292
0.849390
0.844411
0.808311
0.789016
0.772833
0.752604
0.741401
0.696898
0.695342
0.641191
0.633411
0.563699
0.553741
0.486830
0.468780
0.400625
0.377595
0.324689
0.290145
0.246264
0.212342
0.195848
0.159747
0.144809
0.100928
0.111199
0.067629
0.078211
0.035575
0.053003
0.013168
0.026861
-0.007061
-0.012351
-0.033513
-0.045339
-0.059032
-0.085796
-0.102602
-0.144615
-0.147105
-0.207168
-0.220550
-0.284660
-0.286838
-0.350326
-0.364330
-0.419414
-0.424394
-0.458938
-0.469208
-0.484768
-0.491926
-0.486013
-0.495660
-0.485078
-0.505307
-0.476053
-0.497526
-0.462359
-0.486944
-0.450843
-0.467337
-0.434037
-0.438705
-0.413808
-0.413497
-0.391711
-0.378640
-0.369615
-0.348141
-0.351253
-0.316085
-0.326355
-0.288387
-0.316396
-0.280295
-0.304258
-0.286207
-0.325420
-0.319818
-0.350939
-0.353739
-0.379881
-0.402599
-0.405711
-0.424384
-0.412558
-0.433097
-0.408200
-0.427184
-0.390149
-0.405087
-0.370853
-0.394505
-0.362450
-0.371164
-0.348445
-0.359960
-0.354358
-0.351245
-0.345643
-0.335373
-0.344086
-0.316388
-0.327592
-0.293669
-0.304561
-0.250099
-0.249787
-0.198126
-0.196569
-0.131214
-0.109118
-0.064925
-0.040650
-0.003616
0.034352
0.057383
0.102198
0.110601
0.156972
0.157905
0.200853
0.198986
0.248781
0.231353
0.273678
0.269944
0.305422
0.295775
0.301066
0.303867
0.313826
0.319117
0.296710
0.312582
0.294843
0.325342
0.288308
0.318185
0.294533
0.322854
0.298890
0.314451
0.303559
0.323788
0.306049
0.302004
0.308851
0.288311
0.280220
0.235405
0.227003
0.174408
0.153557
0.059571
0.044633
-0.030369
-0.066781
-0.149564
-0.187843
-0.249463
-0.297078
-0.351229
-0.397911
-0.419384
-0.469489
-0.485361
-0.528308
-0.513681
-0.562852
-0.557250
-0.605488
-0.589927
-0.622293
-0.623537
-0.662439
-0.665240
-0.684846
-0.703518
-0.712543
-0.734328
-0.727481
-0.752066
-0.731215
-0.759846
-0.739617
-0.770116
-0.738061
-0.750198
-0.716586
-0.730591
-0.699780
-0.679551
-0.649363
-0.637537
-0.619798
-0.590543
-0.578094
-0.548218
-0.561911
-0.522698
-0.541681
-0.509004
-0.534834
-0.502157
-0.529232
-0.502467
-0.522073
-0.507446
-0.507135
-0.507446
-0.494063
-0.494685
-0.473211
-0.482236
-0.446135
-0.457339
-0.414391
-0.426839
-0.370821
-0.374866
-0.334097
-0.333474
-0.296440
-0.279634
-0.250068
-0.238242
-0.224548
-0.194672
-0.189381
-0.157637
-0.172264
-0.134606
-0.150167
-0.106597
-0.132738
-0.107219
-0.129626
-0.114065
-0.136783
-0.142696
-0.160746
-0.171950
-0.187199
-0.219253
-0.235747
-0.283363
-0.293944
-0.355875
-0.378282
-0.449550
-0.463243
-0.535133
-0.551938
-0.616048
-0.630363
-0.677979
-0.701320
-0.723104
-0.745511
-0.752358
-0.777877
-0.768852
-0.795616
-0.772274
-0.805263
-0.771651
-0.790635
-0.758269
-0.766049
-0.728703
-0.719366
-0.679220
-0.665526
-0.626935
-0.588656
-0.551310
-0.492179
-0.463236
-0.384499
-0.353688
-0.276196
-0.242896
-0.147042
-0.111563
-0.021934
0.011989
0.096950
0.153280
0.219880
0.274031
0.322581
0.394160
0.432751
0.484413
0.499974
0.546033
0.545722
0.587114
0.556927
0.579334
0.548836
0.558172
0.514291
0.496864
0.454228
0.425908
0.392608
0.350906
0.321341
0.266879
0.255053
0.196234
0.191566
0.130879
0.128390
0.083887
0.090734
0.046230
0.046542
0.020400
0.019156
0.004218
-0.009164
-0.013210
-0.024413
-0.014765
-0.034372
-0.015387
-0.038417
0.003286
-0.014764
0.035342
0.018225
0.063662
0.080468
0.121860
0.153604
0.190016
0.225495
0.267197
0.322283
0.350292
0.408800
0.422805
0.494384
0.508389
0.566898
0.577168
0.638477
0.650615
0.699787
0.702277
0.739000
0.751449
0.768566
0.787239
0.781949
0.804668
0.786617
0.809336
0.778215
0.810582
0.780394
0.810582
0.778216
0.790665
0.779150
0.790977
0.783197
0.795023
0.797824
0.803426
0.826456
0.826768
0.860068
0.850420
0.895235
0.884343
0.933515
0.918888
0.950010
0.950321
0.988601
0.982066
0.998249
0.997627
1.016300
1.028126
1.007587
1.019413
1.000118
1.015368
0.985180
0.990160
0.950636
0.967442
0.921694
0.925117
0.875012
0.867855
0.825530
0.801567
0.764221
0.722208
0.675215
0.614217
0.589943
0.509028
0.483197
0.396058
0.377385
0.304873
0.272507
0.194704
0.165139
0.101340
0.062750
-0.001048
-0.047730
-0.097835
-0.156966
-0.199913
-0.271180
-0.289542
-0.363921
-0.385084
-0.460086
-0.458530
-0.509879
-0.510502
-0.547847
-0.530108
-0.529485
-0.511123
-0.498052
-0.477200
-0.431763
-0.416513
-0.362673
-0.346801
-0.282379
-0.259038
-0.189326
-0.172520
-0.111522
-0.094094
-0.031851
-0.013178
0.031326
0.042218
0.071473
0.089523
0.092947
0.106641
0.088590
0.105707
0.074586
0.083612
0.033195
0.046578
-0.002905
-0.010062
-0.067948
-0.083508
-0.129568
-0.159133
-0.205503
-0.247517
-0.286418
-0.340880
-0.379159
-0.453228
-0.483726
-0.562774
-0.592650
-0.674188
-0.705932
-0.792760
-0.828860
-0.920668
-0.968595
-1.046709
-1.112686
-1.185198
-1.265802
-1.329601
-1.416118
-1.460621
-1.545893
-1.570168
-1.642058
-1.660419
-1.723906
-1.727641
-1.771833
-1.782414
-1.823182
-1.821937
-1.838743
-1.849012
-1.866440
-1.886046
-1.869240
-1.893515
-1.871730
-1.904096
-1.869862
-1.882310
-1.846520
-1.854300
-1.812909
-1.805128
-1.764359
-1.758134
-1.722967
-1.700248
-1.683131
-1.643918
-1.628046
-1.573895
-1.557089
-1.503249
-1.487999
-1.412996
-1.402415
-1.333948
-1.316831
-1.250231
-1.234981
-1.188610
-1.163401
-1.132280
-1.093689
-1.082485
-1.038915
-1.025844
-0.976049
-0.980717
-0.929367
-0.924387
-0.869925
-0.869924
-0.822931
-0.816084
-0.765978
-0.761310
-0.724587
-0.700312
-0.668879
-0.620018
-0.593253
-0.525720
-0.503624
-0.425509
-0.400923
-0.315650
-0.290753
-0.213571
-0.203301
-0.133278
-0.106513
-0.067300
-0.038046
-0.008480
0.040692
0.069946
0.111026
0.134368
0.208125
0.233645
0.303668
0.327943
0.413527
0.453985
0.545171
0.589052
0.676815
0.739369
0.824019
0.892798
0.967178
1.049027
1.112515
1.215216
1.262831
1.357441
1.401944
1.492196
1.531098
1.608280
1.636289
1.715649
1.753928
1.821150
1.860675
1.922918
1.995431
2.052072
2.124274
2.180292
2.274901
2.337144
2.439222
2.481859
2.598564
2.655516
2.756039
2.804588
2.899508
2.960507
3.042045
3.104288
3.174000
3.249936
3.291016
3.360417
3.391228
3.456271
3.466542
3.518826
3.515403
3.563641
3.548081
3.579513
3.552438
3.564887
3.541235
3.524430
3.501089
3.460320
3.433867
3.371936
3.346728
3.273282
3.251186
3.169649
3.136349
3.052633
3.022134
2.937796
2.881155
2.792771
2.736130
2.659883
2.582080
2.495874
2.404689
2.339334
2.230410
2.153229
2.028122
1.964323
1.848864
1.780397
1.654667
1.586823
1.474164
1.401029
1.292727
1.197185
1.106622
1.015125
0.932032
0.822174
0.746238
0.644782
0.583162
0.473616
0.414174
0.301515
0.249232
0.145909
0.093314
-0.005651
-0.063226
-0.145697
-0.216031
-0.292278
-0.379728
-0.440726
-0.540003
-0.605980
-0.719261
-0.776835
-0.898831
-0.968542
-1.093961
-1.164606
-1.294693
-1.386501
-1.506629
-1.597814
-1.700825
-1.810372
-1.904358
-2.013594
-2.085795
-2.192541
-2.244514
-2.340990
-2.379891
-2.476056
-2.495039
-2.563195
-2.579378
-2.622636
-2.628238
-2.644420
-2.632905
-2.617967
-2.611742
-2.573463
-2.551366
-2.475741
-2.442752
-2.367750
-2.329781
-2.219923
-2.166705
-2.060581
-2.010164
-1.898750
-1.813477
-1.719179
-1.642309
-1.563572
-1.478922
-1.410143
-1.326115
-1.278500
-1.187936
-1.153080
-1.060649
-1.033262
-0.945500
-0.911889
-0.836886
-0.798607
-0.725782
-0.682835
-0.627438
-0.581690
-0.539053
-0.486769
-0.455648
-0.401496
-0.390604
-0.338631
-0.348278
-0.301907
-0.317156
-0.275765
-0.295993
-0.261759
-0.272340
-0.255223
-0.259891
-0.263315
-0.247442
-0.253044
-0.240284
-0.266426
-0.248997
-0.276073
-0.257400
-0.298168
-0.276694
-0.300969
-0.280740
-0.302524
-0.277316
-0.278249
-0.265800
-0.261754
-0.248994
-0.216628
-0.215383
-0.185817
-0.187996
-0.137579
-0.142558
-0.101477
-0.102722
-0.047637
-0.053550
-0.017449
-0.017137
0.019275
0.041994
0.068136
0.100191
0.129445
0.185153
0.202581
0.260778
0.290966
0.362857
0.384642
0.459956
0.476450
0.564524
0.599380
0.657577
0.700836
0.764946
0.820654
0.875116
0.929890
0.977195
1.058422
1.084564
1.168903
1.204070
1.277828
1.306771
1.383952
1.407916
1.470159
1.486031
1.537693
1.565080
1.593712
1.613007
1.622344
1.642884
1.637594
1.656578
1.632304
1.660936
1.615499
1.628570
1.585000
1.584689
1.530227
1.507509
1.449312
1.417569
1.367464
1.311134
1.263519
1.201277
1.154595
1.072124
1.042247
0.956975
0.925543
0.839337
0.813195
0.738504
0.708628
0.634248
0.607173
0.560491
0.524702
0.482689
0.437252
0.430094
0.396483
0.389637
0.344511
0.361317
0.332374
0.349491
0.304988
0.321171
0.298142
0.311524
0.283827
0.280715
0.261420
0.252084
0.238390
0.212560
0.215050
0.165879
0.167746
0.127289
0.131957
0.072516
0.068781
0.010273
0.013075
-0.037964
-0.070641
-0.117012
-0.153112
-0.193259
-0.253945
-0.313386
-0.387455
-0.431025
-0.522210
-0.575116
-0.684663
-0.731656
-0.837157
-0.897843
-1.013303
-1.078969
-1.188204
-1.264451
-1.370575
-1.472964
-1.558236
-1.661247
-1.741229
-1.866648
-1.937915
-2.057110
-2.118418
-2.240725
-2.311681
-2.424652
-2.485027
-2.594573
-2.663974
-2.747690
-2.806820
-2.874042
-2.944065
-2.987634
-3.041163
-3.060769
-3.123323
-3.127991
-3.183386
-3.172182
-3.210150
-3.200191
-3.232868
-3.223532
-3.243138
-3.225398
-3.236291
-3.229755
-3.218240
-3.207347
-3.177470
-3.181516
-3.139190
-3.134833
-3.078503
-3.083482
-3.033999
-3.029331
-2.961797
-2.956195
-2.898309
-2.862831
-2.799343
-2.752038
-2.696020
-2.623507
-2.577447
-2.492174
-2.449538
-2.359908
-2.320072
-2.233244
-2.210525
-2.123696
-2.092263
-2.016949
-1.978047
-1.905223
-1.856362
-1.799721
-1.754284
-1.709469
-1.639757
-1.605523
-1.536745
-1.512781
-1.427197
-1.406346
-1.330409
-1.313604
-1.239223
-1.210280
-1.146170
-1.120650
-1.065254
-1.012348
-0.967221
-0.901866
-0.849582
-0.767422
-0.713270
-0.613371
-0.556729
-0.444381
-0.388674
-0.269479
-0.190430
-0.058164
0.035511
0.177113
0.303777
0.447869
0.593206
0.737921
0.910956
1.058782
1.238664
1.375598
1.570729
1.711398
1.889723
2.013275
2.187244
2.317020
2.479785
2.593066
2.732802
2.848262
2.968079
3.069846
3.156364
3.265911
3.323797
3.410626
3.449839
3.539158
3.560320
3.632211
3.640614
3.700367
3.703168
3.731800
3.727755
3.754519
3.764790
3.755453
3.764479
3.755143
3.780974
3.756388
3.772571
3.743318
3.778485
3.746119
3.765103
3.733049
3.754523
3.742697
3.746743
3.720601
3.706285
3.699128
3.670808
3.662094
3.619769
3.620392
3.579934
3.590827
3.540722
3.539166
3.501510
3.505556
3.453895
3.444558
3.394453
3.368623
3.330966
3.290509
3.254097
3.204614
3.178784
3.106272
3.079196
2.994858
2.964359
2.878153
2.840497
2.751490
2.711344
2.628872
2.576278
2.495051
2.429385
2.356873
2.274402
2.205001
2.103857
2.037258
1.924288
1.852709
1.728846
1.651354
1.513487
1.436306
1.300306
1.204764
1.062851
0.945213
0.805167
0.669478
0.535346
0.371959
0.243117
0.080664
-0.045066
-0.225570
-0.344142
-0.513441
-0.621743
-0.782329
-0.887830
-1.029743
-1.121240
-1.237633
-1.335977
-1.428095
-1.515857
-1.566896
-1.647811
-1.688269
-1.752378
-1.763893
-1.817110
-1.811819
-1.861613
-1.844185
-1.876862
-1.872194
-1.902381
-1.896468
-1.907049
-1.919186
-1.936614
-1.959332
-1.958398
-1.995432
-1.993253
-2.047093
-2.039624
-2.084127
-2.083193
-2.137033
-2.135476
-2.181225
-2.183092
-2.218881
-2.227283
-2.250313
-2.269608
-2.276143
-2.303841
-2.297305
-2.337140
-2.317533
-2.345542
-2.314421
-2.343052
-2.309752
-2.323756
-2.281431
-2.291078
-2.268671
-2.257467
-2.236615
-2.217942
-2.208606
-2.186198
-2.184331
-2.133291
-2.139204
-2.084430
-2.088787
-2.029345
-2.023432
-1.961189
-1.943449
-1.881206
-1.852886
-1.797490
-1.760144
-1.725288
-1.667090
-1.630678
-1.566257
-1.542604
-1.484096
-1.460755
-1.389798
-1.385441
-1.325687
-1.325065
-1.268735
-1.257842
-1.213338
-1.202134
-1.163232
-1.133044
-1.112193
-1.078582
-1.071735
-1.030032
-1.039057
-0.992686
-1.006690
-0.961875
-0.973701
-0.935421
-0.937911
-0.899943
-0.901498
-0.871933
-0.857306
-0.829607
-0.802220
-0.783547
-0.737799
-0.720059
-0.665285
-0.647235
-0.576589
-0.558850
-0.488827
-0.477623
-0.405110
-0.385503
-0.326372
-0.301786
-0.250124
-0.205932
-0.161117
-0.116302
-0.077089
-0.004887
0.018454
0.093146
0.109018
0.183709
0.196781
0.262136
0.269605
0.325001
0.329981
0.371684
0.388801
0.410897
0.431749
0.435172
0.463182
0.458825
0.489635
0.471896
0.501773
0.476876
0.506442
0.470341
0.484969
0.457582
0.478745
0.457583
0.459761
0.457583
0.464430
0.489639
0.489950
0.527296
0.542234
0.607590
0.627819
0.699087
0.719316
0.808323
0.837577
0.914136
0.957084
1.033331
1.078146
1.131675
1.180847
1.227530
1.284482
1.311869
1.376601
1.397453
1.466231
1.478991
1.543102
1.546525
1.599743
1.600054
1.640824
1.641758
1.666344
1.662298
1.661987
1.668523
1.651095
1.648606
1.615929
1.631490
1.594767
1.598813
1.548708
1.554621
1.509806
1.503582
1.442585
1.426091
1.374430
1.337084
1.286979
1.238430
1.204197
1.148179
1.124527
1.064463
1.054504
0.988527
0.978569
0.916326
0.911658
0.844748
0.824830
0.773481
0.751073
0.700657
0.662689
0.633436
0.591111
0.569637
0.516420
0.516109
0.465382
0.466004
0.407808
0.416522
0.372952
0.367662
0.320358
0.314134
0.281457
0.263718
0.230729
0.192139
0.174711
0.129275
0.103755
0.042447
0.021284
-0.054963
-0.080793
-0.164821
-0.195942
-0.282147
-0.330696
-0.418147
-0.477589
-0.563483
-0.635684
-0.720334
-0.806229
-0.865670
-0.967437
-1.026878
-1.132068
-1.178439
-1.274603
-1.323152
-1.419940
-1.452617
-1.533532
-1.569321
-1.630319
-1.659884
-1.699096
-1.733018
-1.750757
-1.780633
-1.775031
-1.798683
-1.781566
-1.803662
-1.767250
-1.783433
-1.734261
-1.753867
-1.706562
-1.694114
-1.646498
-1.616310
-1.572117
-1.520456
-1.466304
-1.395347
-1.351155
-1.271795
-1.236005
-1.146687
-1.124902
-1.041185
-1.016288
-0.947820
-0.919811
-0.860680
-0.837650
-0.791279
-0.764203
-0.727791
-0.684843
-0.664303
-0.622911
-0.607973
-0.553199
-0.556933
-0.506828
-0.510873
-0.463258
-0.471349
-0.435559
-0.433691
-0.397902
-0.383586
-0.350286
-0.325699
-0.304537
-0.272793
-0.256921
-0.213350
-0.212416
-0.160444
-0.156398
-0.099757
-0.100067
-0.047472
-0.050273
-0.003591
0.005746
0.037801
0.052740
0.075147
0.096933
0.107825
0.142370
0.134279
0.172870
0.166023
0.213639
0.205548
0.250674
0.241338
0.284597
0.279618
0.312295
0.326923
0.357422
0.371427
0.388544
0.415619
0.411574
0.436471
0.415620
0.449543
0.425268
0.460124
0.423713
0.452656
0.436162
0.468217
0.469462
0.495916
0.511165
0.531394
0.564383
0.582745
0.625382
0.633785
0.691359
0.704430
0.769163
0.775076
0.841054
0.857548
0.922281
0.939709
1.004753
1.038987
1.094072
1.145111
1.190860
1.257148
1.296984
1.368563
1.393149
1.470331
1.491805
1.566807
1.582057
1.648657
1.675733
1.732996
1.756026
1.811734
1.837565
1.883002
1.929995
1.966096
2.019314
2.042967
2.101786
2.112990
2.184258
2.186748
2.230941
2.220049
2.261129
2.243079
2.245569
2.211958
2.201066
2.168700
2.122329
2.065378
1.994421
1.951163
1.857799
1.797113
1.687566
1.636527
1.529781
1.473141
1.361727
1.312244
1.215768
1.151036
1.056739
0.990450
0.921361
0.834844
0.765444
0.673947
0.629444
0.531101
0.478195
0.385454
0.346863
0.255056
0.209930
0.128081
0.101317
0.028182
-0.018811
-0.088522
-0.138627
-0.196824
-0.258133
-0.297657
-0.366434
-0.390709
-0.485629
-0.514260
-0.601711
-0.633143
-0.715614
-0.752337
-0.836365
-0.869975
-0.944977
-0.996950
-1.053902
-1.115833
-1.158469
-1.227558
-1.261169
-1.329324
-1.352976
-1.426111
-1.433891
-1.499868
-1.510138
-1.575181
-1.583584
-1.639602
-1.663254
-1.713981
-1.747281
-1.772489
-1.816681
-1.843134
-1.905065
-1.912845
-1.982245
-1.995938
-2.056314
-2.060359
-2.120734
-2.134427
-2.184532
-2.189200
-2.225923
-2.245530
-2.270738
-2.284119
-2.292833
-2.325199
-2.326132
-2.359743
-2.356631
-2.403935
-2.391175
-2.430699
-2.410781
-2.454662
-2.436922
-2.458707
-2.455906
