EVENT_NAME: 202302060117
EVENT_ID: 13194
EVENT_DATE_YYYYMMDD: 2023/02/06
EVENT_TIME_HHMMSS: 01:17:32.00000
EVENT_LATITUDE_DEGREE: 37.288
EVENT_LONGITUDE_DEGREE: 37.043
EVENT_DEPTH_KM: 8.6
HYPOCENTER_REFERENCE: AFAD
MAGNITUDE_W: 7.7
MAGNITUDE_W_REFERENCE: AFAD
MAGNITUDE_L: 
MAGNITUDE_L_REFERENCE: 
FOCAL_MECHANISM: 
NETWORK: TK
STATION_CODE: 4904
STATION_NAME: 
STATION_LATITUDE_DEGREE: 38.73555
STATION_LONGITUDE_DEGREE: 41.77416
STATION_ELEVATION_M: 1300.0
LOCATION: Kahramanmaras_Pazarck_Turkiye
SENSOR_DEPTH_M: 
VS30_M/S: None
SITE_CLASSIFICATION_EC8: unknown
MORPHOLOGIC_CLASSIFICATION: 
EPICENTRAL_DISTANCE_KM: 444.58
EARTHQUAKE_BACKAZIMUTH_DEGREE: 
DATE_TIME_FIRST_SAMPLE_YYYYMMDD_HHMMSS: 2023/02/06 01:18:08.4706090
DATE_TIME_FIRST_SAMPLE_PRECISION: millisecond
SAMPLING_INTERVAL_S: 0.01
NDATA: 21001
DURATION_S: 
STREAM: HNZ
UNITS: cm/s^2
INSTRUMENT: sensor = CMG-5T/GURALP | digitizer = 
INSTRUMENT_ANALOG/DIGITAL: 
INSTRUMENTAL_FREQUENCY_HZ: 
INSTRUMENTAL_DAMPING: 
FULL_SCALE_G: 
N_BIT_DIGITAL_CONVERTER: 
PGA_CM/S^2: 10.167
TIME_PGA_S: 
BASELINE_CORRECTION: BASELINE REMOVED
FILTER_TYPE: BUTTERWORTH
FILTER_ORDER: 
LOW_CUT_FREQUENCY_HZ: 
HIGH_CUT_FREQUENCY_HZ: 
LATE/NORMAL_TRIGGERED: 
DATABASE_VERSION: 
HEADER_FORMAT: DYNA 1.2
DATA_TYPE: Acceleration
PROCESSING: Automatic Paolucci et al., 2011
DATA_TIMESTAMP_YYYYMMDD_HHMMSS: 
DATA_LICENSE: U (unknown license)
DATA_CITATION: Turkish Accelerometric Archive v 1.0 - Disaster And Emergency Management Presidency, Earthquake Department
DATA_CREATOR: AFAD
ORIGINAL_DATA_MEDIATOR_CITATION: : AFAD - Disaster And Emergency Management Presidency
ORIGINAL_DATA_MEDIATOR: AFAD PROCESS SERVICE
ORIGINAL_DATA_CREATOR_CITATION: AFAD PROCESS SERVICE
ORIGINAL_DATA_CREATOR: network: TK
USER1: GuestUser
USER2: 
USER3: 
USER4: 
USER5: 
[...]
0.768398
0.674664
0.599296
0.616080
0.569212
0.497645
0.254758
-0.005546
-0.232282
-0.526469
-1.109461
-1.693086
-2.073725
-2.437580
-2.897069
-3.267891
-3.573479
-3.946517
-4.218855
-4.286939
-4.083636
-3.815415
-3.450927
-3.097522
-3.011387
-3.152939
-3.531678
-3.873999
-3.765697
-3.424009
-2.986053
-2.085440
-1.069242
-0.403600
-0.089145
-0.105612
-0.462184
-1.049608
-1.895120
-2.861284
-3.519643
-3.824914
-3.898065
-3.538960
-2.735249
-1.845086
-1.316245
-1.250377
-1.465714
-1.796952
-1.929637
-1.611066
-0.718686
0.576182
2.042370
3.464857
4.459837
4.757508
4.600756
3.975647
3.140586
2.459109
2.192789
2.188989
2.399575
3.029751
3.571259
3.831879
3.815412
3.680194
3.612110
3.361623
3.119369
3.130136
3.109236
3.088653
3.020568
2.861599
2.976868
3.282772
3.773296
4.273953
4.642242
4.814828
4.869612
4.772077
4.498790
4.187502
3.694445
3.145338
2.605097
2.113940
1.949904
2.011655
2.162707
2.226675
2.093040
1.644000
0.737054
-0.196809
-0.914386
-1.322258
-1.320042
-0.843451
-0.227209
0.547685
1.450831
1.979989
2.112357
1.973022
1.565150
1.225045
1.106927
1.098060
1.324797
1.574017
1.563884
1.284896
0.666121
0.005228
-0.744332
-1.694662
-2.542708
-3.052231
-3.398353
-3.506338
-3.367002
-3.254901
-3.186500
-3.200116
-3.234317
-3.221967
-3.245717
-3.227983
-3.155149
-3.060147
-3.015497
-3.145649
-3.346418
-3.647256
-3.898692
-3.949993
-3.970260
-3.824591
-3.487336
-3.050330
-2.577223
-2.138634
-1.530308
-0.881766
-0.504294
-0.470093
-0.465343
-0.435576
-0.533427
-0.436209
-0.147088
0.060965
0.226901
0.460921
0.956511
1.667121
2.271330
2.721003
2.991440
2.896439
2.523400
2.018626
1.617088
1.549953
1.768140
2.280514
2.939823
3.774568
4.619130
5.240123
5.507710
5.546344
5.623612
5.530510
5.343991
5.139105
4.826234
4.320827
3.657717
3.120643
2.792889
2.697571
2.686487
2.482868
2.061062
1.524938
0.958096
0.526474
0.410572
0.412789
0.560991
0.743710
0.713310
0.680060
0.471690
0.080601
-0.237337
-0.488773
-0.728177
-0.881762
-0.971380
-1.140799
-1.207617
-1.096465
-0.824128
-0.387122
0.265221
0.888747
1.311819
1.626591
1.733626
1.696575
1.860927
2.344801
2.823608
3.184613
3.398366
3.424333
3.199813
2.631705
2.007863
1.697209
1.611075
1.656042
1.939463
2.391352
2.695673
2.883776
3.097529
3.356883
3.652654
3.957925
4.153945
3.960142
3.686855
3.356567
3.035146
2.854326
2.704541
2.488888
2.276085
2.184251
2.004381
1.889113
1.967964
2.019582
2.070566
2.154167
2.042382
1.727928
1.270021
0.573662
-0.329801
-1.107545
-1.622453
-1.921073
-1.972691
-1.856156
-1.713654
-1.465067
-1.418199
-1.480583
-1.531567
-1.536317
-1.491350
-1.413132
-1.376715
-1.218696
-1.128128
-1.006843
-1.012543
-1.250680
-1.198112
-1.155995
-0.984992
-0.796573
-0.649954
-0.547036
-0.318399
0.079656
0.483096
0.806733
1.021437
1.208273
1.353625
1.433743
1.585745
1.940417
2.258988
2.626326
2.771362
2.706761
2.409724
2.057269
1.814065
1.840349
2.018952
2.126303
2.127253
1.950551
1.574346
1.003071
0.263960
-0.535001
-0.842488
-1.508764
-2.054705
-2.017022
-1.732017
-1.409646
-1.189876
-1.138892
-1.206660
-1.182909
-1.073341
-0.890305
-0.772820
-0.765220
-0.796570
-0.856738
-0.885871
-0.718669
-0.426381
-0.102427
0.218045
0.461248
0.524899
0.429581
0.212345
0.016009
-0.089126
-0.215161
-0.661667
-1.534096
-2.500893
-3.317272
-3.870496
-4.007931
-3.722294
-3.237153
-2.629461
-2.191822
-2.097770
-2.118987
-2.247872
-2.517360
-2.797297
-2.957849
-3.124418
-3.189336
-3.245386
-3.436656
-3.642175
-3.752377
-3.661809
-3.328987
-2.735545
-2.044569
-1.317808
-0.754134
-0.529297
-0.663566
-1.125589
-1.821632
-2.476191
-2.662077
-2.384356
-1.805798
-1.079671
-0.472612
-0.220225
-0.192675
-0.294960
-0.522646
-0.843434
-1.170555
-1.454293
-1.700029
-1.780780
-1.684196
-1.423575
-1.115137
-0.952052
-0.967569
-1.086320
-1.262073
-1.538843
-1.643028
-1.585394
-1.518576
-1.454608
-1.414391
-1.386841
-1.486909
-1.789963
-2.099667
-2.476822
-2.776710
-3.000913
-2.883428
-2.389738
-1.591093
-0.885550
-0.536578
-0.275641
-0.159422
-0.295591
-0.509977
-0.646146
-0.569511
-0.504594
-0.352591
-0.515677
-1.018234
-1.800412
-2.525589
-3.327400
-3.885691
-4.281213
-4.188745
-3.942375
-3.393267
-2.769108
-2.104732
-1.938163
-1.591408
-1.580958
-2.383086
-2.233300
-2.244384
-1.775710
-1.180685
-0.557793
-0.534043
-0.750012
-1.033750
-1.053700
-0.875731
-0.548926
-0.134087
0.208235
0.110700
-0.280072
-0.876364
-1.206335
-1.287719
-1.025199
-0.471341
0.079034
0.180685
-0.300338
-1.338386
-2.486002
-3.295097
-3.380282
-2.777973
-1.985662
-1.298485
-1.389053
-2.244699
-3.303964
-4.037057
-4.245110
-4.044974
-3.668135
-3.176978
-2.866957
-2.745672
-2.642437
-2.393850
-2.009728
-1.614839
-1.268717
-1.105315
-1.140465
-1.437186
-1.892559
-2.250398
-2.467951
-2.470801
-2.295681
-1.864375
-1.361501
-0.900111
-0.564757
-0.413704
-0.304136
-0.381404
-0.760776
-1.295950
-1.749740
-2.045827
-2.050260
-1.924542
-1.761456
-1.687988
-1.728839
-1.853607
-2.038860
-2.320064
-2.559784
-2.536350
-2.329247
-1.917891
-1.344400
-0.795925
-0.416553
-0.274368
-0.292101
-0.435870
-0.596105
-0.629989
-0.618906
-0.386152
-0.099881
0.333325
0.857099
1.385623
1.888180
2.254886
2.464522
2.487639
2.473389
2.639958
3.059864
3.633039
4.169163
4.660320
5.032092
5.029876
4.533019
3.796442
2.964230
2.297637
1.903065
1.785263
1.954682
2.315688
2.705510
2.841045
2.810645
2.632676
2.278321
1.933783
1.771647
1.726046
1.690579
1.727630
1.791281
1.864749
1.899582
1.896733
1.880582
1.970834
1.863166
1.443576
0.993903
0.669949
0.435296
0.238643
0.241493
0.358028
0.485647
0.569564
0.660132
0.656016
0.526814
0.365312
0.155992
0.038191
0.091075
0.240860
0.488497
0.723467
0.760201
0.504014
-0.101461
-0.517567
-1.062241
-1.529014
-1.723134
-1.702867
-1.453646
-1.241160
-1.117658
-1.203159
-1.451746
-1.799768
-2.164573
-2.546478
-2.675363
-2.626912
-2.493910
-2.237090
-1.846001
-1.387461
-1.028673
-0.802886
-0.712952
-0.832653
-1.094857
-1.292776
-1.073323
-0.500148
0.301663
1.087008
1.614899
1.660183
1.337812
0.881172
0.561334
0.629418
0.998974
1.415713
1.742834
1.800468
1.505014
0.940390
0.331748
-0.132492
-0.378229
-0.471647
-0.547331
-0.712000
-1.073322
-1.668980
-2.351723
-2.992982
-3.535440
-4.008230
-4.392035
-4.617821
-4.760640
-4.766657
-4.681472
-4.490203
-4.255866
-3.965795
-3.760909
-3.685858
-3.682374
-3.653557
-3.628857
-3.571223
-3.523722
-3.498071
-3.528155
-3.440120
-3.027498
-2.197186
-1.123671
-0.140407
0.581287
0.938492
0.910625
0.685789
0.579704
0.747223
1.096828
1.551251
2.020558
2.397080
2.674800
3.002239
3.455395
3.932618
4.286974
4.412059
4.305974
4.078287
3.741033
3.345194
3.016489
2.836303
2.761569
2.832187
2.780570
2.623184
2.209295
1.809339
1.625670
1.598753
1.628520
1.682988
1.588936
1.370750
1.056929
0.865026
1.175998
1.198481
1.487285
1.456568
1.218432
0.839693
0.344103
-0.087520
-0.478925
-0.699645
-0.841830
-0.921948
-1.067300
-1.242103
-1.414688
-1.473906
-1.546107
-1.486256
-1.404871
-1.268703
-1.196818
-1.173701
-1.365604
-1.557190
-1.841244
-2.162665
-2.313717
-2.229482
-1.804193
-1.375737
-0.844363
-0.263588
0.232953
0.482490
0.604092
0.668693
0.813095
0.975547
1.140533
1.226034
1.143383
0.781111
0.093618
-0.731943
-1.537238
-1.988494
-2.084129
-1.831425
-1.405503
-0.885845
-0.543207
-0.481456
-0.693626
-1.152165
-1.751307
-2.196863
-2.394150
-2.273814
-1.991977
-1.530904
-1.096431
-0.696158
-0.441871
-0.207851
-0.135650
-0.039066
0.062586
0.375774
0.791563
1.163968
1.566457
1.828345
1.563291
1.328638
0.645895
0.392241
0.192422
0.734246
0.873898
1.473357
1.727960
0.843815
1.140536
0.814681
1.110769
1.441373
2.201701
2.828076
3.644771
4.137828
4.645452
5.031158
5.537198
6.022655
6.512546
6.763983
6.847584
6.539463
5.898521
5.172394
4.607136
4.250564
4.113762
4.164746
4.353166
4.505801
4.444050
4.295215
3.824642
3.310051
2.798944
2.430656
2.266620
2.386955
2.588041
2.902179
3.124482
3.212834
3.148550
3.168183
3.241018
3.391120
3.606456
3.855360
4.126114
4.465585
4.867758
5.267713
5.706303
6.223427
6.678167
6.935304
7.156341
7.279526
7.376110
7.549646
7.882468
8.199139
8.387875
8.385975
8.205789
8.081971
8.076588
8.270074
8.522461
8.843882
9.014884
8.881566
8.465143
7.829268
7.086041
6.374481
5.715488
5.235415
4.904493
4.586556
4.176783
3.706210
3.211570
2.775514
2.501910
2.259656
1.964202
1.516429
0.825770
-0.009609
-0.861138
-1.583781
-2.105022
-2.431826
-2.640513
-2.788715
-2.926783
-3.221921
-3.611109
-3.980981
-4.310636
-4.649791
-4.914211
-5.082047
-5.298333
-5.617537
-5.972526
-6.378181
-6.851921
-7.253777
-7.497297
-7.453913
-7.116341
-6.705619
-6.241379
-5.860107
-5.683404
-5.616270
-5.332849
-5.075079
-4.752074
-4.252684
-3.787494
-3.440739
-3.163968
-2.950532
-2.905564
-2.895431
-2.915698
-2.926148
-2.806763
-2.452091
-1.970117
-1.278507
-0.596714
-0.000739
0.238981
0.312449
-0.016573
-0.409878
-0.967219
-1.283890
-1.561928
-0.988436
-0.827250
-0.392144
0.444818
0.875174
1.209895
1.117744
0.906841
0.569587
0.441651
0.362484
0.420118
0.340634
0.120864
-0.348126
-0.857333
-1.517276
-2.099634
-2.495156
-2.613908
-2.727909
-2.803277
-2.985996
-3.212733
-3.455936
-3.654489
-3.876159
-4.012961
-4.112079
-4.191246
-4.276747
-4.470233
-4.830288
-5.237844
-5.632100
-5.839519
-5.846169
-5.711584
-5.576682
-5.459514
-5.413596
-5.497514
-5.688467
-5.884486
-6.042822
-5.945287
-5.584598
-5.105475
-4.563017
-4.124427
-3.852407
-3.642770
-3.321983
-2.811825
-2.200333
-1.644259
-1.281353
-1.119534
-1.098951
-1.093884
-1.044483
-0.900714
-0.686961
-0.513425
-0.418424
-0.354773
-0.297139
-0.307906
-0.356673
-0.467824
-0.712928
-1.018832
-1.201868
-1.213585
-1.065699
-0.757261
-0.297772
0.320054
0.936613
1.297935
1.195650
0.670609
-0.132152
-1.042265
-1.801959
-2.238015
-2.410601
-2.442585
-2.463801
-2.557219
-2.749122
-2.996759
-3.181061
-3.306146
-3.422365
-3.527816
-3.679818
-3.823903
-3.826753
-3.790020
-3.661768
-3.451815
-3.211778
-2.993591
-2.723154
-2.431817
-2.178163
-1.978977
-1.848825
-1.794674
-1.724373
-1.613221
-1.468186
-1.202499
-0.885827
-0.649907
-0.533689
-0.444704
-0.170784
0.309290
0.982533
1.775161
2.508254
3.067496
3.447818
3.646054
3.764172
3.801223
3.771139
3.694188
3.517486
3.276183
3.094730
3.035829
2.991495
2.941778
2.871160
2.731825
2.532006
2.398371
2.375887
2.535806
2.896811
3.283150
3.456369
3.286317
2.745443
1.986065
1.287489
0.849216
0.786198
1.114587
1.713095
2.273920
2.670709
2.854695
2.893012
2.910112
2.912962
2.873695
2.810678
2.780277
2.755577
2.735310
2.718527
2.652026
2.443973
2.132052
1.784980
1.404658
1.079754
0.890068
0.802350
0.777016
0.857451
0.993620
1.012937
0.909385
0.743766
0.584481
0.532863
0.695949
1.090205
1.630446
2.212171
2.656460
2.825563
2.714411
2.364490
1.914500
1.489528
1.136756
0.927436
0.935037
1.083555
1.255508
1.338159
1.308709
1.220674
1.100973
0.989821
0.915720
0.943587
1.043972
1.183307
1.322960
1.411311
1.474962
1.532596
1.583580
1.634564
1.683648
1.727666
1.778650
1.916402
2.084871
2.215973
2.380009
2.584262
2.840449
3.103919
3.298039
3.392407
3.464924
3.557392
3.729028
4.019416
4.342420
4.526406
4.506773
4.255653
3.816113
3.303739
2.788515
2.317942
1.979104
1.794485
1.764718
1.905320
2.202041
2.503512
2.644430
2.584580
2.416111
2.266009
2.261892
2.370194
2.536129
2.677681
2.771416
2.765399
2.696682
2.688765
2.553547
2.405028
2.342960
2.191908
1.978155
1.801453
1.687135
1.786570
2.114958
2.663749
3.276191
3.771781
4.012768
3.995668
3.829416
3.700847
3.718581
3.916184
4.214805
4.506775
4.661628
4.679995
4.548893
4.359524
4.094470
3.795532
3.375627
2.959521
2.369562
2.105459
1.586435
1.204846
0.954359
0.594304
0.401135
0.055647
-0.309158
-0.721464
-1.110970
-1.380773
-1.420674
-1.261072
-0.964351
-0.669213
-0.441526
-0.366159
-0.490927
-0.859215
-1.351006
-1.881113
-2.268402
-2.483105
-2.477721
-2.334903
-2.057815
-1.743677
-1.356072
-1.066318
-0.737613
-0.432025
-0.102371
0.088899
0.345719
0.468904
0.651307
0.573089
0.523055
0.184851
0.090166
-0.375341
-0.012435
-0.684095
-1.171452
-1.246819
-1.889028
-2.294367
-2.767157
-2.846008
-2.975527
-2.869442
-2.902059
-2.817191
-2.828591
-2.816558
-2.965393
-3.015427
-3.161412
-3.194979
-3.178196
-3.035377
-2.885275
-2.622754
-2.415651
-2.250982
-2.139831
-2.084096
-2.278216
-2.588237
-3.075277
-3.513233
-3.938839
-4.253927
-4.528164
-4.605748
-4.678266
-4.827418
-5.011721
-5.201090
-5.273607
-5.196023
-5.026604
-4.727033
-4.391678
-3.951505
-3.454648
-2.954941
-2.446050
-1.832975
-1.222433
-0.684725
-0.214468
0.159204
0.433124
0.650361
0.808696
0.953732
1.157985
1.366671
1.747943
2.261584
2.794858
3.206531
3.313882
3.011461
2.375586
1.531974
0.793497
0.266556
0.008786
-0.107749
-0.101732
-0.159683
-0.281601
-0.470971
-0.695490
-1.108113
-1.556519
-2.065093
-2.554033
-2.916938
-3.352994
-3.703549
-3.880885
-4.276091
-4.515177
-5.077268
-5.239404
-5.982314
-6.709391
-7.037146
-7.461169
-7.567253
-7.705955
-7.727489
-7.935225
-8.165128
-8.597384
-9.067324
-9.573998
-9.924870
-10.164590
-10.166806
-10.076872
-9.853302
-9.642082
-9.433712
-9.372911
-9.388111
-9.532197
-9.690849
-9.809601
-9.668999
-9.205392
-8.490032
-7.584352
-6.565304
-5.582357
-4.766612
-4.152903
-3.656680
-3.246274
-2.966020
-2.889068
-2.941952
-2.982803
-2.862151
-2.508746
-1.943488
-1.305079
-0.740771
-0.381982
-0.264181
-0.296481
-0.359815
-0.402882
-0.331315
-0.127695
0.141159
0.379929
0.527498
0.626616
0.692800
0.734917
0.719717
0.641816
0.441047
0.100942
-0.366464
-0.924122
-1.486847
-1.913720
-2.136023
-2.219940
-2.246541
-2.279158
-2.377009
-2.575245
-2.843149
-3.116753
-3.408407
-3.735845
-4.059799
-4.391987
-4.720375
-4.980679
-5.204249
-5.343584
-5.365434
-5.322050
-5.247632
-5.124447
-4.948061
-4.677941
-4.344486
-4.017681
-3.729194
-3.479023
-3.310554
-3.229486
-3.194336
-3.226636
-3.388455
-3.633875
-3.889745
-4.078798
-4.031614
-3.659209
-3.022066
-2.244639
-1.446627
-0.757867
-0.224910
0.128495
0.358715
0.549351
0.800788
1.131710
1.514565
1.900904
2.288510
2.650465
2.991836
3.316741
3.633096
3.906700
4.069785
4.102403
4.010885
3.934250
3.982068
4.200571
4.543209
4.944115
5.283903
5.450789
5.450789
5.339004
5.138235
4.879514
4.593877
4.318056
4.118870
4.043819
4.084037
4.226222
4.397541
4.524843
4.571077
4.536877
4.479559
4.425409
4.370308
4.268973
4.098287
3.920635
3.769266
3.639115
3.452279
3.209709
2.980439
2.797719
2.722035
2.820203
3.065940
3.399078
3.750583
4.009620
4.089105
4.011837
3.800934
3.490913
3.081458
2.627668
2.157411
1.717872
1.338816
1.044312
0.903077
0.882810
0.918911
0.955328
0.933161
0.772609
0.454354
-0.003552
-0.459875
-0.757863
-0.858881
-0.769896
-0.530493
-0.235672
0.004682
0.136417
0.132934
0.019566
-0.109636
-0.248971
-0.362340
-0.387990
-0.199571
0.255486
0.892312
1.561755
2.110229
2.452551
2.573836
2.539635
2.512718
2.608353
2.857573
3.216995
3.593517
3.845588
3.857621
3.551717
2.972209
2.205865
1.371436
0.663676
0.279554
0.286521
0.609209
1.066166
1.430021
1.580123
1.540539
1.360670
1.160851
1.094033
1.204235
1.469288
1.748276
1.922445
1.982296
1.934795
1.792293
1.569357
1.240652
0.852097
0.453408
0.072453
-0.258152
-0.441821
-0.394637
-0.115017
0.359040
0.917965
1.398672
1.661826
1.677976
1.512674
1.265353
1.065534
1.016767
1.158319
1.423689
1.711860
1.963297
2.151716
2.285668
2.420254
2.563706
2.657757
2.678658
2.578906
2.309102
1.845179
1.245404
0.580712
-0.040597
-0.448153
-0.580521
-0.461770
-0.137498
0.309641
0.740631
1.098469
1.344206
1.459158
1.464225
1.417991
1.378407
1.415774
1.624144
2.005416
2.481373
2.985830
3.409219
3.684407
3.792708
3.750274
3.620756
3.479521
3.379136
3.327519
3.322135
3.383886
3.524172
3.706891
3.906711
4.052063
4.105264
4.072646
3.952945
3.754709
3.553306
3.370587
3.213518
3.076716
2.949414
2.821796
2.691644
2.545659
2.380673
2.246405
2.165020
2.171670
2.291689
2.501642
2.750229
2.954482
3.035866
2.975382
2.833197
2.664728
2.475359
2.277756
2.104220
2.000035
1.982935
2.042469
2.131137
2.239756
2.357557
2.447809
2.517160
2.569094
2.537744
2.431975
2.357558
2.223923
2.105488
2.064637
2.001936
1.940186
1.867985
1.732133
1.622881
1.641248
1.842334
2.120688
2.359142
2.495944
2.431343
2.154573
1.779951
1.312544
0.854321
0.342580
-0.122926
-0.532065
-0.842086
-0.978571
-0.987438
-0.804085
-0.568165
-0.392729
-0.387663
-0.533331
-0.845569
-1.229691
-1.619513
-1.990652
-2.271539
-2.469775
-2.505559
-2.506509
-2.563193
-2.775996
-3.175951
-3.723476
-4.367902
-4.929676
-5.360982
-5.566818
-5.594685
-5.454083
-5.270414
-5.052227
-4.882808
-4.664622
-4.488869
-4.259599
-4.058196
-3.919811
-3.901761
-3.890994
-3.977128
-4.080046
-4.252315
-4.314383
-4.396401
-4.326100
-4.328316
-4.299499
-4.407801
-4.432184
-4.500902
-4.404950
-4.253581
-3.877376
-3.472670
-2.873528
-2.335504
-1.647378
-1.099536
-0.459861
-0.051671
0.412252
0.505987
0.667489
0.453419
0.433152
0.062331
0.122815
-0.350925
-0.252440
0.544304
-0.239140
0.315035
-0.225523
0.076898
0.051881
0.040481
0.042381
-0.075421
-0.054837
-0.076687
-0.011453
0.107616
0.213384
0.239034
0.389453
0.518655
0.207684
0.544305
0.521505
0.508522
0.241251
-0.143187
-0.635611
-1.159702
-1.710709
-2.222450
-2.623039
-2.870676
-3.041361
-3.239281
-3.481217
-3.818156
-4.218428
-4.686784
-5.101307
-5.544646
-5.796083
-6.102937
-5.982919
-5.939852
-5.506329
-5.062989
-4.673484
-4.261494
-3.975224
-3.784271
-3.671219
-3.580334
-3.497367
-3.321614
-3.117044
-2.845974
-2.574903
-2.257599
-1.905144
-1.586889
-1.342102
-1.167300
-1.075148
-1.036514
-1.011181
-1.045698
-1.063431
-0.995664
-0.828778
-0.589374
-0.286003
0.004068
0.212121
0.312505
0.384706
0.439491
0.523725
0.584526
0.598776
0.467991
0.201988
-0.166618
-0.541239
-0.810727
-0.969062
-1.040630
-1.095414
-1.137531
-1.235382
-1.448819
-1.724322
-2.030227
-2.260130
-2.357031
-2.300030
-2.071394
-1.749339
-1.389284
-1.039996
-0.715724
-0.439587
-0.256551
-0.150466
-0.178016
-0.239767
-0.390819
-0.495637
-0.520971
-0.404753
-0.114365
0.231757
0.651663
1.047502
1.408823
1.644110
1.735312
1.720745
1.687811
1.682428
1.864197
2.123234
2.468089
2.880078
3.190099
3.424753
3.526404
3.538438
3.470037
3.387702
3.271801
3.122015
2.922513
2.611858
2.306904
2.059584
1.923099
1.964899
2.098535
2.218870
2.253704
2.145719
1.939249
1.703329
1.472160
1.323324
1.215339
1.029770
0.840084
0.594031
0.292243
0.021489
-0.272381
-0.535218
-0.792039
-1.055509
-1.303146
-1.527349
-1.739202
-1.942188
-2.124907
-2.352277
-2.615114
-2.905501
-3.173405
-3.407425
-3.515410
-3.455875
-3.225656
-2.858950
-2.467228
-2.130606
-1.850986
-1.608099
-1.422530
-1.219543
