EVENT_NAME: 202302060117
EVENT_ID: 13194
EVENT_DATE_YYYYMMDD: 2023/02/06
EVENT_TIME_HHMMSS: 01:17:32.00000
EVENT_LATITUDE_DEGREE: 37.288
EVENT_LONGITUDE_DEGREE: 37.043
EVENT_DEPTH_KM: 8.6
HYPOCENTER_REFERENCE: AFAD
MAGNITUDE_W: 7.7
MAGNITUDE_W_REFERENCE: AFAD
MAGNITUDE_L: 
MAGNITUDE_L_REFERENCE: 
FOCAL_MECHANISM: 
NETWORK: TK
STATION_CODE: 0507
STATION_NAME: 
STATION_LATITUDE_DEGREE: 40.87969
STATION_LONGITUDE_DEGREE: 35.45884
STATION_ELEVATION_M: 757.0
LOCATION: Kahramanmaras_Pazarck_Turkiye
SENSOR_DEPTH_M: 
VS30_M/S: 368
SITE_CLASSIFICATION_EC8: B
MORPHOLOGIC_CLASSIFICATION: 
EPICENTRAL_DISTANCE_KM: 422.11
EARTHQUAKE_BACKAZIMUTH_DEGREE: 
DATE_TIME_FIRST_SAMPLE_YYYYMMDD_HHMMSS: 2023/02/06 01:18:05.6933770
DATE_TIME_FIRST_SAMPLE_PRECISION: millisecond
SAMPLING_INTERVAL_S: 0.01
NDATA: 21001
DURATION_S: 
STREAM: HNZ
UNITS: cm/s^2
INSTRUMENT: sensor = CMG-5T/GURALP | digitizer = 
INSTRUMENT_ANALOG/DIGITAL: 
INSTRUMENTAL_FREQUENCY_HZ: 
INSTRUMENTAL_DAMPING: 
FULL_SCALE_G: 
N_BIT_DIGITAL_CONVERTER: 
PGA_CM/S^2: 1.770
TIME_PGA_S: 
BASELINE_CORRECTION: BASELINE REMOVED
FILTER_TYPE: BUTTERWORTH
FILTER_ORDER: 
LOW_CUT_FREQUENCY_HZ: 
HIGH_CUT_FREQUENCY_HZ: 
LATE/NORMAL_TRIGGERED: 
DATABASE_VERSION: 
HEADER_FORMAT: DYNA 1.2
DATA_TYPE: Acceleration
PROCESSING: Automatic Paolucci et al., 2011
DATA_TIMESTAMP_YYYYMMDD_HHMMSS: 
DATA_LICENSE: U (unknown license)
DATA_CITATION: Turkish Accelerometric Archive v 1.0 - Disaster And Emergency Management Presidency, Earthquake Department
DATA_CREATOR: AFAD
ORIGINAL_DATA_MEDIATOR_CITATION: : AFAD - Disaster And Emergency Management Presidency
ORIGINAL_DATA_MEDIATOR: AFAD PROCESS SERVICE
ORIGINAL_DATA_CREATOR_CITATION: AFAD PROCESS SERVICE
ORIGINAL_DATA_CREATOR: network: TK
USER1: GuestUser
USER2: 
USER3: 
USER4: 
USER5: 
[...]
0.309722
0.336812
0.359989
0.378953
0.399722
0.416578
0.450892
0.475274
0.489120
0.511093
0.544504
0.584237
0.607113
0.627280
0.650157
0.683568
0.710658
0.740458
0.767849
0.785307
0.801561
0.827147
0.843702
0.846411
0.855441
0.866578
0.872598
0.880424
0.881929
0.878919
0.879822
0.870792
0.866277
0.859354
0.839187
0.823234
0.821427
0.809387
0.773568
0.754605
0.747080
0.726912
0.696812
0.687180
0.676946
0.662799
0.647447
0.629688
0.618852
0.614036
0.606210
0.596578
0.588150
0.572497
0.557146
0.549922
0.529153
0.505073
0.490925
0.466544
0.434337
0.412363
0.388885
0.339822
0.305206
0.282330
0.258250
0.217012
0.184504
0.154403
0.119788
0.085172
0.061995
0.040323
0.002697
-0.020781
-0.035831
-0.038841
-0.057804
-0.072854
-0.067135
-0.071349
-0.072553
-0.045162
-0.012353
0.008416
0.023166
0.060791
0.095406
0.121895
0.151393
0.193835
0.229353
0.260958
0.307012
0.356376
0.391594
0.412664
0.446978
0.487614
0.521326
0.533968
0.565574
0.599587
0.617045
0.624270
0.643233
0.652564
0.658584
0.678751
0.693801
0.704336
0.714269
0.725106
0.735641
0.728718
0.721193
0.726310
0.731427
0.727514
0.719988
0.718483
0.713667
0.702831
0.676343
0.647146
0.635105
0.630289
0.608015
0.567681
0.527346
0.508684
0.491226
0.458115
0.424704
0.385573
0.344938
0.312129
0.285339
0.226342
0.175172
0.141760
0.114670
0.062597
0.006309
-0.027404
-0.073758
-0.121317
-0.170982
-0.212220
-0.235397
-0.262186
-0.311250
-0.341350
-0.383190
-0.424728
-0.440682
-0.446702
-0.475598
-0.509310
-0.526468
-0.523157
-0.534294
-0.546936
-0.543023
-0.549043
-0.549946
-0.550247
-0.549344
-0.533692
-0.530381
-0.536702
-0.526468
-0.520147
-0.521953
-0.506300
-0.501183
-0.503591
-0.491551
-0.482521
-0.465364
-0.456033
-0.464461
-0.460548
-0.431953
-0.409377
-0.392822
-0.381685
-0.385899
-0.382889
-0.375063
-0.358207
-0.353391
-0.353391
-0.357003
-0.364227
-0.381384
-0.407873
-0.442488
-0.468073
-0.471384
-0.490950
-0.519846
-0.531284
-0.547538
-0.578542
-0.593592
-0.604428
-0.603525
-0.616468
-0.613458
-0.608943
-0.601418
-0.606234
-0.602923
-0.581552
-0.566803
-0.550548
-0.531284
-0.509311
-0.491251
-0.474094
-0.441284
-0.402455
-0.380782
-0.362421
-0.331719
-0.298609
-0.269411
-0.259478
-0.237806
-0.206501
-0.190247
-0.156234
-0.127037
-0.107170
-0.096033
-0.077672
-0.049077
-0.024093
-0.034328
-0.028006
-0.006334
-0.000013
0.003900
0.004201
0.016542
0.028582
0.027077
0.025572
0.021057
0.016241
0.030689
0.038816
0.047846
0.052963
0.051157
0.055070
0.063799
0.066207
0.060488
0.072228
0.094201
0.104134
0.099920
0.092997
0.078248
0.071926
0.062896
0.041525
0.025572
0.004201
-0.015967
-0.056000
-0.099044
-0.135465
-0.171284
-0.208308
-0.244428
-0.279044
-0.328408
-0.372957
-0.427138
-0.472288
-0.518643
-0.556870
-0.591185
-0.617673
-0.653492
-0.703158
-0.735967
-0.749512
-0.767573
-0.792857
-0.803994
-0.810014
-0.817840
-0.832589
-0.844630
-0.846436
-0.845533
-0.852155
-0.850048
-0.850951
-0.843426
-0.847038
-0.829580
-0.813024
-0.801887
-0.786536
-0.776904
-0.762155
-0.738075
-0.718208
-0.706469
-0.690817
-0.672456
-0.664329
-0.662222
-0.651988
-0.653493
-0.658008
-0.662222
-0.661921
-0.675165
-0.694730
-0.721519
-0.726938
-0.725433
-0.724831
-0.718208
-0.718810
-0.725433
-0.720616
-0.716402
-0.713392
-0.695934
-0.681486
-0.653794
-0.623392
-0.602021
-0.576436
-0.554162
-0.517138
-0.478610
-0.448509
-0.415098
-0.388911
-0.354897
-0.322389
-0.293794
-0.264596
-0.246235
-0.222155
-0.199580
-0.179412
-0.173693
-0.170081
-0.148108
-0.122222
-0.107473
-0.096034
-0.080683
-0.068944
-0.048175
-0.030115
-0.013258
-0.001820
0.014434
0.030688
0.054768
0.060487
0.055069
0.060487
0.061992
0.059283
0.062594
0.068614
0.073129
0.073430
0.068614
0.078246
0.087879
0.092996
0.102628
0.112862
0.117979
0.125805
0.143564
0.156206
0.167644
0.182996
0.189919
0.199852
0.205872
0.211290
0.212494
0.214300
0.213698
0.205571
0.201658
0.192929
0.183598
0.159216
0.136942
0.117377
0.095102
0.073731
0.050253
0.031290
0.019851
0.000587
-0.004831
-0.012055
-0.016269
-0.015667
0.011423
0.037611
0.047544
0.065002
0.075838
0.097811
0.132126
0.163129
0.181490
0.201959
0.223330
0.245303
0.277811
0.287142
0.298280
0.319952
0.336206
0.358480
0.369918
0.376540
0.382561
0.380453
0.391892
0.414467
0.415370
0.415671
0.403932
0.403932
0.406942
0.403932
0.397611
0.403330
0.393698
0.383162
0.384968
0.397611
0.399417
0.394300
0.402728
0.418982
0.436440
0.440353
0.443664
0.456908
0.465938
0.480085
0.501156
0.513196
0.524935
0.537878
0.538781
0.539082
0.541189
0.543597
0.536975
0.536072
0.535169
0.524333
0.511089
0.502360
0.503564
0.495135
0.485503
0.475269
0.474366
0.474667
0.466540
0.454199
0.448781
0.450888
0.452092
0.454801
0.465035
0.463229
0.464433
0.461423
0.459918
0.456306
0.447878
0.434634
0.425001
0.425904
0.425904
0.405436
0.392192
0.383162
0.369918
0.350052
0.335001
0.331389
0.331690
0.320854
0.294065
0.264265
0.245603
0.224834
0.208580
0.198647
0.192326
0.173362
0.143563
0.122493
0.097509
0.082158
0.067710
0.058981
0.041222
0.034299
0.021957
0.014131
0.015034
0.018345
0.018646
0.030084
0.029783
0.029482
0.030084
0.039717
0.053864
0.083663
0.114365
0.125503
0.126406
0.132426
0.162225
0.184499
0.201355
0.227543
0.238078
0.231155
0.232660
0.225436
0.231456
0.223329
0.214599
0.207977
0.199248
0.175469
0.148680
0.129716
0.102626
0.086673
0.077944
0.071924
0.055368
0.044532
0.022860
0.006305
-0.000016
-0.004230
-0.013561
-0.031622
-0.049983
-0.065936
-0.073461
-0.077675
-0.082792
-0.088812
-0.091220
-0.083093
-0.095434
-0.106572
-0.110184
-0.105067
-0.089715
-0.077374
-0.083394
-0.121020
-0.152023
-0.162257
-0.162859
-0.167073
-0.189950
-0.217943
-0.247441
-0.269716
-0.291087
-0.326003
-0.353696
-0.372057
-0.411187
-0.453930
-0.483428
-0.517743
-0.551154
-0.586672
-0.619482
-0.650184
-0.672458
-0.698947
-0.713395
-0.726037
-0.726639
-0.735669
-0.745903
-0.733562
-0.718211
-0.713094
-0.699549
-0.671255
-0.651990
-0.637241
-0.607141
-0.587275
-0.567107
-0.548746
-0.528880
-0.522258
-0.509616
-0.493362
-0.491556
-0.482826
-0.481321
-0.477107
-0.478612
-0.472893
-0.468679
-0.453629
-0.442191
-0.429549
-0.415402
-0.401556
-0.384097
-0.364532
-0.345268
-0.326004
-0.304332
-0.291388
-0.271823
-0.247141
-0.224566
-0.204398
-0.191154
-0.166472
-0.152024
-0.138780
-0.122525
-0.103562
-0.096639
-0.093629
-0.087308
-0.075870
-0.055402
-0.043964
-0.033428
-0.028010
-0.009950
0.006304
0.028277
0.052056
0.071321
0.099916
0.130919
0.165535
0.194130
0.224832
0.261555
0.290752
0.324465
0.351555
0.382257
0.411756
0.439147
0.459916
0.486103
0.507776
0.524933
0.551120
0.567073
0.586639
0.605602
0.620953
0.633595
0.643227
0.647441
0.658578
0.660685
0.662190
0.651655
0.635401
0.629080
0.616137
0.606204
0.600786
0.591454
0.577006
0.562859
0.549314
0.539682
0.533963
0.524933
0.516505
0.509581
0.501153
0.501755
0.494531
0.495735
0.489715
0.481889
0.480685
0.476170
0.477976
0.476471
0.473762
0.466538
0.454799
0.438845
0.437039
0.429815
0.423193
0.422290
0.414464
0.410250
0.403327
0.404832
0.401220
0.387976
0.381053
0.370819
0.360885
0.349146
0.338611
0.334698
0.330484
0.319648
0.319046
0.318745
0.315133
0.325367
0.333193
0.337106
0.338912
0.347340
0.356671
0.348845
0.344932
0.346437
0.335902
0.327173
0.311521
0.296470
0.269380
0.236872
0.214296
0.192925
0.169748
0.156203
0.133025
0.113761
0.102022
0.089079
0.078845
0.075233
0.074631
0.058377
0.053259
0.045433
0.048744
0.040918
0.028878
0.012624
0.000584
-0.012660
-0.027109
-0.033430
-0.033430
-0.037042
-0.036741
-0.027711
-0.018681
-0.001523
0.009915
0.026771
0.040316
0.061687
0.073427
0.088778
0.104129
0.111052
0.116169
0.132122
0.136938
0.134831
0.127306
0.128811
0.127306
0.120684
0.117674
0.108945
0.095701
0.083962
0.071620
0.064396
0.058376
0.054162
0.046035
0.027674
0.021052
0.011721
0.012022
0.009012
0.009313
0.003894
0.007205
0.009613
0.019246
0.034898
0.046938
0.061386
0.084563
0.108945
0.127607
0.146570
0.171252
0.189915
0.207072
0.205567
0.225734
0.233259
0.220918
0.224530
0.217306
0.205567
0.184797
0.175767
0.158008
0.139045
0.128209
0.113158
0.093292
0.074931
0.058075
0.048142
0.037306
0.035199
0.018944
0.017740
0.017439
0.016536
0.020750
0.024061
0.028275
0.044831
0.065299
0.073727
0.102924
0.136336
0.166737
0.194730
0.231152
0.273894
0.314530
0.355466
0.396403
0.439747
0.477072
0.514998
0.558342
0.594162
0.625767
0.652557
0.688978
0.706737
0.729312
0.743460
0.752791
0.756704
0.760015
0.753995
0.747373
0.740148
0.726904
0.713359
0.694396
0.670617
0.652255
0.633292
0.607707
0.587540
0.561653
0.535767
0.518610
0.496636
0.463225
0.446369
0.424998
0.399412
0.371419
0.352456
0.324462
0.291051
0.264864
0.233258
0.192924
0.164328
0.131519
0.105031
0.069512
0.043927
0.012924
-0.015672
-0.041257
-0.065337
-0.086709
-0.108682
-0.118615
-0.129150
-0.146608
-0.163164
-0.170388
-0.189050
-0.205304
-0.209819
-0.221859
-0.243833
-0.254067
-0.269418
-0.287177
-0.301625
-0.314267
-0.328716
-0.346174
-0.365137
-0.378983
-0.394033
-0.406375
-0.421124
-0.440087
-0.450923
-0.465973
-0.481625
-0.491258
-0.499987
-0.509619
-0.517445
-0.515338
-0.517746
-0.519251
-0.513833
-0.514134
-0.504201
-0.505104
-0.504201
-0.500589
-0.502696
-0.511425
-0.522562
-0.532194
-0.543331
-0.564402
-0.585171
-0.605338
-0.624000
-0.645673
-0.661325
-0.677880
-0.700154
-0.719118
-0.735372
-0.741994
-0.748315
-0.768482
-0.781425
-0.782629
-0.788047
-0.794971
-0.798282
-0.795874
-0.804001
-0.804603
-0.811225
-0.815138
-0.825974
-0.836208
-0.844034
-0.858181
-0.879553
-0.896108
-0.915673
-0.930422
-0.949084
-0.967446
-0.976476
-0.988215
-1.005071
-1.013499
-1.011091
-1.017111
-1.019820
-1.014101
-1.000255
-0.994235
-0.987011
-0.965941
-0.940054
-0.926208
-0.901526
-0.864503
-0.834402
-0.810924
-0.779921
-0.736877
-0.698650
-0.667646
-0.626710
-0.587278
-0.558683
-0.530991
-0.495773
-0.474703
-0.459051
-0.441292
-0.422931
-0.402462
-0.389519
-0.381994
-0.366342
-0.354603
-0.351894
-0.341961
-0.337145
-0.328416
-0.329319
-0.327814
-0.333533
-0.341359
-0.347379
-0.362429
-0.365439
-0.374770
-0.389820
-0.400957
-0.406978
-0.412095
-0.421727
-0.426242
-0.428951
-0.438583
-0.445807
-0.446710
-0.452128
-0.456041
-0.452128
-0.442195
-0.434670
-0.429553
-0.421727
-0.411192
-0.401259
-0.402463
-0.397647
-0.381994
-0.373265
-0.362429
-0.350991
-0.348884
-0.339553
-0.329620
-0.307948
-0.296811
-0.287479
-0.272128
-0.253165
-0.238717
-0.229085
-0.208617
-0.195071
-0.185740
-0.180924
-0.175807
-0.162864
-0.153834
-0.151125
-0.159553
-0.162262
-0.154135
-0.151125
-0.149921
-0.147814
-0.140289
-0.134570
-0.127346
-0.118015
-0.105974
-0.102964
-0.097847
-0.088817
-0.069854
-0.062630
-0.062931
-0.053600
-0.053901
-0.052697
-0.050891
-0.046978
-0.036142
-0.032831
-0.023801
-0.013266
-0.001827
0.009310
0.012922
0.030380
0.040012
0.048440
0.065898
0.077938
0.086367
0.088775
0.099611
0.108340
0.112855
0.118273
0.118875
0.120079
0.117069
0.118875
0.119477
0.108641
0.096300
0.092085
0.083657
0.071918
0.063490
0.055965
0.052052
0.042420
0.031885
0.031283
0.019544
0.016835
0.015329
0.006299
0.001182
0.001182
-0.001226
-0.007246
-0.002129
-0.008149
-0.009955
-0.005139
-0.006042
-0.009955
-0.014169
-0.021694
-0.019587
-0.029219
-0.039754
-0.043065
-0.044570
-0.052397
-0.057514
-0.052999
-0.051795
-0.051494
-0.045172
-0.029520
-0.025306
-0.021995
-0.020791
-0.012965
-0.012062
-0.022898
-0.034637
-0.045775
-0.068350
-0.096945
-0.122831
-0.141494
-0.171293
-0.202898
-0.230892
-0.258283
-0.285975
-0.315173
-0.340457
-0.363634
-0.390725
-0.420223
-0.442196
-0.460558
-0.485842
-0.508718
-0.527681
-0.548752
-0.565307
-0.575541
-0.593902
-0.605942
-0.627615
-0.643869
-0.659521
-0.679086
-0.693534
-0.715809
-0.730558
-0.745006
-0.759454
-0.780224
-0.797381
-0.810324
-0.825374
-0.848551
-0.860893
-0.878953
-0.898819
-0.921093
-0.943970
-0.964438
-0.992431
-1.018919
-1.045408
-1.070692
-1.103200
-1.133903
-1.154371
-1.185073
-1.212766
-1.236244
-1.251294
-1.284405
-1.297348
-1.311194
-1.320224
-1.330157
-1.328050
-1.322933
-1.321127
-1.315709
-1.304572
-1.282900
-1.269054
-1.250692
-1.226010
-1.201930
-1.182967
-1.154070
-1.132398
-1.107415
-1.084237
-1.062565
-1.038786
-1.020124
-1.002967
-0.980090
-0.959923
-0.933736
-0.911462
-0.888886
-0.867515
-0.836211
-0.812130
-0.784438
-0.756445
-0.726344
-0.703468
-0.673067
-0.641762
-0.614973
-0.585174
-0.553869
-0.517448
-0.478619
-0.439789
-0.397348
-0.356411
-0.312465
-0.264304
-0.217649
-0.165274
-0.105073
-0.057214
-0.002732
0.055964
0.115261
0.175161
0.240780
0.306098
0.373823
0.437335
0.508673
0.574292
0.631181
0.693790
0.748874
0.806967
0.852419
0.901482
0.943021
0.977034
1.015864
1.044760
1.072151
1.098339
1.123322
1.149208
1.172687
1.188640
1.206700
1.223857
1.234091
1.247636
1.254258
1.267503
1.272620
1.288874
1.298506
1.313857
1.334927
1.355396
1.386700
1.415897
1.447503
1.478506
1.508004
1.545329
1.581750
1.615764
1.645563
1.670245
1.694024
1.710881
1.731048
1.742787
1.752720
1.753924
1.760546
1.769877
1.763255
1.764760
1.758138
1.756031
1.756633
1.752419
1.749108
1.743389
1.730145
1.720513
1.709977
1.700646
1.686499
1.671750
1.652185
1.642252
1.628405
1.616365
1.601616
1.591984
1.578439
1.570011
1.567001
1.559175
1.557971
1.548037
1.549843
1.541415
1.532686
1.528472
1.525161
1.513121
1.507101
1.493857
1.477904
1.458338
1.440579
1.425228
1.404459
1.375261
1.352385
1.326198
1.291582
1.255161
1.217535
1.176298
1.133555
1.092619
1.042652
0.999910
0.953254
0.910211
0.863254
0.822619
0.781381
0.742552
0.705829
0.666398
0.634792
0.598070
0.560143
0.524023
0.490010
0.456899
0.426197
0.394892
0.363889
0.335595
0.302484
0.273588
0.250110
0.228738
0.200444
0.181481
0.164625
0.154993
0.143253
0.135126
0.132116
0.128805
0.123989
0.120979
0.116163
0.117969
0.117668
0.110745
0.105929
0.098404
0.098705
0.092986
0.087267
0.077032
0.065895
0.053554
0.036698
0.021046
-0.001529
-0.028620
-0.056312
-0.080994
-0.105677
-0.134272
-0.161663
-0.183035
-0.205610
-0.234807
-0.248955
-0.271229
-0.282366
-0.292600
-0.302533
-0.312466
-0.324506
-0.332634
-0.339858
-0.340761
-0.334741
-0.333838
-0.326614
-0.316981
-0.310961
-0.302834
-0.300125
-0.295610
-0.292299
-0.292901
-0.295008
-0.301329
-0.301028
-0.312165
-0.315477
-0.315778
-0.317584
-0.314273
-0.317885
-0.310359
-0.301329
-0.291998
-0.277249
-0.264908
-0.250460
-0.234507
-0.215543
-0.190560
-0.177015
-0.157450
-0.140594
-0.122533
-0.103570
-0.078286
-0.050594
-0.030426
-0.011162
0.009908
0.034289
0.050544
0.067400
0.085761
0.105326
0.116764
0.126095
0.140243
0.148671
0.155594
0.154992
0.155895
0.157400
0.149875
0.145962
0.143253
0.140543
0.129406
0.125493
0.123988
0.114958
0.107132
0.101413
0.095694
0.091179
0.083353
0.071313
0.069206
0.061981
0.053553
0.048737
0.044523
0.042717
0.048135
0.049038
0.053553
0.058369
0.066797
0.077032
0.089975
0.105928
0.122483
0.143854
0.166430
0.191714
0.215493
0.237466
0.258838
0.278704
0.295560
0.316329
0.331379
0.340710
0.358771
0.367199
0.375928
0.385259
0.391881
0.393085
0.389172
0.393085
0.390978
0.391580
0.384657
0.385560
0.376831
0.371112
0.363286
0.356062
0.354255
0.346429
0.336195
0.330777
0.322650
0.318436
0.311513
0.299172
0.296463
0.293152
0.282617
0.283219
0.280510
0.279907
0.273285
0.278402
0.283821
0.288637
0.294055
0.295259
0.301279
0.306095
0.317232
0.326864
0.341914
0.354255
0.368703
0.379239
0.394590
0.410242
0.421680
0.430710
0.446964
0.459606
0.472851
0.477968
0.486697
0.489105
0.492416
0.497533
0.508971
0.514389
0.526128
0.531546
0.537867
0.548402
0.558937
0.566463
0.574891
0.583620
0.591145
0.600175
0.603185
0.610409
0.621245
0.635693
0.642616
0.660075
0.671513
0.688068
0.702516
0.721780
0.742850
0.763018
0.783486
0.803352
0.819305
0.840677
0.858737
0.870476
0.887633
0.898770
0.911713
0.920442
0.930376
0.934590
0.943319
0.956262
0.970108
0.985459
1.000208
1.012850
1.037834
1.056496
1.073051
1.087499
1.101044
1.118503
1.133854
1.157031
1.180208
1.189539
1.197667
1.200978
1.208804
1.203988
1.196463
1.177198
1.162148
1.144389
1.125426
1.094422
1.062817
1.031513
0.997198
0.974322
0.942716
0.908101
0.868670
0.828636
0.787399
0.759405
0.729606
0.688970
0.650141
0.602582
0.558335
0.520408
0.481579
0.440642
0.398201
0.367800
0.331980
0.287432
0.249505
0.214288
0.179070
0.143853
0.111645
0.083652
0.049639
0.013819
-0.019893
-0.049693
-0.087619
-0.123739
-0.157753
-0.184542
-0.214643
-0.242335
-0.283572
-0.330830
-0.367552
-0.403071
-0.431365
-0.469593
-0.508422
-0.545445
-0.582469
-0.612870
-0.649894
-0.676984
-0.706181
-0.735680
-0.760663
-0.779626
-0.799493
-0.818456
-0.836215
-0.841934
-0.848857
-0.854275
-0.863004
-0.864208
-0.862101
-0.859994
-0.852770
-0.844342
-0.837720
-0.843740
-0.846449
-0.842536
-0.838322
-0.848255
-0.856984
-0.869326
-0.877754
-0.890998
-0.894911
-0.909359
-0.927720
-0.944577
-0.959928
-0.966249
-0.987921
-1.008389
-1.027955
-1.045714
-1.064376
-1.091165
-1.111634
-1.139326
-1.170329
-1.196818
-1.219995
-1.244677
-1.277788
-1.312704
-1.344610
-1.368089
-1.400597
-1.428891
-1.452370
-1.481266
-1.509259
-1.520397
-1.526417
-1.536952
-1.539962
-1.545681
-1.547487
-1.547487
-1.542370
-1.533039
-1.526718
-1.518290
-1.510163
-1.503239
-1.494510
-1.491801
-1.483975
-1.480664
-1.472838
-1.477052
-1.471634
-1.470430
-1.462303
-1.455380
-1.452671
-1.443942
-1.438223
-1.429193
-1.417454
-1.404811
-1.397888
-1.385246
-1.376216
-1.361166
-1.350029
-1.344611
-1.339193
-1.321434
-1.306985
-1.293139
-1.276283
-1.257922
-1.240163
-1.224811
-1.210363
-1.188390
-1.170330
-1.153173
-1.135112
-1.113440
-1.093273
-1.072805
-1.056250
-1.035480
-1.025848
-1.016216
-1.005079
-0.999962
-1.001166
-1.001166
-1.002972
-1.002370
-1.014711
-1.024945
-1.034276
-1.047521
-1.055046
-1.069494
-1.073106
-1.085146
-1.091467
-1.094477
-1.096885
-1.095982
-1.097487
-1.087554
-1.078223
-1.066785
-1.052337
-1.027955
-1.003273
-0.987922
-0.965347
-0.941868
-0.909360
-0.882872
-0.855179
-0.827487
-0.791969
-0.773006
-0.754042
-0.737487
-0.717019
-0.701066
-0.687521
-0.664644
-0.654711
-0.645681
-0.633942
-0.625213
-0.612571
-0.601735
-0.592404
-0.586383
-0.579460
-0.572838
-0.570129
-0.557788
-0.548156
-0.536417
-0.529193
-0.515046
-0.499394
-0.483741
-0.462370
-0.447320
-0.428357
-0.409394
-0.384109
-0.357621
-0.337153
-0.315179
-0.292905
-0.266417
-0.243240
-0.216751
-0.190263
-0.172203
-0.159862
-0.139995
-0.125246
-0.111400
-0.106283
-0.100865
-0.098758
-0.088223
-0.088223
-0.084611
-0.082805
-0.086718
-0.096350
-0.105079
-0.109293
-0.115012
-0.120129
-0.135180
-0.144210
-0.158959
-0.166484
