EVENT_NAME: 202302060117
EVENT_ID: 13194
EVENT_DATE_YYYYMMDD: 2023/02/06
EVENT_TIME_HHMMSS: 01:17:32.00000
EVENT_LATITUDE_DEGREE: 37.288
EVENT_LONGITUDE_DEGREE: 37.043
EVENT_DEPTH_KM: 8.6
HYPOCENTER_REFERENCE: AFAD
MAGNITUDE_W: 7.7
MAGNITUDE_W_REFERENCE: AFAD
MAGNITUDE_L: 
MAGNITUDE_L_REFERENCE: 
FOCAL_MECHANISM: 
NETWORK: TK
STATION_CODE: 4628
STATION_NAME: 
STATION_LATITUDE_DEGREE: 38.241198
STATION_LONGITUDE_DEGREE: 36.922805
STATION_ELEVATION_M: 1228.0
LOCATION: Kahramanmaras_Pazarck_Turkiye
SENSOR_DEPTH_M: 
VS30_M/S: 186
SITE_CLASSIFICATION_EC8: C
MORPHOLOGIC_CLASSIFICATION: 
EPICENTRAL_DISTANCE_KM: 106.52
EARTHQUAKE_BACKAZIMUTH_DEGREE: 
DATE_TIME_FIRST_SAMPLE_YYYYMMDD_HHMMSS: 2023/02/06 01:17:30.4120310
DATE_TIME_FIRST_SAMPLE_PRECISION: millisecond
SAMPLING_INTERVAL_S: 0.01
NDATA: 12501
DURATION_S: 
STREAM: HNE
UNITS: cm/s^2
INSTRUMENT: sensor = ACEBOX/SARA | digitizer = 
INSTRUMENT_ANALOG/DIGITAL: 
INSTRUMENTAL_FREQUENCY_HZ: 
INSTRUMENTAL_DAMPING: 
FULL_SCALE_G: 
N_BIT_DIGITAL_CONVERTER: 
PGA_CM/S^2: 82.549
TIME_PGA_S: 
BASELINE_CORRECTION: BASELINE REMOVED
FILTER_TYPE: BUTTERWORTH
FILTER_ORDER: 
LOW_CUT_FREQUENCY_HZ: 
HIGH_CUT_FREQUENCY_HZ: 
LATE/NORMAL_TRIGGERED: 
DATABASE_VERSION: 
HEADER_FORMAT: DYNA 1.2
DATA_TYPE: Acceleration
PROCESSING: Automatic Paolucci et al., 2011
DATA_TIMESTAMP_YYYYMMDD_HHMMSS: 
DATA_LICENSE: U (unknown license)
DATA_CITATION: Turkish Accelerometric Archive v 1.0 - Disaster And Emergency Management Presidency, Earthquake Department
DATA_CREATOR: AFAD
ORIGINAL_DATA_MEDIATOR_CITATION: : AFAD - Disaster And Emergency Management Presidency
ORIGINAL_DATA_MEDIATOR: AFAD PROCESS SERVICE
ORIGINAL_DATA_CREATOR_CITATION: AFAD PROCESS SERVICE
ORIGINAL_DATA_CREATOR: network: TK
USER1: GuestUser
USER2: 
USER3: 
USER4: 
USER5: 
[...]
-7.072263
-9.121026
-7.908551
-4.886719
-4.226941
-7.679891
-10.777703
-8.603152
-3.676340
-1.571461
-2.174890
-0.709914
4.094855
8.747891
10.988138
10.030273
6.218678
3.668420
5.012289
6.325764
2.949967
-3.112394
-5.555105
-2.793022
0.977428
1.769068
-1.447279
-4.864692
-3.204495
1.587416
3.084188
0.567830
-0.927301
1.881074
6.515639
8.587552
8.046080
7.121648
5.312059
2.738421
1.652435
1.670206
1.394794
1.658520
2.708506
2.561917
-0.452663
-4.433293
-5.785341
-3.781462
-0.219793
1.804193
-0.093538
-4.194573
-7.182033
-7.640273
-5.714249
-2.759517
-0.238479
1.547266
2.950520
3.274565
0.929580
-3.684640
-8.094990
-9.978459
-9.191027
-7.962654
-6.495574
-3.327619
-0.213438
0.669617
0.591063
2.470561
7.039196
10.888904
10.920001
8.013202
4.096164
0.191518
-3.308191
-6.766518
-9.321920
-7.803872
-1.751794
3.842509
5.327358
3.973907
1.239417
-1.842964
-2.484736
0.625238
4.596754
5.372262
2.387842
-1.067212
-2.217259
-0.331682
4.179672
8.298247
9.879654
11.048642
11.498470
7.957613
2.242909
-1.525901
-3.613007
-5.962200
-7.792363
-6.740039
-2.833051
1.149220
2.495660
0.052481
-4.703187
-8.763308
-9.990975
-7.067806
-0.975983
3.897290
3.816866
-0.679989
-6.808281
-12.954575
-17.189109
-16.448437
-10.515595
-2.688528
2.893383
3.342510
-0.304024
-2.736215
-0.010136
4.568084
6.448517
7.557186
8.977507
7.153656
2.271270
-1.512737
-1.899435
0.455373
2.880554
3.828604
4.088589
3.351428
1.175713
-0.554852
-1.432291
-2.645229
-2.535109
0.406998
3.341624
2.798982
-0.589673
-3.269221
-3.528968
-2.776373
-2.306438
-1.148906
1.918750
4.936608
5.125284
3.192017
0.728731
-1.233995
-0.498701
3.115106
6.866151
8.598825
7.280912
3.792659
1.118488
0.769197
1.754187
2.506782
1.954322
-0.217419
-4.168123
-9.075759
-12.177546
-12.257035
-12.056434
-13.702131
-14.797002
-12.237855
-7.125875
-3.663102
-4.687833
-7.972683
-7.700774
-2.911903
-0.286591
-2.656358
-2.950941
3.672070
12.548419
17.382180
15.384852
7.788313
0.409674
-1.716710
0.440072
2.962980
4.039151
4.784733
6.564166
8.402750
7.816622
4.431006
0.536413
-1.942537
-2.057563
-0.677690
-0.233005
0.435423
3.758620
7.183752
7.057971
3.120360
-1.766702
-3.708854
-2.285962
-0.467952
-0.480341
-2.839821
-7.310724
-12.624934
-15.576856
-13.814724
-9.215696
-5.199524
-2.908309
-0.733759
2.780216
4.776613
1.522859
-3.804443
-3.815196
2.500372
7.270773
4.242867
-2.653916
-6.454289
-6.834207
-7.037843
-7.721931
-7.442541
-5.212347
-1.021061
4.153108
7.774863
8.013573
7.028587
7.466024
7.476547
4.943355
2.203487
1.540674
1.615725
0.220425
-2.864060
-5.264454
-5.014055
-2.940739
-0.845913
0.438337
2.858375
7.497148
9.651592
6.936039
4.152685
4.447505
5.832055
5.367268
2.787317
0.271661
-1.855892
-4.216541
-4.588978
-2.127091
-0.234032
0.094221
1.689422
3.905822
2.438045
-3.459956
-8.601857
-8.228481
-3.838468
0.791889
3.546257
2.868481
-0.490950
-4.207155
-7.240205
-7.886419
-5.475733
-3.877025
-6.416763
-10.807239
-12.855067
-12.174248
-11.082179
-9.104719
-3.655838
4.675062
12.165227
16.000673
16.506847
15.010312
10.268438
1.603680
-6.354309
-8.650430
-6.290244
-3.404249
-1.903034
-0.400885
2.442793
4.947466
5.339312
4.644936
4.830340
6.404732
7.220219
5.887811
5.115581
6.387440
7.835348
9.056006
10.705448
12.246642
12.091636
8.310903
0.775385
-8.706261
-17.358394
-22.379656
-23.107698
-20.424405
-15.577786
-9.514953
-1.514876
7.759630
14.344064
15.792207
13.743677
10.738216
7.904127
5.416293
1.740534
-4.704787
-10.950211
-12.584685
-9.885026
-6.508290
-5.016194
-4.876147
-5.242506
-6.968629
-8.970632
-8.143689
-4.403165
-1.082306
-0.186159
0.431535
4.335484
11.179433
15.879462
14.942405
10.345719
5.287751
1.560557
0.640099
2.869358
7.179881
10.924613
10.212937
4.988271
0.135577
-1.900561
-3.184573
-4.760131
-5.488173
-4.869310
-3.262887
-1.399053
-0.300437
0.736222
3.909554
8.740275
12.236482
12.836641
10.553379
5.418492
-1.920168
-8.906963
-13.422989
-17.086590
-21.388692
-24.372644
-24.362121
-21.200712
-15.068909
-6.871274
2.066564
9.672927
13.264055
12.294500
9.972193
8.948163
7.641239
5.277083
3.594680
1.859673
-1.013226
-2.699136
-0.284943
5.635273
9.969409
8.562185
3.137390
-1.724189
-3.091667
-2.071607
-1.494593
-0.778003
1.689963
5.009887
7.817794
8.895134
8.109577
6.484688
3.445794
-1.077714
-4.584904
-5.399686
-4.316033
-2.724106
-1.061571
0.440345
1.055234
0.740778
-0.585318
-4.031253
-8.057006
-7.553171
-1.130291
6.004736
9.101851
8.414255
6.007315
2.219801
-2.712618
-6.256281
-5.457627
-0.476341
3.939157
3.317024
-0.863736
-5.206051
-8.499551
-9.895786
-8.693598
-4.199779
2.766680
7.862060
7.432343
2.430954
-1.717543
-0.035603
4.241019
3.916978
-1.367306
-5.909751
-5.061298
0.340823
4.903613
4.295041
-1.151498
-6.458460
-6.133948
-0.283169
6.070741
9.348347
10.540716
11.371633
10.674686
7.999112
4.949229
2.279967
1.267394
3.059919
5.541913
5.546124
1.932555
-3.864680
-8.991851
-11.248461
-9.156908
-2.755303
3.978762
6.202410
4.029734
1.259004
0.641548
2.120552
3.126116
1.576510
-1.228822
-2.730733
-3.119770
-4.997861
-8.953007
-12.676460
-14.388556
-13.718023
-11.130119
-8.312392
-5.998265
-2.627607
1.892164
5.913011
8.785914
8.788955
5.313795
2.383616
3.071216
6.582151
9.965668
9.780736
6.882120
4.969193
4.468167
3.744099
1.879101
-0.792031
-2.400320
-2.217956
-1.634396
-1.118871
-0.201215
1.376217
3.567835
4.070034
1.151545
-2.312160
-3.359102
-2.112493
0.313858
3.371694
7.129520
9.858170
9.477550
7.111290
5.161423
5.350801
7.039053
7.007259
3.835099
-1.602555
-8.531135
-14.911928
-17.357445
-15.722966
-13.837156
-14.141558
-16.805208
-20.720842
-22.518741
-20.341385
-15.684141
-10.275473
-5.054077
0.313209
6.548584
12.094725
13.743232
10.151173
4.472005
2.037477
3.876061
5.803253
4.688510
1.607298
-0.513475
-0.479104
0.630032
2.398944
4.026409
3.883327
3.506448
4.629379
6.351064
8.599260
11.248419
13.171404
14.475527
15.842542
16.491799
14.929802
11.717196
8.601148
6.699677
5.857073
2.854885
-3.949315
-10.320756
-12.496237
-11.714183
-11.097891
-11.286564
-10.393222
-8.258417
-7.120056
-8.388638
-10.740403
-11.871979
-12.456003
-14.404701
-15.796494
-13.787939
-9.538906
-5.334761
-2.209825
-0.853565
-0.188176
2.037810
6.840242
12.698970
16.372628
17.328394
16.742967
14.568187
12.652688
12.293110
11.025931
7.872242
4.791498
3.336346
3.488082
3.253118
0.958868
-1.770012
-2.928008
-2.106442
0.978047
4.004789
4.386348
3.493479
0.567508
-6.045679
-10.856757
-7.971229
-0.092026
5.672482
6.286903
4.625074
3.940050
3.664172
1.710330
-0.719990
0.363194
5.526609
10.648642
11.313797
5.775843
-3.592177
-12.747442
-19.542757
-22.358843
-20.303529
-15.011292
-9.808132
-8.182304
-9.842964
-11.426938
-12.215534
-12.823171
-12.865019
-11.456856
-6.907860
0.068185
4.953615
4.850512
2.456664
1.800397
2.351693
1.867267
1.332108
3.484447
9.088102
14.849337
15.902829
11.944644
8.037426
7.565391
8.326404
7.606778
6.703153
7.827954
9.257159
7.535712
3.075096
-0.754267
-1.322159
2.095492
7.389131
10.159631
7.537363
1.937921
-1.922537
-2.989119
-1.807973
2.523825
9.251110
15.322359
17.581077
14.194759
6.432225
-1.929532
-7.842029
-11.824296
-15.380350
-15.978402
-12.792210
-10.679616
-11.289357
-13.805715
-19.021029
-23.133754
-21.757387
-16.058811
-7.769293
0.831643
6.730584
11.010946
15.998078
20.106833
19.858776
14.751244
9.091481
7.000167
6.298310
2.095338
-5.891642
-13.425990
-16.847143
-16.784016
-16.214951
-15.921767
-14.248478
-9.721226
-2.159519
7.499583
15.396322
16.807057
14.730472
16.524166
21.486048
23.175937
18.964549
11.784403
6.014522
1.907174
-3.217660
-9.613650
-15.315495
-17.286872
-13.590768
-7.864838
-5.879897
-8.435766
-10.881283
-8.600355
-3.243590
0.325795
0.603080
-1.152267
-1.889896
-0.071184
1.425120
1.398236
1.879392
3.977959
7.346044
9.157741
6.944151
3.190772
1.576638
2.551341
4.429904
6.223832
8.842598
12.453598
15.041503
14.619033
10.682591
5.160535
1.256590
-0.147360
-0.757335
-2.805864
-7.139996
-11.552684
-12.951724
-11.320752
-9.139422
-7.543052
-5.314027
-1.578412
2.695638
5.893052
7.203955
6.528283
3.555787
-0.797984
-4.034204
-5.500578
-6.173678
-6.461948
-7.130138
-8.172872
-8.347517
-8.244644
-9.946452
-13.298167
-14.813171
-12.187860
-7.570128
-3.831941
-2.674175
-4.609547
-6.748322
-6.096961
-3.867234
-2.452992
-1.257585
2.053688
7.168239
12.049694
16.496754
20.301573
22.222687
21.869889
19.821360
16.901234
12.778689
7.202393
2.978146
2.844182
5.384158
6.800737
4.473054
-0.994293
-6.989087
-10.547479
-8.592464
-1.624602
5.805243
10.457811
11.361673
10.120680
9.919850
9.778171
6.998324
2.545423
-1.169146
-2.165120
-1.199068
-1.945346
-4.456561
-5.845314
-6.485683
-7.879580
-10.095508
-13.431326
-17.362157
-20.073268
-20.863968
-20.809024
-21.004710
-21.341142
-20.632968
-16.765258
-9.851403
-4.101391
-1.394250
0.351750
1.162795
-0.043363
-2.175592
-2.787905
0.221068
5.817241
11.246951
16.311937
21.621709
25.679263
26.677579
24.951924
22.188910
19.300580
16.409679
12.513684
6.494108
0.292637
-3.637726
-5.438197
-6.395361
-8.367205
-11.220932
-11.996903
-9.184554
-4.584824
-2.632615
-5.483537
-8.597247
-7.125023
-2.697368
-0.608855
-2.344798
-3.349656
-0.263998
4.576309
7.000789
5.586551
2.852762
1.565710
1.856322
2.759717
2.758550
0.371716
-3.782158
-7.672309
-10.017527
-9.549696
-5.374075
-0.083241
3.328565
5.548004
7.345440
8.439379
9.509705
11.369097
14.666810
19.011934
22.555134
23.835176
22.333264
18.224981
12.157009
5.641782
1.407015
0.703053
0.955323
-1.915472
-8.691850
-15.121272
-16.604714
-14.208290
-12.826780
-13.726663
-13.804282
-11.810690
-10.223672
-10.627438
-10.776599
-8.208100
-4.099345
-1.395477
-1.087330
-1.278340
-0.149331
1.456157
2.084372
1.777632
1.705391
2.765196
3.346886
0.831931
-4.394371
-9.742014
-13.091391
-14.141373
-14.478506
-15.148567
-16.679002
-18.981669
-19.835962
-19.270638
-19.356907
-18.848864
-15.847840
-10.418598
-4.113551
1.249527
6.085625
10.385393
13.514070
16.218171
16.508549
12.183536
6.340009
2.420400
0.430554
-0.081694
1.183385
4.118011
8.656251
14.963402
20.701257
22.724774
22.088614
21.021566
20.267805
20.257520
19.402526
17.802887
17.638997
17.803359
17.551795
15.243049
7.306803
-3.051115
-10.869059
-15.750510
-17.365814
-16.868057
-16.292212
-15.328264
-13.397330
-9.868626
-4.321316
2.289070
8.864854
14.608086
18.325932
19.163162
17.927779
15.626047
12.103894
7.775140
3.672935
-0.097278
-4.737450
-11.852132
-20.764716
-28.818562
-35.027046
-39.587493
-41.627840
-39.996634
-34.224178
-26.020230
-19.554564
-16.608950
-14.351168
-10.240075
-5.508717
-3.147363
-4.146844
-6.279073
-6.796932
-5.474806
-4.517404
-5.819887
-8.305383
-8.881458
-6.889503
-5.435516
-6.434763
-7.534076
-6.155371
-2.991391
0.340223
4.723690
12.374006
22.544657
31.943776
38.867685
43.497808
46.648696
49.150328
50.204990
47.573604
40.209226
30.337139
22.081993
17.749732
16.485358
16.138873
15.795894
14.807402
10.930110
2.683615
-9.225314
-22.056574
-31.480939
-35.654452
-36.788834
-36.936124
-35.168615
-30.562339
-25.450360
-22.289185
-20.679489
-19.212876
-18.478049
-21.195239
-26.764755
-31.638023
-36.200809
-41.651790
-45.655332
-45.836289
-40.945014
-31.732932
-22.187689
-15.186394
-9.712029
-4.395711
0.308526
3.732956
5.997051
8.576772
12.416193
15.196279
15.526169
15.503960
16.062504
16.095471
15.442478
15.359949
15.924104
15.351303
13.663289
12.752417
13.800532
17.632472
23.985914
30.902107
37.103114
42.572102
46.577519
48.850966
50.421150
50.184783
45.821193
36.648393
23.113170
7.867487
-5.887272
-17.513540
-26.756947
-32.333477
-32.782599
-27.596039
-19.457320
-12.036125
-4.429763
6.260385
17.178252
21.997284
19.051674
11.230924
2.015807
-6.087838
-13.532409
-22.459721
-32.393297
-40.879902
-46.135896
-47.519039
-45.673675
-40.440822
-30.777278
-18.981736
-9.612309
-4.837231
-3.634108
-3.090995
-1.994951
-2.781443
-7.254684
-13.689952
-19.024736
-21.892257
-23.412171
-23.971178
-21.206056
-13.478586
-1.808828
12.156119
26.188633
37.679069
45.894006
50.905452
52.084260
49.733898
44.927263
37.025385
24.724378
10.789128
0.186657
-4.955711
-4.564800
-2.472780
-2.981521
-2.094492
4.713219
15.001937
24.107875
28.312955
29.412973
31.656494
32.637042
27.163616
14.174076
-3.185836
-20.482390
-34.089856
-41.620931
-43.571967
-40.802403
-31.948031
-17.464522
-1.147575
13.187940
24.124043
31.191503
34.402477
35.001701
31.772028
21.669884
4.035961
-18.534824
-40.347873
-57.113473
-67.805955
-72.755909
-73.616514
-69.034787
-57.226620
-42.001507
-25.858739
-8.585561
8.483980
26.169810
44.721157
59.826099
68.828231
72.251025
69.414833
59.806469
45.875895
30.975062
17.812044
8.536140
2.980651
0.165968
0.809147
5.080625
11.701064
18.305371
21.887381
22.271045
21.351756
18.278026
11.772385
3.041228
-7.626471
-17.832655
-22.117455
-20.339893
-14.464098
-5.048846
4.264237
12.117956
20.851689
30.400205
38.378539
42.889893
44.468027
43.356557
37.805744
25.984489
7.714404
-13.478615
-34.326081
-52.302283
-64.791263
-74.334631
-81.395307
-82.549094
-79.791687
-74.408503
-64.475390
-49.726054
-29.879937
-8.795162
6.011221
13.121699
16.163170
16.651340
14.897863
12.869908
12.359530
13.326518
13.544653
11.201305
9.575247
11.950162
15.742590
19.622223
25.144049
29.521204
29.697723
27.390380
24.006634
20.181012
17.236571
15.152738
13.956166
13.416798
12.543099
11.079998
8.596840
6.005199
4.037330
0.361104
-5.324610
-10.121894
-11.579384
-9.375843
-6.021084
-3.185121
-1.836342
-4.987693
-12.073151
-18.112132
-21.703958
-25.378313
-28.637211
-27.796474
-22.181597
-14.280650
-6.610227
-1.196883
3.191493
8.764287
11.789158
7.687889
-1.835373
-12.940040
-23.913780
-34.999976
-45.183248
-51.129178
-52.433764
-49.926754
-41.808610
-29.477205
-17.713927
-8.914497
-3.374903
-0.012194
3.554619
8.074156
10.901001
9.367059
4.774581
-0.034392
-3.823075
-7.106288
-11.615066
-16.041781
-16.379382
-13.199270
-10.707223
-9.979644
-7.697079
0.108011
14.544761
32.882184
49.586299
62.340410
73.302932
80.393771
77.597090
63.799547
44.415184
24.738808
6.381049
-8.071594
-17.402675
-23.986170
-26.653327
-24.966711
-23.668667
-24.208035
-22.650943
-15.331684
-2.607266
11.885595
23.441962
28.271047
26.745989
22.602636
18.745685
14.269171
6.659774
-3.596910
-13.797015
-20.110475
-21.834961
-23.531626
-26.312642
-28.568550
-30.820015
-31.973569
-29.546751
-22.045130
-11.728590
-2.544563
6.575636
17.412375
27.538137
33.799230
35.010536
32.027986
26.516218
18.526900
5.907694
-9.560331
-23.061887
-35.224720
-46.923231
-56.070313
-62.373252
-64.014974
-58.389342
-45.681991
-25.988310
-0.526383
23.489742
37.750208
41.898007
39.682780
34.574312
30.469302
27.695300
24.790371
20.967554
15.823548
10.524536
4.308102
-2.073860
-6.170687
-11.039513
-17.280027
-21.555008
-25.739977
-31.616002
-36.113090
-35.596863
-28.557226
-17.028213
-4.108574
9.931889
23.743932
34.549343
43.484141
50.429792
52.502641
49.167759
39.411167
23.581458
5.957589
-9.472094
-21.706001
-32.808797
-41.377699
-41.274358
-30.489756
-13.692823
0.926522
7.073288
5.350204
2.694270
5.373822
11.283284
15.738527
19.700925
25.136012
29.813830
28.818090
21.721643
13.654938
5.364489
-5.712355
-18.033001
-28.316104
-33.892635
-35.411146
-35.685388
-33.079481
-26.141078
-16.295639
-4.276821
5.165785
7.568989
5.979638
3.128482
-1.873842
-8.596914
-14.264859
-16.118869
-13.860619
-8.466447
-0.270915
9.864666
18.785436
22.364875
19.221005
12.256187
6.642950
5.482616
8.590719
13.529923
15.976145
13.968530
7.640810
-2.810394
-13.482769
-21.972179
-29.893462
-34.987903
-33.262243
-24.668321
-13.273975
-2.878412
8.133208
20.193408
28.954729
32.785499
33.525002
34.607485
39.127724
43.753171
42.172236
34.486153
24.582036
14.546056
6.313355
0.774233
-2.151972
-2.052138
-0.980643
0.810713
5.531784
10.648907
14.337061
17.731799
20.144121
21.867911
21.339765
14.533929
2.502957
-10.715704
-22.309942
-30.156176
-33.496436
-31.901469
-25.332465
-16.722878
-9.549041
-4.037035
0.686374
4.918574
9.292923
12.686492
12.613316
9.905946
8.306073
8.824871
7.379772
0.077351
-10.878387
-20.601779
-27.120746
-30.162680
-29.476016
-24.327330
-13.720881
-1.048366
6.668816
8.049625
7.712491
7.965930
7.380504
3.362232
-5.494240
-16.092502
-25.179965
-34.181158
-43.708628
-51.988556
-57.385296
-56.706347
-47.864366
-32.470217
-13.704010
4.412942
18.741444
28.531473
34.989423
39.493062
41.417917
40.788069
38.885195
36.900258
37.612875
39.645276
36.470779
27.163078
15.859216
5.892675
-0.087623
-2.479367
-3.036971
-0.913389
2.871791
4.599555
4.005478
2.804698
0.696784
-2.803159
-7.716640
-12.632460
-15.026542
-16.654002
-21.381381
-29.374907
-38.344537
-44.105300
-43.984190
-41.438838
-40.369447
-40.656314
-40.581964
-39.137329
-37.447674
-35.738614
-32.335459
-27.248496
-20.454579
-11.918171
-3.509416
4.570152
12.163188
16.572606
17.310005
16.450334
15.862103
16.291356
17.100765
19.214996
23.236544
27.492826
31.729234
33.975561
31.751449
26.821135
19.729364
11.205352
4.994764
2.437959
2.747742
3.953904
3.724318
3.622852
7.918411
17.201801
25.921740
29.208932
27.383678
22.606267
16.972457
10.379142
0.948230
-10.568387
-21.737348
-30.771038
-36.173390
-38.011034
-38.880758
-41.350122
-45.768889
-51.376748
-56.407595
-58.536551
-57.747951
-55.758801
-52.263998
-44.307641
-31.504900
-18.686028
-10.078312
-6.143736
-4.938743
-4.383238
-5.438363
-8.092895
-10.085781
-12.624817
-15.894236
-15.924627
-10.688034
-0.826463
11.054181
20.835559
26.572478
29.091412
29.761945
29.546853
29.435568
29.469705
28.550182
26.839957
23.893646
16.901707
6.068479
-3.336949
-8.082330
-10.828510
-14.715621
-19.786682
-23.669585
-23.192636
-18.597583
-12.463442
-4.952001
3.974147
11.592900
14.882898
14.585977
14.764367
17.150971
18.750380
15.324785
5.791704
-6.554660
-17.293668
-25.526603
-33.450691
-40.063411
-41.360984
-37.584922
-34.260790
-37.229078
-44.890613
-48.502778
-45.243175
-39.583876
-34.459973
-30.113446
-23.937923
-14.683757
-6.674796
-2.354220
0.885744
5.870304
13.212943
20.405484
24.573624
26.041873
26.865075
28.183928
29.258228
29.366712
30.582928
34.519141
38.649873
41.222814
43.692650
45.343495
44.223842
41.395599
37.420346
30.857191
21.447555
10.398999
0.568996
-6.007953
-10.966323
-15.230082
-17.788991
-18.432399
-16.921131
-13.893455
-12.027517
-14.348654
-20.873699
-27.260337
-30.246160
-30.837899
-31.703882
-34.437437
-36.584395
-34.668425
-30.569255
-28.634347
-29.356077
-29.981249
-28.565838
-25.814276
-22.939736
-17.982297
-8.545302
2.099256
8.180792
8.084938
4.813882
3.558861
6.708580
11.302230
13.793342
13.247895
