EVENT_NAME: 202302060117
EVENT_ID: 13194
EVENT_DATE_YYYYMMDD: 2023/02/06
EVENT_TIME_HHMMSS: 01:17:32.00000
EVENT_LATITUDE_DEGREE: 37.288
EVENT_LONGITUDE_DEGREE: 37.043
EVENT_DEPTH_KM: 8.6
HYPOCENTER_REFERENCE: AFAD
MAGNITUDE_W: 7.7
MAGNITUDE_W_REFERENCE: AFAD
MAGNITUDE_L: 
MAGNITUDE_L_REFERENCE: 
FOCAL_MECHANISM: 
NETWORK: TK
STATION_CODE: 0507
STATION_NAME: 
STATION_LATITUDE_DEGREE: 40.87969
STATION_LONGITUDE_DEGREE: 35.45884
STATION_ELEVATION_M: 757.0
LOCATION: Kahramanmaras_Pazarck_Turkiye
SENSOR_DEPTH_M: 
VS30_M/S: 368
SITE_CLASSIFICATION_EC8: B
MORPHOLOGIC_CLASSIFICATION: 
EPICENTRAL_DISTANCE_KM: 422.11
EARTHQUAKE_BACKAZIMUTH_DEGREE: 
DATE_TIME_FIRST_SAMPLE_YYYYMMDD_HHMMSS: 2023/02/06 01:18:05.6933770
DATE_TIME_FIRST_SAMPLE_PRECISION: millisecond
SAMPLING_INTERVAL_S: 0.01
NDATA: 21001
DURATION_S: 
STREAM: HNE
UNITS: cm/s^2
INSTRUMENT: sensor = CMG-5T/GURALP | digitizer = 
INSTRUMENT_ANALOG/DIGITAL: 
INSTRUMENTAL_FREQUENCY_HZ: 
INSTRUMENTAL_DAMPING: 
FULL_SCALE_G: 
N_BIT_DIGITAL_CONVERTER: 
PGA_CM/S^2: 2.944
TIME_PGA_S: 
BASELINE_CORRECTION: BASELINE REMOVED
FILTER_TYPE: BUTTERWORTH
FILTER_ORDER: 
LOW_CUT_FREQUENCY_HZ: 
HIGH_CUT_FREQUENCY_HZ: 
LATE/NORMAL_TRIGGERED: 
DATABASE_VERSION: 
HEADER_FORMAT: DYNA 1.2
DATA_TYPE: Acceleration
PROCESSING: Automatic Paolucci et al., 2011
DATA_TIMESTAMP_YYYYMMDD_HHMMSS: 
DATA_LICENSE: U (unknown license)
DATA_CITATION: Turkish Accelerometric Archive v 1.0 - Disaster And Emergency Management Presidency, Earthquake Department
DATA_CREATOR: AFAD
ORIGINAL_DATA_MEDIATOR_CITATION: : AFAD - Disaster And Emergency Management Presidency
ORIGINAL_DATA_MEDIATOR: AFAD PROCESS SERVICE
ORIGINAL_DATA_CREATOR_CITATION: AFAD PROCESS SERVICE
ORIGINAL_DATA_CREATOR: network: TK
USER1: GuestUser
USER2: 
USER3: 
USER4: 
USER5: 
[...]
-0.727516
-0.734144
-0.757045
-0.779945
-0.809475
-0.842018
-0.859796
-0.881190
-0.904995
-0.932415
-0.959535
-0.996598
-1.021909
-1.035770
-1.053246
-1.068011
-1.084583
-1.105977
-1.128878
-1.135506
-1.139724
-1.151475
-1.162624
-1.174375
-1.201193
-1.204808
-1.198780
-1.196369
-1.211736
-1.215351
-1.216254
-1.211131
-1.192748
-1.173763
-1.154176
-1.138204
-1.102344
-1.079141
-1.054431
-1.023694
-0.992053
-0.975177
-0.946248
-0.920634
-0.893814
-0.860064
-0.823601
-0.795878
-0.766346
-0.712707
-0.673533
-0.629839
-0.580720
-0.539135
-0.512316
-0.477963
-0.442404
-0.413475
-0.392984
-0.369479
-0.368574
-0.365560
-0.343863
-0.331808
-0.323973
-0.311617
-0.300166
-0.313423
-0.303479
-0.280878
-0.269727
-0.260988
-0.235976
-0.221210
-0.220004
-0.202827
-0.192882
-0.190470
-0.194989
-0.194988
-0.203726
-0.212464
-0.201314
-0.203422
-0.211859
-0.207941
-0.195886
-0.192872
-0.165751
-0.141041
-0.133507
-0.116932
-0.092825
-0.072333
-0.041596
-0.007544
0.006017
0.026207
0.054232
0.060862
0.067492
0.078944
0.081958
0.083466
0.088288
0.086782
0.085578
0.084674
0.082867
0.084978
0.091005
0.097937
0.098239
0.105170
0.106678
0.111199
0.112405
0.103366
0.106681
0.094026
0.068112
0.070524
0.053349
0.040694
0.028340
-0.002998
-0.026200
-0.047594
-0.072604
-0.079835
-0.097613
-0.110871
-0.110267
-0.114184
-0.111471
-0.087966
-0.080432
-0.076513
-0.058131
-0.041557
-0.009313
0.022026
0.044326
0.060900
0.088021
0.129908
0.160645
0.186259
0.217599
0.239597
0.263403
0.289319
0.305592
0.327590
0.341151
0.348083
0.377012
0.392682
0.411366
0.435172
0.450240
0.478867
0.509002
0.540643
0.586748
0.618690
0.643099
0.690409
0.717530
0.744651
0.784428
0.794675
0.798894
0.813058
0.808539
0.796486
0.800404
0.777504
0.762137
0.746769
0.728389
0.721158
0.702777
0.676562
0.668728
0.640705
0.622023
0.617202
0.605753
0.601535
0.595208
0.572608
0.581348
0.590389
0.581651
0.599431
0.594008
0.598830
0.622033
0.612090
0.607571
0.608777
0.581959
0.574427
0.544897
0.506930
0.472880
0.420147
0.368318
0.309559
0.237842
0.182699
0.109777
0.039567
-0.027931
-0.108990
-0.175584
-0.239767
-0.301238
-0.351259
-0.409717
-0.450698
-0.496500
-0.534166
-0.562189
-0.601663
-0.629385
-0.657709
-0.682719
-0.699292
-0.734246
-0.742984
-0.761364
-0.787881
-0.805357
-0.845434
-0.871348
-0.896659
-0.922272
-0.959938
-1.002726
-1.033462
-1.071730
-1.114820
-1.159115
-1.199493
-1.239269
-1.278441
-1.316409
-1.365525
-1.399274
-1.455924
-1.499315
-1.541803
-1.592426
-1.634913
-1.687345
-1.724709
-1.781661
-1.828367
-1.875374
-1.925696
-1.959444
-2.000425
-2.035982
-2.060992
-2.067319
-2.082083
-2.072138
-2.056167
-2.023923
-1.993789
-1.954012
-1.907003
-1.864514
-1.800027
-1.751813
-1.687025
-1.623744
-1.559559
-1.518275
-1.465540
-1.397739
-1.330239
-1.271177
-1.210307
-1.147628
-1.081334
-0.995452
-0.921323
-0.849303
-0.784214
-0.688088
-0.618177
-0.533803
-0.447319
-0.373491
-0.304183
-0.226438
-0.152911
-0.087822
-0.029965
0.051396
0.105939
0.156262
0.205984
0.246665
0.278908
0.303016
0.337670
0.345807
0.355752
0.367505
0.375039
0.364192
0.362084
0.365098
0.351237
0.321406
0.304231
0.283440
0.249088
0.222873
0.196055
0.157184
0.107163
0.081249
0.052021
0.013451
-0.013970
-0.041390
-0.074838
-0.107682
-0.122447
-0.149867
-0.189341
-0.205311
-0.224596
-0.260755
-0.287573
-0.299927
-0.321019
-0.345728
-0.358986
-0.375257
-0.409006
-0.431906
-0.434617
-0.452998
-0.474693
-0.481020
-0.485841
-0.504221
-0.509042
-0.503617
-0.508136
-0.517778
-0.515065
-0.517173
-0.514762
-0.516870
-0.518376
-0.524402
-0.527414
-0.523496
-0.524399
-0.541876
-0.550915
-0.557845
-0.564172
-0.576827
-0.595509
-0.606356
-0.621723
-0.631064
-0.650348
-0.680782
-0.697355
-0.711517
-0.732911
-0.759729
-0.776000
-0.785943
-0.804926
-0.810048
-0.814567
-0.821497
-0.819085
-0.808538
-0.798593
-0.797387
-0.785332
-0.767854
-0.752786
-0.746156
-0.734403
-0.730184
-0.714212
-0.684078
-0.675037
-0.696129
-0.721441
-0.655146
-0.592468
-0.606630
-0.653034
-0.658759
-0.633144
-0.645197
-0.653935
-0.631936
-0.606624
-0.611143
-0.635851
-0.683160
-0.741618
-0.733481
-0.705456
-0.725042
-0.788321
-0.820865
-0.830808
-0.849490
-0.882937
-0.921206
-0.951037
-0.964897
-0.979662
-1.008890
-1.046858
-1.072772
-1.092357
-1.132735
-1.156540
-1.161360
-1.180645
-1.242418
-1.284905
-1.235184
-1.172506
-1.199625
-1.289120
-1.277669
-1.215292
-1.180336
-1.192690
-1.151707
-1.042925
-0.985369
-1.002544
-1.027554
-0.975121
-0.866640
-0.762377
-0.741283
-0.734954
-0.696382
-0.612007
-0.554452
-0.520099
-0.498100
-0.421862
-0.368525
-0.332364
-0.303133
-0.244975
-0.194350
-0.168736
-0.140711
-0.086771
-0.034639
-0.003902
0.015083
0.050340
0.070530
0.089817
0.129895
0.156715
0.175097
0.169975
0.176003
0.182332
0.197399
0.220603
0.241998
0.240191
0.227536
0.235974
0.270930
0.285094
0.294436
0.316735
0.338734
0.329393
0.343557
0.378814
0.422508
0.439685
0.474340
0.507186
0.538224
0.584028
0.629832
0.672622
0.708180
0.769955
0.819977
0.845592
0.895915
0.961909
1.011630
1.039655
1.077322
1.133673
1.177367
1.215638
1.254812
1.281933
1.306643
1.334668
1.365405
1.381075
1.394938
1.416032
1.427785
1.431402
1.447373
1.463948
1.480823
1.488358
1.496494
1.518493
1.545915
1.567913
1.590816
1.607691
1.632402
1.664645
1.702012
1.736967
1.763787
1.802660
1.827973
1.860819
1.893364
1.926512
1.951222
1.978645
2.004862
2.020231
2.039818
2.062721
2.081705
2.100690
2.113347
2.127210
2.140771
2.149811
2.148004
2.150416
2.149814
2.138364
2.129626
2.123601
2.112452
2.085935
2.056707
2.034409
2.015727
1.985896
1.950942
1.915988
1.881637
1.851805
1.821974
1.784007
1.743328
1.710182
1.677940
1.642684
1.604416
1.566449
1.527577
1.482679
1.437179
1.386555
1.332316
1.273255
1.219619
1.159955
1.101798
1.045148
0.980965
0.916480
0.845366
0.782087
0.710671
0.641667
0.574470
0.487385
0.407231
0.339733
0.265304
0.185150
0.106804
0.033580
-0.041150
-0.108949
-0.183679
-0.259012
-0.332838
-0.400638
-0.445234
-0.488324
-0.530812
-0.562451
-0.596802
-0.620908
-0.638686
-0.646821
-0.650135
-0.654955
-0.654954
-0.661583
-0.674238
-0.682373
-0.682071
-0.670017
-0.654648
-0.648922
-0.643195
-0.644400
-0.636866
-0.622401
-0.598896
-0.570871
-0.549776
-0.527778
-0.505177
-0.470523
-0.448525
-0.434361
-0.434963
-0.438578
-0.419292
-0.404525
-0.407839
-0.436465
-0.467200
-0.478952
-0.489196
-0.505467
-0.533792
-0.560007
-0.594961
-0.628408
-0.652815
-0.664265
-0.681441
-0.706752
-0.733871
-0.772140
-0.798958
-0.806189
-0.802270
-0.823062
-0.852290
-0.872479
-0.877902
-0.882120
-0.878804
-0.886638
-0.900197
-0.902607
-0.898086
-0.906523
-0.922191
-0.902905
-0.848664
-0.817023
-0.823651
-0.837813
-0.810089
-0.763382
-0.714565
-0.671172
-0.643448
-0.638626
-0.634708
-0.602163
-0.547319
-0.472888
-0.448781
-0.454505
-0.441848
-0.397250
-0.333366
-0.308957
-0.287863
-0.272494
-0.255317
-0.231209
-0.197760
-0.165516
-0.145025
-0.133272
-0.121820
-0.078427
-0.047690
-0.042567
-0.027800
0.013182
0.074655
0.110816
0.122268
0.170783
0.227737
0.279266
0.317536
0.358820
0.422402
0.486889
0.545348
0.590851
0.637257
0.698128
0.769244
0.840661
0.889779
0.922023
0.976867
1.060036
1.135069
1.182078
1.224868
1.292670
1.373729
1.437915
1.474076
1.506319
1.557547
1.611186
1.627157
1.632883
1.647047
1.679893
1.706110
1.700084
1.695565
1.694662
1.713647
1.721483
1.698582
1.681407
1.680202
1.697379
1.691655
1.659112
1.635006
1.627473
1.627775
1.618435
1.590713
1.572634
1.553349
1.515081
1.465663
1.410218
1.369237
1.329763
1.270100
1.196575
1.131789
1.059168
0.987150
0.894943
0.809967
0.727402
0.653878
0.575230
0.486337
0.394130
0.319701
0.257024
0.211222
0.166023
0.121728
0.090993
0.056340
0.043986
0.034043
0.032537
0.031935
0.043990
0.070809
0.090698
0.101848
0.129873
0.139216
0.155790
0.165735
0.183213
0.197979
0.200391
0.188941
0.185025
0.190751
0.188642
0.178398
0.173276
0.168757
0.142240
0.114518
0.095837
0.077155
0.036174
0.005137
-0.031323
-0.085864
-0.145527
-0.200972
-0.258827
-0.308245
-0.367909
-0.425161
-0.485427
-0.549008
-0.620122
-0.683402
-0.719561
-0.756624
-0.801824
-0.844010
-0.869019
-0.890112
-0.907589
-0.904876
-0.883179
-0.874138
-0.857564
-0.818992
-0.793378
-0.769270
-0.726479
-0.668321
-0.614080
-0.570687
-0.522472
-0.470943
-0.414593
-0.370597
-0.313041
-0.244336
-0.173522
-0.113254
-0.057205
0.007884
0.065741
0.119983
0.176936
0.231779
0.287226
0.351712
0.412884
0.459893
0.500876
0.548789
0.600016
0.637684
0.677461
0.710609
0.738935
0.757317
0.768468
0.779919
0.794987
0.814876
0.831149
0.841696
0.850737
0.856463
0.867011
0.873340
0.881477
0.890819
0.899559
0.912216
0.932406
0.955308
0.963445
0.984841
1.010756
1.047520
1.077353
1.106885
1.151182
1.199698
1.239173
1.288593
1.345847
1.391953
1.437756
1.487779
1.541116
1.596562
1.635435
1.671898
1.705045
1.743316
1.782791
1.797256
1.816241
1.837637
1.843966
1.837036
1.823778
1.812027
1.803590
1.780389
1.732779
1.699030
1.649612
1.593263
1.548667
1.504371
1.453447
1.393783
1.336530
1.276566
1.225641
1.176524
1.124394
1.073771
1.030078
0.980359
0.930338
0.898699
0.867964
0.839037
0.812821
0.784497
0.767623
0.742010
0.731766
0.736287
0.743218
0.753163
0.766423
0.773354
0.788422
0.815242
0.844472
0.870086
0.887263
0.905344
0.936081
0.954463
0.972846
0.993639
1.013226
1.035526
1.053004
1.071085
1.083742
1.100015
1.113877
1.141902
1.158477
1.161189
1.172641
1.190119
1.195544
1.193134
1.191026
1.181384
1.198260
1.199466
1.178373
1.166622
1.157884
1.167528
1.179281
1.164818
1.157888
1.158190
1.154876
1.148549
1.150659
1.136196
1.137402
1.135595
1.116009
1.087986
1.072619
1.056348
1.044295
1.018381
0.988249
0.970471
0.942448
0.943352
0.959625
0.946066
0.913824
0.914126
0.924071
0.937331
0.946071
0.942455
0.926486
0.931609
0.924981
0.914133
0.893945
0.860799
0.833077
0.819518
0.788481
0.743885
0.711341
0.678195
0.647762
0.626669
0.593824
0.555857
0.526327
0.502221
0.476910
0.438340
0.388319
0.353667
0.333478
0.309975
0.264474
0.213851
0.165337
0.125863
0.100552
0.072830
0.033657
0.003826
-0.007624
-0.021786
-0.038358
-0.048603
-0.046191
-0.044985
-0.051312
-0.044079
-0.026601
-0.017861
-0.010026
-0.000985
0.002632
0.011372
0.024631
0.033371
0.045425
0.026140
0.006856
0.015897
0.026143
-0.005496
-0.040149
-0.072089
-0.087457
-0.106138
-0.153146
-0.196838
-0.245051
-0.285730
-0.303207
-0.349612
-0.421328
-0.470445
-0.475567
-0.480086
-0.525888
-0.602125
-0.628943
-0.612670
-0.609656
-0.643705
-0.674441
-0.674741
-0.655154
-0.648222
-0.650632
-0.658164
-0.644302
-0.606936
-0.584937
-0.557816
-0.515930
-0.475550
-0.437883
-0.384847
-0.330606
-0.276666
-0.235985
-0.185059
-0.132324
-0.075371
-0.016911
0.036426
0.084038
0.121705
0.139786
0.169318
0.202164
0.235312
0.256708
0.285034
0.308840
0.324209
0.342893
0.341086
0.332649
0.334759
0.351635
0.348924
0.333858
0.324518
0.319396
0.304028
0.299811
0.294388
0.266063
0.240752
0.241355
0.240151
0.225085
0.209115
0.194049
0.183202
0.173259
0.150660
0.137100
0.140115
0.134089
0.122639
0.118421
0.119326
0.123244
0.132587
0.146449
0.169351
0.184117
0.209129
0.244989
0.301038
0.353170
0.412835
0.465569
0.513482
0.570134
0.640044
0.716886
0.784687
0.844955
0.925111
1.009786
1.070657
1.136047
1.214998
1.287620
1.353915
1.428044
1.514227
1.589260
1.649829
1.710699
1.771871
1.846000
1.911391
1.962016
2.018065
2.068088
2.115398
2.166626
2.225688
2.274204
2.305845
2.353457
2.393234
2.398659
2.401673
2.417946
2.411920
2.399867
2.398362
2.389925
2.359491
2.324236
2.287474
2.247699
2.204910
2.175681
2.144042
2.103061
2.056355
2.026524
2.003925
1.978011
1.937934
1.909911
1.890627
1.866219
1.830060
1.786066
1.743278
1.715556
1.672164
1.616117
1.556755
1.505830
1.441948
1.356671
1.278325
1.220470
1.164724
1.089090
1.006826
0.924563
0.847723
0.780828
0.716042
0.642517
0.583758
0.523793
0.453282
0.368607
0.314971
0.268265
0.209204
0.155567
0.093493
0.035337
-0.008959
-0.060486
-0.112013
-0.155103
-0.183127
-0.224710
-0.270211
-0.312095
-0.346145
-0.366032
-0.401288
-0.450706
-0.482646
-0.514888
-0.558581
-0.601972
-0.626078
-0.651691
-0.690562
-0.720092
-0.750526
-0.795424
-0.843335
-0.877084
-0.899683
-0.925597
-0.949703
-0.975014
-1.015392
-1.063605
-1.097353
-1.121459
-1.163946
-1.210954
-1.249222
-1.291408
-1.345045
-1.393258
-1.435142
-1.486067
-1.540909
-1.579178
-1.623473
-1.678315
-1.727432
-1.767810
-1.798244
-1.825966
-1.847661
-1.873876
-1.909131
-1.928114
-1.933839
-1.938358
-1.953123
-1.973010
-1.984158
-1.995307
-1.992293
-1.981142
-1.972704
-1.967279
-1.964566
-1.955525
-1.943471
-1.923884
-1.903091
-1.891940
-1.881393
-1.861203
-1.838602
-1.821726
-1.806658
-1.795809
-1.788878
-1.776522
-1.771700
-1.775617
-1.785258
-1.802132
-1.825033
-1.852755
-1.886202
-1.924169
-1.982929
-2.050728
-2.106474
-2.158303
-2.223089
-2.283958
-2.349346
-2.423775
-2.498505
-2.561182
-2.615723
-2.671167
-2.726009
-2.765182
-2.801341
-2.844130
-2.872153
-2.895656
-2.922776
-2.942964
-2.937539
-2.937840
-2.943866
-2.943262
-2.925482
-2.919756
-2.912523
-2.893538
-2.864308
-2.840200
-2.810970
-2.770289
-2.734429
-2.696762
-2.654875
-2.609373
-2.559350
-2.501493
-2.441527
-2.382464
-2.337263
-2.283926
-2.220344
-2.161884
-2.100712
-2.040444
-1.984395
-1.924730
-1.867777
-1.809016
-1.743927
-1.686070
-1.634239
-1.572465
-1.506773
-1.444396
-1.388045
-1.328681
-1.262688
-1.189764
-1.118649
-1.050847
-0.975513
-0.898370
-0.817009
-0.739867
-0.664231
-0.580760
-0.488852
-0.399958
-0.318295
-0.233619
-0.133575
-0.043174
0.041200
0.137628
0.234358
0.330183
0.423296
0.512191
0.602291
0.693295
0.778875
0.858729
0.934968
1.008795
1.085938
1.150424
1.201954
1.249867
1.297177
1.337858
1.364678
1.378841
1.392704
1.387883
1.374023
1.362874
1.339672
1.297788
1.247466
1.203472
1.154054
1.094390
1.029303
0.967831
0.899128
0.826809
0.755996
0.682471
0.605029
0.532709
0.460390
0.379031
0.288330
0.212093
0.149115
0.070467
-0.021137
-0.103401
-0.178131
-0.258587
-0.334823
-0.410457
-0.483380
-0.558110
-0.628922
-0.693106
-0.756385
-0.817857
-0.874507
-0.926034
-0.979068
-1.022158
-1.049880
-1.090559
-1.135457
-1.165891
-1.182765
-1.193913
-1.212595
-1.225552
-1.225852
-1.230070
-1.237603
-1.231575
-1.215603
-1.202043
-1.185468
-1.172209
-1.156538
-1.135444
-1.117363
-1.095063
-1.054684
-1.006168
-0.948914
-0.899795
-0.863935
-0.816625
-0.759371
-0.711458
-0.671379
-0.629493
-0.579470
-0.532763
-0.500218
-0.469179
-0.449893
-0.432113
-0.409512
-0.388719
-0.377569
-0.357680
-0.337791
-0.330860
-0.331763
-0.328447
-0.322721
-0.328747
-0.344717
-0.353455
-0.350440
-0.342303
-0.348932
-0.366107
-0.386296
-0.393226
-0.393225
-0.391717
-0.382074
-0.367910
-0.367608
-0.353745
-0.321200
-0.293175
-0.279313
-0.255808
-0.217538
-0.173843
-0.139792
-0.107849
-0.065059
-0.036733
-0.008105
0.017509
0.057286
0.098269
0.123883
0.138649
0.143471
0.152211
0.176319
0.194701
0.203139
0.203743
0.214592
0.224838
0.229660
0.221525
0.227553
0.235087
0.227856
0.220926
0.227556
0.232981
0.230270
0.215204
0.203453
0.201344
0.192908
0.188087
0.176336
0.170009
0.168804
0.168203
0.161876
0.166999
0.167301
0.166398
0.165495
0.176344
0.172729
0.177551
0.170923
0.163691
0.158570
0.153749
0.146518
0.134164
0.127837
0.119702
0.118196
0.116087
0.110664
0.102830
0.103735
0.109763
0.116393
0.120914
0.132064
0.138092
0.158282
0.167022
0.176364
0.184802
0.196555
0.207103
0.210418
0.215843
0.223679
0.228802
0.225790
0.220668
0.228805
0.237243
0.239353
0.233328
0.220974
0.214948
0.208621
0.194158
0.181804
0.173669
0.158603
0.149865
0.139922
0.118226
0.089601
0.073631
0.064893
0.050731
0.032049
0.016983
0.013971
0.009452
-0.004409
-0.023693
-0.038458
-0.047497
-0.052619
-0.059247
-0.069492
-0.085160
-0.099925
-0.116799
-0.122523
-0.122522
-0.126439
-0.130355
-0.133368
-0.122519
-0.103233
-0.088768
-0.078522
-0.066769
-0.043264
0.005855
0.051056
0.078177
0.092943
0.126392
0.164662
0.211973
0.249038
0.276159
0.304787
0.334017
0.378615
0.415078
0.430748
0.444008
0.456664
0.476855
0.509098
0.532001
0.537124
0.528386
0.545563
0.565151
0.579616
0.591972
0.601314
0.600411
0.608849
0.628436
0.651339
0.669420
0.679666
0.687803
0.693830
0.711309
0.732704
0.744759
0.747472
0.756211
0.765553
0.776704
0.788457
0.801415
0.815880
0.834262
0.857466
0.875848
0.893628
0.909298
0.919243
0.943953
0.961733
0.977102
0.989457
0.998197
1.004224
1.013567
1.018087
1.009350
1.006940
1.017186
1.012968
1.007846
1.005738
1.000917
1.003028
1.002125
1.002427
0.999113
1.002428
0.994595
0.979529
0.968682
0.961752
0.948795
0.928607
0.910829
0.888832
0.862316
0.842730
0.807173
0.773425
0.728225
0.689354
0.652291
0.608598
0.564303
0.521514
0.474808
0.442868
0.405503
0.345840
0.302147
0.263878
0.225911
0.184930
0.146963
0.106886
0.064098
0.014981
-0.031122
-0.083252
-0.131164
-0.181787
-0.230301
-0.286650
-0.342396
-0.399046
-0.454792
-0.506319
-0.558750
-0.620222
-0.675666
-0.716647
-0.766969
-0.821811
-0.873338
-0.916127
-0.954998
-0.992966
-1.037864
-1.086980
-1.128564
-1.165326
-1.197869
-1.234932
-1.273803
-1.307251
-1.344013
-1.378063
-1.412414
-1.447067
-1.488348
-1.522700
-1.554640
-1.576336
-1.603756
-1.628766
-1.653475
-1.677279
-1.692044
-1.701384
-1.710423
-1.708012
-1.707710
-1.710119
-1.700777
-1.679080
-1.654069
-1.637193
-1.612181
-1.585964
-1.552515
-1.513944
-1.468441
-1.427459
-1.378039
-1.335249
-1.291554
-1.238217
-1.182168
-1.131242
-1.078507
-1.022157
-0.960684
-0.898608
-0.841353
-0.787414
-0.728351
-0.672001
-0.618362
-0.566532
-0.519824
-0.470706
-0.427011
-0.384824
-0.350471
-0.316720
-0.293215
-0.275134
-0.258259
-0.236562
-0.223905
-0.216069
-0.218479
-0.220889
-0.213355
-0.205218
-0.205217
-0.211845
-0.211845
-0.207324
-0.198885
-0.204610
-0.210033
-0.208827
-0.208826
-0.210030
-0.197072
-0.177485
-0.174169
-0.175675
-0.165127
-0.145238
-0.128061
-0.123842
-0.117814
-0.112992
-0.091596
-0.061462
-0.047298
-0.044284
-0.031627
-0.002397
0.023519
0.041298
0.061489
0.078364
0.101568
0.123868
0.144660
0.168165
0.188958
0.208847
0.227832
0.247721
0.266405
0.286294
0.303471
0.321250
0.336619
0.346263
0.342648
0.336923
0.337527
0.336925
0.329694
0.316135
0.304384
0.289016
0.269430
0.245927
0.217301
0.188675
0.167884
0.150106
0.123891
0.086828
0.053682
0.027165
0.004265
-0.020444
-0.054192
-0.092461
-0.125004
-0.152425
-0.180448
-0.208170
-0.238001
-0.259094
-0.276570
-0.294047
-0.319057
-0.332616
-0.332917
-0.321465
-0.315739
-0.316341
-0.309710
-0.297053
-0.284698
-0.268123
-0.245221
-0.214786
-0.190075
-0.174706
-0.160543
-0.134627
-0.097562
