EVENT_NAME: 202302060117
EVENT_ID: 13194
EVENT_DATE_YYYYMMDD: 2023/02/06
EVENT_TIME_HHMMSS: 01:17:32.00000
EVENT_LATITUDE_DEGREE: 37.288
EVENT_LONGITUDE_DEGREE: 37.043
EVENT_DEPTH_KM: 8.6
HYPOCENTER_REFERENCE: AFAD
MAGNITUDE_W: 7.7
MAGNITUDE_W_REFERENCE: AFAD
MAGNITUDE_L: 
MAGNITUDE_L_REFERENCE: 
FOCAL_MECHANISM: 
NETWORK: TK
STATION_CODE: 0129
STATION_NAME: 
STATION_LATITUDE_DEGREE: 38.259195
STATION_LONGITUDE_DEGREE: 36.210863
STATION_ELEVATION_M: 1456.0
LOCATION: Kahramanmaras_Pazarck_Turkiye
SENSOR_DEPTH_M: 
VS30_M/S: 965
SITE_CLASSIFICATION_EC8: A
MORPHOLOGIC_CLASSIFICATION: 
EPICENTRAL_DISTANCE_KM: 130.43
EARTHQUAKE_BACKAZIMUTH_DEGREE: 
DATE_TIME_FIRST_SAMPLE_YYYYMMDD_HHMMSS: 2023/02/06 01:17:34.5207130
DATE_TIME_FIRST_SAMPLE_PRECISION: millisecond
SAMPLING_INTERVAL_S: 0.01
NDATA: 12501
DURATION_S: 
STREAM: HNN
UNITS: cm/s^2
INSTRUMENT: sensor = ACEBOX/SARA | digitizer = 
INSTRUMENT_ANALOG/DIGITAL: 
INSTRUMENTAL_FREQUENCY_HZ: 
INSTRUMENTAL_DAMPING: 
FULL_SCALE_G: 
N_BIT_DIGITAL_CONVERTER: 
PGA_CM/S^2: 49.919
TIME_PGA_S: 
BASELINE_CORRECTION: BASELINE REMOVED
FILTER_TYPE: BUTTERWORTH
FILTER_ORDER: 
LOW_CUT_FREQUENCY_HZ: 
HIGH_CUT_FREQUENCY_HZ: 
LATE/NORMAL_TRIGGERED: 
DATABASE_VERSION: 
HEADER_FORMAT: DYNA 1.2
DATA_TYPE: Acceleration
PROCESSING: Automatic Paolucci et al., 2011
DATA_TIMESTAMP_YYYYMMDD_HHMMSS: 
DATA_LICENSE: U (unknown license)
DATA_CITATION: Turkish Accelerometric Archive v 1.0 - Disaster And Emergency Management Presidency, Earthquake Department
DATA_CREATOR: AFAD
ORIGINAL_DATA_MEDIATOR_CITATION: : AFAD - Disaster And Emergency Management Presidency
ORIGINAL_DATA_MEDIATOR: AFAD PROCESS SERVICE
ORIGINAL_DATA_CREATOR_CITATION: AFAD PROCESS SERVICE
ORIGINAL_DATA_CREATOR: network: TK
USER1: GuestUser
USER2: 
USER3: 
USER4: 
USER5: 
[...]
-12.755019
-20.947977
-21.500440
-16.325571
-11.701763
-11.290514
-14.858494
-18.974495
-18.313083
-11.541145
-1.913374
6.901718
11.182312
9.073694
3.089887
-2.828457
-5.013761
-1.178317
5.755642
11.536513
15.460800
15.662567
8.896240
-3.504133
-15.207791
-19.589853
-15.599401
-8.844063
-4.655352
-2.613133
-0.900100
0.143337
2.148148
7.204715
12.727006
14.708204
12.471699
8.141072
3.520069
-1.446954
-7.741010
-14.665384
-17.881733
-15.103988
-10.354864
-7.340984
-6.293806
-5.953631
-3.711282
1.233296
6.067990
9.321746
13.986703
20.730351
23.374831
17.788947
8.221495
2.875253
5.259985
9.734630
10.359804
7.016971
1.548920
-2.462106
-2.217087
0.997392
4.176099
4.390024
0.340421
-7.018582
-13.945294
-16.364394
-15.640324
-14.949687
-14.253907
-12.633224
-9.459193
-5.389484
-1.784097
1.455632
3.946508
5.077853
6.724253
10.026405
12.796902
13.489644
12.113045
8.312437
2.715330
-3.126563
-7.076801
-6.397854
-1.131805
5.423636
10.600843
12.333748
7.343345
-3.615434
-12.182935
-11.721653
-4.902021
1.623027
4.597863
5.238233
5.807062
8.001483
12.921512
18.357299
20.309739
18.041672
12.274361
4.258621
-2.422136
-6.973935
-11.363479
-14.043731
-13.055002
-9.378307
-3.958419
1.662769
3.862333
1.419853
-2.664351
-6.874573
-10.457750
-10.617200
-8.773475
-8.986698
-10.547996
-10.559219
-7.742196
-2.837597
2.314126
6.890239
10.303913
11.031022
9.234524
8.044729
8.832392
9.480946
9.507131
10.391586
11.127112
8.466732
1.447671
-6.818933
-12.234847
-12.391959
-7.125909
1.336149
8.802932
12.310124
12.587641
9.803817
4.253470
1.085984
3.417177
8.033270
11.091805
11.400651
9.891022
6.634460
2.770960
2.051566
3.847128
4.880278
5.094670
3.744725
-1.118025
-7.643540
-10.923249
-9.089343
-5.273538
-4.199474
-8.931297
-17.711319
-26.138308
-31.631141
-30.560116
-19.968165
-5.336197
4.568624
8.964246
11.893492
14.126021
15.140468
16.256382
19.290135
23.233827
23.236165
17.357332
9.224227
1.889071
-3.656133
-6.441126
-5.889131
-2.443660
3.003816
8.012454
6.972056
-0.610223
-5.182129
-0.993885
7.705945
15.481574
18.176789
13.504818
4.355630
-2.665536
-3.691439
-1.610410
-0.499873
-0.984535
-2.056963
-3.303804
-6.717712
-11.439482
-12.687492
-10.939156
-8.171932
-2.937211
3.167235
7.524281
10.159644
11.703407
13.050780
13.385578
11.734268
9.575617
6.878298
3.084703
0.562498
0.644561
2.695197
5.553836
5.131598
-0.856184
-7.978351
-13.063441
-17.987680
-22.026995
-20.670270
-14.028791
-8.532919
-8.639297
-14.904362
-26.194666
-34.773623
-30.289392
-13.437753
6.025168
20.531587
25.710430
21.701742
16.074475
13.591548
11.458849
10.035257
11.478254
13.349333
15.109125
17.879389
19.010500
16.962435
13.461789
9.761012
6.916868
5.228851
1.807930
-5.959050
-15.270026
-21.600087
-25.508710
-29.706540
-33.629191
-35.481333
-33.508084
-24.577262
-8.357811
7.541572
13.723639
9.282192
-0.487962
-8.639538
-8.443148
-2.739898
0.500064
2.086846
4.001879
4.267940
4.619104
7.953988
14.537251
20.680274
20.907525
17.104578
15.434564
16.788952
18.112945
17.291849
14.855214
11.618524
7.704290
4.605307
4.553170
7.159542
8.117877
5.200788
-0.833052
-11.070800
-21.873637
-25.785533
-22.193706
-13.532920
-2.183700
7.586220
14.396968
19.396956
22.493367
23.492149
23.777381
25.473347
28.055871
29.585840
30.104168
28.816413
24.795801
20.235819
16.650070
14.014941
13.028083
11.713440
6.340078
-2.765157
-13.313388
-21.662523
-20.197549
-8.203048
5.043905
15.336829
22.485882
23.674039
20.435713
16.326258
11.261040
5.085987
-1.622826
-8.457655
-15.513891
-21.810051
-22.468425
-15.283835
-6.037153
-1.281951
-2.475252
-5.840063
-6.344363
-4.877052
-5.019201
-4.843619
-1.861535
1.223185
3.035348
5.568073
7.918905
8.292513
6.764647
1.966192
-5.128854
-8.845295
-6.472487
-1.890061
0.596373
1.297531
-0.233374
-5.791203
-11.535134
-14.493371
-16.418692
-15.835835
-11.774076
-8.382145
-8.663403
-12.514278
-19.996259
-29.956724
-35.799084
-31.813776
-20.699521
-7.032435
3.417835
2.813469
-6.176971
-14.094282
-18.788698
-19.845228
-14.867918
-6.154294
1.817024
7.608649
10.781044
9.740880
5.456077
2.914233
3.628718
3.583127
0.179740
-6.358167
-13.497167
-16.138141
-12.220166
-4.865138
2.445234
7.457848
7.959576
4.193102
0.082478
-2.493734
-5.037682
-6.940324
-7.314166
-7.305282
-6.717516
-6.685252
-10.734621
-17.024703
-18.055983
-11.225830
-2.553120
2.261934
2.294899
-1.775745
-5.200875
-2.318856
4.288722
8.739988
8.266080
2.773247
-3.668101
-7.740382
-10.574473
-12.220172
-12.014431
-10.786995
-8.699420
-7.211066
-7.063540
-4.689096
0.241455
4.719374
9.975603
15.810248
17.916995
14.695970
7.800587
-0.217257
-6.947111
-9.838015
-7.331708
-1.176995
6.417909
13.423410
16.791025
16.632043
16.441498
17.390247
17.104079
13.884223
7.900883
1.618517
0.957104
7.642303
16.346341
23.304148
26.424873
23.890043
17.851527
10.938376
3.650213
-2.865950
-6.492380
-6.050270
-3.219219
-1.719877
-3.830833
-7.042506
-5.973819
0.230225
7.103163
10.857012
11.066027
8.815026
5.300118
3.359834
4.431327
5.923421
7.277575
10.144864
12.948794
12.404047
7.391433
-0.510681
-8.515666
-11.923728
-8.099039
-3.860763
-6.515063
-14.480770
-23.901163
-29.109231
-24.183357
-13.543477
-6.487944
-5.667783
-9.477744
-15.506440
-20.131184
-21.598028
-21.316303
-17.741309
-8.011134
3.370350
11.257033
15.502791
14.724246
9.200552
2.152967
-4.977149
-11.104507
-16.232149
-21.326826
-26.142114
-30.261856
-31.217853
-25.957181
-16.770819
-9.795478
-8.195837
-10.238758
-13.989334
-18.624365
-21.126931
-17.995918
-9.711079
0.168259
9.812863
17.604391
18.334305
9.994991
-3.012788
-16.144012
-24.548790
-25.379004
-22.955695
-21.481838
-20.949014
-22.029859
-23.930865
-22.703663
-17.339419
-11.328024
-7.857303
-7.901257
-10.080482
-10.895499
-9.014834
-6.018956
-3.006245
-1.123710
0.043640
3.324049
8.953186
15.153255
20.179896
20.764155
15.890885
8.766848
2.721085
-0.748934
-1.549924
0.490658
4.075472
4.775460
0.622753
-5.174016
-7.783662
-3.692210
6.270593
16.354736
20.048265
16.406639
10.570592
5.932755
2.502949
2.341629
7.042123
11.784700
10.662239
5.122646
0.202617
-1.409650
0.786408
5.186472
10.331649
14.918985
13.884665
3.835825
-9.836873
-18.956136
-19.478907
-10.147824
6.439624
21.188724
24.434765
15.360626
3.425743
-2.579574
-3.937001
-4.288399
-2.687121
0.137617
2.055222
4.188154
5.171739
1.278313
-4.913808
-9.185050
-12.003710
-13.435952
-13.331211
-13.394337
-13.675361
-12.578385
-9.184817
-4.303365
0.119846
1.989522
0.468203
-2.131389
-3.017247
-1.526556
1.259372
3.367756
3.838857
2.654674
0.290983
-3.791818
-10.760146
-18.713228
-24.841522
-26.230044
-21.365424
-13.991459
-7.123898
-1.917701
0.513089
2.561387
5.464213
8.194264
9.863342
8.638712
6.933395
8.024059
8.404447
5.787086
3.716811
5.002696
9.821491
15.957500
17.865286
11.995338
2.306779
-5.119090
-9.959395
-14.456252
-16.526293
-12.927920
-4.344755
6.882424
17.563919
23.560819
22.979832
16.196205
6.909543
2.093553
2.921663
4.058619
2.795646
-1.483546
-9.914275
-20.664040
-27.625354
-25.076028
-14.242331
-1.787249
6.068338
5.763233
-2.042323
-13.676075
-23.972974
-26.848447
-20.437726
-9.767219
-2.099370
-0.036577
-0.482897
-0.757141
-0.710849
-0.523344
0.136899
2.541972
6.993939
10.360853
9.050653
4.636794
0.627405
-3.229783
-5.418125
-3.109611
-0.232502
-0.480328
-0.607513
1.313131
2.935918
3.424554
3.262532
1.610754
-2.036717
-7.691338
-13.470573
-14.987450
-12.070595
-7.511549
-2.019417
2.094947
4.352493
8.539802
14.311321
16.964920
14.317867
9.843922
7.786506
6.864877
5.513061
4.525034
3.428758
3.410054
5.385641
6.052197
3.942878
1.308917
-1.530083
-5.503000
-8.659030
-9.200738
-8.508464
-7.351636
-5.396857
-4.039196
-3.637767
-1.611212
2.559731
5.169843
3.349731
-1.676442
-6.654688
-10.674598
-15.832867
-21.178642
-22.382932
-18.436434
-12.084864
-6.877732
-4.482011
-3.108452
-1.656805
-1.496655
-2.374797
-1.603734
2.034619
6.120927
7.637336
6.045878
2.660260
-0.113979
0.003621
2.446101
5.089880
8.101422
12.093744
15.816264
18.309712
19.022092
18.073109
17.263936
17.126931
15.841046
12.660234
9.411854
7.242215
5.133831
3.525306
5.016231
10.398945
16.028783
16.958127
12.411939
5.615686
0.687240
-1.316403
-3.134878
-4.661575
-3.471780
-0.855823
0.321580
-1.452474
-5.937173
-11.020861
-14.254044
-14.349901
-13.198917
-14.343121
-15.932943
-11.942257
-2.429514
6.830260
11.277551
9.041280
3.333821
0.607979
4.331901
12.324962
16.801712
12.598738
1.859261
-11.439595
-21.339039
-22.647837
-18.426861
-15.168896
-13.746474
-11.740026
-8.592180
-3.124363
3.746938
6.067142
2.445388
-4.407444
-14.924814
-26.367787
-32.515486
-32.087871
-26.537057
-16.246704
-4.786664
1.721550
2.411486
1.822550
3.025203
5.093841
6.222614
6.853633
7.550582
8.315333
9.382851
6.952528
-0.410683
-3.876494
2.569063
15.029756
26.948974
30.536826
22.060273
7.368920
-5.030518
-10.059731
-7.183090
-1.083787
2.968153
4.323476
3.336150
-0.891607
-5.854187
-8.064975
-7.398185
-3.377574
4.600290
13.725631
20.649537
24.152287
23.583459
19.477277
14.945818
11.028311
4.648217
-3.426907
-8.144936
-9.478515
-9.793441
-7.686927
-3.011216
2.638495
9.804381
16.460121
17.459370
13.097882
8.983284
7.844691
8.533925
8.454434
4.792467
-1.231319
-5.455569
-6.239959
-3.569994
0.421860
0.781674
-2.852705
-6.799904
-12.256031
-20.157911
-23.857519
-18.634255
-8.138628
2.673794
11.571182
16.782056
16.182833
9.456719
0.991855
-2.476761
-1.057144
-2.016415
-7.775309
-13.602472
-14.609437
-9.246596
-1.531754
2.405626
0.972448
-2.158565
-2.709158
-1.736327
-2.668945
-5.036844
-5.893477
-3.078558
1.622871
4.810463
5.733962
2.818510
-4.149117
-10.624366
-13.227465
-10.808599
-3.897318
3.630019
9.611254
15.136818
18.919892
17.919005
12.448149
5.182198
-2.194808
-7.825113
-10.709237
-12.940598
-14.770529
-14.553800
-13.965800
-13.292931
-10.853958
-9.638447
-11.193432
-10.407406
-4.689894
2.371718
7.618596
9.932488
9.386571
8.234184
6.291328
1.287833
-4.633784
-9.322589
-12.853161
-11.872616
-3.755409
6.435580
10.411770
7.586564
4.634172
4.234612
4.409024
5.431887
10.420186
19.099675
24.260048
21.620243
16.137463
12.342466
8.597501
3.843233
2.362829
5.521664
6.383674
0.996985
-6.855564
-15.012985
-23.273977
-27.706306
-24.586282
-14.442053
-0.936754
8.464468
8.166610
3.273467
2.775946
6.944785
9.388901
7.139304
2.546356
-1.248407
-2.671064
-2.904627
-4.002539
-6.029094
-8.997385
-11.450386
-10.254513
-7.044477
-5.189997
-4.294554
-3.607190
-2.623605
0.140814
6.117139
13.894171
18.154659
17.543980
16.205958
15.557872
14.748933
13.902821
12.496296
8.740811
2.558509
-1.690055
-0.958737
1.151283
0.570297
-1.285820
-1.734477
-1.955182
-2.647222
-1.829633
-0.142786
1.144735
1.813629
-0.087844
-2.711050
-1.967341
-0.473610
-1.210072
-1.684914
-0.251270
3.068651
7.966470
11.363310
10.620069
7.593095
5.505052
5.885673
8.865186
12.192120
12.259688
8.234634
1.514365
-5.599151
-9.349727
-9.392512
-9.795111
-11.939032
-12.098716
-5.999413
3.655947
8.942804
7.771012
3.317641
-0.309490
1.145431
5.722947
7.867569
5.704477
-0.641483
-7.644646
-9.024985
-3.331087
4.618487
9.311500
9.267312
5.179834
-2.153451
-9.515961
-13.449600
-13.357484
-9.520637
-2.985069
2.266018
0.997667
-7.038646
-14.568789
-14.926499
-9.550331
-3.560679
0.217952
0.631539
-3.087240
-10.042008
-15.875016
-16.189473
-12.906025
-11.232270
-13.065708
-17.519313
-21.901141
-24.009759
-24.733362
-22.883324
-16.285565
-9.385975
-7.469305
-8.295778
-5.998954
0.998598
10.038836
20.076220
28.188284
28.299805
20.391846
8.354560
-4.650413
-13.364972
-15.895360
-17.410834
-21.591130
-25.699182
-26.372518
-22.717332
-14.098396
-2.203960
9.261925
17.465637
19.514870
15.282204
9.257716
5.684359
5.879579
9.035374
12.101859
11.105181
5.843574
0.704008
-0.389696
2.137886
3.981611
1.594307
-3.939207
-7.870975
-7.249542
-4.760537
-3.830959
-4.088136
-3.021320
0.594589
3.787558
3.150226
-0.759566
-4.900817
-6.419798
-5.906379
-4.314688
0.447763
7.087137
10.852208
11.234700
11.890735
13.726277
12.811428
7.400424
0.042824
-6.999851
-10.440879
-7.599074
-2.178017
0.882389
1.711434
2.080132
4.178930
10.061269
15.496822
13.619663
6.288248
0.599493
-1.538817
-1.448571
0.155044
1.031316
0.178423
-0.450258
-1.317178
-3.907652
-6.377019
-6.632793
-2.806000
6.535604
16.346204
18.872383
13.965680
7.092040
2.514290
1.891921
4.051506
5.576566
4.246259
0.768291
-4.441414
-11.376075
-17.585497
-20.181582
-17.475145
-10.796024
-5.442067
-4.653236
-7.731878
-11.714147
-12.078871
-8.727855
-4.899425
-0.665824
3.352449
4.859039
4.733489
3.750372
-0.257148
-7.737725
-16.240932
-21.422815
-18.920249
-11.515890
-6.044099
-2.303109
2.472902
6.590539
9.314511
11.887449
12.438743
8.124248
-0.312093
-9.797949
-16.532480
-17.942043
-17.007088
-17.894349
-19.316304
-19.515967
-18.679909
-15.216904
-8.143601
1.558517
12.061859
19.338098
20.877185
19.711472
19.458503
18.512091
12.914283
2.770053
-8.788650
-18.778340
-23.875354
-23.865535
-21.940682
-18.040944
-9.858507
2.686119
18.462290
34.633813
46.373943
49.918543
44.471066
33.524444
22.506514
13.872849
8.427243
6.946371
8.153699
9.565601
9.596228
8.805993
9.093330
10.925365
13.364104
15.218584
14.870226
10.877436
3.780286
-2.927358
-5.267435
-2.549542
2.106297
4.257933
1.439273
-4.745366
-10.472932
-13.413868
-13.944354
-13.918169
-13.725053
-11.829658
-7.326022
-1.221108
2.396905
0.219551
-5.769868
-12.587864
-17.488255
-17.980165
-15.619748
-13.067383
-12.128453
-14.193819
-17.645368
-19.327539
-16.480590
-9.556217
-3.808545
-1.767963
-1.372378
-1.766794
-2.649379
-1.399733
4.365240
11.561052
15.036215
13.822807
7.900722
-1.229763
-8.588298
-10.977473
-7.399206
0.772008
8.370185
11.466596
11.180428
11.511485
13.387708
13.494319
9.996712
3.877770
-3.711757
-11.423093
-16.340083
-16.398533
-13.397511
-9.444935
-5.340390
-3.409459
-4.900150
-6.512650
-4.327815
0.146129
2.543253
2.410923
1.259004
-1.104687
-4.229154
-6.139044
-4.391877
2.117740
10.483006
16.536952
18.816476
17.745918
15.203138
13.522136
13.668727
15.313724
16.106530
14.203187
11.303633
9.040709
7.670423
6.795320
4.474180
1.160337
-0.351630
-0.460579
-0.813146
-0.848683
0.771298
5.272129
13.396584
23.838904
31.664333
30.848848
21.906570
12.376993
6.610617
3.973150
4.966087
8.102710
9.150122
7.283952
3.007099
-2.929716
-5.720554
-2.084071
4.085838
8.162327
10.391350
12.815360
16.320682
20.876689
24.863400
24.349046
17.227347
6.884858
-1.468953
-3.840359
0.129051
5.457758
8.302369
8.175184
4.435596
-2.423548
-9.519763
-11.586297
-6.094867
3.069985
12.586002
19.806362
20.184412
13.251856
3.069751
-5.494711
-10.893090
-16.439229
-23.256056
-28.866957
-31.076341
-28.327587
-22.696580
-18.835418
-18.403595
-18.965877
-15.442553
-4.918870
9.347906
19.632648
20.058158
14.308148
10.648753
10.761677
11.535546
9.763830
3.708247
-4.188256
-10.672857
-15.912020
-19.278233
-17.009699
-8.073967
3.771839
15.224397
24.612293
29.023112
26.266642
19.263478
14.030160
12.893905
13.566306
14.332927
15.346906
15.903810
14.632187
10.670726
4.801713
0.488621
-1.173912
-3.134536
-6.093942
-8.713874
-9.784432
-8.656828
-6.950108
-4.030916
1.840903
7.046632
8.849443
9.597126
11.041058
12.725801
13.023191
10.428275
6.103259
2.874519
1.808169
1.552395
0.691085
-0.925155
-4.029983
-9.264003
-12.957532
-10.209713
-2.235824
5.188408
7.887831
6.418415
5.435999
8.348411
14.062183
19.612763
21.527329
17.253982
8.816005
1.306670
-2.099522
-2.327708
-2.308537
-2.084560
0.339450
4.374557
8.121158
11.498827
15.711386
20.364185
23.920007
26.286269
26.512117
22.661009
14.877664
5.160582
-2.423100
-4.907664
-5.071322
-7.697567
-14.348866
-22.695896
-28.307031
-27.181531
-18.198806
-5.793290
3.568420
8.205321
9.508741
8.026933
4.562058
1.471024
0.604104
0.623976
0.504038
1.967375
5.235393
8.406151
8.788643
5.252226
1.703651
0.868527
-0.626607
-5.244571
-9.666846
-8.626215
-2.167799
3.794031
5.874359
6.660385
8.866963
10.684737
8.997889
4.910178
2.059487
2.058318
4.406344
6.901896
6.597024
1.714402
-7.843932
-16.897030
-17.530153
-10.703741
-3.863300
0.621165
4.645517
8.269608
9.617917
9.106368
10.257586
15.332856
22.494300
27.242489
25.917092
18.613265
10.999891
9.969780
16.072590
24.613905
28.909228
24.763067
16.200009
8.945747
4.464321
1.987940
-1.619085
-8.998428
-19.545256
-28.695848
-30.137208
-24.867184
-18.326004
-10.596433
-1.084392
7.910490
14.191687
15.253361
11.794096
9.613936
12.566796
19.648748
28.144240
35.767199
41.106427
40.981345
32.752850
21.785421
15.802548
14.294088
12.707306
9.351380
4.004436
-3.186934
-10.375732
-15.341820
-16.884415
-12.512406
-1.345314
9.100046
10.195854
3.151776
-7.201001
-19.611895
-31.435023
-37.440807
-35.986588
-29.979869
-22.402500
-13.911217
-4.270354
4.802383
10.419596
12.213288
11.509091
9.349505
7.820003
8.828371
11.825418
14.091147
12.484492
6.837352
-0.609792
-8.140636
-13.589281
-15.454282
-13.708986
-7.251038
3.539641
13.938709
18.058918
13.447267
2.633442
-10.269128
-21.031050
-25.070833
-21.839288
-14.238071
-3.666460
8.448914
18.999015
24.742245
24.106082
20.059753
18.320535
20.570366
23.058670
22.420403
18.755397
12.962836
6.283949
0.946357
-1.932623
-3.035912
-3.890207
-4.783781
-4.197651
-1.840040
0.883231
2.719708
3.141010
2.704745
2.918669
5.013492
8.269587
10.925991
11.801561
9.989165
6.471217
3.571196
1.519858
0.122920
-0.730207
-3.352477
-7.807250
-11.215080
-14.196462
-18.200475
-21.531618
-22.384745
-18.711556
-9.517946
1.451587
9.155207
12.452684
12.885910
11.580619
10.059300
8.713563
4.995251
-1.362398
-7.720749
-13.138767
-18.109530
-21.309981
-18.221052
-8.271810
2.710349
12.627327
21.257252
24.296850
20.257768
11.670161
1.868678
-5.621719
-11.652286
-18.759489
-23.126355
-18.835941
-7.595670
2.874940
8.450537
9.806327
8.228897
6.032137
3.992724
0.579517
-2.759575
-3.532509
-1.420853
3.310035
9.382919
14.163605
14.466840
9.902182
3.905516
-1.655586
-7.240769
-12.942150
-16.885375
-14.938545
-6.426922
4.246858
13.755393
20.761829
21.967288
14.903571
4.166899
-3.279544
-4.423982
0.692437
7.417381
10.759981
11.384219
9.930468
6.378619
3.781833
3.155256
1.544159
-2.938670
-9.225946
-14.954213
-16.747906
-12.230242
-3.574833
5.474991
11.758994
11.957487
7.058266
1.014372
-4.039857
-5.900650
-3.965042
-1.451254
-1.976597
-7.034100
-15.026459
-21.368912
-21.100746
-13.125922
-1.451022
7.115076
7.940380
4.145617
1.099472
-0.064137
1.566365
5.839945
9.681701
10.575975
8.728743
7.953237
10.167297
12.508075
13.764735
14.954997
15.590224
14.828279
14.812614
18.303675
22.418506
22.398166
17.633143
9.438783
0.333081
-6.478135
-9.115369
