EVENT_NAME: 202302060117
EVENT_ID: 13194
EVENT_DATE_YYYYMMDD: 2023/02/06
EVENT_TIME_HHMMSS: 01:17:32.00000
EVENT_LATITUDE_DEGREE: 37.288
EVENT_LONGITUDE_DEGREE: 37.043
EVENT_DEPTH_KM: 8.6
HYPOCENTER_REFERENCE: AFAD
MAGNITUDE_W: 7.7
MAGNITUDE_W_REFERENCE: AFAD
MAGNITUDE_L: 
MAGNITUDE_L_REFERENCE: 
FOCAL_MECHANISM: 
NETWORK: TK
STATION_CODE: 2309
STATION_NAME: 
STATION_LATITUDE_DEGREE: 38.79913
STATION_LONGITUDE_DEGREE: 38.72728
STATION_ELEVATION_M: 751.0
LOCATION: Kahramanmaras_Pazarck_Turkiye
SENSOR_DEPTH_M: 
VS30_M/S: 860
SITE_CLASSIFICATION_EC8: A
MORPHOLOGIC_CLASSIFICATION: 
EPICENTRAL_DISTANCE_KM: 223.57
EARTHQUAKE_BACKAZIMUTH_DEGREE: 
DATE_TIME_FIRST_SAMPLE_YYYYMMDD_HHMMSS: 2023/02/06 01:17:50.5474540
DATE_TIME_FIRST_SAMPLE_PRECISION: millisecond
SAMPLING_INTERVAL_S: 0.01
NDATA: 14501
DURATION_S: 
STREAM: HNZ
UNITS: cm/s^2
INSTRUMENT: sensor = CMG-5T/GURALP | digitizer = 
INSTRUMENT_ANALOG/DIGITAL: 
INSTRUMENTAL_FREQUENCY_HZ: 
INSTRUMENTAL_DAMPING: 
FULL_SCALE_G: 
N_BIT_DIGITAL_CONVERTER: 
PGA_CM/S^2: 25.817
TIME_PGA_S: 
BASELINE_CORRECTION: BASELINE REMOVED
FILTER_TYPE: BUTTERWORTH
FILTER_ORDER: 
LOW_CUT_FREQUENCY_HZ: 
HIGH_CUT_FREQUENCY_HZ: 
LATE/NORMAL_TRIGGERED: 
DATABASE_VERSION: 
HEADER_FORMAT: DYNA 1.2
DATA_TYPE: Acceleration
PROCESSING: Automatic Paolucci et al., 2011
DATA_TIMESTAMP_YYYYMMDD_HHMMSS: 
DATA_LICENSE: U (unknown license)
DATA_CITATION: Turkish Accelerometric Archive v 1.0 - Disaster And Emergency Management Presidency, Earthquake Department
DATA_CREATOR: AFAD
ORIGINAL_DATA_MEDIATOR_CITATION: : AFAD - Disaster And Emergency Management Presidency
ORIGINAL_DATA_MEDIATOR: AFAD PROCESS SERVICE
ORIGINAL_DATA_CREATOR_CITATION: AFAD PROCESS SERVICE
ORIGINAL_DATA_CREATOR: network: TK
USER1: GuestUser
USER2: 
USER3: 
USER4: 
USER5: 
[...]
4.430320
5.344419
6.078566
6.864563
6.583349
5.615875
4.602041
3.371043
1.615133
-0.662945
-1.831417
-0.365260
2.569494
4.064932
2.762258
0.493940
-0.616886
-0.480854
-0.940495
-2.248659
-1.613029
0.694026
1.934785
0.587275
-2.212361
-4.008227
-3.887749
-2.645161
-1.889054
-2.437451
-3.069725
-2.823586
-2.458190
-2.336493
-2.118719
-1.800294
-1.799073
-2.139153
-2.632345
-2.463067
-1.877153
-2.107430
-2.817175
-2.535351
-0.396354
1.303437
-0.070913
-2.895254
-4.931769
-4.523672
-1.835972
0.158453
-1.079560
-4.978432
-7.736892
-7.832968
-6.070346
-4.114657
-3.482687
-3.060255
-1.361685
0.509824
-0.172471
-2.045198
-1.424819
0.658668
0.266738
-2.966005
-5.557018
-4.201882
-0.566838
0.896879
0.003522
0.191100
2.226396
2.851350
0.026704
-2.132422
0.299989
5.309079
7.748505
5.019936
1.464193
1.290036
2.869350
2.862336
1.119540
0.126751
0.994795
2.471017
3.165513
1.824103
-0.594277
-1.314087
0.677593
2.258127
0.302133
-2.568569
-2.501467
-0.985289
0.068807
-0.340508
-2.822330
-5.043067
-4.996706
-2.348046
-0.391137
-1.397346
-2.300464
-2.009794
-1.270158
-0.373139
0.200575
0.328068
-0.710472
-1.573025
-0.313355
3.833181
8.763885
10.851031
8.828547
4.875994
2.993507
3.347312
2.359708
-0.553084
-1.989655
-0.936474
-0.017495
-0.326464
-1.920417
-2.642057
-1.789874
-0.269121
1.083880
1.681994
2.270348
2.161767
0.069132
-2.430990
-2.387984
0.008437
2.119374
1.764349
0.619058
0.007829
-1.208528
-4.684359
-8.183980
-9.555280
-7.382733
-2.633202
0.609302
1.958642
2.127920
2.245957
1.839692
1.327590
1.323625
0.876184
1.090298
2.216680
2.870000
1.352603
0.567217
1.647239
2.201737
0.922549
-1.188997
-1.310388
0.892660
4.241305
6.389148
6.918941
7.171180
5.769990
2.018130
-2.650879
-4.336028
-1.507111
3.292136
5.916395
6.204015
6.339132
5.191706
1.265993
-2.763116
-3.109295
-0.231882
2.822738
3.089923
1.351093
1.457845
4.595732
7.248357
6.555997
3.394931
-0.257498
-3.375864
-4.991777
-5.423968
-4.704157
-0.728727
4.270907
5.389664
1.768956
-2.374530
-4.933822
-7.782564
-9.143188
-6.134623
-0.636611
2.651643
0.669724
-4.816392
-8.288868
-4.408905
3.462652
7.597904
4.878789
-0.709808
-1.729437
2.238062
5.092294
2.409780
-2.520007
-2.802441
0.578840
1.801603
0.178675
-1.745293
-0.281881
2.330483
3.096960
2.436626
0.789907
0.007571
-0.388629
0.212230
2.999057
6.411448
8.441863
6.687173
3.685624
3.321754
4.641509
5.041981
4.265745
3.540139
4.684822
6.336117
6.728963
3.077755
-2.724041
-4.970399
-1.878872
4.030896
7.200198
5.772168
2.975277
1.649118
1.215402
0.912228
0.771011
1.896173
1.677791
-0.586867
-2.911916
-3.332212
-2.050888
-0.467304
-0.309921
-1.635470
-2.900323
-4.702594
-6.334063
-6.782419
-5.549895
-3.703397
-2.130794
-1.404882
-3.290420
-5.737166
-3.606708
2.165807
5.605344
3.307440
-0.985498
-2.126214
0.352558
2.964312
1.808041
-2.183858
-3.590843
-0.154052
4.384111
7.111157
8.559014
10.386601
10.758707
7.531760
2.951813
0.057015
-0.699700
-0.650289
-0.540487
0.230260
1.083053
1.572891
1.977938
1.503351
0.599623
-0.495038
-1.351185
-0.841217
1.969095
5.451333
7.239574
6.927860
4.866945
2.379634
0.529782
-0.597514
-1.111751
-0.307759
1.685751
3.189119
1.030908
-4.825483
-9.069926
-7.907858
-2.993320
0.434016
-0.893668
-5.085954
-6.074473
-0.389799
6.517944
8.116473
6.069893
5.358928
5.828331
6.327929
5.554133
3.142158
1.361542
0.630447
-0.909216
-2.529704
-3.445937
-5.247293
-7.413740
-6.512451
-2.524517
0.352897
1.024212
-0.072889
-1.115089
-0.462073
0.121401
-0.701806
-2.787426
-4.697669
-5.237527
-6.465779
-8.618806
-8.697496
-6.147963
-4.147133
-3.270244
-1.453942
0.848233
1.830043
1.419812
1.647346
2.932025
5.877455
9.791883
12.289566
10.243291
4.129476
-1.114161
-2.444590
1.608310
7.358561
9.801952
8.389477
6.490214
6.486250
4.762975
0.536528
-1.833967
-0.582533
4.399716
8.320245
7.394252
4.899620
3.560956
4.728514
5.461135
4.286258
3.930319
3.342270
0.795483
-2.647407
-4.537215
-0.757903
3.849495
3.468545
0.829342
-2.449761
-5.494621
-5.894786
-3.223861
2.131104
5.681662
5.644757
3.916907
1.135876
-0.700861
-0.888743
-0.165272
-0.003924
-0.410799
1.019367
3.736653
4.453414
3.702189
1.314004
-0.558723
-0.101216
0.651840
0.655501
2.992751
8.215039
9.268220
2.603567
-3.602359
-2.717236
-0.445867
0.227279
1.273445
2.092992
2.492854
2.862825
1.902366
-0.417193
-1.251990
0.705835
1.509217
-1.270898
-3.818905
-3.462050
-0.489475
2.815249
4.356743
4.975902
6.444500
9.654063
10.277187
5.835407
-0.016714
-3.725263
-2.256056
1.438159
3.688483
5.100654
5.613062
4.448556
2.700880
1.805998
2.540754
5.096997
8.437102
11.034826
11.284015
8.218111
4.183816
0.607334
-3.922288
-6.808240
-6.231476
-3.622772
0.005563
2.003953
3.359088
4.566297
6.130360
4.388785
-1.492312
-6.522445
-9.226310
-9.038732
-5.433273
-0.510499
3.283147
1.837426
-3.151227
-4.364229
-1.083600
3.264545
3.882789
3.682097
4.777673
2.213501
-3.477273
-7.344119
-6.356514
-3.236013
-3.296098
-4.756154
-5.296317
-4.733583
-3.212830
0.629923
4.424789
3.152616
-1.719831
-4.385264
-1.228772
1.505289
-0.119775
-2.953876
-1.038142
5.706423
9.000777
7.123475
2.749101
0.764437
1.512613
1.992996
1.964936
3.458544
6.748018
7.474844
6.325893
4.797516
4.579133
3.546083
-0.048700
-3.615727
-3.863390
1.387263
6.436919
7.294897
3.186486
0.545453
-0.792906
-2.341414
-3.786525
-2.067824
0.697653
-0.129214
-2.502759
-4.999525
-6.089001
-4.206207
-1.734450
-0.799306
-0.323803
0.729988
2.597226
5.465794
6.245691
3.663218
-1.539243
-4.215962
-1.091496
1.597425
0.353922
-1.496235
2.906506
8.639676
9.229555
5.468850
3.342664
4.342469
4.577018
1.250640
-2.329808
-5.497584
-7.140033
-5.956310
-5.116632
-4.752761
-4.585618
-6.627623
-6.992408
-3.901186
0.023307
1.775254
1.698698
1.494346
1.073440
-0.496418
-0.592799
2.456027
5.039416
5.199848
1.475744
-4.214115
-6.576984
-3.641010
0.498206
0.250848
-1.524277
0.047106
1.440672
0.500344
-0.081909
1.040508
2.409674
5.101034
6.459830
5.377064
6.239618
7.978754
6.843223
2.950145
-1.480350
-4.748473
-6.606254
-6.443382
-4.294929
-2.503332
-0.749251
1.117072
1.791133
-3.506490
-8.736707
-6.980795
0.096835
6.143245
4.758220
-2.963579
-11.262751
-12.606906
-8.270961
-5.481389
-4.918655
-2.596045
0.053224
0.239278
-0.586979
0.360975
2.265119
5.166323
5.669276
3.597380
0.266122
-2.834554
-3.113937
-2.343191
-0.461312
0.151747
-0.798036
0.190484
0.551610
-1.625817
-4.607540
-3.510134
1.352249
3.035569
0.305779
-3.174017
-4.455950
-4.444359
-5.383773
-5.467954
-3.274666
-1.598970
-2.040921
-5.442941
-7.508736
-7.997658
-6.652282
-2.202266
0.393323
-0.998107
-4.262875
-4.376946
-3.593999
-6.648009
-9.232617
-7.175666
-2.538376
-1.046294
-2.802204
-3.954816
-1.903355
0.797460
2.922122
3.816396
3.419586
3.389391
2.018396
0.919465
0.881645
2.680562
5.693093
6.110034
3.470221
3.593443
6.586453
8.360970
7.971479
7.513058
6.991196
4.980607
1.801850
-0.245340
-0.790687
-0.012010
0.873723
0.434212
-2.025343
-7.267456
-8.833653
-6.039506
-2.522194
-0.062332
2.804711
6.526987
7.857722
5.932229
2.676306
0.059063
-0.405458
2.044948
3.786220
3.832581
2.690645
1.046976
-0.700395
-2.391339
-3.015988
-2.168685
0.985367
5.223406
6.337893
3.943608
1.222663
-0.445406
-0.578998
0.943280
1.622831
1.884525
3.185980
4.558806
4.764989
1.743920
-1.737096
-0.916633
3.766407
7.507288
7.449032
4.252585
2.270362
4.914141
9.727723
10.724173
6.243047
2.852008
4.583824
6.261349
5.220674
3.178060
1.311433
0.374459
1.401410
2.167887
0.787742
-0.351754
0.558380
0.797809
-1.658697
-3.227945
-1.353692
2.501566
3.846331
2.922168
1.155582
-1.384190
-2.550221
-2.847295
-3.888275
-5.280925
-4.230489
-1.123103
0.520872
-0.108352
-0.949554
-0.628078
-1.573287
-3.157785
-3.501524
-1.585180
1.934877
2.931327
3.419030
6.318404
9.605133
9.176297
4.912334
1.688742
0.039888
-2.355617
-4.158803
-4.465942
-3.225183
-2.190912
-0.800701
-0.635693
-3.397204
-4.777043
-3.391407
-0.632641
0.448905
-1.603164
-3.527742
-3.220297
-0.270903
2.407647
1.903475
-0.094304
-1.178595
-1.492749
-1.027311
-0.827228
-0.406626
0.910994
3.241229
4.981890
2.268876
-2.850625
-7.375366
-8.349245
-5.050621
-1.500368
-2.831102
-8.373643
-11.200730
-8.888490
-6.498169
-6.073602
-7.013931
-7.076761
-4.480867
-2.418731
-4.683694
-9.485685
-11.093973
-7.076758
-3.773864
-5.451998
-10.230808
-13.419630
-11.750645
-8.179651
-7.277752
-9.256316
-9.722668
-6.954751
-5.350122
-5.549899
-4.386611
-1.231644
1.801626
1.662545
-0.180292
-0.236413
1.989206
3.319941
2.035263
0.604182
2.417129
5.278987
5.629133
3.517587
3.394976
6.045161
5.670311
1.148009
-2.932036
-4.573265
-4.274055
-3.283094
-2.202768
-0.113791
1.702511
2.201194
0.601446
-2.438534
-5.577945
-7.387231
-6.656135
-4.199018
-3.301084
-4.653779
-3.901637
-1.945642
-0.125985
0.684108
-0.393473
-1.545474
-2.045681
-1.019341
-0.297089
-0.381880
-0.464536
-0.976943
-2.438524
-4.019362
-4.335956
-2.881999
-2.022191
-0.611849
1.744311
1.253559
-0.350764
0.117113
3.037532
6.216900
6.832094
5.153045
3.230602
2.127706
2.915533
2.861548
1.405457
0.197030
-1.777569
-4.805958
-6.567054
-6.584134
-6.581388
-8.368104
-9.325513
-7.332003
-7.619621
-10.222224
-11.254054
-9.531388
-6.758897
-6.227578
-7.889242
-10.715109
-12.289846
-11.328777
-10.509534
-12.699161
-16.667879
-17.585027
-16.000833
-12.955363
-10.311278
-9.652468
-9.758304
-7.233476
-3.470025
-1.958117
-2.452529
-1.272161
2.296088
4.393604
3.069580
-0.528863
-1.979159
2.006336
7.187448
9.521953
7.976191
3.945252
0.466066
-1.380431
-1.183703
-0.065556
0.259275
-1.153811
-4.137364
-6.738442
-7.496988
-6.901314
-4.177013
-1.253544
0.804627
-0.023155
-2.454040
-3.689308
-3.531620
-1.895576
0.916872
4.335058
6.091579
4.710519
2.564813
1.553724
2.156718
2.988466
2.087788
-1.027223
-4.270030
-4.772677
-2.754462
-1.424336
-2.522352
-4.276433
-4.415514
-2.803260
-1.437144
-0.654502
0.991913
0.941893
-0.395247
-1.355400
-2.528447
-3.900967
-4.784259
-3.324812
0.303217
3.680837
4.434809
2.624913
0.623779
1.221283
3.654915
6.627794
9.403031
10.481222
9.075762
7.150574
6.947441
8.879951
11.010103
12.328943
12.812070
13.182041
13.958278
14.615258
14.912333
14.424327
13.405002
12.051698
11.996187
13.218951
13.084444
11.201652
9.513148
9.855973
12.641580
13.871664
12.360977
9.800769
7.267402
5.522777
3.887953
2.651771
1.679112
0.384368
-0.996692
-2.134663
-2.471693
-2.362500
-4.186122
-7.579602
-10.600976
-12.721672
-13.484183
-12.296799
-11.801472
-12.453571
-12.768335
-12.800970
-11.443394
-10.772079
-10.304811
-9.751838
-9.772272
-8.709941
-7.851963
-7.135812
-6.887538
-6.689284
-5.397590
-4.165371
-3.068574
-1.725029
-1.320897
-2.919730
-4.615250
-3.941189
-2.752281
-2.260004
-1.779621
-2.199307
-3.886896
-4.469454
-2.318867
0.764729
4.150280
6.504305
6.150806
3.944098
2.272064
2.577984
4.935365
5.892774
2.956191
-0.235070
-1.696347
-3.349775
-7.078455
-11.679448
-14.549540
-15.921754
-14.896024
-12.517293
-12.289454
-14.199697
-15.351088
-13.894081
-11.630337
-9.221411
-8.327137
-9.606021
-10.390187
-7.790023
-2.909035
0.023279
1.905767
3.290793
2.506627
0.827883
0.403012
0.264845
-0.369564
0.068423
2.412689
4.709983
5.103745
4.191782
2.272694
1.313150
2.427942
4.121328
3.270060
-0.457704
-3.261610
-4.283375
-2.945319
-2.403631
-4.389820
-5.823036
-5.904776
-4.691773
-4.031437
-3.698982
-3.171324
-0.964921
1.849357
3.597948
3.504312
2.556054
2.243119
2.098853
3.557080
4.103039
4.233581
5.568891
6.454015
7.534646
7.091780
5.015005
2.918710
2.878145
4.937536
6.654406
6.776409
6.106009
5.338618
4.750570
5.390165
5.189778
3.378357
1.128339
-0.386923
-1.214400
-3.370171
-7.323029
-9.640758
-9.179591
-7.159545
-7.166560
-8.692802
-8.041312
-5.882794
-4.676501
-6.148147
-9.901532
-9.485201
-4.978758
-0.956358
-0.179206
-1.190906
-0.644947
0.882821
0.663828
-1.532204
-3.340575
-2.116591
0.871233
2.600304
2.143103
1.029837
1.832000
3.294497
4.553251
4.150950
2.041845
0.703485
1.416281
4.284849
6.815472
7.141828
5.108058
2.890981
1.928387
1.562687
2.014094
3.165487
4.369950
5.274289
6.403416
6.444288
6.142334
6.742888
6.980487
6.669993
6.090485
6.576053
5.314554
5.577164
4.524899
0.767244
0.142900
1.800295
5.180051
6.796575
5.418870
4.661544
5.649455
5.713506
6.262820
4.331227
4.979667
5.578696
5.092214
3.102060
1.320225
-1.418410
-3.421680
-4.148505
-4.355297
-5.351442
-8.603399
-10.660654
-13.494146
-14.292952
-13.778104
-11.716578
-9.196935
-8.428323
-9.355536
-9.727946
-10.900993
-12.343664
-14.374689
-17.051408
-18.613335
-18.965310
-17.181948
-13.850383
-11.206604
-7.055187
-4.052112
-0.359421
3.756005
7.243427
10.885487
13.965423
16.301453
16.854426
17.358599
16.957214
16.321585
13.070237
8.201756
3.947858
-0.615619
-4.437325
-8.596366
-11.664711
-11.813857
-8.345040
-4.293665
-5.779951
-8.813526
-10.217156
-6.615967
-0.860532
2.816603
6.232044
8.832513
12.179328
16.161773
18.513358
18.727472
20.896055
22.320426
23.416308
23.064638
19.482666
14.998490
9.880210
5.152945
-0.678741
-8.538096
-15.209155
-19.612199
-22.636624
-24.108575
-25.816600
-24.415713
-21.731368
-16.098544
-12.740139
-10.684408
-8.676258
-6.284412
-4.447369
-4.538260
-0.177915
5.283801
8.680942
9.616696
9.419664
9.842096
11.671818
13.784280
15.961098
14.694415
13.475617
12.645700
11.816089
10.750098
8.516246
8.361609
7.862622
7.834562
7.576529
5.794998
8.095648
10.130638
9.376668
2.581778
-6.479296
-11.166605
-8.937326
-1.900262
1.810424
0.830445
-0.239816
3.287562
6.206456
7.622897
7.360594
5.816052
6.863743
11.183217
15.506962
15.980634
16.256969
16.800487
14.659661
12.196140
10.078799
9.074420
7.394761
7.064746
8.284765
8.023681
6.586501
5.573276
6.615782
5.388445
-0.517967
-4.183511
-1.879202
2.084638
1.865340
-2.303156
-1.057822
3.440080
6.036279
5.084970
-0.190692
-6.793735
-10.899705
-13.013386
-14.401461
-16.372704
-18.683418
-18.188700
-16.015238
-8.100980
-0.464581
0.504724
-5.191845
-10.654476
-10.317445
-4.495518
-1.714182
-3.398111
-4.438786
-3.190402
-2.830801
-6.119969
-12.178579
-14.543583
-11.858933
-9.796492
-8.669500
-10.334824
-11.793050
-12.375303
-15.490008
-16.506283
-14.177268
-9.090707
-4.887744
-7.172838
-10.454076
-10.197262
-6.581128
-4.349104
-4.406444
-2.980243
-1.368903
-0.728698
-5.571559
-14.030859
-19.681067
-19.474884
-14.341047
-14.355382
-17.228524
-20.344145
-17.417626
-11.808897
-11.143987
-13.111570
-11.303198
-6.999279
-1.506147
-0.935483
-5.843615
-7.672422
-5.379092
-0.247391
2.946922
1.864766
1.389875
1.248048
1.726296
3.328485
6.604234
9.413326
8.671251
6.351387
3.861941
3.093330
1.445391
0.356525
-2.585243
-2.995168
0.350427
2.048082
2.606241
0.878391
-2.084422
-3.291325
-0.061021
2.054185
6.301679
6.418496
9.858642
15.556432
11.876553
11.014306
9.551810
12.748868
13.546760
6.761020
6.044565
8.779541
10.242953
9.034221
6.199814
0.763720
-2.228069
-2.787752
-2.934154
-4.124281
-5.263777
-3.490175
-2.076784
-2.679472
-4.637601
-4.614115
-1.585725
-0.165928
-0.460562
4.230408
10.037694
10.848702
9.174838
5.792948
6.280956
6.525570
3.337968
4.767220
5.942403
4.774236
4.031551
3.671646
1.932206
3.066518
6.690277
6.322747
5.491915
6.227282
9.933697
13.514146
11.503251
6.919949
-0.612442
-4.475324
-1.465233
4.077614
1.733350
1.052580
1.909034
3.855268
2.483358
-1.352683
-1.375558
0.403534
4.839520
6.949847
5.188141
2.257048
-4.512221
-8.367173
-8.517845
-8.383642
-7.026982
-6.741802
-4.413092
-0.596875
-0.192438
-7.629668
-13.705052
-10.195365
-1.570142
2.192090
2.254616
3.856805
6.238281
6.168740
6.290438
5.255558
3.795807
2.893299
5.239394
7.791063
11.966880
10.546474
3.616772
4.100205
7.007203
10.240557
10.145396
6.771132
4.604685
2.752698
5.687757
7.765143
7.430554
4.054764
-0.092381
-2.692544
-0.879902
3.267855
3.518569
5.896080
5.458399
7.666632
10.202745
6.391409
-0.290934
-4.210242
-0.616068
2.289100
2.507484
-5.892645
-14.542572
-15.778145
-11.580672
-0.858543
6.901687
4.797767
0.119913
-3.309252
-1.721703
-1.163239
-5.841703
-8.523607
-8.121916
-2.292974
3.884893
1.029746
-5.210341
-12.705216
-12.571929
-7.156878
-5.580004
-2.975265
-3.817382
-4.541462
-3.170161
-2.067265
-0.217717
-1.669538
-0.293357
5.350142
5.092109
2.010039
-6.136631
-4.769296
2.030476
5.411756
2.752117
-5.213990
-8.768512
-5.535464
1.454325
4.978348
4.174051
4.008129
8.057675
13.078050
4.650776
-7.698857
-13.380785
-12.934258
-7.308144
-7.220913
-9.530406
-14.543460
-18.490523
-15.811058
-9.508139
-7.454848
-12.063161
-20.666422
-21.349022
-15.897371
-13.159650
-13.933141
-16.186209
-17.229934
-16.303024
-16.855692
-14.060325
-13.732140
-14.528506
-9.523686
-9.511181
-13.461904
-18.585979
-23.192462
-18.536567
-14.406196
-12.707930
-14.904267
-15.186701
-17.567870
-18.277615
-17.200034
-16.879779
-17.449222
-20.564537
-17.726470
-13.631173
-11.139286
-8.087410
0.818722
1.692865
1.213094
-2.386874
0.579600
7.932650
12.491553
11.389267
9.640372
6.487845
7.143301
10.312603
13.332453
11.069625
5.266305
4.239355
9.503734
13.679551
7.033198
-1.876593
-5.074870
2.890018
11.153506
15.223487
12.787111
9.458903
14.352396
20.205128
23.447021
22.206873
22.787907
22.971216
19.615557
16.786640
13.326059
10.846678
12.048702
12.247870
7.889051
7.684394
5.599383
3.426227
1.258560
-1.991263
-1.566391
3.632107
9.761478
12.870389
8.920276
11.729674
13.423669
15.383934
19.433479
20.334463
22.298998
20.215817
19.211133
20.560778
22.180963
21.304685
18.638946
13.720444
7.468767
5.073872
6.385392
6.733708
4.670658
1.988449
1.390335
4.691095
3.461012
2.375501
0.320991
1.739873
5.198930
3.608942
2.228187
-0.823078
1.740486
3.769986
6.583958
6.342395
1.034402
-0.609267
3.212745
6.382353
4.840251
4.700559
3.453091
1.169218
-0.856927
-4.679853
-5.030607
-4.156159
2.049768
6.397608
7.636232
9.003568
7.181166
4.075611
-0.380505
-0.239897
4.041452
8.091302
8.332256
1.898797
-1.185713
5.454540
8.508856
7.342214
-0.540932
-3.091989
-1.995802
1.598066
2.543276
2.100410
-0.550689
-1.176253
0.526893
1.965905
5.298995
3.657766
2.266641
0.241411
2.174531
6.305512
7.498385
2.734825
1.368406
3.634590
4.278455
3.002011
0.599796
-1.036552
-0.218835
1.950358
6.017594
6.087745
1.616074
-2.029034
-2.005548
-1.265302
2.755878
1.656643
-3.084042
-3.658975
-3.356410
-0.336560
4.984549
5.195308
-1.118895
-3.115759
-2.777508
0.692224
1.482796
-0.704391
-5.351744
-4.748750
-2.053730
-1.247907
-1.406204
2.382868
8.521389
7.046693
3.387249
2.212372
1.778046
4.320564
5.085516
1.618225
1.792079
0.589446
1.172310
0.933797
-0.865729
-2.202258
-3.206027
-5.022024
-5.062589
-4.802419
-5.682357
-5.555780
-2.711307
2.409109
2.788840
5.426825
4.393165
3.017595
4.212909
