EVENT_NAME: 202302060117
EVENT_ID: 13194
EVENT_DATE_YYYYMMDD: 2023/02/06
EVENT_TIME_HHMMSS: 01:17:32.00000
EVENT_LATITUDE_DEGREE: 37.288
EVENT_LONGITUDE_DEGREE: 37.043
EVENT_DEPTH_KM: 8.6
HYPOCENTER_REFERENCE: AFAD
MAGNITUDE_W: 7.7
MAGNITUDE_W_REFERENCE: AFAD
MAGNITUDE_L: 
MAGNITUDE_L_REFERENCE: 
FOCAL_MECHANISM: 
NETWORK: TK
STATION_CODE: 0509
STATION_NAME: 
STATION_LATITUDE_DEGREE: 40.76096
STATION_LONGITUDE_DEGREE: 36.32186
STATION_ELEVATION_M: 214.0
LOCATION: Kahramanmaras_Pazarck_Turkiye
SENSOR_DEPTH_M: 
VS30_M/S: 373
SITE_CLASSIFICATION_EC8: B
MORPHOLOGIC_CLASSIFICATION: 
EPICENTRAL_DISTANCE_KM: 391.16
EARTHQUAKE_BACKAZIMUTH_DEGREE: 
DATE_TIME_FIRST_SAMPLE_YYYYMMDD_HHMMSS: 2023/02/06 01:18:01.8665920
DATE_TIME_FIRST_SAMPLE_PRECISION: millisecond
SAMPLING_INTERVAL_S: 0.01
NDATA: 21001
DURATION_S: 
STREAM: HNE
UNITS: cm/s^2
INSTRUMENT: sensor = GMS+/GEOSIG | digitizer = 
INSTRUMENT_ANALOG/DIGITAL: 
INSTRUMENTAL_FREQUENCY_HZ: 
INSTRUMENTAL_DAMPING: 
FULL_SCALE_G: 
N_BIT_DIGITAL_CONVERTER: 
PGA_CM/S^2: 6.426
TIME_PGA_S: 
BASELINE_CORRECTION: BASELINE REMOVED
FILTER_TYPE: BUTTERWORTH
FILTER_ORDER: 
LOW_CUT_FREQUENCY_HZ: 
HIGH_CUT_FREQUENCY_HZ: 
LATE/NORMAL_TRIGGERED: 
DATABASE_VERSION: 
HEADER_FORMAT: DYNA 1.2
DATA_TYPE: Acceleration
PROCESSING: Automatic Paolucci et al., 2011
DATA_TIMESTAMP_YYYYMMDD_HHMMSS: 
DATA_LICENSE: U (unknown license)
DATA_CITATION: Turkish Accelerometric Archive v 1.0 - Disaster And Emergency Management Presidency, Earthquake Department
DATA_CREATOR: AFAD
ORIGINAL_DATA_MEDIATOR_CITATION: : AFAD - Disaster And Emergency Management Presidency
ORIGINAL_DATA_MEDIATOR: AFAD PROCESS SERVICE
ORIGINAL_DATA_CREATOR_CITATION: AFAD PROCESS SERVICE
ORIGINAL_DATA_CREATOR: network: TK
USER1: GuestUser
USER2: 
USER3: 
USER4: 
USER5: 
[...]
0.337362
0.418670
0.492185
0.555828
0.609601
0.657139
0.691688
0.720783
0.746500
0.756891
0.758450
0.748840
0.719226
0.684418
0.645973
0.588305
0.525182
0.458422
0.372439
0.280741
0.189563
0.091891
-0.007340
-0.106571
-0.209439
-0.306851
-0.390236
-0.469465
-0.544278
-0.611297
-0.680395
-0.744817
-0.799368
-0.857815
-0.918081
-0.972112
-1.026663
-1.077837
-1.117061
-1.158104
-1.197329
-1.229020
-1.259412
-1.289285
-1.319158
-1.346174
-1.375527
-1.403322
-1.424622
-1.452677
-1.486966
-1.521514
-1.557621
-1.597625
-1.646981
-1.695297
-1.738678
-1.791151
-1.844922
-1.897135
-1.950127
-1.991690
-2.030135
-2.062605
-2.077412
-2.082607
-2.076632
-2.060525
-2.036367
-1.998440
-1.949603
-1.891934
-1.825953
-1.750360
-1.668013
-1.587225
-1.504358
-1.422791
-1.343301
-1.263292
-1.182244
-1.096261
-1.008718
-0.917539
-0.817528
-0.708685
-0.592568
-0.475672
-0.353321
-0.222398
-0.086539
0.058672
0.211156
0.369355
0.532230
0.700301
0.881099
1.065795
1.249192
1.437004
1.625336
1.815487
2.008495
2.200724
2.389835
2.572972
2.752212
2.923660
3.085495
3.239279
3.383710
3.518790
3.641141
3.753621
3.856230
3.939096
3.999622
4.047420
4.085606
4.107947
4.117819
4.112624
4.096778
4.074439
4.050540
4.032877
4.009758
3.983522
3.963520
3.951311
3.946376
3.948715
3.959365
3.978329
4.011840
4.053403
4.099642
4.157051
4.223552
4.297586
4.377595
4.463319
4.552420
4.645158
4.743350
4.838946
4.932203
5.025460
5.110404
5.180023
5.235613
5.278476
5.303414
5.310947
5.302376
5.273022
5.227044
5.166258
5.086250
4.991176
4.893503
4.794273
4.688807
4.589057
4.500217
4.422287
4.357345
4.305912
4.266168
4.228502
4.196810
4.173951
4.153170
4.129532
4.097061
4.061214
4.021730
3.971855
3.920161
3.863013
3.790538
3.708452
3.625067
3.533369
3.432320
3.328153
3.217233
3.106312
3.006042
2.903434
2.801866
2.703934
2.597949
2.507030
2.421567
2.331688
2.265707
2.196090
2.117121
2.052439
2.001525
1.968535
1.946455
1.925934
1.908530
1.908530
1.928793
1.945418
1.957368
1.963603
1.957369
1.954512
1.951655
1.926458
1.886974
1.836839
1.764364
1.677862
1.583826
1.475244
1.351335
1.220932
1.080658
0.939864
0.803486
0.655419
0.511248
0.377468
0.238753
0.111726
0.002624
-0.098165
-0.185187
-0.261298
-0.331435
-0.385467
-0.419236
-0.439757
-0.450407
-0.454563
-0.450147
-0.424429
-0.384165
-0.343640
-0.291686
-0.225965
-0.157645
-0.074259
0.028349
0.133816
0.240061
0.352801
0.463982
0.580618
0.707126
0.829477
0.954166
1.079115
1.198608
1.336286
1.482016
1.609822
1.737369
1.868033
1.982071
2.091694
2.209109
2.323148
2.426796
2.519274
2.604997
2.691760
2.762937
2.821645
2.892043
2.959843
3.020109
3.081675
3.146877
3.210780
3.273644
3.347679
3.422752
3.499904
3.579133
3.656025
3.741749
3.826174
3.909300
3.992167
4.068799
4.141794
4.207256
4.275056
4.343895
4.400784
4.450141
4.497159
4.548334
4.598729
4.639253
4.682116
4.729134
4.777192
4.827067
4.876943
4.928118
4.978513
5.026311
5.069433
5.105282
5.128401
5.142169
5.150742
5.136715
5.114895
5.099829
5.062423
5.004235
4.943190
4.882145
4.822139
4.756938
4.683424
4.611989
4.547826
4.478209
4.400279
4.322609
4.243120
4.153501
4.066219
3.985692
3.900228
3.814505
3.728003
3.644099
3.566169
3.493694
3.420180
3.341211
3.260943
3.176259
3.088978
2.992344
2.879865
2.761412
2.629710
2.483980
2.334874
2.176416
2.001853
1.818457
1.637919
1.455302
1.260736
1.061495
0.872644
0.691846
0.502476
0.316223
0.140880
-0.029787
-0.192921
-0.351119
-0.508538
-0.667256
-0.817661
-0.957676
-1.097950
-1.246797
-1.395903
-1.536437
-1.683205
-1.833611
-1.981158
-2.136759
-2.298074
-2.453675
-2.605379
-2.766694
-2.934244
-3.097378
-3.258434
-3.417931
-3.577947
-3.738743
-3.893045
-4.037735
-4.178009
-4.322700
-4.460896
-4.575972
-4.683776
-4.788462
-4.878601
-4.956790
-5.023031
-5.076802
-5.118884
-5.150835
-5.169538
-5.166161
-5.152912
-5.137585
-5.104854
-5.059135
-5.013415
-4.958603
-4.887167
-4.811574
-4.735721
-4.656751
-4.571287
-4.475432
-4.386851
-4.309180
-4.224235
-4.126822
-4.030707
-3.939009
-3.837959
-3.727297
-3.607544
-3.476360
-3.337384
-3.190875
-3.026961
-2.843304
-2.660947
-2.478329
-2.284542
-2.096989
-1.922685
-1.753835
-1.590440
-1.432501
-1.276900
-1.131169
-0.995051
-0.853736
-0.711643
-0.570848
-0.421221
-0.262243
-0.096770
0.077794
0.269243
0.471863
0.686691
0.914249
1.140507
1.368584
1.596660
1.809670
2.007874
2.188413
2.348430
2.488706
2.608979
2.708730
2.782504
2.844589
2.895245
2.927976
2.952135
2.969540
2.980710
2.984347
2.993959
3.011364
3.035263
3.070592
3.113714
3.171383
3.242300
3.322569
3.403357
3.483106
3.567531
3.647021
3.722873
3.795869
3.861590
3.921597
3.969135
3.999528
4.012777
4.013037
3.995114
3.956668
3.909391
3.852243
3.785223
3.708332
3.622349
3.525456
3.421290
3.313227
3.188798
3.051641
2.909549
2.763560
2.613155
2.451060
2.279613
2.103231
1.919056
1.729426
1.532263
1.324969
1.112219
0.889598
0.662821
0.433966
0.202773
-0.024263
-0.248702
-0.468725
-0.677838
-0.874742
-1.059436
-1.234779
-1.390120
-1.530914
-1.662616
-1.767042
-1.859259
-1.950957
-2.033822
-2.105518
-2.171498
-2.241895
-2.317487
-2.396716
-2.475944
-2.558290
-2.650248
-2.743504
-2.832344
-2.916249
-2.998335
-3.077564
-3.143804
-3.200953
-3.257582
-3.317328
-3.367203
-3.399933
-3.435781
-3.487474
-3.547740
-3.600992
-3.656841
-3.728277
-3.804648
-3.886735
-3.973497
-4.062856
-4.157671
-4.254824
-4.352237
-4.444454
-4.535112
-4.630187
-4.721885
-4.806309
-4.881121
-4.950219
-5.016979
-5.075426
-5.123223
-5.165825
-5.211024
-5.249989
-5.273367
-5.286096
-5.287913
-5.278561
-5.256221
-5.220632
-5.179069
-5.124777
-5.045288
-4.947614
-4.840070
-4.719537
-4.584717
-4.433792
-4.271956
-4.093235
-3.897629
-3.707738
-3.508236
-3.294966
-3.085853
-2.870764
-2.649961
-2.436691
-2.233552
-2.039765
-1.859226
-1.695052
-1.543347
-1.406969
-1.285916
-1.176294
-1.079400
-0.991858
-0.916784
-0.847166
-0.767936
-0.684291
-0.610516
-0.539859
-0.455694
-0.371009
-0.292299
-0.203458
-0.105005
-0.006553
0.089043
0.186716
0.284129
0.372970
0.453758
0.525974
0.586501
0.630922
0.663653
0.688331
0.699502
0.694566
0.684176
0.671708
0.648329
0.612741
0.571698
0.530656
0.477404
0.406747
0.338948
0.268811
0.185166
0.107237
0.041516
-0.020828
-0.083692
-0.144996
-0.193832
-0.238512
-0.289686
-0.341379
-0.386318
-0.422945
-0.455156
-0.479054
-0.493081
-0.500614
-0.499315
-0.488144
-0.470220
-0.445801
-0.413849
-0.374364
-0.334359
-0.294615
-0.250713
-0.203175
-0.153299
-0.105242
-0.058483
-0.011205
0.036333
0.083611
0.124135
0.156867
0.181545
0.197651
0.204146
0.203107
0.197393
0.179209
0.149077
0.112190
0.061276
-0.006523
-0.082635
-0.160824
-0.247067
-0.343960
-0.444749
-0.545019
-0.649445
-0.754391
-0.848946
-0.940124
-1.032601
-1.115467
-1.186903
-1.244311
-1.284834
-1.308473
-1.314707
-1.303536
-1.270545
-1.207161
-1.118840
-1.015192
-0.885567
-0.729706
-0.562935
-0.389149
-0.207831
-0.020278
0.162859
0.330669
0.488868
0.643950
0.787083
0.910213
1.012822
1.102702
1.183490
1.250771
1.304543
1.347925
1.387670
1.422479
1.457029
1.491838
1.518075
1.545611
1.574965
1.608995
1.644324
1.677315
1.706410
1.743037
1.799148
1.834217
1.856817
1.883054
1.901498
1.938126
1.979169
2.009823
2.040735
2.073726
2.112172
2.139189
2.161529
2.186727
2.203353
2.217381
2.222317
2.216343
2.209329
2.202316
2.197121
2.186471
2.178678
2.181796
2.188550
2.205955
2.231413
2.257650
2.293758
2.344933
2.409096
2.476376
2.535604
2.594572
2.657956
2.712767
2.753291
2.778229
2.786543
2.783686
2.771737
2.746540
2.708094
2.663155
2.616137
2.566782
2.516647
2.463655
2.412481
2.371438
2.337409
2.303640
2.266234
2.234283
2.210125
2.185187
2.158691
2.130117
2.103881
2.083360
2.062579
2.046214
2.037642
2.033227
2.032188
2.034526
2.043359
2.048555
2.050893
2.059986
2.059986
2.051414
2.043881
2.027776
2.005177
1.975823
1.936079
1.889841
1.837109
1.775284
1.704628
1.623061
1.530065
1.432133
1.334460
1.235749
1.133661
1.031313
0.936238
0.854152
0.780378
0.705825
0.635429
0.574643
0.526067
0.489440
0.456710
0.429175
0.405796
0.378781
0.347609
0.318256
0.288383
0.251237
0.222403
0.200843
0.168892
0.134343
0.106288
0.084209
0.059012
0.034854
0.021866
0.008098
-0.006708
-0.012422
-0.007227
0.000827
0.009140
0.029922
0.058497
0.080577
0.098242
0.128635
0.165003
0.190461
0.216958
0.249949
0.279822
0.298007
0.312034
0.323465
0.320608
0.308139
0.284501
0.247095
0.203974
0.156437
0.101366
0.038503
-0.025140
-0.084626
-0.136060
-0.173466
-0.203079
-0.222561
-0.230094
-0.232431
-0.222040
-0.199180
-0.162553
-0.108001
-0.049812
0.011234
0.075656
0.140859
0.210477
0.269445
0.315944
0.364780
0.406863
0.440374
0.476222
0.502199
0.520903
0.552335
0.587664
0.612083
0.630787
0.643776
0.659102
0.684041
0.706381
0.727423
0.751062
0.769766
0.785872
0.809511
0.832111
0.849516
0.875234
0.895496
0.911083
0.941476
0.978623
1.014731
1.054217
1.094221
1.134226
1.183323
1.234757
1.278398
1.326976
1.374773
1.424649
1.485955
1.541805
1.593240
1.645194
1.692992
1.744686
1.810408
1.874831
1.929642
1.989649
2.049396
2.113040
2.192009
2.269680
2.342156
2.419048
2.490744
2.558804
2.633877
2.707132
2.783764
2.870527
2.949237
3.023272
3.107437
3.184588
3.247453
3.297588
3.326943
3.340451
3.343569
3.332659
3.297331
3.238364
3.157836
3.061203
2.953920
2.825075
2.681943
2.532318
2.364768
2.192802
2.031486
1.871729
1.711973
1.554554
1.392719
1.236079
1.098922
0.965662
0.826686
0.698102
0.576011
0.465870
0.377549
0.293904
0.212078
0.142201
0.085052
0.036476
-0.007424
-0.040674
-0.062234
-0.077560
-0.094964
-0.107952
-0.108731
-0.111588
-0.123797
-0.128732
-0.122237
-0.118860
-0.119379
-0.114183
-0.101973
-0.085607
-0.068982
-0.051317
-0.033393
-0.016507
-0.000661
0.017783
0.042201
0.067659
0.092857
0.117536
0.139616
0.158060
0.174426
0.190272
0.198845
0.198066
0.188975
0.171571
0.151569
0.128190
0.104033
0.083252
0.059094
0.030779
0.004024
-0.019095
-0.038058
-0.055981
-0.072346
-0.088711
-0.101959
-0.100140
-0.082995
-0.057797
-0.027404
0.020913
0.088713
0.159371
0.232106
0.314973
0.399398
0.481744
0.573963
0.675792
0.777621
0.868800
0.956602
1.047262
1.141818
1.234815
1.312486
1.387040
1.454840
1.513548
1.575893
1.634601
1.690711
1.748380
1.818258
1.893072
1.952559
2.015423
2.091536
2.164271
2.232591
2.305326
2.386374
2.463785
2.529507
2.597047
2.670822
2.736803
2.787458
2.837075
2.884613
2.917084
2.944360
2.965402
2.973975
2.975274
2.969040
2.951896
2.923581
2.886695
2.837079
2.771359
2.696546
2.611602
2.507436
2.392099
2.272087
2.140645
2.010242
1.877761
1.725537
1.568638
1.422389
1.276659
1.118721
0.960263
0.810377
0.659453
0.504372
0.352927
0.210055
0.068223
-0.080104
-0.231808
-0.382733
-0.530541
-0.673153
-0.814466
-0.953961
-1.083585
-1.201259
-1.313219
-1.426217
-1.532722
-1.620263
-1.695595
-1.768070
-1.833531
-1.883146
-1.913799
-1.937957
-1.958218
-1.976921
-1.985753
-1.977180
-1.977439
-1.971724
-1.944448
-1.929640
-1.918730
-1.887038
-1.858982
-1.844954
-1.841837
-1.859760
-1.876904
-1.888074
-1.919246
-1.962367
-2.004189
-2.055363
-2.119785
-2.183427
-2.250187
-2.327857
-2.410723
-2.508915
-2.613861
-2.710234
-2.807906
-2.914411
-3.036241
-3.172100
-3.306399
-3.439140
-3.580713
-3.727482
-3.879445
-4.038423
-4.187010
-4.320270
-4.452492
-4.578738
-4.686022
-4.790708
-4.891757
-4.963713
-5.020861
-5.075932
-5.120611
-5.158277
-5.183734
-5.190747
-5.191786
-5.177238
-5.144247
-5.115932
-5.078785
-5.006829
-4.921624
-4.844733
-4.747839
-4.632761
-4.519502
-4.393514
-4.255577
-4.109327
-3.961778
-3.825660
-3.680449
-3.524328
-3.385611
-3.255207
-3.123764
-3.009466
-2.898545
-2.775674
-2.663714
-2.570716
-2.474342
-2.370954
-2.274320
-2.184959
-2.098716
-2.010394
-1.927788
-1.851156
-1.772965
-1.696073
-1.622039
-1.554239
-1.477867
-1.394221
-1.322005
-1.255504
-1.186665
-1.117307
-1.052104
-0.979629
-0.906893
-0.840133
-0.767397
-0.696740
-0.638811
-0.581142
-0.511784
-0.455154
-0.424760
-0.392289
-0.351245
-0.324489
-0.315916
-0.308642
-0.297731
-0.295912
-0.305264
-0.315914
-0.331499
-0.361112
-0.393843
-0.422936
-0.457485
-0.494112
-0.525803
-0.554637
-0.592822
-0.636203
-0.667635
-0.699586
-0.739589
-0.771800
-0.796737
-0.828169
-0.859081
-0.864016
-0.859599
-0.877263
-0.900122
-0.912331
-0.919084
-0.934930
-0.961945
-0.994416
-1.031302
-1.058578
-1.090009
-1.139884
-1.195474
-1.239374
-1.269507
-1.313667
-1.374972
-1.436796
-1.498101
-1.562003
-1.625906
-1.691886
-1.774752
-1.868788
-1.963083
-2.057898
-2.158687
-2.271686
-2.384425
-2.503398
-2.631983
-2.753553
-2.872527
-2.993059
-3.113850
-3.227628
-3.329716
-3.423752
-3.504020
-3.581170
-3.666114
-3.746122
-3.817038
-3.888474
-3.971599
-4.064596
-4.155774
-4.240977
-4.322544
-4.413203
-4.515031
-4.613743
-4.713493
-4.826751
-4.948582
-5.069374
-5.186788
-5.308359
-5.431489
-5.541630
-5.636964
-5.730221
-5.825295
-5.903225
-5.964010
-6.016483
-6.063241
-6.113116
-6.160393
-6.190526
-6.208449
-6.240141
-6.286639
-6.317810
-6.330798
-6.354177
-6.384050
-6.396258
-6.409506
-6.425871
-6.423273
-6.407427
-6.390022
-6.359109
-6.303258
-6.245849
-6.184284
-6.093365
-5.981144
-5.865547
-5.749950
-5.617987
-5.465243
-5.309642
-5.159496
-5.003894
-4.833746
-4.663857
-4.504879
-4.351096
-4.198352
-4.045608
-3.898579
-3.760641
-3.617249
-3.457232
-3.295656
-3.147847
-3.003416
-2.850152
-2.689875
-2.534793
-2.382828
-2.221772
-2.061495
-1.905374
-1.750292
-1.603522
-1.461948
-1.312841
-1.153083
-0.997482
-0.851492
-0.695371
-0.527820
-0.365725
-0.215059
-0.068809
0.076662
0.205507
0.322922
0.442156
0.553337
0.642698
0.712836
0.772843
0.819861
0.845059
0.852593
0.856750
0.859088
0.856491
0.848179
0.840646
0.838048
0.826619
0.803760
0.778823
0.750249
0.720116
0.692062
0.667384
0.642707
0.600884
0.545294
0.488406
0.421126
0.327610
0.222145
0.119797
0.003162
-0.124644
-0.249332
-0.384151
-0.529361
-0.670155
-0.808611
-0.960315
-1.115915
-1.244240
-1.369448
-1.515177
-1.653893
-1.774944
-1.886384
-1.999642
-2.103809
-2.188753
-2.273436
-2.355523
-2.426439
-2.496576
-2.579441
-2.667502
-2.743614
-2.828298
-2.930906
-3.022343
-3.096377
-3.166514
-3.239248
-3.308866
-3.382120
-3.453555
-3.515120
-3.578763
-3.638509
-3.687864
-3.721893
-3.742674
-3.754883
-3.756441
-3.758779
-3.759558
-3.750205
-3.733840
-3.720591
-3.720331
-3.733319
-3.749164
-3.761373
-3.782673
-3.823456
-3.869175
-3.909179
-3.959833
-4.032048
-4.102185
-4.160633
-4.217261
-4.267916
-4.314414
-4.356756
-4.384031
-4.393382
-4.388186
-4.366365
-4.327659
-4.280381
-4.232583
-4.172836
-4.095165
-4.008142
-3.925536
-3.848904
-3.765518
-3.678495
-3.590693
-3.504190
-3.416908
-3.324430
-3.230393
-3.147527
-3.087260
-3.026474
-2.949842
-2.871392
-2.809567
-2.754236
-2.686695
-2.613700
-2.540965
-2.466930
-2.393935
-2.326395
-2.255738
-2.177547
-2.110527
-2.058313
-1.998826
-1.928168
-1.860888
-1.794387
-1.722950
-1.647877
-1.570466
-1.491496
-1.415383
-1.346544
-1.279264
-1.205749
-1.132494
-1.070669
-1.011701
-0.944681
-0.873244
-0.812718
-0.761543
-0.708030
-0.645426
-0.574768
-0.511125
-0.455274
-0.398644
-0.330585
-0.243042
-0.149266
-0.064321
0.012311
0.089722
0.178044
0.281951
0.395470
0.509509
0.625366
0.747717
0.875523
1.007486
1.136071
1.250110
1.363369
1.482083
1.594044
1.707823
1.830693
1.956162
2.081890
2.209696
2.336723
2.456217
2.558566
2.646108
2.732871
2.820153
2.901721
2.982509
3.069272
3.148762
3.218120
3.293453
3.367488
3.421000
3.462304
3.507244
3.551145
3.589332
3.623102
3.653235
3.684148
3.722335
3.762859
3.797928
3.825464
3.834816
3.840271
3.857676
3.869107
3.873523
3.879498
3.888850
3.906775
3.925478
3.945741
3.960029
3.959769
3.961328
3.968862
3.970941
3.963408
3.959512
3.973799
3.988866
3.987048
3.981074
3.987049
3.998739
3.991206
3.958996
3.930941
3.919512
3.905485
3.876132
3.832231
3.784434
3.740014
3.694556
3.630393
3.552723
3.495055
3.449077
3.390889
3.322051
3.255031
3.195285
3.132941
3.070078
3.007474
2.941494
2.880968
2.826677
2.767970
2.701210
2.631593
2.559118
2.474694
2.380918
2.292597
2.206095
2.104786
1.992307
1.888920
1.795404
1.699030
1.600579
1.505504
1.422379
1.361853
1.317953
1.272754
1.228334
1.202877
1.196384
1.192747
1.195345
1.215088
1.249378
1.288863
1.320815
1.348351
1.388875
1.434075
1.469144
1.508110
1.548374
1.580846
1.612019
1.633320
1.652283
1.679300
1.701640
1.716967
1.734632
1.754634
1.769182
1.777235
1.779833
1.782951
1.787887
1.790745
1.782692
1.773601
1.793603
1.833608
1.864521
1.888940
1.932841
1.998043
2.052335
2.097795
2.173907
2.269762
2.349252
2.418090
2.491605
2.568757
2.640973
2.705915
2.764104
2.811122
2.856322
2.904899
2.939708
2.955035
2.964128
2.979714
3.005432
3.031669
3.065439
3.110639
3.155839
3.204676
3.264163
3.329885
3.389372
3.449899
3.533284
3.623684
3.704732
3.784741
3.865789
3.959566
4.065811
4.167641
4.268691
4.368442
4.463518
4.556775
4.647175
4.738094
4.822519
4.906684
5.000721
5.088263
5.169311
5.248021
5.315821
5.365177
5.403104
5.436355
5.457136
5.472463
5.483114
5.484413
5.479738
5.470906
5.457139
5.431163
5.403108
5.375573
5.333751
5.292449
5.262316
5.226728
5.178931
5.135291
5.095806
5.048269
4.994238
4.937090
4.885136
4.837080
4.781490
4.724082
4.667712
4.599914
4.524321
4.453405
4.384307
4.302741
4.213121
4.129996
4.044013
3.945562
3.847370
3.760088
3.670729
3.582408
3.493828
3.397454
3.303678
3.210422
3.116387
3.022091
2.924938
2.831163
2.738946
2.634000
2.520482
2.417354
2.313447
2.197591
2.079138
1.957567
1.826644
1.693124
1.566358
1.441150
1.316981
1.188397
1.048122
0.914602
0.789654
0.660810
0.527809
0.394808
0.267782
0.142055
0.021523
-0.082384
-0.177458
-0.279547
-0.379297
-0.462163
-0.536196
-0.598280
-0.643219
-0.681665
-0.715174
-0.729721
-0.725564
-0.721927
-0.713094
-0.683221
-0.640099
-0.594379
-0.539308
-0.468650
-0.394356
-0.323699
-0.243950
-0.143679
-0.031978
0.071929
0.166226
0.262860
0.354558
0.434567
0.510420
0.580298
0.647838
0.710962
0.761357
0.799024
0.830197
0.875137
0.926831
0.960861
0.982163
1.002165
1.028922
1.054120
1.075941
1.104256
1.132052
1.140884
1.145560
1.170758
1.193359
1.203750
1.214401
1.226351
1.240119
1.249211
1.252329
1.247653
1.237783
1.236224
1.240901
1.250772
1.274152
1.302467
1.332860
1.375722
1.430534
1.505867
1.601722
1.704071
1.814473
1.943058
2.088789
2.250884
2.433501
2.628068
2.824193
3.025774
3.233588
3.444261
3.653115
3.841966
4.009517
4.168236
4.324876
4.471646
4.594256
4.706736
4.808306
4.882600
4.938710
4.981053
5.009368
5.025734
5.026774
5.006772
4.974042
4.943649
4.905983
4.850653
4.787010
4.717913
4.634268
4.544389
4.460744
4.379437
4.295272
4.207212
