EVENT_NAME: 202302060117
EVENT_ID: 13194
EVENT_DATE_YYYYMMDD: 2023/02/06
EVENT_TIME_HHMMSS: 01:17:32.00000
EVENT_LATITUDE_DEGREE: 37.288
EVENT_LONGITUDE_DEGREE: 37.043
EVENT_DEPTH_KM: 8.6
HYPOCENTER_REFERENCE: AFAD
MAGNITUDE_W: 7.7
MAGNITUDE_W_REFERENCE: AFAD
MAGNITUDE_L: 
MAGNITUDE_L_REFERENCE: 
FOCAL_MECHANISM: 
NETWORK: TK
STATION_CODE: 6306
STATION_NAME: 
STATION_LATITUDE_DEGREE: 36.727695
STATION_LONGITUDE_DEGREE: 38.947
STATION_ELEVATION_M: 362.0
LOCATION: Kahramanmaras_Pazarck_Turkiye
SENSOR_DEPTH_M: 
VS30_M/S: None
SITE_CLASSIFICATION_EC8: unknown
MORPHOLOGIC_CLASSIFICATION: 
EPICENTRAL_DISTANCE_KM: 180.18
EARTHQUAKE_BACKAZIMUTH_DEGREE: 
DATE_TIME_FIRST_SAMPLE_YYYYMMDD_HHMMSS: 2023/02/06 01:17:43.0781870
DATE_TIME_FIRST_SAMPLE_PRECISION: millisecond
SAMPLING_INTERVAL_S: 0.005
NDATA: 27001
DURATION_S: 
STREAM: HNZ
UNITS: cm/s^2
INSTRUMENT: sensor = GEO-A200,/GEObit | digitizer = 
INSTRUMENT_ANALOG/DIGITAL: 
INSTRUMENTAL_FREQUENCY_HZ: 
INSTRUMENTAL_DAMPING: 
FULL_SCALE_G: 
N_BIT_DIGITAL_CONVERTER: 
PGA_CM/S^2: 29.889
TIME_PGA_S: 
BASELINE_CORRECTION: BASELINE REMOVED
FILTER_TYPE: BUTTERWORTH
FILTER_ORDER: 
LOW_CUT_FREQUENCY_HZ: 
HIGH_CUT_FREQUENCY_HZ: 
LATE/NORMAL_TRIGGERED: 
DATABASE_VERSION: 
HEADER_FORMAT: DYNA 1.2
DATA_TYPE: Acceleration
PROCESSING: Automatic Paolucci et al., 2011
DATA_TIMESTAMP_YYYYMMDD_HHMMSS: 
DATA_LICENSE: U (unknown license)
DATA_CITATION: Turkish Accelerometric Archive v 1.0 - Disaster And Emergency Management Presidency, Earthquake Department
DATA_CREATOR: AFAD
ORIGINAL_DATA_MEDIATOR_CITATION: : AFAD - Disaster And Emergency Management Presidency
ORIGINAL_DATA_MEDIATOR: AFAD PROCESS SERVICE
ORIGINAL_DATA_CREATOR_CITATION: AFAD PROCESS SERVICE
ORIGINAL_DATA_CREATOR: network: TK
USER1: GuestUser
USER2: 
USER3: 
USER4: 
USER5: 
[...]
3.273834
3.275951
4.584392
6.037143
6.493613
5.538765
3.653553
1.780817
0.260500
-0.873265
-1.345511
-0.865970
0.550292
2.290956
3.459325
3.103610
0.725672
-3.250035
-7.986370
-12.450329
-15.831139
-17.699401
-17.584284
-15.294394
-11.533625
-7.798516
-5.650347
-5.809725
-7.558160
-9.449494
-10.341957
-9.944811
-8.971132
-8.291252
-8.309851
-8.788688
-8.815527
-7.704129
-5.514527
-2.807244
-0.178590
2.126366
3.888454
4.892266
5.230322
5.296708
5.521529
6.095708
6.875875
7.298210
6.889056
5.885712
5.031386
4.952520
5.784479
6.840554
7.076204
6.197160
4.359737
1.689648
-1.798512
-5.977853
-9.873518
-11.879264
-10.721018
-6.963780
-2.940993
-0.838024
-1.363709
-3.243977
-4.300526
-3.279763
-0.554589
2.660486
5.267246
6.785442
7.427656
7.513346
7.136915
6.265403
4.820419
2.598562
-0.526116
-4.234154
-7.384021
-8.608421
-7.453707
-4.457098
-0.961878
1.840748
3.462057
3.873092
3.500191
2.793942
2.117120
1.558006
0.891071
-0.049417
-1.262987
-2.642762
-4.098811
-5.245523
-5.573694
-4.920181
-3.604442
-2.443372
-2.004322
-2.091427
-2.288943
-2.545076
-3.072880
-3.764298
-3.906726
-2.865012
-0.778992
1.551154
3.345965
4.406512
4.883699
4.925367
4.412394
3.254852
1.609764
-0.470137
-2.989325
-5.861636
-8.667796
-10.757349
-11.545523
-10.848222
-9.141929
-7.351356
-6.266325
-5.796200
-5.104079
-3.248296
-0.021450
3.531211
5.647835
4.981136
1.840921
-1.773657
-3.324814
-1.285407
3.734602
9.332322
12.650038
12.137536
8.555446
4.270874
1.704367
1.934368
4.164226
6.652101
8.156879
8.298834
7.757140
7.909453
9.385510
11.462584
12.336918
10.332585
5.290444
-1.457756
-7.993376
-12.840121
-15.322113
-15.336945
-13.508235
-11.141364
-9.750057
-10.191934
-11.916828
-13.596993
-14.249332
-13.744837
-12.243826
-9.686503
-6.088407
-1.651288
2.841625
6.118379
7.188108
6.016206
3.892046
2.640338
3.241825
5.043227
6.521403
6.723859
6.166864
6.511511
8.868260
12.808180
16.658878
18.700169
18.185078
15.466493
11.712313
8.126455
5.354431
3.178009
1.047964
-1.022050
-2.601457
-3.192352
-2.836169
-2.361336
-2.480223
-3.336196
-4.819083
-6.736783
-8.887074
-10.991694
-12.633015
-13.586451
-13.892493
-13.698747
-13.026871
-11.617437
-9.402173
-6.802711
-4.459853
-2.757561
-1.716788
-1.014779
-0.173639
0.893736
2.044919
3.163143
4.321624
5.566738
6.539005
6.781011
5.945283
4.082435
1.478969
-1.458553
-3.872745
-4.748729
-3.619675
-1.056467
1.764992
3.944943
5.318358
6.225415
6.936841
7.275839
6.841730
5.591670
4.035099
3.036934
3.280823
4.783482
6.819594
8.483984
9.380917
9.654705
9.665533
9.421876
8.406761
6.224218
3.298467
0.795994
-0.224771
0.350349
1.374172
1.355573
-0.109893
-2.282783
-4.092427
-4.951226
-5.243849
-5.560485
-5.908902
-5.753293
-4.208966
-0.933153
3.232767
6.740228
8.242887
7.563004
5.690504
3.733255
2.146550
0.699917
-0.819458
-2.138495
-2.953507
-3.219528
-2.975638
-2.121315
-0.449627
2.119466
5.228368
8.029111
9.558843
9.324132
7.980612
6.922180
7.042947
8.023218
8.415891
7.163006
4.754464
2.569802
1.891097
2.879607
4.686659
6.426146
7.520359
7.904556
7.615464
6.697341
5.560280
4.664992
4.192511
3.843859
2.921968
0.918342
-1.816487
-4.284589
-5.663422
-5.888010
-5.751705
-6.135670
-7.169383
-8.161191
-8.211807
-6.846631
-4.371469
-1.604390
0.817097
2.679942
4.308314
6.163155
8.825238
12.278083
15.259625
17.118703
17.579882
16.911770
16.373137
16.411744
17.253120
18.278826
18.767548
18.789441
17.838359
16.142421
13.783552
10.766459
7.397185
3.525061
-0.563645
-4.746752
-8.477626
-11.012587
-12.123045
-11.840076
-10.781883
-9.815972
-9.675665
-10.377206
-10.951152
-10.044330
-7.296556
-3.818993
-1.225181
-0.296937
-0.418413
-0.402170
0.431201
1.622640
2.032263
0.732295
-2.489374
-6.980171
-11.349963
-13.999571
-14.173074
-12.552472
-10.506708
-9.044541
-8.421631
-8.107588
-7.447718
-6.367866
-5.244933
-4.367539
-3.613738
-2.626405
-1.145639
0.788066
2.731188
4.182998
4.917259
4.925262
4.425002
3.646244
2.841827
2.060480
1.002284
-0.591955
-2.629481
-4.252205
-4.444305
-2.627131
1.008397
5.324748
9.231710
12.124265
13.826086
14.603899
14.828485
14.867327
14.833191
14.232643
12.594853
9.950424
6.938040
4.734545
4.029473
4.711237
5.828755
5.994016
4.547619
1.784540
-1.222429
-3.346824
-3.878159
-2.693783
-0.480167
1.814195
3.298492
3.472463
2.564227
1.282150
0.637580
1.237654
2.761736
4.622934
6.384550
8.258225
10.754104
13.459503
15.419811
15.784704
14.176106
10.910179
6.591707
1.747786
-3.254569
-7.763728
-10.893820
-11.973675
-10.956679
-8.824517
-6.946605
-6.122415
-6.114883
-6.090401
-5.603798
-4.893078
-4.503466
-4.628708
-5.102131
-5.904430
-7.106701
-8.613599
-9.912391
-10.086129
-8.631966
-5.788848
-2.255255
1.149800
4.122632
6.686546
8.918053
10.966877
12.503907
12.758390
11.436293
9.124742
6.704429
4.816156
3.515953
2.568402
2.138767
2.560866
3.896380
5.746278
7.541794
8.823633
8.987010
7.453039
4.228074
0.373607
-2.415132
-2.885259
-1.259713
0.632324
0.996040
-0.608556
-3.184008
-5.192814
-5.780649
-5.088762
-3.970302
-3.036879
-2.405259
-1.881931
-0.945683
0.442093
2.002429
3.531219
4.585175
4.654857
3.424572
1.259215
-0.618700
-0.935806
0.684561
3.575468
6.629518
8.872089
9.920395
9.916628
8.862669
6.734743
3.679042
0.071056
-3.308107
-5.735011
-6.813688
-6.762840
-6.058712
-4.920948
-3.612978
-2.427895
-1.927166
-2.482278
-3.694907
-5.157783
-6.534262
-7.572683
-8.478565
-9.425880
-10.544578
-11.946246
-13.298006
-14.016732
-13.765780
-12.912869
-12.337984
-12.680280
-13.679622
-14.342790
-13.870312
-12.075031
-9.509704
-7.072914
-5.045042
-3.179372
-1.251081
0.825993
2.827969
4.462461
5.652017
6.360618
6.404169
5.749475
4.740010
4.062717
4.564623
6.315175
8.555628
10.256742
10.715096
10.363619
10.274630
11.058329
12.281549
12.742492
11.440641
8.476988
4.826626
1.669226
-0.205393
-0.921058
-0.973793
-0.889986
-1.381065
-3.128088
-6.027002
-9.102006
-11.121171
-11.172257
-9.689138
-7.963304
-7.256587
-8.231916
-10.123956
-11.694888
-12.168781
-11.544224
-10.544414
-9.796498
-9.225380
-8.013696
-5.696733
-2.903994
-1.123073
-1.701021
-4.603466
-8.352702
-11.164747
-12.485903
-12.812426
-12.601965
-12.169507
-11.547304
-10.686624
-9.774624
-8.808478
-7.770766
-6.898080
-6.211608
-5.613417
-5.204972
-5.120694
-5.375886
-5.785982
-6.093437
-6.216090
-6.237514
-5.948660
-4.905768
-2.842348
0.223237
3.648774
6.731781
9.192112
10.940074
12.025576
12.452855
12.139986
10.782341
8.286459
5.181321
2.244506
0.237819
-0.698667
-1.298509
-2.402846
-4.470035
-7.374834
-10.457608
-13.163716
-15.120965
-15.927266
-15.309771
-13.259535
-10.376632
-7.699953
-6.248615
-6.600799
-8.119468
-9.308556
-8.922004
-6.946630
-4.687814
-3.444584
-3.480368
-3.652223
-2.438184
0.641056
5.062166
9.593217
13.128693
15.294754
15.870345
14.797082
12.611243
10.291688
8.843879
8.553610
8.476392
7.365227
4.813788
1.598475
-0.735440
-1.111871
0.278494
2.058473
2.617114
1.329858
-0.981693
-2.857253
-3.544904
-3.167063
-2.408083
-1.843086
-1.548582
-1.463362
-1.404509
-1.487848
-2.011179
-3.071023
-4.725763
-6.772471
-8.880857
-10.713101
-11.769414
-11.736222
-10.390350
-7.628921
-4.116045
-1.032568
0.490807
0.034099
-1.570262
-2.954509
-3.074808
-1.826869
-0.235223
0.725744
0.531760
-0.877677
-2.682612
-3.828618
-3.170632
-0.373656
3.469038
6.850552
8.506702
8.317662
7.177776
6.303440
6.539561
7.659669
8.746113
8.819561
7.678028
5.766684
3.531408
1.722942
1.139344
1.895735
3.703728
5.543503
5.672039
3.859570
1.415715
0.340098
1.789318
4.426917
6.513879
6.458790
4.008109
0.494759
-3.080034
-5.437490
-6.118785
-5.328495
-3.335936
-0.952350
1.341071
3.092329
4.101086
4.700689
5.332544
6.395446
7.474592
7.500486
5.935440
3.082668
0.201410
-1.303370
-1.003451
0.498031
1.707361
1.484892
-0.274373
-2.968475
-5.882690
-8.961462
-12.370286
-16.067731
-19.371795
-21.311860
-21.910759
-22.056718
-22.454572
-23.097259
-23.708400
-23.874841
-23.177775
-21.826489
-20.432827
-19.389465
-18.498417
-17.283671
-15.555719
-13.502422
-11.509627
-9.675503
-7.790999
-5.553607
-2.852210
0.042229
2.861098
5.078480
6.015435
5.336258
3.143357
0.336962
-2.017670
-3.476544
-4.057316
-4.030480
-3.456302
-2.076294
-0.009343
2.102101
3.690923
4.563608
5.157091
6.266134
8.148048
10.448297
12.627070
14.319475
15.622972
16.880563
17.883904
17.811395
16.066255
12.928630
9.811485
8.020439
7.521827
7.563024
7.460381
7.199068
7.383633
8.167332
8.932903
8.647813
6.559908
3.059742
-0.619811
-3.389011
-5.011028
-5.883952
-6.208592
-5.405118
-2.628623
1.871587
6.390396
8.903696
8.814707
7.314400
6.431118
7.487664
10.099367
13.016876
15.171638
16.385441
17.184677
17.680697
17.421268
15.876467
12.784748
8.737475
4.834512
1.762568
-0.348879
-1.795276
-2.753185
-2.927159
-2.027871
-0.364658
1.039126
1.003812
-0.799475
-3.474979
-5.536283
-5.872929
-4.624755
-2.840303
-1.744442
-2.289903
-4.496222
-7.495423
-10.135379
-11.478664
-11.102941
-9.293064
-6.614503
-3.533850
-0.350557
2.671242
4.822707
5.269525
3.759095
1.106191
-1.505044
-3.153192
-3.374956
-2.567009
-1.375335
-0.300427
0.603334
1.465426
2.073740
2.040780
0.992943
-0.764203
-2.520879
-3.659822
-3.902537
-3.769764
-3.832151
-4.343240
-5.212161
-6.139466
-7.454266
-9.733329
-13.309534
-17.861068
-22.128690
-24.899773
-25.578008
-24.513693
-22.548206
-19.944742
-16.767570
-13.229504
-9.828215
-7.251118
-5.368733
-3.661026
-1.731087
0.814935
3.812721
6.806740
9.087214
9.958487
9.453518
8.167911
6.976940
6.411234
6.144742
5.378462
3.655216
1.402283
-0.097082
0.273461
2.646453
6.157210
9.095201
9.957999
8.420731
5.581143
3.410606
3.554444
6.206168
9.788021
12.319919
12.658210
10.772056
7.615362
4.502456
2.589935
1.946777
1.346465
-0.102286
-2.085667
-3.271929
-2.335916
0.277435
3.040040
4.941494
5.790168
6.109390
5.993329
5.175728
4.164615
3.899771
5.363351
8.843740
13.258965
16.735587
17.623104
15.496119
11.509819
7.766940
5.902679
6.450020
8.924005
12.127309
15.153581
17.370727
18.208571
17.792826
16.831856
16.132905
16.078287
16.313467
16.111949
14.988543
13.285543
11.833260
11.335590
11.862449
12.347876
11.265903
7.936178
3.122862
-1.768377
-5.695117
-8.402167
-10.325046
-11.681278
-12.425194
-12.532310
-11.936708
-10.720080
-8.862649
-6.595830
-4.426237
-2.246287
0.474650
3.959747
7.437546
9.448704
9.278026
7.509815
5.616363
4.480480
3.385794
0.876259
-3.968133
-10.312359
-15.992242
-19.340564
-20.240090
-20.147102
-20.548016
-21.533234
-21.916727
-20.221498
-16.181761
-11.222960
-7.328710
-5.543552
-5.262467
-4.569168
-1.884014
2.722840
7.802174
11.276912
12.154542
11.081985
9.305300
7.893273
7.225868
7.201619
7.418671
7.428793
6.865912
5.850797
5.375256
6.415322
9.043270
11.951597
13.270867
12.401946
10.420919
8.969343
8.958748
9.920185
10.571580
10.185026
9.166144
8.433764
8.526281
8.915187
8.315111
5.940704
2.150505
-1.934669
-5.230965
-7.291798
-8.374477
-8.953366
-9.052007
-8.354706
-6.725864
-4.403957
-2.100178
-0.290301
1.427999
3.905045
7.520798
11.356429
13.913045
14.214847
12.632380
10.806022
10.100008
11.005181
12.908283
14.632703
15.637458
15.899945
15.468897
14.019204
11.191622
7.199672
2.737832
-1.443628
-5.087633
-8.140274
-10.343533
-11.446929
-11.498015
-10.732915
-9.657536
-8.884666
-8.688566
-9.097014
-9.684143
-9.848229
-9.319721
-8.224096
-6.942964
-5.548596
-3.798044
-1.521808
1.116968
3.450645
4.477293
3.704421
1.730928
0.029811
0.207078
2.594430
6.128494
9.204673
10.623053
10.430246
9.214557
7.508731
5.301235
1.887702
-2.869115
-8.480491
-14.053966
-18.400452
-21.089140
-22.337787
-22.718456
-22.861355
-22.582623
-21.325032
-18.942624
-15.817243
-12.874544
-11.097390
-10.992631
-12.246693
-13.788434
-14.577785
-13.864711
-11.412384
-7.649261
-3.238744
0.856787
3.478378
3.747457
1.665202
-1.440172
-3.734302
-4.142750
-3.082673
-2.244122
-2.742970
-4.054003
-4.728235
-3.607892
-1.147796
1.083240
1.708974
0.555906
-1.058343
-1.673486
-0.750892
0.947868
2.362246
3.231636
3.987791
5.083887
6.144435
6.353718
5.232666
3.438089
2.123996
1.537573
1.113588
-0.150126
-2.676847
-5.680050
-7.843524
-8.267745
-7.268406
-6.244347
-6.459754
-7.928516
-9.292282
-8.912086
-6.512021
-3.111910
-0.086345
1.747780
2.646362
2.898020
2.790905
2.818918
3.277036
4.483071
6.175004
7.620222
8.382733
8.440644
8.150846
7.396807
5.618003
2.916839
0.242983
-1.066167
-0.130389
2.885523
6.894421
10.153754
11.427353
10.666488
8.426974
5.689556
3.039712
0.628110
-1.218259
-2.295288
-2.112136
-0.344399
2.631729
5.837858
7.761912
7.542738
5.448947
2.581344
0.261083
-1.113277
-2.107440
-3.430714
-5.403031
-7.554028
-9.052452
-9.558362
-9.418290
-9.533175
-10.621269
-12.691047
-15.077931
-16.912293
-17.653384
-16.954671
-14.558844
-10.459311
-5.475085
-1.220884
0.843007
0.161947
-2.614550
-6.243018
-9.417133
-11.064340
-10.757359
-8.670633
-5.509233
-2.207289
0.747416
3.403613
5.684792
7.274555
7.975152
7.904997
7.452762
7.007824
6.784413
6.962857
7.930180
9.994306
13.036115
16.519093
20.007957
23.414425
26.603368
29.088418
29.889067
28.392762
24.978052
20.821075
17.348688
14.934731
12.853653
10.031720
5.779871
0.588006
-4.446366
-8.572032
-11.744499
-14.304885
-16.266607
-17.350935
-17.329748
-16.056385
-13.651376
-10.292933
-6.215529
-2.150132
0.896385
2.157978
1.840636
1.106137
1.176760
2.513451
4.458692
5.965118
6.721508
7.472248
9.046003
11.186639
12.831725
12.990394
11.326473
8.391540
4.773196
0.951922
-2.305295
-4.277375
-4.461001
-3.356666
-2.394051
-2.700093
-4.345417
-6.118100
-6.692752
-5.783812
-4.053270
-2.596753
-2.229034
-3.144804
-4.816494
-6.392134
-7.616063
-8.843523
-10.595726
-12.859958
-14.779306
-15.652229
-15.482260
-14.904551
-14.625819
-14.710570
-14.888310
-14.799089
-14.292711
-13.765380
-13.584582
-13.564337
-12.845378
-10.492396
-6.395689
-1.245965
3.808414
7.846503
10.678556
12.497850
13.596771
14.087847
13.898101
12.886046
11.097119
9.158232
7.639326
6.596903
5.555422
3.660322
0.494917
-3.626982
-7.959815
-11.840413
-14.671997
-15.818710
-14.918716
-12.139161
-8.612630
-5.946781
-5.146839
-5.911707
-6.635847
-5.826959
-3.318368
-0.291861
1.269887
0.297383
-2.437211
-5.166860
-6.117236
-4.520175
-0.721033
3.984931
7.974995
10.179194
10.319971
9.401377
8.854034
9.338283
10.232392
9.578640
5.884727
-0.243388
-6.404225
-9.843183
-9.505598
-6.817384
-4.470523
-4.428385
-6.512995
-9.162367
-10.652081
-10.249050
-8.625858
-6.839758
-5.774267
-5.689753
-6.410598
-7.246326
-7.095661
-5.318272
-2.020802
1.716661
4.667364
6.166492
6.207924
5.116299
2.837706
-0.413390
-3.833279
-6.453460
-7.740951
-8.331611
-9.518815
-11.984093
-14.776834
-16.040077
-14.612751
-10.775001
-6.420984
-3.103738
-0.890123
0.665505
2.084120
3.194576
3.385733
2.574252
1.063351
-0.822567
-2.600901
-3.616957
-3.072677
-0.676379
2.248428
3.997097
3.699059
1.728626
-0.306311
-1.115908
-0.061010
2.940307
7.261837
11.950851
16.094878
19.250628
21.262962
22.109046
21.787702
20.262911
17.797634
14.847164
11.940953
9.880356
9.222602
9.551242
9.853985
9.089353
7.100087
4.906008
3.415824
2.767016
2.594691
2.449202
1.883967
0.798463
-0.597319
-2.114106
-3.222445
-3.357575
-2.063730
0.567748
3.398389
4.819829
3.711019
0.472164
-3.332159
-6.042975
-7.008182
-6.806903
-6.388334
-6.378448
-6.364560
-5.348270
-2.777293
0.848111
3.965253
5.059701
3.734543
0.612455
-3.058623
-5.760258
-6.528421
-5.057779
-1.922275
1.676057
4.840282
7.248586
9.072824
9.935622
9.222781
6.828835
3.207665
-0.336053
-2.738239
-3.503107
-2.568742
-0.551228
1.956186
4.737860
7.941400
11.591994
15.069087
16.991963
15.811586
11.416604
5.381950
0.058016
-2.679637
-2.689055
-1.007480
1.084425
2.530113
3.023309
2.868404
2.532935
2.326474
2.314466
2.218180
1.948156
1.805258
1.914960
2.191573
2.130599
1.139496
-0.801745
-2.875526
-4.055432
-3.923365
-2.651413
-1.075304
-0.068432
0.133554
-0.222161
-0.684754
-0.702176
0.033733
1.429042
3.422073
5.643221
7.416844
8.437136
8.759419
8.758476
8.897841
9.212591
9.091350
7.884607
5.716660
3.295405
1.415372
0.416501
0.066201
-0.074815
-0.328359
-0.753521
-1.462125
-2.537506
-3.909512
-5.459963
-6.944732
-7.764923
-7.161082
-5.121910
-2.551169
-1.016023
-1.865405
-4.966776
-8.852083
-11.520524
-11.495571
-8.700949
-4.592941
-1.140567
0.537241
0.775481
1.087170
2.586298
5.045217
7.237409
8.142112
7.986265
7.495186
6.980095
6.350356
5.507094
4.457609
3.130332
1.364711
-0.924475
-3.503694
-5.920005
-7.742361
-8.497341
-8.073829
-7.008338
-6.177556
-6.619197
-8.523243
-10.837148
-11.772692
-9.893368
-5.750283
-1.266787
1.511591
1.641304
0.229749
-0.909901
-0.488508
1.399762
2.859340
2.035148
-1.436768
-6.322357
-10.074183
-11.054927
-9.653497
-6.981292
-4.214920
-2.029554
-0.596343
0.030804
0.054344
-0.223919
-0.140583
0.658182
1.384910
1.123127
-0.732894
-3.891943
-7.288761
-10.480061
-13.422998
-16.126516
-18.394279
-19.750277
-19.968273
-19.355016
-18.694204
-18.578616
-19.009429
-19.504980
-19.480028
-18.856412
-18.282469
-18.303422
-18.695862
-18.457387
-16.486956
-12.972668
-9.096074
-5.969986
-3.820640
-1.778878
0.746663
3.594254
6.305068
8.422162
10.209439
12.330771
15.014041
17.809370
19.738602
20.361747
19.764731
18.381190
16.836625
15.136449
13.299497
11.653703
10.569846
10.373273
11.231127
12.705772
13.731478
13.382355
11.436641
8.881199
6.980214
6.457824
7.318739
8.788911
10.131252
11.132710
11.995508
12.935288
14.146031
15.445290
16.360587
16.575049
15.813477
14.389210
13.075587
12.842289
14.449708
17.431485
20.527440
22.496222
22.684789
21.523246
19.957022
18.796891
18.403509
18.307458
17.541414
15.458687
12.453601
10.023165
9.431564
10.660434
12.405336
12.647578
10.183006
5.401942
-0.231328
-5.102321
-8.539396
-10.760076
-12.218008
-13.385908
-14.360061
-14.967435
-15.075022
-14.745911
-14.356064
-14.314867
-14.819365
-15.381539
-15.183791
-13.651705
-10.733255
-7.266049
-4.329707
-2.593986
-1.935529
-1.508721
-0.659341
0.592364
1.772739
2.392588
2.454266
2.392821
2.706864
3.754700
5.342108
6.388531
5.566928
2.763829
-0.846983
-3.677155
-4.424131
-3.133111
-0.806731
1.718810
3.470539
3.856149
2.916838
0.889199
-1.652117
-4.527019
-7.138489
-9.231339
-11.218721
-12.788947
-14.191792
-14.773271
-13.696950
-11.363979
-8.570770
-7.111427
-7.441011
-8.415164
-8.288511
-6.044998
-2.856761
-0.195384
0.953445
0.995112
1.329872
2.803575
5.475545
8.215080
9.361319
7.708462
3.349734
-2.098499
-6.661098
-9.015259
-8.988422
-7.604178
-6.054671
-5.121954
-4.948218
-5.020963
-4.970585
-4.487984
-3.520661
-2.463879
-1.843795
-2.307566
-3.879910
-5.604334
-6.303049
-5.425420
-3.177905
-0.550664
1.373155
