EVENT_NAME: 202302060117
EVENT_ID: 13194
EVENT_DATE_YYYYMMDD: 2023/02/06
EVENT_TIME_HHMMSS: 01:17:32.00000
EVENT_LATITUDE_DEGREE: 37.288
EVENT_LONGITUDE_DEGREE: 37.043
EVENT_DEPTH_KM: 8.6
HYPOCENTER_REFERENCE: AFAD
MAGNITUDE_W: 7.7
MAGNITUDE_W_REFERENCE: AFAD
MAGNITUDE_L: 
MAGNITUDE_L_REFERENCE: 
FOCAL_MECHANISM: 
NETWORK: TK
STATION_CODE: 4625
STATION_NAME: 
STATION_LATITUDE_DEGREE: 37.53872
STATION_LONGITUDE_DEGREE: 36.98187
STATION_ELEVATION_M: 549.0
LOCATION: Kahramanmaras_Pazarck_Turkiye
SENSOR_DEPTH_M: 
VS30_M/S: 346
SITE_CLASSIFICATION_EC8: C
MORPHOLOGIC_CLASSIFICATION: 
EPICENTRAL_DISTANCE_KM: 28.40
EARTHQUAKE_BACKAZIMUTH_DEGREE: 
DATE_TIME_FIRST_SAMPLE_YYYYMMDD_HHMMSS: 2023/02/06 01:17:07.1124520
DATE_TIME_FIRST_SAMPLE_PRECISION: millisecond
SAMPLING_INTERVAL_S: 0.01
NDATA: 10501
DURATION_S: 
STREAM: HNE
UNITS: cm/s^2
INSTRUMENT: sensor = GMS+/GEOSIG | digitizer = 
INSTRUMENT_ANALOG/DIGITAL: 
INSTRUMENTAL_FREQUENCY_HZ: 
INSTRUMENTAL_DAMPING: 
FULL_SCALE_G: 
N_BIT_DIGITAL_CONVERTER: 
PGA_CM/S^2: 483.646
TIME_PGA_S: 
BASELINE_CORRECTION: BASELINE REMOVED
FILTER_TYPE: BUTTERWORTH
FILTER_ORDER: 
LOW_CUT_FREQUENCY_HZ: 
HIGH_CUT_FREQUENCY_HZ: 
LATE/NORMAL_TRIGGERED: 
DATABASE_VERSION: 
HEADER_FORMAT: DYNA 1.2
DATA_TYPE: Acceleration
PROCESSING: Automatic Paolucci et al., 2011
DATA_TIMESTAMP_YYYYMMDD_HHMMSS: 
DATA_LICENSE: U (unknown license)
DATA_CITATION: Turkish Accelerometric Archive v 1.0 - Disaster And Emergency Management Presidency, Earthquake Department
DATA_CREATOR: AFAD
ORIGINAL_DATA_MEDIATOR_CITATION: : AFAD - Disaster And Emergency Management Presidency
ORIGINAL_DATA_MEDIATOR: AFAD PROCESS SERVICE
ORIGINAL_DATA_CREATOR_CITATION: AFAD PROCESS SERVICE
ORIGINAL_DATA_CREATOR: network: TK
USER1: GuestUser
USER2: 
USER3: 
USER4: 
USER5: 
[...]
-17.380951
-17.877624
-20.618951
-25.995883
-30.467005
-31.229420
-28.005436
-25.833253
-30.280996
-29.955762
-25.887793
-27.585372
-27.524323
-26.322633
-20.451354
-12.044741
-12.911323
-17.637277
-15.767983
-3.561485
13.143415
23.833648
27.655358
27.164920
21.348200
16.029196
11.151018
6.099835
6.028662
10.746311
20.152512
30.117473
36.128246
39.469126
47.565316
61.439265
75.544407
82.140179
70.170336
45.213137
20.662734
3.719115
-4.728274
-6.536515
-2.397888
1.524611
3.362733
5.641421
10.366603
23.222002
37.780959
43.319475
40.606982
28.778454
5.634694
-18.622171
-26.643801
-19.036493
-11.842736
-15.532216
-22.369564
-20.836150
-14.684322
-9.971349
-8.563923
-9.980953
-19.452347
-34.489789
-39.549804
-34.900214
-33.628647
-38.559558
-39.912945
-33.212487
-18.449352
2.002699
17.673723
24.711359
17.508518
-3.188228
-25.456829
-52.155513
-73.044486
-75.342909
-74.182782
-78.765344
-79.803373
-74.093150
-72.196841
-85.186012
-105.760667
-104.720033
-82.186980
-60.836651
-46.953870
-37.328425
-23.987001
-14.003076
-8.028670
-0.102627
2.756122
-3.392580
-17.499793
-23.260663
-11.468234
3.795213
11.778925
14.969658
21.945729
32.263715
38.737915
36.378706
20.213872
-2.124347
-12.727810
-11.838881
-6.307898
1.466700
6.601276
14.614861
24.174844
31.342884
43.678487
61.674693
75.852051
67.696381
41.888961
19.650233
1.401800
-10.155791
-10.422568
3.424624
22.234164
21.440577
2.499343
-17.016498
-32.340204
-48.053562
-61.075464
-64.201508
-53.274626
-38.809705
-43.171984
-55.335613
-55.932816
-45.883950
-35.643375
-37.881012
-45.050862
-52.089790
-58.272782
-54.298589
-41.894667
-23.850923
-2.522414
16.350509
29.071348
30.244463
20.571229
4.678112
-10.361927
-11.630630
3.166534
25.871293
35.826124
21.995304
6.222459
-6.085861
-20.818075
-21.202528
1.399104
23.864877
20.127340
6.157804
10.795444
20.860676
20.327117
23.258601
33.751151
40.149239
26.306470
-3.935448
-25.766860
-28.704572
-10.276372
20.255975
50.037072
72.703905
79.271102
62.983138
35.607499
18.066674
8.080159
6.720278
10.206887
11.284149
15.748264
11.472228
4.062352
1.037878
-2.832400
-5.754006
-14.783536
-18.329104
-19.911087
-36.209962
-50.196902
-54.245381
-49.683593
-35.912512
-19.077728
-10.385111
-24.552849
-48.667362
-66.025310
-70.981678
-63.275919
-52.799734
-40.335026
-28.583382
-19.797507
-17.208656
-13.789847
0.849119
16.301158
25.313030
24.913771
16.778623
5.984750
-3.273895
-6.426175
-0.541908
12.511954
22.467044
25.305791
20.004452
-3.444535
-34.873593
-42.230996
-25.932113
-7.249341
-0.055844
2.106209
16.846224
29.039734
35.052846
47.535218
59.652096
61.581656
44.639596
15.392849
-11.089967
-23.441668
-20.290939
-8.774384
-0.890684
-2.681780
-5.223865
-12.168497
-21.256733
-27.060205
-31.076733
-21.111771
-2.498097
5.650307
5.538091
6.771993
11.467042
16.989452
12.476508
-4.826890
-26.981453
-37.648040
-24.443513
-6.726038
1.238970
-0.966975
-23.201547
-48.504238
-54.852702
-53.945329
-50.303898
-47.785185
-49.015182
-48.567338
-48.325490
-41.921947
-35.536848
-32.108687
-33.112946
-40.846753
-42.601221
-41.579031
-41.255876
-39.715188
-27.213853
-5.823260
6.800946
9.643850
-0.460599
-15.713908
-26.693515
-36.921353
-43.984439
-46.714597
-44.025215
-44.875951
-52.622747
-50.480177
-35.524035
-22.396399
-15.746596
-4.840756
6.755808
5.541656
2.456137
7.098453
3.590551
-9.489280
-20.067286
-20.962962
-11.163473
-9.507968
-13.663731
-6.262939
7.038741
18.887799
29.426068
46.563221
63.239547
67.934336
71.372368
77.913329
86.197591
95.219855
102.688446
106.403910
99.230423
81.749604
59.584390
38.832314
22.842823
11.666312
-0.533165
-16.815674
-16.622144
4.345808
21.876769
28.842969
32.080461
35.575382
32.765217
11.365539
-17.925109
-41.787906
-59.361462
-70.820081
-75.965300
-72.872759
-74.326417
-75.371200
-63.900883
-56.105244
-58.098699
-57.640205
-43.688586
-24.832028
-14.353246
-6.979989
1.477538
2.923670
-6.261200
-19.592746
-31.093967
-40.014653
-43.498657
-37.642185
-27.215097
-20.978585
-24.579484
-35.707678
-47.741683
-51.205425
-49.567065
-51.381020
-43.865151
-25.251736
-10.721614
-5.706011
2.475903
14.454066
6.043564
-12.556335
-21.767702
-28.565565
-37.108549
-58.042203
-83.913526
-97.965668
-105.193187
-107.752416
-108.306757
-93.732474
-64.401035
-46.033621
-28.734632
-5.007166
22.566683
59.947811
92.578303
112.324305
124.389490
131.863537
143.873131
163.259615
183.572691
200.812193
212.957387
211.612053
180.551346
128.231492
74.543701
23.600358
-11.934851
-23.730649
-16.108275
3.060263
38.056721
89.328419
131.407709
163.488013
197.086400
224.529066
241.294232
248.858938
242.166800
215.152239
180.066948
161.038172
167.140904
178.656939
171.643209
137.643488
90.847600
51.552250
25.904068
13.948253
11.237059
20.364269
32.637268
36.945523
40.180416
40.525912
32.068391
11.510881
-12.885219
-31.168981
-43.657060
-54.750965
-75.863339
-100.422834
-107.407730
-79.175888
-16.293604
52.457878
99.036868
101.584156
54.465376
-13.554851
-72.652050
-121.820919
-172.165757
-220.121509
-246.540423
-252.674319
-258.639626
-260.745560
-260.501375
-269.526488
-277.893349
-278.975538
-270.198756
-247.900533
-221.589935
-197.128105
-159.667749
-100.789267
-41.757522
-12.274898
-24.201878
-69.418118
-125.230552
-166.992138
-185.820113
-182.514303
-162.230061
-129.491506
-86.012846
-38.162551
11.505859
62.810027
113.443475
163.028760
207.520774
242.399298
269.464262
288.395632
293.582682
276.706343
238.682817
191.698337
141.899791
96.400404
56.682152
19.382859
-9.341495
-22.439249
-17.451961
-3.105495
9.900310
12.421881
3.194928
-13.899356
-32.576406
-39.986542
-40.004462
-37.186496
-29.553471
-17.860274
-4.528721
1.653240
5.135693
17.453632
42.243288
77.721616
112.510260
137.893486
154.479152
163.335684
169.027982
175.247869
178.224034
171.400194
152.344403
123.023881
85.152839
43.948975
3.375307
-37.938959
-79.588845
-114.849999
-137.159904
-138.855665
-114.231480
-78.408960
-50.530143
-34.052281
-16.135304
7.540728
22.617142
30.151975
35.378769
39.984198
46.143559
46.442816
37.940615
27.294291
17.498446
-2.660320
-35.575250
-75.515604
-120.818086
-154.367370
-164.045799
-159.728193
-147.352845
-125.090990
-106.230536
-98.274360
-92.978727
-91.082937
-90.166732
-92.795060
-98.189397
-82.780479
-49.789689
-33.127651
-42.899857
-46.066165
-12.977182
29.165491
42.003486
20.067387
-12.709606
-32.636400
-52.709702
-79.113289
-99.015145
-107.345119
-112.243300
-121.765868
-122.405673
-106.148613
-77.051485
-52.599007
-41.826946
-22.286420
1.290640
7.545076
7.331031
19.793661
39.499400
52.787312
58.943816
63.627955
75.852117
85.028683
81.841075
74.518221
65.928479
59.987330
51.661253
40.144965
31.725371
26.427408
29.842061
41.994268
58.368743
73.032387
76.450417
63.361234
37.214298
12.312169
-4.895633
-15.618849
-15.298032
-7.436931
-13.602519
-41.360796
-62.755798
-70.127488
-80.082571
-95.282107
-111.858155
-120.684285
-121.717898
-114.988866
-94.826196
-70.346442
-48.682053
-32.633327
-30.725588
-41.471144
-52.401655
-55.124538
-53.806472
-60.280404
-72.396236
-80.618666
-88.571198
-105.201536
-130.488641
-142.817742
-124.289012
-90.305909
-57.880893
-34.858178
-30.767349
-43.924590
-62.695676
-75.869024
-83.534252
-86.135044
-86.648861
-96.214811
-113.812006
-136.125807
-157.574321
-170.270994
-169.584943
-157.019186
-149.028201
-150.682139
-153.727655
-159.657373
-168.266858
-172.454832
-165.675665
-133.516132
-76.036241
-18.412698
22.411134
46.058331
59.426512
72.704553
95.971710
130.051187
172.601696
212.256313
234.000191
241.064064
236.847774
228.310765
216.174152
194.202205
180.001216
179.691057
175.464377
163.721312
147.574922
113.786652
61.384192
10.616971
-29.950981
-53.203584
-53.553228
-34.793044
0.772565
39.939597
68.870994
90.400044
106.063534
108.536528
92.273242
58.705515
19.074805
-7.892219
-10.933578
-7.796876
-15.539255
-22.223340
-17.446724
-1.060040
13.597369
15.271058
3.574491
-14.454438
-8.341575
31.421105
90.677549
147.258124
187.536443
224.362706
250.820592
266.859707
267.576930
234.812925
185.149718
141.923820
111.999598
87.658568
67.963228
54.288009
51.627730
65.033317
82.036950
82.313866
45.992600
-7.571802
-44.221675
-57.032906
-45.759494
-17.791576
14.637855
47.423168
71.537948
77.464557
68.747529
51.939509
29.264890
0.922136
-28.079910
-56.756986
-83.004972
-102.415347
-121.236049
-141.919547
-157.338068
-165.391389
-173.932035
-177.504620
-164.237229
-131.365413
-93.253298
-72.069740
-51.541836
-20.469432
4.915094
27.478539
55.482304
88.743773
114.602634
114.830195
85.163143
43.994607
17.138764
8.034681
10.051004
13.851932
12.595958
12.819622
11.963430
7.973918
11.462086
19.741413
24.139028
27.407951
32.242496
41.579598
54.566180
63.069427
49.703851
1.797455
-45.435883
-65.349169
-79.029063
-96.431952
-121.016124
-149.211071
-156.596009
-127.155468
-71.153916
-14.608150
27.284627
45.188356
36.434960
13.427578
-20.892177
-51.113053
-48.564986
-27.460917
-20.817608
-30.048197
-33.380756
-19.392509
0.829388
13.497235
20.923484
30.946893
37.124697
31.603074
17.385200
7.380502
7.505195
0.663431
-24.681082
-38.996889
-23.566151
-13.754193
-15.968451
-6.962553
17.388616
45.305359
57.807993
70.058132
88.583745
98.094892
100.048870
97.271955
96.326923
84.328766
55.947306
35.958947
28.765198
31.348334
39.450240
33.677940
9.485498
-8.254829
-9.416508
-18.340571
-34.265640
-37.751202
-35.624738
-45.194324
-61.907529
-71.388015
-82.839361
-89.364467
-74.681082
-46.087643
-19.794969
-7.261423
1.807339
6.110398
-1.162061
-8.645971
-5.566158
8.513267
23.893350
30.171166
17.941036
4.599099
9.868236
19.043762
23.346822
37.791740
77.424796
130.662158
172.141644
193.649133
197.778148
191.177708
187.302494
187.080656
178.848615
170.325373
167.940967
147.561658
107.557661
82.333161
81.610490
86.658564
83.923991
70.292154
42.852612
8.700407
-2.670410
22.151458
57.108171
82.297351
97.277912
98.715731
91.829547
85.893594
77.046162
59.878104
41.415622
28.745445
21.184124
21.168542
30.351602
43.249343
38.604696
-1.529184
-63.450320
-123.214343
-165.776794
-194.686362
-216.401918
-211.544514
-167.182902
-94.043162
-12.246395
41.087081
58.345546
71.467726
80.704039
81.076809
80.732880
64.878469
29.298839
0.791651
-1.169852
15.896904
40.133775
63.899167
81.597159
90.351602
93.764956
95.530602
97.767987
106.206292
115.344932
117.639206
114.620966
110.633792
104.080631
89.484015
63.553725
32.466003
5.443648
-21.931990
-48.085941
-68.280035
-78.091986
-75.878239
-74.447174
-69.565611
-53.479479
-40.354181
-33.141461
-29.531722
-35.058541
-29.114527
4.812986
47.891863
81.688193
101.638893
112.243922
123.586173
143.163326
150.283829
130.671874
101.979991
65.744708
28.883383
-4.374440
-47.407850
-91.772052
-129.189799
-162.316439
-186.093773
-185.531372
-151.198101
-107.954531
-81.368060
-57.400049
-26.380118
9.964795
54.783598
100.712389
133.616157
140.026194
130.034224
122.379647
124.340639
130.687292
119.042939
91.632232
61.296797
29.765911
11.178481
9.988488
29.340682
66.646997
95.536830
109.469487
103.658222
79.274071
71.325956
71.900047
50.221898
12.450607
-20.942816
-23.130058
-14.859303
-34.854935
-64.605892
-83.999901
-93.929267
-99.973283
-102.234559
-99.611679
-103.156987
-112.043125
-123.980756
-136.108797
-128.975825
-96.657575
-52.524819
-8.983295
11.002993
0.022347
-22.513556
-41.880549
-42.085502
-21.244318
16.849093
49.416461
49.359056
41.045967
32.760933
16.774299
-5.836936
-44.633791
-90.403856
-133.066318
-163.374737
-182.518849
-198.296370
-204.857065
-218.280828
-232.528316
-228.206033
-206.871809
-164.516126
-126.120605
-95.440451
-56.368234
-36.957332
-34.923085
-26.644278
-5.808029
29.458068
43.159012
22.451875
-8.789630
-43.935187
-74.737684
-86.400481
-69.396069
-45.721076
-36.194603
-47.011076
-65.304709
-59.100148
-32.896055
3.608356
30.922697
39.168774
53.389773
71.912788
93.913577
129.431389
160.042704
159.486026
135.004461
111.479622
101.404267
104.160669
92.938179
59.368114
25.582962
-12.888924
-49.289160
-49.988192
-17.022339
24.966032
62.818898
90.209611
113.646656
140.408991
158.144130
163.019458
159.498308
138.360476
104.505966
74.018307
57.187947
49.011756
31.489634
-9.233400
-67.442972
-137.062330
-207.549314
-223.544000
-184.623748
-125.730719
-44.803395
22.791599
64.698403
116.108038
168.915743
191.196821
193.231068
193.654753
170.576455
101.436888
6.938517
-84.518492
-163.809529
-220.308789
-249.111852
-247.725207
-229.319347
-209.791030
-187.289149
-167.734855
-156.817585
-149.044805
-128.345714
-102.400350
-88.627451
-85.849489
-93.291576
-94.967335
-83.743279
-60.605486
-6.682078
74.751274
138.229466
158.092884
152.034840
122.775104
77.772134
41.317606
7.730917
-12.904264
-0.653605
19.516079
52.132024
116.901263
189.183250
251.672246
296.085291
329.247268
346.979810
325.348939
283.605796
231.742095
143.853259
11.555537
-160.599935
-310.561096
-367.158288
-377.458602
-390.780017
-412.338932
-450.718340
-483.645999
-465.080122
-373.324632
-267.629477
-173.155516
-66.755610
43.994370
153.363424
226.982696
236.035872
172.861096
66.899686
-5.258644
-37.373749
-58.645101
-77.942996
-112.190016
-139.455254
-141.619117
-133.061318
-100.392121
-37.987030
28.564217
81.648056
128.477202
187.811317
248.578571
276.715338
264.827582
235.309118
197.531592
143.943811
97.157794
69.200535
34.278378
-12.049149
-63.049382
-116.347002
-151.886367
-152.425122
-132.256477
-96.717104
-41.936201
7.964961
45.959401
73.591958
84.645866
85.785731
81.666855
77.385883
52.331011
-11.850365
-86.329462
-141.141269
-168.342344
-180.655859
-184.550815
-181.100834
-184.177521
-198.018212
-203.916759
-185.576100
-171.858532
-168.427513
-115.756446
2.283921
141.695914
275.122075
369.154430
392.571214
348.221040
275.739039
230.810622
216.354281
232.530293
260.841104
267.386221
268.129940
257.237615
219.272537
150.239215
65.508897
-2.361184
-46.852152
-48.836255
7.240370
88.024301
145.226760
166.050021
168.663550
160.471512
147.529878
142.809379
134.836846
100.545925
51.663321
10.672466
-14.228883
-11.099975
10.678452
30.939315
50.085513
74.284718
99.964599
112.198373
111.408163
105.324922
97.357843
99.859153
114.295759
130.985332
139.712759
138.760453
132.212747
112.390900
78.766803
52.553886
46.799770
52.434660
59.280588
60.326157
43.205637
10.874405
-13.229197
-27.779314
-36.933791
-28.310532
-4.741524
11.240701
-3.119266
-41.255531
-70.945702
-80.858442
-87.843338
-92.398105
-88.090889
-85.751156
-94.687168
-113.217709
-120.474842
-105.924717
-89.462441
-73.498399
-48.833171
-18.652031
20.409795
55.878511
76.592669
84.429871
70.211218
45.967601
25.092654
-6.028319
-49.338641
-91.328304
-124.711595
-136.510770
-131.182666
-125.166957
-105.910097
-80.172547
-61.662780
-49.518626
-54.618386
-73.816271
-93.791641
-91.682841
-57.027458
-8.958959
24.841528
33.133324
23.692842
-8.691123
-48.231434
-70.697978
-76.159075
-65.952270
-47.966974
-30.406139
-6.275254
31.117823
58.941049
57.576492
38.486931
17.465995
13.483756
32.432791
46.397659
37.451255
9.361774
-31.645706
-68.216610
-90.614835
-92.123823
-77.577595
-69.514914
-74.046302
-87.488509
-107.817423
-135.083960
-147.186803
-135.563484
-117.880558
-91.868693
-75.359918
-62.245011
-23.688953
24.933112
65.693820
61.859130
-9.374946
-96.814643
-158.274691
-192.580938
-200.783366
-185.790337
-147.837201
-104.034610
-75.543260
-60.437232
-57.585496
-58.259330
-49.246418
-24.981753
8.534548
35.112966
48.588691
45.307826
37.236321
44.631658
60.625832
74.827089
88.272161
99.329966
89.192526
52.497453
19.818912
1.702961
-10.390271
-23.633756
-43.075303
-59.268712
-67.538420
-78.648170
-109.640558
-148.604703
-176.275698
-190.049369
-181.324540
-165.733525
-150.769850
-121.735325
-73.251717
-12.270933
28.200653
41.178403
54.731278
73.194547
71.809988
47.601700
24.330914
12.813587
14.329596
19.637178
24.069083
28.885963
37.509743
60.954321
89.064331
114.724471
137.786411
145.960532
145.170062
140.610100
127.345574
97.464993
48.420294
13.078092
0.432593
-4.981486
-4.582478
-16.007587
-42.743418
-81.629633
-127.972746
-162.643967
-181.149830
-180.676269
-165.452826
-130.865243
-66.997918
-0.096764
44.174708
58.587416
35.447553
-20.578410
-92.187850
-163.423485
-212.654697
-232.035199
-235.964445
-222.185831
-191.791421
-159.905165
-121.561857
-83.542220
-61.718853
-48.407042
-41.083401
-43.522618
-59.925400
-88.897312
-96.134703
-52.586685
21.559917
96.361133
161.869931
217.391952
265.366415
301.262450
325.238513
347.794685
361.768125
341.463629
274.574951
183.699044
102.654053
25.342967
-52.413102
-87.116274
-62.056459
8.325845
99.864688
175.938248
237.310502
285.435891
313.327696
324.433038
285.262377
178.632324
44.000848
-70.004016
-140.368129
-184.407880
-216.469992
-238.650013
-239.248774
-185.484603
-115.764447
-77.522189
-58.830844
-46.187416
-13.478994
26.240045
66.386143
129.685874
202.811328
280.708718
322.152876
302.981747
278.064552
254.758957
212.999709
159.117611
96.739284
42.304400
11.885839
9.266084
28.260318
58.162208
104.227117
165.288429
223.905064
265.763812
277.627417
253.159620
208.620855
158.243546
96.257987
30.659057
-31.143624
-90.973369
-137.953173
-167.941298
-173.400836
-158.235321
-145.589815
-141.504441
-141.503398
-141.340000
-151.025703
-171.869478
-201.442234
-249.865308
-295.534843
-340.426633
-390.104387
-411.618882
-398.548656
-336.799998
-232.511485
-130.628944
-49.377690
6.900775
28.505158
-1.440105
-68.872737
-130.865309
-172.529483
-187.697328
-174.387855
-143.295709
-88.944722
-20.638743
33.730168
59.926208
66.776292
78.965386
96.373478
115.419146
142.385918
166.813718
178.217274
178.779156
175.869499
174.760814
180.324527
188.646196
191.352202
188.093677
184.655393
183.372922
177.432813
157.420036
115.802621
67.315124
26.151004
-9.489931
-32.301447
-44.985391
-53.106252
-62.837675
-89.083323
-128.218915
-174.888557
-224.859069
-264.697074
-290.758807
-288.323479
-247.470553
-185.582400
-129.181065
-102.802408
-90.697478
-76.865612
-72.546966
-70.100209
-63.308053
-48.970158
-25.322961
-3.194367
15.587118
30.697042
33.859721
27.333055
22.740103
22.004444
24.694344
29.289123
32.552851
38.328795
44.048888
42.075695
25.959697
-1.104220
-23.075647
-33.313877
-32.305454
-21.075423
3.218337
42.555257
76.236251
87.625519
83.983317
74.575046
64.436568
55.214031
44.790068
30.793516
14.910010
-3.099956
-20.032145
-26.428407
-24.320646
-18.383906
-6.714348
7.892147
14.760674
6.762424
-17.203501
-47.561536
-71.312113
-87.543188
-90.831327
