EVENT_NAME: 202302060117
EVENT_ID: 13194
EVENT_DATE_YYYYMMDD: 2023/02/06
EVENT_TIME_HHMMSS: 01:17:32.00000
EVENT_LATITUDE_DEGREE: 37.288
EVENT_LONGITUDE_DEGREE: 37.043
EVENT_DEPTH_KM: 8.6
HYPOCENTER_REFERENCE: AFAD
MAGNITUDE_W: 7.7
MAGNITUDE_W_REFERENCE: AFAD
MAGNITUDE_L: 
MAGNITUDE_L_REFERENCE: 
FOCAL_MECHANISM: 
NETWORK: TK
STATION_CODE: 2703
STATION_NAME: 
STATION_LATITUDE_DEGREE: 37.058
STATION_LONGITUDE_DEGREE: 37.35
STATION_ELEVATION_M: 840.0
LOCATION: Kahramanmaras_Pazarck_Turkiye
SENSOR_DEPTH_M: 
VS30_M/S: 758
SITE_CLASSIFICATION_EC8: A
MORPHOLOGIC_CLASSIFICATION: 
EPICENTRAL_DISTANCE_KM: 37.34
EARTHQUAKE_BACKAZIMUTH_DEGREE: 
DATE_TIME_FIRST_SAMPLE_YYYYMMDD_HHMMSS: 2023/02/06 01:17:08.6017760
DATE_TIME_FIRST_SAMPLE_PRECISION: millisecond
SAMPLING_INTERVAL_S: 0.01
NDATA: 10501
DURATION_S: 
STREAM: HNZ
UNITS: cm/s^2
INSTRUMENT: sensor = CMG-5T/GURALP | digitizer = 
INSTRUMENT_ANALOG/DIGITAL: 
INSTRUMENTAL_FREQUENCY_HZ: 
INSTRUMENTAL_DAMPING: 
FULL_SCALE_G: 
N_BIT_DIGITAL_CONVERTER: 
PGA_CM/S^2: 80.105
TIME_PGA_S: 
BASELINE_CORRECTION: BASELINE REMOVED
FILTER_TYPE: BUTTERWORTH
FILTER_ORDER: 
LOW_CUT_FREQUENCY_HZ: 
HIGH_CUT_FREQUENCY_HZ: 
LATE/NORMAL_TRIGGERED: 
DATABASE_VERSION: 
HEADER_FORMAT: DYNA 1.2
DATA_TYPE: Acceleration
PROCESSING: Automatic Paolucci et al., 2011
DATA_TIMESTAMP_YYYYMMDD_HHMMSS: 
DATA_LICENSE: U (unknown license)
DATA_CITATION: Turkish Accelerometric Archive v 1.0 - Disaster And Emergency Management Presidency, Earthquake Department
DATA_CREATOR: AFAD
ORIGINAL_DATA_MEDIATOR_CITATION: : AFAD - Disaster And Emergency Management Presidency
ORIGINAL_DATA_MEDIATOR: AFAD PROCESS SERVICE
ORIGINAL_DATA_CREATOR_CITATION: AFAD PROCESS SERVICE
ORIGINAL_DATA_CREATOR: network: TK
USER1: GuestUser
USER2: 
USER3: 
USER4: 
USER5: 
[...]
-12.799810
-27.916682
-27.394218
2.844584
-5.145613
-17.512164
-20.271572
-21.484337
-16.366185
-35.416660
-5.576050
-2.393635
-20.256749
-35.842102
-50.583688
-45.866552
-32.350270
0.978370
11.630113
3.935187
-14.967182
14.891627
27.937860
-6.622358
8.454375
27.059301
22.940577
19.524731
19.375696
-6.779489
-15.922845
-0.965350
-6.214639
-32.860897
-28.488611
-9.914749
-18.988131
-24.137636
-6.068026
6.017084
3.563616
16.351918
-10.310971
-11.780725
11.672173
8.443970
-5.263069
-53.791407
-49.933727
-16.927030
-4.626663
-2.660163
-6.186461
4.628764
-2.979558
-15.192982
-25.522443
-4.378686
-2.484983
-3.542425
11.673315
-8.584604
3.256697
8.480908
17.689870
20.941318
6.452956
2.376594
3.766986
9.031362
3.373839
8.184169
-2.596829
-17.693305
-14.263313
6.486017
4.065182
8.803968
16.474758
-19.323968
-20.960655
-5.662704
-1.210089
24.664284
28.165819
23.825249
19.384897
-0.248590
14.650854
2.374360
-17.195429
-8.418549
3.729947
9.174121
13.938952
41.674382
28.063362
8.908082
6.342279
-2.540950
12.440706
-19.751066
-36.601598
-12.940975
-18.871490
-4.620952
-2.406562
-28.109584
-28.410804
-0.485535
2.231852
17.268106
13.080350
9.813552
31.790093
36.272204
27.771793
24.584382
20.610627
-2.063746
-13.648659
-5.025220
39.634180
29.018861
-10.849965
-23.497666
-6.902844
-0.042559
5.382788
9.996689
-2.582921
-15.778804
-2.122888
25.614738
22.092833
8.845489
-11.676322
3.909055
25.977849
35.135037
31.888007
30.505798
42.252649
47.262546
36.974191
38.102572
31.319818
15.842721
17.397850
24.591374
17.034826
-3.688121
-21.038825
-30.445132
-27.054991
-25.595880
-5.886746
-2.734140
-10.119675
10.757993
4.923810
-7.247567
9.153337
18.286049
17.318350
17.488433
-1.080383
-9.140554
-9.465622
-5.384214
-7.335941
-37.535809
-35.463878
-32.101036
-11.573551
1.407728
-9.207591
-19.149214
-19.714328
-1.667624
15.058988
9.253359
9.622382
22.900188
22.940679
1.416640
-13.002376
12.432385
20.402212
44.864555
53.240732
41.838128
17.194756
-21.731774
-4.524444
6.280112
-5.296643
18.032624
-9.036616
-23.013822
15.381810
27.926301
27.256697
12.962255
6.691910
9.385763
-11.117534
-16.611262
8.375415
4.519643
19.752013
30.076479
20.935319
8.522329
4.042125
15.412121
11.854445
12.937014
3.166403
-2.194907
-1.589918
1.398578
2.550494
4.197876
9.600317
-23.883934
-29.945612
-5.075349
-4.085660
-4.408218
-2.258781
-11.436967
-7.037067
22.100979
24.813031
7.650911
13.575490
-14.126025
-10.910349
2.210879
-21.138131
-0.121143
3.476723
-1.320089
-22.382550
3.397060
15.666990
2.010785
15.809159
3.425351
-18.997367
-43.203951
-34.895864
-3.663620
25.646694
12.203863
17.624817
43.805130
52.357655
51.713781
29.975114
-12.227014
-36.710982
-6.917126
27.511955
35.058173
28.293304
28.872563
29.437074
7.534924
18.659227
27.464034
26.443619
21.852336
0.432787
2.668201
-15.438096
11.074201
41.575955
20.933650
5.249142
-24.648865
-40.296661
-21.387364
-29.822821
-41.269669
-33.738514
-37.928780
-33.192817
-29.685321
-24.917666
-5.982638
7.420682
12.447523
12.808702
7.132351
8.018178
-7.188123
-9.946590
25.861888
41.498726
11.633666
-14.595572
-17.405814
-19.545812
-19.535131
-19.710524
-24.949458
-46.003448
-48.176080
-22.254639
-17.157196
-33.734422
-49.738677
-47.857840
-13.862094
32.085077
36.247128
25.283508
25.969767
6.347890
-0.359242
18.296831
24.140140
1.796182
-18.676365
-11.179098
-10.857457
-7.715833
-17.489896
-30.380780
-10.013326
7.814356
14.636045
11.824548
-0.153851
3.132113
32.370571
8.245571
13.771958
25.084845
3.590615
42.480458
34.209110
8.558490
-9.935332
-44.953362
-37.178082
-29.868772
-31.812027
-28.960654
-19.709959
16.064631
18.834106
10.256190
24.768424
40.436327
38.220080
12.265717
7.478004
13.863219
11.854696
1.994971
-0.717684
23.737128
13.362795
21.094773
34.756338
17.036936
6.779332
-21.444008
-12.795151
-25.938319
-16.149797
3.053830
-11.654808
-9.317101
-16.136568
-8.105867
19.520365
37.415825
3.079021
-12.699309
-5.950732
-23.617731
-9.646775
12.800129
-11.377272
-8.266085
3.928223
-4.580347
-11.173575
-31.883344
-16.905453
-4.175515
7.642252
21.408307
24.425985
29.444040
19.432129
17.363674
-4.203981
-10.253107
-14.459690
-33.516441
-8.789892
13.339776
2.111008
15.362457
1.493506
6.042453
45.382890
25.737479
28.698677
28.154587
48.405627
46.934618
28.853109
4.371337
-15.380761
7.198561
-10.379951
-4.626385
-2.204583
-25.415528
-41.990871
-21.155878
-14.213696
-22.291753
-8.896278
-5.918763
3.247524
25.591821
19.372310
-7.253553
-13.210112
2.952001
23.487330
28.925229
3.793295
-15.981395
2.202119
-26.805995
-29.410395
-6.919874
-17.566571
-22.315374
-15.221948
-27.692675
-29.165254
2.357242
6.765927
36.340134
30.258374
5.271723
1.174964
-9.019883
21.553727
32.118238
25.051823
14.788570
-19.505873
-14.779951
-3.976650
-23.261523
-8.612478
1.161296
1.789819
-0.074990
-11.964902
10.090399
13.573734
-4.858899
-6.823178
3.742274
2.768927
3.474327
11.272200
-9.824151
-13.105070
14.242522
37.686948
39.273141
36.394494
33.182294
17.699549
19.542105
20.409104
-4.588844
-26.662633
-13.150116
-12.474212
-28.520200
-24.789603
-25.669756
2.668767
28.956081
21.271823
22.088931
-7.074821
-19.392421
-7.327392
0.410234
34.615273
32.956621
-2.878818
-34.003409
-62.459891
-47.942949
-10.544211
-26.638208
-25.819532
-25.796927
-41.424954
-32.287221
-34.916409
-31.842877
-53.450697
-29.411336
-30.190450
-62.256081
-36.945265
-59.918989
-34.242927
-3.062144
-25.991310
-28.401476
-34.488257
-27.952739
5.715415
23.533056
28.948676
37.852011
30.197563
39.772712
27.251465
23.820558
39.613033
31.762470
32.845353
45.797451
33.434352
23.627655
18.833668
-4.944600
3.284099
20.772580
20.864845
0.557663
5.755516
16.149015
7.771607
-8.016136
-21.249987
-18.002305
-26.870785
-12.645350
-17.799876
-36.449021
-26.628807
-26.816751
-7.894275
-3.006440
2.691272
12.528117
-2.130002
14.066000
31.451873
23.313256
4.872464
-1.589603
-16.037800
-17.132268
-13.912198
-16.530404
-4.022311
12.807222
42.169938
42.595756
12.915202
-0.865262
-2.689593
16.369380
31.128562
25.840991
22.621575
14.865460
6.589405
-20.787657
-10.435264
5.498728
14.489609
10.759665
21.544453
17.906447
-25.582825
-23.826246
-16.274067
-4.784519
5.315277
-15.608806
-40.702772
-25.820899
-22.353254
-17.509663
-14.148390
-3.229616
-9.230106
-7.313811
18.013008
23.117668
35.528487
33.332949
25.881520
12.975888
2.204618
9.938792
13.830988
0.428949
-3.511231
-18.217046
-9.365171
13.289145
13.568426
-1.353900
-20.411279
-30.848368
-34.704140
-6.398564
14.986180
-4.448995
-29.155751
-27.941706
-9.582787
-22.802831
-13.877217
-6.461848
-49.146890
-53.924875
-39.245393
-21.335499
-16.762705
7.102192
49.102581
27.130144
29.829018
25.081784
8.052395
14.507897
3.825114
28.750917
3.997093
-6.749701
5.135843
-12.120726
-2.609590
-33.959165
-48.898435
-18.498347
-39.148183
-42.297312
-28.185780
-16.019399
9.895766
-13.243008
-39.419531
-46.136390
-15.460800
-12.583697
-19.234662
15.170886
16.199485
9.469760
7.686535
-6.165472
12.075778
14.404072
4.857190
3.537738
-23.603986
-13.268224
-3.092178
-25.495128
-34.195733
-34.752688
-40.428725
-26.479420
8.980130
15.848259
24.508098
41.695660
9.597081
8.785333
28.903642
31.388201
53.257428
43.649358
17.189488
22.446019
-0.642236
-2.752738
33.936533
11.116250
-11.207626
-15.894299
-24.113873
-8.252051
-3.733541
12.721961
27.203445
16.370045
37.801857
35.854523
41.786318
22.652063
-8.247231
25.222924
9.582032
5.016793
26.285437
13.476764
19.710106
17.715704
20.966211
26.309033
9.319181
15.951972
11.243961
-7.641150
-10.869039
8.978160
16.938259
-1.124109
-9.050608
2.583595
26.189306
32.634453
36.389212
31.096620
2.465988
-15.196932
-11.081321
-16.260009
12.742797
39.542520
21.707333
18.713527
1.883705
1.331456
-2.310001
-4.474474
2.428799
-1.477493
-29.062908
-26.458170
-15.710409
-38.262720
-13.492554
-11.649685
9.368558
-5.544668
-21.775475
-6.614648
-14.685488
-17.342603
-25.116603
-1.689435
0.457177
-22.252967
-27.905783
-34.124981
-27.085212
7.221494
-10.713791
-5.488638
8.835953
-8.381707
-5.142182
-7.729010
-20.092736
-20.840472
-10.114048
-19.030538
-14.622166
-9.333942
5.021086
3.447155
-6.217710
22.127089
14.012005
1.636669
0.701289
6.475565
15.200671
-19.758053
-21.368069
-5.435646
2.852985
-2.759039
0.098610
7.992814
3.474957
1.463610
-8.555518
-1.911431
-1.061376
-21.216060
-42.407801
-31.104955
-25.596454
-18.378142
-10.564580
-26.676149
-26.534934
-10.270840
1.219649
19.295535
19.731080
32.320757
42.955242
22.248611
11.631410
28.267338
16.401588
-18.012407
9.220339
17.010367
4.479394
6.245386
8.183646
18.016725
35.626954
41.885086
64.443698
64.530629
35.699489
16.194653
6.094255
18.035338
6.160802
0.581098
-1.973410
1.585547
28.874775
37.803841
16.271016
17.371785
32.068524
11.551420
12.814415
27.865732
41.061012
45.692171
24.241558
26.808014
10.898208
3.491337
-3.800690
-14.838049
-0.863955
4.767862
-3.493445
-29.883655
-38.403520
-49.638564
-55.099030
-35.839235
-3.798996
-6.924591
-5.254931
-20.337914
-31.471605
14.591039
22.863667
3.400251
-0.257209
2.021821
-1.471844
8.705143
3.187254
-0.027142
-4.672082
-21.476802
-8.295327
13.214616
13.189840
-1.857372
-9.900285
5.067878
7.142634
-10.710439
-6.778392
6.350680
-2.407662
-23.694166
-16.965358
-2.308782
-16.043434
-29.722231
-22.657673
-10.230851
-8.548953
-11.552173
-30.529536
-33.518635
-7.401079
-9.248316
6.893402
2.294274
-33.522338
-20.424330
-10.835062
-16.774677
11.334783
22.185466
20.351408
34.173944
17.844608
2.013248
6.652252
15.943425
15.006163
-12.127402
-25.210951
-22.702231
-24.667451
7.486379
3.486894
-19.475220
-3.518008
-0.378267
5.408874
12.237780
7.477681
-1.766713
-10.089836
-12.707728
-13.420320
-17.524296
-5.949399
1.220905
-17.837415
-28.081841
-23.963092
-40.480699
-51.594621
-32.031083
-1.829621
12.773298
-7.903837
-1.669239
18.997879
10.199059
-7.915711
18.861421
27.870188
-14.421368
-12.173089
-2.912039
-1.434101
5.698548
9.929631
8.359152
9.552487
12.685639
-13.656876
-17.543399
-0.127402
-7.995537
2.910371
2.821897
-0.880435
13.090835
9.301585
19.759410
30.959334
16.602762
-16.870193
-26.277755
-30.672609
-13.137060
4.660498
-7.254516
3.319408
-23.226752
-26.033543
-7.952009
-19.010705
-10.287796
5.529782
27.542723
25.114670
-15.162389
-30.326643
-31.947641
-30.196083
-19.119162
-15.932981
-13.642655
-22.159069
-24.421129
-35.164472
-14.364309
17.994736
29.868983
29.454486
19.680738
27.744386
19.228913
19.660693
26.191190
32.084704
30.319678
9.330014
-3.874341
0.627853
10.297136
14.457304
10.546620
13.129079
11.315731
-0.882945
3.842036
11.108985
10.527868
2.024319
0.266511
3.112236
18.177672
33.107868
44.879508
19.583465
5.578331
21.105972
4.600604
3.630394
-5.251893
-2.608245
-9.752166
-17.159037
-8.899274
-12.075075
21.706669
30.545679
31.506813
47.952275
29.013820
23.536723
24.110020
18.217159
5.154320
-21.608666
-5.902167
-9.144490
-19.831980
-11.191596
-15.423282
-4.715685
-9.011069
-23.321515
-23.120053
0.159636
-3.912334
-7.316884
-11.807442
-18.671780
-33.584692
-45.444167
-24.041851
-17.306139
-7.217640
2.435955
15.805386
2.670691
4.069555
7.151245
-0.656643
-7.123730
-10.493450
4.718524
28.012647
29.276584
23.383095
30.935274
16.863932
23.882677
7.494350
-2.116544
5.368799
-8.455281
-6.496939
7.585097
12.715173
7.032861
13.861767
15.669178
-2.236297
-14.491140
-11.887971
-13.992512
-6.751607
4.012785
8.095135
-8.510645
-15.310658
-9.165802
-11.376088
4.593048
9.209459
27.094564
28.946846
16.214109
-12.470807
-27.503585
-20.911587
-26.110357
-1.166982
5.155162
-4.416510
4.093026
9.080958
6.512958
14.774918
10.048080
9.114269
5.796010
-0.774940
0.772031
15.831192
3.056721
-11.294203
-8.828471
-5.992788
2.736084
3.934126
-1.517868
-35.353244
-27.170986
-13.007366
6.646856
-2.707363
-13.147276
-5.722494
-18.549680
-13.787045
-14.239196
-3.875194
5.918976
14.131672
17.395044
15.836489
5.648544
-0.112214
-6.523761
-3.758052
3.956982
-0.841399
-13.587943
-11.603243
-0.347464
-0.733407
1.530561
-17.950740
-12.388897
6.369471
5.290064
2.100143
3.220680
22.288753
10.271130
-1.355516
1.007922
0.316353
-3.478858
-16.731223
10.724311
24.521744
15.608079
12.740728
-2.375203
-6.863565
-11.195034
-7.460358
-1.856467
-14.510444
-20.259278
-32.445089
-39.345513
-20.410485
-3.259636
1.124261
1.078774
-2.776998
24.415584
38.544060
29.789170
28.220887
-7.056956
-21.279542
-5.598774
5.929683
6.607784
14.685866
7.016043
-9.173345
2.249994
8.209403
18.439106
20.197253
-4.466200
7.190595
6.524129
-8.582702
0.594567
-6.154612
1.731748
-4.141973
-18.149303
-19.421687
-10.864456
24.147324
29.076578
7.268250
6.356405
-2.550357
4.864698
-4.433981
-8.753840
3.227094
15.914044
30.275034
18.839796
26.913172
26.089186
20.097796
20.807589
5.865809
-11.258657
-3.546134
12.080977
23.234148
4.987589
-4.123133
-11.260150
-14.565544
-0.652011
8.775659
20.583070
23.405575
29.244804
24.221126
-1.362657
-24.082843
-11.663238
2.153650
18.934547
-1.465516
-29.725568
-50.745669
-75.337266
-80.104582
-45.866909
-13.154857
-11.042133
12.358677
6.121908
-11.447818
-15.706804
-13.657464
-4.904745
11.393551
20.735557
-1.819578
-32.630698
-26.363153
-11.916186
-4.624448
8.405469
5.824289
-2.783122
8.492111
-1.686734
4.543785
4.457193
-15.589549
-9.393232
-41.852036
-34.040984
-10.291560
-8.298702
5.649348
12.569879
-5.438518
-24.476755
-15.172717
1.825005
1.480482
9.389748
33.888490
30.955558
16.866017
18.965875
39.020486
15.941017
-1.945945
9.465157
2.732922
-4.639434
-18.021705
-27.674647
-24.362011
-40.786109
-59.442785
-34.013358
-15.654439
13.870504
37.093711
14.178038
-8.965757
-29.235599
-17.070787
1.777950
16.236841
13.500338
3.408412
9.927926
3.965719
14.903633
11.197536
-0.182162
5.405726
3.690592
9.022432
13.910267
-6.095683
-11.284412
7.109652
9.691797
9.787514
0.486952
-17.942857
-15.585067
-7.066118
-6.736318
-0.158753
-8.356362
-19.271659
0.050892
19.009140
12.247723
23.971354
49.266167
48.684737
44.018460
49.323000
44.870410
31.179061
27.725561
24.122385
19.563736
0.378333
-21.802771
-21.816251
-21.198397
-30.876755
-31.991619
-19.201120
-12.659641
-9.410703
-4.362839
-14.125919
-10.554097
-5.261166
-7.500007
-0.533977
16.705987
25.095971
27.011638
32.381446
-0.121915
2.797235
5.667121
-2.323703
1.703420
-17.724224
-17.202388
-20.874596
-31.588757
-12.442239
2.822137
3.794254
-13.899730
-40.274251
-26.673247
-34.681330
-21.084091
-3.905943
2.014556
10.097659
-0.656039
7.541909
-3.250071
8.290624
18.420230
4.478167
2.724437
-17.269902
-25.663626
-1.500006
1.844636
1.622489
-13.857432
-52.723402
-43.967231
-17.806687
0.193891
0.550049
-7.592334
3.637086
-1.717635
9.171957
12.508755
3.607641
8.463469
28.340164
25.988362
2.086463
12.102479
3.322172
10.615165
23.885754
34.630378
18.724337
-12.849280
-31.586284
-43.302046
-30.646475
-23.604509
-19.393821
-37.187903
-27.350431
-28.263532
-31.817757
-16.711528
-15.335884
8.418874
16.938138
24.635599
23.227033
19.981258
33.455807
39.853886
46.850039
48.059378
45.992491
29.035900
7.274640
12.070536
13.881713
-4.820462
-9.225043
4.137799
6.763247
8.487505
26.793395
34.247046
33.042753
26.856817
28.035091
14.068239
-7.131974
1.770734
-19.720672
-25.790194
-23.868565
-32.263858
-21.627177
-29.789014
-31.418798
-23.428890
-20.247416
-13.085271
-10.777373
-7.497056
7.152616
7.721206
16.543271
25.580907
29.314014
35.246124
32.319468
13.529120
-15.051620
-31.759694
-35.699560
-22.973388
-11.013477
-2.417650
-18.618962
-25.474828
-33.488245
-49.997379
-30.897615
1.266884
8.149133
-14.103514
-15.889877
-12.747312
-33.911754
-36.264812
-15.831776
-16.426072
-15.469016
-15.225507
-16.068320
-7.752703
14.007641
29.329126
34.136632
47.541521
31.166372
-2.444648
-11.333524
3.406518
14.656021
40.172052
35.002464
24.767766
11.110933
-10.297006
2.753306
30.581616
47.302894
30.613020
30.044141
14.010076
17.925806
29.569736
23.530337
31.199872
20.417620
-5.221704
-10.944494
-13.922924
-21.839069
-14.788003
-17.978238
-9.083375
3.835462
1.092369
-10.471834
-18.804998
-10.999908
0.487443
-0.665389
1.493775
-1.109996
-16.706645
-16.732677
-8.083507
-8.712946
-0.964651
6.727476
-6.770896
-16.406893
-25.581000
-7.999011
11.100126
-10.198615
-6.504103
8.916223
11.719273
10.769460
30.115232
33.759852
13.527664
5.983355
0.477390
0.183386
9.659065
22.978918
15.562946
-1.398352
-14.978621
-21.498738
-30.060651
-32.930511
-19.889299
2.773489
-4.323991
-15.662583
4.390145
17.260972
9.048302
19.347979
26.390572
26.231182
38.699737
44.033460
39.680653
24.525813
15.599282
13.272583
-3.941312
-29.173657
-14.660481
-6.412955
-7.382851
2.497296
2.874792
7.023977
24.081318
27.485580
39.146454
51.301539
49.483483
49.612148
39.989329
20.181378
1.395109
-10.327555
-15.307931
-10.923721
-16.503739
-14.328258
-11.785022
-18.991699
-34.704762
-28.441924
-37.436859
-51.040035
-54.682433
-50.951208
-37.900269
-31.454808
-11.145090
-5.472480
5.803067
6.727803
-14.726576
-22.652134
-10.541607
-1.736172
-4.665338
0.962087
-5.368504
-16.862420
-17.057268
-17.273766
-0.558764
14.088084
33.605496
28.385388
20.701131
8.944578
-3.016563
-1.816325
-12.088677
-4.147405
-18.862006
-23.682038
-24.861227
-27.525873
-13.840461
4.668447
-2.037744
-22.832234
-7.067999
11.316651
5.436968
-12.696001
-11.684661
-1.442407
5.144258
0.107400
-18.018979
-16.761632
-15.926953
-4.136799
14.288642
7.221913
-1.336234
-7.523426
-0.066951
14.159426
38.458914
36.972843
27.177757
30.382138
23.131844
17.894793
23.446909
32.491448
40.672765
40.182018
14.377017
24.172442
24.180927
18.330426
14.906422
5.050461
-6.206861
-25.297187
-19.414969
-23.089374
-15.904636
-11.395540
1.850888
24.214326
16.651189
-0.755683
10.026281
30.075872
11.685913
11.116720
-1.068149
-15.248061
7.007121
4.390485
1.591853
10.868906
15.877861
-2.590858
7.462184
25.237778
27.658639
31.509101
19.817815
6.336074
2.606130
0.831377
-11.890064
6.566129
3.446181
9.147346
12.977726
4.407027
23.057453
12.129290
13.078815
12.307859
6.284777
19.668015
15.922695
9.312522
4.953439
-1.682150
6.643194
4.939357
3.307062
5.092509
-11.528019
-18.816594
-16.561726
2.144867
-12.961023
-28.191171
-17.006622
-19.403924
-17.335757
-19.345535
-20.607877
-22.059746
-7.927191
-12.710196
-24.901969
-20.154396
0.851924
10.824010
24.014897
23.860528
2.247060
10.597194
0.399836
-0.984256
-4.035798
-15.414241
-15.141236
-32.168114
-47.571158
-34.545635
-26.930699
-33.681761
-32.014925
-27.995960
-29.316980
-7.623472
4.714863
-10.582749
-21.187400
-36.875987
-22.934213
-16.162730
-6.194409
6.152398
-1.846272
-15.233877
-18.243686
-12.927222
